14926KSTC STC20170401000010604/01/17 00:00:31  5-MIN KSTC 010600Z 32004KT 10SM CLR 01/M02 A3014 820 78 -600 320/04 RMK AO2 T00111022 $
14926KSTC STC20170401000510604/01/17 00:05:31  5-MIN KSTC 010605Z 33004KT 10SM CLR 01/M02 A3014 820 82 -600 330/04 RMK AO2 T00061022 $
14926KSTC STC20170401001010604/01/17 00:10:31  5-MIN KSTC 010610Z 34003KT 10SM CLR 01/M02 A3014 820 78 -600 340/03 RMK AO2 T00111022 $
14926KSTC STC20170401001510604/01/17 00:15:31  5-MIN KSTC 010615Z 00000KT 10SM CLR 01/M02 A3014 820 82 -700 000/00 RMK AO2 T00061022 $
14926KSTC STC20170401002010604/01/17 00:20:31  5-MIN KSTC 010620Z 00000KT 10SM CLR 01/M02 A3014 820 82 -600 000/00 RMK AO2 T00111017 $
14926KSTC STC20170401002510604/01/17 00:25:31  5-MIN KSTC 010625Z 00000KT 10SM CLR 02/M02 A3014 820 78 -500 000/00 RMK AO2 T00171017 $
14926KSTC STC20170401003010604/01/17 00:30:31  5-MIN KSTC 010630Z 00000KT 10SM CLR 01/M02 A3014 820 82 -600 000/00 RMK AO2 T00111017 $
14926KSTC STC20170401003510604/01/17 00:35:31  5-MIN KSTC 010635Z 00000KT 10SM CLR 01/M02 A3014 820 82 -600 000/00 RMK AO2 T00111017 $
14926KSTC STC20170401004010604/01/17 00:40:31  5-MIN KSTC 010640Z 00000KT 10SM CLR 01/M02 A3014 820 82 -600 000/00 RMK AO2 T00111017 $
14926KSTC STC20170401004510604/01/17 00:45:31  5-MIN KSTC 010645Z 00000KT 10SM CLR 01/M02 A3014 820 85 -600 000/00 RMK AO2 T00061017 $
14926KSTC STC20170401005011304/01/17 00:50:31  5-MIN KSTC 010650Z 34003KT 10SM CLR 01/M02 A3014 820 85 -700 340/03 RMK AO2 SLP223 T00061017 $
14926KSTC STC20170401005510604/01/17 00:55:31  5-MIN KSTC 010655Z 33003KT 10SM CLR 01/M01 A3015 820 85 -600 330/03 RMK AO2 T00111011 $
14926KSTC STC20170401010010604/01/17 01:00:31  5-MIN KSTC 010700Z 32004KT 10SM CLR 01/M02 A3015 820 85 -700 320/04 RMK AO2 T00061017 $
14926KSTC STC20170401010510604/01/17 01:05:31  5-MIN KSTC 010705Z 32003KT 10SM CLR 01/M02 A3015 820 85 -700 320/03 RMK AO2 T00061017 $
14926KSTC STC20170401011010604/01/17 01:10:31  5-MIN KSTC 010710Z 31003KT 10SM CLR 01/M01 A3015 820 85 -600 310/03 RMK AO2 T00111011 $
14926KSTC STC20170401011510604/01/17 01:15:31  5-MIN KSTC 010715Z 32003KT 10SM CLR 01/M01 A3015 820 85 -600 320/03 RMK AO2 T00111011 $
14926KSTC STC20170401012010604/01/17 01:20:31  5-MIN KSTC 010720Z 31003KT 10SM CLR 02/M01 A3015 810 82 -500 310/03 RMK AO2 T00171011 $
14926KSTC STC20170401012510604/01/17 01:25:31  5-MIN KSTC 010725Z 31004KT 10SM CLR 01/M02 A3015 810 82 -600 310/04 RMK AO2 T00111017 $
14926KSTC STC20170401013010604/01/17 01:30:31  5-MIN KSTC 010730Z 32004KT 10SM CLR 01/M02 A3015 820 82 -600 320/04 RMK AO2 T00111017 $
14926KSTC STC20170401013510604/01/17 01:35:31  5-MIN KSTC 010735Z 00000KT 10SM CLR 01/M02 A3015 810 82 -600 000/00 RMK AO2 T00111017 $
14926KSTC STC20170401014010604/01/17 01:40:31  5-MIN KSTC 010740Z 00000KT 10SM CLR 02/M02 A3015 820 78 -500 000/00 RMK AO2 T00171017 $
14926KSTC STC20170401014510604/01/17 01:45:31  5-MIN KSTC 010745Z 00000KT 10SM CLR 02/M02 A3015 820 78 -500 000/00 RMK AO2 T00171017 $
14926KSTC STC20170401015011304/01/17 01:50:31  5-MIN KSTC 010750Z 00000KT 10SM CLR 02/M02 A3015 810 78 -500 000/00 RMK AO2 SLP225 T00171017 $
14926KSTC STC20170401015510604/01/17 01:55:31  5-MIN KSTC 010755Z 00000KT 10SM CLR 01/M02 A3015 810 82 -600 000/00 RMK AO2 T00111017 $
14926KSTC STC20170401020010604/01/17 02:00:31  5-MIN KSTC 010800Z 00000KT 10SM CLR 02/M02 A3015 810 78 -500 000/00 RMK AO2 T00171017 $
14926KSTC STC20170401020510604/01/17 02:05:31  5-MIN KSTC 010805Z 00000KT 10SM CLR 01/M02 A3015 810 82 -600 000/00 RMK AO2 T00111017 $
14926KSTC STC20170401021010604/01/17 02:10:31  5-MIN KSTC 010810Z 00000KT 10SM CLR 01/M02 A3015 810 82 -600 000/00 RMK AO2 T00111017 $
14926KSTC STC20170401021510604/01/17 02:15:31  5-MIN KSTC 010815Z 00000KT 10SM CLR 01/M02 A3015 810 82 -600 000/00 RMK AO2 T00111017 $
14926KSTC STC20170401022010604/01/17 02:20:31  5-MIN KSTC 010820Z 36003KT 10SM CLR 01/M01 A3016 810 85 -600 360/03 RMK AO2 T00111011 $
14926KSTC STC20170401022510604/01/17 02:25:31  5-MIN KSTC 010825Z 36003KT 10SM CLR 01/M02 A3016 810 82 -600 360/03 RMK AO2 T00111017 $
14926KSTC STC20170401023010604/01/17 02:30:31  5-MIN KSTC 010830Z 36003KT 10SM CLR 01/M02 A3016 810 82 -600 350/03 RMK AO2 T00111017 $
14926KSTC STC20170401023510604/01/17 02:35:31  5-MIN KSTC 010835Z 35003KT 10SM CLR 01/M02 A3016 810 85 -700 350/03 RMK AO2 T00061017 $
14926KSTC STC20170401024010604/01/17 02:40:31  5-MIN KSTC 010840Z 35003KT 10SM CLR 01/M02 A3016 810 85 -700 350/03 RMK AO2 T00061017 $
14926KSTC STC20170401024510604/01/17 02:45:31  5-MIN KSTC 010845Z 35003KT 10SM CLR 01/M02 A3016 810 85 -700 350/03 RMK AO2 T00061017 $
14926KSTC STC20170401025011904/01/17 02:50:31  5-MIN KSTC 010850Z 34003KT 10SM CLR 01/M02 A3016 810 85 -700 340/03 RMK AO2 SLP228 T00061017 51014 $
14926KSTC STC20170401025510604/01/17 02:55:31  5-MIN KSTC 010855Z 34003KT 10SM CLR 00/M02 A3016 800 88 -700 340/03 RMK AO2 T00001017 $
14926KSTC STC20170401030010604/01/17 03:00:31  5-MIN KSTC 010900Z 00000KT 10SM CLR 00/M02 A3016 800 85 -700 000/00 RMK AO2 T00001022 $
14926KSTC STC20170401030510604/01/17 03:05:31  5-MIN KSTC 010905Z 00000KT 10SM CLR 01/M02 A3016 800 82 -700 000/00 RMK AO2 T00061022 $
14926KSTC STC20170401031010604/01/17 03:10:31  5-MIN KSTC 010910Z 00000KT 10SM CLR 01/M02 A3016 800 82 -700 000/00 RMK AO2 T00061022 $
14926KSTC STC20170401031510604/01/17 03:15:31  5-MIN KSTC 010915Z 00000KT 10SM CLR 01/M02 A3017 800 85 -700 000/00 RMK AO2 T00061017 $
14926KSTC STC20170401032010604/01/17 03:20:31  5-MIN KSTC 010920Z 00000KT 10SM CLR 01/M02 A3017 800 82 -700 000/00 RMK AO2 T00061022 $
14926KSTC STC20170401032510604/01/17 03:25:31  5-MIN KSTC 010925Z 00000KT 10SM CLR 00/M02 A3017 800 85 -800 000/00 RMK AO2 T00001022 $
14926KSTC STC20170401033010604/01/17 03:30:31  5-MIN KSTC 010930Z 00000KT 10SM CLR 01/M02 A3017 800 82 -700 000/00 RMK AO2 T00061022 $
14926KSTC STC20170401033510704/01/17 03:35:31  5-MIN KSTC 010935Z 00000KT 10SM CLR M01/M02 A3017 790 88 -800 000/00 RMK AO2 T10061022 $
14926KSTC STC20170401034010704/01/17 03:40:31  5-MIN KSTC 010940Z 00000KT 10SM CLR M01/M02 A3017 790 88 -800 000/00 RMK AO2 T10061022 $
14926KSTC STC20170401034510604/01/17 03:45:31  5-MIN KSTC 010945Z 00000KT 10SM CLR 00/M02 A3017 790 85 -800 000/00 RMK AO2 T00001022 $
14926KSTC STC20170401035011304/01/17 03:50:31  5-MIN KSTC 010950Z 00000KT 10SM CLR 00/M02 A3017 790 85 -800 000/00 RMK AO2 SLP233 T00001022 $
14926KSTC STC20170401035510604/01/17 03:55:31  5-MIN KSTC 010955Z 00000KT 10SM CLR 00/M02 A3017 790 85 -800 000/00 RMK AO2 T00001022 $
14926KSTC STC20170401040010604/01/17 04:00:31  5-MIN KSTC 011000Z 31003KT 10SM CLR 00/M02 A3017 790 85 -800 300/03 RMK AO2 T00001022 $
14926KSTC STC20170401040510604/01/17 04:05:31  5-MIN KSTC 011005Z 00000KT 10SM CLR 00/M02 A3017 790 85 -800 000/00 RMK AO2 T00001022 $
14926KSTC STC20170401041010704/01/17 04:10:31  5-MIN KSTC 011010Z 00000KT 10SM CLR M01/M02 A3017 790 88 -800 000/00 RMK AO2 T10061022 $
14926KSTC STC20170401041510604/01/17 04:15:31  5-MIN KSTC 011015Z 00000KT 10SM CLR 00/M02 A3017 800 88 -800 000/00 RMK AO2 T00001017 $
14926KSTC STC20170401042010604/01/17 04:20:31  5-MIN KSTC 011020Z 00000KT 10SM CLR 00/M02 A3017 790 88 -800 000/00 RMK AO2 T00001017 $
14926KSTC STC20170401042510604/01/17 04:25:31  5-MIN KSTC 011025Z 00000KT 10SM CLR 00/M02 A3017 800 88 -800 000/00 RMK AO2 T00001017 $
14926KSTC STC20170401043010604/01/17 04:30:31  5-MIN KSTC 011030Z 00000KT 10SM CLR 00/M02 A3017 800 88 -800 000/00 RMK AO2 T00001017 $
14926KSTC STC20170401043510604/01/17 04:35:31  5-MIN KSTC 011035Z 00000KT 10SM CLR 00/M02 A3017 790 85 -800 000/00 RMK AO2 T00001022 $
14926KSTC STC20170401044010704/01/17 04:40:31  5-MIN KSTC 011040Z 00000KT 10SM CLR M01/M02 A3017 790 88 -800 000/00 RMK AO2 T10061022 $
14926KSTC STC20170401044510704/01/17 04:45:31  5-MIN KSTC 011045Z 00000KT 10SM CLR M01/M03 A3017 790 85 -800 000/00 RMK AO2 T10061028 $
14926KSTC STC20170401045011404/01/17 04:50:31  5-MIN KSTC 011050Z 00000KT 10SM CLR M01/M03 A3017 790 85 -800 000/00 RMK AO2 SLP233 T10061028 $
14926KSTC STC20170401045510704/01/17 04:55:31  5-MIN KSTC 011055Z 00000KT 10SM CLR M01/M02 A3017 790 88 -800 000/00 RMK AO2 T10061022 $
14926KSTC STC20170401050010704/01/17 05:00:31  5-MIN KSTC 011100Z 00000KT 10SM CLR M01/M03 A3017 790 85 -800 000/00 RMK AO2 T10061028 $
14926KSTC STC20170401050510604/01/17 05:05:31  5-MIN KSTC 011105Z 00000KT 10SM CLR 00/M03 A3018 790 81 -800 000/00 RMK AO2 T00001028 $
14926KSTC STC20170401051010604/01/17 05:10:31  5-MIN KSTC 011110Z 00000KT 10SM CLR 00/M03 A3018 790 81 -800 000/00 RMK AO2 T00001028 $
14926KSTC STC20170401051510704/01/17 05:15:31  5-MIN KSTC 011115Z 00000KT 10SM CLR M01/M03 A3018 790 88 -900 000/00 RMK AO2 T10111028 $
14926KSTC STC20170401052011204/01/17 05:20:31  5-MIN KSTC 011120Z AUTO 00000KT 10SM CLR M01/M03 A3018 790 88 -900 000/00 RMK AO2 T10111028 $
14926KSTC STC20170401052511204/01/17 05:25:31  5-MIN KSTC 011125Z AUTO 00000KT 10SM CLR M01/M03 A3018 790 88 -900 000/00 RMK AO2 T10111028 $
14926KSTC STC20170401053011204/01/17 05:30:31  5-MIN KSTC 011130Z AUTO 00000KT 10SM CLR M01/M03 A3018 790 88 -900 000/00 RMK AO2 T10111028 $
14926KSTC STC20170401053511204/01/17 05:35:31  5-MIN KSTC 011135Z AUTO 00000KT 10SM CLR M01/M03 A3018 790 85 -800 000/00 RMK AO2 T10061028 $
14926KSTC STC20170401054011204/01/17 05:40:31  5-MIN KSTC 011140Z AUTO 00000KT 10SM CLR M01/M03 A3018 790 85 -800 000/00 RMK AO2 T10061028 $
14926KSTC STC20170401054510704/01/17 05:45:31  5-MIN KSTC 011145Z 00000KT 10SM CLR M01/M03 A3018 780 88 -900 000/00 RMK AO2 T10111028 $
14926KSTC STC20170401055013204/01/17 05:50:31  5-MIN KSTC 011150Z 00000KT 10SM CLR M01/M03 A3018 780 85 -900 000/00 RMK AO2 SLP238 T10111033 10017 21011 53006 $
14926KSTC STC20170401055510704/01/17 05:55:31  5-MIN KSTC 011155Z 00000KT 10SM CLR M01/M03 A3018 780 88 -900 000/00 RMK AO2 T10111028 $
14926KSTC STC20170401060010704/01/17 06:00:31  5-MIN KSTC 011200Z 00000KT 10SM CLR M01/M03 A3018 780 88 -900 000/00 RMK AO2 T10111028 $
14926KSTC STC20170401060510704/01/17 06:05:31  5-MIN KSTC 011205Z 00000KT 10SM CLR M01/M03 A3018 780 88 -900 000/00 RMK AO2 T10111028 $
14926KSTC STC20170401061010804/01/17 06:10:31  5-MIN KSTC 011210Z 00000KT 10SM CLR M02/M03 A3018 780 92 -1000 000/00 RMK AO2 T10171028 $
14926KSTC STC20170401061510804/01/17 06:15:31  5-MIN KSTC 011215Z 00000KT 10SM CLR M02/M02 A3019 780 96 -1000 000/00 RMK AO2 T10171022 $
14926KSTC STC20170401062010704/01/17 06:20:31  5-MIN KSTC 011220Z 00000KT 10SM CLR M01/M02 A3019 780 92 -900 000/00 RMK AO2 T10111022 $
14926KSTC STC20170401062510704/01/17 06:25:31  5-MIN KSTC 011225Z 16003KT 10SM CLR M01/M02 A3019 780 96 -900 160/03 RMK AO2 T10111017 $
14926KSTC STC20170401063010704/01/17 06:30:31  5-MIN KSTC 011230Z 00000KT 10SM CLR M01/M02 A3019 770 96 -900 000/00 RMK AO2 T10111017 $
14926KSTC STC20170401063509704/01/17 06:35:31  5-MIN KSTC 011235Z 10SM CLR M01/M02 A3020 770 92 -900 M /M RMK AO2 T10111022 $
14926KSTC STC20170401064010704/01/17 06:40:31  5-MIN KSTC 011240Z 00000KT 10SM CLR M01/M02 A3020 770 92 -900 000/00 RMK AO2 T10061017 $
14926KSTC STC20170401064510604/01/17 06:45:31  5-MIN KSTC 011245Z 00000KT 10SM CLR 00/M02 A3020 770 88 -800 000/00 RMK AO2 T00001017 $
14926KSTC STC20170401065011304/01/17 06:50:31  5-MIN KSTC 011250Z 00000KT 10SM CLR 00/M01 A3020 770 92 -800 000/00 RMK AO2 SLP244 T00001011 $
14926KSTC STC20170401065510604/01/17 06:55:31  5-MIN KSTC 011255Z 00000KT 10SM CLR 01/M01 A3020 770 89 -700 000/00 RMK AO2 T00061011 $
14926KSTC STC20170401070010604/01/17 07:00:31  5-MIN KSTC 011300Z 00000KT 10SM CLR 01/M01 A3020 770 85 -600 000/00 RMK AO2 T00111011 $
14926KSTC STC20170401070510604/01/17 07:05:31  5-MIN KSTC 011305Z 00000KT 10SM CLR 01/M01 A3020 770 85 -600 000/00 RMK AO2 T00111011 $
14926KSTC STC20170401071010604/01/17 07:10:31  5-MIN KSTC 011310Z 00000KT 10SM CLR 02/M01 A3019 770 85 -600 000/00 RMK AO2 T00171006 $
14926KSTC STC20170401071510604/01/17 07:15:31  5-MIN KSTC 011315Z 00000KT 10SM CLR 02/M01 A3019 770 82 -500 000/00 RMK AO2 T00221006 $
14926KSTC STC20170401072010504/01/17 07:20:31  5-MIN KSTC 011320Z 00000KT 10SM CLR 02/00 A3020 770 85 -500 000/00 RMK AO2 T00220000 $
14926KSTC STC20170401072510504/01/17 07:25:31  5-MIN KSTC 011325Z 00000KT 10SM CLR 03/00 A3020 770 82 -400 000/00 RMK AO2 T00280000 $
14926KSTC STC20170401073010504/01/17 07:30:31  5-MIN KSTC 011330Z 00000KT 10SM CLR 03/00 A3020 770 79 -400 000/00 RMK AO2 T00330000 $
14926KSTC STC20170401073510504/01/17 07:35:31  5-MIN KSTC 011335Z 00000KT 10SM CLR 04/00 A3020 770 76 -300 000/00 RMK AO2 T00390000 $
14926KSTC STC20170401074010504/01/17 07:40:31  5-MIN KSTC 011340Z 00000KT 10SM CLR 04/01 A3020 770 79 -300 000/00 RMK AO2 T00390006 $
14926KSTC STC20170401074510504/01/17 07:45:31  5-MIN KSTC 011345Z 17004KT 10SM CLR 04/01 A3020 770 76 -200 170/04 RMK AO2 T00440006 $
14926KSTC STC20170401075011204/01/17 07:50:31  5-MIN KSTC 011350Z 19004KT 10SM CLR 05/01 A3020 770 73 -200 190/04 RMK AO2 SLP242 T00500006 $
14926KSTC STC20170401075510504/01/17 07:55:31  5-MIN KSTC 011355Z 20004KT 10SM CLR 05/00 A3020 770 70 -200 200/04 RMK AO2 T00500000 $
14926KSTC STC20170401080010604/01/17 08:00:31  5-MIN KSTC 011400Z 20004KT 10SM CLR 05/M01 A3020 770 67 -200 200/04 RMK AO2 T00501006 $
14926KSTC STC20170401080510604/01/17 08:05:31  5-MIN KSTC 011405Z 21004KT 10SM CLR 05/M01 A3020 770 67 -200 210/04 RMK AO2 T00501006 $
14926KSTC STC20170401081010604/01/17 08:10:31  5-MIN KSTC 011410Z 20004KT 10SM CLR 06/M01 A3020 770 65 -100 190/04 RMK AO2 T00561006 $
14926KSTC STC20170401081510204/01/17 08:15:31  5-MIN KSTC 011415Z 19005KT 10SM CLR 06/00 A3020 770 65 0 190/05 RMK AO2 T00610000 $
14926KSTC STC20170401082010204/01/17 08:20:31  5-MIN KSTC 011420Z 18006KT 10SM CLR 06/01 A3020 770 67 0 180/06 RMK AO2 T00610006 $
14926KSTC STC20170401082510204/01/17 08:25:31  5-MIN KSTC 011425Z 18005KT 10SM CLR 07/01 A3020 770 65 0 180/05 RMK AO2 T00670006 $
14926KSTC STC20170401083010404/01/17 08:30:31  5-MIN KSTC 011430Z 20004KT 10SM CLR 07/01 A3020 770 62 100 200/04 RMK AO2 T00720006 $
14926KSTC STC20170401083510404/01/17 08:35:31  5-MIN KSTC 011435Z 19004KT 10SM CLR 08/01 A3020 770 60 100 190/04 RMK AO2 T00780006 $
14926KSTC STC20170401084010404/01/17 08:40:31  5-MIN KSTC 011440Z 18005KT 10SM CLR 08/01 A3020 770 60 100 180/05 RMK AO2 T00780006 $
14926KSTC STC20170401084510404/01/17 08:45:31  5-MIN KSTC 011445Z 18004KT 10SM CLR 08/01 A3020 770 58 200 180/04 RMK AO2 T00830006 $
14926KSTC STC20170401085011704/01/17 08:50:31  5-MIN KSTC 011450Z 20004KT 10SM CLR 09/01 A3021 760 56 200 200/04 RMK AO2 SLP246 T00890006 51008 $
14926KSTC STC20170401085510404/01/17 08:55:31  5-MIN KSTC 011455Z 29005KT 10SM CLR 09/01 A3021 760 53 300 290/05 RMK AO2 T00940006 $
14926KSTC STC20170401090010704/01/17 09:00:31  5-MIN KSTC 011500Z 00000KT 10SM FEW120 09/01 A3022 750 53 300 000/00 RMK AO2 T00940006 $
14926KSTC STC20170401090510704/01/17 09:05:31  5-MIN KSTC 011505Z 24004KT 10SM SCT110 10/00 A3022 750 49 400 240/04 RMK AO2 T01000000 $
14926KSTC STC20170401091010704/01/17 09:10:31  5-MIN KSTC 011510Z 00000KT 10SM BKN110 10/00 A3022 750 49 400 000/00 RMK AO2 T01000000 $
14926KSTC STC20170401091510704/01/17 09:15:31  5-MIN KSTC 011515Z 24003KT 10SM BKN110 11/00 A3022 750 48 400 240/03 RMK AO2 T01060000 $
14926KSTC STC20170401092010804/01/17 09:20:31  5-MIN KSTC 011520Z 25003KT 10SM BKN110 11/M01 A3022 750 46 400 250/03 RMK AO2 T01061006 $
14926KSTC STC20170401092510704/01/17 09:25:31  5-MIN KSTC 011525Z 25003KT 10SM OVC110 11/00 A3022 750 48 400 250/03 RMK AO2 T01060000 $
14926KSTC STC20170401093011504/01/17 09:30:31  5-MIN KSTC 011530Z 24005KT 10SM FEW095 OVC110 11/M01 A3022 750 44 500 240/05 RMK AO2 T01111006 $
14926KSTC STC20170401093512204/01/17 09:35:31  5-MIN KSTC 011535Z 24004KT 10SM FEW070 SCT095 OVC110 12/M01 A3022 750 41 600 240/04 RMK AO2 T01171011 $
14926KSTC STC20170401094012204/01/17 09:40:31  5-MIN KSTC 011540Z 26003KT 10SM FEW070 BKN095 OVC110 12/M01 A3022 750 41 600 260/03 RMK AO2 T01171011 $
14926KSTC STC20170401094511504/01/17 09:45:31  5-MIN KSTC 011545Z 00000KT 10SM FEW070 OVC110 12/M01 A3021 760 41 600 000/00 RMK AO2 T01221006 $
14926KSTC STC20170401095012204/01/17 09:50:31  5-MIN KSTC 011550Z 28003KT 10SM FEW070 OVC110 13/M01 A3021 760 38 700 280/03 RMK AO2 SLP244 T01281011 $
14926KSTC STC20170401095511504/01/17 09:55:31  5-MIN KSTC 011555Z 29004KT 10SM FEW070 BKN100 13/M01 A3021 760 38 700 290/04 RMK AO2 T01281011 $
14926KSTC STC20170401100011504/01/17 10:00:31  5-MIN KSTC 011600Z VRB04KT 10SM FEW070 BKN100 13/M01 A3021 760 38 800 VRB/04 RMK AO2 T01331006 $
14926KSTC STC20170401100510804/01/17 10:05:31  5-MIN KSTC 011605Z 35004KT 10SM BKN100 13/M01 A3021 760 38 800 350/04 RMK AO2 T01331006 $
14926KSTC STC20170401101010804/01/17 10:10:31  5-MIN KSTC 011610Z 30004KT 10SM SCT110 14/M01 A3021 760 35 800 290/04 RMK AO2 T01391011 $
14926KSTC STC20170401101510804/01/17 10:15:31  5-MIN KSTC 011615Z VRB03KT 10SM FEW110 14/M01 A3020 770 37 900 VRB/03 RMK AO2 T01391006 $
14926KSTC STC20170401102010804/01/17 10:20:31  5-MIN KSTC 011620Z 34008KT 10SM FEW110 14/M01 A3020 770 34 900 340/08 RMK AO2 T01441011 $
14926KSTC STC20170401102510504/01/17 10:25:31  5-MIN KSTC 011625Z 35006KT 10SM CLR 14/M01 A3020 770 34 900 340/06 RMK AO2 T01441011 $
14926KSTC STC20170401103010504/01/17 10:30:31  5-MIN KSTC 011630Z 32008KT 10SM CLR 14/M01 A3020 770 35 900 320/08 RMK AO2 T01391011 $
14926KSTC STC20170401103510504/01/17 10:35:31  5-MIN KSTC 011635Z 35009KT 10SM CLR 14/M01 A3020 770 35 900 350/09 RMK AO2 T01391011 $
14926KSTC STC20170401104010504/01/17 10:40:31  5-MIN KSTC 011640Z 32008KT 10SM CLR 14/M01 A3020 770 37 900 320/08 RMK AO2 T01391006 $
14926KSTC STC20170401104510504/01/17 10:45:31  5-MIN KSTC 011645Z 32009KT 10SM CLR 14/M01 A3020 760 37 900 320/09 RMK AO2 T01391006 $
14926KSTC STC20170401105011204/01/17 10:50:31  5-MIN KSTC 011650Z 32008KT 10SM CLR 14/M01 A3020 760 35 900 320/08 RMK AO2 SLP243 T01441006 $
14926KSTC STC20170401105512404/01/17 10:55:31  5-MIN KSTC 011655Z 33007KT 280V030 10SM FEW110 14/M01 A3020 770 35 900 330/07 280V030 RMK AO2 T01441006 $
14926KSTC STC20170401110010904/01/17 11:00:31  5-MIN KSTC 011700Z VRB05KT 10SM SCT110 15/M01 A3020 760 34 1000 VRB/05 RMK AO2 T01501006 $
14926KSTC STC20170401110510804/01/17 11:05:31  5-MIN KSTC 011705Z 35007KT 10SM BKN110 15/01 A3020 770 38 1000 340/07 RMK AO2 T01500011 $
14926KSTC STC20170401111010704/01/17 11:10:31  5-MIN KSTC 011710Z 34008KT 10SM SCT110 14/01 A3020 770 40 900 340/08 RMK AO2 T01440011 $
14926KSTC STC20170401111510704/01/17 11:15:31  5-MIN KSTC 011715Z 34007KT 10SM SCT110 14/02 A3020 770 41 900 340/07 RMK AO2 T01440017 $
14926KSTC STC20170401112011404/01/17 11:20:31  5-MIN KSTC 011720Z 35006KT 10SM SCT075 BKN110 14/02 A3020 770 45 900 350/06 RMK AO2 T01390022 $
14926KSTC STC20170401112511404/01/17 11:25:31  5-MIN KSTC 011725Z 36009KT 10SM BKN075 BKN110 14/02 A3020 760 43 900 360/09 RMK AO2 T01440022 $
14926KSTC STC20170401113011404/01/17 11:30:31  5-MIN KSTC 011730Z 32009KT 10SM BKN075 BKN110 14/03 A3020 760 47 900 320/09 RMK AO2 T01390028 $
14926KSTC STC20170401113510704/01/17 11:35:31  5-MIN KSTC 011735Z 33009KT 10SM BKN075 14/04 A3020 770 50 900 330/09 RMK AO2 T01390039 $
14926KSTC STC20170401114010704/01/17 11:40:31  5-MIN KSTC 011740Z 32009KT 10SM OVC075 14/04 A3020 770 50 900 320/09 RMK AO2 T01390039 $
14926KSTC STC20170401114510704/01/17 11:45:31  5-MIN KSTC 011745Z 32007KT 10SM OVC075 14/04 A3020 770 50 900 320/07 RMK AO2 T01390039 $
14926KSTC STC20170401115013204/01/17 11:50:31  5-MIN KSTC 011750Z 34006KT 10SM OVC070 14/03 A3020 770 48 900 340/06 RMK AO2 SLP241 T01390033 10150 21017 53009 $
14926KSTC STC20170401115510704/01/17 11:55:31  5-MIN KSTC 011755Z 33009KT 10SM OVC070 14/04 A3020 770 49 900 330/09 RMK AO2 T01440039 $
14926KSTC STC20170401120010704/01/17 12:00:31  5-MIN KSTC 011800Z 31009KT 10SM OVC070 14/03 A3020 770 48 900 310/09 RMK AO2 T01390033 $
14926KSTC STC20170401120510704/01/17 12:05:31  5-MIN KSTC 011805Z 33005KT 10SM OVC070 14/03 A3020 770 48 900 330/05 RMK AO2 T01390033 $
14926KSTC STC20170401121010704/01/17 12:10:31  5-MIN KSTC 011810Z 35007KT 10SM OVC070 14/03 A3020 770 48 900 350/07 RMK AO2 T01390033 $
14926KSTC STC20170401121510704/01/17 12:15:31  5-MIN KSTC 011815Z 36007KT 10SM OVC070 14/04 A3019 780 50 900 360/07 RMK AO2 T01390039 $
14926KSTC STC20170401122010704/01/17 12:20:31  5-MIN KSTC 011820Z VRB06KT 10SM OVC070 14/04 A3019 780 50 900 VRB/06 RMK AO2 T01390039 $
14926KSTC STC20170401122510704/01/17 12:25:31  5-MIN KSTC 011825Z 01006KT 10SM OVC070 14/04 A3019 780 50 900 360/06 RMK AO2 T01390039 $
14926KSTC STC20170401123010704/01/17 12:30:31  5-MIN KSTC 011830Z 32004KT 10SM OVC070 14/03 A3019 780 47 900 320/04 RMK AO2 T01390028 $
14926KSTC STC20170401123510704/01/17 12:35:31  5-MIN KSTC 011835Z VRB04KT 10SM OVC070 14/03 A3019 780 45 900 VRB/04 RMK AO2 T01440028 $
14926KSTC STC20170401124010704/01/17 12:40:31  5-MIN KSTC 011840Z 02004KT 10SM OVC070 14/03 A3018 780 47 900 020/04 RMK AO2 T01440033 $
14926KSTC STC20170401124510804/01/17 12:45:31  5-MIN KSTC 011845Z VRB05KT 10SM OVC070 15/03 A3018 780 45 1000 VRB/05 RMK AO2 T01500033 $
14926KSTC STC20170401125012104/01/17 12:50:31  5-MIN KSTC 011850Z 34005G14KT 10SM OVC070 16/03 A3018 790 43 1100 340/05G14 RMK AO2 SLP234 T01560033 $
14926KSTC STC20170401125513004/01/17 12:55:31  5-MIN KSTC 011855Z 31008G14KT 280V020 10SM OVC070 16/04 A3018 790 45 1100 310/08G14 280V020 RMK AO2 T01560039 $
14926KSTC STC20170401130010804/01/17 13:00:31  5-MIN KSTC 011900Z 33007KT 10SM OVC070 15/04 A3018 790 47 1000 330/07 RMK AO2 T01500039 $
14926KSTC STC20170401130511404/01/17 13:05:31  5-MIN KSTC 011905Z 34009G15KT 10SM OVC070 15/04 A3017 790 47 1000 340/09G15 RMK AO2 T01500039 $
14926KSTC STC20170401131011404/01/17 13:10:31  5-MIN KSTC 011910Z 32009G15KT 10SM OVC070 15/04 A3017 790 47 1000 320/09G15 RMK AO2 T01500039 $
14926KSTC STC20170401131510804/01/17 13:15:31  5-MIN KSTC 011915Z 31010KT 10SM OVC070 15/04 A3017 790 47 1000 310/10 RMK AO2 T01500039 $
14926KSTC STC20170401132010804/01/17 13:20:31  5-MIN KSTC 011920Z 30009KT 10SM OVC070 15/04 A3017 790 47 1000 300/09 RMK AO2 T01500039 $
14926KSTC STC20170401132510804/01/17 13:25:31  5-MIN KSTC 011925Z 34008KT 10SM OVC070 15/04 A3017 800 47 1000 340/08 RMK AO2 T01500039 $
14926KSTC STC20170401133010804/01/17 13:30:31  5-MIN KSTC 011930Z 33006KT 10SM OVC070 14/04 A3017 800 49 1000 330/06 RMK AO2 T01440039 $
14926KSTC STC20170401133510804/01/17 13:35:31  5-MIN KSTC 011935Z 36008KT 10SM OVC070 16/04 A3016 800 45 1100 360/08 RMK AO2 T01560039 $
14926KSTC STC20170401134010804/01/17 13:40:31  5-MIN KSTC 011940Z 29007KT 10SM OVC070 15/04 A3016 800 47 1000 290/07 RMK AO2 T01500039 $
14926KSTC STC20170401134510804/01/17 13:45:31  5-MIN KSTC 011945Z 32007KT 10SM OVC070 15/04 A3016 800 47 1000 320/07 RMK AO2 T01500039 $
14926KSTC STC20170401135012204/01/17 13:50:31  5-MIN KSTC 011950Z VRB05KT 10SM FEW047 OVC070 15/04 A3016 800 47 1000 VRB/05 RMK AO2 SLP228 T01500039 $
14926KSTC STC20170401135512204/01/17 13:55:31  5-MIN KSTC 011955Z VRB06KT 10SM FEW047 SCT060 OVC070 16/04 A3016 810 47 1100 VRB/06 RMK AO2 T01560044 $
14926KSTC STC20170401140011504/01/17 14:00:31  5-MIN KSTC 012000Z 29008KT 10SM FEW047 OVC070 16/04 A3015 810 45 1100 290/08 RMK AO2 T01560039 $
14926KSTC STC20170401140512204/01/17 14:05:31  5-MIN KSTC 012005Z 33008KT 10SM FEW047 FEW060 OVC070 16/04 A3015 810 45 1100 330/08 RMK AO2 T01560039 $
14926KSTC STC20170401141012204/01/17 14:10:31  5-MIN KSTC 012010Z 32008KT 10SM FEW047 SCT060 BKN070 15/04 A3015 820 47 1000 320/08 RMK AO2 T01500039 $
14926KSTC STC20170401141511504/01/17 14:15:31  5-MIN KSTC 012015Z 34008KT 10SM FEW050 OVC065 15/04 A3015 820 47 1000 340/08 RMK AO2 T01500039 $
14926KSTC STC20170401142011504/01/17 14:20:31  5-MIN KSTC 012020Z 28005KT 10SM FEW048 OVC060 15/04 A3014 820 47 1100 270/05 RMK AO2 T01500039 $
14926KSTC STC20170401142511504/01/17 14:25:31  5-MIN KSTC 012025Z 33007KT 10SM BKN055 OVC070 16/04 A3014 820 45 1100 330/07 RMK AO2 T01560039 $
14926KSTC STC20170401143011504/01/17 14:30:31  5-MIN KSTC 012030Z VRB05KT 10SM SCT050 BKN065 16/04 A3014 830 45 1100 VRB/05 RMK AO2 T01560039 $
14926KSTC STC20170401143511504/01/17 14:35:31  5-MIN KSTC 012035Z 34007KT 10SM BKN050 OVC065 16/04 A3014 830 45 1200 340/07 RMK AO2 T01610044 $
14926KSTC STC20170401144011504/01/17 14:40:31  5-MIN KSTC 012040Z 32007KT 10SM BKN050 OVC065 15/04 A3014 830 49 1100 320/07 RMK AO2 T01500044 $
14926KSTC STC20170401144511504/01/17 14:45:31  5-MIN KSTC 012045Z 33007KT 10SM SCT050 OVC065 15/04 A3014 830 49 1100 330/07 RMK AO2 T01500044 $
14926KSTC STC20170401145012804/01/17 14:50:31  5-MIN KSTC 012050Z 32008KT 10SM SCT050 OVC070 15/04 A3014 830 49 1100 320/08 RMK AO2 SLP219 T01500044 58005 $
14926KSTC STC20170401145511504/01/17 14:55:31  5-MIN KSTC 012055Z VRB03KT 10SM FEW049 BKN070 16/04 A3013 830 47 1100 VRB/03 RMK AO2 T01560044 $
14926KSTC STC20170401150010504/01/17 15:00:31  5-MIN KSTC 012100Z 10SM FEW047 OVC065 16/04 A3014 830 45 1100 M /M RMK AO2 T01560039 $
14926KSTC STC20170401150511504/01/17 15:05:31  5-MIN KSTC 012105Z 27004KT 10SM FEW047 OVC070 16/04 A3013 830 45 1200 270/04 RMK AO2 T01610044 $
14926KSTC STC20170401151011504/01/17 15:10:31  5-MIN KSTC 012110Z 30005KT 10SM SCT047 OVC065 17/04 A3013 830 44 1300 300/05 RMK AO2 T01670044 $
14926KSTC STC20170401151511504/01/17 15:15:31  5-MIN KSTC 012115Z 26005KT 10SM BKN047 OVC065 16/04 A3013 830 45 1200 260/05 RMK AO2 T01610044 $
14926KSTC STC20170401152011504/01/17 15:20:31  5-MIN KSTC 012120Z 25007KT 10SM BKN047 OVC070 16/04 A3014 830 45 1100 250/07 RMK AO2 T01560039 $
14926KSTC STC20170401152511504/01/17 15:25:31  5-MIN KSTC 012125Z 27007KT 10SM BKN048 OVC065 16/04 A3014 830 45 1100 270/07 RMK AO2 T01560039 $
14926KSTC STC20170401153011504/01/17 15:30:31  5-MIN KSTC 012130Z 27009KT 10SM BKN048 BKN070 16/04 A3013 830 45 1100 270/09 RMK AO2 T01560039 $
14926KSTC STC20170401153511504/01/17 15:35:31  5-MIN KSTC 012135Z 25006KT 10SM SCT048 BKN075 15/04 A3013 830 47 1100 250/06 RMK AO2 T01500039 $
14926KSTC STC20170401154011504/01/17 15:40:31  5-MIN KSTC 012140Z 26005KT 10SM SCT048 BKN070 16/04 A3013 830 45 1100 260/05 RMK AO2 T01560039 $
14926KSTC STC20170401154511504/01/17 15:45:31  5-MIN KSTC 012145Z 28007KT 10SM FEW048 BKN070 16/04 A3013 830 45 1100 280/07 RMK AO2 T01560039 $
14926KSTC STC20170401155012204/01/17 15:50:31  5-MIN KSTC 012150Z 26006KT 10SM FEW048 BKN070 16/04 A3013 840 45 1100 260/06 RMK AO2 SLP216 T01560039 $
14926KSTC STC20170401155510804/01/17 15:55:31  5-MIN KSTC 012155Z 28006KT 10SM BKN070 16/04 A3013 840 45 1100 280/06 RMK AO2 T01560039 $
14926KSTC STC20170401160010804/01/17 16:00:31  5-MIN KSTC 012200Z 24005KT 10SM OVC070 16/04 A3013 840 45 1100 240/05 RMK AO2 T01560039 $
14926KSTC STC20170401160510804/01/17 16:05:31  5-MIN KSTC 012205Z 32008KT 10SM OVC070 16/04 A3012 840 45 1100 320/08 RMK AO2 T01560039 $
14926KSTC STC20170401161010804/01/17 16:10:31  5-MIN KSTC 012210Z 32007KT 10SM OVC070 15/04 A3013 840 47 1100 310/07 RMK AO2 T01500039 $
14926KSTC STC20170401161510804/01/17 16:15:31  5-MIN KSTC 012215Z 31005KT 10SM BKN070 15/04 A3012 840 47 1100 300/05 RMK AO2 T01500039 $
14926KSTC STC20170401162010804/01/17 16:20:31  5-MIN KSTC 012220Z 29004KT 10SM BKN070 15/04 A3012 840 47 1100 290/04 RMK AO2 T01500039 $
14926KSTC STC20170401162510804/01/17 16:25:31  5-MIN KSTC 012225Z 00000KT 10SM BKN070 16/04 A3012 840 45 1100 000/00 RMK AO2 T01560039 $
14926KSTC STC20170401163010804/01/17 16:30:31  5-MIN KSTC 012230Z 27005KT 10SM OVC070 16/04 A3012 840 44 1200 270/05 RMK AO2 T01610039 $
14926KSTC STC20170401163511504/01/17 16:35:31  5-MIN KSTC 012235Z 30006KT 10SM FEW050 BKN070 16/04 A3012 840 44 1200 300/06 RMK AO2 T01610039 $
14926KSTC STC20170401164011504/01/17 16:40:31  5-MIN KSTC 012240Z 32005KT 10SM FEW050 BKN070 16/04 A3012 840 45 1100 310/05 RMK AO2 T01560039 $
14926KSTC STC20170401164511504/01/17 16:45:31  5-MIN KSTC 012245Z 29006KT 10SM FEW050 BKN070 16/03 A3012 840 43 1100 290/06 RMK AO2 T01560033 $
14926KSTC STC20170401165012204/01/17 16:50:31  5-MIN KSTC 012250Z 32004KT 10SM FEW050 SCT070 16/03 A3012 840 43 1100 320/04 RMK AO2 SLP214 T01560033 $
14926KSTC STC20170401165511504/01/17 16:55:31  5-MIN KSTC 012255Z 25004KT 10SM FEW050 SCT070 16/03 A3012 840 43 1100 250/04 RMK AO2 T01560033 $
14926KSTC STC20170401170010804/01/17 17:00:31  5-MIN KSTC 012300Z 24005KT 10SM FEW050 16/03 A3012 840 43 1100 240/05 RMK AO2 T01560033 $
14926KSTC STC20170401170510804/01/17 17:05:31  5-MIN KSTC 012305Z 26005KT 10SM FEW050 16/03 A3012 850 43 1100 260/05 RMK AO2 T01560033 $
14926KSTC STC20170401171010504/01/17 17:10:31  5-MIN KSTC 012310Z 30005KT 10SM CLR 16/03 A3011 850 42 1200 300/05 RMK AO2 T01610033 $
14926KSTC STC20170401171510504/01/17 17:15:31  5-MIN KSTC 012315Z VRB04KT 10SM CLR 16/03 A3011 850 42 1200 VRB/04 RMK AO2 T01610033 $
14926KSTC STC20170401172010504/01/17 17:20:31  5-MIN KSTC 012320Z 31008KT 10SM CLR 16/04 A3011 850 44 1200 310/08 RMK AO2 T01610039 $
14926KSTC STC20170401172510504/01/17 17:25:31  5-MIN KSTC 012325Z 31006KT 10SM CLR 16/04 A3012 850 45 1100 310/06 RMK AO2 T01560039 $
14926KSTC STC20170401173010504/01/17 17:30:31  5-MIN KSTC 012330Z 31007KT 10SM CLR 16/03 A3012 840 43 1100 300/07 RMK AO2 T01560033 $
14926KSTC STC20170401173510504/01/17 17:35:31  5-MIN KSTC 012335Z 31007KT 10SM CLR 16/04 A3012 840 45 1100 310/07 RMK AO2 T01560039 $
14926KSTC STC20170401174010504/01/17 17:40:31  5-MIN KSTC 012340Z 31006KT 10SM CLR 16/04 A3012 840 45 1100 310/06 RMK AO2 T01560039 $
14926KSTC STC20170401174510504/01/17 17:45:31  5-MIN KSTC 012345Z 31005KT 10SM CLR 15/04 A3012 840 47 1100 310/05 RMK AO2 T01500039 $
14926KSTC STC20170401175013004/01/17 17:50:31  5-MIN KSTC 012350Z 32004KT 10SM CLR 15/03 A3012 840 45 1100 320/04 RMK AO2 SLP214 T01500033 10167 20139 58021 $
14926KSTC STC20170401175510504/01/17 17:55:31  5-MIN KSTC 012355Z 30005KT 10SM CLR 15/04 A3012 840 47 1100 300/05 RMK AO2 T01500039 $
14926KSTC STC20170401180010504/01/17 18:00:31  5-MIN KSTC 020000Z 28004KT 10SM CLR 15/04 A3012 850 47 1100 280/04 RMK AO2 T01500039 $
14926KSTC STC20170401180510504/01/17 18:05:31  5-MIN KSTC 020005Z 27005KT 10SM CLR 14/04 A3012 850 49 1000 270/05 RMK AO2 T01440039 $
14926KSTC STC20170401181010504/01/17 18:10:31  5-MIN KSTC 020010Z 29003KT 10SM CLR 14/04 A3011 850 49 1000 280/03 RMK AO2 T01440039 $
14926KSTC STC20170401181510504/01/17 18:15:31  5-MIN KSTC 020015Z 29003KT 10SM CLR 14/04 A3011 850 49 1000 290/03 RMK AO2 T01440039 $
14926KSTC STC20170403012511504/03/17 01:25:31  5-MIN KSTC 030725Z AUTO 00000KT 6SM BR OVC006 09/08 A2972 1210 96 800 000/00 RMK AO2 T00890083 $
14926KSTC STC20170403013011604/03/17 01:30:31  5-MIN KSTC 030730Z AUTO 00000KT 6SM BR OVC006 08/08 A2972 1210 100 700 000/00 RMK AO2 T00830083 $
14926KSTC STC20170403013511504/03/17 01:35:31  5-MIN KSTC 030735Z AUTO 00000KT 6SM BR OVC006 09/08 A2972 1210 96 800 000/00 RMK AO2 T00890083 $
14926KSTC STC20170403014011504/03/17 01:40:31  5-MIN KSTC 030740Z AUTO 00000KT 6SM BR OVC006 09/08 A2972 1210 96 800 000/00 RMK AO2 T00890083 $
14926KSTC STC20170403014511504/03/17 01:45:31  5-MIN KSTC 030745Z AUTO 00000KT 6SM BR OVC006 09/08 A2972 1210 96 800 000/00 RMK AO2 T00890083 $
14926KSTC STC20170403015012204/03/17 01:50:31  5-MIN KSTC 030750Z AUTO 00000KT 6SM BR OVC006 09/08 A2973 1210 96 800 000/00 RMK AO2 SLP080 T00890083 $
14926KSTC STC20170403015511504/03/17 01:55:31  5-MIN KSTC 030755Z AUTO 00000KT 6SM BR OVC006 09/08 A2973 1200 96 800 000/00 RMK AO2 T00890083 $
14926KSTC STC20170403020011504/03/17 02:00:31  5-MIN KSTC 030800Z AUTO 00000KT 6SM BR OVC006 08/08 A2973 1200 96 700 000/00 RMK AO2 T00830078 $
14926KSTC STC20170403020511504/03/17 02:05:31  5-MIN KSTC 030805Z AUTO 00000KT 6SM BR OVC006 08/08 A2973 1200 96 700 000/00 RMK AO2 T00830078 $
14926KSTC STC20170403021011504/03/17 02:10:31  5-MIN KSTC 030810Z AUTO 00000KT 6SM BR OVC006 08/08 A2973 1200 96 700 000/00 RMK AO2 T00830078 $
14926KSTC STC20170403021511504/03/17 02:15:31  5-MIN KSTC 030815Z AUTO 00000KT 6SM BR OVC006 08/08 A2973 1210 96 700 000/00 RMK AO2 T00830078 $
14926KSTC STC20170403022011504/03/17 02:20:31  5-MIN KSTC 030820Z AUTO 00000KT 6SM BR OVC006 08/08 A2972 1210 96 700 000/00 RMK AO2 T00830078 $
14926KSTC STC20170403022511504/03/17 02:25:31  5-MIN KSTC 030825Z AUTO 09003KT 6SM BR OVC006 08/08 A2972 1210 96 700 090/03 RMK AO2 T00830078 $
14926KSTC STC20170403023011504/03/17 02:30:31  5-MIN KSTC 030830Z AUTO 08003KT 6SM BR OVC006 08/08 A2972 1220 96 700 080/03 RMK AO2 T00830078 $
14926KSTC STC20170403023511504/03/17 02:35:31  5-MIN KSTC 030835Z AUTO 10003KT 5SM BR OVC006 08/08 A2972 1210 96 700 090/03 RMK AO2 T00830078 $
14926KSTC STC20170403024011504/03/17 02:40:31  5-MIN KSTC 030840Z AUTO 10003KT 5SM BR OVC005 08/08 A2972 1220 96 700 090/03 RMK AO2 T00830078 $
14926KSTC STC20170403024511504/03/17 02:45:31  5-MIN KSTC 030845Z AUTO 09003KT 5SM BR OVC005 08/08 A2971 1220 96 700 090/03 RMK AO2 T00830078 $
14926KSTC STC20170403025012804/03/17 02:50:31  5-MIN KSTC 030850Z AUTO 11003KT 5SM BR OVC005 08/08 A2971 1220 96 800 110/03 RMK AO2 SLP074 T00830078 56003 $
14926KSTC STC20170403025511504/03/17 02:55:31  5-MIN KSTC 030855Z AUTO 11003KT 5SM BR OVC005 08/08 A2971 1220 96 800 100/03 RMK AO2 T00830078 $
14926KSTC STC20170403030011504/03/17 03:00:31  5-MIN KSTC 030900Z AUTO 09003KT 4SM BR OVC005 08/08 A2970 1230 96 800 090/03 RMK AO2 T00830078 $
14926KSTC STC20170403030511504/03/17 03:05:31  5-MIN KSTC 030905Z AUTO 10003KT 4SM BR OVC004 08/08 A2970 1230 96 800 100/03 RMK AO2 T00830078 $
14926KSTC STC20170403031011504/03/17 03:10:31  5-MIN KSTC 030910Z AUTO 10003KT 4SM BR OVC004 08/08 A2970 1230 96 800 100/03 RMK AO2 T00830078 $
14926KSTC STC20170403031511604/03/17 03:15:31  5-MIN KSTC 030915Z AUTO 10003KT 4SM BR OVC003 08/08 A2970 1230 100 800 100/03 RMK AO2 T00830083 $
14926KSTC STC20170403032011604/03/17 03:20:31  5-MIN KSTC 030920Z AUTO 10003KT 4SM BR OVC003 08/08 A2970 1230 100 800 100/03 RMK AO2 T00830083 $
14926KSTC STC20170403032511604/03/17 03:25:31  5-MIN KSTC 030925Z AUTO 10003KT 4SM BR OVC003 08/08 A2970 1230 100 800 100/03 RMK AO2 T00830083 $
14926KSTC STC20170403033011604/03/17 03:30:31  5-MIN KSTC 030930Z AUTO 11003KT 3SM BR OVC003 08/08 A2970 1230 100 800 110/03 RMK AO2 T00830083 $
14926KSTC STC20170403033511604/03/17 03:35:31  5-MIN KSTC 030935Z AUTO 11003KT 3SM BR OVC003 08/08 A2970 1230 100 800 100/03 RMK AO2 T00830083 $
14926KSTC STC20170403034011604/03/17 03:40:31  5-MIN KSTC 030940Z AUTO 00000KT 3SM BR OVC003 08/08 A2970 1230 100 800 000/00 RMK AO2 T00830083 $
14926KSTC STC20170403034512004/03/17 03:45:31  5-MIN KSTC 030945Z AUTO 00000KT 2 1/2SM BR OVC003 08/08 A2971 1220 100 800 000/00 RMK AO2 T00830083 $
14926KSTC STC20170403035011004/03/17 03:50:31  5-MIN KSTC 030950Z AUTO 00000KT 2 1/2SM BR OVC003 08/08 A2971 1220 100 800 000/00 RMK AO2 $
14926KSTC STC20170403035512004/03/17 03:55:31  5-MIN KSTC 030955Z AUTO 00000KT 1 3/4SM BR OVC003 08/08 A2971 1220 100 800 000/00 RMK AO2 T00830083 $
14926KSTC STC20170403040012004/03/17 04:00:31  5-MIN KSTC 031000Z AUTO 00000KT 1 1/4SM BR OVC003 08/08 A2971 1220 100 800 000/00 RMK AO2 T00830083 $
14926KSTC STC20170403040511804/03/17 04:05:31  5-MIN KSTC 031005Z AUTO 00000KT 3/4SM BR OVC003 08/08 A2971 1220 100 700 000/00 RMK AO2 T00780078 $
14926KSTC STC20170403041011704/03/17 04:10:31  5-MIN KSTC 031010Z AUTO 00000KT 1/2SM FG VV003 08/08 A2971 1220 100 700 000/00 RMK AO2 T00780078 $
14926KSTC STC20170403041511704/03/17 04:15:31  5-MIN KSTC 031015Z AUTO 00000KT 1/2SM FG VV003 08/08 A2971 1230 100 700 000/00 RMK AO2 T00780078 $
14926KSTC STC20170403042011704/03/17 04:20:31  5-MIN KSTC 031020Z AUTO 02003KT 1/2SM FG VV003 08/08 A2971 1230 100 700 020/03 RMK AO2 T00780078 $
14926KSTC STC20170403042511704/03/17 04:25:31  5-MIN KSTC 031025Z AUTO 00000KT 1/2SM FG VV003 08/08 A2971 1230 100 700 000/00 RMK AO2 T00780078 $
14926KSTC STC20170403043011704/03/17 04:30:31  5-MIN KSTC 031030Z AUTO 05003KT 1/4SM FG VV002 08/08 A2970 1230 100 700 050/03 RMK AO2 T00780078 $
14926KSTC STC20170403043511704/03/17 04:35:31  5-MIN KSTC 031035Z AUTO 00000KT 1/4SM FG VV002 08/08 A2970 1230 100 700 000/00 RMK AO2 T00780078 $
14926KSTC STC20170403044011704/03/17 04:40:31  5-MIN KSTC 031040Z AUTO 00000KT 1/4SM FG VV002 08/08 A2970 1230 100 700 000/00 RMK AO2 T00780078 $
14926KSTC STC20170403044511704/03/17 04:45:31  5-MIN KSTC 031045Z AUTO 05003KT 1/4SM FG VV002 08/08 A2970 1230 100 700 050/03 RMK AO2 T00780078 $
14926KSTC STC20170403045012404/03/17 04:50:31  5-MIN KSTC 031050Z AUTO 00000KT 1/4SM FG VV002 08/08 A2970 1230 100 700 000/00 RMK AO2 SLP071 T00780078 $
14926KSTC STC20170403045511704/03/17 04:55:31  5-MIN KSTC 031055Z AUTO 00000KT 1/4SM FG VV002 08/08 A2970 1230 100 700 000/00 RMK AO2 T00780078 $
14926KSTC STC20170403050011704/03/17 05:00:31  5-MIN KSTC 031100Z AUTO 00000KT 1/4SM FG VV002 08/08 A2970 1230 100 700 000/00 RMK AO2 T00780078 $
14926KSTC STC20170403050511704/03/17 05:05:31  5-MIN KSTC 031105Z AUTO 10003KT 1/4SM FG VV002 08/08 A2970 1230 100 700 100/03 RMK AO2 T00780078 $
14926KSTC STC20170403051011704/03/17 05:10:31  5-MIN KSTC 031110Z AUTO 08003KT 1/4SM FG VV002 08/08 A2970 1230 100 700 080/03 RMK AO2 T00780078 $
14926KSTC STC20170403051511704/03/17 05:15:31  5-MIN KSTC 031115Z AUTO 00000KT 1/4SM FG VV002 08/08 A2970 1230 100 700 000/00 RMK AO2 T00780078 $
14926KSTC STC20170403052011704/03/17 05:20:31  5-MIN KSTC 031120Z AUTO 00000KT 1/4SM FG VV002 08/08 A2970 1230 100 700 000/00 RMK AO2 T00780078 $
14926KSTC STC20170403052511704/03/17 05:25:31  5-MIN KSTC 031125Z AUTO 00000KT 1/4SM FG VV002 08/08 A2970 1230 100 700 000/00 RMK AO2 T00780078 $
14926KSTC STC20170403053011704/03/17 05:30:31  5-MIN KSTC 031130Z AUTO 00000KT 1/4SM FG VV002 08/08 A2970 1230 100 700 000/00 RMK AO2 T00780078 $
14926KSTC STC20170403053511704/03/17 05:35:31  5-MIN KSTC 031135Z AUTO 06003KT 1/4SM FG VV002 08/08 A2970 1230 100 700 060/03 RMK AO2 T00780078 $
14926KSTC STC20170403054011704/03/17 05:40:31  5-MIN KSTC 031140Z AUTO 08003KT 1/4SM FG VV002 08/08 A2971 1230 100 700 080/03 RMK AO2 T00780078 $
14926KSTC STC20170403054511704/03/17 05:45:31  5-MIN KSTC 031145Z AUTO 00000KT 1/4SM FG VV002 08/08 A2970 1230 100 700 000/00 RMK AO2 T00780078 $
14926KSTC STC20170403055013704/03/17 05:50:31  5-MIN KSTC 031150Z 07003KT 1/4SM FG VV002 08/08 A2970 1230 100 700 070/03 RMK AO2 SLP071 T00780078 10089 20078 57014 $
14926KSTC STC20170403055511204/03/17 05:55:31  5-MIN KSTC 031155Z 07003KT 1/4SM FG VV002 08/08 A2971 1230 100 700 070/03 RMK AO2 T00780078 $
14926KSTC STC20170403060011204/03/17 06:00:31  5-MIN KSTC 031200Z 07003KT 1/4SM FG VV002 08/08 A2970 1230 100 700 070/03 RMK AO2 T00780078 $
14926KSTC STC20170403060511204/03/17 06:05:31  5-MIN KSTC 031205Z 08003KT 1/4SM FG VV002 08/08 A2970 1230 100 700 080/03 RMK AO2 T00780078 $
14926KSTC STC20170403061011204/03/17 06:10:31  5-MIN KSTC 031210Z 09003KT 1/4SM FG VV002 08/08 A2970 1230 100 700 090/03 RMK AO2 T00780078 $
14926KSTC STC20170403061511204/03/17 06:15:31  5-MIN KSTC 031215Z 06003KT 1/4SM FG VV002 08/08 A2970 1230 100 700 060/03 RMK AO2 T00780078 $
14926KSTC STC20170403062011004/03/17 06:20:31  5-MIN KSTC 031220Z 00000KT 1/4SM FG VV002 08/08 A2970 1230 100 700 000/00 RMK AO2 T00780078
14926KSTC STC20170403062511004/03/17 06:25:31  5-MIN KSTC 031225Z 00000KT 1/4SM FG VV002 08/08 A2970 1230 100 700 000/00 RMK AO2 T00780078
14926KSTC STC20170403063011004/03/17 06:30:31  5-MIN KSTC 031230Z 00000KT 1/4SM FG VV002 08/08 A2971 1230 100 700 000/00 RMK AO2 T00780078
14926KSTC STC20170403063511004/03/17 06:35:31  5-MIN KSTC 031235Z 00000KT 1/4SM FG VV002 08/08 A2970 1230 100 700 000/00 RMK AO2 T00780078
14926KSTC STC20170403064011104/03/17 06:40:31  5-MIN KSTC 031240Z 05003KT M1/4SM FG VV002 08/08 A2971 1220 100 700 050/03 RMK AO2 T00780078
14926KSTC STC20170403064511104/03/17 06:45:31  5-MIN KSTC 031245Z 06003KT M1/4SM FG VV002 08/08 A2971 1220 100 700 060/03 RMK AO2 T00780078
14926KSTC STC20170403065011804/03/17 06:50:31  5-MIN KSTC 031250Z 00000KT M1/4SM FG VV002 08/08 A2971 1220 100 700 000/00 RMK AO2 SLP074 T00780078
14926KSTC STC20170403065511104/03/17 06:55:31  5-MIN KSTC 031255Z 00000KT M1/4SM FG VV002 08/08 A2971 1220 100 700 000/00 RMK AO2 T00780078
14926KSTC STC20170403070011104/03/17 07:00:31  5-MIN KSTC 031300Z 02003KT M1/4SM FG VV002 08/08 A2971 1220 100 700 020/03 RMK AO2 T00780078
14926KSTC STC20170403070511104/03/17 07:05:31  5-MIN KSTC 031305Z 03003KT M1/4SM FG VV002 08/08 A2971 1220 100 700 030/03 RMK AO2 T00780078
14926KSTC STC20170403071011004/03/17 07:10:31  5-MIN KSTC 031310Z 03003KT 1/4SM FG VV002 08/08 A2971 1220 100 700 030/03 RMK AO2 T00780078
14926KSTC STC20170403071511004/03/17 07:15:31  5-MIN KSTC 031315Z 04005KT 1/4SM FG VV002 08/08 A2971 1220 100 700 040/05 RMK AO2 T00780078
14926KSTC STC20170403072011004/03/17 07:20:31  5-MIN KSTC 031320Z 06004KT 1/4SM FG VV003 08/08 A2971 1220 100 700 060/04 RMK AO2 T00780078
14926KSTC STC20170403072511004/03/17 07:25:31  5-MIN KSTC 031325Z 06004KT 1/4SM FG VV003 08/08 A2970 1230 100 700 060/04 RMK AO2 T00780078
14926KSTC STC20170403073011004/03/17 07:30:31  5-MIN KSTC 031330Z 06005KT 1/4SM FG VV003 08/08 A2970 1230 100 700 060/05 RMK AO2 T00780078
14926KSTC STC20170403073511004/03/17 07:35:31  5-MIN KSTC 031335Z 06004KT 1/2SM FG VV003 08/08 A2970 1230 100 700 060/04 RMK AO2 T00780078
14926KSTC STC20170403074011004/03/17 07:40:31  5-MIN KSTC 031340Z 05004KT 1/2SM FG VV003 08/08 A2970 1230 100 700 050/04 RMK AO2 T00780078
14926KSTC STC20170403074511004/03/17 07:45:31  5-MIN KSTC 031345Z 03003KT 1/2SM FG VV003 08/08 A2970 1230 100 700 030/03 RMK AO2 T00780078
14926KSTC STC20170403075011704/03/17 07:50:31  5-MIN KSTC 031350Z 04003KT 1/2SM FG VV003 08/08 A2970 1230 100 700 040/03 RMK AO2 SLP070 T00780078
14926KSTC STC20170403075511004/03/17 07:55:31  5-MIN KSTC 031355Z 04003KT 1/2SM FG VV003 08/08 A2970 1230 100 700 030/03 RMK AO2 T00780078
14926KSTC STC20170403080011004/03/17 08:00:31  5-MIN KSTC 031400Z 03004KT 1/4SM FG VV003 08/08 A2970 1230 100 700 030/04 RMK AO2 T00780078
14926KSTC STC20170403080511004/03/17 08:05:31  5-MIN KSTC 031405Z 02004KT 1/4SM FG VV003 08/08 A2970 1230 100 700 020/04 RMK AO2 T00780078
14926KSTC STC20170403081011004/03/17 08:10:31  5-MIN KSTC 031410Z 02004KT 1/4SM FG VV003 08/08 A2970 1240 100 700 020/04 RMK AO2 T00780078
14926KSTC STC20170403081511004/03/17 08:15:31  5-MIN KSTC 031415Z 01004KT 1/4SM FG VV002 08/08 A2969 1240 100 700 010/04 RMK AO2 T00780078
14926KSTC STC20170403082011004/03/17 08:20:31  5-MIN KSTC 031420Z 01005KT 1/4SM FG VV002 08/08 A2969 1240 100 700 010/05 RMK AO2 T00780078
14926KSTC STC20170403082511004/03/17 08:25:31  5-MIN KSTC 031425Z 01005KT 1/4SM FG VV002 08/08 A2969 1240 100 700 010/05 RMK AO2 T00780078
14926KSTC STC20170403083011004/03/17 08:30:31  5-MIN KSTC 031430Z 01006KT 1/2SM FG VV002 08/08 A2968 1250 100 700 010/06 RMK AO2 T00780078
14926KSTC STC20170403083511004/03/17 08:35:31  5-MIN KSTC 031435Z 02004KT 1/2SM FG VV002 08/08 A2968 1250 100 800 020/04 RMK AO2 T00830083
14926KSTC STC20170403084011104/03/17 08:40:31  5-MIN KSTC 031440Z 06004KT 3/4SM BR OVC002 08/08 A2969 1240 100 800 060/04 RMK AO2 T00830083
14926KSTC STC20170403084510904/03/17 08:45:31  5-MIN KSTC 031445Z 05004KT 1SM BR OVC002 08/08 A2969 1240 100 800 050/04 RMK AO2 T00830083
14926KSTC STC20170403085009904/03/17 08:50:31  5-MIN KSTC 031450Z 04004KT 2SM BR OVC002 08/08 A2969 1240 100 800 040/04 RMK AO2
14926KSTC STC20170403085511304/03/17 08:55:31  5-MIN KSTC 031455Z 02004KT 2 1/2SM BR OVC002 08/08 A2968 1250 100 800 020/04 RMK AO2 T00830083
14926KSTC STC20170403090011604/03/17 09:00:31  5-MIN KSTC 031500Z 03005KT 3SM BR BKN002 OVC015 08/08 A2968 1250 100 800 030/05 RMK AO2 T00830083
14926KSTC STC20170403090512804/03/17 09:05:31  5-MIN KSTC 031505Z 05006KT 3SM BR BKN002 OVC015 08/08 A2968 1250 100 800 040/06 RMK AO2 CIG 002V006 T00830083
14926KSTC STC20170403091012804/03/17 09:10:31  5-MIN KSTC 031510Z 02006KT 4SM BR BKN004 OVC015 09/09 A2967 1250 100 900 020/06 RMK AO2 CIG 002V007 T00890089
14926KSTC STC20170403091512804/03/17 09:15:31  5-MIN KSTC 031515Z 03006KT 5SM BR BKN004 OVC015 09/09 A2967 1250 100 900 030/06 RMK AO2 CIG 002V007 T00890089
14926KSTC STC20170403092010904/03/17 09:20:31  5-MIN KSTC 031520Z VRB05KT 6SM BR BKN004 09/09 A2967 1250 100 900 VRB/05 RMK AO2 T00890089
14926KSTC STC20170403092510604/03/17 09:25:31  5-MIN KSTC 031525Z 02005KT 8SM BKN004 09/09 A2968 1250 100 900 020/05 RMK AO2 T00890089
14926KSTC STC20170403093010504/03/17 09:30:31  5-MIN KSTC 031530Z 01007KT 9SM BKN004 09/08 A2968 1250 96 900 010/07 RMK AO2 T00890083
14926KSTC STC20170403093510504/03/17 09:35:31  5-MIN KSTC 031535Z 01006KT 9SM BKN004 09/08 A2968 1250 96 900 010/06 RMK AO2 T00890083
14926KSTC STC20170403094010504/03/17 09:40:31  5-MIN KSTC 031540Z 01006KT 9SM BKN004 09/08 A2968 1250 96 900 010/06 RMK AO2 T00890083
14926KSTC STC20170403094510604/03/17 09:45:31  5-MIN KSTC 031545Z 03005KT 10SM BKN004 09/08 A2968 1250 96 900 020/05 RMK AO2 T00890083
14926KSTC STC20170403095011304/03/17 09:50:31  5-MIN KSTC 031550Z 04009KT 10SM BKN004 09/08 A2968 1250 96 900 040/09 RMK AO2 SLP063 T00890083
14926KSTC STC20170403095511304/03/17 09:55:31  5-MIN KSTC 031555Z 03008KT 10SM SCT009 OVC015 09/08 A2968 1250 93 900 030/08 RMK AO2 T00940083
14926KSTC STC20170403100011304/03/17 10:00:31  5-MIN KSTC 031600Z 03008KT 10SM BKN009 OVC015 09/08 A2968 1250 93 900 030/08 RMK AO2 T00940083
14926KSTC STC20170403100511404/03/17 10:05:31  5-MIN KSTC 031605Z 02006KT 10SM BKN009 OVC015 10/08 A2968 1250 89 1000 020/06 RMK AO2 T01000083
14926KSTC STC20170403101011404/03/17 10:10:31  5-MIN KSTC 031610Z 05007KT 10SM BKN009 OVC015 11/08 A2968 1250 86 1100 050/07 RMK AO2 T01060083
14926KSTC STC20170403101511404/03/17 10:15:31  5-MIN KSTC 031615Z 05008KT 10SM BKN009 OVC015 11/08 A2968 1250 86 1100 050/08 RMK AO2 T01060083
14926KSTC STC20170403102011404/03/17 10:20:31  5-MIN KSTC 031620Z 03007KT 10SM BKN009 OVC015 11/08 A2968 1250 83 1100 030/07 RMK AO2 T01060078
14926KSTC STC20170403102511404/03/17 10:25:31  5-MIN KSTC 031625Z 04008KT 10SM BKN009 OVC015 11/08 A2968 1250 83 1100 040/08 RMK AO2 T01110083
14926KSTC STC20170403103011404/03/17 10:30:31  5-MIN KSTC 031630Z VRB06KT 10SM BKN009 OVC015 11/08 A2968 1250 80 1100 VRB/06 RMK AO2 T01110078
14926KSTC STC20170403103511404/03/17 10:35:31  5-MIN KSTC 031635Z 05009KT 10SM BKN009 OVC015 11/08 A2968 1250 80 1100 050/09 RMK AO2 T01110078
14926KSTC STC20170403104011404/03/17 10:40:31  5-MIN KSTC 031640Z 06009KT 10SM BKN009 OVC015 11/07 A2968 1250 77 1100 060/09 RMK AO2 T01110072
14926KSTC STC20170403104511404/03/17 10:45:31  5-MIN KSTC 031645Z 07007KT 10SM BKN009 OVC015 11/07 A2968 1250 77 1100 070/07 RMK AO2 T01110072
14926KSTC STC20170403105012104/03/17 10:50:31  5-MIN KSTC 031650Z 07006KT 10SM BKN009 OVC015 12/08 A2967 1260 77 1200 070/06 RMK AO2 SLP059 T01170078
14926KSTC STC20170403105510704/03/17 10:55:31  5-MIN KSTC 031655Z VRB05KT 10SM OVC022 12/08 A2967 1260 77 1200 VRB/05 RMK AO2 T01170078
14926KSTC STC20170403110011404/03/17 11:00:31  5-MIN KSTC 031700Z 07009KT 10SM BKN009 OVC022 11/08 A2967 1260 80 1100 070/09 RMK AO2 T01110078
14926KSTC STC20170403110511404/03/17 11:05:31  5-MIN KSTC 031705Z 06007KT 10SM BKN009 OVC022 11/08 A2967 1260 80 1100 060/07 RMK AO2 T01110078
14926KSTC STC20170403111011404/03/17 11:10:31  5-MIN KSTC 031710Z 06007KT 10SM BKN009 OVC022 12/08 A2967 1260 77 1200 050/07 RMK AO2 T01170078
14926KSTC STC20170403111511404/03/17 11:15:31  5-MIN KSTC 031715Z 06010KT 10SM BKN009 OVC022 12/08 A2966 1260 77 1200 060/10 RMK AO2 T01170078
14926KSTC STC20170403112011404/03/17 11:20:31  5-MIN KSTC 031720Z 08008KT 10SM BKN009 OVC022 12/07 A2966 1270 71 1300 080/08 RMK AO2 T01220072
14926KSTC STC20170403112513604/03/17 11:25:31  5-MIN KSTC 031725Z 05010G16KT 020V080 10SM BKN009 OVC022 13/08 A2966 1270 71 1300 050/10G16 020V080 RMK AO2 T01280078
14926KSTC STC20170403113011404/03/17 11:30:31  5-MIN KSTC 031730Z 07011KT 10SM BKN009 OVC022 12/07 A2966 1270 71 1300 070/11 RMK AO2 T01220072
14926KSTC STC20170403113511404/03/17 11:35:31  5-MIN KSTC 031735Z 05008KT 10SM BKN009 OVC022 12/07 A2966 1270 71 1300 050/08 RMK AO2 T01220072
14926KSTC STC20170403114013004/03/17 11:40:31  5-MIN KSTC 031740Z 05009KT 030V100 10SM BKN009 OVC022 12/07 A2966 1270 71 1300 050/09 030V100 RMK AO2 T01220072
14926KSTC STC20170403114512004/03/17 11:45:31  5-MIN KSTC 031745Z 06009G16KT 10SM BKN009 OVC022 12/07 A2966 1270 71 1300 060/09G16 RMK AO2 T01220072
14926KSTC STC20170403115014504/03/17 11:50:31  5-MIN KSTC 031750Z VRB06G16KT 10SM BKN009 OVC022 12/07 A2966 1270 74 1200 VRB/06G16 RMK AO2 SLP055 T01170072 10128 20078 56009
14926KSTC STC20170403115513004/03/17 11:55:31  5-MIN KSTC 031755Z 05007KT 030V090 10SM BKN022 OVC026 12/07 A2966 1270 74 1200 050/07 030V090 RMK AO2 T01170072
14926KSTC STC20170403120010704/03/17 12:00:31  5-MIN KSTC 031800Z 02005KT 10SM OVC022 12/08 A2966 1270 77 1200 020/05 RMK AO2 T01170078
14926KSTC STC20170403120511404/03/17 12:05:31  5-MIN KSTC 031805Z 01008KT 10SM BKN020 OVC026 12/08 A2966 1270 77 1200 010/08 RMK AO2 T01170078
14926KSTC STC20170403121010704/03/17 12:10:31  5-MIN KSTC 031810Z 01009KT 10SM OVC021 11/08 A2965 1270 80 1200 010/09 RMK AO2 T01110078
14926KSTC STC20170403121511404/03/17 12:15:31  5-MIN KSTC 031815Z 01009KT 10SM BKN019 OVC025 11/08 A2965 1270 80 1100 010/09 RMK AO2 T01110078
14926KSTC STC20170403122011404/03/17 12:20:31  5-MIN KSTC 031820Z 03006KT 10SM BKN019 OVC024 12/08 A2965 1270 77 1200 030/06 RMK AO2 T01170078
14926KSTC STC20170403122511404/03/17 12:25:31  5-MIN KSTC 031825Z 02007KT 10SM BKN019 OVC024 12/08 A2965 1270 77 1200 020/07 RMK AO2 T01170078
14926KSTC STC20170403123011404/03/17 12:30:31  5-MIN KSTC 031830Z 03006KT 10SM BKN019 OVC027 12/08 A2965 1280 77 1200 030/06 RMK AO2 T01170078
14926KSTC STC20170403123510704/03/17 12:35:31  5-MIN KSTC 031835Z 04010KT 10SM OVC019 12/08 A2965 1280 77 1200 030/10 RMK AO2 T01170078
14926KSTC STC20170403124011404/03/17 12:40:31  5-MIN KSTC 031840Z 02008KT 10SM BKN019 OVC023 11/08 A2965 1280 80 1200 020/08 RMK AO2 T01110078
14926KSTC STC20170403124511404/03/17 12:45:31  5-MIN KSTC 031845Z 36009KT 10SM BKN017 OVC023 11/08 A2965 1280 80 1200 360/09 RMK AO2 T01110078
14926KSTC STC20170403125012104/03/17 12:50:31  5-MIN KSTC 031850Z 02009KT 10SM BKN017 OVC026 11/08 A2965 1280 80 1200 020/09 RMK AO2 SLP051 T01110078
14926KSTC STC20170403125511404/03/17 12:55:31  5-MIN KSTC 031855Z 01009KT 10SM BKN017 OVC026 11/08 A2964 1280 80 1200 360/09 RMK AO2 T01110078
14926KSTC STC20170403130011404/03/17 13:00:31  5-MIN KSTC 031900Z 01012KT 10SM BKN017 OVC026 12/08 A2964 1280 80 1200 010/12 RMK AO2 T01170083
14926KSTC STC20170403130511404/03/17 13:05:31  5-MIN KSTC 031905Z 01012KT 10SM BKN017 OVC026 11/08 A2964 1290 80 1200 010/12 RMK AO2 T01110078
14926KSTC STC20170403131011404/03/17 13:10:31  5-MIN KSTC 031910Z 36011KT 10SM SCT015 OVC026 12/08 A2964 1290 80 1200 360/11 RMK AO2 T01170083
14926KSTC STC20170403131511404/03/17 13:15:31  5-MIN KSTC 031915Z 01011KT 10SM SCT015 OVC026 12/08 A2964 1290 80 1200 010/11 RMK AO2 T01170083
14926KSTC STC20170403132011404/03/17 13:20:31  5-MIN KSTC 031920Z 36010KT 10SM FEW015 OVC026 12/08 A2964 1290 80 1200 360/10 RMK AO2 T01170083
14926KSTC STC20170403132511404/03/17 13:25:31  5-MIN KSTC 031925Z 03008KT 10SM FEW015 OVC026 12/08 A2964 1290 80 1200 020/08 RMK AO2 T01170083
14926KSTC STC20170403133011404/03/17 13:30:31  5-MIN KSTC 031930Z 02010KT 10SM FEW015 OVC026 12/08 A2964 1290 77 1200 020/10 RMK AO2 T01170078
14926KSTC STC20170403133511404/03/17 13:35:31  5-MIN KSTC 031935Z 01009KT 10SM FEW015 OVC026 11/08 A2963 1290 80 1200 010/09 RMK AO2 T01110078
14926KSTC STC20170403134011404/03/17 13:40:31  5-MIN KSTC 031940Z 01009KT 10SM FEW015 OVC025 11/08 A2963 1290 80 1200 010/09 RMK AO2 T01110078
14926KSTC STC20170403134511404/03/17 13:45:31  5-MIN KSTC 031945Z 02007KT 10SM FEW015 OVC025 11/08 A2964 1290 80 1200 010/07 RMK AO2 T01110078
14926KSTC STC20170403135012104/03/17 13:50:31  5-MIN KSTC 031950Z 01010KT 10SM FEW015 OVC024 11/08 A2964 1290 80 1200 010/10 RMK AO2 SLP047 T01110078
14926KSTC STC20170403135511404/03/17 13:55:31  5-MIN KSTC 031955Z 01009KT 10SM SCT014 OVC024 11/08 A2963 1290 80 1200 010/09 RMK AO2 T01110078
14926KSTC STC20170403140011404/03/17 14:00:31  5-MIN KSTC 032000Z 36011KT 10SM SCT014 OVC024 11/08 A2963 1290 80 1200 360/11 RMK AO2 T01110078
14926KSTC STC20170403140511404/03/17 14:05:31  5-MIN KSTC 032005Z 01009KT 10SM BKN014 OVC023 11/08 A2963 1290 80 1200 010/09 RMK AO2 T01110078
14926KSTC STC20170403141011404/03/17 14:10:31  5-MIN KSTC 032010Z 01012KT 10SM BKN015 OVC023 11/08 A2963 1290 80 1200 010/12 RMK AO2 T01110078
14926KSTC STC20170403141511404/03/17 14:15:31  5-MIN KSTC 032015Z 01009KT 10SM BKN015 OVC023 11/08 A2963 1300 80 1200 010/09 RMK AO2 T01110078
14926KSTC STC20170403142011404/03/17 14:20:31  5-MIN KSTC 032020Z 02010KT 10SM BKN015 OVC023 11/08 A2963 1290 80 1200 020/10 RMK AO2 T01110078
14926KSTC STC20170403142511404/03/17 14:25:31  5-MIN KSTC 032025Z 01011KT 10SM BKN015 OVC021 11/08 A2963 1290 83 1100 010/11 RMK AO2 T01060078
14926KSTC STC20170403143010704/03/17 14:30:31  5-MIN KSTC 032030Z 01009KT 10SM OVC016 11/08 A2963 1300 83 1100 010/09 RMK AO2 T01060078
14926KSTC STC20170403143510704/03/17 14:35:31  5-MIN KSTC 032035Z 01011KT 10SM OVC016 11/08 A2963 1300 83 1100 010/11 RMK AO2 T01060078
14926KSTC STC20170403144010704/03/17 14:40:31  5-MIN KSTC 032040Z 02010KT 10SM OVC016 11/07 A2963 1300 80 1100 020/10 RMK AO2 T01060072
14926KSTC STC20170403144510704/03/17 14:45:31  5-MIN KSTC 032045Z 02006KT 10SM OVC015 11/07 A2963 1300 80 1100 020/06 RMK AO2 T01060072
14926KSTC STC20170403145012004/03/17 14:50:31  5-MIN KSTC 032050Z 02011KT 10SM OVC015 11/07 A2963 1300 80 1100 010/11 RMK AO2 SLP045 T01060072 58007
14926KSTC STC20170403145511404/03/17 14:55:31  5-MIN KSTC 032055Z 02009KT 10SM BKN015 OVC022 11/07 A2962 1300 80 1100 020/09 RMK AO2 T01060072
14926KSTC STC20170403150011404/03/17 15:00:31  5-MIN KSTC 032100Z 02010KT 10SM BKN015 OVC022 11/07 A2962 1300 80 1100 020/10 RMK AO2 T01060072
14926KSTC STC20170403150511404/03/17 15:05:31  5-MIN KSTC 032105Z 01007KT 10SM SCT015 OVC022 11/07 A2963 1300 77 1200 010/07 RMK AO2 T01110072
14926KSTC STC20170403151011404/03/17 15:10:31  5-MIN KSTC 032110Z 01011KT 10SM SCT015 OVC022 11/07 A2963 1300 77 1200 010/11 RMK AO2 T01110072
14926KSTC STC20170403151510704/03/17 15:15:31  5-MIN KSTC 032115Z 02010KT 10SM OVC020 11/07 A2962 1300 80 1100 020/10 RMK AO2 T01060072
14926KSTC STC20170403152010704/03/17 15:20:31  5-MIN KSTC 032120Z 02008KT 10SM OVC020 11/07 A2962 1300 80 1100 020/08 RMK AO2 T01060072
14926KSTC STC20170403152511404/03/17 15:25:31  5-MIN KSTC 032125Z 02008KT 10SM BKN018 OVC023 11/07 A2962 1300 80 1100 020/08 RMK AO2 T01060072
14926KSTC STC20170403153010704/03/17 15:30:31  5-MIN KSTC 032130Z 02010KT 10SM OVC018 11/07 A2962 1310 80 1100 020/10 RMK AO2 T01060072
14926KSTC STC20170403153511404/03/17 15:35:31  5-MIN KSTC 032135Z 01008KT 10SM BKN018 OVC024 11/07 A2962 1310 77 1200 010/08 RMK AO2 T01110072
14926KSTC STC20170403154011404/03/17 15:40:31  5-MIN KSTC 032140Z 01012KT 10SM BKN018 OVC024 11/07 A2962 1310 77 1200 010/12 RMK AO2 T01110072
14926KSTC STC20170403154511404/03/17 15:45:31  5-MIN KSTC 032145Z 01012KT 10SM BKN018 OVC026 11/07 A2962 1310 77 1200 010/12 RMK AO2 T01110072
14926KSTC STC20170403155012104/03/17 15:50:31  5-MIN KSTC 032150Z 36012KT 10SM SCT018 OVC026 11/07 A2962 1310 77 1200 360/12 RMK AO2 SLP042 T01110072
14926KSTC STC20170403155511404/03/17 15:55:31  5-MIN KSTC 032155Z 36011KT 10SM FEW018 OVC026 11/07 A2962 1310 77 1200 360/11 RMK AO2 T01110072
14926KSTC STC20170403160011404/03/17 16:00:31  5-MIN KSTC 032200Z 01012KT 10SM FEW018 OVC026 11/07 A2962 1310 77 1200 010/12 RMK AO2 T01110072
14926KSTC STC20170403160510704/03/17 16:05:31  5-MIN KSTC 032205Z 36012KT 10SM OVC024 11/07 A2962 1310 77 1200 360/12 RMK AO2 T01110072
14926KSTC STC20170403161010704/03/17 16:10:31  5-MIN KSTC 032210Z 01011KT 10SM OVC024 11/07 A2962 1310 77 1200 010/11 RMK AO2 T01110072
14926KSTC STC20170403161511404/03/17 16:15:31  5-MIN KSTC 032215Z 36012KT 10SM BKN024 OVC039 11/07 A2962 1310 77 1200 360/12 RMK AO2 T01110072
14926KSTC STC20170403162011404/03/17 16:20:31  5-MIN KSTC 032220Z 03010KT 10SM BKN024 OVC039 11/07 A2962 1300 77 1200 030/10 RMK AO2 T01110072
14926KSTC STC20170403162511404/03/17 16:25:31  5-MIN KSTC 032225Z 03012KT 10SM BKN024 OVC039 11/07 A2962 1300 77 1200 030/12 RMK AO2 T01110072
14926KSTC STC20170403163012704/03/17 16:30:31  5-MIN KSTC 032230Z 02007G17KT 10SM FEW019 SCT024 OVC039 11/07 A2962 1300 77 1200 020/07G17 RMK AO2 T01110072
14926KSTC STC20170403163512104/03/17 16:35:31  5-MIN KSTC 032235Z 01010KT 10SM FEW019 SCT024 OVC039 11/07 A2962 1310 77 1200 010/10 RMK AO2 T01110072
14926KSTC STC20170403164012104/03/17 16:40:31  5-MIN KSTC 032240Z 02007KT 10SM FEW019 FEW024 OVC040 11/07 A2962 1310 77 1200 020/07 RMK AO2 T01110072
14926KSTC STC20170403164510704/03/17 16:45:31  5-MIN KSTC 032245Z 02009KT 10SM OVC042 11/07 A2962 1310 77 1200 020/09 RMK AO2 T01110072
14926KSTC STC20170403165011404/03/17 16:50:31  5-MIN KSTC 032250Z 02008KT 10SM OVC042 11/07 A2962 1310 77 1200 010/08 RMK AO2 SLP042 T01110072
14926KSTC STC20170403165510704/03/17 16:55:31  5-MIN KSTC 032255Z 03009KT 10SM OVC044 11/07 A2962 1310 77 1200 030/09 RMK AO2 T01110072
14926KSTC STC20170403170011404/03/17 17:00:31  5-MIN KSTC 032300Z 02009KT 10SM FEW020 OVC044 11/07 A2962 1310 77 1200 010/09 RMK AO2 T01110072
14926KSTC STC20170403170510704/03/17 17:05:31  5-MIN KSTC 032305Z 02009KT 10SM OVC046 11/07 A2962 1310 77 1200 020/09 RMK AO2 T01110072
14926KSTC STC20170403171010704/03/17 17:10:31  5-MIN KSTC 032310Z 03008KT 10SM OVC046 11/07 A2962 1310 77 1200 030/08 RMK AO2 T01110072
14926KSTC STC20170403171510704/03/17 17:15:31  5-MIN KSTC 032315Z 03004KT 10SM OVC048 11/07 A2962 1310 77 1200 030/04 RMK AO2 T01110072
14926KSTC STC20170403172010704/03/17 17:20:31  5-MIN KSTC 032320Z 03007KT 10SM OVC048 12/07 A2962 1310 74 1300 030/07 RMK AO2 T01170072
14926KSTC STC20170403172510704/03/17 17:25:31  5-MIN KSTC 032325Z 04008KT 10SM OVC049 11/07 A2962 1310 77 1200 040/08 RMK AO2 T01110072
14926KSTC STC20170403173010704/03/17 17:30:31  5-MIN KSTC 032330Z 04007KT 10SM OVC049 11/07 A2962 1310 74 1200 040/07 RMK AO2 T01110067
14926KSTC STC20170403173510704/03/17 17:35:31  5-MIN KSTC 032335Z 03008KT 10SM OVC049 11/07 A2962 1300 74 1200 030/08 RMK AO2 T01110067
14926KSTC STC20170403174010704/03/17 17:40:31  5-MIN KSTC 032340Z 04006KT 10SM OVC049 11/07 A2962 1310 74 1200 040/06 RMK AO2 T01110067
14926KSTC STC20170403174510704/03/17 17:45:31  5-MIN KSTC 032345Z 04006KT 10SM OVC049 11/07 A2962 1310 77 1200 040/06 RMK AO2 T01110072
14926KSTC STC20170403175013204/03/17 17:50:31  5-MIN KSTC 032350Z 06004KT 10SM OVC049 11/07 A2962 1310 77 1200 060/04 RMK AO2 SLP042 T01110072 10122 20106 56011
14926KSTC STC20170403175510704/03/17 17:55:31  5-MIN KSTC 032355Z 06006KT 10SM OVC050 11/07 A2962 1300 77 1200 060/06 RMK AO2 T01110072
14926KSTC STC20170403180010704/03/17 18:00:31  5-MIN KSTC 040000Z 05004KT 10SM OVC050 11/07 A2962 1300 77 1200 050/04 RMK AO2 T01110072
14926KSTC STC20170403180510704/03/17 18:05:31  5-MIN KSTC 040005Z 05004KT 10SM OVC050 11/07 A2962 1300 74 1200 050/04 RMK AO2 T01110067
14926KSTC STC20170403181010704/03/17 18:10:31  5-MIN KSTC 040010Z 05005KT 10SM OVC050 11/07 A2962 1300 77 1100 050/05 RMK AO2 T01060067
14926KSTC STC20170403181510704/03/17 18:15:31  5-MIN KSTC 040015Z 05005KT 10SM OVC050 11/07 A2962 1300 77 1100 050/05 RMK AO2 T01060067
14926KSTC STC20170403182010704/03/17 18:20:31  5-MIN KSTC 040020Z 05004KT 10SM OVC050 11/07 A2962 1300 77 1100 050/04 RMK AO2 T01060067
14926KSTC STC20170403182510704/03/17 18:25:31  5-MIN KSTC 040025Z 05004KT 10SM OVC050 11/07 A2962 1300 77 1100 050/04 RMK AO2 T01060067
14926KSTC STC20170403183010704/03/17 18:30:31  5-MIN KSTC 040030Z 05004KT 10SM OVC055 11/07 A2962 1300 77 1100 050/04 RMK AO2 T01060067
14926KSTC STC20170403183510704/03/17 18:35:31  5-MIN KSTC 040035Z 04004KT 10SM OVC055 11/07 A2962 1300 77 1100 040/04 RMK AO2 T01060067
14926KSTC STC20170403184010704/03/17 18:40:31  5-MIN KSTC 040040Z 04004KT 10SM OVC055 11/07 A2962 1300 77 1100 040/04 RMK AO2 T01060067
14926KSTC STC20170403184510704/03/17 18:45:31  5-MIN KSTC 040045Z 05004KT 10SM OVC055 11/07 A2963 1300 77 1100 050/04 RMK AO2 T01060067
14926KSTC STC20170403185011404/03/17 18:50:31  5-MIN KSTC 040050Z 04004KT 10SM OVC055 11/07 A2963 1300 77 1100 040/04 RMK AO2 SLP045 T01060067
14926KSTC STC20170403185510704/03/17 18:55:31  5-MIN KSTC 040055Z 04003KT 10SM OVC055 10/07 A2963 1300 80 1000 030/03 RMK AO2 T01000067
14926KSTC STC20170403190010704/03/17 19:00:31  5-MIN KSTC 040100Z 03003KT 10SM OVC060 10/07 A2963 1300 80 1000 030/03 RMK AO2 T01000067
14926KSTC STC20170403190510704/03/17 19:05:31  5-MIN KSTC 040105Z 03003KT 10SM OVC060 10/07 A2963 1300 80 1000 030/03 RMK AO2 T01000067
14926KSTC STC20170403191010704/03/17 19:10:31  5-MIN KSTC 040110Z 02003KT 10SM OVC060 10/07 A2963 1300 80 1000 020/03 RMK AO2 T01000067
14926KSTC STC20170403191510704/03/17 19:15:31  5-MIN KSTC 040115Z 01003KT 10SM OVC060 10/06 A2963 1290 77 1000 010/03 RMK AO2 T01000061
14926KSTC STC20170403192010704/03/17 19:20:31  5-MIN KSTC 040120Z 00000KT 10SM OVC065 10/06 A2963 1290 77 1000 000/00 RMK AO2 T01000061
14926KSTC STC20170403192510704/03/17 19:25:31  5-MIN KSTC 040125Z 01003KT 10SM OVC065 09/06 A2964 1290 79 1000 010/03 RMK AO2 T00940061
14926KSTC STC20170403193011404/03/17 19:30:31  5-MIN KSTC 040130Z 01005KT 10SM BKN065 OVC110 09/06 A2964 1290 79 1000 010/05 RMK AO2 T00940061
14926KSTC STC20170403193511404/03/17 19:35:31  5-MIN KSTC 040135Z 03005KT 10SM BKN065 OVC110 10/06 A2964 1290 77 1000 030/05 RMK AO2 T01000061
14926KSTC STC20170403194011404/03/17 19:40:31  5-MIN KSTC 040140Z 02004KT 10SM SCT070 OVC110 10/06 A2964 1290 77 1000 020/04 RMK AO2 T01000061
14926KSTC STC20170403194511404/03/17 19:45:31  5-MIN KSTC 040145Z 03004KT 10SM FEW070 OVC110 10/06 A2964 1290 77 1000 030/04 RMK AO2 T01000061
14926KSTC STC20170403195012804/03/17 19:50:31  5-MIN KSTC 040150Z 04004KT 10SM SCT055 SCT070 OVC110 10/06 A2964 1280 77 1000 030/04 RMK AO2 SLP051 T01000061
14926KSTC STC20170403195511404/03/17 19:55:31  5-MIN KSTC 040155Z 04003KT 10SM BKN055 OVC110 09/06 A2964 1280 79 1000 040/03 RMK AO2 T00940061
14926KSTC STC20170403200011404/03/17 20:00:31  5-MIN KSTC 040200Z 03003KT 10SM BKN055 OVC110 09/06 A2965 1280 79 1000 030/03 RMK AO2 T00940061
14926KSTC STC20170403200511404/03/17 20:05:31  5-MIN KSTC 040205Z 02003KT 10SM BKN055 OVC110 09/06 A2965 1280 79 1000 020/03 RMK AO2 T00940061
14926KSTC STC20170403201011404/03/17 20:10:31  5-MIN KSTC 040210Z 00000KT 10SM BKN055 OVC110 09/06 A2965 1280 79 1000 000/00 RMK AO2 T00940061
14926KSTC STC20170403201511404/03/17 20:15:31  5-MIN KSTC 040215Z 00000KT 10SM BKN055 OVC110 09/06 A2965 1280 79 1000 000/00 RMK AO2 T00940061
14926KSTC STC20170403202011404/03/17 20:20:31  5-MIN KSTC 040220Z 03003KT 10SM BKN055 OVC110 09/06 A2965 1270 79 1000 020/03 RMK AO2 T00940061
14926KSTC STC20170403202511304/03/17 20:25:31  5-MIN KSTC 040225Z 03003KT 10SM SCT055 OVC110 09/06 A2966 1270 79 900 020/03 RMK AO2 T00940061
14926KSTC STC20170403203011304/03/17 20:30:31  5-MIN KSTC 040230Z 02003KT 10SM FEW055 OVC110 09/06 A2966 1270 79 900 020/03 RMK AO2 T00940061
14926KSTC STC20170403203511304/03/17 20:35:31  5-MIN KSTC 040235Z 02003KT 10SM FEW055 OVC110 09/06 A2966 1270 79 900 020/03 RMK AO2 T00940061
14926KSTC STC20170403204010604/03/17 20:40:31  5-MIN KSTC 040240Z 02003KT 10SM OVC110 09/06 A2966 1270 83 900 020/03 RMK AO2 T00890061
14926KSTC STC20170403204510604/03/17 20:45:31  5-MIN KSTC 040245Z 02003KT 10SM OVC110 09/06 A2966 1270 83 900 020/03 RMK AO2 T00890061
14926KSTC STC20170403205011904/03/17 20:50:31  5-MIN KSTC 040250Z 00000KT 10SM OVC110 08/06 A2966 1270 86 800 000/00 RMK AO2 SLP057 T00830061 55002
14926KSTC STC20170403205510604/03/17 20:55:31  5-MIN KSTC 040255Z 00000KT 10SM OVC110 08/06 A2966 1270 86 700 000/00 RMK AO2 T00780056
14926KSTC STC20170403210010604/03/17 21:00:31  5-MIN KSTC 040300Z 36003KT 10SM OVC120 08/06 A2966 1270 86 700 360/03 RMK AO2 T00780056
14926KSTC STC20170403210510604/03/17 21:05:31  5-MIN KSTC 040305Z 36003KT 10SM BKN120 08/06 A2966 1270 86 700 360/03 RMK AO2 T00780056
14926KSTC STC20170403211010604/03/17 21:10:31  5-MIN KSTC 040310Z 00000KT 10SM BKN120 07/06 A2966 1270 89 700 000/00 RMK AO2 T00720056
14926KSTC STC20170403211510604/03/17 21:15:31  5-MIN KSTC 040315Z 00000KT 10SM SCT120 08/06 A2966 1270 89 700 000/00 RMK AO2 T00780061
14926KSTC STC20170403212010604/03/17 21:20:31  5-MIN KSTC 040320Z 00000KT 10SM SCT120 08/06 A2966 1270 89 700 000/00 RMK AO2 T00780061
14926KSTC STC20170403212510604/03/17 21:25:31  5-MIN KSTC 040325Z 01003KT 10SM FEW120 08/06 A2966 1270 89 700 360/03 RMK AO2 T00780061
14926KSTC STC20170403213010604/03/17 21:30:31  5-MIN KSTC 040330Z 00000KT 10SM FEW120 08/06 A2966 1270 89 700 000/00 RMK AO2 T00780061
14926KSTC STC20170403213510304/03/17 21:35:31  5-MIN KSTC 040335Z 01003KT 10SM CLR 08/06 A2966 1270 89 700 010/03 RMK AO2 T00780061
14926KSTC STC20170403214010304/03/17 21:40:31  5-MIN KSTC 040340Z 36003KT 10SM CLR 08/06 A2966 1270 89 700 360/03 RMK AO2 T00780061
14926KSTC STC20170403214510304/03/17 21:45:31  5-MIN KSTC 040345Z 00000KT 10SM CLR 08/06 A2966 1270 89 700 000/00 RMK AO2 T00780061
14926KSTC STC20170403215011004/03/17 21:50:31  5-MIN KSTC 040350Z 01003KT 10SM CLR 08/06 A2966 1270 89 700 010/03 RMK AO2 SLP058 T00780061
14926KSTC STC20170403215510804/03/17 21:55:31  5-MIN KSTC 040355Z AUTO 01003KT 10SM CLR 08/06 A2966 1260 89 700 010/03 RMK AO2 T00780061
14926KSTC STC20170403220010804/03/17 22:00:31  5-MIN KSTC 040400Z AUTO 36003KT 10SM CLR 07/06 A2966 1260 93 700 360/03 RMK AO2 T00720061
14926KSTC STC20170403220510804/03/17 22:05:31  5-MIN KSTC 040405Z AUTO 36004KT 10SM CLR 07/06 A2966 1260 89 700 360/04 RMK AO2 T00720056
14926KSTC STC20170403221010804/03/17 22:10:31  5-MIN KSTC 040410Z AUTO 35003KT 10SM CLR 07/06 A2966 1260 89 700 350/03 RMK AO2 T00720056
14926KSTC STC20170403221511104/03/17 22:15:31  5-MIN KSTC 040415Z AUTO 35003KT 10SM SCT120 07/06 A2966 1260 89 700 350/03 RMK AO2 T00720056
14926KSTC STC20170403222011104/03/17 22:20:31  5-MIN KSTC 040420Z AUTO 00000KT 10SM SCT120 07/06 A2966 1260 89 700 000/00 RMK AO2 T00720056
14926KSTC STC20170403222511104/03/17 22:25:31  5-MIN KSTC 040425Z AUTO 35003KT 10SM BKN120 07/06 A2967 1260 89 700 350/03 RMK AO2 T00720056
14926KSTC STC20170403223011104/03/17 22:30:31  5-MIN KSTC 040430Z AUTO 36003KT 10SM BKN120 07/06 A2966 1260 89 700 360/03 RMK AO2 T00720056
14926KSTC STC20170403223511104/03/17 22:35:31  5-MIN KSTC 040435Z AUTO 01004KT 10SM BKN120 07/06 A2967 1260 89 700 010/04 RMK AO2 T00720056
14926KSTC STC20170403224011104/03/17 22:40:31  5-MIN KSTC 040440Z AUTO 36005KT 10SM BKN120 07/06 A2967 1260 89 700 360/05 RMK AO2 T00720056
14926KSTC STC20170403224511104/03/17 22:45:31  5-MIN KSTC 040445Z AUTO 36004KT 10SM BKN120 07/06 A2967 1260 93 600 360/04 RMK AO2 T00670056
14926KSTC STC20170403225011804/03/17 22:50:31  5-MIN KSTC 040450Z AUTO 36004KT 10SM BKN120 07/06 A2967 1260 89 700 360/04 RMK AO2 SLP059 T00720056
14926KSTC STC20170403225511104/03/17 22:55:31  5-MIN KSTC 040455Z AUTO 36004KT 10SM SCT120 07/06 A2967 1260 93 600 360/04 RMK AO2 T00670056
14926KSTC STC20170403230011104/03/17 23:00:31  5-MIN KSTC 040500Z AUTO 34007KT 10SM SCT120 07/06 A2967 1260 93 600 340/07 RMK AO2 T00670056
14926KSTC STC20170403230511104/03/17 23:05:31  5-MIN KSTC 040505Z AUTO 35006KT 10SM FEW120 07/06 A2967 1260 89 700 350/06 RMK AO2 T00720056
14926KSTC STC20170403231011104/03/17 23:10:31  5-MIN KSTC 040510Z AUTO 35005KT 10SM FEW120 08/06 A2967 1260 89 700 350/05 RMK AO2 T00780061
14926KSTC STC20170403231510804/03/17 23:15:31  5-MIN KSTC 040515Z AUTO 35006KT 10SM CLR 08/06 A2967 1260 89 700 350/06 RMK AO2 T00780061
14926KSTC STC20170403232010804/03/17 23:20:31  5-MIN KSTC 040520Z AUTO 35006KT 10SM CLR 08/06 A2967 1260 89 700 350/06 RMK AO2 T00780061
14926KSTC STC20170403232510804/03/17 23:25:31  5-MIN KSTC 040525Z AUTO 36005KT 10SM CLR 08/06 A2967 1260 89 700 360/05 RMK AO2 T00780061
14926KSTC STC20170403233010804/03/17 23:30:31  5-MIN KSTC 040530Z AUTO 01005KT 10SM CLR 08/06 A2967 1260 89 700 360/05 RMK AO2 T00780061
14926KSTC STC20170403233510804/03/17 23:35:31  5-MIN KSTC 040535Z AUTO 01005KT 10SM CLR 08/06 A2967 1260 89 700 010/05 RMK AO2 T00780061
14926KSTC STC20170403234010804/03/17 23:40:31  5-MIN KSTC 040540Z AUTO 01005KT 10SM CLR 08/06 A2967 1260 89 700 010/05 RMK AO2 T00780061
14926KSTC STC20170403234510804/03/17 23:45:31  5-MIN KSTC 040545Z AUTO 36006KT 10SM CLR 08/06 A2967 1260 89 700 360/06 RMK AO2 T00780061
14926KSTC STC20170403235014304/03/17 23:50:31  5-MIN KSTC 040550Z AUTO 01006KT 10SM CLR 08/06 A2967 1260 86 700 360/06 RMK AO2 SLP060 T00780056 10111 20067 401280067 53013
14926KSTC STC20170403235510804/03/17 23:55:31  5-MIN KSTC 040555Z AUTO 36005KT 10SM CLR 08/06 A2967 1260 89 700 360/05 RMK AO2 T00780061
14926KSTC STC20170404000010804/04/17 00:00:31  5-MIN KSTC 040600Z AUTO 36006KT 10SM CLR 08/06 A2967 1260 89 700 360/06 RMK AO2 T00780061
14926KSTC STC20170404000510804/04/17 00:05:31  5-MIN KSTC 040605Z AUTO 36006KT 10SM CLR 07/06 A2967 1260 89 700 360/06 RMK AO2 T00720056
14926KSTC STC20170404001010804/04/17 00:10:31  5-MIN KSTC 040610Z AUTO 36005KT 10SM CLR 07/06 A2967 1260 89 700 360/05 RMK AO2 T00720056
14926KSTC STC20170404001510804/04/17 00:15:31  5-MIN KSTC 040615Z AUTO 36005KT 10SM CLR 07/06 A2967 1260 89 700 360/05 RMK AO2 T00720056
14926KSTC STC20170404002010804/04/17 00:20:31  5-MIN KSTC 040620Z AUTO 35005KT 10SM CLR 07/06 A2967 1260 93 600 350/05 RMK AO2 T00670056
14926KSTC STC20170404002510804/04/17 00:25:31  5-MIN KSTC 040625Z AUTO 36005KT 10SM CLR 07/06 A2967 1260 93 600 360/05 RMK AO2 T00670056
14926KSTC STC20170404003010804/04/17 00:30:31  5-MIN KSTC 040630Z AUTO 36005KT 10SM CLR 07/06 A2968 1250 93 600 360/05 RMK AO2 T00670056
14926KSTC STC20170404003510804/04/17 00:35:31  5-MIN KSTC 040635Z AUTO 36005KT 10SM CLR 07/06 A2968 1250 93 600 350/05 RMK AO2 T00670056
14926KSTC STC20170404004010804/04/17 00:40:31  5-MIN KSTC 040640Z AUTO 35005KT 10SM CLR 07/06 A2968 1250 93 600 350/05 RMK AO2 T00670056
14926KSTC STC20170404004510804/04/17 00:45:31  5-MIN KSTC 040645Z AUTO 35005KT 10SM CLR 07/06 A2968 1250 89 700 350/05 RMK AO2 T00720056
14926KSTC STC20170404005011504/04/17 00:50:31  5-MIN KSTC 040650Z AUTO 35005KT 10SM CLR 07/06 A2968 1250 89 700 350/05 RMK AO2 SLP062 T00720056
14926KSTC STC20170404005510804/04/17 00:55:31  5-MIN KSTC 040655Z AUTO 35006KT 10SM CLR 07/05 A2968 1250 89 600 350/06 RMK AO2 T00670050
14926KSTC STC20170404010010804/04/17 01:00:31  5-MIN KSTC 040700Z AUTO 35006KT 10SM CLR 07/05 A2968 1250 86 700 350/06 RMK AO2 T00720050
14926KSTC STC20170404010511104/04/17 01:05:31  5-MIN KSTC 040705Z AUTO 35006KT 10SM FEW120 07/05 A2968 1250 86 600 350/06 RMK AO2 T00720050
14926KSTC STC20170404011011104/04/17 01:10:31  5-MIN KSTC 040710Z AUTO 35006KT 10SM FEW120 07/04 A2968 1250 82 600 350/06 RMK AO2 T00720044
14926KSTC STC20170404011511104/04/17 01:15:31  5-MIN KSTC 040715Z AUTO 35006KT 10SM FEW120 07/04 A2968 1250 82 700 350/06 RMK AO2 T00720044
14926KSTC STC20170404012011104/04/17 01:20:31  5-MIN KSTC 040720Z AUTO 35006KT 10SM SCT110 07/04 A2968 1250 82 700 350/06 RMK AO2 T00720044
14926KSTC STC20170404012511104/04/17 01:25:31  5-MIN KSTC 040725Z AUTO 35006KT 10SM SCT110 07/04 A2968 1250 86 600 350/06 RMK AO2 T00670044
14926KSTC STC20170404013011104/04/17 01:30:31  5-MIN KSTC 040730Z AUTO 35007KT 10SM SCT110 07/04 A2968 1250 86 600 350/07 RMK AO2 T00670044
14926KSTC STC20170404013511104/04/17 01:35:31  5-MIN KSTC 040735Z AUTO 35007KT 10SM BKN110 07/04 A2968 1250 82 600 340/07 RMK AO2 T00670039
14926KSTC STC20170404014011104/04/17 01:40:31  5-MIN KSTC 040740Z AUTO 34004KT 10SM BKN110 07/04 A2968 1250 82 600 340/04 RMK AO2 T00670039
14926KSTC STC20170404014511104/04/17 01:45:31  5-MIN KSTC 040745Z AUTO 35006KT 10SM BKN110 07/03 A2968 1250 79 600 350/06 RMK AO2 T00670033
14926KSTC STC20170404015011804/04/17 01:50:31  5-MIN KSTC 040750Z AUTO 35006KT 10SM BKN110 07/03 A2968 1250 76 600 350/06 RMK AO2 SLP064 T00670028
14926KSTC STC20170404015511104/04/17 01:55:31  5-MIN KSTC 040755Z AUTO 35008KT 10SM BKN110 07/03 A2968 1250 76 600 350/08 RMK AO2 T00670028
14926KSTC STC20170404020011104/04/17 02:00:31  5-MIN KSTC 040800Z AUTO 35008KT 10SM SCT110 07/02 A2969 1240 73 600 350/08 RMK AO2 T00670022
14926KSTC STC20170404020511104/04/17 02:05:31  5-MIN KSTC 040805Z AUTO 35007KT 10SM FEW120 07/02 A2969 1240 68 600 350/07 RMK AO2 T00720017
14926KSTC STC20170404021011104/04/17 02:10:31  5-MIN KSTC 040810Z AUTO 35007KT 10SM FEW120 07/02 A2969 1240 70 600 350/07 RMK AO2 T00670017
14926KSTC STC20170404021510804/04/17 02:15:31  5-MIN KSTC 040815Z AUTO 35007KT 10SM CLR 07/02 A2969 1240 70 600 350/07 RMK AO2 T00670017
14926KSTC STC20170404022010804/04/17 02:20:31  5-MIN KSTC 040820Z AUTO 35006KT 10SM CLR 07/01 A2969 1240 67 600 350/06 RMK AO2 T00670011
14926KSTC STC20170404022510804/04/17 02:25:31  5-MIN KSTC 040825Z AUTO 35007KT 10SM CLR 07/01 A2969 1240 67 600 350/07 RMK AO2 T00670011
14926KSTC STC20170404023010804/04/17 02:30:31  5-MIN KSTC 040830Z AUTO 36006KT 10SM CLR 07/01 A2969 1240 67 600 350/06 RMK AO2 T00670011
14926KSTC STC20170404023510804/04/17 02:35:31  5-MIN KSTC 040835Z AUTO 35007KT 10SM CLR 07/01 A2969 1240 67 600 350/07 RMK AO2 T00670011
14926KSTC STC20170404024010804/04/17 02:40:31  5-MIN KSTC 040840Z AUTO 35007KT 10SM CLR 07/01 A2969 1240 65 600 350/07 RMK AO2 T00670006
14926KSTC STC20170404024510804/04/17 02:45:31  5-MIN KSTC 040845Z AUTO 35007KT 10SM CLR 07/01 A2970 1240 65 600 350/07 RMK AO2 T00670006
14926KSTC STC20170404025012104/04/17 02:50:31  5-MIN KSTC 040850Z AUTO 35007KT 10SM CLR 07/01 A2970 1230 65 600 350/07 RMK AO2 SLP069 T00670006 53004
14926KSTC STC20170404025510804/04/17 02:55:31  5-MIN KSTC 040855Z AUTO 35007KT 10SM CLR 07/01 A2970 1230 65 600 350/07 RMK AO2 T00670006
14926KSTC STC20170404030010804/04/17 03:00:31  5-MIN KSTC 040900Z AUTO 35008KT 10SM CLR 07/00 A2970 1230 62 600 350/08 RMK AO2 T00670000
14926KSTC STC20170404030510804/04/17 03:05:31  5-MIN KSTC 040905Z AUTO 35008KT 10SM CLR 07/00 A2970 1230 62 600 350/08 RMK AO2 T00670000
14926KSTC STC20170404031010804/04/17 03:10:31  5-MIN KSTC 040910Z AUTO 35008KT 10SM CLR 07/00 A2970 1230 62 600 350/08 RMK AO2 T00670000
14926KSTC STC20170404031510804/04/17 03:15:31  5-MIN KSTC 040915Z AUTO 35008KT 10SM CLR 07/00 A2970 1230 62 600 350/08 RMK AO2 T00670000
14926KSTC STC20170404032010804/04/17 03:20:31  5-MIN KSTC 040920Z AUTO 35008KT 10SM CLR 07/00 A2970 1230 62 600 350/08 RMK AO2 T00670000
14926KSTC STC20170404032510804/04/17 03:25:31  5-MIN KSTC 040925Z AUTO 35007KT 10SM CLR 07/00 A2971 1220 62 600 350/07 RMK AO2 T00670000
14926KSTC STC20170404033010804/04/17 03:30:31  5-MIN KSTC 040930Z AUTO 35008KT 10SM CLR 06/00 A2971 1220 65 500 350/08 RMK AO2 T00610000
14926KSTC STC20170404033510804/04/17 03:35:31  5-MIN KSTC 040935Z AUTO 35008KT 10SM CLR 06/00 A2971 1220 65 500 350/08 RMK AO2 T00610000
14926KSTC STC20170404034010804/04/17 03:40:31  5-MIN KSTC 040940Z AUTO 35008KT 10SM CLR 06/00 A2971 1220 65 500 350/08 RMK AO2 T00610000
14926KSTC STC20170404034510804/04/17 03:45:31  5-MIN KSTC 040945Z AUTO 35009KT 10SM CLR 06/00 A2972 1220 65 500 350/09 RMK AO2 T00610000
14926KSTC STC20170404035011504/04/17 03:50:31  5-MIN KSTC 040950Z AUTO 35008KT 10SM CLR 06/00 A2972 1210 65 500 350/08 RMK AO2 SLP077 T00610000
14926KSTC STC20170404035510904/04/17 03:55:31  5-MIN KSTC 040955Z AUTO 35008KT 10SM CLR 06/M01 A2972 1210 62 500 350/08 RMK AO2 T00611006
14926KSTC STC20170404040010804/04/17 04:00:31  5-MIN KSTC 041000Z AUTO 35008KT 10SM CLR 06/00 A2972 1210 65 500 350/08 RMK AO2 T00610000
14926KSTC STC20170404040510804/04/17 04:05:31  5-MIN KSTC 041005Z AUTO 35008KT 10SM CLR 06/00 A2973 1210 65 500 350/08 RMK AO2 T00610000
14926KSTC STC20170404041010904/04/17 04:10:31  5-MIN KSTC 041010Z AUTO 35008KT 10SM CLR 06/M01 A2973 1210 62 500 350/08 RMK AO2 T00611006
14926KSTC STC20170404041510904/04/17 04:15:31  5-MIN KSTC 041015Z AUTO 35008KT 10SM CLR 06/M01 A2973 1200 62 500 350/08 RMK AO2 T00611006
14926KSTC STC20170404042010904/04/17 04:20:31  5-MIN KSTC 041020Z AUTO 35007KT 10SM CLR 06/M01 A2973 1200 62 500 350/07 RMK AO2 T00611006
14926KSTC STC20170404042510904/04/17 04:25:31  5-MIN KSTC 041025Z AUTO 35007KT 10SM CLR 06/M01 A2973 1200 62 500 350/07 RMK AO2 T00611006
14926KSTC STC20170404043010904/04/17 04:30:31  5-MIN KSTC 041030Z AUTO 35008KT 10SM CLR 06/M01 A2974 1200 62 500 350/08 RMK AO2 T00611006
14926KSTC STC20170404043510904/04/17 04:35:31  5-MIN KSTC 041035Z AUTO 35007KT 10SM CLR 06/M01 A2974 1190 62 400 350/07 RMK AO2 T00611006
14926KSTC STC20170404044010904/04/17 04:40:31  5-MIN KSTC 041040Z AUTO 35008KT 10SM CLR 06/M01 A2974 1190 65 400 350/08 RMK AO2 T00561006
14926KSTC STC20170404044510904/04/17 04:45:31  5-MIN KSTC 041045Z AUTO 36007KT 10SM CLR 06/M01 A2974 1190 65 400 360/07 RMK AO2 T00561006
14926KSTC STC20170404045011604/04/17 04:50:31  5-MIN KSTC 041050Z AUTO 35007KT 10SM CLR 06/M01 A2975 1190 65 400 350/07 RMK AO2 SLP086 T00561006
14926KSTC STC20170404045510904/04/17 04:55:31  5-MIN KSTC 041055Z AUTO 35006KT 10SM CLR 06/M01 A2975 1190 65 400 350/06 RMK AO2 T00561006
14926KSTC STC20170404050010904/04/17 05:00:31  5-MIN KSTC 041100Z AUTO 35006KT 10SM CLR 06/M01 A2975 1190 65 400 350/06 RMK AO2 T00561006
14926KSTC STC20170404050510904/04/17 05:05:31  5-MIN KSTC 041105Z AUTO 35007KT 10SM CLR 06/M01 A2975 1180 65 400 350/07 RMK AO2 T00561006
14926KSTC STC20170404051010904/04/17 05:10:31  5-MIN KSTC 041110Z AUTO 35008KT 10SM CLR 06/M01 A2976 1180 65 400 340/08 RMK AO2 T00561006
14926KSTC STC20170404051510904/04/17 05:15:31  5-MIN KSTC 041115Z AUTO 34007KT 10SM CLR 06/M01 A2976 1170 65 400 340/07 RMK AO2 T00561006
14926KSTC STC20170404052010904/04/17 05:20:31  5-MIN KSTC 041120Z AUTO 34007KT 10SM CLR 06/M01 A2976 1170 65 400 340/07 RMK AO2 T00561006
14926KSTC STC20170404052510404/04/17 05:25:31  5-MIN KSTC 041125Z 35007KT 10SM CLR 06/M01 A2977 1170 65 400 350/07 RMK AO2 T00561006
14926KSTC STC20170404053010404/04/17 05:30:31  5-MIN KSTC 041130Z 35007KT 10SM CLR 06/M01 A2977 1170 65 300 350/07 RMK AO2 T00561006
14926KSTC STC20170404053510404/04/17 05:35:31  5-MIN KSTC 041135Z 35008KT 10SM CLR 06/M01 A2977 1170 65 300 350/08 RMK AO2 T00561006
14926KSTC STC20170404054010404/04/17 05:40:31  5-MIN KSTC 041140Z 35009KT 10SM CLR 06/M01 A2977 1160 65 300 350/09 RMK AO2 T00561006
14926KSTC STC20170404054510404/04/17 05:45:31  5-MIN KSTC 041145Z 35008KT 10SM CLR 06/M01 A2978 1160 65 300 350/08 RMK AO2 T00561006
14926KSTC STC20170404055012904/04/17 05:50:31  5-MIN KSTC 041150Z 35007KT 10SM CLR 06/M01 A2978 1160 65 300 350/07 RMK AO2 SLP096 T00561006 10078 20056 53008
14926KSTC STC20170404055510404/04/17 05:55:31  5-MIN KSTC 041155Z 36008KT 10SM CLR 06/M01 A2978 1160 65 300 350/08 RMK AO2 T00561006
14926KSTC STC20170404060010404/04/17 06:00:31  5-MIN KSTC 041200Z 36008KT 10SM CLR 05/M01 A2978 1160 67 300 350/08 RMK AO2 T00501006
14926KSTC STC20170404060510404/04/17 06:05:31  5-MIN KSTC 041205Z 35009KT 10SM CLR 05/M01 A2978 1150 67 300 350/09 RMK AO2 T00501006
14926KSTC STC20170404061010404/04/17 06:10:31  5-MIN KSTC 041210Z 36007KT 10SM CLR 05/M01 A2978 1150 67 300 360/07 RMK AO2 T00501006
14926KSTC STC20170404061510404/04/17 06:15:31  5-MIN KSTC 041215Z 36007KT 10SM CLR 05/M01 A2979 1150 67 300 360/07 RMK AO2 T00501006
14926KSTC STC20170404062010404/04/17 06:20:31  5-MIN KSTC 041220Z 36008KT 10SM CLR 05/M01 A2979 1150 67 300 360/08 RMK AO2 T00501006
14926KSTC STC20170404062510404/04/17 06:25:31  5-MIN KSTC 041225Z 36007KT 10SM CLR 05/M01 A2979 1150 67 300 360/07 RMK AO2 T00501006
14926KSTC STC20170404063010404/04/17 06:30:31  5-MIN KSTC 041230Z 35007KT 10SM CLR 05/M01 A2979 1140 67 300 350/07 RMK AO2 T00501006
14926KSTC STC20170404063510404/04/17 06:35:31  5-MIN KSTC 041235Z 35007KT 10SM CLR 05/M01 A2980 1140 67 200 350/07 RMK AO2 T00501006
14926KSTC STC20170404064010404/04/17 06:40:31  5-MIN KSTC 041240Z 35006KT 10SM CLR 05/M01 A2980 1140 67 200 350/06 RMK AO2 T00501006
14926KSTC STC20170404064510404/04/17 06:45:31  5-MIN KSTC 041245Z 35007KT 10SM CLR 05/M01 A2980 1140 67 200 350/07 RMK AO2 T00501006
14926KSTC STC20170404065011104/04/17 06:50:31  5-MIN KSTC 041250Z 36007KT 10SM CLR 05/M01 A2980 1140 67 200 350/07 RMK AO2 SLP104 T00501006
14926KSTC STC20170404065510404/04/17 06:55:31  5-MIN KSTC 041255Z 35008KT 10SM CLR 05/M01 A2980 1140 67 200 350/08 RMK AO2 T00501006
14926KSTC STC20170404070010404/04/17 07:00:31  5-MIN KSTC 041300Z 36008KT 10SM CLR 06/M01 A2980 1140 65 300 360/08 RMK AO2 T00561006
14926KSTC STC20170404070510404/04/17 07:05:31  5-MIN KSTC 041305Z 36008KT 10SM CLR 06/M01 A2980 1140 65 300 360/08 RMK AO2 T00561006
14926KSTC STC20170404071010404/04/17 07:10:31  5-MIN KSTC 041310Z 36008KT 10SM CLR 06/M01 A2980 1140 62 400 360/08 RMK AO2 T00611006
14926KSTC STC20170404071510404/04/17 07:15:31  5-MIN KSTC 041315Z 35009KT 10SM CLR 07/M01 A2980 1140 60 400 350/09 RMK AO2 T00671006
14926KSTC STC20170404072010404/04/17 07:20:31  5-MIN KSTC 041320Z 35008KT 10SM CLR 07/M01 A2980 1140 60 400 350/08 RMK AO2 T00671006
14926KSTC STC20170404072510404/04/17 07:25:31  5-MIN KSTC 041325Z 35009KT 10SM CLR 07/M01 A2980 1140 60 400 350/09 RMK AO2 T00671006
14926KSTC STC20170404073010404/04/17 07:30:31  5-MIN KSTC 041330Z 35007KT 10SM CLR 07/M01 A2980 1140 57 500 350/07 RMK AO2 T00721006
14926KSTC STC20170404073510404/04/17 07:35:31  5-MIN KSTC 041335Z 36009KT 10SM CLR 07/M01 A2980 1140 57 500 360/09 RMK AO2 T00721006
14926KSTC STC20170404074010404/04/17 07:40:31  5-MIN KSTC 041340Z 36010KT 10SM CLR 07/M01 A2980 1140 57 500 360/10 RMK AO2 T00721006
14926KSTC STC20170404074510404/04/17 07:45:31  5-MIN KSTC 041345Z 36008KT 10SM CLR 07/M01 A2980 1130 57 500 360/08 RMK AO2 T00721006
14926KSTC STC20170404075011104/04/17 07:50:31  5-MIN KSTC 041350Z 01007KT 10SM CLR 07/M01 A2981 1130 57 500 360/07 RMK AO2 SLP107 T00721006
14926KSTC STC20170404075510404/04/17 07:55:31  5-MIN KSTC 041355Z 36008KT 10SM CLR 08/M01 A2981 1130 55 600 360/08 RMK AO2 T00781006
14926KSTC STC20170404080010404/04/17 08:00:31  5-MIN KSTC 041400Z 36009KT 10SM CLR 08/M01 A2981 1130 55 600 360/09 RMK AO2 T00781006
14926KSTC STC20170404080510404/04/17 08:05:31  5-MIN KSTC 041405Z 01008KT 10SM CLR 08/M01 A2981 1130 53 600 010/08 RMK AO2 T00831006
14926KSTC STC20170404081010404/04/17 08:10:31  5-MIN KSTC 041410Z 01009KT 10SM CLR 08/M01 A2981 1130 53 600 360/09 RMK AO2 T00831006
14926KSTC STC20170404081510404/04/17 08:15:31  5-MIN KSTC 041415Z 36007KT 10SM CLR 08/M01 A2981 1120 53 600 360/07 RMK AO2 T00831006
14926KSTC STC20170404082010404/04/17 08:20:31  5-MIN KSTC 041420Z 36008KT 10SM CLR 08/M01 A2982 1120 51 600 360/08 RMK AO2 T00831011
14926KSTC STC20170404082510404/04/17 08:25:31  5-MIN KSTC 041425Z 01008KT 10SM CLR 09/M01 A2982 1120 51 700 010/08 RMK AO2 T00891006
14926KSTC STC20170404083010404/04/17 08:30:31  5-MIN KSTC 041430Z 36007KT 10SM CLR 09/M01 A2982 1120 49 800 360/07 RMK AO2 T00941006
14926KSTC STC20170404083510404/04/17 08:35:31  5-MIN KSTC 041435Z 36009KT 10SM CLR 09/M01 A2982 1120 49 800 360/09 RMK AO2 T00941006
14926KSTC STC20170404084010404/04/17 08:40:31  5-MIN KSTC 041440Z 02007KT 10SM CLR 10/M01 A2982 1120 47 800 020/07 RMK AO2 T01001006
14926KSTC STC20170404084510404/04/17 08:45:31  5-MIN KSTC 041445Z 01006KT 10SM CLR 10/M01 A2983 1110 47 800 010/06 RMK AO2 T01001006
14926KSTC STC20170404085011704/04/17 08:50:31  5-MIN KSTC 041450Z 36007KT 10SM CLR 10/M01 A2983 1110 47 800 360/07 RMK AO2 SLP114 T01001006 53026
14926KSTC STC20170404085510404/04/17 08:55:31  5-MIN KSTC 041455Z 36007KT 10SM CLR 11/M01 A2983 1110 44 900 360/07 RMK AO2 T01061011
14926KSTC STC20170404090010404/04/17 09:00:31  5-MIN KSTC 041500Z 36006KT 10SM CLR 11/M01 A2984 1100 44 900 360/06 RMK AO2 T01061011
14926KSTC STC20170404090510404/04/17 09:05:31  5-MIN KSTC 041505Z 36007KT 10SM CLR 11/M01 A2984 1100 44 900 360/07 RMK AO2 T01061011
14926KSTC STC20170404091010404/04/17 09:10:31  5-MIN KSTC 041510Z 36007KT 10SM CLR 11/M01 A2984 1100 44 900 360/07 RMK AO2 T01061011
14926KSTC STC20170404091510404/04/17 09:15:31  5-MIN KSTC 041515Z 36007KT 10SM CLR 11/M01 A2985 1100 44 900 350/07 RMK AO2 T01061011
14926KSTC STC20170404092010504/04/17 09:20:31  5-MIN KSTC 041520Z 36007KT 10SM CLR 12/M01 A2985 1090 42 1000 360/07 RMK AO2 T01171006
14926KSTC STC20170404092510404/04/17 09:25:31  5-MIN KSTC 041525Z 36007KT 10SM CLR 11/M01 A2985 1090 42 900 360/07 RMK AO2 T01111011
14926KSTC STC20170404093010404/04/17 09:30:31  5-MIN KSTC 041530Z 01007KT 10SM CLR 11/M01 A2986 1080 42 900 010/07 RMK AO2 T01111011
14926KSTC STC20170404093510504/04/17 09:35:31  5-MIN KSTC 041535Z 35006KT 10SM CLR 12/M01 A2986 1080 41 1000 350/06 RMK AO2 T01171011
14926KSTC STC20170404094010504/04/17 09:40:31  5-MIN KSTC 041540Z 36005KT 10SM CLR 12/M01 A2987 1080 41 1000 360/05 RMK AO2 T01171011
14926KSTC STC20170404094510504/04/17 09:45:31  5-MIN KSTC 041545Z 01006KT 10SM CLR 12/M02 A2987 1070 39 1000 010/06 RMK AO2 T01171017
14926KSTC STC20170404095011204/04/17 09:50:31  5-MIN KSTC 041550Z 01004KT 10SM CLR 12/M01 A2987 1070 39 1000 010/04 RMK AO2 SLP128 T01221011
14926KSTC STC20170404095510504/04/17 09:55:31  5-MIN KSTC 041555Z 36005KT 10SM CLR 12/M01 A2988 1070 39 1000 360/05 RMK AO2 T01221011
14926KSTC STC20170404100010504/04/17 10:00:31  5-MIN KSTC 041600Z VRB05KT 10SM CLR 12/M01 A2988 1060 39 1000 VRB/05 RMK AO2 T01221011
14926KSTC STC20170404100510504/04/17 10:05:31  5-MIN KSTC 041605Z 02005KT 10SM CLR 12/M01 A2989 1060 39 1000 020/05 RMK AO2 T01221011
14926KSTC STC20170404101010504/04/17 10:10:31  5-MIN KSTC 041610Z 34007KT 10SM CLR 12/M01 A2989 1050 39 1000 340/07 RMK AO2 T01221011
14926KSTC STC20170404101510504/04/17 10:15:31  5-MIN KSTC 041615Z 33005KT 10SM CLR 12/M01 A2990 1050 39 1000 330/05 RMK AO2 T01221011
14926KSTC STC20170404102010504/04/17 10:20:31  5-MIN KSTC 041620Z 34009KT 10SM CLR 12/M01 A2990 1050 39 1000 340/09 RMK AO2 T01221011
14926KSTC STC20170404102510504/04/17 10:25:31  5-MIN KSTC 041625Z 35010KT 10SM CLR 12/M02 A2990 1040 38 1000 350/10 RMK AO2 T01221017
14926KSTC STC20170404103010504/04/17 10:30:31  5-MIN KSTC 041630Z 33008KT 10SM CLR 12/M02 A2990 1050 38 1000 330/08 RMK AO2 T01221017
14926KSTC STC20170404103510504/04/17 10:35:31  5-MIN KSTC 041635Z 35005KT 10SM CLR 13/M01 A2990 1040 38 1100 350/05 RMK AO2 T01281011
14926KSTC STC20170404104010504/04/17 10:40:31  5-MIN KSTC 041640Z 01008KT 10SM CLR 13/M01 A2990 1050 38 1100 010/08 RMK AO2 T01281011
14926KSTC STC20170404104510504/04/17 10:45:31  5-MIN KSTC 041645Z 35007KT 10SM CLR 13/M03 A2990 1050 33 1100 350/07 RMK AO2 T01281028
14926KSTC STC20170404105011804/04/17 10:50:31  5-MIN KSTC 041650Z 01009G15KT 10SM CLR 13/M03 A2990 1040 33 1100 010/09G15 RMK AO2 SLP138 T01281028
14926KSTC STC20170404105511104/04/17 10:55:31  5-MIN KSTC 041655Z 02007G15KT 10SM CLR 13/M03 A2990 1040 31 1100 020/07G15 RMK AO2 T01331033
14926KSTC STC20170404110010504/04/17 11:00:31  5-MIN KSTC 041700Z 36012KT 10SM CLR 13/M03 A2990 1040 31 1100 360/12 RMK AO2 T01331033
14926KSTC STC20170404110510504/04/17 11:05:31  5-MIN KSTC 041705Z 01008KT 10SM CLR 13/M03 A2990 1040 32 1100 360/08 RMK AO2 T01281033
14926KSTC STC20170404111010504/04/17 11:10:31  5-MIN KSTC 041710Z 03008KT 10SM CLR 13/M03 A2990 1040 31 1100 030/08 RMK AO2 T01331033
14926KSTC STC20170404111510504/04/17 11:15:31  5-MIN KSTC 041715Z 04005KT 10SM CLR 13/M04 A2990 1040 31 1100 040/05 RMK AO2 T01281039
14926KSTC STC20170404112010504/04/17 11:20:31  5-MIN KSTC 041720Z 03004KT 10SM CLR 13/M04 A2991 1040 31 1100 030/04 RMK AO2 T01281039
14926KSTC STC20170404112510504/04/17 11:25:31  5-MIN KSTC 041725Z 01008KT 10SM CLR 13/M04 A2990 1040 31 1100 010/08 RMK AO2 T01281039
14926KSTC STC20170404113011104/04/17 11:30:31  5-MIN KSTC 041730Z 01010G15KT 10SM CLR 13/M04 A2990 1050 30 1100 360/10G15 RMK AO2 T01331039
14926KSTC STC20170404113510504/04/17 11:35:31  5-MIN KSTC 041735Z 02008KT 10SM CLR 13/M04 A2990 1050 28 1100 020/08 RMK AO2 T01331044
14926KSTC STC20170404114010504/04/17 11:40:31  5-MIN KSTC 041740Z 03009KT 10SM CLR 13/M05 A2990 1050 27 1100 020/09 RMK AO2 T01331050
14926KSTC STC20170404114510504/04/17 11:45:31  5-MIN KSTC 041745Z 02009KT 10SM CLR 13/M05 A2990 1050 27 1100 020/09 RMK AO2 T01331050
14926KSTC STC20170404115013604/04/17 11:50:31  5-MIN KSTC 041750Z 03009G14KT 10SM CLR 13/M04 A2990 1050 30 1100 030/09G14 RMK AO2 SLP136 T01331039 10133 20044 53018
14926KSTC STC20170404115510504/04/17 11:55:31  5-MIN KSTC 041755Z 03006KT 10SM CLR 13/M04 A2990 1050 30 1100 030/06 RMK AO2 T01281044
14926KSTC STC20170404120010504/04/17 12:00:31  5-MIN KSTC 041800Z 02009KT 10SM CLR 13/M04 A2990 1050 28 1100 020/09 RMK AO2 T01331044
14926KSTC STC20170404120510504/04/17 12:05:31  5-MIN KSTC 041805Z 36010KT 10SM CLR 13/M04 A2990 1050 31 1100 360/10 RMK AO2 T01281039
14926KSTC STC20170404121010504/04/17 12:10:31  5-MIN KSTC 041810Z 35007KT 10SM CLR 13/M04 A2990 1040 31 1100 350/07 RMK AO2 T01281039
14926KSTC STC20170404121512104/04/17 12:15:31  5-MIN KSTC 041815Z 01007KT 340V040 10SM CLR 13/M04 A2990 1040 31 1100 010/07 340V040 RMK AO2 T01281039
14926KSTC STC20170404122010504/04/17 12:20:31  5-MIN KSTC 041820Z 04008KT 10SM CLR 13/M04 A2990 1040 30 1100 030/08 RMK AO2 T01331039
14926KSTC STC20170404122510504/04/17 12:25:31  5-MIN KSTC 041825Z 02008KT 10SM CLR 13/M04 A2990 1040 28 1100 020/08 RMK AO2 T01331044
14926KSTC STC20170404123010504/04/17 12:30:31  5-MIN KSTC 041830Z 01007KT 10SM CLR 13/M04 A2991 1040 28 1100 010/07 RMK AO2 T01331044
14926KSTC STC20170404123510504/04/17 12:35:31  5-MIN KSTC 041835Z 36009KT 10SM CLR 13/M04 A2991 1040 30 1100 360/09 RMK AO2 T01331039
14926KSTC STC20170404124010504/04/17 12:40:31  5-MIN KSTC 041840Z 35008KT 10SM CLR 13/M04 A2991 1030 30 1100 350/08 RMK AO2 T01331039
14926KSTC STC20170404124510504/04/17 12:45:31  5-MIN KSTC 041845Z 02007KT 10SM CLR 13/M04 A2991 1030 28 1100 020/07 RMK AO2 T01331044
14926KSTC STC20170404125011204/04/17 12:50:31  5-MIN KSTC 041850Z 06006KT 10SM CLR 13/M05 A2991 1030 27 1100 060/06 RMK AO2 SLP142 T01331050
14926KSTC STC20170404125510504/04/17 12:55:31  5-MIN KSTC 041855Z 04007KT 10SM CLR 13/M05 A2992 1030 27 1100 040/07 RMK AO2 T01331050
14926KSTC STC20170404130010504/04/17 13:00:31  5-MIN KSTC 041900Z VRB03KT 10SM CLR 13/M04 A2991 1030 30 1100 VRB/03 RMK AO2 T01331039
14926KSTC STC20170404130510504/04/17 13:05:31  5-MIN KSTC 041905Z 36004KT 10SM CLR 13/M03 A2991 1030 31 1100 360/04 RMK AO2 T01331033
14926KSTC STC20170404131010504/04/17 13:10:31  5-MIN KSTC 041910Z 35007KT 10SM CLR 14/M03 A2992 1030 31 1200 350/07 RMK AO2 T01391028
14926KSTC STC20170404131510504/04/17 13:15:31  5-MIN KSTC 041915Z 33008KT 10SM CLR 13/M03 A2992 1030 31 1100 330/08 RMK AO2 T01331033
14926KSTC STC20170404132010504/04/17 13:20:31  5-MIN KSTC 041920Z 34004KT 10SM CLR 13/M04 A2992 1030 30 1100 340/04 RMK AO2 T01331039
14926KSTC STC20170404132510504/04/17 13:25:31  5-MIN KSTC 041925Z 00000KT 10SM CLR 13/M03 A2992 1030 31 1100 000/00 RMK AO2 T01331033
14926KSTC STC20170404133010504/04/17 13:30:31  5-MIN KSTC 041930Z 26004KT 10SM CLR 14/M03 A2992 1030 30 1200 260/04 RMK AO2 T01391033
14926KSTC STC20170404133510504/04/17 13:35:31  5-MIN KSTC 041935Z VRB03KT 10SM CLR 14/M04 A2991 1030 29 1200 VRB/03 RMK AO2 T01391039
14926KSTC STC20170404134010504/04/17 13:40:31  5-MIN KSTC 041940Z 35008KT 10SM CLR 14/M04 A2991 1040 29 1200 350/08 RMK AO2 T01391039
14926KSTC STC20170404134510504/04/17 13:45:31  5-MIN KSTC 041945Z VRB06KT 10SM CLR 14/M04 A2991 1030 29 1200 VRB/06 RMK AO2 T01391039
14926KSTC STC20170404135011204/04/17 13:50:31  5-MIN KSTC 041950Z VRB05KT 10SM CLR 14/M04 A2991 1040 29 1200 VRB/05 RMK AO2 SLP140 T01391039
14926KSTC STC20170404135510504/04/17 13:55:31  5-MIN KSTC 041955Z 00000KT 10SM CLR 14/M04 A2991 1040 29 1200 000/00 RMK AO2 T01391039
14926KSTC STC20170404140010504/04/17 14:00:31  5-MIN KSTC 042000Z VRB03KT 10SM CLR 14/M04 A2991 1040 29 1200 VRB/03 RMK AO2 T01391039
14926KSTC STC20170404140510504/04/17 14:05:31  5-MIN KSTC 042005Z VRB06KT 10SM CLR 15/M04 A2991 1040 27 1300 VRB/06 RMK AO2 T01501039
14926KSTC STC20170404141010504/04/17 14:10:31  5-MIN KSTC 042010Z 01007KT 10SM CLR 14/M04 A2990 1040 28 1300 010/07 RMK AO2 T01441039
14926KSTC STC20170404141510504/04/17 14:15:31  5-MIN KSTC 042015Z VRB04KT 10SM CLR 14/M04 A2990 1040 28 1300 VRB/04 RMK AO2 T01441039
14926KSTC STC20170404142010504/04/17 14:20:31  5-MIN KSTC 042020Z 04010KT 10SM CLR 14/M04 A2990 1050 28 1300 040/10 RMK AO2 T01441039
14926KSTC STC20170404142510504/04/17 14:25:31  5-MIN KSTC 042025Z 05009KT 10SM CLR 15/M05 A2990 1050 24 1300 040/09 RMK AO2 T01501050
14926KSTC STC20170404143010504/04/17 14:30:31  5-MIN KSTC 042030Z 04007KT 10SM CLR 14/M06 A2990 1050 24 1300 040/07 RMK AO2 T01441056
14926KSTC STC20170404143511104/04/17 14:35:31  5-MIN KSTC 042035Z 03009G18KT 10SM CLR 14/M05 A2990 1050 25 1300 030/09G18 RMK AO2 T01441050
14926KSTC STC20170404144011104/04/17 14:40:31  5-MIN KSTC 042040Z 01008G18KT 10SM CLR 14/M06 A2990 1050 24 1300 010/08G18 RMK AO2 T01441056
14926KSTC STC20170404144511104/04/17 14:45:31  5-MIN KSTC 042045Z 04010G15KT 10SM CLR 14/M05 A2989 1050 25 1300 040/10G15 RMK AO2 T01441050
14926KSTC STC20170404145012404/04/17 14:50:31  5-MIN KSTC 042050Z 07010G15KT 10SM CLR 14/M05 A2990 1050 25 1300 070/10G15 RMK AO2 SLP135 T01441050 50022
14926KSTC STC20170404145511104/04/17 14:55:31  5-MIN KSTC 042055Z VRB06G15KT 10SM CLR 14/M05 A2990 1050 25 1300 VRB/06G15 RMK AO2 T01441050
14926KSTC STC20170404150011104/04/17 15:00:31  5-MIN KSTC 042100Z 03011G15KT 10SM CLR 14/M05 A2989 1050 25 1300 030/11G15 RMK AO2 T01441050
14926KSTC STC20170404150510504/04/17 15:05:31  5-MIN KSTC 042105Z 06009KT 10SM CLR 14/M05 A2989 1050 25 1300 060/09 RMK AO2 T01441050
14926KSTC STC20170404151010504/04/17 15:10:31  5-MIN KSTC 042110Z 04011KT 10SM CLR 14/M05 A2989 1050 25 1300 040/11 RMK AO2 T01441050
14926KSTC STC20170404151511104/04/17 15:15:31  5-MIN KSTC 042115Z 03008G16KT 10SM CLR 14/M04 A2989 1050 26 1300 030/08G16 RMK AO2 T01441044
14926KSTC STC20170404152010504/04/17 15:20:31  5-MIN KSTC 042120Z 01008KT 10SM CLR 14/M04 A2989 1050 26 1300 010/08 RMK AO2 T01441044
14926KSTC STC20170404152510504/04/17 15:25:31  5-MIN KSTC 042125Z 01006KT 10SM CLR 14/M04 A2990 1050 26 1300 010/06 RMK AO2 T01441044
14926KSTC STC20170404153010504/04/17 15:30:31  5-MIN KSTC 042130Z 04010KT 10SM CLR 15/M04 A2990 1050 27 1300 040/10 RMK AO2 T01501039
14926KSTC STC20170404153510504/04/17 15:35:31  5-MIN KSTC 042135Z VRB06KT 10SM CLR 14/M05 A2990 1050 26 1200 VRB/06 RMK AO2 T01391050
14926KSTC STC20170404154010504/04/17 15:40:31  5-MIN KSTC 042140Z 35005KT 10SM CLR 14/M04 A2990 1040 26 1300 350/05 RMK AO2 T01441044
14926KSTC STC20170404154510504/04/17 15:45:31  5-MIN KSTC 042145Z 05009KT 10SM CLR 15/M04 A2990 1040 27 1300 040/09 RMK AO2 T01501039
14926KSTC STC20170404155011204/04/17 15:50:31  5-MIN KSTC 042150Z 02006KT 10SM CLR 15/M03 A2990 1040 28 1300 020/06 RMK AO2 SLP138 T01501033
14926KSTC STC20170404155510504/04/17 15:55:31  5-MIN KSTC 042155Z 36006KT 10SM CLR 14/M04 A2991 1040 26 1300 360/06 RMK AO2 T01441044
14926KSTC STC20170404160010504/04/17 16:00:31  5-MIN KSTC 042200Z 01006KT 10SM CLR 15/M04 A2991 1040 27 1300 010/06 RMK AO2 T01501039
14926KSTC STC20170404160510504/04/17 16:05:31  5-MIN KSTC 042205Z VRB05KT 10SM CLR 15/M04 A2991 1040 25 1300 VRB/05 RMK AO2 T01501044
14926KSTC STC20170404161012104/04/17 16:10:31  5-MIN KSTC 042210Z 03007KT 360V080 10SM CLR 16/M04 A2991 1040 25 1400 030/07 360V080 RMK AO2 T01561044
14926KSTC STC20170404161510504/04/17 16:15:31  5-MIN KSTC 042215Z 02007KT 10SM CLR 15/M04 A2991 1040 27 1300 020/07 RMK AO2 T01501039
14926KSTC STC20170404162010504/04/17 16:20:31  5-MIN KSTC 042220Z 36008KT 10SM CLR 16/M04 A2991 1040 26 1400 360/08 RMK AO2 T01561039
14926KSTC STC20170404162510504/04/17 16:25:31  5-MIN KSTC 042225Z 35005KT 10SM CLR 15/M04 A2991 1040 25 1300 350/05 RMK AO2 T01501044
14926KSTC STC20170404163010504/04/17 16:30:31  5-MIN KSTC 042230Z 01009KT 10SM CLR 15/M04 A2991 1030 25 1300 010/09 RMK AO2 T01501044
14926KSTC STC20170404163510504/04/17 16:35:31  5-MIN KSTC 042235Z 36009KT 10SM CLR 15/M04 A2991 1030 27 1300 360/09 RMK AO2 T01501039
14926KSTC STC20170404164010504/04/17 16:40:31  5-MIN KSTC 042240Z 34008KT 10SM CLR 14/M04 A2992 1030 26 1200 340/08 RMK AO2 T01441044
14926KSTC STC20170404164510504/04/17 16:45:31  5-MIN KSTC 042245Z 35009KT 10SM CLR 15/M04 A2992 1030 25 1300 350/09 RMK AO2 T01501044
14926KSTC STC20170404165011204/04/17 16:50:31  5-MIN KSTC 042250Z 35006KT 10SM CLR 15/M04 A2992 1030 25 1300 340/06 RMK AO2 SLP143 T01501044
14926KSTC STC20170404165510504/04/17 16:55:31  5-MIN KSTC 042255Z 34009KT 10SM CLR 15/M04 A2992 1030 25 1300 340/09 RMK AO2 T01501044
14926KSTC STC20170404170010504/04/17 17:00:31  5-MIN KSTC 042300Z 34007KT 10SM CLR 14/M04 A2992 1020 26 1200 330/07 RMK AO2 T01441044
14926KSTC STC20170404170510504/04/17 17:05:31  5-MIN KSTC 042305Z 34007KT 10SM CLR 14/M04 A2992 1020 26 1200 340/07 RMK AO2 T01441044
14926KSTC STC20170404171010504/04/17 17:10:31  5-MIN KSTC 042310Z 35010KT 10SM CLR 14/M04 A2993 1020 26 1200 350/10 RMK AO2 T01441044
14926KSTC STC20170404171510504/04/17 17:15:31  5-MIN KSTC 042315Z 34007KT 10SM CLR 14/M04 A2993 1020 28 1200 340/07 RMK AO2 T01441039
14926KSTC STC20170404172010504/04/17 17:20:31  5-MIN KSTC 042320Z 35005KT 10SM CLR 14/M04 A2993 1020 28 1200 350/05 RMK AO2 T01441039
14926KSTC STC20170404172510504/04/17 17:25:31  5-MIN KSTC 042325Z 36005KT 10SM CLR 14/M04 A2993 1010 28 1200 360/05 RMK AO2 T01441039
14926KSTC STC20170404173010504/04/17 17:30:31  5-MIN KSTC 042330Z 33005KT 10SM CLR 14/M04 A2994 1010 28 1200 330/05 RMK AO2 T01441039
14926KSTC STC20170404173510504/04/17 17:35:31  5-MIN KSTC 042335Z 35007KT 10SM CLR 14/M04 A2994 1010 28 1200 350/07 RMK AO2 T01441039
14926KSTC STC20170404174010504/04/17 17:40:31  5-MIN KSTC 042340Z 34005KT 10SM CLR 14/M04 A2994 1010 26 1200 340/05 RMK AO2 T01441044
14926KSTC STC20170404174510504/04/17 17:45:31  5-MIN KSTC 042345Z 34005KT 10SM CLR 14/M04 A2994 1010 26 1200 340/05 RMK AO2 T01441044
14926KSTC STC20170404175013004/04/17 17:50:31  5-MIN KSTC 042350Z 34004KT 10SM CLR 14/M04 A2994 1010 28 1200 340/04 RMK AO2 SLP152 T01441039 10156 20128 58001
14926KSTC STC20170404175510504/04/17 17:55:31  5-MIN KSTC 042355Z VRB06KT 10SM CLR 14/M03 A2994 1010 29 1200 VRB/06 RMK AO2 T01441033
14926KSTC STC20170404180010504/04/17 18:00:31  5-MIN KSTC 050000Z 36008KT 10SM CLR 14/M04 A2994 1000 29 1100 360/08 RMK AO2 T01391039
14926KSTC STC20170404180510504/04/17 18:05:31  5-MIN KSTC 050005Z 36006KT 10SM CLR 14/M03 A2994 1000 30 1100 360/06 RMK AO2 T01391033
14926KSTC STC20170404181010504/04/17 18:10:31  5-MIN KSTC 050010Z 35007KT 10SM CLR 13/M04 A2995 1000 28 1100 350/07 RMK AO2 T01331044
14926KSTC STC20170404181510504/04/17 18:15:31  5-MIN KSTC 050015Z 35006KT 10SM CLR 13/M04 A2994 1000 30 1100 350/06 RMK AO2 T01331039
14926KSTC STC20170404182010504/04/17 18:20:31  5-MIN KSTC 050020Z 36005KT 10SM CLR 13/M03 A2994 1000 32 1000 360/05 RMK AO2 T01281033
14926KSTC STC20170404182510504/04/17 18:25:31  5-MIN KSTC 050025Z 36004KT 10SM CLR 13/M03 A2995 1000 32 1000 360/04 RMK AO2 T01281033
14926KSTC STC20170404183010504/04/17 18:30:31  5-MIN KSTC 050030Z 01004KT 10SM CLR 13/M03 A2995 1000 33 1000 010/04 RMK AO2 T01281028
14926KSTC STC20170404183510404/04/17 18:35:31  5-MIN KSTC 050035Z 36006KT 10SM CLR 12/M03 A2995 1000 35 900 360/06 RMK AO2 T01221028
14926KSTC STC20170404184010404/04/17 18:40:31  5-MIN KSTC 050040Z 36007KT 10SM CLR 12/M03 A2995 1000 35 900 360/07 RMK AO2 T01221028
14926KSTC STC20170404184510404/04/17 18:45:31  5-MIN KSTC 050045Z 36007KT 10SM CLR 12/M03 A2995 1000 36 900 360/07 RMK AO2 T01171028
14926KSTC STC20170404185011004/04/17 18:50:31  5-MIN KSTC 050050Z 01007KT 10SM CLR 12/M03 A2995 990 36 900 010/07 RMK AO2 SLP157 T01171028
14926KSTC STC20170404185510304/04/17 18:55:31  5-MIN KSTC 050055Z 01008KT 10SM CLR 12/M03 A2996 990 36 900 010/08 RMK AO2 T01171028
14926KSTC STC20170404190010304/04/17 19:00:31  5-MIN KSTC 050100Z 01007KT 10SM CLR 12/M03 A2996 990 35 900 010/07 RMK AO2 T01171033
14926KSTC STC20170404190510304/04/17 19:05:31  5-MIN KSTC 050105Z 02008KT 10SM CLR 12/M03 A2995 990 35 900 020/08 RMK AO2 T01171033
14926KSTC STC20170404191010304/04/17 19:10:31  5-MIN KSTC 050110Z 01006KT 10SM CLR 11/M03 A2996 990 36 800 010/06 RMK AO2 T01111033
14926KSTC STC20170404191510304/04/17 19:15:31  5-MIN KSTC 050115Z 02005KT 10SM CLR 11/M03 A2996 990 36 800 020/05 RMK AO2 T01111033
14926KSTC STC20170404192010304/04/17 19:20:31  5-MIN KSTC 050120Z 02006KT 10SM CLR 11/M04 A2996 990 36 700 020/06 RMK AO2 T01061039
14926KSTC STC20170404192510304/04/17 19:25:31  5-MIN KSTC 050125Z 03006KT 10SM CLR 11/M04 A2996 990 36 700 030/06 RMK AO2 T01061039
14926KSTC STC20170404193010304/04/17 19:30:31  5-MIN KSTC 050130Z 03005KT 10SM CLR 11/M04 A2996 990 36 700 030/05 RMK AO2 T01061039
14926KSTC STC20170404193510304/04/17 19:35:31  5-MIN KSTC 050135Z 03005KT 10SM CLR 11/M03 A2995 990 37 700 030/05 RMK AO2 T01061033
14926KSTC STC20170404194010304/04/17 19:40:31  5-MIN KSTC 050140Z 03004KT 10SM CLR 10/M03 A2996 990 39 700 030/04 RMK AO2 T01001033
14926KSTC STC20170404194510304/04/17 19:45:31  5-MIN KSTC 050145Z 03004KT 10SM CLR 10/M03 A2996 990 39 700 030/04 RMK AO2 T01001033
14926KSTC STC20170404195011004/04/17 19:50:31  5-MIN KSTC 050150Z 03004KT 10SM CLR 10/M03 A2996 990 39 700 030/04 RMK AO2 SLP158 T01001033
14926KSTC STC20170404195510304/04/17 19:55:31  5-MIN KSTC 050155Z 04003KT 10SM CLR 10/M04 A2996 990 37 700 040/03 RMK AO2 T01001039
14926KSTC STC20170404200010304/04/17 20:00:31  5-MIN KSTC 050200Z 00000KT 10SM CLR 09/M03 A2996 990 42 500 000/00 RMK AO2 T00891033
14926KSTC STC20170404200510304/04/17 20:05:31  5-MIN KSTC 050205Z 06003KT 10SM CLR 09/M03 A2996 990 42 500 060/03 RMK AO2 T00891033
14926KSTC STC20170404201010304/04/17 20:10:31  5-MIN KSTC 050210Z 00000KT 10SM CLR 09/M04 A2996 990 40 500 000/00 RMK AO2 T00891039
14926KSTC STC20170404201510304/04/17 20:15:31  5-MIN KSTC 050215Z 00000KT 10SM CLR 08/M04 A2997 980 42 500 000/00 RMK AO2 T00831039
14926KSTC STC20170404202010304/04/17 20:20:31  5-MIN KSTC 050220Z 00000KT 10SM CLR 08/M04 A2997 980 42 500 000/00 RMK AO2 T00831039
14926KSTC STC20170404202510304/04/17 20:25:31  5-MIN KSTC 050225Z 00000KT 10SM CLR 07/M03 A2997 980 51 300 000/00 RMK AO2 T00671028
14926KSTC STC20170404203010304/04/17 20:30:31  5-MIN KSTC 050230Z 00000KT 10SM CLR 06/M03 A2997 980 51 200 000/00 RMK AO2 T00611033
14926KSTC STC20170404203510304/04/17 20:35:31  5-MIN KSTC 050235Z 00000KT 10SM CLR 06/M03 A2996 990 53 200 000/00 RMK AO2 T00611028
14926KSTC STC20170404204010304/04/17 20:40:31  5-MIN KSTC 050240Z 02003KT 10SM CLR 06/M03 A2996 990 53 200 020/03 RMK AO2 T00611028
14926KSTC STC20170404204510304/04/17 20:45:31  5-MIN KSTC 050245Z 00000KT 10SM CLR 07/M03 A2996 990 51 300 000/00 RMK AO2 T00671028
14926KSTC STC20170404205011604/04/17 20:50:31  5-MIN KSTC 050250Z 00000KT 10SM CLR 06/M03 A2996 990 55 100 000/00 RMK AO2 SLP159 T00561028 53015
14926KSTC STC20170404205510304/04/17 20:55:31  5-MIN KSTC 050255Z 00000KT 10SM CLR 06/M03 A2996 990 55 100 000/00 RMK AO2 T00561028
14926KSTC STC20170404210010304/04/17 21:00:31  5-MIN KSTC 050300Z 00000KT 10SM CLR 06/M03 A2996 990 51 200 000/00 RMK AO2 T00611033
14926KSTC STC20170404210510304/04/17 21:05:31  5-MIN KSTC 050305Z 00000KT 10SM CLR 06/M03 A2996 990 55 100 000/00 RMK AO2 T00561028
14926KSTC STC20170404211010304/04/17 21:10:31  5-MIN KSTC 050310Z 00000KT 10SM CLR 06/M03 A2996 990 55 100 000/00 RMK AO2 T00561028
14926KSTC STC20170404211510304/04/17 21:15:31  5-MIN KSTC 050315Z 00000KT 10SM CLR 05/M03 A2996 990 57 100 000/00 RMK AO2 T00501028
14926KSTC STC20170404212010404/04/17 21:20:31  5-MIN KSTC 050320Z 00000KT 10SM CLR 03/M01 A2996 990 72 -100 000/00 RMK AO2 T00331011
14926KSTC STC20170404212510504/04/17 21:25:31  5-MIN KSTC 050325Z 00000KT 10SM CLR 03/M02 A2995 1000 72 -200 000/00 RMK AO2 T00281017
14926KSTC STC20170404213010504/04/17 21:30:31  5-MIN KSTC 050330Z 00000KT 10SM CLR 03/M03 A2995 1000 64 -100 000/00 RMK AO2 T00331028
14926KSTC STC20170404213510204/04/17 21:35:31  5-MIN KSTC 050335Z 00000KT 10SM CLR 04/M03 A2995 1000 62 0 000/00 RMK AO2 T00391028
14926KSTC STC20170404214010204/04/17 21:40:31  5-MIN KSTC 050340Z 00000KT 10SM CLR 04/M03 A2995 1000 59 0 000/00 RMK AO2 T00441028
14926KSTC STC20170404214510504/04/17 21:45:31  5-MIN KSTC 050345Z 34003KT 10SM CLR 03/M02 A2995 1000 67 -100 340/03 RMK AO2 T00331022
14926KSTC STC20170404215011204/04/17 21:50:31  5-MIN KSTC 050350Z 34003KT 10SM CLR 02/M02 A2995 1000 75 -200 340/03 RMK AO2 SLP156 T00221017
14926KSTC STC20170404215511004/04/17 21:55:31  5-MIN KSTC 050355Z AUTO 00000KT 10SM CLR 02/M02 A2995 1000 75 -200 000/00 RMK AO2 T00221017
14926KSTC STC20170404220011004/04/17 22:00:31  5-MIN KSTC 050400Z AUTO 00000KT 10SM CLR 03/M02 A2995 1000 72 -100 000/00 RMK AO2 T00281017
14926KSTC STC20170404220511004/04/17 22:05:31  5-MIN KSTC 050405Z AUTO 00000KT 10SM CLR 03/M02 A2995 1000 72 -100 000/00 RMK AO2 T00281017
14926KSTC STC20170404221011004/04/17 22:10:31  5-MIN KSTC 050410Z AUTO 00000KT 10SM CLR 02/M02 A2995 1000 75 -200 000/00 RMK AO2 T00221017
14926KSTC STC20170404221511004/04/17 22:15:31  5-MIN KSTC 050415Z AUTO 00000KT 10SM CLR 02/M02 A2995 1000 75 -200 000/00 RMK AO2 T00221017
14926KSTC STC20170404222011004/04/17 22:20:31  5-MIN KSTC 050420Z AUTO 01003KT 10SM CLR 03/M02 A2995 1000 69 -100 360/03 RMK AO2 T00281022
14926KSTC STC20170404222511004/04/17 22:25:31  5-MIN KSTC 050425Z AUTO 00000KT 10SM CLR 03/M02 A2994 1010 67 -100 000/00 RMK AO2 T00331022
14926KSTC STC20170404223011004/04/17 22:30:31  5-MIN KSTC 050430Z AUTO 00000KT 10SM CLR 02/M02 A2994 1010 75 -200 000/00 RMK AO2 T00221017
14926KSTC STC20170404223511004/04/17 22:35:31  5-MIN KSTC 050435Z AUTO 36003KT 10SM CLR 01/M02 A2994 1010 82 -300 360/03 RMK AO2 T00111017
14926KSTC STC20170404224011004/04/17 22:40:31  5-MIN KSTC 050440Z AUTO 00000KT 10SM CLR 03/M02 A2994 1010 72 -100 000/00 RMK AO2 T00281017
14926KSTC STC20170404224511004/04/17 22:45:31  5-MIN KSTC 050445Z AUTO 00000KT 10SM CLR 02/M02 A2994 1000 78 -300 000/00 RMK AO2 T00171017
14926KSTC STC20170404225011704/04/17 22:50:31  5-MIN KSTC 050450Z AUTO 00000KT 10SM CLR 02/M01 A2995 1000 78 -200 000/00 RMK AO2 SLP155 T00221011
14926KSTC STC20170404225511004/04/17 22:55:31  5-MIN KSTC 050455Z AUTO 00000KT 10SM CLR 01/M02 A2995 1000 82 -400 000/00 RMK AO2 T00111017
14926KSTC STC20170404230011004/04/17 23:00:31  5-MIN KSTC 050500Z AUTO 00000KT 10SM CLR 03/M01 A2995 1000 79 -200 000/00 RMK AO2 T00281006
14926KSTC STC20170404230510904/04/17 23:05:31  5-MIN KSTC 050505Z AUTO 00000KT 10SM CLR 02/M01 A2996 990 82 -200 000/00 RMK AO2 T00221006
14926KSTC STC20170404231010904/04/17 23:10:31  5-MIN KSTC 050510Z AUTO 00000KT 10SM CLR 02/M01 A2996 990 82 -300 000/00 RMK AO2 T00171011
14926KSTC STC20170404231510904/04/17 23:15:31  5-MIN KSTC 050515Z AUTO 00000KT 10SM CLR 02/M02 A2996 990 78 -300 000/00 RMK AO2 T00171017
14926KSTC STC20170404232010904/04/17 23:20:31  5-MIN KSTC 050520Z AUTO 00000KT 10SM CLR 02/M02 A2997 980 75 -300 000/00 RMK AO2 T00171022
14926KSTC STC20170404232510904/04/17 23:25:31  5-MIN KSTC 050525Z AUTO 00000KT 10SM CLR 02/M02 A2997 980 75 -300 000/00 RMK AO2 T00171022
14926KSTC STC20170404233011604/04/17 23:30:31  5-MIN KSTC 050530Z AUTO 00000KT 10SM CLR 02/M03 A2998 970 72 -300 000/00 RMK AO2 PRESRR T00171028
14926KSTC STC20170404233510904/04/17 23:35:31  5-MIN KSTC 050535Z AUTO 00000KT 10SM CLR 02/M03 A2998 970 72 -300 000/00 RMK AO2 T00171028
14926KSTC STC20170404234010904/04/17 23:40:31  5-MIN KSTC 050540Z AUTO 00000KT 10SM CLR 02/M02 A2998 970 75 -300 000/00 RMK AO2 T00171022
14926KSTC STC20170404234510904/04/17 23:45:31  5-MIN KSTC 050545Z AUTO 00000KT 10SM CLR 01/M03 A2999 960 75 -400 000/00 RMK AO2 T00111028
14926KSTC STC20170404235014404/04/17 23:50:31  5-MIN KSTC 050550Z AUTO 00000KT 10SM CLR 01/M03 A2999 960 75 -400 000/00 RMK AO2 SLP171 T00111028 10144 20011 401560011 51005
14926KSTC STC20170404235510904/04/17 23:55:31  5-MIN KSTC 050555Z AUTO 00000KT 10SM CLR 02/M02 A3000 960 75 -300 000/00 RMK AO2 T00171022
14926KSTC STC20170405000010904/05/17 00:00:31  5-MIN KSTC 050600Z AUTO 00000KT 10SM CLR 02/M02 A3000 960 75 -300 000/00 RMK AO2 T00171022
14926KSTC STC20170405000510904/05/17 00:05:31  5-MIN KSTC 050605Z AUTO 00000KT 10SM CLR 01/M02 A3000 950 78 -400 000/00 RMK AO2 T00111022
14926KSTC STC20170405001010904/05/17 00:10:31  5-MIN KSTC 050610Z AUTO 00000KT 10SM CLR 01/M02 A3000 950 82 -500 000/00 RMK AO2 T00061022
14926KSTC STC20170405001510904/05/17 00:15:31  5-MIN KSTC 050615Z AUTO 00000KT 10SM CLR 01/M03 A3000 950 78 -500 000/00 RMK AO2 T00061028
14926KSTC STC20170405002010904/05/17 00:20:31  5-MIN KSTC 050620Z AUTO 00000KT 10SM CLR 01/M02 A3000 950 82 -500 000/00 RMK AO2 T00061022
14926KSTC STC20170405002511204/05/17 00:25:31  5-MIN KSTC 050625Z AUTO 00000KT 10SM FEW075 01/M02 A3000 950 78 -400 000/00 RMK AO2 T00111022
14926KSTC STC20170405003011204/05/17 00:30:31  5-MIN KSTC 050630Z AUTO 00000KT 10SM SCT070 01/M02 A3000 950 78 -400 000/00 RMK AO2 T00111022
14926KSTC STC20170405003511204/05/17 00:35:31  5-MIN KSTC 050635Z AUTO 00000KT 10SM BKN070 01/M02 A3000 950 82 -500 000/00 RMK AO2 T00061022
14926KSTC STC20170405004011204/05/17 00:40:31  5-MIN KSTC 050640Z AUTO 00000KT 10SM BKN070 01/M02 A3000 950 78 -400 000/00 RMK AO2 T00111022
14926KSTC STC20170405004511204/05/17 00:45:31  5-MIN KSTC 050645Z AUTO 35003KT 10SM BKN070 01/M02 A3000 950 82 -500 350/03 RMK AO2 T00061022
14926KSTC STC20170405005011904/05/17 00:50:31  5-MIN KSTC 050650Z AUTO 00000KT 10SM BKN070 01/M02 A3000 950 78 -400 000/00 RMK AO2 SLP174 T00111022
14926KSTC STC20170405005511204/05/17 00:55:31  5-MIN KSTC 050655Z AUTO 00000KT 10SM BKN070 01/M02 A3000 950 78 -400 000/00 RMK AO2 T00111022
14926KSTC STC20170405010011204/05/17 01:00:31  5-MIN KSTC 050700Z AUTO 00000KT 10SM SCT070 00/M02 A3000 950 85 -600 000/00 RMK AO2 T00001022
14926KSTC STC20170405010511204/05/17 01:05:31  5-MIN KSTC 050705Z AUTO 00000KT 10SM SCT070 00/M02 A3000 950 85 -600 000/00 RMK AO2 T00001022
14926KSTC STC20170405011011204/05/17 01:10:31  5-MIN KSTC 050710Z AUTO 00000KT 10SM FEW070 00/M02 A3000 950 85 -600 000/00 RMK AO2 T00001022
14926KSTC STC20170405011510904/05/17 01:15:31  5-MIN KSTC 050715Z AUTO 00000KT 10SM CLR 00/M02 A3000 950 85 -600 000/00 RMK AO2 T00001022
14926KSTC STC20170405012010904/05/17 01:20:31  5-MIN KSTC 050720Z AUTO 00000KT 10SM CLR 00/M02 A3000 950 85 -600 000/00 RMK AO2 T00001022
14926KSTC STC20170405012510904/05/17 01:25:31  5-MIN KSTC 050725Z AUTO 00000KT 10SM CLR 01/M02 A3000 950 82 -500 000/00 RMK AO2 T00061022
14926KSTC STC20170405013010904/05/17 01:30:31  5-MIN KSTC 050730Z AUTO 00000KT 10SM CLR 00/M02 A3000 950 85 -600 000/00 RMK AO2 T00001022
14926KSTC STC20170405013511004/05/17 01:35:31  5-MIN KSTC 050735Z AUTO 00000KT 10SM CLR M01/M03 A3000 960 85 -600 000/00 RMK AO2 T10061028
14926KSTC STC20170405014011004/05/17 01:40:31  5-MIN KSTC 050740Z AUTO 00000KT 10SM CLR M01/M03 A3000 950 85 -600 000/00 RMK AO2 T10061028
14926KSTC STC20170405014511004/05/17 01:45:31  5-MIN KSTC 050745Z AUTO 00000KT 10SM CLR M01/M03 A3000 950 85 -600 000/00 RMK AO2 T10061028
14926KSTC STC20170405015011704/05/17 01:50:31  5-MIN KSTC 050750Z AUTO 31003KT 10SM CLR M01/M03 A3000 960 85 -600 310/03 RMK AO2 SLP173 T10061028
14926KSTC STC20170405015510904/05/17 01:55:31  5-MIN KSTC 050755Z AUTO 31003KT 10SM CLR 00/M03 A3000 950 81 -600 310/03 RMK AO2 T00001028
14926KSTC STC20170405020010904/05/17 02:00:31  5-MIN KSTC 050800Z AUTO 32003KT 10SM CLR 00/M02 A3000 960 85 -600 320/03 RMK AO2 T00001022
14926KSTC STC20170405020510904/05/17 02:05:31  5-MIN KSTC 050805Z AUTO 00000KT 10SM CLR 00/M02 A3000 960 85 -600 000/00 RMK AO2 T00001022
14926KSTC STC20170405021010904/05/17 02:10:31  5-MIN KSTC 050810Z AUTO 35003KT 10SM CLR 00/M02 A2999 960 85 -500 350/03 RMK AO2 T00001022
14926KSTC STC20170405021510904/05/17 02:15:31  5-MIN KSTC 050815Z AUTO 00000KT 10SM CLR 00/M02 A2999 960 85 -500 000/00 RMK AO2 T00001022
14926KSTC STC20170405022010904/05/17 02:20:31  5-MIN KSTC 050820Z AUTO 00000KT 10SM CLR 01/M02 A2999 960 82 -500 000/00 RMK AO2 T00061022
14926KSTC STC20170405022510904/05/17 02:25:31  5-MIN KSTC 050825Z AUTO 34003KT 10SM CLR 00/M03 A2999 960 81 -500 340/03 RMK AO2 T00001028
14926KSTC STC20170405023011004/05/17 02:30:31  5-MIN KSTC 050830Z AUTO 35003KT 10SM CLR M01/M03 A2999 960 85 -600 350/03 RMK AO2 T10061028
14926KSTC STC20170405023511004/05/17 02:35:31  5-MIN KSTC 050835Z AUTO 00000KT 10SM CLR M01/M02 A2998 970 88 -600 000/00 RMK AO2 T10061022
14926KSTC STC20170405024011004/05/17 02:40:31  5-MIN KSTC 050840Z AUTO 01003KT 10SM CLR M01/M03 A2998 970 85 -600 010/03 RMK AO2 T10061028
14926KSTC STC20170405024510904/05/17 02:45:31  5-MIN KSTC 050845Z AUTO 00000KT 10SM CLR 00/M02 A2998 970 85 -500 000/00 RMK AO2 T00001022
14926KSTC STC20170405025012204/05/17 02:50:31  5-MIN KSTC 050850Z AUTO 00000KT 10SM CLR 00/M02 A2998 970 85 -500 000/00 RMK AO2 SLP166 T00001022 53012
14926KSTC STC20170405025510904/05/17 02:55:31  5-MIN KSTC 050855Z AUTO 00000KT 10SM CLR 00/M02 A2997 980 85 -500 000/00 RMK AO2 T00001022
14926KSTC STC20170405030011004/05/17 03:00:31  5-MIN KSTC 050900Z AUTO 36003KT 10SM CLR M01/M03 A2997 980 85 -600 360/03 RMK AO2 T10061028
14926KSTC STC20170405030511004/05/17 03:05:31  5-MIN KSTC 050905Z AUTO 01004KT 10SM CLR M01/M03 A2997 980 88 -700 010/04 RMK AO2 T10111028
14926KSTC STC20170405031011004/05/17 03:10:31  5-MIN KSTC 050910Z AUTO 01003KT 10SM CLR M01/M03 A2996 990 88 -700 010/03 RMK AO2 T10111028
14926KSTC STC20170405031511004/05/17 03:15:31  5-MIN KSTC 050915Z AUTO 01003KT 10SM CLR M01/M03 A2996 990 88 -700 010/03 RMK AO2 T10111028
14926KSTC STC20170405032010904/05/17 03:20:31  5-MIN KSTC 050920Z AUTO 04003KT 10SM CLR 00/M02 A2996 990 85 -500 040/03 RMK AO2 T00001022
14926KSTC STC20170405032511004/05/17 03:25:31  5-MIN KSTC 050925Z AUTO 04004KT 10SM CLR M01/M02 A2996 990 88 -600 040/04 RMK AO2 T10061022
14926KSTC STC20170405033011004/05/17 03:30:31  5-MIN KSTC 050930Z AUTO 02004KT 10SM CLR M01/M03 A2996 990 88 -700 020/04 RMK AO2 T10111028
14926KSTC STC20170405033511004/05/17 03:35:31  5-MIN KSTC 050935Z AUTO 00000KT 10SM CLR M01/M02 A2996 990 92 -700 000/00 RMK AO2 T10111022
14926KSTC STC20170405034011004/05/17 03:40:31  5-MIN KSTC 050940Z AUTO 36005KT 10SM CLR M01/M03 A2997 980 88 -700 360/05 RMK AO2 T10111028
14926KSTC STC20170405034511004/05/17 03:45:31  5-MIN KSTC 050945Z AUTO 01004KT 10SM CLR M01/M03 A2997 980 85 -600 010/04 RMK AO2 T10061028
14926KSTC STC20170405035011704/05/17 03:50:31  5-MIN KSTC 050950Z AUTO 03003KT 10SM CLR M01/M03 A2997 980 85 -600 020/03 RMK AO2 SLP165 T10061028
14926KSTC STC20170405035511004/05/17 03:55:31  5-MIN KSTC 050955Z AUTO 00000KT 10SM CLR M01/M03 A2998 970 85 -600 000/00 RMK AO2 T10061028
14926KSTC STC20170405040010904/05/17 04:00:31  5-MIN KSTC 051000Z AUTO 02003KT 10SM CLR 00/M02 A2998 980 85 -500 020/03 RMK AO2 T00001022
14926KSTC STC20170405040510904/05/17 04:05:31  5-MIN KSTC 051005Z AUTO 01004KT 10SM CLR 00/M02 A2997 980 85 -500 010/04 RMK AO2 T00001022
14926KSTC STC20170405041010904/05/17 04:10:31  5-MIN KSTC 051010Z AUTO 36005KT 10SM CLR 00/M02 A2998 970 85 -500 350/05 RMK AO2 T00001022
14926KSTC STC20170405041511004/05/17 04:15:31  5-MIN KSTC 051015Z AUTO 34005KT 10SM CLR M01/M03 A2998 970 88 -700 340/05 RMK AO2 T10111028
14926KSTC STC20170405042011004/05/17 04:20:31  5-MIN KSTC 051020Z AUTO 36004KT 10SM CLR M01/M03 A2998 970 88 -700 350/04 RMK AO2 T10111028
14926KSTC STC20170405042510904/05/17 04:25:31  5-MIN KSTC 051025Z AUTO 01005KT 10SM CLR 00/M02 A2998 970 85 -500 010/05 RMK AO2 T00001022
14926KSTC STC20170405043010904/05/17 04:30:31  5-MIN KSTC 051030Z AUTO 36006KT 10SM CLR 01/M02 A2998 970 82 -500 360/06 RMK AO2 T00061022
14926KSTC STC20170405043510904/05/17 04:35:31  5-MIN KSTC 051035Z AUTO 36006KT 10SM CLR 01/M02 A2999 960 82 -500 360/06 RMK AO2 T00061022
14926KSTC STC20170405044010904/05/17 04:40:31  5-MIN KSTC 051040Z AUTO 35005KT 10SM CLR 01/M02 A2999 960 82 -500 350/05 RMK AO2 T00061022
14926KSTC STC20170405044510904/05/17 04:45:31  5-MIN KSTC 051045Z AUTO 35004KT 10SM CLR 01/M02 A2999 960 82 -500 350/04 RMK AO2 T00061022
14926KSTC STC20170405045011604/05/17 04:50:31  5-MIN KSTC 051050Z AUTO 35004KT 10SM CLR 01/M02 A2999 960 82 -400 350/04 RMK AO2 SLP170 T00111017
14926KSTC STC20170405045510904/05/17 04:55:31  5-MIN KSTC 051055Z AUTO 36004KT 10SM CLR 01/M02 A2999 960 82 -400 360/04 RMK AO2 T00111017
14926KSTC STC20170405050010904/05/17 05:00:31  5-MIN KSTC 051100Z AUTO 36005KT 10SM CLR 01/M02 A2999 960 85 -500 360/05 RMK AO2 T00061017
14926KSTC STC20170405050510904/05/17 05:05:31  5-MIN KSTC 051105Z AUTO 35005KT 10SM CLR 01/M02 A3000 960 85 -500 350/05 RMK AO2 T00061017
14926KSTC STC20170405051011304/05/17 05:10:31  5-MIN KSTC 051110Z AUTO 34006KT 10SM FEW075 M01/M02 A3000 950 88 -600 330/06 RMK AO2 T10061022
14926KSTC STC20170405051511304/05/17 05:15:31  5-MIN KSTC 051115Z AUTO 35004KT 10SM SCT075 M01/M02 A3000 950 88 -600 350/04 RMK AO2 T10061022
14926KSTC STC20170405052011204/05/17 05:20:31  5-MIN KSTC 051120Z AUTO 36005KT 10SM BKN075 01/M02 A3000 950 82 -400 360/05 RMK AO2 T00111017
14926KSTC STC20170405052511204/05/17 05:25:31  5-MIN KSTC 051125Z AUTO 35005KT 10SM BKN075 01/M02 A3001 950 82 -400 350/05 RMK AO2 T00111017
14926KSTC STC20170405053011204/05/17 05:30:31  5-MIN KSTC 051130Z AUTO 35004KT 10SM BKN075 01/M02 A3000 950 82 -400 350/04 RMK AO2 T00111017
14926KSTC STC20170405053510704/05/17 05:35:31  5-MIN KSTC 051135Z 01004KT 10SM BKN075 01/M02 A3000 950 85 -500 010/04 RMK AO2 T00061017
14926KSTC STC20170405054010704/05/17 05:40:31  5-MIN KSTC 051140Z 01004KT 10SM SCT075 01/M02 A3001 950 82 -400 360/04 RMK AO2 T00111017
14926KSTC STC20170405054510704/05/17 05:45:31  5-MIN KSTC 051145Z 36003KT 10SM SCT070 01/M02 A3001 940 82 -400 360/03 RMK AO2 T00111017
14926KSTC STC20170405055013204/05/17 05:50:31  5-MIN KSTC 051150Z 34003KT 10SM BKN070 00/M02 A3001 940 85 -600 340/03 RMK AO2 SLP178 T00001022 10017 21011 58006
14926KSTC STC20170405055510704/05/17 05:55:31  5-MIN KSTC 051155Z 34003KT 10SM BKN070 00/M02 A3001 940 85 -600 330/03 RMK AO2 T00001022
14926KSTC STC20170405060010704/05/17 06:00:31  5-MIN KSTC 051200Z 00000KT 10SM BKN070 00/M02 A3002 940 85 -600 000/00 RMK AO2 T00001022
14926KSTC STC20170405060511404/05/17 06:05:31  5-MIN KSTC 051205Z 00000KT 10SM BKN070 BKN080 01/M02 A3002 940 82 -500 000/00 RMK AO2 T00061022
14926KSTC STC20170405061011404/05/17 06:10:31  5-MIN KSTC 051210Z 35003KT 10SM SCT070 BKN080 01/M02 A3002 930 82 -400 340/03 RMK AO2 T00111017
14926KSTC STC20170405061510704/05/17 06:15:31  5-MIN KSTC 051215Z 00000KT 10SM OVC075 01/M02 A3002 940 82 -500 000/00 RMK AO2 T00061022
14926KSTC STC20170405062010704/05/17 06:20:31  5-MIN KSTC 051220Z 00000KT 10SM OVC075 01/M02 A3002 930 85 -500 000/00 RMK AO2 T00061017
14926KSTC STC20170405062510704/05/17 06:25:31  5-MIN KSTC 051225Z 00000KT 10SM OVC075 01/M02 A3002 930 82 -400 000/00 RMK AO2 T00111017
14926KSTC STC20170405063010704/05/17 06:30:31  5-MIN KSTC 051230Z 00000KT 10SM OVC080 01/M02 A3002 930 85 -500 000/00 RMK AO2 T00061017
14926KSTC STC20170405063510704/05/17 06:35:31  5-MIN KSTC 051235Z 00000KT 10SM OVC080 01/M02 A3002 930 85 -500 000/00 RMK AO2 T00061017
14926KSTC STC20170405064010704/05/17 06:40:31  5-MIN KSTC 051240Z 33003KT 10SM OVC075 01/M01 A3003 930 85 -400 330/03 RMK AO2 T00111011
14926KSTC STC20170405064510704/05/17 06:45:31  5-MIN KSTC 051245Z 33003KT 10SM OVC080 01/M01 A3003 920 89 -500 330/03 RMK AO2 T00111006
14926KSTC STC20170405065011404/05/17 06:50:31  5-MIN KSTC 051250Z 33003KT 10SM OVC080 01/M01 A3003 920 89 -500 320/03 RMK AO2 SLP184 T00111006
14926KSTC STC20170405065510704/05/17 06:55:31  5-MIN KSTC 051255Z 33003KT 10SM OVC080 01/M01 A3003 920 89 -500 330/03 RMK AO2 T00111006
14926KSTC STC20170405070010704/05/17 07:00:31  5-MIN KSTC 051300Z 33003KT 10SM OVC080 02/M01 A3004 920 85 -400 330/03 RMK AO2 T00171006
14926KSTC STC20170405070510704/05/17 07:05:31  5-MIN KSTC 051305Z 33004KT 10SM OVC080 02/M01 A3004 920 85 -400 330/04 RMK AO2 T00171006
14926KSTC STC20170405071010704/05/17 07:10:31  5-MIN KSTC 051310Z 34003KT 10SM OVC080 02/M01 A3004 920 82 -300 340/03 RMK AO2 T00221006
14926KSTC STC20170405071510704/05/17 07:15:31  5-MIN KSTC 051315Z 33003KT 10SM OVC075 02/M01 A3003 920 82 -300 330/03 RMK AO2 T00221006
14926KSTC STC20170405072010704/05/17 07:20:31  5-MIN KSTC 051320Z 33004KT 10SM OVC075 03/M01 A3004 920 79 -300 330/04 RMK AO2 T00281006
14926KSTC STC20170405072510704/05/17 07:25:31  5-MIN KSTC 051325Z 33005KT 10SM OVC075 03/M01 A3003 920 79 -200 330/05 RMK AO2 T00281006
14926KSTC STC20170405073010704/05/17 07:30:31  5-MIN KSTC 051330Z 33005KT 10SM OVC075 03/M01 A3003 920 79 -200 330/05 RMK AO2 T00281006
14926KSTC STC20170405073510704/05/17 07:35:31  5-MIN KSTC 051335Z 33004KT 10SM OVC075 03/M01 A3003 920 79 -200 330/04 RMK AO2 T00281006
14926KSTC STC20170405074010704/05/17 07:40:31  5-MIN KSTC 051340Z 33004KT 10SM OVC070 03/M01 A3003 920 76 -200 330/04 RMK AO2 T00331006
14926KSTC STC20170405074510604/05/17 07:45:31  5-MIN KSTC 051345Z 33004KT 10SM OVC070 03/00 A3003 930 79 -200 330/04 RMK AO2 T00330000
14926KSTC STC20170405075011304/05/17 07:50:31  5-MIN KSTC 051350Z 34004KT 10SM OVC075 04/00 A3003 930 76 -100 330/04 RMK AO2 SLP183 T00390000
14926KSTC STC20170405075510604/05/17 07:55:31  5-MIN KSTC 051355Z 35004KT 10SM OVC075 04/00 A3003 930 76 -100 350/04 RMK AO2 T00390000
14926KSTC STC20170405080010304/05/17 08:00:31  5-MIN KSTC 051400Z 35006KT 10SM OVC070 04/00 A3003 930 73 0 350/06 RMK AO2 T00440000
14926KSTC STC20170405080510404/05/17 08:05:31  5-MIN KSTC 051405Z 36006KT 10SM OVC070 05/M01 A3003 930 67 0 360/06 RMK AO2 T00501006
14926KSTC STC20170405081010404/05/17 08:10:31  5-MIN KSTC 051410Z 36006KT 10SM OVC070 05/M01 A3003 930 67 0 360/06 RMK AO2 T00501006
14926KSTC STC20170405081511104/05/17 08:15:31  5-MIN KSTC 051415Z 36007KT 10SM SCT060 BKN075 05/M01 A3003 930 67 0 360/07 RMK AO2 T00501006
14926KSTC STC20170405082010404/05/17 08:20:31  5-MIN KSTC 051420Z 36007KT 10SM BKN070 05/M01 A3002 930 67 0 360/07 RMK AO2 T00501006
14926KSTC STC20170405082510404/05/17 08:25:31  5-MIN KSTC 051425Z 36007KT 10SM SCT065 05/M01 A3002 930 67 0 360/07 RMK AO2 T00501006
14926KSTC STC20170405083010604/05/17 08:30:31  5-MIN KSTC 051430Z 36008KT 10SM FEW060 06/M01 A3003 930 65 100 360/08 RMK AO2 T00561006
14926KSTC STC20170405083510604/05/17 08:35:31  5-MIN KSTC 051435Z 36009KT 10SM FEW060 06/M01 A3003 930 65 100 360/09 RMK AO2 T00561006
14926KSTC STC20170405084010304/05/17 08:40:31  5-MIN KSTC 051440Z 36007KT 10SM CLR 06/M01 A3002 930 65 100 360/07 RMK AO2 T00561006
14926KSTC STC20170405084510304/05/17 08:45:31  5-MIN KSTC 051445Z 35008KT 10SM CLR 06/M01 A3002 930 65 100 350/08 RMK AO2 T00561006
14926KSTC STC20170405085011604/05/17 08:50:31  5-MIN KSTC 051450Z 35006KT 10SM CLR 06/M01 A3002 930 65 100 350/06 RMK AO2 SLP183 T00561006 53013
14926KSTC STC20170405085510304/05/17 08:55:31  5-MIN KSTC 051455Z 35008KT 10SM CLR 06/M01 A3002 930 65 100 340/08 RMK AO2 T00561006
14926KSTC STC20170405090010304/05/17 09:00:31  5-MIN KSTC 051500Z 35007KT 10SM CLR 06/M01 A3002 930 65 100 350/07 RMK AO2 T00561006
14926KSTC STC20170405090510304/05/17 09:05:31  5-MIN KSTC 051505Z 36008KT 10SM CLR 06/M01 A3002 930 62 100 360/08 RMK AO2 T00611006
14926KSTC STC20170405091010604/05/17 09:10:31  5-MIN KSTC 051510Z 36009KT 10SM FEW055 06/M01 A3002 930 60 100 360/09 RMK AO2 T00611011
14926KSTC STC20170405091510604/05/17 09:15:31  5-MIN KSTC 051515Z 36008KT 10SM SCT055 07/M02 A3002 930 55 200 360/08 RMK AO2 T00671017
14926KSTC STC20170405092010604/05/17 09:20:31  5-MIN KSTC 051520Z 36010KT 10SM BKN055 07/M02 A3002 930 55 200 360/10 RMK AO2 T00671017
14926KSTC STC20170405092510604/05/17 09:25:31  5-MIN KSTC 051525Z 36007KT 10SM BKN055 07/M02 A3003 930 55 200 350/07 RMK AO2 T00671017
14926KSTC STC20170405093010604/05/17 09:30:31  5-MIN KSTC 051530Z 35007KT 10SM BKN055 07/M02 A3003 930 55 200 350/07 RMK AO2 T00671017
14926KSTC STC20170405093510604/05/17 09:35:31  5-MIN KSTC 051535Z 36008KT 10SM BKN055 07/M01 A3003 930 57 200 360/08 RMK AO2 T00671011
14926KSTC STC20170405094010604/05/17 09:40:31  5-MIN KSTC 051540Z 35008KT 10SM BKN055 07/M01 A3003 930 55 300 350/08 RMK AO2 T00721011
14926KSTC STC20170405094510604/05/17 09:45:31  5-MIN KSTC 051545Z 35007KT 10SM BKN050 08/M01 A3003 920 53 300 350/07 RMK AO2 T00781011
14926KSTC STC20170405095011304/05/17 09:50:31  5-MIN KSTC 051550Z 36007KT 10SM BKN050 08/M02 A3003 920 51 300 360/07 RMK AO2 SLP186 T00781017
14926KSTC STC20170405095510604/05/17 09:55:31  5-MIN KSTC 051555Z 03007KT 10SM OVC050 08/M02 A3003 920 49 300 030/07 RMK AO2 T00781022
14926KSTC STC20170405100010604/05/17 10:00:31  5-MIN KSTC 051600Z 36008KT 10SM OVC050 08/M02 A3003 920 47 400 360/08 RMK AO2 T00831022
14926KSTC STC20170405100510604/05/17 10:05:31  5-MIN KSTC 051605Z 02007KT 10SM OVC050 08/M03 A3003 920 47 300 020/07 RMK AO2 T00781028
14926KSTC STC20170405101010604/05/17 10:10:31  5-MIN KSTC 051610Z 36008KT 10SM OVC050 08/M03 A3003 930 47 300 360/08 RMK AO2 T00781028
14926KSTC STC20170405101510604/05/17 10:15:31  5-MIN KSTC 051615Z 01008KT 10SM OVC050 08/M03 A3003 930 47 300 010/08 RMK AO2 T00781028
14926KSTC STC20170405102010604/05/17 10:20:31  5-MIN KSTC 051620Z 01006KT 10SM OVC050 08/M03 A3003 930 47 300 010/06 RMK AO2 T00781028
14926KSTC STC20170405102510604/05/17 10:25:31  5-MIN KSTC 051625Z 02007KT 10SM OVC050 08/M03 A3003 930 45 400 020/07 RMK AO2 T00831028
14926KSTC STC20170405103010604/05/17 10:30:31  5-MIN KSTC 051630Z 01006KT 10SM OVC050 08/M03 A3002 930 45 400 010/06 RMK AO2 T00831028
14926KSTC STC20170405103511304/05/17 10:35:31  5-MIN KSTC 051635Z 02007KT 10SM BKN050 OVC060 09/M03 A3002 930 42 500 020/07 RMK AO2 T00891033
14926KSTC STC20170405104010604/05/17 10:40:31  5-MIN KSTC 051640Z 03006KT 10SM OVC055 09/M03 A3002 940 43 500 030/06 RMK AO2 T00891028
14926KSTC STC20170405104510604/05/17 10:45:31  5-MIN KSTC 051645Z 04009KT 10SM OVC055 09/M03 A3002 940 43 500 030/09 RMK AO2 T00891028
14926KSTC STC20170405105011304/05/17 10:50:31  5-MIN KSTC 051650Z 04010KT 10SM OVC060 09/M03 A3001 940 42 500 040/10 RMK AO2 SLP180 T00891033
14926KSTC STC20170405105510604/05/17 10:55:31  5-MIN KSTC 051655Z 03008KT 10SM BKN060 09/M03 A3001 940 42 500 030/08 RMK AO2 T00941028
14926KSTC STC20170405110010604/05/17 11:00:31  5-MIN KSTC 051700Z 02010KT 10SM BKN060 09/M03 A3001 950 40 500 020/10 RMK AO2 T00941033
14926KSTC STC20170405110511204/05/17 11:05:31  5-MIN KSTC 051705Z 01009G17KT 10SM BKN060 09/M03 A3000 950 42 500 010/09G17 RMK AO2 T00941028
14926KSTC STC20170405111011204/05/17 11:10:31  5-MIN KSTC 051710Z 02009G17KT 10SM BKN060 10/M03 A3000 950 40 600 020/09G17 RMK AO2 T01001028
14926KSTC STC20170405111510604/05/17 11:15:31  5-MIN KSTC 051715Z 01010KT 10SM BKN055 10/M03 A3000 950 39 600 360/10 RMK AO2 T01001033
14926KSTC STC20170405112011204/05/17 11:20:31  5-MIN KSTC 051720Z 02012G17KT 10SM SCT055 11/M03 A3000 950 39 700 020/12G17 RMK AO2 T01061028
14926KSTC STC20170405112511204/05/17 11:25:31  5-MIN KSTC 051725Z 03008G17KT 10SM SCT055 11/M03 A3000 950 37 700 030/08G17 RMK AO2 T01061033
14926KSTC STC20170405113012804/05/17 11:30:31  5-MIN KSTC 051730Z 02008G17KT 350V060 10SM BKN055 11/M03 A3000 950 39 700 020/08G17 350V060 RMK AO2 T01061028
14926KSTC STC20170405113511204/05/17 11:35:31  5-MIN KSTC 051735Z 02011G17KT 10SM BKN055 11/M03 A3000 950 39 700 020/11G17 RMK AO2 T01061028
14926KSTC STC20170405114010604/05/17 11:40:31  5-MIN KSTC 051740Z 02009KT 10SM BKN055 10/M03 A3000 950 40 600 020/09 RMK AO2 T01001028
14926KSTC STC20170405114510604/05/17 11:45:31  5-MIN KSTC 051745Z 01012KT 10SM BKN055 10/M03 A3000 950 39 600 010/12 RMK AO2 T01001033
14926KSTC STC20170405115013104/05/17 11:50:31  5-MIN KSTC 051750Z 03009KT 10SM OVC055 10/M03 A3000 950 40 600 030/09 RMK AO2 SLP175 T01001028 10106 20000 50004
14926KSTC STC20170405115510604/05/17 11:55:31  5-MIN KSTC 051755Z 03010KT 10SM OVC055 10/M03 A3000 950 39 600 030/10 RMK AO2 T01001033
14926KSTC STC20170405120012204/05/17 12:00:31  5-MIN KSTC 051800Z 02007KT 360V070 10SM OVC055 10/M03 A3000 950 39 600 020/07 360V070 RMK AO2 T01001033
14926KSTC STC20170405120510604/05/17 12:05:31  5-MIN KSTC 051805Z 02008KT 10SM OVC055 10/M03 A3000 950 40 600 010/08 RMK AO2 T01001028
14926KSTC STC20170405121010604/05/17 12:10:31  5-MIN KSTC 051810Z 35010KT 10SM OVC055 10/M03 A3000 960 40 600 350/10 RMK AO2 T01001028
14926KSTC STC20170405121511204/05/17 12:15:31  5-MIN KSTC 051815Z 35012G16KT 10SM BKN055 11/M03 A2999 960 39 700 350/12G16 RMK AO2 T01061028
14926KSTC STC20170405122011204/05/17 12:20:31  5-MIN KSTC 051820Z 36006G16KT 10SM BKN060 10/M03 A2999 970 39 600 360/06G16 RMK AO2 T01001033
14926KSTC STC20170405122510604/05/17 12:25:31  5-MIN KSTC 051825Z 35012KT 10SM BKN060 11/M03 A2998 970 39 700 350/12 RMK AO2 T01061028
14926KSTC STC20170405123010604/05/17 12:30:31  5-MIN KSTC 051830Z 02008KT 10SM BKN060 11/M03 A2998 970 39 700 020/08 RMK AO2 T01061028
14926KSTC STC20170405123512204/05/17 12:35:31  5-MIN KSTC 051835Z 36007KT 320V030 10SM SCT060 11/M02 A2998 970 39 800 360/07 320V030 RMK AO2 T01111022
14926KSTC STC20170405124011204/05/17 12:40:31  5-MIN KSTC 051840Z 36011G17KT 10SM SCT060 11/M03 A2998 970 37 800 360/11G17 RMK AO2 T01111028
14926KSTC STC20170405124510604/05/17 12:45:31  5-MIN KSTC 051845Z 35009KT 10SM FEW060 11/M03 A2998 970 37 800 350/09 RMK AO2 T01111028
14926KSTC STC20170405125011304/05/17 12:50:31  5-MIN KSTC 051850Z 02010KT 10SM FEW060 11/M03 A2998 980 37 800 020/10 RMK AO2 SLP166 T01111028
14926KSTC STC20170405125510904/05/17 12:55:31  5-MIN KSTC 051855Z 02013G20KT 10SM CLR 11/M02 A2998 980 39 800 020/13G20 RMK AO2 T01111022
14926KSTC STC20170405130010904/05/17 13:00:31  5-MIN KSTC 051900Z 36009G20KT 10SM CLR 11/M02 A2997 980 39 800 350/09G20 RMK AO2 T01111022
14926KSTC STC20170405130510904/05/17 13:05:31  5-MIN KSTC 051905Z 34010G21KT 10SM CLR 11/M02 A2997 980 39 800 340/10G21 RMK AO2 T01111022
14926KSTC STC20170405131010904/05/17 13:10:31  5-MIN KSTC 051910Z 36009G21KT 10SM CLR 11/M02 A2997 980 39 800 360/09G21 RMK AO2 T01111022
14926KSTC STC20170405131510904/05/17 13:15:31  5-MIN KSTC 051915Z 35012G18KT 10SM CLR 12/M02 A2997 980 38 900 350/12G18 RMK AO2 T01171022
14926KSTC STC20170405132010904/05/17 13:20:31  5-MIN KSTC 051920Z 35013G18KT 10SM CLR 11/M02 A2997 980 39 800 350/13G18 RMK AO2 T01111022
14926KSTC STC20170405132510304/05/17 13:25:31  5-MIN KSTC 051925Z 34012KT 10SM CLR 11/M02 A2997 980 39 800 340/12 RMK AO2 T01111022
14926KSTC STC20170405133010604/05/17 13:30:31  5-MIN KSTC 051930Z 36009KT 10SM FEW075 11/M02 A2997 980 39 800 360/09 RMK AO2 T01111022
14926KSTC STC20170405133510604/05/17 13:35:31  5-MIN KSTC 051935Z 34012KT 10SM SCT075 11/M02 A2997 980 39 800 340/12 RMK AO2 T01111022
14926KSTC STC20170405134011204/05/17 13:40:31  5-MIN KSTC 051940Z 35013G17KT 10SM BKN075 11/M02 A2997 980 39 800 350/13G17 RMK AO2 T01111022
14926KSTC STC20170405134510604/05/17 13:45:31  5-MIN KSTC 051945Z 35011KT 10SM BKN080 11/M03 A2997 980 39 700 340/11 RMK AO2 T01061028
14926KSTC STC20170405135011304/05/17 13:50:31  5-MIN KSTC 051950Z 35012KT 10SM BKN080 11/M02 A2997 980 40 700 350/12 RMK AO2 SLP166 T01061022
14926KSTC STC20170405135510604/05/17 13:55:31  5-MIN KSTC 051955Z 34011KT 10SM BKN080 11/M03 A2997 980 39 700 340/11 RMK AO2 T01061028
14926KSTC STC20170405140010604/05/17 14:00:31  5-MIN KSTC 052000Z 34011KT 10SM BKN080 11/M03 A2997 980 36 800 340/11 RMK AO2 T01111033
14926KSTC STC20170405140510604/05/17 14:05:31  5-MIN KSTC 052005Z 33010KT 10SM BKN080 11/M04 A2997 980 34 800 330/10 RMK AO2 T01111039
14926KSTC STC20170405141011204/05/17 14:10:31  5-MIN KSTC 052010Z 35013G18KT 10SM BKN080 11/M03 A2997 980 36 800 350/13G18 RMK AO2 T01111033
14926KSTC STC20170405141511204/05/17 14:15:31  5-MIN KSTC 052015Z 35012G18KT 10SM BKN080 11/M04 A2997 980 34 800 350/12G18 RMK AO2 T01111039
14926KSTC STC20170405142011204/05/17 14:20:31  5-MIN KSTC 052020Z 35013G18KT 10SM SCT080 11/M04 A2997 980 34 800 350/13G18 RMK AO2 T01111039
14926KSTC STC20170405142510604/05/17 14:25:31  5-MIN KSTC 052025Z 35012KT 10SM SCT080 11/M04 A2997 980 34 800 350/12 RMK AO2 T01111039
14926KSTC STC20170405143010604/05/17 14:30:31  5-MIN KSTC 052030Z 36011KT 10SM FEW080 12/M04 A2997 980 33 900 360/11 RMK AO2 T01171039
14926KSTC STC20170405143510604/05/17 14:35:31  5-MIN KSTC 052035Z 01011KT 10SM FEW080 12/M04 A2996 990 33 900 010/11 RMK AO2 T01171039
14926KSTC STC20170405144010604/05/17 14:40:31  5-MIN KSTC 052040Z 01011KT 10SM FEW080 11/M05 A2996 990 32 800 010/11 RMK AO2 T01111050
14926KSTC STC20170405144510304/05/17 14:45:31  5-MIN KSTC 052045Z 01012KT 10SM CLR 12/M04 A2996 990 33 900 360/12 RMK AO2 T01171039
14926KSTC STC20170405145012204/05/17 14:50:31  5-MIN KSTC 052050Z 35010G18KT 10SM CLR 12/M04 A2996 990 33 900 350/10G18 RMK AO2 SLP162 T01171039 58007
14926KSTC STC20170405145510904/05/17 14:55:31  5-MIN KSTC 052055Z 36009G18KT 10SM CLR 12/M04 A2996 990 33 900 350/09G18 RMK AO2 T01171039
14926KSTC STC20170405150012504/05/17 15:00:31  5-MIN KSTC 052100Z 01011G18KT 340V050 10SM CLR 12/M04 A2996 990 33 900 010/11G18 340V050 RMK AO2 T01171039
14926KSTC STC20170405150510904/05/17 15:05:31  5-MIN KSTC 052105Z 03009G16KT 10SM CLR 11/M04 A2996 990 34 800 030/09G16 RMK AO2 T01111039
14926KSTC STC20170405151010304/05/17 15:10:31  5-MIN KSTC 052110Z 02009KT 10SM CLR 12/M04 A2996 990 33 900 020/09 RMK AO2 T01171039
14926KSTC STC20170405151510604/05/17 15:15:31  5-MIN KSTC 052115Z 01010KT 10SM FEW110 11/M04 A2996 990 34 800 360/10 RMK AO2 T01111039
14926KSTC STC20170405152010604/05/17 15:20:31  5-MIN KSTC 052120Z 02010KT 10SM FEW110 11/M04 A2996 990 34 800 020/10 RMK AO2 T01111039
14926KSTC STC20170405152511204/05/17 15:25:31  5-MIN KSTC 052125Z 35009G17KT 10SM SCT110 11/M04 A2996 990 33 800 350/09G17 RMK AO2 T01111044
14926KSTC STC20170405153011204/05/17 15:30:31  5-MIN KSTC 052130Z 01010G17KT 10SM SCT110 11/M04 A2996 990 33 800 360/10G17 RMK AO2 T01111044
14926KSTC STC20170405153510604/05/17 15:35:31  5-MIN KSTC 052135Z 02010KT 10SM SCT110 11/M04 A2996 990 33 800 020/10 RMK AO2 T01111044
14926KSTC STC20170405154010604/05/17 15:40:31  5-MIN KSTC 052140Z 02008KT 10SM SCT110 12/M04 A2996 990 32 900 020/08 RMK AO2 T01171044
14926KSTC STC20170405154510604/05/17 15:45:31  5-MIN KSTC 052145Z 36008KT 10SM FEW110 12/M04 A2996 990 32 900 360/08 RMK AO2 T01171044
14926KSTC STC20170405155011304/05/17 15:50:31  5-MIN KSTC 052150Z 01009KT 10SM FEW110 12/M04 A2996 990 32 900 010/09 RMK AO2 SLP161 T01171044
14926KSTC STC20170405155510604/05/17 15:55:31  5-MIN KSTC 052155Z 36010KT 10SM FEW120 12/M05 A2996 990 30 900 360/10 RMK AO2 T01171050
14926KSTC STC20170405160011204/05/17 16:00:31  5-MIN KSTC 052200Z 02007G16KT 10SM FEW110 12/M05 A2996 990 30 900 020/07G16 RMK AO2 T01171050
14926KSTC STC20170405160510904/05/17 16:05:31  5-MIN KSTC 052205Z 01011G16KT 10SM CLR 12/M04 A2996 990 31 900 010/11G16 RMK AO2 T01221044
14926KSTC STC20170405161010304/05/17 16:10:31  5-MIN KSTC 052210Z 34009KT 10SM CLR 12/M05 A2996 990 30 900 340/09 RMK AO2 T01171050
14926KSTC STC20170405161510304/05/17 16:15:31  5-MIN KSTC 052215Z 01008KT 10SM CLR 12/M05 A2996 990 30 900 010/08 RMK AO2 T01171050
14926KSTC STC20170405162010304/05/17 16:20:31  5-MIN KSTC 052220Z 02011KT 10SM CLR 12/M04 A2996 990 32 900 020/11 RMK AO2 T01171044
14926KSTC STC20170405162510304/05/17 16:25:31  5-MIN KSTC 052225Z 01012KT 10SM CLR 11/M04 A2996 990 33 800 010/12 RMK AO2 T01111044
14926KSTC STC20170405163010304/05/17 16:30:31  5-MIN KSTC 052230Z 01010KT 10SM CLR 11/M05 A2997 980 32 800 360/10 RMK AO2 T01111050
14926KSTC STC20170405163510304/05/17 16:35:31  5-MIN KSTC 052235Z 01011KT 10SM CLR 11/M06 A2997 980 30 800 010/11 RMK AO2 T01111056
14926KSTC STC20170405164010304/05/17 16:40:31  5-MIN KSTC 052240Z 36009KT 10SM CLR 11/M06 A2997 980 29 800 360/09 RMK AO2 T01111061
14926KSTC STC20170405164510304/05/17 16:45:31  5-MIN KSTC 052245Z 36010KT 10SM CLR 11/M06 A2997 980 29 800 360/10 RMK AO2 T01111061
14926KSTC STC20170405165011004/05/17 16:50:31  5-MIN KSTC 052250Z 36009KT 10SM CLR 11/M07 A2997 980 28 800 350/09 RMK AO2 SLP164 T01111067
14926KSTC STC20170405165510304/05/17 16:55:31  5-MIN KSTC 052255Z 02010KT 10SM CLR 11/M08 A2997 980 26 800 010/10 RMK AO2 T01111078
14926KSTC STC20170405170010304/05/17 17:00:31  5-MIN KSTC 052300Z 01012KT 10SM CLR 11/M07 A2997 980 27 800 010/12 RMK AO2 T01111072
14926KSTC STC20170405170510304/05/17 17:05:31  5-MIN KSTC 052305Z 01010KT 10SM CLR 11/M07 A2997 980 27 800 010/10 RMK AO2 T01111072
14926KSTC STC20170405171010304/05/17 17:10:31  5-MIN KSTC 052310Z 01008KT 10SM CLR 11/M07 A2998 970 27 800 010/08 RMK AO2 T01111072
14926KSTC STC20170405171510304/05/17 17:15:31  5-MIN KSTC 052315Z 36010KT 10SM CLR 11/M06 A2998 970 29 800 360/10 RMK AO2 T01111061
14926KSTC STC20170405172010304/05/17 17:20:31  5-MIN KSTC 052320Z 36012KT 10SM CLR 11/M07 A2998 970 28 800 350/12 RMK AO2 T01111067
14926KSTC STC20170405172510304/05/17 17:25:31  5-MIN KSTC 052325Z 36010KT 10SM CLR 12/M07 A2998 970 26 800 360/10 RMK AO2 T01171072
14926KSTC STC20170405173010304/05/17 17:30:31  5-MIN KSTC 052330Z 01009KT 10SM CLR 12/M08 A2998 970 25 800 010/09 RMK AO2 T01171078
14926KSTC STC20170405173510304/05/17 17:35:31  5-MIN KSTC 052335Z 01012KT 10SM CLR 11/M07 A2998 970 28 800 010/12 RMK AO2 T01111067
14926KSTC STC20170405174010304/05/17 17:40:31  5-MIN KSTC 052340Z 01011KT 10SM CLR 11/M06 A2998 970 29 800 010/11 RMK AO2 T01111061
14926KSTC STC20170405174510304/05/17 17:45:31  5-MIN KSTC 052345Z 01010KT 10SM CLR 11/M07 A2998 970 27 800 010/10 RMK AO2 T01111072
14926KSTC STC20170405175012804/05/17 17:50:31  5-MIN KSTC 052350Z 36008KT 10SM CLR 11/M07 A2998 970 28 800 360/08 RMK AO2 SLP169 T01111067 10122 20100 56013
14926KSTC STC20170405175510304/05/17 17:55:31  5-MIN KSTC 052355Z 36008KT 10SM CLR 11/M07 A2998 970 27 800 350/08 RMK AO2 T01111072
14926KSTC STC20170405180010304/05/17 18:00:31  5-MIN KSTC 060000Z 36009KT 10SM CLR 11/M07 A2999 970 28 800 360/09 RMK AO2 T01111067
14926KSTC STC20170405180510304/05/17 18:05:31  5-MIN KSTC 060005Z 01007KT 10SM CLR 11/M06 A2999 970 30 700 010/07 RMK AO2 T01061061
14926KSTC STC20170405181010304/05/17 18:10:31  5-MIN KSTC 060010Z 36007KT 10SM CLR 11/M06 A2999 970 30 700 360/07 RMK AO2 T01061061
14926KSTC STC20170405181510304/05/17 18:15:31  5-MIN KSTC 060015Z 35008KT 10SM CLR 10/M06 A2999 960 31 600 350/08 RMK AO2 T01001061
14926KSTC STC20170405182010304/05/17 18:20:31  5-MIN KSTC 060020Z 36007KT 10SM CLR 10/M06 A2999 960 33 600 360/07 RMK AO2 T01001056
14926KSTC STC20170405182510304/05/17 18:25:31  5-MIN KSTC 060025Z 36009KT 10SM CLR 10/M06 A2999 960 33 600 360/09 RMK AO2 T01001056
14926KSTC STC20170405183010304/05/17 18:30:31  5-MIN KSTC 060030Z 36008KT 10SM CLR 10/M05 A2999 960 34 600 360/08 RMK AO2 T01001050
14926KSTC STC20170405183510304/05/17 18:35:31  5-MIN KSTC 060035Z 36009KT 10SM CLR 10/M05 A2999 960 34 600 360/09 RMK AO2 T01001050
14926KSTC STC20170405184010304/05/17 18:40:31  5-MIN KSTC 060040Z 36009KT 10SM CLR 09/M05 A2999 960 35 600 360/09 RMK AO2 T00941050
14926KSTC STC20170405184510304/05/17 18:45:31  5-MIN KSTC 060045Z 36008KT 10SM CLR 09/M05 A3000 960 35 600 360/08 RMK AO2 T00941050
14926KSTC STC20170405185011004/05/17 18:50:31  5-MIN KSTC 060050Z 36008KT 10SM CLR 09/M04 A3000 960 38 500 360/08 RMK AO2 SLP174 T00891044
14926KSTC STC20170405185510304/05/17 18:55:31  5-MIN KSTC 060055Z 36008KT 10SM CLR 09/M04 A3000 960 38 500 360/08 RMK AO2 T00891044
14926KSTC STC20170405190010304/05/17 19:00:31  5-MIN KSTC 060100Z 01008KT 10SM CLR 09/M04 A3000 950 38 500 360/08 RMK AO2 T00891044
14926KSTC STC20170405190510304/05/17 19:05:31  5-MIN KSTC 060105Z 36008KT 10SM CLR 08/M04 A3000 950 40 400 360/08 RMK AO2 T00831044
14926KSTC STC20170405191010304/05/17 19:10:31  5-MIN KSTC 060110Z 36007KT 10SM CLR 08/M04 A3000 950 40 400 360/07 RMK AO2 T00831044
14926KSTC STC20170405191510304/05/17 19:15:31  5-MIN KSTC 060115Z 36006KT 10SM CLR 08/M04 A3000 950 42 400 360/06 RMK AO2 T00831039
14926KSTC STC20170405192010304/05/17 19:20:31  5-MIN KSTC 060120Z 36006KT 10SM CLR 08/M04 A3001 950 43 300 360/06 RMK AO2 T00781039
14926KSTC STC20170405192510304/05/17 19:25:31  5-MIN KSTC 060125Z 36006KT 10SM CLR 07/M04 A3001 950 45 300 360/06 RMK AO2 T00721039
14926KSTC STC20170405193010304/05/17 19:30:31  5-MIN KSTC 060130Z 36006KT 10SM CLR 07/M04 A3001 950 45 300 360/06 RMK AO2 T00721039
14926KSTC STC20170405193510304/05/17 19:35:31  5-MIN KSTC 060135Z 36007KT 10SM CLR 07/M04 A3001 940 45 300 360/07 RMK AO2 T00721039
14926KSTC STC20170405194010304/05/17 19:40:31  5-MIN KSTC 060140Z 36007KT 10SM CLR 07/M04 A3001 940 45 300 350/07 RMK AO2 T00721039
14926KSTC STC20170405194510304/05/17 19:45:31  5-MIN KSTC 060145Z 35008KT 10SM CLR 07/M04 A3001 940 45 300 350/08 RMK AO2 T00721039
14926KSTC STC20170405195011004/05/17 19:50:31  5-MIN KSTC 060150Z 35009KT 10SM CLR 07/M04 A3002 940 45 300 350/09 RMK AO2 SLP180 T00721039
14926KSTC STC20170405195510304/05/17 19:55:31  5-MIN KSTC 060155Z 36009KT 10SM CLR 07/M04 A3002 940 45 300 350/09 RMK AO2 T00721039
14926KSTC STC20170405200010304/05/17 20:00:31  5-MIN KSTC 060200Z 35009KT 10SM CLR 07/M04 A3002 940 47 200 350/09 RMK AO2 T00671039
14926KSTC STC20170405200510304/05/17 20:05:31  5-MIN KSTC 060205Z 35008KT 10SM CLR 07/M04 A3002 940 47 200 350/08 RMK AO2 T00671039
14926KSTC STC20170405201010304/05/17 20:10:31  5-MIN KSTC 060210Z 35009KT 10SM CLR 07/M03 A3002 940 49 200 350/09 RMK AO2 T00671033
14926KSTC STC20170405201510304/05/17 20:15:31  5-MIN KSTC 060215Z 35009KT 10SM CLR 07/M03 A3002 940 49 200 350/09 RMK AO2 T00671033
14926KSTC STC20170405202010304/05/17 20:20:31  5-MIN KSTC 060220Z 35010KT 10SM CLR 07/M03 A3002 930 49 200 350/10 RMK AO2 T00671033
14926KSTC STC20170405202510304/05/17 20:25:31  5-MIN KSTC 060225Z 35009KT 10SM CLR 07/M03 A3002 930 49 200 350/09 RMK AO2 T00671033
14926KSTC STC20170405203010304/05/17 20:30:31  5-MIN KSTC 060230Z 35009KT 10SM CLR 07/M04 A3002 930 47 200 350/09 RMK AO2 T00671039
14926KSTC STC20170405203510304/05/17 20:35:31  5-MIN KSTC 060235Z 35008KT 10SM CLR 06/M03 A3003 930 51 100 350/08 RMK AO2 T00611033
14926KSTC STC20170405204010304/05/17 20:40:31  5-MIN KSTC 060240Z 35009KT 10SM CLR 06/M03 A3003 930 51 100 350/09 RMK AO2 T00611033
14926KSTC STC20170405204510304/05/17 20:45:31  5-MIN KSTC 060245Z 35009KT 10SM CLR 06/M03 A3003 930 51 100 350/09 RMK AO2 T00611033
14926KSTC STC20170405205011404/05/17 20:50:31  5-MIN KSTC 060250Z 35009KT 10SM CLR 06/M03 A3003 920 53 0 350/09 RMK AO2 SLP185 T00561033 53007
14926KSTC STC20170405205510104/05/17 20:55:31  5-MIN KSTC 060255Z 35009KT 10SM CLR 06/M03 A3003 920 53 0 350/09 RMK AO2 T00561033
14926KSTC STC20170405210010104/05/17 21:00:31  5-MIN KSTC 060300Z 36010KT 10SM CLR 06/M03 A3003 920 53 0 350/10 RMK AO2 T00561033
14926KSTC STC20170405210510104/05/17 21:05:31  5-MIN KSTC 060305Z 35010KT 10SM CLR 06/M03 A3003 920 53 0 350/10 RMK AO2 T00561033
14926KSTC STC20170405211010104/05/17 21:10:31  5-MIN KSTC 060310Z 36010KT 10SM CLR 06/M03 A3003 920 53 0 350/10 RMK AO2 T00561033
14926KSTC STC20170405211510104/05/17 21:15:31  5-MIN KSTC 060315Z 35009KT 10SM CLR 06/M03 A3004 920 53 0 350/09 RMK AO2 T00561033
14926KSTC STC20170405212010104/05/17 21:20:31  5-MIN KSTC 060320Z 36010KT 10SM CLR 06/M03 A3004 920 53 0 360/10 RMK AO2 T00561033
14926KSTC STC20170405212510104/05/17 21:25:31  5-MIN KSTC 060325Z 36010KT 10SM CLR 06/M03 A3004 920 53 0 360/10 RMK AO2 T00561033
14926KSTC STC20170405213010104/05/17 21:30:31  5-MIN KSTC 060330Z 36010KT 10SM CLR 06/M03 A3004 920 53 0 360/10 RMK AO2 T00561033
14926KSTC STC20170405213510104/05/17 21:35:31  5-MIN KSTC 060335Z 36009KT 10SM CLR 05/M03 A3004 920 55 0 360/09 RMK AO2 T00501033
14926KSTC STC20170405214010104/05/17 21:40:31  5-MIN KSTC 060340Z 35009KT 10SM CLR 05/M03 A3004 910 55 0 350/09 RMK AO2 T00501033
14926KSTC STC20170405214510104/05/17 21:45:31  5-MIN KSTC 060345Z 36010KT 10SM CLR 05/M03 A3004 910 55 0 350/10 RMK AO2 T00501033
14926KSTC STC20170405215011104/05/17 21:50:31  5-MIN KSTC 060350Z 36009KT 10SM CLR 04/M03 A3004 910 57 -100 350/09 RMK AO2 SLP190 T00441033
14926KSTC STC20170405215510904/05/17 21:55:31  5-MIN KSTC 060355Z AUTO 35009KT 10SM CLR 04/M03 A3005 910 57 -100 350/09 RMK AO2 T00441033
14926KSTC STC20170405220010904/05/17 22:00:31  5-MIN KSTC 060400Z AUTO 35009KT 10SM CLR 04/M03 A3005 910 57 -100 350/09 RMK AO2 T00441033
14926KSTC STC20170405220510904/05/17 22:05:31  5-MIN KSTC 060405Z AUTO 35010KT 10SM CLR 04/M03 A3005 910 57 -100 350/10 RMK AO2 T00441033
14926KSTC STC20170405221010904/05/17 22:10:31  5-MIN KSTC 060410Z AUTO 35010KT 10SM CLR 04/M03 A3005 910 57 -100 350/10 RMK AO2 T00441033
14926KSTC STC20170405221510904/05/17 22:15:31  5-MIN KSTC 060415Z AUTO 35009KT 10SM CLR 04/M03 A3005 910 59 -100 350/09 RMK AO2 T00391033
14926KSTC STC20170405222010904/05/17 22:20:31  5-MIN KSTC 060420Z AUTO 35009KT 10SM CLR 04/M03 A3005 910 59 -100 350/09 RMK AO2 T00391033
14926KSTC STC20170405222510904/05/17 22:25:31  5-MIN KSTC 060425Z AUTO 35010KT 10SM CLR 04/M03 A3005 910 59 -100 350/10 RMK AO2 T00391033
14926KSTC STC20170405223010904/05/17 22:30:31  5-MIN KSTC 060430Z AUTO 35009KT 10SM CLR 04/M03 A3005 910 59 -100 350/09 RMK AO2 T00391033
14926KSTC STC20170405223510904/05/17 22:35:31  5-MIN KSTC 060435Z AUTO 35009KT 10SM CLR 04/M03 A3005 910 59 -100 350/09 RMK AO2 T00391033
14926KSTC STC20170405224010904/05/17 22:40:31  5-MIN KSTC 060440Z AUTO 35009KT 10SM CLR 03/M03 A3005 900 61 -200 350/09 RMK AO2 T00331033
14926KSTC STC20170405224510904/05/17 22:45:31  5-MIN KSTC 060445Z AUTO 35009KT 10SM CLR 03/M03 A3005 900 61 -200 350/09 RMK AO2 T00331033
14926KSTC STC20170405225011604/05/17 22:50:31  5-MIN KSTC 060450Z AUTO 35009KT 10SM CLR 03/M03 A3006 900 61 -200 350/09 RMK AO2 SLP194 T00331033
14926KSTC STC20170405225510904/05/17 22:55:31  5-MIN KSTC 060455Z AUTO 35008KT 10SM CLR 03/M03 A3006 900 61 -200 350/08 RMK AO2 T00331033
14926KSTC STC20170405230010904/05/17 23:00:31  5-MIN KSTC 060500Z AUTO 35008KT 10SM CLR 03/M03 A3006 900 61 -200 350/08 RMK AO2 T00331033
14926KSTC STC20170405230510904/05/17 23:05:31  5-MIN KSTC 060505Z AUTO 35009KT 10SM CLR 03/M03 A3006 900 64 -300 350/09 RMK AO2 T00281033
14926KSTC STC20170405231010904/05/17 23:10:31  5-MIN KSTC 060510Z AUTO 36009KT 10SM CLR 03/M03 A3006 900 64 -300 360/09 RMK AO2 T00281033
14926KSTC STC20170405231510904/05/17 23:15:31  5-MIN KSTC 060515Z AUTO 35009KT 10SM CLR 03/M03 A3006 890 64 -300 350/09 RMK AO2 T00281033
14926KSTC STC20170405232010904/05/17 23:20:31  5-MIN KSTC 060520Z AUTO 36009KT 10SM CLR 03/M03 A3006 890 64 -300 360/09 RMK AO2 T00281033
14926KSTC STC20170405232510904/05/17 23:25:31  5-MIN KSTC 060525Z AUTO 36009KT 10SM CLR 03/M03 A3007 890 64 -300 360/09 RMK AO2 T00281033
14926KSTC STC20170405233010904/05/17 23:30:31  5-MIN KSTC 060530Z AUTO 35009KT 10SM CLR 03/M03 A3007 890 64 -300 350/09 RMK AO2 T00281033
14926KSTC STC20170405233510904/05/17 23:35:31  5-MIN KSTC 060535Z AUTO 36008KT 10SM CLR 03/M03 A3007 890 64 -300 350/08 RMK AO2 T00281033
14926KSTC STC20170405234010904/05/17 23:40:31  5-MIN KSTC 060540Z AUTO 36007KT 10SM CLR 03/M03 A3007 890 64 -300 350/07 RMK AO2 T00281033
14926KSTC STC20170405234510904/05/17 23:45:31  5-MIN KSTC 060545Z AUTO 36008KT 10SM CLR 02/M03 A3007 890 67 -400 360/08 RMK AO2 T00221033
14926KSTC STC20170405235014404/05/17 23:50:31  5-MIN KSTC 060550Z AUTO 36007KT 10SM CLR 02/M03 A3007 890 67 -400 360/07 RMK AO2 SLP199 T00221033 10111 20022 401221011 53016
14926KSTC STC20170405235510904/05/17 23:55:31  5-MIN KSTC 060555Z AUTO 36006KT 10SM CLR 02/M03 A3007 890 67 -400 360/06 RMK AO2 T00221033
14926KSTC STC20170406000010904/06/17 00:00:31  5-MIN KSTC 060600Z AUTO 35007KT 10SM CLR 02/M03 A3007 890 67 -400 350/07 RMK AO2 T00221033
14926KSTC STC20170406000510904/06/17 00:05:31  5-MIN KSTC 060605Z AUTO 35006KT 10SM CLR 02/M03 A3007 890 69 -400 350/06 RMK AO2 T00171033
14926KSTC STC20170406001010904/06/17 00:10:31  5-MIN KSTC 060610Z AUTO 35007KT 10SM CLR 02/M03 A3007 880 69 -400 350/07 RMK AO2 T00171033
14926KSTC STC20170406001510904/06/17 00:15:31  5-MIN KSTC 060615Z AUTO 35007KT 10SM CLR 02/M03 A3007 880 69 -400 350/07 RMK AO2 T00171033
14926KSTC STC20170406002010904/06/17 00:20:31  5-MIN KSTC 060620Z AUTO 35007KT 10SM CLR 02/M03 A3007 880 69 -400 350/07 RMK AO2 T00171033
14926KSTC STC20170406002510904/06/17 00:25:31  5-MIN KSTC 060625Z AUTO 35007KT 10SM CLR 02/M03 A3008 880 69 -400 350/07 RMK AO2 T00171033
14926KSTC STC20170406003010904/06/17 00:30:31  5-MIN KSTC 060630Z AUTO 35007KT 10SM CLR 02/M03 A3008 880 69 -400 350/07 RMK AO2 T00171033
14926KSTC STC20170406003510904/06/17 00:35:31  5-MIN KSTC 060635Z AUTO 35007KT 10SM CLR 01/M03 A3008 880 72 -500 350/07 RMK AO2 T00111033
14926KSTC STC20170406004010904/06/17 00:40:31  5-MIN KSTC 060640Z AUTO 35008KT 10SM CLR 02/M03 A3008 880 69 -400 350/08 RMK AO2 T00171033
14926KSTC STC20170406004510904/06/17 00:45:31  5-MIN KSTC 060645Z AUTO 35007KT 10SM CLR 01/M03 A3008 880 72 -500 350/07 RMK AO2 T00111033
14926KSTC STC20170406005011604/06/17 00:50:31  5-MIN KSTC 060650Z AUTO 35007KT 10SM CLR 01/M03 A3008 880 72 -500 350/07 RMK AO2 SLP202 T00111033
14926KSTC STC20170406005510904/06/17 00:55:31  5-MIN KSTC 060655Z AUTO 35007KT 10SM CLR 01/M03 A3008 880 72 -500 350/07 RMK AO2 T00111033
14926KSTC STC20170406010010904/06/17 01:00:31  5-MIN KSTC 060700Z AUTO 35008KT 10SM CLR 01/M03 A3008 870 72 -500 350/08 RMK AO2 T00111033
14926KSTC STC20170406010510904/06/17 01:05:31  5-MIN KSTC 060705Z AUTO 35007KT 10SM CLR 01/M03 A3009 870 72 -500 350/07 RMK AO2 T00111033
14926KSTC STC20170406011010904/06/17 01:10:31  5-MIN KSTC 060710Z AUTO 35007KT 10SM CLR 01/M03 A3009 870 72 -500 350/07 RMK AO2 T00111033
14926KSTC STC20170406011510904/06/17 01:15:31  5-MIN KSTC 060715Z AUTO 35007KT 10SM CLR 01/M03 A3009 870 72 -500 350/07 RMK AO2 T00111033
14926KSTC STC20170406012010904/06/17 01:20:31  5-MIN KSTC 060720Z AUTO 35007KT 10SM CLR 01/M03 A3009 870 72 -500 350/07 RMK AO2 T00111033
14926KSTC STC20170406012510904/06/17 01:25:31  5-MIN KSTC 060725Z AUTO 35007KT 10SM CLR 01/M03 A3009 870 72 -500 350/07 RMK AO2 T00111033
14926KSTC STC20170406013010904/06/17 01:30:31  5-MIN KSTC 060730Z AUTO 35007KT 10SM CLR 01/M03 A3009 870 75 -600 350/07 RMK AO2 T00061033
14926KSTC STC20170406013510904/06/17 01:35:31  5-MIN KSTC 060735Z AUTO 35008KT 10SM CLR 01/M03 A3009 870 75 -600 350/08 RMK AO2 T00061033
14926KSTC STC20170406014010904/06/17 01:40:31  5-MIN KSTC 060740Z AUTO 35007KT 10SM CLR 01/M03 A3009 870 75 -600 350/07 RMK AO2 T00061033
14926KSTC STC20170406014510904/06/17 01:45:31  5-MIN KSTC 060745Z AUTO 35007KT 10SM CLR 01/M03 A3009 870 75 -600 350/07 RMK AO2 T00061033
14926KSTC STC20170406015011604/06/17 01:50:31  5-MIN KSTC 060750Z AUTO 35007KT 10SM CLR 01/M03 A3009 870 75 -600 350/07 RMK AO2 SLP206 T00061033
14926KSTC STC20170406015510904/06/17 01:55:31  5-MIN KSTC 060755Z AUTO 35007KT 10SM CLR 01/M03 A3009 870 75 -600 350/07 RMK AO2 T00061033
14926KSTC STC20170406020010904/06/17 02:00:31  5-MIN KSTC 060800Z AUTO 35007KT 10SM CLR 01/M03 A3009 870 75 -600 350/07 RMK AO2 T00061033
14926KSTC STC20170406020510904/06/17 02:05:31  5-MIN KSTC 060805Z AUTO 35007KT 10SM CLR 01/M03 A3009 870 75 -600 350/07 RMK AO2 T00061033
14926KSTC STC20170406021010904/06/17 02:10:31  5-MIN KSTC 060810Z AUTO 35007KT 10SM CLR 01/M03 A3009 870 75 -600 350/07 RMK AO2 T00061033
14926KSTC STC20170406021510904/06/17 02:15:31  5-MIN KSTC 060815Z AUTO 35007KT 10SM CLR 01/M03 A3010 870 75 -600 350/07 RMK AO2 T00061033
14926KSTC STC20170406022010904/06/17 02:20:31  5-MIN KSTC 060820Z AUTO 35007KT 10SM CLR 01/M03 A3009 870 75 -600 350/07 RMK AO2 T00061033
14926KSTC STC20170406022510904/06/17 02:25:31  5-MIN KSTC 060825Z AUTO 35007KT 10SM CLR 01/M03 A3010 860 75 -600 350/07 RMK AO2 T00061033
14926KSTC STC20170406023010904/06/17 02:30:31  5-MIN KSTC 060830Z AUTO 35007KT 10SM CLR 01/M03 A3010 860 75 -600 350/07 RMK AO2 T00061033
14926KSTC STC20170406023510904/06/17 02:35:31  5-MIN KSTC 060835Z AUTO 35007KT 10SM CLR 01/M03 A3010 860 75 -600 350/07 RMK AO2 T00061033
14926KSTC STC20170406024010904/06/17 02:40:31  5-MIN KSTC 060840Z AUTO 35007KT 10SM CLR 00/M03 A3010 860 78 -700 350/07 RMK AO2 T00001033
14926KSTC STC20170406024510904/06/17 02:45:31  5-MIN KSTC 060845Z AUTO 35007KT 10SM CLR 00/M03 A3010 860 78 -700 350/07 RMK AO2 T00001033
14926KSTC STC20170406025012204/06/17 02:50:31  5-MIN KSTC 060850Z AUTO 35007KT 10SM CLR 00/M03 A3010 860 78 -700 350/07 RMK AO2 SLP209 T00001033 53013
14926KSTC STC20170406025510904/06/17 02:55:31  5-MIN KSTC 060855Z AUTO 35007KT 10SM CLR 00/M03 A3010 860 78 -700 350/07 RMK AO2 T00001033
14926KSTC STC20170406030010904/06/17 03:00:31  5-MIN KSTC 060900Z AUTO 36008KT 10SM CLR 00/M03 A3010 860 78 -700 360/08 RMK AO2 T00001033
14926KSTC STC20170406030510904/06/17 03:05:31  5-MIN KSTC 060905Z AUTO 35007KT 10SM CLR 00/M03 A3011 850 78 -700 350/07 RMK AO2 T00001033
14926KSTC STC20170406031010904/06/17 03:10:31  5-MIN KSTC 060910Z AUTO 35007KT 10SM CLR 00/M03 A3011 850 78 -700 350/07 RMK AO2 T00001033
14926KSTC STC20170406031510904/06/17 03:15:31  5-MIN KSTC 060915Z AUTO 35007KT 10SM CLR 00/M03 A3011 850 78 -700 350/07 RMK AO2 T00001033
14926KSTC STC20170406032010904/06/17 03:20:31  5-MIN KSTC 060920Z AUTO 35007KT 10SM CLR 00/M03 A3011 850 78 -700 350/07 RMK AO2 T00001033
14926KSTC STC20170406032510904/06/17 03:25:31  5-MIN KSTC 060925Z AUTO 35007KT 10SM CLR 00/M03 A3011 850 78 -700 350/07 RMK AO2 T00001033
14926KSTC STC20170406033010904/06/17 03:30:31  5-MIN KSTC 060930Z AUTO 35007KT 10SM CLR 00/M03 A3011 850 78 -700 350/07 RMK AO2 T00001033
14926KSTC STC20170406033510904/06/17 03:35:31  5-MIN KSTC 060935Z AUTO 35007KT 10SM CLR 00/M03 A3011 850 78 -700 350/07 RMK AO2 T00001033
14926KSTC STC20170406034010904/06/17 03:40:31  5-MIN KSTC 060940Z AUTO 35007KT 10SM CLR 00/M03 A3012 850 78 -700 350/07 RMK AO2 T00001033
14926KSTC STC20170406034510904/06/17 03:45:31  5-MIN KSTC 060945Z AUTO 35007KT 10SM CLR 00/M03 A3012 840 78 -700 350/07 RMK AO2 T00001033
14926KSTC STC20170406035011604/06/17 03:50:31  5-MIN KSTC 060950Z AUTO 35008KT 10SM CLR 00/M03 A3012 840 78 -700 350/08 RMK AO2 SLP216 T00001033
14926KSTC STC20170406035510904/06/17 03:55:31  5-MIN KSTC 060955Z AUTO 35007KT 10SM CLR 00/M03 A3012 840 78 -700 350/07 RMK AO2 T00001033
14926KSTC STC20170406040010904/06/17 04:00:31  5-MIN KSTC 061000Z AUTO 35007KT 10SM CLR 00/M03 A3012 840 78 -700 350/07 RMK AO2 T00001033
14926KSTC STC20170406040510904/06/17 04:05:31  5-MIN KSTC 061005Z AUTO 35007KT 10SM CLR 00/M03 A3012 840 78 -700 350/07 RMK AO2 T00001033
14926KSTC STC20170406041010904/06/17 04:10:31  5-MIN KSTC 061010Z AUTO 35007KT 10SM CLR 00/M03 A3013 840 78 -700 350/07 RMK AO2 T00001033
14926KSTC STC20170406041510904/06/17 04:15:31  5-MIN KSTC 061015Z AUTO 35008KT 10SM CLR 00/M03 A3013 840 78 -700 350/08 RMK AO2 T00001033
14926KSTC STC20170406042010904/06/17 04:20:31  5-MIN KSTC 061020Z AUTO 35007KT 10SM CLR 00/M03 A3013 830 78 -700 350/07 RMK AO2 T00001033
14926KSTC STC20170406042510904/06/17 04:25:31  5-MIN KSTC 061025Z AUTO 35008KT 10SM CLR 00/M03 A3013 830 78 -700 350/08 RMK AO2 T00001033
14926KSTC STC20170406043010904/06/17 04:30:31  5-MIN KSTC 061030Z AUTO 35007KT 10SM CLR 00/M03 A3013 830 78 -700 350/07 RMK AO2 T00001033
14926KSTC STC20170406043511004/06/17 04:35:31  5-MIN KSTC 061035Z AUTO 36007KT 10SM CLR M01/M03 A3013 830 81 -800 360/07 RMK AO2 T10061033
14926KSTC STC20170406044011004/06/17 04:40:31  5-MIN KSTC 061040Z AUTO 35007KT 10SM CLR M01/M03 A3014 830 81 -800 350/07 RMK AO2 T10061033
14926KSTC STC20170406044510904/06/17 04:45:31  5-MIN KSTC 061045Z AUTO 35007KT 10SM CLR 00/M03 A3014 830 78 -700 350/07 RMK AO2 T00001033
14926KSTC STC20170406045011704/06/17 04:50:31  5-MIN KSTC 061050Z AUTO 35007KT 10SM CLR M01/M03 A3014 820 81 -800 350/07 RMK AO2 SLP223 T10061033
14926KSTC STC20170406045511004/06/17 04:55:31  5-MIN KSTC 061055Z AUTO 35008KT 10SM CLR M01/M03 A3014 820 81 -800 350/08 RMK AO2 T10061033
14926KSTC STC20170406050011004/06/17 05:00:31  5-MIN KSTC 061100Z AUTO 35007KT 10SM CLR M01/M03 A3015 820 81 -800 350/07 RMK AO2 T10061033
14926KSTC STC20170406050511004/06/17 05:05:31  5-MIN KSTC 061105Z AUTO 35007KT 10SM CLR M01/M03 A3015 820 81 -800 350/07 RMK AO2 T10061033
14926KSTC STC20170406051011004/06/17 05:10:31  5-MIN KSTC 061110Z AUTO 35007KT 10SM CLR M01/M03 A3015 810 81 -800 350/07 RMK AO2 T10061033
14926KSTC STC20170406051511004/06/17 05:15:31  5-MIN KSTC 061115Z AUTO 35008KT 10SM CLR M01/M03 A3015 810 81 -800 350/08 RMK AO2 T10061033
14926KSTC STC20170406052011004/06/17 05:20:31  5-MIN KSTC 061120Z AUTO 35007KT 10SM CLR M01/M04 A3016 810 78 -800 350/07 RMK AO2 T10061039
14926KSTC STC20170406052511004/06/17 05:25:31  5-MIN KSTC 061125Z AUTO 35007KT 10SM CLR M01/M04 A3016 810 78 -800 350/07 RMK AO2 T10061039
14926KSTC STC20170406053011004/06/17 05:30:31  5-MIN KSTC 061130Z AUTO 35007KT 10SM CLR M01/M04 A3016 800 78 -800 350/07 RMK AO2 T10061039
14926KSTC STC20170406053511004/06/17 05:35:31  5-MIN KSTC 061135Z AUTO 35006KT 10SM CLR M01/M04 A3016 800 78 -800 350/06 RMK AO2 T10061039
14926KSTC STC20170406054011004/06/17 05:40:31  5-MIN KSTC 061140Z AUTO 35007KT 10SM CLR M01/M04 A3016 800 78 -800 350/07 RMK AO2 T10061039
14926KSTC STC20170406054511004/06/17 05:45:31  5-MIN KSTC 061145Z AUTO 35006KT 10SM CLR M01/M04 A3017 800 78 -800 350/06 RMK AO2 T10061039
14926KSTC STC20170406055013504/06/17 05:50:31  5-MIN KSTC 061150Z AUTO 35006KT 10SM CLR M01/M04 A3017 800 78 -800 350/06 RMK AO2 SLP233 T10061039 10022 21006 52009
14926KSTC STC20170406055510504/06/17 05:55:31  5-MIN KSTC 061155Z 35006KT 10SM CLR M01/M04 A3017 800 78 -800 350/06 RMK AO2 T10061039
14926KSTC STC20170406060010504/06/17 06:00:31  5-MIN KSTC 061200Z 35007KT 10SM CLR M01/M04 A3017 800 78 -800 350/07 RMK AO2 T10061039
14926KSTC STC20170406060510504/06/17 06:05:31  5-MIN KSTC 061205Z 35007KT 10SM CLR M01/M04 A3017 790 78 -800 350/07 RMK AO2 T10061039
14926KSTC STC20170406061010504/06/17 06:10:31  5-MIN KSTC 061210Z 36007KT 10SM CLR M01/M04 A3017 790 78 -800 350/07 RMK AO2 T10061039
14926KSTC STC20170406061510504/06/17 06:15:31  5-MIN KSTC 061215Z 36007KT 10SM CLR M01/M04 A3017 790 78 -800 360/07 RMK AO2 T10061039
14926KSTC STC20170406062010504/06/17 06:20:31  5-MIN KSTC 061220Z 35007KT 10SM CLR M01/M04 A3018 790 78 -800 350/07 RMK AO2 T10061039
14926KSTC STC20170406062510404/06/17 06:25:31  5-MIN KSTC 061225Z 35007KT 10SM CLR 00/M03 A3018 790 78 -800 350/07 RMK AO2 T00001033
14926KSTC STC20170406063010404/06/17 06:30:31  5-MIN KSTC 061230Z 35007KT 10SM CLR 00/M03 A3018 790 78 -800 350/07 RMK AO2 T00001033
14926KSTC STC20170406063510404/06/17 06:35:31  5-MIN KSTC 061235Z 35008KT 10SM CLR 00/M03 A3018 780 78 -800 350/08 RMK AO2 T00001033
14926KSTC STC20170406064010404/06/17 06:40:31  5-MIN KSTC 061240Z 35009KT 10SM CLR 00/M03 A3019 780 78 -800 350/09 RMK AO2 T00001033
14926KSTC STC20170406064510404/06/17 06:45:31  5-MIN KSTC 061245Z 35006KT 10SM CLR 01/M03 A3019 780 75 -700 350/06 RMK AO2 T00061033
14926KSTC STC20170406065011104/06/17 06:50:31  5-MIN KSTC 061250Z 35007KT 10SM CLR 01/M03 A3019 780 75 -700 350/07 RMK AO2 SLP240 T00061033
14926KSTC STC20170406065510404/06/17 06:55:31  5-MIN KSTC 061255Z 35008KT 10SM CLR 01/M03 A3019 780 75 -700 350/08 RMK AO2 T00061033
14926KSTC STC20170406070010404/06/17 07:00:31  5-MIN KSTC 061300Z 35009KT 10SM CLR 01/M03 A3019 770 72 -600 350/09 RMK AO2 T00111033
14926KSTC STC20170406070510404/06/17 07:05:31  5-MIN KSTC 061305Z 35009KT 10SM CLR 01/M03 A3020 770 72 -600 350/09 RMK AO2 T00111033
14926KSTC STC20170406071010404/06/17 07:10:31  5-MIN KSTC 061310Z 36009KT 10SM CLR 02/M03 A3020 770 69 -600 360/09 RMK AO2 T00171033
14926KSTC STC20170406071510404/06/17 07:15:31  5-MIN KSTC 061315Z 36009KT 10SM CLR 02/M03 A3020 770 69 -600 350/09 RMK AO2 T00171033
14926KSTC STC20170406072010404/06/17 07:20:31  5-MIN KSTC 061320Z 36009KT 10SM CLR 02/M03 A3020 770 72 -600 350/09 RMK AO2 T00171028
14926KSTC STC20170406072510404/06/17 07:25:31  5-MIN KSTC 061325Z 36009KT 10SM CLR 02/M03 A3020 760 69 -500 360/09 RMK AO2 T00221028
14926KSTC STC20170406073010404/06/17 07:30:31  5-MIN KSTC 061330Z 36010KT 10SM CLR 02/M03 A3021 760 67 -500 360/10 RMK AO2 T00221033
14926KSTC STC20170406073510404/06/17 07:35:31  5-MIN KSTC 061335Z 01008KT 10SM CLR 02/M03 A3021 760 69 -500 010/08 RMK AO2 T00221028
14926KSTC STC20170406074010404/06/17 07:40:31  5-MIN KSTC 061340Z 01008KT 10SM CLR 03/M03 A3021 760 67 -400 010/08 RMK AO2 T00281028
14926KSTC STC20170406074510404/06/17 07:45:31  5-MIN KSTC 061345Z 36010KT 10SM CLR 03/M03 A3021 760 67 -400 360/10 RMK AO2 T00281028
14926KSTC STC20170406075011104/06/17 07:50:31  5-MIN KSTC 061350Z 36009KT 10SM CLR 03/M03 A3021 760 64 -500 360/09 RMK AO2 SLP248 T00281033
14926KSTC STC20170406075510404/06/17 07:55:31  5-MIN KSTC 061355Z 36010KT 10SM CLR 03/M03 A3021 760 64 -500 350/10 RMK AO2 T00281033
14926KSTC STC20170406080010404/06/17 08:00:31  5-MIN KSTC 061400Z 36009KT 10SM CLR 03/M03 A3021 760 61 -400 360/09 RMK AO2 T00331033
14926KSTC STC20170406080510404/06/17 08:05:31  5-MIN KSTC 061405Z 36008KT 10SM CLR 03/M03 A3021 760 61 -400 360/08 RMK AO2 T00331033
14926KSTC STC20170406081010404/06/17 08:10:31  5-MIN KSTC 061410Z 36008KT 10SM CLR 04/M03 A3021 760 59 -300 360/08 RMK AO2 T00391033
14926KSTC STC20170406081510404/06/17 08:15:31  5-MIN KSTC 061415Z 36008KT 10SM CLR 04/M03 A3022 750 59 -300 360/08 RMK AO2 T00391033
14926KSTC STC20170406082010404/06/17 08:20:31  5-MIN KSTC 061420Z 01008KT 10SM CLR 04/M03 A3022 750 57 -300 360/08 RMK AO2 T00441033
14926KSTC STC20170406082510404/06/17 08:25:31  5-MIN KSTC 061425Z 01009KT 10SM CLR 04/M03 A3022 750 57 -300 360/09 RMK AO2 T00441033
14926KSTC STC20170406083010404/06/17 08:30:31  5-MIN KSTC 061430Z 01009KT 10SM CLR 04/M04 A3022 750 55 -300 010/09 RMK AO2 T00441039
14926KSTC STC20170406083510404/06/17 08:35:31  5-MIN KSTC 061435Z 01009KT 10SM CLR 05/M04 A3022 750 52 -200 010/09 RMK AO2 T00501039
14926KSTC STC20170406084011004/06/17 08:40:31  5-MIN KSTC 061440Z 02009G19KT 10SM CLR 05/M04 A3022 750 52 -200 020/09G19 RMK AO2 T00501039
14926KSTC STC20170406084511004/06/17 08:45:31  5-MIN KSTC 061445Z 01009G19KT 10SM CLR 05/M04 A3022 750 52 -200 010/09G19 RMK AO2 T00501039
14926KSTC STC20170406085011704/06/17 08:50:31  5-MIN KSTC 061450Z 03008KT 10SM CLR 06/M04 A3022 750 50 -100 030/08 RMK AO2 SLP251 T00561039 53022
14926KSTC STC20170406085511004/06/17 08:55:31  5-MIN KSTC 061455Z 01010G17KT 10SM CLR 05/M04 A3022 750 52 -200 360/10G17 RMK AO2 T00501039
14926KSTC STC20170406090011004/06/17 09:00:31  5-MIN KSTC 061500Z 02012G17KT 10SM CLR 06/M04 A3022 750 50 -100 020/12G17 RMK AO2 T00561039
14926KSTC STC20170406090511004/06/17 09:05:31  5-MIN KSTC 061505Z 01009G17KT 10SM CLR 06/M04 A3023 740 48 -100 010/09G17 RMK AO2 T00561044
14926KSTC STC20170406091011004/06/17 09:10:31  5-MIN KSTC 061510Z 36011G16KT 10SM CLR 06/M04 A3023 740 50 -100 360/11G16 RMK AO2 T00561039
14926KSTC STC20170406091511004/06/17 09:15:31  5-MIN KSTC 061515Z 36010G16KT 10SM CLR 06/M04 A3023 740 50 -100 360/10G16 RMK AO2 T00561039
14926KSTC STC20170406092010404/06/17 09:20:31  5-MIN KSTC 061520Z 35010KT 10SM CLR 06/M04 A3022 750 48 -100 350/10 RMK AO2 T00611039
14926KSTC STC20170406092510404/06/17 09:25:31  5-MIN KSTC 061525Z 01010KT 10SM CLR 06/M04 A3023 740 48 -100 010/10 RMK AO2 T00611039
14926KSTC STC20170406093010404/06/17 09:30:31  5-MIN KSTC 061530Z 36010KT 10SM CLR 06/M04 A3023 740 48 -100 360/10 RMK AO2 T00611039
14926KSTC STC20170406093510104/06/17 09:35:31  5-MIN KSTC 061535Z 01009KT 10SM CLR 07/M04 A3023 740 47 0 010/09 RMK AO2 T00671039
14926KSTC STC20170406094010704/06/17 09:40:31  5-MIN KSTC 061540Z 01009G17KT 10SM CLR 07/M05 A3022 750 43 0 010/09G17 RMK AO2 T00671050
14926KSTC STC20170406094510704/06/17 09:45:31  5-MIN KSTC 061545Z 01012G17KT 10SM CLR 07/M06 A3022 750 40 0 010/12G17 RMK AO2 T00721056
14926KSTC STC20170406095011004/06/17 09:50:31  5-MIN KSTC 061550Z 01011KT 10SM CLR 08/M06 A3023 740 38 100 010/11 RMK AO2 SLP253 T00781056
14926KSTC STC20170406095510104/06/17 09:55:31  5-MIN KSTC 061555Z 36011KT 10SM CLR 07/M06 A3023 740 38 0 360/11 RMK AO2 T00721061
14926KSTC STC20170406100010904/06/17 10:00:31  5-MIN KSTC 061600Z 02013G19KT 10SM CLR 08/M07 A3023 740 35 100 020/13G19 RMK AO2 T00781067
14926KSTC STC20170406100510704/06/17 10:05:31  5-MIN KSTC 061605Z 03012G19KT 10SM CLR 07/M07 A3023 740 35 0 030/12G19 RMK AO2 T00721072
14926KSTC STC20170406101010904/06/17 10:10:31  5-MIN KSTC 061610Z 02013G19KT 10SM CLR 08/M07 A3023 740 35 100 020/13G19 RMK AO2 T00781067
14926KSTC STC20170406101510904/06/17 10:15:31  5-MIN KSTC 061615Z 04013G19KT 10SM CLR 08/M07 A3023 740 35 100 040/13G19 RMK AO2 T00781067
14926KSTC STC20170406102010904/06/17 10:20:31  5-MIN KSTC 061620Z 02010G19KT 10SM CLR 08/M07 A3023 740 35 100 020/10G19 RMK AO2 T00781067
14926KSTC STC20170406102510304/06/17 10:25:31  5-MIN KSTC 061625Z 02013KT 10SM CLR 08/M07 A3023 740 35 100 020/13 RMK AO2 T00781067
14926KSTC STC20170406103010904/06/17 10:30:31  5-MIN KSTC 061630Z 03013G19KT 10SM CLR 08/M08 A3023 740 32 100 020/13G19 RMK AO2 T00781078
14926KSTC STC20170406103510904/06/17 10:35:31  5-MIN KSTC 061635Z 02011G19KT 10SM CLR 08/M07 A3023 740 32 200 010/11G19 RMK AO2 T00831072
14926KSTC STC20170406104010904/06/17 10:40:31  5-MIN KSTC 061640Z 03007G19KT 10SM CLR 08/M07 A3023 740 34 200 030/07G19 RMK AO2 T00831067
14926KSTC STC20170406104510904/06/17 10:45:31  5-MIN KSTC 061645Z 36011G17KT 10SM CLR 09/M06 A3023 750 34 200 360/11G17 RMK AO2 T00891061
14926KSTC STC20170406105011604/06/17 10:50:31  5-MIN KSTC 061650Z 01015G20KT 10SM CLR 08/M07 A3022 750 34 200 010/15G20 RMK AO2 SLP252 T00831067
14926KSTC STC20170406105510904/06/17 10:55:31  5-MIN KSTC 061655Z 36016G21KT 10SM CLR 09/M07 A3022 750 31 200 350/16G21 RMK AO2 T00891072
14926KSTC STC20170406110010904/06/17 11:00:31  5-MIN KSTC 061700Z 35012G21KT 10SM CLR 08/M07 A3022 750 32 200 350/12G21 RMK AO2 T00831072
14926KSTC STC20170406110510904/06/17 11:05:31  5-MIN KSTC 061705Z 35016G21KT 10SM CLR 09/M07 A3022 750 31 200 350/16G21 RMK AO2 T00891072
14926KSTC STC20170406111010904/06/17 11:10:31  5-MIN KSTC 061710Z 35014G21KT 10SM CLR 09/M07 A3022 750 31 200 350/14G21 RMK AO2 T00891072
14926KSTC STC20170406111510904/06/17 11:15:31  5-MIN KSTC 061715Z 35011G20KT 10SM CLR 09/M07 A3022 750 31 200 350/11G20 RMK AO2 T00891072
14926KSTC STC20170406112010304/06/17 11:20:31  5-MIN KSTC 061720Z 02011KT 10SM CLR 09/M07 A3022 750 30 300 020/11 RMK AO2 T00941072
14926KSTC STC20170406112510304/06/17 11:25:31  5-MIN KSTC 061725Z 01010KT 10SM CLR 09/M08 A3022 750 29 300 010/10 RMK AO2 T00941078
14926KSTC STC20170406113010304/06/17 11:30:31  5-MIN KSTC 061730Z 02010KT 10SM CLR 09/M07 A3021 760 30 300 020/10 RMK AO2 T00941072
14926KSTC STC20170406113510904/06/17 11:35:31  5-MIN KSTC 061735Z 35014G19KT 10SM CLR 09/M08 A3022 750 29 300 350/14G19 RMK AO2 T00941078
14926KSTC STC20170406114010904/06/17 11:40:31  5-MIN KSTC 061740Z 35013G19KT 10SM CLR 10/M08 A3021 760 28 400 350/13G19 RMK AO2 T01001078
14926KSTC STC20170406114510904/06/17 11:45:31  5-MIN KSTC 061745Z 01013G19KT 10SM CLR 09/M08 A3021 760 29 300 010/13G19 RMK AO2 T00941078
14926KSTC STC20170406115013404/06/17 11:50:31  5-MIN KSTC 061750Z 36011G19KT 10SM CLR 09/M07 A3021 760 30 300 360/11G19 RMK AO2 SLP248 T00941072 10100 21006 51018
14926KSTC STC20170406115510904/06/17 11:55:31  5-MIN KSTC 061755Z 36013G18KT 10SM CLR 09/M08 A3021 760 29 300 360/13G18 RMK AO2 T00941078
14926KSTC STC20170406120010304/06/17 12:00:31  5-MIN KSTC 061800Z 36009KT 10SM CLR 09/M07 A3021 760 30 300 360/09 RMK AO2 T00941072
14926KSTC STC20170406120510304/06/17 12:05:31  5-MIN KSTC 061805Z 35010KT 10SM CLR 10/M07 A3021 760 30 400 350/10 RMK AO2 T01001067
14926KSTC STC20170406121010904/06/17 12:10:31  5-MIN KSTC 061810Z 35011G17KT 10SM CLR 10/M07 A3021 760 30 400 350/11G17 RMK AO2 T01001067
14926KSTC STC20170406121510904/06/17 12:15:31  5-MIN KSTC 061815Z 34011G18KT 10SM CLR 09/M07 A3021 760 30 300 340/11G18 RMK AO2 T00941072
14926KSTC STC20170406122010904/06/17 12:20:31  5-MIN KSTC 061820Z 02010G18KT 10SM CLR 10/M07 A3021 760 29 400 020/10G18 RMK AO2 T01001072
14926KSTC STC20170406122510904/06/17 12:25:31  5-MIN KSTC 061825Z 35009G17KT 10SM CLR 10/M07 A3021 760 29 400 350/09G17 RMK AO2 T01001072
14926KSTC STC20170406123010904/06/17 12:30:31  5-MIN KSTC 061830Z 35017G20KT 10SM CLR 10/M07 A3021 760 29 400 350/17G20 RMK AO2 T01001072
14926KSTC STC20170406123510904/06/17 12:35:31  5-MIN KSTC 061835Z 35013G20KT 10SM CLR 10/M08 A3021 760 28 400 350/13G20 RMK AO2 T01001078
14926KSTC STC20170406124010904/06/17 12:40:31  5-MIN KSTC 061840Z 36012G18KT 10SM CLR 11/M07 A3020 770 28 500 360/12G18 RMK AO2 T01061072
14926KSTC STC20170406124510904/06/17 12:45:31  5-MIN KSTC 061845Z 36013G18KT 10SM CLR 11/M07 A3020 760 28 500 360/13G18 RMK AO2 T01061072
14926KSTC STC20170406125012604/06/17 12:50:31  5-MIN KSTC 061850Z 01008KT 340V050 10SM CLR 10/M07 A3020 760 29 400 010/08 340V050 RMK AO2 SLP245 T01001072
14926KSTC STC20170406125510904/06/17 12:55:31  5-MIN KSTC 061855Z 34010G15KT 10SM CLR 11/M07 A3020 770 29 500 340/10G15 RMK AO2 T01061067
14926KSTC STC20170406130010904/06/17 13:00:31  5-MIN KSTC 061900Z 34012G21KT 10SM CLR 11/M07 A3020 770 29 500 340/12G21 RMK AO2 T01061067
14926KSTC STC20170406130510904/06/17 13:05:31  5-MIN KSTC 061905Z 01008G21KT 10SM CLR 11/M07 A3020 770 28 500 010/08G21 RMK AO2 T01061072
14926KSTC STC20170406131012504/06/17 13:10:31  5-MIN KSTC 061910Z 01009G15KT 320V050 10SM CLR 11/M07 A3020 770 28 500 010/09G15 320V050 RMK AO2 T01061072
14926KSTC STC20170406131510904/06/17 13:15:31  5-MIN KSTC 061915Z 35009G15KT 10SM CLR 11/M07 A3020 770 28 500 350/09G15 RMK AO2 T01061072
14926KSTC STC20170406132010304/06/17 13:20:31  5-MIN KSTC 061920Z 34012KT 10SM CLR 11/M07 A3020 770 29 500 340/12 RMK AO2 T01061067
14926KSTC STC20170406132510904/06/17 13:25:31  5-MIN KSTC 061925Z 35014G19KT 10SM CLR 11/M06 A3020 770 29 500 340/14G19 RMK AO2 T01111061
14926KSTC STC20170406133010904/06/17 13:30:31  5-MIN KSTC 061930Z 01009G19KT 10SM CLR 11/M07 A3019 770 29 500 010/09G19 RMK AO2 T01061067
14926KSTC STC20170406133510904/06/17 13:35:31  5-MIN KSTC 061935Z 03009G22KT 10SM CLR 11/M07 A3019 780 28 500 030/09G22 RMK AO2 T01061072
14926KSTC STC20170406134010904/06/17 13:40:31  5-MIN KSTC 061940Z 34012G22KT 10SM CLR 11/M07 A3019 770 29 500 340/12G22 RMK AO2 T01061067
14926KSTC STC20170406134510904/06/17 13:45:31  5-MIN KSTC 061945Z 02009G17KT 10SM CLR 11/M07 A3020 770 29 500 010/09G17 RMK AO2 T01061067
14926KSTC STC20170406135011004/06/17 13:50:31  5-MIN KSTC 061950Z 33009KT 10SM CLR 11/M07 A3019 770 28 500 330/09 RMK AO2 SLP241 T01111067
14926KSTC STC20170406135510904/06/17 13:55:31  5-MIN KSTC 061955Z 34011G16KT 10SM CLR 12/M06 A3020 770 28 600 340/11G16 RMK AO2 T01171061
14926KSTC STC20170406140012504/06/17 14:00:31  5-MIN KSTC 062000Z 01008G16KT 330V040 10SM CLR 11/M06 A3019 770 29 500 010/08G16 330V040 RMK AO2 T01111061
14926KSTC STC20170406140510904/06/17 14:05:31  5-MIN KSTC 062005Z 36010G18KT 10SM CLR 11/M07 A3019 780 28 500 360/10G18 RMK AO2 T01111067
14926KSTC STC20170406141010304/06/17 14:10:31  5-MIN KSTC 062010Z 35011KT 10SM CLR 11/M07 A3019 780 28 500 350/11 RMK AO2 T01111067
14926KSTC STC20170406141510904/06/17 14:15:31  5-MIN KSTC 062015Z 34013G22KT 10SM CLR 11/M07 A3019 780 28 500 340/13G22 RMK AO2 T01111067
14926KSTC STC20170406142010904/06/17 14:20:31  5-MIN KSTC 062020Z 01012G22KT 10SM CLR 12/M06 A3019 770 28 600 360/12G22 RMK AO2 T01171061
14926KSTC STC20170406142512504/06/17 14:25:31  5-MIN KSTC 062025Z 36007G17KT 320V020 10SM CLR 11/M07 A3019 780 28 500 360/07G17 320V020 RMK AO2 T01111067
14926KSTC STC20170406143010904/06/17 14:30:31  5-MIN KSTC 062030Z 33010G15KT 10SM CLR 11/M07 A3019 780 28 500 330/10G15 RMK AO2 T01111067
14926KSTC STC20170406143510904/06/17 14:35:31  5-MIN KSTC 062035Z 34008G15KT 10SM CLR 11/M07 A3019 780 27 500 340/08G15 RMK AO2 T01111072
14926KSTC STC20170406144010904/06/17 14:40:31  5-MIN KSTC 062040Z 36011G18KT 10SM CLR 12/M07 A3018 780 27 600 360/11G18 RMK AO2 T01171067
14926KSTC STC20170406144510904/06/17 14:45:31  5-MIN KSTC 062045Z 36014G18KT 10SM CLR 12/M07 A3018 780 27 600 360/14G18 RMK AO2 T01171067
14926KSTC STC20170406145012204/06/17 14:50:31  5-MIN KSTC 062050Z 35010G18KT 10SM CLR 12/M07 A3018 790 26 600 340/10G18 RMK AO2 SLP237 T01171072 58003
14926KSTC STC20170406145510904/06/17 14:55:31  5-MIN KSTC 062055Z 34012G17KT 10SM CLR 12/M07 A3018 790 26 600 340/12G17 RMK AO2 T01171072
14926KSTC STC20170406150010904/06/17 15:00:31  5-MIN KSTC 062100Z 35013G20KT 10SM CLR 12/M07 A3018 790 27 600 350/13G20 RMK AO2 T01171067
14926KSTC STC20170406150510904/06/17 15:05:31  5-MIN KSTC 062105Z 35009G20KT 10SM CLR 12/M07 A3018 790 27 600 350/09G20 RMK AO2 T01171067
14926KSTC STC20170406151010304/06/17 15:10:31  5-MIN KSTC 062110Z 33010KT 10SM CLR 12/M07 A3018 790 27 600 330/10 RMK AO2 T01171067
14926KSTC STC20170406151510904/06/17 15:15:31  5-MIN KSTC 062115Z 34015G18KT 10SM CLR 12/M07 A3018 790 27 600 340/15G18 RMK AO2 T01171067
14926KSTC STC20170406152010904/06/17 15:20:31  5-MIN KSTC 062120Z 34014G19KT 10SM CLR 12/M07 A3018 790 27 600 340/14G19 RMK AO2 T01171067
14926KSTC STC20170406152510904/06/17 15:25:31  5-MIN KSTC 062125Z 35011G19KT 10SM CLR 12/M07 A3018 790 27 600 350/11G19 RMK AO2 T01171067
14926KSTC STC20170406153010304/06/17 15:30:31  5-MIN KSTC 062130Z 36012KT 10SM CLR 12/M07 A3018 790 27 600 360/12 RMK AO2 T01171067
14926KSTC STC20170406153512504/06/17 15:35:31  5-MIN KSTC 062135Z 34007G17KT 300V360 10SM CLR 12/M07 A3018 790 27 600 340/07G17 300V360 RMK AO2 T01171067
14926KSTC STC20170406154010904/06/17 15:40:31  5-MIN KSTC 062140Z 36011G19KT 10SM CLR 12/M07 A3018 790 27 600 360/11G19 RMK AO2 T01171067
14926KSTC STC20170406154510904/06/17 15:45:31  5-MIN KSTC 062145Z 34011G19KT 10SM CLR 12/M07 A3018 790 27 600 340/11G19 RMK AO2 T01171067
14926KSTC STC20170406155011604/06/17 15:50:31  5-MIN KSTC 062150Z 33012G19KT 10SM CLR 12/M07 A3018 790 27 600 330/12G19 RMK AO2 SLP236 T01171067
14926KSTC STC20170406155510304/06/17 15:55:31  5-MIN KSTC 062155Z 36009KT 10SM CLR 12/M07 A3018 790 27 600 360/09 RMK AO2 T01171067
14926KSTC STC20170406160010304/06/17 16:00:31  5-MIN KSTC 062200Z 01010KT 10SM CLR 12/M06 A3018 790 28 600 010/10 RMK AO2 T01171061
14926KSTC STC20170406160510304/06/17 16:05:31  5-MIN KSTC 062205Z 35011KT 10SM CLR 12/M07 A3018 790 26 600 350/11 RMK AO2 T01171072
14926KSTC STC20170406161010304/06/17 16:10:31  5-MIN KSTC 062210Z 35011KT 10SM CLR 12/M07 A3018 790 26 600 350/11 RMK AO2 T01171072
14926KSTC STC20170406161510304/06/17 16:15:31  5-MIN KSTC 062215Z 35011KT 10SM CLR 12/M07 A3018 790 26 600 340/11 RMK AO2 T01171072
14926KSTC STC20170406162010304/06/17 16:20:31  5-MIN KSTC 062220Z 35009KT 10SM CLR 12/M06 A3018 790 28 600 340/09 RMK AO2 T01171061
14926KSTC STC20170406162510304/06/17 16:25:31  5-MIN KSTC 062225Z 35012KT 10SM CLR 12/M07 A3018 790 27 600 350/12 RMK AO2 T01171067
14926KSTC STC20170406163010304/06/17 16:30:31  5-MIN KSTC 062230Z 35012KT 10SM CLR 12/M07 A3018 790 26 600 350/12 RMK AO2 T01171072
14926KSTC STC20170406163510304/06/17 16:35:31  5-MIN KSTC 062235Z 01009KT 10SM CLR 12/M07 A3018 790 26 600 010/09 RMK AO2 T01171072
14926KSTC STC20170406164010304/06/17 16:40:31  5-MIN KSTC 062240Z 35013KT 10SM CLR 12/M07 A3018 790 27 600 350/13 RMK AO2 T01171067
14926KSTC STC20170406164510304/06/17 16:45:31  5-MIN KSTC 062245Z 35010KT 10SM CLR 11/M07 A3018 790 27 600 350/10 RMK AO2 T01111072
14926KSTC STC20170406165011004/06/17 16:50:31  5-MIN KSTC 062250Z 35009KT 10SM CLR 12/M07 A3018 790 27 600 350/09 RMK AO2 SLP235 T01171067
14926KSTC STC20170406165510904/06/17 16:55:31  5-MIN KSTC 062255Z 01012G18KT 10SM CLR 11/M07 A3018 790 27 600 010/12G18 RMK AO2 T01111072
14926KSTC STC20170406170010904/06/17 17:00:31  5-MIN KSTC 062300Z 36011G18KT 10SM CLR 11/M07 A3018 790 27 600 360/11G18 RMK AO2 T01111072
14926KSTC STC20170406170510304/06/17 17:05:31  5-MIN KSTC 062305Z 35011KT 10SM CLR 11/M07 A3018 790 27 600 350/11 RMK AO2 T01111072
14926KSTC STC20170406171010304/06/17 17:10:31  5-MIN KSTC 062310Z 35011KT 10SM CLR 11/M07 A3018 790 27 500 350/11 RMK AO2 T01111072
14926KSTC STC20170406171510304/06/17 17:15:31  5-MIN KSTC 062315Z 36009KT 10SM CLR 11/M07 A3018 790 28 500 360/09 RMK AO2 T01111067
14926KSTC STC20170406172010304/06/17 17:20:31  5-MIN KSTC 062320Z 36011KT 10SM CLR 11/M07 A3018 790 27 500 360/11 RMK AO2 T01111072
14926KSTC STC20170406172510304/06/17 17:25:31  5-MIN KSTC 062325Z 36009KT 10SM CLR 11/M07 A3018 790 27 500 360/09 RMK AO2 T01111072
14926KSTC STC20170406173010304/06/17 17:30:31  5-MIN KSTC 062330Z 36007KT 10SM CLR 11/M07 A3018 780 28 500 360/07 RMK AO2 T01111067
14926KSTC STC20170406173510304/06/17 17:35:31  5-MIN KSTC 062335Z 01009KT 10SM CLR 11/M07 A3018 780 27 500 010/09 RMK AO2 T01111072
14926KSTC STC20170406174010304/06/17 17:40:31  5-MIN KSTC 062340Z 01009KT 10SM CLR 11/M07 A3019 780 28 500 010/09 RMK AO2 T01061072
14926KSTC STC20170406174510304/06/17 17:45:31  5-MIN KSTC 062345Z 36010KT 10SM CLR 11/M07 A3018 780 28 500 360/10 RMK AO2 T01061072
14926KSTC STC20170406175012804/06/17 17:50:31  5-MIN KSTC 062350Z 36008KT 10SM CLR 11/M07 A3018 780 28 500 360/08 RMK AO2 SLP238 T01061072 10117 20094 58012
14926KSTC STC20170406175510304/06/17 17:55:31  5-MIN KSTC 062355Z 36007KT 10SM CLR 11/M07 A3018 780 28 500 360/07 RMK AO2 T01061072
14926KSTC STC20170406180010304/06/17 18:00:31  5-MIN KSTC 070000Z 01007KT 10SM CLR 11/M07 A3018 780 28 500 010/07 RMK AO2 T01061072
14926KSTC STC20170406180510304/06/17 18:05:31  5-MIN KSTC 070005Z 01005KT 10SM CLR 11/M07 A3019 780 29 500 010/05 RMK AO2 T01061067
14926KSTC STC20170407041511104/07/17 04:15:31  5-MIN KSTC 071015Z AUTO 00000KT 10SM CLR M04/M06 A3017 800 88 -1200 000/00 RMK AO2 T10391056
14926KSTC STC20170407042011104/07/17 04:20:31  5-MIN KSTC 071020Z AUTO 00000KT 10SM CLR M04/M06 A3017 790 88 -1200 000/00 RMK AO2 T10391056
14926KSTC STC20170407042511104/07/17 04:25:31  5-MIN KSTC 071025Z AUTO 00000KT 10SM CLR M04/M06 A3017 790 88 -1200 000/00 RMK AO2 T10391056
14926KSTC STC20170407043011104/07/17 04:30:31  5-MIN KSTC 071030Z AUTO 00000KT 10SM CLR M04/M06 A3017 800 92 -1300 000/00 RMK AO2 T10441056
14926KSTC STC20170407043511104/07/17 04:35:31  5-MIN KSTC 071035Z AUTO 00000KT 10SM CLR M04/M06 A3017 800 88 -1200 000/00 RMK AO2 T10391056
14926KSTC STC20170407044011104/07/17 04:40:31  5-MIN KSTC 071040Z AUTO 00000KT 10SM CLR M04/M06 A3017 800 88 -1200 000/00 RMK AO2 T10391056
14926KSTC STC20170407044511104/07/17 04:45:31  5-MIN KSTC 071045Z AUTO 00000KT 10SM CLR M04/M06 A3017 800 88 -1200 000/00 RMK AO2 T10391056
14926KSTC STC20170407045011804/07/17 04:50:31  5-MIN KSTC 071050Z AUTO 00000KT 10SM CLR M04/M06 A3017 800 92 -1300 000/00 RMK AO2 SLP234 T10441056
14926KSTC STC20170407045511104/07/17 04:55:31  5-MIN KSTC 071055Z AUTO 00000KT 10SM CLR M04/M06 A3017 800 88 -1200 000/00 RMK AO2 T10391056
14926KSTC STC20170407050011104/07/17 05:00:31  5-MIN KSTC 071100Z AUTO 00000KT 10SM CLR M04/M06 A3017 800 92 -1300 000/00 RMK AO2 T10441056
14926KSTC STC20170407050511104/07/17 05:05:31  5-MIN KSTC 071105Z AUTO 00000KT 10SM CLR M04/M06 A3017 800 88 -1300 000/00 RMK AO2 T10441061
14926KSTC STC20170407051011104/07/17 05:10:31  5-MIN KSTC 071110Z AUTO 00000KT 10SM CLR M04/M06 A3017 800 88 -1200 000/00 RMK AO2 T10391056
14926KSTC STC20170407051511104/07/17 05:15:31  5-MIN KSTC 071115Z AUTO 00000KT 10SM CLR M04/M06 A3016 800 92 -1300 000/00 RMK AO2 T10441056
14926KSTC STC20170407052011104/07/17 05:20:31  5-MIN KSTC 071120Z AUTO 00000KT 10SM CLR M04/M06 A3016 800 92 -1300 000/00 RMK AO2 T10441056
14926KSTC STC20170407052511104/07/17 05:25:31  5-MIN KSTC 071125Z AUTO 00000KT 10SM CLR M04/M06 A3016 800 92 -1300 000/00 RMK AO2 T10441056
14926KSTC STC20170407053011104/07/17 05:30:31  5-MIN KSTC 071130Z AUTO 00000KT 10SM CLR M04/M06 A3016 800 92 -1300 000/00 RMK AO2 T10441056
14926KSTC STC20170407053511104/07/17 05:35:31  5-MIN KSTC 071135Z AUTO 00000KT 10SM CLR M04/M06 A3016 800 92 -1300 000/00 RMK AO2 T10441056
14926KSTC STC20170407054011104/07/17 05:40:31  5-MIN KSTC 071140Z AUTO 00000KT 10SM CLR M04/M06 A3016 800 88 -1300 000/00 RMK AO2 T10441061
14926KSTC STC20170407054510604/07/17 05:45:31  5-MIN KSTC 071145Z 00000KT 10SM CLR M04/M06 A3016 810 88 -1300 000/00 RMK AO2 T10441061
14926KSTC STC20170407055013104/07/17 05:50:31  5-MIN KSTC 071150Z 00000KT 10SM CLR M04/M06 A3016 810 88 -1300 000/00 RMK AO2 SLP231 T10441061 11011 21044 56003
14926KSTC STC20170407055510604/07/17 05:55:31  5-MIN KSTC 071155Z 00000KT 10SM CLR M04/M06 A3016 800 88 -1300 000/00 RMK AO2 T10441061
14926KSTC STC20170407060010604/07/17 06:00:31  5-MIN KSTC 071200Z 00000KT 10SM CLR M04/M06 A3016 810 92 -1300 000/00 RMK AO2 T10441056
14926KSTC STC20170407060510604/07/17 06:05:31  5-MIN KSTC 071205Z 00000KT 10SM CLR M04/M06 A3016 800 92 -1300 000/00 RMK AO2 T10441056
14926KSTC STC20170407061010604/07/17 06:10:31  5-MIN KSTC 071210Z 00000KT 10SM CLR M04/M05 A3017 800 92 -1200 000/00 RMK AO2 T10391050
14926KSTC STC20170407061510604/07/17 06:15:31  5-MIN KSTC 071215Z 00000KT 10SM CLR M04/M05 A3016 800 92 -1200 000/00 RMK AO2 T10391050
14926KSTC STC20170407062010604/07/17 06:20:31  5-MIN KSTC 071220Z 00000KT 10SM CLR M04/M05 A3016 800 92 -1200 000/00 RMK AO2 T10391050
14926KSTC STC20170407062510604/07/17 06:25:31  5-MIN KSTC 071225Z 00000KT 10SM CLR M04/M05 A3016 800 92 -1200 000/00 RMK AO2 T10391050
14926KSTC STC20170407063010604/07/17 06:30:31  5-MIN KSTC 071230Z 00000KT 10SM CLR M04/M05 A3016 800 92 -1200 000/00 RMK AO2 T10391050
14926KSTC STC20170407063510604/07/17 06:35:31  5-MIN KSTC 071235Z 00000KT 10SM CLR M03/M05 A3016 800 88 -1200 000/00 RMK AO2 T10331050
14926KSTC STC20170407064010604/07/17 06:40:31  5-MIN KSTC 071240Z 00000KT 10SM CLR M03/M05 A3016 800 88 -1200 000/00 RMK AO2 T10331050
14926KSTC STC20170407064510604/07/17 06:45:31  5-MIN KSTC 071245Z 00000KT 10SM CLR M03/M04 A3016 800 88 -1100 000/00 RMK AO2 T10281044
14926KSTC STC20170407065011304/07/17 06:50:31  5-MIN KSTC 071250Z 00000KT 10SM CLR M03/M04 A3016 800 92 -1100 000/00 RMK AO2 SLP233 T10281039
14926KSTC STC20170407065510604/07/17 06:55:31  5-MIN KSTC 071255Z 14003KT 10SM CLR M02/M04 A3016 800 88 -1000 140/03 RMK AO2 T10221039
14926KSTC STC20170407070010604/07/17 07:00:31  5-MIN KSTC 071300Z 00000KT 10SM CLR M02/M03 A3017 800 88 -1000 000/00 RMK AO2 T10171033
14926KSTC STC20170407070510504/07/17 07:05:31  5-MIN KSTC 071305Z 16003KT 10SM CLR M01/M03 A3017 800 88 -900 160/03 RMK AO2 T10111028
14926KSTC STC20170407071010504/07/17 07:10:31  5-MIN KSTC 071310Z 15003KT 10SM CLR M01/M03 A3017 800 88 -900 150/03 RMK AO2 T10111028
14926KSTC STC20170407071510504/07/17 07:15:31  5-MIN KSTC 071315Z 15004KT 10SM CLR M01/M02 A3016 800 88 -800 150/04 RMK AO2 T10061022
14926KSTC STC20170407072010404/07/17 07:20:31  5-MIN KSTC 071320Z 14004KT 10SM CLR 00/M02 A3016 800 88 -700 140/04 RMK AO2 T00001017
14926KSTC STC20170407072510404/07/17 07:25:31  5-MIN KSTC 071325Z 15003KT 10SM CLR 00/M02 A3016 800 88 -700 150/03 RMK AO2 T00001017
14926KSTC STC20170407073010404/07/17 07:30:31  5-MIN KSTC 071330Z 15003KT 10SM CLR 01/M02 A3016 810 82 -700 150/03 RMK AO2 T00061022
14926KSTC STC20170407073510404/07/17 07:35:31  5-MIN KSTC 071335Z 14004KT 10SM CLR 01/M02 A3016 810 82 -600 140/04 RMK AO2 T00111017
14926KSTC STC20170407074010404/07/17 07:40:31  5-MIN KSTC 071340Z 14004KT 10SM CLR 01/M02 A3016 810 82 -600 140/04 RMK AO2 T00111017
14926KSTC STC20170407074510404/07/17 07:45:31  5-MIN KSTC 071345Z 15004KT 10SM CLR 02/M02 A3016 810 78 -500 150/04 RMK AO2 T00171017
14926KSTC STC20170407075011104/07/17 07:50:31  5-MIN KSTC 071350Z 15004KT 10SM CLR 03/M01 A3016 810 75 -400 150/04 RMK AO2 SLP229 T00281011
14926KSTC STC20170407075510404/07/17 07:55:31  5-MIN KSTC 071355Z 17005KT 10SM CLR 03/M01 A3016 810 72 -300 170/05 RMK AO2 T00331011
14926KSTC STC20170407080010404/07/17 08:00:31  5-MIN KSTC 071400Z 18006KT 10SM CLR 04/M02 A3015 810 62 -200 180/06 RMK AO2 T00441022
14926KSTC STC20170407080510404/07/17 08:05:31  5-MIN KSTC 071405Z 18006KT 10SM CLR 05/M02 A3015 810 59 -100 180/06 RMK AO2 T00501022
14926KSTC STC20170407081010104/07/17 08:10:31  5-MIN KSTC 071410Z 19008KT 10SM CLR 06/M03 A3015 820 55 0 190/08 RMK AO2 T00561028
14926KSTC STC20170407081510104/07/17 08:15:31  5-MIN KSTC 071415Z 20008KT 10SM CLR 06/M03 A3015 820 51 0 200/08 RMK AO2 T00611033
14926KSTC STC20170407082010104/07/17 08:20:31  5-MIN KSTC 071420Z 20010KT 10SM CLR 06/M03 A3014 820 51 0 200/10 RMK AO2 T00611033
14926KSTC STC20170407082510104/07/17 08:25:31  5-MIN KSTC 071425Z 20011KT 10SM CLR 06/M03 A3014 820 51 0 200/11 RMK AO2 T00611033
14926KSTC STC20170407083010304/07/17 08:30:31  5-MIN KSTC 071430Z 20010KT 10SM CLR 07/M03 A3014 820 49 100 200/10 RMK AO2 T00671033
14926KSTC STC20170407083510304/07/17 08:35:31  5-MIN KSTC 071435Z 20009KT 10SM CLR 07/M03 A3014 830 47 100 200/09 RMK AO2 T00721033
14926KSTC STC20170407084010304/07/17 08:40:31  5-MIN KSTC 071440Z 19008KT 10SM CLR 08/M03 A3013 830 45 200 190/08 RMK AO2 T00781033
14926KSTC STC20170407084510304/07/17 08:45:31  5-MIN KSTC 071445Z 18008KT 10SM CLR 08/M03 A3013 830 45 200 180/08 RMK AO2 T00781033
14926KSTC STC20170407085011604/07/17 08:50:31  5-MIN KSTC 071450Z 19009KT 10SM CLR 08/M04 A3013 830 42 300 190/09 RMK AO2 SLP220 T00831039 56006
14926KSTC STC20170407085510304/07/17 08:55:31  5-MIN KSTC 071455Z 19010KT 10SM CLR 09/M04 A3013 830 38 300 190/10 RMK AO2 T00891044
14926KSTC STC20170407090010304/07/17 09:00:31  5-MIN KSTC 071500Z 20011KT 10SM CLR 09/M05 A3013 830 37 300 200/11 RMK AO2 T00891050
14926KSTC STC20170407090510304/07/17 09:05:31  5-MIN KSTC 071505Z 20011KT 10SM CLR 09/M04 A3013 830 37 400 200/11 RMK AO2 T00941044
14926KSTC STC20170407091010304/07/17 09:10:31  5-MIN KSTC 071510Z 19013KT 10SM CLR 09/M06 A3013 840 34 400 190/13 RMK AO2 T00941056
14926KSTC STC20170407091510304/07/17 09:15:31  5-MIN KSTC 071515Z 18013KT 10SM CLR 10/M06 A3012 840 33 500 180/13 RMK AO2 T01001056
14926KSTC STC20170407092010304/07/17 09:20:31  5-MIN KSTC 071520Z 18013KT 10SM CLR 10/M06 A3012 840 31 500 180/13 RMK AO2 T01001061
14926KSTC STC20170407092510304/07/17 09:25:31  5-MIN KSTC 071525Z 19013KT 10SM CLR 09/M06 A3012 840 33 400 190/13 RMK AO2 T00941061
14926KSTC STC20170407093010304/07/17 09:30:31  5-MIN KSTC 071530Z 20014KT 10SM CLR 09/M06 A3012 840 33 400 200/14 RMK AO2 T00941061
14926KSTC STC20170407093510304/07/17 09:35:31  5-MIN KSTC 071535Z 21013KT 10SM CLR 09/M06 A3012 840 33 400 200/13 RMK AO2 T00941061
14926KSTC STC20170407094010304/07/17 09:40:31  5-MIN KSTC 071540Z 19013KT 10SM CLR 10/M06 A3012 840 33 500 190/13 RMK AO2 T01001056
14926KSTC STC20170407094510304/07/17 09:45:31  5-MIN KSTC 071545Z 19015KT 10SM CLR 10/M06 A3012 840 31 500 190/15 RMK AO2 T01001061
14926KSTC STC20170407095011004/07/17 09:50:31  5-MIN KSTC 071550Z 20014KT 10SM CLR 11/M06 A3012 840 30 600 190/14 RMK AO2 SLP216 T01061061
14926KSTC STC20170407095510304/07/17 09:55:31  5-MIN KSTC 071555Z 19012KT 10SM CLR 10/M06 A3012 840 33 500 190/12 RMK AO2 T01001056
14926KSTC STC20170407100010304/07/17 10:00:31  5-MIN KSTC 071600Z 20014KT 10SM CLR 11/M06 A3011 850 30 600 200/14 RMK AO2 T01111056
14926KSTC STC20170407100510304/07/17 10:05:31  5-MIN KSTC 071605Z 20015KT 10SM CLR 11/M06 A3011 850 30 600 200/15 RMK AO2 T01061061
14926KSTC STC20170407101010304/07/17 10:10:31  5-MIN KSTC 071610Z 20012KT 10SM CLR 11/M06 A3011 860 30 600 200/12 RMK AO2 T01061061
14926KSTC STC20170407101510904/07/17 10:15:31  5-MIN KSTC 071615Z 18013G21KT 10SM CLR 11/M06 A3011 850 30 600 180/13G21 RMK AO2 T01111056
14926KSTC STC20170407102010904/07/17 10:20:31  5-MIN KSTC 071620Z 18013G21KT 10SM CLR 11/M06 A3011 850 29 600 180/13G21 RMK AO2 T01111061
14926KSTC STC20170407102510304/07/17 10:25:31  5-MIN KSTC 071625Z 20014KT 10SM CLR 11/M06 A3010 860 30 600 190/14 RMK AO2 T01111056
14926KSTC STC20170407103010304/07/17 10:30:31  5-MIN KSTC 071630Z 17013KT 10SM CLR 11/M06 A3010 860 30 600 170/13 RMK AO2 T01111056
14926KSTC STC20170407103510304/07/17 10:35:31  5-MIN KSTC 071635Z 18014KT 10SM CLR 11/M06 A3010 860 29 600 180/14 RMK AO2 T01111061
14926KSTC STC20170407104010304/07/17 10:40:31  5-MIN KSTC 071640Z 17015KT 10SM CLR 11/M06 A3010 860 29 600 170/15 RMK AO2 T01111061
14926KSTC STC20170407104510904/07/17 10:45:31  5-MIN KSTC 071645Z 18012G20KT 10SM CLR 12/M06 A3010 860 28 700 180/12G20 RMK AO2 T01171061
14926KSTC STC20170407105011604/07/17 10:50:31  5-MIN KSTC 071650Z 18012G20KT 10SM CLR 11/M06 A3010 860 29 600 170/12G20 RMK AO2 SLP208 T01111061
14926KSTC STC20170407105510304/07/17 10:55:31  5-MIN KSTC 071655Z 18014KT 10SM CLR 12/M06 A3010 870 28 700 180/14 RMK AO2 T01171061
14926KSTC STC20170407110010304/07/17 11:00:31  5-MIN KSTC 071700Z 19012KT 10SM CLR 12/M06 A3009 870 28 700 190/12 RMK AO2 T01171061
14926KSTC STC20170407110510304/07/17 11:05:31  5-MIN KSTC 071705Z 20013KT 10SM CLR 12/M07 A3009 870 27 700 190/13 RMK AO2 T01171067
14926KSTC STC20170407111010304/07/17 11:10:31  5-MIN KSTC 071710Z 19014KT 10SM CLR 12/M06 A3009 870 28 700 190/14 RMK AO2 T01171061
14926KSTC STC20170407111510904/07/17 11:15:31  5-MIN KSTC 071715Z 19014G22KT 10SM CLR 12/M06 A3009 870 27 800 190/14G22 RMK AO2 T01221061
14926KSTC STC20170407112010904/07/17 11:20:31  5-MIN KSTC 071720Z 20017G22KT 10SM CLR 12/M07 A3009 870 26 800 200/17G22 RMK AO2 T01221067
14926KSTC STC20170407112510304/07/17 11:25:31  5-MIN KSTC 071725Z 19014KT 10SM CLR 12/M06 A3008 880 27 800 190/14 RMK AO2 T01221061
14926KSTC STC20170407113010304/07/17 11:30:31  5-MIN KSTC 071730Z 18011KT 10SM CLR 12/M07 A3008 880 26 800 180/11 RMK AO2 T01221067
14926KSTC STC20170407113510304/07/17 11:35:31  5-MIN KSTC 071735Z 17015KT 10SM CLR 13/M06 A3007 890 26 900 170/15 RMK AO2 T01281061
14926KSTC STC20170407114010304/07/17 11:40:31  5-MIN KSTC 071740Z 20012KT 10SM CLR 13/M07 A3007 890 25 900 200/12 RMK AO2 T01281067
14926KSTC STC20170407114510304/07/17 11:45:31  5-MIN KSTC 071745Z 20014KT 10SM CLR 13/M06 A3007 890 26 900 200/14 RMK AO2 T01281061
14926KSTC STC20170407115013404/07/17 11:50:31  5-MIN KSTC 071750Z 20016G22KT 10SM CLR 13/M07 A3006 900 25 900 200/16G22 RMK AO2 SLP196 T01281067 10128 21044 58009
14926KSTC STC20170407115510904/07/17 11:55:31  5-MIN KSTC 071755Z 18017G22KT 10SM CLR 13/M07 A3006 900 25 900 180/17G22 RMK AO2 T01281067
14926KSTC STC20170407120010904/07/17 12:00:31  5-MIN KSTC 071800Z 17013G22KT 10SM CLR 13/M07 A3006 900 25 900 170/13G22 RMK AO2 T01281067
14926KSTC STC20170407120510904/07/17 12:05:31  5-MIN KSTC 071805Z 19014G21KT 10SM CLR 13/M07 A3005 900 25 900 180/14G21 RMK AO2 T01281067
14926KSTC STC20170407121010904/07/17 12:10:31  5-MIN KSTC 071810Z 16014G21KT 10SM CLR 13/M07 A3005 910 25 900 160/14G21 RMK AO2 T01281067
14926KSTC STC20170407121511004/07/17 12:15:31  5-MIN KSTC 071815Z 18015G20KT 10SM CLR 13/M07 A3005 910 24 1000 170/15G20 RMK AO2 T01331067
14926KSTC STC20170407122011004/07/17 12:20:31  5-MIN KSTC 071820Z 19014G20KT 10SM CLR 14/M07 A3004 910 23 1000 190/14G20 RMK AO2 T01391067
14926KSTC STC20170407122511004/07/17 12:25:31  5-MIN KSTC 071825Z 18016G20KT 10SM CLR 14/M07 A3004 920 22 1100 180/16G20 RMK AO2 T01441067
14926KSTC STC20170407123011004/07/17 12:30:31  5-MIN KSTC 071830Z 20015G20KT 10SM CLR 14/M07 A3004 920 23 1000 200/15G20 RMK AO2 T01391067
14926KSTC STC20170407123511004/07/17 12:35:31  5-MIN KSTC 071835Z 18011G20KT 10SM CLR 13/M07 A3003 920 24 1000 180/11G20 RMK AO2 T01331067
14926KSTC STC20170407124011004/07/17 12:40:31  5-MIN KSTC 071840Z 19013G19KT 10SM CLR 14/M06 A3003 930 24 1100 190/13G19 RMK AO2 T01391061
14926KSTC STC20170407124511004/07/17 12:45:31  5-MIN KSTC 071845Z 18018G21KT 10SM CLR 14/M07 A3002 930 23 1100 180/18G21 RMK AO2 T01391067
14926KSTC STC20170407125011704/07/17 12:50:31  5-MIN KSTC 071850Z 20013G21KT 10SM CLR 14/M07 A3002 930 23 1100 200/13G21 RMK AO2 SLP182 T01391067
14926KSTC STC20170407125511004/07/17 12:55:31  5-MIN KSTC 071855Z 21014G21KT 10SM CLR 14/M07 A3002 940 22 1100 210/14G21 RMK AO2 T01391072
14926KSTC STC20170407130011004/07/17 13:00:31  5-MIN KSTC 071900Z 17012G21KT 10SM CLR 14/M07 A3001 940 23 1100 170/12G21 RMK AO2 T01391067
14926KSTC STC20170407130511004/07/17 13:05:31  5-MIN KSTC 071905Z 18011G19KT 10SM CLR 14/M07 A3001 950 22 1100 180/11G19 RMK AO2 T01441067
14926KSTC STC20170407131011004/07/17 13:10:31  5-MIN KSTC 071910Z 17017G22KT 10SM CLR 14/M07 A3000 950 21 1100 170/17G22 RMK AO2 T01441072
14926KSTC STC20170407131511004/07/17 13:15:31  5-MIN KSTC 071915Z 19015G22KT 10SM CLR 14/M07 A3000 960 21 1200 190/15G22 RMK AO2 T01441072
14926KSTC STC20170407132010404/07/17 13:20:31  5-MIN KSTC 071920Z 19014KT 10SM CLR 14/M07 A3000 960 22 1200 190/14 RMK AO2 T01441067
14926KSTC STC20170407132510404/07/17 13:25:31  5-MIN KSTC 071925Z 19016KT 10SM CLR 15/M07 A2999 960 22 1200 190/16 RMK AO2 T01501067
14926KSTC STC20170407133011004/07/17 13:30:31  5-MIN KSTC 071930Z 16013G21KT 10SM CLR 14/M07 A2999 960 21 1200 160/13G21 RMK AO2 T01441072
14926KSTC STC20170407133511004/07/17 13:35:31  5-MIN KSTC 071935Z 19016G20KT 10SM CLR 15/M07 A2999 960 21 1200 190/16G20 RMK AO2 T01501072
14926KSTC STC20170407134010404/07/17 13:40:31  5-MIN KSTC 071940Z 20018KT 10SM CLR 14/M07 A2999 960 22 1200 200/18 RMK AO2 T01441067
14926KSTC STC20170407134510404/07/17 13:45:31  5-MIN KSTC 071945Z 17012KT 10SM CLR 15/M07 A2998 970 22 1200 170/12 RMK AO2 T01501067
14926KSTC STC20170407135011704/07/17 13:50:31  5-MIN KSTC 071950Z 19016G23KT 10SM CLR 15/M07 A2998 970 22 1200 190/16G23 RMK AO2 SLP168 T01501067
14926KSTC STC20170407135511004/07/17 13:55:31  5-MIN KSTC 071955Z 18012G23KT 10SM CLR 15/M07 A2998 970 21 1200 180/12G23 RMK AO2 T01501072
14926KSTC STC20170407140011004/07/17 14:00:31  5-MIN KSTC 072000Z 18017G24KT 10SM CLR 14/M07 A2997 980 21 1200 180/17G24 RMK AO2 T01441072
14926KSTC STC20170407140511004/07/17 14:05:31  5-MIN KSTC 072005Z 18017G24KT 10SM CLR 14/M07 A2997 980 21 1200 180/17G24 RMK AO2 T01441072
14926KSTC STC20170407141010404/07/17 14:10:31  5-MIN KSTC 072010Z 17011KT 10SM CLR 14/M07 A2997 980 21 1200 170/11 RMK AO2 T01441072
14926KSTC STC20170407141511004/07/17 14:15:31  5-MIN KSTC 072015Z 17016G21KT 10SM CLR 15/M07 A2997 980 21 1200 170/16G21 RMK AO2 T01501072
14926KSTC STC20170407142011004/07/17 14:20:31  5-MIN KSTC 072020Z 18016G21KT 10SM CLR 15/M07 A2997 980 21 1300 180/16G21 RMK AO2 T01501072
14926KSTC STC20170407142510404/07/17 14:25:31  5-MIN KSTC 072025Z 18015KT 10SM CLR 15/M07 A2996 990 22 1300 170/15 RMK AO2 T01501067
14926KSTC STC20170407143010404/07/17 14:30:31  5-MIN KSTC 072030Z 16013KT 10SM CLR 14/M07 A2996 990 22 1200 160/13 RMK AO2 T01441067
14926KSTC STC20170407143511004/07/17 14:35:31  5-MIN KSTC 072035Z 17017G24KT 10SM CLR 15/M07 A2996 990 22 1300 170/17G24 RMK AO2 T01501067
14926KSTC STC20170407144011104/07/17 14:40:31  5-MIN KSTC 072040Z 16016G24KT 10SM CLR 15/M06 A2995 1000 22 1300 160/16G24 RMK AO2 T01501061
14926KSTC STC20170407144510504/07/17 14:45:31  5-MIN KSTC 072045Z 18015KT 10SM CLR 15/M06 A2995 1000 22 1300 180/15 RMK AO2 T01501061
14926KSTC STC20170407145012404/07/17 14:50:31  5-MIN KSTC 072050Z 17015G20KT 10SM CLR 15/M07 A2995 1000 22 1300 170/15G20 RMK AO2 SLP156 T01501067 58023
14926KSTC STC20170407145511104/07/17 14:55:31  5-MIN KSTC 072055Z 17014G20KT 10SM CLR 15/M07 A2995 1000 22 1300 170/14G20 RMK AO2 T01501067
14926KSTC STC20170407150010504/07/17 15:00:31  5-MIN KSTC 072100Z 18015KT 10SM CLR 15/M07 A2994 1010 22 1300 180/15 RMK AO2 T01501067
14926KSTC STC20170407150511104/07/17 15:05:31  5-MIN KSTC 072105Z 17015G21KT 10SM CLR 16/M06 A2994 1010 22 1300 170/15G21 RMK AO2 T01561061
14926KSTC STC20170407151010504/07/17 15:10:31  5-MIN KSTC 072110Z 18017KT 10SM CLR 15/M07 A2994 1010 22 1300 180/17 RMK AO2 T01501067
14926KSTC STC20170407151510504/07/17 15:15:31  5-MIN KSTC 072115Z 17015KT 10SM CLR 15/M07 A2993 1020 22 1300 170/15 RMK AO2 T01501067
14926KSTC STC20170407152011104/07/17 15:20:31  5-MIN KSTC 072120Z 18014G22KT 10SM CLR 15/M07 A2993 1020 22 1300 180/14G22 RMK AO2 T01501067
14926KSTC STC20170407152511104/07/17 15:25:31  5-MIN KSTC 072125Z 17019G22KT 10SM CLR 15/M07 A2992 1020 22 1300 170/19G22 RMK AO2 T01501067
14926KSTC STC20170407153011104/07/17 15:30:31  5-MIN KSTC 072130Z 17014G22KT 10SM CLR 15/M07 A2992 1030 22 1300 170/14G22 RMK AO2 T01501067
14926KSTC STC20170407153510504/07/17 15:35:31  5-MIN KSTC 072135Z 17014KT 10SM CLR 14/M07 A2991 1040 22 1300 170/14 RMK AO2 T01441067
14926KSTC STC20170407154011104/07/17 15:40:31  5-MIN KSTC 072140Z 17018G23KT 10SM CLR 14/M07 A2991 1040 22 1300 170/18G23 RMK AO2 T01441067
14926KSTC STC20170407154511104/07/17 15:45:31  5-MIN KSTC 072145Z 17016G23KT 10SM CLR 15/M07 A2990 1040 22 1300 170/16G23 RMK AO2 T01501067
14926KSTC STC20170407155011804/07/17 15:50:31  5-MIN KSTC 072150Z 17017G23KT 10SM CLR 14/M07 A2990 1050 22 1300 170/17G23 RMK AO2 SLP140 T01441067
14926KSTC STC20170407155511104/07/17 15:55:31  5-MIN KSTC 072155Z 17015G23KT 10SM CLR 14/M07 A2990 1050 22 1300 170/15G23 RMK AO2 T01441067
14926KSTC STC20170407160011104/07/17 16:00:31  5-MIN KSTC 072200Z 15020G24KT 10SM CLR 14/M06 A2989 1050 23 1300 150/20G24 RMK AO2 T01441061
14926KSTC STC20170407160511104/07/17 16:05:31  5-MIN KSTC 072205Z 16015G24KT 10SM CLR 14/M06 A2989 1060 23 1300 160/15G24 RMK AO2 T01441061
14926KSTC STC20170407161011104/07/17 16:10:31  5-MIN KSTC 072210Z 16013G21KT 10SM CLR 14/M06 A2989 1060 24 1300 160/13G21 RMK AO2 T01441056
14926KSTC STC20170407161511104/07/17 16:15:31  5-MIN KSTC 072215Z 16017G23KT 10SM CLR 14/M06 A2988 1060 24 1300 160/17G23 RMK AO2 T01441056
14926KSTC STC20170407162011104/07/17 16:20:31  5-MIN KSTC 072220Z 17015G24KT 10SM CLR 14/M06 A2989 1060 23 1300 170/15G24 RMK AO2 T01441061
14926KSTC STC20170407162511104/07/17 16:25:31  5-MIN KSTC 072225Z 18015G24KT 10SM CLR 14/M06 A2989 1060 23 1300 180/15G24 RMK AO2 T01441061
14926KSTC STC20170407163010504/07/17 16:30:31  5-MIN KSTC 072230Z 17016KT 10SM CLR 14/M06 A2989 1060 23 1300 170/16 RMK AO2 T01441061
14926KSTC STC20170407163510504/07/17 16:35:31  5-MIN KSTC 072235Z 17014KT 10SM CLR 14/M06 A2989 1060 23 1300 170/14 RMK AO2 T01441061
14926KSTC STC20170407164010504/07/17 16:40:31  5-MIN KSTC 072240Z 16017KT 10SM CLR 14/M06 A2988 1060 23 1300 150/17 RMK AO2 T01441061
14926KSTC STC20170407164511104/07/17 16:45:31  5-MIN KSTC 072245Z 17014G22KT 10SM CLR 14/M06 A2989 1060 23 1300 170/14G22 RMK AO2 T01441061
14926KSTC STC20170407165011804/07/17 16:50:31  5-MIN KSTC 072250Z 17018G23KT 10SM CLR 14/M06 A2989 1050 23 1300 170/18G23 RMK AO2 SLP138 T01441061
14926KSTC STC20170407165511104/07/17 16:55:31  5-MIN KSTC 072255Z 17017G23KT 10SM CLR 14/M06 A2989 1060 23 1300 170/17G23 RMK AO2 T01441061
14926KSTC STC20170407170010704/07/17 17:00:31  5-MIN KSTC 072300Z 16018KT 10SM CLR 14/M06 A2988 1060 25 1200 160/18 RMK AO2 T01391056 $
14926KSTC STC20170407170510704/07/17 17:05:31  5-MIN KSTC 072305Z 17014KT 10SM CLR 14/M06 A2988 1060 24 1200 170/14 RMK AO2 T01391061 $
14926KSTC STC20170407171010704/07/17 17:10:31  5-MIN KSTC 072310Z 16014KT 10SM CLR 14/M06 A2988 1060 25 1200 160/14 RMK AO2 T01391056 $
14926KSTC STC20170407171511304/07/17 17:15:31  5-MIN KSTC 072315Z 16016G21KT 10SM CLR 14/M06 A2989 1060 25 1200 160/16G21 RMK AO2 T01391056 $
14926KSTC STC20170407172010704/07/17 17:20:31  5-MIN KSTC 072320Z 17016KT 10SM CLR 14/M06 A2988 1060 25 1200 170/16 RMK AO2 T01391056 $
14926KSTC STC20170407172511304/07/17 17:25:31  5-MIN KSTC 072325Z 15012G20KT 10SM CLR 14/M06 A2988 1060 25 1200 150/12G20 RMK AO2 T01391056 $
14926KSTC STC20170407173010704/07/17 17:30:31  5-MIN KSTC 072330Z 15016KT 10SM CLR 14/M06 A2988 1060 25 1200 150/16 RMK AO2 T01391056 $
14926KSTC STC20170407173510704/07/17 17:35:31  5-MIN KSTC 072335Z 16016KT 10SM CLR 14/M06 A2988 1070 25 1200 160/16 RMK AO2 T01391056 $
14926KSTC STC20170407174010704/07/17 17:40:31  5-MIN KSTC 072340Z 16011KT 10SM CLR 14/M06 A2988 1060 25 1200 160/11 RMK AO2 T01391056 $
14926KSTC STC20170407174510704/07/17 17:45:31  5-MIN KSTC 072345Z 16016KT 10SM CLR 14/M06 A2988 1070 25 1200 160/16 RMK AO2 T01391056 $
14926KSTC STC20170407175013204/07/17 17:50:31  5-MIN KSTC 072350Z 16013KT 10SM CLR 14/M06 A2988 1070 25 1200 160/13 RMK AO2 SLP134 T01391056 10156 20128 56038 $
14926KSTC STC20170407175510704/07/17 17:55:31  5-MIN KSTC 072355Z 16013KT 10SM CLR 14/M06 A2988 1060 25 1200 160/13 RMK AO2 T01391056 $
14926KSTC STC20170407180011004/07/17 18:00:31  5-MIN KSTC 080000Z 16013KT 10SM FEW120 14/M06 A2987 1070 24 1200 160/13 RMK AO2 T01391061 $
14926KSTC STC20170407180511004/07/17 18:05:31  5-MIN KSTC 080005Z 15013KT 10SM FEW120 14/M06 A2987 1070 25 1200 150/13 RMK AO2 T01391056 $
14926KSTC STC20170407181011604/07/17 18:10:31  5-MIN KSTC 080010Z 15016G20KT 10SM FEW120 14/M06 A2987 1080 25 1200 150/16G20 RMK AO2 T01391056 $
14926KSTC STC20170407181511304/07/17 18:15:31  5-MIN KSTC 080015Z 15015G20KT 10SM CLR 13/M05 A2987 1070 27 1200 150/15G20 RMK AO2 T01331050 $
14926KSTC STC20170407182010704/07/17 18:20:31  5-MIN KSTC 080020Z 15014KT 10SM CLR 13/M05 A2987 1070 27 1200 150/14 RMK AO2 T01331050 $
14926KSTC STC20170407182510704/07/17 18:25:31  5-MIN KSTC 080025Z 15012KT 10SM CLR 13/M05 A2987 1070 27 1200 150/12 RMK AO2 T01331050 $
14926KSTC STC20170407183010704/07/17 18:30:31  5-MIN KSTC 080030Z 15011KT 10SM CLR 13/M04 A2987 1070 30 1100 150/11 RMK AO2 T01281044 $
14926KSTC STC20170407183510704/07/17 18:35:31  5-MIN KSTC 080035Z 14012KT 10SM CLR 12/M04 A2987 1070 31 1000 140/12 RMK AO2 T01221044 $
14926KSTC STC20170407184010704/07/17 18:40:31  5-MIN KSTC 080040Z 15010KT 10SM CLR 12/M04 A2987 1080 33 1000 150/10 RMK AO2 T01171039 $
14926KSTC STC20170407184510704/07/17 18:45:31  5-MIN KSTC 080045Z 15010KT 10SM CLR 12/M04 A2987 1070 33 1000 150/10 RMK AO2 T01171039 $
14926KSTC STC20170407185011304/07/17 18:50:31  5-MIN KSTC 080050Z 14009KT 10SM CLR 11/M04 A2987 1070 34 900 140/09 RMK AO2 SLP131 T01111039 $
14926KSTC STC20170407185510604/07/17 18:55:31  5-MIN KSTC 080055Z 14007KT 10SM CLR 11/M03 A2987 1070 37 800 140/07 RMK AO2 T01061033 $
14926KSTC STC20170407190010604/07/17 19:00:31  5-MIN KSTC 080100Z 14008KT 10SM CLR 11/M03 A2987 1070 37 800 140/08 RMK AO2 T01061033 $
14926KSTC STC20170407190510604/07/17 19:05:31  5-MIN KSTC 080105Z 14008KT 10SM CLR 11/M04 A2987 1070 33 900 140/08 RMK AO2 T01111044 $
14926KSTC STC20170407191010604/07/17 19:10:31  5-MIN KSTC 080110Z 14008KT 10SM CLR 11/M04 A2986 1080 36 800 130/08 RMK AO2 T01061039 $
14926KSTC STC20170407191510604/07/17 19:15:31  5-MIN KSTC 080115Z 14007KT 10SM CLR 11/M04 A2986 1080 36 800 140/07 RMK AO2 T01061039 $
14926KSTC STC20170407192010604/07/17 19:20:31  5-MIN KSTC 080120Z 14008KT 10SM CLR 11/M03 A2986 1080 37 800 140/08 RMK AO2 T01061033 $
14926KSTC STC20170407192510604/07/17 19:25:31  5-MIN KSTC 080125Z 14007KT 10SM CLR 11/M03 A2986 1080 37 800 130/07 RMK AO2 T01061033 $
14926KSTC STC20170407193010604/07/17 19:30:31  5-MIN KSTC 080130Z 14008KT 10SM CLR 11/M04 A2986 1080 36 800 140/08 RMK AO2 T01061039 $
14926KSTC STC20170407193510604/07/17 19:35:31  5-MIN KSTC 080135Z 14007KT 10SM CLR 11/M03 A2987 1080 37 800 140/07 RMK AO2 T01061033 $
14926KSTC STC20170407194010604/07/17 19:40:31  5-MIN KSTC 080140Z 14008KT 10SM CLR 10/M03 A2986 1080 39 800 140/08 RMK AO2 T01001033 $
14926KSTC STC20170407194510604/07/17 19:45:31  5-MIN KSTC 080145Z 14008KT 10SM CLR 10/M03 A2986 1080 39 800 140/08 RMK AO2 T01001033 $
14926KSTC STC20170407195011304/07/17 19:50:31  5-MIN KSTC 080150Z 14008KT 10SM CLR 11/M04 A2986 1080 36 800 140/08 RMK AO2 SLP126 T01061039 $
14926KSTC STC20170407195510604/07/17 19:55:31  5-MIN KSTC 080155Z 13007KT 10SM CLR 11/M04 A2986 1080 36 800 130/07 RMK AO2 T01061039 $
14926KSTC STC20170407200010604/07/17 20:00:31  5-MIN KSTC 080200Z 14007KT 10SM CLR 11/M04 A2986 1080 36 800 130/07 RMK AO2 T01061039 $
14926KSTC STC20170407200510604/07/17 20:05:31  5-MIN KSTC 080205Z 13007KT 10SM CLR 10/M03 A2986 1080 39 800 130/07 RMK AO2 T01001033 $
14926KSTC STC20170407201010604/07/17 20:10:31  5-MIN KSTC 080210Z 13008KT 10SM CLR 11/M04 A2986 1080 36 800 130/08 RMK AO2 T01061039 $
14926KSTC STC20170407201510604/07/17 20:15:31  5-MIN KSTC 080215Z 14009KT 10SM CLR 11/M04 A2986 1090 36 900 130/09 RMK AO2 T01061039 $
14926KSTC STC20170407202010604/07/17 20:20:31  5-MIN KSTC 080220Z 14008KT 10SM CLR 11/M04 A2986 1090 36 900 140/08 RMK AO2 T01061039 $
14926KSTC STC20170407202510604/07/17 20:25:31  5-MIN KSTC 080225Z 14009KT 10SM CLR 10/M03 A2985 1090 39 800 140/09 RMK AO2 T01001033 $
14926KSTC STC20170407203010604/07/17 20:30:31  5-MIN KSTC 080230Z 14009KT 10SM CLR 10/M03 A2985 1090 39 800 140/09 RMK AO2 T01001033 $
14926KSTC STC20170407203510604/07/17 20:35:31  5-MIN KSTC 080235Z 14009KT 10SM CLR 09/M03 A2985 1090 40 700 140/09 RMK AO2 T00941033 $
14926KSTC STC20170407204010604/07/17 20:40:31  5-MIN KSTC 080240Z 13009KT 10SM CLR 10/M03 A2985 1090 39 800 130/09 RMK AO2 T01001033 $
14926KSTC STC20170407204510604/07/17 20:45:31  5-MIN KSTC 080245Z 13009KT 10SM CLR 11/M04 A2985 1090 36 900 130/09 RMK AO2 T01061039 $
14926KSTC STC20170407205011904/07/17 20:50:31  5-MIN KSTC 080250Z 13010KT 10SM CLR 10/M04 A2984 1100 37 800 130/10 RMK AO2 SLP119 T01001039 56022 $
14926KSTC STC20170407205510604/07/17 20:55:31  5-MIN KSTC 080255Z 14010KT 10SM CLR 10/M04 A2984 1100 37 800 140/10 RMK AO2 T01001039 $
14926KSTC STC20170407210010604/07/17 21:00:31  5-MIN KSTC 080300Z 14009KT 10SM CLR 09/M04 A2984 1100 39 700 140/09 RMK AO2 T00941039 $
14926KSTC STC20170407210510604/07/17 21:05:31  5-MIN KSTC 080305Z 14009KT 10SM CLR 09/M04 A2984 1100 39 700 140/09 RMK AO2 T00941039 $
14926KSTC STC20170407211010604/07/17 21:10:31  5-MIN KSTC 080310Z 14008KT 10SM CLR 09/M03 A2984 1100 42 700 140/08 RMK AO2 T00891033 $
14926KSTC STC20170407211510604/07/17 21:15:31  5-MIN KSTC 080315Z 14009KT 10SM CLR 08/M03 A2984 1100 45 600 140/09 RMK AO2 T00831028 $
14926KSTC STC20170407212010604/07/17 21:20:31  5-MIN KSTC 080320Z 14009KT 10SM CLR 08/M03 A2984 1100 47 500 140/09 RMK AO2 T00781028 $
14926KSTC STC20170407212510604/07/17 21:25:31  5-MIN KSTC 080325Z 14008KT 10SM CLR 08/M03 A2984 1100 47 500 140/08 RMK AO2 T00781028 $
14926KSTC STC20170407213010604/07/17 21:30:31  5-MIN KSTC 080330Z 14009KT 10SM CLR 08/M03 A2983 1110 43 600 140/09 RMK AO2 T00831033 $
14926KSTC STC20170407213510604/07/17 21:35:31  5-MIN KSTC 080335Z 14009KT 10SM CLR 08/M03 A2983 1110 43 600 140/09 RMK AO2 T00831033 $
14926KSTC STC20170407214010604/07/17 21:40:31  5-MIN KSTC 080340Z 15010KT 10SM CLR 08/M03 A2983 1110 47 500 140/10 RMK AO2 T00781028 $
14926KSTC STC20170407214510604/07/17 21:45:31  5-MIN KSTC 080345Z 15010KT 10SM CLR 08/M03 A2983 1110 47 500 140/10 RMK AO2 T00781028 $
14926KSTC STC20170407215011304/07/17 21:50:31  5-MIN KSTC 080350Z 14009KT 10SM CLR 08/M03 A2983 1110 45 600 140/09 RMK AO2 SLP113 T00831028 $
14926KSTC STC20170407215511104/07/17 21:55:31  5-MIN KSTC 080355Z AUTO 14009KT 10SM CLR 08/M03 A2983 1110 43 600 140/09 RMK AO2 T00831033 $
14926KSTC STC20170407220011104/07/17 22:00:31  5-MIN KSTC 080400Z AUTO 14010KT 10SM CLR 08/M03 A2983 1110 43 600 140/10 RMK AO2 T00831033 $
14926KSTC STC20170407220511104/07/17 22:05:31  5-MIN KSTC 080405Z AUTO 14010KT 10SM CLR 08/M03 A2982 1120 43 600 140/10 RMK AO2 T00831033 $
14926KSTC STC20170407221011104/07/17 22:10:31  5-MIN KSTC 080410Z AUTO 14010KT 10SM CLR 08/M03 A2982 1120 47 600 140/10 RMK AO2 T00781028 $
14926KSTC STC20170407221511104/07/17 22:15:31  5-MIN KSTC 080415Z AUTO 14009KT 10SM CLR 08/M03 A2982 1120 47 600 140/09 RMK AO2 T00781028 $
14926KSTC STC20170407222011104/07/17 22:20:31  5-MIN KSTC 080420Z AUTO 14010KT 10SM CLR 08/M03 A2982 1120 47 600 140/10 RMK AO2 T00781028 $
14926KSTC STC20170407222511104/07/17 22:25:31  5-MIN KSTC 080425Z AUTO 15010KT 10SM CLR 08/M03 A2981 1130 47 600 150/10 RMK AO2 T00781028 $
14926KSTC STC20170407223011104/07/17 22:30:31  5-MIN KSTC 080430Z AUTO 15010KT 10SM CLR 08/M03 A2981 1130 47 600 150/10 RMK AO2 T00781028 $
14926KSTC STC20170407223511104/07/17 22:35:31  5-MIN KSTC 080435Z AUTO 15011KT 10SM CLR 08/M03 A2981 1130 47 600 150/11 RMK AO2 T00781028 $
14926KSTC STC20170407224011104/07/17 22:40:31  5-MIN KSTC 080440Z AUTO 15011KT 10SM CLR 08/M03 A2981 1130 45 600 150/11 RMK AO2 T00831028 $
14926KSTC STC20170407224511104/07/17 22:45:31  5-MIN KSTC 080445Z AUTO 15010KT 10SM CLR 08/M03 A2981 1130 45 600 150/10 RMK AO2 T00831028 $
14926KSTC STC20170407225011804/07/17 22:50:31  5-MIN KSTC 080450Z AUTO 15010KT 10SM CLR 08/M03 A2980 1130 45 600 150/10 RMK AO2 SLP105 T00831028 $
14926KSTC STC20170407225511104/07/17 22:55:31  5-MIN KSTC 080455Z AUTO 15010KT 10SM CLR 08/M03 A2980 1130 45 600 150/10 RMK AO2 T00831028 $
14926KSTC STC20170407230011104/07/17 23:00:31  5-MIN KSTC 080500Z AUTO 15010KT 10SM CLR 08/M03 A2980 1140 47 600 150/10 RMK AO2 T00781028 $
14926KSTC STC20170407230511104/07/17 23:05:31  5-MIN KSTC 080505Z AUTO 15010KT 10SM CLR 08/M03 A2980 1140 47 600 150/10 RMK AO2 T00781028 $
14926KSTC STC20170407231011104/07/17 23:10:31  5-MIN KSTC 080510Z AUTO 15009KT 10SM CLR 08/M03 A2980 1140 47 600 150/09 RMK AO2 T00781028 $
14926KSTC STC20170407231511104/07/17 23:15:31  5-MIN KSTC 080515Z AUTO 15010KT 10SM CLR 08/M03 A2980 1140 47 600 150/10 RMK AO2 T00781028 $
14926KSTC STC20170407232011104/07/17 23:20:31  5-MIN KSTC 080520Z AUTO 16010KT 10SM CLR 08/M03 A2980 1140 45 700 160/10 RMK AO2 T00831028 $
14926KSTC STC20170407232511104/07/17 23:25:31  5-MIN KSTC 080525Z AUTO 16011KT 10SM CLR 09/M03 A2980 1140 43 700 160/11 RMK AO2 T00891028 $
14926KSTC STC20170407233011104/07/17 23:30:31  5-MIN KSTC 080530Z AUTO 16011KT 10SM CLR 09/M03 A2979 1150 42 800 160/11 RMK AO2 T00941028 $
14926KSTC STC20170407233511104/07/17 23:35:31  5-MIN KSTC 080535Z AUTO 16010KT 10SM CLR 09/M03 A2979 1150 42 800 160/10 RMK AO2 T00941028 $
14926KSTC STC20170407234011104/07/17 23:40:31  5-MIN KSTC 080540Z AUTO 15012KT 10SM CLR 09/M03 A2979 1150 43 700 150/12 RMK AO2 T00891028 $
14926KSTC STC20170407234511104/07/17 23:45:31  5-MIN KSTC 080545Z AUTO 16012KT 10SM CLR 09/M03 A2979 1150 42 800 160/12 RMK AO2 T00941028 $
14926KSTC STC20170407235014604/07/17 23:50:31  5-MIN KSTC 080550Z AUTO 16012KT 10SM CLR 09/M03 A2978 1150 42 800 160/12 RMK AO2 SLP097 T00941028 10139 20072 401561044 58012 $
14926KSTC STC20170407235511104/07/17 23:55:31  5-MIN KSTC 080555Z AUTO 16013KT 10SM CLR 10/M03 A2978 1160 40 900 160/13 RMK AO2 T01001028 $
14926KSTC STC20170408000011704/08/17 00:00:31  5-MIN KSTC 080600Z AUTO 16014G23KT 10SM CLR 10/M03 A2978 1160 40 900 160/14G23 RMK AO2 T01001028 $
14926KSTC STC20170408000511704/08/17 00:05:31  5-MIN KSTC 080605Z AUTO 16013G23KT 10SM CLR 10/M02 A2978 1160 42 900 160/13G23 RMK AO2 T01001022 $
14926KSTC STC20170408001011704/08/17 00:10:31  5-MIN KSTC 080610Z AUTO 16015G23KT 10SM CLR 10/M02 A2978 1160 42 900 160/15G23 RMK AO2 T01001022 $
14926KSTC STC20170408001511104/08/17 00:15:31  5-MIN KSTC 080615Z AUTO 16011KT 10SM CLR 10/M02 A2978 1160 42 900 160/11 RMK AO2 T01001022 $
14926KSTC STC20170408002011104/08/17 00:20:31  5-MIN KSTC 080620Z AUTO 16012KT 10SM CLR 09/M02 A2978 1160 44 800 160/12 RMK AO2 T00941022 $
14926KSTC STC20170408002511104/08/17 00:25:31  5-MIN KSTC 080625Z AUTO 16011KT 10SM CLR 09/M02 A2977 1160 44 800 160/11 RMK AO2 T00941022 $
14926KSTC STC20170408003011104/08/17 00:30:31  5-MIN KSTC 080630Z AUTO 16012KT 10SM CLR 09/M02 A2977 1170 44 800 150/12 RMK AO2 T00941022 $
14926KSTC STC20170408003511104/08/17 00:35:31  5-MIN KSTC 080635Z AUTO 16012KT 10SM CLR 09/M02 A2977 1170 44 800 160/12 RMK AO2 T00941022 $
14926KSTC STC20170408004011104/08/17 00:40:31  5-MIN KSTC 080640Z AUTO 16013KT 10SM CLR 09/M02 A2977 1170 44 800 160/13 RMK AO2 T00941022 $
14926KSTC STC20170408004511104/08/17 00:45:31  5-MIN KSTC 080645Z AUTO 16009KT 10SM CLR 09/M02 A2977 1170 45 800 150/09 RMK AO2 T00891022 $
14926KSTC STC20170408005011804/08/17 00:50:31  5-MIN KSTC 080650Z AUTO 15012KT 10SM CLR 09/M02 A2976 1180 47 800 150/12 RMK AO2 SLP088 T00891017 $
14926KSTC STC20170408005511104/08/17 00:55:31  5-MIN KSTC 080655Z AUTO 16009KT 10SM CLR 09/M02 A2976 1170 47 800 150/09 RMK AO2 T00891017 $
14926KSTC STC20170408010011104/08/17 01:00:31  5-MIN KSTC 080700Z AUTO 16011KT 10SM CLR 09/M02 A2976 1180 47 800 160/11 RMK AO2 T00891017 $
14926KSTC STC20170408010511104/08/17 01:05:31  5-MIN KSTC 080705Z AUTO 16010KT 10SM CLR 09/M02 A2976 1180 47 800 160/10 RMK AO2 T00891017 $
14926KSTC STC20170408011011104/08/17 01:10:31  5-MIN KSTC 080710Z AUTO 16011KT 10SM CLR 09/M02 A2975 1180 47 800 150/11 RMK AO2 T00891017 $
14926KSTC STC20170408011511104/08/17 01:15:31  5-MIN KSTC 080715Z AUTO 16010KT 10SM CLR 08/M02 A2976 1180 49 700 160/10 RMK AO2 T00831017 $
14926KSTC STC20170408012011104/08/17 01:20:31  5-MIN KSTC 080720Z AUTO 16011KT 10SM CLR 09/M02 A2975 1180 47 800 160/11 RMK AO2 T00891017 $
14926KSTC STC20170408012511104/08/17 01:25:31  5-MIN KSTC 080725Z AUTO 16011KT 10SM CLR 08/M02 A2975 1190 49 700 160/11 RMK AO2 T00831017 $
14926KSTC STC20170408013011104/08/17 01:30:31  5-MIN KSTC 080730Z AUTO 16011KT 10SM CLR 09/M02 A2975 1190 47 800 160/11 RMK AO2 T00891017 $
14926KSTC STC20170408013511104/08/17 01:35:31  5-MIN KSTC 080735Z AUTO 16010KT 10SM CLR 08/M02 A2975 1190 49 700 160/10 RMK AO2 T00831017 $
14926KSTC STC20170408014011104/08/17 01:40:31  5-MIN KSTC 080740Z AUTO 16010KT 10SM CLR 08/M02 A2975 1190 49 700 160/10 RMK AO2 T00831017 $
14926KSTC STC20170408014511104/08/17 01:45:31  5-MIN KSTC 080745Z AUTO 17011KT 10SM CLR 08/M02 A2974 1190 49 700 160/11 RMK AO2 T00831017 $
14926KSTC STC20170408015011804/08/17 01:50:31  5-MIN KSTC 080750Z AUTO 16013KT 10SM CLR 09/M02 A2974 1200 47 800 160/13 RMK AO2 SLP081 T00891017 $
14926KSTC STC20170408015511104/08/17 01:55:31  5-MIN KSTC 080755Z AUTO 16012KT 10SM CLR 08/M02 A2974 1200 49 700 160/12 RMK AO2 T00831017 $
14926KSTC STC20170408020011104/08/17 02:00:31  5-MIN KSTC 080800Z AUTO 15011KT 10SM CLR 08/M02 A2973 1200 49 700 150/11 RMK AO2 T00831017 $
14926KSTC STC20170408020511104/08/17 02:05:31  5-MIN KSTC 080805Z AUTO 15011KT 10SM CLR 08/M02 A2973 1200 49 700 150/11 RMK AO2 T00831017 $
14926KSTC STC20170408021011104/08/17 02:10:31  5-MIN KSTC 080810Z AUTO 16012KT 10SM CLR 08/M02 A2973 1200 49 700 150/12 RMK AO2 T00831017 $
14926KSTC STC20170408021511104/08/17 02:15:31  5-MIN KSTC 080815Z AUTO 16012KT 10SM CLR 08/M02 A2973 1200 49 700 160/12 RMK AO2 T00831017 $
14926KSTC STC20170408022011104/08/17 02:20:31  5-MIN KSTC 080820Z AUTO 15010KT 10SM CLR 08/M02 A2973 1200 51 700 150/10 RMK AO2 T00781017 $
14926KSTC STC20170408022511104/08/17 02:25:31  5-MIN KSTC 080825Z AUTO 16011KT 10SM CLR 08/M02 A2973 1210 51 700 150/11 RMK AO2 T00781017 $
14926KSTC STC20170408023011104/08/17 02:30:31  5-MIN KSTC 080830Z AUTO 15011KT 10SM CLR 08/M02 A2973 1210 51 700 150/11 RMK AO2 T00781017 $
14926KSTC STC20170408023511104/08/17 02:35:31  5-MIN KSTC 080835Z AUTO 16012KT 10SM CLR 08/M02 A2972 1210 51 700 160/12 RMK AO2 T00781017 $
14926KSTC STC20170408024011104/08/17 02:40:31  5-MIN KSTC 080840Z AUTO 15011KT 10SM CLR 08/M02 A2973 1210 51 700 150/11 RMK AO2 T00781017 $
14926KSTC STC20170408024511104/08/17 02:45:31  5-MIN KSTC 080845Z AUTO 16011KT 10SM CLR 08/M01 A2973 1210 53 700 150/11 RMK AO2 T00781011 $
14926KSTC STC20170408025012404/08/17 02:50:31  5-MIN KSTC 080850Z AUTO 15011KT 10SM CLR 08/M01 A2972 1210 53 700 150/11 RMK AO2 SLP076 T00781011 58020 $
14926KSTC STC20170408025511104/08/17 02:55:31  5-MIN KSTC 080855Z AUTO 15011KT 10SM CLR 08/M01 A2972 1210 53 700 150/11 RMK AO2 T00781011 $
14926KSTC STC20170408030011104/08/17 03:00:31  5-MIN KSTC 080900Z AUTO 15010KT 10SM CLR 08/M01 A2973 1210 53 700 150/10 RMK AO2 T00781011 $
14926KSTC STC20170408030511104/08/17 03:05:31  5-MIN KSTC 080905Z AUTO 15009KT 10SM CLR 08/M01 A2972 1210 53 700 150/09 RMK AO2 T00781011 $
14926KSTC STC20170408031011104/08/17 03:10:31  5-MIN KSTC 080910Z AUTO 15010KT 10SM CLR 07/M01 A2972 1220 55 600 150/10 RMK AO2 T00721011 $
14926KSTC STC20170408031511104/08/17 03:15:31  5-MIN KSTC 080915Z AUTO 15011KT 10SM CLR 07/M01 A2971 1220 55 600 150/11 RMK AO2 T00721011 $
14926KSTC STC20170409002011104/09/17 00:20:31  5-MIN KSTC 090620Z AUTO 30007KT 10SM CLR 12/07 A2954 1380 74 1300 300/07 RMK AO2 T01170072 $
14926KSTC STC20170409002511104/09/17 00:25:31  5-MIN KSTC 090625Z AUTO 30007KT 10SM CLR 12/07 A2955 1380 71 1300 300/07 RMK AO2 T01170067 $
14926KSTC STC20170409003011104/09/17 00:30:31  5-MIN KSTC 090630Z AUTO 29006KT 10SM CLR 11/07 A2955 1370 74 1300 290/06 RMK AO2 T01110067 $
14926KSTC STC20170409003511104/09/17 00:35:31  5-MIN KSTC 090635Z AUTO 29006KT 10SM CLR 11/07 A2955 1370 77 1200 290/06 RMK AO2 T01060067 $
14926KSTC STC20170409004011104/09/17 00:40:31  5-MIN KSTC 090640Z AUTO 30005KT 10SM CLR 10/06 A2955 1370 77 1100 300/05 RMK AO2 T01000061 $
14926KSTC STC20170409004511104/09/17 00:45:31  5-MIN KSTC 090645Z AUTO 30005KT 10SM CLR 10/07 A2955 1370 80 1100 300/05 RMK AO2 T01000067 $
14926KSTC STC20170409005011804/09/17 00:50:31  5-MIN KSTC 090650Z AUTO 31006KT 10SM CLR 11/07 A2954 1380 74 1300 310/06 RMK AO2 SLP012 T01110067 $
14926KSTC STC20170409005511104/09/17 00:55:31  5-MIN KSTC 090655Z AUTO 32005KT 10SM CLR 11/07 A2954 1380 74 1300 310/05 RMK AO2 T01110067 $
14926KSTC STC20170409010011104/09/17 01:00:31  5-MIN KSTC 090700Z AUTO 32005KT 10SM CLR 12/07 A2955 1370 71 1300 320/05 RMK AO2 T01170067 $
14926KSTC STC20170409010511104/09/17 01:05:31  5-MIN KSTC 090705Z AUTO 32006KT 10SM CLR 11/06 A2955 1370 74 1200 310/06 RMK AO2 T01060061 $
14926KSTC STC20170409011011104/09/17 01:10:31  5-MIN KSTC 090710Z AUTO 30005KT 10SM CLR 10/06 A2955 1370 77 1100 300/05 RMK AO2 T01000061 $
14926KSTC STC20170409011511104/09/17 01:15:31  5-MIN KSTC 090715Z AUTO 28003KT 10SM CLR 11/06 A2956 1360 74 1200 280/03 RMK AO2 T01060061 $
14926KSTC STC20170409012011804/09/17 01:20:31  5-MIN KSTC 090720Z AUTO 26003KT 10SM CLR 10/06 A2957 1350 77 1100 250/03 RMK AO2 PRESRR T01000061 $
14926KSTC STC20170409012511104/09/17 01:25:31  5-MIN KSTC 090725Z AUTO 25004KT 10SM CLR 10/06 A2957 1350 77 1100 250/04 RMK AO2 T01000061 $
14926KSTC STC20170409013011104/09/17 01:30:31  5-MIN KSTC 090730Z AUTO 25003KT 10SM CLR 11/06 A2957 1350 74 1200 250/03 RMK AO2 T01060061 $
14926KSTC STC20170409013511104/09/17 01:35:31  5-MIN KSTC 090735Z AUTO 26003KT 10SM CLR 11/07 A2958 1350 74 1200 260/03 RMK AO2 T01110067 $
14926KSTC STC20170409014011104/09/17 01:40:31  5-MIN KSTC 090740Z AUTO 30004KT 10SM CLR 11/06 A2958 1350 74 1200 290/04 RMK AO2 T01060061 $
14926KSTC STC20170409014511104/09/17 01:45:31  5-MIN KSTC 090745Z AUTO 33004KT 10SM CLR 11/07 A2957 1350 74 1200 330/04 RMK AO2 T01110067 $
14926KSTC STC20170409015011804/09/17 01:50:31  5-MIN KSTC 090750Z AUTO 34003KT 10SM CLR 11/06 A2957 1350 74 1200 340/03 RMK AO2 SLP021 T01060061 $
14926KSTC STC20170409015511104/09/17 01:55:31  5-MIN KSTC 090755Z AUTO 31005KT 10SM CLR 11/07 A2957 1350 74 1200 310/05 RMK AO2 T01110067 $
14926KSTC STC20170409020011104/09/17 02:00:31  5-MIN KSTC 090800Z AUTO 33004KT 10SM CLR 11/07 A2957 1350 77 1200 320/04 RMK AO2 T01060067 $
14926KSTC STC20170409020511104/09/17 02:05:31  5-MIN KSTC 090805Z AUTO 33004KT 10SM CLR 11/07 A2957 1350 77 1200 330/04 RMK AO2 T01060067 $
14926KSTC STC20170409021011104/09/17 02:10:31  5-MIN KSTC 090810Z AUTO 34003KT 10SM CLR 12/07 A2957 1350 71 1300 340/03 RMK AO2 T01170067 $
14926KSTC STC20170409021511104/09/17 02:15:31  5-MIN KSTC 090815Z AUTO 36003KT 10SM CLR 11/07 A2957 1350 74 1200 360/03 RMK AO2 T01110067 $
14926KSTC STC20170409022011104/09/17 02:20:31  5-MIN KSTC 090820Z AUTO 33004KT 10SM CLR 11/07 A2957 1350 74 1200 330/04 RMK AO2 T01110067 $
14926KSTC STC20170409022511104/09/17 02:25:31  5-MIN KSTC 090825Z AUTO 32005KT 10SM CLR 11/07 A2957 1350 77 1200 320/05 RMK AO2 T01060067 $
14926KSTC STC20170409023011104/09/17 02:30:31  5-MIN KSTC 090830Z AUTO 33004KT 10SM CLR 11/07 A2957 1360 77 1200 330/04 RMK AO2 T01060067 $
14926KSTC STC20170409023511104/09/17 02:35:31  5-MIN KSTC 090835Z AUTO 35005KT 10SM CLR 10/06 A2957 1360 77 1100 350/05 RMK AO2 T01000061 $
14926KSTC STC20170409024011104/09/17 02:40:31  5-MIN KSTC 090840Z AUTO 34005KT 10SM CLR 10/06 A2957 1360 77 1100 340/05 RMK AO2 T01000061 $
14926KSTC STC20170409024511104/09/17 02:45:31  5-MIN KSTC 090845Z AUTO 35005KT 10SM CLR 11/06 A2956 1360 74 1200 350/05 RMK AO2 T01060061 $
14926KSTC STC20170409025012404/09/17 02:50:31  5-MIN KSTC 090850Z AUTO 35004KT 10SM CLR 10/06 A2956 1360 77 1100 350/04 RMK AO2 SLP018 T01000061 53022 $
14926KSTC STC20170409025511104/09/17 02:55:31  5-MIN KSTC 090855Z AUTO 35005KT 10SM CLR 10/06 A2956 1360 77 1100 350/05 RMK AO2 T01000061 $
14926KSTC STC20170409030011104/09/17 03:00:31  5-MIN KSTC 090900Z AUTO 35005KT 10SM CLR 10/07 A2956 1360 80 1100 350/05 RMK AO2 T01000067 $
14926KSTC STC20170409030511104/09/17 03:05:31  5-MIN KSTC 090905Z AUTO 35005KT 10SM CLR 10/07 A2956 1360 80 1100 350/05 RMK AO2 T01000067 $
14926KSTC STC20170409031011104/09/17 03:10:31  5-MIN KSTC 090910Z AUTO 35005KT 10SM CLR 10/07 A2956 1360 80 1100 350/05 RMK AO2 T01000067 $
14926KSTC STC20170409031511104/09/17 03:15:31  5-MIN KSTC 090915Z AUTO 35005KT 10SM CLR 10/07 A2956 1370 80 1100 350/05 RMK AO2 T01000067 $
14926KSTC STC20170409032011104/09/17 03:20:31  5-MIN KSTC 090920Z AUTO 36005KT 10SM CLR 11/07 A2955 1370 77 1200 360/05 RMK AO2 T01060067 $
14926KSTC STC20170409032511104/09/17 03:25:31  5-MIN KSTC 090925Z AUTO 01006KT 10SM CLR 11/07 A2954 1380 77 1200 010/06 RMK AO2 T01060067 $
14926KSTC STC20170409033011104/09/17 03:30:31  5-MIN KSTC 090930Z AUTO 01005KT 10SM CLR 11/07 A2955 1370 74 1300 010/05 RMK AO2 T01110067 $
14926KSTC STC20170409033511104/09/17 03:35:31  5-MIN KSTC 090935Z AUTO 35006KT 10SM CLR 11/07 A2955 1370 77 1200 350/06 RMK AO2 T01060067 $
14926KSTC STC20170409034011104/09/17 03:40:31  5-MIN KSTC 090940Z AUTO 35006KT 10SM CLR 11/07 A2956 1360 77 1200 350/06 RMK AO2 T01060067 $
14926KSTC STC20170409034511104/09/17 03:45:31  5-MIN KSTC 090945Z AUTO 35007KT 10SM CLR 11/07 A2957 1360 77 1200 350/07 RMK AO2 T01060067 $
14926KSTC STC20170409035011804/09/17 03:50:31  5-MIN KSTC 090950Z AUTO 35006KT 10SM CLR 11/07 A2956 1360 74 1300 350/06 RMK AO2 SLP017 T01110067 $
14926KSTC STC20170409035511104/09/17 03:55:31  5-MIN KSTC 090955Z AUTO 35007KT 10SM CLR 11/07 A2956 1360 74 1300 350/07 RMK AO2 T01110067 $
14926KSTC STC20170409040011104/09/17 04:00:31  5-MIN KSTC 091000Z AUTO 34006KT 10SM CLR 11/07 A2957 1350 74 1200 340/06 RMK AO2 T01110067 $
14926KSTC STC20170409040511104/09/17 04:05:31  5-MIN KSTC 091005Z AUTO 33006KT 10SM CLR 11/07 A2958 1350 74 1200 330/06 RMK AO2 T01110067 $
14926KSTC STC20170409041011104/09/17 04:10:31  5-MIN KSTC 091010Z AUTO 33006KT 10SM CLR 11/07 A2958 1340 74 1200 330/06 RMK AO2 T01110067 $
14926KSTC STC20170409041511104/09/17 04:15:31  5-MIN KSTC 091015Z AUTO 33005KT 10SM CLR 11/07 A2958 1340 74 1200 330/05 RMK AO2 T01110067 $
14926KSTC STC20170409042011104/09/17 04:20:31  5-MIN KSTC 091020Z AUTO 33005KT 10SM CLR 11/07 A2958 1340 77 1200 330/05 RMK AO2 T01060067 $
14926KSTC STC20170409042511104/09/17 04:25:31  5-MIN KSTC 091025Z AUTO 33003KT 10SM CLR 11/07 A2958 1340 77 1200 330/03 RMK AO2 T01060067 $
14926KSTC STC20170409043011104/09/17 04:30:31  5-MIN KSTC 091030Z AUTO 32005KT 10SM CLR 11/07 A2959 1340 77 1200 320/05 RMK AO2 T01060067 $
14926KSTC STC20170409043511104/09/17 04:35:31  5-MIN KSTC 091035Z AUTO 32004KT 10SM CLR 10/07 A2959 1330 80 1100 320/04 RMK AO2 T01000067 $
14926KSTC STC20170409044011104/09/17 04:40:31  5-MIN KSTC 091040Z AUTO 00000KT 10SM CLR 10/07 A2960 1330 80 1100 000/00 RMK AO2 T01000067 $
14926KSTC STC20170409044511104/09/17 04:45:31  5-MIN KSTC 091045Z AUTO 31005KT 10SM CLR 10/07 A2960 1320 80 1100 310/05 RMK AO2 T01000067 $
14926KSTC STC20170409045011804/09/17 04:50:31  5-MIN KSTC 091050Z AUTO 33006KT 10SM CLR 09/06 A2960 1320 79 1000 330/06 RMK AO2 SLP030 T00940061 $
14926KSTC STC20170409045511104/09/17 04:55:31  5-MIN KSTC 091055Z AUTO 33006KT 10SM CLR 10/07 A2960 1320 80 1100 330/06 RMK AO2 T01000067 $
14926KSTC STC20170409050011404/09/17 05:00:31  5-MIN KSTC 091100Z AUTO 33006KT 10SM FEW090 10/07 A2961 1320 80 1100 330/06 RMK AO2 T01000067 $
14926KSTC STC20170409050511404/09/17 05:05:31  5-MIN KSTC 091105Z AUTO 32006KT 10SM SCT090 10/07 A2961 1320 80 1100 320/06 RMK AO2 T01000067 $
14926KSTC STC20170409051011404/09/17 05:10:31  5-MIN KSTC 091110Z AUTO 33005KT 10SM SCT090 10/07 A2961 1320 80 1100 330/05 RMK AO2 T01000067 $
14926KSTC STC20170409051511404/09/17 05:15:31  5-MIN KSTC 091115Z AUTO 33006KT 10SM FEW090 11/07 A2961 1320 77 1100 330/06 RMK AO2 T01060067 $
14926KSTC STC20170409052011404/09/17 05:20:31  5-MIN KSTC 091120Z AUTO 34006KT 10SM SCT090 10/07 A2960 1320 80 1100 340/06 RMK AO2 T01000067 $
14926KSTC STC20170409052511404/09/17 05:25:31  5-MIN KSTC 091125Z AUTO 34006KT 10SM SCT090 10/07 A2960 1320 80 1100 340/06 RMK AO2 T01000067 $
14926KSTC STC20170409053011404/09/17 05:30:31  5-MIN KSTC 091130Z AUTO 34004KT 10SM SCT095 10/07 A2961 1320 80 1100 340/04 RMK AO2 T01000067 $
14926KSTC STC20170409053511404/09/17 05:35:31  5-MIN KSTC 091135Z AUTO 34004KT 10SM SCT095 11/07 A2961 1320 80 1100 330/04 RMK AO2 T01060072 $
14926KSTC STC20170409054011404/09/17 05:40:31  5-MIN KSTC 091140Z AUTO 33004KT 10SM FEW095 11/07 A2961 1320 80 1100 330/04 RMK AO2 T01060072 $
14926KSTC STC20170409054511404/09/17 05:45:31  5-MIN KSTC 091145Z AUTO 34004KT 10SM FEW095 10/07 A2961 1320 80 1100 340/04 RMK AO2 T01000067 $
14926KSTC STC20170409055013404/09/17 05:50:31  5-MIN KSTC 091150Z 34004KT 10SM FEW095 10/07 A2961 1320 80 1100 340/04 RMK AO2 SLP032 T01000067 10133 20094 50011 $
14926KSTC STC20170409055510904/09/17 05:55:31  5-MIN KSTC 091155Z 34003KT 10SM FEW095 10/07 A2961 1320 80 1100 340/03 RMK AO2 T01000067 $
14926KSTC STC20170409060010604/09/17 06:00:31  5-MIN KSTC 091200Z 35003KT 10SM CLR 10/07 A2961 1320 80 1100 350/03 RMK AO2 T01000067 $
14926KSTC STC20170409060510604/09/17 06:05:31  5-MIN KSTC 091205Z 36003KT 10SM CLR 10/07 A2961 1320 80 1100 360/03 RMK AO2 T01000067 $
14926KSTC STC20170409061010604/09/17 06:10:31  5-MIN KSTC 091210Z 35004KT 10SM CLR 10/07 A2960 1320 80 1100 350/04 RMK AO2 T01000067 $
14926KSTC STC20170409061510604/09/17 06:15:31  5-MIN KSTC 091215Z 35005KT 10SM CLR 10/07 A2960 1320 80 1100 350/05 RMK AO2 T01000067 $
14926KSTC STC20170409062010604/09/17 06:20:31  5-MIN KSTC 091220Z 36004KT 10SM CLR 10/07 A2960 1320 83 1100 360/04 RMK AO2 T01000072 $
14926KSTC STC20170409062510604/09/17 06:25:31  5-MIN KSTC 091225Z 01005KT 10SM CLR 10/07 A2960 1320 83 1100 360/05 RMK AO2 T01000072 $
14926KSTC STC20170409063010604/09/17 06:30:31  5-MIN KSTC 091230Z 01005KT 10SM CLR 11/07 A2960 1320 80 1100 360/05 RMK AO2 T01060072 $
14926KSTC STC20170409063510604/09/17 06:35:31  5-MIN KSTC 091235Z 36005KT 10SM CLR 11/07 A2960 1320 80 1100 360/05 RMK AO2 T01060072 $
14926KSTC STC20170409064010604/09/17 06:40:31  5-MIN KSTC 091240Z 01004KT 10SM CLR 11/07 A2960 1320 80 1100 010/04 RMK AO2 T01060072 $
14926KSTC STC20170409064510604/09/17 06:45:31  5-MIN KSTC 091245Z 36005KT 10SM CLR 11/07 A2961 1320 77 1200 360/05 RMK AO2 T01110072 $
14926KSTC STC20170409065011604/09/17 06:50:31  5-MIN KSTC 091250Z 01004KT 10SM FEW095 11/08 A2961 1320 80 1200 010/04 RMK AO2 SLP034 T01110078 $
14926KSTC STC20170409065510904/09/17 06:55:31  5-MIN KSTC 091255Z 36005KT 10SM FEW095 11/08 A2961 1310 80 1200 360/05 RMK AO2 T01110078 $
14926KSTC STC20170409070010904/09/17 07:00:31  5-MIN KSTC 091300Z 36004KT 10SM FEW095 11/08 A2961 1310 80 1200 360/04 RMK AO2 T01110078 $
14926KSTC STC20170409070510904/09/17 07:05:31  5-MIN KSTC 091305Z 35005KT 10SM FEW095 12/08 A2961 1310 77 1300 350/05 RMK AO2 T01170078 $
14926KSTC STC20170409071010904/09/17 07:10:31  5-MIN KSTC 091310Z 36006KT 10SM FEW095 12/08 A2961 1310 77 1300 360/06 RMK AO2 T01170078 $
14926KSTC STC20170409071510904/09/17 07:15:31  5-MIN KSTC 091315Z 01006KT 10SM FEW095 12/08 A2961 1310 77 1300 010/06 RMK AO2 T01170078 $
14926KSTC STC20170409072010604/09/17 07:20:31  5-MIN KSTC 091320Z 02007KT 10SM CLR 12/08 A2961 1320 74 1300 020/07 RMK AO2 T01220078 $
14926KSTC STC20170409072510604/09/17 07:25:31  5-MIN KSTC 091325Z 03006KT 10SM CLR 12/08 A2960 1320 74 1300 030/06 RMK AO2 T01220078 $
14926KSTC STC20170409073010604/09/17 07:30:31  5-MIN KSTC 091330Z 04007KT 10SM CLR 12/08 A2960 1320 74 1300 040/07 RMK AO2 T01220078 $
14926KSTC STC20170409073510604/09/17 07:35:31  5-MIN KSTC 091335Z 05008KT 10SM CLR 12/07 A2960 1320 71 1300 040/08 RMK AO2 T01220072 $
14926KSTC STC20170409074010604/09/17 07:40:31  5-MIN KSTC 091340Z 04005KT 10SM CLR 12/07 A2960 1320 71 1300 040/05 RMK AO2 T01220072 $
14926KSTC STC20170409074510604/09/17 07:45:31  5-MIN KSTC 091345Z 03004KT 10SM CLR 12/08 A2961 1320 74 1300 030/04 RMK AO2 T01220078 $
14926KSTC STC20170409075011304/09/17 07:50:31  5-MIN KSTC 091350Z 02006KT 10SM CLR 12/08 A2961 1320 74 1300 020/06 RMK AO2 SLP033 T01220078 $
14926KSTC STC20170409075510604/09/17 07:55:31  5-MIN KSTC 091355Z 36005KT 10SM CLR 12/08 A2961 1320 74 1300 360/05 RMK AO2 T01220078 $
14926KSTC STC20170409080010604/09/17 08:00:31  5-MIN KSTC 091400Z 01007KT 10SM CLR 12/08 A2960 1320 74 1300 010/07 RMK AO2 T01220078 $
14926KSTC STC20170409080510604/09/17 08:05:31  5-MIN KSTC 091405Z 01006KT 10SM CLR 13/08 A2960 1330 71 1400 010/06 RMK AO2 T01280078 $
14926KSTC STC20170409081010604/09/17 08:10:31  5-MIN KSTC 091410Z 02005KT 10SM CLR 13/08 A2960 1330 71 1400 020/05 RMK AO2 T01280078 $
14926KSTC STC20170409081510604/09/17 08:15:31  5-MIN KSTC 091415Z 02007KT 10SM CLR 13/08 A2960 1330 69 1500 020/07 RMK AO2 T01330078 $
14926KSTC STC20170409082010604/09/17 08:20:31  5-MIN KSTC 091420Z 05006KT 10SM CLR 13/08 A2959 1330 69 1500 050/06 RMK AO2 T01330078 $
14926KSTC STC20170409082510604/09/17 08:25:31  5-MIN KSTC 091425Z 04007KT 10SM CLR 14/08 A2959 1340 69 1600 040/07 RMK AO2 T01390083 $
14926KSTC STC20170409083010604/09/17 08:30:31  5-MIN KSTC 091430Z 07005KT 10SM CLR 14/08 A2959 1340 69 1600 070/05 RMK AO2 T01390083 $
14926KSTC STC20170409083510604/09/17 08:35:31  5-MIN KSTC 091435Z 10006KT 10SM CLR 14/08 A2959 1340 69 1600 100/06 RMK AO2 T01390083 $
14926KSTC STC20170409084010604/09/17 08:40:31  5-MIN KSTC 091440Z 10007KT 10SM CLR 14/08 A2959 1340 66 1600 100/07 RMK AO2 T01440083 $
14926KSTC STC20170409084510604/09/17 08:45:31  5-MIN KSTC 091445Z 09007KT 10SM CLR 14/08 A2959 1330 66 1600 090/07 RMK AO2 T01440083 $
14926KSTC STC20170409085011904/09/17 08:50:31  5-MIN KSTC 091450Z 09005KT 10SM CLR 15/08 A2960 1330 64 1700 090/05 RMK AO2 SLP031 T01500083 53014 $
14926KSTC STC20170409085510604/09/17 08:55:31  5-MIN KSTC 091455Z 10006KT 10SM CLR 15/08 A2960 1320 64 1700 090/06 RMK AO2 T01500083 $
14926KSTC STC20170409090010604/09/17 09:00:31  5-MIN KSTC 091500Z 11006KT 10SM CLR 15/08 A2960 1320 64 1700 110/06 RMK AO2 T01500083 $
14926KSTC STC20170409090510604/09/17 09:05:31  5-MIN KSTC 091505Z 11005KT 10SM CLR 15/08 A2960 1320 64 1700 110/05 RMK AO2 T01500083 $
14926KSTC STC20170409091010604/09/17 09:10:31  5-MIN KSTC 091510Z 09007KT 10SM CLR 15/08 A2960 1320 64 1700 090/07 RMK AO2 T01500083 $
14926KSTC STC20170409091510604/09/17 09:15:31  5-MIN KSTC 091515Z VRB05KT 10SM CLR 16/08 A2961 1320 62 1700 VRB/05 RMK AO2 T01560083 $
14926KSTC STC20170409092010604/09/17 09:20:31  5-MIN KSTC 091520Z 04005KT 10SM CLR 16/08 A2961 1320 62 1700 040/05 RMK AO2 T01560083 $
14926KSTC STC20170409092510604/09/17 09:25:31  5-MIN KSTC 091525Z 06005KT 10SM CLR 16/08 A2960 1320 59 1800 050/05 RMK AO2 T01610083 $
14926KSTC STC20170409093010604/09/17 09:30:31  5-MIN KSTC 091530Z 07006KT 10SM CLR 16/08 A2960 1320 59 1800 060/06 RMK AO2 T01610083 $
14926KSTC STC20170409093510604/09/17 09:35:31  5-MIN KSTC 091535Z 06007KT 10SM CLR 16/08 A2960 1320 59 1800 060/07 RMK AO2 T01610083 $
14926KSTC STC20170409094010604/09/17 09:40:31  5-MIN KSTC 091540Z 07007KT 10SM CLR 16/08 A2960 1320 62 1700 070/07 RMK AO2 T01560083 $
14926KSTC STC20170409094510604/09/17 09:45:31  5-MIN KSTC 091545Z 07009KT 10SM CLR 16/08 A2961 1320 62 1700 060/09 RMK AO2 T01560083 $
14926KSTC STC20170409095011304/09/17 09:50:31  5-MIN KSTC 091550Z 08008KT 10SM CLR 16/08 A2961 1320 62 1700 080/08 RMK AO2 SLP033 T01560083 $
14926KSTC STC20170409095510904/09/17 09:55:31  5-MIN KSTC 091555Z 07009KT 10SM FEW095 16/08 A2961 1320 62 1700 070/09 RMK AO2 T01560083 $
14926KSTC STC20170409100011604/09/17 10:00:31  5-MIN KSTC 091600Z 07006KT 10SM SCT095 SCT120 16/08 A2960 1320 62 1700 060/06 RMK AO2 T01560083 $
14926KSTC STC20170409100511604/09/17 10:05:31  5-MIN KSTC 091605Z 07008KT 10SM FEW095 SCT120 16/08 A2960 1330 62 1700 070/08 RMK AO2 T01560083 $
14926KSTC STC20170409101011604/09/17 10:10:31  5-MIN KSTC 091610Z 08008KT 10SM FEW095 SCT120 16/08 A2960 1330 59 1800 080/08 RMK AO2 T01610083 $
14926KSTC STC20170409101511604/09/17 10:15:31  5-MIN KSTC 091615Z 07007KT 10SM SCT100 SCT120 16/08 A2960 1320 59 1800 070/07 RMK AO2 T01610083 $
14926KSTC STC20170409102011604/09/17 10:20:31  5-MIN KSTC 091620Z 07007KT 10SM SCT100 BKN120 16/08 A2960 1320 59 1800 070/07 RMK AO2 T01610083 $
14926KSTC STC20170409102510904/09/17 10:25:31  5-MIN KSTC 091625Z 08008KT 10SM BKN110 16/08 A2960 1320 59 1800 080/08 RMK AO2 T01610083 $
14926KSTC STC20170409103010904/09/17 10:30:31  5-MIN KSTC 091630Z 09009KT 10SM BKN110 17/08 A2960 1320 57 1900 090/09 RMK AO2 T01670083 $
14926KSTC STC20170409103510904/09/17 10:35:31  5-MIN KSTC 091635Z 09008KT 10SM BKN110 17/08 A2961 1320 57 1900 090/08 RMK AO2 T01670083 $
14926KSTC STC20170409104010904/09/17 10:40:31  5-MIN KSTC 091640Z 07006KT 10SM OVC110 16/08 A2961 1310 59 1800 070/06 RMK AO2 T01610083 $
14926KSTC STC20170409104510904/09/17 10:45:31  5-MIN KSTC 091645Z 08007KT 10SM OVC110 17/08 A2961 1310 57 1900 080/07 RMK AO2 T01670083 $
14926KSTC STC20170409105011604/09/17 10:50:31  5-MIN KSTC 091650Z 08006KT 10SM OVC110 17/08 A2962 1310 57 1800 080/06 RMK AO2 SLP036 T01670083 $
14926KSTC STC20170409105510904/09/17 10:55:31  5-MIN KSTC 091655Z VRB05KT 10SM OVC110 17/08 A2962 1300 57 1800 VRB/05 RMK AO2 T01670083 $
14926KSTC STC20170409110010904/09/17 11:00:31  5-MIN KSTC 091700Z VRB03KT 10SM OVC110 16/08 A2963 1300 57 1800 VRB/03 RMK AO2 T01610078 $
14926KSTC STC20170409110510904/09/17 11:05:31  5-MIN KSTC 091705Z 05006KT 10SM OVC110 17/08 A2962 1300 57 1800 050/06 RMK AO2 T01670083 $
14926KSTC STC20170409111010904/09/17 11:10:31  5-MIN KSTC 091710Z 01006KT 10SM OVC110 17/08 A2963 1300 57 1800 010/06 RMK AO2 T01670083 $
14926KSTC STC20170409111510904/09/17 11:15:31  5-MIN KSTC 091715Z 01007KT 10SM OVC110 17/08 A2963 1300 55 1800 010/07 RMK AO2 T01670078 $
14926KSTC STC20170409112010904/09/17 11:20:31  5-MIN KSTC 091720Z 04008KT 10SM OVC110 17/08 A2963 1300 55 1800 040/08 RMK AO2 T01670078 $
14926KSTC STC20170409112510904/09/17 11:25:31  5-MIN KSTC 091725Z 03007KT 10SM OVC110 17/08 A2963 1300 55 1800 030/07 RMK AO2 T01670078 $
14926KSTC STC20170409113010904/09/17 11:30:31  5-MIN KSTC 091730Z 03007KT 10SM OVC100 17/07 A2963 1300 53 1800 030/07 RMK AO2 T01670072 $
14926KSTC STC20170409113510904/09/17 11:35:31  5-MIN KSTC 091735Z 03008KT 10SM OVC100 17/07 A2962 1300 53 1800 030/08 RMK AO2 T01670072 $
14926KSTC STC20170409114010904/09/17 11:40:31  5-MIN KSTC 091740Z 02009KT 10SM OVC100 16/07 A2963 1300 55 1800 020/09 RMK AO2 T01610072 $
14926KSTC STC20170409114510904/09/17 11:45:31  5-MIN KSTC 091745Z 04009KT 10SM OVC100 16/07 A2963 1300 55 1800 030/09 RMK AO2 T01610072 $
14926KSTC STC20170409115013404/09/17 11:50:31  5-MIN KSTC 091750Z 04009KT 10SM OVC100 16/07 A2963 1300 55 1800 040/09 RMK AO2 SLP041 T01610072 10167 20100 58002 $
14926KSTC STC20170409115510904/09/17 11:55:31  5-MIN KSTC 091755Z 04009KT 10SM OVC100 16/07 A2963 1300 55 1800 040/09 RMK AO2 T01610072 $
14926KSTC STC20170409120010904/09/17 12:00:31  5-MIN KSTC 091800Z 03007KT 10SM OVC100 16/07 A2963 1300 55 1800 030/07 RMK AO2 T01610072 $
14926KSTC STC20170409120510904/09/17 12:05:31  5-MIN KSTC 091805Z 03007KT 10SM OVC100 16/07 A2963 1300 55 1800 030/07 RMK AO2 T01610072 $
14926KSTC STC20170409121010904/09/17 12:10:31  5-MIN KSTC 091810Z 02006KT 10SM OVC100 16/07 A2963 1300 55 1800 020/06 RMK AO2 T01610072 $
14926KSTC STC20170409121510904/09/17 12:15:31  5-MIN KSTC 091815Z 01008KT 10SM OVC100 16/07 A2963 1300 55 1800 010/08 RMK AO2 T01610072 $
14926KSTC STC20170409122010904/09/17 12:20:31  5-MIN KSTC 091820Z 01009KT 10SM OVC100 16/07 A2963 1300 55 1800 010/09 RMK AO2 T01610072 $
14926KSTC STC20170409122512504/09/17 12:25:31  5-MIN KSTC 091825Z 02008KT 10SM -RA OVC100 16/08 A2963 1300 57 1800 020/08 RMK AO2 RAB21 P0000 T01610078 $
14926KSTC STC20170409123013104/09/17 12:30:31  5-MIN KSTC 091830Z 03009KT 10SM FEW049 OVC100 16/07 A2962 1300 55 1800 030/09 RMK AO2 RAB21E30 P0000 T01610072 $
14926KSTC STC20170409123513804/09/17 12:35:31  5-MIN KSTC 091835Z 03009KT 10SM FEW036 FEW049 OVC100 16/07 A2962 1310 55 1800 030/09 RMK AO2 RAB21E30 P0000 T01610072 $
14926KSTC STC20170409124012404/09/17 12:40:31  5-MIN KSTC 091840Z 02010KT 10SM OVC100 16/07 A2961 1310 55 1800 020/10 RMK AO2 RAB21E30 P0000 T01610072 $
14926KSTC STC20170409124512404/09/17 12:45:31  5-MIN KSTC 091845Z 03008KT 10SM OVC100 17/07 A2961 1310 53 1900 030/08 RMK AO2 RAB21E30 P0000 T01670072 $
14926KSTC STC20170409125013104/09/17 12:50:31  5-MIN KSTC 091850Z 03008KT 10SM OVC100 17/07 A2961 1320 53 1900 030/08 RMK AO2 RAB21E30 SLP035 P0000 T01670072 $
14926KSTC STC20170409125510904/09/17 12:55:31  5-MIN KSTC 091855Z 01011KT 10SM OVC100 17/07 A2961 1320 53 1900 010/11 RMK AO2 T01670072 $
14926KSTC STC20170409130010904/09/17 13:00:31  5-MIN KSTC 091900Z 01012KT 10SM OVC100 16/08 A2960 1320 57 1800 010/12 RMK AO2 T01610078 $
14926KSTC STC20170409130510904/09/17 13:05:31  5-MIN KSTC 091905Z 01013KT 10SM OVC100 16/08 A2960 1330 57 1800 010/13 RMK AO2 T01610078 $
14926KSTC STC20170409131010904/09/17 13:10:31  5-MIN KSTC 091910Z 01011KT 10SM OVC100 17/08 A2959 1330 55 1900 010/11 RMK AO2 T01670078 $
14926KSTC STC20170409131510904/09/17 13:15:31  5-MIN KSTC 091915Z 02010KT 10SM OVC100 17/08 A2959 1330 55 1900 020/10 RMK AO2 T01670078 $
14926KSTC STC20170409132011504/09/17 13:20:31  5-MIN KSTC 091920Z 01011G17KT 10SM OVC100 17/08 A2959 1330 55 1900 010/11G17 RMK AO2 T01670078 $
14926KSTC STC20170409132511504/09/17 13:25:31  5-MIN KSTC 091925Z 01010G17KT 10SM OVC100 17/08 A2959 1330 55 1900 010/10G17 RMK AO2 T01670078 $
14926KSTC STC20170409133011504/09/17 13:30:31  5-MIN KSTC 091930Z 01012G18KT 10SM OVC100 16/08 A2960 1330 57 1800 010/12G18 RMK AO2 T01610078 $
14926KSTC STC20170409133511504/09/17 13:35:31  5-MIN KSTC 091935Z 01012G18KT 10SM OVC100 16/08 A2959 1330 57 1800 010/12G18 RMK AO2 T01610078 $
14926KSTC STC20170409134010904/09/17 13:40:31  5-MIN KSTC 091940Z 01010KT 10SM OVC100 16/08 A2959 1330 57 1800 010/10 RMK AO2 T01610078 $
14926KSTC STC20170409134510904/09/17 13:45:31  5-MIN KSTC 091945Z 01013KT 10SM OVC100 17/07 A2959 1330 53 1900 010/13 RMK AO2 T01670072 $
14926KSTC STC20170409135011604/09/17 13:50:31  5-MIN KSTC 091950Z 01013KT 10SM OVC100 17/07 A2959 1330 53 1900 010/13 RMK AO2 SLP030 T01670072 $
14926KSTC STC20170409135510904/09/17 13:55:31  5-MIN KSTC 091955Z 02012KT 10SM OVC100 17/07 A2959 1330 53 1900 020/12 RMK AO2 T01670072 $
14926KSTC STC20170409140011504/09/17 14:00:31  5-MIN KSTC 092000Z 02012G19KT 10SM OVC100 17/07 A2958 1340 53 1900 020/12G19 RMK AO2 T01670072 $
14926KSTC STC20170409140511504/09/17 14:05:31  5-MIN KSTC 092005Z 01014G19KT 10SM OVC100 17/07 A2958 1340 51 2000 010/14G19 RMK AO2 T01720072 $
14926KSTC STC20170409141011504/09/17 14:10:31  5-MIN KSTC 092010Z 01015G21KT 10SM OVC100 17/07 A2958 1340 53 1900 010/15G21 RMK AO2 T01670072 $
14926KSTC STC20170409141511504/09/17 14:15:31  5-MIN KSTC 092015Z 01014G21KT 10SM OVC100 16/07 A2958 1340 55 1800 010/14G21 RMK AO2 T01610072 $
14926KSTC STC20170409142011504/09/17 14:20:31  5-MIN KSTC 092020Z 36017G22KT 10SM OVC100 16/07 A2958 1340 55 1800 360/17G22 RMK AO2 T01610072 $
14926KSTC STC20170409142511504/09/17 14:25:31  5-MIN KSTC 092025Z 01014G22KT 10SM OVC100 16/07 A2958 1340 55 1800 010/14G22 RMK AO2 T01610072 $
14926KSTC STC20170409143011504/09/17 14:30:31  5-MIN KSTC 092030Z 02013G19KT 10SM OVC100 16/07 A2958 1340 55 1800 010/13G19 RMK AO2 T01610072 $
14926KSTC STC20170409143511504/09/17 14:35:31  5-MIN KSTC 092035Z 01015G21KT 10SM OVC100 16/07 A2957 1350 55 1800 010/15G21 RMK AO2 T01610072 $
14926KSTC STC20170409144012604/09/17 14:40:31  5-MIN KSTC 092040Z 36016G22KT 10SM OVC100 16/07 A2957 1350 57 1800 360/16G22 RMK AO2 LTG DSNT S T01560072 $
14926KSTC STC20170409144512604/09/17 14:45:31  5-MIN KSTC 092045Z 01014G22KT 10SM OVC100 16/08 A2957 1360 59 1800 010/14G22 RMK AO2 LTG DSNT S T01560078 $
14926KSTC STC20170409145014504/09/17 14:50:31  5-MIN KSTC 092050Z 01012G21KT 10SM OVC095 15/08 A2957 1350 62 1700 010/12G21 RMK AO2 LTG DSNT S SLP023 60000 T01500078 51009 $
14926KSTC STC20170409145511504/09/17 14:55:31  5-MIN KSTC 092055Z 02014G20KT 10SM OVC095 15/07 A2958 1340 59 1700 020/14G20 RMK AO2 T01500072 $
14926KSTC STC20170409150012204/09/17 15:00:31  5-MIN KSTC 092100Z 02010G18KT 10SM FEW055 OVC095 15/07 A2958 1350 59 1700 020/10G18 RMK AO2 T01500072 $
14926KSTC STC20170409150513804/09/17 15:05:31  5-MIN KSTC 092105Z 02015G19KT 10SM -RA FEW050 OVC095 14/07 A2957 1360 61 1600 010/15G19 RMK AO2 RAB05 P0000 T01440072 $
14926KSTC STC20170409151014904/09/17 15:10:31  5-MIN KSTC 092110Z 02013G19KT 10SM -RA FEW050 OVC090 14/07 A2956 1360 61 1700 020/13G19 RMK AO2 LTG DSNT S RAB05 P0000 T01440072 $
14926KSTC STC20170409151514904/09/17 15:15:31  5-MIN KSTC 092115Z 01014G20KT 10SM -RA FEW050 OVC090 14/07 A2956 1360 61 1700 010/14G20 RMK AO2 LTG DSNT S RAB05 P0000 T01440072 $
14926KSTC STC20170409152014904/09/17 15:20:31  5-MIN KSTC 092120Z 01012G20KT 10SM -RA FEW050 OVC090 14/07 A2955 1370 61 1700 010/12G20 RMK AO2 LTG DSNT S RAB05 P0000 T01440072 $
14926KSTC STC20170409152513804/09/17 15:25:31  5-MIN KSTC 092125Z 02013G21KT 10SM -RA FEW050 OVC090 14/07 A2955 1370 61 1700 020/13G21 RMK AO2 RAB05 P0000 T01440072 $
14926KSTC STC20170409153013104/09/17 15:30:31  5-MIN KSTC 092130Z 01016G22KT 10SM -RA OVC090 14/07 A2955 1370 61 1600 010/16G22 RMK AO2 RAB05 P0000 T01390067 $
14926KSTC STC20170409153513704/09/17 15:35:31  5-MIN KSTC 092135Z 36014G22KT 10SM FEW080 OVC095 14/07 A2956 1360 61 1600 360/14G22 RMK AO2 RAB05E32 P0000 T01390067 $
14926KSTC STC20170409154013004/09/17 15:40:31  5-MIN KSTC 092140Z 36014G20KT 10SM OVC090 14/06 A2956 1360 59 1600 360/14G20 RMK AO2 RAB05E32 P0000 T01390061 $
14926KSTC STC20170409154513004/09/17 15:45:31  5-MIN KSTC 092145Z 01015G21KT 10SM OVC085 14/06 A2956 1360 59 1600 010/15G21 RMK AO2 RAB05E32 P0000 T01390061 $
14926KSTC STC20170409155014404/09/17 15:50:31  5-MIN KSTC 092150Z 36016G21KT 10SM -RA OVC090 14/07 A2955 1370 61 1600 360/16G21 RMK AO2 RAB05E32B49 SLP016 P0000 T01390067 $
14926KSTC STC20170409155512504/09/17 15:55:31  5-MIN KSTC 092155Z 36017G25KT 10SM -RA OVC090 14/06 A2955 1370 59 1600 360/17G25 RMK AO2 P0000 T01390061 $
14926KSTC STC20170409160013604/09/17 16:00:31  5-MIN KSTC 092200Z 36015G25KT 10SM SCT080 OVC090 13/07 A2956 1360 64 1500 360/15G25 RMK AO2 RAE2158 P0000 T01330067 $
14926KSTC STC20170409160514304/09/17 16:05:31  5-MIN KSTC 092205Z 36014G22KT 10SM FEW060 BKN080 OVC090 14/06 A2956 1360 59 1600 350/14G22 RMK AO2 RAE2158 P0000 T01390061 $
14926KSTC STC20170409161015404/09/17 16:10:31  5-MIN KSTC 092210Z 36016G21KT 10SM SCT055 BKN075 OVC090 13/06 A2956 1370 61 1500 360/16G21 RMK AO2 LTG DSNT E RAE2158 P0000 T01330061 $
14926KSTC STC20170409161515004/09/17 16:15:31  5-MIN KSTC 092215Z 36012G21KT 10SM -RA SCT055 BKN070 OVC090 13/07 A2957 1350 64 1500 360/12G21 RMK AO2 LTG DSNT E P0000 T01330067 $
14926KSTC STC20170409162015004/09/17 16:20:31  5-MIN KSTC 092220Z 36012G19KT 10SM -RA SCT055 BKN070 OVC090 13/07 A2958 1340 66 1400 360/12G19 RMK AO2 LTG DSNT E P0000 T01280067 $
14926KSTC STC20170409162513804/09/17 16:25:31  5-MIN KSTC 092225Z 36007G18KT 8SM -RA SCT055 OVC070 12/07 A2960 1330 68 1300 350/07G18 RMK AO2 PRESRR P0000 T01220067 $
14926KSTC STC20170409163014504/09/17 16:30:31  5-MIN KSTC 092230Z VRB03G17KT 8SM -RA FEW055 BKN070 OVC090 12/07 A2963 1300 74 1200 VRB/03G17 RMK AO2 PRESRR P0001 T01170072 $
14926KSTC STC20170409163514004/09/17 16:35:31  5-MIN KSTC 092235Z 17006KT 10SM -RA FEW055 BKN075 OVC090 12/07 A2964 1280 71 1300 170/06 RMK AO2 PRESRR P0002 T01220072 $
14926KSTC STC20170409164012604/09/17 16:40:31  5-MIN KSTC 092240Z VRB04KT 10SM -RA FEW065 OVC080 12/07 A2963 1290 71 1300 VRB/04 RMK AO2 P0002 T01220072 $
14926KSTC STC20170409164512804/09/17 16:45:31  5-MIN KSTC 092245Z 04006KT 10SM BKN070 OVC085 13/07 A2963 1300 66 1400 040/06 RMK AO2 RAE42 P0002 T01280067 $
14926KSTC STC20170409165014404/09/17 16:50:31  5-MIN KSTC 092250Z 02006KT 10SM -RA BKN075 OVC090 13/07 A2964 1290 66 1400 020/06 RMK AO2 LTG DSNT S SLP046 P0002 T01280067 $
14926KSTC STC20170409165516704/09/17 16:55:31  5-MIN KSTC 092255Z 03008KT 350V050 10SM -RA BKN070 OVC090 12/07 A2962 1310 68 1300 030/08 350V050 RMK AO2 LTG DSNT SE AND S PRESFR P0000 T01220067 $
14926KSTC STC20170409170015804/09/17 17:00:31  5-MIN KSTC 092300Z 04011KT 10SM -RA FEW060 BKN075 OVC085 12/07 A2961 1320 68 1300 040/11 RMK AO2 LTG DSNT SE AND S PRESFR P0000 T01220067 $
14926KSTC STC20170409170513804/09/17 17:05:31  5-MIN KSTC 092305Z 03008KT 10SM -RA SCT050 OVC075 12/07 A2961 1320 71 1300 030/08 RMK AO2 LTG DSNT SE P0000 T01220072 $
14926KSTC STC20170409171014504/09/17 17:10:31  5-MIN KSTC 092310Z 02007KT 10SM -RA SCT049 BKN075 OVC095 12/07 A2961 1310 74 1300 020/07 RMK AO2 LTG DSNT SE P0000 T01170072 $
14926KSTC STC20170409171513304/09/17 17:15:31  5-MIN KSTC 092315Z 02008KT 10SM -RA FEW055 BKN070 OVC090 12/07 A2961 1310 74 1300 020/08 RMK AO2 P0000 T01170072 $
14926KSTC STC20170409172014704/09/17 17:20:31  5-MIN KSTC 092320Z 02008KT 10SM FEW055 SCT075 OVC090 12/07 A2961 1310 74 1300 020/08 RMK AO2 LTG DSNT SE RAE17 P0000 T01170072 $
14926KSTC STC20170409172515404/09/17 17:25:31  5-MIN KSTC 092325Z 01008KT 10SM FEW050 SCT075 OVC090 12/07 A2961 1310 74 1300 010/08 RMK AO2 LTG DSNT SE AND SW RAE17 P0000 T01170072 $
14926KSTC STC20170409173015204/09/17 17:30:31  5-MIN KSTC 092330Z 01009KT 10SM -RA FEW060 BKN080 OVC090 12/07 A2961 1320 74 1300 010/09 RMK AO2 LTG DSNT SE AND SW P0000 T01170072 $
14926KSTC STC20170409173513804/09/17 17:35:31  5-MIN KSTC 092335Z 01010KT 10SM -RA BKN080 OVC090 12/07 A2961 1320 74 1300 010/10 RMK AO2 LTG DSNT SW P0000 T01170072 $
14926KSTC STC20170409174013804/09/17 17:40:31  5-MIN KSTC 092340Z 01011KT 10SM -RA SCT080 OVC090 12/07 A2960 1320 74 1300 010/11 RMK AO2 LTG DSNT SW P0000 T01170072 $
14926KSTC STC20170409174514404/09/17 17:45:31  5-MIN KSTC 092345Z 01011G18KT 10SM -RA FEW070 OVC090 11/07 A2960 1320 77 1200 010/11G18 RMK AO2 LTG DSNT SW P0000 T01110072 $
14926KSTC STC20170409175018104/09/17 17:50:31  5-MIN KSTC 092350Z 01011G19KT 10SM -RA SCT075 OVC090 11/07 A2960 1330 77 1200 010/11G19 RMK AO2 LTG DSNT S AND SW SLP033 P0000 60002 T01110072 10172 20111 56017 $
14926KSTC STC20170409175514004/09/17 17:55:31  5-MIN KSTC 092355Z 01012G19KT 10SM FEW080 BKN090 11/07 A2959 1340 77 1200 010/12G19 RMK AO2 LTG DSNT S AND SW T01110072 $
14926KSTC STC20170409180014104/09/17 18:00:31  5-MIN KSTC 100000Z 01011KT 10SM FEW075 BKN095 OVC120 11/07 A2960 1330 77 1200 360/11 RMK AO2 LTG DSNT S AND SW T01110072 $
14926KSTC STC20170409180513304/09/17 18:05:31  5-MIN KSTC 100005Z 36010G17KT 10SM BKN090 OVC120 11/07 A2960 1320 80 1100 360/10G17 RMK AO2 LTG DSNT S T01060072 $
14926KSTC STC20170409181015204/09/17 18:10:31  5-MIN KSTC 100010Z 36008G15KT 10SM VCTS BKN090 OVC110 11/07 A2962 1310 77 1200 360/08G15 RMK AO2 LTG DSNT SE AND S PRESRR T01110072 $
14926KSTC STC20170409181516804/09/17 18:15:31  5-MIN KSTC 100015Z 34007G15KT 10SM VCTS -RA BKN085 OVC110 11/07 A2963 1290 80 1100 340/07G15 RMK AO2 LTG DSNT SE AND S RAB15 PRESRR P0000 T01060072 $
14926KSTC STC20170409182016804/09/17 18:20:31  5-MIN KSTC 100020Z 32005KT 9SM VCTS -RA BKN075 BKN085 OVC110 11/07 A2965 1280 80 1100 320/05 RMK AO2 LTG DSNT SE AND S RAB15 PRESRR P0000 T01060072 $
14926KSTC STC20170409182516004/09/17 18:25:31  5-MIN KSTC 100025Z 36009KT 7SM VCTS RA FEW060 BKN075 OVC085 11/07 A2964 1290 80 1100 360/09 RMK AO2 LTG DSNT SE AND S RAB15 P0001 T01060072 $
14926KSTC STC20170409183015504/09/17 18:30:31  5-MIN KSTC 100030Z 01008KT 8SM VCTS -RA SCT060 BKN075 OVC090 11/07 A2963 1290 80 1100 010/08 RMK AO2 LTG DSNT SE RAB15 P0001 T01060072 $
14926KSTC STC20170409183514404/09/17 18:35:31  5-MIN KSTC 100035Z 01007KT 10SM -RA SCT060 OVC080 10/07 A2964 1290 83 1000 010/07 RMK AO2 LTG DSNT SE RAB15 P0001 T01000072 $
14926KSTC STC20170409184014404/09/17 18:40:31  5-MIN KSTC 100040Z 36007KT 10SM -RA BKN060 OVC075 10/07 A2964 1290 83 1000 360/07 RMK AO2 LTG DSNT SE RAB15 P0001 T01000072 $
14926KSTC STC20170409184514604/09/17 18:45:31  5-MIN KSTC 100045Z 35007KT 10SM -RA BKN060 BKN075 10/07 A2963 1300 83 1000 350/07 RMK AO2 LTG DSNT E-SW RAB15 P0001 T01000072 $
14926KSTC STC20170409185015204/09/17 18:50:31  5-MIN KSTC 100050Z 01006KT 10SM SCT055 BKN075 10/07 A2963 1290 83 1000 360/06 RMK AO2 LTG DSNT E-SW RAB15E48 SLP046 P0001 T01000072 $
14926KSTC STC20170409185513404/09/17 18:55:31  5-MIN KSTC 100055Z 02006KT 10SM SCT055 SCT070 10/07 A2964 1280 83 1000 020/06 RMK AO2 LTG DSNT E AND SW T01000072 $
14926KSTC STC20170409190013404/09/17 19:00:31  5-MIN KSTC 100100Z 36006KT 10SM FEW055 SCT070 BKN120 10/07 A2965 1280 80 1000 360/06 RMK AO2 LTG DSNT E T01000067 $
14926KSTC STC20170409190512704/09/17 19:05:31  5-MIN KSTC 100105Z 36009KT 10SM FEW055 BKN110 10/07 A2965 1280 83 1000 360/09 RMK AO2 LTG DSNT E T01000072 $
14926KSTC STC20170409191012004/09/17 19:10:31  5-MIN KSTC 100110Z 36010KT 10SM BKN110 11/07 A2965 1280 77 1100 360/10 RMK AO2 LTG DSNT E T01060067 $
14926KSTC STC20170409191512304/09/17 19:15:31  5-MIN KSTC 100115Z 36011KT 10SM FEW075 BKN095 BKN120 11/07 A2964 1290 77 1100 360/11 RMK AO2 T01060067 $
14926KSTC STC20170409192012204/09/17 19:20:31  5-MIN KSTC 100120Z 36012G17KT 10SM BKN090 BKN110 11/07 A2964 1290 77 1100 360/12G17 RMK AO2 T01060067 $
14926KSTC STC20170409192511604/09/17 19:25:31  5-MIN KSTC 100125Z 36012KT 10SM BKN090 OVC110 11/07 A2964 1280 77 1100 350/12 RMK AO2 T01060067 $
14926KSTC STC20170409193014504/09/17 19:30:31  5-MIN KSTC 100130Z 35012G19KT 10SM -RA FEW075 BKN090 OVC110 11/07 A2964 1280 77 1100 350/12G19 RMK AO2 RAB29 P0000 T01060067 $
14926KSTC STC20170409193513804/09/17 19:35:31  5-MIN KSTC 100135Z 36012G19KT 10SM -RA FEW060 OVC090 10/06 A2964 1280 77 1000 360/12G19 RMK AO2 RAB29 P0000 T01000061 $
14926KSTC STC20170409194014404/09/17 19:40:31  5-MIN KSTC 100140Z 01013G20KT 10SM SCT060 BKN085 OVC100 10/06 A2964 1290 77 1000 010/13G20 RMK AO2 RAB29E40 P0000 T01000061 $
14926KSTC STC20170409194514404/09/17 19:45:31  5-MIN KSTC 100145Z 01014G21KT 10SM FEW060 BKN090 OVC100 11/06 A2965 1270 74 1100 010/14G21 RMK AO2 RAB29E40 P0000 T01060061 $
14926KSTC STC20170409195015204/09/17 19:50:31  5-MIN KSTC 100150Z 01014G21KT 10SM -RA FEW060 BKN080 OVC095 11/06 A2966 1260 74 1100 010/14G21 RMK AO2 RAB29 SLP055 P0000 T01060061 $
14926KSTC STC20170409195513904/09/17 19:55:31  5-MIN KSTC 100155Z 01013G21KT 10SM -RA FEW060 BKN080 OVC095 11/06 A2966 1270 74 1100 010/13G21 RMK AO2 P0000 T01060061 $
14926KSTC STC20170409200013004/09/17 20:00:31  5-MIN KSTC 100200Z 01014G22KT 7SM RA SCT060 OVC080 10/06 A2967 1260 77 1000 010/14G22 RMK AO2 P0001 T01000061 $
14926KSTC STC20170409200513004/09/17 20:05:31  5-MIN KSTC 100205Z 01017G22KT 6SM RA SCT060 OVC080 10/06 A2967 1260 77 1000 010/17G22 RMK AO2 P0003 T01000061 $
14926KSTC STC20170409201013104/09/17 20:10:31  5-MIN KSTC 100210Z 36015G22KT 9SM -RA BKN060 OVC080 10/06 A2968 1250 77 1000 360/15G22 RMK AO2 P0003 T01000061 $
14926KSTC STC20170409201513104/09/17 20:15:31  5-MIN KSTC 100215Z 01014G22KT 10SM -RA BKN060 OVC075 09/06 A2968 1250 79 900 010/14G22 RMK AO2 P0003 T00940061 $
14926KSTC STC20170409202013404/09/17 20:20:31  5-MIN KSTC 100220Z 01014G22KT 10SM BKN060 OVC075 10/06 A2968 1250 77 1000 010/14G22 RMK AO2 RAE18 P0003 T01000061 $
14926KSTC STC20170409202513404/09/17 20:25:31  5-MIN KSTC 100225Z 02012G23KT 10SM BKN060 OVC075 10/06 A2968 1250 77 1000 020/12G23 RMK AO2 RAE18 P0003 T01000061 $
14926KSTC STC20170409203013404/09/17 20:30:31  5-MIN KSTC 100230Z 01014G23KT 10SM BKN055 OVC075 10/06 A2969 1240 77 1000 010/14G23 RMK AO2 RAE18 P0003 T01000061 $
14926KSTC STC20170409203513404/09/17 20:35:31  5-MIN KSTC 100235Z 02010G21KT 10SM BKN055 OVC070 10/06 A2968 1250 77 1000 020/10G21 RMK AO2 RAE18 P0003 T01000061 $
14926KSTC STC20170409204013404/09/17 20:40:31  5-MIN KSTC 100240Z 02011G19KT 10SM SCT055 OVC070 10/06 A2969 1240 77 1000 010/11G19 RMK AO2 RAE18 P0003 T01000061 $
14926KSTC STC20170409204513404/09/17 20:45:31  5-MIN KSTC 100245Z 01014G20KT 10SM FEW055 OVC070 10/06 A2969 1240 77 1000 010/14G20 RMK AO2 RAE18 P0003 T01000061 $
14926KSTC STC20170409205015304/09/17 20:50:31  5-MIN KSTC 100250Z 01013G20KT 10SM FEW055 OVC070 10/06 A2968 1250 77 1000 010/13G20 RMK AO2 RAE18 SLP059 P0003 60004 T01000061 50005 $
14926KSTC STC20170409205513804/09/17 20:55:31  5-MIN KSTC 100255Z 02015G20KT 10SM -RA FEW055 OVC070 10/06 A2967 1260 77 1000 010/15G20 RMK AO2 RAB54 P0000 T01000061 $
14926KSTC STC20170409210013304/09/17 21:00:31  5-MIN KSTC 100300Z 01014G21KT 10SM -RA OVC070 10/06 A2968 1250 77 1000 010/14G21 RMK AO2 RAB0254 P0000 T01000061 $
14926KSTC STC20170409210513304/09/17 21:05:31  5-MIN KSTC 100305Z 01013G21KT 10SM -RA OVC065 10/06 A2968 1250 77 1000 010/13G21 RMK AO2 RAB0254 P0000 T01000061 $
14926KSTC STC20170409211013304/09/17 21:10:31  5-MIN KSTC 100310Z 02013G20KT 10SM -RA OVC065 10/06 A2967 1260 77 1000 020/13G20 RMK AO2 RAB0254 P0000 T01000061 $
14926KSTC STC20170409211513204/09/17 21:15:31  5-MIN KSTC 100315Z 02013G20KT 10SM OVC065 10/06 A2967 1250 74 1000 020/13G20 RMK AO2 RAB0254E12 P0000 T01000056 $
14926KSTC STC20170409212013204/09/17 21:20:31  5-MIN KSTC 100320Z 01013G20KT 10SM OVC065 10/06 A2968 1250 74 1000 010/13G20 RMK AO2 RAB0254E12 P0000 T01000056 $
14926KSTC STC20170409212513204/09/17 21:25:31  5-MIN KSTC 100325Z 01012G20KT 10SM OVC065 10/06 A2968 1250 74 1000 010/12G20 RMK AO2 RAB0254E12 P0000 T01000056 $
14926KSTC STC20170409213013204/09/17 21:30:31  5-MIN KSTC 100330Z 01014G22KT 10SM OVC060 10/06 A2968 1250 74 1000 010/14G22 RMK AO2 RAB0254E12 P0000 T01000056 $
14926KSTC STC20170409213513204/09/17 21:35:31  5-MIN KSTC 100335Z 01013G22KT 10SM OVC060 10/06 A2968 1250 74 1000 010/13G22 RMK AO2 RAB0254E12 P0000 T01000056 $
14926KSTC STC20170409214012604/09/17 21:40:31  5-MIN KSTC 100340Z 36012KT 10SM OVC060 10/06 A2967 1260 74 1000 360/12 RMK AO2 RAB0254E12 P0000 T01000056 $
14926KSTC STC20170409214513204/09/17 21:45:31  5-MIN KSTC 100345Z 35010G18KT 10SM OVC060 10/06 A2968 1250 77 1000 350/10G18 RMK AO2 RAB0254E12 P0000 T01000061 $
14926KSTC STC20170409215013204/09/17 21:50:31  5-MIN KSTC 100350Z 34011KT 10SM OVC060 09/06 A2968 1250 79 900 340/11 RMK AO2 RAB0254E12 SLP059 P0000 T00940061 $
14926KSTC STC20170409215510804/09/17 21:55:31  5-MIN KSTC 100355Z 35013KT 10SM OVC060 09/06 A2968 1250 79 900 350/13 RMK AO2 T00940061 $
14926KSTC STC20170409220010804/09/17 22:00:31  5-MIN KSTC 100400Z 35013KT 10SM OVC060 09/06 A2969 1240 79 900 350/13 RMK AO2 T00940061 $
14926KSTC STC20170409220511304/09/17 22:05:31  5-MIN KSTC 100405Z AUTO 35013KT 10SM OVC060 09/06 A2969 1240 83 800 350/13 RMK AO2 T00890061 $
14926KSTC STC20170409221011904/09/17 22:10:31  5-MIN KSTC 100410Z AUTO 35011G19KT 10SM OVC060 09/06 A2969 1240 83 800 350/11G19 RMK AO2 T00890061 $
14926KSTC STC20170409221511904/09/17 22:15:31  5-MIN KSTC 100415Z AUTO 35013G21KT 10SM OVC060 09/06 A2970 1240 83 800 350/13G21 RMK AO2 T00890061 $
14926KSTC STC20170409222011904/09/17 22:20:31  5-MIN KSTC 100420Z AUTO 36013G21KT 10SM OVC060 09/06 A2970 1230 83 800 360/13G21 RMK AO2 T00890061 $
14926KSTC STC20170409222511904/09/17 22:25:31  5-MIN KSTC 100425Z AUTO 36010G20KT 10SM OVC060 09/06 A2970 1230 83 800 360/10G20 RMK AO2 T00890061 $
14926KSTC STC20170409223011904/09/17 22:30:31  5-MIN KSTC 100430Z AUTO 35012G20KT 10SM OVC060 09/06 A2970 1230 83 800 350/12G20 RMK AO2 T00890061 $
14926KSTC STC20170409223511304/09/17 22:35:31  5-MIN KSTC 100435Z AUTO 35012KT 10SM OVC060 09/06 A2970 1230 83 800 350/12 RMK AO2 T00890061 $
14926KSTC STC20170409224011304/09/17 22:40:31  5-MIN KSTC 100440Z AUTO 35013KT 10SM OVC060 09/06 A2970 1230 79 900 350/13 RMK AO2 T00940061 $
14926KSTC STC20170409224511304/09/17 22:45:31  5-MIN KSTC 100445Z AUTO 36013KT 10SM OVC060 09/06 A2970 1230 83 800 350/13 RMK AO2 T00890061 $
14926KSTC STC20170409225012004/09/17 22:50:31  5-MIN KSTC 100450Z AUTO 35012KT 10SM OVC060 09/06 A2971 1220 79 900 350/12 RMK AO2 SLP069 T00940061 $
14926KSTC STC20170409225511304/09/17 22:55:31  5-MIN KSTC 100455Z AUTO 36012KT 10SM OVC060 09/06 A2971 1220 79 900 360/12 RMK AO2 T00940061 $
14926KSTC STC20170409230011304/09/17 23:00:31  5-MIN KSTC 100500Z AUTO 36014KT 10SM OVC060 09/07 A2971 1220 83 900 350/14 RMK AO2 T00940067 $
14926KSTC STC20170409230511904/09/17 23:05:31  5-MIN KSTC 100505Z AUTO 36013G20KT 10SM OVC060 09/07 A2971 1220 83 900 360/13G20 RMK AO2 T00940067 $
14926KSTC STC20170409231011904/09/17 23:10:31  5-MIN KSTC 100510Z AUTO 36013G20KT 10SM OVC060 09/07 A2972 1210 86 800 360/13G20 RMK AO2 T00890067 $
14926KSTC STC20170409231511304/09/17 23:15:31  5-MIN KSTC 100515Z AUTO 36013KT 10SM OVC060 09/07 A2972 1220 86 800 360/13 RMK AO2 T00890067 $
14926KSTC STC20170410092511504/10/17 09:25:31  5-MIN KSTC 101525Z 02011G18KT 10SM OVC021 03/M01 A2997 980 76 -100 010/11G18 RMK AO2 T00331006 $
14926KSTC STC20170410093011504/10/17 09:30:31  5-MIN KSTC 101530Z 01016G20KT 10SM OVC021 03/M01 A2997 980 76 -100 010/16G20 RMK AO2 T00331006 $
14926KSTC STC20170410093511504/10/17 09:35:31  5-MIN KSTC 101535Z 01014G22KT 10SM OVC021 03/M01 A2998 970 76 -100 010/14G22 RMK AO2 T00331006 $
14926KSTC STC20170410094011504/10/17 09:40:31  5-MIN KSTC 101540Z 01013G22KT 10SM OVC021 03/M01 A2998 970 76 -100 010/13G22 RMK AO2 T00331006 $
14926KSTC STC20170410094510904/10/17 09:45:31  5-MIN KSTC 101545Z 01013KT 10SM OVC021 03/M01 A2999 970 76 -100 360/13 RMK AO2 T00331006 $
14926KSTC STC20170410095012204/10/17 09:50:31  5-MIN KSTC 101550Z 01010G19KT 10SM OVC021 03/M01 A2999 960 76 -100 010/10G19 RMK AO2 SLP170 T00331006 $
14926KSTC STC20170410095511504/10/17 09:55:31  5-MIN KSTC 101555Z 01012G18KT 10SM OVC021 03/M01 A2999 960 76 -100 360/12G18 RMK AO2 T00331006 $
14926KSTC STC20170410100010904/10/17 10:00:31  5-MIN KSTC 101600Z 01010KT 10SM OVC021 03/M01 A3000 950 76 -100 010/10 RMK AO2 T00331006 $
14926KSTC STC20170410100510904/10/17 10:05:31  5-MIN KSTC 101605Z 36012KT 10SM OVC021 03/M01 A3000 950 76 -100 360/12 RMK AO2 T00331006 $
14926KSTC STC20170410101010904/10/17 10:10:31  5-MIN KSTC 101610Z 01014KT 10SM OVC021 03/M01 A3000 950 76 -100 010/14 RMK AO2 T00331006 $
14926KSTC STC20170410101510904/10/17 10:15:31  5-MIN KSTC 101615Z 01011KT 10SM OVC021 03/M01 A3001 950 76 -100 010/11 RMK AO2 T00331006 $
14926KSTC STC20170410102011504/10/17 10:20:31  5-MIN KSTC 101620Z 01010G17KT 10SM OVC021 03/M01 A3001 950 76 -200 010/10G17 RMK AO2 T00331006 $
14926KSTC STC20170410102511504/10/17 10:25:31  5-MIN KSTC 101625Z 01013G18KT 10SM OVC021 03/M01 A3001 950 76 -200 360/13G18 RMK AO2 T00331006 $
14926KSTC STC20170410103011304/10/17 10:30:31  5-MIN KSTC 101630Z 01010G18KT 10SM OVC021 03/M01 A3001 950 76 -100 010/10G18 RMK AO2 T00331006
14926KSTC STC20170410103511304/10/17 10:35:31  5-MIN KSTC 101635Z 36011G19KT 10SM OVC021 03/M01 A3001 950 76 -100 360/11G19 RMK AO2 T00331006
14926KSTC STC20170410104011304/10/17 10:40:31  5-MIN KSTC 101640Z 01014G19KT 10SM OVC023 03/M01 A3001 940 76 -200 360/14G19 RMK AO2 T00331006
14926KSTC STC20170410104510704/10/17 10:45:31  5-MIN KSTC 101645Z 01013KT 10SM OVC023 03/M01 A3001 940 72 -200 010/13 RMK AO2 T00331011
14926KSTC STC20170410105011404/10/17 10:50:31  5-MIN KSTC 101650Z 01010KT 10SM OVC023 03/M01 A3002 940 72 -200 010/10 RMK AO2 SLP179 T00331011
14926KSTC STC20170410105510704/10/17 10:55:31  5-MIN KSTC 101655Z 01011KT 10SM OVC023 03/M01 A3002 940 76 -200 010/11 RMK AO2 T00331006
14926KSTC STC20170410110011304/10/17 11:00:31  5-MIN KSTC 101700Z 01014G19KT 10SM OVC023 03/M01 A3001 940 76 -200 010/14G19 RMK AO2 T00331006
14926KSTC STC20170410110511304/10/17 11:05:31  5-MIN KSTC 101705Z 01011G19KT 10SM OVC023 03/M01 A3002 940 72 -200 010/11G19 RMK AO2 T00331011
14926KSTC STC20170410111011304/10/17 11:10:31  5-MIN KSTC 101710Z 03010G18KT 10SM OVC023 04/M01 A3002 940 73 -100 030/10G18 RMK AO2 T00391006
14926KSTC STC20170410111511304/10/17 11:15:31  5-MIN KSTC 101715Z 01011G18KT 10SM OVC023 04/M01 A3002 940 73 -100 010/11G18 RMK AO2 T00391006
14926KSTC STC20170410112011004/10/17 11:20:31  5-MIN KSTC 101720Z 03012G18KT 10SM OVC023 04/M01 A3002 940 70 0 030/12G18 RMK AO2 T00441006
14926KSTC STC20170410112511004/10/17 11:25:31  5-MIN KSTC 101725Z 01012G18KT 10SM OVC023 04/M01 A3002 940 70 0 010/12G18 RMK AO2 T00441006
14926KSTC STC20170410113010404/10/17 11:30:31  5-MIN KSTC 101730Z 02012KT 10SM OVC024 04/M01 A3002 940 70 0 020/12 RMK AO2 T00441006
14926KSTC STC20170410113511304/10/17 11:35:31  5-MIN KSTC 101735Z 02012G18KT 10SM OVC024 04/M01 A3002 940 73 -100 020/12G18 RMK AO2 T00391006
14926KSTC STC20170410114011004/10/17 11:40:31  5-MIN KSTC 101740Z 02013G17KT 10SM OVC023 04/M01 A3001 940 70 0 020/13G17 RMK AO2 T00441006
14926KSTC STC20170410114511304/10/17 11:45:31  5-MIN KSTC 101745Z 02013G20KT 10SM OVC023 04/M01 A3001 940 73 -100 020/13G20 RMK AO2 T00391006
14926KSTC STC20170410115013504/10/17 11:50:31  5-MIN KSTC 101750Z 02010G20KT 10SM OVC023 04/M01 A3001 940 70 0 020/10G20 RMK AO2 SLP177 T00441006 10044 20028 53031
14926KSTC STC20170410115511004/10/17 11:55:31  5-MIN KSTC 101755Z 01012G17KT 10SM OVC023 04/M01 A3001 940 70 0 010/12G17 RMK AO2 T00441006
14926KSTC STC20170410120011004/10/17 12:00:31  5-MIN KSTC 101800Z 02009G17KT 10SM OVC023 04/M01 A3002 940 70 0 020/09G17 RMK AO2 T00441006
14926KSTC STC20170410120511004/10/17 12:05:31  5-MIN KSTC 101805Z 01012G18KT 10SM OVC023 04/M01 A3002 940 70 0 010/12G18 RMK AO2 T00441006
14926KSTC STC20170410121010404/10/17 12:10:31  5-MIN KSTC 101810Z 01012KT 10SM OVC023 04/M01 A3002 940 70 0 010/12 RMK AO2 T00441006
14926KSTC STC20170410121511004/10/17 12:15:31  5-MIN KSTC 101815Z 01009G17KT 10SM OVC023 04/M01 A3002 940 70 0 010/09G17 RMK AO2 T00441006
14926KSTC STC20170410122011004/10/17 12:20:31  5-MIN KSTC 101820Z 01010G17KT 10SM OVC023 05/M01 A3002 940 67 0 010/10G17 RMK AO2 T00501006
14926KSTC STC20170410122511004/10/17 12:25:31  5-MIN KSTC 101825Z 36012G17KT 10SM OVC023 05/M01 A3002 930 67 0 360/12G17 RMK AO2 T00501006
14926KSTC STC20170410123010404/10/17 12:30:31  5-MIN KSTC 101830Z 01013KT 10SM OVC023 05/M01 A3002 930 67 0 010/13 RMK AO2 T00501006
14926KSTC STC20170410123510404/10/17 12:35:31  5-MIN KSTC 101835Z 01011KT 10SM OVC023 04/M01 A3002 930 70 0 010/11 RMK AO2 T00441006
14926KSTC STC20170410124010404/10/17 12:40:31  5-MIN KSTC 101840Z 01010KT 10SM OVC023 05/M01 A3002 930 67 0 010/10 RMK AO2 T00501006
14926KSTC STC20170410124510404/10/17 12:45:31  5-MIN KSTC 101845Z 02010KT 10SM OVC024 05/M01 A3003 930 67 0 020/10 RMK AO2 T00501006
14926KSTC STC20170410125011104/10/17 12:50:31  5-MIN KSTC 101850Z 36011KT 10SM OVC024 04/M01 A3002 930 70 0 360/11 RMK AO2 SLP183 T00441006
14926KSTC STC20170410125510404/10/17 12:55:31  5-MIN KSTC 101855Z 02012KT 10SM OVC024 04/M01 A3002 930 70 0 010/12 RMK AO2 T00441006
14926KSTC STC20170410130011004/10/17 13:00:31  5-MIN KSTC 101900Z 36012G18KT 10SM OVC024 04/M01 A3002 930 70 0 360/12G18 RMK AO2 T00441006
14926KSTC STC20170410130511004/10/17 13:05:31  5-MIN KSTC 101905Z 02012G18KT 10SM OVC025 04/M01 A3002 930 70 0 020/12G18 RMK AO2 T00441006
14926KSTC STC20170410131010404/10/17 13:10:31  5-MIN KSTC 101910Z 02010KT 10SM OVC025 05/M01 A3002 930 67 0 020/10 RMK AO2 T00501006
14926KSTC STC20170410131511004/10/17 13:15:31  5-MIN KSTC 101915Z 36012G18KT 10SM OVC025 05/M01 A3002 930 67 0 360/12G18 RMK AO2 T00501006
14926KSTC STC20170410132010404/10/17 13:20:31  5-MIN KSTC 101920Z 36012KT 10SM OVC025 05/M01 A3002 930 67 0 360/12 RMK AO2 T00501006
14926KSTC STC20170410132510404/10/17 13:25:31  5-MIN KSTC 101925Z 36013KT 10SM OVC025 05/M01 A3002 930 67 0 360/13 RMK AO2 T00501006
14926KSTC STC20170410133011004/10/17 13:30:31  5-MIN KSTC 101930Z 03009G18KT 10SM OVC025 05/M01 A3002 930 67 0 020/09G18 RMK AO2 T00501006
14926KSTC STC20170410133511004/10/17 13:35:31  5-MIN KSTC 101935Z 02010G16KT 10SM OVC027 05/M01 A3002 930 67 0 020/10G16 RMK AO2 T00501006
14926KSTC STC20170410134011004/10/17 13:40:31  5-MIN KSTC 101940Z 02009G16KT 10SM OVC027 05/M01 A3002 930 67 0 020/09G16 RMK AO2 T00501006
14926KSTC STC20170410134510404/10/17 13:45:31  5-MIN KSTC 101945Z 01012KT 10SM OVC027 05/M01 A3002 940 67 0 010/12 RMK AO2 T00501006
14926KSTC STC20170410135012704/10/17 13:50:31  5-MIN KSTC 101950Z 02011KT 10SM -RA OVC027 05/M01 A3002 940 67 0 020/11 RMK AO2 RAB49 SLP181 P0000 T00501006
14926KSTC STC20170410135511304/10/17 13:55:31  5-MIN KSTC 101955Z 01011KT 10SM -RA OVC027 05/00 A3002 940 70 0 010/11 RMK AO2 P0000 T00500000
14926KSTC STC20170410140011304/10/17 14:00:31  5-MIN KSTC 102000Z 01008KT 10SM -RA OVC027 05/00 A3002 940 70 0 010/08 RMK AO2 P0000 T00500000
14926KSTC STC20170410140512004/10/17 14:05:31  5-MIN KSTC 102005Z 36010KT 10SM -RA BKN027 OVC055 05/01 A3002 940 73 0 360/10 RMK AO2 P0000 T00500006
14926KSTC STC20170410141012004/10/17 14:10:31  5-MIN KSTC 102010Z 01008KT 10SM -RA BKN027 OVC060 05/01 A3002 940 73 0 010/08 RMK AO2 P0000 T00500006
14926KSTC STC20170410141512604/10/17 14:15:31  5-MIN KSTC 102015Z 01008G16KT 10SM -RA BKN027 OVC055 05/01 A3002 940 73 0 010/08G16 RMK AO2 P0000 T00500006
14926KSTC STC20170410142012204/10/17 14:20:31  5-MIN KSTC 102020Z 03007KT 10SM BKN027 OVC055 05/00 A3002 940 70 0 020/07 RMK AO2 RAE18 P0000 T00500000
14926KSTC STC20170410142511504/10/17 14:25:31  5-MIN KSTC 102025Z 02009KT 10SM OVC028 05/00 A3002 940 70 0 020/09 RMK AO2 RAE18 P0000 T00500000
14926KSTC STC20170410143012204/10/17 14:30:31  5-MIN KSTC 102030Z 02008KT 10SM BKN028 OVC060 05/00 A3002 940 70 0 020/08 RMK AO2 RAE18 P0000 T00500000
14926KSTC STC20170410143512204/10/17 14:35:31  5-MIN KSTC 102035Z 02007KT 10SM BKN028 OVC060 05/00 A3002 940 70 0 020/07 RMK AO2 RAE18 P0000 T00500000
14926KSTC STC20170410144013604/10/17 14:40:31  5-MIN KSTC 102040Z 02009KT 10SM -RA BKN028 BKN049 OVC060 05/00 A3002 940 70 0 020/09 RMK AO2 RAE18B40 P0000 T00500000
14926KSTC STC20170410144513604/10/17 14:45:31  5-MIN KSTC 102045Z 03007KT 10SM -RA BKN028 BKN035 OVC060 05/00 A3001 940 70 0 030/07 RMK AO2 RAE18B40 P0000 T00500000
14926KSTC STC20170410145015504/10/17 14:50:31  5-MIN KSTC 102050Z 03009KT 10SM -RA BKN028 BKN033 OVC060 05/00 A3001 940 70 0 030/09 RMK AO2 RAE18B40 SLP180 P0000 60000 T00500000 50020
14926KSTC STC20170410145512704/10/17 14:55:31  5-MIN KSTC 102055Z 02010KT 10SM -RA BKN030 BKN047 OVC055 05/00 A3001 940 70 0 020/10 RMK AO2 P0000 T00500000
14926KSTC STC20170410150012704/10/17 15:00:31  5-MIN KSTC 102100Z 02008KT 10SM -RA SCT028 SCT034 OVC050 05/00 A3001 940 70 0 020/08 RMK AO2 P0001 T00500000
14926KSTC STC20170410150512004/10/17 15:05:31  5-MIN KSTC 102105Z 02008KT 10SM -RA SCT030 OVC050 05/01 A3001 940 73 0 020/08 RMK AO2 P0001 T00500006
14926KSTC STC20170410151012004/10/17 15:10:31  5-MIN KSTC 102110Z 02007KT 10SM -RA SCT030 OVC050 05/01 A3001 940 73 0 020/07 RMK AO2 P0001 T00500006
14926KSTC STC20170410151512004/10/17 15:15:31  5-MIN KSTC 102115Z 01010KT 10SM -RA SCT030 OVC055 05/01 A3001 940 73 0 010/10 RMK AO2 P0001 T00500006
14926KSTC STC20170410152012004/10/17 15:20:31  5-MIN KSTC 102120Z 01007KT 10SM -RA FEW030 OVC055 05/01 A3002 940 73 0 010/07 RMK AO2 P0001 T00500006
14926KSTC STC20170410152512204/10/17 15:25:31  5-MIN KSTC 102125Z 36008KT 10SM -RA FEW029 OVC055 06/01 A3002 940 73 100 360/08 RMK AO2 P0001 T00560011
14926KSTC STC20170410153012404/10/17 15:30:31  5-MIN KSTC 102130Z 01010KT 10SM FEW029 OVC055 06/01 A3002 940 73 100 010/10 RMK AO2 RAE30 P0001 T00560011
14926KSTC STC20170410153512204/10/17 15:35:31  5-MIN KSTC 102135Z 36011KT 10SM -RA FEW029 OVC055 06/01 A3002 940 73 100 360/11 RMK AO2 P0001 T00560011
14926KSTC STC20170410154012904/10/17 15:40:31  5-MIN KSTC 102140Z 36011KT 10SM -RA FEW029 BKN049 OVC060 06/01 A3002 940 73 100 360/11 RMK AO2 P0001 T00560011
14926KSTC STC20170410154512204/10/17 15:45:31  5-MIN KSTC 102145Z 36011KT 10SM -RA SCT049 OVC055 06/01 A3002 940 73 100 360/11 RMK AO2 P0001 T00560011
14926KSTC STC20170410155013604/10/17 15:50:31  5-MIN KSTC 102150Z 36009KT 10SM -RA FEW036 BKN047 OVC060 06/01 A3002 930 73 100 360/09 RMK AO2 SLP182 P0001 T00560011
14926KSTC STC20170410155511904/10/17 15:55:31  5-MIN KSTC 102155Z 35010KT 10SM FEW031 BKN047 OVC060 06/01 A3002 940 73 100 350/10 RMK AO2 T00560011
14926KSTC STC20170410160011904/10/17 16:00:31  5-MIN KSTC 102200Z 36009KT 10SM FEW028 BKN048 OVC055 06/01 A3002 940 73 100 360/09 RMK AO2 T00560011
14926KSTC STC20170410160511904/10/17 16:05:31  5-MIN KSTC 102205Z 36009KT 10SM SCT047 BKN060 OVC070 06/01 A3002 930 70 100 360/09 RMK AO2 T00560006
14926KSTC STC20170410161011904/10/17 16:10:31  5-MIN KSTC 102210Z 35009KT 10SM FEW029 BKN047 OVC070 06/01 A3002 930 73 100 350/09 RMK AO2 T00560011
14926KSTC STC20170410161511904/10/17 16:15:31  5-MIN KSTC 102215Z 01008KT 10SM FEW029 BKN045 OVC070 06/01 A3002 930 70 100 010/08 RMK AO2 T00560006
14926KSTC STC20170410162011904/10/17 16:20:31  5-MIN KSTC 102220Z 02006KT 10SM FEW029 SCT046 OVC070 06/01 A3002 930 70 100 020/06 RMK AO2 T00560006
14926KSTC STC20170410162511904/10/17 16:25:31  5-MIN KSTC 102225Z 01009KT 10SM FEW029 FEW050 OVC070 06/01 A3003 930 70 100 010/09 RMK AO2 T00560006
14926KSTC STC20170410163011204/10/17 16:30:31  5-MIN KSTC 102230Z 01009KT 10SM FEW029 OVC070 06/00 A3003 930 67 100 010/09 RMK AO2 T00560000
14926KSTC STC20170410163511004/10/17 16:35:31  5-MIN KSTC 102235Z 01007KT 10SM FEW029 OVC070 06/01 A3003 930 70 0 010/07 RMK AO2 T00560006
14926KSTC STC20170410164010304/10/17 16:40:31  5-MIN KSTC 102240Z 01009KT 10SM OVC070 06/00 A3003 930 67 0 010/09 RMK AO2 T00560000
14926KSTC STC20170410164510304/10/17 16:45:31  5-MIN KSTC 102245Z 01010KT 10SM OVC065 06/00 A3003 920 67 0 010/10 RMK AO2 T00560000
14926KSTC STC20170410165011704/10/17 16:50:31  5-MIN KSTC 102250Z 01007KT 10SM BKN065 OVC090 06/00 A3003 920 67 0 010/07 RMK AO2 SLP187 T00560000
14926KSTC STC20170410165511704/10/17 16:55:31  5-MIN KSTC 102255Z 01007KT 10SM FEW033 BKN065 OVC090 06/00 A3004 920 67 0 010/07 RMK AO2 T00560000
14926KSTC STC20170410170011704/10/17 17:00:31  5-MIN KSTC 102300Z 36010KT 10SM FEW033 BKN065 OVC090 06/00 A3004 920 67 0 360/10 RMK AO2 T00560000
14926KSTC STC20170410170511704/10/17 17:05:31  5-MIN KSTC 102305Z 02009KT 10SM FEW033 SCT065 OVC085 06/00 A3004 920 67 0 020/09 RMK AO2 T00560000
14926KSTC STC20170410171011704/10/17 17:10:31  5-MIN KSTC 102310Z 01010KT 10SM FEW033 SCT065 OVC085 06/00 A3004 920 67 0 010/10 RMK AO2 T00560000
14926KSTC STC20170410171511704/10/17 17:15:31  5-MIN KSTC 102315Z 01009KT 10SM FEW033 FEW065 OVC085 06/00 A3004 920 67 0 010/09 RMK AO2 T00560000
14926KSTC STC20170410172011804/10/17 17:20:31  5-MIN KSTC 102320Z 01008KT 10SM FEW033 SCT060 OVC085 06/M01 A3004 910 65 0 010/08 RMK AO2 T00561006
14926KSTC STC20170410172511804/10/17 17:25:31  5-MIN KSTC 102325Z 02006KT 10SM FEW034 BKN060 OVC085 06/M01 A3005 910 65 0 020/06 RMK AO2 T00561006
14926KSTC STC20170410173011804/10/17 17:30:31  5-MIN KSTC 102330Z 02006KT 10SM FEW034 BKN060 OVC085 06/M01 A3005 910 65 0 020/06 RMK AO2 T00561006
14926KSTC STC20170410173511804/10/17 17:35:31  5-MIN KSTC 102335Z 02008KT 10SM FEW034 BKN055 OVC085 06/M01 A3005 910 65 0 020/08 RMK AO2 T00561006
14926KSTC STC20170410174011104/10/17 17:40:31  5-MIN KSTC 102340Z 04007KT 10SM SCT034 OVC060 06/M01 A3005 910 65 0 040/07 RMK AO2 T00561006
14926KSTC STC20170410174511104/10/17 17:45:31  5-MIN KSTC 102345Z 02007KT 10SM SCT034 OVC055 06/M01 A3005 900 65 0 010/07 RMK AO2 T00561006
14926KSTC STC20170410175014904/10/17 17:50:31  5-MIN KSTC 102350Z 03007KT 10SM BKN034 BKN047 OVC060 06/M01 A3006 900 65 0 030/07 RMK AO2 SLP195 60001 T00561006 10056 20044 50000
14926KSTC STC20170410175511104/10/17 17:55:31  5-MIN KSTC 102355Z 03007KT 10SM BKN035 OVC055 06/M01 A3006 900 65 0 030/07 RMK AO2 T00561006
14926KSTC STC20170410180011104/10/17 18:00:31  5-MIN KSTC 110000Z 03006KT 10SM BKN035 OVC060 06/M01 A3006 900 65 0 030/06 RMK AO2 T00561006
14926KSTC STC20170410180510404/10/17 18:05:31  5-MIN KSTC 110005Z 03008KT 10SM OVC035 06/M01 A3006 900 65 0 030/08 RMK AO2 T00561006
14926KSTC STC20170410181010404/10/17 18:10:31  5-MIN KSTC 110010Z 04007KT 10SM OVC035 06/M01 A3006 890 62 0 040/07 RMK AO2 T00561011
14926KSTC STC20170410181510404/10/17 18:15:31  5-MIN KSTC 110015Z 06005KT 10SM OVC035 06/M01 A3007 890 62 0 060/05 RMK AO2 T00561011
14926KSTC STC20170410182011004/10/17 18:20:31  5-MIN KSTC 110020Z 08011G15KT 10SM OVC034 05/M01 A3007 890 67 0 080/11G15 RMK AO2 T00501006
14926KSTC STC20170410182510704/10/17 18:25:31  5-MIN KSTC 110025Z 08009KT 10SM OVC034 04/M01 A3007 890 70 -100 070/09 RMK AO2 T00441006
14926KSTC STC20170410183010704/10/17 18:30:31  5-MIN KSTC 110030Z 07008KT 10SM OVC034 04/M01 A3007 880 73 -200 070/08 RMK AO2 T00391006
14926KSTC STC20170410183510704/10/17 18:35:31  5-MIN KSTC 110035Z 07008KT 10SM OVC033 04/M01 A3008 880 73 -200 070/08 RMK AO2 T00391006
14926KSTC STC20170410184010704/10/17 18:40:31  5-MIN KSTC 110040Z 06008KT 10SM OVC033 04/M01 A3008 880 73 -200 060/08 RMK AO2 T00391006
14926KSTC STC20170410184510704/10/17 18:45:31  5-MIN KSTC 110045Z 07008KT 10SM OVC033 04/M01 A3008 880 73 -200 070/08 RMK AO2 T00391006
14926KSTC STC20170410185011404/10/17 18:50:31  5-MIN KSTC 110050Z 06007KT 10SM OVC033 04/M01 A3009 870 73 -200 050/07 RMK AO2 SLP207 T00391006
14926KSTC STC20170410185510704/10/17 18:55:31  5-MIN KSTC 110055Z 05006KT 10SM OVC033 04/M01 A3009 870 73 -200 050/06 RMK AO2 T00391006
14926KSTC STC20170410190010704/10/17 19:00:31  5-MIN KSTC 110100Z 06007KT 10SM OVC033 04/M01 A3009 870 73 -200 060/07 RMK AO2 T00391006
14926KSTC STC20170410190510704/10/17 19:05:31  5-MIN KSTC 110105Z 06007KT 10SM OVC033 03/M01 A3010 860 76 -300 060/07 RMK AO2 T00331006
14926KSTC STC20170410191010704/10/17 19:10:31  5-MIN KSTC 110110Z 05007KT 10SM OVC034 03/M01 A3010 860 76 -300 050/07 RMK AO2 T00331006
14926KSTC STC20170410191510704/10/17 19:15:31  5-MIN KSTC 110115Z 05008KT 10SM OVC034 03/M01 A3010 860 76 -300 050/08 RMK AO2 T00331006
14926KSTC STC20170410192010704/10/17 19:20:31  5-MIN KSTC 110120Z 04006KT 10SM OVC034 03/M01 A3010 860 76 -300 040/06 RMK AO2 T00331006
14926KSTC STC20170410192510704/10/17 19:25:31  5-MIN KSTC 110125Z 05007KT 10SM OVC034 03/M01 A3010 860 72 -300 050/07 RMK AO2 T00331011
14926KSTC STC20170410193010704/10/17 19:30:31  5-MIN KSTC 110130Z 03006KT 10SM OVC034 03/M01 A3010 860 72 -300 030/06 RMK AO2 T00331011
14926KSTC STC20170410193510704/10/17 19:35:31  5-MIN KSTC 110135Z 04008KT 10SM OVC034 04/M01 A3011 860 70 -200 040/08 RMK AO2 T00391011
14926KSTC STC20170410194010704/10/17 19:40:31  5-MIN KSTC 110140Z 04007KT 10SM OVC034 04/M02 A3011 850 67 -200 040/07 RMK AO2 T00391017
14926KSTC STC20170410194510704/10/17 19:45:31  5-MIN KSTC 110145Z 03006KT 10SM OVC034 04/M02 A3011 850 64 -200 030/06 RMK AO2 T00391022
14926KSTC STC20170410195011404/10/17 19:50:31  5-MIN KSTC 110150Z 04007KT 10SM OVC034 04/M02 A3011 850 64 -200 030/07 RMK AO2 SLP214 T00391022
14926KSTC STC20170410195510704/10/17 19:55:31  5-MIN KSTC 110155Z 04010KT 10SM OVC033 04/M03 A3011 850 62 -200 040/10 RMK AO2 T00391028
14926KSTC STC20170410200010704/10/17 20:00:31  5-MIN KSTC 110200Z 04008KT 10SM OVC033 04/M03 A3011 850 62 -200 040/08 RMK AO2 T00391028
14926KSTC STC20170410200510704/10/17 20:05:31  5-MIN KSTC 110205Z 05009KT 10SM OVC033 04/M03 A3011 850 62 -200 050/09 RMK AO2 T00391028
14926KSTC STC20170410201011304/10/17 20:10:31  5-MIN KSTC 110210Z 04014G18KT 10SM OVC033 04/M03 A3011 850 62 -200 040/14G18 RMK AO2 T00391028
14926KSTC STC20170410201511304/10/17 20:15:31  5-MIN KSTC 110215Z 04013G20KT 10SM OVC034 03/M03 A3012 840 64 -300 040/13G20 RMK AO2 T00331028
14926KSTC STC20170410202011304/10/17 20:20:31  5-MIN KSTC 110220Z 04010G20KT 10SM OVC034 03/M03 A3012 840 64 -300 040/10G20 RMK AO2 T00331028
14926KSTC STC20170410202511304/10/17 20:25:31  5-MIN KSTC 110225Z 05011G18KT 10SM OVC034 03/M03 A3012 840 64 -300 050/11G18 RMK AO2 T00331028
14926KSTC STC20170410203011304/10/17 20:30:31  5-MIN KSTC 110230Z 06009G18KT 10SM OVC034 03/M03 A3012 840 64 -300 060/09G18 RMK AO2 T00331028
14926KSTC STC20170410203511304/10/17 20:35:31  5-MIN KSTC 110235Z 06008G18KT 10SM OVC034 03/M02 A3012 840 69 -400 060/08G18 RMK AO2 T00281022
14926KSTC STC20170410204011304/10/17 20:40:31  5-MIN KSTC 110240Z 07008G17KT 10SM OVC034 03/M02 A3012 840 69 -400 070/08G17 RMK AO2 T00281022
14926KSTC STC20170410204510704/10/17 20:45:31  5-MIN KSTC 110245Z 09008KT 10SM OVC033 03/M02 A3013 840 72 -400 080/08 RMK AO2 T00281017
14926KSTC STC20170410205012004/10/17 20:50:31  5-MIN KSTC 110250Z 09007KT 10SM OVC033 02/M02 A3013 840 75 -400 090/07 RMK AO2 SLP221 T00221017 53014
14926KSTC STC20170410205510704/10/17 20:55:31  5-MIN KSTC 110255Z 09007KT 10SM OVC034 02/M02 A3013 830 75 -400 090/07 RMK AO2 T00221017
14926KSTC STC20170410210010704/10/17 21:00:31  5-MIN KSTC 110300Z 09004KT 10SM OVC034 02/M01 A3013 830 78 -400 080/04 RMK AO2 T00221011
14926KSTC STC20170410210510704/10/17 21:05:31  5-MIN KSTC 110305Z 09005KT 10SM OVC034 02/M01 A3013 830 82 -500 090/05 RMK AO2 T00171011
14926KSTC STC20170410211010704/10/17 21:10:31  5-MIN KSTC 110310Z 09005KT 10SM OVC034 02/M01 A3013 830 82 -500 090/05 RMK AO2 T00171011
14926KSTC STC20170410211510704/10/17 21:15:31  5-MIN KSTC 110315Z 09004KT 10SM OVC034 02/M01 A3013 830 82 -500 090/04 RMK AO2 T00171011
14926KSTC STC20170410212010704/10/17 21:20:31  5-MIN KSTC 110320Z 10003KT 10SM OVC035 02/M01 A3013 830 82 -500 090/03 RMK AO2 T00171011
14926KSTC STC20170410212510704/10/17 21:25:31  5-MIN KSTC 110325Z 11003KT 10SM OVC035 02/M01 A3013 830 82 -500 110/03 RMK AO2 T00171011
14926KSTC STC20170410213010704/10/17 21:30:31  5-MIN KSTC 110330Z 09003KT 10SM OVC035 02/M01 A3013 830 82 -500 090/03 RMK AO2 T00171011
14926KSTC STC20170410213510704/10/17 21:35:31  5-MIN KSTC 110335Z 00000KT 10SM OVC035 02/M01 A3013 830 82 -500 000/00 RMK AO2 T00171011
14926KSTC STC20170410214010704/10/17 21:40:31  5-MIN KSTC 110340Z 00000KT 10SM OVC035 02/M01 A3013 830 82 -500 000/00 RMK AO2 T00171011
14926KSTC STC20170410214510704/10/17 21:45:31  5-MIN KSTC 110345Z 00000KT 10SM OVC036 02/M01 A3013 830 82 -500 000/00 RMK AO2 T00171011
14926KSTC STC20170410215011404/10/17 21:50:31  5-MIN KSTC 110350Z 00000KT 10SM OVC036 02/M01 A3013 830 82 -500 000/00 RMK AO2 SLP222 T00171011
14926KSTC STC20170410215510704/10/17 21:55:31  5-MIN KSTC 110355Z 00000KT 10SM OVC036 02/M01 A3013 830 82 -500 000/00 RMK AO2 T00171011
14926KSTC STC20170410220011204/10/17 22:00:31  5-MIN KSTC 110400Z AUTO 00000KT 10SM OVC036 02/M01 A3013 840 85 -500 000/00 RMK AO2 T00171006
14926KSTC STC20170410220511204/10/17 22:05:31  5-MIN KSTC 110405Z AUTO 00000KT 10SM OVC037 02/M01 A3013 840 82 -500 000/00 RMK AO2 T00171011
14926KSTC STC20170410221011204/10/17 22:10:31  5-MIN KSTC 110410Z AUTO 00000KT 10SM OVC037 02/M01 A3013 840 82 -500 000/00 RMK AO2 T00171011
14926KSTC STC20170410221511204/10/17 22:15:31  5-MIN KSTC 110415Z AUTO 00000KT 10SM OVC037 02/M01 A3013 840 82 -500 000/00 RMK AO2 T00171011
14926KSTC STC20170410222011204/10/17 22:20:31  5-MIN KSTC 110420Z AUTO 00000KT 10SM OVC037 02/M01 A3013 830 78 -400 000/00 RMK AO2 T00221011
14926KSTC STC20170410222511204/10/17 22:25:31  5-MIN KSTC 110425Z AUTO 00000KT 10SM OVC038 02/M01 A3013 830 78 -400 000/00 RMK AO2 T00221011
14926KSTC STC20170410223011204/10/17 22:30:31  5-MIN KSTC 110430Z AUTO 00000KT 10SM OVC038 02/M01 A3013 830 78 -400 000/00 RMK AO2 T00221011
14926KSTC STC20170410223511204/10/17 22:35:31  5-MIN KSTC 110435Z AUTO 00000KT 10SM OVC038 02/M01 A3013 830 82 -500 000/00 RMK AO2 T00171011
14926KSTC STC20170410224011204/10/17 22:40:31  5-MIN KSTC 110440Z AUTO 00000KT 10SM OVC039 02/M01 A3013 830 78 -400 000/00 RMK AO2 T00221011
14926KSTC STC20170410224511204/10/17 22:45:31  5-MIN KSTC 110445Z AUTO 00000KT 10SM OVC039 02/M01 A3014 830 78 -400 000/00 RMK AO2 T00221011
14926KSTC STC20170410225011904/10/17 22:50:31  5-MIN KSTC 110450Z AUTO 00000KT 10SM OVC039 02/M01 A3014 830 78 -400 000/00 RMK AO2 SLP225 T00221011
14926KSTC STC20170410225511204/10/17 22:55:31  5-MIN KSTC 110455Z AUTO 00000KT 10SM OVC041 02/M01 A3014 820 78 -400 000/00 RMK AO2 T00221011
14926KSTC STC20170410230011204/10/17 23:00:31  5-MIN KSTC 110500Z AUTO 00000KT 10SM OVC041 02/M01 A3014 820 82 -400 000/00 RMK AO2 T00221006
14926KSTC STC20170410230511204/10/17 23:05:31  5-MIN KSTC 110505Z AUTO VRB03KT 10SM OVC041 03/M03 A3014 820 67 -400 VRB/03 RMK AO2 T00281028
14926KSTC STC20170410231011204/10/17 23:10:31  5-MIN KSTC 110510Z AUTO 04003KT 10SM OVC041 03/M03 A3014 820 67 -400 040/03 RMK AO2 T00281028
14926KSTC STC20170410231511204/10/17 23:15:31  5-MIN KSTC 110515Z AUTO 03004KT 10SM OVC041 03/M03 A3014 830 64 -400 030/04 RMK AO2 T00281033
14926KSTC STC20170410232011204/10/17 23:20:31  5-MIN KSTC 110520Z AUTO 03003KT 10SM OVC042 03/M04 A3014 830 61 -400 030/03 RMK AO2 T00281039
14926KSTC STC20170410232511204/10/17 23:25:31  5-MIN KSTC 110525Z AUTO 04004KT 10SM OVC042 03/M04 A3014 830 61 -400 030/04 RMK AO2 T00281039
14926KSTC STC20170410233011204/10/17 23:30:31  5-MIN KSTC 110530Z AUTO 02006KT 10SM OVC043 03/M04 A3014 830 61 -400 020/06 RMK AO2 T00281039
14926KSTC STC20170410233511904/10/17 23:35:31  5-MIN KSTC 110535Z AUTO 05008KT 10SM FEW036 OVC043 03/M04 A3014 830 59 -400 050/08 RMK AO2 T00281044
14926KSTC STC20170410234011904/10/17 23:40:31  5-MIN KSTC 110540Z AUTO 04008KT 10SM SCT036 OVC043 03/M04 A3014 830 59 -400 040/08 RMK AO2 T00281044
14926KSTC STC20170410234511904/10/17 23:45:31  5-MIN KSTC 110545Z AUTO 05009KT 10SM BKN034 OVC043 03/M04 A3014 830 59 -400 050/09 RMK AO2 T00281044
14926KSTC STC20170410235017004/10/17 23:50:31  5-MIN KSTC 110550Z AUTO 04007KT 010V070 10SM BKN034 OVC043 03/M05 A3014 830 56 -400 040/07 010V070 RMK AO2 SLP224 T00281050 10056 20017 400890017 51023
14926KSTC STC20170410235511904/10/17 23:55:31  5-MIN KSTC 110555Z AUTO 04007KT 10SM BKN034 OVC043 03/M05 A3014 820 56 -400 040/07 RMK AO2 T00281050
14926KSTC STC20170411000011204/11/17 00:00:31  5-MIN KSTC 110600Z AUTO 05008KT 10SM OVC034 03/M05 A3014 820 56 -400 050/08 RMK AO2 T00281050
14926KSTC STC20170411000511204/11/17 00:05:31  5-MIN KSTC 110605Z AUTO 04009KT 10SM OVC034 03/M05 A3014 820 56 -400 040/09 RMK AO2 T00281050
14926KSTC STC20170411001011204/11/17 00:10:31  5-MIN KSTC 110610Z AUTO 04008KT 10SM OVC035 03/M05 A3014 820 56 -400 040/08 RMK AO2 T00281050
14926KSTC STC20170411001511204/11/17 00:15:31  5-MIN KSTC 110615Z AUTO 05004KT 10SM OVC035 03/M04 A3014 820 59 -400 050/04 RMK AO2 T00281044
14926KSTC STC20170411002011204/11/17 00:20:31  5-MIN KSTC 110620Z AUTO 07007KT 10SM OVC035 03/M05 A3015 820 56 -400 070/07 RMK AO2 T00281050
14926KSTC STC20170411002511204/11/17 00:25:31  5-MIN KSTC 110625Z AUTO 07005KT 10SM OVC035 02/M04 A3015 820 61 -400 070/05 RMK AO2 T00221044
14926KSTC STC20170411003011204/11/17 00:30:31  5-MIN KSTC 110630Z AUTO 07006KT 10SM OVC035 02/M05 A3015 820 59 -400 060/06 RMK AO2 T00221050
14926KSTC STC20170411003511204/11/17 00:35:31  5-MIN KSTC 110635Z AUTO 06004KT 10SM OVC035 02/M04 A3015 820 61 -500 060/04 RMK AO2 T00221044
14926KSTC STC20170411004011204/11/17 00:40:31  5-MIN KSTC 110640Z AUTO 06006KT 10SM OVC035 02/M04 A3015 820 61 -400 050/06 RMK AO2 T00221044
14926KSTC STC20170411004511204/11/17 00:45:31  5-MIN KSTC 110645Z AUTO 06006KT 10SM OVC035 02/M05 A3015 820 59 -400 060/06 RMK AO2 T00221050
14926KSTC STC20170411005011904/11/17 00:50:31  5-MIN KSTC 110650Z AUTO 06008KT 10SM OVC035 02/M05 A3015 820 59 -400 060/08 RMK AO2 SLP227 T00221050
14926KSTC STC20170411005511204/11/17 00:55:31  5-MIN KSTC 110655Z AUTO 06006KT 10SM OVC035 02/M05 A3015 820 59 -400 060/06 RMK AO2 T00221050
14926KSTC STC20170411010011204/11/17 01:00:31  5-MIN KSTC 110700Z AUTO 06005KT 10SM OVC034 02/M05 A3015 810 59 -500 060/05 RMK AO2 T00221050
14926KSTC STC20170411010511204/11/17 01:05:31  5-MIN KSTC 110705Z AUTO 04005KT 10SM OVC034 02/M05 A3015 810 61 -500 040/05 RMK AO2 T00171050
14926KSTC STC20170411011011204/11/17 01:10:31  5-MIN KSTC 110710Z AUTO 05005KT 10SM OVC034 02/M05 A3015 810 61 -500 050/05 RMK AO2 T00171050
14926KSTC STC20170411011511204/11/17 01:15:31  5-MIN KSTC 110715Z AUTO 05004KT 10SM OVC034 02/M05 A3015 810 61 -500 050/04 RMK AO2 T00171050
14926KSTC STC20170411012011204/11/17 01:20:31  5-MIN KSTC 110720Z AUTO 04006KT 10SM OVC034 02/M05 A3015 810 61 -500 040/06 RMK AO2 T00171050
14926KSTC STC20170411012511204/11/17 01:25:31  5-MIN KSTC 110725Z AUTO 05005KT 10SM OVC034 02/M06 A3015 820 59 -500 050/05 RMK AO2 T00171056
14926KSTC STC20170411013011204/11/17 01:30:31  5-MIN KSTC 110730Z AUTO 05004KT 10SM OVC034 02/M05 A3015 810 61 -500 050/04 RMK AO2 T00171050
14926KSTC STC20170411013511204/11/17 01:35:31  5-MIN KSTC 110735Z AUTO 00000KT 10SM OVC034 02/M05 A3015 810 61 -500 000/00 RMK AO2 T00171050
14926KSTC STC20170411014011204/11/17 01:40:31  5-MIN KSTC 110740Z AUTO 05004KT 10SM OVC034 02/M05 A3015 810 61 -500 050/04 RMK AO2 T00171050
14926KSTC STC20170411014511204/11/17 01:45:31  5-MIN KSTC 110745Z AUTO 05004KT 10SM OVC034 02/M05 A3015 810 61 -500 050/04 RMK AO2 T00171050
14926KSTC STC20170411015011904/11/17 01:50:31  5-MIN KSTC 110750Z AUTO 04005KT 10SM OVC034 02/M06 A3015 810 59 -500 040/05 RMK AO2 SLP229 T00171056
14926KSTC STC20170411015511204/11/17 01:55:31  5-MIN KSTC 110755Z AUTO 06004KT 10SM OVC033 02/M06 A3015 810 59 -500 060/04 RMK AO2 T00171056
14926KSTC STC20170411020011204/11/17 02:00:31  5-MIN KSTC 110800Z AUTO 06004KT 10SM OVC033 02/M06 A3016 810 59 -500 060/04 RMK AO2 T00171056
14926KSTC STC20170411020511204/11/17 02:05:31  5-MIN KSTC 110805Z AUTO 00000KT 10SM OVC032 02/M06 A3016 810 59 -500 000/00 RMK AO2 T00171056
14926KSTC STC20170411021011204/11/17 02:10:31  5-MIN KSTC 110810Z AUTO 03003KT 10SM OVC032 02/M06 A3016 810 59 -500 030/03 RMK AO2 T00171056
14926KSTC STC20170411021511204/11/17 02:15:31  5-MIN KSTC 110815Z AUTO 02003KT 10SM OVC030 02/M06 A3016 810 59 -500 020/03 RMK AO2 T00171056
14926KSTC STC20170411022011204/11/17 02:20:31  5-MIN KSTC 110820Z AUTO 02003KT 10SM OVC030 02/M06 A3016 810 59 -500 020/03 RMK AO2 T00171056
14926KSTC STC20170411022511204/11/17 02:25:31  5-MIN KSTC 110825Z AUTO 02004KT 10SM OVC031 02/M06 A3015 810 59 -500 020/04 RMK AO2 T00171056
14926KSTC STC20170411023011204/11/17 02:30:31  5-MIN KSTC 110830Z AUTO 03006KT 10SM OVC031 02/M06 A3015 810 59 -500 030/06 RMK AO2 T00171056
14926KSTC STC20170411023511204/11/17 02:35:31  5-MIN KSTC 110835Z AUTO 04005KT 10SM OVC031 02/M06 A3015 810 59 -500 040/05 RMK AO2 T00171056
14926KSTC STC20170411024011204/11/17 02:40:31  5-MIN KSTC 110840Z AUTO 05003KT 10SM OVC031 02/M06 A3016 810 59 -500 040/03 RMK AO2 T00171056
14926KSTC STC20170411024511204/11/17 02:45:31  5-MIN KSTC 110845Z AUTO 05006KT 10SM OVC031 02/M06 A3016 810 59 -500 050/06 RMK AO2 T00171056
14926KSTC STC20170411025012504/11/17 02:50:31  5-MIN KSTC 110850Z AUTO 04005KT 10SM OVC032 02/M06 A3016 810 59 -500 040/05 RMK AO2 SLP231 T00171056 51004
14926KSTC STC20170411025511204/11/17 02:55:31  5-MIN KSTC 110855Z AUTO 05005KT 10SM OVC030 02/M06 A3016 800 59 -500 050/05 RMK AO2 T00171056
14926KSTC STC20170411030011204/11/17 03:00:31  5-MIN KSTC 110900Z AUTO 05004KT 10SM OVC030 02/M06 A3016 800 59 -500 050/04 RMK AO2 T00171056
14926KSTC STC20170411030511204/11/17 03:05:31  5-MIN KSTC 110905Z AUTO 05003KT 10SM OVC030 02/M05 A3016 800 61 -500 040/03 RMK AO2 T00171050
14926KSTC STC20170411031011204/11/17 03:10:31  5-MIN KSTC 110910Z AUTO 06004KT 10SM OVC030 02/M05 A3016 800 61 -500 050/04 RMK AO2 T00171050
14926KSTC STC20170411031511204/11/17 03:15:31  5-MIN KSTC 110915Z AUTO 06003KT 10SM OVC030 02/M05 A3016 800 61 -500 060/03 RMK AO2 T00171050
14926KSTC STC20170411032011204/11/17 03:20:31  5-MIN KSTC 110920Z AUTO 05004KT 10SM OVC031 02/M05 A3016 800 61 -500 050/04 RMK AO2 T00171050
14926KSTC STC20170411032511204/11/17 03:25:31  5-MIN KSTC 110925Z AUTO 05004KT 10SM OVC031 02/M05 A3016 800 61 -500 050/04 RMK AO2 T00171050
14926KSTC STC20170411033011204/11/17 03:30:31  5-MIN KSTC 110930Z AUTO 06004KT 10SM OVC031 02/M05 A3016 800 61 -500 060/04 RMK AO2 T00171050
14926KSTC STC20170411033511204/11/17 03:35:31  5-MIN KSTC 110935Z AUTO 06004KT 10SM OVC032 02/M05 A3016 800 61 -500 050/04 RMK AO2 T00171050
14926KSTC STC20170411034011204/11/17 03:40:31  5-MIN KSTC 110940Z AUTO 00000KT 10SM OVC032 02/M05 A3017 800 61 -500 000/00 RMK AO2 T00171050
14926KSTC STC20170411034511204/11/17 03:45:31  5-MIN KSTC 110945Z AUTO 00000KT 10SM OVC032 02/M05 A3017 800 61 -500 000/00 RMK AO2 T00171050
14926KSTC STC20170411035011904/11/17 03:50:31  5-MIN KSTC 110950Z AUTO 00000KT 10SM OVC032 02/M05 A3016 800 61 -500 000/00 RMK AO2 SLP233 T00171050
14926KSTC STC20170411035511204/11/17 03:55:31  5-MIN KSTC 110955Z AUTO VRB04KT 10SM OVC032 02/M05 A3016 800 61 -500 VRB/04 RMK AO2 T00171050
14926KSTC STC20170411040011204/11/17 04:00:31  5-MIN KSTC 111000Z AUTO 05003KT 10SM OVC032 02/M05 A3017 800 61 -500 050/03 RMK AO2 T00171050
14926KSTC STC20170411040511204/11/17 04:05:31  5-MIN KSTC 111005Z AUTO 00000KT 10SM OVC032 02/M05 A3017 800 61 -500 000/00 RMK AO2 T00171050
14926KSTC STC20170411041011204/11/17 04:10:31  5-MIN KSTC 111010Z AUTO 00000KT 10SM OVC032 02/M05 A3017 800 61 -500 000/00 RMK AO2 T00171050
14926KSTC STC20170411041511204/11/17 04:15:31  5-MIN KSTC 111015Z AUTO 00000KT 10SM OVC032 02/M05 A3017 800 61 -500 000/00 RMK AO2 T00171050
14926KSTC STC20170411042011204/11/17 04:20:31  5-MIN KSTC 111020Z AUTO 00000KT 10SM OVC032 02/M05 A3017 800 61 -500 000/00 RMK AO2 T00171050
14926KSTC STC20170411042511204/11/17 04:25:31  5-MIN KSTC 111025Z AUTO 00000KT 10SM OVC032 02/M05 A3017 790 61 -500 000/00 RMK AO2 T00171050
14926KSTC STC20170411043011204/11/17 04:30:31  5-MIN KSTC 111030Z AUTO 00000KT 10SM OVC033 02/M06 A3018 790 59 -600 000/00 RMK AO2 T00171056
14926KSTC STC20170411043511204/11/17 04:35:31  5-MIN KSTC 111035Z AUTO 00000KT 10SM OVC033 02/M05 A3018 790 61 -600 000/00 RMK AO2 T00171050
14926KSTC STC20170411044011204/11/17 04:40:31  5-MIN KSTC 111040Z AUTO 00000KT 10SM OVC033 02/M04 A3018 790 64 -600 000/00 RMK AO2 T00171044
14926KSTC STC20170411044511204/11/17 04:45:31  5-MIN KSTC 111045Z AUTO 33003KT 10SM OVC034 02/M05 A3018 790 61 -600 330/03 RMK AO2 T00171050
14926KSTC STC20170411045012604/11/17 04:50:31  5-MIN KSTC 111050Z AUTO 32003KT 10SM BKN034 OVC060 01/M05 A3018 790 64 -600 320/03 RMK AO2 SLP239 T00111050
14926KSTC STC20170411045511904/11/17 04:55:31  5-MIN KSTC 111055Z AUTO 33003KT 10SM BKN035 OVC060 01/M05 A3018 790 64 -600 330/03 RMK AO2 T00111050
14926KSTC STC20170411050011904/11/17 05:00:31  5-MIN KSTC 111100Z AUTO 33003KT 10SM SCT035 OVC060 01/M05 A3018 780 64 -600 330/03 RMK AO2 T00111050
14926KSTC STC20170411050510904/11/17 05:05:31  5-MIN KSTC 111105Z AUTO 10SM SCT035 OVC060 01/M05 A3019 780 64 -600 M /M RMK AO2 T00111050
14926KSTC STC20170411051011904/11/17 05:10:31  5-MIN KSTC 111110Z AUTO 33003KT 10SM SCT035 OVC060 01/M05 A3019 780 64 -600 330/03 RMK AO2 T00111050
14926KSTC STC20170411051511904/11/17 05:15:31  5-MIN KSTC 111115Z AUTO 34003KT 10SM FEW035 OVC060 01/M05 A3019 780 64 -600 340/03 RMK AO2 T00111050
14926KSTC STC20170411052011204/11/17 05:20:31  5-MIN KSTC 111120Z AUTO 00000KT 10SM OVC060 01/M05 A3019 780 64 -600 000/00 RMK AO2 T00111050
14926KSTC STC20170411052510704/11/17 05:25:31  5-MIN KSTC 111125Z 33003KT 10SM OVC060 01/M05 A3019 780 64 -600 330/03 RMK AO2 T00111050
14926KSTC STC20170411053010704/11/17 05:30:31  5-MIN KSTC 111130Z 33003KT 10SM OVC060 01/M05 A3019 780 64 -600 330/03 RMK AO2 T00111050
14926KSTC STC20170411053510704/11/17 05:35:31  5-MIN KSTC 111135Z 35003KT 10SM OVC060 01/M05 A3019 780 64 -600 350/03 RMK AO2 T00111050
14926KSTC STC20170411054010704/11/17 05:40:31  5-MIN KSTC 111140Z 01003KT 10SM OVC060 01/M04 A3019 780 69 -600 010/03 RMK AO2 T00111039
14926KSTC STC20170411054510704/11/17 05:45:31  5-MIN KSTC 111145Z 01003KT 10SM OVC060 01/M04 A3019 780 66 -600 010/03 RMK AO2 T00111044
14926KSTC STC20170411055013804/11/17 05:50:31  5-MIN KSTC 111150Z 01004KT 10SM OVC060 01/M04 A3019 780 66 -600 360/04 RMK AO2 SLP242 70001 T00111044 10028 20011 51007
14926KSTC STC20170411055510704/11/17 05:55:31  5-MIN KSTC 111155Z 01004KT 10SM OVC060 01/M04 A3019 780 66 -600 010/04 RMK AO2 T00111044
14926KSTC STC20170411060010704/11/17 06:00:31  5-MIN KSTC 111200Z 01003KT 10SM OVC060 01/M04 A3019 770 66 -600 360/03 RMK AO2 T00111044
14926KSTC STC20170411060510704/11/17 06:05:31  5-MIN KSTC 111205Z 00000KT 10SM OVC060 01/M04 A3020 770 66 -600 000/00 RMK AO2 T00111044
14926KSTC STC20170411061010704/11/17 06:10:31  5-MIN KSTC 111210Z 00000KT 10SM OVC060 01/M04 A3020 770 66 -600 000/00 RMK AO2 T00111044
14926KSTC STC20170411061510704/11/17 06:15:31  5-MIN KSTC 111215Z 00000KT 10SM OVC060 01/M04 A3020 770 66 -600 000/00 RMK AO2 T00111044
14926KSTC STC20170411062010704/11/17 06:20:31  5-MIN KSTC 111220Z 33003KT 10SM OVC060 01/M04 A3020 770 66 -700 330/03 RMK AO2 T00111044
14926KSTC STC20170411062510704/11/17 06:25:31  5-MIN KSTC 111225Z 34003KT 10SM OVC060 01/M04 A3020 770 66 -700 340/03 RMK AO2 T00111044
14926KSTC STC20170411063010704/11/17 06:30:31  5-MIN KSTC 111230Z 34004KT 10SM OVC060 01/M04 A3020 770 66 -700 340/04 RMK AO2 T00111044
14926KSTC STC20170411063510704/11/17 06:35:31  5-MIN KSTC 111235Z 35004KT 10SM OVC060 01/M05 A3020 770 64 -700 350/04 RMK AO2 T00111050
14926KSTC STC20170411064010704/11/17 06:40:31  5-MIN KSTC 111240Z 35005KT 10SM OVC060 01/M05 A3020 760 64 -700 350/05 RMK AO2 T00111050
14926KSTC STC20170411064510704/11/17 06:45:31  5-MIN KSTC 111245Z 35006KT 10SM OVC060 01/M05 A3021 760 64 -700 350/06 RMK AO2 T00111050
14926KSTC STC20170411065011404/11/17 06:50:31  5-MIN KSTC 111250Z 36006KT 10SM OVC060 01/M05 A3021 760 64 -700 350/06 RMK AO2 SLP249 T00111050
14926KSTC STC20170411065510704/11/17 06:55:31  5-MIN KSTC 111255Z 36006KT 10SM OVC060 01/M05 A3021 760 64 -700 360/06 RMK AO2 T00111050
14926KSTC STC20170411070010704/11/17 07:00:31  5-MIN KSTC 111300Z 36006KT 10SM OVC060 01/M06 A3021 760 61 -700 360/06 RMK AO2 T00111056
14926KSTC STC20170411070510704/11/17 07:05:31  5-MIN KSTC 111305Z 36004KT 10SM BKN060 01/M06 A3022 750 61 -700 360/04 RMK AO2 T00111056
14926KSTC STC20170411071010704/11/17 07:10:31  5-MIN KSTC 111310Z 36006KT 10SM BKN060 01/M06 A3022 750 61 -700 360/06 RMK AO2 T00111056
14926KSTC STC20170411071510704/11/17 07:15:31  5-MIN KSTC 111315Z 01006KT 10SM BKN060 02/M06 A3022 750 59 -600 010/06 RMK AO2 T00171056
14926KSTC STC20170411072010704/11/17 07:20:31  5-MIN KSTC 111320Z 36007KT 10SM BKN060 02/M06 A3022 750 56 -500 360/07 RMK AO2 T00221056
14926KSTC STC20170411072510704/11/17 07:25:31  5-MIN KSTC 111325Z 01006KT 10SM SCT060 02/M06 A3022 750 56 -500 010/06 RMK AO2 T00221056
14926KSTC STC20170411073010704/11/17 07:30:31  5-MIN KSTC 111330Z 01007KT 10SM FEW055 03/M06 A3022 750 54 -500 010/07 RMK AO2 T00281056
14926KSTC STC20170411073510704/11/17 07:35:31  5-MIN KSTC 111335Z 01006KT 10SM FEW055 03/M06 A3022 750 52 -500 010/06 RMK AO2 T00281061
14926KSTC STC20170411074010704/11/17 07:40:31  5-MIN KSTC 111340Z 35005KT 10SM SCT055 03/M06 A3022 750 52 -500 350/05 RMK AO2 T00281061
14926KSTC STC20170411074510704/11/17 07:45:31  5-MIN KSTC 111345Z VRB04KT 10SM BKN055 03/M06 A3022 750 52 -400 VRB/04 RMK AO2 T00331056
14926KSTC STC20170411075011404/11/17 07:50:31  5-MIN KSTC 111350Z 02005KT 10SM BKN055 03/M06 A3022 750 52 -400 020/05 RMK AO2 SLP252 T00331056
14926KSTC STC20170411075510704/11/17 07:55:31  5-MIN KSTC 111355Z 36006KT 10SM SCT055 03/M06 A3022 750 50 -400 360/06 RMK AO2 T00331061
14926KSTC STC20170411080010704/11/17 08:00:31  5-MIN KSTC 111400Z 03005KT 10SM SCT055 03/M06 A3022 750 50 -400 030/05 RMK AO2 T00331061
14926KSTC STC20170411080510704/11/17 08:05:31  5-MIN KSTC 111405Z 04005KT 10SM BKN055 03/M06 A3023 750 50 -400 040/05 RMK AO2 T00331061
14926KSTC STC20170411081010704/11/17 08:10:31  5-MIN KSTC 111410Z 03005KT 10SM BKN060 03/M06 A3022 750 50 -400 030/05 RMK AO2 T00331061
14926KSTC STC20170411081510704/11/17 08:15:31  5-MIN KSTC 111415Z 02005KT 10SM BKN060 04/M06 A3022 750 50 -300 020/05 RMK AO2 T00391056
14926KSTC STC20170411082010704/11/17 08:20:31  5-MIN KSTC 111420Z 36006KT 10SM SCT060 03/M06 A3022 750 50 -400 360/06 RMK AO2 T00331061
14926KSTC STC20170411082510704/11/17 08:25:31  5-MIN KSTC 111425Z 36005KT 10SM FEW060 03/M06 A3022 750 50 -400 360/05 RMK AO2 T00331061
14926KSTC STC20170411083010704/11/17 08:30:31  5-MIN KSTC 111430Z VRB04KT 10SM FEW060 03/M06 A3023 750 50 -400 VRB/04 RMK AO2 T00331061
14926KSTC STC20170411083510704/11/17 08:35:31  5-MIN KSTC 111435Z 32003KT 10SM FEW060 03/M06 A3023 740 50 -400 320/03 RMK AO2 T00331061
14926KSTC STC20170411084010404/11/17 08:40:31  5-MIN KSTC 111440Z 31003KT 10SM CLR 03/M06 A3023 740 50 -400 310/03 RMK AO2 T00331061
14926KSTC STC20170411084510404/11/17 08:45:31  5-MIN KSTC 111445Z VRB03KT 10SM CLR 04/M06 A3023 740 48 -300 VRB/03 RMK AO2 T00391061
14926KSTC STC20170411085011704/11/17 08:50:31  5-MIN KSTC 111450Z 01004KT 10SM CLR 04/M06 A3023 740 50 -300 010/04 RMK AO2 SLP256 T00391056 53009
14926KSTC STC20170411085510404/11/17 08:55:31  5-MIN KSTC 111455Z 34004KT 10SM CLR 04/M06 A3023 740 48 -300 340/04 RMK AO2 T00391061
14926KSTC STC20170411090010404/11/17 09:00:31  5-MIN KSTC 111500Z 00000KT 10SM CLR 04/M06 A3024 740 48 -300 000/00 RMK AO2 T00391061
14926KSTC STC20170411090510404/11/17 09:05:31  5-MIN KSTC 111505Z VRB04KT 10SM CLR 04/M06 A3024 730 48 -300 VRB/04 RMK AO2 T00441056
14926KSTC STC20170411091010404/11/17 09:10:31  5-MIN KSTC 111510Z 00000KT 10SM CLR 04/M06 A3024 730 46 -300 000/00 RMK AO2 T00441061
14926KSTC STC20170411091510404/11/17 09:15:31  5-MIN KSTC 111515Z VRB04KT 10SM CLR 05/M05 A3024 730 48 -200 VRB/04 RMK AO2 T00501050
14926KSTC STC20170411092010404/11/17 09:20:31  5-MIN KSTC 111520Z 00000KT 10SM CLR 05/M06 A3024 730 46 -200 000/00 RMK AO2 T00501056
14926KSTC STC20170411092510404/11/17 09:25:31  5-MIN KSTC 111525Z VRB03KT 10SM CLR 05/M05 A3024 730 48 -200 VRB/03 RMK AO2 T00501050
14926KSTC STC20170411093010404/11/17 09:30:31  5-MIN KSTC 111530Z VRB04KT 10SM CLR 06/M05 A3024 730 46 -100 VRB/04 RMK AO2 T00561050
14926KSTC STC20170411093510404/11/17 09:35:31  5-MIN KSTC 111535Z 33004KT 10SM CLR 06/M05 A3024 730 46 -100 330/04 RMK AO2 T00561050
14926KSTC STC20170411094010404/11/17 09:40:31  5-MIN KSTC 111540Z VRB03KT 10SM CLR 06/M06 A3024 730 44 -100 VRB/03 RMK AO2 T00561056
14926KSTC STC20170411094510404/11/17 09:45:31  5-MIN KSTC 111545Z 26005KT 10SM CLR 06/M06 A3024 730 44 -100 260/05 RMK AO2 T00561056
14926KSTC STC20170411095011104/11/17 09:50:31  5-MIN KSTC 111550Z 00000KT 10SM CLR 05/M06 A3024 730 46 -200 000/00 RMK AO2 SLP260 T00501056
14926KSTC STC20170411095510404/11/17 09:55:31  5-MIN KSTC 111555Z VRB04KT 10SM CLR 06/M05 A3025 730 46 -100 VRB/04 RMK AO2 T00561050
14926KSTC STC20170411100010404/11/17 10:00:31  5-MIN KSTC 111600Z 30004KT 10SM CLR 06/M06 A3024 730 43 -100 300/04 RMK AO2 T00611056
14926KSTC STC20170411100510404/11/17 10:05:31  5-MIN KSTC 111605Z 33007KT 10SM CLR 06/M06 A3025 730 41 -100 330/07 RMK AO2 T00611061
14926KSTC STC20170411101010404/11/17 10:10:31  5-MIN KSTC 111610Z VRB03KT 10SM CLR 06/M06 A3025 730 43 -100 VRB/03 RMK AO2 T00611056
14926KSTC STC20170411101510104/11/17 10:15:31  5-MIN KSTC 111615Z VRB03KT 10SM CLR 07/M06 A3024 730 41 0 VRB/03 RMK AO2 T00671056
14926KSTC STC20170411102009104/11/17 10:20:31  5-MIN KSTC 111620Z 10SM CLR 07/M06 A3024 730 39 0 M /M RMK AO2 T00671061
14926KSTC STC20170411102510104/11/17 10:25:31  5-MIN KSTC 111625Z VRB04KT 10SM CLR 07/M06 A3024 730 38 0 VRB/04 RMK AO2 T00721061
14926KSTC STC20170411103010304/11/17 10:30:31  5-MIN KSTC 111630Z 32006KT 10SM CLR 08/M06 A3024 730 38 100 320/06 RMK AO2 T00781056
14926KSTC STC20170411103510104/11/17 10:35:31  5-MIN KSTC 111635Z VRB03KT 10SM CLR 07/M06 A3024 730 39 0 VRB/03 RMK AO2 T00671061
14926KSTC STC20170411104010104/11/17 10:40:31  5-MIN KSTC 111640Z VRB04KT 10SM CLR 07/M06 A3024 730 39 0 VRB/04 RMK AO2 T00671061
14926KSTC STC20170411104510104/11/17 10:45:31  5-MIN KSTC 111645Z VRB04KT 10SM CLR 07/M06 A3024 730 41 0 VRB/04 RMK AO2 T00671056
14926KSTC STC20170411105011104/11/17 10:50:31  5-MIN KSTC 111650Z 28005KT 10SM FEW060 07/M05 A3023 740 41 0 280/05 RMK AO2 SLP256 T00721050
14926KSTC STC20170411105510604/11/17 10:55:31  5-MIN KSTC 111655Z VRB04KT 10SM FEW060 08/M04 A3023 740 40 200 VRB/04 RMK AO2 T00831044
14926KSTC STC20170411110010304/11/17 11:00:31  5-MIN KSTC 111700Z 34007KT 10SM CLR 08/M04 A3023 740 40 200 340/07 RMK AO2 T00831044
14926KSTC STC20170411110510304/11/17 11:05:31  5-MIN KSTC 111705Z 32008KT 10SM CLR 08/M04 A3023 740 40 200 320/08 RMK AO2 T00831044
14926KSTC STC20170411111010304/11/17 11:10:31  5-MIN KSTC 111710Z VRB04KT 10SM CLR 08/M05 A3023 740 40 100 VRB/04 RMK AO2 T00781050
14926KSTC STC20170411111510304/11/17 11:15:31  5-MIN KSTC 111715Z 32008KT 10SM CLR 09/M04 A3023 740 38 200 320/08 RMK AO2 T00891044
14926KSTC STC20170411112010304/11/17 11:20:31  5-MIN KSTC 111720Z 30008KT 10SM CLR 09/M04 A3023 740 38 200 300/08 RMK AO2 T00891044
14926KSTC STC20170411112510304/11/17 11:25:31  5-MIN KSTC 111725Z VRB04KT 10SM CLR 08/M04 A3023 740 40 200 VRB/04 RMK AO2 T00831044
14926KSTC STC20170411113010304/11/17 11:30:31  5-MIN KSTC 111730Z VRB05KT 10SM CLR 09/M04 A3023 740 40 200 VRB/05 RMK AO2 T00891039
14926KSTC STC20170411113510304/11/17 11:35:31  5-MIN KSTC 111735Z 33008KT 10SM CLR 09/M04 A3023 740 40 200 330/08 RMK AO2 T00891039
14926KSTC STC20170411114010304/11/17 11:40:31  5-MIN KSTC 111740Z 29009KT 10SM CLR 09/M04 A3023 740 40 200 290/09 RMK AO2 T00891039
14926KSTC STC20170411114510304/11/17 11:45:31  5-MIN KSTC 111745Z 28008KT 10SM CLR 09/M04 A3023 750 40 200 280/08 RMK AO2 T00891039
14926KSTC STC20170411115013704/11/17 11:50:31  5-MIN KSTC 111750Z 33009G15KT 10SM FEW060 09/M04 A3023 740 40 200 330/09G15 RMK AO2 SLP252 T00891039 10089 20011 51014
14926KSTC STC20170411115510604/11/17 11:55:31  5-MIN KSTC 111755Z 29005KT 10SM FEW060 09/M04 A3023 740 40 200 290/05 RMK AO2 T00891039
14926KSTC STC20170411120010604/11/17 12:00:31  5-MIN KSTC 111800Z 30004KT 10SM FEW060 09/M04 A3022 750 40 200 300/04 RMK AO2 T00891039
14926KSTC STC20170411120510604/11/17 12:05:31  5-MIN KSTC 111805Z VRB05KT 10SM FEW060 10/M03 A3022 750 39 400 VRB/05 RMK AO2 T01001033
14926KSTC STC20170411121012204/11/17 12:10:31  5-MIN KSTC 111810Z 31008KT 290V350 10SM FEW060 09/M03 A3022 750 42 200 310/08 290V350 RMK AO2 T00891033
14926KSTC STC20170411121510604/11/17 12:15:31  5-MIN KSTC 111815Z 31009KT 10SM FEW055 09/M03 A3022 750 40 300 310/09 RMK AO2 T00941033
14926KSTC STC20170411122010604/11/17 12:20:31  5-MIN KSTC 111820Z 32006KT 10SM FEW055 09/M03 A3022 750 42 200 320/06 RMK AO2 T00891033
14926KSTC STC20170411122510604/11/17 12:25:31  5-MIN KSTC 111825Z 00000KT 10SM SCT055 09/M03 A3022 750 40 300 000/00 RMK AO2 T00941033
14926KSTC STC20170411123010604/11/17 12:30:31  5-MIN KSTC 111830Z 36004KT 10SM SCT050 09/M03 A3022 750 40 300 360/04 RMK AO2 T00941033
14926KSTC STC20170411123510604/11/17 12:35:31  5-MIN KSTC 111835Z VRB06KT 10SM BKN055 10/M03 A3021 760 40 400 VRB/06 RMK AO2 T01001028
14926KSTC STC20170411124010604/11/17 12:40:31  5-MIN KSTC 111840Z 32007KT 10SM BKN050 10/M03 A3022 750 39 400 320/07 RMK AO2 T01001033
14926KSTC STC20170411124510604/11/17 12:45:31  5-MIN KSTC 111845Z 01006KT 10SM BKN055 09/M04 A3022 750 39 300 360/06 RMK AO2 T00941039
14926KSTC STC20170411125011304/11/17 12:50:31  5-MIN KSTC 111850Z 32009KT 10SM OVC055 09/M03 A3021 760 40 300 320/09 RMK AO2 SLP248 T00941033
14926KSTC STC20170411125510604/11/17 12:55:31  5-MIN KSTC 111855Z 32007KT 10SM BKN055 09/M03 A3021 760 40 300 320/07 RMK AO2 T00941033
14926KSTC STC20170411130010604/11/17 13:00:31  5-MIN KSTC 111900Z 29007KT 10SM BKN050 09/M03 A3021 760 40 300 290/07 RMK AO2 T00941033
14926KSTC STC20170411130510604/11/17 13:05:31  5-MIN KSTC 111905Z VRB04KT 10SM BKN055 09/M03 A3021 760 40 300 VRB/04 RMK AO2 T00941033
14926KSTC STC20170411131011204/11/17 13:10:31  5-MIN KSTC 111910Z 29009G14KT 10SM SCT055 11/M03 A3021 760 39 400 280/09G14 RMK AO2 T01061028
14926KSTC STC20170411131511204/11/17 13:15:31  5-MIN KSTC 111915Z 23004G14KT 10SM SCT050 09/M03 A3021 760 40 300 230/04G14 RMK AO2 T00941033
14926KSTC STC20170411132010604/11/17 13:20:31  5-MIN KSTC 111920Z 31007KT 10SM SCT055 11/M03 A3021 760 39 400 300/07 RMK AO2 T01061028
14926KSTC STC20170411132510604/11/17 13:25:31  5-MIN KSTC 111925Z VRB04KT 10SM SCT055 10/M03 A3021 760 39 400 VRB/04 RMK AO2 T01001033
14926KSTC STC20170411133010604/11/17 13:30:31  5-MIN KSTC 111930Z VRB05KT 10SM BKN055 11/M03 A3021 760 39 500 VRB/05 RMK AO2 T01061028
14926KSTC STC20170411133510604/11/17 13:35:31  5-MIN KSTC 111935Z 34007KT 10SM BKN055 11/M03 A3020 760 39 500 340/07 RMK AO2 T01061028
14926KSTC STC20170411134010604/11/17 13:40:31  5-MIN KSTC 111940Z 33008KT 10SM BKN055 10/M03 A3020 770 40 400 330/08 RMK AO2 T01001028
14926KSTC STC20170411134510604/11/17 13:45:31  5-MIN KSTC 111945Z 32008KT 10SM BKN055 10/M03 A3020 770 40 400 310/08 RMK AO2 T01001028
14926KSTC STC20170411135012904/11/17 13:50:31  5-MIN KSTC 111950Z 30008KT 260V330 10SM BKN055 09/M03 A3020 770 42 300 300/08 260V330 RMK AO2 SLP243 T00941028
14926KSTC STC20170411135510604/11/17 13:55:31  5-MIN KSTC 111955Z 00000KT 10SM SCT055 09/M03 A3020 770 42 300 000/00 RMK AO2 T00941028
14926KSTC STC20170411140009604/11/17 14:00:31  5-MIN KSTC 112000Z 10SM SCT055 09/M03 A3020 770 42 300 M /M RMK AO2 T00941028
14926KSTC STC20170411140510604/11/17 14:05:31  5-MIN KSTC 112005Z 00000KT 10SM BKN055 09/M03 A3020 770 40 300 000/00 RMK AO2 T00941033
14926KSTC STC20170411141010604/11/17 14:10:31  5-MIN KSTC 112010Z 00000KT 10SM BKN055 10/M03 A3020 770 39 400 000/00 RMK AO2 T01001033
14926KSTC STC20170411141510604/11/17 14:15:31  5-MIN KSTC 112015Z 29006KT 10SM BKN055 11/M03 A3019 770 39 500 290/06 RMK AO2 T01061028
14926KSTC STC20170411142010604/11/17 14:20:31  5-MIN KSTC 112020Z VRB05KT 10SM BKN055 11/M03 A3019 770 39 500 VRB/05 RMK AO2 T01061028
14926KSTC STC20170411142510604/11/17 14:25:31  5-MIN KSTC 112025Z VRB03KT 10SM BKN055 11/M02 A3019 780 39 500 VRB/03 RMK AO2 T01111022
14926KSTC STC20170411143010604/11/17 14:30:31  5-MIN KSTC 112030Z VRB05KT 10SM BKN055 11/M03 A3019 770 37 500 VRB/05 RMK AO2 T01111028
14926KSTC STC20170411143510604/11/17 14:35:31  5-MIN KSTC 112035Z 28009KT 10SM SCT055 11/M03 A3019 780 36 500 280/09 RMK AO2 T01111033
14926KSTC STC20170411144010604/11/17 14:40:31  5-MIN KSTC 112040Z 30005KT 10SM SCT055 11/M03 A3019 780 37 500 300/05 RMK AO2 T01061033
14926KSTC STC20170411144510604/11/17 14:45:31  5-MIN KSTC 112045Z 26007KT 10SM SCT055 11/M03 A3019 780 39 500 260/07 RMK AO2 T01061028
14926KSTC STC20170411145010904/11/17 14:50:31  5-MIN KSTC 112050Z 10SM SCT055 12/M03 A3019 780 36 600 M /M RMK AO2 SLP237 T01171028 58002
14926KSTC STC20170411145510604/11/17 14:55:31  5-MIN KSTC 112055Z 27010KT 10SM FEW055 12/M03 A3019 780 36 600 270/10 RMK AO2 T01171028
14926KSTC STC20170411150010604/11/17 15:00:31  5-MIN KSTC 112100Z 24008KT 10SM FEW055 11/M03 A3018 780 37 500 240/08 RMK AO2 T01061033
14926KSTC STC20170411150510604/11/17 15:05:31  5-MIN KSTC 112105Z 24006KT 10SM FEW055 11/M03 A3018 780 37 500 240/06 RMK AO2 T01061033
14926KSTC STC20170411151010604/11/17 15:10:31  5-MIN KSTC 112110Z 27006KT 10SM SCT055 11/M03 A3018 790 37 600 270/06 RMK AO2 T01111028
14926KSTC STC20170411151510604/11/17 15:15:31  5-MIN KSTC 112115Z 27006KT 10SM FEW055 12/M02 A3018 790 38 600 270/06 RMK AO2 T01171022
14926KSTC STC20170411152010604/11/17 15:20:31  5-MIN KSTC 112120Z 27008KT 10SM FEW055 12/M02 A3018 790 38 600 270/08 RMK AO2 T01171022
14926KSTC STC20170411152510604/11/17 15:25:31  5-MIN KSTC 112125Z 25007KT 10SM FEW055 11/M03 A3018 790 37 600 250/07 RMK AO2 T01111028
14926KSTC STC20170411153010604/11/17 15:30:31  5-MIN KSTC 112130Z VRB05KT 10SM FEW055 10/M03 A3018 790 39 400 VRB/05 RMK AO2 T01001033
14926KSTC STC20170411153510604/11/17 15:35:31  5-MIN KSTC 112135Z VRB05KT 10SM FEW055 11/M03 A3017 790 39 500 VRB/05 RMK AO2 T01061028
14926KSTC STC20170411154010604/11/17 15:40:31  5-MIN KSTC 112140Z 23006KT 10SM FEW055 11/M02 A3018 790 39 600 220/06 RMK AO2 T01111022
14926KSTC STC20170411154510604/11/17 15:45:31  5-MIN KSTC 112145Z 26009KT 10SM FEW055 12/M02 A3017 790 38 600 260/09 RMK AO2 T01171022
14926KSTC STC20170411155011304/11/17 15:50:31  5-MIN KSTC 112150Z 25009KT 10SM FEW055 12/M03 A3017 790 36 600 250/09 RMK AO2 SLP234 T01171028
14926KSTC STC20170411155512204/11/17 15:55:31  5-MIN KSTC 112155Z 24011KT 220V290 10SM FEW055 12/M03 A3017 790 36 600 240/11 220V290 RMK AO2 T01171028
14926KSTC STC20170411160010604/11/17 16:00:31  5-MIN KSTC 112200Z 22008KT 10SM FEW055 11/M03 A3017 790 37 600 220/08 RMK AO2 T01111028
14926KSTC STC20170411160510604/11/17 16:05:31  5-MIN KSTC 112205Z 24009KT 10SM FEW055 11/M03 A3017 790 37 600 240/09 RMK AO2 T01111028
14926KSTC STC20170411161010304/11/17 16:10:31  5-MIN KSTC 112210Z 27006KT 10SM CLR 12/M03 A3017 790 36 600 270/06 RMK AO2 T01171028
14926KSTC STC20170411161510304/11/17 16:15:31  5-MIN KSTC 112215Z VRB04KT 10SM CLR 12/M02 A3017 790 38 600 VRB/04 RMK AO2 T01171022
14926KSTC STC20170411162010304/11/17 16:20:31  5-MIN KSTC 112220Z 29007KT 10SM CLR 12/M02 A3017 790 38 600 280/07 RMK AO2 T01171022
14926KSTC STC20170411162510304/11/17 16:25:31  5-MIN KSTC 112225Z VRB06KT 10SM CLR 12/M02 A3017 790 38 600 VRB/06 RMK AO2 T01171022
14926KSTC STC20170411163010304/11/17 16:30:31  5-MIN KSTC 112230Z 31003KT 10SM CLR 12/M02 A3017 800 38 600 310/03 RMK AO2 T01171022
14926KSTC STC20170411163510304/11/17 16:35:31  5-MIN KSTC 112235Z VRB05KT 10SM CLR 12/M02 A3017 800 38 600 VRB/05 RMK AO2 T01171022
14926KSTC STC20170411164010304/11/17 16:40:31  5-MIN KSTC 112240Z 24007KT 10SM CLR 11/M02 A3017 800 39 600 240/07 RMK AO2 T01111022
14926KSTC STC20170411164510304/11/17 16:45:31  5-MIN KSTC 112245Z 25008KT 10SM CLR 12/M02 A3017 800 38 600 240/08 RMK AO2 T01171022
14926KSTC STC20170411165011004/11/17 16:50:31  5-MIN KSTC 112250Z VRB05KT 10SM CLR 11/M02 A3017 800 39 600 VRB/05 RMK AO2 SLP233 T01111022
14926KSTC STC20170411165510304/11/17 16:55:31  5-MIN KSTC 112255Z 25008KT 10SM CLR 12/M02 A3017 800 38 600 250/08 RMK AO2 T01171022
14926KSTC STC20170411170010304/11/17 17:00:31  5-MIN KSTC 112300Z 24010KT 10SM CLR 12/M02 A3017 800 38 600 240/10 RMK AO2 T01171022
14926KSTC STC20170411170510304/11/17 17:05:31  5-MIN KSTC 112305Z 22007KT 10SM CLR 11/M02 A3017 800 39 600 210/07 RMK AO2 T01111022
14926KSTC STC20170411171010304/11/17 17:10:31  5-MIN KSTC 112310Z 21005KT 10SM CLR 11/M02 A3017 800 39 600 210/05 RMK AO2 T01111022
14926KSTC STC20170411171510304/11/17 17:15:31  5-MIN KSTC 112315Z 24004KT 10SM CLR 11/M02 A3017 800 39 600 240/04 RMK AO2 T01111022
14926KSTC STC20170411172010304/11/17 17:20:31  5-MIN KSTC 112320Z 23005KT 10SM CLR 11/M02 A3017 800 39 600 230/05 RMK AO2 T01111022
14926KSTC STC20170411172510304/11/17 17:25:31  5-MIN KSTC 112325Z 22007KT 10SM CLR 11/M02 A3017 800 39 600 220/07 RMK AO2 T01111022
14926KSTC STC20170411173010304/11/17 17:30:31  5-MIN KSTC 112330Z 23009KT 10SM CLR 12/M02 A3017 800 38 600 230/09 RMK AO2 T01171022
14926KSTC STC20170411173510304/11/17 17:35:31  5-MIN KSTC 112335Z 21009KT 10SM CLR 11/M02 A3017 800 39 600 210/09 RMK AO2 T01111022
14926KSTC STC20170411174010304/11/17 17:40:31  5-MIN KSTC 112340Z 22007KT 10SM CLR 11/M02 A3017 800 39 600 220/07 RMK AO2 T01111022
14926KSTC STC20170411174510304/11/17 17:45:31  5-MIN KSTC 112345Z 20006KT 10SM CLR 11/M02 A3017 800 39 600 200/06 RMK AO2 T01111022
14926KSTC STC20170411175012804/11/17 17:50:31  5-MIN KSTC 112350Z 21007KT 10SM CLR 11/M02 A3017 800 39 600 210/07 RMK AO2 SLP232 T01111022 10122 20089 58013
14926KSTC STC20170411175510304/11/17 17:55:31  5-MIN KSTC 112355Z 21005KT 10SM CLR 11/M03 A3017 800 37 600 210/05 RMK AO2 T01111028
14926KSTC STC20170411180010304/11/17 18:00:31  5-MIN KSTC 120000Z 25009KT 10SM CLR 11/M02 A3017 800 39 600 250/09 RMK AO2 T01111022
14926KSTC STC20170411180510304/11/17 18:05:31  5-MIN KSTC 120005Z 24009KT 10SM CLR 11/M02 A3017 800 40 500 240/09 RMK AO2 T01061022
14926KSTC STC20170411181010304/11/17 18:10:31  5-MIN KSTC 120010Z 23007KT 10SM CLR 11/M02 A3017 800 40 500 230/07 RMK AO2 T01061022
14926KSTC STC20170411181510304/11/17 18:15:31  5-MIN KSTC 120015Z 23007KT 10SM CLR 11/M02 A3017 790 40 500 230/07 RMK AO2 T01061022
14926KSTC STC20170411182010304/11/17 18:20:31  5-MIN KSTC 120020Z 23007KT 10SM CLR 11/M02 A3017 790 40 500 230/07 RMK AO2 T01061022
14926KSTC STC20170411182510304/11/17 18:25:31  5-MIN KSTC 120025Z 23005KT 10SM CLR 11/M02 A3017 800 40 500 230/05 RMK AO2 T01061022
14926KSTC STC20170411183010304/11/17 18:30:31  5-MIN KSTC 120030Z 23007KT 10SM CLR 10/M02 A3017 790 42 400 230/07 RMK AO2 T01001022
14926KSTC STC20170411183510304/11/17 18:35:31  5-MIN KSTC 120035Z 21007KT 10SM CLR 10/M02 A3017 790 42 400 210/07 RMK AO2 T01001022
14926KSTC STC20170411184010304/11/17 18:40:31  5-MIN KSTC 120040Z 22006KT 10SM CLR 10/M02 A3018 790 42 400 220/06 RMK AO2 T01001022
14926KSTC STC20170411184510304/11/17 18:45:31  5-MIN KSTC 120045Z 21005KT 10SM CLR 10/M02 A3018 790 42 400 210/05 RMK AO2 T01001022
14926KSTC STC20170411185011004/11/17 18:50:31  5-MIN KSTC 120050Z 22005KT 10SM CLR 09/M02 A3018 790 44 400 220/05 RMK AO2 SLP235 T00941022
14926KSTC STC20170411185510304/11/17 18:55:31  5-MIN KSTC 120055Z 22005KT 10SM CLR 09/M02 A3018 790 44 400 220/05 RMK AO2 T00941022
14926KSTC STC20170411190010304/11/17 19:00:31  5-MIN KSTC 120100Z 22004KT 10SM CLR 10/M03 A3018 790 40 400 210/04 RMK AO2 T01001028
14926KSTC STC20170411190510304/11/17 19:05:31  5-MIN KSTC 120105Z 21003KT 10SM CLR 09/M02 A3018 790 45 300 210/03 RMK AO2 T00891022
14926KSTC STC20170411191010304/11/17 19:10:31  5-MIN KSTC 120110Z 21004KT 10SM CLR 08/M02 A3018 790 47 200 210/04 RMK AO2 T00831022
14926KSTC STC20170411191510304/11/17 19:15:31  5-MIN KSTC 120115Z 20003KT 10SM CLR 08/M02 A3018 790 49 100 200/03 RMK AO2 T00781022
14926KSTC STC20170412051011104/12/17 05:10:31  5-MIN KSTC 121110Z AUTO 09003KT 10SM OVC100 04/01 A3020 770 79 -200 090/03 RMK AO2 T00440011
14926KSTC STC20170412051511104/12/17 05:15:31  5-MIN KSTC 121115Z AUTO 09005KT 10SM OVC100 04/01 A3020 770 79 -300 090/05 RMK AO2 T00390006
14926KSTC STC20170412052011104/12/17 05:20:31  5-MIN KSTC 121120Z AUTO 09004KT 10SM OVC100 04/01 A3021 760 82 -300 090/04 RMK AO2 T00390011
14926KSTC STC20170412052511304/12/17 05:25:31  5-MIN KSTC 121125Z 00000KT 10SM SCT060 OVC100 04/01 A3021 760 82 -300 000/00 RMK AO2 T00390011
14926KSTC STC20170412053012004/12/17 05:30:31  5-MIN KSTC 121130Z 12003KT 10SM SCT065 SCT080 OVC100 04/01 A3021 760 82 -300 120/03 RMK AO2 T00390011
14926KSTC STC20170412053512004/12/17 05:35:31  5-MIN KSTC 121135Z 12004KT 10SM FEW065 BKN080 OVC100 04/01 A3021 760 82 -300 120/04 RMK AO2 T00390011
14926KSTC STC20170412054012004/12/17 05:40:31  5-MIN KSTC 121140Z 11004KT 10SM FEW065 BKN075 OVC100 04/01 A3021 760 79 -200 110/04 RMK AO2 T00440011
14926KSTC STC20170412054511304/12/17 05:45:31  5-MIN KSTC 121145Z 11004KT 10SM BKN070 OVC095 04/01 A3020 760 79 -200 110/04 RMK AO2 T00440011
14926KSTC STC20170412055013804/12/17 05:50:31  5-MIN KSTC 121150Z 12004KT 10SM BKN070 BKN095 04/01 A3021 760 79 -200 120/04 RMK AO2 SLP244 T00440011 10044 21011 55003
14926KSTC STC20170412055511304/12/17 05:55:31  5-MIN KSTC 121155Z 12003KT 10SM BKN075 BKN095 04/01 A3021 760 79 -200 120/03 RMK AO2 T00440011
14926KSTC STC20170412060011304/12/17 06:00:31  5-MIN KSTC 121200Z 12004KT 10SM SCT075 BKN100 04/01 A3021 760 79 -200 120/04 RMK AO2 T00440011
14926KSTC STC20170412060511304/12/17 06:05:31  5-MIN KSTC 121205Z 14005KT 10SM FEW075 BKN100 04/01 A3021 760 79 -200 140/05 RMK AO2 T00440011
14926KSTC STC20170412061011304/12/17 06:10:31  5-MIN KSTC 121210Z 12004KT 10SM FEW075 BKN100 04/01 A3021 750 79 -300 120/04 RMK AO2 T00440011
14926KSTC STC20170412061510604/12/17 06:15:31  5-MIN KSTC 121215Z 12003KT 10SM BKN100 05/01 A3021 760 76 -200 110/03 RMK AO2 T00500011
14926KSTC STC20170412062010604/12/17 06:20:31  5-MIN KSTC 121220Z 09003KT 10SM OVC100 05/01 A3021 750 76 -200 090/03 RMK AO2 T00500011
14926KSTC STC20170412062510604/12/17 06:25:31  5-MIN KSTC 121225Z 07004KT 10SM OVC100 04/01 A3022 750 79 -300 060/04 RMK AO2 T00440011
14926KSTC STC20170412063010604/12/17 06:30:31  5-MIN KSTC 121230Z 05004KT 10SM OVC100 04/01 A3022 750 79 -300 050/04 RMK AO2 T00440011
14926KSTC STC20170412063510604/12/17 06:35:31  5-MIN KSTC 121235Z 05004KT 10SM OVC095 04/01 A3022 750 79 -300 050/04 RMK AO2 T00440011
14926KSTC STC20170412064010604/12/17 06:40:31  5-MIN KSTC 121240Z 06005KT 10SM OVC090 04/01 A3022 750 79 -300 060/05 RMK AO2 T00440011
14926KSTC STC20170412064510604/12/17 06:45:31  5-MIN KSTC 121245Z 06004KT 10SM OVC090 04/01 A3022 750 79 -300 060/04 RMK AO2 T00440011
14926KSTC STC20170412065011304/12/17 06:50:31  5-MIN KSTC 121250Z 05003KT 10SM OVC085 04/01 A3022 750 79 -300 050/03 RMK AO2 SLP250 T00440011
14926KSTC STC20170412065511304/12/17 06:55:31  5-MIN KSTC 121255Z 07004KT 10SM BKN080 OVC090 04/01 A3022 750 79 -300 070/04 RMK AO2 T00440011
14926KSTC STC20170412070011304/12/17 07:00:31  5-MIN KSTC 121300Z 07005KT 10SM BKN080 OVC090 04/01 A3023 740 79 -300 070/05 RMK AO2 T00440011
14926KSTC STC20170412070510604/12/17 07:05:31  5-MIN KSTC 121305Z 08005KT 10SM OVC075 04/01 A3023 740 79 -300 080/05 RMK AO2 T00440011
14926KSTC STC20170412071010604/12/17 07:10:31  5-MIN KSTC 121310Z 09005KT 10SM OVC075 04/01 A3023 740 79 -300 080/05 RMK AO2 T00440011
14926KSTC STC20170412071510604/12/17 07:15:31  5-MIN KSTC 121315Z 09005KT 10SM OVC075 05/01 A3023 740 76 -200 090/05 RMK AO2 T00500011
14926KSTC STC20170412072010604/12/17 07:20:31  5-MIN KSTC 121320Z 10003KT 10SM OVC075 05/02 A3023 740 79 -200 100/03 RMK AO2 T00500017
14926KSTC STC20170412072510604/12/17 07:25:31  5-MIN KSTC 121325Z 09003KT 10SM OVC075 06/02 A3023 740 76 -100 090/03 RMK AO2 T00560017
14926KSTC STC20170412073010604/12/17 07:30:31  5-MIN KSTC 121330Z 08004KT 10SM OVC075 06/02 A3023 740 76 -100 080/04 RMK AO2 T00560017
14926KSTC STC20170412073510604/12/17 07:35:31  5-MIN KSTC 121335Z 08005KT 10SM OVC080 06/02 A3023 740 76 -100 080/05 RMK AO2 T00560017
14926KSTC STC20170412074010604/12/17 07:40:31  5-MIN KSTC 121340Z 06004KT 10SM OVC080 06/02 A3022 750 76 -100 060/04 RMK AO2 T00610022
14926KSTC STC20170412074510604/12/17 07:45:31  5-MIN KSTC 121345Z 05006KT 10SM OVC080 06/02 A3022 750 76 -100 050/06 RMK AO2 T00610022
14926KSTC STC20170412075011704/12/17 07:50:31  5-MIN KSTC 121350Z 05005KT 10SM BKN080 BKN100 07/02 A3022 750 70 0 050/05 RMK AO2 SLP250 T00720022
14926KSTC STC20170412075511004/12/17 07:55:31  5-MIN KSTC 121355Z 07004KT 10SM BKN080 BKN100 07/02 A3022 750 73 0 070/04 RMK AO2 T00670022
14926KSTC STC20170412080011004/12/17 08:00:31  5-MIN KSTC 121400Z 07004KT 10SM BKN080 BKN100 07/02 A3022 750 73 0 070/04 RMK AO2 T00670022
14926KSTC STC20170412080511004/12/17 08:05:31  5-MIN KSTC 121405Z 07006KT 10SM BKN080 BKN100 07/02 A3022 750 73 0 070/06 RMK AO2 T00670022
14926KSTC STC20170412081010304/12/17 08:10:31  5-MIN KSTC 121410Z 08006KT 10SM BKN080 07/02 A3022 750 73 0 080/06 RMK AO2 T00670022
14926KSTC STC20170412081510304/12/17 08:15:31  5-MIN KSTC 121415Z 09006KT 10SM BKN080 07/02 A3022 750 70 0 090/06 RMK AO2 T00720022
14926KSTC STC20170412082010304/12/17 08:20:31  5-MIN KSTC 121420Z 08006KT 10SM OVC075 07/02 A3022 750 70 0 080/06 RMK AO2 T00720022
14926KSTC STC20170412082510504/12/17 08:25:31  5-MIN KSTC 121425Z 08008KT 10SM OVC080 08/02 A3022 750 68 100 080/08 RMK AO2 T00780022
14926KSTC STC20170412083010504/12/17 08:30:31  5-MIN KSTC 121430Z 08007KT 10SM OVC080 08/02 A3022 750 68 100 080/07 RMK AO2 T00780022
14926KSTC STC20170412083510504/12/17 08:35:31  5-MIN KSTC 121435Z 08007KT 10SM OVC080 08/03 A3022 750 70 100 080/07 RMK AO2 T00780028
14926KSTC STC20170412084010504/12/17 08:40:31  5-MIN KSTC 121440Z 08007KT 10SM OVC080 08/03 A3022 750 68 200 080/07 RMK AO2 T00830028
14926KSTC STC20170412084510504/12/17 08:45:31  5-MIN KSTC 121445Z 09008KT 10SM BKN080 08/03 A3022 750 68 200 080/08 RMK AO2 T00830028
14926KSTC STC20170412085011804/12/17 08:50:31  5-MIN KSTC 121450Z 09007KT 10SM BKN080 08/03 A3022 750 68 200 090/07 RMK AO2 SLP248 T00830028 51003
14926KSTC STC20170412085510504/12/17 08:55:31  5-MIN KSTC 121455Z 11006KT 10SM BKN080 09/03 A3022 750 65 200 110/06 RMK AO2 T00890028
14926KSTC STC20170412090010504/12/17 09:00:31  5-MIN KSTC 121500Z 10007KT 10SM SCT085 09/03 A3022 750 65 200 100/07 RMK AO2 T00890028
14926KSTC STC20170412090510504/12/17 09:05:31  5-MIN KSTC 121505Z 09007KT 10SM FEW085 09/03 A3022 750 65 200 080/07 RMK AO2 T00890028
14926KSTC STC20170412091010504/12/17 09:10:31  5-MIN KSTC 121510Z 09006KT 10SM FEW085 09/03 A3022 750 65 200 090/06 RMK AO2 T00890028
14926KSTC STC20170412091510504/12/17 09:15:31  5-MIN KSTC 121515Z VRB06KT 10SM FEW085 09/02 A3022 750 63 200 VRB/06 RMK AO2 T00890022
14926KSTC STC20170412092010204/12/17 09:20:31  5-MIN KSTC 121520Z 10007KT 10SM CLR 09/03 A3022 750 65 200 100/07 RMK AO2 T00890028
14926KSTC STC20170412092510204/12/17 09:25:31  5-MIN KSTC 121525Z 10005KT 10SM CLR 09/03 A3022 750 65 200 100/05 RMK AO2 T00890028
14926KSTC STC20170412093010204/12/17 09:30:31  5-MIN KSTC 121530Z 11004KT 10SM CLR 09/03 A3022 750 63 300 110/04 RMK AO2 T00940028
14926KSTC STC20170412093510204/12/17 09:35:31  5-MIN KSTC 121535Z 11006KT 10SM CLR 09/03 A3022 750 63 300 110/06 RMK AO2 T00940028
14926KSTC STC20170412094010204/12/17 09:40:31  5-MIN KSTC 121540Z 11008KT 10SM CLR 09/03 A3022 750 63 300 110/08 RMK AO2 T00940028
14926KSTC STC20170412094510204/12/17 09:45:31  5-MIN KSTC 121545Z 11006KT 10SM CLR 09/02 A3022 750 60 300 110/06 RMK AO2 T00940022
14926KSTC STC20170412095010904/12/17 09:50:31  5-MIN KSTC 121550Z 13005KT 10SM CLR 10/03 A3022 750 60 400 120/05 RMK AO2 SLP249 T01000028
14926KSTC STC20170412095510204/12/17 09:55:31  5-MIN KSTC 121555Z 10007KT 10SM CLR 10/03 A3022 750 60 400 100/07 RMK AO2 T01000028
14926KSTC STC20170412100010204/12/17 10:00:31  5-MIN KSTC 121600Z 10006KT 10SM CLR 10/03 A3022 750 60 400 100/06 RMK AO2 T01000028
14926KSTC STC20170412100510204/12/17 10:05:31  5-MIN KSTC 121605Z 12006KT 10SM CLR 10/03 A3022 750 60 400 120/06 RMK AO2 T01000028
14926KSTC STC20170412101010204/12/17 10:10:31  5-MIN KSTC 121610Z 12007KT 10SM CLR 10/02 A3022 750 58 400 120/07 RMK AO2 T01000022
14926KSTC STC20170412101510204/12/17 10:15:31  5-MIN KSTC 121615Z 12006KT 10SM CLR 11/03 A3022 750 58 400 120/06 RMK AO2 T01060028
14926KSTC STC20170412102010204/12/17 10:20:31  5-MIN KSTC 121620Z 13006KT 10SM CLR 11/03 A3022 750 56 500 120/06 RMK AO2 T01110028
14926KSTC STC20170412102510204/12/17 10:25:31  5-MIN KSTC 121625Z 11006KT 10SM CLR 11/02 A3023 750 54 500 110/06 RMK AO2 T01110022
14926KSTC STC20170412103010204/12/17 10:30:31  5-MIN KSTC 121630Z 12008KT 10SM CLR 11/02 A3022 750 54 500 120/08 RMK AO2 T01110022
14926KSTC STC20170412103510204/12/17 10:35:31  5-MIN KSTC 121635Z 13008KT 10SM CLR 12/02 A3022 750 52 600 130/08 RMK AO2 T01170022
14926KSTC STC20170412104010204/12/17 10:40:31  5-MIN KSTC 121640Z 12008KT 10SM CLR 12/02 A3022 750 52 600 120/08 RMK AO2 T01170022
14926KSTC STC20170412104510204/12/17 10:45:31  5-MIN KSTC 121645Z 14010KT 10SM CLR 12/02 A3022 750 50 600 140/10 RMK AO2 T01220022
14926KSTC STC20170412105010904/12/17 10:50:31  5-MIN KSTC 121650Z 14009KT 10SM CLR 12/02 A3022 750 52 600 130/09 RMK AO2 SLP250 T01170022
14926KSTC STC20170412105510204/12/17 10:55:31  5-MIN KSTC 121655Z 13007KT 10SM CLR 12/02 A3022 750 50 600 130/07 RMK AO2 T01220022
14926KSTC STC20170412110010204/12/17 11:00:31  5-MIN KSTC 121700Z 12008KT 10SM CLR 12/02 A3022 750 50 600 110/08 RMK AO2 T01220022
14926KSTC STC20170412110510204/12/17 11:05:31  5-MIN KSTC 121705Z 11009KT 10SM CLR 12/02 A3022 750 50 600 110/09 RMK AO2 T01220022
14926KSTC STC20170412111010204/12/17 11:10:31  5-MIN KSTC 121710Z 14008KT 10SM CLR 12/02 A3022 750 48 600 130/08 RMK AO2 T01220017
14926KSTC STC20170412111510204/12/17 11:15:31  5-MIN KSTC 121715Z 12009KT 10SM CLR 12/02 A3022 750 48 600 120/09 RMK AO2 T01220017
14926KSTC STC20170412112010204/12/17 11:20:31  5-MIN KSTC 121720Z 10007KT 10SM CLR 13/02 A3022 750 46 700 100/07 RMK AO2 T01280017
14926KSTC STC20170412112510204/12/17 11:25:31  5-MIN KSTC 121725Z 13009KT 10SM CLR 13/02 A3022 750 46 700 130/09 RMK AO2 T01280017
14926KSTC STC20170412113010504/12/17 11:30:31  5-MIN KSTC 121730Z VRB06KT 10SM FEW120 13/02 A3023 750 46 700 VRB/06 RMK AO2 T01280017
14926KSTC STC20170412113510504/12/17 11:35:31  5-MIN KSTC 121735Z 12007KT 10SM SCT120 13/02 A3023 740 46 700 120/07 RMK AO2 T01280017
14926KSTC STC20170412114010504/12/17 11:40:31  5-MIN KSTC 121740Z 15010KT 10SM SCT110 13/02 A3023 740 46 700 150/10 RMK AO2 T01280017
14926KSTC STC20170412114510504/12/17 11:45:31  5-MIN KSTC 121745Z 14010KT 10SM SCT110 13/02 A3023 740 45 800 140/10 RMK AO2 T01330017
14926KSTC STC20170412115013004/12/17 11:50:31  5-MIN KSTC 121750Z 15011KT 10SM FEW110 13/02 A3023 740 46 700 150/11 RMK AO2 SLP253 T01280017 10133 20044 50003
14926KSTC STC20170412115511204/12/17 11:55:31  5-MIN KSTC 121755Z 14009KT 10SM FEW090 SCT120 13/02 A3023 740 46 700 140/09 RMK AO2 T01280017
14926KSTC STC20170412120011204/12/17 12:00:31  5-MIN KSTC 121800Z 14010KT 10SM FEW090 BKN120 13/02 A3023 740 46 700 140/10 RMK AO2 T01280017
14926KSTC STC20170412120510504/12/17 12:05:31  5-MIN KSTC 121805Z 12009KT 10SM BKN120 13/02 A3023 740 46 700 120/09 RMK AO2 T01280017
14926KSTC STC20170412121010504/12/17 12:10:31  5-MIN KSTC 121810Z 13007KT 10SM SCT120 13/02 A3023 750 46 700 120/07 RMK AO2 T01280017
14926KSTC STC20170412121510504/12/17 12:15:31  5-MIN KSTC 121815Z 12008KT 10SM SCT120 13/02 A3022 750 46 700 120/08 RMK AO2 T01280017
14926KSTC STC20170412122010504/12/17 12:20:31  5-MIN KSTC 121820Z 14010KT 10SM SCT120 13/02 A3022 750 45 800 140/10 RMK AO2 T01330017
14926KSTC STC20170412122512104/12/17 12:25:31  5-MIN KSTC 121825Z 11008KT 080V150 10SM FEW120 13/02 A3022 750 45 800 110/08 080V150 RMK AO2 T01330017
14926KSTC STC20170412123010504/12/17 12:30:31  5-MIN KSTC 121830Z 12008KT 10SM FEW120 13/02 A3022 750 45 800 120/08 RMK AO2 T01330017
14926KSTC STC20170412123510504/12/17 12:35:31  5-MIN KSTC 121835Z 13008KT 10SM FEW120 13/02 A3022 750 45 800 120/08 RMK AO2 T01330017
14926KSTC STC20170412124010504/12/17 12:40:31  5-MIN KSTC 121840Z 12008KT 10SM FEW070 13/02 A3023 750 46 700 120/08 RMK AO2 T01280017
14926KSTC STC20170412124510504/12/17 12:45:31  5-MIN KSTC 121845Z 14009KT 10SM FEW070 13/02 A3023 740 46 700 140/09 RMK AO2 T01280017
14926KSTC STC20170412125011204/12/17 12:50:31  5-MIN KSTC 121850Z 13010KT 10SM FEW070 13/02 A3023 740 46 800 130/10 RMK AO2 SLP251 T01330022
14926KSTC STC20170412125511204/12/17 12:55:31  5-MIN KSTC 121855Z 12009KT 10SM FEW070 FEW110 13/02 A3023 740 48 700 120/09 RMK AO2 T01280022
14926KSTC STC20170412130011204/12/17 13:00:31  5-MIN KSTC 121900Z 14010KT 10SM FEW070 FEW110 13/02 A3023 740 48 700 140/10 RMK AO2 T01280022
14926KSTC STC20170412130511204/12/17 13:05:31  5-MIN KSTC 121905Z 15012KT 10SM FEW075 SCT110 13/02 A3024 730 48 700 150/12 RMK AO2 T01280022
14926KSTC STC20170412131011204/12/17 13:10:31  5-MIN KSTC 121910Z 15014KT 10SM FEW085 SCT110 12/03 A3023 740 52 600 150/14 RMK AO2 T01220028
14926KSTC STC20170412131511204/12/17 13:15:31  5-MIN KSTC 121915Z 14011KT 10SM FEW090 BKN110 12/03 A3024 730 54 600 140/11 RMK AO2 T01220033
14926KSTC STC20170412132011204/12/17 13:20:31  5-MIN KSTC 121920Z 14009KT 10SM FEW090 BKN110 12/03 A3024 730 54 600 140/09 RMK AO2 T01220033
14926KSTC STC20170412132511204/12/17 13:25:31  5-MIN KSTC 121925Z 15009KT 10SM FEW090 BKN110 12/03 A3024 730 54 600 150/09 RMK AO2 T01220033
14926KSTC STC20170412133011204/12/17 13:30:31  5-MIN KSTC 121930Z 15010KT 10SM FEW090 OVC110 12/04 A3024 730 56 600 150/10 RMK AO2 T01220039
14926KSTC STC20170412133510504/12/17 13:35:31  5-MIN KSTC 121935Z 16009KT 10SM OVC110 12/04 A3024 730 58 500 160/09 RMK AO2 T01170039
14926KSTC STC20170412134010504/12/17 13:40:31  5-MIN KSTC 121940Z 17010KT 10SM BKN110 12/03 A3024 730 56 500 170/10 RMK AO2 T01170033
14926KSTC STC20170412134510504/12/17 13:45:31  5-MIN KSTC 121945Z 17009KT 10SM BKN110 12/03 A3025 730 56 500 170/09 RMK AO2 T01170033
14926KSTC STC20170412135011204/12/17 13:50:31  5-MIN KSTC 121950Z 17009KT 10SM BKN110 12/03 A3025 730 56 500 160/09 RMK AO2 SLP259 T01170033
14926KSTC STC20170412135510504/12/17 13:55:31  5-MIN KSTC 121955Z VRB06KT 10SM BKN110 12/03 A3025 730 56 500 VRB/06 RMK AO2 T01170033
14926KSTC STC20170412140010504/12/17 14:00:31  5-MIN KSTC 122000Z 16008KT 10SM BKN110 11/03 A3024 730 58 500 160/08 RMK AO2 T01110033
14926KSTC STC20170412140510504/12/17 14:05:31  5-MIN KSTC 122005Z 17010KT 10SM BKN110 11/03 A3025 730 58 500 170/10 RMK AO2 T01110033
14926KSTC STC20170412141010504/12/17 14:10:31  5-MIN KSTC 122010Z 17011KT 10SM BKN110 11/03 A3025 730 58 500 170/11 RMK AO2 T01110033
14926KSTC STC20170412141510504/12/17 14:15:31  5-MIN KSTC 122015Z 17010KT 10SM OVC100 11/03 A3024 730 58 500 170/10 RMK AO2 T01110033
14926KSTC STC20170412142011204/12/17 14:20:31  5-MIN KSTC 122020Z 17008KT 10SM BKN100 OVC110 11/03 A3024 730 58 500 160/08 RMK AO2 T01110033
14926KSTC STC20170412142511904/12/17 14:25:31  5-MIN KSTC 122025Z 16008KT 10SM FEW070 BKN095 OVC110 11/04 A3024 740 61 500 160/08 RMK AO2 T01110039
14926KSTC STC20170412143011204/12/17 14:30:31  5-MIN KSTC 122030Z 14007KT 10SM BKN080 OVC100 11/04 A3023 740 61 500 140/07 RMK AO2 T01110039
14926KSTC STC20170412143511204/12/17 14:35:31  5-MIN KSTC 122035Z 13005KT 10SM BKN080 OVC100 11/04 A3023 740 63 400 130/05 RMK AO2 T01060039
14926KSTC STC20170412144011204/12/17 14:40:31  5-MIN KSTC 122040Z VRB04KT 10SM BKN080 OVC095 11/04 A3023 740 63 500 VRB/04 RMK AO2 T01110044
14926KSTC STC20170412144510504/12/17 14:45:31  5-MIN KSTC 122045Z 13006KT 10SM OVC080 11/04 A3022 750 63 400 130/06 RMK AO2 T01060039
14926KSTC STC20170412145011804/12/17 14:50:31  5-MIN KSTC 122050Z 13007KT 10SM OVC080 11/04 A3022 750 63 400 130/07 RMK AO2 SLP251 T01060039 53004
14926KSTC STC20170412145510504/12/17 14:55:31  5-MIN KSTC 122055Z 14006KT 10SM OVC080 11/04 A3023 740 63 500 140/06 RMK AO2 T01110044
14926KSTC STC20170412150010504/12/17 15:00:31  5-MIN KSTC 122100Z 12003KT 10SM OVC075 11/04 A3022 750 63 400 120/03 RMK AO2 T01060039
14926KSTC STC20170412150510504/12/17 15:05:31  5-MIN KSTC 122105Z 13007KT 10SM OVC075 11/04 A3021 760 63 400 130/07 RMK AO2 T01060039
14926KSTC STC20170412151010504/12/17 15:10:31  5-MIN KSTC 122110Z 14010KT 10SM OVC070 11/04 A3021 760 61 500 140/10 RMK AO2 T01110039
14926KSTC STC20170412151510504/12/17 15:15:31  5-MIN KSTC 122115Z 12008KT 10SM OVC070 11/04 A3021 760 63 500 120/08 RMK AO2 T01110044
14926KSTC STC20170412152010504/12/17 15:20:31  5-MIN KSTC 122120Z 11006KT 10SM OVC070 11/04 A3021 760 63 400 110/06 RMK AO2 T01060039
14926KSTC STC20170412152510504/12/17 15:25:31  5-MIN KSTC 122125Z 10005KT 10SM OVC070 11/04 A3022 750 66 400 100/05 RMK AO2 T01060044
14926KSTC STC20170412153010504/12/17 15:30:31  5-MIN KSTC 122130Z 12004KT 10SM OVC065 11/04 A3022 750 66 400 120/04 RMK AO2 T01060044
14926KSTC STC20170412153510504/12/17 15:35:31  5-MIN KSTC 122135Z 12004KT 10SM OVC065 11/04 A3022 750 66 400 110/04 RMK AO2 T01060044
14926KSTC STC20170412154010504/12/17 15:40:31  5-MIN KSTC 122140Z 14006KT 10SM OVC065 11/05 A3022 750 68 400 140/06 RMK AO2 T01060050
14926KSTC STC20170412154512104/12/17 15:45:31  5-MIN KSTC 122145Z 14005KT 10SM -RA OVC060 11/05 A3023 740 68 400 140/05 RMK AO2 RAB41 P0000 T01060050
14926KSTC STC20170412155012804/12/17 15:50:31  5-MIN KSTC 122150Z 15007KT 10SM -RA OVC060 11/06 A3023 740 71 400 150/07 RMK AO2 RAB41 SLP254 P0000 T01060056
14926KSTC STC20170412155511504/12/17 15:55:31  5-MIN KSTC 122155Z 16006KT 10SM -RA OVC055 10/06 A3024 740 74 400 160/06 RMK AO2 P0000 T01000056
14926KSTC STC20170412160011504/12/17 16:00:31  5-MIN KSTC 122200Z 17006KT 10SM -RA OVC060 10/06 A3024 730 74 300 170/06 RMK AO2 P0000 T01000056
14926KSTC STC20170412160511504/12/17 16:05:31  5-MIN KSTC 122205Z 16008KT 10SM -RA OVC060 10/06 A3024 730 77 300 160/08 RMK AO2 P0000 T01000061
14926KSTC STC20170412161011404/12/17 16:10:31  5-MIN KSTC 122210Z 17007KT 9SM -RA OVC055 10/07 A3025 720 80 300 170/07 RMK AO2 P0000 T01000067
14926KSTC STC20170412161512104/12/17 16:15:31  5-MIN KSTC 122215Z 17008KT 7SM -RA BKN050 OVC060 09/07 A3025 720 83 300 170/08 RMK AO2 P0000 T00940067
14926KSTC STC20170412162012104/12/17 16:20:31  5-MIN KSTC 122220Z 18007KT 5SM -RA BKN048 OVC060 09/07 A3025 720 83 300 180/07 RMK AO2 P0001 T00940067
14926KSTC STC20170412162512404/12/17 16:25:31  5-MIN KSTC 122225Z 18006KT 4SM -RA BR BKN046 OVC060 09/07 A3025 720 86 300 170/06 RMK AO2 P0001 T00940072
14926KSTC STC20170412163012404/12/17 16:30:31  5-MIN KSTC 122230Z 17007KT 5SM -RA BR BKN046 OVC055 09/07 A3025 720 89 200 170/07 RMK AO2 P0002 T00890072
14926KSTC STC20170412163512404/12/17 16:35:31  5-MIN KSTC 122235Z 16006KT 5SM -RA BR BKN046 OVC060 09/08 A3025 730 93 200 160/06 RMK AO2 P0002 T00890078
14926KSTC STC20170412164012404/12/17 16:40:31  5-MIN KSTC 122240Z 16006KT 6SM -RA BR BKN046 OVC060 09/08 A3024 730 93 200 160/06 RMK AO2 P0002 T00890078
14926KSTC STC20170412164512404/12/17 16:45:31  5-MIN KSTC 122245Z 16006KT 6SM -RA BR SCT046 OVC060 09/07 A3024 730 89 200 160/06 RMK AO2 P0003 T00890072
14926KSTC STC20170412165013104/12/17 16:50:31  5-MIN KSTC 122250Z 14007KT 6SM -RA BR SCT048 OVC060 09/08 A3024 730 93 200 140/07 RMK AO2 SLP256 P0003 T00890078
14926KSTC STC20170412165511404/12/17 16:55:31  5-MIN KSTC 122255Z 14007KT 7SM -RA OVC060 09/08 A3024 730 93 200 140/07 RMK AO2 P0000 T00890078
14926KSTC STC20170412170011404/12/17 17:00:31  5-MIN KSTC 122300Z 14007KT 7SM -RA OVC060 09/08 A3024 730 93 200 140/07 RMK AO2 P0000 T00890078
14926KSTC STC20170412170511404/12/17 17:05:31  5-MIN KSTC 122305Z 15007KT 7SM -RA OVC060 09/08 A3024 730 93 200 150/07 RMK AO2 P0000 T00890078
14926KSTC STC20170413091510204/13/17 09:15:31  5-MIN KSTC 131515Z 09007KT 7SM OVC007 08/07 A3032 660 96 0 090/07 RMK AO2 T00780072
14926KSTC STC20170413092010204/13/17 09:20:31  5-MIN KSTC 131520Z 08005KT 7SM OVC007 08/07 A3032 660 96 0 080/05 RMK AO2 T00780072
14926KSTC STC20170413092510204/13/17 09:25:31  5-MIN KSTC 131525Z 08007KT 8SM OVC007 08/07 A3032 660 96 0 080/07 RMK AO2 T00780072
14926KSTC STC20170413093010404/13/17 09:30:31  5-MIN KSTC 131530Z 09008KT 8SM OVC007 08/07 A3032 660 93 100 080/08 RMK AO2 T00830072
14926KSTC STC20170413093510204/13/17 09:35:31  5-MIN KSTC 131535Z 09006KT 8SM OVC007 08/07 A3032 660 93 0 090/06 RMK AO2 T00780067
14926KSTC STC20170413094010404/13/17 09:40:31  5-MIN KSTC 131540Z 08005KT 8SM OVC007 08/07 A3032 660 93 100 080/05 RMK AO2 T00830072
14926KSTC STC20170413094510404/13/17 09:45:31  5-MIN KSTC 131545Z 08006KT 8SM OVC008 08/07 A3032 660 93 100 080/06 RMK AO2 T00830072
14926KSTC STC20170413095011104/13/17 09:50:31  5-MIN KSTC 131550Z 08007KT 8SM OVC008 08/07 A3032 660 93 100 080/07 RMK AO2 SLP281 T00830072
14926KSTC STC20170413095510404/13/17 09:55:31  5-MIN KSTC 131555Z 08006KT 8SM OVC008 08/07 A3032 660 93 100 080/06 RMK AO2 T00830072
14926KSTC STC20170413100010404/13/17 10:00:31  5-MIN KSTC 131600Z 06006KT 8SM OVC008 09/07 A3032 660 89 100 060/06 RMK AO2 T00890072
14926KSTC STC20170413100510404/13/17 10:05:31  5-MIN KSTC 131605Z 06006KT 8SM OVC008 09/07 A3032 660 89 100 060/06 RMK AO2 T00890072
14926KSTC STC20170413101010404/13/17 10:10:31  5-MIN KSTC 131610Z 06007KT 8SM OVC008 09/07 A3032 660 89 100 060/07 RMK AO2 T00890072
14926KSTC STC20170413101511104/13/17 10:15:31  5-MIN KSTC 131615Z 05006KT 8SM BKN008 OVC018 09/07 A3031 660 89 100 050/06 RMK AO2 T00890072
14926KSTC STC20170413102011104/13/17 10:20:31  5-MIN KSTC 131620Z 07005KT 8SM BKN008 OVC018 09/08 A3032 660 89 200 070/05 RMK AO2 T00940078
14926KSTC STC20170413102510404/13/17 10:25:31  5-MIN KSTC 131625Z 05007KT 8SM OVC008 09/08 A3032 660 89 200 050/07 RMK AO2 T00940078
14926KSTC STC20170413103011604/13/17 10:30:31  5-MIN KSTC 131630Z 08007KT 8SM OVC008 09/07 A3032 660 89 100 080/07 RMK AO2 CIG 008V012 T00890072
14926KSTC STC20170413103511604/13/17 10:35:31  5-MIN KSTC 131635Z 07008KT 8SM OVC009 09/08 A3032 660 89 200 070/08 RMK AO2 CIG 008V012 T00940078
14926KSTC STC20170413104011604/13/17 10:40:31  5-MIN KSTC 131640Z 08006KT 8SM OVC009 09/08 A3032 660 89 200 080/06 RMK AO2 CIG 008V012 T00940078
14926KSTC STC20170413104511604/13/17 10:45:31  5-MIN KSTC 131645Z 08008KT 8SM OVC009 09/07 A3032 660 89 100 070/08 RMK AO2 CIG 008V012 T00890072
14926KSTC STC20170413105011104/13/17 10:50:31  5-MIN KSTC 131650Z 05007KT 8SM OVC009 09/07 A3032 660 86 200 040/07 RMK AO2 SLP282 T00940072
14926KSTC STC20170413105510404/13/17 10:55:31  5-MIN KSTC 131655Z 06008KT 8SM OVC009 09/08 A3032 660 89 200 060/08 RMK AO2 T00940078
14926KSTC STC20170413110010404/13/17 11:00:31  5-MIN KSTC 131700Z 09007KT 8SM OVC009 09/07 A3031 660 86 200 090/07 RMK AO2 T00940072
14926KSTC STC20170413110510404/13/17 11:05:31  5-MIN KSTC 131705Z 09008KT 8SM OVC009 09/07 A3031 670 86 200 090/08 RMK AO2 T00940072
14926KSTC STC20170413111012004/13/17 11:10:31  5-MIN KSTC 131710Z 10007KT 070V130 8SM OVC009 09/08 A3031 660 89 200 100/07 070V130 RMK AO2 T00940078
14926KSTC STC20170413111510404/13/17 11:15:31  5-MIN KSTC 131715Z 06009KT 8SM OVC009 09/08 A3031 670 89 200 060/09 RMK AO2 T00940078
14926KSTC STC20170413112011604/13/17 11:20:31  5-MIN KSTC 131720Z 06009KT 8SM OVC009 09/08 A3031 670 89 200 060/09 RMK AO2 CIG 008V013 T00940078
14926KSTC STC20170413112513204/13/17 11:25:31  5-MIN KSTC 131725Z 08007KT 050V110 8SM OVC009 09/08 A3031 670 89 200 080/07 050V110 RMK AO2 CIG 008V013 T00940078
14926KSTC STC20170413113011604/13/17 11:30:31  5-MIN KSTC 131730Z 07007KT 8SM OVC009 09/08 A3031 670 89 200 070/07 RMK AO2 CIG 008V013 T00940078
14926KSTC STC20170413113510404/13/17 11:35:31  5-MIN KSTC 131735Z 06008KT 8SM OVC009 09/08 A3031 670 93 100 060/08 RMK AO2 T00890078
14926KSTC STC20170413114010404/13/17 11:40:31  5-MIN KSTC 131740Z 07007KT 8SM OVC009 09/08 A3031 670 89 200 070/07 RMK AO2 T00940078
14926KSTC STC20170413114510404/13/17 11:45:31  5-MIN KSTC 131745Z 08009KT 8SM OVC009 09/08 A3031 670 89 200 070/09 RMK AO2 T00940078
14926KSTC STC20170413115012904/13/17 11:50:31  5-MIN KSTC 131750Z 10006KT 8SM OVC009 09/08 A3030 670 89 200 100/06 RMK AO2 SLP277 T00940078 10094 20072 51002
14926KSTC STC20170413115510404/13/17 11:55:31  5-MIN KSTC 131755Z 07008KT 8SM OVC009 09/08 A3030 680 89 200 070/08 RMK AO2 T00940078
14926KSTC STC20170413120010404/13/17 12:00:31  5-MIN KSTC 131800Z 07008KT 8SM OVC009 09/08 A3030 680 89 200 070/08 RMK AO2 T00940078
14926KSTC STC20170413120510404/13/17 12:05:31  5-MIN KSTC 131805Z 06008KT 8SM OVC009 09/07 A3030 680 86 200 060/08 RMK AO2 T00940072
14926KSTC STC20170413121010404/13/17 12:10:31  5-MIN KSTC 131810Z 08005KT 8SM OVC009 10/08 A3030 680 86 300 080/05 RMK AO2 T01000078
14926KSTC STC20170413121510404/13/17 12:15:31  5-MIN KSTC 131815Z 06008KT 8SM OVC009 10/08 A3030 680 86 300 060/08 RMK AO2 T01000078
14926KSTC STC20170413122010404/13/17 12:20:31  5-MIN KSTC 131820Z 09006KT 8SM OVC010 10/08 A3030 680 86 300 090/06 RMK AO2 T01000078
14926KSTC STC20170413122511604/13/17 12:25:31  5-MIN KSTC 131825Z 07008KT 9SM OVC010 10/08 A3030 680 86 300 070/08 RMK AO2 CIG 009V014 T01000078
14926KSTC STC20170413123011604/13/17 12:30:31  5-MIN KSTC 131830Z 07006KT 9SM OVC010 10/08 A3029 680 86 300 070/06 RMK AO2 CIG 009V013 T01000078
14926KSTC STC20170413123510404/13/17 12:35:31  5-MIN KSTC 131835Z 08006KT 9SM OVC012 10/08 A3030 680 86 300 080/06 RMK AO2 T01000078
14926KSTC STC20170413124010404/13/17 12:40:31  5-MIN KSTC 131840Z 10010KT 9SM OVC012 10/08 A3029 680 86 300 100/10 RMK AO2 T01000078
14926KSTC STC20170413124510504/13/17 12:45:31  5-MIN KSTC 131845Z 09007KT 10SM OVC012 10/07 A3029 680 83 300 090/07 RMK AO2 T01000072
14926KSTC STC20170413125011204/13/17 12:50:31  5-MIN KSTC 131850Z 08007KT 10SM OVC012 10/07 A3029 690 83 300 080/07 RMK AO2 SLP272 T01000072
14926KSTC STC20170413125510504/13/17 12:55:31  5-MIN KSTC 131855Z 07005KT 10SM OVC012 10/07 A3029 690 83 300 070/05 RMK AO2 T01000072
14926KSTC STC20170413130010504/13/17 13:00:31  5-MIN KSTC 131900Z 09006KT 10SM OVC013 10/08 A3029 680 86 300 090/06 RMK AO2 T01000078
14926KSTC STC20170413130510504/13/17 13:05:31  5-MIN KSTC 131905Z 09008KT 10SM OVC013 10/07 A3029 680 83 300 090/08 RMK AO2 T01000072
14926KSTC STC20170413131010504/13/17 13:10:31  5-MIN KSTC 131910Z 10008KT 10SM OVC013 10/07 A3029 690 83 300 100/08 RMK AO2 T01000072
14926KSTC STC20170413131510504/13/17 13:15:31  5-MIN KSTC 131915Z 08008KT 10SM OVC013 10/07 A3029 680 83 300 080/08 RMK AO2 T01000072
14926KSTC STC20170413132010504/13/17 13:20:31  5-MIN KSTC 131920Z 08009KT 10SM OVC014 10/07 A3029 680 83 300 080/09 RMK AO2 T01000072
14926KSTC STC20170413132510504/13/17 13:25:31  5-MIN KSTC 131925Z 07007KT 10SM OVC014 10/07 A3029 680 83 300 070/07 RMK AO2 T01000072
14926KSTC STC20170413133010504/13/17 13:30:31  5-MIN KSTC 131930Z 06007KT 10SM OVC014 10/07 A3029 690 83 300 060/07 RMK AO2 T01000072
14926KSTC STC20170413133510504/13/17 13:35:31  5-MIN KSTC 131935Z 08006KT 10SM OVC014 10/07 A3029 690 83 300 080/06 RMK AO2 T01000072
14926KSTC STC20170413134010504/13/17 13:40:31  5-MIN KSTC 131940Z 07008KT 10SM OVC014 10/08 A3029 680 86 300 070/08 RMK AO2 T01000078
14926KSTC STC20170413134510504/13/17 13:45:31  5-MIN KSTC 131945Z 06006KT 10SM OVC013 10/07 A3029 680 83 300 060/06 RMK AO2 T01000072
14926KSTC STC20170413135011104/13/17 13:50:31  5-MIN KSTC 131950Z VRB06KT 9SM OVC013 10/08 A3029 690 86 300 VRB/06 RMK AO2 SLP272 T01000078
14926KSTC STC20170413135510404/13/17 13:55:31  5-MIN KSTC 131955Z VRB06KT 9SM OVC013 10/08 A3029 690 86 300 VRB/06 RMK AO2 T01000078
14926KSTC STC20170413140010504/13/17 14:00:31  5-MIN KSTC 132000Z 06007KT 10SM OVC014 10/07 A3029 690 83 300 060/07 RMK AO2 T01000072
14926KSTC STC20170413140510404/13/17 14:05:31  5-MIN KSTC 132005Z 07008KT 9SM OVC014 10/07 A3028 690 83 300 070/08 RMK AO2 T01000072
14926KSTC STC20170413141010404/13/17 14:10:31  5-MIN KSTC 132010Z 07009KT 9SM OVC014 10/07 A3028 690 83 300 070/09 RMK AO2 T01000072
14926KSTC STC20170413141510404/13/17 14:15:31  5-MIN KSTC 132015Z 08009KT 9SM OVC014 10/07 A3028 690 83 300 080/09 RMK AO2 T01000072
14926KSTC STC20170413142010404/13/17 14:20:31  5-MIN KSTC 132020Z 10006KT 9SM OVC014 10/07 A3028 690 83 300 090/06 RMK AO2 T01000072
14926KSTC STC20170413142510404/13/17 14:25:31  5-MIN KSTC 132025Z 09008KT 9SM OVC014 10/08 A3028 690 86 300 090/08 RMK AO2 T01000078
14926KSTC STC20170413143010404/13/17 14:30:31  5-MIN KSTC 132030Z 08006KT 9SM OVC014 10/08 A3028 690 86 300 080/06 RMK AO2 T01000078
14926KSTC STC20170413143510404/13/17 14:35:31  5-MIN KSTC 132035Z 08008KT 8SM OVC014 10/07 A3028 690 83 300 080/08 RMK AO2 T01000072
14926KSTC STC20170413144010404/13/17 14:40:31  5-MIN KSTC 132040Z 07008KT 8SM OVC014 10/07 A3028 700 83 300 070/08 RMK AO2 T01000072
14926KSTC STC20170413144510404/13/17 14:45:31  5-MIN KSTC 132045Z 08008KT 9SM OVC014 10/07 A3028 700 83 300 080/08 RMK AO2 T01000072
14926KSTC STC20170413145009504/13/17 14:50:31  5-MIN KSTC 132050Z 08008KT 10SM OVC016 10/07 A3028 700 83 300 080/08 RMK AO2
14926KSTC STC20170413145510504/13/17 14:55:31  5-MIN KSTC 132055Z 08008KT 10SM OVC016 10/07 A3028 700 83 300 080/08 RMK AO2 T01000072
14926KSTC STC20170413150010504/13/17 15:00:31  5-MIN KSTC 132100Z 08007KT 10SM OVC016 10/07 A3028 700 83 300 080/07 RMK AO2 T01000072
14926KSTC STC20170413150510504/13/17 15:05:31  5-MIN KSTC 132105Z 10008KT 10SM OVC014 10/07 A3027 700 83 300 090/08 RMK AO2 T01000072
14926KSTC STC20170413151010504/13/17 15:10:31  5-MIN KSTC 132110Z 10008KT 10SM OVC016 10/07 A3027 700 83 300 100/08 RMK AO2 T01000072
14926KSTC STC20170413151510504/13/17 15:15:31  5-MIN KSTC 132115Z 08007KT 10SM OVC016 10/07 A3027 710 83 300 080/07 RMK AO2 T01000072
14926KSTC STC20170413152010504/13/17 15:20:31  5-MIN KSTC 132120Z 08008KT 10SM OVC014 09/07 A3027 710 86 300 080/08 RMK AO2 T00940072
14926KSTC STC20170413152510504/13/17 15:25:31  5-MIN KSTC 132125Z 09007KT 10SM OVC014 10/07 A3026 710 83 300 090/07 RMK AO2 T01000072
14926KSTC STC20170413153010504/13/17 15:30:31  5-MIN KSTC 132130Z 07008KT 10SM OVC014 10/07 A3026 710 83 300 070/08 RMK AO2 T01000072
14926KSTC STC20170413153510504/13/17 15:35:31  5-MIN KSTC 132135Z 08007KT 10SM OVC014 10/07 A3026 710 83 300 080/07 RMK AO2 T01000072
14926KSTC STC20170413154010504/13/17 15:40:31  5-MIN KSTC 132140Z 09006KT 10SM OVC015 10/07 A3026 710 83 300 090/06 RMK AO2 T01000072
14926KSTC STC20170413154510504/13/17 15:45:31  5-MIN KSTC 132145Z 10006KT 10SM OVC015 10/07 A3026 710 83 300 100/06 RMK AO2 T01000072
14926KSTC STC20170413155011204/13/17 15:50:31  5-MIN KSTC 132150Z 08009KT 10SM OVC015 10/07 A3026 710 80 300 080/09 RMK AO2 SLP261 T01000067
14926KSTC STC20170413155510504/13/17 15:55:31  5-MIN KSTC 132155Z 09009KT 10SM OVC016 10/07 A3026 720 80 300 090/09 RMK AO2 T01000067
14926KSTC STC20170413160010504/13/17 16:00:31  5-MIN KSTC 132200Z 09007KT 10SM OVC016 10/07 A3026 720 80 300 080/07 RMK AO2 T01000067
14926KSTC STC20170413160510504/13/17 16:05:31  5-MIN KSTC 132205Z 09008KT 10SM OVC016 10/07 A3026 720 80 300 080/08 RMK AO2 T01000067
14926KSTC STC20170413161010504/13/17 16:10:31  5-MIN KSTC 132210Z 08009KT 10SM OVC016 10/07 A3025 720 80 300 080/09 RMK AO2 T01000067
14926KSTC STC20170413161510504/13/17 16:15:31  5-MIN KSTC 132215Z 09008KT 10SM OVC016 10/07 A3025 720 80 300 090/08 RMK AO2 T01000067
14926KSTC STC20170413162010504/13/17 16:20:31  5-MIN KSTC 132220Z 08007KT 10SM OVC016 10/07 A3025 720 80 300 080/07 RMK AO2 T01000067
14926KSTC STC20170413162510504/13/17 16:25:31  5-MIN KSTC 132225Z 08010KT 10SM OVC016 10/07 A3025 720 80 300 080/10 RMK AO2 T01000067
14926KSTC STC20170413163010504/13/17 16:30:31  5-MIN KSTC 132230Z 10007KT 10SM OVC016 10/07 A3025 720 80 300 100/07 RMK AO2 T01000067
14926KSTC STC20170413163510504/13/17 16:35:31  5-MIN KSTC 132235Z 08007KT 10SM OVC016 10/07 A3025 720 80 300 080/07 RMK AO2 T01000067
14926KSTC STC20170413164010504/13/17 16:40:31  5-MIN KSTC 132240Z 09008KT 10SM OVC016 10/07 A3025 720 83 300 090/08 RMK AO2 T01000072
14926KSTC STC20170413164510504/13/17 16:45:31  5-MIN KSTC 132245Z 10008KT 10SM OVC016 10/07 A3025 720 80 300 100/08 RMK AO2 T01000067
14926KSTC STC20170413165011204/13/17 16:50:31  5-MIN KSTC 132250Z 10007KT 10SM OVC016 10/07 A3025 720 80 300 100/07 RMK AO2 SLP258 T01000067
14926KSTC STC20170413165510504/13/17 16:55:31  5-MIN KSTC 132255Z 07005KT 10SM OVC016 10/07 A3025 730 80 300 070/05 RMK AO2 T01000067
14926KSTC STC20170413170010504/13/17 17:00:31  5-MIN KSTC 132300Z 06007KT 10SM OVC016 10/07 A3025 730 80 300 060/07 RMK AO2 T01000067
14926KSTC STC20170413170510504/13/17 17:05:31  5-MIN KSTC 132305Z 08008KT 10SM OVC016 10/07 A3025 730 80 300 080/08 RMK AO2 T01000067
14926KSTC STC20170413171010504/13/17 17:10:31  5-MIN KSTC 132310Z 09007KT 10SM OVC016 10/07 A3025 720 80 300 090/07 RMK AO2 T01000067
14926KSTC STC20170413171510504/13/17 17:15:31  5-MIN KSTC 132315Z 09005KT 10SM OVC016 10/07 A3025 730 83 300 090/05 RMK AO2 T01000072
14926KSTC STC20170413172010504/13/17 17:20:31  5-MIN KSTC 132320Z 07006KT 10SM OVC016 10/07 A3025 730 83 300 070/06 RMK AO2 T01000072
14926KSTC STC20170413172510504/13/17 17:25:31  5-MIN KSTC 132325Z 10010KT 10SM OVC016 10/07 A3024 730 80 300 100/10 RMK AO2 T01000067
14926KSTC STC20170413173010504/13/17 17:30:31  5-MIN KSTC 132330Z 08009KT 10SM OVC016 10/07 A3024 730 80 300 080/09 RMK AO2 T01000067
14926KSTC STC20170413173510504/13/17 17:35:31  5-MIN KSTC 132335Z 09010KT 10SM OVC016 10/07 A3024 730 80 300 090/10 RMK AO2 T01000067
14926KSTC STC20170413174010504/13/17 17:40:31  5-MIN KSTC 132340Z 08008KT 10SM OVC016 10/07 A3024 730 80 300 080/08 RMK AO2 T01000067
14926KSTC STC20170413174510504/13/17 17:45:31  5-MIN KSTC 132345Z 09007KT 10SM OVC016 10/07 A3024 730 80 300 090/07 RMK AO2 T01000067
14926KSTC STC20170413175013004/13/17 17:50:31  5-MIN KSTC 132350Z 09008KT 10SM OVC016 10/07 A3024 730 80 300 090/08 RMK AO2 SLP255 T01000067 10100 20094 57008
14926KSTC STC20170413175510504/13/17 17:55:31  5-MIN KSTC 132355Z 10007KT 10SM OVC016 10/07 A3024 730 80 300 100/07 RMK AO2 T01000067
14926KSTC STC20170413180012104/13/17 18:00:31  5-MIN KSTC 140000Z 10009KT 070V130 10SM OVC016 10/07 A3024 730 80 300 100/09 070V130 RMK AO2 T01000067
14926KSTC STC20170413180510504/13/17 18:05:31  5-MIN KSTC 140005Z 09009KT 10SM OVC016 10/07 A3024 730 80 300 080/09 RMK AO2 T01000067
14926KSTC STC20170413181010504/13/17 18:10:31  5-MIN KSTC 140010Z 11007KT 10SM OVC016 10/07 A3024 730 80 300 110/07 RMK AO2 T01000067
14926KSTC STC20170413181510504/13/17 18:15:31  5-MIN KSTC 140015Z 11008KT 10SM OVC016 09/07 A3024 730 83 300 110/08 RMK AO2 T00940067
14926KSTC STC20170413182010504/13/17 18:20:31  5-MIN KSTC 140020Z 12008KT 10SM OVC016 09/07 A3024 730 83 300 120/08 RMK AO2 T00940067
14926KSTC STC20170413182510504/13/17 18:25:31  5-MIN KSTC 140025Z 09009KT 10SM OVC016 09/07 A3024 730 83 300 090/09 RMK AO2 T00940067
14926KSTC STC20170413183010504/13/17 18:30:31  5-MIN KSTC 140030Z 10006KT 10SM OVC016 09/07 A3024 730 83 300 100/06 RMK AO2 T00940067
14926KSTC STC20170413183510504/13/17 18:35:31  5-MIN KSTC 140035Z 12008KT 10SM OVC016 09/07 A3024 730 83 300 120/08 RMK AO2 T00940067
14926KSTC STC20170413184010504/13/17 18:40:31  5-MIN KSTC 140040Z 10007KT 10SM OVC016 09/07 A3024 730 83 300 100/07 RMK AO2 T00940067
14926KSTC STC20170413184510504/13/17 18:45:31  5-MIN KSTC 140045Z 10009KT 10SM OVC016 09/07 A3024 730 83 300 100/09 RMK AO2 T00940067
14926KSTC STC20170413185011204/13/17 18:50:31  5-MIN KSTC 140050Z 10006KT 10SM OVC016 09/07 A3024 730 83 300 100/06 RMK AO2 SLP256 T00940067
14926KSTC STC20170413185511104/13/17 18:55:31  5-MIN KSTC 140055Z 10009G14KT 10SM OVC016 09/07 A3024 730 83 300 100/09G14 RMK AO2 T00940067
14926KSTC STC20170413190011104/13/17 19:00:31  5-MIN KSTC 140100Z 11007G14KT 10SM OVC015 09/07 A3024 730 83 300 110/07G14 RMK AO2 T00940067
14926KSTC STC20170413190510504/13/17 19:05:31  5-MIN KSTC 140105Z 11008KT 10SM OVC015 09/07 A3024 730 83 300 110/08 RMK AO2 T00940067
14926KSTC STC20170413191011104/13/17 19:10:31  5-MIN KSTC 140110Z 12008G15KT 10SM OVC015 09/07 A3024 730 83 300 120/08G15 RMK AO2 T00940067
14926KSTC STC20170413191511104/13/17 19:15:31  5-MIN KSTC 140115Z 12007G15KT 10SM OVC015 09/07 A3024 730 86 300 110/07G15 RMK AO2 T00940072
14926KSTC STC20170413192010504/13/17 19:20:31  5-MIN KSTC 140120Z 12007KT 10SM OVC015 09/07 A3024 730 86 300 120/07 RMK AO2 T00940072
14926KSTC STC20170413192510504/13/17 19:25:31  5-MIN KSTC 140125Z 12006KT 10SM OVC017 09/07 A3024 730 86 300 110/06 RMK AO2 T00940072
14926KSTC STC20170413193010504/13/17 19:30:31  5-MIN KSTC 140130Z 11007KT 10SM OVC017 09/07 A3024 730 86 300 110/07 RMK AO2 T00940072
14926KSTC STC20170413193510504/13/17 19:35:31  5-MIN KSTC 140135Z 11005KT 10SM OVC017 09/07 A3024 730 86 300 110/05 RMK AO2 T00940072
14926KSTC STC20170413194010504/13/17 19:40:31  5-MIN KSTC 140140Z 11006KT 10SM OVC017 09/07 A3024 730 86 300 110/06 RMK AO2 T00940072
14926KSTC STC20170413194510504/13/17 19:45:31  5-MIN KSTC 140145Z 11005KT 10SM OVC017 09/07 A3024 730 86 300 110/05 RMK AO2 T00940072
14926KSTC STC20170413195011204/13/17 19:50:31  5-MIN KSTC 140150Z 10005KT 10SM OVC017 09/07 A3024 730 86 300 100/05 RMK AO2 SLP254 T00940072
14926KSTC STC20170413195510504/13/17 19:55:31  5-MIN KSTC 140155Z 10007KT 10SM OVC017 09/07 A3024 730 86 300 100/07 RMK AO2 T00940072
14926KSTC STC20170413200010504/13/17 20:00:31  5-MIN KSTC 140200Z 12011KT 10SM OVC017 09/07 A3024 730 86 300 120/11 RMK AO2 T00940072
14926KSTC STC20170413200511104/13/17 20:05:31  5-MIN KSTC 140205Z 12012G17KT 10SM OVC016 09/07 A3023 740 83 300 120/12G17 RMK AO2 T00940067
14926KSTC STC20170413201010504/13/17 20:10:31  5-MIN KSTC 140210Z 13013KT 10SM OVC016 09/07 A3024 740 83 300 120/13 RMK AO2 T00940067
14926KSTC STC20170413201511104/13/17 20:15:31  5-MIN KSTC 140215Z 13010G18KT 10SM OVC016 09/07 A3024 740 83 300 130/10G18 RMK AO2 T00940067
14926KSTC STC20170413202011104/13/17 20:20:31  5-MIN KSTC 140220Z 13009G18KT 10SM OVC016 09/07 A3024 740 83 300 130/09G18 RMK AO2 T00940067
14926KSTC STC20170413202510504/13/17 20:25:31  5-MIN KSTC 140225Z 12009KT 10SM OVC016 09/07 A3024 740 83 300 120/09 RMK AO2 T00940067
14926KSTC STC20170413203010504/13/17 20:30:31  5-MIN KSTC 140230Z 11007KT 10SM OVC016 09/07 A3023 740 83 300 110/07 RMK AO2 T00940067
14926KSTC STC20170413203510504/13/17 20:35:31  5-MIN KSTC 140235Z 12009KT 10SM OVC016 09/07 A3023 740 83 300 120/09 RMK AO2 T00940067
14926KSTC STC20170413204010504/13/17 20:40:31  5-MIN KSTC 140240Z 11008KT 10SM OVC016 09/07 A3023 750 83 300 110/08 RMK AO2 T00940067
14926KSTC STC20170413204511204/13/17 20:45:31  5-MIN KSTC 140245Z 10006KT 10SM BKN016 OVC020 09/07 A3022 750 83 300 100/06 RMK AO2 T00940067
14926KSTC STC20170413205011804/13/17 20:50:31  5-MIN KSTC 140250Z 11006KT 10SM OVC018 09/07 A3022 750 83 300 110/06 RMK AO2 SLP248 T00940067 56012
14926KSTC STC20170413205510504/13/17 20:55:31  5-MIN KSTC 140255Z 12006KT 10SM OVC018 09/07 A3022 750 83 300 120/06 RMK AO2 T00940067
14926KSTC STC20170413210011204/13/17 21:00:31  5-MIN KSTC 140300Z 12007KT 10SM SCT015 OVC020 09/07 A3022 750 83 300 120/07 RMK AO2 T00940067
14926KSTC STC20170413210510504/13/17 21:05:31  5-MIN KSTC 140305Z 12006KT 10SM OVC020 09/07 A3022 750 83 300 110/06 RMK AO2 T00940067
14926KSTC STC20170413211010504/13/17 21:10:31  5-MIN KSTC 140310Z 11007KT 10SM OVC020 09/07 A3022 750 83 300 110/07 RMK AO2 T00940067
14926KSTC STC20170413211510504/13/17 21:15:31  5-MIN KSTC 140315Z 11007KT 10SM OVC022 09/07 A3022 750 83 300 110/07 RMK AO2 T00940067
14926KSTC STC20170413212010504/13/17 21:20:31  5-MIN KSTC 140320Z 10007KT 10SM OVC022 09/07 A3021 760 83 300 100/07 RMK AO2 T00940067
14926KSTC STC20170413212510504/13/17 21:25:31  5-MIN KSTC 140325Z 09007KT 10SM OVC022 09/07 A3021 760 83 300 080/07 RMK AO2 T00940067
14926KSTC STC20170413213010504/13/17 21:30:31  5-MIN KSTC 140330Z 09006KT 10SM OVC024 09/07 A3021 760 83 300 090/06 RMK AO2 T00940067
14926KSTC STC20170413213510504/13/17 21:35:31  5-MIN KSTC 140335Z 08005KT 10SM OVC024 09/07 A3021 760 83 300 080/05 RMK AO2 T00940067
14926KSTC STC20170413214010504/13/17 21:40:31  5-MIN KSTC 140340Z 08008KT 10SM OVC026 09/07 A3020 770 83 300 080/08 RMK AO2 T00940067
14926KSTC STC20170413214510504/13/17 21:45:31  5-MIN KSTC 140345Z 09006KT 10SM OVC026 09/07 A3020 770 83 300 090/06 RMK AO2 T00940067
14926KSTC STC20170413215011204/13/17 21:50:31  5-MIN KSTC 140350Z 09007KT 10SM OVC026 09/07 A3020 770 83 300 090/07 RMK AO2 SLP241 T00940067
14926KSTC STC20170413215510504/13/17 21:55:31  5-MIN KSTC 140355Z 10006KT 10SM OVC028 09/07 A3020 770 86 300 100/06 RMK AO2 T00940072
14926KSTC STC20170413220011004/13/17 22:00:31  5-MIN KSTC 140400Z AUTO 11006KT 10SM OVC028 09/07 A3020 770 83 300 110/06 RMK AO2 T00940067
14926KSTC STC20170413220511004/13/17 22:05:31  5-MIN KSTC 140405Z AUTO 10007KT 10SM OVC028 09/07 A3020 770 83 300 100/07 RMK AO2 T00940067
14926KSTC STC20170413221011004/13/17 22:10:31  5-MIN KSTC 140410Z AUTO 11005KT 10SM OVC028 09/07 A3020 770 83 300 100/05 RMK AO2 T00940067
14926KSTC STC20170413221511004/13/17 22:15:31  5-MIN KSTC 140415Z AUTO 11004KT 10SM OVC028 09/07 A3020 770 83 300 110/04 RMK AO2 T00940067
14926KSTC STC20170413222011004/13/17 22:20:31  5-MIN KSTC 140420Z AUTO 10006KT 10SM OVC028 09/07 A3020 770 86 300 100/06 RMK AO2 T00940072
14926KSTC STC20170413222511004/13/17 22:25:31  5-MIN KSTC 140425Z AUTO 11004KT 10SM OVC028 09/07 A3020 770 86 300 110/04 RMK AO2 T00940072
14926KSTC STC20170413223011004/13/17 22:30:31  5-MIN KSTC 140430Z AUTO 10005KT 10SM OVC028 09/07 A3020 770 86 300 100/05 RMK AO2 T00940072
14926KSTC STC20170413223511004/13/17 22:35:31  5-MIN KSTC 140435Z AUTO 10005KT 10SM OVC029 09/07 A3020 770 86 300 100/05 RMK AO2 T00940072
14926KSTC STC20170413224011004/13/17 22:40:31  5-MIN KSTC 140440Z AUTO 11005KT 10SM OVC029 09/07 A3020 770 86 300 110/05 RMK AO2 T00940072
14926KSTC STC20170413224511004/13/17 22:45:31  5-MIN KSTC 140445Z AUTO 10005KT 10SM OVC029 09/07 A3020 770 86 300 100/05 RMK AO2 T00940072
14926KSTC STC20170413225011704/13/17 22:50:31  5-MIN KSTC 140450Z AUTO 11005KT 10SM OVC029 09/07 A3020 770 86 300 110/05 RMK AO2 SLP239 T00940072
14926KSTC STC20170413225511004/13/17 22:55:31  5-MIN KSTC 140455Z AUTO 11006KT 10SM OVC029 09/07 A3020 770 86 300 110/06 RMK AO2 T00940072
14926KSTC STC20170413230011004/13/17 23:00:31  5-MIN KSTC 140500Z AUTO 11005KT 10SM OVC029 09/07 A3020 770 86 300 110/05 RMK AO2 T00940072
14926KSTC STC20170413230511004/13/17 23:05:31  5-MIN KSTC 140505Z AUTO 10005KT 10SM OVC029 09/07 A3019 770 86 300 100/05 RMK AO2 T00940072
14926KSTC STC20170413231011004/13/17 23:10:31  5-MIN KSTC 140510Z AUTO 10006KT 10SM OVC028 09/07 A3019 770 86 300 100/06 RMK AO2 T00940072
14926KSTC STC20170413231511004/13/17 23:15:31  5-MIN KSTC 140515Z AUTO 10007KT 10SM OVC028 09/07 A3019 780 83 300 100/07 RMK AO2 T00940067
14926KSTC STC20170413232011004/13/17 23:20:31  5-MIN KSTC 140520Z AUTO 09005KT 10SM OVC028 09/07 A3019 780 83 300 090/05 RMK AO2 T00940067
14926KSTC STC20170413232511004/13/17 23:25:31  5-MIN KSTC 140525Z AUTO 11006KT 10SM OVC028 09/07 A3019 780 83 300 110/06 RMK AO2 T00940067
14926KSTC STC20170413233011004/13/17 23:30:31  5-MIN KSTC 140530Z AUTO 11006KT 10SM OVC028 09/07 A3019 780 83 300 100/06 RMK AO2 T00940067
14926KSTC STC20170413233511004/13/17 23:35:31  5-MIN KSTC 140535Z AUTO 10007KT 10SM OVC028 09/07 A3019 780 83 300 100/07 RMK AO2 T00940067
14926KSTC STC20170413234011004/13/17 23:40:31  5-MIN KSTC 140540Z AUTO 10006KT 10SM OVC028 09/07 A3019 780 83 300 100/06 RMK AO2 T00940067
14926KSTC STC20170413234511004/13/17 23:45:31  5-MIN KSTC 140545Z AUTO 10007KT 10SM OVC028 10/07 A3019 780 80 400 100/07 RMK AO2 T01000067
14926KSTC STC20170413235014504/13/17 23:50:31  5-MIN KSTC 140550Z AUTO 10006KT 10SM OVC028 09/07 A3019 780 83 300 100/06 RMK AO2 SLP236 T00940067 10100 20094 401000067 58007
14926KSTC STC20170413235511004/13/17 23:55:31  5-MIN KSTC 140555Z AUTO 10005KT 10SM OVC028 09/07 A3019 780 83 300 100/05 RMK AO2 T00940067
14926KSTC STC20170414000011004/14/17 00:00:31  5-MIN KSTC 140600Z AUTO 09006KT 10SM OVC028 09/07 A3019 780 83 300 090/06 RMK AO2 T00940067
14926KSTC STC20170414000511004/14/17 00:05:31  5-MIN KSTC 140605Z AUTO 09006KT 10SM OVC028 09/07 A3018 780 83 300 090/06 RMK AO2 T00940067
14926KSTC STC20170414001011004/14/17 00:10:31  5-MIN KSTC 140610Z AUTO 09006KT 10SM OVC028 09/07 A3018 780 83 300 090/06 RMK AO2 T00940067
14926KSTC STC20170414001511004/14/17 00:15:31  5-MIN KSTC 140615Z AUTO 10006KT 10SM OVC028 09/07 A3018 780 83 300 090/06 RMK AO2 T00940067
14926KSTC STC20170414002011004/14/17 00:20:31  5-MIN KSTC 140620Z AUTO 09006KT 10SM OVC028 09/07 A3018 780 83 300 090/06 RMK AO2 T00940067
14926KSTC STC20170414002511004/14/17 00:25:31  5-MIN KSTC 140625Z AUTO 09006KT 10SM OVC028 09/07 A3018 780 83 300 090/06 RMK AO2 T00940067
14926KSTC STC20170414003011704/14/17 00:30:31  5-MIN KSTC 140630Z AUTO 09007KT 10SM BKN028 OVC055 09/07 A3018 790 86 300 090/07 RMK AO2 T00890067
14926KSTC STC20170414003511704/14/17 00:35:31  5-MIN KSTC 140635Z AUTO 09007KT 10SM BKN028 BKN055 09/07 A3018 790 86 300 090/07 RMK AO2 T00890067
14926KSTC STC20170414004011704/14/17 00:40:31  5-MIN KSTC 140640Z AUTO 09006KT 10SM SCT028 BKN055 09/07 A3018 790 86 300 090/06 RMK AO2 T00890067
14926KSTC STC20170414004511704/14/17 00:45:31  5-MIN KSTC 140645Z AUTO 10007KT 10SM SCT028 BKN055 09/07 A3018 790 86 300 100/07 RMK AO2 T00890067
14926KSTC STC20170414005012404/14/17 00:50:31  5-MIN KSTC 140650Z AUTO 10007KT 10SM FEW030 SCT055 09/07 A3018 790 86 300 100/07 RMK AO2 SLP232 T00890067
14926KSTC STC20170414005511004/14/17 00:55:31  5-MIN KSTC 140655Z AUTO 10005KT 10SM SCT055 09/07 A3018 790 86 300 100/05 RMK AO2 T00890067
14926KSTC STC20170414010011004/14/17 01:00:31  5-MIN KSTC 140700Z AUTO 09005KT 10SM BKN055 08/07 A3017 790 89 200 090/05 RMK AO2 T00830067
14926KSTC STC20170414010511004/14/17 01:05:31  5-MIN KSTC 140705Z AUTO 11005KT 10SM BKN055 09/07 A3018 790 86 300 110/05 RMK AO2 T00890067
14926KSTC STC20170414011011004/14/17 01:10:31  5-MIN KSTC 140710Z AUTO 10005KT 10SM BKN055 08/07 A3017 790 89 200 100/05 RMK AO2 T00830067
14926KSTC STC20170414011511004/14/17 01:15:31  5-MIN KSTC 140715Z AUTO 11005KT 10SM SCT055 08/07 A3017 790 89 200 110/05 RMK AO2 T00830067
14926KSTC STC20170414012011004/14/17 01:20:31  5-MIN KSTC 140720Z AUTO 12005KT 10SM SCT055 08/07 A3018 790 89 200 110/05 RMK AO2 T00830067
14926KSTC STC20170414012511004/14/17 01:25:31  5-MIN KSTC 140725Z AUTO 10006KT 10SM FEW055 08/07 A3018 790 89 200 100/06 RMK AO2 T00830067
14926KSTC STC20170414013011704/14/17 01:30:31  5-MIN KSTC 140730Z AUTO 11005KT 10SM FEW031 SCT055 08/07 A3017 790 89 200 100/05 RMK AO2 T00830067
14926KSTC STC20170414013511004/14/17 01:35:31  5-MIN KSTC 140735Z AUTO 10006KT 10SM SCT031 08/07 A3017 800 89 200 100/06 RMK AO2 T00830067
14926KSTC STC20170414014011004/14/17 01:40:31  5-MIN KSTC 140740Z AUTO 10005KT 10SM BKN031 08/07 A3017 800 89 200 100/05 RMK AO2 T00830067
14926KSTC STC20170414014511004/14/17 01:45:31  5-MIN KSTC 140745Z AUTO 10005KT 10SM BKN031 08/07 A3017 800 89 200 100/05 RMK AO2 T00830067
14926KSTC STC20170414015011704/14/17 01:50:31  5-MIN KSTC 140750Z AUTO 11005KT 10SM BKN031 08/07 A3017 800 89 200 110/05 RMK AO2 SLP229 T00830067
14926KSTC STC20170414015511004/14/17 01:55:31  5-MIN KSTC 140755Z AUTO 10007KT 10SM OVC031 08/07 A3017 800 89 200 100/07 RMK AO2 T00830067
14926KSTC STC20170414020011004/14/17 02:00:31  5-MIN KSTC 140800Z AUTO 10007KT 10SM OVC030 08/07 A3016 800 89 200 100/07 RMK AO2 T00830067
14926KSTC STC20170414020511004/14/17 02:05:31  5-MIN KSTC 140805Z AUTO 10006KT 10SM OVC030 09/07 A3016 810 86 300 100/06 RMK AO2 T00890067
14926KSTC STC20170414021011004/14/17 02:10:31  5-MIN KSTC 140810Z AUTO 10007KT 10SM OVC028 08/07 A3016 810 89 200 100/07 RMK AO2 T00830067
14926KSTC STC20170414021511004/14/17 02:15:31  5-MIN KSTC 140815Z AUTO 11006KT 10SM OVC028 08/07 A3016 810 89 200 110/06 RMK AO2 T00830067
14926KSTC STC20170414022011004/14/17 02:20:31  5-MIN KSTC 140820Z AUTO 10007KT 10SM OVC028 08/07 A3015 810 89 200 100/07 RMK AO2 T00830067
14926KSTC STC20170414022511004/14/17 02:25:31  5-MIN KSTC 140825Z AUTO 11006KT 10SM OVC028 08/07 A3016 810 89 200 110/06 RMK AO2 T00830067
14926KSTC STC20170414023011004/14/17 02:30:31  5-MIN KSTC 140830Z AUTO 11007KT 10SM OVC027 08/07 A3016 810 89 200 110/07 RMK AO2 T00830067
14926KSTC STC20170414023511004/14/17 02:35:31  5-MIN KSTC 140835Z AUTO 11007KT 10SM OVC027 08/07 A3016 810 89 200 110/07 RMK AO2 T00830067
14926KSTC STC20170414024011004/14/17 02:40:31  5-MIN KSTC 140840Z AUTO 10007KT 10SM OVC027 08/06 A3016 810 86 200 100/07 RMK AO2 T00830061
14926KSTC STC20170414024511004/14/17 02:45:31  5-MIN KSTC 140845Z AUTO 10007KT 10SM OVC027 08/06 A3015 810 86 200 100/07 RMK AO2 T00830061
14926KSTC STC20170414025013004/14/17 02:50:31  5-MIN KSTC 140850Z AUTO 10007KT 10SM BKN028 BKN060 08/06 A3015 810 86 200 100/07 RMK AO2 SLP223 T00830061 56010
14926KSTC STC20170414025511704/14/17 02:55:31  5-MIN KSTC 140855Z AUTO 10007KT 10SM BKN028 BKN060 08/06 A3015 820 89 200 100/07 RMK AO2 T00780061
14926KSTC STC20170414030011704/14/17 03:00:31  5-MIN KSTC 140900Z AUTO 10006KT 10SM SCT028 BKN065 08/06 A3015 820 89 200 100/06 RMK AO2 T00780061
14926KSTC STC20170414030512404/14/17 03:05:31  5-MIN KSTC 140905Z AUTO 09006KT 10SM FEW028 SCT044 BKN065 08/06 A3015 820 89 200 090/06 RMK AO2 T00780061
14926KSTC STC20170414031012404/14/17 03:10:31  5-MIN KSTC 140910Z AUTO 10007KT 10SM FEW028 SCT044 BKN060 08/06 A3014 820 89 200 100/07 RMK AO2 T00780061
14926KSTC STC20170414031511704/14/17 03:15:31  5-MIN KSTC 140915Z AUTO 11008KT 10SM FEW044 BKN055 08/06 A3014 820 89 200 110/08 RMK AO2 T00780061
14926KSTC STC20170414032012404/14/17 03:20:31  5-MIN KSTC 140920Z AUTO 11008KT 10SM SCT045 BKN050 BKN065 08/06 A3014 820 89 200 110/08 RMK AO2 T00780061
14926KSTC STC20170414032511704/14/17 03:25:31  5-MIN KSTC 140925Z AUTO 10007KT 10SM BKN045 OVC060 08/06 A3014 820 89 200 100/07 RMK AO2 T00780061
14926KSTC STC20170414033011704/14/17 03:30:31  5-MIN KSTC 140930Z AUTO 10007KT 10SM BKN045 OVC055 08/06 A3014 820 89 200 100/07 RMK AO2 T00780061
14926KSTC STC20170414033511704/14/17 03:35:31  5-MIN KSTC 140935Z AUTO 10007KT 10SM FEW043 OVC055 08/06 A3014 820 89 200 100/07 RMK AO2 T00780061
14926KSTC STC20170414034011704/14/17 03:40:31  5-MIN KSTC 140940Z AUTO 10008KT 10SM FEW043 OVC055 08/06 A3013 830 89 200 090/08 RMK AO2 T00780061
14926KSTC STC20170414034511704/14/17 03:45:31  5-MIN KSTC 140945Z AUTO 10009KT 10SM SCT047 OVC055 08/06 A3013 830 89 200 100/09 RMK AO2 T00780061
14926KSTC STC20170414035012404/14/17 03:50:31  5-MIN KSTC 140950Z AUTO 12006KT 10SM FEW043 OVC055 08/06 A3014 830 89 200 120/06 RMK AO2 SLP220 T00780061
14926KSTC STC20170414035512404/14/17 03:55:31  5-MIN KSTC 140955Z AUTO 10006KT 10SM FEW041 BKN050 OVC060 08/06 A3013 830 89 200 100/06 RMK AO2 T00780061
14926KSTC STC20170414040012404/14/17 04:00:31  5-MIN KSTC 141000Z AUTO 10007KT 10SM SCT041 BKN050 OVC060 08/06 A3013 830 89 200 100/07 RMK AO2 T00780061
14926KSTC STC20170414040511704/14/17 04:05:31  5-MIN KSTC 141005Z AUTO 10007KT 10SM BKN041 OVC050 08/06 A3013 840 89 200 100/07 RMK AO2 T00780061
14926KSTC STC20170414041011704/14/17 04:10:31  5-MIN KSTC 141010Z AUTO 10007KT 10SM BKN040 OVC050 08/06 A3013 830 89 200 100/07 RMK AO2 T00780061
14926KSTC STC20170414041511704/14/17 04:15:31  5-MIN KSTC 141015Z AUTO 12006KT 10SM BKN040 OVC050 08/06 A3013 830 89 200 120/06 RMK AO2 T00780061
14926KSTC STC20170414042011004/14/17 04:20:31  5-MIN KSTC 141020Z AUTO 11008KT 10SM OVC040 08/06 A3013 840 89 200 110/08 RMK AO2 T00780061
14926KSTC STC20170414042511004/14/17 04:25:31  5-MIN KSTC 141025Z AUTO 10008KT 10SM OVC040 08/06 A3013 840 89 200 100/08 RMK AO2 T00780061
14926KSTC STC20170414043011004/14/17 04:30:31  5-MIN KSTC 141030Z AUTO 10008KT 10SM OVC040 08/06 A3012 840 89 200 100/08 RMK AO2 T00780061
14926KSTC STC20170414043511004/14/17 04:35:31  5-MIN KSTC 141035Z AUTO 10008KT 10SM OVC040 08/06 A3012 840 89 200 100/08 RMK AO2 T00780061
14926KSTC STC20170414044011004/14/17 04:40:31  5-MIN KSTC 141040Z AUTO 10008KT 10SM OVC040 08/06 A3012 840 89 200 100/08 RMK AO2 T00780061
14926KSTC STC20170414044511004/14/17 04:45:31  5-MIN KSTC 141045Z AUTO 11007KT 10SM OVC038 08/06 A3012 840 89 200 110/07 RMK AO2 T00780061
14926KSTC STC20170414045011704/14/17 04:50:31  5-MIN KSTC 141050Z AUTO 10006KT 10SM OVC038 08/06 A3011 850 89 200 100/06 RMK AO2 SLP212 T00780061
14926KSTC STC20170414045511004/14/17 04:55:31  5-MIN KSTC 141055Z AUTO 11007KT 10SM OVC038 08/06 A3012 850 89 200 110/07 RMK AO2 T00780061
14926KSTC STC20170414050011004/14/17 05:00:31  5-MIN KSTC 141100Z AUTO 11006KT 10SM OVC038 08/06 A3012 850 89 200 110/06 RMK AO2 T00780061
14926KSTC STC20170414050511004/14/17 05:05:31  5-MIN KSTC 141105Z AUTO 12006KT 10SM OVC038 08/06 A3012 850 89 200 120/06 RMK AO2 T00780061
14926KSTC STC20170414051011004/14/17 05:10:31  5-MIN KSTC 141110Z AUTO 10006KT 10SM OVC038 08/06 A3011 850 89 200 100/06 RMK AO2 T00780061
14926KSTC STC20170414051511004/14/17 05:15:31  5-MIN KSTC 141115Z AUTO 11008KT 10SM OVC038 08/06 A3012 850 89 200 110/08 RMK AO2 T00780061
14926KSTC STC20170414052011004/14/17 05:20:31  5-MIN KSTC 141120Z AUTO 11007KT 10SM OVC038 08/06 A3011 850 89 200 110/07 RMK AO2 T00780061
14926KSTC STC20170414052511004/14/17 05:25:31  5-MIN KSTC 141125Z AUTO 11010KT 10SM OVC037 08/06 A3011 850 89 200 110/10 RMK AO2 T00780061
14926KSTC STC20170414053011004/14/17 05:30:31  5-MIN KSTC 141130Z AUTO 10008KT 10SM OVC037 08/06 A3011 850 89 200 100/08 RMK AO2 T00780061
14926KSTC STC20170414053511004/14/17 05:35:31  5-MIN KSTC 141135Z AUTO 11008KT 10SM OVC035 08/06 A3011 850 89 200 110/08 RMK AO2 T00780061
14926KSTC STC20170414054011004/14/17 05:40:31  5-MIN KSTC 141140Z AUTO 11008KT 10SM OVC035 08/06 A3011 850 89 200 110/08 RMK AO2 T00780061
14926KSTC STC20170414054510504/14/17 05:45:31  5-MIN KSTC 141145Z 10007KT 10SM OVC035 08/06 A3011 850 89 200 100/07 RMK AO2 T00780061
14926KSTC STC20170414055013004/14/17 05:50:31  5-MIN KSTC 141150Z 12006KT 10SM OVC033 08/06 A3011 850 89 200 120/06 RMK AO2 SLP212 T00780061 10094 20078 58013
14926KSTC STC20170414055510504/14/17 05:55:31  5-MIN KSTC 141155Z 12006KT 10SM OVC033 08/06 A3011 850 86 200 120/06 RMK AO2 T00780056
14926KSTC STC20170414060010504/14/17 06:00:31  5-MIN KSTC 141200Z 12007KT 10SM OVC033 08/06 A3011 850 86 200 120/07 RMK AO2 T00780056
14926KSTC STC20170414060510504/14/17 06:05:31  5-MIN KSTC 141205Z 12007KT 10SM OVC033 08/06 A3011 850 86 200 120/07 RMK AO2 T00780056
14926KSTC STC20170414061010504/14/17 06:10:31  5-MIN KSTC 141210Z 11007KT 10SM OVC033 08/06 A3011 850 86 200 110/07 RMK AO2 T00780056
14926KSTC STC20170414061510504/14/17 06:15:31  5-MIN KSTC 141215Z 12008KT 10SM OVC032 08/06 A3011 850 86 200 120/08 RMK AO2 T00780056
14926KSTC STC20170414062010504/14/17 06:20:31  5-MIN KSTC 141220Z 10010KT 10SM OVC030 08/06 A3010 860 86 200 100/10 RMK AO2 T00780056
14926KSTC STC20170414062510504/14/17 06:25:31  5-MIN KSTC 141225Z 11010KT 10SM OVC030 08/06 A3010 860 86 200 110/10 RMK AO2 T00780056
14926KSTC STC20170414063010504/14/17 06:30:31  5-MIN KSTC 141230Z 12008KT 10SM OVC030 08/06 A3011 860 86 200 120/08 RMK AO2 T00780056
14926KSTC STC20170414063510504/14/17 06:35:31  5-MIN KSTC 141235Z 11009KT 10SM OVC030 08/06 A3011 860 86 200 110/09 RMK AO2 T00780056
14926KSTC STC20170414064010504/14/17 06:40:31  5-MIN KSTC 141240Z 12008KT 10SM OVC030 08/06 A3010 860 86 200 120/08 RMK AO2 T00780056
14926KSTC STC20170414064510504/14/17 06:45:31  5-MIN KSTC 141245Z 12007KT 10SM OVC030 08/06 A3010 860 86 200 110/07 RMK AO2 T00780056
14926KSTC STC20170414065011204/14/17 06:50:31  5-MIN KSTC 141250Z 12008KT 10SM OVC030 08/06 A3010 860 86 200 120/08 RMK AO2 SLP207 T00780056
14926KSTC STC20170414065510504/14/17 06:55:31  5-MIN KSTC 141255Z 11007KT 10SM OVC030 08/06 A3010 860 86 200 110/07 RMK AO2 T00780056
14926KSTC STC20170414070010504/14/17 07:00:31  5-MIN KSTC 141300Z 12009KT 10SM OVC030 08/06 A3010 860 86 200 120/09 RMK AO2 T00780056
14926KSTC STC20170414070510504/14/17 07:05:31  5-MIN KSTC 141305Z 11008KT 10SM OVC030 08/06 A3009 870 86 200 110/08 RMK AO2 T00780056
14926KSTC STC20170414071010504/14/17 07:10:31  5-MIN KSTC 141310Z 11010KT 10SM OVC028 08/06 A3009 870 86 200 110/10 RMK AO2 T00780056
14926KSTC STC20170414071510504/14/17 07:15:31  5-MIN KSTC 141315Z 12009KT 10SM OVC028 08/06 A3009 870 86 200 120/09 RMK AO2 T00780056
14926KSTC STC20170414072010504/14/17 07:20:31  5-MIN KSTC 141320Z 12009KT 10SM OVC028 08/06 A3009 870 86 200 120/09 RMK AO2 T00780056
14926KSTC STC20170414072510504/14/17 07:25:31  5-MIN KSTC 141325Z 12010KT 10SM OVC028 08/06 A3009 870 82 300 120/10 RMK AO2 T00830056
14926KSTC STC20170414073010504/14/17 07:30:31  5-MIN KSTC 141330Z 11008KT 10SM OVC028 08/06 A3009 870 82 300 110/08 RMK AO2 T00830056
14926KSTC STC20170414073511204/14/17 07:35:31  5-MIN KSTC 141335Z 12008KT 10SM BKN028 OVC038 08/06 A3008 870 86 300 120/08 RMK AO2 T00830061
14926KSTC STC20170414074011204/14/17 07:40:31  5-MIN KSTC 141340Z 12009KT 10SM BKN030 OVC039 08/06 A3008 880 86 300 110/09 RMK AO2 T00830061
14926KSTC STC20170414074511204/14/17 07:45:31  5-MIN KSTC 141345Z 12011KT 10SM BKN030 OVC039 08/06 A3008 880 86 300 120/11 RMK AO2 T00830061
14926KSTC STC20170414075011904/14/17 07:50:31  5-MIN KSTC 141350Z 12009KT 10SM SCT030 OVC039 09/06 A3008 880 83 400 110/09 RMK AO2 SLP199 T00890061
14926KSTC STC20170414075511204/14/17 07:55:31  5-MIN KSTC 141355Z 12008KT 10SM SCT031 OVC040 09/06 A3007 880 83 400 120/08 RMK AO2 T00890061
14926KSTC STC20170414080011204/14/17 08:00:31  5-MIN KSTC 141400Z 12006KT 10SM BKN037 OVC045 09/06 A3007 890 83 400 120/06 RMK AO2 T00890061
14926KSTC STC20170414080511804/14/17 08:05:31  5-MIN KSTC 141405Z 12011G14KT 10SM BKN040 OVC049 09/06 A3007 890 83 400 120/11G14 RMK AO2 T00890061
14926KSTC STC20170414081011204/14/17 08:10:31  5-MIN KSTC 141410Z 12008KT 10SM BKN040 BKN049 09/06 A3007 890 83 400 120/08 RMK AO2 T00890061
14926KSTC STC20170414081511204/14/17 08:15:31  5-MIN KSTC 141415Z 12008KT 10SM SCT040 BKN049 09/07 A3006 890 83 500 120/08 RMK AO2 T00940067
14926KSTC STC20170414082011204/14/17 08:20:31  5-MIN KSTC 141420Z 11008KT 10SM BKN045 BKN049 10/07 A3006 900 80 600 110/08 RMK AO2 T01000067
14926KSTC STC20170414082510504/14/17 08:25:31  5-MIN KSTC 141425Z 11008KT 10SM BKN045 10/07 A3006 900 80 600 110/08 RMK AO2 T01000067
14926KSTC STC20170414083010504/14/17 08:30:31  5-MIN KSTC 141430Z 12008KT 10SM SCT045 10/07 A3006 900 80 600 120/08 RMK AO2 T01000067
14926KSTC STC20170414083510504/14/17 08:35:31  5-MIN KSTC 141435Z 13009KT 10SM FEW044 10/07 A3006 900 80 600 130/09 RMK AO2 T01000067
14926KSTC STC20170414084011204/14/17 08:40:31  5-MIN KSTC 141440Z 13009KT 10SM FEW042 FEW055 10/07 A3006 900 80 600 130/09 RMK AO2 T01000067
14926KSTC STC20170414084511204/14/17 08:45:31  5-MIN KSTC 141445Z 13011KT 10SM FEW042 SCT055 10/07 A3006 900 80 600 130/11 RMK AO2 T01000067
14926KSTC STC20170414085013804/14/17 08:50:31  5-MIN KSTC 141450Z 14013G20KT 10SM FEW019 FEW043 BKN055 10/07 A3006 900 80 600 140/13G20 RMK AO2 SLP191 T01000067 56012
14926KSTC STC20170414085511804/14/17 08:55:31  5-MIN KSTC 141455Z 13012G20KT 10SM SCT019 BKN055 11/07 A3006 900 80 600 130/12G20 RMK AO2 T01060072
14926KSTC STC20170414090011804/14/17 09:00:31  5-MIN KSTC 141500Z 13008G17KT 10SM SCT019 BKN055 11/07 A3005 900 80 600 130/08G17 RMK AO2 T01060072
14926KSTC STC20170414090511804/14/17 09:05:31  5-MIN KSTC 141505Z 13014G19KT 10SM BKN018 BKN055 11/07 A3005 900 80 600 130/14G19 RMK AO2 T01060072
14926KSTC STC20170414091011804/14/17 09:10:31  5-MIN KSTC 141510Z 14014G19KT 10SM BKN018 OVC055 11/07 A3005 900 77 700 140/14G19 RMK AO2 T01110072
14926KSTC STC20170414091510504/14/17 09:15:31  5-MIN KSTC 141515Z 13013KT 10SM OVC019 11/07 A3005 900 77 700 130/13 RMK AO2 T01110072
14926KSTC STC20170414092010504/14/17 09:20:31  5-MIN KSTC 141520Z 15017KT 10SM OVC019 11/07 A3005 900 77 700 150/17 RMK AO2 T01110072
14926KSTC STC20170414092511104/14/17 09:25:31  5-MIN KSTC 141525Z 13011G20KT 10SM OVC018 11/08 A3005 910 80 700 130/11G20 RMK AO2 T01110078
14926KSTC STC20170414093011004/14/17 09:30:31  5-MIN KSTC 141530Z 14012G19KT 9SM OVC018 12/08 A3004 910 77 800 130/12G19 RMK AO2 T01170078
14926KSTC STC20170414093510404/14/17 09:35:31  5-MIN KSTC 141535Z 14012KT 9SM OVC018 12/08 A3004 910 77 800 140/12 RMK AO2 T01170078
14926KSTC STC20170414094011004/14/17 09:40:31  5-MIN KSTC 141540Z 12012G18KT 9SM OVC018 12/08 A3004 920 77 800 120/12G18 RMK AO2 T01170078
14926KSTC STC20170414094511704/14/17 09:45:31  5-MIN KSTC 141545Z 13012G18KT 9SM BKN018 OVC055 11/08 A3004 920 80 700 120/12G18 RMK AO2 T01110078
14926KSTC STC20170414095011804/14/17 09:50:31  5-MIN KSTC 141550Z 14012KT 9SM BKN018 BKN070 11/08 A3003 920 80 700 140/12 RMK AO2 SLP182 T01110078
14926KSTC STC20170414095511104/14/17 09:55:31  5-MIN KSTC 141555Z 13011KT 9SM BKN019 BKN070 12/08 A3003 920 74 800 130/11 RMK AO2 T01220078
14926KSTC STC20170414100011104/14/17 10:00:31  5-MIN KSTC 141600Z 14016KT 9SM SCT019 BKN065 12/08 A3003 920 74 900 140/16 RMK AO2 T01220078
14926KSTC STC20170414100511704/14/17 10:05:31  5-MIN KSTC 141605Z 14015G21KT 9SM SCT019 BKN065 12/08 A3003 930 74 900 140/15G21 RMK AO2 T01220078
14926KSTC STC20170414101011704/14/17 10:10:31  5-MIN KSTC 141610Z 14015G21KT 9SM SCT019 BKN065 13/08 A3003 930 74 900 140/15G21 RMK AO2 T01280083
14926KSTC STC20170414101511104/14/17 10:15:31  5-MIN KSTC 141615Z 15014KT 9SM SCT019 BKN065 13/08 A3003 930 74 900 150/14 RMK AO2 T01280083
14926KSTC STC20170414102011104/14/17 10:20:31  5-MIN KSTC 141620Z 14012KT 9SM BKN019 BKN065 13/08 A3003 930 74 900 140/12 RMK AO2 T01280083
14926KSTC STC20170414102511704/14/17 10:25:31  5-MIN KSTC 141625Z 15015G19KT 9SM BKN020 BKN065 13/08 A3003 930 74 900 150/15G19 RMK AO2 T01280083
14926KSTC STC20170414103011104/14/17 10:30:31  5-MIN KSTC 141630Z 13010G19KT 9SM BKN020 13/09 A3002 930 74 1000 130/10G19 RMK AO2 T01330089
14926KSTC STC20170414103511104/14/17 10:35:31  5-MIN KSTC 141635Z 15013G20KT 9SM BKN020 13/09 A3002 930 74 1000 150/13G20 RMK AO2 T01330089
14926KSTC STC20170414104011104/14/17 10:40:31  5-MIN KSTC 141640Z 14012G20KT 9SM BKN021 13/09 A3002 940 74 1000 140/12G20 RMK AO2 T01330089
14926KSTC STC20170414104511204/14/17 10:45:31  5-MIN KSTC 141645Z 14012KT 9SM BKN021 BKN065 13/09 A3001 940 74 1000 140/12 RMK AO2 T01330089
14926KSTC STC20170414105011904/14/17 10:50:31  5-MIN KSTC 141650Z 14012KT 9SM BKN021 BKN070 13/09 A3001 940 74 1000 130/12 RMK AO2 SLP173 T01330089
14926KSTC STC20170414105511804/14/17 10:55:31  5-MIN KSTC 141655Z 12012G17KT 9SM BKN021 BKN070 13/09 A3001 950 74 1000 120/12G17 RMK AO2 T01330089
14926KSTC STC20170414110011804/14/17 11:00:31  5-MIN KSTC 141700Z 12013G17KT 9SM BKN021 BKN070 13/09 A3001 950 74 1000 120/13G17 RMK AO2 T01330089
14926KSTC STC20170414110511804/14/17 11:05:31  5-MIN KSTC 141705Z 14014G19KT 9SM SCT021 BKN075 13/09 A3000 950 74 1000 140/14G19 RMK AO2 T01330089
14926KSTC STC20170414111011204/14/17 11:10:31  5-MIN KSTC 141710Z 14014KT 9SM FEW021 SCT075 14/09 A3000 950 74 1100 140/14 RMK AO2 T01390094
14926KSTC STC20170414111511804/14/17 11:15:31  5-MIN KSTC 141715Z 14015G20KT 9SM SCT021 BKN075 14/09 A3000 950 71 1100 140/15G20 RMK AO2 T01390089
14926KSTC STC20170414112011804/14/17 11:20:31  5-MIN KSTC 141720Z 14014G20KT 9SM SCT021 BKN075 14/09 A2999 960 71 1100 140/14G20 RMK AO2 T01390089
14926KSTC STC20170414112511804/14/17 11:25:31  5-MIN KSTC 141725Z 13016G20KT 9SM BKN022 BKN075 14/09 A3000 960 69 1200 130/16G20 RMK AO2 T01440089
14926KSTC STC20170414113011804/14/17 11:30:31  5-MIN KSTC 141730Z 13014G21KT 9SM BKN022 BKN075 14/09 A2999 960 71 1100 130/14G21 RMK AO2 T01390089
14926KSTC STC20170414113511104/14/17 11:35:31  5-MIN KSTC 141735Z 13011G21KT 9SM BKN022 14/09 A2999 960 71 1100 130/11G21 RMK AO2 T01390089
14926KSTC STC20170414114011104/14/17 11:40:31  5-MIN KSTC 141740Z 15015G20KT 9SM BKN022 14/09 A2999 960 72 1200 140/15G20 RMK AO2 T01440094
14926KSTC STC20170414114510504/14/17 11:45:31  5-MIN KSTC 141745Z 14015KT 9SM BKN022 15/10 A2999 970 72 1200 140/15 RMK AO2 T01500100
14926KSTC STC20170414115013004/14/17 11:50:31  5-MIN KSTC 141750Z 15016KT 9SM BKN022 16/10 A2998 970 69 1300 140/16 RMK AO2 SLP163 T01560100 10156 20078 58019
14926KSTC STC20170414115511104/14/17 11:55:31  5-MIN KSTC 141755Z 13010G19KT 9SM BKN023 16/10 A2998 970 69 1300 130/10G19 RMK AO2 T01560100
14926KSTC STC20170414120011204/14/17 12:00:31  5-MIN KSTC 141800Z 12009G20KT 10SM BKN023 16/09 A2998 970 67 1300 120/09G20 RMK AO2 T01560094
14926KSTC STC20170414120511204/14/17 12:05:31  5-MIN KSTC 141805Z 14014G20KT 10SM BKN023 16/09 A2998 970 67 1300 130/14G20 RMK AO2 T01560094
14926KSTC STC20170414121011804/14/17 12:10:31  5-MIN KSTC 141810Z 13013G20KT 9SM BKN023 BKN085 15/09 A2998 970 69 1200 130/13G20 RMK AO2 T01500094
14926KSTC STC20170414121511204/14/17 12:15:31  5-MIN KSTC 141815Z 13011KT 9SM SCT024 BKN085 16/09 A2998 970 67 1300 130/11 RMK AO2 T01560094
14926KSTC STC20170414122011804/14/17 12:20:31  5-MIN KSTC 141820Z 11011G18KT 9SM SCT024 SCT080 15/09 A2997 980 69 1200 110/11G18 RMK AO2 T01500094
14926KSTC STC20170414122511204/14/17 12:25:31  5-MIN KSTC 141825Z 13010KT 9SM FEW024 SCT080 16/10 A2997 980 69 1300 130/10 RMK AO2 T01560100
14926KSTC STC20170414123011804/14/17 12:30:31  5-MIN KSTC 141830Z 14014G19KT 9SM FEW024 FEW085 16/10 A2997 980 67 1400 140/14G19 RMK AO2 T01610100
14926KSTC STC20170414123511104/14/17 12:35:31  5-MIN KSTC 141835Z 14013G19KT 9SM FEW085 16/10 A2997 980 67 1400 130/13G19 RMK AO2 T01610100
14926KSTC STC20170414124010504/14/17 12:40:31  5-MIN KSTC 141840Z 14016KT 9SM FEW085 16/10 A2997 980 67 1400 140/16 RMK AO2 T01610100
14926KSTC STC20170414124511104/14/17 12:45:31  5-MIN KSTC 141845Z 14015G20KT 9SM FEW085 16/10 A2996 990 67 1400 140/15G20 RMK AO2 T01610100
14926KSTC STC20170414125011504/14/17 12:50:31  5-MIN KSTC 141850Z 13009G20KT 9SM CLR 16/10 A2996 990 67 1400 130/09G20 RMK AO2 SLP156 T01610100
14926KSTC STC20170414125510804/14/17 12:55:31  5-MIN KSTC 141855Z 12011G18KT 9SM CLR 16/10 A2996 990 67 1400 110/11G18 RMK AO2 T01610100
14926KSTC STC20170414130010904/14/17 13:00:31  5-MIN KSTC 141900Z 13011G18KT 9SM CLR 17/10 A2995 1000 64 1500 130/11G18 RMK AO2 T01670100
14926KSTC STC20170414130510904/14/17 13:05:31  5-MIN KSTC 141905Z 12011G18KT 9SM CLR 16/10 A2995 1000 67 1400 120/11G18 RMK AO2 T01610100
14926KSTC STC20170414131010904/14/17 13:10:31  5-MIN KSTC 141910Z 14015G22KT 9SM CLR 16/10 A2995 1000 67 1400 140/15G22 RMK AO2 T01610100
14926KSTC STC20170414131511204/14/17 13:15:31  5-MIN KSTC 141915Z 15015G22KT 9SM FEW060 17/11 A2995 1000 67 1500 150/15G22 RMK AO2 T01670106
14926KSTC STC20170414132011204/14/17 13:20:31  5-MIN KSTC 141920Z 13012G19KT 9SM FEW060 17/11 A2994 1010 67 1500 130/12G19 RMK AO2 T01670106
14926KSTC STC20170414132511204/14/17 13:25:31  5-MIN KSTC 141925Z 13013G21KT 9SM FEW060 17/11 A2994 1010 67 1500 130/13G21 RMK AO2 T01670106
14926KSTC STC20170414133011204/14/17 13:30:31  5-MIN KSTC 141930Z 14016G21KT 9SM FEW060 17/11 A2994 1010 64 1500 140/16G21 RMK AO2 T01720106
14926KSTC STC20170414133511204/14/17 13:35:31  5-MIN KSTC 141935Z 14014G20KT 9SM FEW060 17/11 A2994 1010 67 1500 130/14G20 RMK AO2 T01670106
14926KSTC STC20170414134010604/14/17 13:40:31  5-MIN KSTC 141940Z 13013KT 9SM FEW060 16/11 A2994 1010 69 1400 130/13 RMK AO2 T01610106
14926KSTC STC20170414134510904/14/17 13:45:31  5-MIN KSTC 141945Z 12009G18KT 9SM CLR 16/11 A2994 1010 69 1400 120/09G18 RMK AO2 T01610106
14926KSTC STC20170414135011604/14/17 13:50:31  5-MIN KSTC 141950Z 14013G17KT 9SM CLR 17/11 A2993 1020 67 1500 140/13G17 RMK AO2 SLP145 T01670106
14926KSTC STC20170414135510904/14/17 13:55:31  5-MIN KSTC 141955Z 13011G17KT 9SM CLR 17/11 A2992 1020 67 1500 130/11G17 RMK AO2 T01670106
14926KSTC STC20170414140010304/14/17 14:00:31  5-MIN KSTC 142000Z 13011KT 9SM CLR 17/11 A2992 1020 67 1500 130/11 RMK AO2 T01670106
14926KSTC STC20170414140510304/14/17 14:05:31  5-MIN KSTC 142005Z 14013KT 9SM CLR 17/11 A2992 1030 67 1500 130/13 RMK AO2 T01670106
14926KSTC STC20170414141010304/14/17 14:10:31  5-MIN KSTC 142010Z 11010KT 9SM CLR 17/11 A2991 1040 67 1500 110/10 RMK AO2 T01670106
14926KSTC STC20170414141510304/14/17 14:15:31  5-MIN KSTC 142015Z 12011KT 9SM CLR 17/11 A2991 1030 67 1500 120/11 RMK AO2 T01670106
14926KSTC STC20170414142011004/14/17 14:20:31  5-MIN KSTC 142020Z 12013G19KT 10SM CLR 17/11 A2991 1040 64 1600 120/13G19 RMK AO2 T01720106
14926KSTC STC20170414142510304/14/17 14:25:31  5-MIN KSTC 142025Z 14017KT 9SM CLR 17/11 A2991 1040 67 1600 140/17 RMK AO2 T01720111
14926KSTC STC20170414143010304/14/17 14:30:31  5-MIN KSTC 142030Z 14013KT 9SM CLR 17/11 A2991 1040 67 1600 140/13 RMK AO2 T01720111
14926KSTC STC20170414143510304/14/17 14:35:31  5-MIN KSTC 142035Z 12011KT 9SM CLR 17/11 A2991 1040 67 1600 120/11 RMK AO2 T01720111
14926KSTC STC20170414144011004/14/17 14:40:31  5-MIN KSTC 142040Z 13011G18KT 10SM CLR 17/11 A2991 1040 67 1600 130/11G18 RMK AO2 T01720111
14926KSTC STC20170414144511004/14/17 14:45:31  5-MIN KSTC 142045Z 13014G21KT 10SM CLR 17/11 A2990 1040 64 1600 130/14G21 RMK AO2 T01720106
14926KSTC STC20170414145012204/14/17 14:50:31  5-MIN KSTC 142050Z 14015G22KT 9SM CLR 17/11 A2990 1040 67 1600 130/15G22 RMK AO2 SLP135 T01720111 58024
14926KSTC STC20170414145510904/14/17 14:55:31  5-MIN KSTC 142055Z 12011G22KT 9SM CLR 18/11 A2990 1050 64 1700 120/11G22 RMK AO2 T01780111
14926KSTC STC20170414150011304/14/17 15:00:31  5-MIN KSTC 142100Z 13016G21KT 10SM FEW095 18/11 A2990 1050 64 1700 130/16G21 RMK AO2 T01780111
14926KSTC STC20170414150511304/14/17 15:05:31  5-MIN KSTC 142105Z 14017G21KT 10SM FEW095 18/11 A2990 1050 64 1700 140/17G21 RMK AO2 T01780111
14926KSTC STC20170414151011004/14/17 15:10:31  5-MIN KSTC 142110Z 13016G21KT 10SM CLR 18/11 A2990 1050 62 1700 130/16G21 RMK AO2 T01830111
14926KSTC STC20170414151511304/14/17 15:15:31  5-MIN KSTC 142115Z 14014G21KT 10SM FEW100 18/11 A2989 1050 62 1700 140/14G21 RMK AO2 T01830111
14926KSTC STC20170414152011304/14/17 15:20:31  5-MIN KSTC 142120Z 12015G19KT 10SM FEW100 18/11 A2988 1060 62 1700 120/15G19 RMK AO2 T01830111
14926KSTC STC20170414152511304/14/17 15:25:31  5-MIN KSTC 142125Z 13015G23KT 10SM FEW100 18/11 A2989 1060 62 1700 130/15G23 RMK AO2 T01830111
14926KSTC STC20170414153011304/14/17 15:30:31  5-MIN KSTC 142130Z 13013G23KT 10SM FEW100 18/11 A2988 1060 62 1700 130/13G23 RMK AO2 T01830111
14926KSTC STC20170414153511304/14/17 15:35:31  5-MIN KSTC 142135Z 12014G20KT 10SM FEW100 18/11 A2988 1060 62 1700 120/14G20 RMK AO2 T01830111
14926KSTC STC20170414154011304/14/17 15:40:31  5-MIN KSTC 142140Z 13013G20KT 10SM FEW100 18/11 A2988 1060 62 1700 130/13G20 RMK AO2 T01830111
14926KSTC STC20170414154511004/14/17 15:45:31  5-MIN KSTC 142145Z 13013G21KT 10SM CLR 18/11 A2988 1070 62 1700 120/13G21 RMK AO2 T01830111
14926KSTC STC20170414155011704/14/17 15:50:31  5-MIN KSTC 142150Z 13017G22KT 10SM CLR 18/11 A2988 1060 62 1700 130/17G22 RMK AO2 SLP128 T01830111
14926KSTC STC20170414155510404/14/17 15:55:31  5-MIN KSTC 142155Z 14017KT 10SM CLR 18/11 A2988 1060 62 1700 140/17 RMK AO2 T01830111
14926KSTC STC20170414160010704/14/17 16:00:31  5-MIN KSTC 142200Z 12012KT 10SM FEW100 18/11 A2988 1070 62 1700 120/12 RMK AO2 T01830111
14926KSTC STC20170414160510704/14/17 16:05:31  5-MIN KSTC 142205Z 11012KT 10SM FEW100 18/11 A2988 1070 64 1700 110/12 RMK AO2 T01780111
14926KSTC STC20170414161010704/14/17 16:10:31  5-MIN KSTC 142210Z 13011KT 10SM FEW100 18/11 A2988 1070 64 1700 120/11 RMK AO2 T01780111
14926KSTC STC20170414161510704/14/17 16:15:31  5-MIN KSTC 142215Z 13010KT 10SM SCT100 18/11 A2987 1070 64 1700 130/10 RMK AO2 T01780111
14926KSTC STC20170414162010704/14/17 16:20:31  5-MIN KSTC 142220Z 12012KT 10SM BKN095 18/11 A2987 1070 62 1800 120/12 RMK AO2 T01830111
14926KSTC STC20170414162511304/14/17 16:25:31  5-MIN KSTC 142225Z 13015G21KT 10SM BKN090 18/11 A2987 1070 62 1800 130/15G21 RMK AO2 T01830111
14926KSTC STC20170414163012004/14/17 16:30:31  5-MIN KSTC 142230Z 13015G22KT 10SM FEW065 BKN090 18/11 A2987 1080 62 1800 130/15G22 RMK AO2 T01830111
14926KSTC STC20170414163512704/14/17 16:35:31  5-MIN KSTC 142235Z 13012G22KT 10SM FEW065 BKN080 OVC100 18/12 A2986 1080 67 1700 130/12G22 RMK AO2 T01780117
14926KSTC STC20170414164012004/14/17 16:40:31  5-MIN KSTC 142240Z 13012G21KT 10SM BKN075 OVC095 18/11 A2986 1080 64 1700 130/12G21 RMK AO2 T01780111
14926KSTC STC20170414164511304/14/17 16:45:31  5-MIN KSTC 142245Z 12011G19KT 10SM OVC075 18/11 A2986 1080 64 1700 110/11G19 RMK AO2 T01780111
14926KSTC STC20170414165012004/14/17 16:50:31  5-MIN KSTC 142250Z 14014G22KT 10SM OVC075 18/12 A2986 1080 67 1700 140/14G22 RMK AO2 SLP121 T01780117
14926KSTC STC20170414165511304/14/17 16:55:31  5-MIN KSTC 142255Z 14016G22KT 10SM OVC075 18/12 A2986 1080 67 1700 140/16G22 RMK AO2 T01780117
14926KSTC STC20170414170011304/14/17 17:00:31  5-MIN KSTC 142300Z 12013G21KT 10SM OVC080 18/12 A2986 1080 67 1700 120/13G21 RMK AO2 T01780117
14926KSTC STC20170414170511304/14/17 17:05:31  5-MIN KSTC 142305Z 13014G23KT 10SM BKN080 17/12 A2986 1080 69 1600 130/14G23 RMK AO2 T01720117
14926KSTC STC20170414171012704/14/17 17:10:31  5-MIN KSTC 142310Z 13013G23KT 10SM SCT070 SCT085 BKN110 17/12 A2986 1090 69 1600 130/13G23 RMK AO2 T01720117
14926KSTC STC20170414171512004/14/17 17:15:31  5-MIN KSTC 142315Z 13012G20KT 10SM SCT080 BKN110 17/12 A2986 1080 69 1600 130/12G20 RMK AO2 T01720117
14926KSTC STC20170414172012004/14/17 17:20:31  5-MIN KSTC 142320Z 13012G19KT 10SM FEW085 BKN110 17/12 A2986 1090 69 1600 130/12G19 RMK AO2 T01720117
14926KSTC STC20170414172512004/14/17 17:25:31  5-MIN KSTC 142325Z 13012G20KT 10SM FEW085 BKN110 17/12 A2986 1090 69 1600 130/12G20 RMK AO2 T01720117
14926KSTC STC20170414173011304/14/17 17:30:31  5-MIN KSTC 142330Z 12011G20KT 10SM BKN110 17/12 A2986 1080 72 1600 120/11G20 RMK AO2 T01670117
14926KSTC STC20170414173511304/14/17 17:35:31  5-MIN KSTC 142335Z 12010G20KT 10SM OVC110 17/12 A2986 1080 72 1600 120/10G20 RMK AO2 T01670117
14926KSTC STC20170414174010704/14/17 17:40:31  5-MIN KSTC 142340Z 13009KT 10SM BKN110 17/12 A2986 1080 72 1600 130/09 RMK AO2 T01670117
14926KSTC STC20170414174511404/14/17 17:45:31  5-MIN KSTC 142345Z 13011KT 10SM SCT070 BKN110 17/12 A2986 1090 72 1600 130/11 RMK AO2 T01670117
14926KSTC STC20170414175014504/14/17 17:50:31  5-MIN KSTC 142350Z 13015G19KT 10SM BKN070 BKN110 17/12 A2985 1090 72 1600 130/15G19 RMK AO2 SLP120 T01670117 10183 20150 58028
14926KSTC STC20170414175512704/14/17 17:55:31  5-MIN KSTC 142355Z 13014G21KT 10SM SCT036 BKN065 BKN110 17/12 A2985 1090 72 1600 130/14G21 RMK AO2 T01670117
14926KSTC STC20170414180012704/14/17 18:00:31  5-MIN KSTC 150000Z 13012G21KT 10SM BKN036 BKN065 BKN110 17/12 A2985 1090 72 1600 130/12G21 RMK AO2 T01670117
14926KSTC STC20170414180512704/14/17 18:05:31  5-MIN KSTC 150005Z 13015G21KT 10SM SCT036 BKN044 OVC070 17/12 A2985 1090 72 1600 130/15G21 RMK AO2 T01670117
14926KSTC STC20170414181012704/14/17 18:10:31  5-MIN KSTC 150010Z 13013G21KT 10SM BKN036 BKN050 OVC070 17/12 A2985 1090 72 1600 130/13G21 RMK AO2 T01670117
14926KSTC STC20170414181512104/14/17 18:15:31  5-MIN KSTC 150015Z 13013KT 10SM FEW030 BKN036 OVC065 16/12 A2985 1090 75 1500 130/13 RMK AO2 T01610117
14926KSTC STC20170414182011404/14/17 18:20:31  5-MIN KSTC 150020Z 13012KT 10SM SCT030 OVC036 16/12 A2985 1090 75 1500 130/12 RMK AO2 T01610117
14926KSTC STC20170414182512004/14/17 18:25:31  5-MIN KSTC 150025Z 13012G19KT 10SM SCT028 OVC036 16/12 A2985 1090 75 1500 130/12G19 RMK AO2 T01610117
14926KSTC STC20170414183011404/14/17 18:30:31  5-MIN KSTC 150030Z 13012KT 10SM BKN028 OVC036 16/12 A2985 1090 75 1500 130/12 RMK AO2 T01610117
14926KSTC STC20170414183511404/14/17 18:35:31  5-MIN KSTC 150035Z 13012KT 10SM BKN028 OVC036 16/12 A2985 1090 75 1500 130/12 RMK AO2 T01610117
14926KSTC STC20170414184011304/14/17 18:40:31  5-MIN KSTC 150040Z 13013G18KT 10SM OVC027 16/12 A2985 1090 75 1500 130/13G18 RMK AO2 T01610117
14926KSTC STC20170414184510704/14/17 18:45:31  5-MIN KSTC 150045Z 13012KT 10SM OVC025 16/12 A2985 1100 75 1500 130/12 RMK AO2 T01610117
14926KSTC STC20170414185012004/14/17 18:50:31  5-MIN KSTC 150050Z 14015G20KT 10SM OVC023 16/12 A2984 1100 75 1500 130/15G20 RMK AO2 SLP117 T01610117
14926KSTC STC20170414185511304/14/17 18:55:31  5-MIN KSTC 150055Z 13013G20KT 10SM OVC023 16/12 A2984 1100 75 1500 130/13G20 RMK AO2 T01610117
14926KSTC STC20170414190011204/14/17 19:00:31  5-MIN KSTC 150100Z 14018G22KT 8SM OVC023 16/12 A2984 1100 77 1500 140/18G22 RMK AO2 T01610122
14926KSTC STC20170414190513504/14/17 19:05:31  5-MIN KSTC 150105Z 14017G22KT 5SM -RA SCT017 OVC023 16/12 A2985 1090 80 1500 140/17G22 RMK AO2 RAB05 P0000 T01560122
14926KSTC STC20170414191013804/14/17 19:10:31  5-MIN KSTC 150110Z 14013G22KT 4SM -RA BR BKN018 OVC023 14/13 A2985 1090 90 1300 140/13G22 RMK AO2 RAB05 P0000 T01440128
14926KSTC STC20170414191513204/14/17 19:15:31  5-MIN KSTC 150115Z 14015KT 4SM -RA BR BKN018 OVC023 14/13 A2985 1090 93 1300 130/15 RMK AO2 RAB05 P0000 T01440133
14926KSTC STC20170415163015804/15/17 16:30:31  5-MIN KSTC 152230Z 31016KT 5SM VCTS RA BR FEW028 SCT040 OVC055 14/12 A2983 1110 86 1300 310/16 RMK AO2 LTG DSNT ALQDS RAB03 P0004 T01390117
14926KSTC STC20170415163516704/15/17 16:35:31  5-MIN KSTC 152235Z 30013KT 5SM VCTS RA BR FEW028 FEW044 OVC055 13/12 A2984 1100 89 1200 300/13 RMK AO2 LTG DSNT N AND S AND SW RAB03 P0005 T01330117
14926KSTC STC20170415164015404/15/17 16:40:31  5-MIN KSTC 152240Z 32007KT 3SM VCTS +RA BR OVC055 13/11 A2983 1110 86 1200 320/07 RMK AO2 LTG DSNT N AND S AND SW RAB03 P0007 T01330111
14926KSTC STC20170415164515404/15/17 16:45:31  5-MIN KSTC 152245Z 34007KT 2SM VCTS +RA BR OVC055 13/11 A2983 1110 89 1100 340/07 RMK AO2 LTG DSNT N AND S AND SW RAB03 P0011 T01280111
14926KSTC STC20170415165014404/15/17 16:50:31  5-MIN KSTC 152250Z 36006KT 1 3/4SM +RA BR SCT050 BKN060 OVC080 13/11 A2983 1110 89 1200 360/06 RMK AO2 LTG DSNT S RAB03 P0017
14926KSTC STC20170415165514504/15/17 16:55:31  5-MIN KSTC 152255Z 01004KT 2 1/2SM VCTS RA BR BKN055 OVC080 13/11 A2983 1110 89 1100 360/04 RMK AO2 LTG DSNT S P0000 T01280111
14926KSTC STC20170415170014204/15/17 17:00:31  5-MIN KSTC 152300Z 34007KT 6SM VCTS -RA BR SCT055 OVC080 13/11 A2983 1110 89 1100 340/07 RMK AO2 LTG DSNT S P0000 T01280111
14926KSTC STC20170415170514704/15/17 17:05:31  5-MIN KSTC 152305Z 34004KT 10SM VCTS -RA SCT050 SCT070 OVC085 13/11 A2983 1110 89 1100 340/04 RMK AO2 LTG DSNT S P0000 T01280111
14926KSTC STC20170415171014404/15/17 17:10:31  5-MIN KSTC 152310Z 28005KT 10SM FEW045 BKN080 OVC095 13/11 A2985 1100 89 1100 280/05 RMK AO2 LTG DSNT S RAE08 P0000 T01280111
14926KSTC STC20170415171514904/15/17 17:15:31  5-MIN KSTC 152315Z 27009KT 10SM -RA FEW050 OVC080 13/12 A2985 1090 93 1100 270/09 RMK AO2 LTG DSNT SE AND S PRESRR P0000 T01280117
14926KSTC STC20170415172013504/15/17 17:20:31  5-MIN KSTC 152320Z 28008KT 10SM -RA OVC075 13/12 A2985 1090 93 1100 280/08 RMK AO2 LTG DSNT SE AND S P0000 T01280117
14926KSTC STC20170415172514204/15/17 17:25:31  5-MIN KSTC 152325Z 28009KT 10SM -RA SCT065 OVC080 12/12 A2985 1090 96 1100 280/09 RMK AO2 LTG DSNT SE AND S P0000 T01220117
14926KSTC STC20170415173013604/15/17 17:30:31  5-MIN KSTC 152330Z 30010KT 10SM -RA BKN070 OVC090 12/11 A2985 1090 93 1100 300/10 RMK AO2 LTG DSNT SE P0001 T01220111
14926KSTC STC20170415173512804/15/17 17:35:31  5-MIN KSTC 152335Z 29008KT 8SM -RA OVC075 12/11 A2985 1090 93 1100 290/08 RMK AO2 LTG DSNT SE P0001 T01220111
14926KSTC STC20170415174012804/15/17 17:40:31  5-MIN KSTC 152340Z 30004KT 8SM -RA OVC075 12/11 A2984 1100 89 1100 300/04 RMK AO2 LTG DSNT SE P0002 T01220106
14926KSTC STC20170415174512804/15/17 17:45:31  5-MIN KSTC 152345Z 00000KT 7SM -RA OVC070 12/11 A2984 1100 89 1100 000/00 RMK AO2 LTG DSNT SE P0002 T01220106
14926KSTC STC20170415175016904/15/17 17:50:31  5-MIN KSTC 152350Z 10003KT 5SM -RA BR BKN070 OVC080 12/11 A2983 1110 89 1100 100/03 RMK AO2 LTG DSNT SE SLP113 P0003 60022 T01220106 10183 20122 50003
14926KSTC STC20170415175515004/15/17 17:55:31  5-MIN KSTC 152355Z 05004KT 4SM RA BR BKN070 OVC080 12/11 A2982 1120 96 1000 050/04 RMK AO2 LTG DSNT E AND SE PRESFR P0001 T01170111
14926KSTC STC20170415180015004/15/17 18:00:31  5-MIN KSTC 160000Z 04006KT 4SM RA BR BKN070 OVC080 11/11 A2980 1140 96 1000 040/06 RMK AO2 LTG DSNT E AND SE PRESFR P0003 T01110106
14926KSTC STC20170415180513604/15/17 18:05:31  5-MIN KSTC 160005Z 05010KT 5SM RA BR OVC070 11/11 A2977 1170 96 1000 050/10 RMK AO2 LTG DSNT E PRESFR P0004 T01110106
14926KSTC STC20170415181013304/15/17 18:10:31  5-MIN KSTC 160010Z 04012KT 6SM -RA BR BKN070 OVC090 11/11 A2974 1190 96 1000 040/12 RMK AO2 PRESFR P0005 T01110106
14926KSTC STC20170415181513004/15/17 18:15:31  5-MIN KSTC 160015Z 01012KT 8SM -RA FEW065 SCT075 OVC100 12/11 A2976 1170 93 1100 010/12 RMK AO2 P0005 T01170106
14926KSTC STC20170415182013904/15/17 18:20:31  5-MIN KSTC 160020Z 35011G18KT 10SM SCT070 BKN090 OVC100 12/11 A2976 1170 93 1100 350/11G18 RMK AO2 RAE20 P0005 T01170106
14926KSTC STC20170415182515004/15/17 18:25:31  5-MIN KSTC 160025Z 02009G18KT 10SM FEW075 SCT090 BKN110 12/11 A2976 1180 93 1100 020/09G18 RMK AO2 WSHFT 0010 RAE20 P0005 T01170106
14926KSTC STC20170415183014404/15/17 18:30:31  5-MIN KSTC 160030Z 04005KT 10SM FEW075 SCT100 BKN110 12/11 A2977 1170 93 1100 040/05 RMK AO2 WSHFT 0010 RAE20 P0005 T01170106
14926KSTC STC20170415183513004/15/17 18:35:31  5-MIN KSTC 160035Z 00000KT 10SM SCT100 12/11 A2978 1160 93 1100 000/00 RMK AO2 WSHFT 0010 RAE20 P0005 T01170106
14926KSTC STC20170415184013704/15/17 18:40:31  5-MIN KSTC 160040Z 00000KT 10SM FEW110 12/11 A2979 1150 96 1100 000/00 RMK AO2 WSHFT 0010 RAE20 PRESRR P0005 T01170111
14926KSTC STC20170415184513704/15/17 18:45:31  5-MIN KSTC 160045Z 00000KT 10SM FEW100 12/11 A2979 1140 96 1100 000/00 RMK AO2 WSHFT 0010 RAE20 PRESRR P0005 T01170111
14926KSTC STC20170415185013704/15/17 18:50:31  5-MIN KSTC 160050Z 00000KT 10SM FEW100 12/11 A2979 1140 93 1100 000/00 RMK AO2 WSHFT 0010 RAE20 SLP100 P0005 T01170106
14926KSTC STC20170415185510704/15/17 18:55:31  5-MIN KSTC 160055Z 00000KT 10SM FEW120 12/11 A2979 1140 93 1100 000/00 RMK AO2 T01170106
14926KSTC STC20170415190010704/15/17 19:00:31  5-MIN KSTC 160100Z 00000KT 10SM SCT110 12/11 A2980 1140 96 1000 000/00 RMK AO2 T01170111
14926KSTC STC20170415190510804/15/17 19:05:31  5-MIN KSTC 160105Z 27003KT 10SM FEW110 11/11 A2980 1140 100 1000 270/03 RMK AO2 T01110111
14926KSTC STC20170415191010704/15/17 19:10:31  5-MIN KSTC 160110Z 25004KT 10SM FEW110 11/11 A2981 1130 96 1000 250/04 RMK AO2 T01110106
14926KSTC STC20170415191510704/15/17 19:15:31  5-MIN KSTC 160115Z 26005KT 10SM FEW110 11/11 A2981 1130 96 1000 260/05 RMK AO2 T01110106
14926KSTC STC20170415192010704/15/17 19:20:31  5-MIN KSTC 160120Z 27005KT 10SM FEW110 11/11 A2981 1130 100 900 270/05 RMK AO2 T01060106
14926KSTC STC20170415192510704/15/17 19:25:31  5-MIN KSTC 160125Z 29005KT 10SM FEW110 11/11 A2981 1130 100 900 280/05 RMK AO2 T01060106
14926KSTC STC20170415193010404/15/17 19:30:31  5-MIN KSTC 160130Z 30005KT 10SM CLR 11/11 A2981 1130 100 900 300/05 RMK AO2 T01060106
14926KSTC STC20170415193510304/15/17 19:35:31  5-MIN KSTC 160135Z 30005KT 10SM CLR 11/10 A2981 1130 96 900 300/05 RMK AO2 T01060100
14926KSTC STC20170415194010404/15/17 19:40:31  5-MIN KSTC 160140Z 30004KT 10SM CLR 10/10 A2981 1130 100 800 300/04 RMK AO2 T01000100
14926KSTC STC20170415194510404/15/17 19:45:31  5-MIN KSTC 160145Z 29005KT 10SM CLR 10/10 A2981 1130 100 800 290/05 RMK AO2 T01000100
14926KSTC STC20170415195011104/15/17 19:50:31  5-MIN KSTC 160150Z 29004KT 10SM CLR 10/10 A2981 1120 100 800 290/04 RMK AO2 SLP108 T01000100
14926KSTC STC20170415195510404/15/17 19:55:31  5-MIN KSTC 160155Z 00000KT 10SM CLR 10/10 A2981 1120 100 800 000/00 RMK AO2 T01000100
14926KSTC STC20170415200010404/15/17 20:00:31  5-MIN KSTC 160200Z 00000KT 10SM CLR 10/10 A2982 1120 100 800 000/00 RMK AO2 T01000100
14926KSTC STC20170415200510304/15/17 20:05:31  5-MIN KSTC 160205Z 26006KT 10SM CLR 10/09 A2983 1110 96 800 260/06 RMK AO2 T01000094
14926KSTC STC20170415201010904/15/17 20:10:31  5-MIN KSTC 160210Z AUTO 28008KT 10SM CLR 09/09 A2983 1110 100 700 280/08 RMK AO2 T00940094
14926KSTC STC20170415201511604/15/17 20:15:31  5-MIN KSTC 160215Z AUTO 28010KT 10SM CLR 10/10 A2984 1100 100 800 280/10 RMK AO2 PRESRR T01000100
14926KSTC STC20170415202010904/15/17 20:20:31  5-MIN KSTC 160220Z AUTO 29010KT 10SM CLR 10/10 A2984 1100 100 800 280/10 RMK AO2 T01000100
14926KSTC STC20170415202510904/15/17 20:25:31  5-MIN KSTC 160225Z AUTO 28009KT 10SM CLR 10/10 A2985 1090 100 800 280/09 RMK AO2 T01000100
14926KSTC STC20170415203011104/15/17 20:30:31  5-MIN KSTC 160230Z AUTO 28009KT 10SM FEW110 10/09 A2985 1090 96 800 280/09 RMK AO2 T01000094
14926KSTC STC20170415203511104/15/17 20:35:31  5-MIN KSTC 160235Z AUTO 29009KT 10SM SCT110 10/09 A2985 1090 96 800 280/09 RMK AO2 T01000094
14926KSTC STC20170415204011104/15/17 20:40:31  5-MIN KSTC 160240Z AUTO 28008KT 10SM BKN110 11/10 A2986 1080 96 900 280/08 RMK AO2 T01060100
14926KSTC STC20170415204511204/15/17 20:45:31  5-MIN KSTC 160245Z AUTO 28009KT 10SM BKN110 10/10 A2986 1080 100 800 280/09 RMK AO2 T01000100
14926KSTC STC20170415205012604/15/17 20:50:31  5-MIN KSTC 160250Z 28009KT 10SM BKN110 10/10 A2986 1080 100 800 280/09 RMK AO2 SLP122 60005 T01000100 52014
14926KSTC STC20170415205510704/15/17 20:55:31  5-MIN KSTC 160255Z 28007KT 10SM BKN110 10/10 A2986 1080 100 800 280/07 RMK AO2 T01000100
14926KSTC STC20170415210010704/15/17 21:00:31  5-MIN KSTC 160300Z 28007KT 10SM BKN110 10/10 A2986 1080 100 800 280/07 RMK AO2 T01000100
14926KSTC STC20170415210510604/15/17 21:05:31  5-MIN KSTC 160305Z 28006KT 10SM BKN110 10/09 A2986 1080 96 800 280/06 RMK AO2 T01000094
14926KSTC STC20170415211010604/15/17 21:10:31  5-MIN KSTC 160310Z 27006KT 10SM BKN110 10/09 A2986 1080 96 800 260/06 RMK AO2 T01000094
14926KSTC STC20170415211510604/15/17 21:15:31  5-MIN KSTC 160315Z 27007KT 10SM BKN110 10/09 A2986 1080 96 800 270/07 RMK AO2 T01000094
14926KSTC STC20170415212010604/15/17 21:20:31  5-MIN KSTC 160320Z 27006KT 10SM SCT110 10/09 A2986 1080 96 800 270/06 RMK AO2 T01000094
14926KSTC STC20170415212510604/15/17 21:25:31  5-MIN KSTC 160325Z 28004KT 10SM FEW120 10/09 A2986 1090 96 800 280/04 RMK AO2 T01000094
14926KSTC STC20170415213010704/15/17 21:30:31  5-MIN KSTC 160330Z 27004KT 10SM FEW120 09/09 A2986 1080 100 700 270/04 RMK AO2 T00940094
14926KSTC STC20170415213510604/15/17 21:35:31  5-MIN KSTC 160335Z 25005KT 10SM FEW120 09/09 A2986 1080 96 700 250/05 RMK AO2 T00940089
14926KSTC STC20170415214010404/15/17 21:40:31  5-MIN KSTC 160340Z 25005KT 10SM CLR 09/09 A2986 1080 100 600 250/05 RMK AO2 T00890089
14926KSTC STC20170415214510304/15/17 21:45:31  5-MIN KSTC 160345Z 26005KT 10SM CLR 09/08 A2986 1080 96 700 260/05 RMK AO2 T00890083
14926KSTC STC20170415215011004/15/17 21:50:31  5-MIN KSTC 160350Z 27006KT 10SM CLR 09/08 A2985 1090 96 700 270/06 RMK AO2 SLP120 T00890083
14926KSTC STC20170415215510304/15/17 21:55:31  5-MIN KSTC 160355Z 27006KT 10SM CLR 09/08 A2985 1090 93 700 260/06 RMK AO2 T00940083
14926KSTC STC20170415220010304/15/17 22:00:31  5-MIN KSTC 160400Z 26007KT 10SM CLR 09/08 A2985 1090 96 700 260/07 RMK AO2 T00890083
14926KSTC STC20170415220510804/15/17 22:05:31  5-MIN KSTC 160405Z AUTO 28008KT 10SM CLR 09/08 A2985 1090 96 700 270/08 RMK AO2 T00890083
14926KSTC STC20170415221010804/15/17 22:10:31  5-MIN KSTC 160410Z AUTO 28008KT 10SM CLR 09/08 A2985 1090 93 700 280/08 RMK AO2 T00940083
14926KSTC STC20170415221510804/15/17 22:15:31  5-MIN KSTC 160415Z AUTO 27008KT 10SM CLR 09/08 A2985 1090 93 700 270/08 RMK AO2 T00940083
14926KSTC STC20170415222010804/15/17 22:20:31  5-MIN KSTC 160420Z AUTO 27007KT 10SM CLR 09/08 A2985 1090 93 700 270/07 RMK AO2 T00940083
14926KSTC STC20170415222510804/15/17 22:25:31  5-MIN KSTC 160425Z AUTO 27007KT 10SM CLR 09/08 A2985 1090 93 700 270/07 RMK AO2 T00940083
14926KSTC STC20170415223010804/15/17 22:30:31  5-MIN KSTC 160430Z AUTO 27007KT 10SM CLR 09/08 A2985 1090 93 700 270/07 RMK AO2 T00940083
14926KSTC STC20170415223510804/15/17 22:35:31  5-MIN KSTC 160435Z AUTO 27006KT 10SM CLR 09/08 A2984 1100 93 700 270/06 RMK AO2 T00940083
14926KSTC STC20170415224010804/15/17 22:40:31  5-MIN KSTC 160440Z AUTO 27006KT 10SM CLR 09/08 A2984 1100 93 700 270/06 RMK AO2 T00890078
14926KSTC STC20170415224510804/15/17 22:45:31  5-MIN KSTC 160445Z AUTO 27006KT 10SM CLR 09/08 A2984 1100 93 700 270/06 RMK AO2 T00890078
14926KSTC STC20170415225011504/15/17 22:50:31  5-MIN KSTC 160450Z AUTO 26007KT 10SM CLR 08/08 A2984 1100 96 600 260/07 RMK AO2 SLP116 T00830078
14926KSTC STC20170415225510804/15/17 22:55:31  5-MIN KSTC 160455Z AUTO 25006KT 10SM CLR 08/07 A2984 1100 93 600 250/06 RMK AO2 T00830072
14926KSTC STC20170415230010804/15/17 23:00:31  5-MIN KSTC 160500Z AUTO 25006KT 10SM CLR 08/08 A2984 1100 96 600 250/06 RMK AO2 T00830078
14926KSTC STC20170415230510804/15/17 23:05:31  5-MIN KSTC 160505Z AUTO 25006KT 10SM CLR 08/07 A2984 1100 96 500 250/06 RMK AO2 T00780072
14926KSTC STC20170415231010804/15/17 23:10:31  5-MIN KSTC 160510Z AUTO 25006KT 10SM CLR 08/07 A2984 1100 96 500 250/06 RMK AO2 T00780072
14926KSTC STC20170415231510804/15/17 23:15:31  5-MIN KSTC 160515Z AUTO 25006KT 10SM CLR 08/07 A2984 1100 96 500 250/06 RMK AO2 T00780072
14926KSTC STC20170415232010804/15/17 23:20:31  5-MIN KSTC 160520Z AUTO 26007KT 10SM CLR 08/07 A2984 1100 96 500 250/07 RMK AO2 T00780072
14926KSTC STC20170415232510804/15/17 23:25:31  5-MIN KSTC 160525Z AUTO 25006KT 10SM CLR 07/07 A2985 1100 96 500 250/06 RMK AO2 T00720067
14926KSTC STC20170415233010804/15/17 23:30:31  5-MIN KSTC 160530Z AUTO 25006KT 10SM CLR 08/07 A2985 1090 93 500 250/06 RMK AO2 T00780067
14926KSTC STC20170415233510804/15/17 23:35:31  5-MIN KSTC 160535Z AUTO 25006KT 10SM CLR 07/07 A2985 1090 96 500 250/06 RMK AO2 T00720067
14926KSTC STC20170415234010804/15/17 23:40:31  5-MIN KSTC 160540Z AUTO 24005KT 10SM CLR 08/07 A2985 1090 93 500 240/05 RMK AO2 T00780067
14926KSTC STC20170415234510804/15/17 23:45:31  5-MIN KSTC 160545Z AUTO 24005KT 10SM CLR 08/07 A2985 1090 93 500 240/05 RMK AO2 T00780067
14926KSTC STC20170415235014904/15/17 23:50:31  5-MIN KSTC 160550Z AUTO 24005KT 10SM CLR 08/07 A2985 1090 93 500 240/05 RMK AO2 SLP120 60005 T00780067 10117 20072 401830072 53011
14926KSTC STC20170415235510804/15/17 23:55:31  5-MIN KSTC 160555Z AUTO 25006KT 10SM CLR 07/07 A2985 1090 96 500 240/06 RMK AO2 T00720067
14926KSTC STC20170416000010804/16/17 00:00:31  5-MIN KSTC 160600Z AUTO 25005KT 10SM CLR 07/07 A2986 1090 96 500 250/05 RMK AO2 T00720067
14926KSTC STC20170416000510804/16/17 00:05:31  5-MIN KSTC 160605Z AUTO 26005KT 10SM CLR 07/07 A2986 1080 96 400 260/05 RMK AO2 T00720067
14926KSTC STC20170416001010804/16/17 00:10:31  5-MIN KSTC 160610Z AUTO 26005KT 10SM CLR 07/07 A2986 1080 96 400 260/05 RMK AO2 T00720067
14926KSTC STC20170416001510804/16/17 00:15:31  5-MIN KSTC 160615Z AUTO 26006KT 10SM CLR 07/06 A2986 1080 93 400 260/06 RMK AO2 T00720061
14926KSTC STC20170416002010804/16/17 00:20:31  5-MIN KSTC 160620Z AUTO 27007KT 10SM CLR 07/06 A2986 1080 93 400 270/07 RMK AO2 T00720061
14926KSTC STC20170416002510804/16/17 00:25:31  5-MIN KSTC 160625Z AUTO 28007KT 10SM CLR 07/06 A2986 1080 93 400 280/07 RMK AO2 T00720061
14926KSTC STC20170416003010804/16/17 00:30:31  5-MIN KSTC 160630Z AUTO 28008KT 10SM CLR 08/06 A2986 1080 86 600 280/08 RMK AO2 T00830061
14926KSTC STC20170416003510804/16/17 00:35:31  5-MIN KSTC 160635Z AUTO 29006KT 10SM CLR 08/06 A2986 1080 82 600 290/06 RMK AO2 T00830056
14926KSTC STC20170416004010804/16/17 00:40:31  5-MIN KSTC 160640Z AUTO 29006KT 10SM CLR 08/06 A2987 1080 82 600 290/06 RMK AO2 T00830056
14926KSTC STC20170416004510804/16/17 00:45:31  5-MIN KSTC 160645Z AUTO 28005KT 10SM CLR 08/06 A2987 1080 86 500 280/05 RMK AO2 T00780056
14926KSTC STC20170416005011504/16/17 00:50:31  5-MIN KSTC 160650Z AUTO 29005KT 10SM CLR 08/06 A2987 1070 86 500 290/05 RMK AO2 SLP124 T00780056
14926KSTC STC20170416005510804/16/17 00:55:31  5-MIN KSTC 160655Z AUTO 28008KT 10SM CLR 07/06 A2988 1070 89 400 280/08 RMK AO2 T00720056
14926KSTC STC20170416010010804/16/17 01:00:31  5-MIN KSTC 160700Z AUTO 29010KT 10SM CLR 08/05 A2988 1060 79 600 290/10 RMK AO2 T00830050
14926KSTC STC20170416010510804/16/17 01:05:31  5-MIN KSTC 160705Z AUTO 29011KT 10SM CLR 08/05 A2988 1060 79 600 290/11 RMK AO2 T00830050
14926KSTC STC20170416011010804/16/17 01:10:31  5-MIN KSTC 160710Z AUTO 29013KT 10SM CLR 09/05 A2988 1060 76 600 290/13 RMK AO2 T00890050
14926KSTC STC20170416011510804/16/17 01:15:31  5-MIN KSTC 160715Z AUTO 29013KT 10SM CLR 09/05 A2989 1060 76 600 290/13 RMK AO2 T00890050
14926KSTC STC20170416012010804/16/17 01:20:31  5-MIN KSTC 160720Z AUTO 30013KT 10SM CLR 08/05 A2988 1060 79 600 300/13 RMK AO2 T00830050
14926KSTC STC20170416012510804/16/17 01:25:31  5-MIN KSTC 160725Z AUTO 30012KT 10SM CLR 08/05 A2988 1060 79 600 300/12 RMK AO2 T00830050
14926KSTC STC20170416013010804/16/17 01:30:31  5-MIN KSTC 160730Z AUTO 30010KT 10SM CLR 08/05 A2989 1060 79 600 290/10 RMK AO2 T00830050
14926KSTC STC20170416013510804/16/17 01:35:31  5-MIN KSTC 160735Z AUTO 30010KT 10SM CLR 08/05 A2989 1060 79 600 290/10 RMK AO2 T00830050
14926KSTC STC20170416014010804/16/17 01:40:31  5-MIN KSTC 160740Z AUTO 30010KT 10SM CLR 08/04 A2988 1060 76 600 300/10 RMK AO2 T00830044
14926KSTC STC20170416014510804/16/17 01:45:31  5-MIN KSTC 160745Z AUTO 30010KT 10SM CLR 08/04 A2988 1060 76 600 300/10 RMK AO2 T00830044
14926KSTC STC20170416015011504/16/17 01:50:31  5-MIN KSTC 160750Z AUTO 30009KT 10SM CLR 08/04 A2989 1060 79 500 300/09 RMK AO2 SLP131 T00780044
14926KSTC STC20170416015510804/16/17 01:55:31  5-MIN KSTC 160755Z AUTO 30009KT 10SM CLR 08/04 A2989 1060 79 500 300/09 RMK AO2 T00780044
14926KSTC STC20170416020010804/16/17 02:00:31  5-MIN KSTC 160800Z AUTO 29009KT 10SM CLR 08/04 A2989 1060 79 500 290/09 RMK AO2 T00780044
14926KSTC STC20170416020510804/16/17 02:05:31  5-MIN KSTC 160805Z AUTO 29008KT 10SM CLR 08/04 A2989 1050 79 500 290/08 RMK AO2 T00780044
14926KSTC STC20170416021010804/16/17 02:10:31  5-MIN KSTC 160810Z AUTO 29008KT 10SM CLR 08/04 A2989 1050 79 500 290/08 RMK AO2 T00780044
14926KSTC STC20170416021510804/16/17 02:15:31  5-MIN KSTC 160815Z AUTO 29009KT 10SM CLR 08/04 A2989 1050 79 500 290/09 RMK AO2 T00780044
14926KSTC STC20170416022010804/16/17 02:20:31  5-MIN KSTC 160820Z AUTO 30011KT 10SM CLR 08/04 A2989 1050 79 500 290/11 RMK AO2 T00780044
14926KSTC STC20170416022510804/16/17 02:25:31  5-MIN KSTC 160825Z AUTO 29011KT 10SM CLR 08/04 A2990 1050 79 500 290/11 RMK AO2 T00780044
14926KSTC STC20170416023010804/16/17 02:30:31  5-MIN KSTC 160830Z AUTO 29010KT 10SM CLR 08/04 A2990 1050 79 500 290/10 RMK AO2 T00780044
14926KSTC STC20170416023510804/16/17 02:35:31  5-MIN KSTC 160835Z AUTO 30009KT 10SM CLR 08/04 A2990 1050 79 500 300/09 RMK AO2 T00780044
14926KSTC STC20170416024010804/16/17 02:40:31  5-MIN KSTC 160840Z AUTO 30008KT 10SM CLR 08/04 A2990 1040 79 500 290/08 RMK AO2 T00780044
14926KSTC STC20170416024510804/16/17 02:45:31  5-MIN KSTC 160845Z AUTO 30009KT 10SM CLR 08/04 A2990 1040 79 500 300/09 RMK AO2 T00780044
14926KSTC STC20170416025012104/16/17 02:50:31  5-MIN KSTC 160850Z AUTO 29010KT 10SM CLR 08/04 A2990 1040 79 500 290/10 RMK AO2 SLP136 T00780044 55001
14926KSTC STC20170416025510804/16/17 02:55:31  5-MIN KSTC 160855Z AUTO 30009KT 10SM CLR 08/04 A2990 1040 79 500 290/09 RMK AO2 T00780044
14926KSTC STC20170416030010804/16/17 03:00:31  5-MIN KSTC 160900Z AUTO 30010KT 10SM CLR 07/04 A2990 1040 82 400 290/10 RMK AO2 T00720044
14926KSTC STC20170416030510804/16/17 03:05:31  5-MIN KSTC 160905Z AUTO 30009KT 10SM CLR 08/04 A2990 1040 79 500 290/09 RMK AO2 T00780044
14926KSTC STC20170416031010804/16/17 03:10:31  5-MIN KSTC 160910Z AUTO 29009KT 10SM CLR 07/04 A2991 1040 82 400 290/09 RMK AO2 T00720044
14926KSTC STC20170416031510804/16/17 03:15:31  5-MIN KSTC 160915Z AUTO 28008KT 10SM CLR 07/04 A2991 1040 82 400 280/08 RMK AO2 T00720044
14926KSTC STC20170416032010804/16/17 03:20:31  5-MIN KSTC 160920Z AUTO 28010KT 10SM CLR 08/04 A2991 1030 79 500 280/10 RMK AO2 T00780044
14926KSTC STC20170416032510804/16/17 03:25:31  5-MIN KSTC 160925Z AUTO 28010KT 10SM CLR 08/04 A2991 1030 79 500 280/10 RMK AO2 T00780044
14926KSTC STC20170416033010804/16/17 03:30:31  5-MIN KSTC 160930Z AUTO 29009KT 10SM CLR 07/04 A2991 1030 82 400 280/09 RMK AO2 T00720044
14926KSTC STC20170416033510804/16/17 03:35:31  5-MIN KSTC 160935Z AUTO 28009KT 10SM CLR 07/04 A2991 1030 82 400 280/09 RMK AO2 T00720044
14926KSTC STC20170416034010804/16/17 03:40:31  5-MIN KSTC 160940Z AUTO 29009KT 10SM CLR 07/04 A2991 1030 82 400 280/09 RMK AO2 T00720044
14926KSTC STC20170416034510804/16/17 03:45:31  5-MIN KSTC 160945Z AUTO 28008KT 10SM CLR 07/04 A2991 1030 82 400 280/08 RMK AO2 T00720044
14926KSTC STC20170416035011504/16/17 03:50:31  5-MIN KSTC 160950Z AUTO 28010KT 10SM CLR 07/04 A2992 1030 82 400 280/10 RMK AO2 SLP141 T00720044
14926KSTC STC20170416035510804/16/17 03:55:31  5-MIN KSTC 160955Z AUTO 29011KT 10SM CLR 07/04 A2992 1030 82 400 290/11 RMK AO2 T00720044
14926KSTC STC20170416040010804/16/17 04:00:31  5-MIN KSTC 161000Z AUTO 29010KT 10SM CLR 07/04 A2992 1030 82 400 290/10 RMK AO2 T00720044
14926KSTC STC20170416040510804/16/17 04:05:31  5-MIN KSTC 161005Z AUTO 28009KT 10SM CLR 07/04 A2992 1030 79 400 280/09 RMK AO2 T00720039
14926KSTC STC20170416041010804/16/17 04:10:31  5-MIN KSTC 161010Z AUTO 28008KT 10SM CLR 07/04 A2992 1030 79 400 280/08 RMK AO2 T00720039
14926KSTC STC20170416041510804/16/17 04:15:31  5-MIN KSTC 161015Z AUTO 28008KT 10SM CLR 07/04 A2992 1030 82 300 280/08 RMK AO2 T00670039
14926KSTC STC20170416042010804/16/17 04:20:31  5-MIN KSTC 161020Z AUTO 28009KT 10SM CLR 07/04 A2992 1030 79 400 280/09 RMK AO2 T00720039
14926KSTC STC20170416042510804/16/17 04:25:31  5-MIN KSTC 161025Z AUTO 28008KT 10SM CLR 07/04 A2992 1030 82 300 280/08 RMK AO2 T00670039
14926KSTC STC20170416043010804/16/17 04:30:31  5-MIN KSTC 161030Z AUTO 28009KT 10SM CLR 07/04 A2992 1030 82 300 280/09 RMK AO2 T00670039
14926KSTC STC20170416043510804/16/17 04:35:31  5-MIN KSTC 161035Z AUTO 27010KT 10SM CLR 07/04 A2992 1020 82 300 270/10 RMK AO2 T00670039
14926KSTC STC20170416044010804/16/17 04:40:31  5-MIN KSTC 161040Z AUTO 28009KT 10SM CLR 07/04 A2992 1030 82 300 280/09 RMK AO2 T00670039
14926KSTC STC20170416044510804/16/17 04:45:31  5-MIN KSTC 161045Z AUTO 28010KT 10SM CLR 07/04 A2992 1020 82 300 280/10 RMK AO2 T00670039
14926KSTC STC20170416045011504/16/17 04:50:31  5-MIN KSTC 161050Z AUTO 28009KT 10SM CLR 07/04 A2993 1020 82 300 280/09 RMK AO2 SLP147 T00670039
14926KSTC STC20170416045510804/16/17 04:55:31  5-MIN KSTC 161055Z AUTO 28009KT 10SM CLR 07/04 A2993 1020 82 300 280/09 RMK AO2 T00670039
14926KSTC STC20170416050010804/16/17 05:00:31  5-MIN KSTC 161100Z AUTO 28010KT 10SM CLR 07/04 A2993 1020 82 300 280/10 RMK AO2 T00670039
14926KSTC STC20170416050510804/16/17 05:05:31  5-MIN KSTC 161105Z AUTO 28010KT 10SM CLR 07/04 A2993 1020 82 300 280/10 RMK AO2 T00670039
14926KSTC STC20170416051010804/16/17 05:10:31  5-MIN KSTC 161110Z AUTO 28010KT 10SM CLR 07/04 A2993 1020 82 300 280/10 RMK AO2 T00670039
14926KSTC STC20170416051510804/16/17 05:15:31  5-MIN KSTC 161115Z AUTO 28013KT 10SM CLR 07/03 A2993 1010 79 300 280/13 RMK AO2 T00670033
14926KSTC STC20170416052010804/16/17 05:20:31  5-MIN KSTC 161120Z AUTO 28012KT 10SM CLR 07/03 A2993 1010 79 300 280/12 RMK AO2 T00670033
14926KSTC STC20170416052510804/16/17 05:25:31  5-MIN KSTC 161125Z AUTO 29012KT 10SM CLR 07/03 A2993 1010 79 300 290/12 RMK AO2 T00670033
14926KSTC STC20170416053010804/16/17 05:30:31  5-MIN KSTC 161130Z AUTO 29011KT 10SM CLR 07/03 A2994 1010 79 300 290/11 RMK AO2 T00670033
14926KSTC STC20170416053510804/16/17 05:35:31  5-MIN KSTC 161135Z AUTO 29011KT 10SM CLR 07/03 A2993 1010 79 300 290/11 RMK AO2 T00670033
14926KSTC STC20170416054010804/16/17 05:40:31  5-MIN KSTC 161140Z AUTO 30011KT 10SM CLR 07/03 A2994 1010 79 300 290/11 RMK AO2 T00670033
14926KSTC STC20170416054510804/16/17 05:45:31  5-MIN KSTC 161145Z AUTO 29011KT 10SM CLR 06/03 A2994 1010 82 200 290/11 RMK AO2 T00610033
14926KSTC STC20170416055013404/16/17 05:50:31  5-MIN KSTC 161150Z 29009KT 10SM CLR 07/03 A2994 1010 79 300 290/09 RMK AO2 SLP152 70028 T00670033 10089 20061 51017
14926KSTC STC20170416055510304/16/17 05:55:31  5-MIN KSTC 161155Z 28009KT 10SM CLR 06/03 A2994 1010 82 200 280/09 RMK AO2 T00610033
14926KSTC STC20170416060010304/16/17 06:00:31  5-MIN KSTC 161200Z 27008KT 10SM CLR 06/03 A2995 1000 82 200 270/08 RMK AO2 T00610033
14926KSTC STC20170416060510304/16/17 06:05:31  5-MIN KSTC 161205Z 27009KT 10SM CLR 06/03 A2995 1000 82 200 270/09 RMK AO2 T00610033
14926KSTC STC20170416061010304/16/17 06:10:31  5-MIN KSTC 161210Z 27009KT 10SM CLR 06/03 A2995 1000 82 200 260/09 RMK AO2 T00610033
14926KSTC STC20170416061510304/16/17 06:15:31  5-MIN KSTC 161215Z 26009KT 10SM CLR 07/03 A2995 1000 79 300 260/09 RMK AO2 T00670033
14926KSTC STC20170416062010304/16/17 06:20:31  5-MIN KSTC 161220Z 27009KT 10SM CLR 07/03 A2995 1000 79 300 260/09 RMK AO2 T00670033
14926KSTC STC20170416062510204/16/17 06:25:31  5-MIN KSTC 161225Z 26008KT 10SM CLR 07/03 A2996 990 79 300 260/08 RMK AO2 T00670033
14926KSTC STC20170416063010204/16/17 06:30:31  5-MIN KSTC 161230Z 26009KT 10SM CLR 07/03 A2996 990 79 300 260/09 RMK AO2 T00670033
14926KSTC STC20170416063510204/16/17 06:35:31  5-MIN KSTC 161235Z 26009KT 10SM CLR 07/04 A2996 990 79 300 260/09 RMK AO2 T00720039
14926KSTC STC20170416064010204/16/17 06:40:31  5-MIN KSTC 161240Z 27009KT 10SM CLR 07/04 A2996 990 79 300 270/09 RMK AO2 T00720039
14926KSTC STC20170416064510204/16/17 06:45:31  5-MIN KSTC 161245Z 26008KT 10SM CLR 07/04 A2996 990 79 300 260/08 RMK AO2 T00720039
14926KSTC STC20170416065010904/16/17 06:50:31  5-MIN KSTC 161250Z 26009KT 10SM CLR 08/04 A2996 990 76 400 250/09 RMK AO2 SLP159 T00780039
14926KSTC STC20170416065510204/16/17 06:55:31  5-MIN KSTC 161255Z 26008KT 10SM CLR 08/04 A2997 990 76 400 260/08 RMK AO2 T00780039
14926KSTC STC20170416070010204/16/17 07:00:31  5-MIN KSTC 161300Z 27011KT 10SM CLR 08/04 A2997 980 76 400 270/11 RMK AO2 T00780039
14926KSTC STC20170416070510204/16/17 07:05:31  5-MIN KSTC 161305Z 28011KT 10SM CLR 08/04 A2997 980 73 500 280/11 RMK AO2 T00830039
14926KSTC STC20170416071010204/16/17 07:10:31  5-MIN KSTC 161310Z 28012KT 10SM CLR 08/04 A2997 980 73 500 280/12 RMK AO2 T00830039
14926KSTC STC20170416071510204/16/17 07:15:31  5-MIN KSTC 161315Z 28011KT 10SM CLR 08/04 A2997 980 73 500 280/11 RMK AO2 T00830039
14926KSTC STC20170416072010204/16/17 07:20:31  5-MIN KSTC 161320Z 27013KT 10SM CLR 08/04 A2998 980 73 400 270/13 RMK AO2 T00830039
14926KSTC STC20170416072510204/16/17 07:25:31  5-MIN KSTC 161325Z 28014KT 10SM CLR 08/04 A2998 970 73 400 280/14 RMK AO2 T00830039
14926KSTC STC20170416073010204/16/17 07:30:31  5-MIN KSTC 161330Z 28014KT 10SM CLR 09/04 A2998 970 71 500 270/14 RMK AO2 T00890039
14926KSTC STC20170416073510804/16/17 07:35:31  5-MIN KSTC 161335Z 28013G22KT 10SM CLR 09/04 A2998 980 71 500 280/13G22 RMK AO2 T00890039
14926KSTC STC20170416074010804/16/17 07:40:31  5-MIN KSTC 161340Z 28014G22KT 10SM CLR 09/04 A2998 980 71 500 280/14G22 RMK AO2 T00890039
14926KSTC STC20170416074510204/16/17 07:45:31  5-MIN KSTC 161345Z 28013KT 10SM CLR 09/04 A2997 980 71 500 280/13 RMK AO2 T00890039
14926KSTC STC20170416075010904/16/17 07:50:31  5-MIN KSTC 161350Z 28013KT 10SM CLR 09/04 A2998 980 68 600 280/13 RMK AO2 SLP163 T00940039
14926KSTC STC20170416075510204/16/17 07:55:31  5-MIN KSTC 161355Z 29012KT 10SM CLR 09/04 A2998 970 68 600 290/12 RMK AO2 T00940039
14926KSTC STC20170416080010204/16/17 08:00:31  5-MIN KSTC 161400Z 29015KT 10SM CLR 09/04 A2998 970 68 600 290/15 RMK AO2 T00940039
14926KSTC STC20170416080510204/16/17 08:05:31  5-MIN KSTC 161405Z 28015KT 10SM CLR 09/04 A2998 970 68 600 280/15 RMK AO2 T00940039
14926KSTC STC20170416081010204/16/17 08:10:31  5-MIN KSTC 161410Z 28015KT 10SM CLR 09/04 A2998 970 68 600 280/15 RMK AO2 T00940039
14926KSTC STC20170416081510204/16/17 08:15:31  5-MIN KSTC 161415Z 29015KT 10SM CLR 09/04 A2998 970 68 600 290/15 RMK AO2 T00940039
14926KSTC STC20170416082010204/16/17 08:20:31  5-MIN KSTC 161420Z 29018KT 10SM CLR 09/04 A2998 970 68 600 290/18 RMK AO2 T00940039
14926KSTC STC20170416082510204/16/17 08:25:31  5-MIN KSTC 161425Z 29015KT 10SM CLR 09/04 A2998 970 68 600 290/15 RMK AO2 T00940039
14926KSTC STC20170416083010204/16/17 08:30:31  5-MIN KSTC 161430Z 29014KT 10SM CLR 10/04 A2999 970 65 600 290/14 RMK AO2 T01000039
14926KSTC STC20170416083510204/16/17 08:35:31  5-MIN KSTC 161435Z 29013KT 10SM CLR 10/04 A2999 970 68 600 290/13 RMK AO2 T01000044
14926KSTC STC20170416084010204/16/17 08:40:31  5-MIN KSTC 161440Z 29016KT 10SM CLR 10/04 A2999 960 68 600 280/16 RMK AO2 T01000044
14926KSTC STC20170416084510204/16/17 08:45:31  5-MIN KSTC 161445Z 28016KT 10SM CLR 10/04 A2999 960 68 600 280/16 RMK AO2 T01000044
14926KSTC STC20170416085011504/16/17 08:50:31  5-MIN KSTC 161450Z 28013KT 10SM CLR 10/04 A2999 960 68 600 280/13 RMK AO2 SLP169 T01000044 53012
14926KSTC STC20170416085510204/16/17 08:55:31  5-MIN KSTC 161455Z 28012KT 10SM CLR 11/04 A2999 960 66 700 280/12 RMK AO2 T01060044
14926KSTC STC20170416090010204/16/17 09:00:31  5-MIN KSTC 161500Z 28011KT 10SM CLR 11/05 A3000 960 66 800 280/11 RMK AO2 T01110050
14926KSTC STC20170416090510204/16/17 09:05:31  5-MIN KSTC 161505Z 30013KT 10SM CLR 11/05 A3000 950 66 800 300/13 RMK AO2 T01110050
14926KSTC STC20170416091010204/16/17 09:10:31  5-MIN KSTC 161510Z 28015KT 10SM CLR 11/05 A3000 950 66 800 280/15 RMK AO2 T01110050
14926KSTC STC20170416091510204/16/17 09:15:31  5-MIN KSTC 161515Z 29013KT 10SM CLR 11/05 A3000 950 66 800 290/13 RMK AO2 T01110050
14926KSTC STC20170416092010204/16/17 09:20:31  5-MIN KSTC 161520Z 28013KT 10SM CLR 11/05 A3000 950 66 800 280/13 RMK AO2 T01110050
14926KSTC STC20170416092510204/16/17 09:25:31  5-MIN KSTC 161525Z 28013KT 10SM CLR 11/05 A3000 950 66 700 280/13 RMK AO2 T01110050
14926KSTC STC20170416093010804/16/17 09:30:31  5-MIN KSTC 161530Z 29014G20KT 10SM CLR 12/04 A3001 950 61 800 290/14G20 RMK AO2 T01170044
14926KSTC STC20170416093510804/16/17 09:35:31  5-MIN KSTC 161535Z 28014G20KT 10SM CLR 12/05 A3001 940 63 800 280/14G20 RMK AO2 T01170050
14926KSTC STC20170416094010204/16/17 09:40:31  5-MIN KSTC 161540Z 28012KT 10SM CLR 12/05 A3001 940 63 800 280/12 RMK AO2 T01170050
14926KSTC STC20170416094510804/16/17 09:45:31  5-MIN KSTC 161545Z 28012G21KT 10SM CLR 12/05 A3002 940 61 900 280/12G21 RMK AO2 T01220050
14926KSTC STC20170416095011504/16/17 09:50:31  5-MIN KSTC 161550Z 28015G21KT 10SM CLR 12/05 A3002 930 61 900 280/15G21 RMK AO2 SLP178 T01220050
14926KSTC STC20170416095510204/16/17 09:55:31  5-MIN KSTC 161555Z 30015KT 10SM CLR 12/05 A3002 930 61 900 300/15 RMK AO2 T01220050
14926KSTC STC20170416100010204/16/17 10:00:31  5-MIN KSTC 161600Z 27015KT 10SM CLR 12/05 A3002 930 61 900 270/15 RMK AO2 T01220050
14926KSTC STC20170416100510204/16/17 10:05:31  5-MIN KSTC 161605Z 26014KT 10SM CLR 13/05 A3002 930 59 900 260/14 RMK AO2 T01280050
14926KSTC STC20170416101010804/16/17 10:10:31  5-MIN KSTC 161610Z 26017G25KT 10SM CLR 13/04 A3002 930 56 900 260/17G25 RMK AO2 T01280044
14926KSTC STC20170416101510804/16/17 10:15:31  5-MIN KSTC 161615Z 26016G25KT 10SM CLR 13/04 A3003 930 54 900 260/16G25 RMK AO2 T01280039
14926KSTC STC20170416102010804/16/17 10:20:31  5-MIN KSTC 161620Z 27015G23KT 10SM CLR 13/04 A3003 930 54 900 260/15G23 RMK AO2 T01280039
14926KSTC STC20170416102510904/16/17 10:25:31  5-MIN KSTC 161625Z 26017G22KT 10SM CLR 13/04 A3003 920 54 1000 260/17G22 RMK AO2 T01330044
14926KSTC STC20170416103010904/16/17 10:30:31  5-MIN KSTC 161630Z 26015G21KT 10SM CLR 13/04 A3003 920 52 1000 260/15G21 RMK AO2 T01330039
14926KSTC STC20170416103510304/16/17 10:35:31  5-MIN KSTC 161635Z 27014KT 10SM CLR 13/04 A3003 920 54 1000 270/14 RMK AO2 T01330044
14926KSTC STC20170416104010304/16/17 10:40:31  5-MIN KSTC 161640Z 25017KT 10SM CLR 13/04 A3004 920 54 1000 250/17 RMK AO2 T01330044
14926KSTC STC20170416104512704/16/17 10:45:31  5-MIN KSTC 161645Z 26018G27KT 10SM CLR 13/04 A3003 920 54 1000 260/18G27 RMK AO2 PK WND 26027/1641 T01330044
14926KSTC STC20170416105013404/16/17 10:50:31  5-MIN KSTC 161650Z 27019G27KT 10SM CLR 14/04 A3004 920 52 1000 270/19G27 RMK AO2 PK WND 26027/1641 SLP183 T01390044
14926KSTC STC20170416105510904/16/17 10:55:31  5-MIN KSTC 161655Z 25020G24KT 10SM CLR 14/04 A3004 920 52 1000 250/20G24 RMK AO2 T01390044
14926KSTC STC20170416110010904/16/17 11:00:31  5-MIN KSTC 161700Z 25015G24KT 10SM CLR 14/04 A3003 920 51 1100 250/15G24 RMK AO2 T01440044
14926KSTC STC20170416110510904/16/17 11:05:31  5-MIN KSTC 161705Z 25017G21KT 10SM CLR 14/05 A3004 920 55 1000 250/17G21 RMK AO2 T01390050
14926KSTC STC20170416111011204/16/17 11:10:31  5-MIN KSTC 161710Z 24015G21KT 10SM FEW042 14/05 A3004 920 55 1000 240/15G21 RMK AO2 T01390050
14926KSTC STC20170416111511204/16/17 11:15:31  5-MIN KSTC 161715Z 25017G23KT 10SM FEW044 14/05 A3004 920 53 1100 250/17G23 RMK AO2 T01440050
14926KSTC STC20170416112010904/16/17 11:20:31  5-MIN KSTC 161720Z 24019G23KT 10SM CLR 14/04 A3004 920 51 1100 240/19G23 RMK AO2 T01440044
14926KSTC STC20170416112510904/16/17 11:25:31  5-MIN KSTC 161725Z 27018G23KT 10SM CLR 14/04 A3004 920 52 1000 260/18G23 RMK AO2 T01390044
14926KSTC STC20170416113010904/16/17 11:30:31  5-MIN KSTC 161730Z 27017G24KT 10SM CLR 14/04 A3004 920 51 1100 270/17G24 RMK AO2 T01440044
14926KSTC STC20170416113510904/16/17 11:35:31  5-MIN KSTC 161735Z 25019G24KT 10SM CLR 14/04 A3004 920 51 1100 250/19G24 RMK AO2 T01440044
14926KSTC STC20170416114012704/16/17 11:40:31  5-MIN KSTC 161740Z 25021G24KT 10SM CLR 14/04 A3004 920 49 1100 250/21G24 RMK AO2 PK WND 24026/1740 T01440039
14926KSTC STC20170416114512104/16/17 11:45:31  5-MIN KSTC 161745Z 25015KT 10SM CLR 15/04 A3004 920 49 1200 250/15 RMK AO2 PK WND 24026/1740 T01500044
14926KSTC STC20170416115015204/16/17 11:50:31  5-MIN KSTC 161750Z 25013G20KT 10SM CLR 15/04 A3004 920 49 1200 250/13G20 RMK AO2 PK WND 24026/1740 SLP183 T01500044 10150 20061 51017
14926KSTC STC20170416115511204/16/17 11:55:31  5-MIN KSTC 161755Z 26015G24KT 10SM FEW049 15/04 A3004 920 49 1200 260/15G24 RMK AO2 T01500044
14926KSTC STC20170416120011204/16/17 12:00:31  5-MIN KSTC 161800Z 25017G24KT 10SM FEW049 15/04 A3004 920 49 1200 250/17G24 RMK AO2 T01500044
14926KSTC STC20170416120511204/16/17 12:05:31  5-MIN KSTC 161805Z 24019G24KT 10SM FEW050 16/04 A3003 920 45 1200 240/19G24 RMK AO2 T01560039
14926KSTC STC20170416121013004/16/17 12:10:31  5-MIN KSTC 161810Z 26020G27KT 10SM FEW050 15/03 A3003 920 43 1200 260/20G27 RMK AO2 PK WND 25027/1809 T01500028
14926KSTC STC20170416121513004/16/17 12:15:31  5-MIN KSTC 161815Z 28015G27KT 10SM FEW050 15/03 A3003 920 43 1200 270/15G27 RMK AO2 PK WND 25027/1809 T01500028
14926KSTC STC20170416122013004/16/17 12:20:31  5-MIN KSTC 161820Z 25019G26KT 10SM FEW050 16/03 A3003 920 42 1200 250/19G26 RMK AO2 PK WND 25027/1809 T01560028
14926KSTC STC20170416122512704/16/17 12:25:31  5-MIN KSTC 161825Z 28017G26KT 10SM CLR 16/02 A3003 930 40 1200 280/17G26 RMK AO2 PK WND 25027/1809 T01560022
14926KSTC STC20170416123013004/16/17 12:30:31  5-MIN KSTC 161830Z 27021G29KT 10SM FEW060 16/03 A3003 920 42 1200 270/21G29 RMK AO2 PK WND 26029/1829 T01560028
14926KSTC STC20170416123513004/16/17 12:35:31  5-MIN KSTC 161835Z 26021G29KT 10SM FEW060 16/02 A3003 930 40 1200 260/21G29 RMK AO2 PK WND 26029/1829 T01560022
14926KSTC STC20170416124013004/16/17 12:40:31  5-MIN KSTC 161840Z 26020G26KT 10SM SCT060 16/03 A3003 930 40 1300 260/20G26 RMK AO2 PK WND 26029/1829 T01610028
14926KSTC STC20170416124513004/16/17 12:45:31  5-MIN KSTC 161845Z 27020G27KT 10SM SCT060 16/03 A3003 930 40 1300 270/20G27 RMK AO2 PK WND 26029/1829 T01610028
14926KSTC STC20170416125013704/16/17 12:50:31  5-MIN KSTC 161850Z 26018G28KT 10SM SCT060 16/02 A3002 930 39 1300 260/18G28 RMK AO2 PK WND 26029/1829 SLP178 T01610022
14926KSTC STC20170416125511204/16/17 12:55:31  5-MIN KSTC 161855Z 25015G28KT 10SM SCT060 16/02 A3002 930 39 1300 250/15G28 RMK AO2 T01610022
14926KSTC STC20170416130011204/16/17 13:00:31  5-MIN KSTC 161900Z 27018G25KT 10SM SCT060 16/02 A3002 930 39 1300 270/18G25 RMK AO2 T01560017
14926KSTC STC20170416130513704/16/17 13:05:31  5-MIN KSTC 161905Z 27022G31KT 10SM SCT060 SCT080 17/02 A3002 930 36 1400 260/22G31 RMK AO2 PK WND 27031/1904 T01670017
14926KSTC STC20170416131013904/16/17 13:10:31  5-MIN KSTC 161910Z 27017G31KT 10SM FEW060 FEW080 16/01 A3002 930 34 1300 270/17G31 RMK AO2 PK WND 27031/1904 T01610006 $
14926KSTC STC20170416131513204/16/17 13:15:31  5-MIN KSTC 161915Z 26023G31KT 10SM FEW065 16/01 A3002 930 34 1300 260/23G31 RMK AO2 PK WND 27031/1904 T01610006 $
14926KSTC STC20170416132013204/16/17 13:20:31  5-MIN KSTC 161920Z 27015G31KT 10SM FEW070 17/01 A3002 930 32 1400 270/15G31 RMK AO2 PK WND 27031/1904 T01720006 $
14926KSTC STC20170416132513304/16/17 13:25:31  5-MIN KSTC 161925Z 27019G28KT 10SM FEW070 17/M01 A3002 930 31 1400 270/19G28 RMK AO2 PK WND 27031/1904 T01671006 $
14926KSTC STC20170416133013304/16/17 13:30:31  5-MIN KSTC 161930Z 25022G28KT 10SM FEW075 17/M01 A3002 930 31 1400 250/22G28 RMK AO2 PK WND 27031/1904 T01671006 $
14926KSTC STC20170416133513304/16/17 13:35:31  5-MIN KSTC 161935Z 26023G32KT 10SM FEW075 17/M01 A3003 930 29 1400 260/23G32 RMK AO2 PK WND 27032/1934 T01671011 $
14926KSTC STC20170416134013304/16/17 13:40:31  5-MIN KSTC 161940Z 28019G32KT 10SM FEW075 17/M01 A3002 930 29 1400 280/19G32 RMK AO2 PK WND 27032/1934 T01671011 $
14926KSTC STC20170416134513004/16/17 13:45:31  5-MIN KSTC 161945Z 27021G29KT 10SM CLR 17/M01 A3002 930 29 1400 270/21G29 RMK AO2 PK WND 27032/1934 T01721006 $
14926KSTC STC20170416135013904/16/17 13:50:31  5-MIN KSTC 161950Z 26017G29KT 10SM FEW075 17/01 A3002 930 33 1400 260/17G29 RMK AO2 PK WND 27032/1934 SLP178 T01670006 $
14926KSTC STC20170416135513204/16/17 13:55:31  5-MIN KSTC 161955Z 26022G31KT 10SM SCT075 18/01 A3002 930 31 1500 260/22G31 RMK AO2 PK WND 25028/1954 T01780006 $
14926KSTC STC20170416140013304/16/17 14:00:31  5-MIN KSTC 162000Z 26018G31KT 10SM SCT075 17/M01 A3002 930 31 1400 260/18G31 RMK AO2 PK WND 25028/1954 T01671006 $
14926KSTC STC20170416140513304/16/17 14:05:31  5-MIN KSTC 162005Z 28018G28KT 10SM FEW075 17/M01 A3002 930 29 1400 280/18G28 RMK AO2 PK WND 25028/1954 T01721006 $
14926KSTC STC20170416141013204/16/17 14:10:31  5-MIN KSTC 162010Z 26017G31KT 10SM SCT075 17/00 A3002 930 31 1400 260/17G31 RMK AO2 PK WND 26031/2007 T01720000 $
14926KSTC STC20170416141513304/16/17 14:15:31  5-MIN KSTC 162015Z 26022G31KT 10SM BKN075 17/M01 A3002 930 29 1400 260/22G31 RMK AO2 PK WND 26031/2007 T01721006 $
14926KSTC STC20170416142014004/16/17 14:20:31  5-MIN KSTC 162020Z 27018G34KT 10SM SCT075 BKN090 17/M02 A3003 930 27 1400 270/18G34 RMK AO2 PK WND 27034/2016 T01721017 $
14926KSTC STC20170416142513304/16/17 14:25:31  5-MIN KSTC 162025Z 27018G34KT 10SM SCT080 17/M02 A3002 930 28 1400 270/18G34 RMK AO2 PK WND 27034/2016 T01671017 $
14926KSTC STC20170416143013304/16/17 14:30:31  5-MIN KSTC 162030Z 29019G31KT 10SM SCT080 17/M02 A3002 930 26 1400 290/19G31 RMK AO2 PK WND 27034/2016 T01721022 $
14926KSTC STC20170416143513304/16/17 14:35:31  5-MIN KSTC 162035Z 29018G31KT 10SM FEW080 17/M02 A3002 930 26 1400 290/18G31 RMK AO2 PK WND 27034/2016 T01721022 $
14926KSTC STC20170416144013304/16/17 14:40:31  5-MIN KSTC 162040Z 28020G27KT 10SM FEW080 17/M02 A3002 930 26 1400 280/20G27 RMK AO2 PK WND 27034/2016 T01721022 $
14926KSTC STC20170416144513304/16/17 14:45:31  5-MIN KSTC 162045Z 27019G31KT 10SM FEW085 17/M03 A3002 930 25 1500 270/19G31 RMK AO2 PK WND 27034/2016 T01721028 $
14926KSTC STC20170416145014304/16/17 14:50:31  5-MIN KSTC 162050Z 29024G32KT 10SM CLR 17/M03 A3002 930 24 1400 290/24G32 RMK AO2 PK WND 27034/2016 SLP177 T01721033 51014 $
14926KSTC STC20170416145511204/16/17 14:55:31  5-MIN KSTC 162055Z 28021G32KT 10SM CLR 18/M03 A3002 930 23 1500 280/21G32 RMK AO2 T01781033 $
14926KSTC STC20170416150013304/16/17 15:00:31  5-MIN KSTC 162100Z 27017G30KT 10SM FEW090 17/M03 A3002 930 25 1400 270/17G30 RMK AO2 PK WND 28029/2058 T01671033 $
14926KSTC STC20170416150513304/16/17 15:05:31  5-MIN KSTC 162105Z 28022G29KT 10SM FEW090 18/M03 A3002 940 24 1500 280/22G29 RMK AO2 PK WND 29029/2104 T01781028 $
14926KSTC STC20170416151013304/16/17 15:10:31  5-MIN KSTC 162110Z 29019G29KT 10SM SCT095 17/M03 A3002 940 25 1500 290/19G29 RMK AO2 PK WND 29029/2104 T01721028 $
14926KSTC STC20170416151513304/16/17 15:15:31  5-MIN KSTC 162115Z 28019G30KT 10SM BKN090 17/M03 A3002 940 25 1500 280/19G30 RMK AO2 PK WND 29030/2112 T01721028 $
14926KSTC STC20170416152014004/16/17 15:20:31  5-MIN KSTC 162120Z 27021G30KT 10SM SCT090 SCT100 18/M02 A3002 930 25 1500 270/21G30 RMK AO2 PK WND 29030/2112 T01781022 $
14926KSTC STC20170416152513304/16/17 15:25:31  5-MIN KSTC 162125Z 28019G29KT 10SM SCT090 18/M02 A3002 940 25 1500 280/19G29 RMK AO2 PK WND 29030/2112 T01781022 $
14926KSTC STC20170416153013304/16/17 15:30:31  5-MIN KSTC 162130Z 26019G27KT 10SM BKN090 18/M02 A3002 940 25 1500 260/19G27 RMK AO2 PK WND 29030/2112 T01781022 $
14926KSTC STC20170416153513304/16/17 15:35:31  5-MIN KSTC 162135Z 26021G28KT 10SM BKN090 18/M02 A3002 940 25 1500 260/21G28 RMK AO2 PK WND 29030/2112 T01781022 $
14926KSTC STC20170416154013304/16/17 15:40:31  5-MIN KSTC 162140Z 28024G33KT 10SM BKN090 18/M02 A3002 940 24 1600 280/24G33 RMK AO2 PK WND 29033/2140 T01831022 $
14926KSTC STC20170416154513304/16/17 15:45:31  5-MIN KSTC 162145Z 27019G33KT 10SM BKN090 18/M03 A3002 940 24 1500 270/19G33 RMK AO2 PK WND 29033/2140 T01781028 $
14926KSTC STC20170416155014004/16/17 15:50:31  5-MIN KSTC 162150Z 29023G31KT 10SM SCT090 17/M03 A3002 930 25 1500 290/23G31 RMK AO2 PK WND 29033/2140 SLP177 T01721028 $
14926KSTC STC20170416155511504/16/17 15:55:31  5-MIN KSTC 162155Z 27015G31KT 10SM SCT090 17/M02 A3002 940 26 1500 260/15G31 RMK AO2 T01721022 $
14926KSTC STC20170416160011504/16/17 16:00:31  5-MIN KSTC 162200Z 30017G23KT 10SM SCT085 17/M02 A3002 940 26 1500 300/17G23 RMK AO2 T01721022 $
14926KSTC STC20170416160511504/16/17 16:05:31  5-MIN KSTC 162205Z 30016G25KT 10SM FEW085 16/M03 A3002 940 27 1300 300/16G25 RMK AO2 T01611028 $
14926KSTC STC20170416161011504/16/17 16:10:31  5-MIN KSTC 162210Z 27014G25KT 10SM FEW085 17/M02 A3002 940 27 1400 270/14G25 RMK AO2 T01671022 $
14926KSTC STC20170416161511204/16/17 16:15:31  5-MIN KSTC 162215Z 29015G24KT 10SM CLR 17/M02 A3002 940 26 1500 290/15G24 RMK AO2 T01721022 $
14926KSTC STC20170416162011204/16/17 16:20:31  5-MIN KSTC 162220Z 28016G24KT 10SM CLR 17/M03 A3002 930 26 1400 280/16G24 RMK AO2 T01671028 $
14926KSTC STC20170416162511204/16/17 16:25:31  5-MIN KSTC 162225Z 30016G22KT 10SM CLR 17/M03 A3002 930 26 1400 300/16G22 RMK AO2 T01671028 $
14926KSTC STC20170416163011204/16/17 16:30:31  5-MIN KSTC 162230Z 29015G23KT 10SM CLR 17/M03 A3002 930 26 1400 290/15G23 RMK AO2 T01671028 $
14926KSTC STC20170416163510604/16/17 16:35:31  5-MIN KSTC 162235Z 30018KT 10SM CLR 17/M03 A3002 930 25 1500 300/18 RMK AO2 T01721028 $
14926KSTC STC20170416164010604/16/17 16:40:31  5-MIN KSTC 162240Z 29015KT 10SM CLR 16/M03 A3003 930 26 1300 290/15 RMK AO2 T01611033 $
14926KSTC STC20170416164510604/16/17 16:45:31  5-MIN KSTC 162245Z 27013KT 10SM CLR 16/M03 A3003 930 27 1300 270/13 RMK AO2 T01611028 $
14926KSTC STC20170416165011304/16/17 16:50:31  5-MIN KSTC 162250Z 27015KT 10SM CLR 17/M03 A3003 930 26 1400 270/15 RMK AO2 SLP178 T01671028 $
14926KSTC STC20170416165511204/16/17 16:55:31  5-MIN KSTC 162255Z 28015G22KT 10SM CLR 17/M03 A3003 930 26 1400 280/15G22 RMK AO2 T01671028 $
14926KSTC STC20170416170013004/16/17 17:00:31  5-MIN KSTC 162300Z 29020G26KT 10SM CLR 17/M04 A3003 930 24 1400 280/20G26 RMK AO2 PK WND 29026/2257 T01671039 $
14926KSTC STC20170416170513004/16/17 17:05:31  5-MIN KSTC 162305Z 29019G26KT 10SM CLR 17/M03 A3003 930 25 1400 290/19G26 RMK AO2 PK WND 29026/2257 T01671033 $
14926KSTC STC20170416171013004/16/17 17:10:31  5-MIN KSTC 162310Z 28018G26KT 10SM CLR 17/M04 A3003 930 24 1400 280/18G26 RMK AO2 PK WND 29026/2257 T01671039 $
14926KSTC STC20170416171513004/16/17 17:15:31  5-MIN KSTC 162315Z 28018G24KT 10SM CLR 17/M03 A3003 930 25 1400 280/18G24 RMK AO2 PK WND 29026/2257 T01671033 $
14926KSTC STC20170416172013004/16/17 17:20:31  5-MIN KSTC 162320Z 28017G25KT 10SM CLR 17/M03 A3003 930 25 1400 280/17G25 RMK AO2 PK WND 29026/2257 T01671033 $
14926KSTC STC20170416172513004/16/17 17:25:31  5-MIN KSTC 162325Z 28013G25KT 10SM CLR 17/M03 A3003 930 25 1400 280/13G25 RMK AO2 PK WND 29026/2257 T01671033 $
14926KSTC STC20170416173013004/16/17 17:30:31  5-MIN KSTC 162330Z 30015G24KT 10SM CLR 17/M03 A3003 930 26 1400 300/15G24 RMK AO2 PK WND 29026/2257 T01671028 $
14926KSTC STC20170416173513004/16/17 17:35:31  5-MIN KSTC 162335Z 31015G22KT 10SM CLR 16/M03 A3003 930 27 1300 310/15G22 RMK AO2 PK WND 29026/2257 T01611028 $
14926KSTC STC20170416174012404/16/17 17:40:31  5-MIN KSTC 162340Z 30015KT 10SM CLR 16/M03 A3003 920 27 1300 300/15 RMK AO2 PK WND 29026/2257 T01611028 $
14926KSTC STC20170416174512404/16/17 17:45:31  5-MIN KSTC 162345Z 28015KT 10SM CLR 16/M03 A3003 930 26 1300 280/15 RMK AO2 PK WND 29026/2257 T01611033 $
14926KSTC STC20170416175015504/16/17 17:50:31  5-MIN KSTC 162350Z 29015G22KT 10SM CLR 16/M03 A3003 920 26 1300 290/15G22 RMK AO2 PK WND 29026/2257 SLP181 T01611033 10183 20150 55004 $
14926KSTC STC20170416175510604/16/17 17:55:31  5-MIN KSTC 162355Z 30017KT 10SM CLR 16/M03 A3003 920 26 1300 300/17 RMK AO2 T01611033 $
14926KSTC STC20170416180010604/16/17 18:00:31  5-MIN KSTC 170000Z 29013KT 10SM CLR 16/M03 A3003 920 27 1200 290/13 RMK AO2 T01561033 $
14926KSTC STC20170416180510604/16/17 18:05:31  5-MIN KSTC 170005Z 29009KT 10SM CLR 16/M02 A3003 920 29 1200 290/09 RMK AO2 T01561022 $
14926KSTC STC20170416181011204/16/17 18:10:31  5-MIN KSTC 170010Z 29013G18KT 10SM CLR 16/M03 A3003 920 28 1200 290/13G18 RMK AO2 T01561028 $
14926KSTC STC20170416181511204/16/17 18:15:31  5-MIN KSTC 170015Z 28010G18KT 10SM CLR 16/M03 A3003 920 28 1200 280/10G18 RMK AO2 T01561028 $
14926KSTC STC20170416182011204/16/17 18:20:31  5-MIN KSTC 170020Z 28011G17KT 10SM CLR 16/M03 A3003 920 28 1200 280/11G17 RMK AO2 T01561028 $
14926KSTC STC20170416182510604/16/17 18:25:31  5-MIN KSTC 170025Z 29011KT 10SM CLR 16/M03 A3003 920 28 1200 290/11 RMK AO2 T01561028 $
14926KSTC STC20170416183010604/16/17 18:30:31  5-MIN KSTC 170030Z 30011KT 10SM CLR 15/M03 A3003 920 29 1200 300/11 RMK AO2 T01501028 $
14926KSTC STC20170416183510604/16/17 18:35:31  5-MIN KSTC 170035Z 30014KT 10SM CLR 15/M03 A3003 920 29 1200 300/14 RMK AO2 T01501028 $
14926KSTC STC20170416184010604/16/17 18:40:31  5-MIN KSTC 170040Z 30012KT 10SM CLR 15/M03 A3003 920 29 1200 300/12 RMK AO2 T01501028 $
14926KSTC STC20170416184510604/16/17 18:45:31  5-MIN KSTC 170045Z 29011KT 10SM CLR 14/M03 A3004 920 30 1100 290/11 RMK AO2 T01441028 $
14926KSTC STC20170416185011304/16/17 18:50:31  5-MIN KSTC 170050Z 30009KT 10SM CLR 14/M02 A3004 920 31 1100 300/09 RMK AO2 SLP183 T01441022 $
14926KSTC STC20170416185510604/16/17 18:55:31  5-MIN KSTC 170055Z 29007KT 10SM CLR 14/M02 A3004 920 32 1000 290/07 RMK AO2 T01391022 $
14926KSTC STC20170416190010604/16/17 19:00:31  5-MIN KSTC 170100Z 31007KT 10SM CLR 13/M02 A3004 920 35 1000 310/07 RMK AO2 T01331017 $
14926KSTC STC20170416190510504/16/17 19:05:31  5-MIN KSTC 170105Z 31007KT 10SM CLR 12/M01 A3004 920 41 800 310/07 RMK AO2 T01171011 $
14926KSTC STC20170416191010504/16/17 19:10:31  5-MIN KSTC 170110Z 31005KT 10SM CLR 12/M02 A3004 920 38 800 310/05 RMK AO2 T01221017 $
14926KSTC STC20170416191510504/16/17 19:15:31  5-MIN KSTC 170115Z 32005KT 10SM CLR 12/M02 A3004 920 38 800 320/05 RMK AO2 T01221017 $
14926KSTC STC20170416192010504/16/17 19:20:31  5-MIN KSTC 170120Z 32006KT 10SM CLR 12/M01 A3004 910 41 800 320/06 RMK AO2 T01171011 $
14926KSTC STC20170416192510504/16/17 19:25:31  5-MIN KSTC 170125Z 32008KT 10SM CLR 12/M01 A3005 910 39 800 320/08 RMK AO2 T01221011 $
14926KSTC STC20170416193010804/16/17 19:30:31  5-MIN KSTC 170130Z 33006KT 10SM FEW120 13/M02 A3005 910 36 900 330/06 RMK AO2 T01281017 $
14926KSTC STC20170416193510804/16/17 19:35:31  5-MIN KSTC 170135Z 32006KT 10SM FEW120 12/M01 A3005 900 39 800 310/06 RMK AO2 T01221011 $
14926KSTC STC20170416194010504/16/17 19:40:31  5-MIN KSTC 170140Z 32006KT 10SM CLR 11/M01 A3006 900 44 700 320/06 RMK AO2 T01111006 $
14926KSTC STC20170416194510704/16/17 19:45:31  5-MIN KSTC 170145Z 32006KT 10SM FEW120 11/00 A3006 900 46 700 320/06 RMK AO2 T01110000 $
14926KSTC STC20170416195011404/16/17 19:50:31  5-MIN KSTC 170150Z 32006KT 10SM FEW120 11/01 A3006 900 48 700 320/06 RMK AO2 SLP191 T01110006 $
14926KSTC STC20170416195510704/16/17 19:55:31  5-MIN KSTC 170155Z 32005KT 10SM SCT120 11/01 A3007 890 48 700 320/05 RMK AO2 T01110006 $
14926KSTC STC20170416200010704/16/17 20:00:31  5-MIN KSTC 170200Z 32006KT 10SM BKN120 11/01 A3007 890 52 600 320/06 RMK AO2 T01060011 $
14926KSTC STC20170416200511404/16/17 20:05:31  5-MIN KSTC 170205Z 32007KT 10SM FEW100 BKN120 11/01 A3007 880 48 700 320/07 RMK AO2 T01110006 $
14926KSTC STC20170416201011404/16/17 20:10:31  5-MIN KSTC 170210Z 32006KT 10SM SCT095 BKN120 12/01 A3008 880 46 700 320/06 RMK AO2 T01170006 $
14926KSTC STC20170416201511404/16/17 20:15:31  5-MIN KSTC 170215Z 33007KT 10SM BKN100 OVC120 12/01 A3008 880 46 700 330/07 RMK AO2 T01170006 $
14926KSTC STC20170416202010704/16/17 20:20:31  5-MIN KSTC 170220Z 33007KT 10SM OVC110 12/00 A3008 880 43 800 320/07 RMK AO2 T01220000 $
14926KSTC STC20170416202512004/16/17 20:25:31  5-MIN KSTC 170225Z 32010G16KT 10SM BKN100 OVC120 12/00 A3008 880 43 800 320/10G16 RMK AO2 T01220000 $
14926KSTC STC20170416203012004/16/17 20:30:31  5-MIN KSTC 170230Z 33011G17KT 10SM BKN100 OVC120 12/00 A3008 880 43 800 330/11G17 RMK AO2 T01220000 $
14926KSTC STC20170416203512004/16/17 20:35:31  5-MIN KSTC 170235Z 33008G17KT 10SM BKN100 OVC120 12/00 A3008 880 43 800 320/08G17 RMK AO2 T01220000 $
14926KSTC STC20170416204011404/16/17 20:40:31  5-MIN KSTC 170240Z 33011KT 10SM BKN100 BKN120 12/01 A3008 880 46 700 330/11 RMK AO2 T01170006 $
14926KSTC STC20170416204510704/16/17 20:45:31  5-MIN KSTC 170245Z 34009KT 10SM BKN110 12/01 A3008 880 46 700 330/09 RMK AO2 T01170006 $
14926KSTC STC20170416205012004/16/17 20:50:31  5-MIN KSTC 170250Z 33007KT 10SM OVC100 12/01 A3009 870 46 700 330/07 RMK AO2 SLP201 T01170006 53002 $
14926KSTC STC20170416205510704/16/17 20:55:31  5-MIN KSTC 170255Z 33007KT 10SM OVC100 12/01 A3009 870 46 700 330/07 RMK AO2 T01170006 $
14926KSTC STC20170416210010704/16/17 21:00:31  5-MIN KSTC 170300Z 33011KT 10SM OVC100 11/01 A3009 870 50 700 320/11 RMK AO2 T01110011 $
14926KSTC STC20170416210510704/16/17 21:05:31  5-MIN KSTC 170305Z 33008KT 10SM BKN110 11/01 A3009 870 50 700 330/08 RMK AO2 T01110011 $
14926KSTC STC20170416211010704/16/17 21:10:31  5-MIN KSTC 170310Z 33007KT 10SM BKN110 11/01 A3009 870 50 700 330/07 RMK AO2 T01110011 $
14926KSTC STC20170416211510704/16/17 21:15:31  5-MIN KSTC 170315Z 34005KT 10SM OVC100 11/02 A3009 870 52 700 340/05 RMK AO2 T01110017 $
14926KSTC STC20170416212010704/16/17 21:20:31  5-MIN KSTC 170320Z 34008KT 10SM BKN100 11/02 A3008 870 54 600 340/08 RMK AO2 T01060017 $
14926KSTC STC20170416212510704/16/17 21:25:31  5-MIN KSTC 170325Z 33006KT 10SM BKN110 11/02 A3009 870 54 600 330/06 RMK AO2 T01060017 $
14926KSTC STC20170416213010704/16/17 21:30:31  5-MIN KSTC 170330Z 33005KT 10SM BKN110 11/02 A3009 870 54 600 330/05 RMK AO2 T01060017 $
14926KSTC STC20170416213510704/16/17 21:35:31  5-MIN KSTC 170335Z 34004KT 10SM BKN110 11/02 A3008 870 54 600 340/04 RMK AO2 T01060017 $
14926KSTC STC20170416214010704/16/17 21:40:31  5-MIN KSTC 170340Z 00000KT 10SM BKN110 10/02 A3008 880 56 500 000/00 RMK AO2 T01000017 $
14926KSTC STC20170416214510704/16/17 21:45:31  5-MIN KSTC 170345Z 00000KT 10SM BKN110 10/02 A3008 880 56 500 000/00 RMK AO2 T01000017 $
14926KSTC STC20170416215011404/16/17 21:50:31  5-MIN KSTC 170350Z 30003KT 10SM BKN110 10/02 A3008 880 58 500 300/03 RMK AO2 SLP198 T01000022 $
14926KSTC STC20170416215511204/16/17 21:55:31  5-MIN KSTC 170355Z AUTO 32004KT 10SM BKN110 10/02 A3008 880 58 500 320/04 RMK AO2 T01000022 $
14926KSTC STC20170416220011204/16/17 22:00:31  5-MIN KSTC 170400Z AUTO 31003KT 10SM BKN110 09/02 A3008 880 60 500 310/03 RMK AO2 T00940022 $
14926KSTC STC20170416220511204/16/17 22:05:31  5-MIN KSTC 170405Z AUTO 30003KT 10SM BKN110 09/03 A3008 880 63 500 300/03 RMK AO2 T00940028 $
14926KSTC STC20170416221011204/16/17 22:10:31  5-MIN KSTC 170410Z AUTO 31004KT 10SM BKN110 09/03 A3009 870 63 500 310/04 RMK AO2 T00940028 $
14926KSTC STC20170416221511204/16/17 22:15:31  5-MIN KSTC 170415Z AUTO 00000KT 10SM OVC110 09/02 A3009 870 60 500 000/00 RMK AO2 T00940022 $
14926KSTC STC20170416222011904/16/17 22:20:31  5-MIN KSTC 170420Z AUTO 30004KT 10SM BKN100 OVC120 09/02 A3009 870 60 400 300/04 RMK AO2 T00940022 $
14926KSTC STC20170416222511204/16/17 22:25:31  5-MIN KSTC 170425Z AUTO 31003KT 10SM OVC100 09/03 A3009 870 65 400 310/03 RMK AO2 T00940033 $
14926KSTC STC20170416223011204/16/17 22:30:31  5-MIN KSTC 170430Z AUTO 29004KT 10SM OVC100 09/03 A3010 860 63 400 290/04 RMK AO2 T00940028 $
14926KSTC STC20170416223511204/16/17 22:35:31  5-MIN KSTC 170435Z AUTO 30004KT 10SM OVC100 09/04 A3010 860 71 400 300/04 RMK AO2 T00890039 $
14926KSTC STC20170416224011204/16/17 22:40:31  5-MIN KSTC 170440Z AUTO 31005KT 10SM OVC095 09/03 A3011 860 68 400 310/05 RMK AO2 T00890033 $
14926KSTC STC20170416224511904/16/17 22:45:31  5-MIN KSTC 170445Z AUTO 30006KT 10SM FEW075 OVC095 09/03 A3011 850 68 400 300/06 RMK AO2 T00890033 $
14926KSTC STC20170416225012604/16/17 22:50:31  5-MIN KSTC 170450Z AUTO 33005KT 10SM SCT075 OVC090 09/03 A3011 850 68 400 320/05 RMK AO2 SLP207 T00890033 $
14926KSTC STC20170416225511904/16/17 22:55:31  5-MIN KSTC 170455Z AUTO 33004KT 10SM BKN075 OVC090 09/03 A3011 850 63 400 330/04 RMK AO2 T00940028 $
14926KSTC STC20170416230011904/16/17 23:00:31  5-MIN KSTC 170500Z AUTO 33004KT 10SM BKN075 OVC090 09/03 A3011 850 63 400 330/04 RMK AO2 T00940028 $
14926KSTC STC20170416230511904/16/17 23:05:31  5-MIN KSTC 170505Z AUTO 31005KT 10SM BKN075 OVC090 09/03 A3012 840 63 400 310/05 RMK AO2 T00940028 $
14926KSTC STC20170416231011904/16/17 23:10:31  5-MIN KSTC 170510Z AUTO 31006KT 10SM SCT060 OVC075 09/03 A3012 840 65 400 310/06 RMK AO2 T00940033 $
14926KSTC STC20170416231511904/16/17 23:15:31  5-MIN KSTC 170515Z AUTO 32007KT 10SM SCT055 OVC075 09/03 A3012 840 68 400 320/07 RMK AO2 T00890033 $
14926KSTC STC20170416232012604/16/17 23:20:31  5-MIN KSTC 170520Z AUTO 35008KT 10SM SCT055 BKN075 OVC085 10/03 A3012 840 60 500 340/08 RMK AO2 T01000028 $
14926KSTC STC20170416232513204/16/17 23:25:31  5-MIN KSTC 170525Z AUTO 34014G21KT 10SM SCT055 BKN075 OVC085 10/03 A3012 850 60 500 340/14G21 RMK AO2 T01000028 $
14926KSTC STC20170416233013204/16/17 23:30:31  5-MIN KSTC 170530Z AUTO 34016G21KT 10SM SCT055 SCT070 OVC085 10/02 A3012 840 58 500 340/16G21 RMK AO2 T01000022 $
14926KSTC STC20170416233512504/16/17 23:35:31  5-MIN KSTC 170535Z AUTO 34015G23KT 10SM FEW050 OVC085 09/03 A3013 840 63 400 340/15G23 RMK AO2 T00940028 $
14926KSTC STC20170416234012504/16/17 23:40:31  5-MIN KSTC 170540Z AUTO 35014G25KT 10SM FEW050 OVC085 09/02 A3013 830 60 300 340/14G25 RMK AO2 T00890017 $
14926KSTC STC20170416234511804/16/17 23:45:31  5-MIN KSTC 170545Z AUTO 35014G25KT 10SM OVC085 08/02 A3013 830 65 300 350/14G25 RMK AO2 T00830022 $
14926KSTC STC20170416235015304/16/17 23:50:31  5-MIN KSTC 170550Z AUTO 35011G20KT 10SM OVC085 08/02 A3014 830 63 300 350/11G20 RMK AO2 SLP216 T00830017 10161 20083 401830061 53019 $
14926KSTC STC20170416235511204/16/17 23:55:31  5-MIN KSTC 170555Z AUTO 34010KT 10SM OVC085 08/02 A3014 830 65 300 340/10 RMK AO2 T00830022 $
14926KSTC STC20170417000011204/17/17 00:00:31  5-MIN KSTC 170600Z AUTO 35012KT 10SM OVC085 08/02 A3014 830 65 200 350/12 RMK AO2 T00780017 $
14926KSTC STC20170417000511804/17/17 00:05:31  5-MIN KSTC 170605Z AUTO 34012G19KT 10SM OVC085 08/01 A3013 830 62 200 340/12G19 RMK AO2 T00780011 $
14926KSTC STC20170417001011804/17/17 00:10:31  5-MIN KSTC 170610Z AUTO 34015G19KT 10SM OVC085 08/01 A3014 830 62 200 340/15G19 RMK AO2 T00780011 $
14926KSTC STC20170417001511204/17/17 00:15:31  5-MIN KSTC 170615Z AUTO 35013KT 10SM OVC085 08/01 A3014 830 60 200 350/13 RMK AO2 T00780006 $
14926KSTC STC20170417002011204/17/17 00:20:31  5-MIN KSTC 170620Z AUTO 35010KT 10SM OVC085 07/01 A3014 830 62 100 350/10 RMK AO2 T00720006 $
14926KSTC STC20170417002511204/17/17 00:25:31  5-MIN KSTC 170625Z AUTO 35011KT 10SM OVC090 07/01 A3014 820 62 100 350/11 RMK AO2 T00720006 $
14926KSTC STC20170417003011204/17/17 00:30:31  5-MIN KSTC 170630Z AUTO 34012KT 10SM OVC090 07/01 A3014 820 62 100 340/12 RMK AO2 T00720006 $
14926KSTC STC20170417003511204/17/17 00:35:31  5-MIN KSTC 170635Z AUTO 35010KT 10SM OVC090 07/00 A3014 820 60 100 350/10 RMK AO2 T00720000 $
14926KSTC STC20170417004011204/17/17 00:40:31  5-MIN KSTC 170640Z AUTO 34009KT 10SM OVC085 07/00 A3015 820 60 100 340/09 RMK AO2 T00720000 $
14926KSTC STC20170417004511204/17/17 00:45:31  5-MIN KSTC 170645Z AUTO 34009KT 10SM OVC090 07/00 A3015 820 60 100 340/09 RMK AO2 T00720000 $
14926KSTC STC20170417005011904/17/17 00:50:31  5-MIN KSTC 170650Z AUTO 35008KT 10SM OVC085 07/00 A3015 820 60 100 350/08 RMK AO2 SLP220 T00720000 $
14926KSTC STC20170417005511004/17/17 00:55:31  5-MIN KSTC 170655Z AUTO 35007KT 10SM OVC090 07/00 A3015 820 62 0 340/07 RMK AO2 T00670000 $
14926KSTC STC20170417010011004/17/17 01:00:31  5-MIN KSTC 170700Z AUTO 34007KT 10SM OVC090 07/00 A3015 820 62 0 340/07 RMK AO2 T00670000 $
14926KSTC STC20170417010511704/17/17 01:05:31  5-MIN KSTC 170705Z AUTO 35008KT 10SM BKN095 OVC110 07/00 A3015 810 62 0 350/08 RMK AO2 T00670000 $
14926KSTC STC20170417011011004/17/17 01:10:31  5-MIN KSTC 170710Z AUTO 35006KT 10SM OVC100 07/00 A3015 820 62 0 350/06 RMK AO2 T00670000 $
14926KSTC STC20170417011511004/17/17 01:15:31  5-MIN KSTC 170715Z AUTO 35006KT 10SM OVC100 06/00 A3015 820 65 0 350/06 RMK AO2 T00610000 $
14926KSTC STC20170417012011004/17/17 01:20:31  5-MIN KSTC 170720Z AUTO 35005KT 10SM OVC100 06/00 A3015 820 65 0 350/05 RMK AO2 T00610000 $
14926KSTC STC20170417012511004/17/17 01:25:31  5-MIN KSTC 170725Z AUTO 35006KT 10SM OVC100 06/00 A3015 820 65 0 350/06 RMK AO2 T00610000 $
14926KSTC STC20170417013011004/17/17 01:30:31  5-MIN KSTC 170730Z AUTO 35004KT 10SM OVC100 06/00 A3015 820 65 0 350/04 RMK AO2 T00610000 $
14926KSTC STC20170417013511004/17/17 01:35:31  5-MIN KSTC 170735Z AUTO 34004KT 10SM OVC100 06/00 A3015 820 65 0 340/04 RMK AO2 T00610000 $
14926KSTC STC20170417014011004/17/17 01:40:31  5-MIN KSTC 170740Z AUTO 34005KT 10SM OVC100 06/00 A3015 820 67 0 340/05 RMK AO2 T00560000 $
14926KSTC STC20170417014511004/17/17 01:45:31  5-MIN KSTC 170745Z AUTO 34004KT 10SM OVC100 06/00 A3014 820 67 0 340/04 RMK AO2 T00560000 $
14926KSTC STC20170417015011704/17/17 01:50:31  5-MIN KSTC 170750Z AUTO 34004KT 10SM OVC100 06/00 A3014 820 67 0 340/04 RMK AO2 SLP220 T00560000 $
14926KSTC STC20170417015511104/17/17 01:55:31  5-MIN KSTC 170755Z AUTO 33004KT 10SM OVC100 06/M01 A3014 820 65 0 330/04 RMK AO2 T00561006 $
14926KSTC STC20170417020011404/17/17 02:00:31  5-MIN KSTC 170800Z AUTO 33004KT 10SM OVC100 05/M01 A3014 820 67 -100 330/04 RMK AO2 T00501006 $
14926KSTC STC20170417020511304/17/17 02:05:31  5-MIN KSTC 170805Z AUTO 33003KT 10SM OVC100 04/00 A3014 820 73 -200 330/03 RMK AO2 T00440000 $
14926KSTC STC20170417021011304/17/17 02:10:31  5-MIN KSTC 170810Z AUTO 33003KT 10SM BKN100 04/00 A3014 820 73 -200 330/03 RMK AO2 T00440000 $
14926KSTC STC20170417021511304/17/17 02:15:31  5-MIN KSTC 170815Z AUTO 35003KT 10SM BKN100 04/00 A3014 820 76 -200 350/03 RMK AO2 T00390000 $
14926KSTC STC20170417022011304/17/17 02:20:31  5-MIN KSTC 170820Z AUTO 00000KT 10SM BKN100 04/00 A3015 820 76 -200 000/00 RMK AO2 T00390000 $
14926KSTC STC20170417022511304/17/17 02:25:31  5-MIN KSTC 170825Z AUTO 33003KT 10SM BKN100 04/00 A3015 820 73 -200 330/03 RMK AO2 T00440000 $
14926KSTC STC20170417023011304/17/17 02:30:31  5-MIN KSTC 170830Z AUTO 33004KT 10SM SCT100 04/00 A3015 820 76 -200 320/04 RMK AO2 T00390000 $
14926KSTC STC20170417023511304/17/17 02:35:31  5-MIN KSTC 170835Z AUTO 32003KT 10SM SCT100 04/00 A3015 820 76 -200 320/03 RMK AO2 T00390000 $
14926KSTC STC20170417024011304/17/17 02:40:31  5-MIN KSTC 170840Z AUTO 33004KT 10SM FEW100 03/00 A3015 820 79 -300 320/04 RMK AO2 T00330000 $
14926KSTC STC20170417024511404/17/17 02:45:31  5-MIN KSTC 170845Z AUTO 32004KT 10SM FEW100 03/M01 A3015 810 79 -400 320/04 RMK AO2 T00281006 $
14926KSTC STC20170417025012404/17/17 02:50:31  5-MIN KSTC 170850Z AUTO 32004KT 10SM CLR 02/M01 A3015 810 82 -500 310/04 RMK AO2 SLP224 T00221006 53015 $
14926KSTC STC20170417025511104/17/17 02:55:31  5-MIN KSTC 170855Z AUTO 31005KT 10SM CLR 03/M01 A3016 810 79 -400 310/05 RMK AO2 T00281006 $
14926KSTC STC20170417030011104/17/17 03:00:31  5-MIN KSTC 170900Z AUTO 32005KT 10SM CLR 02/M01 A3016 810 82 -500 320/05 RMK AO2 T00221006 $
14926KSTC STC20170417030511104/17/17 03:05:31  5-MIN KSTC 170905Z AUTO 31005KT 10SM CLR 03/M01 A3016 810 75 -400 310/05 RMK AO2 T00281011 $
14926KSTC STC20170417031011104/17/17 03:10:31  5-MIN KSTC 170910Z AUTO 31005KT 10SM CLR 02/M01 A3016 800 78 -500 310/05 RMK AO2 T00221011 $
14926KSTC STC20170417031511104/17/17 03:15:31  5-MIN KSTC 170915Z AUTO 32005KT 10SM CLR 02/M01 A3016 800 78 -500 320/05 RMK AO2 T00221011 $
14926KSTC STC20170417032011104/17/17 03:20:31  5-MIN KSTC 170920Z AUTO 32004KT 10SM CLR 03/M01 A3016 800 75 -400 320/04 RMK AO2 T00281011 $
14926KSTC STC20170417032511404/17/17 03:25:31  5-MIN KSTC 170925Z AUTO 31005KT 10SM FEW090 03/M01 A3017 800 75 -400 310/05 RMK AO2 T00281011 $
14926KSTC STC20170417033011404/17/17 03:30:31  5-MIN KSTC 170930Z AUTO 32006KT 10SM FEW090 02/M01 A3017 800 78 -500 320/06 RMK AO2 T00221011 $
14926KSTC STC20170417033511104/17/17 03:35:31  5-MIN KSTC 170935Z AUTO 32005KT 10SM CLR 03/M01 A3017 800 75 -400 320/05 RMK AO2 T00281011 $
14926KSTC STC20170417034011104/17/17 03:40:31  5-MIN KSTC 170940Z AUTO 33005KT 10SM CLR 03/M01 A3017 800 75 -400 330/05 RMK AO2 T00281011 $
14926KSTC STC20170417034511104/17/17 03:45:31  5-MIN KSTC 170945Z AUTO 32007KT 10SM CLR 03/M01 A3017 790 75 -400 320/07 RMK AO2 T00281011 $
14926KSTC STC20170417035011804/17/17 03:50:31  5-MIN KSTC 170950Z AUTO 32006KT 10SM CLR 03/M01 A3017 790 75 -400 320/06 RMK AO2 SLP231 T00281011 $
14926KSTC STC20170417035511404/17/17 03:55:31  5-MIN KSTC 170955Z AUTO 33006KT 10SM FEW085 03/M01 A3017 790 72 -300 330/06 RMK AO2 T00331011 $
14926KSTC STC20170417040011404/17/17 04:00:31  5-MIN KSTC 171000Z AUTO 32007KT 10SM FEW085 03/M01 A3018 790 72 -300 320/07 RMK AO2 T00331011 $
14926KSTC STC20170417040511404/17/17 04:05:31  5-MIN KSTC 171005Z AUTO 32006KT 10SM FEW090 03/M01 A3018 790 72 -300 320/06 RMK AO2 T00331011 $
14926KSTC STC20170417041011404/17/17 04:10:31  5-MIN KSTC 171010Z AUTO 33005KT 10SM SCT090 03/M01 A3018 790 72 -300 330/05 RMK AO2 T00331011 $
14926KSTC STC20170417041511404/17/17 04:15:31  5-MIN KSTC 171015Z AUTO 33006KT 10SM BKN090 03/M01 A3018 780 72 -400 320/06 RMK AO2 T00331011 $
14926KSTC STC20170417042011404/17/17 04:20:31  5-MIN KSTC 171020Z AUTO 33006KT 10SM BKN090 03/M01 A3018 780 72 -400 330/06 RMK AO2 T00331011 $
14926KSTC STC20170417042511404/17/17 04:25:31  5-MIN KSTC 171025Z AUTO 31004KT 10SM BKN090 03/M01 A3018 780 72 -400 310/04 RMK AO2 T00331011 $
14926KSTC STC20170417043011404/17/17 04:30:31  5-MIN KSTC 171030Z AUTO 32005KT 10SM BKN090 02/M01 A3018 780 78 -500 310/05 RMK AO2 T00221011 $
14926KSTC STC20170417043511404/17/17 04:35:31  5-MIN KSTC 171035Z AUTO 32005KT 10SM OVC090 02/M01 A3018 780 78 -500 310/05 RMK AO2 T00221011 $
14926KSTC STC20170417044011404/17/17 04:40:31  5-MIN KSTC 171040Z AUTO 31006KT 10SM OVC090 02/M01 A3018 780 78 -500 310/06 RMK AO2 T00221011 $
14926KSTC STC20170417044511404/17/17 04:45:31  5-MIN KSTC 171045Z AUTO 31006KT 10SM OVC090 02/M01 A3019 780 78 -500 310/06 RMK AO2 T00221011 $
14926KSTC STC20170417045012104/17/17 04:50:31  5-MIN KSTC 171050Z AUTO 31006KT 10SM OVC090 02/M01 A3019 780 78 -500 310/06 RMK AO2 SLP236 T00221011 $
14926KSTC STC20170417045511404/17/17 04:55:31  5-MIN KSTC 171055Z AUTO 31007KT 10SM OVC090 02/M01 A3019 780 78 -500 310/07 RMK AO2 T00221011 $
14926KSTC STC20170417050011404/17/17 05:00:31  5-MIN KSTC 171100Z AUTO 31007KT 10SM BKN090 02/M01 A3019 780 78 -500 310/07 RMK AO2 T00221011 $
14926KSTC STC20170417050511404/17/17 05:05:31  5-MIN KSTC 171105Z AUTO 31006KT 10SM BKN090 02/M01 A3020 770 78 -500 310/06 RMK AO2 T00221011 $
14926KSTC STC20170417051011404/17/17 05:10:31  5-MIN KSTC 171110Z AUTO 31008KT 10SM BKN090 02/M01 A3020 770 78 -500 310/08 RMK AO2 T00221011 $
14926KSTC STC20170417051511404/17/17 05:15:31  5-MIN KSTC 171115Z AUTO 32008KT 10SM OVC085 02/M01 A3020 770 78 -500 320/08 RMK AO2 T00221011 $
14926KSTC STC20170417052011404/17/17 05:20:31  5-MIN KSTC 171120Z AUTO 32008KT 10SM BKN090 03/M01 A3020 770 75 -400 320/08 RMK AO2 T00281011 $
14926KSTC STC20170417052511404/17/17 05:25:31  5-MIN KSTC 171125Z AUTO 32007KT 10SM BKN085 03/M02 A3020 770 72 -400 320/07 RMK AO2 T00281017 $
14926KSTC STC20170417053011404/17/17 05:30:31  5-MIN KSTC 171130Z AUTO 32007KT 10SM BKN085 03/M02 A3021 760 72 -400 320/07 RMK AO2 T00281017 $
14926KSTC STC20170417053511404/17/17 05:35:31  5-MIN KSTC 171135Z AUTO 32006KT 10SM BKN085 03/M02 A3021 760 72 -400 320/06 RMK AO2 T00281017 $
14926KSTC STC20170417054011404/17/17 05:40:31  5-MIN KSTC 171140Z AUTO 32005KT 10SM BKN085 02/M01 A3021 760 78 -500 320/05 RMK AO2 T00221011 $
14926KSTC STC20170417054510704/17/17 05:45:31  5-MIN KSTC 171145Z 32005KT 10SM BKN085 02/M01 A3021 760 82 -600 320/05 RMK AO2 T00171011
14926KSTC STC20170417055013204/17/17 05:50:31  5-MIN KSTC 171150Z 32006KT 10SM SCT085 02/M02 A3021 760 78 -600 320/06 RMK AO2 SLP244 T00171017 10083 20017 51006
14926KSTC STC20170417055510704/17/17 05:55:31  5-MIN KSTC 171155Z 32006KT 10SM SCT085 01/M02 A3021 760 82 -700 320/06 RMK AO2 T00111017
14926KSTC STC20170417060010704/17/17 06:00:31  5-MIN KSTC 171200Z 33005KT 10SM FEW080 02/M02 A3021 760 75 -500 330/05 RMK AO2 T00221017
14926KSTC STC20170417060510704/17/17 06:05:31  5-MIN KSTC 171205Z 33005KT 10SM FEW080 02/M02 A3021 760 75 -500 330/05 RMK AO2 T00221017
14926KSTC STC20170417061010404/17/17 06:10:31  5-MIN KSTC 171210Z 33004KT 10SM CLR 03/M02 A3022 750 72 -500 330/04 RMK AO2 T00281017
14926KSTC STC20170417061510704/17/17 06:15:31  5-MIN KSTC 171215Z 32005KT 10SM FEW080 03/M02 A3022 750 72 -500 320/05 RMK AO2 T00281017
14926KSTC STC20170417062010704/17/17 06:20:31  5-MIN KSTC 171220Z 32005KT 10SM FEW080 03/M02 A3022 750 72 -500 320/05 RMK AO2 T00281017
14926KSTC STC20170417062510404/17/17 06:25:31  5-MIN KSTC 171225Z 34005KT 10SM CLR 03/M02 A3022 750 72 -500 340/05 RMK AO2 T00281017
14926KSTC STC20170417063010404/17/17 06:30:31  5-MIN KSTC 171230Z 34008KT 10SM CLR 03/M02 A3022 750 70 -400 340/08 RMK AO2 T00331017
14926KSTC STC20170417063510404/17/17 06:35:31  5-MIN KSTC 171235Z 35007KT 10SM CLR 03/M02 A3023 740 67 -400 350/07 RMK AO2 T00331022
14926KSTC STC20170417064010404/17/17 06:40:31  5-MIN KSTC 171240Z 34010KT 10SM CLR 03/M02 A3023 740 67 -400 340/10 RMK AO2 T00331022
14926KSTC STC20170417064510404/17/17 06:45:31  5-MIN KSTC 171245Z 35010KT 10SM CLR 03/M03 A3023 740 64 -400 350/10 RMK AO2 T00331028
14926KSTC STC20170417065011104/17/17 06:50:31  5-MIN KSTC 171250Z 35007KT 10SM CLR 03/M03 A3023 740 64 -400 340/07 RMK AO2 SLP252 T00331028
14926KSTC STC20170417065510404/17/17 06:55:31  5-MIN KSTC 171255Z 34012KT 10SM CLR 03/M02 A3023 740 67 -400 340/12 RMK AO2 T00331022
14926KSTC STC20170417070010404/17/17 07:00:31  5-MIN KSTC 171300Z 35011KT 10SM CLR 03/M03 A3024 730 64 -400 350/11 RMK AO2 T00331028
14926KSTC STC20170417070510404/17/17 07:05:31  5-MIN KSTC 171305Z 34009KT 10SM CLR 03/M02 A3024 730 67 -400 340/09 RMK AO2 T00331022
14926KSTC STC20170417071010404/17/17 07:10:31  5-MIN KSTC 171310Z 34010KT 10SM CLR 04/M02 A3024 730 64 -400 340/10 RMK AO2 T00391022
14926KSTC STC20170417071510404/17/17 07:15:31  5-MIN KSTC 171315Z 34010KT 10SM CLR 04/M02 A3024 730 64 -400 340/10 RMK AO2 T00391022
14926KSTC STC20170417072010404/17/17 07:20:31  5-MIN KSTC 171320Z 35010KT 10SM CLR 04/M02 A3024 730 64 -400 350/10 RMK AO2 T00391022
14926KSTC STC20170417072510704/17/17 07:25:31  5-MIN KSTC 171325Z 34010KT 10SM FEW070 04/M02 A3025 730 64 -400 340/10 RMK AO2 T00391022
14926KSTC STC20170417073010704/17/17 07:30:31  5-MIN KSTC 171330Z 36010KT 10SM FEW070 04/M02 A3024 730 64 -400 350/10 RMK AO2 T00391022
14926KSTC STC20170417073511004/17/17 07:35:31  5-MIN KSTC 171335Z 35010G17KT 10SM CLR 04/M02 A3024 730 64 -400 350/10G17 RMK AO2 T00391022
14926KSTC STC20170417074010404/17/17 07:40:31  5-MIN KSTC 171340Z 34012KT 10SM CLR 04/M02 A3025 730 64 -400 340/12 RMK AO2 T00391022
14926KSTC STC20170417074510404/17/17 07:45:31  5-MIN KSTC 171345Z 35012KT 10SM CLR 04/M02 A3025 720 64 -400 340/12 RMK AO2 T00391022
14926KSTC STC20170417075011704/17/17 07:50:31  5-MIN KSTC 171350Z 36010G18KT 10SM CLR 04/M02 A3025 730 67 -400 360/10G18 RMK AO2 SLP257 T00391017
14926KSTC STC20170417075510404/17/17 07:55:31  5-MIN KSTC 171355Z 34010KT 10SM CLR 04/M02 A3024 730 64 -300 340/10 RMK AO2 T00441017
14926KSTC STC20170417080010404/17/17 08:00:31  5-MIN KSTC 171400Z 35012KT 10SM CLR 04/M02 A3024 730 64 -400 350/12 RMK AO2 T00391022
14926KSTC STC20170417080510404/17/17 08:05:31  5-MIN KSTC 171405Z 34011KT 10SM CLR 04/M02 A3024 730 67 -400 340/11 RMK AO2 T00391017
14926KSTC STC20170417081010404/17/17 08:10:31  5-MIN KSTC 171410Z 34011KT 10SM CLR 04/M02 A3025 730 64 -300 340/11 RMK AO2 T00441017
14926KSTC STC20170417081510404/17/17 08:15:31  5-MIN KSTC 171415Z 35010KT 10SM CLR 04/M02 A3025 730 64 -300 350/10 RMK AO2 T00441017
14926KSTC STC20170417082010404/17/17 08:20:31  5-MIN KSTC 171420Z 35011KT 10SM CLR 04/M01 A3025 720 67 -300 350/11 RMK AO2 T00441011
14926KSTC STC20170417082510704/17/17 08:25:31  5-MIN KSTC 171425Z 36010KT 10SM FEW065 04/M02 A3025 720 64 -300 360/10 RMK AO2 T00441017
14926KSTC STC20170417083010704/17/17 08:30:31  5-MIN KSTC 171430Z 35011KT 10SM FEW065 05/M02 A3025 720 62 -200 350/11 RMK AO2 T00501017
14926KSTC STC20170417083510704/17/17 08:35:31  5-MIN KSTC 171435Z 35011KT 10SM FEW065 05/M02 A3025 720 62 -200 350/11 RMK AO2 T00501017
14926KSTC STC20170417084010704/17/17 08:40:31  5-MIN KSTC 171440Z 36012KT 10SM FEW065 05/M01 A3025 730 64 -200 360/12 RMK AO2 T00501011
14926KSTC STC20170417084510704/17/17 08:45:31  5-MIN KSTC 171445Z 01011KT 10SM FEW065 05/M02 A3025 730 62 -200 010/11 RMK AO2 T00501017
14926KSTC STC20170417085012004/17/17 08:50:31  5-MIN KSTC 171450Z 36012KT 10SM FEW065 05/M01 A3025 730 64 -200 360/12 RMK AO2 SLP257 T00501011 52018
14926KSTC STC20170417085510404/17/17 08:55:31  5-MIN KSTC 171455Z 36010KT 10SM CLR 05/M02 A3024 730 62 -200 360/10 RMK AO2 T00501017
14926KSTC STC20170417090010404/17/17 09:00:31  5-MIN KSTC 171500Z 35010KT 10SM CLR 06/M01 A3024 730 62 -100 350/10 RMK AO2 T00561011
14926KSTC STC20170417090511304/17/17 09:05:31  5-MIN KSTC 171505Z 35010G15KT 10SM FEW027 06/M01 A3024 730 60 -100 350/10G15 RMK AO2 T00611011
14926KSTC STC20170417091011304/17/17 09:10:31  5-MIN KSTC 171510Z 36011G16KT 10SM SCT027 06/M01 A3024 730 62 -100 360/11G16 RMK AO2 T00561011
14926KSTC STC20170417091510704/17/17 09:15:31  5-MIN KSTC 171515Z 36009KT 10SM SCT027 06/M02 A3024 730 57 -100 360/09 RMK AO2 T00611017
14926KSTC STC20170417092010704/17/17 09:20:31  5-MIN KSTC 171520Z 34010KT 10SM SCT027 06/M01 A3024 730 62 -100 340/10 RMK AO2 T00561011
14926KSTC STC20170417092510704/17/17 09:25:31  5-MIN KSTC 171525Z 35008KT 10SM FEW027 06/M01 A3024 730 62 -100 350/08 RMK AO2 T00561011
14926KSTC STC20170417093010704/17/17 09:30:31  5-MIN KSTC 171530Z 02008KT 10SM SCT027 06/M02 A3024 730 59 -100 020/08 RMK AO2 T00561017
14926KSTC STC20170417093510704/17/17 09:35:31  5-MIN KSTC 171535Z 34009KT 10SM SCT027 06/M02 A3024 730 57 -100 340/09 RMK AO2 T00611017
14926KSTC STC20170417094010704/17/17 09:40:31  5-MIN KSTC 171540Z 35010KT 10SM FEW029 06/M02 A3024 730 57 -100 350/10 RMK AO2 T00611017
14926KSTC STC20170417094510704/17/17 09:45:31  5-MIN KSTC 171545Z 01008KT 10SM FEW029 06/M01 A3024 740 60 -100 010/08 RMK AO2 T00611011
14926KSTC STC20170417095011104/17/17 09:50:31  5-MIN KSTC 171550Z 01009KT 10SM FEW029 07/M01 A3024 730 57 0 360/09 RMK AO2 SLP255 T00671011
14926KSTC STC20170417095510704/17/17 09:55:31  5-MIN KSTC 171555Z 03006KT 10SM FEW030 06/M02 A3024 730 57 -100 020/06 RMK AO2 T00611017
14926KSTC STC20170417100010704/17/17 10:00:31  5-MIN KSTC 171600Z 36009KT 10SM FEW030 06/M02 A3024 730 57 -100 360/09 RMK AO2 T00611017
14926KSTC STC20170417100510104/17/17 10:05:31  5-MIN KSTC 171605Z 01009KT 10SM CLR 07/M02 A3024 730 55 0 010/09 RMK AO2 T00671017
14926KSTC STC20170417101010404/17/17 10:10:31  5-MIN KSTC 171610Z VRB05KT 10SM FEW032 07/M02 A3024 730 55 0 VRB/05 RMK AO2 T00671017
14926KSTC STC20170417101512004/17/17 10:15:31  5-MIN KSTC 171615Z 01007KT 330V050 10SM FEW034 07/M01 A3024 730 55 0 010/07 330V050 RMK AO2 T00721011
14926KSTC STC20170417102010404/17/17 10:20:31  5-MIN KSTC 171620Z 35009KT 10SM FEW034 07/M01 A3024 730 57 0 350/09 RMK AO2 T00671011
14926KSTC STC20170417102510404/17/17 10:25:31  5-MIN KSTC 171625Z 01007KT 10SM FEW034 07/M02 A3024 730 55 0 010/07 RMK AO2 T00671017
14926KSTC STC20170417103011004/17/17 10:30:31  5-MIN KSTC 171630Z 01009G14KT 10SM FEW037 07/M02 A3024 730 55 0 010/09G14 RMK AO2 T00671017
14926KSTC STC20170417103512604/17/17 10:35:31  5-MIN KSTC 171635Z 01007G14KT 330V050 10SM SCT037 07/M02 A3024 730 53 0 010/07G14 330V050 RMK AO2 T00721017
14926KSTC STC20170417104010604/17/17 10:40:31  5-MIN KSTC 171640Z 34009KT 10SM BKN037 08/M01 A3024 730 53 100 340/09 RMK AO2 T00781011
14926KSTC STC20170417104510404/17/17 10:45:31  5-MIN KSTC 171645Z 34006KT 10SM SCT037 07/M02 A3024 730 55 0 340/06 RMK AO2 T00671017
14926KSTC STC20170417105011104/17/17 10:50:31  5-MIN KSTC 171650Z 36006KT 10SM SCT037 07/M02 A3024 730 53 0 350/06 RMK AO2 SLP256 T00721017
14926KSTC STC20170417105510604/17/17 10:55:31  5-MIN KSTC 171655Z 35007KT 10SM SCT037 08/M01 A3024 730 53 100 350/07 RMK AO2 T00781011
14926KSTC STC20170417110010404/17/17 11:00:31  5-MIN KSTC 171700Z 35006KT 10SM SCT037 07/M02 A3024 730 53 0 350/06 RMK AO2 T00721017
14926KSTC STC20170417110510404/17/17 11:05:31  5-MIN KSTC 171705Z 33005KT 10SM FEW035 07/M02 A3024 730 53 0 330/05 RMK AO2 T00721017
14926KSTC STC20170417111010604/17/17 11:10:31  5-MIN KSTC 171710Z VRB03KT 10SM FEW035 08/M01 A3024 730 53 100 VRB/03 RMK AO2 T00781011
14926KSTC STC20170417111509604/17/17 11:15:31  5-MIN KSTC 171715Z 10SM FEW036 08/M01 A3024 730 53 100 M /M RMK AO2 T00781011
14926KSTC STC20170417112010604/17/17 11:20:31  5-MIN KSTC 171720Z 02007KT 10SM SCT038 08/M01 A3024 730 51 100 020/07 RMK AO2 T00831011
14926KSTC STC20170417112510604/17/17 11:25:31  5-MIN KSTC 171725Z 35008KT 10SM FEW038 08/M01 A3024 730 51 100 350/08 RMK AO2 T00831011
14926KSTC STC20170417113010604/17/17 11:30:31  5-MIN KSTC 171730Z VRB03KT 10SM FEW038 08/M01 A3024 740 53 100 VRB/03 RMK AO2 T00781011
14926KSTC STC20170417113510604/17/17 11:35:31  5-MIN KSTC 171735Z VRB04KT 10SM FEW038 08/M01 A3023 740 51 200 VRB/04 RMK AO2 T00831011
14926KSTC STC20170417114010604/17/17 11:40:31  5-MIN KSTC 171740Z VRB04KT 10SM FEW038 08/M02 A3023 740 51 100 VRB/04 RMK AO2 T00781017
14926KSTC STC20170417114510604/17/17 11:45:31  5-MIN KSTC 171745Z 36006KT 10SM SCT038 08/M01 A3024 740 51 200 360/06 RMK AO2 T00831011
14926KSTC STC20170417115013104/17/17 11:50:31  5-MIN KSTC 171750Z 30007KT 10SM SCT038 08/M02 A3024 740 51 100 300/07 RMK AO2 SLP253 T00781017 10089 20011 51012
14926KSTC STC20170417115510604/17/17 11:55:31  5-MIN KSTC 171755Z 36008KT 10SM BKN038 08/M02 A3023 740 51 100 360/08 RMK AO2 T00781017
14926KSTC STC20170417120010604/17/17 12:00:31  5-MIN KSTC 171800Z 05004KT 10SM BKN039 08/M02 A3023 740 51 100 050/04 RMK AO2 T00781017
14926KSTC STC20170417120510604/17/17 12:05:31  5-MIN KSTC 171805Z VRB03KT 10SM SCT039 08/M02 A3023 740 49 200 VRB/03 RMK AO2 T00831017
14926KSTC STC20170417121010604/17/17 12:10:31  5-MIN KSTC 171810Z VRB04KT 10SM SCT039 08/M02 A3023 740 49 200 VRB/04 RMK AO2 T00831017
14926KSTC STC20170417121510604/17/17 12:15:31  5-MIN KSTC 171815Z VRB05KT 10SM FEW039 09/M02 A3023 740 47 200 VRB/05 RMK AO2 T00891017
14926KSTC STC20170417122010604/17/17 12:20:31  5-MIN KSTC 171820Z 35006KT 10SM FEW039 09/M02 A3023 750 47 200 350/06 RMK AO2 T00891017
14926KSTC STC20170417122510304/17/17 12:25:31  5-MIN KSTC 171825Z 32005KT 10SM CLR 09/M02 A3023 740 47 200 310/05 RMK AO2 T00891017
14926KSTC STC20170417123009304/17/17 12:30:31  5-MIN KSTC 171830Z 10SM CLR 09/M02 A3022 750 47 200 M /M RMK AO2 T00891017
14926KSTC STC20170417123510304/17/17 12:35:31  5-MIN KSTC 171835Z 35007KT 10SM CLR 09/M02 A3022 750 47 200 350/07 RMK AO2 T00891017
14926KSTC STC20170417124010304/17/17 12:40:31  5-MIN KSTC 171840Z 33006KT 10SM CLR 09/M01 A3022 750 47 300 330/06 RMK AO2 T00941011
14926KSTC STC20170417124510304/17/17 12:45:31  5-MIN KSTC 171845Z 31008KT 10SM CLR 09/M01 A3022 750 47 300 310/08 RMK AO2 T00941011
14926KSTC STC20170417125011004/17/17 12:50:31  5-MIN KSTC 171850Z VRB05KT 10SM CLR 09/M01 A3022 750 47 300 VRB/05 RMK AO2 SLP247 T00941011
14926KSTC STC20170417125510304/17/17 12:55:31  5-MIN KSTC 171855Z 35008KT 10SM CLR 10/M01 A3021 760 46 400 340/08 RMK AO2 T01001011
14926KSTC STC20170417130010304/17/17 13:00:31  5-MIN KSTC 171900Z VRB05KT 10SM CLR 09/M02 A3021 760 45 300 VRB/05 RMK AO2 T00941017
14926KSTC STC20170417130510304/17/17 13:05:31  5-MIN KSTC 171905Z 35007KT 10SM CLR 09/M02 A3021 760 44 300 350/07 RMK AO2 T00941022
14926KSTC STC20170417131010304/17/17 13:10:31  5-MIN KSTC 171910Z 35005KT 10SM CLR 09/M02 A3020 760 45 300 350/05 RMK AO2 T00941017
14926KSTC STC20170417131510304/17/17 13:15:31  5-MIN KSTC 171915Z VRB03KT 10SM CLR 11/M01 A3020 770 44 500 VRB/03 RMK AO2 T01061011
14926KSTC STC20170417132010304/17/17 13:20:31  5-MIN KSTC 171920Z VRB04KT 10SM CLR 10/M01 A3020 770 46 400 VRB/04 RMK AO2 T01001011
14926KSTC STC20170417132510304/17/17 13:25:31  5-MIN KSTC 171925Z 04004KT 10SM CLR 10/M01 A3020 770 46 400 040/04 RMK AO2 T01001011
14926KSTC STC20170417133011904/17/17 13:30:31  5-MIN KSTC 171930Z 07009KT 030V170 10SM CLR 11/M01 A3020 770 44 500 070/09 030V170 RMK AO2 T01061011
14926KSTC STC20170417133510304/17/17 13:35:31  5-MIN KSTC 171935Z 07005KT 10SM CLR 11/M01 A3020 770 44 500 060/05 RMK AO2 T01061011
14926KSTC STC20170417134010304/17/17 13:40:31  5-MIN KSTC 171940Z 30004KT 10SM CLR 11/M01 A3020 770 44 500 300/04 RMK AO2 T01061011
14926KSTC STC20170417134510304/17/17 13:45:31  5-MIN KSTC 171945Z VRB05KT 10SM CLR 11/M02 A3020 770 42 500 VRB/05 RMK AO2 T01061017
14926KSTC STC20170417135011004/17/17 13:50:31  5-MIN KSTC 171950Z 31004KT 10SM CLR 11/M01 A3019 770 44 500 310/04 RMK AO2 SLP239 T01061011
14926KSTC STC20170417135510304/17/17 13:55:31  5-MIN KSTC 171955Z 14004KT 10SM CLR 10/M02 A3019 780 42 400 140/04 RMK AO2 T01001022
14926KSTC STC20170417140010304/17/17 14:00:31  5-MIN KSTC 172000Z 00000KT 10SM CLR 11/M02 A3019 780 42 500 000/00 RMK AO2 T01061017
14926KSTC STC20170417140510304/17/17 14:05:31  5-MIN KSTC 172005Z 36007KT 10SM CLR 11/M01 A3019 780 42 500 360/07 RMK AO2 T01111011
14926KSTC STC20170417141009304/17/17 14:10:31  5-MIN KSTC 172010Z 10SM CLR 11/M02 A3019 780 41 500 M /M RMK AO2 T01111017
14926KSTC STC20170417141510304/17/17 14:15:31  5-MIN KSTC 172015Z 30007KT 10SM CLR 11/M02 A3019 780 41 500 300/07 RMK AO2 T01111017
14926KSTC STC20170417142010304/17/17 14:20:31  5-MIN KSTC 172020Z 33007KT 10SM CLR 11/M02 A3019 780 40 500 330/07 RMK AO2 T01061022
14926KSTC STC20170417142510304/17/17 14:25:31  5-MIN KSTC 172025Z 35007KT 10SM CLR 11/M02 A3019 780 40 500 350/07 RMK AO2 T01061022
14926KSTC STC20170417143010304/17/17 14:30:31  5-MIN KSTC 172030Z VRB04KT 10SM CLR 11/M02 A3018 780 41 500 VRB/04 RMK AO2 T01111017
14926KSTC STC20170417143510304/17/17 14:35:31  5-MIN KSTC 172035Z 02004KT 10SM CLR 11/M02 A3018 790 41 500 020/04 RMK AO2 T01111017
14926KSTC STC20170417144010304/17/17 14:40:31  5-MIN KSTC 172040Z 07005KT 10SM CLR 11/M02 A3018 790 41 600 070/05 RMK AO2 T01111017
14926KSTC STC20170417144510304/17/17 14:45:31  5-MIN KSTC 172045Z VRB03KT 10SM CLR 11/M02 A3018 790 41 600 VRB/03 RMK AO2 T01111017
14926KSTC STC20170417145011604/17/17 14:50:31  5-MIN KSTC 172050Z 00000KT 10SM CLR 11/M02 A3017 790 41 600 000/00 RMK AO2 SLP233 T01111017 58004
14926KSTC STC20170417145510304/17/17 14:55:31  5-MIN KSTC 172055Z 31006KT 10SM CLR 11/M02 A3017 800 41 600 310/06 RMK AO2 T01111017
14926KSTC STC20170417150010304/17/17 15:00:31  5-MIN KSTC 172100Z 30004KT 10SM CLR 11/M02 A3017 800 41 600 300/04 RMK AO2 T01111017
14926KSTC STC20170417150510304/17/17 15:05:31  5-MIN KSTC 172105Z 00000KT 10SM CLR 11/M02 A3016 800 40 500 000/00 RMK AO2 T01061022
14926KSTC STC20170417151010304/17/17 15:10:31  5-MIN KSTC 172110Z VRB05KT 10SM CLR 12/M02 A3016 800 39 600 VRB/05 RMK AO2 T01171017
14926KSTC STC20170417151510304/17/17 15:15:31  5-MIN KSTC 172115Z 34004KT 10SM CLR 12/M02 A3016 810 39 600 340/04 RMK AO2 T01171017
14926KSTC STC20170417152010304/17/17 15:20:31  5-MIN KSTC 172120Z VRB03KT 10SM CLR 12/M02 A3016 810 38 700 VRB/03 RMK AO2 T01221017
14926KSTC STC20170417152510304/17/17 15:25:31  5-MIN KSTC 172125Z 36005KT 10SM CLR 12/M02 A3016 810 39 600 360/05 RMK AO2 T01171017
14926KSTC STC20170417153010304/17/17 15:30:31  5-MIN KSTC 172130Z 02003KT 10SM CLR 12/M02 A3015 810 38 600 020/03 RMK AO2 T01171022
14926KSTC STC20170417153510304/17/17 15:35:31  5-MIN KSTC 172135Z 00000KT 10SM CLR 12/M02 A3015 810 38 600 000/00 RMK AO2 T01171022
14926KSTC STC20170417154010304/17/17 15:40:31  5-MIN KSTC 172140Z VRB05KT 10SM CLR 11/M02 A3015 810 41 600 VRB/05 RMK AO2 T01111017
14926KSTC STC20170417154510304/17/17 15:45:31  5-MIN KSTC 172145Z 00000KT 10SM CLR 12/M02 A3015 820 38 700 000/00 RMK AO2 T01171022
14926KSTC STC20170417155011004/17/17 15:50:31  5-MIN KSTC 172150Z 15005KT 10SM CLR 12/M02 A3014 820 38 700 150/05 RMK AO2 SLP222 T01171022
14926KSTC STC20170417155510304/17/17 15:55:31  5-MIN KSTC 172155Z 14005KT 10SM CLR 11/M03 A3014 820 37 600 140/05 RMK AO2 T01111028
14926KSTC STC20170417160011904/17/17 16:00:31  5-MIN KSTC 172200Z 06007KT 030V100 10SM CLR 11/M02 A3014 830 39 600 060/07 030V100 RMK AO2 T01111022
14926KSTC STC20170417160510304/17/17 16:05:31  5-MIN KSTC 172205Z 07003KT 10SM CLR 11/M02 A3014 830 39 600 070/03 RMK AO2 T01111022
14926KSTC STC20170417161010304/17/17 16:10:31  5-MIN KSTC 172210Z VRB05KT 10SM CLR 11/M03 A3014 830 37 600 VRB/05 RMK AO2 T01111028
14926KSTC STC20170417161510304/17/17 16:15:31  5-MIN KSTC 172215Z VRB06KT 10SM CLR 12/M02 A3014 830 38 700 VRB/06 RMK AO2 T01171022
14926KSTC STC20170417162010304/17/17 16:20:31  5-MIN KSTC 172220Z VRB04KT 10SM CLR 12/M03 A3014 830 35 700 VRB/04 RMK AO2 T01171033
14926KSTC STC20170417162510304/17/17 16:25:31  5-MIN KSTC 172225Z VRB06KT 10SM CLR 12/M03 A3014 830 36 700 VRB/06 RMK AO2 T01171028
14926KSTC STC20170417163010304/17/17 16:30:31  5-MIN KSTC 172230Z 09003KT 10SM CLR 12/M03 A3014 830 36 700 090/03 RMK AO2 T01171028
14926KSTC STC20170417163510304/17/17 16:35:31  5-MIN KSTC 172235Z 13007KT 10SM CLR 12/M03 A3014 830 36 700 130/07 RMK AO2 T01171028
14926KSTC STC20170417164010304/17/17 16:40:31  5-MIN KSTC 172240Z VRB03KT 10SM CLR 11/M03 A3014 830 36 600 VRB/03 RMK AO2 T01111033
14926KSTC STC20170417164510304/17/17 16:45:31  5-MIN KSTC 172245Z VRB05KT 10SM CLR 12/M03 A3014 830 36 700 VRB/05 RMK AO2 T01171028
14926KSTC STC20170417165011004/17/17 16:50:31  5-MIN KSTC 172250Z 10006KT 10SM CLR 12/M02 A3013 830 38 700 100/06 RMK AO2 SLP220 T01171022
14926KSTC STC20170417165510304/17/17 16:55:31  5-MIN KSTC 172255Z VRB06KT 10SM CLR 12/M02 A3013 830 38 700 VRB/06 RMK AO2 T01171022
14926KSTC STC20170417170010304/17/17 17:00:31  5-MIN KSTC 172300Z 09005KT 10SM CLR 12/M02 A3013 830 38 700 090/05 RMK AO2 T01171022
14926KSTC STC20170417170509304/17/17 17:05:31  5-MIN KSTC 172305Z 10SM CLR 12/M03 A3013 830 36 700 M /M RMK AO2 T01171028
14926KSTC STC20170417171010304/17/17 17:10:31  5-MIN KSTC 172310Z 12003KT 10SM CLR 11/M03 A3013 830 37 600 120/03 RMK AO2 T01111028
14926KSTC STC20170417171510304/17/17 17:15:31  5-MIN KSTC 172315Z 11006KT 10SM CLR 11/M03 A3013 830 37 600 110/06 RMK AO2 T01111028
14926KSTC STC20170417172010304/17/17 17:20:31  5-MIN KSTC 172320Z VRB03KT 10SM CLR 11/M03 A3013 840 37 600 VRB/03 RMK AO2 T01111028
14926KSTC STC20170417172510304/17/17 17:25:31  5-MIN KSTC 172325Z 11006KT 10SM CLR 11/M03 A3012 840 37 600 110/06 RMK AO2 T01111028
14926KSTC STC20170417173010304/17/17 17:30:31  5-MIN KSTC 172330Z 09005KT 10SM CLR 11/M03 A3012 840 37 600 090/05 RMK AO2 T01111028
14926KSTC STC20170417173510304/17/17 17:35:31  5-MIN KSTC 172335Z 11005KT 10SM CLR 11/M02 A3012 840 39 600 110/05 RMK AO2 T01111022
14926KSTC STC20170417174010304/17/17 17:40:31  5-MIN KSTC 172340Z 08004KT 10SM CLR 12/M02 A3012 840 38 700 080/04 RMK AO2 T01171022
14926KSTC STC20170417174510304/17/17 17:45:31  5-MIN KSTC 172345Z VRB03KT 10SM CLR 12/M02 A3013 840 36 700 VRB/03 RMK AO2 T01221022
14926KSTC STC20170417175012804/17/17 17:50:31  5-MIN KSTC 172350Z 13005KT 10SM CLR 12/M02 A3012 840 38 700 130/05 RMK AO2 SLP215 T01171022 10122 20078 58021
14926KSTC STC20170417175510304/17/17 17:55:31  5-MIN KSTC 172355Z VRB05KT 10SM CLR 12/M03 A3012 850 36 700 VRB/05 RMK AO2 T01171028
14926KSTC STC20170417180010304/17/17 18:00:31  5-MIN KSTC 180000Z 12006KT 10SM CLR 12/M03 A3012 850 36 700 120/06 RMK AO2 T01171028
14926KSTC STC20170417180510304/17/17 18:05:31  5-MIN KSTC 180005Z 10006KT 10SM CLR 11/M03 A3012 850 37 600 100/06 RMK AO2 T01111028
14926KSTC STC20170417181010304/17/17 18:10:31  5-MIN KSTC 180010Z 11006KT 10SM CLR 11/M02 A3012 850 39 600 110/06 RMK AO2 T01111022
14926KSTC STC20170417181510304/17/17 18:15:31  5-MIN KSTC 180015Z 10004KT 10SM CLR 11/M03 A3012 850 37 600 100/04 RMK AO2 T01111028
14926KSTC STC20170417182010304/17/17 18:20:31  5-MIN KSTC 180020Z 12004KT 10SM CLR 11/M03 A3011 850 37 600 120/04 RMK AO2 T01111028
14926KSTC STC20170417182510304/17/17 18:25:31  5-MIN KSTC 180025Z 11004KT 10SM CLR 11/M03 A3012 850 37 600 110/04 RMK AO2 T01111028
14926KSTC STC20170417183010304/17/17 18:30:31  5-MIN KSTC 180030Z 10003KT 10SM CLR 11/M02 A3012 850 39 600 100/03 RMK AO2 T01111022
14926KSTC STC20170417183510304/17/17 18:35:31  5-MIN KSTC 180035Z 09004KT 10SM CLR 11/M03 A3012 850 37 600 090/04 RMK AO2 T01111028
14926KSTC STC20170417184010304/17/17 18:40:31  5-MIN KSTC 180040Z 11003KT 10SM CLR 11/M03 A3012 840 39 600 110/03 RMK AO2 T01061028
14926KSTC STC20170417184510304/17/17 18:45:31  5-MIN KSTC 180045Z 11004KT 10SM CLR 11/M02 A3012 850 40 600 100/04 RMK AO2 T01061022
14926KSTC STC20170417185011004/17/17 18:50:31  5-MIN KSTC 180050Z 10004KT 10SM CLR 11/M02 A3012 850 40 600 100/04 RMK AO2 SLP213 T01061022
14926KSTC STC20170417185510304/17/17 18:55:31  5-MIN KSTC 180055Z 10004KT 10SM CLR 10/M02 A3012 850 42 500 100/04 RMK AO2 T01001022
14926KSTC STC20170417190010304/17/17 19:00:31  5-MIN KSTC 180100Z 10004KT 10SM CLR 10/M02 A3012 850 44 500 090/04 RMK AO2 T01001017
14926KSTC STC20170417190510304/17/17 19:05:31  5-MIN KSTC 180105Z 11004KT 10SM CLR 10/M02 A3012 840 44 500 100/04 RMK AO2 T01001017
14926KSTC STC20170417191010304/17/17 19:10:31  5-MIN KSTC 180110Z 11004KT 10SM CLR 10/M02 A3012 840 44 500 110/04 RMK AO2 T01001017
14926KSTC STC20170417191510304/17/17 19:15:31  5-MIN KSTC 180115Z 11004KT 10SM CLR 10/M02 A3012 840 44 500 110/04 RMK AO2 T01001017
14926KSTC STC20170417192010304/17/17 19:20:31  5-MIN KSTC 180120Z 10004KT 10SM CLR 10/M02 A3012 840 44 500 100/04 RMK AO2 T01001017
14926KSTC STC20170417192510304/17/17 19:25:31  5-MIN KSTC 180125Z 11005KT 10SM CLR 09/M02 A3012 840 45 400 110/05 RMK AO2 T00941017
14926KSTC STC20170417193010304/17/17 19:30:31  5-MIN KSTC 180130Z 11004KT 10SM CLR 09/M02 A3012 840 45 400 110/04 RMK AO2 T00941017
14926KSTC STC20170417193510304/17/17 19:35:31  5-MIN KSTC 180135Z 12003KT 10SM CLR 09/M02 A3012 840 45 400 120/03 RMK AO2 T00941017
14926KSTC STC20170417194010304/17/17 19:40:31  5-MIN KSTC 180140Z 14003KT 10SM CLR 09/M01 A3012 840 49 300 140/03 RMK AO2 T00891011
14926KSTC STC20170417194510204/17/17 19:45:31  5-MIN KSTC 180145Z 16003KT 10SM CLR 08/00 A3012 840 55 300 160/03 RMK AO2 T00830000
14926KSTC STC20170417195010904/17/17 19:50:31  5-MIN KSTC 180150Z 15004KT 10SM CLR 08/00 A3013 840 55 300 150/04 RMK AO2 SLP218 T00830000
14926KSTC STC20170417195510304/17/17 19:55:31  5-MIN KSTC 180155Z 14003KT 10SM CLR 08/M01 A3013 830 53 300 140/03 RMK AO2 T00831006
14926KSTC STC20170417200010304/17/17 20:00:31  5-MIN KSTC 180200Z 14003KT 10SM CLR 09/M01 A3013 830 49 300 140/03 RMK AO2 T00891011
14926KSTC STC20170417200510304/17/17 20:05:31  5-MIN KSTC 180205Z 14003KT 10SM CLR 09/M01 A3013 830 51 300 140/03 RMK AO2 T00891006
14926KSTC STC20170417201010304/17/17 20:10:31  5-MIN KSTC 180210Z 14003KT 10SM CLR 08/M01 A3013 830 53 300 140/03 RMK AO2 T00831006
14926KSTC STC20170417201510304/17/17 20:15:31  5-MIN KSTC 180215Z 13003KT 10SM CLR 09/M01 A3013 830 49 300 130/03 RMK AO2 T00891011
14926KSTC STC20170417202010304/17/17 20:20:31  5-MIN KSTC 180220Z 13004KT 10SM CLR 09/M01 A3013 830 49 300 130/04 RMK AO2 T00891011
14926KSTC STC20170417202510304/17/17 20:25:31  5-MIN KSTC 180225Z 07006KT 10SM CLR 09/M01 A3013 840 49 300 070/06 RMK AO2 T00891011
14926KSTC STC20170417203010304/17/17 20:30:31  5-MIN KSTC 180230Z 11005KT 10SM CLR 08/M01 A3013 830 51 300 110/05 RMK AO2 T00831011
14926KSTC STC20170417203510304/17/17 20:35:31  5-MIN KSTC 180235Z 11005KT 10SM CLR 09/M01 A3013 840 49 300 100/05 RMK AO2 T00891011
14926KSTC STC20170417204010304/17/17 20:40:31  5-MIN KSTC 180240Z 10005KT 10SM CLR 09/M01 A3013 840 51 300 100/05 RMK AO2 T00891006
14926KSTC STC20170417204510304/17/17 20:45:31  5-MIN KSTC 180245Z 10004KT 10SM CLR 09/M01 A3013 840 51 300 100/04 RMK AO2 T00891006
14926KSTC STC20170417205011604/17/17 20:50:31  5-MIN KSTC 180250Z 10005KT 10SM CLR 09/M01 A3012 840 51 300 100/05 RMK AO2 SLP216 T00891006 56017
14926KSTC STC20170417205510304/17/17 20:55:31  5-MIN KSTC 180255Z 10005KT 10SM CLR 08/M01 A3012 840 53 300 090/05 RMK AO2 T00831006
14926KSTC STC20170417210010304/17/17 21:00:31  5-MIN KSTC 180300Z 09006KT 10SM CLR 08/M01 A3012 840 53 300 090/06 RMK AO2 T00831006
14926KSTC STC20170417210510204/17/17 21:05:31  5-MIN KSTC 180305Z 09007KT 10SM CLR 08/00 A3011 850 55 300 090/07 RMK AO2 T00830000
14926KSTC STC20170417211010204/17/17 21:10:31  5-MIN KSTC 180310Z 09007KT 10SM CLR 08/00 A3012 850 55 300 090/07 RMK AO2 T00830000
14926KSTC STC20170417211510204/17/17 21:15:31  5-MIN KSTC 180315Z 10005KT 10SM CLR 08/00 A3012 850 55 300 100/05 RMK AO2 T00830000
14926KSTC STC20170417212010204/17/17 21:20:31  5-MIN KSTC 180320Z 09005KT 10SM CLR 08/00 A3012 840 55 300 090/05 RMK AO2 T00830000
14926KSTC STC20170417212510204/17/17 21:25:31  5-MIN KSTC 180325Z 10005KT 10SM CLR 08/00 A3012 840 55 300 100/05 RMK AO2 T00830000
14926KSTC STC20170417213010204/17/17 21:30:31  5-MIN KSTC 180330Z 09006KT 10SM CLR 08/00 A3012 840 58 200 090/06 RMK AO2 T00780000
14926KSTC STC20170417213510204/17/17 21:35:31  5-MIN KSTC 180335Z 09006KT 10SM CLR 08/00 A3011 850 58 200 090/06 RMK AO2 T00780000
14926KSTC STC20170417214010304/17/17 21:40:31  5-MIN KSTC 180340Z 09006KT 10SM CLR 08/M01 A3011 850 53 300 090/06 RMK AO2 T00831006
14926KSTC STC20170417214510304/17/17 21:45:31  5-MIN KSTC 180345Z 09006KT 10SM CLR 08/M01 A3012 850 55 200 090/06 RMK AO2 T00781006
14926KSTC STC20170417215011004/17/17 21:50:31  5-MIN KSTC 180350Z 09006KT 10SM CLR 08/M01 A3011 850 55 200 090/06 RMK AO2 SLP211 T00781006
14926KSTC STC20170417215510304/17/17 21:55:31  5-MIN KSTC 180355Z 09007KT 10SM CLR 08/M01 A3010 860 55 200 090/07 RMK AO2 T00781006
14926KSTC STC20170417220010804/17/17 22:00:31  5-MIN KSTC 180400Z AUTO 09007KT 10SM CLR 08/M01 A3010 860 55 200 090/07 RMK AO2 T00781006
14926KSTC STC20170417220510804/17/17 22:05:31  5-MIN KSTC 180405Z AUTO 09007KT 10SM CLR 08/M01 A3010 860 55 200 080/07 RMK AO2 T00781006
14926KSTC STC20170417221010704/17/17 22:10:31  5-MIN KSTC 180410Z AUTO 09008KT 10SM CLR 08/00 A3010 860 58 200 090/08 RMK AO2 T00780000
14926KSTC STC20170417221510704/17/17 22:15:31  5-MIN KSTC 180415Z AUTO 09007KT 10SM CLR 08/00 A3010 860 58 200 090/07 RMK AO2 T00780000
14926KSTC STC20170417222010704/17/17 22:20:31  5-MIN KSTC 180420Z AUTO 09007KT 10SM CLR 07/00 A3009 870 60 200 090/07 RMK AO2 T00720000
14926KSTC STC20170417222510704/17/17 22:25:31  5-MIN KSTC 180425Z AUTO 09007KT 10SM CLR 07/00 A3009 870 60 200 090/07 RMK AO2 T00720000
14926KSTC STC20170417223010704/17/17 22:30:31  5-MIN KSTC 180430Z AUTO 08008KT 10SM CLR 07/00 A3009 870 60 200 080/08 RMK AO2 T00720000
14926KSTC STC20170417223510704/17/17 22:35:31  5-MIN KSTC 180435Z AUTO 08008KT 10SM CLR 07/00 A3009 870 60 200 080/08 RMK AO2 T00720000
14926KSTC STC20170417224010704/17/17 22:40:31  5-MIN KSTC 180440Z AUTO 08006KT 10SM CLR 07/00 A3008 870 60 200 080/06 RMK AO2 T00720000
14926KSTC STC20170417224510704/17/17 22:45:31  5-MIN KSTC 180445Z AUTO 09007KT 10SM CLR 07/00 A3008 880 60 200 090/07 RMK AO2 T00720000
14926KSTC STC20170417225011404/17/17 22:50:31  5-MIN KSTC 180450Z AUTO 09009KT 10SM CLR 07/00 A3008 880 62 100 090/09 RMK AO2 SLP201 T00670000
14926KSTC STC20170417225510704/17/17 22:55:31  5-MIN KSTC 180455Z AUTO 08009KT 10SM CLR 07/01 A3008 880 65 100 080/09 RMK AO2 T00670006
14926KSTC STC20170417230010704/17/17 23:00:31  5-MIN KSTC 180500Z AUTO 09009KT 10SM CLR 07/01 A3007 880 65 100 090/09 RMK AO2 T00670006
14926KSTC STC20170417230510704/17/17 23:05:31  5-MIN KSTC 180505Z AUTO 09010KT 10SM CLR 07/01 A3007 890 65 100 080/10 RMK AO2 T00670006
14926KSTC STC20170417231010704/17/17 23:10:31  5-MIN KSTC 180510Z AUTO 09008KT 10SM CLR 07/01 A3007 890 65 100 090/08 RMK AO2 T00670006
14926KSTC STC20170417231510704/17/17 23:15:31  5-MIN KSTC 180515Z AUTO 08006KT 10SM CLR 07/01 A3007 890 65 100 080/06 RMK AO2 T00670006
14926KSTC STC20170417232010704/17/17 23:20:31  5-MIN KSTC 180520Z AUTO 08008KT 10SM CLR 06/01 A3006 900 67 100 080/08 RMK AO2 T00610006
14926KSTC STC20170417232510704/17/17 23:25:31  5-MIN KSTC 180525Z AUTO 08009KT 10SM CLR 06/01 A3006 900 67 100 080/09 RMK AO2 T00610006
14926KSTC STC20170417233010704/17/17 23:30:31  5-MIN KSTC 180530Z AUTO 08009KT 10SM CLR 06/01 A3005 900 67 100 080/09 RMK AO2 T00610006
14926KSTC STC20170417233511004/17/17 23:35:31  5-MIN KSTC 180535Z AUTO 08009KT 10SM FEW110 06/01 A3005 910 67 100 080/09 RMK AO2 T00610006
14926KSTC STC20170417234011004/17/17 23:40:31  5-MIN KSTC 180540Z AUTO 09008KT 10SM SCT110 06/01 A3005 910 67 100 080/08 RMK AO2 T00610006
14926KSTC STC20170417234511004/17/17 23:45:31  5-MIN KSTC 180545Z AUTO 09009KT 10SM FEW110 06/01 A3005 910 67 100 080/09 RMK AO2 T00610006
14926KSTC STC20170417235014504/17/17 23:50:31  5-MIN KSTC 180550Z AUTO 09009KT 10SM FEW110 06/01 A3005 910 67 100 080/09 RMK AO2 SLP190 T00610006 10117 20061 401220011 50002
14926KSTC STC20170417235511004/17/17 23:55:31  5-MIN KSTC 180555Z AUTO 09009KT 10SM FEW110 06/01 A3004 920 67 100 090/09 RMK AO2 T00610006
14926KSTC STC20170418000011004/18/17 00:00:31  5-MIN KSTC 180600Z AUTO 09008KT 10SM FEW110 06/01 A3004 920 67 100 090/08 RMK AO2 T00610006
14926KSTC STC20170418000511004/18/17 00:05:31  5-MIN KSTC 180605Z AUTO 09009KT 10SM SCT120 06/01 A3003 920 67 100 080/09 RMK AO2 T00610006
14926KSTC STC20170418001011604/18/17 00:10:31  5-MIN KSTC 180610Z AUTO 08011G16KT 10SM SCT120 06/01 A3003 930 67 100 080/11G16 RMK AO2 T00610006
14926KSTC STC20170418001511604/18/17 00:15:31  5-MIN KSTC 180615Z AUTO 09009G16KT 10SM FEW120 06/01 A3002 940 67 100 090/09G16 RMK AO2 T00610006
14926KSTC STC20170418002011004/18/17 00:20:31  5-MIN KSTC 180620Z AUTO 09010KT 10SM FEW120 06/01 A3002 940 67 100 090/10 RMK AO2 T00610006
14926KSTC STC20170418002511004/18/17 00:25:31  5-MIN KSTC 180625Z AUTO 08011KT 10SM SCT120 06/01 A3001 940 67 100 080/11 RMK AO2 T00610006
14926KSTC STC20170418003011004/18/17 00:30:31  5-MIN KSTC 180630Z AUTO 08009KT 10SM SCT110 06/01 A3001 950 67 100 080/09 RMK AO2 T00610006
14926KSTC STC20170418003511004/18/17 00:35:31  5-MIN KSTC 180635Z AUTO 09009KT 10SM SCT110 06/01 A3001 950 67 100 090/09 RMK AO2 T00610006
14926KSTC STC20170418004011004/18/17 00:40:31  5-MIN KSTC 180640Z AUTO 09010KT 10SM SCT110 06/01 A3000 950 67 100 080/10 RMK AO2 T00610006
14926KSTC STC20170418004511604/18/17 00:45:31  5-MIN KSTC 180645Z AUTO 09010G17KT 10SM BKN110 06/01 A3000 950 67 100 080/10G17 RMK AO2 T00610006
14926KSTC STC20170418005012304/18/17 00:50:31  5-MIN KSTC 180650Z AUTO 09008G17KT 10SM BKN110 06/01 A3000 950 67 200 090/08G17 RMK AO2 SLP172 T00610006
14926KSTC STC20170418005511004/18/17 00:55:31  5-MIN KSTC 180655Z AUTO 08012KT 10SM BKN110 06/01 A2999 960 67 200 080/12 RMK AO2 T00610006
14926KSTC STC20170418010011004/18/17 01:00:31  5-MIN KSTC 180700Z AUTO 09010KT 10SM BKN100 06/01 A2999 960 67 200 090/10 RMK AO2 T00610006
14926KSTC STC20170418010512304/18/17 01:05:31  5-MIN KSTC 180705Z AUTO 08010G18KT 10SM BKN100 OVC110 06/01 A2999 960 67 200 080/10G18 RMK AO2 T00610006
14926KSTC STC20170418011013004/18/17 01:10:31  5-MIN KSTC 180710Z AUTO 08008G18KT 10SM FEW065 BKN095 OVC110 06/01 A2999 960 67 200 080/08G18 RMK AO2 T00610006
14926KSTC STC20170418011512404/18/17 01:15:31  5-MIN KSTC 180715Z AUTO 09009KT 10SM FEW060 BKN090 OVC110 06/01 A2999 960 67 200 090/09 RMK AO2 T00610006
14926KSTC STC20170418012011704/18/17 01:20:31  5-MIN KSTC 180720Z AUTO 09009KT 10SM BKN070 OVC090 06/01 A2999 960 67 200 090/09 RMK AO2 T00610006
14926KSTC STC20170418012513304/18/17 01:25:31  5-MIN KSTC 180725Z AUTO 08007KT 10SM -RA BKN070 OVC090 06/01 A2999 960 70 200 080/07 RMK AO2 RAB25 P0000 T00610011
14926KSTC STC20170418013013304/18/17 01:30:31  5-MIN KSTC 180730Z AUTO 08006KT 10SM -RA BKN070 OVC085 06/01 A2998 970 73 100 080/06 RMK AO2 RAB25 P0000 T00560011
14926KSTC STC20170418013512604/18/17 01:35:31  5-MIN KSTC 180735Z AUTO 08006KT 10SM -RA OVC070 06/02 A2998 970 76 100 080/06 RMK AO2 RAB25 P0000 T00560017
14926KSTC STC20170418014012604/18/17 01:40:31  5-MIN KSTC 180740Z AUTO 08007KT 10SM -RA OVC070 06/02 A2998 970 76 100 080/07 RMK AO2 RAB25 P0000 T00560017
14926KSTC STC20170418014512504/18/17 01:45:31  5-MIN KSTC 180745Z AUTO 06006KT 10SM OVC070 06/02 A2999 970 76 100 060/06 RMK AO2 RAB25E44 P0000 T00560017
14926KSTC STC20170418015013904/18/17 01:50:31  5-MIN KSTC 180750Z AUTO VRB04KT 10SM BKN065 OVC080 06/02 A3000 950 76 100 VRB/04 RMK AO2 RAB25E44 SLP174 P0000 T00560017
14926KSTC STC20170418015511704/18/17 01:55:31  5-MIN KSTC 180755Z AUTO 01004KT 10SM BKN060 OVC075 06/02 A3001 950 76 100 010/04 RMK AO2 T00560017
14926KSTC STC20170418020011704/18/17 02:00:31  5-MIN KSTC 180800Z AUTO 05005KT 10SM BKN055 OVC070 06/02 A3000 960 76 100 050/05 RMK AO2 T00560017
14926KSTC STC20170418020511504/18/17 02:05:31  5-MIN KSTC 180805Z AUTO 08007KT 10SM BKN055 OVC075 05/02 A2999 960 79 0 080/07 RMK AO2 T00500017
14926KSTC STC20170418021013804/18/17 02:10:31  5-MIN KSTC 180810Z AUTO 08007KT 10SM -RA BKN060 OVC070 05/02 A2998 970 79 0 080/07 RMK AO2 RAB07 PRESFR P0000 T00500017
14926KSTC STC20170418021512404/18/17 02:15:31  5-MIN KSTC 180815Z AUTO 06007KT 10SM -RA OVC060 05/02 A2998 970 79 0 060/07 RMK AO2 RAB07 P0000 T00500017
14926KSTC STC20170418022012304/18/17 02:20:31  5-MIN KSTC 180820Z AUTO 05005KT 9SM -RA OVC060 05/02 A2998 970 82 0 050/05 RMK AO2 RAB07 P0001 T00500022
14926KSTC STC20170418022513104/18/17 02:25:31  5-MIN KSTC 180825Z AUTO 09008KT 10SM -RA OVC060 04/02 A2996 990 85 0 090/08 RMK AO2 RAB07 PRESFR P0001 T00440022
14926KSTC STC20170418023013204/18/17 02:30:31  5-MIN KSTC 180830Z AUTO 09010KT 10SM -RA OVC060 04/02 A2995 1000 85 0 090/10 RMK AO2 RAB07 PRESFR P0001 T00440022
14926KSTC STC20170418023514604/18/17 02:35:31  5-MIN KSTC 180835Z AUTO 09011KT 10SM -RA BKN060 BKN075 OVC090 04/02 A2994 1000 85 0 080/11 RMK AO2 RAB07 PRESFR P0002 T00440022
14926KSTC STC20170418024013104/18/17 02:40:31  5-MIN KSTC 180840Z AUTO 09011KT 9SM -RA BKN060 OVC075 04/03 A2994 1000 89 0 090/11 RMK AO2 RAB07 P0003 T00440028
14926KSTC STC20170418024513804/18/17 02:45:31  5-MIN KSTC 180845Z AUTO 09009G16KT 10SM -RA BKN065 OVC080 04/03 A2994 1010 89 0 090/09G16 RMK AO2 RAB07 P0003 T00440028
14926KSTC STC20170418025015704/18/17 02:50:31  5-MIN KSTC 180850Z AUTO 08009G16KT 10SM -RA BKN065 OVC080 04/02 A2994 1010 85 0 070/09G16 RMK AO2 RAB07 SLP152 P0003 60003 T00440022 58027
14926KSTC STC20170418025513404/18/17 02:55:31  5-MIN KSTC 180855Z AUTO 08010G16KT 10SM BKN065 OVC080 04/03 A2993 1010 89 0 080/10G16 RMK AO2 RAE54 P0000 T00440028
14926KSTC STC20170418030013604/18/17 03:00:31  5-MIN KSTC 180900Z AUTO 09010G15KT 10SM FEW055 OVC065 04/03 A2993 1020 89 0 090/10G15 RMK AO2 RAE0854 P0000 T00440028
14926KSTC STC20170418030512304/18/17 03:05:31  5-MIN KSTC 180905Z AUTO 09010KT 10SM OVC065 04/03 A2993 1020 89 0 090/10 RMK AO2 RAE0854 P0000 T00440028
14926KSTC STC20170418031012304/18/17 03:10:31  5-MIN KSTC 180910Z AUTO 09008KT 10SM OVC065 04/03 A2993 1020 89 0 090/08 RMK AO2 RAE0854 P0000 T00440028
14926KSTC STC20170418031512504/18/17 03:15:31  5-MIN KSTC 180915Z AUTO 09007KT 10SM OVC065 05/03 A2992 1020 85 100 090/07 RMK AO2 RAE0854 P0000 T00500028
14926KSTC STC20170418032012504/18/17 03:20:31  5-MIN KSTC 180920Z AUTO 09009KT 10SM OVC065 05/03 A2992 1030 85 100 090/09 RMK AO2 RAE0854 P0000 T00500028
14926KSTC STC20170418032512504/18/17 03:25:31  5-MIN KSTC 180925Z AUTO 08010KT 10SM OVC065 05/03 A2992 1030 85 100 080/10 RMK AO2 RAE0854 P0000 T00500028
14926KSTC STC20170418033013104/18/17 03:30:31  5-MIN KSTC 180930Z AUTO 06005G14KT 10SM OVC065 05/03 A2992 1030 85 100 060/05G14 RMK AO2 RAE0854 P0000 T00500028
14926KSTC STC20170418033513204/18/17 03:35:31  5-MIN KSTC 180935Z AUTO 07005KT 10SM -RA OVC065 05/03 A2992 1030 85 100 070/05 RMK AO2 RAE0854B32 P0000 T00500028
14926KSTC STC20170418034013904/18/17 03:40:31  5-MIN KSTC 180940Z AUTO 07005KT 10SM -RA BKN065 OVC080 05/03 A2991 1030 85 100 070/05 RMK AO2 RAE0854B32 P0000 T00500028
14926KSTC STC20170418034513204/18/17 03:45:31  5-MIN KSTC 180945Z AUTO 06006KT 10SM -RA OVC070 05/03 A2991 1030 85 100 060/06 RMK AO2 RAE0854B32 P0000 T00500028
14926KSTC STC20170418035013904/18/17 03:50:31  5-MIN KSTC 180950Z AUTO 07006KT 10SM -RA OVC070 05/03 A2991 1040 85 100 070/06 RMK AO2 RAE0854B32 SLP141 P0000 T00500028
14926KSTC STC20170418035512104/18/17 03:55:31  5-MIN KSTC 180955Z AUTO 06004KT 10SM -RA OVC075 05/03 A2991 1040 85 100 060/04 RMK AO2 P0000 T00500028
14926KSTC STC20170418040013004/18/17 04:00:31  5-MIN KSTC 181000Z AUTO 06004KT 10SM SCT065 OVC080 04/03 A2991 1030 89 0 060/04 RMK AO2 RAE0957 P0000 T00440028
14926KSTC STC20170418040512804/18/17 04:05:31  5-MIN KSTC 181005Z AUTO 07006KT 10SM -RA FEW055 OVC080 04/03 A2991 1040 92 100 070/06 RMK AO2 P0000 T00440033
14926KSTC STC20170418041012104/18/17 04:10:31  5-MIN KSTC 181010Z AUTO 06007KT 10SM -RA OVC075 04/03 A2990 1040 89 100 060/07 RMK AO2 P0000 T00440028
14926KSTC STC20170418041512104/18/17 04:15:31  5-MIN KSTC 181015Z AUTO 06007KT 10SM -RA OVC075 04/03 A2990 1050 89 100 060/07 RMK AO2 P0000 T00440028
14926KSTC STC20170418042012804/18/17 04:20:31  5-MIN KSTC 181020Z AUTO 07004KT 10SM -RA BKN075 OVC090 04/03 A2990 1050 89 100 070/04 RMK AO2 P0000 T00440028
14926KSTC STC20170418042512704/18/17 04:25:31  5-MIN KSTC 181025Z AUTO 07007KT 8SM -RA SCT065 OVC080 04/03 A2989 1050 89 100 070/07 RMK AO2 P0001 T00440028
14926KSTC STC20170418043012904/18/17 04:30:31  5-MIN KSTC 181030Z AUTO 09007KT 6SM RA BR BKN065 OVC080 04/03 A2988 1060 92 100 080/07 RMK AO2 P0002 T00440033
14926KSTC STC20170418043513404/18/17 04:35:31  5-MIN KSTC 181035Z AUTO 08008KT 7SM -RA BKN070 OVC090 04/03 A2987 1070 92 100 080/08 RMK AO2 PRESFR P0002 T00440033
14926KSTC STC20170418044013504/18/17 04:40:31  5-MIN KSTC 181040Z AUTO 08007KT 10SM -RA BKN070 OVC090 04/03 A2986 1080 92 100 080/07 RMK AO2 PRESFR P0003 T00440033
14926KSTC STC20170418044513504/18/17 04:45:31  5-MIN KSTC 181045Z AUTO 07009KT 10SM -RA BKN070 OVC090 04/03 A2986 1090 92 100 070/09 RMK AO2 PRESFR P0003 T00440033
14926KSTC STC20170418045015504/18/17 04:50:31  5-MIN KSTC 181050Z AUTO 07010KT 10SM OVC070 04/03 A2985 1090 92 100 070/10 RMK AO2 LTG DSNT SW AND W RAE49 PRESFR SLP121 P0003 T00440033
14926KSTC STC20170418045512904/18/17 04:55:31  5-MIN KSTC 181055Z AUTO 07010KT 10SM OVC065 04/03 A2985 1100 92 100 070/10 RMK AO2 LTG DSNT SW AND W T00440033
14926KSTC STC20170418050012904/18/17 05:00:31  5-MIN KSTC 181100Z AUTO 08009KT 10SM OVC070 04/03 A2985 1090 92 100 080/09 RMK AO2 LTG DSNT SW AND W T00440033
14926KSTC STC20170418050512704/18/17 05:05:31  5-MIN KSTC 181105Z AUTO 07010KT 10SM -RA OVC065 04/03 A2985 1090 92 100 070/10 RMK AO2 RAB01 P0000 T00440033
14926KSTC STC20170418051012704/18/17 05:10:31  5-MIN KSTC 181110Z AUTO 07012KT 10SM -RA OVC070 04/03 A2984 1100 92 100 070/12 RMK AO2 RAB01 P0000 T00440033
14926KSTC STC20170418051513204/18/17 05:15:31  5-MIN KSTC 181115Z AUTO 07009G17KT 10SM OVC070 04/03 A2986 1090 92 100 070/09G17 RMK AO2 RAB01E12 P0000 T00440033
14926KSTC STC20170418052012704/18/17 05:20:31  5-MIN KSTC 181120Z AUTO 07007KT 10SM -RA OVC070 04/03 A2986 1080 92 100 070/07 RMK AO2 RAB01 P0000 T00440033
14926KSTC STC20170418052513304/18/17 05:25:31  5-MIN KSTC 181125Z AUTO 08009KT 9SM -RA BKN070 OVC080 04/03 A2986 1090 92 100 070/09 RMK AO2 RAB01 P0000 T00440033
14926KSTC STC20170418053013004/18/17 05:30:31  5-MIN KSTC 181130Z 08010KT 6SM RA BR FEW060 OVC070 04/04 A2985 1090 96 100 080/10 RMK AO2 RAB01 P0001 T00440039
14926KSTC STC20170418053513004/18/17 05:35:31  5-MIN KSTC 181135Z 08010KT 6SM RA BR SCT060 OVC075 04/04 A2985 1100 96 100 080/10 RMK AO2 RAB01 P0002 T00440039
14926KSTC STC20170418054012304/18/17 05:40:31  5-MIN KSTC 181140Z 08010KT 5SM RA BR OVC065 04/04 A2985 1100 96 100 080/10 RMK AO2 RAB01 P0003 T00440039
14926KSTC STC20170418054513004/18/17 05:45:31  5-MIN KSTC 181145Z 07008KT 4SM RA BR SCT060 OVC070 04/04 A2985 1090 96 100 070/08 RMK AO2 RAB01 P0005 T00440039
14926KSTC STC20170418055016704/18/17 05:50:31  5-MIN KSTC 181150Z 06007KT 4SM RA BR OVC065 04/04 A2987 1070 96 100 060/07 RMK AO2 RAB01 PRESRR SLP130 P0007 60013 70013 T00440039 10061 20044 58035
14926KSTC STC20170418055512404/18/17 05:55:31  5-MIN KSTC 181155Z 03006KT 4SM RA BR BKN060 OVC075 04/04 A2987 1070 96 100 030/06 RMK AO2 P0001 T00440039
14926KSTC STC20170418060013304/18/17 06:00:31  5-MIN KSTC 181200Z 02005KT 3SM +RA BR FEW041 BKN050 OVC070 04/04 A2987 1070 100 100 020/05 RMK AO2 P0004 T00440044
14926KSTC STC20170418060513704/18/17 06:05:31  5-MIN KSTC 181205Z 04010KT 2 1/2SM +RA BR FEW035 BKN055 OVC070 04/04 A2985 1090 100 100 040/10 RMK AO2 P0007 T00440044
14926KSTC STC20170418061014004/18/17 06:10:31  5-MIN KSTC 181210Z 07010KT 2SM +RA BR FEW005 BKN039 OVC070 04/04 A2984 1100 100 100 070/10 RMK AO2 PRESFR P0011 T00440044
14926KSTC STC20170418061513304/18/17 06:15:31  5-MIN KSTC 181215Z 09011KT 2SM +RA BR BKN037 OVC060 04/04 A2983 1110 100 100 080/11 RMK AO2 PRESFR P0015 T00440044
14926KSTC STC20170418062013304/18/17 06:20:31  5-MIN KSTC 181220Z 09009KT 2SM +RA BR BKN035 OVC060 04/04 A2982 1120 100 200 080/09 RMK AO2 PRESFR P0019 T00440044
14926KSTC STC20170418062513904/18/17 06:25:31  5-MIN KSTC 181225Z 08012G18KT 2SM +RA BR SCT030 OVC035 04/04 A2981 1130 100 200 080/12G18 RMK AO2 PRESFR P0024 T00440044
14926KSTC STC20170418063014204/18/17 06:30:31  5-MIN KSTC 181230Z 09011G18KT 2 1/2SM +RA BR BKN028 OVC035 05/04 A2980 1130 96 200 090/11G18 RMK AO2 PRESFR P0028 T00500044
14926KSTC STC20170418063513704/18/17 06:35:31  5-MIN KSTC 181235Z 08012KT 2 1/2SM +RA BR BKN025 OVC035 05/05 A2980 1140 100 200 080/12 RMK AO2 PRESFR P0032 T00500050
14926KSTC STC20170418064013704/18/17 06:40:31  5-MIN KSTC 181240Z 08012KT 2 1/2SM +RA BR BKN025 OVC034 05/05 A2978 1150 100 300 080/12 RMK AO2 PRESFR P0037 T00500050
14926KSTC STC20170418064513204/18/17 06:45:31  5-MIN KSTC 181245Z 08012KT 2SM RA BR BKN023 OVC032 05/05 A2978 1160 100 300 080/12 RMK AO2 PRESFR P0039 T00500050
14926KSTC STC20170418065012104/18/17 06:50:31  5-MIN KSTC 181250Z 08010G18KT 2SM RA BR FEW004 OVC023 05/05 A2978 1160 100 300 080/10G18 RMK AO2 P0042
14926KSTC STC20170418065513204/18/17 06:55:31  5-MIN KSTC 181255Z 08009KT 3SM RA BR FEW004 OVC023 05/05 A2977 1170 100 300 080/09 RMK AO2 PRESFR P0000 T00500050
14926KSTC STC20170418070013204/18/17 07:00:31  5-MIN KSTC 181300Z 10008KT 4SM RA BR FEW004 OVC023 06/06 A2976 1180 100 400 100/08 RMK AO2 PRESFR P0002 T00560056
14926KSTC STC20170418070513304/18/17 07:05:31  5-MIN KSTC 181305Z 09012KT 4SM +RA BR FEW005 OVC022 06/06 A2975 1190 100 400 090/12 RMK AO2 PRESFR P0004 T00610061
14926KSTC STC20170418071013104/18/17 07:10:31  5-MIN KSTC 181310Z 10010G17KT 4SM RA BR FEW005 OVC022 06/06 A2975 1190 100 400 090/10G17 RMK AO2 P0007 T00610061
14926KSTC STC20170418071513804/18/17 07:15:31  5-MIN KSTC 181315Z 09010G17KT 3SM RA BR FEW005 OVC020 06/06 A2973 1200 100 500 090/10G17 RMK AO2 PRESFR P0009 T00610061
14926KSTC STC20170418072013804/18/17 07:20:31  5-MIN KSTC 181320Z 12013G21KT 2SM +RA BR FEW005 BKN020 OVC024 07/07 A2972 1210 96 600 120/13G21 RMK AO2 P0012 T00720067
14926KSTC STC20170418072515904/18/17 07:25:31  5-MIN KSTC 181325Z 12013G21KT 2 1/2SM RA BR FEW008 BKN018 OVC023 08/07 A2971 1220 96 700 120/13G21 RMK AO2 LTG DSNT W PRESFR P0017 T00780072
14926KSTC STC20170418073014204/18/17 07:30:31  5-MIN KSTC 181330Z 13013G22KT 5SM -RA BR FEW010 OVC020 08/08 A2971 1220 96 800 130/13G22 RMK AO2 LTG DSNT W P0017 T00830078
14926KSTC STC20170418073514804/18/17 07:35:31  5-MIN KSTC 181335Z 14016G22KT 6SM RA BR FEW010 OVC020 09/08 A2970 1230 96 800 140/16G22 RMK AO2 LTG DSNT W PRESFR P0018 T00890083
14926KSTC STC20170418074015604/18/17 07:40:31  5-MIN KSTC 181340Z 13016G22KT 4SM RA BR FEW010 SCT017 OVC023 09/08 A2969 1240 96 800 130/16G22 RMK AO2 LTG DSNT SW PRESFR P0019 T00890083
14926KSTC STC20170418074517504/18/17 07:45:31  5-MIN KSTC 181345Z 13019G27KT 3SM +RA BR FEW010 BKN021 OVC026 09/08 A2968 1250 93 900 130/19G27 RMK AO2 PK WND 14027/1343 LTG DSNT SW PRESFR P0020 T00940083
14926KSTC STC20170418075017504/18/17 07:50:31  5-MIN KSTC 181350Z 13019G27KT 4SM -RA BR BKN021 OVC026 09/09 A2967 1260 96 900 130/19G27 RMK AO2 PK WND 14027/1343 LTG DSNT SW PRESFR SLP060 P0022 T00940089
14926KSTC STC20170418075513104/18/17 07:55:31  5-MIN KSTC 181355Z 14018G26KT 5SM -RA BR BKN020 OVC026 09/09 A2967 1260 96 900 140/18G26 RMK AO2 P0000 T00940089
14926KSTC STC20170418080015604/18/17 08:00:31  5-MIN KSTC 181400Z 14021G28KT 3SM -RA BR BKN020 BKN025 OVC030 09/09 A2967 1260 96 900 140/21G28 RMK AO2 PK WND 14028/1400 P0001 T00940089
14926KSTC STC20170418080516004/18/17 08:05:31  5-MIN KSTC 181405Z 14019G28KT 1 3/4SM +RA BR SCT017 BKN023 OVC029 09/09 A2967 1260 96 900 140/19G28 RMK AO2 PK WND 14028/1400 P0006 T00940089
14926KSTC STC20170418081016004/18/17 08:10:31  5-MIN KSTC 181410Z 14019G28KT 1 1/2SM RA BR FEW012 BKN020 OVC025 09/09 A2966 1270 100 900 140/19G28 RMK AO2 PK WND 14028/1400 P0008 T00940094
14926KSTC STC20170418081515704/18/17 08:15:31  5-MIN KSTC 181415Z 14018G25KT 3SM -RA BR FEW010 BKN017 OVC023 09/09 A2967 1260 100 900 140/18G25 RMK AO2 PK WND 14028/1400 P0009 T00940094
14926KSTC STC20170418082016104/18/17 08:20:31  5-MIN KSTC 181420Z 15017G25KT 2 1/2SM -RA BR SCT012 BKN017 OVC023 10/09 A2967 1260 96 1000 150/17G25 RMK AO2 PK WND 14028/1400 P0009 T01000094
14926KSTC STC20170418082515704/18/17 08:25:31  5-MIN KSTC 181425Z 16015G25KT 2SM -RA BR FEW008 BKN012 OVC022 10/09 A2967 1260 96 1000 160/15G25 RMK AO2 PK WND 14028/1400 P0010 T01000094
14926KSTC STC20170418083015704/18/17 08:30:31  5-MIN KSTC 181430Z 16015KT 3SM -RA BR BKN010 OVC015 10/10 A2966 1260 100 1000 150/15 RMK AO2 PK WND 14028/1400 CIG 007V011 P0010 T01000100
14926KSTC STC20170418083514504/18/17 08:35:31  5-MIN KSTC 181435Z 16013KT 6SM -RA BR BKN010 OVC017 10/10 A2966 1270 100 1000 160/13 RMK AO2 PK WND 14028/1400 P0010 T01000100
14926KSTC STC20170418084015404/18/17 08:40:31  5-MIN KSTC 181440Z 17015G24KT 9SM OVC009 11/11 A2966 1270 96 1100 170/15G24 RMK AO2 PK WND 14028/1400 RAE36 CIG 007V014 P0010 T01110106
14926KSTC STC20170418084514304/18/17 08:45:31  5-MIN KSTC 181445Z 17016G24KT 10SM OVC011 12/11 A2966 1270 96 1200 170/16G24 RMK AO2 PK WND 14028/1400 RAE36 P0010 T01170111
14926KSTC STC20170418085016204/18/17 08:50:31  5-MIN KSTC 181450Z 17016G24KT 10SM OVC011 12/11 A2966 1270 96 1200 170/16G24 RMK AO2 PK WND 14028/1400 RAE36 SLP054 P0011 60076 T01170111 55019
14926KSTC STC20170418085511304/18/17 08:55:31  5-MIN KSTC 181455Z 18017G24KT 10SM OVC011 12/11 A2966 1270 93 1300 180/17G24 RMK AO2 T01220111
14926KSTC STC20170418090011304/18/17 09:00:31  5-MIN KSTC 181500Z 18019G25KT 10SM OVC013 12/11 A2966 1270 93 1300 180/19G25 RMK AO2 T01220111
14926KSTC STC20170418090511304/18/17 09:05:31  5-MIN KSTC 181505Z 18017G25KT 10SM OVC013 12/11 A2966 1260 93 1300 180/17G25 RMK AO2 T01220111
14926KSTC STC20170418091013104/18/17 09:10:31  5-MIN KSTC 181510Z 17018G27KT 10SM OVC013 12/11 A2966 1270 93 1300 170/18G27 RMK AO2 PK WND 19027/1510 T01220111
14926KSTC STC20170418091513104/18/17 09:15:31  5-MIN KSTC 181515Z 18019G27KT 10SM OVC015 12/11 A2966 1270 93 1300 180/19G27 RMK AO2 PK WND 19027/1510 T01220111
14926KSTC STC20170418092013104/18/17 09:20:31  5-MIN KSTC 181520Z 18019G27KT 10SM OVC015 13/11 A2966 1270 89 1300 180/19G27 RMK AO2 PK WND 19027/1510 T01280111
14926KSTC STC20170418092513104/18/17 09:25:31  5-MIN KSTC 181525Z 19018G26KT 10SM OVC015 13/12 A2966 1270 93 1300 180/18G26 RMK AO2 PK WND 19027/1510 T01280117
14926KSTC STC20170418093013104/18/17 09:30:31  5-MIN KSTC 181530Z 18017G23KT 10SM OVC017 13/12 A2965 1270 93 1300 180/17G23 RMK AO2 PK WND 19027/1510 T01280117
14926KSTC STC20170418093513904/18/17 09:35:31  5-MIN KSTC 181535Z 18017KT 10SM BKN017 BKN021 OVC033 13/12 A2965 1280 89 1400 180/17 RMK AO2 PK WND 19027/1510 T01330117
14926KSTC STC20170418094014504/18/17 09:40:31  5-MIN KSTC 181540Z 17016G22KT 10SM SCT017 BKN022 OVC048 13/12 A2964 1280 89 1400 170/16G22 RMK AO2 PK WND 19027/1510 T01330117
14926KSTC STC20170418094514504/18/17 09:45:31  5-MIN KSTC 181545Z 18017G23KT 10SM SCT017 BKN024 OVC048 13/12 A2965 1280 93 1400 180/17G23 RMK AO2 PK WND 19027/1510 T01330122
14926KSTC STC20170418095015204/18/17 09:50:31  5-MIN KSTC 181550Z 17018G23KT 10SM SCT017 BKN026 OVC050 14/12 A2964 1280 90 1500 170/18G23 RMK AO2 PK WND 19027/1510 SLP049 T01390122
14926KSTC STC20170418095512704/18/17 09:55:31  5-MIN KSTC 181555Z 18014G23KT 10SM FEW018 BKN022 OVC041 13/12 A2964 1280 93 1400 180/14G23 RMK AO2 T01330122
14926KSTC STC20170418100012704/18/17 10:00:31  5-MIN KSTC 181600Z 22016G25KT 10SM BKN020 BKN027 OVC041 14/12 A2966 1270 90 1500 220/16G25 RMK AO2 T01390122
14926KSTC STC20170418100512704/18/17 10:05:31  5-MIN KSTC 181605Z 23018G25KT 10SM BKN020 BKN027 OVC041 14/11 A2966 1270 83 1500 230/18G25 RMK AO2 T01390111
14926KSTC STC20170418101015604/18/17 10:10:31  5-MIN KSTC 181610Z 23019G27KT 10SM SCT020 BKN025 OVC047 14/11 A2966 1260 80 1500 230/19G27 RMK AO2 PK WND 23027/1608 WSHFT 1552 T01390106
14926KSTC STC20170418101515604/18/17 10:15:31  5-MIN KSTC 181615Z 23020G28KT 10SM SCT022 BKN028 OVC060 14/11 A2967 1260 80 1500 230/20G28 RMK AO2 PK WND 23028/1615 WSHFT 1552 T01390106
14926KSTC STC20170418102015604/18/17 10:20:31  5-MIN KSTC 181620Z 23023G28KT 10SM BKN022 BKN028 OVC060 14/10 A2967 1260 77 1500 230/23G28 RMK AO2 PK WND 25028/1619 WSHFT 1552 T01390100
14926KSTC STC20170418102515604/18/17 10:25:31  5-MIN KSTC 181625Z 23016G28KT 10SM SCT021 BKN028 OVC048 13/10 A2967 1260 80 1400 230/16G28 RMK AO2 PK WND 25028/1619 WSHFT 1552 T01330100
14926KSTC STC20170418103015604/18/17 10:30:31  5-MIN KSTC 181630Z 23019G24KT 10SM BKN021 BKN028 OVC048 13/10 A2967 1260 80 1400 230/19G24 RMK AO2 PK WND 25028/1619 WSHFT 1552 T01330100
14926KSTC STC20170418103515604/18/17 10:35:31  5-MIN KSTC 181635Z 22027G35KT 10SM BKN023 BKN034 OVC048 13/10 A2968 1250 83 1300 220/27G35 RMK AO2 PK WND 22035/1634 WSHFT 1552 T01280100
14926KSTC STC20170418104014904/18/17 10:40:31  5-MIN KSTC 181640Z 23023G35KT 10SM BKN023 OVC034 13/09 A2968 1250 80 1300 230/23G35 RMK AO2 PK WND 22035/1634 WSHFT 1552 T01280094
14926KSTC STC20170418104514904/18/17 10:45:31  5-MIN KSTC 181645Z 23022G29KT 10SM BKN023 OVC028 12/09 A2968 1250 83 1200 230/22G29 RMK AO2 PK WND 22035/1634 WSHFT 1552 T01220094
14926KSTC STC20170418105014904/18/17 10:50:31  5-MIN KSTC 181650Z 24023G32KT 10SM OVC021 12/09 A2969 1240 83 1200 240/23G32 RMK AO2 PK WND 22035/1634 WSHFT 1552 SLP066 T01220094
14926KSTC STC20170418105513104/18/17 10:55:31  5-MIN KSTC 181655Z 23019G32KT 10SM OVC021 12/09 A2969 1240 83 1200 230/19G32 RMK AO2 PK WND 22026/1654 T01220094
14926KSTC STC20170418110013104/18/17 11:00:31  5-MIN KSTC 181700Z 23016G31KT 10SM OVC019 12/09 A2969 1240 86 1200 230/16G31 RMK AO2 PK WND 22026/1654 T01170094
14926KSTC STC20170418110513104/18/17 11:05:31  5-MIN KSTC 181705Z 22023G31KT 10SM OVC019 12/09 A2969 1240 86 1200 220/23G31 RMK AO2 PK WND 22031/1704 T01170094
14926KSTC STC20170418111013104/18/17 11:10:31  5-MIN KSTC 181710Z 23020G31KT 10SM OVC017 12/09 A2969 1240 86 1200 230/20G31 RMK AO2 PK WND 22031/1704 T01170094
14926KSTC STC20170418111513104/18/17 11:15:31  5-MIN KSTC 181715Z 23017G24KT 10SM OVC017 12/09 A2969 1240 86 1200 230/17G24 RMK AO2 PK WND 22031/1704 T01170094
14926KSTC STC20170419091010204/19/17 09:10:31  5-MIN KSTC 191510Z 07008KT 10SM CLR 08/02 A3009 870 65 200 VRB/06 RMK AO2 T00780017
14926KSTC STC20170419092010204/19/17 09:20:31  5-MIN KSTC 191520Z 06008KT 10SM CLR 08/02 A3009 870 65 300 050/08 RMK AO2 T00830022
14926KSTC STC20170419093010204/19/17 09:30:31  5-MIN KSTC 191530Z 07011G17KT 10SM CLR 08/02 A3009 870 300 040/10 RMK AO2 T00830017
14926KSTC STC20170419100010204/19/17 10:00:31  5-MIN KSTC 191600Z 03007KT 10SM CLR 08/02 A3010 860 65 300 050/07 RMK AO2 T00830022
14926KSTC STC20170419101013004/19/17 10:10:31  5-MIN KSTC 191610Z 05005KT 10SM CLR 08/02 A3011 850 65 300 050/05 RMK AO2 T00830022300 040/07 RMK AO2 T00830022
14926KSTC STC20170419102010204/19/17 10:20:31  5-MIN KSTC 191620Z 09008KT 10SM CLR 08/02 A3012 840 65 300 090/08 RMK AO2 T00830022
14926KSTC STC20170419103010204/19/17 10:30:31  5-MIN KSTC 191630Z 07006KT 10SM CLR 08/02 A3012 840 65 300 070/06 RMK AO2 T00830022
14926KSTC STC20170419104013704/19/17 10:40:31  5-MIN KSTC 191640Z VRB04KT 10SM CLR 09/02 A3014 820 63 300 VRB/04 RMK AO2 PRESRR T00890022300 080/06 RMK AO2 T00890028
14926KSTC STC20170419105010904/19/17 10:50:31  5-MIN KSTC 191650Z VRB05KT 10SM CLR 09/03 A3014 820 65 300 VRB/05 RMK AO2 SLP222 T00890028
14926KSTC STC20170419110010204/19/17 11:00:31  5-MIN KSTC 191700Z 10006KT 10SM CLR 09/03 A3013 830 65 400 100/06 RMK AO2 T00940033
14926KSTC STC20170419111010204/19/17 11:10:31  5-MIN KSTC 191710Z VRB04KT 10SM CLR 09/04 A3012 840 68 400 VRB/04 RMK AO2 T00940039
14926KSTC STC20170419112012204/19/17 11:20:31  5-MIN KSTC 191720Z 09007KT 10SM CLR 09/03 A3011 850 65 400 090/07 RMK AO2 T0094003306 RMK AO2 T00940033
14926KSTC STC20170419113010904/19/17 11:30:31  5-MIN KSTC 191730Z VRB06KT 10SM CLR 09/04 A3010 860 68 400 VRB/06 RMK AO2 PRESFR T00940039
14926KSTC STC20170419114010204/19/17 11:40:31  5-MIN KSTC 191740Z 06010KT 10SM CLR 10/04 A3009 870 65 500 060/10 RMK AO2 T01000039
14926KSTC STC20170419122010204/19/17 12:20:31  5-MIN KSTC 191820Z 06010KT 10SM CLR 09/04 A3006 900 68 500 060/10 RMK AO2 T00940039
14926KSTC STC20170419123010804/19/17 12:30:31  5-MIN KSTC 191830Z 06011G17KT 10SM CLR 09/04 A3005 910 68 500 060/11G17 RMK AO2 T00940039
14926KSTC STC20170419124014304/19/17 12:40:31  5-MIN KSTC 191840Z 06010KT 10SM CLR 09/04 A3005 910 71 500 060/10 RMK AO2 T0094004471 500 080/10G16 RMK AO2 SLP190 T00940044
14926KSTC STC20170419130018404/19/17 13:00:31  5-MIN KSTC 191900Z 07013G16KT 10SM CLR 09/04 A3005 910 71 400 070/13G16 RMK AO2 T00890039910 71 400 060/14G20 RMK AO2 T00890039910 71 400 060/08G20 RMK AO2 T00890039
14926KSTC STC20170419133010804/19/17 13:30:31  5-MIN KSTC 191930Z 07011G17KT 10SM CLR 09/04 A3005 910 71 400 070/11G17 RMK AO2 T00890039
14926KSTC STC20170419153519204/19/17 15:35:31  5-MIN KSTC 192135Z 05009G17KT 10SM SCT026 SCT070 OVC090 08/04 A3000 950 73 400 050/09G17 RMK AO2 T00830039 08/04 A3001 950 76 300 070/09 RMK AO2 RAB44 SLP176 P0000 T00780039
14926KSTC STC20170419160018304/19/17 16:00:31  5-MIN KSTC 192200Z 05011G16KT 6SM RA BKN050 OVC070 07/0407/04 A3000 950 82 300 050/09G16 RMK AO2 LTG DSNT S P0002 T00720044970 86 300 040/11 RMK AO2 P0003 T00720050
14926KSTC STC20170419162515704/19/17 16:25:31  5-MIN KSTC 192225Z 04012KT 4SM RA BR OVC055 07/05 A2998 970 89 200 040/12 RMK AO2 P0007 T00670050970 89 200 050/10 RMK AO2 P0009 T00670050
14926KSTC STC20170419163512904/19/17 16:35:31  5-MIN KSTC 192235Z 04007G16KT 4SM RA BR OVC060 07/05 A3000 950 89 200 050/07G16 RMK AO2 PRESRR P0014 T00670050
14926KSTC STC20170419164511804/19/17 16:45:31  5-MIN KSTC 192245Z 07007KT 7SM -RA OVC060 07/05 A3001  89 200 090/05 RMK AO2 SLP178 P0017 T00670050
14926KSTC STC20170419170012304/19/17 17:00:31  5-MIN KSTC 192300Z 09004KT 6SM RA BR OVC055 07/05 A3003 930 89 200 090/04 RMK AO2 PRESRR P0002 T00670050
14926KSTC STC20170419171013004/19/17 17:10:31  5-MIN KSTC 192310Z 09003KT 3SM +RA BR FEW023 FEW028  A3005 910 96 100 000/00 RMK AO2 LTG DSNT S P0010 T00610056
14926KSTC STC20170419172507004/19/17 17:25:31  5-MIN KSTC 192325Z 05004KT 4SM RA BR BKN024 BKN044 
14926KSTC STC20170419175012404/19/17 17:50:31  5-MIN KSTC 192350Z 04005KT 4SM -RA BR BKN024 BKN032 06/06 A3004 920 96 100 040/06 RMK AO2 P0000 T00610056
14926KSTC STC20170419183012904/19/17 18:30:31  5-MIN KSTC 200030Z 04008KT 10SM -RA SCT047 BKN055 OVC070 06/06 A3002 940 96 100 040/08 RMK AO2 P0003 T00610056
14926KSTC STC20170419184012904/19/17 18:40:31  5-MIN KSTC 200040Z 04007KT 10SM -RA BKN047 BKN060 OVC070 06/06 A3002 940 96 100 030/05 RMK AO2 P0003 T00610056
14926KSTC STC20170419185007204/19/17 18:50:31  5-MIN KSTC 200050Z 04008KT 10SM FEW009 BKN047 OVC070 
14926KSTC STC20170419185511204/19/17 18:55:31  5-MIN KSTC 200055Z 04009KT 10SM FEW009 OVC047 06/05 A3002 930 93 100 040/09 RMK AO2 T00610050
14926KSTC STC20170419190511904/19/17 19:05:31  5-MIN KSTC 200105Z 04009KT 10SM FEW010 SCT036 OVC048 06/05 A3002 940 96 100 040/09 RMK AO2 T00560050
14926KSTC STC20170419191516604/19/17 19:15:31  5-MIN KSTC 200115Z 04010KT 10SM FEW010 SCT037 OVC047 06/05 A3001 940 96 100 040/10 RMK AO2 T0056005006/05 A3001 940 96 100 050/10 RMK AO2 T00560050
14926KSTC STC20170419192517404/19/17 19:25:31  5-MIN KSTC 200125Z 04009G16KT 9SM FEW010 SCT034 OVC047 06/04 A3002 940 92 100 040/09G16 RMK AO2 Tp0'6004406/05 A3001 940 96 100 040/12G16 RMK AO2 T00560050
14926KSTC STC20170419193521304/19/17 19:35:31  5-MIN KSTC 200135Z 04012KT 10SM -RA SCT010 BKN029 OVC047OVC047 06/04 A3000 950 92 100 050/09G18 RMK AO2 RAB31 P0000 T00560044OVC047 06/04 A3001 950 92 100 040/09G18 RMK AO2 RAB31 P0000 T00560044
14926KSTC STC20170419194014104/19/17 19:40:31  5-MIN KSTC 200140Z 05009G18KT 10SM -RA SCT010 BKN029 OVC047 06/04 A3000 950 92 100 050/09G18 RMK AO2 RAB31 P0000 T00560044
14926KSTC STC20170419194514104/19/17 19:45:31  5-MIN KSTC 200145Z 04009G18KT 10SM -RA SCT010 BKN029 OVC047 06/04 A3001 950 92 100 040/09G18 RMK AO2 RAB31 P0000 T00560044
14926KSTC STC20170419195011704/19/17 19:50:31  5-MIN KSTC 200150Z 04009KT 8SM -RA BKN010 OVC027 06/05 A3002 940 96 100 040/09 RMK AO2 RAB31 P0000
14926KSTC STC20170419195013304/19/17 19:50:31  5-MIN KSTC 200150Z 04009KT 8SM -RA BKN010 OVC027 06/05 A3001 940 96 100 040/08 RMK AO2 CIG 008V014 P0000 T00560050
14926KSTC STC20170419195513304/19/17 19:55:31  5-MIN KSTC 200155Z 04008KT 7SM -RA BKN010 OVC027 06/05 A3001 940 96 100 040/08 RMK AO2 CIG 008V014 P0000 T00560050
14926KSTC STC20170419200013604/19/17 20:00:31  5-MIN KSTC 200200Z 04009KT 6SM -RA BR BKN010 OVC027 06/05 A3001 940 96 100 040/09 RMK AO2 CIG 008V014 P0000 T00560050
14926KSTC STC20170419200513804/19/17 20:05:31  5-MIN KSTC 200205Z 04009KT 5SM BR BKN010 OVC025 06/05 A3000 950 96 100 040/09 RMK AO2 RAE02 CIG 007V014 P0001 T00560050
14926KSTC STC20170419201013804/19/17 20:10:31  5-MIN KSTC 200210Z 04011KT 5SM BR BKN010 OVC025 06/05 A3000 950 96 100 040/11 RMK AO2 RAE02 CIG 007V014 P0001 T00560050
14926KSTC STC20170419201513104/19/17 20:15:31  5-MIN KSTC 200215Z 04009KT 5SM BR OVC010 06/05 A3000 950 96 100 040/09 RMK AO2 RAE02 CIG 007V014 P0001 T00560050
14926KSTC STC20170419202013104/19/17 20:20:31  5-MIN KSTC 200220Z 04011KT 5SM BR OVC010 06/05 A3000 950 96 100 040/11 RMK AO2 RAE02 CIG 007V014 P0001 T00560050
14926KSTC STC20170419202512904/19/17 20:25:31  5-MIN KSTC 200225Z 04010KT 5SM BR OVC010 05/04 A3000 950 96 0 040/10 RMK AO2 RAE02 CIG 007V013 P0001 T00500044
14926KSTC STC20170419203013604/19/17 20:30:31  5-MIN KSTC 200230Z 04008KT 5SM BR BKN008 OVC012 05/04 A3000 950 96 0 040/08 RMK AO2 RAE02 CIG 006V011 P0001 T00500044
14926KSTC STC20170419203513704/19/17 20:35:31  5-MIN KSTC 200235Z 04007KT 5SM BR BKN008 OVC012 05/05 A3000 950 100 0 040/07 RMK AO2 RAE02 CIG 006V010 P0001 T00500050
14926KSTC STC20170419204013504/19/17 20:40:31  5-MIN KSTC 200240Z 03010G15KT 6SM BR OVC008 05/04 A3000 950 96 0 030/10G15 RMK AO2 RAE02 CIG 006V010 P0001 T00500044
14926KSTC STC20170419204513604/19/17 20:45:31  5-MIN KSTC 200245Z 04010KT 6SM BR BKN008 OVC012 05/04 A2999 960 96 0 040/10 RMK AO2 RAE02 CIG 006V010 P0001 T00500044
14926KSTC STC20170419205015204/19/17 20:50:31  5-MIN KSTC 200250Z 03009KT 8SM BKN008 OVC012 05/04 A2999 960 96 0 030/09 RMK AO2 RAE02 CIG 006V010 SLP169 P0001 60004 T00500044 53011
14926KSTC STC20170419205511404/19/17 20:55:31  5-MIN KSTC 200255Z 04011KT 9SM OVC008 05/04 A2998 970 96 0 040/11 RMK AO2 CIG 006V013 T00500044
14926KSTC STC20170419210011504/19/17 21:00:31  5-MIN KSTC 200300Z 04009KT 10SM OVC008 05/04 A2998 970 96 0 040/09 RMK AO2 CIG 006V013 T00500044
14926KSTC STC20170419210510904/19/17 21:05:31  5-MIN KSTC 200305Z 04010G17KT 10SM OVC008 04/04 A2998 970 96 0 040/10G17 RMK AO2 T00440039
14926KSTC STC20170419211010804/19/17 21:10:31  5-MIN KSTC 200310Z 04012G17KT 9SM OVC008 04/04 A2998 980 96 0 040/12G17 RMK AO2 T00440039
14926KSTC STC20170419211510804/19/17 21:15:31  5-MIN KSTC 200315Z 04011G17KT 8SM OVC009 04/04 A2997 980 96 0 040/11G17 RMK AO2 T00440039
14926KSTC STC20170419212010804/19/17 21:20:31  5-MIN KSTC 200320Z 04011G19KT 8SM OVC009 04/04 A2997 980 96 0 040/11G19 RMK AO2 T00440039
14926KSTC STC20170419212511504/19/17 21:25:31  5-MIN KSTC 200325Z 05011G19KT 8SM OVC009 04/04 A2996 990 96 0 040/11G19 RMK AO2 PRESFR T00440039
14926KSTC STC20170419213011604/19/17 21:30:31  5-MIN KSTC 200330Z 04013G19KT 9SM OVC009 04/04 A2995 1000 96 0 040/13G19 RMK AO2 PRESFR T00440039
14926KSTC STC20170419213510904/19/17 21:35:31  5-MIN KSTC 200335Z 04011G19KT 10SM OVC009 04/04 A2996 990 96 0 040/11G19 RMK AO2 T00440039
14926KSTC STC20170419214011004/19/17 21:40:31  5-MIN KSTC 200340Z 04010G17KT 10SM OVC009 04/04 A2995 1000 96 0 030/10G17 RMK AO2 T00440039
14926KSTC STC20170419214510404/19/17 21:45:31  5-MIN KSTC 200345Z 04012KT 10SM OVC009 04/04 A2995 1000 96 0 040/12 RMK AO2 T00440039
14926KSTC STC20170419215011504/19/17 21:50:31  5-MIN KSTC 200350Z 04009G16KT 9SM OVC009 04/04 A2996 990 96 0 040/09G16 RMK AO2 SLP161 T00440039
14926KSTC STC20170419215512504/19/17 21:55:31  5-MIN KSTC 200355Z AUTO 04010G16KT 9SM OVC009 04/04 A2996 990 96 0 040/10G16 RMK AO2 CIG 007V011 T00440039
14926KSTC STC20170419220010804/19/17 22:00:31  5-MIN KSTC 200400Z AUTO 04008KT 10SM OVC009 04/04 A2995 990 96 0 040/08 RMK AO2 T00440039
14926KSTC STC20170419220512204/19/17 22:05:31  5-MIN KSTC 200405Z AUTO 04011KT 10SM OVC009 04/04 A2995 1000 100 0 040/11 RMK AO2 CIG 007V011 T00390039
14926KSTC STC20170419221012704/19/17 22:10:31  5-MIN KSTC 200410Z AUTO 04011G18KT 10SM OVC009 04/03 A2995 1000 96 0 040/11G18 RMK AO2 CIG 007V011 T00390033
14926KSTC STC20170419221514304/19/17 22:15:31  5-MIN KSTC 200415Z AUTO 04011G18KT 10SM -RA OVC008 04/03 A2995 1000 96 0 040/11G18 RMK AO2 RAB12 CIG 007V011 P0000 T00390033
14926KSTC STC20170419222013104/19/17 22:20:31  5-MIN KSTC 200420Z AUTO 03009G17KT 10SM -RA OVC008 04/03 A2995 1000 96 0 030/09G17 RMK AO2 RAB12 P0000 T00390033
14926KSTC STC20170419222512404/19/17 22:25:31  5-MIN KSTC 200425Z AUTO 04011KT 9SM -RA OVC008 04/03 A2995 1000 96 0 040/11 RMK AO2 RAB12 P0000 T00390033
14926KSTC STC20170419223012404/19/17 22:30:31  5-MIN KSTC 200430Z AUTO 04011KT 8SM -RA OVC008 04/03 A2995 1000 96 0 040/11 RMK AO2 RAB12 P0000 T00390033
14926KSTC STC20170419223512404/19/17 22:35:31  5-MIN KSTC 200435Z AUTO 04013KT 8SM -RA OVC008 04/03 A2995 1000 96 0 040/13 RMK AO2 RAB12 P0000 T00390033
14926KSTC STC20170419224012904/19/17 22:40:31  5-MIN KSTC 200440Z AUTO 03009G19KT 9SM -RA OVC008 04/03 A2996 990 96 0 030/09G19 RMK AO2 RAB12 P0000 T00390033
14926KSTC STC20170419224513004/19/17 22:45:31  5-MIN KSTC 200445Z AUTO 03008G19KT 10SM -RA OVC008 04/03 A2996 990 96 0 020/08G19 RMK AO2 RAB12 P0000 T00390033
14926KSTC STC20170419225013704/19/17 22:50:31  5-MIN KSTC 200450Z AUTO 02007G16KT 10SM -RA OVC008 04/03 A2996 990 96 0 020/07G16 RMK AO2 RAB12 SLP161 P0000 T00390033
14926KSTC STC20170419225511804/19/17 22:55:31  5-MIN KSTC 200455Z AUTO 02009KT 10SM -RA OVC008 04/03 A2997 980 96 0 020/09 RMK AO2 P0000 T00390033
14926KSTC STC20170419230011804/19/17 23:00:31  5-MIN KSTC 200500Z AUTO 02010KT 10SM -RA OVC008 04/03 A2996 990 96 0 020/10 RMK AO2 P0001 T00390033
14926KSTC STC20170419230511704/19/17 23:05:31  5-MIN KSTC 200505Z AUTO 02010KT 7SM -RA OVC008 04/03 A2996 990 96 0 020/10 RMK AO2 P0001 T00390033
14926KSTC STC20170419231012004/19/17 23:10:31  5-MIN KSTC 200510Z AUTO 04012KT 5SM RA BR OVC008 04/03 A2995 1000 96 0 040/12 RMK AO2 P0003 T00390033
14926KSTC STC20170419231512004/19/17 23:15:31  5-MIN KSTC 200515Z AUTO 04011KT 5SM RA BR OVC008 04/03 A2994 1000 96 0 040/11 RMK AO2 P0004 T00390033
14926KSTC STC20170419232012804/19/17 23:20:31  5-MIN KSTC 200520Z AUTO 04011KT 6SM -RA BR BKN008 OVC033 04/03 A2995 1000 96 0 040/11 RMK AO2 P0004 T00390033
14926KSTC STC20170419232513104/19/17 23:25:31  5-MIN KSTC 200525Z AUTO 04008G17KT 8SM -RA BKN008 OVC031 04/03 A2995 1000 96 0 040/08G17 RMK AO2 P0004 T00390033
14926KSTC STC20170419233012504/19/17 23:30:31  5-MIN KSTC 200530Z AUTO 04010KT 9SM -RA BKN008 OVC031 04/03 A2994 1010 96 0 040/10 RMK AO2 P0005 T00390033
14926KSTC STC20170419233512604/19/17 23:35:31  5-MIN KSTC 200535Z AUTO 04013KT 10SM -RA BKN009 OVC031 04/03 A2993 1020 96 0 040/13 RMK AO2 P0005 T00390033
14926KSTC STC20170419234013004/19/17 23:40:31  5-MIN KSTC 200540Z AUTO 04011KT 10SM -RA BKN009 OVC031 03/03 A2993 1020 100 -100 040/11 RMK AO2 P0005 T00330033
14926KSTC STC20170419234514804/19/17 23:45:31  5-MIN KSTC 200545Z AUTO 03010G18KT 10SM -RA BKN009 OVC031 03/03 A2994 1010 100 -100 030/10G18 RMK AO2 CIG 006V013 P0005 T00330033
14926KSTC STC20170419235019704/19/17 23:50:31  5-MIN KSTC 200550Z AUTO 04010G18KT 6SM RA BR BKN009 BKN025 OVC030 03/03 A2994 1010 100 -100 030/10G18 RMK AO2 CIG 006V013 SLP152 P0006 60010 T00330033 10061 20033 401000028 58019
14926KSTC STC20170419235513004/19/17 23:55:31  5-MIN KSTC 200555Z AUTO 04012KT 4SM RA BR BKN009 OVC027 03/03 A2993 1010 96 -100 040/12 RMK AO2 P0001 T00330028
14926KSTC STC20170420000013104/20/17 00:00:31  5-MIN KSTC 200600Z AUTO 04011KT 5SM -RA BR BKN008 OVC027 03/03 A2994 1010 96 -100 030/11 RMK AO2 P0001 T00330028
14926KSTC STC20170420000513204/20/17 00:05:31  5-MIN KSTC 200605Z AUTO 04008KT 6SM -RA BR BKN008 OVC027 03/03 A2994 1010 100 -100 040/08 RMK AO2 P0001 T00330033
14926KSTC STC20170420001013204/20/17 00:10:31  5-MIN KSTC 200610Z AUTO 03010KT 6SM -RA BR BKN008 OVC025 03/03 A2993 1010 100 -100 030/10 RMK AO2 P0002 T00330033
14926KSTC STC20170420001513504/20/17 00:15:31  5-MIN KSTC 200615Z AUTO 03007G15KT 7SM -RA BKN008 OVC025 03/03 A2994 1010 100 -100 030/07G15 RMK AO2 P0002 T00330033
14926KSTC STC20170420002013504/20/17 00:20:31  5-MIN KSTC 200620Z AUTO 02006G15KT 7SM -RA BKN008 OVC016 03/03 A2995 1000 100 -100 020/06G15 RMK AO2 P0002 T00330033
14926KSTC STC20170420002512804/20/17 00:25:31  5-MIN KSTC 200625Z AUTO 02007G15KT 7SM -RA OVC009 03/03 A2994 1000 100 -100 020/07G15 RMK AO2 P0002 T00330033
14926KSTC STC20170420003012504/20/17 00:30:31  5-MIN KSTC 200630Z AUTO 03007KT 6SM -RA BR OVC009 03/03 A2993 1010 100 -100 030/07 RMK AO2 P0002 T00330033
14926KSTC STC20170420003513104/20/17 00:35:31  5-MIN KSTC 200635Z AUTO 03010G16KT 4SM -RA BR OVC009 03/03 A2992 1020 100 -100 030/10G16 RMK AO2 P0002 T00330033
14926KSTC STC20170420004013004/20/17 00:40:31  5-MIN KSTC 200640Z AUTO 02008G16KT 3SM -RA BR OVC009 03/03 A2992 1020 96 -100 020/08G16 RMK AO2 P0002 T00330028
14926KSTC STC20170420004512904/20/17 00:45:31  5-MIN KSTC 200645Z AUTO 02009KT 2 1/2SM -RA BR OVC009 03/03 A2992 1020 100 -100 020/09 RMK AO2 P0003 T00330033
14926KSTC STC20170420005013304/20/17 00:50:31  5-MIN KSTC 200650Z AUTO 02008KT 2 1/2SM -RA BR OVC009 03/03 A2992 1030 100 0 020/08 RMK AO2 SLP147 P0003 T00330033
14926KSTC STC20170420005512604/20/17 00:55:31  5-MIN KSTC 200655Z AUTO 02009KT 2 1/2SM -RA BR OVC008 03/03 A2992 1030 100 0 020/09 RMK AO2 P0001 T00330033
14926KSTC STC20170420010012604/20/17 01:00:31  5-MIN KSTC 200700Z AUTO 02009KT 2 1/2SM -RA BR OVC008 03/03 A2992 1030 100 0 020/09 RMK AO2 P0001 T00330033
14926KSTC STC20170420010512604/20/17 01:05:31  5-MIN KSTC 200705Z AUTO 02009KT 2 1/2SM -RA BR OVC008 03/03 A2992 1030 100 0 020/09 RMK AO2 P0001 T00330033
14926KSTC STC20170420011012604/20/17 01:10:31  5-MIN KSTC 200710Z AUTO 02008KT 2 1/2SM -RA BR OVC009 03/03 A2992 1030 100 0 010/08 RMK AO2 P0001 T00330033
14926KSTC STC20170420011512604/20/17 01:15:31  5-MIN KSTC 200715Z AUTO 02008KT 2 1/2SM -RA BR OVC009 03/03 A2992 1030 100 0 010/08 RMK AO2 P0002 T00330033
14926KSTC STC20170420012013304/20/17 01:20:31  5-MIN KSTC 200720Z AUTO 01008KT 2 1/2SM -RA BR BKN009 OVC022 03/03 A2992 1030 100 0 010/08 RMK AO2 P0002 T00330033
14926KSTC STC20170420012513304/20/17 01:25:31  5-MIN KSTC 200725Z AUTO 01007KT 2 1/2SM -RA BR BKN008 OVC012 03/03 A2992 1030 100 0 010/07 RMK AO2 P0002 T00330033
14926KSTC STC20170420013013604/20/17 01:30:31  5-MIN KSTC 200730Z AUTO 01007KT 2 1/2SM -RA BR BKN008 OVC012 03/03 A2992 1030 100 -100 010/07 RMK AO2 P0003 T00330033
14926KSTC STC20170420013513604/20/17 01:35:31  5-MIN KSTC 200735Z AUTO 36009KT 2 1/2SM -RA BR SCT007 OVC012 03/03 A2992 1020 100 -100 360/09 RMK AO2 P0003 T00330033
14926KSTC STC20170420014013204/20/17 01:40:31  5-MIN KSTC 200740Z AUTO 35008KT 3SM -RA BR BKN007 OVC011 03/03 A2992 1020 100 -100 350/08 RMK AO2 P0003 T00330033
14926KSTC STC20170420014513204/20/17 01:45:31  5-MIN KSTC 200745Z AUTO 36008KT 3SM -RA BR BKN007 OVC011 03/03 A2992 1030 100 -100 360/08 RMK AO2 P0004 T00330033
14926KSTC STC20170420015014004/20/17 01:50:31  5-MIN KSTC 200750Z AUTO 36008KT 3SM -SN BR OVC009 03/03 A2992 1030 100 0 360/08 RMK AO2 RAE50SNB50 SLP148 P0004 T00330033
14926KSTC STC20170420015513704/20/17 01:55:31  5-MIN KSTC 200755Z AUTO 36007KT 2 1/2SM -RA BR OVC009 03/03 A2992 1030 100 0 360/07 RMK AO2 RAB55SNE55 P0000 T00330033
14926KSTC STC20170420020014104/20/17 02:00:31  5-MIN KSTC 200800Z AUTO 36007KT 2 1/2SM -RA BR OVC009 03/03 A2992 1030 100 0 360/07 RMK AO2 RAB0755SNE0755 P0000 T00330033
14926KSTC STC20170420020514104/20/17 02:05:31  5-MIN KSTC 200805Z AUTO 36007KT 2 1/2SM -RA BR OVC009 03/03 A2992 1030 100 0 360/07 RMK AO2 RAB0755SNE0755 P0001 T00330033
14926KSTC STC20170420021014404/20/17 02:10:31  5-MIN KSTC 200810Z AUTO 01008KT 2 1/2SM -SN BR SCT006 OVC011 03/03 A2991 1030 100 0 010/08 RMK AO2 RAB0755E10 P0001 T00330033
14926KSTC STC20170420021513704/20/17 02:15:31  5-MIN KSTC 200815Z AUTO 01007KT 2 1/2SM -SN BR OVC009 03/03 A2991 1040 100 0 010/07 RMK AO2 RAB0755E10 P0002 T00330033
14926KSTC STC20170420022014404/20/17 02:20:31  5-MIN KSTC 200820Z AUTO 01007KT 2 1/2SM -SN BR SCT006 OVC011 03/03 A2991 1040 100 0 010/07 RMK AO2 RAB0755E10 P0002 T00330033
14926KSTC STC20170420022514004/20/17 02:25:31  5-MIN KSTC 200825Z AUTO 01008KT 3SM -SN BR SCT006 OVC011 03/03 A2991 1040 100 0 010/08 RMK AO2 RAB0755E10 P0002 T00330033
14926KSTC STC20170420023014004/20/17 02:30:31  5-MIN KSTC 200830Z AUTO 01007KT 3SM -SN BR SCT006 OVC011 03/03 A2991 1040 100 0 010/07 RMK AO2 RAB0755E10 P0002 T00330033
14926KSTC STC20170420023514804/20/17 02:35:31  5-MIN KSTC 200835Z AUTO 01006KT 4SM -RA BR BKN006 OVC011 03/03 A2991 1040 100 0 010/06 RMK AO2 RAB0755E10B31SNE31 P0003 T00330033
14926KSTC STC20170420024014804/20/17 02:40:31  5-MIN KSTC 200840Z AUTO 02006KT 5SM -RA BR BKN007 OVC011 03/03 A2991 1040 100 0 010/06 RMK AO2 RAB0755E10B31SNE31 P0003 T00330033
14926KSTC STC20170420024514804/20/17 02:45:31  5-MIN KSTC 200845Z AUTO 01007KT 5SM -RA BR BKN007 OVC011 03/03 A2991 1040 100 0 010/07 RMK AO2 RAB0755E10B31SNE31 P0003 T00330033
14926KSTC STC20170420025017404/20/17 02:50:31  5-MIN KSTC 200850Z AUTO 02005KT 5SM -RA BR BKN007 BKN011 OVC027 03/03 A2991 1040 100 0 020/05 RMK AO2 RAB0755E10B31SNE31 SLP143 P0003 60010 T00330033 58016
14926KSTC STC20170420025513604/20/17 02:55:31  5-MIN KSTC 200855Z AUTO 02006KT 5SM -RA BR BKN007 BKN012 OVC027 03/03 A2991 1040 100 0 020/06 RMK AO2 P0000 T00330033
14926KSTC STC20170420030013604/20/17 03:00:31  5-MIN KSTC 200900Z AUTO 01006KT 4SM -RA BR BKN007 BKN012 OVC027 03/03 A2990 1040 100 0 010/06 RMK AO2 P0000 T00330033
14926KSTC STC20170420030512904/20/17 03:05:31  5-MIN KSTC 200905Z AUTO 02006KT 4SM -RA BR BKN007 OVC012 03/03 A2990 1040 100 0 020/06 RMK AO2 P0000 T00330033
14926KSTC STC20170420031012904/20/17 03:10:31  5-MIN KSTC 200910Z AUTO 01005KT 4SM -RA BR BKN007 OVC012 03/03 A2991 1040 100 0 010/05 RMK AO2 P0001 T00330033
14926KSTC STC20170420031512904/20/17 03:15:31  5-MIN KSTC 200915Z AUTO 02006KT 4SM -RA BR BKN007 OVC011 03/03 A2990 1040 100 0 010/06 RMK AO2 P0001 T00330033
14926KSTC STC20170420032012204/20/17 03:20:31  5-MIN KSTC 200920Z AUTO 02007KT 4SM -RA BR OVC007 03/03 A2990 1040 100 0 020/07 RMK AO2 P0001 T00330033
14926KSTC STC20170420032512204/20/17 03:25:31  5-MIN KSTC 200925Z AUTO 02005KT 4SM -RA BR OVC008 03/03 A2990 1050 100 0 020/05 RMK AO2 P0001 T00330033
14926KSTC STC20170420033012204/20/17 03:30:31  5-MIN KSTC 200930Z AUTO 03005KT 4SM -RA BR OVC008 03/03 A2989 1050 100 0 030/05 RMK AO2 P0001 T00330033
14926KSTC STC20170420033512404/20/17 03:35:31  5-MIN KSTC 200935Z AUTO 03007KT 5SM BR OVC008 03/03 A2989 1060 100 0 030/07 RMK AO2 RAE35 P0001 T00330033
14926KSTC STC20170420034012104/20/17 03:40:31  5-MIN KSTC 200940Z AUTO 03007KT 5SM -RA BR OVC008 03/03 A2989 1060 96 0 020/07 RMK AO2 P0001 T00330028
14926KSTC STC20170420034512104/20/17 03:45:31  5-MIN KSTC 200945Z AUTO 04007KT 5SM -RA BR OVC008 03/03 A2989 1060 96 0 040/07 RMK AO2 P0001 T00330028
14926KSTC STC20170420035012804/20/17 03:50:31  5-MIN KSTC 200950Z AUTO 03007KT 5SM -RA BR OVC008 03/03 A2988 1060 96 0 030/07 RMK AO2 SLP134 P0001 T00330028
14926KSTC STC20170420035512104/20/17 03:55:31  5-MIN KSTC 200955Z AUTO 04006KT 5SM -RA BR OVC008 03/03 A2988 1060 96 0 030/06 RMK AO2 P0000 T00330028
14926KSTC STC20170420040012104/20/17 04:00:31  5-MIN KSTC 201000Z AUTO 03006KT 5SM -RA BR OVC008 03/03 A2988 1060 96 0 020/06 RMK AO2 P0000 T00330028
14926KSTC STC20170420040512104/20/17 04:05:31  5-MIN KSTC 201005Z AUTO 02008KT 6SM -RA BR OVC008 03/03 A2988 1070 96 0 020/08 RMK AO2 P0000 T00330028
14926KSTC STC20170420041012004/20/17 04:10:31  5-MIN KSTC 201010Z AUTO 02007KT 7SM OVC008 03/03 A2988 1070 96 0 020/07 RMK AO2 RAE10 P0001 T00330028
14926KSTC STC20170420041512604/20/17 04:15:31  5-MIN KSTC 201015Z AUTO 03008G15KT 8SM OVC008 03/03 A2988 1070 96 0 030/08G15 RMK AO2 RAE10 P0001 T00330028
14926KSTC STC20170420042012604/20/17 04:20:31  5-MIN KSTC 201020Z AUTO 02005G15KT 9SM OVC008 03/03 A2988 1060 96 0 020/05G15 RMK AO2 RAE10 P0001 T00330028
14926KSTC STC20170420042512204/20/17 04:25:31  5-MIN KSTC 201025Z AUTO 02006KT 10SM OVC008 03/03 A2988 1060 100 0 020/06 RMK AO2 RAE10 P0001 T00330033
14926KSTC STC20170420043012104/20/17 04:30:31  5-MIN KSTC 201030Z AUTO 02007KT 10SM OVC008 03/03 A2989 1060 96 0 020/07 RMK AO2 RAE10 P0001 T00330028
14926KSTC STC20170420043512104/20/17 04:35:31  5-MIN KSTC 201035Z AUTO 02006KT 10SM OVC008 03/03 A2988 1060 96 0 020/06 RMK AO2 RAE10 P0001 T00330028
14926KSTC STC20170420044012104/20/17 04:40:31  5-MIN KSTC 201040Z AUTO 02008KT 10SM OVC008 03/03 A2988 1060 96 0 020/08 RMK AO2 RAE10 P0001 T00330028
14926KSTC STC20170420044512104/20/17 04:45:31  5-MIN KSTC 201045Z AUTO 02007KT 10SM OVC008 03/03 A2989 1060 96 0 020/07 RMK AO2 RAE10 P0001 T00330028
14926KSTC STC20170420045012804/20/17 04:50:31  5-MIN KSTC 201050Z AUTO 02005KT 10SM OVC008 03/03 A2989 1050 96 0 020/05 RMK AO2 RAE10 SLP139 P0001 T00330028
14926KSTC STC20170420045511004/20/17 04:55:31  5-MIN KSTC 201055Z AUTO 01005KT 10SM OVC008 03/03 A2990 1050 100 0 010/05 RMK AO2 T00330033
14926KSTC STC20170420050012704/20/17 05:00:31  5-MIN KSTC 201100Z AUTO 36005KT 8SM -RA OVC008 03/03 A2990 1040 100 0 360/05 RMK AO2 RAB1057 P0000 T00330033
14926KSTC STC20170420050512604/20/17 05:05:31  5-MIN KSTC 201105Z AUTO 35004KT 7SM -RA OVC008 03/03 A2990 1040 96 0 350/04 RMK AO2 RAB1057 P0000 T00330028
14926KSTC STC20170420051013004/20/17 05:10:31  5-MIN KSTC 201110Z AUTO 02006KT 6SM -RA BR OVC008 03/03 A2990 1050 100 0 020/06 RMK AO2 RAB1057 P0000 T00330033
14926KSTC STC20170420051512904/20/17 05:15:31  5-MIN KSTC 201115Z AUTO 01004KT 5SM -RA BR OVC008 03/03 A2990 1050 96 0 010/04 RMK AO2 RAB1057 P0000 T00330028
14926KSTC STC20170420052012904/20/17 05:20:31  5-MIN KSTC 201120Z AUTO 01005KT 4SM -RA BR OVC007 03/03 A2990 1040 96 0 010/05 RMK AO2 RAB1057 P0000 T00330028
14926KSTC STC20170420052512804/20/17 05:25:31  5-MIN KSTC 201125Z AUTO 01006KT 3SM BR OVC007 03/03 A2991 1040 96 0 010/06 RMK AO2 RAB1057E22 P0000 T00330028
14926KSTC STC20170420053012904/20/17 05:30:31  5-MIN KSTC 201130Z AUTO 36005KT 3SM -RA BR OVC007 03/03 A2991 1040 96 0 360/05 RMK AO2 RAB1057 P0000 T00330028
14926KSTC STC20170420053512904/20/17 05:35:31  5-MIN KSTC 201135Z AUTO 35006KT 3SM -RA BR OVC007 03/03 A2991 1040 96 0 350/06 RMK AO2 RAB1057 P0000 T00330028
14926KSTC STC20170420054014104/20/17 05:40:31  5-MIN KSTC 201140Z AUTO 35004KT 4SM -RA BR OVC007 03/03 A2991 1030 96 0 350/04 RMK AO2 RAB1057 CIG 005V011 P0000 T00330028
14926KSTC STC20170420054514204/20/17 05:45:31  5-MIN KSTC 201145Z AUTO 35006KT 4SM -RA BR OVC007 03/03 A2991 1030 100 0 350/06 RMK AO2 RAB1057 CIG 005V011 P0000 T00330033
14926KSTC STC20170420055017404/20/17 05:50:31  5-MIN KSTC 201150Z 35004KT 4SM -RA BR OVC007 03/03 A2991 1030 100 0 350/04 RMK AO2 RAB1057 CIG 005V011 SLP146 P0000 60012 70059 T00330033 10033 20033 58004
14926KSTC STC20170420055512304/20/17 05:55:31  5-MIN KSTC 201155Z 34005KT 2 1/2SM BR OVC007 03/03 A2991 1030 100 0 340/05 RMK AO2 CIG 005V009 T00330033
14926KSTC STC20170420060012304/20/17 06:00:31  5-MIN KSTC 201200Z 34004KT 2 1/2SM BR OVC007 03/03 A2991 1030 100 0 340/04 RMK AO2 CIG 005V009 T00330033
14926KSTC STC20170420060511104/20/17 06:05:31  5-MIN KSTC 201205Z 34004KT 2 1/2SM BR OVC007 03/03 A2992 1030 100 0 340/04 RMK AO2 T00330033
14926KSTC STC20170420061011104/20/17 06:10:31  5-MIN KSTC 201210Z 33004KT 2 1/2SM BR OVC007 03/03 A2992 1030 100 0 330/04 RMK AO2 T00330033
14926KSTC STC20170420061511804/20/17 06:15:31  5-MIN KSTC 201215Z 34004KT 2 1/2SM BR BKN007 OVC010 03/03 A2992 1030 100 0 330/04 RMK AO2 T00330033
14926KSTC STC20170420062011104/20/17 06:20:31  5-MIN KSTC 201220Z 34006KT 2 1/2SM BR OVC007 03/03 A2992 1030 100 0 340/06 RMK AO2 T00330033
14926KSTC STC20170420062511004/20/17 06:25:31  5-MIN KSTC 201225Z 34006KT 2 1/2SM BR OVC007 03/03 A2991 1030 96 0 340/06 RMK AO2 T00330028
14926KSTC STC20170420063011004/20/17 06:30:31  5-MIN KSTC 201230Z 34007KT 2 1/2SM BR OVC007 03/03 A2991 1030 96 0 340/07 RMK AO2 T00330028
14926KSTC STC20170420063511004/20/17 06:35:31  5-MIN KSTC 201235Z 35007KT 2 1/2SM BR OVC007 03/03 A2991 1030 96 0 350/07 RMK AO2 T00330028
14926KSTC STC20170420064011004/20/17 06:40:31  5-MIN KSTC 201240Z 35007KT 2 1/2SM BR OVC007 03/03 A2991 1030 96 0 350/07 RMK AO2 T00330028
14926KSTC STC20170420064512204/20/17 06:45:31  5-MIN KSTC 201245Z 34007KT 2 1/2SM BR OVC007 03/03 A2991 1030 96 0 340/07 RMK AO2 CIG 005V010 T00330028
14926KSTC STC20170420065012504/20/17 06:50:31  5-MIN KSTC 201250Z 34008KT 2SM BR OVC007 03/03 A2991 1030 96 0 340/08 RMK AO2 CIG 005V010 SLP146 T00330028
14926KSTC STC20170420065510604/20/17 06:55:31  5-MIN KSTC 201255Z 34007KT 2SM BR OVC007 03/03 A2992 1030 96 0 340/07 RMK AO2 T00330028
14926KSTC STC20170420070010604/20/17 07:00:31  5-MIN KSTC 201300Z 34007KT 2SM BR OVC007 03/03 A2992 1030 96 0 340/07 RMK AO2 T00330028
14926KSTC STC20170420070511104/20/17 07:05:31  5-MIN KSTC 201305Z 34005KT 2 1/2SM BR OVC007 03/03 A2992 1030 100 0 340/05 RMK AO2 T00330033
14926KSTC STC20170420071011004/20/17 07:10:31  5-MIN KSTC 201310Z 34006KT 2 1/2SM BR OVC007 03/03 A2992 1030 96 0 340/06 RMK AO2 T00330028
14926KSTC STC20170420071511004/20/17 07:15:31  5-MIN KSTC 201315Z 34006KT 2 1/2SM BR OVC008 03/03 A2992 1030 96 0 340/06 RMK AO2 T00330028
14926KSTC STC20170420072011104/20/17 07:20:31  5-MIN KSTC 201320Z 34006KT 2 1/2SM BR OVC008 03/03 A2992 1030 100 0 340/06 RMK AO2 T00330033
14926KSTC STC20170420072511104/20/17 07:25:31  5-MIN KSTC 201325Z 34008KT 2 1/2SM BR OVC008 03/03 A2992 1030 100 0 340/08 RMK AO2 T00330033
14926KSTC STC20170420073012904/20/17 07:30:31  5-MIN KSTC 201330Z 34009KT 2 1/2SM -RA BR OVC008 03/03 A2992 1030 96 -100 340/09 RMK AO2 RAB29 P0000 T00330028
14926KSTC STC20170420073512904/20/17 07:35:31  5-MIN KSTC 201335Z 34008KT 2 1/2SM -RA BR OVC008 03/03 A2992 1020 96 -100 340/08 RMK AO2 RAB29 P0000 T00330028
14926KSTC STC20170420074012204/20/17 07:40:31  5-MIN KSTC 201340Z 34007KT 7SM -RA OVC008 03/03 A2992 1020 96 -100 340/07 RMK AO2 RAB29 P0000 T00330028
14926KSTC STC20170420074512204/20/17 07:45:31  5-MIN KSTC 201345Z 35007KT 9SM OVC008 03/03 A2993 1020 100 -100 350/07 RMK AO2 RAB29E42 P0000 T00330033
14926KSTC STC20170420075012904/20/17 07:50:31  5-MIN KSTC 201350Z 35008KT 10SM OVC008 03/03 A2992 1020 96 -100 340/08 RMK AO2 RAB29E42 SLP150 P0000 T00330028
14926KSTC STC20170420075510404/20/17 07:55:31  5-MIN KSTC 201355Z 35007KT 10SM OVC008 04/03 A2992 1020 96 0 350/07 RMK AO2 T00390033
14926KSTC STC20170420080010404/20/17 08:00:31  5-MIN KSTC 201400Z 35009KT 10SM OVC008 04/03 A2992 1030 92 0 350/09 RMK AO2 T00390028
14926KSTC STC20170420080510404/20/17 08:05:31  5-MIN KSTC 201405Z 34007KT 10SM OVC008 04/03 A2992 1030 92 0 340/07 RMK AO2 T00390028
14926KSTC STC20170420081010404/20/17 08:10:31  5-MIN KSTC 201410Z 33010KT 10SM OVC009 04/03 A2992 1030 96 0 330/10 RMK AO2 T00390033
14926KSTC STC20170420081510404/20/17 08:15:31  5-MIN KSTC 201415Z 35011KT 10SM OVC009 04/03 A2992 1030 92 0 350/11 RMK AO2 T00390028
14926KSTC STC20170420082010404/20/17 08:20:31  5-MIN KSTC 201420Z 35010KT 10SM OVC011 04/03 A2991 1030 92 0 350/10 RMK AO2 T00390028
14926KSTC STC20170420082510404/20/17 08:25:31  5-MIN KSTC 201425Z 34011KT 10SM OVC011 04/03 A2991 1030 92 0 340/11 RMK AO2 T00390028
14926KSTC STC20170420083010404/20/17 08:30:31  5-MIN KSTC 201430Z 35009KT 10SM OVC011 04/03 A2991 1030 92 0 350/09 RMK AO2 T00390028
14926KSTC STC20170420083511104/20/17 08:35:31  5-MIN KSTC 201435Z 36010KT 10SM BKN011 OVC019 04/03 A2991 1030 92 0 360/10 RMK AO2 T00390028
14926KSTC STC20170420084011104/20/17 08:40:31  5-MIN KSTC 201440Z 36009KT 10SM BKN009 OVC019 04/03 A2991 1030 92 0 350/09 RMK AO2 T00390028
14926KSTC STC20170420084511104/20/17 08:45:31  5-MIN KSTC 201445Z 35010KT 10SM BKN009 OVC019 04/03 A2991 1030 89 0 350/10 RMK AO2 T00440028
14926KSTC STC20170420085013004/20/17 08:50:31  5-MIN KSTC 201450Z 35009KT 10SM BKN009 OVC019 04/03 A2992 1030 92 0 350/09 RMK AO2 SLP147 60000 T00390028 53002
14926KSTC STC20170420085511104/20/17 08:55:31  5-MIN KSTC 201455Z 34011KT 10SM BKN009 OVC019 04/03 A2992 1030 92 0 340/11 RMK AO2 T00390028
14926KSTC STC20170420090011104/20/17 09:00:31  5-MIN KSTC 201500Z 35011KT 10SM BKN009 OVC019 04/03 A2992 1030 92 0 350/11 RMK AO2 T00390028
14926KSTC STC20170420090511104/20/17 09:05:31  5-MIN KSTC 201505Z 35007KT 10SM BKN009 OVC019 04/03 A2992 1030 92 0 350/07 RMK AO2 T00390028
14926KSTC STC20170420091011104/20/17 09:10:31  5-MIN KSTC 201510Z 36009KT 10SM BKN009 OVC019 04/03 A2992 1030 89 0 350/09 RMK AO2 T00440028
14926KSTC STC20170420091511104/20/17 09:15:31  5-MIN KSTC 201515Z 35009KT 10SM BKN009 OVC019 04/03 A2992 1030 89 0 350/09 RMK AO2 T00440028
14926KSTC STC20170420092011104/20/17 09:20:31  5-MIN KSTC 201520Z 35010KT 10SM BKN009 OVC019 04/03 A2992 1030 89 0 350/10 RMK AO2 T00440028
14926KSTC STC20170420092511104/20/17 09:25:31  5-MIN KSTC 201525Z 35010KT 10SM BKN009 OVC019 04/03 A2992 1030 89 0 350/10 RMK AO2 T00440028
14926KSTC STC20170420093011104/20/17 09:30:31  5-MIN KSTC 201530Z 35010KT 10SM BKN009 OVC019 04/03 A2992 1030 89 0 350/10 RMK AO2 T00440028
14926KSTC STC20170420093511104/20/17 09:35:31  5-MIN KSTC 201535Z 35011KT 10SM BKN009 OVC019 04/03 A2992 1030 89 0 350/11 RMK AO2 T00440028
14926KSTC STC20170420094011304/20/17 09:40:31  5-MIN KSTC 201540Z 36011KT 10SM BKN009 OVC019 05/03 A2992 1030 85 100 360/11 RMK AO2 T00500028
14926KSTC STC20170420094511304/20/17 09:45:31  5-MIN KSTC 201545Z 35009KT 10SM BKN009 OVC019 05/03 A2992 1020 85 100 350/09 RMK AO2 T00500028
14926KSTC STC20170420095013604/20/17 09:50:31  5-MIN KSTC 201550Z 36010KT 10SM -RA BKN009 OVC019 05/03 A2992 1020 89 100 360/10 RMK AO2 RAB46 SLP150 P0000 T00500033
14926KSTC STC20170420095511604/20/17 09:55:31  5-MIN KSTC 201555Z 36011KT 10SM -RA OVC015 05/03 A2992 1020 85 100 360/11 RMK AO2 P0000 T00500028
14926KSTC STC20170420100011604/20/17 10:00:31  5-MIN KSTC 201600Z 35009KT 10SM -RA OVC015 05/03 A2992 1020 85 100 350/09 RMK AO2 P0000 T00500028
14926KSTC STC20170420100511604/20/17 10:05:31  5-MIN KSTC 201605Z 35011KT 10SM -RA OVC015 05/03 A2992 1030 85 100 350/11 RMK AO2 P0000 T00500028
14926KSTC STC20170420101011604/20/17 10:10:31  5-MIN KSTC 201610Z 36009KT 10SM -RA OVC015 05/03 A2992 1030 85 100 360/09 RMK AO2 P0000 T00500028
14926KSTC STC20170420101511604/20/17 10:15:31  5-MIN KSTC 201615Z 35010KT 10SM -RA OVC015 05/03 A2992 1020 89 100 350/10 RMK AO2 P0000 T00500033
14926KSTC STC20170420102011504/20/17 10:20:31  5-MIN KSTC 201620Z 35013KT 9SM -RA OVC015 05/03 A2992 1030 89 100 350/13 RMK AO2 P0000 T00500033
14926KSTC STC20170420102512204/20/17 10:25:31  5-MIN KSTC 201625Z 35010KT 9SM -RA BKN015 OVC023 05/03 A2992 1030 89 100 350/10 RMK AO2 P0000 T00500033
14926KSTC STC20170420103012504/20/17 10:30:31  5-MIN KSTC 201630Z 35009KT 10SM BKN015 OVC023 05/03 A2992 1020 89 100 350/09 RMK AO2 RAE30 P0000 T00500033
14926KSTC STC20170420103512304/20/17 10:35:31  5-MIN KSTC 201635Z 35009KT 10SM -RA BKN013 OVC018 05/03 A2992 1020 89 100 350/09 RMK AO2 P0000 T00500033
14926KSTC STC20170420104012304/20/17 10:40:31  5-MIN KSTC 201640Z 35010KT 10SM -RA BKN013 OVC018 05/03 A2992 1020 89 100 350/10 RMK AO2 P0000 T00500033
14926KSTC STC20170420104512504/20/17 10:45:31  5-MIN KSTC 201645Z 35010KT 10SM BKN013 OVC022 05/03 A2992 1020 89 100 340/10 RMK AO2 RAE43 P0000 T00500033
14926KSTC STC20170420105013204/20/17 10:50:31  5-MIN KSTC 201650Z 34010KT 10SM BKN013 OVC022 06/03 A2992 1020 85 200 340/10 RMK AO2 RAE43 SLP150 P0000 T00560033
14926KSTC STC20170420105511304/20/17 10:55:31  5-MIN KSTC 201655Z 35010KT 10SM BKN013 OVC023 05/03 A2993 1020 89 100 350/10 RMK AO2 T00500033
14926KSTC STC20170420110010604/20/17 11:00:31  5-MIN KSTC 201700Z 35010KT 10SM OVC013 06/03 A2993 1020 85 200 350/10 RMK AO2 T00560033
14926KSTC STC20170420110511304/20/17 11:05:31  5-MIN KSTC 201705Z 34008KT 10SM BKN014 OVC018 06/03 A2992 1020 85 200 340/08 RMK AO2 T00560033
14926KSTC STC20170420111010604/20/17 11:10:31  5-MIN KSTC 201710Z 35009KT 10SM OVC016 06/03 A2993 1020 85 200 350/09 RMK AO2 T00560033
14926KSTC STC20170420111510604/20/17 11:15:31  5-MIN KSTC 201715Z 33011KT 10SM OVC016 06/03 A2992 1020 85 200 330/11 RMK AO2 T00560033
14926KSTC STC20170420112010604/20/17 11:20:31  5-MIN KSTC 201720Z 34010KT 10SM OVC016 06/03 A2992 1020 85 200 330/10 RMK AO2 T00560033
14926KSTC STC20170420112510604/20/17 11:25:31  5-MIN KSTC 201725Z 34011KT 10SM OVC016 06/03 A2992 1020 82 200 340/11 RMK AO2 T00610033
14926KSTC STC20170420113010604/20/17 11:30:31  5-MIN KSTC 201730Z 35012KT 10SM OVC016 06/03 A2992 1020 82 200 350/12 RMK AO2 T00560028
14926KSTC STC20170420113510604/20/17 11:35:31  5-MIN KSTC 201735Z 36010KT 10SM OVC016 06/03 A2992 1020 85 200 360/10 RMK AO2 T00560033
14926KSTC STC20170420114010604/20/17 11:40:31  5-MIN KSTC 201740Z 35012KT 10SM OVC017 06/03 A2992 1020 85 200 350/12 RMK AO2 T00560033
14926KSTC STC20170420114510604/20/17 11:45:31  5-MIN KSTC 201745Z 34011KT 10SM OVC017 06/03 A2992 1020 82 200 340/11 RMK AO2 T00610033
14926KSTC STC20170420115013704/20/17 11:50:31  5-MIN KSTC 201750Z 35010KT 10SM OVC017 06/03 A2992 1020 82 200 340/10 RMK AO2 SLP150 60000 T00610033 10061 20033 50000
14926KSTC STC20170420115510604/20/17 11:55:31  5-MIN KSTC 201755Z 34009KT 10SM OVC017 06/03 A2992 1020 82 200 340/09 RMK AO2 T00610033
14926KSTC STC20170420120010604/20/17 12:00:31  5-MIN KSTC 201800Z 33009KT 10SM OVC017 06/03 A2992 1020 82 200 330/09 RMK AO2 T00610033
14926KSTC STC20170420120510604/20/17 12:05:31  5-MIN KSTC 201805Z 34010KT 10SM OVC017 06/04 A2992 1020 86 200 340/10 RMK AO2 T00610039
14926KSTC STC20170420121011304/20/17 12:10:31  5-MIN KSTC 201810Z 33011KT 10SM BKN017 OVC024 06/03 A2992 1020 82 200 330/11 RMK AO2 T00610033
14926KSTC STC20170420121511304/20/17 12:15:31  5-MIN KSTC 201815Z 33011KT 10SM BKN019 OVC024 06/03 A2993 1020 82 200 330/11 RMK AO2 T00610033
14926KSTC STC20170420122011304/20/17 12:20:31  5-MIN KSTC 201820Z 34011KT 10SM BKN019 OVC024 06/03 A2993 1020 82 200 340/11 RMK AO2 T00610033
14926KSTC STC20170420122512004/20/17 12:25:31  5-MIN KSTC 201825Z 33008KT 10SM BKN017 BKN024 OVC029 07/04 A2993 1020 82 300 330/08 RMK AO2 T00670039
14926KSTC STC20170420123012004/20/17 12:30:31  5-MIN KSTC 201830Z 33009KT 10SM SCT017 BKN024 OVC038 07/04 A2993 1020 82 400 330/09 RMK AO2 T00720044
14926KSTC STC20170420123512004/20/17 12:35:31  5-MIN KSTC 201835Z 33012KT 10SM SCT019 BKN026 OVC038 07/04 A2993 1020 82 400 330/12 RMK AO2 T00720044
14926KSTC STC20170420124012004/20/17 12:40:31  5-MIN KSTC 201840Z 34011KT 10SM SCT019 BKN026 OVC038 07/04 A2993 1020 79 400 340/11 RMK AO2 T00720039
14926KSTC STC20170420124512004/20/17 12:45:31  5-MIN KSTC 201845Z 33010KT 10SM SCT017 BKN023 OVC039 07/04 A2993 1020 79 400 320/10 RMK AO2 T00720039
14926KSTC STC20170420125012704/20/17 12:50:31  5-MIN KSTC 201850Z 32008KT 10SM FEW017 BKN023 OVC039 08/04 A2993 1020 79 400 320/08 RMK AO2 SLP151 T00780044
14926KSTC STC20170420125512004/20/17 12:55:31  5-MIN KSTC 201855Z 33010KT 10SM FEW019 SCT026 BKN038 08/05 A2993 1020 79 500 330/10 RMK AO2 T00830050
14926KSTC STC20170420130012004/20/17 13:00:31  5-MIN KSTC 201900Z 34008KT 10SM FEW017 BKN025 OVC039 08/04 A2993 1020 76 500 340/08 RMK AO2 T00830044
14926KSTC STC20170420130512604/20/17 13:05:31  5-MIN KSTC 201905Z 32011G16KT 10SM SCT019 BKN025 OVC039 08/04 A2993 1020 76 400 320/11G16 RMK AO2 T00780039
14926KSTC STC20170420131012004/20/17 13:10:31  5-MIN KSTC 201910Z 34010KT 10SM BKN023 BKN032 OVC039 07/03 A2993 1020 76 400 330/10 RMK AO2 T00720033
14926KSTC STC20170420131512004/20/17 13:15:31  5-MIN KSTC 201915Z 32014KT 10SM BKN023 BKN030 OVC040 07/04 A2994 1010 79 400 310/14 RMK AO2 T00720039
14926KSTC STC20170420132013504/20/17 13:20:31  5-MIN KSTC 201920Z 31014KT 9SM -RA FEW017 BKN023 OVC038 07/04 A2994 1010 86 300 310/14 RMK AO2 RAB17 P0000 T00670044
14926KSTC STC20170420132513504/20/17 13:25:31  5-MIN KSTC 201925Z 32011KT 9SM -RA FEW017 BKN025 OVC035 07/05 A2994 1010 89 300 320/11 RMK AO2 RAB17 P0000 T00670050
14926KSTC STC20170420133013504/20/17 13:30:31  5-MIN KSTC 201930Z 32008KT 9SM -RA FEW017 BKN026 OVC035 07/05 A2994 1010 86 400 320/08 RMK AO2 RAB17 P0000 T00720050
14926KSTC STC20170420133513504/20/17 13:35:31  5-MIN KSTC 201935Z 33009KT 8SM -RA FEW017 BKN030 OVC048 07/06 A2994 1010 89 400 330/09 RMK AO2 RAB17 P0000 T00720056
14926KSTC STC20170420134013504/20/17 13:40:31  5-MIN KSTC 201940Z 34009KT 9SM -RA FEW018 BKN033 OVC050 08/06 A2994 1010 86 400 340/09 RMK AO2 RAB17 P0000 T00780056
14926KSTC STC20170420134513604/20/17 13:45:31  5-MIN KSTC 201945Z 34010KT 10SM -RA FEW018 SCT026 OVC037 08/05 A2994 1010 82 400 340/10 RMK AO2 RAB17 P0000 T00780050
14926KSTC STC20170420135013104/20/17 13:50:31  5-MIN KSTC 201950Z 32011G19KT 4SM -RA FEW020 BKN029 OVC038 07/04 A2994 1010 82 300 320/11G19 RMK AO2 RAB17 P0001
14926KSTC STC20170420135513804/20/17 13:55:31  5-MIN KSTC 201955Z 34009G19KT 4SM -RA BR FEW018 BKN032 OVC040 07/04 A2994 1010 86 300 340/09G19 RMK AO2 P0000 T00670044
14926KSTC STC20170420140013004/20/17 14:00:31  5-MIN KSTC 202000Z 35009KT 10SM -RA BKN021 BKN029 OVC050 07/05 A2994 1010 86 400 350/09 RMK AO2 P0001 T00720050
14926KSTC STC20170420140513004/20/17 14:05:31  5-MIN KSTC 202005Z 34011KT 10SM -RA BKN021 BKN029 OVC055 07/04 A2994 1010 82 400 340/11 RMK AO2 P0001 T00720044
14926KSTC STC20170420141013004/20/17 14:10:31  5-MIN KSTC 202010Z 34011KT 10SM -RA BKN021 BKN033 OVC055 07/04 A2994 1010 82 400 340/11 RMK AO2 P0001 T00720044
14926KSTC STC20170420141513204/20/17 14:15:31  5-MIN KSTC 202015Z 33011KT 10SM BKN021 BKN033 OVC055 07/04 A2994 1010 82 400 330/11 RMK AO2 RAE14 P0001 T00720044
14926KSTC STC20170420142013004/20/17 14:20:31  5-MIN KSTC 202020Z 33010KT 10SM -RA BKN021 BKN033 OVC055 07/04 A2994 1010 82 400 330/10 RMK AO2 P0001 T00720044
14926KSTC STC20170420142513004/20/17 14:25:31  5-MIN KSTC 202025Z 32010KT 10SM -RA BKN021 BKN033 OVC055 07/04 A2994 1010 82 400 320/10 RMK AO2 P0001 T00720044
14926KSTC STC20170420143013004/20/17 14:30:31  5-MIN KSTC 202030Z 32010KT 10SM -RA BKN021 BKN033 OVC055 07/05 A2994 1010 86 400 320/10 RMK AO2 P0001 T00720050
14926KSTC STC20170420143513004/20/17 14:35:31  5-MIN KSTC 202035Z 33008KT 10SM -RA BKN021 BKN033 OVC055 08/05 A2994 1000 82 400 330/08 RMK AO2 P0001 T00780050
14926KSTC STC20170420144013504/20/17 14:40:31  5-MIN KSTC 202040Z 34011G17KT 8SM -RA BKN021 BKN033 OVC055 07/05 A2994 1000 86 300 340/11G17 RMK AO2 P0001 T00720050
14926KSTC STC20170420144513504/20/17 14:45:31  5-MIN KSTC 202045Z 32011G17KT 8SM -RA BKN021 BKN033 OVC055 08/06 A2994 1010 86 400 320/11G17 RMK AO2 P0001 T00780056
14926KSTC STC20170420145015104/20/17 14:50:31  5-MIN KSTC 202050Z 34010KT 10SM BKN021 BKN033 OVC055 09/06 A2994 1010 79 600 340/10 RMK AO2 RAE50 SLP154 P0001 60002 T00890056 50003
14926KSTC STC20170420145512004/20/17 14:55:31  5-MIN KSTC 202055Z 33011KT 10SM FEW019 SCT029 BKN036 08/05 A2994 1010 79 500 330/11 RMK AO2 T00830050
14926KSTC STC20170420150014404/20/17 15:00:31  5-MIN KSTC 202100Z 34013G20KT 10SM -RA BKN021 BKN029 BKN036 08/05 A2994 1010 79 500 340/13G20 RMK AO2 RAB2059 P0000 T00830050
14926KSTC STC20170420150514404/20/17 15:05:31  5-MIN KSTC 202105Z 35015G23KT 10SM -RA BKN021 BKN029 BKN036 08/04 A2994 1010 76 500 350/15G23 RMK AO2 RAB2059 P0000 T00830044
14926KSTC STC20170420151014304/20/17 15:10:31  5-MIN KSTC 202110Z 34015G23KT 10SM BKN021 BKN029 BKN036 09/04 A2994 1000 73 600 330/15G23 RMK AO2 RAB2059E10 P0000 T00890044
14926KSTC STC20170420151513704/20/17 15:15:31  5-MIN KSTC 202115Z 01012KT 10SM BKN021 BKN029 BKN036 09/06 A2995 1000 76 600 010/12 RMK AO2 RAB2059E10 P0000 T00940056
14926KSTC STC20170420152014304/20/17 15:20:31  5-MIN KSTC 202120Z 36012G20KT 10SM BKN021 BKN029 BKN036 08/04 A2995 1000 76 500 360/12G20 RMK AO2 RAB2059E10 P0000 T00830044
14926KSTC STC20170420152514304/20/17 15:25:31  5-MIN KSTC 202125Z 34013G20KT 10SM -RA BKN021 BKN029 BKN036 08/04 A2996 990 76 500 340/13G20 RMK AO2 RAB2059 P0000 T00830044
14926KSTC STC20170420153013604/20/17 15:30:31  5-MIN KSTC 202130Z 35012KT 9SM -RA BKN021 BKN029 BKN036 08/04 A2996 990 79 400 350/12 RMK AO2 RAB2059 P0000 T00780044
14926KSTC STC20170420153513604/20/17 15:35:31  5-MIN KSTC 202135Z 33011KT 7SM -RA BKN021 BKN029 BKN036 07/05 A2996 990 86 300 330/11 RMK AO2 RAB2059 P0000 T00720050
14926KSTC STC20170420154013604/20/17 15:40:31  5-MIN KSTC 202140Z 33008KT 8SM -RA BKN021 BKN029 BKN036 07/05 A2996 990 86 300 330/08 RMK AO2 RAB2059 P0000 T00720050
14926KSTC STC20170420154513604/20/17 15:45:31  5-MIN KSTC 202145Z 33009KT 10SM BKN021 BKN029 BKN036 08/05 A2997 980 82 400 330/09 RMK AO2 RAB2059E45 P0000 T00780050
14926KSTC STC20170420155014904/20/17 15:50:31  5-MIN KSTC 202150Z 35009G16KT 10SM BKN021 BKN029 BKN036 08/05 A2997 980 82 400 350/09G16 RMK AO2 RAB2059E45 SLP165 P0000 T00780050
14926KSTC STC20170420155512504/20/17 15:55:31  5-MIN KSTC 202155Z 34008G18KT 10SM FEW019 BKN024 OVC031 08/04 A2997 980 79 400 340/08G18 RMK AO2 T00780044
14926KSTC STC20170420160012504/20/17 16:00:31  5-MIN KSTC 202200Z 34008G18KT 10SM FEW019 BKN024 OVC034 07/04 A2997 980 82 300 340/08G18 RMK AO2 T00720044
14926KSTC STC20170420160511904/20/17 16:05:31  5-MIN KSTC 202205Z 34008KT 10SM FEW019 BKN024 OVC042 08/04 A2997 980 79 400 340/08 RMK AO2 T00780044
14926KSTC STC20170420161011904/20/17 16:10:31  5-MIN KSTC 202210Z 34010KT 10SM FEW019 BKN024 BKN029 08/05 A2997 980 79 400 340/10 RMK AO2 T00830050
14926KSTC STC20170420161512504/20/17 16:15:31  5-MIN KSTC 202215Z 35011G18KT 10SM SCT024 SCT029 BKN044 09/06 A2998 970 79 500 350/11G18 RMK AO2 T00890056
14926KSTC STC20170420162012504/20/17 16:20:31  5-MIN KSTC 202220Z 35009G18KT 10SM SCT024 SCT029 OVC044 08/05 A2998 970 79 400 350/09G18 RMK AO2 T00830050
14926KSTC STC20170420162511904/20/17 16:25:31  5-MIN KSTC 202225Z 34010KT 10SM FEW024 SCT029 OVC044 09/05 A2998 970 76 500 330/10 RMK AO2 T00890050
14926KSTC STC20170420163012504/20/17 16:30:31  5-MIN KSTC 202230Z 33009G16KT 10SM FEW024 BKN044 OVC050 09/05 A2998 970 76 500 330/09G16 RMK AO2 T00890050
14926KSTC STC20170420163511904/20/17 16:35:31  5-MIN KSTC 202235Z 33009KT 10SM FEW023 BKN042 OVC050 08/04 A2998 970 76 400 330/09 RMK AO2 T00830044
14926KSTC STC20170420164011904/20/17 16:40:31  5-MIN KSTC 202240Z 34011KT 10SM FEW023 SCT030 OVC042 08/04 A2998 970 76 400 340/11 RMK AO2 T00830044
14926KSTC STC20170420164511904/20/17 16:45:31  5-MIN KSTC 202245Z 34012KT 10SM FEW023 BKN029 OVC043 08/04 A2999 960 76 400 340/12 RMK AO2 T00830044
14926KSTC STC20170420165013204/20/17 16:50:31  5-MIN KSTC 202250Z 33012G19KT 10SM SCT028 BKN035 OVC045 09/04 A2999 960 71 500 330/12G19 RMK AO2 SLP171 T00890039
14926KSTC STC20170420165512504/20/17 16:55:31  5-MIN KSTC 202255Z 34008G19KT 10SM SCT028 BKN035 BKN045 09/04 A2999 960 73 500 340/08G19 RMK AO2 T00890044
14926KSTC STC20170420170011904/20/17 17:00:31  5-MIN KSTC 202300Z 36011KT 10SM SCT026 BKN035 OVC048 09/04 A2999 960 73 500 350/11 RMK AO2 T00890044
14926KSTC STC20170420170511904/20/17 17:05:31  5-MIN KSTC 202305Z 35011KT 10SM SCT026 BKN035 OVC046 09/04 A3000 960 71 500 340/11 RMK AO2 T00890039
14926KSTC STC20170420171012504/20/17 17:10:31  5-MIN KSTC 202310Z 34011G19KT 10SM FEW026 BKN040 OVC048 09/03 A3000 960 68 500 340/11G19 RMK AO2 T00890033
14926KSTC STC20170420171512504/20/17 17:15:31  5-MIN KSTC 202315Z 35011G19KT 10SM FEW028 BKN038 OVC048 09/03 A3000 950 68 500 340/11G19 RMK AO2 T00890033
14926KSTC STC20170420172011904/20/17 17:20:31  5-MIN KSTC 202320Z 35009KT 10SM FEW026 BKN038 OVC048 09/03 A3000 950 68 500 350/09 RMK AO2 T00890033
14926KSTC STC20170420172511204/20/17 17:25:31  5-MIN KSTC 202325Z 36010KT 10SM BKN038 OVC048 08/04 A3000 950 73 400 360/10 RMK AO2 T00830039
14926KSTC STC20170420173010504/20/17 17:30:31  5-MIN KSTC 202330Z 35011KT 10SM BKN038 08/04 A3001 950 73 400 350/11 RMK AO2 T00830039
14926KSTC STC20170420173510504/20/17 17:35:31  5-MIN KSTC 202335Z 34009KT 10SM BKN038 08/04 A3001 950 73 400 340/09 RMK AO2 T00830039
14926KSTC STC20170420174010504/20/17 17:40:31  5-MIN KSTC 202340Z 34009KT 10SM BKN040 09/04 A3001 940 71 500 340/09 RMK AO2 T00890039
14926KSTC STC20170420174511204/20/17 17:45:31  5-MIN KSTC 202345Z 35008KT 10SM SCT034 BKN042 09/04 A3001 940 71 500 350/08 RMK AO2 T00890039
14926KSTC STC20170420175015004/20/17 17:50:31  5-MIN KSTC 202350Z 35008KT 10SM FEW030 BKN039 BKN045 09/04 A3001 940 68 500 350/08 RMK AO2 SLP179 60002 T00940039 10094 20061 51005
14926KSTC STC20170420175511204/20/17 17:55:31  5-MIN KSTC 202355Z 36009KT 10SM FEW030 BKN039 09/04 A3002 940 71 500 360/09 RMK AO2 T00890039
14926KSTC STC20170420180011804/20/17 18:00:31  5-MIN KSTC 210000Z 35011G18KT 10SM FEW030 BKN040 09/03 A3002 940 68 500 350/11G18 RMK AO2 T00890033
14926KSTC STC20170420180512504/20/17 18:05:31  5-MIN KSTC 210005Z 35008G18KT 10SM FEW030 SCT040 BKN050 09/04 A3002 940 71 500 350/08G18 RMK AO2 T00890039
14926KSTC STC20170420181011904/20/17 18:10:31  5-MIN KSTC 210010Z 35010KT 10SM FEW030 SCT038 BKN050 09/04 A3002 930 71 500 350/10 RMK AO2 T00890039
14926KSTC STC20170420181511204/20/17 18:15:31  5-MIN KSTC 210015Z 35011KT 10SM SCT042 BKN050 09/04 A3002 930 71 500 350/11 RMK AO2 T00890039
14926KSTC STC20170420182010504/20/17 18:20:31  5-MIN KSTC 210020Z 35009KT 10SM BKN047 09/04 A3002 930 71 500 350/09 RMK AO2 T00890039
14926KSTC STC20170420182510504/20/17 18:25:31  5-MIN KSTC 210025Z 35008KT 10SM OVC049 08/04 A3003 930 73 400 350/08 RMK AO2 T00830039
14926KSTC STC20170420183010504/20/17 18:30:31  5-MIN KSTC 210030Z 35008KT 10SM OVC049 08/04 A3003 930 73 400 350/08 RMK AO2 T00830039
14926KSTC STC20170420183510504/20/17 18:35:31  5-MIN KSTC 210035Z 35009KT 10SM OVC047 08/04 A3003 930 73 400 350/09 RMK AO2 T00830039
14926KSTC STC20170420184011204/20/17 18:40:31  5-MIN KSTC 210040Z 36009KT 10SM SCT034 OVC048 08/04 A3003 920 73 400 360/09 RMK AO2 T00830039
14926KSTC STC20170420184511904/20/17 18:45:31  5-MIN KSTC 210045Z 36012KT 10SM FEW029 BKN045 OVC050 08/04 A3003 920 73 400 360/12 RMK AO2 T00830039
14926KSTC STC20170420185013204/20/17 18:50:31  5-MIN KSTC 210050Z 36010G16KT 10SM SCT032 BKN041 OVC050 08/04 A3004 920 79 300 360/10G16 RMK AO2 SLP188 T00780044
14926KSTC STC20170420185511204/20/17 18:55:31  5-MIN KSTC 210055Z 01008KT 10SM BKN035 OVC046 08/04 A3004 920 79 300 010/08 RMK AO2 T00780044
14926KSTC STC20170420190010504/20/17 19:00:31  5-MIN KSTC 210100Z 35007KT 10SM OVC036 08/04 A3004 910 79 300 350/07 RMK AO2 T00780044
14926KSTC STC20170420190510504/20/17 19:05:31  5-MIN KSTC 210105Z 36006KT 10SM OVC036 08/04 A3005 910 79 300 360/06 RMK AO2 T00780044
14926KSTC STC20170420191010504/20/17 19:10:31  5-MIN KSTC 210110Z 01006KT 10SM OVC036 08/04 A3005 910 79 300 360/06 RMK AO2 T00780044
14926KSTC STC20170420191510504/20/17 19:15:31  5-MIN KSTC 210115Z 36006KT 10SM OVC038 07/04 A3005 910 82 200 360/06 RMK AO2 T00720044
14926KSTC STC20170420192010504/20/17 19:20:31  5-MIN KSTC 210120Z 36005KT 10SM OVC038 07/04 A3005 910 82 200 360/05 RMK AO2 T00720044
14926KSTC STC20170420192510504/20/17 19:25:31  5-MIN KSTC 210125Z 01004KT 10SM BKN038 07/04 A3005 900 82 200 360/04 RMK AO2 T00720044
14926KSTC STC20170420193010504/20/17 19:30:31  5-MIN KSTC 210130Z 01004KT 10SM BKN038 07/04 A3006 900 82 200 360/04 RMK AO2 T00720044
14926KSTC STC20170420193510504/20/17 19:35:31  5-MIN KSTC 210135Z 01003KT 10SM SCT036 07/04 A3006 900 86 100 360/03 RMK AO2 T00670044
14926KSTC STC20170420194010504/20/17 19:40:31  5-MIN KSTC 210140Z 34003KT 10SM SCT038 07/04 A3006 900 86 100 340/03 RMK AO2 T00670044
14926KSTC STC20170420194510504/20/17 19:45:31  5-MIN KSTC 210145Z 34003KT 10SM FEW036 07/04 A3006 900 86 100 340/03 RMK AO2 T00670044
14926KSTC STC20170420195011204/20/17 19:50:31  5-MIN KSTC 210150Z 00000KT 10SM FEW034 07/04 A3007 890 82 100 000/00 RMK AO2 SLP199 T00670039
14926KSTC STC20170420195510204/20/17 19:55:31  5-MIN KSTC 210155Z 00000KT 10SM CLR 06/04 A3007 890 86 100 000/00 RMK AO2 T00610039
14926KSTC STC20170420200010004/20/17 20:00:31  5-MIN KSTC 210200Z 31003KT 10SM CLR 05/04 A3007 890 92 0 310/03 RMK AO2 T00500039
14926KSTC STC20170420200510004/20/17 20:05:31  5-MIN KSTC 210205Z 30004KT 10SM CLR 05/04 A3007 890 92 0 300/04 RMK AO2 T00500039
14926KSTC STC20170420201010004/20/17 20:10:31  5-MIN KSTC 210210Z 29003KT 10SM CLR 06/04 A3007 890 89 0 280/03 RMK AO2 T00560039
14926KSTC STC20170420201510004/20/17 20:15:31  5-MIN KSTC 210215Z 29003KT 10SM CLR 05/04 A3007 890 92 0 290/03 RMK AO2 T00500039
14926KSTC STC20170420202010004/20/17 20:20:31  5-MIN KSTC 210220Z 31003KT 10SM CLR 05/04 A3007 880 92 0 310/03 RMK AO2 T00500039
14926KSTC STC20170420202510304/20/17 20:25:31  5-MIN KSTC 210225Z 33003KT 10SM CLR 04/03 A3008 880 92 -100 320/03 RMK AO2 T00440033
14926KSTC STC20170420203010004/20/17 20:30:31  5-MIN KSTC 210230Z 33004KT 10SM CLR 05/04 A3008 880 92 0 330/04 RMK AO2 T00500039
14926KSTC STC20170420203510004/20/17 20:35:31  5-MIN KSTC 210235Z 00000KT 10SM CLR 05/04 A3008 880 92 0 000/00 RMK AO2 T00500039
14926KSTC STC20170420204010304/20/17 20:40:31  5-MIN KSTC 210240Z 34003KT 10SM CLR 04/04 A3008 870 96 -100 340/03 RMK AO2 T00440039
14926KSTC STC20170420204510004/20/17 20:45:31  5-MIN KSTC 210245Z 00000KT 10SM CLR 05/04 A3009 870 92 0 000/00 RMK AO2 T00500039
14926KSTC STC20170420205011304/20/17 20:50:31  5-MIN KSTC 210250Z 00000KT 10SM CLR 05/04 A3009 870 92 0 000/00 RMK AO2 SLP206 T00500039 51025
14926KSTC STC20170420205510004/20/17 20:55:31  5-MIN KSTC 210255Z 00000KT 10SM CLR 05/04 A3009 870 92 0 000/00 RMK AO2 T00500039
14926KSTC STC20170420210010404/20/17 21:00:31  5-MIN KSTC 210300Z 33003KT 10SM CLR 04/04 A3009 870 100 -200 330/03 RMK AO2 T00390039
14926KSTC STC20170420210510304/20/17 21:05:31  5-MIN KSTC 210305Z 34003KT 10SM CLR 03/03 A3010 870 96 -300 340/03 RMK AO2 T00330028
14926KSTC STC20170420211010304/20/17 21:10:31  5-MIN KSTC 210310Z 34003KT 10SM CLR 04/03 A3010 860 96 -200 340/03 RMK AO2 T00390033
14926KSTC STC20170420211510304/20/17 21:15:31  5-MIN KSTC 210315Z 00000KT 10SM CLR 03/03 A3010 860 96 -300 000/00 RMK AO2 T00330028
14926KSTC STC20170420212010604/20/17 21:20:31  5-MIN KSTC 210320Z 00000KT 10SM FEW049 04/03 A3010 860 96 -200 000/00 RMK AO2 T00390033
14926KSTC STC20170420212510604/20/17 21:25:31  5-MIN KSTC 210325Z 00000KT 10SM SCT049 04/04 A3010 860 96 -100 000/00 RMK AO2 T00440039
14926KSTC STC20170420213010604/20/17 21:30:31  5-MIN KSTC 210330Z 00000KT 10SM BKN049 04/04 A3010 860 96 -100 000/00 RMK AO2 T00440039
14926KSTC STC20170420213510704/20/17 21:35:31  5-MIN KSTC 210335Z 00000KT 10SM BKN049 04/04 A3010 860 100 -200 000/00 RMK AO2 T00390039
14926KSTC STC20170420214010604/20/17 21:40:31  5-MIN KSTC 210340Z 00000KT 10SM BKN049 04/03 A3010 860 96 -200 000/00 RMK AO2 T00390033
14926KSTC STC20170420214510604/20/17 21:45:31  5-MIN KSTC 210345Z 00000KT 10SM OVC050 04/03 A3010 860 96 -200 000/00 RMK AO2 T00390033
14926KSTC STC20170420215011304/20/17 21:50:31  5-MIN KSTC 210350Z 00000KT 10SM OVC050 04/04 A3010 860 96 -100 000/00 RMK AO2 SLP212 T00440039
14926KSTC STC20170420215510604/20/17 21:55:31  5-MIN KSTC 210355Z 00000KT 10SM OVC050 04/03 A3010 860 96 -200 000/00 RMK AO2 T00390033
14926KSTC STC20170420220011104/20/17 22:00:31  5-MIN KSTC 210400Z AUTO 00000KT 10SM BKN050 04/03 A3010 860 96 -200 000/00 RMK AO2 T00390033
14926KSTC STC20170420220511104/20/17 22:05:31  5-MIN KSTC 210405Z AUTO 00000KT 10SM BKN055 04/03 A3010 860 92 -200 000/00 RMK AO2 T00390028
14926KSTC STC20170420221011104/20/17 22:10:31  5-MIN KSTC 210410Z AUTO 30003KT 10SM SCT050 04/03 A3010 860 92 -200 300/03 RMK AO2 T00390028
14926KSTC STC20170420221511104/20/17 22:15:31  5-MIN KSTC 210415Z AUTO 30004KT 10SM FEW050 04/03 A3010 860 92 -200 300/04 RMK AO2 T00390028
14926KSTC STC20170420222011104/20/17 22:20:31  5-MIN KSTC 210420Z AUTO 32003KT 10SM FEW050 03/03 A3010 860 96 -300 310/03 RMK AO2 T00330028
14926KSTC STC20170420222510804/20/17 22:25:31  5-MIN KSTC 210425Z AUTO 00000KT 10SM CLR 03/03 A3010 860 96 -300 000/00 RMK AO2 T00330028
14926KSTC STC20170420223010804/20/17 22:30:31  5-MIN KSTC 210430Z AUTO 32003KT 10SM CLR 03/03 A3010 860 96 -300 320/03 RMK AO2 T00330028
14926KSTC STC20170420223510804/20/17 22:35:31  5-MIN KSTC 210435Z AUTO 32004KT 10SM CLR 03/03 A3010 860 96 -300 320/04 RMK AO2 T00330028
14926KSTC STC20170420224010804/20/17 22:40:31  5-MIN KSTC 210440Z AUTO 32004KT 10SM CLR 04/03 A3010 860 96 -200 320/04 RMK AO2 T00390033
14926KSTC STC20170420224510804/20/17 22:45:31  5-MIN KSTC 210445Z AUTO 32004KT 10SM CLR 03/03 A3011 860 96 -300 320/04 RMK AO2 T00330028
14926KSTC STC20170420225011504/20/17 22:50:31  5-MIN KSTC 210450Z AUTO 31006KT 10SM CLR 03/03 A3011 850 96 -300 310/06 RMK AO2 SLP212 T00330028
14926KSTC STC20170420225510804/20/17 22:55:31  5-MIN KSTC 210455Z AUTO 30006KT 10SM CLR 03/02 A3011 860 96 -300 300/06 RMK AO2 T00280022
14926KSTC STC20170420230010904/20/17 23:00:31  5-MIN KSTC 210500Z AUTO 30006KT 10SM CLR 02/02 A3010 860 100 -400 300/06 RMK AO2 T00220022
14926KSTC STC20170420230510804/20/17 23:05:31  5-MIN KSTC 210505Z AUTO 31005KT 10SM CLR 03/03 A3011 860 96 -300 310/05 RMK AO2 T00330028
14926KSTC STC20170420231010804/20/17 23:10:31  5-MIN KSTC 210510Z AUTO 33004KT 10SM CLR 04/03 A3010 860 92 -200 330/04 RMK AO2 T00390028
14926KSTC STC20170420231510804/20/17 23:15:31  5-MIN KSTC 210515Z AUTO 33004KT 10SM CLR 04/03 A3010 860 92 -200 330/04 RMK AO2 T00390028
14926KSTC STC20170420232010804/20/17 23:20:31  5-MIN KSTC 210520Z AUTO 36003KT 10SM CLR 03/03 A3010 860 96 -300 360/03 RMK AO2 T00330028
14926KSTC STC20170420232510904/20/17 23:25:31  5-MIN KSTC 210525Z AUTO 00000KT 10SM CLR 03/03 A3011 860 100 -300 000/00 RMK AO2 T00330033
14926KSTC STC20170420233010804/20/17 23:30:31  5-MIN KSTC 210530Z AUTO 00000KT 10SM CLR 04/03 A3011 850 92 -200 000/00 RMK AO2 T00390028
14926KSTC STC20170420233510804/20/17 23:35:31  5-MIN KSTC 210535Z AUTO 00000KT 10SM CLR 04/03 A3011 850 92 -200 000/00 RMK AO2 T00390028
14926KSTC STC20170420234010804/20/17 23:40:31  5-MIN KSTC 210540Z AUTO 00000KT 10SM CLR 04/02 A3011 850 89 -200 000/00 RMK AO2 T00390022
14926KSTC STC20170420234510804/20/17 23:45:31  5-MIN KSTC 210545Z AUTO 00000KT 10SM CLR 04/03 A3011 850 92 -200 000/00 RMK AO2 T00390028
14926KSTC STC20170420235014304/20/17 23:50:31  5-MIN KSTC 210550Z AUTO 31003KT 10SM CLR 04/03 A3011 850 92 -200 310/03 RMK AO2 SLP214 T00390028 10089 20022 400940022 51024
14926KSTC STC20170420235510804/20/17 23:55:31  5-MIN KSTC 210555Z AUTO 30004KT 10SM CLR 04/03 A3011 850 92 -200 300/04 RMK AO2 T00390028
14926KSTC STC20170421000010804/21/17 00:00:31  5-MIN KSTC 210600Z AUTO 30004KT 10SM CLR 03/03 A3012 850 96 -300 300/04 RMK AO2 T00330028
14926KSTC STC20170421000510904/21/17 00:05:31  5-MIN KSTC 210605Z AUTO 30004KT 10SM CLR 02/02 A3012 840 100 -400 300/04 RMK AO2 T00220022
14926KSTC STC20170421001010904/21/17 00:10:31  5-MIN KSTC 210610Z AUTO 29003KT 10SM CLR 02/02 A3012 840 100 -500 290/03 RMK AO2 T00170017
14926KSTC STC20170421001510804/21/17 00:15:31  5-MIN KSTC 210615Z AUTO 27003KT 10SM CLR 02/01 A3012 840 96 -500 270/03 RMK AO2 T00170011
14926KSTC STC20170421002010904/21/17 00:20:31  5-MIN KSTC 210620Z AUTO 29003KT 10SM CLR 02/02 A3013 840 100 -500 290/03 RMK AO2 T00170017
14926KSTC STC20170421002510804/21/17 00:25:31  5-MIN KSTC 210625Z AUTO 29004KT 10SM CLR 02/01 A3013 830 96 -500 290/04 RMK AO2 T00170011
14926KSTC STC20170421003010904/21/17 00:30:31  5-MIN KSTC 210630Z AUTO 30004KT 10SM CLR 02/02 A3013 840 100 -500 290/04 RMK AO2 T00170017
14926KSTC STC20170421003510804/21/17 00:35:31  5-MIN KSTC 210635Z AUTO 00000KT 10SM CLR 02/02 A3013 840 96 -400 000/00 RMK AO2 T00220017
14926KSTC STC20170421004010804/21/17 00:40:31  5-MIN KSTC 210640Z AUTO 00000KT 10SM CLR 03/02 A3013 840 96 -400 000/00 RMK AO2 T00280022
14926KSTC STC20170421004510804/21/17 00:45:31  5-MIN KSTC 210645Z AUTO 00000KT 10SM CLR 03/03 A3013 830 96 -300 000/00 RMK AO2 T00330028
14926KSTC STC20170421005011504/21/17 00:50:31  5-MIN KSTC 210650Z AUTO 00000KT 10SM CLR 03/03 A3013 830 96 -300 000/00 RMK AO2 SLP220 T00330028
14926KSTC STC20170421005510804/21/17 00:55:31  5-MIN KSTC 210655Z AUTO 00000KT 10SM CLR 03/02 A3013 830 92 -300 000/00 RMK AO2 T00330022
14926KSTC STC20170421010010804/21/17 01:00:31  5-MIN KSTC 210700Z AUTO 00000KT 10SM CLR 03/02 A3013 830 96 -400 000/00 RMK AO2 T00280022
14926KSTC STC20170421010510804/21/17 01:05:31  5-MIN KSTC 210705Z AUTO 00000KT 10SM CLR 03/02 A3013 830 92 -300 000/00 RMK AO2 T00330022
14926KSTC STC20170421011010804/21/17 01:10:31  5-MIN KSTC 210710Z AUTO 00000KT 10SM CLR 03/02 A3013 830 92 -300 000/00 RMK AO2 T00330022
14926KSTC STC20170421011510804/21/17 01:15:31  5-MIN KSTC 210715Z AUTO 00000KT 10SM CLR 02/02 A3013 830 96 -400 000/00 RMK AO2 T00220017
14926KSTC STC20170421012010804/21/17 01:20:31  5-MIN KSTC 210720Z AUTO 00000KT 10SM CLR 03/02 A3013 830 96 -400 000/00 RMK AO2 T00280022
14926KSTC STC20170421012510904/21/17 01:25:31  5-MIN KSTC 210725Z AUTO 00000KT 10SM CLR 02/02 A3013 830 100 -400 000/00 RMK AO2 T00220022
14926KSTC STC20170421013010904/21/17 01:30:31  5-MIN KSTC 210730Z AUTO 34003KT 10SM CLR 02/02 A3013 830 100 -400 330/03 RMK AO2 T00220022
14926KSTC STC20170421013510804/21/17 01:35:31  5-MIN KSTC 210735Z AUTO 32004KT 10SM CLR 03/02 A3013 830 96 -400 320/04 RMK AO2 T00280022
14926KSTC STC20170421014010804/21/17 01:40:31  5-MIN KSTC 210740Z AUTO 32004KT 10SM CLR 03/02 A3013 830 96 -400 320/04 RMK AO2 T00280022
14926KSTC STC20170421014510904/21/17 01:45:31  5-MIN KSTC 210745Z AUTO 32003KT 10SM CLR 02/02 A3013 830 100 -400 320/03 RMK AO2 T00220022
14926KSTC STC20170421015011504/21/17 01:50:31  5-MIN KSTC 210750Z AUTO 32004KT 10SM CLR 03/02 A3013 830 96 -400 320/04 RMK AO2 SLP221 T00280022
14926KSTC STC20170421015510904/21/17 01:55:31  5-MIN KSTC 210755Z AUTO 00000KT 10SM CLR 02/02 A3013 830 100 -500 000/00 RMK AO2 T00170017
14926KSTC STC20170421020010904/21/17 02:00:31  5-MIN KSTC 210800Z AUTO 00000KT 10SM CLR 01/01 A3013 830 100 -600 000/00 RMK AO2 T00110011
14926KSTC STC20170421020510804/21/17 02:05:31  5-MIN KSTC 210805Z AUTO 00000KT 10SM CLR 02/02 A3013 830 96 -400 000/00 RMK AO2 T00220017
14926KSTC STC20170421021010904/21/17 02:10:31  5-MIN KSTC 210810Z AUTO 00000KT 10SM CLR 02/02 A3013 830 100 -400 000/00 RMK AO2 T00220022
14926KSTC STC20170421021510804/21/17 02:15:31  5-MIN KSTC 210815Z AUTO 00000KT 10SM CLR 02/02 A3013 830 96 -400 000/00 RMK AO2 T00220017
14926KSTC STC20170421022010904/21/17 02:20:31  5-MIN KSTC 210820Z AUTO 00000KT 10SM CLR 01/01 A3014 830 100 -600 000/00 RMK AO2 T00110011
14926KSTC STC20170421022510804/21/17 02:25:31  5-MIN KSTC 210825Z AUTO 00000KT 7SM CLR 01/01 A3014 830 100 -600 000/00 RMK AO2 T00110011
14926KSTC STC20170421023011104/21/17 02:30:31  5-MIN KSTC 210830Z AUTO 00000KT 6SM BR CLR 01/01 A3014 830 100 -600 000/00 RMK AO2 T00110011
14926KSTC STC20170421023510804/21/17 02:35:31  5-MIN KSTC 210835Z AUTO 00000KT 8SM CLR 02/02 A3014 820 100 -500 000/00 RMK AO2 T00170017
14926KSTC STC20170421024011104/21/17 02:40:31  5-MIN KSTC 210840Z AUTO 00000KT 5SM BR CLR 01/01 A3014 820 100 -600 000/00 RMK AO2 T00110011
14926KSTC STC20170421024511104/21/17 02:45:31  5-MIN KSTC 210845Z AUTO 00000KT 4SM BR CLR 01/01 A3014 820 100 -600 000/00 RMK AO2 T00110011
14926KSTC STC20170421025012404/21/17 02:50:31  5-MIN KSTC 210850Z AUTO 00000KT 3SM BR CLR 01/01 A3014 820 100 -600 000/00 RMK AO2 SLP224 T00110011 51008
14926KSTC STC20170421025511104/21/17 02:55:31  5-MIN KSTC 210855Z AUTO 00000KT 3SM BR CLR 01/01 A3014 820 100 -600 000/00 RMK AO2 T00110011
14926KSTC STC20170421030010804/21/17 03:00:31  5-MIN KSTC 210900Z AUTO 00000KT 8SM CLR 02/02 A3014 820 100 -500 000/00 RMK AO2 T00170017
14926KSTC STC20170421030510804/21/17 03:05:31  5-MIN KSTC 210905Z AUTO 00000KT 8SM CLR 01/01 A3014 820 100 -600 000/00 RMK AO2 T00110011
14926KSTC STC20170421031010804/21/17 03:10:31  5-MIN KSTC 210910Z AUTO 35003KT 7SM CLR 01/01 A3014 820 100 -600 340/03 RMK AO2 T00110011
14926KSTC STC20170421031511104/21/17 03:15:31  5-MIN KSTC 210915Z AUTO 35003KT 6SM BR CLR 01/01 A3014 820 100 -600 350/03 RMK AO2 T00110011
14926KSTC STC20170421032010804/21/17 03:20:31  5-MIN KSTC 210920Z AUTO 36003KT 7SM CLR 01/01 A3014 820 100 -700 360/03 RMK AO2 T00060006
14926KSTC STC20170421032510804/21/17 03:25:31  5-MIN KSTC 210925Z AUTO 36003KT 8SM CLR 01/01 A3015 820 100 -700 360/03 RMK AO2 T00060006
14926KSTC STC20170421033010804/21/17 03:30:31  5-MIN KSTC 210930Z AUTO 36003KT 8SM CLR 01/01 A3015 820 100 -700 360/03 RMK AO2 T00060006
14926KSTC STC20170421033511004/21/17 03:35:31  5-MIN KSTC 210935Z AUTO 00000KT 6SM BR CLR 01/01 A3015 820 96 -600 000/00 RMK AO2 T00110006
14926KSTC STC20170421034011104/21/17 03:40:31  5-MIN KSTC 210940Z AUTO 00000KT 6SM BR CLR 01/01 A3015 820 100 -600 000/00 RMK AO2 T00110011
14926KSTC STC20170421034511504/21/17 03:45:31  5-MIN KSTC 210945Z AUTO 00000KT 2 1/2SM BR CLR 01/01 A3015 820 100 -700 000/00 RMK AO2 T00060006
14926KSTC STC20170421035010504/21/17 03:50:31  5-MIN KSTC 210950Z AUTO 00000KT 3/4SM BR CLR M01/M01 A3015 820 100 -800 000/00 RMK AO2
14926KSTC STC20170421035511704/21/17 03:55:31  5-MIN KSTC 210955Z AUTO 00000KT 1/2SM FZFG CLR M01/M01 A3015 820 100 -800 000/00 RMK AO2 T10061006
14926KSTC STC20170421040011704/21/17 04:00:31  5-MIN KSTC 211000Z AUTO 00000KT 1/2SM FZFG CLR M01/M01 A3014 820 100 -800 000/00 RMK AO2 T10061006
14926KSTC STC20170421040511504/21/17 04:05:31  5-MIN KSTC 211005Z AUTO 00000KT 1 1/4SM BR CLR 00/00 A3014 820 100 -700 000/00 RMK AO2 T00000000
14926KSTC STC20170421041011104/21/17 04:10:31  5-MIN KSTC 211010Z AUTO 00000KT 3SM BR CLR 00/00 A3014 820 100 -700 000/00 RMK AO2 T00000000
14926KSTC STC20170421041511104/21/17 04:15:31  5-MIN KSTC 211015Z AUTO 00000KT 3SM BR CLR 00/00 A3014 820 100 -700 000/00 RMK AO2 T00000000
14926KSTC STC20170421042011104/21/17 04:20:31  5-MIN KSTC 211020Z AUTO 00000KT 3SM BR CLR 00/00 A3014 820 100 -700 000/00 RMK AO2 T00000000
14926KSTC STC20170421042512104/21/17 04:25:31  5-MIN KSTC 211025Z AUTO 00000KT 2SM BR CLR M01/M01 A3014 820 100 -800 000/00 RMK AO2 VIS 1V5 T10061006
14926KSTC STC20170421043011304/21/17 04:30:31  5-MIN KSTC 211030Z AUTO 00000KT 1SM BR CLR M01/M01 A3014 820 100 -800 000/00 RMK AO2 T10061006
14926KSTC STC20170421043511704/21/17 04:35:31  5-MIN KSTC 211035Z AUTO 00000KT 1 1/2SM BR CLR M01/M01 A3014 820 100 -800 000/00 RMK AO2 T10061006
14926KSTC STC20170421044011504/21/17 04:40:31  5-MIN KSTC 211040Z AUTO 31003KT 1 1/2SM BR CLR 00/00 A3015 820 100 -700 310/03 RMK AO2 T00000000
14926KSTC STC20170421044511304/21/17 04:45:31  5-MIN KSTC 211045Z AUTO 00000KT 3/4SM BR CLR 00/00 A3015 820 100 -700 000/00 RMK AO2 T00000000
14926KSTC STC20170421045010304/21/17 04:50:31  5-MIN KSTC 211050Z AUTO 31004KT 3/4SM BR CLR 00/00 A3015 820 100 -700 310/04 RMK AO2
14926KSTC STC20170421045511504/21/17 04:55:31  5-MIN KSTC 211055Z AUTO 31004KT 1 1/4SM BR CLR 00/00 A3015 820 100 -700 310/04 RMK AO2 T00000000
14926KSTC STC20170421050013304/21/17 05:00:31  5-MIN KSTC 211100Z AUTO 33003KT 1 3/4SM BR CLR M01/M01 A3015 820 100 -900 330/03 RMK AO2 VIS 3/4V3 I1000 T10111011
14926KSTC STC20170421050512304/21/17 05:05:31  5-MIN KSTC 211105Z AUTO 00000KT 1 1/2SM BR CLR M01/M01 A3015 820 100 -900 000/00 RMK AO2 I1000 T10111011
14926KSTC STC20170421051012304/21/17 05:10:31  5-MIN KSTC 211110Z AUTO 00000KT 1 1/2SM BR CLR M01/M01 A3015 820 100 -800 000/00 RMK AO2 I1000 T10061006
14926KSTC STC20170421051513304/21/17 05:15:31  5-MIN KSTC 211115Z AUTO 00000KT 1 3/4SM BR CLR M01/M01 A3014 820 100 -800 000/00 RMK AO2 VIS 3/4V4 I1000 T10061006
14926KSTC STC20170421052013104/21/17 05:20:31  5-MIN KSTC 211120Z AUTO 00000KT 1 1/2SM BR CLR 00/00 A3015 820 100 -700 000/00 RMK AO2 VIS 3/4V4 I1000 T00000000
14926KSTC STC20170421151510304/21/17 15:15:31  5-MIN KSTC 212115Z 32008KT 10SM CLR 17/00 A3019 780 32 1200 320/08 RMK AO2 T01670000
14926KSTC STC20170421152011004/21/17 15:20:31  5-MIN KSTC 212120Z 34005G14KT 10SM CLR 17/M01 A3019 780 31 1200 330/05G14 RMK AO2 T01671006
14926KSTC STC20170421152510404/21/17 15:25:31  5-MIN KSTC 212125Z 31008KT 10SM CLR 17/M01 A3019 780 31 1200 310/08 RMK AO2 T01671006
14926KSTC STC20170421153010304/21/17 15:30:31  5-MIN KSTC 212130Z 34006KT 10SM CLR 17/00 A3019 780 32 1200 340/06 RMK AO2 T01670000
14926KSTC STC20170421153510304/21/17 15:35:31  5-MIN KSTC 212135Z 35005KT 10SM CLR 17/01 A3019 780 33 1200 350/05 RMK AO2 T01670006
14926KSTC STC20170421154010304/21/17 15:40:31  5-MIN KSTC 212140Z 36007KT 10SM CLR 17/01 A3019 780 33 1200 360/07 RMK AO2 T01670006
14926KSTC STC20170421154510304/21/17 15:45:31  5-MIN KSTC 212145Z 36004KT 10SM CLR 17/01 A3019 780 33 1200 350/04 RMK AO2 T01670006
14926KSTC STC20170421155011004/21/17 15:50:31  5-MIN KSTC 212150Z 34004KT 10SM CLR 17/00 A3019 780 32 1200 340/04 RMK AO2 SLP237 T01670000
14926KSTC STC20170421155510304/21/17 15:55:31  5-MIN KSTC 212155Z 36007KT 10SM CLR 17/00 A3019 780 31 1300 360/07 RMK AO2 T01720000
14926KSTC STC20170421160010304/21/17 16:00:31  5-MIN KSTC 212200Z 01005KT 10SM CLR 17/01 A3019 780 33 1200 010/05 RMK AO2 T01670006
14926KSTC STC20170421160510304/21/17 16:05:31  5-MIN KSTC 212205Z 36006KT 10SM CLR 17/01 A3019 780 33 1200 360/06 RMK AO2 T01670006
14926KSTC STC20170421161010304/21/17 16:10:31  5-MIN KSTC 212210Z VRB03KT 10SM CLR 17/00 A3019 780 32 1200 VRB/03 RMK AO2 T01670000
14926KSTC STC20170421161510304/21/17 16:15:31  5-MIN KSTC 212215Z 36008KT 10SM CLR 17/00 A3019 780 32 1200 360/08 RMK AO2 T01670000
14926KSTC STC20170421162010304/21/17 16:20:31  5-MIN KSTC 212220Z 35008KT 10SM CLR 17/01 A3019 780 33 1200 350/08 RMK AO2 T01670006
14926KSTC STC20170421162510304/21/17 16:25:31  5-MIN KSTC 212225Z 36005KT 10SM CLR 17/01 A3019 780 33 1200 360/05 RMK AO2 T01670006
14926KSTC STC20170421163010304/21/17 16:30:31  5-MIN KSTC 212230Z 33005KT 10SM CLR 17/01 A3019 770 33 1200 330/05 RMK AO2 T01670006
14926KSTC STC20170421163510304/21/17 16:35:31  5-MIN KSTC 212235Z 34007KT 10SM CLR 17/01 A3020 770 33 1200 330/07 RMK AO2 T01670006
14926KSTC STC20170421164010304/21/17 16:40:31  5-MIN KSTC 212240Z 31004KT 10SM CLR 17/00 A3020 770 32 1200 310/04 RMK AO2 T01670000
14926KSTC STC20170421164510304/21/17 16:45:31  5-MIN KSTC 212245Z VRB06KT 10SM CLR 17/00 A3020 770 32 1200 VRB/06 RMK AO2 T01670000
14926KSTC STC20170421165011004/21/17 16:50:31  5-MIN KSTC 212250Z 01005KT 10SM CLR 17/00 A3020 770 32 1200 010/05 RMK AO2 SLP240 T01670000
14926KSTC STC20170421165510304/21/17 16:55:31  5-MIN KSTC 212255Z 36007KT 10SM CLR 17/00 A3020 770 31 1300 360/07 RMK AO2 T01720000
14926KSTC STC20170421170010304/21/17 17:00:31  5-MIN KSTC 212300Z 01006KT 10SM CLR 17/00 A3019 770 32 1200 010/06 RMK AO2 T01670000
14926KSTC STC20170421170510404/21/17 17:05:31  5-MIN KSTC 212305Z 36006KT 10SM CLR 17/M01 A3019 780 31 1200 360/06 RMK AO2 T01671006
14926KSTC STC20170421171010304/21/17 17:10:31  5-MIN KSTC 212310Z 01008KT 10SM CLR 17/00 A3019 780 32 1200 010/08 RMK AO2 T01670000
14926KSTC STC20170421171510304/21/17 17:15:31  5-MIN KSTC 212315Z 01006KT 10SM CLR 17/00 A3019 780 32 1200 010/06 RMK AO2 T01670000
14926KSTC STC20170421172010304/21/17 17:20:31  5-MIN KSTC 212320Z 01006KT 10SM CLR 17/00 A3019 780 32 1200 010/06 RMK AO2 T01670000
14926KSTC STC20170421172510304/21/17 17:25:31  5-MIN KSTC 212325Z 34007KT 10SM CLR 17/00 A3019 780 32 1200 340/07 RMK AO2 T01670000
14926KSTC STC20170421173010304/21/17 17:30:31  5-MIN KSTC 212330Z 33007KT 10SM CLR 17/00 A3019 780 32 1200 330/07 RMK AO2 T01670000
14926KSTC STC20170421173510304/21/17 17:35:31  5-MIN KSTC 212335Z 03007KT 10SM CLR 16/00 A3019 780 33 1100 030/07 RMK AO2 T01610000
14926KSTC STC20170421174010304/21/17 17:40:31  5-MIN KSTC 212340Z VRB03KT 10SM CLR 17/00 A3019 780 32 1200 VRB/03 RMK AO2 T01670000
14926KSTC STC20170421174510304/21/17 17:45:31  5-MIN KSTC 212345Z 01006KT 10SM CLR 17/01 A3019 780 33 1200 010/06 RMK AO2 T01670006
14926KSTC STC20170421175012804/21/17 17:50:31  5-MIN KSTC 212350Z 01007KT 10SM CLR 16/00 A3018 780 33 1100 010/07 RMK AO2 SLP236 T01610000 10172 20144 51003
14926KSTC STC20170421175510304/21/17 17:55:31  5-MIN KSTC 212355Z 36008KT 10SM CLR 16/01 A3018 780 34 1100 360/08 RMK AO2 T01610006
14926KSTC STC20170421180010304/21/17 18:00:31  5-MIN KSTC 220000Z 01006KT 10SM CLR 16/01 A3018 780 34 1100 010/06 RMK AO2 T01610006
14926KSTC STC20170421180510304/21/17 18:05:31  5-MIN KSTC 220005Z 01007KT 10SM CLR 16/01 A3018 780 34 1100 010/07 RMK AO2 T01610006
14926KSTC STC20170421181010304/21/17 18:10:31  5-MIN KSTC 220010Z 02006KT 10SM CLR 16/00 A3018 790 33 1100 020/06 RMK AO2 T01610000
14926KSTC STC20170421181510304/21/17 18:15:31  5-MIN KSTC 220015Z 01005KT 10SM CLR 16/01 A3018 790 34 1100 010/05 RMK AO2 T01610006
14926KSTC STC20170421182010304/21/17 18:20:31  5-MIN KSTC 220020Z 01005KT 10SM CLR 16/01 A3018 790 36 1100 010/05 RMK AO2 T01610011
14926KSTC STC20170421182510304/21/17 18:25:31  5-MIN KSTC 220025Z 03003KT 10SM CLR 16/01 A3018 790 36 1100 030/03 RMK AO2 T01560006
14926KSTC STC20170421183010304/21/17 18:30:31  5-MIN KSTC 220030Z 02003KT 10SM CLR 16/01 A3018 790 36 1100 020/03 RMK AO2 T01560006
14926KSTC STC20170421183510304/21/17 18:35:31  5-MIN KSTC 220035Z 03006KT 10SM CLR 16/01 A3018 790 36 1100 030/06 RMK AO2 T01560006
14926KSTC STC20170421184010304/21/17 18:40:31  5-MIN KSTC 220040Z 04004KT 10SM CLR 15/01 A3018 790 37 1000 040/04 RMK AO2 T01500006
14926KSTC STC20170421184510304/21/17 18:45:31  5-MIN KSTC 220045Z 05003KT 10SM CLR 15/01 A3018 780 38 1000 050/03 RMK AO2 T01500011
14926KSTC STC20170421185011004/21/17 18:50:31  5-MIN KSTC 220050Z 05003KT 10SM CLR 15/01 A3018 780 38 1000 050/03 RMK AO2 SLP235 T01500011
14926KSTC STC20170421185510204/21/17 18:55:31  5-MIN KSTC 220055Z 04003KT 10SM CLR 14/01 A3019 780 40 900 040/03 RMK AO2 T01440011
14926KSTC STC20170421190010204/21/17 19:00:31  5-MIN KSTC 220100Z 05003KT 10SM CLR 14/02 A3019 780 43 900 050/03 RMK AO2 T01390017
14926KSTC STC20170421190510204/21/17 19:05:31  5-MIN KSTC 220105Z 00000KT 10SM CLR 13/02 A3019 780 45 800 000/00 RMK AO2 T01330017
14926KSTC STC20170421191010204/21/17 19:10:31  5-MIN KSTC 220110Z 00000KT 10SM CLR 13/02 A3019 780 45 800 000/00 RMK AO2 T01330017
14926KSTC STC20170421191510204/21/17 19:15:31  5-MIN KSTC 220115Z 00000KT 10SM CLR 13/01 A3019 780 44 700 000/00 RMK AO2 T01280011
14926KSTC STC20170421192010204/21/17 19:20:31  5-MIN KSTC 220120Z 05003KT 10SM CLR 13/01 A3019 780 43 700 050/03 RMK AO2 T01280006
14926KSTC STC20170421192510204/21/17 19:25:31  5-MIN KSTC 220125Z 04003KT 10SM CLR 12/01 A3019 780 46 700 040/03 RMK AO2 T01220011
14926KSTC STC20170421193010204/21/17 19:30:31  5-MIN KSTC 220130Z 03003KT 10SM CLR 12/01 A3019 780 48 600 030/03 RMK AO2 T01170011
14926KSTC STC20170421193510204/21/17 19:35:31  5-MIN KSTC 220135Z 00000KT 10SM CLR 11/02 A3019 770 54 500 000/00 RMK AO2 T01060017
14926KSTC STC20170421194010204/21/17 19:40:31  5-MIN KSTC 220140Z 00000KT 10SM CLR 11/02 A3019 770 54 500 000/00 RMK AO2 T01060017
14926KSTC STC20170421194510204/21/17 19:45:31  5-MIN KSTC 220145Z 04003KT 10SM CLR 11/02 A3020 770 54 500 040/03 RMK AO2 T01060017
14926KSTC STC20170421195010904/21/17 19:50:31  5-MIN KSTC 220150Z 03003KT 10SM CLR 11/02 A3020 770 54 500 030/03 RMK AO2 SLP238 T01060017
14926KSTC STC20170421195510204/21/17 19:55:31  5-MIN KSTC 220155Z 00000KT 10SM CLR 10/02 A3019 770 56 400 000/00 RMK AO2 T01000017
14926KSTC STC20170421200010204/21/17 20:00:31  5-MIN KSTC 220200Z 00000KT 10SM CLR 11/01 A3019 770 52 500 000/00 RMK AO2 T01060011
14926KSTC STC20170421200510204/21/17 20:05:31  5-MIN KSTC 220205Z 00000KT 10SM CLR 11/01 A3020 770 52 500 000/00 RMK AO2 T01060011
14926KSTC STC20170421201010204/21/17 20:10:31  5-MIN KSTC 220210Z 00000KT 10SM CLR 10/01 A3020 770 54 400 000/00 RMK AO2 T01000011
14926KSTC STC20170421201510204/21/17 20:15:31  5-MIN KSTC 220215Z 00000KT 10SM CLR 10/02 A3020 770 56 400 000/00 RMK AO2 T01000017
14926KSTC STC20170421202010204/21/17 20:20:31  5-MIN KSTC 220220Z 00000KT 10SM CLR 09/02 A3020 770 58 300 000/00 RMK AO2 T00940017
14926KSTC STC20170421202510204/21/17 20:25:31  5-MIN KSTC 220225Z 00000KT 10SM CLR 09/02 A3020 770 63 300 000/00 RMK AO2 T00890022
14926KSTC STC20170421203010204/21/17 20:30:31  5-MIN KSTC 220230Z 00000KT 10SM CLR 09/02 A3020 770 60 300 000/00 RMK AO2 T00890017
14926KSTC STC20170421203510204/21/17 20:35:31  5-MIN KSTC 220235Z 00000KT 10SM CLR 09/01 A3020 770 58 300 000/00 RMK AO2 T00890011
14926KSTC STC20170421204010204/21/17 20:40:31  5-MIN KSTC 220240Z 00000KT 10SM CLR 08/02 A3020 770 65 100 000/00 RMK AO2 T00780017
14926KSTC STC20170421204510204/21/17 20:45:31  5-MIN KSTC 220245Z 00000KT 10SM CLR 07/02 A3020 770 70 100 000/00 RMK AO2 T00720022
14926KSTC STC20170421205011504/21/17 20:50:31  5-MIN KSTC 220250Z 00000KT 10SM CLR 07/03 A3020 770 73 100 000/00 RMK AO2 SLP242 T00720028 58002
14926KSTC STC20170421205510204/21/17 20:55:31  5-MIN KSTC 220255Z 00000KT 10SM CLR 07/02 A3020 770 70 100 000/00 RMK AO2 T00720022
14926KSTC STC20170421210010204/21/17 21:00:31  5-MIN KSTC 220300Z 00000KT 10SM CLR 08/02 A3020 770 68 100 000/00 RMK AO2 T00780022
14926KSTC STC20170421210510204/21/17 21:05:31  5-MIN KSTC 220305Z 00000KT 10SM CLR 07/03 A3020 770 73 100 000/00 RMK AO2 T00720028
14926KSTC STC20170421211010004/21/17 21:10:31  5-MIN KSTC 220310Z 00000KT 10SM CLR 07/03 A3020 770 79 0 000/00 RMK AO2 T00670033
14926KSTC STC20170421211510004/21/17 21:15:31  5-MIN KSTC 220315Z 00000KT 10SM CLR 07/03 A3021 760 76 0 000/00 RMK AO2 T00670028
14926KSTC STC20170421212010004/21/17 21:20:31  5-MIN KSTC 220320Z 00000KT 10SM CLR 07/02 A3021 760 70 0 000/00 RMK AO2 T00720022
14926KSTC STC20170421212510004/21/17 21:25:31  5-MIN KSTC 220325Z 00000KT 10SM CLR 07/02 A3021 760 70 0 000/00 RMK AO2 T00670017
14926KSTC STC20170421213010004/21/17 21:30:31  5-MIN KSTC 220330Z 00000KT 10SM CLR 07/02 A3021 760 70 0 000/00 RMK AO2 T00670017
14926KSTC STC20170421213510004/21/17 21:35:31  5-MIN KSTC 220335Z 36003KT 10SM CLR 07/03 A3021 760 76 0 360/03 RMK AO2 T00670028
14926KSTC STC20170421214010004/21/17 21:40:31  5-MIN KSTC 220340Z 36003KT 10SM CLR 06/03 A3021 760 79 0 360/03 RMK AO2 T00610028
14926KSTC STC20170421214510004/21/17 21:45:31  5-MIN KSTC 220345Z 01003KT 10SM CLR 06/03 A3021 760 79 0 360/03 RMK AO2 T00610028
14926KSTC STC20170421215010704/21/17 21:50:31  5-MIN KSTC 220350Z 01003KT 10SM CLR 07/02 A3020 760 73 0 010/03 RMK AO2 SLP242 T00670022
14926KSTC STC20170421215510004/21/17 21:55:31  5-MIN KSTC 220355Z 00000KT 10SM CLR 06/02 A3020 760 76 0 000/00 RMK AO2 T00610022
14926KSTC STC20170421220010304/21/17 22:00:31  5-MIN KSTC 220400Z 00000KT 10SM CLR 06/03 A3020 770 82 -100 000/00 RMK AO2 T00560028
14926KSTC STC20170421220510004/21/17 22:05:31  5-MIN KSTC 220405Z 00000KT 10SM CLR 06/02 A3020 770 76 0 000/00 RMK AO2 T00610022
14926KSTC STC20170421221010304/21/17 22:10:31  5-MIN KSTC 220410Z 00000KT 10SM CLR 06/02 A3020 770 79 -100 000/00 RMK AO2 T00560022
14926KSTC STC20170421221510004/21/17 22:15:31  5-MIN KSTC 220415Z 00000KT 10SM CLR 06/02 A3020 770 73 0 000/00 RMK AO2 T00610017
14926KSTC STC20170421222010004/21/17 22:20:31  5-MIN KSTC 220420Z 00000KT 10SM CLR 06/02 A3020 770 76 0 000/00 RMK AO2 T00610022
14926KSTC STC20170421222510004/21/17 22:25:31  5-MIN KSTC 220425Z 00000KT 10SM CLR 06/02 A3020 770 76 0 000/00 RMK AO2 T00610022
14926KSTC STC20170421223010304/21/17 22:30:31  5-MIN KSTC 220430Z 00000KT 10SM CLR 06/02 A3020 770 79 -100 000/00 RMK AO2 T00560022
14926KSTC STC20170421223510304/21/17 22:35:31  5-MIN KSTC 220435Z 00000KT 10SM CLR 06/03 A3020 770 82 -100 000/00 RMK AO2 T00560028
14926KSTC STC20170421224010304/21/17 22:40:31  5-MIN KSTC 220440Z 00000KT 10SM CLR 06/02 A3020 770 79 -100 000/00 RMK AO2 T00560022
14926KSTC STC20170421224510304/21/17 22:45:31  5-MIN KSTC 220445Z 00000KT 10SM CLR 05/02 A3020 770 82 -200 000/00 RMK AO2 T00500022
14926KSTC STC20170421225011004/21/17 22:50:31  5-MIN KSTC 220450Z 00000KT 10SM CLR 06/03 A3020 770 82 -100 000/00 RMK AO2 SLP241 T00560028
14926KSTC STC20170421225510304/21/17 22:55:31  5-MIN KSTC 220455Z 00000KT 10SM CLR 06/03 A3020 760 82 -100 000/00 RMK AO2 T00560028
14926KSTC STC20170421230010304/21/17 23:00:31  5-MIN KSTC 220500Z 29003KT 10SM CLR 05/03 A3021 760 85 -200 290/03 RMK AO2 T00500028
14926KSTC STC20170421230510304/21/17 23:05:31  5-MIN KSTC 220505Z 00000KT 10SM CLR 04/02 A3021 760 85 -200 000/00 RMK AO2 T00440022
14926KSTC STC20170421231010304/21/17 23:10:31  5-MIN KSTC 220510Z 00000KT 10SM CLR 05/03 A3021 760 85 -200 000/00 RMK AO2 T00500028
14926KSTC STC20170421231510304/21/17 23:15:31  5-MIN KSTC 220515Z 00000KT 10SM CLR 04/03 A3021 760 89 -200 000/00 RMK AO2 T00440028
14926KSTC STC20170421232010304/21/17 23:20:31  5-MIN KSTC 220520Z 00000KT 10SM CLR 05/03 A3021 760 85 -200 000/00 RMK AO2 T00500028
14926KSTC STC20170421232510304/21/17 23:25:31  5-MIN KSTC 220525Z 00000KT 10SM CLR 04/03 A3021 760 89 -200 000/00 RMK AO2 T00440028
14926KSTC STC20170421233010304/21/17 23:30:31  5-MIN KSTC 220530Z 00000KT 10SM CLR 04/02 A3021 760 85 -200 000/00 RMK AO2 T00440022
14926KSTC STC20170421233510304/21/17 23:35:31  5-MIN KSTC 220535Z 00000KT 10SM CLR 04/02 A3021 760 85 -200 000/00 RMK AO2 T00440022
14926KSTC STC20170421234010304/21/17 23:40:31  5-MIN KSTC 220540Z 00000KT 10SM CLR 04/02 A3021 760 85 -200 000/00 RMK AO2 T00440022
14926KSTC STC20170421234510304/21/17 23:45:31  5-MIN KSTC 220545Z 00000KT 10SM CLR 05/02 A3021 760 82 -200 000/00 RMK AO2 T00500022
14926KSTC STC20170421235013804/21/17 23:50:31  5-MIN KSTC 220550Z 00000KT 10SM CLR 04/02 A3021 760 85 -200 000/00 RMK AO2 SLP244 T00440022 10161 20044 401721011 53006
14926KSTC STC20170421235510304/21/17 23:55:31  5-MIN KSTC 220555Z 00000KT 10SM CLR 06/02 A3021 760 79 -100 000/00 RMK AO2 T00560022
14926KSTC STC20170422000010304/22/17 00:00:31  5-MIN KSTC 220600Z 00000KT 10SM CLR 05/02 A3021 760 79 -200 000/00 RMK AO2 T00500017
14926KSTC STC20170422000510304/22/17 00:05:31  5-MIN KSTC 220605Z 00000KT 10SM CLR 04/02 A3021 760 82 -200 000/00 RMK AO2 T00440017
14926KSTC STC20170422001010304/22/17 00:10:31  5-MIN KSTC 220610Z 00000KT 10SM CLR 04/02 A3021 760 82 -200 000/00 RMK AO2 T00440017
14926KSTC STC20170422001510304/22/17 00:15:31  5-MIN KSTC 220615Z 00000KT 10SM CLR 04/02 A3021 760 85 -300 000/00 RMK AO2 T00390017
14926KSTC STC20170422002010304/22/17 00:20:31  5-MIN KSTC 220620Z 00000KT 10SM CLR 04/02 A3022 750 82 -300 000/00 RMK AO2 T00440017
14926KSTC STC20170422002510304/22/17 00:25:31  5-MIN KSTC 220625Z 00000KT 10SM CLR 04/02 A3022 750 85 -300 000/00 RMK AO2 T00390017
14926KSTC STC20170422003010304/22/17 00:30:31  5-MIN KSTC 220630Z 00000KT 10SM CLR 04/02 A3022 750 85 -300 000/00 RMK AO2 T00390017
14926KSTC STC20170422003510304/22/17 00:35:31  5-MIN KSTC 220635Z 00000KT 10SM CLR 04/02 A3022 750 85 -300 000/00 RMK AO2 T00390017
14926KSTC STC20170422004010304/22/17 00:40:31  5-MIN KSTC 220640Z 00000KT 10SM CLR 04/02 A3021 760 85 -300 000/00 RMK AO2 T00390017
14926KSTC STC20170422004510304/22/17 00:45:31  5-MIN KSTC 220645Z 01003KT 10SM CLR 04/02 A3021 760 85 -300 010/03 RMK AO2 T00390017
14926KSTC STC20170422005011004/22/17 00:50:31  5-MIN KSTC 220650Z 00000KT 10SM CLR 04/03 A3021 760 92 -300 000/00 RMK AO2 SLP245 T00390028
14926KSTC STC20170422005510304/22/17 00:55:31  5-MIN KSTC 220655Z 00000KT 10SM CLR 03/02 A3021 760 92 -400 000/00 RMK AO2 T00330022
14926KSTC STC20170422010010304/22/17 01:00:31  5-MIN KSTC 220700Z 00000KT 10SM CLR 04/02 A3021 760 89 -300 000/00 RMK AO2 T00390022
14926KSTC STC20170422010510304/22/17 01:05:31  5-MIN KSTC 220705Z 00000KT 10SM CLR 03/02 A3021 760 92 -400 000/00 RMK AO2 T00330022
14926KSTC STC20170422011010304/22/17 01:10:31  5-MIN KSTC 220710Z 00000KT 10SM CLR 03/02 A3021 760 96 -500 000/00 RMK AO2 T00280022
14926KSTC STC20170422011510304/22/17 01:15:31  5-MIN KSTC 220715Z 34003KT 10SM CLR 03/02 A3022 750 92 -400 340/03 RMK AO2 T00330022
14926KSTC STC20170422012010304/22/17 01:20:31  5-MIN KSTC 220720Z 35004KT 10SM CLR 02/02 A3021 760 96 -500 350/04 RMK AO2 T00220017
14926KSTC STC20170422012510304/22/17 01:25:31  5-MIN KSTC 220725Z 00000KT 10SM CLR 02/02 A3021 760 96 -500 000/00 RMK AO2 T00220017
14926KSTC STC20170422013010304/22/17 01:30:31  5-MIN KSTC 220730Z 36003KT 10SM CLR 02/02 A3021 760 96 -500 360/03 RMK AO2 T00220017
14926KSTC STC20170422013510304/22/17 01:35:31  5-MIN KSTC 220735Z 00000KT 10SM CLR 03/02 A3021 760 92 -500 000/00 RMK AO2 T00280017
14926KSTC STC20170422014010304/22/17 01:40:31  5-MIN KSTC 220740Z 00000KT 10SM CLR 02/02 A3021 760 96 -500 000/00 RMK AO2 T00220017
14926KSTC STC20170422014510304/22/17 01:45:31  5-MIN KSTC 220745Z 00000KT 10SM CLR 03/02 A3021 760 92 -400 000/00 RMK AO2 T00330022
14926KSTC STC20170422015011004/22/17 01:50:31  5-MIN KSTC 220750Z 00000KT 10SM CLR 03/02 A3021 760 92 -400 000/00 RMK AO2 SLP244 T00330022
14926KSTC STC20170422015510304/22/17 01:55:31  5-MIN KSTC 220755Z 00000KT 10SM CLR 03/02 A3021 760 92 -400 000/00 RMK AO2 T00330022
14926KSTC STC20170422020010304/22/17 02:00:31  5-MIN KSTC 220800Z 31003KT 10SM CLR 03/02 A3021 760 92 -400 310/03 RMK AO2 T00330022
14926KSTC STC20170422020510304/22/17 02:05:31  5-MIN KSTC 220805Z 00000KT 10SM CLR 03/02 A3021 760 92 -400 000/00 RMK AO2 T00330022
14926KSTC STC20170422021010304/22/17 02:10:31  5-MIN KSTC 220810Z 00000KT 10SM CLR 03/02 A3021 760 92 -400 000/00 RMK AO2 T00330022
14926KSTC STC20170422021510304/22/17 02:15:31  5-MIN KSTC 220815Z 11003KT 10SM CLR 02/02 A3021 760 96 -500 110/03 RMK AO2 T00220017
14926KSTC STC20170422022010304/22/17 02:20:31  5-MIN KSTC 220820Z 11003KT 10SM CLR 03/02 A3021 760 92 -500 110/03 RMK AO2 T00280017
14926KSTC STC20170422022510304/22/17 02:25:31  5-MIN KSTC 220825Z 13003KT 10SM CLR 03/02 A3021 760 89 -400 130/03 RMK AO2 T00330017
14926KSTC STC20170422023010304/22/17 02:30:31  5-MIN KSTC 220830Z 00000KT 10SM CLR 03/01 A3021 760 89 -500 000/00 RMK AO2 T00280011
14926KSTC STC20170422023510304/22/17 02:35:31  5-MIN KSTC 220835Z 00000KT 10SM CLR 03/02 A3022 750 92 -500 000/00 RMK AO2 T00280017
14926KSTC STC20170422024010304/22/17 02:40:31  5-MIN KSTC 220840Z 00000KT 10SM CLR 03/02 A3021 760 92 -500 000/00 RMK AO2 T00280017
14926KSTC STC20170422024510304/22/17 02:45:31  5-MIN KSTC 220845Z 00000KT 10SM CLR 03/02 A3022 750 92 -500 000/00 RMK AO2 T00280017
14926KSTC STC20170422025011604/22/17 02:50:31  5-MIN KSTC 220850Z 00000KT 10SM CLR 03/02 A3022 750 92 -500 000/00 RMK AO2 SLP245 T00280017 53003
14926KSTC STC20170422025510304/22/17 02:55:31  5-MIN KSTC 220855Z 00000KT 10SM CLR 02/01 A3022 750 92 -500 000/00 RMK AO2 T00220011
14926KSTC STC20170422030010304/22/17 03:00:31  5-MIN KSTC 220900Z 00000KT 10SM CLR 02/01 A3022 750 96 -600 000/00 RMK AO2 T00170011
14926KSTC STC20170422030510304/22/17 03:05:31  5-MIN KSTC 220905Z 00000KT 10SM CLR 02/02 A3022 750 96 -500 000/00 RMK AO2 T00220017
14926KSTC STC20170422031010304/22/17 03:10:31  5-MIN KSTC 220910Z 00000KT 10SM CLR 02/01 A3022 750 92 -500 000/00 RMK AO2 T00220011
14926KSTC STC20170422132510904/22/17 13:25:31  5-MIN KSTC 221925Z 26014G18KT 10SM CLR 19/03 A3018 790 33 1500 260/14G18 RMK AO2 T01940028
14926KSTC STC20170422133010304/22/17 13:30:31  5-MIN KSTC 221930Z 24010KT 10SM CLR 19/02 A3017 790 32 1500 240/10 RMK AO2 T01890022
14926KSTC STC20170422133510304/22/17 13:35:31  5-MIN KSTC 221935Z 25011KT 10SM CLR 19/03 A3017 790 34 1500 250/11 RMK AO2 T01890028
14926KSTC STC20170422134010304/22/17 13:40:31  5-MIN KSTC 221940Z 27011KT 10SM CLR 19/03 A3017 800 33 1500 270/11 RMK AO2 T01940028
14926KSTC STC20170422134510304/22/17 13:45:31  5-MIN KSTC 221945Z 23012KT 10SM CLR 19/02 A3017 800 32 1500 230/12 RMK AO2 T01890022
14926KSTC STC20170422135011604/22/17 13:50:31  5-MIN KSTC 221950Z 26011G18KT 10SM CLR 19/02 A3017 800 32 1500 260/11G18 RMK AO2 SLP227 T01890022
14926KSTC STC20170422135510304/22/17 13:55:31  5-MIN KSTC 221955Z 28012KT 10SM CLR 19/02 A3017 800 31 1500 280/12 RMK AO2 T01890017
14926KSTC STC20170422140010904/22/17 14:00:31  5-MIN KSTC 222000Z 25009G18KT 10SM CLR 19/03 A3016 800 33 1500 250/09G18 RMK AO2 T01940028
14926KSTC STC20170422140512504/22/17 14:05:31  5-MIN KSTC 222005Z 24011G18KT 230V300 10SM CLR 19/02 A3016 800 31 1500 240/11G18 230V300 RMK AO2 T01940022
14926KSTC STC20170422141010704/22/17 14:10:31  5-MIN KSTC 222010Z AUTO 29012G19KT 19/02 A3016 810 31 1600 280/12G19 RMK AO2 T01940022 $
14926KSTC STC20170422141510704/22/17 14:15:31  5-MIN KSTC 222015Z AUTO 28012G19KT 19/02 A3016 810 31 1600 280/12G19 RMK AO2 T01940022 $
14926KSTC STC20170422142011204/22/17 14:20:31  5-MIN KSTC 222020Z AUTO 26014G19KT 10SM 19/01 A3015 810 30 1500 250/14G19 RMK AO2 T01890011 $
14926KSTC STC20170422142511204/22/17 14:25:31  5-MIN KSTC 222025Z AUTO 26008G19KT 10SM 19/01 A3015 810 30 1500 250/08G19 RMK AO2 T01890011 $
14926KSTC STC20170422143011204/22/17 14:30:31  5-MIN KSTC 222030Z AUTO 27012G18KT 10SM 19/01 A3015 810 29 1600 270/12G18 RMK AO2 T01940011 $
14926KSTC STC20170422143511204/22/17 14:35:31  5-MIN KSTC 222035Z AUTO 28014G18KT 10SM 19/02 A3015 820 30 1600 280/14G18 RMK AO2 T01940017 $
14926KSTC STC20170422144011604/22/17 14:40:31  5-MIN KSTC 222040Z AUTO 27009G17KT 10SM CLR 19/02 A3014 820 31 1600 270/09G17 RMK AO2 T01940022 $
14926KSTC STC20170422144511604/22/17 14:45:31  5-MIN KSTC 222045Z AUTO 29015G19KT 10SM CLR 19/02 A3014 820 30 1600 290/15G19 RMK AO2 T01940017 $
14926KSTC STC20170422145011804/22/17 14:50:31  5-MIN KSTC 222050Z 31009G19KT 10SM CLR 19/01 A3014 830 29 1600 310/09G19 RMK AO2 SLP218 T01940011 $
14926KSTC STC20170422145510504/22/17 14:55:31  5-MIN KSTC 222055Z 26007KT 10SM CLR 19/01 A3014 830 29 1600 260/07 RMK AO2 T01940011 $
14926KSTC STC20170422150011104/22/17 15:00:31  5-MIN KSTC 222100Z 25010G18KT 10SM CLR 19/01 A3013 830 29 1600 250/10G18 RMK AO2 T01940011 $
14926KSTC STC20170422150511104/22/17 15:05:31  5-MIN KSTC 222105Z 26011G18KT 10SM CLR 19/01 A3013 830 28 1600 260/11G18 RMK AO2 T01940006 $
14926KSTC STC20170422151011104/22/17 15:10:31  5-MIN KSTC 222110Z 30006G16KT 10SM CLR 19/01 A3013 840 28 1600 290/06G16 RMK AO2 T01940006 $
14926KSTC STC20170422151511204/22/17 15:15:31  5-MIN KSTC 222115Z 25014G18KT 10SM CLR 19/M01 A3013 840 25 1600 240/14G18 RMK AO2 T01941011 $
14926KSTC STC20170422152011204/22/17 15:20:31  5-MIN KSTC 222120Z 28010G18KT 10SM CLR 19/M01 A3013 840 26 1600 280/10G18 RMK AO2 T01941006 $
14926KSTC STC20170422152510504/22/17 15:25:31  5-MIN KSTC 222125Z 26010KT 10SM CLR 19/00 A3012 840 27 1600 260/10 RMK AO2 T01940000 $
14926KSTC STC20170422153011104/22/17 15:30:31  5-MIN KSTC 222130Z 25008G17KT 10SM CLR 19/01 A3012 840 29 1600 250/08G17 RMK AO2 T01940011 $
14926KSTC STC20170422153511104/22/17 15:35:31  5-MIN KSTC 222135Z 25013G17KT 10SM CLR 19/01 A3012 840 28 1600 250/13G17 RMK AO2 T01940006 $
14926KSTC STC20170422154010604/22/17 15:40:31  5-MIN KSTC 222140Z 25011KT 10SM CLR 19/M01 A3012 840 26 1600 250/11 RMK AO2 T01941006 $
14926KSTC STC20170422154510604/22/17 15:45:31  5-MIN KSTC 222145Z 27011KT 10SM CLR 19/M01 A3012 840 26 1600 270/11 RMK AO2 T01941006 $
14926KSTC STC20170422155011204/22/17 15:50:31  5-MIN KSTC 222150Z 26012KT 10SM CLR 19/00 A3012 840 27 1600 260/12 RMK AO2 SLP211 T01940000 $
14926KSTC STC20170422155510504/22/17 15:55:31  5-MIN KSTC 222155Z 27010KT 10SM CLR 19/00 A3012 840 27 1600 270/10 RMK AO2 T01940000 $
14926KSTC STC20170422160010504/22/17 16:00:31  5-MIN KSTC 222200Z 26013KT 10SM CLR 20/01 A3012 840 27 1700 260/13 RMK AO2 T02000006 $
14926KSTC STC20170422160510504/22/17 16:05:31  5-MIN KSTC 222205Z 25008KT 10SM CLR 19/01 A3012 850 29 1500 250/08 RMK AO2 T01890006 $
14926KSTC STC20170422161010504/22/17 16:10:31  5-MIN KSTC 222210Z 25011KT 10SM CLR 19/01 A3012 850 28 1600 250/11 RMK AO2 T01940006 $
14926KSTC STC20170422161510504/22/17 16:15:31  5-MIN KSTC 222215Z 27010KT 10SM CLR 19/01 A3012 850 29 1600 270/10 RMK AO2 T01940011 $
14926KSTC STC20170422162010504/22/17 16:20:31  5-MIN KSTC 222220Z 26010KT 10SM CLR 19/01 A3012 850 29 1600 260/10 RMK AO2 T01940011 $
14926KSTC STC20170422162510504/22/17 16:25:31  5-MIN KSTC 222225Z 26012KT 10SM CLR 19/02 A3012 850 30 1600 260/12 RMK AO2 T01940017 $
14926KSTC STC20170422163010504/22/17 16:30:31  5-MIN KSTC 222230Z 28007KT 10SM CLR 19/01 A3012 850 29 1600 280/07 RMK AO2 T01940011 $
14926KSTC STC20170422163510504/22/17 16:35:31  5-MIN KSTC 222235Z 24009KT 10SM CLR 19/02 A3012 850 30 1600 240/09 RMK AO2 T01940017 $
14926KSTC STC20170422164011104/22/17 16:40:31  5-MIN KSTC 222240Z 26013G17KT 10SM CLR 19/02 A3012 850 30 1600 260/13G17 RMK AO2 T01940017 $
14926KSTC STC20170422164511104/22/17 16:45:31  5-MIN KSTC 222245Z 27008G17KT 10SM CLR 19/02 A3012 850 30 1600 270/08G17 RMK AO2 T01940017 $
14926KSTC STC20170422165011204/22/17 16:50:31  5-MIN KSTC 222250Z 29010KT 10SM CLR 19/02 A3012 850 30 1600 290/10 RMK AO2 SLP210 T01940017 $
14926KSTC STC20170422165510504/22/17 16:55:31  5-MIN KSTC 222255Z 26009KT 10SM CLR 19/02 A3011 850 30 1600 260/09 RMK AO2 T01940017 $
14926KSTC STC20170422170010504/22/17 17:00:31  5-MIN KSTC 222300Z 26009KT 10SM CLR 19/02 A3011 850 31 1600 260/09 RMK AO2 T01940022 $
14926KSTC STC20170422170510504/22/17 17:05:31  5-MIN KSTC 222305Z 25012KT 10SM CLR 19/02 A3011 850 31 1600 250/12 RMK AO2 T01940022 $
14926KSTC STC20170422171010504/22/17 17:10:31  5-MIN KSTC 222310Z 26010KT 10SM CLR 19/02 A3011 850 31 1600 260/10 RMK AO2 T01940022 $
14926KSTC STC20170422171510504/22/17 17:15:31  5-MIN KSTC 222315Z 26012KT 10SM CLR 19/02 A3011 850 31 1600 260/12 RMK AO2 T01940022 $
14926KSTC STC20170422172010504/22/17 17:20:31  5-MIN KSTC 222320Z 29010KT 10SM CLR 19/03 A3011 850 33 1600 290/10 RMK AO2 T01940028 $
14926KSTC STC20170422172510504/22/17 17:25:31  5-MIN KSTC 222325Z 28008KT 10SM CLR 19/03 A3011 860 33 1600 280/08 RMK AO2 T01940028 $
14926KSTC STC20170422173010504/22/17 17:30:31  5-MIN KSTC 222330Z 26009KT 10SM CLR 19/03 A3011 860 33 1600 260/09 RMK AO2 T01940028 $
14926KSTC STC20170422173511104/22/17 17:35:31  5-MIN KSTC 222335Z 28013G18KT 10SM CLR 19/02 A3011 850 32 1500 270/13G18 RMK AO2 T01890022 $
14926KSTC STC20170422174010504/22/17 17:40:31  5-MIN KSTC 222340Z 26012KT 10SM CLR 19/02 A3010 860 32 1500 260/12 RMK AO2 T01890022 $
14926KSTC STC20170422174510504/22/17 17:45:31  5-MIN KSTC 222345Z 26010KT 10SM CLR 19/02 A3010 860 32 1600 260/10 RMK AO2 T01890022 $
14926KSTC STC20170422175012404/22/17 17:50:31  5-MIN KSTC 222350Z 26013KT 10SM CLR 19/02 A3010 860 32 1600 260/13 RMK AO2 SLP206 T01890022 10200 20172 $
14926KSTC STC20170422175510504/22/17 17:55:31  5-MIN KSTC 222355Z 27012KT 10SM CLR 19/02 A3010 860 32 1600 270/12 RMK AO2 T01890022 $
14926KSTC STC20170422180010504/22/17 18:00:31  5-MIN KSTC 230000Z 27010KT 10SM CLR 18/02 A3010 860 34 1500 270/10 RMK AO2 T01830022 $
14926KSTC STC20170422180510504/22/17 18:05:31  5-MIN KSTC 230005Z 26011KT 10SM CLR 18/03 A3010 860 35 1500 260/11 RMK AO2 T01830028 $
14926KSTC STC20170422181010504/22/17 18:10:31  5-MIN KSTC 230010Z 25011KT 10SM CLR 18/03 A3010 860 35 1500 250/11 RMK AO2 T01830028 $
14926KSTC STC20170422181510504/22/17 18:15:31  5-MIN KSTC 230015Z 25012KT 10SM CLR 18/02 A3010 860 34 1500 250/12 RMK AO2 T01830022 $
14926KSTC STC20170422182010504/22/17 18:20:31  5-MIN KSTC 230020Z 25010KT 10SM CLR 18/03 A3009 870 35 1500 250/10 RMK AO2 T01830028 $
14926KSTC STC20170422182510504/22/17 18:25:31  5-MIN KSTC 230025Z 25008KT 10SM CLR 18/02 A3009 870 35 1400 250/08 RMK AO2 T01780022 $
14926KSTC STC20170422183010504/22/17 18:30:31  5-MIN KSTC 230030Z 25008KT 10SM CLR 18/03 A3009 870 38 1400 250/08 RMK AO2 T01780033 $
14926KSTC STC20170422183510504/22/17 18:35:31  5-MIN KSTC 230035Z 26009KT 10SM CLR 17/03 A3009 870 39 1400 260/09 RMK AO2 T01720033 $
14926KSTC STC20170422184010504/22/17 18:40:31  5-MIN KSTC 230040Z 26008KT 10SM CLR 17/03 A3009 870 39 1400 260/08 RMK AO2 T01720033 $
14926KSTC STC20170422184510504/22/17 18:45:31  5-MIN KSTC 230045Z 26008KT 10SM CLR 17/03 A3008 880 39 1400 260/08 RMK AO2 T01720033 $
14926KSTC STC20170422185011204/22/17 18:50:31  5-MIN KSTC 230050Z 25007KT 10SM CLR 17/03 A3008 880 40 1300 250/07 RMK AO2 SLP199 T01670033 $
14926KSTC STC20170422185510504/22/17 18:55:31  5-MIN KSTC 230055Z 25007KT 10SM CLR 16/04 A3008 880 44 1300 250/07 RMK AO2 T01610039 $
14926KSTC STC20170422190010504/22/17 19:00:31  5-MIN KSTC 230100Z 25006KT 10SM CLR 16/04 A3008 880 44 1300 250/06 RMK AO2 T01610039 $
14926KSTC STC20170422190510504/22/17 19:05:31  5-MIN KSTC 230105Z 25007KT 10SM CLR 16/04 A3008 880 45 1200 250/07 RMK AO2 T01560039 $
14926KSTC STC20170422191010504/22/17 19:10:31  5-MIN KSTC 230110Z 24006KT 10SM CLR 16/04 A3008 880 45 1200 240/06 RMK AO2 T01560039 $
14926KSTC STC20170422191510504/22/17 19:15:31  5-MIN KSTC 230115Z 24006KT 10SM CLR 15/04 A3008 880 47 1100 240/06 RMK AO2 T01500039 $
14926KSTC STC20170422192010504/22/17 19:20:31  5-MIN KSTC 230120Z 23005KT 10SM CLR 16/04 A3008 880 45 1200 230/05 RMK AO2 T01560039 $
14926KSTC STC20170422192510504/22/17 19:25:31  5-MIN KSTC 230125Z 23005KT 10SM CLR 16/03 A3008 880 43 1200 230/05 RMK AO2 T01560033 $
14926KSTC STC20170422193010504/22/17 19:30:31  5-MIN KSTC 230130Z 23004KT 10SM CLR 16/03 A3008 880 43 1200 220/04 RMK AO2 T01560033 $
14926KSTC STC20170422193510504/22/17 19:35:31  5-MIN KSTC 230135Z 23004KT 10SM CLR 16/03 A3008 880 43 1200 220/04 RMK AO2 T01560033 $
14926KSTC STC20170422194010504/22/17 19:40:31  5-MIN KSTC 230140Z 23005KT 10SM CLR 15/03 A3008 880 45 1100 230/05 RMK AO2 T01500033 $
14926KSTC STC20170422194510504/22/17 19:45:31  5-MIN KSTC 230145Z 23004KT 10SM CLR 15/03 A3008 880 45 1100 220/04 RMK AO2 T01500033 $
14926KSTC STC20170422195011204/22/17 19:50:31  5-MIN KSTC 230150Z 22004KT 10SM CLR 14/03 A3008 880 48 1000 220/04 RMK AO2 SLP197 T01390033 $
14926KSTC STC20170422195510504/22/17 19:55:31  5-MIN KSTC 230155Z 22003KT 10SM CLR 14/04 A3008 880 50 1000 220/03 RMK AO2 T01390039 $
14926KSTC STC20170422200010404/22/17 20:00:31  5-MIN KSTC 230200Z 22004KT 10SM CLR 13/04 A3008 880 52 900 220/04 RMK AO2 T01330039 $
14926KSTC STC20170422200510404/22/17 20:05:31  5-MIN KSTC 230205Z 22004KT 10SM CLR 13/04 A3008 880 56 900 210/04 RMK AO2 T01280044 $
14926KSTC STC20170422201010404/22/17 20:10:31  5-MIN KSTC 230210Z 22004KT 10SM CLR 12/04 A3008 880 59 800 220/04 RMK AO2 T01220044 $
14926KSTC STC20170422201510404/22/17 20:15:31  5-MIN KSTC 230215Z 23004KT 10SM CLR 13/04 A3008 880 54 900 230/04 RMK AO2 T01280039 $
14926KSTC STC20170422202010404/22/17 20:20:31  5-MIN KSTC 230220Z 22004KT 10SM CLR 13/04 A3008 880 54 900 220/04 RMK AO2 T01280039 $
14926KSTC STC20170422202510404/22/17 20:25:31  5-MIN KSTC 230225Z 24004KT 10SM CLR 12/04 A3008 880 59 800 240/04 RMK AO2 T01220044 $
14926KSTC STC20170422203010404/22/17 20:30:31  5-MIN KSTC 230230Z 24004KT 10SM CLR 12/04 A3009 870 61 700 240/04 RMK AO2 T01170044 $
14926KSTC STC20170422203510404/22/17 20:35:31  5-MIN KSTC 230235Z 23004KT 10SM CLR 12/04 A3009 870 61 700 230/04 RMK AO2 T01170044 $
14926KSTC STC20170422204010404/22/17 20:40:31  5-MIN KSTC 230240Z 22003KT 10SM CLR 12/04 A3009 870 61 700 220/03 RMK AO2 T01170044 $
14926KSTC STC20170422204510404/22/17 20:45:31  5-MIN KSTC 230245Z 22003KT 10SM CLR 12/04 A3009 870 56 800 220/03 RMK AO2 T01220039 $
14926KSTC STC20170422205011704/22/17 20:50:31  5-MIN KSTC 230250Z 21003KT 10SM CLR 12/04 A3008 870 56 800 210/03 RMK AO2 SLP198 T01220039 56012 $
14926KSTC STC20170422205510404/22/17 20:55:31  5-MIN KSTC 230255Z 20004KT 10SM CLR 11/04 A3008 880 63 700 200/04 RMK AO2 T01110044 $
14926KSTC STC20170422210010404/22/17 21:00:31  5-MIN KSTC 230300Z 21004KT 10SM CLR 12/04 A3008 880 61 700 210/04 RMK AO2 T01170044 $
14926KSTC STC20170422210510404/22/17 21:05:31  5-MIN KSTC 230305Z 21004KT 10SM CLR 12/04 A3008 880 61 700 210/04 RMK AO2 T01170044 $
14926KSTC STC20170422211010404/22/17 21:10:31  5-MIN KSTC 230310Z 22004KT 10SM CLR 12/04 A3008 880 61 700 220/04 RMK AO2 T01170044 $
14926KSTC STC20170422211510404/22/17 21:15:31  5-MIN KSTC 230315Z 22004KT 10SM CLR 11/04 A3008 880 63 700 220/04 RMK AO2 T01110044 $
14926KSTC STC20170422212010404/22/17 21:20:31  5-MIN KSTC 230320Z 21004KT 10SM CLR 11/04 A3008 880 61 700 210/04 RMK AO2 T01110039 $
14926KSTC STC20170422212510404/22/17 21:25:31  5-MIN KSTC 230325Z 21004KT 10SM CLR 11/04 A3008 880 61 700 210/04 RMK AO2 T01110039 $
14926KSTC STC20170422213010404/22/17 21:30:31  5-MIN KSTC 230330Z 21004KT 10SM CLR 11/04 A3008 880 66 600 210/04 RMK AO2 T01060044 $
14926KSTC STC20170422213510404/22/17 21:35:31  5-MIN KSTC 230335Z 20005KT 10SM CLR 11/04 A3008 880 66 600 200/05 RMK AO2 T01060044 $
14926KSTC STC20170422214010404/22/17 21:40:31  5-MIN KSTC 230340Z 20005KT 10SM CLR 11/04 A3007 880 66 600 200/05 RMK AO2 T01060044 $
14926KSTC STC20170422214510404/22/17 21:45:31  5-MIN KSTC 230345Z 19005KT 10SM CLR 11/04 A3007 880 63 700 190/05 RMK AO2 T01110044 $
14926KSTC STC20170422215011104/22/17 21:50:31  5-MIN KSTC 230350Z 19005KT 10SM CLR 11/04 A3007 890 66 600 190/05 RMK AO2 SLP194 T01060044 $
14926KSTC STC20170422215510404/22/17 21:55:31  5-MIN KSTC 230355Z 20006KT 10SM CLR 10/05 A3007 890 71 500 200/06 RMK AO2 T01000050 $
14926KSTC STC20170422220010404/22/17 22:00:31  5-MIN KSTC 230400Z 20006KT 10SM CLR 10/04 A3007 890 68 500 200/06 RMK AO2 T01000044 $
14926KSTC STC20170422220510904/22/17 22:05:31  5-MIN KSTC 230405Z AUTO 20006KT 10SM CLR 10/04 A3007 890 68 500 200/06 RMK AO2 T01000044 $
14926KSTC STC20170422221010904/22/17 22:10:31  5-MIN KSTC 230410Z AUTO 20006KT 10SM CLR 10/04 A3007 890 68 500 200/06 RMK AO2 T01000044 $
14926KSTC STC20170422221510904/22/17 22:15:31  5-MIN KSTC 230415Z AUTO 19007KT 10SM CLR 10/04 A3007 890 65 500 190/07 RMK AO2 T01000039 $
14926KSTC STC20170422222010904/22/17 22:20:31  5-MIN KSTC 230420Z AUTO 19007KT 10SM CLR 10/04 A3006 890 65 500 190/07 RMK AO2 T01000039 $
14926KSTC STC20170422222510904/22/17 22:25:31  5-MIN KSTC 230425Z AUTO 19007KT 10SM CLR 10/04 A3006 900 68 500 190/07 RMK AO2 T01000044 $
14926KSTC STC20170422223010904/22/17 22:30:31  5-MIN KSTC 230430Z AUTO 19007KT 10SM CLR 10/04 A3006 900 68 600 190/07 RMK AO2 T01000044 $
14926KSTC STC20170422223510904/22/17 22:35:31  5-MIN KSTC 230435Z AUTO 19007KT 10SM CLR 10/04 A3006 900 68 600 190/07 RMK AO2 T01000044 $
14926KSTC STC20170422224010904/22/17 22:40:31  5-MIN KSTC 230440Z AUTO 19007KT 10SM CLR 10/04 A3006 900 65 600 190/07 RMK AO2 T01000039 $
14926KSTC STC20170422224510904/22/17 22:45:31  5-MIN KSTC 230445Z AUTO 20007KT 10SM CLR 10/04 A3006 900 65 600 200/07 RMK AO2 T01000039 $
14926KSTC STC20170422225011604/22/17 22:50:31  5-MIN KSTC 230450Z AUTO 20007KT 10SM CLR 10/04 A3006 900 65 600 200/07 RMK AO2 SLP189 T01000039 $
14926KSTC STC20170422225510904/22/17 22:55:31  5-MIN KSTC 230455Z AUTO 21007KT 10SM CLR 10/04 A3006 900 65 600 200/07 RMK AO2 T01000039 $
14926KSTC STC20170422230010904/22/17 23:00:31  5-MIN KSTC 230500Z AUTO 21006KT 10SM CLR 10/04 A3006 900 65 600 210/06 RMK AO2 T01000039 $
14926KSTC STC20170422230510904/22/17 23:05:31  5-MIN KSTC 230505Z AUTO 20006KT 10SM CLR 10/04 A3005 900 65 600 200/06 RMK AO2 T01000039 $
14926KSTC STC20170422231010904/22/17 23:10:31  5-MIN KSTC 230510Z AUTO 20006KT 10SM CLR 09/04 A3005 910 68 500 200/06 RMK AO2 T00940039 $
14926KSTC STC20170422231510904/22/17 23:15:31  5-MIN KSTC 230515Z AUTO 20006KT 10SM CLR 09/04 A3005 910 68 500 200/06 RMK AO2 T00940039 $
14926KSTC STC20170422232010904/22/17 23:20:31  5-MIN KSTC 230520Z AUTO 21006KT 10SM CLR 10/04 A3005 900 65 600 210/06 RMK AO2 T01000039 $
14926KSTC STC20170422232510904/22/17 23:25:31  5-MIN KSTC 230525Z AUTO 21005KT 10SM CLR 09/04 A3005 900 68 500 210/05 RMK AO2 T00940039 $
14926KSTC STC20170422233010904/22/17 23:30:31  5-MIN KSTC 230530Z AUTO 22005KT 10SM CLR 09/04 A3005 900 71 400 210/05 RMK AO2 T00890039 $
14926KSTC STC20170422233510904/22/17 23:35:31  5-MIN KSTC 230535Z AUTO 21005KT 10SM CLR 09/04 A3005 900 68 500 210/05 RMK AO2 T00940039 $
14926KSTC STC20170422234010904/22/17 23:40:31  5-MIN KSTC 230540Z AUTO 20006KT 10SM CLR 09/04 A3005 910 68 500 200/06 RMK AO2 T00940039 $
14926KSTC STC20170422234510904/22/17 23:45:31  5-MIN KSTC 230545Z AUTO 21006KT 10SM CLR 10/04 A3005 910 65 600 200/06 RMK AO2 T01000039 $
14926KSTC STC20170422235014404/22/17 23:50:31  5-MIN KSTC 230550Z AUTO 21006KT 10SM CLR 10/03 A3005 910 63 600 210/06 RMK AO2 SLP186 T01000033 10189 20089 402000006 55005 $
14926KSTC STC20170422235510904/22/17 23:55:31  5-MIN KSTC 230555Z AUTO 20006KT 10SM CLR 10/03 A3005 910 63 600 200/06 RMK AO2 T01000033 $
14926KSTC STC20170423000010904/23/17 00:00:31  5-MIN KSTC 230600Z AUTO 21007KT 10SM CLR 10/03 A3005 910 63 600 210/07 RMK AO2 T01000033 $
14926KSTC STC20170423000510904/23/17 00:05:31  5-MIN KSTC 230605Z AUTO 20007KT 10SM CLR 09/03 A3005 910 65 500 200/07 RMK AO2 T00940033 $
14926KSTC STC20170423001010904/23/17 00:10:31  5-MIN KSTC 230610Z AUTO 21007KT 10SM CLR 09/03 A3005 910 65 500 210/07 RMK AO2 T00940033 $
14926KSTC STC20170423001510904/23/17 00:15:31  5-MIN KSTC 230615Z AUTO 21007KT 10SM CLR 09/03 A3005 910 65 500 210/07 RMK AO2 T00940033 $
14926KSTC STC20170423002010904/23/17 00:20:31  5-MIN KSTC 230620Z AUTO 21007KT 10SM CLR 09/03 A3005 910 65 500 210/07 RMK AO2 T00940033 $
14926KSTC STC20170423002510904/23/17 00:25:31  5-MIN KSTC 230625Z AUTO 21006KT 10SM CLR 09/03 A3005 910 65 500 210/06 RMK AO2 T00940033 $
14926KSTC STC20170423003010904/23/17 00:30:31  5-MIN KSTC 230630Z AUTO 21006KT 10SM CLR 10/03 A3005 910 63 600 210/06 RMK AO2 T01000033 $
14926KSTC STC20170423003510904/23/17 00:35:31  5-MIN KSTC 230635Z AUTO 21006KT 10SM CLR 11/03 A3005 910 61 600 210/06 RMK AO2 T01060033 $
14926KSTC STC20170423004010904/23/17 00:40:31  5-MIN KSTC 230640Z AUTO 21006KT 10SM CLR 10/03 A3005 910 63 600 210/06 RMK AO2 T01000033 $
14926KSTC STC20170423004510904/23/17 00:45:31  5-MIN KSTC 230645Z AUTO 21006KT 10SM CLR 10/03 A3005 910 63 600 210/06 RMK AO2 T01000033 $
14926KSTC STC20170423005011604/23/17 00:50:31  5-MIN KSTC 230650Z AUTO 21006KT 10SM CLR 10/03 A3005 910 63 600 210/06 RMK AO2 SLP184 T01000033 $
14926KSTC STC20170423005510904/23/17 00:55:31  5-MIN KSTC 230655Z AUTO 21006KT 10SM CLR 10/03 A3005 910 63 600 210/06 RMK AO2 T01000033 $
14926KSTC STC20170423010010904/23/17 01:00:31  5-MIN KSTC 230700Z AUTO 22005KT 10SM CLR 10/03 A3005 910 63 600 220/05 RMK AO2 T01000033 $
14926KSTC STC20170423010510904/23/17 01:05:31  5-MIN KSTC 230705Z AUTO 22006KT 10SM CLR 11/03 A3005 910 61 600 220/06 RMK AO2 T01060033 $
14926KSTC STC20170423011010904/23/17 01:10:31  5-MIN KSTC 230710Z AUTO 23004KT 10SM CLR 11/03 A3005 910 61 600 230/04 RMK AO2 T01060033 $
14926KSTC STC20170423011510904/23/17 01:15:31  5-MIN KSTC 230715Z AUTO 23005KT 10SM CLR 11/03 A3005 910 61 600 230/05 RMK AO2 T01060033 $
14926KSTC STC20170423012010904/23/17 01:20:31  5-MIN KSTC 230720Z AUTO 23004KT 10SM CLR 11/03 A3005 910 61 600 230/04 RMK AO2 T01060033 $
14926KSTC STC20170423012510904/23/17 01:25:31  5-MIN KSTC 230725Z AUTO 24004KT 10SM CLR 11/03 A3005 910 61 600 240/04 RMK AO2 T01060033 $
14926KSTC STC20170423013010904/23/17 01:30:31  5-MIN KSTC 230730Z AUTO 26004KT 10SM CLR 11/03 A3005 900 61 600 260/04 RMK AO2 T01060033 $
14926KSTC STC20170423013510904/23/17 01:35:31  5-MIN KSTC 230735Z AUTO 30007KT 10SM CLR 09/03 A3006 900 65 500 300/07 RMK AO2 T00940033 $
14926KSTC STC20170423014010904/23/17 01:40:31  5-MIN KSTC 230740Z AUTO 34006KT 10SM CLR 10/04 A3006 900 65 600 340/06 RMK AO2 T01000039 $
14926KSTC STC20170423014510904/23/17 01:45:31  5-MIN KSTC 230745Z AUTO 34004KT 10SM CLR 10/04 A3006 900 65 600 340/04 RMK AO2 T01000039 $
14926KSTC STC20170423015011604/23/17 01:50:31  5-MIN KSTC 230750Z AUTO 34004KT 10SM CLR 10/04 A3006 900 65 600 330/04 RMK AO2 SLP189 T01000039 $
14926KSTC STC20170423015510904/23/17 01:55:31  5-MIN KSTC 230755Z AUTO 30004KT 10SM CLR 10/04 A3006 900 65 600 300/04 RMK AO2 T01000039 $
14926KSTC STC20170423020010904/23/17 02:00:31  5-MIN KSTC 230800Z AUTO 32005KT 10SM CLR 09/04 A3006 900 68 500 320/05 RMK AO2 T00940039 $
14926KSTC STC20170423020510904/23/17 02:05:31  5-MIN KSTC 230805Z AUTO 32006KT 10SM CLR 09/04 A3006 900 68 500 320/06 RMK AO2 T00940039 $
14926KSTC STC20170423021010904/23/17 02:10:31  5-MIN KSTC 230810Z AUTO 31006KT 10SM CLR 09/04 A3006 900 68 500 310/06 RMK AO2 T00940039 $
14926KSTC STC20170423021510904/23/17 02:15:31  5-MIN KSTC 230815Z AUTO 32005KT 10SM CLR 09/04 A3006 890 71 400 320/05 RMK AO2 T00890039 $
14926KSTC STC20170423022010904/23/17 02:20:31  5-MIN KSTC 230820Z AUTO 33006KT 10SM CLR 09/04 A3006 890 68 500 330/06 RMK AO2 T00940039 $
14926KSTC STC20170423022510904/23/17 02:25:31  5-MIN KSTC 230825Z AUTO 32006KT 10SM CLR 09/04 A3006 890 68 500 320/06 RMK AO2 T00940039 $
14926KSTC STC20170423023010904/23/17 02:30:31  5-MIN KSTC 230830Z AUTO 33007KT 10SM CLR 10/04 A3006 890 65 500 330/07 RMK AO2 T01000039 $
14926KSTC STC20170423023510904/23/17 02:35:31  5-MIN KSTC 230835Z AUTO 35007KT 10SM CLR 10/04 A3006 890 65 500 350/07 RMK AO2 T01000039 $
14926KSTC STC20170423024010904/23/17 02:40:31  5-MIN KSTC 230840Z AUTO 01009KT 10SM CLR 09/04 A3007 890 71 500 010/09 RMK AO2 T00940044 $
14926KSTC STC20170423024510904/23/17 02:45:31  5-MIN KSTC 230845Z AUTO 02008KT 10SM CLR 09/05 A3007 890 76 400 020/08 RMK AO2 T00890050 $
14926KSTC STC20170423025012204/23/17 02:50:31  5-MIN KSTC 230850Z AUTO 02007KT 10SM CLR 09/05 A3007 890 76 400 020/07 RMK AO2 SLP191 T00890050 56011 $
14926KSTC STC20170423025510904/23/17 02:55:31  5-MIN KSTC 230855Z AUTO 02009KT 10SM CLR 08/05 A3007 890 79 300 010/09 RMK AO2 T00830050 $
14926KSTC STC20170423030010904/23/17 03:00:31  5-MIN KSTC 230900Z AUTO 02007KT 10SM CLR 08/05 A3007 890 79 300 020/07 RMK AO2 T00830050 $
14926KSTC STC20170423030510904/23/17 03:05:31  5-MIN KSTC 230905Z AUTO 03008KT 10SM CLR 08/05 A3007 890 79 300 030/08 RMK AO2 T00830050 $
14926KSTC STC20170423031010904/23/17 03:10:31  5-MIN KSTC 230910Z AUTO 02008KT 10SM CLR 08/05 A3007 890 79 300 020/08 RMK AO2 T00830050 $
14926KSTC STC20170423031510904/23/17 03:15:31  5-MIN KSTC 230915Z AUTO 02006KT 10SM CLR 08/04 A3007 890 79 300 010/06 RMK AO2 T00780044 $
14926KSTC STC20170423032010904/23/17 03:20:31  5-MIN KSTC 230920Z AUTO 03006KT 10SM CLR 08/04 A3007 890 79 300 030/06 RMK AO2 T00780044 $
14926KSTC STC20170423032510904/23/17 03:25:31  5-MIN KSTC 230925Z AUTO 04007KT 10SM CLR 08/04 A3007 890 79 300 040/07 RMK AO2 T00780044 $
14926KSTC STC20170423033010904/23/17 03:30:31  5-MIN KSTC 230930Z AUTO 03007KT 10SM CLR 08/04 A3007 890 79 300 030/07 RMK AO2 T00780044 $
14926KSTC STC20170423033510904/23/17 03:35:31  5-MIN KSTC 230935Z AUTO 03004KT 10SM CLR 08/04 A3007 890 76 300 020/04 RMK AO2 T00780039 $
14926KSTC STC20170423034010904/23/17 03:40:31  5-MIN KSTC 230940Z AUTO 02004KT 10SM CLR 07/04 A3008 880 79 200 020/04 RMK AO2 T00720039 $
14926KSTC STC20170423034510904/23/17 03:45:31  5-MIN KSTC 230945Z AUTO 01005KT 10SM CLR 07/04 A3008 880 79 200 360/05 RMK AO2 T00720039 $
14926KSTC STC20170423035011604/23/17 03:50:31  5-MIN KSTC 230950Z AUTO 36006KT 10SM CLR 07/04 A3008 880 79 200 360/06 RMK AO2 SLP197 T00720039 $
14926KSTC STC20170423035511204/23/17 03:55:31  5-MIN KSTC 230955Z AUTO 02005KT 10SM FEW090 07/04 A3008 880 79 200 020/05 RMK AO2 T00720039 $
14926KSTC STC20170423040011204/23/17 04:00:31  5-MIN KSTC 231000Z AUTO 02004KT 10SM SCT090 07/04 A3008 880 79 200 020/04 RMK AO2 T00720039 $
14926KSTC STC20170423040511204/23/17 04:05:31  5-MIN KSTC 231005Z AUTO 02005KT 10SM BKN090 07/04 A3008 880 79 200 020/05 RMK AO2 T00720039 $
14926KSTC STC20170423041011204/23/17 04:10:31  5-MIN KSTC 231010Z AUTO 03005KT 10SM BKN090 07/04 A3008 880 79 200 030/05 RMK AO2 T00720039 $
14926KSTC STC20170423041511204/23/17 04:15:31  5-MIN KSTC 231015Z AUTO 04004KT 10SM BKN095 07/04 A3008 880 79 200 040/04 RMK AO2 T00720039 $
14926KSTC STC20170423042011204/23/17 04:20:31  5-MIN KSTC 231020Z AUTO 04008KT 10SM OVC095 07/04 A3009 870 79 200 040/08 RMK AO2 T00720039 $
14926KSTC STC20170423042511204/23/17 04:25:31  5-MIN KSTC 231025Z AUTO 03006KT 10SM OVC100 07/04 A3009 870 79 200 030/06 RMK AO2 T00720039 $
14926KSTC STC20170423043011204/23/17 04:30:31  5-MIN KSTC 231030Z AUTO 04007KT 10SM OVC100 07/03 A3009 870 76 200 040/07 RMK AO2 T00720033 $
14926KSTC STC20170423043511204/23/17 04:35:31  5-MIN KSTC 231035Z AUTO 04007KT 10SM OVC100 07/03 A3009 870 76 200 040/07 RMK AO2 T00720033 $
14926KSTC STC20170423044011204/23/17 04:40:31  5-MIN KSTC 231040Z AUTO 04007KT 10SM OVC100 07/03 A3009 870 76 200 040/07 RMK AO2 T00720033 $
14926KSTC STC20170423044511204/23/17 04:45:31  5-MIN KSTC 231045Z AUTO 05007KT 10SM OVC100 07/03 A3008 880 76 200 050/07 RMK AO2 T00720033 $
14926KSTC STC20170423045011904/23/17 04:50:31  5-MIN KSTC 231050Z AUTO 04007KT 10SM OVC100 07/03 A3008 880 76 200 040/07 RMK AO2 SLP198 T00720033 $
14926KSTC STC20170423045511204/23/17 04:55:31  5-MIN KSTC 231055Z AUTO 03006KT 10SM OVC100 07/03 A3009 870 76 200 030/06 RMK AO2 T00720033 $
14926KSTC STC20170423050011204/23/17 05:00:31  5-MIN KSTC 231100Z AUTO 04008KT 10SM OVC100 07/03 A3009 870 76 200 040/08 RMK AO2 T00720033 $
14926KSTC STC20170423050511904/23/17 05:05:31  5-MIN KSTC 231105Z AUTO 03007KT 10SM SCT090 OVC100 07/03 A3010 860 76 200 030/07 RMK AO2 T00720033 $
14926KSTC STC20170423051011904/23/17 05:10:31  5-MIN KSTC 231110Z AUTO 03006KT 10SM BKN085 OVC100 07/03 A3010 860 76 200 030/06 RMK AO2 T00720033 $
14926KSTC STC20170423051511904/23/17 05:15:31  5-MIN KSTC 231115Z AUTO 02007KT 10SM BKN085 OVC100 07/03 A3011 860 76 200 020/07 RMK AO2 T00720033 $
14926KSTC STC20170423052011904/23/17 05:20:31  5-MIN KSTC 231120Z AUTO 01006KT 10SM BKN085 OVC100 07/03 A3011 860 76 200 010/06 RMK AO2 T00720033 $
14926KSTC STC20170423052511204/23/17 05:25:31  5-MIN KSTC 231125Z AUTO 03007KT 10SM OVC085 07/03 A3011 850 76 200 030/07 RMK AO2 T00720033 $
14926KSTC STC20170423053011204/23/17 05:30:31  5-MIN KSTC 231130Z AUTO 04006KT 10SM OVC085 07/03 A3011 850 76 200 040/06 RMK AO2 T00720033 $
14926KSTC STC20170423053511904/23/17 05:35:31  5-MIN KSTC 231135Z AUTO 03007KT 10SM BKN085 OVC110 07/03 A3011 850 76 200 030/07 RMK AO2 T00720033 $
14926KSTC STC20170423054012504/23/17 05:40:31  5-MIN KSTC 231140Z AUTO 04007G15KT 10SM BKN085 OVC110 07/03 A3011 850 73 200 040/07G15 RMK AO2 T00720028 $
14926KSTC STC20170423054512504/23/17 05:45:31  5-MIN KSTC 231145Z AUTO 04009G15KT 10SM SCT085 OVC110 07/03 A3011 850 76 100 040/09G15 RMK AO2 T00670028 $
14926KSTC STC20170423055013904/23/17 05:50:31  5-MIN KSTC 231150Z 04008KT 10SM SCT085 OVC110 07/03 A3011 850 76 100 040/08 RMK AO2 SLP207 T00670028 10106 20067 53006 $
14926KSTC STC20170423055511404/23/17 05:55:31  5-MIN KSTC 231155Z 03007KT 10SM FEW090 OVC100 07/03 A3011 850 76 100 030/07 RMK AO2 T00670028 $
14926KSTC STC20170423060010704/23/17 06:00:31  5-MIN KSTC 231200Z 03008KT 10SM OVC100 07/03 A3011 850 76 100 030/08 RMK AO2 T00670028 $
14926KSTC STC20170423060510704/23/17 06:05:31  5-MIN KSTC 231205Z 03007KT 10SM OVC100 07/03 A3012 850 76 200 030/07 RMK AO2 T00720033 $
14926KSTC STC20170423061010704/23/17 06:10:31  5-MIN KSTC 231210Z 04008KT 10SM OVC100 07/03 A3012 840 76 100 040/08 RMK AO2 T00720033 $
14926KSTC STC20170423061510704/23/17 06:15:31  5-MIN KSTC 231215Z 04008KT 10SM OVC100 07/03 A3012 840 73 100 040/08 RMK AO2 T00720028 $
14926KSTC STC20170423062010704/23/17 06:20:31  5-MIN KSTC 231220Z 03007KT 10SM OVC100 07/03 A3012 840 76 100 030/07 RMK AO2 T00720033 $
14926KSTC STC20170423062510704/23/17 06:25:31  5-MIN KSTC 231225Z 03008KT 10SM OVC100 07/03 A3013 840 76 100 030/08 RMK AO2 T00720033 $
14926KSTC STC20170423063010704/23/17 06:30:31  5-MIN KSTC 231230Z 03006KT 10SM OVC100 07/03 A3012 840 76 100 030/06 RMK AO2 T00720033 $
14926KSTC STC20170423063510704/23/17 06:35:31  5-MIN KSTC 231235Z 04008KT 10SM OVC100 07/03 A3012 840 76 100 040/08 RMK AO2 T00720033 $
14926KSTC STC20170423064010704/23/17 06:40:31  5-MIN KSTC 231240Z 03007KT 10SM OVC095 07/03 A3013 840 76 100 030/07 RMK AO2 T00720033 $
14926KSTC STC20170423064510704/23/17 06:45:31  5-MIN KSTC 231245Z 04008KT 10SM BKN095 07/03 A3013 830 76 100 030/08 RMK AO2 T00720033 $
14926KSTC STC20170423065011404/23/17 06:50:31  5-MIN KSTC 231250Z 04010KT 10SM BKN095 07/03 A3013 840 76 100 040/10 RMK AO2 SLP213 T00720033 $
14926KSTC STC20170423065510704/23/17 06:55:31  5-MIN KSTC 231255Z 05007KT 10SM SCT095 07/03 A3013 840 76 100 050/07 RMK AO2 T00720033 $
14926KSTC STC20170423070010704/23/17 07:00:31  5-MIN KSTC 231300Z 03008KT 10SM SCT095 07/03 A3013 840 76 100 030/08 RMK AO2 T00720033 $
14926KSTC STC20170423070510704/23/17 07:05:31  5-MIN KSTC 231305Z 04009KT 10SM FEW095 07/03 A3012 840 76 100 040/09 RMK AO2 T00720033 $
14926KSTC STC20170423071010404/23/17 07:10:31  5-MIN KSTC 231310Z 06010KT 10SM CLR 07/03 A3012 840 76 100 060/10 RMK AO2 T00720033 $
14926KSTC STC20170423071510404/23/17 07:15:31  5-MIN KSTC 231315Z 05009KT 10SM CLR 07/03 A3013 840 76 100 040/09 RMK AO2 T00720033 $
14926KSTC STC20170423072010704/23/17 07:20:31  5-MIN KSTC 231320Z 04009KT 10SM FEW018 07/03 A3013 840 76 100 040/09 RMK AO2 T00720033 $
14926KSTC STC20170423072510704/23/17 07:25:31  5-MIN KSTC 231325Z 04008KT 10SM FEW018 08/04 A3012 840 76 200 040/08 RMK AO2 T00780039 $
14926KSTC STC20170423073011404/23/17 07:30:31  5-MIN KSTC 231330Z 05010KT 10SM FEW018 SCT090 08/04 A3012 840 76 200 050/10 RMK AO2 T00780039 $
14926KSTC STC20170423073511404/23/17 07:35:31  5-MIN KSTC 231335Z 06009KT 10SM SCT018 BKN090 08/03 A3012 840 73 200 050/09 RMK AO2 T00780033 $
14926KSTC STC20170423074012004/23/17 07:40:31  5-MIN KSTC 231340Z 08012G17KT 10SM SCT018 BKN095 08/03 A3012 840 73 200 080/12G17 RMK AO2 T00780033 $
14926KSTC STC20170423074512004/23/17 07:45:31  5-MIN KSTC 231345Z 07013G18KT 10SM SCT018 BKN095 08/03 A3012 840 73 200 070/13G18 RMK AO2 T00780033 $
14926KSTC STC20170423075012704/23/17 07:50:31  5-MIN KSTC 231350Z 07010G19KT 10SM SCT018 OVC100 07/03 A3012 840 76 100 060/10G19 RMK AO2 SLP212 T00720033 $
14926KSTC STC20170423075512004/23/17 07:55:31  5-MIN KSTC 231355Z 08013G19KT 10SM SCT018 OVC100 07/03 A3012 840 76 100 080/13G19 RMK AO2 T00720033 $
14926KSTC STC20170423080012004/23/17 08:00:31  5-MIN KSTC 231400Z 08009G19KT 10SM BKN019 OVC100 08/03 A3012 840 73 200 080/09G19 RMK AO2 T00780033 $
14926KSTC STC20170423080512004/23/17 08:05:31  5-MIN KSTC 231405Z 08012G17KT 10SM BKN019 OVC100 07/03 A3012 840 76 100 080/12G17 RMK AO2 T00720033 $
14926KSTC STC20170423081011404/23/17 08:10:31  5-MIN KSTC 231410Z 07011KT 10SM BKN019 OVC100 07/03 A3012 840 76 100 070/11 RMK AO2 T00720033 $
14926KSTC STC20170423081511404/23/17 08:15:31  5-MIN KSTC 231415Z 07011KT 10SM BKN019 OVC100 07/03 A3012 840 76 100 070/11 RMK AO2 T00720033 $
14926KSTC STC20170423082010704/23/17 08:20:31  5-MIN KSTC 231420Z 07010KT 10SM OVC018 07/03 A3012 840 76 100 070/10 RMK AO2 T00720033 $
14926KSTC STC20170423082511304/23/17 08:25:31  5-MIN KSTC 231425Z 06010G17KT 10SM OVC018 07/03 A3012 840 76 100 060/10G17 RMK AO2 T00720033 $
14926KSTC STC20170423083011304/23/17 08:30:31  5-MIN KSTC 231430Z 07010G17KT 10SM OVC018 07/03 A3012 840 76 100 070/10G17 RMK AO2 T00720033 $
14926KSTC STC20170423083511304/23/17 08:35:31  5-MIN KSTC 231435Z 07011G17KT 10SM OVC018 07/03 A3012 840 76 200 070/11G17 RMK AO2 T00720033 $
14926KSTC STC20170423084010704/23/17 08:40:31  5-MIN KSTC 231440Z 07012KT 10SM OVC018 07/03 A3012 840 76 200 070/12 RMK AO2 T00720033 $
14926KSTC STC20170423084511304/23/17 08:45:31  5-MIN KSTC 231445Z 07012G17KT 10SM OVC018 07/03 A3012 850 76 200 070/12G17 RMK AO2 T00720033 $
14926KSTC STC20170423085012604/23/17 08:50:31  5-MIN KSTC 231450Z 08010G17KT 10SM OVC018 07/03 A3012 850 76 200 080/10G17 RMK AO2 SLP211 T00720033 53015 $
14926KSTC STC20170423085511304/23/17 08:55:31  5-MIN KSTC 231455Z 08012G17KT 10SM OVC018 07/03 A3011 850 76 200 080/12G17 RMK AO2 T00720033 $
14926KSTC STC20170423090010704/23/17 09:00:31  5-MIN KSTC 231500Z 08011KT 10SM OVC017 07/03 A3012 850 76 200 080/11 RMK AO2 T00720033 $
14926KSTC STC20170423090510704/23/17 09:05:31  5-MIN KSTC 231505Z 07009KT 10SM OVC017 07/04 A3012 850 79 200 070/09 RMK AO2 T00720039 $
14926KSTC STC20170423091010704/23/17 09:10:31  5-MIN KSTC 231510Z 07010KT 10SM OVC017 07/04 A3011 850 79 200 070/10 RMK AO2 T00720039 $
14926KSTC STC20170423091510704/23/17 09:15:31  5-MIN KSTC 231515Z 07009KT 10SM OVC017 07/04 A3011 850 79 200 070/09 RMK AO2 T00720039 $
14926KSTC STC20170423092011304/23/17 09:20:31  5-MIN KSTC 231520Z 05010G16KT 10SM OVC017 08/04 A3011 850 76 200 050/10G16 RMK AO2 T00780039 $
14926KSTC STC20170423092511304/23/17 09:25:31  5-MIN KSTC 231525Z 08011G18KT 10SM OVC016 07/04 A3011 850 79 200 080/11G18 RMK AO2 T00720039 $
14926KSTC STC20170423093012904/23/17 09:30:31  5-MIN KSTC 231530Z 06008G18KT 030V100 10SM OVC016 07/04 A3011 850 79 200 060/08G18 030V100 RMK AO2 T00720039 $
14926KSTC STC20170423093510704/23/17 09:35:31  5-MIN KSTC 231535Z 06012KT 10SM OVC016 07/04 A3011 850 79 200 060/12 RMK AO2 T00720039 $
14926KSTC STC20170423094010704/23/17 09:40:31  5-MIN KSTC 231540Z 07010KT 10SM OVC016 07/04 A3010 860 79 200 070/10 RMK AO2 T00720039 $
14926KSTC STC20170423094511304/23/17 09:45:31  5-MIN KSTC 231545Z 07009G17KT 10SM OVC015 07/04 A3010 860 79 200 060/09G17 RMK AO2 T00720039 $
14926KSTC STC20170423095013604/23/17 09:50:31  5-MIN KSTC 231550Z 07010G17KT 040V100 10SM OVC015 08/04 A3010 860 76 200 070/10G17 040V100 RMK AO2 SLP206 T00780039 $
14926KSTC STC20170423095511304/23/17 09:55:31  5-MIN KSTC 231555Z 08011G19KT 10SM OVC015 07/04 A3010 860 79 200 070/11G19 RMK AO2 T00720039 $
14926KSTC STC20170423100011304/23/17 10:00:31  5-MIN KSTC 231600Z 08010G19KT 10SM OVC015 08/04 A3010 860 76 200 080/10G19 RMK AO2 T00780039 $
14926KSTC STC20170423100511304/23/17 10:05:31  5-MIN KSTC 231605Z 06011G16KT 10SM OVC015 08/04 A3010 860 76 200 060/11G16 RMK AO2 T00780039 $
14926KSTC STC20170423101011304/23/17 10:10:31  5-MIN KSTC 231610Z 08008G16KT 10SM OVC015 08/04 A3010 860 76 200 080/08G16 RMK AO2 T00780039 $
14926KSTC STC20170423101511304/23/17 10:15:31  5-MIN KSTC 231615Z 08011G16KT 10SM OVC015 08/04 A3009 870 76 200 080/11G16 RMK AO2 T00780039 $
14926KSTC STC20170423102010704/23/17 10:20:31  5-MIN KSTC 231620Z 06010KT 10SM OVC015 08/04 A3009 870 76 200 060/10 RMK AO2 T00780039 $
14926KSTC STC20170423102511304/23/17 10:25:31  5-MIN KSTC 231625Z 08010G16KT 10SM OVC016 08/04 A3009 870 73 300 080/10G16 RMK AO2 T00830039 $
14926KSTC STC20170423103011304/23/17 10:30:31  5-MIN KSTC 231630Z 07009G16KT 10SM OVC016 08/04 A3009 870 73 300 060/09G16 RMK AO2 T00830039 $
14926KSTC STC20170423103510704/23/17 10:35:31  5-MIN KSTC 231635Z 08009KT 10SM OVC018 09/04 A3009 870 71 400 080/09 RMK AO2 T00890039 $
14926KSTC STC20170423104011404/23/17 10:40:31  5-MIN KSTC 231640Z 08011KT 10SM BKN018 BKN100 09/04 A3008 880 71 400 080/11 RMK AO2 T00890039 $
14926KSTC STC20170423104511404/23/17 10:45:31  5-MIN KSTC 231645Z 06008KT 10SM BKN018 BKN100 09/04 A3008 870 68 500 060/08 RMK AO2 T00940039 $
14926KSTC STC20170423105012104/23/17 10:50:31  5-MIN KSTC 231650Z 06008KT 10SM BKN020 BKN100 09/04 A3009 870 71 400 060/08 RMK AO2 SLP201 T00890039 $
14926KSTC STC20170423105513004/23/17 10:55:31  5-MIN KSTC 231655Z 09008KT 050V130 10SM BKN020 BKN100 10/04 A3008 880 68 500 090/08 050V130 RMK AO2 T01000044 $
14926KSTC STC20170423110011404/23/17 11:00:31  5-MIN KSTC 231700Z 05011KT 10SM BKN022 BKN100 10/04 A3008 880 68 500 050/11 RMK AO2 T01000044 $
14926KSTC STC20170423110511404/23/17 11:05:31  5-MIN KSTC 231705Z 06010KT 10SM BKN022 BKN100 09/04 A3008 880 68 500 060/10 RMK AO2 T00940039 $
14926KSTC STC20170423111010704/23/17 11:10:31  5-MIN KSTC 231710Z 08009KT 10SM BKN022 10/04 A3008 880 68 500 080/09 RMK AO2 T01000044 $
14926KSTC STC20170423111511304/23/17 11:15:31  5-MIN KSTC 231715Z 07008G15KT 10SM SCT022 11/04 A3007 890 66 600 070/08G15 RMK AO2 T01060044 $
14926KSTC STC20170423112011304/23/17 11:20:31  5-MIN KSTC 231720Z 09008G16KT 10SM FEW022 11/04 A3007 890 66 600 080/08G16 RMK AO2 T01060044 $
14926KSTC STC20170423112512904/23/17 11:25:31  5-MIN KSTC 231725Z 08009G16KT 050V110 10SM FEW023 11/04 A3007 890 66 600 080/09G16 050V110 RMK AO2 T01060044 $
14926KSTC STC20170423113010704/23/17 11:30:31  5-MIN KSTC 231730Z 07009KT 10SM FEW023 11/04 A3007 890 66 600 070/09 RMK AO2 T01060044 $
14926KSTC STC20170423113510404/23/17 11:35:31  5-MIN KSTC 231735Z 09011KT 10SM CLR 11/04 A3006 890 63 700 090/11 RMK AO2 T01110044 $
14926KSTC STC20170423114010404/23/17 11:40:31  5-MIN KSTC 231740Z 06010KT 10SM CLR 11/04 A3006 890 66 600 060/10 RMK AO2 T01060044 $
14926KSTC STC20170423114510404/23/17 11:45:31  5-MIN KSTC 231745Z 05011KT 10SM CLR 11/04 A3006 900 63 700 050/11 RMK AO2 T01110044 $
14926KSTC STC20170423115012904/23/17 11:50:31  5-MIN KSTC 231750Z 05009KT 10SM CLR 12/04 A3006 900 61 800 050/09 RMK AO2 SLP190 T01170044 10117 20067 50000 $
14926KSTC STC20170423115510404/23/17 11:55:31  5-MIN KSTC 231755Z 08009KT 10SM CLR 12/04 A3005 900 61 800 080/09 RMK AO2 T01170044 $
14926KSTC STC20170423120011004/23/17 12:00:31  5-MIN KSTC 231800Z 06011G16KT 10SM CLR 12/04 A3005 900 61 800 060/11G16 RMK AO2 T01170044 $
14926KSTC STC20170423120511304/23/17 12:05:31  5-MIN KSTC 231805Z 08007G17KT 10SM FEW029 12/04 A3005 910 61 800 070/07G17 RMK AO2 T01170044 $
14926KSTC STC20170423121010704/23/17 12:10:31  5-MIN KSTC 231810Z 05010KT 10SM FEW029 12/04 A3004 910 61 800 050/10 RMK AO2 T01170044 $
14926KSTC STC20170423121512004/23/17 12:15:31  5-MIN KSTC 231815Z 04008KT 030V100 10SM CLR 12/05 A3004 920 61 800 040/08 030V100 RMK AO2 T01220050 $
14926KSTC STC20170423122010404/23/17 12:20:31  5-MIN KSTC 231820Z 08010KT 10SM CLR 12/04 A3004 920 59 800 070/10 RMK AO2 T01220044 $
14926KSTC STC20170423122510404/23/17 12:25:31  5-MIN KSTC 231825Z 09009KT 10SM CLR 12/04 A3004 920 59 800 090/09 RMK AO2 T01220044 $
14926KSTC STC20170423123011004/23/17 12:30:31  5-MIN KSTC 231830Z 05008G16KT 10SM CLR 12/04 A3003 920 61 800 050/08G16 RMK AO2 T01170044 $
14926KSTC STC20170423123511004/23/17 12:35:31  5-MIN KSTC 231835Z 08009G16KT 10SM CLR 12/04 A3003 920 59 900 080/09G16 RMK AO2 T01220044 $
14926KSTC STC20170423124011304/23/17 12:40:31  5-MIN KSTC 231840Z 08009G15KT 10SM FEW032 12/04 A3003 930 59 900 080/09G15 RMK AO2 T01220044 $
14926KSTC STC20170423124510704/23/17 12:45:31  5-MIN KSTC 231845Z 07008KT 10SM FEW032 12/04 A3003 930 59 900 070/08 RMK AO2 T01220044 $
14926KSTC STC20170423125011104/23/17 12:50:31  5-MIN KSTC 231850Z 08010KT 10SM CLR 12/04 A3003 930 59 900 080/10 RMK AO2 SLP180 T01220044 $
14926KSTC STC20170423125511004/23/17 12:55:31  5-MIN KSTC 231855Z 06006G14KT 10SM CLR 12/04 A3003 930 59 900 060/06G14 RMK AO2 T01220044 $
14926KSTC STC20170423130010404/23/17 13:00:31  5-MIN KSTC 231900Z VRB04KT 10SM CLR 13/05 A3003 930 59 900 VRB/04 RMK AO2 T01280050 $
14926KSTC STC20170423130510404/23/17 13:05:31  5-MIN KSTC 231905Z 08007KT 10SM CLR 13/05 A3003 930 59 900 080/07 RMK AO2 T01280050 $
14926KSTC STC20170423131010404/23/17 13:10:31  5-MIN KSTC 231910Z 08005KT 10SM CLR 13/04 A3003 930 56 900 080/05 RMK AO2 T01280044 $
14926KSTC STC20170423131510404/23/17 13:15:31  5-MIN KSTC 231915Z 08009KT 10SM CLR 12/04 A3003 930 59 900 080/09 RMK AO2 T01220044 $
14926KSTC STC20170423132010404/23/17 13:20:31  5-MIN KSTC 231920Z 06009KT 10SM CLR 12/04 A3003 930 59 900 060/09 RMK AO2 T01220044 $
14926KSTC STC20170423132510404/23/17 13:25:31  5-MIN KSTC 231925Z 05007KT 10SM CLR 13/05 A3003 930 59 900 050/07 RMK AO2 T01280050 $
14926KSTC STC20170423133011004/23/17 13:30:31  5-MIN KSTC 231930Z 09011G15KT 10SM CLR 13/05 A3002 930 59 900 090/11G15 RMK AO2 T01280050 $
14926KSTC STC20170423133511004/23/17 13:35:31  5-MIN KSTC 231935Z 06010G15KT 10SM CLR 12/04 A3002 930 59 900 060/10G15 RMK AO2 T01220044 $
14926KSTC STC20170423134010404/23/17 13:40:31  5-MIN KSTC 231940Z 06009KT 10SM CLR 12/05 A3002 930 61 900 060/09 RMK AO2 T01220050 $
14926KSTC STC20170423134510404/23/17 13:45:31  5-MIN KSTC 231945Z 06008KT 10SM CLR 12/05 A3002 930 61 900 060/08 RMK AO2 T01220050 $
14926KSTC STC20170423135011104/23/17 13:50:31  5-MIN KSTC 231950Z 07009KT 10SM CLR 13/05 A3002 940 59 900 060/09 RMK AO2 SLP176 T01280050 $
14926KSTC STC20170423135510404/23/17 13:55:31  5-MIN KSTC 231955Z 08009KT 10SM CLR 13/05 A3001 940 59 900 080/09 RMK AO2 T01280050 $
14926KSTC STC20170423140010404/23/17 14:00:31  5-MIN KSTC 232000Z 06009KT 10SM CLR 13/05 A3001 940 59 900 060/09 RMK AO2 T01280050 $
14926KSTC STC20170423140510404/23/17 14:05:31  5-MIN KSTC 232005Z 06009KT 10SM CLR 13/05 A3001 950 59 900 060/09 RMK AO2 T01280050 $
14926KSTC STC20170423141011004/23/17 14:10:31  5-MIN KSTC 232010Z 07010G17KT 10SM CLR 13/05 A3000 950 59 900 060/10G17 RMK AO2 T01280050 $
14926KSTC STC20170423141511104/23/17 14:15:31  5-MIN KSTC 232015Z 07010G17KT 10SM CLR 13/05 A3000 950 59 1000 070/10G17 RMK AO2 T01280050 $
14926KSTC STC20170423142010504/23/17 14:20:31  5-MIN KSTC 232020Z 06010KT 10SM CLR 13/05 A3000 960 59 1000 060/10 RMK AO2 T01280050 $
14926KSTC STC20170423142511104/23/17 14:25:31  5-MIN KSTC 232025Z 04012G17KT 10SM CLR 13/05 A2999 960 59 1000 040/12G17 RMK AO2 T01280050 $
14926KSTC STC20170423143011104/23/17 14:30:31  5-MIN KSTC 232030Z 06010G17KT 10SM CLR 13/05 A2999 970 59 1000 060/10G17 RMK AO2 T01280050 $
14926KSTC STC20170423143511104/23/17 14:35:31  5-MIN KSTC 232035Z 06010G16KT 10SM CLR 13/05 A2998 970 59 1000 060/10G16 RMK AO2 T01280050 $
14926KSTC STC20170423144011104/23/17 14:40:31  5-MIN KSTC 232040Z 07009G16KT 10SM CLR 13/06 A2998 970 61 1000 070/09G16 RMK AO2 T01280056 $
14926KSTC STC20170423144510504/23/17 14:45:31  5-MIN KSTC 232045Z 06010KT 10SM CLR 13/05 A2998 970 59 1000 060/10 RMK AO2 T01280050 $
14926KSTC STC20170423145011804/23/17 14:50:31  5-MIN KSTC 232050Z 08011KT 10SM CLR 13/05 A2998 970 59 1000 080/11 RMK AO2 SLP163 T01280050 58019 $
14926KSTC STC20170423145510504/23/17 14:55:31  5-MIN KSTC 232055Z 06009KT 10SM CLR 13/05 A2998 970 59 1000 060/09 RMK AO2 T01280050 $
14926KSTC STC20170423150010504/23/17 15:00:31  5-MIN KSTC 232100Z 07009KT 10SM CLR 13/06 A2997 980 61 1000 070/09 RMK AO2 T01280056 $
14926KSTC STC20170423150510504/23/17 15:05:31  5-MIN KSTC 232105Z 08009KT 10SM CLR 13/06 A2997 980 61 1000 080/09 RMK AO2 T01280056 $
14926KSTC STC20170423151010504/23/17 15:10:31  5-MIN KSTC 232110Z 06009KT 10SM CLR 13/05 A2997 980 59 1000 060/09 RMK AO2 T01280050 $
14926KSTC STC20170423151510504/23/17 15:15:31  5-MIN KSTC 232115Z 07009KT 10SM CLR 13/06 A2996 990 61 1000 070/09 RMK AO2 T01280056 $
14926KSTC STC20170423152010404/23/17 15:20:31  5-MIN KSTC 232120Z 06010KT 10SM CLR 12/05 A2996 990 61 900 060/10 RMK AO2 T01220050 $
14926KSTC STC20170423152510404/23/17 15:25:31  5-MIN KSTC 232125Z 06013KT 10SM CLR 12/05 A2996 990 61 900 060/13 RMK AO2 T01220050 $
14926KSTC STC20170423153010504/23/17 15:30:31  5-MIN KSTC 232130Z 06011KT 10SM CLR 12/05 A2995 1000 61 900 060/11 RMK AO2 T01220050 $
14926KSTC STC20170423153510504/23/17 15:35:31  5-MIN KSTC 232135Z 06009KT 10SM CLR 12/05 A2995 1000 61 900 060/09 RMK AO2 T01220050 $
14926KSTC STC20170423154011104/23/17 15:40:31  5-MIN KSTC 232140Z 06009G17KT 10SM CLR 12/05 A2995 1000 61 900 060/09G17 RMK AO2 T01220050 $
14926KSTC STC20170423154511204/23/17 15:45:31  5-MIN KSTC 232145Z 06012G17KT 10SM CLR 12/05 A2994 1010 61 1000 060/12G17 RMK AO2 T01220050 $
14926KSTC STC20170423155011904/23/17 15:50:31  5-MIN KSTC 232150Z 07011G18KT 10SM CLR 12/05 A2994 1010 61 1000 070/11G18 RMK AO2 SLP151 T01220050 $
14926KSTC STC20170423155511204/23/17 15:55:31  5-MIN KSTC 232155Z 06012G19KT 10SM CLR 12/05 A2994 1010 61 1000 060/12G19 RMK AO2 T01220050 $
14926KSTC STC20170423160011104/23/17 16:00:31  5-MIN KSTC 232200Z 06011G19KT 10SM CLR 12/05 A2993 1010 63 900 060/11G19 RMK AO2 T01170050 $
14926KSTC STC20170423160511104/23/17 16:05:31  5-MIN KSTC 232205Z 07012G18KT 10SM CLR 12/05 A2993 1020 63 900 070/12G18 RMK AO2 T01170050 $
14926KSTC STC20170423161011104/23/17 16:10:31  5-MIN KSTC 232210Z 07009G18KT 10SM CLR 12/05 A2993 1020 63 900 070/09G18 RMK AO2 T01170050 $
14926KSTC STC20170423161511104/23/17 16:15:31  5-MIN KSTC 232215Z 07012G21KT 10SM CLR 12/05 A2993 1020 63 900 060/12G21 RMK AO2 T01170050 $
14926KSTC STC20170423162011104/23/17 16:20:31  5-MIN KSTC 232220Z 07012G21KT 10SM CLR 12/05 A2992 1020 63 900 070/12G21 RMK AO2 T01170050 $
14926KSTC STC20170423162511204/23/17 16:25:31  5-MIN KSTC 232225Z 07012G21KT 10SM CLR 12/05 A2992 1030 61 1000 070/12G21 RMK AO2 T01220050 $
14926KSTC STC20170423163011104/23/17 16:30:31  5-MIN KSTC 232230Z 06014G21KT 10SM CLR 12/04 A2992 1030 61 900 060/14G21 RMK AO2 T01170044 $
14926KSTC STC20170423163511104/23/17 16:35:31  5-MIN KSTC 232235Z 06011G23KT 10SM CLR 12/04 A2991 1030 61 900 060/11G23 RMK AO2 T01170044 $
14926KSTC STC20170423164011104/23/17 16:40:31  5-MIN KSTC 232240Z 08013G23KT 10SM CLR 12/04 A2991 1030 61 900 080/13G23 RMK AO2 T01170044 $
14926KSTC STC20170423164511104/23/17 16:45:31  5-MIN KSTC 232245Z 06013G21KT 10SM CLR 12/04 A2991 1030 61 900 060/13G21 RMK AO2 T01170044 $
14926KSTC STC20170423165011804/23/17 16:50:31  5-MIN KSTC 232250Z 06011G21KT 10SM CLR 11/04 A2991 1030 63 900 060/11G21 RMK AO2 SLP142 T01110044 $
14926KSTC STC20170423165511104/23/17 16:55:31  5-MIN KSTC 232255Z 06011G19KT 10SM CLR 12/04 A2991 1030 61 900 060/11G19 RMK AO2 T01170044 $
14926KSTC STC20170423170012704/23/17 17:00:31  5-MIN KSTC 232300Z 08010G18KT 040V110 10SM CLR 12/04 A2991 1040 61 900 080/10G18 040V110 RMK AO2 T01170044 $
14926KSTC STC20170423170511204/23/17 17:05:31  5-MIN KSTC 232305Z 08012G18KT 10SM CLR 12/04 A2991 1040 59 1000 080/12G18 RMK AO2 T01220044 $
14926KSTC STC20170423171011204/23/17 17:10:31  5-MIN KSTC 232310Z 08014G21KT 10SM CLR 12/04 A2991 1040 59 1000 070/14G21 RMK AO2 T01220044 $
14926KSTC STC20170423171512704/23/17 17:15:31  5-MIN KSTC 232315Z 07011G21KT 040V100 10SM CLR 12/04 A2991 1040 61 900 070/11G21 040V100 RMK AO2 T01170044 $
14926KSTC STC20170423172011104/23/17 17:20:31  5-MIN KSTC 232320Z 07009G18KT 10SM CLR 12/04 A2991 1040 61 900 070/09G18 RMK AO2 T01170044 $
14926KSTC STC20170423172511104/23/17 17:25:31  5-MIN KSTC 232325Z 06010G14KT 10SM CLR 12/04 A2991 1040 61 900 060/10G14 RMK AO2 T01170044 $
14926KSTC STC20170423173010504/23/17 17:30:31  5-MIN KSTC 232330Z 07011KT 10SM CLR 12/04 A2990 1040 58 900 070/11 RMK AO2 T01170039 $
14926KSTC STC20170423173511104/23/17 17:35:31  5-MIN KSTC 232335Z 07010G19KT 10SM CLR 12/04 A2990 1040 58 900 070/10G19 RMK AO2 T01170039 $
14926KSTC STC20170423174011104/23/17 17:40:31  5-MIN KSTC 232340Z 07008G19KT 10SM CLR 12/04 A2990 1040 61 900 070/08G19 RMK AO2 T01170044 $
14926KSTC STC20170423174511104/23/17 17:45:31  5-MIN KSTC 232345Z 06011G16KT 10SM CLR 12/04 A2990 1050 61 900 060/11G16 RMK AO2 T01170044 $
14926KSTC STC20170423175013604/23/17 17:50:31  5-MIN KSTC 232350Z 06010G17KT 10SM CLR 12/04 A2990 1050 61 900 060/10G17 RMK AO2 SLP137 T01170044 10133 20111 58026 $
14926KSTC STC20170423175511104/23/17 17:55:31  5-MIN KSTC 232355Z 07013G18KT 10SM CLR 11/04 A2990 1050 61 900 070/13G18 RMK AO2 T01110039 $
14926KSTC STC20170423180011104/23/17 18:00:31  5-MIN KSTC 240000Z 07012G18KT 10SM CLR 11/04 A2990 1050 61 900 070/12G18 RMK AO2 T01110039 $
14926KSTC STC20170423180511104/23/17 18:05:31  5-MIN KSTC 240005Z 07014G18KT 10SM CLR 11/04 A2990 1050 61 900 070/14G18 RMK AO2 T01110039 $
14926KSTC STC20170423181011104/23/17 18:10:31  5-MIN KSTC 240010Z 07011G19KT 10SM CLR 11/04 A2990 1050 63 800 070/11G19 RMK AO2 T01060039 $
14926KSTC STC20170423181511104/23/17 18:15:31  5-MIN KSTC 240015Z 04013G19KT 10SM CLR 11/04 A2990 1040 63 800 030/13G19 RMK AO2 T01060039 $
14926KSTC STC20170423182011104/23/17 18:20:31  5-MIN KSTC 240020Z 04012G17KT 10SM CLR 10/04 A2991 1040 65 700 040/12G17 RMK AO2 T01000039 $
14926KSTC STC20170423182510504/23/17 18:25:31  5-MIN KSTC 240025Z 04012KT 10SM CLR 09/04 A2991 1040 68 700 040/12 RMK AO2 T00940039 $
14926KSTC STC20170423183010504/23/17 18:30:31  5-MIN KSTC 240030Z 05010KT 10SM CLR 09/03 A2991 1040 65 700 050/10 RMK AO2 T00940033 $
14926KSTC STC20170423183511104/23/17 18:35:31  5-MIN KSTC 240035Z 04010G18KT 10SM CLR 09/03 A2991 1040 65 700 040/10G18 RMK AO2 T00940033 $
14926KSTC STC20170423184011104/23/17 18:40:31  5-MIN KSTC 240040Z 05013G20KT 10SM CLR 09/03 A2991 1040 68 600 050/13G20 RMK AO2 T00890033 $
14926KSTC STC20170423184511104/23/17 18:45:31  5-MIN KSTC 240045Z 05010G20KT 10SM CLR 08/03 A2991 1030 70 500 050/10G20 RMK AO2 T00830033 $
14926KSTC STC20170423185011804/23/17 18:50:31  5-MIN KSTC 240050Z 04012G20KT 10SM CLR 08/03 A2991 1040 70 500 040/12G20 RMK AO2 SLP142 T00830033 $
14926KSTC STC20170423185511104/23/17 18:55:31  5-MIN KSTC 240055Z 06012G20KT 10SM CLR 08/03 A2991 1030 70 500 060/12G20 RMK AO2 T00780028 $
14926KSTC STC20170423190011104/23/17 19:00:31  5-MIN KSTC 240100Z 06011G19KT 10SM CLR 08/03 A2991 1030 70 500 060/11G19 RMK AO2 T00780028 $
14926KSTC STC20170423190511104/23/17 19:05:31  5-MIN KSTC 240105Z 05011G21KT 10SM CLR 07/03 A2991 1030 73 400 050/11G21 RMK AO2 T00720028 $
14926KSTC STC20170423191011104/23/17 19:10:31  5-MIN KSTC 240110Z 05009G21KT 10SM CLR 07/03 A2991 1030 73 400 050/09G21 RMK AO2 T00720028 $
14926KSTC STC20170423191510504/23/17 19:15:31  5-MIN KSTC 240115Z 05010KT 10SM CLR 07/03 A2992 1030 76 300 040/10 RMK AO2 T00670028 $
14926KSTC STC20170423192010504/23/17 19:20:31  5-MIN KSTC 240120Z 05008KT 10SM CLR 07/02 A2992 1030 73 300 050/08 RMK AO2 T00670022 $
14926KSTC STC20170423192510504/23/17 19:25:31  5-MIN KSTC 240125Z 06010KT 10SM CLR 06/02 A2992 1030 76 200 060/10 RMK AO2 T00610022 $
14926KSTC STC20170423193011104/23/17 19:30:31  5-MIN KSTC 240130Z 06011G20KT 10SM CLR 06/02 A2992 1030 76 200 060/11G20 RMK AO2 T00610022 $
14926KSTC STC20170423193511104/23/17 19:35:31  5-MIN KSTC 240135Z 06013G20KT 10SM CLR 06/02 A2992 1030 76 200 060/13G20 RMK AO2 T00610022 $
14926KSTC STC20170423194011104/23/17 19:40:31  5-MIN KSTC 240140Z 06011G18KT 10SM CLR 06/02 A2992 1030 76 200 060/11G18 RMK AO2 T00610022 $
14926KSTC STC20170423194511104/23/17 19:45:31  5-MIN KSTC 240145Z 06009G19KT 10SM CLR 06/02 A2992 1030 79 200 060/09G19 RMK AO2 T00560022 $
14926KSTC STC20170423195011804/23/17 19:50:31  5-MIN KSTC 240150Z 07011G22KT 10SM CLR 06/02 A2992 1030 76 200 070/11G22 RMK AO2 SLP147 T00560017 $
14926KSTC STC20170423195509504/23/17 19:55:31  5-MIN KSTC 240155Z 10SM CLR 06/02 A2993 1020 76 200 M /M RMK AO2 T00560017 $
14926KSTC STC20170423200009504/23/17 20:00:31  5-MIN KSTC 240200Z 10SM CLR 06/02 A2993 1020 76 200 M /M RMK AO2 T00560017 $
14926KSTC STC20170423200509504/23/17 20:05:31  5-MIN KSTC 240205Z 10SM CLR 05/02 A2993 1020 79 100 M /M RMK AO2 T00500017 $
14926KSTC STC20170423201010504/23/17 20:10:31  5-MIN KSTC 240210Z 07008KT 10SM CLR 05/02 A2993 1020 79 100 070/08 RMK AO2 T00500017 $
14926KSTC STC20170423201511104/23/17 20:15:31  5-MIN KSTC 240215Z 06011G17KT 10SM CLR 05/02 A2993 1020 79 100 060/11G17 RMK AO2 T00500017 $
14926KSTC STC20170423202011104/23/17 20:20:31  5-MIN KSTC 240220Z 07009G18KT 10SM CLR 05/02 A2993 1020 79 100 070/09G18 RMK AO2 T00500017 $
14926KSTC STC20170423202511104/23/17 20:25:31  5-MIN KSTC 240225Z 06010G18KT 10SM CLR 05/02 A2993 1020 79 100 060/10G18 RMK AO2 T00500017 $
14926KSTC STC20170423203011104/23/17 20:30:31  5-MIN KSTC 240230Z 06010G19KT 10SM CLR 05/02 A2993 1020 79 100 060/10G19 RMK AO2 T00500017 $
14926KSTC STC20170423203511104/23/17 20:35:31  5-MIN KSTC 240235Z 06009G19KT 10SM CLR 05/02 A2993 1020 79 100 060/09G19 RMK AO2 T00500017 $
14926KSTC STC20170423204012504/23/17 20:40:31  5-MIN KSTC 240240Z 07007G18KT 030V090 10SM CLR 04/02 A2993 1020 82 0 070/07G18 030V090 RMK AO2 T00440017 $
14926KSTC STC20170423204510304/23/17 20:45:31  5-MIN KSTC 240245Z 07010KT 10SM CLR 04/02 A2993 1020 82 0 060/10 RMK AO2 T00440017 $
14926KSTC STC20170423205011604/23/17 20:50:31  5-MIN KSTC 240250Z 05008KT 10SM CLR 04/02 A2993 1020 82 0 050/08 RMK AO2 SLP150 T00440017 56026 $
14926KSTC STC20170423205510304/23/17 20:55:31  5-MIN KSTC 240255Z 05007KT 10SM CLR 04/02 A2993 1020 82 0 050/07 RMK AO2 T00440017 $
14926KSTC STC20170423210010904/23/17 21:00:31  5-MIN KSTC 240300Z 07009G16KT 10SM CLR 04/01 A2992 1020 79 0 070/09G16 RMK AO2 T00440011 $
14926KSTC STC20170423210510904/23/17 21:05:31  5-MIN KSTC 240305Z 07008G16KT 10SM CLR 04/01 A2992 1020 79 0 070/08G16 RMK AO2 T00440011 $
14926KSTC STC20170423211010304/23/17 21:10:31  5-MIN KSTC 240310Z 06008KT 10SM CLR 04/01 A2993 1020 79 0 060/08 RMK AO2 T00440011 $
14926KSTC STC20170423211510304/23/17 21:15:31  5-MIN KSTC 240315Z 06009KT 10SM CLR 04/01 A2992 1020 79 0 060/09 RMK AO2 T00440011 $
14926KSTC STC20170423212010304/23/17 21:20:31  5-MIN KSTC 240320Z 06008KT 10SM CLR 04/01 A2993 1020 82 0 060/08 RMK AO2 T00390011 $
14926KSTC STC20170423212510304/23/17 21:25:31  5-MIN KSTC 240325Z 07009KT 10SM CLR 04/01 A2992 1020 82 0 070/09 RMK AO2 T00390011 $
14926KSTC STC20170423213010304/23/17 21:30:31  5-MIN KSTC 240330Z 06006KT 10SM CLR 04/01 A2992 1020 82 0 060/06 RMK AO2 T00390011 $
14926KSTC STC20170423213510304/23/17 21:35:31  5-MIN KSTC 240335Z 06009KT 10SM CLR 04/01 A2992 1030 82 0 060/09 RMK AO2 T00390011 $
14926KSTC STC20170423214010304/23/17 21:40:31  5-MIN KSTC 240340Z 06010KT 10SM CLR 04/01 A2992 1030 82 0 060/10 RMK AO2 T00390011 $
14926KSTC STC20170423214510304/23/17 21:45:31  5-MIN KSTC 240345Z 07009KT 10SM CLR 04/01 A2992 1020 82 0 070/09 RMK AO2 T00390011 $
14926KSTC STC20170423215011004/23/17 21:50:31  5-MIN KSTC 240350Z 06007KT 10SM CLR 04/01 A2992 1030 82 0 060/07 RMK AO2 SLP147 T00390011 $
14926KSTC STC20170423215511404/23/17 21:55:31  5-MIN KSTC 240355Z AUTO 07009G15KT 10SM CLR 04/01 A2992 1030 82 0 070/09G15 RMK AO2 T00390011 $
14926KSTC STC20170423220010804/23/17 22:00:31  5-MIN KSTC 240400Z AUTO 06010KT 10SM CLR 04/01 A2991 1030 82 0 060/10 RMK AO2 T00390011 $
14926KSTC STC20170423220510804/23/17 22:05:31  5-MIN KSTC 240405Z AUTO 07010KT 10SM CLR 04/01 A2991 1030 82 0 070/10 RMK AO2 T00390011 $
14926KSTC STC20170423221011404/23/17 22:10:31  5-MIN KSTC 240410Z AUTO 07009G16KT 10SM CLR 04/01 A2991 1030 82 0 070/09G16 RMK AO2 T00390011 $
14926KSTC STC20170423221511404/23/17 22:15:31  5-MIN KSTC 240415Z AUTO 08009G16KT 10SM CLR 04/01 A2991 1040 79 0 080/09G16 RMK AO2 T00390006 $
14926KSTC STC20170423222011404/23/17 22:20:31  5-MIN KSTC 240420Z AUTO 08010G16KT 10SM CLR 04/01 A2991 1040 79 0 070/10G16 RMK AO2 T00390006 $
14926KSTC STC20170423222510804/23/17 22:25:31  5-MIN KSTC 240425Z AUTO 07011KT 10SM CLR 04/01 A2990 1040 79 0 070/11 RMK AO2 T00390006 $
14926KSTC STC20170423223013004/23/17 22:30:31  5-MIN KSTC 240430Z AUTO 07009G18KT 040V100 10SM CLR 04/01 A2990 1040 79 0 070/09G18 040V100 RMK AO2 T00390006 $
14926KSTC STC20170423223511404/23/17 22:35:31  5-MIN KSTC 240435Z AUTO 07009G18KT 10SM CLR 04/01 A2990 1050 79 0 070/09G18 RMK AO2 T00390006 $
14926KSTC STC20170423224010804/23/17 22:40:31  5-MIN KSTC 240440Z AUTO 07007KT 10SM CLR 03/01 A2990 1050 82 0 070/07 RMK AO2 T00330006 $
14926KSTC STC20170423224511404/23/17 22:45:31  5-MIN KSTC 240445Z AUTO 08008G16KT 10SM CLR 03/01 A2990 1050 82 0 080/08G16 RMK AO2 T00330006 $
14926KSTC STC20170423225012104/23/17 22:50:31  5-MIN KSTC 240450Z AUTO 07008G16KT 10SM CLR 03/01 A2989 1050 82 0 070/08G16 RMK AO2 SLP138 T00330006 $
14926KSTC STC20170423225511404/23/17 22:55:31  5-MIN KSTC 240455Z AUTO 08009G16KT 10SM CLR 03/00 A2989 1050 79 0 080/09G16 RMK AO2 T00330000 $
14926KSTC STC20170423230011404/23/17 23:00:31  5-MIN KSTC 240500Z AUTO 08010G16KT 10SM CLR 03/00 A2989 1050 79 0 080/10G16 RMK AO2 T00330000 $
14926KSTC STC20170423230511704/23/17 23:05:31  5-MIN KSTC 240505Z AUTO 08010G18KT 10SM CLR 03/00 A2989 1050 82 -100 080/10G18 RMK AO2 T00280000 $
14926KSTC STC20170423231011704/23/17 23:10:31  5-MIN KSTC 240510Z AUTO 08012G18KT 10SM CLR 03/00 A2989 1060 82 -100 080/12G18 RMK AO2 T00280000 $
14926KSTC STC20170423231511104/23/17 23:15:31  5-MIN KSTC 240515Z AUTO 08009KT 10SM CLR 03/00 A2989 1060 82 -100 080/09 RMK AO2 T00280000 $
14926KSTC STC20170424082510404/24/17 08:25:31  5-MIN KSTC 241425Z 14010KT 10SM CLR 13/04 A2971 1220 54 1300 140/10 RMK AO2 T01330044
14926KSTC STC20170424083010404/24/17 08:30:31  5-MIN KSTC 241430Z 15011KT 10SM CLR 13/04 A2971 1220 54 1300 150/11 RMK AO2 T01330044
14926KSTC STC20170424083510404/24/17 08:35:31  5-MIN KSTC 241435Z 16010KT 10SM CLR 14/04 A2971 1230 52 1400 160/10 RMK AO2 T01390044
14926KSTC STC20170424084011004/24/17 08:40:31  5-MIN KSTC 241440Z 15011KT 10SM CLR 14/04 A2970 1230 51 1500 150/11 RMK AO2 T01440044 PNO $
14926KSTC STC20170424084510504/24/17 08:45:31  5-MIN KSTC 241445Z 17011KT CLR 14/04 A2970 1230 49 1500 170/11 RMK AO2 T01440039 PNO $
14926KSTC STC20170424085013004/24/17 08:50:31  5-MIN KSTC 241450Z 16014G19KT CLR 15/04 A2970 1230 47 1600 160/14G19 RMK AO2 SLP069 6//// T01500039 56014 PNO $
14926KSTC STC20170424085511104/24/17 08:55:31  5-MIN KSTC 241455Z 17014G20KT CLR 15/03 A2970 1230 45 1600 170/14G20 RMK AO2 T01500033 PNO $
14926KSTC STC20170424090011104/24/17 09:00:31  5-MIN KSTC 241500Z 18015G20KT CLR 15/03 A2970 1230 45 1600 180/15G20 RMK AO2 T01500033 PNO $
14926KSTC STC20170424090511104/24/17 09:05:31  5-MIN KSTC 241505Z 17012G22KT CLR 15/03 A2970 1230 45 1600 170/12G22 RMK AO2 T01500033 PNO $
14926KSTC STC20170424091011404/24/17 09:10:31  5-MIN KSTC 241510Z 18015G22KT FEW090 16/03 A2970 1230 43 1600 180/15G22 RMK AO2 T01560033 PNO $
14926KSTC STC20170424091511404/24/17 09:15:31  5-MIN KSTC 241515Z 17019G23KT SCT090 16/03 A2969 1240 42 1600 170/19G23 RMK AO2 T01560028 PNO $
14926KSTC STC20170424092011404/24/17 09:20:31  5-MIN KSTC 241520Z 17014G23KT BKN090 16/03 A2969 1240 42 1600 170/14G23 RMK AO2 T01560028 PNO $
14926KSTC STC20170424092511304/24/17 09:25:31  5-MIN KSTC 241525Z 17016KT 10SM BKN090 16/03 A2969 1240 42 1600 170/16 RMK AO2 T01560028 PNO $
14926KSTC STC20170424093013704/24/17 09:30:31  5-MIN KSTC 241530Z 18016G26KT 10SM BKN090 16/03 A2969 1240 42 1600 180/16G26 RMK AO2 PK WND 17026/1526 T01560028 PNO $
14926KSTC STC20170424093513704/24/17 09:35:31  5-MIN KSTC 241535Z 18017G26KT 10SM OVC090 16/03 A2969 1240 42 1600 170/17G26 RMK AO2 PK WND 17026/1526 T01560028 PNO $
14926KSTC STC20170424094011404/24/17 09:40:31  5-MIN KSTC 241540Z 17016G26KT 10SM OVC090 A2969 M M M 170/16G26 RMK AO2 PK WND 17026/1536 PNO $
14926KSTC STC20170424094513704/24/17 09:45:31  5-MIN KSTC 241545Z 18018G27KT 10SM OVC090 16/03 A2968 1250 40 1700 180/18G27 RMK AO2 PK WND 18027/1544 T01610028 PNO $
14926KSTC STC20170424095014404/24/17 09:50:31  5-MIN KSTC 241550Z 18016G27KT 10SM OVC090 17/03 A2968 1250 39 1800 180/16G27 RMK AO2 PK WND 18027/1544 SLP062 T01670028 PNO $
14926KSTC STC20170424095510304/24/17 09:55:31  5-MIN KSTC 241555Z 10SM OVC090 17/03 A2968 1250 39 1800 M /M RMK AO2 T01670028 PNO $
14926KSTC STC20170424100010304/24/17 10:00:31  5-MIN KSTC 241600Z 10SM OVC090 17/02 A2968 1250 37 1800 M /M RMK AO2 T01670022 PNO $
14926KSTC STC20170424100510304/24/17 10:05:31  5-MIN KSTC 241605Z 10SM OVC090 17/01 A2968 1250 34 1800 M /M RMK AO2 T01670011 PNO $
14926KSTC STC20170424101010304/24/17 10:10:31  5-MIN KSTC 241610Z 10SM OVC090 17/02 A2968 1250 36 1800 M /M RMK AO2 T01670017 PNO $
14926KSTC STC20170424101510304/24/17 10:15:31  5-MIN KSTC 241615Z 10SM OVC090 17/02 A2968 1250 36 1800 M /M RMK AO2 T01670017 PNO $
14926KSTC STC20170424102011904/24/17 10:20:31  5-MIN KSTC 241620Z 18013G20KT 10SM OVC090 17/02 A2968 1250 35 1800 180/13G20 RMK AO2 T01720017 PNO $
14926KSTC STC20170424102511304/24/17 10:25:31  5-MIN KSTC 241625Z 18015G20KT 10SM OVC090 17/02 A2967 1260 36 1800 170/15G20 RMK AO2 T01720022
14926KSTC STC20170424103011304/24/17 10:30:31  5-MIN KSTC 241630Z 18013G20KT 10SM OVC090 17/02 A2967 1260 35 1900 180/13G20 RMK AO2 T01720017
14926KSTC STC20170424103513104/24/17 10:35:31  5-MIN KSTC 241635Z 18021G31KT 10SM OVC090 17/01 A2967 1260 33 1900 170/21G31 RMK AO2 PK WND 16031/1635 T01720011
14926KSTC STC20170424104013104/24/17 10:40:31  5-MIN KSTC 241640Z 17020G35KT 10SM OVC090 17/00 A2967 1260 32 1800 170/20G35 RMK AO2 PK WND 16035/1636 T01670000
14926KSTC STC20170424104513104/24/17 10:45:31  5-MIN KSTC 241645Z 18019G35KT 10SM OVC090 17/00 A2967 1260 32 1800 180/19G35 RMK AO2 PK WND 16035/1636 T01670000
14926KSTC STC20170424105013804/24/17 10:50:31  5-MIN KSTC 241650Z 17019G28KT 10SM OVC090 17/01 A2967 1260 33 1800 160/19G28 RMK AO2 PK WND 16035/1636 SLP058 T01670006
14926KSTC STC20170424105511304/24/17 10:55:31  5-MIN KSTC 241655Z 17019G28KT 10SM OVC095 17/01 A2966 1270 33 1800 170/19G28 RMK AO2 T01670006
14926KSTC STC20170424110013104/24/17 11:00:31  5-MIN KSTC 241700Z 17017G28KT 10SM OVC095 17/00 A2966 1270 32 1800 170/17G28 RMK AO2 PK WND 16028/1657 T01670000
14926KSTC STC20170424110513104/24/17 11:05:31  5-MIN KSTC 241705Z 17019G28KT 10SM OVC095 17/01 A2966 1270 33 1800 170/19G28 RMK AO2 PK WND 16028/1657 T01670006
14926KSTC STC20170424111013104/24/17 11:10:31  5-MIN KSTC 241710Z 16018G24KT 10SM OVC090 17/01 A2966 1270 33 1800 160/18G24 RMK AO2 PK WND 16028/1657 T01670006
14926KSTC STC20170424111513104/24/17 11:15:31  5-MIN KSTC 241715Z 17018G23KT 10SM OVC090 17/01 A2966 1270 33 1800 170/18G23 RMK AO2 PK WND 16028/1657 T01670006
14926KSTC STC20170424112013104/24/17 11:20:31  5-MIN KSTC 241720Z 17018G24KT 10SM OVC090 16/01 A2966 1270 34 1700 170/18G24 RMK AO2 PK WND 16028/1657 T01610006
14926KSTC STC20170424112513104/24/17 11:25:31  5-MIN KSTC 241725Z 17020G27KT 10SM OVC090 16/00 A2966 1270 33 1700 170/20G27 RMK AO2 PK WND 16028/1657 T01610000
14926KSTC STC20170424113013104/24/17 11:30:31  5-MIN KSTC 241730Z 17015G27KT 10SM OVC090 16/00 A2965 1280 33 1700 170/15G27 RMK AO2 PK WND 16028/1657 T01610000
14926KSTC STC20170424113513104/24/17 11:35:31  5-MIN KSTC 241735Z 18017G26KT 10SM OVC090 16/00 A2965 1280 33 1700 170/17G26 RMK AO2 PK WND 16028/1657 T01610000
14926KSTC STC20170424114013104/24/17 11:40:31  5-MIN KSTC 241740Z 17017G23KT 10SM OVC090 17/00 A2965 1280 32 1800 170/17G23 RMK AO2 PK WND 16028/1657 T01670000
14926KSTC STC20170424114513104/24/17 11:45:31  5-MIN KSTC 241745Z 18015G24KT 10SM OVC090 17/00 A2965 1280 32 1800 170/15G24 RMK AO2 PK WND 16028/1657 T01670000
14926KSTC STC20170424115016204/24/17 11:50:31  5-MIN KSTC 241750Z 18020G27KT 10SM OVC090 17/00 A2964 1280 32 1800 180/20G27 RMK AO2 PK WND 16028/1657 SLP051 6//// T01670000 10172 20033 58024
14926KSTC STC20170424115511304/24/17 11:55:31  5-MIN KSTC 241755Z 17013G27KT 10SM OVC090 17/00 A2964 1290 32 1800 170/13G27 RMK AO2 T01670000
14926KSTC STC20170424120011304/24/17 12:00:31  5-MIN KSTC 241800Z 18014G21KT 10SM OVC090 17/01 A2964 1280 33 1800 170/14G21 RMK AO2 T01670006
14926KSTC STC20170424120511304/24/17 12:05:31  5-MIN KSTC 241805Z 17016G21KT 10SM OVC090 17/01 A2964 1280 33 1800 170/16G21 RMK AO2 T01670006
14926KSTC STC20170424121010704/24/17 12:10:31  5-MIN KSTC 241810Z 17014KT 10SM OVC090 17/01 A2964 1280 34 1800 170/14 RMK AO2 T01670011
14926KSTC STC20170424121510704/24/17 12:15:31  5-MIN KSTC 241815Z 18014KT 10SM OVC090 17/01 A2964 1290 33 1900 180/14 RMK AO2 T01720011
14926KSTC STC20170424122011304/24/17 12:20:31  5-MIN KSTC 241820Z 18018G22KT 10SM OVC095 17/01 A2963 1290 32 1900 170/18G22 RMK AO2 T01720006
14926KSTC STC20170424122513104/24/17 12:25:31  5-MIN KSTC 241825Z 17018G27KT 10SM OVC095 17/01 A2963 1290 32 1900 170/18G27 RMK AO2 PK WND 18027/1823 T01720006
14926KSTC STC20170424123013104/24/17 12:30:31  5-MIN KSTC 241830Z 17016G27KT 10SM OVC095 17/01 A2963 1300 32 1900 170/16G27 RMK AO2 PK WND 18027/1823 T01720006
14926KSTC STC20170424123513104/24/17 12:35:31  5-MIN KSTC 241835Z 17016G23KT 10SM OVC095 17/01 A2962 1300 32 1900 170/16G23 RMK AO2 PK WND 18027/1823 T01720006
14926KSTC STC20170424124013104/24/17 12:40:31  5-MIN KSTC 241840Z 17016G23KT 10SM OVC095 17/01 A2961 1310 32 1900 170/16G23 RMK AO2 PK WND 18027/1823 T01720006
14926KSTC STC20170424124513204/24/17 12:45:31  5-MIN KSTC 241845Z 16014KT 10SM OVC095 17/01 A2961 1320 33 1900 160/14 RMK AO2 PK WND 18027/1823 PRESFR T01720011
14926KSTC STC20170424125014504/24/17 12:50:31  5-MIN KSTC 241850Z 16019G27KT 10SM OVC095 18/01 A2960 1320 32 2000 160/19G27 RMK AO2 PK WND 18027/1823 PRESFR SLP036 T01780011
14926KSTC STC20170424125511304/24/17 12:55:31  5-MIN KSTC 241855Z 16014G27KT 10SM OVC095 18/01 A2960 1320 32 2000 160/14G27 RMK AO2 T01780011
14926KSTC STC20170424130011304/24/17 13:00:31  5-MIN KSTC 241900Z 16012G22KT 10SM OVC095 18/01 A2960 1330 32 2000 160/12G22 RMK AO2 T01780011
14926KSTC STC20170424130511304/24/17 13:05:31  5-MIN KSTC 241905Z 15017G22KT 10SM OVC100 18/01 A2960 1330 31 2100 150/17G22 RMK AO2 T01830011
14926KSTC STC20170424131010704/24/17 13:10:31  5-MIN KSTC 241910Z 17019KT 10SM BKN100 18/01 A2959 1330 31 2100 160/19 RMK AO2 T01830011
14926KSTC STC20170424131511304/24/17 13:15:31  5-MIN KSTC 241915Z 17014G21KT 10SM BKN100 19/01 A2959 1330 30 2100 170/14G21 RMK AO2 T01890011
14926KSTC STC20170424132011304/24/17 13:20:31  5-MIN KSTC 241920Z 17018G22KT 10SM BKN100 19/01 A2958 1340 28 2200 170/18G22 RMK AO2 T01940006
14926KSTC STC20170424132511304/24/17 13:25:31  5-MIN KSTC 241925Z 17020G24KT 10SM BKN110 19/00 A2958 1340 27 2200 170/20G24 RMK AO2 T01940000
14926KSTC STC20170424133013204/24/17 13:30:31  5-MIN KSTC 241930Z 17021G28KT 10SM BKN110 19/M01 A2958 1340 26 2200 170/21G28 RMK AO2 PK WND 15028/1927 T01941006
14926KSTC STC20170424133513204/24/17 13:35:31  5-MIN KSTC 241935Z 17020G29KT 10SM BKN100 19/M01 A2958 1340 26 2200 170/20G29 RMK AO2 PK WND 18029/1932 T01941006
14926KSTC STC20170424134013204/24/17 13:40:31  5-MIN KSTC 241940Z 17023G29KT 10SM BKN100 20/M01 A2958 1340 25 2300 170/23G29 RMK AO2 PK WND 18029/1932 T02001006
14926KSTC STC20170424134513204/24/17 13:45:31  5-MIN KSTC 241945Z 18023G30KT 10SM BKN100 20/M01 A2958 1340 25 2300 170/23G30 RMK AO2 PK WND 17030/1945 T02001006
14926KSTC STC20170424135013904/24/17 13:50:31  5-MIN KSTC 241950Z 18022G30KT 10SM BKN100 20/M01 A2957 1350 25 2300 170/22G30 RMK AO2 PK WND 18030/1949 SLP026 T02001006
14926KSTC STC20170424135513204/24/17 13:55:31  5-MIN KSTC 241955Z 17021G30KT 10SM SCT100 20/M01 A2957 1350 25 2300 170/21G30 RMK AO2 PK WND 16029/1954 T02001006
14926KSTC STC20170424140013204/24/17 14:00:31  5-MIN KSTC 242000Z 18021G32KT 10SM SCT100 20/M01 A2957 1350 24 2300 180/21G32 RMK AO2 PK WND 19032/2000 T02001011
14926KSTC STC20170424140513204/24/17 14:05:31  5-MIN KSTC 242005Z 18021G33KT 10SM SCT100 20/M02 A2958 1350 23 2300 180/21G33 RMK AO2 PK WND 18033/2001 T02001017
14926KSTC STC20170424141013204/24/17 14:10:31  5-MIN KSTC 242010Z 18019G33KT 10SM BKN100 20/M02 A2957 1350 23 2300 180/19G33 RMK AO2 PK WND 18033/2001 T02001017
14926KSTC STC20170424141513204/24/17 14:15:31  5-MIN KSTC 242015Z 18019G29KT 10SM BKN100 20/M02 A2957 1350 23 2300 180/19G29 RMK AO2 PK WND 18033/2001 T02001017
14926KSTC STC20170424142013204/24/17 14:20:31  5-MIN KSTC 242020Z 18017G29KT 10SM BKN100 21/M01 A2957 1350 23 2300 180/17G29 RMK AO2 PK WND 18033/2001 T02061011
14926KSTC STC20170424142513204/24/17 14:25:31  5-MIN KSTC 242025Z 18023G31KT 10SM BKN100 21/M01 A2957 1360 23 2400 180/23G31 RMK AO2 PK WND 18033/2001 T02061011
14926KSTC STC20170424143013204/24/17 14:30:31  5-MIN KSTC 242030Z 19026G33KT 10SM BKN100 20/M02 A2957 1360 22 2300 190/26G33 RMK AO2 PK WND 19033/2027 T02001022
14926KSTC STC20170424143513204/24/17 14:35:31  5-MIN KSTC 242035Z 19025G33KT 10SM BKN100 20/M02 A2957 1360 22 2300 190/25G33 RMK AO2 PK WND 19033/2027 T02001022
14926KSTC STC20170424144013204/24/17 14:40:31  5-MIN KSTC 242040Z 18019G31KT 10SM BKN100 19/M02 A2957 1360 23 2200 180/19G31 RMK AO2 PK WND 19033/2027 T01941022
14926KSTC STC20170424144513204/24/17 14:45:31  5-MIN KSTC 242045Z 18021G26KT 10SM BKN100 19/M02 A2956 1360 23 2200 180/21G26 RMK AO2 PK WND 19033/2027 T01941022
14926KSTC STC20170424145014504/24/17 14:50:31  5-MIN KSTC 242050Z 18020G26KT 10SM OVC095 19/M02 A2956 1360 23 2200 180/20G26 RMK AO2 PK WND 19033/2027 SLP021 T01941022 58019
14926KSTC STC20170424145513204/24/17 14:55:31  5-MIN KSTC 242055Z 17023G27KT 10SM OVC095 19/M02 A2955 1370 24 2200 170/23G27 RMK AO2 PK WND 17027/2054 T01941017
14926KSTC STC20170424150013204/24/17 15:00:31  5-MIN KSTC 242100Z 17022G28KT 10SM OVC090 19/M02 A2955 1370 24 2200 170/22G28 RMK AO2 PK WND 17028/2058 T01941017
14926KSTC STC20170424150513204/24/17 15:05:31  5-MIN KSTC 242105Z 17023G28KT 10SM OVC085 19/M02 A2956 1360 23 2200 170/23G28 RMK AO2 PK WND 18028/2104 T01941022
14926KSTC STC20170424151013204/24/17 15:10:31  5-MIN KSTC 242110Z 17020G30KT 10SM OVC085 20/M01 A2956 1360 24 2300 170/20G30 RMK AO2 PK WND 17030/2110 T02001011
14926KSTC STC20170424151513204/24/17 15:15:31  5-MIN KSTC 242115Z 18026G37KT 10SM OVC080 19/M01 A2957 1350 26 2200 180/26G37 RMK AO2 PK WND 19037/2112 T01891006
14926KSTC STC20170424152014504/24/17 15:20:31  5-MIN KSTC 242120Z 18024G37KT 10SM BKN080 OVC090 18/00 A2958 1350 29 2100 180/24G37 RMK AO2 PK WND 19037/2112 PRESRR T01830000
14926KSTC STC20170424152515404/24/17 15:25:31  5-MIN KSTC 242125Z 19023G34KT 10SM -RA BKN075 OVC090 18/01 A2958 1340 31 2000 190/23G34 RMK AO2 PK WND 19037/2112 RAB22 P0000 T01780006
14926KSTC STC20170424153014704/24/17 15:30:31  5-MIN KSTC 242130Z 18019G28KT 10SM -RA OVC075 18/00 A2958 1350 30 2000 180/19G28 RMK AO2 PK WND 19037/2112 RAB22 P0000 T01780000
14926KSTC STC20170424153515304/24/17 15:35:31  5-MIN KSTC 242135Z 18017G25KT 10SM BKN075 OVC090 18/00 A2958 1350 30 2000 180/17G25 RMK AO2 PK WND 19037/2112 RAB22E31 P0000 T01780000
14926KSTC STC20170424154015304/24/17 15:40:31  5-MIN KSTC 242140Z 19023G30KT 10SM BKN075 OVC090 18/00 A2958 1350 30 2000 190/23G30 RMK AO2 PK WND 19037/2112 RAB22E31 P0000 T01780000
14926KSTC STC20170424154514704/24/17 15:45:31  5-MIN KSTC 242145Z 19018G34KT 10SM OVC075 18/M01 A2957 1350 28 2000 190/18G34 RMK AO2 PK WND 19037/2112 RAB22E31 P0000 T01781006
14926KSTC STC20170424155015304/24/17 15:50:31  5-MIN KSTC 242150Z 18013G34KT 10SM OVC075 18/00 A2957 1360 30 2000 170/13G34 RMK AO2 PK WND 19037/2112 RAB22E31 SLP024 P0000 T01780000
14926KSTC STC20170424155510704/24/17 15:55:31  5-MIN KSTC 242155Z 17014KT 10SM OVC075 18/01 A2957 1360 31 2000 170/14 RMK AO2 T01780006
14926KSTC STC20170424160010704/24/17 16:00:31  5-MIN KSTC 242200Z 18014KT 10SM OVC075 18/01 A2956 1360 31 2000 180/14 RMK AO2 T01780006
14926KSTC STC20170424160511304/24/17 16:05:31  5-MIN KSTC 242205Z 17013G21KT 10SM OVC075 18/01 A2956 1360 31 2000 170/13G21 RMK AO2 T01780006
14926KSTC STC20170424161010704/24/17 16:10:31  5-MIN KSTC 242210Z 17015KT 10SM OVC075 18/01 A2956 1360 31 2000 170/15 RMK AO2 T01780006
14926KSTC STC20170424161511304/24/17 16:15:31  5-MIN KSTC 242215Z 17011G22KT 10SM OVC070 18/01 A2956 1360 31 2000 170/11G22 RMK AO2 T01780006
14926KSTC STC20170424162011304/24/17 16:20:31  5-MIN KSTC 242220Z 17012G22KT 10SM OVC070 17/01 A2956 1360 32 2000 170/12G22 RMK AO2 T01720006
14926KSTC STC20170424162511304/24/17 16:25:31  5-MIN KSTC 242225Z 17017G22KT 10SM OVC070 17/01 A2956 1360 32 2000 170/17G22 RMK AO2 T01720006
14926KSTC STC20170424163012004/24/17 16:30:31  5-MIN KSTC 242230Z 17016G22KT 10SM BKN070 OVC085 17/01 A2956 1360 33 2000 170/16G22 RMK AO2 T01720011
14926KSTC STC20170424163512004/24/17 16:35:31  5-MIN KSTC 242235Z 17014G22KT 10SM BKN065 OVC085 17/02 A2956 1360 35 2000 170/14G22 RMK AO2 T01720017
14926KSTC STC20170424164012004/24/17 16:40:31  5-MIN KSTC 242240Z 15020G25KT 10SM SCT070 OVC085 17/02 A2956 1360 37 1900 150/20G25 RMK AO2 T01670022
14926KSTC STC20170424164512004/24/17 16:45:31  5-MIN KSTC 242245Z 16016G25KT 10SM FEW070 OVC090 17/03 A2956 1360 39 1900 160/16G25 RMK AO2 T01670028
14926KSTC STC20170424165012104/24/17 16:50:31  5-MIN KSTC 242250Z 16016KT 10SM FEW070 OVC090 16/03 A2956 1360 42 1900 160/16 RMK AO2 SLP020 T01610033
14926KSTC STC20170424165511404/24/17 16:55:31  5-MIN KSTC 242255Z 15011KT 10SM BKN090 OVC110 16/03 A2955 1370 42 1900 150/11 RMK AO2 T01610033
14926KSTC STC20170424170011404/24/17 17:00:31  5-MIN KSTC 242300Z 15014KT 10SM BKN095 OVC110 16/04 A2955 1370 45 1900 140/14 RMK AO2 T01610044
14926KSTC STC20170424170510704/24/17 17:05:31  5-MIN KSTC 242305Z 14010KT 10SM OVC100 16/04 A2955 1370 45 1900 140/10 RMK AO2 T01610044
14926KSTC STC20170424171010704/24/17 17:10:31  5-MIN KSTC 242310Z 14009KT 10SM OVC100 16/04 A2955 1370 45 1900 140/09 RMK AO2 T01610044
14926KSTC STC20170424171510704/24/17 17:15:31  5-MIN KSTC 242315Z 14010KT 10SM OVC100 16/04 A2955 1370 45 1900 140/10 RMK AO2 T01610044
14926KSTC STC20170424172010704/24/17 17:20:31  5-MIN KSTC 242320Z 14008KT 10SM OVC100 16/04 A2955 1370 47 1800 140/08 RMK AO2 T01560044
14926KSTC STC20170424172510704/24/17 17:25:31  5-MIN KSTC 242325Z 15007KT 10SM OVC100 16/04 A2955 1370 45 1900 140/07 RMK AO2 T01610044
14926KSTC STC20170424173010704/24/17 17:30:31  5-MIN KSTC 242330Z 14008KT 10SM OVC100 16/04 A2955 1370 45 1900 140/08 RMK AO2 T01610044
14926KSTC STC20170424173510704/24/17 17:35:31  5-MIN KSTC 242335Z 14008KT 10SM OVC100 16/04 A2955 1370 47 1800 140/08 RMK AO2 T01560044
14926KSTC STC20170424174010704/24/17 17:40:31  5-MIN KSTC 242340Z 13007KT 10SM OVC100 16/04 A2955 1370 47 1800 130/07 RMK AO2 T01560044
14926KSTC STC20170424174510704/24/17 17:45:31  5-MIN KSTC 242345Z 14006KT 10SM OVC100 16/04 A2955 1380 47 1800 140/06 RMK AO2 T01560044
14926KSTC STC20170424175013804/24/17 17:50:31  5-MIN KSTC 242350Z 14006KT 10SM OVC100 16/05 A2954 1380 49 1800 130/06 RMK AO2 SLP016 60000 T01560050 10206 20156 56028
14926KSTC STC20170424175510704/24/17 17:55:31  5-MIN KSTC 242355Z 14006KT 10SM OVC100 16/05 A2954 1380 49 1800 140/06 RMK AO2 T01560050
14926KSTC STC20170424180010704/24/17 18:00:31  5-MIN KSTC 250000Z 15005KT 10SM OVC100 15/06 A2954 1380 53 1700 150/05 RMK AO2 T01500056
14926KSTC STC20170424180510704/24/17 18:05:31  5-MIN KSTC 250005Z 16004KT 10SM OVC100 15/06 A2954 1380 53 1700 160/04 RMK AO2 T01500056
14926KSTC STC20170424181010704/24/17 18:10:31  5-MIN KSTC 250010Z 16004KT 10SM OVC095 15/06 A2954 1380 53 1700 160/04 RMK AO2 T01500056
14926KSTC STC20170424181510704/24/17 18:15:31  5-MIN KSTC 250015Z 16004KT 10SM OVC095 15/06 A2954 1380 53 1700 160/04 RMK AO2 T01500056
14926KSTC STC20170424182010704/24/17 18:20:31  5-MIN KSTC 250020Z 00000KT 10SM OVC095 15/06 A2954 1380 53 1700 000/00 RMK AO2 T01500056
14926KSTC STC20170424182510704/24/17 18:25:31  5-MIN KSTC 250025Z 00000KT 10SM OVC095 15/06 A2953 1380 53 1700 000/00 RMK AO2 T01500056
14926KSTC STC20170424183010704/24/17 18:30:31  5-MIN KSTC 250030Z 00000KT 10SM OVC095 15/06 A2954 1380 53 1700 000/00 RMK AO2 T01500056
14926KSTC STC20170424183510704/24/17 18:35:31  5-MIN KSTC 250035Z 00000KT 10SM OVC090 15/06 A2954 1380 53 1700 000/00 RMK AO2 T01500056
14926KSTC STC20170424184010704/24/17 18:40:31  5-MIN KSTC 250040Z 00000KT 10SM OVC090 15/05 A2954 1380 51 1700 000/00 RMK AO2 T01500050
14926KSTC STC20170424184510704/24/17 18:45:31  5-MIN KSTC 250045Z 00000KT 10SM OVC090 15/05 A2953 1390 51 1700 000/00 RMK AO2 T01500050
14926KSTC STC20170424185011404/24/17 18:50:31  5-MIN KSTC 250050Z 00000KT 10SM OVC090 15/05 A2953 1390 51 1700 000/00 RMK AO2 SLP012 T01500050
14926KSTC STC20170424185510704/24/17 18:55:31  5-MIN KSTC 250055Z 00000KT 10SM OVC090 15/05 A2953 1390 51 1800 000/00 RMK AO2 T01500050
14926KSTC STC20170424190010704/24/17 19:00:31  5-MIN KSTC 250100Z 11003KT 10SM OVC090 14/05 A2953 1390 53 1700 100/03 RMK AO2 T01440050
14926KSTC STC20170424190510704/24/17 19:05:31  5-MIN KSTC 250105Z 09003KT 10SM OVC090 14/05 A2953 1390 53 1700 090/03 RMK AO2 T01440050
14926KSTC STC20170424191010704/24/17 19:10:31  5-MIN KSTC 250110Z 00000KT 10SM OVC090 14/05 A2952 1390 53 1700 000/00 RMK AO2 T01440050
14926KSTC STC20170424191510704/24/17 19:15:31  5-MIN KSTC 250115Z 00000KT 10SM OVC090 14/04 A2952 1400 51 1700 000/00 RMK AO2 T01440044
14926KSTC STC20170424192010704/24/17 19:20:31  5-MIN KSTC 250120Z 00000KT 10SM OVC090 14/06 A2952 1400 57 1600 000/00 RMK AO2 T01390056
14926KSTC STC20170424192510704/24/17 19:25:31  5-MIN KSTC 250125Z 00000KT 10SM OVC090 14/05 A2952 1400 55 1600 000/00 RMK AO2 T01390050
14926KSTC STC20170424193010704/24/17 19:30:31  5-MIN KSTC 250130Z 05003KT 10SM OVC085 14/05 A2952 1400 55 1600 050/03 RMK AO2 T01390050
14926KSTC STC20170424193510704/24/17 19:35:31  5-MIN KSTC 250135Z 07003KT 10SM OVC085 13/06 A2952 1400 61 1500 070/03 RMK AO2 T01280056
14926KSTC STC20170424194010704/24/17 19:40:31  5-MIN KSTC 250140Z 06003KT 10SM OVC085 13/06 A2952 1400 59 1600 060/03 RMK AO2 T01330056
14926KSTC STC20170424194510704/24/17 19:45:31  5-MIN KSTC 250145Z 05003KT 10SM OVC085 13/05 A2952 1400 57 1600 050/03 RMK AO2 T01330050
14926KSTC STC20170424195011404/24/17 19:50:31  5-MIN KSTC 250150Z 05003KT 10SM OVC085 13/05 A2952 1400 57 1600 050/03 RMK AO2 SLP006 T01330050
14926KSTC STC20170424195510704/24/17 19:55:31  5-MIN KSTC 250155Z 04003KT 10SM OVC085 13/05 A2952 1400 57 1600 040/03 RMK AO2 T01330050
14926KSTC STC20170424200010704/24/17 20:00:31  5-MIN KSTC 250200Z 05004KT 10SM OVC085 13/05 A2952 1400 57 1600 050/04 RMK AO2 T01330050
14926KSTC STC20170424200510704/24/17 20:05:31  5-MIN KSTC 250205Z 06004KT 10SM OVC085 14/05 A2952 1400 55 1600 060/04 RMK AO2 T01390050
14926KSTC STC20170424201010704/24/17 20:10:31  5-MIN KSTC 250210Z 00000KT 10SM OVC085 13/05 A2952 1390 57 1600 000/00 RMK AO2 T01330050
14926KSTC STC20170424201510704/24/17 20:15:31  5-MIN KSTC 250215Z 00000KT 10SM OVC085 14/04 A2953 1390 52 1600 000/00 RMK AO2 T01390044
14926KSTC STC20170424202010704/24/17 20:20:31  5-MIN KSTC 250220Z 00000KT 10SM OVC085 14/05 A2953 1390 55 1600 000/00 RMK AO2 T01390050
14926KSTC STC20170424202510704/24/17 20:25:31  5-MIN KSTC 250225Z 15005KT 10SM OVC085 14/05 A2953 1390 53 1700 140/05 RMK AO2 T01440050
14926KSTC STC20170424203010704/24/17 20:30:31  5-MIN KSTC 250230Z 16007KT 10SM OVC080 14/05 A2952 1390 53 1700 160/07 RMK AO2 T01440050
14926KSTC STC20170424203510704/24/17 20:35:31  5-MIN KSTC 250235Z 16007KT 10SM OVC080 15/04 A2952 1390 49 1800 160/07 RMK AO2 T01500044
14926KSTC STC20170424204010704/24/17 20:40:31  5-MIN KSTC 250240Z 15007KT 10SM OVC080 14/05 A2952 1400 53 1700 150/07 RMK AO2 T01440050
14926KSTC STC20170424204510704/24/17 20:45:31  5-MIN KSTC 250245Z 15006KT 10SM OVC080 14/05 A2952 1400 53 1700 150/06 RMK AO2 T01440050
14926KSTC STC20170424205012004/24/17 20:50:31  5-MIN KSTC 250250Z 14007KT 10SM OVC075 14/04 A2953 1390 51 1700 140/07 RMK AO2 SLP006 T01440044 58004
14926KSTC STC20170424205510704/24/17 20:55:31  5-MIN KSTC 250255Z 15005KT 10SM OVC075 14/04 A2953 1390 51 1700 150/05 RMK AO2 T01440044
14926KSTC STC20170424210010704/24/17 21:00:31  5-MIN KSTC 250300Z 16005KT 10SM OVC075 14/04 A2953 1390 51 1700 160/05 RMK AO2 T01440044
14926KSTC STC20170424210510704/24/17 21:05:31  5-MIN KSTC 250305Z 18003KT 10SM OVC075 14/04 A2953 1390 51 1700 180/03 RMK AO2 T01440044
14926KSTC STC20170424211010704/24/17 21:10:31  5-MIN KSTC 250310Z 22005KT 10SM OVC075 15/04 A2954 1380 47 1700 220/05 RMK AO2 T01500039
14926KSTC STC20170424211510704/24/17 21:15:31  5-MIN KSTC 250315Z 21004KT 10SM OVC070 15/04 A2954 1380 49 1700 210/04 RMK AO2 T01500044
14926KSTC STC20170424212010704/24/17 21:20:31  5-MIN KSTC 250320Z VRB04KT 10SM OVC070 14/04 A2954 1380 51 1700 VRB/04 RMK AO2 T01440044
14926KSTC STC20170424212512304/24/17 21:25:31  5-MIN KSTC 250325Z 26005KT 10SM -RA OVC070 14/05 A2954 1380 53 1700 260/05 RMK AO2 RAB23 P0000 T01440050
14926KSTC STC20170424213012304/24/17 21:30:31  5-MIN KSTC 250330Z VRB03KT 10SM -RA OVC070 14/06 A2954 1380 57 1600 VRB/03 RMK AO2 RAB23 P0000 T01390056
14926KSTC STC20170424213512204/24/17 21:35:31  5-MIN KSTC 250335Z 00000KT 10SM OVC070 14/06 A2954 1380 55 1700 000/00 RMK AO2 RAB23E34 P0000 T01440056
14926KSTC STC20170424214012204/24/17 21:40:31  5-MIN KSTC 250340Z 00000KT 10SM OVC070 14/06 A2953 1390 59 1600 000/00 RMK AO2 RAB23E34 P0000 T01390061
14926KSTC STC20170424214512204/24/17 21:45:31  5-MIN KSTC 250345Z 12005KT 10SM OVC070 13/07 A2953 1390 64 1600 120/05 RMK AO2 RAB23E34 P0000 T01330067
14926KSTC STC20170424215012904/24/17 21:50:31  5-MIN KSTC 250350Z 12004KT 10SM OVC070 14/05 A2953 1390 53 1700 120/04 RMK AO2 RAB23E34 SLP007 P0000 T01440050
14926KSTC STC20170424215511204/24/17 21:55:31  5-MIN KSTC 250355Z AUTO 12004KT 10SM OVC070 14/04 A2953 1390 51 1700 120/04 RMK AO2 T01440044
14926KSTC STC20170424220011204/24/17 22:00:31  5-MIN KSTC 250400Z AUTO 13007KT 10SM OVC070 15/04 A2953 1390 47 1800 130/07 RMK AO2 T01500039
14926KSTC STC20170424220511204/24/17 22:05:31  5-MIN KSTC 250405Z AUTO 13007KT 10SM OVC075 15/04 A2953 1390 47 1800 130/07 RMK AO2 T01500039
14926KSTC STC20170424221011204/24/17 22:10:31  5-MIN KSTC 250410Z AUTO 13006KT 10SM OVC075 16/04 A2953 1390 45 1800 130/06 RMK AO2 T01560039
14926KSTC STC20170424221511204/24/17 22:15:31  5-MIN KSTC 250415Z AUTO 13007KT 10SM OVC070 15/04 A2953 1390 47 1800 130/07 RMK AO2 T01500039
14926KSTC STC20170424222011204/24/17 22:20:31  5-MIN KSTC 250420Z AUTO 14007KT 10SM OVC070 15/04 A2953 1390 49 1800 140/07 RMK AO2 T01500044
14926KSTC STC20170424222511204/24/17 22:25:31  5-MIN KSTC 250425Z AUTO 14007KT 10SM OVC070 14/04 A2953 1390 51 1700 140/07 RMK AO2 T01440044
14926KSTC STC20170424223011204/24/17 22:30:31  5-MIN KSTC 250430Z AUTO 14008KT 10SM OVC070 14/05 A2953 1390 53 1700 140/08 RMK AO2 T01440050
14926KSTC STC20170424223511204/24/17 22:35:31  5-MIN KSTC 250435Z AUTO 15008KT 10SM OVC070 14/05 A2953 1390 53 1700 150/08 RMK AO2 T01440050
14926KSTC STC20170424224011204/24/17 22:40:31  5-MIN KSTC 250440Z AUTO 15008KT 10SM OVC070 14/06 A2952 1400 55 1700 150/08 RMK AO2 T01440056
14926KSTC STC20170424224511204/24/17 22:45:31  5-MIN KSTC 250445Z AUTO 15007KT 10SM OVC070 14/06 A2952 1400 55 1700 150/07 RMK AO2 T01440056
14926KSTC STC20170424225011904/24/17 22:50:31  5-MIN KSTC 250450Z AUTO 15007KT 10SM OVC070 14/06 A2952 1400 57 1700 150/07 RMK AO2 SLP003 T01440061
14926KSTC STC20170424225512204/24/17 22:55:31  5-MIN KSTC 250455Z AUTO 14006KT 10SM -RA OVC070 14/07 A2952 1400 59 1700 140/06 RMK AO2 P0000 T01440067
14926KSTC STC20170424230012204/24/17 23:00:31  5-MIN KSTC 250500Z AUTO 13005KT 10SM -RA OVC070 14/07 A2952 1400 59 1700 130/05 RMK AO2 P0000 T01440067
14926KSTC STC20170424230512204/24/17 23:05:31  5-MIN KSTC 250505Z AUTO 13003KT 10SM -RA OVC070 14/07 A2952 1400 59 1700 130/03 RMK AO2 P0000 T01440067
14926KSTC STC20170424231012404/24/17 23:10:31  5-MIN KSTC 250510Z AUTO 13003KT 10SM OVC070 14/07 A2952 1400 59 1700 130/03 RMK AO2 RAE08 P0000 T01440067
14926KSTC STC20170424231512404/24/17 23:15:31  5-MIN KSTC 250515Z AUTO 12003KT 10SM OVC070 14/07 A2952 1400 59 1700 120/03 RMK AO2 RAE08 P0000 T01440067
14926KSTC STC20170424232012404/24/17 23:20:31  5-MIN KSTC 250520Z AUTO 12005KT 10SM OVC070 14/07 A2952 1400 59 1700 120/05 RMK AO2 RAE08 P0000 T01440067
14926KSTC STC20170424232512404/24/17 23:25:31  5-MIN KSTC 250525Z AUTO 13005KT 10SM OVC075 14/07 A2952 1400 59 1700 130/05 RMK AO2 RAE08 P0000 T01440067
14926KSTC STC20170424233012404/24/17 23:30:31  5-MIN KSTC 250530Z AUTO 12005KT 10SM OVC075 14/07 A2951 1410 59 1700 120/05 RMK AO2 RAE08 P0000 T01440067
14926KSTC STC20170424233512404/24/17 23:35:31  5-MIN KSTC 250535Z AUTO 12006KT 10SM OVC075 14/07 A2951 1410 59 1700 120/06 RMK AO2 RAE08 P0000 T01440067
14926KSTC STC20170424234012404/24/17 23:40:31  5-MIN KSTC 250540Z AUTO 13006KT 10SM OVC075 14/07 A2951 1410 59 1700 120/06 RMK AO2 RAE08 P0000 T01440067
14926KSTC STC20170424234512404/24/17 23:45:31  5-MIN KSTC 250545Z AUTO 13007KT 10SM OVC075 14/07 A2951 1410 64 1600 130/07 RMK AO2 RAE08 P0000 T01390072
14926KSTC STC20170424235016504/24/17 23:50:31  5-MIN KSTC 250550Z AUTO 13007KT 10SM OVC075 14/07 A2951 1400 64 1600 130/07 RMK AO2 RAE08 SLP001 P0000 60000 T01390072 10156 20128 402060022 55006
14926KSTC STC20170424235511204/24/17 23:55:31  5-MIN KSTC 250555Z AUTO 14005KT 10SM OVC075 13/07 A2951 1400 66 1600 140/05 RMK AO2 T01330072
14926KSTC STC20170425000011204/25/17 00:00:31  5-MIN KSTC 250600Z AUTO 14005KT 10SM OVC075 13/08 A2952 1400 74 1500 130/05 RMK AO2 T01280083
14926KSTC STC20170425000511204/25/17 00:05:31  5-MIN KSTC 250605Z AUTO 13006KT 10SM OVC075 13/08 A2952 1400 69 1600 130/06 RMK AO2 T01330078
14926KSTC STC20170425001012804/25/17 00:10:31  5-MIN KSTC 250610Z AUTO 11004KT 10SM -RA OVC075 14/07 A2952 1400 64 1600 110/04 RMK AO2 RAB07 P0000 T01390072
14926KSTC STC20170425001512804/25/17 00:15:31  5-MIN KSTC 250615Z AUTO 11005KT 10SM -RA OVC075 14/07 A2951 1410 64 1600 110/05 RMK AO2 RAB07 P0000 T01390072
14926KSTC STC20170425002012704/25/17 00:20:31  5-MIN KSTC 250620Z AUTO 12004KT 10SM OVC075 13/08 A2951 1400 69 1600 120/04 RMK AO2 RAB07E20 P0000 T01330078
14926KSTC STC20170425002512704/25/17 00:25:31  5-MIN KSTC 250625Z AUTO 12004KT 10SM OVC075 13/08 A2951 1400 69 1600 120/04 RMK AO2 RAB07E20 P0000 T01330078
14926KSTC STC20170425003012704/25/17 00:30:31  5-MIN KSTC 250630Z AUTO 12004KT 10SM OVC075 13/08 A2951 1410 69 1600 120/04 RMK AO2 RAB07E20 P0000 T01330078
14926KSTC STC20170425003512804/25/17 00:35:31  5-MIN KSTC 250635Z AUTO 11004KT 10SM -RA OVC080 13/07 A2951 1410 66 1600 110/04 RMK AO2 RAB07 P0000 T01330072
14926KSTC STC20170425004012804/25/17 00:40:31  5-MIN KSTC 250640Z AUTO 13003KT 10SM -RA OVC080 14/07 A2951 1410 64 1600 130/03 RMK AO2 RAB07 P0000 T01390072
14926KSTC STC20170425004512804/25/17 00:45:31  5-MIN KSTC 250645Z AUTO 10003KT 10SM -RA OVC080 13/08 A2951 1410 69 1600 100/03 RMK AO2 RAB07 P0000 T01330078
14926KSTC STC20170425005013504/25/17 00:50:31  5-MIN KSTC 250650Z AUTO 00000KT 10SM -RA OVC080 13/08 A2951 1410 71 1500 000/00 RMK AO2 RAB07 SLP998 P0000 T01280078
14926KSTC STC20170425005512204/25/17 00:55:31  5-MIN KSTC 250655Z AUTO 07003KT 10SM -RA OVC080 13/08 A2950 1410 71 1500 070/03 RMK AO2 P0000 T01280078
14926KSTC STC20170425010012604/25/17 01:00:31  5-MIN KSTC 250700Z AUTO 07003KT 10SM OVC080 13/08 A2950 1420 71 1500 060/03 RMK AO2 RAE0658 P0000 T01280078
14926KSTC STC20170425010512204/25/17 01:05:31  5-MIN KSTC 250705Z AUTO 07003KT 10SM -RA OVC080 13/08 A2950 1420 71 1500 070/03 RMK AO2 P0000 T01280078
14926KSTC STC20170425011012204/25/17 01:10:31  5-MIN KSTC 250710Z AUTO 07003KT 10SM -RA OVC080 12/08 A2950 1420 77 1500 070/03 RMK AO2 P0000 T01220083
14926KSTC STC20170425011512404/25/17 01:15:31  5-MIN KSTC 250715Z AUTO 08004KT 10SM OVC080 12/08 A2950 1420 74 1500 080/04 RMK AO2 RAE14 P0000 T01220078
14926KSTC STC20170425012012404/25/17 01:20:31  5-MIN KSTC 250720Z AUTO 09004KT 10SM OVC075 12/08 A2949 1420 74 1500 090/04 RMK AO2 RAE14 P0000 T01220078
14926KSTC STC20170425012512404/25/17 01:25:31  5-MIN KSTC 250725Z AUTO 08004KT 10SM OVC075 13/08 A2949 1430 71 1500 080/04 RMK AO2 RAE14 P0000 T01280078
14926KSTC STC20170425013012404/25/17 01:30:31  5-MIN KSTC 250730Z AUTO 08005KT 10SM OVC075 13/08 A2949 1430 71 1500 080/05 RMK AO2 RAE14 P0000 T01280078
14926KSTC STC20170425013512404/25/17 01:35:31  5-MIN KSTC 250735Z AUTO 08006KT 10SM OVC075 13/08 A2949 1430 71 1500 080/06 RMK AO2 RAE14 P0000 T01280078
14926KSTC STC20170425014012404/25/17 01:40:31  5-MIN KSTC 250740Z AUTO 09005KT 10SM OVC075 13/08 A2949 1430 71 1500 090/05 RMK AO2 RAE14 P0000 T01280078
14926KSTC STC20170425014512404/25/17 01:45:31  5-MIN KSTC 250745Z AUTO 09005KT 10SM OVC075 13/08 A2948 1430 71 1500 080/05 RMK AO2 RAE14 P0000 T01280078
14926KSTC STC20170425015013104/25/17 01:50:31  5-MIN KSTC 250750Z AUTO 08005KT 10SM OVC075 13/08 A2948 1430 71 1500 080/05 RMK AO2 RAE14 SLP989 P0000 T01280078
14926KSTC STC20170425015511204/25/17 01:55:31  5-MIN KSTC 250755Z AUTO 07006KT 10SM OVC075 13/08 A2948 1440 71 1500 070/06 RMK AO2 T01280078
14926KSTC STC20170425020011204/25/17 02:00:31  5-MIN KSTC 250800Z AUTO 08005KT 10SM OVC080 13/08 A2948 1440 71 1500 080/05 RMK AO2 T01280078
14926KSTC STC20170425020511204/25/17 02:05:31  5-MIN KSTC 250805Z AUTO 08006KT 10SM OVC080 13/08 A2948 1440 71 1600 080/06 RMK AO2 T01280078
14926KSTC STC20170425021011204/25/17 02:10:31  5-MIN KSTC 250810Z AUTO 08006KT 10SM OVC080 13/07 A2948 1440 69 1600 080/06 RMK AO2 T01280072
14926KSTC STC20170425021511204/25/17 02:15:31  5-MIN KSTC 250815Z AUTO 08006KT 10SM OVC080 13/07 A2948 1440 69 1600 080/06 RMK AO2 T01280072
14926KSTC STC20170425022011204/25/17 02:20:31  5-MIN KSTC 250820Z AUTO 08005KT 10SM OVC080 13/07 A2948 1440 69 1600 080/05 RMK AO2 T01280072
14926KSTC STC20170425022511204/25/17 02:25:31  5-MIN KSTC 250825Z AUTO 08006KT 10SM OVC080 13/07 A2948 1440 69 1600 080/06 RMK AO2 T01280072
14926KSTC STC20170425023011204/25/17 02:30:31  5-MIN KSTC 250830Z AUTO 08006KT 10SM OVC080 13/07 A2948 1440 69 1600 080/06 RMK AO2 T01280072
14926KSTC STC20170425023511204/25/17 02:35:31  5-MIN KSTC 250835Z AUTO 08006KT 10SM OVC080 13/07 A2947 1440 69 1600 070/06 RMK AO2 T01280072
14926KSTC STC20170425024011904/25/17 02:40:31  5-MIN KSTC 250840Z AUTO 08006KT 10SM BKN080 BKN100 12/07 A2947 1440 71 1500 080/06 RMK AO2 T01220072
14926KSTC STC20170425024511904/25/17 02:45:31  5-MIN KSTC 250845Z AUTO 08006KT 10SM BKN080 BKN100 12/07 A2947 1440 71 1500 080/06 RMK AO2 T01220072
14926KSTC STC20170425025013804/25/17 02:50:31  5-MIN KSTC 250850Z AUTO 08006KT 10SM SCT080 BKN100 12/07 A2947 1440 71 1500 080/06 RMK AO2 SLP986 60000 T01220072 58004
14926KSTC STC20170425025511904/25/17 02:55:31  5-MIN KSTC 250855Z AUTO 08006KT 10SM FEW080 BKN100 12/07 A2947 1450 71 1500 080/06 RMK AO2 T01220072
14926KSTC STC20170425030011904/25/17 03:00:31  5-MIN KSTC 250900Z AUTO 08007KT 10SM FEW080 OVC100 12/07 A2947 1450 71 1500 080/07 RMK AO2 T01220072
14926KSTC STC20170425030511204/25/17 03:05:31  5-MIN KSTC 250905Z AUTO 09006KT 10SM BKN100 12/07 A2947 1450 71 1500 090/06 RMK AO2 T01220072
14926KSTC STC20170425031011204/25/17 03:10:31  5-MIN KSTC 250910Z AUTO 08006KT 10SM OVC100 12/07 A2947 1450 71 1500 080/06 RMK AO2 T01220072
14926KSTC STC20170425031511204/25/17 03:15:31  5-MIN KSTC 250915Z AUTO 07006KT 10SM OVC100 12/07 A2947 1440 71 1500 070/06 RMK AO2 T01220072
14926KSTC STC20170425032011204/25/17 03:20:31  5-MIN KSTC 250920Z AUTO 08007KT 10SM OVC095 12/07 A2947 1440 71 1500 070/07 RMK AO2 T01220072
14926KSTC STC20170425032511204/25/17 03:25:31  5-MIN KSTC 250925Z AUTO 08006KT 10SM OVC090 12/07 A2947 1440 71 1500 080/06 RMK AO2 T01220072
14926KSTC STC20170425033011204/25/17 03:30:31  5-MIN KSTC 250930Z AUTO 08007KT 10SM OVC095 12/07 A2947 1440 71 1500 070/07 RMK AO2 T01220072
14926KSTC STC20170425033511204/25/17 03:35:31  5-MIN KSTC 250935Z AUTO 08006KT 10SM OVC095 12/07 A2947 1450 71 1500 080/06 RMK AO2 T01220072
14926KSTC STC20170425034011204/25/17 03:40:31  5-MIN KSTC 250940Z AUTO 07005KT 10SM OVC095 12/07 A2947 1440 74 1400 070/05 RMK AO2 T01170072
14926KSTC STC20170425034511204/25/17 03:45:31  5-MIN KSTC 250945Z AUTO 08007KT 10SM OVC095 12/07 A2947 1440 74 1400 070/07 RMK AO2 T01170072
14926KSTC STC20170425035011904/25/17 03:50:31  5-MIN KSTC 250950Z AUTO 07007KT 10SM OVC095 12/07 A2947 1440 74 1400 070/07 RMK AO2 SLP988 T01170072
14926KSTC STC20170425035511204/25/17 03:55:31  5-MIN KSTC 250955Z AUTO 07006KT 10SM BKN100 12/07 A2947 1440 74 1400 070/06 RMK AO2 T01170072
14926KSTC STC20170425040011204/25/17 04:00:31  5-MIN KSTC 251000Z AUTO 07006KT 10SM OVC095 12/07 A2948 1440 74 1400 070/06 RMK AO2 T01170072
14926KSTC STC20170425040511204/25/17 04:05:31  5-MIN KSTC 251005Z AUTO 06004KT 10SM OVC095 12/07 A2947 1440 74 1400 060/04 RMK AO2 T01170072
14926KSTC STC20170425041011204/25/17 04:10:31  5-MIN KSTC 251010Z AUTO 05005KT 10SM OVC095 11/07 A2947 1440 77 1400 050/05 RMK AO2 T01110072
14926KSTC STC20170425041511204/25/17 04:15:31  5-MIN KSTC 251015Z AUTO 06004KT 10SM OVC095 11/07 A2947 1440 80 1300 060/04 RMK AO2 T01060072
14926KSTC STC20170425042011204/25/17 04:20:31  5-MIN KSTC 251020Z AUTO 06004KT 10SM OVC095 11/07 A2948 1440 80 1300 060/04 RMK AO2 T01060072
14926KSTC STC20170425042511204/25/17 04:25:31  5-MIN KSTC 251025Z AUTO 05003KT 10SM OVC095 11/07 A2948 1430 80 1300 050/03 RMK AO2 T01060072
14926KSTC STC20170425043011204/25/17 04:30:31  5-MIN KSTC 251030Z AUTO 00000KT 10SM OVC100 11/07 A2949 1430 80 1300 000/00 RMK AO2 T01060072
14926KSTC STC20170425043511204/25/17 04:35:31  5-MIN KSTC 251035Z AUTO 28006KT 10SM OVC095 10/07 A2949 1430 83 1200 280/06 RMK AO2 T01000072
14926KSTC STC20170425044011204/25/17 04:40:31  5-MIN KSTC 251040Z AUTO 31003KT 10SM OVC095 11/07 A2949 1430 80 1300 310/03 RMK AO2 T01060072
14926KSTC STC20170425044511204/25/17 04:45:31  5-MIN KSTC 251045Z AUTO 34004KT 10SM OVC095 10/07 A2949 1420 83 1200 340/04 RMK AO2 T01000072
14926KSTC STC20170425045011904/25/17 04:50:31  5-MIN KSTC 251050Z AUTO 35003KT 10SM OVC095 10/07 A2949 1430 80 1200 350/03 RMK AO2 SLP995 T01000067
14926KSTC STC20170425045511204/25/17 04:55:31  5-MIN KSTC 251055Z AUTO 35003KT 10SM BKN095 11/07 A2949 1430 77 1300 350/03 RMK AO2 T01060067
14926KSTC STC20170425050011204/25/17 05:00:31  5-MIN KSTC 251100Z AUTO 36005KT 10SM BKN095 10/07 A2949 1430 80 1200 360/05 RMK AO2 T01000067
14926KSTC STC20170425050511204/25/17 05:05:31  5-MIN KSTC 251105Z AUTO 36004KT 10SM SCT095 09/07 A2949 1430 83 1100 360/04 RMK AO2 T00940067
14926KSTC STC20170425051011204/25/17 05:10:31  5-MIN KSTC 251110Z AUTO 02005KT 10SM SCT090 09/07 A2949 1430 83 1100 020/05 RMK AO2 T00940067
14926KSTC STC20170425051511204/25/17 05:15:31  5-MIN KSTC 251115Z AUTO 02004KT 10SM FEW090 09/06 A2949 1430 83 1100 020/04 RMK AO2 T00890061
14926KSTC STC20170425052011204/25/17 05:20:31  5-MIN KSTC 251120Z AUTO 02004KT 10SM FEW100 09/06 A2949 1430 83 1100 020/04 RMK AO2 T00890061
14926KSTC STC20170425052510904/25/17 05:25:31  5-MIN KSTC 251125Z AUTO 02003KT 10SM CLR 09/06 A2949 1430 83 1100 020/03 RMK AO2 T00890061
14926KSTC STC20170425053010904/25/17 05:30:31  5-MIN KSTC 251130Z AUTO 32003KT 10SM CLR 08/06 A2949 1430 86 1000 320/03 RMK AO2 T00830061
14926KSTC STC20170425053510304/25/17 05:35:31  5-MIN KSTC 251135Z 33004KT 10SM CLR 07/06 A2949 1430 93 900 330/04 RMK AO2 T00720061
14926KSTC STC20170425054010304/25/17 05:40:31  5-MIN KSTC 251140Z 34004KT 10SM CLR 08/06 A2949 1430 89 900 340/04 RMK AO2 T00780061
14926KSTC STC20170425054510304/25/17 05:45:31  5-MIN KSTC 251145Z 34003KT 10SM CLR 08/06 A2949 1430 89 900 340/03 RMK AO2 T00780061
14926KSTC STC20170425055014104/25/17 05:50:31  5-MIN KSTC 251150Z 36003KT 10SM CLR 08/06 A2949 1430 86 1000 360/03 RMK AO2 SLP995 60000 7//// T00830061 10139 20072 56015
14926KSTC STC20170425055510304/25/17 05:55:31  5-MIN KSTC 251155Z 35004KT 10SM CLR 08/06 A2949 1430 89 900 350/04 RMK AO2 T00780061
14926KSTC STC20170425060010404/25/17 06:00:31  5-MIN KSTC 251200Z 36003KT 10SM CLR 08/07 A2949 1430 89 1000 360/03 RMK AO2 T00830067
14926KSTC STC20170425060510404/25/17 06:05:31  5-MIN KSTC 251205Z 01004KT 10SM CLR 08/07 A2949 1430 89 1000 010/04 RMK AO2 T00830067
14926KSTC STC20170425061010404/25/17 06:10:31  5-MIN KSTC 251210Z 02003KT 10SM CLR 09/07 A2949 1420 86 1100 020/03 RMK AO2 T00890067
14926KSTC STC20170425061510404/25/17 06:15:31  5-MIN KSTC 251215Z 36003KT 10SM CLR 09/06 A2950 1420 79 1100 350/03 RMK AO2 T00940061
14926KSTC STC20170425062010404/25/17 06:20:31  5-MIN KSTC 251220Z 35004KT 10SM CLR 09/07 A2950 1420 83 1100 350/04 RMK AO2 T00940067
14926KSTC STC20170425062510404/25/17 06:25:31  5-MIN KSTC 251225Z 01005KT 10SM CLR 09/06 A2950 1420 79 1100 360/05 RMK AO2 T00940061
14926KSTC STC20170425063010404/25/17 06:30:31  5-MIN KSTC 251230Z 01005KT 10SM CLR 09/06 A2950 1420 79 1100 010/05 RMK AO2 T00940061
14926KSTC STC20170425063510404/25/17 06:35:31  5-MIN KSTC 251235Z 01004KT 10SM CLR 09/06 A2951 1410 79 1100 010/04 RMK AO2 T00940061
14926KSTC STC20170425064010404/25/17 06:40:31  5-MIN KSTC 251240Z 01004KT 10SM CLR 10/06 A2951 1410 77 1200 010/04 RMK AO2 T01000061
14926KSTC STC20170425064510404/25/17 06:45:31  5-MIN KSTC 251245Z 01007KT 10SM CLR 10/06 A2951 1410 77 1200 010/07 RMK AO2 T01000061
14926KSTC STC20170425065011104/25/17 06:50:31  5-MIN KSTC 251250Z 01006KT 10SM CLR 10/06 A2951 1400 77 1200 360/06 RMK AO2 SLP003 T01000061
14926KSTC STC20170425065510404/25/17 06:55:31  5-MIN KSTC 251255Z 35006KT 10SM CLR 10/06 A2952 1400 77 1200 350/06 RMK AO2 T01000061
14926KSTC STC20170425070010404/25/17 07:00:31  5-MIN KSTC 251300Z 36007KT 10SM CLR 10/06 A2952 1400 77 1200 360/07 RMK AO2 T01000061
14926KSTC STC20170425070510404/25/17 07:05:31  5-MIN KSTC 251305Z 34007KT 10SM CLR 10/07 A2952 1400 80 1200 340/07 RMK AO2 T01000067
14926KSTC STC20170425071010404/25/17 07:10:31  5-MIN KSTC 251310Z 34008KT 10SM CLR 10/07 A2952 1400 83 1200 340/08 RMK AO2 T01000072
14926KSTC STC20170425071510404/25/17 07:15:31  5-MIN KSTC 251315Z 34008KT 10SM CLR 10/07 A2952 1400 80 1200 340/08 RMK AO2 T01000067
14926KSTC STC20170425072010404/25/17 07:20:31  5-MIN KSTC 251320Z 35010KT 10SM CLR 09/07 A2952 1400 86 1100 340/10 RMK AO2 T00940072
14926KSTC STC20170425072510404/25/17 07:25:31  5-MIN KSTC 251325Z 34008KT 10SM CLR 09/07 A2952 1400 86 1100 340/08 RMK AO2 T00940072
14926KSTC STC20170425073010404/25/17 07:30:31  5-MIN KSTC 251330Z 33008KT 10SM CLR 09/07 A2952 1400 83 1100 330/08 RMK AO2 T00940067
14926KSTC STC20170425073510404/25/17 07:35:31  5-MIN KSTC 251335Z 35009KT 10SM CLR 09/07 A2952 1400 83 1100 350/09 RMK AO2 T00940067
14926KSTC STC20170425074010404/25/17 07:40:31  5-MIN KSTC 251340Z 35008KT 10SM CLR 09/07 A2952 1400 83 1100 340/08 RMK AO2 T00940067
14926KSTC STC20170425074510404/25/17 07:45:31  5-MIN KSTC 251345Z 34009KT 10SM CLR 09/07 A2952 1400 83 1100 340/09 RMK AO2 T00940067
14926KSTC STC20170425075011104/25/17 07:50:31  5-MIN KSTC 251350Z 35008KT 10SM CLR 09/07 A2952 1400 83 1100 350/08 RMK AO2 SLP007 T00940067
14926KSTC STC20170425075510404/25/17 07:55:31  5-MIN KSTC 251355Z 34007KT 10SM CLR 10/07 A2952 1400 80 1200 340/07 RMK AO2 T01000067
14926KSTC STC20170425080010404/25/17 08:00:31  5-MIN KSTC 251400Z 35010KT 10SM CLR 09/07 A2952 1400 83 1100 340/10 RMK AO2 T00940067
14926KSTC STC20170425080510404/25/17 08:05:31  5-MIN KSTC 251405Z 36009KT 10SM CLR 09/07 A2952 1400 83 1100 360/09 RMK AO2 T00940067
14926KSTC STC20170425081010404/25/17 08:10:31  5-MIN KSTC 251410Z 34009KT 10SM CLR 10/07 A2952 1400 80 1200 340/09 RMK AO2 T01000067
14926KSTC STC20170425081510404/25/17 08:15:31  5-MIN KSTC 251415Z 35008KT 10SM CLR 10/07 A2952 1400 80 1200 350/08 RMK AO2 T01000067
14926KSTC STC20170425082010404/25/17 08:20:31  5-MIN KSTC 251420Z 36009KT 10SM CLR 10/07 A2952 1400 80 1200 350/09 RMK AO2 T01000067
14926KSTC STC20170425082510404/25/17 08:25:31  5-MIN KSTC 251425Z 01009KT 10SM CLR 10/07 A2952 1400 80 1200 360/09 RMK AO2 T01000067
14926KSTC STC20170425083010404/25/17 08:30:31  5-MIN KSTC 251430Z 34008KT 10SM CLR 10/06 A2953 1390 77 1200 340/08 RMK AO2 T01000061
14926KSTC STC20170425083510404/25/17 08:35:31  5-MIN KSTC 251435Z 36009KT 10SM CLR 10/07 A2953 1390 80 1200 350/09 RMK AO2 T01000067
14926KSTC STC20170425084010404/25/17 08:40:31  5-MIN KSTC 251440Z 36008KT 10SM CLR 10/06 A2953 1390 77 1200 360/08 RMK AO2 T01000061
14926KSTC STC20170425084511104/25/17 08:45:31  5-MIN KSTC 251445Z 34009KT 10SM CLR 11/07 A2954 1380 77 1200 340/09 RMK AO2 PRESRR T01060067
14926KSTC STC20170425085011704/25/17 08:50:31  5-MIN KSTC 251450Z 35010KT 10SM CLR 11/07 A2954 1380 77 1200 350/10 RMK AO2 SLP013 T01060067 50006
14926KSTC STC20170425085510404/25/17 08:55:31  5-MIN KSTC 251455Z 34010KT 10SM CLR 11/06 A2954 1380 74 1200 340/10 RMK AO2 T01060061
14926KSTC STC20170425090010404/25/17 09:00:31  5-MIN KSTC 251500Z 36008KT 10SM CLR 11/07 A2954 1380 77 1200 360/08 RMK AO2 T01060067
14926KSTC STC20170425090510404/25/17 09:05:31  5-MIN KSTC 251505Z 33007KT 10SM CLR 11/07 A2955 1380 74 1300 330/07 RMK AO2 T01110067
14926KSTC STC20170425091010404/25/17 09:10:31  5-MIN KSTC 251510Z 35009KT 10SM CLR 11/07 A2955 1370 77 1300 350/09 RMK AO2 T01110072
14926KSTC STC20170425091510404/25/17 09:15:31  5-MIN KSTC 251515Z 33010KT 10SM CLR 11/07 A2955 1370 77 1300 330/10 RMK AO2 T01110072
14926KSTC STC20170425092010404/25/17 09:20:31  5-MIN KSTC 251520Z 34010KT 10SM CLR 11/07 A2955 1370 74 1300 340/10 RMK AO2 T01110067
14926KSTC STC20170425092510404/25/17 09:25:31  5-MIN KSTC 251525Z 34011KT 10SM CLR 11/07 A2956 1370 74 1300 340/11 RMK AO2 T01110067
14926KSTC STC20170425093010404/25/17 09:30:31  5-MIN KSTC 251530Z 33009KT 10SM CLR 11/07 A2956 1360 74 1300 330/09 RMK AO2 T01110067
14926KSTC STC20170425093510404/25/17 09:35:31  5-MIN KSTC 251535Z 35010KT 10SM CLR 11/07 A2956 1360 74 1300 350/10 RMK AO2 T01110067
14926KSTC STC20170425094010404/25/17 09:40:31  5-MIN KSTC 251540Z 35009KT 10SM CLR 12/07 A2956 1360 71 1300 350/09 RMK AO2 T01170067
14926KSTC STC20170425094510404/25/17 09:45:31  5-MIN KSTC 251545Z 34011KT 10SM CLR 12/07 A2956 1360 71 1300 330/11 RMK AO2 T01170067
14926KSTC STC20170425095011104/25/17 09:50:31  5-MIN KSTC 251550Z 34011KT 10SM CLR 12/07 A2956 1360 71 1300 340/11 RMK AO2 SLP019 T01170067
14926KSTC STC20170425095510404/25/17 09:55:31  5-MIN KSTC 251555Z 35009KT 10SM CLR 12/07 A2956 1360 71 1400 350/09 RMK AO2 T01220072
14926KSTC STC20170425100010404/25/17 10:00:31  5-MIN KSTC 251600Z 33011KT 10SM CLR 12/07 A2956 1360 68 1400 330/11 RMK AO2 T01220067
14926KSTC STC20170425100511004/25/17 10:05:31  5-MIN KSTC 251605Z 34010G18KT 10SM CLR 12/07 A2956 1360 68 1400 340/10G18 RMK AO2 T01220067
14926KSTC STC20170425101011004/25/17 10:10:31  5-MIN KSTC 251610Z 35012G19KT 10SM CLR 12/07 A2956 1360 68 1400 350/12G19 RMK AO2 T01220067
14926KSTC STC20170425101511004/25/17 10:15:31  5-MIN KSTC 251615Z 35010G19KT 10SM CLR 12/07 A2956 1360 68 1400 350/10G19 RMK AO2 T01220067
14926KSTC STC20170425102010404/25/17 10:20:31  5-MIN KSTC 251620Z 36011KT 10SM CLR 12/07 A2956 1360 68 1400 360/11 RMK AO2 T01220067
14926KSTC STC20170425102510404/25/17 10:25:31  5-MIN KSTC 251625Z 36011KT 10SM CLR 12/07 A2956 1360 68 1400 360/11 RMK AO2 T01220067
14926KSTC STC20170425103010404/25/17 10:30:31  5-MIN KSTC 251630Z 01011KT 10SM CLR 12/07 A2956 1360 68 1400 360/11 RMK AO2 T01220067
14926KSTC STC20170425103510404/25/17 10:35:31  5-MIN KSTC 251635Z 35011KT 10SM CLR 13/07 A2956 1360 66 1500 340/11 RMK AO2 T01280067
14926KSTC STC20170425104010404/25/17 10:40:31  5-MIN KSTC 251640Z 34010KT 10SM CLR 13/07 A2956 1360 64 1500 340/10 RMK AO2 T01330067
14926KSTC STC20170425104510404/25/17 10:45:31  5-MIN KSTC 251645Z 36009KT 10SM CLR 13/07 A2956 1360 64 1500 350/09 RMK AO2 T01330067
14926KSTC STC20170425105011104/25/17 10:50:31  5-MIN KSTC 251650Z 01010KT 10SM CLR 13/07 A2956 1360 64 1500 010/10 RMK AO2 SLP019 T01330067
14926KSTC STC20170425105510404/25/17 10:55:31  5-MIN KSTC 251655Z 36009KT 10SM CLR 13/07 A2956 1360 64 1500 360/09 RMK AO2 T01330067
14926KSTC STC20170425110010404/25/17 11:00:31  5-MIN KSTC 251700Z 35008KT 10SM CLR 13/07 A2956 1360 66 1500 350/08 RMK AO2 T01330072
14926KSTC STC20170425110510404/25/17 11:05:31  5-MIN KSTC 251705Z 35010KT 10SM CLR 14/07 A2956 1370 64 1600 350/10 RMK AO2 T01390072
14926KSTC STC20170425111010404/25/17 11:10:31  5-MIN KSTC 251710Z 36010KT 10SM CLR 14/07 A2955 1370 64 1600 360/10 RMK AO2 T01390072
14926KSTC STC20170425111510404/25/17 11:15:31  5-MIN KSTC 251715Z 36009KT 10SM CLR 14/07 A2955 1370 64 1600 350/09 RMK AO2 T01390072
14926KSTC STC20170425112010404/25/17 11:20:31  5-MIN KSTC 251720Z 36008KT 10SM CLR 14/07 A2955 1370 64 1600 360/08 RMK AO2 T01390072
14926KSTC STC20170425112510404/25/17 11:25:31  5-MIN KSTC 251725Z 02008KT 10SM CLR 14/07 A2955 1370 61 1600 020/08 RMK AO2 T01390067
14926KSTC STC20170425113010404/25/17 11:30:31  5-MIN KSTC 251730Z 01007KT 10SM CLR 14/07 A2955 1370 61 1700 010/07 RMK AO2 T01440072
14926KSTC STC20170425113512004/25/17 11:35:31  5-MIN KSTC 251735Z 04007KT 010V070 10SM CLR 14/07 A2955 1370 61 1700 030/07 010V070 RMK AO2 T01440072
14926KSTC STC20170425114011004/25/17 11:40:31  5-MIN KSTC 251740Z 04008G15KT 10SM CLR 14/07 A2955 1370 59 1700 040/08G15 RMK AO2 T01440067
14926KSTC STC20170425114511004/25/17 11:45:31  5-MIN KSTC 251745Z 02008G15KT 10SM CLR 15/07 A2955 1370 59 1700 020/08G15 RMK AO2 T01500072
14926KSTC STC20170425115012904/25/17 11:50:31  5-MIN KSTC 251750Z 02007KT 10SM CLR 14/07 A2955 1370 59 1700 020/07 RMK AO2 SLP015 T01440067 10150 20078 51017
14926KSTC STC20170425115510404/25/17 11:55:31  5-MIN KSTC 251755Z 03007KT 10SM CLR 15/07 A2955 1370 57 1700 030/07 RMK AO2 T01500067
14926KSTC STC20170425120010404/25/17 12:00:31  5-MIN KSTC 251800Z 04008KT 10SM CLR 15/07 A2955 1370 57 1700 040/08 RMK AO2 T01500067
14926KSTC STC20170425120510404/25/17 12:05:31  5-MIN KSTC 251805Z 01009KT 10SM CLR 15/07 A2955 1370 59 1700 360/09 RMK AO2 T01500072
14926KSTC STC20170425121010404/25/17 12:10:31  5-MIN KSTC 251810Z 01008KT 10SM CLR 14/07 A2955 1370 59 1700 010/08 RMK AO2 T01440067
14926KSTC STC20170425121510404/25/17 12:15:31  5-MIN KSTC 251815Z VRB05KT 10SM CLR 15/07 A2955 1370 59 1700 VRB/05 RMK AO2 T01500072
14926KSTC STC20170425122010404/25/17 12:20:31  5-MIN KSTC 251820Z 02007KT 10SM CLR 15/07 A2955 1370 59 1700 020/07 RMK AO2 T01500072
14926KSTC STC20170425122510404/25/17 12:25:31  5-MIN KSTC 251825Z 02009KT 10SM CLR 15/07 A2954 1380 57 1700 020/09 RMK AO2 T01500067
14926KSTC STC20170425123010404/25/17 12:30:31  5-MIN KSTC 251830Z 04007KT 10SM CLR 15/07 A2954 1380 57 1700 040/07 RMK AO2 T01500067
14926KSTC STC20170425123510404/25/17 12:35:31  5-MIN KSTC 251835Z 04007KT 10SM CLR 15/07 A2954 1380 57 1700 040/07 RMK AO2 T01500067
14926KSTC STC20170425124010404/25/17 12:40:31  5-MIN KSTC 251840Z 04010KT 10SM CLR 15/07 A2954 1380 57 1700 040/10 RMK AO2 T01500067
14926KSTC STC20170425124510404/25/17 12:45:31  5-MIN KSTC 251845Z 02007KT 10SM CLR 15/07 A2954 1380 57 1700 020/07 RMK AO2 T01500067
14926KSTC STC20170425125011104/25/17 12:50:31  5-MIN KSTC 251850Z 04007KT 10SM CLR 16/07 A2954 1380 55 1800 040/07 RMK AO2 SLP010 T01560067
14926KSTC STC20170425125510404/25/17 12:55:31  5-MIN KSTC 251855Z 04006KT 10SM CLR 15/07 A2954 1380 57 1700 030/06 RMK AO2 T01500067
14926KSTC STC20170425130010404/25/17 13:00:31  5-MIN KSTC 251900Z 03007KT 10SM CLR 16/07 A2954 1380 55 1800 030/07 RMK AO2 T01560067
14926KSTC STC20170425130510404/25/17 13:05:31  5-MIN KSTC 251905Z 04004KT 10SM CLR 16/07 A2954 1380 55 1800 040/04 RMK AO2 T01560067
14926KSTC STC20170425131010404/25/17 13:10:31  5-MIN KSTC 251910Z 04008KT 10SM CLR 16/07 A2954 1380 55 1800 040/08 RMK AO2 T01560067
14926KSTC STC20170425131510404/25/17 13:15:31  5-MIN KSTC 251915Z 04008KT 10SM CLR 16/07 A2954 1380 55 1800 040/08 RMK AO2 T01560067
14926KSTC STC20170425132010404/25/17 13:20:31  5-MIN KSTC 251920Z 01006KT 10SM CLR 16/07 A2954 1380 57 1800 010/06 RMK AO2 T01560072
14926KSTC STC20170425132510404/25/17 13:25:31  5-MIN KSTC 251925Z 02005KT 10SM CLR 16/07 A2954 1380 57 1800 020/05 RMK AO2 T01560072
14926KSTC STC20170425133012004/25/17 13:30:31  5-MIN KSTC 251930Z 03007KT 360V080 10SM CLR 16/07 A2954 1380 55 1900 030/07 360V080 RMK AO2 T01610072
14926KSTC STC20170425133510404/25/17 13:35:31  5-MIN KSTC 251935Z 06007KT 10SM CLR 16/07 A2954 1380 53 1900 060/07 RMK AO2 T01610067
14926KSTC STC20170425134010404/25/17 13:40:31  5-MIN KSTC 251940Z 07008KT 10SM CLR 16/07 A2954 1380 55 1800 060/08 RMK AO2 T01560067
14926KSTC STC20170425134510404/25/17 13:45:31  5-MIN KSTC 251945Z 02006KT 10SM CLR 16/07 A2954 1380 53 1900 020/06 RMK AO2 T01610067
14926KSTC STC20170425135011104/25/17 13:50:31  5-MIN KSTC 251950Z VRB05KT 10SM CLR 16/07 A2954 1380 53 1900 VRB/05 RMK AO2 SLP011 T01610067
14926KSTC STC20170425135510704/25/17 13:55:31  5-MIN KSTC 251955Z 04006KT 10SM SCT070 16/07 A2954 1380 53 1900 040/06 RMK AO2 T01610067
14926KSTC STC20170425140010704/25/17 14:00:31  5-MIN KSTC 252000Z VRB05KT 10SM BKN070 16/07 A2954 1380 53 1900 VRB/05 RMK AO2 T01610067
14926KSTC STC20170425140510704/25/17 14:05:31  5-MIN KSTC 252005Z 06005KT 10SM BKN070 16/07 A2955 1370 55 1800 060/05 RMK AO2 T01560067
14926KSTC STC20170425141010704/25/17 14:10:31  5-MIN KSTC 252010Z 00000KT 10SM BKN070 16/07 A2955 1370 55 1800 000/00 RMK AO2 T01560067
14926KSTC STC20170425141510704/25/17 14:15:31  5-MIN KSTC 252015Z 02005KT 10SM OVC070 16/07 A2955 1370 53 1900 020/05 RMK AO2 T01610067
14926KSTC STC20170425142010704/25/17 14:20:31  5-MIN KSTC 252020Z 02004KT 10SM OVC070 16/07 A2955 1370 55 1900 020/04 RMK AO2 T01610072
14926KSTC STC20170425142510704/25/17 14:25:31  5-MIN KSTC 252025Z 04005KT 10SM OVC070 16/07 A2955 1370 55 1900 040/05 RMK AO2 T01610072
14926KSTC STC20170425143010704/25/17 14:30:31  5-MIN KSTC 252030Z VRB04KT 10SM OVC070 17/07 A2955 1370 53 1900 VRB/04 RMK AO2 T01670072
14926KSTC STC20170425143510704/25/17 14:35:31  5-MIN KSTC 252035Z 00000KT 10SM BKN070 16/07 A2955 1370 55 1900 000/00 RMK AO2 T01610072
14926KSTC STC20170425144011404/25/17 14:40:31  5-MIN KSTC 252040Z VRB03KT 10SM BKN070 OVC080 17/07 A2955 1370 53 1900 VRB/03 RMK AO2 T01670072
14926KSTC STC20170425144511404/25/17 14:45:31  5-MIN KSTC 252045Z 36004KT 10SM BKN070 BKN080 16/07 A2955 1370 55 1900 360/04 RMK AO2 T01610072
14926KSTC STC20170425145013404/25/17 14:50:31  5-MIN KSTC 252050Z 01006KT 10SM FEW044 BKN070 BKN080 16/07 A2954 1380 55 1900 360/06 RMK AO2 SLP012 T01610072 50004
14926KSTC STC20170425145512104/25/17 14:55:31  5-MIN KSTC 252055Z 36004KT 10SM FEW044 SCT070 BKN080 17/07 A2954 1380 53 1900 360/04 RMK AO2 T01670072
14926KSTC STC20170425150012104/25/17 15:00:31  5-MIN KSTC 252100Z 36006KT 10SM FEW044 FEW070 SCT080 17/08 A2954 1380 55 1900 360/06 RMK AO2 T01670078
14926KSTC STC20170425150511404/25/17 15:05:31  5-MIN KSTC 252105Z 02005KT 10SM FEW044 FEW070 17/08 A2954 1380 55 1900 020/05 RMK AO2 T01670078
14926KSTC STC20170425151011404/25/17 15:10:31  5-MIN KSTC 252110Z 34005KT 10SM FEW046 FEW070 17/08 A2953 1390 55 1900 340/05 RMK AO2 T01670078
14926KSTC STC20170425151511404/25/17 15:15:31  5-MIN KSTC 252115Z 36004KT 10SM FEW046 SCT065 17/08 A2953 1390 55 2000 360/04 RMK AO2 T01720083
14926KSTC STC20170425152010704/25/17 15:20:31  5-MIN KSTC 252120Z 01006KT 10SM BKN065 17/08 A2953 1390 55 1900 010/06 RMK AO2 T01670078
14926KSTC STC20170425152510704/25/17 15:25:31  5-MIN KSTC 252125Z 36009KT 10SM BKN065 17/08 A2953 1390 55 1900 360/09 RMK AO2 T01670078
14926KSTC STC20170425153011404/25/17 15:30:31  5-MIN KSTC 252130Z 03006KT 10SM SCT047 BKN065 17/08 A2953 1390 55 1900 030/06 RMK AO2 T01670078
14926KSTC STC20170425153511404/25/17 15:35:31  5-MIN KSTC 252135Z 01008KT 10SM BKN045 OVC065 17/08 A2953 1380 55 1900 010/08 RMK AO2 T01670078
14926KSTC STC20170425154011404/25/17 15:40:31  5-MIN KSTC 252140Z 01006KT 10SM BKN045 OVC065 16/08 A2954 1380 57 1900 010/06 RMK AO2 T01610078
14926KSTC STC20170425154511404/25/17 15:45:31  5-MIN KSTC 252145Z 01008KT 10SM BKN045 OVC065 16/08 A2954 1380 57 1900 360/08 RMK AO2 T01610078
14926KSTC STC20170425155011404/25/17 15:50:31  5-MIN KSTC 252150Z 02007KT 10SM OVC044 16/08 A2954 1380 57 1900 020/07 RMK AO2 SLP011 T01610078
14926KSTC STC20170425155510704/25/17 15:55:31  5-MIN KSTC 252155Z 01008KT 10SM OVC044 16/08 A2954 1380 59 1800 010/08 RMK AO2 T01560078
14926KSTC STC20170425160010704/25/17 16:00:31  5-MIN KSTC 252200Z 01008KT 10SM OVC044 16/08 A2955 1370 59 1800 010/08 RMK AO2 T01560078
14926KSTC STC20170425160510704/25/17 16:05:31  5-MIN KSTC 252205Z 36008KT 10SM OVC044 16/08 A2955 1370 59 1800 360/08 RMK AO2 T01560078
14926KSTC STC20170425161010704/25/17 16:10:31  5-MIN KSTC 252210Z 01010KT 10SM OVC044 15/08 A2955 1370 62 1700 360/10 RMK AO2 T01500078
14926KSTC STC20170425161510704/25/17 16:15:31  5-MIN KSTC 252215Z 35009KT 10SM OVC042 15/08 A2955 1370 62 1700 350/09 RMK AO2 T01500078
14926KSTC STC20170425162012304/25/17 16:20:31  5-MIN KSTC 252220Z 36010KT 10SM -RA OVC042 15/08 A2955 1370 62 1700 360/10 RMK AO2 RAB17 P0000 T01500078
14926KSTC STC20170425162512304/25/17 16:25:31  5-MIN KSTC 252225Z 35008KT 10SM -RA OVC042 14/08 A2956 1370 64 1700 350/08 RMK AO2 RAB17 P0000 T01440078
14926KSTC STC20170425163012904/25/17 16:30:31  5-MIN KSTC 252230Z 36012G17KT 10SM -RA OVC042 14/08 A2956 1360 69 1600 360/12G17 RMK AO2 RAB17 P0000 T01390083
14926KSTC STC20170425163512804/25/17 16:35:31  5-MIN KSTC 252235Z 36008G17KT 9SM -RA OVC042 14/08 A2956 1360 69 1600 350/08G17 RMK AO2 RAB17 P0001 T01390083
14926KSTC STC20170425164012204/25/17 16:40:31  5-MIN KSTC 252240Z 35010KT 7SM -RA OVC040 13/09 A2957 1350 74 1500 350/10 RMK AO2 RAB17 P0001 T01330089
14926KSTC STC20170425164512204/25/17 16:45:31  5-MIN KSTC 252245Z 35010KT 7SM -RA OVC040 13/09 A2957 1350 74 1500 350/10 RMK AO2 RAB17 P0002 T01330089
14926KSTC STC20170425165012904/25/17 16:50:31  5-MIN KSTC 252250Z 35008KT 7SM -RA OVC040 13/09 A2957 1350 80 1400 350/08 RMK AO2 RAB17 SLP022 P0002 T01280094
14926KSTC STC20170425165512204/25/17 16:55:31  5-MIN KSTC 252255Z 34010G15KT 6SM -RA OVC038 13/09 A2957 1350 80 1400 340/10G15 RMK AO2 P0000 T01280094
14926KSTC STC20170425170011604/25/17 17:00:31  5-MIN KSTC 252300Z 34009KT 6SM -RA OVC038 12/08 A2958 1350 80 1300 340/09 RMK AO2 P0001 T01170083
14926KSTC STC20170425170512604/25/17 17:05:31  5-MIN KSTC 252305Z 34008KT 6SM -RA BR BKN038 OVC060 11/08 A2958 1350 86 1200 340/08 RMK AO2 P0001 T01060083
14926KSTC STC20170425171013004/25/17 17:10:31  5-MIN KSTC 252310Z 34011KT 6SM -RA BKN037 BKN060 OVC080 11/08 A2958 1350 83 1200 340/11 RMK AO2 P0002 T01060078
14926KSTC STC20170425171513304/25/17 17:15:31  5-MIN KSTC 252315Z 35009KT 6SM -RA BR SCT037 BKN060 OVC075 10/08 A2957 1350 86 1100 350/09 RMK AO2 P0002 T01000078
14926KSTC STC20170425172013004/25/17 17:20:31  5-MIN KSTC 252320Z 35010KT 7SM -RA FEW037 BKN065 OVC075 10/08 A2957 1350 86 1100 350/10 RMK AO2 P0002 T01000078
14926KSTC STC20170425172512604/25/17 17:25:31  5-MIN KSTC 252325Z 36010KT 6SM -RA BR FEW036 OVC070 10/08 A2957 1350 86 1100 360/10 RMK AO2 P0003 T01000078
14926KSTC STC20170425173011804/25/17 17:30:31  5-MIN KSTC 252330Z 36012KT 5SM RA BR OVC070 10/08 A2957 1360 86 1100 360/12 RMK AO2 P0004 T01000078
14926KSTC STC20170425173511804/25/17 17:35:31  5-MIN KSTC 252335Z 36009KT 4SM RA BR OVC070 09/08 A2957 1350 89 1000 360/09 RMK AO2 P0006 T00940078
14926KSTC STC20170425174011804/25/17 17:40:31  5-MIN KSTC 252340Z 35009KT 5SM RA BR OVC070 09/08 A2957 1350 89 1000 350/09 RMK AO2 P0007 T00940078
14926KSTC STC20170425174511904/25/17 17:45:31  5-MIN KSTC 252345Z 35009KT 6SM -RA BR OVC070 09/08 A2957 1350 89 1000 350/09 RMK AO2 P0008 T00940078
14926KSTC STC20170425175014904/25/17 17:50:31  5-MIN KSTC 252350Z 35009KT 6SM RA BR OVC070 09/08 A2958 1350 93 1000 350/09 RMK AO2 SLP028 P0009 60011 T00940083 10172 20094 56004
14926KSTC STC20170425175511904/25/17 17:55:31  5-MIN KSTC 252355Z 36008KT 6SM -RA BR OVC070 09/08 A2958 1340 89 1000 360/08 RMK AO2 P0001 T00940078
14926KSTC STC20170425180011904/25/17 18:00:31  5-MIN KSTC 260000Z 36007KT 6SM -RA BR OVC070 09/08 A2958 1340 93 1000 360/07 RMK AO2 P0002 T00890078
14926KSTC STC20170425180511604/25/17 18:05:31  5-MIN KSTC 260005Z 36008KT 7SM -RA OVC070 09/08 A2959 1340 93 1000 360/08 RMK AO2 P0002 T00890078
14926KSTC STC20170425181013304/25/17 18:10:31  5-MIN KSTC 260010Z 36007KT 6SM -RA BR FEW019 SCT027 OVC070 09/08 A2959 1330 93 1000 360/07 RMK AO2 P0003 T00890078
14926KSTC STC20170425181513204/25/17 18:15:31  5-MIN KSTC 260015Z 36008KT 5SM RA BR SCT019 BKN027 OVC070 09/08 A2959 1330 93 1000 360/08 RMK AO2 P0004 T00890078
14926KSTC STC20170425182013104/25/17 18:20:31  5-MIN KSTC 260020Z 35008KT 5SM RA BR BKN019 BKN029 OVC070 09/08 A2960 1330 93 900 350/08 RMK AO2 P0005 T00890078
14926KSTC STC20170425182513204/25/17 18:25:31  5-MIN KSTC 260025Z 36008KT 5SM -RA BR BKN019 BKN029 OVC070 09/08 A2960 1320 96 900 350/08 RMK AO2 P0006 T00890083
14926KSTC STC20170425183012604/25/17 18:30:31  5-MIN KSTC 260030Z 02011KT 6SM -RA BR BKN019 OVC028 09/08 A2960 1320 93 1000 020/11 RMK AO2 P0006 T00940083
14926KSTC STC20170425183511804/25/17 18:35:31  5-MIN KSTC 260035Z 01010KT 5SM RA BR OVC019 09/08 A2960 1320 93 1000 010/10 RMK AO2 P0007 T00940083
14926KSTC STC20170425184011804/25/17 18:40:31  5-MIN KSTC 260040Z 02009KT 4SM RA BR OVC021 09/08 A2960 1330 93 1000 020/09 RMK AO2 P0008 T00940083
14926KSTC STC20170425184512404/25/17 18:45:31  5-MIN KSTC 260045Z 02008KT 4SM RA BR BKN021 OVC026 09/08 A2960 1330 93 900 020/08 RMK AO2 P0009 T00890078
14926KSTC STC20170425185013904/25/17 18:50:31  5-MIN KSTC 260050Z 03009KT 5SM -RA BR SCT021 BKN025 OVC070 09/08 A2960 1320 96 900 030/09 RMK AO2 SLP035 P0010 T00890083
14926KSTC STC20170425185512904/25/17 18:55:31  5-MIN KSTC 260055Z 03010KT 7SM -RA BKN022 BKN035 OVC075 09/08 A2960 1320 93 900 030/10 RMK AO2 P0000 T00890078
14926KSTC STC20170425190012904/25/17 19:00:31  5-MIN KSTC 260100Z 04010KT 9SM -RA SCT022 SCT035 OVC075 09/08 A2960 1320 93 900 040/10 RMK AO2 P0000 T00890078
14926KSTC STC20170425190513504/25/17 19:05:31  5-MIN KSTC 260105Z 03009G17KT 9SM -RA FEW024 SCT034 OVC075 08/08 A2960 1320 96 900 030/09G17 RMK AO2 P0000 T00830078
14926KSTC STC20170425191012804/25/17 19:10:31  5-MIN KSTC 260110Z 03011G19KT 8SM -RA FEW024 OVC075 08/07 A2960 1320 93 900 030/11G19 RMK AO2 P0001 T00830072
14926KSTC STC20170425191512104/25/17 19:15:31  5-MIN KSTC 260115Z 03008G19KT 8SM -RA OVC075 08/07 A2960 1320 93 900 030/08G19 RMK AO2 P0001 T00830072
14926KSTC STC20170425192012104/25/17 19:20:31  5-MIN KSTC 260120Z 04010G17KT 8SM -RA OVC075 08/07 A2961 1320 93 900 040/10G17 RMK AO2 P0002 T00830072
14926KSTC STC20170425192512104/25/17 19:25:31  5-MIN KSTC 260125Z 03009G17KT 7SM -RA OVC070 08/07 A2961 1320 93 900 030/09G17 RMK AO2 P0002 T00830072
14926KSTC STC20170425193012404/25/17 19:30:31  5-MIN KSTC 260130Z 03009KT 6SM RA BR BKN065 OVC075 08/07 A2961 1310 93 900 030/09 RMK AO2 P0003 T00830072
14926KSTC STC20170425193512504/25/17 19:35:31  5-MIN KSTC 260135Z 03008KT 6SM -RA BR SCT055 OVC070 08/07 A2962 1310 93 900 030/08 RMK AO2 P0004 T00830072
14926KSTC STC20170425194012204/25/17 19:40:31  5-MIN KSTC 260140Z 03008KT 7SM -RA BKN055 OVC070 08/07 A2962 1310 93 900 030/08 RMK AO2 P0005 T00830072
14926KSTC STC20170425194512904/25/17 19:45:31  5-MIN KSTC 260145Z 04009KT 8SM -RA FEW021 BKN055 OVC070 08/07 A2962 1300 93 900 040/09 RMK AO2 P0005 T00830072
14926KSTC STC20170425195013604/25/17 19:50:31  5-MIN KSTC 260150Z 04010KT 8SM -RA FEW027 BKN055 OVC070 08/07 A2962 1300 93 900 040/10 RMK AO2 SLP044 P0005 T00830072
14926KSTC STC20170425195512204/25/17 19:55:31  5-MIN KSTC 260155Z 04009KT 9SM -RA FEW022 OVC055 08/07 A2962 1300 93 900 040/09 RMK AO2 P0000 T00830072
14926KSTC STC20170425200013004/25/17 20:00:31  5-MIN KSTC 260200Z 03008KT 10SM -RA FEW030 BKN050 OVC060 08/08 A2962 1300 96 900 020/08 RMK AO2 P0000 T00830078
14926KSTC STC20170425200512204/25/17 20:05:31  5-MIN KSTC 260205Z 03008KT 8SM -RA FEW014 OVC060 08/08 A2962 1310 96 900 030/08 RMK AO2 P0000 T00830078
14926KSTC STC20170425201013504/25/17 20:10:31  5-MIN KSTC 260210Z 03010G14KT 7SM -RA FEW014 SCT047 OVC060 08/08 A2962 1310 96 900 030/10G14 RMK AO2 P0000 T00830078
14926KSTC STC20170425201513804/25/17 20:15:31  5-MIN KSTC 260215Z 03007G14KT 6SM -RA BR FEW012 SCT021 OVC060 08/08 A2962 1310 96 900 020/07G14 RMK AO2 P0001 T00830078
14926KSTC STC20170425202013204/25/17 20:20:31  5-MIN KSTC 260220Z 03008KT 6SM -RA BR SCT012 BKN050 OVC060 08/08 A2962 1310 96 900 030/08 RMK AO2 P0001 T00830078
14926KSTC STC20170425202513204/25/17 20:25:31  5-MIN KSTC 260225Z 03009KT 6SM -RA BR SCT012 BKN034 OVC060 08/07 A2962 1310 93 900 030/09 RMK AO2 P0002 T00830072
14926KSTC STC20170425203013504/25/17 20:30:31  5-MIN KSTC 260230Z 02008G17KT 7SM -RA BKN012 BKN022 OVC060 08/07 A2961 1310 93 900 020/08G17 RMK AO2 P0002 T00830072
14926KSTC STC20170425203513504/25/17 20:35:31  5-MIN KSTC 260235Z 03009G17KT 8SM -RA BKN012 BKN022 OVC055 08/07 A2962 1310 93 900 030/09G17 RMK AO2 P0002 T00830072
14926KSTC STC20170425204012804/25/17 20:40:31  5-MIN KSTC 260240Z 03008G15KT 9SM -RA BKN012 OVC034 08/08 A2962 1310 96 900 030/08G15 RMK AO2 P0002 T00830078
14926KSTC STC20170425204512204/25/17 20:45:31  5-MIN KSTC 260245Z 02009G19KT 10SM -RA OVC012 08/07 A2962 1310 93 900 020/09G19 RMK AO2 P0002 T00830072
14926KSTC STC20170425205014104/25/17 20:50:31  5-MIN KSTC 260250Z 04013G20KT 10SM -RA OVC012 08/07 A2962 1310 93 900 040/13G20 RMK AO2 SLP042 P0002 60018 T00830072 53014
14926KSTC STC20170425205512204/25/17 20:55:31  5-MIN KSTC 260255Z 03010G20KT 10SM -RA OVC012 08/07 A2962 1310 93 900 030/10G20 RMK AO2 P0000 T00830072
14926KSTC STC20170425210012204/25/17 21:00:31  5-MIN KSTC 260300Z 03011G18KT 10SM -RA OVC012 08/07 A2962 1310 93 900 030/11G18 RMK AO2 P0000 T00830072
14926KSTC STC20170425210512204/25/17 21:05:31  5-MIN KSTC 260305Z 03013G19KT 10SM -RA OVC012 08/07 A2961 1310 93 800 030/13G19 RMK AO2 P0000 T00780067
14926KSTC STC20170425211012204/25/17 21:10:31  5-MIN KSTC 260310Z 03008G19KT 10SM -RA OVC012 08/07 A2961 1310 93 800 030/08G19 RMK AO2 P0000 T00780067
14926KSTC STC20170425211512104/25/17 21:15:31  5-MIN KSTC 260315Z 03012G17KT 8SM -RA OVC012 08/07 A2961 1310 93 800 030/12G17 RMK AO2 P0001 T00780067
14926KSTC STC20170425212012804/25/17 21:20:31  5-MIN KSTC 260320Z 02009G18KT 8SM -RA BKN012 OVC025 08/07 A2961 1310 93 800 020/09G18 RMK AO2 P0001 T00780067
14926KSTC STC20170425212512804/25/17 21:25:31  5-MIN KSTC 260325Z 04011G18KT 8SM -RA BKN012 OVC025 08/07 A2961 1320 93 800 040/11G18 RMK AO2 P0001 T00780067
14926KSTC STC20170425213013504/25/17 21:30:31  5-MIN KSTC 260330Z 03011G20KT 9SM -RA BKN012 BKN018 OVC025 08/07 A2961 1320 93 800 030/11G20 RMK AO2 P0001 T00780067
14926KSTC STC20170425213513604/25/17 21:35:31  5-MIN KSTC 260335Z 03010G20KT 10SM -RA BKN013 BKN018 OVC025 08/07 A2961 1320 93 800 030/10G20 RMK AO2 P0001 T00780067
14926KSTC STC20170425214012804/25/17 21:40:31  5-MIN KSTC 260340Z 02010G20KT 9SM -RA BKN013 OVC025 08/07 A2961 1320 93 800 020/10G20 RMK AO2 P0001 T00780067
14926KSTC STC20170425214512804/25/17 21:45:31  5-MIN KSTC 260345Z 03010G20KT 8SM -RA BKN013 OVC024 07/07 A2960 1320 96 700 030/10G20 RMK AO2 P0001 T00720067
14926KSTC STC20170425215012904/25/17 21:50:31  5-MIN KSTC 260350Z 04008KT 7SM -RA BKN013 OVC024 07/07 A2961 1320 96 700 030/08 RMK AO2 SLP037 P0002 T00720067
14926KSTC STC20170425215512704/25/17 21:55:31  5-MIN KSTC 260355Z AUTO 04009KT 7SM -RA BKN012 OVC024 07/07 A2961 1320 96 700 030/09 RMK AO2 P0000 T00720067
14926KSTC STC20170425220013304/25/17 22:00:31  5-MIN KSTC 260400Z AUTO 03008G19KT 7SM -RA BKN012 OVC024 07/06 A2961 1320 93 700 030/08G19 RMK AO2 P0000 T00720061
14926KSTC STC20170425220513304/25/17 22:05:31  5-MIN KSTC 260405Z AUTO 03013G21KT 8SM -RA BKN012 OVC024 07/06 A2960 1320 93 700 030/13G21 RMK AO2 P0001 T00720061
14926KSTC STC20170425221012604/25/17 22:10:31  5-MIN KSTC 260410Z AUTO 03010G21KT 8SM -RA OVC012 07/06 A2960 1320 93 700 030/10G21 RMK AO2 P0001 T00720061
14926KSTC STC20170425221512604/25/17 22:15:31  5-MIN KSTC 260415Z AUTO 04012G21KT 7SM -RA OVC012 07/06 A2960 1320 93 700 040/12G21 RMK AO2 P0001 T00720061
14926KSTC STC20170425222012904/25/17 22:20:31  5-MIN KSTC 260420Z AUTO 04013G19KT 6SM -RA BR OVC011 07/06 A2960 1320 93 700 040/13G19 RMK AO2 P0001 T00720061
14926KSTC STC20170425222512904/25/17 22:25:31  5-MIN KSTC 260425Z AUTO 03013G19KT 6SM -RA BR OVC011 07/06 A2960 1330 93 700 020/13G19 RMK AO2 P0002 T00720061
14926KSTC STC20170425223012904/25/17 22:30:31  5-MIN KSTC 260430Z AUTO 03012G18KT 6SM -RA BR OVC011 07/06 A2959 1330 96 700 030/12G18 RMK AO2 P0002 T00670061
14926KSTC STC20170425223512904/25/17 22:35:31  5-MIN KSTC 260435Z AUTO 03010G18KT 6SM -RA BR OVC011 07/06 A2959 1330 96 700 030/10G18 RMK AO2 P0003 T00670061
14926KSTC STC20170425224014104/25/17 22:40:31  5-MIN KSTC 260440Z AUTO 03011G17KT 6SM -RA BR OVC011 07/06 A2959 1330 96 700 030/11G17 RMK AO2 CIG 009V014 P0003 T00670061
14926KSTC STC20170425224513804/25/17 22:45:31  5-MIN KSTC 260445Z AUTO 02012G21KT 7SM -RA OVC011 07/06 A2959 1330 96 700 020/12G21 RMK AO2 CIG 009V014 P0003 T00670061
14926KSTC STC20170425225014504/25/17 22:50:31  5-MIN KSTC 260450Z AUTO 02012G21KT 7SM -RA OVC010 07/06 A2959 1340 96 700 020/12G21 RMK AO2 CIG 009V014 SLP030 P0003 T00670061
14926KSTC STC20170425225512604/25/17 22:55:31  5-MIN KSTC 260455Z AUTO 02012G20KT 7SM -RA OVC010 07/06 A2958 1340 96 700 020/12G20 RMK AO2 P0000 T00670061
14926KSTC STC20170425230012604/25/17 23:00:31  5-MIN KSTC 260500Z AUTO 03011G20KT 8SM -RA OVC010 07/06 A2958 1340 96 700 030/11G20 RMK AO2 P0000 T00670061
14926KSTC STC20170425230513804/25/17 23:05:31  5-MIN KSTC 260505Z AUTO 03011G22KT 9SM -RA OVC010 07/06 A2958 1340 96 700 030/11G22 RMK AO2 CIG 008V013 P0000 T00670061
14926KSTC STC20170425231012704/25/17 23:10:31  5-MIN KSTC 260510Z AUTO 03012G22KT 10SM -RA OVC012 07/06 A2958 1340 96 700 030/12G22 RMK AO2 P0000 T00670061
14926KSTC STC20170425231512604/25/17 23:15:31  5-MIN KSTC 260515Z AUTO 03009G22KT 9SM -RA OVC012 07/06 A2958 1340 96 700 030/09G22 RMK AO2 P0000 T00670061
14926KSTC STC20170425232013204/25/17 23:20:31  5-MIN KSTC 260520Z AUTO 04010KT 8SM -RA OVC010 07/06 A2958 1340 96 700 030/10 RMK AO2 CIG 008V014 P0000 T00670061
14926KSTC STC20170425232512604/25/17 23:25:31  5-MIN KSTC 260525Z AUTO 02014G22KT 8SM -RA OVC010 07/06 A2958 1340 96 700 020/14G22 RMK AO2 P0000 T00670061
14926KSTC STC20170425233013404/25/17 23:30:31  5-MIN KSTC 260530Z AUTO 01012G22KT 10SM -RA BKN011 OVC016 07/06 A2959 1340 93 700 010/12G22 RMK AO2 P0000 T00670056
14926KSTC STC20170425233513904/25/17 23:35:31  5-MIN KSTC 260535Z AUTO 36011KT 8SM -RA BKN008 OVC014 06/06 A2958 1340 96 600 360/11 RMK AO2 CIG 006V011 P0000 T00610056
14926KSTC STC20170425234014204/25/17 23:40:31  5-MIN KSTC 260540Z AUTO 36011KT 5SM -RA BR BKN008 OVC014 06/05 A2958 1340 96 600 360/11 RMK AO2 CIG 006V012 P0001 T00560050
14926KSTC STC20170425234514204/25/17 23:45:31  5-MIN KSTC 260545Z AUTO 01012KT 4SM -RA BR BKN006 OVC014 06/05 A2958 1340 96 600 010/12 RMK AO2 CIG 006V011 P0001 T00560050
14926KSTC STC20170425235018304/25/17 23:50:31  5-MIN KSTC 260550Z AUTO 01010KT 4SM -RA BR BKN008 OVC014 06/05 A2958 1340 96 600 010/10 RMK AO2 CIG 006V012 SLP030 P0002 60026 T00560050 10094 20056 401720056 50013
14926KSTC STC20170425235513504/25/17 23:55:31  5-MIN KSTC 260555Z AUTO 01011KT 5SM -RA BR OVC008 06/05 A2958 1340 96 600 010/11 RMK AO2 CIG 006V012 P0000 T00560050
14926KSTC STC20170426000013504/26/17 00:00:31  5-MIN KSTC 260600Z AUTO 01011KT 5SM -RA BR OVC008 05/04 A2959 1340 96 500 360/11 RMK AO2 CIG 006V012 P0001 T00500044
14926KSTC STC20170426000513504/26/17 00:05:31  5-MIN KSTC 260605Z AUTO 01012KT 6SM -RA BR OVC008 05/04 A2959 1340 96 500 010/12 RMK AO2 CIG 006V012 P0002 T00500044
14926KSTC STC20170426001013504/26/17 00:10:31  5-MIN KSTC 260610Z AUTO 01011KT 5SM -RA BR OVC008 05/04 A2958 1340 96 500 010/11 RMK AO2 CIG 006V012 P0002 T00500044
14926KSTC STC20170426001512204/26/17 00:15:31  5-MIN KSTC 260615Z AUTO 01009KT 5SM RA BR OVC008 05/04 A2958 1340 96 500 010/09 RMK AO2 P0003 T00500044
14926KSTC STC20170426002013604/26/17 00:20:31  5-MIN KSTC 260620Z AUTO 01011KT 5SM -RA BR OVC008 04/04 A2958 1340 100 400 010/11 RMK AO2 CIG 007V012 P0003 T00440044
14926KSTC STC20170426002514204/26/17 00:25:31  5-MIN KSTC 260625Z AUTO 01010G17KT 6SM -RA BR OVC008 04/04 A2958 1340 100 400 010/10G17 RMK AO2 CIG 007V012 P0004 T00440044
14926KSTC STC20170426003013304/26/17 00:30:31  5-MIN KSTC 260630Z AUTO 01008KT 7SM -RA OVC008 04/04 A2958 1340 100 400 010/08 RMK AO2 CIG 007V012 P0004 T00440044
14926KSTC STC20170426003513304/26/17 00:35:31  5-MIN KSTC 260635Z AUTO 36009KT 7SM -RA OVC008 04/04 A2958 1340 100 400 360/09 RMK AO2 CIG 007V012 P0004 T00440044
14926KSTC STC20170426004013304/26/17 00:40:31  5-MIN KSTC 260640Z AUTO 36009KT 7SM -RA OVC008 04/04 A2958 1340 100 400 360/09 RMK AO2 CIG 006V011 P0005 T00440044
14926KSTC STC20170426004513504/26/17 00:45:31  5-MIN KSTC 260645Z AUTO 01009KT 6SM RA BR OVC008 04/04 A2958 1340 100 400 010/09 RMK AO2 CIG 006V011 P0006 T00440044
14926KSTC STC20170426005013504/26/17 00:50:31  5-MIN KSTC 260650Z AUTO 03012G17KT 5SM RA BR OVC008 04/04 A2958 1340 96 400 020/12G17 RMK AO2 SLP028 P0007 T00440039
14926KSTC STC20170426005512804/26/17 00:55:31  5-MIN KSTC 260655Z AUTO 36010G17KT 5SM RA BR OVC008 04/04 A2957 1350 96 400 360/10G17 RMK AO2 P0001 T00440039
14926KSTC STC20170426010012904/26/17 01:00:31  5-MIN KSTC 260700Z AUTO 01014G19KT 6SM -RA BR OVC008 04/04 A2957 1350 96 400 360/14G19 RMK AO2 P0002 T00440039
14926KSTC STC20170426010513804/26/17 01:05:31  5-MIN KSTC 260705Z AUTO 01011G19KT 7SM -RA OVC008 04/03 A2957 1350 96 400 010/11G19 RMK AO2 CIG 006V011 P0002 T00390033
14926KSTC STC20170426011013804/26/17 01:10:31  5-MIN KSTC 260710Z AUTO 36010G18KT 7SM -RA OVC008 04/03 A2957 1350 96 400 360/10G18 RMK AO2 CIG 006V011 P0003 T00390033
14926KSTC STC20170426011512804/26/17 01:15:31  5-MIN KSTC 260715Z AUTO 36013G19KT 6SM RA BR OVC008 04/03 A2957 1350 96 400 360/13G19 RMK AO2 P0003 T00390033
14926KSTC STC20170426012012904/26/17 01:20:31  5-MIN KSTC 260720Z AUTO 01013G19KT 6SM -RA BR OVC008 03/03 A2956 1360 96 300 010/13G19 RMK AO2 P0004 T00330028
14926KSTC STC20170426012512904/26/17 01:25:31  5-MIN KSTC 260725Z AUTO 01012G19KT 6SM -RA BR OVC008 03/03 A2956 1360 96 300 010/12G19 RMK AO2 P0005 T00330028
14926KSTC STC20170426013012604/26/17 01:30:31  5-MIN KSTC 260730Z AUTO 01013G19KT 7SM -RA OVC008 03/03 A2956 1360 96 300 010/13G19 RMK AO2 P0005 T00330028
14926KSTC STC20170426013512604/26/17 01:35:31  5-MIN KSTC 260735Z AUTO 01011G19KT 7SM -RA OVC008 03/03 A2956 1360 96 300 010/11G19 RMK AO2 P0006 T00330028
14926KSTC STC20170426014012604/26/17 01:40:31  5-MIN KSTC 260740Z AUTO 01010G19KT 7SM -RA OVC009 03/03 A2956 1360 96 300 010/10G19 RMK AO2 P0006 T00330028
14926KSTC STC20170426014512604/26/17 01:45:31  5-MIN KSTC 260745Z AUTO 01012G18KT 7SM -RA OVC009 03/03 A2956 1360 96 300 010/12G18 RMK AO2 P0007 T00330028
14926KSTC STC20170426015013304/26/17 01:50:31  5-MIN KSTC 260750Z AUTO 36010G18KT 7SM -RA OVC009 03/03 A2957 1360 96 300 360/10G18 RMK AO2 SLP024 P0007 T00330028
14926KSTC STC20170426015512104/26/17 01:55:31  5-MIN KSTC 260755Z AUTO 36011KT 7SM -RA OVC009 03/03 A2957 1360 100 200 360/11 RMK AO2 P0000 T00280028
14926KSTC STC20170426020012804/26/17 02:00:31  5-MIN KSTC 260800Z AUTO 01010KT 7SM -RA BKN009 OVC012 03/03 A2956 1360 100 200 010/10 RMK AO2 P0001 T00280028
14926KSTC STC20170426020512904/26/17 02:05:31  5-MIN KSTC 260805Z AUTO 01011KT 6SM RA BR BKN009 OVC012 03/02 A2956 1360 96 200 010/11 RMK AO2 P0001 T00280022
14926KSTC STC20170426021012204/26/17 02:10:31  5-MIN KSTC 260810Z AUTO 01010KT 6SM RA BR OVC009 03/02 A2956 1360 96 200 010/10 RMK AO2 P0002 T00280022
14926KSTC STC20170426021512204/26/17 02:15:31  5-MIN KSTC 260815Z AUTO 01011KT 6SM RA BR OVC009 03/02 A2956 1360 96 200 010/11 RMK AO2 P0003 T00280022
14926KSTC STC20170426022012304/26/17 02:20:31  5-MIN KSTC 260820Z AUTO 01011KT 6SM -RA BR OVC009 03/02 A2956 1360 96 200 010/11 RMK AO2 P0003 T00280022
14926KSTC STC20170426022512004/26/17 02:25:31  5-MIN KSTC 260825Z AUTO 01011KT 7SM -RA OVC011 03/02 A2956 1360 96 200 010/11 RMK AO2 P0004 T00280022
14926KSTC STC20170426023012004/26/17 02:30:31  5-MIN KSTC 260830Z AUTO 01011KT 8SM -RA OVC009 03/02 A2956 1360 96 200 010/11 RMK AO2 P0004 T00280022
14926KSTC STC20170426023512604/26/17 02:35:31  5-MIN KSTC 260835Z AUTO 01011G18KT 8SM -RA OVC011 03/02 A2956 1360 96 200 360/11G18 RMK AO2 P0005 T00280022
14926KSTC STC20170426024012604/26/17 02:40:31  5-MIN KSTC 260840Z AUTO 01011G18KT 8SM -RA OVC011 03/02 A2956 1360 92 200 010/11G18 RMK AO2 P0005 T00280017
14926KSTC STC20170426024512004/26/17 02:45:31  5-MIN KSTC 260845Z AUTO 01012KT 8SM -RA OVC011 03/02 A2956 1360 92 200 010/12 RMK AO2 P0006 T00280017
14926KSTC STC20170426025013904/26/17 02:50:31  5-MIN KSTC 260850Z AUTO 02009KT 8SM -RA OVC011 02/02 A2956 1360 96 200 020/09 RMK AO2 SLP021 P0006 60021 T00220017 55012
14926KSTC STC20170426025512004/26/17 02:55:31  5-MIN KSTC 260855Z AUTO 01011KT 9SM -RA OVC011 02/02 A2956 1360 96 200 010/11 RMK AO2 P0000 T00220017
14926KSTC STC20170426030012004/26/17 03:00:31  5-MIN KSTC 260900Z AUTO 02009KT 9SM -RA OVC011 03/02 A2956 1360 92 200 010/09 RMK AO2 P0001 T00280017
14926KSTC STC20170426030512004/26/17 03:05:31  5-MIN KSTC 260905Z AUTO 02010KT 8SM -RA OVC011 03/02 A2956 1360 92 200 010/10 RMK AO2 P0001 T00280017
14926KSTC STC20170426031012004/26/17 03:10:31  5-MIN KSTC 260910Z AUTO 01009KT 7SM -RA OVC011 03/02 A2956 1360 92 300 010/09 RMK AO2 P0002 T00280017
14926KSTC STC20170426031512004/26/17 03:15:31  5-MIN KSTC 260915Z AUTO 01010KT 7SM -RA OVC011 03/02 A2956 1370 92 300 010/10 RMK AO2 P0003 T00280017
14926KSTC STC20170426032012004/26/17 03:20:31  5-MIN KSTC 260920Z AUTO 01010KT 7SM -RA OVC011 03/02 A2955 1370 92 300 010/10 RMK AO2 P0003 T00280017
14926KSTC STC20170426032512004/26/17 03:25:31  5-MIN KSTC 260925Z AUTO 02009KT 8SM -RA OVC011 02/02 A2955 1370 96 200 020/09 RMK AO2 P0003 T00220017
14926KSTC STC20170426033012004/26/17 03:30:31  5-MIN KSTC 260930Z AUTO 02009KT 8SM -RA OVC011 03/02 A2955 1380 92 300 020/09 RMK AO2 P0004 T00280017
14926KSTC STC20170426033512004/26/17 03:35:31  5-MIN KSTC 260935Z AUTO 02009KT 8SM -RA OVC011 03/02 A2955 1370 96 300 020/09 RMK AO2 P0004 T00280022
14926KSTC STC20170426034013204/26/17 03:40:31  5-MIN KSTC 260940Z AUTO 02010KT 8SM -RA OVC011 03/02 A2954 1380 96 300 020/10 RMK AO2 CIG 008V015 P0005 T00280022
14926KSTC STC20170426034512604/26/17 03:45:31  5-MIN KSTC 260945Z AUTO 02009G16KT 8SM -RA OVC011 03/02 A2955 1380 92 300 020/09G16 RMK AO2 P0005 T00280017
14926KSTC STC20170426035013304/26/17 03:50:31  5-MIN KSTC 260950Z AUTO 02010G17KT 8SM -RA OVC013 03/02 A2955 1380 92 300 020/10G17 RMK AO2 SLP017 P0005 T00280017
14926KSTC STC20170426035512604/26/17 03:55:31  5-MIN KSTC 260955Z AUTO 02008G19KT 8SM -RA OVC013 03/02 A2954 1380 92 300 020/08G19 RMK AO2 P0001 T00280017
14926KSTC STC20170426040013304/26/17 04:00:31  5-MIN KSTC 261000Z AUTO 02009G19KT 8SM -RA BKN013 OVC017 03/02 A2954 1380 92 300 020/09G19 RMK AO2 P0001 T00280017
14926KSTC STC20170426040512604/26/17 04:05:31  5-MIN KSTC 261005Z AUTO 02012G17KT 8SM -RA OVC013 03/02 A2954 1380 92 300 020/12G17 RMK AO2 P0001 T00280017
14926KSTC STC20170426041012604/26/17 04:10:31  5-MIN KSTC 261010Z AUTO 02010G17KT 8SM -RA OVC012 02/02 A2954 1380 96 200 020/10G17 RMK AO2 P0001 T00220017
14926KSTC STC20170426041512004/26/17 04:15:31  5-MIN KSTC 261015Z AUTO 03012KT 7SM -RA OVC014 02/01 A2954 1380 92 200 020/12 RMK AO2 P0002 T00220011
14926KSTC STC20170426042012604/26/17 04:20:31  5-MIN KSTC 261020Z AUTO 02014G20KT 7SM -RA OVC014 02/01 A2954 1380 92 200 020/14G20 RMK AO2 P0003 T00220011
14926KSTC STC20170426042512604/26/17 04:25:31  5-MIN KSTC 261025Z AUTO 02013G21KT 8SM -RA OVC014 02/01 A2954 1380 92 200 020/13G21 RMK AO2 P0003 T00220011
14926KSTC STC20170426043013304/26/17 04:30:31  5-MIN KSTC 261030Z AUTO 02009G21KT 8SM -RA SCT012 OVC018 02/01 A2954 1380 92 200 020/09G21 RMK AO2 P0003 T00220011
14926KSTC STC20170426043512704/26/17 04:35:31  5-MIN KSTC 261035Z AUTO 02008KT 7SM -RA SCT012 OVC018 02/01 A2954 1380 92 200 020/08 RMK AO2 P0004 T00220011
14926KSTC STC20170426044013304/26/17 04:40:31  5-MIN KSTC 261040Z AUTO 02011G16KT 8SM -RA SCT012 OVC018 02/02 A2954 1380 96 200 020/11G16 RMK AO2 P0004 T00220017
14926KSTC STC20170426044514004/26/17 04:45:31  5-MIN KSTC 261045Z AUTO 02011G22KT 9SM -RA FEW010 BKN016 OVC021 02/01 A2954 1380 92 200 020/11G22 RMK AO2 P0005 T00220011
14926KSTC STC20170426045014004/26/17 04:50:31  5-MIN KSTC 261050Z AUTO 02008G22KT 8SM -RA SCT012 OVC019 02/01 A2954 1380 92 200 010/08G22 RMK AO2 SLP016 P0005 T00220011
14926KSTC STC20170426045513404/26/17 04:55:31  5-MIN KSTC 261055Z AUTO 01008KT 8SM -RA BKN012 BKN016 OVC021 02/02 A2954 1380 96 200 010/08 RMK AO2 P0000 T00220017
14926KSTC STC20170426050013404/26/17 05:00:31  5-MIN KSTC 261100Z AUTO 01009KT 8SM -RA BKN010 BKN016 OVC021 02/02 A2954 1380 96 200 010/09 RMK AO2 P0000 T00220017
14926KSTC STC20170426050514004/26/17 05:05:31  5-MIN KSTC 261105Z AUTO 02009G16KT 8SM -RA BKN010 BKN016 OVC021 02/01 A2954 1380 92 200 020/09G16 RMK AO2 P0001 T00220011
14926KSTC STC20170426051013304/26/17 05:10:31  5-MIN KSTC 261110Z AUTO 02013G19KT 8SM -RA BKN012 OVC019 02/01 A2954 1380 92 200 020/13G19 RMK AO2 P0001 T00220011
14926KSTC STC20170426051513204/26/17 05:15:31  5-MIN KSTC 261115Z AUTO 02012G19KT 7SM RA BKN012 OVC019 02/01 A2954 1380 92 100 020/12G19 RMK AO2 P0002 T00170006
14926KSTC STC20170426052013604/26/17 05:20:31  5-MIN KSTC 261120Z AUTO 03013G20KT 5SM -RA BR BKN012 OVC017 02/01 A2954 1380 92 100 030/13G20 RMK AO2 P0003 T00170006
14926KSTC STC20170426052513104/26/17 05:25:31  5-MIN KSTC 261125Z 02010G20KT 6SM -RA BR SCT012 OVC017 02/01 A2955 1370 92 100 020/10G20 RMK AO2 P0003 T00170006
14926KSTC STC20170426053012104/26/17 05:30:31  5-MIN KSTC 261130Z 02011G19KT 7SM -RA OVC017 02/01 A2955 1370 92 100 020/11G19 RMK AO2 P0003 T00170006
14926KSTC STC20170426053512104/26/17 05:35:31  5-MIN KSTC 261135Z 03009G19KT 8SM -RA OVC016 02/01 A2955 1370 92 100 020/09G19 RMK AO2 P0004 T00170006
14926KSTC STC20170426054012104/26/17 05:40:31  5-MIN KSTC 261140Z 02011G17KT 8SM -RA OVC016 02/01 A2955 1370 92 100 020/11G17 RMK AO2 P0004 T00170006
14926KSTC STC20170426054512104/26/17 05:45:31  5-MIN KSTC 261145Z 02011G17KT 8SM -RA OVC016 02/01 A2956 1370 92 100 020/11G17 RMK AO2 P0004 T00170006
14926KSTC STC20170426055015804/26/17 05:50:31  5-MIN KSTC 261150Z 02009G17KT 7SM -RA OVC016 02/01 A2956 1360 92 100 020/09G17 RMK AO2 SLP024 P0004 60036 70073 T00170006 10056 20017 56008
14926KSTC STC20170426055512104/26/17 05:55:31  5-MIN KSTC 261155Z 02009G17KT 7SM -RA OVC016 02/01 A2956 1360 92 100 020/09G17 RMK AO2 P0000 T00170006
14926KSTC STC20170426060012404/26/17 06:00:31  5-MIN KSTC 261200Z 02010G17KT 5SM -RA BR OVC016 02/01 A2956 1360 92 100 020/10G17 RMK AO2 P0000 T00170006
14926KSTC STC20170426060512404/26/17 06:05:31  5-MIN KSTC 261205Z 02010G17KT 4SM -RA BR OVC016 02/01 A2956 1360 92 100 020/10G17 RMK AO2 P0001 T00170006
14926KSTC STC20170426061012404/26/17 06:10:31  5-MIN KSTC 261210Z 02011G21KT 4SM -RA BR OVC016 02/01 A2956 1360 92 100 020/11G21 RMK AO2 P0001 T00170006
14926KSTC STC20170426061512404/26/17 06:15:31  5-MIN KSTC 261215Z 02011G21KT 4SM -RA BR OVC016 02/01 A2956 1360 92 100 020/11G21 RMK AO2 P0002 T00170006
14926KSTC STC20170426062012904/26/17 06:20:31  5-MIN KSTC 261220Z 02010G18KT 5SM -RA BR BKN016 OVC023 01/01 A2956 1360 96 0 020/10G18 RMK AO2 P0002 T00110006
14926KSTC STC20170426062512904/26/17 06:25:31  5-MIN KSTC 261225Z 02010G17KT 5SM -RA BR SCT014 OVC021 01/01 A2956 1360 96 0 020/10G17 RMK AO2 P0003 T00110006
14926KSTC STC20170426063012904/26/17 06:30:31  5-MIN KSTC 261230Z 02009G17KT 5SM -RA BR BKN018 OVC023 01/01 A2956 1360 96 0 020/09G17 RMK AO2 P0003 T00110006
14926KSTC STC20170426063512804/26/17 06:35:31  5-MIN KSTC 261235Z 01010G16KT 7SM -RA FEW012 OVC020 02/01 A2956 1360 92 100 010/10G16 RMK AO2 P0003 T00170006
14926KSTC STC20170426064012204/26/17 06:40:31  5-MIN KSTC 261240Z 01009KT 9SM -RA BKN018 OVC024 02/01 A2957 1360 92 100 010/09 RMK AO2 P0003 T00170006
14926KSTC STC20170426064512304/26/17 06:45:31  5-MIN KSTC 261245Z 02008KT 10SM -RA BKN018 OVC024 02/01 A2957 1360 92 100 020/08 RMK AO2 P0003 T00170006
14926KSTC STC20170426065013004/26/17 06:50:31  5-MIN KSTC 261250Z 03008KT 10SM -RA BKN016 OVC023 02/01 A2957 1360 92 100 020/08 RMK AO2 SLP027 P0003 T00170006
14926KSTC STC20170426065512304/26/17 06:55:31  5-MIN KSTC 261255Z 02009KT 10SM -RA BKN016 OVC023 02/01 A2957 1350 92 100 020/09 RMK AO2 P0000 T00170006
14926KSTC STC20170426070012304/26/17 07:00:31  5-MIN KSTC 261300Z 03008KT 10SM -RA BKN016 OVC023 02/01 A2957 1350 92 100 020/08 RMK AO2 P0000 T00170006
14926KSTC STC20170426070512904/26/17 07:05:31  5-MIN KSTC 261305Z 02011G17KT 10SM -RA BKN017 OVC023 02/01 A2957 1350 92 100 020/11G17 RMK AO2 P0000 T00170006
14926KSTC STC20170426071013404/26/17 07:10:31  5-MIN KSTC 261310Z 01009G17KT 10SM -RA OVC020 02/00 A2957 1350 89 100 010/09G17 RMK AO2 CIG 011V024 P0000 T00170000
14926KSTC STC20170426071512304/26/17 07:15:31  5-MIN KSTC 261315Z 02007KT 10SM -RA BKN017 OVC023 02/01 A2957 1360 92 100 010/07 RMK AO2 P0000 T00170006
14926KSTC STC20170426072012304/26/17 07:20:31  5-MIN KSTC 261320Z 01009KT 10SM -RA FEW013 OVC020 02/01 A2957 1360 92 100 010/09 RMK AO2 P0001 T00170006
14926KSTC STC20170426072512804/26/17 07:25:31  5-MIN KSTC 261325Z 02013G18KT 9SM -RA FEW012 OVC020 02/01 A2957 1360 92 100 020/13G18 RMK AO2 P0001 T00170006
14926KSTC STC20170426073012804/26/17 07:30:31  5-MIN KSTC 261330Z 01007G18KT 9SM -RA SCT012 OVC020 02/01 A2957 1350 92 100 010/07G18 RMK AO2 P0001 T00170006
14926KSTC STC20170426073512904/26/17 07:35:31  5-MIN KSTC 261335Z 36009KT 7SM -RA SCT010 BKN014 OVC020 02/01 A2957 1350 92 100 360/09 RMK AO2 P0001 T00170006
14926KSTC STC20170426074012904/26/17 07:40:31  5-MIN KSTC 261340Z 01009KT 8SM -RA SCT010 BKN017 OVC022 02/01 A2957 1350 92 100 010/09 RMK AO2 P0002 T00170006
14926KSTC STC20170426074513004/26/17 07:45:31  5-MIN KSTC 261345Z 02009KT 10SM -RA FEW010 SCT015 OVC022 02/01 A2958 1350 92 100 020/09 RMK AO2 P0002 T00170006
14926KSTC STC20170426075013704/26/17 07:50:31  5-MIN KSTC 261350Z 01009KT 10SM -RA FEW010 SCT017 OVC023 02/01 A2958 1350 92 100 010/09 RMK AO2 SLP031 P0002 T00170006
14926KSTC STC20170426075512304/26/17 07:55:31  5-MIN KSTC 261355Z 36008KT 10SM -RA SCT012 OVC023 02/01 A2958 1350 92 100 360/08 RMK AO2 P0000 T00170006
14926KSTC STC20170426080013004/26/17 08:00:31  5-MIN KSTC 261400Z 36008KT 10SM -RA FEW010 SCT018 OVC023 02/01 A2957 1350 92 100 360/08 RMK AO2 P0000 T00170006
14926KSTC STC20170426080512304/26/17 08:05:31  5-MIN KSTC 261405Z 01010KT 10SM -RA BKN019 OVC025 02/01 A2957 1350 92 100 010/10 RMK AO2 P0000 T00170006
14926KSTC STC20170426081012304/26/17 08:10:31  5-MIN KSTC 261410Z 36009KT 10SM -RA SCT015 OVC025 02/01 A2957 1350 92 100 360/09 RMK AO2 P0000 T00170006
14926KSTC STC20170426081513004/26/17 08:15:31  5-MIN KSTC 261415Z 36010KT 10SM -RA FEW013 SCT019 OVC025 02/01 A2957 1350 92 100 360/10 RMK AO2 P0000 T00170006
14926KSTC STC20170426082012304/26/17 08:20:31  5-MIN KSTC 261420Z 01009KT 10SM -RA FEW012 OVC023 02/01 A2957 1350 92 100 010/09 RMK AO2 P0000 T00170006
14926KSTC STC20170426082512804/26/17 08:25:31  5-MIN KSTC 261425Z 35008KT 10SM -RA FEW008 BKN017 OVC025 01/01 A2957 1360 96 0 350/08 RMK AO2 P0000 T00110006
14926KSTC STC20170426083012804/26/17 08:30:31  5-MIN KSTC 261430Z 34008KT 10SM -RA FEW006 BKN019 OVC025 01/01 A2957 1360 96 0 340/08 RMK AO2 P0000 T00110006
14926KSTC STC20170426083513004/26/17 08:35:31  5-MIN KSTC 261435Z 34010KT 10SM SCT006 SCT013 OVC023 01/01 A2957 1350 96 0 340/10 RMK AO2 RAE35 P0000 T00110006
14926KSTC STC20170426084013004/26/17 08:40:31  5-MIN KSTC 261440Z 35011KT 10SM FEW007 BKN011 OVC021 01/01 A2956 1360 96 0 340/11 RMK AO2 RAE35 P0000 T00110006
14926KSTC STC20170426084512104/26/17 08:45:31  5-MIN KSTC 261445Z 35010KT 10SM -RA SCT007 OVC021 01/01 A2956 1360 96 0 350/10 RMK AO2 P0000 T00110006
14926KSTC STC20170426085014004/26/17 08:50:31  5-MIN KSTC 261450Z 35009KT 10SM -RA SCT007 OVC019 01/01 A2956 1360 96 0 350/09 RMK AO2 SLP026 P0000 60005 T00110006 55001
14926KSTC STC20170426085512804/26/17 08:55:31  5-MIN KSTC 261455Z 35011KT 10SM -RA SCT007 SCT016 OVC021 01/01 A2956 1360 96 0 350/11 RMK AO2 P0000 T00110006
14926KSTC STC20170426090012804/26/17 09:00:31  5-MIN KSTC 261500Z 35011KT 10SM -RA SCT009 BKN018 OVC023 01/01 A2956 1360 96 0 350/11 RMK AO2 P0000 T00110006
14926KSTC STC20170426090512704/26/17 09:05:31  5-MIN KSTC 261505Z 36011KT 9SM -RA SCT009 BKN018 OVC023 01/01 A2956 1360 96 0 360/11 RMK AO2 P0000 T00110006
14926KSTC STC20170426091013304/26/17 09:10:31  5-MIN KSTC 261510Z 35014G18KT 8SM -RA BKN009 BKN015 OVC023 01/01 A2956 1360 96 0 350/14G18 RMK AO2 P0000 T00110006
14926KSTC STC20170426091513304/26/17 09:15:31  5-MIN KSTC 261515Z 35014G18KT 7SM -RA BKN009 BKN013 OVC021 01/00 A2956 1360 92 0 350/14G18 RMK AO2 P0000 T00110000
14926KSTC STC20170426092013604/26/17 09:20:31  5-MIN KSTC 261520Z 35012G18KT 5SM -RA BR BKN009 BKN015 OVC021 01/00 A2957 1360 96 0 340/12G18 RMK AO2 P0000 T00060000
14926KSTC STC20170426092514604/26/17 09:25:31  5-MIN KSTC 261525Z 35014G20KT 5SM UP BR BKN009 BKN013 OVC021 01/00 A2957 1360 96 0 350/14G20 RMK AO2 RAE25UPB25 P0000 T00060000
14926KSTC STC20170426093013604/26/17 09:30:31  5-MIN KSTC 261530Z 34010G20KT 8SM BKN009 OVC017 01/00 A2957 1350 92 0 340/10G20 RMK AO2 RAE25UPB25E28 P0000 T00110000
14926KSTC STC20170426093513104/26/17 09:35:31  5-MIN KSTC 261535Z 34011KT 10SM BKN009 OVC016 01/00 A2957 1350 92 0 340/11 RMK AO2 RAE25UPB25E28 P0000 T00110000
14926KSTC STC20170426094013004/26/17 09:40:31  5-MIN KSTC 261540Z 35015G20KT 10SM OVC009 01/00 A2957 1350 92 0 340/15G20 RMK AO2 RAE25UPB25E28 P0000 T00110000
14926KSTC STC20170426094513004/26/17 09:45:31  5-MIN KSTC 261545Z 35011G20KT 10SM OVC009 01/00 A2957 1350 92 0 350/11G20 RMK AO2 RAE25UPB25E28 P0000 T00110000
14926KSTC STC20170426095013704/26/17 09:50:31  5-MIN KSTC 261550Z 34010G18KT 10SM OVC009 01/00 A2957 1350 92 0 340/10G18 RMK AO2 RAE25UPB25E28 SLP029 P0000 T00110000
14926KSTC STC20170426095512204/26/17 09:55:31  5-MIN KSTC 261555Z 34013G18KT 10SM OVC009 01/00 A2957 1350 92 0 340/13G18 RMK AO2 CIG 008V012 T00110000
14926KSTC STC20170426100012204/26/17 10:00:31  5-MIN KSTC 261600Z 34011G18KT 10SM OVC009 01/00 A2957 1350 92 0 340/11G18 RMK AO2 CIG 008V013 T00110000
14926KSTC STC20170426100511104/26/17 10:05:31  5-MIN KSTC 261605Z 34011KT 10SM BKN008 OVC015 01/01 A2957 1350 96 0 340/11 RMK AO2 T00110006
14926KSTC STC20170426101011104/26/17 10:10:31  5-MIN KSTC 261610Z 35012KT 10SM BKN008 OVC015 01/00 A2958 1350 92 0 350/12 RMK AO2 T00110000
14926KSTC STC20170426101511704/26/17 10:15:31  5-MIN KSTC 261615Z 35015G21KT 10SM BKN008 OVC015 01/00 A2958 1340 92 0 350/15G21 RMK AO2 T00110000
14926KSTC STC20170426102011704/26/17 10:20:31  5-MIN KSTC 261620Z 34009G21KT 10SM BKN008 OVC015 01/00 A2958 1340 92 0 340/09G21 RMK AO2 T00110000
14926KSTC STC20170426102511704/26/17 10:25:31  5-MIN KSTC 261625Z 35011G19KT 10SM BKN008 OVC015 01/00 A2958 1350 92 0 350/11G19 RMK AO2 T00110000
14926KSTC STC20170426103011704/26/17 10:30:31  5-MIN KSTC 261630Z 35012G19KT 10SM BKN008 OVC015 01/00 A2958 1350 92 0 350/12G19 RMK AO2 T00110000
14926KSTC STC20170426103511104/26/17 10:35:31  5-MIN KSTC 261635Z 35012KT 10SM BKN008 OVC015 01/00 A2958 1350 92 0 350/12 RMK AO2 T00110000
14926KSTC STC20170426104011704/26/17 10:40:31  5-MIN KSTC 261640Z 35014G21KT 10SM BKN008 OVC015 01/00 A2958 1350 92 0 350/14G21 RMK AO2 T00110000
14926KSTC STC20170426104511804/26/17 10:45:31  5-MIN KSTC 261645Z 34011G21KT 10SM BKN008 OVC015 01/M01 A2958 1340 89 0 340/11G21 RMK AO2 T00111006
14926KSTC STC20170426105010004/26/17 10:50:31  5-MIN KSTC 261650Z 35012G19KT 10SM OVC013 01/00 A2958 1340 92 0 350/12G19 RMK AO2
14926KSTC STC20170426105511004/26/17 10:55:31  5-MIN KSTC 261655Z 34010G20KT 10SM OVC013 01/00 A2958 1340 92 0 340/10G20 RMK AO2 T00110000
14926KSTC STC20170426110011004/26/17 11:00:31  5-MIN KSTC 261700Z 33011G20KT 10SM OVC013 01/00 A2958 1340 92 0 330/11G20 RMK AO2 T00110000
14926KSTC STC20170426110510404/26/17 11:05:31  5-MIN KSTC 261705Z 34009KT 10SM OVC013 01/00 A2958 1340 92 0 340/09 RMK AO2 T00110000
14926KSTC STC20170426111010404/26/17 11:10:31  5-MIN KSTC 261710Z 35011KT 10SM OVC013 01/00 A2958 1350 92 0 350/11 RMK AO2 T00110000
14926KSTC STC20170426111511904/26/17 11:15:31  5-MIN KSTC 261715Z 35011KT 7SM -SN OVC013 01/00 A2958 1350 92 0 340/11 RMK AO2 SNB13 P0000 T00110000
14926KSTC STC20170426112012804/26/17 11:20:31  5-MIN KSTC 261720Z 34012G18KT 6SM -SN BR OVC013 01/00 A2957 1350 92 0 340/12G18 RMK AO2 SNB13 P0000 T00110000
14926KSTC STC20170426112512404/26/17 11:25:31  5-MIN KSTC 261725Z 36016G22KT 9SM OVC013 01/00 A2957 1350 92 0 350/16G22 RMK AO2 SNB13E23 P0000 T00110000
14926KSTC STC20170426113013204/26/17 11:30:31  5-MIN KSTC 261730Z 36014G22KT 10SM BKN013 OVC018 01/00 A2957 1350 92 0 350/14G22 RMK AO2 SNB13E23 P0000 T00110000
14926KSTC STC20170426113513404/26/17 11:35:31  5-MIN KSTC 261735Z 35017G23KT 10SM BKN013 OVC021 02/00 A2956 1360 89 100 350/17G23 RMK AO2 SNB13E23 P0000 T00170000
14926KSTC STC20170426114014104/26/17 11:40:31  5-MIN KSTC 261740Z 36016G23KT 10SM BKN013 OVC023 02/00 A2955 1370 89 100 360/16G23 RMK AO2 SNB13E23 PRESFR P0000 T00170000
14926KSTC STC20170426114513404/26/17 11:45:31  5-MIN KSTC 261745Z 35013G21KT 10SM BKN015 OVC025 02/00 A2955 1370 85 200 350/13G21 RMK AO2 SNB13E23 P0000 T00220000
14926KSTC STC20170426115017204/26/17 11:50:31  5-MIN KSTC 261750Z 36016G21KT 10SM BKN013 BKN019 OVC025 02/01 A2954 1380 89 200 360/16G21 RMK AO2 SNB13E23 SLP021 P0000 60005 T00220006 10022 20006 50001
14926KSTC STC20170426115512604/26/17 11:55:31  5-MIN KSTC 261755Z 36015G21KT 10SM BKN015 BKN021 OVC025 02/00 A2954 1380 85 200 360/15G21 RMK AO2 T00220000
14926KSTC STC20170426120012604/26/17 12:00:31  5-MIN KSTC 261800Z 36014G21KT 10SM BKN015 BKN021 OVC026 02/00 A2954 1380 85 200 360/14G21 RMK AO2 T00220000
14926KSTC STC20170426120512604/26/17 12:05:31  5-MIN KSTC 261805Z 35015G21KT 10SM BKN014 BKN020 OVC028 02/00 A2954 1380 85 200 350/15G21 RMK AO2 T00220000
14926KSTC STC20170426121011904/26/17 12:10:31  5-MIN KSTC 261810Z 36015G21KT 10SM BKN014 OVC024 02/00 A2954 1380 85 200 360/15G21 RMK AO2 T00220000
14926KSTC STC20170426121512604/26/17 12:15:31  5-MIN KSTC 261815Z 35013G21KT 10SM BKN014 BKN022 OVC027 02/00 A2956 1370 85 200 350/13G21 RMK AO2 T00220000
14926KSTC STC20170426122011904/26/17 12:20:31  5-MIN KSTC 261820Z 35013G19KT 10SM BKN014 OVC022 02/00 A2955 1370 85 200 350/13G19 RMK AO2 T00220000
14926KSTC STC20170426122511204/26/17 12:25:31  5-MIN KSTC 261825Z 35012G18KT 10SM OVC014 02/00 A2956 1360 85 200 350/12G18 RMK AO2 T00220000
14926KSTC STC20170426123010604/26/17 12:30:31  5-MIN KSTC 261830Z 35013KT 10SM OVC016 02/00 A2957 1350 89 100 350/13 RMK AO2 T00170000
14926KSTC STC20170426123510704/26/17 12:35:31  5-MIN KSTC 261835Z 35014KT 10SM OVC016 02/M01 A2957 1350 85 100 350/14 RMK AO2 T00171006
14926KSTC STC20170426124010704/26/17 12:40:31  5-MIN KSTC 261840Z 34013KT 10SM OVC016 02/M01 A2958 1350 85 100 340/13 RMK AO2 T00171006
14926KSTC STC20170426124510604/26/17 12:45:31  5-MIN KSTC 261845Z 35012KT 10SM OVC016 02/00 A2958 1340 85 200 340/12 RMK AO2 T00220000
14926KSTC STC20170426125011404/26/17 12:50:31  5-MIN KSTC 261850Z 34010KT 10SM OVC016 02/M01 A2958 1340 85 100 340/10 RMK AO2 SLP034 T00171006
14926KSTC STC20170426125510604/26/17 12:55:31  5-MIN KSTC 261855Z 36007KT 10SM OVC016 02/00 A2958 1340 85 200 360/07 RMK AO2 T00220000
14926KSTC STC20170426130011304/26/17 13:00:31  5-MIN KSTC 261900Z 34009KT 10SM BKN016 OVC020 02/00 A2959 1330 85 100 340/09 RMK AO2 T00220000
14926KSTC STC20170426130510604/26/17 13:05:31  5-MIN KSTC 261905Z 34012KT 10SM OVC016 02/00 A2959 1340 89 100 340/12 RMK AO2 T00170000
14926KSTC STC20170426131011304/26/17 13:10:31  5-MIN KSTC 261910Z 34010KT 10SM BKN016 OVC021 02/00 A2959 1340 89 100 340/10 RMK AO2 T00170000
14926KSTC STC20170426131510604/26/17 13:15:31  5-MIN KSTC 261915Z 35011KT 10SM OVC016 02/00 A2958 1340 89 100 350/11 RMK AO2 T00170000
14926KSTC STC20170426132011304/26/17 13:20:31  5-MIN KSTC 261920Z 34009KT 10SM BKN016 OVC021 02/00 A2958 1340 85 200 340/09 RMK AO2 T00220000
14926KSTC STC20170426132512504/26/17 13:25:31  5-MIN KSTC 261925Z 35013G17KT 9SM BKN016 BKN021 OVC028 02/00 A2958 1350 89 100 350/13G17 RMK AO2 T00170000
14926KSTC STC20170426133011904/26/17 13:30:31  5-MIN KSTC 261930Z 34013KT 9SM BKN016 BKN021 OVC028 02/00 A2958 1340 89 100 340/13 RMK AO2 T00170000
14926KSTC STC20170426133512004/26/17 13:35:31  5-MIN KSTC 261935Z 34011KT 9SM BKN016 BKN022 OVC028 02/M01 A2958 1340 85 100 340/11 RMK AO2 T00171006
14926KSTC STC20170426134012204/26/17 13:40:31  5-MIN KSTC 261940Z 33012KT 5SM BR BKN016 BKN020 OVC028 02/00 A2959 1340 89 100 330/12 RMK AO2 T00170000
14926KSTC STC20170426134511604/26/17 13:45:31  5-MIN KSTC 261945Z 34013KT 5SM BR BKN017 OVC026 02/M01 A2959 1330 85 100 340/13 RMK AO2 T00171006
14926KSTC STC20170426135011904/26/17 13:50:31  5-MIN KSTC 261950Z 33010KT 8SM BKN019 OVC026 02/00 A2959 1330 89 100 330/10 RMK AO2 SLP039 T00170000
14926KSTC STC20170426135511304/26/17 13:55:31  5-MIN KSTC 261955Z 34012KT 10SM BKN017 OVC026 02/00 A2959 1330 89 100 340/12 RMK AO2 T00170000
14926KSTC STC20170426140011304/26/17 14:00:31  5-MIN KSTC 262000Z 34009KT 10SM SCT014 OVC020 02/00 A2959 1330 89 100 340/09 RMK AO2 T00170000
14926KSTC STC20170426140511904/26/17 14:05:31  5-MIN KSTC 262005Z 34011G16KT 10SM BKN012 OVC020 02/00 A2959 1330 89 100 340/11G16 RMK AO2 T00170000
14926KSTC STC20170426141011304/26/17 14:10:31  5-MIN KSTC 262010Z 34009KT 10SM BKN015 OVC020 02/00 A2960 1330 89 100 340/09 RMK AO2 T00170000
14926KSTC STC20170426141511304/26/17 14:15:31  5-MIN KSTC 262015Z 35010KT 10SM BKN012 OVC020 02/00 A2959 1330 89 100 350/10 RMK AO2 T00170000
14926KSTC STC20170426142011304/26/17 14:20:31  5-MIN KSTC 262020Z 35011KT 10SM BKN012 OVC020 02/00 A2959 1330 89 100 350/11 RMK AO2 T00170000
14926KSTC STC20170426142511304/26/17 14:25:31  5-MIN KSTC 262025Z 34009KT 10SM BKN012 OVC020 02/00 A2959 1330 89 100 340/09 RMK AO2 T00170000
14926KSTC STC20170426143011304/26/17 14:30:31  5-MIN KSTC 262030Z 34010KT 10SM BKN012 OVC020 02/00 A2958 1340 89 100 340/10 RMK AO2 T00170000
14926KSTC STC20170426143511304/26/17 14:35:31  5-MIN KSTC 262035Z 35009KT 10SM BKN012 OVC020 02/00 A2958 1340 89 100 350/09 RMK AO2 T00170000
14926KSTC STC20170426144011304/26/17 14:40:31  5-MIN KSTC 262040Z 34012KT 10SM BKN012 OVC020 02/00 A2958 1340 89 100 340/12 RMK AO2 T00170000
14926KSTC STC20170426144511404/26/17 14:45:31  5-MIN KSTC 262045Z 35009KT 10SM BKN012 OVC020 02/M01 A2958 1340 82 200 340/09 RMK AO2 T00221006
14926KSTC STC20170426145010304/26/17 14:50:31  5-MIN KSTC 262050Z 35010KT 10SM BKN016 OVC024 02/00 A2959 1340 85 100 340/10 RMK AO2
14926KSTC STC20170426145511404/26/17 14:55:31  5-MIN KSTC 262055Z 35011KT 10SM BKN014 OVC020 02/M01 A2959 1340 85 100 350/11 RMK AO2 T00171006
14926KSTC STC20170426150011304/26/17 15:00:31  5-MIN KSTC 262100Z 34009KT 10SM BKN017 OVC023 02/00 A2958 1340 89 100 340/09 RMK AO2 T00170000
14926KSTC STC20170426150511304/26/17 15:05:31  5-MIN KSTC 262105Z 35011KT 10SM BKN016 OVC020 02/00 A2959 1340 85 100 350/11 RMK AO2 T00220000
14926KSTC STC20170426151010704/26/17 15:10:31  5-MIN KSTC 262110Z 34013KT 10SM OVC016 02/M01 A2958 1340 85 100 340/13 RMK AO2 T00171006
14926KSTC STC20170426151511404/26/17 15:15:31  5-MIN KSTC 262115Z 35012KT 10SM BKN016 OVC021 02/M01 A2958 1340 85 100 350/12 RMK AO2 T00171006
14926KSTC STC20170426152011404/26/17 15:20:31  5-MIN KSTC 262120Z 34010KT 10SM BKN016 OVC021 02/M01 A2958 1340 85 100 340/10 RMK AO2 T00171006
14926KSTC STC20170426152510704/26/17 15:25:31  5-MIN KSTC 262125Z 34012KT 10SM OVC016 02/M01 A2958 1340 82 200 340/12 RMK AO2 T00221006
14926KSTC STC20170426153010704/26/17 15:30:31  5-MIN KSTC 262130Z 36010KT 10SM OVC016 02/M01 A2958 1340 85 100 360/10 RMK AO2 T00171006
14926KSTC STC20170426153510704/26/17 15:35:31  5-MIN KSTC 262135Z 34012KT 10SM OVC016 02/M01 A2959 1340 85 100 340/12 RMK AO2 T00171006
14926KSTC STC20170426154010704/26/17 15:40:31  5-MIN KSTC 262140Z 35011KT 10SM OVC016 02/M01 A2959 1340 85 100 350/11 RMK AO2 T00171006
14926KSTC STC20170426154511404/26/17 15:45:31  5-MIN KSTC 262145Z 35009KT 10SM BKN016 OVC023 02/M01 A2959 1340 85 100 350/09 RMK AO2 T00171006
14926KSTC STC20170426155011404/26/17 15:50:31  5-MIN KSTC 262150Z 35010KT 10SM OVC018 02/M01 A2958 1340 85 100 350/10 RMK AO2 SLP035 T00171006
14926KSTC STC20170426155511304/26/17 15:55:31  5-MIN KSTC 262155Z 34012G19KT 10SM OVC018 02/M01 A2959 1340 82 100 340/12G19 RMK AO2 T00171011
14926KSTC STC20170426160010704/26/17 16:00:31  5-MIN KSTC 262200Z 35011KT 10SM OVC017 02/M01 A2959 1340 85 100 350/11 RMK AO2 T00171006
14926KSTC STC20170426160510704/26/17 16:05:31  5-MIN KSTC 262205Z 36012KT 10SM OVC015 02/M01 A2959 1340 85 100 360/12 RMK AO2 T00171006
14926KSTC STC20170426161011404/26/17 16:10:31  5-MIN KSTC 262210Z 35011KT 10SM BKN015 OVC021 02/M01 A2959 1340 85 100 350/11 RMK AO2 T00171006
14926KSTC STC20170426161511404/26/17 16:15:31  5-MIN KSTC 262215Z 35011KT 10SM BKN016 OVC023 02/M01 A2959 1340 82 100 350/11 RMK AO2 T00171011
14926KSTC STC20170426162011404/26/17 16:20:31  5-MIN KSTC 262220Z 36012KT 10SM BKN016 OVC021 02/M01 A2959 1330 85 100 360/12 RMK AO2 T00171006
14926KSTC STC20170426162512504/26/17 16:25:31  5-MIN KSTC 262225Z 34013G18KT 10SM BKN016 BKN021 OVC028 01/M01 A2959 1330 89 0 340/13G18 RMK AO2 T00111006
14926KSTC STC20170426163012504/26/17 16:30:31  5-MIN KSTC 262230Z 35011G18KT 10SM SCT016 BKN023 OVC028 01/M01 A2959 1330 89 0 350/11G18 RMK AO2 T00111006
14926KSTC STC20170426163511904/26/17 16:35:31  5-MIN KSTC 262235Z 34011KT 10SM SCT015 BKN023 OVC030 01/M01 A2959 1330 85 0 340/11 RMK AO2 T00111011
14926KSTC STC20170426164011904/26/17 16:40:31  5-MIN KSTC 262240Z 35011KT 10SM SCT012 BKN020 OVC030 01/M01 A2959 1330 85 0 350/11 RMK AO2 T00111011
14926KSTC STC20170426164511904/26/17 16:45:31  5-MIN KSTC 262245Z 35010KT 10SM SCT015 BKN022 OVC030 01/M01 A2959 1330 85 0 350/10 RMK AO2 T00111011
14926KSTC STC20170426165012604/26/17 16:50:31  5-MIN KSTC 262250Z 35011KT 10SM SCT015 BKN022 OVC030 01/M01 A2959 1340 85 0 350/11 RMK AO2 SLP038 T00111011
14926KSTC STC20170426165511904/26/17 16:55:31  5-MIN KSTC 262255Z 34013KT 10SM BKN015 BKN021 OVC027 01/M01 A2958 1340 85 0 340/13 RMK AO2 T00111011
14926KSTC STC20170426170011204/26/17 17:00:31  5-MIN KSTC 262300Z 34009KT 10SM BKN013 OVC019 01/M01 A2958 1340 85 0 340/09 RMK AO2 T00111011
14926KSTC STC20170426170511204/26/17 17:05:31  5-MIN KSTC 262305Z 34012KT 10SM BKN013 OVC021 01/M01 A2958 1340 89 0 340/12 RMK AO2 T00061011
14926KSTC STC20170426171010504/26/17 17:10:31  5-MIN KSTC 262310Z 34009KT 10SM OVC013 01/M01 A2958 1340 89 0 340/09 RMK AO2 T00061011
14926KSTC STC20170426171511804/26/17 17:15:31  5-MIN KSTC 262315Z 33011G17KT 10SM BKN013 OVC018 01/M01 A2958 1340 89 0 330/11G17 RMK AO2 T00061011
14926KSTC STC20170426172011104/26/17 17:20:31  5-MIN KSTC 262320Z 34008G17KT 10SM OVC011 01/M01 A2958 1340 89 0 340/08G17 RMK AO2 T00061011
14926KSTC STC20170426172511204/26/17 17:25:31  5-MIN KSTC 262325Z 34009KT 10SM BKN011 OVC019 01/M01 A2959 1340 92 0 340/09 RMK AO2 T00061006
14926KSTC STC20170426173011204/26/17 17:30:31  5-MIN KSTC 262330Z 34008KT 10SM SCT011 OVC017 01/M01 A2959 1330 89 0 340/08 RMK AO2 T00061011
14926KSTC STC20170426173511904/26/17 17:35:31  5-MIN KSTC 262335Z 34011KT 10SM SCT011 BKN014 OVC019 01/M01 A2959 1330 89 0 340/11 RMK AO2 T00061011
14926KSTC STC20170426174011204/26/17 17:40:31  5-MIN KSTC 262340Z 35009KT 10SM BKN011 OVC019 01/M01 A2960 1320 89 0 350/09 RMK AO2 T00061011
14926KSTC STC20170426174511204/26/17 17:45:31  5-MIN KSTC 262345Z 35010KT 10SM BKN013 OVC019 01/M01 A2960 1330 89 0 350/10 RMK AO2 T00061011
14926KSTC STC20170426175013704/26/17 17:50:31  5-MIN KSTC 262350Z 34010KT 10SM BKN013 OVC019 01/M01 A2960 1330 89 0 340/10 RMK AO2 SLP042 T00061011 10022 20006 50015
14926KSTC STC20170426175511204/26/17 17:55:31  5-MIN KSTC 262355Z 34008KT 10SM BKN013 OVC019 01/M01 A2960 1330 89 0 330/08 RMK AO2 T00061011
14926KSTC STC20170426180010504/26/17 18:00:31  5-MIN KSTC 270000Z 33008KT 10SM OVC013 01/M01 A2960 1330 89 0 330/08 RMK AO2 T00061011
14926KSTC STC20170426180511204/26/17 18:05:31  5-MIN KSTC 270005Z 35008KT 10SM BKN011 OVC021 01/M01 A2960 1320 89 0 350/08 RMK AO2 T00061011
14926KSTC STC20170426181011904/26/17 18:10:31  5-MIN KSTC 270010Z 35010KT 10SM SCT011 BKN014 OVC021 01/M01 A2960 1320 89 0 350/10 RMK AO2 T00061011
14926KSTC STC20170426181511904/26/17 18:15:31  5-MIN KSTC 270015Z 35008KT 10SM SCT011 BKN015 OVC020 01/M01 A2961 1320 89 0 350/08 RMK AO2 T00061011
14926KSTC STC20170426182011204/26/17 18:20:31  5-MIN KSTC 270020Z 35008KT 10SM SCT011 OVC017 01/M01 A2961 1320 89 0 340/08 RMK AO2 T00061011
14926KSTC STC20170426182511204/26/17 18:25:31  5-MIN KSTC 270025Z 34008KT 10SM SCT011 OVC019 01/M01 A2961 1320 89 0 340/08 RMK AO2 T00061011
14926KSTC STC20170426183011804/26/17 18:30:31  5-MIN KSTC 270030Z 35007KT 9SM SCT011 BKN017 OVC027 01/M02 A2961 1320 85 0 350/07 RMK AO2 T00061017
14926KSTC STC20170426183511104/26/17 18:35:31  5-MIN KSTC 270035Z 35009KT 7SM BKN015 OVC024 01/M01 A2961 1310 89 0 350/09 RMK AO2 T00061011
14926KSTC STC20170426184011704/26/17 18:40:31  5-MIN KSTC 270040Z 35008KT 5SM BR BKN015 OVC024 00/M01 A2961 1320 92 -100 350/08 RMK AO2 T00001011
14926KSTC STC20170426184511704/26/17 18:45:31  5-MIN KSTC 270045Z 33008KT 4SM BR BKN013 OVC024 00/M01 A2961 1310 92 -100 330/08 RMK AO2 T00001011
14926KSTC STC20170426185011404/26/17 18:50:31  5-MIN KSTC 270050Z 33007KT 4SM BR SCT009 BKN014 OVC026 00/M01 A2961 1310 96 -100 330/07 RMK AO2
14926KSTC STC20170426185512404/26/17 18:55:31  5-MIN KSTC 270055Z 33006KT 4SM BR SCT009 BKN014 OVC026 00/M01 A2962 1310 96 -100 330/06 RMK AO2 T00001006
14926KSTC STC20170426190012404/26/17 19:00:31  5-MIN KSTC 270100Z 34008KT 4SM BR SCT009 BKN014 OVC026 00/M01 A2962 1310 96 -100 330/08 RMK AO2 T00001006
14926KSTC STC20170426190511704/26/17 19:05:31  5-MIN KSTC 270105Z 33007KT 4SM BR BKN009 OVC017 00/M01 A2961 1310 96 -100 330/07 RMK AO2 T00001006
14926KSTC STC20170426191012404/26/17 19:10:31  5-MIN KSTC 270110Z 33007KT 4SM BR BKN010 BKN017 OVC025 00/M01 A2962 1310 96 -100 330/07 RMK AO2 T00001006
14926KSTC STC20170426191513004/26/17 19:15:31  5-MIN KSTC 270115Z 33008KT 5SM BR BKN010 BKN015 OVC028 00/M01 A2961 1310 92 -100 330/08 RMK AO2 I1000 T00001011
14926KSTC STC20170426192013004/26/17 19:20:31  5-MIN KSTC 270120Z 34008KT 5SM BR SCT007 BKN012 OVC030 00/M01 A2961 1310 96 -100 340/08 RMK AO2 I1000 T00001006
14926KSTC STC20170426192513004/26/17 19:25:31  5-MIN KSTC 270125Z 34006KT 5SM BR BKN007 BKN012 OVC030 00/M01 A2962 1310 96 -100 340/06 RMK AO2 I1000 T00001006
14926KSTC STC20170426193013004/26/17 19:30:31  5-MIN KSTC 270130Z 34006KT 5SM BR BKN007 BKN012 OVC030 00/M01 A2961 1310 96 -100 340/06 RMK AO2 I1001 T00001006
14926KSTC STC20170426193513004/26/17 19:35:31  5-MIN KSTC 270135Z 34006KT 4SM BR BKN007 BKN012 OVC030 00/M01 A2961 1310 96 -100 340/06 RMK AO2 I1001 T00001006
14926KSTC STC20170426194013004/26/17 19:40:31  5-MIN KSTC 270140Z 33009KT 4SM BR BKN007 BKN012 OVC030 00/M01 A2961 1310 96 -100 330/09 RMK AO2 I1001 T00001006
14926KSTC STC20170426194513004/26/17 19:45:31  5-MIN KSTC 270145Z 34007KT 5SM BR BKN007 BKN012 OVC030 00/M01 A2962 1310 96 -100 340/07 RMK AO2 I1001 T00001006
14926KSTC STC20170426195013704/26/17 19:50:31  5-MIN KSTC 270150Z 35007KT 5SM BR BKN007 BKN024 OVC032 00/M01 A2962 1310 96 -100 350/07 RMK AO2 SLP048 I1001 T00001006
14926KSTC STC20170426195511704/26/17 19:55:31  5-MIN KSTC 270155Z 35006KT 5SM BR BKN007 OVC032 00/M01 A2962 1310 96 -100 350/06 RMK AO2 T00001006
14926KSTC STC20170426200012404/26/17 20:00:31  5-MIN KSTC 270200Z 34007KT 5SM BR BKN007 BKN010 OVC031 00/M01 A2962 1310 96 -100 340/07 RMK AO2 T00001006
14926KSTC STC20170426200513004/26/17 20:05:31  5-MIN KSTC 270205Z 33006KT 6SM BR BKN007 BKN026 OVC033 00/M01 A2962 1310 96 -100 330/06 RMK AO2 I1000 T00001006
14926KSTC STC20170426201012304/26/17 20:10:31  5-MIN KSTC 270210Z 34006KT 6SM BR BKN007 OVC033 00/M01 A2962 1300 96 -100 330/06 RMK AO2 I1000 T00001006
14926KSTC STC20170426201512004/26/17 20:15:31  5-MIN KSTC 270215Z 34007KT 7SM BKN007 OVC021 00/M01 A2962 1300 96 -100 340/07 RMK AO2 I1000 T00001006
14926KSTC STC20170426202013304/26/17 20:20:31  5-MIN KSTC 270220Z 33007KT 8SM BKN007 OVC021 M01/M01 A2962 1300 96 -200 330/07 RMK AO2 CIG 006V014 I1000 T10061011
14926KSTC STC20170426202513304/26/17 20:25:31  5-MIN KSTC 270225Z 33006KT 9SM BKN007 OVC021 M01/M01 A2962 1300 96 -200 330/06 RMK AO2 CIG 006V014 I1000 T10061011
14926KSTC STC20170426203013304/26/17 20:30:31  5-MIN KSTC 270230Z 33006KT 10SM BKN008 OVC020 00/M01 A2962 1300 96 -100 330/06 RMK AO2 CIG 006V011 I1000 T00001006
14926KSTC STC20170426203513304/26/17 20:35:31  5-MIN KSTC 270235Z 34006KT 10SM BKN008 OVC020 00/M01 A2962 1300 96 -100 340/06 RMK AO2 CIG 006V011 I1000 T00001006
14926KSTC STC20170426204012104/26/17 20:40:31  5-MIN KSTC 270240Z 33006KT 10SM BKN008 OVC020 00/M01 A2962 1300 96 -100 330/06 RMK AO2 I1000 T00001006
14926KSTC STC20170426204512104/26/17 20:45:31  5-MIN KSTC 270245Z 33009KT 10SM BKN008 OVC020 00/M01 A2962 1310 92 -100 330/09 RMK AO2 I1000 T00001011
14926KSTC STC20170426205014704/26/17 20:50:31  5-MIN KSTC 270250Z 33007KT 10SM BKN008 BKN020 OVC045 00/M01 A2962 1310 92 -100 330/07 RMK AO2 SLP048 I1000 I3/// T00001011 53003
14926KSTC STC20170426205512304/26/17 20:55:31  5-MIN KSTC 270255Z 33007KT 10SM BKN008 BKN013 OVC045 M01/M01 A2961 1310 96 -200 330/07 RMK AO2 T10061011
14926KSTC STC20170426210011504/26/17 21:00:31  5-MIN KSTC 270300Z 34009KT 9SM BKN008 OVC013 M01/M01 A2961 1310 96 -200 330/09 RMK AO2 T10061011
14926KSTC STC20170426210511504/26/17 21:05:31  5-MIN KSTC 270305Z 34007KT 7SM BKN008 OVC012 M01/M01 A2961 1310 96 -200 330/07 RMK AO2 T10061011
14926KSTC STC20170426211011804/26/17 21:10:31  5-MIN KSTC 270310Z 33007KT 6SM BR BKN008 OVC012 M01/M01 A2962 1310 96 -200 330/07 RMK AO2 T10061011
14926KSTC STC20170426211511804/26/17 21:15:31  5-MIN KSTC 270315Z 33006KT 5SM BR BKN008 OVC012 M01/M01 A2962 1310 96 -200 330/06 RMK AO2 T10061011
14926KSTC STC20170426212012504/26/17 21:20:31  5-MIN KSTC 270320Z 33007KT 5SM BR BKN008 BKN012 OVC027 M01/M01 A2961 1310 96 -200 330/07 RMK AO2 T10061011
14926KSTC STC20170426212511104/26/17 21:25:31  5-MIN KSTC 270325Z 34007KT 5SM BR OVC008 M01/M01 A2961 1310 96 -200 330/07 RMK AO2 T10061011
14926KSTC STC20170426213012504/26/17 21:30:31  5-MIN KSTC 270330Z 33007KT 5SM BR BKN008 BKN012 OVC042 M01/M01 A2961 1320 96 -200 330/07 RMK AO2 T10061011
14926KSTC STC20170426213512504/26/17 21:35:31  5-MIN KSTC 270335Z 33008KT 5SM BR BKN008 BKN012 OVC042 M01/M01 A2961 1320 96 -200 330/08 RMK AO2 T10061011
14926KSTC STC20170426214011804/26/17 21:40:31  5-MIN KSTC 270340Z 33009KT 4SM BR BKN008 OVC012 M01/M01 A2961 1320 96 -200 320/09 RMK AO2 T10061011
14926KSTC STC20170426214512504/26/17 21:45:31  5-MIN KSTC 270345Z 33008KT 4SM BR BKN008 BKN013 OVC033 M01/M01 A2960 1320 96 -200 330/08 RMK AO2 T10061011
14926KSTC STC20170426215013104/26/17 21:50:31  5-MIN KSTC 270350Z 32006KT 4SM -SN BR SCT008 BKN013 OVC033 M01/M01 A2960 1320 96 -200 320/06 RMK AO2 SNB46 P0000
14926KSTC STC20170426215514104/26/17 21:55:31  5-MIN KSTC 270355Z AUTO 33007KT 3SM -SN BR BKN008 BKN013 OVC031 M01/M01 A2960 1330 100 -200 330/07 RMK AO2 P0000 T10061006
14926KSTC STC20170426220014004/26/17 22:00:31  5-MIN KSTC 270400Z AUTO 33008KT 4SM -SN BR SCT008 BKN013 OVC031 M01/M01 A2959 1330 96 -200 330/08 RMK AO2 P0000 T10061011
14926KSTC STC20170426220514204/26/17 22:05:31  5-MIN KSTC 270405Z AUTO 33006KT 5SM BR SCT008 BKN024 OVC031 M01/M01 A2960 1330 96 -200 330/06 RMK AO2 SNE05 P0000 T10061011
14926KSTC STC20170426221013904/26/17 22:10:31  5-MIN KSTC 270410Z AUTO 33006KT 8SM FEW008 BKN024 OVC031 M01/M01 A2960 1320 96 -200 330/06 RMK AO2 SNE05 P0000 T10061011
14926KSTC STC20170426221514004/26/17 22:15:31  5-MIN KSTC 270415Z AUTO 33007KT 10SM FEW008 BKN022 OVC031 M01/M01 A2960 1330 96 -200 330/07 RMK AO2 SNE05 P0000 T10061011
14926KSTC STC20170426222014004/26/17 22:20:31  5-MIN KSTC 270420Z AUTO 32007KT 10SM FEW007 BKN022 OVC031 M01/M01 A2960 1330 96 -200 320/07 RMK AO2 SNE05 P0000 T10061011
14926KSTC STC20170426222513304/26/17 22:25:31  5-MIN KSTC 270425Z AUTO 33008KT 10SM FEW007 OVC022 M01/M01 A2960 1320 96 -200 330/08 RMK AO2 SNE05 P0000 T10061011
14926KSTC STC20170426223014004/26/17 22:30:31  5-MIN KSTC 270430Z AUTO 32006KT 10SM SCT007 SCT013 OVC022 M01/M01 A2960 1320 96 -200 320/06 RMK AO2 SNE05 P0000 T10061011
14926KSTC STC20170426223514004/26/17 22:35:31  5-MIN KSTC 270435Z AUTO 32008KT 10SM SCT009 BKN013 OVC022 M01/M01 A2960 1320 96 -200 320/08 RMK AO2 SNE05 P0000 T10061011
14926KSTC STC20170426224014004/26/17 22:40:31  5-MIN KSTC 270440Z AUTO 33008KT 10SM SCT009 BKN015 OVC022 M01/M01 A2960 1320 96 -200 330/08 RMK AO2 SNE05 P0000 T10061011
14926KSTC STC20170426224514004/26/17 22:45:31  5-MIN KSTC 270445Z AUTO 34007KT 10SM FEW009 BKN015 OVC024 M01/M01 A2961 1320 96 -200 340/07 RMK AO2 SNE05 P0000 T10061011
14926KSTC STC20170426225014004/26/17 22:50:31  5-MIN KSTC 270450Z AUTO 34005KT 10SM FEW009 OVC015 M01/M01 A2961 1320 96 -200 340/05 RMK AO2 SNE05 SLP045 P0000 T10061011
14926KSTC STC20170426225512104/26/17 22:55:31  5-MIN KSTC 270455Z AUTO 34006KT 10SM FEW009 OVC016 M01/M01 A2961 1320 96 -200 340/06 RMK AO2 T10061011
14926KSTC STC20170426230012104/26/17 23:00:31  5-MIN KSTC 270500Z AUTO 34005KT 10SM FEW009 OVC016 M01/M01 A2961 1320 96 -200 340/05 RMK AO2 T10061011
14926KSTC STC20170426230511404/26/17 23:05:31  5-MIN KSTC 270505Z AUTO 33005KT 10SM OVC016 M01/M01 A2961 1310 96 -200 320/05 RMK AO2 T10061011
14926KSTC STC20170426231011404/26/17 23:10:31  5-MIN KSTC 270510Z AUTO 33006KT 10SM OVC016 M01/M01 A2961 1320 96 -200 330/06 RMK AO2 T10061011
14926KSTC STC20170426231511404/26/17 23:15:31  5-MIN KSTC 270515Z AUTO 32005KT 10SM OVC014 M01/M01 A2961 1320 96 -200 320/05 RMK AO2 T10061011
14926KSTC STC20170426232012104/26/17 23:20:31  5-MIN KSTC 270520Z AUTO 33005KT 10SM BKN013 OVC019 M01/M01 A2960 1320 96 -200 330/05 RMK AO2 T10061011
14926KSTC STC20170426232511404/26/17 23:25:31  5-MIN KSTC 270525Z AUTO 32006KT 10SM OVC013 M01/M01 A2960 1320 96 -200 320/06 RMK AO2 T10061011
14926KSTC STC20170426233011404/26/17 23:30:31  5-MIN KSTC 270530Z AUTO 33006KT 10SM OVC012 M01/M01 A2960 1330 96 -200 330/06 RMK AO2 T10061011
14926KSTC STC20170426233511404/26/17 23:35:31  5-MIN KSTC 270535Z AUTO 33006KT 10SM OVC012 M01/M01 A2960 1330 96 -200 330/06 RMK AO2 T10061011
14926KSTC STC20170426234011404/26/17 23:40:31  5-MIN KSTC 270540Z AUTO 32005KT 10SM OVC012 M01/M01 A2960 1330 96 -200 320/05 RMK AO2 T10061011
14926KSTC STC20170426234511404/26/17 23:45:31  5-MIN KSTC 270545Z AUTO 32007KT 10SM OVC010 M01/M01 A2959 1330 96 -200 320/07 RMK AO2 T10061011
14926KSTC STC20170426235017304/26/17 23:50:31  5-MIN KSTC 270550Z AUTO 33008KT 10SM OVC010 M01/M01 A2959 1340 96 -100 320/08 RMK AO2 CIG 008V014 SLP038 60000 I6001 T10061011 10006 21006 400501006 50006
14926KSTC STC20170426235512604/26/17 23:55:31  5-MIN KSTC 270555Z AUTO 33007KT 10SM OVC010 M01/M01 A2958 1340 96 -100 330/07 RMK AO2 CIG 008V012 T10061011
14926KSTC STC20170427000011404/27/17 00:00:31  5-MIN KSTC 270600Z AUTO 34007KT 10SM OVC010 M01/M01 A2958 1340 96 -100 330/07 RMK AO2 T10061011
14926KSTC STC20170427000511404/27/17 00:05:31  5-MIN KSTC 270605Z AUTO 34008KT 10SM OVC010 M01/M01 A2958 1340 96 -100 330/08 RMK AO2 T10061011
14926KSTC STC20170427001011404/27/17 00:10:31  5-MIN KSTC 270610Z AUTO 33010KT 10SM OVC010 M01/M02 A2958 1340 92 -100 330/10 RMK AO2 T10061017
14926KSTC STC20170427001512604/27/17 00:15:31  5-MIN KSTC 270615Z AUTO 33009KT 10SM OVC010 M01/M02 A2958 1340 92 -100 330/09 RMK AO2 CIG 008V013 T10061017
14926KSTC STC20170427002011404/27/17 00:20:31  5-MIN KSTC 270620Z AUTO 34007KT 10SM OVC010 M01/M02 A2958 1340 92 -100 340/07 RMK AO2 T10061017
14926KSTC STC20170427002511404/27/17 00:25:31  5-MIN KSTC 270625Z AUTO 34010KT 10SM OVC012 M01/M02 A2958 1350 92 -100 340/10 RMK AO2 T10061017
14926KSTC STC20170427003011404/27/17 00:30:31  5-MIN KSTC 270630Z AUTO 33008KT 10SM OVC012 M01/M02 A2958 1350 92 -100 330/08 RMK AO2 T10061017
14926KSTC STC20170427003511404/27/17 00:35:31  5-MIN KSTC 270635Z AUTO 33009KT 10SM OVC014 M01/M02 A2958 1350 92 -100 330/09 RMK AO2 T10061017
14926KSTC STC20170427004011404/27/17 00:40:31  5-MIN KSTC 270640Z AUTO 33007KT 10SM OVC014 M01/M02 A2958 1340 92 -100 330/07 RMK AO2 T10061017
14926KSTC STC20170427004511404/27/17 00:45:31  5-MIN KSTC 270645Z AUTO 33007KT 10SM OVC014 M01/M02 A2958 1340 92 -100 330/07 RMK AO2 T10061017
14926KSTC STC20170427005012104/27/17 00:50:31  5-MIN KSTC 270650Z AUTO 33008KT 10SM OVC014 M01/M02 A2957 1350 92 -100 330/08 RMK AO2 SLP033 T10061017
14926KSTC STC20170427005511404/27/17 00:55:31  5-MIN KSTC 270655Z AUTO 34007KT 10SM OVC016 M01/M02 A2958 1350 92 -100 340/07 RMK AO2 T10061017
14926KSTC STC20170427010012104/27/17 01:00:31  5-MIN KSTC 270700Z AUTO 33009KT 10SM FEW011 OVC016 M01/M02 A2958 1350 92 -100 330/09 RMK AO2 T10061017
14926KSTC STC20170427010512104/27/17 01:05:31  5-MIN KSTC 270705Z AUTO 33009KT 10SM FEW011 OVC016 M01/M02 A2957 1350 92 -100 330/09 RMK AO2 T10061017
14926KSTC STC20170427011012104/27/17 01:10:31  5-MIN KSTC 270710Z AUTO 33007KT 10SM FEW011 OVC017 M01/M02 A2958 1350 92 -100 330/07 RMK AO2 T10061017
14926KSTC STC20170427011512104/27/17 01:15:31  5-MIN KSTC 270715Z AUTO 33006KT 10SM FEW011 OVC017 M01/M02 A2958 1350 92 -100 330/06 RMK AO2 T10061017
14926KSTC STC20170427012012104/27/17 01:20:31  5-MIN KSTC 270720Z AUTO 34009KT 10SM FEW011 OVC017 M01/M02 A2957 1350 92 -100 340/09 RMK AO2 T10061017
14926KSTC STC20170427012512104/27/17 01:25:31  5-MIN KSTC 270725Z AUTO 33007KT 10SM FEW011 OVC018 M01/M02 A2957 1350 92 -100 330/07 RMK AO2 T10061017
14926KSTC STC20170427013012104/27/17 01:30:31  5-MIN KSTC 270730Z AUTO 33007KT 10SM FEW013 OVC018 M01/M02 A2957 1350 92 -100 330/07 RMK AO2 T10061017
14926KSTC STC20170427013511404/27/17 01:35:31  5-MIN KSTC 270735Z AUTO 33007KT 10SM OVC018 M01/M02 A2957 1350 92 -100 330/07 RMK AO2 T10061017
14926KSTC STC20170427014011404/27/17 01:40:31  5-MIN KSTC 270740Z AUTO 34009KT 10SM OVC018 M01/M02 A2957 1360 92 -100 340/09 RMK AO2 T10061017
14926KSTC STC20170427014511404/27/17 01:45:31  5-MIN KSTC 270745Z AUTO 34009KT 10SM OVC018 M01/M02 A2957 1350 92 -100 340/09 RMK AO2 T10061017
14926KSTC STC20170427015012804/27/17 01:50:31  5-MIN KSTC 270750Z AUTO 33008KT 10SM SCT013 OVC018 M01/M02 A2957 1350 92 -100 330/08 RMK AO2 SLP031 T10061017
14926KSTC STC20170427015512104/27/17 01:55:31  5-MIN KSTC 270755Z AUTO 34007KT 10SM BKN013 OVC018 M01/M02 A2957 1350 92 -100 340/07 RMK AO2 T10061017
14926KSTC STC20170427020012104/27/17 02:00:31  5-MIN KSTC 270800Z AUTO 34008KT 10SM BKN013 OVC018 M01/M02 A2957 1360 92 -100 340/08 RMK AO2 T10061017
14926KSTC STC20170427020512104/27/17 02:05:31  5-MIN KSTC 270805Z AUTO 34006KT 10SM BKN013 OVC018 M01/M02 A2956 1360 92 -100 340/06 RMK AO2 T10061017
14926KSTC STC20170427021011404/27/17 02:10:31  5-MIN KSTC 270810Z AUTO 34009KT 10SM OVC013 M01/M02 A2956 1360 92 -100 340/09 RMK AO2 T10061017
14926KSTC STC20170427021511404/27/17 02:15:31  5-MIN KSTC 270815Z AUTO 34006KT 10SM OVC012 M01/M02 A2956 1360 92 -100 340/06 RMK AO2 T10061017
14926KSTC STC20170427022011404/27/17 02:20:31  5-MIN KSTC 270820Z AUTO 34008KT 10SM OVC012 M01/M02 A2956 1360 92 -100 340/08 RMK AO2 T10061017
14926KSTC STC20170427022511404/27/17 02:25:31  5-MIN KSTC 270825Z AUTO 34008KT 10SM OVC012 M01/M02 A2956 1360 92 -100 330/08 RMK AO2 T10061017
14926KSTC STC20170427023011404/27/17 02:30:31  5-MIN KSTC 270830Z AUTO 34006KT 10SM OVC012 M01/M02 A2956 1360 92 -100 330/06 RMK AO2 T10061017
14926KSTC STC20170427023511404/27/17 02:35:31  5-MIN KSTC 270835Z AUTO 33007KT 10SM OVC012 M01/M02 A2956 1360 92 -100 330/07 RMK AO2 T10061017
14926KSTC STC20170427024013304/27/17 02:40:31  5-MIN KSTC 270840Z AUTO 35005KT 10SM BKN010 OVC014 M01/M02 A2956 1360 92 -100 350/05 RMK AO2 CIG 008V013 T10061017
14926KSTC STC20170427024513304/27/17 02:45:31  5-MIN KSTC 270845Z AUTO 34006KT 10SM BKN010 OVC014 M01/M02 A2956 1360 92 -100 340/06 RMK AO2 CIG 008V013 T10061017
14926KSTC STC20170427025013904/27/17 02:50:31  5-MIN KSTC 270850Z AUTO 34006KT 10SM OVC010 M01/M02 A2956 1360 92 -100 340/06 RMK AO2 CIG 007V013 SLP028 T10061017 58010
14926KSTC STC20170427025512604/27/17 02:55:31  5-MIN KSTC 270855Z AUTO 34007KT 10SM OVC010 M01/M02 A2956 1360 92 -100 340/07 RMK AO2 CIG 007V012 T10061017
14926KSTC STC20170427030012504/27/17 03:00:31  5-MIN KSTC 270900Z AUTO 34007KT 9SM OVC010 M01/M02 A2956 1360 92 -100 340/07 RMK AO2 CIG 007V012 T10061017
14926KSTC STC20170427030511304/27/17 03:05:31  5-MIN KSTC 270905Z AUTO 34007KT 9SM OVC009 M01/M02 A2956 1360 96 -200 340/07 RMK AO2 T10111017
14926KSTC STC20170427031012004/27/17 03:10:31  5-MIN KSTC 270910Z AUTO 35008KT 8SM BKN009 OVC016 M01/M02 A2956 1360 96 -200 350/08 RMK AO2 T10111017
14926KSTC STC20170427031511304/27/17 03:15:31  5-MIN KSTC 270915Z AUTO 34006KT 7SM OVC009 M01/M02 A2956 1360 92 -100 340/06 RMK AO2 T10061017
14926KSTC STC20170427032012204/27/17 03:20:31  5-MIN KSTC 270920Z AUTO 34007KT 5SM BR OVC009 M01/M02 A2957 1360 96 -200 340/07 RMK AO2 I1000 T10111017
14926KSTC STC20170427032512204/27/17 03:25:31  5-MIN KSTC 270925Z AUTO 34006KT 5SM BR OVC009 M01/M02 A2957 1350 96 -200 340/06 RMK AO2 I1000 T10111017
14926KSTC STC20170427033012904/27/17 03:30:31  5-MIN KSTC 270930Z AUTO 35008KT 6SM BR BKN009 OVC014 M01/M02 A2957 1350 96 -200 350/08 RMK AO2 I1000 T10111017
14926KSTC STC20170427033512904/27/17 03:35:31  5-MIN KSTC 270935Z AUTO 34008KT 6SM BR SCT008 OVC014 M01/M02 A2957 1350 96 -200 340/08 RMK AO2 I1000 T10111017
14926KSTC STC20170427034012904/27/17 03:40:31  5-MIN KSTC 270940Z AUTO 35009KT 6SM BR SCT008 OVC014 M01/M02 A2957 1350 96 -200 340/09 RMK AO2 I1001 T10111017
14926KSTC STC20170427034512904/27/17 03:45:31  5-MIN KSTC 270945Z AUTO 34008KT 6SM BR FEW008 OVC016 M01/M02 A2957 1350 96 -200 340/08 RMK AO2 I1001 T10111017
14926KSTC STC20170427035013604/27/17 03:50:31  5-MIN KSTC 270950Z AUTO 32008KT 5SM BR SCT008 OVC016 M01/M02 A2956 1360 96 -200 320/08 RMK AO2 SLP028 I1001 T10111017
14926KSTC STC20170427035512304/27/17 03:55:31  5-MIN KSTC 270955Z AUTO 33007KT 4SM BR SCT008 OVC014 M01/M02 A2956 1370 96 -200 330/07 RMK AO2 T10111017
14926KSTC STC20170427040012304/27/17 04:00:31  5-MIN KSTC 271000Z AUTO 33008KT 4SM BR SCT007 OVC014 M01/M02 A2955 1370 96 -200 330/08 RMK AO2 T10111017
14926KSTC STC20170427040512904/27/17 04:05:31  5-MIN KSTC 271005Z AUTO 33009KT 4SM BR SCT007 OVC014 M01/M02 A2955 1370 96 -200 330/09 RMK AO2 I1000 T10111017
14926KSTC STC20170427041012904/27/17 04:10:31  5-MIN KSTC 271010Z AUTO 34008KT 5SM BR SCT007 OVC014 M01/M02 A2955 1370 96 -200 330/08 RMK AO2 I1000 T10111017
14926KSTC STC20170427041512904/27/17 04:15:31  5-MIN KSTC 271015Z AUTO 34008KT 6SM BR SCT007 OVC014 M01/M02 A2956 1370 96 -200 340/08 RMK AO2 I1000 T10111017
14926KSTC STC20170427042013804/27/17 04:20:31  5-MIN KSTC 271020Z AUTO 34009KT 7SM BKN009 OVC014 M01/M02 A2955 1370 96 -200 340/09 RMK AO2 CIG 005V012 I1000 T10111017
14926KSTC STC20170427042512904/27/17 04:25:31  5-MIN KSTC 271025Z AUTO 34007KT 6SM BR SCT009 OVC014 M01/M02 A2955 1370 96 -200 340/07 RMK AO2 I1000 T10111017
14926KSTC STC20170427043013804/27/17 04:30:31  5-MIN KSTC 271030Z AUTO 35009KT 7SM BKN009 OVC014 M01/M02 A2955 1370 92 -200 350/09 RMK AO2 CIG 006V011 I1000 T10111022
14926KSTC STC20170427043513804/27/17 04:35:31  5-MIN KSTC 271035Z AUTO 35010KT 8SM BKN009 OVC014 M01/M02 A2955 1370 92 -200 350/10 RMK AO2 CIG 006V011 I1001 T10111022
14926KSTC STC20170427044013804/27/17 04:40:31  5-MIN KSTC 271040Z AUTO 35009KT 9SM BKN009 OVC012 M01/M02 A2955 1370 92 -200 350/09 RMK AO2 CIG 006V011 I1001 T10111022
14926KSTC STC20170427044512704/27/17 04:45:31  5-MIN KSTC 271045Z AUTO 35008KT 10SM SCT008 OVC012 M01/M02 A2955 1370 92 -200 350/08 RMK AO2 I1001 T10111022
14926KSTC STC20170427045011004/27/17 04:50:31  5-MIN KSTC 271050Z AUTO 35008KT 10SM OVC012 M01/M02 A2955 1370 92 -200 350/08 RMK AO2 I1001
14926KSTC STC20170427045512104/27/17 04:55:31  5-MIN KSTC 271055Z AUTO 35010KT 10SM SCT008 OVC012 M01/M03 A2954 1380 88 -200 350/10 RMK AO2 T10111028
14926KSTC STC20170427050011404/27/17 05:00:31  5-MIN KSTC 271100Z AUTO 35009KT 10SM OVC012 M02/M03 A2955 1370 92 -200 350/09 RMK AO2 T10171028
14926KSTC STC20170427050512104/27/17 05:05:31  5-MIN KSTC 271105Z AUTO 35009KT 10SM BKN013 OVC023 M01/M03 A2955 1370 88 -200 350/09 RMK AO2 T10111028
14926KSTC STC20170427051012804/27/17 05:10:31  5-MIN KSTC 271110Z AUTO 35009KT 10SM FEW010 BKN013 OVC023 M01/M03 A2955 1380 88 -200 350/09 RMK AO2 T10111028
14926KSTC STC20170427051512104/27/17 05:15:31  5-MIN KSTC 271115Z AUTO 36007KT 10SM SCT010 OVC013 M01/M03 A2955 1380 88 -200 360/07 RMK AO2 T10111028
14926KSTC STC20170427052011404/27/17 05:20:31  5-MIN KSTC 271120Z AUTO 35007KT 10SM OVC013 M01/M03 A2955 1370 88 -200 350/07 RMK AO2 T10111028
14926KSTC STC20170427052512104/27/17 05:25:31  5-MIN KSTC 271125Z AUTO 35008KT 10SM BKN011 OVC050 M01/M03 A2955 1370 88 -200 350/08 RMK AO2 T10111028
14926KSTC STC20170427053011404/27/17 05:30:31  5-MIN KSTC 271130Z AUTO 35007KT 10SM OVC011 M01/M03 A2955 1370 88 -200 340/07 RMK AO2 T10111028
14926KSTC STC20170427053513304/27/17 05:35:31  5-MIN KSTC 271135Z AUTO 34007KT 10SM BKN011 OVC014 M02/M03 A2955 1370 92 -200 340/07 RMK AO2 CIG 009V013 T10171028
14926KSTC STC20170427054011404/27/17 05:40:31  5-MIN KSTC 271140Z AUTO 35009KT 10SM OVC011 M02/M03 A2955 1370 92 -200 350/09 RMK AO2 T10171028
14926KSTC STC20170427054512104/27/17 05:45:31  5-MIN KSTC 271145Z AUTO 35008KT 10SM BKN012 OVC018 M01/M03 A2955 1370 88 -200 350/08 RMK AO2 T10111028
14926KSTC STC20170427055015804/27/17 05:50:31  5-MIN KSTC 271150Z AUTO 35007KT 10SM BKN012 OVC018 M01/M03 A2955 1370 88 -200 350/07 RMK AO2 SLP025 70005 I6002 T10111028 11006 21017 56009
14926KSTC STC20170427055511604/27/17 05:55:31  5-MIN KSTC 271155Z 34008KT 10SM BKN014 OVC020 M02/M03 A2955 1370 92 -200 340/08 RMK AO2 T10171028
14926KSTC STC20170427060010904/27/17 06:00:31  5-MIN KSTC 271200Z 34009KT 10SM OVC012 M02/M03 A2955 1370 88 -200 340/09 RMK AO2 T10171033
14926KSTC STC20170427060510904/27/17 06:05:31  5-MIN KSTC 271205Z 34012KT 10SM OVC012 M02/M04 A2955 1370 85 -200 330/12 RMK AO2 T10171039
14926KSTC STC20170427061010904/27/17 06:10:31  5-MIN KSTC 271210Z 34012KT 10SM OVC012 M02/M04 A2955 1370 81 -200 340/12 RMK AO2 T10171044
14926KSTC STC20170427061510904/27/17 06:15:31  5-MIN KSTC 271215Z 35010KT 10SM OVC012 M02/M04 A2955 1370 81 -200 350/10 RMK AO2 T10171044
14926KSTC STC20170427062010904/27/17 06:20:31  5-MIN KSTC 271220Z 35014KT 10SM OVC012 M02/M04 A2955 1370 81 -200 350/14 RMK AO2 T10171044
14926KSTC STC20170427062510904/27/17 06:25:31  5-MIN KSTC 271225Z 35012KT 10SM OVC012 M02/M04 A2955 1370 81 -200 340/12 RMK AO2 T10171044
14926KSTC STC20170427063010904/27/17 06:30:31  5-MIN KSTC 271230Z 36010KT 10SM OVC012 M02/M04 A2955 1370 81 -300 360/10 RMK AO2 T10171044
14926KSTC STC20170427063511504/27/17 06:35:31  5-MIN KSTC 271235Z 35009G16KT 10SM OVC012 M02/M04 A2956 1370 85 -300 350/09G16 RMK AO2 T10171039
14926KSTC STC20170427064010904/27/17 06:40:31  5-MIN KSTC 271240Z 35010KT 10SM OVC012 M02/M04 A2956 1360 81 -300 350/10 RMK AO2 T10171044
14926KSTC STC20170427064510904/27/17 06:45:31  5-MIN KSTC 271245Z 35009KT 10SM OVC012 M02/M04 A2956 1360 81 -300 350/09 RMK AO2 T10171044
14926KSTC STC20170427065011304/27/17 06:50:31  5-MIN KSTC 271250Z 36009KT 10SM SCT018 BKN025 OVC045 M02/M04 A2956 1360 81 -300 360/09 RMK AO2
14926KSTC STC20170427065512304/27/17 06:55:31  5-MIN KSTC 271255Z 34007KT 10SM BKN018 BKN023 OVC045 M02/M04 A2956 1360 85 -300 340/07 RMK AO2 T10171039
14926KSTC STC20170427070012304/27/17 07:00:31  5-MIN KSTC 271300Z 35010KT 10SM BKN018 BKN023 OVC045 M02/M04 A2956 1360 85 -300 350/10 RMK AO2 T10171039
14926KSTC STC20170427070512304/27/17 07:05:31  5-MIN KSTC 271305Z 35010KT 10SM BKN018 BKN023 OVC043 M02/M04 A2956 1360 81 -300 350/10 RMK AO2 T10171044
14926KSTC STC20170427071010904/27/17 07:10:31  5-MIN KSTC 271310Z 35010KT 10SM OVC018 M02/M04 A2956 1360 81 -300 350/10 RMK AO2 T10171044
14926KSTC STC20170427071511604/27/17 07:15:31  5-MIN KSTC 271315Z 36010KT 10SM BKN018 OVC024 M02/M04 A2956 1360 81 -300 360/10 RMK AO2 T10171044
14926KSTC STC20170427072011604/27/17 07:20:31  5-MIN KSTC 271320Z 34007KT 10SM BKN018 OVC024 M02/M04 A2956 1360 81 -300 340/07 RMK AO2 T10171044
14926KSTC STC20170427072511604/27/17 07:25:31  5-MIN KSTC 271325Z 34010KT 10SM BKN018 OVC024 M02/M04 A2956 1360 81 -300 330/10 RMK AO2 T10171044
14926KSTC STC20170427073010904/27/17 07:30:31  5-MIN KSTC 271330Z 34010KT 10SM OVC016 M02/M04 A2956 1360 81 -300 340/10 RMK AO2 T10171044
14926KSTC STC20170427073510904/27/17 07:35:31  5-MIN KSTC 271335Z 34008KT 10SM OVC018 M02/M04 A2956 1360 81 -300 340/08 RMK AO2 T10171044
14926KSTC STC20170427074011604/27/17 07:40:31  5-MIN KSTC 271340Z 34009KT 10SM BKN018 OVC022 M02/M04 A2956 1360 81 -300 340/09 RMK AO2 T10171044
14926KSTC STC20170427074510904/27/17 07:45:31  5-MIN KSTC 271345Z 34009KT 10SM OVC016 M02/M04 A2956 1360 85 -300 340/09 RMK AO2 T10171039
14926KSTC STC20170427075011604/27/17 07:50:31  5-MIN KSTC 271350Z 35007KT 10SM OVC016 M02/M04 A2956 1360 85 -300 350/07 RMK AO2 SLP030 T10171039
14926KSTC STC20170427075510904/27/17 07:55:31  5-MIN KSTC 271355Z 34008KT 10SM OVC016 M02/M04 A2956 1360 85 -300 340/08 RMK AO2 T10171039
14926KSTC STC20170427080010904/27/17 08:00:31  5-MIN KSTC 271400Z 32009KT 10SM OVC016 M02/M04 A2956 1360 85 -300 320/09 RMK AO2 T10171039
14926KSTC STC20170427080510904/27/17 08:05:31  5-MIN KSTC 271405Z 33009KT 10SM OVC016 M02/M04 A2956 1360 81 -300 330/09 RMK AO2 T10171044
14926KSTC STC20170427081010904/27/17 08:10:31  5-MIN KSTC 271410Z 33010KT 10SM OVC016 M02/M04 A2956 1360 81 -300 330/10 RMK AO2 T10171044
14926KSTC STC20170427081510904/27/17 08:15:31  5-MIN KSTC 271415Z 34010KT 10SM OVC016 M02/M04 A2956 1360 81 -300 330/10 RMK AO2 T10171044
14926KSTC STC20170427082010904/27/17 08:20:31  5-MIN KSTC 271420Z 33010KT 10SM OVC016 M02/M04 A2956 1360 81 -300 330/10 RMK AO2 T10171044
14926KSTC STC20170427082510904/27/17 08:25:31  5-MIN KSTC 271425Z 33011KT 10SM OVC017 M02/M05 A2956 1360 78 -300 330/11 RMK AO2 T10171050
14926KSTC STC20170427083010904/27/17 08:30:31  5-MIN KSTC 271430Z 33010KT 10SM OVC019 M02/M05 A2956 1360 78 -300 330/10 RMK AO2 T10171050
14926KSTC STC20170427083510904/27/17 08:35:31  5-MIN KSTC 271435Z 33009KT 10SM OVC019 M02/M04 A2956 1360 81 -300 320/09 RMK AO2 T10171044
14926KSTC STC20170427084010904/27/17 08:40:31  5-MIN KSTC 271440Z 32013KT 10SM OVC019 M02/M04 A2956 1360 81 -300 320/13 RMK AO2 T10171044
14926KSTC STC20170427084510904/27/17 08:45:31  5-MIN KSTC 271445Z 34008KT 10SM OVC019 M02/M04 A2956 1360 81 -300 340/08 RMK AO2 T10171044
14926KSTC STC20170427085012204/27/17 08:50:31  5-MIN KSTC 271450Z 33009KT 10SM OVC019 M01/M04 A2956 1360 78 -200 330/09 RMK AO2 SLP030 T10111044 55005
14926KSTC STC20170427085511604/27/17 08:55:31  5-MIN KSTC 271455Z 34009KT 10SM BKN019 OVC046 M01/M04 A2956 1360 78 -200 340/09 RMK AO2 T10111044
14926KSTC STC20170427090012304/27/17 09:00:31  5-MIN KSTC 271500Z 34011KT 10SM BKN019 BKN024 OVC046 M01/M04 A2956 1360 78 -200 340/11 RMK AO2 T10111044
14926KSTC STC20170427090512904/27/17 09:05:31  5-MIN KSTC 271505Z 33011G16KT 10SM BKN019 BKN024 OVC046 M01/M04 A2956 1360 78 -200 330/11G16 RMK AO2 T10111044
14926KSTC STC20170427091011504/27/17 09:10:31  5-MIN KSTC 271510Z 32011G16KT 10SM OVC021 M01/M05 A2956 1360 75 -200 320/11G16 RMK AO2 T10111050
14926KSTC STC20170427091510904/27/17 09:15:31  5-MIN KSTC 271515Z 33008KT 10SM OVC021 M02/M05 A2956 1360 78 -300 330/08 RMK AO2 T10171050
14926KSTC STC20170427092011604/27/17 09:20:31  5-MIN KSTC 271520Z 33008KT 10SM BKN021 OVC029 M01/M04 A2956 1360 78 -200 330/08 RMK AO2 T10111044
14926KSTC STC20170427092511604/27/17 09:25:31  5-MIN KSTC 271525Z 34009KT 10SM BKN021 OVC029 M01/M04 A2957 1360 78 -200 340/09 RMK AO2 T10111044
14926KSTC STC20170427093011504/27/17 09:30:31  5-MIN KSTC 271530Z 32014G19KT 10SM OVC021 M01/M04 A2957 1350 78 -200 320/14G19 RMK AO2 T10111044
14926KSTC STC20170427093512904/27/17 09:35:31  5-MIN KSTC 271535Z 32011G19KT 10SM BKN021 BKN026 OVC034 M01/M05 A2957 1350 75 -200 320/11G19 RMK AO2 T10111050
14926KSTC STC20170427094012304/27/17 09:40:31  5-MIN KSTC 271540Z 32012KT 10SM BKN021 BKN026 OVC036 M01/M04 A2957 1350 78 -200 310/12 RMK AO2 T10111044
14926KSTC STC20170427094512304/27/17 09:45:31  5-MIN KSTC 271545Z 31012KT 10SM SCT021 BKN027 OVC036 M01/M04 A2958 1350 78 -200 310/12 RMK AO2 T10111044
14926KSTC STC20170427095013004/27/17 09:50:31  5-MIN KSTC 271550Z 32010KT 10SM BKN020 BKN027 OVC034 M01/M04 A2958 1340 78 -200 320/10 RMK AO2 SLP035 T10111044
14926KSTC STC20170427095512304/27/17 09:55:31  5-MIN KSTC 271555Z 31012KT 10SM BKN020 BKN027 OVC034 M01/M04 A2958 1340 78 -200 310/12 RMK AO2 T10111044
14926KSTC STC20170427100012304/27/17 10:00:31  5-MIN KSTC 271600Z 33009KT 10SM BKN020 BKN027 OVC034 M01/M04 A2958 1340 78 -200 330/09 RMK AO2 T10111044
14926KSTC STC20170427100511604/27/17 10:05:31  5-MIN KSTC 271605Z 33007KT 10SM BKN020 OVC034 M01/M04 A2958 1340 78 -200 330/07 RMK AO2 T10111044
14926KSTC STC20170427101010904/27/17 10:10:31  5-MIN KSTC 271610Z 35010KT 10SM OVC020 M01/M04 A2959 1340 78 -200 350/10 RMK AO2 T10111044
14926KSTC STC20170427101510904/27/17 10:15:31  5-MIN KSTC 271615Z 35009KT 10SM OVC020 M02/M04 A2959 1340 81 -300 350/09 RMK AO2 T10171044
14926KSTC STC20170427102010904/27/17 10:20:31  5-MIN KSTC 271620Z 32010KT 10SM OVC020 M01/M04 A2959 1330 78 -200 320/10 RMK AO2 T10111044
14926KSTC STC20170427102510904/27/17 10:25:31  5-MIN KSTC 271625Z 32009KT 10SM OVC018 M02/M04 A2959 1330 81 -300 320/09 RMK AO2 T10171044
14926KSTC STC20170427103010904/27/17 10:30:31  5-MIN KSTC 271630Z 34009KT 10SM OVC018 M02/M05 A2959 1330 78 -300 340/09 RMK AO2 T10171050
14926KSTC STC20170427103510904/27/17 10:35:31  5-MIN KSTC 271635Z 34008KT 10SM OVC016 M02/M04 A2960 1330 81 -300 340/08 RMK AO2 T10171044
14926KSTC STC20170427104010904/27/17 10:40:31  5-MIN KSTC 271640Z 32009KT 10SM OVC016 M02/M04 A2960 1330 81 -300 320/09 RMK AO2 T10171044
14926KSTC STC20170427104510904/27/17 10:45:31  5-MIN KSTC 271645Z 33007KT 10SM OVC016 M02/M04 A2960 1330 81 -300 320/07 RMK AO2 T10171044
14926KSTC STC20170427105009904/27/17 10:50:31  5-MIN KSTC 271650Z 33009KT 10SM OVC014 M02/M04 A2960 1330 81 -300 330/09 RMK AO2
14926KSTC STC20170427105510904/27/17 10:55:31  5-MIN KSTC 271655Z 31008KT 10SM OVC014 M02/M04 A2960 1330 81 -300 310/08 RMK AO2 T10171044
14926KSTC STC20170427110010904/27/17 11:00:31  5-MIN KSTC 271700Z 32009KT 10SM OVC014 M02/M04 A2960 1320 85 -300 320/09 RMK AO2 T10171039
14926KSTC STC20170427110510904/27/17 11:05:31  5-MIN KSTC 271705Z 32011KT 10SM OVC014 M02/M04 A2960 1320 81 -300 320/11 RMK AO2 T10171044
14926KSTC STC20170427111010904/27/17 11:10:31  5-MIN KSTC 271710Z 33010KT 10SM OVC014 M02/M04 A2960 1320 81 -300 330/10 RMK AO2 T10171044
14926KSTC STC20170427111510904/27/17 11:15:31  5-MIN KSTC 271715Z 33007KT 10SM OVC016 M02/M05 A2960 1320 78 -300 330/07 RMK AO2 T10171050
14926KSTC STC20170427112010904/27/17 11:20:31  5-MIN KSTC 271720Z 31012KT 10SM OVC014 M01/M04 A2960 1320 78 -200 310/12 RMK AO2 T10111044
14926KSTC STC20170427112510904/27/17 11:25:31  5-MIN KSTC 271725Z 31013KT 10SM OVC014 M01/M04 A2960 1320 78 -200 310/13 RMK AO2 T10111044
14926KSTC STC20170427113010904/27/17 11:30:31  5-MIN KSTC 271730Z 33009KT 10SM OVC014 M01/M04 A2960 1320 78 -200 330/09 RMK AO2 T10111044
14926KSTC STC20170427113510904/27/17 11:35:31  5-MIN KSTC 271735Z 32011KT 10SM OVC014 M01/M04 A2960 1320 78 -200 320/11 RMK AO2 T10111044
14926KSTC STC20170427114010904/27/17 11:40:31  5-MIN KSTC 271740Z 32011KT 10SM OVC014 M01/M05 A2960 1330 75 -200 320/11 RMK AO2 T10111050
14926KSTC STC20170427114510904/27/17 11:45:31  5-MIN KSTC 271745Z 32012KT 10SM OVC014 M01/M04 A2960 1330 75 -200 320/12 RMK AO2 T10061044
14926KSTC STC20170427115013404/27/17 11:50:31  5-MIN KSTC 271750Z 32012KT 10SM OVC014 M01/M05 A2960 1330 72 -200 320/12 RMK AO2 SLP042 T10061050 11006 21017 51004
14926KSTC STC20170427115510904/27/17 11:55:31  5-MIN KSTC 271755Z 32009KT 10SM OVC021 M01/M04 A2960 1330 75 -200 320/09 RMK AO2 T10061044
14926KSTC STC20170427120011504/27/17 12:00:31  5-MIN KSTC 271800Z 31014G18KT 10SM OVC021 M01/M04 A2960 1330 75 -200 310/14G18 RMK AO2 T10061044
14926KSTC STC20170427120510904/27/17 12:05:31  5-MIN KSTC 271805Z 31015KT 10SM OVC021 M01/M05 A2959 1330 72 -200 310/15 RMK AO2 T10061050
14926KSTC STC20170427121010904/27/17 12:10:31  5-MIN KSTC 271810Z 31013KT 10SM OVC022 M01/M05 A2959 1330 72 -200 310/13 RMK AO2 T10061050
14926KSTC STC20170427121510904/27/17 12:15:31  5-MIN KSTC 271815Z 32012KT 10SM OVC022 M01/M05 A2959 1330 72 -200 320/12 RMK AO2 T10061050
14926KSTC STC20170427122010904/27/17 12:20:31  5-MIN KSTC 271820Z 29013KT 10SM OVC022 M01/M05 A2959 1330 72 -200 290/13 RMK AO2 T10061050
14926KSTC STC20170427122511504/27/17 12:25:31  5-MIN KSTC 271825Z 32012G19KT 10SM OVC022 M01/M04 A2959 1330 78 -200 320/12G19 RMK AO2 T10111044
14926KSTC STC20170427123010904/27/17 12:30:31  5-MIN KSTC 271830Z 31013KT 10SM OVC020 M01/M05 A2959 1330 75 -200 310/13 RMK AO2 T10111050
14926KSTC STC20170427123510904/27/17 12:35:31  5-MIN KSTC 271835Z 31016KT 10SM OVC020 M01/M04 A2959 1330 75 -200 310/16 RMK AO2 T10061044
14926KSTC STC20170427124010904/27/17 12:40:31  5-MIN KSTC 271840Z 31012KT 10SM OVC020 M01/M04 A2959 1330 78 -200 300/12 RMK AO2 T10111044
14926KSTC STC20170427124510904/27/17 12:45:31  5-MIN KSTC 271845Z 31015KT 10SM OVC020 M01/M04 A2959 1330 78 -200 310/15 RMK AO2 T10111044
14926KSTC STC20170427125011604/27/17 12:50:31  5-MIN KSTC 271850Z 32013KT 10SM OVC020 M01/M04 A2960 1330 78 -200 310/13 RMK AO2 SLP041 T10111044
14926KSTC STC20170427125510904/27/17 12:55:31  5-MIN KSTC 271855Z 30011KT 10SM OVC020 M01/M04 A2960 1330 78 -200 300/11 RMK AO2 T10111044
14926KSTC STC20170427130010904/27/17 13:00:31  5-MIN KSTC 271900Z 31013KT 10SM OVC018 M01/M04 A2960 1320 75 -200 310/13 RMK AO2 T10061044
14926KSTC STC20170427130512204/27/17 13:05:31  5-MIN KSTC 271905Z 31014G19KT 10SM BKN018 OVC025 M01/M05 A2960 1320 72 -200 310/14G19 RMK AO2 T10061050
14926KSTC STC20170427131011604/27/17 13:10:31  5-MIN KSTC 271910Z 31014KT 10SM BKN018 OVC025 M01/M05 A2960 1320 72 -200 310/14 RMK AO2 T10061050
14926KSTC STC20170427131510904/27/17 13:15:31  5-MIN KSTC 271915Z 31012KT 10SM OVC021 M01/M05 A2961 1320 72 -200 300/12 RMK AO2 T10061050
14926KSTC STC20170427132010904/27/17 13:20:31  5-MIN KSTC 271920Z 32010KT 10SM OVC021 M01/M05 A2961 1320 72 -200 320/10 RMK AO2 T10061050
14926KSTC STC20170427132511504/27/17 13:25:31  5-MIN KSTC 271925Z 31014G18KT 10SM OVC023 M01/M05 A2961 1320 72 -200 300/14G18 RMK AO2 T10061050
14926KSTC STC20170427133010904/27/17 13:30:31  5-MIN KSTC 271930Z 31013KT 10SM OVC023 M01/M05 A2961 1320 72 -200 310/13 RMK AO2 T10061050
14926KSTC STC20170427133510904/27/17 13:35:31  5-MIN KSTC 271935Z 32014KT 10SM OVC023 M01/M06 A2961 1320 69 -200 320/14 RMK AO2 T10061056
14926KSTC STC20170427134010904/27/17 13:40:31  5-MIN KSTC 271940Z 31014KT 10SM OVC023 M01/M05 A2961 1320 72 -200 310/14 RMK AO2 T10061050
14926KSTC STC20170427134510904/27/17 13:45:31  5-MIN KSTC 271945Z 32014KT 10SM OVC023 M01/M05 A2961 1310 72 -200 320/14 RMK AO2 T10061050
14926KSTC STC20170427135011604/27/17 13:50:31  5-MIN KSTC 271950Z 32015KT 10SM OVC023 M01/M05 A2961 1310 72 -200 310/15 RMK AO2 SLP048 T10061050
14926KSTC STC20170427135510904/27/17 13:55:31  5-MIN KSTC 271955Z 32012KT 10SM OVC023 M01/M06 A2962 1310 69 -200 310/12 RMK AO2 T10061056
14926KSTC STC20170427140011504/27/17 14:00:31  5-MIN KSTC 272000Z 31014G20KT 10SM OVC024 M01/M05 A2962 1310 72 -200 310/14G20 RMK AO2 T10061050
14926KSTC STC20170427140511504/27/17 14:05:31  5-MIN KSTC 272005Z 32012G20KT 10SM OVC024 M01/M05 A2962 1310 72 -200 320/12G20 RMK AO2 T10061050
14926KSTC STC20170427141011504/27/17 14:10:31  5-MIN KSTC 272010Z 32012G17KT 10SM OVC024 M01/M05 A2962 1310 72 -200 320/12G17 RMK AO2 T10061050
14926KSTC STC20170427141511504/27/17 14:15:31  5-MIN KSTC 272015Z 33012G17KT 10SM OVC024 M01/M06 A2962 1310 69 -200 330/12G17 RMK AO2 T10061056
14926KSTC STC20170427142010904/27/17 14:20:31  5-MIN KSTC 272020Z 32014KT 10SM OVC024 M01/M05 A2962 1310 72 -200 320/14 RMK AO2 T10061050
14926KSTC STC20170427142510904/27/17 14:25:31  5-MIN KSTC 272025Z 30015KT 10SM OVC024 M01/M05 A2962 1310 72 -200 300/15 RMK AO2 T10061050
14926KSTC STC20170427143010904/27/17 14:30:31  5-MIN KSTC 272030Z 31013KT 10SM OVC024 M01/M05 A2962 1300 72 -200 310/13 RMK AO2 T10061050
14926KSTC STC20170427143510904/27/17 14:35:31  5-MIN KSTC 272035Z 32009KT 10SM OVC024 M01/M05 A2962 1300 72 -200 320/09 RMK AO2 T10061050
14926KSTC STC20170427144010904/27/17 14:40:31  5-MIN KSTC 272040Z 31010KT 10SM OVC024 M01/M05 A2962 1300 72 -200 310/10 RMK AO2 T10061050
14926KSTC STC20170427144510904/27/17 14:45:31  5-MIN KSTC 272045Z 29013KT 10SM OVC024 M01/M04 A2963 1300 75 -200 290/13 RMK AO2 T10061044
14926KSTC STC20170427145012204/27/17 14:50:31  5-MIN KSTC 272050Z 31015KT 10SM OVC024 M01/M05 A2963 1300 72 -200 310/15 RMK AO2 SLP052 T10061050 51012
14926KSTC STC20170427145510904/27/17 14:55:31  5-MIN KSTC 272055Z 31012KT 10SM OVC024 M01/M05 A2963 1300 72 -200 310/12 RMK AO2 T10061050
14926KSTC STC20170427150010904/27/17 15:00:31  5-MIN KSTC 272100Z 31012KT 10SM OVC022 M01/M05 A2963 1300 72 -200 310/12 RMK AO2 T10061050
14926KSTC STC20170427150510904/27/17 15:05:31  5-MIN KSTC 272105Z 32011KT 10SM OVC022 M01/M04 A2963 1300 75 -200 320/11 RMK AO2 T10061044
14926KSTC STC20170427151011504/27/17 15:10:31  5-MIN KSTC 272110Z 32013G17KT 10SM OVC022 M01/M04 A2963 1290 75 -200 320/13G17 RMK AO2 T10061044
14926KSTC STC20170427151510904/27/17 15:15:31  5-MIN KSTC 272115Z 32012KT 10SM OVC022 M01/M04 A2963 1290 75 -200 320/12 RMK AO2 T10061044
14926KSTC STC20170427152010904/27/17 15:20:31  5-MIN KSTC 272120Z 31011KT 10SM OVC022 M01/M04 A2963 1290 75 -200 310/11 RMK AO2 T10061044
14926KSTC STC20170427152510904/27/17 15:25:31  5-MIN KSTC 272125Z 33009KT 10SM OVC022 M01/M04 A2963 1300 75 -200 330/09 RMK AO2 T10061044
14926KSTC STC20170427153010904/27/17 15:30:31  5-MIN KSTC 272130Z 31013KT 10SM OVC024 M01/M05 A2963 1300 72 -200 310/13 RMK AO2 T10061050
14926KSTC STC20170427153510904/27/17 15:35:31  5-MIN KSTC 272135Z 32012KT 10SM OVC024 M01/M04 A2963 1300 75 -200 310/12 RMK AO2 T10061044
14926KSTC STC20170427154010804/27/17 15:40:31  5-MIN KSTC 272140Z 32013KT 10SM OVC023 00/M04 A2963 1290 72 -100 320/13 RMK AO2 T00001044
14926KSTC STC20170427154510904/27/17 15:45:31  5-MIN KSTC 272145Z 31011KT 10SM OVC023 M01/M04 A2963 1290 75 -200 310/11 RMK AO2 T10061044
14926KSTC STC20170427155011504/27/17 15:50:31  5-MIN KSTC 272150Z 31012KT 10SM OVC023 00/M04 A2963 1290 72 -100 310/12 RMK AO2 SLP054 T00001044
14926KSTC STC20170427155510804/27/17 15:55:31  5-MIN KSTC 272155Z 32012KT 10SM OVC024 00/M04 A2963 1290 72 -100 320/12 RMK AO2 T00001044
14926KSTC STC20170427160010804/27/17 16:00:31  5-MIN KSTC 272200Z 32012KT 10SM OVC024 00/M04 A2964 1290 72 -100 320/12 RMK AO2 T00001044
14926KSTC STC20170427160510804/27/17 16:05:31  5-MIN KSTC 272205Z 32009KT 10SM OVC024 00/M04 A2964 1290 72 -100 320/09 RMK AO2 T00001044
14926KSTC STC20170427161010804/27/17 16:10:31  5-MIN KSTC 272210Z 32009KT 10SM OVC024 00/M04 A2964 1290 72 -100 320/09 RMK AO2 T00001044
14926KSTC STC20170427161511504/27/17 16:15:31  5-MIN KSTC 272215Z 31011KT 10SM BKN026 OVC031 00/M04 A2964 1290 72 -100 310/11 RMK AO2 T00001044
14926KSTC STC20170427162010804/27/17 16:20:31  5-MIN KSTC 272220Z 32013KT 10SM OVC026 00/M04 A2964 1290 72 -100 320/13 RMK AO2 T00001044
14926KSTC STC20170427162511504/27/17 16:25:31  5-MIN KSTC 272225Z 30013KT 10SM BKN026 OVC030 00/M04 A2964 1290 72 -100 300/13 RMK AO2 T00001044
14926KSTC STC20170427163010804/27/17 16:30:31  5-MIN KSTC 272230Z 31010KT 10SM OVC026 00/M04 A2964 1280 72 -100 310/10 RMK AO2 T00001044
14926KSTC STC20170427163510804/27/17 16:35:31  5-MIN KSTC 272235Z 32010KT 10SM OVC026 00/M04 A2964 1280 72 -100 320/10 RMK AO2 T00001044
14926KSTC STC20170427164010804/27/17 16:40:31  5-MIN KSTC 272240Z 32010KT 10SM OVC026 00/M04 A2965 1280 72 -100 320/10 RMK AO2 T00001044
14926KSTC STC20170427164510804/27/17 16:45:31  5-MIN KSTC 272245Z 31011KT 10SM OVC026 00/M04 A2965 1280 72 -100 310/11 RMK AO2 T00001044
14926KSTC STC20170427165011504/27/17 16:50:31  5-MIN KSTC 272250Z 30013KT 10SM OVC026 00/M04 A2965 1280 75 -200 300/13 RMK AO2 SLP060 T00001039
14926KSTC STC20170427165510804/27/17 16:55:31  5-MIN KSTC 272255Z 31011KT 10SM OVC026 00/M04 A2965 1280 72 -200 310/11 RMK AO2 T00001044
14926KSTC STC20170427170010804/27/17 17:00:31  5-MIN KSTC 272300Z 30011KT 10SM OVC026 00/M04 A2965 1270 72 -200 300/11 RMK AO2 T00001044
14926KSTC STC20170427170510804/27/17 17:05:31  5-MIN KSTC 272305Z 30012KT 10SM OVC026 00/M04 A2966 1270 72 -200 300/12 RMK AO2 T00001044
14926KSTC STC20170427171010804/27/17 17:10:31  5-MIN KSTC 272310Z 31011KT 10SM OVC026 00/M04 A2966 1270 72 -200 310/11 RMK AO2 T00001044
14926KSTC STC20170427171510804/27/17 17:15:31  5-MIN KSTC 272315Z 31010KT 10SM OVC026 00/M04 A2966 1270 72 -200 310/10 RMK AO2 T00001044
14926KSTC STC20170427172010804/27/17 17:20:31  5-MIN KSTC 272320Z 30012KT 10SM OVC026 00/M04 A2966 1270 72 -200 300/12 RMK AO2 T00001044
14926KSTC STC20170427172510804/27/17 17:25:31  5-MIN KSTC 272325Z 32011KT 10SM OVC026 00/M04 A2966 1270 72 -200 310/11 RMK AO2 T00001044
14926KSTC STC20170427173010804/27/17 17:30:31  5-MIN KSTC 272330Z 31010KT 10SM OVC026 00/M04 A2967 1260 72 -200 310/10 RMK AO2 T00001044
14926KSTC STC20170427173510804/27/17 17:35:31  5-MIN KSTC 272335Z 29011KT 10SM OVC026 00/M04 A2967 1260 72 -200 290/11 RMK AO2 T00001044
14926KSTC STC20170427174010804/27/17 17:40:31  5-MIN KSTC 272340Z 30013KT 10SM OVC025 00/M04 A2967 1260 72 -200 300/13 RMK AO2 T00001044
14926KSTC STC20170427174511504/27/17 17:45:31  5-MIN KSTC 272345Z 32011KT 10SM BKN025 OVC030 00/M04 A2967 1260 72 -200 320/11 RMK AO2 T00001044
14926KSTC STC20170427175014004/27/17 17:50:31  5-MIN KSTC 272350Z 32011KT 10SM BKN027 OVC032 00/M04 A2967 1260 72 -200 320/11 RMK AO2 SLP068 T00001044 10000 21011 53009
14926KSTC STC20170427175511504/27/17 17:55:31  5-MIN KSTC 272355Z 31011KT 10SM BKN027 OVC032 00/M04 A2967 1260 72 -200 310/11 RMK AO2 T00001044
14926KSTC STC20170427180010804/27/17 18:00:31  5-MIN KSTC 280000Z 31010KT 10SM OVC029 00/M04 A2967 1250 72 -200 310/10 RMK AO2 T00001044
14926KSTC STC20170427180510804/27/17 18:05:31  5-MIN KSTC 280005Z 31011KT 10SM OVC029 01/M04 A2968 1250 72 -100 310/11 RMK AO2 T00061039
14926KSTC STC20170427181010804/27/17 18:10:31  5-MIN KSTC 280010Z 31011KT 10SM OVC029 01/M04 A2968 1250 69 -100 310/11 RMK AO2 T00061044
14926KSTC STC20170427181510804/27/17 18:15:31  5-MIN KSTC 280015Z 31011KT 10SM OVC029 01/M04 A2968 1250 69 -100 310/11 RMK AO2 T00061044
14926KSTC STC20170427182010804/27/17 18:20:31  5-MIN KSTC 280020Z 29008KT 10SM OVC029 01/M04 A2968 1250 69 -100 290/08 RMK AO2 T00061044
14926KSTC STC20170427182510804/27/17 18:25:31  5-MIN KSTC 280025Z 30012KT 10SM OVC027 01/M04 A2968 1250 69 -100 300/12 RMK AO2 T00061044
14926KSTC STC20170427183010804/27/17 18:30:31  5-MIN KSTC 280030Z 31012KT 10SM OVC027 00/M04 A2968 1250 72 -200 300/12 RMK AO2 T00001044
14926KSTC STC20170427183510804/27/17 18:35:31  5-MIN KSTC 280035Z 31010KT 10SM OVC027 00/M04 A2969 1240 72 -200 310/10 RMK AO2 T00001044
14926KSTC STC20170427184010804/27/17 18:40:31  5-MIN KSTC 280040Z 30011KT 10SM OVC027 00/M04 A2969 1240 75 -200 300/11 RMK AO2 T00001039
14926KSTC STC20170427184510804/27/17 18:45:31  5-MIN KSTC 280045Z 30010KT 10SM OVC026 01/M04 A2969 1240 69 -100 300/10 RMK AO2 T00061044
14926KSTC STC20170427185011504/27/17 18:50:31  5-MIN KSTC 280050Z 30012KT 10SM OVC026 01/M04 A2969 1240 69 -100 300/12 RMK AO2 SLP075 T00061044
14926KSTC STC20170427185510804/27/17 18:55:31  5-MIN KSTC 280055Z 31013KT 10SM OVC026 01/M04 A2970 1230 72 -100 300/13 RMK AO2 T00061039
14926KSTC STC20170427190010804/27/17 19:00:31  5-MIN KSTC 280100Z 31012KT 10SM OVC026 01/M04 A2970 1230 72 -100 300/12 RMK AO2 T00061039
14926KSTC STC20170427190510804/27/17 19:05:31  5-MIN KSTC 280105Z 30012KT 10SM OVC027 01/M04 A2970 1230 69 -100 300/12 RMK AO2 T00061044
14926KSTC STC20170427191010804/27/17 19:10:31  5-MIN KSTC 280110Z 30011KT 10SM OVC027 01/M04 A2970 1230 69 -100 300/11 RMK AO2 T00061044
14926KSTC STC20170427191510804/27/17 19:15:31  5-MIN KSTC 280115Z 30012KT 10SM OVC027 01/M04 A2970 1230 72 -100 300/12 RMK AO2 T00061039
14926KSTC STC20170427192010804/27/17 19:20:31  5-MIN KSTC 280120Z 30011KT 10SM OVC027 01/M04 A2971 1230 69 -100 300/11 RMK AO2 T00061044
14926KSTC STC20170427192510804/27/17 19:25:31  5-MIN KSTC 280125Z 29009KT 10SM OVC027 01/M04 A2971 1230 72 -100 290/09 RMK AO2 T00061039
14926KSTC STC20170427193010804/27/17 19:30:31  5-MIN KSTC 280130Z 29010KT 10SM OVC027 01/M04 A2971 1220 72 -100 290/10 RMK AO2 T00061039
14926KSTC STC20170427193511504/27/17 19:35:31  5-MIN KSTC 280135Z 29012KT 10SM BKN027 OVC033 01/M04 A2971 1220 72 -200 290/12 RMK AO2 T00061039
14926KSTC STC20170427194011504/27/17 19:40:31  5-MIN KSTC 280140Z 29012KT 10SM BKN027 OVC033 01/M04 A2971 1220 72 -200 290/12 RMK AO2 T00061039
14926KSTC STC20170427194511504/27/17 19:45:31  5-MIN KSTC 280145Z 29010KT 10SM BKN027 OVC033 01/M04 A2972 1210 72 -200 290/10 RMK AO2 T00061039
14926KSTC STC20170427195010504/27/17 19:50:31  5-MIN KSTC 280150Z 29009KT 10SM SCT028 OVC035 01/M04 A2972 1210 72 -200 290/09 RMK AO2
14926KSTC STC20170427195511504/27/17 19:55:31  5-MIN KSTC 280155Z 27009KT 10SM FEW028 OVC035 01/M04 A2972 1220 72 -200 270/09 RMK AO2 T00061039
14926KSTC STC20170427200012204/27/17 20:00:31  5-MIN KSTC 280200Z 28007KT 10SM FEW029 BKN035 OVC044 01/M04 A2972 1220 72 -200 280/07 RMK AO2 T00061039
14926KSTC STC20170427200511504/27/17 20:05:31  5-MIN KSTC 280205Z 27008KT 10SM BKN035 OVC044 01/M04 A2972 1220 72 -200 270/08 RMK AO2 T00061039
14926KSTC STC20170427201011504/27/17 20:10:31  5-MIN KSTC 280210Z 28007KT 10SM SCT035 OVC044 01/M04 A2972 1210 72 -200 280/07 RMK AO2 T00061039
14926KSTC STC20170427201511504/27/17 20:15:31  5-MIN KSTC 280215Z 28007KT 10SM FEW037 OVC045 01/M04 A2972 1210 72 -200 280/07 RMK AO2 T00061039
14926KSTC STC20170427202010804/27/17 20:20:31  5-MIN KSTC 280220Z 28009KT 10SM OVC043 01/M04 A2973 1210 72 -200 280/09 RMK AO2 T00061039
14926KSTC STC20170427202510804/27/17 20:25:31  5-MIN KSTC 280225Z 27007KT 10SM OVC043 01/M04 A2973 1210 72 -200 270/07 RMK AO2 T00061039
14926KSTC STC20170427203010804/27/17 20:30:31  5-MIN KSTC 280230Z 28008KT 10SM OVC044 01/M04 A2973 1210 72 -200 270/08 RMK AO2 T00061039
14926KSTC STC20170427203510804/27/17 20:35:31  5-MIN KSTC 280235Z 29008KT 10SM OVC044 01/M04 A2973 1200 72 -200 290/08 RMK AO2 T00061039
14926KSTC STC20170427204010804/27/17 20:40:31  5-MIN KSTC 280240Z 28009KT 10SM OVC043 01/M04 A2973 1200 72 -200 280/09 RMK AO2 T00061039
14926KSTC STC20170427204510804/27/17 20:45:31  5-MIN KSTC 280245Z 28009KT 10SM OVC043 01/M04 A2973 1200 72 -200 280/09 RMK AO2 T00061039
14926KSTC STC20170427205012104/27/17 20:50:31  5-MIN KSTC 280250Z 28011KT 10SM OVC043 01/M04 A2974 1200 72 -200 280/11 RMK AO2 SLP090 T00061039 53015
14926KSTC STC20170427205510804/27/17 20:55:31  5-MIN KSTC 280255Z 28011KT 10SM OVC043 01/M04 A2974 1190 72 -200 270/11 RMK AO2 T00061039
14926KSTC STC20170427210010804/27/17 21:00:31  5-MIN KSTC 280300Z 27010KT 10SM OVC043 01/M04 A2974 1190 72 -200 270/10 RMK AO2 T00061039
14926KSTC STC20170427210510804/27/17 21:05:31  5-MIN KSTC 280305Z 27011KT 10SM OVC043 01/M04 A2974 1190 72 -200 270/11 RMK AO2 T00061039
14926KSTC STC20170427211010804/27/17 21:10:31  5-MIN KSTC 280310Z 28011KT 10SM OVC043 01/M04 A2975 1190 72 -200 270/11 RMK AO2 T00061039
14926KSTC STC20170427211510804/27/17 21:15:31  5-MIN KSTC 280315Z 27009KT 10SM OVC043 01/M04 A2975 1190 72 -200 270/09 RMK AO2 T00061039
14926KSTC STC20170427212011504/27/17 21:20:31  5-MIN KSTC 280320Z 27010KT 10SM FEW028 OVC042 01/M04 A2975 1190 72 -200 270/10 RMK AO2 T00061039
14926KSTC STC20170427212511504/27/17 21:25:31  5-MIN KSTC 280325Z 27010KT 10SM FEW028 OVC042 01/M04 A2975 1190 72 -200 270/10 RMK AO2 T00061039
14926KSTC STC20170427213011504/27/17 21:30:31  5-MIN KSTC 280330Z 27010KT 10SM FEW028 OVC043 01/M04 A2975 1190 72 -200 270/10 RMK AO2 T00061039
14926KSTC STC20170427213511504/27/17 21:35:31  5-MIN KSTC 280335Z 28008KT 10SM FEW028 OVC043 01/M04 A2975 1180 72 -200 280/08 RMK AO2 T00061039
14926KSTC STC20170427214011504/27/17 21:40:31  5-MIN KSTC 280340Z 28010KT 10SM FEW028 OVC045 01/M04 A2975 1180 72 -200 270/10 RMK AO2 T00061039
14926KSTC STC20170427214511504/27/17 21:45:31  5-MIN KSTC 280345Z 27010KT 10SM FEW028 OVC045 01/M03 A2975 1180 75 -200 270/10 RMK AO2 T00061033
14926KSTC STC20170427215012204/27/17 21:50:31  5-MIN KSTC 280350Z 27010KT 10SM FEW028 OVC045 01/M03 A2976 1180 75 -200 270/10 RMK AO2 SLP096 T00061033
14926KSTC STC20170427215512004/27/17 21:55:31  5-MIN KSTC 280355Z AUTO 28010KT 10SM FEW028 OVC045 01/M03 A2976 1180 75 -200 280/10 RMK AO2 T00061033
14926KSTC STC20170427220012004/27/17 22:00:31  5-MIN KSTC 280400Z AUTO 28009KT 10SM FEW028 OVC045 01/M03 A2976 1180 75 -200 280/09 RMK AO2 T00061033
14926KSTC STC20170427220511304/27/17 22:05:31  5-MIN KSTC 280405Z AUTO 28010KT 10SM OVC046 01/M03 A2976 1170 75 -200 280/10 RMK AO2 T00061033
14926KSTC STC20170427221011304/27/17 22:10:31  5-MIN KSTC 280410Z AUTO 29009KT 10SM OVC046 01/M03 A2976 1170 75 -200 290/09 RMK AO2 T00061033
14926KSTC STC20170427221511304/27/17 22:15:31  5-MIN KSTC 280415Z AUTO 29010KT 10SM OVC046 01/M03 A2976 1180 75 -200 290/10 RMK AO2 T00061033
14926KSTC STC20170427222011304/27/17 22:20:31  5-MIN KSTC 280420Z AUTO 27010KT 10SM OVC047 01/M03 A2976 1180 75 -200 270/10 RMK AO2 T00061033
14926KSTC STC20170427222511304/27/17 22:25:31  5-MIN KSTC 280425Z AUTO 28009KT 10SM OVC047 01/M03 A2976 1180 75 -200 280/09 RMK AO2 T00061033
14926KSTC STC20170427223011304/27/17 22:30:31  5-MIN KSTC 280430Z AUTO 28007KT 10SM OVC047 01/M03 A2976 1170 75 -200 270/07 RMK AO2 T00061033
14926KSTC STC20170427223511304/27/17 22:35:31  5-MIN KSTC 280435Z AUTO 28008KT 10SM OVC047 01/M03 A2976 1170 75 -200 280/08 RMK AO2 T00061033
14926KSTC STC20170427224011304/27/17 22:40:31  5-MIN KSTC 280440Z AUTO 27009KT 10SM OVC047 01/M03 A2976 1170 75 -200 270/09 RMK AO2 T00061033
14926KSTC STC20170427224511304/27/17 22:45:31  5-MIN KSTC 280445Z AUTO 26007KT 10SM OVC047 01/M03 A2977 1170 75 -200 260/07 RMK AO2 T00061033
14926KSTC STC20170427225012004/27/17 22:50:31  5-MIN KSTC 280450Z AUTO 27008KT 10SM OVC047 01/M03 A2977 1170 78 -200 270/08 RMK AO2 SLP100 T00061028
14926KSTC STC20170427225511304/27/17 22:55:31  5-MIN KSTC 280455Z AUTO 26007KT 10SM OVC047 01/M03 A2977 1170 78 -200 260/07 RMK AO2 T00061028
14926KSTC STC20170427230011304/27/17 23:00:31  5-MIN KSTC 280500Z AUTO 25008KT 10SM OVC046 01/M03 A2977 1170 78 -200 250/08 RMK AO2 T00061028
14926KSTC STC20170427230511304/27/17 23:05:31  5-MIN KSTC 280505Z AUTO 27008KT 10SM OVC046 01/M03 A2977 1170 78 -200 270/08 RMK AO2 T00061028
14926KSTC STC20170427231011304/27/17 23:10:31  5-MIN KSTC 280510Z AUTO 27010KT 10SM OVC046 01/M03 A2977 1160 75 -200 270/10 RMK AO2 T00111028
14926KSTC STC20170427231511304/27/17 23:15:31  5-MIN KSTC 280515Z AUTO 27009KT 10SM OVC045 01/M03 A2977 1160 75 -200 270/09 RMK AO2 T00111028
14926KSTC STC20170427232011304/27/17 23:20:31  5-MIN KSTC 280520Z AUTO 27009KT 10SM OVC045 01/M03 A2978 1160 75 -200 270/09 RMK AO2 T00111028
14926KSTC STC20170427232511304/27/17 23:25:31  5-MIN KSTC 280525Z AUTO 26009KT 10SM OVC043 01/M03 A2978 1160 75 -200 260/09 RMK AO2 T00111028
14926KSTC STC20170427233011304/27/17 23:30:31  5-MIN KSTC 280530Z AUTO 26009KT 10SM OVC043 01/M03 A2978 1160 75 -200 260/09 RMK AO2 T00111028
14926KSTC STC20170427233511304/27/17 23:35:31  5-MIN KSTC 280535Z AUTO 26009KT 10SM OVC043 01/M03 A2978 1160 75 -200 260/09 RMK AO2 T00111028
14926KSTC STC20170427234011304/27/17 23:40:31  5-MIN KSTC 280540Z AUTO 27010KT 10SM OVC041 01/M03 A2978 1160 75 -200 270/10 RMK AO2 T00111028
14926KSTC STC20170427234511304/27/17 23:45:31  5-MIN KSTC 280545Z AUTO 27010KT 10SM OVC041 01/M03 A2978 1160 75 -200 270/10 RMK AO2 T00111028
14926KSTC STC20170427235015504/27/17 23:50:31  5-MIN KSTC 280550Z AUTO 27010KT 10SM BKN038 OVC045 01/M03 A2978 1150 75 -200 260/10 RMK AO2 SLP105 T00111028 10011 20000 400111017 51022
14926KSTC STC20170427235512004/27/17 23:55:31  5-MIN KSTC 280555Z AUTO 26009KT 10SM BKN036 OVC045 01/M03 A2978 1150 75 -200 260/09 RMK AO2 T00111028
14926KSTC STC20170428000012004/28/17 00:00:31  5-MIN KSTC 280600Z AUTO 27007KT 10SM BKN036 OVC044 01/M03 A2978 1150 75 -200 270/07 RMK AO2 T00111028
14926KSTC STC20170428000512004/28/17 00:05:31  5-MIN KSTC 280605Z AUTO 27009KT 10SM BKN036 OVC044 01/M03 A2978 1150 75 -200 270/09 RMK AO2 T00111028
14926KSTC STC20170428001012004/28/17 00:10:31  5-MIN KSTC 280610Z AUTO 28009KT 10SM BKN036 OVC044 01/M03 A2978 1150 75 -200 280/09 RMK AO2 T00111028
14926KSTC STC20170428001511304/28/17 00:15:31  5-MIN KSTC 280615Z AUTO 27011KT 10SM OVC034 01/M03 A2978 1150 75 -200 260/11 RMK AO2 T00111028
14926KSTC STC20170428002011304/28/17 00:20:31  5-MIN KSTC 280620Z AUTO 27008KT 10SM OVC034 01/M03 A2978 1150 75 -200 270/08 RMK AO2 T00111028
14926KSTC STC20170428002511304/28/17 00:25:31  5-MIN KSTC 280625Z AUTO 28009KT 10SM OVC034 01/M03 A2978 1150 75 -200 280/09 RMK AO2 T00111028
14926KSTC STC20170428003011304/28/17 00:30:31  5-MIN KSTC 280630Z AUTO 27008KT 10SM OVC032 01/M02 A2978 1150 78 -200 270/08 RMK AO2 T00111022
14926KSTC STC20170428003511304/28/17 00:35:31  5-MIN KSTC 280635Z AUTO 27009KT 10SM OVC032 01/M03 A2979 1150 75 -200 270/09 RMK AO2 T00111028
14926KSTC STC20170428004011304/28/17 00:40:31  5-MIN KSTC 280640Z AUTO 28010KT 10SM OVC032 01/M03 A2979 1150 75 -200 280/10 RMK AO2 T00111028
14926KSTC STC20170428004511304/28/17 00:45:31  5-MIN KSTC 280645Z AUTO 28008KT 10SM OVC032 01/M02 A2978 1150 78 -200 280/08 RMK AO2 T00111022
14926KSTC STC20170428005012704/28/17 00:50:31  5-MIN KSTC 280650Z AUTO 28008KT 10SM BKN032 OVC042 01/M02 A2978 1150 78 -200 280/08 RMK AO2 SLP106 T00111022
14926KSTC STC20170428005512004/28/17 00:55:31  5-MIN KSTC 280655Z AUTO 28009KT 10SM BKN031 OVC042 01/M02 A2978 1150 78 -200 280/09 RMK AO2 T00111022
14926KSTC STC20170428010011304/28/17 01:00:31  5-MIN KSTC 280700Z AUTO 28009KT 10SM OVC031 01/M02 A2979 1150 78 -200 280/09 RMK AO2 T00111022
14926KSTC STC20170428010511304/28/17 01:05:31  5-MIN KSTC 280705Z AUTO 29010KT 10SM OVC031 01/M02 A2978 1150 78 -200 290/10 RMK AO2 T00111022
14926KSTC STC20170428011012004/28/17 01:10:31  5-MIN KSTC 280710Z AUTO 29008KT 10SM BKN030 OVC039 01/M02 A2978 1150 78 -200 290/08 RMK AO2 T00111022
14926KSTC STC20170428011512004/28/17 01:15:31  5-MIN KSTC 280715Z AUTO 29009KT 10SM BKN030 OVC039 01/M02 A2979 1150 78 -200 290/09 RMK AO2 T00111022
14926KSTC STC20170428012012004/28/17 01:20:31  5-MIN KSTC 280720Z AUTO 29010KT 10SM BKN030 OVC039 01/M03 A2979 1150 75 -200 290/10 RMK AO2 T00111028
14926KSTC STC20170428012512004/28/17 01:25:31  5-MIN KSTC 280725Z AUTO 29007KT 10SM BKN030 OVC039 01/M03 A2979 1150 75 -200 290/07 RMK AO2 T00111028
14926KSTC STC20170428013012004/28/17 01:30:31  5-MIN KSTC 280730Z AUTO 30010KT 10SM BKN029 OVC038 01/M02 A2979 1150 78 -200 290/10 RMK AO2 T00111022
14926KSTC STC20170428013512004/28/17 01:35:31  5-MIN KSTC 280735Z AUTO 30011KT 10SM BKN029 OVC038 01/M03 A2979 1150 75 -200 300/11 RMK AO2 T00111028
14926KSTC STC20170428014012004/28/17 01:40:31  5-MIN KSTC 280740Z AUTO 29007KT 10SM BKN028 OVC038 01/M03 A2979 1140 75 -200 290/07 RMK AO2 T00111028
14926KSTC STC20170428014512004/28/17 01:45:31  5-MIN KSTC 280745Z AUTO 30009KT 10SM BKN028 OVC038 01/M03 A2979 1140 75 -200 300/09 RMK AO2 T00111028
14926KSTC STC20170428015012004/28/17 01:50:31  5-MIN KSTC 280750Z AUTO 29009KT 10SM OVC028 01/M03 A2980 1140 75 -200 290/09 RMK AO2 SLP109 T00111028
14926KSTC STC20170428015511304/28/17 01:55:31  5-MIN KSTC 280755Z AUTO 31010KT 10SM OVC028 01/M03 A2980 1140 75 -200 310/10 RMK AO2 T00111028
14926KSTC STC20170428020011304/28/17 02:00:31  5-MIN KSTC 280800Z AUTO 29007KT 10SM OVC028 01/M03 A2980 1140 75 -200 290/07 RMK AO2 T00111028
14926KSTC STC20170428020511304/28/17 02:05:31  5-MIN KSTC 280805Z AUTO 29007KT 10SM OVC028 01/M02 A2980 1140 78 -200 290/07 RMK AO2 T00111022
14926KSTC STC20170428021011304/28/17 02:10:31  5-MIN KSTC 280810Z AUTO 29008KT 10SM OVC030 01/M03 A2980 1140 75 -200 290/08 RMK AO2 T00111028
14926KSTC STC20170428021511304/28/17 02:15:31  5-MIN KSTC 280815Z AUTO 28007KT 10SM OVC030 01/M03 A2980 1130 75 -200 280/07 RMK AO2 T00111028
14926KSTC STC20170428022011304/28/17 02:20:31  5-MIN KSTC 280820Z AUTO 27007KT 10SM OVC032 01/M02 A2981 1130 78 -200 270/07 RMK AO2 T00111022
14926KSTC STC20170428022511304/28/17 02:25:31  5-MIN KSTC 280825Z AUTO 28008KT 10SM OVC032 01/M02 A2981 1130 78 -200 280/08 RMK AO2 T00111022
14926KSTC STC20170428023011304/28/17 02:30:31  5-MIN KSTC 280830Z AUTO 28007KT 10SM OVC032 01/M02 A2981 1130 78 -200 280/07 RMK AO2 T00111022
14926KSTC STC20170428023511304/28/17 02:35:31  5-MIN KSTC 280835Z AUTO 28007KT 10SM OVC032 01/M03 A2981 1130 75 -200 280/07 RMK AO2 T00111028
14926KSTC STC20170428024011304/28/17 02:40:31  5-MIN KSTC 280840Z AUTO 27005KT 10SM OVC034 01/M02 A2982 1120 78 -200 270/05 RMK AO2 T00111022
14926KSTC STC20170428024511304/28/17 02:45:31  5-MIN KSTC 280845Z AUTO 29007KT 10SM OVC034 01/M02 A2982 1120 78 -200 290/07 RMK AO2 T00111022
14926KSTC STC20170428025013304/28/17 02:50:31  5-MIN KSTC 280850Z AUTO 29010KT 10SM FEW028 OVC034 01/M03 A2982 1120 75 -200 290/10 RMK AO2 SLP116 T00111028 51015
14926KSTC STC20170428025511304/28/17 02:55:31  5-MIN KSTC 280855Z AUTO 30008KT 10SM OVC032 01/M03 A2982 1120 75 -200 290/08 RMK AO2 T00111028
14926KSTC STC20170428030011304/28/17 03:00:31  5-MIN KSTC 280900Z AUTO 29010KT 10SM OVC032 01/M03 A2982 1120 75 -200 290/10 RMK AO2 T00111028
14926KSTC STC20170428030511304/28/17 03:05:31  5-MIN KSTC 280905Z AUTO 29011KT 10SM OVC032 01/M03 A2983 1110 75 -200 290/11 RMK AO2 T00111028
14926KSTC STC20170428031011304/28/17 03:10:31  5-MIN KSTC 280910Z AUTO 30009KT 10SM OVC032 01/M03 A2983 1110 75 -200 290/09 RMK AO2 T00111028
14926KSTC STC20170428031511304/28/17 03:15:31  5-MIN KSTC 280915Z AUTO 30008KT 10SM OVC032 01/M03 A2983 1110 75 -200 300/08 RMK AO2 T00111028
14926KSTC STC20170428032011304/28/17 03:20:31  5-MIN KSTC 280920Z AUTO 30012KT 10SM OVC033 01/M03 A2983 1110 72 -200 300/12 RMK AO2 T00111033
14926KSTC STC20170428032511304/28/17 03:25:31  5-MIN KSTC 280925Z AUTO 31008KT 10SM OVC033 01/M03 A2983 1110 72 -200 310/08 RMK AO2 T00111033
14926KSTC STC20170428033011304/28/17 03:30:31  5-MIN KSTC 280930Z AUTO 31009KT 10SM OVC033 01/M03 A2982 1120 72 -200 310/09 RMK AO2 T00111033
14926KSTC STC20170428033511304/28/17 03:35:31  5-MIN KSTC 280935Z AUTO 32010KT 10SM OVC033 01/M03 A2982 1120 72 -200 320/10 RMK AO2 T00111033
14926KSTC STC20170428034011304/28/17 03:40:31  5-MIN KSTC 280940Z AUTO 32010KT 10SM OVC033 01/M04 A2982 1120 69 -200 320/10 RMK AO2 T00111039
14926KSTC STC20170428034512604/28/17 03:45:31  5-MIN KSTC 280945Z AUTO 32009G17KT 10SM BKN031 OVC035 01/M04 A2983 1110 69 -200 320/09G17 RMK AO2 T00111039
14926KSTC STC20170428035012004/28/17 03:50:31  5-MIN KSTC 280950Z AUTO 32010KT 10SM BKN031 01/M04 A2983 1110 69 -200 320/10 RMK AO2 SLP121 T00111039
14926KSTC STC20170428035511304/28/17 03:55:31  5-MIN KSTC 280955Z AUTO 32009KT 10SM BKN031 01/M04 A2983 1110 72 -300 320/09 RMK AO2 T00061039
14926KSTC STC20170428040011304/28/17 04:00:31  5-MIN KSTC 281000Z AUTO 33006KT 10SM BKN031 01/M04 A2983 1110 72 -300 330/06 RMK AO2 T00061039
14926KSTC STC20170428040511304/28/17 04:05:31  5-MIN KSTC 281005Z AUTO 33005KT 10SM SCT031 01/M04 A2983 1110 72 -300 330/05 RMK AO2 T00061039
14926KSTC STC20170428041011304/28/17 04:10:31  5-MIN KSTC 281010Z AUTO 32005KT 10SM FEW031 00/M04 A2984 1100 75 -400 320/05 RMK AO2 T00001039
14926KSTC STC20170428041511304/28/17 04:15:31  5-MIN KSTC 281015Z AUTO 32005KT 10SM SCT031 00/M04 A2984 1100 75 -400 320/05 RMK AO2 T00001039
14926KSTC STC20170428042011404/28/17 04:20:31  5-MIN KSTC 281020Z AUTO 32004KT 10SM SCT031 M01/M04 A2984 1100 78 -400 320/04 RMK AO2 T10061039
14926KSTC STC20170428042511404/28/17 04:25:31  5-MIN KSTC 281025Z AUTO 33005KT 10SM FEW029 M01/M04 A2984 1100 81 -500 330/05 RMK AO2 T10111039
14926KSTC STC20170428043011304/28/17 04:30:31  5-MIN KSTC 281030Z AUTO 32006KT 10SM FEW029 00/M04 A2984 1100 75 -400 320/06 RMK AO2 T00001039
14926KSTC STC20170428043511304/28/17 04:35:31  5-MIN KSTC 281035Z AUTO 32007KT 10SM FEW029 00/M04 A2984 1100 75 -400 320/07 RMK AO2 T00001039
14926KSTC STC20170428044011404/28/17 04:40:31  5-MIN KSTC 281040Z AUTO 32006KT 10SM FEW029 M01/M04 A2984 1100 78 -400 320/06 RMK AO2 T10061039
14926KSTC STC20170428044511004/28/17 04:45:31  5-MIN KSTC 281045Z AUTO 33006KT 10SM CLR 00/M04 A2984 1100 75 -400 330/06 RMK AO2 T00001039
14926KSTC STC20170428045011804/28/17 04:50:31  5-MIN KSTC 281050Z AUTO 32007KT 10SM CLR M01/M04 A2985 1090 78 -400 320/07 RMK AO2 SLP127 T10061039
14926KSTC STC20170428045511104/28/17 04:55:31  5-MIN KSTC 281055Z AUTO 33006KT 10SM CLR M01/M04 A2985 1090 78 -500 330/06 RMK AO2 T10061039
14926KSTC STC20170428050011104/28/17 05:00:31  5-MIN KSTC 281100Z AUTO 33005KT 10SM CLR M01/M04 A2985 1090 78 -500 330/05 RMK AO2 T10061039
14926KSTC STC20170428050511104/28/17 05:05:31  5-MIN KSTC 281105Z AUTO 33005KT 10SM CLR M01/M04 A2985 1090 78 -500 330/05 RMK AO2 T10061039
14926KSTC STC20170428051011104/28/17 05:10:31  5-MIN KSTC 281110Z AUTO 34006KT 10SM CLR M01/M04 A2985 1090 78 -500 340/06 RMK AO2 T10061039
14926KSTC STC20170428051511104/28/17 05:15:31  5-MIN KSTC 281115Z AUTO 34006KT 10SM CLR M01/M04 A2986 1090 78 -500 340/06 RMK AO2 T10061039
14926KSTC STC20170428052011104/28/17 05:20:31  5-MIN KSTC 281120Z AUTO 34007KT 10SM CLR M01/M04 A2986 1090 78 -500 340/07 RMK AO2 T10061039
14926KSTC STC20170428052511104/28/17 05:25:31  5-MIN KSTC 281125Z AUTO 33007KT 10SM CLR M01/M04 A2986 1080 78 -500 330/07 RMK AO2 T10061039
14926KSTC STC20170428053011104/28/17 05:30:31  5-MIN KSTC 281130Z AUTO 33006KT 10SM CLR M01/M04 A2986 1080 78 -500 330/06 RMK AO2 T10061039
14926KSTC STC20170428053511104/28/17 05:35:31  5-MIN KSTC 281135Z AUTO 33005KT 10SM CLR M01/M04 A2987 1080 78 -500 330/05 RMK AO2 T10061039
14926KSTC STC20170428054011104/28/17 05:40:31  5-MIN KSTC 281140Z AUTO 34005KT 10SM CLR M01/M04 A2987 1080 78 -500 330/05 RMK AO2 T10061039
14926KSTC STC20170428054511104/28/17 05:45:31  5-MIN KSTC 281145Z AUTO 33007KT 10SM CLR M01/M04 A2987 1080 78 -500 330/07 RMK AO2 T10061039
14926KSTC STC20170428055013104/28/17 05:50:31  5-MIN KSTC 281150Z 33007KT 10SM CLR M01/M04 A2987 1070 78 -500 330/07 RMK AO2 SLP135 T10061039 10017 21011 53012
14926KSTC STC20170428055510604/28/17 05:55:31  5-MIN KSTC 281155Z 33007KT 10SM CLR M01/M04 A2987 1070 78 -500 330/07 RMK AO2 T10061039
14926KSTC STC20170428060010504/28/17 06:00:31  5-MIN KSTC 281200Z 33008KT 10SM CLR 00/M04 A2987 1070 75 -400 330/08 RMK AO2 T00001039
14926KSTC STC20170428060510504/28/17 06:05:31  5-MIN KSTC 281205Z 33007KT 10SM CLR 00/M04 A2987 1070 75 -400 330/07 RMK AO2 T00001039
14926KSTC STC20170428061010504/28/17 06:10:31  5-MIN KSTC 281210Z 33006KT 10SM CLR 00/M04 A2988 1070 75 -400 330/06 RMK AO2 T00001039
14926KSTC STC20170428061510504/28/17 06:15:31  5-MIN KSTC 281215Z 34005KT 10SM CLR 00/M04 A2988 1070 75 -400 330/05 RMK AO2 T00001039
14926KSTC STC20170428062010504/28/17 06:20:31  5-MIN KSTC 281220Z 34008KT 10SM CLR 00/M04 A2988 1070 75 -400 340/08 RMK AO2 T00001039
14926KSTC STC20170428062510504/28/17 06:25:31  5-MIN KSTC 281225Z 33007KT 10SM CLR 00/M04 A2988 1060 75 -400 330/07 RMK AO2 T00001039
14926KSTC STC20170428063010504/28/17 06:30:31  5-MIN KSTC 281230Z 34008KT 10SM CLR 00/M04 A2989 1060 75 -400 340/08 RMK AO2 T00001039
14926KSTC STC20170428063510504/28/17 06:35:31  5-MIN KSTC 281235Z 33008KT 10SM CLR 01/M04 A2989 1050 72 -400 330/08 RMK AO2 T00061039
14926KSTC STC20170428064011104/28/17 06:40:31  5-MIN KSTC 281240Z 32011G16KT 10SM CLR 01/M04 A2989 1050 72 -400 320/11G16 RMK AO2 T00061039
14926KSTC STC20170428064510504/28/17 06:45:31  5-MIN KSTC 281245Z 33010KT 10SM CLR 01/M04 A2990 1050 72 -400 330/10 RMK AO2 T00061039
14926KSTC STC20170428065011204/28/17 06:50:31  5-MIN KSTC 281250Z 33009KT 10SM CLR 01/M04 A2990 1040 72 -400 330/09 RMK AO2 SLP145 T00061039
14926KSTC STC20170428065510504/28/17 06:55:31  5-MIN KSTC 281255Z 34010KT 10SM CLR 01/M04 A2990 1040 72 -400 330/10 RMK AO2 T00061039
14926KSTC STC20170428070010804/28/17 07:00:31  5-MIN KSTC 281300Z 33008KT 10SM FEW022 01/M04 A2990 1040 72 -400 330/08 RMK AO2 T00061039
14926KSTC STC20170428070510804/28/17 07:05:31  5-MIN KSTC 281305Z 33010KT 10SM FEW022 00/M04 A2990 1040 72 -400 330/10 RMK AO2 T00001044
14926KSTC STC20170428071011404/28/17 07:10:31  5-MIN KSTC 281310Z 32011G16KT 10SM FEW022 01/M04 A2990 1040 72 -400 320/11G16 RMK AO2 T00061039
14926KSTC STC20170428071510804/28/17 07:15:31  5-MIN KSTC 281315Z 31010KT 10SM SCT023 01/M04 A2990 1050 69 -300 310/10 RMK AO2 T00111039
14926KSTC STC20170428072010804/28/17 07:20:31  5-MIN KSTC 281320Z 32011KT 10SM SCT023 01/M04 A2990 1040 69 -300 320/11 RMK AO2 T00111039
14926KSTC STC20170428072510804/28/17 07:25:31  5-MIN KSTC 281325Z 33007KT 10SM SCT023 01/M04 A2990 1040 69 -300 330/07 RMK AO2 T00111039
14926KSTC STC20170428073010804/28/17 07:30:31  5-MIN KSTC 281330Z 33010KT 10SM FEW023 01/M04 A2990 1040 66 -300 330/10 RMK AO2 T00111044
14926KSTC STC20170428073510804/28/17 07:35:31  5-MIN KSTC 281335Z 35008KT 10SM FEW023 01/M04 A2991 1040 66 -300 350/08 RMK AO2 T00111044
14926KSTC STC20170428074010804/28/17 07:40:31  5-MIN KSTC 281340Z 35007KT 10SM SCT023 02/M04 A2991 1040 66 -200 350/07 RMK AO2 T00171039
14926KSTC STC20170428074510804/28/17 07:45:31  5-MIN KSTC 281345Z 31010KT 10SM SCT025 02/M04 A2991 1030 66 -200 310/10 RMK AO2 T00171039
14926KSTC STC20170428075011504/28/17 07:50:31  5-MIN KSTC 281350Z 32008KT 10SM SCT025 02/M04 A2991 1030 66 -200 320/08 RMK AO2 SLP149 T00171039
14926KSTC STC20170428075510804/28/17 07:55:31  5-MIN KSTC 281355Z 33010KT 10SM BKN025 02/M04 A2992 1030 64 -200 320/10 RMK AO2 T00221039
14926KSTC STC20170428080011404/28/17 08:00:31  5-MIN KSTC 281400Z 35012G17KT 10SM BKN025 02/M04 A2992 1030 66 -300 350/12G17 RMK AO2 T00171039
14926KSTC STC20170428080511404/28/17 08:05:31  5-MIN KSTC 281405Z 35010G17KT 10SM SCT025 01/M04 A2992 1030 66 -300 350/10G17 RMK AO2 T00111044
14926KSTC STC20170428081010804/28/17 08:10:31  5-MIN KSTC 281410Z 34009KT 10SM SCT025 01/M04 A2992 1020 69 -300 340/09 RMK AO2 T00111039
14926KSTC STC20170428081510804/28/17 08:15:31  5-MIN KSTC 281415Z 34006KT 10SM SCT025 02/M03 A2992 1020 69 -300 340/06 RMK AO2 T00171033
14926KSTC STC20170428082010804/28/17 08:20:31  5-MIN KSTC 281420Z 34008KT 10SM SCT025 02/M03 A2993 1020 69 -300 340/08 RMK AO2 T00171033
14926KSTC STC20170428082510804/28/17 08:25:31  5-MIN KSTC 281425Z 34007KT 10SM SCT025 02/M04 A2993 1020 66 -300 330/07 RMK AO2 T00171039
14926KSTC STC20170428083010804/28/17 08:30:31  5-MIN KSTC 281430Z 34008KT 10SM SCT025 02/M04 A2993 1020 66 -300 340/08 RMK AO2 T00171039
14926KSTC STC20170428083510804/28/17 08:35:31  5-MIN KSTC 281435Z 34010KT 10SM SCT025 03/M03 A2993 1020 64 -100 340/10 RMK AO2 T00281033
14926KSTC STC20170428084010804/28/17 08:40:31  5-MIN KSTC 281440Z 33008KT 10SM SCT025 03/M03 A2993 1020 67 -100 330/08 RMK AO2 T00281028
14926KSTC STC20170428084510804/28/17 08:45:31  5-MIN KSTC 281445Z 31010KT 10SM SCT025 03/M03 A2993 1020 67 -100 310/10 RMK AO2 T00281028
14926KSTC STC20170428085012104/28/17 08:50:31  5-MIN KSTC 281450Z 33010KT 10SM SCT025 03/M03 A2993 1020 67 -100 330/10 RMK AO2 SLP154 T00281028 53016
14926KSTC STC20170428085510804/28/17 08:55:31  5-MIN KSTC 281455Z 32012KT 10SM SCT025 03/M03 A2993 1020 64 -100 320/12 RMK AO2 T00281033
14926KSTC STC20170428090010804/28/17 09:00:31  5-MIN KSTC 281500Z 35010KT 10SM SCT024 02/M03 A2992 1020 67 -200 350/10 RMK AO2 T00221033
14926KSTC STC20170428090512404/28/17 09:05:31  5-MIN KSTC 281505Z 35009KT 310V010 10SM FEW024 03/M03 A2993 1020 67 -100 350/09 310V010 RMK AO2 T00281028
14926KSTC STC20170428091012404/28/17 09:10:31  5-MIN KSTC 281510Z 31008KT 290V350 10SM FEW024 03/M03 A2993 1020 67 -100 310/08 290V350 RMK AO2 T00281028
14926KSTC STC20170428091510804/28/17 09:15:31  5-MIN KSTC 281515Z 34008KT 10SM FEW024 03/M03 A2993 1020 64 -100 340/08 RMK AO2 T00331028
14926KSTC STC20170428092011404/28/17 09:20:31  5-MIN KSTC 281520Z 31011G16KT 10SM FEW024 03/M03 A2993 1020 67 -100 310/11G16 RMK AO2 T00281028
14926KSTC STC20170428092511404/28/17 09:25:31  5-MIN KSTC 281525Z 33009G16KT 10SM FEW024 03/M03 A2993 1020 64 -100 330/09G16 RMK AO2 T00331028
14926KSTC STC20170428093010504/28/17 09:30:31  5-MIN KSTC 281530Z 34010KT 10SM CLR 03/M02 A2993 1020 67 -100 330/10 RMK AO2 T00331022
14926KSTC STC20170428093510204/28/17 09:35:31  5-MIN KSTC 281535Z 32009KT 10SM CLR 04/M02 A2993 1010 64 0 320/09 RMK AO2 T00391022
14926KSTC STC20170428094010204/28/17 09:40:31  5-MIN KSTC 281540Z 31008KT 10SM CLR 04/M02 A2994 1010 64 0 310/08 RMK AO2 T00391022
14926KSTC STC20170428094510504/28/17 09:45:31  5-MIN KSTC 281545Z 34009KT 10SM FEW024 04/M02 A2994 1010 64 0 340/09 RMK AO2 T00391022
14926KSTC STC20170428095011504/28/17 09:50:31  5-MIN KSTC 281550Z 34010G17KT 10SM CLR 04/M02 A2994 1010 64 0 340/10G17 RMK AO2 SLP156 T00391022
14926KSTC STC20170428095510804/28/17 09:55:31  5-MIN KSTC 281555Z 34009G17KT 10SM CLR 04/M03 A2994 1010 62 0 340/09G17 RMK AO2 T00391028
14926KSTC STC20170428100010204/28/17 10:00:31  5-MIN KSTC 281600Z 32010KT 10SM CLR 04/M02 A2994 1010 62 0 320/10 RMK AO2 T00441022
14926KSTC STC20170428100510204/28/17 10:05:31  5-MIN KSTC 281605Z 35010KT 10SM CLR 04/M02 A2994 1010 62 0 350/10 RMK AO2 T00441022
14926KSTC STC20170428101010204/28/17 10:10:31  5-MIN KSTC 281610Z 34011KT 10SM CLR 04/M02 A2994 1010 64 0 340/11 RMK AO2 T00441017
14926KSTC STC20170428101510404/28/17 10:15:31  5-MIN KSTC 281615Z 32012KT 10SM CLR 05/M02 A2994 1010 62 100 320/12 RMK AO2 T00501017
14926KSTC STC20170428102010504/28/17 10:20:31  5-MIN KSTC 281620Z 33011KT 10SM FEW027 04/M02 A2994 1010 64 0 320/11 RMK AO2 T00441017
14926KSTC STC20170428102511304/28/17 10:25:31  5-MIN KSTC 281625Z 33013G19KT 10SM FEW027 05/M02 A2994 1010 62 100 330/13G19 RMK AO2 T00501017
14926KSTC STC20170428103011304/28/17 10:30:31  5-MIN KSTC 281630Z 33011G19KT 10SM FEW027 05/M02 A2994 1010 62 100 330/11G19 RMK AO2 T00501017
14926KSTC STC20170428103511304/28/17 10:35:31  5-MIN KSTC 281635Z 34011G18KT 10SM FEW027 05/M02 A2994 1000 62 100 340/11G18 RMK AO2 T00501017
14926KSTC STC20170428104011304/28/17 10:40:31  5-MIN KSTC 281640Z 35011G18KT 10SM FEW028 05/M02 A2994 1000 62 100 350/11G18 RMK AO2 T00501017
14926KSTC STC20170428104511304/28/17 10:45:31  5-MIN KSTC 281645Z 36011G18KT 10SM FEW028 06/M01 A2995 1000 62 100 350/11G18 RMK AO2 T00561011
14926KSTC STC20170428105011404/28/17 10:50:31  5-MIN KSTC 281650Z 33012KT 10SM FEW028 06/M02 A2995 1000 59 100 330/12 RMK AO2 SLP158 T00561017
14926KSTC STC20170428105511304/28/17 10:55:31  5-MIN KSTC 281655Z 34013G19KT 10SM FEW028 06/M02 A2995 1000 59 100 340/13G19 RMK AO2 T00561017
14926KSTC STC20170428110011304/28/17 11:00:31  5-MIN KSTC 281700Z 32009G19KT 10SM FEW029 06/M01 A2995 1000 60 200 320/09G19 RMK AO2 T00611011
14926KSTC STC20170428110510704/28/17 11:05:31  5-MIN KSTC 281705Z 32010KT 10SM FEW029 06/M01 A2995 1000 60 200 320/10 RMK AO2 T00611011
14926KSTC STC20170428111010704/28/17 11:10:31  5-MIN KSTC 281710Z 33009KT 10SM FEW030 06/M01 A2995 1000 60 200 330/09 RMK AO2 T00611011
14926KSTC STC20170428111511004/28/17 11:15:31  5-MIN KSTC 281715Z 35013G17KT 10SM CLR 06/M01 A2995 1000 60 200 350/13G17 RMK AO2 T00611011
14926KSTC STC20170428112011004/28/17 11:20:31  5-MIN KSTC 281720Z 36013G17KT 10SM CLR 06/M02 A2995 1000 57 200 360/13G17 RMK AO2 T00611017
14926KSTC STC20170428112510404/28/17 11:25:31  5-MIN KSTC 281725Z 35009KT 10SM CLR 07/M01 A2995 1000 57 300 350/09 RMK AO2 T00671011
14926KSTC STC20170428113010404/28/17 11:30:31  5-MIN KSTC 281730Z 02011KT 10SM CLR 07/M02 A2995 1000 55 300 020/11 RMK AO2 T00671017
14926KSTC STC20170428113511004/28/17 11:35:31  5-MIN KSTC 281735Z 01007G16KT 10SM CLR 07/M01 A2995 1000 57 300 010/07G16 RMK AO2 T00671011
14926KSTC STC20170428114011004/28/17 11:40:31  5-MIN KSTC 281740Z 36011G17KT 10SM CLR 07/M01 A2995 1000 55 300 360/11G17 RMK AO2 T00721011
14926KSTC STC20170428114511004/28/17 11:45:31  5-MIN KSTC 281745Z 36010G17KT 10SM CLR 07/M01 A2994 1000 55 300 360/10G17 RMK AO2 T00721011
14926KSTC STC20170428115012904/28/17 11:50:31  5-MIN KSTC 281750Z 01010KT 10SM CLR 07/M01 A2994 1010 55 400 010/10 RMK AO2 SLP156 T00721011 10072 21006 51019
14926KSTC STC20170428115511004/28/17 11:55:31  5-MIN KSTC 281755Z 35012G16KT 10SM CLR 07/M01 A2994 1010 55 400 340/12G16 RMK AO2 T00721011
14926KSTC STC20170428120010404/28/17 12:00:31  5-MIN KSTC 281800Z 33012KT 10SM CLR 07/M02 A2994 1010 55 300 330/12 RMK AO2 T00671017
14926KSTC STC20170428120510404/28/17 12:05:31  5-MIN KSTC 281805Z 34014KT 10SM CLR 07/M02 A2994 1010 55 300 340/14 RMK AO2 T00671017
14926KSTC STC20170428121011004/28/17 12:10:31  5-MIN KSTC 281810Z 35010G18KT 10SM CLR 07/M02 A2994 1010 55 300 350/10G18 RMK AO2 T00671017
14926KSTC STC20170428121510404/28/17 12:15:31  5-MIN KSTC 281815Z 36008KT 10SM CLR 07/M02 A2994 1010 53 400 360/08 RMK AO2 T00721017
14926KSTC STC20170428122010404/28/17 12:20:31  5-MIN KSTC 281820Z 02009KT 10SM CLR 08/M01 A2994 1010 53 400 020/09 RMK AO2 T00781011
14926KSTC STC20170428122511004/28/17 12:25:31  5-MIN KSTC 281825Z 36011G19KT 10SM CLR 08/M02 A2994 1000 49 500 360/11G19 RMK AO2 T00831017
14926KSTC STC20170428123011004/28/17 12:30:31  5-MIN KSTC 281830Z 02009G19KT 10SM CLR 07/M02 A2994 1000 51 300 020/09G19 RMK AO2 T00721022
14926KSTC STC20170428123510404/28/17 12:35:31  5-MIN KSTC 281835Z 34011KT 10SM CLR 08/M02 A2994 1010 51 400 340/11 RMK AO2 T00781017
14926KSTC STC20170428124010404/28/17 12:40:31  5-MIN KSTC 281840Z 36009KT 10SM CLR 08/M02 A2994 1010 49 500 350/09 RMK AO2 T00831017
14926KSTC STC20170428124511004/28/17 12:45:31  5-MIN KSTC 281845Z 02012G17KT 10SM CLR 08/M02 A2995 1000 49 400 020/12G17 RMK AO2 T00781022
14926KSTC STC20170428125011704/28/17 12:50:31  5-MIN KSTC 281850Z 36009G17KT 10SM CLR 08/M03 A2995 1000 47 400 350/09G17 RMK AO2 SLP158 T00781028
14926KSTC STC20170428125510404/28/17 12:55:31  5-MIN KSTC 281855Z 01011KT 10SM CLR 08/M03 A2995 1000 47 400 010/11 RMK AO2 T00781028
14926KSTC STC20170428130010404/28/17 13:00:31  5-MIN KSTC 281900Z 01008KT 10SM CLR 08/M02 A2995 1000 47 500 010/08 RMK AO2 T00831022
14926KSTC STC20170428130511004/28/17 13:05:31  5-MIN KSTC 281905Z 01011G15KT 10SM CLR 08/M02 A2995 1000 47 500 360/11G15 RMK AO2 T00831022
14926KSTC STC20170428131012604/28/17 13:10:31  5-MIN KSTC 281910Z 36007G15KT 330V040 10SM CLR 09/M02 A2995 1000 45 500 360/07G15 330V040 RMK AO2 T00891022
14926KSTC STC20170428131511004/28/17 13:15:31  5-MIN KSTC 281915Z 35012G18KT 10SM CLR 09/M03 A2995 1000 42 600 350/12G18 RMK AO2 T00941028
14926KSTC STC20170428132011004/28/17 13:20:31  5-MIN KSTC 281920Z 35010G18KT 10SM CLR 09/M03 A2995 1000 43 500 350/10G18 RMK AO2 T00891028
14926KSTC STC20170428132511004/28/17 13:25:31  5-MIN KSTC 281925Z 34010G17KT 10SM CLR 09/M02 A2995 1000 45 500 340/10G17 RMK AO2 T00891022
14926KSTC STC20170428133010404/28/17 13:30:31  5-MIN KSTC 281930Z 02009KT 10SM CLR 09/M03 A2995 1000 43 500 020/09 RMK AO2 T00891028
14926KSTC STC20170428133510404/28/17 13:35:31  5-MIN KSTC 281935Z 35009KT 10SM CLR 09/M03 A2995 1000 42 600 350/09 RMK AO2 T00941028
14926KSTC STC20170428134010404/28/17 13:40:31  5-MIN KSTC 281940Z 01011KT 10SM CLR 09/M02 A2995 1000 44 600 010/11 RMK AO2 T00941022
14926KSTC STC20170428134510404/28/17 13:45:31  5-MIN KSTC 281945Z VRB06KT 10SM CLR 09/M03 A2995 1000 42 600 VRB/06 RMK AO2 T00941028
14926KSTC STC20170428135011004/28/17 13:50:31  5-MIN KSTC 281950Z 03007KT 10SM CLR 09/M03 A2995 990 42 500 030/07 RMK AO2 SLP160 T00891033
14926KSTC STC20170428135510304/28/17 13:55:31  5-MIN KSTC 281955Z 33010KT 10SM CLR 09/M03 A2996 990 42 500 330/10 RMK AO2 T00891033
14926KSTC STC20170428140010304/28/17 14:00:31  5-MIN KSTC 282000Z 32009KT 10SM CLR 09/M03 A2996 990 42 600 320/09 RMK AO2 T00941028
14926KSTC STC20170428140510304/28/17 14:05:31  5-MIN KSTC 282005Z 32005KT 10SM CLR 09/M03 A2996 990 43 500 320/05 RMK AO2 T00891028
14926KSTC STC20170428141011904/28/17 14:10:31  5-MIN KSTC 282010Z 02007KT 350V060 10SM CLR 10/M02 A2996 990 44 700 020/07 350V060 RMK AO2 T01001017
14926KSTC STC20170428141510304/28/17 14:15:31  5-MIN KSTC 282015Z 34009KT 10SM CLR 09/M02 A2996 990 44 600 340/09 RMK AO2 T00941022
14926KSTC STC20170428142011904/28/17 14:20:31  5-MIN KSTC 282020Z 36009KT 340V050 10SM CLR 09/M02 A2996 990 44 600 360/09 340V050 RMK AO2 T00941022
14926KSTC STC20170428142510304/28/17 14:25:31  5-MIN KSTC 282025Z 01010KT 10SM CLR 09/M03 A2996 990 43 500 010/10 RMK AO2 T00891028
14926KSTC STC20170428143010304/28/17 14:30:31  5-MIN KSTC 282030Z 36007KT 10SM CLR 09/M03 A2996 990 42 600 360/07 RMK AO2 T00941028
14926KSTC STC20170428143510304/28/17 14:35:31  5-MIN KSTC 282035Z 33009KT 10SM CLR 09/M02 A2996 990 44 600 330/09 RMK AO2 T00941022
14926KSTC STC20170428144010304/28/17 14:40:31  5-MIN KSTC 282040Z 35010KT 10SM CLR 10/M02 A2996 990 42 700 350/10 RMK AO2 T01001022
14926KSTC STC20170428144510304/28/17 14:45:31  5-MIN KSTC 282045Z 35010KT 10SM CLR 09/M03 A2996 990 42 500 350/10 RMK AO2 T00891033
14926KSTC STC20170428145011604/28/17 14:50:31  5-MIN KSTC 282050Z 35007KT 10SM CLR 09/M03 A2996 990 43 500 350/07 RMK AO2 SLP160 T00891028 50004
14926KSTC STC20170428145510404/28/17 14:55:31  5-MIN KSTC 282055Z 02007KT 10SM CLR 09/M03 A2995 1000 42 600 010/07 RMK AO2 T00941028
14926KSTC STC20170428150010404/28/17 15:00:31  5-MIN KSTC 282100Z 34011KT 10SM CLR 10/M02 A2995 1000 42 700 340/11 RMK AO2 T01001022
14926KSTC STC20170428150510404/28/17 15:05:31  5-MIN KSTC 282105Z 35008KT 10SM CLR 10/M03 A2995 1000 40 700 350/08 RMK AO2 T01001028
14926KSTC STC20170428151010404/28/17 15:10:31  5-MIN KSTC 282110Z 36007KT 10SM CLR 09/M03 A2995 1000 42 600 360/07 RMK AO2 T00941028
14926KSTC STC20170428151510404/28/17 15:15:31  5-MIN KSTC 282115Z 36007KT 10SM CLR 09/M02 A2995 1000 44 600 360/07 RMK AO2 T00941022
14926KSTC STC20170428152010404/28/17 15:20:31  5-MIN KSTC 282120Z 36008KT 10SM CLR 09/M02 A2995 1000 44 600 360/08 RMK AO2 T00941022
14926KSTC STC20170428152510404/28/17 15:25:31  5-MIN KSTC 282125Z 02007KT 10SM CLR 10/M03 A2995 1000 40 700 020/07 RMK AO2 T01001028
14926KSTC STC20170428153010404/28/17 15:30:31  5-MIN KSTC 282130Z 36008KT 10SM CLR 10/M03 A2995 1000 40 700 360/08 RMK AO2 T01001028
14926KSTC STC20170428153510404/28/17 15:35:31  5-MIN KSTC 282135Z 01009KT 10SM CLR 10/M03 A2995 1000 40 700 010/09 RMK AO2 T01001028
14926KSTC STC20170428154011004/28/17 15:40:31  5-MIN KSTC 282140Z 01011G15KT 10SM CLR 11/M03 A2995 1000 39 700 010/11G15 RMK AO2 T01061028
14926KSTC STC20170428154510404/28/17 15:45:31  5-MIN KSTC 282145Z 36008KT 10SM CLR 10/M03 A2995 1000 39 700 360/08 RMK AO2 T01001033
14926KSTC STC20170428155011104/28/17 15:50:31  5-MIN KSTC 282150Z 35010KT 10SM CLR 11/M03 A2995 1000 39 700 350/10 RMK AO2 SLP158 T01061028
14926KSTC STC20170428155510404/28/17 15:55:31  5-MIN KSTC 282155Z 36011KT 10SM CLR 11/M03 A2995 1000 39 700 360/11 RMK AO2 T01061028
14926KSTC STC20170428160010404/28/17 16:00:31  5-MIN KSTC 282200Z 35008KT 10SM CLR 11/M03 A2995 1000 39 700 350/08 RMK AO2 T01061028
14926KSTC STC20170428160510404/28/17 16:05:31  5-MIN KSTC 282205Z 01009KT 10SM CLR 11/M03 A2995 1000 37 800 010/09 RMK AO2 T01111028
14926KSTC STC20170428161010304/28/17 16:10:31  5-MIN KSTC 282210Z 35011KT 10SM CLR 11/M03 A2995 990 36 800 350/11 RMK AO2 T01111033
14926KSTC STC20170428161511004/28/17 16:15:31  5-MIN KSTC 282215Z 35012G16KT 10SM CLR 11/M04 A2995 1000 34 800 350/12G16 RMK AO2 T01111039
14926KSTC STC20170428162010404/28/17 16:20:31  5-MIN KSTC 282220Z 35010KT 10SM CLR 11/M04 A2995 1000 36 700 350/10 RMK AO2 T01061039
14926KSTC STC20170428162510404/28/17 16:25:31  5-MIN KSTC 282225Z 35008KT 10SM CLR 11/M04 A2995 1000 36 700 350/08 RMK AO2 T01061039
14926KSTC STC20170428163011004/28/17 16:30:31  5-MIN KSTC 282230Z 36013G17KT 10SM CLR 11/M04 A2995 1000 36 700 360/13G17 RMK AO2 T01061039
14926KSTC STC20170428163510904/28/17 16:35:31  5-MIN KSTC 282235Z 35014G19KT 10SM CLR 11/M04 A2996 990 34 700 350/14G19 RMK AO2 T01061044
14926KSTC STC20170428164010904/28/17 16:40:31  5-MIN KSTC 282240Z 36011G19KT 10SM CLR 11/M04 A2996 990 34 700 360/11G19 RMK AO2 T01061044
14926KSTC STC20170428164510304/28/17 16:45:31  5-MIN KSTC 282245Z 36010KT 10SM CLR 11/M05 A2996 990 33 700 360/10 RMK AO2 T01061050
14926KSTC STC20170428165011004/28/17 16:50:31  5-MIN KSTC 282250Z 34009KT 10SM CLR 11/M04 A2996 990 34 700 340/09 RMK AO2 SLP163 T01061044
14926KSTC STC20170428165510304/28/17 16:55:31  5-MIN KSTC 282255Z 36008KT 10SM CLR 11/M04 A2996 990 34 700 360/08 RMK AO2 T01061044
14926KSTC STC20170428170010304/28/17 17:00:31  5-MIN KSTC 282300Z 35009KT 10SM CLR 10/M04 A2997 980 36 700 350/09 RMK AO2 T01001044
14926KSTC STC20170428170510304/28/17 17:05:31  5-MIN KSTC 282305Z 01008KT 10SM CLR 10/M04 A2997 980 36 700 010/08 RMK AO2 T01001044
14926KSTC STC20170428171010304/28/17 17:10:31  5-MIN KSTC 282310Z 01009KT 10SM CLR 10/M04 A2998 970 36 600 010/09 RMK AO2 T01001044
14926KSTC STC20170428171510304/28/17 17:15:31  5-MIN KSTC 282315Z 36008KT 10SM CLR 10/M04 A2998 970 36 600 360/08 RMK AO2 T01001044
14926KSTC STC20170428172010304/28/17 17:20:31  5-MIN KSTC 282320Z 35008KT 10SM CLR 10/M04 A2998 970 36 600 350/08 RMK AO2 T01001044
14926KSTC STC20170428172510304/28/17 17:25:31  5-MIN KSTC 282325Z 35009KT 10SM CLR 10/M04 A2998 970 36 600 350/09 RMK AO2 T01001044
14926KSTC STC20170428173010304/28/17 17:30:31  5-MIN KSTC 282330Z 35010KT 10SM CLR 10/M06 A2998 970 33 600 350/10 RMK AO2 T01001056
14926KSTC STC20170428173510304/28/17 17:35:31  5-MIN KSTC 282335Z 34009KT 10SM CLR 10/M06 A2998 970 33 600 340/09 RMK AO2 T01001056
14926KSTC STC20170428174010304/28/17 17:40:31  5-MIN KSTC 282340Z 35009KT 10SM CLR 10/M05 A2999 970 34 600 350/09 RMK AO2 T01001050
14926KSTC STC20170428174510304/28/17 17:45:31  5-MIN KSTC 282345Z 35007KT 10SM CLR 10/M06 A2999 960 33 600 350/07 RMK AO2 T01001056
14926KSTC STC20170428175012804/28/17 17:50:31  5-MIN KSTC 282350Z 36006KT 10SM CLR 10/M05 A2999 960 34 600 360/06 RMK AO2 SLP172 T01001050 10111 20067 50004
14926KSTC STC20170428175510304/28/17 17:55:31  5-MIN KSTC 282355Z 36008KT 10SM CLR 10/M04 A2999 960 36 600 360/08 RMK AO2 T01001044
14926KSTC STC20170428180010304/28/17 18:00:31  5-MIN KSTC 290000Z 35007KT 10SM CLR 10/M05 A2999 960 34 600 350/07 RMK AO2 T01001050
14926KSTC STC20170428180510304/28/17 18:05:31  5-MIN KSTC 290005Z 35007KT 10SM CLR 10/M06 A2999 960 33 600 350/07 RMK AO2 T01001056
14926KSTC STC20170428181010304/28/17 18:10:31  5-MIN KSTC 290010Z 36008KT 10SM CLR 09/M06 A3000 960 34 600 360/08 RMK AO2 T00941056
14926KSTC STC20170428181510304/28/17 18:15:31  5-MIN KSTC 290015Z 01007KT 10SM CLR 09/M06 A3000 950 34 600 360/07 RMK AO2 T00941056
14926KSTC STC20170428182010304/28/17 18:20:31  5-MIN KSTC 290020Z 01005KT 10SM CLR 09/M05 A3000 950 35 600 360/05 RMK AO2 T00941050
14926KSTC STC20170428182510304/28/17 18:25:31  5-MIN KSTC 290025Z 01004KT 10SM CLR 09/M05 A3001 950 35 500 010/04 RMK AO2 T00941050
14926KSTC STC20170428183010304/28/17 18:30:31  5-MIN KSTC 290030Z 01005KT 10SM CLR 09/M04 A3001 940 38 500 010/05 RMK AO2 T00891044
14926KSTC STC20170428183510304/28/17 18:35:31  5-MIN KSTC 290035Z 01005KT 10SM CLR 09/M05 A3001 940 37 500 010/05 RMK AO2 T00891050
14926KSTC STC20170428184010304/28/17 18:40:31  5-MIN KSTC 290040Z 01004KT 10SM CLR 09/M04 A3001 940 38 500 010/04 RMK AO2 T00891044
14926KSTC STC20170428184510304/28/17 18:45:31  5-MIN KSTC 290045Z 01004KT 10SM CLR 09/M04 A3001 940 38 500 010/04 RMK AO2 T00891044
14926KSTC STC20170428185011004/28/17 18:50:31  5-MIN KSTC 290050Z 03003KT 10SM CLR 09/M04 A3002 940 38 500 020/03 RMK AO2 SLP181 T00891044
14926KSTC STC20170428185510304/28/17 18:55:31  5-MIN KSTC 290055Z 02004KT 10SM CLR 08/M04 A3002 940 40 400 020/04 RMK AO2 T00831044
14926KSTC STC20170428190010304/28/17 19:00:31  5-MIN KSTC 290100Z 01004KT 10SM CLR 08/M04 A3002 930 40 400 010/04 RMK AO2 T00831044
14926KSTC STC20170428190510304/28/17 19:05:31  5-MIN KSTC 290105Z 02004KT 10SM CLR 08/M04 A3002 930 40 400 020/04 RMK AO2 T00831044
14926KSTC STC20170428191010304/28/17 19:10:31  5-MIN KSTC 290110Z 01004KT 10SM CLR 08/M04 A3003 930 42 400 010/04 RMK AO2 T00831039
14926KSTC STC20170428191510304/28/17 19:15:31  5-MIN KSTC 290115Z 36004KT 10SM CLR 07/M03 A3003 930 47 300 360/04 RMK AO2 T00721033
14926KSTC STC20170428192010304/28/17 19:20:31  5-MIN KSTC 290120Z 36004KT 10SM CLR 07/M03 A3003 920 47 200 360/04 RMK AO2 T00721033
14926KSTC STC20170428192510304/28/17 19:25:31  5-MIN KSTC 290125Z 01004KT 10SM CLR 07/M03 A3004 920 47 200 010/04 RMK AO2 T00721033
14926KSTC STC20170428193010304/28/17 19:30:31  5-MIN KSTC 290130Z 01004KT 10SM CLR 07/M03 A3004 910 47 200 010/04 RMK AO2 T00721033
14926KSTC STC20170428193510304/28/17 19:35:31  5-MIN KSTC 290135Z 01005KT 10SM CLR 07/M03 A3005 910 47 200 010/05 RMK AO2 T00721033
14926KSTC STC20170428194010304/28/17 19:40:31  5-MIN KSTC 290140Z 01003KT 10SM CLR 07/M03 A3005 910 47 200 010/03 RMK AO2 T00721033
14926KSTC STC20170428194510304/28/17 19:45:31  5-MIN KSTC 290145Z 01004KT 10SM CLR 07/M04 A3006 900 45 200 010/04 RMK AO2 T00721039
14926KSTC STC20170428195011004/28/17 19:50:31  5-MIN KSTC 290150Z 36004KT 10SM CLR 07/M03 A3006 900 49 200 360/04 RMK AO2 SLP195 T00671033
14926KSTC STC20170428195510304/28/17 19:55:31  5-MIN KSTC 290155Z 01005KT 10SM CLR 06/M03 A3006 900 51 100 010/05 RMK AO2 T00611033
14926KSTC STC20170428200010304/28/17 20:00:31  5-MIN KSTC 290200Z 01005KT 10SM CLR 07/M04 A3006 900 47 100 010/05 RMK AO2 T00671039
14926KSTC STC20170428200510304/28/17 20:05:31  5-MIN KSTC 290205Z 01006KT 10SM CLR 07/M04 A3006 890 47 100 010/06 RMK AO2 T00671039
14926KSTC STC20170428201010304/28/17 20:10:31  5-MIN KSTC 290210Z 01005KT 10SM CLR 07/M04 A3007 890 47 100 010/05 RMK AO2 T00671039
14926KSTC STC20170428201510304/28/17 20:15:31  5-MIN KSTC 290215Z 02004KT 10SM CLR 07/M04 A3008 880 47 100 010/04 RMK AO2 T00671039
14926KSTC STC20170428202010304/28/17 20:20:31  5-MIN KSTC 290220Z 01005KT 10SM CLR 07/M04 A3008 880 47 100 010/05 RMK AO2 T00671039
14926KSTC STC20170428202510304/28/17 20:25:31  5-MIN KSTC 290225Z 01005KT 10SM CLR 06/M04 A3008 880 48 100 010/05 RMK AO2 T00611039
14926KSTC STC20170428203010304/28/17 20:30:31  5-MIN KSTC 290230Z 01006KT 10SM CLR 06/M04 A3009 870 48 100 010/06 RMK AO2 T00611039
14926KSTC STC20170428203510104/28/17 20:35:31  5-MIN KSTC 290235Z 01006KT 10SM CLR 06/M04 A3009 870 48 0 010/06 RMK AO2 T00611039
14926KSTC STC20170428204010104/28/17 20:40:31  5-MIN KSTC 290240Z 01005KT 10SM CLR 06/M04 A3009 870 48 0 010/05 RMK AO2 T00611039
14926KSTC STC20170428204510104/28/17 20:45:31  5-MIN KSTC 290245Z 01005KT 10SM CLR 06/M04 A3010 860 48 0 010/05 RMK AO2 T00611039
14926KSTC STC20170428205011404/28/17 20:50:31  5-MIN KSTC 290250Z 02005KT 10SM CLR 06/M03 A3010 860 53 0 020/05 RMK AO2 SLP208 T00561033 53012
14926KSTC STC20170428205510104/28/17 20:55:31  5-MIN KSTC 290255Z 01005KT 10SM CLR 06/M04 A3010 860 48 0 010/05 RMK AO2 T00611039
14926KSTC STC20170428210010104/28/17 21:00:31  5-MIN KSTC 290300Z 01006KT 10SM CLR 05/M03 A3010 860 55 0 010/06 RMK AO2 T00501033
14926KSTC STC20170428210510104/28/17 21:05:31  5-MIN KSTC 290305Z 01006KT 10SM CLR 06/M04 A3010 860 50 0 010/06 RMK AO2 T00561039
14926KSTC STC20170428211010104/28/17 21:10:31  5-MIN KSTC 290310Z 01006KT 10SM CLR 06/M04 A3010 860 46 0 010/06 RMK AO2 T00611044
14926KSTC STC20170428211510304/28/17 21:15:31  5-MIN KSTC 290315Z 01006KT 10SM CLR 07/M04 A3010 860 45 100 010/06 RMK AO2 T00671044
14926KSTC STC20170428212010104/28/17 21:20:31  5-MIN KSTC 290320Z 02007KT 10SM CLR 06/M04 A3010 860 46 0 010/07 RMK AO2 T00611044
14926KSTC STC20170428212510104/28/17 21:25:31  5-MIN KSTC 290325Z 02006KT 10SM CLR 06/M04 A3010 860 46 0 020/06 RMK AO2 T00611044
14926KSTC STC20170428213010104/28/17 21:30:31  5-MIN KSTC 290330Z 01005KT 10SM CLR 06/M04 A3011 860 48 0 010/05 RMK AO2 T00561044
14926KSTC STC20170428213510104/28/17 21:35:31  5-MIN KSTC 290335Z 02005KT 10SM CLR 06/M04 A3011 850 48 0 020/05 RMK AO2 T00561044
14926KSTC STC20170428214010104/28/17 21:40:31  5-MIN KSTC 290340Z 02004KT 10SM CLR 06/M04 A3011 850 48 0 020/04 RMK AO2 T00561044
14926KSTC STC20170428214510104/28/17 21:45:31  5-MIN KSTC 290345Z 02004KT 10SM CLR 06/M04 A3011 850 48 0 020/04 RMK AO2 T00561044
14926KSTC STC20170428215011104/28/17 21:50:31  5-MIN KSTC 290350Z 01005KT 10SM CLR 05/M04 A3012 850 50 -100 010/05 RMK AO2 SLP215 T00501044
14926KSTC STC20170428215510404/28/17 21:55:31  5-MIN KSTC 290355Z 01005KT 10SM CLR 04/M04 A3012 840 52 -100 010/05 RMK AO2 T00441044
14926KSTC STC20170428220010904/28/17 22:00:31  5-MIN KSTC 290400Z AUTO 02004KT 10SM CLR 05/M04 A3012 840 50 -100 020/04 RMK AO2 T00501044
14926KSTC STC20170428220510904/28/17 22:05:31  5-MIN KSTC 290405Z AUTO 03005KT 10SM CLR 05/M05 A3012 840 48 -100 020/05 RMK AO2 T00501050
14926KSTC STC20170428221010604/28/17 22:10:31  5-MIN KSTC 290410Z AUTO 03006KT 10SM CLR 06/M05 A3012 840 46 0 030/06 RMK AO2 T00561050
14926KSTC STC20170428221510604/28/17 22:15:31  5-MIN KSTC 290415Z AUTO 02006KT 10SM CLR 06/M05 A3012 840 46 0 020/06 RMK AO2 T00561050
14926KSTC STC20170428222010604/28/17 22:20:31  5-MIN KSTC 290420Z AUTO 01007KT 10SM CLR 06/M05 A3013 840 46 0 010/07 RMK AO2 T00561050
14926KSTC STC20170428222510904/28/17 22:25:31  5-MIN KSTC 290425Z AUTO 01006KT 10SM CLR 05/M05 A3013 830 48 -100 010/06 RMK AO2 T00501050
14926KSTC STC20170428223010904/28/17 22:30:31  5-MIN KSTC 290430Z AUTO 36006KT 10SM CLR 04/M04 A3014 830 52 -200 360/06 RMK AO2 T00441044
14926KSTC STC20170428223510904/28/17 22:35:31  5-MIN KSTC 290435Z AUTO 01006KT 10SM CLR 04/M04 A3014 830 52 -200 010/06 RMK AO2 T00441044
14926KSTC STC20170428224010904/28/17 22:40:31  5-MIN KSTC 290440Z AUTO 01006KT 10SM CLR 04/M05 A3014 820 52 -200 010/06 RMK AO2 T00391050
14926KSTC STC20170428224510904/28/17 22:45:31  5-MIN KSTC 290445Z AUTO 01006KT 10SM CLR 04/M05 A3014 820 52 -200 010/06 RMK AO2 T00391050
14926KSTC STC20170428225011604/28/17 22:50:31  5-MIN KSTC 290450Z AUTO 01007KT 10SM CLR 04/M05 A3014 820 52 -200 010/07 RMK AO2 SLP224 T00391050
14926KSTC STC20170428225510904/28/17 22:55:31  5-MIN KSTC 290455Z AUTO 01007KT 10SM CLR 04/M05 A3014 820 52 -200 010/07 RMK AO2 T00391050
14926KSTC STC20170428230010904/28/17 23:00:31  5-MIN KSTC 290500Z AUTO 01006KT 10SM CLR 04/M05 A3014 820 52 -200 010/06 RMK AO2 T00391050
14926KSTC STC20170428230510904/28/17 23:05:31  5-MIN KSTC 290505Z AUTO 01005KT 10SM CLR 04/M05 A3015 820 52 -200 010/05 RMK AO2 T00391050
14926KSTC STC20170428231010904/28/17 23:10:31  5-MIN KSTC 290510Z AUTO 01006KT 10SM CLR 04/M05 A3015 810 50 -200 010/06 RMK AO2 T00441050
14926KSTC STC20170428231510904/28/17 23:15:31  5-MIN KSTC 290515Z AUTO 02006KT 10SM CLR 04/M05 A3015 810 50 -200 020/06 RMK AO2 T00441050
14926KSTC STC20170428232010904/28/17 23:20:31  5-MIN KSTC 290520Z AUTO 02006KT 10SM CLR 04/M05 A3016 810 50 -200 020/06 RMK AO2 T00441050
14926KSTC STC20170428232510904/28/17 23:25:31  5-MIN KSTC 290525Z AUTO 02007KT 10SM CLR 05/M06 A3016 810 46 -100 020/07 RMK AO2 T00501056
14926KSTC STC20170428233010904/28/17 23:30:31  5-MIN KSTC 290530Z AUTO 02007KT 10SM CLR 05/M06 A3016 800 46 -100 020/07 RMK AO2 T00501056
14926KSTC STC20170428233510904/28/17 23:35:31  5-MIN KSTC 290535Z AUTO 02007KT 10SM CLR 05/M05 A3017 800 48 -100 020/07 RMK AO2 T00501050
14926KSTC STC20170428234010904/28/17 23:40:31  5-MIN KSTC 290540Z AUTO 02006KT 10SM CLR 05/M05 A3017 800 48 -100 020/06 RMK AO2 T00501050
14926KSTC STC20170428234510904/28/17 23:45:31  5-MIN KSTC 290545Z AUTO 03006KT 10SM CLR 04/M05 A3017 790 50 -200 030/06 RMK AO2 T00441050
14926KSTC STC20170428235014404/28/17 23:50:31  5-MIN KSTC 290550Z AUTO 04005KT 10SM CLR 04/M05 A3018 790 50 -200 030/05 RMK AO2 SLP236 T00441050 10100 20039 401111011 53035
14926KSTC STC20170428235510904/28/17 23:55:31  5-MIN KSTC 290555Z AUTO 04005KT 10SM CLR 04/M05 A3018 780 50 -200 030/05 RMK AO2 T00441050
14926KSTC STC20170429000010904/29/17 00:00:31  5-MIN KSTC 290600Z AUTO 04007KT 10SM CLR 04/M04 A3018 780 52 -200 040/07 RMK AO2 T00441044
14926KSTC STC20170429000510904/29/17 00:05:31  5-MIN KSTC 290605Z AUTO 04007KT 10SM CLR 04/M04 A3019 780 52 -200 040/07 RMK AO2 T00441044
14926KSTC STC20170429001010904/29/17 00:10:31  5-MIN KSTC 290610Z AUTO 04007KT 10SM CLR 04/M04 A3019 780 52 -200 040/07 RMK AO2 T00441044
14926KSTC STC20170429001510904/29/17 00:15:31  5-MIN KSTC 290615Z AUTO 04006KT 10SM CLR 04/M04 A3019 780 52 -200 040/06 RMK AO2 T00441044
14926KSTC STC20170429002010904/29/17 00:20:31  5-MIN KSTC 290620Z AUTO 05006KT 10SM CLR 04/M04 A3019 780 57 -300 050/06 RMK AO2 T00391039
14926KSTC STC20170429002510904/29/17 00:25:31  5-MIN KSTC 290625Z AUTO 05006KT 10SM CLR 04/M04 A3019 780 57 -300 050/06 RMK AO2 T00391039
14926KSTC STC20170429003010904/29/17 00:30:31  5-MIN KSTC 290630Z AUTO 04006KT 10SM CLR 04/M04 A3018 780 57 -300 040/06 RMK AO2 T00391039
14926KSTC STC20170429003510904/29/17 00:35:31  5-MIN KSTC 290635Z AUTO 05006KT 10SM CLR 04/M04 A3018 790 57 -300 040/06 RMK AO2 T00391039
14926KSTC STC20170429004010904/29/17 00:40:31  5-MIN KSTC 290640Z AUTO 05007KT 10SM CLR 04/M04 A3017 790 57 -300 050/07 RMK AO2 T00391039
14926KSTC STC20170429004510904/29/17 00:45:31  5-MIN KSTC 290645Z AUTO 04007KT 10SM CLR 04/M04 A3017 800 57 -300 040/07 RMK AO2 T00391039
14926KSTC STC20170429005011604/29/17 00:50:31  5-MIN KSTC 290650Z AUTO 04006KT 10SM CLR 04/M04 A3017 800 57 -300 040/06 RMK AO2 SLP233 T00391039
14926KSTC STC20170429005510904/29/17 00:55:31  5-MIN KSTC 290655Z AUTO 06005KT 10SM CLR 04/M04 A3018 790 57 -300 060/05 RMK AO2 T00391039
14926KSTC STC20170429010010904/29/17 01:00:31  5-MIN KSTC 290700Z AUTO 06005KT 10SM CLR 04/M04 A3018 790 57 -300 060/05 RMK AO2 T00391039
14926KSTC STC20170429010510904/29/17 01:05:31  5-MIN KSTC 290705Z AUTO 06006KT 10SM CLR 04/M04 A3018 790 57 -300 060/06 RMK AO2 T00391039
14926KSTC STC20170429011010904/29/17 01:10:31  5-MIN KSTC 290710Z AUTO 07004KT 10SM CLR 03/M04 A3018 780 59 -400 070/04 RMK AO2 T00331039
14926KSTC STC20170429011510904/29/17 01:15:31  5-MIN KSTC 290715Z AUTO 07005KT 10SM CLR 03/M04 A3019 780 59 -400 070/05 RMK AO2 T00331039
14926KSTC STC20170429012010904/29/17 01:20:31  5-MIN KSTC 290720Z AUTO 07004KT 10SM CLR 03/M04 A3019 770 59 -400 060/04 RMK AO2 T00331039
14926KSTC STC20170429012510904/29/17 01:25:31  5-MIN KSTC 290725Z AUTO 07004KT 10SM CLR 03/M04 A3020 770 59 -400 070/04 RMK AO2 T00331039
14926KSTC STC20170429013011604/29/17 01:30:31  5-MIN KSTC 290730Z AUTO 08003KT 10SM CLR 03/M04 A3021 760 59 -400 080/03 RMK AO2 PRESRR T00331039
14926KSTC STC20170429013510904/29/17 01:35:31  5-MIN KSTC 290735Z AUTO 06003KT 10SM CLR 03/M04 A3022 750 59 -400 060/03 RMK AO2 T00331039
14926KSTC STC20170429014010904/29/17 01:40:31  5-MIN KSTC 290740Z AUTO 06004KT 10SM CLR 03/M04 A3021 760 59 -400 060/04 RMK AO2 T00331039
14926KSTC STC20170429014510904/29/17 01:45:31  5-MIN KSTC 290745Z AUTO 06004KT 10SM CLR 03/M04 A3022 750 61 -500 060/04 RMK AO2 T00281039
14926KSTC STC20170429015011604/29/17 01:50:31  5-MIN KSTC 290750Z AUTO 06003KT 10SM CLR 03/M04 A3022 750 61 -500 060/03 RMK AO2 SLP248 T00281039
14926KSTC STC20170429015510904/29/17 01:55:31  5-MIN KSTC 290755Z AUTO 06003KT 10SM CLR 03/M04 A3022 750 61 -500 060/03 RMK AO2 T00281039
14926KSTC STC20170429020010904/29/17 02:00:31  5-MIN KSTC 290800Z AUTO 07003KT 10SM CLR 03/M04 A3022 750 61 -500 070/03 RMK AO2 T00281039
14926KSTC STC20170429020510904/29/17 02:05:31  5-MIN KSTC 290805Z AUTO 07004KT 10SM CLR 03/M04 A3022 750 61 -500 070/04 RMK AO2 T00281039
14926KSTC STC20170429021010904/29/17 02:10:31  5-MIN KSTC 290810Z AUTO 08004KT 10SM CLR 02/M04 A3022 750 64 -500 080/04 RMK AO2 T00221039
14926KSTC STC20170429021510904/29/17 02:15:31  5-MIN KSTC 290815Z AUTO 08004KT 10SM CLR 02/M04 A3022 750 64 -500 070/04 RMK AO2 T00221039
14926KSTC STC20170429022010904/29/17 02:20:31  5-MIN KSTC 290820Z AUTO 07003KT 10SM CLR 02/M04 A3022 750 64 -500 070/03 RMK AO2 T00221039
14926KSTC STC20170429022510904/29/17 02:25:31  5-MIN KSTC 290825Z AUTO 06004KT 10SM CLR 02/M04 A3022 750 64 -500 060/04 RMK AO2 T00221039
14926KSTC STC20170429023010904/29/17 02:30:31  5-MIN KSTC 290830Z AUTO 06003KT 10SM CLR 02/M04 A3021 760 64 -500 060/03 RMK AO2 T00221039
14926KSTC STC20170429023510904/29/17 02:35:31  5-MIN KSTC 290835Z AUTO 06005KT 10SM CLR 02/M04 A3020 760 64 -500 060/05 RMK AO2 T00221039
14926KSTC STC20170429024010904/29/17 02:40:31  5-MIN KSTC 290840Z AUTO 05006KT 10SM CLR 02/M04 A3020 770 64 -500 050/06 RMK AO2 T00221039
14926KSTC STC20170429024510904/29/17 02:45:31  5-MIN KSTC 290845Z AUTO 05005KT 10SM CLR 02/M04 A3020 770 66 -600 040/05 RMK AO2 T00171039
14926KSTC STC20170429025012204/29/17 02:50:31  5-MIN KSTC 290850Z AUTO 06004KT 10SM CLR 02/M04 A3019 770 66 -600 060/04 RMK AO2 SLP241 T00171039 53029
14926KSTC STC20170429025510904/29/17 02:55:31  5-MIN KSTC 290855Z AUTO 07003KT 10SM CLR 02/M04 A3020 770 66 -600 070/03 RMK AO2 T00171039
14926KSTC STC20170429030010904/29/17 03:00:31  5-MIN KSTC 290900Z AUTO VRB04KT 10SM CLR 02/M04 A3020 770 66 -600 VRB/04 RMK AO2 T00171039
14926KSTC STC20170429030510904/29/17 03:05:31  5-MIN KSTC 290905Z AUTO 06004KT 10SM CLR 02/M04 A3020 770 66 -600 060/04 RMK AO2 T00171039
14926KSTC STC20170429031010904/29/17 03:10:31  5-MIN KSTC 290910Z AUTO 06004KT 10SM CLR 02/M04 A3020 770 66 -600 060/04 RMK AO2 T00171039
14926KSTC STC20170429031510904/29/17 03:15:31  5-MIN KSTC 290915Z AUTO VRB03KT 10SM CLR 02/M03 A3021 760 69 -600 VRB/03 RMK AO2 T00171033
14926KSTC STC20170429032010904/29/17 03:20:31  5-MIN KSTC 290920Z AUTO 06003KT 10SM CLR 02/M03 A3021 760 69 -600 060/03 RMK AO2 T00171033
14926KSTC STC20170429032510904/29/17 03:25:31  5-MIN KSTC 290925Z AUTO 07003KT 10SM CLR 02/M03 A3021 760 69 -600 070/03 RMK AO2 T00171033
14926KSTC STC20170429033010904/29/17 03:30:31  5-MIN KSTC 290930Z AUTO 00000KT 10SM CLR 02/M03 A3021 760 69 -600 000/00 RMK AO2 T00171033
14926KSTC STC20170429033510904/29/17 03:35:31  5-MIN KSTC 290935Z AUTO 00000KT 10SM CLR 02/M03 A3020 770 69 -600 000/00 RMK AO2 T00171033
14926KSTC STC20170429034010904/29/17 03:40:31  5-MIN KSTC 290940Z AUTO 00000KT 10SM CLR 01/M04 A3020 770 69 -600 000/00 RMK AO2 T00111039
14926KSTC STC20170429034510904/29/17 03:45:31  5-MIN KSTC 290945Z AUTO 00000KT 10SM CLR 01/M03 A3020 770 72 -700 000/00 RMK AO2 T00111033
14926KSTC STC20170429035011604/29/17 03:50:31  5-MIN KSTC 290950Z AUTO 00000KT 10SM CLR 01/M04 A3021 760 69 -700 000/00 RMK AO2 SLP246 T00111039
14926KSTC STC20170429035510904/29/17 03:55:31  5-MIN KSTC 290955Z AUTO 00000KT 10SM CLR 01/M04 A3021 760 72 -700 000/00 RMK AO2 T00061039
14926KSTC STC20170429040010904/29/17 04:00:31  5-MIN KSTC 291000Z AUTO 00000KT 10SM CLR 00/M04 A3020 770 75 -800 000/00 RMK AO2 T00001039
14926KSTC STC20170429040511004/29/17 04:05:31  5-MIN KSTC 291005Z AUTO 01003KT 10SM CLR M01/M04 A3020 770 78 -900 010/03 RMK AO2 T10061039
14926KSTC STC20170429041011004/29/17 04:10:31  5-MIN KSTC 291010Z AUTO 36003KT 10SM CLR M01/M04 A3020 770 81 -900 360/03 RMK AO2 T10111039
14926KSTC STC20170429041511004/29/17 04:15:31  5-MIN KSTC 291015Z AUTO 00000KT 10SM CLR M01/M04 A3020 770 81 -900 000/00 RMK AO2 T10111039
14926KSTC STC20170429042011104/29/17 04:20:31  5-MIN KSTC 291020Z AUTO 00000KT 10SM CLR M02/M04 A3020 770 85 -1000 000/00 RMK AO2 T10171039
14926KSTC STC20170429042511004/29/17 04:25:31  5-MIN KSTC 291025Z AUTO 00000KT 10SM CLR M01/M04 A3021 760 81 -900 000/00 RMK AO2 T10111039
14926KSTC STC20170429043011004/29/17 04:30:31  5-MIN KSTC 291030Z AUTO 00000KT 10SM CLR M01/M03 A3021 760 85 -900 000/00 RMK AO2 T10111033
14926KSTC STC20170429043511104/29/17 04:35:31  5-MIN KSTC 291035Z AUTO 36003KT 10SM CLR M02/M03 A3021 760 88 -1000 360/03 RMK AO2 T10171033
14926KSTC STC20170429044011104/29/17 04:40:31  5-MIN KSTC 291040Z AUTO 36003KT 10SM CLR M02/M03 A3021 760 88 -1000 360/03 RMK AO2 T10171033
14926KSTC STC20170429044511104/29/17 04:45:31  5-MIN KSTC 291045Z AUTO 00000KT 10SM CLR M02/M03 A3022 750 88 -1000 000/00 RMK AO2 T10171033
14926KSTC STC20170429045012504/29/17 04:50:31  5-MIN KSTC 291050Z AUTO 00000KT 10SM CLR M02/M04 A3023 740 88 -1100 000/00 RMK AO2 PRESRR SLP255 T10221039
14926KSTC STC20170429045511804/29/17 04:55:31  5-MIN KSTC 291055Z AUTO 00000KT 10SM CLR M02/M03 A3024 730 88 -1000 000/00 RMK AO2 PRESRR T10171033
14926KSTC STC20170429050011104/29/17 05:00:31  5-MIN KSTC 291100Z AUTO 00000KT 10SM CLR M01/M04 A3024 730 81 -1000 000/00 RMK AO2 T10111039
14926KSTC STC20170429050511104/29/17 05:05:31  5-MIN KSTC 291105Z AUTO 00000KT 10SM CLR M02/M04 A3024 730 85 -1000 000/00 RMK AO2 T10171039
14926KSTC STC20170429051011104/29/17 05:10:31  5-MIN KSTC 291110Z AUTO 00000KT 10SM CLR M02/M04 A3024 730 85 -1000 000/00 RMK AO2 T10171039
14926KSTC STC20170429051511104/29/17 05:15:31  5-MIN KSTC 291115Z AUTO 00000KT 10SM CLR M01/M03 A3025 720 85 -1000 000/00 RMK AO2 T10111033
14926KSTC STC20170429052011104/29/17 05:20:31  5-MIN KSTC 291120Z AUTO 00000KT 10SM CLR M01/M03 A3026 710 85 -1000 000/00 RMK AO2 T10111033
14926KSTC STC20170429052511704/29/17 05:25:31  5-MIN KSTC 291125Z AUTO 00000KT 10SM CLR M01/M03 A3027 710 81 -900 000/00 RMK AO2 PRESRR T10061033
14926KSTC STC20170429053011104/29/17 05:30:31  5-MIN KSTC 291130Z AUTO 00000KT 10SM CLR M01/M03 A3027 700 85 -1000 000/00 RMK AO2 T10111033
14926KSTC STC20170429053511104/29/17 05:35:31  5-MIN KSTC 291135Z AUTO 00000KT 10SM CLR M02/M03 A3027 700 88 -1100 000/00 RMK AO2 T10171033
14926KSTC STC20170429054011104/29/17 05:40:31  5-MIN KSTC 291140Z AUTO 00000KT 10SM CLR M01/M03 A3027 700 85 -1000 000/00 RMK AO2 T10111033
14926KSTC STC20170429054511104/29/17 05:45:31  5-MIN KSTC 291145Z AUTO 00000KT 10SM CLR M01/M03 A3027 710 85 -1000 000/00 RMK AO2 T10111033
14926KSTC STC20170429055013104/29/17 05:50:31  5-MIN KSTC 291150Z 36003KT 10SM CLR M01/M03 A3026 710 85 -1000 350/03 RMK AO2 SLP265 T10111033 10044 21022 50005
14926KSTC STC20170429055510604/29/17 05:55:31  5-MIN KSTC 291155Z 36004KT 10SM CLR M01/M03 A3026 710 85 -1000 360/04 RMK AO2 T10111033
14926KSTC STC20170429060010504/29/17 06:00:31  5-MIN KSTC 291200Z 36003KT 10SM CLR M01/M02 A3026 710 88 -900 360/03 RMK AO2 T10061022
14926KSTC STC20170429060510404/29/17 06:05:31  5-MIN KSTC 291205Z 00000KT 10SM CLR 00/M02 A3026 710 85 -900 000/00 RMK AO2 T00001022
14926KSTC STC20170429061010404/29/17 06:10:31  5-MIN KSTC 291210Z 00000KT 10SM CLR 01/M02 A3027 700 82 -700 000/00 RMK AO2 T00111017
14926KSTC STC20170429061510404/29/17 06:15:31  5-MIN KSTC 291215Z 00000KT 10SM CLR 01/M02 A3028 700 82 -700 000/00 RMK AO2 T00111017
14926KSTC STC20170429062010404/29/17 06:20:31  5-MIN KSTC 291220Z 00000KT 10SM CLR 01/M02 A3028 690 82 -700 000/00 RMK AO2 T00111017
14926KSTC STC20170429062510404/29/17 06:25:31  5-MIN KSTC 291225Z 00000KT 10SM CLR 02/M02 A3029 690 78 -700 000/00 RMK AO2 T00171017
14926KSTC STC20170429063010404/29/17 06:30:31  5-MIN KSTC 291230Z 00000KT 10SM CLR 02/M02 A3029 680 78 -700 000/00 RMK AO2 T00171017
14926KSTC STC20170429063510404/29/17 06:35:31  5-MIN KSTC 291235Z 00000KT 10SM CLR 02/M02 A3030 680 78 -700 000/00 RMK AO2 T00171017
14926KSTC STC20170429064010404/29/17 06:40:31  5-MIN KSTC 291240Z 00000KT 10SM CLR 02/M02 A3030 680 72 -600 000/00 RMK AO2 T00221022
14926KSTC STC20170429064510404/29/17 06:45:31  5-MIN KSTC 291245Z 10005KT 10SM CLR 02/M02 A3030 680 72 -600 100/05 RMK AO2 T00221022
14926KSTC STC20170429065011104/29/17 06:50:31  5-MIN KSTC 291250Z 13004KT 10SM CLR 03/M02 A3031 670 69 -600 130/04 RMK AO2 SLP281 T00281022
14926KSTC STC20170429065510404/29/17 06:55:31  5-MIN KSTC 291255Z VRB04KT 10SM CLR 03/M02 A3031 670 69 -600 VRB/04 RMK AO2 T00281022
14926KSTC STC20170429070010404/29/17 07:00:31  5-MIN KSTC 291300Z 12005KT 10SM CLR 03/M02 A3031 670 67 -500 120/05 RMK AO2 T00331022
14926KSTC STC20170429070510404/29/17 07:05:31  5-MIN KSTC 291305Z 10005KT 10SM CLR 03/M02 A3031 660 67 -500 100/05 RMK AO2 T00331022
14926KSTC STC20170429071010404/29/17 07:10:31  5-MIN KSTC 291310Z 11007KT 10SM CLR 03/M02 A3032 660 67 -500 110/07 RMK AO2 T00331022
14926KSTC STC20170429071510404/29/17 07:15:31  5-MIN KSTC 291315Z 14006KT 10SM CLR 04/M02 A3032 660 64 -400 140/06 RMK AO2 T00391022
14926KSTC STC20170429072010404/29/17 07:20:31  5-MIN KSTC 291320Z 11006KT 10SM CLR 04/M02 A3032 650 64 -400 110/06 RMK AO2 T00391022
14926KSTC STC20170429072510404/29/17 07:25:31  5-MIN KSTC 291325Z 14007KT 10SM CLR 04/M02 A3033 650 62 -400 140/07 RMK AO2 T00441022
14926KSTC STC20170429073010404/29/17 07:30:31  5-MIN KSTC 291330Z 14010KT 10SM CLR 04/M02 A3033 650 62 -400 140/10 RMK AO2 T00441022
14926KSTC STC20170429073510404/29/17 07:35:31  5-MIN KSTC 291335Z 12007KT 10SM CLR 04/M03 A3034 640 59 -400 120/07 RMK AO2 T00441028
14926KSTC STC20170429074010404/29/17 07:40:31  5-MIN KSTC 291340Z 13009KT 10SM CLR 05/M03 A3034 640 57 -300 130/09 RMK AO2 T00501028
14926KSTC STC20170429074510404/29/17 07:45:31  5-MIN KSTC 291345Z 13009KT 10SM CLR 05/M03 A3033 650 57 -300 130/09 RMK AO2 T00501028
14926KSTC STC20170429075011104/29/17 07:50:31  5-MIN KSTC 291350Z 13011KT 10SM CLR 05/M03 A3033 650 55 -300 130/11 RMK AO2 SLP289 T00501033
14926KSTC STC20170429075510404/29/17 07:55:31  5-MIN KSTC 291355Z 14009KT 10SM CLR 05/M04 A3034 640 52 -300 140/09 RMK AO2 T00501039
14926KSTC STC20170429080010404/29/17 08:00:31  5-MIN KSTC 291400Z VRB06KT 10SM CLR 06/M03 A3034 640 53 -300 VRB/06 RMK AO2 T00561033
14926KSTC STC20170429080510404/29/17 08:05:31  5-MIN KSTC 291405Z 09007KT 10SM CLR 06/M04 A3033 650 50 -200 090/07 RMK AO2 T00561039
14926KSTC STC20170429081010404/29/17 08:10:31  5-MIN KSTC 291410Z 09006KT 10SM CLR 06/M04 A3034 640 50 -300 090/06 RMK AO2 T00561039
14926KSTC STC20170429081510404/29/17 08:15:31  5-MIN KSTC 291415Z VRB06KT 10SM CLR 06/M04 A3034 640 48 -200 VRB/06 RMK AO2 T00611039
14926KSTC STC20170429082010404/29/17 08:20:31  5-MIN KSTC 291420Z VRB04KT 10SM CLR 06/M04 A3033 650 48 -200 VRB/04 RMK AO2 T00611039
14926KSTC STC20170429082510404/29/17 08:25:31  5-MIN KSTC 291425Z 12007KT 10SM CLR 06/M04 A3033 650 48 -200 120/07 RMK AO2 T00611039
14926KSTC STC20170429083010404/29/17 08:30:31  5-MIN KSTC 291430Z VRB06KT 10SM CLR 06/M05 A3033 650 45 -200 VRB/06 RMK AO2 T00611050
14926KSTC STC20170429083510404/29/17 08:35:31  5-MIN KSTC 291435Z 12008KT 10SM CLR 06/M05 A3033 650 45 -200 120/08 RMK AO2 T00611050
14926KSTC STC20170429084010404/29/17 08:40:31  5-MIN KSTC 291440Z 13005KT 10SM CLR 06/M04 A3033 650 46 -200 130/05 RMK AO2 T00611044
14926KSTC STC20170429084510104/29/17 08:45:31  5-MIN KSTC 291445Z VRB05KT 10SM CLR 07/M04 A3033 650 45 0 VRB/05 RMK AO2 T00721039
14926KSTC STC20170429085013304/29/17 08:50:31  5-MIN KSTC 291450Z 06008KT 040V100 10SM CLR 07/M04 A3033 650 45 -100 060/08 040V100 RMK AO2 SLP289 T00671044 53020
14926KSTC STC20170429085510404/29/17 08:55:31  5-MIN KSTC 291455Z 07006KT 10SM CLR 07/M04 A3033 650 45 -100 070/06 RMK AO2 T00671044
14926KSTC STC20170429090010404/29/17 09:00:31  5-MIN KSTC 291500Z 09007KT 10SM CLR 07/M04 A3033 650 45 -100 090/07 RMK AO2 T00671044
14926KSTC STC20170429090510404/29/17 09:05:31  5-MIN KSTC 291505Z 10006KT 10SM CLR 07/M05 A3033 650 43 -100 100/06 RMK AO2 T00671050
14926KSTC STC20170429091010104/29/17 09:10:31  5-MIN KSTC 291510Z 06009KT 10SM CLR 07/M05 A3033 650 41 0 060/09 RMK AO2 T00721050
14926KSTC STC20170429091510404/29/17 09:15:31  5-MIN KSTC 291515Z 09007KT 10SM CLR 07/M05 A3033 650 43 -100 090/07 RMK AO2 T00671050
14926KSTC STC20170429092010104/29/17 09:20:31  5-MIN KSTC 291520Z 09006KT 10SM CLR 07/M04 A3033 650 43 0 090/06 RMK AO2 T00721044
14926KSTC STC20170429092510104/29/17 09:25:31  5-MIN KSTC 291525Z 09010KT 10SM CLR 08/M04 A3033 650 41 0 090/10 RMK AO2 T00781044
14926KSTC STC20170429093010104/29/17 09:30:31  5-MIN KSTC 291530Z 06007KT 10SM CLR 08/M04 A3033 650 41 0 060/07 RMK AO2 T00781044
14926KSTC STC20170429093510304/29/17 09:35:31  5-MIN KSTC 291535Z VRB05KT 10SM CLR 08/M04 A3032 660 42 100 VRB/05 RMK AO2 T00831039
14926KSTC STC20170429094010104/29/17 09:40:31  5-MIN KSTC 291540Z 09007KT 10SM CLR 08/M04 A3032 660 41 0 090/07 RMK AO2 T00781044
14926KSTC STC20170429094510104/29/17 09:45:31  5-MIN KSTC 291545Z 08009KT 10SM CLR 08/M05 A3032 660 40 0 080/09 RMK AO2 T00781050
14926KSTC STC20170429095011604/29/17 09:50:31  5-MIN KSTC 291550Z 07005G14KT 10SM CLR 08/M04 A3032 660 40 100 060/05G14 RMK AO2 SLP283 T00831044
14926KSTC STC20170429095510304/29/17 09:55:31  5-MIN KSTC 291555Z 03007KT 10SM CLR 08/M04 A3032 660 40 100 030/07 RMK AO2 T00831044
14926KSTC STC20170429100011904/29/17 10:00:31  5-MIN KSTC 291600Z 07007KT 030V090 10SM CLR 09/M04 A3032 660 40 100 070/07 030V090 RMK AO2 T00891039
14926KSTC STC20170429100510304/29/17 10:05:31  5-MIN KSTC 291605Z 09007KT 10SM CLR 09/M04 A3031 670 38 100 090/07 RMK AO2 T00891044
14926KSTC STC20170429101010304/29/17 10:10:31  5-MIN KSTC 291610Z 07008KT 10SM CLR 08/M04 A3030 670 40 100 070/08 RMK AO2 T00831044
14926KSTC STC20170429101510304/29/17 10:15:31  5-MIN KSTC 291615Z 05010KT 10SM CLR 08/M04 A3030 680 40 100 050/10 RMK AO2 T00831044
14926KSTC STC20170429102010304/29/17 10:20:31  5-MIN KSTC 291620Z 08010KT 10SM CLR 08/M04 A3030 680 40 100 080/10 RMK AO2 T00831044
14926KSTC STC20170429102510304/29/17 10:25:31  5-MIN KSTC 291625Z 07007KT 10SM CLR 09/M04 A3029 680 38 200 070/07 RMK AO2 T00891044
14926KSTC STC20170429103010904/29/17 10:30:31  5-MIN KSTC 291630Z 08009G16KT 10SM CLR 09/M05 A3029 690 37 200 070/09G16 RMK AO2 T00891050
14926KSTC STC20170429103510304/29/17 10:35:31  5-MIN KSTC 291635Z 08009KT 10SM CLR 09/M05 A3028 690 37 200 080/09 RMK AO2 T00891050
14926KSTC STC20170429104010304/29/17 10:40:31  5-MIN KSTC 291640Z 06009KT 10SM CLR 09/M05 A3029 690 37 200 060/09 RMK AO2 T00891050
14926KSTC STC20170429104510904/29/17 10:45:31  5-MIN KSTC 291645Z 03011G18KT 10SM CLR 09/M04 A3028 690 37 200 030/11G18 RMK AO2 T00941044
14926KSTC STC20170429105013204/29/17 10:50:31  5-MIN KSTC 291650Z 04009G19KT 010V070 10SM CLR 09/M04 A3028 690 38 200 040/09G19 010V070 RMK AO2 SLP271 T00891044
14926KSTC STC20170429105510904/29/17 10:55:31  5-MIN KSTC 291655Z 05009G19KT 10SM CLR 09/M05 A3029 680 35 200 050/09G19 RMK AO2 T00941050
14926KSTC STC20170429110010904/29/17 11:00:31  5-MIN KSTC 291700Z 07008G17KT 10SM CLR 09/M05 A3030 680 35 200 070/08G17 RMK AO2 T00941050
14926KSTC STC20170429110510304/29/17 11:05:31  5-MIN KSTC 291705Z 07008KT 10SM CLR 09/M05 A3030 680 35 200 070/08 RMK AO2 T00941050
14926KSTC STC20170429111010304/29/17 11:10:31  5-MIN KSTC 291710Z 05009KT 10SM CLR 10/M04 A3030 680 36 300 050/09 RMK AO2 T01001044
14926KSTC STC20170429111511904/29/17 11:15:31  5-MIN KSTC 291715Z 04007KT 010V100 10SM CLR 09/M04 A3030 670 37 200 040/07 010V100 RMK AO2 T00941044
14926KSTC STC20170429112010304/29/17 11:20:31  5-MIN KSTC 291720Z VRB06KT 10SM CLR 10/M04 A3031 670 37 300 VRB/06 RMK AO2 T01001039
14926KSTC STC20170429112510304/29/17 11:25:31  5-MIN KSTC 291725Z 05005KT 10SM CLR 10/M05 A3031 670 34 300 050/05 RMK AO2 T01001050
14926KSTC STC20170429113010304/29/17 11:30:31  5-MIN KSTC 291730Z 03008KT 10SM CLR 10/M04 A3031 670 36 300 020/08 RMK AO2 T01001044
14926KSTC STC20170429113510904/29/17 11:35:31  5-MIN KSTC 291735Z VRB06G15KT 10SM CLR 10/M05 A3031 670 34 300 VRB/06G15 RMK AO2 T01001050
14926KSTC STC20170429114012504/29/17 11:40:31  5-MIN KSTC 291740Z 05010G15KT 030V090 10SM CLR 10/M05 A3031 670 34 300 050/10G15 030V090 RMK AO2 T01001050
14926KSTC STC20170429114511904/29/17 11:45:31  5-MIN KSTC 291745Z 03009KT 360V060 10SM CLR 10/M05 A3031 670 34 300 020/09 360V060 RMK AO2 T01001050
14926KSTC STC20170429115012804/29/17 11:50:31  5-MIN KSTC 291750Z 06008KT 10SM CLR 10/M04 A3031 670 36 300 060/08 RMK AO2 SLP279 T01001044 10100 21011 50024
14926KSTC STC20170429115510304/29/17 11:55:31  5-MIN KSTC 291755Z 07010KT 10SM CLR 10/M04 A3031 670 36 300 070/10 RMK AO2 T01001044
14926KSTC STC20170429120010304/29/17 12:00:31  5-MIN KSTC 291800Z 06010KT 10SM CLR 10/M04 A3031 670 36 300 060/10 RMK AO2 T01001044
14926KSTC STC20170429120510304/29/17 12:05:31  5-MIN KSTC 291805Z 03007KT 10SM CLR 10/M04 A3031 670 36 300 030/07 RMK AO2 T01001044
14926KSTC STC20170429121010304/29/17 12:10:31  5-MIN KSTC 291810Z VRB03KT 10SM CLR 11/M04 A3030 670 34 300 VRB/03 RMK AO2 T01061044
14926KSTC STC20170429121510304/29/17 12:15:31  5-MIN KSTC 291815Z 04009KT 10SM CLR 12/M03 A3030 680 35 500 030/09 RMK AO2 T01171033
14926KSTC STC20170429122010904/29/17 12:20:31  5-MIN KSTC 291820Z 06011G15KT 10SM CLR 11/M04 A3029 680 34 400 060/11G15 RMK AO2 T01111039
14926KSTC STC20170429122510904/29/17 12:25:31  5-MIN KSTC 291825Z 04013G17KT 10SM CLR 11/M04 A3029 690 33 400 040/13G17 RMK AO2 T01111044
14926KSTC STC20170429123010904/29/17 12:30:31  5-MIN KSTC 291830Z 03010G17KT 10SM CLR 11/M04 A3028 690 33 400 030/10G17 RMK AO2 T01111044
14926KSTC STC20170429123510904/29/17 12:35:31  5-MIN KSTC 291835Z 06004G15KT 10SM CLR 11/M04 A3029 690 33 400 060/04G15 RMK AO2 T01111044
14926KSTC STC20170429124010904/29/17 12:40:31  5-MIN KSTC 291840Z 04010G16KT 10SM CLR 11/M04 A3028 690 33 400 040/10G16 RMK AO2 T01111044
14926KSTC STC20170429124510904/29/17 12:45:31  5-MIN KSTC 291845Z 01009G16KT 10SM CLR 12/M04 A3029 690 32 500 010/09G16 RMK AO2 T01171044
14926KSTC STC20170429125011004/29/17 12:50:31  5-MIN KSTC 291850Z 04013KT 10SM CLR 12/M04 A3028 690 32 500 040/13 RMK AO2 SLP270 T01171044
14926KSTC STC20170429125510904/29/17 12:55:31  5-MIN KSTC 291855Z 05013G19KT 10SM CLR 11/M05 A3029 690 32 400 050/13G19 RMK AO2 T01111050
14926KSTC STC20170429130010904/29/17 13:00:31  5-MIN KSTC 291900Z 06008G19KT 10SM CLR 12/M05 A3029 690 30 500 060/08G19 RMK AO2 T01171050
14926KSTC STC20170429130510904/29/17 13:05:31  5-MIN KSTC 291905Z 03009G18KT 10SM CLR 11/M05 A3029 690 32 400 030/09G18 RMK AO2 T01111050
14926KSTC STC20170429131012504/29/17 13:10:31  5-MIN KSTC 291910Z 04007G18KT 350V160 10SM CLR 12/M04 A3029 690 32 600 040/07G18 350V160 RMK AO2 T01221039
14926KSTC STC20170429131510304/29/17 13:15:31  5-MIN KSTC 291915Z 06008KT 10SM CLR 12/M04 A3029 690 32 500 060/08 RMK AO2 T01171044
14926KSTC STC20170429132011904/29/17 13:20:31  5-MIN KSTC 291920Z 06010KT 030V090 10SM CLR 12/M05 A3029 690 30 500 060/10 030V090 RMK AO2 T01171050
14926KSTC STC20170429132510304/29/17 13:25:31  5-MIN KSTC 291925Z 08008KT 10SM CLR 12/M05 A3029 690 30 500 080/08 RMK AO2 T01171050
14926KSTC STC20170429133010304/29/17 13:30:31  5-MIN KSTC 291930Z 07009KT 10SM CLR 12/M05 A3030 680 29 500 070/09 RMK AO2 T01221050
14926KSTC STC20170429133511904/29/17 13:35:31  5-MIN KSTC 291935Z 07010KT 040V100 10SM CLR 12/M05 A3031 670 30 500 070/10 040V100 RMK AO2 T01171050
14926KSTC STC20170429134010304/29/17 13:40:31  5-MIN KSTC 291940Z 08010KT 10SM CLR 12/M05 A3031 670 30 500 080/10 RMK AO2 T01171050
14926KSTC STC20170429134510304/29/17 13:45:31  5-MIN KSTC 291945Z VRB06KT 10SM CLR 12/M05 A3032 660 30 500 VRB/06 RMK AO2 T01171050
14926KSTC STC20170429135011004/29/17 13:50:31  5-MIN KSTC 291950Z 04007KT 10SM CLR 12/M04 A3032 660 31 500 040/07 RMK AO2 SLP281 T01221044
14926KSTC STC20170429135511904/29/17 13:55:31  5-MIN KSTC 291955Z 10009KT 060V130 10SM CLR 12/M06 A3032 660 29 500 100/09 060V130 RMK AO2 T01171056
14926KSTC STC20170429140010304/29/17 14:00:31  5-MIN KSTC 292000Z 06009KT 10SM CLR 12/M05 A3031 660 29 500 060/09 RMK AO2 T01221050
14926KSTC STC20170429140510304/29/17 14:05:31  5-MIN KSTC 292005Z 06009KT 10SM CLR 12/M05 A3031 660 30 500 060/09 RMK AO2 T01171050
14926KSTC STC20170429141010304/29/17 14:10:31  5-MIN KSTC 292010Z 08008KT 10SM CLR 12/M06 A3031 670 29 500 080/08 RMK AO2 T01171056
14926KSTC STC20170429141510304/29/17 14:15:31  5-MIN KSTC 292015Z 07008KT 10SM CLR 12/M05 A3031 670 29 500 070/08 RMK AO2 T01221050
14926KSTC STC20170429142010904/29/17 14:20:31  5-MIN KSTC 292020Z 07007G15KT 10SM CLR 12/M06 A3031 670 28 500 070/07G15 RMK AO2 T01221056
14926KSTC STC20170429142510904/29/17 14:25:31  5-MIN KSTC 292025Z 08010G16KT 10SM CLR 12/M06 A3030 670 28 500 080/10G16 RMK AO2 T01221056
14926KSTC STC20170429143010904/29/17 14:30:31  5-MIN KSTC 292030Z 06005G16KT 10SM CLR 12/M06 A3030 670 28 500 060/05G16 RMK AO2 T01221056
14926KSTC STC20170429143510304/29/17 14:35:31  5-MIN KSTC 292035Z 05007KT 10SM CLR 12/M06 A3030 670 28 500 050/07 RMK AO2 T01221056
14926KSTC STC20170429144010304/29/17 14:40:31  5-MIN KSTC 292040Z 09009KT 10SM CLR 13/M06 A3030 670 27 600 090/09 RMK AO2 T01281056
14926KSTC STC20170429144510304/29/17 14:45:31  5-MIN KSTC 292045Z 07008KT 10SM CLR 12/M06 A3030 670 27 500 070/08 RMK AO2 T01221061
14926KSTC STC20170429145011604/29/17 14:50:31  5-MIN KSTC 292050Z 06007KT 10SM CLR 13/M06 A3031 670 27 600 050/07 RMK AO2 SLP279 T01281056 55007
14926KSTC STC20170429145510304/29/17 14:55:31  5-MIN KSTC 292055Z 02007KT 10SM CLR 13/M06 A3030 670 26 600 010/07 RMK AO2 T01281061
14926KSTC STC20170429150010304/29/17 15:00:31  5-MIN KSTC 292100Z 06006KT 10SM CLR 13/M06 A3030 680 26 700 060/06 RMK AO2 T01331056
14926KSTC STC20170429150510904/29/17 15:05:31  5-MIN KSTC 292105Z 04011G14KT 10SM CLR 13/M06 A3029 680 27 600 040/11G14 RMK AO2 T01281056
14926KSTC STC20170429151011904/29/17 15:10:31  5-MIN KSTC 292110Z 05010KT 010V070 10SM CLR 13/M06 A3029 690 26 600 040/10 010V070 RMK AO2 T01281061
14926KSTC STC20170429151513204/29/17 15:15:31  5-MIN KSTC 292115Z 05012G17KT 030V090 10SM CLR 13/M07 A3028 690 25 600 050/12G17 030V090 RMK AO2 PRESFR T01281067
14926KSTC STC20170429152010904/29/17 15:20:31  5-MIN KSTC 292120Z 06009G17KT 10SM CLR 13/M07 A3028 700 25 600 050/09G17 RMK AO2 T01281067
14926KSTC STC20170429152510304/29/17 15:25:31  5-MIN KSTC 292125Z 05009KT 10SM CLR 13/M07 A3027 700 25 600 050/09 RMK AO2 T01281067
14926KSTC STC20170429153010304/29/17 15:30:31  5-MIN KSTC 292130Z 04007KT 10SM CLR 13/M06 A3027 710 26 700 040/07 RMK AO2 T01331056
14926KSTC STC20170429153511604/29/17 15:35:31  5-MIN KSTC 292135Z 07008G16KT 10SM CLR 13/M06 A3026 710 26 700 070/08G16 RMK AO2 PRESFR T01281061
14926KSTC STC20170429154011004/29/17 15:40:31  5-MIN KSTC 292140Z 04013KT 10SM CLR 13/M07 A3025 720 25 700 040/13 RMK AO2 PRESFR T01281067
14926KSTC STC20170429154511604/29/17 15:45:31  5-MIN KSTC 292145Z 04009G18KT 10SM CLR 13/M07 A3025 730 25 700 040/09G18 RMK AO2 PRESFR T01281067
14926KSTC STC20170429155011604/29/17 15:50:31  5-MIN KSTC 292150Z 05011G18KT 10SM CLR 12/M07 A3024 730 26 600 050/11G18 RMK AO2 SLP256 T01221067
14926KSTC STC20170429155510904/29/17 15:55:31  5-MIN KSTC 292155Z 05011G18KT 10SM CLR 12/M07 A3024 730 26 600 050/11G18 RMK AO2 T01221067
14926KSTC STC20170429160012504/29/17 16:00:31  5-MIN KSTC 292200Z 06011G18KT 030V100 10SM CLR 12/M07 A3025 720 26 600 050/11G18 030V100 RMK AO2 T01221067
14926KSTC STC20170429160510904/29/17 16:05:31  5-MIN KSTC 292205Z 05011G17KT 10SM CLR 12/M06 A3025 730 27 600 050/11G17 RMK AO2 T01221061
14926KSTC STC20170429161010904/29/17 16:10:31  5-MIN KSTC 292210Z 05011G17KT 10SM CLR 13/M07 A3024 730 25 700 050/11G17 RMK AO2 T01281067
14926KSTC STC20170429161510904/29/17 16:15:31  5-MIN KSTC 292215Z 06012G18KT 10SM CLR 13/M07 A3024 730 25 700 060/12G18 RMK AO2 T01281067
14926KSTC STC20170429162010904/29/17 16:20:31  5-MIN KSTC 292220Z 07010G18KT 10SM CLR 12/M07 A3023 740 25 600 070/10G18 RMK AO2 T01221072
14926KSTC STC20170429162510904/29/17 16:25:31  5-MIN KSTC 292225Z 06010G18KT 10SM CLR 13/M07 A3023 740 25 700 060/10G18 RMK AO2 T01281067
14926KSTC STC20170429163010904/29/17 16:30:31  5-MIN KSTC 292230Z 04010G16KT 10SM CLR 13/M06 A3023 740 26 700 040/10G16 RMK AO2 T01281061
14926KSTC STC20170429163510304/29/17 16:35:31  5-MIN KSTC 292235Z 04013KT 10SM CLR 13/M07 A3022 750 24 700 040/13 RMK AO2 T01281072
14926KSTC STC20170429164011604/29/17 16:40:31  5-MIN KSTC 292240Z 06010G16KT 10SM CLR 13/M07 A3021 760 25 700 060/10G16 RMK AO2 PRESFR T01281067
14926KSTC STC20170429164511604/29/17 16:45:31  5-MIN KSTC 292245Z 06010G17KT 10SM CLR 13/M07 A3020 770 24 700 050/10G17 RMK AO2 PRESFR T01281072
14926KSTC STC20170429165012304/29/17 16:50:31  5-MIN KSTC 292250Z 04012G17KT 10SM CLR 13/M07 A3020 770 25 700 040/12G17 RMK AO2 PRESFR SLP242 T01281067
14926KSTC STC20170429165510904/29/17 16:55:31  5-MIN KSTC 292255Z 04014G19KT 10SM CLR 13/M07 A3019 770 24 700 040/14G19 RMK AO2 T01281072
14926KSTC STC20170429170010904/29/17 17:00:31  5-MIN KSTC 292300Z 05012G19KT 10SM CLR 12/M07 A3019 780 26 700 050/12G19 RMK AO2 T01221067
14926KSTC STC20170429170510304/29/17 17:05:31  5-MIN KSTC 292305Z 05010KT 10SM CLR 12/M07 A3019 780 26 700 050/10 RMK AO2 T01221067
14926KSTC STC20170429171010904/29/17 17:10:31  5-MIN KSTC 292310Z 06011G19KT 10SM CLR 12/M07 A3019 780 25 700 060/11G19 RMK AO2 T01221072
14926KSTC STC20170429171510904/29/17 17:15:31  5-MIN KSTC 292315Z 05011G19KT 10SM CLR 12/M07 A3018 790 26 700 050/11G19 RMK AO2 T01221067
14926KSTC STC20170429172011604/29/17 17:20:31  5-MIN KSTC 292320Z 05013G21KT 10SM CLR 12/M07 A3017 800 25 700 050/13G21 RMK AO2 PRESFR T01221072
14926KSTC STC20170429172511604/29/17 17:25:31  5-MIN KSTC 292325Z 05011G21KT 10SM CLR 12/M07 A3016 810 25 700 050/11G21 RMK AO2 PRESFR T01221072
14926KSTC STC20170429173011604/29/17 17:30:31  5-MIN KSTC 292330Z 04013G21KT 10SM CLR 12/M08 A3015 820 25 700 040/13G21 RMK AO2 PRESFR T01171078
14926KSTC STC20170429173510904/29/17 17:35:31  5-MIN KSTC 292335Z 04011G21KT 10SM CLR 12/M08 A3015 820 25 700 040/11G21 RMK AO2 T01171078
14926KSTC STC20170429174010904/29/17 17:40:31  5-MIN KSTC 292340Z 04013G20KT 10SM CLR 12/M08 A3014 820 25 700 040/13G20 RMK AO2 T01171078
14926KSTC STC20170429174510904/29/17 17:45:31  5-MIN KSTC 292345Z 04013G20KT 10SM CLR 12/M08 A3014 830 25 700 040/13G20 RMK AO2 T01171078
14926KSTC STC20170429175013404/29/17 17:50:31  5-MIN KSTC 292350Z 05012G23KT 10SM CLR 12/M09 A3014 820 23 700 050/12G23 RMK AO2 SLP222 T01171089 10133 20100 56001
14926KSTC STC20170429175510904/29/17 17:55:31  5-MIN KSTC 292355Z 04014G23KT 10SM CLR 12/M09 A3014 820 23 700 040/14G23 RMK AO2 T01171089
14926KSTC STC20170429180010904/29/17 18:00:31  5-MIN KSTC 300000Z 05009G19KT 10SM CLR 11/M09 A3015 820 23 600 050/09G19 RMK AO2 T01111089
14926KSTC STC20170429180510904/29/17 18:05:31  5-MIN KSTC 300005Z 05016G21KT 10SM CLR 11/M08 A3015 810 25 600 050/16G21 RMK AO2 T01111083
14926KSTC STC20170429181010904/29/17 18:10:31  5-MIN KSTC 300010Z 05013G21KT 10SM CLR 11/M10 A3016 810 22 600 050/13G21 RMK AO2 T01111100
14926KSTC STC20170429181510304/29/17 18:15:31  5-MIN KSTC 300015Z 04012KT 10SM CLR 11/M10 A3016 800 22 600 040/12 RMK AO2 T01111100
14926KSTC STC20170429182010904/29/17 18:20:31  5-MIN KSTC 300020Z 05010G19KT 10SM CLR 11/M10 A3017 800 22 600 040/10G19 RMK AO2 T01111100
14926KSTC STC20170429182510904/29/17 18:25:31  5-MIN KSTC 300025Z 04008G19KT 10SM CLR 11/M09 A3017 790 23 500 040/08G19 RMK AO2 T01061094
14926KSTC STC20170429183010904/29/17 18:30:31  5-MIN KSTC 300030Z 04009G15KT 10SM CLR 11/M10 A3018 790 22 500 040/09G15 RMK AO2 T01061100
14926KSTC STC20170429183510304/29/17 18:35:31  5-MIN KSTC 300035Z 04010KT 10SM CLR 11/M11 A3018 790 21 500 040/10 RMK AO2 T01061106
14926KSTC STC20170429184010904/29/17 18:40:31  5-MIN KSTC 300040Z 05010G16KT 10SM CLR 11/M11 A3019 780 21 500 050/10G16 RMK AO2 T01061106
14926KSTC STC20170429184510304/29/17 18:45:31  5-MIN KSTC 300045Z 05011KT 10SM CLR 11/M11 A3019 780 20 500 050/11 RMK AO2 T01061111
14926KSTC STC20170429185011604/29/17 18:50:31  5-MIN KSTC 300050Z 05010G17KT 10SM CLR 10/M11 A3019 780 21 400 050/10G17 RMK AO2 SLP240 T01001111
14926KSTC STC20170429185510904/29/17 18:55:31  5-MIN KSTC 300055Z 05008G17KT 10SM CLR 10/M11 A3019 770 21 400 050/08G17 RMK AO2 T01001111
14926KSTC STC20170429190010904/29/17 19:00:31  5-MIN KSTC 300100Z 05009G19KT 10SM CLR 10/M11 A3020 770 21 400 050/09G19 RMK AO2 T01001111
14926KSTC STC20170429190510904/29/17 19:05:31  5-MIN KSTC 300105Z 05008G19KT 10SM CLR 10/M11 A3020 770 21 400 050/08G19 RMK AO2 T01001111
14926KSTC STC20170429191010904/29/17 19:10:31  5-MIN KSTC 300110Z 05008G16KT 10SM CLR 10/M11 A3020 770 21 400 050/08G16 RMK AO2 T01001111
14926KSTC STC20170429191510904/29/17 19:15:31  5-MIN KSTC 300115Z 06007G15KT 10SM CLR 10/M11 A3020 770 22 400 060/07G15 RMK AO2 T01001106
14926KSTC STC20170429192010304/29/17 19:20:31  5-MIN KSTC 300120Z 07007KT 10SM CLR 10/M11 A3020 770 22 400 070/07 RMK AO2 T01001106
14926KSTC STC20170429192510304/29/17 19:25:31  5-MIN KSTC 300125Z 07007KT 10SM CLR 09/M10 A3020 770 24 300 070/07 RMK AO2 T00941100
14926KSTC STC20170429193010304/29/17 19:30:31  5-MIN KSTC 300130Z 06009KT 10SM CLR 09/M11 A3020 770 23 300 060/09 RMK AO2 T00941106
14926KSTC STC20170429193510304/29/17 19:35:31  5-MIN KSTC 300135Z 07006KT 10SM CLR 09/M10 A3020 770 24 300 070/06 RMK AO2 T00941100
14926KSTC STC20170429194010304/29/17 19:40:31  5-MIN KSTC 300140Z 07005KT 10SM CLR 09/M10 A3020 770 24 300 070/05 RMK AO2 T00941100
14926KSTC STC20170429194510304/29/17 19:45:31  5-MIN KSTC 300145Z 07006KT 10SM CLR 09/M10 A3020 770 24 300 070/06 RMK AO2 T00941100
14926KSTC STC20170429195011004/29/17 19:50:31  5-MIN KSTC 300150Z 07005KT 10SM CLR 09/M09 A3020 770 25 300 060/05 RMK AO2 SLP243 T00941094
14926KSTC STC20170429195510304/29/17 19:55:31  5-MIN KSTC 300155Z 07007KT 10SM CLR 09/M09 A3021 760 25 300 070/07 RMK AO2 T00941094
14926KSTC STC20170429200010304/29/17 20:00:31  5-MIN KSTC 300200Z 07008KT 10SM CLR 09/M10 A3021 760 24 300 070/08 RMK AO2 T00941100
14926KSTC STC20170429200510304/29/17 20:05:31  5-MIN KSTC 300205Z 07007KT 10SM CLR 09/M10 A3021 760 24 300 070/07 RMK AO2 T00941100
14926KSTC STC20170429201010304/29/17 20:10:31  5-MIN KSTC 300210Z 08007KT 10SM CLR 09/M10 A3022 750 24 300 080/07 RMK AO2 T00941100
14926KSTC STC20170429201510304/29/17 20:15:31  5-MIN KSTC 300215Z 07008KT 10SM CLR 09/M09 A3022 750 26 200 070/08 RMK AO2 T00891094
14926KSTC STC20170429202012604/29/17 20:20:31  5-MIN KSTC 300220Z 07007KT 040V100 10SM CLR 09/M10 A3023 740 25 200 070/07 040V100 RMK AO2 PRESRR T00891100
14926KSTC STC20170429202511004/29/17 20:25:31  5-MIN KSTC 300225Z 08007KT 10SM CLR 09/M09 A3024 740 26 200 080/07 RMK AO2 PRESRR T00891094
14926KSTC STC20170429203010304/29/17 20:30:31  5-MIN KSTC 300230Z 08008KT 10SM CLR 09/M09 A3024 730 26 200 080/08 RMK AO2 T00891094
14926KSTC STC20170429203510304/29/17 20:35:31  5-MIN KSTC 300235Z 07006KT 10SM CLR 09/M09 A3024 740 27 200 070/06 RMK AO2 T00891089
14926KSTC STC20170429204010304/29/17 20:40:31  5-MIN KSTC 300240Z 07007KT 10SM CLR 09/M09 A3023 740 27 200 070/07 RMK AO2 T00891089
14926KSTC STC20170429204510304/29/17 20:45:31  5-MIN KSTC 300245Z 07006KT 10SM CLR 09/M09 A3023 740 27 200 070/06 RMK AO2 T00891089
14926KSTC STC20170429205011604/29/17 20:50:31  5-MIN KSTC 300250Z 07007KT 10SM CLR 09/M08 A3023 740 28 200 070/07 RMK AO2 SLP252 T00891083 56054
14926KSTC STC20170429205510304/29/17 20:55:31  5-MIN KSTC 300255Z 07006KT 10SM CLR 09/M08 A3023 740 28 200 070/06 RMK AO2 T00891083
14926KSTC STC20170429210010304/29/17 21:00:31  5-MIN KSTC 300300Z 07007KT 10SM CLR 08/M08 A3023 740 31 200 070/07 RMK AO2 T00831078
14926KSTC STC20170429210510904/29/17 21:05:31  5-MIN KSTC 300305Z 07007G14KT 10SM CLR 08/M08 A3023 740 31 200 060/07G14 RMK AO2 T00831078
14926KSTC STC20170429211010304/29/17 21:10:31  5-MIN KSTC 300310Z 07008KT 10SM CLR 08/M08 A3022 750 31 200 070/08 RMK AO2 T00831078
14926KSTC STC20170429211510304/29/17 21:15:31  5-MIN KSTC 300315Z 06007KT 10SM CLR 08/M07 A3022 750 32 200 060/07 RMK AO2 T00831072
14926KSTC STC20170429212010304/29/17 21:20:31  5-MIN KSTC 300320Z 07007KT 10SM CLR 08/M07 A3022 750 32 200 070/07 RMK AO2 T00831072
14926KSTC STC20170429212510304/29/17 21:25:31  5-MIN KSTC 300325Z 06008KT 10SM CLR 08/M07 A3022 750 32 200 060/08 RMK AO2 T00831072
14926KSTC STC20170429213010304/29/17 21:30:31  5-MIN KSTC 300330Z 06009KT 10SM CLR 08/M07 A3022 750 32 200 060/09 RMK AO2 T00831072
14926KSTC STC20170429213510304/29/17 21:35:31  5-MIN KSTC 300335Z 07007KT 10SM CLR 08/M07 A3022 750 32 200 070/07 RMK AO2 T00831072
14926KSTC STC20170429214010304/29/17 21:40:31  5-MIN KSTC 300340Z 07007KT 10SM CLR 08/M07 A3022 750 34 200 070/07 RMK AO2 T00831067
14926KSTC STC20170429214510304/29/17 21:45:31  5-MIN KSTC 300345Z 07008KT 10SM CLR 08/M07 A3022 750 34 200 070/08 RMK AO2 T00831067
14926KSTC STC20170429215011004/29/17 21:50:31  5-MIN KSTC 300350Z 07009KT 10SM CLR 08/M07 A3022 750 34 200 070/09 RMK AO2 SLP248 T00831067
14926KSTC STC20170429215510304/29/17 21:55:31  5-MIN KSTC 300355Z 07008KT 10SM CLR 08/M06 A3022 750 36 100 070/08 RMK AO2 T00781061
14926KSTC STC20170429220010304/29/17 22:00:31  5-MIN KSTC 300400Z 06007KT 10SM CLR 08/M06 A3022 750 36 100 060/07 RMK AO2 T00781061
14926KSTC STC20170429220510804/29/17 22:05:31  5-MIN KSTC 300405Z AUTO 06007KT 10SM CLR 08/M06 A3022 750 36 100 060/07 RMK AO2 T00781061
14926KSTC STC20170429221010804/29/17 22:10:31  5-MIN KSTC 300410Z AUTO 06007KT 10SM CLR 08/M06 A3022 750 36 100 060/07 RMK AO2 T00781061
14926KSTC STC20170429221510804/29/17 22:15:31  5-MIN KSTC 300415Z AUTO 07006KT 10SM CLR 08/M06 A3022 750 36 100 060/06 RMK AO2 T00781061
14926KSTC STC20170429222010804/29/17 22:20:31  5-MIN KSTC 300420Z AUTO 05007KT 10SM CLR 08/M06 A3022 750 36 100 050/07 RMK AO2 T00781061
14926KSTC STC20170429222510804/29/17 22:25:31  5-MIN KSTC 300425Z AUTO 05007KT 10SM CLR 08/M06 A3022 750 36 100 050/07 RMK AO2 T00781061
14926KSTC STC20170429223010804/29/17 22:30:31  5-MIN KSTC 300430Z AUTO 05006KT 10SM CLR 08/M06 A3023 740 36 100 050/06 RMK AO2 T00781061
14926KSTC STC20170429223510804/29/17 22:35:31  5-MIN KSTC 300435Z AUTO 05005KT 10SM CLR 08/M06 A3023 740 36 100 050/05 RMK AO2 T00781061
14926KSTC STC20170429224010804/29/17 22:40:31  5-MIN KSTC 300440Z AUTO 04006KT 10SM CLR 08/M06 A3023 740 38 100 040/06 RMK AO2 T00781056
14926KSTC STC20170429224510604/29/17 22:45:31  5-MIN KSTC 300445Z AUTO 04007KT 10SM CLR 07/M06 A3022 750 40 0 040/07 RMK AO2 T00721056
14926KSTC STC20170429225011304/29/17 22:50:31  5-MIN KSTC 300450Z AUTO 05007KT 10SM CLR 07/M06 A3023 740 40 0 050/07 RMK AO2 SLP250 T00721056
14926KSTC STC20170429225510604/29/17 22:55:31  5-MIN KSTC 300455Z AUTO 05007KT 10SM CLR 07/M06 A3022 750 40 0 050/07 RMK AO2 T00721056
14926KSTC STC20170429230010604/29/17 23:00:31  5-MIN KSTC 300500Z AUTO 05006KT 10SM CLR 07/M05 A3022 750 41 0 050/06 RMK AO2 T00721050
14926KSTC STC20170429230510604/29/17 23:05:31  5-MIN KSTC 300505Z AUTO 05008KT 10SM CLR 07/M05 A3021 760 41 0 050/08 RMK AO2 T00721050
14926KSTC STC20170429231010604/29/17 23:10:31  5-MIN KSTC 300510Z AUTO 05008KT 10SM CLR 07/M05 A3021 760 41 0 050/08 RMK AO2 T00721050
14926KSTC STC20170429231510804/29/17 23:15:31  5-MIN KSTC 300515Z AUTO 05007KT 10SM CLR 07/M05 A3020 770 41 100 050/07 RMK AO2 T00721050
14926KSTC STC20170429232010604/29/17 23:20:31  5-MIN KSTC 300520Z AUTO 05010KT 10SM CLR 07/M05 A3020 770 43 0 050/10 RMK AO2 T00671050
14926KSTC STC20170429232510604/29/17 23:25:31  5-MIN KSTC 300525Z AUTO 05009KT 10SM CLR 07/M05 A3020 770 43 0 050/09 RMK AO2 T00671050
14926KSTC STC20170429233010604/29/17 23:30:31  5-MIN KSTC 300530Z AUTO 05009KT 10SM CLR 07/M04 A3020 770 45 0 050/09 RMK AO2 T00671044
14926KSTC STC20170429233510604/29/17 23:35:31  5-MIN KSTC 300535Z AUTO 04008KT 10SM CLR 07/M04 A3020 770 45 0 040/08 RMK AO2 T00671044
14926KSTC STC20170429234010604/29/17 23:40:31  5-MIN KSTC 300540Z AUTO 05010KT 10SM CLR 07/M04 A3019 770 47 0 050/10 RMK AO2 T00671039
14926KSTC STC20170429234510604/29/17 23:45:31  5-MIN KSTC 300545Z AUTO 05008KT 10SM CLR 07/M04 A3019 780 47 0 050/08 RMK AO2 T00671039
14926KSTC STC20170429235014104/29/17 23:50:31  5-MIN KSTC 300550Z AUTO 05007KT 10SM CLR 06/M04 A3019 780 48 0 050/07 RMK AO2 SLP237 T00611039 10117 20061 401331022 51030
14926KSTC STC20170429235510604/29/17 23:55:31  5-MIN KSTC 300555Z AUTO 05007KT 10SM CLR 06/M04 A3019 770 48 0 050/07 RMK AO2 T00611039
14926KSTC STC20170430000010604/30/17 00:00:31  5-MIN KSTC 300600Z AUTO 05008KT 10SM CLR 06/M04 A3019 780 48 0 050/08 RMK AO2 T00611039
14926KSTC STC20170430000511204/30/17 00:05:31  5-MIN KSTC 300605Z AUTO 05007G15KT 10SM CLR 06/M04 A3019 780 48 0 040/07G15 RMK AO2 T00611039
14926KSTC STC20170430001011204/30/17 00:10:31  5-MIN KSTC 300610Z AUTO 04006G15KT 10SM CLR 06/M04 A3019 780 48 0 040/06G15 RMK AO2 T00611039
14926KSTC STC20170430001510604/30/17 00:15:31  5-MIN KSTC 300615Z AUTO 03008KT 10SM CLR 06/M04 A3019 780 48 0 030/08 RMK AO2 T00611039
14926KSTC STC20170430002010604/30/17 00:20:31  5-MIN KSTC 300620Z AUTO 04006KT 10SM CLR 06/M04 A3020 770 48 0 040/06 RMK AO2 T00611039
14926KSTC STC20170430002510604/30/17 00:25:31  5-MIN KSTC 300625Z AUTO 03007KT 10SM CLR 06/M04 A3019 780 48 0 030/07 RMK AO2 T00611039
14926KSTC STC20170430003010604/30/17 00:30:31  5-MIN KSTC 300630Z AUTO 04008KT 10SM CLR 06/M04 A3018 780 48 0 040/08 RMK AO2 T00611039
14926KSTC STC20170430003510604/30/17 00:35:31  5-MIN KSTC 300635Z AUTO 04008KT 10SM CLR 06/M04 A3018 780 48 0 040/08 RMK AO2 T00611039
14926KSTC STC20170430004010904/30/17 00:40:31  5-MIN KSTC 300640Z AUTO 04009KT 10SM CLR 06/M04 A3018 790 50 -100 040/09 RMK AO2 T00561039
14926KSTC STC20170430004510904/30/17 00:45:31  5-MIN KSTC 300645Z AUTO 05009KT 10SM CLR 06/M04 A3017 790 50 -100 040/09 RMK AO2 T00561039
14926KSTC STC20170430005011604/30/17 00:50:31  5-MIN KSTC 300650Z AUTO 05009KT 10SM CLR 06/M04 A3017 790 50 -100 050/09 RMK AO2 SLP232 T00561039
14926KSTC STC20170430005510904/30/17 00:55:31  5-MIN KSTC 300655Z AUTO 05009KT 10SM CLR 06/M04 A3017 800 50 -100 050/09 RMK AO2 T00561039
14926KSTC STC20170430010010904/30/17 01:00:31  5-MIN KSTC 300700Z AUTO 04010KT 10SM CLR 06/M04 A3017 800 48 -100 040/10 RMK AO2 T00561044
14926KSTC STC20170430010510904/30/17 01:05:31  5-MIN KSTC 300705Z AUTO 05008KT 10SM CLR 06/M04 A3017 800 48 -100 050/08 RMK AO2 T00561044
14926KSTC STC20170430011010904/30/17 01:10:31  5-MIN KSTC 300710Z AUTO 04008KT 10SM CLR 06/M04 A3017 790 48 -100 040/08 RMK AO2 T00561044
14926KSTC STC20170430011510904/30/17 01:15:31  5-MIN KSTC 300715Z AUTO 04006KT 10SM CLR 06/M04 A3017 790 48 -100 040/06 RMK AO2 T00561044
14926KSTC STC20170430012010904/30/17 01:20:31  5-MIN KSTC 300720Z AUTO 05008KT 10SM CLR 05/M04 A3017 800 50 -100 040/08 RMK AO2 T00501044
14926KSTC STC20170430012510904/30/17 01:25:31  5-MIN KSTC 300725Z AUTO 05007KT 10SM CLR 05/M04 A3017 800 50 -100 050/07 RMK AO2 T00501044
14926KSTC STC20170430013010904/30/17 01:30:31  5-MIN KSTC 300730Z AUTO 04008KT 10SM CLR 05/M05 A3017 800 48 -100 040/08 RMK AO2 T00501050
14926KSTC STC20170430013510904/30/17 01:35:31  5-MIN KSTC 300735Z AUTO 05007KT 10SM CLR 05/M05 A3017 800 48 -100 050/07 RMK AO2 T00501050
14926KSTC STC20170430014010904/30/17 01:40:31  5-MIN KSTC 300740Z AUTO 05006KT 10SM CLR 05/M05 A3016 810 48 -100 050/06 RMK AO2 T00501050
14926KSTC STC20170430014510904/30/17 01:45:31  5-MIN KSTC 300745Z AUTO 06008KT 10SM CLR 05/M05 A3015 810 48 -100 060/08 RMK AO2 T00501050
14926KSTC STC20170430015011604/30/17 01:50:31  5-MIN KSTC 300750Z AUTO 05007KT 10SM CLR 05/M05 A3015 810 48 -100 050/07 RMK AO2 SLP225 T00501050
14926KSTC STC20170430015510904/30/17 01:55:31  5-MIN KSTC 300755Z AUTO 05009KT 10SM CLR 05/M05 A3015 820 48 -100 050/09 RMK AO2 T00501050
14926KSTC STC20170430020011504/30/17 02:00:31  5-MIN KSTC 300800Z AUTO 05010G16KT 10SM CLR 05/M06 A3015 820 46 -100 050/10G16 RMK AO2 T00501056
14926KSTC STC20170430020510904/30/17 02:05:31  5-MIN KSTC 300805Z AUTO 06009KT 10SM CLR 05/M06 A3014 820 46 -100 060/09 RMK AO2 T00501056
14926KSTC STC20170430021010904/30/17 02:10:31  5-MIN KSTC 300810Z AUTO 06008KT 10SM CLR 05/M06 A3014 820 46 -100 060/08 RMK AO2 T00501056
14926KSTC STC20170430021510904/30/17 02:15:31  5-MIN KSTC 300815Z AUTO 06008KT 10SM CLR 05/M06 A3014 830 46 -100 050/08 RMK AO2 T00501056
14926KSTC STC20170430022010904/30/17 02:20:31  5-MIN KSTC 300820Z AUTO 06008KT 10SM CLR 05/M06 A3013 830 46 -100 060/08 RMK AO2 T00501056
14926KSTC STC20170430022510904/30/17 02:25:31  5-MIN KSTC 300825Z AUTO 05009KT 10SM CLR 05/M06 A3013 830 46 -100 050/09 RMK AO2 T00501056
14926KSTC STC20170430023010904/30/17 02:30:31  5-MIN KSTC 300830Z AUTO 06008KT 10SM CLR 05/M06 A3013 840 46 -100 060/08 RMK AO2 T00501056
14926KSTC STC20170430023510904/30/17 02:35:31  5-MIN KSTC 300835Z AUTO 06009KT 10SM CLR 05/M06 A3013 840 46 -100 060/09 RMK AO2 T00501056
14926KSTC STC20170430024010904/30/17 02:40:31  5-MIN KSTC 300840Z AUTO 06010KT 10SM CLR 05/M06 A3012 840 46 -100 060/10 RMK AO2 T00501056
14926KSTC STC20170430024511504/30/17 02:45:31  5-MIN KSTC 300845Z AUTO 05007G15KT 10SM CLR 05/M06 A3013 840 46 -100 050/07G15 RMK AO2 T00501056
14926KSTC STC20170430025012804/30/17 02:50:31  5-MIN KSTC 300850Z AUTO 05009G15KT 10SM CLR 05/M06 A3013 840 46 -100 050/09G15 RMK AO2 SLP216 T00501056 58014
14926KSTC STC20170430025510904/30/17 02:55:31  5-MIN KSTC 300855Z AUTO 06008KT 10SM CLR 05/M06 A3013 830 46 -100 060/08 RMK AO2 T00501056
14926KSTC STC20170430030010904/30/17 03:00:31  5-MIN KSTC 300900Z AUTO 06007KT 10SM CLR 04/M06 A3013 840 48 -100 060/07 RMK AO2 T00441056
14926KSTC STC20170430030510904/30/17 03:05:31  5-MIN KSTC 300905Z AUTO 06007KT 10SM CLR 04/M06 A3013 840 48 -200 060/07 RMK AO2 T00441056
14926KSTC STC20170430031010904/30/17 03:10:31  5-MIN KSTC 300910Z AUTO 05006KT 10SM CLR 04/M06 A3013 840 48 -100 050/06 RMK AO2 T00441056
14926KSTC STC20170430031510904/30/17 03:15:31  5-MIN KSTC 300915Z AUTO 05007KT 10SM CLR 04/M06 A3012 840 48 -100 050/07 RMK AO2 T00441056
14926KSTC STC20170430032010904/30/17 03:20:31  5-MIN KSTC 300920Z AUTO 07006KT 10SM CLR 04/M06 A3013 840 48 -100 060/06 RMK AO2 T00441056
14926KSTC STC20170430032510904/30/17 03:25:31  5-MIN KSTC 300925Z AUTO 07007KT 10SM CLR 04/M06 A3013 840 48 -100 060/07 RMK AO2 T00441056
14926KSTC STC20170430033010904/30/17 03:30:31  5-MIN KSTC 300930Z AUTO 06008KT 10SM CLR 04/M06 A3013 840 48 -100 060/08 RMK AO2 T00441056
14926KSTC STC20170430033510904/30/17 03:35:31  5-MIN KSTC 300935Z AUTO 07007KT 10SM CLR 04/M06 A3013 840 46 -100 070/07 RMK AO2 T00441061
14926KSTC STC20170430034010904/30/17 03:40:31  5-MIN KSTC 300940Z AUTO 06005KT 10SM CLR 04/M06 A3013 840 46 -100 060/05 RMK AO2 T00441061
14926KSTC STC20170430034510904/30/17 03:45:31  5-MIN KSTC 300945Z AUTO 07008KT 10SM CLR 04/M06 A3012 840 46 -100 070/08 RMK AO2 T00441061
14926KSTC STC20170430035011604/30/17 03:50:31  5-MIN KSTC 300950Z AUTO 05006KT 10SM CLR 04/M06 A3012 840 48 -100 050/06 RMK AO2 SLP214 T00441056
14926KSTC STC20170430035510904/30/17 03:55:31  5-MIN KSTC 300955Z AUTO 06007KT 10SM CLR 04/M06 A3012 840 46 -100 060/07 RMK AO2 T00441061
14926KSTC STC20170430040010904/30/17 04:00:31  5-MIN KSTC 301000Z AUTO 06006KT 10SM CLR 04/M06 A3012 840 46 -100 060/06 RMK AO2 T00441061
14926KSTC STC20170430040510904/30/17 04:05:31  5-MIN KSTC 301005Z AUTO 07006KT 10SM CLR 04/M06 A3012 850 46 -100 070/06 RMK AO2 T00441061
14926KSTC STC20170430041010904/30/17 04:10:31  5-MIN KSTC 301010Z AUTO 07006KT 10SM CLR 04/M06 A3011 850 46 -100 070/06 RMK AO2 T00441061
14926KSTC STC20170430041510904/30/17 04:15:31  5-MIN KSTC 301015Z AUTO 06008KT 10SM CLR 04/M06 A3011 850 46 -100 060/08 RMK AO2 T00441061
14926KSTC STC20170430042010904/30/17 04:20:31  5-MIN KSTC 301020Z AUTO 06007KT 10SM CLR 04/M06 A3010 860 48 -100 060/07 RMK AO2 T00441056
14926KSTC STC20170430042510904/30/17 04:25:31  5-MIN KSTC 301025Z AUTO 06006KT 10SM CLR 04/M06 A3010 860 48 -100 050/06 RMK AO2 T00441056
14926KSTC STC20170430043010904/30/17 04:30:31  5-MIN KSTC 301030Z AUTO 05007KT 10SM CLR 04/M06 A3010 860 46 -100 050/07 RMK AO2 T00441061
14926KSTC STC20170430043510904/30/17 04:35:31  5-MIN KSTC 301035Z AUTO 05008KT 10SM CLR 04/M06 A3010 860 46 -100 050/08 RMK AO2 T00441061
14926KSTC STC20170430044010904/30/17 04:40:31  5-MIN KSTC 301040Z AUTO 06007KT 10SM CLR 04/M06 A3009 870 46 -100 060/07 RMK AO2 T00441061
14926KSTC STC20170430044510904/30/17 04:45:31  5-MIN KSTC 301045Z AUTO 05008KT 10SM CLR 04/M06 A3009 870 50 -200 050/08 RMK AO2 T00391056
14926KSTC STC20170430045011904/30/17 04:50:31  5-MIN KSTC 301050Z AUTO 05007KT 10SM FEW120 04/M06 A3010 860 50 -200 050/07 RMK AO2 SLP205 T00391056
14926KSTC STC20170430045511204/30/17 04:55:31  5-MIN KSTC 301055Z AUTO 04008KT 10SM FEW120 04/M06 A3009 870 50 -200 040/08 RMK AO2 T00391056
14926KSTC STC20170430050010904/30/17 05:00:31  5-MIN KSTC 301100Z AUTO 05009KT 10SM CLR 04/M06 A3009 870 50 -200 050/09 RMK AO2 T00391056
14926KSTC STC20170430050510904/30/17 05:05:31  5-MIN KSTC 301105Z AUTO 05009KT 10SM CLR 04/M06 A3009 870 50 -200 050/09 RMK AO2 T00391056
14926KSTC STC20170430051010904/30/17 05:10:31  5-MIN KSTC 301110Z AUTO 04006KT 10SM CLR 04/M06 A3009 870 50 -200 040/06 RMK AO2 T00391056
14926KSTC STC20170430051511504/30/17 05:15:31  5-MIN KSTC 301115Z AUTO 04007G15KT 10SM CLR 04/M06 A3009 870 50 -200 040/07G15 RMK AO2 T00391056
14926KSTC STC20170430052010904/30/17 05:20:31  5-MIN KSTC 301120Z AUTO 04009KT 10SM CLR 04/M06 A3009 870 50 -200 040/09 RMK AO2 T00391056
14926KSTC STC20170430052510904/30/17 05:25:31  5-MIN KSTC 301125Z AUTO 05007KT 10SM CLR 04/M06 A3008 870 50 -200 040/07 RMK AO2 T00391056
14926KSTC STC20170430053010904/30/17 05:30:31  5-MIN KSTC 301130Z AUTO 05009KT 10SM CLR 04/M06 A3008 880 50 -200 050/09 RMK AO2 T00391056
14926KSTC STC20170430053510904/30/17 05:35:31  5-MIN KSTC 301135Z AUTO 04008KT 10SM CLR 04/M06 A3008 880 50 -200 040/08 RMK AO2 T00391056
14926KSTC STC20170430054010904/30/17 05:40:31  5-MIN KSTC 301140Z AUTO 06006KT 10SM CLR 04/M06 A3008 880 50 -200 060/06 RMK AO2 T00391056
14926KSTC STC20170430054512804/30/17 05:45:31  5-MIN KSTC 301145Z AUTO 05008KT 030V090 10SM FEW120 04/M06 A3008 880 50 -200 050/08 030V090 RMK AO2 T00391056
14926KSTC STC20170430055013204/30/17 05:50:31  5-MIN KSTC 301150Z 05008KT 10SM SCT120 04/M06 A3008 880 50 -200 050/08 RMK AO2 SLP200 T00391056 10061 20039 56021
14926KSTC STC20170430055510704/30/17 05:55:31  5-MIN KSTC 301155Z 06006KT 10SM SCT110 04/M06 A3008 880 48 -200 050/06 RMK AO2 T00391061
14926KSTC STC20170430060010704/30/17 06:00:31  5-MIN KSTC 301200Z 06006KT 10SM SCT110 04/M06 A3007 890 48 -200 060/06 RMK AO2 T00391061
14926KSTC STC20170430060510704/30/17 06:05:31  5-MIN KSTC 301205Z 05008KT 10SM FEW120 04/M06 A3007 890 48 -100 050/08 RMK AO2 T00391061
14926KSTC STC20170430061011404/30/17 06:10:31  5-MIN KSTC 301210Z 05008KT 10SM FEW120 04/M06 A3005 900 48 -100 050/08 RMK AO2 PRESFR T00391061
14926KSTC STC20170430061510704/30/17 06:15:31  5-MIN KSTC 301215Z 05009KT 10SM FEW110 04/M06 A3005 910 48 -100 050/09 RMK AO2 T00391061
14926KSTC STC20170430062010404/30/17 06:20:31  5-MIN KSTC 301220Z 05007KT 10SM CLR 04/M06 A3005 900 48 -100 050/07 RMK AO2 T00391061
14926KSTC STC20170430062510404/30/17 06:25:31  5-MIN KSTC 301225Z 05011KT 10SM CLR 04/M06 A3006 900 48 -100 050/11 RMK AO2 T00391061
14926KSTC STC20170430063010404/30/17 06:30:31  5-MIN KSTC 301230Z 04008KT 10SM CLR 04/M06 A3005 900 50 -100 040/08 RMK AO2 T00391056
14926KSTC STC20170430063510404/30/17 06:35:31  5-MIN KSTC 301235Z 05007KT 10SM CLR 04/M06 A3005 900 48 -100 050/07 RMK AO2 T00391061
14926KSTC STC20170430064010404/30/17 06:40:31  5-MIN KSTC 301240Z 04009KT 10SM CLR 04/M06 A3006 900 48 -100 040/09 RMK AO2 T00391061
14926KSTC STC20170430064510404/30/17 06:45:31  5-MIN KSTC 301245Z 04010KT 10SM CLR 04/M06 A3005 900 50 -100 040/10 RMK AO2 T00391056
14926KSTC STC20170430065011704/30/17 06:50:31  5-MIN KSTC 301250Z 05006G15KT 10SM CLR 04/M06 A3005 900 48 -100 050/06G15 RMK AO2 SLP192 T00391061
14926KSTC STC20170430065510404/30/17 06:55:31  5-MIN KSTC 301255Z 04006KT 10SM CLR 04/M06 A3006 900 50 -100 040/06 RMK AO2 T00391056
14926KSTC STC20170430070010404/30/17 07:00:31  5-MIN KSTC 301300Z 06008KT 10SM CLR 04/M06 A3006 900 50 -100 050/08 RMK AO2 T00391056
14926KSTC STC20170430070510404/30/17 07:05:31  5-MIN KSTC 301305Z 05010KT 10SM CLR 04/M06 A3006 900 50 -100 050/10 RMK AO2 T00391056
14926KSTC STC20170430071010404/30/17 07:10:31  5-MIN KSTC 301310Z 05007KT 10SM CLR 04/M06 A3006 900 50 -100 050/07 RMK AO2 T00391056
14926KSTC STC20170430071510704/30/17 07:15:31  5-MIN KSTC 301315Z 06006KT 10SM FEW120 04/M06 A3007 890 50 -200 060/06 RMK AO2 T00391056
14926KSTC STC20170430072010704/30/17 07:20:31  5-MIN KSTC 301320Z 07007KT 10SM SCT120 04/M06 A3007 880 50 -200 060/07 RMK AO2 T00391056
14926KSTC STC20170430072510704/30/17 07:25:31  5-MIN KSTC 301325Z 07008KT 10SM BKN120 04/M06 A3008 880 50 -200 060/08 RMK AO2 T00391056
14926KSTC STC20170430073010704/30/17 07:30:31  5-MIN KSTC 301330Z 05005KT 10SM BKN110 04/M06 A3008 880 50 -200 050/05 RMK AO2 T00391056
14926KSTC STC20170430073510704/30/17 07:35:31  5-MIN KSTC 301335Z 06006KT 10SM BKN110 04/M05 A3007 880 52 -200 060/06 RMK AO2 T00391050
14926KSTC STC20170430074010704/30/17 07:40:31  5-MIN KSTC 301340Z 07006KT 10SM BKN110 04/M06 A3007 890 50 -200 060/06 RMK AO2 T00391056
14926KSTC STC20170430074510704/30/17 07:45:31  5-MIN KSTC 301345Z 06004KT 10SM BKN110 04/M05 A3007 880 52 -200 060/04 RMK AO2 T00391050
14926KSTC STC20170430075011404/30/17 07:50:31  5-MIN KSTC 301350Z 05006KT 10SM BKN110 04/M05 A3007 890 50 -100 050/06 RMK AO2 SLP198 T00441050
14926KSTC STC20170430075510704/30/17 07:55:31  5-MIN KSTC 301355Z 05008KT 10SM BKN110 04/M05 A3007 890 50 -100 050/08 RMK AO2 T00441050
14926KSTC STC20170430080010704/30/17 08:00:31  5-MIN KSTC 301400Z 04009KT 10SM BKN110 04/M05 A3006 890 50 -100 040/09 RMK AO2 T00441050
14926KSTC STC20170430080510704/30/17 08:05:31  5-MIN KSTC 301405Z 04008KT 10SM BKN110 04/M05 A3006 900 50 -100 040/08 RMK AO2 T00441050
14926KSTC STC20170430081010704/30/17 08:10:31  5-MIN KSTC 301410Z 05009KT 10SM BKN110 04/M05 A3006 900 50 -100 050/09 RMK AO2 T00441050
14926KSTC STC20170430081511304/30/17 08:15:31  5-MIN KSTC 301415Z 04011G16KT 10SM BKN110 04/M05 A3005 900 50 -100 040/11G16 RMK AO2 T00441050
14926KSTC STC20170430082010704/30/17 08:20:31  5-MIN KSTC 301420Z 04012KT 10SM BKN110 04/M05 A3005 900 50 -100 040/12 RMK AO2 T00441050
14926KSTC STC20170430082511304/30/17 08:25:31  5-MIN KSTC 301425Z 04007G15KT 10SM BKN110 04/M05 A3005 910 50 -100 040/07G15 RMK AO2 T00441050
14926KSTC STC20170430083010704/30/17 08:30:31  5-MIN KSTC 301430Z 04011KT 10SM OVC110 04/M05 A3004 910 50 -100 040/11 RMK AO2 T00441050
14926KSTC STC20170430083510704/30/17 08:35:31  5-MIN KSTC 301435Z 05009KT 10SM OVC110 04/M05 A3004 910 50 -100 050/09 RMK AO2 T00441050
14926KSTC STC20170430084011304/30/17 08:40:31  5-MIN KSTC 301440Z 04008G15KT 10SM OVC100 04/M04 A3005 910 52 -100 040/08G15 RMK AO2 T00441044
14926KSTC STC20170430084510404/30/17 08:45:31  5-MIN KSTC 301445Z 05009KT 10SM OVC100 05/M04 A3005 910 50 0 050/09 RMK AO2 T00501044
14926KSTC STC20170430085011704/30/17 08:50:31  5-MIN KSTC 301450Z 05011KT 10SM OVC100 05/M04 A3005 910 50 0 050/11 RMK AO2 SLP190 T00501044 58017
14926KSTC STC20170430085511004/30/17 08:55:31  5-MIN KSTC 301455Z 05007G16KT 10SM OVC100 05/M04 A3005 910 50 0 050/07G16 RMK AO2 T00501044
14926KSTC STC20170430090011004/30/17 09:00:31  5-MIN KSTC 301500Z 04010G16KT 10SM OVC095 05/M04 A3005 910 50 0 040/10G16 RMK AO2 T00501044
14926KSTC STC20170430090511004/30/17 09:05:31  5-MIN KSTC 301505Z 04010G16KT 10SM OVC095 05/M04 A3004 910 50 0 040/10G16 RMK AO2 T00501044
14926KSTC STC20170430091010404/30/17 09:10:31  5-MIN KSTC 301510Z 04009KT 10SM OVC095 05/M04 A3004 920 50 0 040/09 RMK AO2 T00501044
14926KSTC STC20170430091510404/30/17 09:15:31  5-MIN KSTC 301515Z 04009KT 10SM OVC090 05/M04 A3004 910 52 0 040/09 RMK AO2 T00501039
14926KSTC STC20170430092010404/30/17 09:20:31  5-MIN KSTC 301520Z 05009KT 10SM OVC090 05/M04 A3004 920 52 0 050/09 RMK AO2 T00501039
14926KSTC STC20170430092510404/30/17 09:25:31  5-MIN KSTC 301525Z 04009KT 10SM OVC085 05/M04 A3004 920 52 0 040/09 RMK AO2 T00501039
14926KSTC STC20170430093010404/30/17 09:30:31  5-MIN KSTC 301530Z VRB06KT 10SM OVC085 05/M04 A3004 910 52 0 VRB/06 RMK AO2 T00501039
14926KSTC STC20170430093510404/30/17 09:35:31  5-MIN KSTC 301535Z 04006KT 10SM OVC085 05/M04 A3004 910 52 0 040/06 RMK AO2 T00501039
14926KSTC STC20170430094010404/30/17 09:40:31  5-MIN KSTC 301540Z 05010KT 10SM OVC085 05/M03 A3005 910 55 0 040/10 RMK AO2 T00501033
14926KSTC STC20170430094511104/30/17 09:45:31  5-MIN KSTC 301545Z 05008KT 10SM BKN075 OVC090 05/M04 A3005 910 52 0 050/08 RMK AO2 T00501039
14926KSTC STC20170430095011804/30/17 09:50:31  5-MIN KSTC 301550Z 04010KT 10SM BKN070 OVC085 05/M04 A3006 900 52 0 040/10 RMK AO2 SLP193 T00501039
14926KSTC STC20170430095511104/30/17 09:55:31  5-MIN KSTC 301555Z 04007KT 10SM BKN060 OVC085 06/M04 A3006 900 50 0 040/07 RMK AO2 T00561039
14926KSTC STC20170430100011104/30/17 10:00:31  5-MIN KSTC 301600Z 04006KT 10SM BKN060 OVC080 06/M03 A3006 900 53 0 040/06 RMK AO2 T00561033
14926KSTC STC20170430100511804/30/17 10:05:31  5-MIN KSTC 301605Z 05008KT 10SM FEW049 BKN060 OVC075 06/M03 A3006 900 53 0 050/08 RMK AO2 T00561033
14926KSTC STC20170430101011104/30/17 10:10:31  5-MIN KSTC 301610Z 04010KT 10SM BKN050 OVC070 06/M03 A3006 900 53 0 040/10 RMK AO2 T00561033
14926KSTC STC20170430101511104/30/17 10:15:31  5-MIN KSTC 301615Z 04008KT 10SM BKN050 OVC060 06/M03 A3006 900 53 0 040/08 RMK AO2 T00561033
14926KSTC STC20170430102010604/30/17 10:20:31  5-MIN KSTC 301620Z 04009KT 10SM OVC055 06/M03 A3005 900 51 100 040/09 RMK AO2 T00611033
14926KSTC STC20170430102510604/30/17 10:25:31  5-MIN KSTC 301625Z 04009KT 10SM OVC055 06/M03 A3006 900 51 100 040/09 RMK AO2 T00611033
14926KSTC STC20170430103011304/30/17 10:30:31  5-MIN KSTC 301630Z 02009KT 10SM BKN050 OVC060 06/M03 A3005 910 51 100 020/09 RMK AO2 T00611033
14926KSTC STC20170430103510604/30/17 10:35:31  5-MIN KSTC 301635Z 03008KT 10SM OVC050 06/M03 A3005 910 51 100 030/08 RMK AO2 T00611033
14926KSTC STC20170430104011304/30/17 10:40:31  5-MIN KSTC 301640Z 04009KT 10SM FEW043 OVC050 06/M03 A3005 910 51 100 040/09 RMK AO2 T00611033
14926KSTC STC20170430104511304/30/17 10:45:31  5-MIN KSTC 301645Z 04007KT 10SM BKN047 OVC060 06/M03 A3005 900 51 100 030/07 RMK AO2 T00611033
14926KSTC STC20170430105012004/30/17 10:50:31  5-MIN KSTC 301650Z 03007KT 10SM BKN044 OVC050 07/M03 A3006 900 51 200 020/07 RMK AO2 SLP193 T00671028
14926KSTC STC20170430105511304/30/17 10:55:31  5-MIN KSTC 301655Z 02009KT 10SM BKN042 OVC050 07/M03 A3005 910 51 200 020/09 RMK AO2 T00671028
14926KSTC STC20170430110010604/30/17 11:00:31  5-MIN KSTC 301700Z 02011KT 10SM OVC044 07/M03 A3005 910 51 200 020/11 RMK AO2 T00671028
14926KSTC STC20170430110511204/30/17 11:05:31  5-MIN KSTC 301705Z 03011G15KT 10SM OVC042 07/M03 A3004 910 51 200 030/11G15 RMK AO2 T00671028
14926KSTC STC20170430111011304/30/17 11:10:31  5-MIN KSTC 301710Z 01010KT 10SM BKN040 OVC048 07/M03 A3004 920 51 200 010/10 RMK AO2 T00671028
14926KSTC STC20170430111511904/30/17 11:15:31  5-MIN KSTC 301715Z 02009G16KT 10SM BKN040 OVC048 07/M03 A3004 920 51 200 020/09G16 RMK AO2 T00671028
14926KSTC STC20170430112013504/30/17 11:20:31  5-MIN KSTC 301720Z 03010G16KT 350V060 10SM BKN036 OVC048 07/M02 A3003 920 53 200 020/10G16 350V060 RMK AO2 T00671022
14926KSTC STC20170430112512004/30/17 11:25:31  5-MIN KSTC 301725Z 02011KT 10SM BKN034 BKN041 OVC049 07/M03 A3004 920 51 200 020/11 RMK AO2 T00671028
14926KSTC STC20170430113011304/30/17 11:30:31  5-MIN KSTC 301730Z 02009KT 10SM BKN032 OVC041 07/M02 A3003 930 53 200 020/09 RMK AO2 T00671022
14926KSTC STC20170430113513504/30/17 11:35:31  5-MIN KSTC 301735Z 02011G17KT 10SM -RA BKN032 OVC041 07/M02 A3002 930 55 200 020/11G17 RMK AO2 RAB33 P0000 T00671017
14926KSTC STC20170430114012904/30/17 11:40:31  5-MIN KSTC 301740Z 04011KT 10SM -RA BKN032 OVC041 07/M02 A3002 940 55 200 030/11 RMK AO2 RAB33 P0000 T00671017
14926KSTC STC20170430114513504/30/17 11:45:31  5-MIN KSTC 301745Z 03010G16KT 10SM -RA BKN032 OVC039 07/M01 A3001 940 57 300 030/10G16 RMK AO2 RAB33 P0000 T00721006
14926KSTC STC20170430115017304/30/17 11:50:31  5-MIN KSTC 301750Z 04015G22KT 10SM -RA BKN032 BKN041 OVC049 07/M01 A3001 940 57 200 040/15G22 RMK AO2 RAB33 SLP178 P0000 60000 T00671011 10072 20039 58011
14926KSTC STC20170430115514304/30/17 11:55:31  5-MIN KSTC 301755Z 03011G22KT 10SM -RA BKN032 BKN041 OVC049 07/M01 A3000 950 57 200 030/11G22 RMK AO2 PRESFR P0000 T00671011
14926KSTC STC20170430120014304/30/17 12:00:31  5-MIN KSTC 301800Z 04016G22KT 10SM -RA FEW033 BKN041 OVC049 07/M01 A2999 960 60 200 040/16G22 RMK AO2 PRESFR P0000 T00671006
14926KSTC STC20170430120513104/30/17 12:05:31  5-MIN KSTC 301805Z 04009G22KT 10SM FEW036 OVC047 07/M01 A3000 950 57 300 030/09G22 RMK AO2 RAE02 P0000 T00721006
14926KSTC STC20170430121013104/30/17 12:10:31  5-MIN KSTC 301810Z 03013G18KT 10SM BKN042 OVC050 07/M01 A2999 960 57 300 030/13G18 RMK AO2 RAE02 P0000 T00721006
14926KSTC STC20170430121513204/30/17 12:15:31  5-MIN KSTC 301815Z 04013KT 10SM SCT038 BKN047 OVC075 07/M01 A2999 960 57 300 040/13 RMK AO2 RAE02 P0000 T00721006
14926KSTC STC20170430122013204/30/17 12:20:31  5-MIN KSTC 301820Z 04012KT 10SM FEW038 BKN047 OVC070 07/M01 A2999 960 57 300 040/12 RMK AO2 RAE02 P0000 T00721006
14926KSTC STC20170430122513804/30/17 12:25:31  5-MIN KSTC 301825Z 05013G19KT 10SM FEW038 BKN047 OVC070 07/M01 A2999 960 57 300 050/13G19 RMK AO2 RAE02 P0000 T00721006
14926KSTC STC20170430123013804/30/17 12:30:31  5-MIN KSTC 301830Z 04013G19KT 10SM FEW037 BKN045 OVC070 07/M01 A2998 970 57 300 040/13G19 RMK AO2 RAE02 P0000 T00721006
14926KSTC STC20170430123514504/30/17 12:35:31  5-MIN KSTC 301835Z 04015G21KT 10SM FEW037 SCT045 OVC060 08/M01 A2997 980 55 400 040/15G21 RMK AO2 RAE02 PRESFR P0000 T00781006
14926KSTC STC20170430124014504/30/17 12:40:31  5-MIN KSTC 301840Z 06011G21KT 10SM FEW046 BKN055 OVC070 08/M01 A2996 990 53 400 050/11G21 RMK AO2 RAE02 PRESFR P0000 T00781011
14926KSTC STC20170430124513804/30/17 12:45:31  5-MIN KSTC 301845Z 05012G21KT 10SM SCT045 BKN055 OVC065 08/M01 A2996 990 51 500 050/12G21 RMK AO2 RAE02 P0000 T00831011
14926KSTC STC20170430125014504/30/17 12:50:31  5-MIN KSTC 301850Z 05015G23KT 10SM SCT041 BKN050 OVC065 08/M02 A2995 990 49 500 050/15G23 RMK AO2 RAE02 SLP158 P0000 T00831017
14926KSTC STC20170430125512704/30/17 12:55:31  5-MIN KSTC 301855Z 03014G23KT 10SM FEW032 BKN050 OVC065 08/M01 A2995 1000 51 500 030/14G23 RMK AO2 T00831011
14926KSTC STC20170430130012704/30/17 13:00:31  5-MIN KSTC 301900Z 05011G21KT 10SM FEW032 BKN050 OVC100 08/M01 A2995 1000 51 500 050/11G21 RMK AO2 T00831011
14926KSTC STC20170430130513404/30/17 13:05:31  5-MIN KSTC 301905Z 05013G20KT 10SM SCT040 BKN050 OVC095 08/M01 A2994 1010 53 500 050/13G20 RMK AO2 PRESFR T00831006
14926KSTC STC20170430131012704/30/17 13:10:31  5-MIN KSTC 301910Z 05017G23KT 10SM FEW036 BKN043 OVC095 08/M01 A2993 1010 53 500 050/17G23 RMK AO2 T00831006
14926KSTC STC20170430131512004/30/17 13:15:31  5-MIN KSTC 301915Z 05015G24KT 10SM BKN043 OVC095 08/M01 A2993 1020 53 500 050/15G24 RMK AO2 T00831006
14926KSTC STC20170430132012004/30/17 13:20:31  5-MIN KSTC 301920Z 05015G24KT 10SM BKN043 OVC090 08/M01 A2993 1020 53 500 050/15G24 RMK AO2 T00831006
14926KSTC STC20170430132513804/30/17 13:25:31  5-MIN KSTC 301925Z 05018G27KT 10SM SCT045 OVC090 09/M01 A2993 1020 51 600 050/18G27 RMK AO2 PK WND 04027/1924 T00891006
14926KSTC STC20170430133014504/30/17 13:30:31  5-MIN KSTC 301930Z 06016G27KT 10SM SCT043 SCT050 OVC085 08/M01 A2993 1020 53 500 060/16G27 RMK AO2 PK WND 04027/1924 T00831006
14926KSTC STC20170430133514504/30/17 13:35:31  5-MIN KSTC 301935Z 05013G26KT 10SM BKN041 BKN050 OVC085 08/M01 A2992 1020 53 500 050/13G26 RMK AO2 PK WND 04027/1924 T00831006
14926KSTC STC20170430134014504/30/17 13:40:31  5-MIN KSTC 301940Z 05013G26KT 10SM BKN041 BKN050 OVC085 09/M01 A2992 1030 51 600 040/13G26 RMK AO2 PK WND 04027/1924 T00891006
14926KSTC STC20170430134514504/30/17 13:45:31  5-MIN KSTC 301945Z 04015G26KT 10SM BKN039 BKN050 OVC085 09/M01 A2992 1030 51 600 040/15G26 RMK AO2 PK WND 04027/1924 T00891006
14926KSTC STC20170430135015204/30/17 13:50:31  5-MIN KSTC 301950Z 04014G23KT 10SM BKN039 BKN050 OVC085 09/M01 A2992 1030 51 600 040/14G23 RMK AO2 PK WND 04027/1924 SLP145 T00891006
14926KSTC STC20170430135511304/30/17 13:55:31  5-MIN KSTC 301955Z 05014G24KT 10SM OVC039 09/M01 A2991 1040 51 600 050/14G24 RMK AO2 T00891006
14926KSTC STC20170430140011304/30/17 14:00:31  5-MIN KSTC 302000Z 06015G24KT 10SM OVC041 09/M01 A2990 1040 51 600 060/15G24 RMK AO2 T00891006
14926KSTC STC20170430140511304/30/17 14:05:31  5-MIN KSTC 302005Z 05016G24KT 10SM OVC041 09/M01 A2990 1040 49 700 050/16G24 RMK AO2 T00941006
14926KSTC STC20170430141012004/30/17 14:10:31  5-MIN KSTC 302010Z 06016G25KT 10SM BKN041 OVC085 09/M01 A2990 1040 49 600 060/16G25 RMK AO2 T00891011
14926KSTC STC20170430141512004/30/17 14:15:31  5-MIN KSTC 302015Z 04016G25KT 10SM BKN041 OVC090 09/M01 A2990 1040 51 600 040/16G25 RMK AO2 T00891006
14926KSTC STC20170430142013104/30/17 14:20:31  5-MIN KSTC 302020Z 06012G26KT 10SM OVC043 09/M01 A2990 1040 51 600 060/12G26 RMK AO2 PK WND 06026/2017 T00891006
14926KSTC STC20170430142513104/30/17 14:25:31  5-MIN KSTC 302025Z 06018G30KT 10SM OVC043 09/M01 A2990 1050 51 600 060/18G30 RMK AO2 PK WND 05030/2024 T00891006
14926KSTC STC20170430143013104/30/17 14:30:31  5-MIN KSTC 302030Z 06014G30KT 10SM OVC043 09/M01 A2990 1050 49 600 050/14G30 RMK AO2 PK WND 05030/2024 T00891011
14926KSTC STC20170430143513104/30/17 14:35:31  5-MIN KSTC 302035Z 06015G28KT 10SM OVC044 09/M01 A2989 1050 51 600 050/15G28 RMK AO2 PK WND 05030/2024 T00891006
14926KSTC STC20170430144013104/30/17 14:40:31  5-MIN KSTC 302040Z 05017G30KT 10SM OVC044 08/M01 A2989 1060 51 500 050/17G30 RMK AO2 PK WND 05030/2024 T00831011
14926KSTC STC20170430144513104/30/17 14:45:31  5-MIN KSTC 302045Z 05012G30KT 10SM OVC044 09/M01 A2988 1060 51 600 050/12G30 RMK AO2 PK WND 05030/2024 T00891006
14926KSTC STC20170430145015004/30/17 14:50:31  5-MIN KSTC 302050Z 05020G31KT 10SM OVC043 09/M01 A2989 1060 51 600 050/20G31 RMK AO2 PK WND 03031/2050 SLP135 60000 T00891006 58012
14926KSTC STC20170430145513104/30/17 14:55:31  5-MIN KSTC 302055Z 05021G31KT 10SM OVC043 08/M01 A2989 1060 51 500 050/21G31 RMK AO2 PK WND 06029/2055 T00831011
14926KSTC STC20170430150013104/30/17 15:00:31  5-MIN KSTC 302100Z 05010G29KT 10SM OVC043 08/M01 A2989 1050 51 500 050/10G29 RMK AO2 PK WND 06029/2055 T00831011
14926KSTC STC20170430150513104/30/17 15:05:31  5-MIN KSTC 302105Z 06012G22KT 10SM OVC043 08/M01 A2989 1050 53 500 060/12G22 RMK AO2 PK WND 06029/2055 T00831006
14926KSTC STC20170430151013104/30/17 15:10:31  5-MIN KSTC 302110Z 05019G28KT 10SM OVC045 08/M01 A2989 1050 53 500 050/19G28 RMK AO2 PK WND 06029/2055 T00831006
14926KSTC STC20170430151513104/30/17 15:15:31  5-MIN KSTC 302115Z 06016G28KT 10SM OVC045 08/M01 A2989 1050 53 500 060/16G28 RMK AO2 PK WND 06029/2055 T00831006
14926KSTC STC20170430152013104/30/17 15:20:31  5-MIN KSTC 302120Z 06021G28KT 10SM OVC045 08/M01 A2989 1050 55 500 050/21G28 RMK AO2 PK WND 06029/2055 T00781006
14926KSTC STC20170430152513804/30/17 15:25:31  5-MIN KSTC 302125Z 06015G28KT 10SM BKN045 OVC050 08/M01 A2988 1060 55 500 060/15G28 RMK AO2 PK WND 06029/2055 T00781006
14926KSTC STC20170430153013804/30/17 15:30:31  5-MIN KSTC 302130Z 06011G23KT 10SM BKN045 OVC050 08/M01 A2988 1060 55 500 060/11G23 RMK AO2 PK WND 06029/2055 T00781006
14926KSTC STC20170430153513104/30/17 15:35:31  5-MIN KSTC 302135Z 06012G21KT 10SM OVC045 08/M01 A2988 1060 55 500 060/12G21 RMK AO2 PK WND 06029/2055 T00781006
14926KSTC STC20170430154013104/30/17 15:40:31  5-MIN KSTC 302140Z 06011G19KT 10SM OVC045 08/M01 A2988 1070 55 500 060/11G19 RMK AO2 PK WND 06029/2055 T00781006
14926KSTC STC20170430154514604/30/17 15:45:31  5-MIN KSTC 302145Z 05012G20KT 10SM -RA OVC045 08/00 A2988 1070 58 500 050/12G20 RMK AO2 PK WND 06029/2055 RAB41 P0000 T00780000
14926KSTC STC20170430155015304/30/17 15:50:31  5-MIN KSTC 302150Z 06011G20KT 10SM -RA OVC045 08/00 A2987 1070 58 500 060/11G20 RMK AO2 PK WND 06029/2055 RAB41 SLP132 P0000 T00780000
14926KSTC STC20170430155512204/30/17 15:55:31  5-MIN KSTC 302155Z 05012G22KT 10SM -RA OVC045 07/01 A2987 1070 62 400 050/12G22 RMK AO2 P0000 T00720006
14926KSTC STC20170430160012204/30/17 16:00:31  5-MIN KSTC 302200Z 06012G22KT 10SM -RA OVC047 07/01 A2987 1070 65 400 060/12G22 RMK AO2 P0000 T00670006
14926KSTC STC20170430160512204/30/17 16:05:31  5-MIN KSTC 302205Z 06012G19KT 10SM -RA OVC047 07/01 A2986 1080 67 400 060/12G19 RMK AO2 P0000 T00670011
14926KSTC STC20170430161012204/30/17 16:10:31  5-MIN KSTC 302210Z 06012G21KT 10SM -RA OVC047 07/01 A2986 1080 67 400 060/12G21 RMK AO2 P0000 T00670011
14926KSTC STC20170430161512204/30/17 16:15:31  5-MIN KSTC 302215Z 05009G21KT 10SM -RA OVC047 07/01 A2986 1080 67 400 050/09G21 RMK AO2 P0000 T00670011
14926KSTC STC20170430162012204/30/17 16:20:31  5-MIN KSTC 302220Z 05010G19KT 10SM -RA OVC049 07/01 A2986 1080 67 400 050/10G19 RMK AO2 P0000 T00670011
14926KSTC STC20170430162512204/30/17 16:25:31  5-MIN KSTC 302225Z 06010G19KT 10SM -RA OVC049 07/02 A2986 1080 70 400 050/10G19 RMK AO2 P0001 T00670017
14926KSTC STC20170430163012204/30/17 16:30:31  5-MIN KSTC 302230Z 06010G20KT 10SM -RA OVC049 07/01 A2986 1080 67 400 050/10G20 RMK AO2 P0001 T00670011
14926KSTC STC20170430163512204/30/17 16:35:31  5-MIN KSTC 302235Z 06011G20KT 10SM -RA OVC049 06/01 A2986 1080 70 300 050/11G20 RMK AO2 P0001 T00610011
14926KSTC STC20170430164012204/30/17 16:40:31  5-MIN KSTC 302240Z 05010G18KT 10SM -RA OVC049 06/01 A2986 1080 70 300 050/10G18 RMK AO2 P0001 T00610011
14926KSTC STC20170430164512904/30/17 16:45:31  5-MIN KSTC 302245Z 05012G18KT 10SM -RA BKN050 OVC070 06/01 A2986 1090 70 300 050/12G18 RMK AO2 P0001 T00610011
14926KSTC STC20170430165013504/30/17 16:50:31  5-MIN KSTC 302250Z 04011G20KT 9SM -RA BKN050 OVC070 06/01 A2986 1090 67 300 040/11G20 RMK AO2 SLP127 P0001 T00610006
14926KSTC STC20170430165512804/30/17 16:55:31  5-MIN KSTC 302255Z 05015G21KT 8SM -RA BKN055 OVC070 06/01 A2986 1090 73 200 050/15G21 RMK AO2 P0000 T00560011
14926KSTC STC20170430170012804/30/17 17:00:31  5-MIN KSTC 302300Z 05011G21KT 9SM -RA BKN055 OVC070 06/01 A2986 1090 73 200 050/11G21 RMK AO2 P0000 T00560011
14926KSTC STC20170430170512804/30/17 17:05:31  5-MIN KSTC 302305Z 06013G23KT 9SM -RA BKN060 OVC070 05/01 A2985 1090 76 200 060/13G23 RMK AO2 P0001 T00500011
14926KSTC STC20170430171012104/30/17 17:10:31  5-MIN KSTC 302310Z 06010G23KT 8SM -RA OVC060 05/01 A2985 1090 76 200 060/10G23 RMK AO2 P0001 T00500011
14926KSTC STC20170430171512104/30/17 17:15:31  5-MIN KSTC 302315Z 05013G20KT 7SM -RA OVC060 05/01 A2985 1090 76 200 050/13G20 RMK AO2 P0001 T00500011
14926KSTC STC20170430172012104/30/17 17:20:31  5-MIN KSTC 302320Z 05009G20KT 6SM -RA OVC060 05/01 A2985 1090 76 200 050/09G20 RMK AO2 P0002 T00500011
14926KSTC STC20170430172512104/30/17 17:25:31  5-MIN KSTC 302325Z 05012G18KT 6SM -RA OVC060 04/02 A2985 1100 82 100 050/12G18 RMK AO2 P0002 T00440017
14926KSTC STC20170430173012104/30/17 17:30:31  5-MIN KSTC 302330Z 04010G18KT 6SM -RA OVC065 04/02 A2984 1100 82 100 040/10G18 RMK AO2 P0003 T00440017
14926KSTC STC20170430173512104/30/17 17:35:31  5-MIN KSTC 302335Z 05010G17KT 6SM -RA OVC070 04/02 A2984 1100 82 100 050/10G17 RMK AO2 P0003 T00440017
14926KSTC STC20170430174012104/30/17 17:40:31  5-MIN KSTC 302340Z 05011G19KT 6SM -RA OVC070 04/02 A2984 1100 82 100 050/11G19 RMK AO2 P0003 T00440017
14926KSTC STC20170430174512104/30/17 17:45:31  5-MIN KSTC 302345Z 05012G19KT 6SM -RA OVC070 04/02 A2984 1100 82 100 040/12G19 RMK AO2 P0004 T00440017
14926KSTC STC20170430175015204/30/17 17:50:31  5-MIN KSTC 302350Z 05013G21KT 7SM -RA OVC070 04/01 A2984 1110 79 100 040/13G21 RMK AO2 SLP119 P0005 60006 T00440011 10094 20044 56039
14926KSTC STC20170430175512104/30/17 17:55:31  5-MIN KSTC 302355Z 04012G21KT 7SM -RA OVC070 04/02 A2983 1110 82 100 040/12G21 RMK AO2 P0000 T00440017
14926KSTC STC20170430180012804/30/17 18:00:31  5-MIN KSTC 010000Z 04013G19KT 8SM -RA BKN070 OVC090 04/02 A2983 1110 82 100 040/13G19 RMK AO2 P0000 T00440017
14926KSTC STC20170430180512904/30/17 18:05:31  5-MIN KSTC 010005Z 04011G19KT 10SM -RA BKN070 OVC090 04/02 A2983 1110 82 100 040/11G19 RMK AO2 P0000 T00440017
14926KSTC STC20170430181012904/30/17 18:10:31  5-MIN KSTC 010010Z 04011G17KT 10SM -RA BKN070 OVC085 04/02 A2982 1120 82 200 040/11G17 RMK AO2 P0001 T00440017
14926KSTC STC20170430181512204/30/17 18:15:31  5-MIN KSTC 010015Z 04011G17KT 10SM -RA OVC075 04/02 A2982 1120 82 200 040/11G17 RMK AO2 P0001 T00440017
14926KSTC STC20170430182012304/30/17 18:20:31  5-MIN KSTC 010020Z 04010KT 10SM -RA FEW050 OVC075 04/02 A2982 1120 82 200 040/10 RMK AO2 P0001 T00440017
14926KSTC STC20170430182512904/30/17 18:25:31  5-MIN KSTC 010025Z 04011G17KT 10SM -RA SCT047 OVC075 04/02 A2981 1120 82 200 040/11G17 RMK AO2 P0001 T00440017
14926KSTC STC20170430183012904/30/17 18:30:31  5-MIN KSTC 010030Z 04011G20KT 10SM -RA FEW047 OVC070 04/02 A2981 1130 82 200 040/11G20 RMK AO2 P0001 T00440017
14926KSTC STC20170430183512904/30/17 18:35:31  5-MIN KSTC 010035Z 04011G20KT 10SM -RA FEW047 OVC075 04/02 A2980 1130 89 100 040/11G20 RMK AO2 P0001 T00390022
14926KSTC STC20170430184012304/30/17 18:40:31  5-MIN KSTC 010040Z 04008KT 10SM -RA FEW047 OVC070 04/02 A2980 1140 89 100 040/08 RMK AO2 P0001 T00390022
14926KSTC STC20170430184512304/30/17 18:45:31  5-MIN KSTC 010045Z 03010KT 10SM -RA FEW047 OVC070 04/02 A2980 1140 89 100 030/10 RMK AO2 P0001 T00390022
14926KSTC STC20170430185013804/30/17 18:50:31  5-MIN KSTC 010050Z 03012G18KT 10SM FEW047 OVC070 04/02 A2979 1150 85 200 030/12G18 RMK AO2 RAE47 SLP104 P0001 T00440022
14926KSTC STC20170430185512804/30/17 18:55:31  5-MIN KSTC 010055Z 03013G21KT 10SM -RA OVC075 04/02 A2979 1150 82 200 030/13G21 RMK AO2 RAB55 P0000 T00440017
14926KSTC STC20170430190013704/30/17 19:00:31  5-MIN KSTC 010100Z 03013G21KT 10SM -RA OVC080 04/02 A2978 1160 82 200 030/13G21 RMK AO2 RAB0055 PRESFR P0000 T00440017
14926KSTC STC20170430190513704/30/17 19:05:31  5-MIN KSTC 010105Z 03013G19KT 10SM -RA SCT070 OVC085 04/02 A2978 1160 82 200 030/13G19 RMK AO2 RAB0055 P0000 T00440017
14926KSTC STC20170430191012904/30/17 19:10:31  5-MIN KSTC 010110Z 03011G19KT 10SM OVC080 04/02 A2977 1170 85 100 030/11G19 RMK AO2 RAB0055E07 P0000 T00390017
14926KSTC STC20170430191512904/30/17 19:15:31  5-MIN KSTC 010115Z 03013G21KT 10SM OVC080 04/02 A2977 1170 82 200 030/13G21 RMK AO2 RAB0055E07 P0000 T00440017
14926KSTC STC20170430192012904/30/17 19:20:31  5-MIN KSTC 010120Z 03010G21KT 10SM OVC080 04/02 A2976 1170 82 200 030/10G21 RMK AO2 RAB0055E07 P0000 T00440017
14926KSTC STC20170430192513604/30/17 19:25:31  5-MIN KSTC 010125Z 03012G21KT 10SM FEW049 OVC080 04/02 A2976 1180 82 200 030/12G21 RMK AO2 RAB0055E07 P0000 T00440017
14926KSTC STC20170430193013604/30/17 19:30:31  5-MIN KSTC 010130Z 03011G20KT 10SM SCT049 OVC080 04/02 A2976 1170 82 200 030/11G20 RMK AO2 RAB0055E07 P0000 T00440017
14926KSTC STC20170430193514304/30/17 19:35:31  5-MIN KSTC 010135Z 03010G20KT 10SM -RA FEW049 OVC080 04/02 A2976 1180 85 200 030/10G20 RMK AO2 RAB0055E07B31 P0000 T00390017
14926KSTC STC20170430194013704/30/17 19:40:31  5-MIN KSTC 010140Z 03012KT 10SM -RA FEW049 OVC075 04/02 A2976 1170 85 200 030/12 RMK AO2 RAB0055E07B31 P0000 T00390017
14926KSTC STC20170430194515004/30/17 19:45:31  5-MIN KSTC 010145Z 03011G17KT 10SM -RA FEW049 BKN065 OVC080 04/02 A2976 1180 85 200 020/11G17 RMK AO2 RAB0055E07B31 P0000 T00390017
14926KSTC STC20170430195015004/30/17 19:50:31  5-MIN KSTC 010150Z 03011G20KT 10SM -RA SCT055 OVC075 04/02 A2976 1180 85 200 030/11G20 RMK AO2 RAB0055E07B31 SLP093 P0001 T00390017
14926KSTC STC20170430195513604/30/17 19:55:31  5-MIN KSTC 010155Z 03011G20KT 10SM -RA FEW048 BKN060 OVC080 04/02 A2975 1180 85 200 030/11G20 RMK AO2 P0000 T00390017
14926KSTC STC20170430200012904/30/17 20:00:31  5-MIN KSTC 010200Z 04010KT 9SM -RA FEW047 SCT055 OVC075 04/02 A2975 1180 85 200 030/10 RMK AO2 P0000 T00390017
14926KSTC STC20170430200512904/30/17 20:05:31  5-MIN KSTC 010205Z 04010KT 8SM -RA BKN049 BKN065 OVC080 04/02 A2975 1190 85 200 030/10 RMK AO2 P0001 T00390017
14926KSTC STC20170430201012804/30/17 20:10:31  5-MIN KSTC 010210Z 04012G21KT 9SM -RA BKN049 OVC065 04/01 A2975 1180 82 200 030/12G21 RMK AO2 P0002 T00390011
14926KSTC STC20170430201512804/30/17 20:15:31  5-MIN KSTC 010215Z 04012G21KT 9SM -RA BKN047 OVC060 03/01 A2975 1180 85 100 040/12G21 RMK AO2 P0002 T00330011
14926KSTC STC20170430202012104/30/17 20:20:31  5-MIN KSTC 010220Z 04009G17KT 9SM -RA OVC047 03/01 A2975 1180 85 100 040/09G17 RMK AO2 P0002 T00330011
14926KSTC STC20170430202512104/30/17 20:25:31  5-MIN KSTC 010225Z 04011G17KT 9SM -RA OVC047 03/01 A2975 1180 85 100 040/11G17 RMK AO2 P0003 T00330011
14926KSTC STC20170430203012104/30/17 20:30:31  5-MIN KSTC 010230Z 05012G16KT 9SM -RA OVC047 03/01 A2975 1180 85 100 040/12G16 RMK AO2 P0003 T00330011
14926KSTC STC20170430203512104/30/17 20:35:31  5-MIN KSTC 010235Z 04008G16KT 9SM -RA OVC045 03/01 A2976 1170 85 100 040/08G16 RMK AO2 P0004 T00330011
14926KSTC STC20170430204012104/30/17 20:40:31  5-MIN KSTC 010240Z 05009G16KT 9SM -RA OVC043 03/02 A2976 1170 89 100 040/09G16 RMK AO2 P0004 T00330017
14926KSTC STC20170430204512104/30/17 20:45:31  5-MIN KSTC 010245Z 04008G16KT 8SM -RA OVC043 03/01 A2976 1180 85 100 030/08G16 RMK AO2 P0005 T00330011
14926KSTC STC20170430205013404/30/17 20:50:31  5-MIN KSTC 010250Z 03006KT 8SM -RA OVC043 03/01 A2975 1180 85 100 030/06 RMK AO2 SLP092 P0006 60008 T00330011 58019
14926KSTC STC20170430205511504/30/17 20:55:31  5-MIN KSTC 010255Z 04008KT 9SM -RA OVC041 03/01 A2975 1180 85 100 040/08 RMK AO2 P0000 T00330011
14926KSTC STC20170430210012104/30/17 21:00:31  5-MIN KSTC 010300Z 03007G16KT 9SM -RA OVC041 03/01 A2975 1190 85 100 030/07G16 RMK AO2 P0000 T00330011
14926KSTC STC20170430210512104/30/17 21:05:31  5-MIN KSTC 010305Z 03008G16KT 9SM -RA OVC041 03/01 A2975 1180 85 100 030/08G16 RMK AO2 P0001 T00330011
14926KSTC STC20170430211012104/30/17 21:10:31  5-MIN KSTC 010310Z 03008G16KT 9SM -RA OVC043 03/01 A2975 1180 85 100 030/08G16 RMK AO2 P0001 T00330011
14926KSTC STC20170430211511604/30/17 21:15:31  5-MIN KSTC 010315Z 03008KT 10SM -RA OVC041 03/01 A2975 1190 85 100 030/08 RMK AO2 P0001 T00330011
14926KSTC STC20170430212011604/30/17 21:20:31  5-MIN KSTC 010320Z 04007KT 10SM -RA OVC041 03/01 A2975 1180 85 100 030/07 RMK AO2 P0001 T00330011
14926KSTC STC20170430212511604/30/17 21:25:31  5-MIN KSTC 010325Z 04010KT 10SM -RA OVC041 03/01 A2975 1190 85 100 040/10 RMK AO2 P0002 T00330011
14926KSTC STC20170430213011604/30/17 21:30:31  5-MIN KSTC 010330Z 04008KT 10SM -RA OVC042 03/01 A2975 1180 85 100 040/08 RMK AO2 P0002 T00330011
14926KSTC STC20170430213511604/30/17 21:35:31  5-MIN KSTC 010335Z 03007KT 10SM -RA OVC042 03/01 A2975 1190 85 100 030/07 RMK AO2 P0002 T00330011
14926KSTC STC20170430214011604/30/17 21:40:31  5-MIN KSTC 010340Z 03007KT 10SM -RA OVC042 03/01 A2975 1190 85 100 030/07 RMK AO2 P0003 T00330011
14926KSTC STC20170430214511404/30/17 21:45:31  5-MIN KSTC 010345Z 03009KT 10SM -RA OVC042 03/01 A2975 1190 89 0 030/09 RMK AO2 P0003 T00280011
14926KSTC STC20170430215012104/30/17 21:50:31  5-MIN KSTC 010350Z 03007KT 10SM -RA OVC042 03/01 A2975 1190 89 0 030/07 RMK AO2 SLP090 P0003 T00280011
14926KSTC STC20170430215511404/30/17 21:55:31  5-MIN KSTC 010355Z 03008KT 10SM -RA OVC042 03/01 A2974 1190 89 0 030/08 RMK AO2 P0000 T00280011
14926KSTC STC20170430220011904/30/17 22:00:31  5-MIN KSTC 010400Z AUTO 03010KT 10SM -RA OVC042 03/01 A2974 1190 85 0 030/10 RMK AO2 P0000 T00280006
14926KSTC STC20170430220512504/30/17 22:05:31  5-MIN KSTC 010405Z AUTO 03010G15KT 10SM -RA OVC042 03/01 A2974 1190 85 0 030/10G15 RMK AO2 P0000 T00280006
14926KSTC STC20170430221012504/30/17 22:10:31  5-MIN KSTC 010410Z AUTO 04008G15KT 10SM -RA OVC042 03/01 A2974 1190 85 0 030/08G15 RMK AO2 P0001 T00280006
14926KSTC STC20170430221511904/30/17 22:15:31  5-MIN KSTC 010415Z AUTO 03009KT 10SM -RA OVC042 03/01 A2974 1190 85 0 030/09 RMK AO2 P0001 T00280006
14926KSTC STC20170430222012504/30/17 22:20:31  5-MIN KSTC 010420Z AUTO 03009G17KT 10SM -RA OVC042 03/00 A2974 1200 82 0 030/09G17 RMK AO2 P0001 T00280000
14926KSTC STC20170430222512504/30/17 22:25:31  5-MIN KSTC 010425Z AUTO 03008G17KT 10SM -RA OVC042 03/00 A2973 1200 82 0 020/08G17 RMK AO2 P0002 T00280000
14926KSTC STC20170430223012004/30/17 22:30:31  5-MIN KSTC 010430Z AUTO 02008KT 9SM -RA OVC044 03/00 A2973 1200 82 100 020/08 RMK AO2 P0002 T00280000
14926KSTC STC20170430223511804/30/17 22:35:31  5-MIN KSTC 010435Z AUTO 02008KT 9SM -RA OVC044 02/00 A2973 1200 85 0 020/08 RMK AO2 P0003 T00220000
14926KSTC STC20170430224011704/30/17 22:40:31  5-MIN KSTC 010440Z AUTO 02008KT 8SM RA OVC046 02/00 A2973 1200 85 0 020/08 RMK AO2 P0003 T00220000
14926KSTC STC20170430224511704/30/17 22:45:31  5-MIN KSTC 010445Z AUTO 02008KT 7SM RA OVC046 02/00 A2973 1200 85 0 020/08 RMK AO2 P0005 T00220000
14926KSTC STC20170430225012404/30/17 22:50:31  5-MIN KSTC 010450Z AUTO 02007KT 7SM RA OVC046 02/00 A2973 1200 85 0 020/07 RMK AO2 SLP083 P0006 T00220000
14926KSTC STC20170430225512004/30/17 22:55:31  5-MIN KSTC 010455Z AUTO 02009KT 6SM RA BR OVC046 02/00 A2973 1200 85 0 020/09 RMK AO2 P0001 T00220000
14926KSTC STC20170430230012004/30/17 23:00:31  5-MIN KSTC 010500Z AUTO 02009KT 6SM RA BR OVC046 02/00 A2973 1200 85 0 020/09 RMK AO2 P0002 T00220000
14926KSTC STC20170430230512704/30/17 23:05:31  5-MIN KSTC 010505Z AUTO 02008KT 5SM RA BR FEW038 OVC046 02/00 A2974 1200 89 0 020/08 RMK AO2 P0004 T00170000
14926KSTC STC20170430231013004/30/17 23:10:31  5-MIN KSTC 010510Z AUTO 02006KT 6SM RA BR SCT038 OVC046 02/00 A2975 1190 89 -100 020/06 RMK AO2 P0004 T00170000
14926KSTC STC20170430231513704/30/17 23:15:31  5-MIN KSTC 010515Z AUTO 04004KT 6SM RA BR BKN038 OVC046 02/00 A2976 1180 89 -100 040/04 RMK AO2 PRESRR P0005 T00170000
14926KSTC STC20170430232015604/30/17 23:20:31  5-MIN KSTC 010520Z AUTO 04004KT 6SM -SN BR FEW027 BKN036 OVC044 02/00 A2976 1170 89 -100 030/04 RMK AO2 RAE20SNB20 PRESRR P0006 T00170000
14926KSTC STC20170430232514204/30/17 23:25:31  5-MIN KSTC 010525Z AUTO 03004KT 3SM -SN BR SCT027 OVC036 01/00 A2976 1180 92 -100 030/04 RMK AO2 RAE20SNB20 P0007 T00110000
14926KSTC STC20170430233015304/30/17 23:30:31  5-MIN KSTC 010530Z AUTO 02005KT 1 3/4SM -SN BR FEW021 BKN025 OVC036 01/00 A2976 1180 92 -100 020/05 RMK AO2 RAE20SNB20 P0008 T00110000
14926KSTC STC20170430233515304/30/17 23:35:31  5-MIN KSTC 010535Z AUTO 02006KT 1 1/4SM -SN BR SCT017 BKN025 OVC036 01/00 A2975 1180 96 -200 020/06 RMK AO2 RAE20SNB20 P0010 T00060000
14926KSTC STC20170430234015304/30/17 23:40:31  5-MIN KSTC 010540Z AUTO 02006KT 1 1/4SM -SN BR SCT017 BKN025 OVC036 01/00 A2975 1190 96 -200 010/06 RMK AO2 RAE20SNB20 P0012 T00060000
14926KSTC STC20170430234514604/30/17 23:45:31  5-MIN KSTC 010545Z AUTO 02006KT 1 1/4SM -SN BR SCT017 OVC025 01/00 A2974 1190 96 -200 020/06 RMK AO2 RAE20SNB20 P0013 T00060000
14926KSTC STC20170430235018704/30/17 23:50:31  5-MIN KSTC 010550Z AUTO 02005KT 1 1/4SM -SN BR BKN017 OVC025 01/00 A2974 1200 96 -200 020/05 RMK AO2 RAE20SNB20 SLP087 P0014 60031 T00060000 10044 20006 400940006 55026
14926KSTC STC20170430235513404/30/17 23:55:31  5-MIN KSTC 010555Z AUTO 02007KT 3/4SM -SN BR BKN015 OVC025 00/00 A2973 1200 100 -200 020/07 RMK AO2 P0001 T00000000
