14926KSTC STC20050701000010807/01/05 00:00:35  5-MIN KSTC 010600Z AUTO 33009G18KT 10SM OVC046 16/09 A2983 1110 64 1500 320/09G18 RMK AO2
14926KSTC STC20050701000510807/01/05 00:05:31  5-MIN KSTC 010605Z AUTO 33011G16KT 10SM OVC046 16/09 A2983 1110 64 1500 330/11G16 RMK AO2
14926KSTC STC20050701001010807/01/05 00:10:31  5-MIN KSTC 010610Z AUTO 33009G16KT 10SM OVC046 16/09 A2983 1110 64 1500 320/09G16 RMK AO2
14926KSTC STC20050701001510207/01/05 00:15:31  5-MIN KSTC 010615Z AUTO 33007KT 10SM OVC048 16/09 A2983 1110 64 1500 320/07 RMK AO2
14926KSTC STC20050701002010207/01/05 00:20:31  5-MIN KSTC 010620Z AUTO 32009KT 10SM OVC048 16/09 A2983 1110 64 1500 320/09 RMK AO2
14926KSTC STC20050701002510207/01/05 00:25:31  5-MIN KSTC 010625Z AUTO 32008KT 10SM OVC048 16/09 A2983 1110 64 1500 310/08 RMK AO2
14926KSTC STC20050701003010907/01/05 00:30:31  5-MIN KSTC 010630Z AUTO 31007KT 10SM FEW038 OVC046 16/10 A2983 1110 69 1500 310/07 RMK AO2
14926KSTC STC20050701003510907/01/05 00:35:31  5-MIN KSTC 010635Z AUTO 31007KT 10SM SCT038 OVC046 16/10 A2984 1110 69 1500 310/07 RMK AO2
14926KSTC STC20050701004010907/01/05 00:40:31  5-MIN KSTC 010640Z AUTO 32012KT 10SM BKN035 OVC046 16/10 A2984 1100 69 1500 320/12 RMK AO2
14926KSTC STC20050701004510907/01/05 00:45:31  5-MIN KSTC 010645Z AUTO 32008KT 10SM BKN035 OVC044 16/10 A2984 1100 67 1500 320/08 RMK AO2
14926KSTC STC20050701005012607/01/05 00:50:31  5-MIN KSTC 010650Z AUTO 33008KT 10SM SCT035 OVC044 16/10 A2984 1100 67 1500 320/08 RMK AO2 SLP110 T01610100
14926KSTC STC20050701005511507/01/05 00:55:31  5-MIN KSTC 010655Z AUTO 33011G17KT 10SM SCT035 OVC044 16/09 A2984 1100 62 1500 320/11G17 RMK AO2
14926KSTC STC20050701010011507/01/05 01:00:31  5-MIN KSTC 010700Z AUTO 32011G17KT 10SM SCT035 OVC044 16/09 A2984 1100 64 1500 320/11G17 RMK AO2
14926KSTC STC20050701010511507/01/05 01:05:31  5-MIN KSTC 010705Z AUTO 31013G16KT 10SM FEW033 OVC044 16/09 A2984 1100 64 1500 310/13G16 RMK AO2
14926KSTC STC20050701011010807/01/05 01:10:31  5-MIN KSTC 010710Z AUTO 31011G16KT 10SM OVC044 16/09 A2984 1100 67 1500 310/11G16 RMK AO2
14926KSTC STC20050701011510207/01/05 01:15:31  5-MIN KSTC 010715Z AUTO 31013KT 10SM OVC044 16/09 A2984 1100 67 1500 310/13 RMK AO2
14926KSTC STC20050701012010207/01/05 01:20:31  5-MIN KSTC 010720Z AUTO 31015KT 10SM OVC044 16/09 A2984 1100 67 1500 310/15 RMK AO2
14926KSTC STC20050701012510207/01/05 01:25:31  5-MIN KSTC 010725Z AUTO 31012KT 10SM OVC042 16/09 A2984 1100 64 1500 310/12 RMK AO2
14926KSTC STC20050701013010207/01/05 01:30:31  5-MIN KSTC 010730Z AUTO 32011KT 10SM OVC042 16/09 A2985 1100 67 1500 320/11 RMK AO2
14926KSTC STC20050701013510207/01/05 01:35:31  5-MIN KSTC 010735Z AUTO 31011KT 10SM OVC042 16/09 A2985 1090 67 1500 310/11 RMK AO2
14926KSTC STC20050701014010807/01/05 01:40:31  5-MIN KSTC 010740Z AUTO 31012G17KT 10SM OVC042 16/09 A2985 1090 67 1500 310/12G17 RMK AO2
14926KSTC STC20050701014510807/01/05 01:45:31  5-MIN KSTC 010745Z AUTO 32009G17KT 10SM OVC042 16/09 A2985 1090 64 1500 320/09G17 RMK AO2
14926KSTC STC20050701015011907/01/05 01:50:31  5-MIN KSTC 010750Z AUTO 32013KT 10SM OVC042 16/09 A2985 1090 64 1400 320/13 RMK AO2 SLP114 T01560089
14926KSTC STC20050701015510807/01/05 01:55:31  5-MIN KSTC 010755Z AUTO 32013G18KT 10SM OVC040 16/08 A2985 1090 62 1400 320/13G18 RMK AO2
14926KSTC STC20050701020010807/01/05 02:00:31  5-MIN KSTC 010800Z AUTO 33011G19KT 10SM OVC040 16/08 A2985 1090 62 1400 330/11G19 RMK AO2
14926KSTC STC20050701020510807/01/05 02:05:31  5-MIN KSTC 010805Z AUTO 32009G19KT 10SM BKN040 15/08 A2986 1090 64 1400 320/09G19 RMK AO2
14926KSTC STC20050701021010207/01/05 02:10:31  5-MIN KSTC 010810Z AUTO 32010KT 10SM BKN040 15/08 A2986 1080 64 1400 320/10 RMK AO2
14926KSTC STC20050701021510807/01/05 02:15:31  5-MIN KSTC 010815Z AUTO 32008G16KT 10SM BKN040 15/08 A2986 1080 64 1400 310/08G16 RMK AO2
14926KSTC STC20050701022010207/01/05 02:20:31  5-MIN KSTC 010820Z AUTO 32008KT 10SM BKN040 15/09 A2986 1080 66 1400 310/08 RMK AO2
14926KSTC STC20050701022510207/01/05 02:25:31  5-MIN KSTC 010825Z AUTO 31009KT 10SM BKN040 14/09 A2986 1080 69 1300 310/09 RMK AO2
14926KSTC STC20050701023010207/01/05 02:30:31  5-MIN KSTC 010830Z AUTO 32009KT 10SM BKN040 14/08 A2986 1080 66 1300 310/09 RMK AO2
14926KSTC STC20050701023510207/01/05 02:35:31  5-MIN KSTC 010835Z AUTO 32008KT 10SM OVC040 14/08 A2986 1080 66 1300 310/08 RMK AO2
14926KSTC STC20050701024010207/01/05 02:40:31  5-MIN KSTC 010840Z AUTO 32011KT 10SM OVC040 14/08 A2987 1080 66 1300 310/11 RMK AO2
14926KSTC STC20050701024510207/01/05 02:45:31  5-MIN KSTC 010845Z AUTO 32011KT 10SM BKN038 14/08 A2987 1080 66 1300 320/11 RMK AO2
14926KSTC STC20050701025012507/01/05 02:50:31  5-MIN KSTC 010850Z AUTO 32012KT 10SM BKN038 14/08 A2987 1070 66 1300 320/12 RMK AO2 SLP121 T01440083 51009
14926KSTC STC20050701025510807/01/05 02:55:31  5-MIN KSTC 010855Z AUTO 32013G18KT 10SM SCT038 14/08 A2987 1070 69 1200 320/13G18 RMK AO2
14926KSTC STC20050701030010807/01/05 03:00:31  5-MIN KSTC 010900Z AUTO 32010G18KT 10SM SCT038 14/08 A2987 1070 66 1300 320/10G18 RMK AO2
14926KSTC STC20050701030510207/01/05 03:05:31  5-MIN KSTC 010905Z AUTO 32012KT 10SM FEW036 14/08 A2987 1070 69 1200 320/12 RMK AO2
14926KSTC STC20050701031009907/01/05 03:10:31  5-MIN KSTC 010910Z AUTO 32009KT 10SM CLR 14/08 A2987 1070 69 1200 320/09 RMK AO2
14926KSTC STC20050701031509907/01/05 03:15:31  5-MIN KSTC 010915Z AUTO 33008KT 10SM CLR 14/08 A2987 1070 69 1200 330/08 RMK AO2
14926KSTC STC20050701032009907/01/05 03:20:31  5-MIN KSTC 010920Z AUTO 33009KT 10SM CLR 14/08 A2988 1070 69 1200 330/09 RMK AO2
14926KSTC STC20050701032510207/01/05 03:25:31  5-MIN KSTC 010925Z AUTO 33008KT 10SM FEW035 14/08 A2988 1060 69 1200 330/08 RMK AO2
14926KSTC STC20050701033010207/01/05 03:30:31  5-MIN KSTC 010930Z AUTO 33008KT 10SM BKN035 14/08 A2988 1060 69 1200 330/08 RMK AO2
14926KSTC STC20050701033510207/01/05 03:35:31  5-MIN KSTC 010935Z AUTO 34008KT 10SM BKN033 14/08 A2988 1060 69 1200 330/08 RMK AO2
14926KSTC STC20050701034010207/01/05 03:40:31  5-MIN KSTC 010940Z AUTO 34008KT 10SM BKN033 14/08 A2989 1060 66 1200 340/08 RMK AO2
14926KSTC STC20050701034510207/01/05 03:45:31  5-MIN KSTC 010945Z AUTO 34008KT 10SM OVC033 14/08 A2989 1060 66 1200 330/08 RMK AO2
14926KSTC STC20050701035011907/01/05 03:50:31  5-MIN KSTC 010950Z AUTO 34006KT 10SM OVC032 14/08 A2989 1060 69 1200 330/06 RMK AO2 SLP128 T01390083
14926KSTC STC20050701035510207/01/05 03:55:31  5-MIN KSTC 010955Z AUTO 34007KT 10SM OVC032 14/08 A2989 1050 69 1200 330/07 RMK AO2
14926KSTC STC20050701040010207/01/05 04:00:31  5-MIN KSTC 011000Z AUTO 33006KT 10SM OVC032 14/08 A2989 1060 69 1200 330/06 RMK AO2
14926KSTC STC20050701040510207/01/05 04:05:31  5-MIN KSTC 011005Z AUTO 33006KT 10SM OVC032 14/08 A2989 1050 69 1200 320/06 RMK AO2
14926KSTC STC20050701041010207/01/05 04:10:31  5-MIN KSTC 011010Z AUTO 31006KT 10SM OVC034 14/08 A2989 1050 69 1200 310/06 RMK AO2
14926KSTC STC20050701041510207/01/05 04:15:31  5-MIN KSTC 011015Z AUTO 31007KT 10SM OVC034 14/09 A2990 1050 71 1200 310/07 RMK AO2
14926KSTC STC20050701042010207/01/05 04:20:31  5-MIN KSTC 011020Z AUTO 31009KT 10SM OVC034 13/09 A2990 1050 77 1100 310/09 RMK AO2
14926KSTC STC20050701042510207/01/05 04:25:31  5-MIN KSTC 011025Z AUTO 32008KT 10SM OVC034 13/09 A2990 1050 77 1100 320/08 RMK AO2
14926KSTC STC20050701043010207/01/05 04:30:31  5-MIN KSTC 011030Z AUTO 31009KT 10SM OVC034 13/09 A2990 1050 77 1100 310/09 RMK AO2
14926KSTC STC20050701043510207/01/05 04:35:31  5-MIN KSTC 011035Z AUTO 31010KT 10SM OVC034 13/09 A2991 1040 74 1100 310/10 RMK AO2
14926KSTC STC20050701044010207/01/05 04:40:31  5-MIN KSTC 011040Z AUTO 31009KT 10SM OVC034 13/09 A2991 1040 74 1100 310/09 RMK AO2
14926KSTC STC20050701044510207/01/05 04:45:31  5-MIN KSTC 011045Z AUTO 31008KT 10SM OVC034 13/09 A2991 1040 77 1100 310/08 RMK AO2
14926KSTC STC20050701045011907/01/05 04:50:31  5-MIN KSTC 011050Z AUTO 32007KT 10SM OVC034 13/09 A2991 1030 77 1100 310/07 RMK AO2 SLP138 T01280089
14926KSTC STC20050701045510207/01/05 04:55:31  5-MIN KSTC 011055Z AUTO 32007KT 10SM OVC034 13/09 A2991 1030 77 1100 310/07 RMK AO2
14926KSTC STC20050701050010207/01/05 05:00:31  5-MIN KSTC 011100Z AUTO 32007KT 10SM OVC034 13/09 A2992 1030 80 1000 310/07 RMK AO2
14926KSTC STC20050701050510207/01/05 05:05:31  5-MIN KSTC 011105Z AUTO 32009KT 10SM OVC034 13/09 A2992 1030 80 1000 310/09 RMK AO2
14926KSTC STC20050701051010207/01/05 05:10:31  5-MIN KSTC 011110Z AUTO 31008KT 10SM OVC034 13/09 A2992 1030 80 1000 310/08 RMK AO2
14926KSTC STC20050701051510207/01/05 05:15:31  5-MIN KSTC 011115Z AUTO 31008KT 10SM OVC034 12/09 A2992 1020 83 1000 310/08 RMK AO2
14926KSTC STC20050701052010207/01/05 05:20:31  5-MIN KSTC 011120Z AUTO 31008KT 10SM OVC034 12/09 A2992 1020 83 1000 310/08 RMK AO2
14926KSTC STC20050701052510207/01/05 05:25:31  5-MIN KSTC 011125Z AUTO 31008KT 10SM BKN034 12/09 A2993 1020 83 1000 310/08 RMK AO2
14926KSTC STC20050701053010207/01/05 05:30:31  5-MIN KSTC 011130Z AUTO 31008KT 10SM BKN034 12/09 A2993 1020 83 1000 300/08 RMK AO2
14926KSTC STC20050701053510207/01/05 05:35:31  5-MIN KSTC 011135Z AUTO 31009KT 10SM OVC034 12/09 A2993 1020 83 1000 310/09 RMK AO2
14926KSTC STC20050701054010207/01/05 05:40:31  5-MIN KSTC 011140Z AUTO 31009KT 10SM OVC034 12/09 A2993 1020 83 1000 300/09 RMK AO2
14926KSTC STC20050701054510207/01/05 05:45:31  5-MIN KSTC 011145Z AUTO 31008KT 10SM OVC032 13/09 A2993 1010 80 1000 300/08 RMK AO2
14926KSTC STC20050701055014307/01/05 05:50:31  5-MIN KSTC 011150Z AUTO 31009KT 10SM BKN032 13/10 A2993 1010 83 1000 310/09 RMK AO2 SLP144 70001 T01280100 10161 20122 53013
14926KSTC STC20050701055510207/01/05 05:55:31  5-MIN KSTC 011155Z AUTO 32009KT 10SM BKN032 13/09 A2994 1010 80 1000 310/09 RMK AO2
14926KSTC STC20050701060010207/01/05 06:00:31  5-MIN KSTC 011200Z AUTO 31008KT 10SM SCT032 13/10 A2994 1010 80 1100 310/08 RMK AO2
14926KSTC STC20050701060510207/01/05 06:05:31  5-MIN KSTC 011205Z AUTO 32009KT 10SM SCT032 13/10 A2994 1010 80 1100 320/09 RMK AO2
14926KSTC STC20050701061010207/01/05 06:10:31  5-MIN KSTC 011210Z AUTO 32008KT 10SM FEW032 13/10 A2994 1010 80 1100 310/08 RMK AO2
14926KSTC STC20050701061509907/01/05 06:15:31  5-MIN KSTC 011215Z AUTO 32010KT 10SM CLR 13/10 A2994 1010 80 1100 320/10 RMK AO2
14926KSTC STC20050701062009907/01/05 06:20:31  5-MIN KSTC 011220Z AUTO 32009KT 10SM CLR 13/10 A2994 1010 80 1100 320/09 RMK AO2
14926KSTC STC20050701062509907/01/05 06:25:31  5-MIN KSTC 011225Z AUTO 32007KT 10SM CLR 13/09 A2994 1010 77 1100 320/07 RMK AO2
14926KSTC STC20050701063009907/01/05 06:30:31  5-MIN KSTC 011230Z AUTO 32008KT 10SM CLR 14/10 A2994 1000 77 1100 320/08 RMK AO2
14926KSTC STC20050701063509907/01/05 06:35:31  5-MIN KSTC 011235Z AUTO 33008KT 10SM CLR 14/10 A2995 1000 77 1100 320/08 RMK AO2
14926KSTC STC20050701064009907/01/05 06:40:31  5-MIN KSTC 011240Z AUTO 32010KT 10SM CLR 14/10 A2995 1000 77 1100 320/10 RMK AO2
14926KSTC STC20050701064509907/01/05 06:45:31  5-MIN KSTC 011245Z AUTO 32011KT 10SM CLR 14/09 A2995 1000 74 1100 310/11 RMK AO2
14926KSTC STC20050701065011607/01/05 06:50:31  5-MIN KSTC 011250Z AUTO 32010KT 10SM CLR 14/10 A2995 1000 77 1100 320/10 RMK AO2 SLP150 T01390100
14926KSTC STC20050701065509907/01/05 06:55:31  5-MIN KSTC 011255Z AUTO 33009KT 10SM CLR 14/10 A2995 1000 74 1200 330/09 RMK AO2
14926KSTC STC20050701070009807/01/05 07:00:31  5-MIN KSTC 011300Z AUTO 33010KT 10SM CLR 14/10 A2995 990 74 1200 320/10 RMK AO2
14926KSTC STC20050701070509807/01/05 07:05:31  5-MIN KSTC 011305Z AUTO 33010KT 10SM CLR 14/10 A2996 990 74 1200 330/10 RMK AO2
14926KSTC STC20050701071009807/01/05 07:10:31  5-MIN KSTC 011310Z AUTO 34009KT 10SM CLR 15/10 A2996 990 72 1300 340/09 RMK AO2
14926KSTC STC20050701071509807/01/05 07:15:31  5-MIN KSTC 011315Z AUTO 34009KT 10SM CLR 14/10 A2996 990 74 1200 330/09 RMK AO2
14926KSTC STC20050701072009807/01/05 07:20:31  5-MIN KSTC 011320Z AUTO 33009KT 10SM CLR 14/09 A2996 990 72 1200 330/09 RMK AO2
14926KSTC STC20050701072510407/01/05 07:25:31  5-MIN KSTC 011325Z AUTO 34011G15KT 10SM CLR 15/09 A2996 990 69 1300 340/11G15 RMK AO2
14926KSTC STC20050701073009807/01/05 07:30:31  5-MIN KSTC 011330Z AUTO 34011KT 10SM CLR 15/09 A2996 990 69 1300 340/11 RMK AO2
14926KSTC STC20050701073509807/01/05 07:35:31  5-MIN KSTC 011335Z AUTO 35010KT 10SM CLR 16/10 A2996 990 69 1300 350/10 RMK AO2
14926KSTC STC20050701074009807/01/05 07:40:31  5-MIN KSTC 011340Z AUTO 35010KT 10SM CLR 15/09 A2997 980 69 1300 350/10 RMK AO2
14926KSTC STC20050701074509807/01/05 07:45:31  5-MIN KSTC 011345Z AUTO 35009KT 10SM CLR 16/09 A2997 980 67 1300 350/09 RMK AO2
14926KSTC STC20050701075011807/01/05 07:50:31  5-MIN KSTC 011350Z AUTO 34009KT 10SM FEW022 16/10 A2997 980 69 1300 340/09 RMK AO2 SLP154 T01560100
14926KSTC STC20050701075510107/01/05 07:55:31  5-MIN KSTC 011355Z AUTO 34008KT 10SM FEW022 16/10 A2996 990 69 1300 330/08 RMK AO2
14926KSTC STC20050701080010107/01/05 08:00:31  5-MIN KSTC 011400Z AUTO 34008KT 10SM FEW022 16/10 A2997 980 67 1400 330/08 RMK AO2
14926KSTC STC20050701080510107/01/05 08:05:31  5-MIN KSTC 011405Z AUTO 35010KT 10SM FEW022 16/09 A2997 980 67 1300 350/10 RMK AO2
14926KSTC STC20050701081010107/01/05 08:10:31  5-MIN KSTC 011410Z AUTO 36011KT 10SM FEW022 16/09 A2997 980 64 1400 350/11 RMK AO2
14926KSTC STC20050701081510107/01/05 08:15:31  5-MIN KSTC 011415Z AUTO 36010KT 10SM FEW022 16/09 A2997 980 67 1300 350/10 RMK AO2
14926KSTC STC20050701082010107/01/05 08:20:31  5-MIN KSTC 011420Z AUTO 35009KT 10SM FEW022 16/09 A2997 980 64 1400 340/09 RMK AO2
14926KSTC STC20050701082510107/01/05 08:25:31  5-MIN KSTC 011425Z AUTO 34010KT 10SM FEW022 16/09 A2997 980 64 1400 340/10 RMK AO2
14926KSTC STC20050701083010407/01/05 08:30:31  5-MIN KSTC 011430Z AUTO 35008G15KT 10SM CLR 16/10 A2997 980 67 1400 350/08G15 RMK AO2
14926KSTC STC20050701083509807/01/05 08:35:31  5-MIN KSTC 011435Z AUTO 33009KT 10SM CLR 17/09 A2997 980 62 1400 330/09 RMK AO2
14926KSTC STC20050701084009807/01/05 08:40:31  5-MIN KSTC 011440Z AUTO 35008KT 10SM CLR 17/10 A2997 980 64 1400 340/08 RMK AO2
14926KSTC STC20050701084509807/01/05 08:45:31  5-MIN KSTC 011445Z AUTO 36012KT 10SM CLR 17/10 A2997 980 64 1400 350/12 RMK AO2
14926KSTC STC20050701085012707/01/05 08:50:31  5-MIN KSTC 011450Z AUTO 36007G14KT 10SM CLR 16/09 A2997 980 64 1400 350/07G14 RMK AO2 SLP156 T01610094 52021
14926KSTC STC20050701085509807/01/05 08:55:31  5-MIN KSTC 011455Z AUTO 36008KT 10SM CLR 17/09 A2997 980 62 1400 350/08 RMK AO2
14926KSTC STC20050701090011407/01/05 09:00:31  5-MIN KSTC 011500Z AUTO 36009KT 330V030 10SM CLR 17/09 A2997 980 62 1400 360/09 330V030 RMK AO2
14926KSTC STC20050701090509807/01/05 09:05:31  5-MIN KSTC 011505Z AUTO 36010KT 10SM CLR 17/09 A2997 980 62 1400 350/10 RMK AO2
14926KSTC STC20050701091009807/01/05 09:10:31  5-MIN KSTC 011510Z AUTO 34007KT 10SM CLR 17/09 A2997 980 62 1400 340/07 RMK AO2
14926KSTC STC20050701091509807/01/05 09:15:31  5-MIN KSTC 011515Z AUTO 36007KT 10SM CLR 17/09 A2998 970 60 1500 350/07 RMK AO2
14926KSTC STC20050701092011407/01/05 09:20:31  5-MIN KSTC 011520Z AUTO 34007KT 310V010 10SM CLR 17/10 A2998 970 62 1500 340/07 310V010 RMK AO2
14926KSTC STC20050701092509807/01/05 09:25:31  5-MIN KSTC 011525Z AUTO 34008KT 10SM CLR 18/10 A2998 970 60 1600 340/08 RMK AO2
14926KSTC STC20050701093009807/01/05 09:30:31  5-MIN KSTC 011530Z AUTO 34005KT 10SM CLR 18/10 A2998 970 60 1600 340/05 RMK AO2
14926KSTC STC20050701093509807/01/05 09:35:31  5-MIN KSTC 011535Z AUTO 33009KT 10SM CLR 18/10 A2998 980 60 1600 330/09 RMK AO2
14926KSTC STC20050701094009807/01/05 09:40:31  5-MIN KSTC 011540Z AUTO 34010KT 10SM CLR 18/10 A2998 980 60 1600 330/10 RMK AO2
14926KSTC STC20050701094509807/01/05 09:45:31  5-MIN KSTC 011545Z AUTO 34007KT 10SM CLR 18/09 A2998 970 58 1600 330/07 RMK AO2
14926KSTC STC20050701095011507/01/05 09:50:31  5-MIN KSTC 011550Z AUTO 34008KT 10SM CLR 18/10 A2998 970 58 1600 340/08 RMK AO2 SLP159 T01830100
14926KSTC STC20050701095509807/01/05 09:55:31  5-MIN KSTC 011555Z AUTO 34008KT 10SM CLR 18/10 A2998 970 60 1600 340/08 RMK AO2
14926KSTC STC20050701100009807/01/05 10:00:31  5-MIN KSTC 011600Z AUTO 34008KT 10SM CLR 18/10 A2998 970 58 1600 330/08 RMK AO2
14926KSTC STC20050701100509807/01/05 10:05:31  5-MIN KSTC 011605Z AUTO 34008KT 10SM CLR 18/09 A2998 970 56 1600 330/08 RMK AO2
14926KSTC STC20050701101009807/01/05 10:10:31  5-MIN KSTC 011610Z AUTO 35009KT 10SM CLR 18/09 A2998 970 56 1600 340/09 RMK AO2
14926KSTC STC20050701101509807/01/05 10:15:31  5-MIN KSTC 011615Z AUTO 35009KT 10SM CLR 18/10 A2998 970 58 1600 340/09 RMK AO2
14926KSTC STC20050701102009807/01/05 10:20:31  5-MIN KSTC 011620Z AUTO 33005KT 10SM CLR 18/10 A2998 970 58 1600 330/05 RMK AO2
14926KSTC STC20050701102509807/01/05 10:25:31  5-MIN KSTC 011625Z AUTO 33008KT 10SM CLR 19/10 A2999 970 56 1700 320/08 RMK AO2
14926KSTC STC20050701103009807/01/05 10:30:31  5-MIN KSTC 011630Z AUTO 32008KT 10SM CLR 19/11 A2999 960 58 1700 310/08 RMK AO2
14926KSTC STC20050701103509807/01/05 10:35:31  5-MIN KSTC 011635Z AUTO 33009KT 10SM CLR 19/10 A2999 960 56 1700 330/09 RMK AO2
14926KSTC STC20050701104009807/01/05 10:40:31  5-MIN KSTC 011640Z AUTO 33006KT 10SM CLR 19/11 A2999 960 56 1700 320/06 RMK AO2
14926KSTC STC20050701104509807/01/05 10:45:31  5-MIN KSTC 011645Z AUTO 01006KT 10SM CLR 19/11 A2999 970 56 1700 360/06 RMK AO2
14926KSTC STC20050701105011507/01/05 10:50:31  5-MIN KSTC 011650Z AUTO 33008KT 10SM CLR 19/11 A2999 960 56 1700 330/08 RMK AO2 SLP162 T01940106
14926KSTC STC20050701105509807/01/05 10:55:31  5-MIN KSTC 011655Z AUTO 36007KT 10SM CLR 20/10 A2999 960 52 1800 360/07 RMK AO2
14926KSTC STC20050701110009807/01/05 11:00:31  5-MIN KSTC 011700Z AUTO 35009KT 10SM CLR 19/10 A2999 960 54 1700 340/09 RMK AO2
14926KSTC STC20050701110509807/01/05 11:05:31  5-MIN KSTC 011705Z AUTO 35008KT 10SM CLR 20/09 A2999 960 50 1800 350/08 RMK AO2
14926KSTC STC20050701111009807/01/05 11:10:31  5-MIN KSTC 011710Z AUTO 36008KT 10SM CLR 21/09 A2999 960 48 1900 360/08 RMK AO2
14926KSTC STC20050701111509807/01/05 11:15:31  5-MIN KSTC 011715Z AUTO 03006KT 10SM CLR 20/09 A2999 960 50 1800 020/06 RMK AO2
14926KSTC STC20050701112009807/01/05 11:20:31  5-MIN KSTC 011720Z AUTO 35008KT 10SM CLR 21/10 A2999 960 50 1900 350/08 RMK AO2
14926KSTC STC20050701112509807/01/05 11:25:31  5-MIN KSTC 011725Z AUTO 36006KT 10SM CLR 20/09 A2999 960 50 1800 360/06 RMK AO2
14926KSTC STC20050701113009807/01/05 11:30:31  5-MIN KSTC 011730Z AUTO 36008KT 10SM CLR 21/10 A3000 960 50 1900 350/08 RMK AO2
14926KSTC STC20050701113509807/01/05 11:35:31  5-MIN KSTC 011735Z AUTO 35006KT 10SM CLR 21/11 A3000 950 52 1900 350/06 RMK AO2
14926KSTC STC20050701114009807/01/05 11:40:31  5-MIN KSTC 011740Z AUTO 33008KT 10SM CLR 21/11 A3000 950 50 1900 330/08 RMK AO2
14926KSTC STC20050701114509807/01/05 11:45:31  5-MIN KSTC 011745Z AUTO 01008KT 10SM CLR 21/10 A3000 960 48 1900 010/08 RMK AO2
14926KSTC STC20050701115013307/01/05 11:50:31  5-MIN KSTC 011750Z AUTO VRB05KT 10SM CLR 21/10 A2999 960 48 1900 VRB/05 RMK AO2 SLP163 T02110100 10211 20128 51012
14926KSTC STC20050701115509807/01/05 11:55:31  5-MIN KSTC 011755Z AUTO 35009KT 10SM CLR 22/11 A2999 960 49 2000 350/09 RMK AO2
14926KSTC STC20050701120009807/01/05 12:00:31  5-MIN KSTC 011800Z AUTO VRB06KT 10SM CLR 21/10 A2999 960 48 1900 VRB/06 RMK AO2
14926KSTC STC20050701120509807/01/05 12:05:31  5-MIN KSTC 011805Z AUTO 34009KT 10SM CLR 21/09 A2999 960 47 1900 330/09 RMK AO2
14926KSTC STC20050701121009807/01/05 12:10:31  5-MIN KSTC 011810Z AUTO 35005KT 10SM CLR 22/09 A2999 960 45 2000 350/05 RMK AO2
14926KSTC STC20050701121509807/01/05 12:15:31  5-MIN KSTC 011815Z AUTO 02007KT 10SM CLR 22/09 A2999 960 45 2000 020/07 RMK AO2
14926KSTC STC20050701122009807/01/05 12:20:31  5-MIN KSTC 011820Z AUTO 03006KT 10SM CLR 22/10 A2999 960 47 2000 030/06 RMK AO2
14926KSTC STC20050701122509807/01/05 12:25:31  5-MIN KSTC 011825Z AUTO 36006KT 10SM CLR 22/09 A2999 960 43 2000 360/06 RMK AO2
14926KSTC STC20050701123009807/01/05 12:30:31  5-MIN KSTC 011830Z AUTO 02005KT 10SM CLR 22/09 A2999 960 43 2000 010/05 RMK AO2
14926KSTC STC20050701123509807/01/05 12:35:31  5-MIN KSTC 011835Z AUTO VRB05KT 10SM CLR 22/09 A2999 960 45 2000 VRB/05 RMK AO2
14926KSTC STC20050701124009807/01/05 12:40:31  5-MIN KSTC 011840Z AUTO VRB06KT 10SM CLR 22/09 A2999 960 43 2100 VRB/06 RMK AO2
14926KSTC STC20050701124509807/01/05 12:45:31  5-MIN KSTC 011845Z AUTO 36006KT 10SM CLR 22/09 A2999 960 43 2100 350/06 RMK AO2
14926KSTC STC20050701125011507/01/05 12:50:31  5-MIN KSTC 011850Z AUTO 02008KT 10SM CLR 22/09 A2999 960 43 2100 010/08 RMK AO2 SLP160 T02220094
14926KSTC STC20050701125509807/01/05 12:55:31  5-MIN KSTC 011855Z AUTO 35006KT 10SM CLR 22/09 A2999 970 43 2100 350/06 RMK AO2
14926KSTC STC20050701130009807/01/05 13:00:31  5-MIN KSTC 011900Z AUTO VRB05KT 10SM CLR 22/10 A2998 970 45 2100 VRB/05 RMK AO2
14926KSTC STC20050701130509807/01/05 13:05:31  5-MIN KSTC 011905Z AUTO 29005KT 10SM CLR 22/10 A2999 970 45 2100 290/05 RMK AO2
14926KSTC STC20050701131009807/01/05 13:10:31  5-MIN KSTC 011910Z AUTO 36006KT 10SM CLR 22/09 A2999 970 43 2100 350/06 RMK AO2
14926KSTC STC20050701131509807/01/05 13:15:31  5-MIN KSTC 011915Z AUTO VRB06KT 10SM CLR 23/09 A2998 970 42 2100 VRB/06 RMK AO2
14926KSTC STC20050701132009807/01/05 13:20:31  5-MIN KSTC 011920Z AUTO 33007KT 10SM CLR 22/09 A2998 970 42 2100 330/07 RMK AO2
14926KSTC STC20050701132509807/01/05 13:25:31  5-MIN KSTC 011925Z AUTO 31007KT 10SM CLR 22/09 A2998 970 42 2100 310/07 RMK AO2
14926KSTC STC20050701133009807/01/05 13:30:31  5-MIN KSTC 011930Z AUTO 33006KT 10SM CLR 22/09 A2998 970 42 2100 330/06 RMK AO2
14926KSTC STC20050701133509807/01/05 13:35:31  5-MIN KSTC 011935Z AUTO VRB04KT 10SM CLR 22/09 A2998 970 43 2100 VRB/04 RMK AO2
14926KSTC STC20050701134009807/01/05 13:40:31  5-MIN KSTC 011940Z AUTO 33008KT 10SM CLR 23/09 A2998 970 42 2100 330/08 RMK AO2
14926KSTC STC20050701134509807/01/05 13:45:31  5-MIN KSTC 011945Z AUTO 34006KT 10SM CLR 23/09 A2998 970 40 2100 340/06 RMK AO2
14926KSTC STC20050701135011507/01/05 13:50:31  5-MIN KSTC 011950Z AUTO 34006KT 10SM CLR 23/09 A2998 970 40 2100 330/06 RMK AO2 SLP157 T02280089
14926KSTC STC20050701135511407/01/05 13:55:31  5-MIN KSTC 011955Z AUTO 33007KT 300V020 10SM CLR 23/09 A2998 970 42 2100 330/07 300V020 RMK AO2
14926KSTC STC20050701140011407/01/05 14:00:31  5-MIN KSTC 012000Z AUTO 35007KT 330V060 10SM CLR 23/09 A2998 970 42 2100 340/07 330V060 RMK AO2
14926KSTC STC20050701140509807/01/05 14:05:31  5-MIN KSTC 012005Z AUTO VRB03KT 10SM CLR 23/09 A2998 970 40 2100 VRB/03 RMK AO2
14926KSTC STC20050701141009807/01/05 14:10:31  5-MIN KSTC 012010Z AUTO VRB03KT 10SM CLR 23/09 A2998 970 40 2100 VRB/03 RMK AO2
14926KSTC STC20050701141509807/01/05 14:15:31  5-MIN KSTC 012015Z AUTO 02007KT 10SM CLR 23/09 A2998 970 41 2200 020/07 RMK AO2
14926KSTC STC20050701142009807/01/05 14:20:31  5-MIN KSTC 012020Z AUTO VRB04KT 10SM CLR 23/09 A2997 980 39 2200 VRB/04 RMK AO2
14926KSTC STC20050701142509807/01/05 14:25:31  5-MIN KSTC 012025Z AUTO 34006KT 10SM CLR 23/09 A2997 980 41 2200 330/06 RMK AO2
14926KSTC STC20050701143009807/01/05 14:30:31  5-MIN KSTC 012030Z AUTO 32005KT 10SM CLR 23/09 A2997 980 41 2200 320/05 RMK AO2
14926KSTC STC20050701143509807/01/05 14:35:31  5-MIN KSTC 012035Z AUTO 31007KT 10SM CLR 23/09 A2997 980 39 2200 310/07 RMK AO2
14926KSTC STC20050701144009807/01/05 14:40:31  5-MIN KSTC 012040Z AUTO 32007KT 10SM CLR 23/09 A2997 980 39 2200 310/07 RMK AO2
14926KSTC STC20050701144509807/01/05 14:45:31  5-MIN KSTC 012045Z AUTO 31007KT 10SM CLR 23/09 A2997 980 41 2200 310/07 RMK AO2
14926KSTC STC20050701145012107/01/05 14:50:31  5-MIN KSTC 012050Z AUTO 00000KT 10SM CLR 23/09 A2997 980 39 2200 000/00 RMK AO2 SLP156 T02330089 51007
14926KSTC STC20050701145509807/01/05 14:55:31  5-MIN KSTC 012055Z AUTO VRB05KT 10SM CLR 23/09 A2997 980 39 2200 VRB/05 RMK AO2
14926KSTC STC20050701150009807/01/05 15:00:31  5-MIN KSTC 012100Z AUTO VRB06KT 10SM CLR 23/08 A2997 980 38 2200 VRB/06 RMK AO2
14926KSTC STC20050701150509807/01/05 15:05:31  5-MIN KSTC 012105Z AUTO VRB03KT 10SM CLR 24/09 A2997 980 38 2300 VRB/03 RMK AO2
14926KSTC STC20050701151009807/01/05 15:10:31  5-MIN KSTC 012110Z AUTO 35004KT 10SM CLR 24/08 A2997 980 36 2300 350/04 RMK AO2
14926KSTC STC20050701151509807/01/05 15:15:31  5-MIN KSTC 012115Z AUTO 00000KT 10SM CLR 23/08 A2997 980 36 2200 000/00 RMK AO2
14926KSTC STC20050701152009807/01/05 15:20:31  5-MIN KSTC 012120Z AUTO VRB03KT 10SM CLR 24/08 A2997 980 35 2300 VRB/03 RMK AO2
14926KSTC STC20050701152509807/01/05 15:25:31  5-MIN KSTC 012125Z AUTO VRB04KT 10SM CLR 24/09 A2997 980 38 2300 VRB/04 RMK AO2
14926KSTC STC20050701153009807/01/05 15:30:31  5-MIN KSTC 012130Z AUTO 00000KT 10SM CLR 24/09 A2997 980 38 2300 000/00 RMK AO2
14926KSTC STC20050701153509807/01/05 15:35:31  5-MIN KSTC 012135Z AUTO VRB04KT 10SM CLR 24/09 A2997 980 39 2300 VRB/04 RMK AO2
14926KSTC STC20050701154009807/01/05 15:40:31  5-MIN KSTC 012140Z AUTO VRB03KT 10SM CLR 24/09 A2997 990 38 2300 VRB/03 RMK AO2
14926KSTC STC20050701154509807/01/05 15:45:31  5-MIN KSTC 012145Z AUTO 36007KT 10SM CLR 24/09 A2996 990 36 2300 360/07 RMK AO2
14926KSTC STC20050701155011507/01/05 15:50:31  5-MIN KSTC 012150Z AUTO VRB04KT 10SM CLR 24/08 A2996 990 36 2300 VRB/04 RMK AO2 SLP153 T02390083
14926KSTC STC20050701155509807/01/05 15:55:31  5-MIN KSTC 012155Z AUTO 05004KT 10SM CLR 24/08 A2996 990 36 2300 050/04 RMK AO2
14926KSTC STC20050701160009807/01/05 16:00:31  5-MIN KSTC 012200Z AUTO VRB03KT 10SM CLR 24/08 A2996 990 36 2300 VRB/03 RMK AO2
14926KSTC STC20050701160509807/01/05 16:05:31  5-MIN KSTC 012205Z AUTO VRB05KT 10SM CLR 24/09 A2996 990 36 2300 VRB/05 RMK AO2
14926KSTC STC20050701161009807/01/05 16:10:31  5-MIN KSTC 012210Z AUTO 03003KT 10SM CLR 24/09 A2996 990 38 2300 030/03 RMK AO2
14926KSTC STC20050701161509807/01/05 16:15:31  5-MIN KSTC 012215Z AUTO 00000KT 10SM CLR 24/08 A2996 990 36 2300 000/00 RMK AO2
14926KSTC STC20050701162009807/01/05 16:20:31  5-MIN KSTC 012220Z AUTO 00000KT 10SM CLR 24/08 A2996 990 36 2300 000/00 RMK AO2
14926KSTC STC20050701162509807/01/05 16:25:31  5-MIN KSTC 012225Z AUTO VRB03KT 10SM CLR 24/08 A2996 990 35 2300 VRB/03 RMK AO2
14926KSTC STC20050701163009807/01/05 16:30:31  5-MIN KSTC 012230Z AUTO 36005KT 10SM CLR 24/07 A2996 990 34 2300 360/05 RMK AO2
14926KSTC STC20050701163509907/01/05 16:35:31  5-MIN KSTC 012235Z AUTO 02005KT 10SM CLR 24/08 A2995 1000 34 2400 010/05 RMK AO2
14926KSTC STC20050701164009907/01/05 16:40:31  5-MIN KSTC 012240Z AUTO VRB03KT 10SM CLR 24/07 A2995 1000 33 2400 VRB/03 RMK AO2
14926KSTC STC20050701164509907/01/05 16:45:31  5-MIN KSTC 012245Z AUTO 00000KT 10SM CLR 24/07 A2995 1000 34 2300 000/00 RMK AO2
14926KSTC STC20050701165011607/01/05 16:50:31  5-MIN KSTC 012250Z AUTO 05003KT 10SM CLR 24/07 A2995 1000 34 2300 050/03 RMK AO2 SLP148 T02390072
14926KSTC STC20050701165509907/01/05 16:55:31  5-MIN KSTC 012255Z AUTO VRB03KT 10SM CLR 24/07 A2995 1000 34 2300 VRB/03 RMK AO2
14926KSTC STC20050701170009907/01/05 17:00:31  5-MIN KSTC 012300Z AUTO 08004KT 10SM CLR 24/08 A2995 1000 36 2300 080/04 RMK AO2
14926KSTC STC20050701170509907/01/05 17:05:31  5-MIN KSTC 012305Z AUTO VRB04KT 10SM CLR 24/08 A2995 1000 36 2300 VRB/04 RMK AO2
14926KSTC STC20050701171009907/01/05 17:10:31  5-MIN KSTC 012310Z AUTO 05003KT 10SM CLR 24/08 A2995 1000 36 2300 050/03 RMK AO2
14926KSTC STC20050701171509907/01/05 17:15:31  5-MIN KSTC 012315Z AUTO 02003KT 10SM CLR 24/08 A2995 1000 35 2300 020/03 RMK AO2
14926KSTC STC20050701172009907/01/05 17:20:31  5-MIN KSTC 012320Z AUTO VRB04KT 10SM CLR 24/08 A2994 1000 36 2300 VRB/04 RMK AO2
14926KSTC STC20050701172509907/01/05 17:25:31  5-MIN KSTC 012325Z AUTO 04004KT 10SM CLR 24/08 A2994 1000 36 2300 040/04 RMK AO2
14926KSTC STC20050701173009907/01/05 17:30:31  5-MIN KSTC 012330Z AUTO 01003KT 10SM CLR 24/08 A2994 1000 36 2300 010/03 RMK AO2
14926KSTC STC20050701173509907/01/05 17:35:31  5-MIN KSTC 012335Z AUTO 01004KT 10SM CLR 24/09 A2994 1010 38 2300 010/04 RMK AO2
14926KSTC STC20050701174009907/01/05 17:40:31  5-MIN KSTC 012340Z AUTO 00000KT 10SM CLR 24/08 A2994 1010 35 2300 000/00 RMK AO2
14926KSTC STC20050701174509907/01/05 17:45:31  5-MIN KSTC 012345Z AUTO VRB03KT 10SM CLR 24/08 A2994 1010 36 2300 VRB/03 RMK AO2
14926KSTC STC20050701175013407/01/05 17:50:31  5-MIN KSTC 012350Z AUTO 09005KT 10SM CLR 23/09 A2994 1010 39 2200 080/05 RMK AO2 SLP144 T02330089 10244 20211 58006
14926KSTC STC20050701175509907/01/05 17:55:31  5-MIN KSTC 012355Z AUTO VRB03KT 10SM CLR 23/08 A2994 1010 38 2200 VRB/03 RMK AO2
14926KSTC STC20050701180009907/01/05 18:00:31  5-MIN KSTC 020000Z AUTO 09004KT 10SM CLR 23/09 A2994 1010 39 2200 080/04 RMK AO2
14926KSTC STC20050701180509907/01/05 18:05:31  5-MIN KSTC 020005Z AUTO 10004KT 10SM CLR 23/09 A2994 1010 39 2200 100/04 RMK AO2
14926KSTC STC20050701181009907/01/05 18:10:31  5-MIN KSTC 020010Z AUTO 08003KT 10SM CLR 23/09 A2994 1010 39 2200 070/03 RMK AO2
14926KSTC STC20050701181509907/01/05 18:15:31  5-MIN KSTC 020015Z AUTO 00000KT 10SM CLR 23/09 A2994 1010 39 2200 000/00 RMK AO2
14926KSTC STC20050701182009907/01/05 18:20:31  5-MIN KSTC 020020Z AUTO 00000KT 10SM CLR 23/08 A2994 1010 38 2200 000/00 RMK AO2
14926KSTC STC20050701182509907/01/05 18:25:31  5-MIN KSTC 020025Z AUTO VRB03KT 10SM CLR 23/09 A2994 1010 41 2200 VRB/03 RMK AO2
14926KSTC STC20050701183009907/01/05 18:30:31  5-MIN KSTC 020030Z AUTO 00000KT 10SM CLR 23/09 A2994 1010 39 2200 000/00 RMK AO2
14926KSTC STC20050701183509907/01/05 18:35:31  5-MIN KSTC 020035Z AUTO 06003KT 10SM CLR 23/09 A2994 1010 39 2200 050/03 RMK AO2
14926KSTC STC20050701184009907/01/05 18:40:31  5-MIN KSTC 020040Z AUTO 00000KT 10SM CLR 23/09 A2994 1010 39 2200 000/00 RMK AO2
14926KSTC STC20050701184509907/01/05 18:45:31  5-MIN KSTC 020045Z AUTO 00000KT 10SM CLR 23/09 A2994 1010 41 2200 000/00 RMK AO2
14926KSTC STC20050701185011607/01/05 18:50:31  5-MIN KSTC 020050Z AUTO 00000KT 10SM CLR 23/10 A2994 1010 42 2200 000/00 RMK AO2 SLP144 T02330100
14926KSTC STC20050701185509907/01/05 18:55:31  5-MIN KSTC 020055Z AUTO 00000KT 10SM CLR 23/09 A2994 1010 42 2200 000/00 RMK AO2
14926KSTC STC20050701190009907/01/05 19:00:31  5-MIN KSTC 020100Z AUTO 00000KT 10SM CLR 23/09 A2994 1010 42 2200 000/00 RMK AO2
14926KSTC STC20050701190509907/01/05 19:05:31  5-MIN KSTC 020105Z AUTO 00000KT 10SM CLR 23/10 A2994 1010 44 2200 000/00 RMK AO2
14926KSTC STC20050701191009907/01/05 19:10:31  5-MIN KSTC 020110Z AUTO 00000KT 10SM CLR 22/11 A2994 1010 49 2100 000/00 RMK AO2
14926KSTC STC20050701191509907/01/05 19:15:31  5-MIN KSTC 020115Z AUTO 00000KT 10SM CLR 22/12 A2994 1010 54 2100 000/00 RMK AO2
14926KSTC STC20050701192009907/01/05 19:20:31  5-MIN KSTC 020120Z AUTO 00000KT 10SM CLR 22/13 A2993 1010 56 2100 000/00 RMK AO2
14926KSTC STC20050701192509907/01/05 19:25:31  5-MIN KSTC 020125Z AUTO 00000KT 10SM CLR 21/13 A2993 1010 58 2000 000/00 RMK AO2
14926KSTC STC20050701193009907/01/05 19:30:31  5-MIN KSTC 020130Z AUTO 00000KT 10SM CLR 21/12 A2993 1010 56 2000 000/00 RMK AO2
14926KSTC STC20050701193509907/01/05 19:35:31  5-MIN KSTC 020135Z AUTO 00000KT 10SM CLR 21/12 A2993 1010 58 1900 000/00 RMK AO2
14926KSTC STC20050701194009907/01/05 19:40:31  5-MIN KSTC 020140Z AUTO 00000KT 10SM CLR 20/13 A2993 1010 65 1900 000/00 RMK AO2
14926KSTC STC20050701194509907/01/05 19:45:31  5-MIN KSTC 020145Z AUTO 00000KT 10SM CLR 20/13 A2993 1010 63 1900 000/00 RMK AO2
14926KSTC STC20050701195011607/01/05 19:50:31  5-MIN KSTC 020150Z AUTO 00000KT 10SM CLR 19/12 A2993 1010 62 1800 000/00 RMK AO2 SLP143 T01940122
14926KSTC STC20050701195509907/01/05 19:55:31  5-MIN KSTC 020155Z AUTO 00000KT 10SM CLR 19/13 A2993 1020 65 1800 000/00 RMK AO2
14926KSTC STC20050701200009907/01/05 20:00:31  5-MIN KSTC 020200Z AUTO 00000KT 10SM CLR 19/12 A2993 1020 62 1700 000/00 RMK AO2
14926KSTC STC20050701200509907/01/05 20:05:31  5-MIN KSTC 020205Z AUTO 00000KT 10SM CLR 19/12 A2993 1020 62 1700 000/00 RMK AO2
14926KSTC STC20050701201009907/01/05 20:10:31  5-MIN KSTC 020210Z AUTO 00000KT 10SM CLR 18/12 A2993 1020 67 1600 000/00 RMK AO2
14926KSTC STC20050701201509907/01/05 20:15:31  5-MIN KSTC 020215Z AUTO 00000KT 10SM CLR 18/12 A2993 1020 67 1600 000/00 RMK AO2
14926KSTC STC20050701202009907/01/05 20:20:31  5-MIN KSTC 020220Z AUTO 00000KT 10SM CLR 18/12 A2993 1020 69 1600 000/00 RMK AO2
14926KSTC STC20050701202509907/01/05 20:25:31  5-MIN KSTC 020225Z AUTO 00000KT 10SM CLR 17/12 A2993 1020 72 1600 000/00 RMK AO2
14926KSTC STC20050701203009907/01/05 20:30:31  5-MIN KSTC 020230Z AUTO 00000KT 10SM CLR 17/12 A2993 1020 72 1500 000/00 RMK AO2
14926KSTC STC20050701203509907/01/05 20:35:31  5-MIN KSTC 020235Z AUTO 00000KT 10SM CLR 16/12 A2993 1020 77 1400 000/00 RMK AO2
14926KSTC STC20050701204009907/01/05 20:40:31  5-MIN KSTC 020240Z AUTO 00000KT 10SM CLR 17/12 A2993 1020 75 1500 000/00 RMK AO2
14926KSTC STC20050701204509907/01/05 20:45:31  5-MIN KSTC 020245Z AUTO 00000KT 10SM CLR 17/12 A2993 1020 75 1500 000/00 RMK AO2
14926KSTC STC20050701205012207/01/05 20:50:31  5-MIN KSTC 020250Z AUTO 00000KT 10SM CLR 16/12 A2993 1020 77 1400 000/00 RMK AO2 SLP143 T01610122 58012
14926KSTC STC20050701205509907/01/05 20:55:31  5-MIN KSTC 020255Z AUTO 00000KT 10SM CLR 16/12 A2993 1020 77 1400 000/00 RMK AO2
14926KSTC STC20050701210009907/01/05 21:00:31  5-MIN KSTC 020300Z AUTO 00000KT 10SM CLR 16/12 A2993 1020 77 1400 000/00 RMK AO2
14926KSTC STC20050701210509907/01/05 21:05:31  5-MIN KSTC 020305Z AUTO 00000KT 10SM CLR 16/13 A2993 1020 83 1400 000/00 RMK AO2
14926KSTC STC20050701211009907/01/05 21:10:31  5-MIN KSTC 020310Z AUTO 00000KT 10SM CLR 16/13 A2993 1020 83 1400 000/00 RMK AO2
14926KSTC STC20050701211509907/01/05 21:15:31  5-MIN KSTC 020315Z AUTO 00000KT 10SM CLR 15/12 A2993 1020 83 1300 000/00 RMK AO2
14926KSTC STC20050701212009907/01/05 21:20:31  5-MIN KSTC 020320Z AUTO 00000KT 10SM CLR 15/12 A2993 1020 83 1300 000/00 RMK AO2
14926KSTC STC20050701212509907/01/05 21:25:31  5-MIN KSTC 020325Z AUTO 10003KT 10SM CLR 14/13 A2993 1010 90 1200 100/03 RMK AO2
14926KSTC STC20050701213009907/01/05 21:30:31  5-MIN KSTC 020330Z AUTO 12003KT 10SM CLR 15/13 A2994 1010 86 1300 120/03 RMK AO2
14926KSTC STC20050701213509907/01/05 21:35:31  5-MIN KSTC 020335Z AUTO 13003KT 10SM CLR 15/13 A2993 1010 86 1300 120/03 RMK AO2
14926KSTC STC20050701214009907/01/05 21:40:31  5-MIN KSTC 020340Z AUTO 00000KT 10SM CLR 14/13 A2994 1010 90 1200 000/00 RMK AO2
14926KSTC STC20050701214509907/01/05 21:45:31  5-MIN KSTC 020345Z AUTO 00000KT 10SM CLR 15/13 A2993 1010 86 1300 000/00 RMK AO2
14926KSTC STC20050701215011607/01/05 21:50:31  5-MIN KSTC 020350Z AUTO 00000KT 10SM CLR 15/13 A2994 1010 86 1300 000/00 RMK AO2 SLP144 T01500128
14926KSTC STC20050701215509907/01/05 21:55:31  5-MIN KSTC 020355Z AUTO 00000KT 10SM CLR 14/13 A2994 1010 90 1200 000/00 RMK AO2
14926KSTC STC20050701220009907/01/05 22:00:31  5-MIN KSTC 020400Z AUTO 00000KT 10SM CLR 14/12 A2993 1010 86 1200 000/00 RMK AO2
14926KSTC STC20050701220509907/01/05 22:05:31  5-MIN KSTC 020405Z AUTO 00000KT 10SM CLR 14/12 A2993 1010 86 1200 000/00 RMK AO2
14926KSTC STC20050701221009907/01/05 22:10:31  5-MIN KSTC 020410Z AUTO 00000KT 10SM CLR 14/12 A2993 1020 86 1200 000/00 RMK AO2
14926KSTC STC20050701221509907/01/05 22:15:31  5-MIN KSTC 020415Z AUTO 00000KT 10SM CLR 14/12 A2993 1020 90 1200 000/00 RMK AO2
14926KSTC STC20050701222009907/01/05 22:20:31  5-MIN KSTC 020420Z AUTO 00000KT 10SM CLR 14/12 A2993 1010 90 1200 000/00 RMK AO2
14926KSTC STC20050701222509907/01/05 22:25:31  5-MIN KSTC 020425Z AUTO 00000KT 10SM CLR 14/12 A2994 1010 90 1200 000/00 RMK AO2
14926KSTC STC20050701223009907/01/05 22:30:31  5-MIN KSTC 020430Z AUTO 00000KT 10SM CLR 14/12 A2994 1010 86 1200 000/00 RMK AO2
14926KSTC STC20050701223509907/01/05 22:35:31  5-MIN KSTC 020435Z AUTO 00000KT 10SM CLR 14/12 A2993 1010 90 1200 000/00 RMK AO2
14926KSTC STC20050701224009907/01/05 22:40:31  5-MIN KSTC 020440Z AUTO 00000KT 10SM CLR 14/12 A2994 1010 90 1200 000/00 RMK AO2
14926KSTC STC20050701224509907/01/05 22:45:31  5-MIN KSTC 020445Z AUTO 00000KT 10SM CLR 13/12 A2994 1010 89 1100 000/00 RMK AO2
14926KSTC STC20050701225011607/01/05 22:50:31  5-MIN KSTC 020450Z AUTO 00000KT 10SM CLR 14/12 A2994 1000 90 1100 000/00 RMK AO2 SLP147 T01390122
14926KSTC STC20050701225509907/01/05 22:55:31  5-MIN KSTC 020455Z AUTO 00000KT 10SM CLR 14/12 A2995 1000 86 1200 000/00 RMK AO2
14926KSTC STC20050701230009907/01/05 23:00:31  5-MIN KSTC 020500Z AUTO 00000KT 10SM CLR 15/12 A2995 1000 83 1300 000/00 RMK AO2
14926KSTC STC20050701230509907/01/05 23:05:31  5-MIN KSTC 020505Z AUTO 00000KT 10SM CLR 14/12 A2995 1000 86 1100 000/00 RMK AO2
14926KSTC STC20050701231009807/01/05 23:10:31  5-MIN KSTC 020510Z AUTO 00000KT 10SM CLR 13/12 A2996 990 89 1100 000/00 RMK AO2
14926KSTC STC20050701231509807/01/05 23:15:31  5-MIN KSTC 020515Z AUTO 00000KT 10SM CLR 14/12 A2996 990 86 1100 000/00 RMK AO2
14926KSTC STC20050701232009807/01/05 23:20:31  5-MIN KSTC 020520Z AUTO 00000KT 10SM CLR 13/12 A2996 990 89 1100 000/00 RMK AO2
14926KSTC STC20050701232509807/01/05 23:25:31  5-MIN KSTC 020525Z AUTO 00000KT 10SM CLR 14/12 A2995 990 86 1100 000/00 RMK AO2
14926KSTC STC20050701233009907/01/05 23:30:31  5-MIN KSTC 020530Z AUTO 00000KT 10SM CLR 13/12 A2995 1000 89 1100 000/00 RMK AO2
14926KSTC STC20050701233509807/01/05 23:35:31  5-MIN KSTC 020535Z AUTO 00000KT 10SM CLR 13/12 A2995 990 93 1000 000/00 RMK AO2
14926KSTC STC20050701234009807/01/05 23:40:31  5-MIN KSTC 020540Z AUTO 00000KT 10SM CLR 13/12 A2996 990 89 1100 000/00 RMK AO2
14926KSTC STC20050701234509807/01/05 23:45:31  5-MIN KSTC 020545Z AUTO 00000KT 10SM CLR 13/11 A2995 990 89 1000 000/00 RMK AO2
14926KSTC STC20050701235014407/01/05 23:50:31  5-MIN KSTC 020550Z AUTO 00000KT 10SM CLR 13/12 A2995 1000 93 1000 000/00 RMK AO2 SLP150 T01280117 10233 20128 402440122 58003
14926KSTC STC20050701235509907/01/05 23:55:31  5-MIN KSTC 020555Z AUTO 00000KT 10SM CLR 13/11 A2995 1000 89 1000 000/00 RMK AO2
14926KSTC STC20050702000009807/02/05 00:00:32  5-MIN KSTC 020600Z AUTO 00000KT 10SM CLR 12/11 A2995 1000 93 900 000/00 RMK AO2
14926KSTC STC20050702000509807/02/05 00:05:31  5-MIN KSTC 020605Z AUTO 00000KT 10SM CLR 12/12 A2995 1000 96 900 000/00 RMK AO2
14926KSTC STC20050702001009907/02/05 00:10:31  5-MIN KSTC 020610Z AUTO 00000KT 10SM CLR 13/12 A2995 1000 93 1000 000/00 RMK AO2
14926KSTC STC20050702001509907/02/05 00:15:31  5-MIN KSTC 020615Z AUTO 00000KT 10SM CLR 13/12 A2995 1000 93 1000 000/00 RMK AO2
14926KSTC STC20050702002009907/02/05 00:20:31  5-MIN KSTC 020620Z AUTO 00000KT 10SM CLR 13/12 A2994 1000 93 1000 000/00 RMK AO2
14926KSTC STC20050702002509907/02/05 00:25:31  5-MIN KSTC 020625Z AUTO 00000KT 10SM CLR 13/11 A2994 1010 89 1000 000/00 RMK AO2
14926KSTC STC20050702003009907/02/05 00:30:31  5-MIN KSTC 020630Z AUTO 00000KT 10SM CLR 13/11 A2994 1010 89 1000 000/00 RMK AO2
14926KSTC STC20050702003509907/02/05 00:35:31  5-MIN KSTC 020635Z AUTO 11005KT 10SM CLR 12/11 A2994 1010 93 1000 110/05 RMK AO2
14926KSTC STC20050702004009907/02/05 00:40:31  5-MIN KSTC 020640Z AUTO 11003KT 10SM CLR 13/12 A2994 1010 89 1100 110/03 RMK AO2
14926KSTC STC20050702004509907/02/05 00:45:31  5-MIN KSTC 020645Z AUTO 12004KT 10SM CLR 14/12 A2994 1010 86 1200 120/04 RMK AO2
14926KSTC STC20050702005011607/02/05 00:50:31  5-MIN KSTC 020650Z AUTO 13005KT 10SM CLR 14/12 A2993 1020 86 1200 130/05 RMK AO2 SLP141 T01390117
14926KSTC STC20050702005509907/02/05 00:55:31  5-MIN KSTC 020655Z AUTO 13005KT 10SM CLR 14/12 A2993 1020 83 1200 130/05 RMK AO2
14926KSTC STC20050702010009907/02/05 01:00:31  5-MIN KSTC 020700Z AUTO 14004KT 10SM CLR 14/12 A2993 1020 83 1200 140/04 RMK AO2
14926KSTC STC20050702010509907/02/05 01:05:31  5-MIN KSTC 020705Z AUTO 13005KT 10SM CLR 13/11 A2992 1020 86 1100 130/05 RMK AO2
14926KSTC STC20050702011009907/02/05 01:10:31  5-MIN KSTC 020710Z AUTO 13006KT 10SM CLR 15/12 A2992 1020 80 1300 130/06 RMK AO2
14926KSTC STC20050702011509907/02/05 01:15:31  5-MIN KSTC 020715Z AUTO 12004KT 10SM CLR 15/12 A2993 1020 80 1300 120/04 RMK AO2
14926KSTC STC20050702012009907/02/05 01:20:31  5-MIN KSTC 020720Z AUTO 13004KT 10SM CLR 14/12 A2993 1020 83 1200 120/04 RMK AO2
14926KSTC STC20050702012509907/02/05 01:25:31  5-MIN KSTC 020725Z AUTO 14005KT 10SM CLR 14/12 A2992 1020 83 1200 130/05 RMK AO2
14926KSTC STC20050702013009907/02/05 01:30:31  5-MIN KSTC 020730Z AUTO 14005KT 10SM CLR 14/12 A2992 1030 83 1200 130/05 RMK AO2
14926KSTC STC20050702013509907/02/05 01:35:31  5-MIN KSTC 020735Z AUTO 14006KT 10SM CLR 14/12 A2992 1030 83 1200 130/06 RMK AO2
14926KSTC STC20050702014009907/02/05 01:40:31  5-MIN KSTC 020740Z AUTO 13005KT 10SM CLR 14/12 A2992 1030 83 1200 130/05 RMK AO2
14926KSTC STC20050702014509907/02/05 01:45:31  5-MIN KSTC 020745Z AUTO 13006KT 10SM CLR 15/12 A2992 1030 80 1300 130/06 RMK AO2
14926KSTC STC20050702015011607/02/05 01:50:31  5-MIN KSTC 020750Z AUTO 13005KT 10SM CLR 14/12 A2992 1030 83 1200 130/05 RMK AO2 SLP137 T01440117
14926KSTC STC20050702015509907/02/05 01:55:31  5-MIN KSTC 020755Z AUTO 14005KT 10SM CLR 14/12 A2992 1030 83 1200 140/05 RMK AO2
14926KSTC STC20050702020009907/02/05 02:00:31  5-MIN KSTC 020800Z AUTO 15003KT 10SM CLR 14/12 A2992 1030 86 1200 150/03 RMK AO2
14926KSTC STC20050702020509907/02/05 02:05:31  5-MIN KSTC 020805Z AUTO 15003KT 10SM CLR 13/11 A2992 1030 86 1100 150/03 RMK AO2
14926KSTC STC20050702021009907/02/05 02:10:31  5-MIN KSTC 020810Z AUTO 13003KT 10SM CLR 13/11 A2991 1030 86 1100 130/03 RMK AO2
14926KSTC STC20050702021509907/02/05 02:15:31  5-MIN KSTC 020815Z AUTO 14004KT 10SM CLR 13/12 A2991 1030 89 1100 140/04 RMK AO2
14926KSTC STC20050702022009907/02/05 02:20:31  5-MIN KSTC 020820Z AUTO 15003KT 10SM CLR 14/12 A2991 1030 86 1200 140/03 RMK AO2
14926KSTC STC20050702022509907/02/05 02:25:31  5-MIN KSTC 020825Z AUTO 15003KT 10SM CLR 13/12 A2991 1030 89 1100 150/03 RMK AO2
14926KSTC STC20050702023009907/02/05 02:30:31  5-MIN KSTC 020830Z AUTO 16003KT 10SM CLR 13/12 A2992 1030 89 1100 150/03 RMK AO2
14926KSTC STC20050702023509907/02/05 02:35:31  5-MIN KSTC 020835Z AUTO 16003KT 10SM CLR 13/12 A2991 1030 89 1100 150/03 RMK AO2
14926KSTC STC20050702024009907/02/05 02:40:31  5-MIN KSTC 020840Z AUTO 15003KT 10SM CLR 13/12 A2991 1030 89 1100 150/03 RMK AO2
14926KSTC STC20050702024509907/02/05 02:45:31  5-MIN KSTC 020845Z AUTO 15003KT 10SM CLR 13/12 A2992 1030 89 1100 150/03 RMK AO2
14926KSTC STC20050702025012207/02/05 02:50:31  5-MIN KSTC 020850Z AUTO 00000KT 10SM CLR 13/12 A2992 1030 89 1100 000/00 RMK AO2 SLP137 T01330117 52008
14926KSTC STC20050702025509907/02/05 02:55:31  5-MIN KSTC 020855Z AUTO 00000KT 10SM CLR 13/11 A2992 1030 89 1000 000/00 RMK AO2
14926KSTC STC20050702030009907/02/05 03:00:31  5-MIN KSTC 020900Z AUTO 14003KT 10SM CLR 13/11 A2991 1030 89 1100 140/03 RMK AO2
14926KSTC STC20050702030509907/02/05 03:05:31  5-MIN KSTC 020905Z AUTO 14003KT 10SM CLR 13/11 A2991 1040 86 1100 140/03 RMK AO2
14926KSTC STC20050702031009907/02/05 03:10:31  5-MIN KSTC 020910Z AUTO 13003KT 10SM CLR 13/12 A2991 1040 89 1100 130/03 RMK AO2
14926KSTC STC20050702031509907/02/05 03:15:31  5-MIN KSTC 020915Z AUTO 13003KT 10SM CLR 13/12 A2991 1040 89 1100 120/03 RMK AO2
14926KSTC STC20050702032009907/02/05 03:20:31  5-MIN KSTC 020920Z AUTO 13004KT 10SM CLR 13/11 A2990 1040 86 1100 130/04 RMK AO2
14926KSTC STC20050702032509907/02/05 03:25:31  5-MIN KSTC 020925Z AUTO 14005KT 10SM CLR 13/12 A2990 1040 89 1100 130/05 RMK AO2
14926KSTC STC20050702033009907/02/05 03:30:31  5-MIN KSTC 020930Z AUTO 14004KT 10SM CLR 14/12 A2990 1040 86 1200 140/04 RMK AO2
14926KSTC STC20050702033509907/02/05 03:35:31  5-MIN KSTC 020935Z AUTO 14003KT 10SM CLR 13/12 A2991 1040 89 1100 140/03 RMK AO2
14926KSTC STC20050702034009907/02/05 03:40:31  5-MIN KSTC 020940Z AUTO 13003KT 10SM CLR 13/11 A2991 1040 86 1100 130/03 RMK AO2
14926KSTC STC20050702034509907/02/05 03:45:31  5-MIN KSTC 020945Z AUTO 13003KT 10SM CLR 13/11 A2991 1040 86 1100 130/03 RMK AO2
14926KSTC STC20050702035011607/02/05 03:50:31  5-MIN KSTC 020950Z AUTO 13003KT 10SM CLR 13/12 A2991 1040 89 1100 130/03 RMK AO2 SLP134 T01330117
14926KSTC STC20050702035509907/02/05 03:55:31  5-MIN KSTC 020955Z AUTO 14003KT 10SM CLR 13/12 A2991 1040 89 1100 140/03 RMK AO2
14926KSTC STC20050702040009907/02/05 04:00:31  5-MIN KSTC 021000Z AUTO 16003KT 10SM CLR 13/12 A2991 1040 89 1100 160/03 RMK AO2
14926KSTC STC20050702040509907/02/05 04:05:31  5-MIN KSTC 021005Z AUTO 15003KT 10SM CLR 13/11 A2991 1040 86 1100 150/03 RMK AO2
14926KSTC STC20050702041009907/02/05 04:10:31  5-MIN KSTC 021010Z AUTO 15004KT 10SM CLR 13/12 A2991 1040 89 1100 140/04 RMK AO2
14926KSTC STC20050702041509907/02/05 04:15:31  5-MIN KSTC 021015Z AUTO 14003KT 10SM CLR 13/11 A2991 1040 89 1100 140/03 RMK AO2
14926KSTC STC20050702042009907/02/05 04:20:31  5-MIN KSTC 021020Z AUTO 14003KT 10SM CLR 13/11 A2991 1040 89 1100 140/03 RMK AO2
14926KSTC STC20050702042509907/02/05 04:25:31  5-MIN KSTC 021025Z AUTO 14004KT 10SM CLR 13/11 A2991 1040 89 1100 140/04 RMK AO2
14926KSTC STC20050702043009907/02/05 04:30:31  5-MIN KSTC 021030Z AUTO 14004KT 10SM CLR 13/11 A2991 1040 89 1100 140/04 RMK AO2
14926KSTC STC20050702043509907/02/05 04:35:31  5-MIN KSTC 021035Z AUTO 13005KT 10SM CLR 13/11 A2990 1040 89 1100 130/05 RMK AO2
14926KSTC STC20050702044009907/02/05 04:40:31  5-MIN KSTC 021040Z AUTO 13005KT 10SM CLR 13/11 A2990 1040 89 1100 130/05 RMK AO2
14926KSTC STC20050702044509907/02/05 04:45:31  5-MIN KSTC 021045Z AUTO 13005KT 10SM CLR 13/12 A2990 1040 89 1100 130/05 RMK AO2
14926KSTC STC20050702045011607/02/05 04:50:31  5-MIN KSTC 021050Z AUTO 14004KT 10SM CLR 14/12 A2990 1040 86 1200 130/04 RMK AO2 SLP132 T01390117
14926KSTC STC20050702045509907/02/05 04:55:31  5-MIN KSTC 021055Z AUTO 14004KT 10SM CLR 13/12 A2991 1040 89 1100 140/04 RMK AO2
14926KSTC STC20050702050009907/02/05 05:00:31  5-MIN KSTC 021100Z AUTO 14003KT 10SM CLR 13/12 A2991 1040 89 1100 130/03 RMK AO2
14926KSTC STC20050702050509907/02/05 05:05:31  5-MIN KSTC 021105Z AUTO 13004KT 10SM CLR 13/12 A2991 1040 89 1100 130/04 RMK AO2
14926KSTC STC20050702051009907/02/05 05:10:31  5-MIN KSTC 021110Z AUTO 14004KT 10SM CLR 13/12 A2991 1040 89 1100 130/04 RMK AO2
14926KSTC STC20050702051509907/02/05 05:15:31  5-MIN KSTC 021115Z AUTO 14004KT 10SM CLR 14/12 A2990 1040 86 1200 130/04 RMK AO2
14926KSTC STC20050702052009907/02/05 05:20:31  5-MIN KSTC 021120Z AUTO 14004KT 10SM CLR 14/12 A2990 1040 86 1200 140/04 RMK AO2
14926KSTC STC20050702052509907/02/05 05:25:31  5-MIN KSTC 021125Z AUTO 15004KT 10SM CLR 14/12 A2990 1040 90 1200 140/04 RMK AO2
14926KSTC STC20050702053009907/02/05 05:30:31  5-MIN KSTC 021130Z AUTO 15005KT 10SM CLR 14/12 A2991 1040 90 1200 150/05 RMK AO2
14926KSTC STC20050702053509907/02/05 05:35:31  5-MIN KSTC 021135Z AUTO 15004KT 10SM CLR 14/12 A2991 1040 90 1200 150/04 RMK AO2
14926KSTC STC20050702054009907/02/05 05:40:31  5-MIN KSTC 021140Z AUTO 15005KT 10SM CLR 14/12 A2991 1040 90 1200 150/05 RMK AO2
14926KSTC STC20050702054509907/02/05 05:45:31  5-MIN KSTC 021145Z AUTO 15005KT 10SM CLR 14/12 A2991 1040 86 1300 150/05 RMK AO2
14926KSTC STC20050702055013407/02/05 05:50:31  5-MIN KSTC 021150Z AUTO 15005KT 10SM CLR 14/13 A2991 1040 90 1300 140/05 RMK AO2 SLP133 T01440128 10150 20122 56012
14926KSTC STC20050702055509907/02/05 05:55:31  5-MIN KSTC 021155Z AUTO 15005KT 10SM CLR 15/13 A2991 1040 86 1300 150/05 RMK AO2
14926KSTC STC20050702060009907/02/05 06:00:31  5-MIN KSTC 021200Z AUTO 16006KT 10SM CLR 15/13 A2991 1040 86 1300 150/06 RMK AO2
14926KSTC STC20050702060509907/02/05 06:05:31  5-MIN KSTC 021205Z AUTO 16006KT 10SM CLR 16/13 A2991 1030 83 1400 160/06 RMK AO2
14926KSTC STC20050702061009907/02/05 06:10:31  5-MIN KSTC 021210Z AUTO 16007KT 10SM CLR 16/13 A2991 1040 83 1400 150/07 RMK AO2
14926KSTC STC20050702061509907/02/05 06:15:31  5-MIN KSTC 021215Z AUTO 15006KT 10SM CLR 16/13 A2991 1040 80 1400 150/06 RMK AO2
14926KSTC STC20050702062009907/02/05 06:20:31  5-MIN KSTC 021220Z AUTO 16007KT 10SM CLR 16/13 A2991 1040 80 1400 160/07 RMK AO2
14926KSTC STC20050702062509907/02/05 06:25:31  5-MIN KSTC 021225Z AUTO 17008KT 10SM CLR 16/13 A2991 1030 80 1400 170/08 RMK AO2
14926KSTC STC20050702063009907/02/05 06:30:31  5-MIN KSTC 021230Z AUTO 17007KT 10SM CLR 17/13 A2991 1030 77 1500 170/07 RMK AO2
14926KSTC STC20050702063509907/02/05 06:35:31  5-MIN KSTC 021235Z AUTO 17008KT 10SM CLR 17/13 A2992 1030 77 1500 170/08 RMK AO2
14926KSTC STC20050702064009907/02/05 06:40:31  5-MIN KSTC 021240Z AUTO 17006KT 10SM CLR 17/13 A2992 1030 75 1600 170/06 RMK AO2
14926KSTC STC20050702064509907/02/05 06:45:31  5-MIN KSTC 021245Z AUTO 18007KT 10SM CLR 17/13 A2992 1030 75 1600 170/07 RMK AO2
14926KSTC STC20050702065011607/02/05 06:50:31  5-MIN KSTC 021250Z AUTO 17009KT 10SM CLR 17/13 A2992 1030 75 1600 170/09 RMK AO2 SLP136 T01720128
14926KSTC STC20050702065509907/02/05 06:55:31  5-MIN KSTC 021255Z AUTO 18007KT 10SM CLR 18/13 A2992 1030 72 1600 170/07 RMK AO2
14926KSTC STC20050702070009907/02/05 07:00:31  5-MIN KSTC 021300Z AUTO 19008KT 10SM CLR 18/13 A2993 1020 75 1600 180/08 RMK AO2
14926KSTC STC20050702070509907/02/05 07:05:31  5-MIN KSTC 021305Z AUTO 17011KT 10SM CLR 18/13 A2993 1020 72 1600 170/11 RMK AO2
14926KSTC STC20050702071009907/02/05 07:10:31  5-MIN KSTC 021310Z AUTO 18011KT 10SM CLR 18/13 A2992 1020 72 1600 180/11 RMK AO2
14926KSTC STC20050702071509907/02/05 07:15:31  5-MIN KSTC 021315Z AUTO 17010KT 10SM CLR 18/13 A2992 1030 70 1700 160/10 RMK AO2
14926KSTC STC20050702072009907/02/05 07:20:31  5-MIN KSTC 021320Z AUTO 17009KT 10SM CLR 18/13 A2992 1030 70 1700 170/09 RMK AO2
14926KSTC STC20050702072509907/02/05 07:25:31  5-MIN KSTC 021325Z AUTO 17010KT 10SM CLR 18/13 A2992 1030 70 1700 170/10 RMK AO2
14926KSTC STC20050702073009907/02/05 07:30:31  5-MIN KSTC 021330Z AUTO 19009KT 10SM CLR 19/13 A2992 1020 67 1800 180/09 RMK AO2
14926KSTC STC20050702073509907/02/05 07:35:31  5-MIN KSTC 021335Z AUTO 18011KT 10SM CLR 19/13 A2992 1030 70 1800 170/11 RMK AO2
14926KSTC STC20050702074009907/02/05 07:40:31  5-MIN KSTC 021340Z AUTO 17010KT 10SM CLR 19/13 A2992 1030 67 1800 170/10 RMK AO2
14926KSTC STC20050702074509907/02/05 07:45:31  5-MIN KSTC 021345Z AUTO 17008KT 10SM CLR 19/13 A2992 1030 67 1800 170/08 RMK AO2
14926KSTC STC20050702075011607/02/05 07:50:31  5-MIN KSTC 021350Z AUTO 17010KT 10SM CLR 19/13 A2991 1030 67 1800 170/10 RMK AO2 SLP135 T01940133
14926KSTC STC20050702075509907/02/05 07:55:31  5-MIN KSTC 021355Z AUTO 17011KT 10SM CLR 19/13 A2991 1030 65 1800 160/11 RMK AO2
14926KSTC STC20050702080009907/02/05 08:00:31  5-MIN KSTC 021400Z AUTO 17009KT 10SM CLR 20/13 A2991 1030 63 1900 170/09 RMK AO2
14926KSTC STC20050702080509907/02/05 08:05:31  5-MIN KSTC 021405Z AUTO 18009KT 10SM CLR 21/13 A2991 1030 63 2000 180/09 RMK AO2
14926KSTC STC20050702081009907/02/05 08:10:31  5-MIN KSTC 021410Z AUTO 19010KT 10SM CLR 21/13 A2992 1030 63 2000 180/10 RMK AO2
14926KSTC STC20050702081509907/02/05 08:15:31  5-MIN KSTC 021415Z AUTO 18009KT 10SM CLR 21/13 A2992 1030 63 2000 180/09 RMK AO2
14926KSTC STC20050702082009907/02/05 08:20:31  5-MIN KSTC 021420Z AUTO 18010KT 10SM CLR 21/13 A2992 1030 63 2000 170/10 RMK AO2
14926KSTC STC20050702082510507/02/05 08:25:31  5-MIN KSTC 021425Z AUTO 19013G17KT 10SM CLR 21/13 A2991 1030 61 2000 190/13G17 RMK AO2
14926KSTC STC20050702083010507/02/05 08:30:31  5-MIN KSTC 021430Z AUTO 19011G17KT 10SM CLR 21/13 A2991 1030 61 2000 180/11G17 RMK AO2
14926KSTC STC20050702083510207/02/05 08:35:31  5-MIN KSTC 021435Z AUTO 18009KT 10SM FEW065 21/13 A2991 1040 61 2000 180/09 RMK AO2
14926KSTC STC20050702084010207/02/05 08:40:31  5-MIN KSTC 021440Z AUTO 18012KT 10SM FEW065 21/13 A2991 1030 58 2000 180/12 RMK AO2
14926KSTC STC20050702084510207/02/05 08:45:31  5-MIN KSTC 021445Z AUTO 18013KT 10SM FEW065 21/13 A2991 1040 61 2000 170/13 RMK AO2
14926KSTC STC20050702085012507/02/05 08:50:31  5-MIN KSTC 021450Z AUTO 18014KT 10SM FEW065 22/13 A2991 1040 58 2100 180/14 RMK AO2 SLP134 T02170133 55002
14926KSTC STC20050702085510207/02/05 08:55:31  5-MIN KSTC 021455Z AUTO 18012KT 10SM FEW065 22/13 A2991 1040 58 2100 180/12 RMK AO2
14926KSTC STC20050702090010207/02/05 09:00:31  5-MIN KSTC 021500Z AUTO 18014KT 10SM FEW065 22/13 A2990 1040 56 2200 170/14 RMK AO2
14926KSTC STC20050702090510207/02/05 09:05:31  5-MIN KSTC 021505Z AUTO 18012KT 10SM FEW065 22/13 A2990 1040 56 2200 180/12 RMK AO2
14926KSTC STC20050702091010207/02/05 09:10:31  5-MIN KSTC 021510Z AUTO 18012KT 10SM FEW065 23/14 A2990 1040 57 2200 170/12 RMK AO2
14926KSTC STC20050702091510207/02/05 09:15:31  5-MIN KSTC 021515Z AUTO 18010KT 10SM SCT065 23/13 A2990 1050 55 2200 180/10 RMK AO2
14926KSTC STC20050702092010207/02/05 09:20:31  5-MIN KSTC 021520Z AUTO 18012KT 10SM SCT065 22/13 A2990 1050 56 2200 180/12 RMK AO2
14926KSTC STC20050702092510207/02/05 09:25:31  5-MIN KSTC 021525Z AUTO 19012KT 10SM SCT065 22/13 A2990 1050 56 2200 180/12 RMK AO2
14926KSTC STC20050702093010807/02/05 09:30:31  5-MIN KSTC 021530Z AUTO 17015G18KT 10SM FEW065 23/14 A2990 1050 57 2200 170/15G18 RMK AO2
14926KSTC STC20050702093510807/02/05 09:35:31  5-MIN KSTC 021535Z AUTO 18013G19KT 10SM SCT065 23/13 A2989 1050 55 2200 180/13G19 RMK AO2
14926KSTC STC20050702094010807/02/05 09:40:31  5-MIN KSTC 021540Z AUTO 19011G19KT 10SM SCT065 23/13 A2989 1050 55 2200 180/11G19 RMK AO2
14926KSTC STC20050702094510207/02/05 09:45:31  5-MIN KSTC 021545Z AUTO 17012KT 10SM BKN065 23/13 A2989 1050 55 2200 170/12 RMK AO2
14926KSTC STC20050702095012507/02/05 09:50:31  5-MIN KSTC 021550Z AUTO 17011G17KT 10SM SCT065 23/14 A2989 1060 55 2300 170/11G17 RMK AO2 SLP126 T02330139
14926KSTC STC20050702095510207/02/05 09:55:31  5-MIN KSTC 021555Z AUTO 17012KT 10SM FEW065 23/14 A2989 1060 55 2300 170/12 RMK AO2
14926KSTC STC20050702100010207/02/05 10:00:31  5-MIN KSTC 021600Z AUTO 17012KT 10SM FEW065 24/14 A2989 1060 53 2400 170/12 RMK AO2
14926KSTC STC20050702100510207/02/05 10:05:31  5-MIN KSTC 021605Z AUTO 16011KT 10SM FEW065 23/14 A2988 1060 55 2300 160/11 RMK AO2
14926KSTC STC20050702101010207/02/05 10:10:31  5-MIN KSTC 021610Z AUTO 17013KT 10SM FEW065 24/13 A2988 1060 51 2400 170/13 RMK AO2
14926KSTC STC20050702101509907/02/05 10:15:31  5-MIN KSTC 021615Z AUTO 18012KT 10SM CLR 24/13 A2988 1060 49 2400 180/12 RMK AO2
14926KSTC STC20050702102010507/02/05 10:20:31  5-MIN KSTC 021620Z AUTO 18016G19KT 10SM CLR 24/13 A2988 1070 51 2400 170/16G19 RMK AO2
14926KSTC STC20050702102510507/02/05 10:25:31  5-MIN KSTC 021625Z AUTO 18012G19KT 10SM CLR 24/13 A2988 1070 51 2400 180/12G19 RMK AO2
14926KSTC STC20050702103009907/02/05 10:30:31  5-MIN KSTC 021630Z AUTO 18015KT 10SM CLR 24/13 A2987 1070 49 2400 180/15 RMK AO2
14926KSTC STC20050702103509907/02/05 10:35:31  5-MIN KSTC 021635Z AUTO 19012KT 10SM CLR 24/13 A2987 1070 49 2500 180/12 RMK AO2
14926KSTC STC20050702104009907/02/05 10:40:31  5-MIN KSTC 021640Z AUTO 17012KT 10SM CLR 24/13 A2987 1070 49 2500 170/12 RMK AO2
14926KSTC STC20050702104509907/02/05 10:45:31  5-MIN KSTC 021645Z AUTO 16013KT 10SM CLR 24/14 A2987 1070 51 2500 160/13 RMK AO2
14926KSTC STC20050702105011607/02/05 10:50:31  5-MIN KSTC 021650Z AUTO 18012KT 10SM CLR 25/14 A2987 1080 49 2500 170/12 RMK AO2 SLP118 T02500139
14926KSTC STC20050702105509907/02/05 10:55:31  5-MIN KSTC 021655Z AUTO 17014KT 10SM CLR 25/13 A2986 1080 48 2500 170/14 RMK AO2
14926KSTC STC20050702110009907/02/05 11:00:31  5-MIN KSTC 021700Z AUTO 18014KT 10SM CLR 25/14 A2986 1080 49 2500 180/14 RMK AO2
14926KSTC STC20050702110510507/02/05 11:05:31  5-MIN KSTC 021705Z AUTO 18014G19KT 10SM CLR 25/14 A2986 1080 49 2500 180/14G19 RMK AO2
14926KSTC STC20050702111010507/02/05 11:10:31  5-MIN KSTC 021710Z AUTO 18015G19KT 10SM CLR 25/13 A2986 1080 48 2500 170/15G19 RMK AO2
14926KSTC STC20050702111509907/02/05 11:15:31  5-MIN KSTC 021715Z AUTO 18015KT 10SM CLR 25/14 A2985 1090 49 2500 180/15 RMK AO2
14926KSTC STC20050702112009907/02/05 11:20:31  5-MIN KSTC 021720Z AUTO 17013KT 10SM CLR 26/14 A2985 1090 48 2600 170/13 RMK AO2
14926KSTC STC20050702112509907/02/05 11:25:31  5-MIN KSTC 021725Z AUTO 18014KT 10SM CLR 26/14 A2985 1090 48 2600 180/14 RMK AO2
14926KSTC STC20050702113009907/02/05 11:30:31  5-MIN KSTC 021730Z AUTO 18014KT 10SM CLR 26/14 A2985 1090 48 2600 170/14 RMK AO2
14926KSTC STC20050702113510507/02/05 11:35:31  5-MIN KSTC 021735Z AUTO 17016G21KT 10SM CLR 26/14 A2985 1090 48 2600 160/16G21 RMK AO2
14926KSTC STC20050702114010507/02/05 11:40:31  5-MIN KSTC 021740Z AUTO 19015G21KT 10SM CLR 26/14 A2984 1100 48 2600 190/15G21 RMK AO2
14926KSTC STC20050702114510507/02/05 11:45:31  5-MIN KSTC 021745Z AUTO 18018G23KT 10SM CLR 26/14 A2984 1100 48 2600 170/18G23 RMK AO2
14926KSTC STC20050702115014007/02/05 11:50:31  5-MIN KSTC 021750Z AUTO 17014G23KT 10SM CLR 26/14 A2984 1100 48 2600 170/14G23 RMK AO2 SLP110 T02560139 10256 20150 50000
14926KSTC STC20050702115510507/02/05 11:55:31  5-MIN KSTC 021755Z AUTO 17015G20KT 10SM CLR 26/14 A2984 1100 48 2600 160/15G20 RMK AO2
14926KSTC STC20050702120009907/02/05 12:00:31  5-MIN KSTC 021800Z AUTO 18018KT 10SM CLR 26/14 A2984 1100 48 2700 180/18 RMK AO2
14926KSTC STC20050702120510507/02/05 12:05:31  5-MIN KSTC 021805Z AUTO 19017G21KT 10SM CLR 26/14 A2984 1110 48 2700 190/17G21 RMK AO2
14926KSTC STC20050702121010507/02/05 12:10:31  5-MIN KSTC 021810Z AUTO 19015G21KT 10SM CLR 26/14 A2984 1110 48 2700 190/15G21 RMK AO2
14926KSTC STC20050702121510507/02/05 12:15:31  5-MIN KSTC 021815Z AUTO 17018G23KT 10SM CLR 26/14 A2983 1110 48 2700 170/18G23 RMK AO2
14926KSTC STC20050702122010507/02/05 12:20:31  5-MIN KSTC 021820Z AUTO 19019G23KT 10SM CLR 26/14 A2983 1110 48 2700 190/19G23 RMK AO2
14926KSTC STC20050702122510507/02/05 12:25:31  5-MIN KSTC 021825Z AUTO 19016G23KT 10SM CLR 26/14 A2983 1110 48 2700 190/16G23 RMK AO2
14926KSTC STC20050702123010507/02/05 12:30:31  5-MIN KSTC 021830Z AUTO 18018G22KT 10SM CLR 26/14 A2983 1110 48 2700 180/18G22 RMK AO2
14926KSTC STC20050702123509907/02/05 12:35:31  5-MIN KSTC 021835Z AUTO 17018KT 10SM CLR 26/14 A2982 1120 48 2700 160/18 RMK AO2
14926KSTC STC20050702124009907/02/05 12:40:31  5-MIN KSTC 021840Z AUTO 17016KT 10SM CLR 26/14 A2982 1120 48 2700 170/16 RMK AO2
14926KSTC STC20050702124510507/02/05 12:45:31  5-MIN KSTC 021845Z AUTO 17013G21KT 10SM CLR 26/15 A2983 1110 50 2700 170/13G21 RMK AO2
14926KSTC STC20050702125012207/02/05 12:50:31  5-MIN KSTC 021850Z AUTO 17018G25KT 10SM CLR 26/14 A2982 1120 48 2700 160/18G25 RMK AO2 SLP104 T02610144
14926KSTC STC20050702125510507/02/05 12:55:31  5-MIN KSTC 021855Z AUTO 17016G25KT 10SM CLR 27/15 A2982 1120 48 2800 170/16G25 RMK AO2
14926KSTC STC20050702130010507/02/05 13:00:31  5-MIN KSTC 021900Z AUTO 18016G22KT 10SM CLR 27/14 A2982 1120 46 2800 180/16G22 RMK AO2
14926KSTC STC20050702130510507/02/05 13:05:31  5-MIN KSTC 021905Z AUTO 17016G22KT 10SM CLR 27/15 A2982 1120 48 2800 160/16G22 RMK AO2
14926KSTC STC20050702131010507/02/05 13:10:31  5-MIN KSTC 021910Z AUTO 16016G22KT 10SM CLR 27/14 A2982 1120 46 2800 160/16G22 RMK AO2
14926KSTC STC20050702131510507/02/05 13:15:31  5-MIN KSTC 021915Z AUTO 17018G22KT 10SM CLR 27/15 A2982 1120 48 2800 170/18G22 RMK AO2
14926KSTC STC20050702132010507/02/05 13:20:31  5-MIN KSTC 021920Z AUTO 16016G23KT 10SM CLR 27/14 A2982 1120 46 2800 160/16G23 RMK AO2
14926KSTC STC20050702132510507/02/05 13:25:31  5-MIN KSTC 021925Z AUTO 17015G23KT 10SM CLR 27/15 A2982 1120 48 2800 160/15G23 RMK AO2
14926KSTC STC20050702133010507/02/05 13:30:31  5-MIN KSTC 021930Z AUTO 17017G21KT 10SM CLR 27/15 A2981 1130 46 2800 160/17G21 RMK AO2
14926KSTC STC20050702133509907/02/05 13:35:31  5-MIN KSTC 021935Z AUTO 17019KT 10SM CLR 27/14 A2981 1130 45 2800 170/19 RMK AO2
14926KSTC STC20050702134010507/02/05 13:40:31  5-MIN KSTC 021940Z AUTO 17015G21KT 10SM CLR 27/15 A2981 1130 46 2800 160/15G21 RMK AO2
14926KSTC STC20050702134509907/02/05 13:45:31  5-MIN KSTC 021945Z AUTO 15016KT 10SM CLR 27/14 A2981 1130 45 2800 150/16 RMK AO2
14926KSTC STC20050702135012207/02/05 13:50:31  5-MIN KSTC 021950Z AUTO 17019G23KT 10SM CLR 27/15 A2980 1130 46 2800 170/19G23 RMK AO2 SLP097 T02720150
14926KSTC STC20050702135510507/02/05 13:55:31  5-MIN KSTC 021955Z AUTO 18015G23KT 10SM CLR 27/15 A2980 1140 46 2800 180/15G23 RMK AO2
14926KSTC STC20050702140010507/02/05 14:00:31  5-MIN KSTC 022000Z AUTO 17014G21KT 10SM CLR 28/15 A2980 1140 45 2900 170/14G21 RMK AO2
14926KSTC STC20050702140509907/02/05 14:05:31  5-MIN KSTC 022005Z AUTO 18012KT 10SM CLR 28/15 A2980 1140 45 2900 180/12 RMK AO2
14926KSTC STC20050702141010507/02/05 14:10:31  5-MIN KSTC 022010Z AUTO 18016G20KT 10SM CLR 28/15 A2980 1140 45 2900 180/16G20 RMK AO2
14926KSTC STC20050702141510507/02/05 14:15:31  5-MIN KSTC 022015Z AUTO 17017G21KT 10SM CLR 27/15 A2980 1140 46 2800 160/17G21 RMK AO2
14926KSTC STC20050702142010507/02/05 14:20:31  5-MIN KSTC 022020Z AUTO 18018G22KT 10SM CLR 27/15 A2979 1150 46 2800 180/18G22 RMK AO2
14926KSTC STC20050702142510507/02/05 14:25:31  5-MIN KSTC 022025Z AUTO 17014G22KT 10SM CLR 28/15 A2979 1140 45 2900 160/14G22 RMK AO2
14926KSTC STC20050702143010507/02/05 14:30:31  5-MIN KSTC 022030Z AUTO 17014G20KT 10SM CLR 27/15 A2979 1150 46 2800 160/14G20 RMK AO2
14926KSTC STC20050702143510507/02/05 14:35:31  5-MIN KSTC 022035Z AUTO 17014G20KT 10SM CLR 28/15 A2979 1150 45 2900 170/14G20 RMK AO2
14926KSTC STC20050702144010507/02/05 14:40:31  5-MIN KSTC 022040Z AUTO 17018G22KT 10SM CLR 28/16 A2979 1150 46 2900 170/18G22 RMK AO2
14926KSTC STC20050702144510507/02/05 14:45:31  5-MIN KSTC 022045Z AUTO 18015G22KT 10SM CLR 27/16 A2979 1150 48 2900 180/15G22 RMK AO2
14926KSTC STC20050702145012807/02/05 14:50:31  5-MIN KSTC 022050Z AUTO 17015G23KT 10SM CLR 27/15 A2979 1150 46 2900 170/15G23 RMK AO2 SLP092 T02720150 56022
14926KSTC STC20050702145510507/02/05 14:55:31  5-MIN KSTC 022055Z AUTO 17015G23KT 10SM CLR 28/16 A2979 1150 46 2900 170/15G23 RMK AO2
14926KSTC STC20050702150010507/02/05 15:00:31  5-MIN KSTC 022100Z AUTO 17017G21KT 10SM CLR 28/16 A2979 1150 46 2900 170/17G21 RMK AO2
14926KSTC STC20050702150510507/02/05 15:05:31  5-MIN KSTC 022105Z AUTO 18016G21KT 10SM CLR 27/16 A2979 1150 48 2900 170/16G21 RMK AO2
14926KSTC STC20050702151010507/02/05 15:10:31  5-MIN KSTC 022110Z AUTO 18014G21KT 10SM CLR 27/16 A2979 1150 48 2900 180/14G21 RMK AO2
14926KSTC STC20050702151510507/02/05 15:15:31  5-MIN KSTC 022115Z AUTO 18017G25KT 10SM CLR 28/16 A2979 1150 46 2900 180/17G25 RMK AO2
14926KSTC STC20050702152010507/02/05 15:20:31  5-MIN KSTC 022120Z AUTO 17018G25KT 10SM CLR 27/16 A2978 1150 48 2900 170/18G25 RMK AO2
14926KSTC STC20050702152510507/02/05 15:25:31  5-MIN KSTC 022125Z AUTO 17017G23KT 10SM CLR 27/15 A2979 1150 46 2900 170/17G23 RMK AO2
14926KSTC STC20050702153010507/02/05 15:30:31  5-MIN KSTC 022130Z AUTO 17018G23KT 10SM CLR 27/15 A2979 1150 46 2900 170/18G23 RMK AO2
14926KSTC STC20050702153510507/02/05 15:35:31  5-MIN KSTC 022135Z AUTO 18015G23KT 10SM CLR 27/15 A2978 1150 46 2900 180/15G23 RMK AO2
14926KSTC STC20050702154009907/02/05 15:40:31  5-MIN KSTC 022140Z AUTO 19015KT 10SM CLR 28/16 A2978 1150 46 2900 190/15 RMK AO2
14926KSTC STC20050702154510507/02/05 15:45:31  5-MIN KSTC 022145Z AUTO 18017G21KT 10SM CLR 27/16 A2978 1150 48 2900 180/17G21 RMK AO2
14926KSTC STC20050702155012207/02/05 15:50:31  5-MIN KSTC 022150Z AUTO 18016G21KT 10SM CLR 27/16 A2978 1150 48 2900 180/16G21 RMK AO2 SLP089 T02720156
14926KSTC STC20050702155509907/02/05 15:55:31  5-MIN KSTC 022155Z AUTO 19017KT 10SM CLR 27/16 A2978 1150 48 2900 190/17 RMK AO2
14926KSTC STC20050702160009907/02/05 16:00:31  5-MIN KSTC 022200Z AUTO 18015KT 10SM CLR 27/16 A2978 1150 50 2800 180/15 RMK AO2
14926KSTC STC20050702160510507/02/05 16:05:31  5-MIN KSTC 022205Z AUTO 17014G21KT 10SM CLR 27/16 A2978 1160 48 2900 170/14G21 RMK AO2
14926KSTC STC20050702161010507/02/05 16:10:31  5-MIN KSTC 022210Z AUTO 17017G22KT 10SM CLR 27/16 A2978 1150 48 2900 160/17G22 RMK AO2
14926KSTC STC20050702161510507/02/05 16:15:31  5-MIN KSTC 022215Z AUTO 19015G22KT 10SM CLR 27/16 A2978 1160 48 2900 180/15G22 RMK AO2
14926KSTC STC20050702162009907/02/05 16:20:31  5-MIN KSTC 022220Z AUTO 18013KT 10SM CLR 27/16 A2977 1160 50 2900 170/13 RMK AO2
14926KSTC STC20050702162509407/02/05 16:25:31  5-MIN KSTC 022225Z 16015KT 10SM CLR 27/16 A2978 1160 48 2900 160/15 RMK AO2
14926KSTC STC20050702163009407/02/05 16:30:31  5-MIN KSTC 022230Z 17013KT 10SM CLR 27/16 A2977 1160 50 2900 170/13 RMK AO2
14926KSTC STC20050702163509407/02/05 16:35:31  5-MIN KSTC 022235Z 17015KT 10SM CLR 27/16 A2977 1170 50 2900 170/15 RMK AO2
14926KSTC STC20050702164010007/02/05 16:40:31  5-MIN KSTC 022240Z 18016G20KT 10SM CLR 27/16 A2977 1170 50 2900 180/16G20 RMK AO2
14926KSTC STC20050702164510007/02/05 16:45:31  5-MIN KSTC 022245Z 18011G20KT 10SM CLR 27/16 A2977 1170 50 2900 170/11G20 RMK AO2
14926KSTC STC20050702165011107/02/05 16:50:31  5-MIN KSTC 022250Z 16016KT 10SM CLR 27/16 A2976 1170 50 2900 150/16 RMK AO2 SLP083 T02720161
14926KSTC STC20050702165509407/02/05 16:55:31  5-MIN KSTC 022255Z 17010KT 10SM CLR 27/16 A2976 1170 52 2800 170/10 RMK AO2
14926KSTC STC20050702170010007/02/05 17:00:31  5-MIN KSTC 022300Z 16013G18KT 10SM CLR 27/16 A2976 1180 50 2900 150/13G18 RMK AO2
14926KSTC STC20050702170509407/02/05 17:05:31  5-MIN KSTC 022305Z 17015KT 10SM CLR 27/16 A2976 1180 50 2900 160/15 RMK AO2
14926KSTC STC20050702171010007/02/05 17:10:31  5-MIN KSTC 022310Z 16012G18KT 10SM CLR 27/17 A2976 1180 52 2900 160/12G18 RMK AO2
14926KSTC STC20050702171510007/02/05 17:15:31  5-MIN KSTC 022315Z 17014G20KT 10SM CLR 27/16 A2976 1180 52 2800 170/14G20 RMK AO2
14926KSTC STC20050702172010007/02/05 17:20:31  5-MIN KSTC 022320Z 17014G20KT 10SM CLR 27/16 A2976 1180 52 2800 160/14G20 RMK AO2
14926KSTC STC20050702172510007/02/05 17:25:31  5-MIN KSTC 022325Z 16012G18KT 10SM CLR 27/17 A2976 1180 52 2900 160/12G18 RMK AO2
14926KSTC STC20050702173010007/02/05 17:30:31  5-MIN KSTC 022330Z 17015G18KT 10SM CLR 27/16 A2975 1180 52 2800 170/15G18 RMK AO2
14926KSTC STC20050702173510007/02/05 17:35:31  5-MIN KSTC 022335Z 16014G19KT 10SM CLR 27/16 A2976 1180 52 2800 160/14G19 RMK AO2
14926KSTC STC20050702174010007/02/05 17:40:31  5-MIN KSTC 022340Z 15013G19KT 10SM CLR 27/16 A2976 1180 52 2800 150/13G19 RMK AO2
14926KSTC STC20050702174509407/02/05 17:45:31  5-MIN KSTC 022345Z 15012KT 10SM CLR 27/17 A2975 1180 53 2800 150/12 RMK AO2
14926KSTC STC20050702175012907/02/05 17:50:31  5-MIN KSTC 022350Z 16014KT 10SM CLR 27/17 A2976 1180 53 2800 150/14 RMK AO2 SLP080 T02670167 10278 20256 56017
14926KSTC STC20050702175509407/02/05 17:55:31  5-MIN KSTC 022355Z 17010KT 10SM CLR 27/17 A2975 1180 53 2800 160/10 RMK AO2
14926KSTC STC20050702180009407/02/05 18:00:31  5-MIN KSTC 030000Z 16011KT 10SM CLR 26/17 A2976 1180 55 2800 150/11 RMK AO2
14926KSTC STC20050702180509407/02/05 18:05:31  5-MIN KSTC 030005Z 16010KT 10SM CLR 26/17 A2975 1180 57 2700 160/10 RMK AO2
14926KSTC STC20050702181009407/02/05 18:10:31  5-MIN KSTC 030010Z 16010KT 10SM CLR 26/17 A2975 1180 57 2700 160/10 RMK AO2
14926KSTC STC20050702181509407/02/05 18:15:31  5-MIN KSTC 030015Z 16009KT 10SM CLR 26/17 A2975 1180 57 2700 160/09 RMK AO2
14926KSTC STC20050702182009407/02/05 18:20:31  5-MIN KSTC 030020Z 15009KT 10SM CLR 26/17 A2975 1180 57 2700 150/09 RMK AO2
14926KSTC STC20050702182509407/02/05 18:25:31  5-MIN KSTC 030025Z 16010KT 10SM CLR 26/17 A2975 1180 57 2700 160/10 RMK AO2
14926KSTC STC20050702183009407/02/05 18:30:31  5-MIN KSTC 030030Z 16011KT 10SM CLR 26/17 A2975 1190 57 2700 160/11 RMK AO2
14926KSTC STC20050702183509407/02/05 18:35:31  5-MIN KSTC 030035Z 16011KT 10SM CLR 26/17 A2975 1190 57 2700 160/11 RMK AO2
14926KSTC STC20050702184009407/02/05 18:40:31  5-MIN KSTC 030040Z 16012KT 10SM CLR 26/17 A2975 1190 55 2800 150/12 RMK AO2
14926KSTC STC20050702184509407/02/05 18:45:31  5-MIN KSTC 030045Z 15011KT 10SM CLR 26/17 A2975 1190 57 2700 150/11 RMK AO2
14926KSTC STC20050702185011107/02/05 18:50:31  5-MIN KSTC 030050Z 16012KT 10SM CLR 26/17 A2974 1190 57 2700 160/12 RMK AO2 SLP075 T02560167
14926KSTC STC20050702185509407/02/05 18:55:31  5-MIN KSTC 030055Z 16013KT 10SM CLR 26/17 A2974 1200 57 2700 150/13 RMK AO2
14926KSTC STC20050702190009407/02/05 19:00:31  5-MIN KSTC 030100Z 16012KT 10SM CLR 26/17 A2974 1200 57 2700 160/12 RMK AO2
14926KSTC STC20050702190509407/02/05 19:05:31  5-MIN KSTC 030105Z 16009KT 10SM CLR 26/17 A2974 1190 59 2700 150/09 RMK AO2
14926KSTC STC20050702191009407/02/05 19:10:31  5-MIN KSTC 030110Z 16009KT 10SM CLR 25/17 A2975 1190 61 2700 150/09 RMK AO2
14926KSTC STC20050702191509707/02/05 19:15:31  5-MIN KSTC 030115Z 16009KT 10SM FEW055 25/17 A2975 1190 59 2700 160/09 RMK AO2
14926KSTC STC20050702192009707/02/05 19:20:31  5-MIN KSTC 030120Z 16009KT 10SM BKN055 25/17 A2975 1190 59 2700 160/09 RMK AO2
14926KSTC STC20050702192509707/02/05 19:25:31  5-MIN KSTC 030125Z 16012KT 10SM BKN055 25/17 A2974 1190 59 2700 160/12 RMK AO2
14926KSTC STC20050702193009707/02/05 19:30:31  5-MIN KSTC 030130Z 16010KT 10SM BKN055 25/17 A2974 1190 59 2700 160/10 RMK AO2
14926KSTC STC20050702193509707/02/05 19:35:31  5-MIN KSTC 030135Z 16008KT 10SM BKN055 25/17 A2974 1190 59 2700 160/08 RMK AO2
14926KSTC STC20050702194009707/02/05 19:40:31  5-MIN KSTC 030140Z 16011KT 10SM BKN055 24/17 A2974 1190 61 2600 150/11 RMK AO2
14926KSTC STC20050702194509707/02/05 19:45:31  5-MIN KSTC 030145Z 16010KT 10SM BKN060 24/17 A2974 1190 61 2600 160/10 RMK AO2
14926KSTC STC20050702195011407/02/05 19:50:31  5-MIN KSTC 030150Z 16009KT 10SM BKN060 24/17 A2974 1190 61 2600 150/09 RMK AO2 SLP073 T02440167
14926KSTC STC20050702195509707/02/05 19:55:31  5-MIN KSTC 030155Z 15009KT 10SM BKN060 24/17 A2974 1200 61 2600 150/09 RMK AO2
14926KSTC STC20050702200009707/02/05 20:00:31  5-MIN KSTC 030200Z 15008KT 10SM BKN060 24/17 A2974 1190 66 2500 150/08 RMK AO2
14926KSTC STC20050702200509707/02/05 20:05:31  5-MIN KSTC 030205Z 15009KT 10SM BKN060 24/17 A2974 1200 66 2500 150/09 RMK AO2
14926KSTC STC20050702201009707/02/05 20:10:31  5-MIN KSTC 030210Z 15008KT 10SM BKN060 24/17 A2974 1200 66 2500 150/08 RMK AO2
14926KSTC STC20050702201509707/02/05 20:15:31  5-MIN KSTC 030215Z 15008KT 10SM BKN060 23/17 A2974 1200 68 2500 140/08 RMK AO2
14926KSTC STC20050702202009707/02/05 20:20:31  5-MIN KSTC 030220Z 15009KT 10SM BKN060 23/17 A2974 1200 68 2500 140/09 RMK AO2
14926KSTC STC20050702202509707/02/05 20:25:31  5-MIN KSTC 030225Z 14008KT 10SM SCT055 23/17 A2974 1200 68 2500 140/08 RMK AO2
14926KSTC STC20050702203009707/02/05 20:30:31  5-MIN KSTC 030230Z 14009KT 10SM SCT055 23/17 A2973 1200 68 2500 140/09 RMK AO2
14926KSTC STC20050702203509707/02/05 20:35:31  5-MIN KSTC 030235Z 15010KT 10SM FEW060 23/17 A2974 1200 70 2400 140/10 RMK AO2
14926KSTC STC20050702204009707/02/05 20:40:31  5-MIN KSTC 030240Z 15009KT 10SM FEW060 23/17 A2974 1200 70 2400 140/09 RMK AO2
14926KSTC STC20050702204509407/02/05 20:45:31  5-MIN KSTC 030245Z 15010KT 10SM CLR 23/17 A2974 1200 70 2400 150/10 RMK AO2
14926KSTC STC20050702205011707/02/05 20:50:31  5-MIN KSTC 030250Z 15010KT 10SM CLR 23/17 A2974 1190 70 2400 150/10 RMK AO2 SLP074 T02280172 56011
14926KSTC STC20050702205509407/02/05 20:55:31  5-MIN KSTC 030255Z 15009KT 10SM CLR 23/17 A2974 1190 70 2400 150/09 RMK AO2
14926KSTC STC20050702210009407/02/05 21:00:31  5-MIN KSTC 030300Z 15009KT 10SM CLR 23/17 A2974 1190 70 2400 150/09 RMK AO2
14926KSTC STC20050702210509407/02/05 21:05:31  5-MIN KSTC 030305Z 16010KT 10SM CLR 23/17 A2974 1190 70 2400 150/10 RMK AO2
14926KSTC STC20050702211009407/02/05 21:10:31  5-MIN KSTC 030310Z 16010KT 10SM CLR 23/17 A2974 1190 70 2400 150/10 RMK AO2
14926KSTC STC20050702211509407/02/05 21:15:31  5-MIN KSTC 030315Z 16010KT 10SM CLR 23/17 A2974 1190 70 2400 150/10 RMK AO2
14926KSTC STC20050702212009407/02/05 21:20:31  5-MIN KSTC 030320Z 16012KT 10SM CLR 23/17 A2974 1190 70 2400 150/12 RMK AO2
14926KSTC STC20050702212509407/02/05 21:25:31  5-MIN KSTC 030325Z 16012KT 10SM CLR 23/17 A2975 1190 70 2400 160/12 RMK AO2
14926KSTC STC20050702213009407/02/05 21:30:31  5-MIN KSTC 030330Z 17010KT 10SM CLR 23/17 A2974 1190 70 2400 160/10 RMK AO2
14926KSTC STC20050702213509407/02/05 21:35:31  5-MIN KSTC 030335Z 16011KT 10SM CLR 23/17 A2974 1190 70 2400 160/11 RMK AO2
14926KSTC STC20050702214009407/02/05 21:40:31  5-MIN KSTC 030340Z 16010KT 10SM CLR 23/17 A2974 1190 70 2400 160/10 RMK AO2
14926KSTC STC20050702214509407/02/05 21:45:31  5-MIN KSTC 030345Z 16010KT 10SM CLR 23/17 A2975 1190 68 2400 160/10 RMK AO2
14926KSTC STC20050702215011607/02/05 21:50:31  5-MIN KSTC 030350Z AUTO 16011KT 10SM CLR 23/17 A2974 1190 68 2400 160/11 RMK AO2 SLP075 T02280167
14926KSTC STC20050702215509907/02/05 21:55:31  5-MIN KSTC 030355Z AUTO 16011KT 10SM CLR 23/17 A2974 1190 68 2400 160/11 RMK AO2
14926KSTC STC20050702220009907/02/05 22:00:31  5-MIN KSTC 030400Z AUTO 16012KT 10SM CLR 23/17 A2974 1200 68 2400 160/12 RMK AO2
14926KSTC STC20050702220509907/02/05 22:05:31  5-MIN KSTC 030405Z AUTO 17011KT 10SM CLR 23/17 A2973 1200 68 2400 160/11 RMK AO2
14926KSTC STC20050702221009907/02/05 22:10:31  5-MIN KSTC 030410Z AUTO 16012KT 10SM CLR 23/17 A2973 1200 68 2400 160/12 RMK AO2
14926KSTC STC20050702221509907/02/05 22:15:31  5-MIN KSTC 030415Z AUTO 16011KT 10SM CLR 23/17 A2973 1200 68 2400 160/11 RMK AO2
14926KSTC STC20050702222009907/02/05 22:20:31  5-MIN KSTC 030420Z AUTO 16011KT 10SM CLR 23/17 A2973 1200 68 2400 160/11 RMK AO2
14926KSTC STC20050702222509907/02/05 22:25:31  5-MIN KSTC 030425Z AUTO 16012KT 10SM CLR 23/17 A2973 1210 68 2400 160/12 RMK AO2
14926KSTC STC20050702223009907/02/05 22:30:31  5-MIN KSTC 030430Z AUTO 16012KT 10SM CLR 22/17 A2972 1210 70 2400 150/12 RMK AO2
14926KSTC STC20050702223509907/02/05 22:35:31  5-MIN KSTC 030435Z AUTO 16011KT 10SM CLR 22/17 A2972 1210 70 2400 160/11 RMK AO2
14926KSTC STC20050702224009907/02/05 22:40:31  5-MIN KSTC 030440Z AUTO 16011KT 10SM CLR 22/17 A2972 1210 70 2400 160/11 RMK AO2
14926KSTC STC20050702224509907/02/05 22:45:31  5-MIN KSTC 030445Z AUTO 16012KT 10SM CLR 22/17 A2972 1220 70 2400 160/12 RMK AO2
14926KSTC STC20050702225011607/02/05 22:50:31  5-MIN KSTC 030450Z AUTO 16012KT 10SM CLR 22/17 A2971 1220 70 2400 150/12 RMK AO2 SLP063 T02220167
14926KSTC STC20050702225510507/02/05 22:55:31  5-MIN KSTC 030455Z AUTO 16013G19KT 10SM CLR 22/17 A2971 1220 70 2400 160/13G19 RMK AO2
14926KSTC STC20050702230010507/02/05 23:00:31  5-MIN KSTC 030500Z AUTO 17014G19KT 10SM CLR 22/17 A2972 1220 70 2400 160/14G19 RMK AO2
14926KSTC STC20050702230509907/02/05 23:05:31  5-MIN KSTC 030505Z AUTO 16012KT 10SM CLR 22/17 A2972 1210 70 2400 160/12 RMK AO2
14926KSTC STC20050702231009907/02/05 23:10:31  5-MIN KSTC 030510Z AUTO 17014KT 10SM CLR 22/17 A2972 1220 70 2400 170/14 RMK AO2
14926KSTC STC20050702231509907/02/05 23:15:31  5-MIN KSTC 030515Z AUTO 16012KT 10SM CLR 22/17 A2971 1220 70 2400 160/12 RMK AO2
14926KSTC STC20050702232009907/02/05 23:20:31  5-MIN KSTC 030520Z AUTO 16014KT 10SM CLR 22/17 A2971 1230 70 2400 160/14 RMK AO2
14926KSTC STC20050702232509907/02/05 23:25:31  5-MIN KSTC 030525Z AUTO 16012KT 10SM CLR 22/17 A2970 1230 73 2400 160/12 RMK AO2
14926KSTC STC20050702233009907/02/05 23:30:31  5-MIN KSTC 030530Z AUTO 16013KT 10SM CLR 22/17 A2970 1230 73 2400 160/13 RMK AO2
14926KSTC STC20050702233509907/02/05 23:35:31  5-MIN KSTC 030535Z AUTO 16013KT 10SM CLR 22/17 A2970 1230 73 2400 160/13 RMK AO2
14926KSTC STC20050702234009907/02/05 23:40:31  5-MIN KSTC 030540Z AUTO 17013KT 10SM CLR 22/17 A2971 1220 73 2400 160/13 RMK AO2
14926KSTC STC20050702234510507/02/05 23:45:31  5-MIN KSTC 030545Z AUTO 17010G18KT 10SM CLR 22/17 A2971 1220 75 2300 170/10G18 RMK AO2
14926KSTC STC20050702235014407/02/05 23:50:31  5-MIN KSTC 030550Z AUTO 17010KT 10SM CLR 22/17 A2972 1220 75 2300 170/10 RMK AO2 SLP064 T02170172 10267 20217 402780122 55005
14926KSTC STC20050702235509907/02/05 23:55:31  5-MIN KSTC 030555Z AUTO 17011KT 10SM CLR 22/17 A2972 1220 75 2300 170/11 RMK AO2
14926KSTC STC20050703000009907/03/05 00:00:32  5-MIN KSTC 030600Z AUTO 17010KT 10SM CLR 22/17 A2971 1220 75 2300 160/10 RMK AO2
14926KSTC STC20050703000509907/03/05 00:05:31  5-MIN KSTC 030605Z AUTO 17014KT 10SM CLR 22/17 A2972 1220 75 2300 160/14 RMK AO2
14926KSTC STC20050703001009907/03/05 00:10:31  5-MIN KSTC 030610Z AUTO 18010KT 10SM CLR 22/17 A2972 1210 75 2300 170/10 RMK AO2
14926KSTC STC20050703001509907/03/05 00:15:31  5-MIN KSTC 030615Z AUTO 17012KT 10SM CLR 22/17 A2971 1220 75 2300 170/12 RMK AO2
14926KSTC STC20050703002009907/03/05 00:20:31  5-MIN KSTC 030620Z AUTO 17010KT 10SM CLR 22/17 A2971 1220 75 2300 170/10 RMK AO2
14926KSTC STC20050703002509907/03/05 00:25:31  5-MIN KSTC 030625Z AUTO 17009KT 10SM CLR 22/17 A2971 1220 75 2300 170/09 RMK AO2
14926KSTC STC20050703003009907/03/05 00:30:31  5-MIN KSTC 030630Z AUTO 17011KT 10SM CLR 22/17 A2971 1220 75 2300 170/11 RMK AO2
14926KSTC STC20050703003509907/03/05 00:35:31  5-MIN KSTC 030635Z AUTO 17010KT 10SM CLR 22/17 A2971 1220 75 2300 170/10 RMK AO2
14926KSTC STC20050703004009907/03/05 00:40:31  5-MIN KSTC 030640Z AUTO 18012KT 10SM CLR 22/17 A2971 1220 75 2300 170/12 RMK AO2
14926KSTC STC20050703004509907/03/05 00:45:31  5-MIN KSTC 030645Z AUTO 17012KT 10SM CLR 22/17 A2971 1220 75 2300 170/12 RMK AO2
14926KSTC STC20050703005011607/03/05 00:50:31  5-MIN KSTC 030650Z AUTO 17011KT 10SM CLR 22/17 A2970 1230 75 2300 170/11 RMK AO2 SLP060 T02170172
14926KSTC STC20050703005509907/03/05 00:55:31  5-MIN KSTC 030655Z AUTO 17012KT 10SM CLR 22/17 A2970 1230 75 2300 170/12 RMK AO2
14926KSTC STC20050703010009907/03/05 01:00:31  5-MIN KSTC 030700Z AUTO 17011KT 10SM CLR 22/17 A2970 1230 75 2300 170/11 RMK AO2
14926KSTC STC20050703010509907/03/05 01:05:31  5-MIN KSTC 030705Z AUTO 17011KT 10SM CLR 22/17 A2970 1230 75 2300 170/11 RMK AO2
14926KSTC STC20050703011009907/03/05 01:10:31  5-MIN KSTC 030710Z AUTO 17011KT 10SM CLR 22/17 A2969 1240 75 2300 160/11 RMK AO2
14926KSTC STC20050703011509907/03/05 01:15:31  5-MIN KSTC 030715Z AUTO 16009KT 10SM CLR 21/17 A2969 1240 78 2300 160/09 RMK AO2
14926KSTC STC20050703012009907/03/05 01:20:31  5-MIN KSTC 030720Z AUTO 16010KT 10SM CLR 21/17 A2969 1240 78 2300 160/10 RMK AO2
14926KSTC STC20050703012509907/03/05 01:25:31  5-MIN KSTC 030725Z AUTO 16009KT 10SM CLR 21/17 A2969 1240 78 2300 160/09 RMK AO2
14926KSTC STC20050703013009907/03/05 01:30:31  5-MIN KSTC 030730Z AUTO 17012KT 10SM CLR 21/17 A2969 1240 78 2300 170/12 RMK AO2
14926KSTC STC20050703013509907/03/05 01:35:31  5-MIN KSTC 030735Z AUTO 17013KT 10SM CLR 21/17 A2969 1240 78 2300 170/13 RMK AO2
14926KSTC STC20050703014009907/03/05 01:40:31  5-MIN KSTC 030740Z AUTO 17010KT 10SM CLR 21/17 A2969 1240 78 2300 170/10 RMK AO2
14926KSTC STC20050703014509907/03/05 01:45:31  5-MIN KSTC 030745Z AUTO 17011KT 10SM CLR 21/17 A2969 1240 78 2300 170/11 RMK AO2
14926KSTC STC20050703015011607/03/05 01:50:31  5-MIN KSTC 030750Z AUTO 17011KT 10SM CLR 21/17 A2969 1240 78 2300 170/11 RMK AO2 SLP054 T02110172
14926KSTC STC20050703015509907/03/05 01:55:31  5-MIN KSTC 030755Z AUTO 18010KT 10SM CLR 21/17 A2969 1240 78 2300 170/10 RMK AO2
14926KSTC STC20050703020009907/03/05 02:00:31  5-MIN KSTC 030800Z AUTO 17012KT 10SM CLR 22/17 A2969 1240 75 2300 170/12 RMK AO2
14926KSTC STC20050703020509907/03/05 02:05:31  5-MIN KSTC 030805Z AUTO 17011KT 10SM CLR 21/17 A2969 1240 78 2300 170/11 RMK AO2
14926KSTC STC20050703021009907/03/05 02:10:31  5-MIN KSTC 030810Z AUTO 17012KT 10SM CLR 22/17 A2969 1240 75 2300 170/12 RMK AO2
14926KSTC STC20050703021510807/03/05 02:15:31  5-MIN KSTC 030815Z AUTO 18012KT 10SM TS CLR 22/17 A2969 1240 75 2300 180/12 RMK AO2 TSB15
14926KSTC STC20050703022010807/03/05 02:20:31  5-MIN KSTC 030820Z AUTO 18011KT 10SM TS CLR 22/17 A2969 1240 75 2300 180/11 RMK AO2 TSB15
14926KSTC STC20050703022510807/03/05 02:25:31  5-MIN KSTC 030825Z AUTO 18012KT 10SM TS CLR 21/17 A2969 1240 78 2300 180/12 RMK AO2 TSB15
14926KSTC STC20050703023010807/03/05 02:30:31  5-MIN KSTC 030830Z AUTO 18010KT 10SM CLR 21/17 A2968 1250 78 2300 180/10 RMK AO2 TSB15E30
14926KSTC STC20050703023510807/03/05 02:35:31  5-MIN KSTC 030835Z AUTO 18011KT 10SM CLR 21/17 A2968 1250 78 2300 170/11 RMK AO2 TSB15E30
14926KSTC STC20050703024010807/03/05 02:40:31  5-MIN KSTC 030840Z AUTO 18010KT 10SM CLR 22/17 A2968 1250 75 2400 170/10 RMK AO2 TSB15E30
14926KSTC STC20050703024510807/03/05 02:45:31  5-MIN KSTC 030845Z AUTO 18010KT 10SM CLR 21/17 A2967 1260 78 2300 170/10 RMK AO2 TSB15E30
14926KSTC STC20050703025013707/03/05 02:50:31  5-MIN KSTC 030850Z AUTO 18010G17KT 10SM CLR 21/17 A2967 1260 78 2300 170/10G17 RMK AO2 TSB15E30 SLP049 T02110172 55009
14926KSTC STC20050703025510507/03/05 02:55:31  5-MIN KSTC 030855Z AUTO 18010G17KT 10SM CLR 21/17 A2967 1260 78 2300 170/10G17 RMK AO2
14926KSTC STC20050703030009907/03/05 03:00:31  5-MIN KSTC 030900Z AUTO 18008KT 10SM CLR 21/17 A2966 1260 78 2300 170/08 RMK AO2
14926KSTC STC20050703030509907/03/05 03:05:31  5-MIN KSTC 030905Z AUTO 17009KT 10SM CLR 21/17 A2966 1270 78 2300 170/09 RMK AO2
14926KSTC STC20050703031009907/03/05 03:10:31  5-MIN KSTC 030910Z AUTO 17008KT 10SM CLR 21/17 A2966 1270 78 2300 170/08 RMK AO2
14926KSTC STC20050703031509907/03/05 03:15:31  5-MIN KSTC 030915Z AUTO 17009KT 10SM CLR 21/17 A2966 1270 78 2300 160/09 RMK AO2
14926KSTC STC20050703032009907/03/05 03:20:31  5-MIN KSTC 030920Z AUTO 16010KT 10SM CLR 21/17 A2965 1270 78 2300 160/10 RMK AO2
14926KSTC STC20050703032510207/03/05 03:25:31  5-MIN KSTC 030925Z AUTO 17009KT 10SM FEW080 21/17 A2966 1270 78 2300 160/09 RMK AO2
14926KSTC STC20050703033010207/03/05 03:30:31  5-MIN KSTC 030930Z AUTO 17011KT 10SM SCT080 21/17 A2966 1270 78 2300 170/11 RMK AO2
14926KSTC STC20050703033510207/03/05 03:35:31  5-MIN KSTC 030935Z AUTO 17011KT 10SM BKN080 21/17 A2966 1270 78 2300 170/11 RMK AO2
14926KSTC STC20050703034011807/03/05 03:40:31  5-MIN KSTC 030940Z AUTO 17008KT 10SM -RA BKN080 21/17 A2966 1270 78 2300 170/08 RMK AO2 RAB38 P0000
14926KSTC STC20050703034511807/03/05 03:45:31  5-MIN KSTC 030945Z AUTO 17010KT 10SM -RA BKN080 21/17 A2966 1270 78 2300 170/10 RMK AO2 RAB38 P0000
14926KSTC STC20050703035014107/03/05 03:50:31  5-MIN KSTC 030950Z AUTO 19010KT 10SM BKN080 OVC100 21/17 A2967 1260 78 2300 190/10 RMK AO2 RAB38E47 SLP047 P0000 T02110172
14926KSTC STC20050703035510907/03/05 03:55:31  5-MIN KSTC 030955Z AUTO 19009KT 10SM FEW042 OVC080 21/17 A2966 1260 78 2300 190/09 RMK AO2
14926KSTC STC20050703040012507/03/05 04:00:31  5-MIN KSTC 031000Z AUTO 19011KT 10SM -RA SCT037 OVC080 21/17 A2967 1260 78 2300 180/11 RMK AO2 RAB00 P0000
14926KSTC STC20050703040513907/03/05 04:05:31  5-MIN KSTC 031005Z AUTO 20010KT 10SM -RA SCT031 BKN040 OVC080 21/17 A2968 1250 78 2300 200/10 RMK AO2 RAB00 PRESRR P0000
14926KSTC STC20050703041013807/03/05 04:10:31  5-MIN KSTC 031010Z AUTO 24009KT 7SM -TSRA SCT025 BKN032 OVC080 21/18 A2969 1240 84 2200 240/09 RMK AO2 TSB07RAB00 P0000
14926KSTC STC20050703041515507/03/05 04:15:31  5-MIN KSTC 031015Z AUTO 24013G18KT 2 1/2SM +TSRA BKN023 BKN032 OVC080 21/18 A2969 1240 84 2200 230/13G18 RMK AO2 TSB07RAB00 PRESRR P0003
14926KSTC STC20050703042014707/03/05 04:20:31  5-MIN KSTC 031020Z AUTO 21008G18KT 2SM +TSRA BR SCT021 BKN027 OVC037 20/18 A2969 1240 90 2100 210/08G18 RMK AO2 TSB07RAB00 P0009
14926KSTC STC20050703042514007/03/05 04:25:31  5-MIN KSTC 031025Z AUTO 24009KT 3SM TSRA BR FEW020 BKN027 OVC070 20/18 A2970 1230 90 2100 240/09 RMK AO2 TSB07RAB00 P0011
14926KSTC STC20050703043014707/03/05 04:30:31  5-MIN KSTC 031030Z AUTO 25011G20KT 5SM -TSRA BR SCT022 BKN046 OVC070 20/18 A2971 1220 90 2100 250/11G20 RMK AO2 TSB07RAB00 P0012
14926KSTC STC20050703043514407/03/05 04:35:31  5-MIN KSTC 031035Z AUTO 27012G20KT 7SM -TSRA FEW022 SCT026 OVC046 21/18 A2971 1220 84 2200 270/12G20 RMK AO2 TSB07RAB00 P0013
14926KSTC STC20050703044013707/03/05 04:40:31  5-MIN KSTC 031040Z AUTO 27011G19KT 6SM -TSRA FEW019 OVC043 21/17 A2970 1230 81 2200 270/11G19 RMK AO2 TSB07RAB00 P0013
14926KSTC STC20050703044513707/03/05 04:45:31  5-MIN KSTC 031045Z AUTO 28009G22KT 6SM -TSRA BKN041 OVC070 20/17 A2970 1230 81 2100 280/09G22 RMK AO2 TSB07RAB00 P0014
14926KSTC STC20050703045016107/03/05 04:50:31  5-MIN KSTC 031050Z AUTO 27007G22KT 7SM -TSRA BKN041 BKN070 OVC100 20/16 A2970 1230 78 2100 270/07G22 RMK AO2 TSB07RAB00 SLP059 P0014 T02000161
14926KSTC STC20050703045512007/03/05 04:55:31  5-MIN KSTC 031055Z AUTO 26005KT 8SM -TSRA BKN045 OVC110 19/17 A2970 1230 84 2100 260/05 RMK AO2 P0000
14926KSTC STC20050703050011907/03/05 05:00:31  5-MIN KSTC 031100Z AUTO 21003KT 7SM TSRA BKN037 OVC110 19/17 A2970 1240 84 2100 200/03 RMK AO2 P0001
14926KSTC STC20050703050512007/03/05 05:05:31  5-MIN KSTC 031105Z AUTO 14006KT 6SM -TSRA BKN032 OVC110 19/17 A2969 1240 84 2100 140/06 RMK AO2 P0002
14926KSTC STC20050703051011907/03/05 05:10:31  5-MIN KSTC 031110Z AUTO 12009KT 7SM TSRA OVC030 19/17 A2967 1260 90 2000 120/09 RMK AO2 PRESFR P0003
14926KSTC STC20050703051512207/03/05 05:15:31  5-MIN KSTC 031115Z AUTO 12009KT 3SM TSRA BR OVC030 18/17 A2966 1270 93 2000 120/09 RMK AO2 PRESFR P0005
14926KSTC STC20050703052011907/03/05 05:20:31  5-MIN KSTC 031120Z AUTO 11006KT 2 1/2SM TSRA BR OVC030 18/17 A2966 1270 93 2000 100/06 RMK AO2 P0007
14926KSTC STC20050703052511507/03/05 05:25:31  5-MIN KSTC 031125Z AUTO 16005KT 5SM TSRA BR OVC028 18/17 A2967 1260 93 2000 160/05 RMK AO2 P0008
14926KSTC STC20050703053011507/03/05 05:30:31  5-MIN KSTC 031130Z AUTO 15005KT 5SM TSRA BR OVC028 18/17 A2966 1270 93 2000 140/05 RMK AO2 P0009
14926KSTC STC20050703053511307/03/05 05:35:31  5-MIN KSTC 031135Z AUTO 16004KT 7SM -TSRA OVC026 18/17 A2967 1260 93 2000 160/04 RMK AO2 P0010
14926KSTC STC20050703054012007/03/05 05:40:31  5-MIN KSTC 031140Z AUTO 15004KT 9SM -TSRA BKN030 OVC110 18/17 A2966 1270 93 2000 150/04 RMK AO2 P0011
14926KSTC STC20050703054512107/03/05 05:45:31  5-MIN KSTC 031145Z AUTO 20005KT 10SM -TSRA BKN036 OVC110 18/17 A2967 1250 93 2000 200/05 RMK AO2 P0011
14926KSTC STC20050703055016807/03/05 05:50:31  5-MIN KSTC 031150Z AUTO 22007KT 10SM -TSRA BKN036 OVC110 18/17 A2967 1260 93 2000 220/07 RMK AO2 SLP051 P0012 60027 70027 T01830172 10217 20183 58015
14926KSTC STC20050703055512107/03/05 05:55:31  5-MIN KSTC 031155Z AUTO 22007KT 10SM -TSRA BKN032 OVC110 18/17 A2968 1250 96 1900 220/07 RMK AO2 P0000
14926KSTC STC20050703060012807/03/05 06:00:31  5-MIN KSTC 031200Z AUTO 17010KT 10SM -TSRA SCT034 OVC110 18/17 A2964 1290 96 2000 160/10 RMK AO2 PRESFR P0000
14926KSTC STC20050703060513407/03/05 06:05:31  5-MIN KSTC 031205Z AUTO 16017G22KT 10SM -TSRA SCT050 OVC110 18/17 A2961 1320 96 2000 160/17G22 RMK AO2 PRESFR P0000
14926KSTC STC20050703061015407/03/05 06:10:31  5-MIN KSTC 031210Z AUTO 15023G29KT 5SM -TSRA BR BKN043 OVC110 18/17 A2957 1350 96 2000 150/23G29 RMK AO2 PK WND 16029/1210 PRESFR P0000
14926KSTC STC20050703061516507/03/05 06:15:31  5-MIN KSTC 031215Z AUTO 15029G35KT 4SM -TSRA BR BKN036 OVC110 18/17 A2953 1390 93 2100 150/29G35 RMK AO2 PK WND 15035/1215 WSHFT 1200 PRESFR P0000
14926KSTC STC20050703062016507/03/05 06:20:31  5-MIN KSTC 031220Z AUTO 16033G39KT 4SM -TSRA BR BKN038 OVC110 18/17 A2949 1430 93 2100 150/33G39 RMK AO2 PK WND 16039/1219 WSHFT 1200 PRESFR P0000
14926KSTC STC20050703062516507/03/05 06:25:31  5-MIN KSTC 031225Z AUTO 15029G41KT 4SM -TSRA BR FEW024 BKN033 OVC110 18/17 A2950 1420 93 2100 150/29G41 RMK AO2 PK WND 16041/1222 WSHFT 1200 P0000
14926KSTC STC20050703063016907/03/05 06:30:31  5-MIN KSTC 031230Z AUTO 15029G41KT 5SM -RA BR FEW024 BKN033 BKN100 18/17 A2952 1400 93 2100 140/29G41 RMK AO2 PK WND 16041/1222 WSHFT 1200 TSE29 P0002
14926KSTC STC20050703063516507/03/05 06:35:31  5-MIN KSTC 031235Z AUTO 16024G36KT 10SM -TSRA SCT030 18/17 A2956 1360 93 2000 160/24G36 RMK AO2 PK WND 16041/1222 WSHFT 1200 TSE29B31 PRESRR P0002
14926KSTC STC20050703064016707/03/05 06:40:31  5-MIN KSTC 031240Z AUTO 16021G36KT 10SM TS SCT030 18/17 A2957 1350 93 2000 160/21G36 RMK AO2 PK WND 16041/1222 WSHFT 1200 TSE29B31RAE38 PRESRR P0002
14926KSTC STC20050703064516007/03/05 06:45:31  5-MIN KSTC 031245Z AUTO 16017G27KT 10SM TS FEW025 18/17 A2958 1350 93 2000 160/17G27 RMK AO2 PK WND 16041/1222 WSHFT 1200 TSE29B31RAE38 P0002
14926KSTC STC20050703065017707/03/05 06:50:31  5-MIN KSTC 031250Z AUTO 16019G28KT 10SM TS FEW015 18/17 A2958 1340 93 2000 160/19G28 RMK AO2 PK WND 16041/1222 WSHFT 1200 TSE29B31RAE38 SLP021 P0003 T01780167
14926KSTC STC20050703065511807/03/05 06:55:31  5-MIN KSTC 031255Z AUTO 16019G28KT 10SM CLR 18/17 A2960 1330 90 2100 160/19G28 RMK AO2 TSE55 PRESRR
14926KSTC STC20050703070012007/03/05 07:00:31  5-MIN KSTC 031300Z AUTO 20012G24KT 10SM CLR 18/17 A2961 1310 90 2000 200/12G24 RMK AO2 TSE1255 PRESRR
14926KSTC STC20050703070512307/03/05 07:05:31  5-MIN KSTC 031305Z AUTO 18011G22KT 10SM FEW011 18/17 A2963 1300 90 2000 180/11G22 RMK AO2 TSE1255 PRESRR
14926KSTC STC20050703071012307/03/05 07:10:31  5-MIN KSTC 031310Z AUTO 18009G17KT 10SM SCT011 18/17 A2964 1290 90 2000 170/09G17 RMK AO2 TSE1255 PRESRR
14926KSTC STC20050703071513307/03/05 07:15:31  5-MIN KSTC 031315Z AUTO 21008KT 160V230 10SM FEW009 18/17 A2965 1280 90 2000 210/08 160V230 RMK AO2 TSE1255 PRESRR
14926KSTC STC20050703072012607/03/05 07:20:31  5-MIN KSTC 031320Z AUTO 23008KT 180V260 10SM SCT011 19/17 A2964 1290 87 2100 230/08 180V260 RMK AO2 TSE1255
14926KSTC STC20050703072511607/03/05 07:25:31  5-MIN KSTC 031325Z AUTO 20010G18KT 10SM BKN011 19/17 A2964 1290 87 2100 200/10G18 RMK AO2 TSE1255
14926KSTC STC20050703073011607/03/05 07:30:31  5-MIN KSTC 031330Z AUTO VRB06G18KT 10SM BKN011 19/17 A2964 1280 87 2100 VRB/06G18 RMK AO2 TSE1255
14926KSTC STC20050703073511007/03/05 07:35:31  5-MIN KSTC 031335Z AUTO 19009KT 10SM BKN011 19/17 A2965 1280 87 2100 190/09 RMK AO2 TSE1255
14926KSTC STC20050703074011007/03/05 07:40:31  5-MIN KSTC 031340Z AUTO 17011KT 10SM SCT011 19/17 A2964 1280 87 2100 170/11 RMK AO2 TSE1255
14926KSTC STC20050703074511007/03/05 07:45:31  5-MIN KSTC 031345Z AUTO 16011KT 10SM SCT011 20/17 A2965 1270 84 2200 160/11 RMK AO2 TSE1255
14926KSTC STC20050703075012707/03/05 07:50:31  5-MIN KSTC 031350Z AUTO 18007KT 10SM SCT011 20/18 A2966 1270 87 2200 170/07 RMK AO2 TSE1255 SLP045 T02000178
14926KSTC STC20050703075510207/03/05 07:55:31  5-MIN KSTC 031355Z AUTO 17009KT 10SM FEW011 20/18 A2967 1260 87 2200 170/09 RMK AO2
14926KSTC STC20050703080009907/03/05 08:00:31  5-MIN KSTC 031400Z AUTO 18009KT 10SM CLR 21/18 A2967 1260 84 2200 180/09 RMK AO2
14926KSTC STC20050703080510807/03/05 08:05:31  5-MIN KSTC 031405Z AUTO 19011G16KT 10SM FEW014 21/18 A2967 1250 84 2200 190/11G16 RMK AO2
14926KSTC STC20050703081010807/03/05 08:10:31  5-MIN KSTC 031410Z AUTO 18012G16KT 10SM SCT014 21/18 A2967 1250 84 2200 180/12G16 RMK AO2
14926KSTC STC20050703081510807/03/05 08:15:31  5-MIN KSTC 031415Z AUTO 18010G18KT 10SM BKN014 21/18 A2968 1250 84 2200 180/10G18 RMK AO2
14926KSTC STC20050703082010807/03/05 08:20:31  5-MIN KSTC 031420Z AUTO 21009G18KT 10SM BKN012 21/18 A2968 1240 84 2200 210/09G18 RMK AO2
14926KSTC STC20050703082510207/03/05 08:25:31  5-MIN KSTC 031425Z AUTO 19010KT 10SM BKN012 21/18 A2968 1250 84 2200 190/10 RMK AO2
14926KSTC STC20050703083010207/03/05 08:30:31  5-MIN KSTC 031430Z AUTO 20009KT 10SM OVC014 21/18 A2968 1250 84 2200 190/09 RMK AO2
14926KSTC STC20050703083510207/03/05 08:35:31  5-MIN KSTC 031435Z AUTO 20008KT 10SM OVC014 21/18 A2968 1250 84 2300 190/08 RMK AO2
14926KSTC STC20050703084010207/03/05 08:40:31  5-MIN KSTC 031440Z AUTO 20010KT 10SM OVC014 21/18 A2968 1250 84 2300 200/10 RMK AO2
14926KSTC STC20050703084510207/03/05 08:45:31  5-MIN KSTC 031445Z AUTO 21010KT 10SM OVC014 21/18 A2968 1250 84 2300 200/10 RMK AO2
14926KSTC STC20050703085013107/03/05 08:50:31  5-MIN KSTC 031450Z AUTO 20011KT 10SM OVC014 21/18 A2968 1250 84 2300 190/11 RMK AO2 SLP053 60003 T02110183 50002
14926KSTC STC20050703085510207/03/05 08:55:31  5-MIN KSTC 031455Z AUTO 21011KT 10SM OVC014 21/18 A2969 1240 84 2300 210/11 RMK AO2
14926KSTC STC20050703090010207/03/05 09:00:31  5-MIN KSTC 031500Z AUTO 21009KT 10SM OVC014 21/18 A2968 1250 84 2300 210/09 RMK AO2
14926KSTC STC20050703090510907/03/05 09:05:31  5-MIN KSTC 031505Z AUTO 22010KT 10SM BKN014 OVC021 22/19 A2968 1250 84 2300 210/10 RMK AO2
14926KSTC STC20050703091010207/03/05 09:10:31  5-MIN KSTC 031510Z AUTO 22008KT 10SM OVC014 22/19 A2968 1250 84 2300 210/08 RMK AO2
14926KSTC STC20050703091510207/03/05 09:15:31  5-MIN KSTC 031515Z AUTO 20009KT 10SM OVC014 22/19 A2968 1250 84 2300 200/09 RMK AO2
14926KSTC STC20050703092010207/03/05 09:20:31  5-MIN KSTC 031520Z AUTO 23011KT 10SM OVC014 22/19 A2969 1240 84 2300 220/11 RMK AO2
14926KSTC STC20050703092510907/03/05 09:25:31  5-MIN KSTC 031525Z AUTO 21012KT 10SM BKN016 OVC021 22/18 A2969 1240 81 2300 210/12 RMK AO2
14926KSTC STC20050703093010907/03/05 09:30:31  5-MIN KSTC 031530Z AUTO 20012KT 10SM BKN016 OVC021 22/19 A2969 1240 81 2400 200/12 RMK AO2
14926KSTC STC20050703093510207/03/05 09:35:31  5-MIN KSTC 031535Z AUTO 20011KT 10SM OVC016 22/18 A2969 1240 81 2300 200/11 RMK AO2
14926KSTC STC20050703094010207/03/05 09:40:31  5-MIN KSTC 031540Z AUTO 21006KT 10SM OVC016 22/19 A2968 1240 84 2300 210/06 RMK AO2
14926KSTC STC20050703094510207/03/05 09:45:31  5-MIN KSTC 031545Z AUTO 23006KT 10SM OVC016 22/19 A2968 1250 81 2400 220/06 RMK AO2
14926KSTC STC20050703095011907/03/05 09:50:31  5-MIN KSTC 031550Z AUTO 23008KT 10SM OVC016 22/19 A2968 1250 84 2300 220/08 RMK AO2 SLP054 T02170189
14926KSTC STC20050703095510207/03/05 09:55:31  5-MIN KSTC 031555Z AUTO 22007KT 10SM OVC016 22/19 A2968 1250 81 2400 220/07 RMK AO2
14926KSTC STC20050703100010207/03/05 10:00:31  5-MIN KSTC 031600Z AUTO 21008KT 10SM OVC018 22/19 A2968 1250 81 2400 210/08 RMK AO2
14926KSTC STC20050703100510207/03/05 10:05:31  5-MIN KSTC 031605Z AUTO 21008KT 10SM OVC018 22/19 A2968 1250 81 2400 210/08 RMK AO2
14926KSTC STC20050703101010207/03/05 10:10:31  5-MIN KSTC 031610Z AUTO 22007KT 10SM OVC018 22/19 A2969 1240 81 2400 220/07 RMK AO2
14926KSTC STC20050703101510207/03/05 10:15:31  5-MIN KSTC 031615Z AUTO 23006KT 10SM OVC016 22/19 A2968 1250 81 2400 230/06 RMK AO2
14926KSTC STC20050703102010207/03/05 10:20:31  5-MIN KSTC 031620Z AUTO 22005KT 10SM OVC018 22/19 A2968 1250 81 2400 210/05 RMK AO2
14926KSTC STC20050703102510907/03/05 10:25:31  5-MIN KSTC 031625Z AUTO 21006KT 10SM BKN018 OVC022 22/19 A2968 1250 84 2400 210/06 RMK AO2
14926KSTC STC20050703103010207/03/05 10:30:31  5-MIN KSTC 031630Z AUTO 20007KT 10SM OVC018 22/19 A2968 1250 81 2400 200/07 RMK AO2
14926KSTC STC20050703103510207/03/05 10:35:31  5-MIN KSTC 031635Z AUTO 20008KT 10SM OVC018 22/19 A2969 1240 84 2400 200/08 RMK AO2
14926KSTC STC20050703104010207/03/05 10:40:31  5-MIN KSTC 031640Z AUTO 20007KT 10SM OVC020 23/19 A2969 1240 81 2500 200/07 RMK AO2
14926KSTC STC20050703104510207/03/05 10:45:31  5-MIN KSTC 031645Z AUTO 20008KT 10SM OVC020 23/19 A2968 1250 81 2500 200/08 RMK AO2
14926KSTC STC20050703105011907/03/05 10:50:31  5-MIN KSTC 031650Z AUTO 20009KT 10SM OVC020 23/19 A2968 1240 81 2500 200/09 RMK AO2 SLP055 T02280194
14926KSTC STC20050703105510907/03/05 10:55:31  5-MIN KSTC 031655Z AUTO 19009KT 10SM BKN020 OVC031 23/19 A2968 1250 81 2500 190/09 RMK AO2
14926KSTC STC20050703110011607/03/05 11:00:31  5-MIN KSTC 031700Z AUTO 19009KT 10SM SCT020 BKN025 OVC031 23/19 A2969 1240 81 2500 180/09 RMK AO2
14926KSTC STC20050703110511607/03/05 11:05:31  5-MIN KSTC 031705Z AUTO 18009KT 10SM BKN020 BKN029 OVC035 23/20 A2969 1240 81 2500 180/09 RMK AO2
14926KSTC STC20050703111011607/03/05 11:10:31  5-MIN KSTC 031710Z AUTO 18009KT 10SM SCT020 BKN029 OVC035 24/20 A2969 1240 78 2600 170/09 RMK AO2
14926KSTC STC20050703111511607/03/05 11:15:31  5-MIN KSTC 031715Z AUTO 18009KT 10SM FEW019 SCT025 OVC035 23/19 A2970 1230 78 2500 180/09 RMK AO2
14926KSTC STC20050703112010907/03/05 11:20:31  5-MIN KSTC 031720Z AUTO 19011KT 10SM FEW025 BKN035 24/20 A2970 1230 78 2600 190/11 RMK AO2
14926KSTC STC20050703112510907/03/05 11:25:31  5-MIN KSTC 031725Z AUTO 19010KT 10SM FEW025 BKN035 24/20 A2970 1230 78 2600 190/10 RMK AO2
14926KSTC STC20050703113010207/03/05 11:30:31  5-MIN KSTC 031730Z AUTO 20012KT 10SM SCT035 24/20 A2970 1230 78 2600 200/12 RMK AO2
14926KSTC STC20050703113510907/03/05 11:35:31  5-MIN KSTC 031735Z AUTO 19010KT 10SM FEW027 SCT037 24/20 A2970 1230 76 2600 190/10 RMK AO2
14926KSTC STC20050703114010907/03/05 11:40:31  5-MIN KSTC 031740Z AUTO 21011KT 10SM FEW015 BKN037 24/20 A2971 1230 76 2600 200/11 RMK AO2
14926KSTC STC20050703114510907/03/05 11:45:31  5-MIN KSTC 031745Z AUTO 22011KT 10SM FEW015 BKN037 24/20 A2971 1220 76 2600 210/11 RMK AO2
14926KSTC STC20050703115015707/03/05 11:50:31  5-MIN KSTC 031750Z AUTO 19010KT 10SM FEW015 SCT030 BKN037 24/20 A2971 1220 76 2600 190/10 RMK AO2 SLP063 60003 T02440200 10244 20178 53003
14926KSTC STC20050703115511607/03/05 11:55:31  5-MIN KSTC 031755Z AUTO 21011KT 10SM FEW017 SCT027 BKN035 24/20 A2971 1220 76 2600 210/11 RMK AO2
14926KSTC STC20050703120011607/03/05 12:00:31  5-MIN KSTC 031800Z AUTO 20010KT 10SM FEW019 SCT027 BKN035 24/21 A2971 1220 78 2600 200/10 RMK AO2
14926KSTC STC20050703120512207/03/05 12:05:31  5-MIN KSTC 031805Z AUTO 20013G18KT 10SM FEW017 BKN037 OVC050 25/20 A2972 1210 73 2700 200/13G18 RMK AO2
14926KSTC STC20050703121012207/03/05 12:10:31  5-MIN KSTC 031810Z AUTO 21013G18KT 10SM SCT020 BKN027 OVC050 24/20 A2972 1220 76 2600 210/13G18 RMK AO2
14926KSTC STC20050703121511607/03/05 12:15:31  5-MIN KSTC 031815Z AUTO 21011KT 10SM SCT020 BKN027 BKN034 25/21 A2971 1220 76 2700 210/11 RMK AO2
14926KSTC STC20050703122011607/03/05 12:20:31  5-MIN KSTC 031820Z AUTO 21012KT 10SM SCT018 BKN024 BKN035 24/20 A2971 1220 76 2600 210/12 RMK AO2
14926KSTC STC20050703122511607/03/05 12:25:31  5-MIN KSTC 031825Z AUTO 23010KT 10SM SCT018 BKN024 BKN037 24/20 A2971 1220 76 2600 230/10 RMK AO2
14926KSTC STC20050703123010907/03/05 12:30:31  5-MIN KSTC 031830Z AUTO 22009KT 10SM SCT020 SCT028 26/21 A2971 1220 73 2800 210/09 RMK AO2
14926KSTC STC20050703123510907/03/05 12:35:31  5-MIN KSTC 031835Z AUTO 23009KT 10SM FEW018 SCT025 26/20 A2971 1220 71 2800 230/09 RMK AO2
14926KSTC STC20050703124011607/03/05 12:40:31  5-MIN KSTC 031840Z AUTO 24009KT 10SM FEW020 SCT028 SCT037 26/20 A2971 1220 71 2800 240/09 RMK AO2
14926KSTC STC20050703124511607/03/05 12:45:31  5-MIN KSTC 031845Z AUTO 22011KT 10SM FEW018 SCT026 BKN036 26/20 A2971 1220 71 2800 220/11 RMK AO2
14926KSTC STC20050703125013307/03/05 12:50:31  5-MIN KSTC 031850Z AUTO 25012KT 10SM FEW026 SCT032 SCT039 26/19 A2971 1220 66 2800 240/12 RMK AO2 SLP062 T02610194
14926KSTC STC20050703125510907/03/05 12:55:31  5-MIN KSTC 031855Z AUTO 23009KT 10SM FEW026 SCT046 26/19 A2971 1220 66 2800 230/09 RMK AO2
14926KSTC STC20050703130011607/03/05 13:00:31  5-MIN KSTC 031900Z AUTO 24011KT 10SM FEW026 SCT032 SCT045 26/19 A2971 1220 64 2800 240/11 RMK AO2
14926KSTC STC20050703130511607/03/05 13:05:31  5-MIN KSTC 031905Z AUTO 26012KT 10SM FEW026 BKN032 BKN049 27/19 A2971 1220 64 2900 260/12 RMK AO2
14926KSTC STC20050703131011607/03/05 13:10:31  5-MIN KSTC 031910Z AUTO 25011KT 10SM FEW025 SCT032 SCT050 26/19 A2971 1220 64 2800 250/11 RMK AO2
14926KSTC STC20050703131510907/03/05 13:15:31  5-MIN KSTC 031915Z AUTO 24009KT 10SM FEW032 SCT047 26/19 A2971 1220 64 2800 230/09 RMK AO2
14926KSTC STC20050703132010207/03/05 13:20:31  5-MIN KSTC 031920Z AUTO 25010KT 10SM FEW032 26/19 A2971 1220 66 2800 250/10 RMK AO2
14926KSTC STC20050703132510207/03/05 13:25:31  5-MIN KSTC 031925Z AUTO 26010KT 10SM FEW030 27/19 A2971 1220 62 2900 260/10 RMK AO2
14926KSTC STC20050703133010207/03/05 13:30:31  5-MIN KSTC 031930Z AUTO 27008KT 10SM FEW030 26/19 A2971 1220 64 2800 270/08 RMK AO2
14926KSTC STC20050703133510207/03/05 13:35:31  5-MIN KSTC 031935Z AUTO 24010KT 10SM FEW031 27/19 A2971 1220 64 2900 240/10 RMK AO2
14926KSTC STC20050703134010207/03/05 13:40:31  5-MIN KSTC 031940Z AUTO 27009KT 10SM FEW031 27/19 A2971 1220 62 2900 260/09 RMK AO2
14926KSTC STC20050703134510207/03/05 13:45:31  5-MIN KSTC 031945Z AUTO 26012KT 10SM FEW031 27/19 A2971 1220 64 2900 260/12 RMK AO2
14926KSTC STC20050703135011907/03/05 13:50:31  5-MIN KSTC 031950Z AUTO 27011KT 10SM FEW031 26/19 A2972 1210 64 2800 270/11 RMK AO2 SLP065 T02610189
14926KSTC STC20050703135510207/03/05 13:55:31  5-MIN KSTC 031955Z AUTO 27009KT 10SM SCT031 27/19 A2972 1220 62 2900 270/09 RMK AO2
14926KSTC STC20050703140010207/03/05 14:00:31  5-MIN KSTC 032000Z AUTO 28010KT 10SM FEW031 27/19 A2972 1220 62 2900 280/10 RMK AO2
14926KSTC STC20050703140510207/03/05 14:05:31  5-MIN KSTC 032005Z AUTO 26011KT 10SM FEW031 27/19 A2971 1220 62 2900 260/11 RMK AO2
14926KSTC STC20050703141010207/03/05 14:10:31  5-MIN KSTC 032010Z AUTO 26008KT 10SM FEW031 27/18 A2971 1220 58 2900 260/08 RMK AO2
14926KSTC STC20050703141510207/03/05 14:15:31  5-MIN KSTC 032015Z AUTO 26011KT 10SM FEW031 27/19 A2972 1220 60 2900 260/11 RMK AO2
14926KSTC STC20050703142009907/03/05 14:20:31  5-MIN KSTC 032020Z AUTO 27010KT 10SM CLR 27/18 A2971 1220 58 2900 270/10 RMK AO2
14926KSTC STC20050703142509907/03/05 14:25:31  5-MIN KSTC 032025Z AUTO 26010KT 10SM CLR 27/17 A2971 1220 54 2900 250/10 RMK AO2
14926KSTC STC20050703143009907/03/05 14:30:31  5-MIN KSTC 032030Z AUTO 24009KT 10SM CLR 27/17 A2971 1220 54 2900 240/09 RMK AO2
14926KSTC STC20050703143509907/03/05 14:35:31  5-MIN KSTC 032035Z AUTO 25010KT 10SM CLR 27/18 A2971 1220 56 2900 250/10 RMK AO2
14926KSTC STC20050703144009907/03/05 14:40:31  5-MIN KSTC 032040Z AUTO 27008KT 10SM CLR 27/18 A2971 1220 56 2900 270/08 RMK AO2
14926KSTC STC20050703144509907/03/05 14:45:31  5-MIN KSTC 032045Z AUTO 25009KT 10SM CLR 27/18 A2971 1220 57 2900 240/09 RMK AO2
14926KSTC STC20050703145012207/03/05 14:50:31  5-MIN KSTC 032050Z AUTO 26008KT 10SM CLR 27/18 A2971 1220 56 2900 250/08 RMK AO2 SLP063 T02720178 53009
14926KSTC STC20050703145509907/03/05 14:55:31  5-MIN KSTC 032055Z AUTO 25008KT 10SM CLR 27/18 A2971 1220 56 2900 240/08 RMK AO2
14926KSTC STC20050703150009907/03/05 15:00:31  5-MIN KSTC 032100Z AUTO 24008KT 10SM CLR 27/18 A2971 1220 56 2900 240/08 RMK AO2
14926KSTC STC20050703150509907/03/05 15:05:31  5-MIN KSTC 032105Z AUTO 26008KT 10SM CLR 28/18 A2971 1220 56 3000 250/08 RMK AO2
14926KSTC STC20050703151009907/03/05 15:10:31  5-MIN KSTC 032110Z AUTO 24008KT 10SM CLR 28/18 A2971 1220 56 3000 230/08 RMK AO2
14926KSTC STC20050703151510207/03/05 15:15:31  5-MIN KSTC 032115Z AUTO VRB06KT 10SM FEW045 28/18 A2971 1220 56 3000 VRB/06 RMK AO2
14926KSTC STC20050703152010207/03/05 15:20:31  5-MIN KSTC 032120Z AUTO 24008KT 10SM FEW045 27/18 A2971 1220 58 2900 240/08 RMK AO2
14926KSTC STC20050703152510207/03/05 15:25:31  5-MIN KSTC 032125Z AUTO 23008KT 10SM FEW039 28/19 A2971 1220 58 3000 230/08 RMK AO2
14926KSTC STC20050703153010207/03/05 15:30:31  5-MIN KSTC 032130Z AUTO 24007KT 10SM FEW039 27/18 A2971 1230 58 2900 240/07 RMK AO2
14926KSTC STC20050703153510207/03/05 15:35:31  5-MIN KSTC 032135Z AUTO 24006KT 10SM FEW037 27/18 A2971 1230 58 2900 240/06 RMK AO2
14926KSTC STC20050703154010207/03/05 15:40:31  5-MIN KSTC 032140Z AUTO 25006KT 10SM FEW039 27/19 A2971 1220 60 2900 240/06 RMK AO2
14926KSTC STC20050703154510207/03/05 15:45:31  5-MIN KSTC 032145Z AUTO 23007KT 10SM FEW039 27/19 A2971 1220 60 2900 230/07 RMK AO2
14926KSTC STC20050703155011907/03/05 15:50:31  5-MIN KSTC 032150Z AUTO VRB05KT 10SM FEW039 28/18 A2971 1220 56 3000 VRB/05 RMK AO2 SLP061 T02780183
14926KSTC STC20050703155510207/03/05 15:55:31  5-MIN KSTC 032155Z AUTO 27006KT 10SM FEW039 28/18 A2971 1220 56 3000 270/06 RMK AO2
14926KSTC STC20050703160010207/03/05 16:00:31  5-MIN KSTC 032200Z AUTO 26008KT 10SM SCT039 28/18 A2971 1220 54 3000 250/08 RMK AO2
14926KSTC STC20050703160510207/03/05 16:05:31  5-MIN KSTC 032205Z AUTO 23008KT 10SM SCT041 28/18 A2971 1220 54 3000 230/08 RMK AO2
14926KSTC STC20050703161010207/03/05 16:10:31  5-MIN KSTC 032210Z AUTO 26008KT 10SM SCT041 28/18 A2971 1220 54 3000 250/08 RMK AO2
14926KSTC STC20050703161510207/03/05 16:15:31  5-MIN KSTC 032215Z AUTO 25006KT 10SM SCT043 28/17 A2971 1220 52 3000 250/06 RMK AO2
14926KSTC STC20050703162010207/03/05 16:20:31  5-MIN KSTC 032220Z AUTO 25008KT 10SM SCT043 28/17 A2971 1220 52 3000 240/08 RMK AO2
14926KSTC STC20050703162510207/03/05 16:25:31  5-MIN KSTC 032225Z AUTO 24008KT 10SM FEW043 27/18 A2971 1220 56 2900 240/08 RMK AO2
14926KSTC STC20050703163010207/03/05 16:30:31  5-MIN KSTC 032230Z AUTO 23007KT 10SM FEW045 27/18 A2971 1220 56 2900 230/07 RMK AO2
14926KSTC STC20050703163510207/03/05 16:35:31  5-MIN KSTC 032235Z AUTO 24007KT 10SM SCT045 27/18 A2971 1220 58 2900 240/07 RMK AO2
14926KSTC STC20050703164010207/03/05 16:40:31  5-MIN KSTC 032240Z AUTO 24009KT 10SM SCT047 27/18 A2971 1220 56 2900 240/09 RMK AO2
14926KSTC STC20050703164510207/03/05 16:45:31  5-MIN KSTC 032245Z AUTO 25007KT 10SM SCT047 28/18 A2971 1220 54 3000 250/07 RMK AO2
14926KSTC STC20050703165011907/03/05 16:50:31  5-MIN KSTC 032250Z AUTO 27007KT 10SM SCT047 27/18 A2972 1220 58 2900 270/07 RMK AO2 SLP064 T02720183
14926KSTC STC20050703165510207/03/05 16:55:31  5-MIN KSTC 032255Z AUTO 26007KT 10SM SCT047 27/18 A2972 1210 58 2900 260/07 RMK AO2
14926KSTC STC20050703170010207/03/05 17:00:31  5-MIN KSTC 032300Z AUTO 26010KT 10SM SCT047 27/18 A2972 1210 58 2900 260/10 RMK AO2
14926KSTC STC20050703170510207/03/05 17:05:31  5-MIN KSTC 032305Z AUTO 27008KT 10SM BKN047 27/18 A2972 1210 60 2900 260/08 RMK AO2
14926KSTC STC20050703171010207/03/05 17:10:31  5-MIN KSTC 032310Z AUTO 27006KT 10SM SCT047 27/18 A2972 1210 58 2900 270/06 RMK AO2
14926KSTC STC20050703171510207/03/05 17:15:31  5-MIN KSTC 032315Z AUTO 28008KT 10SM FEW047 27/18 A2972 1210 58 2900 280/08 RMK AO2
14926KSTC STC20050703172010207/03/05 17:20:31  5-MIN KSTC 032320Z AUTO 29008KT 10SM FEW047 27/18 A2973 1210 57 2900 290/08 RMK AO2
14926KSTC STC20050703172510207/03/05 17:25:31  5-MIN KSTC 032325Z AUTO 27009KT 10SM FEW047 27/18 A2973 1210 56 2900 270/09 RMK AO2
14926KSTC STC20050703173010207/03/05 17:30:31  5-MIN KSTC 032330Z AUTO 27008KT 10SM FEW045 27/18 A2973 1200 56 2900 270/08 RMK AO2
14926KSTC STC20050703173510207/03/05 17:35:31  5-MIN KSTC 032335Z AUTO 28008KT 10SM FEW045 27/18 A2973 1200 56 2900 280/08 RMK AO2
14926KSTC STC20050703174010207/03/05 17:40:31  5-MIN KSTC 032340Z AUTO 29009KT 10SM FEW045 27/17 A2973 1200 52 2900 290/09 RMK AO2
14926KSTC STC20050703174510207/03/05 17:45:31  5-MIN KSTC 032345Z AUTO 30009KT 10SM FEW045 27/17 A2973 1200 54 2900 290/09 RMK AO2
14926KSTC STC20050703175013707/03/05 17:50:31  5-MIN KSTC 032350Z AUTO 29007KT 10SM FEW045 27/17 A2973 1200 53 2900 290/07 RMK AO2 SLP070 T02670167 10278 20244 50001
14926KSTC STC20050703175510207/03/05 17:55:31  5-MIN KSTC 032355Z AUTO 30009KT 10SM FEW045 27/17 A2973 1200 53 2900 300/09 RMK AO2
14926KSTC STC20050703180009907/03/05 18:00:31  5-MIN KSTC 040000Z AUTO 30007KT 10SM CLR 27/17 A2974 1200 53 2800 290/07 RMK AO2
14926KSTC STC20050703180509907/03/05 18:05:31  5-MIN KSTC 040005Z AUTO 30009KT 10SM CLR 27/17 A2974 1200 53 2800 300/09 RMK AO2
14926KSTC STC20050703181009907/03/05 18:10:31  5-MIN KSTC 040010Z AUTO 30008KT 10SM CLR 27/17 A2974 1190 53 2800 290/08 RMK AO2
14926KSTC STC20050703181509907/03/05 18:15:31  5-MIN KSTC 040015Z AUTO 30007KT 10SM CLR 27/17 A2974 1190 53 2800 290/07 RMK AO2
14926KSTC STC20050703182009907/03/05 18:20:31  5-MIN KSTC 040020Z AUTO 30006KT 10SM CLR 27/17 A2974 1190 55 2800 300/06 RMK AO2
14926KSTC STC20050703182509907/03/05 18:25:31  5-MIN KSTC 040025Z AUTO 30005KT 10SM CLR 27/17 A2974 1190 55 2800 300/05 RMK AO2
14926KSTC STC20050703183009907/03/05 18:30:31  5-MIN KSTC 040030Z AUTO 30007KT 10SM CLR 27/17 A2974 1190 53 2800 290/07 RMK AO2
14926KSTC STC20050703183509907/03/05 18:35:31  5-MIN KSTC 040035Z AUTO 29005KT 10SM CLR 27/17 A2974 1190 55 2800 290/05 RMK AO2
14926KSTC STC20050703184009907/03/05 18:40:31  5-MIN KSTC 040040Z AUTO 28006KT 10SM CLR 27/17 A2974 1190 55 2800 280/06 RMK AO2
14926KSTC STC20050703184509907/03/05 18:45:31  5-MIN KSTC 040045Z AUTO 28006KT 10SM CLR 26/17 A2975 1190 57 2800 280/06 RMK AO2
14926KSTC STC20050703185011607/03/05 18:50:31  5-MIN KSTC 040050Z AUTO 28006KT 10SM CLR 26/17 A2975 1190 57 2800 270/06 RMK AO2 SLP077 T02610172
14926KSTC STC20050703185509907/03/05 18:55:31  5-MIN KSTC 040055Z AUTO 28006KT 10SM CLR 26/17 A2975 1190 57 2800 280/06 RMK AO2
14926KSTC STC20050703190009907/03/05 19:00:31  5-MIN KSTC 040100Z AUTO 28005KT 10SM CLR 26/17 A2975 1180 57 2800 280/05 RMK AO2
14926KSTC STC20050703190509907/03/05 19:05:31  5-MIN KSTC 040105Z AUTO 30007KT 10SM CLR 26/18 A2975 1180 59 2800 300/07 RMK AO2
14926KSTC STC20050703191009907/03/05 19:10:31  5-MIN KSTC 040110Z AUTO 29006KT 10SM CLR 26/17 A2976 1180 59 2700 280/06 RMK AO2
14926KSTC STC20050703191509907/03/05 19:15:31  5-MIN KSTC 040115Z AUTO 28006KT 10SM CLR 26/18 A2976 1180 61 2700 280/06 RMK AO2
14926KSTC STC20050703192009907/03/05 19:20:31  5-MIN KSTC 040120Z AUTO 28006KT 10SM CLR 25/17 A2976 1180 61 2600 280/06 RMK AO2
14926KSTC STC20050703192509907/03/05 19:25:31  5-MIN KSTC 040125Z AUTO 30004KT 10SM CLR 25/18 A2976 1180 64 2600 290/04 RMK AO2
14926KSTC STC20050703193009907/03/05 19:30:31  5-MIN KSTC 040130Z AUTO 28005KT 10SM CLR 25/18 A2975 1180 64 2600 280/05 RMK AO2
14926KSTC STC20050703193509907/03/05 19:35:31  5-MIN KSTC 040135Z AUTO 27005KT 10SM CLR 24/18 A2975 1180 66 2600 270/05 RMK AO2
14926KSTC STC20050703194009907/03/05 19:40:31  5-MIN KSTC 040140Z AUTO 28005KT 10SM CLR 24/18 A2975 1180 66 2600 270/05 RMK AO2
14926KSTC STC20050703194509907/03/05 19:45:31  5-MIN KSTC 040145Z AUTO 27005KT 10SM CLR 24/18 A2975 1180 68 2500 270/05 RMK AO2
14926KSTC STC20050703195011607/03/05 19:50:31  5-MIN KSTC 040150Z AUTO 28005KT 10SM CLR 24/18 A2975 1180 68 2500 270/05 RMK AO2 SLP077 T02390178
14926KSTC STC20050703195509907/03/05 19:55:31  5-MIN KSTC 040155Z AUTO 27005KT 10SM CLR 25/17 A2975 1180 61 2600 270/05 RMK AO2
14926KSTC STC20050703200009907/03/05 20:00:31  5-MIN KSTC 040200Z AUTO 26004KT 10SM CLR 23/17 A2975 1180 68 2500 260/04 RMK AO2
14926KSTC STC20050703200509907/03/05 20:05:31  5-MIN KSTC 040205Z AUTO 25003KT 10SM CLR 23/18 A2975 1180 70 2500 250/03 RMK AO2
14926KSTC STC20050703201009907/03/05 20:10:31  5-MIN KSTC 040210Z AUTO 00000KT 10SM CLR 23/18 A2975 1180 76 2400 000/00 RMK AO2
14926KSTC STC20050703201509907/03/05 20:15:31  5-MIN KSTC 040215Z AUTO 00000KT 10SM CLR 23/18 A2975 1180 73 2400 000/00 RMK AO2
14926KSTC STC20050703202009907/03/05 20:20:31  5-MIN KSTC 040220Z AUTO 26003KT 10SM CLR 22/18 A2976 1180 78 2300 260/03 RMK AO2
14926KSTC STC20050703202509907/03/05 20:25:31  5-MIN KSTC 040225Z AUTO 27003KT 10SM CLR 22/18 A2976 1180 78 2300 260/03 RMK AO2
14926KSTC STC20050703203009907/03/05 20:30:31  5-MIN KSTC 040230Z AUTO 26003KT 10SM CLR 22/18 A2976 1170 78 2300 250/03 RMK AO2
14926KSTC STC20050703203509907/03/05 20:35:31  5-MIN KSTC 040235Z AUTO 23003KT 10SM CLR 22/18 A2976 1170 81 2300 230/03 RMK AO2
14926KSTC STC20050703204009907/03/05 20:40:31  5-MIN KSTC 040240Z AUTO 22003KT 10SM CLR 21/19 A2977 1170 87 2200 220/03 RMK AO2
14926KSTC STC20050703204509907/03/05 20:45:31  5-MIN KSTC 040245Z AUTO 00000KT 10SM CLR 21/19 A2977 1170 87 2200 000/00 RMK AO2
14926KSTC STC20050703205012207/03/05 20:50:31  5-MIN KSTC 040250Z AUTO 00000KT 10SM CLR 21/19 A2977 1160 90 2100 000/00 RMK AO2 SLP086 T02060189 53007
14926KSTC STC20050703205509907/03/05 20:55:31  5-MIN KSTC 040255Z AUTO 00000KT 10SM CLR 21/18 A2977 1160 87 2100 000/00 RMK AO2
14926KSTC STC20050703210009907/03/05 21:00:31  5-MIN KSTC 040300Z AUTO 00000KT 10SM CLR 21/18 A2978 1160 87 2100 000/00 RMK AO2
14926KSTC STC20050703210509407/03/05 21:05:31  5-MIN KSTC 040305Z 00000KT 10SM CLR 21/18 A2978 1160 87 2100 000/00 RMK AO2
14926KSTC STC20050703211009407/03/05 21:10:31  5-MIN KSTC 040310Z 18003KT 10SM CLR 21/19 A2978 1150 90 2100 170/03 RMK AO2
14926KSTC STC20050703211509707/03/05 21:15:31  5-MIN KSTC 040315Z 00000KT 10SM FEW042 21/18 A2979 1150 87 2100 000/00 RMK AO2
14926KSTC STC20050703212009707/03/05 21:20:31  5-MIN KSTC 040320Z 22003KT 10SM SCT042 21/18 A2979 1150 87 2100 210/03 RMK AO2
14926KSTC STC20050703212509707/03/05 21:25:31  5-MIN KSTC 040325Z 24006KT 10SM BKN042 21/18 A2980 1140 87 2100 240/06 RMK AO2
14926KSTC STC20050703213009707/03/05 21:30:31  5-MIN KSTC 040330Z 27006KT 10SM SCT042 21/18 A2980 1140 84 2100 270/06 RMK AO2
14926KSTC STC20050703213509707/03/05 21:35:31  5-MIN KSTC 040335Z 28006KT 10SM SCT042 22/18 A2980 1140 78 2200 280/06 RMK AO2
14926KSTC STC20050703214009707/03/05 21:40:31  5-MIN KSTC 040340Z 29006KT 10SM SCT042 22/18 A2980 1140 78 2200 280/06 RMK AO2
14926KSTC STC20050703214509707/03/05 21:45:31  5-MIN KSTC 040345Z 29008KT 10SM FEW042 22/17 A2981 1130 75 2200 290/08 RMK AO2
14926KSTC STC20050703215011407/03/05 21:50:31  5-MIN KSTC 040350Z 30008KT 10SM FEW042 22/16 A2981 1130 68 2300 290/08 RMK AO2 SLP097 T02220161
14926KSTC STC20050703215509907/03/05 21:55:31  5-MIN KSTC 040355Z AUTO 30007KT 10SM CLR 22/16 A2981 1130 68 2300 290/07 RMK AO2
14926KSTC STC20050703220009907/03/05 22:00:31  5-MIN KSTC 040400Z AUTO 29006KT 10SM CLR 22/16 A2981 1120 70 2200 290/06 RMK AO2
14926KSTC STC20050703220509907/03/05 22:05:31  5-MIN KSTC 040405Z AUTO 29007KT 10SM CLR 22/17 A2982 1120 73 2200 280/07 RMK AO2
14926KSTC STC20050703221009907/03/05 22:10:31  5-MIN KSTC 040410Z AUTO 30008KT 10SM CLR 22/17 A2982 1120 73 2200 290/08 RMK AO2
14926KSTC STC20050703221509907/03/05 22:15:31  5-MIN KSTC 040415Z AUTO 30008KT 10SM CLR 22/16 A2982 1120 68 2200 300/08 RMK AO2
14926KSTC STC20050703222009907/03/05 22:20:31  5-MIN KSTC 040420Z AUTO 30006KT 10SM CLR 21/16 A2982 1120 70 2100 290/06 RMK AO2
14926KSTC STC20050703222509907/03/05 22:25:31  5-MIN KSTC 040425Z AUTO 30006KT 10SM CLR 21/16 A2982 1120 70 2100 300/06 RMK AO2
14926KSTC STC20050703223009907/03/05 22:30:31  5-MIN KSTC 040430Z AUTO 30006KT 10SM CLR 21/16 A2983 1110 73 2100 300/06 RMK AO2
14926KSTC STC20050703223509907/03/05 22:35:31  5-MIN KSTC 040435Z AUTO 30006KT 10SM CLR 20/16 A2983 1110 75 2000 300/06 RMK AO2
14926KSTC STC20050703224009907/03/05 22:40:31  5-MIN KSTC 040440Z AUTO 30006KT 10SM CLR 20/16 A2983 1110 75 2000 300/06 RMK AO2
14926KSTC STC20050703224509907/03/05 22:45:31  5-MIN KSTC 040445Z AUTO 31006KT 10SM CLR 19/16 A2983 1110 78 1900 300/06 RMK AO2
14926KSTC STC20050703225011607/03/05 22:50:31  5-MIN KSTC 040450Z AUTO 31007KT 10SM CLR 19/16 A2983 1110 78 1900 300/07 RMK AO2 SLP105 T01940156
14926KSTC STC20050703225509907/03/05 22:55:31  5-MIN KSTC 040455Z AUTO 31007KT 10SM CLR 19/16 A2983 1110 81 1900 300/07 RMK AO2
14926KSTC STC20050703230009907/03/05 23:00:31  5-MIN KSTC 040500Z AUTO 31006KT 10SM CLR 19/16 A2983 1110 81 1900 300/06 RMK AO2
14926KSTC STC20050703230509907/03/05 23:05:31  5-MIN KSTC 040505Z AUTO 31006KT 10SM CLR 19/16 A2984 1100 81 1900 300/06 RMK AO2
14926KSTC STC20050703231009907/03/05 23:10:31  5-MIN KSTC 040510Z AUTO 30005KT 10SM CLR 18/16 A2984 1100 84 1800 300/05 RMK AO2
14926KSTC STC20050703231509907/03/05 23:15:31  5-MIN KSTC 040515Z AUTO 30005KT 10SM CLR 19/16 A2984 1110 81 1900 300/05 RMK AO2
14926KSTC STC20050703232009907/03/05 23:20:31  5-MIN KSTC 040520Z AUTO 30005KT 10SM CLR 19/15 A2984 1100 78 1900 300/05 RMK AO2
14926KSTC STC20050703232509907/03/05 23:25:31  5-MIN KSTC 040525Z AUTO 30005KT 10SM CLR 19/15 A2984 1110 78 1900 300/05 RMK AO2
14926KSTC STC20050703233009907/03/05 23:30:31  5-MIN KSTC 040530Z AUTO 29003KT 10SM CLR 19/15 A2984 1100 78 1800 290/03 RMK AO2
14926KSTC STC20050703233509907/03/05 23:35:31  5-MIN KSTC 040535Z AUTO 00000KT 10SM CLR 19/15 A2984 1100 78 1800 000/00 RMK AO2
14926KSTC STC20050703234009907/03/05 23:40:31  5-MIN KSTC 040540Z AUTO 00000KT 10SM CLR 18/16 A2984 1100 87 1700 000/00 RMK AO2
14926KSTC STC20050703234509907/03/05 23:45:31  5-MIN KSTC 040545Z AUTO 17003KT 10SM CLR 17/16 A2984 1100 90 1700 170/03 RMK AO2
14926KSTC STC20050703235014407/03/05 23:50:31  5-MIN KSTC 040550Z AUTO 17003KT 10SM CLR 17/16 A2984 1100 90 1700 170/03 RMK AO2 SLP110 T01720156 10267 20172 402780172 53014
14926KSTC STC20050703235509907/03/05 23:55:31  5-MIN KSTC 040555Z AUTO 16003KT 10SM CLR 17/16 A2984 1100 90 1700 160/03 RMK AO2
14926KSTC STC20050704000009907/04/05 00:00:32  5-MIN KSTC 040600Z AUTO 00000KT 10SM CLR 18/16 A2984 1100 87 1700 000/00 RMK AO2
14926KSTC STC20050704000509907/04/05 00:05:31  5-MIN KSTC 040605Z AUTO 19003KT 10SM CLR 18/16 A2984 1100 87 1700 190/03 RMK AO2
14926KSTC STC20050704001009907/04/05 00:10:31  5-MIN KSTC 040610Z AUTO 20004KT 10SM CLR 18/15 A2984 1100 83 1700 200/04 RMK AO2
14926KSTC STC20050704001509907/04/05 00:15:31  5-MIN KSTC 040615Z AUTO 20003KT 10SM CLR 17/15 A2984 1100 87 1700 200/03 RMK AO2
14926KSTC STC20050704002009907/04/05 00:20:31  5-MIN KSTC 040620Z AUTO 00000KT 10SM CLR 17/15 A2984 1100 87 1700 000/00 RMK AO2
14926KSTC STC20050704002509907/04/05 00:25:31  5-MIN KSTC 040625Z AUTO 00000KT 10SM CLR 17/15 A2984 1100 87 1700 000/00 RMK AO2
14926KSTC STC20050704003009907/04/05 00:30:31  5-MIN KSTC 040630Z AUTO 00000KT 10SM CLR 18/15 A2983 1110 83 1700 000/00 RMK AO2
14926KSTC STC20050704003509907/04/05 00:35:31  5-MIN KSTC 040635Z AUTO 31003KT 10SM CLR 17/15 A2983 1110 87 1700 310/03 RMK AO2
14926KSTC STC20050704004009907/04/05 00:40:31  5-MIN KSTC 040640Z AUTO 32004KT 10SM CLR 17/15 A2983 1110 87 1700 310/04 RMK AO2
14926KSTC STC20050704004509907/04/05 00:45:31  5-MIN KSTC 040645Z AUTO 31005KT 10SM CLR 17/14 A2983 1110 83 1700 310/05 RMK AO2
14926KSTC STC20050704005011607/04/05 00:50:31  5-MIN KSTC 040650Z AUTO 31006KT 10SM CLR 17/14 A2983 1110 80 1700 300/06 RMK AO2 SLP105 T01720139
14926KSTC STC20050704005509907/04/05 00:55:31  5-MIN KSTC 040655Z AUTO 30005KT 10SM CLR 17/14 A2983 1110 80 1700 300/05 RMK AO2
14926KSTC STC20050704010009907/04/05 01:00:31  5-MIN KSTC 040700Z AUTO 30005KT 10SM CLR 17/14 A2983 1110 80 1700 290/05 RMK AO2
14926KSTC STC20050704010509907/04/05 01:05:31  5-MIN KSTC 040705Z AUTO 30005KT 10SM CLR 17/14 A2983 1110 80 1700 300/05 RMK AO2
14926KSTC STC20050704011009907/04/05 01:10:31  5-MIN KSTC 040710Z AUTO 30006KT 10SM CLR 17/14 A2982 1120 80 1700 300/06 RMK AO2
14926KSTC STC20050704011509907/04/05 01:15:31  5-MIN KSTC 040715Z AUTO 30006KT 10SM CLR 17/14 A2983 1110 80 1700 300/06 RMK AO2
14926KSTC STC20050704012009907/04/05 01:20:31  5-MIN KSTC 040720Z AUTO 29004KT 10SM CLR 17/14 A2983 1110 80 1700 290/04 RMK AO2
14926KSTC STC20050704012509907/04/05 01:25:31  5-MIN KSTC 040725Z AUTO 29003KT 10SM CLR 17/14 A2983 1110 83 1600 290/03 RMK AO2
14926KSTC STC20050704013009907/04/05 01:30:31  5-MIN KSTC 040730Z AUTO 25003KT 10SM CLR 17/14 A2984 1100 80 1700 250/03 RMK AO2
14926KSTC STC20050704013509907/04/05 01:35:31  5-MIN KSTC 040735Z AUTO 25004KT 10SM CLR 17/14 A2984 1100 83 1600 250/04 RMK AO2
14926KSTC STC20050704014009907/04/05 01:40:31  5-MIN KSTC 040740Z AUTO 27004KT 10SM CLR 17/14 A2984 1100 83 1600 270/04 RMK AO2
14926KSTC STC20050704014509907/04/05 01:45:31  5-MIN KSTC 040745Z AUTO 32003KT 10SM CLR 16/14 A2983 1110 86 1500 310/03 RMK AO2
14926KSTC STC20050704015011607/04/05 01:50:31  5-MIN KSTC 040750Z AUTO 31004KT 10SM CLR 17/14 A2982 1120 83 1600 310/04 RMK AO2 SLP103 T01670139
14926KSTC STC20050704015509907/04/05 01:55:31  5-MIN KSTC 040755Z AUTO 29005KT 10SM CLR 17/14 A2983 1110 83 1600 290/05 RMK AO2
14926KSTC STC20050704020009907/04/05 02:00:31  5-MIN KSTC 040800Z AUTO 30005KT 10SM CLR 16/14 A2983 1110 86 1500 300/05 RMK AO2
14926KSTC STC20050704020509907/04/05 02:05:31  5-MIN KSTC 040805Z AUTO 29004KT 10SM CLR 16/14 A2983 1110 86 1500 290/04 RMK AO2
14926KSTC STC20050704021009907/04/05 02:10:31  5-MIN KSTC 040810Z AUTO 29003KT 10SM CLR 16/14 A2983 1110 86 1500 290/03 RMK AO2
14926KSTC STC20050704021509907/04/05 02:15:31  5-MIN KSTC 040815Z AUTO 29004KT 10SM CLR 16/14 A2984 1110 86 1500 290/04 RMK AO2
14926KSTC STC20050704022009907/04/05 02:20:31  5-MIN KSTC 040820Z AUTO 28004KT 10SM CLR 16/14 A2984 1100 86 1500 270/04 RMK AO2
14926KSTC STC20050704022509907/04/05 02:25:31  5-MIN KSTC 040825Z AUTO 28004KT 10SM CLR 16/14 A2983 1110 86 1500 280/04 RMK AO2
14926KSTC STC20050704023009907/04/05 02:30:31  5-MIN KSTC 040830Z AUTO 28006KT 10SM CLR 16/13 A2984 1100 83 1500 270/06 RMK AO2
14926KSTC STC20050704023509907/04/05 02:35:31  5-MIN KSTC 040835Z AUTO 27007KT 10SM CLR 17/13 A2984 1100 78 1700 270/07 RMK AO2
14926KSTC STC20050704024009907/04/05 02:40:31  5-MIN KSTC 040840Z AUTO 27006KT 10SM CLR 17/13 A2984 1100 80 1600 270/06 RMK AO2
14926KSTC STC20050704024509907/04/05 02:45:31  5-MIN KSTC 040845Z AUTO 27007KT 10SM CLR 17/13 A2983 1110 80 1600 270/07 RMK AO2
14926KSTC STC20050704025012207/04/05 02:50:31  5-MIN KSTC 040850Z AUTO 27006KT 10SM CLR 17/13 A2984 1100 80 1600 270/06 RMK AO2 SLP106 T01670133 51022
14926KSTC STC20050704025509907/04/05 02:55:31  5-MIN KSTC 040855Z AUTO 26006KT 10SM CLR 17/13 A2984 1100 80 1600 260/06 RMK AO2
14926KSTC STC20050704030009907/04/05 03:00:31  5-MIN KSTC 040900Z AUTO 27006KT 10SM CLR 16/13 A2984 1100 83 1500 260/06 RMK AO2
14926KSTC STC20050704030509907/04/05 03:05:31  5-MIN KSTC 040905Z AUTO 27007KT 10SM CLR 16/13 A2984 1100 83 1500 270/07 RMK AO2
14926KSTC STC20050704031009907/04/05 03:10:31  5-MIN KSTC 040910Z AUTO 27007KT 10SM CLR 17/13 A2984 1100 80 1600 270/07 RMK AO2
14926KSTC STC20050704031509907/04/05 03:15:31  5-MIN KSTC 040915Z AUTO 28006KT 10SM CLR 17/13 A2984 1100 80 1600 270/06 RMK AO2
14926KSTC STC20050704032009907/04/05 03:20:31  5-MIN KSTC 040920Z AUTO 28007KT 10SM CLR 17/13 A2983 1110 78 1700 280/07 RMK AO2
14926KSTC STC20050704032509907/04/05 03:25:31  5-MIN KSTC 040925Z AUTO 28008KT 10SM CLR 17/13 A2983 1110 78 1700 280/08 RMK AO2
14926KSTC STC20050704033009907/04/05 03:30:31  5-MIN KSTC 040930Z AUTO 28008KT 10SM CLR 18/13 A2983 1110 75 1700 280/08 RMK AO2
14926KSTC STC20050704033509907/04/05 03:35:31  5-MIN KSTC 040935Z AUTO 28008KT 10SM CLR 17/13 A2983 1110 78 1700 280/08 RMK AO2
14926KSTC STC20050704034009907/04/05 03:40:31  5-MIN KSTC 040940Z AUTO 28008KT 10SM CLR 18/13 A2983 1110 75 1700 280/08 RMK AO2
14926KSTC STC20050704034509907/04/05 03:45:31  5-MIN KSTC 040945Z AUTO 28008KT 10SM CLR 18/13 A2983 1110 75 1700 280/08 RMK AO2
14926KSTC STC20050704035011607/04/05 03:50:31  5-MIN KSTC 040950Z AUTO 28008KT 10SM CLR 17/13 A2983 1110 78 1700 280/08 RMK AO2 SLP105 T01720133
14926KSTC STC20050704035509907/04/05 03:55:31  5-MIN KSTC 040955Z AUTO 28008KT 10SM CLR 17/13 A2983 1110 78 1700 270/08 RMK AO2
14926KSTC STC20050704040009907/04/05 04:00:31  5-MIN KSTC 041000Z AUTO 28007KT 10SM CLR 17/13 A2984 1100 78 1700 270/07 RMK AO2
14926KSTC STC20050704040509907/04/05 04:05:31  5-MIN KSTC 041005Z AUTO 28007KT 10SM CLR 17/13 A2984 1100 78 1700 270/07 RMK AO2
14926KSTC STC20050704041009907/04/05 04:10:31  5-MIN KSTC 041010Z AUTO 27006KT 10SM CLR 17/13 A2984 1100 78 1700 270/06 RMK AO2
14926KSTC STC20050704041509907/04/05 04:15:31  5-MIN KSTC 041015Z AUTO 27007KT 10SM CLR 17/13 A2984 1100 80 1600 270/07 RMK AO2
14926KSTC STC20050704042009907/04/05 04:20:31  5-MIN KSTC 041020Z AUTO 27007KT 10SM CLR 17/13 A2984 1100 80 1600 270/07 RMK AO2
14926KSTC STC20050704042509907/04/05 04:25:31  5-MIN KSTC 041025Z AUTO 26006KT 10SM CLR 17/13 A2984 1100 80 1600 260/06 RMK AO2
14926KSTC STC20050704043009907/04/05 04:30:31  5-MIN KSTC 041030Z AUTO 26006KT 10SM CLR 16/13 A2984 1100 83 1500 260/06 RMK AO2
14926KSTC STC20050704043509907/04/05 04:35:31  5-MIN KSTC 041035Z AUTO 25006KT 10SM CLR 16/13 A2984 1100 83 1500 250/06 RMK AO2
14926KSTC STC20050704044009907/04/05 04:40:31  5-MIN KSTC 041040Z AUTO 26006KT 10SM CLR 16/13 A2984 1100 83 1500 260/06 RMK AO2
14926KSTC STC20050704044509907/04/05 04:45:31  5-MIN KSTC 041045Z AUTO 26006KT 10SM CLR 16/13 A2984 1100 83 1500 250/06 RMK AO2
14926KSTC STC20050704045011607/04/05 04:50:31  5-MIN KSTC 041050Z AUTO 26005KT 10SM CLR 16/13 A2984 1100 83 1500 250/05 RMK AO2 SLP110 T01610133
14926KSTC STC20050704045509907/04/05 04:55:31  5-MIN KSTC 041055Z AUTO 25005KT 10SM CLR 16/13 A2985 1090 83 1500 250/05 RMK AO2
14926KSTC STC20050704050009907/04/05 05:00:31  5-MIN KSTC 041100Z AUTO 25005KT 10SM CLR 16/13 A2985 1090 83 1500 250/05 RMK AO2
14926KSTC STC20050704050509907/04/05 05:05:31  5-MIN KSTC 041105Z AUTO 26005KT 10SM CLR 16/13 A2985 1090 83 1500 250/05 RMK AO2
14926KSTC STC20050704051009907/04/05 05:10:31  5-MIN KSTC 041110Z AUTO 26004KT 10SM CLR 16/13 A2985 1090 83 1500 260/04 RMK AO2
14926KSTC STC20050704051509907/04/05 05:15:31  5-MIN KSTC 041115Z AUTO 26003KT 10SM CLR 16/13 A2985 1090 83 1500 260/03 RMK AO2
14926KSTC STC20050704052009907/04/05 05:20:31  5-MIN KSTC 041120Z AUTO 26003KT 10SM CLR 17/13 A2985 1090 80 1600 260/03 RMK AO2
14926KSTC STC20050704052509907/04/05 05:25:31  5-MIN KSTC 041125Z AUTO 25003KT 10SM CLR 17/13 A2985 1090 80 1600 250/03 RMK AO2
14926KSTC STC20050704053009907/04/05 05:30:31  5-MIN KSTC 041130Z AUTO 00000KT 10SM CLR 17/13 A2985 1090 80 1600 000/00 RMK AO2
14926KSTC STC20050704053509907/04/05 05:35:31  5-MIN KSTC 041135Z AUTO 24003KT 10SM CLR 17/13 A2985 1090 78 1600 240/03 RMK AO2
14926KSTC STC20050704054009907/04/05 05:40:31  5-MIN KSTC 041140Z AUTO 26003KT 10SM CLR 17/13 A2985 1090 78 1600 260/03 RMK AO2
14926KSTC STC20050704054509907/04/05 05:45:31  5-MIN KSTC 041145Z AUTO 26004KT 10SM CLR 18/13 A2985 1090 75 1700 260/04 RMK AO2
14926KSTC STC20050704055013507/04/05 05:50:31  5-MIN KSTC 041150Z 27004KT 10SM CLR 18/13 A2986 1090 75 1700 260/04 RMK AO2 SLP113 70003 T01780133 10178 20161 55002
14926KSTC STC20050704055509407/04/05 05:55:31  5-MIN KSTC 041155Z 27005KT 10SM CLR 18/13 A2986 1090 72 1800 270/05 RMK AO2
14926KSTC STC20050704060009407/04/05 06:00:31  5-MIN KSTC 041200Z 28007KT 10SM CLR 19/13 A2986 1090 70 1800 270/07 RMK AO2
14926KSTC STC20050704060509407/04/05 06:05:31  5-MIN KSTC 041205Z 28008KT 10SM CLR 19/13 A2986 1080 70 1800 280/08 RMK AO2
14926KSTC STC20050704061009407/04/05 06:10:31  5-MIN KSTC 041210Z 29006KT 10SM CLR 19/13 A2986 1090 70 1800 290/06 RMK AO2
14926KSTC STC20050704061509407/04/05 06:15:31  5-MIN KSTC 041215Z 30007KT 10SM CLR 19/13 A2986 1090 70 1800 290/07 RMK AO2
14926KSTC STC20050704062009407/04/05 06:20:31  5-MIN KSTC 041220Z 29008KT 10SM CLR 19/13 A2986 1090 70 1800 290/08 RMK AO2
14926KSTC STC20050704062509407/04/05 06:25:31  5-MIN KSTC 041225Z 29006KT 10SM CLR 19/14 A2986 1090 72 1800 280/06 RMK AO2
14926KSTC STC20050704063009407/04/05 06:30:31  5-MIN KSTC 041230Z 29006KT 10SM CLR 19/14 A2986 1090 70 1900 290/06 RMK AO2
14926KSTC STC20050704063509407/04/05 06:35:31  5-MIN KSTC 041235Z 29006KT 10SM CLR 19/14 A2986 1080 70 1900 290/06 RMK AO2
14926KSTC STC20050704064009407/04/05 06:40:31  5-MIN KSTC 041240Z 29007KT 10SM CLR 19/14 A2986 1080 70 1900 290/07 RMK AO2
14926KSTC STC20050704064509407/04/05 06:45:31  5-MIN KSTC 041245Z 28006KT 10SM CLR 19/14 A2986 1080 70 1900 280/06 RMK AO2
14926KSTC STC20050704065011107/04/05 06:50:31  5-MIN KSTC 041250Z 29007KT 10SM CLR 19/14 A2986 1080 70 1900 290/07 RMK AO2 SLP115 T01940139
14926KSTC STC20050704065509407/04/05 06:55:31  5-MIN KSTC 041255Z 27005KT 10SM CLR 19/14 A2987 1080 70 1900 270/05 RMK AO2
14926KSTC STC20050704070009407/04/05 07:00:31  5-MIN KSTC 041300Z 29006KT 10SM CLR 20/14 A2987 1080 67 1900 280/06 RMK AO2
14926KSTC STC20050704070509407/04/05 07:05:31  5-MIN KSTC 041305Z 28007KT 10SM CLR 20/14 A2987 1080 67 1900 280/07 RMK AO2
14926KSTC STC20050704071009407/04/05 07:10:31  5-MIN KSTC 041310Z 28006KT 10SM CLR 20/14 A2987 1080 67 1900 280/06 RMK AO2
14926KSTC STC20050704071509407/04/05 07:15:31  5-MIN KSTC 041315Z 28006KT 10SM CLR 20/14 A2987 1070 67 1900 280/06 RMK AO2
14926KSTC STC20050704072009407/04/05 07:20:31  5-MIN KSTC 041320Z 29006KT 10SM CLR 21/14 A2987 1070 65 2000 280/06 RMK AO2
14926KSTC STC20050704072509407/04/05 07:25:31  5-MIN KSTC 041325Z 28005KT 10SM CLR 21/14 A2987 1070 67 2000 280/05 RMK AO2
14926KSTC STC20050704073009407/04/05 07:30:31  5-MIN KSTC 041330Z 27005KT 10SM CLR 21/14 A2987 1070 67 2000 260/05 RMK AO2
14926KSTC STC20050704073509407/04/05 07:35:31  5-MIN KSTC 041335Z 26005KT 10SM CLR 21/14 A2987 1070 65 2100 250/05 RMK AO2
14926KSTC STC20050704074009407/04/05 07:40:31  5-MIN KSTC 041340Z 27006KT 10SM CLR 21/14 A2988 1070 63 2100 270/06 RMK AO2
14926KSTC STC20050704074509407/04/05 07:45:31  5-MIN KSTC 041345Z 28004KT 10SM CLR 21/14 A2988 1070 65 2100 270/04 RMK AO2
14926KSTC STC20050704075011107/04/05 07:50:31  5-MIN KSTC 041350Z 25005KT 10SM CLR 21/14 A2988 1070 63 2100 250/05 RMK AO2 SLP120 T02110139
14926KSTC STC20050704075509407/04/05 07:55:31  5-MIN KSTC 041355Z 27004KT 10SM CLR 21/14 A2988 1070 65 2100 270/04 RMK AO2
14926KSTC STC20050704080009407/04/05 08:00:31  5-MIN KSTC 041400Z 28004KT 10SM CLR 22/14 A2988 1070 61 2200 280/04 RMK AO2
14926KSTC STC20050704080509407/04/05 08:05:31  5-MIN KSTC 041405Z 27005KT 10SM CLR 22/14 A2988 1060 61 2200 270/05 RMK AO2
14926KSTC STC20050704081009407/04/05 08:10:31  5-MIN KSTC 041410Z 28006KT 10SM CLR 22/14 A2988 1060 59 2200 280/06 RMK AO2
14926KSTC STC20050704081509407/04/05 08:15:31  5-MIN KSTC 041415Z 25006KT 10SM CLR 22/14 A2988 1060 61 2200 250/06 RMK AO2
14926KSTC STC20050704082011007/04/05 08:20:31  5-MIN KSTC 041420Z 27007KT 230V320 10SM CLR 22/14 A2988 1060 59 2200 270/07 230V320 RMK AO2
14926KSTC STC20050704082509407/04/05 08:25:31  5-MIN KSTC 041425Z 26006KT 10SM CLR 22/14 A2988 1060 59 2200 260/06 RMK AO2
14926KSTC STC20050704083009407/04/05 08:30:31  5-MIN KSTC 041430Z VRB06KT 10SM CLR 22/14 A2988 1060 59 2200 VRB/06 RMK AO2
14926KSTC STC20050704083509407/04/05 08:35:31  5-MIN KSTC 041435Z 29008KT 10SM CLR 23/14 A2988 1060 59 2200 280/08 RMK AO2
14926KSTC STC20050704084009407/04/05 08:40:31  5-MIN KSTC 041440Z VRB06KT 10SM CLR 23/14 A2988 1060 59 2200 VRB/06 RMK AO2
14926KSTC STC20050704084509407/04/05 08:45:31  5-MIN KSTC 041445Z 25008KT 10SM CLR 23/14 A2988 1060 59 2200 240/08 RMK AO2
14926KSTC STC20050704085011707/04/05 08:50:31  5-MIN KSTC 041450Z 25008KT 10SM CLR 23/14 A2988 1060 57 2300 240/08 RMK AO2 SLP122 T02330144 53006
14926KSTC STC20050704085511007/04/05 08:55:31  5-MIN KSTC 041455Z 26007KT 230V300 10SM CLR 23/14 A2988 1060 57 2200 260/07 230V300 RMK AO2
14926KSTC STC20050704090009407/04/05 09:00:31  5-MIN KSTC 041500Z 28009KT 10SM CLR 23/14 A2988 1060 57 2300 270/09 RMK AO2
14926KSTC STC20050704090509407/04/05 09:05:31  5-MIN KSTC 041505Z 26007KT 10SM CLR 23/14 A2989 1060 57 2300 260/07 RMK AO2
14926KSTC STC20050704091009407/04/05 09:10:31  5-MIN KSTC 041510Z 30012KT 10SM CLR 23/14 A2989 1060 55 2300 290/12 RMK AO2
14926KSTC STC20050704091509407/04/05 09:15:31  5-MIN KSTC 041515Z 31012KT 10SM CLR 24/14 A2989 1060 53 2400 300/12 RMK AO2
14926KSTC STC20050704092010007/04/05 09:20:31  5-MIN KSTC 041520Z 30014G17KT 10SM CLR 23/13 A2989 1060 53 2300 290/14G17 RMK AO2
14926KSTC STC20050704092509407/04/05 09:25:31  5-MIN KSTC 041525Z 28011KT 10SM CLR 24/13 A2989 1060 51 2400 280/11 RMK AO2
14926KSTC STC20050704093009707/04/05 09:30:31  5-MIN KSTC 041530Z 27012KT 10SM FEW043 24/14 A2989 1050 53 2400 270/12 RMK AO2
14926KSTC STC20050704093509707/04/05 09:35:31  5-MIN KSTC 041535Z 28013KT 10SM FEW041 24/14 A2989 1050 53 2400 270/13 RMK AO2
14926KSTC STC20050704094009707/04/05 09:40:31  5-MIN KSTC 041540Z 27012KT 10SM FEW043 24/13 A2989 1050 51 2400 270/12 RMK AO2
14926KSTC STC20050704094509707/04/05 09:45:31  5-MIN KSTC 041545Z 29010KT 10SM FEW043 24/13 A2989 1050 51 2400 290/10 RMK AO2
14926KSTC STC20050704095012007/04/05 09:50:31  5-MIN KSTC 041550Z 29014G19KT 10SM SCT045 24/13 A2990 1050 51 2400 290/14G19 RMK AO2 SLP126 T02390133
14926KSTC STC20050704095510307/04/05 09:55:31  5-MIN KSTC 041555Z 28014G19KT 10SM SCT045 24/14 A2990 1050 53 2400 270/14G19 RMK AO2
14926KSTC STC20050704100010307/04/05 10:00:31  5-MIN KSTC 041600Z 27011G18KT 10SM SCT045 24/13 A2990 1050 51 2400 270/11G18 RMK AO2
14926KSTC STC20050704100509707/04/05 10:05:31  5-MIN KSTC 041605Z 27015KT 10SM SCT045 24/14 A2990 1050 51 2400 270/15 RMK AO2
14926KSTC STC20050704101011007/04/05 10:10:31  5-MIN KSTC 041610Z 29012G18KT 10SM SCT045 SCT055 24/13 A2990 1040 49 2400 280/12G18 RMK AO2
14926KSTC STC20050704101511007/04/05 10:15:31  5-MIN KSTC 041615Z 30013G18KT 10SM SCT047 BKN055 24/13 A2990 1040 51 2300 290/13G18 RMK AO2
14926KSTC STC20050704102010407/04/05 10:20:31  5-MIN KSTC 041620Z 30011KT 10SM SCT047 BKN055 24/14 A2990 1040 51 2400 290/11 RMK AO2
14926KSTC STC20050704102511007/04/05 10:25:31  5-MIN KSTC 041625Z 28014G18KT 10SM SCT045 BKN055 24/13 A2990 1040 49 2400 280/14G18 RMK AO2
14926KSTC STC20050704103011007/04/05 10:30:31  5-MIN KSTC 041630Z 28012G19KT 10SM SCT045 BKN055 24/13 A2991 1040 49 2400 270/12G19 RMK AO2
14926KSTC STC20050704103511007/04/05 10:35:31  5-MIN KSTC 041635Z 29012G19KT 10SM SCT047 BKN055 24/13 A2991 1040 49 2400 290/12G19 RMK AO2
14926KSTC STC20050704104011007/04/05 10:40:31  5-MIN KSTC 041640Z 30010G19KT 10SM SCT045 BKN055 24/13 A2990 1040 49 2400 300/10G19 RMK AO2
14926KSTC STC20050704104510307/04/05 10:45:31  5-MIN KSTC 041645Z 31015G19KT 10SM SCT045 24/13 A2991 1040 49 2400 300/15G19 RMK AO2
14926KSTC STC20050704105012107/04/05 10:50:31  5-MIN KSTC 041650Z 30013KT 10SM SCT047 SCT060 24/13 A2991 1040 49 2300 300/13 RMK AO2 SLP131 T02390128
14926KSTC STC20050704105510407/04/05 10:55:31  5-MIN KSTC 041655Z 31013KT 10SM FEW045 SCT060 25/13 A2991 1040 48 2500 310/13 RMK AO2
14926KSTC STC20050704110009707/04/05 11:00:31  5-MIN KSTC 041700Z 30013KT 10SM FEW045 24/13 A2991 1040 49 2400 300/13 RMK AO2
14926KSTC STC20050704110509707/04/05 11:05:31  5-MIN KSTC 041705Z 28009KT 10SM FEW044 25/14 A2991 1040 49 2500 280/09 RMK AO2
14926KSTC STC20050704111010407/04/05 11:10:31  5-MIN KSTC 041710Z 29014KT 10SM SCT042 SCT060 24/13 A2991 1030 51 2300 290/14 RMK AO2
14926KSTC STC20050704111510407/04/05 11:15:31  5-MIN KSTC 041715Z 28011KT 10SM FEW042 SCT060 24/13 A2991 1030 49 2400 280/11 RMK AO2
14926KSTC STC20050704112009707/04/05 11:20:31  5-MIN KSTC 041720Z 28012KT 10SM FEW042 25/14 A2991 1040 49 2500 280/12 RMK AO2
14926KSTC STC20050704112509707/04/05 11:25:31  5-MIN KSTC 041725Z 30009KT 10SM FEW042 25/13 A2991 1040 48 2500 300/09 RMK AO2
14926KSTC STC20050704113009707/04/05 11:30:31  5-MIN KSTC 041730Z 29010KT 10SM FEW042 25/14 A2991 1030 49 2500 290/10 RMK AO2
14926KSTC STC20050704113509707/04/05 11:35:31  5-MIN KSTC 041735Z 27011KT 10SM FEW042 25/14 A2991 1040 49 2500 270/11 RMK AO2
14926KSTC STC20050704114009707/04/05 11:40:31  5-MIN KSTC 041740Z 29012KT 10SM FEW050 26/14 A2991 1040 48 2500 290/12 RMK AO2
14926KSTC STC20050704114509707/04/05 11:45:31  5-MIN KSTC 041745Z 29010KT 10SM FEW048 25/14 A2991 1040 49 2500 290/10 RMK AO2
14926KSTC STC20050704115014507/04/05 11:50:31  5-MIN KSTC 041750Z 28013G18KT 10SM FEW048 SCT080 26/14 A2991 1040 48 2500 270/13G18 RMK AO2 SLP132 T02560139 10261 20183 51009
14926KSTC STC20050704115511707/04/05 11:55:31  5-MIN KSTC 041755Z 28010G18KT 10SM FEW046 SCT050 BKN065 24/13 A2991 1030 49 2400 270/10G18 RMK AO2
14926KSTC STC20050704120010407/04/05 12:00:31  5-MIN KSTC 041800Z 28011KT 10SM SCT048 BKN060 24/13 A2991 1030 49 2400 270/11 RMK AO2
14926KSTC STC20050704120511107/04/05 12:05:31  5-MIN KSTC 041805Z 29011KT 10SM SCT046 BKN060 BKN085 24/13 A2991 1030 51 2300 280/11 RMK AO2
14926KSTC STC20050704121011107/04/05 12:10:31  5-MIN KSTC 041810Z 30012KT 10SM FEW045 BKN055 BKN065 24/14 A2991 1030 53 2300 300/12 RMK AO2
14926KSTC STC20050704121511107/04/05 12:15:31  5-MIN KSTC 041815Z 30011KT 10SM FEW045 BKN055 BKN090 24/14 A2992 1030 53 2300 300/11 RMK AO2
14926KSTC STC20050704122011107/04/05 12:20:31  5-MIN KSTC 041820Z 30010KT 10SM SCT048 BKN060 BKN090 24/14 A2992 1030 53 2400 290/10 RMK AO2
14926KSTC STC20050704122511107/04/05 12:25:31  5-MIN KSTC 041825Z 30012KT 10SM FEW044 SCT055 BKN090 24/14 A2992 1030 53 2400 290/12 RMK AO2
14926KSTC STC20050704123010407/04/05 12:30:31  5-MIN KSTC 041830Z 29011KT 10SM SCT055 BKN085 24/14 A2992 1020 53 2300 280/11 RMK AO2
14926KSTC STC20050704123510407/04/05 12:35:31  5-MIN KSTC 041835Z 28011KT 10SM SCT060 BKN080 24/14 A2992 1020 53 2300 280/11 RMK AO2
14926KSTC STC20050704124010407/04/05 12:40:31  5-MIN KSTC 041840Z 31010KT 10SM FEW060 BKN085 24/14 A2992 1020 53 2300 310/10 RMK AO2
14926KSTC STC20050704124510407/04/05 12:45:31  5-MIN KSTC 041845Z 30011KT 10SM FEW065 BKN090 24/14 A2992 1020 53 2400 300/11 RMK AO2
14926KSTC STC20050704125012107/04/05 12:50:31  5-MIN KSTC 041850Z 30011KT 10SM FEW065 BKN090 24/14 A2992 1020 53 2400 300/11 RMK AO2 SLP137 T02440144
14926KSTC STC20050704125510407/04/05 12:55:31  5-MIN KSTC 041855Z 30011KT 10SM FEW065 BKN090 24/14 A2993 1020 53 2300 290/11 RMK AO2
14926KSTC STC20050704130010407/04/05 13:00:31  5-MIN KSTC 041900Z 30009KT 10SM FEW060 BKN095 24/14 A2992 1020 53 2300 290/09 RMK AO2
14926KSTC STC20050704130510407/04/05 13:05:31  5-MIN KSTC 041905Z 30009KT 10SM FEW075 SCT090 24/14 A2993 1020 55 2300 300/09 RMK AO2
14926KSTC STC20050704131010407/04/05 13:10:31  5-MIN KSTC 041910Z 32010KT 10SM FEW040 BKN085 24/14 A2993 1020 55 2300 320/10 RMK AO2
14926KSTC STC20050704131511107/04/05 13:15:31  5-MIN KSTC 041915Z 32009KT 10SM FEW040 SCT055 BKN090 24/14 A2992 1020 53 2300 320/09 RMK AO2
14926KSTC STC20050704132011707/04/05 13:20:31  5-MIN KSTC 041920Z 31014G17KT 10SM FEW041 SCT060 BKN090 23/14 A2993 1020 57 2300 310/14G17 RMK AO2
14926KSTC STC20050704132511707/04/05 13:25:31  5-MIN KSTC 041925Z 32010G17KT 10SM SCT043 BKN055 BKN080 23/15 A2993 1020 61 2200 320/10G17 RMK AO2
14926KSTC STC20050704133011107/04/05 13:30:31  5-MIN KSTC 041930Z 32009KT 10SM SCT046 BKN060 OVC085 23/15 A2993 1020 61 2200 320/09 RMK AO2
14926KSTC STC20050704133511107/04/05 13:35:31  5-MIN KSTC 041935Z 32008KT 10SM BKN045 BKN055 OVC085 23/15 A2993 1020 61 2200 320/08 RMK AO2
14926KSTC STC20050704134011107/04/05 13:40:31  5-MIN KSTC 041940Z 32009KT 10SM SCT045 BKN060 OVC090 23/14 A2992 1020 57 2300 320/09 RMK AO2
14926KSTC STC20050704134511107/04/05 13:45:31  5-MIN KSTC 041945Z 32010KT 10SM SCT045 BKN060 OVC090 24/15 A2992 1020 57 2300 320/10 RMK AO2
14926KSTC STC20050704135012807/04/05 13:50:31  5-MIN KSTC 041950Z 32012KT 10SM FEW045 SCT060 BKN095 25/15 A2993 1020 53 2400 310/12 RMK AO2 SLP138 T02500150
14926KSTC STC20050704135511107/04/05 13:55:31  5-MIN KSTC 041955Z 32011KT 10SM FEW045 SCT060 BKN100 24/14 A2992 1020 53 2400 320/11 RMK AO2
14926KSTC STC20050704140010407/04/05 14:00:31  5-MIN KSTC 042000Z 33010KT 10SM FEW055 BKN100 23/14 A2992 1020 57 2300 320/10 RMK AO2
14926KSTC STC20050704140510407/04/05 14:05:31  5-MIN KSTC 042005Z 32010KT 10SM FEW060 BKN100 24/14 A2993 1020 55 2300 320/10 RMK AO2
14926KSTC STC20050704141009707/04/05 14:10:31  5-MIN KSTC 042010Z 32011KT 10SM SCT100 24/14 A2993 1020 55 2300 310/11 RMK AO2
14926KSTC STC20050704141509707/04/05 14:15:31  5-MIN KSTC 042015Z 32011KT 10SM SCT100 23/14 A2993 1020 55 2300 310/11 RMK AO2
14926KSTC STC20050704142009707/04/05 14:20:31  5-MIN KSTC 042020Z 31013KT 10SM BKN095 23/14 A2993 1020 55 2300 300/13 RMK AO2
14926KSTC STC20050704142509707/04/05 14:25:31  5-MIN KSTC 042025Z 30012KT 10SM BKN090 23/13 A2993 1010 53 2300 290/12 RMK AO2
14926KSTC STC20050704143009707/04/05 14:30:31  5-MIN KSTC 042030Z 28009KT 10SM BKN090 23/14 A2993 1010 55 2300 280/09 RMK AO2
14926KSTC STC20050704143509707/04/05 14:35:31  5-MIN KSTC 042035Z 26011KT 10SM BKN090 23/15 A2993 1010 61 2200 260/11 RMK AO2
14926KSTC STC20050704144009707/04/05 14:40:31  5-MIN KSTC 042040Z 26010KT 10SM BKN095 23/14 A2993 1020 57 2300 260/10 RMK AO2
14926KSTC STC20050704144509707/04/05 14:45:31  5-MIN KSTC 042045Z 26009KT 10SM BKN095 24/15 A2993 1020 57 2300 260/09 RMK AO2
14926KSTC STC20050704145012707/04/05 14:50:31  5-MIN KSTC 042050Z 27008KT 10SM FEW080 BKN095 23/15 A2993 1020 59 2300 270/08 RMK AO2 SLP139 T02330150 51009
14926KSTC STC20050704145510407/04/05 14:55:31  5-MIN KSTC 042055Z 27009KT 10SM FEW075 BKN095 24/15 A2993 1020 55 2400 270/09 RMK AO2
14926KSTC STC20050704150010407/04/05 15:00:31  5-MIN KSTC 042100Z 27013KT 10SM FEW070 SCT095 25/15 A2992 1020 53 2500 270/13 RMK AO2
14926KSTC STC20050704150510407/04/05 15:05:31  5-MIN KSTC 042105Z 29011KT 10SM FEW070 SCT100 25/14 A2993 1020 49 2400 290/11 RMK AO2
14926KSTC STC20050704151010407/04/05 15:10:31  5-MIN KSTC 042110Z 27009KT 10SM FEW039 SCT100 25/14 A2993 1020 51 2400 270/09 RMK AO2
14926KSTC STC20050704151510407/04/05 15:15:31  5-MIN KSTC 042115Z 27011KT 10SM FEW039 BKN100 25/14 A2993 1020 51 2400 270/11 RMK AO2
14926KSTC STC20050704152011007/04/05 15:20:31  5-MIN KSTC 042120Z 30012G18KT 10SM FEW041 SCT100 25/14 A2993 1020 49 2400 300/12G18 RMK AO2
14926KSTC STC20050704152509707/04/05 15:25:31  5-MIN KSTC 042125Z 30014KT 10SM FEW100 24/14 A2993 1020 51 2400 300/14 RMK AO2
14926KSTC STC20050704153009707/04/05 15:30:31  5-MIN KSTC 042130Z 31011KT 10SM SCT100 24/14 A2993 1020 53 2300 300/11 RMK AO2
14926KSTC STC20050704153509707/04/05 15:35:31  5-MIN KSTC 042135Z 32013KT 10SM SCT100 24/14 A2993 1020 53 2300 310/13 RMK AO2
14926KSTC STC20050704154009907/04/05 15:40:31  5-MIN KSTC 042140Z 31011KT 10SM SCT095 24/14 A2993 1020 53 2300 310/11 RMK AO2 $
14926KSTC STC20050704154509907/04/05 15:45:31  5-MIN KSTC 042145Z 31013KT 10SM SCT095 25/14 A2993 1020 49 2400 300/13 RMK AO2 $
14926KSTC STC20050704155011607/04/05 15:50:31  5-MIN KSTC 042150Z 29012KT 10SM SCT095 24/14 A2993 1010 51 2400 290/12 RMK AO2 SLP140 T02440139 $
14926KSTC STC20050704155509907/04/05 15:55:31  5-MIN KSTC 042155Z 30011KT 10SM SCT095 25/14 A2993 1010 49 2400 300/11 RMK AO2 $
14926KSTC STC20050704160009907/04/05 16:00:31  5-MIN KSTC 042200Z 30013KT 10SM FEW095 24/14 A2993 1010 51 2400 290/13 RMK AO2 $
14926KSTC STC20050704160509907/04/05 16:05:31  5-MIN KSTC 042205Z 29013KT 10SM FEW095 24/14 A2993 1010 51 2400 290/13 RMK AO2 $
14926KSTC STC20050704161009907/04/05 16:10:31  5-MIN KSTC 042210Z 29012KT 10SM FEW095 24/14 A2993 1010 51 2400 280/12 RMK AO2 $
14926KSTC STC20050704161509907/04/05 16:15:31  5-MIN KSTC 042215Z 29011KT 10SM FEW042 24/14 A2993 1010 51 2400 290/11 RMK AO2 $
14926KSTC STC20050704162009907/04/05 16:20:31  5-MIN KSTC 042220Z 31012KT 10SM FEW042 25/14 A2993 1010 51 2400 300/12 RMK AO2 $
14926KSTC STC20050704162509707/04/05 16:25:31  5-MIN KSTC 042225Z 30013KT 10SM FEW042 24/13 A2994 1010 49 2400 300/13 RMK AO2
14926KSTC STC20050704163009707/04/05 16:30:31  5-MIN KSTC 042230Z 28015KT 10SM FEW042 24/13 A2994 1010 49 2400 280/15 RMK AO2
14926KSTC STC20050704163509707/04/05 16:35:31  5-MIN KSTC 042235Z 28013KT 10SM FEW042 24/13 A2994 1010 49 2400 280/13 RMK AO2
14926KSTC STC20050704164009707/04/05 16:40:31  5-MIN KSTC 042240Z 28010KT 10SM FEW042 24/14 A2994 1010 51 2400 280/10 RMK AO2
14926KSTC STC20050704164510307/04/05 16:45:31  5-MIN KSTC 042245Z 30011G18KT 10SM FEW044 25/14 A2994 1010 49 2400 300/11G18 RMK AO2
14926KSTC STC20050704165012007/04/05 16:50:31  5-MIN KSTC 042250Z 29012G18KT 10SM FEW044 24/14 A2994 1010 51 2400 280/12G18 RMK AO2 SLP143 T02440139
14926KSTC STC20050704165509707/04/05 16:55:31  5-MIN KSTC 042255Z 30013KT 10SM FEW042 24/13 A2994 1010 49 2400 300/13 RMK AO2
14926KSTC STC20050704170010307/04/05 17:00:31  5-MIN KSTC 042300Z 30009G17KT 10SM FEW042 24/13 A2994 1010 49 2400 300/09G17 RMK AO2
14926KSTC STC20050704170509707/04/05 17:05:31  5-MIN KSTC 042305Z 29013KT 10SM FEW042 24/14 A2994 1010 51 2400 290/13 RMK AO2
14926KSTC STC20050704171009707/04/05 17:10:31  5-MIN KSTC 042310Z 29015KT 10SM FEW042 24/13 A2994 1010 49 2400 290/15 RMK AO2
14926KSTC STC20050704171509407/04/05 17:15:31  5-MIN KSTC 042315Z 30013KT 10SM CLR 24/12 A2994 1010 47 2300 300/13 RMK AO2
14926KSTC STC20050704172009407/04/05 17:20:31  5-MIN KSTC 042320Z 31012KT 10SM CLR 24/13 A2994 1010 49 2300 310/12 RMK AO2
14926KSTC STC20050704172509407/04/05 17:25:31  5-MIN KSTC 042325Z 30014KT 10SM CLR 24/13 A2994 1000 49 2300 300/14 RMK AO2
14926KSTC STC20050704173009407/04/05 17:30:31  5-MIN KSTC 042330Z 29011KT 10SM CLR 24/13 A2994 1010 47 2400 280/11 RMK AO2
14926KSTC STC20050704173509407/04/05 17:35:31  5-MIN KSTC 042335Z 30012KT 10SM CLR 24/13 A2994 1000 49 2300 290/12 RMK AO2
14926KSTC STC20050704174009407/04/05 17:40:31  5-MIN KSTC 042340Z 31013KT 10SM CLR 23/13 A2994 1000 51 2200 300/13 RMK AO2
14926KSTC STC20050704174509407/04/05 17:45:31  5-MIN KSTC 042345Z 30011KT 10SM CLR 23/13 A2995 1000 51 2200 300/11 RMK AO2
14926KSTC STC20050704175012907/04/05 17:50:31  5-MIN KSTC 042350Z 30012KT 10SM CLR 24/13 A2995 1000 49 2300 290/12 RMK AO2 SLP145 T02390128 10256 20228 51005
14926KSTC STC20050704175509407/04/05 17:55:31  5-MIN KSTC 042355Z 29012KT 10SM CLR 24/13 A2995 1000 49 2300 290/12 RMK AO2
14926KSTC STC20050704180009407/04/05 18:00:31  5-MIN KSTC 050000Z 30011KT 10SM CLR 24/13 A2995 1000 49 2300 290/11 RMK AO2
14926KSTC STC20050704180510007/04/05 18:05:31  5-MIN KSTC 050005Z 30015G19KT 10SM CLR 24/13 A2995 1000 49 2300 290/15G19 RMK AO2
14926KSTC STC20050704181010007/04/05 18:10:31  5-MIN KSTC 050010Z 30011G19KT 10SM CLR 24/12 A2995 1000 46 2300 300/11G19 RMK AO2
14926KSTC STC20050704181509407/04/05 18:15:31  5-MIN KSTC 050015Z 30011KT 10SM CLR 24/12 A2995 1000 47 2300 300/11 RMK AO2
14926KSTC STC20050704182009407/04/05 18:20:31  5-MIN KSTC 050020Z 30012KT 10SM CLR 23/13 A2995 1000 51 2200 300/12 RMK AO2
14926KSTC STC20050704182509407/04/05 18:25:31  5-MIN KSTC 050025Z 30010KT 10SM CLR 23/13 A2995 1000 51 2200 300/10 RMK AO2
14926KSTC STC20050704183009407/04/05 18:30:31  5-MIN KSTC 050030Z 32011KT 10SM CLR 23/13 A2995 1000 53 2200 310/11 RMK AO2
14926KSTC STC20050704183509407/04/05 18:35:31  5-MIN KSTC 050035Z 31011KT 10SM CLR 23/13 A2995 1000 55 2200 310/11 RMK AO2
14926KSTC STC20050704184009307/04/05 18:40:31  5-MIN KSTC 050040Z 32009KT 10SM CLR 23/14 A2995 990 57 2200 310/09 RMK AO2
14926KSTC STC20050704184509307/04/05 18:45:31  5-MIN KSTC 050045Z 33012KT 10SM CLR 23/13 A2996 990 55 2200 330/12 RMK AO2
14926KSTC STC20050704185011007/04/05 18:50:31  5-MIN KSTC 050050Z 33010KT 10SM CLR 22/13 A2996 990 56 2100 320/10 RMK AO2 SLP149 T02220133
14926KSTC STC20050704185509307/04/05 18:55:31  5-MIN KSTC 050055Z 32011KT 10SM CLR 22/13 A2996 990 56 2100 320/11 RMK AO2
14926KSTC STC20050704190009307/04/05 19:00:31  5-MIN KSTC 050100Z 32010KT 10SM CLR 22/13 A2996 990 54 2100 320/10 RMK AO2
14926KSTC STC20050704190509307/04/05 19:05:31  5-MIN KSTC 050105Z 31009KT 10SM CLR 22/13 A2997 980 54 2100 310/09 RMK AO2
14926KSTC STC20050704191009307/04/05 19:10:31  5-MIN KSTC 050110Z 32009KT 10SM CLR 22/13 A2997 980 54 2100 310/09 RMK AO2
14926KSTC STC20050704191509307/04/05 19:15:31  5-MIN KSTC 050115Z 32007KT 10SM CLR 22/13 A2997 980 56 2000 310/07 RMK AO2
14926KSTC STC20050704192009307/04/05 19:20:31  5-MIN KSTC 050120Z 31009KT 10SM CLR 22/13 A2997 980 58 2000 310/09 RMK AO2
14926KSTC STC20050704192509307/04/05 19:25:31  5-MIN KSTC 050125Z 32009KT 10SM CLR 22/13 A2997 980 56 2000 320/09 RMK AO2
14926KSTC STC20050704193009307/04/05 19:30:31  5-MIN KSTC 050130Z 32007KT 10SM CLR 21/13 A2997 980 58 2000 320/07 RMK AO2
14926KSTC STC20050704193509307/04/05 19:35:31  5-MIN KSTC 050135Z 32007KT 10SM CLR 21/13 A2997 980 58 2000 320/07 RMK AO2
14926KSTC STC20050704194009307/04/05 19:40:31  5-MIN KSTC 050140Z 32007KT 10SM CLR 21/13 A2998 970 63 1900 320/07 RMK AO2
14926KSTC STC20050704194509307/04/05 19:45:31  5-MIN KSTC 050145Z 32005KT 10SM CLR 21/13 A2998 970 63 1900 320/05 RMK AO2
14926KSTC STC20050704195011007/04/05 19:50:31  5-MIN KSTC 050150Z 32005KT 10SM CLR 21/13 A2998 980 63 1900 320/05 RMK AO2 SLP155 T02060133
14926KSTC STC20050704195509307/04/05 19:55:31  5-MIN KSTC 050155Z 33006KT 10SM CLR 20/13 A2998 970 65 1800 320/06 RMK AO2
14926KSTC STC20050704200009307/04/05 20:00:31  5-MIN KSTC 050200Z 33006KT 10SM CLR 20/13 A2998 970 65 1800 330/06 RMK AO2
14926KSTC STC20050704200509307/04/05 20:05:31  5-MIN KSTC 050205Z 32007KT 10SM CLR 20/13 A2998 970 65 1800 320/07 RMK AO2
14926KSTC STC20050704201009307/04/05 20:10:31  5-MIN KSTC 050210Z 32007KT 10SM CLR 20/13 A2998 970 65 1800 320/07 RMK AO2
14926KSTC STC20050704201509307/04/05 20:15:31  5-MIN KSTC 050215Z 33006KT 10SM CLR 19/13 A2998 970 67 1700 320/06 RMK AO2
14926KSTC STC20050704202009307/04/05 20:20:31  5-MIN KSTC 050220Z 33006KT 10SM CLR 19/13 A2999 960 67 1700 320/06 RMK AO2
14926KSTC STC20050704202509307/04/05 20:25:31  5-MIN KSTC 050225Z 32007KT 10SM CLR 19/13 A2999 960 67 1700 320/07 RMK AO2
14926KSTC STC20050704203009307/04/05 20:30:31  5-MIN KSTC 050230Z 32007KT 10SM CLR 19/13 A2999 960 70 1700 320/07 RMK AO2
14926KSTC STC20050704203509307/04/05 20:35:31  5-MIN KSTC 050235Z 33006KT 10SM CLR 19/13 A3000 960 70 1700 320/06 RMK AO2
14926KSTC STC20050704204009307/04/05 20:40:31  5-MIN KSTC 050240Z 33006KT 10SM CLR 19/13 A3000 950 70 1700 330/06 RMK AO2
14926KSTC STC20050704204509307/04/05 20:45:31  5-MIN KSTC 050245Z 33007KT 10SM CLR 19/13 A3000 950 70 1700 330/07 RMK AO2
14926KSTC STC20050704205011607/04/05 20:50:31  5-MIN KSTC 050250Z 32007KT 10SM CLR 19/13 A3000 950 70 1700 320/07 RMK AO2 SLP164 T01890133 51007
14926KSTC STC20050704205509307/04/05 20:55:31  5-MIN KSTC 050255Z 32007KT 10SM CLR 19/13 A3000 950 70 1700 320/07 RMK AO2
14926KSTC STC20050704210009307/04/05 21:00:31  5-MIN KSTC 050300Z 33006KT 10SM CLR 18/13 A3001 950 70 1600 320/06 RMK AO2
14926KSTC STC20050704210509307/04/05 21:05:31  5-MIN KSTC 050305Z 32006KT 10SM CLR 18/13 A3001 940 70 1600 320/06 RMK AO2
14926KSTC STC20050704211009307/04/05 21:10:31  5-MIN KSTC 050310Z 32005KT 10SM CLR 18/13 A3001 940 72 1600 320/05 RMK AO2
14926KSTC STC20050704211509307/04/05 21:15:31  5-MIN KSTC 050315Z 33005KT 10SM CLR 18/13 A3001 940 75 1500 320/05 RMK AO2
14926KSTC STC20050704212009307/04/05 21:20:31  5-MIN KSTC 050320Z 32005KT 10SM CLR 18/13 A3001 940 75 1500 320/05 RMK AO2
14926KSTC STC20050704212509307/04/05 21:25:31  5-MIN KSTC 050325Z 33004KT 10SM CLR 17/13 A3001 940 78 1500 330/04 RMK AO2
14926KSTC STC20050704213009307/04/05 21:30:31  5-MIN KSTC 050330Z 33004KT 10SM CLR 17/13 A3002 940 78 1500 330/04 RMK AO2
14926KSTC STC20050704213509307/04/05 21:35:31  5-MIN KSTC 050335Z 33005KT 10SM CLR 17/13 A3002 940 78 1500 330/05 RMK AO2
14926KSTC STC20050704214009307/04/05 21:40:31  5-MIN KSTC 050340Z 34004KT 10SM CLR 17/13 A3002 940 78 1500 340/04 RMK AO2
14926KSTC STC20050704214509307/04/05 21:45:31  5-MIN KSTC 050345Z 34005KT 10SM CLR 17/13 A3002 930 78 1500 340/05 RMK AO2
14926KSTC STC20050704215011007/04/05 21:50:31  5-MIN KSTC 050350Z 34005KT 10SM CLR 17/13 A3002 930 75 1500 330/05 RMK AO2 SLP170 T01720128
14926KSTC STC20050704215509807/04/05 21:55:31  5-MIN KSTC 050355Z AUTO 34005KT 10SM CLR 17/13 A3002 930 75 1400 330/05 RMK AO2
14926KSTC STC20050704220009807/04/05 22:00:31  5-MIN KSTC 050400Z AUTO 33005KT 10SM CLR 17/13 A3003 930 75 1400 330/05 RMK AO2
14926KSTC STC20050704220509807/04/05 22:05:31  5-MIN KSTC 050405Z AUTO 33005KT 10SM CLR 17/13 A3003 930 75 1400 330/05 RMK AO2
14926KSTC STC20050704221009807/04/05 22:10:31  5-MIN KSTC 050410Z AUTO 33004KT 10SM CLR 17/13 A3003 930 77 1400 330/04 RMK AO2
14926KSTC STC20050704221509807/04/05 22:15:31  5-MIN KSTC 050415Z AUTO 33005KT 10SM CLR 17/13 A3003 920 77 1400 330/05 RMK AO2
14926KSTC STC20050704222009807/04/05 22:20:31  5-MIN KSTC 050420Z AUTO 33005KT 10SM CLR 17/13 A3004 920 77 1400 320/05 RMK AO2
14926KSTC STC20050704222509807/04/05 22:25:31  5-MIN KSTC 050425Z AUTO 32005KT 10SM CLR 17/13 A3004 920 77 1400 320/05 RMK AO2
14926KSTC STC20050704223009807/04/05 22:30:31  5-MIN KSTC 050430Z AUTO 33006KT 10SM CLR 17/13 A3004 920 77 1400 320/06 RMK AO2
14926KSTC STC20050704223509807/04/05 22:35:31  5-MIN KSTC 050435Z AUTO 33006KT 10SM CLR 17/13 A3004 920 77 1400 330/06 RMK AO2
14926KSTC STC20050704224009807/04/05 22:40:31  5-MIN KSTC 050440Z AUTO 33005KT 10SM CLR 17/13 A3004 920 77 1400 330/05 RMK AO2
14926KSTC STC20050704224509807/04/05 22:45:31  5-MIN KSTC 050445Z AUTO 33005KT 10SM CLR 17/13 A3004 920 77 1400 330/05 RMK AO2
14926KSTC STC20050704225011507/04/05 22:50:31  5-MIN KSTC 050450Z AUTO 33005KT 10SM CLR 16/13 A3004 920 80 1300 330/05 RMK AO2 SLP177 T01610128
14926KSTC STC20050704225509807/04/05 22:55:31  5-MIN KSTC 050455Z AUTO 33005KT 10SM CLR 16/13 A3004 920 80 1300 330/05 RMK AO2
14926KSTC STC20050704230009807/04/05 23:00:31  5-MIN KSTC 050500Z AUTO 33005KT 10SM CLR 16/13 A3004 920 80 1300 330/05 RMK AO2
14926KSTC STC20050704230509807/04/05 23:05:31  5-MIN KSTC 050505Z AUTO 33005KT 10SM CLR 16/13 A3004 920 80 1300 320/05 RMK AO2
14926KSTC STC20050704231009807/04/05 23:10:31  5-MIN KSTC 050510Z AUTO 32006KT 10SM CLR 16/13 A3004 920 80 1300 320/06 RMK AO2
14926KSTC STC20050704231509807/04/05 23:15:31  5-MIN KSTC 050515Z AUTO 32006KT 10SM CLR 16/13 A3004 920 80 1300 320/06 RMK AO2
14926KSTC STC20050704232009807/04/05 23:20:31  5-MIN KSTC 050520Z AUTO 32006KT 10SM CLR 16/13 A3004 920 83 1200 310/06 RMK AO2
14926KSTC STC20050704232509807/04/05 23:25:31  5-MIN KSTC 050525Z AUTO 32005KT 10SM CLR 16/13 A3004 920 83 1200 320/05 RMK AO2
14926KSTC STC20050704233009807/04/05 23:30:31  5-MIN KSTC 050530Z AUTO 32006KT 10SM CLR 16/13 A3004 920 83 1200 320/06 RMK AO2
14926KSTC STC20050704233509807/04/05 23:35:31  5-MIN KSTC 050535Z AUTO 32006KT 10SM CLR 15/13 A3004 920 86 1200 320/06 RMK AO2
14926KSTC STC20050704234009807/04/05 23:40:31  5-MIN KSTC 050540Z AUTO 32006KT 10SM CLR 15/13 A3004 920 86 1200 320/06 RMK AO2
14926KSTC STC20050704234509807/04/05 23:45:31  5-MIN KSTC 050545Z AUTO 33005KT 10SM CLR 16/13 A3004 920 83 1200 320/05 RMK AO2
14926KSTC STC20050704235014307/04/05 23:50:31  5-MIN KSTC 050550Z AUTO 33005KT 10SM CLR 16/13 A3004 920 83 1200 320/05 RMK AO2 SLP176 T01560128 10239 20150 402610150 53019
14926KSTC STC20050704235509807/04/05 23:55:31  5-MIN KSTC 050555Z AUTO 32005KT 10SM CLR 15/13 A3004 920 86 1200 320/05 RMK AO2
14926KSTC STC20050705000009807/05/05 00:00:32  5-MIN KSTC 050600Z AUTO 32004KT 10SM CLR 15/13 A3004 920 86 1200 310/04 RMK AO2
14926KSTC STC20050705000509807/05/05 00:05:31  5-MIN KSTC 050605Z AUTO 31004KT 10SM CLR 14/13 A3004 910 90 1100 310/04 RMK AO2
14926KSTC STC20050705001009807/05/05 00:10:31  5-MIN KSTC 050610Z AUTO 31005KT 10SM CLR 14/13 A3004 910 90 1100 310/05 RMK AO2
14926KSTC STC20050705001509807/05/05 00:15:31  5-MIN KSTC 050615Z AUTO 31005KT 10SM CLR 14/13 A3004 910 90 1100 310/05 RMK AO2
14926KSTC STC20050705002009807/05/05 00:20:31  5-MIN KSTC 050620Z AUTO 31005KT 10SM CLR 14/13 A3004 910 90 1100 310/05 RMK AO2
14926KSTC STC20050705002509807/05/05 00:25:31  5-MIN KSTC 050625Z AUTO 31006KT 10SM CLR 14/13 A3004 910 90 1100 310/06 RMK AO2
14926KSTC STC20050705003009807/05/05 00:30:31  5-MIN KSTC 050630Z AUTO 31006KT 10SM CLR 14/13 A3004 910 93 1000 310/06 RMK AO2
14926KSTC STC20050705003509807/05/05 00:35:31  5-MIN KSTC 050635Z AUTO 31006KT 10SM CLR 14/13 A3004 910 93 1000 310/06 RMK AO2
14926KSTC STC20050705004009807/05/05 00:40:31  5-MIN KSTC 050640Z AUTO 31006KT 10SM CLR 14/13 A3004 910 93 1000 310/06 RMK AO2
14926KSTC STC20050705004509807/05/05 00:45:31  5-MIN KSTC 050645Z AUTO 31006KT 10SM CLR 14/13 A3004 910 93 1000 310/06 RMK AO2
14926KSTC STC20050705005011507/05/05 00:50:31  5-MIN KSTC 050650Z AUTO 31006KT 10SM CLR 14/12 A3004 910 90 1000 310/06 RMK AO2 SLP178 T01390122
14926KSTC STC20050705005509807/05/05 00:55:31  5-MIN KSTC 050655Z AUTO 31006KT 10SM CLR 14/12 A3004 910 90 1000 310/06 RMK AO2
14926KSTC STC20050705010009807/05/05 01:00:31  5-MIN KSTC 050700Z AUTO 31006KT 10SM CLR 14/12 A3004 910 90 1000 310/06 RMK AO2
14926KSTC STC20050705010509807/05/05 01:05:31  5-MIN KSTC 050705Z AUTO 31006KT 10SM CLR 14/12 A3005 910 90 1000 310/06 RMK AO2
14926KSTC STC20050705011009807/05/05 01:10:31  5-MIN KSTC 050710Z AUTO 32005KT 10SM CLR 14/12 A3005 910 90 1000 310/05 RMK AO2
14926KSTC STC20050705011510107/05/05 01:15:31  5-MIN KSTC 050715Z AUTO 32006KT 10SM SCT055 14/13 A3005 910 93 1000 310/06 RMK AO2
14926KSTC STC20050705012010107/05/05 01:20:31  5-MIN KSTC 050720Z AUTO 32006KT 10SM BKN055 14/13 A3004 910 93 1000 310/06 RMK AO2
14926KSTC STC20050705012510107/05/05 01:25:31  5-MIN KSTC 050725Z AUTO 32006KT 10SM BKN050 14/13 A3004 910 90 1100 320/06 RMK AO2
14926KSTC STC20050705013010107/05/05 01:30:31  5-MIN KSTC 050730Z AUTO 31005KT 10SM BKN055 14/13 A3004 910 90 1100 310/05 RMK AO2
14926KSTC STC20050705013510107/05/05 01:35:31  5-MIN KSTC 050735Z AUTO 31007KT 10SM OVC055 14/13 A3004 910 90 1100 310/07 RMK AO2
14926KSTC STC20050705014010107/05/05 01:40:31  5-MIN KSTC 050740Z AUTO 31006KT 10SM OVC055 14/13 A3004 910 90 1100 310/06 RMK AO2
14926KSTC STC20050705014510107/05/05 01:45:31  5-MIN KSTC 050745Z AUTO 32007KT 10SM OVC055 14/13 A3004 910 90 1100 320/07 RMK AO2
14926KSTC STC20050705015011807/05/05 01:50:31  5-MIN KSTC 050750Z AUTO 32006KT 10SM OVC055 14/13 A3004 920 90 1100 320/06 RMK AO2 SLP177 T01440128
14926KSTC STC20050705015510107/05/05 01:55:31  5-MIN KSTC 050755Z AUTO 32007KT 10SM OVC055 14/13 A3004 920 90 1100 320/07 RMK AO2
14926KSTC STC20050705020010107/05/05 02:00:31  5-MIN KSTC 050800Z AUTO 32006KT 10SM OVC055 14/13 A3004 920 90 1100 320/06 RMK AO2
14926KSTC STC20050705020510107/05/05 02:05:31  5-MIN KSTC 050805Z AUTO 32006KT 10SM OVC055 14/13 A3004 920 90 1100 320/06 RMK AO2
14926KSTC STC20050705021010107/05/05 02:10:31  5-MIN KSTC 050810Z AUTO 32007KT 10SM OVC055 14/13 A3004 920 90 1100 320/07 RMK AO2
14926KSTC STC20050705021510107/05/05 02:15:31  5-MIN KSTC 050815Z AUTO 32006KT 10SM OVC060 14/13 A3003 920 90 1100 320/06 RMK AO2
14926KSTC STC20050705022010107/05/05 02:20:31  5-MIN KSTC 050820Z AUTO 32006KT 10SM OVC060 15/13 A3003 920 86 1200 320/06 RMK AO2
14926KSTC STC20050705022510107/05/05 02:25:31  5-MIN KSTC 050825Z AUTO 32006KT 10SM OVC060 15/13 A3004 920 86 1200 310/06 RMK AO2
14926KSTC STC20050705023010107/05/05 02:30:31  5-MIN KSTC 050830Z AUTO 32006KT 10SM OVC055 15/13 A3004 920 90 1200 310/06 RMK AO2
14926KSTC STC20050705023510107/05/05 02:35:31  5-MIN KSTC 050835Z AUTO 32005KT 10SM OVC055 15/13 A3004 920 90 1200 320/05 RMK AO2
14926KSTC STC20050705024010107/05/05 02:40:31  5-MIN KSTC 050840Z AUTO 32005KT 10SM OVC055 15/13 A3004 920 90 1200 320/05 RMK AO2
14926KSTC STC20050705024510107/05/05 02:45:31  5-MIN KSTC 050845Z AUTO 32005KT 10SM OVC055 15/13 A3004 920 90 1200 320/05 RMK AO2
14926KSTC STC20050705025012407/05/05 02:50:31  5-MIN KSTC 050850Z AUTO 31007KT 10SM OVC055 15/13 A3004 920 90 1200 310/07 RMK AO2 SLP177 T01500133 51012
14926KSTC STC20050705025510107/05/05 02:55:31  5-MIN KSTC 050855Z AUTO 31006KT 10SM OVC055 15/13 A3004 910 90 1200 310/06 RMK AO2
14926KSTC STC20050705030010107/05/05 03:00:31  5-MIN KSTC 050900Z AUTO 31005KT 10SM OVC060 15/13 A3005 910 90 1200 300/05 RMK AO2
14926KSTC STC20050705030510107/05/05 03:05:31  5-MIN KSTC 050905Z AUTO 29007KT 10SM OVC055 15/13 A3005 910 90 1200 290/07 RMK AO2
14926KSTC STC20050705031010107/05/05 03:10:31  5-MIN KSTC 050910Z AUTO 30008KT 10SM OVC055 16/13 A3005 900 86 1200 300/08 RMK AO2
14926KSTC STC20050705031510107/05/05 03:15:31  5-MIN KSTC 050915Z AUTO 30006KT 10SM OVC055 15/13 A3005 900 90 1200 300/06 RMK AO2
14926KSTC STC20050705032010107/05/05 03:20:31  5-MIN KSTC 050920Z AUTO 31007KT 10SM OVC055 15/13 A3005 910 90 1200 310/07 RMK AO2
14926KSTC STC20050705032510107/05/05 03:25:31  5-MIN KSTC 050925Z AUTO 32007KT 10SM OVC055 15/13 A3005 910 90 1200 320/07 RMK AO2
14926KSTC STC20050705033010107/05/05 03:30:31  5-MIN KSTC 050930Z AUTO 32006KT 10SM OVC055 15/13 A3005 910 90 1200 320/06 RMK AO2
14926KSTC STC20050705033510107/05/05 03:35:31  5-MIN KSTC 050935Z AUTO 31006KT 10SM OVC055 15/13 A3005 910 90 1200 310/06 RMK AO2
14926KSTC STC20050705034010107/05/05 03:40:31  5-MIN KSTC 050940Z AUTO 31007KT 10SM OVC060 15/13 A3005 910 90 1200 300/07 RMK AO2
14926KSTC STC20050705034510107/05/05 03:45:31  5-MIN KSTC 050945Z AUTO 31007KT 10SM OVC060 15/13 A3005 910 90 1200 310/07 RMK AO2
14926KSTC STC20050705035011807/05/05 03:50:31  5-MIN KSTC 050950Z AUTO 31007KT 10SM OVC060 15/13 A3005 910 90 1200 310/07 RMK AO2 SLP180 T01500133
14926KSTC STC20050705035510107/05/05 03:55:31  5-MIN KSTC 050955Z AUTO 31007KT 10SM OVC060 14/13 A3004 910 93 1100 310/07 RMK AO2
14926KSTC STC20050705040010107/05/05 04:00:31  5-MIN KSTC 051000Z AUTO 31007KT 10SM OVC060 14/13 A3004 910 90 1100 310/07 RMK AO2
14926KSTC STC20050705040510107/05/05 04:05:31  5-MIN KSTC 051005Z AUTO 31007KT 10SM OVC055 14/13 A3005 910 90 1100 310/07 RMK AO2
14926KSTC STC20050705041010107/05/05 04:10:31  5-MIN KSTC 051010Z AUTO 31008KT 10SM OVC055 14/13 A3005 910 90 1100 310/08 RMK AO2
14926KSTC STC20050705041510107/05/05 04:15:31  5-MIN KSTC 051015Z AUTO 31007KT 10SM OVC055 14/13 A3005 910 90 1100 310/07 RMK AO2
14926KSTC STC20050705042010107/05/05 04:20:31  5-MIN KSTC 051020Z AUTO 31007KT 10SM OVC055 14/13 A3005 910 90 1100 310/07 RMK AO2
14926KSTC STC20050705042510107/05/05 04:25:31  5-MIN KSTC 051025Z AUTO 31008KT 10SM OVC055 14/13 A3005 910 93 1000 310/08 RMK AO2
14926KSTC STC20050705043010107/05/05 04:30:31  5-MIN KSTC 051030Z AUTO 31007KT 10SM OVC060 14/13 A3005 900 93 1000 310/07 RMK AO2
14926KSTC STC20050705043510107/05/05 04:35:31  5-MIN KSTC 051035Z AUTO 31008KT 10SM OVC060 14/13 A3005 900 93 1000 310/08 RMK AO2
14926KSTC STC20050705044010107/05/05 04:40:31  5-MIN KSTC 051040Z AUTO 31007KT 10SM OVC060 14/13 A3005 900 93 1000 310/07 RMK AO2
14926KSTC STC20050705044510107/05/05 04:45:31  5-MIN KSTC 051045Z AUTO 31008KT 10SM OVC060 14/13 A3006 900 93 1000 310/08 RMK AO2
14926KSTC STC20050705045011807/05/05 04:50:31  5-MIN KSTC 051050Z AUTO 32008KT 10SM BKN060 14/13 A3006 900 93 1000 320/08 RMK AO2 SLP185 T01390128
14926KSTC STC20050705045510107/05/05 04:55:31  5-MIN KSTC 051055Z AUTO 31008KT 10SM BKN060 14/13 A3006 900 93 1000 310/08 RMK AO2
14926KSTC STC20050705050010107/05/05 05:00:31  5-MIN KSTC 051100Z AUTO 31007KT 10SM SCT060 14/13 A3006 890 93 1000 310/07 RMK AO2
14926KSTC STC20050705050510107/05/05 05:05:31  5-MIN KSTC 051105Z AUTO 30008KT 10SM SCT060 14/13 A3007 890 93 1000 300/08 RMK AO2
14926KSTC STC20050705051010107/05/05 05:10:31  5-MIN KSTC 051110Z AUTO 30007KT 10SM FEW060 14/13 A3007 890 93 1000 300/07 RMK AO2
14926KSTC STC20050705051509807/05/05 05:15:31  5-MIN KSTC 051115Z AUTO 31005KT 10SM CLR 14/13 A3007 880 93 1000 310/05 RMK AO2
14926KSTC STC20050705052009807/05/05 05:20:31  5-MIN KSTC 051120Z AUTO 31006KT 10SM CLR 14/13 A3007 880 93 1000 300/06 RMK AO2
14926KSTC STC20050705052509807/05/05 05:25:31  5-MIN KSTC 051125Z AUTO 32006KT 10SM CLR 14/13 A3007 890 93 1000 320/06 RMK AO2
14926KSTC STC20050705053009807/05/05 05:30:31  5-MIN KSTC 051130Z AUTO 32006KT 10SM CLR 14/13 A3007 890 93 1000 320/06 RMK AO2
14926KSTC STC20050705053509807/05/05 05:35:31  5-MIN KSTC 051135Z AUTO 32006KT 10SM CLR 14/13 A3007 890 93 1000 320/06 RMK AO2
14926KSTC STC20050705054010107/05/05 05:40:31  5-MIN KSTC 051140Z AUTO 31005KT 10SM FEW017 14/13 A3007 880 93 1000 310/05 RMK AO2
14926KSTC STC20050705054510107/05/05 05:45:31  5-MIN KSTC 051145Z AUTO 31007KT 10SM FEW017 14/13 A3008 880 90 1100 310/07 RMK AO2
14926KSTC STC20050705055013607/05/05 05:50:31  5-MIN KSTC 051150Z AUTO 31007KT 10SM FEW017 14/13 A3008 880 90 1100 310/07 RMK AO2 SLP190 T01440128 10156 20139 51000
14926KSTC STC20050705055510107/05/05 05:55:31  5-MIN KSTC 051155Z AUTO 30009KT 10SM SCT017 15/13 A3008 880 86 1100 300/09 RMK AO2
14926KSTC STC20050705060009607/05/05 06:00:31  5-MIN KSTC 051200Z 31010KT 10SM SCT017 15/13 A3008 880 86 1100 300/10 RMK AO2
14926KSTC STC20050705060509607/05/05 06:05:31  5-MIN KSTC 051205Z 31009KT 10SM SCT017 15/13 A3008 880 86 1100 310/09 RMK AO2
14926KSTC STC20050705061009607/05/05 06:10:31  5-MIN KSTC 051210Z 31011KT 10SM FEW017 15/13 A3008 880 86 1100 310/11 RMK AO2
14926KSTC STC20050705061509607/05/05 06:15:31  5-MIN KSTC 051215Z 31011KT 10SM FEW017 15/13 A3008 880 90 1100 310/11 RMK AO2
14926KSTC STC20050705062009607/05/05 06:20:31  5-MIN KSTC 051220Z 31010KT 10SM FEW017 16/13 A3008 880 86 1200 310/10 RMK AO2
14926KSTC STC20050705062509607/05/05 06:25:31  5-MIN KSTC 051225Z 31011KT 10SM FEW017 16/13 A3008 870 86 1200 310/11 RMK AO2
14926KSTC STC20050705063009307/05/05 06:30:31  5-MIN KSTC 051230Z 32010KT 10SM CLR 16/13 A3009 870 83 1200 310/10 RMK AO2
14926KSTC STC20050705063509307/05/05 06:35:31  5-MIN KSTC 051235Z 31010KT 10SM CLR 16/13 A3009 870 83 1200 310/10 RMK AO2
14926KSTC STC20050705064009307/05/05 06:40:31  5-MIN KSTC 051240Z 32009KT 10SM CLR 16/13 A3009 870 83 1200 320/09 RMK AO2
14926KSTC STC20050705064509307/05/05 06:45:31  5-MIN KSTC 051245Z 32010KT 10SM CLR 16/13 A3009 870 83 1200 320/10 RMK AO2
14926KSTC STC20050705065012607/05/05 06:50:31  5-MIN KSTC 051250Z 33009KT 300V360 10SM CLR 16/13 A3009 870 83 1200 320/09 300V360 RMK AO2 SLP194 T01610133
14926KSTC STC20050705065509307/05/05 06:55:31  5-MIN KSTC 051255Z 33010KT 10SM CLR 17/13 A3009 870 80 1300 320/10 RMK AO2
14926KSTC STC20050705070009607/05/05 07:00:31  5-MIN KSTC 051300Z 32010KT 10SM FEW017 16/13 A3009 870 83 1200 320/10 RMK AO2
14926KSTC STC20050705070509607/05/05 07:05:31  5-MIN KSTC 051305Z 32007KT 10SM SCT017 17/13 A3009 870 80 1300 320/07 RMK AO2
14926KSTC STC20050705071009607/05/05 07:10:31  5-MIN KSTC 051310Z 33006KT 10SM BKN017 17/14 A3009 870 83 1300 330/06 RMK AO2
14926KSTC STC20050705071509607/05/05 07:15:31  5-MIN KSTC 051315Z 33007KT 10SM BKN017 17/14 A3009 870 83 1300 320/07 RMK AO2
14926KSTC STC20050705072009607/05/05 07:20:31  5-MIN KSTC 051320Z 32008KT 10SM BKN017 17/14 A3009 870 83 1300 320/08 RMK AO2
14926KSTC STC20050705072509607/05/05 07:25:31  5-MIN KSTC 051325Z 32009KT 10SM OVC017 17/14 A3009 870 83 1300 320/09 RMK AO2
14926KSTC STC20050705073009607/05/05 07:30:31  5-MIN KSTC 051330Z 32008KT 10SM OVC017 17/14 A3009 870 80 1400 320/08 RMK AO2
14926KSTC STC20050705073509607/05/05 07:35:31  5-MIN KSTC 051335Z 34009KT 10SM OVC017 17/14 A3010 860 80 1400 330/09 RMK AO2
14926KSTC STC20050705074009607/05/05 07:40:31  5-MIN KSTC 051340Z 34008KT 10SM OVC017 17/13 A3010 860 78 1400 330/08 RMK AO2
14926KSTC STC20050705074509607/05/05 07:45:31  5-MIN KSTC 051345Z 33008KT 10SM OVC017 17/13 A3010 860 78 1400 330/08 RMK AO2
14926KSTC STC20050705075011307/05/05 07:50:31  5-MIN KSTC 051350Z 34008KT 10SM OVC017 17/14 A3010 860 80 1400 330/08 RMK AO2 SLP198 T01720139
14926KSTC STC20050705075509607/05/05 07:55:31  5-MIN KSTC 051355Z 33007KT 10SM OVC017 17/14 A3010 860 80 1400 330/07 RMK AO2
14926KSTC STC20050705080009607/05/05 08:00:31  5-MIN KSTC 051400Z 32008KT 10SM OVC017 17/14 A3010 860 80 1400 320/08 RMK AO2
14926KSTC STC20050705080509607/05/05 08:05:31  5-MIN KSTC 051405Z 34008KT 10SM OVC017 17/14 A3010 860 80 1400 340/08 RMK AO2
14926KSTC STC20050705081009607/05/05 08:10:31  5-MIN KSTC 051410Z 34008KT 10SM OVC017 18/14 A3010 860 78 1400 340/08 RMK AO2
14926KSTC STC20050705081509607/05/05 08:15:31  5-MIN KSTC 051415Z 35006KT 10SM OVC017 17/14 A3010 860 80 1400 340/06 RMK AO2
14926KSTC STC20050705082010307/05/05 08:20:31  5-MIN KSTC 051420Z 34007KT 10SM BKN014 OVC019 17/14 A3010 860 80 1400 340/07 RMK AO2
14926KSTC STC20050705082509607/05/05 08:25:31  5-MIN KSTC 051425Z 35006KT 10SM OVC016 17/14 A3010 860 80 1400 350/06 RMK AO2
14926KSTC STC20050705083009607/05/05 08:30:31  5-MIN KSTC 051430Z 35006KT 10SM OVC016 18/14 A3010 860 78 1400 350/06 RMK AO2
14926KSTC STC20050705083509607/05/05 08:35:31  5-MIN KSTC 051435Z 35006KT 10SM OVC016 18/14 A3010 860 78 1400 350/06 RMK AO2
14926KSTC STC20050705084009607/05/05 08:40:31  5-MIN KSTC 051440Z 34006KT 10SM OVC016 17/14 A3010 860 80 1400 340/06 RMK AO2
14926KSTC STC20050705084509607/05/05 08:45:31  5-MIN KSTC 051445Z 35004KT 10SM OVC016 18/14 A3010 860 78 1400 350/04 RMK AO2
14926KSTC STC20050705085011907/05/05 08:50:31  5-MIN KSTC 051450Z 35005KT 10SM OVC016 18/14 A3010 860 78 1400 340/05 RMK AO2 SLP201 T01780139 53012
14926KSTC STC20050705085509607/05/05 08:55:31  5-MIN KSTC 051455Z 33004KT 10SM OVC016 18/14 A3011 850 78 1400 320/04 RMK AO2
14926KSTC STC20050705090009607/05/05 09:00:31  5-MIN KSTC 051500Z 33006KT 10SM OVC016 18/14 A3011 850 75 1500 320/06 RMK AO2
14926KSTC STC20050705090510307/05/05 09:05:31  5-MIN KSTC 051505Z 35005KT 10SM BKN016 OVC024 18/14 A3011 850 75 1500 350/05 RMK AO2
14926KSTC STC20050705091011907/05/05 09:10:31  5-MIN KSTC 051510Z 31007KT 280V350 10SM BKN016 OVC024 19/14 A3011 850 72 1500 310/07 280V350 RMK AO2
14926KSTC STC20050705091510307/05/05 09:15:31  5-MIN KSTC 051515Z VRB05KT 10SM BKN017 OVC023 19/14 A3011 850 70 1600 VRB/05 RMK AO2
14926KSTC STC20050705092010307/05/05 09:20:31  5-MIN KSTC 051520Z VRB04KT 10SM BKN019 OVC025 19/14 A3011 850 70 1600 VRB/04 RMK AO2
14926KSTC STC20050705092509607/05/05 09:25:31  5-MIN KSTC 051525Z 34005KT 10SM OVC021 19/14 A3011 850 72 1500 330/05 RMK AO2
14926KSTC STC20050705093009607/05/05 09:30:31  5-MIN KSTC 051530Z VRB05KT 10SM OVC021 19/13 A3011 850 70 1500 VRB/05 RMK AO2
14926KSTC STC20050705093510307/05/05 09:35:31  5-MIN KSTC 051535Z 35007KT 10SM BKN021 OVC025 19/14 A3011 850 70 1600 350/07 RMK AO2
14926KSTC STC20050705094009607/05/05 09:40:31  5-MIN KSTC 051540Z 01004KT 10SM OVC021 19/14 A3011 850 70 1600 360/04 RMK AO2
14926KSTC STC20050705094510307/05/05 09:45:31  5-MIN KSTC 051545Z 34005KT 10SM BKN021 OVC027 19/14 A3011 850 70 1600 330/05 RMK AO2
14926KSTC STC20050705095012007/05/05 09:50:31  5-MIN KSTC 051550Z 34006KT 10SM BKN021 OVC027 19/14 A3011 850 70 1600 340/06 RMK AO2 SLP202 T01940139
14926KSTC STC20050705095510307/05/05 09:55:31  5-MIN KSTC 051555Z 32007KT 10SM SCT021 OVC028 19/14 A3011 850 72 1500 320/07 RMK AO2
14926KSTC STC20050705100010307/05/05 10:00:31  5-MIN KSTC 051600Z 34006KT 10SM FEW019 BKN028 20/14 A3011 850 70 1700 330/06 RMK AO2
14926KSTC STC20050705100510307/05/05 10:05:31  5-MIN KSTC 051605Z 34006KT 10SM FEW019 BKN026 21/14 A3011 850 67 1700 330/06 RMK AO2
14926KSTC STC20050705101011007/05/05 10:10:31  5-MIN KSTC 051610Z 36006KT 10SM SCT019 BKN026 OVC036 20/14 A3011 850 67 1700 350/06 RMK AO2
14926KSTC STC20050705101511007/05/05 10:15:31  5-MIN KSTC 051615Z 35005KT 10SM FEW019 SCT023 OVC033 21/14 A3011 850 67 1700 350/05 RMK AO2
14926KSTC STC20050705102010307/05/05 10:20:31  5-MIN KSTC 051620Z 36007KT 10SM FEW019 OVC033 21/14 A3011 850 67 1700 360/07 RMK AO2
14926KSTC STC20050705102510307/05/05 10:25:31  5-MIN KSTC 051625Z 33007KT 10SM SCT019 BKN035 21/14 A3011 850 67 1700 330/07 RMK AO2
14926KSTC STC20050705103011007/05/05 10:30:31  5-MIN KSTC 051630Z 36005KT 10SM SCT019 SCT028 OVC035 20/14 A3011 850 70 1700 350/05 RMK AO2
14926KSTC STC20050705103511007/05/05 10:35:31  5-MIN KSTC 051635Z VRB04KT 10SM FEW019 SCT028 BKN035 20/14 A3011 850 67 1700 VRB/04 RMK AO2
14926KSTC STC20050705104011007/05/05 10:40:31  5-MIN KSTC 051640Z 32007KT 10SM FEW021 SCT028 BKN035 21/14 A3011 850 65 1800 320/07 RMK AO2
14926KSTC STC20050705104512607/05/05 10:45:31  5-MIN KSTC 051645Z 32009KT 290V020 10SM SCT021 SCT028 BKN035 21/14 A3011 850 67 1700 320/09 290V020 RMK AO2
14926KSTC STC20050705105012007/05/05 10:50:31  5-MIN KSTC 051650Z 33007KT 10SM FEW021 BKN035 21/14 A3011 850 67 1700 330/07 RMK AO2 SLP203 T02060144
14926KSTC STC20050705105510307/05/05 10:55:31  5-MIN KSTC 051655Z 31005KT 10SM FEW021 BKN033 20/14 A3011 850 67 1700 310/05 RMK AO2
14926KSTC STC20050705110010307/05/05 11:00:31  5-MIN KSTC 051700Z 33006KT 10SM SCT021 BKN033 21/14 A3012 850 67 1700 330/06 RMK AO2
14926KSTC STC20050705110511007/05/05 11:05:31  5-MIN KSTC 051705Z 35004KT 10SM SCT021 BKN036 OVC065 21/14 A3011 850 67 1700 350/04 RMK AO2
14926KSTC STC20050705111011007/05/05 11:10:31  5-MIN KSTC 051710Z 36006KT 10SM FEW023 BKN036 OVC065 21/14 A3011 850 67 1700 360/06 RMK AO2
14926KSTC STC20050705111511007/05/05 11:15:31  5-MIN KSTC 051715Z VRB03KT 10SM FEW023 BKN032 OVC039 21/14 A3011 850 65 1700 VRB/03 RMK AO2
14926KSTC STC20050705112011007/05/05 11:20:31  5-MIN KSTC 051720Z 01003KT 10SM FEW023 BKN031 OVC039 21/14 A3011 850 65 1700 360/03 RMK AO2
14926KSTC STC20050705112511007/05/05 11:25:31  5-MIN KSTC 051725Z 02007KT 10SM FEW023 SCT029 OVC037 21/14 A3012 850 65 1700 020/07 RMK AO2
14926KSTC STC20050705113010307/05/05 11:30:31  5-MIN KSTC 051730Z 02003KT 10SM FEW029 OVC037 21/14 A3012 840 65 1700 020/03 RMK AO2
14926KSTC STC20050705113511007/05/05 11:35:31  5-MIN KSTC 051735Z 09006KT 10SM FEW029 BKN039 OVC065 21/14 A3012 840 67 1700 090/06 RMK AO2
14926KSTC STC20050705114011007/05/05 11:40:31  5-MIN KSTC 051740Z 09005KT 10SM SCT029 BKN039 OVC065 20/15 A3012 840 72 1700 080/05 RMK AO2
14926KSTC STC20050705114511007/05/05 11:45:31  5-MIN KSTC 051745Z 09007KT 10SM FEW026 BKN041 OVC065 21/15 A3012 840 70 1700 090/07 RMK AO2
14926KSTC STC20050705115014507/05/05 11:50:31  5-MIN KSTC 051750Z 08006KT 10SM FEW030 BKN039 OVC065 21/15 A3012 840 70 1700 080/06 RMK AO2 SLP207 T02060150 10211 20144 51010
14926KSTC STC20050705115511007/05/05 11:55:31  5-MIN KSTC 051755Z 06007KT 10SM FEW031 BKN039 OVC065 21/15 A3012 840 70 1700 050/07 RMK AO2
14926KSTC STC20050705120011007/05/05 12:00:31  5-MIN KSTC 051800Z 08004KT 10SM FEW031 BKN039 OVC060 21/15 A3012 840 70 1700 080/04 RMK AO2
14926KSTC STC20050705120511007/05/05 12:05:31  5-MIN KSTC 051805Z VRB03KT 10SM FEW034 BKN041 OVC060 21/15 A3012 840 70 1700 VRB/03 RMK AO2
14926KSTC STC20050705121011007/05/05 12:10:31  5-MIN KSTC 051810Z VRB04KT 10SM BKN041 BKN060 OVC080 21/15 A3012 840 68 1800 VRB/04 RMK AO2
14926KSTC STC20050705121512607/05/05 12:15:31  5-MIN KSTC 051815Z 03007KT 360V060 10SM FEW021 BKN041 OVC080 22/16 A3012 840 68 1800 030/07 360V060 RMK AO2
14926KSTC STC20050705122011007/05/05 12:20:31  5-MIN KSTC 051820Z 05006KT 10SM SCT021 BKN043 OVC080 21/15 A3012 840 70 1700 050/06 RMK AO2
14926KSTC STC20050705122511007/05/05 12:25:31  5-MIN KSTC 051825Z 07003KT 10SM SCT021 SCT028 BKN043 21/15 A3012 840 70 1700 070/03 RMK AO2
14926KSTC STC20050705123011007/05/05 12:30:31  5-MIN KSTC 051830Z VRB03KT 10SM FEW021 SCT043 BKN080 21/15 A3012 840 68 1800 VRB/03 RMK AO2
14926KSTC STC20050705123511007/05/05 12:35:31  5-MIN KSTC 051835Z 01004KT 10SM FEW021 SCT041 BKN080 22/16 A3012 840 65 1900 010/04 RMK AO2
14926KSTC STC20050705124011007/05/05 12:40:31  5-MIN KSTC 051840Z VRB05KT 10SM FEW021 SCT032 BKN075 22/15 A3012 850 63 1900 VRB/05 RMK AO2
14926KSTC STC20050705124511007/05/05 12:45:31  5-MIN KSTC 051845Z VRB04KT 10SM FEW021 SCT030 BKN070 22/15 A3011 850 63 1900 VRB/04 RMK AO2
14926KSTC STC20050705125012707/05/05 12:50:31  5-MIN KSTC 051850Z 00000KT 10SM FEW026 SCT032 BKN065 22/14 A3011 850 63 1900 000/00 RMK AO2 SLP204 T02170144
14926KSTC STC20050705125511007/05/05 12:55:31  5-MIN KSTC 051855Z VRB04KT 10SM SCT028 BKN038 BKN065 22/14 A3011 850 61 1900 VRB/04 RMK AO2
14926KSTC STC20050705130011007/05/05 13:00:31  5-MIN KSTC 051900Z VRB03KT 10SM SCT028 BKN036 OVC075 22/14 A3011 850 61 1900 VRB/03 RMK AO2
14926KSTC STC20050705130511007/05/05 13:05:31  5-MIN KSTC 051905Z 07003KT 10SM SCT028 BKN036 BKN043 22/14 A3011 850 61 1900 070/03 RMK AO2
14926KSTC STC20050705215011807/05/05 21:50:31  5-MIN KSTC 060350Z AUTO 11003KT 10SM FEW065 17/13 A3012 840 80 1300 100/03 RMK AO2 SLP205 T01670133
14926KSTC STC20050705215510107/05/05 21:55:31  5-MIN KSTC 060355Z AUTO 10003KT 10SM FEW065 17/13 A3012 840 80 1300 100/03 RMK AO2
14926KSTC STC20050705220010107/05/05 22:00:31  5-MIN KSTC 060400Z AUTO 10003KT 10SM FEW070 17/13 A3012 840 80 1300 100/03 RMK AO2
14926KSTC STC20050705220509807/05/05 22:05:31  5-MIN KSTC 060405Z AUTO 11004KT 10SM CLR 16/13 A3012 840 83 1200 110/04 RMK AO2
14926KSTC STC20050705221010107/05/05 22:10:31  5-MIN KSTC 060410Z AUTO 12004KT 10SM FEW055 16/13 A3012 840 83 1200 120/04 RMK AO2
14926KSTC STC20050705221510807/05/05 22:15:31  5-MIN KSTC 060415Z AUTO 12004KT 10SM FEW055 SCT075 16/13 A3012 840 83 1200 120/04 RMK AO2
14926KSTC STC20050705222010807/05/05 22:20:31  5-MIN KSTC 060420Z AUTO 11003KT 10SM FEW055 BKN075 16/13 A3012 840 83 1200 100/03 RMK AO2
14926KSTC STC20050705222510807/05/05 22:25:31  5-MIN KSTC 060425Z AUTO 12003KT 10SM FEW055 BKN075 16/13 A3012 840 83 1200 110/03 RMK AO2
14926KSTC STC20050705223010807/05/05 22:30:31  5-MIN KSTC 060430Z AUTO 09003KT 10SM FEW055 BKN075 16/13 A3012 840 83 1200 090/03 RMK AO2
14926KSTC STC20050705223510807/05/05 22:35:31  5-MIN KSTC 060435Z AUTO 09003KT 10SM FEW055 BKN075 16/13 A3012 840 83 1200 090/03 RMK AO2
14926KSTC STC20050705224010107/05/05 22:40:31  5-MIN KSTC 060440Z AUTO 00000KT 10SM BKN075 16/13 A3012 840 83 1200 000/00 RMK AO2
14926KSTC STC20050705224510107/05/05 22:45:31  5-MIN KSTC 060445Z AUTO 00000KT 10SM BKN070 16/13 A3012 840 83 1200 000/00 RMK AO2
14926KSTC STC20050705225011807/05/05 22:50:31  5-MIN KSTC 060450Z AUTO 09004KT 10SM BKN070 16/13 A3012 850 83 1200 090/04 RMK AO2 SLP205 T01610133
14926KSTC STC20050705225510107/05/05 22:55:31  5-MIN KSTC 060455Z AUTO 08004KT 10SM BKN070 16/13 A3012 850 86 1100 080/04 RMK AO2
14926KSTC STC20050705230010107/05/05 23:00:31  5-MIN KSTC 060500Z AUTO 08003KT 10SM FEW065 16/13 A3011 850 86 1200 080/03 RMK AO2
14926KSTC STC20050705230510107/05/05 23:05:31  5-MIN KSTC 060505Z AUTO 08003KT 10SM SCT070 16/13 A3012 850 86 1100 070/03 RMK AO2
14926KSTC STC20050705231010107/05/05 23:10:31  5-MIN KSTC 060510Z AUTO 09004KT 10SM SCT070 16/13 A3012 850 86 1100 080/04 RMK AO2
14926KSTC STC20050705231510107/05/05 23:15:31  5-MIN KSTC 060515Z AUTO 09004KT 10SM FEW070 16/13 A3012 850 86 1100 090/04 RMK AO2
14926KSTC STC20050705232010107/05/05 23:20:31  5-MIN KSTC 060520Z AUTO 09004KT 10SM FEW070 16/13 A3012 850 86 1100 090/04 RMK AO2
14926KSTC STC20050705232510107/05/05 23:25:31  5-MIN KSTC 060525Z AUTO 10004KT 10SM FEW070 16/13 A3012 840 86 1100 090/04 RMK AO2
14926KSTC STC20050705233010107/05/05 23:30:31  5-MIN KSTC 060530Z AUTO 10003KT 10SM FEW070 16/13 A3012 840 86 1100 100/03 RMK AO2
14926KSTC STC20050705233509807/05/05 23:35:31  5-MIN KSTC 060535Z AUTO 09004KT 10SM CLR 16/13 A3012 840 83 1100 080/04 RMK AO2
14926KSTC STC20050705234009807/05/05 23:40:31  5-MIN KSTC 060540Z AUTO 00000KT 10SM CLR 15/13 A3012 840 86 1100 000/00 RMK AO2
14926KSTC STC20050705234509807/05/05 23:45:31  5-MIN KSTC 060545Z AUTO 08004KT 10SM CLR 15/13 A3012 840 86 1100 070/04 RMK AO2
14926KSTC STC20050705235014307/05/05 23:50:31  5-MIN KSTC 060550Z AUTO 09004KT 10SM CLR 14/13 A3012 840 90 1000 090/04 RMK AO2 SLP207 T01440128 10217 20144 402280139 53005
14926KSTC STC20050705235509807/05/05 23:55:31  5-MIN KSTC 060555Z AUTO 09004KT 10SM CLR 15/13 A3012 840 86 1100 090/04 RMK AO2
14926KSTC STC20050706000009807/06/05 00:00:32  5-MIN KSTC 060600Z AUTO 09004KT 10SM CLR 15/13 A3012 850 86 1100 090/04 RMK AO2
14926KSTC STC20050706000509807/06/05 00:05:31  5-MIN KSTC 060605Z AUTO 09004KT 10SM CLR 15/13 A3012 850 86 1100 090/04 RMK AO2
14926KSTC STC20050706001009807/06/05 00:10:31  5-MIN KSTC 060610Z AUTO 07004KT 10SM CLR 15/13 A3012 850 86 1100 070/04 RMK AO2
14926KSTC STC20050706001509807/06/05 00:15:31  5-MIN KSTC 060615Z AUTO 07004KT 10SM CLR 14/13 A3012 850 90 1000 070/04 RMK AO2
14926KSTC STC20050706002009807/06/05 00:20:31  5-MIN KSTC 060620Z AUTO 07004KT 10SM CLR 14/13 A3012 850 90 1000 070/04 RMK AO2
14926KSTC STC20050706002509807/06/05 00:25:31  5-MIN KSTC 060625Z AUTO 07004KT 10SM CLR 14/13 A3011 850 90 1000 070/04 RMK AO2
14926KSTC STC20050706003009807/06/05 00:30:31  5-MIN KSTC 060630Z AUTO 07003KT 10SM CLR 14/13 A3011 850 90 1000 070/03 RMK AO2
14926KSTC STC20050706003509807/06/05 00:35:31  5-MIN KSTC 060635Z AUTO 08003KT 10SM CLR 14/13 A3012 850 90 1000 080/03 RMK AO2
14926KSTC STC20050706004009807/06/05 00:40:31  5-MIN KSTC 060640Z AUTO 09003KT 10SM CLR 14/13 A3012 850 90 1000 080/03 RMK AO2
14926KSTC STC20050706004509807/06/05 00:45:31  5-MIN KSTC 060645Z AUTO 07004KT 10SM CLR 14/13 A3011 850 90 1000 060/04 RMK AO2
14926KSTC STC20050706005011507/06/05 00:50:31  5-MIN KSTC 060650Z AUTO 08004KT 10SM CLR 14/13 A3011 850 90 1000 080/04 RMK AO2 SLP204 T01440128
14926KSTC STC20050706005509807/06/05 00:55:31  5-MIN KSTC 060655Z AUTO 07004KT 10SM CLR 14/13 A3012 850 93 1000 070/04 RMK AO2
14926KSTC STC20050706010009807/06/05 01:00:31  5-MIN KSTC 060700Z AUTO 07005KT 10SM CLR 14/13 A3012 850 93 1000 070/05 RMK AO2
14926KSTC STC20050706010509807/06/05 01:05:31  5-MIN KSTC 060705Z AUTO 07004KT 10SM CLR 14/13 A3012 840 90 1000 070/04 RMK AO2
14926KSTC STC20050706011009707/06/05 01:10:31  5-MIN KSTC 060710Z AUTO 07004KT 10SM CLR 14/13 A3012 840 93 900 070/04 RMK AO2
14926KSTC STC20050706011509707/06/05 01:15:31  5-MIN KSTC 060715Z AUTO 08004KT 10SM CLR 14/13 A3012 840 93 900 080/04 RMK AO2
14926KSTC STC20050706012009707/06/05 01:20:31  5-MIN KSTC 060720Z AUTO 08004KT 10SM CLR 14/13 A3012 840 93 900 080/04 RMK AO2
14926KSTC STC20050706012509707/06/05 01:25:31  5-MIN KSTC 060725Z AUTO 08004KT 10SM CLR 14/13 A3012 840 93 900 080/04 RMK AO2
14926KSTC STC20050706013009707/06/05 01:30:31  5-MIN KSTC 060730Z AUTO 08004KT 10SM CLR 14/13 A3012 840 93 900 080/04 RMK AO2
14926KSTC STC20050706013509707/06/05 01:35:31  5-MIN KSTC 060735Z AUTO 08004KT 10SM CLR 14/13 A3012 840 93 900 080/04 RMK AO2
14926KSTC STC20050706014009707/06/05 01:40:31  5-MIN KSTC 060740Z AUTO 08004KT 10SM CLR 14/13 A3012 840 93 900 070/04 RMK AO2
14926KSTC STC20050706014509707/06/05 01:45:31  5-MIN KSTC 060745Z AUTO 08005KT 10SM CLR 14/13 A3012 840 93 900 080/05 RMK AO2
14926KSTC STC20050706015011407/06/05 01:50:31  5-MIN KSTC 060750Z AUTO 09005KT 10SM CLR 14/13 A3012 840 93 900 080/05 RMK AO2 SLP207 T01390128
14926KSTC STC20050706015509707/06/05 01:55:31  5-MIN KSTC 060755Z AUTO 08005KT 10SM CLR 14/12 A3012 840 90 900 080/05 RMK AO2
14926KSTC STC20050706020009707/06/05 02:00:31  5-MIN KSTC 060800Z AUTO 08005KT 10SM CLR 14/12 A3012 840 90 900 080/05 RMK AO2
14926KSTC STC20050706020509707/06/05 02:05:31  5-MIN KSTC 060805Z AUTO 09005KT 10SM CLR 14/12 A3012 840 90 900 080/05 RMK AO2
14926KSTC STC20050706021009707/06/05 02:10:31  5-MIN KSTC 060810Z AUTO 09005KT 10SM CLR 14/12 A3012 840 90 900 090/05 RMK AO2
14926KSTC STC20050706021509707/06/05 02:15:31  5-MIN KSTC 060815Z AUTO 08004KT 10SM CLR 14/12 A3012 840 90 900 080/04 RMK AO2
14926KSTC STC20050706022009707/06/05 02:20:31  5-MIN KSTC 060820Z AUTO 08005KT 10SM CLR 13/12 A3012 840 93 900 080/05 RMK AO2
14926KSTC STC20050706022509707/06/05 02:25:31  5-MIN KSTC 060825Z AUTO 08005KT 10SM CLR 13/12 A3012 840 93 900 070/05 RMK AO2
14926KSTC STC20050706023009707/06/05 02:30:31  5-MIN KSTC 060830Z AUTO 09004KT 10SM CLR 13/12 A3012 840 93 900 090/04 RMK AO2
14926KSTC STC20050706023509707/06/05 02:35:31  5-MIN KSTC 060835Z AUTO 08004KT 10SM CLR 13/12 A3012 840 93 900 080/04 RMK AO2
14926KSTC STC20050706024009707/06/05 02:40:31  5-MIN KSTC 060840Z AUTO 08004KT 10SM CLR 13/12 A3012 840 93 900 080/04 RMK AO2
14926KSTC STC20050706024509707/06/05 02:45:31  5-MIN KSTC 060845Z AUTO 08005KT 10SM CLR 13/12 A3012 850 93 900 080/05 RMK AO2
14926KSTC STC20050706025012007/06/05 02:50:31  5-MIN KSTC 060850Z AUTO 08005KT 10SM CLR 13/12 A3012 840 93 900 080/05 RMK AO2 SLP206 T01330122 51004
14926KSTC STC20050706025509707/06/05 02:55:31  5-MIN KSTC 060855Z AUTO 09005KT 10SM CLR 13/12 A3012 850 93 900 090/05 RMK AO2
14926KSTC STC20050706030009707/06/05 03:00:31  5-MIN KSTC 060900Z AUTO 09004KT 10SM CLR 13/12 A3012 850 93 900 080/04 RMK AO2
14926KSTC STC20050706030509707/06/05 03:05:31  5-MIN KSTC 060905Z AUTO 08004KT 10SM CLR 13/12 A3012 840 93 900 080/04 RMK AO2
14926KSTC STC20050706031009707/06/05 03:10:31  5-MIN KSTC 060910Z AUTO 08004KT 10SM CLR 13/12 A3012 850 93 900 080/04 RMK AO2
14926KSTC STC20050706031509707/06/05 03:15:31  5-MIN KSTC 060915Z AUTO 08004KT 10SM CLR 13/12 A3012 850 96 800 080/04 RMK AO2
14926KSTC STC20050706032009707/06/05 03:20:31  5-MIN KSTC 060920Z AUTO 07004KT 10SM CLR 13/12 A3012 850 93 800 070/04 RMK AO2
14926KSTC STC20050706032509707/06/05 03:25:31  5-MIN KSTC 060925Z AUTO 07004KT 10SM CLR 13/12 A3011 850 93 800 060/04 RMK AO2
14926KSTC STC20050706033009707/06/05 03:30:31  5-MIN KSTC 060930Z AUTO 07004KT 10SM CLR 13/12 A3011 850 93 800 070/04 RMK AO2
14926KSTC STC20050706033509707/06/05 03:35:31  5-MIN KSTC 060935Z AUTO 06005KT 10SM CLR 13/12 A3011 850 93 800 060/05 RMK AO2
14926KSTC STC20050706034009707/06/05 03:40:31  5-MIN KSTC 060940Z AUTO 06005KT 10SM CLR 13/12 A3011 850 93 800 060/05 RMK AO2
14926KSTC STC20050706034509707/06/05 03:45:31  5-MIN KSTC 060945Z AUTO 07005KT 10SM CLR 13/12 A3011 850 93 800 060/05 RMK AO2
14926KSTC STC20050706035011407/06/05 03:50:31  5-MIN KSTC 060950Z AUTO 07005KT 10SM CLR 13/12 A3011 850 93 800 070/05 RMK AO2 SLP203 T01280117
14926KSTC STC20050706035509707/06/05 03:55:31  5-MIN KSTC 060955Z AUTO 08005KT 10SM CLR 13/12 A3011 850 93 800 070/05 RMK AO2
14926KSTC STC20050706040009707/06/05 04:00:31  5-MIN KSTC 061000Z AUTO 06005KT 10SM CLR 13/12 A3011 850 93 800 060/05 RMK AO2
14926KSTC STC20050706040509707/06/05 04:05:31  5-MIN KSTC 061005Z AUTO 06004KT 10SM CLR 12/12 A3011 850 96 800 050/04 RMK AO2
14926KSTC STC20050706041009707/06/05 04:10:31  5-MIN KSTC 061010Z AUTO 06004KT 10SM CLR 12/12 A3011 850 96 800 050/04 RMK AO2
14926KSTC STC20050706041509707/06/05 04:15:31  5-MIN KSTC 061015Z AUTO 06004KT 10SM CLR 12/12 A3011 850 96 800 060/04 RMK AO2
14926KSTC STC20050706042009707/06/05 04:20:31  5-MIN KSTC 061020Z AUTO 06005KT 10SM CLR 12/12 A3011 850 96 800 060/05 RMK AO2
14926KSTC STC20050706042509707/06/05 04:25:31  5-MIN KSTC 061025Z AUTO 06006KT 10SM CLR 12/12 A3011 850 96 800 060/06 RMK AO2
14926KSTC STC20050706043009707/06/05 04:30:31  5-MIN KSTC 061030Z AUTO 06004KT 10SM CLR 12/12 A3011 850 96 800 060/04 RMK AO2
14926KSTC STC20050706043509707/06/05 04:35:31  5-MIN KSTC 061035Z AUTO 06003KT 10SM CLR 12/12 A3011 850 96 800 060/03 RMK AO2
14926KSTC STC20050706044009707/06/05 04:40:31  5-MIN KSTC 061040Z AUTO 05004KT 10SM CLR 12/11 A3012 840 93 800 050/04 RMK AO2
14926KSTC STC20050706044509707/06/05 04:45:31  5-MIN KSTC 061045Z AUTO 05004KT 10SM CLR 12/11 A3012 840 93 800 050/04 RMK AO2
14926KSTC STC20050706045011407/06/05 04:50:31  5-MIN KSTC 061050Z AUTO 06004KT 10SM CLR 12/11 A3012 850 93 800 050/04 RMK AO2 SLP206 T01220111
14926KSTC STC20050706045509707/06/05 04:55:31  5-MIN KSTC 061055Z AUTO 05003KT 10SM CLR 12/11 A3012 850 93 800 040/03 RMK AO2
14926KSTC STC20050706050009707/06/05 05:00:31  5-MIN KSTC 061100Z AUTO 04004KT 10SM CLR 12/11 A3012 850 93 800 040/04 RMK AO2
14926KSTC STC20050706050509707/06/05 05:05:31  5-MIN KSTC 061105Z AUTO 05006KT 10SM CLR 12/11 A3011 850 93 800 050/06 RMK AO2
14926KSTC STC20050706051009707/06/05 05:10:31  5-MIN KSTC 061110Z AUTO 06005KT 10SM CLR 12/11 A3011 850 93 800 050/05 RMK AO2
14926KSTC STC20050706051509707/06/05 05:15:31  5-MIN KSTC 061115Z AUTO 07003KT 10SM CLR 12/11 A3012 840 93 800 070/03 RMK AO2
14926KSTC STC20050706052009707/06/05 05:20:31  5-MIN KSTC 061120Z AUTO VRB04KT 10SM CLR 12/11 A3012 850 93 800 VRB/04 RMK AO2
14926KSTC STC20050706052509707/06/05 05:25:31  5-MIN KSTC 061125Z AUTO 09003KT 10SM CLR 13/12 A3012 840 93 800 090/03 RMK AO2
14926KSTC STC20050706053009707/06/05 05:30:31  5-MIN KSTC 061130Z AUTO 10003KT 10SM CLR 13/12 A3012 840 93 800 090/03 RMK AO2
14926KSTC STC20050706053509707/06/05 05:35:31  5-MIN KSTC 061135Z AUTO 10003KT 10SM CLR 13/11 A3012 840 89 800 100/03 RMK AO2
14926KSTC STC20050706054009707/06/05 05:40:31  5-MIN KSTC 061140Z AUTO 10004KT 10SM CLR 13/11 A3013 840 89 800 090/04 RMK AO2
14926KSTC STC20050706054509707/06/05 05:45:31  5-MIN KSTC 061145Z AUTO 09003KT 10SM CLR 13/12 A3013 840 93 800 080/03 RMK AO2
14926KSTC STC20050706055013207/06/05 05:50:31  5-MIN KSTC 061150Z AUTO 10003KT 10SM CLR 13/12 A3013 840 89 900 100/03 RMK AO2 SLP209 T01330117 10150 20122 58000
14926KSTC STC20050706055509707/06/05 05:55:31  5-MIN KSTC 061155Z AUTO 08004KT 10SM CLR 13/12 A3012 840 89 900 080/04 RMK AO2
14926KSTC STC20050706060009207/06/05 06:00:31  5-MIN KSTC 061200Z 08005KT 10SM CLR 13/12 A3012 840 89 900 070/05 RMK AO2
14926KSTC STC20050706060509207/06/05 06:05:31  5-MIN KSTC 061205Z 09004KT 10SM CLR 13/12 A3013 840 89 900 080/04 RMK AO2
14926KSTC STC20050706061009207/06/05 06:10:31  5-MIN KSTC 061210Z 00000KT 10SM CLR 13/12 A3013 830 89 900 000/00 RMK AO2
14926KSTC STC20050706061509207/06/05 06:15:31  5-MIN KSTC 061215Z 11004KT 10SM CLR 13/12 A3014 830 89 900 100/04 RMK AO2
14926KSTC STC20050706062009207/06/05 06:20:31  5-MIN KSTC 061220Z VRB04KT 10SM CLR 13/12 A3014 830 89 900 VRB/04 RMK AO2
14926KSTC STC20050706062509207/06/05 06:25:31  5-MIN KSTC 061225Z 09006KT 10SM CLR 14/12 A3014 830 86 900 090/06 RMK AO2
14926KSTC STC20050706063009207/06/05 06:30:31  5-MIN KSTC 061230Z VRB05KT 10SM CLR 14/12 A3014 830 86 900 VRB/05 RMK AO2
14926KSTC STC20050706063509207/06/05 06:35:31  5-MIN KSTC 061235Z 10005KT 10SM CLR 14/12 A3014 830 86 900 100/05 RMK AO2
14926KSTC STC20050706064009207/06/05 06:40:31  5-MIN KSTC 061240Z 09006KT 10SM CLR 14/12 A3014 820 86 900 090/06 RMK AO2
14926KSTC STC20050706064509207/06/05 06:45:31  5-MIN KSTC 061245Z VRB05KT 10SM CLR 14/12 A3014 820 86 900 VRB/05 RMK AO2
14926KSTC STC20050706065011007/06/05 06:50:31  5-MIN KSTC 061250Z 09006KT 10SM CLR 14/12 A3014 820 83 1000 090/06 RMK AO2 SLP214 T01440117
14926KSTC STC20050706065509307/06/05 06:55:31  5-MIN KSTC 061255Z 10004KT 10SM CLR 14/12 A3014 820 83 1000 090/04 RMK AO2
14926KSTC STC20050706070009307/06/05 07:00:31  5-MIN KSTC 061300Z 11006KT 10SM CLR 14/12 A3014 820 83 1000 100/06 RMK AO2
14926KSTC STC20050706070509307/06/05 07:05:31  5-MIN KSTC 061305Z 11007KT 10SM CLR 15/12 A3015 820 80 1000 100/07 RMK AO2
14926KSTC STC20050706071009307/06/05 07:10:31  5-MIN KSTC 061310Z 10006KT 10SM CLR 15/12 A3015 820 80 1000 090/06 RMK AO2
14926KSTC STC20050706071509307/06/05 07:15:31  5-MIN KSTC 061315Z 10006KT 10SM CLR 15/12 A3015 810 80 1000 100/06 RMK AO2
14926KSTC STC20050706072009307/06/05 07:20:31  5-MIN KSTC 061320Z 10005KT 10SM CLR 16/12 A3015 810 77 1100 090/05 RMK AO2
14926KSTC STC20050706072509307/06/05 07:25:31  5-MIN KSTC 061325Z 13006KT 10SM CLR 16/12 A3015 810 77 1100 130/06 RMK AO2
14926KSTC STC20050706073009307/06/05 07:30:31  5-MIN KSTC 061330Z 10005KT 10SM CLR 16/12 A3016 810 77 1100 090/05 RMK AO2
14926KSTC STC20050706073509307/06/05 07:35:31  5-MIN KSTC 061335Z VRB05KT 10SM CLR 16/12 A3016 810 77 1100 VRB/05 RMK AO2
14926KSTC STC20050706074009307/06/05 07:40:31  5-MIN KSTC 061340Z 10005KT 10SM CLR 16/12 A3015 810 77 1200 090/05 RMK AO2
14926KSTC STC20050706074509307/06/05 07:45:31  5-MIN KSTC 061345Z 10004KT 10SM CLR 16/12 A3016 810 77 1200 100/04 RMK AO2
14926KSTC STC20050706075011007/06/05 07:50:31  5-MIN KSTC 061350Z VRB06KT 10SM CLR 16/12 A3016 810 77 1200 VRB/06 RMK AO2 SLP219 T01610122
14926KSTC STC20050706075509307/06/05 07:55:31  5-MIN KSTC 061355Z 10006KT 10SM CLR 16/12 A3015 810 77 1200 100/06 RMK AO2
14926KSTC STC20050706080009307/06/05 08:00:31  5-MIN KSTC 061400Z 11006KT 10SM CLR 17/12 A3015 810 75 1200 110/06 RMK AO2
14926KSTC STC20050706080509307/06/05 08:05:31  5-MIN KSTC 061405Z 14007KT 10SM CLR 17/12 A3015 810 75 1200 130/07 RMK AO2
14926KSTC STC20050706081009307/06/05 08:10:31  5-MIN KSTC 061410Z VRB05KT 10SM CLR 17/12 A3015 810 75 1200 VRB/05 RMK AO2
14926KSTC STC20050706081509307/06/05 08:15:31  5-MIN KSTC 061415Z 14005KT 10SM CLR 17/12 A3015 810 72 1300 140/05 RMK AO2
14926KSTC STC20050706082009307/06/05 08:20:31  5-MIN KSTC 061420Z 16005KT 10SM CLR 17/12 A3015 810 72 1300 150/05 RMK AO2
14926KSTC STC20050706082509307/06/05 08:25:31  5-MIN KSTC 061425Z VRB04KT 10SM CLR 18/12 A3015 820 69 1400 VRB/04 RMK AO2
14926KSTC STC20050706083009307/06/05 08:30:31  5-MIN KSTC 061430Z 11005KT 10SM CLR 18/12 A3015 820 69 1400 110/05 RMK AO2
14926KSTC STC20050706083509307/06/05 08:35:31  5-MIN KSTC 061435Z 16005KT 10SM CLR 18/12 A3015 810 69 1400 160/05 RMK AO2
14926KSTC STC20050706084009307/06/05 08:40:31  5-MIN KSTC 061440Z VRB04KT 10SM CLR 18/13 A3015 820 72 1400 VRB/04 RMK AO2
14926KSTC STC20050706084509307/06/05 08:45:31  5-MIN KSTC 061445Z 06006KT 10SM CLR 18/13 A3015 820 70 1400 050/06 RMK AO2
14926KSTC STC20050706085011607/06/05 08:50:31  5-MIN KSTC 061450Z VRB03KT 10SM CLR 18/13 A3015 820 70 1400 VRB/03 RMK AO2 SLP216 T01830128 53003
14926KSTC STC20050706085509307/06/05 08:55:31  5-MIN KSTC 061455Z VRB04KT 10SM CLR 18/13 A3015 820 70 1400 VRB/04 RMK AO2
14926KSTC STC20050706090009307/06/05 09:00:31  5-MIN KSTC 061500Z VRB04KT 10SM CLR 19/13 A3015 820 67 1500 VRB/04 RMK AO2
14926KSTC STC20050706090509307/06/05 09:05:31  5-MIN KSTC 061505Z VRB05KT 10SM CLR 19/13 A3015 820 67 1500 VRB/05 RMK AO2
14926KSTC STC20050706091009307/06/05 09:10:31  5-MIN KSTC 061510Z VRB04KT 10SM CLR 18/13 A3014 820 70 1400 VRB/04 RMK AO2
14926KSTC STC20050706091509307/06/05 09:15:31  5-MIN KSTC 061515Z VRB04KT 10SM CLR 19/13 A3015 820 67 1500 VRB/04 RMK AO2
14926KSTC STC20050706092009307/06/05 09:20:31  5-MIN KSTC 061520Z VRB03KT 10SM CLR 19/13 A3015 820 67 1500 VRB/03 RMK AO2
14926KSTC STC20050706092509307/06/05 09:25:31  5-MIN KSTC 061525Z 11004KT 10SM CLR 19/13 A3015 820 67 1600 100/04 RMK AO2
14926KSTC STC20050706093009307/06/05 09:30:31  5-MIN KSTC 061530Z 15006KT 10SM CLR 19/13 A3015 820 67 1500 150/06 RMK AO2
14926KSTC STC20050706093509307/06/05 09:35:31  5-MIN KSTC 061535Z VRB04KT 10SM CLR 19/13 A3015 820 65 1600 VRB/04 RMK AO2
14926KSTC STC20050706094009307/06/05 09:40:31  5-MIN KSTC 061540Z VRB05KT 10SM CLR 20/13 A3014 820 65 1600 VRB/05 RMK AO2
14926KSTC STC20050706094509307/06/05 09:45:31  5-MIN KSTC 061545Z VRB03KT 10SM CLR 19/13 A3014 820 67 1600 VRB/03 RMK AO2
14926KSTC STC20050706095011007/06/05 09:50:31  5-MIN KSTC 061550Z 17004KT 10SM CLR 19/13 A3014 820 67 1600 170/04 RMK AO2 SLP213 T01940133
14926KSTC STC20050706095509307/06/05 09:55:31  5-MIN KSTC 061555Z 16005KT 10SM CLR 20/13 A3014 820 65 1600 160/05 RMK AO2
14926KSTC STC20050706100009307/06/05 10:00:31  5-MIN KSTC 061600Z 18004KT 10SM CLR 19/13 A3014 820 65 1600 180/04 RMK AO2
14926KSTC STC20050706100509307/06/05 10:05:31  5-MIN KSTC 061605Z 10006KT 10SM CLR 20/13 A3014 820 65 1600 100/06 RMK AO2
14926KSTC STC20050706101009307/06/05 10:10:31  5-MIN KSTC 061610Z 00000KT 10SM CLR 20/13 A3014 820 63 1600 000/00 RMK AO2
14926KSTC STC20050706101509607/06/05 10:15:31  5-MIN KSTC 061615Z 09004KT 10SM FEW024 21/13 A3014 820 63 1700 090/04 RMK AO2
14926KSTC STC20050706102009607/06/05 10:20:31  5-MIN KSTC 061620Z VRB03KT 10SM FEW024 21/13 A3014 830 63 1700 VRB/03 RMK AO2
14926KSTC STC20050706102509307/06/05 10:25:31  5-MIN KSTC 061625Z VRB05KT 10SM CLR 21/13 A3014 830 61 1800 VRB/05 RMK AO2
14926KSTC STC20050706103009307/06/05 10:30:31  5-MIN KSTC 061630Z VRB04KT 10SM CLR 21/13 A3014 830 61 1800 VRB/04 RMK AO2
14926KSTC STC20050706103509307/06/05 10:35:31  5-MIN KSTC 061635Z 11005KT 10SM CLR 22/14 A3013 830 61 1800 110/05 RMK AO2
14926KSTC STC20050706104009307/06/05 10:40:31  5-MIN KSTC 061640Z VRB03KT 10SM CLR 21/13 A3013 830 61 1800 VRB/03 RMK AO2
14926KSTC STC20050706104509307/06/05 10:45:31  5-MIN KSTC 061645Z 08005KT 10SM CLR 22/13 A3013 830 58 1800 080/05 RMK AO2
14926KSTC STC20050706105011007/06/05 10:50:31  5-MIN KSTC 061650Z 06005KT 10SM CLR 22/13 A3013 830 56 1800 050/05 RMK AO2 SLP210 T02170128
14926KSTC STC20050706105509307/06/05 10:55:31  5-MIN KSTC 061655Z VRB04KT 10SM CLR 22/13 A3013 830 58 1800 VRB/04 RMK AO2
14926KSTC STC20050706110009307/06/05 11:00:31  5-MIN KSTC 061700Z 10005KT 10SM CLR 22/13 A3013 830 58 1800 100/05 RMK AO2
14926KSTC STC20050706110509307/06/05 11:05:31  5-MIN KSTC 061705Z 00000KT 10SM CLR 22/13 A3013 830 56 1800 000/00 RMK AO2
14926KSTC STC20050706111009307/06/05 11:10:31  5-MIN KSTC 061710Z VRB05KT 10SM CLR 22/13 A3013 830 56 1900 VRB/05 RMK AO2
14926KSTC STC20050706111509307/06/05 11:15:31  5-MIN KSTC 061715Z 18005KT 10SM CLR 22/14 A3013 830 59 1900 180/05 RMK AO2
14926KSTC STC20050706112009607/06/05 11:20:31  5-MIN KSTC 061720Z VRB05KT 10SM FEW030 22/13 A3013 830 56 1900 VRB/05 RMK AO2
14926KSTC STC20050706112509607/06/05 11:25:31  5-MIN KSTC 061725Z VRB03KT 10SM FEW030 23/13 A3013 840 55 2000 VRB/03 RMK AO2
14926KSTC STC20050706113009607/06/05 11:30:31  5-MIN KSTC 061730Z 10006KT 10SM FEW030 22/13 A3013 840 56 1900 100/06 RMK AO2
14926KSTC STC20050706113509607/06/05 11:35:31  5-MIN KSTC 061735Z VRB05KT 10SM FEW030 23/14 A3012 840 57 2000 VRB/05 RMK AO2
14926KSTC STC20050706114009607/06/05 11:40:31  5-MIN KSTC 061740Z VRB03KT 10SM FEW030 22/13 A3012 840 56 1900 VRB/03 RMK AO2
14926KSTC STC20050706114509607/06/05 11:45:31  5-MIN KSTC 061745Z 11004KT 10SM FEW030 22/13 A3012 840 56 1900 100/04 RMK AO2
14926KSTC STC20050706115013107/06/05 11:50:31  5-MIN KSTC 061750Z VRB03KT 10SM SCT030 22/13 A3012 840 58 1900 VRB/03 RMK AO2 SLP206 T02170133 10228 20133 50007
14926KSTC STC20050706115509607/06/05 11:55:31  5-MIN KSTC 061755Z 11006KT 10SM SCT030 23/14 A3012 840 57 2000 110/06 RMK AO2
14926KSTC STC20050706120009607/06/05 12:00:31  5-MIN KSTC 061800Z 04003KT 10SM FEW030 23/14 A3012 850 57 2000 030/03 RMK AO2
14926KSTC STC20050706120509607/06/05 12:05:31  5-MIN KSTC 061805Z 12005KT 10SM SCT032 22/13 A3011 850 56 1900 120/05 RMK AO2
14926KSTC STC20050706121009607/06/05 12:10:31  5-MIN KSTC 061810Z VRB05KT 10SM SCT032 23/13 A3011 850 55 2000 VRB/05 RMK AO2
14926KSTC STC20050706121509607/06/05 12:15:31  5-MIN KSTC 061815Z 09005KT 10SM SCT032 23/13 A3011 850 53 2100 080/05 RMK AO2
14926KSTC STC20050706122009607/06/05 12:20:31  5-MIN KSTC 061820Z 16006KT 10SM FEW032 23/13 A3011 850 53 2000 160/06 RMK AO2
14926KSTC STC20050706122509607/06/05 12:25:31  5-MIN KSTC 061825Z VRB05KT 10SM FEW034 23/13 A3011 850 53 2100 VRB/05 RMK AO2
14926KSTC STC20050706123009607/06/05 12:30:31  5-MIN KSTC 061830Z 09006KT 10SM FEW034 23/13 A3011 850 53 2100 090/06 RMK AO2
14926KSTC STC20050706123509307/06/05 12:35:31  5-MIN KSTC 061835Z 15004KT 10SM CLR 22/13 A3011 850 54 1900 140/04 RMK AO2
14926KSTC STC20050706124009307/06/05 12:40:31  5-MIN KSTC 061840Z VRB05KT 10SM CLR 23/13 A3011 850 53 2100 VRB/05 RMK AO2
14926KSTC STC20050706124509307/06/05 12:45:31  5-MIN KSTC 061845Z VRB06KT 10SM CLR 23/13 A3010 860 53 2100 VRB/06 RMK AO2
14926KSTC STC20050706125011007/06/05 12:50:31  5-MIN KSTC 061850Z 14008KT 10SM CLR 24/13 A3010 860 51 2100 140/08 RMK AO2 SLP199 T02390133
14926KSTC STC20050706125509307/06/05 12:55:31  5-MIN KSTC 061855Z 09007KT 10SM CLR 23/13 A3010 860 51 2100 090/07 RMK AO2
14926KSTC STC20050706130009307/06/05 13:00:31  5-MIN KSTC 061900Z VRB05KT 10SM CLR 24/13 A3010 860 51 2100 VRB/05 RMK AO2
14926KSTC STC20050706130509307/06/05 13:05:31  5-MIN KSTC 061905Z VRB06KT 10SM CLR 23/13 A3010 860 53 2000 VRB/06 RMK AO2
14926KSTC STC20050706131011207/06/05 13:10:31  5-MIN KSTC 061910Z 09007KT 050V140 10SM FEW039 23/13 A3010 860 55 2000 090/07 050V140 RMK AO2
14926KSTC STC20050706131509607/06/05 13:15:31  5-MIN KSTC 061915Z 05008KT 10SM FEW039 24/13 A3009 870 49 2200 040/08 RMK AO2
14926KSTC STC20050706132009607/06/05 13:20:31  5-MIN KSTC 061920Z 05006KT 10SM SCT039 24/13 A3009 870 51 2100 050/06 RMK AO2
14926KSTC STC20050706132509607/06/05 13:25:31  5-MIN KSTC 061925Z 10008KT 10SM BKN039 24/13 A3009 870 51 2100 100/08 RMK AO2
14926KSTC STC20050706133009607/06/05 13:30:31  5-MIN KSTC 061930Z VRB05KT 10SM BKN039 24/13 A3009 870 49 2100 VRB/05 RMK AO2
14926KSTC STC20050706133509607/06/05 13:35:31  5-MIN KSTC 061935Z 10006KT 10SM SCT039 24/13 A3009 870 49 2200 100/06 RMK AO2
14926KSTC STC20050706134009607/06/05 13:40:31  5-MIN KSTC 061940Z VRB06KT 10SM SCT039 23/13 A3009 870 51 2100 VRB/06 RMK AO2
14926KSTC STC20050706134509607/06/05 13:45:31  5-MIN KSTC 061945Z 08006KT 10SM FEW039 23/12 A3009 870 49 2100 080/06 RMK AO2
14926KSTC STC20050706135011307/06/05 13:50:31  5-MIN KSTC 061950Z 08005KT 10SM SCT042 24/13 A3009 870 49 2100 080/05 RMK AO2 SLP195 T02390128
14926KSTC STC20050706135509607/06/05 13:55:31  5-MIN KSTC 061955Z VRB05KT 10SM SCT044 24/13 A3009 870 49 2100 VRB/05 RMK AO2
14926KSTC STC20050706140009607/06/05 14:00:31  5-MIN KSTC 062000Z 07005KT 10SM FEW044 24/13 A3009 870 49 2100 070/05 RMK AO2
14926KSTC STC20050706140509607/06/05 14:05:31  5-MIN KSTC 062005Z 08006KT 10SM FEW044 24/13 A3009 870 47 2200 080/06 RMK AO2
14926KSTC STC20050706141009607/06/05 14:10:31  5-MIN KSTC 062010Z 05006KT 10SM SCT044 24/12 A3009 870 47 2100 050/06 RMK AO2
14926KSTC STC20050706141509607/06/05 14:15:31  5-MIN KSTC 062015Z VRB05KT 10SM SCT044 24/13 A3009 870 47 2200 VRB/05 RMK AO2
14926KSTC STC20050706142009607/06/05 14:20:31  5-MIN KSTC 062020Z 00000KT 10SM FEW044 24/12 A3009 870 46 2200 000/00 RMK AO2
14926KSTC STC20050706142509607/06/05 14:25:31  5-MIN KSTC 062025Z VRB04KT 10SM SCT046 24/12 A3009 870 46 2200 VRB/04 RMK AO2
14926KSTC STC20050706143009607/06/05 14:30:31  5-MIN KSTC 062030Z 09007KT 10SM SCT046 25/13 A3008 870 46 2300 080/07 RMK AO2
14926KSTC STC20050706143509607/06/05 14:35:31  5-MIN KSTC 062035Z 08004KT 10SM SCT046 24/12 A3008 870 46 2200 080/04 RMK AO2
14926KSTC STC20050706144009607/06/05 14:40:31  5-MIN KSTC 062040Z VRB06KT 10SM FEW046 24/12 A3008 880 46 2200 VRB/06 RMK AO2
14926KSTC STC20050706144509607/06/05 14:45:31  5-MIN KSTC 062045Z 12005KT 10SM FEW046 24/12 A3008 880 44 2200 110/05 RMK AO2
14926KSTC STC20050706145011907/06/05 14:50:31  5-MIN KSTC 062050Z 08006KT 10SM SCT046 25/12 A3009 870 44 2300 080/06 RMK AO2 SLP193 T02500122 58009
14926KSTC STC20050706145511207/06/05 14:55:31  5-MIN KSTC 062055Z 14007KT 100V180 10SM FEW048 25/13 A3008 880 46 2300 140/07 100V180 RMK AO2
14926KSTC STC20050706150009607/06/05 15:00:31  5-MIN KSTC 062100Z VRB05KT 10SM FEW048 25/13 A3008 880 46 2300 VRB/05 RMK AO2
14926KSTC STC20050706150509607/06/05 15:05:31  5-MIN KSTC 062105Z 10006KT 10SM FEW048 25/12 A3008 880 44 2300 100/06 RMK AO2
14926KSTC STC20050706151009607/06/05 15:10:31  5-MIN KSTC 062110Z 07005KT 10SM FEW048 25/12 A3008 880 44 2300 060/05 RMK AO2
14926KSTC STC20050706151509607/06/05 15:15:31  5-MIN KSTC 062115Z 13007KT 10SM FEW048 25/12 A3008 880 43 2300 120/07 RMK AO2
14926KSTC STC20050706152009607/06/05 15:20:31  5-MIN KSTC 062120Z 10006KT 10SM FEW048 25/12 A3008 880 44 2300 100/06 RMK AO2
14926KSTC STC20050706152509607/06/05 15:25:31  5-MIN KSTC 062125Z VRB05KT 10SM SCT048 24/12 A3008 880 46 2200 VRB/05 RMK AO2
14926KSTC STC20050706153009607/06/05 15:30:31  5-MIN KSTC 062130Z 11008KT 10SM FEW048 24/12 A3008 880 44 2200 110/08 RMK AO2
14926KSTC STC20050706153509607/06/05 15:35:31  5-MIN KSTC 062135Z VRB05KT 10SM FEW048 25/12 A3008 880 44 2300 VRB/05 RMK AO2
14926KSTC STC20050706154009607/06/05 15:40:31  5-MIN KSTC 062140Z 08008KT 10SM FEW048 25/12 A3008 880 44 2300 080/08 RMK AO2
14926KSTC STC20050706154509607/06/05 15:45:31  5-MIN KSTC 062145Z 07007KT 10SM SCT050 24/12 A3008 880 44 2200 070/07 RMK AO2
14926KSTC STC20050706155011307/06/05 15:50:31  5-MIN KSTC 062150Z 10007KT 10SM SCT050 25/12 A3007 880 44 2300 100/07 RMK AO2 SLP190 T02500122
14926KSTC STC20050706155509607/06/05 15:55:31  5-MIN KSTC 062155Z VRB03KT 10SM FEW050 24/12 A3007 880 44 2200 VRB/03 RMK AO2
14926KSTC STC20050706160009607/06/05 16:00:31  5-MIN KSTC 062200Z VRB04KT 10SM SCT050 25/12 A3008 880 44 2300 VRB/04 RMK AO2
14926KSTC STC20050706160509607/06/05 16:05:31  5-MIN KSTC 062205Z VRB05KT 10SM SCT050 26/13 A3007 890 44 2300 VRB/05 RMK AO2
14926KSTC STC20050706161009607/06/05 16:10:31  5-MIN KSTC 062210Z VRB04KT 10SM SCT050 25/12 A3007 890 44 2300 VRB/04 RMK AO2
14926KSTC STC20050706161509607/06/05 16:15:31  5-MIN KSTC 062215Z 13005KT 10SM BKN050 25/12 A3007 890 44 2300 130/05 RMK AO2
14926KSTC STC20050706162009607/06/05 16:20:31  5-MIN KSTC 062220Z 12006KT 10SM SCT050 25/12 A3007 890 44 2300 120/06 RMK AO2
14926KSTC STC20050706162509607/06/05 16:25:31  5-MIN KSTC 062225Z VRB06KT 10SM BKN050 25/12 A3007 890 44 2300 VRB/06 RMK AO2
14926KSTC STC20050706163009607/06/05 16:30:31  5-MIN KSTC 062230Z 14007KT 10SM BKN050 25/12 A3007 890 44 2300 130/07 RMK AO2
14926KSTC STC20050706163509607/06/05 16:35:31  5-MIN KSTC 062235Z VRB05KT 10SM SCT050 25/12 A3007 890 44 2300 VRB/05 RMK AO2
14926KSTC STC20050706164009607/06/05 16:40:31  5-MIN KSTC 062240Z VRB05KT 10SM SCT050 25/12 A3007 890 44 2300 VRB/05 RMK AO2
14926KSTC STC20050706164509607/06/05 16:45:31  5-MIN KSTC 062245Z 13006KT 10SM FEW050 24/12 A3007 890 46 2200 130/06 RMK AO2
14926KSTC STC20050706165011307/06/05 16:50:31  5-MIN KSTC 062250Z 17008KT 10SM FEW050 24/12 A3006 890 46 2200 170/08 RMK AO2 SLP187 T02440122
14926KSTC STC20050706165509607/06/05 16:55:31  5-MIN KSTC 062255Z 16006KT 10SM FEW055 24/12 A3006 890 44 2200 160/06 RMK AO2
14926KSTC STC20050706170009307/06/05 17:00:31  5-MIN KSTC 062300Z 14006KT 10SM CLR 24/12 A3006 890 46 2200 140/06 RMK AO2
14926KSTC STC20050706170509307/06/05 17:05:31  5-MIN KSTC 062305Z VRB05KT 10SM CLR 25/12 A3006 890 44 2300 VRB/05 RMK AO2
14926KSTC STC20050706171009307/06/05 17:10:31  5-MIN KSTC 062310Z 14006KT 10SM CLR 25/12 A3006 890 44 2300 130/06 RMK AO2
14926KSTC STC20050706171509307/06/05 17:15:31  5-MIN KSTC 062315Z 15005KT 10SM CLR 24/12 A3006 890 46 2200 140/05 RMK AO2
14926KSTC STC20050706172009307/06/05 17:20:31  5-MIN KSTC 062320Z 14006KT 10SM CLR 24/12 A3006 890 46 2200 140/06 RMK AO2
14926KSTC STC20050706172509307/06/05 17:25:31  5-MIN KSTC 062325Z 14007KT 10SM CLR 24/12 A3006 890 47 2200 130/07 RMK AO2
14926KSTC STC20050706173009307/06/05 17:30:31  5-MIN KSTC 062330Z 13004KT 10SM CLR 24/12 A3006 890 47 2200 130/04 RMK AO2
14926KSTC STC20050706173509607/06/05 17:35:31  5-MIN KSTC 062335Z VRB05KT 10SM FEW049 24/12 A3006 890 47 2200 VRB/05 RMK AO2
14926KSTC STC20050706174009607/06/05 17:40:31  5-MIN KSTC 062340Z 12005KT 10SM FEW049 24/12 A3006 890 47 2200 110/05 RMK AO2
14926KSTC STC20050706174509307/06/05 17:45:31  5-MIN KSTC 062345Z 11005KT 10SM CLR 24/13 A3006 900 49 2200 110/05 RMK AO2
14926KSTC STC20050706175012807/06/05 17:50:31  5-MIN KSTC 062350Z 12005KT 10SM CLR 24/13 A3006 900 49 2200 120/05 RMK AO2 SLP186 T02390128 10256 20222 56011
14926KSTC STC20050706175509307/06/05 17:55:31  5-MIN KSTC 062355Z 11005KT 10SM CLR 24/13 A3006 900 49 2200 110/05 RMK AO2
14926KSTC STC20050706180009607/06/05 18:00:31  5-MIN KSTC 070000Z 12005KT 10SM FEW048 24/13 A3006 900 49 2200 120/05 RMK AO2
14926KSTC STC20050706180509307/06/05 18:05:31  5-MIN KSTC 070005Z 11005KT 10SM CLR 24/13 A3006 900 49 2200 110/05 RMK AO2
14926KSTC STC20050706181009307/06/05 18:10:31  5-MIN KSTC 070010Z 11004KT 10SM CLR 24/13 A3006 900 49 2200 110/04 RMK AO2
14926KSTC STC20050706181509307/06/05 18:15:31  5-MIN KSTC 070015Z 12005KT 10SM CLR 24/13 A3006 900 49 2200 120/05 RMK AO2
14926KSTC STC20050706182009307/06/05 18:20:31  5-MIN KSTC 070020Z 12004KT 10SM CLR 24/13 A3006 900 49 2200 110/04 RMK AO2
14926KSTC STC20050706182509307/06/05 18:25:31  5-MIN KSTC 070025Z 12005KT 10SM CLR 24/13 A3006 900 49 2200 120/05 RMK AO2
14926KSTC STC20050706183009307/06/05 18:30:31  5-MIN KSTC 070030Z 12005KT 10SM CLR 24/13 A3006 900 49 2200 120/05 RMK AO2
14926KSTC STC20050706183509307/06/05 18:35:31  5-MIN KSTC 070035Z 11004KT 10SM CLR 24/13 A3006 900 49 2200 110/04 RMK AO2
14926KSTC STC20050706184009307/06/05 18:40:31  5-MIN KSTC 070040Z 11004KT 10SM CLR 24/13 A3006 900 51 2200 110/04 RMK AO2
14926KSTC STC20050706184509307/06/05 18:45:31  5-MIN KSTC 070045Z 12004KT 10SM CLR 24/13 A3006 900 51 2200 120/04 RMK AO2
14926KSTC STC20050706185011007/06/05 18:50:31  5-MIN KSTC 070050Z 12005KT 10SM CLR 24/13 A3006 900 51 2200 120/05 RMK AO2 SLP184 T02390133
14926KSTC STC20050706185509307/06/05 18:55:31  5-MIN KSTC 070055Z 10004KT 10SM CLR 23/13 A3006 900 53 2100 100/04 RMK AO2
14926KSTC STC20050706190009307/06/05 19:00:31  5-MIN KSTC 070100Z 10003KT 10SM CLR 23/14 A3006 900 55 2100 100/03 RMK AO2
14926KSTC STC20050706190509307/06/05 19:05:31  5-MIN KSTC 070105Z 09004KT 10SM CLR 23/14 A3006 900 55 2100 090/04 RMK AO2
14926KSTC STC20050706191009307/06/05 19:10:31  5-MIN KSTC 070110Z 10003KT 10SM CLR 23/14 A3006 900 55 2100 090/03 RMK AO2
14926KSTC STC20050706191509307/06/05 19:15:31  5-MIN KSTC 070115Z 09003KT 10SM CLR 23/14 A3006 900 57 2100 090/03 RMK AO2
14926KSTC STC20050706192009307/06/05 19:20:31  5-MIN KSTC 070120Z 10003KT 10SM CLR 23/14 A3006 900 57 2100 090/03 RMK AO2
14926KSTC STC20050706192509307/06/05 19:25:31  5-MIN KSTC 070125Z 09004KT 10SM CLR 23/14 A3006 900 57 2100 090/04 RMK AO2
14926KSTC STC20050706193009307/06/05 19:30:31  5-MIN KSTC 070130Z 09003KT 10SM CLR 23/14 A3006 900 57 2000 090/03 RMK AO2
14926KSTC STC20050706193509307/06/05 19:35:31  5-MIN KSTC 070135Z 10004KT 10SM CLR 22/14 A3006 900 59 2000 090/04 RMK AO2
14926KSTC STC20050706194009307/06/05 19:40:31  5-MIN KSTC 070140Z 10004KT 10SM CLR 22/14 A3006 900 59 2000 090/04 RMK AO2
14926KSTC STC20050706194509307/06/05 19:45:31  5-MIN KSTC 070145Z 09003KT 10SM CLR 22/14 A3006 900 61 1900 090/03 RMK AO2
14926KSTC STC20050706195011007/06/05 19:50:31  5-MIN KSTC 070150Z 09003KT 10SM CLR 22/14 A3006 900 61 1900 090/03 RMK AO2 SLP184 T02170139
14926KSTC STC20050706195509307/06/05 19:55:31  5-MIN KSTC 070155Z 09003KT 10SM CLR 21/14 A3006 900 63 1900 080/03 RMK AO2
14926KSTC STC20050706200009307/06/05 20:00:31  5-MIN KSTC 070200Z 09004KT 10SM CLR 21/14 A3005 900 65 1900 090/04 RMK AO2
14926KSTC STC20050706200509307/06/05 20:05:31  5-MIN KSTC 070205Z 09003KT 10SM CLR 21/14 A3005 900 67 1800 080/03 RMK AO2
14926KSTC STC20050706201009307/06/05 20:10:31  5-MIN KSTC 070210Z 09004KT 10SM CLR 20/14 A3005 900 70 1700 090/04 RMK AO2
14926KSTC STC20050706201509307/06/05 20:15:31  5-MIN KSTC 070215Z 09004KT 10SM CLR 20/14 A3006 900 70 1700 090/04 RMK AO2
14926KSTC STC20050706202009307/06/05 20:20:31  5-MIN KSTC 070220Z 09004KT 10SM CLR 19/14 A3005 900 70 1700 090/04 RMK AO2
14926KSTC STC20050706202509307/06/05 20:25:31  5-MIN KSTC 070225Z 09005KT 10SM CLR 19/14 A3005 900 70 1700 080/05 RMK AO2
14926KSTC STC20050706203009307/06/05 20:30:31  5-MIN KSTC 070230Z 09005KT 10SM CLR 19/14 A3006 900 70 1700 090/05 RMK AO2
14926KSTC STC20050706203509307/06/05 20:35:31  5-MIN KSTC 070235Z 09005KT 10SM CLR 19/14 A3006 900 70 1700 090/05 RMK AO2
14926KSTC STC20050706204009307/06/05 20:40:31  5-MIN KSTC 070240Z 09005KT 10SM CLR 19/14 A3006 900 72 1600 080/05 RMK AO2
14926KSTC STC20050706204509307/06/05 20:45:31  5-MIN KSTC 070245Z 09004KT 10SM CLR 19/14 A3006 900 72 1600 080/04 RMK AO2
14926KSTC STC20050706205011607/06/05 20:50:31  5-MIN KSTC 070250Z 09005KT 10SM CLR 19/14 A3006 900 72 1600 080/05 RMK AO2 SLP186 T01890139 56007
14926KSTC STC20050706205509307/06/05 20:55:31  5-MIN KSTC 070255Z 09005KT 10SM CLR 19/14 A3006 900 72 1600 090/05 RMK AO2
14926KSTC STC20050706210009307/06/05 21:00:31  5-MIN KSTC 070300Z 08005KT 10SM CLR 19/14 A3006 890 72 1600 080/05 RMK AO2
14926KSTC STC20050706210509307/06/05 21:05:31  5-MIN KSTC 070305Z 08005KT 10SM CLR 18/14 A3006 890 75 1500 080/05 RMK AO2
14926KSTC STC20050706211009307/06/05 21:10:31  5-MIN KSTC 070310Z 09006KT 10SM CLR 18/14 A3006 890 75 1500 090/06 RMK AO2
14926KSTC STC20050706211509307/06/05 21:15:31  5-MIN KSTC 070315Z 09005KT 10SM CLR 19/14 A3007 890 72 1600 080/05 RMK AO2
14926KSTC STC20050706212009307/06/05 21:20:31  5-MIN KSTC 070320Z 09005KT 10SM CLR 19/14 A3007 890 72 1600 080/05 RMK AO2
14926KSTC STC20050706212509307/06/05 21:25:31  5-MIN KSTC 070325Z 08005KT 10SM CLR 18/14 A3007 890 75 1500 070/05 RMK AO2
14926KSTC STC20050706213009307/06/05 21:30:31  5-MIN KSTC 070330Z 08005KT 10SM CLR 18/14 A3007 890 75 1500 080/05 RMK AO2
14926KSTC STC20050706213509307/06/05 21:35:31  5-MIN KSTC 070335Z 08005KT 10SM CLR 18/14 A3007 890 78 1500 070/05 RMK AO2
14926KSTC STC20050706214009307/06/05 21:40:31  5-MIN KSTC 070340Z 08005KT 10SM CLR 18/14 A3007 890 78 1500 070/05 RMK AO2
14926KSTC STC20050706214509307/06/05 21:45:31  5-MIN KSTC 070345Z 07005KT 10SM CLR 18/14 A3007 890 78 1500 070/05 RMK AO2
14926KSTC STC20050706215011007/06/05 21:50:31  5-MIN KSTC 070350Z 08005KT 10SM CLR 18/14 A3007 890 75 1500 080/05 RMK AO2 SLP190 T01830139
14926KSTC STC20050706215509807/06/05 21:55:31  5-MIN KSTC 070355Z AUTO 08005KT 10SM CLR 18/14 A3007 890 78 1500 080/05 RMK AO2
14926KSTC STC20050706220009807/06/05 22:00:31  5-MIN KSTC 070400Z AUTO 08006KT 10SM CLR 18/13 A3007 890 75 1500 080/06 RMK AO2
14926KSTC STC20050706220509807/06/05 22:05:31  5-MIN KSTC 070405Z AUTO 08007KT 10SM CLR 18/13 A3007 890 75 1500 080/07 RMK AO2
14926KSTC STC20050706221009807/06/05 22:10:31  5-MIN KSTC 070410Z AUTO 08006KT 10SM CLR 18/13 A3007 890 75 1500 080/06 RMK AO2
14926KSTC STC20050706221509807/06/05 22:15:31  5-MIN KSTC 070415Z AUTO 10006KT 10SM CLR 18/13 A3007 890 75 1500 090/06 RMK AO2
14926KSTC STC20050706222009807/06/05 22:20:31  5-MIN KSTC 070420Z AUTO 09006KT 10SM CLR 18/13 A3007 890 70 1500 080/06 RMK AO2
14926KSTC STC20050706222509807/06/05 22:25:31  5-MIN KSTC 070425Z AUTO 08006KT 10SM CLR 18/13 A3007 890 70 1500 080/06 RMK AO2
14926KSTC STC20050706223009807/06/05 22:30:31  5-MIN KSTC 070430Z AUTO 09007KT 10SM CLR 18/13 A3007 890 70 1500 090/07 RMK AO2
14926KSTC STC20050706223509807/06/05 22:35:31  5-MIN KSTC 070435Z AUTO 09005KT 10SM CLR 18/13 A3007 890 70 1500 090/05 RMK AO2
14926KSTC STC20050706224009807/06/05 22:40:31  5-MIN KSTC 070440Z AUTO 10005KT 10SM CLR 18/13 A3007 890 70 1500 090/05 RMK AO2
14926KSTC STC20050706224509807/06/05 22:45:31  5-MIN KSTC 070445Z AUTO 10005KT 10SM CLR 18/12 A3007 890 67 1500 100/05 RMK AO2
14926KSTC STC20050706225011507/06/05 22:50:31  5-MIN KSTC 070450Z AUTO 10005KT 10SM CLR 18/12 A3007 890 67 1500 100/05 RMK AO2 SLP188 T01830122
14926KSTC STC20050706225509807/06/05 22:55:31  5-MIN KSTC 070455Z AUTO 10005KT 10SM CLR 18/12 A3007 890 69 1500 100/05 RMK AO2
14926KSTC STC20050706230009807/06/05 23:00:31  5-MIN KSTC 070500Z AUTO 10006KT 10SM CLR 18/12 A3007 890 69 1500 090/06 RMK AO2
14926KSTC STC20050706230509807/06/05 23:05:31  5-MIN KSTC 070505Z AUTO 10005KT 10SM CLR 18/12 A3007 890 69 1500 100/05 RMK AO2
14926KSTC STC20050706231009807/06/05 23:10:31  5-MIN KSTC 070510Z AUTO 10005KT 10SM CLR 18/12 A3007 890 69 1500 100/05 RMK AO2
14926KSTC STC20050706231509807/06/05 23:15:31  5-MIN KSTC 070515Z AUTO 11005KT 10SM CLR 18/12 A3007 890 69 1500 100/05 RMK AO2
14926KSTC STC20050706232009807/06/05 23:20:31  5-MIN KSTC 070520Z AUTO 10005KT 10SM CLR 18/12 A3007 890 67 1500 100/05 RMK AO2
14926KSTC STC20050706232509807/06/05 23:25:31  5-MIN KSTC 070525Z AUTO 10005KT 10SM CLR 18/12 A3007 890 67 1500 100/05 RMK AO2
14926KSTC STC20050706233009807/06/05 23:30:31  5-MIN KSTC 070530Z AUTO 10005KT 10SM CLR 17/12 A3007 890 69 1400 100/05 RMK AO2
14926KSTC STC20050706233509807/06/05 23:35:31  5-MIN KSTC 070535Z AUTO 10005KT 10SM CLR 17/12 A3007 880 69 1400 100/05 RMK AO2
14926KSTC STC20050706234009807/06/05 23:40:31  5-MIN KSTC 070540Z AUTO 10005KT 10SM CLR 17/12 A3007 880 69 1400 100/05 RMK AO2
14926KSTC STC20050706234509807/06/05 23:45:31  5-MIN KSTC 070545Z AUTO 10004KT 10SM CLR 17/12 A3007 880 69 1400 100/04 RMK AO2
14926KSTC STC20050706235014307/06/05 23:50:31  5-MIN KSTC 070550Z AUTO 10006KT 10SM CLR 17/12 A3007 880 69 1400 100/06 RMK AO2 SLP189 T01720117 10244 20172 402560122 55000
14926KSTC STC20050706235509807/06/05 23:55:31  5-MIN KSTC 070555Z AUTO 10005KT 10SM CLR 17/12 A3007 880 69 1400 100/05 RMK AO2
14926KSTC STC20050707000009807/07/05 00:00:32  5-MIN KSTC 070600Z AUTO 10005KT 10SM CLR 17/12 A3008 880 69 1400 100/05 RMK AO2
14926KSTC STC20050707000509807/07/05 00:05:31  5-MIN KSTC 070605Z AUTO 10005KT 10SM CLR 17/12 A3008 880 69 1400 100/05 RMK AO2
14926KSTC STC20050707001009807/07/05 00:10:31  5-MIN KSTC 070610Z AUTO 10005KT 10SM CLR 17/12 A3007 880 69 1400 100/05 RMK AO2
14926KSTC STC20050707001509807/07/05 00:15:31  5-MIN KSTC 070615Z AUTO 10005KT 10SM CLR 17/12 A3007 880 69 1400 090/05 RMK AO2
14926KSTC STC20050707002009807/07/05 00:20:31  5-MIN KSTC 070620Z AUTO 09005KT 10SM CLR 17/12 A3007 880 72 1300 090/05 RMK AO2
14926KSTC STC20050707002509807/07/05 00:25:31  5-MIN KSTC 070625Z AUTO 09005KT 10SM CLR 17/12 A3007 890 72 1300 090/05 RMK AO2
14926KSTC STC20050707003010107/07/05 00:30:31  5-MIN KSTC 070630Z AUTO 10005KT 10SM FEW050 17/12 A3007 880 72 1300 100/05 RMK AO2
14926KSTC STC20050707003510107/07/05 00:35:31  5-MIN KSTC 070635Z AUTO 09005KT 10SM SCT050 17/12 A3007 890 69 1400 090/05 RMK AO2
14926KSTC STC20050707004010107/07/05 00:40:31  5-MIN KSTC 070640Z AUTO 09005KT 10SM SCT050 17/12 A3007 880 72 1300 080/05 RMK AO2
14926KSTC STC20050707004510107/07/05 00:45:31  5-MIN KSTC 070645Z AUTO 09005KT 10SM SCT050 17/12 A3007 880 75 1300 090/05 RMK AO2
14926KSTC STC20050707005011807/07/05 00:50:31  5-MIN KSTC 070650Z AUTO 09004KT 10SM BKN050 17/12 A3007 880 75 1300 090/04 RMK AO2 SLP188 T01670122
14926KSTC STC20050707005510107/07/05 00:55:31  5-MIN KSTC 070655Z AUTO 09005KT 10SM BKN050 17/12 A3008 880 75 1300 080/05 RMK AO2
14926KSTC STC20050707010010807/07/05 01:00:31  5-MIN KSTC 070700Z AUTO 09004KT 10SM BKN050 BKN060 17/12 A3008 880 75 1300 080/04 RMK AO2
14926KSTC STC20050707010510807/07/05 01:05:31  5-MIN KSTC 070705Z AUTO 09006KT 10SM BKN050 BKN060 17/12 A3008 880 72 1300 090/06 RMK AO2
14926KSTC STC20050707011010807/07/05 01:10:31  5-MIN KSTC 070710Z AUTO 08006KT 10SM BKN050 BKN060 17/12 A3007 890 72 1300 080/06 RMK AO2
14926KSTC STC20050707011510107/07/05 01:15:31  5-MIN KSTC 070715Z AUTO 09005KT 10SM BKN048 17/12 A3007 890 72 1300 080/05 RMK AO2
14926KSTC STC20050707012010107/07/05 01:20:31  5-MIN KSTC 070720Z AUTO 08005KT 10SM BKN048 17/12 A3007 890 75 1300 080/05 RMK AO2
14926KSTC STC20050707012510807/07/05 01:25:31  5-MIN KSTC 070725Z AUTO 08005KT 10SM SCT048 BKN060 17/12 A3007 880 75 1300 080/05 RMK AO2
14926KSTC STC20050707013010807/07/05 01:30:31  5-MIN KSTC 070730Z AUTO 08006KT 10SM BKN048 BKN055 17/12 A3007 890 75 1300 080/06 RMK AO2
14926KSTC STC20050707013510107/07/05 01:35:31  5-MIN KSTC 070735Z AUTO 08006KT 10SM BKN048 17/12 A3007 890 75 1300 070/06 RMK AO2
14926KSTC STC20050707014010107/07/05 01:40:31  5-MIN KSTC 070740Z AUTO 08005KT 10SM BKN048 17/12 A3007 890 75 1300 080/05 RMK AO2
14926KSTC STC20050707014510807/07/05 01:45:31  5-MIN KSTC 070745Z AUTO 08005KT 10SM BKN048 OVC060 17/12 A3007 890 75 1300 080/05 RMK AO2
14926KSTC STC20050707015012507/07/05 01:50:31  5-MIN KSTC 070750Z AUTO 09005KT 10SM BKN050 OVC060 17/12 A3008 880 75 1300 090/05 RMK AO2 SLP189 T01670122
14926KSTC STC20050707015510807/07/05 01:55:31  5-MIN KSTC 070755Z AUTO 08005KT 10SM BKN050 OVC060 17/12 A3008 880 75 1300 080/05 RMK AO2
14926KSTC STC20050707020010107/07/05 02:00:31  5-MIN KSTC 070800Z AUTO 09005KT 10SM OVC050 17/12 A3008 880 75 1300 090/05 RMK AO2
14926KSTC STC20050707020510107/07/05 02:05:31  5-MIN KSTC 070805Z AUTO 10004KT 10SM OVC050 17/13 A3008 880 77 1300 090/04 RMK AO2
14926KSTC STC20050707021010107/07/05 02:10:31  5-MIN KSTC 070810Z AUTO 10004KT 10SM OVC055 17/13 A3008 880 77 1300 100/04 RMK AO2
14926KSTC STC20050707021510807/07/05 02:15:31  5-MIN KSTC 070815Z AUTO 09005KT 10SM BKN055 BKN070 17/13 A3008 880 77 1300 090/05 RMK AO2
14926KSTC STC20050707022010107/07/05 02:20:31  5-MIN KSTC 070820Z AUTO 10005KT 10SM BKN050 16/13 A3008 880 80 1300 100/05 RMK AO2
14926KSTC STC20050707022510107/07/05 02:25:31  5-MIN KSTC 070825Z AUTO 09005KT 10SM SCT055 16/13 A3008 880 80 1300 090/05 RMK AO2
14926KSTC STC20050707023010107/07/05 02:30:31  5-MIN KSTC 070830Z AUTO 09004KT 10SM SCT055 16/13 A3007 880 80 1300 090/04 RMK AO2
14926KSTC STC20050707023510107/07/05 02:35:31  5-MIN KSTC 070835Z AUTO 08005KT 10SM SCT060 16/13 A3007 880 80 1300 080/05 RMK AO2
14926KSTC STC20050707024010107/07/05 02:40:31  5-MIN KSTC 070840Z AUTO 09004KT 10SM FEW060 16/13 A3007 890 83 1200 090/04 RMK AO2
14926KSTC STC20050707024510107/07/05 02:45:31  5-MIN KSTC 070845Z AUTO 09005KT 10SM FEW065 16/13 A3007 890 83 1200 080/05 RMK AO2
14926KSTC STC20050707025012407/07/05 02:50:31  5-MIN KSTC 070850Z AUTO 09004KT 10SM FEW065 16/13 A3007 890 83 1200 090/04 RMK AO2 SLP187 T01560128 51004
14926KSTC STC20050707025510107/07/05 02:55:31  5-MIN KSTC 070855Z AUTO 10004KT 10SM FEW060 16/13 A3007 890 83 1200 090/04 RMK AO2
14926KSTC STC20050707030010107/07/05 03:00:31  5-MIN KSTC 070900Z AUTO 09004KT 10SM FEW055 16/13 A3007 890 83 1200 090/04 RMK AO2
14926KSTC STC20050707030510107/07/05 03:05:31  5-MIN KSTC 070905Z AUTO 09005KT 10SM SCT055 16/13 A3007 890 83 1200 090/05 RMK AO2
14926KSTC STC20050707031010807/07/05 03:10:31  5-MIN KSTC 070910Z AUTO 09005KT 10SM FEW055 SCT070 16/13 A3007 890 83 1200 090/05 RMK AO2
14926KSTC STC20050707031510807/07/05 03:15:31  5-MIN KSTC 070915Z AUTO 09005KT 10SM FEW055 SCT070 16/13 A3007 890 83 1200 090/05 RMK AO2
14926KSTC STC20050707032010807/07/05 03:20:31  5-MIN KSTC 070920Z AUTO 09005KT 10SM FEW055 BKN070 16/13 A3007 890 83 1200 080/05 RMK AO2
14926KSTC STC20050707032510807/07/05 03:25:31  5-MIN KSTC 070925Z AUTO 08006KT 10SM FEW055 BKN070 16/13 A3006 890 83 1200 080/06 RMK AO2
14926KSTC STC20050707033010807/07/05 03:30:31  5-MIN KSTC 070930Z AUTO 09006KT 10SM BKN065 BKN080 16/13 A3006 900 83 1200 090/06 RMK AO2
14926KSTC STC20050707033510107/07/05 03:35:31  5-MIN KSTC 070935Z AUTO 09007KT 10SM BKN065 16/13 A3006 900 83 1200 090/07 RMK AO2
14926KSTC STC20050707034010107/07/05 03:40:31  5-MIN KSTC 070940Z AUTO 09006KT 10SM BKN065 16/13 A3006 890 83 1200 090/06 RMK AO2
14926KSTC STC20050707034510107/07/05 03:45:31  5-MIN KSTC 070945Z AUTO 09006KT 10SM SCT065 16/13 A3006 890 83 1200 080/06 RMK AO2
14926KSTC STC20050707035012507/07/05 03:50:31  5-MIN KSTC 070950Z AUTO 08006KT 10SM FEW048 SCT065 16/13 A3006 890 83 1200 080/06 RMK AO2 SLP185 T01560128
14926KSTC STC20050707035510807/07/05 03:55:31  5-MIN KSTC 070955Z AUTO 08006KT 10SM FEW048 SCT065 16/13 A3006 890 83 1200 080/06 RMK AO2
14926KSTC STC20050707040010107/07/05 04:00:31  5-MIN KSTC 071000Z AUTO 09005KT 10SM FEW047 16/13 A3006 890 83 1200 080/05 RMK AO2
14926KSTC STC20050707040510107/07/05 04:05:31  5-MIN KSTC 071005Z AUTO 08005KT 10SM FEW047 16/13 A3006 900 83 1200 070/05 RMK AO2
14926KSTC STC20050707041010107/07/05 04:10:31  5-MIN KSTC 071010Z AUTO 08005KT 10SM FEW047 15/13 A3006 890 86 1100 080/05 RMK AO2
14926KSTC STC20050707041510107/07/05 04:15:31  5-MIN KSTC 071015Z AUTO 09005KT 10SM FEW047 15/13 A3006 890 86 1100 080/05 RMK AO2
14926KSTC STC20050707042009807/07/05 04:20:31  5-MIN KSTC 071020Z AUTO 09005KT 10SM CLR 15/13 A3006 890 86 1100 090/05 RMK AO2
14926KSTC STC20050707042509807/07/05 04:25:31  5-MIN KSTC 071025Z AUTO 09006KT 10SM CLR 15/13 A3006 890 90 1100 090/06 RMK AO2
14926KSTC STC20050707043009807/07/05 04:30:31  5-MIN KSTC 071030Z AUTO 08006KT 10SM CLR 15/13 A3006 890 90 1100 080/06 RMK AO2
14926KSTC STC20050707043509807/07/05 04:35:31  5-MIN KSTC 071035Z AUTO 09006KT 10SM CLR 15/13 A3006 890 90 1100 080/06 RMK AO2
14926KSTC STC20050707044009807/07/05 04:40:31  5-MIN KSTC 071040Z AUTO 09006KT 10SM CLR 15/13 A3006 890 90 1100 080/06 RMK AO2
14926KSTC STC20050707044509807/07/05 04:45:31  5-MIN KSTC 071045Z AUTO 09005KT 10SM CLR 15/13 A3007 890 90 1100 090/05 RMK AO2
14926KSTC STC20050707045011507/07/05 04:50:31  5-MIN KSTC 071050Z AUTO 09006KT 10SM CLR 15/13 A3007 890 90 1100 090/06 RMK AO2 SLP187 T01500133
14926KSTC STC20050707045509807/07/05 04:55:31  5-MIN KSTC 071055Z AUTO 09005KT 10SM CLR 15/13 A3007 890 90 1100 090/05 RMK AO2
14926KSTC STC20050707050009807/07/05 05:00:31  5-MIN KSTC 071100Z AUTO 09005KT 10SM CLR 15/13 A3007 890 90 1100 080/05 RMK AO2
14926KSTC STC20050707050509807/07/05 05:05:31  5-MIN KSTC 071105Z AUTO 09006KT 10SM CLR 15/13 A3007 890 90 1100 090/06 RMK AO2
14926KSTC STC20050707051009807/07/05 05:10:31  5-MIN KSTC 071110Z AUTO 09005KT 10SM CLR 15/13 A3007 890 90 1100 090/05 RMK AO2
14926KSTC STC20050707051510107/07/05 05:15:31  5-MIN KSTC 071115Z AUTO 09006KT 10SM FEW045 16/13 A3007 890 86 1200 090/06 RMK AO2
14926KSTC STC20050707052010107/07/05 05:20:31  5-MIN KSTC 071120Z AUTO 09005KT 10SM FEW045 16/13 A3007 890 86 1200 090/05 RMK AO2
14926KSTC STC20050707052510107/07/05 05:25:31  5-MIN KSTC 071125Z AUTO 10006KT 10SM FEW045 16/13 A3007 890 86 1200 090/06 RMK AO2
14926KSTC STC20050707053010107/07/05 05:30:31  5-MIN KSTC 071130Z AUTO 09005KT 10SM FEW045 16/13 A3007 890 86 1200 090/05 RMK AO2
14926KSTC STC20050707053510107/07/05 05:35:31  5-MIN KSTC 071135Z AUTO 09005KT 10SM FEW045 16/13 A3007 890 86 1200 090/05 RMK AO2
14926KSTC STC20050707054010107/07/05 05:40:31  5-MIN KSTC 071140Z AUTO 09006KT 10SM FEW045 16/13 A3007 890 83 1300 090/06 RMK AO2
14926KSTC STC20050707054509807/07/05 05:45:31  5-MIN KSTC 071145Z AUTO 09004KT 10SM CLR 16/14 A3007 890 86 1300 080/04 RMK AO2
14926KSTC STC20050707055013307/07/05 05:50:31  5-MIN KSTC 071150Z AUTO 10005KT 10SM CLR 16/14 A3007 890 86 1300 090/05 RMK AO2 SLP187 T01610139 10172 20150 58001
14926KSTC STC20050707055509307/07/05 05:55:31  5-MIN KSTC 071155Z 10005KT 10SM CLR 17/14 A3007 890 83 1300 090/05 RMK AO2
14926KSTC STC20050707060009307/07/05 06:00:31  5-MIN KSTC 071200Z 10007KT 10SM CLR 17/14 A3007 890 83 1300 100/07 RMK AO2
14926KSTC STC20050707060509307/07/05 06:05:31  5-MIN KSTC 071205Z 10006KT 10SM CLR 17/14 A3007 890 83 1300 090/06 RMK AO2
14926KSTC STC20050707061009307/07/05 06:10:31  5-MIN KSTC 071210Z 10006KT 10SM CLR 17/14 A3007 890 83 1300 100/06 RMK AO2
14926KSTC STC20050707061509307/07/05 06:15:31  5-MIN KSTC 071215Z 10006KT 10SM CLR 17/14 A3007 890 83 1300 090/06 RMK AO2
14926KSTC STC20050707062009307/07/05 06:20:31  5-MIN KSTC 071220Z 10006KT 10SM CLR 17/14 A3007 890 80 1400 090/06 RMK AO2
14926KSTC STC20050707062509307/07/05 06:25:31  5-MIN KSTC 071225Z 10006KT 10SM CLR 17/14 A3007 890 80 1400 100/06 RMK AO2
14926KSTC STC20050707063009307/07/05 06:30:31  5-MIN KSTC 071230Z 10006KT 10SM CLR 17/14 A3007 890 83 1400 090/06 RMK AO2
14926KSTC STC20050707063509307/07/05 06:35:31  5-MIN KSTC 071235Z 10005KT 10SM CLR 18/14 A3007 890 81 1500 100/05 RMK AO2
14926KSTC STC20050707064009607/07/05 06:40:31  5-MIN KSTC 071240Z 10006KT 10SM FEW042 18/14 A3007 890 78 1500 100/06 RMK AO2
14926KSTC STC20050707064509607/07/05 06:45:31  5-MIN KSTC 071245Z 10008KT 10SM FEW042 18/14 A3007 890 78 1500 100/08 RMK AO2
14926KSTC STC20050707065011307/07/05 06:50:31  5-MIN KSTC 071250Z 11007KT 10SM FEW042 19/14 A3007 890 75 1600 100/07 RMK AO2 SLP187 T01890144
14926KSTC STC20050707065509607/07/05 06:55:31  5-MIN KSTC 071255Z 11006KT 10SM FEW042 19/15 A3007 890 78 1600 110/06 RMK AO2
14926KSTC STC20050707070009607/07/05 07:00:31  5-MIN KSTC 071300Z 11007KT 10SM FEW042 19/15 A3007 890 78 1600 100/07 RMK AO2
14926KSTC STC20050707070509607/07/05 07:05:31  5-MIN KSTC 071305Z 11007KT 10SM FEW042 19/15 A3007 890 75 1700 110/07 RMK AO2
14926KSTC STC20050707071009507/07/05 07:10:31  5-MIN KSTC 071310Z 13007KT 10SM CLR 20/15 A3007 880 72 1700 130/07 RMK AO2 $
14926KSTC STC20050707071509007/07/05 07:15:31  5-MIN KSTC 071315Z 13008KT CLR 20/15 A3008 880 72 1700 130/08 RMK AO2 $
14926KSTC STC20050707072009007/07/05 07:20:31  5-MIN KSTC 071320Z 14005KT CLR 20/15 A3008 880 72 1700 130/05 RMK AO2 $
14926KSTC STC20050707072509007/07/05 07:25:31  5-MIN KSTC 071325Z 14007KT CLR 21/15 A3008 880 70 1800 130/07 RMK AO2 $
14926KSTC STC20050707073009007/07/05 07:30:31  5-MIN KSTC 071330Z 13006KT CLR 21/15 A3008 880 70 1800 130/06 RMK AO2 $
14926KSTC STC20050707073509007/07/05 07:35:31  5-MIN KSTC 071335Z 14006KT CLR 21/15 A3008 880 70 1800 140/06 RMK AO2 $
14926KSTC STC20050707074009007/07/05 07:40:31  5-MIN KSTC 071340Z 13007KT CLR 21/15 A3008 880 68 1800 130/07 RMK AO2 $
14926KSTC STC20050707074509007/07/05 07:45:31  5-MIN KSTC 071345Z 15008KT CLR 21/15 A3008 880 68 1800 140/08 RMK AO2 $
14926KSTC STC20050707075010707/07/05 07:50:31  5-MIN KSTC 071350Z 14008KT CLR 21/16 A3008 880 70 1800 140/08 RMK AO2 SLP190 T02110156 $
14926KSTC STC20050707075509007/07/05 07:55:31  5-MIN KSTC 071355Z 14008KT CLR 22/16 A3008 880 68 1900 140/08 RMK AO2 $
14926KSTC STC20050707080009007/07/05 08:00:31  5-MIN KSTC 071400Z 15008KT CLR 22/16 A3008 880 68 1900 140/08 RMK AO2 $
14926KSTC STC20050707080509007/07/05 08:05:31  5-MIN KSTC 071405Z 15008KT CLR 22/16 A3007 880 65 2000 140/08 RMK AO2 $
14926KSTC STC20050707081011207/07/05 08:10:31  5-MIN KSTC 071410Z 13007KT 100V160 CLR 22/16 A3007 890 65 2000 130/07 100V160 RMK AO2 PWINO $
14926KSTC STC20050707081510107/07/05 08:15:31  5-MIN KSTC 071415Z 13007KT 10SM CLR 23/16 A3007 890 63 2000 130/07 RMK AO2 PWINO $
14926KSTC STC20050707082010107/07/05 08:20:31  5-MIN KSTC 071420Z 15007KT 10SM CLR 23/16 A3007 890 65 2000 140/07 RMK AO2 PWINO $
14926KSTC STC20050707082510107/07/05 08:25:31  5-MIN KSTC 071425Z 17010KT 10SM CLR 24/15 A3007 890 57 2200 170/10 RMK AO2 PWINO $
14926KSTC STC20050707083010107/07/05 08:30:31  5-MIN KSTC 071430Z 16010KT 10SM CLR 24/15 A3007 890 57 2200 160/10 RMK AO2 PWINO $
14926KSTC STC20050707083510107/07/05 08:35:31  5-MIN KSTC 071435Z 16010KT 10SM CLR 24/15 A3007 890 57 2200 150/10 RMK AO2 PWINO $
14926KSTC STC20050707084010107/07/05 08:40:31  5-MIN KSTC 071440Z 15010KT 10SM CLR 24/15 A3007 890 57 2200 140/10 RMK AO2 PWINO $
14926KSTC STC20050707084510107/07/05 08:45:31  5-MIN KSTC 071445Z 15012KT 10SM CLR 24/15 A3006 890 57 2200 150/12 RMK AO2 PWINO $
14926KSTC STC20050707085012407/07/05 08:50:31  5-MIN KSTC 071450Z 15010KT 10SM CLR 24/15 A3006 890 57 2200 150/10 RMK AO2 SLP185 T02390150 55001 PWINO $
14926KSTC STC20050707085510107/07/05 08:55:31  5-MIN KSTC 071455Z 15011KT 10SM CLR 24/15 A3006 890 55 2200 140/11 RMK AO2 PWINO $
14926KSTC STC20050707090010107/07/05 09:00:31  5-MIN KSTC 071500Z 16012KT 10SM CLR 24/15 A3006 900 55 2200 160/12 RMK AO2 PWINO $
14926KSTC STC20050707090510107/07/05 09:05:31  5-MIN KSTC 071505Z 15010KT 10SM CLR 25/15 A3006 900 53 2300 150/10 RMK AO2 PWINO $
14926KSTC STC20050707091010107/07/05 09:10:31  5-MIN KSTC 071510Z 16012KT 10SM CLR 25/15 A3006 890 53 2300 160/12 RMK AO2 PWINO $
14926KSTC STC20050707091510107/07/05 09:15:31  5-MIN KSTC 071515Z 17011KT 10SM CLR 26/15 A3006 900 51 2400 170/11 RMK AO2 PWINO $
14926KSTC STC20050707092010107/07/05 09:20:31  5-MIN KSTC 071520Z 17012KT 10SM CLR 26/15 A3006 900 51 2400 170/12 RMK AO2 PWINO $
14926KSTC STC20050707092510107/07/05 09:25:31  5-MIN KSTC 071525Z 16011KT 10SM CLR 26/15 A3006 900 51 2400 160/11 RMK AO2 PWINO $
14926KSTC STC20050707093010107/07/05 09:30:31  5-MIN KSTC 071530Z 18012KT 10SM CLR 26/15 A3006 890 50 2400 180/12 RMK AO2 PWINO $
14926KSTC STC20050707093510107/07/05 09:35:31  5-MIN KSTC 071535Z 17012KT 10SM CLR 26/15 A3006 890 50 2400 170/12 RMK AO2 PWINO $
14926KSTC STC20050707094010107/07/05 09:40:31  5-MIN KSTC 071540Z 18011KT 10SM CLR 27/15 A3006 890 48 2500 170/11 RMK AO2 PWINO $
14926KSTC STC20050707094510107/07/05 09:45:31  5-MIN KSTC 071545Z 18010KT 10SM CLR 27/15 A3006 890 48 2500 180/10 RMK AO2 PWINO $
14926KSTC STC20050707095012107/07/05 09:50:31  5-MIN KSTC 071550Z 17012KT 10SM FEW045 27/16 A3006 890 50 2500 170/12 RMK AO2 SLP184 T02670156 PWINO $
14926KSTC STC20050707095510407/07/05 09:55:31  5-MIN KSTC 071555Z 17010KT 10SM FEW045 27/16 A3006 890 50 2500 170/10 RMK AO2 PWINO $
14926KSTC STC20050707100010407/07/05 10:00:31  5-MIN KSTC 071600Z 17012KT 10SM SCT045 27/16 A3006 900 50 2500 170/12 RMK AO2 PWINO $
14926KSTC STC20050707100510407/07/05 10:05:31  5-MIN KSTC 071605Z 16011KT 10SM SCT047 27/15 A3006 900 48 2500 150/11 RMK AO2 PWINO $
14926KSTC STC20050707101011007/07/05 10:10:31  5-MIN KSTC 071610Z 15012G17KT 10SM SCT047 28/16 A3006 900 46 2600 150/12G17 RMK AO2 PWINO $
14926KSTC STC20050707101511007/07/05 10:15:31  5-MIN KSTC 071615Z 18014G17KT 10SM FEW047 27/15 A3006 900 48 2500 170/14G17 RMK AO2 PWINO $
14926KSTC STC20050707102010407/07/05 10:20:31  5-MIN KSTC 071620Z 16013KT 10SM FEW047 27/15 A3006 900 48 2500 160/13 RMK AO2 PWINO $
14926KSTC STC20050707102509807/07/05 10:25:31  5-MIN KSTC 071625Z 10SM FEW047 27/16 A3006 900 48 2500 M /M RMK AO2 PWINO PNO $
14926KSTC STC20050707103009507/07/05 10:30:31  5-MIN KSTC 071630Z 10SM CLR 27/15 A3006 900 48 2500 M /M RMK AO2 PWINO PNO $
14926KSTC STC20050707103509507/07/05 10:35:31  5-MIN KSTC 071635Z 10SM CLR 27/15 A3006 900 48 2500 M /M RMK AO2 PWINO PNO $
14926KSTC STC20050707104009507/07/05 10:40:31  5-MIN KSTC 071640Z 10SM CLR 27/16 A3006 900 50 2500 M /M RMK AO2 PWINO PNO $
14926KSTC STC20050707104511107/07/05 10:45:31  5-MIN KSTC 071645Z 17014G17KT 10SM CLR 27/15 A3006 900 48 2500 170/14G17 RMK AO2 PWINO PNO $
14926KSTC STC20050707105012407/07/05 10:50:31  5-MIN KSTC 071650Z 16011KT 10SM CLR 27/16 A3006 900 48 2500 150/11 RMK AO2 SLP182 P0098 T02720156 PWINO $
14926KSTC STC20050707105510607/07/05 10:55:31  5-MIN KSTC 071655Z AUTO 15016KT 10SM CLR 27/16 A3006 900 48 2500 150/16 RMK AO2 PWINO $
14926KSTC STC20050707110010207/07/05 11:00:31  5-MIN KSTC 071700Z AUTO 16013KT 10SM 27/16 A3006 900 50 2500 160/13 RMK AO2 PWINO $
14926KSTC STC20050707110510207/07/05 11:05:31  5-MIN KSTC 071705Z AUTO 16013KT 10SM 27/16 A3006 900 48 2500 160/13 RMK AO2 PWINO $
14926KSTC STC20050707111010207/07/05 11:10:31  5-MIN KSTC 071710Z AUTO 17015KT 10SM 27/16 A3006 900 48 2600 160/15 RMK AO2 PWINO $
14926KSTC STC20050707111510807/07/05 11:15:31  5-MIN KSTC 071715Z AUTO 16015G20KT 10SM 27/16 A3006 900 48 2600 160/15G20 RMK AO2 PWINO $
14926KSTC STC20050707112010807/07/05 11:20:31  5-MIN KSTC 071720Z AUTO 16013G20KT 10SM 27/16 A3006 900 48 2600 160/13G20 RMK AO2 PWINO $
14926KSTC STC20050707112510207/07/05 11:25:31  5-MIN KSTC 071725Z AUTO 17013KT 10SM 27/16 A3006 900 50 2600 160/13 RMK AO2 PWINO $
14926KSTC STC20050707113010207/07/05 11:30:31  5-MIN KSTC 071730Z AUTO 16015KT 10SM 27/16 A3005 900 50 2500 150/15 RMK AO2 PWINO $
14926KSTC STC20050707113510207/07/05 11:35:31  5-MIN KSTC 071735Z AUTO 15013KT 10SM 28/16 A3005 900 48 2600 140/13 RMK AO2 PWINO $
14926KSTC STC20050707114010207/07/05 11:40:31  5-MIN KSTC 071740Z AUTO 16011KT 10SM 27/16 A3005 900 50 2600 160/11 RMK AO2 PWINO $
14926KSTC STC20050707114510807/07/05 11:45:31  5-MIN KSTC 071745Z AUTO 15012G18KT 10SM 28/16 A3005 900 48 2600 150/12G18 RMK AO2 PWINO $
14926KSTC STC20050707115014907/07/05 11:50:31  5-MIN KSTC 071750Z AUTO 13011G18KT 10SM 27/16 A3005 910 50 2600 130/11G18 RMK AO2 SLP179 60098 T02720161 10278 20167 58002 PWINO $
14926KSTC STC20050707115510207/07/05 11:55:31  5-MIN KSTC 071755Z AUTO 15013KT 10SM 27/17 A3005 910 52 2600 150/13 RMK AO2 PWINO $
14926KSTC STC20050707120010207/07/05 12:00:31  5-MIN KSTC 071800Z AUTO 17013KT 10SM 28/17 A3005 910 48 2700 160/13 RMK AO2 PWINO $
14926KSTC STC20050707120510807/07/05 12:05:31  5-MIN KSTC 071805Z AUTO 16013G19KT 10SM 28/16 A3005 910 48 2600 150/13G19 RMK AO2 PWINO $
14926KSTC STC20050707121010807/07/05 12:10:31  5-MIN KSTC 071810Z AUTO 17012G19KT 10SM 29/16 A3005 910 45 2700 170/12G19 RMK AO2 PWINO $
14926KSTC STC20050707121510207/07/05 12:15:31  5-MIN KSTC 071815Z AUTO 15013KT 10SM 29/17 A3005 910 47 2700 140/13 RMK AO2 PWINO $
14926KSTC STC20050707122010807/07/05 12:20:31  5-MIN KSTC 071820Z AUTO 15012G16KT 10SM 28/17 A3005 910 48 2700 150/12G16 RMK AO2 PWINO $
14926KSTC STC20050707122510807/07/05 12:25:31  5-MIN KSTC 071825Z AUTO 15013G19KT 10SM 28/17 A3005 910 50 2600 140/13G19 RMK AO2 PWINO $
14926KSTC STC20050707123010807/07/05 12:30:31  5-MIN KSTC 071830Z AUTO 14015G19KT 10SM 28/16 A3005 910 48 2600 140/15G19 RMK AO2 PWINO $
14926KSTC STC20050707123510207/07/05 12:35:31  5-MIN KSTC 071835Z AUTO 17013KT 10SM 28/16 A3005 910 47 2700 160/13 RMK AO2 PWINO $
14926KSTC STC20050707124010207/07/05 12:40:31  5-MIN KSTC 071840Z AUTO 17013KT 10SM 28/16 A3005 910 47 2700 170/13 RMK AO2 PWINO $
14926KSTC STC20050707124510207/07/05 12:45:31  5-MIN KSTC 071845Z AUTO 14012KT 10SM 29/17 A3004 910 47 2800 140/12 RMK AO2 PWINO $
14926KSTC STC20050707125012507/07/05 12:50:31  5-MIN KSTC 071850Z AUTO 15015G20KT 10SM 28/17 A3004 910 50 2600 150/15G20 RMK AO2 SLP177 T02780167 PWINO $
14926KSTC STC20050707125510807/07/05 12:55:31  5-MIN KSTC 071855Z AUTO 17014G20KT 10SM 28/17 A3004 910 50 2600 170/14G20 RMK AO2 PWINO $
14926KSTC STC20050707130010807/07/05 13:00:31  5-MIN KSTC 071900Z AUTO 17011G18KT 10SM 27/17 A3004 910 52 2600 160/11G18 RMK AO2 PWINO $
14926KSTC STC20050707130510207/07/05 13:05:31  5-MIN KSTC 071905Z AUTO 14009KT 10SM 28/17 A3004 920 50 2600 140/09 RMK AO2 PWINO $
14926KSTC STC20050707131010907/07/05 13:10:31  5-MIN KSTC 071910Z AUTO 15014G18KT 10SM FEW075 28/17 A3004 920 50 2600 150/14G18 RMK AO2 $
14926KSTC STC20050707131510707/07/05 13:15:31  5-MIN KSTC 071915Z AUTO 14011G18KT 10SM FEW075 28/17 A3004 920 50 2700 130/11G18 RMK AO2
14926KSTC STC20050707132010707/07/05 13:20:31  5-MIN KSTC 071920Z AUTO 14012G17KT 10SM FEW075 28/17 A3004 920 50 2700 130/12G17 RMK AO2
14926KSTC STC20050707132510107/07/05 13:25:31  5-MIN KSTC 071925Z AUTO 13011KT 10SM FEW075 28/17 A3004 920 50 2600 130/11 RMK AO2
14926KSTC STC20050707133009807/07/05 13:30:31  5-MIN KSTC 071930Z AUTO 17012KT 10SM CLR 29/17 A3004 920 47 2800 170/12 RMK AO2
14926KSTC STC20050707133509807/07/05 13:35:31  5-MIN KSTC 071935Z AUTO 14012KT 10SM CLR 29/17 A3004 920 47 2800 140/12 RMK AO2
14926KSTC STC20050707134010007/07/05 13:40:31  5-MIN KSTC 071940Z AUTO 10SM CLR 28/17 A3004 920 48 2700 M /M RMK AO2 PWINO PNO $
14926KSTC STC20050707134510607/07/05 13:45:31  5-MIN KSTC 071945Z AUTO 14011KT 10SM CLR 29/17 A3004 920 47 2800 140/11 RMK AO2 PWINO $
14926KSTC STC20050707135011807/07/05 13:50:31  5-MIN KSTC 071950Z AUTO 13011KT 10SM FEW042 29/17 A3003 920 48 2800 130/11 RMK AO2 SLP174 T02890172
14926KSTC STC20050707135510107/07/05 13:55:31  5-MIN KSTC 071955Z AUTO 16013KT 10SM FEW042 29/17 A3003 920 48 2800 160/13 RMK AO2
14926KSTC STC20050707140010107/07/05 14:00:31  5-MIN KSTC 072000Z AUTO 16014KT 10SM FEW042 29/17 A3003 920 48 2800 150/14 RMK AO2
14926KSTC STC20050707140510107/07/05 14:05:31  5-MIN KSTC 072005Z AUTO 16013KT 10SM FEW042 28/17 A3003 920 50 2700 160/13 RMK AO2
14926KSTC STC20050707141010307/07/05 14:10:31  5-MIN KSTC 072010Z AUTO 17013KT 10SM FEW042 28/17 A3003 930 50 2600 160/13 RMK AO2 $
14926KSTC STC20050707141510907/07/05 14:15:31  5-MIN KSTC 072015Z AUTO 15014G19KT 10SM FEW042 28/17 A3003 930 50 2700 150/14G19 RMK AO2 $
14926KSTC STC20050707142011607/07/05 14:20:31  5-MIN KSTC 072020Z AUTO 15012G19KT 10SM SCT042 SCT055 28/17 A3003 930 50 2700 140/12G19 RMK AO2 $
14926KSTC STC20050707142510807/07/05 14:25:31  5-MIN KSTC 072025Z AUTO 14012KT 10SM SCT042 BKN055 28/17 A3002 930 50 2700 140/12 RMK AO2
14926KSTC STC20050707143011407/07/05 14:30:31  5-MIN KSTC 072030Z AUTO 15013G19KT 10SM FEW042 SCT055 29/17 A3002 930 48 2800 140/13G19 RMK AO2
14926KSTC STC20050707143511407/07/05 14:35:31  5-MIN KSTC 072035Z AUTO 15011G19KT 10SM FEW042 SCT055 28/17 A3002 930 50 2700 150/11G19 RMK AO2
14926KSTC STC20050707144010807/07/05 14:40:31  5-MIN KSTC 072040Z AUTO 17012KT 10SM FEW042 SCT055 28/18 A3002 930 52 2700 160/12 RMK AO2
14926KSTC STC20050707144510807/07/05 14:45:31  5-MIN KSTC 072045Z AUTO 16013KT 10SM SCT042 SCT055 28/18 A3002 930 52 2700 150/13 RMK AO2
14926KSTC STC20050707145013107/07/05 14:50:31  5-MIN KSTC 072050Z AUTO 15012KT 10SM SCT040 SCT055 28/18 A3002 930 54 2700 150/12 RMK AO2 SLP171 T02780178 58005
14926KSTC STC20050707145510107/07/05 14:55:31  5-MIN KSTC 072055Z AUTO 15010KT 10SM SCT040 28/18 A3002 930 52 2700 150/10 RMK AO2
14926KSTC STC20050707150010707/07/05 15:00:31  5-MIN KSTC 072100Z AUTO 15014G17KT 10SM FEW040 28/18 A3002 930 52 2700 150/14G17 RMK AO2
14926KSTC STC20050707150510107/07/05 15:05:31  5-MIN KSTC 072105Z AUTO 14012KT 10SM FEW042 28/18 A3002 930 52 2700 140/12 RMK AO2
14926KSTC STC20050707151010107/07/05 15:10:31  5-MIN KSTC 072110Z AUTO 16014KT 10SM FEW042 28/18 A3002 930 52 2700 160/14 RMK AO2
14926KSTC STC20050707151510107/07/05 15:15:31  5-MIN KSTC 072115Z AUTO 16014KT 10SM FEW040 28/18 A3002 940 52 2700 150/14 RMK AO2
14926KSTC STC20050707152010107/07/05 15:20:31  5-MIN KSTC 072120Z AUTO 15013KT 10SM FEW040 28/17 A3002 940 50 2700 150/13 RMK AO2
14926KSTC STC20050707152510707/07/05 15:25:31  5-MIN KSTC 072125Z AUTO 17014G20KT 10SM FEW085 28/17 A3002 940 50 2700 160/14G20 RMK AO2
14926KSTC STC20050707153010707/07/05 15:30:31  5-MIN KSTC 072130Z AUTO 14011G20KT 10SM FEW085 28/17 A3001 940 50 2700 130/11G20 RMK AO2
14926KSTC STC20050707153510707/07/05 15:35:31  5-MIN KSTC 072135Z AUTO 16014G19KT 10SM FEW085 29/18 A3001 940 50 2800 160/14G19 RMK AO2
14926KSTC STC20050707154010707/07/05 15:40:31  5-MIN KSTC 072140Z AUTO 15014G19KT 10SM SCT085 28/18 A3001 940 52 2700 150/14G19 RMK AO2
14926KSTC STC20050707154510107/07/05 15:45:31  5-MIN KSTC 072145Z AUTO 14013KT 10SM FEW085 28/18 A3001 940 52 2700 140/13 RMK AO2
14926KSTC STC20050707155011807/07/05 15:50:31  5-MIN KSTC 072150Z AUTO 15012KT 10SM FEW085 28/18 A3001 940 52 2700 150/12 RMK AO2 SLP166 T02830178
14926KSTC STC20050707155510107/07/05 15:55:31  5-MIN KSTC 072155Z AUTO 14013KT 10SM FEW085 28/18 A3001 940 54 2700 140/13 RMK AO2
14926KSTC STC20050707160010107/07/05 16:00:31  5-MIN KSTC 072200Z AUTO 15013KT 10SM FEW090 28/18 A3001 940 52 2700 150/13 RMK AO2
14926KSTC STC20050707160510707/07/05 16:05:31  5-MIN KSTC 072205Z AUTO 15014G18KT 10SM FEW040 28/18 A3001 940 54 2700 150/14G18 RMK AO2
14926KSTC STC20050707161010707/07/05 16:10:31  5-MIN KSTC 072210Z AUTO 16011G19KT 10SM FEW040 28/18 A3001 940 52 2700 160/11G19 RMK AO2
14926KSTC STC20050707161510707/07/05 16:15:31  5-MIN KSTC 072215Z AUTO 15013G19KT 10SM FEW085 28/18 A3001 940 52 2700 150/13G19 RMK AO2
14926KSTC STC20050707162010707/07/05 16:20:31  5-MIN KSTC 072220Z AUTO 14014G18KT 10SM FEW041 28/18 A3001 950 54 2700 140/14G18 RMK AO2
14926KSTC STC20050707162510807/07/05 16:25:31  5-MIN KSTC 072225Z AUTO 14011KT 10SM FEW041 SCT085 28/18 A3001 950 52 2700 140/11 RMK AO2
14926KSTC STC20050707163010107/07/05 16:30:31  5-MIN KSTC 072230Z AUTO 14011KT 10SM FEW041 28/18 A3000 950 52 2700 140/11 RMK AO2
14926KSTC STC20050707163510107/07/05 16:35:31  5-MIN KSTC 072235Z AUTO 14012KT 10SM FEW041 28/18 A3001 950 54 2700 130/12 RMK AO2
14926KSTC STC20050707164010107/07/05 16:40:31  5-MIN KSTC 072240Z AUTO 17012KT 10SM FEW041 28/17 A3000 950 50 2700 160/12 RMK AO2
14926KSTC STC20050707164510107/07/05 16:45:31  5-MIN KSTC 072245Z AUTO 15011KT 10SM FEW041 28/17 A3000 950 50 2700 150/11 RMK AO2
14926KSTC STC20050707165011807/07/05 16:50:31  5-MIN KSTC 072250Z AUTO 15011KT 10SM FEW043 28/17 A3001 950 52 2700 140/11 RMK AO2 SLP165 T02780172
14926KSTC STC20050707165510107/07/05 16:55:31  5-MIN KSTC 072255Z AUTO 14012KT 10SM FEW085 28/17 A3000 950 52 2700 130/12 RMK AO2
14926KSTC STC20050707170010107/07/05 17:00:31  5-MIN KSTC 072300Z AUTO 14011KT 10SM FEW085 28/17 A3000 950 52 2700 140/11 RMK AO2
14926KSTC STC20050707170510107/07/05 17:05:31  5-MIN KSTC 072305Z AUTO 14011KT 10SM FEW085 28/17 A3001 950 50 2700 140/11 RMK AO2
14926KSTC STC20050707171010107/07/05 17:10:31  5-MIN KSTC 072310Z AUTO 15011KT 10SM FEW085 28/18 A3000 950 52 2700 150/11 RMK AO2
14926KSTC STC20050707171510107/07/05 17:15:31  5-MIN KSTC 072315Z AUTO 14011KT 10SM FEW085 28/17 A3000 950 52 2700 140/11 RMK AO2
14926KSTC STC20050707172010107/07/05 17:20:31  5-MIN KSTC 072320Z AUTO 14011KT 10SM FEW085 28/17 A3000 950 52 2700 130/11 RMK AO2
14926KSTC STC20050707172509807/07/05 17:25:31  5-MIN KSTC 072325Z AUTO 13012KT 10SM CLR 28/17 A3000 950 52 2700 130/12 RMK AO2
14926KSTC STC20050707173009807/07/05 17:30:31  5-MIN KSTC 072330Z AUTO 15010KT 10SM CLR 28/18 A3000 950 54 2700 150/10 RMK AO2
14926KSTC STC20050707173509807/07/05 17:35:31  5-MIN KSTC 072335Z AUTO 15012KT 10SM CLR 28/18 A3000 950 54 2700 150/12 RMK AO2
14926KSTC STC20050707174009807/07/05 17:40:31  5-MIN KSTC 072340Z AUTO 15012KT 10SM CLR 28/17 A3000 960 52 2700 150/12 RMK AO2
14926KSTC STC20050707174509807/07/05 17:45:31  5-MIN KSTC 072345Z AUTO 14012KT 10SM CLR 28/17 A3000 950 52 2700 140/12 RMK AO2
14926KSTC STC20050707175013307/07/05 17:50:31  5-MIN KSTC 072350Z AUTO 16012KT 10SM CLR 28/17 A3000 950 52 2700 160/12 RMK AO2 SLP162 T02780172 10300 20272 58009
14926KSTC STC20050707175509807/07/05 17:55:31  5-MIN KSTC 072355Z AUTO 15013KT 10SM CLR 27/17 A3000 950 54 2600 150/13 RMK AO2
14926KSTC STC20050707180009807/07/05 18:00:31  5-MIN KSTC 080000Z AUTO 16013KT 10SM CLR 27/17 A3000 950 54 2600 150/13 RMK AO2
14926KSTC STC20050707180510407/07/05 18:05:31  5-MIN KSTC 080005Z AUTO 16011G18KT 10SM CLR 27/17 A3000 960 54 2600 150/11G18 RMK AO2
14926KSTC STC20050707181009807/07/05 18:10:31  5-MIN KSTC 080010Z AUTO 15010KT 10SM CLR 27/17 A3000 950 54 2600 150/10 RMK AO2
14926KSTC STC20050707181509807/07/05 18:15:31  5-MIN KSTC 080015Z AUTO 16012KT 10SM CLR 27/17 A3000 950 54 2600 150/12 RMK AO2
14926KSTC STC20050707182009807/07/05 18:20:31  5-MIN KSTC 080020Z AUTO 16011KT 10SM CLR 27/17 A3000 950 54 2600 160/11 RMK AO2
14926KSTC STC20050707182509807/07/05 18:25:31  5-MIN KSTC 080025Z AUTO 15010KT 10SM CLR 27/17 A3000 950 55 2600 150/10 RMK AO2
14926KSTC STC20050707183009807/07/05 18:30:31  5-MIN KSTC 080030Z AUTO 15011KT 10SM CLR 27/17 A3000 950 55 2600 150/11 RMK AO2
14926KSTC STC20050707183509807/07/05 18:35:31  5-MIN KSTC 080035Z AUTO 15012KT 10SM CLR 27/17 A3000 950 55 2500 150/12 RMK AO2
14926KSTC STC20050707184009807/07/05 18:40:31  5-MIN KSTC 080040Z AUTO 15012KT 10SM CLR 27/17 A3001 950 55 2500 150/12 RMK AO2
14926KSTC STC20050707184509807/07/05 18:45:31  5-MIN KSTC 080045Z AUTO 15010KT 10SM CLR 27/17 A3000 950 55 2500 150/10 RMK AO2
14926KSTC STC20050707185011507/07/05 18:50:31  5-MIN KSTC 080050Z AUTO 15010KT 10SM CLR 26/17 A3000 950 57 2500 150/10 RMK AO2 SLP163 T02610172
14926KSTC STC20050707185509807/07/05 18:55:31  5-MIN KSTC 080055Z AUTO 14011KT 10SM CLR 26/17 A3000 950 57 2500 140/11 RMK AO2
14926KSTC STC20050707190009807/07/05 19:00:31  5-MIN KSTC 080100Z AUTO 15010KT 10SM CLR 26/17 A3000 950 57 2500 150/10 RMK AO2
14926KSTC STC20050707190509807/07/05 19:05:31  5-MIN KSTC 080105Z AUTO 15008KT 10SM CLR 26/17 A3000 950 57 2500 140/08 RMK AO2
14926KSTC STC20050707191009807/07/05 19:10:31  5-MIN KSTC 080110Z AUTO 14007KT 10SM CLR 26/17 A3000 950 59 2400 140/07 RMK AO2
14926KSTC STC20050707191509807/07/05 19:15:31  5-MIN KSTC 080115Z AUTO 15007KT 10SM CLR 26/17 A3000 950 59 2400 150/07 RMK AO2
14926KSTC STC20050707192009807/07/05 19:20:31  5-MIN KSTC 080120Z AUTO 15009KT 10SM CLR 26/17 A3000 950 59 2400 150/09 RMK AO2
14926KSTC STC20050707192509807/07/05 19:25:31  5-MIN KSTC 080125Z AUTO 15007KT 10SM CLR 26/17 A3001 950 59 2400 150/07 RMK AO2
14926KSTC STC20050707193009807/07/05 19:30:31  5-MIN KSTC 080130Z AUTO 16008KT 10SM CLR 26/17 A3001 950 59 2400 150/08 RMK AO2
14926KSTC STC20050707193509807/07/05 19:35:31  5-MIN KSTC 080135Z AUTO 16008KT 10SM CLR 25/17 A3001 940 61 2400 160/08 RMK AO2
14926KSTC STC20050707194009807/07/05 19:40:31  5-MIN KSTC 080140Z AUTO 17008KT 10SM CLR 25/17 A3001 940 61 2400 160/08 RMK AO2
14926KSTC STC20050707194510107/07/05 19:45:31  5-MIN KSTC 080145Z AUTO 16009KT 10SM FEW043 25/17 A3001 940 61 2400 160/09 RMK AO2
14926KSTC STC20050707195011807/07/05 19:50:31  5-MIN KSTC 080150Z AUTO 16008KT 10SM FEW043 25/17 A3001 950 61 2400 160/08 RMK AO2 SLP165 T02500172
14926KSTC STC20050707195510107/07/05 19:55:31  5-MIN KSTC 080155Z AUTO 15009KT 10SM FEW043 25/17 A3000 950 61 2400 150/09 RMK AO2
14926KSTC STC20050707200010107/07/05 20:00:31  5-MIN KSTC 080200Z AUTO 15008KT 10SM FEW043 24/17 A3000 950 63 2300 140/08 RMK AO2
14926KSTC STC20050707200510107/07/05 20:05:31  5-MIN KSTC 080205Z AUTO 15007KT 10SM FEW043 24/17 A3001 950 63 2300 150/07 RMK AO2
14926KSTC STC20050707201010807/07/05 20:10:31  5-MIN KSTC 080210Z AUTO 15007KT 10SM FEW043 SCT050 24/17 A3001 950 63 2300 150/07 RMK AO2
14926KSTC STC20050707201510107/07/05 20:15:31  5-MIN KSTC 080215Z AUTO 15007KT 10SM BKN048 24/17 A3001 950 63 2300 150/07 RMK AO2
14926KSTC STC20050707202010107/07/05 20:20:31  5-MIN KSTC 080220Z AUTO 15007KT 10SM SCT048 24/17 A3000 950 66 2200 140/07 RMK AO2
14926KSTC STC20050707202510107/07/05 20:25:31  5-MIN KSTC 080225Z AUTO 15007KT 10SM FEW048 24/17 A3001 950 66 2200 150/07 RMK AO2
14926KSTC STC20050707203010107/07/05 20:30:31  5-MIN KSTC 080230Z AUTO 15008KT 10SM FEW048 24/17 A3001 950 66 2200 140/08 RMK AO2
14926KSTC STC20050707203510107/07/05 20:35:31  5-MIN KSTC 080235Z AUTO 15007KT 10SM FEW048 24/17 A3001 940 66 2200 140/07 RMK AO2
14926KSTC STC20050707204010107/07/05 20:40:31  5-MIN KSTC 080240Z AUTO 15008KT 10SM FEW045 24/17 A3001 950 66 2200 140/08 RMK AO2
14926KSTC STC20050707204509807/07/05 20:45:31  5-MIN KSTC 080245Z AUTO 15007KT 10SM CLR 23/17 A3001 940 66 2200 140/07 RMK AO2
14926KSTC STC20050707205012107/07/05 20:50:31  5-MIN KSTC 080250Z AUTO 15008KT 10SM CLR 23/17 A3001 940 66 2200 150/08 RMK AO2 SLP164 T02330167 56008
14926KSTC STC20050707205509807/07/05 20:55:31  5-MIN KSTC 080255Z AUTO 15007KT 10SM CLR 23/17 A3001 940 66 2200 150/07 RMK AO2
14926KSTC STC20050707210010107/07/05 21:00:31  5-MIN KSTC 080300Z AUTO 15007KT 10SM FEW050 23/17 A3001 940 66 2200 140/07 RMK AO2
14926KSTC STC20050707210510107/07/05 21:05:31  5-MIN KSTC 080305Z AUTO 14006KT 10SM FEW055 23/17 A3001 940 66 2200 140/06 RMK AO2
14926KSTC STC20050707211010107/07/05 21:10:31  5-MIN KSTC 080310Z AUTO 15007KT 10SM FEW055 23/17 A3001 940 66 2200 140/07 RMK AO2
14926KSTC STC20050707211510807/07/05 21:15:31  5-MIN KSTC 080315Z AUTO 15007KT 10SM FEW055 SCT075 23/17 A3001 940 66 2200 150/07 RMK AO2
14926KSTC STC20050707212010807/07/05 21:20:31  5-MIN KSTC 080320Z AUTO 15008KT 10SM SCT050 BKN075 23/17 A3001 940 66 2200 150/08 RMK AO2
14926KSTC STC20050707212511507/07/05 21:25:31  5-MIN KSTC 080325Z AUTO 15008KT 10SM SCT055 BKN075 BKN085 23/17 A3001 940 66 2200 140/08 RMK AO2
14926KSTC STC20050707213011507/07/05 21:30:31  5-MIN KSTC 080330Z AUTO 15009KT 10SM SCT050 BKN065 BKN080 23/17 A3001 940 66 2200 150/09 RMK AO2
14926KSTC STC20050707213511507/07/05 21:35:31  5-MIN KSTC 080335Z AUTO 15010KT 10SM SCT050 BKN065 BKN080 24/17 A3001 940 63 2200 150/10 RMK AO2
14926KSTC STC20050707214011507/07/05 21:40:31  5-MIN KSTC 080340Z AUTO 15010KT 10SM SCT050 BKN065 BKN080 24/17 A3001 940 63 2200 150/10 RMK AO2
14926KSTC STC20050707214511507/07/05 21:45:31  5-MIN KSTC 080345Z AUTO 15010KT 10SM FEW050 SCT070 OVC080 24/17 A3001 940 63 2200 150/10 RMK AO2
14926KSTC STC20050707215012507/07/05 21:50:31  5-MIN KSTC 080350Z AUTO 15009KT 10SM SCT050 OVC080 24/17 A3001 940 63 2200 150/09 RMK AO2 SLP163 T02390167
14926KSTC STC20050707215510807/07/05 21:55:31  5-MIN KSTC 080355Z AUTO 15009KT 10SM SCT050 OVC080 24/17 A3001 940 63 2200 150/09 RMK AO2
14926KSTC STC20050707220010807/07/05 22:00:31  5-MIN KSTC 080400Z AUTO 15009KT 10SM BKN050 OVC080 24/17 A3001 940 63 2200 150/09 RMK AO2
14926KSTC STC20050707220510807/07/05 22:05:31  5-MIN KSTC 080405Z AUTO 16010KT 10SM BKN050 OVC080 24/17 A3001 940 63 2200 150/10 RMK AO2
14926KSTC STC20050707221010807/07/05 22:10:31  5-MIN KSTC 080410Z AUTO 16010KT 10SM BKN050 OVC080 24/17 A3001 940 63 2200 150/10 RMK AO2
14926KSTC STC20050707221510807/07/05 22:15:31  5-MIN KSTC 080415Z AUTO 16008KT 10SM BKN050 OVC085 24/17 A3001 940 63 2200 150/08 RMK AO2
14926KSTC STC20050707222010807/07/05 22:20:31  5-MIN KSTC 080420Z AUTO 16010KT 10SM BKN050 OVC090 24/17 A3001 940 66 2200 150/10 RMK AO2
14926KSTC STC20050707222510107/07/05 22:25:31  5-MIN KSTC 080425Z AUTO 16008KT 10SM BKN050 24/17 A3001 940 66 2200 150/08 RMK AO2
14926KSTC STC20050707223011507/07/05 22:30:31  5-MIN KSTC 080430Z AUTO 15008KT 10SM BKN050 BKN080 OVC090 23/17 A3001 940 68 2200 150/08 RMK AO2
14926KSTC STC20050707223510807/07/05 22:35:31  5-MIN KSTC 080435Z AUTO 15008KT 10SM SCT050 BKN085 23/17 A3001 950 68 2200 150/08 RMK AO2
14926KSTC STC20050707224011507/07/05 22:40:31  5-MIN KSTC 080440Z AUTO 15008KT 10SM FEW050 SCT080 BKN090 23/17 A3001 950 68 2200 150/08 RMK AO2
14926KSTC STC20050707224511507/07/05 22:45:31  5-MIN KSTC 080445Z AUTO 15008KT 10SM FEW050 SCT080 SCT090 23/17 A3001 940 68 2200 150/08 RMK AO2
14926KSTC STC20050707225012507/07/05 22:50:31  5-MIN KSTC 080450Z AUTO 15008KT 10SM FEW050 SCT085 23/17 A3001 940 68 2200 150/08 RMK AO2 SLP165 T02330172
14926KSTC STC20050707225510807/07/05 22:55:31  5-MIN KSTC 080455Z AUTO 15008KT 10SM SCT080 BKN090 23/17 A3001 940 68 2200 150/08 RMK AO2
14926KSTC STC20050707230010807/07/05 23:00:31  5-MIN KSTC 080500Z AUTO 15008KT 10SM SCT080 BKN090 23/17 A3001 950 70 2100 150/08 RMK AO2
14926KSTC STC20050707230510807/07/05 23:05:31  5-MIN KSTC 080505Z AUTO 15008KT 10SM SCT080 BKN095 23/17 A3000 950 70 2100 150/08 RMK AO2
14926KSTC STC20050707231010807/07/05 23:10:31  5-MIN KSTC 080510Z AUTO 15009KT 10SM SCT080 BKN095 23/17 A3000 950 70 2100 150/09 RMK AO2
14926KSTC STC20050707231510807/07/05 23:15:31  5-MIN KSTC 080515Z AUTO 15009KT 10SM BKN080 OVC095 23/17 A3000 950 70 2100 150/09 RMK AO2
14926KSTC STC20050707232010807/07/05 23:20:31  5-MIN KSTC 080520Z AUTO 15008KT 10SM BKN080 BKN090 23/17 A3000 950 70 2100 150/08 RMK AO2
14926KSTC STC20050707232510807/07/05 23:25:31  5-MIN KSTC 080525Z AUTO 15009KT 10SM BKN080 BKN095 23/17 A3000 950 70 2100 150/09 RMK AO2
14926KSTC STC20050707233010807/07/05 23:30:31  5-MIN KSTC 080530Z AUTO 15008KT 10SM SCT080 BKN095 23/17 A3000 950 70 2100 150/08 RMK AO2
14926KSTC STC20050707233510807/07/05 23:35:31  5-MIN KSTC 080535Z AUTO 16008KT 10SM SCT080 BKN095 23/17 A3001 950 70 2100 150/08 RMK AO2
14926KSTC STC20050707234010807/07/05 23:40:31  5-MIN KSTC 080540Z AUTO 16007KT 10SM BKN075 BKN095 23/17 A3001 940 70 2100 160/07 RMK AO2
14926KSTC STC20050707234510807/07/05 23:45:31  5-MIN KSTC 080545Z AUTO 16006KT 10SM BKN075 BKN095 23/17 A3002 930 70 2100 160/06 RMK AO2
14926KSTC STC20050707235016007/07/05 23:50:31  5-MIN KSTC 080550Z AUTO 15006KT 10SM FEW055 BKN075 BKN090 23/17 A3002 940 70 2100 150/06 RMK AO2 SLP166 T02280172 10272 20228 403000150 51004
14926KSTC STC20050707235511507/07/05 23:55:31  5-MIN KSTC 080555Z AUTO 15007KT 10SM FEW055 SCT075 BKN100 23/17 A3001 940 70 2100 150/07 RMK AO2
14926KSTC STC20050708000010107/08/05 00:00:32  5-MIN KSTC 080600Z AUTO 15007KT 10SM SCT075 22/17 A3001 940 73 2000 140/07 RMK AO2
14926KSTC STC20050708000510107/08/05 00:05:31  5-MIN KSTC 080605Z AUTO 13006KT 10SM SCT075 22/18 A3001 940 75 2000 130/06 RMK AO2
14926KSTC STC20050708001010107/08/05 00:10:31  5-MIN KSTC 080610Z AUTO 14007KT 10SM FEW075 22/17 A3001 940 73 2000 140/07 RMK AO2
14926KSTC STC20050708001509807/08/05 00:15:31  5-MIN KSTC 080615Z AUTO 15006KT 10SM CLR 22/17 A3001 940 73 2000 150/06 RMK AO2
14926KSTC STC20050708002009807/08/05 00:20:31  5-MIN KSTC 080620Z AUTO 15007KT 10SM CLR 22/18 A3001 940 78 2000 150/07 RMK AO2
14926KSTC STC20050708002510107/08/05 00:25:31  5-MIN KSTC 080625Z AUTO 15007KT 10SM FEW090 22/18 A3001 950 78 2000 150/07 RMK AO2
14926KSTC STC20050708003010107/08/05 00:30:31  5-MIN KSTC 080630Z AUTO 15007KT 10SM FEW090 22/18 A3001 950 78 2000 140/07 RMK AO2
14926KSTC STC20050708003510107/08/05 00:35:31  5-MIN KSTC 080635Z AUTO 15007KT 10SM FEW090 22/18 A3001 950 78 2000 150/07 RMK AO2
14926KSTC STC20050708004010107/08/05 00:40:31  5-MIN KSTC 080640Z AUTO 15007KT 10SM FEW090 22/18 A3001 950 78 2000 140/07 RMK AO2
14926KSTC STC20050708004510107/08/05 00:45:31  5-MIN KSTC 080645Z AUTO 15006KT 10SM FEW090 22/18 A3001 940 78 2000 150/06 RMK AO2
14926KSTC STC20050708005011807/08/05 00:50:31  5-MIN KSTC 080650Z AUTO 15006KT 10SM FEW090 21/18 A3002 940 81 1900 150/06 RMK AO2 SLP167 T02110178
14926KSTC STC20050708005509807/08/05 00:55:31  5-MIN KSTC 080655Z AUTO 15006KT 10SM CLR 21/18 A3002 940 81 1900 150/06 RMK AO2
14926KSTC STC20050708010009807/08/05 01:00:31  5-MIN KSTC 080700Z AUTO 15006KT 10SM CLR 21/18 A3001 940 81 1900 150/06 RMK AO2
14926KSTC STC20050708010510107/08/05 01:05:31  5-MIN KSTC 080705Z AUTO 16006KT 10SM FEW050 21/18 A3001 940 81 1900 150/06 RMK AO2
14926KSTC STC20050708011010107/08/05 01:10:31  5-MIN KSTC 080710Z AUTO 15006KT 10SM FEW050 22/18 A3001 940 78 2000 150/06 RMK AO2
14926KSTC STC20050708011510107/08/05 01:15:31  5-MIN KSTC 080715Z AUTO 16008KT 10SM FEW050 22/18 A3002 940 78 2000 160/08 RMK AO2
14926KSTC STC20050708012010107/08/05 01:20:31  5-MIN KSTC 080720Z AUTO 16007KT 10SM FEW050 22/18 A3002 940 78 2000 160/07 RMK AO2
14926KSTC STC20050708012510107/08/05 01:25:31  5-MIN KSTC 080725Z AUTO 16007KT 10SM FEW050 22/18 A3002 930 78 2000 160/07 RMK AO2
14926KSTC STC20050708013010107/08/05 01:30:31  5-MIN KSTC 080730Z AUTO 16007KT 10SM FEW050 22/18 A3003 930 78 2000 160/07 RMK AO2
14926KSTC STC20050708013510107/08/05 01:35:31  5-MIN KSTC 080735Z AUTO 16007KT 10SM FEW050 22/18 A3002 930 78 2000 160/07 RMK AO2
14926KSTC STC20050708014010107/08/05 01:40:31  5-MIN KSTC 080740Z AUTO 16008KT 10SM FEW050 22/18 A3002 930 78 2000 160/08 RMK AO2
14926KSTC STC20050708014510107/08/05 01:45:31  5-MIN KSTC 080745Z AUTO 16009KT 10SM FEW050 22/18 A3002 930 78 2000 150/09 RMK AO2
14926KSTC STC20050708015011507/08/05 01:50:31  5-MIN KSTC 080750Z AUTO 16008KT 10SM CLR 22/18 A3002 930 78 2000 150/08 RMK AO2 SLP167 T02170178
14926KSTC STC20050708015509807/08/05 01:55:31  5-MIN KSTC 080755Z AUTO 16008KT 10SM CLR 22/18 A3002 930 78 2000 150/08 RMK AO2
14926KSTC STC20050708020009807/08/05 02:00:31  5-MIN KSTC 080800Z AUTO 16007KT 10SM CLR 22/18 A3002 940 78 2000 160/07 RMK AO2
14926KSTC STC20050708020509807/08/05 02:05:31  5-MIN KSTC 080805Z AUTO 16007KT 10SM CLR 22/18 A3002 930 78 2000 160/07 RMK AO2
14926KSTC STC20050708021009807/08/05 02:10:31  5-MIN KSTC 080810Z AUTO 16008KT 10SM CLR 22/18 A3002 930 78 2000 160/08 RMK AO2
14926KSTC STC20050708021509807/08/05 02:15:31  5-MIN KSTC 080815Z AUTO 17007KT 10SM CLR 22/18 A3002 930 78 2000 170/07 RMK AO2
14926KSTC STC20050708022010107/08/05 02:20:31  5-MIN KSTC 080820Z AUTO 16008KT 10SM FEW100 22/18 A3002 940 78 2000 160/08 RMK AO2
14926KSTC STC20050708022510107/08/05 02:25:31  5-MIN KSTC 080825Z AUTO 16009KT 10SM FEW100 21/18 A3001 940 81 1900 150/09 RMK AO2
14926KSTC STC20050708023009807/08/05 02:30:31  5-MIN KSTC 080830Z AUTO 16008KT 10SM CLR 21/18 A3001 940 81 1900 160/08 RMK AO2
14926KSTC STC20050708023509807/08/05 02:35:31  5-MIN KSTC 080835Z AUTO 16009KT 10SM CLR 21/18 A3001 940 81 1900 160/09 RMK AO2
14926KSTC STC20050708024009807/08/05 02:40:31  5-MIN KSTC 080840Z AUTO 16008KT 10SM CLR 21/18 A3001 940 81 1900 160/08 RMK AO2
14926KSTC STC20050708024509807/08/05 02:45:31  5-MIN KSTC 080845Z AUTO 16008KT 10SM CLR 21/18 A3001 940 81 1900 160/08 RMK AO2
14926KSTC STC20050708025012107/08/05 02:50:31  5-MIN KSTC 080850Z AUTO 16008KT 10SM CLR 21/18 A3001 940 81 1900 160/08 RMK AO2 SLP165 T02110178 53002
14926KSTC STC20050708025509807/08/05 02:55:31  5-MIN KSTC 080855Z AUTO 17007KT 10SM CLR 21/17 A3002 940 78 1900 170/07 RMK AO2
14926KSTC STC20050708030009807/08/05 03:00:31  5-MIN KSTC 080900Z AUTO 17007KT 10SM CLR 21/17 A3002 940 78 1900 160/07 RMK AO2
14926KSTC STC20050708030509807/08/05 03:05:31  5-MIN KSTC 080905Z AUTO 17008KT 10SM CLR 21/17 A3002 930 78 1900 170/08 RMK AO2
14926KSTC STC20050708031009807/08/05 03:10:31  5-MIN KSTC 080910Z AUTO 18006KT 10SM CLR 21/17 A3003 930 78 1900 170/06 RMK AO2
14926KSTC STC20050708031509807/08/05 03:15:31  5-MIN KSTC 080915Z AUTO 17006KT 10SM CLR 21/17 A3002 930 78 1900 160/06 RMK AO2
14926KSTC STC20050708032009807/08/05 03:20:31  5-MIN KSTC 080920Z AUTO 17007KT 10SM CLR 21/17 A3002 930 78 1900 160/07 RMK AO2
14926KSTC STC20050708032509807/08/05 03:25:31  5-MIN KSTC 080925Z AUTO 16006KT 10SM CLR 21/17 A3002 930 81 1800 160/06 RMK AO2
14926KSTC STC20050708033009807/08/05 03:30:31  5-MIN KSTC 080930Z AUTO 16007KT 10SM CLR 21/17 A3002 930 81 1800 160/07 RMK AO2
14926KSTC STC20050708033509807/08/05 03:35:31  5-MIN KSTC 080935Z AUTO 16007KT 10SM CLR 21/17 A3002 930 81 1800 160/07 RMK AO2
14926KSTC STC20050708034009807/08/05 03:40:31  5-MIN KSTC 080940Z AUTO 16006KT 10SM CLR 21/17 A3002 930 81 1800 160/06 RMK AO2
14926KSTC STC20050708034509807/08/05 03:45:31  5-MIN KSTC 080945Z AUTO 16006KT 10SM CLR 21/17 A3002 930 81 1800 160/06 RMK AO2
14926KSTC STC20050708035011507/08/05 03:50:31  5-MIN KSTC 080950Z AUTO 16006KT 10SM CLR 21/17 A3003 930 81 1800 160/06 RMK AO2 SLP170 T02060172
14926KSTC STC20050708103511807/08/05 10:35:31  5-MIN KSTC 081635Z 16018G24KT 10SM CLR 24/19 A2991 1040 73 2300 160/18G24 RMK AO2 PK WND 16027/1610
14926KSTC STC20050708104011807/08/05 10:40:31  5-MIN KSTC 081640Z 16012G24KT 10SM CLR 24/19 A2992 1030 71 2400 160/12G24 RMK AO2 PK WND 16027/1610
14926KSTC STC20050708104512507/08/05 10:45:31  5-MIN KSTC 081645Z 18013G18KT 10SM CLR 24/19 A2993 1020 71 2400 180/13G18 RMK AO2 PK WND 16027/1610 PRESRR
14926KSTC STC20050708105014207/08/05 10:50:31  5-MIN KSTC 081650Z 18011G18KT 10SM CLR 24/19 A2994 1010 71 2400 180/11G18 RMK AO2 PK WND 16027/1610 PRESRR SLP139 T02440189
14926KSTC STC20050708105509407/08/05 10:55:31  5-MIN KSTC 081655Z 17008KT 10SM CLR 24/19 A2994 1010 71 2400 170/08 RMK AO2
14926KSTC STC20050708110009407/08/05 11:00:31  5-MIN KSTC 081700Z 17010KT 10SM CLR 24/19 A2994 1010 71 2400 170/10 RMK AO2
14926KSTC STC20050708110510407/08/05 11:05:31  5-MIN KSTC 081705Z 16005KT 10SM FEW120 24/19 A2995 1000 71 2400 160/05 RMK AO2 PRESRR
14926KSTC STC20050708111009607/08/05 11:10:31  5-MIN KSTC 081710Z 18006KT 10SM FEW120 24/19 A2995 990 71 2400 170/06 RMK AO2
14926KSTC STC20050708111509607/08/05 11:15:31  5-MIN KSTC 081715Z 16007KT 10SM FEW120 24/19 A2996 990 71 2400 160/07 RMK AO2
14926KSTC STC20050708112009607/08/05 11:20:31  5-MIN KSTC 081720Z 16005KT 10SM FEW120 25/19 A2996 990 68 2400 160/05 RMK AO2
14926KSTC STC20050708112509607/08/05 11:25:31  5-MIN KSTC 081725Z 19007KT 10SM FEW120 25/19 A2996 990 68 2400 190/07 RMK AO2
14926KSTC STC20050708113009607/08/05 11:30:31  5-MIN KSTC 081730Z 20011KT 10SM FEW120 25/19 A2996 990 68 2400 200/11 RMK AO2
14926KSTC STC20050708113509307/08/05 11:35:31  5-MIN KSTC 081735Z 19009KT 10SM CLR 26/19 A2997 980 66 2500 180/09 RMK AO2
14926KSTC STC20050708114009307/08/05 11:40:31  5-MIN KSTC 081740Z 20009KT 10SM CLR 26/19 A2997 980 66 2500 200/09 RMK AO2
14926KSTC STC20050708114509607/08/05 11:45:31  5-MIN KSTC 081745Z 19008KT 10SM FEW024 26/19 A2997 980 66 2500 190/08 RMK AO2
14926KSTC STC20050708115013107/08/05 11:50:31  5-MIN KSTC 081750Z 18012KT 10SM FEW022 26/19 A2997 980 66 2500 180/12 RMK AO2 SLP152 T02610194 10267 20206 58007
14926KSTC STC20050708115509607/08/05 11:55:31  5-MIN KSTC 081755Z 20009KT 10SM FEW022 26/19 A2997 980 66 2500 200/09 RMK AO2
14926KSTC STC20050708120009607/08/05 12:00:31  5-MIN KSTC 081800Z 20011KT 10SM FEW022 26/19 A2997 980 66 2500 200/11 RMK AO2
14926KSTC STC20050708120509607/08/05 12:05:31  5-MIN KSTC 081805Z 17009KT 10SM FEW022 26/19 A2997 980 66 2500 160/09 RMK AO2
14926KSTC STC20050708121009607/08/05 12:10:31  5-MIN KSTC 081810Z 19007KT 10SM FEW022 26/19 A2997 980 64 2500 180/07 RMK AO2
14926KSTC STC20050708121509607/08/05 12:15:31  5-MIN KSTC 081815Z 18008KT 10SM FEW022 26/19 A2997 980 66 2500 170/08 RMK AO2
14926KSTC STC20050708122009307/08/05 12:20:31  5-MIN KSTC 081820Z 16009KT 10SM CLR 26/19 A2997 980 66 2500 160/09 RMK AO2
14926KSTC STC20050708122509607/08/05 12:25:31  5-MIN KSTC 081825Z 18007KT 10SM FEW120 26/19 A2997 980 66 2500 170/07 RMK AO2
14926KSTC STC20050708123009607/08/05 12:30:31  5-MIN KSTC 081830Z 17009KT 10SM FEW120 26/19 A2997 980 66 2500 160/09 RMK AO2
14926KSTC STC20050708123509607/08/05 12:35:31  5-MIN KSTC 081835Z 17009KT 10SM FEW120 26/19 A2997 980 66 2500 170/09 RMK AO2
14926KSTC STC20050708124009607/08/05 12:40:31  5-MIN KSTC 081840Z 19008KT 10SM FEW120 26/19 A2997 980 66 2500 190/08 RMK AO2
14926KSTC STC20050708124509607/08/05 12:45:31  5-MIN KSTC 081845Z 18008KT 10SM FEW120 26/19 A2997 980 64 2500 180/08 RMK AO2
14926KSTC STC20050708125012907/08/05 12:50:31  5-MIN KSTC 081850Z 18008KT 150V210 10SM FEW120 26/19 A2997 980 64 2500 180/08 150V210 RMK AO2 SLP152 T02610189
14926KSTC STC20050708125509307/08/05 12:55:31  5-MIN KSTC 081855Z 20009KT 10SM CLR 26/19 A2997 980 64 2500 200/09 RMK AO2
14926KSTC STC20050708130009307/08/05 13:00:31  5-MIN KSTC 081900Z 17008KT 10SM CLR 26/19 A2997 980 64 2500 170/08 RMK AO2
14926KSTC STC20050708130509307/08/05 13:05:31  5-MIN KSTC 081905Z 19009KT 10SM CLR 27/19 A2998 970 64 2600 190/09 RMK AO2
14926KSTC STC20050708131009307/08/05 13:10:31  5-MIN KSTC 081910Z 18009KT 10SM CLR 27/19 A2998 970 60 2600 180/09 RMK AO2
14926KSTC STC20050708131509307/08/05 13:15:31  5-MIN KSTC 081915Z 18008KT 10SM CLR 27/19 A2998 970 60 2600 170/08 RMK AO2
14926KSTC STC20050708132009307/08/05 13:20:31  5-MIN KSTC 081920Z 20009KT 10SM CLR 27/19 A2998 970 62 2600 200/09 RMK AO2
14926KSTC STC20050708132509607/08/05 13:25:31  5-MIN KSTC 081925Z 18007KT 10SM FEW110 26/18 A2998 970 62 2500 180/07 RMK AO2
14926KSTC STC20050708133009607/08/05 13:30:31  5-MIN KSTC 081930Z 19010KT 10SM FEW110 26/18 A2998 970 62 2500 180/10 RMK AO2
14926KSTC STC20050708133509607/08/05 13:35:31  5-MIN KSTC 081935Z 19009KT 10SM FEW110 26/18 A2998 970 62 2500 190/09 RMK AO2
14926KSTC STC20050708134009607/08/05 13:40:31  5-MIN KSTC 081940Z 18009KT 10SM FEW110 27/19 A2998 970 60 2600 180/09 RMK AO2
14926KSTC STC20050708134509607/08/05 13:45:31  5-MIN KSTC 081945Z 19007KT 10SM FEW110 27/19 A2999 970 60 2600 190/07 RMK AO2
14926KSTC STC20050708135011307/08/05 13:50:31  5-MIN KSTC 081950Z 18008KT 10SM FEW110 27/19 A2999 960 60 2600 170/08 RMK AO2 SLP157 T02720189
14926KSTC STC20050708135509607/08/05 13:55:31  5-MIN KSTC 081955Z 18009KT 10SM FEW110 27/19 A2999 960 60 2600 170/09 RMK AO2
14926KSTC STC20050708140009607/08/05 14:00:31  5-MIN KSTC 082000Z 19010KT 10SM FEW110 27/19 A2999 960 60 2600 180/10 RMK AO2
14926KSTC STC20050708140509607/08/05 14:05:31  5-MIN KSTC 082005Z 19010KT 10SM FEW110 27/18 A2999 960 60 2600 180/10 RMK AO2
14926KSTC STC20050708141009607/08/05 14:10:31  5-MIN KSTC 082010Z 19010KT 10SM FEW110 27/18 A2999 960 58 2600 190/10 RMK AO2
14926KSTC STC20050708141509607/08/05 14:15:31  5-MIN KSTC 082015Z 18009KT 10SM FEW110 27/18 A2999 960 58 2600 180/09 RMK AO2
14926KSTC STC20050708142011207/08/05 14:20:31  5-MIN KSTC 082020Z 22008KT 180V250 10SM FEW110 27/18 A2999 970 58 2600 210/08 180V250 RMK AO2
14926KSTC STC20050708142509607/08/05 14:25:31  5-MIN KSTC 082025Z 19010KT 10SM FEW110 27/19 A2999 960 60 2600 190/10 RMK AO2
14926KSTC STC20050708143009607/08/05 14:30:31  5-MIN KSTC 082030Z 18006KT 10SM FEW110 27/19 A2999 960 62 2600 180/06 RMK AO2
14926KSTC STC20050708143509307/08/05 14:35:31  5-MIN KSTC 082035Z 19010KT 10SM CLR 27/19 A2998 970 60 2600 190/10 RMK AO2
14926KSTC STC20050708144009607/08/05 14:40:31  5-MIN KSTC 082040Z 19006KT 10SM FEW110 27/18 A2998 970 60 2600 190/06 RMK AO2
14926KSTC STC20050708144509607/08/05 14:45:31  5-MIN KSTC 082045Z 19006KT 10SM FEW110 27/19 A2998 970 62 2600 190/06 RMK AO2
14926KSTC STC20050708145011907/08/05 14:50:31  5-MIN KSTC 082050Z 18007KT 10SM FEW110 27/19 A2998 970 62 2600 180/07 RMK AO2 SLP154 T02670189 55004
14926KSTC STC20050708145509607/08/05 14:55:31  5-MIN KSTC 082055Z 16008KT 10SM SCT110 27/18 A2998 970 60 2600 160/08 RMK AO2
14926KSTC STC20050708150009607/08/05 15:00:31  5-MIN KSTC 082100Z 18006KT 10SM FEW110 27/19 A2998 970 62 2600 180/06 RMK AO2
14926KSTC STC20050708150509607/08/05 15:05:31  5-MIN KSTC 082105Z 17007KT 10SM FEW110 27/18 A2998 970 60 2600 160/07 RMK AO2
14926KSTC STC20050708151009607/08/05 15:10:31  5-MIN KSTC 082110Z 18006KT 10SM FEW110 27/18 A2998 970 60 2600 170/06 RMK AO2
14926KSTC STC20050708151509607/08/05 15:15:31  5-MIN KSTC 082115Z 17006KT 10SM FEW110 27/18 A2998 970 60 2600 160/06 RMK AO2
14926KSTC STC20050708152009607/08/05 15:20:31  5-MIN KSTC 082120Z 16006KT 10SM SCT110 27/18 A2998 970 60 2600 160/06 RMK AO2
14926KSTC STC20050708152509607/08/05 15:25:31  5-MIN KSTC 082125Z 16007KT 10SM SCT110 27/18 A2998 970 58 2600 150/07 RMK AO2
14926KSTC STC20050708153009607/08/05 15:30:31  5-MIN KSTC 082130Z 16007KT 10SM SCT110 27/18 A2998 970 60 2600 160/07 RMK AO2
14926KSTC STC20050708153509607/08/05 15:35:31  5-MIN KSTC 082135Z 17006KT 10SM SCT110 27/18 A2998 970 60 2600 170/06 RMK AO2
14926KSTC STC20050708154009607/08/05 15:40:31  5-MIN KSTC 082140Z 17006KT 10SM BKN100 27/18 A2998 970 60 2600 170/06 RMK AO2
14926KSTC STC20050708154509607/08/05 15:45:31  5-MIN KSTC 082145Z 16005KT 10SM BKN100 26/18 A2998 970 62 2500 160/05 RMK AO2
14926KSTC STC20050708155011307/08/05 15:50:31  5-MIN KSTC 082150Z 17007KT 10SM BKN110 27/19 A2998 970 62 2600 170/07 RMK AO2 SLP154 T02670189
14926KSTC STC20050708155509607/08/05 15:55:31  5-MIN KSTC 082155Z 17007KT 10SM BKN110 27/18 A2998 970 60 2600 170/07 RMK AO2
14926KSTC STC20050708160009607/08/05 16:00:31  5-MIN KSTC 082200Z 17008KT 10SM BKN110 27/18 A2998 970 60 2600 160/08 RMK AO2
14926KSTC STC20050708160509607/08/05 16:05:31  5-MIN KSTC 082205Z 17008KT 10SM BKN110 26/18 A2998 970 62 2500 160/08 RMK AO2
14926KSTC STC20050708161009607/08/05 16:10:31  5-MIN KSTC 082210Z 17007KT 10SM SCT110 27/18 A2998 980 60 2600 170/07 RMK AO2
14926KSTC STC20050708161509607/08/05 16:15:31  5-MIN KSTC 082215Z 17008KT 10SM SCT110 27/18 A2998 970 60 2600 170/08 RMK AO2
14926KSTC STC20050708162009607/08/05 16:20:31  5-MIN KSTC 082220Z 17007KT 10SM SCT110 27/19 A2997 980 62 2600 170/07 RMK AO2
14926KSTC STC20050708162509607/08/05 16:25:31  5-MIN KSTC 082225Z 16007KT 10SM FEW110 26/18 A2997 980 62 2500 160/07 RMK AO2
14926KSTC STC20050708163009607/08/05 16:30:31  5-MIN KSTC 082230Z 18008KT 10SM FEW110 26/18 A2998 980 62 2500 180/08 RMK AO2
14926KSTC STC20050708163509607/08/05 16:35:31  5-MIN KSTC 082235Z 17006KT 10SM SCT100 27/18 A2998 980 60 2600 170/06 RMK AO2
14926KSTC STC20050708164009607/08/05 16:40:31  5-MIN KSTC 082240Z 18008KT 10SM BKN100 27/18 A2998 980 60 2600 180/08 RMK AO2
14926KSTC STC20050708164509607/08/05 16:45:31  5-MIN KSTC 082245Z 17008KT 10SM BKN100 27/19 A2998 980 62 2600 170/08 RMK AO2
14926KSTC STC20050708165011307/08/05 16:50:31  5-MIN KSTC 082250Z 17008KT 10SM BKN100 27/18 A2997 980 60 2600 160/08 RMK AO2 SLP153 T02670183
14926KSTC STC20050708165509607/08/05 16:55:31  5-MIN KSTC 082255Z 18008KT 10SM BKN100 27/18 A2997 980 60 2600 170/08 RMK AO2
14926KSTC STC20050708170009607/08/05 17:00:31  5-MIN KSTC 082300Z 17009KT 10SM BKN110 27/18 A2997 980 60 2600 160/09 RMK AO2
14926KSTC STC20050708170509607/08/05 17:05:31  5-MIN KSTC 082305Z 16009KT 10SM SCT110 27/18 A2997 980 58 2600 150/09 RMK AO2
14926KSTC STC20050708171009607/08/05 17:10:31  5-MIN KSTC 082310Z 18008KT 10SM SCT110 27/18 A2997 980 60 2600 170/08 RMK AO2
14926KSTC STC20050708171509607/08/05 17:15:31  5-MIN KSTC 082315Z 16008KT 10SM FEW110 27/18 A2997 980 58 2600 160/08 RMK AO2
14926KSTC STC20050708172009607/08/05 17:20:31  5-MIN KSTC 082320Z 16009KT 10SM FEW110 27/18 A2997 980 60 2600 160/09 RMK AO2
14926KSTC STC20050708172509607/08/05 17:25:31  5-MIN KSTC 082325Z 19009KT 10SM FEW110 27/18 A2997 980 60 2600 190/09 RMK AO2
14926KSTC STC20050708173009607/08/05 17:30:31  5-MIN KSTC 082330Z 17006KT 10SM FEW110 27/18 A2997 980 60 2600 160/06 RMK AO2
14926KSTC STC20050708173509307/08/05 17:35:31  5-MIN KSTC 082335Z 18007KT 10SM CLR 27/18 A2998 970 58 2600 180/07 RMK AO2
14926KSTC STC20050708174009307/08/05 17:40:31  5-MIN KSTC 082340Z 16006KT 10SM CLR 27/19 A2998 970 60 2600 160/06 RMK AO2
14926KSTC STC20050708174509607/08/05 17:45:31  5-MIN KSTC 082345Z 16008KT 10SM FEW095 27/19 A2998 970 62 2600 160/08 RMK AO2
14926KSTC STC20050708175013107/08/05 17:50:31  5-MIN KSTC 082350Z 16007KT 10SM FEW095 27/19 A2998 970 62 2600 160/07 RMK AO2 SLP153 T02670189 10278 20256 50002
14926KSTC STC20050708175509307/08/05 17:55:31  5-MIN KSTC 082355Z 17008KT 10SM CLR 27/19 A2998 970 62 2600 170/08 RMK AO2
14926KSTC STC20050708180009307/08/05 18:00:31  5-MIN KSTC 090000Z 18007KT 10SM CLR 26/19 A2998 970 64 2500 180/07 RMK AO2
14926KSTC STC20050708180509307/08/05 18:05:31  5-MIN KSTC 090005Z 17007KT 10SM CLR 26/19 A2998 980 64 2500 160/07 RMK AO2
14926KSTC STC20050708181009607/08/05 18:10:31  5-MIN KSTC 090010Z 16007KT 10SM FEW100 26/18 A2997 980 62 2500 160/07 RMK AO2
14926KSTC STC20050708181509607/08/05 18:15:31  5-MIN KSTC 090015Z 16008KT 10SM SCT100 26/19 A2997 980 64 2500 160/08 RMK AO2
14926KSTC STC20050708182009607/08/05 18:20:31  5-MIN KSTC 090020Z 16007KT 10SM SCT095 26/19 A2998 980 64 2500 160/07 RMK AO2
14926KSTC STC20050708182509607/08/05 18:25:31  5-MIN KSTC 090025Z 17006KT 10SM SCT100 26/19 A2998 980 64 2500 170/06 RMK AO2
14926KSTC STC20050708183009607/08/05 18:30:31  5-MIN KSTC 090030Z 16007KT 10SM SCT100 26/19 A2998 980 64 2500 160/07 RMK AO2
14926KSTC STC20050708183509607/08/05 18:35:31  5-MIN KSTC 090035Z 17007KT 10SM SCT100 26/19 A2997 980 64 2500 170/07 RMK AO2
14926KSTC STC20050708184009607/08/05 18:40:31  5-MIN KSTC 090040Z 17007KT 10SM SCT100 26/19 A2997 980 64 2500 170/07 RMK AO2
14926KSTC STC20050708184509607/08/05 18:45:31  5-MIN KSTC 090045Z 17008KT 10SM SCT095 26/19 A2997 980 64 2500 160/08 RMK AO2
14926KSTC STC20050708185011307/08/05 18:50:31  5-MIN KSTC 090050Z 17006KT 10SM BKN100 26/19 A2997 980 66 2500 170/06 RMK AO2 SLP151 T02610194
14926KSTC STC20050708185510307/08/05 18:55:31  5-MIN KSTC 090055Z 17006KT 10SM BKN100 BKN110 26/19 A2997 980 68 2500 160/06 RMK AO2
14926KSTC STC20050708190009607/08/05 19:00:31  5-MIN KSTC 090100Z 17004KT 10SM SCT095 26/19 A2997 980 66 2500 160/04 RMK AO2
14926KSTC STC20050708190509607/08/05 19:05:31  5-MIN KSTC 090105Z 16006KT 10SM BKN095 26/19 A2997 980 66 2500 160/06 RMK AO2
14926KSTC STC20050708191010307/08/05 19:10:31  5-MIN KSTC 090110Z 17005KT 10SM BKN100 BKN110 26/19 A2997 980 66 2500 160/05 RMK AO2
14926KSTC STC20050708191509607/08/05 19:15:31  5-MIN KSTC 090115Z 17006KT 10SM BKN100 26/19 A2997 980 66 2500 160/06 RMK AO2
14926KSTC STC20050708192009607/08/05 19:20:31  5-MIN KSTC 090120Z 17006KT 10SM SCT100 25/19 A2997 980 71 2400 160/06 RMK AO2
14926KSTC STC20050708192509607/08/05 19:25:31  5-MIN KSTC 090125Z 16006KT 10SM SCT100 25/19 A2997 980 71 2400 160/06 RMK AO2
14926KSTC STC20050708193009607/08/05 19:30:31  5-MIN KSTC 090130Z 16005KT 10SM BKN100 25/19 A2997 980 71 2400 160/05 RMK AO2
14926KSTC STC20050708193510307/08/05 19:35:31  5-MIN KSTC 090135Z 16005KT 10SM SCT100 SCT110 25/19 A2997 980 71 2400 160/05 RMK AO2
14926KSTC STC20050708194009607/08/05 19:40:31  5-MIN KSTC 090140Z 15005KT 10SM SCT095 25/19 A2997 980 71 2400 150/05 RMK AO2
14926KSTC STC20050708194509607/08/05 19:45:31  5-MIN KSTC 090145Z 15006KT 10SM SCT095 24/19 A2997 980 73 2300 150/06 RMK AO2
14926KSTC STC20050708195011307/08/05 19:50:31  5-MIN KSTC 090150Z 15005KT 10SM SCT095 24/19 A2997 980 73 2300 150/05 RMK AO2 SLP151 T02440194
14926KSTC STC20050708195509607/08/05 19:55:31  5-MIN KSTC 090155Z 15004KT 10SM SCT095 24/19 A2997 980 73 2300 150/04 RMK AO2
14926KSTC STC20050708200009607/08/05 20:00:31  5-MIN KSTC 090200Z 16004KT 10SM SCT095 24/19 A2997 980 76 2300 160/04 RMK AO2
14926KSTC STC20050708200509607/08/05 20:05:31  5-MIN KSTC 090205Z 16004KT 10SM BKN095 24/19 A2997 980 76 2300 160/04 RMK AO2
14926KSTC STC20050708201009607/08/05 20:10:31  5-MIN KSTC 090210Z 15003KT 10SM BKN095 23/19 A2997 980 78 2200 150/03 RMK AO2
14926KSTC STC20050708201509607/08/05 20:15:31  5-MIN KSTC 090215Z 17004KT 10SM BKN095 23/19 A2997 980 78 2200 160/04 RMK AO2
14926KSTC STC20050708202009607/08/05 20:20:31  5-MIN KSTC 090220Z 17005KT 10SM BKN095 23/19 A2997 980 78 2200 170/05 RMK AO2
14926KSTC STC20050708202509607/08/05 20:25:31  5-MIN KSTC 090225Z 17006KT 10SM OVC095 23/19 A2997 980 78 2200 170/06 RMK AO2
14926KSTC STC20050708203009607/08/05 20:30:31  5-MIN KSTC 090230Z 17005KT 10SM OVC095 23/19 A2997 980 78 2200 170/05 RMK AO2
14926KSTC STC20050708203509607/08/05 20:35:31  5-MIN KSTC 090235Z 17005KT 10SM OVC095 23/19 A2997 980 78 2200 170/05 RMK AO2
14926KSTC STC20050708204009607/08/05 20:40:31  5-MIN KSTC 090240Z 15005KT 10SM OVC095 23/19 A2997 980 78 2200 150/05 RMK AO2
14926KSTC STC20050708204509607/08/05 20:45:31  5-MIN KSTC 090245Z 14005KT 10SM OVC095 23/19 A2998 970 81 2100 130/05 RMK AO2
14926KSTC STC20050708205011907/08/05 20:50:31  5-MIN KSTC 090250Z 13004KT 10SM BKN095 23/19 A2998 970 78 2200 130/04 RMK AO2 SLP155 T02330194 55001
14926KSTC STC20050708205509607/08/05 20:55:31  5-MIN KSTC 090255Z 14004KT 10SM BKN095 23/19 A2998 970 81 2100 140/04 RMK AO2
14926KSTC STC20050708210009607/08/05 21:00:31  5-MIN KSTC 090300Z 16005KT 10SM SCT095 23/19 A2998 970 81 2100 150/05 RMK AO2
14926KSTC STC20050708210509607/08/05 21:05:31  5-MIN KSTC 090305Z 16005KT 10SM BKN095 22/19 A2998 970 84 2100 160/05 RMK AO2
14926KSTC STC20050708211009607/08/05 21:10:31  5-MIN KSTC 090310Z 17005KT 10SM BKN095 22/19 A2998 970 84 2100 160/05 RMK AO2
14926KSTC STC20050708211509607/08/05 21:15:31  5-MIN KSTC 090315Z 16005KT 10SM BKN095 22/19 A2998 970 84 2100 160/05 RMK AO2
14926KSTC STC20050708212009607/08/05 21:20:31  5-MIN KSTC 090320Z 18005KT 10SM BKN095 22/19 A2998 970 84 2100 170/05 RMK AO2
14926KSTC STC20050708212509607/08/05 21:25:31  5-MIN KSTC 090325Z 17005KT 10SM BKN095 22/19 A2998 970 84 2100 160/05 RMK AO2
14926KSTC STC20050708213009607/08/05 21:30:31  5-MIN KSTC 090330Z 18004KT 10SM BKN090 22/19 A2998 970 84 2100 180/04 RMK AO2
14926KSTC STC20050708213510107/08/05 21:35:31  5-MIN KSTC 090335Z AUTO 15005KT 10SM BKN090 22/19 A2998 970 84 2100 150/05 RMK AO2
14926KSTC STC20050708214010107/08/05 21:40:31  5-MIN KSTC 090340Z AUTO 17004KT 10SM SCT090 22/19 A2998 970 87 2000 160/04 RMK AO2
14926KSTC STC20050708214510107/08/05 21:45:31  5-MIN KSTC 090345Z AUTO 17004KT 10SM SCT090 22/19 A2998 970 87 2000 160/04 RMK AO2
14926KSTC STC20050708215011707/08/05 21:50:31  5-MIN KSTC 090350Z AUTO 16005KT 9SM FEW090 21/19 A2998 970 90 1900 160/05 RMK AO2 SLP155 T02110194
14926KSTC STC20050708215509707/08/05 21:55:31  5-MIN KSTC 090355Z AUTO 17005KT 9SM CLR 22/19 A2998 970 87 2000 170/05 RMK AO2
14926KSTC STC20050708220009707/08/05 22:00:31  5-MIN KSTC 090400Z AUTO 16004KT 9SM CLR 22/19 A2998 970 87 2000 160/04 RMK AO2
14926KSTC STC20050708220509707/08/05 22:05:31  5-MIN KSTC 090405Z AUTO 16005KT 9SM CLR 21/19 A2998 970 90 1900 160/05 RMK AO2
14926KSTC STC20050708221009707/08/05 22:10:31  5-MIN KSTC 090410Z AUTO 18005KT 9SM CLR 21/19 A2999 970 90 1900 180/05 RMK AO2
14926KSTC STC20050708221509707/08/05 22:15:31  5-MIN KSTC 090415Z AUTO 18004KT 9SM CLR 21/19 A2999 970 90 1900 180/04 RMK AO2
14926KSTC STC20050708222009707/08/05 22:20:31  5-MIN KSTC 090420Z AUTO 17004KT 9SM CLR 21/19 A2999 970 87 1900 160/04 RMK AO2
14926KSTC STC20050708222509707/08/05 22:25:31  5-MIN KSTC 090425Z AUTO 18003KT 8SM CLR 21/19 A2999 960 87 1900 180/03 RMK AO2
14926KSTC STC20050708223009707/08/05 22:30:31  5-MIN KSTC 090430Z AUTO 15003KT 8SM CLR 21/19 A2999 970 87 1900 150/03 RMK AO2
14926KSTC STC20050708223509707/08/05 22:35:31  5-MIN KSTC 090435Z AUTO 14003KT 8SM CLR 21/19 A2999 960 90 1900 130/03 RMK AO2
14926KSTC STC20050708224009707/08/05 22:40:31  5-MIN KSTC 090440Z AUTO 00000KT 8SM CLR 21/19 A2999 960 90 1900 000/00 RMK AO2
14926KSTC STC20050708224509707/08/05 22:45:31  5-MIN KSTC 090445Z AUTO 00000KT 8SM CLR 21/19 A2999 960 90 1900 000/00 RMK AO2
14926KSTC STC20050708225011407/08/05 22:50:31  5-MIN KSTC 090450Z AUTO 00000KT 8SM CLR 21/19 A2999 960 90 1900 000/00 RMK AO2 SLP158 T02060189
14926KSTC STC20050708225509707/08/05 22:55:31  5-MIN KSTC 090455Z AUTO 00000KT 7SM CLR 21/19 A2999 960 90 1900 000/00 RMK AO2
14926KSTC STC20050708230010007/08/05 23:00:31  5-MIN KSTC 090500Z AUTO 00000KT 6SM BR CLR 20/19 A2999 960 93 1800 000/00 RMK AO2
14926KSTC STC20050708230510007/08/05 23:05:31  5-MIN KSTC 090505Z AUTO 00000KT 5SM BR CLR 20/19 A2999 960 93 1800 000/00 RMK AO2
14926KSTC STC20050708231010007/08/05 23:10:31  5-MIN KSTC 090510Z AUTO 00000KT 5SM BR CLR 19/18 A2999 960 93 1700 000/00 RMK AO2
14926KSTC STC20050708231510307/08/05 23:15:31  5-MIN KSTC 090515Z AUTO 00000KT 4SM BR FEW090 19/18 A2999 960 93 1700 000/00 RMK AO2
14926KSTC STC20050708232010307/08/05 23:20:31  5-MIN KSTC 090520Z AUTO 00000KT 5SM BR SCT090 20/19 A2999 960 93 1800 000/00 RMK AO2
14926KSTC STC20050708232510307/08/05 23:25:31  5-MIN KSTC 090525Z AUTO 14003KT 6SM BR BKN090 20/18 A2999 960 90 1800 140/03 RMK AO2
14926KSTC STC20050708233010307/08/05 23:30:31  5-MIN KSTC 090530Z AUTO 14003KT 6SM BR SCT090 20/18 A2999 960 90 1800 140/03 RMK AO2
14926KSTC STC20050708233510307/08/05 23:35:31  5-MIN KSTC 090535Z AUTO 15003KT 6SM BR SCT090 19/18 A2999 960 93 1700 150/03 RMK AO2
14926KSTC STC20050708234010307/08/05 23:40:31  5-MIN KSTC 090540Z AUTO 15003KT 5SM BR SCT090 19/18 A2999 960 93 1700 150/03 RMK AO2
14926KSTC STC20050708234510307/08/05 23:45:31  5-MIN KSTC 090545Z AUTO 16003KT 5SM BR FEW090 19/18 A2999 960 93 1700 150/03 RMK AO2
14926KSTC STC20050708235014507/08/05 23:50:31  5-MIN KSTC 090550Z AUTO 15003KT 4SM BR CLR 19/18 A2999 960 97 1700 140/03 RMK AO2 SLP159 T01890183 10267 20189 402780189 53000
14926KSTC STC20050708235510007/08/05 23:55:31  5-MIN KSTC 090555Z AUTO 14004KT 4SM BR CLR 19/18 A2999 960 93 1700 140/04 RMK AO2
14926KSTC STC20050709000010007/09/05 00:00:32  5-MIN KSTC 090600Z AUTO 15004KT 4SM BR CLR 19/18 A2999 960 93 1700 150/04 RMK AO2
14926KSTC STC20050709000510007/09/05 00:05:31  5-MIN KSTC 090605Z AUTO 15004KT 4SM BR CLR 19/18 A2999 960 93 1700 150/04 RMK AO2
14926KSTC STC20050709001010007/09/05 00:10:31  5-MIN KSTC 090610Z AUTO 14005KT 4SM BR CLR 19/18 A2999 960 97 1700 140/05 RMK AO2
14926KSTC STC20050709001510007/09/05 00:15:31  5-MIN KSTC 090615Z AUTO 14004KT 4SM BR CLR 19/19 A2999 960 97 1700 140/04 RMK AO2
14926KSTC STC20050709002010007/09/05 00:20:31  5-MIN KSTC 090620Z AUTO 14004KT 4SM BR CLR 19/19 A2999 960 97 1700 140/04 RMK AO2
14926KSTC STC20050709002510007/09/05 00:25:31  5-MIN KSTC 090625Z AUTO 15004KT 3SM BR CLR 19/18 A2999 960 97 1700 150/04 RMK AO2
14926KSTC STC20050709003010007/09/05 00:30:31  5-MIN KSTC 090630Z AUTO 16004KT 3SM BR CLR 19/18 A2999 960 97 1700 150/04 RMK AO2
14926KSTC STC20050709003510007/09/05 00:35:31  5-MIN KSTC 090635Z AUTO 16005KT 3SM BR CLR 19/18 A2999 960 97 1700 160/05 RMK AO2
14926KSTC STC20050709004010007/09/05 00:40:31  5-MIN KSTC 090640Z AUTO 16004KT 3SM BR CLR 19/18 A2999 960 93 1700 160/04 RMK AO2
14926KSTC STC20050709004510007/09/05 00:45:31  5-MIN KSTC 090645Z AUTO 17004KT 3SM BR CLR 19/18 A2999 960 93 1700 160/04 RMK AO2
14926KSTC STC20050709005011707/09/05 00:50:31  5-MIN KSTC 090650Z AUTO 17004KT 3SM BR CLR 19/18 A2999 960 97 1700 160/04 RMK AO2 SLP159 T01890183
14926KSTC STC20050709005510007/09/05 00:55:31  5-MIN KSTC 090655Z AUTO 15003KT 4SM BR CLR 19/18 A2999 960 93 1700 150/03 RMK AO2
14926KSTC STC20050709010010007/09/05 01:00:31  5-MIN KSTC 090700Z AUTO 14004KT 5SM BR CLR 19/18 A2999 960 93 1700 140/04 RMK AO2
14926KSTC STC20050709010510007/09/05 01:05:31  5-MIN KSTC 090705Z AUTO 13003KT 5SM BR CLR 20/19 A2999 960 93 1800 130/03 RMK AO2
14926KSTC STC20050709011010007/09/05 01:10:31  5-MIN KSTC 090710Z AUTO 00000KT 5SM BR CLR 19/18 A2999 960 93 1700 000/00 RMK AO2
14926KSTC STC20050709011510007/09/05 01:15:31  5-MIN KSTC 090715Z AUTO 15003KT 5SM BR CLR 19/18 A2999 960 93 1700 150/03 RMK AO2
14926KSTC STC20050709012010007/09/05 01:20:31  5-MIN KSTC 090720Z AUTO 16003KT 4SM BR CLR 18/18 A2999 960 96 1600 160/03 RMK AO2
14926KSTC STC20050709012510007/09/05 01:25:31  5-MIN KSTC 090725Z AUTO 17004KT 3SM BR CLR 19/18 A2999 960 93 1700 170/04 RMK AO2
14926KSTC STC20050709013010007/09/05 01:30:31  5-MIN KSTC 090730Z AUTO 00000KT 3SM BR CLR 18/18 A2999 960 96 1600 000/00 RMK AO2
14926KSTC STC20050709013510007/09/05 01:35:31  5-MIN KSTC 090735Z AUTO 00000KT 3SM BR CLR 18/18 A2999 960 96 1600 000/00 RMK AO2
14926KSTC STC20050709014010007/09/05 01:40:31  5-MIN KSTC 090740Z AUTO 14004KT 2SM BR CLR 18/18 A2999 960 96 1600 140/04 RMK AO2
14926KSTC STC20050709014510007/09/05 01:45:31  5-MIN KSTC 090745Z AUTO 15003KT 2SM BR CLR 18/18 A2999 960 96 1600 150/03 RMK AO2
14926KSTC STC20050709015011707/09/05 01:50:31  5-MIN KSTC 090750Z AUTO 15003KT 3SM BR CLR 19/18 A2999 960 93 1700 150/03 RMK AO2 SLP159 T01890178
14926KSTC STC20050709015510007/09/05 01:55:31  5-MIN KSTC 090755Z AUTO 14003KT 3SM BR CLR 19/18 A2999 960 97 1700 140/03 RMK AO2
14926KSTC STC20050709020010007/09/05 02:00:31  5-MIN KSTC 090800Z AUTO 14003KT 3SM BR CLR 19/18 A2999 960 97 1700 140/03 RMK AO2
14926KSTC STC20050709020510007/09/05 02:05:31  5-MIN KSTC 090805Z AUTO 15003KT 3SM BR CLR 19/18 A2999 960 97 1700 150/03 RMK AO2
14926KSTC STC20050709021010007/09/05 02:10:31  5-MIN KSTC 090810Z AUTO 15004KT 3SM BR CLR 19/18 A2999 960 97 1700 150/04 RMK AO2
14926KSTC STC20050709021510007/09/05 02:15:31  5-MIN KSTC 090815Z AUTO 14004KT 3SM BR CLR 18/18 A2999 960 96 1600 140/04 RMK AO2
14926KSTC STC20050709022010007/09/05 02:20:31  5-MIN KSTC 090820Z AUTO 14004KT 3SM BR CLR 19/18 A2999 960 93 1700 140/04 RMK AO2
14926KSTC STC20050709022510007/09/05 02:25:31  5-MIN KSTC 090825Z AUTO 14004KT 3SM BR CLR 18/18 A2999 960 96 1600 140/04 RMK AO2
14926KSTC STC20050709023010007/09/05 02:30:31  5-MIN KSTC 090830Z AUTO 14004KT 3SM BR CLR 18/17 A2999 960 93 1600 130/04 RMK AO2
14926KSTC STC20050709023510007/09/05 02:35:31  5-MIN KSTC 090835Z AUTO 14003KT 3SM BR CLR 18/17 A2999 960 96 1600 130/03 RMK AO2
14926KSTC STC20050709024010007/09/05 02:40:31  5-MIN KSTC 090840Z AUTO 14003KT 3SM BR CLR 18/17 A2999 960 96 1600 130/03 RMK AO2
14926KSTC STC20050709024510007/09/05 02:45:31  5-MIN KSTC 090845Z AUTO 14004KT 3SM BR CLR 18/17 A2999 970 96 1600 130/04 RMK AO2
14926KSTC STC20050709025012307/09/05 02:50:31  5-MIN KSTC 090850Z AUTO 14004KT 3SM BR CLR 18/17 A2999 960 96 1600 140/04 RMK AO2 SLP158 T01780172 51004
14926KSTC STC20050709025510007/09/05 02:55:31  5-MIN KSTC 090855Z AUTO 15004KT 3SM BR CLR 18/17 A2999 960 96 1600 150/04 RMK AO2
14926KSTC STC20050709030010407/09/05 03:00:31  5-MIN KSTC 090900Z AUTO 14004KT 2 1/2SM BR CLR 18/17 A2999 970 96 1600 130/04 RMK AO2
14926KSTC STC20050709030510007/09/05 03:05:31  5-MIN KSTC 090905Z AUTO 14004KT 3SM BR CLR 18/18 A2999 970 96 1600 130/04 RMK AO2
14926KSTC STC20050709031010007/09/05 03:10:31  5-MIN KSTC 090910Z AUTO 13004KT 4SM BR CLR 19/18 A2999 970 93 1700 130/04 RMK AO2
14926KSTC STC20050709031510007/09/05 03:15:31  5-MIN KSTC 090915Z AUTO 13003KT 4SM BR CLR 19/18 A2998 970 93 1700 130/03 RMK AO2
14926KSTC STC20050709032010007/09/05 03:20:31  5-MIN KSTC 090920Z AUTO 14004KT 4SM BR CLR 19/18 A2998 970 93 1700 140/04 RMK AO2
14926KSTC STC20050709032510007/09/05 03:25:31  5-MIN KSTC 090925Z AUTO 14004KT 4SM BR CLR 18/18 A2998 970 96 1600 130/04 RMK AO2
14926KSTC STC20050709033010007/09/05 03:30:31  5-MIN KSTC 090930Z AUTO 14004KT 3SM BR CLR 18/17 A2998 970 96 1600 140/04 RMK AO2
14926KSTC STC20050709033510007/09/05 03:35:31  5-MIN KSTC 090935Z AUTO 14003KT 3SM BR CLR 18/17 A2998 970 93 1600 140/03 RMK AO2
14926KSTC STC20050709034010407/09/05 03:40:31  5-MIN KSTC 090940Z AUTO 13003KT 2 1/2SM BR CLR 18/18 A2998 970 96 1600 130/03 RMK AO2
14926KSTC STC20050709034510007/09/05 03:45:31  5-MIN KSTC 090945Z AUTO 13003KT 2SM BR CLR 18/18 A2998 970 96 1600 130/03 RMK AO2
14926KSTC STC20050709035012107/09/05 03:50:31  5-MIN KSTC 090950Z AUTO 00000KT 2 1/2SM BR CLR 18/18 A2999 970 96 1600 000/00 RMK AO2 SLP157 T01830178
14926KSTC STC20050709035510407/09/05 03:55:31  5-MIN KSTC 090955Z AUTO 13003KT 2 1/2SM BR CLR 18/17 A2999 970 96 1600 130/03 RMK AO2
14926KSTC STC20050709040010407/09/05 04:00:31  5-MIN KSTC 091000Z AUTO 00000KT 2 1/2SM BR CLR 18/17 A2998 970 96 1600 000/00 RMK AO2
14926KSTC STC20050709040510007/09/05 04:05:31  5-MIN KSTC 091005Z AUTO 00000KT 3SM BR CLR 18/17 A2999 970 93 1600 000/00 RMK AO2
14926KSTC STC20050709041010007/09/05 04:10:31  5-MIN KSTC 091010Z AUTO 00000KT 3SM BR CLR 18/17 A2999 970 93 1600 000/00 RMK AO2
14926KSTC STC20050709041510007/09/05 04:15:31  5-MIN KSTC 091015Z AUTO 12003KT 3SM BR CLR 18/17 A2999 960 93 1600 120/03 RMK AO2
14926KSTC STC20050709042010007/09/05 04:20:31  5-MIN KSTC 091020Z AUTO 00000KT 3SM BR CLR 19/18 A2999 970 93 1700 000/00 RMK AO2
14926KSTC STC20050709042510407/09/05 04:25:31  5-MIN KSTC 091025Z AUTO 11003KT 2 1/2SM BR CLR 19/18 A2998 970 93 1700 110/03 RMK AO2
14926KSTC STC20050709043010007/09/05 04:30:31  5-MIN KSTC 091030Z AUTO 12003KT 2SM BR CLR 19/18 A2999 970 93 1700 120/03 RMK AO2
14926KSTC STC20050709043510007/09/05 04:35:31  5-MIN KSTC 091035Z AUTO 11003KT 2SM BR CLR 19/18 A2999 970 97 1700 110/03 RMK AO2
14926KSTC STC20050709044010007/09/05 04:40:31  5-MIN KSTC 091040Z AUTO 12003KT 2SM BR CLR 19/18 A2999 960 97 1700 110/03 RMK AO2
14926KSTC STC20050709044510007/09/05 04:45:31  5-MIN KSTC 091045Z AUTO 12003KT 2SM BR CLR 19/18 A2999 960 93 1700 110/03 RMK AO2
14926KSTC STC20050709045011707/09/05 04:50:31  5-MIN KSTC 091050Z AUTO 12004KT 2SM BR CLR 19/18 A2999 960 93 1700 110/04 RMK AO2 SLP159 T01940183
14926KSTC STC20050709045510407/09/05 04:55:31  5-MIN KSTC 091055Z AUTO 12003KT 2 1/2SM BR CLR 19/18 A2999 960 93 1700 110/03 RMK AO2
14926KSTC STC20050709050010407/09/05 05:00:31  5-MIN KSTC 091100Z AUTO 13003KT 2 1/2SM BR CLR 19/18 A2999 960 93 1700 130/03 RMK AO2
14926KSTC STC20050709050510407/09/05 05:05:31  5-MIN KSTC 091105Z AUTO 13004KT 2 1/2SM BR CLR 19/18 A2999 960 97 1700 130/04 RMK AO2
14926KSTC STC20050709051010407/09/05 05:10:31  5-MIN KSTC 091110Z AUTO 13005KT 2 1/2SM BR CLR 19/18 A2999 960 93 1700 130/05 RMK AO2
14926KSTC STC20050709051510007/09/05 05:15:31  5-MIN KSTC 091115Z AUTO 13004KT 3SM BR CLR 19/18 A2999 960 93 1700 130/04 RMK AO2
14926KSTC STC20050709052010007/09/05 05:20:31  5-MIN KSTC 091120Z AUTO 13004KT 3SM BR CLR 19/19 A2999 960 97 1700 130/04 RMK AO2
14926KSTC STC20050709052510007/09/05 05:25:31  5-MIN KSTC 091125Z AUTO 13004KT 3SM BR CLR 19/19 A2999 960 97 1700 130/04 RMK AO2
14926KSTC STC20050709053010007/09/05 05:30:31  5-MIN KSTC 091130Z AUTO 13004KT 3SM BR CLR 19/19 A2999 960 97 1700 130/04 RMK AO2
14926KSTC STC20050709053510007/09/05 05:35:31  5-MIN KSTC 091135Z AUTO 13004KT 3SM BR CLR 19/19 A2999 960 97 1700 130/04 RMK AO2
14926KSTC STC20050709054010007/09/05 05:40:31  5-MIN KSTC 091140Z AUTO 13005KT 3SM BR CLR 19/19 A3000 960 97 1700 130/05 RMK AO2
14926KSTC STC20050709054510007/09/05 05:45:31  5-MIN KSTC 091145Z AUTO 14004KT 3SM BR CLR 20/19 A3000 960 93 1800 130/04 RMK AO2
14926KSTC STC20050709055013007/09/05 05:50:31  5-MIN KSTC 091150Z 13005KT 4SM BR CLR 20/19 A3000 960 93 1800 130/05 RMK AO2 SLP161 T02000189 10200 20178 58001
14926KSTC STC20050709055509507/09/05 05:55:31  5-MIN KSTC 091155Z 13005KT 4SM BR CLR 20/19 A3000 960 93 1800 130/05 RMK AO2
14926KSTC STC20050709060009507/09/05 06:00:31  5-MIN KSTC 091200Z 13006KT 4SM BR CLR 20/19 A3000 960 93 1800 130/06 RMK AO2
14926KSTC STC20050709060509507/09/05 06:05:31  5-MIN KSTC 091205Z 13006KT 4SM BR CLR 20/19 A3000 950 93 1800 130/06 RMK AO2
14926KSTC STC20050709061009507/09/05 06:10:31  5-MIN KSTC 091210Z 14006KT 4SM BR CLR 20/19 A3000 950 93 1800 140/06 RMK AO2
14926KSTC STC20050709061509507/09/05 06:15:31  5-MIN KSTC 091215Z 14005KT 4SM BR CLR 20/19 A3000 950 93 1800 130/05 RMK AO2
14926KSTC STC20050709062009507/09/05 06:20:31  5-MIN KSTC 091220Z 14004KT 4SM BR CLR 21/19 A3000 950 93 1900 140/04 RMK AO2
14926KSTC STC20050709062509507/09/05 06:25:31  5-MIN KSTC 091225Z 15006KT 5SM BR CLR 21/19 A3000 950 93 1900 150/06 RMK AO2
14926KSTC STC20050709063009507/09/05 06:30:31  5-MIN KSTC 091230Z 15006KT 5SM BR CLR 21/19 A3000 950 93 1900 140/06 RMK AO2
14926KSTC STC20050709063509507/09/05 06:35:31  5-MIN KSTC 091235Z 15006KT 6SM BR CLR 21/19 A3000 950 90 1900 150/06 RMK AO2
14926KSTC STC20050709064009507/09/05 06:40:31  5-MIN KSTC 091240Z 15006KT 6SM BR CLR 21/19 A3000 950 90 1900 150/06 RMK AO2
14926KSTC STC20050709064509507/09/05 06:45:31  5-MIN KSTC 091245Z 16007KT 6SM BR CLR 21/19 A3000 950 90 1900 150/07 RMK AO2
14926KSTC STC20050709065010907/09/05 06:50:31  5-MIN KSTC 091250Z 16006KT 7SM CLR 22/19 A3000 950 87 2000 150/06 RMK AO2 SLP161 T02170194
14926KSTC STC20050709065509207/09/05 06:55:31  5-MIN KSTC 091255Z 17007KT 7SM CLR 22/19 A3000 950 87 2000 160/07 RMK AO2
14926KSTC STC20050709070009207/09/05 07:00:31  5-MIN KSTC 091300Z 17007KT 8SM CLR 22/19 A3000 950 87 2000 170/07 RMK AO2
14926KSTC STC20050709070509207/09/05 07:05:31  5-MIN KSTC 091305Z 17006KT 8SM CLR 22/19 A3000 950 87 2000 160/06 RMK AO2
14926KSTC STC20050709071009207/09/05 07:10:31  5-MIN KSTC 091310Z 17005KT 8SM CLR 22/19 A3000 950 84 2000 170/05 RMK AO2
14926KSTC STC20050709071509207/09/05 07:15:31  5-MIN KSTC 091315Z 18007KT 9SM CLR 22/19 A3000 950 84 2000 170/07 RMK AO2
14926KSTC STC20050709072009207/09/05 07:20:31  5-MIN KSTC 091320Z 18006KT 9SM CLR 23/19 A3000 950 81 2100 180/06 RMK AO2
14926KSTC STC20050709072509307/09/05 07:25:31  5-MIN KSTC 091325Z 17006KT 10SM CLR 23/19 A3000 950 81 2100 170/06 RMK AO2
14926KSTC STC20050709073009307/09/05 07:30:31  5-MIN KSTC 091330Z 17007KT 10SM CLR 23/19 A3000 950 78 2200 170/07 RMK AO2
14926KSTC STC20050709073509307/09/05 07:35:31  5-MIN KSTC 091335Z 17008KT 10SM CLR 23/19 A3000 950 78 2200 160/08 RMK AO2
14926KSTC STC20050709074009307/09/05 07:40:31  5-MIN KSTC 091340Z 19007KT 10SM CLR 23/19 A3001 950 78 2200 180/07 RMK AO2
14926KSTC STC20050709074509307/09/05 07:45:31  5-MIN KSTC 091345Z 17009KT 10SM CLR 24/19 A3001 950 76 2200 160/09 RMK AO2
14926KSTC STC20050709075011007/09/05 07:50:31  5-MIN KSTC 091350Z 19008KT 10SM CLR 24/19 A3001 950 76 2200 180/08 RMK AO2 SLP163 T02390194
14926KSTC STC20050709075509307/09/05 07:55:31  5-MIN KSTC 091355Z 18009KT 10SM CLR 24/19 A3001 950 76 2200 180/09 RMK AO2
14926KSTC STC20050709080009307/09/05 08:00:31  5-MIN KSTC 091400Z 18007KT 10SM CLR 24/19 A3001 950 76 2200 180/07 RMK AO2
14926KSTC STC20050709080509307/09/05 08:05:31  5-MIN KSTC 091405Z 18007KT 10SM CLR 24/19 A3000 950 73 2300 180/07 RMK AO2
14926KSTC STC20050709081009307/09/05 08:10:31  5-MIN KSTC 091410Z 16006KT 10SM CLR 24/19 A3000 950 73 2300 160/06 RMK AO2
14926KSTC STC20050709081509307/09/05 08:15:31  5-MIN KSTC 091415Z 17006KT 10SM CLR 24/19 A3000 950 73 2300 170/06 RMK AO2
14926KSTC STC20050709082009307/09/05 08:20:31  5-MIN KSTC 091420Z 16007KT 10SM CLR 25/19 A3000 950 71 2400 160/07 RMK AO2
14926KSTC STC20050709082509307/09/05 08:25:31  5-MIN KSTC 091425Z 16008KT 10SM CLR 25/19 A3000 950 71 2400 150/08 RMK AO2
14926KSTC STC20050709083009307/09/05 08:30:31  5-MIN KSTC 091430Z 17009KT 10SM CLR 25/19 A3000 950 71 2400 170/09 RMK AO2
14926KSTC STC20050709083509307/09/05 08:35:31  5-MIN KSTC 091435Z 17007KT 10SM CLR 25/19 A3000 950 71 2400 170/07 RMK AO2
14926KSTC STC20050709084009307/09/05 08:40:31  5-MIN KSTC 091440Z 18008KT 10SM CLR 26/20 A3000 950 71 2400 170/08 RMK AO2
14926KSTC STC20050709084509307/09/05 08:45:31  5-MIN KSTC 091445Z 17008KT 10SM CLR 26/20 A3000 950 71 2400 170/08 RMK AO2
14926KSTC STC20050709085011607/09/05 08:50:31  5-MIN KSTC 091450Z 17009KT 10SM CLR 26/20 A3000 950 71 2400 160/09 RMK AO2 SLP161 T02560200 53003
14926KSTC STC20050709085509307/09/05 08:55:31  5-MIN KSTC 091455Z 18008KT 10SM CLR 26/20 A3000 950 71 2400 180/08 RMK AO2
14926KSTC STC20050709090009307/09/05 09:00:31  5-MIN KSTC 091500Z 16008KT 10SM CLR 26/20 A3000 950 68 2500 160/08 RMK AO2
14926KSTC STC20050709090509307/09/05 09:05:31  5-MIN KSTC 091505Z 19007KT 10SM CLR 26/20 A3000 950 68 2500 180/07 RMK AO2
14926KSTC STC20050709091009307/09/05 09:10:31  5-MIN KSTC 091510Z 16006KT 10SM CLR 26/20 A3000 950 68 2500 150/06 RMK AO2
14926KSTC STC20050709091509307/09/05 09:15:31  5-MIN KSTC 091515Z 16007KT 10SM CLR 27/20 A3000 950 66 2600 160/07 RMK AO2
14926KSTC STC20050709092009307/09/05 09:20:31  5-MIN KSTC 091520Z 16009KT 10SM CLR 27/20 A3000 950 66 2600 160/09 RMK AO2
14926KSTC STC20050709092509307/09/05 09:25:31  5-MIN KSTC 091525Z 16007KT 10SM CLR 27/21 A3000 950 66 2600 160/07 RMK AO2
14926KSTC STC20050709093009307/09/05 09:30:31  5-MIN KSTC 091530Z 16008KT 10SM CLR 28/21 A3000 960 64 2700 160/08 RMK AO2
14926KSTC STC20050709093509307/09/05 09:35:31  5-MIN KSTC 091535Z 14008KT 10SM CLR 27/20 A2999 960 64 2600 130/08 RMK AO2
14926KSTC STC20050709094009307/09/05 09:40:31  5-MIN KSTC 091540Z 15008KT 10SM CLR 27/21 A2999 960 66 2600 150/08 RMK AO2
14926KSTC STC20050709094509307/09/05 09:45:31  5-MIN KSTC 091545Z 15008KT 10SM CLR 27/21 A2999 960 66 2600 150/08 RMK AO2
14926KSTC STC20050709095011007/09/05 09:50:31  5-MIN KSTC 091550Z 16008KT 10SM CLR 28/21 A2999 960 64 2700 160/08 RMK AO2 SLP159 T02780206
14926KSTC STC20050709095509307/09/05 09:55:31  5-MIN KSTC 091555Z 16007KT 10SM CLR 28/21 A2999 960 64 2700 160/07 RMK AO2
14926KSTC STC20050709100009307/09/05 10:00:31  5-MIN KSTC 091600Z 16008KT 10SM CLR 28/21 A2999 960 64 2700 160/08 RMK AO2
14926KSTC STC20050709100509307/09/05 10:05:31  5-MIN KSTC 091605Z 15009KT 10SM CLR 28/21 A2999 960 62 2700 150/09 RMK AO2
14926KSTC STC20050709101009307/09/05 10:10:31  5-MIN KSTC 091610Z 15008KT 10SM CLR 28/21 A2999 960 62 2700 150/08 RMK AO2
14926KSTC STC20050709101509307/09/05 10:15:31  5-MIN KSTC 091615Z 16011KT 10SM CLR 29/21 A3000 960 60 2800 150/11 RMK AO2
14926KSTC STC20050709102009307/09/05 10:20:31  5-MIN KSTC 091620Z 15009KT 10SM CLR 29/21 A3000 960 60 2800 150/09 RMK AO2
14926KSTC STC20050709102509307/09/05 10:25:31  5-MIN KSTC 091625Z 18009KT 10SM CLR 28/21 A3000 960 62 2700 170/09 RMK AO2
14926KSTC STC20050709103009307/09/05 10:30:31  5-MIN KSTC 091630Z 17010KT 10SM CLR 29/21 A2999 960 60 2800 170/10 RMK AO2
14926KSTC STC20050709103509307/09/05 10:35:31  5-MIN KSTC 091635Z 17010KT 10SM CLR 29/21 A2999 960 58 2900 170/10 RMK AO2
14926KSTC STC20050709104009307/09/05 10:40:31  5-MIN KSTC 091640Z 18009KT 10SM CLR 29/21 A2999 960 58 2900 180/09 RMK AO2
14926KSTC STC20050709104509307/09/05 10:45:31  5-MIN KSTC 091645Z 18009KT 10SM CLR 29/21 A2999 960 58 2900 170/09 RMK AO2
14926KSTC STC20050709105011007/09/05 10:50:31  5-MIN KSTC 091650Z 15010KT 10SM CLR 29/21 A2999 960 58 2900 150/10 RMK AO2 SLP157 T02940206
14926KSTC STC20050709105509307/09/05 10:55:31  5-MIN KSTC 091655Z 15011KT 10SM CLR 30/21 A2999 960 56 2900 150/11 RMK AO2
14926KSTC STC20050709110009307/09/05 11:00:31  5-MIN KSTC 091700Z 16011KT 10SM CLR 29/21 A2999 960 58 2900 160/11 RMK AO2
14926KSTC STC20050709110509307/09/05 11:05:31  5-MIN KSTC 091705Z 17008KT 10SM CLR 30/21 A2999 960 56 2900 160/08 RMK AO2
14926KSTC STC20050709111009307/09/05 11:10:31  5-MIN KSTC 091710Z 17010KT 10SM CLR 30/21 A2999 960 58 2900 160/10 RMK AO2
14926KSTC STC20050709111509307/09/05 11:15:31  5-MIN KSTC 091715Z 16010KT 10SM CLR 31/21 A2999 960 56 3000 160/10 RMK AO2
14926KSTC STC20050709112009307/09/05 11:20:31  5-MIN KSTC 091720Z 17010KT 10SM CLR 31/21 A2999 960 56 3000 170/10 RMK AO2
14926KSTC STC20050709112509307/09/05 11:25:31  5-MIN KSTC 091725Z 18010KT 10SM CLR 31/21 A2999 970 56 3000 180/10 RMK AO2
14926KSTC STC20050709113009307/09/05 11:30:31  5-MIN KSTC 091730Z 16012KT 10SM CLR 31/21 A2998 970 56 3000 150/12 RMK AO2
14926KSTC STC20050709113509307/09/05 11:35:31  5-MIN KSTC 091735Z 18009KT 10SM CLR 31/21 A2998 970 54 3000 170/09 RMK AO2
14926KSTC STC20050709114009307/09/05 11:40:31  5-MIN KSTC 091740Z 16009KT 10SM CLR 31/21 A2999 970 56 3000 160/09 RMK AO2
14926KSTC STC20050709114509307/09/05 11:45:31  5-MIN KSTC 091745Z 15011KT 10SM CLR 31/21 A2999 970 56 3000 150/11 RMK AO2
14926KSTC STC20050709115012807/09/05 11:50:31  5-MIN KSTC 091750Z 16011KT 10SM CLR 31/21 A2999 970 54 3100 150/11 RMK AO2 SLP155 T03110211 10311 20200 50001
14926KSTC STC20050709115509907/09/05 11:55:31  5-MIN KSTC 091755Z 16014G17KT 10SM CLR 31/21 A2999 970 54 3000 150/14G17 RMK AO2
14926KSTC STC20050709120009307/09/05 12:00:31  5-MIN KSTC 091800Z 17013KT 10SM CLR 31/21 A2998 970 54 3000 170/13 RMK AO2
14926KSTC STC20050709120509307/09/05 12:05:31  5-MIN KSTC 091805Z 17011KT 10SM CLR 31/21 A2998 970 54 3000 170/11 RMK AO2
14926KSTC STC20050709121009307/09/05 12:10:31  5-MIN KSTC 091810Z 16012KT 10SM CLR 31/21 A2998 970 53 3100 160/12 RMK AO2
14926KSTC STC20050709121509307/09/05 12:15:31  5-MIN KSTC 091815Z 15012KT 10SM CLR 31/21 A2998 970 53 3100 150/12 RMK AO2
14926KSTC STC20050709122009307/09/05 12:20:31  5-MIN KSTC 091820Z 15012KT 10SM CLR 32/21 A2998 970 53 3100 150/12 RMK AO2
14926KSTC STC20050709122509907/09/05 12:25:31  5-MIN KSTC 091825Z 17011G18KT 10SM CLR 32/21 A2998 970 53 3100 170/11G18 RMK AO2
14926KSTC STC20050709123009307/09/05 12:30:31  5-MIN KSTC 091830Z 18012KT 10SM CLR 32/21 A2998 970 53 3100 180/12 RMK AO2
14926KSTC STC20050709123511507/09/05 12:35:31  5-MIN KSTC 091835Z 17009G16KT 140V200 10SM CLR 32/21 A2998 970 53 3100 170/09G16 140V200 RMK AO2
14926KSTC STC20050709124009907/09/05 12:40:31  5-MIN KSTC 091840Z 17012G17KT 10SM CLR 32/21 A2998 980 53 3100 170/12G17 RMK AO2
14926KSTC STC20050709124509307/09/05 12:45:31  5-MIN KSTC 091845Z 18010KT 10SM CLR 32/21 A2997 980 51 3200 170/10 RMK AO2
14926KSTC STC20050709125011007/09/05 12:50:31  5-MIN KSTC 091850Z 19012KT 10SM CLR 32/21 A2997 980 51 3200 190/12 RMK AO2 SLP151 T03220211
14926KSTC STC20050709125509307/09/05 12:55:31  5-MIN KSTC 091855Z 18010KT 10SM CLR 32/21 A2997 980 51 3200 170/10 RMK AO2
14926KSTC STC20050709130009307/09/05 13:00:31  5-MIN KSTC 091900Z 16013KT 10SM CLR 32/21 A2997 980 51 3200 160/13 RMK AO2
14926KSTC STC20050709130509907/09/05 13:05:31  5-MIN KSTC 091905Z 17014G18KT 10SM CLR 32/21 A2997 980 49 3200 170/14G18 RMK AO2
14926KSTC STC20050709131009907/09/05 13:10:31  5-MIN KSTC 091910Z 18014G20KT 10SM CLR 32/21 A2997 980 49 3200 180/14G20 RMK AO2
14926KSTC STC20050709131509907/09/05 13:15:31  5-MIN KSTC 091915Z 16014G20KT 10SM CLR 32/21 A2996 990 49 3200 160/14G20 RMK AO2
14926KSTC STC20050709132009907/09/05 13:20:31  5-MIN KSTC 091920Z 19015G19KT 10SM CLR 32/21 A2996 990 49 3200 180/15G19 RMK AO2
14926KSTC STC20050709132509307/09/05 13:25:31  5-MIN KSTC 091925Z 17015KT 10SM CLR 32/21 A2996 990 51 3100 170/15 RMK AO2
14926KSTC STC20050709133009307/09/05 13:30:31  5-MIN KSTC 091930Z 18016KT 10SM CLR 32/21 A2996 990 49 3200 170/16 RMK AO2
14926KSTC STC20050709133509907/09/05 13:35:31  5-MIN KSTC 091935Z 18015G20KT 10SM CLR 32/21 A2996 990 49 3200 170/15G20 RMK AO2
14926KSTC STC20050709134009907/09/05 13:40:31  5-MIN KSTC 091940Z 19013G20KT 10SM CLR 32/21 A2997 980 49 3200 190/13G20 RMK AO2
14926KSTC STC20050709134509307/09/05 13:45:31  5-MIN KSTC 091945Z 18012KT 10SM CLR 32/21 A2997 980 49 3200 180/12 RMK AO2
14926KSTC STC20050709135011307/09/05 13:50:31  5-MIN KSTC 091950Z 17014KT 10SM FEW042 32/21 A2996 990 49 3200 170/14 RMK AO2 SLP147 T03220206
14926KSTC STC20050709135509607/09/05 13:55:31  5-MIN KSTC 091955Z 16015KT 10SM FEW042 32/21 A2996 990 49 3200 160/15 RMK AO2
14926KSTC STC20050709140009607/09/05 14:00:31  5-MIN KSTC 092000Z 17013KT 10SM FEW042 32/21 A2996 990 49 3200 160/13 RMK AO2
14926KSTC STC20050709140509607/09/05 14:05:31  5-MIN KSTC 092005Z 16014KT 10SM FEW042 32/21 A2996 990 49 3200 160/14 RMK AO2
14926KSTC STC20050709141009607/09/05 14:10:31  5-MIN KSTC 092010Z 16014KT 10SM FEW042 32/21 A2996 990 49 3200 160/14 RMK AO2
14926KSTC STC20050709141510207/09/05 14:15:31  5-MIN KSTC 092015Z 17014G19KT 10SM FEW042 32/21 A2996 990 49 3200 170/14G19 RMK AO2
14926KSTC STC20050709142010207/09/05 14:20:31  5-MIN KSTC 092020Z 17014G19KT 10SM SCT042 32/21 A2996 990 49 3200 170/14G19 RMK AO2
14926KSTC STC20050709142510207/09/05 14:25:31  5-MIN KSTC 092025Z 19012G18KT 10SM SCT042 33/21 A2996 990 49 3300 180/12G18 RMK AO2
14926KSTC STC20050709143010207/09/05 14:30:31  5-MIN KSTC 092030Z 17011G17KT 10SM SCT042 33/21 A2996 990 48 3300 170/11G17 RMK AO2
14926KSTC STC20050709143509607/09/05 14:35:31  5-MIN KSTC 092035Z 18011KT 10SM FEW044 33/21 A2996 990 48 3300 170/11 RMK AO2
14926KSTC STC20050709144009607/09/05 14:40:31  5-MIN KSTC 092040Z 17011KT 10SM SCT044 33/21 A2996 990 48 3300 170/11 RMK AO2
14926KSTC STC20050709144510207/09/05 14:45:31  5-MIN KSTC 092045Z 18013G19KT 10SM SCT044 33/21 A2996 990 48 3300 170/13G19 RMK AO2
14926KSTC STC20050709145012507/09/05 14:50:31  5-MIN KSTC 092050Z 17016G20KT 10SM FEW044 32/21 A2996 990 49 3200 170/16G20 RMK AO2 SLP147 T03220206 56005
14926KSTC STC20050709145509607/09/05 14:55:31  5-MIN KSTC 092055Z 17014KT 10SM FEW046 33/21 A2996 990 48 3300 170/14 RMK AO2
14926KSTC STC20050709150009607/09/05 15:00:31  5-MIN KSTC 092100Z 16015KT 10SM FEW046 32/21 A2996 990 49 3200 160/15 RMK AO2
14926KSTC STC20050709150510207/09/05 15:05:31  5-MIN KSTC 092105Z 17014G20KT 10SM FEW046 32/20 A2996 990 48 3200 170/14G20 RMK AO2
14926KSTC STC20050709151010207/09/05 15:10:31  5-MIN KSTC 092110Z 17014G20KT 10SM SCT047 32/20 A2996 990 48 3200 170/14G20 RMK AO2
14926KSTC STC20050709151510307/09/05 15:15:31  5-MIN KSTC 092115Z 17016G20KT 10SM SCT047 32/20 A2995 1000 48 3200 160/16G20 RMK AO2
14926KSTC STC20050709152010207/09/05 15:20:31  5-MIN KSTC 092120Z 17012G20KT 10SM FEW047 32/20 A2995 990 48 3200 170/12G20 RMK AO2
14926KSTC STC20050709152510307/09/05 15:25:31  5-MIN KSTC 092125Z 19010G20KT 10SM SCT047 32/20 A2995 1000 49 3200 180/10G20 RMK AO2
14926KSTC STC20050709153009707/09/05 15:30:31  5-MIN KSTC 092130Z 18010KT 10SM SCT047 32/20 A2995 1000 48 3200 180/10 RMK AO2
14926KSTC STC20050709153509707/09/05 15:35:31  5-MIN KSTC 092135Z 16013KT 10SM SCT047 32/21 A2995 1000 49 3200 160/13 RMK AO2
14926KSTC STC20050709154009707/09/05 15:40:31  5-MIN KSTC 092140Z 17014KT 10SM FEW047 32/21 A2995 1000 49 3200 170/14 RMK AO2
14926KSTC STC20050709154509707/09/05 15:45:31  5-MIN KSTC 092145Z 17013KT 10SM FEW047 32/21 A2995 1000 49 3200 170/13 RMK AO2
14926KSTC STC20050709155011407/09/05 15:50:31  5-MIN KSTC 092150Z 17013KT 10SM FEW047 32/21 A2995 1000 51 3200 170/13 RMK AO2 SLP142 T03170206
14926KSTC STC20050709155509707/09/05 15:55:31  5-MIN KSTC 092155Z 17013KT 10SM FEW047 32/21 A2995 1000 49 3200 170/13 RMK AO2
14926KSTC STC20050709160009707/09/05 16:00:31  5-MIN KSTC 092200Z 17014KT 10SM FEW047 32/20 A2995 1000 48 3200 160/14 RMK AO2
14926KSTC STC20050709160510307/09/05 16:05:31  5-MIN KSTC 092205Z 17011G18KT 10SM FEW047 32/20 A2995 1000 49 3200 170/11G18 RMK AO2
14926KSTC STC20050709161009707/09/05 16:10:31  5-MIN KSTC 092210Z 16013KT 10SM FEW047 32/21 A2995 1000 49 3200 160/13 RMK AO2
14926KSTC STC20050709161509707/09/05 16:15:31  5-MIN KSTC 092215Z 17012KT 10SM FEW047 32/21 A2995 1000 51 3200 170/12 RMK AO2
14926KSTC STC20050709162009707/09/05 16:20:31  5-MIN KSTC 092220Z 17012KT 10SM FEW047 32/20 A2995 1000 49 3200 170/12 RMK AO2
14926KSTC STC20050709162509707/09/05 16:25:31  5-MIN KSTC 092225Z 17012KT 10SM FEW047 32/20 A2995 1000 49 3200 170/12 RMK AO2
14926KSTC STC20050709163009407/09/05 16:30:31  5-MIN KSTC 092230Z 18011KT 10SM CLR 32/21 A2994 1000 49 3200 180/11 RMK AO2
14926KSTC STC20050709163509407/09/05 16:35:31  5-MIN KSTC 092235Z 19011KT 10SM CLR 32/21 A2994 1000 49 3200 180/11 RMK AO2
14926KSTC STC20050709164009407/09/05 16:40:31  5-MIN KSTC 092240Z 18012KT 10SM CLR 32/21 A2994 1010 49 3200 180/12 RMK AO2
14926KSTC STC20050709164509407/09/05 16:45:31  5-MIN KSTC 092245Z 18014KT 10SM CLR 32/20 A2994 1010 48 3200 170/14 RMK AO2
14926KSTC STC20050709165011107/09/05 16:50:31  5-MIN KSTC 092250Z 18014KT 10SM CLR 32/20 A2994 1010 49 3200 170/14 RMK AO2 SLP139 T03170200
14926KSTC STC20050709165509407/09/05 16:55:31  5-MIN KSTC 092255Z 17012KT 10SM CLR 32/20 A2994 1010 49 3200 160/12 RMK AO2
14926KSTC STC20050709170009407/09/05 17:00:31  5-MIN KSTC 092300Z 18012KT 10SM CLR 32/20 A2994 1010 49 3200 170/12 RMK AO2
14926KSTC STC20050709170509407/09/05 17:05:31  5-MIN KSTC 092305Z 18013KT 10SM CLR 32/20 A2994 1010 49 3200 170/13 RMK AO2
14926KSTC STC20050709171009407/09/05 17:10:31  5-MIN KSTC 092310Z 17010KT 10SM CLR 32/21 A2994 1010 51 3200 170/10 RMK AO2
14926KSTC STC20050709171510007/09/05 17:15:31  5-MIN KSTC 092315Z 18010G17KT 10SM CLR 32/21 A2994 1010 51 3200 180/10G17 RMK AO2
14926KSTC STC20050709172010007/09/05 17:20:31  5-MIN KSTC 092320Z 16012G17KT 10SM CLR 32/21 A2994 1010 51 3200 160/12G17 RMK AO2
14926KSTC STC20050709172509407/09/05 17:25:31  5-MIN KSTC 092325Z 17011KT 10SM CLR 32/21 A2994 1010 51 3200 170/11 RMK AO2
14926KSTC STC20050709173009407/09/05 17:30:31  5-MIN KSTC 092330Z 17010KT 10SM CLR 32/21 A2994 1010 51 3200 170/10 RMK AO2
14926KSTC STC20050709173509407/09/05 17:35:31  5-MIN KSTC 092335Z 18009KT 10SM CLR 32/21 A2994 1010 53 3200 180/09 RMK AO2
14926KSTC STC20050709174009407/09/05 17:40:31  5-MIN KSTC 092340Z 17008KT 10SM CLR 32/21 A2994 1010 51 3200 170/08 RMK AO2
14926KSTC STC20050709174509407/09/05 17:45:31  5-MIN KSTC 092345Z 16012KT 10SM CLR 31/21 A2994 1010 54 3100 160/12 RMK AO2
14926KSTC STC20050709175012907/09/05 17:50:31  5-MIN KSTC 092350Z 16011KT 10SM CLR 31/21 A2994 1010 54 3100 160/11 RMK AO2 SLP139 T03110211 10333 20306 56009
14926KSTC STC20050709175509407/09/05 17:55:31  5-MIN KSTC 092355Z 17010KT 10SM CLR 31/21 A2994 1010 54 3100 170/10 RMK AO2
14926KSTC STC20050709180009407/09/05 18:00:31  5-MIN KSTC 100000Z 17012KT 10SM CLR 31/21 A2994 1010 54 3100 170/12 RMK AO2
14926KSTC STC20050709180509407/09/05 18:05:31  5-MIN KSTC 100005Z 17010KT 10SM CLR 31/21 A2994 1010 53 3100 160/10 RMK AO2
14926KSTC STC20050709181009407/09/05 18:10:31  5-MIN KSTC 100010Z 17010KT 10SM CLR 31/21 A2994 1010 54 3100 160/10 RMK AO2
14926KSTC STC20050709181509407/09/05 18:15:31  5-MIN KSTC 100015Z 17011KT 10SM CLR 31/21 A2994 1010 54 3100 160/11 RMK AO2
14926KSTC STC20050709182009407/09/05 18:20:31  5-MIN KSTC 100020Z 16011KT 10SM CLR 31/21 A2994 1010 56 3100 160/11 RMK AO2
14926KSTC STC20050709182509407/09/05 18:25:31  5-MIN KSTC 100025Z 16012KT 10SM CLR 31/21 A2994 1010 56 3100 160/12 RMK AO2
14926KSTC STC20050709183009407/09/05 18:30:31  5-MIN KSTC 100030Z 16011KT 10SM CLR 31/21 A2994 1010 54 3100 160/11 RMK AO2
14926KSTC STC20050709183509407/09/05 18:35:31  5-MIN KSTC 100035Z 16008KT 10SM CLR 30/21 A2994 1010 56 3000 160/08 RMK AO2
14926KSTC STC20050709184009407/09/05 18:40:31  5-MIN KSTC 100040Z 16009KT 10SM CLR 30/21 A2994 1010 58 3000 160/09 RMK AO2
14926KSTC STC20050709184509407/09/05 18:45:31  5-MIN KSTC 100045Z 16008KT 10SM CLR 30/21 A2994 1010 58 3000 160/08 RMK AO2
14926KSTC STC20050709185011107/09/05 18:50:31  5-MIN KSTC 100050Z 16009KT 10SM CLR 30/21 A2994 1010 58 3000 160/09 RMK AO2 SLP140 T03000211
14926KSTC STC20050709185509407/09/05 18:55:31  5-MIN KSTC 100055Z 16010KT 10SM CLR 30/21 A2994 1010 58 3000 160/10 RMK AO2
14926KSTC STC20050709190009407/09/05 19:00:31  5-MIN KSTC 100100Z 16008KT 10SM CLR 29/21 A2994 1010 60 2900 160/08 RMK AO2
14926KSTC STC20050709190509407/09/05 19:05:31  5-MIN KSTC 100105Z 16009KT 10SM CLR 29/21 A2994 1010 60 2900 150/09 RMK AO2
14926KSTC STC20050709191009407/09/05 19:10:31  5-MIN KSTC 100110Z 16008KT 10SM CLR 29/21 A2994 1010 60 2900 160/08 RMK AO2
14926KSTC STC20050709191509407/09/05 19:15:31  5-MIN KSTC 100115Z 16008KT 10SM CLR 29/21 A2994 1010 62 2900 160/08 RMK AO2
14926KSTC STC20050709192009407/09/05 19:20:31  5-MIN KSTC 100120Z 15009KT 10SM CLR 29/21 A2994 1010 62 2900 150/09 RMK AO2
14926KSTC STC20050709192509407/09/05 19:25:31  5-MIN KSTC 100125Z 16009KT 10SM CLR 29/21 A2994 1010 62 2900 150/09 RMK AO2
14926KSTC STC20050709193009407/09/05 19:30:31  5-MIN KSTC 100130Z 16009KT 10SM CLR 28/21 A2994 1010 64 2800 150/09 RMK AO2
14926KSTC STC20050709193509407/09/05 19:35:31  5-MIN KSTC 100135Z 15008KT 10SM CLR 28/21 A2994 1010 64 2800 150/08 RMK AO2
14926KSTC STC20050709194009407/09/05 19:40:31  5-MIN KSTC 100140Z 16008KT 10SM CLR 28/21 A2994 1010 62 2800 150/08 RMK AO2
14926KSTC STC20050709194509407/09/05 19:45:31  5-MIN KSTC 100145Z 16009KT 10SM CLR 28/21 A2994 1010 62 2800 150/09 RMK AO2
14926KSTC STC20050709195011107/09/05 19:50:31  5-MIN KSTC 100150Z 15008KT 10SM CLR 28/21 A2995 1000 64 2700 150/08 RMK AO2 SLP141 T02780206
14926KSTC STC20050709195509407/09/05 19:55:31  5-MIN KSTC 100155Z 16008KT 10SM CLR 28/21 A2994 1000 64 2700 150/08 RMK AO2
14926KSTC STC20050709200009407/09/05 20:00:31  5-MIN KSTC 100200Z 16008KT 10SM CLR 28/21 A2995 1000 64 2700 150/08 RMK AO2
14926KSTC STC20050709200509407/09/05 20:05:31  5-MIN KSTC 100205Z 16007KT 10SM CLR 28/21 A2995 1000 64 2700 150/07 RMK AO2
14926KSTC STC20050709201009407/09/05 20:10:31  5-MIN KSTC 100210Z 15007KT 10SM CLR 27/21 A2995 1000 66 2700 150/07 RMK AO2
14926KSTC STC20050709201509407/09/05 20:15:31  5-MIN KSTC 100215Z 15007KT 10SM CLR 27/21 A2995 1000 66 2700 150/07 RMK AO2
14926KSTC STC20050709202009407/09/05 20:20:31  5-MIN KSTC 100220Z 15007KT 10SM CLR 27/21 A2995 1000 69 2600 150/07 RMK AO2
14926KSTC STC20050709202509407/09/05 20:25:31  5-MIN KSTC 100225Z 15006KT 10SM CLR 27/21 A2995 1000 69 2600 150/06 RMK AO2
14926KSTC STC20050709203009407/09/05 20:30:31  5-MIN KSTC 100230Z 15007KT 10SM CLR 27/21 A2995 1000 69 2600 150/07 RMK AO2
14926KSTC STC20050709203509407/09/05 20:35:31  5-MIN KSTC 100235Z 15006KT 10SM CLR 27/21 A2995 1000 69 2600 150/06 RMK AO2
14926KSTC STC20050709204009307/09/05 20:40:31  5-MIN KSTC 100240Z 15005KT 10SM CLR 26/21 A2996 990 71 2500 150/05 RMK AO2
14926KSTC STC20050709204509307/09/05 20:45:31  5-MIN KSTC 100245Z 15005KT 10SM CLR 26/21 A2996 990 73 2500 140/05 RMK AO2
14926KSTC STC20050709205011607/09/05 20:50:31  5-MIN KSTC 100250Z 15005KT 10SM CLR 26/21 A2996 990 73 2500 140/05 RMK AO2 SLP146 T02560206 56007
14926KSTC STC20050709205509307/09/05 20:55:31  5-MIN KSTC 100255Z 14006KT 10SM CLR 26/21 A2996 990 73 2500 140/06 RMK AO2
14926KSTC STC20050709210009307/09/05 21:00:31  5-MIN KSTC 100300Z 14006KT 10SM CLR 26/21 A2996 990 73 2500 140/06 RMK AO2
14926KSTC STC20050709210509307/09/05 21:05:31  5-MIN KSTC 100305Z 14005KT 10SM CLR 26/21 A2996 990 73 2500 130/05 RMK AO2
14926KSTC STC20050709211009307/09/05 21:10:31  5-MIN KSTC 100310Z 13005KT 10SM CLR 26/21 A2996 990 73 2500 130/05 RMK AO2
14926KSTC STC20050709211509307/09/05 21:15:31  5-MIN KSTC 100315Z 13006KT 10SM CLR 26/21 A2996 990 73 2500 130/06 RMK AO2
14926KSTC STC20050709212009307/09/05 21:20:31  5-MIN KSTC 100320Z 13006KT 10SM CLR 26/21 A2996 990 73 2500 130/06 RMK AO2
14926KSTC STC20050709212509307/09/05 21:25:31  5-MIN KSTC 100325Z 14006KT 10SM CLR 26/21 A2996 990 73 2500 130/06 RMK AO2
14926KSTC STC20050709213009307/09/05 21:30:31  5-MIN KSTC 100330Z 14005KT 10SM CLR 25/21 A2996 990 76 2400 130/05 RMK AO2
14926KSTC STC20050709213509307/09/05 21:35:31  5-MIN KSTC 100335Z 14006KT 10SM CLR 25/21 A2996 990 76 2400 130/06 RMK AO2
14926KSTC STC20050709214009307/09/05 21:40:31  5-MIN KSTC 100340Z 14006KT 10SM CLR 25/21 A2996 990 76 2400 130/06 RMK AO2
14926KSTC STC20050709214509307/09/05 21:45:31  5-MIN KSTC 100345Z 14005KT 10SM CLR 25/21 A2997 980 76 2400 130/05 RMK AO2
14926KSTC STC20050709215011007/09/05 21:50:31  5-MIN KSTC 100350Z 14006KT 10SM CLR 25/21 A2997 980 76 2400 140/06 RMK AO2 SLP148 T02500206
14926KSTC STC20050709215509807/09/05 21:55:31  5-MIN KSTC 100355Z AUTO 14005KT 10SM CLR 25/20 A2997 980 73 2400 140/05 RMK AO2
14926KSTC STC20050709220009807/09/05 22:00:31  5-MIN KSTC 100400Z AUTO 14005KT 10SM CLR 24/20 A2997 980 76 2300 140/05 RMK AO2
14926KSTC STC20050709220509807/09/05 22:05:31  5-MIN KSTC 100405Z AUTO 14006KT 10SM CLR 24/20 A2997 980 76 2300 140/06 RMK AO2
14926KSTC STC20050709221009807/09/05 22:10:31  5-MIN KSTC 100410Z AUTO 14006KT 10SM CLR 24/20 A2997 980 76 2300 140/06 RMK AO2
14926KSTC STC20050709221509807/09/05 22:15:31  5-MIN KSTC 100415Z AUTO 14006KT 10SM CLR 24/20 A2997 980 76 2300 130/06 RMK AO2
14926KSTC STC20050709222009807/09/05 22:20:31  5-MIN KSTC 100420Z AUTO 14006KT 10SM CLR 24/20 A2997 980 76 2300 140/06 RMK AO2
14926KSTC STC20050709222509807/09/05 22:25:31  5-MIN KSTC 100425Z AUTO 14006KT 10SM CLR 24/20 A2997 980 76 2300 140/06 RMK AO2
14926KSTC STC20050709223009807/09/05 22:30:31  5-MIN KSTC 100430Z AUTO 14006KT 10SM CLR 24/20 A2997 980 76 2300 140/06 RMK AO2
14926KSTC STC20050709223509807/09/05 22:35:31  5-MIN KSTC 100435Z AUTO 14006KT 10SM CLR 24/20 A2997 980 76 2300 140/06 RMK AO2
14926KSTC STC20050709224009807/09/05 22:40:31  5-MIN KSTC 100440Z AUTO 14006KT 10SM CLR 24/20 A2997 980 78 2300 140/06 RMK AO2
14926KSTC STC20050709224509707/09/05 22:45:31  5-MIN KSTC 100445Z AUTO 14006KT 9SM CLR 24/20 A2997 980 78 2300 140/06 RMK AO2
14926KSTC STC20050709225011407/09/05 22:50:31  5-MIN KSTC 100450Z AUTO 14006KT 9SM CLR 24/20 A2997 980 78 2300 140/06 RMK AO2 SLP147 T02390200
14926KSTC STC20050709225509707/09/05 22:55:31  5-MIN KSTC 100455Z AUTO 14006KT 9SM CLR 24/20 A2997 980 78 2300 140/06 RMK AO2
14926KSTC STC20050709230009707/09/05 23:00:31  5-MIN KSTC 100500Z AUTO 14006KT 9SM CLR 24/19 A2997 990 76 2300 140/06 RMK AO2
14926KSTC STC20050709230509707/09/05 23:05:31  5-MIN KSTC 100505Z AUTO 14007KT 9SM CLR 24/19 A2997 980 76 2300 140/07 RMK AO2
14926KSTC STC20050709231009707/09/05 23:10:31  5-MIN KSTC 100510Z AUTO 14006KT 9SM CLR 24/19 A2997 980 76 2300 140/06 RMK AO2
14926KSTC STC20050709231509807/09/05 23:15:31  5-MIN KSTC 100515Z AUTO 14005KT 10SM CLR 24/19 A2997 980 76 2300 140/05 RMK AO2
14926KSTC STC20050709232009707/09/05 23:20:31  5-MIN KSTC 100520Z AUTO 14006KT 9SM CLR 23/19 A2997 980 78 2200 140/06 RMK AO2
14926KSTC STC20050709232509707/09/05 23:25:31  5-MIN KSTC 100525Z AUTO 14006KT 9SM CLR 23/19 A2997 980 78 2200 140/06 RMK AO2
14926KSTC STC20050709233009707/09/05 23:30:31  5-MIN KSTC 100530Z AUTO 14007KT 9SM CLR 23/19 A2996 990 78 2200 140/07 RMK AO2
14926KSTC STC20050709233509707/09/05 23:35:31  5-MIN KSTC 100535Z AUTO 15007KT 9SM CLR 23/19 A2996 990 78 2200 140/07 RMK AO2
14926KSTC STC20050709234009707/09/05 23:40:31  5-MIN KSTC 100540Z AUTO 15007KT 9SM CLR 23/19 A2996 990 81 2200 150/07 RMK AO2
14926KSTC STC20050709234509707/09/05 23:45:31  5-MIN KSTC 100545Z AUTO 15007KT 9SM CLR 23/19 A2997 980 78 2200 150/07 RMK AO2
14926KSTC STC20050709235014207/09/05 23:50:31  5-MIN KSTC 100550Z AUTO 15008KT 9SM CLR 23/19 A2997 980 78 2200 150/08 RMK AO2 SLP147 T02330194 10311 20228 403330178 53007
14926KSTC STC20050709235509707/09/05 23:55:31  5-MIN KSTC 100555Z AUTO 16007KT 9SM CLR 24/19 A2997 980 76 2300 150/07 RMK AO2
14926KSTC STC20050710000009707/10/05 00:00:32  5-MIN KSTC 100600Z AUTO 15007KT 9SM CLR 24/19 A2997 980 76 2300 150/07 RMK AO2
14926KSTC STC20050710000509707/10/05 00:05:31  5-MIN KSTC 100605Z AUTO 15008KT 9SM CLR 24/19 A2997 980 76 2300 150/08 RMK AO2
14926KSTC STC20050710001009707/10/05 00:10:31  5-MIN KSTC 100610Z AUTO 16008KT 9SM CLR 24/19 A2997 980 76 2300 150/08 RMK AO2
14926KSTC STC20050710001509707/10/05 00:15:31  5-MIN KSTC 100615Z AUTO 16008KT 9SM CLR 24/19 A2997 980 76 2300 150/08 RMK AO2
14926KSTC STC20050710002009707/10/05 00:20:31  5-MIN KSTC 100620Z AUTO 16008KT 9SM CLR 24/19 A2997 980 76 2300 150/08 RMK AO2
14926KSTC STC20050710002509707/10/05 00:25:31  5-MIN KSTC 100625Z AUTO 16009KT 9SM CLR 24/19 A2997 980 76 2300 150/09 RMK AO2
14926KSTC STC20050710003009707/10/05 00:30:31  5-MIN KSTC 100630Z AUTO 16009KT 9SM CLR 24/19 A2997 980 76 2300 150/09 RMK AO2
14926KSTC STC20050710003509707/10/05 00:35:31  5-MIN KSTC 100635Z AUTO 16008KT 9SM CLR 24/20 A2997 980 78 2300 160/08 RMK AO2
14926KSTC STC20050710004009707/10/05 00:40:31  5-MIN KSTC 100640Z AUTO 16008KT 9SM CLR 24/20 A2997 980 78 2300 160/08 RMK AO2
14926KSTC STC20050710004509707/10/05 00:45:31  5-MIN KSTC 100645Z AUTO 16008KT 9SM CLR 24/20 A2997 980 78 2300 160/08 RMK AO2
14926KSTC STC20050710005011407/10/05 00:50:31  5-MIN KSTC 100650Z AUTO 16009KT 9SM CLR 24/20 A2997 980 78 2300 160/09 RMK AO2 SLP148 T02390200
14926KSTC STC20050710005509707/10/05 00:55:31  5-MIN KSTC 100655Z AUTO 16008KT 9SM CLR 24/20 A2997 980 78 2300 160/08 RMK AO2
14926KSTC STC20050710010009707/10/05 01:00:31  5-MIN KSTC 100700Z AUTO 16007KT 8SM CLR 24/20 A2997 980 78 2300 160/07 RMK AO2
14926KSTC STC20050710010509707/10/05 01:05:31  5-MIN KSTC 100705Z AUTO 16007KT 8SM CLR 24/20 A2997 980 78 2300 160/07 RMK AO2
14926KSTC STC20050710011009707/10/05 01:10:31  5-MIN KSTC 100710Z AUTO 16008KT 8SM CLR 24/20 A2997 980 78 2300 160/08 RMK AO2
14926KSTC STC20050710011509707/10/05 01:15:31  5-MIN KSTC 100715Z AUTO 16007KT 8SM CLR 24/20 A2997 980 78 2300 160/07 RMK AO2
14926KSTC STC20050710012009707/10/05 01:20:31  5-MIN KSTC 100720Z AUTO 16007KT 8SM CLR 24/20 A2997 980 78 2300 160/07 RMK AO2
14926KSTC STC20050710012509707/10/05 01:25:31  5-MIN KSTC 100725Z AUTO 16008KT 8SM CLR 24/19 A2998 980 76 2300 160/08 RMK AO2
14926KSTC STC20050710013009707/10/05 01:30:31  5-MIN KSTC 100730Z AUTO 16008KT 8SM CLR 24/19 A2998 980 76 2300 160/08 RMK AO2
14926KSTC STC20050710013509707/10/05 01:35:31  5-MIN KSTC 100735Z AUTO 16007KT 8SM CLR 23/19 A2997 980 78 2200 160/07 RMK AO2
14926KSTC STC20050710014009707/10/05 01:40:31  5-MIN KSTC 100740Z AUTO 16007KT 8SM CLR 23/19 A2997 980 78 2200 160/07 RMK AO2
14926KSTC STC20050710014509707/10/05 01:45:31  5-MIN KSTC 100745Z AUTO 16007KT 8SM CLR 23/19 A2997 980 78 2200 160/07 RMK AO2
14926KSTC STC20050710015011407/10/05 01:50:31  5-MIN KSTC 100750Z AUTO 16008KT 8SM CLR 23/19 A2997 980 78 2200 160/08 RMK AO2 SLP149 T02330194
14926KSTC STC20050710015509707/10/05 01:55:31  5-MIN KSTC 100755Z AUTO 16007KT 8SM CLR 24/19 A2997 980 76 2300 160/07 RMK AO2
14926KSTC STC20050710020009707/10/05 02:00:31  5-MIN KSTC 100800Z AUTO 16007KT 8SM CLR 23/19 A2997 980 78 2200 160/07 RMK AO2
14926KSTC STC20050710020509707/10/05 02:05:31  5-MIN KSTC 100805Z AUTO 16007KT 8SM CLR 23/19 A2997 980 78 2200 160/07 RMK AO2
14926KSTC STC20050710021009707/10/05 02:10:31  5-MIN KSTC 100810Z AUTO 16007KT 8SM CLR 23/19 A2997 980 78 2200 160/07 RMK AO2
14926KSTC STC20050710021509707/10/05 02:15:31  5-MIN KSTC 100815Z AUTO 16007KT 8SM CLR 23/19 A2997 980 78 2200 160/07 RMK AO2
14926KSTC STC20050710022009707/10/05 02:20:31  5-MIN KSTC 100820Z AUTO 16007KT 8SM CLR 23/19 A2997 980 78 2200 160/07 RMK AO2
14926KSTC STC20050710022509707/10/05 02:25:31  5-MIN KSTC 100825Z AUTO 16007KT 8SM CLR 23/19 A2997 980 78 2200 160/07 RMK AO2
14926KSTC STC20050710023009707/10/05 02:30:31  5-MIN KSTC 100830Z AUTO 17007KT 8SM CLR 23/19 A2997 980 78 2200 160/07 RMK AO2
14926KSTC STC20050710023509707/10/05 02:35:31  5-MIN KSTC 100835Z AUTO 16008KT 8SM CLR 23/19 A2997 980 78 2200 160/08 RMK AO2
14926KSTC STC20050710024009707/10/05 02:40:31  5-MIN KSTC 100840Z AUTO 16007KT 8SM CLR 23/19 A2997 980 78 2200 150/07 RMK AO2
14926KSTC STC20050710024509707/10/05 02:45:31  5-MIN KSTC 100845Z AUTO 16007KT 8SM CLR 23/19 A2997 980 78 2200 160/07 RMK AO2
14926KSTC STC20050710025012007/10/05 02:50:31  5-MIN KSTC 100850Z AUTO 16006KT 8SM CLR 23/19 A2997 980 81 2100 150/06 RMK AO2 SLP150 T02280194 51003
14926KSTC STC20050710025509707/10/05 02:55:31  5-MIN KSTC 100855Z AUTO 16007KT 8SM CLR 23/19 A2997 980 81 2100 160/07 RMK AO2
14926KSTC STC20050710030009707/10/05 03:00:31  5-MIN KSTC 100900Z AUTO 16007KT 8SM CLR 23/19 A2997 980 81 2100 150/07 RMK AO2
14926KSTC STC20050710030509707/10/05 03:05:31  5-MIN KSTC 100905Z AUTO 16007KT 8SM CLR 23/19 A2997 980 81 2100 160/07 RMK AO2
14926KSTC STC20050710031009707/10/05 03:10:31  5-MIN KSTC 100910Z AUTO 16007KT 8SM CLR 23/19 A2997 980 81 2100 160/07 RMK AO2
14926KSTC STC20050710031509707/10/05 03:15:31  5-MIN KSTC 100915Z AUTO 16007KT 7SM CLR 23/19 A2997 980 81 2100 160/07 RMK AO2
14926KSTC STC20050710032009707/10/05 03:20:31  5-MIN KSTC 100920Z AUTO 16007KT 7SM CLR 23/19 A2997 980 81 2100 160/07 RMK AO2
14926KSTC STC20050710032509707/10/05 03:25:31  5-MIN KSTC 100925Z AUTO 16007KT 7SM CLR 23/19 A2997 980 81 2100 160/07 RMK AO2
14926KSTC STC20050710033010007/10/05 03:30:31  5-MIN KSTC 100930Z AUTO 16007KT 7SM SCT055 23/19 A2997 980 81 2100 160/07 RMK AO2
14926KSTC STC20050710033510007/10/05 03:35:31  5-MIN KSTC 100935Z AUTO 16007KT 7SM BKN055 23/19 A2997 980 81 2100 160/07 RMK AO2
14926KSTC STC20050710034010007/10/05 03:40:31  5-MIN KSTC 100940Z AUTO 16006KT 7SM BKN055 23/19 A2997 980 81 2100 160/06 RMK AO2
14926KSTC STC20050710034510007/10/05 03:45:31  5-MIN KSTC 100945Z AUTO 16007KT 7SM BKN055 23/19 A2997 980 81 2100 160/07 RMK AO2
14926KSTC STC20050710035011707/10/05 03:50:31  5-MIN KSTC 100950Z AUTO 17007KT 7SM BKN055 23/19 A2997 980 81 2100 160/07 RMK AO2 SLP149 T02280194
14926KSTC STC20050710035510007/10/05 03:55:31  5-MIN KSTC 100955Z AUTO 17009KT 7SM BKN055 23/19 A2997 980 81 2100 160/09 RMK AO2
14926KSTC STC20050710040010007/10/05 04:00:31  5-MIN KSTC 101000Z AUTO 16007KT 7SM SCT055 23/19 A2997 980 81 2200 160/07 RMK AO2
14926KSTC STC20050710040510007/10/05 04:05:31  5-MIN KSTC 101005Z AUTO 16008KT 7SM FEW060 23/19 A2997 980 81 2200 160/08 RMK AO2
14926KSTC STC20050710041010007/10/05 04:10:31  5-MIN KSTC 101010Z AUTO 16008KT 7SM FEW060 23/19 A2997 980 81 2200 160/08 RMK AO2
14926KSTC STC20050710041509707/10/05 04:15:31  5-MIN KSTC 101015Z AUTO 16008KT 7SM CLR 23/19 A2997 980 81 2100 160/08 RMK AO2
14926KSTC STC20050710042009707/10/05 04:20:31  5-MIN KSTC 101020Z AUTO 16007KT 7SM CLR 22/19 A2997 980 84 2100 160/07 RMK AO2
14926KSTC STC20050710042509707/10/05 04:25:31  5-MIN KSTC 101025Z AUTO 17008KT 7SM CLR 22/19 A2997 980 84 2100 170/08 RMK AO2
14926KSTC STC20050710043009707/10/05 04:30:31  5-MIN KSTC 101030Z AUTO 16007KT 7SM CLR 22/19 A2997 980 84 2100 160/07 RMK AO2
14926KSTC STC20050710043509707/10/05 04:35:31  5-MIN KSTC 101035Z AUTO 16007KT 7SM CLR 22/19 A2997 980 84 2100 160/07 RMK AO2
14926KSTC STC20050710044010007/10/05 04:40:31  5-MIN KSTC 101040Z AUTO 16008KT 6SM HZ CLR 22/19 A2997 980 84 2100 160/08 RMK AO2
14926KSTC STC20050710044510007/10/05 04:45:31  5-MIN KSTC 101045Z AUTO 16007KT 6SM HZ CLR 22/19 A2997 980 84 2100 160/07 RMK AO2
14926KSTC STC20050710045011707/10/05 04:50:31  5-MIN KSTC 101050Z AUTO 16007KT 6SM HZ CLR 22/19 A2997 980 84 2100 160/07 RMK AO2 SLP150 T02220194
14926KSTC STC20050710045510007/10/05 04:55:31  5-MIN KSTC 101055Z AUTO 16006KT 6SM HZ CLR 22/19 A2998 970 84 2100 160/06 RMK AO2
14926KSTC STC20050710050010007/10/05 05:00:31  5-MIN KSTC 101100Z AUTO 16007KT 6SM HZ CLR 22/19 A2998 970 84 2100 150/07 RMK AO2
14926KSTC STC20050710050510007/10/05 05:05:31  5-MIN KSTC 101105Z AUTO 16007KT 6SM HZ CLR 22/19 A2998 970 84 2100 160/07 RMK AO2
14926KSTC STC20050710051010007/10/05 05:10:31  5-MIN KSTC 101110Z AUTO 16006KT 6SM HZ CLR 22/19 A2998 970 84 2100 160/06 RMK AO2
14926KSTC STC20050710051510007/10/05 05:15:31  5-MIN KSTC 101115Z AUTO 16007KT 6SM HZ CLR 22/19 A2998 970 84 2100 160/07 RMK AO2
14926KSTC STC20050710052010007/10/05 05:20:31  5-MIN KSTC 101120Z AUTO 16006KT 6SM HZ CLR 22/19 A2998 980 84 2100 150/06 RMK AO2
14926KSTC STC20050710052510007/10/05 05:25:31  5-MIN KSTC 101125Z AUTO 15007KT 6SM HZ CLR 22/19 A2997 980 84 2100 150/07 RMK AO2
14926KSTC STC20050710053010007/10/05 05:30:31  5-MIN KSTC 101130Z AUTO 15007KT 6SM HZ CLR 23/19 A2997 980 81 2100 150/07 RMK AO2
14926KSTC STC20050710053510007/10/05 05:35:31  5-MIN KSTC 101135Z AUTO 15007KT 6SM HZ CLR 23/19 A2997 980 81 2100 150/07 RMK AO2
14926KSTC STC20050710054010007/10/05 05:40:31  5-MIN KSTC 101140Z AUTO 15008KT 6SM HZ CLR 23/19 A2997 980 81 2100 150/08 RMK AO2
14926KSTC STC20050710054510007/10/05 05:45:31  5-MIN KSTC 101145Z AUTO 15009KT 6SM HZ CLR 23/19 A2997 980 81 2100 150/09 RMK AO2
14926KSTC STC20050710055013507/10/05 05:50:31  5-MIN KSTC 101150Z AUTO 16008KT 6SM HZ CLR 23/19 A2997 980 81 2100 150/08 RMK AO2 SLP150 T02280194 10239 20222 52002
14926KSTC STC20050710055510007/10/05 05:55:31  5-MIN KSTC 101155Z AUTO 16009KT 6SM HZ CLR 23/19 A2997 980 78 2200 150/09 RMK AO2
14926KSTC STC20050710060010007/10/05 06:00:31  5-MIN KSTC 101200Z AUTO 16008KT 6SM HZ CLR 23/19 A2997 980 78 2200 150/08 RMK AO2
14926KSTC STC20050710060510007/10/05 06:05:31  5-MIN KSTC 101205Z AUTO 16009KT 6SM HZ CLR 23/19 A2997 980 78 2200 160/09 RMK AO2
14926KSTC STC20050710061009707/10/05 06:10:31  5-MIN KSTC 101210Z AUTO 16009KT 7SM CLR 23/19 A2997 980 78 2200 160/09 RMK AO2
14926KSTC STC20050710061509707/10/05 06:15:31  5-MIN KSTC 101215Z AUTO 16009KT 7SM CLR 23/19 A2998 970 78 2200 150/09 RMK AO2
14926KSTC STC20050710062009707/10/05 06:20:31  5-MIN KSTC 101220Z AUTO 16009KT 7SM CLR 23/19 A2998 970 78 2200 160/09 RMK AO2
14926KSTC STC20050710062509707/10/05 06:25:31  5-MIN KSTC 101225Z AUTO 16008KT 7SM CLR 24/19 A2998 980 76 2300 160/08 RMK AO2
14926KSTC STC20050710063009707/10/05 06:30:31  5-MIN KSTC 101230Z AUTO 17010KT 7SM CLR 24/19 A2997 980 76 2300 160/10 RMK AO2
14926KSTC STC20050710063509707/10/05 06:35:31  5-MIN KSTC 101235Z AUTO 17010KT 7SM CLR 24/19 A2997 980 76 2300 160/10 RMK AO2
14926KSTC STC20050710064009707/10/05 06:40:31  5-MIN KSTC 101240Z AUTO 16008KT 7SM CLR 24/19 A2997 980 73 2300 160/08 RMK AO2
14926KSTC STC20050710064509707/10/05 06:45:31  5-MIN KSTC 101245Z AUTO 17010KT 7SM CLR 24/19 A2997 980 73 2300 170/10 RMK AO2
14926KSTC STC20050710065011407/10/05 06:50:31  5-MIN KSTC 101250Z AUTO 17009KT 7SM CLR 24/19 A2997 980 73 2300 160/09 RMK AO2 SLP150 T02440194
14926KSTC STC20050710065509707/10/05 06:55:31  5-MIN KSTC 101255Z AUTO 17009KT 8SM CLR 24/19 A2997 980 73 2300 170/09 RMK AO2
14926KSTC STC20050710070009707/10/05 07:00:31  5-MIN KSTC 101300Z AUTO 17010KT 8SM CLR 24/19 A2997 980 73 2300 170/10 RMK AO2
14926KSTC STC20050710070510007/10/05 07:05:31  5-MIN KSTC 101305Z AUTO 17010KT 8SM FEW060 25/19 A2998 970 71 2400 170/10 RMK AO2
14926KSTC STC20050710071010007/10/05 07:10:31  5-MIN KSTC 101310Z AUTO 18009KT 8SM SCT060 25/19 A2998 970 71 2400 170/09 RMK AO2
14926KSTC STC20050710071510007/10/05 07:15:31  5-MIN KSTC 101315Z AUTO 18010KT 8SM SCT060 25/19 A2998 970 71 2400 180/10 RMK AO2
14926KSTC STC20050710072010007/10/05 07:20:31  5-MIN KSTC 101320Z AUTO 19009KT 8SM SCT060 25/19 A2998 970 71 2400 180/09 RMK AO2
14926KSTC STC20050710072510007/10/05 07:25:31  5-MIN KSTC 101325Z AUTO 17008KT 8SM BKN060 26/19 A2998 970 68 2400 170/08 RMK AO2
14926KSTC STC20050710073010007/10/05 07:30:31  5-MIN KSTC 101330Z AUTO 18010KT 8SM BKN060 25/19 A2999 960 71 2400 180/10 RMK AO2
14926KSTC STC20050710073510007/10/05 07:35:31  5-MIN KSTC 101335Z AUTO 18009KT 8SM BKN060 25/19 A2999 960 71 2400 170/09 RMK AO2
14926KSTC STC20050710074010007/10/05 07:40:31  5-MIN KSTC 101340Z AUTO 18008KT 8SM BKN060 25/19 A2999 960 71 2400 170/08 RMK AO2
14926KSTC STC20050710074510007/10/05 07:45:31  5-MIN KSTC 101345Z AUTO 18008KT 8SM SCT060 26/19 A2999 970 68 2400 170/08 RMK AO2
14926KSTC STC20050710075011707/10/05 07:50:31  5-MIN KSTC 101350Z AUTO 19008KT 8SM SCT060 26/19 A2999 970 68 2400 190/08 RMK AO2 SLP154 T02560194
14926KSTC STC20050710075510007/10/05 07:55:31  5-MIN KSTC 101355Z AUTO 18007KT 8SM FEW065 26/19 A2999 970 66 2500 180/07 RMK AO2
14926KSTC STC20050710080010607/10/05 08:00:31  5-MIN KSTC 101400Z AUTO 18009G16KT 8SM FEW065 26/19 A2999 960 66 2500 180/09G16 RMK AO2
14926KSTC STC20050710080509707/10/05 08:05:31  5-MIN KSTC 101405Z AUTO 17010KT 8SM CLR 26/19 A2999 960 66 2500 160/10 RMK AO2
14926KSTC STC20050710081009707/10/05 08:10:31  5-MIN KSTC 101410Z AUTO 18010KT 8SM CLR 26/19 A2999 960 66 2500 170/10 RMK AO2
14926KSTC STC20050710081509707/10/05 08:15:31  5-MIN KSTC 101415Z AUTO 17010KT 8SM CLR 27/20 A2999 960 66 2600 170/10 RMK AO2
14926KSTC STC20050710082009707/10/05 08:20:31  5-MIN KSTC 101420Z AUTO 18011KT 8SM CLR 27/19 A2999 960 64 2600 170/11 RMK AO2
14926KSTC STC20050710082509707/10/05 08:25:31  5-MIN KSTC 101425Z AUTO 18011KT 9SM CLR 27/20 A2999 960 64 2600 180/11 RMK AO2
14926KSTC STC20050710083009707/10/05 08:30:31  5-MIN KSTC 101430Z AUTO 18013KT 9SM CLR 27/19 A2999 960 62 2600 180/13 RMK AO2
14926KSTC STC20050710083509707/10/05 08:35:31  5-MIN KSTC 101435Z AUTO 18012KT 9SM CLR 27/19 A2999 960 62 2600 180/12 RMK AO2
14926KSTC STC20050710084009707/10/05 08:40:31  5-MIN KSTC 101440Z AUTO 17011KT 9SM CLR 27/19 A3000 960 62 2600 170/11 RMK AO2
14926KSTC STC20050710084509707/10/05 08:45:31  5-MIN KSTC 101445Z AUTO 17012KT 9SM CLR 28/19 A2999 960 60 2700 170/12 RMK AO2
14926KSTC STC20050710085012007/10/05 08:50:31  5-MIN KSTC 101450Z AUTO 18013KT 9SM CLR 28/19 A2999 960 60 2700 180/13 RMK AO2 SLP157 T02780194 54000
14926KSTC STC20050710085509707/10/05 08:55:31  5-MIN KSTC 101455Z AUTO 19014KT 9SM CLR 28/19 A3000 960 60 2700 190/14 RMK AO2
14926KSTC STC20050710090009707/10/05 09:00:31  5-MIN KSTC 101500Z AUTO 19012KT 9SM CLR 28/19 A2999 960 60 2700 190/12 RMK AO2
14926KSTC STC20050710090509707/10/05 09:05:31  5-MIN KSTC 101505Z AUTO 19012KT 9SM CLR 28/19 A3000 960 60 2700 180/12 RMK AO2
14926KSTC STC20050710091009707/10/05 09:10:31  5-MIN KSTC 101510Z AUTO 18013KT 9SM CLR 28/19 A3000 960 60 2700 180/13 RMK AO2
14926KSTC STC20050710091510307/10/05 09:15:31  5-MIN KSTC 101515Z AUTO 18013G19KT 9SM CLR 28/19 A3000 960 58 2700 170/13G19 RMK AO2
14926KSTC STC20050710092009707/10/05 09:20:31  5-MIN KSTC 101520Z AUTO 19014KT 9SM CLR 28/19 A3000 960 58 2700 190/14 RMK AO2
14926KSTC STC20050710092509707/10/05 09:25:31  5-MIN KSTC 101525Z AUTO 18011KT 9SM CLR 28/19 A3000 960 58 2700 180/11 RMK AO2
14926KSTC STC20050710093009707/10/05 09:30:31  5-MIN KSTC 101530Z AUTO 18014KT 9SM CLR 28/20 A3000 960 60 2700 170/14 RMK AO2
14926KSTC STC20050710093509707/10/05 09:35:31  5-MIN KSTC 101535Z AUTO 19010KT 9SM CLR 29/20 A3000 960 58 2800 180/10 RMK AO2
14926KSTC STC20050710094010307/10/05 09:40:31  5-MIN KSTC 101540Z AUTO 19015G19KT 9SM CLR 29/19 A3000 960 56 2800 190/15G19 RMK AO2
14926KSTC STC20050710094510307/10/05 09:45:31  5-MIN KSTC 101545Z AUTO 19015G19KT 9SM CLR 28/19 A3000 960 58 2700 190/15G19 RMK AO2
14926KSTC STC20050710095011407/10/05 09:50:31  5-MIN KSTC 101550Z AUTO 19013KT 9SM CLR 29/19 A3000 960 56 2800 190/13 RMK AO2 SLP158 T02890194
14926KSTC STC20050710095509707/10/05 09:55:31  5-MIN KSTC 101555Z AUTO 19015KT 9SM CLR 29/19 A3000 960 56 2800 180/15 RMK AO2
14926KSTC STC20050710100009707/10/05 10:00:31  5-MIN KSTC 101600Z AUTO 18012KT 9SM CLR 29/19 A3000 950 54 2900 180/12 RMK AO2
14926KSTC STC20050710100510307/10/05 10:05:31  5-MIN KSTC 101605Z AUTO 19016G19KT 9SM CLR 29/19 A3000 950 56 2800 190/16G19 RMK AO2
14926KSTC STC20050710101009807/10/05 10:10:31  5-MIN KSTC 101610Z AUTO 19016KT 10SM CLR 29/19 A3000 950 54 2900 190/16 RMK AO2
14926KSTC STC20050710101509707/10/05 10:15:31  5-MIN KSTC 101615Z AUTO 18012KT 9SM CLR 29/20 A3000 950 56 2900 170/12 RMK AO2
14926KSTC STC20050710102009707/10/05 10:20:31  5-MIN KSTC 101620Z AUTO 18014KT 9SM CLR 30/20 A3000 950 54 2900 170/14 RMK AO2
14926KSTC STC20050710102509707/10/05 10:25:31  5-MIN KSTC 101625Z AUTO 19011KT 9SM CLR 30/20 A3000 950 54 2900 190/11 RMK AO2
14926KSTC STC20050710103009807/10/05 10:30:31  5-MIN KSTC 101630Z AUTO 19013KT 10SM CLR 30/20 A3000 950 54 2900 190/13 RMK AO2
14926KSTC STC20050710103509807/10/05 10:35:31  5-MIN KSTC 101635Z AUTO 18012KT 10SM CLR 30/20 A3000 950 54 2900 180/12 RMK AO2
14926KSTC STC20050710104009807/10/05 10:40:31  5-MIN KSTC 101640Z AUTO 20013KT 10SM CLR 30/20 A3000 950 54 2900 190/13 RMK AO2
14926KSTC STC20050710104509807/10/05 10:45:31  5-MIN KSTC 101645Z AUTO 17013KT 10SM CLR 30/20 A3000 950 54 2900 170/13 RMK AO2
14926KSTC STC20050710105011507/10/05 10:50:31  5-MIN KSTC 101650Z AUTO 18013KT 10SM CLR 30/20 A3000 950 54 2900 170/13 RMK AO2 SLP160 T03000200
14926KSTC STC20050710105509807/10/05 10:55:31  5-MIN KSTC 101655Z AUTO 18013KT 10SM CLR 31/20 A3000 950 52 3000 180/13 RMK AO2
14926KSTC STC20050710110009807/10/05 11:00:31  5-MIN KSTC 101700Z AUTO 19013KT 10SM CLR 31/20 A3000 950 51 3000 190/13 RMK AO2
14926KSTC STC20050710110510407/10/05 11:05:31  5-MIN KSTC 101705Z AUTO 18015G20KT 10SM CLR 31/20 A3000 950 51 3000 180/15G20 RMK AO2
14926KSTC STC20050710111010407/10/05 11:10:31  5-MIN KSTC 101710Z AUTO 18013G20KT 10SM CLR 31/19 A3000 950 49 3000 170/13G20 RMK AO2
14926KSTC STC20050710111509807/10/05 11:15:31  5-MIN KSTC 101715Z AUTO 19013KT 10SM CLR 31/19 A3000 950 49 3000 190/13 RMK AO2
14926KSTC STC20050710112009807/10/05 11:20:31  5-MIN KSTC 101720Z AUTO 17014KT 10SM CLR 31/19 A3000 960 47 3000 170/14 RMK AO2
14926KSTC STC20050710112510407/10/05 11:25:31  5-MIN KSTC 101725Z AUTO 18017G20KT 10SM CLR 31/19 A2999 960 47 3100 180/17G20 RMK AO2
14926KSTC STC20050710113010407/10/05 11:30:31  5-MIN KSTC 101730Z AUTO 18014G20KT 10SM CLR 31/18 A3000 960 46 3000 180/14G20 RMK AO2
14926KSTC STC20050710113510407/10/05 11:35:31  5-MIN KSTC 101735Z AUTO 19013G20KT 10SM CLR 32/18 A3000 960 44 3100 180/13G20 RMK AO2
14926KSTC STC20050710114010407/10/05 11:40:31  5-MIN KSTC 101740Z AUTO 17015G20KT 10SM CLR 31/19 A3000 950 47 3000 170/15G20 RMK AO2
14926KSTC STC20050710114510407/10/05 11:45:31  5-MIN KSTC 101745Z AUTO 18015G19KT 10SM CLR 31/19 A3000 950 47 3000 170/15G19 RMK AO2
14926KSTC STC20050710115013307/10/05 11:50:31  5-MIN KSTC 101750Z AUTO 20014KT 10SM CLR 32/19 A3000 950 46 3100 190/14 RMK AO2 SLP159 T03170189 10317 20228 53007
14926KSTC STC20050710115510407/10/05 11:55:31  5-MIN KSTC 101755Z AUTO 18015G19KT 10SM CLR 32/19 A3000 950 46 3100 180/15G19 RMK AO2
14926KSTC STC20050710120010407/10/05 12:00:31  5-MIN KSTC 101800Z AUTO 17014G19KT 10SM CLR 32/18 A3000 950 44 3100 170/14G19 RMK AO2
14926KSTC STC20050710120510407/10/05 12:05:31  5-MIN KSTC 101805Z AUTO 19015G19KT 10SM CLR 32/19 A3000 960 46 3100 190/15G19 RMK AO2
14926KSTC STC20050710121009807/10/05 12:10:31  5-MIN KSTC 101810Z AUTO 17014KT 10SM CLR 32/18 A3000 950 44 3100 170/14 RMK AO2
14926KSTC STC20050710121510407/10/05 12:15:31  5-MIN KSTC 101815Z AUTO 19014G19KT 10SM CLR 32/18 A3000 950 44 3100 190/14G19 RMK AO2
14926KSTC STC20050710122009807/10/05 12:20:31  5-MIN KSTC 101820Z AUTO 19013KT 10SM CLR 32/18 A3000 950 43 3200 180/13 RMK AO2
14926KSTC STC20050710122509807/10/05 12:25:31  5-MIN KSTC 101825Z AUTO 20014KT 10SM CLR 32/18 A3000 960 43 3200 190/14 RMK AO2
14926KSTC STC20050710123009807/10/05 12:30:31  5-MIN KSTC 101830Z AUTO 18013KT 10SM CLR 32/18 A3000 960 43 3200 170/13 RMK AO2
14926KSTC STC20050710123509807/10/05 12:35:31  5-MIN KSTC 101835Z AUTO 19014KT 10SM CLR 32/19 A2999 960 44 3200 190/14 RMK AO2
14926KSTC STC20050710124009807/10/05 12:40:31  5-MIN KSTC 101840Z AUTO 20012KT 10SM CLR 32/19 A2999 960 44 3200 190/12 RMK AO2
14926KSTC STC20050710124509807/10/05 12:45:31  5-MIN KSTC 101845Z AUTO 18013KT 10SM CLR 32/19 A2999 960 46 3200 170/13 RMK AO2
14926KSTC STC20050710125011507/10/05 12:50:31  5-MIN KSTC 101850Z AUTO 19013KT 10SM CLR 32/19 A2999 960 46 3200 190/13 RMK AO2 SLP157 T03220194
14926KSTC STC20050710125509807/10/05 12:55:31  5-MIN KSTC 101855Z AUTO 19014KT 10SM CLR 32/19 A2999 960 46 3200 190/14 RMK AO2
14926KSTC STC20050710130009807/10/05 13:00:31  5-MIN KSTC 101900Z AUTO 19014KT 10SM CLR 32/19 A2999 960 46 3200 180/14 RMK AO2
14926KSTC STC20050710130509807/10/05 13:05:31  5-MIN KSTC 101905Z AUTO 18015KT 10SM CLR 32/19 A2999 960 46 3200 180/15 RMK AO2
14926KSTC STC20050710131009807/10/05 13:10:31  5-MIN KSTC 101910Z AUTO 18013KT 10SM CLR 32/19 A2999 960 46 3200 180/13 RMK AO2
14926KSTC STC20050710131510407/10/05 13:15:31  5-MIN KSTC 101915Z AUTO 20015G19KT 10SM CLR 32/19 A2999 960 44 3200 190/15G19 RMK AO2
14926KSTC STC20050710132009807/10/05 13:20:31  5-MIN KSTC 101920Z AUTO 19014KT 10SM CLR 32/19 A2999 970 46 3200 190/14 RMK AO2
14926KSTC STC20050710132509807/10/05 13:25:31  5-MIN KSTC 101925Z AUTO 20016KT 10SM CLR 32/19 A2999 960 46 3200 200/16 RMK AO2
14926KSTC STC20050710133009807/10/05 13:30:31  5-MIN KSTC 101930Z AUTO 20011KT 10SM CLR 32/19 A2999 960 46 3200 200/11 RMK AO2
14926KSTC STC20050710133511407/10/05 13:35:31  5-MIN KSTC 101935Z AUTO 18009KT 150V210 10SM CLR 33/20 A2999 960 46 3200 180/09 150V210 RMK AO2
14926KSTC STC20050710134010407/10/05 13:40:31  5-MIN KSTC 101940Z AUTO 18015G21KT 10SM CLR 33/20 A2999 960 46 3200 180/15G21 RMK AO2
14926KSTC STC20050710134510407/10/05 13:45:31  5-MIN KSTC 101945Z AUTO 20014G21KT 10SM CLR 32/19 A2999 960 46 3200 190/14G21 RMK AO2
14926KSTC STC20050710135011507/10/05 13:50:31  5-MIN KSTC 101950Z AUTO 17013KT 10SM CLR 33/20 A2999 960 46 3200 170/13 RMK AO2 SLP156 T03280200
14926KSTC STC20050710135509807/10/05 13:55:31  5-MIN KSTC 101955Z AUTO 19014KT 10SM CLR 32/20 A2999 960 48 3200 190/14 RMK AO2
14926KSTC STC20050710140010407/10/05 14:00:31  5-MIN KSTC 102000Z AUTO 20014G19KT 10SM CLR 32/20 A2999 970 48 3200 190/14G19 RMK AO2
14926KSTC STC20050710140510407/10/05 14:05:31  5-MIN KSTC 102005Z AUTO 17016G19KT 10SM CLR 33/20 A2999 960 46 3200 170/16G19 RMK AO2
14926KSTC STC20050710141010407/10/05 14:10:31  5-MIN KSTC 102010Z AUTO 18012G19KT 10SM CLR 32/19 A2999 960 46 3200 170/12G19 RMK AO2
14926KSTC STC20050710141510407/10/05 14:15:31  5-MIN KSTC 102015Z AUTO 18015G20KT 10SM CLR 32/20 A2999 960 48 3200 180/15G20 RMK AO2
14926KSTC STC20050710142010407/10/05 14:20:31  5-MIN KSTC 102020Z AUTO 18013G20KT 10SM CLR 32/20 A2999 960 48 3200 180/13G20 RMK AO2
14926KSTC STC20050710142509807/10/05 14:25:31  5-MIN KSTC 102025Z AUTO 18011KT 10SM CLR 33/20 A2999 960 46 3200 180/11 RMK AO2
14926KSTC STC20050710143010707/10/05 14:30:31  5-MIN KSTC 102030Z AUTO 18014G18KT 10SM FEW046 32/20 A2999 970 48 3200 180/14G18 RMK AO2
14926KSTC STC20050710143510107/10/05 14:35:31  5-MIN KSTC 102035Z AUTO 19018KT 10SM FEW046 32/19 A2998 970 46 3200 190/18 RMK AO2
14926KSTC STC20050710144010107/10/05 14:40:31  5-MIN KSTC 102040Z AUTO 19014KT 10SM FEW046 32/19 A2998 970 44 3200 180/14 RMK AO2
14926KSTC STC20050710144510107/10/05 14:45:31  5-MIN KSTC 102045Z AUTO 17016KT 10SM FEW046 33/19 A2998 970 44 3200 170/16 RMK AO2
14926KSTC STC20050710145012407/10/05 14:50:31  5-MIN KSTC 102050Z AUTO 17019KT 10SM FEW046 33/19 A2998 970 44 3200 170/19 RMK AO2 SLP153 T03280194 51003
14926KSTC STC20050710145510707/10/05 14:55:31  5-MIN KSTC 102055Z AUTO 17015G21KT 10SM FEW046 32/19 A2998 970 44 3200 170/15G21 RMK AO2
14926KSTC STC20050710150010407/10/05 15:00:31  5-MIN KSTC 102100Z AUTO 19017G22KT 10SM CLR 32/19 A2998 970 44 3200 180/17G22 RMK AO2
14926KSTC STC20050710150510407/10/05 15:05:31  5-MIN KSTC 102105Z AUTO 19016G22KT 10SM CLR 33/19 A2998 970 43 3300 180/16G22 RMK AO2
14926KSTC STC20050710151010407/10/05 15:10:31  5-MIN KSTC 102110Z AUTO 19016G20KT 10SM CLR 33/19 A2998 970 43 3300 190/16G20 RMK AO2
14926KSTC STC20050710151510407/10/05 15:15:31  5-MIN KSTC 102115Z AUTO 19013G22KT 10SM CLR 33/19 A2998 970 43 3300 180/13G22 RMK AO2
14926KSTC STC20050710152010407/10/05 15:20:31  5-MIN KSTC 102120Z AUTO 18014G22KT 10SM CLR 33/18 A2997 980 41 3300 180/14G22 RMK AO2
14926KSTC STC20050710152510407/10/05 15:25:31  5-MIN KSTC 102125Z AUTO 18013G19KT 10SM CLR 32/19 A2997 980 44 3200 180/13G19 RMK AO2
14926KSTC STC20050710153010407/10/05 15:30:31  5-MIN KSTC 102130Z AUTO 18011G19KT 10SM CLR 33/19 A2998 980 43 3300 180/11G19 RMK AO2
14926KSTC STC20050710153510407/10/05 15:35:31  5-MIN KSTC 102135Z AUTO 17015G18KT 10SM CLR 33/19 A2997 980 43 3300 170/15G18 RMK AO2
14926KSTC STC20050710154010707/10/05 15:40:31  5-MIN KSTC 102140Z AUTO 19011G18KT 10SM FEW050 32/19 A2998 980 46 3200 180/11G18 RMK AO2
14926KSTC STC20050710154510107/10/05 15:45:31  5-MIN KSTC 102145Z AUTO 17013KT 10SM FEW050 33/18 A2997 980 41 3300 170/13 RMK AO2
14926KSTC STC20050710155011807/10/05 15:50:31  5-MIN KSTC 102150Z AUTO 17013KT 10SM FEW055 33/18 A2998 980 41 3300 170/13 RMK AO2 SLP151 T03280183
14926KSTC STC20050710155510707/10/05 15:55:31  5-MIN KSTC 102155Z AUTO 17014G19KT 10SM FEW055 32/18 A2997 980 43 3200 170/14G19 RMK AO2
14926KSTC STC20050710160010707/10/05 16:00:31  5-MIN KSTC 102200Z AUTO 16013G19KT 10SM FEW055 32/18 A2997 980 43 3200 160/13G19 RMK AO2
14926KSTC STC20050710160510707/10/05 16:05:31  5-MIN KSTC 102205Z AUTO 17014G18KT 10SM FEW055 33/18 A2997 980 41 3300 160/14G18 RMK AO2
14926KSTC STC20050710161010707/10/05 16:10:31  5-MIN KSTC 102210Z AUTO 17014G18KT 10SM FEW055 33/18 A2997 980 40 3300 170/14G18 RMK AO2
14926KSTC STC20050710161510107/10/05 16:15:31  5-MIN KSTC 102215Z AUTO 17014KT 10SM FEW055 33/18 A2997 980 40 3300 170/14 RMK AO2
14926KSTC STC20050710162010107/10/05 16:20:31  5-MIN KSTC 102220Z AUTO 17014KT 10SM FEW055 33/18 A2996 990 41 3300 160/14 RMK AO2
14926KSTC STC20050710162509807/10/05 16:25:31  5-MIN KSTC 102225Z AUTO 18012KT 10SM CLR 32/18 A2996 990 41 3200 170/12 RMK AO2
14926KSTC STC20050710163009807/10/05 16:30:31  5-MIN KSTC 102230Z AUTO 18013KT 10SM CLR 32/18 A2996 990 41 3200 170/13 RMK AO2
14926KSTC STC20050710163509807/10/05 16:35:31  5-MIN KSTC 102235Z AUTO 18012KT 10SM CLR 32/18 A2996 990 41 3200 170/12 RMK AO2
14926KSTC STC20050710164009807/10/05 16:40:31  5-MIN KSTC 102240Z AUTO 17013KT 10SM CLR 32/18 A2996 990 41 3200 170/13 RMK AO2
14926KSTC STC20050710164509807/10/05 16:45:31  5-MIN KSTC 102245Z AUTO 17013KT 10SM CLR 32/18 A2996 990 41 3200 170/13 RMK AO2
14926KSTC STC20050710165011507/10/05 16:50:31  5-MIN KSTC 102250Z AUTO 18012KT 10SM CLR 32/18 A2996 990 41 3200 170/12 RMK AO2 SLP146 T03220178
14926KSTC STC20050710165509807/10/05 16:55:31  5-MIN KSTC 102255Z AUTO 17012KT 10SM CLR 32/18 A2996 990 41 3200 170/12 RMK AO2
14926KSTC STC20050710170009807/10/05 17:00:31  5-MIN KSTC 102300Z AUTO 17013KT 10SM CLR 32/18 A2996 990 41 3200 160/13 RMK AO2
14926KSTC STC20050710170509807/10/05 17:05:31  5-MIN KSTC 102305Z AUTO 17012KT 10SM CLR 32/18 A2996 990 43 3100 170/12 RMK AO2
14926KSTC STC20050710171009807/10/05 17:10:31  5-MIN KSTC 102310Z AUTO 17014KT 10SM CLR 32/18 A2996 990 41 3200 170/14 RMK AO2
14926KSTC STC20050710171509807/10/05 17:15:31  5-MIN KSTC 102315Z AUTO 17012KT 10SM CLR 32/18 A2996 990 43 3200 170/12 RMK AO2
14926KSTC STC20050710172009807/10/05 17:20:31  5-MIN KSTC 102320Z AUTO 18012KT 10SM CLR 32/18 A2996 990 43 3200 180/12 RMK AO2
14926KSTC STC20050710172509807/10/05 17:25:31  5-MIN KSTC 102325Z AUTO 17011KT 10SM CLR 32/18 A2996 990 44 3200 170/11 RMK AO2
14926KSTC STC20050710173009807/10/05 17:30:31  5-MIN KSTC 102330Z AUTO 17010KT 10SM CLR 32/18 A2996 990 44 3200 170/10 RMK AO2
14926KSTC STC20050710173509807/10/05 17:35:31  5-MIN KSTC 102335Z AUTO 18010KT 10SM CLR 32/18 A2996 990 44 3200 180/10 RMK AO2
14926KSTC STC20050710174009807/10/05 17:40:31  5-MIN KSTC 102340Z AUTO 17011KT 10SM CLR 32/18 A2996 990 44 3100 170/11 RMK AO2
14926KSTC STC20050710174509807/10/05 17:45:31  5-MIN KSTC 102345Z AUTO 18009KT 10SM CLR 32/18 A2996 990 44 3100 170/09 RMK AO2
14926KSTC STC20050710175013307/10/05 17:50:31  5-MIN KSTC 102350Z AUTO 17010KT 10SM CLR 31/18 A2996 990 46 3100 170/10 RMK AO2 SLP146 T03110183 10328 20311 58007
14926KSTC STC20050710175509807/10/05 17:55:31  5-MIN KSTC 102355Z AUTO 17010KT 10SM CLR 31/18 A2996 990 46 3100 170/10 RMK AO2
14926KSTC STC20050710180009807/10/05 18:00:31  5-MIN KSTC 110000Z AUTO 17009KT 10SM CLR 31/18 A2996 990 46 3100 170/09 RMK AO2
14926KSTC STC20050710180509807/10/05 18:05:31  5-MIN KSTC 110005Z AUTO 17009KT 10SM CLR 31/18 A2996 990 46 3100 170/09 RMK AO2
14926KSTC STC20050710181009807/10/05 18:10:31  5-MIN KSTC 110010Z AUTO 17009KT 10SM CLR 31/18 A2996 990 46 3100 170/09 RMK AO2
14926KSTC STC20050710181509807/10/05 18:15:31  5-MIN KSTC 110015Z AUTO 17009KT 10SM CLR 31/19 A2996 990 47 3100 160/09 RMK AO2
14926KSTC STC20050710182009807/10/05 18:20:31  5-MIN KSTC 110020Z AUTO 17009KT 10SM CLR 31/19 A2996 990 49 3000 160/09 RMK AO2
14926KSTC STC20050710182509807/10/05 18:25:31  5-MIN KSTC 110025Z AUTO 16007KT 10SM CLR 31/19 A2996 990 49 3000 160/07 RMK AO2
14926KSTC STC20050710183009807/10/05 18:30:31  5-MIN KSTC 110030Z AUTO 17008KT 10SM CLR 31/19 A2996 990 49 3000 160/08 RMK AO2
14926KSTC STC20050710183509807/10/05 18:35:31  5-MIN KSTC 110035Z AUTO 17008KT 10SM CLR 31/19 A2996 990 49 3000 170/08 RMK AO2
14926KSTC STC20050710184009807/10/05 18:40:31  5-MIN KSTC 110040Z AUTO 17006KT 10SM CLR 30/19 A2996 990 51 3000 160/06 RMK AO2
14926KSTC STC20050710184509807/10/05 18:45:31  5-MIN KSTC 110045Z AUTO 16007KT 10SM CLR 30/19 A2996 990 52 3000 160/07 RMK AO2
14926KSTC STC20050710185011507/10/05 18:50:31  5-MIN KSTC 110050Z AUTO 16005KT 10SM CLR 30/19 A2996 990 52 3000 150/05 RMK AO2 SLP145 T03000194
14926KSTC STC20050710185509707/10/05 18:55:31  5-MIN KSTC 110055Z AUTO 16006KT 9SM CLR 29/19 A2996 990 54 2900 150/06 RMK AO2
14926KSTC STC20050710190009707/10/05 19:00:31  5-MIN KSTC 110100Z AUTO 15006KT 9SM CLR 29/19 A2996 990 54 2900 150/06 RMK AO2
14926KSTC STC20050710190509707/10/05 19:05:31  5-MIN KSTC 110105Z AUTO 16007KT 9SM CLR 29/19 A2996 990 54 2900 150/07 RMK AO2
14926KSTC STC20050710191009707/10/05 19:10:31  5-MIN KSTC 110110Z AUTO 16008KT 9SM CLR 29/19 A2996 990 54 2900 160/08 RMK AO2
14926KSTC STC20050710191509707/10/05 19:15:31  5-MIN KSTC 110115Z AUTO 16007KT 9SM CLR 29/19 A2996 990 56 2800 160/07 RMK AO2
14926KSTC STC20050710192009707/10/05 19:20:31  5-MIN KSTC 110120Z AUTO 16006KT 9SM CLR 29/19 A2996 990 56 2800 150/06 RMK AO2
14926KSTC STC20050710192509707/10/05 19:25:31  5-MIN KSTC 110125Z AUTO 15005KT 9SM CLR 28/19 A2996 990 58 2800 140/05 RMK AO2
14926KSTC STC20050710193009707/10/05 19:30:31  5-MIN KSTC 110130Z AUTO 14004KT 8SM CLR 28/20 A2996 990 60 2800 130/04 RMK AO2
14926KSTC STC20050710193509707/10/05 19:35:31  5-MIN KSTC 110135Z AUTO 14004KT 8SM CLR 28/20 A2996 990 62 2700 140/04 RMK AO2
14926KSTC STC20050710194009707/10/05 19:40:31  5-MIN KSTC 110140Z AUTO 14005KT 8SM CLR 28/20 A2996 990 62 2700 130/05 RMK AO2
14926KSTC STC20050710194509707/10/05 19:45:31  5-MIN KSTC 110145Z AUTO 14004KT 8SM CLR 28/20 A2996 990 62 2700 140/04 RMK AO2
14926KSTC STC20050710195011407/10/05 19:50:31  5-MIN KSTC 110150Z AUTO 14005KT 8SM CLR 27/20 A2996 990 64 2700 140/05 RMK AO2 SLP146 T02720200
14926KSTC STC20050710195509707/10/05 19:55:31  5-MIN KSTC 110155Z AUTO 14005KT 8SM CLR 27/20 A2996 990 64 2700 140/05 RMK AO2
14926KSTC STC20050710200009707/10/05 20:00:31  5-MIN KSTC 110200Z AUTO 14005KT 8SM CLR 27/20 A2996 990 64 2700 140/05 RMK AO2
14926KSTC STC20050710200509707/10/05 20:05:31  5-MIN KSTC 110205Z AUTO 14005KT 8SM CLR 27/20 A2996 990 66 2600 130/05 RMK AO2
14926KSTC STC20050710201009707/10/05 20:10:31  5-MIN KSTC 110210Z AUTO 14005KT 8SM CLR 27/19 A2996 990 64 2600 140/05 RMK AO2
14926KSTC STC20050710201509707/10/05 20:15:31  5-MIN KSTC 110215Z AUTO 14004KT 8SM CLR 27/19 A2997 980 64 2600 130/04 RMK AO2
14926KSTC STC20050710202009707/10/05 20:20:31  5-MIN KSTC 110220Z AUTO 14005KT 8SM CLR 27/19 A2996 990 64 2600 140/05 RMK AO2
14926KSTC STC20050710202509707/10/05 20:25:31  5-MIN KSTC 110225Z AUTO 14006KT 8SM CLR 26/19 A2996 990 66 2500 140/06 RMK AO2
14926KSTC STC20050710203009707/10/05 20:30:31  5-MIN KSTC 110230Z AUTO 14006KT 9SM CLR 26/19 A2997 980 66 2500 140/06 RMK AO2
14926KSTC STC20050710203509707/10/05 20:35:31  5-MIN KSTC 110235Z AUTO 14006KT 9SM CLR 26/20 A2997 980 68 2500 130/06 RMK AO2
14926KSTC STC20050710204009707/10/05 20:40:31  5-MIN KSTC 110240Z AUTO 14006KT 8SM CLR 26/20 A2997 980 68 2500 140/06 RMK AO2
14926KSTC STC20050710204509707/10/05 20:45:31  5-MIN KSTC 110245Z AUTO 14006KT 8SM CLR 26/20 A2997 980 68 2500 140/06 RMK AO2
14926KSTC STC20050710205012007/10/05 20:50:31  5-MIN KSTC 110250Z AUTO 15006KT 8SM CLR 26/20 A2997 980 68 2500 140/06 RMK AO2 SLP149 T02610200 56006
14926KSTC STC20050710205509707/10/05 20:55:31  5-MIN KSTC 110255Z AUTO 14006KT 8SM CLR 26/20 A2997 980 71 2500 140/06 RMK AO2
14926KSTC STC20050710210009707/10/05 21:00:31  5-MIN KSTC 110300Z AUTO 14006KT 8SM CLR 26/20 A2997 980 71 2500 140/06 RMK AO2
14926KSTC STC20050710210509707/10/05 21:05:31  5-MIN KSTC 110305Z AUTO 14006KT 8SM CLR 26/20 A2997 980 71 2500 140/06 RMK AO2
14926KSTC STC20050710211009707/10/05 21:10:31  5-MIN KSTC 110310Z AUTO 14008KT 8SM CLR 26/20 A2997 980 68 2500 140/08 RMK AO2
14926KSTC STC20050710211509707/10/05 21:15:31  5-MIN KSTC 110315Z AUTO 15009KT 8SM CLR 26/20 A2996 990 68 2500 140/09 RMK AO2
14926KSTC STC20050710212009707/10/05 21:20:31  5-MIN KSTC 110320Z AUTO 15009KT 8SM CLR 26/20 A2996 990 68 2500 150/09 RMK AO2
14926KSTC STC20050710212509707/10/05 21:25:31  5-MIN KSTC 110325Z AUTO 15008KT 9SM CLR 26/19 A2996 990 66 2500 150/08 RMK AO2
14926KSTC STC20050710213009707/10/05 21:30:31  5-MIN KSTC 110330Z AUTO 15009KT 9SM CLR 26/19 A2997 980 66 2500 150/09 RMK AO2
14926KSTC STC20050710213509707/10/05 21:35:31  5-MIN KSTC 110335Z AUTO 15008KT 9SM CLR 26/19 A2997 980 66 2500 140/08 RMK AO2
14926KSTC STC20050710214009707/10/05 21:40:31  5-MIN KSTC 110340Z AUTO 15008KT 9SM CLR 26/19 A2997 990 66 2500 140/08 RMK AO2
14926KSTC STC20050710214509707/10/05 21:45:31  5-MIN KSTC 110345Z AUTO 15008KT 9SM CLR 26/19 A2997 980 66 2500 150/08 RMK AO2
14926KSTC STC20050710215011407/10/05 21:50:31  5-MIN KSTC 110350Z AUTO 15010KT 9SM CLR 26/19 A2996 990 66 2500 150/10 RMK AO2 SLP147 T02610194
14926KSTC STC20050710215509707/10/05 21:55:31  5-MIN KSTC 110355Z AUTO 15008KT 9SM CLR 26/19 A2996 990 66 2500 150/08 RMK AO2
14926KSTC STC20050710220009707/10/05 22:00:31  5-MIN KSTC 110400Z AUTO 15010KT 9SM CLR 26/19 A2996 990 66 2500 150/10 RMK AO2
14926KSTC STC20050710220509707/10/05 22:05:31  5-MIN KSTC 110405Z AUTO 15010KT 9SM CLR 26/19 A2996 990 66 2500 150/10 RMK AO2
14926KSTC STC20050710221009707/10/05 22:10:31  5-MIN KSTC 110410Z AUTO 15010KT 9SM CLR 26/19 A2996 990 66 2500 150/10 RMK AO2
14926KSTC STC20050710221509707/10/05 22:15:31  5-MIN KSTC 110415Z AUTO 15010KT 9SM CLR 26/19 A2996 990 68 2500 150/10 RMK AO2
14926KSTC STC20050710222009707/10/05 22:20:31  5-MIN KSTC 110420Z AUTO 15009KT 9SM CLR 26/19 A2996 990 68 2500 150/09 RMK AO2
14926KSTC STC20050710222509707/10/05 22:25:31  5-MIN KSTC 110425Z AUTO 16009KT 9SM CLR 26/19 A2996 990 68 2500 150/09 RMK AO2
14926KSTC STC20050710223009707/10/05 22:30:31  5-MIN KSTC 110430Z AUTO 15010KT 9SM CLR 26/19 A2996 990 68 2500 150/10 RMK AO2
14926KSTC STC20050710223509807/10/05 22:35:31  5-MIN KSTC 110435Z AUTO 16009KT 10SM CLR 26/19 A2996 990 66 2500 160/09 RMK AO2
14926KSTC STC20050710224009807/10/05 22:40:31  5-MIN KSTC 110440Z AUTO 16008KT 10SM CLR 26/19 A2996 990 66 2500 160/08 RMK AO2
14926KSTC STC20050710224509807/10/05 22:45:31  5-MIN KSTC 110445Z AUTO 16009KT 10SM CLR 26/19 A2996 990 66 2500 160/09 RMK AO2
14926KSTC STC20050710225011507/10/05 22:50:31  5-MIN KSTC 110450Z AUTO 16010KT 10SM CLR 26/19 A2996 990 66 2500 160/10 RMK AO2 SLP146 T02560189
14926KSTC STC20050710225509807/10/05 22:55:31  5-MIN KSTC 110455Z AUTO 16009KT 10SM CLR 26/19 A2996 990 66 2500 160/09 RMK AO2
14926KSTC STC20050710230009807/10/05 23:00:31  5-MIN KSTC 110500Z AUTO 16010KT 10SM CLR 26/19 A2996 990 66 2500 160/10 RMK AO2
14926KSTC STC20050710230509807/10/05 23:05:31  5-MIN KSTC 110505Z AUTO 16009KT 10SM CLR 26/18 A2996 990 64 2500 160/09 RMK AO2
14926KSTC STC20050710231009807/10/05 23:10:31  5-MIN KSTC 110510Z AUTO 16010KT 10SM CLR 26/18 A2996 990 64 2500 160/10 RMK AO2
14926KSTC STC20050710231509807/10/05 23:15:31  5-MIN KSTC 110515Z AUTO 16009KT 10SM CLR 26/18 A2996 990 64 2500 160/09 RMK AO2
14926KSTC STC20050710232009807/10/05 23:20:31  5-MIN KSTC 110520Z AUTO 16010KT 10SM CLR 26/18 A2996 990 64 2500 160/10 RMK AO2
14926KSTC STC20050710232509807/10/05 23:25:31  5-MIN KSTC 110525Z AUTO 16010KT 10SM CLR 26/18 A2996 990 64 2500 160/10 RMK AO2
14926KSTC STC20050710233009807/10/05 23:30:31  5-MIN KSTC 110530Z AUTO 16009KT 10SM CLR 25/18 A2996 990 66 2400 160/09 RMK AO2
14926KSTC STC20050710233509807/10/05 23:35:31  5-MIN KSTC 110535Z AUTO 16007KT 10SM CLR 25/18 A2996 990 66 2400 160/07 RMK AO2
14926KSTC STC20050710234009807/10/05 23:40:31  5-MIN KSTC 110540Z AUTO 16009KT 10SM CLR 25/18 A2996 990 66 2400 160/09 RMK AO2
14926KSTC STC20050710234509807/10/05 23:45:31  5-MIN KSTC 110545Z AUTO 16009KT 10SM CLR 25/18 A2996 990 66 2400 160/09 RMK AO2
14926KSTC STC20050710235014307/10/05 23:50:31  5-MIN KSTC 110550Z AUTO 16009KT 10SM CLR 25/18 A2996 990 66 2400 160/09 RMK AO2 SLP145 T02500183 10311 20250 403280222 53002
14926KSTC STC20050710235509807/10/05 23:55:31  5-MIN KSTC 110555Z AUTO 16010KT 10SM CLR 25/18 A2996 990 66 2400 160/10 RMK AO2
14926KSTC STC20050711000009807/11/05 00:00:32  5-MIN KSTC 110600Z AUTO 16010KT 10SM CLR 25/18 A2996 990 66 2400 160/10 RMK AO2
14926KSTC STC20050711000509807/11/05 00:05:31  5-MIN KSTC 110605Z AUTO 17009KT 10SM CLR 25/18 A2997 990 66 2400 160/09 RMK AO2
14926KSTC STC20050711001009807/11/05 00:10:31  5-MIN KSTC 110610Z AUTO 17010KT 10SM CLR 25/18 A2997 980 66 2400 160/10 RMK AO2
14926KSTC STC20050711001509807/11/05 00:15:31  5-MIN KSTC 110615Z AUTO 17009KT 10SM CLR 25/18 A2997 980 66 2400 170/09 RMK AO2
14926KSTC STC20050711002009807/11/05 00:20:31  5-MIN KSTC 110620Z AUTO 17009KT 10SM CLR 25/18 A2997 980 66 2400 170/09 RMK AO2
14926KSTC STC20050711002509807/11/05 00:25:31  5-MIN KSTC 110625Z AUTO 17009KT 10SM CLR 25/18 A2997 980 64 2400 160/09 RMK AO2
14926KSTC STC20050711003009807/11/05 00:30:31  5-MIN KSTC 110630Z AUTO 17010KT 10SM CLR 25/18 A2997 980 66 2400 170/10 RMK AO2
14926KSTC STC20050711003509807/11/05 00:35:31  5-MIN KSTC 110635Z AUTO 17010KT 10SM CLR 25/18 A2998 970 66 2400 170/10 RMK AO2
14926KSTC STC20050711004009807/11/05 00:40:31  5-MIN KSTC 110640Z AUTO 18008KT 10SM CLR 25/18 A2998 970 66 2400 170/08 RMK AO2
14926KSTC STC20050711004509807/11/05 00:45:31  5-MIN KSTC 110645Z AUTO 18008KT 10SM CLR 25/18 A2998 970 66 2400 180/08 RMK AO2
14926KSTC STC20050711005011507/11/05 00:50:31  5-MIN KSTC 110650Z AUTO 17007KT 10SM CLR 25/18 A2999 970 66 2400 170/07 RMK AO2 SLP153 T02500183
14926KSTC STC20050711005509807/11/05 00:55:31  5-MIN KSTC 110655Z AUTO 17008KT 10SM CLR 24/18 A2999 970 68 2300 170/08 RMK AO2
14926KSTC STC20050711010009807/11/05 01:00:31  5-MIN KSTC 110700Z AUTO 18009KT 10SM CLR 24/18 A2999 970 68 2300 170/09 RMK AO2
14926KSTC STC20050711010509807/11/05 01:05:31  5-MIN KSTC 110705Z AUTO 18008KT 10SM CLR 24/18 A2999 970 68 2300 180/08 RMK AO2
14926KSTC STC20050711011009807/11/05 01:10:31  5-MIN KSTC 110710Z AUTO 18008KT 10SM CLR 24/18 A2999 960 68 2300 170/08 RMK AO2
14926KSTC STC20050711011509807/11/05 01:15:31  5-MIN KSTC 110715Z AUTO 18008KT 10SM CLR 24/18 A2999 960 68 2300 180/08 RMK AO2
14926KSTC STC20050711012009807/11/05 01:20:31  5-MIN KSTC 110720Z AUTO 18007KT 10SM CLR 24/18 A2999 960 68 2300 180/07 RMK AO2
14926KSTC STC20050711012509807/11/05 01:25:31  5-MIN KSTC 110725Z AUTO 17007KT 10SM CLR 24/18 A2999 960 68 2300 170/07 RMK AO2
14926KSTC STC20050711013009807/11/05 01:30:31  5-MIN KSTC 110730Z AUTO 17008KT 10SM CLR 24/18 A2999 960 68 2300 160/08 RMK AO2
14926KSTC STC20050711013509807/11/05 01:35:31  5-MIN KSTC 110735Z AUTO 17006KT 10SM CLR 25/18 A2999 960 66 2400 170/06 RMK AO2
14926KSTC STC20050711014009707/11/05 01:40:31  5-MIN KSTC 110740Z AUTO 17006KT 9SM CLR 24/18 A2999 960 71 2200 170/06 RMK AO2
14926KSTC STC20050711014509707/11/05 01:45:31  5-MIN KSTC 110745Z AUTO 17007KT 9SM CLR 24/18 A2999 960 71 2200 160/07 RMK AO2
14926KSTC STC20050711015011407/11/05 01:50:31  5-MIN KSTC 110750Z AUTO 17008KT 9SM CLR 24/18 A2999 960 71 2200 160/08 RMK AO2 SLP156 T02390183
14926KSTC STC20050711015509707/11/05 01:55:31  5-MIN KSTC 110755Z AUTO 16008KT 9SM CLR 24/18 A2999 960 71 2200 160/08 RMK AO2
14926KSTC STC20050711020009707/11/05 02:00:31  5-MIN KSTC 110800Z AUTO 16007KT 9SM CLR 24/18 A2999 960 71 2200 160/07 RMK AO2
14926KSTC STC20050711020509707/11/05 02:05:31  5-MIN KSTC 110805Z AUTO 16007KT 9SM CLR 23/18 A2999 960 73 2200 160/07 RMK AO2
14926KSTC STC20050711021009707/11/05 02:10:31  5-MIN KSTC 110810Z AUTO 16007KT 9SM CLR 23/18 A2999 960 73 2200 160/07 RMK AO2
14926KSTC STC20050711021509707/11/05 02:15:31  5-MIN KSTC 110815Z AUTO 16007KT 9SM CLR 23/18 A2999 960 73 2200 160/07 RMK AO2
14926KSTC STC20050711022009707/11/05 02:20:31  5-MIN KSTC 110820Z AUTO 16006KT 8SM CLR 23/18 A2999 960 73 2200 160/06 RMK AO2
14926KSTC STC20050711022509707/11/05 02:25:31  5-MIN KSTC 110825Z AUTO 16006KT 8SM CLR 23/18 A2999 960 76 2100 160/06 RMK AO2
14926KSTC STC20050711023009707/11/05 02:30:31  5-MIN KSTC 110830Z AUTO 16006KT 8SM CLR 23/18 A2999 960 76 2100 160/06 RMK AO2
14926KSTC STC20050711023509707/11/05 02:35:31  5-MIN KSTC 110835Z AUTO 16006KT 8SM CLR 23/18 A2999 960 76 2100 160/06 RMK AO2
14926KSTC STC20050711024009707/11/05 02:40:31  5-MIN KSTC 110840Z AUTO 16006KT 8SM CLR 23/18 A2999 970 76 2100 160/06 RMK AO2
14926KSTC STC20050711024509707/11/05 02:45:31  5-MIN KSTC 110845Z AUTO 16006KT 8SM CLR 22/18 A2998 970 78 2100 160/06 RMK AO2
14926KSTC STC20050711025012007/11/05 02:50:31  5-MIN KSTC 110850Z AUTO 15006KT 7SM CLR 22/18 A2998 970 78 2100 150/06 RMK AO2 SLP153 T02220183 55003
14926KSTC STC20050711025509707/11/05 02:55:31  5-MIN KSTC 110855Z AUTO 15006KT 7SM CLR 22/18 A2998 970 78 2100 150/06 RMK AO2
14926KSTC STC20050711030009707/11/05 03:00:31  5-MIN KSTC 110900Z AUTO 15005KT 7SM CLR 22/18 A2998 970 81 2000 150/05 RMK AO2
14926KSTC STC20050711030509707/11/05 03:05:31  5-MIN KSTC 110905Z AUTO 15005KT 7SM CLR 22/18 A2998 970 81 2000 150/05 RMK AO2
14926KSTC STC20050711031009707/11/05 03:10:31  5-MIN KSTC 110910Z AUTO 15005KT 7SM CLR 22/18 A2998 970 81 2000 150/05 RMK AO2
14926KSTC STC20050711031509707/11/05 03:15:31  5-MIN KSTC 110915Z AUTO 15006KT 7SM CLR 22/18 A2998 970 81 2000 140/06 RMK AO2
14926KSTC STC20050711032009707/11/05 03:20:31  5-MIN KSTC 110920Z AUTO 14006KT 7SM CLR 22/18 A2998 980 81 2000 140/06 RMK AO2
14926KSTC STC20050711032509707/11/05 03:25:31  5-MIN KSTC 110925Z AUTO 15006KT 7SM CLR 22/18 A2997 980 81 2000 140/06 RMK AO2
14926KSTC STC20050711033009707/11/05 03:30:31  5-MIN KSTC 110930Z AUTO 15006KT 7SM CLR 21/18 A2997 980 84 2000 150/06 RMK AO2
14926KSTC STC20050711033509707/11/05 03:35:31  5-MIN KSTC 110935Z AUTO 15006KT 7SM CLR 22/18 A2997 980 81 2000 150/06 RMK AO2
14926KSTC STC20050711034009707/11/05 03:40:31  5-MIN KSTC 110940Z AUTO 15006KT 7SM CLR 22/18 A2998 970 81 2000 150/06 RMK AO2
14926KSTC STC20050711034509707/11/05 03:45:31  5-MIN KSTC 110945Z AUTO 16006KT 7SM CLR 22/18 A2998 970 81 2000 160/06 RMK AO2
14926KSTC STC20050711035011407/11/05 03:50:31  5-MIN KSTC 110950Z AUTO 16007KT 7SM CLR 22/18 A2998 970 81 2000 160/07 RMK AO2 SLP153 T02170183
14926KSTC STC20050711035509707/11/05 03:55:31  5-MIN KSTC 110955Z AUTO 16007KT 7SM CLR 22/18 A2998 970 81 2000 160/07 RMK AO2
14926KSTC STC20050711040009707/11/05 04:00:31  5-MIN KSTC 111000Z AUTO 16007KT 7SM CLR 22/18 A2998 970 78 2100 160/07 RMK AO2
14926KSTC STC20050711040509707/11/05 04:05:31  5-MIN KSTC 111005Z AUTO 16006KT 7SM CLR 22/18 A2998 970 81 2000 150/06 RMK AO2
14926KSTC STC20050711041010007/11/05 04:10:31  5-MIN KSTC 111010Z AUTO 16006KT 6SM HZ CLR 22/18 A2998 970 81 2000 150/06 RMK AO2
14926KSTC STC20050711041510007/11/05 04:15:31  5-MIN KSTC 111015Z AUTO 16005KT 6SM HZ CLR 22/18 A2999 960 81 2000 150/05 RMK AO2
14926KSTC STC20050711042010007/11/05 04:20:31  5-MIN KSTC 111020Z AUTO 15006KT 6SM HZ CLR 22/18 A2999 960 81 2000 150/06 RMK AO2
14926KSTC STC20050711042510007/11/05 04:25:31  5-MIN KSTC 111025Z AUTO 15006KT 6SM HZ CLR 21/18 A2999 960 84 1900 150/06 RMK AO2
14926KSTC STC20050711043010007/11/05 04:30:31  5-MIN KSTC 111030Z AUTO 15005KT 6SM HZ CLR 21/18 A2999 960 84 1900 150/05 RMK AO2
14926KSTC STC20050711043510007/11/05 04:35:31  5-MIN KSTC 111035Z AUTO 15006KT 5SM HZ CLR 21/18 A2999 960 84 1900 150/06 RMK AO2
14926KSTC STC20050711044010007/11/05 04:40:31  5-MIN KSTC 111040Z AUTO 16006KT 4SM HZ CLR 21/18 A3000 960 84 1900 150/06 RMK AO2
14926KSTC STC20050711044510007/11/05 04:45:31  5-MIN KSTC 111045Z AUTO 16006KT 4SM HZ CLR 21/18 A3000 960 84 1900 160/06 RMK AO2
14926KSTC STC20050711045011707/11/05 04:50:31  5-MIN KSTC 111050Z AUTO 16006KT 4SM HZ CLR 21/18 A3000 960 84 1900 150/06 RMK AO2 SLP157 T02110183
14926KSTC STC20050711045510007/11/05 04:55:31  5-MIN KSTC 111055Z AUTO 16006KT 4SM HZ CLR 21/18 A3000 960 84 1900 150/06 RMK AO2
14926KSTC STC20050711050010007/11/05 05:00:31  5-MIN KSTC 111100Z AUTO 16005KT 4SM HZ CLR 21/18 A3000 950 84 1900 160/05 RMK AO2
14926KSTC STC20050711050510007/11/05 05:05:31  5-MIN KSTC 111105Z AUTO 16006KT 4SM HZ CLR 21/18 A3000 950 84 1900 160/06 RMK AO2
14926KSTC STC20050711051010007/11/05 05:10:31  5-MIN KSTC 111110Z AUTO 15007KT 4SM BR CLR 21/19 A3000 960 87 1900 150/07 RMK AO2
14926KSTC STC20050711051510007/11/05 05:15:31  5-MIN KSTC 111115Z AUTO 15006KT 4SM BR CLR 21/19 A3000 960 87 1900 150/06 RMK AO2
14926KSTC STC20050711052010007/11/05 05:20:31  5-MIN KSTC 111120Z AUTO 15006KT 4SM BR CLR 21/19 A3000 960 87 1900 150/06 RMK AO2
14926KSTC STC20050711052510007/11/05 05:25:31  5-MIN KSTC 111125Z AUTO 15006KT 4SM BR CLR 21/19 A3000 960 87 1900 150/06 RMK AO2
14926KSTC STC20050711053010007/11/05 05:30:31  5-MIN KSTC 111130Z AUTO 16005KT 4SM HZ CLR 22/19 A2999 960 84 2000 160/05 RMK AO2
14926KSTC STC20050711053510007/11/05 05:35:31  5-MIN KSTC 111135Z AUTO 16007KT 4SM HZ CLR 22/19 A3000 960 84 2000 160/07 RMK AO2
14926KSTC STC20050711054010007/11/05 05:40:31  5-MIN KSTC 111140Z AUTO 16007KT 4SM HZ CLR 22/19 A3000 960 81 2100 160/07 RMK AO2
14926KSTC STC20050711054510007/11/05 05:45:31  5-MIN KSTC 111145Z AUTO 16007KT 4SM HZ CLR 22/19 A2999 960 81 2100 160/07 RMK AO2
14926KSTC STC20050711055013507/11/05 05:50:31  5-MIN KSTC 111150Z AUTO 16008KT 4SM HZ CLR 22/19 A2999 960 81 2100 160/08 RMK AO2 SLP157 T02220189 10250 20211 50007
14926KSTC STC20050711055510007/11/05 05:55:31  5-MIN KSTC 111155Z AUTO 16007KT 4SM HZ CLR 23/19 A2999 960 78 2100 160/07 RMK AO2
14926KSTC STC20050711060010007/11/05 06:00:31  5-MIN KSTC 111200Z AUTO 16007KT 4SM HZ CLR 23/19 A2999 960 78 2100 160/07 RMK AO2
14926KSTC STC20050711060510007/11/05 06:05:31  5-MIN KSTC 111205Z AUTO 16008KT 4SM HZ CLR 23/19 A2999 960 81 2100 160/08 RMK AO2
14926KSTC STC20050711061010007/11/05 06:10:31  5-MIN KSTC 111210Z AUTO 16009KT 4SM HZ CLR 23/19 A2999 960 81 2100 160/09 RMK AO2
14926KSTC STC20050711061510007/11/05 06:15:31  5-MIN KSTC 111215Z AUTO 17009KT 4SM HZ CLR 23/19 A2999 960 78 2200 170/09 RMK AO2
14926KSTC STC20050711062010007/11/05 06:20:31  5-MIN KSTC 111220Z AUTO 17008KT 4SM HZ CLR 23/19 A2999 960 78 2200 170/08 RMK AO2
14926KSTC STC20050711062510007/11/05 06:25:31  5-MIN KSTC 111225Z AUTO 17009KT 4SM HZ CLR 23/19 A2999 960 78 2200 160/09 RMK AO2
14926KSTC STC20050711063010007/11/05 06:30:31  5-MIN KSTC 111230Z AUTO 17010KT 4SM HZ CLR 24/19 A2999 960 76 2200 170/10 RMK AO2
14926KSTC STC20050711063510007/11/05 06:35:31  5-MIN KSTC 111235Z AUTO 19010KT 4SM HZ CLR 24/19 A2999 960 76 2200 180/10 RMK AO2
14926KSTC STC20050711064010007/11/05 06:40:31  5-MIN KSTC 111240Z AUTO 18010KT 4SM HZ CLR 24/19 A2999 960 76 2300 170/10 RMK AO2
14926KSTC STC20050711064510007/11/05 06:45:31  5-MIN KSTC 111245Z AUTO 17010KT 4SM HZ CLR 24/19 A2999 960 76 2200 170/10 RMK AO2
14926KSTC STC20050711065011707/11/05 06:50:31  5-MIN KSTC 111250Z AUTO 18009KT 5SM HZ CLR 24/19 A3000 960 73 2300 170/09 RMK AO2 SLP158 T02440194
14926KSTC STC20050711065510007/11/05 06:55:31  5-MIN KSTC 111255Z AUTO 17011KT 5SM HZ CLR 24/19 A3000 960 73 2300 170/11 RMK AO2
14926KSTC STC20050711070010007/11/05 07:00:31  5-MIN KSTC 111300Z AUTO 17010KT 5SM HZ CLR 24/19 A3000 950 73 2300 170/10 RMK AO2
14926KSTC STC20050711070510007/11/05 07:05:31  5-MIN KSTC 111305Z AUTO 18009KT 5SM HZ CLR 24/19 A3000 950 73 2300 170/09 RMK AO2
14926KSTC STC20050711071010007/11/05 07:10:31  5-MIN KSTC 111310Z AUTO 18010KT 5SM HZ CLR 25/19 A3000 960 71 2400 170/10 RMK AO2
14926KSTC STC20050711071510007/11/05 07:15:31  5-MIN KSTC 111315Z AUTO 18010KT 5SM HZ CLR 25/19 A3000 960 71 2400 180/10 RMK AO2
14926KSTC STC20050711072010007/11/05 07:20:31  5-MIN KSTC 111320Z AUTO 17009KT 5SM HZ CLR 25/19 A3000 950 71 2400 160/09 RMK AO2
14926KSTC STC20050711072510007/11/05 07:25:31  5-MIN KSTC 111325Z AUTO 17009KT 5SM HZ CLR 25/19 A3000 950 71 2400 170/09 RMK AO2
14926KSTC STC20050711073010007/11/05 07:30:31  5-MIN KSTC 111330Z AUTO 17009KT 5SM HZ CLR 26/19 A3000 950 68 2400 170/09 RMK AO2
14926KSTC STC20050711073510007/11/05 07:35:31  5-MIN KSTC 111335Z AUTO 17009KT 5SM HZ CLR 26/19 A3000 950 68 2400 160/09 RMK AO2
14926KSTC STC20050711074010007/11/05 07:40:31  5-MIN KSTC 111340Z AUTO 17009KT 5SM HZ CLR 26/19 A3000 950 68 2400 160/09 RMK AO2
14926KSTC STC20050711074510007/11/05 07:45:31  5-MIN KSTC 111345Z AUTO 18008KT 5SM HZ CLR 26/19 A3000 950 66 2500 180/08 RMK AO2
14926KSTC STC20050711075011707/11/05 07:50:31  5-MIN KSTC 111350Z AUTO 17009KT 5SM HZ CLR 26/19 A3000 950 66 2500 170/09 RMK AO2 SLP159 T02610194
14926KSTC STC20050711075510007/11/05 07:55:31  5-MIN KSTC 111355Z AUTO 18008KT 5SM HZ CLR 27/19 A3000 950 64 2600 180/08 RMK AO2
14926KSTC STC20050711080010007/11/05 08:00:31  5-MIN KSTC 111400Z AUTO 18008KT 5SM HZ CLR 27/19 A3000 950 64 2600 180/08 RMK AO2
14926KSTC STC20050711080510007/11/05 08:05:31  5-MIN KSTC 111405Z AUTO 18010KT 6SM HZ CLR 27/19 A3000 960 62 2600 180/10 RMK AO2
14926KSTC STC20050711081010007/11/05 08:10:31  5-MIN KSTC 111410Z AUTO 17011KT 6SM HZ CLR 27/19 A3000 960 64 2600 170/11 RMK AO2
14926KSTC STC20050711081510007/11/05 08:15:31  5-MIN KSTC 111415Z AUTO 18009KT 6SM HZ CLR 27/19 A3000 950 60 2600 180/09 RMK AO2
14926KSTC STC20050711082010007/11/05 08:20:31  5-MIN KSTC 111420Z AUTO 18011KT 6SM HZ CLR 27/19 A3000 950 60 2600 180/11 RMK AO2
14926KSTC STC20050711082510007/11/05 08:25:31  5-MIN KSTC 111425Z AUTO 18009KT 6SM HZ CLR 27/19 A3000 950 60 2600 180/09 RMK AO2
14926KSTC STC20050711083010007/11/05 08:30:31  5-MIN KSTC 111430Z AUTO 18010KT 6SM HZ CLR 27/19 A3000 950 60 2600 170/10 RMK AO2
14926KSTC STC20050711083510007/11/05 08:35:31  5-MIN KSTC 111435Z AUTO 17011KT 6SM HZ CLR 28/19 A3000 950 60 2700 170/11 RMK AO2
14926KSTC STC20050711084010007/11/05 08:40:31  5-MIN KSTC 111440Z AUTO 17009KT 6SM HZ CLR 28/19 A3000 950 60 2700 170/09 RMK AO2
14926KSTC STC20050711084510007/11/05 08:45:31  5-MIN KSTC 111445Z AUTO 18009KT 6SM HZ CLR 28/19 A3000 950 60 2700 180/09 RMK AO2
14926KSTC STC20050711085012307/11/05 08:50:31  5-MIN KSTC 111450Z AUTO 19010KT 6SM HZ CLR 28/19 A3000 950 60 2700 180/10 RMK AO2 SLP160 T02780194 50003
14926KSTC STC20050711085510007/11/05 08:55:31  5-MIN KSTC 111455Z AUTO 17009KT 6SM HZ CLR 28/19 A3000 950 60 2700 170/09 RMK AO2
14926KSTC STC20050711090010007/11/05 09:00:31  5-MIN KSTC 111500Z AUTO 17011KT 6SM HZ CLR 28/19 A3000 950 58 2700 170/11 RMK AO2
14926KSTC STC20050711090510007/11/05 09:05:31  5-MIN KSTC 111505Z AUTO 17013KT 6SM HZ CLR 28/19 A3000 950 56 2700 170/13 RMK AO2
14926KSTC STC20050711091010007/11/05 09:10:31  5-MIN KSTC 111510Z AUTO 18012KT 6SM HZ CLR 28/19 A3000 950 56 2700 180/12 RMK AO2
14926KSTC STC20050711091510007/11/05 09:15:31  5-MIN KSTC 111515Z AUTO 18012KT 6SM HZ CLR 28/19 A3000 950 56 2700 180/12 RMK AO2
14926KSTC STC20050711092010007/11/05 09:20:31  5-MIN KSTC 111520Z AUTO 18011KT 6SM HZ CLR 29/19 A3000 950 54 2800 180/11 RMK AO2
14926KSTC STC20050711092510007/11/05 09:25:31  5-MIN KSTC 111525Z AUTO 18011KT 6SM HZ CLR 28/19 A3000 950 58 2700 180/11 RMK AO2
14926KSTC STC20050711093010007/11/05 09:30:31  5-MIN KSTC 111530Z AUTO 18011KT 6SM HZ CLR 29/19 A3000 950 56 2800 170/11 RMK AO2
14926KSTC STC20050711093510007/11/05 09:35:31  5-MIN KSTC 111535Z AUTO 19012KT 6SM HZ CLR 29/19 A3000 950 56 2800 180/12 RMK AO2
14926KSTC STC20050711094010007/11/05 09:40:31  5-MIN KSTC 111540Z AUTO 18011KT 6SM HZ CLR 29/19 A3000 950 54 2900 180/11 RMK AO2
14926KSTC STC20050711094510007/11/05 09:45:31  5-MIN KSTC 111545Z AUTO 18010KT 6SM HZ CLR 29/19 A3000 950 56 2800 180/10 RMK AO2
14926KSTC STC20050711095011707/11/05 09:50:31  5-MIN KSTC 111550Z AUTO 19013KT 6SM HZ CLR 29/19 A3000 960 54 2900 180/13 RMK AO2 SLP158 T02940194
14926KSTC STC20050711095510007/11/05 09:55:31  5-MIN KSTC 111555Z AUTO 18011KT 6SM HZ CLR 29/19 A3000 950 54 2900 180/11 RMK AO2
14926KSTC STC20050711100011607/11/05 10:00:31  5-MIN KSTC 111600Z AUTO 20011KT 150V220 6SM HZ CLR 29/19 A3000 950 54 2900 190/11 150V220 RMK AO2
14926KSTC STC20050711100510007/11/05 10:05:31  5-MIN KSTC 111605Z AUTO 17010KT 6SM HZ CLR 29/19 A3000 950 54 2900 170/10 RMK AO2
14926KSTC STC20050711101010007/11/05 10:10:31  5-MIN KSTC 111610Z AUTO 18011KT 6SM HZ CLR 29/19 A3000 950 54 2900 180/11 RMK AO2
14926KSTC STC20050711101510007/11/05 10:15:31  5-MIN KSTC 111615Z AUTO 18011KT 6SM HZ CLR 30/19 A3000 950 52 2900 170/11 RMK AO2
14926KSTC STC20050711102010007/11/05 10:20:31  5-MIN KSTC 111620Z AUTO 19012KT 6SM HZ CLR 30/20 A3000 950 54 2900 190/12 RMK AO2
14926KSTC STC20050711102510007/11/05 10:25:31  5-MIN KSTC 111625Z AUTO 18010KT 6SM HZ CLR 30/19 A3000 950 52 2900 170/10 RMK AO2
14926KSTC STC20050711103010607/11/05 10:30:31  5-MIN KSTC 111630Z AUTO 17014G18KT 6SM HZ CLR 31/19 A3000 950 51 3000 170/14G18 RMK AO2
14926KSTC STC20050711103510607/11/05 10:35:31  5-MIN KSTC 111635Z AUTO 17011G18KT 6SM HZ CLR 30/19 A3000 950 52 2900 170/11G18 RMK AO2
14926KSTC STC20050711104010007/11/05 10:40:31  5-MIN KSTC 111640Z AUTO 18013KT 6SM HZ CLR 31/19 A3000 960 51 3000 170/13 RMK AO2
14926KSTC STC20050711104510007/11/05 10:45:31  5-MIN KSTC 111645Z AUTO 17012KT 6SM HZ CLR 31/19 A3000 960 51 3000 170/12 RMK AO2
14926KSTC STC20050711105011707/11/05 10:50:31  5-MIN KSTC 111650Z AUTO 18013KT 6SM HZ CLR 31/19 A3000 960 49 3000 180/13 RMK AO2 SLP158 T03060189
14926KSTC STC20050711105510007/11/05 10:55:31  5-MIN KSTC 111655Z AUTO 19015KT 6SM HZ CLR 30/19 A3000 950 51 2900 190/15 RMK AO2
14926KSTC STC20050711110010007/11/05 11:00:31  5-MIN KSTC 111700Z AUTO 19012KT 6SM HZ CLR 31/19 A2999 960 51 3000 180/12 RMK AO2
14926KSTC STC20050711110509707/11/05 11:05:31  5-MIN KSTC 111705Z AUTO 17015KT 7SM CLR 31/19 A2999 960 49 3000 170/15 RMK AO2
14926KSTC STC20050711111009707/11/05 11:10:31  5-MIN KSTC 111710Z AUTO 18014KT 7SM CLR 31/19 A3000 960 49 3000 180/14 RMK AO2
14926KSTC STC20050711111509707/11/05 11:15:31  5-MIN KSTC 111715Z AUTO 19013KT 7SM CLR 31/19 A2999 960 49 3000 190/13 RMK AO2
14926KSTC STC20050711112009707/11/05 11:20:31  5-MIN KSTC 111720Z AUTO 17013KT 7SM CLR 31/19 A2999 960 47 3100 160/13 RMK AO2
14926KSTC STC20050711112510307/11/05 11:25:31  5-MIN KSTC 111725Z AUTO 19015G18KT 7SM CLR 31/19 A2999 960 47 3100 180/15G18 RMK AO2
14926KSTC STC20050711113009707/11/05 11:30:31  5-MIN KSTC 111730Z AUTO 20013KT 7SM CLR 31/19 A2999 960 47 3100 190/13 RMK AO2
14926KSTC STC20050711113509707/11/05 11:35:31  5-MIN KSTC 111735Z AUTO 19011KT 7SM CLR 31/19 A2999 960 49 3100 180/11 RMK AO2
14926KSTC STC20050711114009707/11/05 11:40:31  5-MIN KSTC 111740Z AUTO 17011KT 7SM CLR 31/19 A2999 960 47 3100 170/11 RMK AO2
14926KSTC STC20050711114509707/11/05 11:45:31  5-MIN KSTC 111745Z AUTO 17011KT 7SM CLR 31/19 A2999 960 49 3100 170/11 RMK AO2
14926KSTC STC20050711115013207/11/05 11:50:31  5-MIN KSTC 111750Z AUTO 18011KT 7SM CLR 31/19 A2999 960 49 3100 180/11 RMK AO2 SLP155 T03110194 10317 20222 51003
14926KSTC STC20050711115509707/11/05 11:55:31  5-MIN KSTC 111755Z AUTO 20011KT 7SM CLR 32/19 A2999 960 47 3100 190/11 RMK AO2
14926KSTC STC20050711120010307/11/05 12:00:31  5-MIN KSTC 111800Z AUTO 17013G16KT 7SM CLR 32/19 A2999 960 47 3100 170/13G16 RMK AO2
14926KSTC STC20050711120510307/11/05 12:05:31  5-MIN KSTC 111805Z AUTO 19011G16KT 7SM CLR 31/19 A2999 960 49 3100 190/11G16 RMK AO2
14926KSTC STC20050711121009707/11/05 12:10:31  5-MIN KSTC 111810Z AUTO 18011KT 7SM CLR 31/19 A2999 960 49 3100 170/11 RMK AO2
14926KSTC STC20050711121509707/11/05 12:15:31  5-MIN KSTC 111815Z AUTO 20012KT 7SM CLR 32/19 A2999 960 47 3100 200/12 RMK AO2
14926KSTC STC20050711122009707/11/05 12:20:31  5-MIN KSTC 111820Z AUTO 18012KT 7SM CLR 32/19 A2999 960 46 3100 180/12 RMK AO2
14926KSTC STC20050711122509707/11/05 12:25:31  5-MIN KSTC 111825Z AUTO 20015KT 7SM CLR 32/19 A2999 960 46 3100 200/15 RMK AO2
14926KSTC STC20050711123009707/11/05 12:30:31  5-MIN KSTC 111830Z AUTO 20015KT 7SM CLR 32/19 A2999 970 44 3200 200/15 RMK AO2
14926KSTC STC20050711123509707/11/05 12:35:31  5-MIN KSTC 111835Z AUTO 20013KT 7SM CLR 32/19 A2999 960 44 3200 190/13 RMK AO2
14926KSTC STC20050711124010307/11/05 12:40:31  5-MIN KSTC 111840Z AUTO 19014G20KT 7SM CLR 32/18 A2999 960 43 3200 180/14G20 RMK AO2
14926KSTC STC20050711124510307/11/05 12:45:31  5-MIN KSTC 111845Z AUTO 19014G20KT 7SM CLR 32/19 A2999 960 44 3200 190/14G20 RMK AO2
14926KSTC STC20050711125011407/11/05 12:50:31  5-MIN KSTC 111850Z AUTO 18015KT 7SM CLR 32/19 A2999 960 44 3200 180/15 RMK AO2 SLP154 T03220189
14926KSTC STC20050711125510307/11/05 12:55:31  5-MIN KSTC 111855Z AUTO 19013G19KT 7SM CLR 32/18 A2999 960 43 3200 190/13G19 RMK AO2
14926KSTC STC20050711130010307/11/05 13:00:31  5-MIN KSTC 111900Z AUTO 19013G19KT 7SM CLR 32/18 A2999 960 43 3200 190/13G19 RMK AO2
14926KSTC STC20050711130510307/11/05 13:05:31  5-MIN KSTC 111905Z AUTO 18011G19KT 7SM CLR 33/19 A2999 960 43 3200 170/11G19 RMK AO2
14926KSTC STC20050711131009707/11/05 13:10:31  5-MIN KSTC 111910Z AUTO 19014KT 7SM CLR 32/18 A2999 960 43 3200 190/14 RMK AO2
14926KSTC STC20050711131510307/11/05 13:15:31  5-MIN KSTC 111915Z AUTO 20013G19KT 7SM CLR 33/18 A2999 960 41 3200 200/13G19 RMK AO2
14926KSTC STC20050711132009707/11/05 13:20:31  5-MIN KSTC 111920Z AUTO 18015KT 7SM CLR 32/18 A2999 970 43 3200 180/15 RMK AO2
14926KSTC STC20050711132509707/11/05 13:25:31  5-MIN KSTC 111925Z AUTO 20013KT 7SM CLR 32/18 A2999 970 43 3200 190/13 RMK AO2
14926KSTC STC20050711133009707/11/05 13:30:31  5-MIN KSTC 111930Z AUTO 19013KT 7SM CLR 33/18 A2999 960 41 3200 190/13 RMK AO2
14926KSTC STC20050711133509707/11/05 13:35:31  5-MIN KSTC 111935Z AUTO 19013KT 7SM CLR 33/18 A2999 960 41 3200 190/13 RMK AO2
14926KSTC STC20050711134010607/11/05 13:40:31  5-MIN KSTC 111940Z AUTO 19014G20KT 7SM FEW050 32/18 A2999 960 43 3100 190/14G20 RMK AO2
14926KSTC STC20050711134510607/11/05 13:45:31  5-MIN KSTC 111945Z AUTO 19015G20KT 7SM FEW050 32/18 A2999 960 43 3200 190/15G20 RMK AO2
14926KSTC STC20050711135011707/11/05 13:50:31  5-MIN KSTC 111950Z AUTO 18015KT 7SM FEW050 32/18 A2999 960 44 3100 170/15 RMK AO2 SLP156 T03170183
14926KSTC STC20050711135510007/11/05 13:55:31  5-MIN KSTC 111955Z AUTO 19015KT 7SM SCT050 32/18 A2999 960 44 3100 190/15 RMK AO2
14926KSTC STC20050711140010007/11/05 14:00:31  5-MIN KSTC 112000Z AUTO 18013KT 7SM SCT050 32/18 A2999 960 43 3200 180/13 RMK AO2
14926KSTC STC20050711140510007/11/05 14:05:31  5-MIN KSTC 112005Z AUTO 19014KT 7SM SCT050 32/18 A2999 960 44 3100 180/14 RMK AO2
14926KSTC STC20050711141010707/11/05 14:10:31  5-MIN KSTC 112010Z AUTO 19013KT 7SM SCT050 BKN060 31/18 A2999 960 46 3100 190/13 RMK AO2
14926KSTC STC20050711141510707/11/05 14:15:31  5-MIN KSTC 112015Z AUTO 19015KT 7SM BKN050 BKN060 32/18 A2999 960 43 3200 190/15 RMK AO2
14926KSTC STC20050711142010007/11/05 14:20:31  5-MIN KSTC 112020Z AUTO 18014KT 7SM SCT050 32/18 A2999 960 44 3100 180/14 RMK AO2
14926KSTC STC20050711142510007/11/05 14:25:31  5-MIN KSTC 112025Z AUTO 17014KT 7SM SCT050 32/18 A2999 960 43 3200 170/14 RMK AO2
14926KSTC STC20050711143010607/11/05 14:30:31  5-MIN KSTC 112030Z AUTO 17014G19KT 7SM FEW050 32/18 A2999 960 41 3200 170/14G19 RMK AO2
14926KSTC STC20050711143510607/11/05 14:35:31  5-MIN KSTC 112035Z AUTO 18014G19KT 7SM SCT055 32/18 A2999 960 43 3200 180/14G19 RMK AO2
14926KSTC STC20050711144010607/11/05 14:40:31  5-MIN KSTC 112040Z AUTO 20013G18KT 7SM SCT055 33/18 A2999 960 41 3200 190/13G18 RMK AO2
14926KSTC STC20050711144510007/11/05 14:45:31  5-MIN KSTC 112045Z AUTO 17013KT 7SM SCT055 32/18 A2998 970 43 3200 170/13 RMK AO2
14926KSTC STC20050711145012307/11/05 14:50:31  5-MIN KSTC 112050Z AUTO 20014KT 8SM FEW055 33/18 A2999 970 40 3200 200/14 RMK AO2 SLP154 T03280178 58004
14926KSTC STC20050711145510007/11/05 14:55:31  5-MIN KSTC 112055Z AUTO 22014KT 8SM FEW055 33/18 A2999 970 40 3200 220/14 RMK AO2
14926KSTC STC20050711150010007/11/05 15:00:31  5-MIN KSTC 112100Z AUTO 19011KT 8SM FEW055 32/18 A2998 970 43 3200 180/11 RMK AO2
14926KSTC STC20050711150510007/11/05 15:05:31  5-MIN KSTC 112105Z AUTO 19011KT 7SM FEW055 32/18 A2998 970 43 3200 190/11 RMK AO2
14926KSTC STC20050711151010007/11/05 15:10:31  5-MIN KSTC 112110Z AUTO 19011KT 7SM FEW055 32/18 A2998 980 43 3200 180/11 RMK AO2
14926KSTC STC20050711151510007/11/05 15:15:31  5-MIN KSTC 112115Z AUTO 18010KT 8SM FEW055 33/18 A2997 980 41 3300 180/10 RMK AO2
14926KSTC STC20050711152010007/11/05 15:20:31  5-MIN KSTC 112120Z AUTO 17014KT 8SM FEW055 32/18 A2997 980 43 3200 170/14 RMK AO2
14926KSTC STC20050711152510007/11/05 15:25:31  5-MIN KSTC 112125Z AUTO 17011KT 7SM FEW055 32/18 A2997 980 43 3100 170/11 RMK AO2
14926KSTC STC20050711153010007/11/05 15:30:31  5-MIN KSTC 112130Z AUTO 18013KT 7SM FEW055 32/18 A2996 990 43 3200 180/13 RMK AO2
14926KSTC STC20050711153510007/11/05 15:35:31  5-MIN KSTC 112135Z AUTO 18011KT 7SM FEW055 32/18 A2996 990 43 3100 180/11 RMK AO2
14926KSTC STC20050711154009707/11/05 15:40:31  5-MIN KSTC 112140Z AUTO 18011KT 7SM CLR 31/18 A2996 990 46 3100 180/11 RMK AO2
14926KSTC STC20050711154510007/11/05 15:45:31  5-MIN KSTC 112145Z AUTO 18011KT 7SM FEW055 32/18 A2996 990 43 3100 180/11 RMK AO2
14926KSTC STC20050711155011707/11/05 15:50:31  5-MIN KSTC 112150Z AUTO 18010KT 7SM FEW060 31/18 A2996 990 46 3100 180/10 RMK AO2 SLP146 T03110183
14926KSTC STC20050711155510007/11/05 15:55:31  5-MIN KSTC 112155Z AUTO 19011KT 7SM FEW060 32/18 A2996 990 44 3100 190/11 RMK AO2
14926KSTC STC20050711160010007/11/05 16:00:31  5-MIN KSTC 112200Z AUTO 20013KT 7SM FEW060 31/18 A2996 990 44 3100 190/13 RMK AO2
14926KSTC STC20050711160510007/11/05 16:05:31  5-MIN KSTC 112205Z AUTO 19012KT 7SM FEW055 32/18 A2996 990 44 3100 190/12 RMK AO2
14926KSTC STC20050711161010707/11/05 16:10:31  5-MIN KSTC 112210Z AUTO 18010KT 7SM FEW055 SCT070 32/19 A2997 980 46 3100 180/10 RMK AO2
14926KSTC STC20050711161510707/11/05 16:15:31  5-MIN KSTC 112215Z AUTO 17009KT 7SM SCT050 SCT065 31/19 A2997 980 47 3100 170/09 RMK AO2
14926KSTC STC20050711162010707/11/05 16:20:31  5-MIN KSTC 112220Z AUTO 18009KT 7SM FEW050 SCT065 31/19 A2997 980 47 3100 180/09 RMK AO2
14926KSTC STC20050711162510707/11/05 16:25:31  5-MIN KSTC 112225Z AUTO 19010KT 7SM FEW050 SCT065 31/18 A2998 980 47 3000 180/10 RMK AO2
14926KSTC STC20050711163010007/11/05 16:30:31  5-MIN KSTC 112230Z AUTO 18009KT 7SM FEW050 31/19 A2998 970 49 3000 180/09 RMK AO2
14926KSTC STC20050711163510007/11/05 16:35:31  5-MIN KSTC 112235Z AUTO 17011KT 7SM FEW050 31/19 A2998 970 49 3000 170/11 RMK AO2
14926KSTC STC20050711164010007/11/05 16:40:31  5-MIN KSTC 112240Z AUTO 18008KT 7SM FEW050 30/19 A2998 970 51 2900 180/08 RMK AO2
14926KSTC STC20050711164509707/11/05 16:45:31  5-MIN KSTC 112245Z AUTO 18008KT 7SM CLR 30/19 A2998 970 51 2900 170/08 RMK AO2
14926KSTC STC20050711165011407/11/05 16:50:31  5-MIN KSTC 112250Z AUTO 18008KT 7SM CLR 30/19 A2998 970 51 2900 170/08 RMK AO2 SLP155 T03000189
14926KSTC STC20050711165509707/11/05 16:55:31  5-MIN KSTC 112255Z AUTO 17008KT 7SM CLR 30/19 A2998 970 52 2900 170/08 RMK AO2
14926KSTC STC20050711170010007/11/05 17:00:31  5-MIN KSTC 112300Z AUTO 17010KT 6SM HZ CLR 30/19 A2998 970 52 2900 170/10 RMK AO2
14926KSTC STC20050711170509707/11/05 17:05:31  5-MIN KSTC 112305Z AUTO 16009KT 7SM CLR 30/19 A2998 970 51 2900 160/09 RMK AO2
14926KSTC STC20050711171010007/11/05 17:10:31  5-MIN KSTC 112310Z AUTO 16010KT 6SM HZ CLR 29/19 A2998 970 52 2900 160/10 RMK AO2
14926KSTC STC20050711171510007/11/05 17:15:31  5-MIN KSTC 112315Z AUTO 16010KT 6SM HZ CLR 29/19 A2998 970 52 2900 160/10 RMK AO2
14926KSTC STC20050711172010007/11/05 17:20:31  5-MIN KSTC 112320Z AUTO 16008KT 6SM HZ CLR 29/19 A2998 980 54 2900 160/08 RMK AO2
14926KSTC STC20050711172510007/11/05 17:25:31  5-MIN KSTC 112325Z AUTO 16007KT 6SM HZ CLR 29/19 A2997 980 54 2900 160/07 RMK AO2
14926KSTC STC20050711173010007/11/05 17:30:31  5-MIN KSTC 112330Z AUTO 16009KT 6SM HZ CLR 29/19 A2997 980 54 2900 160/09 RMK AO2
14926KSTC STC20050711173510007/11/05 17:35:31  5-MIN KSTC 112335Z AUTO 17009KT 6SM HZ CLR 29/19 A2997 980 54 2900 160/09 RMK AO2
14926KSTC STC20050711174010007/11/05 17:40:31  5-MIN KSTC 112340Z AUTO 17007KT 6SM HZ CLR 29/19 A2997 980 56 2800 160/07 RMK AO2
14926KSTC STC20050711174510007/11/05 17:45:31  5-MIN KSTC 112345Z AUTO 17007KT 6SM HZ CLR 29/19 A2998 970 56 2800 170/07 RMK AO2
14926KSTC STC20050711175013507/11/05 17:50:31  5-MIN KSTC 112350Z AUTO 18007KT 6SM HZ CLR 29/19 A2998 970 56 2800 180/07 RMK AO2 SLP153 T02890194 10328 20289 58001
14926KSTC STC20050711175510007/11/05 17:55:31  5-MIN KSTC 112355Z AUTO 18007KT 6SM HZ CLR 29/19 A2998 970 56 2800 180/07 RMK AO2
14926KSTC STC20050711180010007/11/05 18:00:31  5-MIN KSTC 120000Z AUTO 18007KT 6SM HZ CLR 29/19 A2998 970 56 2800 180/07 RMK AO2
14926KSTC STC20050711180510007/11/05 18:05:31  5-MIN KSTC 120005Z AUTO 18006KT 6SM HZ CLR 29/19 A2998 970 56 2800 180/06 RMK AO2
14926KSTC STC20050711181010007/11/05 18:10:31  5-MIN KSTC 120010Z AUTO 18006KT 6SM HZ CLR 28/19 A2998 970 58 2800 180/06 RMK AO2
14926KSTC STC20050711181510007/11/05 18:15:31  5-MIN KSTC 120015Z AUTO 18005KT 6SM HZ CLR 28/19 A2998 970 58 2800 180/05 RMK AO2
14926KSTC STC20050711182010007/11/05 18:20:31  5-MIN KSTC 120020Z AUTO 18006KT 6SM HZ CLR 28/19 A2998 970 58 2800 170/06 RMK AO2
14926KSTC STC20050711182510007/11/05 18:25:31  5-MIN KSTC 120025Z AUTO 18005KT 6SM HZ CLR 28/19 A2998 970 58 2800 170/05 RMK AO2
14926KSTC STC20050711183010007/11/05 18:30:31  5-MIN KSTC 120030Z AUTO 17005KT 6SM HZ CLR 28/19 A2997 980 58 2800 170/05 RMK AO2
14926KSTC STC20050711183510007/11/05 18:35:31  5-MIN KSTC 120035Z AUTO 17005KT 6SM HZ CLR 28/19 A2997 980 58 2800 170/05 RMK AO2
14926KSTC STC20050711184010007/11/05 18:40:31  5-MIN KSTC 120040Z AUTO 16005KT 6SM HZ CLR 28/19 A2997 980 60 2700 160/05 RMK AO2
14926KSTC STC20050711184510007/11/05 18:45:31  5-MIN KSTC 120045Z AUTO 16006KT 6SM HZ CLR 28/19 A2997 980 60 2700 160/06 RMK AO2
14926KSTC STC20050711185011707/11/05 18:50:31  5-MIN KSTC 120050Z AUTO 16006KT 6SM HZ CLR 28/19 A2998 980 60 2700 160/06 RMK AO2 SLP152 T02780194
14926KSTC STC20050711185510007/11/05 18:55:31  5-MIN KSTC 120055Z AUTO 17006KT 6SM HZ CLR 28/19 A2997 980 60 2700 160/06 RMK AO2
14926KSTC STC20050711190010007/11/05 19:00:31  5-MIN KSTC 120100Z AUTO 16006KT 6SM HZ CLR 28/19 A2997 980 60 2700 160/06 RMK AO2
14926KSTC STC20050711190510007/11/05 19:05:31  5-MIN KSTC 120105Z AUTO 16005KT 6SM HZ CLR 28/19 A2998 970 60 2700 160/05 RMK AO2
14926KSTC STC20050711191010007/11/05 19:10:31  5-MIN KSTC 120110Z AUTO 16005KT 6SM HZ CLR 27/19 A2998 970 62 2600 160/05 RMK AO2
14926KSTC STC20050711191510007/11/05 19:15:31  5-MIN KSTC 120115Z AUTO 17004KT 6SM HZ CLR 27/19 A2998 970 62 2600 170/04 RMK AO2
14926KSTC STC20050711192010307/11/05 19:20:31  5-MIN KSTC 120120Z AUTO 18006KT 6SM HZ FEW050 27/19 A2999 960 62 2600 180/06 RMK AO2
14926KSTC STC20050711192510307/11/05 19:25:31  5-MIN KSTC 120125Z AUTO 24006KT 6SM HZ SCT050 27/19 A2999 960 62 2600 240/06 RMK AO2
14926KSTC STC20050711193010307/11/05 19:30:31  5-MIN KSTC 120130Z AUTO 24004KT 5SM HZ SCT050 27/19 A2999 960 64 2600 240/04 RMK AO2
14926KSTC STC20050711193510307/11/05 19:35:31  5-MIN KSTC 120135Z AUTO 25004KT 5SM HZ SCT050 27/19 A2999 960 64 2600 250/04 RMK AO2
14926KSTC STC20050711194010307/11/05 19:40:31  5-MIN KSTC 120140Z AUTO 26004KT 5SM HZ BKN050 27/19 A2999 960 64 2600 250/04 RMK AO2
14926KSTC STC20050711194510307/11/05 19:45:31  5-MIN KSTC 120145Z AUTO 26003KT 5SM HZ BKN050 27/19 A2999 960 64 2600 260/03 RMK AO2
14926KSTC STC20050711195012007/11/05 19:50:31  5-MIN KSTC 120150Z AUTO 00000KT 5SM HZ SCT050 27/19 A2999 960 64 2600 000/00 RMK AO2 SLP156 T02670194
14926KSTC STC20050711195510307/11/05 19:55:31  5-MIN KSTC 120155Z AUTO 00000KT 5SM HZ BKN050 27/19 A2999 960 64 2600 000/00 RMK AO2
14926KSTC STC20050711200010307/11/05 20:00:31  5-MIN KSTC 120200Z AUTO 00000KT 5SM HZ BKN050 27/19 A2999 960 64 2600 000/00 RMK AO2
14926KSTC STC20050711200510307/11/05 20:05:31  5-MIN KSTC 120205Z AUTO 22003KT 5SM HZ BKN050 27/19 A3000 950 64 2600 220/03 RMK AO2
14926KSTC STC20050711201010307/11/05 20:10:31  5-MIN KSTC 120210Z AUTO 26008KT 6SM HZ BKN050 27/19 A3000 950 64 2500 260/08 RMK AO2
14926KSTC STC20050711201510707/11/05 20:15:31  5-MIN KSTC 120215Z AUTO 26008KT 7SM BKN055 BKN070 26/19 A3001 950 64 2500 260/08 RMK AO2
14926KSTC STC20050711202010707/11/05 20:20:31  5-MIN KSTC 120220Z AUTO 26008KT 9SM BKN055 BKN070 26/18 A3001 950 62 2500 250/08 RMK AO2
14926KSTC STC20050711202510007/11/05 20:25:31  5-MIN KSTC 120225Z AUTO 27007KT 9SM SCT055 26/18 A3001 940 64 2400 270/07 RMK AO2
14926KSTC STC20050711203010107/11/05 20:30:31  5-MIN KSTC 120230Z AUTO 27005KT 10SM SCT055 26/18 A3001 940 64 2400 270/05 RMK AO2
14926KSTC STC20050711203510107/11/05 20:35:31  5-MIN KSTC 120235Z AUTO 28005KT 10SM FEW055 26/18 A3002 940 64 2400 280/05 RMK AO2
14926KSTC STC20050711204010107/11/05 20:40:31  5-MIN KSTC 120240Z AUTO 30004KT 10SM FEW060 25/18 A3002 940 66 2300 300/04 RMK AO2
14926KSTC STC20050711204509807/11/05 20:45:31  5-MIN KSTC 120245Z AUTO 33004KT 10SM CLR 25/18 A3002 940 66 2300 320/04 RMK AO2
14926KSTC STC20050711205012107/11/05 20:50:31  5-MIN KSTC 120250Z AUTO 32005KT 10SM CLR 24/18 A3002 940 68 2300 320/05 RMK AO2 SLP166 T02440183 56002
14926KSTC STC20050711205509807/11/05 20:55:31  5-MIN KSTC 120255Z AUTO 34003KT 10SM CLR 24/18 A3002 940 68 2300 340/03 RMK AO2
14926KSTC STC20050711210009807/11/05 21:00:31  5-MIN KSTC 120300Z AUTO 33003KT 10SM CLR 24/18 A3002 940 68 2300 330/03 RMK AO2
14926KSTC STC20050711210509807/11/05 21:05:31  5-MIN KSTC 120305Z AUTO 34003KT 10SM CLR 24/18 A3002 940 68 2300 330/03 RMK AO2
14926KSTC STC20050711211009807/11/05 21:10:31  5-MIN KSTC 120310Z AUTO 33004KT 10SM CLR 24/18 A3002 940 68 2300 320/04 RMK AO2
14926KSTC STC20050711211509807/11/05 21:15:31  5-MIN KSTC 120315Z AUTO 33003KT 10SM CLR 24/18 A3002 940 71 2200 330/03 RMK AO2
14926KSTC STC20050711212009807/11/05 21:20:31  5-MIN KSTC 120320Z AUTO 35003KT 10SM CLR 24/18 A3002 940 71 2200 350/03 RMK AO2
14926KSTC STC20050711212509807/11/05 21:25:31  5-MIN KSTC 120325Z AUTO 34004KT 10SM CLR 24/18 A3002 940 71 2200 340/04 RMK AO2
14926KSTC STC20050711213009807/11/05 21:30:31  5-MIN KSTC 120330Z AUTO 34004KT 10SM CLR 24/18 A3002 930 71 2200 340/04 RMK AO2
14926KSTC STC20050711213509807/11/05 21:35:31  5-MIN KSTC 120335Z AUTO 34005KT 10SM CLR 23/18 A3002 930 73 2200 340/05 RMK AO2
14926KSTC STC20050711214009807/11/05 21:40:31  5-MIN KSTC 120340Z AUTO 01004KT 10SM CLR 23/18 A3002 940 73 2200 360/04 RMK AO2
14926KSTC STC20050711214509807/11/05 21:45:31  5-MIN KSTC 120345Z AUTO 01004KT 10SM CLR 23/18 A3002 940 73 2200 010/04 RMK AO2
14926KSTC STC20050711215011507/11/05 21:50:31  5-MIN KSTC 120350Z AUTO 02004KT 10SM CLR 23/18 A3002 940 76 2100 010/04 RMK AO2 SLP166 T02280183
14926KSTC STC20050711215509807/11/05 21:55:31  5-MIN KSTC 120355Z AUTO 00000KT 10SM CLR 23/18 A3002 940 73 2100 000/00 RMK AO2
14926KSTC STC20050711220009807/11/05 22:00:31  5-MIN KSTC 120400Z AUTO 00000KT 10SM CLR 23/18 A3002 930 73 2100 000/00 RMK AO2
14926KSTC STC20050711220509807/11/05 22:05:31  5-MIN KSTC 120405Z AUTO 01003KT 10SM CLR 23/17 A3002 940 68 2200 360/03 RMK AO2
14926KSTC STC20050711221009807/11/05 22:10:31  5-MIN KSTC 120410Z AUTO 36006KT 10SM CLR 23/17 A3002 940 68 2200 360/06 RMK AO2
14926KSTC STC20050711221509807/11/05 22:15:31  5-MIN KSTC 120415Z AUTO 00000KT 10SM CLR 23/17 A3002 930 70 2100 000/00 RMK AO2
14926KSTC STC20050711222009807/11/05 22:20:31  5-MIN KSTC 120420Z AUTO 00000KT 10SM CLR 23/17 A3002 930 70 2100 000/00 RMK AO2
14926KSTC STC20050711222509807/11/05 22:25:31  5-MIN KSTC 120425Z AUTO 00000KT 10SM CLR 22/18 A3003 930 75 2000 000/00 RMK AO2
14926KSTC STC20050711223009807/11/05 22:30:31  5-MIN KSTC 120430Z AUTO 00000KT 10SM CLR 22/18 A3003 930 75 2000 000/00 RMK AO2
14926KSTC STC20050711223509807/11/05 22:35:31  5-MIN KSTC 120435Z AUTO 00000KT 10SM CLR 22/18 A3003 930 75 2000 000/00 RMK AO2
14926KSTC STC20050711224009807/11/05 22:40:31  5-MIN KSTC 120440Z AUTO 36003KT 10SM CLR 22/18 A3003 930 78 2000 360/03 RMK AO2
14926KSTC STC20050711224509807/11/05 22:45:31  5-MIN KSTC 120445Z AUTO 00000KT 10SM CLR 22/18 A3003 930 78 2000 000/00 RMK AO2
14926KSTC STC20050711225011507/11/05 22:50:31  5-MIN KSTC 120450Z AUTO 03003KT 10SM CLR 22/18 A3003 930 78 2000 030/03 RMK AO2 SLP169 T02170178
14926KSTC STC20050711225510107/11/05 22:55:31  5-MIN KSTC 120455Z AUTO 00000KT 10SM FEW055 22/18 A3003 930 78 2000 000/00 RMK AO2
14926KSTC STC20050711230010107/11/05 23:00:31  5-MIN KSTC 120500Z AUTO 00000KT 10SM SCT055 22/18 A3003 930 78 2000 000/00 RMK AO2
14926KSTC STC20050711230510107/11/05 23:05:31  5-MIN KSTC 120505Z AUTO 03003KT 10SM BKN055 22/18 A3003 930 75 2000 030/03 RMK AO2
14926KSTC STC20050711231010107/11/05 23:10:31  5-MIN KSTC 120510Z AUTO 00000KT 10SM BKN055 22/18 A3003 920 75 2000 000/00 RMK AO2
14926KSTC STC20050711231510807/11/05 23:15:31  5-MIN KSTC 120515Z AUTO 00000KT 10SM BKN055 BKN075 22/18 A3003 920 75 2000 000/00 RMK AO2
14926KSTC STC20050711232010807/11/05 23:20:31  5-MIN KSTC 120520Z AUTO 00000KT 10SM BKN055 OVC080 22/18 A3003 930 75 2000 000/00 RMK AO2
14926KSTC STC20050711232510807/11/05 23:25:31  5-MIN KSTC 120525Z AUTO 00000KT 10SM BKN055 OVC085 22/18 A3003 930 75 2000 000/00 RMK AO2
14926KSTC STC20050711233010807/11/05 23:30:31  5-MIN KSTC 120530Z AUTO 00000KT 10SM SCT055 BKN085 22/18 A3003 930 75 2000 000/00 RMK AO2
14926KSTC STC20050711233510807/11/05 23:35:31  5-MIN KSTC 120535Z AUTO 00000KT 10SM SCT055 BKN085 22/18 A3003 930 75 2000 000/00 RMK AO2
14926KSTC STC20050711234011507/11/05 23:40:31  5-MIN KSTC 120540Z AUTO 00000KT 10SM SCT055 BKN075 BKN090 22/18 A3003 930 75 2000 000/00 RMK AO2
14926KSTC STC20050711234511507/11/05 23:45:31  5-MIN KSTC 120545Z AUTO 00000KT 10SM FEW055 SCT075 BKN090 22/18 A3003 930 75 2000 000/00 RMK AO2
14926KSTC STC20050711235015307/11/05 23:50:31  5-MIN KSTC 120550Z AUTO 00000KT 10SM FEW055 SCT090 22/18 A3003 930 78 2000 000/00 RMK AO2 SLP169 T02170178 10289 20217 403280211 53012
14926KSTC STC20050711235510107/11/05 23:55:31  5-MIN KSTC 120555Z AUTO 00000KT 10SM FEW055 22/18 A3003 930 81 2000 000/00 RMK AO2
14926KSTC STC20050712000010107/12/05 00:00:32  5-MIN KSTC 120600Z AUTO 00000KT 10SM FEW055 22/18 A3003 930 81 2000 000/00 RMK AO2
14926KSTC STC20050712000510107/12/05 00:05:31  5-MIN KSTC 120605Z AUTO 00000KT 10SM FEW075 22/18 A3003 930 81 2000 000/00 RMK AO2
14926KSTC STC20050712001009807/12/05 00:10:31  5-MIN KSTC 120610Z AUTO 00000KT 10SM CLR 22/18 A3003 930 81 2000 000/00 RMK AO2
14926KSTC STC20050712001509807/12/05 00:15:31  5-MIN KSTC 120615Z AUTO 00000KT 10SM CLR 22/18 A3003 930 81 2000 000/00 RMK AO2
14926KSTC STC20050712002009807/12/05 00:20:31  5-MIN KSTC 120620Z AUTO 00000KT 10SM CLR 22/18 A3003 930 81 2000 000/00 RMK AO2
14926KSTC STC20050712002509807/12/05 00:25:31  5-MIN KSTC 120625Z AUTO 00000KT 10SM CLR 21/18 A3003 930 84 1900 000/00 RMK AO2
14926KSTC STC20050712003009807/12/05 00:30:31  5-MIN KSTC 120630Z AUTO 00000KT 10SM CLR 21/18 A3003 930 84 1900 000/00 RMK AO2
14926KSTC STC20050712003509807/12/05 00:35:31  5-MIN KSTC 120635Z AUTO 00000KT 10SM CLR 21/18 A3003 930 81 1900 000/00 RMK AO2
14926KSTC STC20050712004009807/12/05 00:40:31  5-MIN KSTC 120640Z AUTO 00000KT 10SM CLR 21/18 A3003 930 81 1900 000/00 RMK AO2
14926KSTC STC20050712004509807/12/05 00:45:31  5-MIN KSTC 120645Z AUTO 00000KT 10SM CLR 21/18 A3003 930 84 1900 000/00 RMK AO2
14926KSTC STC20050712005011507/12/05 00:50:31  5-MIN KSTC 120650Z AUTO 00000KT 10SM CLR 21/18 A3003 930 87 1800 000/00 RMK AO2 SLP169 T02060183
14926KSTC STC20050712005509807/12/05 00:55:31  5-MIN KSTC 120655Z AUTO 00000KT 10SM CLR 21/18 A3003 930 87 1800 000/00 RMK AO2
14926KSTC STC20050712010009807/12/05 01:00:31  5-MIN KSTC 120700Z AUTO 00000KT 10SM CLR 21/18 A3003 930 87 1800 000/00 RMK AO2
14926KSTC STC20050712010510107/12/05 01:05:31  5-MIN KSTC 120705Z AUTO 27003KT 10SM FEW080 21/18 A3003 920 87 1800 270/03 RMK AO2
14926KSTC STC20050712011010107/12/05 01:10:31  5-MIN KSTC 120710Z AUTO 26004KT 10SM FEW080 21/18 A3003 930 84 1800 260/04 RMK AO2
14926KSTC STC20050712011510107/12/05 01:15:31  5-MIN KSTC 120715Z AUTO 29004KT 10SM FEW080 21/18 A3003 930 81 1900 290/04 RMK AO2
14926KSTC STC20050712012010107/12/05 01:20:31  5-MIN KSTC 120720Z AUTO 00000KT 10SM FEW080 21/18 A3003 920 81 1900 000/00 RMK AO2
14926KSTC STC20050712012510107/12/05 01:25:31  5-MIN KSTC 120725Z AUTO 00000KT 10SM FEW080 21/18 A3003 920 81 1900 000/00 RMK AO2
14926KSTC STC20050712013010807/12/05 01:30:31  5-MIN KSTC 120730Z AUTO 00000KT 10SM FEW055 SCT080 21/18 A3003 920 84 1800 000/00 RMK AO2
14926KSTC STC20050712013510107/12/05 01:35:31  5-MIN KSTC 120735Z AUTO 00000KT 10SM SCT055 21/18 A3003 920 81 1900 000/00 RMK AO2
14926KSTC STC20050712014010107/12/05 01:40:31  5-MIN KSTC 120740Z AUTO 00000KT 10SM BKN055 21/18 A3003 920 81 1900 000/00 RMK AO2
14926KSTC STC20050712014510107/12/05 01:45:31  5-MIN KSTC 120745Z AUTO 00000KT 10SM BKN055 21/18 A3003 920 84 1900 000/00 RMK AO2
14926KSTC STC20050712015011807/12/05 01:50:31  5-MIN KSTC 120750Z AUTO 00000KT 10SM BKN055 21/18 A3003 920 84 1900 000/00 RMK AO2 SLP170 T02110183
14926KSTC STC20050712015510107/12/05 01:55:31  5-MIN KSTC 120755Z AUTO 00000KT 10SM OVC055 22/18 A3003 920 81 1900 000/00 RMK AO2
14926KSTC STC20050712020010107/12/05 02:00:31  5-MIN KSTC 120800Z AUTO 00000KT 10SM OVC055 22/18 A3003 920 81 1900 000/00 RMK AO2
14926KSTC STC20050712020510107/12/05 02:05:31  5-MIN KSTC 120805Z AUTO 00000KT 10SM OVC055 22/18 A3003 920 81 1900 000/00 RMK AO2
14926KSTC STC20050712021010807/12/05 02:10:31  5-MIN KSTC 120810Z AUTO 00000KT 10SM BKN055 OVC070 22/18 A3004 920 81 1900 000/00 RMK AO2
14926KSTC STC20050712021510807/12/05 02:15:31  5-MIN KSTC 120815Z AUTO 00000KT 10SM BKN055 BKN090 22/18 A3004 920 81 1900 000/00 RMK AO2
14926KSTC STC20050712022010107/12/05 02:20:31  5-MIN KSTC 120820Z AUTO 31004KT 10SM BKN055 21/18 A3004 920 84 1900 310/04 RMK AO2
14926KSTC STC20050712022510107/12/05 02:25:31  5-MIN KSTC 120825Z AUTO 32004KT 10SM BKN050 21/18 A3004 920 84 1900 310/04 RMK AO2
14926KSTC STC20050712023010107/12/05 02:30:31  5-MIN KSTC 120830Z AUTO 32005KT 10SM OVC055 21/18 A3004 910 84 1900 310/05 RMK AO2
14926KSTC STC20050712023510107/12/05 02:35:31  5-MIN KSTC 120835Z AUTO 32006KT 10SM OVC055 21/18 A3004 920 84 1900 310/06 RMK AO2
14926KSTC STC20050712024010107/12/05 02:40:31  5-MIN KSTC 120840Z AUTO 33005KT 10SM OVC050 22/18 A3004 920 81 1900 330/05 RMK AO2
14926KSTC STC20050712024510107/12/05 02:45:31  5-MIN KSTC 120845Z AUTO 33005KT 10SM BKN055 22/18 A3004 920 81 1900 320/05 RMK AO2
14926KSTC STC20050712025012407/12/05 02:50:31  5-MIN KSTC 120850Z AUTO 33003KT 10SM BKN055 22/18 A3004 920 81 1900 330/03 RMK AO2 SLP173 T02170183 53004
14926KSTC STC20050712025510107/12/05 02:55:31  5-MIN KSTC 120855Z AUTO 34003KT 10SM OVC050 22/18 A3004 920 81 1900 340/03 RMK AO2
14926KSTC STC20050712030010107/12/05 03:00:31  5-MIN KSTC 120900Z AUTO 34003KT 10SM OVC050 22/18 A3004 920 81 1900 340/03 RMK AO2
14926KSTC STC20050712030510107/12/05 03:05:31  5-MIN KSTC 120905Z AUTO 34003KT 10SM OVC050 22/18 A3004 920 81 1900 340/03 RMK AO2
14926KSTC STC20050712031010107/12/05 03:10:31  5-MIN KSTC 120910Z AUTO 34003KT 10SM OVC050 22/18 A3004 920 81 1900 340/03 RMK AO2
14926KSTC STC20050712031510107/12/05 03:15:31  5-MIN KSTC 120915Z AUTO 00000KT 10SM OVC055 22/18 A3004 920 81 1900 000/00 RMK AO2
14926KSTC STC20050712032010107/12/05 03:20:31  5-MIN KSTC 120920Z AUTO 32003KT 10SM BKN055 22/18 A3004 920 81 1900 310/03 RMK AO2
14926KSTC STC20050712032510107/12/05 03:25:31  5-MIN KSTC 120925Z AUTO 33003KT 10SM BKN055 22/18 A3004 920 81 1900 320/03 RMK AO2
14926KSTC STC20050712033010107/12/05 03:30:31  5-MIN KSTC 120930Z AUTO 33004KT 10SM SCT055 22/18 A3004 920 81 1900 330/04 RMK AO2
14926KSTC STC20050712033510107/12/05 03:35:31  5-MIN KSTC 120935Z AUTO 00000KT 10SM FEW055 22/18 A3004 920 81 1900 000/00 RMK AO2
14926KSTC STC20050712034010107/12/05 03:40:31  5-MIN KSTC 120940Z AUTO 00000KT 10SM FEW055 22/18 A3004 910 81 1900 000/00 RMK AO2
14926KSTC STC20050712034509807/12/05 03:45:31  5-MIN KSTC 120945Z AUTO 33003KT 10SM CLR 22/18 A3004 910 81 1900 330/03 RMK AO2
14926KSTC STC20050712035011507/12/05 03:50:31  5-MIN KSTC 120950Z AUTO 00000KT 10SM CLR 22/18 A3004 910 81 1900 000/00 RMK AO2 SLP173 T02170183
14926KSTC STC20050712035509807/12/05 03:55:31  5-MIN KSTC 120955Z AUTO 00000KT 10SM CLR 22/18 A3004 910 81 1900 000/00 RMK AO2
14926KSTC STC20050712040009807/12/05 04:00:31  5-MIN KSTC 121000Z AUTO 00000KT 10SM CLR 22/18 A3004 910 81 1900 000/00 RMK AO2
14926KSTC STC20050712040509807/12/05 04:05:31  5-MIN KSTC 121005Z AUTO 00000KT 10SM CLR 21/18 A3004 910 84 1900 000/00 RMK AO2
14926KSTC STC20050712041009807/12/05 04:10:31  5-MIN KSTC 121010Z AUTO 35003KT 10SM CLR 21/18 A3004 910 84 1900 350/03 RMK AO2
14926KSTC STC20050712041509807/12/05 04:15:31  5-MIN KSTC 121015Z AUTO 00000KT 10SM CLR 21/18 A3004 910 84 1900 000/00 RMK AO2
14926KSTC STC20050712042009807/12/05 04:20:31  5-MIN KSTC 121020Z AUTO 00000KT 10SM CLR 21/18 A3004 910 84 1900 000/00 RMK AO2
14926KSTC STC20050712042509807/12/05 04:25:31  5-MIN KSTC 121025Z AUTO 00000KT 10SM CLR 21/18 A3004 910 84 1900 000/00 RMK AO2
14926KSTC STC20050712043009807/12/05 04:30:31  5-MIN KSTC 121030Z AUTO 00000KT 10SM CLR 21/18 A3005 910 84 1900 000/00 RMK AO2
14926KSTC STC20050712043509807/12/05 04:35:31  5-MIN KSTC 121035Z AUTO 00000KT 10SM CLR 21/18 A3005 910 84 1900 000/00 RMK AO2
14926KSTC STC20050712044009807/12/05 04:40:31  5-MIN KSTC 121040Z AUTO 00000KT 10SM CLR 21/18 A3005 910 84 1900 000/00 RMK AO2
14926KSTC STC20050712044509807/12/05 04:45:31  5-MIN KSTC 121045Z AUTO 00000KT 10SM CLR 21/18 A3005 910 84 1900 000/00 RMK AO2
14926KSTC STC20050712045011507/12/05 04:50:31  5-MIN KSTC 121050Z AUTO 00000KT 10SM CLR 21/18 A3005 910 84 1900 000/00 RMK AO2 SLP178 T02110183
14926KSTC STC20050712045509807/12/05 04:55:31  5-MIN KSTC 121055Z AUTO 00000KT 10SM CLR 21/18 A3005 900 84 1900 000/00 RMK AO2
14926KSTC STC20050712050010107/12/05 05:00:31  5-MIN KSTC 121100Z AUTO 00000KT 10SM SCT050 21/18 A3005 900 84 1900 000/00 RMK AO2
14926KSTC STC20050712050510007/12/05 05:05:31  5-MIN KSTC 121105Z AUTO 00000KT 9SM SCT055 21/18 A3006 900 84 1900 000/00 RMK AO2
14926KSTC STC20050712051010107/12/05 05:10:31  5-MIN KSTC 121110Z AUTO 00000KT 10SM SCT055 21/18 A3006 900 84 1900 000/00 RMK AO2
14926KSTC STC20050712051510107/12/05 05:15:31  5-MIN KSTC 121115Z AUTO 00000KT 10SM FEW055 21/18 A3006 900 84 1900 000/00 RMK AO2
14926KSTC STC20050712052010807/12/05 05:20:31  5-MIN KSTC 121120Z AUTO 30004KT 10SM SCT055 SCT075 21/18 A3006 900 84 1900 300/04 RMK AO2
14926KSTC STC20050712052510807/12/05 05:25:31  5-MIN KSTC 121125Z AUTO 00000KT 10SM SCT055 BKN080 21/18 A3006 900 84 1900 000/00 RMK AO2
14926KSTC STC20050712053010807/12/05 05:30:31  5-MIN KSTC 121130Z AUTO 00000KT 10SM FEW055 SCT080 21/18 A3006 900 84 1900 000/00 RMK AO2
14926KSTC STC20050712053510807/12/05 05:35:31  5-MIN KSTC 121135Z AUTO 00000KT 10SM FEW060 SCT080 21/18 A3006 900 84 1900 000/00 RMK AO2
14926KSTC STC20050712054011507/12/05 05:40:31  5-MIN KSTC 121140Z AUTO 00000KT 10SM SCT055 SCT070 BKN090 21/18 A3006 900 84 1900 000/00 RMK AO2
14926KSTC STC20050712054510807/12/05 05:45:31  5-MIN KSTC 121145Z AUTO 00000KT 10SM FEW055 BKN095 21/18 A3006 900 84 1900 000/00 RMK AO2
14926KSTC STC20050712055015007/12/05 05:50:31  5-MIN KSTC 121150Z AUTO 00000KT 10SM FEW055 SCT090 SCT100 21/18 A3006 900 84 1900 000/00 RMK AO2 SLP181 T02110183 10217 20206 53003
14926KSTC STC20050712055510107/12/05 05:55:31  5-MIN KSTC 121155Z AUTO 28003KT 10SM FEW055 21/18 A3006 890 84 1900 270/03 RMK AO2
14926KSTC STC20050712060010307/12/05 06:00:31  5-MIN KSTC 121200Z 27003KT 10SM FEW060 SCT100 21/18 A3007 890 84 1800 270/03 RMK AO2
14926KSTC STC20050712060509607/12/05 06:05:31  5-MIN KSTC 121205Z 00000KT 10SM FEW060 21/18 A3007 890 84 1800 000/00 RMK AO2
14926KSTC STC20050712061009307/12/05 06:10:31  5-MIN KSTC 121210Z 00000KT 10SM CLR 21/18 A3007 890 84 1800 000/00 RMK AO2
14926KSTC STC20050712061509607/12/05 06:15:31  5-MIN KSTC 121215Z 29003KT 10SM FEW055 21/18 A3007 890 84 1800 290/03 RMK AO2
14926KSTC STC20050712062009607/12/05 06:20:31  5-MIN KSTC 121220Z 30003KT 10SM SCT055 21/18 A3007 890 84 1800 290/03 RMK AO2
14926KSTC STC20050712062509607/12/05 06:25:31  5-MIN KSTC 121225Z 31004KT 10SM FEW055 22/18 A3007 880 81 1900 310/04 RMK AO2
14926KSTC STC20050712063009607/12/05 06:30:31  5-MIN KSTC 121230Z 32004KT 10SM SCT055 22/18 A3007 880 81 1900 320/04 RMK AO2
14926KSTC STC20050712063509607/12/05 06:35:31  5-MIN KSTC 121235Z 33004KT 10SM SCT050 22/18 A3008 880 81 1900 330/04 RMK AO2
14926KSTC STC20050712064009607/12/05 06:40:31  5-MIN KSTC 121240Z 34003KT 10SM BKN050 22/18 A3008 880 81 1900 330/03 RMK AO2
14926KSTC STC20050712064509607/12/05 06:45:31  5-MIN KSTC 121245Z 33003KT 10SM BKN050 22/18 A3008 880 81 1900 320/03 RMK AO2
14926KSTC STC20050712065011307/12/05 06:50:31  5-MIN KSTC 121250Z 33004KT 10SM BKN050 22/18 A3008 880 81 1900 330/04 RMK AO2 SLP187 T02170183
14926KSTC STC20050712065510307/12/05 06:55:31  5-MIN KSTC 121255Z 34004KT 10SM BKN050 BKN070 22/18 A3008 880 81 1900 340/04 RMK AO2
14926KSTC STC20050712070010307/12/05 07:00:31  5-MIN KSTC 121300Z 35003KT 10SM BKN050 BKN070 22/18 A3008 880 81 1900 340/03 RMK AO2
14926KSTC STC20050712070509607/12/05 07:05:31  5-MIN KSTC 121305Z 34004KT 10SM SCT050 22/18 A3008 880 78 2000 340/04 RMK AO2
14926KSTC STC20050712071010307/12/05 07:10:31  5-MIN KSTC 121310Z VRB05KT 10SM SCT050 SCT070 22/18 A3008 880 78 2000 VRB/05 RMK AO2
14926KSTC STC20050712071509607/12/05 07:15:31  5-MIN KSTC 121315Z 34005KT 10SM SCT060 22/19 A3008 880 81 2000 340/05 RMK AO2
14926KSTC STC20050712072009607/12/05 07:20:31  5-MIN KSTC 121320Z 34006KT 10SM SCT070 22/19 A3008 880 81 2000 340/06 RMK AO2
14926KSTC STC20050712072509607/12/05 07:25:31  5-MIN KSTC 121325Z 35005KT 10SM SCT070 23/19 A3008 880 78 2000 350/05 RMK AO2
14926KSTC STC20050712073009607/12/05 07:30:31  5-MIN KSTC 121330Z VRB03KT 10SM FEW070 23/19 A3009 870 78 2000 VRB/03 RMK AO2
14926KSTC STC20050712073509607/12/05 07:35:31  5-MIN KSTC 121335Z 34006KT 10SM FEW070 23/19 A3009 870 78 2000 340/06 RMK AO2
14926KSTC STC20050712074009607/12/05 07:40:31  5-MIN KSTC 121340Z 33005KT 10SM FEW070 23/19 A3009 870 78 2000 330/05 RMK AO2
14926KSTC STC20050712074510307/12/05 07:45:31  5-MIN KSTC 121345Z 33004KT 10SM FEW050 SCT070 23/19 A3009 870 78 2000 320/04 RMK AO2
14926KSTC STC20050712075011307/12/05 07:50:31  5-MIN KSTC 121350Z 36004KT 10SM FEW050 23/19 A3009 870 78 2000 350/04 RMK AO2 SLP191 T02280189
14926KSTC STC20050712075509607/12/05 07:55:31  5-MIN KSTC 121355Z 34004KT 10SM SCT050 23/19 A3009 870 78 2000 340/04 RMK AO2
14926KSTC STC20050712080009607/12/05 08:00:31  5-MIN KSTC 121400Z 34005KT 10SM SCT055 23/19 A3009 870 76 2100 340/05 RMK AO2
14926KSTC STC20050712080509607/12/05 08:05:31  5-MIN KSTC 121405Z 35006KT 10SM BKN055 23/19 A3009 870 76 2100 340/06 RMK AO2
14926KSTC STC20050712081009607/12/05 08:10:31  5-MIN KSTC 121410Z 35005KT 10SM BKN055 23/19 A3009 870 76 2100 340/05 RMK AO2
14926KSTC STC20050712081509607/12/05 08:15:31  5-MIN KSTC 121415Z 34004KT 10SM SCT055 24/19 A3009 870 73 2100 340/04 RMK AO2
14926KSTC STC20050712082009607/12/05 08:20:31  5-MIN KSTC 121420Z 36005KT 10SM SCT055 24/19 A3009 870 73 2100 360/05 RMK AO2
14926KSTC STC20050712082509607/12/05 08:25:31  5-MIN KSTC 121425Z VRB05KT 10SM FEW055 24/19 A3009 870 71 2200 VRB/05 RMK AO2
14926KSTC STC20050712083009607/12/05 08:30:31  5-MIN KSTC 121430Z VRB06KT 10SM FEW055 24/19 A3009 870 71 2200 VRB/06 RMK AO2
14926KSTC STC20050712083509307/12/05 08:35:31  5-MIN KSTC 121435Z 01006KT 10SM CLR 24/19 A3009 870 71 2200 010/06 RMK AO2
14926KSTC STC20050712084009307/12/05 08:40:31  5-MIN KSTC 121440Z 36006KT 10SM CLR 24/18 A3009 870 71 2100 360/06 RMK AO2
14926KSTC STC20050712084509307/12/05 08:45:31  5-MIN KSTC 121445Z 35004KT 10SM CLR 24/18 A3009 870 71 2100 350/04 RMK AO2
14926KSTC STC20050712085011607/12/05 08:50:31  5-MIN KSTC 121450Z 35005KT 10SM CLR 24/18 A3009 870 71 2100 350/05 RMK AO2 SLP192 T02390183 53008
14926KSTC STC20050712085509307/12/05 08:55:31  5-MIN KSTC 121455Z 01005KT 10SM CLR 24/18 A3009 870 71 2100 010/05 RMK AO2
14926KSTC STC20050712090009307/12/05 09:00:31  5-MIN KSTC 121500Z 36004KT 10SM CLR 24/18 A3009 870 71 2100 350/04 RMK AO2
14926KSTC STC20050712090509307/12/05 09:05:31  5-MIN KSTC 121505Z VRB03KT 10SM CLR 24/19 A3009 870 71 2200 VRB/03 RMK AO2
14926KSTC STC20050712091009307/12/05 09:10:31  5-MIN KSTC 121510Z 02004KT 10SM CLR 24/18 A3009 870 68 2200 020/04 RMK AO2
14926KSTC STC20050712091509307/12/05 09:15:31  5-MIN KSTC 121515Z 01004KT 10SM CLR 24/18 A3009 870 71 2100 010/04 RMK AO2
14926KSTC STC20050712092009307/12/05 09:20:31  5-MIN KSTC 121520Z 36004KT 10SM CLR 24/18 A3009 870 71 2100 360/04 RMK AO2
14926KSTC STC20050712092509307/12/05 09:25:31  5-MIN KSTC 121525Z 36005KT 10SM CLR 24/18 A3009 870 68 2200 360/05 RMK AO2
14926KSTC STC20050712093009307/12/05 09:30:31  5-MIN KSTC 121530Z 02004KT 10SM CLR 24/18 A3009 870 68 2200 010/04 RMK AO2
14926KSTC STC20050712093509307/12/05 09:35:31  5-MIN KSTC 121535Z VRB05KT 10SM CLR 24/18 A3008 870 68 2200 VRB/05 RMK AO2
14926KSTC STC20050712094009307/12/05 09:40:31  5-MIN KSTC 121540Z 01005KT 10SM CLR 26/18 A3009 870 64 2300 010/05 RMK AO2
14926KSTC STC20050712094509307/12/05 09:45:31  5-MIN KSTC 121545Z 03005KT 10SM CLR 26/19 A3009 870 66 2300 020/05 RMK AO2
14926KSTC STC20050712095011007/12/05 09:50:31  5-MIN KSTC 121550Z 04006KT 10SM CLR 26/18 A3009 870 64 2300 030/06 RMK AO2 SLP191 T02560183
14926KSTC STC20050712095509307/12/05 09:55:31  5-MIN KSTC 121555Z 04005KT 10SM CLR 26/18 A3009 870 64 2300 040/05 RMK AO2
14926KSTC STC20050712100009307/12/05 10:00:31  5-MIN KSTC 121600Z VRB04KT 10SM CLR 25/19 A3009 870 68 2300 VRB/04 RMK AO2
14926KSTC STC20050712100509307/12/05 10:05:31  5-MIN KSTC 121605Z 04004KT 10SM CLR 25/19 A3009 870 68 2300 040/04 RMK AO2
14926KSTC STC20050712101009307/12/05 10:10:31  5-MIN KSTC 121610Z 04005KT 10SM CLR 25/19 A3009 870 68 2300 040/05 RMK AO2
14926KSTC STC20050712101509307/12/05 10:15:31  5-MIN KSTC 121615Z VRB04KT 10SM CLR 25/19 A3009 870 68 2300 VRB/04 RMK AO2
14926KSTC STC20050712102009307/12/05 10:20:31  5-MIN KSTC 121620Z 04005KT 10SM CLR 26/19 A3009 870 64 2400 040/05 RMK AO2
14926KSTC STC20050712102509307/12/05 10:25:31  5-MIN KSTC 121625Z 03005KT 10SM CLR 26/19 A3009 870 64 2400 020/05 RMK AO2
14926KSTC STC20050712103009307/12/05 10:30:31  5-MIN KSTC 121630Z 04005KT 10SM CLR 26/19 A3009 870 64 2400 030/05 RMK AO2
14926KSTC STC20050712103509307/12/05 10:35:31  5-MIN KSTC 121635Z 08004KT 10SM CLR 26/19 A3009 870 64 2400 070/04 RMK AO2
14926KSTC STC20050712104009307/12/05 10:40:31  5-MIN KSTC 121640Z VRB05KT 10SM CLR 27/19 A3009 870 62 2500 VRB/05 RMK AO2
14926KSTC STC20050712104509307/12/05 10:45:31  5-MIN KSTC 121645Z 08006KT 10SM CLR 27/19 A3009 870 64 2500 080/06 RMK AO2
14926KSTC STC20050712105011007/12/05 10:50:31  5-MIN KSTC 121650Z VRB03KT 10SM CLR 27/19 A3009 870 64 2500 VRB/03 RMK AO2 SLP191 T02670194
14926KSTC STC20050712105509307/12/05 10:55:31  5-MIN KSTC 121655Z VRB05KT 10SM CLR 27/19 A3009 870 62 2500 VRB/05 RMK AO2
14926KSTC STC20050712110009307/12/05 11:00:31  5-MIN KSTC 121700Z 06005KT 10SM CLR 27/19 A3009 870 62 2500 060/05 RMK AO2
14926KSTC STC20050712110509307/12/05 11:05:31  5-MIN KSTC 121705Z VRB04KT 10SM CLR 28/19 A3009 870 60 2600 VRB/04 RMK AO2
14926KSTC STC20050712111009307/12/05 11:10:31  5-MIN KSTC 121710Z VRB03KT 10SM CLR 28/19 A3009 870 58 2600 VRB/03 RMK AO2
14926KSTC STC20050712111509307/12/05 11:15:31  5-MIN KSTC 121715Z VRB04KT 10SM CLR 28/19 A3009 870 60 2600 VRB/04 RMK AO2
14926KSTC STC20050712112009307/12/05 11:20:31  5-MIN KSTC 121720Z VRB05KT 10SM CLR 28/19 A3009 870 58 2600 VRB/05 RMK AO2
14926KSTC STC20050712112509307/12/05 11:25:31  5-MIN KSTC 121725Z 36005KT 10SM CLR 28/19 A3009 870 56 2600 360/05 RMK AO2
14926KSTC STC20050712113009307/12/05 11:30:31  5-MIN KSTC 121730Z VRB04KT 10SM CLR 28/18 A3009 870 54 2600 VRB/04 RMK AO2
14926KSTC STC20050712113509307/12/05 11:35:31  5-MIN KSTC 121735Z VRB04KT 10SM CLR 28/18 A3009 870 54 2600 VRB/04 RMK AO2
14926KSTC STC20050712114009307/12/05 11:40:31  5-MIN KSTC 121740Z VRB03KT 10SM CLR 29/19 A3009 870 54 2700 VRB/03 RMK AO2
14926KSTC STC20050712114509307/12/05 11:45:31  5-MIN KSTC 121745Z VRB04KT 10SM CLR 29/19 A3009 870 54 2700 VRB/04 RMK AO2
14926KSTC STC20050712115012807/12/05 11:50:31  5-MIN KSTC 121750Z 04003KT 10SM CLR 29/19 A3009 870 54 2700 040/03 RMK AO2 SLP189 T02890189 10289 20211 51009
14926KSTC STC20050712115509307/12/05 11:55:31  5-MIN KSTC 121755Z 33005KT 10SM CLR 29/19 A3009 870 52 2800 330/05 RMK AO2
14926KSTC STC20050712120009307/12/05 12:00:31  5-MIN KSTC 121800Z 04006KT 10SM CLR 29/19 A3008 870 54 2700 030/06 RMK AO2
14926KSTC STC20050712120509607/12/05 12:05:31  5-MIN KSTC 121805Z VRB05KT 10SM FEW033 29/19 A3008 880 54 2800 VRB/05 RMK AO2
14926KSTC STC20050712121009607/12/05 12:10:31  5-MIN KSTC 121810Z 34004KT 10SM FEW033 29/19 A3008 880 54 2700 340/04 RMK AO2
14926KSTC STC20050712121509607/12/05 12:15:31  5-MIN KSTC 121815Z 35005KT 10SM FEW033 29/19 A3008 880 54 2800 340/05 RMK AO2
14926KSTC STC20050712122009607/12/05 12:20:31  5-MIN KSTC 121820Z 34006KT 10SM FEW033 29/19 A3008 880 56 2700 340/06 RMK AO2
14926KSTC STC20050712122509607/12/05 12:25:31  5-MIN KSTC 121825Z 33007KT 10SM FEW033 29/19 A3008 880 54 2700 320/07 RMK AO2
14926KSTC STC20050712123009607/12/05 12:30:31  5-MIN KSTC 121830Z 35007KT 10SM FEW033 30/19 A3008 880 52 2800 350/07 RMK AO2
14926KSTC STC20050712123509307/12/05 12:35:31  5-MIN KSTC 121835Z VRB06KT 10SM CLR 29/19 A3008 880 52 2800 VRB/06 RMK AO2
14926KSTC STC20050712124009307/12/05 12:40:31  5-MIN KSTC 121840Z 35005KT 10SM CLR 29/19 A3008 880 54 2700 350/05 RMK AO2
14926KSTC STC20050712124509607/12/05 12:45:31  5-MIN KSTC 121845Z 04006KT 10SM FEW085 29/19 A3008 880 52 2800 040/06 RMK AO2
14926KSTC STC20050712125011307/12/05 12:50:31  5-MIN KSTC 121850Z 36006KT 10SM FEW085 30/19 A3008 880 51 2800 360/06 RMK AO2 SLP188 T03000189
14926KSTC STC20050712125509607/12/05 12:55:31  5-MIN KSTC 121855Z VRB05KT 10SM FEW085 30/19 A3008 880 51 2800 VRB/05 RMK AO2
14926KSTC STC20050712130009607/12/05 13:00:31  5-MIN KSTC 121900Z 06007KT 10SM FEW085 30/19 A3008 880 51 2800 060/07 RMK AO2
14926KSTC STC20050712130509307/12/05 13:05:31  5-MIN KSTC 121905Z 01003KT 10SM CLR 29/19 A3008 880 52 2800 010/03 RMK AO2
14926KSTC STC20050712131009307/12/05 13:10:31  5-MIN KSTC 121910Z 07006KT 10SM CLR 30/19 A3008 880 51 2800 070/06 RMK AO2
14926KSTC STC20050712131509307/12/05 13:15:31  5-MIN KSTC 121915Z VRB05KT 10SM CLR 30/18 A3008 880 49 2800 VRB/05 RMK AO2
14926KSTC STC20050712132009307/12/05 13:20:31  5-MIN KSTC 121920Z VRB04KT 10SM CLR 30/19 A3008 880 51 2800 VRB/04 RMK AO2
14926KSTC STC20050712132509307/12/05 13:25:31  5-MIN KSTC 121925Z VRB03KT 10SM CLR 30/19 A3008 880 51 2800 VRB/03 RMK AO2
14926KSTC STC20050712133009307/12/05 13:30:31  5-MIN KSTC 121930Z VRB04KT 10SM CLR 30/19 A3008 880 51 2800 VRB/04 RMK AO2
14926KSTC STC20050712133509307/12/05 13:35:31  5-MIN KSTC 121935Z 34007KT 10SM CLR 31/19 A3008 880 49 2900 330/07 RMK AO2
14926KSTC STC20050712134009307/12/05 13:40:31  5-MIN KSTC 121940Z VRB04KT 10SM CLR 30/19 A3008 880 51 2800 VRB/04 RMK AO2
14926KSTC STC20050712134509307/12/05 13:45:31  5-MIN KSTC 121945Z 36007KT 10SM CLR 31/19 A3008 880 49 2900 360/07 RMK AO2
14926KSTC STC20050712135011007/12/05 13:50:31  5-MIN KSTC 121950Z VRB06KT 10SM CLR 31/19 A3007 880 49 2900 VRB/06 RMK AO2 SLP186 T03060189
14926KSTC STC20050712135509307/12/05 13:55:31  5-MIN KSTC 121955Z VRB04KT 10SM CLR 31/18 A3007 880 47 2900 VRB/04 RMK AO2
14926KSTC STC20050712140009607/12/05 14:00:31  5-MIN KSTC 122000Z VRB06KT 10SM FEW040 31/19 A3007 880 49 2900 VRB/06 RMK AO2
14926KSTC STC20050712140509607/12/05 14:05:31  5-MIN KSTC 122005Z VRB04KT 10SM FEW040 31/19 A3007 890 49 2900 VRB/04 RMK AO2
14926KSTC STC20050712141009607/12/05 14:10:31  5-MIN KSTC 122010Z 06005KT 10SM FEW040 31/18 A3007 890 47 2900 060/05 RMK AO2
14926KSTC STC20050712141509307/12/05 14:15:31  5-MIN KSTC 122015Z 01005KT 10SM CLR 30/18 A3007 890 49 2800 010/05 RMK AO2
14926KSTC STC20050712142009307/12/05 14:20:31  5-MIN KSTC 122020Z 07004KT 10SM CLR 30/18 A3007 890 49 2800 070/04 RMK AO2
14926KSTC STC20050712142509307/12/05 14:25:31  5-MIN KSTC 122025Z 36006KT 10SM CLR 31/18 A3007 890 46 3000 360/06 RMK AO2
14926KSTC STC20050712143009307/12/05 14:30:31  5-MIN KSTC 122030Z 31004KT 10SM CLR 31/18 A3007 890 47 2900 300/04 RMK AO2
14926KSTC STC20050712143509307/12/05 14:35:31  5-MIN KSTC 122035Z 00000KT 10SM CLR 30/18 A3007 890 49 2800 000/00 RMK AO2
14926KSTC STC20050712144009307/12/05 14:40:31  5-MIN KSTC 122040Z VRB05KT 10SM CLR 31/19 A3007 890 47 3000 VRB/05 RMK AO2
14926KSTC STC20050712144509607/12/05 14:45:31  5-MIN KSTC 122045Z VRB04KT 10SM FEW041 31/19 A3007 890 47 3000 VRB/04 RMK AO2
14926KSTC STC20050712145011907/12/05 14:50:31  5-MIN KSTC 122050Z VRB06KT 10SM FEW041 31/19 A3007 890 47 3000 VRB/06 RMK AO2 SLP182 T03110189 58002
14926KSTC STC20050712145509607/12/05 14:55:31  5-MIN KSTC 122055Z 34005KT 10SM FEW041 31/19 A3007 890 47 3000 340/05 RMK AO2
14926KSTC STC20050712150009607/12/05 15:00:31  5-MIN KSTC 122100Z 35007KT 10SM FEW041 31/19 A3007 890 49 2900 350/07 RMK AO2
14926KSTC STC20050712150509607/12/05 15:05:31  5-MIN KSTC 122105Z VRB03KT 10SM FEW041 31/19 A3006 890 49 2900 VRB/03 RMK AO2
14926KSTC STC20050712151009607/12/05 15:10:31  5-MIN KSTC 122110Z 08003KT 10SM FEW041 31/19 A3006 890 49 2900 080/03 RMK AO2
14926KSTC STC20050712151509307/12/05 15:15:31  5-MIN KSTC 122115Z 32006KT 10SM CLR 31/19 A3006 890 49 2900 320/06 RMK AO2
14926KSTC STC20050712152009307/12/05 15:20:31  5-MIN KSTC 122120Z 30005KT 10SM CLR 31/19 A3006 890 47 3000 300/05 RMK AO2
14926KSTC STC20050712152509307/12/05 15:25:31  5-MIN KSTC 122125Z 30006KT 10SM CLR 31/18 A3006 890 47 2900 300/06 RMK AO2
14926KSTC STC20050712153009307/12/05 15:30:31  5-MIN KSTC 122130Z VRB04KT 10SM CLR 31/19 A3006 890 47 3000 VRB/04 RMK AO2
14926KSTC STC20050712153509307/12/05 15:35:31  5-MIN KSTC 122135Z 34005KT 10SM CLR 31/18 A3006 890 46 3000 330/05 RMK AO2
14926KSTC STC20050712154009307/12/05 15:40:31  5-MIN KSTC 122140Z 34004KT 10SM CLR 31/18 A3006 890 46 3000 330/04 RMK AO2
14926KSTC STC20050712154509307/12/05 15:45:31  5-MIN KSTC 122145Z VRB05KT 10SM CLR 31/18 A3006 890 47 2900 VRB/05 RMK AO2
14926KSTC STC20050712155011007/12/05 15:50:31  5-MIN KSTC 122150Z 34003KT 10SM CLR 31/18 A3007 890 46 3000 340/03 RMK AO2 SLP181 T03110183
14926KSTC STC20050712155509307/12/05 15:55:31  5-MIN KSTC 122155Z 36007KT 10SM CLR 31/19 A3007 890 47 3000 350/07 RMK AO2
14926KSTC STC20050712160009307/12/05 16:00:31  5-MIN KSTC 122200Z 35006KT 10SM CLR 31/19 A3007 890 47 3000 350/06 RMK AO2
14926KSTC STC20050712160509307/12/05 16:05:31  5-MIN KSTC 122205Z VRB04KT 10SM CLR 31/18 A3007 890 46 3000 VRB/04 RMK AO2
14926KSTC STC20050712161009307/12/05 16:10:31  5-MIN KSTC 122210Z VRB05KT 10SM CLR 31/18 A3007 890 46 3000 VRB/05 RMK AO2
14926KSTC STC20050712161509307/12/05 16:15:31  5-MIN KSTC 122215Z 36007KT 10SM CLR 31/18 A3007 890 46 3000 360/07 RMK AO2
14926KSTC STC20050712162009307/12/05 16:20:31  5-MIN KSTC 122220Z 01005KT 10SM CLR 31/18 A3007 890 46 2900 010/05 RMK AO2
14926KSTC STC20050712162509307/12/05 16:25:31  5-MIN KSTC 122225Z 02004KT 10SM CLR 31/18 A3007 890 46 2900 010/04 RMK AO2
14926KSTC STC20050712163009307/12/05 16:30:31  5-MIN KSTC 122230Z 36005KT 10SM CLR 31/18 A3006 890 44 3000 350/05 RMK AO2
14926KSTC STC20050712163509307/12/05 16:35:31  5-MIN KSTC 122235Z 04006KT 10SM CLR 31/18 A3006 890 46 3000 040/06 RMK AO2
14926KSTC STC20050712164009307/12/05 16:40:31  5-MIN KSTC 122240Z VRB05KT 10SM CLR 31/18 A3006 890 46 3000 VRB/05 RMK AO2
14926KSTC STC20050712164509307/12/05 16:45:31  5-MIN KSTC 122245Z 02007KT 10SM CLR 31/18 A3006 890 46 3000 010/07 RMK AO2
14926KSTC STC20050712165011007/12/05 16:50:31  5-MIN KSTC 122250Z 02007KT 10SM CLR 31/18 A3006 890 47 2900 020/07 RMK AO2 SLP182 T03060183
14926KSTC STC20050712165509307/12/05 16:55:31  5-MIN KSTC 122255Z 02007KT 10SM CLR 31/18 A3006 890 46 2900 020/07 RMK AO2
14926KSTC STC20050712170009307/12/05 17:00:31  5-MIN KSTC 122300Z 01006KT 10SM CLR 31/18 A3006 890 47 2900 010/06 RMK AO2
14926KSTC STC20050712170509307/12/05 17:05:31  5-MIN KSTC 122305Z 02006KT 10SM CLR 31/18 A3006 890 47 2900 010/06 RMK AO2
14926KSTC STC20050712171010907/12/05 17:10:31  5-MIN KSTC 122310Z 03008KT 340V070 10SM CLR 30/19 A3007 890 51 2800 030/08 340V070 RMK AO2
14926KSTC STC20050712171509307/12/05 17:15:31  5-MIN KSTC 122315Z 02007KT 10SM CLR 29/19 A3006 890 54 2800 010/07 RMK AO2
14926KSTC STC20050712172009307/12/05 17:20:31  5-MIN KSTC 122320Z 01007KT 10SM CLR 29/19 A3006 890 54 2800 010/07 RMK AO2
14926KSTC STC20050712172509307/12/05 17:25:31  5-MIN KSTC 122325Z 02007KT 10SM CLR 29/19 A3006 900 56 2700 010/07 RMK AO2
14926KSTC STC20050712173009307/12/05 17:30:31  5-MIN KSTC 122330Z 01007KT 10SM CLR 29/19 A3006 900 56 2700 010/07 RMK AO2
14926KSTC STC20050712173509307/12/05 17:35:31  5-MIN KSTC 122335Z 04006KT 10SM CLR 29/19 A3006 900 54 2800 030/06 RMK AO2
14926KSTC STC20050712174009307/12/05 17:40:31  5-MIN KSTC 122340Z 04007KT 10SM CLR 29/19 A3006 900 56 2700 040/07 RMK AO2
14926KSTC STC20050712174509307/12/05 17:45:31  5-MIN KSTC 122345Z 02005KT 10SM CLR 29/19 A3006 900 56 2700 010/05 RMK AO2
14926KSTC STC20050712175012807/12/05 17:50:31  5-MIN KSTC 122350Z VRB04KT 10SM CLR 29/19 A3006 900 54 2800 VRB/04 RMK AO2 SLP181 T02940194 10317 20289 58007
14926KSTC STC20050712175509307/12/05 17:55:31  5-MIN KSTC 122355Z 02006KT 10SM CLR 29/19 A3006 900 54 2800 020/06 RMK AO2
14926KSTC STC20050712180009307/12/05 18:00:31  5-MIN KSTC 130000Z 02006KT 10SM CLR 29/20 A3006 900 56 2800 020/06 RMK AO2
14926KSTC STC20050712180509307/12/05 18:05:31  5-MIN KSTC 130005Z 01005KT 10SM CLR 29/20 A3006 900 58 2700 010/05 RMK AO2
14926KSTC STC20050712181009307/12/05 18:10:31  5-MIN KSTC 130010Z 36006KT 10SM CLR 29/19 A3006 900 54 2800 360/06 RMK AO2
14926KSTC STC20050712181509307/12/05 18:15:31  5-MIN KSTC 130015Z 36007KT 10SM CLR 29/20 A3006 900 58 2700 350/07 RMK AO2
14926KSTC STC20050712182009307/12/05 18:20:31  5-MIN KSTC 130020Z 02006KT 10SM CLR 28/20 A3006 900 60 2700 010/06 RMK AO2
14926KSTC STC20050712182509307/12/05 18:25:31  5-MIN KSTC 130025Z 02006KT 10SM CLR 28/20 A3006 900 62 2600 010/06 RMK AO2
14926KSTC STC20050712183009307/12/05 18:30:31  5-MIN KSTC 130030Z 01004KT 10SM CLR 28/20 A3006 900 60 2700 010/04 RMK AO2
14926KSTC STC20050712183509307/12/05 18:35:31  5-MIN KSTC 130035Z 02005KT 10SM CLR 28/20 A3006 890 60 2700 010/05 RMK AO2
14926KSTC STC20050712184009307/12/05 18:40:31  5-MIN KSTC 130040Z 02004KT 10SM CLR 28/20 A3007 890 60 2700 010/04 RMK AO2
14926KSTC STC20050712184509307/12/05 18:45:31  5-MIN KSTC 130045Z 01003KT 10SM CLR 28/19 A3007 890 60 2600 010/03 RMK AO2
14926KSTC STC20050712185011007/12/05 18:50:31  5-MIN KSTC 130050Z 36003KT 10SM CLR 28/20 A3007 890 60 2700 360/03 RMK AO2 SLP183 T02830200
14926KSTC STC20050712185509307/12/05 18:55:31  5-MIN KSTC 130055Z 02003KT 10SM CLR 28/20 A3007 890 62 2600 020/03 RMK AO2
14926KSTC STC20050712190009307/12/05 19:00:31  5-MIN KSTC 130100Z 03004KT 10SM CLR 27/20 A3007 890 64 2500 030/04 RMK AO2
14926KSTC STC20050712190509307/12/05 19:05:31  5-MIN KSTC 130105Z 03004KT 10SM CLR 27/19 A3007 890 62 2500 030/04 RMK AO2
14926KSTC STC20050712191009307/12/05 19:10:31  5-MIN KSTC 130110Z 02004KT 10SM CLR 27/19 A3007 890 62 2500 020/04 RMK AO2
14926KSTC STC20050712191509307/12/05 19:15:31  5-MIN KSTC 130115Z 03004KT 10SM CLR 27/19 A3007 890 62 2500 030/04 RMK AO2
14926KSTC STC20050712192009307/12/05 19:20:31  5-MIN KSTC 130120Z 03004KT 10SM CLR 27/19 A3007 890 62 2500 030/04 RMK AO2
14926KSTC STC20050712192509307/12/05 19:25:31  5-MIN KSTC 130125Z 02003KT 10SM CLR 27/19 A3007 890 64 2500 020/03 RMK AO2
14926KSTC STC20050712193009307/12/05 19:30:31  5-MIN KSTC 130130Z 00000KT 10SM CLR 27/19 A3007 890 64 2500 000/00 RMK AO2
14926KSTC STC20050712193509307/12/05 19:35:31  5-MIN KSTC 130135Z 00000KT 10SM CLR 27/19 A3007 890 64 2500 000/00 RMK AO2
14926KSTC STC20050712194009307/12/05 19:40:31  5-MIN KSTC 130140Z 34003KT 10SM CLR 26/19 A3007 880 66 2400 340/03 RMK AO2
14926KSTC STC20050712194509307/12/05 19:45:31  5-MIN KSTC 130145Z 00000KT 10SM CLR 26/19 A3007 890 68 2300 000/00 RMK AO2
14926KSTC STC20050712195011007/12/05 19:50:31  5-MIN KSTC 130150Z 00000KT 10SM CLR 26/19 A3007 880 68 2300 000/00 RMK AO2 SLP186 T02560194
14926KSTC STC20050712195509307/12/05 19:55:31  5-MIN KSTC 130155Z 00000KT 10SM CLR 26/19 A3007 880 68 2300 000/00 RMK AO2
14926KSTC STC20050712200009307/12/05 20:00:31  5-MIN KSTC 130200Z 00000KT 10SM CLR 26/19 A3008 880 68 2300 000/00 RMK AO2
14926KSTC STC20050712200509307/12/05 20:05:31  5-MIN KSTC 130205Z 00000KT 10SM CLR 25/19 A3008 880 71 2300 000/00 RMK AO2
14926KSTC STC20050712201009307/12/05 20:10:31  5-MIN KSTC 130210Z 00000KT 10SM CLR 25/19 A3008 880 71 2300 000/00 RMK AO2
14926KSTC STC20050712201509307/12/05 20:15:31  5-MIN KSTC 130215Z 00000KT 10SM CLR 25/19 A3008 880 71 2300 000/00 RMK AO2
14926KSTC STC20050712202009307/12/05 20:20:31  5-MIN KSTC 130220Z 00000KT 10SM CLR 24/19 A3008 880 73 2200 000/00 RMK AO2
14926KSTC STC20050712202509307/12/05 20:25:31  5-MIN KSTC 130225Z 34004KT 10SM CLR 24/19 A3008 880 73 2200 330/04 RMK AO2
14926KSTC STC20050712203009307/12/05 20:30:31  5-MIN KSTC 130230Z 35003KT 10SM CLR 24/19 A3008 880 73 2200 340/03 RMK AO2
14926KSTC STC20050712203509307/12/05 20:35:31  5-MIN KSTC 130235Z 00000KT 10SM CLR 24/19 A3008 880 76 2100 000/00 RMK AO2
14926KSTC STC20050712204009307/12/05 20:40:31  5-MIN KSTC 130240Z 00000KT 10SM CLR 24/19 A3008 880 76 2100 000/00 RMK AO2
14926KSTC STC20050712204509307/12/05 20:45:31  5-MIN KSTC 130245Z 36003KT 10SM CLR 24/19 A3008 870 76 2100 350/03 RMK AO2
14926KSTC STC20050712205011607/12/05 20:50:31  5-MIN KSTC 130250Z 35003KT 10SM CLR 24/19 A3009 870 76 2100 340/03 RMK AO2 SLP191 T02390194 57001
14926KSTC STC20050712205509307/12/05 20:55:31  5-MIN KSTC 130255Z 35003KT 10SM CLR 24/19 A3009 870 76 2100 340/03 RMK AO2
14926KSTC STC20050712210009307/12/05 21:00:31  5-MIN KSTC 130300Z 00000KT 10SM CLR 24/19 A3009 870 76 2100 000/00 RMK AO2
14926KSTC STC20050712210509307/12/05 21:05:31  5-MIN KSTC 130305Z 00000KT 10SM CLR 23/19 A3009 870 78 2100 000/00 RMK AO2
14926KSTC STC20050712211009307/12/05 21:10:31  5-MIN KSTC 130310Z 00000KT 10SM CLR 24/19 A3009 870 76 2100 000/00 RMK AO2
14926KSTC STC20050712211509307/12/05 21:15:31  5-MIN KSTC 130315Z 00000KT 10SM CLR 23/19 A3009 870 78 2100 000/00 RMK AO2
14926KSTC STC20050712212009307/12/05 21:20:31  5-MIN KSTC 130320Z 00000KT 10SM CLR 23/19 A3009 870 78 2100 000/00 RMK AO2
14926KSTC STC20050712212509307/12/05 21:25:31  5-MIN KSTC 130325Z 00000KT 10SM CLR 23/19 A3009 870 78 2100 000/00 RMK AO2
14926KSTC STC20050712213009307/12/05 21:30:31  5-MIN KSTC 130330Z 00000KT 10SM CLR 23/19 A3009 870 78 2100 000/00 RMK AO2
14926KSTC STC20050712213509307/12/05 21:35:31  5-MIN KSTC 130335Z 00000KT 10SM CLR 23/19 A3009 870 81 2000 000/00 RMK AO2
14926KSTC STC20050712214009307/12/05 21:40:31  5-MIN KSTC 130340Z 00000KT 10SM CLR 23/19 A3009 870 81 2000 000/00 RMK AO2
14926KSTC STC20050712214509307/12/05 21:45:31  5-MIN KSTC 130345Z 00000KT 10SM CLR 23/19 A3009 870 81 2000 000/00 RMK AO2
14926KSTC STC20050712215011807/12/05 21:50:31  5-MIN KSTC 130350Z AUTO 34003KT 10SM FEW050 23/19 A3009 870 81 2000 340/03 RMK AO2 SLP191 T02280194
14926KSTC STC20050712215510107/12/05 21:55:31  5-MIN KSTC 130355Z AUTO 34003KT 10SM FEW050 23/19 A3009 870 81 2000 340/03 RMK AO2
14926KSTC STC20050712220010107/12/05 22:00:31  5-MIN KSTC 130400Z AUTO 00000KT 10SM FEW050 23/19 A3009 870 81 2000 000/00 RMK AO2
14926KSTC STC20050712220510107/12/05 22:05:31  5-MIN KSTC 130405Z AUTO 36003KT 10SM FEW050 23/19 A3009 870 81 2000 350/03 RMK AO2
14926KSTC STC20050712221010107/12/05 22:10:31  5-MIN KSTC 130410Z AUTO 36003KT 10SM FEW050 23/19 A3009 870 81 2000 350/03 RMK AO2
14926KSTC STC20050712221510107/12/05 22:15:31  5-MIN KSTC 130415Z AUTO 36003KT 10SM FEW050 23/19 A3009 870 81 2000 360/03 RMK AO2
14926KSTC STC20050712222009807/12/05 22:20:31  5-MIN KSTC 130420Z AUTO 35003KT 10SM CLR 23/19 A3009 870 81 2000 350/03 RMK AO2
14926KSTC STC20050712222509807/12/05 22:25:31  5-MIN KSTC 130425Z AUTO 34003KT 10SM CLR 23/19 A3009 870 81 2000 340/03 RMK AO2
14926KSTC STC20050712223009807/12/05 22:30:31  5-MIN KSTC 130430Z AUTO 00000KT 10SM CLR 23/19 A3009 870 81 2000 000/00 RMK AO2
14926KSTC STC20050712223509807/12/05 22:35:31  5-MIN KSTC 130435Z AUTO 00000KT 10SM CLR 23/19 A3009 870 81 2000 000/00 RMK AO2
14926KSTC STC20050712224009807/12/05 22:40:31  5-MIN KSTC 130440Z AUTO 00000KT 10SM CLR 23/19 A3009 870 81 2000 000/00 RMK AO2
14926KSTC STC20050712224509807/12/05 22:45:31  5-MIN KSTC 130445Z AUTO 00000KT 10SM CLR 23/19 A3009 870 81 2000 000/00 RMK AO2
14926KSTC STC20050712225011507/12/05 22:50:31  5-MIN KSTC 130450Z AUTO 00000KT 10SM CLR 22/19 A3009 870 84 2000 000/00 RMK AO2 SLP191 T02220194
14926KSTC STC20050712225509807/12/05 22:55:31  5-MIN KSTC 130455Z AUTO 00000KT 10SM CLR 23/19 A3009 870 81 2000 000/00 RMK AO2
14926KSTC STC20050712230009807/12/05 23:00:31  5-MIN KSTC 130500Z AUTO 00000KT 10SM CLR 22/19 A3009 870 84 2000 000/00 RMK AO2
14926KSTC STC20050712230509807/12/05 23:05:31  5-MIN KSTC 130505Z AUTO 00000KT 10SM CLR 23/19 A3009 870 81 2000 000/00 RMK AO2
14926KSTC STC20050712231009807/12/05 23:10:31  5-MIN KSTC 130510Z AUTO 00000KT 10SM CLR 23/19 A3009 870 81 2000 000/00 RMK AO2
14926KSTC STC20050712231509807/12/05 23:15:31  5-MIN KSTC 130515Z AUTO 00000KT 10SM CLR 22/19 A3009 870 84 2000 000/00 RMK AO2
14926KSTC STC20050712232009807/12/05 23:20:31  5-MIN KSTC 130520Z AUTO 33003KT 10SM CLR 21/19 A3009 870 87 1800 330/03 RMK AO2
14926KSTC STC20050712232509807/12/05 23:25:31  5-MIN KSTC 130525Z AUTO 33003KT 10SM CLR 22/19 A3009 870 87 1900 320/03 RMK AO2
14926KSTC STC20050712233009807/12/05 23:30:31  5-MIN KSTC 130530Z AUTO 33003KT 10SM CLR 22/19 A3009 870 84 2000 330/03 RMK AO2
14926KSTC STC20050712233509807/12/05 23:35:31  5-MIN KSTC 130535Z AUTO 33003KT 10SM CLR 22/19 A3009 870 84 2000 330/03 RMK AO2
14926KSTC STC20050712234009807/12/05 23:40:31  5-MIN KSTC 130540Z AUTO 33003KT 10SM CLR 22/19 A3009 870 87 1900 330/03 RMK AO2
14926KSTC STC20050712234509807/12/05 23:45:31  5-MIN KSTC 130545Z AUTO 33003KT 10SM CLR 22/19 A3009 870 84 2000 330/03 RMK AO2
14926KSTC STC20050712235014207/12/05 23:50:31  5-MIN KSTC 130550Z AUTO 34004KT 9SM CLR 22/20 A3008 880 90 1900 340/04 RMK AO2 SLP189 T02170200 10294 20211 403170206 53008
14926KSTC STC20050712235509807/12/05 23:55:31  5-MIN KSTC 130555Z AUTO 34004KT 10SM CLR 22/19 A3008 880 87 1900 340/04 RMK AO2
14926KSTC STC20050713000009807/13/05 00:00:32  5-MIN KSTC 130600Z AUTO 34004KT 10SM CLR 22/19 A3008 880 87 1900 340/04 RMK AO2
14926KSTC STC20050713000509807/13/05 00:05:31  5-MIN KSTC 130605Z AUTO 34004KT 10SM CLR 22/19 A3008 880 87 1900 340/04 RMK AO2
14926KSTC STC20050713001009807/13/05 00:10:31  5-MIN KSTC 130610Z AUTO 34003KT 10SM CLR 22/19 A3008 870 87 1900 340/03 RMK AO2
14926KSTC STC20050713001509807/13/05 00:15:31  5-MIN KSTC 130615Z AUTO 34004KT 10SM CLR 22/19 A3009 870 87 1900 340/04 RMK AO2
14926KSTC STC20050713002009807/13/05 00:20:31  5-MIN KSTC 130620Z AUTO 34005KT 10SM CLR 22/19 A3009 870 87 1900 340/05 RMK AO2
14926KSTC STC20050713002509807/13/05 00:25:31  5-MIN KSTC 130625Z AUTO 34005KT 10SM CLR 22/19 A3008 870 84 2000 340/05 RMK AO2
14926KSTC STC20050713003009807/13/05 00:30:31  5-MIN KSTC 130630Z AUTO 35005KT 10SM CLR 22/19 A3008 880 84 2000 340/05 RMK AO2
14926KSTC STC20050713003509807/13/05 00:35:31  5-MIN KSTC 130635Z AUTO 34005KT 10SM CLR 22/19 A3008 870 84 2000 340/05 RMK AO2
14926KSTC STC20050713004009807/13/05 00:40:31  5-MIN KSTC 130640Z AUTO 34005KT 10SM CLR 22/19 A3008 880 84 2000 340/05 RMK AO2
14926KSTC STC20050713004509807/13/05 00:45:31  5-MIN KSTC 130645Z AUTO 35005KT 10SM CLR 22/19 A3008 880 84 2000 350/05 RMK AO2
14926KSTC STC20050713005011507/13/05 00:50:31  5-MIN KSTC 130650Z AUTO 35005KT 10SM CLR 22/19 A3008 880 87 1900 340/05 RMK AO2 SLP189 T02170194
14926KSTC STC20050713005509807/13/05 00:55:31  5-MIN KSTC 130655Z AUTO 35005KT 10SM CLR 22/19 A3008 880 84 2000 340/05 RMK AO2
14926KSTC STC20050713010009807/13/05 01:00:31  5-MIN KSTC 130700Z AUTO 34006KT 10SM CLR 22/19 A3008 880 84 2000 340/06 RMK AO2
14926KSTC STC20050713010509807/13/05 01:05:31  5-MIN KSTC 130705Z AUTO 35005KT 10SM CLR 22/19 A3008 880 84 2000 340/05 RMK AO2
14926KSTC STC20050713011009807/13/05 01:10:31  5-MIN KSTC 130710Z AUTO 35005KT 10SM CLR 22/19 A3008 880 84 1900 340/05 RMK AO2
14926KSTC STC20050713011509807/13/05 01:15:31  5-MIN KSTC 130715Z AUTO 35005KT 10SM CLR 22/19 A3008 880 84 1900 350/05 RMK AO2
14926KSTC STC20050713012009807/13/05 01:20:31  5-MIN KSTC 130720Z AUTO 35005KT 10SM CLR 22/19 A3008 880 84 1900 340/05 RMK AO2
14926KSTC STC20050713012509807/13/05 01:25:31  5-MIN KSTC 130725Z AUTO 35005KT 10SM CLR 22/19 A3008 880 84 1900 340/05 RMK AO2
14926KSTC STC20050713013009807/13/05 01:30:31  5-MIN KSTC 130730Z AUTO 35004KT 10SM CLR 22/19 A3008 880 84 1900 340/04 RMK AO2
14926KSTC STC20050713013509807/13/05 01:35:31  5-MIN KSTC 130735Z AUTO 35004KT 10SM CLR 22/19 A3008 880 84 1900 340/04 RMK AO2
14926KSTC STC20050713014009807/13/05 01:40:31  5-MIN KSTC 130740Z AUTO 35003KT 10SM CLR 22/19 A3008 880 84 1900 350/03 RMK AO2
14926KSTC STC20050713014509807/13/05 01:45:31  5-MIN KSTC 130745Z AUTO 34004KT 10SM CLR 21/19 A3008 880 87 1800 340/04 RMK AO2
14926KSTC STC20050713015011507/13/05 01:50:31  5-MIN KSTC 130750Z AUTO 34004KT 10SM CLR 21/19 A3008 880 87 1800 340/04 RMK AO2 SLP188 T02110189
14926KSTC STC20050713015509807/13/05 01:55:31  5-MIN KSTC 130755Z AUTO 34004KT 10SM CLR 21/19 A3008 880 87 1800 340/04 RMK AO2
14926KSTC STC20050713020009807/13/05 02:00:31  5-MIN KSTC 130800Z AUTO 35004KT 10SM CLR 21/18 A3008 880 84 1800 340/04 RMK AO2
14926KSTC STC20050713020509807/13/05 02:05:31  5-MIN KSTC 130805Z AUTO 35004KT 10SM CLR 21/18 A3008 880 84 1800 350/04 RMK AO2
14926KSTC STC20050713021009807/13/05 02:10:31  5-MIN KSTC 130810Z AUTO 36003KT 10SM CLR 21/18 A3008 880 84 1800 350/03 RMK AO2
14926KSTC STC20050713021509807/13/05 02:15:31  5-MIN KSTC 130815Z AUTO 35003KT 10SM CLR 21/18 A3008 880 84 1800 350/03 RMK AO2
14926KSTC STC20050713022009807/13/05 02:20:31  5-MIN KSTC 130820Z AUTO 35004KT 10SM CLR 21/18 A3008 880 84 1800 350/04 RMK AO2
14926KSTC STC20050713022509807/13/05 02:25:31  5-MIN KSTC 130825Z AUTO 34004KT 10SM CLR 21/18 A3008 880 87 1800 340/04 RMK AO2
14926KSTC STC20050713023009807/13/05 02:30:31  5-MIN KSTC 130830Z AUTO 35004KT 10SM CLR 21/18 A3008 870 87 1800 340/04 RMK AO2
14926KSTC STC20050713023509807/13/05 02:35:31  5-MIN KSTC 130835Z AUTO 36003KT 10SM CLR 21/18 A3009 870 87 1800 350/03 RMK AO2
14926KSTC STC20050713024009807/13/05 02:40:31  5-MIN KSTC 130840Z AUTO 00000KT 10SM CLR 21/18 A3009 870 87 1800 000/00 RMK AO2
14926KSTC STC20050713024509807/13/05 02:45:31  5-MIN KSTC 130845Z AUTO 34004KT 10SM CLR 21/18 A3009 870 84 1800 340/04 RMK AO2
14926KSTC STC20050713025012107/13/05 02:50:31  5-MIN KSTC 130850Z AUTO 35003KT 10SM CLR 21/18 A3009 870 84 1800 340/03 RMK AO2 SLP190 T02060178 58001
14926KSTC STC20050713025509807/13/05 02:55:31  5-MIN KSTC 130855Z AUTO 34004KT 10SM CLR 21/18 A3009 870 84 1800 340/04 RMK AO2
14926KSTC STC20050713030009807/13/05 03:00:31  5-MIN KSTC 130900Z AUTO 35004KT 10SM CLR 21/18 A3009 870 84 1800 340/04 RMK AO2
14926KSTC STC20050713030509807/13/05 03:05:31  5-MIN KSTC 130905Z AUTO 35004KT 10SM CLR 21/18 A3009 870 84 1800 350/04 RMK AO2
14926KSTC STC20050713031009807/13/05 03:10:31  5-MIN KSTC 130910Z AUTO 35003KT 10SM CLR 20/18 A3009 870 87 1700 350/03 RMK AO2
14926KSTC STC20050713031509807/13/05 03:15:31  5-MIN KSTC 130915Z AUTO 36003KT 10SM CLR 20/18 A3009 870 87 1700 350/03 RMK AO2
14926KSTC STC20050713032009807/13/05 03:20:31  5-MIN KSTC 130920Z AUTO 00000KT 10SM CLR 20/18 A3009 870 87 1700 000/00 RMK AO2
14926KSTC STC20050713032509807/13/05 03:25:31  5-MIN KSTC 130925Z AUTO 00000KT 10SM CLR 20/18 A3009 870 87 1700 000/00 RMK AO2
14926KSTC STC20050713033009807/13/05 03:30:31  5-MIN KSTC 130930Z AUTO 00000KT 10SM CLR 20/18 A3009 870 87 1700 000/00 RMK AO2
14926KSTC STC20050713033509807/13/05 03:35:31  5-MIN KSTC 130935Z AUTO 02003KT 10SM CLR 20/18 A3009 870 87 1700 020/03 RMK AO2
14926KSTC STC20050713034009807/13/05 03:40:31  5-MIN KSTC 130940Z AUTO 36004KT 10SM CLR 20/18 A3009 870 87 1700 350/04 RMK AO2
14926KSTC STC20050713034509807/13/05 03:45:31  5-MIN KSTC 130945Z AUTO 35004KT 10SM CLR 19/18 A3009 870 90 1600 350/04 RMK AO2
14926KSTC STC20050713035011507/13/05 03:50:31  5-MIN KSTC 130950Z AUTO 35003KT 10SM CLR 19/18 A3009 870 90 1600 340/03 RMK AO2 SLP191 T01940178
14926KSTC STC20050713035509807/13/05 03:55:31  5-MIN KSTC 130955Z AUTO 35003KT 10SM CLR 19/18 A3009 870 90 1600 350/03 RMK AO2
14926KSTC STC20050713040009807/13/05 04:00:31  5-MIN KSTC 131000Z AUTO 35003KT 10SM CLR 19/18 A3009 870 90 1600 350/03 RMK AO2
14926KSTC STC20050713040509807/13/05 04:05:31  5-MIN KSTC 131005Z AUTO 00000KT 10SM CLR 19/18 A3009 870 90 1600 000/00 RMK AO2
14926KSTC STC20050713041009807/13/05 04:10:31  5-MIN KSTC 131010Z AUTO 36003KT 10SM CLR 19/17 A3009 870 87 1600 360/03 RMK AO2
14926KSTC STC20050713041509807/13/05 04:15:31  5-MIN KSTC 131015Z AUTO 00000KT 10SM CLR 19/17 A3009 870 90 1600 000/00 RMK AO2
14926KSTC STC20050713042009807/13/05 04:20:31  5-MIN KSTC 131020Z AUTO 00000KT 10SM CLR 19/17 A3009 870 90 1600 000/00 RMK AO2
14926KSTC STC20050713042509807/13/05 04:25:31  5-MIN KSTC 131025Z AUTO 00000KT 10SM CLR 19/17 A3009 870 90 1600 000/00 RMK AO2
14926KSTC STC20050713043009807/13/05 04:30:31  5-MIN KSTC 131030Z AUTO 34003KT 10SM CLR 19/17 A3010 860 90 1600 330/03 RMK AO2
14926KSTC STC20050713043509807/13/05 04:35:31  5-MIN KSTC 131035Z AUTO 34003KT 10SM CLR 19/17 A3010 860 90 1600 330/03 RMK AO2
14926KSTC STC20050713044009807/13/05 04:40:31  5-MIN KSTC 131040Z AUTO 34004KT 10SM CLR 19/17 A3010 860 90 1600 340/04 RMK AO2
14926KSTC STC20050713044509807/13/05 04:45:31  5-MIN KSTC 131045Z AUTO 34003KT 10SM CLR 19/17 A3010 860 90 1600 340/03 RMK AO2
14926KSTC STC20050713045011507/13/05 04:50:31  5-MIN KSTC 131050Z AUTO 35003KT 10SM CLR 19/17 A3010 860 90 1600 350/03 RMK AO2 SLP194 T01890172
14926KSTC STC20050713045509807/13/05 04:55:31  5-MIN KSTC 131055Z AUTO 35003KT 10SM CLR 19/17 A3010 860 90 1600 340/03 RMK AO2
14926KSTC STC20050713050010107/13/05 05:00:31  5-MIN KSTC 131100Z AUTO 34004KT 10SM FEW050 19/17 A3010 860 90 1600 330/04 RMK AO2
14926KSTC STC20050713050510107/13/05 05:05:31  5-MIN KSTC 131105Z AUTO 34004KT 10SM SCT050 19/18 A3010 860 90 1600 340/04 RMK AO2
14926KSTC STC20050713051010107/13/05 05:10:31  5-MIN KSTC 131110Z AUTO 34004KT 10SM SCT050 19/18 A3010 860 90 1600 340/04 RMK AO2
14926KSTC STC20050713051510107/13/05 05:15:31  5-MIN KSTC 131115Z AUTO 34004KT 10SM SCT050 19/18 A3010 860 90 1600 340/04 RMK AO2
14926KSTC STC20050713052010107/13/05 05:20:31  5-MIN KSTC 131120Z AUTO 35003KT 10SM SCT050 20/18 A3010 860 87 1700 350/03 RMK AO2
14926KSTC STC20050713052510107/13/05 05:25:31  5-MIN KSTC 131125Z AUTO 35003KT 10SM BKN050 20/18 A3010 860 87 1700 350/03 RMK AO2
14926KSTC STC20050713053010107/13/05 05:30:31  5-MIN KSTC 131130Z AUTO 35003KT 10SM BKN050 20/18 A3010 860 87 1700 340/03 RMK AO2
14926KSTC STC20050713053510107/13/05 05:35:31  5-MIN KSTC 131135Z AUTO 35003KT 10SM BKN050 21/18 A3011 860 84 1700 340/03 RMK AO2
14926KSTC STC20050713054010107/13/05 05:40:31  5-MIN KSTC 131140Z AUTO 36003KT 10SM BKN050 21/18 A3011 860 87 1700 350/03 RMK AO2
14926KSTC STC20050713054510107/13/05 05:45:31  5-MIN KSTC 131145Z AUTO 36004KT 10SM BKN050 21/18 A3010 860 84 1800 360/04 RMK AO2
14926KSTC STC20050713055013607/13/05 05:50:31  5-MIN KSTC 131150Z AUTO 36006KT 10SM BKN050 21/18 A3010 860 81 1800 360/06 RMK AO2 SLP196 T02110178 10222 20189 53001
14926KSTC STC20050713055510107/13/05 05:55:31  5-MIN KSTC 131155Z AUTO 35004KT 10SM BKN050 21/18 A3010 860 81 1800 350/04 RMK AO2
14926KSTC STC20050713060009607/13/05 06:00:31  5-MIN KSTC 131200Z 35004KT 10SM BKN050 21/18 A3011 850 81 1800 350/04 RMK AO2
14926KSTC STC20050713060509607/13/05 06:05:31  5-MIN KSTC 131205Z 35005KT 10SM SCT050 21/18 A3011 850 81 1800 350/05 RMK AO2
14926KSTC STC20050713061009607/13/05 06:10:31  5-MIN KSTC 131210Z 36004KT 10SM FEW050 21/18 A3011 850 81 1800 360/04 RMK AO2
14926KSTC STC20050713061509607/13/05 06:15:31  5-MIN KSTC 131215Z 36005KT 10SM FEW050 22/18 A3011 850 78 1900 360/05 RMK AO2
14926KSTC STC20050713062009307/13/05 06:20:31  5-MIN KSTC 131220Z 36004KT 10SM CLR 22/18 A3011 850 78 1900 360/04 RMK AO2
14926KSTC STC20050713062509307/13/05 06:25:31  5-MIN KSTC 131225Z 36004KT 10SM CLR 22/18 A3011 850 75 1900 360/04 RMK AO2
14926KSTC STC20050713063009307/13/05 06:30:31  5-MIN KSTC 131230Z 35005KT 10SM CLR 22/18 A3011 850 75 1900 350/05 RMK AO2
14926KSTC STC20050713063509307/13/05 06:35:31  5-MIN KSTC 131235Z 36005KT 10SM CLR 22/18 A3011 850 75 1900 350/05 RMK AO2
14926KSTC STC20050713064009307/13/05 06:40:31  5-MIN KSTC 131240Z 36005KT 10SM CLR 22/18 A3011 850 78 1900 350/05 RMK AO2
14926KSTC STC20050713064509307/13/05 06:45:31  5-MIN KSTC 131245Z 36004KT 10SM CLR 23/18 A3011 850 76 2000 350/04 RMK AO2
14926KSTC STC20050713065011007/13/05 06:50:31  5-MIN KSTC 131250Z 36004KT 10SM CLR 23/18 A3011 850 76 2000 360/04 RMK AO2 SLP197 T02280183
14926KSTC STC20050713065509307/13/05 06:55:31  5-MIN KSTC 131255Z VRB03KT 10SM CLR 23/18 A3011 850 73 2100 VRB/03 RMK AO2
14926KSTC STC20050713070009307/13/05 07:00:31  5-MIN KSTC 131300Z 36005KT 10SM CLR 23/18 A3011 850 73 2100 360/05 RMK AO2
14926KSTC STC20050713070509307/13/05 07:05:31  5-MIN KSTC 131305Z 36006KT 10SM CLR 24/18 A3011 850 71 2100 360/06 RMK AO2
14926KSTC STC20050713071009307/13/05 07:10:31  5-MIN KSTC 131310Z 01006KT 10SM CLR 24/18 A3011 850 71 2100 010/06 RMK AO2
14926KSTC STC20050713071509307/13/05 07:15:31  5-MIN KSTC 131315Z 36007KT 10SM CLR 24/18 A3011 850 71 2100 360/07 RMK AO2
14926KSTC STC20050713072009307/13/05 07:20:31  5-MIN KSTC 131320Z 01007KT 10SM CLR 24/18 A3011 850 71 2100 010/07 RMK AO2
14926KSTC STC20050713072509307/13/05 07:25:31  5-MIN KSTC 131325Z 02006KT 10SM CLR 24/18 A3011 850 71 2100 010/06 RMK AO2
14926KSTC STC20050713073009307/13/05 07:30:31  5-MIN KSTC 131330Z VRB05KT 10SM CLR 24/18 A3011 860 68 2200 VRB/05 RMK AO2
14926KSTC STC20050713073509307/13/05 07:35:31  5-MIN KSTC 131335Z 01006KT 10SM CLR 24/18 A3011 850 68 2200 360/06 RMK AO2
14926KSTC STC20050713074009307/13/05 07:40:31  5-MIN KSTC 131340Z 01005KT 10SM CLR 24/18 A3011 850 68 2200 360/05 RMK AO2
14926KSTC STC20050713074509207/13/05 07:45:31  5-MIN KSTC 131345Z 36005KT 9SM CLR 25/18 A3011 850 66 2200 360/05 RMK AO2
14926KSTC STC20050713075010907/13/05 07:50:31  5-MIN KSTC 131350Z 36006KT 9SM CLR 26/18 A3011 850 64 2300 360/06 RMK AO2 SLP198 T02560183
14926KSTC STC20050713075509207/13/05 07:55:31  5-MIN KSTC 131355Z 01004KT 9SM CLR 26/18 A3011 850 64 2300 010/04 RMK AO2
14926KSTC STC20050713080009207/13/05 08:00:31  5-MIN KSTC 131400Z 36005KT 9SM CLR 26/18 A3011 850 62 2400 360/05 RMK AO2
14926KSTC STC20050713080509207/13/05 08:05:31  5-MIN KSTC 131405Z 36006KT 9SM CLR 26/18 A3011 850 62 2400 360/06 RMK AO2
14926KSTC STC20050713081009207/13/05 08:10:31  5-MIN KSTC 131410Z VRB03KT 9SM CLR 26/18 A3011 850 62 2400 VRB/03 RMK AO2
14926KSTC STC20050713081509207/13/05 08:15:31  5-MIN KSTC 131415Z 01005KT 9SM CLR 27/18 A3011 850 60 2400 360/05 RMK AO2
14926KSTC STC20050713082009207/13/05 08:20:31  5-MIN KSTC 131420Z 36005KT 9SM CLR 27/18 A3011 850 60 2400 360/05 RMK AO2
14926KSTC STC20050713082509207/13/05 08:25:31  5-MIN KSTC 131425Z 36006KT 9SM CLR 27/18 A3011 850 60 2400 360/06 RMK AO2
14926KSTC STC20050713083009207/13/05 08:30:31  5-MIN KSTC 131430Z 03005KT 9SM CLR 27/18 A3011 850 57 2400 030/05 RMK AO2
14926KSTC STC20050713083509207/13/05 08:35:31  5-MIN KSTC 131435Z 36006KT 9SM CLR 27/18 A3011 850 60 2400 360/06 RMK AO2
14926KSTC STC20050713084009207/13/05 08:40:31  5-MIN KSTC 131440Z 01005KT 9SM CLR 27/18 A3011 850 58 2500 010/05 RMK AO2
14926KSTC STC20050713084509207/13/05 08:45:31  5-MIN KSTC 131445Z 36005KT 9SM CLR 27/18 A3011 850 58 2500 350/05 RMK AO2
14926KSTC STC20050713085011507/13/05 08:50:31  5-MIN KSTC 131450Z 02004KT 9SM CLR 27/18 A3011 850 56 2500 010/04 RMK AO2 SLP197 T02720178 52006
14926KSTC STC20050713085509207/13/05 08:55:31  5-MIN KSTC 131455Z 01005KT 9SM CLR 28/18 A3011 850 56 2600 010/05 RMK AO2
14926KSTC STC20050713090009207/13/05 09:00:31  5-MIN KSTC 131500Z 02006KT 9SM CLR 28/18 A3011 860 56 2600 010/06 RMK AO2
14926KSTC STC20050713090509307/13/05 09:05:31  5-MIN KSTC 131505Z 36007KT 10SM CLR 28/18 A3011 860 54 2600 350/07 RMK AO2
14926KSTC STC20050713091009307/13/05 09:10:31  5-MIN KSTC 131510Z 01006KT 10SM CLR 28/18 A3011 860 54 2600 360/06 RMK AO2
14926KSTC STC20050713091509307/13/05 09:15:31  5-MIN KSTC 131515Z 36008KT 10SM CLR 28/18 A3011 860 54 2600 360/08 RMK AO2
14926KSTC STC20050713092009307/13/05 09:20:31  5-MIN KSTC 131520Z 36008KT 10SM CLR 28/17 A3011 860 52 2600 360/08 RMK AO2
14926KSTC STC20050713092509307/13/05 09:25:31  5-MIN KSTC 131525Z 36006KT 10SM CLR 28/18 A3010 860 52 2600 360/06 RMK AO2
14926KSTC STC20050713093009307/13/05 09:30:31  5-MIN KSTC 131530Z 36006KT 10SM CLR 28/17 A3010 860 50 2600 350/06 RMK AO2
14926KSTC STC20050713093509307/13/05 09:35:31  5-MIN KSTC 131535Z 34007KT 10SM CLR 29/18 A3010 860 50 2700 340/07 RMK AO2
14926KSTC STC20050713094009307/13/05 09:40:31  5-MIN KSTC 131540Z VRB05KT 10SM CLR 28/18 A3010 860 52 2600 VRB/05 RMK AO2
14926KSTC STC20050713094509307/13/05 09:45:31  5-MIN KSTC 131545Z 35008KT 10SM CLR 29/18 A3010 860 50 2700 350/08 RMK AO2
14926KSTC STC20050713095011007/13/05 09:50:31  5-MIN KSTC 131550Z 01007KT 10SM CLR 29/17 A3010 860 48 2700 010/07 RMK AO2 SLP194 T02890172
14926KSTC STC20050713095509307/13/05 09:55:31  5-MIN KSTC 131555Z 03008KT 10SM CLR 29/17 A3010 860 48 2700 020/08 RMK AO2
14926KSTC STC20050713100010907/13/05 10:00:31  5-MIN KSTC 131600Z 36008KT 320V030 10SM CLR 29/17 A3010 860 47 2700 350/08 320V030 RMK AO2
14926KSTC STC20050713100509307/13/05 10:05:31  5-MIN KSTC 131605Z 02008KT 10SM CLR 29/17 A3010 860 45 2800 020/08 RMK AO2
14926KSTC STC20050713101009307/13/05 10:10:31  5-MIN KSTC 131610Z 01007KT 10SM CLR 29/17 A3010 860 47 2700 010/07 RMK AO2
14926KSTC STC20050713101510907/13/05 10:15:31  5-MIN KSTC 131615Z 01007KT 340V040 10SM CLR 29/17 A3010 860 45 2800 360/07 340V040 RMK AO2
14926KSTC STC20050713102009907/13/05 10:20:31  5-MIN KSTC 131620Z 02008G14KT 10SM CLR 29/17 A3010 860 47 2700 010/08G14 RMK AO2
14926KSTC STC20050713102509307/13/05 10:25:31  5-MIN KSTC 131625Z VRB06KT 10SM CLR 29/17 A3010 860 45 2800 VRB/06 RMK AO2
14926KSTC STC20050713103009307/13/05 10:30:31  5-MIN KSTC 131630Z 01009KT 10SM CLR 29/17 A3010 860 47 2800 360/09 RMK AO2
14926KSTC STC20050713103509307/13/05 10:35:31  5-MIN KSTC 131635Z 01008KT 10SM CLR 29/17 A3010 860 45 2800 010/08 RMK AO2
14926KSTC STC20050713104010907/13/05 10:40:31  5-MIN KSTC 131640Z 01007KT 350V060 10SM CLR 29/17 A3010 860 45 2800 010/07 350V060 RMK AO2
14926KSTC STC20050713104509307/13/05 10:45:31  5-MIN KSTC 131645Z 01009KT 10SM CLR 29/16 A3010 860 44 2800 010/09 RMK AO2
14926KSTC STC20050713105011007/13/05 10:50:31  5-MIN KSTC 131650Z 36008KT 10SM CLR 29/17 A3010 860 47 2700 360/08 RMK AO2 SLP193 T02890167
14926KSTC STC20050713105509307/13/05 10:55:31  5-MIN KSTC 131655Z 35008KT 10SM CLR 29/17 A3010 860 45 2800 350/08 RMK AO2
14926KSTC STC20050713110010907/13/05 11:00:31  5-MIN KSTC 131700Z 36009KT 340V060 10SM CLR 29/17 A3010 860 45 2800 360/09 340V060 RMK AO2
14926KSTC STC20050713110510907/13/05 11:05:31  5-MIN KSTC 131705Z 02007KT 350V060 10SM CLR 30/17 A3010 870 44 2800 020/07 350V060 RMK AO2
14926KSTC STC20050713111009307/13/05 11:10:31  5-MIN KSTC 131710Z 04006KT 10SM CLR 30/17 A3009 870 44 2800 030/06 RMK AO2
14926KSTC STC20050713111509307/13/05 11:15:31  5-MIN KSTC 131715Z 02009KT 10SM CLR 30/17 A3009 870 44 2800 020/09 RMK AO2
14926KSTC STC20050713112009307/13/05 11:20:31  5-MIN KSTC 131720Z 04007KT 10SM CLR 29/17 A3009 870 45 2800 030/07 RMK AO2
14926KSTC STC20050713112510907/13/05 11:25:31  5-MIN KSTC 131725Z 36009KT 330V030 10SM CLR 30/16 A3009 870 42 2800 360/09 330V030 RMK AO2
14926KSTC STC20050713113010907/13/05 11:30:31  5-MIN KSTC 131730Z 04007KT 360V060 10SM CLR 30/17 A3009 870 44 2800 040/07 360V060 RMK AO2
14926KSTC STC20050713113509307/13/05 11:35:31  5-MIN KSTC 131735Z 01007KT 10SM CLR 31/17 A3009 870 42 2900 360/07 RMK AO2
14926KSTC STC20050713114009307/13/05 11:40:31  5-MIN KSTC 131740Z 03006KT 10SM CLR 30/17 A3009 870 44 2800 020/06 RMK AO2
14926KSTC STC20050713114509307/13/05 11:45:31  5-MIN KSTC 131745Z 03008KT 10SM CLR 30/16 A3009 870 42 2800 020/08 RMK AO2
14926KSTC STC20050713115014407/13/05 11:50:31  5-MIN KSTC 131750Z 02007KT 340V040 10SM CLR 30/16 A3009 870 42 2800 020/07 340V040 RMK AO2 SLP190 T03000161 10306 20211 50001
14926KSTC STC20050713115509307/13/05 11:55:31  5-MIN KSTC 131755Z 04008KT 10SM CLR 31/17 A3008 880 42 2900 040/08 RMK AO2
14926KSTC STC20050713120009307/13/05 12:00:31  5-MIN KSTC 131800Z 03008KT 10SM CLR 30/16 A3008 880 42 2800 030/08 RMK AO2
14926KSTC STC20050713120509307/13/05 12:05:31  5-MIN KSTC 131805Z VRB06KT 10SM CLR 31/16 A3008 880 41 2900 VRB/06 RMK AO2
14926KSTC STC20050713121010907/13/05 12:10:31  5-MIN KSTC 131810Z 01007KT 340V050 10SM CLR 31/16 A3008 880 40 3000 010/07 340V050 RMK AO2
14926KSTC STC20050713121509307/13/05 12:15:31  5-MIN KSTC 131815Z 05009KT 10SM CLR 31/17 A3008 880 42 2900 050/09 RMK AO2
14926KSTC STC20050713122009307/13/05 12:20:31  5-MIN KSTC 131820Z 06006KT 10SM CLR 30/17 A3008 880 44 2800 050/06 RMK AO2
14926KSTC STC20050713122509307/13/05 12:25:31  5-MIN KSTC 131825Z VRB05KT 10SM CLR 30/16 A3008 880 42 2800 VRB/05 RMK AO2
14926KSTC STC20050713123009307/13/05 12:30:31  5-MIN KSTC 131830Z VRB05KT 10SM CLR 31/16 A3008 880 41 2900 VRB/05 RMK AO2
14926KSTC STC20050713123509307/13/05 12:35:31  5-MIN KSTC 131835Z 04009KT 10SM CLR 31/17 A3008 880 42 2900 040/09 RMK AO2
14926KSTC STC20050713124009307/13/05 12:40:31  5-MIN KSTC 131840Z 06005KT 10SM CLR 31/17 A3008 880 42 2900 060/05 RMK AO2
14926KSTC STC20050713124509307/13/05 12:45:31  5-MIN KSTC 131845Z 01008KT 10SM CLR 31/16 A3007 880 40 3000 010/08 RMK AO2
14926KSTC STC20050713125011007/13/05 12:50:31  5-MIN KSTC 131850Z VRB06KT 10SM CLR 31/16 A3007 880 41 2900 VRB/06 RMK AO2 SLP185 T03060161
14926KSTC STC20050713125509307/13/05 12:55:31  5-MIN KSTC 131855Z 04009KT 10SM CLR 31/17 A3007 890 41 3000 040/09 RMK AO2
14926KSTC STC20050713130009307/13/05 13:00:31  5-MIN KSTC 131900Z 06007KT 10SM CLR 31/17 A3007 890 41 3000 060/07 RMK AO2
14926KSTC STC20050713130509307/13/05 13:05:31  5-MIN KSTC 131905Z VRB05KT 10SM CLR 32/17 A3007 890 40 3000 VRB/05 RMK AO2
14926KSTC STC20050713131009307/13/05 13:10:31  5-MIN KSTC 131910Z 02006KT 10SM CLR 31/17 A3007 890 41 3000 020/06 RMK AO2
14926KSTC STC20050713131509307/13/05 13:15:31  5-MIN KSTC 131915Z VRB04KT 10SM CLR 31/16 A3007 890 40 3000 VRB/04 RMK AO2
14926KSTC STC20050713132009607/13/05 13:20:31  5-MIN KSTC 131920Z 05006KT 10SM FEW050 31/17 A3007 890 42 3000 050/06 RMK AO2
14926KSTC STC20050713132509607/13/05 13:25:31  5-MIN KSTC 131925Z 06006KT 10SM FEW050 31/17 A3007 890 42 2900 060/06 RMK AO2
14926KSTC STC20050713133009607/13/05 13:30:31  5-MIN KSTC 131930Z VRB05KT 10SM FEW050 31/17 A3007 890 42 3000 VRB/05 RMK AO2
14926KSTC STC20050713133509607/13/05 13:35:31  5-MIN KSTC 131935Z 02006KT 10SM FEW050 31/17 A3006 890 42 3000 020/06 RMK AO2
14926KSTC STC20050713134009607/13/05 13:40:31  5-MIN KSTC 131940Z 02007KT 10SM FEW050 31/17 A3006 890 44 2900 020/07 RMK AO2
14926KSTC STC20050713134509607/13/05 13:45:31  5-MIN KSTC 131945Z 03008KT 10SM SCT050 31/17 A3006 890 42 3000 030/08 RMK AO2
14926KSTC STC20050713135011307/13/05 13:50:31  5-MIN KSTC 131950Z 05003KT 10SM FEW050 31/17 A3006 890 41 3000 050/03 RMK AO2 SLP182 T03110167
14926KSTC STC20050713135509607/13/05 13:55:31  5-MIN KSTC 131955Z VRB06KT 10SM SCT050 32/17 A3006 890 41 3000 VRB/06 RMK AO2
14926KSTC STC20050713140009607/13/05 14:00:31  5-MIN KSTC 132000Z 04007KT 10SM SCT050 31/17 A3006 890 42 3000 040/07 RMK AO2
14926KSTC STC20050713140509607/13/05 14:05:31  5-MIN KSTC 132005Z VRB04KT 10SM SCT050 31/17 A3006 890 44 2900 VRB/04 RMK AO2
14926KSTC STC20050713141009607/13/05 14:10:31  5-MIN KSTC 132010Z 06006KT 10SM FEW050 31/17 A3006 900 42 3000 060/06 RMK AO2
14926KSTC STC20050713141509607/13/05 14:15:31  5-MIN KSTC 132015Z 08006KT 10SM FEW050 31/17 A3006 900 42 3000 070/06 RMK AO2
14926KSTC STC20050713142009607/13/05 14:20:31  5-MIN KSTC 132020Z VRB05KT 10SM FEW050 31/17 A3006 900 44 2900 VRB/05 RMK AO2
14926KSTC STC20050713142509607/13/05 14:25:31  5-MIN KSTC 132025Z VRB04KT 10SM FEW055 31/17 A3006 900 42 3000 VRB/04 RMK AO2
14926KSTC STC20050713143009607/13/05 14:30:31  5-MIN KSTC 132030Z VRB04KT 10SM SCT050 31/17 A3006 900 42 3000 VRB/04 RMK AO2
14926KSTC STC20050713143509607/13/05 14:35:31  5-MIN KSTC 132035Z 06008KT 10SM SCT050 31/18 A3005 900 44 3000 060/08 RMK AO2
14926KSTC STC20050714021509707/14/05 02:15:31  5-MIN KSTC 140815Z AUTO 00000KT 8SM CLR 18/16 A3002 930 84 1600 000/00 RMK AO2
14926KSTC STC20050714022009707/14/05 02:20:31  5-MIN KSTC 140820Z AUTO 00000KT 8SM CLR 18/16 A3002 930 84 1600 000/00 RMK AO2
14926KSTC STC20050714022509707/14/05 02:25:31  5-MIN KSTC 140825Z AUTO 00000KT 8SM CLR 18/16 A3002 930 84 1600 000/00 RMK AO2
14926KSTC STC20050714023009707/14/05 02:30:31  5-MIN KSTC 140830Z AUTO 00000KT 8SM CLR 17/16 A3002 930 90 1400 000/00 RMK AO2
14926KSTC STC20050714023509707/14/05 02:35:31  5-MIN KSTC 140835Z AUTO 00000KT 7SM CLR 17/15 A3002 930 90 1400 000/00 RMK AO2
14926KSTC STC20050714024009707/14/05 02:40:31  5-MIN KSTC 140840Z AUTO 00000KT 7SM CLR 17/15 A3002 930 90 1400 000/00 RMK AO2
14926KSTC STC20050714024509707/14/05 02:45:31  5-MIN KSTC 140845Z AUTO 05003KT 7SM CLR 17/16 A3002 930 90 1400 050/03 RMK AO2
14926KSTC STC20050714025012007/14/05 02:50:31  5-MIN KSTC 140850Z AUTO 07003KT 7SM CLR 17/16 A3002 930 90 1400 060/03 RMK AO2 SLP169 T01720156 57000
14926KSTC STC20050714025509707/14/05 02:55:31  5-MIN KSTC 140855Z AUTO 07004KT 8SM CLR 17/16 A3003 930 90 1400 060/04 RMK AO2
14926KSTC STC20050714030009707/14/05 03:00:31  5-MIN KSTC 140900Z AUTO 07004KT 8SM CLR 17/15 A3003 930 87 1400 070/04 RMK AO2
14926KSTC STC20050714030509707/14/05 03:05:31  5-MIN KSTC 140905Z AUTO 07005KT 8SM CLR 17/15 A3002 930 87 1400 060/05 RMK AO2
14926KSTC STC20050714031009707/14/05 03:10:31  5-MIN KSTC 140910Z AUTO 07004KT 8SM CLR 18/15 A3002 930 83 1500 060/04 RMK AO2
14926KSTC STC20050714031509707/14/05 03:15:31  5-MIN KSTC 140915Z AUTO 07004KT 9SM CLR 18/15 A3002 930 83 1500 070/04 RMK AO2
14926KSTC STC20050714032009707/14/05 03:20:31  5-MIN KSTC 140920Z AUTO 07005KT 9SM CLR 18/15 A3002 930 83 1500 060/05 RMK AO2
14926KSTC STC20050714032509707/14/05 03:25:31  5-MIN KSTC 140925Z AUTO 07004KT 9SM CLR 18/15 A3002 930 83 1500 060/04 RMK AO2
14926KSTC STC20050714033009707/14/05 03:30:31  5-MIN KSTC 140930Z AUTO 06004KT 9SM CLR 18/15 A3002 930 83 1500 060/04 RMK AO2
14926KSTC STC20050714033509707/14/05 03:35:31  5-MIN KSTC 140935Z AUTO 06003KT 9SM CLR 18/15 A3003 930 83 1500 060/03 RMK AO2
14926KSTC STC20050714034009707/14/05 03:40:31  5-MIN KSTC 140940Z AUTO 07003KT 9SM CLR 18/15 A3003 930 83 1500 060/03 RMK AO2
14926KSTC STC20050714034509707/14/05 03:45:31  5-MIN KSTC 140945Z AUTO 00000KT 9SM CLR 18/15 A3003 930 83 1500 000/00 RMK AO2
14926KSTC STC20050714035011407/14/05 03:50:31  5-MIN KSTC 140950Z AUTO 07003KT 9SM CLR 18/15 A3003 930 83 1500 060/03 RMK AO2 SLP169 T01780150
14926KSTC STC20050714035509707/14/05 03:55:31  5-MIN KSTC 140955Z AUTO 07003KT 8SM CLR 18/15 A3002 930 83 1500 070/03 RMK AO2
14926KSTC STC20050714040009707/14/05 04:00:31  5-MIN KSTC 141000Z AUTO 08003KT 8SM CLR 17/15 A3002 930 87 1400 080/03 RMK AO2
14926KSTC STC20050714040509707/14/05 04:05:31  5-MIN KSTC 141005Z AUTO 00000KT 8SM CLR 17/14 A3003 930 83 1400 000/00 RMK AO2
14926KSTC STC20050714041009707/14/05 04:10:31  5-MIN KSTC 141010Z AUTO 00000KT 8SM CLR 17/14 A3003 930 83 1400 000/00 RMK AO2
14926KSTC STC20050714041509707/14/05 04:15:31  5-MIN KSTC 141015Z AUTO 00000KT 8SM CLR 17/14 A3003 930 83 1400 000/00 RMK AO2
14926KSTC STC20050714042009707/14/05 04:20:31  5-MIN KSTC 141020Z AUTO 00000KT 8SM CLR 17/14 A3003 930 86 1400 000/00 RMK AO2
14926KSTC STC20050714042509707/14/05 04:25:31  5-MIN KSTC 141025Z AUTO 08003KT 8SM CLR 16/14 A3003 930 90 1300 070/03 RMK AO2
14926KSTC STC20050714043009707/14/05 04:30:31  5-MIN KSTC 141030Z AUTO 08003KT 8SM CLR 17/14 A3002 930 86 1400 070/03 RMK AO2
14926KSTC STC20050714043509707/14/05 04:35:31  5-MIN KSTC 141035Z AUTO 08004KT 8SM CLR 17/15 A3003 930 87 1400 080/04 RMK AO2
14926KSTC STC20050714044009707/14/05 04:40:31  5-MIN KSTC 141040Z AUTO 08005KT 7SM CLR 18/15 A3003 930 83 1500 080/05 RMK AO2
14926KSTC STC20050714044509707/14/05 04:45:31  5-MIN KSTC 141045Z AUTO 08005KT 7SM CLR 18/15 A3003 930 83 1500 080/05 RMK AO2
14926KSTC STC20050714045011407/14/05 04:50:31  5-MIN KSTC 141050Z AUTO 08005KT 7SM CLR 18/15 A3003 920 83 1500 080/05 RMK AO2 SLP172 T01780150
14926KSTC STC20050714045509707/14/05 04:55:31  5-MIN KSTC 141055Z AUTO 07004KT 7SM CLR 18/16 A3003 920 87 1500 060/04 RMK AO2
14926KSTC STC20050714050009707/14/05 05:00:31  5-MIN KSTC 141100Z AUTO 07004KT 7SM CLR 18/15 A3003 920 83 1500 070/04 RMK AO2
14926KSTC STC20050714050509707/14/05 05:05:31  5-MIN KSTC 141105Z AUTO 07005KT 7SM CLR 18/16 A3003 920 87 1500 070/05 RMK AO2
14926KSTC STC20050714051009707/14/05 05:10:31  5-MIN KSTC 141110Z AUTO 08006KT 7SM CLR 18/16 A3003 920 84 1600 070/06 RMK AO2
14926KSTC STC20050714051509707/14/05 05:15:31  5-MIN KSTC 141115Z AUTO 07005KT 7SM CLR 18/16 A3003 920 84 1600 070/05 RMK AO2
14926KSTC STC20050714052009707/14/05 05:20:31  5-MIN KSTC 141120Z AUTO 07005KT 7SM CLR 18/16 A3003 920 84 1600 060/05 RMK AO2
14926KSTC STC20050714052509707/14/05 05:25:31  5-MIN KSTC 141125Z AUTO 06005KT 7SM CLR 18/16 A3003 920 84 1600 060/05 RMK AO2
14926KSTC STC20050714053009707/14/05 05:30:31  5-MIN KSTC 141130Z AUTO 07005KT 7SM CLR 18/16 A3003 920 84 1600 060/05 RMK AO2
14926KSTC STC20050714053509707/14/05 05:35:31  5-MIN KSTC 141135Z AUTO 07005KT 7SM CLR 18/16 A3003 920 84 1600 070/05 RMK AO2
14926KSTC STC20050714054009707/14/05 05:40:31  5-MIN KSTC 141140Z AUTO 07005KT 7SM CLR 19/16 A3004 920 81 1600 070/05 RMK AO2
14926KSTC STC20050714054509707/14/05 05:45:31  5-MIN KSTC 141145Z AUTO 06004KT 7SM CLR 19/16 A3004 910 84 1600 060/04 RMK AO2
14926KSTC STC20050714055013207/14/05 05:50:31  5-MIN KSTC 141150Z AUTO 06005KT 7SM CLR 19/16 A3004 910 84 1600 050/05 RMK AO2 SLP175 T01890161 10211 20161 55001
14926KSTC STC20050714055509707/14/05 05:55:31  5-MIN KSTC 141155Z AUTO 06005KT 7SM CLR 19/16 A3005 910 84 1600 050/05 RMK AO2
14926KSTC STC20050714060009707/14/05 06:00:31  5-MIN KSTC 141200Z AUTO 06004KT 7SM CLR 19/16 A3004 910 81 1700 050/04 RMK AO2
14926KSTC STC20050714060509707/14/05 06:05:31  5-MIN KSTC 141205Z AUTO 06005KT 7SM CLR 19/16 A3004 910 81 1700 060/05 RMK AO2
14926KSTC STC20050714061009707/14/05 06:10:31  5-MIN KSTC 141210Z AUTO 07006KT 7SM CLR 19/16 A3004 910 81 1700 060/06 RMK AO2
14926KSTC STC20050714061509707/14/05 06:15:31  5-MIN KSTC 141215Z AUTO 07004KT 7SM CLR 19/16 A3005 910 81 1700 070/04 RMK AO2
14926KSTC STC20050714062009707/14/05 06:20:31  5-MIN KSTC 141220Z AUTO 07005KT 7SM CLR 20/17 A3005 910 81 1700 070/05 RMK AO2
14926KSTC STC20050714062509707/14/05 06:25:31  5-MIN KSTC 141225Z AUTO 07004KT 8SM CLR 20/17 A3005 910 81 1700 060/04 RMK AO2
14926KSTC STC20050714063009707/14/05 06:30:31  5-MIN KSTC 141230Z AUTO 07004KT 8SM CLR 21/17 A3005 910 78 1800 070/04 RMK AO2
14926KSTC STC20050714063509707/14/05 06:35:31  5-MIN KSTC 141235Z AUTO 07004KT 8SM CLR 21/17 A3005 910 78 1800 070/04 RMK AO2
14926KSTC STC20050714064009707/14/05 06:40:31  5-MIN KSTC 141240Z AUTO 08008KT 8SM CLR 21/17 A3005 910 78 1800 080/08 RMK AO2
14926KSTC STC20050714064509707/14/05 06:45:31  5-MIN KSTC 141245Z AUTO 08007KT 8SM CLR 21/17 A3004 910 78 1900 080/07 RMK AO2
14926KSTC STC20050714065011407/14/05 06:50:31  5-MIN KSTC 141250Z AUTO 08007KT 8SM CLR 21/17 A3004 910 78 1900 080/07 RMK AO2 SLP175 T02110172
14926KSTC STC20050714065509707/14/05 06:55:31  5-MIN KSTC 141255Z AUTO 08006KT 8SM CLR 21/17 A3004 910 78 1900 080/06 RMK AO2
14926KSTC STC20050714070009707/14/05 07:00:31  5-MIN KSTC 141300Z AUTO 08006KT 8SM CLR 21/17 A3004 910 78 1900 080/06 RMK AO2
14926KSTC STC20050714070509707/14/05 07:05:31  5-MIN KSTC 141305Z AUTO 08004KT 8SM CLR 22/17 A3004 920 75 1900 080/04 RMK AO2
14926KSTC STC20050714071009707/14/05 07:10:31  5-MIN KSTC 141310Z AUTO 08005KT 8SM CLR 22/18 A3004 920 78 1900 080/05 RMK AO2
14926KSTC STC20050714071509707/14/05 07:15:31  5-MIN KSTC 141315Z AUTO 09006KT 8SM CLR 22/18 A3004 920 75 2000 090/06 RMK AO2
14926KSTC STC20050714072009707/14/05 07:20:31  5-MIN KSTC 141320Z AUTO VRB03KT 9SM CLR 22/18 A3005 910 75 2000 VRB/03 RMK AO2
14926KSTC STC20050714072509707/14/05 07:25:31  5-MIN KSTC 141325Z AUTO VRB03KT 9SM CLR 23/18 A3005 900 73 2100 VRB/03 RMK AO2
14926KSTC STC20050714073009707/14/05 07:30:31  5-MIN KSTC 141330Z AUTO 06005KT 9SM CLR 23/18 A3005 900 70 2100 050/05 RMK AO2
14926KSTC STC20050714073509707/14/05 07:35:31  5-MIN KSTC 141335Z AUTO 05004KT 9SM CLR 23/18 A3006 900 70 2100 050/04 RMK AO2
14926KSTC STC20050714074009707/14/05 07:40:31  5-MIN KSTC 141340Z AUTO 08004KT 9SM CLR 23/18 A3006 900 70 2100 080/04 RMK AO2
14926KSTC STC20050714074509707/14/05 07:45:31  5-MIN KSTC 141345Z AUTO 09004KT 9SM CLR 23/18 A3005 910 70 2100 080/04 RMK AO2
14926KSTC STC20050714075011507/14/05 07:50:31  5-MIN KSTC 141350Z AUTO VRB06KT 10SM CLR 23/18 A3005 910 70 2100 VRB/06 RMK AO2 SLP177 T02330178
14926KSTC STC20050714075509807/14/05 07:55:31  5-MIN KSTC 141355Z AUTO 08005KT 10SM CLR 23/18 A3005 910 70 2100 080/05 RMK AO2
14926KSTC STC20050714080009807/14/05 08:00:31  5-MIN KSTC 141400Z AUTO 10007KT 10SM CLR 24/18 A3004 910 71 2200 090/07 RMK AO2
14926KSTC STC20050714080509807/14/05 08:05:31  5-MIN KSTC 141405Z AUTO 11008KT 10SM CLR 24/18 A3004 920 71 2200 110/08 RMK AO2
14926KSTC STC20050714081009707/14/05 08:10:31  5-MIN KSTC 141410Z AUTO 10006KT 9SM CLR 23/18 A3004 920 73 2100 090/06 RMK AO2
14926KSTC STC20050714081509707/14/05 08:15:31  5-MIN KSTC 141415Z AUTO VRB05KT 9SM CLR 24/18 A3004 920 71 2200 VRB/05 RMK AO2
14926KSTC STC20050714082009707/14/05 08:20:31  5-MIN KSTC 141420Z AUTO 09007KT 9SM CLR 24/19 A3004 920 71 2300 090/07 RMK AO2
14926KSTC STC20050714082509807/14/05 08:25:31  5-MIN KSTC 141425Z AUTO 11005KT 10SM CLR 24/19 A3004 920 71 2300 100/05 RMK AO2
14926KSTC STC20050714083009707/14/05 08:30:31  5-MIN KSTC 141430Z AUTO 09005KT 9SM CLR 24/19 A3004 920 71 2300 080/05 RMK AO2
14926KSTC STC20050714083509807/14/05 08:35:31  5-MIN KSTC 141435Z AUTO 08003KT 10SM CLR 25/19 A3004 910 68 2300 070/03 RMK AO2
14926KSTC STC20050714084009807/14/05 08:40:31  5-MIN KSTC 141440Z AUTO 12004KT 10SM CLR 25/19 A3004 920 68 2300 120/04 RMK AO2
14926KSTC STC20050714084509807/14/05 08:45:31  5-MIN KSTC 141445Z AUTO 08004KT 10SM CLR 26/19 A3004 910 66 2400 080/04 RMK AO2
14926KSTC STC20050714085012107/14/05 08:50:31  5-MIN KSTC 141450Z AUTO 11005KT 10SM CLR 26/19 A3004 910 66 2400 110/05 RMK AO2 SLP175 T02560189 53006
14926KSTC STC20050714085509807/14/05 08:55:31  5-MIN KSTC 141455Z AUTO 11005KT 10SM CLR 26/19 A3004 920 66 2400 100/05 RMK AO2
14926KSTC STC20050714090009807/14/05 09:00:31  5-MIN KSTC 141500Z AUTO VRB04KT 10SM CLR 26/19 A3004 920 66 2400 VRB/04 RMK AO2
14926KSTC STC20050714090509807/14/05 09:05:31  5-MIN KSTC 141505Z AUTO 05005KT 10SM CLR 27/19 A3004 920 64 2500 040/05 RMK AO2
14926KSTC STC20050714091009807/14/05 09:10:31  5-MIN KSTC 141510Z AUTO 10004KT 10SM CLR 26/19 A3004 910 66 2400 100/04 RMK AO2
14926KSTC STC20050714091509807/14/05 09:15:31  5-MIN KSTC 141515Z AUTO 07004KT 10SM CLR 27/19 A3004 910 64 2500 070/04 RMK AO2
14926KSTC STC20050714092009807/14/05 09:20:31  5-MIN KSTC 141520Z AUTO VRB03KT 10SM CLR 27/19 A3005 910 62 2600 VRB/03 RMK AO2
14926KSTC STC20050714092509807/14/05 09:25:31  5-MIN KSTC 141525Z AUTO 09003KT 10SM CLR 27/19 A3004 910 62 2600 090/03 RMK AO2
14926KSTC STC20050714093009807/14/05 09:30:31  5-MIN KSTC 141530Z AUTO VRB04KT 10SM CLR 28/19 A3004 910 60 2600 VRB/04 RMK AO2
14926KSTC STC20050714093509807/14/05 09:35:31  5-MIN KSTC 141535Z AUTO VRB03KT 10SM CLR 28/19 A3004 920 60 2600 VRB/03 RMK AO2
14926KSTC STC20050714094009807/14/05 09:40:31  5-MIN KSTC 141540Z AUTO 10005KT 10SM CLR 28/19 A3004 920 60 2600 100/05 RMK AO2
14926KSTC STC20050714094509807/14/05 09:45:31  5-MIN KSTC 141545Z AUTO 10006KT 10SM CLR 28/19 A3004 920 60 2600 090/06 RMK AO2
14926KSTC STC20050714095011507/14/05 09:50:31  5-MIN KSTC 141550Z AUTO 08005KT 10SM CLR 27/19 A3004 920 62 2600 080/05 RMK AO2 SLP172 T02720194
14926KSTC STC20050714095509807/14/05 09:55:31  5-MIN KSTC 141555Z AUTO 11007KT 10SM CLR 28/19 A3003 930 58 2600 110/07 RMK AO2
14926KSTC STC20050714100009807/14/05 10:00:31  5-MIN KSTC 141600Z AUTO 13007KT 10SM CLR 28/19 A3003 930 60 2600 130/07 RMK AO2
14926KSTC STC20050714100509807/14/05 10:05:31  5-MIN KSTC 141605Z AUTO 12006KT 10SM CLR 28/20 A3003 930 60 2700 110/06 RMK AO2
14926KSTC STC20050714101009807/14/05 10:10:31  5-MIN KSTC 141610Z AUTO 13006KT 10SM CLR 28/19 A3003 920 58 2700 130/06 RMK AO2
14926KSTC STC20050714101509807/14/05 10:15:31  5-MIN KSTC 141615Z AUTO 12005KT 10SM CLR 28/19 A3003 920 60 2600 110/05 RMK AO2
14926KSTC STC20050714102009807/14/05 10:20:31  5-MIN KSTC 141620Z AUTO VRB04KT 10SM CLR 29/19 A3003 930 56 2800 VRB/04 RMK AO2
14926KSTC STC20050714102509807/14/05 10:25:31  5-MIN KSTC 141625Z AUTO 06006KT 10SM CLR 29/19 A3003 920 56 2800 060/06 RMK AO2
14926KSTC STC20050714103009807/14/05 10:30:31  5-MIN KSTC 141630Z AUTO VRB04KT 10SM CLR 29/19 A3003 920 54 2800 VRB/04 RMK AO2
14926KSTC STC20050714103509807/14/05 10:35:31  5-MIN KSTC 141635Z AUTO VRB04KT 10SM CLR 29/19 A3003 920 56 2800 VRB/04 RMK AO2
14926KSTC STC20050714104009807/14/05 10:40:31  5-MIN KSTC 141640Z AUTO 09005KT 10SM CLR 29/19 A3003 920 52 2800 090/05 RMK AO2
14926KSTC STC20050714104509807/14/05 10:45:31  5-MIN KSTC 141645Z AUTO VRB04KT 10SM CLR 29/18 A3003 920 52 2800 VRB/04 RMK AO2
14926KSTC STC20050714105011507/14/05 10:50:31  5-MIN KSTC 141650Z AUTO 11006KT 10SM CLR 29/19 A3003 930 52 2800 110/06 RMK AO2 SLP170 T02940189
14926KSTC STC20050714105509807/14/05 10:55:31  5-MIN KSTC 141655Z AUTO 13005KT 10SM CLR 29/18 A3003 930 50 2800 120/05 RMK AO2
14926KSTC STC20050714110009807/14/05 11:00:31  5-MIN KSTC 141700Z AUTO VRB03KT 10SM CLR 29/18 A3002 930 50 2800 VRB/03 RMK AO2
14926KSTC STC20050714110509807/14/05 11:05:31  5-MIN KSTC 141705Z AUTO VRB05KT 10SM CLR 30/18 A3002 930 49 2900 VRB/05 RMK AO2
14926KSTC STC20050714111009807/14/05 11:10:31  5-MIN KSTC 141710Z AUTO 05005KT 10SM CLR 29/18 A3002 940 50 2800 050/05 RMK AO2
14926KSTC STC20050714111509807/14/05 11:15:31  5-MIN KSTC 141715Z AUTO 10006KT 10SM CLR 30/19 A3001 940 51 2900 100/06 RMK AO2
14926KSTC STC20050714112009807/14/05 11:20:31  5-MIN KSTC 141720Z AUTO VRB06KT 10SM CLR 30/19 A3001 940 51 2900 VRB/06 RMK AO2
14926KSTC STC20050714112509807/14/05 11:25:31  5-MIN KSTC 141725Z AUTO VRB04KT 10SM CLR 30/19 A3001 940 51 2900 VRB/04 RMK AO2
14926KSTC STC20050714113009807/14/05 11:30:31  5-MIN KSTC 141730Z AUTO 06005KT 10SM CLR 31/19 A3001 940 49 3000 060/05 RMK AO2
14926KSTC STC20050714113509807/14/05 11:35:31  5-MIN KSTC 141735Z AUTO 03005KT 10SM CLR 31/19 A3001 940 49 3000 030/05 RMK AO2
14926KSTC STC20050714114009807/14/05 11:40:31  5-MIN KSTC 141740Z AUTO VRB05KT 10SM CLR 31/19 A3001 940 49 3000 VRB/05 RMK AO2
14926KSTC STC20050714114509807/14/05 11:45:31  5-MIN KSTC 141745Z AUTO VRB04KT 10SM CLR 31/19 A3001 950 49 3000 VRB/04 RMK AO2
14926KSTC STC20050714115013307/14/05 11:50:31  5-MIN KSTC 141750Z AUTO VRB05KT 10SM CLR 30/19 A3001 940 51 2900 VRB/05 RMK AO2 SLP163 T03000189 10306 20189 58002
14926KSTC STC20050714115509807/14/05 11:55:31  5-MIN KSTC 141755Z AUTO VRB06KT 10SM CLR 31/19 A3001 950 49 3000 VRB/06 RMK AO2
14926KSTC STC20050714120009807/14/05 12:00:31  5-MIN KSTC 141800Z AUTO VRB04KT 10SM CLR 31/19 A3001 950 49 3000 VRB/04 RMK AO2
14926KSTC STC20050714120509807/14/05 12:05:31  5-MIN KSTC 141805Z AUTO VRB04KT 10SM CLR 31/19 A3001 950 47 3000 VRB/04 RMK AO2
14926KSTC STC20050714121009807/14/05 12:10:31  5-MIN KSTC 141810Z AUTO 14006KT 10SM CLR 31/19 A3000 950 47 3000 140/06 RMK AO2
14926KSTC STC20050714121509807/14/05 12:15:31  5-MIN KSTC 141815Z AUTO 16007KT 10SM CLR 31/19 A3000 950 47 3000 150/07 RMK AO2
14926KSTC STC20050714122010107/14/05 12:20:31  5-MIN KSTC 141820Z AUTO VRB06KT 10SM FEW043 31/19 A3000 950 47 3000 VRB/06 RMK AO2
14926KSTC STC20050714122510107/14/05 12:25:31  5-MIN KSTC 141825Z AUTO VRB03KT 10SM FEW043 31/19 A3000 950 49 3000 VRB/03 RMK AO2
14926KSTC STC20050714123010107/14/05 12:30:31  5-MIN KSTC 141830Z AUTO 15006KT 10SM FEW043 31/19 A3000 950 49 3000 150/06 RMK AO2
14926KSTC STC20050714123510107/14/05 12:35:31  5-MIN KSTC 141835Z AUTO 00000KT 10SM SCT043 31/19 A3000 950 49 3000 000/00 RMK AO2
14926KSTC STC20050714124010807/14/05 12:40:31  5-MIN KSTC 141840Z AUTO 17004KT 10SM SCT045 SCT055 31/19 A3001 950 49 3000 170/04 RMK AO2
14926KSTC STC20050714124510807/14/05 12:45:31  5-MIN KSTC 141845Z AUTO 09005KT 10SM SCT045 SCT055 31/19 A3001 950 47 3000 080/05 RMK AO2
14926KSTC STC20050714125011807/14/05 12:50:31  5-MIN KSTC 141850Z AUTO VRB05KT 10SM SCT045 31/19 A3000 950 47 3000 VRB/05 RMK AO2 SLP162 T03110189
14926KSTC STC20050714125510107/14/05 12:55:31  5-MIN KSTC 141855Z AUTO 13005KT 10SM BKN047 31/19 A3000 950 47 3000 120/05 RMK AO2
14926KSTC STC20050714130010107/14/05 13:00:31  5-MIN KSTC 141900Z AUTO VRB06KT 10SM BKN047 31/19 A3000 950 47 3000 VRB/06 RMK AO2
14926KSTC STC20050714130510107/14/05 13:05:31  5-MIN KSTC 141905Z AUTO 15008KT 10SM SCT047 32/19 A3000 950 46 3100 140/08 RMK AO2
14926KSTC STC20050714131010107/14/05 13:10:31  5-MIN KSTC 141910Z AUTO 11007KT 10SM FEW047 32/19 A3000 950 46 3100 100/07 RMK AO2
14926KSTC STC20050714131510107/14/05 13:15:31  5-MIN KSTC 141915Z AUTO VRB05KT 10SM FEW047 32/19 A3000 960 44 3200 VRB/05 RMK AO2
14926KSTC STC20050714132010107/14/05 13:20:31  5-MIN KSTC 141920Z AUTO VRB06KT 10SM FEW047 32/19 A3000 960 44 3200 VRB/06 RMK AO2
14926KSTC STC20050714132510107/14/05 13:25:31  5-MIN KSTC 141925Z AUTO VRB04KT 10SM FEW045 32/19 A3000 960 44 3200 VRB/04 RMK AO2
14926KSTC STC20050714133010107/14/05 13:30:31  5-MIN KSTC 141930Z AUTO 09007KT 10SM SCT045 32/19 A2999 960 44 3200 080/07 RMK AO2
14926KSTC STC20050714133510807/14/05 13:35:31  5-MIN KSTC 141935Z AUTO 08008KT 10SM SCT045 SCT060 32/19 A2999 960 44 3200 070/08 RMK AO2
14926KSTC STC20050714134010807/14/05 13:40:31  5-MIN KSTC 141940Z AUTO VRB05KT 10SM FEW045 SCT060 32/19 A3000 960 46 3100 VRB/05 RMK AO2
14926KSTC STC20050714134510807/14/05 13:45:31  5-MIN KSTC 141945Z AUTO VRB05KT 10SM FEW045 SCT060 32/19 A3000 950 46 3100 VRB/05 RMK AO2
14926KSTC STC20050714135012507/14/05 13:50:31  5-MIN KSTC 141950Z AUTO VRB05KT 10SM SCT047 BKN060 32/19 A3000 950 46 3100 VRB/05 RMK AO2 SLP160 T03170189
14926KSTC STC20050714135510807/14/05 13:55:31  5-MIN KSTC 141955Z AUTO 10007KT 10SM BKN047 BKN060 31/19 A3000 950 47 3000 100/07 RMK AO2
14926KSTC STC20050714140010807/14/05 14:00:31  5-MIN KSTC 142000Z AUTO 09007KT 10SM BKN047 BKN060 31/19 A3000 950 47 3000 080/07 RMK AO2
14926KSTC STC20050714140511507/14/05 14:05:31  5-MIN KSTC 142005Z AUTO VRB06KT 10SM SCT049 SCT060 BKN080 31/19 A3000 960 47 3000 VRB/06 RMK AO2
14926KSTC STC20050714141011507/14/05 14:10:31  5-MIN KSTC 142010Z AUTO VRB03KT 10SM SCT049 SCT060 BKN080 32/19 A3000 960 46 3100 VRB/03 RMK AO2
14926KSTC STC20050714141510807/14/05 14:15:31  5-MIN KSTC 142015Z AUTO 18005KT 10SM FEW049 SCT070 32/19 A3000 960 46 3100 170/05 RMK AO2
14926KSTC STC20050714142010107/14/05 14:20:31  5-MIN KSTC 142020Z AUTO 13006KT 10SM FEW047 32/19 A3000 960 46 3100 130/06 RMK AO2
14926KSTC STC20050714142510107/14/05 14:25:31  5-MIN KSTC 142025Z AUTO VRB05KT 10SM FEW080 32/19 A2999 960 46 3100 VRB/05 RMK AO2
14926KSTC STC20050714143009807/14/05 14:30:31  5-MIN KSTC 142030Z AUTO 13007KT 10SM CLR 32/19 A2999 960 46 3100 130/07 RMK AO2
14926KSTC STC20050714143510107/14/05 14:35:31  5-MIN KSTC 142035Z AUTO 14006KT 10SM FEW065 31/19 A2999 960 47 3100 130/06 RMK AO2
14926KSTC STC20050714144010007/14/05 14:40:31  5-MIN KSTC 142040Z AUTO VRB06KT 9SM FEW060 31/19 A2999 960 47 3100 VRB/06 RMK AO2
14926KSTC STC20050714144510107/14/05 14:45:31  5-MIN KSTC 142045Z AUTO 14006KT 10SM FEW085 32/19 A2999 960 47 3100 140/06 RMK AO2
14926KSTC STC20050714145012407/14/05 14:50:31  5-MIN KSTC 142050Z AUTO 15007KT 10SM FEW085 32/19 A2999 960 44 3200 150/07 RMK AO2 SLP156 T03220189 58010
14926KSTC STC20050714145509807/14/05 14:55:31  5-MIN KSTC 142055Z AUTO 10007KT 10SM CLR 32/19 A2999 960 46 3100 090/07 RMK AO2
14926KSTC STC20050714150009807/14/05 15:00:31  5-MIN KSTC 142100Z AUTO 12007KT 10SM CLR 32/19 A2999 960 44 3200 120/07 RMK AO2
14926KSTC STC20050714150509807/14/05 15:05:31  5-MIN KSTC 142105Z AUTO 15008KT 10SM CLR 32/19 A2999 970 44 3200 150/08 RMK AO2
14926KSTC STC20050714151009807/14/05 15:10:31  5-MIN KSTC 142110Z AUTO 13007KT 10SM CLR 32/19 A2999 960 44 3200 130/07 RMK AO2
14926KSTC STC20050714151509807/14/05 15:15:31  5-MIN KSTC 142115Z AUTO 14008KT 10SM CLR 32/19 A2999 970 44 3200 140/08 RMK AO2
14926KSTC STC20050714152011707/14/05 15:20:31  5-MIN KSTC 142120Z AUTO 14008KT 100V190 10SM FEW050 32/19 A2998 970 44 3200 130/08 100V190 RMK AO2
14926KSTC STC20050714152510107/14/05 15:25:31  5-MIN KSTC 142125Z AUTO 11006KT 10SM SCT050 32/19 A2998 970 44 3200 110/06 RMK AO2
14926KSTC STC20050714153010107/14/05 15:30:31  5-MIN KSTC 142130Z AUTO VRB06KT 10SM SCT050 32/19 A2998 970 44 3200 VRB/06 RMK AO2
14926KSTC STC20050714153510107/14/05 15:35:31  5-MIN KSTC 142135Z AUTO VRB04KT 10SM FEW050 32/19 A2998 970 46 3100 VRB/04 RMK AO2
14926KSTC STC20050714154010107/14/05 15:40:31  5-MIN KSTC 142140Z AUTO 14008KT 10SM SCT050 33/19 A2998 970 44 3300 130/08 RMK AO2
14926KSTC STC20050714154511707/14/05 15:45:31  5-MIN KSTC 142145Z AUTO 11007KT 090V160 10SM SCT050 33/19 A2998 970 44 3300 110/07 090V160 RMK AO2
14926KSTC STC20050714155011807/14/05 15:50:31  5-MIN KSTC 142150Z AUTO VRB06KT 10SM SCT050 32/19 A2998 970 46 3200 VRB/06 RMK AO2 SLP153 T03220194
14926KSTC STC20050714155510107/14/05 15:55:31  5-MIN KSTC 142155Z AUTO 15008KT 10SM SCT050 32/19 A2998 970 46 3200 150/08 RMK AO2
14926KSTC STC20050714160010107/14/05 16:00:31  5-MIN KSTC 142200Z AUTO VRB05KT 10SM SCT050 32/19 A2998 970 44 3200 VRB/05 RMK AO2
14926KSTC STC20050714160510107/14/05 16:05:31  5-MIN KSTC 142205Z AUTO 16008KT 10SM SCT050 32/19 A2998 980 46 3100 160/08 RMK AO2
14926KSTC STC20050714161010807/14/05 16:10:31  5-MIN KSTC 142210Z AUTO 20005KT 10SM FEW050 SCT075 32/18 A2997 980 44 3100 200/05 RMK AO2
14926KSTC STC20050714161511507/14/05 16:15:31  5-MIN KSTC 142215Z AUTO 15007KT 10SM FEW050 SCT060 BKN080 32/19 A2997 980 44 3200 140/07 RMK AO2
14926KSTC STC20050714162010807/14/05 16:20:31  5-MIN KSTC 142220Z AUTO 16007KT 10SM FEW050 SCT075 32/19 A2997 980 46 3100 160/07 RMK AO2
14926KSTC STC20050714162510807/14/05 16:25:31  5-MIN KSTC 142225Z AUTO 17007KT 10SM FEW055 BKN080 31/19 A2997 980 47 3100 160/07 RMK AO2
14926KSTC STC20050714163010807/14/05 16:30:31  5-MIN KSTC 142230Z AUTO 17006KT 10SM FEW050 BKN080 32/18 A2997 980 44 3100 170/06 RMK AO2
14926KSTC STC20050714163510807/14/05 16:35:31  5-MIN KSTC 142235Z AUTO 17006KT 10SM FEW050 BKN080 32/18 A2997 980 44 3100 170/06 RMK AO2
14926KSTC STC20050714164010807/14/05 16:40:31  5-MIN KSTC 142240Z AUTO 17007KT 10SM FEW055 SCT075 32/19 A2996 990 46 3100 170/07 RMK AO2
14926KSTC STC20050714164510807/14/05 16:45:31  5-MIN KSTC 142245Z AUTO 19006KT 10SM FEW055 SCT075 32/18 A2996 990 44 3100 190/06 RMK AO2
14926KSTC STC20050714165012507/14/05 16:50:31  5-MIN KSTC 142250Z AUTO VRB05KT 10SM FEW060 SCT080 32/18 A2996 990 43 3200 VRB/05 RMK AO2 SLP147 T03220183
14926KSTC STC20050714165510107/14/05 16:55:31  5-MIN KSTC 142255Z AUTO 16005KT 10SM FEW055 32/18 A2996 990 43 3200 160/05 RMK AO2
14926KSTC STC20050714170010107/14/05 17:00:31  5-MIN KSTC 142300Z AUTO 20005KT 10SM SCT055 32/18 A2996 990 44 3100 200/05 RMK AO2
14926KSTC STC20050714170510107/14/05 17:05:31  5-MIN KSTC 142305Z AUTO 18008KT 10SM SCT055 32/18 A2996 990 43 3200 180/08 RMK AO2
14926KSTC STC20050714171010107/14/05 17:10:31  5-MIN KSTC 142310Z AUTO 17007KT 10SM SCT050 32/19 A2996 990 46 3200 170/07 RMK AO2
14926KSTC STC20050714171510107/14/05 17:15:31  5-MIN KSTC 142315Z AUTO 19008KT 10SM SCT055 32/18 A2996 990 43 3200 180/08 RMK AO2
14926KSTC STC20050714172010107/14/05 17:20:31  5-MIN KSTC 142320Z AUTO 20007KT 10SM SCT050 32/18 A2996 990 44 3200 200/07 RMK AO2
14926KSTC STC20050714172510207/14/05 17:25:31  5-MIN KSTC 142325Z AUTO 20007KT 10SM FEW050 32/18 A2995 1000 44 3200 200/07 RMK AO2
14926KSTC STC20050714173010107/14/05 17:30:31  5-MIN KSTC 142330Z AUTO 20007KT 10SM FEW050 32/18 A2996 990 44 3200 200/07 RMK AO2
14926KSTC STC20050714173509907/14/05 17:35:31  5-MIN KSTC 142335Z AUTO 19006KT 10SM CLR 31/19 A2995 1000 47 3100 190/06 RMK AO2
14926KSTC STC20050714174009907/14/05 17:40:31  5-MIN KSTC 142340Z AUTO 19007KT 10SM CLR 31/19 A2995 1000 47 3100 190/07 RMK AO2
14926KSTC STC20050714174509907/14/05 17:45:31  5-MIN KSTC 142345Z AUTO 19007KT 10SM CLR 32/19 A2995 1000 46 3200 190/07 RMK AO2
14926KSTC STC20050714175013407/14/05 17:50:31  5-MIN KSTC 142350Z AUTO 18007KT 10SM CLR 32/19 A2995 1000 46 3200 180/07 RMK AO2 SLP144 T03170189 10328 20300 58007
14926KSTC STC20050714175509907/14/05 17:55:31  5-MIN KSTC 142355Z AUTO 20007KT 10SM CLR 31/19 A2995 1000 47 3100 190/07 RMK AO2
14926KSTC STC20050714180009907/14/05 18:00:31  5-MIN KSTC 150000Z AUTO 19007KT 10SM CLR 31/19 A2995 1000 47 3100 190/07 RMK AO2
14926KSTC STC20050714180509907/14/05 18:05:31  5-MIN KSTC 150005Z AUTO VRB05KT 10SM CLR 31/19 A2995 1000 49 3100 VRB/05 RMK AO2
14926KSTC STC20050714181009907/14/05 18:10:31  5-MIN KSTC 150010Z AUTO 19007KT 10SM CLR 31/19 A2995 1000 49 3100 190/07 RMK AO2
14926KSTC STC20050714181509907/14/05 18:15:31  5-MIN KSTC 150015Z AUTO 19006KT 10SM CLR 31/19 A2995 1000 49 3100 190/06 RMK AO2
14926KSTC STC20050714182009907/14/05 18:20:31  5-MIN KSTC 150020Z AUTO 19007KT 10SM CLR 31/19 A2995 1000 49 3100 180/07 RMK AO2
14926KSTC STC20050714182509907/14/05 18:25:31  5-MIN KSTC 150025Z AUTO 19005KT 10SM CLR 31/19 A2995 1000 49 3100 180/05 RMK AO2
14926KSTC STC20050714183009907/14/05 18:30:31  5-MIN KSTC 150030Z AUTO 20006KT 10SM CLR 31/19 A2995 1000 51 3000 200/06 RMK AO2
14926KSTC STC20050714183509907/14/05 18:35:31  5-MIN KSTC 150035Z AUTO 19006KT 10SM CLR 31/20 A2995 1000 52 3000 190/06 RMK AO2
14926KSTC STC20050714184009907/14/05 18:40:31  5-MIN KSTC 150040Z AUTO 19005KT 10SM CLR 31/20 A2995 1000 52 3000 190/05 RMK AO2
14926KSTC STC20050714184509907/14/05 18:45:31  5-MIN KSTC 150045Z AUTO 20005KT 10SM CLR 30/20 A2995 1000 54 3000 190/05 RMK AO2
14926KSTC STC20050714185011607/14/05 18:50:31  5-MIN KSTC 150050Z AUTO 19005KT 10SM CLR 30/20 A2995 1000 54 3000 190/05 RMK AO2 SLP143 T03000200
14926KSTC STC20050714185509907/14/05 18:55:31  5-MIN KSTC 150055Z AUTO 19005KT 10SM CLR 30/20 A2995 1000 54 3000 190/05 RMK AO2
14926KSTC STC20050714190009907/14/05 19:00:31  5-MIN KSTC 150100Z AUTO 19005KT 10SM CLR 30/20 A2995 1000 54 3000 190/05 RMK AO2
14926KSTC STC20050714190509907/14/05 19:05:31  5-MIN KSTC 150105Z AUTO 19004KT 10SM CLR 29/20 A2995 1000 56 2900 190/04 RMK AO2
14926KSTC STC20050714191009907/14/05 19:10:31  5-MIN KSTC 150110Z AUTO 19004KT 10SM CLR 29/20 A2995 1000 56 2900 190/04 RMK AO2
14926KSTC STC20050714191509907/14/05 19:15:31  5-MIN KSTC 150115Z AUTO 20004KT 10SM CLR 29/20 A2995 1000 56 2900 200/04 RMK AO2
14926KSTC STC20050714192009807/14/05 19:20:31  5-MIN KSTC 150120Z AUTO 20003KT 10SM CLR 29/21 A2996 990 58 2900 190/03 RMK AO2
14926KSTC STC20050714192509807/14/05 19:25:31  5-MIN KSTC 150125Z AUTO 17003KT 10SM CLR 29/21 A2996 990 60 2800 160/03 RMK AO2
14926KSTC STC20050714193009807/14/05 19:30:31  5-MIN KSTC 150130Z AUTO 17004KT 10SM CLR 29/21 A2996 990 60 2800 170/04 RMK AO2
14926KSTC STC20050714193509807/14/05 19:35:31  5-MIN KSTC 150135Z AUTO 18004KT 10SM CLR 29/21 A2996 990 60 2800 180/04 RMK AO2
14926KSTC STC20050714194009807/14/05 19:40:31  5-MIN KSTC 150140Z AUTO 19004KT 10SM CLR 29/21 A2996 990 60 2800 190/04 RMK AO2
14926KSTC STC20050714194509807/14/05 19:45:31  5-MIN KSTC 150145Z AUTO 00000KT 10SM CLR 28/21 A2996 990 62 2800 000/00 RMK AO2
14926KSTC STC20050714195011507/14/05 19:50:31  5-MIN KSTC 150150Z AUTO 00000KT 10SM CLR 28/21 A2996 990 64 2700 000/00 RMK AO2 SLP147 T02780206
14926KSTC STC20050714195509807/14/05 19:55:31  5-MIN KSTC 150155Z AUTO 00000KT 10SM CLR 28/21 A2996 990 66 2700 000/00 RMK AO2
14926KSTC STC20050714200009807/14/05 20:00:31  5-MIN KSTC 150200Z AUTO 00000KT 10SM CLR 27/21 A2996 990 69 2700 000/00 RMK AO2
14926KSTC STC20050714200509807/14/05 20:05:31  5-MIN KSTC 150205Z AUTO 00000KT 10SM CLR 27/21 A2997 980 71 2600 000/00 RMK AO2
14926KSTC STC20050714201009807/14/05 20:10:31  5-MIN KSTC 150210Z AUTO 00000KT 10SM CLR 27/21 A2997 980 71 2600 000/00 RMK AO2
14926KSTC STC20050714201509707/14/05 20:15:31  5-MIN KSTC 150215Z AUTO 00000KT 9SM CLR 27/21 A2997 980 71 2600 000/00 RMK AO2
14926KSTC STC20050714202009807/14/05 20:20:31  5-MIN KSTC 150220Z AUTO 00000KT 10SM CLR 26/21 A2997 980 73 2500 000/00 RMK AO2
14926KSTC STC20050714202509807/14/05 20:25:31  5-MIN KSTC 150225Z AUTO 00000KT 10SM CLR 26/21 A2997 980 73 2500 000/00 RMK AO2
14926KSTC STC20050714203009807/14/05 20:30:31  5-MIN KSTC 150230Z AUTO 00000KT 10SM CLR 26/21 A2998 970 76 2500 000/00 RMK AO2
14926KSTC STC20050714203509707/14/05 20:35:31  5-MIN KSTC 150235Z AUTO 00000KT 9SM CLR 26/21 A2998 970 73 2500 000/00 RMK AO2
14926KSTC STC20050714204009707/14/05 20:40:31  5-MIN KSTC 150240Z AUTO 00000KT 9SM CLR 26/21 A2998 970 73 2500 000/00 RMK AO2
14926KSTC STC20050714204509707/14/05 20:45:31  5-MIN KSTC 150245Z AUTO 00000KT 9SM CLR 26/21 A2998 970 73 2500 000/00 RMK AO2
14926KSTC STC20050714205012007/14/05 20:50:31  5-MIN KSTC 150250Z AUTO 00000KT 9SM CLR 25/21 A2998 970 79 2400 000/00 RMK AO2 SLP152 T02500211 56011
14926KSTC STC20050714205509707/14/05 20:55:31  5-MIN KSTC 150255Z AUTO 00000KT 9SM CLR 26/21 A2998 970 76 2500 000/00 RMK AO2
14926KSTC STC20050714210009707/14/05 21:00:31  5-MIN KSTC 150300Z AUTO 00000KT 9SM CLR 25/21 A2998 970 79 2400 000/00 RMK AO2
14926KSTC STC20050714210509707/14/05 21:05:31  5-MIN KSTC 150305Z AUTO 00000KT 9SM CLR 24/21 A2998 970 81 2300 000/00 RMK AO2
14926KSTC STC20050714211009707/14/05 21:10:31  5-MIN KSTC 150310Z AUTO 00000KT 9SM CLR 24/21 A2998 970 78 2300 000/00 RMK AO2
14926KSTC STC20050714211509707/14/05 21:15:31  5-MIN KSTC 150315Z AUTO 00000KT 8SM CLR 24/21 A2997 980 78 2300 000/00 RMK AO2
14926KSTC STC20050714212009707/14/05 21:20:31  5-MIN KSTC 150320Z AUTO 00000KT 8SM CLR 24/21 A2997 980 81 2300 000/00 RMK AO2
14926KSTC STC20050714212509707/14/05 21:25:31  5-MIN KSTC 150325Z AUTO 00000KT 8SM CLR 24/21 A2998 970 81 2300 000/00 RMK AO2
14926KSTC STC20050714213009707/14/05 21:30:31  5-MIN KSTC 150330Z AUTO 00000KT 8SM CLR 24/21 A2998 970 81 2300 000/00 RMK AO2
14926KSTC STC20050714213509707/14/05 21:35:31  5-MIN KSTC 150335Z AUTO 00000KT 8SM CLR 24/21 A2998 970 81 2300 000/00 RMK AO2
14926KSTC STC20050714214009707/14/05 21:40:31  5-MIN KSTC 150340Z AUTO 00000KT 8SM CLR 24/21 A2998 970 81 2300 000/00 RMK AO2
14926KSTC STC20050714214509707/14/05 21:45:31  5-MIN KSTC 150345Z AUTO 00000KT 8SM CLR 24/21 A2998 970 81 2300 000/00 RMK AO2
14926KSTC STC20050714215011407/14/05 21:50:31  5-MIN KSTC 150350Z AUTO 00000KT 8SM CLR 24/21 A2998 970 81 2300 000/00 RMK AO2 SLP152 T02390206
14926KSTC STC20050714215509707/14/05 21:55:31  5-MIN KSTC 150355Z AUTO 00000KT 8SM CLR 24/21 A2998 980 84 2300 000/00 RMK AO2
14926KSTC STC20050714220009707/14/05 22:00:31  5-MIN KSTC 150400Z AUTO 00000KT 9SM CLR 24/21 A2998 970 81 2300 000/00 RMK AO2
14926KSTC STC20050714220509707/14/05 22:05:31  5-MIN KSTC 150405Z AUTO 00000KT 9SM CLR 24/21 A2997 980 81 2300 000/00 RMK AO2
14926KSTC STC20050714221009707/14/05 22:10:31  5-MIN KSTC 150410Z AUTO 12003KT 9SM CLR 24/21 A2997 980 81 2300 120/03 RMK AO2
14926KSTC STC20050714221509707/14/05 22:15:31  5-MIN KSTC 150415Z AUTO 13003KT 9SM CLR 23/21 A2997 980 84 2200 130/03 RMK AO2
14926KSTC STC20050714222009707/14/05 22:20:31  5-MIN KSTC 150420Z AUTO 13004KT 8SM CLR 23/21 A2997 980 87 2200 130/04 RMK AO2
14926KSTC STC20050714222509707/14/05 22:25:31  5-MIN KSTC 150425Z AUTO 13005KT 7SM CLR 23/21 A2997 980 90 2100 130/05 RMK AO2
14926KSTC STC20050714223009707/14/05 22:30:31  5-MIN KSTC 150430Z AUTO 13005KT 8SM CLR 23/21 A2997 980 87 2200 130/05 RMK AO2
14926KSTC STC20050714223509707/14/05 22:35:31  5-MIN KSTC 150435Z AUTO 13005KT 9SM CLR 24/21 A2997 980 81 2300 130/05 RMK AO2
14926KSTC STC20050714224009807/14/05 22:40:31  5-MIN KSTC 150440Z AUTO 13004KT 10SM CLR 25/21 A2998 980 76 2400 130/04 RMK AO2
14926KSTC STC20050714224509807/14/05 22:45:31  5-MIN KSTC 150445Z AUTO 13004KT 10SM CLR 25/21 A2998 970 76 2400 130/04 RMK AO2
14926KSTC STC20050714225011507/14/05 22:50:31  5-MIN KSTC 150450Z AUTO 13003KT 10SM CLR 24/21 A2998 970 78 2300 130/03 RMK AO2 SLP152 T02440206
14926KSTC STC20050714225509807/14/05 22:55:31  5-MIN KSTC 150455Z AUTO 00000KT 10SM CLR 24/21 A2998 970 78 2300 000/00 RMK AO2
14926KSTC STC20050714230009807/14/05 23:00:31  5-MIN KSTC 150500Z AUTO 00000KT 10SM CLR 24/21 A2998 970 81 2300 000/00 RMK AO2
14926KSTC STC20050714230509707/14/05 23:05:31  5-MIN KSTC 150505Z AUTO 00000KT 9SM CLR 24/21 A2998 970 81 2300 000/00 RMK AO2
14926KSTC STC20050714231009707/14/05 23:10:31  5-MIN KSTC 150510Z AUTO 00000KT 9SM CLR 24/21 A2998 970 81 2300 000/00 RMK AO2
14926KSTC STC20050714231509707/14/05 23:15:31  5-MIN KSTC 150515Z AUTO 00000KT 9SM CLR 23/21 A2998 970 84 2200 000/00 RMK AO2
14926KSTC STC20050714232009707/14/05 23:20:31  5-MIN KSTC 150520Z AUTO 00000KT 9SM CLR 23/21 A2998 970 84 2200 000/00 RMK AO2
14926KSTC STC20050714232509707/14/05 23:25:31  5-MIN KSTC 150525Z AUTO 00000KT 9SM CLR 23/20 A2998 970 84 2100 000/00 RMK AO2
14926KSTC STC20050714233009707/14/05 23:30:31  5-MIN KSTC 150530Z AUTO 00000KT 8SM CLR 23/20 A2998 970 81 2200 000/00 RMK AO2
14926KSTC STC20050714233509707/14/05 23:35:31  5-MIN KSTC 150535Z AUTO 00000KT 8SM CLR 23/21 A2998 970 84 2200 000/00 RMK AO2
14926KSTC STC20050714234009707/14/05 23:40:31  5-MIN KSTC 150540Z AUTO 00000KT 8SM CLR 23/20 A2999 960 84 2100 000/00 RMK AO2
14926KSTC STC20050714234509707/14/05 23:45:31  5-MIN KSTC 150545Z AUTO 00000KT 8SM CLR 23/20 A2998 970 84 2100 000/00 RMK AO2
14926KSTC STC20050714235014207/14/05 23:50:31  5-MIN KSTC 150550Z AUTO 00000KT 8SM CLR 22/20 A2999 970 87 2100 000/00 RMK AO2 SLP155 T02220200 10311 20222 403280161 53008
14926KSTC STC20050714235509707/14/05 23:55:31  5-MIN KSTC 150555Z AUTO 00000KT 8SM CLR 22/20 A2999 970 87 2100 000/00 RMK AO2
14926KSTC STC20050715000009707/15/05 00:00:32  5-MIN KSTC 150600Z AUTO 00000KT 7SM CLR 22/20 A2999 960 87 2100 000/00 RMK AO2
14926KSTC STC20050715000509707/15/05 00:05:31  5-MIN KSTC 150605Z AUTO 00000KT 7SM CLR 23/21 A2999 960 87 2100 000/00 RMK AO2
14926KSTC STC20050715001009707/15/05 00:10:31  5-MIN KSTC 150610Z AUTO 00000KT 7SM CLR 23/20 A2999 960 84 2100 000/00 RMK AO2
14926KSTC STC20050715001509707/15/05 00:15:31  5-MIN KSTC 150615Z AUTO 00000KT 8SM CLR 22/20 A2999 960 87 2100 000/00 RMK AO2
14926KSTC STC20050715002009707/15/05 00:20:31  5-MIN KSTC 150620Z AUTO 00000KT 8SM CLR 22/20 A2999 960 87 2100 000/00 RMK AO2
14926KSTC STC20050715002509707/15/05 00:25:31  5-MIN KSTC 150625Z AUTO 00000KT 7SM CLR 22/20 A2999 960 87 2100 000/00 RMK AO2
14926KSTC STC20050715003009707/15/05 00:30:31  5-MIN KSTC 150630Z AUTO 00000KT 7SM CLR 22/20 A2999 960 87 2100 000/00 RMK AO2
14926KSTC STC20050715003509707/15/05 00:35:31  5-MIN KSTC 150635Z AUTO 00000KT 7SM CLR 22/20 A2999 960 90 2000 000/00 RMK AO2
14926KSTC STC20050715004009707/15/05 00:40:31  5-MIN KSTC 150640Z AUTO 00000KT 7SM CLR 22/20 A2999 960 87 2100 000/00 RMK AO2
14926KSTC STC20050715004509707/15/05 00:45:31  5-MIN KSTC 150645Z AUTO 00000KT 7SM CLR 22/21 A2999 960 93 2000 000/00 RMK AO2
14926KSTC STC20050715005011707/15/05 00:50:31  5-MIN KSTC 150650Z AUTO 00000KT 6SM BR CLR 22/21 A2999 960 93 2000 000/00 RMK AO2 SLP156 T02170206
14926KSTC STC20050715005509707/15/05 00:55:31  5-MIN KSTC 150655Z AUTO 00000KT 7SM CLR 22/20 A2999 960 87 2100 000/00 RMK AO2
14926KSTC STC20050715010009707/15/05 01:00:31  5-MIN KSTC 150700Z AUTO 00000KT 7SM CLR 22/20 A2999 960 90 2000 000/00 RMK AO2
14926KSTC STC20050715010509707/15/05 01:05:31  5-MIN KSTC 150705Z AUTO 00000KT 7SM CLR 22/20 A2999 960 90 2000 000/00 RMK AO2
14926KSTC STC20050715011009707/15/05 01:10:31  5-MIN KSTC 150710Z AUTO 00000KT 7SM CLR 22/20 A2999 960 90 2000 000/00 RMK AO2
14926KSTC STC20050715011509707/15/05 01:15:31  5-MIN KSTC 150715Z AUTO 00000KT 7SM CLR 21/20 A2999 960 93 1900 000/00 RMK AO2
14926KSTC STC20050715012010007/15/05 01:20:31  5-MIN KSTC 150720Z AUTO 00000KT 6SM BR CLR 21/20 A2999 960 93 1900 000/00 RMK AO2
14926KSTC STC20050715012510007/15/05 01:25:31  5-MIN KSTC 150725Z AUTO 00000KT 5SM BR CLR 21/20 A2999 960 93 1900 000/00 RMK AO2
14926KSTC STC20050715013010007/15/05 01:30:31  5-MIN KSTC 150730Z AUTO 00000KT 5SM HZ CLR 22/19 A2999 960 84 2100 000/00 RMK AO2
14926KSTC STC20050715013509707/15/05 01:35:31  5-MIN KSTC 150735Z AUTO 00000KT 7SM CLR 21/19 A2999 960 90 1900 000/00 RMK AO2
14926KSTC STC20050715014009707/15/05 01:40:31  5-MIN KSTC 150740Z AUTO 00000KT 7SM CLR 22/19 A2999 960 87 2000 000/00 RMK AO2
14926KSTC STC20050715014509707/15/05 01:45:31  5-MIN KSTC 150745Z AUTO 09003KT 7SM CLR 21/19 A2999 960 90 1900 080/03 RMK AO2
14926KSTC STC20050715015011407/15/05 01:50:31  5-MIN KSTC 150750Z AUTO 12003KT 7SM CLR 22/19 A2999 960 87 2000 110/03 RMK AO2 SLP156 T02170194
14926KSTC STC20050715015509707/15/05 01:55:31  5-MIN KSTC 150755Z AUTO 00000KT 8SM CLR 22/19 A2999 960 87 2000 000/00 RMK AO2
14926KSTC STC20050715020009707/15/05 02:00:31  5-MIN KSTC 150800Z AUTO 00000KT 8SM CLR 22/19 A2999 960 87 2000 000/00 RMK AO2
14926KSTC STC20050715020509707/15/05 02:05:31  5-MIN KSTC 150805Z AUTO 00000KT 8SM CLR 22/19 A2999 960 87 2000 000/00 RMK AO2
14926KSTC STC20050715021009707/15/05 02:10:31  5-MIN KSTC 150810Z AUTO 00000KT 7SM CLR 22/19 A2999 960 87 2000 000/00 RMK AO2
14926KSTC STC20050715021509707/15/05 02:15:31  5-MIN KSTC 150815Z AUTO 00000KT 7SM CLR 22/19 A2999 970 87 2000 000/00 RMK AO2
14926KSTC STC20050715022009707/15/05 02:20:31  5-MIN KSTC 150820Z AUTO 00000KT 7SM CLR 21/19 A2998 970 90 1900 000/00 RMK AO2
14926KSTC STC20050715022509707/15/05 02:25:31  5-MIN KSTC 150825Z AUTO 00000KT 7SM CLR 22/19 A2998 970 87 2000 000/00 RMK AO2
14926KSTC STC20050715023009707/15/05 02:30:31  5-MIN KSTC 150830Z AUTO 00000KT 8SM CLR 21/19 A2998 970 90 1900 000/00 RMK AO2
14926KSTC STC20050715023509707/15/05 02:35:31  5-MIN KSTC 150835Z AUTO 00000KT 8SM CLR 21/19 A2998 970 87 1900 000/00 RMK AO2
14926KSTC STC20050715024009707/15/05 02:40:31  5-MIN KSTC 150840Z AUTO 00000KT 8SM CLR 21/19 A2998 970 87 1900 000/00 RMK AO2
14926KSTC STC20050715024509707/15/05 02:45:31  5-MIN KSTC 150845Z AUTO 13003KT 8SM CLR 21/19 A2998 970 90 1900 130/03 RMK AO2
14926KSTC STC20050715025012007/15/05 02:50:31  5-MIN KSTC 150850Z AUTO 00000KT 7SM CLR 21/19 A2998 970 90 1900 000/00 RMK AO2 SLP151 T02060189 53003
14926KSTC STC20050715025510007/15/05 02:55:31  5-MIN KSTC 150855Z AUTO 00000KT 6SM BR CLR 21/19 A2998 970 90 1900 000/00 RMK AO2
14926KSTC STC20050715030010007/15/05 03:00:31  5-MIN KSTC 150900Z AUTO 00000KT 6SM BR CLR 20/19 A2998 970 93 1800 000/00 RMK AO2
14926KSTC STC20050715030510007/15/05 03:05:31  5-MIN KSTC 150905Z AUTO 00000KT 6SM BR CLR 20/19 A2998 970 93 1800 000/00 RMK AO2
14926KSTC STC20050715031010007/15/05 03:10:31  5-MIN KSTC 150910Z AUTO 00000KT 6SM BR CLR 21/19 A2998 970 90 1900 000/00 RMK AO2
14926KSTC STC20050715031510007/15/05 03:15:31  5-MIN KSTC 150915Z AUTO 00000KT 6SM BR CLR 20/19 A2998 970 93 1800 000/00 RMK AO2
14926KSTC STC20050715032010007/15/05 03:20:31  5-MIN KSTC 150920Z AUTO 00000KT 6SM BR CLR 20/19 A2998 970 93 1800 000/00 RMK AO2
14926KSTC STC20050715032510007/15/05 03:25:31  5-MIN KSTC 150925Z AUTO 00000KT 5SM BR CLR 20/18 A2998 970 90 1800 000/00 RMK AO2
14926KSTC STC20050715033010007/15/05 03:30:31  5-MIN KSTC 150930Z AUTO 00000KT 5SM BR CLR 19/18 A2998 970 93 1800 000/00 RMK AO2
14926KSTC STC20050715033510007/15/05 03:35:31  5-MIN KSTC 150935Z AUTO 00000KT 5SM BR CLR 20/19 A2998 970 93 1800 000/00 RMK AO2
14926KSTC STC20050715034010007/15/05 03:40:31  5-MIN KSTC 150940Z AUTO 00000KT 5SM BR CLR 20/18 A2998 970 90 1800 000/00 RMK AO2
14926KSTC STC20050715034510007/15/05 03:45:31  5-MIN KSTC 150945Z AUTO 00000KT 5SM BR CLR 20/19 A2998 970 93 1800 000/00 RMK AO2
14926KSTC STC20050715035011707/15/05 03:50:31  5-MIN KSTC 150950Z AUTO 00000KT 6SM BR CLR 20/19 A2999 960 93 1800 000/00 RMK AO2 SLP156 T02000189
14926KSTC STC20050715035510007/15/05 03:55:31  5-MIN KSTC 150955Z AUTO 00000KT 6SM BR CLR 20/19 A2999 960 93 1800 000/00 RMK AO2
14926KSTC STC20050715040010007/15/05 04:00:31  5-MIN KSTC 151000Z AUTO 00000KT 6SM BR CLR 21/19 A2999 960 90 1900 000/00 RMK AO2
14926KSTC STC20050715040510007/15/05 04:05:31  5-MIN KSTC 151005Z AUTO 00000KT 6SM BR CLR 20/19 A2999 960 93 1800 000/00 RMK AO2
14926KSTC STC20050715041010007/15/05 04:10:31  5-MIN KSTC 151010Z AUTO 00000KT 5SM BR CLR 20/19 A2999 960 93 1800 000/00 RMK AO2
14926KSTC STC20050715041510307/15/05 04:15:31  5-MIN KSTC 151015Z AUTO 00000KT 5SM BR FEW049 19/18 A3000 960 93 1700 000/00 RMK AO2
14926KSTC STC20050715042010307/15/05 04:20:31  5-MIN KSTC 151020Z AUTO 00000KT 5SM BR BKN049 20/19 A3000 960 93 1800 000/00 RMK AO2
14926KSTC STC20050715042510307/15/05 04:25:31  5-MIN KSTC 151025Z AUTO 00000KT 5SM BR BKN049 20/19 A3000 950 93 1800 000/00 RMK AO2
14926KSTC STC20050715043011007/15/05 04:30:31  5-MIN KSTC 151030Z AUTO 00000KT 5SM BR BKN049 BKN055 20/19 A3000 950 93 1800 000/00 RMK AO2
14926KSTC STC20050715043511007/15/05 04:35:31  5-MIN KSTC 151035Z AUTO 00000KT 6SM BR BKN049 BKN055 20/19 A3000 950 93 1800 000/00 RMK AO2
14926KSTC STC20050715044010307/15/05 04:40:31  5-MIN KSTC 151040Z AUTO 00000KT 6SM BR BKN049 21/19 A3000 960 90 1900 000/00 RMK AO2
14926KSTC STC20050715044510307/15/05 04:45:31  5-MIN KSTC 151045Z AUTO 00000KT 5SM BR SCT049 21/19 A3000 960 90 1900 000/00 RMK AO2
14926KSTC STC20050715045012007/15/05 04:50:31  5-MIN KSTC 151050Z AUTO 00000KT 5SM BR FEW049 20/19 A3000 950 93 1800 000/00 RMK AO2 SLP161 T02000189
14926KSTC STC20050715045510307/15/05 04:55:31  5-MIN KSTC 151055Z AUTO 00000KT 5SM BR FEW049 20/19 A3000 950 93 1800 000/00 RMK AO2
14926KSTC STC20050715050010007/15/05 05:00:31  5-MIN KSTC 151100Z AUTO 00000KT 4SM BR CLR 20/19 A3000 950 93 1800 000/00 RMK AO2
14926KSTC STC20050715050510007/15/05 05:05:31  5-MIN KSTC 151105Z AUTO 00000KT 4SM BR CLR 20/19 A3000 950 93 1800 000/00 RMK AO2
14926KSTC STC20050715051010307/15/05 05:10:31  5-MIN KSTC 151110Z AUTO 00000KT 4SM BR FEW055 20/19 A3000 950 93 1800 000/00 RMK AO2
14926KSTC STC20050715051510307/15/05 05:15:31  5-MIN KSTC 151115Z AUTO 00000KT 4SM BR FEW055 20/19 A3000 950 93 1800 000/00 RMK AO2
14926KSTC STC20050715052010307/15/05 05:20:31  5-MIN KSTC 151120Z AUTO 00000KT 5SM BR SCT055 20/19 A3000 950 93 1800 000/00 RMK AO2
14926KSTC STC20050715052510307/15/05 05:25:31  5-MIN KSTC 151125Z AUTO 00000KT 5SM BR SCT050 20/19 A3000 950 93 1800 000/00 RMK AO2
14926KSTC STC20050715053010307/15/05 05:30:31  5-MIN KSTC 151130Z AUTO 00000KT 4SM BR SCT050 21/19 A3000 950 90 1900 000/00 RMK AO2
14926KSTC STC20050715053510307/15/05 05:35:31  5-MIN KSTC 151135Z AUTO 00000KT 4SM BR BKN050 21/19 A3000 950 90 1900 000/00 RMK AO2
14926KSTC STC20050715054010307/15/05 05:40:31  5-MIN KSTC 151140Z AUTO 00000KT 4SM BR BKN050 21/19 A3000 950 90 1900 000/00 RMK AO2
14926KSTC STC20050715054510307/15/05 05:45:31  5-MIN KSTC 151145Z AUTO 00000KT 4SM BR BKN050 21/19 A3000 950 90 1900 000/00 RMK AO2
14926KSTC STC20050715055013307/15/05 05:50:31  5-MIN KSTC 151150Z 00000KT 4SM BR SCT050 21/19 A3001 950 90 1900 000/00 RMK AO2 SLP161 T02110194 10228 20194 58002
14926KSTC STC20050715055509807/15/05 05:55:31  5-MIN KSTC 151155Z 00000KT 5SM BR SCT050 21/19 A3001 950 90 1900 000/00 RMK AO2
14926KSTC STC20050715060009807/15/05 06:00:31  5-MIN KSTC 151200Z 00000KT 5SM BR SCT050 21/19 A3001 950 90 1900 000/00 RMK AO2
14926KSTC STC20050715060509807/15/05 06:05:31  5-MIN KSTC 151205Z 00000KT 6SM BR FEW050 22/19 A3001 950 87 2000 000/00 RMK AO2
14926KSTC STC20050715061009807/15/05 06:10:31  5-MIN KSTC 151210Z 00000KT 6SM HZ FEW050 22/19 A3001 950 84 2000 000/00 RMK AO2
14926KSTC STC20050715061509507/15/05 06:15:31  5-MIN KSTC 151215Z 00000KT 6SM BR CLR 22/20 A3000 950 87 2000 000/00 RMK AO2
14926KSTC STC20050715062009507/15/05 06:20:31  5-MIN KSTC 151220Z 00000KT 6SM HZ CLR 23/20 A3001 950 84 2100 000/00 RMK AO2
14926KSTC STC20050715062509507/15/05 06:25:31  5-MIN KSTC 151225Z 00000KT 6SM HZ CLR 23/20 A3001 950 84 2100 000/00 RMK AO2
14926KSTC STC20050715063009507/15/05 06:30:31  5-MIN KSTC 151230Z 00000KT 6SM BR CLR 23/21 A3001 950 87 2100 000/00 RMK AO2
14926KSTC STC20050715063509507/15/05 06:35:31  5-MIN KSTC 151235Z 00000KT 6SM HZ CLR 23/21 A3001 950 84 2200 000/00 RMK AO2
14926KSTC STC20050715064009507/15/05 06:40:31  5-MIN KSTC 151240Z 00000KT 6SM HZ CLR 24/21 A3001 950 81 2200 000/00 RMK AO2
14926KSTC STC20050715064509507/15/05 06:45:31  5-MIN KSTC 151245Z 00000KT 6SM HZ CLR 24/21 A3001 950 81 2200 000/00 RMK AO2
14926KSTC STC20050715065011207/15/05 06:50:31  5-MIN KSTC 151250Z 00000KT 6SM HZ CLR 24/21 A3001 950 81 2200 000/00 RMK AO2 SLP161 T02390206
14926KSTC STC20050715065509507/15/05 06:55:31  5-MIN KSTC 151255Z 00000KT 6SM HZ CLR 24/21 A3000 950 81 2300 000/00 RMK AO2
14926KSTC STC20050715070009507/15/05 07:00:31  5-MIN KSTC 151300Z 20003KT 6SM HZ CLR 24/21 A3000 950 81 2300 200/03 RMK AO2
14926KSTC STC20050715070509507/15/05 07:05:31  5-MIN KSTC 151305Z 19003KT 6SM HZ CLR 24/21 A3000 950 81 2300 190/03 RMK AO2
14926KSTC STC20050715071009507/15/05 07:10:31  5-MIN KSTC 151310Z 00000KT 6SM HZ CLR 25/21 A3000 950 79 2400 000/00 RMK AO2
14926KSTC STC20050715071509507/15/05 07:15:31  5-MIN KSTC 151315Z 00000KT 6SM HZ CLR 25/21 A3000 950 79 2400 000/00 RMK AO2
14926KSTC STC20050715072009507/15/05 07:20:31  5-MIN KSTC 151320Z 21003KT 6SM HZ CLR 25/21 A3000 950 79 2400 210/03 RMK AO2
14926KSTC STC20050715072509507/15/05 07:25:31  5-MIN KSTC 151325Z 20003KT 6SM HZ CLR 26/21 A3000 950 76 2400 200/03 RMK AO2
14926KSTC STC20050715073009207/15/05 07:30:31  5-MIN KSTC 151330Z 19004KT 7SM CLR 26/21 A3000 950 76 2400 190/04 RMK AO2
14926KSTC STC20050715073509207/15/05 07:35:31  5-MIN KSTC 151335Z VRB03KT 7SM CLR 26/22 A3000 950 76 2500 VRB/03 RMK AO2
14926KSTC STC20050715074009207/15/05 07:40:31  5-MIN KSTC 151340Z 19004KT 7SM CLR 26/22 A3000 950 76 2500 180/04 RMK AO2
14926KSTC STC20050715074509207/15/05 07:45:31  5-MIN KSTC 151345Z 19004KT 7SM CLR 27/22 A3000 950 73 2600 190/04 RMK AO2
14926KSTC STC20050715075010907/15/05 07:50:31  5-MIN KSTC 151350Z 19004KT 7SM CLR 27/22 A3000 950 73 2600 190/04 RMK AO2 SLP159 T02670217
14926KSTC STC20050715075509207/15/05 07:55:31  5-MIN KSTC 151355Z 18004KT 7SM CLR 27/22 A3000 950 71 2600 180/04 RMK AO2
14926KSTC STC20050715080009207/15/05 08:00:31  5-MIN KSTC 151400Z 22005KT 8SM CLR 27/22 A3000 950 71 2600 220/05 RMK AO2
14926KSTC STC20050715080509207/15/05 08:05:31  5-MIN KSTC 151405Z 22006KT 9SM CLR 28/21 A3000 950 64 2700 220/06 RMK AO2
14926KSTC STC20050715081009207/15/05 08:10:31  5-MIN KSTC 151410Z 20005KT 9SM CLR 28/21 A3000 950 66 2700 200/05 RMK AO2
14926KSTC STC20050715081509207/15/05 08:15:31  5-MIN KSTC 151415Z 23005KT 9SM CLR 28/21 A3000 950 64 2700 230/05 RMK AO2
14926KSTC STC20050715082009207/15/05 08:20:31  5-MIN KSTC 151420Z 24008KT 9SM CLR 29/20 A3000 950 58 2800 240/08 RMK AO2
14926KSTC STC20050715082509307/15/05 08:25:31  5-MIN KSTC 151425Z 22007KT 10SM CLR 28/20 A3000 950 60 2700 220/07 RMK AO2
14926KSTC STC20050715083009307/15/05 08:30:31  5-MIN KSTC 151430Z 23006KT 10SM CLR 29/20 A3000 950 58 2800 230/06 RMK AO2
14926KSTC STC20050715083509307/15/05 08:35:31  5-MIN KSTC 151435Z 22007KT 10SM CLR 29/20 A3000 950 56 2900 210/07 RMK AO2
14926KSTC STC20050715084009307/15/05 08:40:31  5-MIN KSTC 151440Z 24007KT 10SM CLR 29/20 A3000 950 56 2900 240/07 RMK AO2
14926KSTC STC20050715084509307/15/05 08:45:31  5-MIN KSTC 151445Z 24005KT 10SM CLR 29/20 A3000 950 56 2900 240/05 RMK AO2
14926KSTC STC20050715085011607/15/05 08:50:31  5-MIN KSTC 151450Z 25008KT 10SM CLR 29/20 A3000 950 56 2900 240/08 RMK AO2 SLP159 T02940200 51009
14926KSTC STC20050715085509307/15/05 08:55:31  5-MIN KSTC 151455Z 24008KT 10SM CLR 29/20 A3000 950 56 2900 240/08 RMK AO2
14926KSTC STC20050715090009307/15/05 09:00:31  5-MIN KSTC 151500Z 24007KT 10SM CLR 30/20 A3000 950 54 2900 230/07 RMK AO2
14926KSTC STC20050715090509307/15/05 09:05:31  5-MIN KSTC 151505Z 23008KT 10SM CLR 30/20 A3000 960 54 2900 230/08 RMK AO2
14926KSTC STC20050715091009607/15/05 09:10:31  5-MIN KSTC 151510Z 24007KT 10SM FEW085 30/20 A2999 960 54 2900 240/07 RMK AO2
14926KSTC STC20050715091509607/15/05 09:15:31  5-MIN KSTC 151515Z 25010KT 10SM FEW085 31/19 A3000 960 51 3000 250/10 RMK AO2
14926KSTC STC20050715092009607/15/05 09:20:31  5-MIN KSTC 151520Z 24007KT 10SM FEW085 31/19 A2999 960 51 3000 230/07 RMK AO2
14926KSTC STC20050715092509307/15/05 09:25:31  5-MIN KSTC 151525Z 25010KT 10SM CLR 31/19 A2999 960 51 3000 250/10 RMK AO2
14926KSTC STC20050715093009307/15/05 09:30:31  5-MIN KSTC 151530Z 24008KT 10SM CLR 31/19 A2999 960 51 3000 240/08 RMK AO2
14926KSTC STC20050715093509307/15/05 09:35:31  5-MIN KSTC 151535Z 25008KT 10SM CLR 31/20 A2999 960 52 3000 250/08 RMK AO2
14926KSTC STC20050715094009307/15/05 09:40:31  5-MIN KSTC 151540Z 24008KT 10SM CLR 31/19 A2999 960 51 3000 240/08 RMK AO2
14926KSTC STC20050715094509307/15/05 09:45:31  5-MIN KSTC 151545Z 24009KT 10SM CLR 31/20 A2999 960 52 3000 240/09 RMK AO2
14926KSTC STC20050715095011007/15/05 09:50:31  5-MIN KSTC 151550Z 23009KT 10SM CLR 31/19 A2999 960 51 3000 230/09 RMK AO2 SLP156 T03060194
14926KSTC STC20050715095509307/15/05 09:55:31  5-MIN KSTC 151555Z 26007KT 10SM CLR 31/20 A2999 960 52 3000 250/07 RMK AO2
14926KSTC STC20050715100009307/15/05 10:00:31  5-MIN KSTC 151600Z 23009KT 10SM CLR 31/20 A2999 960 51 3100 220/09 RMK AO2
14926KSTC STC20050715100509307/15/05 10:05:31  5-MIN KSTC 151605Z 25009KT 10SM CLR 32/19 A2999 960 47 3100 250/09 RMK AO2
14926KSTC STC20050715101009307/15/05 10:10:31  5-MIN KSTC 151610Z 23009KT 10SM CLR 32/20 A2999 960 49 3100 230/09 RMK AO2
14926KSTC STC20050715101509307/15/05 10:15:31  5-MIN KSTC 151615Z 24006KT 10SM CLR 32/19 A2999 960 47 3100 240/06 RMK AO2
14926KSTC STC20050715102009307/15/05 10:20:31  5-MIN KSTC 151620Z 22009KT 10SM CLR 32/19 A2999 970 47 3100 220/09 RMK AO2
14926KSTC STC20050715102509307/15/05 10:25:31  5-MIN KSTC 151625Z 21010KT 10SM CLR 32/19 A2998 970 47 3100 210/10 RMK AO2
14926KSTC STC20050715103009307/15/05 10:30:31  5-MIN KSTC 151630Z 23010KT 10SM CLR 32/19 A2998 970 47 3100 230/10 RMK AO2
14926KSTC STC20050715103509307/15/05 10:35:31  5-MIN KSTC 151635Z 24009KT 10SM CLR 32/19 A2998 970 47 3100 240/09 RMK AO2
14926KSTC STC20050715104009307/15/05 10:40:31  5-MIN KSTC 151640Z 23006KT 10SM CLR 32/19 A2998 970 46 3100 230/06 RMK AO2
14926KSTC STC20050715104509307/15/05 10:45:31  5-MIN KSTC 151645Z 25010KT 10SM CLR 32/19 A2998 970 44 3200 240/10 RMK AO2
14926KSTC STC20050715105011007/15/05 10:50:31  5-MIN KSTC 151650Z 26011KT 10SM CLR 32/19 A2998 970 44 3200 260/11 RMK AO2 SLP154 T03220189
14926KSTC STC20050715105509307/15/05 10:55:31  5-MIN KSTC 151655Z 26009KT 10SM CLR 32/19 A2998 970 44 3200 250/09 RMK AO2
14926KSTC STC20050715110009607/15/05 11:00:31  5-MIN KSTC 151700Z 26008KT 10SM FEW046 32/19 A2998 970 44 3200 250/08 RMK AO2
14926KSTC STC20050715110511207/15/05 11:05:31  5-MIN KSTC 151705Z 23010KT 190V260 10SM FEW046 33/19 A2998 970 42 3300 230/10 190V260 RMK AO2
14926KSTC STC20050715111009607/15/05 11:10:31  5-MIN KSTC 151710Z 24007KT 10SM FEW046 32/19 A2998 970 46 3200 240/07 RMK AO2
14926KSTC STC20050715111509607/15/05 11:15:31  5-MIN KSTC 151715Z 25009KT 10SM FEW046 33/19 A2998 970 43 3200 250/09 RMK AO2
14926KSTC STC20050715112009607/15/05 11:20:31  5-MIN KSTC 151720Z 24009KT 10SM FEW046 32/19 A2998 970 44 3200 240/09 RMK AO2
14926KSTC STC20050715112509607/15/05 11:25:31  5-MIN KSTC 151725Z 24009KT 10SM FEW046 33/19 A2998 970 43 3200 240/09 RMK AO2
14926KSTC STC20050715113009607/15/05 11:30:31  5-MIN KSTC 151730Z 25008KT 10SM FEW065 33/18 A2998 970 40 3300 250/08 RMK AO2
14926KSTC STC20050715113509607/15/05 11:35:31  5-MIN KSTC 151735Z 24009KT 10SM FEW050 33/18 A2998 970 41 3300 230/09 RMK AO2
14926KSTC STC20050715114009607/15/05 11:40:31  5-MIN KSTC 151740Z 26011KT 10SM FEW050 32/19 A2998 970 44 3200 250/11 RMK AO2
14926KSTC STC20050715114510307/15/05 11:45:31  5-MIN KSTC 151745Z 26007KT 10SM FEW050 SCT070 32/19 A2998 970 46 3100 260/07 RMK AO2
14926KSTC STC20050715115013807/15/05 11:50:31  5-MIN KSTC 151750Z 27008KT 10SM SCT048 BKN065 32/19 A2998 970 46 3100 260/08 RMK AO2 SLP152 T03170189 10333 20211 55002
14926KSTC STC20050715115510307/15/05 11:55:31  5-MIN KSTC 151755Z 25006KT 10SM SCT048 BKN070 32/19 A2998 970 46 3100 250/06 RMK AO2
14926KSTC STC20050715120010307/15/05 12:00:31  5-MIN KSTC 151800Z 23007KT 10SM SCT048 BKN070 32/19 A2998 970 44 3200 230/07 RMK AO2
14926KSTC STC20050715120510307/15/05 12:05:31  5-MIN KSTC 151805Z 25009KT 10SM SCT048 BKN070 32/19 A2998 970 44 3200 250/09 RMK AO2
14926KSTC STC20050715121010307/15/05 12:10:31  5-MIN KSTC 151810Z 26007KT 10SM BKN048 BKN065 32/19 A2998 970 46 3100 260/07 RMK AO2
14926KSTC STC20050715121511007/15/05 12:15:31  5-MIN KSTC 151815Z 26007KT 10SM SCT048 BKN060 BKN075 32/18 A2998 970 44 3100 250/07 RMK AO2
14926KSTC STC20050715122010307/15/05 12:20:31  5-MIN KSTC 151820Z 24006KT 10SM SCT050 BKN070 32/18 A2997 980 44 3100 240/06 RMK AO2
14926KSTC STC20050715122510307/15/05 12:25:31  5-MIN KSTC 151825Z 25006KT 10SM BKN050 BKN065 32/19 A2997 980 46 3100 250/06 RMK AO2
14926KSTC STC20050715123011007/15/05 12:30:31  5-MIN KSTC 151830Z 26007KT 10SM BKN050 BKN065 BKN080 32/19 A2997 980 46 3100 250/07 RMK AO2
14926KSTC STC20050715123511007/15/05 12:35:31  5-MIN KSTC 151835Z 25008KT 10SM SCT050 BKN065 BKN080 32/19 A2997 980 46 3100 240/08 RMK AO2
14926KSTC STC20050715124011007/15/05 12:40:31  5-MIN KSTC 151840Z 24007KT 10SM FEW050 SCT060 BKN080 32/18 A2997 980 43 3200 240/07 RMK AO2
14926KSTC STC20050716054510407/16/05 05:45:31  5-MIN KSTC 161145Z AUTO 15005KT 6SM BR BKN065 23/21 A2992 1020 87 2300 140/05 RMK AO2
14926KSTC STC20050716055013907/16/05 05:50:31  5-MIN KSTC 161150Z AUTO 15005KT 6SM HZ BKN070 24/21 A2992 1020 84 2300 150/05 RMK AO2 SLP133 T02390211 10239 20217 56005
14926KSTC STC20050716055509907/16/05 05:55:31  5-MIN KSTC 161155Z 15005KT 6SM HZ BKN065 24/21 A2992 1030 84 2300 150/05 RMK AO2
14926KSTC STC20050716060010607/16/05 06:00:31  5-MIN KSTC 161200Z 15005KT 6SM HZ BKN065 BKN080 24/21 A2992 1030 84 2300 140/05 RMK AO2
14926KSTC STC20050716060510607/16/05 06:05:31  5-MIN KSTC 161205Z 15004KT 6SM HZ BKN065 BKN080 24/21 A2992 1030 84 2300 140/04 RMK AO2
14926KSTC STC20050716061010607/16/05 06:10:31  5-MIN KSTC 161210Z 14004KT 6SM HZ BKN065 BKN080 24/21 A2992 1030 84 2300 140/04 RMK AO2
14926KSTC STC20050716061510607/16/05 06:15:31  5-MIN KSTC 161215Z 15004KT 6SM HZ BKN060 BKN075 24/21 A2992 1030 81 2400 140/04 RMK AO2
14926KSTC STC20050716062010607/16/05 06:20:31  5-MIN KSTC 161220Z 15004KT 6SM HZ BKN060 BKN080 24/21 A2992 1030 81 2400 150/04 RMK AO2
14926KSTC STC20050716062509907/16/05 06:25:31  5-MIN KSTC 161225Z 16004KT 6SM HZ BKN060 24/21 A2992 1030 81 2400 160/04 RMK AO2
14926KSTC STC20050716063009907/16/05 06:30:31  5-MIN KSTC 161230Z 16005KT 6SM HZ BKN060 25/21 A2992 1030 79 2500 160/05 RMK AO2
14926KSTC STC20050716063509907/16/05 06:35:31  5-MIN KSTC 161235Z 16006KT 6SM HZ OVC060 25/21 A2992 1030 79 2500 160/06 RMK AO2
14926KSTC STC20050716064009607/16/05 06:40:31  5-MIN KSTC 161240Z 17005KT 7SM OVC060 26/21 A2992 1030 76 2500 170/05 RMK AO2
14926KSTC STC20050716064509607/16/05 06:45:31  5-MIN KSTC 161245Z 18006KT 7SM OVC065 26/21 A2992 1030 76 2500 180/06 RMK AO2
14926KSTC STC20050716065011307/16/05 06:50:31  5-MIN KSTC 161250Z 18006KT 7SM BKN065 26/21 A2992 1030 76 2500 180/06 RMK AO2 SLP131 T02560211
14926KSTC STC20050716065509607/16/05 06:55:31  5-MIN KSTC 161255Z 18006KT 7SM BKN065 26/21 A2992 1030 76 2500 180/06 RMK AO2
14926KSTC STC20050716070009607/16/05 07:00:31  5-MIN KSTC 161300Z 18006KT 7SM SCT065 26/21 A2992 1030 76 2500 180/06 RMK AO2
14926KSTC STC20050716070509607/16/05 07:05:31  5-MIN KSTC 161305Z 18006KT 7SM SCT065 26/21 A2992 1030 76 2500 180/06 RMK AO2
14926KSTC STC20050716071009607/16/05 07:10:31  5-MIN KSTC 161310Z 18007KT 7SM SCT065 26/21 A2992 1030 73 2600 180/07 RMK AO2
14926KSTC STC20050716071509607/16/05 07:15:31  5-MIN KSTC 161315Z 18006KT 7SM SCT065 26/21 A2992 1030 73 2600 180/06 RMK AO2
14926KSTC STC20050716072009607/16/05 07:20:31  5-MIN KSTC 161320Z 17006KT 7SM SCT065 26/21 A2992 1030 73 2600 170/06 RMK AO2
14926KSTC STC20050716072509607/16/05 07:25:31  5-MIN KSTC 161325Z 18005KT 7SM SCT065 26/21 A2992 1030 73 2600 180/05 RMK AO2
14926KSTC STC20050716073009607/16/05 07:30:31  5-MIN KSTC 161330Z 18006KT 7SM SCT065 26/21 A2992 1020 73 2600 170/06 RMK AO2
14926KSTC STC20050716073509607/16/05 07:35:31  5-MIN KSTC 161335Z 17006KT 8SM BKN065 27/21 A2992 1020 71 2600 170/06 RMK AO2
14926KSTC STC20050716074009607/16/05 07:40:31  5-MIN KSTC 161340Z 18008KT 8SM BKN065 27/21 A2992 1020 71 2600 170/08 RMK AO2
14926KSTC STC20050716074509607/16/05 07:45:31  5-MIN KSTC 161345Z 17006KT 8SM BKN065 27/21 A2993 1020 71 2600 170/06 RMK AO2
14926KSTC STC20050716075012907/16/05 07:50:31  5-MIN KSTC 161350Z 18007KT 150V220 8SM SCT065 27/21 A2993 1020 69 2700 180/07 150V220 RMK AO2 SLP133 T02720211
14926KSTC STC20050716075509607/16/05 07:55:31  5-MIN KSTC 161355Z 17007KT 8SM SCT065 27/21 A2993 1020 69 2700 170/07 RMK AO2
14926KSTC STC20050716080009607/16/05 08:00:31  5-MIN KSTC 161400Z 17008KT 8SM SCT060 27/21 A2993 1020 69 2700 160/08 RMK AO2
14926KSTC STC20050716080509607/16/05 08:05:31  5-MIN KSTC 161405Z 17008KT 8SM BKN060 28/21 A2992 1020 66 2800 170/08 RMK AO2
14926KSTC STC20050716081009607/16/05 08:10:31  5-MIN KSTC 161410Z 18008KT 8SM BKN060 28/21 A2992 1030 64 2800 180/08 RMK AO2
14926KSTC STC20050716081509607/16/05 08:15:31  5-MIN KSTC 161415Z 18009KT 9SM BKN060 28/21 A2992 1030 64 2800 180/09 RMK AO2
14926KSTC STC20050716082009607/16/05 08:20:31  5-MIN KSTC 161420Z 19008KT 9SM BKN060 28/21 A2992 1030 64 2800 180/08 RMK AO2
14926KSTC STC20050716082509607/16/05 08:25:31  5-MIN KSTC 161425Z 19008KT 9SM BKN060 28/21 A2992 1030 62 2800 190/08 RMK AO2
14926KSTC STC20050716083009607/16/05 08:30:31  5-MIN KSTC 161430Z 20009KT 9SM BKN060 28/21 A2992 1030 64 2800 190/09 RMK AO2
14926KSTC STC20050716083509607/16/05 08:35:31  5-MIN KSTC 161435Z 19008KT 9SM BKN060 29/21 A2992 1030 62 2900 190/08 RMK AO2
14926KSTC STC20050716084009607/16/05 08:40:31  5-MIN KSTC 161440Z 19009KT 9SM SCT060 29/21 A2991 1030 62 2900 190/09 RMK AO2
14926KSTC STC20050716084509607/16/05 08:45:31  5-MIN KSTC 161445Z 19007KT 9SM SCT060 29/21 A2991 1040 62 2900 180/07 RMK AO2
14926KSTC STC20050716085011907/16/05 08:50:31  5-MIN KSTC 161450Z 18010KT 9SM FEW060 29/21 A2991 1040 62 2900 180/10 RMK AO2 SLP127 T02890211 58002
14926KSTC STC20050716085509607/16/05 08:55:31  5-MIN KSTC 161455Z 19010KT 9SM FEW065 29/21 A2991 1040 62 2900 190/10 RMK AO2
14926KSTC STC20050716090009307/16/05 09:00:31  5-MIN KSTC 161500Z 19010KT 9SM CLR 29/21 A2990 1040 62 2900 190/10 RMK AO2
14926KSTC STC20050716090509307/16/05 09:05:31  5-MIN KSTC 161505Z 17011KT 9SM CLR 29/21 A2990 1040 58 3000 170/11 RMK AO2
14926KSTC STC20050716091009407/16/05 09:10:31  5-MIN KSTC 161510Z 19010KT 10SM CLR 29/21 A2990 1040 58 3000 180/10 RMK AO2
14926KSTC STC20050716091509407/16/05 09:15:31  5-MIN KSTC 161515Z 19012KT 10SM CLR 29/21 A2990 1050 58 3000 190/12 RMK AO2
14926KSTC STC20050716092009407/16/05 09:20:31  5-MIN KSTC 161520Z 18010KT 10SM CLR 29/21 A2990 1050 58 3000 180/10 RMK AO2
14926KSTC STC20050716092509407/16/05 09:25:31  5-MIN KSTC 161525Z 19010KT 10SM CLR 30/21 A2989 1050 56 3000 180/10 RMK AO2
14926KSTC STC20050716093009407/16/05 09:30:31  5-MIN KSTC 161530Z 20009KT 10SM CLR 30/21 A2989 1050 56 3000 200/09 RMK AO2
14926KSTC STC20050716093509407/16/05 09:35:31  5-MIN KSTC 161535Z 20010KT 10SM CLR 30/21 A2989 1050 56 3000 200/10 RMK AO2
14926KSTC STC20050716094009407/16/05 09:40:31  5-MIN KSTC 161540Z 19010KT 10SM CLR 31/21 A2989 1050 54 3100 190/10 RMK AO2
14926KSTC STC20050716094509407/16/05 09:45:31  5-MIN KSTC 161545Z 19011KT 10SM CLR 31/21 A2989 1050 54 3100 180/11 RMK AO2
14926KSTC STC20050716095011107/16/05 09:50:31  5-MIN KSTC 161550Z 19010KT 10SM CLR 30/21 A2989 1060 56 3000 190/10 RMK AO2 SLP121 T03000206
14926KSTC STC20050716095509407/16/05 09:55:31  5-MIN KSTC 161555Z 19010KT 10SM CLR 31/21 A2989 1060 54 3100 190/10 RMK AO2
14926KSTC STC20050716100009407/16/05 10:00:31  5-MIN KSTC 161600Z 19011KT 10SM CLR 31/21 A2989 1060 54 3100 180/11 RMK AO2
14926KSTC STC20050716100509407/16/05 10:05:31  5-MIN KSTC 161605Z 20011KT 10SM CLR 31/21 A2989 1060 54 3100 200/11 RMK AO2
14926KSTC STC20050716101009407/16/05 10:10:31  5-MIN KSTC 161610Z 18011KT 10SM CLR 31/21 A2989 1060 54 3100 180/11 RMK AO2
14926KSTC STC20050716101509407/16/05 10:15:31  5-MIN KSTC 161615Z 20012KT 10SM CLR 31/21 A2989 1060 53 3200 190/12 RMK AO2
14926KSTC STC20050716102009407/16/05 10:20:31  5-MIN KSTC 161620Z 19011KT 10SM CLR 31/21 A2988 1060 53 3200 190/11 RMK AO2
14926KSTC STC20050716102509407/16/05 10:25:31  5-MIN KSTC 161625Z 18010KT 10SM CLR 31/21 A2988 1060 53 3200 180/10 RMK AO2
14926KSTC STC20050716103009407/16/05 10:30:31  5-MIN KSTC 161630Z 20011KT 10SM CLR 32/21 A2988 1060 51 3200 200/11 RMK AO2
14926KSTC STC20050716103509407/16/05 10:35:31  5-MIN KSTC 161635Z 18011KT 10SM CLR 32/21 A2988 1060 51 3200 180/11 RMK AO2
14926KSTC STC20050716104009407/16/05 10:40:31  5-MIN KSTC 161640Z 18010KT 10SM CLR 32/21 A2988 1060 51 3200 180/10 RMK AO2
14926KSTC STC20050716104509407/16/05 10:45:31  5-MIN KSTC 161645Z 17009KT 10SM CLR 32/21 A2988 1060 53 3200 170/09 RMK AO2
14926KSTC STC20050716105011107/16/05 10:50:31  5-MIN KSTC 161650Z 18010KT 10SM CLR 32/21 A2989 1060 53 3200 180/10 RMK AO2 SLP120 T03170211
14926KSTC STC20050716105509407/16/05 10:55:31  5-MIN KSTC 161655Z 19010KT 10SM CLR 32/21 A2989 1060 51 3200 180/10 RMK AO2
14926KSTC STC20050716110009407/16/05 11:00:31  5-MIN KSTC 161700Z 19011KT 10SM CLR 32/21 A2989 1060 51 3200 180/11 RMK AO2
14926KSTC STC20050716110509407/16/05 11:05:31  5-MIN KSTC 161705Z 19009KT 10SM CLR 32/21 A2989 1060 51 3200 180/09 RMK AO2
14926KSTC STC20050716111009407/16/05 11:10:31  5-MIN KSTC 161710Z 19011KT 10SM CLR 32/21 A2988 1060 51 3300 190/11 RMK AO2
14926KSTC STC20050716111509407/16/05 11:15:31  5-MIN KSTC 161715Z 18010KT 10SM CLR 33/21 A2988 1060 48 3400 180/10 RMK AO2
14926KSTC STC20050716112009407/16/05 11:20:31  5-MIN KSTC 161720Z 19012KT 10SM CLR 32/21 A2988 1070 49 3300 180/12 RMK AO2
14926KSTC STC20050716112509407/16/05 11:25:31  5-MIN KSTC 161725Z 19012KT 10SM CLR 33/21 A2988 1070 48 3400 190/12 RMK AO2
14926KSTC STC20050716113009407/16/05 11:30:31  5-MIN KSTC 161730Z 18009KT 10SM CLR 32/21 A2987 1070 51 3300 180/09 RMK AO2
14926KSTC STC20050716113509407/16/05 11:35:31  5-MIN KSTC 161735Z 18010KT 10SM CLR 33/21 A2987 1070 48 3400 180/10 RMK AO2
14926KSTC STC20050716114009407/16/05 11:40:31  5-MIN KSTC 161740Z 19010KT 10SM CLR 33/21 A2987 1070 48 3400 190/10 RMK AO2
14926KSTC STC20050716114509407/16/05 11:45:31  5-MIN KSTC 161745Z 19010KT 10SM CLR 33/21 A2987 1070 46 3400 190/10 RMK AO2
14926KSTC STC20050716115012907/16/05 11:50:31  5-MIN KSTC 161750Z 19010KT 10SM CLR 34/21 A2987 1070 45 3500 190/10 RMK AO2 SLP114 T03390206 10339 20239 58005
14926KSTC STC20050716115509407/16/05 11:55:31  5-MIN KSTC 161755Z 18011KT 10SM CLR 34/21 A2987 1070 45 3500 180/11 RMK AO2
14926KSTC STC20050716120009407/16/05 12:00:31  5-MIN KSTC 161800Z 19011KT 10SM CLR 33/21 A2987 1080 46 3400 180/11 RMK AO2
14926KSTC STC20050716120509407/16/05 12:05:31  5-MIN KSTC 161805Z 19012KT 10SM CLR 34/21 A2987 1080 45 3500 190/12 RMK AO2
14926KSTC STC20050716121009407/16/05 12:10:31  5-MIN KSTC 161810Z 18011KT 10SM CLR 34/21 A2987 1080 45 3500 170/11 RMK AO2
14926KSTC STC20050716121509407/16/05 12:15:31  5-MIN KSTC 161815Z 19013KT 10SM CLR 34/21 A2987 1080 45 3500 190/13 RMK AO2
14926KSTC STC20050716122009407/16/05 12:20:31  5-MIN KSTC 161820Z 20011KT 10SM CLR 34/20 A2986 1080 43 3500 200/11 RMK AO2
14926KSTC STC20050716122510007/16/05 12:25:31  5-MIN KSTC 161825Z 17011G16KT 10SM CLR 34/21 A2987 1080 45 3500 160/11G16 RMK AO2
14926KSTC STC20050716123010007/16/05 12:30:31  5-MIN KSTC 161830Z 19010G16KT 10SM CLR 34/21 A2986 1080 43 3600 180/10G16 RMK AO2
14926KSTC STC20050716123509407/16/05 12:35:31  5-MIN KSTC 161835Z 18012KT 10SM CLR 34/21 A2986 1080 43 3600 180/12 RMK AO2
14926KSTC STC20050716124009407/16/05 12:40:31  5-MIN KSTC 161840Z 19011KT 10SM CLR 35/21 A2986 1080 42 3600 190/11 RMK AO2
14926KSTC STC20050716124509407/16/05 12:45:31  5-MIN KSTC 161845Z 19011KT 10SM CLR 34/20 A2986 1080 42 3600 190/11 RMK AO2
14926KSTC STC20050716125011107/16/05 12:50:31  5-MIN KSTC 161850Z 19013KT 10SM CLR 34/20 A2986 1080 42 3600 180/13 RMK AO2 SLP110 T03440200
14926KSTC STC20050716125509407/16/05 12:55:31  5-MIN KSTC 161855Z 19013KT 10SM CLR 34/21 A2986 1080 43 3600 180/13 RMK AO2
14926KSTC STC20050716130009407/16/05 13:00:31  5-MIN KSTC 161900Z 19014KT 10SM CLR 34/20 A2986 1080 42 3600 190/14 RMK AO2
14926KSTC STC20050716130510007/16/05 13:05:31  5-MIN KSTC 161905Z 19012G18KT 10SM CLR 35/20 A2986 1080 40 3600 180/12G18 RMK AO2
14926KSTC STC20050716131010007/16/05 13:10:31  5-MIN KSTC 161910Z 18014G18KT 10SM CLR 35/20 A2986 1080 40 3600 170/14G18 RMK AO2
14926KSTC STC20050716131510007/16/05 13:15:31  5-MIN KSTC 161915Z 17013G19KT 10SM CLR 34/20 A2986 1080 42 3600 170/13G19 RMK AO2
14926KSTC STC20050716132009407/16/05 13:20:31  5-MIN KSTC 161920Z 19017KT 10SM CLR 35/20 A2986 1080 40 3600 180/17 RMK AO2
14926KSTC STC20050716132509407/16/05 13:25:31  5-MIN KSTC 161925Z 19013KT 10SM CLR 34/20 A2986 1090 42 3600 190/13 RMK AO2
14926KSTC STC20050716133009407/16/05 13:30:31  5-MIN KSTC 161930Z 18012KT 10SM CLR 34/20 A2985 1090 42 3600 180/12 RMK AO2
14926KSTC STC20050716133509407/16/05 13:35:31  5-MIN KSTC 161935Z 19013KT 10SM CLR 34/21 A2985 1090 43 3600 190/13 RMK AO2
14926KSTC STC20050716134010007/16/05 13:40:31  5-MIN KSTC 161940Z 19012G17KT 10SM CLR 36/21 A2985 1090 41 3700 190/12G17 RMK AO2
14926KSTC STC20050716134510307/16/05 13:45:31  5-MIN KSTC 161945Z 19013G18KT 10SM FEW085 35/21 A2985 1090 42 3600 190/13G18 RMK AO2
14926KSTC STC20050716135011407/16/05 13:50:31  5-MIN KSTC 161950Z 18015KT 10SM FEW085 35/20 A2985 1090 40 3600 180/15 RMK AO2 SLP108 T03500200
14926KSTC STC20050716135509707/16/05 13:55:31  5-MIN KSTC 161955Z 19017KT 10SM FEW085 34/19 A2985 1090 40 3600 190/17 RMK AO2
14926KSTC STC20050716140009707/16/05 14:00:31  5-MIN KSTC 162000Z 20015KT 10SM FEW085 36/20 A2985 1090 39 3700 200/15 RMK AO2
14926KSTC STC20050716140510307/16/05 14:05:31  5-MIN KSTC 162005Z 20016G21KT 10SM FEW085 35/19 A2985 1090 39 3600 190/16G21 RMK AO2
14926KSTC STC20050716141010307/16/05 14:10:31  5-MIN KSTC 162010Z 19014G21KT 10SM FEW085 35/19 A2984 1100 38 3600 190/14G21 RMK AO2
14926KSTC STC20050716141509407/16/05 14:15:31  5-MIN KSTC 162015Z 19013KT 10SM CLR 36/21 A2984 1100 41 3700 190/13 RMK AO2
14926KSTC STC20050716142009407/16/05 14:20:31  5-MIN KSTC 162020Z 20016KT 10SM CLR 35/20 A2984 1100 40 3600 190/16 RMK AO2
14926KSTC STC20050716142510007/16/05 14:25:31  5-MIN KSTC 162025Z 19013G18KT 10SM CLR 35/20 A2984 1100 40 3600 190/13G18 RMK AO2
14926KSTC STC20050716143010007/16/05 14:30:31  5-MIN KSTC 162030Z 18016G21KT 10SM CLR 35/21 A2984 1100 42 3600 170/16G21 RMK AO2
14926KSTC STC20050716143510007/16/05 14:35:31  5-MIN KSTC 162035Z 17012G21KT 10SM CLR 35/21 A2984 1100 42 3700 170/12G21 RMK AO2
14926KSTC STC20050716144010007/16/05 14:40:31  5-MIN KSTC 162040Z 18014G18KT 10SM CLR 35/21 A2984 1100 42 3700 170/14G18 RMK AO2
14926KSTC STC20050716144510007/16/05 14:45:31  5-MIN KSTC 162045Z 19014G21KT 10SM CLR 35/21 A2984 1110 42 3700 190/14G21 RMK AO2
14926KSTC STC20050716145012307/16/05 14:50:31  5-MIN KSTC 162050Z 19012G21KT 10SM CLR 36/21 A2983 1110 42 3700 190/12G21 RMK AO2 SLP101 T03560211 56013
14926KSTC STC20050716145509407/16/05 14:55:31  5-MIN KSTC 162055Z 18012KT 10SM CLR 36/21 A2983 1110 42 3700 180/12 RMK AO2
14926KSTC STC20050716150009407/16/05 15:00:31  5-MIN KSTC 162100Z 20015KT 10SM CLR 35/21 A2983 1110 42 3700 190/15 RMK AO2
14926KSTC STC20050716150509407/16/05 15:05:31  5-MIN KSTC 162105Z 18014KT 10SM CLR 35/21 A2983 1110 42 3700 180/14 RMK AO2
14926KSTC STC20050716151009407/16/05 15:10:31  5-MIN KSTC 162110Z 19015KT 10SM CLR 34/21 A2983 1110 43 3600 190/15 RMK AO2
14926KSTC STC20050716151510007/16/05 15:15:31  5-MIN KSTC 162115Z 19017G21KT 10SM CLR 35/21 A2983 1110 42 3700 190/17G21 RMK AO2
14926KSTC STC20050716152010007/16/05 15:20:31  5-MIN KSTC 162120Z 19012G21KT 10SM CLR 35/21 A2983 1110 43 3700 180/12G21 RMK AO2
14926KSTC STC20050716152509407/16/05 15:25:31  5-MIN KSTC 162125Z 18013KT 10SM CLR 34/21 A2982 1120 43 3600 180/13 RMK AO2
14926KSTC STC20050716153009407/16/05 15:30:31  5-MIN KSTC 162130Z 19013KT 10SM CLR 35/21 A2982 1120 43 3700 180/13 RMK AO2
14926KSTC STC20050716153510007/16/05 15:35:31  5-MIN KSTC 162135Z 19014G21KT 10SM CLR 34/21 A2982 1120 43 3600 190/14G21 RMK AO2
14926KSTC STC20050716154010007/16/05 15:40:31  5-MIN KSTC 162140Z 17015G21KT 10SM CLR 34/21 A2982 1120 43 3600 170/15G21 RMK AO2
14926KSTC STC20050716154509407/16/05 15:45:31  5-MIN KSTC 162145Z 19011KT 10SM CLR 34/21 A2982 1120 43 3600 190/11 RMK AO2
14926KSTC STC20050716155011107/16/05 15:50:31  5-MIN KSTC 162150Z 20015KT 10SM CLR 34/21 A2982 1120 45 3600 200/15 RMK AO2 SLP099 T03440211
14926KSTC STC20050716155509407/16/05 15:55:31  5-MIN KSTC 162155Z 18012KT 10SM CLR 35/21 A2982 1120 42 3700 180/12 RMK AO2
14926KSTC STC20050716160010007/16/05 16:00:31  5-MIN KSTC 162200Z 18014G19KT 10SM CLR 34/21 A2982 1120 43 3600 170/14G19 RMK AO2
14926KSTC STC20050716160510007/16/05 16:05:31  5-MIN KSTC 162205Z 18015G19KT 10SM CLR 35/21 A2982 1120 42 3700 180/15G19 RMK AO2
14926KSTC STC20050716161010007/16/05 16:10:31  5-MIN KSTC 162210Z 18013G19KT 10SM CLR 35/21 A2981 1130 42 3700 180/13G19 RMK AO2
14926KSTC STC20050716161510007/16/05 16:15:31  5-MIN KSTC 162215Z 19012G20KT 10SM CLR 34/21 A2981 1130 43 3600 190/12G20 RMK AO2
14926KSTC STC20050716162010007/16/05 16:20:31  5-MIN KSTC 162220Z 19016G20KT 10SM CLR 34/21 A2981 1120 43 3600 190/16G20 RMK AO2
14926KSTC STC20050716162509407/16/05 16:25:31  5-MIN KSTC 162225Z 19014KT 10SM CLR 34/21 A2982 1120 45 3600 190/14 RMK AO2
14926KSTC STC20050716163009307/16/05 16:30:31  5-MIN KSTC 162230Z 19013KT 9SM CLR 34/21 A2982 1120 45 3600 180/13 RMK AO2
14926KSTC STC20050716163509907/16/05 16:35:31  5-MIN KSTC 162235Z 18010G17KT 9SM CLR 34/21 A2982 1120 45 3600 180/10G17 RMK AO2
14926KSTC STC20050716164009307/16/05 16:40:31  5-MIN KSTC 162240Z 19009KT 9SM CLR 34/22 A2982 1120 46 3600 180/09 RMK AO2
14926KSTC STC20050716164509907/16/05 16:45:31  5-MIN KSTC 162245Z 19015G19KT 9SM CLR 34/22 A2981 1120 46 3600 180/15G19 RMK AO2
14926KSTC STC20050716165011607/16/05 16:50:31  5-MIN KSTC 162250Z 19012G19KT 9SM CLR 34/22 A2982 1120 48 3600 190/12G19 RMK AO2 SLP095 T03390217
14926KSTC STC20050716165509307/16/05 16:55:31  5-MIN KSTC 162255Z 18011KT 9SM CLR 34/22 A2982 1120 48 3600 180/11 RMK AO2
14926KSTC STC20050716170009307/16/05 17:00:31  5-MIN KSTC 162300Z 19015KT 8SM CLR 34/22 A2981 1120 48 3600 180/15 RMK AO2
14926KSTC STC20050716170509307/16/05 17:05:31  5-MIN KSTC 162305Z 19013KT 8SM CLR 34/22 A2981 1130 48 3600 180/13 RMK AO2
14926KSTC STC20050716171009307/16/05 17:10:31  5-MIN KSTC 162310Z 19015KT 8SM CLR 34/22 A2981 1130 48 3600 180/15 RMK AO2
14926KSTC STC20050716171509907/16/05 17:15:31  5-MIN KSTC 162315Z 17012G18KT 8SM CLR 34/22 A2980 1130 50 3600 170/12G18 RMK AO2
14926KSTC STC20050716172009907/16/05 17:20:31  5-MIN KSTC 162320Z 18012G18KT 8SM CLR 34/22 A2981 1130 48 3600 180/12G18 RMK AO2
14926KSTC STC20050716172509307/16/05 17:25:31  5-MIN KSTC 162325Z 18013KT 8SM CLR 34/22 A2981 1130 50 3600 180/13 RMK AO2
14926KSTC STC20050716173009307/16/05 17:30:31  5-MIN KSTC 162330Z 18013KT 8SM CLR 33/22 A2980 1130 50 3500 170/13 RMK AO2
14926KSTC STC20050716173509307/16/05 17:35:31  5-MIN KSTC 162335Z 19012KT 8SM CLR 33/22 A2981 1130 50 3500 180/12 RMK AO2
14926KSTC STC20050716174009307/16/05 17:40:31  5-MIN KSTC 162340Z 18013KT 8SM CLR 33/22 A2981 1130 51 3500 180/13 RMK AO2
14926KSTC STC20050716174509307/16/05 17:45:31  5-MIN KSTC 162345Z 19011KT 8SM CLR 33/22 A2981 1130 53 3400 180/11 RMK AO2
14926KSTC STC20050716175012807/16/05 17:50:31  5-MIN KSTC 162350Z 19009KT 8SM CLR 33/22 A2981 1130 53 3400 180/09 RMK AO2 SLP095 T03280222 10356 20328 58012
14926KSTC STC20050716175509307/16/05 17:55:31  5-MIN KSTC 162355Z 17008KT 8SM CLR 33/22 A2982 1120 53 3400 170/08 RMK AO2
14926KSTC STC20050716180009307/16/05 18:00:31  5-MIN KSTC 170000Z 18008KT 8SM CLR 33/22 A2982 1120 53 3400 180/08 RMK AO2
14926KSTC STC20050716180509307/16/05 18:05:31  5-MIN KSTC 170005Z 17009KT 8SM CLR 33/22 A2981 1130 53 3400 160/09 RMK AO2
14926KSTC STC20050716181009307/16/05 18:10:31  5-MIN KSTC 170010Z 17008KT 8SM CLR 33/22 A2981 1130 53 3400 160/08 RMK AO2
14926KSTC STC20050716181509307/16/05 18:15:31  5-MIN KSTC 170015Z 17008KT 8SM CLR 32/22 A2981 1130 55 3400 170/08 RMK AO2
14926KSTC STC20050716182009307/16/05 18:20:31  5-MIN KSTC 170020Z 17009KT 7SM CLR 32/22 A2981 1130 55 3400 160/09 RMK AO2
14926KSTC STC20050716182509307/16/05 18:25:31  5-MIN KSTC 170025Z 17007KT 7SM CLR 32/22 A2981 1130 55 3400 160/07 RMK AO2
14926KSTC STC20050716183009307/16/05 18:30:31  5-MIN KSTC 170030Z 17009KT 7SM CLR 32/22 A2981 1130 55 3400 170/09 RMK AO2
14926KSTC STC20050716183509307/16/05 18:35:31  5-MIN KSTC 170035Z 17007KT 7SM CLR 32/22 A2981 1130 55 3400 160/07 RMK AO2
14926KSTC STC20050716184009307/16/05 18:40:31  5-MIN KSTC 170040Z 17008KT 7SM CLR 32/22 A2981 1130 55 3400 170/08 RMK AO2
14926KSTC STC20050716184509307/16/05 18:45:31  5-MIN KSTC 170045Z 17009KT 7SM CLR 32/22 A2981 1130 56 3300 160/09 RMK AO2
14926KSTC STC20050716185011007/16/05 18:50:31  5-MIN KSTC 170050Z 17008KT 7SM CLR 32/23 A2981 1130 58 3300 160/08 RMK AO2 SLP093 T03170228
14926KSTC STC20050716185509307/16/05 18:55:31  5-MIN KSTC 170055Z 17007KT 7SM CLR 32/23 A2981 1130 58 3300 160/07 RMK AO2
14926KSTC STC20050716190009307/16/05 19:00:31  5-MIN KSTC 170100Z 16008KT 7SM CLR 31/23 A2981 1130 60 3300 160/08 RMK AO2
14926KSTC STC20050716190509307/16/05 19:05:31  5-MIN KSTC 170105Z 16007KT 7SM CLR 31/23 A2981 1130 60 3300 160/07 RMK AO2
14926KSTC STC20050716191009307/16/05 19:10:31  5-MIN KSTC 170110Z 16009KT 7SM CLR 31/23 A2980 1130 60 3300 160/09 RMK AO2
14926KSTC STC20050716191509307/16/05 19:15:31  5-MIN KSTC 170115Z 16008KT 7SM CLR 31/23 A2981 1130 60 3300 160/08 RMK AO2
14926KSTC STC20050716192009307/16/05 19:20:31  5-MIN KSTC 170120Z 16007KT 7SM CLR 31/23 A2981 1130 62 3200 160/07 RMK AO2
14926KSTC STC20050716192509307/16/05 19:25:31  5-MIN KSTC 170125Z 16008KT 7SM CLR 31/23 A2981 1130 62 3200 160/08 RMK AO2
14926KSTC STC20050716193009307/16/05 19:30:31  5-MIN KSTC 170130Z 17009KT 7SM CLR 31/23 A2981 1130 62 3200 160/09 RMK AO2
14926KSTC STC20050716193509307/16/05 19:35:31  5-MIN KSTC 170135Z 17009KT 7SM CLR 31/23 A2981 1130 62 3200 160/09 RMK AO2
14926KSTC STC20050716194009307/16/05 19:40:31  5-MIN KSTC 170140Z 16009KT 7SM CLR 31/23 A2981 1130 62 3200 160/09 RMK AO2
14926KSTC STC20050716194509307/16/05 19:45:31  5-MIN KSTC 170145Z 16008KT 7SM CLR 30/23 A2981 1130 65 3100 160/08 RMK AO2
14926KSTC STC20050716195011007/16/05 19:50:31  5-MIN KSTC 170150Z 16007KT 7SM CLR 30/23 A2981 1130 65 3100 160/07 RMK AO2 SLP093 T03000228
14926KSTC STC20050716195509607/16/05 19:55:31  5-MIN KSTC 170155Z 16008KT 6SM HZ CLR 30/23 A2981 1130 65 3100 160/08 RMK AO2
14926KSTC STC20050716200009907/16/05 20:00:31  5-MIN KSTC 170200Z 16008KT 6SM HZ FEW110 30/23 A2980 1140 65 3100 150/08 RMK AO2
14926KSTC STC20050716200509907/16/05 20:05:31  5-MIN KSTC 170205Z 16008KT 6SM HZ FEW110 29/23 A2981 1130 67 3100 160/08 RMK AO2
14926KSTC STC20050716201009907/16/05 20:10:31  5-MIN KSTC 170210Z 16007KT 6SM HZ FEW110 29/23 A2980 1130 67 3100 150/07 RMK AO2
14926KSTC STC20050716201509607/16/05 20:15:31  5-MIN KSTC 170215Z 15008KT 6SM HZ CLR 29/23 A2980 1130 67 3100 150/08 RMK AO2
14926KSTC STC20050716202009307/16/05 20:20:31  5-MIN KSTC 170220Z 16008KT 7SM CLR 29/23 A2981 1130 69 3000 150/08 RMK AO2
14926KSTC STC20050716202509307/16/05 20:25:31  5-MIN KSTC 170225Z 16007KT 8SM CLR 29/23 A2981 1130 69 3000 150/07 RMK AO2
14926KSTC STC20050716203009307/16/05 20:30:31  5-MIN KSTC 170230Z 16008KT 8SM CLR 29/23 A2981 1130 69 3000 150/08 RMK AO2
14926KSTC STC20050716203509307/16/05 20:35:31  5-MIN KSTC 170235Z 16008KT 8SM CLR 29/23 A2981 1120 69 3000 160/08 RMK AO2
14926KSTC STC20050716204009307/16/05 20:40:31  5-MIN KSTC 170240Z 16008KT 8SM CLR 29/23 A2981 1130 69 3000 160/08 RMK AO2
14926KSTC STC20050716204509307/16/05 20:45:31  5-MIN KSTC 170245Z 16008KT 8SM CLR 29/22 A2981 1120 67 3000 160/08 RMK AO2
14926KSTC STC20050716205011607/16/05 20:50:31  5-MIN KSTC 170250Z 16009KT 8SM CLR 29/22 A2982 1120 67 3000 160/09 RMK AO2 SLP095 T02890222 56006
14926KSTC STC20050716205509307/16/05 20:55:31  5-MIN KSTC 170255Z 16008KT 8SM CLR 29/22 A2981 1120 67 3000 160/08 RMK AO2
14926KSTC STC20050716210009307/16/05 21:00:31  5-MIN KSTC 170300Z 16008KT 8SM CLR 29/22 A2981 1130 67 3000 160/08 RMK AO2
14926KSTC STC20050716210509307/16/05 21:05:31  5-MIN KSTC 170305Z 16009KT 8SM CLR 28/22 A2981 1130 69 3000 150/09 RMK AO2
14926KSTC STC20050716211009307/16/05 21:10:31  5-MIN KSTC 170310Z 16009KT 8SM CLR 28/22 A2981 1130 69 3000 150/09 RMK AO2
14926KSTC STC20050716211509307/16/05 21:15:31  5-MIN KSTC 170315Z 16009KT 8SM CLR 28/22 A2981 1130 69 3000 150/09 RMK AO2
14926KSTC STC20050716212009307/16/05 21:20:31  5-MIN KSTC 170320Z 16011KT 8SM CLR 28/22 A2981 1130 69 3000 160/11 RMK AO2
14926KSTC STC20050716212509307/16/05 21:25:31  5-MIN KSTC 170325Z 16010KT 8SM CLR 29/22 A2981 1130 67 3000 160/10 RMK AO2
14926KSTC STC20050716213009307/16/05 21:30:31  5-MIN KSTC 170330Z 16010KT 8SM CLR 28/22 A2981 1130 69 3000 160/10 RMK AO2
14926KSTC STC20050716213509307/16/05 21:35:31  5-MIN KSTC 170335Z 16009KT 8SM CLR 28/22 A2981 1130 69 3000 160/09 RMK AO2
14926KSTC STC20050716214009307/16/05 21:40:31  5-MIN KSTC 170340Z 16010KT 8SM CLR 28/22 A2981 1130 66 3000 160/10 RMK AO2
14926KSTC STC20050716214509307/16/05 21:45:31  5-MIN KSTC 170345Z 16010KT 8SM CLR 28/22 A2981 1130 66 3000 160/10 RMK AO2
14926KSTC STC20050716215011507/16/05 21:50:31  5-MIN KSTC 170350Z AUTO 16010KT 8SM CLR 28/22 A2980 1130 66 3000 160/10 RMK AO2 SLP091 T02830217
14926KSTC STC20050716215509807/16/05 21:55:31  5-MIN KSTC 170355Z AUTO 16011KT 8SM CLR 28/22 A2980 1140 66 3000 160/11 RMK AO2
14926KSTC STC20050716220009807/16/05 22:00:31  5-MIN KSTC 170400Z AUTO 16010KT 8SM CLR 28/22 A2980 1140 66 3000 160/10 RMK AO2
14926KSTC STC20050716220509807/16/05 22:05:31  5-MIN KSTC 170405Z AUTO 16011KT 8SM CLR 28/22 A2980 1140 66 3000 160/11 RMK AO2
14926KSTC STC20050716221009807/16/05 22:10:31  5-MIN KSTC 170410Z AUTO 16009KT 8SM CLR 28/22 A2980 1140 66 3000 160/09 RMK AO2
14926KSTC STC20050716221509807/16/05 22:15:31  5-MIN KSTC 170415Z AUTO 17011KT 8SM CLR 28/22 A2980 1140 66 3000 160/11 RMK AO2
14926KSTC STC20050716222009807/16/05 22:20:31  5-MIN KSTC 170420Z AUTO 17010KT 8SM CLR 28/21 A2980 1140 64 3000 160/10 RMK AO2
14926KSTC STC20050716222509807/16/05 22:25:31  5-MIN KSTC 170425Z AUTO 16010KT 8SM CLR 28/21 A2980 1140 64 3000 160/10 RMK AO2
14926KSTC STC20050716223009807/16/05 22:30:31  5-MIN KSTC 170430Z AUTO 16010KT 8SM CLR 28/21 A2980 1140 64 3000 160/10 RMK AO2
14926KSTC STC20050716223509807/16/05 22:35:31  5-MIN KSTC 170435Z AUTO 17009KT 8SM CLR 28/21 A2980 1140 64 3000 160/09 RMK AO2
14926KSTC STC20050716224009807/16/05 22:40:31  5-MIN KSTC 170440Z AUTO 17010KT 8SM CLR 28/21 A2980 1140 64 3000 170/10 RMK AO2
14926KSTC STC20050716224509807/16/05 22:45:31  5-MIN KSTC 170445Z AUTO 17010KT 8SM CLR 28/21 A2980 1140 64 3000 160/10 RMK AO2
14926KSTC STC20050716225011507/16/05 22:50:31  5-MIN KSTC 170450Z AUTO 17010KT 8SM CLR 28/21 A2980 1140 64 3000 160/10 RMK AO2 SLP089 T02830211
14926KSTC STC20050716225509807/16/05 22:55:31  5-MIN KSTC 170455Z AUTO 17009KT 8SM CLR 28/21 A2980 1140 64 3000 170/09 RMK AO2
14926KSTC STC20050716230009807/16/05 23:00:31  5-MIN KSTC 170500Z AUTO 17008KT 8SM CLR 28/21 A2980 1130 66 2900 170/08 RMK AO2
14926KSTC STC20050716230509807/16/05 23:05:31  5-MIN KSTC 170505Z AUTO 17007KT 8SM CLR 28/21 A2981 1130 66 2900 170/07 RMK AO2
14926KSTC STC20050716231009807/16/05 23:10:31  5-MIN KSTC 170510Z AUTO 17007KT 8SM CLR 28/21 A2981 1130 66 2900 170/07 RMK AO2
14926KSTC STC20050716231509807/16/05 23:15:31  5-MIN KSTC 170515Z AUTO 17008KT 8SM CLR 28/21 A2981 1130 66 2900 170/08 RMK AO2
14926KSTC STC20050716232009807/16/05 23:20:31  5-MIN KSTC 170520Z AUTO 18007KT 8SM CLR 28/21 A2981 1120 66 2900 170/07 RMK AO2
14926KSTC STC20050716232509807/16/05 23:25:31  5-MIN KSTC 170525Z AUTO 18008KT 8SM CLR 28/21 A2981 1130 66 2900 170/08 RMK AO2
14926KSTC STC20050716233009807/16/05 23:30:31  5-MIN KSTC 170530Z AUTO 17011KT 8SM CLR 28/21 A2981 1130 66 2900 170/11 RMK AO2
14926KSTC STC20050716233509807/16/05 23:35:31  5-MIN KSTC 170535Z AUTO 17010KT 8SM CLR 28/21 A2981 1130 66 2900 170/10 RMK AO2
14926KSTC STC20050716234009807/16/05 23:40:31  5-MIN KSTC 170540Z AUTO 18009KT 8SM CLR 28/21 A2981 1130 66 2900 170/09 RMK AO2
14926KSTC STC20050716234509807/16/05 23:45:31  5-MIN KSTC 170545Z AUTO 17010KT 8SM CLR 28/21 A2981 1130 66 2900 170/10 RMK AO2
14926KSTC STC20050716235014307/16/05 23:50:31  5-MIN KSTC 170550Z AUTO 18010KT 8SM CLR 28/21 A2981 1130 66 2900 170/10 RMK AO2 SLP091 T02780211 10328 20278 403560217 53000
14926KSTC STC20050716235509807/16/05 23:55:31  5-MIN KSTC 170555Z AUTO 17010KT 8SM CLR 28/21 A2980 1140 66 2900 170/10 RMK AO2
14926KSTC STC20050717000009807/17/05 00:00:32  5-MIN KSTC 170600Z AUTO 17011KT 8SM CLR 28/21 A2980 1140 66 2900 170/11 RMK AO2
14926KSTC STC20050717000509807/17/05 00:05:31  5-MIN KSTC 170605Z AUTO 17010KT 8SM CLR 28/21 A2980 1140 66 2900 170/10 RMK AO2
14926KSTC STC20050717001009807/17/05 00:10:31  5-MIN KSTC 170610Z AUTO 17009KT 8SM CLR 28/21 A2980 1140 66 2900 170/09 RMK AO2
14926KSTC STC20050717001509807/17/05 00:15:31  5-MIN KSTC 170615Z AUTO 18011KT 8SM CLR 28/21 A2980 1140 66 2900 170/11 RMK AO2
14926KSTC STC20050717002009807/17/05 00:20:31  5-MIN KSTC 170620Z AUTO 17011KT 8SM CLR 28/21 A2979 1140 66 2900 170/11 RMK AO2
14926KSTC STC20050717002509807/17/05 00:25:31  5-MIN KSTC 170625Z AUTO 17013KT 8SM CLR 28/21 A2979 1150 66 2900 170/13 RMK AO2
14926KSTC STC20050717003009807/17/05 00:30:31  5-MIN KSTC 170630Z AUTO 17010KT 8SM CLR 27/21 A2979 1150 69 2900 170/10 RMK AO2
14926KSTC STC20050717003509807/17/05 00:35:31  5-MIN KSTC 170635Z AUTO 17010KT 8SM CLR 27/21 A2979 1140 69 2800 170/10 RMK AO2
14926KSTC STC20050717004009807/17/05 00:40:31  5-MIN KSTC 170640Z AUTO 18010KT 8SM CLR 27/21 A2980 1140 69 2800 170/10 RMK AO2
14926KSTC STC20050717004509807/17/05 00:45:31  5-MIN KSTC 170645Z AUTO 17010KT 8SM CLR 27/21 A2979 1140 69 2800 170/10 RMK AO2
14926KSTC STC20050717005011507/17/05 00:50:31  5-MIN KSTC 170650Z AUTO 17010KT 8SM CLR 27/21 A2979 1150 69 2800 170/10 RMK AO2 SLP086 T02720211
14926KSTC STC20050717005509807/17/05 00:55:31  5-MIN KSTC 170655Z AUTO 17010KT 8SM CLR 27/21 A2979 1150 69 2900 170/10 RMK AO2
14926KSTC STC20050717010009807/17/05 01:00:31  5-MIN KSTC 170700Z AUTO 17009KT 8SM CLR 27/21 A2979 1150 69 2900 170/09 RMK AO2
14926KSTC STC20050717010509807/17/05 01:05:31  5-MIN KSTC 170705Z AUTO 17010KT 8SM CLR 27/21 A2979 1150 69 2900 170/10 RMK AO2
14926KSTC STC20050717011009807/17/05 01:10:31  5-MIN KSTC 170710Z AUTO 17011KT 8SM CLR 27/21 A2979 1150 66 2900 170/11 RMK AO2
14926KSTC STC20050717011509807/17/05 01:15:31  5-MIN KSTC 170715Z AUTO 17009KT 8SM CLR 27/21 A2979 1150 66 2900 160/09 RMK AO2
14926KSTC STC20050717012009807/17/05 01:20:31  5-MIN KSTC 170720Z AUTO 17011KT 8SM CLR 27/21 A2979 1150 69 2800 170/11 RMK AO2
14926KSTC STC20050717012509807/17/05 01:25:31  5-MIN KSTC 170725Z AUTO 17009KT 8SM CLR 27/21 A2978 1150 66 2900 170/09 RMK AO2
14926KSTC STC20050717013009807/17/05 01:30:31  5-MIN KSTC 170730Z AUTO 17009KT 8SM CLR 27/21 A2978 1150 69 2800 170/09 RMK AO2
14926KSTC STC20050717013509807/17/05 01:35:31  5-MIN KSTC 170735Z AUTO 18009KT 9SM CLR 27/21 A2978 1150 69 2800 170/09 RMK AO2
14926KSTC STC20050717014009807/17/05 01:40:31  5-MIN KSTC 170740Z AUTO 18009KT 9SM CLR 27/21 A2979 1150 69 2800 170/09 RMK AO2
14926KSTC STC20050717014509807/17/05 01:45:31  5-MIN KSTC 170745Z AUTO 17007KT 9SM CLR 27/21 A2978 1150 69 2800 170/07 RMK AO2
14926KSTC STC20050717015011507/17/05 01:50:31  5-MIN KSTC 170750Z AUTO 18009KT 9SM CLR 27/21 A2979 1150 69 2800 170/09 RMK AO2 SLP084 T02670206
14926KSTC STC20050717015509807/17/05 01:55:31  5-MIN KSTC 170755Z AUTO 18008KT 9SM CLR 27/21 A2979 1150 69 2800 170/08 RMK AO2
14926KSTC STC20050717020009807/17/05 02:00:31  5-MIN KSTC 170800Z AUTO 18008KT 8SM CLR 27/21 A2978 1150 69 2800 170/08 RMK AO2
14926KSTC STC20050717020509807/17/05 02:05:31  5-MIN KSTC 170805Z AUTO 18007KT 8SM CLR 26/21 A2979 1150 71 2700 170/07 RMK AO2
14926KSTC STC20050717021009807/17/05 02:10:31  5-MIN KSTC 170810Z AUTO 18007KT 8SM CLR 26/21 A2979 1150 71 2700 170/07 RMK AO2
14926KSTC STC20050717021509807/17/05 02:15:31  5-MIN KSTC 170815Z AUTO 16007KT 8SM CLR 26/21 A2978 1150 71 2700 160/07 RMK AO2
14926KSTC STC20050717022009807/17/05 02:20:31  5-MIN KSTC 170820Z AUTO 16008KT 8SM CLR 26/21 A2978 1150 71 2700 160/08 RMK AO2
14926KSTC STC20050717022509807/17/05 02:25:31  5-MIN KSTC 170825Z AUTO 16006KT 8SM CLR 26/21 A2979 1150 71 2700 160/06 RMK AO2
14926KSTC STC20050717023009807/17/05 02:30:31  5-MIN KSTC 170830Z AUTO 16007KT 8SM CLR 26/21 A2979 1150 73 2700 160/07 RMK AO2
14926KSTC STC20050717023509807/17/05 02:35:31  5-MIN KSTC 170835Z AUTO 16007KT 8SM CLR 26/21 A2978 1150 73 2700 150/07 RMK AO2
14926KSTC STC20050717024009807/17/05 02:40:31  5-MIN KSTC 170840Z AUTO 15007KT 8SM CLR 26/21 A2978 1160 73 2700 150/07 RMK AO2
14926KSTC STC20050717024509807/17/05 02:45:31  5-MIN KSTC 170845Z AUTO 15007KT 8SM CLR 25/21 A2978 1160 76 2600 150/07 RMK AO2
14926KSTC STC20050717025012107/17/05 02:50:31  5-MIN KSTC 170850Z AUTO 16006KT 8SM CLR 25/21 A2978 1160 76 2600 150/06 RMK AO2 SLP081 T02500206 55004
14926KSTC STC20050717025509807/17/05 02:55:31  5-MIN KSTC 170855Z AUTO 15007KT 8SM CLR 25/21 A2977 1160 76 2600 150/07 RMK AO2
14926KSTC STC20050717030009807/17/05 03:00:31  5-MIN KSTC 170900Z AUTO 15008KT 8SM CLR 25/21 A2977 1170 76 2600 150/08 RMK AO2
14926KSTC STC20050717030509807/17/05 03:05:31  5-MIN KSTC 170905Z AUTO 15008KT 7SM CLR 25/21 A2977 1170 76 2600 150/08 RMK AO2
14926KSTC STC20050717031009807/17/05 03:10:31  5-MIN KSTC 170910Z AUTO 15007KT 7SM CLR 25/21 A2977 1170 76 2600 150/07 RMK AO2
14926KSTC STC20050717031509807/17/05 03:15:31  5-MIN KSTC 170915Z AUTO 15008KT 7SM CLR 24/21 A2977 1170 78 2600 140/08 RMK AO2
14926KSTC STC20050717032009807/17/05 03:20:31  5-MIN KSTC 170920Z AUTO 15007KT 7SM CLR 24/21 A2977 1160 78 2600 140/07 RMK AO2
14926KSTC STC20050717032509807/17/05 03:25:31  5-MIN KSTC 170925Z AUTO 15006KT 7SM CLR 24/21 A2977 1170 78 2600 150/06 RMK AO2
14926KSTC STC20050717033009807/17/05 03:30:31  5-MIN KSTC 170930Z AUTO 15007KT 7SM CLR 24/21 A2977 1170 78 2600 150/07 RMK AO2
14926KSTC STC20050717033509807/17/05 03:35:31  5-MIN KSTC 170935Z AUTO 15007KT 7SM CLR 24/21 A2977 1170 78 2600 150/07 RMK AO2
14926KSTC STC20050717034009807/17/05 03:40:31  5-MIN KSTC 170940Z AUTO 16007KT 7SM CLR 24/21 A2977 1170 78 2600 160/07 RMK AO2
14926KSTC STC20050717034509807/17/05 03:45:31  5-MIN KSTC 170945Z AUTO 17008KT 8SM CLR 25/21 A2977 1170 76 2600 160/08 RMK AO2
14926KSTC STC20050717035011507/17/05 03:50:31  5-MIN KSTC 170950Z AUTO 17008KT 8SM CLR 25/20 A2977 1170 73 2600 160/08 RMK AO2 SLP078 T02500200
14926KSTC STC20050717035509807/17/05 03:55:31  5-MIN KSTC 170955Z AUTO 16008KT 8SM CLR 25/20 A2977 1170 73 2600 160/08 RMK AO2
14926KSTC STC20050717040009807/17/05 04:00:31  5-MIN KSTC 171000Z AUTO 17008KT 8SM CLR 25/20 A2977 1170 73 2600 160/08 RMK AO2
14926KSTC STC20050717040509807/17/05 04:05:31  5-MIN KSTC 171005Z AUTO 17008KT 8SM CLR 25/20 A2977 1170 73 2600 160/08 RMK AO2
14926KSTC STC20050717041009807/17/05 04:10:31  5-MIN KSTC 171010Z AUTO 16009KT 8SM CLR 25/20 A2977 1170 73 2600 160/09 RMK AO2
14926KSTC STC20050717041509807/17/05 04:15:31  5-MIN KSTC 171015Z AUTO 16008KT 8SM CLR 25/20 A2976 1170 73 2600 150/08 RMK AO2
14926KSTC STC20050717042009807/17/05 04:20:31  5-MIN KSTC 171020Z AUTO 16007KT 8SM CLR 24/20 A2977 1170 76 2600 150/07 RMK AO2
14926KSTC STC20050717042509807/17/05 04:25:31  5-MIN KSTC 171025Z AUTO 16007KT 8SM CLR 24/20 A2977 1170 76 2600 160/07 RMK AO2
14926KSTC STC20050717043009807/17/05 04:30:31  5-MIN KSTC 171030Z AUTO 16008KT 8SM CLR 24/20 A2977 1170 76 2600 150/08 RMK AO2
14926KSTC STC20050717043509807/17/05 04:35:31  5-MIN KSTC 171035Z AUTO 16007KT 8SM CLR 24/20 A2977 1170 76 2600 150/07 RMK AO2
14926KSTC STC20050717044009807/17/05 04:40:31  5-MIN KSTC 171040Z AUTO 15007KT 7SM CLR 24/20 A2977 1170 78 2500 150/07 RMK AO2
14926KSTC STC20050717044510107/17/05 04:45:31  5-MIN KSTC 171045Z AUTO 15007KT 6SM HZ CLR 24/20 A2977 1170 78 2500 140/07 RMK AO2
14926KSTC STC20050717045011807/17/05 04:50:31  5-MIN KSTC 171050Z AUTO 15006KT 6SM HZ CLR 24/20 A2977 1170 78 2500 150/06 RMK AO2 SLP078 T02390200
14926KSTC STC20050717045510107/17/05 04:55:31  5-MIN KSTC 171055Z AUTO 15006KT 6SM HZ CLR 23/20 A2976 1170 81 2400 140/06 RMK AO2
14926KSTC STC20050717050010107/17/05 05:00:31  5-MIN KSTC 171100Z AUTO 15007KT 5SM HZ CLR 23/20 A2976 1170 81 2400 150/07 RMK AO2
14926KSTC STC20050717050510107/17/05 05:05:31  5-MIN KSTC 171105Z AUTO 15007KT 6SM HZ CLR 23/20 A2976 1170 81 2400 150/07 RMK AO2
14926KSTC STC20050717051010107/17/05 05:10:31  5-MIN KSTC 171110Z AUTO 15007KT 6SM HZ CLR 23/20 A2976 1170 81 2400 150/07 RMK AO2
14926KSTC STC20050717051510107/17/05 05:15:31  5-MIN KSTC 171115Z AUTO 15007KT 6SM HZ CLR 23/20 A2976 1170 81 2400 140/07 RMK AO2
14926KSTC STC20050717052010107/17/05 05:20:31  5-MIN KSTC 171120Z AUTO 14007KT 6SM HZ CLR 24/20 A2976 1180 78 2500 140/07 RMK AO2
14926KSTC STC20050717052510107/17/05 05:25:31  5-MIN KSTC 171125Z AUTO 15008KT 6SM HZ CLR 24/20 A2976 1180 78 2500 150/08 RMK AO2
14926KSTC STC20050717053010107/17/05 05:30:31  5-MIN KSTC 171130Z AUTO 15008KT 6SM HZ CLR 24/20 A2976 1180 78 2500 150/08 RMK AO2
14926KSTC STC20050717053510107/17/05 05:35:31  5-MIN KSTC 171135Z AUTO 15009KT 6SM HZ CLR 24/20 A2975 1180 78 2500 150/09 RMK AO2
14926KSTC STC20050717054010107/17/05 05:40:31  5-MIN KSTC 171140Z AUTO 15008KT 6SM HZ CLR 24/20 A2975 1180 76 2600 150/08 RMK AO2
14926KSTC STC20050717054509807/17/05 05:45:31  5-MIN KSTC 171145Z AUTO 15007KT 7SM CLR 24/20 A2975 1180 76 2600 150/07 RMK AO2
14926KSTC STC20050717055013307/17/05 05:50:31  5-MIN KSTC 171150Z AUTO 15008KT 7SM CLR 24/19 A2975 1180 73 2600 150/08 RMK AO2 SLP073 T02440194 10278 20233 56009
14926KSTC STC20050717055509807/17/05 05:55:31  5-MIN KSTC 171155Z AUTO 16007KT 7SM CLR 24/19 A2975 1180 73 2600 150/07 RMK AO2
14926KSTC STC20050717060009807/17/05 06:00:31  5-MIN KSTC 171200Z AUTO 16007KT 7SM CLR 25/19 A2975 1180 71 2600 160/07 RMK AO2
14926KSTC STC20050717060509807/17/05 06:05:31  5-MIN KSTC 171205Z AUTO 16007KT 7SM CLR 25/19 A2975 1180 71 2600 160/07 RMK AO2
14926KSTC STC20050717061009807/17/05 06:10:31  5-MIN KSTC 171210Z AUTO 16007KT 8SM CLR 25/19 A2975 1180 71 2600 160/07 RMK AO2
14926KSTC STC20050717061509807/17/05 06:15:31  5-MIN KSTC 171215Z AUTO 16008KT 8SM CLR 25/19 A2975 1180 71 2600 160/08 RMK AO2
14926KSTC STC20050717062009807/17/05 06:20:31  5-MIN KSTC 171220Z AUTO 16009KT 8SM CLR 26/19 A2975 1190 68 2700 160/09 RMK AO2
14926KSTC STC20050717062509807/17/05 06:25:31  5-MIN KSTC 171225Z AUTO 16009KT 8SM CLR 26/19 A2974 1190 68 2700 160/09 RMK AO2
14926KSTC STC20050717063009807/17/05 06:30:31  5-MIN KSTC 171230Z AUTO 17008KT 8SM CLR 26/19 A2974 1190 68 2700 160/08 RMK AO2
14926KSTC STC20050717063509807/17/05 06:35:31  5-MIN KSTC 171235Z AUTO 17009KT 8SM CLR 26/19 A2974 1190 68 2700 170/09 RMK AO2
14926KSTC STC20050717064009807/17/05 06:40:31  5-MIN KSTC 171240Z AUTO 17008KT 8SM CLR 26/19 A2974 1190 66 2800 170/08 RMK AO2
14926KSTC STC20050717064509807/17/05 06:45:31  5-MIN KSTC 171245Z AUTO 17008KT 8SM CLR 26/19 A2974 1190 66 2800 170/08 RMK AO2
14926KSTC STC20050717065011507/17/05 06:50:31  5-MIN KSTC 171250Z AUTO 17008KT 8SM CLR 26/19 A2974 1190 66 2800 170/08 RMK AO2 SLP070 T02610194
14926KSTC STC20050717065509807/17/05 06:55:31  5-MIN KSTC 171255Z AUTO 17009KT 8SM CLR 26/19 A2974 1190 66 2800 170/09 RMK AO2
14926KSTC STC20050717070009807/17/05 07:00:31  5-MIN KSTC 171300Z AUTO 17009KT 8SM CLR 26/19 A2974 1190 66 2800 170/09 RMK AO2
14926KSTC STC20050717070509807/17/05 07:05:31  5-MIN KSTC 171305Z AUTO 17009KT 8SM CLR 27/19 A2974 1200 64 2800 170/09 RMK AO2
14926KSTC STC20050717071009807/17/05 07:10:31  5-MIN KSTC 171310Z AUTO 16008KT 8SM CLR 27/19 A2974 1200 64 2800 160/08 RMK AO2
14926KSTC STC20050717071509807/17/05 07:15:31  5-MIN KSTC 171315Z AUTO 17009KT 8SM CLR 27/19 A2974 1200 64 2800 160/09 RMK AO2
14926KSTC STC20050717072009807/17/05 07:20:31  5-MIN KSTC 171320Z AUTO 17010KT 8SM CLR 27/19 A2974 1200 64 2900 170/10 RMK AO2
14926KSTC STC20050717072509807/17/05 07:25:31  5-MIN KSTC 171325Z AUTO 18010KT 8SM CLR 27/19 A2973 1200 62 2900 170/10 RMK AO2
14926KSTC STC20050717073009807/17/05 07:30:31  5-MIN KSTC 171330Z AUTO 16009KT 9SM CLR 27/19 A2973 1200 62 2900 160/09 RMK AO2
14926KSTC STC20050717073509807/17/05 07:35:31  5-MIN KSTC 171335Z AUTO 18011KT 9SM CLR 27/19 A2973 1200 62 2900 170/11 RMK AO2
14926KSTC STC20050717074009807/17/05 07:40:31  5-MIN KSTC 171340Z AUTO 16012KT 9SM CLR 27/19 A2973 1200 62 2900 160/12 RMK AO2
14926KSTC STC20050717074509807/17/05 07:45:31  5-MIN KSTC 171345Z AUTO 17011KT 9SM CLR 28/19 A2973 1200 60 3000 170/11 RMK AO2
14926KSTC STC20050717075011507/17/05 07:50:31  5-MIN KSTC 171350Z AUTO 17011KT 9SM CLR 28/19 A2973 1200 60 3000 170/11 RMK AO2 SLP067 T02780194
14926KSTC STC20050717075509807/17/05 07:55:31  5-MIN KSTC 171355Z AUTO 18011KT 9SM CLR 28/19 A2974 1200 60 3000 170/11 RMK AO2
14926KSTC STC20050717080009807/17/05 08:00:31  5-MIN KSTC 171400Z AUTO 17010KT 9SM CLR 28/19 A2973 1200 60 3000 170/10 RMK AO2
14926KSTC STC20050717080510407/17/05 08:05:31  5-MIN KSTC 171405Z AUTO 17011G17KT 9SM CLR 28/19 A2973 1200 58 3000 170/11G17 RMK AO2
14926KSTC STC20050717081009807/17/05 08:10:31  5-MIN KSTC 171410Z AUTO 17012KT 9SM CLR 28/19 A2973 1200 58 3000 170/12 RMK AO2
14926KSTC STC20050717081509807/17/05 08:15:31  5-MIN KSTC 171415Z AUTO 18012KT 9SM CLR 28/19 A2973 1200 58 3000 170/12 RMK AO2
14926KSTC STC20050717082009807/17/05 08:20:31  5-MIN KSTC 171420Z AUTO 18012KT 9SM CLR 28/19 A2973 1200 58 3000 170/12 RMK AO2
14926KSTC STC20050717082509807/17/05 08:25:31  5-MIN KSTC 171425Z AUTO 17011KT 9SM CLR 29/19 A2973 1200 56 3100 160/11 RMK AO2
14926KSTC STC20050717083009807/17/05 08:30:31  5-MIN KSTC 171430Z AUTO 18012KT 9SM CLR 29/19 A2973 1210 56 3100 180/12 RMK AO2
14926KSTC STC20050717083509807/17/05 08:35:31  5-MIN KSTC 171435Z AUTO 18012KT 9SM CLR 29/19 A2973 1200 56 3100 170/12 RMK AO2
14926KSTC STC20050717084009807/17/05 08:40:31  5-MIN KSTC 171440Z AUTO 18012KT 9SM CLR 29/19 A2973 1200 56 3100 180/12 RMK AO2
14926KSTC STC20050717084509807/17/05 08:45:31  5-MIN KSTC 171445Z AUTO 20013KT 9SM CLR 29/19 A2974 1200 54 3200 200/13 RMK AO2
14926KSTC STC20050717085012107/17/05 08:50:31  5-MIN KSTC 171450Z AUTO 19013KT 9SM CLR 29/19 A2974 1200 54 3200 190/13 RMK AO2 SLP068 T02940194 58008
14926KSTC STC20050717085509807/17/05 08:55:31  5-MIN KSTC 171455Z AUTO 18012KT 9SM CLR 29/19 A2974 1200 54 3200 180/12 RMK AO2
14926KSTC STC20050717090009807/17/05 09:00:31  5-MIN KSTC 171500Z AUTO 19013KT 9SM CLR 29/19 A2973 1200 54 3200 190/13 RMK AO2
14926KSTC STC20050717090509807/17/05 09:05:31  5-MIN KSTC 171505Z AUTO 18011KT 9SM CLR 29/19 A2973 1200 54 3200 180/11 RMK AO2
14926KSTC STC20050717091009807/17/05 09:10:31  5-MIN KSTC 171510Z AUTO 18014KT 9SM CLR 30/19 A2973 1200 52 3200 170/14 RMK AO2
14926KSTC STC20050717091509807/17/05 09:15:31  5-MIN KSTC 171515Z AUTO 19011KT 9SM CLR 30/19 A2973 1210 52 3200 190/11 RMK AO2
14926KSTC STC20050717092009807/17/05 09:20:31  5-MIN KSTC 171520Z AUTO 18013KT 9SM CLR 30/20 A2973 1210 54 3200 180/13 RMK AO2
14926KSTC STC20050717092509807/17/05 09:25:31  5-MIN KSTC 171525Z AUTO 18014KT 9SM CLR 31/20 A2972 1210 52 3300 180/14 RMK AO2
14926KSTC STC20050717093009807/17/05 09:30:31  5-MIN KSTC 171530Z AUTO 19013KT 9SM CLR 31/20 A2972 1210 52 3300 190/13 RMK AO2
14926KSTC STC20050717093509807/17/05 09:35:31  5-MIN KSTC 171535Z AUTO 18012KT 9SM CLR 31/20 A2972 1210 52 3300 180/12 RMK AO2
14926KSTC STC20050717094009807/17/05 09:40:31  5-MIN KSTC 171540Z AUTO 18013KT 9SM CLR 31/20 A2972 1210 52 3300 180/13 RMK AO2
14926KSTC STC20050717094509807/17/05 09:45:31  5-MIN KSTC 171545Z AUTO 17013KT 9SM CLR 31/20 A2971 1220 51 3400 160/13 RMK AO2
14926KSTC STC20050717095012107/17/05 09:50:31  5-MIN KSTC 171550Z AUTO 17016G21KT 9SM CLR 31/19 A2971 1220 51 3300 170/16G21 RMK AO2 SLP060 T03060194
14926KSTC STC20050717095510407/17/05 09:55:31  5-MIN KSTC 171555Z AUTO 18014G21KT 9SM CLR 31/19 A2971 1220 49 3400 180/14G21 RMK AO2
14926KSTC STC20050717100010407/17/05 10:00:31  5-MIN KSTC 171600Z AUTO 17018G23KT 9SM CLR 31/19 A2971 1220 49 3400 160/18G23 RMK AO2
14926KSTC STC20050717100510407/17/05 10:05:31  5-MIN KSTC 171605Z AUTO 18014G23KT 9SM CLR 31/19 A2971 1220 49 3400 180/14G23 RMK AO2
14926KSTC STC20050717101009807/17/05 10:10:31  5-MIN KSTC 171610Z AUTO 19016KT 9SM CLR 31/19 A2971 1220 49 3400 180/16 RMK AO2
14926KSTC STC20050717101509907/17/05 10:15:31  5-MIN KSTC 171615Z AUTO 19013KT 10SM CLR 32/19 A2971 1230 47 3400 190/13 RMK AO2
14926KSTC STC20050717102009907/17/05 10:20:31  5-MIN KSTC 171620Z AUTO 18012KT 10SM CLR 32/20 A2971 1230 48 3500 180/12 RMK AO2
14926KSTC STC20050717102509907/17/05 10:25:31  5-MIN KSTC 171625Z AUTO 19016KT 10SM CLR 32/20 A2970 1230 48 3500 190/16 RMK AO2
14926KSTC STC20050717103009907/17/05 10:30:31  5-MIN KSTC 171630Z AUTO 17015KT 10SM CLR 32/19 A2970 1230 46 3500 170/15 RMK AO2
14926KSTC STC20050717103509907/17/05 10:35:31  5-MIN KSTC 171635Z AUTO 18014KT 10SM CLR 32/19 A2970 1230 46 3500 180/14 RMK AO2
14926KSTC STC20050717104010507/17/05 10:40:31  5-MIN KSTC 171640Z AUTO 17016G20KT 10SM CLR 32/19 A2970 1230 46 3500 160/16G20 RMK AO2
14926KSTC STC20050717104510507/17/05 10:45:31  5-MIN KSTC 171645Z AUTO 18011G20KT 10SM CLR 32/19 A2970 1230 46 3500 180/11G20 RMK AO2
14926KSTC STC20050717105012207/17/05 10:50:31  5-MIN KSTC 171650Z AUTO 17016G22KT 10SM CLR 32/20 A2970 1230 48 3500 160/16G22 RMK AO2 SLP054 T03220200
14926KSTC STC20050717105510507/17/05 10:55:31  5-MIN KSTC 171655Z AUTO 17014G22KT 10SM CLR 33/19 A2970 1230 44 3600 170/14G22 RMK AO2
14926KSTC STC20050717110010507/17/05 11:00:31  5-MIN KSTC 171700Z AUTO 17015G20KT 10SM CLR 33/20 A2969 1240 46 3600 170/15G20 RMK AO2
14926KSTC STC20050717110510507/17/05 11:05:31  5-MIN KSTC 171705Z AUTO 17015G20KT 10SM CLR 33/20 A2970 1230 46 3600 170/15G20 RMK AO2
14926KSTC STC20050717111010507/17/05 11:10:31  5-MIN KSTC 171710Z AUTO 17017G21KT 10SM CLR 33/20 A2969 1240 46 3600 170/17G21 RMK AO2
14926KSTC STC20050717111510507/17/05 11:15:31  5-MIN KSTC 171715Z AUTO 17018G21KT 10SM CLR 33/20 A2969 1240 46 3600 170/18G21 RMK AO2
14926KSTC STC20050717112010507/17/05 11:20:31  5-MIN KSTC 171720Z AUTO 18015G22KT 10SM CLR 33/20 A2970 1230 46 3600 170/15G22 RMK AO2
14926KSTC STC20050717112510507/17/05 11:25:31  5-MIN KSTC 171725Z AUTO 17018G22KT 10SM CLR 33/20 A2970 1230 45 3600 170/18G22 RMK AO2
14926KSTC STC20050717113010507/17/05 11:30:31  5-MIN KSTC 171730Z AUTO 18015G23KT 10SM CLR 33/20 A2970 1230 45 3600 170/15G23 RMK AO2
14926KSTC STC20050717113510507/17/05 11:35:31  5-MIN KSTC 171735Z AUTO 18012G23KT 10SM CLR 34/20 A2970 1230 43 3700 180/12G23 RMK AO2
14926KSTC STC20050717114010507/17/05 11:40:31  5-MIN KSTC 171740Z AUTO 17016G20KT 10SM CLR 33/20 A2970 1240 45 3600 170/16G20 RMK AO2
14926KSTC STC20050717114510507/17/05 11:45:31  5-MIN KSTC 171745Z AUTO 19017G21KT 10SM CLR 34/20 A2970 1230 43 3700 180/17G21 RMK AO2
14926KSTC STC20050717115014007/17/05 11:50:31  5-MIN KSTC 171750Z AUTO 19014G21KT 10SM CLR 34/20 A2969 1240 43 3700 180/14G21 RMK AO2 SLP052 T03390200 10339 20244 55005
14926KSTC STC20050717115510507/17/05 11:55:31  5-MIN KSTC 171755Z AUTO 18016G23KT 10SM CLR 34/20 A2969 1240 43 3700 180/16G23 RMK AO2
14926KSTC STC20050717120012307/17/05 12:00:31  5-MIN KSTC 171800Z AUTO 18020G26KT 10SM CLR 33/20 A2969 1240 45 3600 180/20G26 RMK AO2 PK WND 19026/1756
14926KSTC STC20050717120512307/17/05 12:05:31  5-MIN KSTC 171805Z AUTO 18017G26KT 10SM CLR 34/19 A2969 1240 42 3700 180/17G26 RMK AO2 PK WND 18026/1802
14926KSTC STC20050717121012307/17/05 12:10:31  5-MIN KSTC 171810Z AUTO 18015G26KT 10SM CLR 34/20 A2969 1240 43 3700 180/15G26 RMK AO2 PK WND 18026/1802
14926KSTC STC20050717121512307/17/05 12:15:31  5-MIN KSTC 171815Z AUTO 19022G29KT 10SM CLR 34/20 A2969 1240 43 3700 180/22G29 RMK AO2 PK WND 19029/1815
14926KSTC STC20050717122012307/17/05 12:20:31  5-MIN KSTC 171820Z AUTO 19019G29KT 10SM CLR 34/19 A2968 1250 42 3700 180/19G29 RMK AO2 PK WND 19029/1815
14926KSTC STC20050717122512307/17/05 12:25:31  5-MIN KSTC 171825Z AUTO 19022G27KT 10SM CLR 34/19 A2968 1250 42 3700 180/22G27 RMK AO2 PK WND 19029/1815
14926KSTC STC20050717123012307/17/05 12:30:31  5-MIN KSTC 171830Z AUTO 17020G27KT 10SM CLR 34/19 A2968 1250 39 3800 170/20G27 RMK AO2 PK WND 19029/1815
14926KSTC STC20050717123512307/17/05 12:35:31  5-MIN KSTC 171835Z AUTO 18021G28KT 10SM CLR 34/19 A2968 1250 40 3700 170/21G28 RMK AO2 PK WND 19029/1815
14926KSTC STC20050717124012307/17/05 12:40:31  5-MIN KSTC 171840Z AUTO 19022G29KT 10SM CLR 34/19 A2968 1250 39 3800 190/22G29 RMK AO2 PK WND 17029/1837
14926KSTC STC20050717124512307/17/05 12:45:31  5-MIN KSTC 171845Z AUTO 19017G29KT 10SM CLR 34/19 A2968 1250 39 3800 190/17G29 RMK AO2 PK WND 17029/1837
14926KSTC STC20050717125014007/17/05 12:50:31  5-MIN KSTC 171850Z AUTO 19020G25KT 10SM CLR 34/19 A2968 1250 40 3800 180/20G25 RMK AO2 PK WND 17029/1837 SLP046 T03440194
14926KSTC STC20050717125510507/17/05 12:55:31  5-MIN KSTC 171855Z AUTO 18020G25KT 10SM CLR 34/19 A2967 1260 39 3800 180/20G25 RMK AO2
14926KSTC STC20050717130012307/17/05 13:00:31  5-MIN KSTC 171900Z AUTO 18024G30KT 10SM CLR 34/19 A2967 1260 39 3800 180/24G30 RMK AO2 PK WND 18030/1859
14926KSTC STC20050717130512307/17/05 13:05:31  5-MIN KSTC 171905Z AUTO 18020G30KT 10SM CLR 34/19 A2967 1260 39 3800 180/20G30 RMK AO2 PK WND 18030/1859
14926KSTC STC20050717131012307/17/05 13:10:31  5-MIN KSTC 171910Z AUTO 19018G31KT 10SM CLR 34/19 A2966 1270 39 3800 180/18G31 RMK AO2 PK WND 18031/1906
14926KSTC STC20050717131512307/17/05 13:15:31  5-MIN KSTC 171915Z AUTO 20021G31KT 10SM CLR 34/19 A2966 1260 39 3800 190/21G31 RMK AO2 PK WND 18031/1906
14926KSTC STC20050717132012307/17/05 13:20:31  5-MIN KSTC 171920Z AUTO 19018G27KT 10SM CLR 34/19 A2966 1270 40 3800 190/18G27 RMK AO2 PK WND 18031/1906
14926KSTC STC20050717132512307/17/05 13:25:31  5-MIN KSTC 171925Z AUTO 19016G31KT 10SM CLR 34/19 A2966 1270 40 3800 180/16G31 RMK AO2 PK WND 19031/1922
14926KSTC STC20050717133012307/17/05 13:30:31  5-MIN KSTC 171930Z AUTO 18019G31KT 10SM CLR 35/19 A2966 1270 39 3800 180/19G31 RMK AO2 PK WND 19031/1922
14926KSTC STC20050717133512307/17/05 13:35:31  5-MIN KSTC 171935Z AUTO 18022G26KT 10SM CLR 34/19 A2966 1260 39 3800 180/22G26 RMK AO2 PK WND 19031/1922
14926KSTC STC20050717134012307/17/05 13:40:31  5-MIN KSTC 171940Z AUTO 20023G28KT 10SM CLR 34/19 A2966 1270 40 3700 190/23G28 RMK AO2 PK WND 19031/1922
14926KSTC STC20050717134512607/17/05 13:45:31  5-MIN KSTC 171945Z AUTO 19019G28KT 10SM FEW060 34/19 A2966 1260 40 3700 190/19G28 RMK AO2 PK WND 19031/1922
14926KSTC STC20050717135014307/17/05 13:50:31  5-MIN KSTC 171950Z AUTO 19018G24KT 10SM FEW060 34/19 A2966 1260 42 3700 190/18G24 RMK AO2 PK WND 19031/1922 SLP043 T03390194
14926KSTC STC20050717135512607/17/05 13:55:31  5-MIN KSTC 171955Z AUTO 19022G27KT 10SM FEW060 34/19 A2966 1270 39 3800 190/22G27 RMK AO2 PK WND 20027/1954
14926KSTC STC20050717140012607/17/05 14:00:31  5-MIN KSTC 172000Z AUTO 20019G28KT 10SM SCT060 34/19 A2967 1260 40 3700 190/19G28 RMK AO2 PK WND 20028/1957
14926KSTC STC20050717140512607/17/05 14:05:31  5-MIN KSTC 172005Z AUTO 20025G29KT 10SM BKN060 34/19 A2967 1260 40 3700 200/25G29 RMK AO2 PK WND 19029/2004
14926KSTC STC20050717141012607/17/05 14:10:31  5-MIN KSTC 172010Z AUTO 20024G31KT 10SM BKN060 34/19 A2966 1260 40 3700 200/24G31 RMK AO2 PK WND 20031/2009
14926KSTC STC20050717141512607/17/05 14:15:31  5-MIN KSTC 172015Z AUTO 20020G31KT 10SM BKN060 33/18 A2966 1260 40 3700 200/20G31 RMK AO2 PK WND 20031/2009
14926KSTC STC20050717142012607/17/05 14:20:31  5-MIN KSTC 172020Z AUTO 21021G31KT 10SM BKN060 33/18 A2967 1260 40 3700 210/21G31 RMK AO2 PK WND 21031/2017
14926KSTC STC20050717142512607/17/05 14:25:31  5-MIN KSTC 172025Z AUTO 20016G31KT 10SM BKN060 33/19 A2967 1260 42 3700 200/16G31 RMK AO2 PK WND 21031/2017
14926KSTC STC20050717143012607/17/05 14:30:31  5-MIN KSTC 172030Z AUTO 20019G22KT 10SM BKN060 33/19 A2966 1270 44 3600 190/19G22 RMK AO2 PK WND 21031/2017
14926KSTC STC20050717143512607/17/05 14:35:31  5-MIN KSTC 172035Z AUTO 20021G26KT 10SM BKN065 33/19 A2966 1260 42 3700 200/21G26 RMK AO2 PK WND 21031/2017
14926KSTC STC20050717144012607/17/05 14:40:31  5-MIN KSTC 172040Z AUTO 20018G26KT 10SM BKN060 33/19 A2967 1260 44 3600 200/18G26 RMK AO2 PK WND 21031/2017
14926KSTC STC20050717144512607/17/05 14:45:31  5-MIN KSTC 172045Z AUTO 21021G27KT 10SM BKN060 33/19 A2967 1260 44 3600 200/21G27 RMK AO2 PK WND 21031/2017
14926KSTC STC20050717145015607/17/05 14:50:31  5-MIN KSTC 172050Z AUTO 21020G27KT 10SM BKN055 BKN070 32/19 A2967 1260 46 3500 210/20G27 RMK AO2 PK WND 21031/2017 SLP045 T03220194 56015
14926KSTC STC20050717145511507/17/05 14:55:31  5-MIN KSTC 172055Z AUTO 23014G25KT 10SM SCT055 SCT070 33/20 A2967 1260 46 3600 230/14G25 RMK AO2
14926KSTC STC20050717150010207/17/05 15:00:31  5-MIN KSTC 172100Z AUTO 22017KT 10SM SCT055 32/20 A2967 1260 48 3500 220/17 RMK AO2
14926KSTC STC20050717150510807/17/05 15:05:31  5-MIN KSTC 172105Z AUTO 22016G22KT 10SM SCT055 32/21 A2967 1260 49 3500 220/16G22 RMK AO2
14926KSTC STC20050717151010707/17/05 15:10:31  5-MIN KSTC 172110Z AUTO 23016G22KT 9SM FEW055 32/21 A2967 1260 51 3500 230/16G22 RMK AO2
14926KSTC STC20050717151510707/17/05 15:15:31  5-MIN KSTC 172115Z AUTO 22017G22KT 9SM FEW050 32/20 A2967 1260 49 3500 220/17G22 RMK AO2
14926KSTC STC20050717152010107/17/05 15:20:31  5-MIN KSTC 172120Z AUTO 22019KT 9SM FEW060 31/20 A2967 1260 51 3400 210/19 RMK AO2
14926KSTC STC20050717152510707/17/05 15:25:31  5-MIN KSTC 172125Z AUTO 23013G22KT 9SM SCT065 31/20 A2967 1260 51 3400 220/13G22 RMK AO2
14926KSTC STC20050717153010707/17/05 15:30:31  5-MIN KSTC 172130Z AUTO 23018G21KT 9SM BKN065 31/21 A2967 1260 53 3400 230/18G21 RMK AO2
14926KSTC STC20050717153511407/17/05 15:35:31  5-MIN KSTC 172135Z AUTO 22018G22KT 8SM BKN060 BKN070 31/20 A2968 1250 52 3300 210/18G22 RMK AO2
14926KSTC STC20050717154013007/17/05 15:40:31  5-MIN KSTC 172140Z AUTO 22011G22KT 5SM -RA BKN060 BKN070 29/22 A2968 1250 64 3200 220/11G22 RMK AO2 RAB36 P0000
14926KSTC STC20050717154511707/17/05 15:45:31  5-MIN KSTC 172145Z AUTO 22011KT 5SM -RA BKN060 28/22 A2968 1250 69 3100 220/11 RMK AO2 RAB36 P0001
14926KSTC STC20050717155013307/17/05 15:50:31  5-MIN KSTC 172150Z AUTO 22009KT 9SM BKN060 28/22 A2968 1250 69 3100 220/09 RMK AO2 RAB36E50 SLP049 P0001 T02830222
14926KSTC STC20050717155510107/17/05 15:55:31  5-MIN KSTC 172155Z AUTO 21011KT 9SM BKN055 28/22 A2968 1250 66 3100 210/11 RMK AO2
14926KSTC STC20050717160010807/17/05 16:00:31  5-MIN KSTC 172200Z AUTO 21007KT 8SM BKN049 OVC060 28/22 A2968 1250 66 3100 210/07 RMK AO2
14926KSTC STC20050717160510807/17/05 16:05:31  5-MIN KSTC 172205Z AUTO 21010KT 9SM BKN049 OVC060 28/22 A2968 1250 66 3100 210/10 RMK AO2
14926KSTC STC20050717161010807/17/05 16:10:31  5-MIN KSTC 172210Z AUTO 20008KT 9SM BKN047 OVC055 29/22 A2967 1260 64 3200 200/08 RMK AO2
14926KSTC STC20050717161510807/17/05 16:15:31  5-MIN KSTC 172215Z AUTO 20009KT 9SM BKN047 BKN055 29/22 A2967 1260 62 3200 190/09 RMK AO2
14926KSTC STC20050717162010807/17/05 16:20:31  5-MIN KSTC 172220Z AUTO 20009KT 9SM SCT047 BKN055 29/22 A2967 1260 62 3200 190/09 RMK AO2
14926KSTC STC20050717162510107/17/05 16:25:31  5-MIN KSTC 172225Z AUTO 21010KT 9SM SCT047 30/22 A2968 1250 62 3300 210/10 RMK AO2
14926KSTC STC20050717163010107/17/05 16:30:31  5-MIN KSTC 172230Z AUTO 21011KT 9SM SCT045 30/22 A2967 1250 62 3300 210/11 RMK AO2
14926KSTC STC20050717163510107/17/05 16:35:31  5-MIN KSTC 172235Z AUTO 21010KT 9SM BKN041 30/22 A2968 1250 60 3300 210/10 RMK AO2
14926KSTC STC20050717164010107/17/05 16:40:31  5-MIN KSTC 172240Z AUTO 23013KT 9SM BKN041 30/22 A2968 1250 60 3300 230/13 RMK AO2
14926KSTC STC20050717164510807/17/05 16:45:31  5-MIN KSTC 172245Z AUTO 22014KT 9SM BKN041 BKN055 30/22 A2968 1250 60 3300 220/14 RMK AO2
14926KSTC STC20050717165013807/17/05 16:50:31  5-MIN KSTC 172250Z AUTO 24015G19KT 9SM BKN041 BKN049 OVC060 31/22 A2968 1250 58 3300 230/15G19 RMK AO2 SLP050 T03060217
14926KSTC STC20050717165512207/17/05 16:55:31  5-MIN KSTC 172255Z AUTO 23019G24KT 10SM BKN041 BKN049 BKN060 31/21 A2968 1250 56 3300 230/19G24 RMK AO2
14926KSTC STC20050717170012207/17/05 17:00:31  5-MIN KSTC 172300Z AUTO 23018G24KT 10SM SCT041 BKN049 BKN060 31/21 A2968 1250 54 3300 230/18G24 RMK AO2
14926KSTC STC20050717170512207/17/05 17:05:31  5-MIN KSTC 172305Z AUTO 22016G23KT 10SM FEW041 SCT049 SCT060 31/21 A2968 1250 54 3300 220/16G23 RMK AO2
14926KSTC STC20050717171010807/17/05 17:10:31  5-MIN KSTC 172310Z AUTO 23015G22KT 10SM FEW041 31/21 A2968 1250 54 3300 230/15G22 RMK AO2
14926KSTC STC20050717171510807/17/05 17:15:31  5-MIN KSTC 172315Z AUTO 23018G23KT 10SM FEW039 31/21 A2968 1250 54 3300 230/18G23 RMK AO2
14926KSTC STC20050717172010507/17/05 17:20:31  5-MIN KSTC 172320Z AUTO 25016G23KT 10SM CLR 31/21 A2968 1250 56 3300 240/16G23 RMK AO2
14926KSTC STC20050717172510207/17/05 17:25:31  5-MIN KSTC 172325Z AUTO 26015KT 10SM FEW037 30/21 A2968 1250 58 3300 250/15 RMK AO2
14926KSTC STC20050717173010807/17/05 17:30:31  5-MIN KSTC 172330Z AUTO 25017G22KT 10SM SCT037 30/21 A2969 1240 58 3300 250/17G22 RMK AO2
14926KSTC STC20050717173510807/17/05 17:35:31  5-MIN KSTC 172335Z AUTO 27015G22KT 10SM FEW037 30/21 A2969 1240 56 3300 270/15G22 RMK AO2
14926KSTC STC20050717174010207/17/05 17:40:31  5-MIN KSTC 172340Z AUTO 28011KT 10SM FEW037 30/21 A2969 1240 56 3300 270/11 RMK AO2
14926KSTC STC20050717174511607/17/05 17:45:31  5-MIN KSTC 172345Z AUTO 28013KT 10SM FEW037 SCT055 SCT075 29/21 A2969 1240 58 3200 280/13 RMK AO2
14926KSTC STC20050717175015707/17/05 17:50:31  5-MIN KSTC 172350Z AUTO 28010KT 10SM FEW037 SCT055 BKN080 29/20 A2968 1250 58 3200 280/10 RMK AO2 SLP050 60001 T02890200 10350 20283 55007
14926KSTC STC20050717175510907/17/05 17:55:31  5-MIN KSTC 172355Z AUTO 30010KT 10SM FEW037 SCT080 29/21 A2968 1250 60 3200 290/10 RMK AO2
14926KSTC STC20050717180010207/17/05 18:00:31  5-MIN KSTC 180000Z AUTO VRB06KT 10SM FEW055 29/21 A2967 1260 60 3200 VRB/06 RMK AO2
14926KSTC STC20050717180510207/17/05 18:05:31  5-MIN KSTC 180005Z AUTO 28006KT 10SM FEW055 29/20 A2967 1260 58 3200 270/06 RMK AO2
14926KSTC STC20050717181010907/17/05 18:10:31  5-MIN KSTC 180010Z AUTO 27009KT 10SM FEW055 SCT120 29/21 A2968 1250 60 3200 260/09 RMK AO2
14926KSTC STC20050717181511807/17/05 18:15:31  5-MIN KSTC 180015Z AUTO 26006KT 10SM -RA FEW080 28/21 A2968 1250 62 3100 260/06 RMK AO2 RAB13 P0000
14926KSTC STC20050717182012507/17/05 18:20:31  5-MIN KSTC 180020Z AUTO 27008KT 10SM -RA FEW048 SCT120 28/21 A2967 1250 62 3100 270/08 RMK AO2 RAB13 P0000
14926KSTC STC20050717182513207/17/05 18:25:31  5-MIN KSTC 180025Z AUTO 27008KT 10SM -TSRA FEW048 SCT120 28/21 A2967 1250 66 3000 270/08 RMK AO2 TSB24RAB13 P0000
14926KSTC STC20050717183012507/17/05 18:30:31  5-MIN KSTC 180030Z AUTO 24004KT 10SM -TSRA FEW050 28/21 A2967 1260 66 3000 240/04 RMK AO2 TSB24RAB13 P0000
14926KSTC STC20050717183512507/17/05 18:35:31  5-MIN KSTC 180035Z AUTO 22006KT 10SM TS FEW050 27/22 A2969 1240 71 3000 220/06 RMK AO2 TSB24RAB13E31 P0000
14926KSTC STC20050717184012507/17/05 18:40:31  5-MIN KSTC 180040Z AUTO 22007KT 10SM FEW044 27/22 A2969 1240 71 3000 220/07 RMK AO2 TSB24E38RAB13E31 P0000
14926KSTC STC20050717184513207/17/05 18:45:31  5-MIN KSTC 180045Z AUTO 24010KT 10SM FEW041 27/22 A2970 1230 71 2900 240/10 RMK AO2 TSB24E38RAB13E31 PRESRR P0000
14926KSTC STC20050717185014207/17/05 18:50:31  5-MIN KSTC 180050Z AUTO 24010KT 10SM FEW070 27/22 A2970 1230 71 3000 240/10 RMK AO2 TSB24E38RAB13E31 SLP057 P0000 T02720217
14926KSTC STC20050717185511607/17/05 18:55:31  5-MIN KSTC 180055Z AUTO 25008KT 10SM SCT043 SCT070 SCT090 27/22 A2970 1230 71 3000 240/08 RMK AO2
14926KSTC STC20050717190010907/17/05 19:00:31  5-MIN KSTC 180100Z AUTO 26011KT 10SM BKN043 BKN090 28/21 A2970 1230 66 3000 260/11 RMK AO2
14926KSTC STC20050717190510907/17/05 19:05:31  5-MIN KSTC 180105Z AUTO 27013KT 10SM BKN043 BKN090 28/20 A2971 1220 62 3000 270/13 RMK AO2
14926KSTC STC20050717191011507/17/05 19:10:31  5-MIN KSTC 180110Z AUTO 28018G21KT 10SM BKN043 BKN090 28/19 A2971 1220 60 3000 280/18G21 RMK AO2
14926KSTC STC20050717191512407/17/05 19:15:31  5-MIN KSTC 180115Z AUTO 28017G25KT 10SM -RA BKN043 27/19 A2971 1220 60 2900 280/17G25 RMK AO2 RAB15 P0000
14926KSTC STC20050717192013107/17/05 19:20:31  5-MIN KSTC 180120Z AUTO 28014G25KT 10SM -RA SCT034 BKN043 27/19 A2971 1220 64 2900 270/14G25 RMK AO2 RAB15 P0000
14926KSTC STC20050717192512407/17/05 19:25:31  5-MIN KSTC 180125Z AUTO 28017G23KT 10SM -RA BKN047 26/19 A2971 1220 66 2800 280/17G23 RMK AO2 RAB15 P0000
14926KSTC STC20050717193013107/17/05 19:30:31  5-MIN KSTC 180130Z AUTO 29016G23KT 10SM -RA FEW045 BKN055 26/19 A2972 1220 68 2700 290/16G23 RMK AO2 RAB15 P0000
14926KSTC STC20050717193513107/17/05 19:35:31  5-MIN KSTC 180135Z AUTO 28016G23KT 10SM -RA FEW043 BKN050 26/19 A2972 1210 68 2700 280/16G23 RMK AO2 RAB15 P0000
14926KSTC STC20050717194014207/17/05 19:40:31  5-MIN KSTC 180140Z AUTO 29017G26KT 10SM -RA BKN065 25/19 A2972 1220 68 2700 280/17G26 RMK AO2 PK WND 29026/0137 RAB15 P0000
14926KSTC STC20050717194514207/17/05 19:45:31  5-MIN KSTC 180145Z AUTO 30012G26KT 10SM -RA OVC070 25/19 A2971 1220 68 2700 290/12G26 RMK AO2 PK WND 29026/0137 RAB15 P0000
14926KSTC STC20050717195015207/17/05 19:50:31  5-MIN KSTC 180150Z AUTO 30014KT 10SM BKN080 24/18 A2971 1220 68 2600 290/14 RMK AO2 PK WND 29026/0137 RAB15E48 SLP061 P0000 T02440183
14926KSTC STC20050717195510207/17/05 19:55:31  5-MIN KSTC 180155Z AUTO 29013KT 10SM BKN085 24/18 A2971 1220 66 2600 290/13 RMK AO2
14926KSTC STC20050717200010907/17/05 20:00:31  5-MIN KSTC 180200Z AUTO 29009KT 10SM BKN090 OVC110 24/18 A2970 1230 66 2600 290/09 RMK AO2
14926KSTC STC20050717200511607/17/05 20:05:31  5-MIN KSTC 180205Z AUTO 30008KT 10SM BKN100 OVC110 24/18 A2969 1240 66 2700 300/08 RMK AO2 PRESFR
14926KSTC STC20050717201010207/17/05 20:10:31  5-MIN KSTC 180210Z AUTO 29011KT 10SM BKN100 24/17 A2970 1230 63 2600 290/11 RMK AO2
14926KSTC STC20050717201510207/17/05 20:15:31  5-MIN KSTC 180215Z AUTO 31009KT 10SM BKN100 24/18 A2969 1240 66 2700 310/09 RMK AO2
14926KSTC STC20050717202010207/17/05 20:20:31  5-MIN KSTC 180220Z AUTO 31008KT 10SM SCT100 24/18 A2968 1250 68 2600 300/08 RMK AO2
14926KSTC STC20050717202510207/17/05 20:25:31  5-MIN KSTC 180225Z AUTO 29010KT 10SM SCT100 24/18 A2969 1240 68 2600 290/10 RMK AO2
14926KSTC STC20050717203010807/17/05 20:30:31  5-MIN KSTC 180230Z AUTO 29014G17KT 10SM FEW110 24/17 A2970 1230 66 2600 290/14G17 RMK AO2
14926KSTC STC20050717203510207/17/05 20:35:31  5-MIN KSTC 180235Z AUTO 29011KT 10SM FEW110 24/17 A2969 1240 66 2600 290/11 RMK AO2
14926KSTC STC20050717204009907/17/05 20:40:31  5-MIN KSTC 180240Z AUTO 30012KT 10SM CLR 24/17 A2969 1240 66 2600 300/12 RMK AO2
14926KSTC STC20050717204510507/17/05 20:45:31  5-MIN KSTC 180245Z AUTO 30011G17KT 10SM CLR 24/17 A2968 1250 66 2600 290/11G17 RMK AO2
14926KSTC STC20050717205013707/17/05 20:50:31  5-MIN KSTC 180250Z AUTO 30012G18KT 10SM FEW050 24/17 A2969 1240 66 2600 300/12G18 RMK AO2 SLP053 60000 T02390172 51003
14926KSTC STC20050717205510807/17/05 20:55:31  5-MIN KSTC 180255Z AUTO 30011G18KT 10SM FEW047 24/17 A2969 1240 66 2600 300/11G18 RMK AO2
14926KSTC STC20050717210010207/17/05 21:00:31  5-MIN KSTC 180300Z AUTO 30010KT 10SM FEW050 24/17 A2970 1230 66 2600 290/10 RMK AO2
14926KSTC STC20050717210510207/17/05 21:05:31  5-MIN KSTC 180305Z AUTO 29010KT 10SM FEW050 24/17 A2970 1230 66 2600 290/10 RMK AO2
14926KSTC STC20050717211010207/17/05 21:10:31  5-MIN KSTC 180310Z AUTO 30007KT 10SM FEW050 23/17 A2969 1240 68 2500 300/07 RMK AO2
14926KSTC STC20050717211509907/17/05 21:15:31  5-MIN KSTC 180315Z AUTO 29010KT 10SM CLR 23/17 A2970 1230 68 2500 290/10 RMK AO2
14926KSTC STC20050717212009907/17/05 21:20:31  5-MIN KSTC 180320Z AUTO 30011KT 10SM CLR 23/18 A2970 1230 70 2500 290/11 RMK AO2
14926KSTC STC20050717212509907/17/05 21:25:31  5-MIN KSTC 180325Z AUTO 29006KT 10SM CLR 23/18 A2970 1230 70 2500 290/06 RMK AO2
14926KSTC STC20050717213009907/17/05 21:30:31  5-MIN KSTC 180330Z AUTO 28008KT 10SM CLR 23/18 A2971 1220 70 2500 280/08 RMK AO2
14926KSTC STC20050717213509907/17/05 21:35:31  5-MIN KSTC 180335Z AUTO 29008KT 10SM CLR 23/18 A2971 1220 70 2500 290/08 RMK AO2
14926KSTC STC20050717214009907/17/05 21:40:31  5-MIN KSTC 180340Z AUTO 29010KT 10SM CLR 23/18 A2972 1210 70 2500 290/10 RMK AO2
14926KSTC STC20050717214509907/17/05 21:45:31  5-MIN KSTC 180345Z AUTO 29009KT 10SM CLR 23/18 A2972 1210 70 2500 290/09 RMK AO2
14926KSTC STC20050717215012307/17/05 21:50:31  5-MIN KSTC 180350Z AUTO 28008KT 10SM CLR 23/18 A2973 1200 70 2500 280/08 RMK AO2 PRESRR SLP067 T02330178
14926KSTC STC20050717215509907/17/05 21:55:31  5-MIN KSTC 180355Z AUTO 28010KT 10SM CLR 23/18 A2973 1200 70 2500 280/10 RMK AO2
14926KSTC STC20050717220010607/17/05 22:00:31  5-MIN KSTC 180400Z AUTO 28010KT 10SM CLR 23/18 A2974 1190 70 2500 280/10 RMK AO2 PRESRR
14926KSTC STC20050717220509907/17/05 22:05:31  5-MIN KSTC 180405Z AUTO 28009KT 10SM CLR 23/18 A2974 1190 73 2400 270/09 RMK AO2
14926KSTC STC20050717221009907/17/05 22:10:31  5-MIN KSTC 180410Z AUTO 28007KT 10SM CLR 23/17 A2974 1190 70 2400 280/07 RMK AO2
14926KSTC STC20050717221509907/17/05 22:15:31  5-MIN KSTC 180415Z AUTO 28008KT 10SM CLR 23/17 A2975 1190 70 2400 270/08 RMK AO2
14926KSTC STC20050717222009907/17/05 22:20:31  5-MIN KSTC 180420Z AUTO 27009KT 10SM CLR 23/17 A2975 1180 70 2400 270/09 RMK AO2
14926KSTC STC20050717222509907/17/05 22:25:31  5-MIN KSTC 180425Z AUTO 28010KT 10SM CLR 23/17 A2976 1180 70 2400 280/10 RMK AO2
14926KSTC STC20050717223009907/17/05 22:30:31  5-MIN KSTC 180430Z AUTO 28012KT 10SM CLR 23/17 A2976 1170 68 2400 280/12 RMK AO2
14926KSTC STC20050717223509907/17/05 22:35:31  5-MIN KSTC 180435Z AUTO 29011KT 10SM CLR 23/16 A2976 1170 65 2400 280/11 RMK AO2
14926KSTC STC20050717224009907/17/05 22:40:31  5-MIN KSTC 180440Z AUTO 28009KT 10SM CLR 23/16 A2976 1170 65 2400 280/09 RMK AO2
14926KSTC STC20050717224509907/17/05 22:45:31  5-MIN KSTC 180445Z AUTO 29013KT 10SM CLR 23/16 A2977 1170 63 2400 290/13 RMK AO2
14926KSTC STC20050717225011607/17/05 22:50:31  5-MIN KSTC 180450Z AUTO 29011KT 10SM CLR 23/16 A2977 1170 63 2400 290/11 RMK AO2 SLP080 T02280156
14926KSTC STC20050717225509907/17/05 22:55:31  5-MIN KSTC 180455Z AUTO 29010KT 10SM CLR 23/16 A2977 1170 63 2400 280/10 RMK AO2
14926KSTC STC20050717230009907/17/05 23:00:31  5-MIN KSTC 180500Z AUTO 29009KT 10SM CLR 22/16 A2977 1160 65 2300 280/09 RMK AO2
14926KSTC STC20050717230509907/17/05 23:05:31  5-MIN KSTC 180505Z AUTO 28009KT 10SM CLR 22/16 A2977 1160 65 2300 280/09 RMK AO2
14926KSTC STC20050717231009907/17/05 23:10:31  5-MIN KSTC 180510Z AUTO 29010KT 10SM CLR 22/15 A2977 1160 63 2300 290/10 RMK AO2
14926KSTC STC20050717231509907/17/05 23:15:31  5-MIN KSTC 180515Z AUTO 29011KT 10SM CLR 22/15 A2977 1160 63 2300 280/11 RMK AO2
14926KSTC STC20050717232009907/17/05 23:20:31  5-MIN KSTC 180520Z AUTO 28008KT 10SM CLR 22/14 A2977 1160 61 2300 280/08 RMK AO2
14926KSTC STC20050717232509907/17/05 23:25:31  5-MIN KSTC 180525Z AUTO 28008KT 10SM CLR 22/14 A2977 1160 63 2200 280/08 RMK AO2
14926KSTC STC20050717233009907/17/05 23:30:31  5-MIN KSTC 180530Z AUTO 28009KT 10SM CLR 22/14 A2978 1160 63 2200 280/09 RMK AO2
14926KSTC STC20050717233509907/17/05 23:35:31  5-MIN KSTC 180535Z AUTO 28009KT 10SM CLR 22/14 A2978 1160 63 2200 270/09 RMK AO2
14926KSTC STC20050717234009907/17/05 23:40:31  5-MIN KSTC 180540Z AUTO 28008KT 10SM CLR 22/14 A2977 1160 61 2200 280/08 RMK AO2
14926KSTC STC20050717234509907/17/05 23:45:31  5-MIN KSTC 180545Z AUTO 28008KT 10SM CLR 22/14 A2978 1160 61 2200 280/08 RMK AO2
14926KSTC STC20050717235015007/17/05 23:50:31  5-MIN KSTC 180550Z AUTO 28008KT 10SM CLR 22/14 A2978 1160 61 2200 270/08 RMK AO2 SLP083 60000 T02170139 10289 20217 403500217 50002
14926KSTC STC20050717235509907/17/05 23:55:31  5-MIN KSTC 180555Z AUTO 27008KT 10SM CLR 21/14 A2977 1160 63 2200 270/08 RMK AO2
14926KSTC STC20050718000009907/18/05 00:00:32  5-MIN KSTC 180600Z AUTO 27006KT 10SM CLR 21/14 A2977 1170 63 2200 270/06 RMK AO2
14926KSTC STC20050718000509907/18/05 00:05:31  5-MIN KSTC 180605Z AUTO 27006KT 10SM CLR 21/14 A2977 1170 63 2200 270/06 RMK AO2
14926KSTC STC20050718001009907/18/05 00:10:31  5-MIN KSTC 180610Z AUTO 27007KT 10SM CLR 21/14 A2976 1170 65 2100 270/07 RMK AO2
14926KSTC STC20050718001509907/18/05 00:15:31  5-MIN KSTC 180615Z AUTO 27006KT 10SM CLR 21/14 A2976 1180 65 2100 260/06 RMK AO2
14926KSTC STC20050718002009907/18/05 00:20:31  5-MIN KSTC 180620Z AUTO 26006KT 10SM CLR 20/14 A2976 1180 67 2100 260/06 RMK AO2
14926KSTC STC20050718002509907/18/05 00:25:31  5-MIN KSTC 180625Z AUTO 26006KT 10SM CLR 20/14 A2976 1180 67 2100 260/06 RMK AO2
14926KSTC STC20050718003009907/18/05 00:30:31  5-MIN KSTC 180630Z AUTO 26006KT 10SM CLR 19/14 A2976 1180 72 2000 250/06 RMK AO2
14926KSTC STC20050718003509907/18/05 00:35:31  5-MIN KSTC 180635Z AUTO 26007KT 10SM CLR 19/14 A2975 1180 72 2000 250/07 RMK AO2
14926KSTC STC20050718004009907/18/05 00:40:31  5-MIN KSTC 180640Z AUTO 26007KT 10SM CLR 20/14 A2975 1180 70 2100 250/07 RMK AO2
14926KSTC STC20050718004509907/18/05 00:45:31  5-MIN KSTC 180645Z AUTO 26007KT 10SM CLR 20/15 A2975 1180 72 2100 250/07 RMK AO2
14926KSTC STC20050718005011607/18/05 00:50:31  5-MIN KSTC 180650Z AUTO 25006KT 10SM CLR 19/15 A2976 1180 75 2000 240/06 RMK AO2 SLP076 T01940150
14926KSTC STC20050718005509907/18/05 00:55:31  5-MIN KSTC 180655Z AUTO 24005KT 10SM CLR 19/15 A2975 1180 75 2000 240/05 RMK AO2
14926KSTC STC20050718010009907/18/05 01:00:31  5-MIN KSTC 180700Z AUTO 25006KT 10SM CLR 19/15 A2975 1180 78 2000 240/06 RMK AO2
14926KSTC STC20050718010509907/18/05 01:05:31  5-MIN KSTC 180705Z AUTO 24006KT 10SM CLR 19/15 A2975 1180 78 2000 240/06 RMK AO2
14926KSTC STC20050718011009907/18/05 01:10:31  5-MIN KSTC 180710Z AUTO 25006KT 10SM CLR 19/15 A2975 1180 78 2000 250/06 RMK AO2
14926KSTC STC20050718011509907/18/05 01:15:31  5-MIN KSTC 180715Z AUTO 25006KT 10SM CLR 19/15 A2975 1190 78 2000 250/06 RMK AO2
14926KSTC STC20050718012009907/18/05 01:20:31  5-MIN KSTC 180720Z AUTO 25005KT 10SM CLR 19/15 A2975 1190 78 2000 240/05 RMK AO2
14926KSTC STC20050718012509907/18/05 01:25:31  5-MIN KSTC 180725Z AUTO 24005KT 10SM CLR 18/15 A2975 1190 81 1900 240/05 RMK AO2
14926KSTC STC20050718013009907/18/05 01:30:31  5-MIN KSTC 180730Z AUTO 23004KT 10SM CLR 18/14 A2975 1190 78 1900 230/04 RMK AO2
14926KSTC STC20050718013509907/18/05 01:35:31  5-MIN KSTC 180735Z AUTO 23004KT 10SM CLR 18/14 A2975 1190 78 1900 230/04 RMK AO2
14926KSTC STC20050718014009907/18/05 01:40:31  5-MIN KSTC 180740Z AUTO 23004KT 10SM CLR 18/14 A2975 1190 78 1900 220/04 RMK AO2
14926KSTC STC20050718014509907/18/05 01:45:31  5-MIN KSTC 180745Z AUTO 22005KT 10SM CLR 18/15 A2974 1190 83 1800 220/05 RMK AO2
14926KSTC STC20050718015011607/18/05 01:50:31  5-MIN KSTC 180750Z AUTO 22005KT 10SM CLR 18/14 A2974 1190 81 1800 210/05 RMK AO2 SLP072 T01780144
14926KSTC STC20050718015509907/18/05 01:55:31  5-MIN KSTC 180755Z AUTO 21005KT 10SM CLR 18/14 A2974 1190 81 1800 210/05 RMK AO2
14926KSTC STC20050718020009907/18/05 02:00:31  5-MIN KSTC 180800Z AUTO 21005KT 10SM CLR 17/14 A2974 1190 83 1800 210/05 RMK AO2
14926KSTC STC20050718020509907/18/05 02:05:31  5-MIN KSTC 180805Z AUTO 20005KT 10SM CLR 17/14 A2974 1190 83 1800 200/05 RMK AO2
14926KSTC STC20050718021009907/18/05 02:10:31  5-MIN KSTC 180810Z AUTO 19005KT 10SM CLR 17/14 A2974 1200 83 1800 190/05 RMK AO2
14926KSTC STC20050718021509907/18/05 02:15:31  5-MIN KSTC 180815Z AUTO 20005KT 10SM CLR 17/14 A2974 1190 86 1700 200/05 RMK AO2
14926KSTC STC20050718022009907/18/05 02:20:31  5-MIN KSTC 180820Z AUTO 21006KT 10SM CLR 17/15 A2974 1190 90 1700 210/06 RMK AO2
14926KSTC STC20050718022509907/18/05 02:25:31  5-MIN KSTC 180825Z AUTO 22006KT 10SM CLR 17/15 A2974 1190 90 1700 210/06 RMK AO2
14926KSTC STC20050718023009907/18/05 02:30:31  5-MIN KSTC 180830Z AUTO 22005KT 10SM CLR 17/14 A2974 1190 86 1700 210/05 RMK AO2
14926KSTC STC20050718023509907/18/05 02:35:31  5-MIN KSTC 180835Z AUTO 22006KT 10SM CLR 17/14 A2974 1190 86 1700 220/06 RMK AO2
14926KSTC STC20050718024009907/18/05 02:40:31  5-MIN KSTC 180840Z AUTO 23007KT 10SM CLR 17/14 A2974 1190 83 1800 220/07 RMK AO2
14926KSTC STC20050718024509907/18/05 02:45:31  5-MIN KSTC 180845Z AUTO 23007KT 10SM CLR 18/14 A2974 1190 81 1800 230/07 RMK AO2
14926KSTC STC20050718025012207/18/05 02:50:31  5-MIN KSTC 180850Z AUTO 23007KT 10SM CLR 18/14 A2974 1190 81 1800 220/07 RMK AO2 SLP072 T01780144 51031
14926KSTC STC20050718025509907/18/05 02:55:31  5-MIN KSTC 180855Z AUTO 23008KT 10SM CLR 18/14 A2974 1190 81 1800 230/08 RMK AO2
14926KSTC STC20050718030009907/18/05 03:00:31  5-MIN KSTC 180900Z AUTO 23008KT 10SM CLR 18/14 A2974 1190 81 1800 230/08 RMK AO2
14926KSTC STC20050718030509907/18/05 03:05:31  5-MIN KSTC 180905Z AUTO 24007KT 10SM CLR 18/14 A2974 1190 81 1800 230/07 RMK AO2
14926KSTC STC20050718031009907/18/05 03:10:31  5-MIN KSTC 180910Z AUTO 24008KT 10SM CLR 18/14 A2974 1190 78 1900 240/08 RMK AO2
14926KSTC STC20050718031509907/18/05 03:15:31  5-MIN KSTC 180915Z AUTO 24009KT 10SM CLR 18/14 A2974 1190 78 1900 230/09 RMK AO2
14926KSTC STC20050718032009907/18/05 03:20:31  5-MIN KSTC 180920Z AUTO 23009KT 10SM CLR 18/14 A2974 1190 78 1900 230/09 RMK AO2
14926KSTC STC20050718032509907/18/05 03:25:31  5-MIN KSTC 180925Z AUTO 24009KT 10SM CLR 18/14 A2974 1190 78 1900 230/09 RMK AO2
14926KSTC STC20050718033009907/18/05 03:30:31  5-MIN KSTC 180930Z AUTO 23008KT 10SM CLR 18/14 A2974 1190 78 1900 230/08 RMK AO2
14926KSTC STC20050718033509907/18/05 03:35:31  5-MIN KSTC 180935Z AUTO 23008KT 10SM CLR 18/14 A2974 1190 78 1900 230/08 RMK AO2
14926KSTC STC20050718034009907/18/05 03:40:31  5-MIN KSTC 180940Z AUTO 23007KT 10SM CLR 18/14 A2974 1190 81 1800 230/07 RMK AO2
14926KSTC STC20050718034509907/18/05 03:45:31  5-MIN KSTC 180945Z AUTO 24008KT 10SM CLR 18/14 A2974 1190 81 1800 240/08 RMK AO2
14926KSTC STC20050718035011607/18/05 03:50:31  5-MIN KSTC 180950Z AUTO 24008KT 10SM CLR 18/14 A2974 1190 81 1800 240/08 RMK AO2 SLP075 T01780144
14926KSTC STC20050718035509907/18/05 03:55:31  5-MIN KSTC 180955Z AUTO 25010KT 10SM CLR 18/14 A2974 1190 78 1900 250/10 RMK AO2
14926KSTC STC20050718040009907/18/05 04:00:31  5-MIN KSTC 181000Z AUTO 25009KT 10SM CLR 18/14 A2974 1190 78 1900 250/09 RMK AO2
14926KSTC STC20050718040509907/18/05 04:05:31  5-MIN KSTC 181005Z AUTO 25009KT 10SM CLR 18/14 A2974 1190 78 1900 250/09 RMK AO2
14926KSTC STC20050718041009907/18/05 04:10:31  5-MIN KSTC 181010Z AUTO 25008KT 10SM CLR 18/14 A2975 1190 81 1800 250/08 RMK AO2
14926KSTC STC20050718041509907/18/05 04:15:31  5-MIN KSTC 181015Z AUTO 25009KT 10SM CLR 18/14 A2975 1190 81 1800 250/09 RMK AO2
14926KSTC STC20050718042009907/18/05 04:20:31  5-MIN KSTC 181020Z AUTO 24009KT 10SM CLR 18/14 A2975 1190 78 1800 240/09 RMK AO2
14926KSTC STC20050718042509907/18/05 04:25:31  5-MIN KSTC 181025Z AUTO 25008KT 10SM CLR 18/14 A2975 1190 78 1800 240/08 RMK AO2
14926KSTC STC20050718043009907/18/05 04:30:31  5-MIN KSTC 181030Z AUTO 24008KT 10SM CLR 18/14 A2975 1190 78 1800 240/08 RMK AO2
14926KSTC STC20050718043509907/18/05 04:35:31  5-MIN KSTC 181035Z AUTO 24008KT 10SM CLR 18/14 A2975 1190 78 1800 240/08 RMK AO2
14926KSTC STC20050718044009907/18/05 04:40:31  5-MIN KSTC 181040Z AUTO 25009KT 10SM CLR 18/14 A2975 1180 78 1800 250/09 RMK AO2
14926KSTC STC20050718044509907/18/05 04:45:31  5-MIN KSTC 181045Z AUTO 26009KT 10SM CLR 18/14 A2975 1180 78 1800 250/09 RMK AO2
14926KSTC STC20050718045011607/18/05 04:50:31  5-MIN KSTC 181050Z AUTO 25011KT 10SM CLR 18/14 A2975 1180 75 1900 250/11 RMK AO2 SLP077 T01830139
14926KSTC STC20050718045509907/18/05 04:55:31  5-MIN KSTC 181055Z AUTO 26011KT 10SM CLR 18/13 A2975 1180 75 1800 260/11 RMK AO2
14926KSTC STC20050718050009907/18/05 05:00:31  5-MIN KSTC 181100Z AUTO 26011KT 10SM CLR 18/13 A2975 1180 72 1900 260/11 RMK AO2
14926KSTC STC20050718050509907/18/05 05:05:31  5-MIN KSTC 181105Z AUTO 26011KT 10SM CLR 18/13 A2975 1180 72 1900 260/11 RMK AO2
14926KSTC STC20050718051009907/18/05 05:10:31  5-MIN KSTC 181110Z AUTO 26012KT 10SM CLR 18/13 A2975 1180 72 1900 250/12 RMK AO2
14926KSTC STC20050718051509907/18/05 05:15:31  5-MIN KSTC 181115Z AUTO 25010KT 10SM CLR 18/13 A2975 1180 72 1900 250/10 RMK AO2
14926KSTC STC20050718052009907/18/05 05:20:31  5-MIN KSTC 181120Z AUTO 26011KT 10SM CLR 18/13 A2975 1180 72 1900 250/11 RMK AO2
14926KSTC STC20050718052509907/18/05 05:25:31  5-MIN KSTC 181125Z AUTO 25011KT 10SM CLR 18/13 A2976 1180 72 1900 250/11 RMK AO2
14926KSTC STC20050718053009907/18/05 05:30:31  5-MIN KSTC 181130Z AUTO 26011KT 10SM CLR 18/13 A2976 1180 72 1900 250/11 RMK AO2
14926KSTC STC20050718053509907/18/05 05:35:31  5-MIN KSTC 181135Z AUTO 26011KT 10SM CLR 18/13 A2975 1180 72 1900 250/11 RMK AO2
14926KSTC STC20050718054009907/18/05 05:40:31  5-MIN KSTC 181140Z AUTO 26012KT 10SM CLR 18/13 A2976 1180 72 1900 250/12 RMK AO2
14926KSTC STC20050718054509907/18/05 05:45:31  5-MIN KSTC 181145Z AUTO 26012KT 10SM CLR 18/13 A2975 1180 72 1900 260/12 RMK AO2
14926KSTC STC20050718055014007/18/05 05:50:31  5-MIN KSTC 181150Z AUTO 26012KT 10SM CLR 18/13 A2976 1180 72 1900 260/12 RMK AO2 SLP078 70001 T01830133 10211 20167 55012
14926KSTC STC20050718055509907/18/05 05:55:31  5-MIN KSTC 181155Z AUTO 26014KT 10SM CLR 18/13 A2976 1180 72 1900 260/14 RMK AO2
14926KSTC STC20050718060009907/18/05 06:00:31  5-MIN KSTC 181200Z AUTO 26015KT 10SM CLR 18/13 A2976 1180 72 1900 260/15 RMK AO2
14926KSTC STC20050718060510507/18/05 06:05:31  5-MIN KSTC 181205Z AUTO 26012G19KT 10SM CLR 18/13 A2976 1180 72 1900 260/12G19 RMK AO2
14926KSTC STC20050718061009907/18/05 06:10:31  5-MIN KSTC 181210Z AUTO 27015KT 10SM CLR 18/13 A2976 1180 72 1900 270/15 RMK AO2
14926KSTC STC20050718061509907/18/05 06:15:31  5-MIN KSTC 181215Z AUTO 27013KT 10SM CLR 18/13 A2976 1180 72 1900 270/13 RMK AO2
14926KSTC STC20050718062010507/18/05 06:20:31  5-MIN KSTC 181220Z AUTO 27014G21KT 10SM CLR 19/13 A2976 1180 67 1900 270/14G21 RMK AO2
14926KSTC STC20050718062510507/18/05 06:25:31  5-MIN KSTC 181225Z AUTO 27015G21KT 10SM CLR 19/13 A2976 1170 67 1900 260/15G21 RMK AO2
14926KSTC STC20050718063009907/18/05 06:30:31  5-MIN KSTC 181230Z AUTO 26013KT 10SM CLR 19/13 A2976 1180 67 1900 260/13 RMK AO2
14926KSTC STC20050718063509907/18/05 06:35:31  5-MIN KSTC 181235Z AUTO 25013KT 10SM CLR 19/13 A2976 1180 67 1900 250/13 RMK AO2
14926KSTC STC20050718064009907/18/05 06:40:31  5-MIN KSTC 181240Z AUTO 25013KT 10SM CLR 19/13 A2976 1180 67 1900 250/13 RMK AO2
14926KSTC STC20050718064509907/18/05 06:45:31  5-MIN KSTC 181245Z AUTO 26013KT 10SM CLR 19/13 A2976 1180 67 1900 250/13 RMK AO2
14926KSTC STC20050718065011607/18/05 06:50:31  5-MIN KSTC 181250Z AUTO 26013KT 10SM CLR 19/13 A2976 1180 65 2000 250/13 RMK AO2 SLP079 T01940128
14926KSTC STC20050718065510507/18/05 06:55:31  5-MIN KSTC 181255Z AUTO 26015G19KT 10SM CLR 19/13 A2976 1180 67 2000 260/15G19 RMK AO2
14926KSTC STC20050718070010507/18/05 07:00:31  5-MIN KSTC 181300Z AUTO 26012G19KT 10SM CLR 19/13 A2975 1180 65 2000 250/12G19 RMK AO2
14926KSTC STC20050718070509907/18/05 07:05:31  5-MIN KSTC 181305Z AUTO 26016KT 10SM CLR 20/13 A2976 1180 63 2100 260/16 RMK AO2
14926KSTC STC20050718071009907/18/05 07:10:31  5-MIN KSTC 181310Z AUTO 27014KT 10SM CLR 20/13 A2976 1180 63 2100 260/14 RMK AO2
14926KSTC STC20050718071509907/18/05 07:15:31  5-MIN KSTC 181315Z AUTO 27015KT 10SM CLR 20/13 A2976 1180 63 2100 270/15 RMK AO2
14926KSTC STC20050718072009907/18/05 07:20:31  5-MIN KSTC 181320Z AUTO 27015KT 10SM CLR 21/13 A2976 1180 60 2100 270/15 RMK AO2
14926KSTC STC20050718072510507/18/05 07:25:31  5-MIN KSTC 181325Z AUTO 28018G21KT 10SM CLR 21/12 A2976 1180 58 2100 270/18G21 RMK AO2
14926KSTC STC20050718073010507/18/05 07:30:31  5-MIN KSTC 181330Z AUTO 27017G23KT 10SM CLR 21/12 A2976 1170 58 2100 270/17G23 RMK AO2
14926KSTC STC20050718073510507/18/05 07:35:31  5-MIN KSTC 181335Z AUTO 28015G23KT 10SM CLR 21/12 A2976 1170 58 2100 270/15G23 RMK AO2
14926KSTC STC20050718074009907/18/05 07:40:31  5-MIN KSTC 181340Z AUTO 27014KT 10SM CLR 21/13 A2976 1170 58 2200 270/14 RMK AO2
14926KSTC STC20050718074510507/18/05 07:45:31  5-MIN KSTC 181345Z AUTO 27017G24KT 10SM CLR 21/13 A2976 1170 58 2200 270/17G24 RMK AO2
14926KSTC STC20050718075014007/18/05 07:50:31  5-MIN KSTC 181350Z AUTO 27021G28KT 10SM CLR 21/12 A2976 1170 58 2100 270/21G28 RMK AO2 PK WND 27028/1346 SLP082 T02060122
14926KSTC STC20050718075510507/18/05 07:55:31  5-MIN KSTC 181355Z AUTO 28018G28KT 10SM CLR 21/12 A2976 1170 56 2200 270/18G28 RMK AO2
14926KSTC STC20050718080010507/18/05 08:00:31  5-MIN KSTC 181400Z AUTO 27015G26KT 10SM CLR 21/13 A2976 1170 58 2200 270/15G26 RMK AO2
14926KSTC STC20050718080510507/18/05 08:05:31  5-MIN KSTC 181405Z AUTO 27014G23KT 10SM CLR 21/12 A2976 1170 56 2200 260/14G23 RMK AO2
14926KSTC STC20050718081012307/18/05 08:10:31  5-MIN KSTC 181410Z AUTO 27020G26KT 10SM CLR 22/12 A2976 1180 54 2300 270/20G26 RMK AO2 PK WND 27026/1410
14926KSTC STC20050718081512307/18/05 08:15:31  5-MIN KSTC 181415Z AUTO 28015G26KT 10SM CLR 22/12 A2976 1180 54 2300 270/15G26 RMK AO2 PK WND 27026/1410
14926KSTC STC20050718082012307/18/05 08:20:31  5-MIN KSTC 181420Z AUTO 28016G23KT 10SM CLR 22/12 A2976 1170 54 2300 270/16G23 RMK AO2 PK WND 27026/1410
14926KSTC STC20050718082512607/18/05 08:25:31  5-MIN KSTC 181425Z AUTO 28015G21KT 10SM FEW034 22/13 A2976 1170 56 2300 280/15G21 RMK AO2 PK WND 27026/1410
14926KSTC STC20050718083013307/18/05 08:30:31  5-MIN KSTC 181430Z AUTO 26014G19KT 10SM SCT034 SCT044 22/13 A2976 1170 56 2300 260/14G19 RMK AO2 PK WND 27026/1410
14926KSTC STC20050718083513307/18/05 08:35:31  5-MIN KSTC 181435Z AUTO 26022G27KT 10SM FEW034 BKN046 22/13 A2976 1170 54 2300 260/22G27 RMK AO2 PK WND 26027/1435
14926KSTC STC20050718084013307/18/05 08:40:31  5-MIN KSTC 181440Z AUTO 27021G27KT 10SM FEW034 BKN046 22/12 A2976 1170 52 2300 270/21G27 RMK AO2 PK WND 26027/1435
14926KSTC STC20050718084513307/18/05 08:45:31  5-MIN KSTC 181445Z AUTO 28020G25KT 10SM FEW036 BKN046 22/12 A2976 1170 52 2300 280/20G25 RMK AO2 PK WND 26027/1435
14926KSTC STC20050718085015607/18/05 08:50:31  5-MIN KSTC 181450Z AUTO 27021G24KT 10SM SCT036 OVC046 22/12 A2976 1170 54 2300 270/21G24 RMK AO2 PK WND 26027/1435 SLP082 T02170122 53004
14926KSTC STC20050718085511507/18/05 08:55:31  5-MIN KSTC 181455Z AUTO 28021G25KT 10SM FEW036 OVC046 22/12 A2976 1170 54 2300 270/21G25 RMK AO2
14926KSTC STC20050718090011507/18/05 09:00:31  5-MIN KSTC 181500Z AUTO 26018G25KT 10SM FEW038 OVC046 22/13 A2976 1170 54 2300 260/18G25 RMK AO2
14926KSTC STC20050718090511507/18/05 09:05:31  5-MIN KSTC 181505Z AUTO 27016G22KT 10SM FEW038 OVC046 22/13 A2977 1170 54 2300 260/16G22 RMK AO2
14926KSTC STC20050718091013307/18/05 09:10:31  5-MIN KSTC 181510Z AUTO 27019G26KT 10SM FEW038 OVC046 22/13 A2977 1170 54 2300 260/19G26 RMK AO2 PK WND 27026/1507
14926KSTC STC20050718091513307/18/05 09:15:31  5-MIN KSTC 181515Z AUTO 27021G26KT 10SM FEW033 OVC046 22/13 A2977 1170 54 2300 270/21G26 RMK AO2 PK WND 25026/1515
14926KSTC STC20050718092013307/18/05 09:20:31  5-MIN KSTC 181520Z AUTO 27018G26KT 10SM FEW033 OVC048 22/13 A2977 1170 56 2200 270/18G26 RMK AO2 PK WND 25026/1515
14926KSTC STC20050718092513307/18/05 09:25:31  5-MIN KSTC 181525Z AUTO 26018G28KT 10SM FEW035 OVC048 22/13 A2977 1170 56 2200 260/18G28 RMK AO2 PK WND 27028/1521
14926KSTC STC20050718093013307/18/05 09:30:31  5-MIN KSTC 181530Z AUTO 27016G28KT 10SM FEW035 OVC048 22/13 A2977 1160 56 2200 270/16G28 RMK AO2 PK WND 27028/1521
14926KSTC STC20050718093513307/18/05 09:35:31  5-MIN KSTC 181535Z AUTO 28018G23KT 10SM FEW035 OVC048 22/13 A2977 1170 56 2200 270/18G23 RMK AO2 PK WND 27028/1521
14926KSTC STC20050718094013307/18/05 09:40:31  5-MIN KSTC 181540Z AUTO 27017G22KT 10SM FEW035 OVC048 22/13 A2977 1160 56 2200 270/17G22 RMK AO2 PK WND 27028/1521
14926KSTC STC20050718094513307/18/05 09:45:31  5-MIN KSTC 181545Z AUTO 29019G24KT 10SM FEW035 OVC048 22/13 A2977 1160 54 2300 280/19G24 RMK AO2 PK WND 27028/1521
14926KSTC STC20050718095015007/18/05 09:50:31  5-MIN KSTC 181550Z AUTO 29021G27KT 10SM FEW033 OVC048 22/13 A2978 1160 54 2300 280/21G27 RMK AO2 PK WND 27028/1521 SLP086 T02220128
14926KSTC STC20050718095511507/18/05 09:55:31  5-MIN KSTC 181555Z AUTO 27014G27KT 10SM SCT035 OVC048 22/13 A2978 1160 56 2200 270/14G27 RMK AO2
14926KSTC STC20050718100011507/18/05 10:00:31  5-MIN KSTC 181600Z AUTO 28018G25KT 10SM FEW035 OVC048 22/13 A2978 1160 54 2300 280/18G25 RMK AO2
14926KSTC STC20050718100513307/18/05 10:05:31  5-MIN KSTC 181605Z AUTO 29020G25KT 10SM FEW035 OVC048 22/12 A2978 1160 54 2200 280/20G25 RMK AO2 PK WND 29026/1602
14926KSTC STC20050718101013307/18/05 10:10:31  5-MIN KSTC 181610Z AUTO 27022G25KT 10SM FEW035 OVC048 22/13 A2978 1160 56 2200 270/22G25 RMK AO2 PK WND 29026/1602
14926KSTC STC20050718101513307/18/05 10:15:31  5-MIN KSTC 181615Z AUTO 29017G25KT 10SM FEW035 OVC048 22/13 A2978 1160 56 2200 280/17G25 RMK AO2 PK WND 29026/1602
14926KSTC STC20050718102012707/18/05 10:20:31  5-MIN KSTC 181620Z AUTO 28016KT 10SM FEW035 OVC048 22/13 A2978 1160 56 2200 280/16 RMK AO2 PK WND 29026/1602
14926KSTC STC20050718102513307/18/05 10:25:31  5-MIN KSTC 181625Z AUTO 29015G20KT 10SM FEW035 OVC048 22/13 A2978 1160 54 2300 290/15G20 RMK AO2 PK WND 29026/1602
14926KSTC STC20050718103013307/18/05 10:30:31  5-MIN KSTC 181630Z AUTO 29018G25KT 10SM FEW035 OVC046 22/12 A2978 1160 54 2200 280/18G25 RMK AO2 PK WND 29026/1602
14926KSTC STC20050718103513307/18/05 10:35:31  5-MIN KSTC 181635Z AUTO 27018G25KT 10SM FEW035 OVC046 22/13 A2978 1160 54 2300 270/18G25 RMK AO2 PK WND 29026/1602
14926KSTC STC20050718104013307/18/05 10:40:31  5-MIN KSTC 181640Z AUTO 29018G24KT 10SM SCT035 OVC046 22/13 A2978 1160 54 2300 290/18G24 RMK AO2 PK WND 29026/1602
14926KSTC STC20050718104513307/18/05 10:45:31  5-MIN KSTC 181645Z AUTO 27018G25KT 10SM SCT035 OVC046 23/13 A2978 1160 53 2400 270/18G25 RMK AO2 PK WND 29026/1602
14926KSTC STC20050718105015007/18/05 10:50:31  5-MIN KSTC 181650Z AUTO 28021G27KT 10SM SCT037 OVC046 22/13 A2978 1160 54 2300 280/21G27 RMK AO2 PK WND 28027/1649 SLP087 T02220128
14926KSTC STC20050718105511507/18/05 10:55:31  5-MIN KSTC 181655Z AUTO 28017G27KT 10SM BKN037 OVC046 22/13 A2978 1150 54 2300 280/17G27 RMK AO2
14926KSTC STC20050718110011507/18/05 11:00:31  5-MIN KSTC 181700Z AUTO 27016G24KT 10SM BKN037 OVC046 22/13 A2978 1160 54 2300 260/16G24 RMK AO2
14926KSTC STC20050718110511507/18/05 11:05:31  5-MIN KSTC 181705Z AUTO 29016G24KT 10SM BKN037 OVC046 22/13 A2978 1150 54 2300 280/16G24 RMK AO2
14926KSTC STC20050718111011507/18/05 11:10:31  5-MIN KSTC 181710Z AUTO 27021G24KT 10SM SCT037 OVC046 22/12 A2978 1160 52 2300 270/21G24 RMK AO2
14926KSTC STC20050718111511507/18/05 11:15:31  5-MIN KSTC 181715Z AUTO 27018G24KT 10SM BKN039 OVC046 22/13 A2978 1150 56 2200 270/18G24 RMK AO2
14926KSTC STC20050718112013307/18/05 11:20:31  5-MIN KSTC 181720Z AUTO 27021G27KT 10SM BKN037 OVC046 22/12 A2979 1150 54 2200 270/21G27 RMK AO2 PK WND 27027/1716
14926KSTC STC20050718112513307/18/05 11:25:31  5-MIN KSTC 181725Z AUTO 28018G27KT 10SM BKN038 OVC046 22/13 A2979 1150 56 2200 270/18G27 RMK AO2 PK WND 27027/1716
14926KSTC STC20050718113012607/18/05 11:30:31  5-MIN KSTC 181730Z AUTO 29018G24KT 10SM OVC042 22/13 A2979 1150 56 2200 280/18G24 RMK AO2 PK WND 27027/1716
14926KSTC STC20050718113513307/18/05 11:35:31  5-MIN KSTC 181735Z AUTO 29018G24KT 10SM BKN038 OVC046 22/13 A2979 1150 54 2300 290/18G24 RMK AO2 PK WND 27027/1716
14926KSTC STC20050718114013307/18/05 11:40:31  5-MIN KSTC 181740Z AUTO 29018G23KT 10SM BKN040 OVC049 22/13 A2979 1140 56 2200 280/18G23 RMK AO2 PK WND 27027/1716
14926KSTC STC20050718114513307/18/05 11:45:31  5-MIN KSTC 181745Z AUTO 29019G24KT 10SM BKN038 OVC046 21/13 A2980 1140 58 2200 280/19G24 RMK AO2 PK WND 27027/1716
14926KSTC STC20050718115016807/18/05 11:50:31  5-MIN KSTC 181750Z AUTO 29018G24KT 10SM SCT036 OVC046 22/13 A2980 1140 56 2200 290/18G24 RMK AO2 PK WND 27027/1716 SLP093 T02170128 10228 20183 50002
14926KSTC STC20050718115511507/18/05 11:55:31  5-MIN KSTC 181755Z AUTO 28014G24KT 10SM SCT036 OVC046 22/13 A2980 1140 54 2300 280/14G24 RMK AO2
14926KSTC STC20050718120011507/18/05 12:00:31  5-MIN KSTC 181800Z AUTO 28018G22KT 10SM SCT036 OVC048 22/13 A2980 1140 54 2300 280/18G22 RMK AO2
14926KSTC STC20050718120511507/18/05 12:05:31  5-MIN KSTC 181805Z AUTO 28015G22KT 10SM SCT036 OVC046 22/12 A2980 1140 54 2200 280/15G22 RMK AO2
14926KSTC STC20050718121011507/18/05 12:10:31  5-MIN KSTC 181810Z AUTO 29016G25KT 10SM SCT036 OVC046 22/13 A2980 1140 56 2200 290/16G25 RMK AO2
14926KSTC STC20050718121511507/18/05 12:15:31  5-MIN KSTC 181815Z AUTO 30018G25KT 10SM FEW036 OVC049 23/13 A2980 1140 53 2300 300/18G25 RMK AO2
14926KSTC STC20050718122011507/18/05 12:20:31  5-MIN KSTC 181820Z AUTO 27016G25KT 10SM SCT036 OVC049 23/13 A2980 1140 53 2300 270/16G25 RMK AO2
14926KSTC STC20050718122511507/18/05 12:25:31  5-MIN KSTC 181825Z AUTO 28019G25KT 10SM SCT036 OVC049 23/13 A2980 1140 51 2400 270/19G25 RMK AO2
14926KSTC STC20050718123011507/18/05 12:30:31  5-MIN KSTC 181830Z AUTO 29018G24KT 10SM SCT038 BKN049 24/13 A2980 1140 49 2500 290/18G24 RMK AO2
14926KSTC STC20050718123511507/18/05 12:35:31  5-MIN KSTC 181835Z AUTO 28019G23KT 10SM SCT038 OVC049 23/12 A2980 1140 51 2300 280/19G23 RMK AO2
14926KSTC STC20050718124010907/18/05 12:40:31  5-MIN KSTC 181840Z AUTO 29019KT 10SM BKN038 OVC049 22/12 A2980 1140 52 2300 280/19 RMK AO2
14926KSTC STC20050718124511507/18/05 12:45:31  5-MIN KSTC 181845Z AUTO 29015G22KT 10SM SCT038 OVC049 23/12 A2980 1130 51 2300 280/15G22 RMK AO2
14926KSTC STC20050718125013207/18/05 12:50:31  5-MIN KSTC 181850Z AUTO 29017G24KT 10SM SCT040 OVC049 23/13 A2980 1130 53 2300 290/17G24 RMK AO2 SLP096 T02280128
14926KSTC STC20050718125511507/18/05 12:55:31  5-MIN KSTC 181855Z AUTO 29018G24KT 10SM BKN040 OVC049 23/12 A2981 1130 51 2300 290/18G24 RMK AO2
14926KSTC STC20050718130011507/18/05 13:00:31  5-MIN KSTC 181900Z AUTO 27020G25KT 10SM SCT040 OVC049 23/12 A2981 1130 51 2300 270/20G25 RMK AO2
14926KSTC STC20050718130511507/18/05 13:05:31  5-MIN KSTC 181905Z AUTO 28017G25KT 10SM FEW040 OVC049 23/12 A2981 1130 49 2400 280/17G25 RMK AO2
14926KSTC STC20050718131011507/18/05 13:10:31  5-MIN KSTC 181910Z AUTO 30018G25KT 10SM FEW040 OVC049 23/12 A2981 1130 49 2400 300/18G25 RMK AO2
14926KSTC STC20050718131511507/18/05 13:15:31  5-MIN KSTC 181915Z AUTO 28017G25KT 10SM FEW040 OVC049 23/12 A2981 1130 49 2400 280/17G25 RMK AO2
14926KSTC STC20050718132010807/18/05 13:20:31  5-MIN KSTC 181920Z AUTO 29015G22KT 10SM OVC049 23/12 A2981 1130 49 2400 290/15G22 RMK AO2
14926KSTC STC20050718132510807/18/05 13:25:31  5-MIN KSTC 181925Z AUTO 29014G21KT 10SM OVC049 23/12 A2981 1130 49 2400 290/14G21 RMK AO2
14926KSTC STC20050718133010807/18/05 13:30:31  5-MIN KSTC 181930Z AUTO 28018G23KT 10SM OVC047 23/12 A2981 1130 51 2300 280/18G23 RMK AO2
14926KSTC STC20050718133510807/18/05 13:35:31  5-MIN KSTC 181935Z AUTO 29016G23KT 10SM OVC047 23/12 A2982 1120 51 2300 280/16G23 RMK AO2
14926KSTC STC20050718134010807/18/05 13:40:31  5-MIN KSTC 181940Z AUTO 29016G22KT 10SM OVC048 23/12 A2982 1120 49 2400 290/16G22 RMK AO2
14926KSTC STC20050718134511507/18/05 13:45:31  5-MIN KSTC 181945Z AUTO 29017G22KT 10SM SCT041 OVC050 23/12 A2982 1120 51 2300 290/17G22 RMK AO2
14926KSTC STC20050718135013207/18/05 13:50:31  5-MIN KSTC 181950Z AUTO 28015G23KT 10SM BKN041 OVC050 23/12 A2982 1120 51 2300 280/15G23 RMK AO2 SLP101 T02280122
14926KSTC STC20050718135511507/18/05 13:55:31  5-MIN KSTC 181955Z AUTO 29018G23KT 10SM SCT041 OVC050 23/12 A2982 1120 49 2400 280/18G23 RMK AO2
14926KSTC STC20050718140011507/18/05 14:00:31  5-MIN KSTC 182000Z AUTO 28019G24KT 10SM SCT041 OVC050 23/12 A2982 1120 49 2300 280/19G24 RMK AO2
14926KSTC STC20050718140511507/18/05 14:05:31  5-MIN KSTC 182005Z AUTO 28018G24KT 10SM BKN041 OVC050 23/12 A2982 1120 51 2300 280/18G24 RMK AO2
14926KSTC STC20050718141011507/18/05 14:10:31  5-MIN KSTC 182010Z AUTO 28018G24KT 10SM BKN041 OVC050 23/12 A2982 1120 49 2300 280/18G24 RMK AO2
14926KSTC STC20050718141511507/18/05 14:15:31  5-MIN KSTC 182015Z AUTO 30016G24KT 10SM BKN041 OVC050 23/12 A2982 1120 47 2400 290/16G24 RMK AO2
14926KSTC STC20050718142011507/18/05 14:20:31  5-MIN KSTC 182020Z AUTO 31016G24KT 10SM SCT043 OVC050 24/12 A2982 1120 47 2400 300/16G24 RMK AO2
14926KSTC STC20050718142511507/18/05 14:25:31  5-MIN KSTC 182025Z AUTO 31015G23KT 10SM BKN043 OVC050 23/12 A2982 1120 51 2300 310/15G23 RMK AO2
14926KSTC STC20050718143011507/18/05 14:30:31  5-MIN KSTC 182030Z AUTO 29015G23KT 10SM BKN043 OVC050 23/12 A2982 1120 49 2400 290/15G23 RMK AO2
14926KSTC STC20050718143510807/18/05 14:35:31  5-MIN KSTC 182035Z AUTO 30019G24KT 10SM OVC046 23/12 A2982 1120 49 2400 290/19G24 RMK AO2
14926KSTC STC20050718144011507/18/05 14:40:31  5-MIN KSTC 182040Z AUTO 29017G24KT 10SM BKN042 OVC049 23/12 A2983 1110 47 2400 290/17G24 RMK AO2
14926KSTC STC20050718144510807/18/05 14:45:31  5-MIN KSTC 182045Z AUTO 30013G22KT 10SM OVC045 23/12 A2983 1110 51 2300 290/13G22 RMK AO2
14926KSTC STC20050718145012507/18/05 14:50:31  5-MIN KSTC 182050Z AUTO 30017KT 10SM OVC046 23/12 A2983 1110 51 2300 300/17 RMK AO2 SLP105 T02280122 51011
14926KSTC STC20050718145510807/18/05 14:55:31  5-MIN KSTC 182055Z AUTO 31016G21KT 10SM OVC046 23/12 A2983 1110 51 2300 300/16G21 RMK AO2
14926KSTC STC20050718150010807/18/05 15:00:31  5-MIN KSTC 182100Z AUTO 30018G23KT 10SM OVC045 23/12 A2983 1110 49 2400 300/18G23 RMK AO2
14926KSTC STC20050718150510807/18/05 15:05:31  5-MIN KSTC 182105Z AUTO 31015G23KT 10SM OVC047 23/12 A2983 1110 49 2400 310/15G23 RMK AO2
14926KSTC STC20050718151010807/18/05 15:10:31  5-MIN KSTC 182110Z AUTO 30017G22KT 10SM OVC048 23/12 A2983 1110 49 2400 290/17G22 RMK AO2
14926KSTC STC20050718151511507/18/05 15:15:31  5-MIN KSTC 182115Z AUTO 31015G21KT 10SM FEW043 BKN050 23/12 A2983 1110 49 2400 310/15G21 RMK AO2
14926KSTC STC20050718152010807/18/05 15:20:31  5-MIN KSTC 182120Z AUTO 30015G21KT 10SM BKN048 23/12 A2983 1110 49 2400 300/15G21 RMK AO2
14926KSTC STC20050718152510207/18/05 15:25:31  5-MIN KSTC 182125Z AUTO 30014KT 10SM BKN048 23/12 A2983 1110 51 2300 300/14 RMK AO2
14926KSTC STC20050718153010807/18/05 15:30:31  5-MIN KSTC 182130Z AUTO 28013G20KT 10SM BKN048 24/12 A2983 1110 47 2400 280/13G20 RMK AO2
14926KSTC STC20050718153510807/18/05 15:35:31  5-MIN KSTC 182135Z AUTO 32014G20KT 10SM BKN046 23/12 A2983 1110 51 2300 310/14G20 RMK AO2
14926KSTC STC20050718154010807/18/05 15:40:31  5-MIN KSTC 182140Z AUTO 31018G22KT 10SM BKN046 23/12 A2983 1110 49 2400 300/18G22 RMK AO2
14926KSTC STC20050718154511507/18/05 15:45:31  5-MIN KSTC 182145Z AUTO 31015G22KT 10SM BKN046 BKN055 23/12 A2983 1110 47 2400 300/15G22 RMK AO2
14926KSTC STC20050718155013207/18/05 15:50:31  5-MIN KSTC 182150Z AUTO 29017G20KT 10SM BKN046 BKN055 24/12 A2983 1110 47 2400 290/17G20 RMK AO2 SLP105 T02390122
14926KSTC STC20050718155511507/18/05 15:55:31  5-MIN KSTC 182155Z AUTO 30016G20KT 10SM BKN046 BKN055 24/12 A2983 1110 47 2400 290/16G20 RMK AO2
14926KSTC STC20050718160010907/18/05 16:00:31  5-MIN KSTC 182200Z AUTO 32014KT 10SM BKN046 BKN055 23/12 A2983 1110 49 2400 320/14 RMK AO2
14926KSTC STC20050718160510907/18/05 16:05:31  5-MIN KSTC 182205Z AUTO 31016KT 10SM BKN046 BKN055 23/12 A2984 1110 49 2400 300/16 RMK AO2
14926KSTC STC20050718161010907/18/05 16:10:31  5-MIN KSTC 182210Z AUTO 30014KT 10SM SCT046 BKN055 24/12 A2984 1100 47 2400 300/14 RMK AO2
14926KSTC STC20050718161511507/18/05 16:15:31  5-MIN KSTC 182215Z AUTO 29014G21KT 10SM SCT046 BKN055 24/12 A2984 1100 47 2400 290/14G21 RMK AO2
14926KSTC STC20050718162011507/18/05 16:20:31  5-MIN KSTC 182220Z AUTO 30014G22KT 10SM SCT046 BKN055 23/12 A2984 1100 47 2400 300/14G22 RMK AO2
14926KSTC STC20050718162511507/18/05 16:25:31  5-MIN KSTC 182225Z AUTO 30012G22KT 10SM BKN046 BKN055 23/12 A2984 1100 49 2400 300/12G22 RMK AO2
14926KSTC STC20050718163010907/18/05 16:30:31  5-MIN KSTC 182230Z AUTO 31012KT 10SM SCT046 BKN055 24/12 A2984 1100 47 2400 300/12 RMK AO2
14926KSTC STC20050718163511507/18/05 16:35:31  5-MIN KSTC 182235Z AUTO 30014G20KT 10SM FEW044 BKN055 24/12 A2984 1100 47 2400 290/14G20 RMK AO2
14926KSTC STC20050718164011507/18/05 16:40:31  5-MIN KSTC 182240Z AUTO 31014G20KT 10SM SCT044 BKN055 24/12 A2984 1100 47 2400 300/14G20 RMK AO2
14926KSTC STC20050718164510907/18/05 16:45:31  5-MIN KSTC 182245Z AUTO 30016KT 10SM BKN046 BKN055 23/12 A2984 1100 47 2400 300/16 RMK AO2
14926KSTC STC20050718165012607/18/05 16:50:31  5-MIN KSTC 182250Z AUTO 31015KT 10SM BKN046 BKN055 23/12 A2984 1100 49 2300 310/15 RMK AO2 SLP110 T02280117
14926KSTC STC20050718165510907/18/05 16:55:31  5-MIN KSTC 182255Z AUTO 30015KT 10SM BKN049 BKN055 23/12 A2985 1100 47 2400 300/15 RMK AO2
14926KSTC STC20050718170010207/18/05 17:00:31  5-MIN KSTC 182300Z AUTO 30012KT 10SM BKN050 23/12 A2985 1100 47 2400 300/12 RMK AO2
14926KSTC STC20050718170510207/18/05 17:05:31  5-MIN KSTC 182305Z AUTO 28012KT 10SM BKN050 23/12 A2985 1090 47 2300 280/12 RMK AO2
14926KSTC STC20050718171010907/18/05 17:10:31  5-MIN KSTC 182310Z AUTO 29016KT 10SM SCT050 BKN055 23/11 A2985 1100 47 2300 290/16 RMK AO2
14926KSTC STC20050718171510207/18/05 17:15:31  5-MIN KSTC 182315Z AUTO 31014KT 10SM BKN050 23/11 A2985 1100 47 2300 300/14 RMK AO2
14926KSTC STC20050718172010207/18/05 17:20:31  5-MIN KSTC 182320Z AUTO 32012KT 10SM BKN050 23/12 A2985 1090 49 2300 310/12 RMK AO2
14926KSTC STC20050718172510207/18/05 17:25:31  5-MIN KSTC 182325Z AUTO 33010KT 10SM BKN050 22/12 A2985 1090 52 2200 330/10 RMK AO2
14926KSTC STC20050718173010907/18/05 17:30:31  5-MIN KSTC 182330Z AUTO 33011KT 10SM BKN049 BKN055 23/12 A2985 1090 51 2300 320/11 RMK AO2
14926KSTC STC20050718173510207/18/05 17:35:31  5-MIN KSTC 182335Z AUTO 31013KT 10SM BKN049 23/12 A2985 1090 51 2300 310/13 RMK AO2
14926KSTC STC20050718174010207/18/05 17:40:31  5-MIN KSTC 182340Z AUTO 32010KT 10SM BKN049 23/12 A2985 1090 51 2300 320/10 RMK AO2
14926KSTC STC20050718174510207/18/05 17:45:31  5-MIN KSTC 182345Z AUTO 32011KT 10SM BKN049 23/12 A2985 1090 51 2300 310/11 RMK AO2
14926KSTC STC20050718175013707/18/05 17:50:31  5-MIN KSTC 182350Z AUTO 30012KT 10SM SCT049 23/12 A2985 1090 51 2300 300/12 RMK AO2 SLP113 T02280122 10244 20217 51011
14926KSTC STC20050718175510207/18/05 17:55:31  5-MIN KSTC 182355Z AUTO 32011KT 10SM SCT049 22/12 A2986 1090 52 2200 320/11 RMK AO2
14926KSTC STC20050718180010907/18/05 18:00:31  5-MIN KSTC 190000Z AUTO 32010KT 10SM SCT047 BKN055 22/12 A2986 1080 54 2100 310/10 RMK AO2
14926KSTC STC20050718180510207/18/05 18:05:31  5-MIN KSTC 190005Z AUTO 31012KT 10SM BKN047 22/12 A2986 1080 52 2200 310/12 RMK AO2
14926KSTC STC20050718181010207/18/05 18:10:31  5-MIN KSTC 190010Z AUTO 30015KT 10SM BKN047 23/12 A2986 1080 49 2300 290/15 RMK AO2
14926KSTC STC20050718181510207/18/05 18:15:31  5-MIN KSTC 190015Z AUTO 31013KT 10SM SCT047 23/11 A2986 1080 47 2300 310/13 RMK AO2
14926KSTC STC20050718182010207/18/05 18:20:31  5-MIN KSTC 190020Z AUTO 32010KT 10SM BKN047 22/12 A2987 1080 51 2200 320/10 RMK AO2
14926KSTC STC20050718182510207/18/05 18:25:31  5-MIN KSTC 190025Z AUTO 30012KT 10SM BKN047 22/12 A2987 1070 51 2200 300/12 RMK AO2
14926KSTC STC20050718183010807/18/05 18:30:31  5-MIN KSTC 190030Z AUTO 31012G16KT 10SM SCT047 22/12 A2987 1070 51 2200 310/12G16 RMK AO2
14926KSTC STC20050718183510807/18/05 18:35:31  5-MIN KSTC 190035Z AUTO 31013G17KT 10SM FEW047 22/12 A2988 1070 52 2100 300/13G17 RMK AO2
14926KSTC STC20050718184010807/18/05 18:40:31  5-MIN KSTC 190040Z AUTO 29011G17KT 10SM SCT047 22/12 A2988 1070 51 2200 290/11G17 RMK AO2
14926KSTC STC20050718184510207/18/05 18:45:31  5-MIN KSTC 190045Z AUTO 29011KT 10SM SCT047 22/12 A2988 1060 52 2100 290/11 RMK AO2
14926KSTC STC20050718185011907/18/05 18:50:31  5-MIN KSTC 190050Z AUTO 30012KT 10SM FEW047 22/12 A2988 1060 52 2100 300/12 RMK AO2 SLP122 T02170117
14926KSTC STC20050718185510207/18/05 18:55:31  5-MIN KSTC 190055Z AUTO 32013KT 10SM SCT047 22/11 A2988 1070 50 2100 310/13 RMK AO2
14926KSTC STC20050718190010207/18/05 19:00:31  5-MIN KSTC 190100Z AUTO 32012KT 10SM SCT047 22/11 A2988 1060 50 2100 310/12 RMK AO2
14926KSTC STC20050718190510207/18/05 19:05:31  5-MIN KSTC 190105Z AUTO 30011KT 10SM FEW047 21/11 A2988 1060 52 2100 300/11 RMK AO2
14926KSTC STC20050718191010207/18/05 19:10:31  5-MIN KSTC 190110Z AUTO 30010KT 10SM FEW045 21/11 A2988 1060 52 2100 300/10 RMK AO2
14926KSTC STC20050718191510207/18/05 19:15:31  5-MIN KSTC 190115Z AUTO 30010KT 10SM FEW045 21/11 A2988 1060 52 2100 300/10 RMK AO2
14926KSTC STC20050718192010207/18/05 19:20:31  5-MIN KSTC 190120Z AUTO 31011KT 10SM FEW045 21/11 A2988 1060 54 2000 310/11 RMK AO2
14926KSTC STC20050718192509907/18/05 19:25:31  5-MIN KSTC 190125Z AUTO 31007KT 10SM CLR 21/12 A2988 1060 56 2000 310/07 RMK AO2
14926KSTC STC20050718193009907/18/05 19:30:31  5-MIN KSTC 190130Z AUTO 31008KT 10SM CLR 20/12 A2989 1060 58 1900 310/08 RMK AO2
14926KSTC STC20050718193510207/18/05 19:35:31  5-MIN KSTC 190135Z AUTO 31009KT 10SM FEW039 20/11 A2989 1060 56 1900 310/09 RMK AO2
14926KSTC STC20050718194010207/18/05 19:40:31  5-MIN KSTC 190140Z AUTO 32009KT 10SM FEW039 19/12 A2989 1060 60 1900 310/09 RMK AO2
14926KSTC STC20050718194510207/18/05 19:45:31  5-MIN KSTC 190145Z AUTO 32010KT 10SM FEW039 19/12 A2989 1050 60 1900 310/10 RMK AO2
14926KSTC STC20050718195011907/18/05 19:50:31  5-MIN KSTC 190150Z AUTO 33007KT 10SM FEW039 19/12 A2989 1050 60 1900 320/07 RMK AO2 SLP128 T01940117
14926KSTC STC20050718195510207/18/05 19:55:31  5-MIN KSTC 190155Z AUTO 32009KT 10SM SCT039 19/12 A2990 1050 62 1800 320/09 RMK AO2
14926KSTC STC20050718200010807/18/05 20:00:31  5-MIN KSTC 190200Z AUTO 32010G14KT 10SM SCT039 19/12 A2990 1050 62 1800 310/10G14 RMK AO2
14926KSTC STC20050718200510207/18/05 20:05:31  5-MIN KSTC 190205Z AUTO 32010KT 10SM SCT039 19/12 A2990 1050 65 1800 320/10 RMK AO2
14926KSTC STC20050718201010207/18/05 20:10:31  5-MIN KSTC 190210Z AUTO 32009KT 10SM FEW039 18/12 A2990 1040 65 1700 310/09 RMK AO2
14926KSTC STC20050718201510207/18/05 20:15:31  5-MIN KSTC 190215Z AUTO 32009KT 10SM FEW039 18/12 A2991 1040 65 1700 310/09 RMK AO2
14926KSTC STC20050718202010207/18/05 20:20:31  5-MIN KSTC 190220Z AUTO 32008KT 10SM FEW039 18/12 A2991 1040 67 1600 310/08 RMK AO2
14926KSTC STC20050718202510207/18/05 20:25:31  5-MIN KSTC 190225Z AUTO 32008KT 10SM FEW039 18/12 A2991 1040 67 1600 310/08 RMK AO2
14926KSTC STC20050718203009907/18/05 20:30:31  5-MIN KSTC 190230Z AUTO 32007KT 10SM CLR 18/12 A2991 1030 67 1600 310/07 RMK AO2
14926KSTC STC20050718203509907/18/05 20:35:31  5-MIN KSTC 190235Z AUTO 32006KT 10SM CLR 17/12 A2992 1030 69 1600 310/06 RMK AO2
14926KSTC STC20050718204009907/18/05 20:40:31  5-MIN KSTC 190240Z AUTO 32008KT 10SM CLR 17/12 A2992 1030 69 1600 320/08 RMK AO2
14926KSTC STC20050718204509907/18/05 20:45:31  5-MIN KSTC 190245Z AUTO 33008KT 10SM CLR 18/11 A2992 1030 64 1600 320/08 RMK AO2
14926KSTC STC20050718205012207/18/05 20:50:31  5-MIN KSTC 190250Z AUTO 33006KT 10SM CLR 17/11 A2992 1030 67 1600 320/06 RMK AO2 SLP137 T01720111 53008
14926KSTC STC20050718205509907/18/05 20:55:31  5-MIN KSTC 190255Z AUTO 32006KT 10SM CLR 17/11 A2992 1030 67 1600 320/06 RMK AO2
14926KSTC STC20050718210009907/18/05 21:00:31  5-MIN KSTC 190300Z AUTO 32007KT 10SM CLR 17/11 A2992 1030 67 1600 320/07 RMK AO2
14926KSTC STC20050718210509907/18/05 21:05:31  5-MIN KSTC 190305Z AUTO 32007KT 10SM CLR 17/11 A2992 1030 69 1500 310/07 RMK AO2
14926KSTC STC20050718211009907/18/05 21:10:31  5-MIN KSTC 190310Z AUTO 32005KT 10SM CLR 17/11 A2992 1030 69 1500 310/05 RMK AO2
14926KSTC STC20050718211509907/18/05 21:15:31  5-MIN KSTC 190315Z AUTO 32006KT 10SM CLR 17/11 A2992 1020 69 1500 320/06 RMK AO2
14926KSTC STC20050718212009907/18/05 21:20:31  5-MIN KSTC 190320Z AUTO 32005KT 10SM CLR 16/11 A2993 1020 72 1400 320/05 RMK AO2
14926KSTC STC20050718212509907/18/05 21:25:31  5-MIN KSTC 190325Z AUTO 33005KT 10SM CLR 17/11 A2993 1020 69 1500 330/05 RMK AO2
14926KSTC STC20050718213009907/18/05 21:30:31  5-MIN KSTC 190330Z AUTO 32005KT 10SM CLR 16/11 A2993 1020 72 1400 320/05 RMK AO2
14926KSTC STC20050718213509907/18/05 21:35:31  5-MIN KSTC 190335Z AUTO 31004KT 10SM CLR 16/11 A2993 1010 74 1400 310/04 RMK AO2
14926KSTC STC20050719213009407/19/05 21:30:31  5-MIN KSTC 200330Z 17012KT 10SM CLR 25/18 A2983 1110 64 2600 160/12 RMK AO2
14926KSTC STC20050719213509407/19/05 21:35:31  5-MIN KSTC 200335Z 17013KT 10SM CLR 25/18 A2984 1100 64 2600 170/13 RMK AO2
14926KSTC STC20050719214009407/19/05 21:40:31  5-MIN KSTC 200340Z 17011KT 10SM CLR 25/18 A2984 1110 64 2600 170/11 RMK AO2
14926KSTC STC20050719214509407/19/05 21:45:31  5-MIN KSTC 200345Z 18013KT 10SM CLR 25/17 A2984 1100 61 2500 170/13 RMK AO2
14926KSTC STC20050719215011107/19/05 21:50:31  5-MIN KSTC 200350Z 18014KT 10SM CLR 25/17 A2984 1100 61 2500 180/14 RMK AO2 SLP106 T02500172
14926KSTC STC20050719215509907/19/05 21:55:31  5-MIN KSTC 200355Z AUTO 18012KT 10SM CLR 26/17 A2985 1090 59 2600 180/12 RMK AO2
14926KSTC STC20050719220010507/19/05 22:00:31  5-MIN KSTC 200400Z AUTO 18014G20KT 10SM CLR 25/17 A2985 1100 61 2500 180/14G20 RMK AO2
14926KSTC STC20050719220510507/19/05 22:05:31  5-MIN KSTC 200405Z AUTO 18013G20KT 10SM CLR 25/17 A2985 1090 61 2500 170/13G20 RMK AO2
14926KSTC STC20050719221009907/19/05 22:10:31  5-MIN KSTC 200410Z AUTO 18013KT 10SM CLR 25/17 A2985 1090 61 2500 170/13 RMK AO2
14926KSTC STC20050719221509907/19/05 22:15:31  5-MIN KSTC 200415Z AUTO 19012KT 10SM CLR 25/17 A2986 1090 61 2500 180/12 RMK AO2
14926KSTC STC20050719222009907/19/05 22:20:31  5-MIN KSTC 200420Z AUTO 18012KT 10SM CLR 25/17 A2985 1090 61 2500 180/12 RMK AO2
14926KSTC STC20050719222510507/19/05 22:25:31  5-MIN KSTC 200425Z AUTO 18011G18KT 10SM CLR 24/17 A2986 1080 63 2500 180/11G18 RMK AO2
14926KSTC STC20050719223009907/19/05 22:30:31  5-MIN KSTC 200430Z AUTO 18011KT 10SM CLR 24/17 A2986 1080 63 2500 180/11 RMK AO2
14926KSTC STC20050719223509907/19/05 22:35:31  5-MIN KSTC 200435Z AUTO 18012KT 10SM CLR 24/17 A2986 1080 63 2500 180/12 RMK AO2
14926KSTC STC20050719224009907/19/05 22:40:31  5-MIN KSTC 200440Z AUTO 18012KT 10SM CLR 24/17 A2986 1080 63 2500 180/12 RMK AO2
14926KSTC STC20050719224509907/19/05 22:45:31  5-MIN KSTC 200445Z AUTO 18012KT 10SM CLR 24/17 A2986 1080 63 2500 170/12 RMK AO2
14926KSTC STC20050719225011607/19/05 22:50:31  5-MIN KSTC 200450Z AUTO 18011KT 10SM CLR 24/17 A2986 1080 61 2500 180/11 RMK AO2 SLP111 T02440167
14926KSTC STC20050719225509907/19/05 22:55:31  5-MIN KSTC 200455Z AUTO 18011KT 10SM CLR 24/17 A2986 1080 61 2500 180/11 RMK AO2
14926KSTC STC20050719230009907/19/05 23:00:31  5-MIN KSTC 200500Z AUTO 18011KT 10SM CLR 24/17 A2986 1080 61 2500 170/11 RMK AO2
14926KSTC STC20050719230509907/19/05 23:05:31  5-MIN KSTC 200505Z AUTO 17011KT 10SM CLR 24/17 A2985 1090 61 2500 170/11 RMK AO2
14926KSTC STC20050719231009907/19/05 23:10:31  5-MIN KSTC 200510Z AUTO 17012KT 10SM CLR 24/17 A2985 1090 63 2400 170/12 RMK AO2
14926KSTC STC20050719231509907/19/05 23:15:31  5-MIN KSTC 200515Z AUTO 18009KT 10SM CLR 24/17 A2985 1090 63 2400 170/09 RMK AO2
14926KSTC STC20050719232009907/19/05 23:20:31  5-MIN KSTC 200520Z AUTO 17011KT 10SM CLR 24/16 A2984 1100 61 2400 170/11 RMK AO2
14926KSTC STC20050719232509907/19/05 23:25:31  5-MIN KSTC 200525Z AUTO 17011KT 10SM CLR 24/16 A2984 1100 61 2400 170/11 RMK AO2
14926KSTC STC20050719233009907/19/05 23:30:31  5-MIN KSTC 200530Z AUTO 18012KT 10SM CLR 24/16 A2985 1090 61 2400 170/12 RMK AO2
14926KSTC STC20050719233509907/19/05 23:35:31  5-MIN KSTC 200535Z AUTO 17011KT 10SM CLR 24/16 A2984 1100 61 2400 160/11 RMK AO2
14926KSTC STC20050719234010507/19/05 23:40:31  5-MIN KSTC 200540Z AUTO 17011G17KT 10SM CLR 24/16 A2984 1100 59 2400 170/11G17 RMK AO2
14926KSTC STC20050719234510507/19/05 23:45:31  5-MIN KSTC 200545Z AUTO 17010G17KT 10SM CLR 24/16 A2983 1110 59 2400 170/10G17 RMK AO2
14926KSTC STC20050719235014407/19/05 23:50:31  5-MIN KSTC 200550Z AUTO 17010KT 10SM CLR 24/16 A2983 1110 59 2400 170/10 RMK AO2 SLP104 T02390156 10306 20239 403170083 58001
14926KSTC STC20050719235509907/19/05 23:55:31  5-MIN KSTC 200555Z AUTO 17011KT 10SM CLR 24/16 A2983 1110 59 2400 170/11 RMK AO2
14926KSTC STC20050720000009907/20/05 00:00:32  5-MIN KSTC 200600Z AUTO 17011KT 10SM CLR 24/16 A2983 1110 59 2400 170/11 RMK AO2
14926KSTC STC20050720000509907/20/05 00:05:31  5-MIN KSTC 200605Z AUTO 17010KT 10SM CLR 24/16 A2982 1120 59 2400 170/10 RMK AO2
14926KSTC STC20050720001009907/20/05 00:10:31  5-MIN KSTC 200610Z AUTO 17010KT 10SM CLR 24/16 A2982 1120 59 2400 170/10 RMK AO2
14926KSTC STC20050720001509907/20/05 00:15:31  5-MIN KSTC 200615Z AUTO 17009KT 10SM CLR 23/16 A2982 1120 61 2400 170/09 RMK AO2
14926KSTC STC20050720002009907/20/05 00:20:31  5-MIN KSTC 200620Z AUTO 17010KT 10SM CLR 23/16 A2982 1120 61 2400 170/10 RMK AO2
14926KSTC STC20050720002509907/20/05 00:25:31  5-MIN KSTC 200625Z AUTO 17010KT 10SM CLR 23/16 A2982 1120 61 2400 170/10 RMK AO2
14926KSTC STC20050720003009907/20/05 00:30:31  5-MIN KSTC 200630Z AUTO 17009KT 10SM CLR 23/16 A2982 1120 61 2400 160/09 RMK AO2
14926KSTC STC20050720003509907/20/05 00:35:31  5-MIN KSTC 200635Z AUTO 17010KT 10SM CLR 23/16 A2983 1110 61 2400 160/10 RMK AO2
14926KSTC STC20050720004009907/20/05 00:40:31  5-MIN KSTC 200640Z AUTO 17010KT 10SM CLR 23/16 A2983 1110 61 2400 170/10 RMK AO2
14926KSTC STC20050720004510207/20/05 00:45:31  5-MIN KSTC 200645Z AUTO 17010KT 10SM FEW042 23/16 A2982 1120 61 2400 160/10 RMK AO2
14926KSTC STC20050720005011907/20/05 00:50:31  5-MIN KSTC 200650Z AUTO 17010KT 10SM SCT042 23/16 A2982 1110 61 2400 170/10 RMK AO2 SLP100 T02330156
14926KSTC STC20050720005510207/20/05 00:55:31  5-MIN KSTC 200655Z AUTO 18012KT 10SM BKN042 23/16 A2983 1110 61 2400 170/12 RMK AO2
14926KSTC STC20050720010010207/20/05 01:00:31  5-MIN KSTC 200700Z AUTO 18010KT 10SM BKN042 23/16 A2983 1110 61 2400 170/10 RMK AO2
14926KSTC STC20050720010510207/20/05 01:05:31  5-MIN KSTC 200705Z AUTO 17010KT 10SM BKN042 23/16 A2982 1120 61 2400 170/10 RMK AO2
14926KSTC STC20050720011010207/20/05 01:10:31  5-MIN KSTC 200710Z AUTO 17011KT 10SM OVC042 23/16 A2982 1120 61 2400 170/11 RMK AO2
14926KSTC STC20050720011510207/20/05 01:15:31  5-MIN KSTC 200715Z AUTO 17013KT 10SM OVC040 23/16 A2982 1120 61 2400 170/13 RMK AO2
14926KSTC STC20050720012010807/20/05 01:20:31  5-MIN KSTC 200720Z AUTO 17011G17KT 10SM OVC040 23/16 A2982 1120 61 2400 170/11G17 RMK AO2
14926KSTC STC20050720012510807/20/05 01:25:31  5-MIN KSTC 200725Z AUTO 17010G17KT 10SM OVC040 23/16 A2982 1120 61 2400 160/10G17 RMK AO2
14926KSTC STC20050720013010207/20/05 01:30:31  5-MIN KSTC 200730Z AUTO 17009KT 10SM OVC040 23/16 A2982 1120 61 2400 170/09 RMK AO2
14926KSTC STC20050720013510207/20/05 01:35:31  5-MIN KSTC 200735Z AUTO 17012KT 10SM OVC040 23/16 A2982 1120 61 2400 170/12 RMK AO2
14926KSTC STC20050720014010207/20/05 01:40:31  5-MIN KSTC 200740Z AUTO 18008KT 10SM OVC040 24/16 A2983 1110 59 2400 170/08 RMK AO2
14926KSTC STC20050720014510207/20/05 01:45:31  5-MIN KSTC 200745Z AUTO 18011KT 10SM OVC040 23/16 A2983 1110 61 2400 180/11 RMK AO2
14926KSTC STC20050720015011907/20/05 01:50:31  5-MIN KSTC 200750Z AUTO 19008KT 10SM OVC040 24/16 A2983 1110 59 2400 190/08 RMK AO2 SLP102 T02390156
14926KSTC STC20050720015510207/20/05 01:55:31  5-MIN KSTC 200755Z AUTO 21006KT 10SM OVC040 23/16 A2983 1110 61 2400 200/06 RMK AO2
14926KSTC STC20050720020010207/20/05 02:00:31  5-MIN KSTC 200800Z AUTO 22005KT 10SM OVC040 23/16 A2984 1100 61 2400 210/05 RMK AO2
14926KSTC STC20050720020510207/20/05 02:05:31  5-MIN KSTC 200805Z AUTO 22005KT 10SM OVC040 23/16 A2984 1100 63 2400 220/05 RMK AO2
14926KSTC STC20050720021010207/20/05 02:10:31  5-MIN KSTC 200810Z AUTO 26004KT 10SM OVC040 23/16 A2984 1100 61 2400 250/04 RMK AO2
14926KSTC STC20050720021510207/20/05 02:15:31  5-MIN KSTC 200815Z AUTO 00000KT 10SM OVC040 23/16 A2983 1110 63 2400 000/00 RMK AO2
14926KSTC STC20050720022010907/20/05 02:20:31  5-MIN KSTC 200820Z AUTO 15005KT 10SM BKN040 OVC055 23/16 A2983 1110 61 2400 150/05 RMK AO2
14926KSTC STC20050720022510907/20/05 02:25:31  5-MIN KSTC 200825Z AUTO 15004KT 10SM BKN042 OVC055 23/16 A2983 1110 63 2400 140/04 RMK AO2
14926KSTC STC20050720023010907/20/05 02:30:31  5-MIN KSTC 200830Z AUTO 15006KT 10SM BKN042 OVC060 23/16 A2982 1120 65 2300 150/06 RMK AO2
14926KSTC STC20050720023510907/20/05 02:35:31  5-MIN KSTC 200835Z AUTO 16007KT 10SM BKN042 OVC055 23/16 A2982 1120 65 2300 150/07 RMK AO2
14926KSTC STC20050720024010907/20/05 02:40:31  5-MIN KSTC 200840Z AUTO 15009KT 10SM BKN042 BKN060 23/16 A2981 1130 65 2300 150/09 RMK AO2
14926KSTC STC20050720024510907/20/05 02:45:31  5-MIN KSTC 200845Z AUTO 15008KT 10SM SCT042 BKN060 23/16 A2980 1130 65 2300 150/08 RMK AO2
14926KSTC STC20050720025013207/20/05 02:50:31  5-MIN KSTC 200850Z AUTO 15008KT 10SM SCT042 BKN060 23/16 A2981 1130 65 2300 150/08 RMK AO2 SLP093 T02280161 58001
14926KSTC STC20050720025510907/20/05 02:55:31  5-MIN KSTC 200855Z AUTO 15008KT 10SM FEW042 SCT060 23/16 A2981 1130 65 2300 150/08 RMK AO2
14926KSTC STC20050720030010207/20/05 03:00:31  5-MIN KSTC 200900Z AUTO 16006KT 10SM FEW040 23/16 A2981 1130 65 2300 160/06 RMK AO2
14926KSTC STC20050720030510207/20/05 03:05:31  5-MIN KSTC 200905Z AUTO 16007KT 10SM FEW065 23/16 A2980 1130 63 2300 150/07 RMK AO2
14926KSTC STC20050720031009907/20/05 03:10:31  5-MIN KSTC 200910Z AUTO 14006KT 10SM CLR 23/16 A2980 1140 65 2300 140/06 RMK AO2
14926KSTC STC20050720031509907/20/05 03:15:31  5-MIN KSTC 200915Z AUTO 12005KT 10SM CLR 23/16 A2981 1130 65 2300 120/05 RMK AO2
14926KSTC STC20050720032009907/20/05 03:20:31  5-MIN KSTC 200920Z AUTO 13005KT 10SM CLR 23/16 A2981 1130 65 2300 130/05 RMK AO2
14926KSTC STC20050720032510207/20/05 03:25:31  5-MIN KSTC 200925Z AUTO 11004KT 10SM FEW040 23/16 A2981 1130 65 2300 100/04 RMK AO2
14926KSTC STC20050720033010207/20/05 03:30:31  5-MIN KSTC 200930Z AUTO 12005KT 10SM FEW040 22/16 A2980 1130 68 2300 120/05 RMK AO2
14926KSTC STC20050720033510207/20/05 03:35:31  5-MIN KSTC 200935Z AUTO 12006KT 10SM SCT040 23/16 A2979 1140 65 2300 120/06 RMK AO2
14926KSTC STC20050720034011107/20/05 03:40:31  5-MIN KSTC 200940Z AUTO 14006KT 10SM TS SCT040 23/16 A2979 1140 65 2300 140/06 RMK AO2 TSB39
14926KSTC STC20050720034511807/20/05 03:45:31  5-MIN KSTC 200945Z AUTO 15006KT 10SM TS SCT040 SCT065 22/16 A2980 1140 68 2300 150/06 RMK AO2 TSB39
14926KSTC STC20050720035014207/20/05 03:50:31  5-MIN KSTC 200950Z AUTO 15005KT 10SM TS BKN040 BKN049 BKN070 22/16 A2979 1140 68 2300 150/05 RMK AO2 TSB39 SLP089 T02220161
14926KSTC STC20050720035511907/20/05 03:55:31  5-MIN KSTC 200955Z AUTO 16005KT 10SM TS BKN040 BKN047 BKN070 22/16 A2980 1140 68 2300 160/05 RMK AO2
14926KSTC STC20050720040012607/20/05 04:00:31  5-MIN KSTC 201000Z AUTO 21007KT 10SM TS BKN038 BKN047 BKN070 22/16 A2982 1120 68 2200 210/07 RMK AO2 PRESRR
14926KSTC STC20050720040512607/20/05 04:05:31  5-MIN KSTC 201005Z AUTO 18005KT 10SM TS BKN036 BKN047 OVC070 22/16 A2983 1110 68 2200 180/05 RMK AO2 PRESRR
14926KSTC STC20050720041014007/20/05 04:10:31  5-MIN KSTC 201010Z AUTO 22008KT 7SM -TSRA BKN034 BKN042 OVC050 22/17 A2984 1100 70 2200 210/08 RMK AO2 RAB09 PRESRR P0000
14926KSTC STC20050720041515007/20/05 04:15:31  5-MIN KSTC 201015Z AUTO 21016G22KT 2 1/2SM +TSRA SCT030 BKN039 OVC055 22/18 A2985 1090 78 2200 210/16G22 RMK AO2 RAB09 PRESRR P0006
14926KSTC STC20050720042014607/20/05 04:20:31  5-MIN KSTC 201020Z AUTO 22011G22KT 1 1/4SM +TSRA BR SCT010 BKN030 OVC039 21/18 A2985 1090 87 2000 220/11G22 RMK AO2 RAB09 P0016
14926KSTC STC20050720042513607/20/05 04:25:31  5-MIN KSTC 201025Z AUTO 21006KT 1SM +TSRA BR BKN010 BKN030 OVC039 21/19 A2984 1100 90 2000 210/06 RMK AO2 RAB09 P0028
14926KSTC STC20050720043013307/20/05 04:30:31  5-MIN KSTC 201030Z AUTO 00000KT 1 1/2SM +TSRA BR BKN014 OVC030 20/19 A2984 1100 93 2000 000/00 RMK AO2 RAB09 P0034
14926KSTC STC20050720043512907/20/05 04:35:31  5-MIN KSTC 201035Z AUTO VRB03KT 3SM -TSRA BR BKN021 OVC030 21/19 A2984 1100 90 2000 VRB/03 RMK AO2 RAB09 P0035
14926KSTC STC20050720044012207/20/05 04:40:31  5-MIN KSTC 201040Z AUTO 17006KT 5SM -TSRA BR OVC023 20/19 A2983 1110 93 2000 170/06 RMK AO2 RAB09 P0036
14926KSTC STC20050720044512907/20/05 04:45:31  5-MIN KSTC 201045Z AUTO 18005KT 6SM -TSRA BR OVC027 20/19 A2982 1120 93 2000 180/05 RMK AO2 RAB09 PRESFR P0037
14926KSTC STC20050720045014607/20/05 04:50:31  5-MIN KSTC 201050Z AUTO 15007KT 6SM -TSRA BR OVC035 20/19 A2980 1130 93 2000 150/07 RMK AO2 RAB09 PRESFR SLP093 P0037 T02000189
14926KSTC STC20050720045512007/20/05 04:55:31  5-MIN KSTC 201055Z AUTO 14008KT 7SM -TSRA OVC047 20/19 A2980 1140 93 2000 140/08 RMK AO2 PRESFR P0000
14926KSTC STC20050720050012007/20/05 05:00:31  5-MIN KSTC 201100Z AUTO 15007KT 9SM -TSRA OVC049 20/19 A2979 1150 93 2000 150/07 RMK AO2 PRESFR P0000
14926KSTC STC20050720050512007/20/05 05:05:31  5-MIN KSTC 201105Z AUTO 16009KT 8SM -TSRA OVC049 20/19 A2978 1160 93 2000 160/09 RMK AO2 PRESFR P0000
14926KSTC STC20050720051012207/20/05 05:10:31  5-MIN KSTC 201110Z AUTO 18009KT 6SM TSRA BR OVC047 20/19 A2977 1170 93 2100 180/09 RMK AO2 PRESFR P0002
14926KSTC STC20050720051511907/20/05 05:15:31  5-MIN KSTC 201115Z AUTO 15007KT 5SM RA BR OVC043 21/19 A2977 1170 90 2100 140/07 RMK AO2 TSE14 P0004
14926KSTC STC20050720052011907/20/05 05:20:31  5-MIN KSTC 201120Z AUTO 17004KT 5SM RA BR OVC041 20/19 A2976 1170 93 2100 170/04 RMK AO2 TSE14 P0005
14926KSTC STC20050720052512007/20/05 05:25:31  5-MIN KSTC 201125Z AUTO 03007KT 6SM -RA BR OVC037 20/19 A2976 1170 93 2100 020/07 RMK AO2 TSE14 P0006
14926KSTC STC20050720053011707/20/05 05:30:31  5-MIN KSTC 201130Z AUTO 13005KT 8SM -RA OVC033 20/19 A2975 1180 93 2100 120/05 RMK AO2 TSE14 P0007
14926KSTC STC20050720053512507/20/05 05:35:31  5-MIN KSTC 201135Z AUTO 18009KT 10SM -RA OVC035 20/19 A2974 1190 93 2100 180/09 RMK AO2 TSE14 PRESFR P0008
14926KSTC STC20050720054011807/20/05 05:40:31  5-MIN KSTC 201140Z AUTO 14006KT 10SM -RA OVC043 20/19 A2974 1190 93 2100 140/06 RMK AO2 TSE14 P0008
14926KSTC STC20050720054512507/20/05 05:45:31  5-MIN KSTC 201145Z AUTO 12007KT 10SM -RA OVC050 20/19 A2973 1200 93 2100 120/07 RMK AO2 TSE14 PRESFR P0008
14926KSTC STC20050720055016507/20/05 05:50:31  5-MIN KSTC 201150Z AUTO 11009KT 10SM -RA OVC055 20/19 A2973 1200 93 2100 110/09 RMK AO2 TSE14 SLP068 P0008 60045 70045 T02000189 10239 20200 58009
14926KSTC STC20050720055511907/20/05 05:55:31  5-MIN KSTC 201155Z AUTO 11010KT 10SM -RA OVC060 21/18 A2972 1210 87 2200 110/10 RMK AO2 PRESFR P0000
14926KSTC STC20050720060012507/20/05 06:00:31  5-MIN KSTC 201200Z AUTO 13014G19KT 10SM -RA OVC060 21/18 A2967 1260 87 2200 130/14G19 RMK AO2 PRESFR P0000
14926KSTC STC20050720060511807/20/05 06:05:31  5-MIN KSTC 201205Z AUTO 13015G21KT 10SM -RA BKN055 21/18 A2968 1240 84 2300 120/15G21 RMK AO2 P0000
14926KSTC STC20050720061012507/20/05 06:10:31  5-MIN KSTC 201210Z AUTO 32012G21KT 10SM -RA BKN050 BKN060 21/18 A2973 1210 81 2200 320/12G21 RMK AO2 P0000
14926KSTC STC20050720061512007/20/05 06:15:31  5-MIN KSTC 201215Z VRB06G15KT 10SM -RA BKN048 21/18 A2974 1190 81 2200 VRB/06G15 RMK AO2 PRESRR P0000
14926KSTC STC20050720062011607/20/05 06:20:31  5-MIN KSTC 201220Z 00000KT 10SM SCT045 23/17 A2976 1180 66 2500 000/00 RMK AO2 RAE19 PRESRR P0000
14926KSTC STC20050720062510907/20/05 06:25:31  5-MIN KSTC 201225Z 34006KT 10SM FEW038 22/17 A2977 1170 73 2300 340/06 RMK AO2 RAE19 P0000
14926KSTC STC20050720063010907/20/05 06:30:31  5-MIN KSTC 201230Z 03007KT 10SM FEW028 21/18 A2977 1170 81 2200 020/07 RMK AO2 RAE19 P0000
14926KSTC STC20050720063510607/20/05 06:35:31  5-MIN KSTC 201235Z 07005KT 10SM CLR 22/17 A2977 1160 75 2200 070/05 RMK AO2 RAE19 P0000
14926KSTC STC20050720064010607/20/05 06:40:31  5-MIN KSTC 201240Z 07005KT 10SM CLR 21/18 A2978 1160 84 2200 060/05 RMK AO2 RAE19 P0000
14926KSTC STC20050720064510607/20/05 06:45:31  5-MIN KSTC 201245Z 06004KT 10SM CLR 21/18 A2978 1160 84 2200 050/04 RMK AO2 RAE19 P0000
14926KSTC STC20050720065012307/20/05 06:50:31  5-MIN KSTC 201250Z 07003KT 10SM CLR 21/18 A2979 1150 84 2200 070/03 RMK AO2 RAE19 SLP088 P0000 T02110183
14926KSTC STC20050720065510107/20/05 06:55:31  5-MIN KSTC 201255Z 00000KT 10SM CLR 21/18 A2980 1140 84 2200 000/00 RMK AO2 PRESRR
14926KSTC STC20050720070010107/20/05 07:00:31  5-MIN KSTC 201300Z 30003KT 10SM CLR 21/19 A2981 1130 87 2100 290/03 RMK AO2 PRESRR
14926KSTC STC20050720070509407/20/05 07:05:31  5-MIN KSTC 201305Z 25005KT 10SM CLR 22/19 A2981 1130 84 2200 240/05 RMK AO2
14926KSTC STC20050720071010107/20/05 07:10:31  5-MIN KSTC 201310Z 23005KT 10SM CLR 22/19 A2982 1120 87 2200 230/05 RMK AO2 PRESRR
14926KSTC STC20050720071510107/20/05 07:15:31  5-MIN KSTC 201315Z 22006KT 10SM CLR 22/19 A2983 1110 84 2200 210/06 RMK AO2 PRESRR
14926KSTC STC20050720072009407/20/05 07:20:31  5-MIN KSTC 201320Z 23010KT 10SM CLR 22/19 A2983 1110 87 2200 220/10 RMK AO2
14926KSTC STC20050720072509407/20/05 07:25:31  5-MIN KSTC 201325Z 22007KT 10SM CLR 22/19 A2983 1110 84 2200 220/07 RMK AO2
14926KSTC STC20050720073009407/20/05 07:30:31  5-MIN KSTC 201330Z 23006KT 10SM CLR 22/19 A2983 1110 81 2200 220/06 RMK AO2
14926KSTC STC20050720073509407/20/05 07:35:31  5-MIN KSTC 201335Z 22006KT 10SM CLR 23/19 A2983 1110 81 2300 210/06 RMK AO2
14926KSTC STC20050720074009407/20/05 07:40:31  5-MIN KSTC 201340Z 23006KT 10SM CLR 23/19 A2983 1110 76 2400 230/06 RMK AO2
14926KSTC STC20050720074509407/20/05 07:45:31  5-MIN KSTC 201345Z 24006KT 10SM CLR 23/19 A2983 1110 76 2400 240/06 RMK AO2
14926KSTC STC20050720075011107/20/05 07:50:31  5-MIN KSTC 201350Z 21008KT 10SM CLR 23/19 A2983 1110 76 2400 200/08 RMK AO2 SLP103 T02330189
14926KSTC STC20050720075509407/20/05 07:55:31  5-MIN KSTC 201355Z 20010KT 10SM CLR 23/19 A2984 1100 78 2400 190/10 RMK AO2
14926KSTC STC20050720080009407/20/05 08:00:31  5-MIN KSTC 201400Z 20011KT 10SM CLR 23/19 A2984 1100 78 2400 200/11 RMK AO2
14926KSTC STC20050720080509407/20/05 08:05:31  5-MIN KSTC 201405Z 22011KT 10SM CLR 23/19 A2984 1100 78 2400 210/11 RMK AO2
14926KSTC STC20050720081009407/20/05 08:10:31  5-MIN KSTC 201410Z 21012KT 10SM CLR 24/19 A2985 1090 76 2400 210/12 RMK AO2
14926KSTC STC20050720081509407/20/05 08:15:31  5-MIN KSTC 201415Z 21010KT 10SM CLR 24/19 A2985 1090 76 2400 210/10 RMK AO2
14926KSTC STC20050720082009407/20/05 08:20:31  5-MIN KSTC 201420Z 21010KT 10SM CLR 24/19 A2985 1090 76 2400 210/10 RMK AO2
14926KSTC STC20050720082509407/20/05 08:25:31  5-MIN KSTC 201425Z 21011KT 10SM CLR 24/19 A2985 1090 76 2400 210/11 RMK AO2
14926KSTC STC20050720083009407/20/05 08:30:31  5-MIN KSTC 201430Z 21011KT 10SM CLR 24/19 A2986 1090 73 2400 210/11 RMK AO2
14926KSTC STC20050720083509407/20/05 08:35:31  5-MIN KSTC 201435Z 22010KT 10SM CLR 24/19 A2986 1080 73 2500 210/10 RMK AO2
14926KSTC STC20050720084009407/20/05 08:40:31  5-MIN KSTC 201440Z 22010KT 10SM CLR 24/19 A2986 1080 71 2500 210/10 RMK AO2
14926KSTC STC20050720084509407/20/05 08:45:31  5-MIN KSTC 201445Z 21008KT 10SM CLR 24/19 A2987 1080 73 2500 200/08 RMK AO2
14926KSTC STC20050720085012307/20/05 08:50:31  5-MIN KSTC 201450Z 22009KT 10SM CLR 25/19 A2987 1080 71 2500 220/09 RMK AO2 SLP115 60000 T02500194 58027
14926KSTC STC20050720085509407/20/05 08:55:31  5-MIN KSTC 201455Z 21009KT 10SM CLR 25/19 A2987 1070 71 2500 210/09 RMK AO2
14926KSTC STC20050720090009407/20/05 09:00:31  5-MIN KSTC 201500Z 21007KT 10SM CLR 24/19 A2987 1080 73 2500 210/07 RMK AO2
14926KSTC STC20050720090509407/20/05 09:05:31  5-MIN KSTC 201505Z 21008KT 10SM CLR 25/19 A2987 1070 71 2500 210/08 RMK AO2
14926KSTC STC20050720091009407/20/05 09:10:31  5-MIN KSTC 201510Z 21007KT 10SM CLR 24/19 A2988 1070 73 2400 200/07 RMK AO2
14926KSTC STC20050720091509407/20/05 09:15:31  5-MIN KSTC 201515Z 23006KT 10SM CLR 25/19 A2988 1070 71 2500 220/06 RMK AO2
14926KSTC STC20050720092009407/20/05 09:20:31  5-MIN KSTC 201520Z 21007KT 10SM CLR 25/19 A2988 1060 71 2500 210/07 RMK AO2
14926KSTC STC20050720092509407/20/05 09:25:31  5-MIN KSTC 201525Z 19006KT 10SM CLR 25/19 A2988 1060 71 2500 190/06 RMK AO2
14926KSTC STC20050720093009407/20/05 09:30:31  5-MIN KSTC 201530Z 25007KT 10SM CLR 26/19 A2988 1060 68 2600 250/07 RMK AO2
14926KSTC STC20050720093509407/20/05 09:35:31  5-MIN KSTC 201535Z 27003KT 10SM CLR 26/19 A2988 1060 68 2600 270/03 RMK AO2
14926KSTC STC20050720094009407/20/05 09:40:31  5-MIN KSTC 201540Z VRB05KT 10SM CLR 26/19 A2989 1060 68 2600 VRB/05 RMK AO2
14926KSTC STC20050720094509407/20/05 09:45:31  5-MIN KSTC 201545Z VRB05KT 10SM CLR 26/20 A2988 1060 68 2600 VRB/05 RMK AO2
14926KSTC STC20050720095011407/20/05 09:50:31  5-MIN KSTC 201550Z 25006KT 10SM FEW022 26/20 A2988 1060 68 2600 250/06 RMK AO2 SLP120 T02610200
14926KSTC STC20050720095509707/20/05 09:55:31  5-MIN KSTC 201555Z 23005KT 10SM FEW022 26/19 A2988 1070 64 2600 230/05 RMK AO2
14926KSTC STC20050720100009407/20/05 10:00:31  5-MIN KSTC 201600Z VRB04KT 10SM CLR 26/19 A2988 1060 66 2600 VRB/04 RMK AO2
14926KSTC STC20050720100509407/20/05 10:05:31  5-MIN KSTC 201605Z 26008KT 10SM CLR 27/19 A2988 1060 64 2700 260/08 RMK AO2
14926KSTC STC20050720101009407/20/05 10:10:31  5-MIN KSTC 201610Z 26008KT 10SM CLR 27/19 A2988 1070 64 2700 260/08 RMK AO2
14926KSTC STC20050720101509407/20/05 10:15:31  5-MIN KSTC 201615Z 25007KT 10SM CLR 27/19 A2988 1070 64 2700 240/07 RMK AO2
14926KSTC STC20050720102009407/20/05 10:20:31  5-MIN KSTC 201620Z VRB06KT 10SM CLR 27/20 A2988 1070 64 2800 VRB/06 RMK AO2
14926KSTC STC20050720102509407/20/05 10:25:31  5-MIN KSTC 201625Z VRB05KT 10SM CLR 27/20 A2987 1070 64 2800 VRB/05 RMK AO2
14926KSTC STC20050720103009407/20/05 10:30:31  5-MIN KSTC 201630Z 22006KT 10SM CLR 27/20 A2987 1070 64 2800 220/06 RMK AO2
14926KSTC STC20050720103509407/20/05 10:35:31  5-MIN KSTC 201635Z 27006KT 10SM CLR 27/20 A2987 1070 64 2800 270/06 RMK AO2
14926KSTC STC20050720104009407/20/05 10:40:31  5-MIN KSTC 201640Z 23006KT 10SM CLR 27/19 A2986 1080 64 2700 230/06 RMK AO2
14926KSTC STC20050720104509407/20/05 10:45:31  5-MIN KSTC 201645Z 24006KT 10SM CLR 27/19 A2986 1080 62 2800 230/06 RMK AO2
14926KSTC STC20050720105011107/20/05 10:50:31  5-MIN KSTC 201650Z VRB03KT 10SM CLR 27/19 A2986 1080 62 2800 VRB/03 RMK AO2 SLP113 T02720194
14926KSTC STC20050720105509407/20/05 10:55:31  5-MIN KSTC 201655Z 21006KT 10SM CLR 27/19 A2986 1080 62 2800 200/06 RMK AO2
14926KSTC STC20050720110009407/20/05 11:00:31  5-MIN KSTC 201700Z VRB04KT 10SM CLR 27/19 A2986 1080 62 2800 VRB/04 RMK AO2
14926KSTC STC20050720110509407/20/05 11:05:31  5-MIN KSTC 201705Z VRB04KT 10SM CLR 27/19 A2986 1080 62 2800 VRB/04 RMK AO2
14926KSTC STC20050720111009407/20/05 11:10:31  5-MIN KSTC 201710Z 17006KT 10SM CLR 28/21 A2986 1080 64 2800 170/06 RMK AO2
14926KSTC STC20050720111509407/20/05 11:15:31  5-MIN KSTC 201715Z 20006KT 10SM CLR 28/20 A2986 1080 62 2800 200/06 RMK AO2
14926KSTC STC20050720112009407/20/05 11:20:31  5-MIN KSTC 201720Z 18006KT 10SM CLR 28/20 A2986 1080 60 2900 180/06 RMK AO2
14926KSTC STC20050720112509407/20/05 11:25:31  5-MIN KSTC 201725Z VRB04KT 10SM CLR 28/21 A2986 1080 62 2900 VRB/04 RMK AO2
14926KSTC STC20050720113009407/20/05 11:30:31  5-MIN KSTC 201730Z VRB06KT 10SM CLR 28/20 A2986 1080 60 2900 VRB/06 RMK AO2
14926KSTC STC20050720113509407/20/05 11:35:31  5-MIN KSTC 201735Z 20006KT 10SM CLR 28/20 A2986 1080 60 2900 190/06 RMK AO2
14926KSTC STC20050720114009407/20/05 11:40:31  5-MIN KSTC 201740Z VRB05KT 10SM CLR 28/20 A2986 1080 60 2900 VRB/05 RMK AO2
14926KSTC STC20050720114509407/20/05 11:45:31  5-MIN KSTC 201745Z 24006KT 10SM CLR 28/20 A2986 1080 60 2900 240/06 RMK AO2
14926KSTC STC20050720115013507/20/05 11:50:31  5-MIN KSTC 201750Z VRB04KT 10SM CLR 29/20 A2986 1080 58 3000 VRB/04 RMK AO2 SLP113 60000 T02890200 10289 20206 51048
14926KSTC STC20050720115509407/20/05 11:55:31  5-MIN KSTC 201755Z 25004KT 10SM CLR 29/20 A2987 1080 58 3000 240/04 RMK AO2
14926KSTC STC20050720120009407/20/05 12:00:31  5-MIN KSTC 201800Z VRB06KT 10SM CLR 29/20 A2987 1080 56 3000 VRB/06 RMK AO2
14926KSTC STC20050720120509407/20/05 12:05:31  5-MIN KSTC 201805Z 21005KT 10SM CLR 29/20 A2987 1080 56 3000 210/05 RMK AO2
14926KSTC STC20050720121009407/20/05 12:10:31  5-MIN KSTC 201810Z 27006KT 10SM CLR 29/20 A2987 1070 56 3000 260/06 RMK AO2
14926KSTC STC20050720121509407/20/05 12:15:31  5-MIN KSTC 201815Z 25006KT 10SM CLR 29/21 A2987 1080 58 3000 250/06 RMK AO2
14926KSTC STC20050720122009407/20/05 12:20:31  5-MIN KSTC 201820Z 25007KT 10SM CLR 29/20 A2987 1080 56 3000 250/07 RMK AO2
14926KSTC STC20050720122509407/20/05 12:25:31  5-MIN KSTC 201825Z 27007KT 10SM CLR 30/19 A2986 1080 52 3100 270/07 RMK AO2
14926KSTC STC20050720123009407/20/05 12:30:31  5-MIN KSTC 201830Z 23007KT 10SM CLR 30/19 A2986 1080 52 3100 230/07 RMK AO2
14926KSTC STC20050720123509407/20/05 12:35:31  5-MIN KSTC 201835Z 24007KT 10SM CLR 30/19 A2986 1080 52 3100 240/07 RMK AO2
14926KSTC STC20050720124009407/20/05 12:40:31  5-MIN KSTC 201840Z VRB05KT 10SM CLR 30/20 A2986 1080 54 3100 VRB/05 RMK AO2
14926KSTC STC20050720124509407/20/05 12:45:31  5-MIN KSTC 201845Z VRB06KT 10SM CLR 31/20 A2986 1080 52 3100 VRB/06 RMK AO2
14926KSTC STC20050720125011107/20/05 12:50:31  5-MIN KSTC 201850Z VRB04KT 10SM CLR 30/20 A2986 1080 54 3100 VRB/04 RMK AO2 SLP113 T03000200
14926KSTC STC20050720125509407/20/05 12:55:31  5-MIN KSTC 201855Z VRB06KT 10SM CLR 31/20 A2987 1080 51 3200 VRB/06 RMK AO2
14926KSTC STC20050720130009407/20/05 13:00:31  5-MIN KSTC 201900Z 26003KT 10SM CLR 31/21 A2987 1070 53 3200 260/03 RMK AO2
14926KSTC STC20050720130509407/20/05 13:05:31  5-MIN KSTC 201905Z VRB03KT 10SM CLR 31/21 A2987 1070 53 3200 VRB/03 RMK AO2
14926KSTC STC20050720131009407/20/05 13:10:31  5-MIN KSTC 201910Z VRB05KT 10SM CLR 32/19 A2987 1070 46 3200 VRB/05 RMK AO2
14926KSTC STC20050720131509407/20/05 13:15:31  5-MIN KSTC 201915Z 29008KT 10SM CLR 32/19 A2987 1070 47 3200 280/08 RMK AO2
14926KSTC STC20050720132009407/20/05 13:20:31  5-MIN KSTC 201920Z 32007KT 10SM CLR 32/19 A2987 1070 47 3200 320/07 RMK AO2
14926KSTC STC20050720132509407/20/05 13:25:31  5-MIN KSTC 201925Z VRB05KT 10SM CLR 32/19 A2987 1070 47 3200 VRB/05 RMK AO2
14926KSTC STC20050720133009407/20/05 13:30:31  5-MIN KSTC 201930Z 29007KT 10SM CLR 32/19 A2987 1070 46 3300 280/07 RMK AO2
14926KSTC STC20050720133509407/20/05 13:35:31  5-MIN KSTC 201935Z 30008KT 10SM CLR 32/19 A2987 1070 46 3300 300/08 RMK AO2
14926KSTC STC20050720134009407/20/05 13:40:31  5-MIN KSTC 201940Z VRB05KT 10SM CLR 32/19 A2987 1070 44 3300 VRB/05 RMK AO2
14926KSTC STC20050720134509407/20/05 13:45:31  5-MIN KSTC 201945Z VRB05KT 10SM CLR 33/19 A2987 1080 44 3400 VRB/05 RMK AO2
14926KSTC STC20050720135011107/20/05 13:50:31  5-MIN KSTC 201950Z 33006KT 10SM CLR 33/19 A2987 1070 44 3400 330/06 RMK AO2 SLP115 T03280194
14926KSTC STC20050720135509407/20/05 13:55:31  5-MIN KSTC 201955Z VRB06KT 10SM CLR 33/19 A2987 1070 43 3400 VRB/06 RMK AO2
14926KSTC STC20050720140009407/20/05 14:00:31  5-MIN KSTC 202000Z 30005KT 10SM CLR 33/19 A2987 1070 43 3400 300/05 RMK AO2
14926KSTC STC20050720140509407/20/05 14:05:31  5-MIN KSTC 202005Z 32004KT 10SM CLR 33/19 A2987 1070 43 3400 320/04 RMK AO2
14926KSTC STC20050720141009407/20/05 14:10:31  5-MIN KSTC 202010Z 32007KT 10SM CLR 33/19 A2987 1080 42 3400 320/07 RMK AO2
14926KSTC STC20050720141509407/20/05 14:15:31  5-MIN KSTC 202015Z 29006KT 10SM CLR 33/18 A2986 1080 41 3400 290/06 RMK AO2
14926KSTC STC20050720142009407/20/05 14:20:31  5-MIN KSTC 202020Z VRB04KT 10SM CLR 33/18 A2986 1080 39 3400 VRB/04 RMK AO2
14926KSTC STC20050720142509407/20/05 14:25:31  5-MIN KSTC 202025Z 34007KT 10SM CLR 33/18 A2986 1080 39 3400 330/07 RMK AO2
14926KSTC STC20050720143009407/20/05 14:30:31  5-MIN KSTC 202030Z 34005KT 10SM CLR 34/17 A2986 1080 36 3500 340/05 RMK AO2
14926KSTC STC20050720143509407/20/05 14:35:31  5-MIN KSTC 202035Z 32006KT 10SM CLR 33/17 A2986 1080 36 3400 320/06 RMK AO2
14926KSTC STC20050720144009407/20/05 14:40:31  5-MIN KSTC 202040Z 35004KT 10SM CLR 34/17 A2986 1080 35 3500 350/04 RMK AO2
14926KSTC STC20050720144509407/20/05 14:45:31  5-MIN KSTC 202045Z 31005KT 10SM CLR 33/17 A2986 1080 36 3400 310/05 RMK AO2
14926KSTC STC20050720145011707/20/05 14:50:31  5-MIN KSTC 202050Z VRB05KT 10SM CLR 33/17 A2986 1080 36 3400 VRB/05 RMK AO2 SLP112 T03330167 58001
14926KSTC STC20050720145509407/20/05 14:55:31  5-MIN KSTC 202055Z 33006KT 10SM CLR 34/17 A2987 1080 36 3500 330/06 RMK AO2
14926KSTC STC20050720150009407/20/05 15:00:31  5-MIN KSTC 202100Z 34009KT 10SM CLR 33/18 A2987 1070 39 3400 330/09 RMK AO2
14926KSTC STC20050720150509407/20/05 15:05:31  5-MIN KSTC 202105Z 35007KT 10SM CLR 34/18 A2987 1070 37 3500 340/07 RMK AO2
14926KSTC STC20050720151009407/20/05 15:10:31  5-MIN KSTC 202110Z 33006KT 10SM CLR 34/18 A2987 1070 37 3500 330/06 RMK AO2
14926KSTC STC20050720151509407/20/05 15:15:31  5-MIN KSTC 202115Z 01006KT 10SM CLR 34/18 A2988 1070 39 3500 360/06 RMK AO2
14926KSTC STC20050720152009407/20/05 15:20:31  5-MIN KSTC 202120Z 01006KT 10SM CLR 34/18 A2988 1070 39 3500 360/06 RMK AO2
14926KSTC STC20050720152509407/20/05 15:25:31  5-MIN KSTC 202125Z VRB05KT 10SM CLR 34/18 A2988 1070 37 3500 VRB/05 RMK AO2
14926KSTC STC20050720153009407/20/05 15:30:31  5-MIN KSTC 202130Z 32007KT 10SM CLR 34/18 A2988 1070 39 3500 320/07 RMK AO2
14926KSTC STC20050720153509407/20/05 15:35:31  5-MIN KSTC 202135Z 34006KT 10SM CLR 33/18 A2988 1060 39 3400 340/06 RMK AO2
14926KSTC STC20050720154009407/20/05 15:40:31  5-MIN KSTC 202140Z 34003KT 10SM CLR 34/18 A2988 1060 39 3500 340/03 RMK AO2
14926KSTC STC20050720154509407/20/05 15:45:31  5-MIN KSTC 202145Z 01010KT 10SM CLR 34/19 A2988 1060 40 3500 010/10 RMK AO2
14926KSTC STC20050720155011107/20/05 15:50:31  5-MIN KSTC 202150Z 35006KT 10SM CLR 33/19 A2988 1060 43 3400 350/06 RMK AO2 SLP118 T03280189
14926KSTC STC20050720155509407/20/05 15:55:31  5-MIN KSTC 202155Z 36007KT 10SM CLR 33/19 A2988 1060 43 3400 350/07 RMK AO2
14926KSTC STC20050720160009407/20/05 16:00:31  5-MIN KSTC 202200Z 01007KT 10SM CLR 33/19 A2988 1060 43 3400 010/07 RMK AO2
14926KSTC STC20050720160509407/20/05 16:05:31  5-MIN KSTC 202205Z 01008KT 10SM CLR 33/19 A2989 1060 44 3400 010/08 RMK AO2
14926KSTC STC20050720161009407/20/05 16:10:31  5-MIN KSTC 202210Z 35008KT 10SM CLR 33/19 A2989 1060 43 3400 350/08 RMK AO2
14926KSTC STC20050720161509407/20/05 16:15:31  5-MIN KSTC 202215Z 34009KT 10SM CLR 33/19 A2989 1060 43 3400 330/09 RMK AO2
14926KSTC STC20050720162009407/20/05 16:20:31  5-MIN KSTC 202220Z 34010KT 10SM CLR 33/19 A2989 1060 44 3400 340/10 RMK AO2
14926KSTC STC20050720162509407/20/05 16:25:31  5-MIN KSTC 202225Z 35008KT 10SM CLR 33/20 A2989 1060 46 3400 340/08 RMK AO2
14926KSTC STC20050720163009407/20/05 16:30:31  5-MIN KSTC 202230Z 35008KT 10SM CLR 33/19 A2989 1060 44 3400 340/08 RMK AO2
14926KSTC STC20050720163509407/20/05 16:35:31  5-MIN KSTC 202235Z 35009KT 10SM CLR 33/19 A2989 1060 44 3400 350/09 RMK AO2
14926KSTC STC20050720164009407/20/05 16:40:31  5-MIN KSTC 202240Z 35008KT 10SM CLR 33/19 A2989 1050 44 3400 350/08 RMK AO2
14926KSTC STC20050720164509407/20/05 16:45:31  5-MIN KSTC 202245Z 34009KT 10SM CLR 33/19 A2989 1050 43 3300 340/09 RMK AO2
14926KSTC STC20050720165011107/20/05 16:50:31  5-MIN KSTC 202250Z 35008KT 10SM CLR 33/19 A2989 1050 43 3300 350/08 RMK AO2 SLP123 T03280189
14926KSTC STC20050720165509407/20/05 16:55:31  5-MIN KSTC 202255Z 35008KT 10SM CLR 33/19 A2989 1050 44 3300 350/08 RMK AO2
14926KSTC STC20050720170009407/20/05 17:00:31  5-MIN KSTC 202300Z 36006KT 10SM CLR 33/19 A2989 1050 44 3300 360/06 RMK AO2
14926KSTC STC20050720170509407/20/05 17:05:31  5-MIN KSTC 202305Z 36009KT 10SM CLR 33/20 A2990 1050 46 3300 360/09 RMK AO2
14926KSTC STC20050720171009407/20/05 17:10:31  5-MIN KSTC 202310Z 01007KT 10SM CLR 32/20 A2990 1050 48 3300 010/07 RMK AO2
14926KSTC STC20050720171509407/20/05 17:15:31  5-MIN KSTC 202315Z 03006KT 10SM CLR 32/20 A2989 1050 49 3200 030/06 RMK AO2
14926KSTC STC20050720172009407/20/05 17:20:31  5-MIN KSTC 202320Z 04007KT 10SM CLR 32/20 A2990 1050 48 3300 040/07 RMK AO2
14926KSTC STC20050720172509407/20/05 17:25:31  5-MIN KSTC 202325Z 02006KT 10SM CLR 32/20 A2990 1040 48 3300 020/06 RMK AO2
14926KSTC STC20050720173009407/20/05 17:30:31  5-MIN KSTC 202330Z 01007KT 10SM CLR 32/20 A2991 1040 48 3300 010/07 RMK AO2
14926KSTC STC20050720173509407/20/05 17:35:31  5-MIN KSTC 202335Z 01005KT 10SM CLR 32/20 A2991 1040 48 3300 010/05 RMK AO2
14926KSTC STC20050720174009407/20/05 17:40:31  5-MIN KSTC 202340Z 01006KT 10SM CLR 32/21 A2991 1040 49 3300 010/06 RMK AO2
14926KSTC STC20050720174509407/20/05 17:45:31  5-MIN KSTC 202345Z 03008KT 10SM CLR 32/21 A2991 1040 51 3200 030/08 RMK AO2
14926KSTC STC20050720175012907/20/05 17:50:31  5-MIN KSTC 202350Z 03008KT 10SM CLR 31/21 A2991 1030 54 3100 030/08 RMK AO2 SLP130 T03110211 10339 20289 58000
14926KSTC STC20050720175509407/20/05 17:55:31  5-MIN KSTC 202355Z 03006KT 10SM CLR 31/21 A2991 1030 54 3100 030/06 RMK AO2
14926KSTC STC20050720180009407/20/05 18:00:31  5-MIN KSTC 210000Z 01006KT 10SM CLR 31/21 A2992 1030 53 3100 010/06 RMK AO2
14926KSTC STC20050720180509407/20/05 18:05:31  5-MIN KSTC 210005Z 02007KT 10SM CLR 31/21 A2991 1030 54 3100 010/07 RMK AO2
14926KSTC STC20050720181009407/20/05 18:10:31  5-MIN KSTC 210010Z 02006KT 10SM CLR 31/21 A2991 1030 54 3100 020/06 RMK AO2
14926KSTC STC20050720181509407/20/05 18:15:31  5-MIN KSTC 210015Z 02005KT 10SM CLR 30/21 A2991 1030 56 3000 020/05 RMK AO2
14926KSTC STC20050720182009407/20/05 18:20:31  5-MIN KSTC 210020Z 04006KT 10SM CLR 30/21 A2991 1030 58 3000 030/06 RMK AO2
14926KSTC STC20050720182509407/20/05 18:25:31  5-MIN KSTC 210025Z 02005KT 10SM CLR 30/21 A2992 1030 58 3000 020/05 RMK AO2
14926KSTC STC20050720183009407/20/05 18:30:31  5-MIN KSTC 210030Z 01006KT 10SM CLR 30/21 A2992 1020 58 3000 010/06 RMK AO2
14926KSTC STC20050720183509407/20/05 18:35:31  5-MIN KSTC 210035Z 01007KT 10SM CLR 30/22 A2993 1020 60 3000 360/07 RMK AO2
14926KSTC STC20050720184009407/20/05 18:40:31  5-MIN KSTC 210040Z 02009KT 10SM CLR 29/21 A2993 1020 60 2900 010/09 RMK AO2
14926KSTC STC20050720184509407/20/05 18:45:31  5-MIN KSTC 210045Z 02009KT 10SM CLR 29/21 A2993 1020 58 2900 020/09 RMK AO2
14926KSTC STC20050720185011107/20/05 18:50:31  5-MIN KSTC 210050Z 02006KT 10SM CLR 29/20 A2993 1010 58 2900 010/06 RMK AO2 SLP138 T02890200
14926KSTC STC20050720185509407/20/05 18:55:31  5-MIN KSTC 210055Z 02007KT 10SM CLR 28/19 A2994 1010 58 2800 010/07 RMK AO2
14926KSTC STC20050720190009407/20/05 19:00:31  5-MIN KSTC 210100Z 02007KT 10SM CLR 28/19 A2994 1010 58 2800 010/07 RMK AO2
14926KSTC STC20050720190509407/20/05 19:05:31  5-MIN KSTC 210105Z 02006KT 10SM CLR 28/19 A2994 1010 58 2800 020/06 RMK AO2
14926KSTC STC20050720191009407/20/05 19:10:31  5-MIN KSTC 210110Z 03005KT 10SM CLR 28/19 A2994 1010 58 2800 020/05 RMK AO2
14926KSTC STC20050720191509407/20/05 19:15:31  5-MIN KSTC 210115Z 02005KT 10SM CLR 28/19 A2994 1000 56 2800 020/05 RMK AO2
14926KSTC STC20050720192009407/20/05 19:20:31  5-MIN KSTC 210120Z 02005KT 10SM CLR 28/19 A2994 1010 56 2800 020/05 RMK AO2
14926KSTC STC20050720192509407/20/05 19:25:31  5-MIN KSTC 210125Z 02006KT 10SM CLR 28/19 A2995 1000 58 2700 020/06 RMK AO2
14926KSTC STC20050720193009407/20/05 19:30:31  5-MIN KSTC 210130Z 02005KT 10SM CLR 27/19 A2995 1000 60 2700 020/05 RMK AO2
14926KSTC STC20050720193509407/20/05 19:35:31  5-MIN KSTC 210135Z 02005KT 10SM CLR 27/19 A2995 1000 60 2700 010/05 RMK AO2
14926KSTC STC20050720194009407/20/05 19:40:31  5-MIN KSTC 210140Z 03005KT 10SM CLR 27/19 A2995 1000 62 2600 030/05 RMK AO2
14926KSTC STC20050720194509407/20/05 19:45:31  5-MIN KSTC 210145Z 03005KT 10SM CLR 27/19 A2995 1000 62 2600 030/05 RMK AO2
14926KSTC STC20050720195011107/20/05 19:50:31  5-MIN KSTC 210150Z 03005KT 10SM CLR 27/18 A2995 1000 60 2600 020/05 RMK AO2 SLP144 T02670183
14926KSTC STC20050720195509307/20/05 19:55:31  5-MIN KSTC 210155Z 02005KT 10SM CLR 26/19 A2995 990 64 2500 020/05 RMK AO2
14926KSTC STC20050720200009407/20/05 20:00:31  5-MIN KSTC 210200Z 03004KT 10SM CLR 26/19 A2995 1000 64 2500 020/04 RMK AO2
14926KSTC STC20050720200509307/20/05 20:05:31  5-MIN KSTC 210205Z 02006KT 10SM CLR 26/19 A2996 990 66 2500 010/06 RMK AO2
14926KSTC STC20050720201009307/20/05 20:10:31  5-MIN KSTC 210210Z 02008KT 10SM CLR 26/18 A2996 990 59 2500 010/08 RMK AO2
14926KSTC STC20050720201509307/20/05 20:15:31  5-MIN KSTC 210215Z 02006KT 10SM CLR 26/17 A2996 990 57 2500 020/06 RMK AO2
14926KSTC STC20050720202009307/20/05 20:20:31  5-MIN KSTC 210220Z 02007KT 10SM CLR 26/16 A2997 980 53 2500 020/07 RMK AO2
14926KSTC STC20050720202509307/20/05 20:25:31  5-MIN KSTC 210225Z 02007KT 10SM CLR 26/14 A2997 980 49 2500 010/07 RMK AO2
14926KSTC STC20050720203009307/20/05 20:30:31  5-MIN KSTC 210230Z 03006KT 10SM CLR 26/14 A2997 980 48 2500 030/06 RMK AO2
14926KSTC STC20050720203509307/20/05 20:35:31  5-MIN KSTC 210235Z 03006KT 10SM CLR 26/13 A2998 970 46 2500 030/06 RMK AO2
14926KSTC STC20050720204009307/20/05 20:40:31  5-MIN KSTC 210240Z 03005KT 10SM CLR 26/13 A2998 970 46 2500 030/05 RMK AO2
14926KSTC STC20050720204509307/20/05 20:45:31  5-MIN KSTC 210245Z 04006KT 10SM CLR 25/13 A2998 970 48 2400 040/06 RMK AO2
14926KSTC STC20050720205011607/20/05 20:50:31  5-MIN KSTC 210250Z 04005KT 10SM CLR 24/13 A2998 970 49 2300 040/05 RMK AO2 SLP152 T02440133 53016
14926KSTC STC20050720205509307/20/05 20:55:31  5-MIN KSTC 210255Z 05006KT 10SM CLR 24/13 A2997 980 49 2300 040/06 RMK AO2
14926KSTC STC20050720210009307/20/05 21:00:31  5-MIN KSTC 210300Z 06005KT 10SM CLR 24/13 A2997 980 49 2300 060/05 RMK AO2
14926KSTC STC20050720210509307/20/05 21:05:31  5-MIN KSTC 210305Z 07005KT 10SM CLR 24/13 A2997 980 51 2300 060/05 RMK AO2
14926KSTC STC20050720211009307/20/05 21:10:31  5-MIN KSTC 210310Z 05004KT 10SM CLR 24/13 A2998 970 51 2300 040/04 RMK AO2
14926KSTC STC20050720211509307/20/05 21:15:31  5-MIN KSTC 210315Z 03004KT 10SM CLR 24/13 A2999 970 51 2300 020/04 RMK AO2
14926KSTC STC20050720212009307/20/05 21:20:31  5-MIN KSTC 210320Z 02004KT 10SM CLR 23/14 A2999 960 55 2200 010/04 RMK AO2
14926KSTC STC20050720212509307/20/05 21:25:31  5-MIN KSTC 210325Z 02004KT 10SM CLR 23/14 A2999 960 55 2200 020/04 RMK AO2
14926KSTC STC20050720213009307/20/05 21:30:31  5-MIN KSTC 210330Z 02003KT 10SM CLR 23/14 A3000 960 55 2200 020/03 RMK AO2
14926KSTC STC20050720213509307/20/05 21:35:31  5-MIN KSTC 210335Z 03003KT 10SM CLR 23/14 A3000 960 55 2200 030/03 RMK AO2
14926KSTC STC20050720214009307/20/05 21:40:31  5-MIN KSTC 210340Z 04003KT 10SM CLR 23/14 A3000 960 55 2200 040/03 RMK AO2
14926KSTC STC20050720214509307/20/05 21:45:31  5-MIN KSTC 210345Z VRB03KT 10SM CLR 23/14 A2999 960 57 2100 VRB/03 RMK AO2
14926KSTC STC20050720215011007/20/05 21:50:31  5-MIN KSTC 210350Z 08003KT 10SM CLR 23/14 A2999 960 57 2100 080/03 RMK AO2 SLP158 T02280139
14926KSTC STC20050720215509807/20/05 21:55:31  5-MIN KSTC 210355Z AUTO VRB03KT 10SM CLR 23/14 A2999 960 57 2100 VRB/03 RMK AO2
14926KSTC STC20050720220009807/20/05 22:00:31  5-MIN KSTC 210400Z AUTO 07004KT 10SM CLR 23/14 A2998 970 57 2100 070/04 RMK AO2
14926KSTC STC20050720220509807/20/05 22:05:31  5-MIN KSTC 210405Z AUTO 06004KT 10SM CLR 23/14 A2999 970 57 2100 060/04 RMK AO2
14926KSTC STC20050720221009807/20/05 22:10:31  5-MIN KSTC 210410Z AUTO 04006KT 10SM CLR 23/14 A2999 960 57 2100 040/06 RMK AO2
14926KSTC STC20050720221509807/20/05 22:15:31  5-MIN KSTC 210415Z AUTO 04008KT 10SM CLR 23/13 A2998 970 55 2100 040/08 RMK AO2
14926KSTC STC20050720222009807/20/05 22:20:31  5-MIN KSTC 210420Z AUTO 05006KT 10SM CLR 23/13 A2998 970 55 2100 050/06 RMK AO2
14926KSTC STC20050720222509807/20/05 22:25:31  5-MIN KSTC 210425Z AUTO 03007KT 10SM CLR 23/13 A2999 970 55 2100 030/07 RMK AO2
14926KSTC STC20050720223009807/20/05 22:30:31  5-MIN KSTC 210430Z AUTO 05006KT 10SM CLR 23/13 A2999 970 51 2200 050/06 RMK AO2
14926KSTC STC20050720223509807/20/05 22:35:31  5-MIN KSTC 210435Z AUTO 05004KT 10SM CLR 23/13 A2999 960 55 2100 040/04 RMK AO2
14926KSTC STC20050720224010107/20/05 22:40:31  5-MIN KSTC 210440Z AUTO 06005KT 10SM FEW047 22/13 A2999 970 56 2100 050/05 RMK AO2
14926KSTC STC20050720224510107/20/05 22:45:31  5-MIN KSTC 210445Z AUTO 05004KT 10SM SCT047 22/14 A2999 960 59 2100 050/04 RMK AO2
14926KSTC STC20050720225011807/20/05 22:50:31  5-MIN KSTC 210450Z AUTO 04005KT 10SM BKN047 22/14 A2999 960 59 2100 040/05 RMK AO2 SLP157 T02220139
14926KSTC STC20050720225510107/20/05 22:55:31  5-MIN KSTC 210455Z AUTO 05005KT 10SM BKN047 23/14 A2999 960 57 2100 040/05 RMK AO2
14926KSTC STC20050720230010107/20/05 23:00:31  5-MIN KSTC 210500Z AUTO 02006KT 10SM BKN047 23/14 A2999 960 57 2100 020/06 RMK AO2
14926KSTC STC20050720230510107/20/05 23:05:31  5-MIN KSTC 210505Z AUTO 04004KT 10SM OVC047 23/14 A2999 960 57 2100 040/04 RMK AO2
14926KSTC STC20050720231010107/20/05 23:10:31  5-MIN KSTC 210510Z AUTO 01003KT 10SM OVC047 23/14 A2999 960 57 2100 010/03 RMK AO2
14926KSTC STC20050720231510107/20/05 23:15:31  5-MIN KSTC 210515Z AUTO 00000KT 10SM OVC047 23/14 A2999 960 59 2100 000/00 RMK AO2
14926KSTC STC20050720232010107/20/05 23:20:31  5-MIN KSTC 210520Z AUTO 00000KT 10SM OVC047 23/14 A3000 960 59 2100 000/00 RMK AO2
14926KSTC STC20050720232510107/20/05 23:25:31  5-MIN KSTC 210525Z AUTO 00000KT 10SM OVC049 23/14 A3000 960 59 2100 000/00 RMK AO2
14926KSTC STC20050720233010107/20/05 23:30:31  5-MIN KSTC 210530Z AUTO 00000KT 10SM OVC049 23/14 A3000 950 59 2100 000/00 RMK AO2
14926KSTC STC20050720233510807/20/05 23:35:31  5-MIN KSTC 210535Z AUTO 00000KT 10SM BKN047 OVC055 23/14 A3000 950 59 2100 000/00 RMK AO2
14926KSTC STC20050720234010807/20/05 23:40:31  5-MIN KSTC 210540Z AUTO 00000KT 10SM BKN045 OVC050 22/15 A3000 950 63 2100 000/00 RMK AO2
14926KSTC STC20050720234510807/20/05 23:45:31  5-MIN KSTC 210545Z AUTO 00000KT 10SM BKN045 BKN055 22/15 A3000 950 63 2000 000/00 RMK AO2
14926KSTC STC20050720235015307/20/05 23:50:31  5-MIN KSTC 210550Z AUTO 00000KT 10SM SCT045 BKN055 22/16 A3000 950 65 2000 000/00 RMK AO2 SLP161 T02220156 10311 20222 403390200 51021
14926KSTC STC20050720235510807/20/05 23:55:31  5-MIN KSTC 210555Z AUTO 00000KT 10SM BKN043 BKN055 22/16 A3000 950 70 2000 000/00 RMK AO2
14926KSTC STC20050721000010107/21/05 00:00:32  5-MIN KSTC 210600Z AUTO 00000KT 10SM BKN043 21/16 A3000 950 70 1900 000/00 RMK AO2
14926KSTC STC20050721000510807/21/05 00:05:31  5-MIN KSTC 210605Z AUTO 01004KT 10SM SCT043 SCT055 21/16 A3000 950 70 1900 010/04 RMK AO2
14926KSTC STC20050721001010807/21/05 00:10:31  5-MIN KSTC 210610Z AUTO 00000KT 10SM FEW043 SCT055 21/16 A3000 950 70 1900 000/00 RMK AO2
14926KSTC STC20050721001510807/21/05 00:15:31  5-MIN KSTC 210615Z AUTO 00000KT 10SM FEW043 SCT055 21/16 A3000 950 73 1900 000/00 RMK AO2
14926KSTC STC20050721002010807/21/05 00:20:31  5-MIN KSTC 210620Z AUTO 00000KT 10SM FEW043 SCT055 21/16 A3001 950 73 1900 000/00 RMK AO2
14926KSTC STC20050721002510107/21/05 00:25:31  5-MIN KSTC 210625Z AUTO 00000KT 10SM SCT050 21/16 A3001 950 73 1900 000/00 RMK AO2
14926KSTC STC20050721003011507/21/05 00:30:31  5-MIN KSTC 210630Z AUTO 00000KT 10SM FEW041 BKN050 BKN060 21/16 A3001 940 73 1900 000/00 RMK AO2
14926KSTC STC20050721003510807/21/05 00:35:31  5-MIN KSTC 210635Z AUTO 00000KT 10SM SCT040 BKN050 21/16 A3001 940 73 1900 000/00 RMK AO2
14926KSTC STC20050721004010807/21/05 00:40:31  5-MIN KSTC 210640Z AUTO 00000KT 10SM BKN040 BKN050 21/16 A3001 940 73 1900 000/00 RMK AO2
14926KSTC STC20050721004510807/21/05 00:45:31  5-MIN KSTC 210645Z AUTO 00000KT 10SM BKN040 OVC050 21/16 A3001 940 73 1900 000/00 RMK AO2
14926KSTC STC20050721005012507/21/05 00:50:31  5-MIN KSTC 210650Z AUTO 00000KT 10SM BKN040 OVC050 21/16 A3001 940 73 1900 000/00 RMK AO2 SLP165 T02110161
14926KSTC STC20050721005510807/21/05 00:55:31  5-MIN KSTC 210655Z AUTO 00000KT 10SM BKN040 OVC048 21/17 A3001 940 75 1900 000/00 RMK AO2
14926KSTC STC20050721010010807/21/05 01:00:31  5-MIN KSTC 210700Z AUTO 00000KT 10SM BKN040 OVC050 21/17 A3001 940 75 1900 000/00 RMK AO2
14926KSTC STC20050721010510807/21/05 01:05:31  5-MIN KSTC 210705Z AUTO 00000KT 10SM BKN040 OVC050 21/17 A3001 950 75 1900 000/00 RMK AO2
14926KSTC STC20050721011010807/21/05 01:10:31  5-MIN KSTC 210710Z AUTO 01003KT 10SM BKN040 OVC055 21/16 A3001 950 73 1900 010/03 RMK AO2
14926KSTC STC20050721011510807/21/05 01:15:31  5-MIN KSTC 210715Z AUTO 02003KT 10SM BKN043 OVC060 21/16 A3000 950 70 1900 020/03 RMK AO2
14926KSTC STC20050721012010807/21/05 01:20:31  5-MIN KSTC 210720Z AUTO 01003KT 10SM BKN043 BKN060 21/16 A3001 950 70 1900 010/03 RMK AO2
14926KSTC STC20050721012511507/21/05 01:25:31  5-MIN KSTC 210725Z AUTO 01003KT 10SM FEW035 SCT043 BKN055 21/16 A3001 950 73 1900 010/03 RMK AO2
14926KSTC STC20050721013011507/21/05 01:30:31  5-MIN KSTC 210730Z AUTO 02003KT 10SM SCT038 SCT046 BKN060 21/16 A3001 950 75 1900 020/03 RMK AO2
14926KSTC STC20050721013510807/21/05 01:35:31  5-MIN KSTC 210735Z AUTO 01004KT 10SM BKN041 BKN060 21/16 A3000 950 73 1900 360/04 RMK AO2
14926KSTC STC20050721014010107/21/05 01:40:31  5-MIN KSTC 210740Z AUTO 01004KT 10SM BKN041 21/16 A3000 950 73 1900 010/04 RMK AO2
14926KSTC STC20050721014510107/21/05 01:45:31  5-MIN KSTC 210745Z AUTO 02004KT 10SM BKN041 21/15 A3000 950 70 1900 020/04 RMK AO2
14926KSTC STC20050721015012507/21/05 01:50:31  5-MIN KSTC 210750Z AUTO 02006KT 10SM BKN041 BKN049 21/15 A3000 950 68 1900 020/06 RMK AO2 SLP159 T02110150
14926KSTC STC20050721015510807/21/05 01:55:31  5-MIN KSTC 210755Z AUTO 03005KT 10SM BKN039 BKN049 21/14 A3000 950 65 1900 020/05 RMK AO2
14926KSTC STC20050721020011507/21/05 02:00:31  5-MIN KSTC 210800Z AUTO 02006KT 10SM BKN039 BKN049 OVC060 21/14 A3000 960 65 1900 020/06 RMK AO2
14926KSTC STC20050721020511507/21/05 02:05:31  5-MIN KSTC 210805Z AUTO 02007KT 10SM FEW034 SCT041 BKN050 21/14 A3000 960 63 1900 020/07 RMK AO2
14926KSTC STC20050721021011507/21/05 02:10:31  5-MIN KSTC 210810Z AUTO 02005KT 10SM SCT034 SCT043 BKN050 21/14 A3000 960 63 1900 020/05 RMK AO2
14926KSTC STC20050721021511507/21/05 02:15:31  5-MIN KSTC 210815Z AUTO 03007KT 10SM SCT037 BKN050 OVC060 21/14 A3000 950 63 1900 030/07 RMK AO2
14926KSTC STC20050721022010807/21/05 02:20:31  5-MIN KSTC 210820Z AUTO 03005KT 10SM SCT035 OVC060 21/13 A3000 950 61 1900 030/05 RMK AO2
14926KSTC STC20050721022510807/21/05 02:25:31  5-MIN KSTC 210825Z AUTO 03005KT 10SM BKN037 OVC060 21/13 A3000 950 61 1900 030/05 RMK AO2
14926KSTC STC20050721023010807/21/05 02:30:31  5-MIN KSTC 210830Z AUTO 04006KT 10SM BKN037 BKN060 21/13 A3000 950 61 1900 030/06 RMK AO2
14926KSTC STC20050721023510807/21/05 02:35:31  5-MIN KSTC 210835Z AUTO 04007KT 10SM SCT037 BKN065 21/13 A3000 950 61 1900 040/07 RMK AO2
14926KSTC STC20050721024010807/21/05 02:40:31  5-MIN KSTC 210840Z AUTO 05006KT 10SM SCT037 BKN060 21/13 A3000 950 61 1900 050/06 RMK AO2
14926KSTC STC20050721024510807/21/05 02:45:31  5-MIN KSTC 210845Z AUTO 05006KT 10SM BKN037 BKN065 21/13 A3000 960 63 1900 040/06 RMK AO2
14926KSTC STC20050721025013107/21/05 02:50:31  5-MIN KSTC 210850Z AUTO 04008KT 10SM SCT037 SCT065 21/13 A2999 960 63 1900 040/08 RMK AO2 SLP155 T02060133 53009
14926KSTC STC20050721025510107/21/05 02:55:31  5-MIN KSTC 210855Z AUTO 03009KT 10SM FEW034 21/13 A2998 970 63 1900 030/09 RMK AO2
14926KSTC STC20050721030010107/21/05 03:00:31  5-MIN KSTC 210900Z AUTO 04009KT 10SM FEW034 21/13 A2998 970 60 1900 040/09 RMK AO2
14926KSTC STC20050721030510107/21/05 03:05:31  5-MIN KSTC 210905Z AUTO 05009KT 10SM FEW034 21/13 A2998 970 60 1900 040/09 RMK AO2
14926KSTC STC20050721031009807/21/05 03:10:31  5-MIN KSTC 210910Z AUTO 05006KT 10SM CLR 20/13 A2999 970 63 1800 040/06 RMK AO2
14926KSTC STC20050721031509807/21/05 03:15:31  5-MIN KSTC 210915Z AUTO 04008KT 10SM CLR 20/13 A2998 970 63 1800 040/08 RMK AO2
14926KSTC STC20050721032009807/21/05 03:20:31  5-MIN KSTC 210920Z AUTO 05009KT 10SM CLR 20/13 A2998 970 63 1800 040/09 RMK AO2
14926KSTC STC20050721032509807/21/05 03:25:31  5-MIN KSTC 210925Z AUTO 05007KT 10SM CLR 20/13 A2999 970 63 1800 040/07 RMK AO2
14926KSTC STC20050721033009807/21/05 03:30:31  5-MIN KSTC 210930Z AUTO 04008KT 10SM CLR 20/13 A2999 960 63 1800 040/08 RMK AO2
14926KSTC STC20050721033509807/21/05 03:35:31  5-MIN KSTC 210935Z AUTO 04009KT 10SM CLR 20/13 A2999 960 63 1800 040/09 RMK AO2
14926KSTC STC20050721034009807/21/05 03:40:31  5-MIN KSTC 210940Z AUTO 03007KT 10SM CLR 19/13 A3000 960 65 1700 030/07 RMK AO2
14926KSTC STC20050721034509807/21/05 03:45:31  5-MIN KSTC 210945Z AUTO 03006KT 10SM CLR 19/13 A2999 960 65 1700 030/06 RMK AO2
14926KSTC STC20050721035011507/21/05 03:50:31  5-MIN KSTC 210950Z AUTO 04006KT 10SM CLR 19/13 A3000 950 65 1700 040/06 RMK AO2 SLP159 T01940128
14926KSTC STC20050721035509807/21/05 03:55:31  5-MIN KSTC 210955Z AUTO 04007KT 10SM CLR 19/13 A3000 950 65 1700 040/07 RMK AO2
14926KSTC STC20050721040009807/21/05 04:00:31  5-MIN KSTC 211000Z AUTO 02005KT 10SM CLR 19/13 A3000 950 65 1700 020/05 RMK AO2
14926KSTC STC20050721040509807/21/05 04:05:31  5-MIN KSTC 211005Z AUTO 04005KT 10SM CLR 19/13 A3000 950 65 1700 030/05 RMK AO2
14926KSTC STC20050721041009807/21/05 04:10:31  5-MIN KSTC 211010Z AUTO 03006KT 10SM CLR 19/13 A3001 950 67 1700 030/06 RMK AO2
14926KSTC STC20050721041510107/21/05 04:15:31  5-MIN KSTC 211015Z AUTO 02006KT 10SM FEW038 19/13 A3001 940 67 1700 020/06 RMK AO2
14926KSTC STC20050721042010107/21/05 04:20:31  5-MIN KSTC 211020Z AUTO 03005KT 10SM FEW038 19/13 A3001 950 67 1700 030/05 RMK AO2
14926KSTC STC20050721042510107/21/05 04:25:31  5-MIN KSTC 211025Z AUTO 04007KT 10SM FEW038 19/13 A3001 950 67 1700 040/07 RMK AO2
14926KSTC STC20050721043010107/21/05 04:30:31  5-MIN KSTC 211030Z AUTO 04007KT 10SM FEW038 19/13 A3000 950 67 1700 040/07 RMK AO2
14926KSTC STC20050721043511707/21/05 04:35:31  5-MIN KSTC 211035Z AUTO 03007KT 360V060 10SM FEW038 19/13 A3001 950 67 1700 030/07 360V060 RMK AO2
14926KSTC STC20050721044010107/21/05 04:40:31  5-MIN KSTC 211040Z AUTO 03006KT 10SM FEW038 19/13 A3000 950 67 1700 030/06 RMK AO2
14926KSTC STC20050721044509807/21/05 04:45:31  5-MIN KSTC 211045Z AUTO 02006KT 10SM CLR 19/13 A3000 950 67 1700 020/06 RMK AO2
14926KSTC STC20050721045011507/21/05 04:50:31  5-MIN KSTC 211050Z AUTO 03009KT 10SM CLR 19/12 A3000 950 65 1700 030/09 RMK AO2 SLP160 T01890122
14926KSTC STC20050721045509807/21/05 04:55:31  5-MIN KSTC 211055Z AUTO 04008KT 10SM CLR 19/12 A3000 950 65 1700 030/08 RMK AO2
14926KSTC STC20050721050009807/21/05 05:00:31  5-MIN KSTC 211100Z AUTO 04009KT 10SM CLR 19/12 A3000 950 65 1700 040/09 RMK AO2
14926KSTC STC20050721050509807/21/05 05:05:31  5-MIN KSTC 211105Z AUTO 04008KT 10SM CLR 19/12 A3000 950 65 1700 040/08 RMK AO2
14926KSTC STC20050721051009807/21/05 05:10:31  5-MIN KSTC 211110Z AUTO 04009KT 10SM CLR 19/12 A3000 950 65 1700 040/09 RMK AO2
14926KSTC STC20050721051509807/21/05 05:15:31  5-MIN KSTC 211115Z AUTO 04010KT 10SM CLR 19/12 A2999 960 65 1700 040/10 RMK AO2
14926KSTC STC20050721052009807/21/05 05:20:31  5-MIN KSTC 211120Z AUTO 04011KT 10SM CLR 19/12 A2999 960 65 1700 030/11 RMK AO2
14926KSTC STC20050721052509807/21/05 05:25:31  5-MIN KSTC 211125Z AUTO 03010KT 10SM CLR 19/12 A2999 960 65 1700 030/10 RMK AO2
14926KSTC STC20050721053009807/21/05 05:30:31  5-MIN KSTC 211130Z AUTO 03008KT 10SM CLR 19/12 A2999 960 62 1700 020/08 RMK AO2
14926KSTC STC20050721053509807/21/05 05:35:31  5-MIN KSTC 211135Z AUTO 03009KT 10SM CLR 19/12 A2999 960 62 1700 030/09 RMK AO2
14926KSTC STC20050721054009807/21/05 05:40:31  5-MIN KSTC 211140Z AUTO 04012KT 10SM CLR 19/12 A2999 960 62 1700 040/12 RMK AO2
14926KSTC STC20050721054510407/21/05 05:45:31  5-MIN KSTC 211145Z AUTO 04010G16KT 10SM CLR 19/12 A3000 960 65 1700 040/10G16 RMK AO2
14926KSTC STC20050721055013907/21/05 05:50:31  5-MIN KSTC 211150Z AUTO 04008G16KT 10SM CLR 19/12 A3000 950 65 1700 040/08G16 RMK AO2 SLP160 T01890122 10217 20183 58006
14926KSTC STC20050721055509807/21/05 05:55:31  5-MIN KSTC 211155Z AUTO 04010KT 10SM CLR 19/12 A3000 960 65 1700 040/10 RMK AO2
14926KSTC STC20050721060009807/21/05 06:00:31  5-MIN KSTC 211200Z AUTO 04009KT 10SM CLR 19/12 A3000 960 65 1700 040/09 RMK AO2
14926KSTC STC20050721060509807/21/05 06:05:31  5-MIN KSTC 211205Z AUTO 04008KT 10SM CLR 19/12 A3000 960 65 1700 040/08 RMK AO2
14926KSTC STC20050721061009807/21/05 06:10:31  5-MIN KSTC 211210Z AUTO 04009KT 10SM CLR 19/12 A3000 950 65 1700 040/09 RMK AO2
14926KSTC STC20050721061509807/21/05 06:15:31  5-MIN KSTC 211215Z AUTO 04010KT 10SM CLR 19/12 A3000 950 65 1700 040/10 RMK AO2
14926KSTC STC20050721062009807/21/05 06:20:31  5-MIN KSTC 211220Z AUTO 04010KT 10SM CLR 19/12 A3000 960 62 1700 040/10 RMK AO2
14926KSTC STC20050721062509807/21/05 06:25:31  5-MIN KSTC 211225Z AUTO 04009KT 10SM CLR 19/12 A3000 950 62 1700 040/09 RMK AO2
14926KSTC STC20050721063009807/21/05 06:30:31  5-MIN KSTC 211230Z AUTO 04008KT 10SM CLR 19/12 A3000 950 62 1700 040/08 RMK AO2
14926KSTC STC20050721063509807/21/05 06:35:31  5-MIN KSTC 211235Z AUTO 04006KT 10SM CLR 19/13 A3000 950 65 1700 040/06 RMK AO2
14926KSTC STC20050721064009807/21/05 06:40:31  5-MIN KSTC 211240Z AUTO 04008KT 10SM CLR 19/13 A3001 950 65 1700 040/08 RMK AO2
14926KSTC STC20050721064509807/21/05 06:45:31  5-MIN KSTC 211245Z AUTO 04007KT 10SM CLR 20/13 A3001 940 63 1800 030/07 RMK AO2
14926KSTC STC20050721065011507/21/05 06:50:31  5-MIN KSTC 211250Z AUTO 04007KT 10SM CLR 20/13 A3001 940 63 1800 040/07 RMK AO2 SLP165 T02000128
14926KSTC STC20050721065509807/21/05 06:55:31  5-MIN KSTC 211255Z AUTO 04006KT 10SM CLR 20/13 A3001 940 63 1800 040/06 RMK AO2
14926KSTC STC20050721070009807/21/05 07:00:31  5-MIN KSTC 211300Z AUTO 04009KT 10SM CLR 20/13 A3001 940 63 1800 040/09 RMK AO2
14926KSTC STC20050721070512007/21/05 07:05:31  5-MIN KSTC 211305Z AUTO 04008G15KT 360V070 10SM CLR 21/13 A3001 940 60 1800 040/08G15 360V070 RMK AO2
14926KSTC STC20050721071010407/21/05 07:10:31  5-MIN KSTC 211310Z AUTO 06007G15KT 10SM CLR 21/13 A3002 940 60 1800 060/07G15 RMK AO2
14926KSTC STC20050721071509807/21/05 07:15:31  5-MIN KSTC 211315Z AUTO VRB06KT 10SM CLR 21/13 A3002 940 58 1900 VRB/06 RMK AO2
14926KSTC STC20050721072009807/21/05 07:20:31  5-MIN KSTC 211320Z AUTO 05008KT 10SM CLR 21/13 A3002 930 58 1900 050/08 RMK AO2
14926KSTC STC20050721072509807/21/05 07:25:31  5-MIN KSTC 211325Z AUTO 08009KT 10SM CLR 21/13 A3002 930 58 1900 070/09 RMK AO2
14926KSTC STC20050721073009807/21/05 07:30:31  5-MIN KSTC 211330Z AUTO 05008KT 10SM CLR 21/13 A3003 930 58 1900 050/08 RMK AO2
14926KSTC STC20050721073509807/21/05 07:35:31  5-MIN KSTC 211335Z AUTO 06008KT 10SM CLR 21/13 A3003 930 58 1900 060/08 RMK AO2
14926KSTC STC20050721074009807/21/05 07:40:31  5-MIN KSTC 211340Z AUTO 06008KT 10SM CLR 21/13 A3003 930 58 1900 060/08 RMK AO2
14926KSTC STC20050721074509807/21/05 07:45:31  5-MIN KSTC 211345Z AUTO 06006KT 10SM CLR 21/13 A3003 930 58 1900 050/06 RMK AO2
14926KSTC STC20050721075011507/21/05 07:50:31  5-MIN KSTC 211350Z AUTO 07007KT 10SM CLR 21/13 A3003 930 58 1900 060/07 RMK AO2 SLP170 T02110128
14926KSTC STC20050721075509807/21/05 07:55:31  5-MIN KSTC 211355Z AUTO 07006KT 10SM CLR 21/13 A3003 930 58 1900 070/06 RMK AO2
14926KSTC STC20050721080009807/21/05 08:00:31  5-MIN KSTC 211400Z AUTO VRB06KT 10SM CLR 22/13 A3003 920 58 2000 VRB/06 RMK AO2
14926KSTC STC20050721080509807/21/05 08:05:31  5-MIN KSTC 211405Z AUTO 08006KT 10SM CLR 22/13 A3003 920 56 2000 080/06 RMK AO2
14926KSTC STC20050721081009807/21/05 08:10:31  5-MIN KSTC 211410Z AUTO VRB06KT 10SM CLR 22/13 A3003 920 58 1900 VRB/06 RMK AO2
14926KSTC STC20050721081509807/21/05 08:15:31  5-MIN KSTC 211415Z AUTO 06008KT 10SM CLR 22/13 A3003 920 56 1900 060/08 RMK AO2
14926KSTC STC20050721082011407/21/05 08:20:31  5-MIN KSTC 211420Z AUTO 09007KT 050V120 10SM CLR 22/13 A3004 920 54 2000 090/07 050V120 RMK AO2
14926KSTC STC20050721082509807/21/05 08:25:31  5-MIN KSTC 211425Z AUTO 07008KT 10SM CLR 22/13 A3004 910 56 2000 060/08 RMK AO2
14926KSTC STC20050721083009807/21/05 08:30:31  5-MIN KSTC 211430Z AUTO 08007KT 10SM CLR 22/13 A3005 910 54 2000 080/07 RMK AO2
14926KSTC STC20050721083509807/21/05 08:35:31  5-MIN KSTC 211435Z AUTO VRB06KT 10SM CLR 23/13 A3005 910 53 2100 VRB/06 RMK AO2
14926KSTC STC20050721084009807/21/05 08:40:31  5-MIN KSTC 211440Z AUTO 06007KT 10SM CLR 23/13 A3005 910 55 2100 060/07 RMK AO2
14926KSTC STC20050721084509807/21/05 08:45:31  5-MIN KSTC 211445Z AUTO 07008KT 10SM CLR 23/13 A3005 910 53 2100 070/08 RMK AO2
14926KSTC STC20050721085012107/21/05 08:50:31  5-MIN KSTC 211450Z AUTO 06009KT 10SM CLR 23/13 A3005 900 53 2100 050/09 RMK AO2 SLP179 T02280128 50004
14926KSTC STC20050721085509807/21/05 08:55:31  5-MIN KSTC 211455Z AUTO 05008KT 10SM CLR 23/13 A3005 900 55 2100 050/08 RMK AO2
14926KSTC STC20050721090009807/21/05 09:00:31  5-MIN KSTC 211500Z AUTO 06008KT 10SM CLR 23/13 A3005 900 53 2100 060/08 RMK AO2
14926KSTC STC20050721090509807/21/05 09:05:31  5-MIN KSTC 211505Z AUTO 05009KT 10SM CLR 23/13 A3005 900 51 2100 050/09 RMK AO2
14926KSTC STC20050721091009807/21/05 09:10:31  5-MIN KSTC 211510Z AUTO 06006KT 10SM CLR 23/13 A3006 900 51 2100 050/06 RMK AO2
14926KSTC STC20050721091509807/21/05 09:15:31  5-MIN KSTC 211515Z AUTO 07007KT 10SM CLR 23/13 A3006 900 53 2100 070/07 RMK AO2
14926KSTC STC20050721092009807/21/05 09:20:31  5-MIN KSTC 211520Z AUTO 08009KT 10SM CLR 23/13 A3006 900 51 2100 080/09 RMK AO2
14926KSTC STC20050721092509807/21/05 09:25:31  5-MIN KSTC 211525Z AUTO 08007KT 10SM CLR 24/13 A3006 900 51 2200 080/07 RMK AO2
14926KSTC STC20050721093011407/21/05 09:30:31  5-MIN KSTC 211530Z AUTO 08010KT 060V120 10SM CLR 24/13 A3006 900 51 2200 080/10 060V120 RMK AO2
14926KSTC STC20050721093509807/21/05 09:35:31  5-MIN KSTC 211535Z AUTO VRB06KT 10SM CLR 24/13 A3006 900 51 2200 VRB/06 RMK AO2
14926KSTC STC20050721094009807/21/05 09:40:31  5-MIN KSTC 211540Z AUTO VRB06KT 10SM CLR 24/13 A3005 900 51 2200 VRB/06 RMK AO2
14926KSTC STC20050721094509807/21/05 09:45:31  5-MIN KSTC 211545Z AUTO 08008KT 10SM CLR 24/13 A3006 900 51 2200 080/08 RMK AO2
14926KSTC STC20050721095011507/21/05 09:50:31  5-MIN KSTC 211550Z AUTO 08008KT 10SM CLR 24/13 A3006 900 49 2200 080/08 RMK AO2 SLP181 T02440133
14926KSTC STC20050721095509807/21/05 09:55:31  5-MIN KSTC 211555Z AUTO 09009KT 10SM CLR 24/13 A3006 900 49 2200 090/09 RMK AO2
14926KSTC STC20050721100009807/21/05 10:00:31  5-MIN KSTC 211600Z AUTO 07006KT 10SM CLR 25/13 A3006 900 48 2300 070/06 RMK AO2
14926KSTC STC20050721100509807/21/05 10:05:31  5-MIN KSTC 211605Z AUTO 06007KT 10SM CLR 24/13 A3006 900 49 2200 060/07 RMK AO2
14926KSTC STC20050721101009807/21/05 10:10:31  5-MIN KSTC 211610Z AUTO 05009KT 10SM CLR 25/13 A3006 900 48 2300 050/09 RMK AO2
14926KSTC STC20050721101509807/21/05 10:15:31  5-MIN KSTC 211615Z AUTO 08008KT 10SM CLR 25/13 A3006 900 48 2300 070/08 RMK AO2
14926KSTC STC20050721102009807/21/05 10:20:31  5-MIN KSTC 211620Z AUTO 08009KT 10SM CLR 25/13 A3006 900 48 2300 070/09 RMK AO2
14926KSTC STC20050721102509807/21/05 10:25:31  5-MIN KSTC 211625Z AUTO 05006KT 10SM CLR 25/13 A3006 900 48 2300 050/06 RMK AO2
14926KSTC STC20050721103009807/21/05 10:30:31  5-MIN KSTC 211630Z AUTO 08009KT 10SM CLR 26/13 A3006 900 46 2400 080/09 RMK AO2
14926KSTC STC20050721103509807/21/05 10:35:31  5-MIN KSTC 211635Z AUTO 07006KT 10SM CLR 25/13 A3006 900 48 2300 070/06 RMK AO2
14926KSTC STC20050721104009807/21/05 10:40:31  5-MIN KSTC 211640Z AUTO 05008KT 10SM CLR 26/14 A3006 900 48 2400 050/08 RMK AO2
14926KSTC STC20050721104509807/21/05 10:45:31  5-MIN KSTC 211645Z AUTO 06007KT 10SM CLR 26/13 A3006 900 46 2400 060/07 RMK AO2
14926KSTC STC20050721105011507/21/05 10:50:31  5-MIN KSTC 211650Z AUTO 05007KT 10SM CLR 26/14 A3006 900 48 2400 050/07 RMK AO2 SLP181 T02560139
14926KSTC STC20050721105509807/21/05 10:55:31  5-MIN KSTC 211655Z AUTO 07006KT 10SM CLR 26/14 A3006 900 46 2400 070/06 RMK AO2
14926KSTC STC20050721110009807/21/05 11:00:31  5-MIN KSTC 211700Z AUTO 04006KT 10SM CLR 27/14 A3006 900 45 2500 030/06 RMK AO2
14926KSTC STC20050721110509807/21/05 11:05:31  5-MIN KSTC 211705Z AUTO 05007KT 10SM CLR 26/13 A3006 900 44 2400 050/07 RMK AO2
14926KSTC STC20050721111009807/21/05 11:10:31  5-MIN KSTC 211710Z AUTO 05006KT 10SM CLR 27/14 A3006 900 45 2500 050/06 RMK AO2
14926KSTC STC20050721111509807/21/05 11:15:31  5-MIN KSTC 211715Z AUTO 06005KT 10SM CLR 26/14 A3007 890 46 2400 050/05 RMK AO2
14926KSTC STC20050721112009807/21/05 11:20:31  5-MIN KSTC 211720Z AUTO VRB05KT 10SM CLR 27/14 A3007 890 46 2500 VRB/05 RMK AO2
14926KSTC STC20050721112509807/21/05 11:25:31  5-MIN KSTC 211725Z AUTO 05006KT 10SM CLR 27/14 A3006 890 46 2500 050/06 RMK AO2
14926KSTC STC20050721113009807/21/05 11:30:31  5-MIN KSTC 211730Z AUTO 08007KT 10SM CLR 27/14 A3007 890 45 2500 080/07 RMK AO2
14926KSTC STC20050721113509807/21/05 11:35:31  5-MIN KSTC 211735Z AUTO VRB03KT 10SM CLR 27/14 A3007 890 45 2500 VRB/03 RMK AO2
14926KSTC STC20050721114009807/21/05 11:40:31  5-MIN KSTC 211740Z AUTO 05006KT 10SM CLR 27/14 A3006 890 45 2500 050/06 RMK AO2
14926KSTC STC20050721114509807/21/05 11:45:31  5-MIN KSTC 211745Z AUTO VRB05KT 10SM CLR 27/14 A3006 900 43 2500 VRB/05 RMK AO2
14926KSTC STC20050721115013307/21/05 11:50:31  5-MIN KSTC 211750Z AUTO 05006KT 10SM CLR 27/14 A3006 900 45 2500 050/06 RMK AO2 SLP180 T02720144 10272 20189 53018
14926KSTC STC20050721115509807/21/05 11:55:31  5-MIN KSTC 211755Z AUTO 07007KT 10SM CLR 27/13 A3006 900 42 2500 070/07 RMK AO2
14926KSTC STC20050721120009807/21/05 12:00:31  5-MIN KSTC 211800Z AUTO 08006KT 10SM CLR 27/13 A3006 900 42 2500 080/06 RMK AO2
14926KSTC STC20050721120509807/21/05 12:05:31  5-MIN KSTC 211805Z AUTO VRB06KT 10SM CLR 27/14 A3006 900 43 2600 VRB/06 RMK AO2
14926KSTC STC20050721121009807/21/05 12:10:31  5-MIN KSTC 211810Z AUTO 04005KT 10SM CLR 28/14 A3005 900 43 2600 030/05 RMK AO2
14926KSTC STC20050721121509807/21/05 12:15:31  5-MIN KSTC 211815Z AUTO 06007KT 10SM CLR 28/14 A3006 900 43 2600 060/07 RMK AO2
14926KSTC STC20050721122009807/21/05 12:20:31  5-MIN KSTC 211820Z AUTO VRB05KT 10SM CLR 28/14 A3006 900 40 2700 VRB/05 RMK AO2
14926KSTC STC20050721122509807/21/05 12:25:31  5-MIN KSTC 211825Z AUTO 04007KT 10SM CLR 28/14 A3006 900 43 2600 040/07 RMK AO2
14926KSTC STC20050721123009807/21/05 12:30:31  5-MIN KSTC 211830Z AUTO 09007KT 10SM CLR 28/14 A3006 900 42 2600 090/07 RMK AO2
14926KSTC STC20050721123509807/21/05 12:35:31  5-MIN KSTC 211835Z AUTO 04006KT 10SM CLR 28/14 A3006 900 40 2700 030/06 RMK AO2
14926KSTC STC20050721124009807/21/05 12:40:31  5-MIN KSTC 211840Z AUTO 04006KT 10SM CLR 28/14 A3006 900 40 2700 030/06 RMK AO2
14926KSTC STC20050721124509807/21/05 12:45:31  5-MIN KSTC 211845Z AUTO 04004KT 10SM CLR 29/14 A3006 900 39 2700 030/04 RMK AO2
14926KSTC STC20050721125011507/21/05 12:50:31  5-MIN KSTC 211850Z AUTO 07005KT 10SM CLR 28/14 A3006 900 40 2700 070/05 RMK AO2 SLP179 T02830139
14926KSTC STC20050721125509807/21/05 12:55:31  5-MIN KSTC 211855Z AUTO 08004KT 10SM CLR 29/14 A3006 900 39 2700 070/04 RMK AO2
14926KSTC STC20050721130009807/21/05 13:00:31  5-MIN KSTC 211900Z AUTO VRB06KT 10SM CLR 28/14 A3006 900 40 2700 VRB/06 RMK AO2
14926KSTC STC20050721130509807/21/05 13:05:31  5-MIN KSTC 211905Z AUTO VRB04KT 10SM CLR 29/14 A3006 900 39 2700 VRB/04 RMK AO2
14926KSTC STC20050721131009807/21/05 13:10:31  5-MIN KSTC 211910Z AUTO 05005KT 10SM CLR 29/14 A3006 900 39 2700 050/05 RMK AO2
14926KSTC STC20050721131509807/21/05 13:15:31  5-MIN KSTC 211915Z AUTO 08005KT 10SM CLR 29/13 A3006 900 38 2700 080/05 RMK AO2
14926KSTC STC20050721132009807/21/05 13:20:31  5-MIN KSTC 211920Z AUTO 06006KT 10SM CLR 28/13 A3006 900 37 2700 050/06 RMK AO2
14926KSTC STC20050721132509807/21/05 13:25:31  5-MIN KSTC 211925Z AUTO VRB04KT 10SM CLR 29/13 A3006 900 36 2700 VRB/04 RMK AO2
14926KSTC STC20050721133009807/21/05 13:30:31  5-MIN KSTC 211930Z AUTO VRB06KT 10SM CLR 29/13 A3006 900 35 2800 VRB/06 RMK AO2
14926KSTC STC20050721133509807/21/05 13:35:31  5-MIN KSTC 211935Z AUTO 01005KT 10SM CLR 29/12 A3005 910 34 2800 360/05 RMK AO2
14926KSTC STC20050721134009807/21/05 13:40:31  5-MIN KSTC 211940Z AUTO 04006KT 10SM CLR 29/13 A3005 910 35 2800 040/06 RMK AO2
14926KSTC STC20050721134509807/21/05 13:45:31  5-MIN KSTC 211945Z AUTO 05004KT 10SM CLR 29/13 A3005 900 36 2700 050/04 RMK AO2
14926KSTC STC20050721135011507/21/05 13:50:31  5-MIN KSTC 211950Z AUTO 04005KT 10SM CLR 29/13 A3006 900 35 2800 040/05 RMK AO2 SLP180 T02940128
14926KSTC STC20050721135509807/21/05 13:55:31  5-MIN KSTC 211955Z AUTO 07005KT 10SM CLR 29/13 A3006 900 35 2800 070/05 RMK AO2
14926KSTC STC20050721140009807/21/05 14:00:31  5-MIN KSTC 212000Z AUTO 36006KT 10SM CLR 30/12 A3006 900 33 2900 360/06 RMK AO2
14926KSTC STC20050721140509807/21/05 14:05:31  5-MIN KSTC 212005Z AUTO 00000KT 10SM CLR 30/12 A3005 900 31 2900 000/00 RMK AO2
14926KSTC STC20050721141009807/21/05 14:10:31  5-MIN KSTC 212010Z AUTO 03006KT 10SM CLR 30/12 A3005 910 31 2900 030/06 RMK AO2
14926KSTC STC20050721141509807/21/05 14:15:31  5-MIN KSTC 212015Z AUTO VRB04KT 10SM CLR 29/11 A3005 910 31 2800 VRB/04 RMK AO2
14926KSTC STC20050721142009807/21/05 14:20:31  5-MIN KSTC 212020Z AUTO 02004KT 10SM CLR 30/11 A3005 910 30 2900 010/04 RMK AO2
14926KSTC STC20050721142509807/21/05 14:25:31  5-MIN KSTC 212025Z AUTO 05004KT 10SM CLR 30/10 A3005 910 28 2900 050/04 RMK AO2
14926KSTC STC20050721143009807/21/05 14:30:31  5-MIN KSTC 212030Z AUTO 01006KT 10SM CLR 30/12 A3005 910 31 2900 360/06 RMK AO2
14926KSTC STC20050721143509807/21/05 14:35:31  5-MIN KSTC 212035Z AUTO 00000KT 10SM CLR 30/12 A3004 910 31 2900 000/00 RMK AO2
14926KSTC STC20050721144009807/21/05 14:40:31  5-MIN KSTC 212040Z AUTO VRB03KT 10SM CLR 30/12 A3004 910 33 2900 VRB/03 RMK AO2
14926KSTC STC20050721144509807/21/05 14:45:31  5-MIN KSTC 212045Z AUTO 04005KT 10SM CLR 30/13 A3004 920 34 2900 040/05 RMK AO2
14926KSTC STC20050721145012107/21/05 14:50:31  5-MIN KSTC 212050Z AUTO 03006KT 10SM CLR 30/13 A3004 920 34 2900 030/06 RMK AO2 SLP173 T03000128 51003
14926KSTC STC20050721145509807/21/05 14:55:31  5-MIN KSTC 212055Z AUTO VRB03KT 10SM CLR 30/13 A3004 920 34 2900 VRB/03 RMK AO2
14926KSTC STC20050721150009807/21/05 15:00:31  5-MIN KSTC 212100Z AUTO 03006KT 10SM CLR 30/13 A3004 920 34 2900 030/06 RMK AO2
14926KSTC STC20050721150509807/21/05 15:05:31  5-MIN KSTC 212105Z AUTO VRB06KT 10SM CLR 30/13 A3004 920 34 2900 VRB/06 RMK AO2
14926KSTC STC20050721151009807/21/05 15:10:31  5-MIN KSTC 212110Z AUTO 36006KT 10SM CLR 30/12 A3004 920 33 2900 350/06 RMK AO2
14926KSTC STC20050721151509807/21/05 15:15:31  5-MIN KSTC 212115Z AUTO 00000KT 10SM CLR 30/12 A3004 920 33 2900 000/00 RMK AO2
14926KSTC STC20050721152009807/21/05 15:20:31  5-MIN KSTC 212120Z AUTO VRB05KT 10SM CLR 30/13 A3004 920 34 2900 VRB/05 RMK AO2
14926KSTC STC20050721152509807/21/05 15:25:31  5-MIN KSTC 212125Z AUTO VRB03KT 10SM CLR 29/13 A3004 920 35 2800 VRB/03 RMK AO2
14926KSTC STC20050721153009807/21/05 15:30:31  5-MIN KSTC 212130Z AUTO 36006KT 10SM CLR 30/13 A3004 920 34 2900 350/06 RMK AO2
14926KSTC STC20050721153509807/21/05 15:35:31  5-MIN KSTC 212135Z AUTO 36005KT 10SM CLR 30/13 A3004 920 34 2900 360/05 RMK AO2
14926KSTC STC20050721154009807/21/05 15:40:31  5-MIN KSTC 212140Z AUTO 35008KT 10SM CLR 30/13 A3004 920 34 2900 350/08 RMK AO2
14926KSTC STC20050721154509807/21/05 15:45:31  5-MIN KSTC 212145Z AUTO 02007KT 10SM CLR 31/13 A3004 920 34 2900 020/07 RMK AO2
14926KSTC STC20050721155011507/21/05 15:50:31  5-MIN KSTC 212150Z AUTO 01006KT 10SM CLR 30/13 A3004 920 34 2900 010/06 RMK AO2 SLP172 T03000128
14926KSTC STC20050721155509807/21/05 15:55:31  5-MIN KSTC 212155Z AUTO 02005KT 10SM CLR 30/13 A3004 920 34 2900 020/05 RMK AO2
14926KSTC STC20050721160009807/21/05 16:00:31  5-MIN KSTC 212200Z AUTO 01007KT 10SM CLR 30/13 A3004 920 34 2900 010/07 RMK AO2
14926KSTC STC20050721160509807/21/05 16:05:31  5-MIN KSTC 212205Z AUTO VRB05KT 10SM CLR 30/12 A3004 920 33 2900 VRB/05 RMK AO2
14926KSTC STC20050721161009807/21/05 16:10:31  5-MIN KSTC 212210Z AUTO 34006KT 10SM CLR 30/13 A3004 910 34 2900 340/06 RMK AO2
14926KSTC STC20050721161509807/21/05 16:15:31  5-MIN KSTC 212215Z AUTO VRB04KT 10SM CLR 30/13 A3005 910 34 2900 VRB/04 RMK AO2
14926KSTC STC20050721162009807/21/05 16:20:31  5-MIN KSTC 212220Z AUTO 05003KT 10SM CLR 30/13 A3004 910 35 2900 050/03 RMK AO2
14926KSTC STC20050721162509807/21/05 16:25:31  5-MIN KSTC 212225Z AUTO 05006KT 10SM CLR 29/13 A3004 920 36 2800 050/06 RMK AO2
14926KSTC STC20050721163009807/21/05 16:30:31  5-MIN KSTC 212230Z AUTO 09005KT 10SM CLR 30/14 A3003 920 36 2900 090/05 RMK AO2
14926KSTC STC20050721163509807/21/05 16:35:31  5-MIN KSTC 212235Z AUTO 08004KT 10SM CLR 29/14 A3003 930 38 2800 070/04 RMK AO2
14926KSTC STC20050721164009807/21/05 16:40:31  5-MIN KSTC 212240Z AUTO 09005KT 10SM CLR 29/14 A3003 930 39 2800 080/05 RMK AO2
14926KSTC STC20050721164509807/21/05 16:45:31  5-MIN KSTC 212245Z AUTO 06004KT 10SM CLR 29/14 A3003 930 38 2800 060/04 RMK AO2
14926KSTC STC20050721165011507/21/05 16:50:31  5-MIN KSTC 212250Z AUTO 05004KT 10SM CLR 29/14 A3002 930 38 2800 050/04 RMK AO2 SLP168 T02940139
14926KSTC STC20050721165509807/21/05 16:55:31  5-MIN KSTC 212255Z AUTO 05005KT 10SM CLR 30/14 A3002 940 38 2900 050/05 RMK AO2
14926KSTC STC20050721170009807/21/05 17:00:31  5-MIN KSTC 212300Z AUTO 08005KT 10SM CLR 29/14 A3001 940 39 2800 080/05 RMK AO2
14926KSTC STC20050721170509807/21/05 17:05:31  5-MIN KSTC 212305Z AUTO 07004KT 10SM CLR 29/14 A3001 940 38 2800 070/04 RMK AO2
14926KSTC STC20050721171009807/21/05 17:10:31  5-MIN KSTC 212310Z AUTO 02005KT 10SM CLR 30/14 A3001 940 38 2900 020/05 RMK AO2
14926KSTC STC20050721171509807/21/05 17:15:31  5-MIN KSTC 212315Z AUTO 04004KT 10SM CLR 30/14 A3002 940 36 2900 040/04 RMK AO2
14926KSTC STC20050721172009807/21/05 17:20:31  5-MIN KSTC 212320Z AUTO 06003KT 10SM CLR 29/14 A3002 940 39 2800 060/03 RMK AO2
14926KSTC STC20050721172509807/21/05 17:25:31  5-MIN KSTC 212325Z AUTO 06005KT 10SM CLR 29/14 A3001 940 39 2800 060/05 RMK AO2
14926KSTC STC20050721173009807/21/05 17:30:31  5-MIN KSTC 212330Z AUTO 03003KT 10SM CLR 29/14 A3002 940 38 2800 030/03 RMK AO2
14926KSTC STC20050721173509807/21/05 17:35:31  5-MIN KSTC 212335Z AUTO VRB03KT 10SM CLR 29/14 A3001 940 38 2800 VRB/03 RMK AO2
14926KSTC STC20050721174009807/21/05 17:40:31  5-MIN KSTC 212340Z AUTO VRB03KT 10SM CLR 30/14 A3002 940 38 2900 VRB/03 RMK AO2
14926KSTC STC20050721174509807/21/05 17:45:31  5-MIN KSTC 212345Z AUTO 06003KT 10SM CLR 29/14 A3002 940 38 2800 060/03 RMK AO2
14926KSTC STC20050721175013307/21/05 17:50:31  5-MIN KSTC 212350Z AUTO 04004KT 10SM CLR 29/14 A3002 940 38 2800 040/04 RMK AO2 SLP166 T02940139 10306 20272 58007
14926KSTC STC20050721175509807/21/05 17:55:31  5-MIN KSTC 212355Z AUTO 00000KT 10SM CLR 29/14 A3001 940 38 2800 000/00 RMK AO2
14926KSTC STC20050721180009807/21/05 18:00:31  5-MIN KSTC 220000Z AUTO 08004KT 10SM CLR 29/14 A3001 940 39 2800 080/04 RMK AO2
14926KSTC STC20050721180509807/21/05 18:05:31  5-MIN KSTC 220005Z AUTO 05003KT 10SM CLR 29/14 A3001 940 40 2800 050/03 RMK AO2
14926KSTC STC20050721181009807/21/05 18:10:31  5-MIN KSTC 220010Z AUTO 05003KT 10SM CLR 29/15 A3002 940 42 2800 050/03 RMK AO2
14926KSTC STC20050721181509807/21/05 18:15:31  5-MIN KSTC 220015Z AUTO 07003KT 10SM CLR 29/16 A3002 940 44 2800 070/03 RMK AO2
14926KSTC STC20050721182009807/21/05 18:20:31  5-MIN KSTC 220020Z AUTO 06005KT 10SM CLR 29/16 A3002 940 44 2800 050/05 RMK AO2
14926KSTC STC20050721182509807/21/05 18:25:31  5-MIN KSTC 220025Z AUTO 08005KT 10SM CLR 28/15 A3001 940 43 2700 070/05 RMK AO2
14926KSTC STC20050721183009807/21/05 18:30:31  5-MIN KSTC 220030Z AUTO 10003KT 10SM CLR 28/16 A3001 940 45 2700 100/03 RMK AO2
14926KSTC STC20050721183509807/21/05 18:35:31  5-MIN KSTC 220035Z AUTO 00000KT 10SM CLR 28/16 A3001 940 45 2700 000/00 RMK AO2
14926KSTC STC20050721184009807/21/05 18:40:31  5-MIN KSTC 220040Z AUTO 00000KT 10SM CLR 28/16 A3001 940 47 2700 000/00 RMK AO2
14926KSTC STC20050721184509807/21/05 18:45:31  5-MIN KSTC 220045Z AUTO 00000KT 10SM CLR 28/16 A3002 940 47 2700 000/00 RMK AO2
14926KSTC STC20050721185011507/21/05 18:50:31  5-MIN KSTC 220050Z AUTO 00000KT 10SM CLR 28/16 A3002 940 48 2700 000/00 RMK AO2 SLP167 T02780161
14926KSTC STC20050721185509807/21/05 18:55:31  5-MIN KSTC 220055Z AUTO 00000KT 10SM CLR 28/17 A3001 940 50 2700 000/00 RMK AO2
14926KSTC STC20050721190009807/21/05 19:00:31  5-MIN KSTC 220100Z AUTO 00000KT 10SM CLR 28/16 A3001 940 48 2700 000/00 RMK AO2
14926KSTC STC20050721190509807/21/05 19:05:31  5-MIN KSTC 220105Z AUTO 00000KT 10SM CLR 28/16 A3001 940 48 2700 000/00 RMK AO2
14926KSTC STC20050721191009807/21/05 19:10:31  5-MIN KSTC 220110Z AUTO 00000KT 10SM CLR 27/17 A3001 940 52 2600 000/00 RMK AO2
14926KSTC STC20050721191509807/21/05 19:15:31  5-MIN KSTC 220115Z AUTO 00000KT 10SM CLR 27/17 A3001 940 54 2600 000/00 RMK AO2
14926KSTC STC20050721192009807/21/05 19:20:31  5-MIN KSTC 220120Z AUTO 00000KT 10SM CLR 27/17 A3002 940 55 2500 000/00 RMK AO2
14926KSTC STC20050721192509807/21/05 19:25:31  5-MIN KSTC 220125Z AUTO 00000KT 10SM CLR 26/17 A3002 940 57 2500 000/00 RMK AO2
14926KSTC STC20050721193009807/21/05 19:30:31  5-MIN KSTC 220130Z AUTO 00000KT 10SM CLR 26/17 A3002 940 57 2500 000/00 RMK AO2
14926KSTC STC20050721193509807/21/05 19:35:31  5-MIN KSTC 220135Z AUTO 00000KT 10SM CLR 26/18 A3002 940 61 2400 000/00 RMK AO2
14926KSTC STC20050721194009807/21/05 19:40:31  5-MIN KSTC 220140Z AUTO 00000KT 10SM CLR 25/18 A3002 940 64 2300 000/00 RMK AO2
14926KSTC STC20050721194509807/21/05 19:45:31  5-MIN KSTC 220145Z AUTO 00000KT 10SM CLR 25/18 A3002 930 64 2300 000/00 RMK AO2
14926KSTC STC20050721195011507/21/05 19:50:31  5-MIN KSTC 220150Z AUTO 00000KT 10SM CLR 24/18 A3002 940 66 2300 000/00 RMK AO2 SLP169 T02440178
14926KSTC STC20050721195509807/21/05 19:55:31  5-MIN KSTC 220155Z AUTO 00000KT 10SM CLR 24/18 A3002 930 68 2200 000/00 RMK AO2
14926KSTC STC20050721200009807/21/05 20:00:31  5-MIN KSTC 220200Z AUTO 00000KT 10SM CLR 24/18 A3002 930 68 2200 000/00 RMK AO2
14926KSTC STC20050721200509807/21/05 20:05:31  5-MIN KSTC 220205Z AUTO 00000KT 10SM CLR 23/18 A3003 930 70 2100 000/00 RMK AO2
14926KSTC STC20050721201009807/21/05 20:10:31  5-MIN KSTC 220210Z AUTO 00000KT 10SM CLR 23/18 A3003 920 73 2100 000/00 RMK AO2
14926KSTC STC20050721201509807/21/05 20:15:31  5-MIN KSTC 220215Z AUTO 00000KT 10SM CLR 23/18 A3004 920 73 2100 000/00 RMK AO2
14926KSTC STC20050721202009807/21/05 20:20:31  5-MIN KSTC 220220Z AUTO 00000KT 10SM CLR 22/18 A3004 920 75 2000 000/00 RMK AO2
14926KSTC STC20050721202509807/21/05 20:25:31  5-MIN KSTC 220225Z AUTO 00000KT 10SM CLR 22/18 A3004 920 75 2000 000/00 RMK AO2
14926KSTC STC20050721203009807/21/05 20:30:31  5-MIN KSTC 220230Z AUTO 00000KT 10SM CLR 22/18 A3004 910 75 2000 000/00 RMK AO2
14926KSTC STC20050721203509807/21/05 20:35:31  5-MIN KSTC 220235Z AUTO 00000KT 10SM CLR 22/18 A3005 910 75 2000 000/00 RMK AO2
14926KSTC STC20050721204009807/21/05 20:40:31  5-MIN KSTC 220240Z AUTO 00000KT 10SM CLR 22/18 A3005 910 78 1900 000/00 RMK AO2
14926KSTC STC20050721204509807/21/05 20:45:31  5-MIN KSTC 220245Z AUTO 00000KT 10SM CLR 22/18 A3005 910 81 1900 000/00 RMK AO2
14926KSTC STC20050721205012107/21/05 20:50:31  5-MIN KSTC 220250Z AUTO 00000KT 10SM CLR 22/18 A3005 910 81 1900 000/00 RMK AO2 SLP178 T02170183 58008
14926KSTC STC20050721205509807/21/05 20:55:31  5-MIN KSTC 220255Z AUTO 00000KT 10SM CLR 22/18 A3005 910 81 1900 000/00 RMK AO2
14926KSTC STC20050721210009807/21/05 21:00:31  5-MIN KSTC 220300Z AUTO 00000KT 10SM CLR 22/18 A3005 910 81 1900 000/00 RMK AO2
14926KSTC STC20050721210509807/21/05 21:05:31  5-MIN KSTC 220305Z AUTO 00000KT 10SM CLR 21/17 A3005 910 78 1900 000/00 RMK AO2
14926KSTC STC20050721211009807/21/05 21:10:31  5-MIN KSTC 220310Z AUTO 00000KT 10SM CLR 21/17 A3005 910 81 1800 000/00 RMK AO2
14926KSTC STC20050721211509807/21/05 21:15:31  5-MIN KSTC 220315Z AUTO 06003KT 10SM CLR 21/17 A3006 900 81 1800 060/03 RMK AO2
14926KSTC STC20050721212009807/21/05 21:20:31  5-MIN KSTC 220320Z AUTO 06003KT 10SM CLR 22/17 A3006 900 75 1900 050/03 RMK AO2
14926KSTC STC20050721212509807/21/05 21:25:31  5-MIN KSTC 220325Z AUTO 05003KT 10SM CLR 22/17 A3006 900 75 1900 040/03 RMK AO2
14926KSTC STC20050721213009807/21/05 21:30:31  5-MIN KSTC 220330Z AUTO 00000KT 10SM CLR 21/17 A3006 900 78 1900 000/00 RMK AO2
14926KSTC STC20050721213509807/21/05 21:35:31  5-MIN KSTC 220335Z AUTO 06003KT 10SM CLR 22/17 A3006 900 75 1900 060/03 RMK AO2
14926KSTC STC20050721214009807/21/05 21:40:31  5-MIN KSTC 220340Z AUTO 07003KT 10SM CLR 22/17 A3006 900 75 1900 070/03 RMK AO2
14926KSTC STC20050721214509807/21/05 21:45:31  5-MIN KSTC 220345Z AUTO 00000KT 10SM CLR 22/17 A3006 900 75 1900 000/00 RMK AO2
14926KSTC STC20050721215011507/21/05 21:50:31  5-MIN KSTC 220350Z AUTO 00000KT 10SM CLR 22/17 A3006 900 73 1900 000/00 RMK AO2 SLP182 T02170167
14926KSTC STC20050721215509807/21/05 21:55:31  5-MIN KSTC 220355Z AUTO 00000KT 10SM CLR 21/17 A3006 900 75 1900 000/00 RMK AO2
14926KSTC STC20050721220009807/21/05 22:00:31  5-MIN KSTC 220400Z AUTO 00000KT 10SM CLR 21/17 A3006 900 75 1900 000/00 RMK AO2
14926KSTC STC20050721220509807/21/05 22:05:31  5-MIN KSTC 220405Z AUTO 00000KT 10SM CLR 21/17 A3006 890 75 1900 000/00 RMK AO2
14926KSTC STC20050721221009807/21/05 22:10:31  5-MIN KSTC 220410Z AUTO 00000KT 10SM CLR 21/17 A3006 900 81 1800 000/00 RMK AO2
14926KSTC STC20050721221509807/21/05 22:15:31  5-MIN KSTC 220415Z AUTO 06003KT 10SM CLR 19/17 A3006 900 87 1700 050/03 RMK AO2
14926KSTC STC20050721222009807/21/05 22:20:31  5-MIN KSTC 220420Z AUTO 05003KT 10SM CLR 20/17 A3006 900 84 1700 050/03 RMK AO2
14926KSTC STC20050721222509807/21/05 22:25:31  5-MIN KSTC 220425Z AUTO 05003KT 10SM CLR 21/17 A3006 900 78 1800 050/03 RMK AO2
14926KSTC STC20050721223009807/21/05 22:30:31  5-MIN KSTC 220430Z AUTO 06003KT 10SM CLR 20/17 A3006 900 81 1700 060/03 RMK AO2
14926KSTC STC20050721223509807/21/05 22:35:31  5-MIN KSTC 220435Z AUTO 05003KT 10SM CLR 21/17 A3007 890 78 1800 050/03 RMK AO2
14926KSTC STC20050721224009807/21/05 22:40:31  5-MIN KSTC 220440Z AUTO 04003KT 10SM CLR 21/17 A3007 890 78 1800 040/03 RMK AO2
14926KSTC STC20050721224509807/21/05 22:45:31  5-MIN KSTC 220445Z AUTO 00000KT 10SM CLR 21/17 A3008 880 78 1800 000/00 RMK AO2
14926KSTC STC20050721225011507/21/05 22:50:31  5-MIN KSTC 220450Z AUTO 00000KT 10SM CLR 20/17 A3008 880 81 1700 000/00 RMK AO2 SLP189 T02000167
14926KSTC STC20050721225509807/21/05 22:55:31  5-MIN KSTC 220455Z AUTO 00000KT 10SM CLR 19/17 A3008 880 84 1600 000/00 RMK AO2
14926KSTC STC20050721230009807/21/05 23:00:31  5-MIN KSTC 220500Z AUTO 06003KT 10SM CLR 19/17 A3008 880 84 1600 060/03 RMK AO2
14926KSTC STC20050721230509807/21/05 23:05:31  5-MIN KSTC 220505Z AUTO 06004KT 10SM CLR 20/16 A3008 880 78 1700 050/04 RMK AO2
14926KSTC STC20050721231009807/21/05 23:10:31  5-MIN KSTC 220510Z AUTO 06004KT 10SM CLR 20/16 A3007 880 78 1700 060/04 RMK AO2
14926KSTC STC20050721231509807/21/05 23:15:31  5-MIN KSTC 220515Z AUTO 07003KT 10SM CLR 20/16 A3007 880 78 1700 060/03 RMK AO2
14926KSTC STC20050721232009807/21/05 23:20:31  5-MIN KSTC 220520Z AUTO 00000KT 10SM CLR 20/16 A3007 890 78 1700 000/00 RMK AO2
14926KSTC STC20050721232509807/21/05 23:25:31  5-MIN KSTC 220525Z AUTO 07004KT 10SM CLR 20/16 A3007 890 75 1700 070/04 RMK AO2
14926KSTC STC20050721233009807/21/05 23:30:31  5-MIN KSTC 220530Z AUTO 07003KT 10SM CLR 20/16 A3007 890 75 1700 070/03 RMK AO2
14926KSTC STC20050721233509807/21/05 23:35:31  5-MIN KSTC 220535Z AUTO 08003KT 10SM CLR 21/16 A3006 890 73 1800 080/03 RMK AO2
14926KSTC STC20050721234009807/21/05 23:40:31  5-MIN KSTC 220540Z AUTO 09005KT 10SM CLR 21/16 A3006 900 73 1800 090/05 RMK AO2
14926KSTC STC20050721234509807/21/05 23:45:31  5-MIN KSTC 220545Z AUTO 09005KT 10SM CLR 21/16 A3006 900 73 1800 080/05 RMK AO2
14926KSTC STC20050721235014307/21/05 23:50:31  5-MIN KSTC 220550Z AUTO 10005KT 10SM CLR 21/16 A3005 900 73 1800 100/05 RMK AO2 SLP179 T02060156 10294 20189 403060183 53011
14926KSTC STC20050721235509807/21/05 23:55:31  5-MIN KSTC 220555Z AUTO 09005KT 10SM CLR 21/16 A3005 900 70 1900 090/05 RMK AO2
14926KSTC STC20050722000009807/22/05 00:00:32  5-MIN KSTC 220600Z AUTO 09004KT 10SM CLR 21/16 A3005 900 73 1800 090/04 RMK AO2
14926KSTC STC20050722000509807/22/05 00:05:31  5-MIN KSTC 220605Z AUTO 11004KT 10SM CLR 21/16 A3005 900 73 1800 110/04 RMK AO2
14926KSTC STC20050722001009807/22/05 00:10:31  5-MIN KSTC 220610Z AUTO 10006KT 10SM CLR 21/16 A3005 910 70 1900 100/06 RMK AO2
14926KSTC STC20050722001509807/22/05 00:15:31  5-MIN KSTC 220615Z AUTO 10005KT 10SM CLR 21/16 A3005 910 73 1800 090/05 RMK AO2
14926KSTC STC20050722002009807/22/05 00:20:31  5-MIN KSTC 220620Z AUTO 10005KT 10SM CLR 21/16 A3005 910 73 1800 090/05 RMK AO2
14926KSTC STC20050722002509807/22/05 00:25:31  5-MIN KSTC 220625Z AUTO 10005KT 10SM CLR 21/16 A3005 910 73 1800 100/05 RMK AO2
14926KSTC STC20050722003009807/22/05 00:30:31  5-MIN KSTC 220630Z AUTO 11005KT 10SM CLR 21/16 A3005 900 73 1800 100/05 RMK AO2
14926KSTC STC20050722003509807/22/05 00:35:31  5-MIN KSTC 220635Z AUTO 10005KT 10SM CLR 21/16 A3005 900 73 1800 090/05 RMK AO2
14926KSTC STC20050722004009807/22/05 00:40:31  5-MIN KSTC 220640Z AUTO 09004KT 10SM CLR 20/16 A3005 900 75 1700 080/04 RMK AO2
14926KSTC STC20050722004509807/22/05 00:45:31  5-MIN KSTC 220645Z AUTO 07005KT 10SM CLR 20/16 A3005 900 75 1700 070/05 RMK AO2
14926KSTC STC20050722005011507/22/05 00:50:31  5-MIN KSTC 220650Z AUTO 09003KT 10SM CLR 20/16 A3006 900 75 1700 080/03 RMK AO2 SLP180 T02000156
14926KSTC STC20050722005509807/22/05 00:55:31  5-MIN KSTC 220655Z AUTO 09003KT 10SM CLR 20/16 A3005 900 75 1700 080/03 RMK AO2
14926KSTC STC20050722010009807/22/05 01:00:31  5-MIN KSTC 220700Z AUTO 08004KT 10SM CLR 19/16 A3006 900 78 1700 070/04 RMK AO2
14926KSTC STC20050722010509807/22/05 01:05:31  5-MIN KSTC 220705Z AUTO 08003KT 10SM CLR 19/16 A3005 900 78 1700 080/03 RMK AO2
14926KSTC STC20050722011009807/22/05 01:10:31  5-MIN KSTC 220710Z AUTO 09005KT 10SM CLR 19/16 A3005 910 78 1700 080/05 RMK AO2
14926KSTC STC20050722011509807/22/05 01:15:31  5-MIN KSTC 220715Z AUTO 08005KT 10SM CLR 19/16 A3005 910 78 1700 080/05 RMK AO2
14926KSTC STC20050722012009807/22/05 01:20:31  5-MIN KSTC 220720Z AUTO 08006KT 10SM CLR 19/16 A3005 910 78 1700 080/06 RMK AO2
14926KSTC STC20050722012509807/22/05 01:25:31  5-MIN KSTC 220725Z AUTO 07004KT 10SM CLR 19/16 A3005 900 78 1700 070/04 RMK AO2
14926KSTC STC20050722013009807/22/05 01:30:31  5-MIN KSTC 220730Z AUTO 07004KT 10SM CLR 19/16 A3006 900 78 1700 070/04 RMK AO2
14926KSTC STC20050722013509807/22/05 01:35:31  5-MIN KSTC 220735Z AUTO 08003KT 10SM CLR 19/16 A3005 900 78 1700 070/03 RMK AO2
14926KSTC STC20050722014009807/22/05 01:40:31  5-MIN KSTC 220740Z AUTO 07003KT 10SM CLR 19/16 A3006 900 81 1600 070/03 RMK AO2
14926KSTC STC20050722014509807/22/05 01:45:31  5-MIN KSTC 220745Z AUTO 00000KT 10SM CLR 19/16 A3006 900 81 1600 000/00 RMK AO2
14926KSTC STC20050722015011507/22/05 01:50:31  5-MIN KSTC 220750Z AUTO 00000KT 10SM CLR 19/16 A3006 890 81 1600 000/00 RMK AO2 SLP183 T01890156
14926KSTC STC20050722015509807/22/05 01:55:31  5-MIN KSTC 220755Z AUTO 08003KT 10SM CLR 19/16 A3006 890 81 1600 080/03 RMK AO2
14926KSTC STC20050722020009807/22/05 02:00:31  5-MIN KSTC 220800Z AUTO 00000KT 10SM CLR 18/16 A3006 890 84 1500 000/00 RMK AO2
14926KSTC STC20050722020509807/22/05 02:05:31  5-MIN KSTC 220805Z AUTO 07003KT 10SM CLR 18/16 A3006 890 84 1500 070/03 RMK AO2
14926KSTC STC20050722021009807/22/05 02:10:31  5-MIN KSTC 220810Z AUTO 05004KT 10SM CLR 18/16 A3007 890 87 1500 040/04 RMK AO2
14926KSTC STC20050722021509807/22/05 02:15:31  5-MIN KSTC 220815Z AUTO 05004KT 10SM CLR 18/16 A3007 890 84 1500 050/04 RMK AO2
14926KSTC STC20050722022009807/22/05 02:20:31  5-MIN KSTC 220820Z AUTO 07004KT 10SM CLR 18/16 A3007 890 84 1500 070/04 RMK AO2
14926KSTC STC20050722022509807/22/05 02:25:31  5-MIN KSTC 220825Z AUTO 08004KT 10SM CLR 18/16 A3007 890 84 1500 070/04 RMK AO2
14926KSTC STC20050722023009807/22/05 02:30:31  5-MIN KSTC 220830Z AUTO 07004KT 10SM CLR 18/16 A3007 890 84 1500 070/04 RMK AO2
14926KSTC STC20050722023509807/22/05 02:35:31  5-MIN KSTC 220835Z AUTO 07005KT 10SM CLR 18/16 A3007 890 84 1500 070/05 RMK AO2
14926KSTC STC20050722024009807/22/05 02:40:31  5-MIN KSTC 220840Z AUTO 07004KT 10SM CLR 18/16 A3007 890 84 1500 060/04 RMK AO2
14926KSTC STC20050722024509807/22/05 02:45:31  5-MIN KSTC 220845Z AUTO 06004KT 10SM CLR 18/16 A3008 880 84 1500 050/04 RMK AO2
14926KSTC STC20050722025012107/22/05 02:50:31  5-MIN KSTC 220850Z AUTO 06003KT 10SM CLR 18/15 A3008 880 81 1500 050/03 RMK AO2 SLP188 T01830150 50002
14926KSTC STC20050722025509807/22/05 02:55:31  5-MIN KSTC 220855Z AUTO 00000KT 10SM CLR 18/15 A3008 880 81 1500 000/00 RMK AO2
14926KSTC STC20050722030009807/22/05 03:00:31  5-MIN KSTC 220900Z AUTO 00000KT 10SM CLR 18/15 A3008 880 81 1500 000/00 RMK AO2
14926KSTC STC20050722030509807/22/05 03:05:31  5-MIN KSTC 220905Z AUTO 00000KT 10SM CLR 18/15 A3009 870 83 1400 000/00 RMK AO2
14926KSTC STC20050722031009807/22/05 03:10:31  5-MIN KSTC 220910Z AUTO 00000KT 10SM CLR 18/15 A3009 870 83 1400 000/00 RMK AO2
14926KSTC STC20050722031509807/22/05 03:15:31  5-MIN KSTC 220915Z AUTO 00000KT 10SM CLR 17/15 A3009 870 87 1400 000/00 RMK AO2
14926KSTC STC20050722032009807/22/05 03:20:31  5-MIN KSTC 220920Z AUTO 00000KT 10SM CLR 17/15 A3009 870 87 1400 000/00 RMK AO2
14926KSTC STC20050722032509807/22/05 03:25:31  5-MIN KSTC 220925Z AUTO 00000KT 10SM CLR 17/15 A3009 870 90 1300 000/00 RMK AO2
14926KSTC STC20050722033009807/22/05 03:30:31  5-MIN KSTC 220930Z AUTO 08003KT 10SM CLR 17/15 A3009 870 87 1400 080/03 RMK AO2
14926KSTC STC20050722033509807/22/05 03:35:31  5-MIN KSTC 220935Z AUTO 08003KT 10SM CLR 17/15 A3009 870 90 1300 070/03 RMK AO2
14926KSTC STC20050722034009807/22/05 03:40:31  5-MIN KSTC 220940Z AUTO 05003KT 10SM CLR 17/15 A3009 870 90 1300 050/03 RMK AO2
14926KSTC STC20050722034509807/22/05 03:45:31  5-MIN KSTC 220945Z AUTO 00000KT 10SM CLR 17/15 A3009 870 87 1400 000/00 RMK AO2
14926KSTC STC20050722035011507/22/05 03:50:31  5-MIN KSTC 220950Z AUTO 00000KT 10SM CLR 17/15 A3010 860 90 1300 000/00 RMK AO2 SLP196 T01670150
14926KSTC STC20050722035509807/22/05 03:55:31  5-MIN KSTC 220955Z AUTO 00000KT 10SM CLR 16/15 A3010 860 93 1200 000/00 RMK AO2
14926KSTC STC20050722040009807/22/05 04:00:31  5-MIN KSTC 221000Z AUTO 00000KT 10SM CLR 16/14 A3010 860 90 1200 000/00 RMK AO2
14926KSTC STC20050722040509807/22/05 04:05:31  5-MIN KSTC 221005Z AUTO 00000KT 10SM CLR 16/14 A3010 860 90 1200 000/00 RMK AO2
14926KSTC STC20050722041009807/22/05 04:10:31  5-MIN KSTC 221010Z AUTO 00000KT 10SM CLR 16/14 A3010 860 90 1200 000/00 RMK AO2
14926KSTC STC20050722041509807/22/05 04:15:31  5-MIN KSTC 221015Z AUTO 05004KT 10SM CLR 16/14 A3010 860 90 1200 040/04 RMK AO2
14926KSTC STC20050722042009807/22/05 04:20:31  5-MIN KSTC 221020Z AUTO 05004KT 10SM CLR 17/14 A3010 860 86 1300 040/04 RMK AO2
14926KSTC STC20050722042509807/22/05 04:25:31  5-MIN KSTC 221025Z AUTO 05004KT 10SM CLR 17/14 A3010 860 83 1400 040/04 RMK AO2
14926KSTC STC20050722043009807/22/05 04:30:31  5-MIN KSTC 221030Z AUTO 04004KT 10SM CLR 17/14 A3011 850 86 1300 040/04 RMK AO2
14926KSTC STC20050722043509807/22/05 04:35:31  5-MIN KSTC 221035Z AUTO 05003KT 10SM CLR 17/14 A3011 850 86 1300 050/03 RMK AO2
14926KSTC STC20050722044009807/22/05 04:40:31  5-MIN KSTC 221040Z AUTO 06003KT 10SM CLR 17/14 A3011 850 86 1300 060/03 RMK AO2
14926KSTC STC20050722044509807/22/05 04:45:31  5-MIN KSTC 221045Z AUTO 06003KT 10SM CLR 17/15 A3011 860 87 1400 060/03 RMK AO2
14926KSTC STC20050722045011507/22/05 04:50:31  5-MIN KSTC 221050Z AUTO 06003KT 10SM CLR 17/14 A3010 860 83 1400 060/03 RMK AO2 SLP198 T01720144
14926KSTC STC20050722045509807/22/05 04:55:31  5-MIN KSTC 221055Z AUTO 00000KT 10SM CLR 17/14 A3010 860 86 1300 000/00 RMK AO2
14926KSTC STC20050722050009807/22/05 05:00:31  5-MIN KSTC 221100Z AUTO 06003KT 10SM CLR 17/14 A3010 860 86 1300 060/03 RMK AO2
14926KSTC STC20050722050509807/22/05 05:05:31  5-MIN KSTC 221105Z AUTO 08003KT 10SM CLR 17/14 A3010 860 86 1300 070/03 RMK AO2
14926KSTC STC20050722051009807/22/05 05:10:31  5-MIN KSTC 221110Z AUTO 07004KT 10SM CLR 17/14 A3010 860 83 1400 070/04 RMK AO2
14926KSTC STC20050722051509807/22/05 05:15:31  5-MIN KSTC 221115Z AUTO 07005KT 10SM CLR 17/14 A3010 860 86 1300 070/05 RMK AO2
14926KSTC STC20050722052009807/22/05 05:20:31  5-MIN KSTC 221120Z AUTO 08005KT 10SM CLR 17/14 A3011 860 83 1400 070/05 RMK AO2
14926KSTC STC20050722052509807/22/05 05:25:31  5-MIN KSTC 221125Z AUTO 07005KT 10SM CLR 17/14 A3010 860 83 1400 070/05 RMK AO2
14926KSTC STC20050722223510807/22/05 22:35:31  5-MIN KSTC 230435Z AUTO 08006KT 10SM SCT046 BKN055 24/16 A3007 890 59 2200 080/06 RMK AO2
14926KSTC STC20050722224010807/22/05 22:40:31  5-MIN KSTC 230440Z AUTO 09006KT 10SM BKN046 BKN055 24/16 A3007 890 61 2200 080/06 RMK AO2
14926KSTC STC20050722224510807/22/05 22:45:31  5-MIN KSTC 230445Z AUTO 09005KT 10SM SCT046 BKN055 24/16 A3007 890 61 2200 090/05 RMK AO2
14926KSTC STC20050722225012507/22/05 22:50:31  5-MIN KSTC 230450Z AUTO 09007KT 10SM SCT046 SCT055 24/16 A3007 890 59 2200 090/07 RMK AO2 SLP182 T02390156
14926KSTC STC20050722225510807/22/05 22:55:31  5-MIN KSTC 230455Z AUTO 10007KT 10SM FEW046 SCT055 24/16 A3006 890 59 2200 090/07 RMK AO2
14926KSTC STC20050722230010107/22/05 23:00:31  5-MIN KSTC 230500Z AUTO 10006KT 10SM FEW046 24/16 A3006 900 59 2200 090/06 RMK AO2
14926KSTC STC20050722230510107/22/05 23:05:31  5-MIN KSTC 230505Z AUTO 09007KT 10SM FEW049 23/16 A3006 900 61 2100 090/07 RMK AO2
14926KSTC STC20050722231009807/22/05 23:10:31  5-MIN KSTC 230510Z AUTO 10007KT 10SM CLR 23/16 A3006 900 61 2100 090/07 RMK AO2
14926KSTC STC20050722231509807/22/05 23:15:31  5-MIN KSTC 230515Z AUTO 10006KT 10SM CLR 23/16 A3006 900 63 2100 100/06 RMK AO2
14926KSTC STC20050722232009807/22/05 23:20:31  5-MIN KSTC 230520Z AUTO 10006KT 10SM CLR 23/16 A3006 900 63 2100 090/06 RMK AO2
14926KSTC STC20050722232509807/22/05 23:25:31  5-MIN KSTC 230525Z AUTO 09006KT 10SM CLR 23/16 A3006 900 63 2100 090/06 RMK AO2
14926KSTC STC20050722233009807/22/05 23:30:31  5-MIN KSTC 230530Z AUTO 09006KT 10SM CLR 23/16 A3006 900 63 2100 090/06 RMK AO2
14926KSTC STC20050722233510107/22/05 23:35:31  5-MIN KSTC 230535Z AUTO 09006KT 10SM FEW038 23/16 A3006 900 63 2100 090/06 RMK AO2
14926KSTC STC20050722234010807/22/05 23:40:31  5-MIN KSTC 230540Z AUTO 10006KT 10SM SCT036 SCT045 23/16 A3006 900 63 2100 090/06 RMK AO2
14926KSTC STC20050722234510807/22/05 23:45:31  5-MIN KSTC 230545Z AUTO 10006KT 10SM SCT036 SCT045 23/16 A3006 900 63 2100 100/06 RMK AO2
14926KSTC STC20050722235015307/22/05 23:50:31  5-MIN KSTC 230550Z AUTO 10006KT 10SM SCT036 SCT045 23/16 A3006 900 63 2100 100/06 RMK AO2 SLP179 T02330161 10289 20233 403110161 58003
14926KSTC STC20050722235510107/22/05 23:55:31  5-MIN KSTC 230555Z AUTO 09005KT 10SM SCT036 23/16 A3006 900 63 2100 090/05 RMK AO2
14926KSTC STC20050723000010107/23/05 00:00:32  5-MIN KSTC 230600Z AUTO 09006KT 10SM SCT036 23/16 A3006 900 63 2100 080/06 RMK AO2
14926KSTC STC20050723000510107/23/05 00:05:31  5-MIN KSTC 230605Z AUTO 08005KT 10SM FEW036 23/16 A3006 900 65 2100 080/05 RMK AO2
14926KSTC STC20050723001010107/23/05 00:10:31  5-MIN KSTC 230610Z AUTO 09005KT 10SM FEW036 23/16 A3005 900 65 2100 080/05 RMK AO2
14926KSTC STC20050723001509807/23/05 00:15:31  5-MIN KSTC 230615Z AUTO 09005KT 10SM CLR 23/16 A3005 900 65 2100 090/05 RMK AO2
14926KSTC STC20050723002009807/23/05 00:20:31  5-MIN KSTC 230620Z AUTO 10005KT 10SM CLR 23/16 A3005 900 65 2100 100/05 RMK AO2
14926KSTC STC20050723002509807/23/05 00:25:31  5-MIN KSTC 230625Z AUTO 09006KT 10SM CLR 23/16 A3006 900 65 2000 090/06 RMK AO2
14926KSTC STC20050723003009807/23/05 00:30:31  5-MIN KSTC 230630Z AUTO 10005KT 10SM CLR 23/16 A3006 900 65 2000 090/05 RMK AO2
14926KSTC STC20050723003509807/23/05 00:35:31  5-MIN KSTC 230635Z AUTO 09005KT 10SM CLR 23/16 A3006 900 65 2100 090/05 RMK AO2
14926KSTC STC20050723004009807/23/05 00:40:31  5-MIN KSTC 230640Z AUTO 10006KT 10SM CLR 23/16 A3005 910 65 2100 100/06 RMK AO2
14926KSTC STC20050723004509807/23/05 00:45:31  5-MIN KSTC 230645Z AUTO 10006KT 10SM CLR 23/16 A3004 910 65 2100 100/06 RMK AO2
14926KSTC STC20050723005011507/23/05 00:50:31  5-MIN KSTC 230650Z AUTO 10005KT 10SM CLR 23/16 A3005 910 65 2100 090/05 RMK AO2 SLP175 T02280161
14926KSTC STC20050723005509807/23/05 00:55:31  5-MIN KSTC 230655Z AUTO 10006KT 10SM CLR 23/16 A3005 910 65 2100 100/06 RMK AO2
14926KSTC STC20050723010009807/23/05 01:00:31  5-MIN KSTC 230700Z AUTO 10005KT 10SM CLR 23/16 A3005 910 65 2100 090/05 RMK AO2
14926KSTC STC20050723010509807/23/05 01:05:31  5-MIN KSTC 230705Z AUTO 10005KT 10SM CLR 23/16 A3005 900 65 2100 090/05 RMK AO2
14926KSTC STC20050723011009807/23/05 01:10:31  5-MIN KSTC 230710Z AUTO 10006KT 10SM CLR 23/16 A3005 900 65 2100 100/06 RMK AO2
14926KSTC STC20050723011509807/23/05 01:15:31  5-MIN KSTC 230715Z AUTO 09005KT 10SM CLR 23/16 A3005 910 65 2100 090/05 RMK AO2
14926KSTC STC20050723012009807/23/05 01:20:31  5-MIN KSTC 230720Z AUTO 09007KT 10SM CLR 23/16 A3005 910 65 2100 080/07 RMK AO2
14926KSTC STC20050723012509807/23/05 01:25:31  5-MIN KSTC 230725Z AUTO 08006KT 10SM CLR 23/16 A3005 910 65 2100 080/06 RMK AO2
14926KSTC STC20050723013009807/23/05 01:30:31  5-MIN KSTC 230730Z AUTO 09007KT 10SM CLR 23/16 A3005 910 65 2100 080/07 RMK AO2
14926KSTC STC20050723013509807/23/05 01:35:31  5-MIN KSTC 230735Z AUTO 09005KT 10SM CLR 23/16 A3005 910 65 2100 090/05 RMK AO2
14926KSTC STC20050723014009807/23/05 01:40:31  5-MIN KSTC 230740Z AUTO 10006KT 10SM CLR 23/16 A3004 910 65 2100 090/06 RMK AO2
14926KSTC STC20050723014509807/23/05 01:45:31  5-MIN KSTC 230745Z AUTO 10005KT 10SM CLR 23/16 A3004 920 65 2100 100/05 RMK AO2
14926KSTC STC20050723015011507/23/05 01:50:31  5-MIN KSTC 230750Z AUTO 10006KT 10SM CLR 23/16 A3004 920 65 2100 100/06 RMK AO2 SLP172 T02280161
14926KSTC STC20050723015509807/23/05 01:55:31  5-MIN KSTC 230755Z AUTO 10005KT 10SM CLR 23/16 A3004 920 65 2100 100/05 RMK AO2
14926KSTC STC20050723020009807/23/05 02:00:31  5-MIN KSTC 230800Z AUTO 10006KT 10SM CLR 23/16 A3004 920 65 2100 100/06 RMK AO2
14926KSTC STC20050723020509807/23/05 02:05:31  5-MIN KSTC 230805Z AUTO 10004KT 10SM CLR 23/16 A3004 920 65 2100 100/04 RMK AO2
14926KSTC STC20050723021009807/23/05 02:10:31  5-MIN KSTC 230810Z AUTO 10005KT 10SM CLR 23/16 A3003 920 65 2100 100/05 RMK AO2
14926KSTC STC20050723021509807/23/05 02:15:31  5-MIN KSTC 230815Z AUTO 10004KT 10SM CLR 23/16 A3004 920 65 2100 090/04 RMK AO2
14926KSTC STC20050723022009807/23/05 02:20:31  5-MIN KSTC 230820Z AUTO 10004KT 10SM CLR 22/16 A3003 920 68 2000 090/04 RMK AO2
14926KSTC STC20050723022509807/23/05 02:25:31  5-MIN KSTC 230825Z AUTO 11005KT 10SM CLR 22/17 A3003 930 70 2000 110/05 RMK AO2
14926KSTC STC20050723023009807/23/05 02:30:31  5-MIN KSTC 230830Z AUTO 10005KT 10SM CLR 22/17 A3003 930 70 2000 100/05 RMK AO2
14926KSTC STC20050723023509807/23/05 02:35:31  5-MIN KSTC 230835Z AUTO 10005KT 10SM CLR 22/17 A3002 930 70 2000 100/05 RMK AO2
14926KSTC STC20050723024009807/23/05 02:40:31  5-MIN KSTC 230840Z AUTO 10005KT 10SM CLR 22/17 A3002 930 70 2000 100/05 RMK AO2
14926KSTC STC20050723024509807/23/05 02:45:31  5-MIN KSTC 230845Z AUTO 09005KT 10SM CLR 22/17 A3002 940 70 2000 090/05 RMK AO2
14926KSTC STC20050723025012107/23/05 02:50:31  5-MIN KSTC 230850Z AUTO 09004KT 10SM CLR 22/17 A3002 940 70 2000 090/04 RMK AO2 SLP166 T02220167 50001
14926KSTC STC20050723025509807/23/05 02:55:31  5-MIN KSTC 230855Z AUTO 08005KT 10SM CLR 22/17 A3002 930 70 2000 080/05 RMK AO2
14926KSTC STC20050723030009807/23/05 03:00:31  5-MIN KSTC 230900Z AUTO 08004KT 10SM CLR 22/17 A3002 930 70 2000 070/04 RMK AO2
14926KSTC STC20050723030509807/23/05 03:05:31  5-MIN KSTC 230905Z AUTO 08005KT 10SM CLR 22/17 A3002 930 70 2000 070/05 RMK AO2
14926KSTC STC20050723031009807/23/05 03:10:31  5-MIN KSTC 230910Z AUTO 07005KT 10SM CLR 22/17 A3002 940 70 2000 070/05 RMK AO2
14926KSTC STC20050723031509807/23/05 03:15:31  5-MIN KSTC 230915Z AUTO 07005KT 10SM CLR 22/17 A3002 940 73 2000 070/05 RMK AO2
14926KSTC STC20050723032009807/23/05 03:20:31  5-MIN KSTC 230920Z AUTO 07005KT 10SM CLR 22/17 A3002 940 73 2000 060/05 RMK AO2
14926KSTC STC20050723032509807/23/05 03:25:31  5-MIN KSTC 230925Z AUTO 07005KT 10SM CLR 22/17 A3002 940 73 2000 070/05 RMK AO2
14926KSTC STC20050723033009807/23/05 03:30:31  5-MIN KSTC 230930Z AUTO 08006KT 10SM CLR 22/17 A3002 940 73 2000 080/06 RMK AO2
14926KSTC STC20050723033509807/23/05 03:35:31  5-MIN KSTC 230935Z AUTO 07006KT 10SM CLR 22/17 A3002 940 73 2000 070/06 RMK AO2
14926KSTC STC20050723034009807/23/05 03:40:31  5-MIN KSTC 230940Z AUTO 08006KT 10SM CLR 22/17 A3001 940 73 2000 080/06 RMK AO2
14926KSTC STC20050723034509807/23/05 03:45:31  5-MIN KSTC 230945Z AUTO 08005KT 10SM CLR 22/17 A3002 940 73 2000 080/05 RMK AO2
14926KSTC STC20050723035011507/23/05 03:50:31  5-MIN KSTC 230950Z AUTO 07005KT 10SM CLR 22/17 A3002 940 73 2000 070/05 RMK AO2 SLP166 T02170167
14926KSTC STC20050723035509807/23/05 03:55:31  5-MIN KSTC 230955Z AUTO 07006KT 10SM CLR 22/17 A3002 940 73 2000 070/06 RMK AO2
14926KSTC STC20050723040009807/23/05 04:00:31  5-MIN KSTC 231000Z AUTO 08006KT 10SM CLR 22/17 A3001 940 73 2000 080/06 RMK AO2
14926KSTC STC20050723040509807/23/05 04:05:31  5-MIN KSTC 231005Z AUTO 09006KT 10SM CLR 22/17 A3001 940 73 2000 080/06 RMK AO2
14926KSTC STC20050723041009807/23/05 04:10:31  5-MIN KSTC 231010Z AUTO 10007KT 10SM CLR 22/17 A3000 950 73 2000 090/07 RMK AO2
14926KSTC STC20050723041509807/23/05 04:15:31  5-MIN KSTC 231015Z AUTO 09007KT 10SM CLR 22/17 A3000 950 75 2000 090/07 RMK AO2
14926KSTC STC20050723042009807/23/05 04:20:31  5-MIN KSTC 231020Z AUTO 09008KT 10SM CLR 22/17 A3000 950 75 2000 090/08 RMK AO2
14926KSTC STC20050723042509807/23/05 04:25:31  5-MIN KSTC 231025Z AUTO 09007KT 10SM CLR 22/17 A3001 950 75 2000 080/07 RMK AO2
14926KSTC STC20050723043009807/23/05 04:30:31  5-MIN KSTC 231030Z AUTO 08006KT 10SM CLR 22/17 A3001 950 75 2000 080/06 RMK AO2
14926KSTC STC20050723043509807/23/05 04:35:31  5-MIN KSTC 231035Z AUTO 08007KT 10SM CLR 22/17 A3001 950 75 2000 080/07 RMK AO2
14926KSTC STC20050723044009807/23/05 04:40:31  5-MIN KSTC 231040Z AUTO 08007KT 10SM CLR 22/17 A3000 950 75 2000 080/07 RMK AO2
14926KSTC STC20050723044509807/23/05 04:45:31  5-MIN KSTC 231045Z AUTO 08007KT 10SM CLR 22/17 A3000 950 75 2000 080/07 RMK AO2
14926KSTC STC20050723045011507/23/05 04:50:31  5-MIN KSTC 231050Z AUTO 09006KT 10SM CLR 22/17 A3000 950 75 2000 090/06 RMK AO2 SLP159 T02170172
14926KSTC STC20050723045509807/23/05 04:55:31  5-MIN KSTC 231055Z AUTO 10006KT 10SM CLR 22/17 A2999 960 75 2000 090/06 RMK AO2
14926KSTC STC20050723050009807/23/05 05:00:31  5-MIN KSTC 231100Z AUTO 09006KT 10SM CLR 22/17 A2999 960 75 2000 090/06 RMK AO2
14926KSTC STC20050723050509807/23/05 05:05:31  5-MIN KSTC 231105Z AUTO 09006KT 10SM CLR 22/17 A2999 960 75 2000 090/06 RMK AO2
14926KSTC STC20050723051010107/23/05 05:10:31  5-MIN KSTC 231110Z AUTO 10007KT 10SM FEW040 22/17 A2998 970 75 2000 100/07 RMK AO2
14926KSTC STC20050723051510107/23/05 05:15:31  5-MIN KSTC 231115Z AUTO 10008KT 10SM FEW040 22/17 A2997 980 75 2000 100/08 RMK AO2
14926KSTC STC20050723052010107/23/05 05:20:31  5-MIN KSTC 231120Z AUTO 09006KT 10SM FEW040 22/17 A2998 980 75 2000 090/06 RMK AO2
14926KSTC STC20050723052510107/23/05 05:25:31  5-MIN KSTC 231125Z AUTO 09007KT 10SM SCT040 22/17 A2998 970 75 2000 080/07 RMK AO2
14926KSTC STC20050723053010107/23/05 05:30:31  5-MIN KSTC 231130Z AUTO 08007KT 10SM SCT040 22/18 A2998 970 75 2100 080/07 RMK AO2
14926KSTC STC20050723053510107/23/05 05:35:31  5-MIN KSTC 231135Z AUTO 08008KT 10SM SCT040 22/18 A2997 980 75 2100 080/08 RMK AO2
14926KSTC STC20050723054010107/23/05 05:40:31  5-MIN KSTC 231140Z AUTO 08008KT 10SM SCT040 22/18 A2997 980 78 2000 070/08 RMK AO2
14926KSTC STC20050723054509607/23/05 05:45:31  5-MIN KSTC 231145Z 08007KT 10SM FEW040 22/18 A2997 980 75 2100 070/07 RMK AO2
14926KSTC STC20050723055013107/23/05 05:50:31  5-MIN KSTC 231150Z 07007KT 10SM FEW040 22/18 A2997 980 75 2100 060/07 RMK AO2 SLP151 T02220178 10233 20217 58011
14926KSTC STC20050723055509607/23/05 05:55:31  5-MIN KSTC 231155Z 08006KT 10SM FEW040 22/18 A2998 970 75 2100 080/06 RMK AO2
14926KSTC STC20050723060009607/23/05 06:00:31  5-MIN KSTC 231200Z 07007KT 10SM FEW040 22/18 A2998 970 75 2100 070/07 RMK AO2
14926KSTC STC20050723060509307/23/05 06:05:31  5-MIN KSTC 231205Z 08007KT 10SM CLR 22/18 A2997 980 75 2100 080/07 RMK AO2
14926KSTC STC20050723061009307/23/05 06:10:31  5-MIN KSTC 231210Z 08007KT 10SM CLR 22/18 A2997 980 75 2100 080/07 RMK AO2
14926KSTC STC20050723061509307/23/05 06:15:31  5-MIN KSTC 231215Z 08007KT 10SM CLR 22/18 A2996 990 75 2100 080/07 RMK AO2
14926KSTC STC20050723062009307/23/05 06:20:31  5-MIN KSTC 231220Z 09007KT 10SM CLR 22/18 A2996 990 75 2100 080/07 RMK AO2
14926KSTC STC20050723062509307/23/05 06:25:31  5-MIN KSTC 231225Z 08007KT 10SM CLR 23/18 A2996 990 73 2200 080/07 RMK AO2
14926KSTC STC20050723063009307/23/05 06:30:31  5-MIN KSTC 231230Z 08008KT 10SM CLR 23/18 A2996 990 73 2200 080/08 RMK AO2
14926KSTC STC20050723063509407/23/05 06:35:31  5-MIN KSTC 231235Z 08008KT 10SM CLR 23/18 A2995 1000 73 2200 080/08 RMK AO2
14926KSTC STC20050723064009407/23/05 06:40:31  5-MIN KSTC 231240Z 08009KT 10SM CLR 23/18 A2995 1000 73 2200 080/09 RMK AO2
14926KSTC STC20050723064509307/23/05 06:45:31  5-MIN KSTC 231245Z 09008KT 10SM CLR 23/18 A2996 990 73 2200 080/08 RMK AO2
14926KSTC STC20050723065011007/23/05 06:50:31  5-MIN KSTC 231250Z 09007KT 10SM CLR 23/18 A2996 990 73 2200 090/07 RMK AO2 SLP148 T02280178
14926KSTC STC20050723065509307/23/05 06:55:31  5-MIN KSTC 231255Z 08005KT 10SM CLR 23/18 A2997 980 73 2100 080/05 RMK AO2
14926KSTC STC20050723070009307/23/05 07:00:31  5-MIN KSTC 231300Z 09007KT 10SM CLR 23/18 A2997 980 73 2100 080/07 RMK AO2
14926KSTC STC20050723070509307/23/05 07:05:31  5-MIN KSTC 231305Z 09005KT 10SM CLR 23/18 A2997 980 73 2100 080/05 RMK AO2
14926KSTC STC20050723071009307/23/05 07:10:31  5-MIN KSTC 231310Z 09008KT 10SM CLR 23/18 A2996 990 73 2200 080/08 RMK AO2
14926KSTC STC20050723071509307/23/05 07:15:31  5-MIN KSTC 231315Z 09006KT 10SM CLR 23/18 A2996 990 76 2200 090/06 RMK AO2
14926KSTC STC20050723072009607/23/05 07:20:31  5-MIN KSTC 231320Z 10006KT 10SM FEW080 23/18 A2996 990 76 2200 090/06 RMK AO2
14926KSTC STC20050723072509607/23/05 07:25:31  5-MIN KSTC 231325Z 10006KT 10SM FEW075 23/18 A2997 980 76 2100 090/06 RMK AO2
14926KSTC STC20050723073009607/23/05 07:30:31  5-MIN KSTC 231330Z 10005KT 10SM SCT080 23/18 A2997 980 76 2100 090/05 RMK AO2
14926KSTC STC20050723073509607/23/05 07:35:31  5-MIN KSTC 231335Z 09005KT 10SM SCT080 23/18 A2997 980 76 2100 090/05 RMK AO2
14926KSTC STC20050723074009607/23/05 07:40:31  5-MIN KSTC 231340Z 10006KT 10SM SCT080 23/18 A2997 980 73 2200 100/06 RMK AO2
14926KSTC STC20050723074509607/23/05 07:45:31  5-MIN KSTC 231345Z 09006KT 10SM SCT080 23/18 A2997 980 76 2100 090/06 RMK AO2
14926KSTC STC20050723075011307/23/05 07:50:31  5-MIN KSTC 231350Z 09005KT 10SM FEW080 23/18 A2997 980 76 2200 090/05 RMK AO2 SLP149 T02280183
14926KSTC STC20050723075509607/23/05 07:55:31  5-MIN KSTC 231355Z 09006KT 10SM FEW080 23/19 A2997 980 78 2200 080/06 RMK AO2
14926KSTC STC20050723080009607/23/05 08:00:31  5-MIN KSTC 231400Z 08006KT 10SM FEW075 23/19 A2996 990 78 2200 070/06 RMK AO2
14926KSTC STC20050723080509607/23/05 08:05:31  5-MIN KSTC 231405Z 08005KT 10SM FEW075 23/19 A2996 990 76 2200 080/05 RMK AO2
14926KSTC STC20050723081009307/23/05 08:10:31  5-MIN KSTC 231410Z 09005KT 10SM CLR 23/19 A2996 990 76 2200 090/05 RMK AO2
14926KSTC STC20050723081509307/23/05 08:15:31  5-MIN KSTC 231415Z 09005KT 10SM CLR 23/19 A2996 990 76 2200 090/05 RMK AO2
14926KSTC STC20050723082009707/23/05 08:20:31  5-MIN KSTC 231420Z 09007KT 10SM FEW100 23/19 A2995 1000 76 2200 090/07 RMK AO2
14926KSTC STC20050723082509707/23/05 08:25:31  5-MIN KSTC 231425Z 10004KT 10SM FEW075 23/19 A2995 1000 78 2200 090/04 RMK AO2
14926KSTC STC20050723083011307/23/05 08:30:31  5-MIN KSTC 231430Z 10007KT 10SM -RA SCT075 23/19 A2994 1010 81 2200 100/07 RMK AO2 RAB27 P0000
14926KSTC STC20050723083513407/23/05 08:35:31  5-MIN KSTC 231435Z 11006KT 10SM -RA FEW037 SCT075 SCT100 23/19 A2993 1020 81 2200 110/06 RMK AO2 RAB27 PRESFR P0000
14926KSTC STC20050723084013407/23/05 08:40:31  5-MIN KSTC 231440Z 13007KT 10SM -TSRA SCT028 SCT075 BKN100 23/19 A2994 1010 81 2200 130/07 RMK AO2 TSB38RAB27 P0000
14926KSTC STC20050723084516607/23/05 08:45:31  5-MIN KSTC 231445Z 26031G41KT 9SM -TSRA SQ FEW026 SCT040 BKN075 23/20 A3007 880 84 2000 260/31G41 RMK AO2 PK WND 26041/1445 TSB38RAB27 PRESRR P0000
14926KSTC STC20050723085019107/23/05 08:50:31  5-MIN KSTC 231450Z 25028G46KT 1SM +TSRA BR SQ SCT015 BKN038 OVC095 21/18 A3005 910 87 1800 250/28G46 RMK AO2 PK WND 25046/1448 TSB38RAB27 SLP180 P0000 60000 T02060183 58015
14926KSTC STC20050723085513207/23/05 08:55:31  5-MIN KSTC 231455Z 25020G46KT 1/2SM +TSRA FG BKN009 BKN036 OVC075 19/18 A3004 920 93 1600 250/20G46 RMK AO2 P0009
14926KSTC STC20050723090014307/23/05 09:00:31  5-MIN KSTC 231500Z 28014G32KT 1/2SM +TSRA FG BKN007 BKN027 OVC060 18/18 A3002 940 96 1600 270/14G32 RMK AO2 WSHFT 1444 P0047
14926KSTC STC20050723090514107/23/05 09:05:31  5-MIN KSTC 231505Z 29017G21KT 1SM +TSRA BR BKN007 BKN025 OVC040 19/18 A3003 930 97 1600 280/17G21 RMK AO2 WSHFT 1444 P0057
14926KSTC STC20050723091013207/23/05 09:10:31  5-MIN KSTC 231510Z 29019KT 1 1/4SM +TSRA BR SCT005 OVC023 19/18 A3001 940 93 1700 290/19 RMK AO2 WSHFT 1444 P0064
14926KSTC STC20050723091513807/23/05 09:15:31  5-MIN KSTC 231515Z 30014G22KT 1 1/2SM +TSRA BR BKN007 OVC018 19/18 A3001 950 97 1700 290/14G22 RMK AO2 WSHFT 1444 P0072
14926KSTC STC20050723092013807/23/05 09:20:31  5-MIN KSTC 231520Z 30013KT 2 1/2SM TSRA BR BKN009 BKN018 OVC027 19/18 A3003 930 97 1600 300/13 RMK AO2 WSHFT 1444 P0074
14926KSTC STC20050723092514007/23/05 09:25:31  5-MIN KSTC 231525Z 32011G19KT 3SM TSRA BR BKN014 BKN020 OVC027 19/18 A3003 920 97 1600 320/11G19 RMK AO2 WSHFT 1444 P0076
14926KSTC STC20050723093013907/23/05 09:30:31  5-MIN KSTC 231530Z 35009KT 2 1/2SM +TSRA BR BKN016 BKN020 OVC027 19/18 A3002 930 97 1600 350/09 RMK AO2 WSHFT 1444 P0081
14926KSTC STC20050723093513307/23/05 09:35:31  5-MIN KSTC 231535Z 36013G17KT 3SM TSRA BR FEW011 OVC028 19/18 A2999 960 93 1700 360/13G17 RMK AO2 WSHFT 1444 P0083
14926KSTC STC20050723094013107/23/05 09:40:31  5-MIN KSTC 231540Z 01014G20KT 8SM -TSRA FEW011 OVC042 19/18 A2997 980 93 1800 010/14G20 RMK AO2 WSHFT 1444 P0083
14926KSTC STC20050723094513307/23/05 09:45:31  5-MIN KSTC 231545Z 01013G20KT 10SM -TSRA FEW011 OVC055 19/18 A2995 1000 93 1800 010/13G20 RMK AO2 WSHFT 1444 P0083
14926KSTC STC20050723095015007/23/05 09:50:31  5-MIN KSTC 231550Z 02011G20KT 10SM -TSRA FEW011 OVC060 20/18 A2994 1000 90 1900 020/11G20 RMK AO2 WSHFT 1444 SLP143 P0083 T02000183
14926KSTC STC20050723095512207/23/05 09:55:31  5-MIN KSTC 231555Z 03012G19KT 10SM -TSRA OVC060 20/18 A2994 1010 90 1900 020/12G19 RMK AO2 PRESFR P0000
14926KSTC STC20050723100011707/23/05 10:00:31  5-MIN KSTC 231600Z 03013G19KT 10SM -TSRA OVC065 20/18 A2993 1010 90 1900 030/13G19 RMK AO2 P0000 $
14926KSTC STC20050723100510207/23/05 10:05:31  5-MIN KSTC 231605Z 20/18 A2992 1020 90 1900 M /M RMK AO2 RAEMM PRESFR P0000 PWINO $
14926KSTC STC20050723101010207/23/05 10:10:31  5-MIN KSTC 231610Z 20/18 A2991 1030 90 1900 M /M RMK AO2 RAEMM PRESFR P0000 PWINO $
14926KSTC STC20050723101510207/23/05 10:15:31  5-MIN KSTC 231615Z 20/18 A2990 1050 90 1900 M /M RMK AO2 RAEMM PRESFR P0000 PWINO $
14926KSTC STC20050723102008907/23/05 10:20:31  5-MIN KSTC 231620Z A2989 M M M M /M RMK AO2 RAEMM P0000 PWINO FZRANO $
14926KSTC STC20050723102509607/23/05 10:25:31  5-MIN KSTC 231625Z A2988 M M M M /M RMK AO2 RAEMM PRESFR P0000 PWINO FZRANO $
14926KSTC STC20050723103009607/23/05 10:30:31  5-MIN KSTC 231630Z A2987 M M M M /M RMK AO2 RAEMM PRESFR P0000 PWINO FZRANO $
14926KSTC STC20050723103509607/23/05 10:35:31  5-MIN KSTC 231635Z A2986 M M M M /M RMK AO2 RAEMM PRESFR P0000 PWINO FZRANO $
14926KSTC STC20050723104009607/23/05 10:40:31  5-MIN KSTC 231640Z A2985 M M M M /M RMK AO2 RAEMM PRESFR P0000 PWINO FZRANO $
14926KSTC STC20050723104509607/23/05 10:45:31  5-MIN KSTC 231645Z A2984 M M M M /M RMK AO2 RAEMM PRESFR P0000 PWINO FZRANO $
14926KSTC STC20050723105010207/23/05 10:50:31  5-MIN KSTC 231650Z A2983 M M M M /M RMK AO2 RAEMM PRESFR SLPNO P0000 PWINO FZRANO $
14926KSTC STC20050723105508807/23/05 10:55:31  5-MIN KSTC 231655Z A2982 M M M M /M RMK AO2 PRESFR PWINO FZRANO PNO $
14926KSTC STC20050723110008107/23/05 11:00:31  5-MIN KSTC 231700Z A2982 M M M M /M RMK AO2 PWINO FZRANO PNO $
14926KSTC STC20050723110508807/23/05 11:05:31  5-MIN KSTC 231705Z A2980 M M M M /M RMK AO2 PRESFR PWINO FZRANO PNO $
14926KSTC STC20050723111008107/23/05 11:10:31  5-MIN KSTC 231710Z A2981 M M M M /M RMK AO2 PWINO FZRANO PNO $
14926KSTC STC20050723111510207/23/05 11:15:31  5-MIN KSTC 231715Z 09009KT TS 21/19 A2982 1120 93 2100 080/09 RMK AO2 TSB15 PWINO $
14926KSTC STC20050723112010007/23/05 11:20:31  5-MIN KSTC 231720Z 13009KT 7SM TS 21/19 A2984 1100 90 2100 120/09 RMK AO2 TSB15 $
14926KSTC STC20050723112510707/23/05 11:25:31  5-MIN KSTC 231725Z VRB05KT 7SM TS 21/19 A2985 1090 90 2100 VRB/05 RMK AO2 TSB15 PRESRR $
14926KSTC STC20050723113010007/23/05 11:30:31  5-MIN KSTC 231730Z VRB04KT 7SM 21/19 A2984 1100 90 2100 VRB/04 RMK AO2 TSB15E30 $
14926KSTC STC20050723113510007/23/05 11:35:31  5-MIN KSTC 231735Z 16006KT 7SM 21/19 A2985 1090 90 2100 160/06 RMK AO2 TSB15E30 $
14926KSTC STC20050723114010707/23/05 11:40:31  5-MIN KSTC 231740Z 17004KT 6SM BR CLR 21/20 A2985 1090 93 2100 170/04 RMK AO2 TSB15E30 $
14926KSTC STC20050723114510707/23/05 11:45:31  5-MIN KSTC 231745Z 17010KT 6SM BR CLR 21/20 A2984 1100 93 2100 160/10 RMK AO2 TSB15E30 $
14926KSTC STC20050723115013607/23/05 11:50:31  5-MIN KSTC 231750Z 17011KT 6SM BR CLR 21/20 A2983 1110 93 2100 170/11 RMK AO2 TSB15E30 SLP105 60087 T02110200 53019 $
14926KSTC STC20050723115510507/23/05 11:55:31  5-MIN KSTC 231755Z 16011KT 6SM BR CLR 21/20 A2982 1120 93 2100 160/11 RMK AO2 PRESFR $
14926KSTC STC20050723120009807/23/05 12:00:31  5-MIN KSTC 231800Z 16011KT 6SM BR CLR 21/20 A2982 1120 93 2100 150/11 RMK AO2 $
14926KSTC STC20050723120510107/23/05 12:05:31  5-MIN KSTC 231805Z 17014G18KT 7SM CLR 21/20 A2982 1120 93 2100 170/14G18 RMK AO2 $
14926KSTC STC20050723121010107/23/05 12:10:31  5-MIN KSTC 231810Z 17016G19KT 8SM CLR 21/20 A2982 1120 93 2100 160/16G19 RMK AO2 $
14926KSTC STC20050723121509807/23/05 12:15:31  5-MIN KSTC 231815Z 17013KT 9SM FEW006 21/20 A2982 1120 93 2100 170/13 RMK AO2 $
14926KSTC STC20050723122009907/23/05 12:20:31  5-MIN KSTC 231820Z 16014KT 10SM SCT006 21/19 A2982 1120 90 2100 160/14 RMK AO2 $
14926KSTC STC20050723122509907/23/05 12:25:31  5-MIN KSTC 231825Z 16013KT 10SM SCT006 21/20 A2983 1110 93 2100 160/13 RMK AO2 $
14926KSTC STC20050723123009907/23/05 12:30:31  5-MIN KSTC 231830Z 16011KT 10SM FEW006 22/20 A2983 1110 90 2200 160/11 RMK AO2 $
14926KSTC STC20050723123509907/23/05 12:35:31  5-MIN KSTC 231835Z 16010KT 10SM FEW006 22/20 A2983 1110 90 2200 160/10 RMK AO2 $
14926KSTC STC20050723124009907/23/05 12:40:31  5-MIN KSTC 231840Z 16009KT 10SM FEW006 22/20 A2984 1100 90 2200 160/09 RMK AO2 $
14926KSTC STC20050723124509907/23/05 12:45:31  5-MIN KSTC 231845Z 16009KT 10SM FEW006 22/20 A2984 1100 90 2200 150/09 RMK AO2 $
14926KSTC STC20050723125011307/23/05 12:50:31  5-MIN KSTC 231850Z 15011KT 10SM CLR 22/19 A2984 1100 84 2200 150/11 RMK AO2 SLP109 T02220194 $
14926KSTC STC20050723125509607/23/05 12:55:31  5-MIN KSTC 231855Z 16011KT 10SM CLR 22/19 A2984 1100 84 2200 160/11 RMK AO2 $
14926KSTC STC20050723130009607/23/05 13:00:31  5-MIN KSTC 231900Z 16010KT 10SM CLR 22/20 A2984 1100 87 2200 160/10 RMK AO2 $
14926KSTC STC20050723130509607/23/05 13:05:31  5-MIN KSTC 231905Z 16009KT 10SM CLR 22/20 A2984 1100 87 2200 160/09 RMK AO2 $
14926KSTC STC20050723131009607/23/05 13:10:31  5-MIN KSTC 231910Z 16010KT 10SM CLR 22/19 A2984 1100 84 2200 150/10 RMK AO2 $
14926KSTC STC20050723131509607/23/05 13:15:31  5-MIN KSTC 231915Z 16011KT 10SM CLR 22/19 A2984 1100 84 2200 150/11 RMK AO2 $
14926KSTC STC20050723132009907/23/05 13:20:31  5-MIN KSTC 231920Z AUTO 16011KT 10SM CLR 22/19 A2984 1100 84 2200 160/11 RMK AO2
14926KSTC STC20050723132509907/23/05 13:25:31  5-MIN KSTC 231925Z AUTO 17012KT 10SM CLR 23/19 A2984 1100 81 2300 160/12 RMK AO2
14926KSTC STC20050723133009907/23/05 13:30:31  5-MIN KSTC 231930Z AUTO 17010KT 10SM CLR 23/19 A2985 1090 81 2300 170/10 RMK AO2
14926KSTC STC20050723133509907/23/05 13:35:31  5-MIN KSTC 231935Z AUTO 18011KT 10SM CLR 23/19 A2985 1090 81 2300 170/11 RMK AO2
14926KSTC STC20050723134009907/23/05 13:40:31  5-MIN KSTC 231940Z AUTO 17009KT 10SM CLR 23/19 A2985 1090 81 2300 170/09 RMK AO2
14926KSTC STC20050723134509907/23/05 13:45:31  5-MIN KSTC 231945Z AUTO 16008KT 10SM CLR 23/20 A2984 1100 81 2400 160/08 RMK AO2
14926KSTC STC20050723135011607/23/05 13:50:31  5-MIN KSTC 231950Z AUTO 16008KT 10SM CLR 23/20 A2984 1100 81 2400 150/08 RMK AO2 SLP108 T02330200
14926KSTC STC20050723135509907/23/05 13:55:31  5-MIN KSTC 231955Z AUTO 15008KT 10SM CLR 23/20 A2983 1110 81 2400 150/08 RMK AO2
14926KSTC STC20050723140009907/23/05 14:00:31  5-MIN KSTC 232000Z AUTO 15010KT 10SM CLR 23/19 A2983 1110 78 2400 140/10 RMK AO2
14926KSTC STC20050723140509907/23/05 14:05:31  5-MIN KSTC 232005Z AUTO 15008KT 10SM CLR 23/20 A2983 1110 81 2400 140/08 RMK AO2
14926KSTC STC20050723141009907/23/05 14:10:31  5-MIN KSTC 232010Z AUTO 14004KT 10SM CLR 24/20 A2983 1110 78 2400 140/04 RMK AO2
14926KSTC STC20050723141509907/23/05 14:15:31  5-MIN KSTC 232015Z AUTO 13004KT 10SM CLR 24/20 A2983 1110 78 2400 130/04 RMK AO2
14926KSTC STC20050723142009907/23/05 14:20:31  5-MIN KSTC 232020Z AUTO 13005KT 10SM CLR 24/21 A2983 1110 81 2400 120/05 RMK AO2
14926KSTC STC20050723142509907/23/05 14:25:31  5-MIN KSTC 232025Z AUTO 14006KT 10SM CLR 24/20 A2983 1110 78 2400 140/06 RMK AO2
14926KSTC STC20050723143009907/23/05 14:30:31  5-MIN KSTC 232030Z AUTO 15008KT 10SM CLR 25/21 A2982 1120 76 2600 140/08 RMK AO2
14926KSTC STC20050723143509907/23/05 14:35:31  5-MIN KSTC 232035Z AUTO 15010KT 10SM CLR 26/21 A2982 1120 76 2600 140/10 RMK AO2
14926KSTC STC20050723144010507/23/05 14:40:31  5-MIN KSTC 232040Z AUTO 15014G19KT 10SM CLR 26/21 A2982 1120 73 2700 150/14G19 RMK AO2
14926KSTC STC20050723144510507/23/05 14:45:31  5-MIN KSTC 232045Z AUTO 15016G19KT 10SM CLR 27/22 A2981 1130 73 2800 150/16G19 RMK AO2
14926KSTC STC20050723145012807/23/05 14:50:31  5-MIN KSTC 232050Z AUTO 16015G18KT 10SM CLR 27/22 A2981 1130 73 2800 160/15G18 RMK AO2 SLP096 T02670217 55068
14926KSTC STC20050723145509907/23/05 14:55:31  5-MIN KSTC 232055Z AUTO 16015KT 10SM CLR 27/22 A2980 1130 73 2800 150/15 RMK AO2
14926KSTC STC20050723150009807/23/05 15:00:31  5-MIN KSTC 232100Z AUTO 15014KT 9SM CLR 27/22 A2980 1140 73 2800 140/14 RMK AO2
14926KSTC STC20050723150510107/23/05 15:05:31  5-MIN KSTC 232105Z AUTO 15014KT 9SM FEW021 26/22 A2980 1140 76 2700 150/14 RMK AO2
14926KSTC STC20050723151010707/23/05 15:10:31  5-MIN KSTC 232110Z AUTO 16014G18KT 9SM SCT021 27/22 A2980 1140 76 2800 150/14G18 RMK AO2
14926KSTC STC20050723151510107/23/05 15:15:31  5-MIN KSTC 232115Z AUTO 16011KT 9SM BKN021 27/22 A2979 1140 74 2800 150/11 RMK AO2
14926KSTC STC20050723152010107/23/05 15:20:31  5-MIN KSTC 232120Z AUTO 15013KT 9SM BKN021 27/22 A2979 1150 74 2800 150/13 RMK AO2
14926KSTC STC20050723152510107/23/05 15:25:31  5-MIN KSTC 232125Z AUTO 16014KT 8SM BKN021 27/22 A2979 1150 76 2800 150/14 RMK AO2
14926KSTC STC20050723153010107/23/05 15:30:31  5-MIN KSTC 232130Z AUTO 15013KT 8SM OVC021 27/22 A2979 1150 74 2900 150/13 RMK AO2
14926KSTC STC20050723153510107/23/05 15:35:31  5-MIN KSTC 232135Z AUTO 16009KT 8SM OVC021 27/22 A2979 1150 76 2800 160/09 RMK AO2
14926KSTC STC20050723154010107/23/05 15:40:31  5-MIN KSTC 232140Z AUTO 16012KT 8SM OVC021 27/23 A2979 1150 79 2800 160/12 RMK AO2
14926KSTC STC20050723154510107/23/05 15:45:31  5-MIN KSTC 232145Z AUTO 16010KT 8SM OVC021 27/23 A2979 1150 76 2900 160/10 RMK AO2
14926KSTC STC20050723155011807/23/05 15:50:31  5-MIN KSTC 232150Z AUTO 16007KT 8SM OVC021 27/23 A2978 1150 76 2900 150/07 RMK AO2 SLP087 T02720228
14926KSTC STC20050723155510107/23/05 15:55:31  5-MIN KSTC 232155Z AUTO 16007KT 8SM OVC021 27/23 A2978 1160 76 2900 160/07 RMK AO2
14926KSTC STC20050723160010107/23/05 16:00:31  5-MIN KSTC 232200Z AUTO 14009KT 8SM OVC021 27/23 A2978 1160 79 2900 140/09 RMK AO2
14926KSTC STC20050723160510707/23/05 16:05:31  5-MIN KSTC 232205Z AUTO 15011G16KT 8SM OVC021 27/23 A2978 1160 76 2900 150/11G16 RMK AO2
14926KSTC STC20050723161010707/23/05 16:10:31  5-MIN KSTC 232210Z AUTO 15008G16KT 8SM OVC021 27/23 A2978 1160 79 2900 140/08G16 RMK AO2
14926KSTC STC20050723161510107/23/05 16:15:31  5-MIN KSTC 232215Z AUTO 15010KT 8SM OVC021 27/23 A2977 1160 79 2900 150/10 RMK AO2
14926KSTC STC20050723162010107/23/05 16:20:31  5-MIN KSTC 232220Z AUTO 15012KT 8SM OVC021 27/23 A2977 1160 79 2900 150/12 RMK AO2
14926KSTC STC20050723162510107/23/05 16:25:31  5-MIN KSTC 232225Z AUTO 13008KT 8SM OVC021 27/23 A2977 1170 79 2900 130/08 RMK AO2
14926KSTC STC20050723163010107/23/05 16:30:31  5-MIN KSTC 232230Z AUTO 13008KT 7SM OVC021 27/23 A2977 1170 79 2900 130/08 RMK AO2
14926KSTC STC20050723163510107/23/05 16:35:31  5-MIN KSTC 232235Z AUTO 13006KT 7SM OVC021 27/23 A2977 1160 79 2900 130/06 RMK AO2
14926KSTC STC20050723164010107/23/05 16:40:31  5-MIN KSTC 232240Z AUTO VRB05KT 7SM OVC019 27/23 A2978 1160 79 2900 VRB/05 RMK AO2
14926KSTC STC20050723164510107/23/05 16:45:31  5-MIN KSTC 232245Z AUTO 12006KT 7SM OVC019 27/23 A2977 1160 79 2900 110/06 RMK AO2
14926KSTC STC20050723165011807/23/05 16:50:31  5-MIN KSTC 232250Z AUTO 12007KT 7SM OVC019 27/23 A2978 1160 79 2900 120/07 RMK AO2 SLP085 T02720233
14926KSTC STC20050723165510107/23/05 16:55:31  5-MIN KSTC 232255Z AUTO 12006KT 7SM OVC019 27/23 A2977 1160 79 2900 110/06 RMK AO2
14926KSTC STC20050723170010107/23/05 17:00:31  5-MIN KSTC 232300Z AUTO 10005KT 7SM OVC019 27/23 A2977 1160 79 2900 100/05 RMK AO2
14926KSTC STC20050723170510107/23/05 17:05:31  5-MIN KSTC 232305Z AUTO 10005KT 7SM OVC019 27/24 A2977 1170 82 2900 100/05 RMK AO2
14926KSTC STC20050723171010107/23/05 17:10:31  5-MIN KSTC 232310Z AUTO 10005KT 7SM OVC019 27/24 A2977 1170 82 2900 100/05 RMK AO2
14926KSTC STC20050723171510107/23/05 17:15:31  5-MIN KSTC 232315Z AUTO 10005KT 7SM OVC019 27/23 A2977 1160 79 2900 100/05 RMK AO2
14926KSTC STC20050723172010107/23/05 17:20:31  5-MIN KSTC 232320Z AUTO 10005KT 7SM OVC019 27/24 A2977 1170 82 2900 100/05 RMK AO2
14926KSTC STC20050723172510107/23/05 17:25:31  5-MIN KSTC 232325Z AUTO 10006KT 7SM OVC019 27/24 A2977 1170 82 2900 100/06 RMK AO2
14926KSTC STC20050723173010107/23/05 17:30:31  5-MIN KSTC 232330Z AUTO 10006KT 7SM OVC019 27/24 A2977 1160 82 2900 090/06 RMK AO2
14926KSTC STC20050723173510107/23/05 17:35:31  5-MIN KSTC 232335Z AUTO 09006KT 7SM OVC019 27/24 A2977 1170 82 2900 080/06 RMK AO2
14926KSTC STC20050723174010107/23/05 17:40:31  5-MIN KSTC 232340Z AUTO 09005KT 7SM OVC019 27/24 A2977 1160 82 2900 090/05 RMK AO2
14926KSTC STC20050723174510107/23/05 17:45:31  5-MIN KSTC 232345Z AUTO 08006KT 7SM OVC019 27/24 A2977 1160 82 2900 080/06 RMK AO2
14926KSTC STC20050723175013607/23/05 17:50:31  5-MIN KSTC 232350Z AUTO 06006KT 7SM OVC019 27/24 A2977 1160 82 2900 060/06 RMK AO2 SLP082 T02720239 10272 20211 58007
14926KSTC STC20050723175510107/23/05 17:55:31  5-MIN KSTC 232355Z AUTO 07005KT 7SM OVC019 27/24 A2977 1160 82 2900 070/05 RMK AO2
14926KSTC STC20050723180010107/23/05 18:00:31  5-MIN KSTC 240000Z AUTO 08005KT 7SM OVC019 27/24 A2977 1160 82 2900 070/05 RMK AO2
14926KSTC STC20050723180510107/23/05 18:05:31  5-MIN KSTC 240005Z AUTO 06005KT 7SM OVC019 27/24 A2977 1160 82 2900 060/05 RMK AO2
14926KSTC STC20050723181010407/23/05 18:10:31  5-MIN KSTC 240010Z AUTO 06005KT 6SM HZ OVC019 27/24 A2977 1160 82 2900 060/05 RMK AO2
14926KSTC STC20050723181510407/23/05 18:15:31  5-MIN KSTC 240015Z AUTO 06005KT 6SM HZ BKN019 27/24 A2977 1160 82 2900 060/05 RMK AO2
14926KSTC STC20050723182010407/23/05 18:20:31  5-MIN KSTC 240020Z AUTO 07006KT 6SM HZ OVC019 27/24 A2977 1160 84 2800 060/06 RMK AO2
14926KSTC STC20050723182510407/23/05 18:25:31  5-MIN KSTC 240025Z AUTO 06008KT 6SM HZ BKN019 27/23 A2977 1170 82 2800 050/08 RMK AO2
14926KSTC STC20050723183010407/23/05 18:30:31  5-MIN KSTC 240030Z AUTO 06007KT 6SM HZ BKN019 27/23 A2977 1170 82 2800 060/07 RMK AO2
14926KSTC STC20050723183510407/23/05 18:35:31  5-MIN KSTC 240035Z AUTO 07006KT 6SM HZ SCT019 27/23 A2977 1170 82 2800 060/06 RMK AO2
14926KSTC STC20050723184010407/23/05 18:40:31  5-MIN KSTC 240040Z AUTO 05006KT 6SM HZ FEW019 26/23 A2977 1170 84 2800 050/06 RMK AO2
14926KSTC STC20050723184510407/23/05 18:45:31  5-MIN KSTC 240045Z AUTO 06008KT 6SM HZ FEW019 26/23 A2976 1170 84 2800 060/08 RMK AO2
14926KSTC STC20050723185011807/23/05 18:50:31  5-MIN KSTC 240050Z AUTO 06007KT 6SM HZ CLR 26/23 A2976 1170 84 2700 060/07 RMK AO2 SLP081 T02560228
14926KSTC STC20050723185510107/23/05 18:55:31  5-MIN KSTC 240055Z AUTO 07006KT 6SM HZ CLR 26/23 A2976 1170 84 2700 070/06 RMK AO2
14926KSTC STC20050723190010107/23/05 19:00:31  5-MIN KSTC 240100Z AUTO 07009KT 6SM HZ CLR 26/23 A2976 1180 84 2700 060/09 RMK AO2
14926KSTC STC20050723190510107/23/05 19:05:31  5-MIN KSTC 240105Z AUTO 07009KT 6SM HZ CLR 26/23 A2976 1180 84 2700 060/09 RMK AO2
14926KSTC STC20050723191010107/23/05 19:10:31  5-MIN KSTC 240110Z AUTO 07009KT 6SM BR CLR 25/23 A2976 1180 87 2600 060/09 RMK AO2
14926KSTC STC20050723191510107/23/05 19:15:31  5-MIN KSTC 240115Z AUTO 07008KT 6SM BR CLR 25/23 A2976 1180 87 2600 070/08 RMK AO2
14926KSTC STC20050723192010107/23/05 19:20:31  5-MIN KSTC 240120Z AUTO 07008KT 6SM BR CLR 25/23 A2976 1180 87 2600 070/08 RMK AO2
14926KSTC STC20050723192510107/23/05 19:25:31  5-MIN KSTC 240125Z AUTO 06007KT 5SM BR CLR 25/23 A2976 1180 87 2600 060/07 RMK AO2
14926KSTC STC20050723193010107/23/05 19:30:31  5-MIN KSTC 240130Z AUTO 07008KT 5SM HZ CLR 25/22 A2975 1180 84 2600 070/08 RMK AO2
14926KSTC STC20050723193510107/23/05 19:35:31  5-MIN KSTC 240135Z AUTO 07006KT 5SM HZ CLR 25/22 A2975 1180 84 2600 070/06 RMK AO2
14926KSTC STC20050723194010107/23/05 19:40:31  5-MIN KSTC 240140Z AUTO 07006KT 5SM BR CLR 24/22 A2975 1180 87 2600 070/06 RMK AO2
14926KSTC STC20050723194510107/23/05 19:45:31  5-MIN KSTC 240145Z AUTO 07008KT 5SM BR CLR 24/22 A2975 1180 87 2600 070/08 RMK AO2
14926KSTC STC20050723195011807/23/05 19:50:31  5-MIN KSTC 240150Z AUTO 08009KT 5SM BR CLR 24/22 A2975 1180 87 2600 080/09 RMK AO2 SLP076 T02440222
14926KSTC STC20050723195510107/23/05 19:55:31  5-MIN KSTC 240155Z AUTO 08007KT 5SM BR CLR 24/22 A2975 1180 87 2600 070/07 RMK AO2
14926KSTC STC20050723200010107/23/05 20:00:31  5-MIN KSTC 240200Z AUTO 07008KT 5SM BR CLR 24/22 A2975 1180 87 2600 070/08 RMK AO2
14926KSTC STC20050723200510107/23/05 20:05:31  5-MIN KSTC 240205Z AUTO 07008KT 5SM BR CLR 24/22 A2975 1180 87 2600 070/08 RMK AO2
14926KSTC STC20050723201010107/23/05 20:10:31  5-MIN KSTC 240210Z AUTO 08009KT 6SM BR CLR 24/22 A2975 1190 90 2500 070/09 RMK AO2
14926KSTC STC20050723201510107/23/05 20:15:31  5-MIN KSTC 240215Z AUTO 08007KT 6SM BR CLR 24/22 A2975 1190 90 2500 080/07 RMK AO2
14926KSTC STC20050723202009807/23/05 20:20:31  5-MIN KSTC 240220Z AUTO 07006KT 7SM CLR 24/22 A2975 1190 90 2500 070/06 RMK AO2
14926KSTC STC20050723202509807/23/05 20:25:31  5-MIN KSTC 240225Z AUTO 08006KT 7SM CLR 24/22 A2975 1180 90 2500 080/06 RMK AO2
14926KSTC STC20050723203009807/23/05 20:30:31  5-MIN KSTC 240230Z AUTO 08007KT 7SM CLR 24/22 A2975 1180 90 2500 080/07 RMK AO2
14926KSTC STC20050723203509807/23/05 20:35:31  5-MIN KSTC 240235Z AUTO 08008KT 7SM CLR 24/22 A2975 1180 87 2500 080/08 RMK AO2
14926KSTC STC20050723204009807/23/05 20:40:31  5-MIN KSTC 240240Z AUTO 09007KT 7SM CLR 24/22 A2975 1190 87 2500 090/07 RMK AO2
14926KSTC STC20050723204509807/23/05 20:45:31  5-MIN KSTC 240245Z AUTO 09006KT 7SM CLR 24/22 A2975 1190 87 2500 080/06 RMK AO2
14926KSTC STC20050723205012107/23/05 20:50:31  5-MIN KSTC 240250Z AUTO 08010KT 7SM CLR 23/22 A2974 1190 90 2500 080/10 RMK AO2 SLP075 T02330217 56011
14926KSTC STC20050723205509807/23/05 20:55:31  5-MIN KSTC 240255Z AUTO 09006KT 7SM CLR 23/22 A2974 1190 90 2500 090/06 RMK AO2
14926KSTC STC20050723210009807/23/05 21:00:31  5-MIN KSTC 240300Z AUTO VRB05KT 7SM CLR 23/22 A2974 1190 90 2500 VRB/05 RMK AO2
14926KSTC STC20050723210509807/23/05 21:05:31  5-MIN KSTC 240305Z AUTO 08006KT 7SM CLR 23/22 A2974 1190 90 2500 080/06 RMK AO2
14926KSTC STC20050723211010107/23/05 21:10:31  5-MIN KSTC 240310Z AUTO 08007KT 6SM BR CLR 23/22 A2974 1190 90 2500 080/07 RMK AO2
14926KSTC STC20050723211510107/23/05 21:15:31  5-MIN KSTC 240315Z AUTO 08007KT 6SM BR CLR 23/22 A2974 1190 90 2500 080/07 RMK AO2
14926KSTC STC20050723212010107/23/05 21:20:31  5-MIN KSTC 240320Z AUTO 09007KT 6SM BR CLR 23/22 A2974 1200 93 2500 080/07 RMK AO2
14926KSTC STC20050723212510107/23/05 21:25:31  5-MIN KSTC 240325Z AUTO 09007KT 6SM BR CLR 23/22 A2973 1200 93 2500 090/07 RMK AO2
14926KSTC STC20050723213010107/23/05 21:30:31  5-MIN KSTC 240330Z AUTO 09006KT 6SM BR CLR 23/22 A2973 1200 93 2500 080/06 RMK AO2
14926KSTC STC20050723213510107/23/05 21:35:31  5-MIN KSTC 240335Z AUTO 08006KT 6SM BR CLR 23/22 A2973 1200 93 2500 080/06 RMK AO2
14926KSTC STC20050723214010107/23/05 21:40:31  5-MIN KSTC 240340Z AUTO 09006KT 5SM BR CLR 23/22 A2973 1200 93 2500 090/06 RMK AO2
14926KSTC STC20050723214510107/23/05 21:45:31  5-MIN KSTC 240345Z AUTO 10007KT 5SM BR CLR 23/22 A2973 1210 93 2500 100/07 RMK AO2
14926KSTC STC20050723215011807/23/05 21:50:31  5-MIN KSTC 240350Z AUTO VRB04KT 5SM BR CLR 23/22 A2973 1210 93 2500 VRB/04 RMK AO2 SLP070 T02330222
14926KSTC STC20050723215510107/23/05 21:55:31  5-MIN KSTC 240355Z AUTO VRB05KT 5SM BR CLR 23/22 A2973 1210 93 2500 VRB/05 RMK AO2
14926KSTC STC20050723220010107/23/05 22:00:31  5-MIN KSTC 240400Z AUTO VRB04KT 5SM BR CLR 23/22 A2972 1210 93 2500 VRB/04 RMK AO2
14926KSTC STC20050723220510107/23/05 22:05:31  5-MIN KSTC 240405Z AUTO 09004KT 5SM BR CLR 23/22 A2972 1210 93 2500 080/04 RMK AO2
14926KSTC STC20050723221010107/23/05 22:10:31  5-MIN KSTC 240410Z AUTO 09005KT 5SM BR CLR 23/22 A2972 1210 93 2500 090/05 RMK AO2
14926KSTC STC20050723221510107/23/05 22:15:31  5-MIN KSTC 240415Z AUTO VRB03KT 4SM BR CLR 23/22 A2972 1210 93 2500 VRB/03 RMK AO2
14926KSTC STC20050723222010107/23/05 22:20:31  5-MIN KSTC 240420Z AUTO 11004KT 4SM BR CLR 23/22 A2972 1210 93 2500 100/04 RMK AO2
14926KSTC STC20050723222510107/23/05 22:25:31  5-MIN KSTC 240425Z AUTO 10004KT 4SM BR CLR 24/22 A2972 1210 90 2600 100/04 RMK AO2
14926KSTC STC20050723223010107/23/05 22:30:31  5-MIN KSTC 240430Z AUTO 00000KT 4SM BR CLR 24/23 A2972 1210 93 2600 000/00 RMK AO2
14926KSTC STC20050723223510107/23/05 22:35:31  5-MIN KSTC 240435Z AUTO 00000KT 4SM BR CLR 23/23 A2972 1210 97 2500 000/00 RMK AO2
14926KSTC STC20050723224010107/23/05 22:40:31  5-MIN KSTC 240440Z AUTO VRB04KT 4SM BR CLR 23/23 A2972 1210 97 2500 VRB/04 RMK AO2
14926KSTC STC20050723224510107/23/05 22:45:31  5-MIN KSTC 240445Z AUTO 09005KT 4SM BR CLR 24/23 A2973 1210 93 2500 080/05 RMK AO2
14926KSTC STC20050723225011707/23/05 22:50:31  5-MIN KSTC 240450Z AUTO 35005KT 3SM BR CLR 23/23 A2973 1210 97 2500 340/05 RMK AO2 SLPNO T02330228
14926KSTC STC20050723225510107/23/05 22:55:31  5-MIN KSTC 240455Z AUTO 08003KT 3SM BR CLR 23/23 A2973 1210 97 2500 070/03 RMK AO2
14926KSTC STC20050723230010107/23/05 23:00:31  5-MIN KSTC 240500Z AUTO VRB03KT 3SM BR CLR 23/23 A2973 1210 97 2500 VRB/03 RMK AO2
14926KSTC STC20050723230510107/23/05 23:05:31  5-MIN KSTC 240505Z AUTO 05003KT 3SM BR CLR 23/23 A2973 1200 97 2500 050/03 RMK AO2
14926KSTC STC20050723231010107/23/05 23:10:31  5-MIN KSTC 240510Z AUTO 02003KT 3SM BR CLR 23/23 A2973 1210 97 2500 020/03 RMK AO2
14926KSTC STC20050723231510107/23/05 23:15:31  5-MIN KSTC 240515Z AUTO 00000KT 3SM BR CLR 23/22 A2972 1210 93 2500 000/00 RMK AO2
14926KSTC STC20050723232010507/23/05 23:20:31  5-MIN KSTC 240520Z AUTO 00000KT 2 1/2SM BR CLR 23/22 A2972 1210 93 2500 000/00 RMK AO2
14926KSTC STC20050723232510507/23/05 23:25:31  5-MIN KSTC 240525Z AUTO 09003KT 2 1/2SM BR CLR 23/22 A2972 1210 93 2500 090/03 RMK AO2
14926KSTC STC20050723233010507/23/05 23:30:31  5-MIN KSTC 240530Z AUTO 10004KT 2 1/2SM BR CLR 23/22 A2972 1210 93 2500 100/04 RMK AO2
14926KSTC STC20050723233510507/23/05 23:35:31  5-MIN KSTC 240535Z AUTO 14003KT 2 1/2SM BR CLR 23/23 A2972 1220 97 2500 130/03 RMK AO2
14926KSTC STC20050723234010507/23/05 23:40:31  5-MIN KSTC 240540Z AUTO 15005KT 2 1/2SM BR CLR 23/23 A2971 1220 97 2500 150/05 RMK AO2
14926KSTC STC20050723234510107/23/05 23:45:31  5-MIN KSTC 240545Z AUTO 13006KT 2SM BR CLR 23/22 A2971 1220 93 2500 130/06 RMK AO2
14926KSTC STC20050723235014607/23/05 23:50:31  5-MIN KSTC 240550Z AUTO 15007KT 2SM BR CLR 23/23 A2971 1220 97 2500 150/07 RMK AO2 SLP062 T02330228 10272 20233 402720183 56009
14926KSTC STC20050723235510107/23/05 23:55:31  5-MIN KSTC 240555Z AUTO 16006KT 2SM BR CLR 23/22 A2970 1230 97 2500 160/06 RMK AO2
14926KSTC STC20050724000010107/24/05 00:00:32  5-MIN KSTC 240600Z AUTO 15009KT 2SM BR CLR 23/22 A2970 1230 93 2500 150/09 RMK AO2
14926KSTC STC20050724000510107/24/05 00:05:31  5-MIN KSTC 240605Z AUTO 15009KT 2SM BR CLR 23/23 A2970 1230 97 2500 150/09 RMK AO2
14926KSTC STC20050724001010507/24/05 00:10:31  5-MIN KSTC 240610Z AUTO 15008KT 2 1/2SM BR CLR 23/23 A2970 1230 97 2500 150/08 RMK AO2
14926KSTC STC20050724001510107/24/05 00:15:31  5-MIN KSTC 240615Z AUTO 16006KT 3SM BR CLR 24/23 A2970 1230 93 2600 150/06 RMK AO2
14926KSTC STC20050724002010107/24/05 00:20:31  5-MIN KSTC 240620Z AUTO 17005KT 3SM BR CLR 24/23 A2970 1230 97 2600 170/05 RMK AO2
14926KSTC STC20050724002510107/24/05 00:25:31  5-MIN KSTC 240625Z AUTO 17005KT 4SM BR CLR 24/23 A2970 1230 93 2600 170/05 RMK AO2
14926KSTC STC20050724003010107/24/05 00:30:31  5-MIN KSTC 240630Z AUTO 18007KT 4SM BR CLR 24/23 A2970 1230 93 2600 180/07 RMK AO2
14926KSTC STC20050724003510107/24/05 00:35:31  5-MIN KSTC 240635Z AUTO 19006KT 6SM BR CLR 25/24 A2970 1230 93 2700 180/06 RMK AO2
14926KSTC STC20050724004009807/24/05 00:40:31  5-MIN KSTC 240640Z AUTO 19006KT 7SM CLR 25/24 A2970 1230 93 2700 190/06 RMK AO2
14926KSTC STC20050724004509807/24/05 00:45:31  5-MIN KSTC 240645Z AUTO 21004KT 7SM CLR 25/23 A2969 1240 90 2700 210/04 RMK AO2
14926KSTC STC20050724005011807/24/05 00:50:31  5-MIN KSTC 240650Z AUTO 23005KT 6SM BR CLR 24/23 A2970 1240 93 2600 220/05 RMK AO2 SLP058 T02440233
14926KSTC STC20050724005510107/24/05 00:55:31  5-MIN KSTC 240655Z AUTO 24004KT 6SM BR CLR 24/23 A2969 1240 93 2600 240/04 RMK AO2
14926KSTC STC20050724010010107/24/05 01:00:31  5-MIN KSTC 240700Z AUTO 25004KT 5SM BR CLR 24/23 A2970 1240 93 2600 250/04 RMK AO2
14926KSTC STC20050724010510107/24/05 01:05:31  5-MIN KSTC 240705Z AUTO 29005KT 5SM BR CLR 24/23 A2970 1230 93 2600 290/05 RMK AO2
14926KSTC STC20050724011010107/24/05 01:10:31  5-MIN KSTC 240710Z AUTO 31005KT 4SM BR CLR 24/23 A2970 1230 97 2600 300/05 RMK AO2
14926KSTC STC20050724011510107/24/05 01:15:31  5-MIN KSTC 240715Z AUTO 30005KT 4SM BR CLR 24/23 A2970 1230 97 2600 290/05 RMK AO2
14926KSTC STC20050724012010107/24/05 01:20:31  5-MIN KSTC 240720Z AUTO 31005KT 4SM BR CLR 24/23 A2970 1230 93 2600 310/05 RMK AO2
14926KSTC STC20050724012510107/24/05 01:25:31  5-MIN KSTC 240725Z AUTO 31005KT 3SM BR CLR 24/23 A2970 1230 93 2600 300/05 RMK AO2
14926KSTC STC20050724013010107/24/05 01:30:31  5-MIN KSTC 240730Z AUTO 31006KT 3SM BR CLR 24/23 A2970 1230 93 2600 310/06 RMK AO2
14926KSTC STC20050724013510107/24/05 01:35:31  5-MIN KSTC 240735Z AUTO 31005KT 3SM BR CLR 23/23 A2970 1230 97 2500 310/05 RMK AO2
14926KSTC STC20050724014010507/24/05 01:40:31  5-MIN KSTC 240740Z AUTO 32006KT 2 1/2SM BR CLR 23/23 A2971 1220 97 2500 310/06 RMK AO2
14926KSTC STC20050724014510107/24/05 01:45:31  5-MIN KSTC 240745Z AUTO 31008KT 3SM BR CLR 23/22 A2971 1220 93 2500 310/08 RMK AO2
14926KSTC STC20050724015011807/24/05 01:50:31  5-MIN KSTC 240750Z AUTO 32007KT 3SM BR CLR 23/22 A2971 1220 97 2400 310/07 RMK AO2 SLP064 T02280222
14926KSTC STC20050724015510107/24/05 01:55:31  5-MIN KSTC 240755Z AUTO 32007KT 3SM BR CLR 23/22 A2972 1220 97 2400 310/07 RMK AO2
14926KSTC STC20050724020010107/24/05 02:00:31  5-MIN KSTC 240800Z AUTO 32007KT 3SM BR CLR 23/22 A2972 1220 93 2400 310/07 RMK AO2
14926KSTC STC20050724020510107/24/05 02:05:31  5-MIN KSTC 240805Z AUTO 32006KT 3SM BR CLR 23/22 A2972 1220 93 2400 310/06 RMK AO2
14926KSTC STC20050724021010107/24/05 02:10:31  5-MIN KSTC 240810Z AUTO 32007KT 3SM BR CLR 23/22 A2972 1210 93 2400 320/07 RMK AO2
14926KSTC STC20050724021510407/24/05 02:15:31  5-MIN KSTC 240815Z AUTO 32008KT 3SM BR FEW004 23/22 A2972 1210 93 2400 320/08 RMK AO2
14926KSTC STC20050724022010407/24/05 02:20:31  5-MIN KSTC 240820Z AUTO 32007KT 3SM BR SCT004 23/22 A2973 1210 93 2400 320/07 RMK AO2
14926KSTC STC20050724022510407/24/05 02:25:31  5-MIN KSTC 240825Z AUTO 33007KT 3SM BR BKN004 23/22 A2973 1210 93 2400 320/07 RMK AO2
14926KSTC STC20050724023010407/24/05 02:30:31  5-MIN KSTC 240830Z AUTO 33008KT 3SM BR BKN004 23/22 A2973 1200 93 2400 330/08 RMK AO2
14926KSTC STC20050724023510807/24/05 02:35:31  5-MIN KSTC 240835Z AUTO 33008KT 2 1/2SM BR BKN004 23/22 A2973 1200 93 2400 330/08 RMK AO2
14926KSTC STC20050724024012007/24/05 02:40:31  5-MIN KSTC 240840Z AUTO 33007KT 2 1/2SM BR OVC004 23/22 A2973 1200 93 2400 330/07 RMK AO2 CIG 003V006
14926KSTC STC20050724024511607/24/05 02:45:31  5-MIN KSTC 240845Z AUTO 33007KT 3SM BR OVC004 23/22 A2974 1200 93 2400 330/07 RMK AO2 CIG 003V006
14926KSTC STC20050724025013907/24/05 02:50:31  5-MIN KSTC 240850Z AUTO 32005KT 3SM BR OVC004 23/22 A2974 1190 93 2400 320/05 RMK AO2 CIG 003V007 SLP072 T02280217 58014
14926KSTC STC20050724025511607/24/05 02:55:31  5-MIN KSTC 240855Z AUTO 32006KT 4SM BR OVC004 23/22 A2975 1190 93 2400 320/06 RMK AO2 CIG 003V007
14926KSTC STC20050724030010407/24/05 03:00:31  5-MIN KSTC 240900Z AUTO 33005KT 4SM BR OVC004 23/22 A2975 1190 93 2400 330/05 RMK AO2
14926KSTC STC20050724030510407/24/05 03:05:31  5-MIN KSTC 240905Z AUTO 33006KT 4SM BR OVC004 23/22 A2975 1180 93 2400 330/06 RMK AO2
14926KSTC STC20050724031010407/24/05 03:10:31  5-MIN KSTC 240910Z AUTO 33005KT 4SM BR OVC004 23/22 A2976 1180 93 2400 330/05 RMK AO2
14926KSTC STC20050724031510407/24/05 03:15:31  5-MIN KSTC 240915Z AUTO 34006KT 4SM BR OVC004 23/22 A2976 1180 93 2400 330/06 RMK AO2
14926KSTC STC20050724032010407/24/05 03:20:31  5-MIN KSTC 240920Z AUTO 34007KT 4SM BR OVC004 23/22 A2977 1170 93 2400 330/07 RMK AO2
14926KSTC STC20050724032510407/24/05 03:25:31  5-MIN KSTC 240925Z AUTO 34007KT 4SM BR OVC004 23/22 A2977 1170 93 2400 340/07 RMK AO2
14926KSTC STC20050724033010407/24/05 03:30:31  5-MIN KSTC 240930Z AUTO 34007KT 4SM BR OVC004 23/22 A2976 1170 93 2400 340/07 RMK AO2
14926KSTC STC20050724033510407/24/05 03:35:31  5-MIN KSTC 240935Z AUTO 34008KT 4SM BR OVC004 23/22 A2977 1170 93 2400 340/08 RMK AO2
14926KSTC STC20050724034010407/24/05 03:40:31  5-MIN KSTC 240940Z AUTO 34008KT 4SM BR OVC004 23/22 A2977 1160 93 2400 330/08 RMK AO2
14926KSTC STC20050724034510407/24/05 03:45:31  5-MIN KSTC 240945Z AUTO 34007KT 4SM BR OVC004 23/22 A2977 1160 93 2400 340/07 RMK AO2
14926KSTC STC20050724035012107/24/05 03:50:31  5-MIN KSTC 240950Z AUTO 33007KT 4SM BR OVC004 23/22 A2978 1150 93 2400 330/07 RMK AO2 SLP086 T02280217
14926KSTC STC20050724035510407/24/05 03:55:31  5-MIN KSTC 240955Z AUTO 33006KT 4SM BR OVC004 23/22 A2979 1150 93 2400 330/06 RMK AO2
14926KSTC STC20050724040010407/24/05 04:00:31  5-MIN KSTC 241000Z AUTO 34008KT 4SM BR OVC004 23/22 A2979 1150 93 2400 340/08 RMK AO2
14926KSTC STC20050724040510407/24/05 04:05:31  5-MIN KSTC 241005Z AUTO 34009KT 4SM BR OVC004 23/22 A2979 1150 93 2400 340/09 RMK AO2
14926KSTC STC20050724041010407/24/05 04:10:31  5-MIN KSTC 241010Z AUTO 34007KT 4SM BR OVC004 23/22 A2979 1150 93 2400 340/07 RMK AO2
14926KSTC STC20050724041510407/24/05 04:15:31  5-MIN KSTC 241015Z AUTO 33007KT 4SM BR OVC004 23/22 A2979 1150 93 2300 330/07 RMK AO2
14926KSTC STC20050724042010407/24/05 04:20:31  5-MIN KSTC 241020Z AUTO 34007KT 4SM BR OVC004 23/22 A2979 1140 93 2300 340/07 RMK AO2
14926KSTC STC20050724042510407/24/05 04:25:31  5-MIN KSTC 241025Z AUTO 34007KT 4SM BR OVC004 23/22 A2980 1140 93 2300 330/07 RMK AO2
14926KSTC STC20050724043010407/24/05 04:30:31  5-MIN KSTC 241030Z AUTO 34009KT 4SM BR OVC004 23/22 A2980 1130 93 2300 330/09 RMK AO2
14926KSTC STC20050724043510407/24/05 04:35:31  5-MIN KSTC 241035Z AUTO 33007KT 4SM BR OVC004 23/22 A2981 1130 93 2300 330/07 RMK AO2
14926KSTC STC20050724044010407/24/05 04:40:31  5-MIN KSTC 241040Z AUTO 33007KT 4SM BR OVC004 23/22 A2981 1130 93 2300 330/07 RMK AO2
14926KSTC STC20050724044510407/24/05 04:45:31  5-MIN KSTC 241045Z AUTO 33007KT 4SM BR OVC004 23/22 A2982 1120 93 2300 330/07 RMK AO2
14926KSTC STC20050724045012707/24/05 04:50:31  5-MIN KSTC 241050Z AUTO 33009G15KT 4SM BR OVC004 23/22 A2982 1120 93 2300 330/09G15 RMK AO2 SLP097 T02280217
14926KSTC STC20050724045511007/24/05 04:55:31  5-MIN KSTC 241055Z AUTO 33008G15KT 4SM BR OVC006 23/22 A2982 1120 90 2400 330/08G15 RMK AO2
14926KSTC STC20050724050012007/24/05 05:00:31  5-MIN KSTC 241100Z AUTO 34007KT 300V360 4SM BR OVC006 23/22 A2982 1110 90 2400 340/07 300V360 RMK AO2
14926KSTC STC20050724050510407/24/05 05:05:31  5-MIN KSTC 241105Z AUTO 33009KT 4SM BR OVC006 23/22 A2983 1110 90 2400 330/09 RMK AO2
14926KSTC STC20050724051010407/24/05 05:10:31  5-MIN KSTC 241110Z AUTO 33008KT 4SM BR OVC006 23/22 A2983 1110 93 2400 330/08 RMK AO2
14926KSTC STC20050724051511607/24/05 05:15:31  5-MIN KSTC 241115Z AUTO 34008KT 3SM BR OVC006 23/22 A2983 1110 93 2400 330/08 RMK AO2 CIG 005V010
14926KSTC STC20050724052011607/24/05 05:20:31  5-MIN KSTC 241120Z AUTO 34008KT 4SM BR OVC006 23/22 A2983 1110 90 2400 340/08 RMK AO2 CIG 006V011
14926KSTC STC20050724052512307/24/05 05:25:31  5-MIN KSTC 241125Z AUTO 34009KT 4SM BR BKN008 OVC013 23/22 A2983 1110 90 2400 330/09 RMK AO2 CIG 006V010
14926KSTC STC20050724053012307/24/05 05:30:31  5-MIN KSTC 241130Z AUTO 33007KT 4SM BR BKN008 OVC013 23/22 A2984 1100 90 2400 330/07 RMK AO2 CIG 006V010
14926KSTC STC20050724053512307/24/05 05:35:31  5-MIN KSTC 241135Z AUTO 34009KT 4SM BR BKN008 OVC015 23/22 A2984 1100 90 2400 330/09 RMK AO2 CIG 006V013
14926KSTC STC20050724054011607/24/05 05:40:31  5-MIN KSTC 241140Z AUTO 33009KT 4SM BR OVC010 23/22 A2985 1090 90 2300 330/09 RMK AO2 CIG 007V013
14926KSTC STC20050724054512307/24/05 05:45:31  5-MIN KSTC 241145Z AUTO 33009KT 4SM BR BKN010 OVC015 23/22 A2985 1090 90 2300 330/09 RMK AO2 CIG 007V013
14926KSTC STC20050724055015907/24/05 05:50:31  5-MIN KSTC 241150Z AUTO 32008KT 4SM BR BKN010 OVC015 23/22 A2986 1080 90 2300 320/08 RMK AO2 PRESRR SLP113 70087 T02330217 10250 20228 53014
14926KSTC STC20050724055511107/24/05 05:55:31  5-MIN KSTC 241155Z AUTO 33007KT 4SM BR BKN010 OVC015 23/22 A2986 1080 90 2300 330/07 RMK AO2
14926KSTC STC20050724060010607/24/05 06:00:31  5-MIN KSTC 241200Z AUTO 33008KT 4SM BR BKN010 23/22 A2986 1080 90 2300 330/08 RMK AO2 $
14926KSTC STC20050724060510607/24/05 06:05:31  5-MIN KSTC 241205Z AUTO 33008KT 4SM BR BKN010 23/22 A2986 1080 90 2300 330/08 RMK AO2 $
14926KSTC STC20050724061010607/24/05 06:10:31  5-MIN KSTC 241210Z AUTO 34007KT 4SM BR SCT010 23/22 A2986 1080 90 2300 340/07 RMK AO2 $
14926KSTC STC20050724061510607/24/05 06:15:31  5-MIN KSTC 241215Z AUTO 35008KT 4SM BR FEW010 24/22 A2985 1090 87 2400 340/08 RMK AO2 $
14926KSTC STC20050724062010607/24/05 06:20:31  5-MIN KSTC 241220Z AUTO 35009KT 4SM BR FEW010 24/22 A2985 1090 87 2400 350/09 RMK AO2 $
14926KSTC STC20050724062510607/24/05 06:25:31  5-MIN KSTC 241225Z AUTO 35005KT 5SM BR FEW009 24/22 A2985 1090 87 2400 350/05 RMK AO2 $
14926KSTC STC20050724063010407/24/05 06:30:31  5-MIN KSTC 241230Z AUTO 35007KT 5SM BR FEW009 24/22 A2986 1080 87 2400 340/07 RMK AO2
14926KSTC STC20050724063510407/24/05 06:35:31  5-MIN KSTC 241235Z AUTO 34009KT 5SM BR FEW011 24/22 A2987 1080 87 2400 330/09 RMK AO2
14926KSTC STC20050724064010407/24/05 06:40:31  5-MIN KSTC 241240Z AUTO 34008KT 5SM BR FEW011 24/22 A2987 1080 87 2400 330/08 RMK AO2
14926KSTC STC20050724064510107/24/05 06:45:31  5-MIN KSTC 241245Z AUTO 34009KT 6SM HZ CLR 24/22 A2987 1080 84 2500 340/09 RMK AO2
14926KSTC STC20050724065011807/24/05 06:50:31  5-MIN KSTC 241250Z AUTO 35006KT 6SM HZ CLR 24/22 A2986 1080 84 2500 350/06 RMK AO2 SLP112 T02440217
14926KSTC STC20050724065510407/24/05 06:55:31  5-MIN KSTC 241255Z AUTO 34007KT 6SM HZ FEW090 24/22 A2986 1080 84 2500 340/07 RMK AO2
14926KSTC STC20050724070011907/24/05 07:00:31  5-MIN KSTC 241300Z AUTO 34008KT 6SM -RA FEW090 24/22 A2986 1080 84 2500 340/08 RMK AO2 RAB1259 P0000
14926KSTC STC20050724070511907/24/05 07:05:31  5-MIN KSTC 241305Z AUTO 35005KT 6SM -RA BR CLR 24/22 A2987 1080 87 2400 350/05 RMK AO2 RAB1259 P0000
14926KSTC STC20050724071011507/24/05 07:10:31  5-MIN KSTC 241310Z AUTO 34007KT 7SM CLR 24/22 A2987 1070 84 2400 340/07 RMK AO2 RAB1259E08 P0000
14926KSTC STC20050724071511507/24/05 07:15:31  5-MIN KSTC 241315Z AUTO 35007KT 7SM CLR 25/22 A2987 1070 81 2500 340/07 RMK AO2 RAB1259E08 P0000
14926KSTC STC20050724072011507/24/05 07:20:31  5-MIN KSTC 241320Z AUTO 36006KT 7SM CLR 25/22 A2987 1070 81 2500 360/06 RMK AO2 RAB1259E08 P0000
14926KSTC STC20050724072511507/24/05 07:25:31  5-MIN KSTC 241325Z AUTO 35005KT 7SM CLR 25/22 A2988 1070 81 2500 350/05 RMK AO2 RAB1259E08 P0000
14926KSTC STC20050724073011507/24/05 07:30:31  5-MIN KSTC 241330Z AUTO 36005KT 7SM CLR 25/22 A2988 1070 81 2500 360/05 RMK AO2 RAB1259E08 P0000
14926KSTC STC20050724073511507/24/05 07:35:31  5-MIN KSTC 241335Z AUTO 34006KT 7SM CLR 25/22 A2989 1050 81 2500 340/06 RMK AO2 RAB1259E08 P0000
14926KSTC STC20050724074012207/24/05 07:40:31  5-MIN KSTC 241340Z AUTO 32008KT 7SM CLR 25/22 A2990 1040 81 2500 320/08 RMK AO2 RAB1259E08 PRESRR P0000
14926KSTC STC20050724074511507/24/05 07:45:31  5-MIN KSTC 241345Z AUTO 36007KT 8SM CLR 25/22 A2987 1070 81 2500 360/07 RMK AO2 RAB1259E08 P0000
14926KSTC STC20050724075013207/24/05 07:50:31  5-MIN KSTC 241350Z AUTO 01008KT 8SM CLR 26/22 A2987 1070 79 2600 360/08 RMK AO2 RAB1259E08 SLP115 P0000 T02560217
14926KSTC STC20050724075509807/24/05 07:55:31  5-MIN KSTC 241355Z AUTO 03008KT 8SM CLR 26/22 A2987 1070 79 2600 020/08 RMK AO2
14926KSTC STC20050724080009807/24/05 08:00:31  5-MIN KSTC 241400Z AUTO 36008KT 7SM CLR 26/22 A2987 1070 76 2600 360/08 RMK AO2
14926KSTC STC20050724080510107/24/05 08:05:31  5-MIN KSTC 241405Z AUTO 01009KT 8SM FEW013 26/22 A2987 1070 79 2600 010/09 RMK AO2
14926KSTC STC20050724081009807/24/05 08:10:31  5-MIN KSTC 241410Z AUTO 01008KT 8SM CLR 25/22 A2987 1070 81 2500 360/08 RMK AO2
14926KSTC STC20050724081510107/24/05 08:15:31  5-MIN KSTC 241415Z AUTO 34008KT 8SM FEW013 25/22 A2988 1060 81 2500 340/08 RMK AO2
14926KSTC STC20050724082010107/24/05 08:20:31  5-MIN KSTC 241420Z AUTO 34007KT 7SM FEW013 25/22 A2988 1060 81 2500 340/07 RMK AO2
14926KSTC STC20050724082509807/24/05 08:25:31  5-MIN KSTC 241425Z AUTO 35006KT 8SM CLR 25/22 A2988 1060 81 2500 350/06 RMK AO2
14926KSTC STC20050724083009807/24/05 08:30:31  5-MIN KSTC 241430Z AUTO 35006KT 8SM CLR 26/22 A2988 1060 76 2600 350/06 RMK AO2
14926KSTC STC20050724083509807/24/05 08:35:31  5-MIN KSTC 241435Z AUTO 34004KT 8SM CLR 26/22 A2989 1060 76 2600 340/04 RMK AO2
14926KSTC STC20050724084009807/24/05 08:40:31  5-MIN KSTC 241440Z AUTO 34007KT 9SM CLR 26/22 A2989 1050 76 2600 340/07 RMK AO2
14926KSTC STC20050724084509907/24/05 08:45:31  5-MIN KSTC 241445Z AUTO 01004KT 10SM CLR 26/21 A2989 1050 73 2600 360/04 RMK AO2
14926KSTC STC20050724085012807/24/05 08:50:31  5-MIN KSTC 241450Z AUTO VRB05KT 10SM CLR 27/21 A2989 1050 71 2700 VRB/05 RMK AO2 SLP124 60000 T02670211 51038
14926KSTC STC20050724085509907/24/05 08:55:31  5-MIN KSTC 241455Z AUTO 34004KT 10SM CLR 27/21 A2990 1050 71 2700 340/04 RMK AO2
14926KSTC STC20050724090009907/24/05 09:00:31  5-MIN KSTC 241500Z AUTO 00000KT 10SM CLR 27/21 A2990 1050 71 2700 000/00 RMK AO2
14926KSTC STC20050724090509907/24/05 09:05:31  5-MIN KSTC 241505Z AUTO 03004KT 10SM CLR 27/21 A2989 1050 66 2700 020/04 RMK AO2
14926KSTC STC20050724091009907/24/05 09:10:31  5-MIN KSTC 241510Z AUTO VRB05KT 10SM CLR 27/21 A2989 1060 69 2700 VRB/05 RMK AO2
14926KSTC STC20050724091509907/24/05 09:15:31  5-MIN KSTC 241515Z AUTO VRB03KT 10SM CLR 28/21 A2989 1050 64 2800 VRB/03 RMK AO2
14926KSTC STC20050724092009907/24/05 09:20:31  5-MIN KSTC 241520Z AUTO 02007KT 10SM CLR 28/20 A2989 1050 62 2800 020/07 RMK AO2
14926KSTC STC20050724092509907/24/05 09:25:31  5-MIN KSTC 241525Z AUTO 03005KT 10SM CLR 28/19 A2989 1050 58 2800 030/05 RMK AO2
14926KSTC STC20050724093009907/24/05 09:30:31  5-MIN KSTC 241530Z AUTO 02006KT 10SM CLR 28/19 A2989 1050 58 2900 010/06 RMK AO2
14926KSTC STC20050724093509907/24/05 09:35:31  5-MIN KSTC 241535Z AUTO VRB04KT 10SM CLR 28/20 A2989 1050 60 2900 VRB/04 RMK AO2
14926KSTC STC20050724094009907/24/05 09:40:31  5-MIN KSTC 241540Z AUTO 03005KT 10SM CLR 28/19 A2989 1050 58 2900 020/05 RMK AO2
14926KSTC STC20050724094509907/24/05 09:45:31  5-MIN KSTC 241545Z AUTO 03006KT 10SM CLR 28/19 A2989 1060 58 2900 030/06 RMK AO2
14926KSTC STC20050724095011607/24/05 09:50:31  5-MIN KSTC 241550Z AUTO 03007KT 10SM CLR 28/19 A2989 1060 58 2900 030/07 RMK AO2 SLP122 T02830194
14926KSTC STC20050724095509907/24/05 09:55:31  5-MIN KSTC 241555Z AUTO 01006KT 10SM CLR 29/19 A2989 1050 54 2900 010/06 RMK AO2
14926KSTC STC20050724100009907/24/05 10:00:31  5-MIN KSTC 241600Z AUTO 02007KT 10SM CLR 28/18 A2990 1050 54 2900 020/07 RMK AO2
14926KSTC STC20050724100509907/24/05 10:05:31  5-MIN KSTC 241605Z AUTO 01007KT 10SM CLR 29/18 A2990 1050 52 2900 360/07 RMK AO2
14926KSTC STC20050724101009907/24/05 10:10:31  5-MIN KSTC 241610Z AUTO 01007KT 10SM CLR 29/18 A2990 1050 50 2900 010/07 RMK AO2
14926KSTC STC20050724101509907/24/05 10:15:31  5-MIN KSTC 241615Z AUTO 01006KT 10SM CLR 29/18 A2990 1050 50 2900 010/06 RMK AO2
14926KSTC STC20050724102009907/24/05 10:20:31  5-MIN KSTC 241620Z AUTO 36006KT 10SM CLR 29/18 A2990 1040 50 3000 360/06 RMK AO2
14926KSTC STC20050724102509907/24/05 10:25:31  5-MIN KSTC 241625Z AUTO 05006KT 10SM CLR 29/18 A2990 1040 49 3000 050/06 RMK AO2
14926KSTC STC20050724103009907/24/05 10:30:31  5-MIN KSTC 241630Z AUTO 02004KT 10SM CLR 29/18 A2990 1040 49 3000 010/04 RMK AO2
14926KSTC STC20050724103509907/24/05 10:35:31  5-MIN KSTC 241635Z AUTO 00000KT 10SM CLR 29/18 A2990 1040 49 3000 000/00 RMK AO2
14926KSTC STC20050724104009907/24/05 10:40:31  5-MIN KSTC 241640Z AUTO 03005KT 10SM CLR 30/18 A2991 1040 47 3000 030/05 RMK AO2
14926KSTC STC20050724104509907/24/05 10:45:31  5-MIN KSTC 241645Z AUTO 36005KT 10SM CLR 29/17 A2991 1040 47 3000 360/05 RMK AO2
14926KSTC STC20050724105011607/24/05 10:50:31  5-MIN KSTC 241650Z AUTO 02006KT 10SM CLR 30/18 A2991 1040 47 3000 020/06 RMK AO2 SLP127 T03000178
14926KSTC STC20050724105509907/24/05 10:55:31  5-MIN KSTC 241655Z AUTO 36004KT 10SM CLR 30/17 A2991 1040 45 3000 350/04 RMK AO2
14926KSTC STC20050724110009907/24/05 11:00:31  5-MIN KSTC 241700Z AUTO 01005KT 10SM CLR 31/18 A2990 1040 46 3100 010/05 RMK AO2
14926KSTC STC20050724110509907/24/05 11:05:31  5-MIN KSTC 241705Z AUTO VRB03KT 10SM CLR 31/18 A2990 1040 46 3100 VRB/03 RMK AO2
14926KSTC STC20050724111009907/24/05 11:10:31  5-MIN KSTC 241710Z AUTO VRB04KT 10SM CLR 31/18 A2991 1040 46 3100 VRB/04 RMK AO2
14926KSTC STC20050724111509907/24/05 11:15:31  5-MIN KSTC 241715Z AUTO 36006KT 10SM CLR 31/17 A2991 1040 42 3100 360/06 RMK AO2
14926KSTC STC20050724112009907/24/05 11:20:31  5-MIN KSTC 241720Z AUTO 34005KT 10SM CLR 31/17 A2991 1040 42 3100 340/05 RMK AO2
14926KSTC STC20050724112509907/24/05 11:25:31  5-MIN KSTC 241725Z AUTO 04005KT 10SM CLR 31/17 A2992 1030 42 3100 040/05 RMK AO2
14926KSTC STC20050724113009907/24/05 11:30:31  5-MIN KSTC 241730Z AUTO VRB05KT 10SM CLR 30/16 A2992 1030 41 3000 VRB/05 RMK AO2
14926KSTC STC20050724113509907/24/05 11:35:31  5-MIN KSTC 241735Z AUTO 02004KT 10SM CLR 31/17 A2993 1020 42 3100 010/04 RMK AO2
14926KSTC STC20050724114009907/24/05 11:40:31  5-MIN KSTC 241740Z AUTO VRB04KT 10SM CLR 31/17 A2993 1020 42 3100 VRB/04 RMK AO2
14926KSTC STC20050724114509907/24/05 11:45:31  5-MIN KSTC 241745Z AUTO 35005KT 10SM CLR 30/17 A2993 1010 45 3000 350/05 RMK AO2
14926KSTC STC20050724115014007/24/05 11:50:31  5-MIN KSTC 241750Z AUTO 34004KT 10SM CLR 30/17 A2994 1010 45 3000 330/04 RMK AO2 SLP138 60000 T03000172 10306 20233 53011
14926KSTC STC20050724115509907/24/05 11:55:31  5-MIN KSTC 241755Z AUTO 35005KT 10SM CLR 30/17 A2994 1010 44 3000 340/05 RMK AO2
14926KSTC STC20050724120009907/24/05 12:00:31  5-MIN KSTC 241800Z AUTO 32004KT 10SM CLR 30/17 A2994 1010 44 3000 310/04 RMK AO2
14926KSTC STC20050724120509907/24/05 12:05:31  5-MIN KSTC 241805Z AUTO 33006KT 10SM CLR 29/17 A2994 1010 47 2900 320/06 RMK AO2
14926KSTC STC20050724121009907/24/05 12:10:31  5-MIN KSTC 241810Z AUTO 32006KT 10SM CLR 29/17 A2995 1000 47 2900 320/06 RMK AO2
14926KSTC STC20050724121509907/24/05 12:15:31  5-MIN KSTC 241815Z AUTO 32006KT 10SM CLR 29/17 A2995 1000 45 2900 320/06 RMK AO2
14926KSTC STC20050724122009907/24/05 12:20:31  5-MIN KSTC 241820Z AUTO 33005KT 10SM CLR 29/17 A2995 1000 45 2900 330/05 RMK AO2
14926KSTC STC20050724122509907/24/05 12:25:31  5-MIN KSTC 241825Z AUTO 33004KT 10SM CLR 29/17 A2994 1010 47 2900 320/04 RMK AO2
14926KSTC STC20050724123009907/24/05 12:30:31  5-MIN KSTC 241830Z AUTO 00000KT 10SM CLR 29/17 A2993 1010 45 2900 000/00 RMK AO2
14926KSTC STC20050724123509907/24/05 12:35:31  5-MIN KSTC 241835Z AUTO 00000KT 10SM CLR 30/17 A2993 1020 45 3000 000/00 RMK AO2
14926KSTC STC20050724124009907/24/05 12:40:31  5-MIN KSTC 241840Z AUTO 00000KT 10SM CLR 30/17 A2994 1010 45 3000 000/00 RMK AO2
14926KSTC STC20050724124509907/24/05 12:45:31  5-MIN KSTC 241845Z AUTO 00000KT 10SM CLR 29/16 A2994 1010 44 2900 000/00 RMK AO2
14926KSTC STC20050724125011607/24/05 12:50:31  5-MIN KSTC 241850Z AUTO 34003KT 10SM CLR 29/17 A2994 1010 45 2900 340/03 RMK AO2 SLP139 T02940167
14926KSTC STC20050724125509907/24/05 12:55:31  5-MIN KSTC 241855Z AUTO 01004KT 10SM CLR 30/16 A2993 1020 42 3000 010/04 RMK AO2
14926KSTC STC20050724130009907/24/05 13:00:31  5-MIN KSTC 241900Z AUTO 00000KT 10SM CLR 29/17 A2992 1030 45 3000 000/00 RMK AO2
14926KSTC STC20050724130509907/24/05 13:05:31  5-MIN KSTC 241905Z AUTO 00000KT 10SM CLR 29/17 A2992 1020 45 2900 000/00 RMK AO2
14926KSTC STC20050724131009907/24/05 13:10:31  5-MIN KSTC 241910Z AUTO 00000KT 10SM CLR 30/16 A2993 1020 41 3000 000/00 RMK AO2
14926KSTC STC20050724131509907/24/05 13:15:31  5-MIN KSTC 241915Z AUTO 02004KT 10SM CLR 29/17 A2992 1030 45 3000 020/04 RMK AO2
14926KSTC STC20050724132009907/24/05 13:20:31  5-MIN KSTC 241920Z AUTO 00000KT 10SM CLR 29/18 A2992 1030 49 3000 000/00 RMK AO2
14926KSTC STC20050724132509907/24/05 13:25:31  5-MIN KSTC 241925Z AUTO 00000KT 10SM CLR 29/18 A2993 1010 49 2900 000/00 RMK AO2
14926KSTC STC20050724133009907/24/05 13:30:31  5-MIN KSTC 241930Z AUTO 33004KT 10SM CLR 29/18 A2994 1010 52 2900 320/04 RMK AO2
14926KSTC STC20050724133509907/24/05 13:35:31  5-MIN KSTC 241935Z AUTO VRB04KT 10SM CLR 29/18 A2992 1030 52 2900 VRB/04 RMK AO2
14926KSTC STC20050724134009907/24/05 13:40:31  5-MIN KSTC 241940Z AUTO VRB03KT 10SM CLR 28/18 A2992 1030 52 2800 VRB/03 RMK AO2
14926KSTC STC20050724134509907/24/05 13:45:31  5-MIN KSTC 241945Z AUTO 00000KT 10SM CLR 28/18 A2991 1030 54 2800 000/00 RMK AO2
14926KSTC STC20050724135011607/24/05 13:50:31  5-MIN KSTC 241950Z AUTO 06004KT 10SM CLR 28/19 A2991 1030 60 2800 060/04 RMK AO2 SLP130 T02780194
14926KSTC STC20050724135509907/24/05 13:55:31  5-MIN KSTC 241955Z AUTO 35004KT 10SM CLR 28/20 A2993 1020 60 2800 340/04 RMK AO2
14926KSTC STC20050724140009907/24/05 14:00:31  5-MIN KSTC 242000Z AUTO 36004KT 10SM CLR 28/19 A2993 1020 58 2800 350/04 RMK AO2
14926KSTC STC20050724140509907/24/05 14:05:31  5-MIN KSTC 242005Z AUTO 00000KT 10SM CLR 28/19 A2993 1020 58 2800 000/00 RMK AO2
14926KSTC STC20050724141009907/24/05 14:10:31  5-MIN KSTC 242010Z AUTO 00000KT 10SM CLR 28/19 A2993 1020 56 2800 000/00 RMK AO2
14926KSTC STC20050724141509907/24/05 14:15:31  5-MIN KSTC 242015Z AUTO 00000KT 10SM CLR 28/19 A2993 1010 56 2800 000/00 RMK AO2
14926KSTC STC20050724142009907/24/05 14:20:31  5-MIN KSTC 242020Z AUTO 00000KT 10SM CLR 28/19 A2994 1010 56 2800 000/00 RMK AO2
14926KSTC STC20050724142509907/24/05 14:25:31  5-MIN KSTC 242025Z AUTO 00000KT 10SM CLR 29/19 A2994 1010 54 2900 000/00 RMK AO2
14926KSTC STC20050724143009907/24/05 14:30:31  5-MIN KSTC 242030Z AUTO 00000KT 10SM CLR 29/18 A2994 1010 52 2900 000/00 RMK AO2
14926KSTC STC20050724143509907/24/05 14:35:31  5-MIN KSTC 242035Z AUTO 30003KT 10SM CLR 29/17 A2994 1010 48 2900 300/03 RMK AO2
14926KSTC STC20050724144009907/24/05 14:40:31  5-MIN KSTC 242040Z AUTO 00000KT 10SM CLR 29/18 A2994 1010 50 2900 000/00 RMK AO2
14926KSTC STC20050724144509907/24/05 14:45:31  5-MIN KSTC 242045Z AUTO 00000KT 10SM CLR 29/17 A2994 1010 45 2900 000/00 RMK AO2
14926KSTC STC20050724145012207/24/05 14:50:31  5-MIN KSTC 242050Z AUTO 22003KT 10SM CLR 29/18 A2994 1010 50 2900 210/03 RMK AO2 SLP139 T02940183 53015
14926KSTC STC20050724145509907/24/05 14:55:31  5-MIN KSTC 242055Z AUTO 21006KT 10SM CLR 28/21 A2994 1010 62 2800 200/06 RMK AO2
14926KSTC STC20050724150009907/24/05 15:00:31  5-MIN KSTC 242100Z AUTO 19004KT 10SM CLR 28/21 A2994 1010 62 2800 190/04 RMK AO2
14926KSTC STC20050724150509907/24/05 15:05:31  5-MIN KSTC 242105Z AUTO 21004KT 10SM CLR 28/20 A2994 1010 60 2800 210/04 RMK AO2
14926KSTC STC20050724151009907/24/05 15:10:31  5-MIN KSTC 242110Z AUTO 24006KT 10SM CLR 28/20 A2994 1010 60 2800 230/06 RMK AO2
14926KSTC STC20050724151509907/24/05 15:15:31  5-MIN KSTC 242115Z AUTO 23005KT 10SM CLR 28/19 A2994 1010 58 2800 220/05 RMK AO2
14926KSTC STC20050724152009907/24/05 15:20:31  5-MIN KSTC 242120Z AUTO 23005KT 10SM CLR 28/19 A2994 1010 58 2800 230/05 RMK AO2
14926KSTC STC20050724152509907/24/05 15:25:31  5-MIN KSTC 242125Z AUTO 23005KT 10SM CLR 28/19 A2994 1010 56 2800 230/05 RMK AO2
14926KSTC STC20050724153009907/24/05 15:30:31  5-MIN KSTC 242130Z AUTO 22005KT 10SM CLR 28/20 A2994 1010 60 2800 220/05 RMK AO2
14926KSTC STC20050724153509907/24/05 15:35:31  5-MIN KSTC 242135Z AUTO 23005KT 10SM CLR 28/20 A2994 1010 60 2800 230/05 RMK AO2
14926KSTC STC20050724154009907/24/05 15:40:31  5-MIN KSTC 242140Z AUTO 22005KT 10SM CLR 28/20 A2994 1010 62 2700 220/05 RMK AO2
14926KSTC STC20050724154509907/24/05 15:45:31  5-MIN KSTC 242145Z AUTO 22004KT 10SM CLR 28/20 A2994 1010 62 2700 210/04 RMK AO2
14926KSTC STC20050724155011607/24/05 15:50:31  5-MIN KSTC 242150Z AUTO 22005KT 10SM CLR 28/21 A2994 1010 64 2700 210/05 RMK AO2 SLP140 T02780206
14926KSTC STC20050724155509907/24/05 15:55:31  5-MIN KSTC 242155Z AUTO 23005KT 10SM CLR 28/21 A2994 1010 64 2700 220/05 RMK AO2
14926KSTC STC20050724160009907/24/05 16:00:31  5-MIN KSTC 242200Z AUTO 23004KT 10SM CLR 28/21 A2994 1010 64 2700 220/04 RMK AO2
14926KSTC STC20050724160509907/24/05 16:05:31  5-MIN KSTC 242205Z AUTO 23004KT 10SM CLR 28/20 A2994 1010 62 2700 230/04 RMK AO2
14926KSTC STC20050724161009907/24/05 16:10:31  5-MIN KSTC 242210Z AUTO 24004KT 10SM CLR 28/20 A2994 1010 62 2700 230/04 RMK AO2
14926KSTC STC20050724161509907/24/05 16:15:31  5-MIN KSTC 242215Z AUTO 24004KT 10SM CLR 28/20 A2994 1010 60 2800 240/04 RMK AO2
14926KSTC STC20050724162009907/24/05 16:20:31  5-MIN KSTC 242220Z AUTO 25005KT 10SM CLR 28/20 A2994 1010 60 2800 240/05 RMK AO2
14926KSTC STC20050724162509907/24/05 16:25:31  5-MIN KSTC 242225Z AUTO 24004KT 10SM CLR 28/20 A2993 1020 60 2800 240/04 RMK AO2
14926KSTC STC20050724163009907/24/05 16:30:31  5-MIN KSTC 242230Z AUTO 24004KT 10SM CLR 28/20 A2993 1020 60 2800 240/04 RMK AO2
14926KSTC STC20050724163509907/24/05 16:35:31  5-MIN KSTC 242235Z AUTO 26005KT 10SM CLR 29/20 A2993 1020 58 2900 260/05 RMK AO2
14926KSTC STC20050724164009907/24/05 16:40:31  5-MIN KSTC 242240Z AUTO 24004KT 10SM CLR 29/19 A2993 1020 54 2900 230/04 RMK AO2
14926KSTC STC20050724164509907/24/05 16:45:31  5-MIN KSTC 242245Z AUTO 24004KT 10SM CLR 29/18 A2993 1020 52 2900 230/04 RMK AO2
14926KSTC STC20050724165011607/24/05 16:50:31  5-MIN KSTC 242250Z AUTO 25004KT 10SM CLR 29/18 A2993 1020 50 2900 240/04 RMK AO2 SLP135 T02890178
14926KSTC STC20050724165509907/24/05 16:55:31  5-MIN KSTC 242255Z AUTO 23005KT 10SM CLR 29/18 A2993 1020 49 2900 230/05 RMK AO2
14926KSTC STC20050724170009907/24/05 17:00:31  5-MIN KSTC 242300Z AUTO 23004KT 10SM CLR 29/18 A2993 1020 50 2900 230/04 RMK AO2
14926KSTC STC20050724170509907/24/05 17:05:31  5-MIN KSTC 242305Z AUTO 22004KT 10SM CLR 29/18 A2992 1020 50 2900 220/04 RMK AO2
14926KSTC STC20050724171009907/24/05 17:10:31  5-MIN KSTC 242310Z AUTO 20003KT 10SM CLR 29/17 A2992 1030 47 3000 200/03 RMK AO2
14926KSTC STC20050724171509907/24/05 17:15:31  5-MIN KSTC 242315Z AUTO 00000KT 10SM CLR 29/18 A2992 1030 49 3000 000/00 RMK AO2
14926KSTC STC20050724172009907/24/05 17:20:31  5-MIN KSTC 242320Z AUTO 21003KT 10SM CLR 29/18 A2991 1030 49 3000 210/03 RMK AO2
14926KSTC STC20050724172509907/24/05 17:25:31  5-MIN KSTC 242325Z AUTO 19003KT 10SM CLR 29/17 A2991 1040 47 3000 190/03 RMK AO2
14926KSTC STC20050724173009907/24/05 17:30:31  5-MIN KSTC 242330Z AUTO 19003KT 10SM CLR 29/17 A2991 1040 47 3000 190/03 RMK AO2
14926KSTC STC20050724173509907/24/05 17:35:31  5-MIN KSTC 242335Z AUTO 19003KT 10SM CLR 29/17 A2990 1040 45 3000 180/03 RMK AO2
14926KSTC STC20050724174009907/24/05 17:40:31  5-MIN KSTC 242340Z AUTO 21003KT 10SM CLR 29/17 A2990 1040 45 3000 200/03 RMK AO2
14926KSTC STC20050724174509907/24/05 17:45:31  5-MIN KSTC 242345Z AUTO 00000KT 10SM CLR 29/16 A2990 1040 42 3000 000/00 RMK AO2
14926KSTC STC20050724175013407/24/05 17:50:31  5-MIN KSTC 242350Z AUTO 21003KT 10SM CLR 29/16 A2990 1040 42 3000 210/03 RMK AO2 SLP127 T02940156 10306 20278 53000
14926KSTC STC20050724175509907/24/05 17:55:31  5-MIN KSTC 242355Z AUTO 21005KT 10SM CLR 29/17 A2991 1040 47 2900 200/05 RMK AO2
14926KSTC STC20050724180009907/24/05 18:00:31  5-MIN KSTC 250000Z AUTO 21006KT 10SM CLR 29/17 A2991 1040 48 2900 200/06 RMK AO2
14926KSTC STC20050724180509907/24/05 18:05:31  5-MIN KSTC 250005Z AUTO 21004KT 10SM CLR 29/18 A2991 1040 50 2900 210/04 RMK AO2
14926KSTC STC20050724181009907/24/05 18:10:31  5-MIN KSTC 250010Z AUTO 21003KT 10SM CLR 29/18 A2990 1040 50 2900 210/03 RMK AO2
14926KSTC STC20050724181509907/24/05 18:15:31  5-MIN KSTC 250015Z AUTO 00000KT 10SM CLR 29/18 A2990 1040 52 2900 000/00 RMK AO2
14926KSTC STC20050724182009907/24/05 18:20:31  5-MIN KSTC 250020Z AUTO 00000KT 10SM CLR 29/18 A2990 1050 52 2900 000/00 RMK AO2
14926KSTC STC20050724182509907/24/05 18:25:31  5-MIN KSTC 250025Z AUTO 00000KT 10SM CLR 28/18 A2989 1050 54 2900 000/00 RMK AO2
14926KSTC STC20050724183009907/24/05 18:30:31  5-MIN KSTC 250030Z AUTO 00000KT 10SM CLR 28/18 A2989 1050 54 2900 000/00 RMK AO2
14926KSTC STC20050724183509907/24/05 18:35:31  5-MIN KSTC 250035Z AUTO 00000KT 10SM CLR 28/19 A2989 1050 56 2900 000/00 RMK AO2
14926KSTC STC20050724184009907/24/05 18:40:31  5-MIN KSTC 250040Z AUTO 00000KT 10SM CLR 28/20 A2989 1060 60 2900 000/00 RMK AO2
14926KSTC STC20050724184509907/24/05 18:45:31  5-MIN KSTC 250045Z AUTO 00000KT 10SM CLR 28/21 A2989 1060 64 2900 000/00 RMK AO2
14926KSTC STC20050724185011607/24/05 18:50:31  5-MIN KSTC 250050Z AUTO 00000KT 10SM CLR 28/21 A2989 1060 66 2800 000/00 RMK AO2 SLP122 T02780211
14926KSTC STC20050724185509907/24/05 18:55:31  5-MIN KSTC 250055Z AUTO 00000KT 10SM CLR 27/22 A2989 1050 71 2700 000/00 RMK AO2
14926KSTC STC20050724190009907/24/05 19:00:31  5-MIN KSTC 250100Z AUTO 00000KT 10SM CLR 28/22 A2989 1050 69 2800 000/00 RMK AO2
14926KSTC STC20050724190509907/24/05 19:05:31  5-MIN KSTC 250105Z AUTO 00000KT 10SM CLR 27/22 A2990 1050 76 2700 000/00 RMK AO2
14926KSTC STC20050724191009907/24/05 19:10:31  5-MIN KSTC 250110Z AUTO 00000KT 10SM CLR 27/22 A2990 1050 73 2700 000/00 RMK AO2
14926KSTC STC20050724191509907/24/05 19:15:31  5-MIN KSTC 250115Z AUTO 00000KT 10SM CLR 26/22 A2990 1050 76 2600 000/00 RMK AO2
14926KSTC STC20050724192009907/24/05 19:20:31  5-MIN KSTC 250120Z AUTO 00000KT 10SM CLR 26/22 A2990 1050 76 2600 000/00 RMK AO2
14926KSTC STC20050724192509907/24/05 19:25:31  5-MIN KSTC 250125Z AUTO 00000KT 10SM CLR 26/21 A2990 1050 73 2600 000/00 RMK AO2
14926KSTC STC20050724193009907/24/05 19:30:31  5-MIN KSTC 250130Z AUTO 00000KT 10SM CLR 25/22 A2990 1050 84 2500 000/00 RMK AO2
14926KSTC STC20050724193509907/24/05 19:35:31  5-MIN KSTC 250135Z AUTO 00000KT 10SM CLR 24/22 A2990 1050 84 2400 000/00 RMK AO2
14926KSTC STC20050724194009907/24/05 19:40:31  5-MIN KSTC 250140Z AUTO 00000KT 10SM CLR 24/21 A2990 1050 81 2400 000/00 RMK AO2
14926KSTC STC20050724194509907/24/05 19:45:31  5-MIN KSTC 250145Z AUTO 00000KT 10SM CLR 24/21 A2990 1040 84 2400 000/00 RMK AO2
14926KSTC STC20050724195011607/24/05 19:50:31  5-MIN KSTC 250150Z AUTO 00000KT 10SM CLR 23/21 A2990 1040 84 2300 000/00 RMK AO2 SLP128 T02330206
14926KSTC STC20050724195509907/24/05 19:55:31  5-MIN KSTC 250155Z AUTO 00000KT 10SM CLR 23/21 A2991 1040 84 2300 000/00 RMK AO2
14926KSTC STC20050724200009907/24/05 20:00:31  5-MIN KSTC 250200Z AUTO 00000KT 10SM CLR 23/21 A2991 1040 84 2300 000/00 RMK AO2
14926KSTC STC20050724200509907/24/05 20:05:31  5-MIN KSTC 250205Z AUTO 00000KT 10SM CLR 23/21 A2991 1030 87 2200 000/00 RMK AO2
14926KSTC STC20050724201009907/24/05 20:10:31  5-MIN KSTC 250210Z AUTO 00000KT 10SM CLR 23/21 A2991 1040 87 2200 000/00 RMK AO2
14926KSTC STC20050724201509907/24/05 20:15:31  5-MIN KSTC 250215Z AUTO 00000KT 10SM CLR 22/21 A2991 1030 90 2100 000/00 RMK AO2
14926KSTC STC20050724202009907/24/05 20:20:31  5-MIN KSTC 250220Z AUTO 00000KT 10SM CLR 22/21 A2992 1030 90 2100 000/00 RMK AO2
14926KSTC STC20050724202509907/24/05 20:25:31  5-MIN KSTC 250225Z AUTO 00000KT 10SM CLR 22/21 A2992 1030 90 2100 000/00 RMK AO2
14926KSTC STC20050724203009907/24/05 20:30:31  5-MIN KSTC 250230Z AUTO 00000KT 10SM CLR 22/21 A2992 1030 90 2100 000/00 RMK AO2
14926KSTC STC20050724203509907/24/05 20:35:31  5-MIN KSTC 250235Z AUTO 00000KT 10SM CLR 22/21 A2992 1020 93 2100 000/00 RMK AO2
14926KSTC STC20050724204009907/24/05 20:40:31  5-MIN KSTC 250240Z AUTO 00000KT 10SM CLR 22/20 A2993 1020 90 2100 000/00 RMK AO2
14926KSTC STC20050724204509907/24/05 20:45:31  5-MIN KSTC 250245Z AUTO 00000KT 10SM CLR 21/20 A2992 1020 93 2000 000/00 RMK AO2
14926KSTC STC20050724205012207/24/05 20:50:31  5-MIN KSTC 250250Z AUTO 00000KT 10SM CLR 21/20 A2992 1020 93 2000 000/00 RMK AO2 SLP135 T02110200 58011
14926KSTC STC20050724205509907/24/05 20:55:31  5-MIN KSTC 250255Z AUTO 00000KT 10SM CLR 21/20 A2993 1020 93 2000 000/00 RMK AO2
14926KSTC STC20050724210009907/24/05 21:00:31  5-MIN KSTC 250300Z AUTO 00000KT 10SM CLR 21/20 A2993 1020 93 2000 000/00 RMK AO2
14926KSTC STC20050724210509907/24/05 21:05:31  5-MIN KSTC 250305Z AUTO 00000KT 10SM CLR 21/20 A2993 1020 93 2000 000/00 RMK AO2
14926KSTC STC20050724211009907/24/05 21:10:31  5-MIN KSTC 250310Z AUTO 00000KT 10SM CLR 21/20 A2993 1020 93 2000 000/00 RMK AO2
14926KSTC STC20050724211509907/24/05 21:15:31  5-MIN KSTC 250315Z AUTO 00000KT 10SM CLR 21/19 A2993 1020 90 2000 000/00 RMK AO2
14926KSTC STC20050724212009907/24/05 21:20:31  5-MIN KSTC 250320Z AUTO 00000KT 10SM CLR 21/19 A2994 1010 93 1900 000/00 RMK AO2
14926KSTC STC20050724212509807/24/05 21:25:31  5-MIN KSTC 250325Z AUTO 00000KT 9SM CLR 21/19 A2993 1010 93 1900 000/00 RMK AO2
14926KSTC STC20050724213009907/24/05 21:30:31  5-MIN KSTC 250330Z AUTO 15004KT 10SM CLR 20/19 A2993 1010 97 1900 150/04 RMK AO2
14926KSTC STC20050724213509907/24/05 21:35:31  5-MIN KSTC 250335Z AUTO 15004KT 10SM CLR 21/19 A2993 1010 93 1900 140/04 RMK AO2
14926KSTC STC20050724214009907/24/05 21:40:31  5-MIN KSTC 250340Z AUTO 00000KT 10SM CLR 20/19 A2993 1020 93 1900 000/00 RMK AO2
14926KSTC STC20050724214509907/24/05 21:45:31  5-MIN KSTC 250345Z AUTO 00000KT 10SM CLR 20/19 A2993 1020 93 1900 000/00 RMK AO2
14926KSTC STC20050724215011607/24/05 21:50:31  5-MIN KSTC 250350Z AUTO 00000KT 10SM CLR 20/19 A2993 1020 93 1900 000/00 RMK AO2 SLP137 T02000189
14926KSTC STC20050724215509907/24/05 21:55:31  5-MIN KSTC 250355Z AUTO 00000KT 10SM CLR 20/19 A2993 1020 97 1900 000/00 RMK AO2
14926KSTC STC20050724220009807/24/05 22:00:31  5-MIN KSTC 250400Z AUTO 00000KT 9SM CLR 20/19 A2992 1020 93 1900 000/00 RMK AO2
14926KSTC STC20050724220509807/24/05 22:05:31  5-MIN KSTC 250405Z AUTO 14003KT 9SM CLR 20/19 A2992 1030 93 1900 130/03 RMK AO2
14926KSTC STC20050724221009807/24/05 22:10:31  5-MIN KSTC 250410Z AUTO 00000KT 9SM CLR 20/19 A2992 1020 93 1900 000/00 RMK AO2
14926KSTC STC20050724221509807/24/05 22:15:31  5-MIN KSTC 250415Z AUTO 00000KT 9SM CLR 20/19 A2993 1020 93 1900 000/00 RMK AO2
14926KSTC STC20050724222009807/24/05 22:20:31  5-MIN KSTC 250420Z AUTO 00000KT 8SM CLR 19/18 A2993 1020 93 1800 000/00 RMK AO2
14926KSTC STC20050724222509807/24/05 22:25:31  5-MIN KSTC 250425Z AUTO 00000KT 8SM CLR 19/19 A2992 1020 97 1800 000/00 RMK AO2
14926KSTC STC20050724223009807/24/05 22:30:31  5-MIN KSTC 250430Z AUTO 00000KT 7SM CLR 19/18 A2992 1030 97 1800 000/00 RMK AO2
14926KSTC STC20050724223509807/24/05 22:35:31  5-MIN KSTC 250435Z AUTO 00000KT 7SM CLR 19/18 A2992 1030 93 1800 000/00 RMK AO2
14926KSTC STC20050724224009807/24/05 22:40:31  5-MIN KSTC 250440Z AUTO 00000KT 7SM CLR 19/18 A2992 1030 93 1800 000/00 RMK AO2
14926KSTC STC20050724224509807/24/05 22:45:31  5-MIN KSTC 250445Z AUTO 00000KT 7SM CLR 19/18 A2992 1030 93 1800 000/00 RMK AO2
14926KSTC STC20050724225011507/24/05 22:50:31  5-MIN KSTC 250450Z AUTO 00000KT 7SM CLR 19/19 A2991 1030 97 1800 000/00 RMK AO2 SLP130 T01940189
14926KSTC STC20050724225509807/24/05 22:55:31  5-MIN KSTC 250455Z AUTO 00000KT 8SM CLR 19/18 A2991 1030 93 1800 000/00 RMK AO2
14926KSTC STC20050724230009807/24/05 23:00:31  5-MIN KSTC 250500Z AUTO 00000KT 8SM CLR 19/18 A2992 1030 93 1800 000/00 RMK AO2
14926KSTC STC20050724230509807/24/05 23:05:31  5-MIN KSTC 250505Z AUTO 00000KT 8SM CLR 21/18 A2992 1030 87 2000 000/00 RMK AO2
14926KSTC STC20050724231009807/24/05 23:10:31  5-MIN KSTC 250510Z AUTO 00000KT 7SM CLR 19/18 A2992 1030 97 1800 000/00 RMK AO2
14926KSTC STC20050724231510107/24/05 23:15:31  5-MIN KSTC 250515Z AUTO 00000KT 6SM BR CLR 19/18 A2991 1040 97 1800 000/00 RMK AO2
14926KSTC STC20050724232010107/24/05 23:20:31  5-MIN KSTC 250520Z AUTO 00000KT 5SM BR CLR 19/18 A2991 1040 97 1800 000/00 RMK AO2
14926KSTC STC20050724232509807/24/05 23:25:31  5-MIN KSTC 250525Z AUTO 00000KT 7SM CLR 19/18 A2991 1040 97 1800 000/00 RMK AO2
14926KSTC STC20050724233010107/24/05 23:30:31  5-MIN KSTC 250530Z AUTO 00000KT 6SM BR CLR 19/18 A2991 1040 93 1800 000/00 RMK AO2
14926KSTC STC20050724233510107/24/05 23:35:31  5-MIN KSTC 250535Z AUTO 00000KT 5SM BR CLR 18/18 A2990 1040 96 1700 000/00 RMK AO2
14926KSTC STC20050724234010107/24/05 23:40:31  5-MIN KSTC 250540Z AUTO 00000KT 4SM BR CLR 18/18 A2990 1040 96 1700 000/00 RMK AO2
14926KSTC STC20050724234510107/24/05 23:45:31  5-MIN KSTC 250545Z AUTO 00000KT 5SM BR CLR 19/18 A2990 1040 97 1800 000/00 RMK AO2
14926KSTC STC20050724235014307/24/05 23:50:31  5-MIN KSTC 250550Z AUTO 00000KT 7SM CLR 19/18 A2991 1040 97 1800 000/00 RMK AO2 SLP129 T01890183 10294 20183 403060183 53006
14926KSTC STC20050724235509807/24/05 23:55:31  5-MIN KSTC 250555Z AUTO 00000KT 8SM CLR 19/18 A2991 1040 97 1800 000/00 RMK AO2
14926KSTC STC20050725000009807/25/05 00:00:32  5-MIN KSTC 250600Z AUTO 00000KT 9SM CLR 19/18 A2991 1030 93 1800 000/00 RMK AO2
14926KSTC STC20050725000509807/25/05 00:05:31  5-MIN KSTC 250605Z AUTO 00000KT 9SM CLR 19/18 A2992 1030 93 1800 000/00 RMK AO2
14926KSTC STC20050725001009907/25/05 00:10:31  5-MIN KSTC 250610Z AUTO 00000KT 10SM CLR 19/18 A2992 1030 93 1800 000/00 RMK AO2
14926KSTC STC20050725001509807/25/05 00:15:31  5-MIN KSTC 250615Z AUTO 00000KT 9SM CLR 19/18 A2992 1030 93 1800 000/00 RMK AO2
14926KSTC STC20050725002009807/25/05 00:20:31  5-MIN KSTC 250620Z AUTO 00000KT 9SM CLR 19/18 A2992 1030 93 1800 000/00 RMK AO2
14926KSTC STC20050725002510107/25/05 00:25:31  5-MIN KSTC 250625Z AUTO 00000KT 6SM BR CLR 18/17 A2992 1030 93 1700 000/00 RMK AO2
14926KSTC STC20050725003010107/25/05 00:30:31  5-MIN KSTC 250630Z AUTO 00000KT 5SM BR CLR 18/17 A2992 1030 93 1700 000/00 RMK AO2
14926KSTC STC20050725003510507/25/05 00:35:31  5-MIN KSTC 250635Z AUTO 00000KT 2 1/2SM BR CLR 18/17 A2992 1030 96 1600 000/00 RMK AO2
14926KSTC STC20050725004010107/25/05 00:40:31  5-MIN KSTC 250640Z AUTO 02004KT 2SM BR CLR 18/17 A2991 1030 96 1600 010/04 RMK AO2
14926KSTC STC20050725004510107/25/05 00:45:31  5-MIN KSTC 250645Z AUTO 00000KT 4SM BR CLR 18/17 A2991 1030 96 1600 000/00 RMK AO2
14926KSTC STC20050725005011807/25/05 00:50:31  5-MIN KSTC 250650Z AUTO 00000KT 5SM BR CLR 18/18 A2992 1030 96 1700 000/00 RMK AO2 SLP134 T01830178
14926KSTC STC20050725005510107/25/05 00:55:31  5-MIN KSTC 250655Z AUTO 00000KT 6SM BR CLR 18/18 A2992 1030 96 1700 000/00 RMK AO2
14926KSTC STC20050725010010107/25/05 01:00:31  5-MIN KSTC 250700Z AUTO 00000KT 5SM BR CLR 18/18 A2992 1020 96 1700 000/00 RMK AO2
14926KSTC STC20050725010510107/25/05 01:05:31  5-MIN KSTC 250705Z AUTO 00000KT 6SM BR CLR 18/18 A2992 1020 96 1700 000/00 RMK AO2
14926KSTC STC20050725011009807/25/05 01:10:31  5-MIN KSTC 250710Z AUTO 00000KT 7SM CLR 18/18 A2992 1030 96 1700 000/00 RMK AO2
14926KSTC STC20050725011509807/25/05 01:15:31  5-MIN KSTC 250715Z AUTO 00000KT 9SM CLR 19/18 A2992 1030 93 1800 000/00 RMK AO2
14926KSTC STC20050725012009807/25/05 01:20:31  5-MIN KSTC 250720Z AUTO 00000KT 8SM CLR 18/17 A2991 1040 93 1700 000/00 RMK AO2
14926KSTC STC20050725012510107/25/05 01:25:31  5-MIN KSTC 250725Z AUTO 00000KT 5SM BR CLR 18/17 A2991 1040 93 1700 000/00 RMK AO2
14926KSTC STC20050725013010107/25/05 01:30:31  5-MIN KSTC 250730Z AUTO 00000KT 4SM BR CLR 18/17 A2991 1030 93 1700 000/00 RMK AO2
14926KSTC STC20050725013510107/25/05 01:35:31  5-MIN KSTC 250735Z AUTO 00000KT 5SM BR CLR 18/17 A2991 1030 93 1700 000/00 RMK AO2
14926KSTC STC20050725014009807/25/05 01:40:31  5-MIN KSTC 250740Z AUTO 00000KT 7SM CLR 18/17 A2991 1040 93 1700 000/00 RMK AO2
14926KSTC STC20050725014510107/25/05 01:45:31  5-MIN KSTC 250745Z AUTO 00000KT 5SM BR CLR 18/17 A2991 1040 93 1700 000/00 RMK AO2
14926KSTC STC20050725015011807/25/05 01:50:31  5-MIN KSTC 250750Z AUTO 00000KT 5SM BR CLR 18/17 A2992 1030 93 1700 000/00 RMK AO2 SLP134 T01830172
14926KSTC STC20050725015510107/25/05 01:55:31  5-MIN KSTC 250755Z AUTO 00000KT 5SM BR CLR 18/18 A2992 1030 96 1700 000/00 RMK AO2
14926KSTC STC20050725020010107/25/05 02:00:31  5-MIN KSTC 250800Z AUTO 00000KT 6SM BR CLR 18/17 A2992 1030 93 1700 000/00 RMK AO2
14926KSTC STC20050725020509807/25/05 02:05:31  5-MIN KSTC 250805Z AUTO 00000KT 7SM CLR 18/17 A2992 1030 93 1700 000/00 RMK AO2
14926KSTC STC20050725021009807/25/05 02:10:31  5-MIN KSTC 250810Z AUTO 00000KT 7SM CLR 18/18 A2991 1030 96 1700 000/00 RMK AO2
14926KSTC STC20050725021509807/25/05 02:15:31  5-MIN KSTC 250815Z AUTO 00000KT 7SM CLR 18/18 A2991 1030 96 1700 000/00 RMK AO2
14926KSTC STC20050725022010107/25/05 02:20:31  5-MIN KSTC 250820Z AUTO 00000KT 4SM BR CLR 18/17 A2991 1030 96 1600 000/00 RMK AO2
14926KSTC STC20050725022510107/25/05 02:25:31  5-MIN KSTC 250825Z AUTO 36004KT 4SM BR CLR 18/17 A2992 1030 96 1600 360/04 RMK AO2
14926KSTC STC20050725023010107/25/05 02:30:31  5-MIN KSTC 250830Z AUTO 01005KT 6SM BR CLR 18/17 A2992 1030 93 1700 010/05 RMK AO2
14926KSTC STC20050725023509807/25/05 02:35:31  5-MIN KSTC 250835Z AUTO 00000KT 9SM CLR 18/17 A2992 1030 93 1700 000/00 RMK AO2
14926KSTC STC20050725024009807/25/05 02:40:31  5-MIN KSTC 250840Z AUTO 06004KT 8SM CLR 18/18 A2991 1030 96 1700 060/04 RMK AO2
14926KSTC STC20050725024509807/25/05 02:45:31  5-MIN KSTC 250845Z AUTO 06003KT 8SM CLR 18/18 A2992 1030 96 1700 060/03 RMK AO2
14926KSTC STC20050725025012107/25/05 02:50:31  5-MIN KSTC 250850Z AUTO 06004KT 8SM CLR 18/18 A2991 1030 96 1700 050/04 RMK AO2 SLP132 T01830178 58006
14926KSTC STC20050725025509807/25/05 02:55:31  5-MIN KSTC 250855Z AUTO 03004KT 7SM CLR 18/17 A2991 1030 93 1700 030/04 RMK AO2
14926KSTC STC20050725030009807/25/05 03:00:31  5-MIN KSTC 250900Z AUTO 00000KT 7SM CLR 18/17 A2992 1030 93 1700 000/00 RMK AO2
14926KSTC STC20050725030509807/25/05 03:05:31  5-MIN KSTC 250905Z AUTO 00000KT 8SM CLR 18/17 A2991 1040 93 1700 000/00 RMK AO2
14926KSTC STC20050725031009807/25/05 03:10:31  5-MIN KSTC 250910Z AUTO 00000KT 8SM CLR 18/17 A2991 1030 93 1700 000/00 RMK AO2
14926KSTC STC20050725031509807/25/05 03:15:31  5-MIN KSTC 250915Z AUTO 00000KT 8SM CLR 18/17 A2991 1040 93 1700 000/00 RMK AO2
14926KSTC STC20050725032009807/25/05 03:20:31  5-MIN KSTC 250920Z AUTO 06003KT 8SM CLR 18/17 A2991 1040 93 1700 050/03 RMK AO2
14926KSTC STC20050725032509807/25/05 03:25:31  5-MIN KSTC 250925Z AUTO 00000KT 8SM CLR 18/17 A2990 1040 93 1700 000/00 RMK AO2
14926KSTC STC20050725033009807/25/05 03:30:31  5-MIN KSTC 250930Z AUTO 08003KT 8SM CLR 18/17 A2990 1050 93 1700 070/03 RMK AO2
14926KSTC STC20050725033509807/25/05 03:35:31  5-MIN KSTC 250935Z AUTO 00000KT 8SM CLR 18/17 A2990 1050 93 1700 000/00 RMK AO2
14926KSTC STC20050725034010107/25/05 03:40:31  5-MIN KSTC 250940Z AUTO 00000KT 7SM FEW110 18/17 A2990 1040 93 1700 000/00 RMK AO2
14926KSTC STC20050725034510107/25/05 03:45:31  5-MIN KSTC 250945Z AUTO 00000KT 7SM SCT110 18/17 A2990 1040 96 1700 000/00 RMK AO2
14926KSTC STC20050725035011807/25/05 03:50:31  5-MIN KSTC 250950Z AUTO 35003KT 7SM BKN110 18/17 A2990 1050 96 1700 350/03 RMK AO2 SLP128 T01780172
14926KSTC STC20050725035510107/25/05 03:55:31  5-MIN KSTC 250955Z AUTO 30003KT 7SM BKN110 18/17 A2990 1050 96 1700 300/03 RMK AO2
14926KSTC STC20050725040010107/25/05 04:00:31  5-MIN KSTC 251000Z AUTO 00000KT 8SM BKN110 18/17 A2989 1050 93 1700 000/00 RMK AO2
14926KSTC STC20050725040510107/25/05 04:05:31  5-MIN KSTC 251005Z AUTO 00000KT 8SM BKN110 18/17 A2990 1050 93 1700 000/00 RMK AO2
14926KSTC STC20050725041010107/25/05 04:10:31  5-MIN KSTC 251010Z AUTO 00000KT 8SM BKN110 18/17 A2990 1050 93 1700 000/00 RMK AO2
14926KSTC STC20050725041510107/25/05 04:15:31  5-MIN KSTC 251015Z AUTO 00000KT 8SM BKN110 18/17 A2989 1050 96 1700 000/00 RMK AO2
14926KSTC STC20050725042010107/25/05 04:20:31  5-MIN KSTC 251020Z AUTO 00000KT 8SM SCT110 18/17 A2989 1050 96 1700 000/00 RMK AO2
14926KSTC STC20050725042510107/25/05 04:25:31  5-MIN KSTC 251025Z AUTO 00000KT 7SM FEW110 17/17 A2990 1050 96 1600 000/00 RMK AO2
14926KSTC STC20050725043010407/25/05 04:30:31  5-MIN KSTC 251030Z AUTO 00000KT 5SM BR FEW110 17/17 A2990 1050 96 1600 000/00 RMK AO2
14926KSTC STC20050725043510407/25/05 04:35:31  5-MIN KSTC 251035Z AUTO 00000KT 5SM BR FEW110 18/17 A2990 1050 93 1700 000/00 RMK AO2
14926KSTC STC20050725044010407/25/05 04:40:31  5-MIN KSTC 251040Z AUTO 00000KT 6SM BR FEW110 18/17 A2990 1040 93 1600 000/00 RMK AO2
14926KSTC STC20050725044510107/25/05 04:45:31  5-MIN KSTC 251045Z AUTO 00000KT 6SM BR CLR 18/17 A2990 1040 93 1600 000/00 RMK AO2
14926KSTC STC20050725045011807/25/05 04:50:31  5-MIN KSTC 251050Z AUTO 19003KT 5SM BR CLR 17/17 A2990 1040 96 1600 190/03 RMK AO2 SLP128 T01720167
14926KSTC STC20050725045510107/25/05 04:55:31  5-MIN KSTC 251055Z AUTO 17003KT 5SM BR CLR 17/17 A2990 1050 96 1600 170/03 RMK AO2
14926KSTC STC20050725050010107/25/05 05:00:31  5-MIN KSTC 251100Z AUTO 15003KT 4SM BR CLR 17/17 A2990 1050 96 1600 150/03 RMK AO2
14926KSTC STC20050725050510107/25/05 05:05:31  5-MIN KSTC 251105Z AUTO 00000KT 4SM BR CLR 18/17 A2990 1050 93 1700 000/00 RMK AO2
14926KSTC STC20050725051010107/25/05 05:10:31  5-MIN KSTC 251110Z AUTO 00000KT 4SM BR CLR 17/17 A2990 1050 96 1600 000/00 RMK AO2
14926KSTC STC20050725051510107/25/05 05:15:31  5-MIN KSTC 251115Z AUTO 00000KT 4SM BR CLR 17/17 A2989 1050 96 1600 000/00 RMK AO2
14926KSTC STC20050725052010107/25/05 05:20:31  5-MIN KSTC 251120Z AUTO 00000KT 4SM BR CLR 17/17 A2989 1050 96 1600 000/00 RMK AO2
14926KSTC STC20050725052510107/25/05 05:25:31  5-MIN KSTC 251125Z AUTO 09004KT 4SM BR CLR 17/17 A2989 1060 96 1600 090/04 RMK AO2
14926KSTC STC20050725053010107/25/05 05:30:31  5-MIN KSTC 251130Z AUTO 11003KT 5SM BR CLR 18/17 A2989 1050 93 1700 110/03 RMK AO2
14926KSTC STC20050725053509807/25/05 05:35:31  5-MIN KSTC 251135Z AUTO 00000KT 8SM CLR 19/17 A2989 1050 90 1800 000/00 RMK AO2
14926KSTC STC20050725054009807/25/05 05:40:31  5-MIN KSTC 251140Z AUTO 04005KT 8SM CLR 18/17 A2990 1050 93 1700 030/05 RMK AO2
14926KSTC STC20050725054509807/25/05 05:45:31  5-MIN KSTC 251145Z AUTO 04004KT 7SM CLR 18/17 A2990 1040 93 1700 040/04 RMK AO2
14926KSTC STC20050725055013307/25/05 05:50:31  5-MIN KSTC 251150Z AUTO 03005KT 8SM CLR 18/17 A2991 1040 93 1700 030/05 RMK AO2 SLP130 T01830172 10189 20172 50002
14926KSTC STC20050725055509807/25/05 05:55:31  5-MIN KSTC 251155Z AUTO 02005KT 9SM CLR 18/17 A2991 1040 93 1700 020/05 RMK AO2
14926KSTC STC20050725060009807/25/05 06:00:31  5-MIN KSTC 251200Z AUTO 04003KT 9SM CLR 18/17 A2991 1030 93 1700 030/03 RMK AO2
14926KSTC STC20050725060510807/25/05 06:05:31  5-MIN KSTC 251205Z AUTO 00000KT 10SM TS CLR 19/17 A2992 1030 90 1800 000/00 RMK AO2 TSB04
14926KSTC STC20050725061010707/25/05 06:10:31  5-MIN KSTC 251210Z AUTO 00000KT 9SM TS CLR 19/17 A2993 1020 90 1800 000/00 RMK AO2 TSB04
14926KSTC STC20050725061510707/25/05 06:15:31  5-MIN KSTC 251215Z AUTO 00000KT 8SM TS CLR 19/18 A2992 1020 93 1800 000/00 RMK AO2 TSB04
14926KSTC STC20050725062010707/25/05 06:20:31  5-MIN KSTC 251220Z AUTO 05003KT 8SM CLR 18/17 A2992 1030 93 1700 050/03 RMK AO2 TSB04E17
14926KSTC STC20050725062510707/25/05 06:25:31  5-MIN KSTC 251225Z AUTO 00000KT 9SM CLR 19/17 A2992 1020 90 1800 000/00 RMK AO2 TSB04E17
14926KSTC STC20050725063010707/25/05 06:30:31  5-MIN KSTC 251230Z AUTO 04003KT 8SM CLR 19/17 A2992 1020 90 1800 030/03 RMK AO2 TSB04E17
14926KSTC STC20050725063510707/25/05 06:35:31  5-MIN KSTC 251235Z AUTO 07005KT 8SM CLR 19/17 A2992 1030 90 1800 070/05 RMK AO2 TSB04E17
14926KSTC STC20050725064010707/25/05 06:40:31  5-MIN KSTC 251240Z AUTO 08006KT 8SM CLR 19/17 A2992 1030 90 1800 080/06 RMK AO2 TSB04E17
14926KSTC STC20050725064510707/25/05 06:45:31  5-MIN KSTC 251245Z AUTO 08006KT 9SM CLR 19/18 A2992 1030 90 1800 080/06 RMK AO2 TSB04E17
14926KSTC STC20050725065012507/25/05 06:50:31  5-MIN KSTC 251250Z AUTO 08005KT 10SM CLR 19/18 A2991 1030 90 1800 070/05 RMK AO2 TSB04E17 SLP132 T01940178
14926KSTC STC20050725065509907/25/05 06:55:31  5-MIN KSTC 251255Z AUTO 10003KT 10SM CLR 20/18 A2992 1030 87 1900 100/03 RMK AO2
14926KSTC STC20050725070009907/25/05 07:00:31  5-MIN KSTC 251300Z AUTO 00000KT 10SM CLR 20/18 A2991 1040 87 1900 000/00 RMK AO2
14926KSTC STC20050725070509907/25/05 07:05:31  5-MIN KSTC 251305Z AUTO 14005KT 10SM CLR 20/18 A2991 1040 90 1900 130/05 RMK AO2
14926KSTC STC20050725071009907/25/05 07:10:31  5-MIN KSTC 251310Z AUTO 11004KT 10SM CLR 20/18 A2991 1040 90 1900 110/04 RMK AO2
14926KSTC STC20050725071509907/25/05 07:15:31  5-MIN KSTC 251315Z AUTO 12005KT 10SM CLR 20/18 A2990 1040 90 1900 120/05 RMK AO2
14926KSTC STC20050725072010207/25/05 07:20:31  5-MIN KSTC 251320Z AUTO 12006KT 10SM FEW110 21/18 A2990 1040 87 2000 110/06 RMK AO2
14926KSTC STC20050725072510207/25/05 07:25:31  5-MIN KSTC 251325Z AUTO 11006KT 10SM FEW110 21/18 A2990 1050 87 2000 110/06 RMK AO2
14926KSTC STC20050725073011107/25/05 07:30:31  5-MIN KSTC 251330Z AUTO 10006KT 10SM TS FEW110 21/18 A2990 1050 87 2000 090/06 RMK AO2 TSB28
14926KSTC STC20050725073511107/25/05 07:35:31  5-MIN KSTC 251335Z AUTO 11005KT 10SM TS SCT100 21/18 A2990 1050 87 2000 100/05 RMK AO2 TSB28
14926KSTC STC20050725074011107/25/05 07:40:31  5-MIN KSTC 251340Z AUTO 10005KT 10SM TS SCT100 21/18 A2989 1050 87 2000 100/05 RMK AO2 TSB28
14926KSTC STC20050725074511107/25/05 07:45:31  5-MIN KSTC 251345Z AUTO 09007KT 10SM BKN100 21/18 A2989 1060 84 2100 090/07 RMK AO2 TSB28E42
14926KSTC STC20050725075012807/25/05 07:50:31  5-MIN KSTC 251350Z AUTO 09008KT 10SM BKN100 21/18 A2988 1060 84 2100 090/08 RMK AO2 TSB28E42 SLP122 T02110183
14926KSTC STC20050725075510207/25/05 07:55:31  5-MIN KSTC 251355Z AUTO 10008KT 10SM BKN110 21/18 A2988 1070 84 2100 100/08 RMK AO2
14926KSTC STC20050725080010907/25/05 08:00:31  5-MIN KSTC 251400Z AUTO 08008KT 10SM BKN100 22/18 A2987 1080 81 2100 080/08 RMK AO2 PRESFR
14926KSTC STC20050725080510907/25/05 08:05:31  5-MIN KSTC 251405Z AUTO 08007KT 10SM SCT110 22/18 A2986 1080 75 2200 080/07 RMK AO2 PRESFR
14926KSTC STC20050725081010207/25/05 08:10:31  5-MIN KSTC 251410Z AUTO 09007KT 10SM SCT110 22/18 A2986 1080 75 2200 090/07 RMK AO2
14926KSTC STC20050725081510207/25/05 08:15:31  5-MIN KSTC 251415Z AUTO 07006KT 10SM FEW110 22/17 A2986 1080 73 2200 070/06 RMK AO2
14926KSTC STC20050725082010207/25/05 08:20:31  5-MIN KSTC 251420Z AUTO 07004KT 10SM FEW120 23/17 A2986 1080 70 2300 070/04 RMK AO2
14926KSTC STC20050725082509907/25/05 08:25:31  5-MIN KSTC 251425Z AUTO 07004KT 10SM CLR 23/17 A2986 1080 70 2300 070/04 RMK AO2
14926KSTC STC20050725083009907/25/05 08:30:31  5-MIN KSTC 251430Z AUTO 10004KT 10SM CLR 23/17 A2986 1080 68 2300 090/04 RMK AO2
14926KSTC STC20050725083509907/25/05 08:35:31  5-MIN KSTC 251435Z AUTO 09003KT 10SM CLR 23/17 A2986 1080 68 2300 090/03 RMK AO2
14926KSTC STC20050725084009907/25/05 08:40:31  5-MIN KSTC 251440Z AUTO VRB03KT 10SM CLR 24/18 A2985 1090 68 2400 VRB/03 RMK AO2
14926KSTC STC20050725084509907/25/05 08:45:31  5-MIN KSTC 251445Z AUTO 09004KT 10SM CLR 24/18 A2984 1100 68 2400 090/04 RMK AO2
14926KSTC STC20050725085012207/25/05 08:50:31  5-MIN KSTC 251450Z AUTO 10004KT 10SM CLR 23/18 A2984 1100 70 2400 100/04 RMK AO2 SLP108 T02330178 55001
14926KSTC STC20050725085509907/25/05 08:55:31  5-MIN KSTC 251455Z AUTO 09003KT 10SM CLR 24/18 A2984 1100 68 2400 090/03 RMK AO2
14926KSTC STC20050725090009907/25/05 09:00:31  5-MIN KSTC 251500Z AUTO VRB04KT 10SM CLR 24/18 A2984 1100 71 2400 VRB/04 RMK AO2
14926KSTC STC20050725090509907/25/05 09:05:31  5-MIN KSTC 251505Z AUTO 10004KT 10SM CLR 24/18 A2983 1110 71 2400 100/04 RMK AO2
14926KSTC STC20050725091009907/25/05 09:10:31  5-MIN KSTC 251510Z AUTO VRB04KT 10SM CLR 24/18 A2983 1110 68 2500 VRB/04 RMK AO2
14926KSTC STC20050725091509907/25/05 09:15:31  5-MIN KSTC 251515Z AUTO 09004KT 10SM CLR 24/18 A2983 1110 68 2500 090/04 RMK AO2
14926KSTC STC20050725092009907/25/05 09:20:31  5-MIN KSTC 251520Z AUTO 08004KT 10SM CLR 25/18 A2983 1110 66 2600 080/04 RMK AO2
14926KSTC STC20050725092509907/25/05 09:25:31  5-MIN KSTC 251525Z AUTO VRB04KT 10SM CLR 25/18 A2983 1110 66 2600 VRB/04 RMK AO2
14926KSTC STC20050725093009907/25/05 09:30:31  5-MIN KSTC 251530Z AUTO VRB05KT 10SM CLR 25/18 A2983 1110 66 2600 VRB/05 RMK AO2
14926KSTC STC20050725093509907/25/05 09:35:31  5-MIN KSTC 251535Z AUTO 10004KT 10SM CLR 25/19 A2982 1120 68 2600 100/04 RMK AO2
14926KSTC STC20050725094009907/25/05 09:40:31  5-MIN KSTC 251540Z AUTO VRB05KT 10SM CLR 26/19 A2983 1110 64 2700 VRB/05 RMK AO2
14926KSTC STC20050725094509907/25/05 09:45:31  5-MIN KSTC 251545Z AUTO 09006KT 10SM CLR 26/19 A2983 1110 64 2700 090/06 RMK AO2
14926KSTC STC20050725095011607/25/05 09:50:31  5-MIN KSTC 251550Z AUTO 10006KT 10SM CLR 26/19 A2983 1110 66 2700 090/06 RMK AO2 SLP103 T02610194
14926KSTC STC20050725095509907/25/05 09:55:31  5-MIN KSTC 251555Z AUTO 11008KT 10SM CLR 26/19 A2983 1110 66 2700 110/08 RMK AO2
14926KSTC STC20050725100010207/25/05 10:00:31  5-MIN KSTC 251600Z AUTO 12008KT 10SM FEW043 26/19 A2984 1100 66 2700 120/08 RMK AO2
14926KSTC STC20050725100510207/25/05 10:05:31  5-MIN KSTC 251605Z AUTO 10004KT 10SM FEW043 26/19 A2983 1110 68 2600 100/04 RMK AO2
14926KSTC STC20050725101009907/25/05 10:10:31  5-MIN KSTC 251610Z AUTO VRB06KT 10SM CLR 26/20 A2983 1110 68 2700 VRB/06 RMK AO2
14926KSTC STC20050725101509907/25/05 10:15:31  5-MIN KSTC 251615Z AUTO 13007KT 10SM CLR 26/20 A2983 1110 68 2700 120/07 RMK AO2
14926KSTC STC20050725102009907/25/05 10:20:31  5-MIN KSTC 251620Z AUTO 15008KT 10SM CLR 26/20 A2983 1110 68 2700 150/08 RMK AO2
14926KSTC STC20050725102509907/25/05 10:25:31  5-MIN KSTC 251625Z AUTO 14007KT 10SM CLR 27/20 A2984 1100 66 2700 140/07 RMK AO2
14926KSTC STC20050725103010207/25/05 10:30:31  5-MIN KSTC 251630Z AUTO 16006KT 10SM FEW100 27/20 A2983 1110 66 2700 160/06 RMK AO2
14926KSTC STC20050725103510207/25/05 10:35:31  5-MIN KSTC 251635Z AUTO 13008KT 10SM SCT100 26/19 A2983 1110 66 2700 130/08 RMK AO2
14926KSTC STC20050725104010207/25/05 10:40:31  5-MIN KSTC 251640Z AUTO 13006KT 10SM SCT095 26/19 A2983 1110 66 2700 130/06 RMK AO2
14926KSTC STC20050725104510907/25/05 10:45:31  5-MIN KSTC 251645Z AUTO 14008KT 10SM FEW060 BKN095 26/19 A2983 1110 66 2700 130/08 RMK AO2
14926KSTC STC20050725105012607/25/05 10:50:31  5-MIN KSTC 251650Z AUTO 12005KT 10SM FEW060 BKN095 26/19 A2982 1120 66 2700 120/05 RMK AO2 SLP102 T02610194
14926KSTC STC20050725105510907/25/05 10:55:31  5-MIN KSTC 251655Z AUTO 13004KT 10SM FEW060 BKN095 27/20 A2982 1120 66 2800 130/04 RMK AO2
14926KSTC STC20050725110010907/25/05 11:00:31  5-MIN KSTC 251700Z AUTO 15009KT 10SM FEW060 BKN095 26/20 A2982 1110 68 2700 150/09 RMK AO2
14926KSTC STC20050725110510907/25/05 11:05:31  5-MIN KSTC 251705Z AUTO 14008KT 10SM FEW060 BKN090 26/20 A2983 1110 68 2700 140/08 RMK AO2
14926KSTC STC20050725111010907/25/05 11:10:31  5-MIN KSTC 251710Z AUTO 17009KT 10SM FEW060 SCT090 26/20 A2983 1110 68 2700 160/09 RMK AO2
14926KSTC STC20050725111510207/25/05 11:15:31  5-MIN KSTC 251715Z AUTO 15006KT 10SM SCT090 26/20 A2983 1110 68 2700 140/06 RMK AO2
14926KSTC STC20050725112010907/25/05 11:20:31  5-MIN KSTC 251720Z AUTO 17007KT 10SM FEW035 BKN090 26/21 A2982 1120 71 2700 160/07 RMK AO2
14926KSTC STC20050725112510907/25/05 11:25:31  5-MIN KSTC 251725Z AUTO 13007KT 10SM FEW032 BKN085 26/21 A2982 1120 71 2700 130/07 RMK AO2
14926KSTC STC20050725113011607/25/05 11:30:31  5-MIN KSTC 251730Z AUTO 15006KT 10SM FEW024 SCT030 BKN080 26/21 A2982 1120 71 2700 150/06 RMK AO2
14926KSTC STC20050725113511607/25/05 11:35:31  5-MIN KSTC 251735Z AUTO 12005KT 10SM SCT024 SCT030 BKN080 26/21 A2982 1120 71 2700 120/05 RMK AO2
14926KSTC STC20050725114011607/25/05 11:40:31  5-MIN KSTC 251740Z AUTO 12006KT 10SM BKN024 BKN030 BKN080 27/21 A2982 1120 71 2800 120/06 RMK AO2
14926KSTC STC20050725114511607/25/05 11:45:31  5-MIN KSTC 251745Z AUTO 15003KT 10SM BKN024 BKN028 BKN080 26/21 A2982 1120 73 2700 150/03 RMK AO2
14926KSTC STC20050725115015107/25/05 11:50:31  5-MIN KSTC 251750Z AUTO 12006KT 10SM BKN022 BKN028 OVC080 26/21 A2982 1120 71 2700 120/06 RMK AO2 SLP101 T02610206 10272 20183 58022
14926KSTC STC20050725115510207/25/05 11:55:31  5-MIN KSTC 251755Z AUTO 12004KT 10SM BKN022 26/21 A2982 1120 71 2700 120/04 RMK AO2
14926KSTC STC20050725120010907/25/05 12:00:31  5-MIN KSTC 251800Z AUTO 16006KT 10SM BKN024 OVC029 26/21 A2982 1120 71 2700 160/06 RMK AO2
14926KSTC STC20050725120510907/25/05 12:05:31  5-MIN KSTC 251805Z AUTO 16006KT 10SM BKN024 OVC031 26/21 A2982 1120 71 2700 150/06 RMK AO2
14926KSTC STC20050725121010907/25/05 12:10:31  5-MIN KSTC 251810Z AUTO 14005KT 10SM BKN024 OVC031 26/21 A2982 1120 71 2700 140/05 RMK AO2
14926KSTC STC20050725121510907/25/05 12:15:31  5-MIN KSTC 251815Z AUTO 15004KT 10SM SCT024 OVC031 26/21 A2982 1120 73 2700 140/04 RMK AO2
14926KSTC STC20050725122010907/25/05 12:20:31  5-MIN KSTC 251820Z AUTO 16004KT 10SM BKN026 OVC031 26/21 A2982 1120 71 2700 150/04 RMK AO2
14926KSTC STC20050725122510907/25/05 12:25:31  5-MIN KSTC 251825Z AUTO VRB04KT 10SM BKN026 OVC033 26/21 A2982 1120 73 2700 VRB/04 RMK AO2
14926KSTC STC20050725123010907/25/05 12:30:31  5-MIN KSTC 251830Z AUTO VRB03KT 10SM SCT023 OVC030 27/21 A2983 1110 71 2700 VRB/03 RMK AO2
14926KSTC STC20050725123511607/25/05 12:35:31  5-MIN KSTC 251835Z AUTO 11003KT 10SM BKN023 BKN030 OVC034 26/21 A2983 1110 73 2700 110/03 RMK AO2
14926KSTC STC20050725124010907/25/05 12:40:31  5-MIN KSTC 251840Z AUTO 00000KT 10SM BKN025 OVC030 26/21 A2983 1110 73 2700 000/00 RMK AO2
14926KSTC STC20050725124510907/25/05 12:45:31  5-MIN KSTC 251845Z AUTO 00000KT 10SM BKN023 OVC030 26/21 A2983 1110 71 2700 000/00 RMK AO2
14926KSTC STC20050725125012607/25/05 12:50:31  5-MIN KSTC 251850Z AUTO 09003KT 10SM BKN023 OVC033 26/21 A2983 1110 73 2700 080/03 RMK AO2 SLP103 T02610211
14926KSTC STC20050725125510907/25/05 12:55:31  5-MIN KSTC 251855Z AUTO 09003KT 10SM BKN023 OVC030 27/21 A2982 1110 69 2700 080/03 RMK AO2
14926KSTC STC20050725130010907/25/05 13:00:31  5-MIN KSTC 251900Z AUTO 05003KT 10SM BKN025 OVC030 27/21 A2982 1120 71 2800 040/03 RMK AO2
14926KSTC STC20050725130510907/25/05 13:05:31  5-MIN KSTC 251905Z AUTO 05003KT 10SM BKN023 OVC031 27/21 A2982 1120 69 2800 040/03 RMK AO2
14926KSTC STC20050725131011607/25/05 13:10:31  5-MIN KSTC 251910Z AUTO 08004KT 10SM SCT025 BKN033 BKN040 27/21 A2981 1120 69 2800 080/04 RMK AO2
14926KSTC STC20050725131510907/25/05 13:15:31  5-MIN KSTC 251915Z AUTO 08004KT 10SM FEW025 BKN033 27/21 A2981 1130 71 2800 080/04 RMK AO2
14926KSTC STC20050725132011607/25/05 13:20:31  5-MIN KSTC 251920Z AUTO 07004KT 10SM FEW025 SCT029 BKN035 27/21 A2981 1130 71 2800 070/04 RMK AO2
14926KSTC STC20050725132511607/25/05 13:25:31  5-MIN KSTC 251925Z AUTO 06004KT 10SM FEW023 SCT029 BKN035 27/21 A2981 1130 69 2800 060/04 RMK AO2
14926KSTC STC20050725133011607/25/05 13:30:31  5-MIN KSTC 251930Z AUTO 06005KT 10SM SCT023 SCT029 BKN035 27/21 A2981 1130 71 2800 060/05 RMK AO2
14926KSTC STC20050725133511607/25/05 13:35:31  5-MIN KSTC 251935Z AUTO 06005KT 10SM SCT023 BKN029 BKN035 27/21 A2980 1130 71 2800 060/05 RMK AO2
14926KSTC STC20050725134011607/25/05 13:40:31  5-MIN KSTC 251940Z AUTO 06006KT 10SM FEW023 SCT029 BKN046 27/21 A2980 1140 71 2800 060/06 RMK AO2
14926KSTC STC20050725134511607/25/05 13:45:31  5-MIN KSTC 251945Z AUTO 07005KT 10SM SCT023 SCT035 BKN046 27/21 A2980 1140 71 2800 060/05 RMK AO2
14926KSTC STC20050725135013307/25/05 13:50:31  5-MIN KSTC 251950Z AUTO 07006KT 10SM FEW023 SCT028 BKN050 26/21 A2980 1140 73 2700 070/06 RMK AO2 SLP092 T02610211
14926KSTC STC20050725135511607/25/05 13:55:31  5-MIN KSTC 251955Z AUTO 05006KT 10SM FEW023 SCT035 BKN050 26/21 A2979 1150 73 2700 050/06 RMK AO2
14926KSTC STC20050725140012707/25/05 14:00:31  5-MIN KSTC 252000Z AUTO 06005KT 10SM TS FEW027 SCT033 BKN043 26/21 A2979 1150 73 2700 050/05 RMK AO2 TSB1958
14926KSTC STC20050725140514007/25/05 14:05:31  5-MIN KSTC 252005Z AUTO 04005KT 8SM -TSRA BKN033 BKN043 BKN050 26/21 A2980 1140 73 2700 030/05 RMK AO2 TSB1958RAB03 P0000
14926KSTC STC20050725141013307/25/05 14:10:31  5-MIN KSTC 252010Z AUTO 05003KT 6SM -TSRA BKN033 BKN050 26/22 A2980 1140 79 2700 040/03 RMK AO2 TSB1958RAB03 P0000
14926KSTC STC20050725141513907/25/05 14:15:31  5-MIN KSTC 252015Z AUTO 33009G17KT 6SM -TSRA BKN033 BKN050 26/22 A2981 1130 79 2600 320/09G17 RMK AO2 TSB1958RAB03 P0000
14926KSTC STC20050725142016607/25/05 14:20:31  5-MIN KSTC 252020Z AUTO 30025G37KT 6SM -TSRA FEW015 OVC033 22/19 A2982 1120 84 2300 290/25G37 RMK AO2 PK WND 29037/2020 TSB1958RAB03 PRESRR P0000 $
14926KSTC STC20050725142516507/25/05 14:25:31  5-MIN KSTC 252025Z AUTO 34025G37KT 3SM TSRA SCT015 SCT023 OVC033 21/18 A2981 1130 84 2100 330/25G37 RMK AO2 PK WND 29037/2020 TSB1958RAB03 P0000 $
14926KSTC STC20050725143017307/25/05 14:30:31  5-MIN KSTC 252030Z AUTO 35023G36KT 1 3/4SM +TSRA BR FEW015 BKN023 OVC033 20/18 A2981 1130 87 2000 350/23G36 RMK AO2 PK WND 29037/2020 TSB1958RAB03 P0002 $
14926KSTC STC20050725143517307/25/05 14:35:31  5-MIN KSTC 252035Z AUTO 35021G29KT 1 1/4SM +TSRA BR FEW015 BKN025 OVC030 19/18 A2980 1140 90 2000 350/21G29 RMK AO2 PK WND 29037/2020 TSB1958RAB03 P0008 $
14926KSTC STC20050725144017207/25/05 14:40:31  5-MIN KSTC 252040Z AUTO 35018G28KT 1 1/4SM TSRA BR FEW015 SCT025 OVC030 19/18 A2981 1130 93 1900 350/18G28 RMK AO2 PK WND 29037/2020 TSB1958RAB03 P0011 $
14926KSTC STC20050725144516907/25/05 14:45:31  5-MIN KSTC 252045Z AUTO 36016G25KT 1SM +TSRA BR FEW015 SCT024 OVC030 18/17 A2982 1120 93 1800 350/16G25 RMK AO2 PK WND 29037/2020 TSB1958RAB03 P0015 $
14926KSTC STC20050725145020207/25/05 14:50:31  5-MIN KSTC 252050Z AUTO 36020G25KT 1 1/4SM +TSRA BR FEW015 BKN030 OVC037 18/17 A2982 1120 93 1800 350/20G25 RMK AO2 PK WND 29037/2020 TSB1958RAB03 SLP103 P0017 60017 T01830172 56007 $
14926KSTC STC20050725145514107/25/05 14:55:31  5-MIN KSTC 252055Z AUTO 34019G25KT 1 1/2SM TSRA BR FEW020 BKN030 OVC038 18/17 A2982 1120 93 1800 340/19G25 RMK AO2 P0001 $
14926KSTC STC20050725150013707/25/05 15:00:31  5-MIN KSTC 252100Z AUTO 35017G25KT 2SM TSRA BR FEW020 BKN027 OVC040 19/18 A2982 1120 93 1900 350/17G25 RMK AO2 P0003 $
14926KSTC STC20050725150513307/25/05 15:05:31  5-MIN KSTC 252105Z AUTO 36017G25KT 2SM VCTS RA BR FEW020 OVC033 19/18 A2982 1120 93 1900 350/17G25 RMK AO2 P0004 $
14926KSTC STC20050725151014407/25/05 15:10:31  5-MIN KSTC 252110Z AUTO 35016G23KT 2 1/2SM VCTS RA BR SCT030 BKN038 OVC045 19/18 A2982 1120 93 1900 350/16G23 RMK AO2 P0007 $
14926KSTC STC20050725151514107/25/05 15:15:31  5-MIN KSTC 252115Z AUTO 35015G21KT 3SM VCTS -RA BR FEW021 BKN038 OVC065 19/18 A2982 1120 93 1900 350/15G21 RMK AO2 P0007 $
14926KSTC STC20050725152014107/25/05 15:20:31  5-MIN KSTC 252120Z AUTO 36014G22KT 4SM VCTS -RA BR SCT023 BKN030 OVC045 19/18 A2982 1120 93 1900 360/14G22 RMK AO2 P0009 $
14926KSTC STC20050725152514007/25/05 15:25:31  5-MIN KSTC 252125Z AUTO 36012G22KT 4SM VCTS RA BR SCT023 BKN033 OVC060 19/18 A2983 1110 93 1900 350/12G22 RMK AO2 P0009 $
14926KSTC STC20050725153014507/25/05 15:30:31  5-MIN KSTC 252130Z AUTO 36009G18KT 2 1/2SM RA BR SCT023 BKN046 OVC060 19/18 A2984 1100 93 1900 360/09G18 RMK AO2 TSE27 P0012 $
14926KSTC STC20050725153514207/25/05 15:35:31  5-MIN KSTC 252135Z AUTO 36010G17KT 3SM -RA BR FEW023 BKN046 OVC060 19/18 A2984 1100 93 1800 360/10G17 RMK AO2 TSE27 P0013 $
14926KSTC STC20050725154013607/25/05 15:40:31  5-MIN KSTC 252140Z AUTO 36010KT 6SM -RA BR FEW011 BKN048 OVC060 19/18 A2984 1100 90 1900 360/10 RMK AO2 TSE27 P0013 $
14926KSTC STC20050725154514207/25/05 15:45:31  5-MIN KSTC 252145Z AUTO 36013G18KT 5SM -RA BR SCT011 BKN035 OVC060 19/18 A2984 1100 90 1900 360/13G18 RMK AO2 TSE27 P0013 $
14926KSTC STC20050725155015807/25/05 15:50:31  5-MIN KSTC 252150Z AUTO 01010G18KT 4SM RA BR FEW008 BKN049 OVC060 19/18 A2984 1100 90 1900 010/10G18 RMK AO2 TSE27 SLP111 P0014 T01940178 $
14926KSTC STC20050725155513507/25/05 15:55:31  5-MIN KSTC 252155Z AUTO 01012G19KT 3SM RA BR FEW010 BKN049 OVC060 19/18 A2984 1100 93 1800 010/12G19 RMK AO2 P0000 $
14926KSTC STC20050725160013507/25/05 16:00:31  5-MIN KSTC 252200Z AUTO 03010G19KT 3SM RA BR SCT012 BKN028 OVC049 19/18 A2984 1100 93 1900 020/10G19 RMK AO2 P0001 $
14926KSTC STC20050725160513407/25/05 16:05:31  5-MIN KSTC 252205Z AUTO 03007KT 2 1/2SM +RA BR SCT011 BKN024 OVC046 19/18 A2983 1110 93 1900 030/07 RMK AO2 P0005 $
14926KSTC STC20050725161016207/25/05 16:10:31  5-MIN KSTC 252210Z AUTO 03011G17KT 360V060 2 1/2SM RA BR FEW009 BKN022 OVC050 19/18 A2982 1120 93 1900 030/11G17 360V060 RMK AO2 PRESFR P0007 $
14926KSTC STC20050725161514207/25/05 16:15:31  5-MIN KSTC 252215Z AUTO 04012G17KT 3SM RA BR FEW009 BKN043 OVC070 19/18 A2981 1130 93 1900 030/12G17 RMK AO2 PRESFR P0009 $
14926KSTC STC20050725162014207/25/05 16:20:31  5-MIN KSTC 252220Z AUTO 05012G18KT 4SM RA BR FEW009 BKN021 OVC070 19/18 A2980 1140 93 1900 050/12G18 RMK AO2 PRESFR P0009 $
14926KSTC STC20050725162514307/25/05 16:25:31  5-MIN KSTC 252225Z AUTO 07014G18KT 5SM -RA BR BKN021 BKN042 OVC055 19/18 A2979 1150 93 1900 060/14G18 RMK AO2 PRESFR P0010 $
14926KSTC STC20050725163014007/25/05 16:30:31  5-MIN KSTC 252230Z AUTO 07012G20KT 8SM -RA BKN021 BKN042 OVC070 19/18 A2978 1160 93 1900 070/12G20 RMK AO2 PRESFR P0011 $
14926KSTC STC20050725163513407/25/05 16:35:31  5-MIN KSTC 252235Z AUTO 07011G20KT 10SM -RA BKN021 BKN044 OVC070 19/18 A2978 1160 93 1900 070/11G20 RMK AO2 P0011 $
14926KSTC STC20050725164012707/25/05 16:40:31  5-MIN KSTC 252240Z AUTO 06012G17KT 10SM -RA BKN021 BKN070 19/17 A2978 1160 90 1900 060/12G17 RMK AO2 P0011 $
14926KSTC STC20050725164512007/25/05 16:45:31  5-MIN KSTC 252245Z AUTO 07011G17KT 10SM -RA BKN019 19/17 A2977 1160 90 1900 060/11G17 RMK AO2 P0012 $
14926KSTC STC20050725165013707/25/05 16:50:31  5-MIN KSTC 252250Z AUTO 06010G17KT 10SM -RA SCT019 19/17 A2977 1160 90 1900 060/10G17 RMK AO2 SLP087 P0012 T01890172 $
14926KSTC STC20050725165512007/25/05 16:55:31  5-MIN KSTC 252255Z AUTO 06010G17KT 10SM -RA SCT021 19/17 A2977 1160 90 1900 060/10G17 RMK AO2 P0000 $
14926KSTC STC20050725170011407/25/05 17:00:31  5-MIN KSTC 252300Z AUTO 05010KT 10SM -RA FEW018 19/17 A2977 1160 90 1900 050/10 RMK AO2 P0000 $
14926KSTC STC20050725170511407/25/05 17:05:31  5-MIN KSTC 252305Z AUTO 04010KT 10SM -RA FEW016 19/17 A2978 1160 90 1900 040/10 RMK AO2 P0000 $
14926KSTC STC20050725171011107/25/05 17:10:31  5-MIN KSTC 252310Z AUTO 04011KT 10SM -RA CLR 19/17 A2978 1160 90 1900 040/11 RMK AO2 P0000 $
14926KSTC STC20050725171511107/25/05 17:15:31  5-MIN KSTC 252315Z AUTO 04011KT 10SM -RA CLR 19/17 A2978 1160 90 1900 030/11 RMK AO2 P0000 $
14926KSTC STC20050725172011907/25/05 17:20:31  5-MIN KSTC 252320Z AUTO 03008G16KT 10SM CLR 19/17 A2977 1160 90 1900 030/08G16 RMK AO2 RAE16 P0000 $
14926KSTC STC20050725172511307/25/05 17:25:31  5-MIN KSTC 252325Z AUTO 04009KT 10SM CLR 19/17 A2977 1170 90 1900 030/09 RMK AO2 RAE16 P0000 $
14926KSTC STC20050725173011307/25/05 17:30:31  5-MIN KSTC 252330Z AUTO 05010KT 10SM CLR 19/17 A2977 1170 90 1900 040/10 RMK AO2 RAE16 P0000 $
14926KSTC STC20050725173511307/25/05 17:35:31  5-MIN KSTC 252335Z AUTO 03009KT 10SM CLR 19/17 A2977 1170 90 1900 030/09 RMK AO2 RAE16 P0000 $
14926KSTC STC20050725174011307/25/05 17:40:31  5-MIN KSTC 252340Z AUTO 04010KT 10SM CLR 19/17 A2977 1170 90 1900 030/10 RMK AO2 RAE16 P0000 $
14926KSTC STC20050725174511307/25/05 17:45:31  5-MIN KSTC 252345Z AUTO 04010KT 10SM CLR 19/17 A2977 1170 90 1900 040/10 RMK AO2 RAE16 P0000 $
14926KSTC STC20050725175016007/25/05 17:50:31  5-MIN KSTC 252350Z AUTO 03008G14KT 10SM CLR 19/17 A2977 1160 90 1900 030/08G14 RMK AO2 RAE16 SLP088 P0000 60046 T01890172 10272 20183 55001 $
14926KSTC STC20050725175510107/25/05 17:55:31  5-MIN KSTC 252355Z AUTO 02007KT 10SM CLR 19/17 A2977 1160 90 1900 010/07 RMK AO2 $
14926KSTC STC20050725180010107/25/05 18:00:31  5-MIN KSTC 260000Z AUTO 36006KT 10SM CLR 19/17 A2977 1160 90 1900 360/06 RMK AO2 $
14926KSTC STC20050725180510407/25/05 18:05:31  5-MIN KSTC 260005Z AUTO 35008KT 10SM FEW010 19/18 A2977 1160 90 2000 350/08 RMK AO2 $
14926KSTC STC20050725181010407/25/05 18:10:31  5-MIN KSTC 260010Z AUTO 35009KT 10SM SCT010 19/18 A2978 1160 90 2000 350/09 RMK AO2 $
14926KSTC STC20050725181510407/25/05 18:15:31  5-MIN KSTC 260015Z AUTO 36010KT 10SM BKN010 19/17 A2978 1160 87 2000 350/10 RMK AO2 $
14926KSTC STC20050725182010407/25/05 18:20:31  5-MIN KSTC 260020Z AUTO 36009KT 10SM BKN012 19/17 A2978 1160 87 2000 350/09 RMK AO2 $
14926KSTC STC20050725182510407/25/05 18:25:31  5-MIN KSTC 260025Z AUTO 36009KT 10SM BKN012 19/17 A2977 1160 87 2000 360/09 RMK AO2 $
14926KSTC STC20050725183010407/25/05 18:30:31  5-MIN KSTC 260030Z AUTO 01009KT 10SM OVC012 19/17 A2977 1160 87 2000 010/09 RMK AO2 $
14926KSTC STC20050725183510407/25/05 18:35:31  5-MIN KSTC 260035Z AUTO 36008KT 10SM OVC012 19/17 A2978 1160 87 2000 360/08 RMK AO2 $
14926KSTC STC20050725184010407/25/05 18:40:31  5-MIN KSTC 260040Z AUTO 36010KT 10SM OVC012 19/17 A2978 1150 87 2000 360/10 RMK AO2 $
14926KSTC STC20050725184510407/25/05 18:45:31  5-MIN KSTC 260045Z AUTO 01009KT 10SM OVC014 19/17 A2979 1150 87 2000 010/09 RMK AO2 $
14926KSTC STC20050725185012107/25/05 18:50:31  5-MIN KSTC 260050Z AUTO 36011KT 10SM OVC012 19/17 A2979 1140 90 1900 350/11 RMK AO2 SLP094 T01890172 $
14926KSTC STC20050725185510407/25/05 18:55:31  5-MIN KSTC 260055Z AUTO 36009KT 10SM OVC012 19/17 A2979 1140 90 1900 360/09 RMK AO2 $
14926KSTC STC20050725190010407/25/05 19:00:31  5-MIN KSTC 260100Z AUTO 01008KT 10SM OVC012 19/17 A2979 1150 90 1900 010/08 RMK AO2 $
14926KSTC STC20050725190510407/25/05 19:05:31  5-MIN KSTC 260105Z AUTO 01009KT 10SM OVC012 19/17 A2979 1140 90 1900 010/09 RMK AO2 $
14926KSTC STC20050725191010407/25/05 19:10:31  5-MIN KSTC 260110Z AUTO 01009KT 10SM OVC012 19/17 A2979 1140 90 1900 010/09 RMK AO2 $
14926KSTC STC20050725191510407/25/05 19:15:31  5-MIN KSTC 260115Z AUTO 01011KT 10SM OVC012 19/17 A2979 1150 90 1900 360/11 RMK AO2 $
14926KSTC STC20050725192010407/25/05 19:20:31  5-MIN KSTC 260120Z AUTO 36009KT 10SM OVC012 19/17 A2979 1150 90 1900 360/09 RMK AO2 $
14926KSTC STC20050725192510407/25/05 19:25:31  5-MIN KSTC 260125Z AUTO 36009KT 10SM OVC012 19/17 A2978 1160 90 1900 350/09 RMK AO2 $
14926KSTC STC20050725193010407/25/05 19:30:31  5-MIN KSTC 260130Z AUTO 36011KT 10SM OVC012 19/17 A2978 1160 90 1900 360/11 RMK AO2 $
14926KSTC STC20050725193510407/25/05 19:35:31  5-MIN KSTC 260135Z AUTO 36012KT 10SM OVC012 19/17 A2978 1160 90 1900 350/12 RMK AO2 $
14926KSTC STC20050725194010407/25/05 19:40:31  5-MIN KSTC 260140Z AUTO 36011KT 10SM OVC012 19/17 A2978 1150 90 1900 360/11 RMK AO2 $
14926KSTC STC20050725194512307/25/05 19:45:31  5-MIN KSTC 260145Z AUTO 01011KT 10SM BKN010 OVC014 19/17 A2978 1160 90 1900 360/11 RMK AO2 CIG 008V012 $
14926KSTC STC20050725195012707/25/05 19:50:31  5-MIN KSTC 260150Z AUTO 01013G18KT 10SM OVC010 19/17 A2978 1160 90 1900 010/13G18 RMK AO2 SLP087 T01890172 $
14926KSTC STC20050725195511007/25/05 19:55:31  5-MIN KSTC 260155Z AUTO 01011G18KT 10SM OVC010 19/17 A2977 1160 90 1900 010/11G18 RMK AO2 $
14926KSTC STC20050725200011007/25/05 20:00:31  5-MIN KSTC 260200Z AUTO 36010G17KT 10SM OVC010 19/17 A2977 1160 90 1900 360/10G17 RMK AO2 $
14926KSTC STC20050725200511007/25/05 20:05:31  5-MIN KSTC 260205Z AUTO 36012G19KT 10SM OVC010 19/17 A2978 1160 90 1900 360/12G19 RMK AO2 $
14926KSTC STC20050725201011207/25/05 20:10:31  5-MIN KSTC 260210Z 36016G21KT 10SM BKN012 OVC017 19/17 A2978 1160 87 1900 360/16G21 RMK AO2 $
14926KSTC STC20050725201510507/25/05 20:15:31  5-MIN KSTC 260215Z 01014G21KT 10SM OVC014 19/17 A2978 1160 87 1900 010/14G21 RMK AO2 $
14926KSTC STC20050725202010507/25/05 20:20:31  5-MIN KSTC 260220Z 36011G20KT 10SM OVC014 19/16 A2978 1150 84 1900 360/11G20 RMK AO2 $
14926KSTC STC20050725202511207/25/05 20:25:31  5-MIN KSTC 260225Z 01010G20KT 10SM BKN014 OVC018 19/16 A2979 1140 84 1900 360/10G20 RMK AO2 $
14926KSTC STC20050725203010507/25/05 20:30:31  5-MIN KSTC 260230Z 36010G18KT 10SM OVC016 19/16 A2980 1140 84 1900 360/10G18 RMK AO2 $
14926KSTC STC20050725203511907/25/05 20:35:31  5-MIN KSTC 260235Z 01012G17KT 10SM BKN016 OVC022 19/17 A2981 1130 87 1900 360/12G17 RMK AO2 PRESRR $
14926KSTC STC20050725204011307/25/05 20:40:31  5-MIN KSTC 260240Z 36011KT 10SM BKN016 OVC022 19/17 A2982 1120 87 1900 360/11 RMK AO2 PRESRR $
14926KSTC STC20050725204511907/25/05 20:45:31  5-MIN KSTC 260245Z 01013G18KT 10SM BKN016 OVC022 19/16 A2983 1110 84 1900 360/13G18 RMK AO2 PRESRR $
14926KSTC STC20050725205014207/25/05 20:50:31  5-MIN KSTC 260250Z 01014G20KT 10SM BKN016 OVC022 19/16 A2984 1100 84 1900 010/14G20 RMK AO2 PRESRR SLP108 T01890161 58015 $
14926KSTC STC20050725205511907/25/05 20:55:31  5-MIN KSTC 260255Z 01011G20KT 10SM BKN018 OVC022 19/16 A2984 1100 81 1800 360/11G20 RMK AO2 PRESRR $
14926KSTC STC20050725210010507/25/05 21:00:31  5-MIN KSTC 260300Z 36008G17KT 10SM OVC018 18/16 A2984 1100 87 1800 360/08G17 RMK AO2 $
14926KSTC STC20050725210510507/25/05 21:05:31  5-MIN KSTC 260305Z 36009G16KT 10SM OVC018 18/16 A2985 1100 87 1800 360/09G16 RMK AO2 $
14926KSTC STC20050725211009907/25/05 21:10:31  5-MIN KSTC 260310Z 01009KT 10SM OVC020 18/16 A2985 1090 87 1800 360/09 RMK AO2 $
14926KSTC STC20050725211510507/25/05 21:15:31  5-MIN KSTC 260315Z 01011G16KT 10SM OVC020 18/16 A2986 1080 84 1800 010/11G16 RMK AO2 $
14926KSTC STC20050725212009907/25/05 21:20:31  5-MIN KSTC 260320Z 01011KT 10SM OVC020 18/16 A2986 1080 84 1800 360/11 RMK AO2 $
14926KSTC STC20050725212509907/25/05 21:25:31  5-MIN KSTC 260325Z 36008KT 10SM OVC020 18/16 A2987 1080 84 1800 350/08 RMK AO2 $
14926KSTC STC20050725213010607/25/05 21:30:31  5-MIN KSTC 260330Z 35010KT 10SM OVC020 18/16 A2988 1070 87 1700 350/10 RMK AO2 PRESRR $
14926KSTC STC20050725213511807/25/05 21:35:31  5-MIN KSTC 260335Z 35014G17KT 9SM BKN017 OVC022 18/16 A2988 1060 87 1700 350/14G17 RMK AO2 PRESRR $
14926KSTC STC20050725214013007/25/05 21:40:31  5-MIN KSTC 260340Z 36011G17KT 5SM -RA BR BKN019 OVC038 17/16 A2988 1060 90 1600 360/11G17 RMK AO2 RAB38 P0000 $
14926KSTC STC20050725214513007/25/05 21:45:31  5-MIN KSTC 260345Z 01011G17KT 4SM -RA BR SCT017 OVC040 17/16 A2988 1060 90 1600 010/11G17 RMK AO2 RAB38 P0000 $
14926KSTC STC20050725215014807/25/05 21:50:31  5-MIN KSTC 260350Z 01012KT 6SM -RA BR FEW015 SCT021 OVC040 17/15 A2988 1060 87 1600 010/12 RMK AO2 RAB38 SLP123 P0000 T01720150 $
14926KSTC STC20050725215510607/25/05 21:55:31  5-MIN KSTC 260355Z 01009KT 10SM FEW015 OVC040 17/15 A2989 1060 87 1600 010/09 RMK AO2 $
14926KSTC STC20050725220012907/25/05 22:00:31  5-MIN KSTC 260400Z AUTO 35007KT 10SM -RA FEW020 OVC040 17/15 A2989 1050 87 1600 350/07 RMK AO2 RAB0356 P0000 $
14926KSTC STC20050725220512107/25/05 22:05:31  5-MIN KSTC 260405Z AUTO 36009KT 10SM OVC042 17/15 A2990 1050 87 1600 350/09 RMK AO2 RAB0356E05 P0000 $
14926KSTC STC20050725221012207/25/05 22:10:31  5-MIN KSTC 260410Z AUTO 35009KT 10SM -RA OVC042 17/15 A2990 1040 87 1600 350/09 RMK AO2 RAB0356 P0000 $
14926KSTC STC20050725221512107/25/05 22:15:31  5-MIN KSTC 260415Z AUTO 35007KT 7SM -RA OVC042 17/15 A2990 1040 87 1600 340/07 RMK AO2 RAB0356 P0000 $
14926KSTC STC20050725222013107/25/05 22:20:31  5-MIN KSTC 260420Z AUTO 35009KT 5SM -RA BR BKN042 OVC055 17/16 A2990 1040 90 1600 350/09 RMK AO2 RAB0356 P0001 $
14926KSTC STC20050725222513707/25/05 22:25:31  5-MIN KSTC 260425Z AUTO 36009G16KT 5SM -RA BR BKN044 OVC055 17/15 A2990 1040 87 1600 360/09G16 RMK AO2 RAB0356 P0001 $
14926KSTC STC20050725223013707/25/05 22:30:31  5-MIN KSTC 260430Z AUTO 36008G16KT 6SM -RA BR BKN046 OVC055 17/16 A2991 1040 93 1500 350/08G16 RMK AO2 RAB0356 P0001 $
14926KSTC STC20050725223513807/25/05 22:35:31  5-MIN KSTC 260435Z AUTO 01006KT 6SM -RA BR BKN046 BKN060 OVC080 17/15 A2990 1040 90 1500 010/06 RMK AO2 RAB0356 P0001 $
14926KSTC STC20050725224013507/25/05 22:40:31  5-MIN KSTC 260440Z AUTO 36006KT 9SM -RA BKN046 BKN060 OVC080 17/16 A2991 1040 93 1500 360/06 RMK AO2 RAB0356 P0001 $
14926KSTC STC20050725224513507/25/05 22:45:31  5-MIN KSTC 260445Z AUTO 36005KT 10SM BKN048 BKN060 OVC080 17/16 A2991 1040 93 1500 350/05 RMK AO2 RAB0356E42 P0001 $
14926KSTC STC20050725225015207/25/05 22:50:31  5-MIN KSTC 260450Z AUTO 34005KT 10SM BKN048 BKN060 OVC080 17/16 A2991 1030 93 1500 330/05 RMK AO2 RAB0356E42 SLP134 P0001 T01670156 $
14926KSTC STC20050725225511807/25/05 22:55:31  5-MIN KSTC 260455Z AUTO 34006KT 10SM FEW017 BKN048 OVC060 17/16 A2991 1040 90 1600 330/06 RMK AO2 $
14926KSTC STC20050725230011807/25/05 23:00:31  5-MIN KSTC 260500Z AUTO 35007KT 10SM BKN048 BKN060 OVC080 17/16 A2991 1030 90 1600 350/07 RMK AO2 $
14926KSTC STC20050725230510407/25/05 23:05:31  5-MIN KSTC 260505Z AUTO 35009KT 10SM OVC048 17/15 A2992 1030 87 1600 350/09 RMK AO2 $
14926KSTC STC20050725231010407/25/05 23:10:31  5-MIN KSTC 260510Z AUTO 35009KT 10SM OVC048 17/15 A2991 1030 87 1600 350/09 RMK AO2 $
14926KSTC STC20050725231511107/25/05 23:15:31  5-MIN KSTC 260515Z AUTO 34009KT 10SM FEW018 OVC050 17/15 A2991 1040 87 1600 340/09 RMK AO2 $
14926KSTC STC20050725232011107/25/05 23:20:31  5-MIN KSTC 260520Z AUTO 35010KT 10SM SCT018 OVC050 17/14 A2991 1030 86 1500 340/10 RMK AO2 $
14926KSTC STC20050725232511107/25/05 23:25:31  5-MIN KSTC 260525Z AUTO 34009KT 10SM SCT018 OVC050 17/14 A2991 1030 86 1500 340/09 RMK AO2 $
14926KSTC STC20050725233011807/25/05 23:30:31  5-MIN KSTC 260530Z AUTO 35007KT 10SM BKN018 BKN025 OVC050 17/14 A2991 1040 86 1500 350/07 RMK AO2 $
14926KSTC STC20050725233511807/25/05 23:35:31  5-MIN KSTC 260535Z AUTO 34009KT 10SM FEW018 BKN024 OVC050 17/14 A2991 1030 86 1500 340/09 RMK AO2 $
14926KSTC STC20050725234011807/25/05 23:40:31  5-MIN KSTC 260540Z AUTO 34008KT 10SM SCT018 BKN026 OVC075 17/14 A2992 1030 86 1500 340/08 RMK AO2 $
14926KSTC STC20050725234511807/25/05 23:45:31  5-MIN KSTC 260545Z AUTO 35009KT 10SM SCT020 BKN026 OVC075 17/14 A2991 1030 86 1500 350/09 RMK AO2 $
14926KSTC STC20050725235016907/25/05 23:50:31  5-MIN KSTC 260550Z AUTO 34010KT 10SM FEW020 BKN032 OVC095 17/14 A2992 1030 86 1500 340/10 RMK AO2 SLP135 60001 T01670144 10194 20167 402720167 53023 $
14926KSTC STC20050725235511807/25/05 23:55:31  5-MIN KSTC 260555Z AUTO 35008KT 10SM FEW022 BKN030 OVC095 17/14 A2992 1030 86 1500 340/08 RMK AO2 $
14926KSTC STC20050726000011807/26/05 00:00:32  5-MIN KSTC 260600Z AUTO 35009KT 10SM BKN032 BKN075 OVC095 17/14 A2992 1030 86 1500 340/09 RMK AO2 $
14926KSTC STC20050726000511807/26/05 00:05:31  5-MIN KSTC 260605Z AUTO 35008KT 10SM SCT032 BKN075 OVC095 17/14 A2992 1030 83 1500 340/08 RMK AO2 $
14926KSTC STC20050726001011807/26/05 00:10:31  5-MIN KSTC 260610Z AUTO 34009KT 10SM FEW032 SCT080 OVC095 17/14 A2992 1030 83 1500 340/09 RMK AO2 $
14926KSTC STC20050726001511107/26/05 00:15:31  5-MIN KSTC 260615Z AUTO 35010KT 10SM FEW032 OVC095 17/14 A2991 1030 83 1500 340/10 RMK AO2 $
14926KSTC STC20050726002011107/26/05 00:20:31  5-MIN KSTC 260620Z AUTO 35009KT 10SM FEW032 BKN095 16/14 A2991 1040 86 1400 350/09 RMK AO2 $
14926KSTC STC20050726002510407/26/05 00:25:31  5-MIN KSTC 260625Z AUTO 35009KT 10SM BKN095 16/13 A2991 1040 83 1400 350/09 RMK AO2 $
14926KSTC STC20050726003010407/26/05 00:30:31  5-MIN KSTC 260630Z AUTO 35009KT 10SM SCT095 16/13 A2991 1040 83 1400 350/09 RMK AO2 $
14926KSTC STC20050726003511007/26/05 00:35:31  5-MIN KSTC 260635Z AUTO 35011G16KT 10SM FEW095 16/13 A2991 1040 83 1400 350/11G16 RMK AO2 $
14926KSTC STC20050726004010407/26/05 00:40:31  5-MIN KSTC 260640Z AUTO 35010KT 10SM FEW100 16/13 A2991 1040 80 1500 350/10 RMK AO2 $
14926KSTC STC20050726004510107/26/05 00:45:31  5-MIN KSTC 260645Z AUTO 35010KT 10SM CLR 16/13 A2991 1040 80 1500 350/10 RMK AO2 $
14926KSTC STC20050726005011807/26/05 00:50:31  5-MIN KSTC 260650Z AUTO 35008KT 10SM CLR 16/13 A2991 1030 83 1400 350/08 RMK AO2 SLP133 T01610133 $
14926KSTC STC20050726005510107/26/05 00:55:31  5-MIN KSTC 260655Z AUTO 35009KT 10SM CLR 16/13 A2992 1030 83 1400 350/09 RMK AO2 $
14926KSTC STC20050726010010107/26/05 01:00:31  5-MIN KSTC 260700Z AUTO 35007KT 10SM CLR 16/13 A2992 1020 83 1400 350/07 RMK AO2 $
14926KSTC STC20050726010510107/26/05 01:05:31  5-MIN KSTC 260705Z AUTO 35007KT 10SM CLR 16/13 A2993 1020 86 1400 350/07 RMK AO2 $
14926KSTC STC20050726011010107/26/05 01:10:31  5-MIN KSTC 260710Z AUTO 34009KT 10SM CLR 16/13 A2993 1020 86 1400 340/09 RMK AO2 $
14926KSTC STC20050726011510107/26/05 01:15:31  5-MIN KSTC 260715Z AUTO 35009KT 10SM CLR 16/13 A2993 1020 83 1400 350/09 RMK AO2 $
14926KSTC STC20050726012010107/26/05 01:20:31  5-MIN KSTC 260720Z AUTO 35006KT 10SM CLR 16/13 A2994 1010 86 1300 350/06 RMK AO2 $
14926KSTC STC20050726012510107/26/05 01:25:31  5-MIN KSTC 260725Z AUTO 35008KT 10SM CLR 16/13 A2994 1010 86 1400 350/08 RMK AO2 $
14926KSTC STC20050726013010107/26/05 01:30:31  5-MIN KSTC 260730Z AUTO 35008KT 10SM CLR 16/13 A2993 1010 86 1400 350/08 RMK AO2 $
14926KSTC STC20050726013510107/26/05 01:35:31  5-MIN KSTC 260735Z AUTO 35007KT 10SM CLR 16/13 A2993 1020 83 1400 350/07 RMK AO2 $
14926KSTC STC20050726014010107/26/05 01:40:31  5-MIN KSTC 260740Z AUTO 35007KT 10SM CLR 16/13 A2993 1010 86 1400 350/07 RMK AO2 $
14926KSTC STC20050726014510107/26/05 01:45:31  5-MIN KSTC 260745Z AUTO 35006KT 10SM CLR 16/13 A2994 1010 86 1400 340/06 RMK AO2 $
14926KSTC STC20050726015011807/26/05 01:50:31  5-MIN KSTC 260750Z AUTO 34007KT 10SM CLR 16/13 A2994 1010 86 1400 340/07 RMK AO2 SLP142 T01560133 $
14926KSTC STC20050726015510107/26/05 01:55:31  5-MIN KSTC 260755Z AUTO 34007KT 10SM CLR 16/13 A2994 1010 83 1400 340/07 RMK AO2 $
14926KSTC STC20050726020010107/26/05 02:00:31  5-MIN KSTC 260800Z AUTO 35008KT 10SM CLR 16/13 A2993 1010 83 1400 340/08 RMK AO2 $
14926KSTC STC20050726020510107/26/05 02:05:31  5-MIN KSTC 260805Z AUTO 34006KT 10SM CLR 15/13 A2994 1010 86 1300 340/06 RMK AO2 $
14926KSTC STC20050726021010107/26/05 02:10:31  5-MIN KSTC 260810Z AUTO 34007KT 10SM CLR 15/13 A2994 1010 86 1300 330/07 RMK AO2 $
14926KSTC STC20050726021510107/26/05 02:15:31  5-MIN KSTC 260815Z AUTO 33007KT 10SM CLR 15/13 A2995 1000 86 1300 330/07 RMK AO2 $
14926KSTC STC20050726022010107/26/05 02:20:31  5-MIN KSTC 260820Z AUTO 33006KT 10SM CLR 15/13 A2995 1000 86 1300 330/06 RMK AO2 $
14926KSTC STC20050726022510107/26/05 02:25:31  5-MIN KSTC 260825Z AUTO 34006KT 10SM CLR 15/13 A2994 1010 86 1300 340/06 RMK AO2 $
14926KSTC STC20050726023010107/26/05 02:30:31  5-MIN KSTC 260830Z AUTO 34007KT 10SM CLR 15/13 A2994 1010 86 1300 340/07 RMK AO2 $
14926KSTC STC20050726023510107/26/05 02:35:31  5-MIN KSTC 260835Z AUTO 34008KT 10SM CLR 15/13 A2994 1010 86 1300 340/08 RMK AO2 $
14926KSTC STC20050726024010107/26/05 02:40:31  5-MIN KSTC 260840Z AUTO 34009KT 10SM CLR 15/13 A2994 1010 86 1300 340/09 RMK AO2 $
14926KSTC STC20050726024510107/26/05 02:45:31  5-MIN KSTC 260845Z AUTO 34008KT 10SM CLR 15/13 A2993 1020 86 1300 340/08 RMK AO2 $
14926KSTC STC20050726025012407/26/05 02:50:31  5-MIN KSTC 260850Z AUTO 34008KT 10SM CLR 14/13 A2993 1010 90 1200 340/08 RMK AO2 SLP143 T01440128 51025 $
14926KSTC STC20050726025510107/26/05 02:55:31  5-MIN KSTC 260855Z AUTO 34007KT 10SM CLR 14/13 A2994 1010 90 1200 340/07 RMK AO2 $
14926KSTC STC20050726030010107/26/05 03:00:31  5-MIN KSTC 260900Z AUTO 33007KT 10SM CLR 14/13 A2995 1000 90 1200 330/07 RMK AO2 $
14926KSTC STC20050726030510107/26/05 03:05:31  5-MIN KSTC 260905Z AUTO 34008KT 10SM CLR 14/12 A2995 1000 86 1200 330/08 RMK AO2 $
14926KSTC STC20050726031010107/26/05 03:10:31  5-MIN KSTC 260910Z AUTO 34007KT 10SM CLR 14/12 A2994 1010 86 1200 340/07 RMK AO2 $
14926KSTC STC20050726031510107/26/05 03:15:31  5-MIN KSTC 260915Z AUTO 34007KT 10SM CLR 14/12 A2994 1010 86 1200 340/07 RMK AO2 $
14926KSTC STC20050726032011707/26/05 03:20:31  5-MIN KSTC 260920Z AUTO 34007KT 320V020 10SM CLR 14/12 A2994 1000 86 1200 340/07 320V020 RMK AO2 $
14926KSTC STC20050726032510107/26/05 03:25:31  5-MIN KSTC 260925Z AUTO 34006KT 10SM CLR 14/12 A2995 1000 86 1200 330/06 RMK AO2 $
14926KSTC STC20050726033010107/26/05 03:30:31  5-MIN KSTC 260930Z AUTO 33006KT 10SM CLR 14/12 A2995 1000 86 1200 330/06 RMK AO2 $
14926KSTC STC20050726033510107/26/05 03:35:31  5-MIN KSTC 260935Z AUTO 34006KT 10SM CLR 14/12 A2995 1000 86 1200 340/06 RMK AO2 $
14926KSTC STC20050726034010107/26/05 03:40:31  5-MIN KSTC 260940Z AUTO 33008KT 10SM CLR 14/12 A2995 1000 86 1200 330/08 RMK AO2 $
14926KSTC STC20050726034510007/26/05 03:45:31  5-MIN KSTC 260945Z AUTO 34006KT 10SM CLR 14/12 A2995 990 86 1200 340/06 RMK AO2 $
14926KSTC STC20050726035011807/26/05 03:50:31  5-MIN KSTC 260950Z AUTO 34007KT 10SM CLR 14/12 A2995 1000 86 1200 340/07 RMK AO2 SLP150 T01440122 $
14926KSTC STC20050726035510007/26/05 03:55:31  5-MIN KSTC 260955Z AUTO 34009KT 10SM CLR 14/12 A2996 990 86 1200 330/09 RMK AO2 $
14926KSTC STC20050726040010007/26/05 04:00:31  5-MIN KSTC 261000Z AUTO 33008KT 10SM CLR 14/12 A2996 990 86 1200 330/08 RMK AO2 $
14926KSTC STC20050726040510007/26/05 04:05:31  5-MIN KSTC 261005Z AUTO 33008KT 10SM CLR 14/12 A2996 990 90 1100 330/08 RMK AO2 $
14926KSTC STC20050726041010007/26/05 04:10:31  5-MIN KSTC 261010Z AUTO 33007KT 10SM CLR 14/12 A2996 990 86 1100 330/07 RMK AO2 $
14926KSTC STC20050726041510007/26/05 04:15:31  5-MIN KSTC 261015Z AUTO 34008KT 10SM CLR 14/12 A2996 990 86 1100 330/08 RMK AO2 $
14926KSTC STC20050726042010007/26/05 04:20:31  5-MIN KSTC 261020Z AUTO 34009KT 10SM CLR 14/12 A2996 990 86 1100 330/09 RMK AO2 $
14926KSTC STC20050726042510007/26/05 04:25:31  5-MIN KSTC 261025Z AUTO 34009KT 10SM CLR 14/12 A2996 990 86 1100 340/09 RMK AO2 $
14926KSTC STC20050726043010007/26/05 04:30:31  5-MIN KSTC 261030Z AUTO 35009KT 10SM CLR 14/12 A2996 990 86 1100 350/09 RMK AO2 $
14926KSTC STC20050726043510007/26/05 04:35:31  5-MIN KSTC 261035Z AUTO 34009KT 10SM CLR 14/11 A2996 990 83 1100 340/09 RMK AO2 $
14926KSTC STC20050726044010007/26/05 04:40:31  5-MIN KSTC 261040Z AUTO 34011KT 10SM CLR 14/11 A2996 990 83 1100 340/11 RMK AO2 $
14926KSTC STC20050726044510007/26/05 04:45:31  5-MIN KSTC 261045Z AUTO 34010KT 10SM CLR 14/11 A2996 990 83 1100 340/10 RMK AO2 $
14926KSTC STC20050726045011707/26/05 04:50:31  5-MIN KSTC 261050Z AUTO 34010KT 10SM CLR 14/11 A2996 990 83 1100 340/10 RMK AO2 SLP151 T01390111 $
14926KSTC STC20050726045510007/26/05 04:55:31  5-MIN KSTC 261055Z AUTO 34009KT 10SM CLR 14/11 A2996 990 83 1100 330/09 RMK AO2 $
14926KSTC STC20050726050010007/26/05 05:00:31  5-MIN KSTC 261100Z AUTO 34008KT 10SM CLR 13/11 A2996 990 86 1100 340/08 RMK AO2 $
14926KSTC STC20050726050510007/26/05 05:05:31  5-MIN KSTC 261105Z AUTO 33008KT 10SM CLR 13/11 A2997 980 86 1100 330/08 RMK AO2 $
14926KSTC STC20050726051010007/26/05 05:10:31  5-MIN KSTC 261110Z AUTO 34008KT 10SM CLR 13/11 A2997 980 86 1100 340/08 RMK AO2 $
14926KSTC STC20050726051510407/26/05 05:15:31  5-MIN KSTC 261115Z AUTO 33008G15KT 10SM CLR 13/11 A2997 980 86 1100 330/08G15 RMK AO2
14926KSTC STC20050726052009807/26/05 05:20:31  5-MIN KSTC 261120Z AUTO 33008KT 10SM CLR 13/11 A2998 980 86 1000 330/08 RMK AO2
14926KSTC STC20050726052509807/26/05 05:25:31  5-MIN KSTC 261125Z AUTO 33008KT 10SM CLR 13/11 A2998 970 86 1000 330/08 RMK AO2
14926KSTC STC20050726053009807/26/05 05:30:31  5-MIN KSTC 261130Z AUTO 33007KT 10SM CLR 13/11 A2998 980 86 1000 330/07 RMK AO2
14926KSTC STC20050726053509807/26/05 05:35:31  5-MIN KSTC 261135Z AUTO 33006KT 10SM CLR 13/11 A2997 980 86 1100 330/06 RMK AO2
14926KSTC STC20050726054009807/26/05 05:40:31  5-MIN KSTC 261140Z AUTO 33008KT 10SM CLR 13/11 A2997 980 86 1000 330/08 RMK AO2
14926KSTC STC20050726054509807/26/05 05:45:31  5-MIN KSTC 261145Z AUTO 34007KT 10SM CLR 13/11 A2998 980 86 1000 330/07 RMK AO2
14926KSTC STC20050726055013907/26/05 05:50:31  5-MIN KSTC 261150Z AUTO 33007KT 10SM CLR 13/11 A2998 970 86 1000 330/07 RMK AO2 SLP161 70047 T01330111 10167 20133 53007
14926KSTC STC20050726055509807/26/05 05:55:31  5-MIN KSTC 261155Z AUTO 33008KT 10SM CLR 13/11 A2998 970 86 1000 330/08 RMK AO2
14926KSTC STC20050726060009307/26/05 06:00:31  5-MIN KSTC 261200Z 34008KT 10SM CLR 14/11 A2998 970 83 1100 340/08 RMK AO2
14926KSTC STC20050726060509307/26/05 06:05:31  5-MIN KSTC 261205Z 34010KT 10SM CLR 14/11 A2999 970 83 1100 330/10 RMK AO2
14926KSTC STC20050726061009307/26/05 06:10:31  5-MIN KSTC 261210Z 34010KT 10SM CLR 14/11 A2999 960 80 1100 340/10 RMK AO2
14926KSTC STC20050726061509307/26/05 06:15:31  5-MIN KSTC 261215Z 34010KT 10SM CLR 14/11 A2999 960 80 1100 330/10 RMK AO2
14926KSTC STC20050726062009307/26/05 06:20:31  5-MIN KSTC 261220Z 34011KT 10SM CLR 14/11 A2999 960 80 1100 340/11 RMK AO2
14926KSTC STC20050726062509307/26/05 06:25:31  5-MIN KSTC 261225Z 34010KT 10SM CLR 14/11 A2999 960 80 1100 340/10 RMK AO2
14926KSTC STC20050726063009307/26/05 06:30:31  5-MIN KSTC 261230Z 34010KT 10SM CLR 14/11 A2999 960 80 1100 330/10 RMK AO2
14926KSTC STC20050726063509307/26/05 06:35:31  5-MIN KSTC 261235Z 34010KT 10SM CLR 14/11 A3000 950 80 1100 340/10 RMK AO2
14926KSTC STC20050726064009907/26/05 06:40:31  5-MIN KSTC 261240Z 34012G15KT 10SM CLR 14/11 A3000 960 80 1100 340/12G15 RMK AO2
14926KSTC STC20050726064509907/26/05 06:45:31  5-MIN KSTC 261245Z 34010G15KT 10SM CLR 14/11 A3000 960 80 1100 340/10G15 RMK AO2
14926KSTC STC20050726065011007/26/05 06:50:31  5-MIN KSTC 261250Z 34010KT 10SM CLR 14/11 A3000 960 77 1200 340/10 RMK AO2 SLP165 T01440106
14926KSTC STC20050726065509307/26/05 06:55:31  5-MIN KSTC 261255Z 34011KT 10SM CLR 14/11 A3000 960 77 1200 340/11 RMK AO2
14926KSTC STC20050726070009307/26/05 07:00:31  5-MIN KSTC 261300Z 35011KT 10SM CLR 14/11 A3000 950 77 1100 340/11 RMK AO2
14926KSTC STC20050726070509307/26/05 07:05:31  5-MIN KSTC 261305Z 35009KT 10SM CLR 14/11 A3000 950 77 1100 340/09 RMK AO2
14926KSTC STC20050726071009307/26/05 07:10:31  5-MIN KSTC 261310Z 34012KT 10SM CLR 14/11 A3000 950 77 1100 340/12 RMK AO2
14926KSTC STC20050726071509307/26/05 07:15:31  5-MIN KSTC 261315Z 35010KT 10SM CLR 14/11 A3001 950 77 1100 340/10 RMK AO2
14926KSTC STC20050726072009907/26/05 07:20:31  5-MIN KSTC 261320Z 35012G15KT 10SM CLR 14/10 A3001 950 74 1100 340/12G15 RMK AO2
14926KSTC STC20050726072509907/26/05 07:25:31  5-MIN KSTC 261325Z 35009G15KT 10SM CLR 14/11 A3001 940 77 1100 340/09G15 RMK AO2
14926KSTC STC20050726073009907/26/05 07:30:31  5-MIN KSTC 261330Z 34012G16KT 10SM CLR 15/11 A3001 940 74 1200 340/12G16 RMK AO2
14926KSTC STC20050726073509907/26/05 07:35:31  5-MIN KSTC 261335Z 35011G16KT 10SM CLR 15/11 A3001 940 74 1200 340/11G16 RMK AO2
14926KSTC STC20050726074009307/26/05 07:40:31  5-MIN KSTC 261340Z 34014KT 10SM CLR 15/10 A3001 940 72 1200 340/14 RMK AO2
14926KSTC STC20050726074509907/26/05 07:45:31  5-MIN KSTC 261345Z 34014G19KT 10SM CLR 15/09 A3002 940 69 1200 340/14G19 RMK AO2
14926KSTC STC20050726075011607/26/05 07:50:31  5-MIN KSTC 261350Z 34011G19KT 10SM CLR 15/09 A3002 930 69 1200 340/11G19 RMK AO2 SLP174 T01500094
14926KSTC STC20050726075509907/26/05 07:55:31  5-MIN KSTC 261355Z 35009G17KT 10SM CLR 16/10 A3002 930 69 1300 350/09G17 RMK AO2
14926KSTC STC20050726080009307/26/05 08:00:31  5-MIN KSTC 261400Z 35010KT 10SM CLR 16/10 A3003 930 69 1200 340/10 RMK AO2
14926KSTC STC20050726080509907/26/05 08:05:31  5-MIN KSTC 261405Z 34012G16KT 10SM CLR 16/10 A3004 920 69 1200 340/12G16 RMK AO2
14926KSTC STC20050726081009307/26/05 08:10:31  5-MIN KSTC 261410Z 35012KT 10SM CLR 16/10 A3004 920 69 1200 350/12 RMK AO2
14926KSTC STC20050726081509307/26/05 08:15:31  5-MIN KSTC 261415Z 34010KT 10SM CLR 16/09 A3004 920 67 1200 340/10 RMK AO2
14926KSTC STC20050726082009907/26/05 08:20:31  5-MIN KSTC 261420Z 35010G16KT 10SM CLR 16/09 A3004 920 67 1200 350/10G16 RMK AO2
14926KSTC STC20050726082509907/26/05 08:25:31  5-MIN KSTC 261425Z 35009G16KT 10SM CLR 16/09 A3004 920 64 1300 350/09G16 RMK AO2
14926KSTC STC20050726083009307/26/05 08:30:31  5-MIN KSTC 261430Z 34012KT 10SM CLR 16/09 A3004 910 64 1300 340/12 RMK AO2
14926KSTC STC20050726083509307/26/05 08:35:31  5-MIN KSTC 261435Z 36009KT 10SM CLR 16/09 A3004 910 64 1300 350/09 RMK AO2
14926KSTC STC20050726084009607/26/05 08:40:31  5-MIN KSTC 261440Z 34010KT 10SM FEW027 16/10 A3004 920 67 1300 340/10 RMK AO2
14926KSTC STC20050726084509607/26/05 08:45:31  5-MIN KSTC 261445Z 34010KT 10SM FEW027 16/10 A3004 920 67 1300 340/10 RMK AO2
14926KSTC STC20050726085012507/26/05 08:50:31  5-MIN KSTC 261450Z 36010G15KT 10SM FEW027 16/10 A3004 920 67 1300 350/10G15 RMK AO2 SLP179 T01610100 53014
14926KSTC STC20050726085510207/26/05 08:55:31  5-MIN KSTC 261455Z 34010G15KT 10SM FEW027 16/09 A3004 920 64 1300 340/10G15 RMK AO2
14926KSTC STC20050726090009607/26/05 09:00:31  5-MIN KSTC 261500Z 36010KT 10SM FEW027 16/09 A3004 920 64 1300 350/10 RMK AO2
14926KSTC STC20050726090509907/26/05 09:05:31  5-MIN KSTC 261505Z 35010G16KT 10SM CLR 17/09 A3004 920 62 1400 350/10G16 RMK AO2
14926KSTC STC20050726091009907/26/05 09:10:31  5-MIN KSTC 261510Z 34009G16KT 10SM CLR 16/09 A3003 920 64 1300 340/09G16 RMK AO2
14926KSTC STC20050726091509907/26/05 09:15:31  5-MIN KSTC 261515Z 34011G15KT 10SM CLR 16/09 A3003 920 64 1300 340/11G15 RMK AO2
14926KSTC STC20050726092009307/26/05 09:20:31  5-MIN KSTC 261520Z 35008KT 10SM CLR 16/09 A3003 920 64 1300 350/08 RMK AO2
14926KSTC STC20050726092509607/26/05 09:25:31  5-MIN KSTC 261525Z 35010KT 10SM FEW030 17/09 A3003 920 62 1400 340/10 RMK AO2
14926KSTC STC20050726093009607/26/05 09:30:31  5-MIN KSTC 261530Z 36011KT 10SM FEW032 16/09 A3003 930 64 1300 360/11 RMK AO2
14926KSTC STC20050726093509607/26/05 09:35:31  5-MIN KSTC 261535Z 36010KT 10SM FEW032 16/09 A3003 930 64 1300 350/10 RMK AO2
14926KSTC STC20050726094009607/26/05 09:40:31  5-MIN KSTC 261540Z 01010KT 10SM FEW032 16/09 A3003 930 64 1300 010/10 RMK AO2
14926KSTC STC20050726094509607/26/05 09:45:31  5-MIN KSTC 261545Z 01010KT 10SM FEW030 17/09 A3003 920 62 1400 360/10 RMK AO2
14926KSTC STC20050726095011307/26/05 09:50:31  5-MIN KSTC 261550Z 36011KT 10SM FEW030 17/10 A3003 920 64 1400 360/11 RMK AO2 SLP177 T01670100
14926KSTC STC20050726095510907/26/05 09:55:31  5-MIN KSTC 261555Z 34009G15KT 10SM FEW030 SCT037 17/09 A3004 920 62 1400 340/09G15 RMK AO2
14926KSTC STC20050726100010307/26/05 10:00:31  5-MIN KSTC 261600Z 36009KT 10SM FEW030 SCT037 17/10 A3004 920 62 1400 360/09 RMK AO2
14926KSTC STC20050726100510307/26/05 10:05:31  5-MIN KSTC 261605Z 35010KT 10SM SCT030 SCT037 17/10 A3004 920 64 1400 350/10 RMK AO2
14926KSTC STC20050726101010307/26/05 10:10:31  5-MIN KSTC 261610Z 34009KT 10SM SCT030 BKN037 17/09 A3004 920 62 1400 340/09 RMK AO2
14926KSTC STC20050726101510307/26/05 10:15:31  5-MIN KSTC 261615Z 36008KT 10SM SCT033 BKN040 17/10 A3004 910 62 1400 360/08 RMK AO2
14926KSTC STC20050726102009607/26/05 10:20:31  5-MIN KSTC 261620Z 34009KT 10SM BKN033 17/10 A3004 910 62 1400 340/09 RMK AO2
14926KSTC STC20050726102510207/26/05 10:25:31  5-MIN KSTC 261625Z 36009G15KT 10SM BKN033 17/10 A3004 910 62 1400 360/09G15 RMK AO2
14926KSTC STC20050726103010207/26/05 10:30:31  5-MIN KSTC 261630Z 34008G16KT 10SM BKN034 17/10 A3004 920 62 1400 340/08G16 RMK AO2
14926KSTC STC20050726103510907/26/05 10:35:31  5-MIN KSTC 261635Z 01008G16KT 10SM SCT034 BKN041 17/09 A3004 910 60 1400 360/08G16 RMK AO2
14926KSTC STC20050726104010307/26/05 10:40:31  5-MIN KSTC 261640Z 34009KT 10SM BKN032 BKN040 17/09 A3004 920 62 1400 340/09 RMK AO2
14926KSTC STC20050726104510307/26/05 10:45:31  5-MIN KSTC 261645Z 35007KT 10SM BKN035 BKN042 17/10 A3004 910 64 1400 350/07 RMK AO2
14926KSTC STC20050726105012007/26/05 10:50:31  5-MIN KSTC 261650Z 34006KT 10SM BKN035 BKN042 17/10 A3004 910 62 1400 340/06 RMK AO2 SLP181 T01720100
14926KSTC STC20050726105509607/26/05 10:55:31  5-MIN KSTC 261655Z 34008KT 10SM BKN037 17/09 A3004 910 60 1400 340/08 RMK AO2
14926KSTC STC20050726110010307/26/05 11:00:31  5-MIN KSTC 261700Z 34010KT 10SM BKN037 OVC045 17/09 A3004 920 60 1400 340/10 RMK AO2
14926KSTC STC20050726110510307/26/05 11:05:31  5-MIN KSTC 261705Z 34009KT 10SM BKN037 OVC043 18/10 A3004 920 58 1600 340/09 RMK AO2
14926KSTC STC20050726111010307/26/05 11:10:31  5-MIN KSTC 261710Z 34011KT 10SM BKN037 OVC045 18/10 A3004 910 60 1500 340/11 RMK AO2
14926KSTC STC20050726111510307/26/05 11:15:31  5-MIN KSTC 261715Z 33011KT 10SM SCT036 OVC044 18/10 A3005 910 60 1500 330/11 RMK AO2
14926KSTC STC20050726112010307/26/05 11:20:31  5-MIN KSTC 261720Z 34008KT 10SM SCT036 OVC044 18/10 A3004 910 60 1500 340/08 RMK AO2
14926KSTC STC20050726112510307/26/05 11:25:31  5-MIN KSTC 261725Z 35008KT 10SM FEW036 OVC046 18/10 A3004 910 58 1600 350/08 RMK AO2
14926KSTC STC20050726113010307/26/05 11:30:31  5-MIN KSTC 261730Z 34013KT 10SM FEW036 OVC046 19/11 A3005 910 58 1600 340/13 RMK AO2
14926KSTC STC20050726113510307/26/05 11:35:31  5-MIN KSTC 261735Z 36008KT 10SM FEW035 OVC046 18/09 A3005 910 58 1500 360/08 RMK AO2
14926KSTC STC20050726114010307/26/05 11:40:31  5-MIN KSTC 261740Z 36010KT 10SM SCT041 OVC048 18/10 A3005 910 58 1500 360/10 RMK AO2
14926KSTC STC20050726114510307/26/05 11:45:31  5-MIN KSTC 261745Z 35011KT 10SM FEW035 OVC046 19/11 A3005 910 58 1600 350/11 RMK AO2
14926KSTC STC20050726115013807/26/05 11:50:31  5-MIN KSTC 261750Z 32011KT 10SM FEW035 OVC046 19/11 A3005 910 58 1600 320/11 RMK AO2 SLP184 T01890106 10189 20133 53019
14926KSTC STC20050726115510207/26/05 11:55:31  5-MIN KSTC 261755Z 32008G15KT 10SM BKN046 18/11 A3005 910 60 1500 320/08G15 RMK AO2
14926KSTC STC20050726120009607/26/05 12:00:31  5-MIN KSTC 261800Z 34009KT 10SM OVC046 18/11 A3005 910 60 1500 330/09 RMK AO2
14926KSTC STC20050726120509607/26/05 12:05:31  5-MIN KSTC 261805Z 33011KT 10SM BKN046 18/11 A3005 910 60 1500 330/11 RMK AO2
14926KSTC STC20050726121010207/26/05 12:10:31  5-MIN KSTC 261810Z 32012G19KT 10SM BKN046 19/11 A3005 910 56 1700 320/12G19 RMK AO2
14926KSTC STC20050726121510207/26/05 12:15:31  5-MIN KSTC 261815Z 34014G19KT 10SM BKN047 19/11 A3005 910 56 1700 340/14G19 RMK AO2
14926KSTC STC20050726122010907/26/05 12:20:31  5-MIN KSTC 261820Z 33013G18KT 10SM FEW034 BKN046 18/11 A3005 910 60 1500 330/13G18 RMK AO2
14926KSTC STC20050726122510907/26/05 12:25:31  5-MIN KSTC 261825Z 33013G17KT 10SM FEW034 BKN048 19/11 A3005 910 58 1600 330/13G17 RMK AO2
14926KSTC STC20050726123010307/26/05 12:30:31  5-MIN KSTC 261830Z 33012KT 10SM FEW034 BKN050 18/10 A3005 910 58 1600 330/12 RMK AO2
14926KSTC STC20050726123510307/26/05 12:35:31  5-MIN KSTC 261835Z 34011KT 10SM FEW034 BKN050 19/10 A3005 910 54 1700 340/11 RMK AO2
14926KSTC STC20050726124010907/26/05 12:40:31  5-MIN KSTC 261840Z 35012G18KT 10SM FEW034 BKN050 19/10 A3005 910 56 1600 350/12G18 RMK AO2
14926KSTC STC20050726125012607/26/05 12:50:31  5-MIN KSTC 261850Z 36009G16KT 10SM FEW043 BKN050 19/10 A3005 910 56 1600 350/09G16 RMK AO2 SLP183 T01890100
14926KSTC STC20050726125510907/26/05 12:55:31  5-MIN KSTC 261855Z 34011G16KT 10SM FEW041 BKN050 19/09 A3005 910 52 1700 340/11G16 RMK AO2
14926KSTC STC20050726130010307/26/05 13:00:31  5-MIN KSTC 261900Z 35009KT 10SM FEW044 BKN050 19/09 A3005 910 52 1700 350/09 RMK AO2
14926KSTC STC20050726130510307/26/05 13:05:31  5-MIN KSTC 261905Z 36011KT 10SM SCT044 OVC050 20/10 A3005 910 52 1700 350/11 RMK AO2
14926KSTC STC20050726131010207/26/05 13:10:31  5-MIN KSTC 261910Z 36011G16KT 10SM BKN050 20/09 A3005 910 50 1700 360/11G16 RMK AO2
14926KSTC STC20050726131510907/26/05 13:15:31  5-MIN KSTC 261915Z 34012G17KT 10SM FEW043 BKN050 19/09 A3005 900 54 1600 330/12G17 RMK AO2
14926KSTC STC20050726132010907/26/05 13:20:31  5-MIN KSTC 261920Z 34011G17KT 10SM FEW043 OVC055 19/09 A3005 900 52 1700 340/11G17 RMK AO2
14926KSTC STC20050726132510907/26/05 13:25:31  5-MIN KSTC 261925Z 35010G15KT 10SM FEW043 OVC055 19/09 A3006 900 54 1600 350/10G15 RMK AO2
14926KSTC STC20050726133009607/26/05 13:30:31  5-MIN KSTC 261930Z 36011KT 10SM OVC055 19/09 A3005 900 54 1600 360/11 RMK AO2
14926KSTC STC20050726133509607/26/05 13:35:31  5-MIN KSTC 261935Z 36009KT 10SM OVC055 19/10 A3005 910 54 1700 360/09 RMK AO2
14926KSTC STC20050726134009607/26/05 13:40:31  5-MIN KSTC 261940Z 34009KT 10SM OVC055 20/09 A3005 900 50 1700 340/09 RMK AO2
14926KSTC STC20050726134509607/26/05 13:45:31  5-MIN KSTC 261945Z 35011KT 10SM OVC055 19/10 A3005 900 54 1700 350/11 RMK AO2
14926KSTC STC20050726135013607/26/05 13:50:31  5-MIN KSTC 261950Z 35008KT 330V040 10SM FEW045 OVC055 19/10 A3005 900 54 1700 350/08 330V040 RMK AO2 SLP184 T01940100
14926KSTC STC20050726135510307/26/05 13:55:31  5-MIN KSTC 261955Z 35011KT 10SM FEW042 OVC055 19/10 A3005 900 56 1600 340/11 RMK AO2
14926KSTC STC20050726140009607/26/05 14:00:31  5-MIN KSTC 262000Z 35008KT 10SM BKN055 19/10 A3006 900 54 1700 340/08 RMK AO2
14926KSTC STC20050726140509607/26/05 14:05:31  5-MIN KSTC 262005Z 35009KT 10SM BKN055 20/10 A3006 900 52 1700 350/09 RMK AO2
14926KSTC STC20050726141010307/26/05 14:10:31  5-MIN KSTC 262010Z 34009KT 10SM FEW046 BKN055 19/09 A3006 900 52 1700 340/09 RMK AO2
14926KSTC STC20050726141510307/26/05 14:15:31  5-MIN KSTC 262015Z 33011KT 10SM FEW044 BKN055 19/10 A3006 900 54 1700 330/11 RMK AO2
14926KSTC STC20050726142010307/26/05 14:20:31  5-MIN KSTC 262020Z 35010KT 10SM FEW042 BKN060 21/11 A3006 900 52 1800 350/10 RMK AO2
14926KSTC STC20050726142510907/26/05 14:25:31  5-MIN KSTC 262025Z 32012G16KT 10SM FEW042 BKN060 21/11 A3006 900 50 1900 320/12G16 RMK AO2
14926KSTC STC20050726143010907/26/05 14:30:31  5-MIN KSTC 262030Z 33011G16KT 10SM FEW044 BKN060 21/09 A3006 900 48 1800 330/11G16 RMK AO2
14926KSTC STC20050726143510907/26/05 14:35:31  5-MIN KSTC 262035Z 35011G17KT 10SM SCT044 BKN060 21/10 A3006 900 50 1800 350/11G17 RMK AO2
14926KSTC STC20050726144010907/26/05 14:40:31  5-MIN KSTC 262040Z 34008G17KT 10SM FEW044 BKN060 20/10 A3006 900 52 1700 340/08G17 RMK AO2
14926KSTC STC20050726144510307/26/05 14:45:31  5-MIN KSTC 262045Z 34009KT 10SM FEW046 BKN060 20/09 A3006 900 50 1700 330/09 RMK AO2
14926KSTC STC20050726145012607/26/05 14:50:31  5-MIN KSTC 262050Z 33010KT 10SM FEW046 SCT060 20/10 A3006 890 52 1700 320/10 RMK AO2 SLP187 T02000100 53004
14926KSTC STC20050726145510307/26/05 14:55:31  5-MIN KSTC 262055Z 32010KT 10SM FEW046 SCT060 21/10 A3006 900 50 1800 320/10 RMK AO2
14926KSTC STC20050726150010307/26/05 15:00:31  5-MIN KSTC 262100Z 33008KT 10SM FEW044 SCT060 21/10 A3006 900 50 1800 330/08 RMK AO2
14926KSTC STC20050726150509607/26/05 15:05:31  5-MIN KSTC 262105Z 33010KT 10SM SCT060 21/10 A3006 900 50 1800 330/10 RMK AO2
14926KSTC STC20050726151009607/26/05 15:10:31  5-MIN KSTC 262110Z 36011KT 10SM FEW060 20/10 A3006 900 52 1700 350/11 RMK AO2
14926KSTC STC20050726151509607/26/05 15:15:31  5-MIN KSTC 262115Z 33010KT 10SM SCT060 20/11 A3006 890 54 1700 330/10 RMK AO2
14926KSTC STC20050726152009607/26/05 15:20:31  5-MIN KSTC 262120Z 32010KT 10SM BKN060 20/10 A3006 890 52 1700 320/10 RMK AO2
14926KSTC STC20050726152509607/26/05 15:25:31  5-MIN KSTC 262125Z 35008KT 10SM SCT060 21/11 A3006 890 52 1800 350/08 RMK AO2
14926KSTC STC20050726153010307/26/05 15:30:31  5-MIN KSTC 262130Z 35010KT 10SM FEW044 SCT060 21/10 A3006 900 50 1800 350/10 RMK AO2
14926KSTC STC20050726153510307/26/05 15:35:31  5-MIN KSTC 262135Z 34010KT 10SM FEW044 BKN065 21/10 A3006 890 50 1800 340/10 RMK AO2
14926KSTC STC20050726154010307/26/05 15:40:31  5-MIN KSTC 262140Z 33009KT 10SM FEW046 BKN060 19/09 A3007 890 52 1700 330/09 RMK AO2
14926KSTC STC20050726154510307/26/05 15:45:31  5-MIN KSTC 262145Z 33009KT 10SM FEW044 BKN060 19/10 A3006 890 54 1700 330/09 RMK AO2
14926KSTC STC20050726155012007/26/05 15:50:31  5-MIN KSTC 262150Z 34008KT 10SM FEW044 BKN060 19/10 A3006 890 54 1700 330/08 RMK AO2 SLP188 T01940100
14926KSTC STC20050726155510307/26/05 15:55:31  5-MIN KSTC 262155Z 34010KT 10SM FEW044 BKN060 20/11 A3006 890 54 1700 330/10 RMK AO2
14926KSTC STC20050726160010307/26/05 16:00:31  5-MIN KSTC 262200Z 35010KT 10SM FEW044 BKN060 19/10 A3006 900 54 1700 340/10 RMK AO2
14926KSTC STC20050726160509607/26/05 16:05:31  5-MIN KSTC 262205Z 34009KT 10SM SCT060 19/09 A3006 900 54 1600 340/09 RMK AO2
14926KSTC STC20050726161009607/26/05 16:10:31  5-MIN KSTC 262210Z 34010KT 10SM BKN060 19/10 A3007 890 56 1600 340/10 RMK AO2
14926KSTC STC20050726161510207/26/05 16:15:31  5-MIN KSTC 262215Z 35009G16KT 10SM BKN060 19/10 A3007 890 56 1600 350/09G16 RMK AO2
14926KSTC STC20050726162010207/26/05 16:20:31  5-MIN KSTC 262220Z 36009G16KT 10SM BKN065 19/11 A3007 890 56 1700 350/09G16 RMK AO2
14926KSTC STC20050726162509607/26/05 16:25:31  5-MIN KSTC 262225Z 34010KT 10SM BKN065 19/10 A3007 890 54 1700 340/10 RMK AO2
14926KSTC STC20050726163009607/26/05 16:30:31  5-MIN KSTC 262230Z 35007KT 10SM BKN065 19/09 A3007 890 52 1700 350/07 RMK AO2
14926KSTC STC20050726163509607/26/05 16:35:31  5-MIN KSTC 262235Z 36008KT 10SM BKN065 19/10 A3007 890 54 1700 350/08 RMK AO2
14926KSTC STC20050726164009607/26/05 16:40:31  5-MIN KSTC 262240Z 35007KT 10SM BKN065 19/10 A3007 890 54 1700 350/07 RMK AO2
14926KSTC STC20050726164509607/26/05 16:45:31  5-MIN KSTC 262245Z 36007KT 10SM SCT065 19/11 A3007 890 56 1600 350/07 RMK AO2
14926KSTC STC20050726165011307/26/05 16:50:31  5-MIN KSTC 262250Z 34009KT 10SM BKN070 19/10 A3007 880 56 1600 330/09 RMK AO2 SLP191 T01890100
14926KSTC STC20050726165509607/26/05 16:55:31  5-MIN KSTC 262255Z 33008KT 10SM SCT070 19/09 A3008 880 54 1600 330/08 RMK AO2
14926KSTC STC20050726170009607/26/05 17:00:31  5-MIN KSTC 262300Z 34007KT 10SM FEW070 19/09 A3008 880 54 1600 330/07 RMK AO2
14926KSTC STC20050726170509607/26/05 17:05:31  5-MIN KSTC 262305Z 34006KT 10SM SCT070 19/10 A3008 880 56 1600 330/06 RMK AO2
14926KSTC STC20050726171009607/26/05 17:10:31  5-MIN KSTC 262310Z 34008KT 10SM BKN070 19/10 A3007 880 56 1600 340/08 RMK AO2
14926KSTC STC20050726171509607/26/05 17:15:31  5-MIN KSTC 262315Z 35007KT 10SM BKN070 19/10 A3007 890 56 1600 350/07 RMK AO2
14926KSTC STC20050726172009607/26/05 17:20:31  5-MIN KSTC 262320Z 35007KT 10SM SCT070 19/10 A3007 890 56 1600 350/07 RMK AO2
14926KSTC STC20050726172509607/26/05 17:25:31  5-MIN KSTC 262325Z 34005KT 10SM SCT070 19/10 A3007 880 56 1600 340/05 RMK AO2
14926KSTC STC20050726173009607/26/05 17:30:31  5-MIN KSTC 262330Z 34006KT 10SM SCT070 19/10 A3007 880 56 1600 340/06 RMK AO2
14926KSTC STC20050726173509607/26/05 17:35:31  5-MIN KSTC 262335Z 34006KT 10SM FEW070 19/11 A3007 890 58 1600 340/06 RMK AO2
14926KSTC STC20050726174009607/26/05 17:40:31  5-MIN KSTC 262340Z 34007KT 10SM FEW070 19/11 A3007 890 58 1600 340/07 RMK AO2
14926KSTC STC20050726174509307/26/05 17:45:31  5-MIN KSTC 262345Z 35005KT 10SM CLR 19/11 A3007 890 58 1600 340/05 RMK AO2
14926KSTC STC20050726175012807/26/05 17:50:31  5-MIN KSTC 262350Z 36008KT 10SM CLR 19/11 A3007 890 58 1600 360/08 RMK AO2 SLP191 T01890106 10211 20178 53004
14926KSTC STC20050726175509307/26/05 17:55:31  5-MIN KSTC 262355Z 35006KT 10SM CLR 18/11 A3007 890 60 1500 350/06 RMK AO2
14926KSTC STC20050726180009307/26/05 18:00:31  5-MIN KSTC 270000Z 35008KT 10SM CLR 18/11 A3007 880 60 1500 340/08 RMK AO2
14926KSTC STC20050726180509307/26/05 18:05:31  5-MIN KSTC 270005Z 34007KT 10SM CLR 18/10 A3008 880 58 1500 340/07 RMK AO2
14926KSTC STC20050726181009307/26/05 18:10:31  5-MIN KSTC 270010Z VRB06KT 10SM CLR 18/10 A3007 880 58 1500 VRB/06 RMK AO2
14926KSTC STC20050726181509307/26/05 18:15:31  5-MIN KSTC 270015Z 34007KT 10SM CLR 18/10 A3008 880 58 1500 340/07 RMK AO2
14926KSTC STC20050726182009307/26/05 18:20:31  5-MIN KSTC 270020Z 34006KT 10SM CLR 18/10 A3008 880 58 1500 340/06 RMK AO2
14926KSTC STC20050726182509307/26/05 18:25:31  5-MIN KSTC 270025Z 35006KT 10SM CLR 18/10 A3008 880 58 1500 340/06 RMK AO2
14926KSTC STC20050726183009307/26/05 18:30:31  5-MIN KSTC 270030Z 36005KT 10SM CLR 18/10 A3007 890 58 1500 350/05 RMK AO2
14926KSTC STC20050726183509607/26/05 18:35:31  5-MIN KSTC 270035Z 35007KT 10SM FEW049 18/10 A3007 880 58 1500 350/07 RMK AO2
14926KSTC STC20050726184009607/26/05 18:40:31  5-MIN KSTC 270040Z 36009KT 10SM FEW049 18/10 A3007 880 60 1500 360/09 RMK AO2
14926KSTC STC20050726184509607/26/05 18:45:31  5-MIN KSTC 270045Z 36007KT 10SM FEW049 18/10 A3008 880 60 1500 350/07 RMK AO2
14926KSTC STC20050726185012007/26/05 18:50:31  5-MIN KSTC 270050Z 36007KT 10SM FEW049 SCT070 18/10 A3008 880 60 1500 350/07 RMK AO2 SLP193 T01780100
14926KSTC STC20050726185509607/26/05 18:55:31  5-MIN KSTC 270055Z 36007KT 10SM FEW049 18/10 A3008 880 60 1500 350/07 RMK AO2
14926KSTC STC20050726190009607/26/05 19:00:31  5-MIN KSTC 270100Z 36007KT 10SM FEW049 18/10 A3008 880 60 1500 360/07 RMK AO2
14926KSTC STC20050726190509607/26/05 19:05:31  5-MIN KSTC 270105Z 36007KT 10SM FEW049 17/10 A3008 880 62 1400 360/07 RMK AO2
14926KSTC STC20050726191010307/26/05 19:10:31  5-MIN KSTC 270110Z 36006KT 10SM SCT049 SCT070 17/11 A3008 880 64 1400 360/06 RMK AO2
14926KSTC STC20050726191509607/26/05 19:15:31  5-MIN KSTC 270115Z 36006KT 10SM SCT049 17/10 A3008 880 62 1400 360/06 RMK AO2
14926KSTC STC20050726192009607/26/05 19:20:31  5-MIN KSTC 270120Z 35006KT 10SM BKN049 17/11 A3008 880 64 1400 350/06 RMK AO2
14926KSTC STC20050726192509607/26/05 19:25:31  5-MIN KSTC 270125Z 36005KT 10SM BKN055 17/11 A3008 880 64 1400 350/05 RMK AO2
14926KSTC STC20050726193009607/26/05 19:30:31  5-MIN KSTC 270130Z 35006KT 10SM BKN060 17/11 A3008 880 64 1400 350/06 RMK AO2
14926KSTC STC20050726193509607/26/05 19:35:31  5-MIN KSTC 270135Z 35007KT 10SM BKN060 17/11 A3008 880 64 1400 350/07 RMK AO2
14926KSTC STC20050726194009607/26/05 19:40:31  5-MIN KSTC 270140Z 35006KT 10SM BKN060 17/11 A3008 880 64 1400 350/06 RMK AO2
14926KSTC STC20050726194509607/26/05 19:45:31  5-MIN KSTC 270145Z 35005KT 10SM BKN060 17/11 A3009 870 64 1400 350/05 RMK AO2
14926KSTC STC20050726195011307/26/05 19:50:31  5-MIN KSTC 270150Z 35005KT 10SM OVC060 17/11 A3009 870 67 1300 350/05 RMK AO2 SLP197 T01670106
14926KSTC STC20050726195509607/26/05 19:55:31  5-MIN KSTC 270155Z 36005KT 10SM BKN060 17/11 A3009 870 67 1300 350/05 RMK AO2
14926KSTC STC20050726200009607/26/05 20:00:31  5-MIN KSTC 270200Z 35004KT 10SM BKN060 16/11 A3009 870 69 1200 350/04 RMK AO2
14926KSTC STC20050726200509607/26/05 20:05:31  5-MIN KSTC 270205Z 35004KT 10SM SCT060 16/11 A3009 870 69 1200 350/04 RMK AO2
14926KSTC STC20050726201009607/26/05 20:10:31  5-MIN KSTC 270210Z 35004KT 10SM SCT060 16/11 A3010 870 72 1200 350/04 RMK AO2
14926KSTC STC20050726201509607/26/05 20:15:31  5-MIN KSTC 270215Z 35003KT 10SM FEW060 16/11 A3010 860 72 1200 340/03 RMK AO2
14926KSTC STC20050726202009607/26/05 20:20:31  5-MIN KSTC 270220Z 35003KT 10SM FEW060 15/11 A3010 860 74 1100 350/03 RMK AO2
14926KSTC STC20050726202509307/26/05 20:25:31  5-MIN KSTC 270225Z 34003KT 10SM CLR 15/11 A3010 860 74 1100 340/03 RMK AO2
14926KSTC STC20050726203009307/26/05 20:30:31  5-MIN KSTC 270230Z 33003KT 10SM CLR 14/11 A3011 850 77 1000 330/03 RMK AO2
14926KSTC STC20050726203509307/26/05 20:35:31  5-MIN KSTC 270235Z 33004KT 10SM CLR 14/11 A3011 850 77 1000 330/04 RMK AO2
14926KSTC STC20050726204009307/26/05 20:40:31  5-MIN KSTC 270240Z 34003KT 10SM CLR 14/11 A3011 850 77 1000 340/03 RMK AO2
14926KSTC STC20050726204509307/26/05 20:45:31  5-MIN KSTC 270245Z 34003KT 10SM CLR 14/11 A3011 850 77 1000 340/03 RMK AO2
14926KSTC STC20050726205011607/26/05 20:50:31  5-MIN KSTC 270250Z 33004KT 10SM CLR 14/11 A3011 850 77 1000 330/04 RMK AO2 SLP205 T01440106 50003
14926KSTC STC20050726205509307/26/05 20:55:31  5-MIN KSTC 270255Z 34003KT 10SM CLR 14/11 A3011 850 80 1000 340/03 RMK AO2
14926KSTC STC20050726210009307/26/05 21:00:31  5-MIN KSTC 270300Z 33003KT 10SM CLR 14/11 A3012 850 80 1000 320/03 RMK AO2
14926KSTC STC20050726210509307/26/05 21:05:31  5-MIN KSTC 270305Z 33003KT 10SM CLR 14/11 A3012 850 80 1000 330/03 RMK AO2
14926KSTC STC20050726211009307/26/05 21:10:31  5-MIN KSTC 270310Z 33003KT 10SM CLR 14/11 A3012 840 80 1000 330/03 RMK AO2
14926KSTC STC20050726211509207/26/05 21:15:31  5-MIN KSTC 270315Z 33004KT 10SM CLR 13/11 A3012 840 83 900 330/04 RMK AO2
14926KSTC STC20050726212009207/26/05 21:20:31  5-MIN KSTC 270320Z 33004KT 10SM CLR 13/11 A3012 840 83 900 320/04 RMK AO2
14926KSTC STC20050726212509207/26/05 21:25:31  5-MIN KSTC 270325Z 33004KT 10SM CLR 13/11 A3012 840 86 800 320/04 RMK AO2
14926KSTC STC20050726213009207/26/05 21:30:31  5-MIN KSTC 270330Z 33005KT 10SM CLR 13/11 A3012 840 83 900 330/05 RMK AO2
14926KSTC STC20050726213509207/26/05 21:35:31  5-MIN KSTC 270335Z 34005KT 10SM CLR 14/10 A3012 840 77 900 330/05 RMK AO2
14926KSTC STC20050726214009207/26/05 21:40:31  5-MIN KSTC 270340Z 34005KT 10SM CLR 14/10 A3012 840 77 900 330/05 RMK AO2
14926KSTC STC20050726214509207/26/05 21:45:31  5-MIN KSTC 270345Z 33005KT 10SM CLR 13/09 A3013 840 77 900 330/05 RMK AO2
14926KSTC STC20050726215010907/26/05 21:50:31  5-MIN KSTC 270350Z 33005KT 10SM CLR 13/09 A3013 840 77 900 330/05 RMK AO2 SLP211 T01330094
14926KSTC STC20050726215509707/26/05 21:55:31  5-MIN KSTC 270355Z AUTO 33005KT 10SM CLR 13/09 A3013 840 77 900 330/05 RMK AO2
14926KSTC STC20050726220009707/26/05 22:00:31  5-MIN KSTC 270400Z AUTO 34004KT 10SM CLR 13/09 A3013 840 77 900 330/04 RMK AO2
14926KSTC STC20050726220509707/26/05 22:05:31  5-MIN KSTC 270405Z AUTO 33004KT 10SM CLR 13/09 A3013 840 77 900 330/04 RMK AO2
14926KSTC STC20050726221009707/26/05 22:10:31  5-MIN KSTC 270410Z AUTO 33003KT 10SM CLR 13/09 A3013 840 80 800 330/03 RMK AO2
14926KSTC STC20050726221509707/26/05 22:15:31  5-MIN KSTC 270415Z AUTO 33003KT 10SM CLR 13/10 A3013 840 83 800 330/03 RMK AO2
14926KSTC STC20050726222009707/26/05 22:20:31  5-MIN KSTC 270420Z AUTO 33004KT 10SM CLR 12/09 A3013 840 83 700 320/04 RMK AO2
14926KSTC STC20050726222509707/26/05 22:25:31  5-MIN KSTC 270425Z AUTO 33003KT 10SM CLR 12/09 A3013 840 86 700 320/03 RMK AO2
14926KSTC STC20050726223009707/26/05 22:30:31  5-MIN KSTC 270430Z AUTO 33003KT 10SM CLR 12/10 A3013 840 89 700 320/03 RMK AO2
14926KSTC STC20050726223509707/26/05 22:35:31  5-MIN KSTC 270435Z AUTO 32004KT 10SM CLR 12/10 A3013 840 89 700 320/04 RMK AO2
14926KSTC STC20050726224009707/26/05 22:40:31  5-MIN KSTC 270440Z AUTO 32003KT 10SM CLR 12/09 A3013 840 86 700 320/03 RMK AO2
14926KSTC STC20050726224509707/26/05 22:45:31  5-MIN KSTC 270445Z AUTO 32004KT 10SM CLR 12/09 A3013 840 86 700 320/04 RMK AO2
14926KSTC STC20050726225011407/26/05 22:50:31  5-MIN KSTC 270450Z AUTO 32004KT 10SM CLR 12/09 A3013 840 86 700 320/04 RMK AO2 SLP211 T01170094
14926KSTC STC20050726225509707/26/05 22:55:31  5-MIN KSTC 270455Z AUTO 32004KT 10SM CLR 12/09 A3013 840 86 700 320/04 RMK AO2
14926KSTC STC20050726230009707/26/05 23:00:31  5-MIN KSTC 270500Z AUTO 32003KT 10SM CLR 12/09 A3013 840 86 700 320/03 RMK AO2
14926KSTC STC20050726230509707/26/05 23:05:31  5-MIN KSTC 270505Z AUTO 32004KT 10SM CLR 12/09 A3013 830 86 700 310/04 RMK AO2
14926KSTC STC20050726231009707/26/05 23:10:31  5-MIN KSTC 270510Z AUTO 32004KT 10SM CLR 12/09 A3013 830 83 700 320/04 RMK AO2
14926KSTC STC20050726231509707/26/05 23:15:31  5-MIN KSTC 270515Z AUTO 32004KT 10SM CLR 12/09 A3013 830 83 700 320/04 RMK AO2
14926KSTC STC20050726232009707/26/05 23:20:31  5-MIN KSTC 270520Z AUTO 32004KT 10SM CLR 12/09 A3013 830 83 700 320/04 RMK AO2
14926KSTC STC20050726232509707/26/05 23:25:31  5-MIN KSTC 270525Z AUTO 33004KT 10SM CLR 12/09 A3013 830 83 700 320/04 RMK AO2
14926KSTC STC20050726233009707/26/05 23:30:31  5-MIN KSTC 270530Z AUTO 32004KT 10SM CLR 12/09 A3013 830 83 700 320/04 RMK AO2
14926KSTC STC20050726233509707/26/05 23:35:31  5-MIN KSTC 270535Z AUTO 32004KT 10SM CLR 12/09 A3013 830 83 700 320/04 RMK AO2
14926KSTC STC20050726234009707/26/05 23:40:31  5-MIN KSTC 270540Z AUTO 32004KT 10SM CLR 12/09 A3013 830 83 700 320/04 RMK AO2
14926KSTC STC20050726234509707/26/05 23:45:31  5-MIN KSTC 270545Z AUTO 33003KT 10SM CLR 12/09 A3013 830 83 700 320/03 RMK AO2
14926KSTC STC20050726235014207/26/05 23:50:31  5-MIN KSTC 270550Z AUTO 32004KT 10SM CLR 11/09 A3013 830 86 600 320/04 RMK AO2 SLP213 T01110089 10189 20111 402110111 53014
14926KSTC STC20050726235509707/26/05 23:55:31  5-MIN KSTC 270555Z AUTO 32004KT 10SM CLR 11/09 A3013 830 86 600 320/04 RMK AO2
14926KSTC STC20050727000009707/27/05 00:00:32  5-MIN KSTC 270600Z AUTO 33003KT 10SM CLR 11/09 A3013 830 86 600 330/03 RMK AO2
14926KSTC STC20050727000509707/27/05 00:05:31  5-MIN KSTC 270605Z AUTO 33003KT 10SM CLR 11/09 A3013 830 86 600 330/03 RMK AO2
14926KSTC STC20050727001009707/27/05 00:10:31  5-MIN KSTC 270610Z AUTO 00000KT 10SM CLR 11/09 A3013 830 86 600 000/00 RMK AO2
14926KSTC STC20050727001509707/27/05 00:15:31  5-MIN KSTC 270615Z AUTO 00000KT 10SM CLR 11/09 A3013 830 86 600 000/00 RMK AO2
14926KSTC STC20050727002009707/27/05 00:20:31  5-MIN KSTC 270620Z AUTO 00000KT 10SM CLR 11/09 A3013 830 89 500 000/00 RMK AO2
14926KSTC STC20050727002509707/27/05 00:25:31  5-MIN KSTC 270625Z AUTO 00000KT 10SM CLR 11/09 A3013 830 93 500 000/00 RMK AO2
14926KSTC STC20050727003009707/27/05 00:30:31  5-MIN KSTC 270630Z AUTO 00000KT 10SM CLR 11/09 A3013 830 86 600 000/00 RMK AO2
14926KSTC STC20050727003509707/27/05 00:35:31  5-MIN KSTC 270635Z AUTO 31003KT 10SM CLR 11/09 A3014 830 86 600 310/03 RMK AO2
14926KSTC STC20050727004009707/27/05 00:40:31  5-MIN KSTC 270640Z AUTO 00000KT 10SM CLR 11/09 A3014 830 86 600 000/00 RMK AO2
14926KSTC STC20050727004509707/27/05 00:45:31  5-MIN KSTC 270645Z AUTO 00000KT 10SM CLR 11/09 A3014 830 86 600 000/00 RMK AO2
14926KSTC STC20050727005011407/27/05 00:50:31  5-MIN KSTC 270650Z AUTO 00000KT 10SM CLR 11/09 A3013 830 89 500 000/00 RMK AO2 SLP214 T01060089
14926KSTC STC20050727005509707/27/05 00:55:31  5-MIN KSTC 270655Z AUTO 32004KT 10SM CLR 11/09 A3013 830 89 500 320/04 RMK AO2
14926KSTC STC20050727010009707/27/05 01:00:31  5-MIN KSTC 270700Z AUTO 32004KT 10SM CLR 11/09 A3013 830 89 500 320/04 RMK AO2
14926KSTC STC20050727010509707/27/05 01:05:31  5-MIN KSTC 270705Z AUTO 32003KT 10SM CLR 11/09 A3013 830 89 500 320/03 RMK AO2
14926KSTC STC20050727011009707/27/05 01:10:31  5-MIN KSTC 270710Z AUTO 32003KT 10SM CLR 11/09 A3014 830 89 500 320/03 RMK AO2
14926KSTC STC20050727011509707/27/05 01:15:31  5-MIN KSTC 270715Z AUTO 32004KT 10SM CLR 11/09 A3014 820 89 500 310/04 RMK AO2
14926KSTC STC20050727012009707/27/05 01:20:31  5-MIN KSTC 270720Z AUTO 32004KT 10SM CLR 11/09 A3014 820 89 500 310/04 RMK AO2
14926KSTC STC20050727012509707/27/05 01:25:31  5-MIN KSTC 270725Z AUTO 33003KT 10SM CLR 11/09 A3014 820 89 500 320/03 RMK AO2
14926KSTC STC20050727013009707/27/05 01:30:31  5-MIN KSTC 270730Z AUTO 33004KT 10SM CLR 11/09 A3014 820 89 500 320/04 RMK AO2
14926KSTC STC20050727013509707/27/05 01:35:31  5-MIN KSTC 270735Z AUTO 33003KT 10SM CLR 11/09 A3014 820 89 500 320/03 RMK AO2
14926KSTC STC20050727014009707/27/05 01:40:31  5-MIN KSTC 270740Z AUTO 33004KT 10SM CLR 11/09 A3014 820 89 500 320/04 RMK AO2
14926KSTC STC20050727014509707/27/05 01:45:31  5-MIN KSTC 270745Z AUTO 33004KT 10SM CLR 11/09 A3014 820 89 500 320/04 RMK AO2
14926KSTC STC20050727015011407/27/05 01:50:31  5-MIN KSTC 270750Z AUTO 33003KT 10SM CLR 10/08 A3014 830 89 500 330/03 RMK AO2 SLP215 T01000083
14926KSTC STC20050727015509707/27/05 01:55:31  5-MIN KSTC 270755Z AUTO 33003KT 10SM CLR 10/08 A3014 820 89 500 330/03 RMK AO2
14926KSTC STC20050727020009707/27/05 02:00:31  5-MIN KSTC 270800Z AUTO 32003KT 10SM CLR 10/08 A3014 820 89 500 320/03 RMK AO2
14926KSTC STC20050727020509707/27/05 02:05:31  5-MIN KSTC 270805Z AUTO 33003KT 10SM CLR 10/08 A3014 820 89 500 320/03 RMK AO2
14926KSTC STC20050727021009707/27/05 02:10:31  5-MIN KSTC 270810Z AUTO 33003KT 10SM CLR 10/08 A3014 820 89 500 320/03 RMK AO2
14926KSTC STC20050727021509707/27/05 02:15:31  5-MIN KSTC 270815Z AUTO 32003KT 10SM CLR 10/08 A3015 820 89 500 320/03 RMK AO2
14926KSTC STC20050727022009707/27/05 02:20:31  5-MIN KSTC 270820Z AUTO 31003KT 10SM CLR 09/08 A3015 820 93 400 310/03 RMK AO2
14926KSTC STC20050727022509707/27/05 02:25:31  5-MIN KSTC 270825Z AUTO 32003KT 10SM CLR 10/08 A3015 820 89 500 320/03 RMK AO2
14926KSTC STC20050727023009707/27/05 02:30:31  5-MIN KSTC 270830Z AUTO 33003KT 10SM CLR 10/08 A3014 820 89 500 330/03 RMK AO2
14926KSTC STC20050727023509707/27/05 02:35:31  5-MIN KSTC 270835Z AUTO 33003KT 10SM CLR 10/08 A3015 820 89 500 330/03 RMK AO2
14926KSTC STC20050727024009707/27/05 02:40:31  5-MIN KSTC 270840Z AUTO 33004KT 10SM CLR 09/08 A3014 820 93 400 320/04 RMK AO2
14926KSTC STC20050727024509707/27/05 02:45:31  5-MIN KSTC 270845Z AUTO 33004KT 10SM CLR 09/08 A3014 820 93 400 320/04 RMK AO2
14926KSTC STC20050727025012007/27/05 02:50:31  5-MIN KSTC 270850Z AUTO 32004KT 10SM CLR 10/08 A3015 820 89 500 320/04 RMK AO2 SLP218 T01000083 51006
14926KSTC STC20050727025509707/27/05 02:55:31  5-MIN KSTC 270855Z AUTO 32003KT 10SM CLR 10/09 A3014 820 93 500 310/03 RMK AO2
14926KSTC STC20050727030009707/27/05 03:00:31  5-MIN KSTC 270900Z AUTO 31004KT 10SM CLR 10/09 A3015 820 93 500 310/04 RMK AO2
14926KSTC STC20050727030509707/27/05 03:05:31  5-MIN KSTC 270905Z AUTO 32004KT 10SM CLR 09/08 A3015 820 93 400 310/04 RMK AO2
14926KSTC STC20050727031009707/27/05 03:10:31  5-MIN KSTC 270910Z AUTO 32003KT 10SM CLR 09/08 A3015 820 93 400 320/03 RMK AO2
14926KSTC STC20050727031509707/27/05 03:15:31  5-MIN KSTC 270915Z AUTO 32003KT 10SM CLR 09/08 A3015 810 93 400 310/03 RMK AO2
14926KSTC STC20050727032009707/27/05 03:20:31  5-MIN KSTC 270920Z AUTO 31003KT 10SM CLR 09/08 A3015 820 93 400 310/03 RMK AO2
14926KSTC STC20050727032509707/27/05 03:25:31  5-MIN KSTC 270925Z AUTO 31003KT 10SM CLR 09/08 A3015 820 93 400 310/03 RMK AO2
14926KSTC STC20050727033009707/27/05 03:30:31  5-MIN KSTC 270930Z AUTO 32003KT 10SM CLR 09/08 A3015 810 93 400 310/03 RMK AO2
14926KSTC STC20050727033509707/27/05 03:35:31  5-MIN KSTC 270935Z AUTO 32003KT 10SM CLR 09/08 A3015 810 93 400 310/03 RMK AO2
14926KSTC STC20050727034009707/27/05 03:40:31  5-MIN KSTC 270940Z AUTO 31003KT 10SM CLR 09/08 A3015 810 93 400 310/03 RMK AO2
14926KSTC STC20050727034509707/27/05 03:45:31  5-MIN KSTC 270945Z AUTO 00000KT 10SM CLR 09/08 A3015 810 93 400 000/00 RMK AO2
14926KSTC STC20050727035011407/27/05 03:50:31  5-MIN KSTC 270950Z AUTO 00000KT 10SM CLR 09/08 A3015 810 93 400 000/00 RMK AO2 SLP221 T00940083
14926KSTC STC20050727035509707/27/05 03:55:31  5-MIN KSTC 270955Z AUTO 00000KT 10SM CLR 09/08 A3015 810 93 400 000/00 RMK AO2
14926KSTC STC20050727040009707/27/05 04:00:31  5-MIN KSTC 271000Z AUTO 31003KT 10SM CLR 09/08 A3015 810 93 400 310/03 RMK AO2
14926KSTC STC20050727040509707/27/05 04:05:31  5-MIN KSTC 271005Z AUTO 31003KT 10SM CLR 09/08 A3016 810 93 300 310/03 RMK AO2
14926KSTC STC20050727041009707/27/05 04:10:31  5-MIN KSTC 271010Z AUTO 31003KT 10SM CLR 09/08 A3016 810 93 300 310/03 RMK AO2
14926KSTC STC20050727041509707/27/05 04:15:31  5-MIN KSTC 271015Z AUTO 32003KT 10SM CLR 09/08 A3016 810 93 300 310/03 RMK AO2
14926KSTC STC20050727042009707/27/05 04:20:31  5-MIN KSTC 271020Z AUTO 00000KT 10SM CLR 08/08 A3015 810 96 200 000/00 RMK AO2
14926KSTC STC20050727042509707/27/05 04:25:31  5-MIN KSTC 271025Z AUTO 00000KT 10SM CLR 09/08 A3015 810 93 300 000/00 RMK AO2
14926KSTC STC20050727043009707/27/05 04:30:31  5-MIN KSTC 271030Z AUTO 00000KT 10SM CLR 09/08 A3015 810 93 300 000/00 RMK AO2
14926KSTC STC20050727043509707/27/05 04:35:31  5-MIN KSTC 271035Z AUTO 00000KT 10SM CLR 09/08 A3015 810 93 300 000/00 RMK AO2
14926KSTC STC20050727044009707/27/05 04:40:31  5-MIN KSTC 271040Z AUTO 00000KT 10SM CLR 08/08 A3016 810 96 200 000/00 RMK AO2
14926KSTC STC20050727044509707/27/05 04:45:31  5-MIN KSTC 271045Z AUTO 00000KT 10SM CLR 09/08 A3016 810 93 300 000/00 RMK AO2
14926KSTC STC20050727045011407/27/05 04:50:31  5-MIN KSTC 271050Z AUTO 00000KT 10SM CLR 08/08 A3016 810 96 200 000/00 RMK AO2 SLP222 T00830078
14926KSTC STC20050727045509707/27/05 04:55:31  5-MIN KSTC 271055Z AUTO 00000KT 10SM CLR 09/08 A3016 810 93 300 000/00 RMK AO2
14926KSTC STC20050727050009707/27/05 05:00:31  5-MIN KSTC 271100Z AUTO 00000KT 10SM CLR 09/08 A3016 810 93 300 000/00 RMK AO2
14926KSTC STC20050727050509707/27/05 05:05:31  5-MIN KSTC 271105Z AUTO 00000KT 10SM CLR 08/08 A3016 810 96 200 000/00 RMK AO2
14926KSTC STC20050727051009707/27/05 05:10:31  5-MIN KSTC 271110Z AUTO 00000KT 10SM CLR 08/08 A3016 810 96 200 000/00 RMK AO2
14926KSTC STC20050727051509707/27/05 05:15:31  5-MIN KSTC 271115Z AUTO 00000KT 10SM CLR 09/08 A3016 810 93 300 000/00 RMK AO2
14926KSTC STC20050727052009707/27/05 05:20:31  5-MIN KSTC 271120Z AUTO 00000KT 10SM CLR 08/08 A3016 810 96 200 000/00 RMK AO2
14926KSTC STC20050727052509707/27/05 05:25:31  5-MIN KSTC 271125Z AUTO 00000KT 10SM CLR 08/08 A3016 810 96 200 000/00 RMK AO2
14926KSTC STC20050727053009707/27/05 05:30:31  5-MIN KSTC 271130Z AUTO 00000KT 10SM CLR 09/08 A3016 810 96 300 000/00 RMK AO2
14926KSTC STC20050727053509707/27/05 05:35:31  5-MIN KSTC 271135Z AUTO 00000KT 10SM CLR 09/08 A3016 810 93 400 000/00 RMK AO2
14926KSTC STC20050727054009707/27/05 05:40:31  5-MIN KSTC 271140Z AUTO 00000KT 10SM CLR 09/09 A3016 800 96 400 000/00 RMK AO2
14926KSTC STC20050727054509707/27/05 05:45:31  5-MIN KSTC 271145Z AUTO 00000KT 10SM CLR 10/09 A3016 800 93 400 000/00 RMK AO2
14926KSTC STC20050727055013207/27/05 05:50:31  5-MIN KSTC 271150Z AUTO 00000KT 10SM CLR 10/09 A3016 800 93 400 000/00 RMK AO2 SLP223 T01000089 10111 20083 53004
14926KSTC STC20050727055509707/27/05 05:55:31  5-MIN KSTC 271155Z AUTO 00000KT 10SM CLR 10/09 A3016 800 93 400 000/00 RMK AO2
14926KSTC STC20050727060009207/27/05 06:00:31  5-MIN KSTC 271200Z 00000KT 10SM CLR 11/09 A3016 800 93 500 000/00 RMK AO2
14926KSTC STC20050727060509207/27/05 06:05:31  5-MIN KSTC 271205Z 00000KT 10SM CLR 11/09 A3016 800 93 500 000/00 RMK AO2
14926KSTC STC20050727061009207/27/05 06:10:31  5-MIN KSTC 271210Z 00000KT 10SM CLR 11/09 A3016 800 89 600 000/00 RMK AO2
14926KSTC STC20050727061509207/27/05 06:15:31  5-MIN KSTC 271215Z 00000KT 10SM CLR 11/09 A3017 800 89 600 000/00 RMK AO2
14926KSTC STC20050727062009207/27/05 06:20:31  5-MIN KSTC 271220Z 00000KT 10SM CLR 12/10 A3017 800 89 600 000/00 RMK AO2
14926KSTC STC20050727062509207/27/05 06:25:31  5-MIN KSTC 271225Z 00000KT 10SM CLR 12/10 A3017 800 89 600 000/00 RMK AO2
14926KSTC STC20050727063009207/27/05 06:30:31  5-MIN KSTC 271230Z 00000KT 10SM CLR 12/11 A3017 800 89 700 000/00 RMK AO2
14926KSTC STC20050727063509207/27/05 06:35:31  5-MIN KSTC 271235Z 00000KT 10SM CLR 12/10 A3017 800 86 700 000/00 RMK AO2
14926KSTC STC20050727064009207/27/05 06:40:31  5-MIN KSTC 271240Z 00000KT 10SM CLR 12/10 A3017 800 86 700 000/00 RMK AO2
14926KSTC STC20050727064509207/27/05 06:45:31  5-MIN KSTC 271245Z 00000KT 10SM CLR 13/11 A3017 800 86 800 000/00 RMK AO2
14926KSTC STC20050727065010907/27/05 06:50:31  5-MIN KSTC 271250Z 00000KT 10SM CLR 13/11 A3017 800 83 800 000/00 RMK AO2 SLP225 T01330106
14926KSTC STC20050727065509207/27/05 06:55:31  5-MIN KSTC 271255Z VRB03KT 10SM CLR 13/11 A3017 800 83 800 VRB/03 RMK AO2
14926KSTC STC20050727070009207/27/05 07:00:31  5-MIN KSTC 271300Z 00000KT 10SM CLR 14/11 A3017 800 80 900 000/00 RMK AO2
14926KSTC STC20050727070509207/27/05 07:05:31  5-MIN KSTC 271305Z VRB03KT 10SM CLR 14/11 A3017 800 83 900 VRB/03 RMK AO2
14926KSTC STC20050727071009307/27/05 07:10:31  5-MIN KSTC 271310Z 25003KT 10SM CLR 14/11 A3017 800 80 1000 240/03 RMK AO2
14926KSTC STC20050727071509307/27/05 07:15:31  5-MIN KSTC 271315Z 25003KT 10SM CLR 14/11 A3017 800 80 1000 250/03 RMK AO2
14926KSTC STC20050727072009307/27/05 07:20:31  5-MIN KSTC 271320Z 27003KT 10SM CLR 14/11 A3017 800 80 1000 270/03 RMK AO2
14926KSTC STC20050727072509307/27/05 07:25:31  5-MIN KSTC 271325Z VRB03KT 10SM CLR 15/12 A3017 800 80 1000 VRB/03 RMK AO2
14926KSTC STC20050727073009307/27/05 07:30:31  5-MIN KSTC 271330Z VRB03KT 10SM CLR 15/12 A3017 800 80 1000 VRB/03 RMK AO2
14926KSTC STC20050727073509307/27/05 07:35:31  5-MIN KSTC 271335Z VRB03KT 10SM CLR 15/12 A3017 800 80 1000 VRB/03 RMK AO2
14926KSTC STC20050727074009307/27/05 07:40:31  5-MIN KSTC 271340Z VRB03KT 10SM CLR 16/12 A3017 800 80 1100 VRB/03 RMK AO2
14926KSTC STC20050727074509307/27/05 07:45:31  5-MIN KSTC 271345Z 22004KT 10SM CLR 16/12 A3017 790 77 1100 220/04 RMK AO2
14926KSTC STC20050727075011007/27/05 07:50:31  5-MIN KSTC 271350Z VRB03KT 10SM CLR 16/12 A3017 790 75 1100 VRB/03 RMK AO2 SLP226 T01610117
14926KSTC STC20050727075509307/27/05 07:55:31  5-MIN KSTC 271355Z VRB04KT 10SM CLR 16/11 A3018 790 72 1100 VRB/04 RMK AO2
14926KSTC STC20050727080009307/27/05 08:00:31  5-MIN KSTC 271400Z 24004KT 10SM CLR 17/12 A3017 790 72 1200 240/04 RMK AO2
14926KSTC STC20050727080509307/27/05 08:05:31  5-MIN KSTC 271405Z VRB04KT 10SM CLR 17/11 A3017 790 67 1300 VRB/04 RMK AO2
14926KSTC STC20050727081009307/27/05 08:10:31  5-MIN KSTC 271410Z 20004KT 10SM CLR 17/11 A3017 790 67 1300 200/04 RMK AO2
14926KSTC STC20050727081509307/27/05 08:15:31  5-MIN KSTC 271415Z 25005KT 10SM CLR 17/11 A3017 790 67 1300 250/05 RMK AO2
14926KSTC STC20050727082009307/27/05 08:20:31  5-MIN KSTC 271420Z 23006KT 10SM CLR 18/11 A3017 790 64 1300 230/06 RMK AO2
14926KSTC STC20050727082509307/27/05 08:25:31  5-MIN KSTC 271425Z 26006KT 10SM CLR 18/10 A3017 790 60 1300 260/06 RMK AO2
14926KSTC STC20050727083009307/27/05 08:30:31  5-MIN KSTC 271430Z 23005KT 10SM CLR 18/11 A3017 790 62 1300 230/05 RMK AO2
14926KSTC STC20050727083509307/27/05 08:35:31  5-MIN KSTC 271435Z 24006KT 10SM CLR 18/10 A3018 790 58 1400 240/06 RMK AO2
14926KSTC STC20050727084009307/27/05 08:40:31  5-MIN KSTC 271440Z 25006KT 10SM CLR 18/10 A3018 790 58 1400 240/06 RMK AO2
14926KSTC STC20050727084509307/27/05 08:45:31  5-MIN KSTC 271445Z 22006KT 10SM CLR 18/09 A3017 790 56 1400 220/06 RMK AO2
14926KSTC STC20050727085011607/27/05 08:50:31  5-MIN KSTC 271450Z 24008KT 10SM CLR 18/09 A3017 790 54 1400 230/08 RMK AO2 SLP225 T01830089 51005
14926KSTC STC20050727085509307/27/05 08:55:31  5-MIN KSTC 271455Z 25007KT 10SM CLR 19/09 A3017 800 52 1500 240/07 RMK AO2
14926KSTC STC20050727090009307/27/05 09:00:31  5-MIN KSTC 271500Z 23007KT 10SM CLR 19/08 A3017 800 50 1500 230/07 RMK AO2
14926KSTC STC20050727090509307/27/05 09:05:31  5-MIN KSTC 271505Z 25006KT 10SM CLR 19/08 A3017 800 50 1500 240/06 RMK AO2
14926KSTC STC20050727091009307/27/05 09:10:31  5-MIN KSTC 271510Z 25007KT 10SM CLR 19/08 A3017 800 50 1500 250/07 RMK AO2
14926KSTC STC20050727091509307/27/05 09:15:31  5-MIN KSTC 271515Z VRB04KT 10SM CLR 19/08 A3017 800 50 1500 VRB/04 RMK AO2
14926KSTC STC20050727092009307/27/05 09:20:31  5-MIN KSTC 271520Z VRB06KT 10SM CLR 19/09 A3017 800 50 1500 VRB/06 RMK AO2
14926KSTC STC20050727092509307/27/05 09:25:31  5-MIN KSTC 271525Z 23005KT 10SM CLR 19/08 A3016 800 50 1500 230/05 RMK AO2
14926KSTC STC20050727093009307/27/05 09:30:31  5-MIN KSTC 271530Z 21009KT 10SM CLR 19/09 A3016 800 50 1500 210/09 RMK AO2
14926KSTC STC20050727093509307/27/05 09:35:31  5-MIN KSTC 271535Z 21009KT 10SM CLR 19/08 A3016 800 48 1500 210/09 RMK AO2
14926KSTC STC20050727094009307/27/05 09:40:31  5-MIN KSTC 271540Z 22010KT 10SM CLR 19/09 A3016 800 50 1600 210/10 RMK AO2
14926KSTC STC20050727094509307/27/05 09:45:31  5-MIN KSTC 271545Z 23008KT 10SM CLR 19/08 A3016 810 48 1600 230/08 RMK AO2
14926KSTC STC20050727095011007/27/05 09:50:31  5-MIN KSTC 271550Z VRB06KT 10SM CLR 19/08 A3016 810 48 1600 VRB/06 RMK AO2 SLP221 T01940083
14926KSTC STC20050727095509307/27/05 09:55:31  5-MIN KSTC 271555Z 27006KT 10SM CLR 20/08 A3016 810 46 1600 270/06 RMK AO2
14926KSTC STC20050727100009307/27/05 10:00:31  5-MIN KSTC 271600Z VRB06KT 10SM CLR 20/09 A3016 800 48 1600 VRB/06 RMK AO2
14926KSTC STC20050727100509307/27/05 10:05:31  5-MIN KSTC 271605Z 25009KT 10SM CLR 21/09 A3016 800 46 1700 250/09 RMK AO2
14926KSTC STC20050727101009307/27/05 10:10:31  5-MIN KSTC 271610Z 23006KT 10SM CLR 20/09 A3016 810 48 1600 220/06 RMK AO2
14926KSTC STC20050727101510907/27/05 10:15:31  5-MIN KSTC 271615Z 22008KT 200V260 10SM CLR 20/08 A3016 810 46 1600 220/08 200V260 RMK AO2
14926KSTC STC20050727102009307/27/05 10:20:31  5-MIN KSTC 271620Z 27007KT 10SM CLR 21/09 A3016 810 46 1700 270/07 RMK AO2
14926KSTC STC20050727102509307/27/05 10:25:31  5-MIN KSTC 271625Z 25006KT 10SM CLR 21/08 A3016 810 45 1700 250/06 RMK AO2
14926KSTC STC20050727103009307/27/05 10:30:31  5-MIN KSTC 271630Z 25008KT 10SM CLR 21/08 A3016 810 45 1700 250/08 RMK AO2
14926KSTC STC20050727103509307/27/05 10:35:31  5-MIN KSTC 271635Z 26011KT 10SM CLR 21/09 A3016 810 46 1700 250/11 RMK AO2
14926KSTC STC20050727104009307/27/05 10:40:31  5-MIN KSTC 271640Z 23008KT 10SM CLR 20/08 A3016 810 46 1600 230/08 RMK AO2
14926KSTC STC20050727104509307/27/05 10:45:31  5-MIN KSTC 271645Z 28006KT 10SM CLR 21/08 A3016 810 45 1700 280/06 RMK AO2
14926KSTC STC20050727105011007/27/05 10:50:31  5-MIN KSTC 271650Z 22008KT 10SM CLR 21/09 A3016 810 46 1700 220/08 RMK AO2 SLP220 T02060089
14926KSTC STC20050727105509307/27/05 10:55:31  5-MIN KSTC 271655Z 28007KT 10SM CLR 21/08 A3015 810 43 1700 280/07 RMK AO2
14926KSTC STC20050727110009307/27/05 11:00:31  5-MIN KSTC 271700Z 27007KT 10SM CLR 21/08 A3015 810 45 1700 270/07 RMK AO2
14926KSTC STC20050727110509307/27/05 11:05:31  5-MIN KSTC 271705Z 27009KT 10SM CLR 21/08 A3015 810 45 1700 270/09 RMK AO2
14926KSTC STC20050727111009307/27/05 11:10:31  5-MIN KSTC 271710Z 26009KT 10SM CLR 21/09 A3015 820 46 1700 260/09 RMK AO2
14926KSTC STC20050727111509307/27/05 11:15:31  5-MIN KSTC 271715Z 25010KT 10SM CLR 21/09 A3015 820 45 1800 250/10 RMK AO2
14926KSTC STC20050727112009307/27/05 11:20:31  5-MIN KSTC 271720Z VRB06KT 10SM CLR 21/09 A3014 820 46 1700 VRB/06 RMK AO2
14926KSTC STC20050727112509307/27/05 11:25:31  5-MIN KSTC 271725Z 22010KT 10SM CLR 21/09 A3014 820 45 1800 220/10 RMK AO2
14926KSTC STC20050727113009307/27/05 11:30:31  5-MIN KSTC 271730Z 26010KT 10SM CLR 21/09 A3014 820 45 1800 250/10 RMK AO2
14926KSTC STC20050727113510907/27/05 11:35:31  5-MIN KSTC 271735Z 21010KT 200V260 10SM CLR 22/09 A3014 820 45 1800 210/10 200V260 RMK AO2
14926KSTC STC20050727114009307/27/05 11:40:31  5-MIN KSTC 271740Z 20011KT 10SM CLR 21/09 A3014 820 45 1800 200/11 RMK AO2
14926KSTC STC20050727114509307/27/05 11:45:31  5-MIN KSTC 271745Z 21013KT 10SM CLR 21/09 A3014 830 45 1800 200/13 RMK AO2
14926KSTC STC20050727115012807/27/05 11:50:31  5-MIN KSTC 271750Z 20008KT 10SM CLR 21/09 A3014 830 45 1800 200/08 RMK AO2 SLP214 T02110089 10217 20100 50003
14926KSTC STC20050727115509307/27/05 11:55:31  5-MIN KSTC 271755Z 21008KT 10SM CLR 22/09 A3014 830 45 1800 200/08 RMK AO2
14926KSTC STC20050727120009307/27/05 12:00:31  5-MIN KSTC 271800Z 23011KT 10SM CLR 22/09 A3013 830 45 1800 230/11 RMK AO2
14926KSTC STC20050727120509307/27/05 12:05:31  5-MIN KSTC 271805Z 21011KT 10SM CLR 22/09 A3013 830 45 1800 210/11 RMK AO2
14926KSTC STC20050727121009307/27/05 12:10:31  5-MIN KSTC 271810Z 23010KT 10SM CLR 22/09 A3013 830 45 1800 220/10 RMK AO2
14926KSTC STC20050727121509307/27/05 12:15:31  5-MIN KSTC 271815Z 22011KT 10SM CLR 22/09 A3013 840 45 1800 210/11 RMK AO2
14926KSTC STC20050727122009307/27/05 12:20:31  5-MIN KSTC 271820Z 25009KT 10SM CLR 22/09 A3013 840 43 1800 250/09 RMK AO2
14926KSTC STC20050727122509307/27/05 12:25:31  5-MIN KSTC 271825Z 25010KT 10SM CLR 22/09 A3013 840 43 1800 250/10 RMK AO2
14926KSTC STC20050727123009307/27/05 12:30:31  5-MIN KSTC 271830Z 26009KT 10SM CLR 22/09 A3012 840 43 1900 250/09 RMK AO2
14926KSTC STC20050727123509307/27/05 12:35:31  5-MIN KSTC 271835Z 22009KT 10SM CLR 22/09 A3012 840 43 1900 220/09 RMK AO2
14926KSTC STC20050727124009307/27/05 12:40:31  5-MIN KSTC 271840Z 24008KT 10SM CLR 22/09 A3011 850 43 1900 240/08 RMK AO2
14926KSTC STC20050727124509307/27/05 12:45:31  5-MIN KSTC 271845Z 21008KT 10SM CLR 22/09 A3011 850 43 1900 210/08 RMK AO2
14926KSTC STC20050727125011007/27/05 12:50:31  5-MIN KSTC 271850Z 26008KT 10SM CLR 22/09 A3011 850 45 1900 260/08 RMK AO2 SLP205 T02170094
14926KSTC STC20050727125509307/27/05 12:55:31  5-MIN KSTC 271855Z 22009KT 10SM CLR 23/09 A3011 850 42 2000 220/09 RMK AO2
14926KSTC STC20050727130009307/27/05 13:00:31  5-MIN KSTC 271900Z 20007KT 10SM CLR 22/09 A3011 850 43 1900 200/07 RMK AO2
14926KSTC STC20050727130509907/27/05 13:05:31  5-MIN KSTC 271905Z 26011G15KT 10SM CLR 23/09 A3011 850 42 2000 260/11G15 RMK AO2
14926KSTC STC20050727131009907/27/05 13:10:31  5-MIN KSTC 271910Z 24007G15KT 10SM CLR 23/10 A3011 850 44 2000 240/07G15 RMK AO2
14926KSTC STC20050727131509307/27/05 13:15:31  5-MIN KSTC 271915Z 23010KT 10SM CLR 23/11 A3011 850 45 2000 220/10 RMK AO2
14926KSTC STC20050727132009907/27/05 13:20:31  5-MIN KSTC 271920Z 22008G15KT 10SM CLR 23/10 A3011 860 44 2000 220/08G15 RMK AO2
14926KSTC STC20050727132509907/27/05 13:25:31  5-MIN KSTC 271925Z 25009G15KT 10SM CLR 23/11 A3010 860 45 2000 240/09G15 RMK AO2
14926KSTC STC20050727133009307/27/05 13:30:31  5-MIN KSTC 271930Z 25010KT 10SM CLR 23/10 A3010 860 44 2000 250/10 RMK AO2
14926KSTC STC20050727133510907/27/05 13:35:31  5-MIN KSTC 271935Z 25008KT 220V290 10SM CLR 23/10 A3010 860 44 2000 250/08 220V290 RMK AO2
14926KSTC STC20050727134009307/27/05 13:40:31  5-MIN KSTC 271940Z 22010KT 10SM CLR 23/11 A3010 860 45 2000 220/10 RMK AO2
14926KSTC STC20050727134509307/27/05 13:45:31  5-MIN KSTC 271945Z 21008KT 10SM CLR 23/11 A3010 860 44 2100 210/08 RMK AO2
14926KSTC STC20050727135011607/27/05 13:50:31  5-MIN KSTC 271950Z 23011G17KT 10SM CLR 23/11 A3010 860 44 2100 220/11G17 RMK AO2 SLP200 T02330106
14926KSTC STC20050727135509907/27/05 13:55:31  5-MIN KSTC 271955Z 24007G17KT 10SM CLR 23/11 A3010 860 45 2000 240/07G17 RMK AO2
14926KSTC STC20050727140009307/27/05 14:00:31  5-MIN KSTC 272000Z 22009KT 10SM CLR 23/10 A3010 860 44 2000 220/09 RMK AO2
14926KSTC STC20050727140509307/27/05 14:05:31  5-MIN KSTC 272005Z 23010KT 10SM CLR 23/11 A3010 860 45 2000 230/10 RMK AO2
14926KSTC STC20050727141009307/27/05 14:10:31  5-MIN KSTC 272010Z 23012KT 10SM CLR 23/11 A3010 860 45 2000 230/12 RMK AO2
14926KSTC STC20050727141509307/27/05 14:15:31  5-MIN KSTC 272015Z 23009KT 10SM CLR 22/10 A3009 870 45 1900 230/09 RMK AO2
14926KSTC STC20050727142009307/27/05 14:20:31  5-MIN KSTC 272020Z 22008KT 10SM CLR 23/11 A3009 870 45 2000 220/08 RMK AO2
14926KSTC STC20050727142509307/27/05 14:25:31  5-MIN KSTC 272025Z 24008KT 10SM CLR 23/11 A3009 870 45 2000 240/08 RMK AO2
14926KSTC STC20050727143009307/27/05 14:30:31  5-MIN KSTC 272030Z 23009KT 10SM CLR 23/11 A3009 870 45 2000 220/09 RMK AO2
14926KSTC STC20050727143509307/27/05 14:35:31  5-MIN KSTC 272035Z 22010KT 10SM CLR 23/11 A3009 870 45 2000 220/10 RMK AO2
14926KSTC STC20050727144009307/27/05 14:40:31  5-MIN KSTC 272040Z 24011KT 10SM CLR 23/11 A3009 870 45 2000 240/11 RMK AO2
14926KSTC STC20050727144509307/27/05 14:45:31  5-MIN KSTC 272045Z 25007KT 10SM CLR 23/11 A3008 880 44 2100 250/07 RMK AO2
14926KSTC STC20050727145011607/27/05 14:50:31  5-MIN KSTC 272050Z 24011KT 10SM CLR 23/11 A3008 880 44 2100 230/11 RMK AO2 SLP194 T02330106 58012
14926KSTC STC20050727145509907/27/05 14:55:31  5-MIN KSTC 272055Z 22009G15KT 10SM CLR 23/11 A3008 880 45 2100 210/09G15 RMK AO2
14926KSTC STC20050727150009307/27/05 15:00:31  5-MIN KSTC 272100Z 21007KT 10SM CLR 23/11 A3008 880 45 2000 200/07 RMK AO2
14926KSTC STC20050727150509307/27/05 15:05:31  5-MIN KSTC 272105Z 21012KT 10SM CLR 23/11 A3008 880 45 2100 210/12 RMK AO2
14926KSTC STC20050727151009307/27/05 15:10:31  5-MIN KSTC 272110Z 22010KT 10SM CLR 24/12 A3007 880 46 2200 220/10 RMK AO2
14926KSTC STC20050727151509307/27/05 15:15:31  5-MIN KSTC 272115Z 24007KT 10SM CLR 23/11 A3007 890 45 2100 230/07 RMK AO2
14926KSTC STC20050727152009307/27/05 15:20:31  5-MIN KSTC 272120Z 23009KT 10SM CLR 23/11 A3007 890 44 2100 220/09 RMK AO2
14926KSTC STC20050727152509307/27/05 15:25:31  5-MIN KSTC 272125Z 22009KT 10SM CLR 23/11 A3007 890 44 2100 210/09 RMK AO2
14926KSTC STC20050727153009307/27/05 15:30:31  5-MIN KSTC 272130Z 22008KT 10SM CLR 23/11 A3007 890 45 2100 220/08 RMK AO2
14926KSTC STC20050727153509307/27/05 15:35:31  5-MIN KSTC 272135Z 23009KT 10SM CLR 23/11 A3007 890 45 2100 230/09 RMK AO2
14926KSTC STC20050727154009307/27/05 15:40:31  5-MIN KSTC 272140Z 24011KT 10SM CLR 23/11 A3007 890 45 2100 230/11 RMK AO2
14926KSTC STC20050727154509307/27/05 15:45:31  5-MIN KSTC 272145Z 23008KT 10SM CLR 24/11 A3006 890 44 2200 230/08 RMK AO2
14926KSTC STC20050727155012607/27/05 15:50:31  5-MIN KSTC 272150Z 22007KT 190V280 10SM CLR 23/11 A3006 900 44 2100 220/07 190V280 RMK AO2 SLP187 T02330106
14926KSTC STC20050727155509307/27/05 15:55:31  5-MIN KSTC 272155Z 22010KT 10SM CLR 23/11 A3006 900 45 2100 220/10 RMK AO2
14926KSTC STC20050727160009307/27/05 16:00:31  5-MIN KSTC 272200Z 25010KT 10SM CLR 23/11 A3006 900 44 2100 240/10 RMK AO2
14926KSTC STC20050727160509307/27/05 16:05:31  5-MIN KSTC 272205Z 22007KT 10SM CLR 23/11 A3006 900 45 2100 220/07 RMK AO2
14926KSTC STC20050727161009307/27/05 16:10:31  5-MIN KSTC 272210Z 21012KT 10SM CLR 23/12 A3006 900 47 2100 210/12 RMK AO2
14926KSTC STC20050727161509307/27/05 16:15:31  5-MIN KSTC 272215Z 24010KT 10SM CLR 23/11 A3006 900 45 2100 230/10 RMK AO2
14926KSTC STC20050727162009307/27/05 16:20:31  5-MIN KSTC 272220Z 22009KT 10SM CLR 23/11 A3006 900 45 2100 210/09 RMK AO2
14926KSTC STC20050727162509307/27/05 16:25:31  5-MIN KSTC 272225Z 23011KT 10SM CLR 23/11 A3006 900 45 2100 230/11 RMK AO2
14926KSTC STC20050727163009307/27/05 16:30:31  5-MIN KSTC 272230Z 24007KT 10SM CLR 23/11 A3006 900 45 2000 240/07 RMK AO2
14926KSTC STC20050727163509307/27/05 16:35:31  5-MIN KSTC 272235Z 24010KT 10SM CLR 23/11 A3006 900 47 2000 240/10 RMK AO2
14926KSTC STC20050727164009307/27/05 16:40:31  5-MIN KSTC 272240Z 23006KT 10SM CLR 23/11 A3006 900 45 2100 220/06 RMK AO2
14926KSTC STC20050727164509307/27/05 16:45:31  5-MIN KSTC 272245Z 25008KT 10SM CLR 23/11 A3006 900 45 2100 250/08 RMK AO2
14926KSTC STC20050727165011007/27/05 16:50:31  5-MIN KSTC 272250Z 24007KT 10SM CLR 24/11 A3006 900 44 2200 240/07 RMK AO2 SLP186 T02390111
14926KSTC STC20050727165509307/27/05 16:55:31  5-MIN KSTC 272255Z 22011KT 10SM CLR 23/11 A3006 900 45 2100 220/11 RMK AO2
14926KSTC STC20050727170009307/27/05 17:00:31  5-MIN KSTC 272300Z 25010KT 10SM CLR 23/11 A3006 900 45 2100 250/10 RMK AO2
14926KSTC STC20050727170509307/27/05 17:05:31  5-MIN KSTC 272305Z 25009KT 10SM CLR 23/11 A3006 900 45 2100 240/09 RMK AO2
14926KSTC STC20050727171009307/27/05 17:10:31  5-MIN KSTC 272310Z 25010KT 10SM CLR 23/11 A3005 900 45 2100 240/10 RMK AO2
14926KSTC STC20050727171509307/27/05 17:15:31  5-MIN KSTC 272315Z 24012KT 10SM CLR 23/11 A3006 900 44 2100 240/12 RMK AO2
14926KSTC STC20050727172009307/27/05 17:20:31  5-MIN KSTC 272320Z 24009KT 10SM CLR 23/11 A3005 900 45 2100 240/09 RMK AO2
14926KSTC STC20050727172509307/27/05 17:25:31  5-MIN KSTC 272325Z 24009KT 10SM CLR 23/11 A3005 900 44 2100 240/09 RMK AO2
14926KSTC STC20050727173009307/27/05 17:30:31  5-MIN KSTC 272330Z 23008KT 10SM CLR 23/11 A3005 910 45 2100 220/08 RMK AO2
14926KSTC STC20050727173509307/27/05 17:35:31  5-MIN KSTC 272335Z 22011KT 10SM CLR 23/11 A3005 910 44 2100 220/11 RMK AO2
14926KSTC STC20050727174009307/27/05 17:40:31  5-MIN KSTC 272340Z 23007KT 10SM CLR 23/11 A3005 910 45 2100 220/07 RMK AO2
14926KSTC STC20050727174509307/27/05 17:45:31  5-MIN KSTC 272345Z 23008KT 10SM CLR 23/11 A3005 910 45 2100 230/08 RMK AO2
14926KSTC STC20050727175012807/27/05 17:50:31  5-MIN KSTC 272350Z 24008KT 10SM CLR 23/11 A3005 910 45 2100 240/08 RMK AO2 SLP184 T02330111 10239 20217 56018
14926KSTC STC20050727175509307/27/05 17:55:31  5-MIN KSTC 272355Z 25010KT 10SM CLR 23/11 A3005 910 45 2100 240/10 RMK AO2
14926KSTC STC20050727180009307/27/05 18:00:31  5-MIN KSTC 280000Z 24006KT 10SM CLR 23/11 A3005 910 45 2100 240/06 RMK AO2
14926KSTC STC20050727180509307/27/05 18:05:31  5-MIN KSTC 280005Z 23006KT 10SM CLR 23/12 A3005 910 49 2100 230/06 RMK AO2
14926KSTC STC20050727181009307/27/05 18:10:31  5-MIN KSTC 280010Z 22008KT 10SM CLR 23/11 A3005 910 47 2100 220/08 RMK AO2
14926KSTC STC20050727181509307/27/05 18:15:31  5-MIN KSTC 280015Z 22010KT 10SM CLR 23/11 A3005 910 45 2100 220/10 RMK AO2
14926KSTC STC20050727182009307/27/05 18:20:31  5-MIN KSTC 280020Z 22007KT 10SM CLR 22/11 A3005 910 49 2000 220/07 RMK AO2
14926KSTC STC20050727182509307/27/05 18:25:31  5-MIN KSTC 280025Z 22006KT 10SM CLR 22/11 A3005 910 50 1900 220/06 RMK AO2
14926KSTC STC20050727183009307/27/05 18:30:31  5-MIN KSTC 280030Z 22006KT 10SM CLR 22/12 A3005 910 52 1900 210/06 RMK AO2
14926KSTC STC20050727183509307/27/05 18:35:31  5-MIN KSTC 280035Z 22005KT 10SM CLR 22/12 A3005 910 52 1900 210/05 RMK AO2
14926KSTC STC20050727184009307/27/05 18:40:31  5-MIN KSTC 280040Z 22005KT 10SM CLR 21/12 A3005 910 54 1900 220/05 RMK AO2
14926KSTC STC20050727184509307/27/05 18:45:31  5-MIN KSTC 280045Z 21005KT 10SM CLR 21/12 A3005 910 56 1900 210/05 RMK AO2
14926KSTC STC20050727185011007/27/05 18:50:31  5-MIN KSTC 280050Z 20005KT 10SM CLR 21/12 A3005 910 58 1800 200/05 RMK AO2 SLP182 T02060122
14926KSTC STC20050727185509307/27/05 18:55:31  5-MIN KSTC 280055Z 21005KT 10SM CLR 21/13 A3005 910 60 1800 210/05 RMK AO2
14926KSTC STC20050727190009307/27/05 19:00:31  5-MIN KSTC 280100Z 21005KT 10SM CLR 20/13 A3005 910 63 1700 200/05 RMK AO2
14926KSTC STC20050727190509307/27/05 19:05:31  5-MIN KSTC 280105Z 20005KT 10SM CLR 20/13 A3004 910 63 1700 200/05 RMK AO2
14926KSTC STC20050727191009307/27/05 19:10:31  5-MIN KSTC 280110Z 20005KT 10SM CLR 20/13 A3004 910 63 1700 190/05 RMK AO2
14926KSTC STC20050727191509307/27/05 19:15:31  5-MIN KSTC 280115Z 19005KT 10SM CLR 20/13 A3004 910 63 1700 190/05 RMK AO2
14926KSTC STC20050727192009307/27/05 19:20:31  5-MIN KSTC 280120Z 19005KT 10SM CLR 19/13 A3004 920 65 1700 180/05 RMK AO2
14926KSTC STC20050727192509307/27/05 19:25:31  5-MIN KSTC 280125Z 18005KT 10SM CLR 19/13 A3004 920 65 1700 180/05 RMK AO2
14926KSTC STC20050727193009307/27/05 19:30:31  5-MIN KSTC 280130Z 19005KT 10SM CLR 19/13 A3004 920 65 1700 180/05 RMK AO2
14926KSTC STC20050727193509307/27/05 19:35:31  5-MIN KSTC 280135Z 18006KT 10SM CLR 19/13 A3004 920 65 1700 180/06 RMK AO2
14926KSTC STC20050727194009307/27/05 19:40:31  5-MIN KSTC 280140Z 19006KT 10SM CLR 19/13 A3003 920 67 1600 180/06 RMK AO2
14926KSTC STC20050727194509307/27/05 19:45:31  5-MIN KSTC 280145Z 19005KT 10SM CLR 19/13 A3003 920 67 1600 190/05 RMK AO2
14926KSTC STC20050727195011007/27/05 19:50:31  5-MIN KSTC 280150Z 18005KT 10SM CLR 19/13 A3003 920 67 1600 180/05 RMK AO2 SLP177 T01890128
14926KSTC STC20050727195509307/27/05 19:55:31  5-MIN KSTC 280155Z 18005KT 10SM CLR 19/13 A3003 920 67 1600 180/05 RMK AO2
14926KSTC STC20050727200009307/27/05 20:00:31  5-MIN KSTC 280200Z 18005KT 10SM CLR 18/13 A3003 920 70 1600 180/05 RMK AO2
14926KSTC STC20050727200509307/27/05 20:05:31  5-MIN KSTC 280205Z 19005KT 10SM CLR 18/13 A3003 920 70 1600 180/05 RMK AO2
14926KSTC STC20050727201009307/27/05 20:10:31  5-MIN KSTC 280210Z 19005KT 10SM CLR 18/13 A3003 920 70 1600 190/05 RMK AO2
14926KSTC STC20050727201509307/27/05 20:15:31  5-MIN KSTC 280215Z 19005KT 10SM CLR 18/13 A3003 920 70 1600 190/05 RMK AO2
14926KSTC STC20050727202009607/27/05 20:20:31  5-MIN KSTC 280220Z 19005KT 10SM FEW120 18/13 A3004 920 72 1600 190/05 RMK AO2
14926KSTC STC20050727202509607/27/05 20:25:31  5-MIN KSTC 280225Z 19005KT 10SM SCT120 18/13 A3003 920 72 1600 180/05 RMK AO2
14926KSTC STC20050727203009607/27/05 20:30:31  5-MIN KSTC 280230Z 19004KT 10SM BKN120 18/13 A3003 920 72 1600 180/04 RMK AO2
14926KSTC STC20050727203509607/27/05 20:35:31  5-MIN KSTC 280235Z 18005KT 10SM BKN120 18/13 A3003 920 75 1500 180/05 RMK AO2
14926KSTC STC20050727204009607/27/05 20:40:31  5-MIN KSTC 280240Z 18005KT 10SM SCT120 18/13 A3003 920 75 1500 180/05 RMK AO2
14926KSTC STC20050727204509607/27/05 20:45:31  5-MIN KSTC 280245Z 19004KT 10SM SCT120 18/13 A3003 930 75 1500 180/04 RMK AO2
14926KSTC STC20050727205011907/27/05 20:50:31  5-MIN KSTC 280250Z 18005KT 10SM SCT110 18/13 A3003 930 75 1500 180/05 RMK AO2 SLP175 T01780133 56009
14926KSTC STC20050727205509607/27/05 20:55:31  5-MIN KSTC 280255Z 18005KT 10SM BKN110 18/13 A3003 930 75 1500 180/05 RMK AO2
14926KSTC STC20050727210009607/27/05 21:00:31  5-MIN KSTC 280300Z 19004KT 10SM BKN110 18/13 A3003 920 75 1500 190/04 RMK AO2
14926KSTC STC20050727210509607/27/05 21:05:31  5-MIN KSTC 280305Z 19005KT 10SM BKN110 18/13 A3003 920 75 1500 190/05 RMK AO2
14926KSTC STC20050727211009607/27/05 21:10:31  5-MIN KSTC 280310Z 19006KT 10SM BKN110 17/13 A3003 920 78 1400 190/06 RMK AO2
14926KSTC STC20050727211509607/27/05 21:15:31  5-MIN KSTC 280315Z 18006KT 10SM OVC110 18/13 A3003 930 75 1500 180/06 RMK AO2
14926KSTC STC20050727212009607/27/05 21:20:31  5-MIN KSTC 280320Z 18006KT 10SM BKN110 18/13 A3003 930 72 1500 180/06 RMK AO2
14926KSTC STC20050727212509607/27/05 21:25:31  5-MIN KSTC 280325Z 19006KT 10SM BKN110 18/13 A3003 930 72 1500 190/06 RMK AO2
14926KSTC STC20050727213009607/27/05 21:30:31  5-MIN KSTC 280330Z 19006KT 10SM SCT120 18/13 A3003 930 72 1500 190/06 RMK AO2
14926KSTC STC20050727213509607/27/05 21:35:31  5-MIN KSTC 280335Z 20006KT 10SM BKN120 18/13 A3003 930 75 1500 190/06 RMK AO2
14926KSTC STC20050727214009607/27/05 21:40:31  5-MIN KSTC 280340Z 20006KT 10SM BKN110 17/13 A3003 930 78 1400 200/06 RMK AO2
14926KSTC STC20050727214509607/27/05 21:45:31  5-MIN KSTC 280345Z 20006KT 10SM BKN110 18/13 A3003 930 72 1500 200/06 RMK AO2
14926KSTC STC20050727215011307/27/05 21:50:31  5-MIN KSTC 280350Z 21007KT 10SM BKN100 18/13 A3003 920 72 1500 200/07 RMK AO2 SLP176 T01780128
14926KSTC STC20050727215509607/27/05 21:55:31  5-MIN KSTC 280355Z 20007KT 10SM BKN100 18/13 A3003 930 72 1500 200/07 RMK AO2
14926KSTC STC20050727220010107/27/05 22:00:31  5-MIN KSTC 280400Z AUTO 20006KT 10SM OVC100 18/13 A3003 920 72 1500 200/06 RMK AO2
14926KSTC STC20050727220510107/27/05 22:05:31  5-MIN KSTC 280405Z AUTO 21005KT 10SM OVC100 18/13 A3003 930 72 1500 200/05 RMK AO2
14926KSTC STC20050727221010807/27/05 22:10:31  5-MIN KSTC 280410Z AUTO 19005KT 10SM BKN100 OVC120 17/13 A3003 930 78 1400 190/05 RMK AO2
14926KSTC STC20050727221510807/27/05 22:15:31  5-MIN KSTC 280415Z AUTO 19004KT 10SM BKN100 OVC120 17/13 A3003 930 78 1400 190/04 RMK AO2
14926KSTC STC20050727222010807/27/05 22:20:31  5-MIN KSTC 280420Z AUTO 20004KT 10SM BKN100 BKN120 18/13 A3003 930 72 1500 190/04 RMK AO2
14926KSTC STC20050727222510107/27/05 22:25:31  5-MIN KSTC 280425Z AUTO 19003KT 10SM BKN110 17/13 A3003 930 78 1400 190/03 RMK AO2
14926KSTC STC20050727223010807/27/05 22:30:31  5-MIN KSTC 280430Z AUTO 20004KT 10SM BKN100 BKN120 17/13 A3003 920 78 1400 190/04 RMK AO2
14926KSTC STC20050727223510807/27/05 22:35:31  5-MIN KSTC 280435Z AUTO 21004KT 10SM BKN100 BKN120 17/13 A3003 920 78 1400 200/04 RMK AO2
14926KSTC STC20050727224010807/27/05 22:40:31  5-MIN KSTC 280440Z AUTO 21003KT 10SM BKN095 BKN110 17/13 A3003 920 78 1400 210/03 RMK AO2
14926KSTC STC20050727224510107/27/05 22:45:31  5-MIN KSTC 280445Z AUTO 21004KT 10SM BKN100 17/13 A3003 920 78 1400 210/04 RMK AO2
14926KSTC STC20050727225012507/27/05 22:50:31  5-MIN KSTC 280450Z AUTO 21005KT 10SM BKN100 BKN110 18/13 A3003 920 75 1500 200/05 RMK AO2 SLP175 T01780133
14926KSTC STC20050727225510107/27/05 22:55:31  5-MIN KSTC 280455Z AUTO 21005KT 10SM OVC100 18/13 A3003 920 72 1500 200/05 RMK AO2
14926KSTC STC20050727230010107/27/05 23:00:31  5-MIN KSTC 280500Z AUTO 21006KT 10SM OVC100 18/13 A3003 920 72 1500 210/06 RMK AO2
14926KSTC STC20050727230510807/27/05 23:05:31  5-MIN KSTC 280505Z AUTO 22005KT 10SM FEW075 OVC100 18/13 A3004 920 72 1500 220/05 RMK AO2
14926KSTC STC20050727231010807/27/05 23:10:31  5-MIN KSTC 280510Z AUTO 23006KT 10SM FEW075 OVC100 18/13 A3004 920 72 1500 230/06 RMK AO2
14926KSTC STC20050727231510107/27/05 23:15:31  5-MIN KSTC 280515Z AUTO 24005KT 10SM OVC100 18/12 A3004 910 69 1500 240/05 RMK AO2
14926KSTC STC20050727232010107/27/05 23:20:31  5-MIN KSTC 280520Z AUTO 24004KT 10SM OVC095 18/12 A3004 910 69 1500 240/04 RMK AO2
14926KSTC STC20050727232510807/27/05 23:25:31  5-MIN KSTC 280525Z AUTO 23005KT 10SM FEW070 OVC095 18/13 A3004 910 72 1500 220/05 RMK AO2
14926KSTC STC20050727233012407/27/05 23:30:31  5-MIN KSTC 280530Z AUTO 22005KT 10SM -RA FEW070 OVC090 18/13 A3004 910 72 1500 210/05 RMK AO2 RAB26 P0000
14926KSTC STC20050727233512407/27/05 23:35:31  5-MIN KSTC 280535Z AUTO 21005KT 10SM -RA SCT080 OVC095 18/13 A3004 910 75 1500 210/05 RMK AO2 RAB26 P0000
14926KSTC STC20050727234012407/27/05 23:40:31  5-MIN KSTC 280540Z AUTO 22005KT 10SM -RA SCT070 OVC090 17/13 A3004 910 78 1400 210/05 RMK AO2 RAB26 P0000
14926KSTC STC20050727234513107/27/05 23:45:31  5-MIN KSTC 280545Z AUTO 33011KT 10SM -RA SCT070 OVC090 18/13 A3007 890 75 1500 320/11 RMK AO2 RAB26 PRESRR P0000
14926KSTC STC20050727235018207/27/05 23:50:31  5-MIN KSTC 280550Z AUTO 33008KT 10SM -RA FEW037 SCT070 OVC090 18/13 A3006 890 72 1500 330/08 RMK AO2 RAB26 SLP185 P0000 60000 T01780128 10233 20172 402390083 58008
14926KSTC STC20050727235511507/27/05 23:55:31  5-MIN KSTC 280555Z AUTO 34008KT 10SM FEW039 BKN075 OVC090 18/13 A3006 900 70 1500 340/08 RMK AO2
14926KSTC STC20050728000011507/28/05 00:00:32  5-MIN KSTC 280600Z AUTO 32013KT 10SM FEW039 BKN070 OVC090 18/13 A3006 890 70 1500 310/13 RMK AO2
14926KSTC STC20050728000511507/28/05 00:05:31  5-MIN KSTC 280605Z AUTO 33009KT 10SM FEW039 SCT070 OVC090 18/13 A3006 890 70 1500 330/09 RMK AO2
14926KSTC STC20050728001010807/28/05 00:10:31  5-MIN KSTC 280610Z AUTO 36008KT 10SM FEW039 OVC095 18/13 A3006 900 72 1500 360/08 RMK AO2
14926KSTC STC20050728001510807/28/05 00:15:31  5-MIN KSTC 280615Z AUTO 35007KT 10SM FEW039 BKN095 17/13 A3006 900 78 1400 350/07 RMK AO2
14926KSTC STC20050728002011507/28/05 00:20:31  5-MIN KSTC 280620Z AUTO 35008KT 10SM FEW070 BKN095 BKN120 17/13 A3006 900 78 1400 350/08 RMK AO2
14926KSTC STC20050728002511507/28/05 00:25:31  5-MIN KSTC 280625Z AUTO 36006KT 10SM FEW070 SCT095 BKN110 17/13 A3006 900 78 1400 360/06 RMK AO2
14926KSTC STC20050728003010807/28/05 00:30:31  5-MIN KSTC 280630Z AUTO 01006KT 10SM SCT100 BKN110 17/13 A3006 900 80 1300 010/06 RMK AO2
14926KSTC STC20050728003510107/28/05 00:35:31  5-MIN KSTC 280635Z AUTO 03006KT 10SM BKN110 17/13 A3005 900 80 1300 020/06 RMK AO2
14926KSTC STC20050728004010107/28/05 00:40:31  5-MIN KSTC 280640Z AUTO 03006KT 10SM BKN110 17/13 A3005 910 80 1400 030/06 RMK AO2
14926KSTC STC20050728004510107/28/05 00:45:31  5-MIN KSTC 280645Z AUTO 04006KT 10SM OVC110 17/13 A3005 910 80 1400 040/06 RMK AO2
14926KSTC STC20050728005014107/28/05 00:50:31  5-MIN KSTC 280650Z AUTO 04004KT 10SM -RA BKN090 OVC110 17/13 A3004 910 80 1400 040/04 RMK AO2 RAB48 SLP179 P0000 T01670133
14926KSTC STC20050728005511807/28/05 00:55:31  5-MIN KSTC 280655Z AUTO 08006KT 10SM -RA BKN090 OVC110 17/14 A3003 920 83 1400 080/06 RMK AO2 P0000
14926KSTC STC20050728010012207/28/05 01:00:31  5-MIN KSTC 280700Z AUTO 10006KT 10SM BKN090 OVC120 17/14 A3003 920 83 1400 090/06 RMK AO2 RAE0658 P0000
14926KSTC STC20050728010512207/28/05 01:05:31  5-MIN KSTC 280705Z AUTO 08006KT 10SM BKN095 OVC120 17/14 A3003 930 83 1400 070/06 RMK AO2 RAE0658 P0000
14926KSTC STC20050728011011507/28/05 01:10:31  5-MIN KSTC 280710Z AUTO 10005KT 10SM OVC095 17/14 A3003 930 83 1400 090/05 RMK AO2 RAE0658 P0000
14926KSTC STC20050728011511507/28/05 01:15:31  5-MIN KSTC 280715Z AUTO 09004KT 10SM OVC090 17/14 A3003 930 83 1400 080/04 RMK AO2 RAE0658 P0000
14926KSTC STC20050728012011507/28/05 01:20:31  5-MIN KSTC 280720Z AUTO VRB03KT 10SM OVC090 17/14 A3003 930 83 1400 VRB/03 RMK AO2 RAE0658 P0000
14926KSTC STC20050728012511507/28/05 01:25:31  5-MIN KSTC 280725Z AUTO 06003KT 10SM OVC090 17/14 A3003 920 83 1400 060/03 RMK AO2 RAE0658 P0000
14926KSTC STC20050728013011507/28/05 01:30:31  5-MIN KSTC 280730Z AUTO 00000KT 10SM OVC090 17/14 A3003 920 83 1400 000/00 RMK AO2 RAE0658 P0000
14926KSTC STC20050728013511507/28/05 01:35:31  5-MIN KSTC 280735Z AUTO VRB04KT 10SM OVC090 17/14 A3003 920 83 1400 VRB/04 RMK AO2 RAE0658 P0000
14926KSTC STC20050728014011507/28/05 01:40:31  5-MIN KSTC 280740Z AUTO 07003KT 10SM OVC090 17/14 A3003 920 83 1400 070/03 RMK AO2 RAE0658 P0000
14926KSTC STC20050728014511507/28/05 01:45:31  5-MIN KSTC 280745Z AUTO 00000KT 10SM OVC090 17/14 A3004 920 83 1400 000/00 RMK AO2 RAE0658 P0000
14926KSTC STC20050728015013207/28/05 01:50:31  5-MIN KSTC 280750Z AUTO 10003KT 10SM OVC095 16/14 A3003 920 86 1300 090/03 RMK AO2 RAE0658 SLP176 P0000 T01610139
14926KSTC STC20050728015510107/28/05 01:55:31  5-MIN KSTC 280755Z AUTO 12003KT 10SM OVC095 16/14 A3003 920 86 1300 110/03 RMK AO2
14926KSTC STC20050728020010107/28/05 02:00:31  5-MIN KSTC 280800Z AUTO 10003KT 10SM OVC100 16/14 A3004 920 86 1300 090/03 RMK AO2
14926KSTC STC20050728020510107/28/05 02:05:31  5-MIN KSTC 280805Z AUTO VRB03KT 10SM OVC095 16/14 A3003 920 86 1300 VRB/03 RMK AO2
14926KSTC STC20050728021010807/28/05 02:10:31  5-MIN KSTC 280810Z AUTO 00000KT 10SM BKN095 OVC120 16/14 A3003 920 86 1300 000/00 RMK AO2
14926KSTC STC20050728021510807/28/05 02:15:31  5-MIN KSTC 280815Z AUTO 00000KT 10SM BKN095 OVC120 16/14 A3003 920 86 1300 000/00 RMK AO2
14926KSTC STC20050728022010807/28/05 02:20:31  5-MIN KSTC 280820Z AUTO 00000KT 10SM BKN095 OVC120 16/14 A3004 920 86 1300 000/00 RMK AO2
14926KSTC STC20050728022510807/28/05 02:25:31  5-MIN KSTC 280825Z AUTO 00000KT 10SM SCT090 OVC120 16/14 A3004 920 86 1300 000/00 RMK AO2
14926KSTC STC20050728023010807/28/05 02:30:31  5-MIN KSTC 280830Z AUTO 00000KT 10SM BKN090 OVC120 16/14 A3004 920 86 1300 000/00 RMK AO2
14926KSTC STC20050728023510807/28/05 02:35:31  5-MIN KSTC 280835Z AUTO 00000KT 10SM BKN090 OVC120 16/14 A3004 910 86 1300 000/00 RMK AO2
14926KSTC STC20050728024010807/28/05 02:40:31  5-MIN KSTC 280840Z AUTO 00000KT 10SM BKN090 OVC120 16/14 A3004 910 86 1300 000/00 RMK AO2
14926KSTC STC20050728024510807/28/05 02:45:31  5-MIN KSTC 280845Z AUTO 00000KT 10SM BKN085 OVC120 16/14 A3004 910 86 1300 000/00 RMK AO2
14926KSTC STC20050728025013707/28/05 02:50:31  5-MIN KSTC 280850Z AUTO 00000KT 10SM BKN085 OVC120 16/14 A3004 910 86 1300 000/00 RMK AO2 SLP178 60000 T01610139 53011
14926KSTC STC20050728025510107/28/05 02:55:31  5-MIN KSTC 280855Z AUTO 00000KT 10SM OVC090 16/14 A3004 920 86 1300 000/00 RMK AO2
14926KSTC STC20050728030010807/28/05 03:00:31  5-MIN KSTC 280900Z AUTO 00000KT 10SM BKN085 OVC120 16/14 A3004 910 86 1300 000/00 RMK AO2
14926KSTC STC20050728030510107/28/05 03:05:31  5-MIN KSTC 280905Z AUTO 00000KT 10SM OVC085 16/14 A3004 910 86 1300 000/00 RMK AO2
14926KSTC STC20050728031010107/28/05 03:10:31  5-MIN KSTC 280910Z AUTO 00000KT 10SM OVC085 16/14 A3004 910 86 1300 000/00 RMK AO2
14926KSTC STC20050728031510107/28/05 03:15:31  5-MIN KSTC 280915Z AUTO 00000KT 10SM OVC085 16/14 A3004 920 86 1300 000/00 RMK AO2
14926KSTC STC20050728032012407/28/05 03:20:31  5-MIN KSTC 280920Z AUTO 18003KT 10SM -RA BKN085 OVC110 16/14 A3004 920 90 1300 170/03 RMK AO2 RAB18 P0000
14926KSTC STC20050728032512407/28/05 03:25:31  5-MIN KSTC 280925Z AUTO 18003KT 10SM -RA BKN090 OVC110 16/14 A3004 920 86 1300 170/03 RMK AO2 RAB18 P0000
14926KSTC STC20050728033013107/28/05 03:30:31  5-MIN KSTC 280930Z AUTO 20003KT 10SM -RA SCT070 BKN085 OVC110 16/14 A3003 920 90 1300 200/03 RMK AO2 RAB18 P0000
14926KSTC STC20050728033513107/28/05 03:35:31  5-MIN KSTC 280935Z AUTO 00000KT 10SM -RA SCT065 BKN085 OVC110 16/14 A3003 920 93 1200 000/00 RMK AO2 RAB18 P0000
14926KSTC STC20050728034013107/28/05 03:40:31  5-MIN KSTC 280940Z AUTO 00000KT 10SM -RA SCT065 BKN080 OVC110 16/14 A3003 920 90 1300 000/00 RMK AO2 RAB18 P0001
14926KSTC STC20050728034513107/28/05 03:45:31  5-MIN KSTC 280945Z AUTO 11003KT 10SM -RA SCT070 BKN100 OVC110 16/14 A3003 930 93 1200 110/03 RMK AO2 RAB18 P0001
14926KSTC STC20050728035014007/28/05 03:50:31  5-MIN KSTC 280950Z AUTO 13003KT 10SM SCT065 OVC095 16/14 A3003 930 93 1300 130/03 RMK AO2 RAB18E50 SLP173 P0001 T01560144
14926KSTC STC20050728035510807/28/05 03:55:31  5-MIN KSTC 280955Z AUTO 15005KT 10SM FEW065 OVC100 16/14 A3002 930 93 1300 140/05 RMK AO2
14926KSTC STC20050728040012607/28/05 04:00:31  5-MIN KSTC 281000Z AUTO 16005KT 10SM -RA FEW065 OVC095 16/14 A3002 940 93 1300 150/05 RMK AO2 RAB0959 P0000
14926KSTC STC20050728040511907/28/05 04:05:31  5-MIN KSTC 281005Z AUTO 16006KT 10SM -RA OVC100 16/14 A3001 940 93 1300 150/06 RMK AO2 RAB0959 P0000
14926KSTC STC20050728041012507/28/05 04:10:31  5-MIN KSTC 281010Z AUTO 14006KT 10SM BKN100 OVC120 16/14 A3001 940 93 1300 140/06 RMK AO2 RAB0959E08 P0000
14926KSTC STC20050728041512507/28/05 04:15:31  5-MIN KSTC 281015Z AUTO 13005KT 10SM BKN100 OVC120 16/14 A3001 940 90 1300 130/05 RMK AO2 RAB0959E08 P0000
14926KSTC STC20050728042012507/28/05 04:20:31  5-MIN KSTC 281020Z AUTO 13004KT 10SM SCT100 BKN120 16/14 A3001 940 90 1300 130/04 RMK AO2 RAB0959E08 P0000
14926KSTC STC20050728042512507/28/05 04:25:31  5-MIN KSTC 281025Z AUTO 11004KT 10SM SCT100 BKN120 16/14 A3002 940 90 1300 110/04 RMK AO2 RAB0959E08 P0000
14926KSTC STC20050728043012507/28/05 04:30:31  5-MIN KSTC 281030Z AUTO 11003KT 10SM BKN100 OVC120 16/14 A3002 930 90 1300 110/03 RMK AO2 RAB0959E08 P0000
14926KSTC STC20050728043512507/28/05 04:35:31  5-MIN KSTC 281035Z AUTO 05003KT 10SM BKN090 OVC120 16/14 A3003 930 90 1300 050/03 RMK AO2 RAB0959E08 P0000
14926KSTC STC20050728044012507/28/05 04:40:31  5-MIN KSTC 281040Z AUTO 03004KT 10SM BKN090 OVC120 16/14 A3003 930 90 1200 030/04 RMK AO2 RAB0959E08 P0000
14926KSTC STC20050728044512507/28/05 04:45:31  5-MIN KSTC 281045Z AUTO 04005KT 10SM BKN090 OVC120 16/14 A3003 930 90 1300 040/05 RMK AO2 RAB0959E08 P0000
14926KSTC STC20050728045014207/28/05 04:50:31  5-MIN KSTC 281050Z AUTO 06005KT 10SM BKN090 OVC110 16/14 A3003 930 90 1300 060/05 RMK AO2 RAB0959E08 SLP173 P0000 T01560139
14926KSTC STC20050728045510807/28/05 04:55:31  5-MIN KSTC 281055Z AUTO 07004KT 10SM BKN090 BKN110 16/14 A3002 930 90 1300 070/04 RMK AO2
14926KSTC STC20050728050010807/28/05 05:00:31  5-MIN KSTC 281100Z AUTO 15003KT 10SM BKN090 BKN110 15/14 A3002 930 93 1200 140/03 RMK AO2
14926KSTC STC20050728050510807/28/05 05:05:31  5-MIN KSTC 281105Z AUTO 00000KT 10SM SCT090 OVC110 15/14 A3002 930 93 1200 000/00 RMK AO2
14926KSTC STC20050728051010107/28/05 05:10:31  5-MIN KSTC 281110Z AUTO 11003KT 10SM OVC100 15/14 A3002 930 93 1200 110/03 RMK AO2
14926KSTC STC20050728051510107/28/05 05:15:31  5-MIN KSTC 281115Z AUTO 12004KT 10SM BKN100 15/14 A3002 930 93 1200 120/04 RMK AO2
14926KSTC STC20050728052010107/28/05 05:20:31  5-MIN KSTC 281120Z AUTO 12003KT 10SM BKN100 15/14 A3002 930 93 1200 110/03 RMK AO2
14926KSTC STC20050728052510107/28/05 05:25:31  5-MIN KSTC 281125Z AUTO 00000KT 10SM BKN100 15/14 A3002 930 93 1200 000/00 RMK AO2
14926KSTC STC20050728053010107/28/05 05:30:31  5-MIN KSTC 281130Z AUTO 00000KT 10SM SCT100 15/14 A3002 930 93 1200 000/00 RMK AO2
14926KSTC STC20050728053510107/28/05 05:35:31  5-MIN KSTC 281135Z AUTO 00000KT 10SM FEW100 15/14 A3002 930 93 1200 000/00 RMK AO2
14926KSTC STC20050728054010107/28/05 05:40:31  5-MIN KSTC 281140Z AUTO 00000KT 10SM FEW100 15/14 A3002 930 93 1200 000/00 RMK AO2
14926KSTC STC20050728054509807/28/05 05:45:31  5-MIN KSTC 281145Z AUTO 00000KT 10SM CLR 15/14 A3002 930 93 1200 000/00 RMK AO2
14926KSTC STC20050728055014507/28/05 05:50:31  5-MIN KSTC 281150Z AUTO 00000KT 10SM CLR 15/14 A3002 930 93 1200 000/00 RMK AO2 SLP172 60001 70001 T01500139 10183 20150 55006
14926KSTC STC20050728055509807/28/05 05:55:31  5-MIN KSTC 281155Z AUTO 12003KT 10SM CLR 14/14 A3002 930 96 1100 120/03 RMK AO2
14926KSTC STC20050728060009807/28/05 06:00:31  5-MIN KSTC 281200Z AUTO 00000KT 10SM CLR 14/14 A3002 930 96 1100 000/00 RMK AO2
14926KSTC STC20050728060509807/28/05 06:05:31  5-MIN KSTC 281205Z AUTO 14003KT 10SM CLR 14/14 A3002 930 96 1100 140/03 RMK AO2
14926KSTC STC20050728061009807/28/05 06:10:31  5-MIN KSTC 281210Z AUTO 15004KT 10SM CLR 15/14 A3002 930 93 1200 140/04 RMK AO2
14926KSTC STC20050728061509807/28/05 06:15:31  5-MIN KSTC 281215Z AUTO 14004KT 10SM CLR 15/14 A3002 930 93 1200 140/04 RMK AO2
14926KSTC STC20050728062009807/28/05 06:20:31  5-MIN KSTC 281220Z AUTO 15004KT 10SM CLR 16/14 A3002 930 90 1300 150/04 RMK AO2
14926KSTC STC20050728062510107/28/05 06:25:31  5-MIN KSTC 281225Z AUTO 16004KT 10SM FEW110 16/14 A3002 940 93 1300 160/04 RMK AO2
14926KSTC STC20050728063010107/28/05 06:30:31  5-MIN KSTC 281230Z AUTO 17005KT 10SM FEW110 16/14 A3002 940 90 1300 170/05 RMK AO2
14926KSTC STC20050728063510107/28/05 06:35:31  5-MIN KSTC 281235Z AUTO 19007KT 10SM SCT120 17/14 A3001 940 86 1400 190/07 RMK AO2
14926KSTC STC20050728064010107/28/05 06:40:31  5-MIN KSTC 281240Z AUTO 19007KT 10SM SCT120 17/14 A3001 940 83 1400 190/07 RMK AO2
14926KSTC STC20050728064510107/28/05 06:45:31  5-MIN KSTC 281245Z AUTO 19007KT 10SM SCT120 17/14 A3001 940 80 1500 190/07 RMK AO2
14926KSTC STC20050728065011807/28/05 06:50:31  5-MIN KSTC 281250Z AUTO 20007KT 10SM FEW120 17/14 A3001 940 80 1500 200/07 RMK AO2 SLP170 T01720139
14926KSTC STC20050728065510107/28/05 06:55:31  5-MIN KSTC 281255Z AUTO 20007KT 10SM FEW120 17/13 A3001 940 78 1500 190/07 RMK AO2
14926KSTC STC20050728070010107/28/05 07:00:31  5-MIN KSTC 281300Z AUTO 20008KT 10SM FEW120 17/13 A3001 940 78 1500 200/08 RMK AO2
14926KSTC STC20050728070510107/28/05 07:05:31  5-MIN KSTC 281305Z AUTO 20006KT 10SM FEW120 17/14 A3001 940 80 1500 200/06 RMK AO2
14926KSTC STC20050728071010107/28/05 07:10:31  5-MIN KSTC 281310Z AUTO 20006KT 10SM FEW110 17/14 A3002 940 80 1500 200/06 RMK AO2
14926KSTC STC20050728071510107/28/05 07:15:31  5-MIN KSTC 281315Z AUTO 20007KT 10SM SCT100 17/14 A3002 940 80 1500 200/07 RMK AO2
14926KSTC STC20050728072010107/28/05 07:20:31  5-MIN KSTC 281320Z AUTO 21007KT 10SM SCT100 17/14 A3002 940 80 1500 210/07 RMK AO2
14926KSTC STC20050728072510107/28/05 07:25:31  5-MIN KSTC 281325Z AUTO 20009KT 10SM FEW100 18/13 A3002 940 75 1500 200/09 RMK AO2
14926KSTC STC20050728073010107/28/05 07:30:31  5-MIN KSTC 281330Z AUTO 20008KT 10SM FEW100 18/13 A3002 940 75 1500 190/08 RMK AO2
14926KSTC STC20050728073510107/28/05 07:35:31  5-MIN KSTC 281335Z AUTO 20007KT 10SM FEW100 18/13 A3002 940 75 1500 200/07 RMK AO2
14926KSTC STC20050728074010107/28/05 07:40:31  5-MIN KSTC 281340Z AUTO 21008KT 10SM FEW100 18/13 A3002 940 75 1500 200/08 RMK AO2
14926KSTC STC20050728074510107/28/05 07:45:31  5-MIN KSTC 281345Z AUTO 20009KT 10SM FEW110 18/13 A3001 940 75 1500 200/09 RMK AO2
14926KSTC STC20050728075011807/28/05 07:50:31  5-MIN KSTC 281350Z AUTO 21007KT 10SM FEW100 18/13 A3002 940 75 1500 210/07 RMK AO2 SLP170 T01780133
14926KSTC STC20050728075510107/28/05 07:55:31  5-MIN KSTC 281355Z AUTO 20008KT 10SM FEW110 18/13 A3001 940 72 1600 200/08 RMK AO2
14926KSTC STC20050728080010107/28/05 08:00:31  5-MIN KSTC 281400Z AUTO 21009KT 10SM FEW110 19/13 A3001 940 70 1700 200/09 RMK AO2
14926KSTC STC20050728080510107/28/05 08:05:31  5-MIN KSTC 281405Z AUTO 21008KT 10SM SCT110 18/13 A3001 940 70 1600 210/08 RMK AO2
14926KSTC STC20050728081010107/28/05 08:10:31  5-MIN KSTC 281410Z AUTO 21009KT 10SM FEW110 18/13 A3001 940 72 1600 210/09 RMK AO2
14926KSTC STC20050728081510107/28/05 08:15:31  5-MIN KSTC 281415Z AUTO 21008KT 10SM SCT110 19/13 A3001 940 70 1700 210/08 RMK AO2
14926KSTC STC20050728082010107/28/05 08:20:31  5-MIN KSTC 281420Z AUTO 20008KT 10SM SCT110 19/13 A3001 950 70 1700 200/08 RMK AO2
14926KSTC STC20050728082510107/28/05 08:25:31  5-MIN KSTC 281425Z AUTO 20008KT 10SM SCT110 19/13 A3001 950 67 1700 200/08 RMK AO2
14926KSTC STC20050728083010107/28/05 08:30:31  5-MIN KSTC 281430Z AUTO 20009KT 10SM SCT110 19/13 A3000 950 70 1700 200/09 RMK AO2
14926KSTC STC20050728083510107/28/05 08:35:31  5-MIN KSTC 281435Z AUTO 20008KT 10SM SCT110 19/13 A3000 950 70 1700 200/08 RMK AO2
14926KSTC STC20050728084010107/28/05 08:40:31  5-MIN KSTC 281440Z AUTO 20009KT 10SM BKN100 19/13 A3000 950 70 1700 190/09 RMK AO2
14926KSTC STC20050728084510107/28/05 08:45:31  5-MIN KSTC 281445Z AUTO 20008KT 10SM SCT100 19/13 A3000 950 70 1700 200/08 RMK AO2
14926KSTC STC20050728085012407/28/05 08:50:31  5-MIN KSTC 281450Z AUTO 20010KT 10SM SCT110 19/13 A3000 950 67 1700 200/10 RMK AO2 SLP165 T01940133 56007
14926KSTC STC20050728085510107/28/05 08:55:31  5-MIN KSTC 281455Z AUTO 21010KT 10SM SCT110 20/13 A3000 950 65 1800 200/10 RMK AO2
14926KSTC STC20050728090010107/28/05 09:00:31  5-MIN KSTC 281500Z AUTO 21011KT 10SM SCT100 21/13 A3000 950 63 1900 200/11 RMK AO2
14926KSTC STC20050728090510107/28/05 09:05:31  5-MIN KSTC 281505Z AUTO 22009KT 10SM SCT100 20/13 A3000 960 65 1800 220/09 RMK AO2
14926KSTC STC20050728091010107/28/05 09:10:31  5-MIN KSTC 281510Z AUTO 22009KT 10SM SCT100 21/14 A3000 950 63 1900 220/09 RMK AO2
14926KSTC STC20050728091510107/28/05 09:15:31  5-MIN KSTC 281515Z AUTO 21009KT 10SM BKN100 21/13 A3000 960 63 1900 200/09 RMK AO2
14926KSTC STC20050728092010107/28/05 09:20:31  5-MIN KSTC 281520Z AUTO 20009KT 10SM BKN100 21/13 A3000 960 63 1900 200/09 RMK AO2
14926KSTC STC20050728092510107/28/05 09:25:31  5-MIN KSTC 281525Z AUTO 22009KT 10SM BKN100 21/13 A3000 960 63 1900 220/09 RMK AO2
14926KSTC STC20050728093010107/28/05 09:30:31  5-MIN KSTC 281530Z AUTO 22006KT 10SM SCT100 21/13 A3000 960 61 1900 220/06 RMK AO2
14926KSTC STC20050728093510107/28/05 09:35:31  5-MIN KSTC 281535Z AUTO 22007KT 10SM BKN100 21/13 A3000 960 61 1900 210/07 RMK AO2
14926KSTC STC20050728094010107/28/05 09:40:31  5-MIN KSTC 281540Z AUTO 21007KT 10SM BKN100 21/13 A3000 960 61 1900 210/07 RMK AO2
14926KSTC STC20050728094510107/28/05 09:45:31  5-MIN KSTC 281545Z AUTO 22007KT 10SM SCT100 22/14 A3000 960 61 2000 210/07 RMK AO2
14926KSTC STC20050728095011807/28/05 09:50:31  5-MIN KSTC 281550Z AUTO 20006KT 10SM SCT100 22/14 A3000 960 61 2000 200/06 RMK AO2 SLP163 T02170139
14926KSTC STC20050728095510107/28/05 09:55:31  5-MIN KSTC 281555Z AUTO 25006KT 10SM SCT100 22/14 A3000 960 61 2000 240/06 RMK AO2
14926KSTC STC20050728100010107/28/05 10:00:31  5-MIN KSTC 281600Z AUTO 22005KT 10SM SCT100 22/14 A3000 950 61 2000 220/05 RMK AO2
14926KSTC STC20050728100510107/28/05 10:05:31  5-MIN KSTC 281605Z AUTO 24007KT 10SM FEW100 22/14 A3000 950 61 2000 230/07 RMK AO2
14926KSTC STC20050728101010107/28/05 10:10:31  5-MIN KSTC 281610Z AUTO 23006KT 10SM FEW100 22/14 A3000 950 59 2100 220/06 RMK AO2
14926KSTC STC20050728101510107/28/05 10:15:31  5-MIN KSTC 281615Z AUTO 23006KT 10SM FEW100 22/14 A3000 950 59 2100 230/06 RMK AO2
14926KSTC STC20050728102010107/28/05 10:20:31  5-MIN KSTC 281620Z AUTO 25006KT 10SM FEW100 23/14 A3000 950 59 2100 250/06 RMK AO2
14926KSTC STC20050728102510107/28/05 10:25:31  5-MIN KSTC 281625Z AUTO VRB05KT 10SM FEW100 23/14 A3000 960 59 2100 VRB/05 RMK AO2
14926KSTC STC20050728103010107/28/05 10:30:31  5-MIN KSTC 281630Z AUTO VRB05KT 10SM FEW100 23/14 A3000 950 57 2200 VRB/05 RMK AO2
14926KSTC STC20050728103510107/28/05 10:35:31  5-MIN KSTC 281635Z AUTO 27004KT 10SM FEW100 23/14 A3000 950 57 2100 270/04 RMK AO2
14926KSTC STC20050728104010107/28/05 10:40:31  5-MIN KSTC 281640Z AUTO 29004KT 10SM FEW100 23/14 A3000 960 57 2100 290/04 RMK AO2
14926KSTC STC20050728104510107/28/05 10:45:31  5-MIN KSTC 281645Z AUTO 29005KT 10SM FEW100 23/14 A3000 950 55 2200 290/05 RMK AO2
14926KSTC STC20050728105011807/28/05 10:50:31  5-MIN KSTC 281650Z AUTO VRB04KT 10SM FEW100 23/13 A3000 950 53 2200 VRB/04 RMK AO2 SLP163 T02330133
14926KSTC STC20050728105510107/28/05 10:55:31  5-MIN KSTC 281655Z AUTO VRB06KT 10SM FEW100 24/13 A3000 950 51 2200 VRB/06 RMK AO2
14926KSTC STC20050728110010107/28/05 11:00:31  5-MIN KSTC 281700Z AUTO 33006KT 10SM FEW100 24/13 A3000 950 51 2200 330/06 RMK AO2
14926KSTC STC20050728110510107/28/05 11:05:31  5-MIN KSTC 281705Z AUTO 29006KT 10SM FEW100 24/13 A3000 950 51 2200 280/06 RMK AO2
14926KSTC STC20050728111010107/28/05 11:10:31  5-MIN KSTC 281710Z AUTO VRB06KT 10SM FEW100 23/13 A3000 950 51 2200 VRB/06 RMK AO2
14926KSTC STC20050728111510107/28/05 11:15:31  5-MIN KSTC 281715Z AUTO 34008KT 10SM FEW100 24/14 A3000 950 53 2200 340/08 RMK AO2
14926KSTC STC20050728112010107/28/05 11:20:31  5-MIN KSTC 281720Z AUTO 34008KT 10SM FEW100 24/14 A3000 950 53 2200 340/08 RMK AO2
14926KSTC STC20050728112510107/28/05 11:25:31  5-MIN KSTC 281725Z AUTO 35006KT 10SM FEW100 24/14 A3000 950 53 2200 350/06 RMK AO2
14926KSTC STC20050728113010107/28/05 11:30:31  5-MIN KSTC 281730Z AUTO 36006KT 10SM FEW100 24/14 A3000 950 53 2200 360/06 RMK AO2
14926KSTC STC20050728113510107/28/05 11:35:31  5-MIN KSTC 281735Z AUTO VRB03KT 10SM FEW100 24/14 A3000 950 53 2300 VRB/03 RMK AO2
14926KSTC STC20050728114010107/28/05 11:40:31  5-MIN KSTC 281740Z AUTO 32008KT 10SM FEW100 24/14 A3000 950 55 2200 310/08 RMK AO2
14926KSTC STC20050728114510107/28/05 11:45:31  5-MIN KSTC 281745Z AUTO VRB06KT 10SM FEW100 24/14 A3000 950 55 2200 VRB/06 RMK AO2
14926KSTC STC20050728115013607/28/05 11:50:31  5-MIN KSTC 281750Z AUTO 36008KT 10SM FEW100 24/15 A3000 950 57 2200 350/08 RMK AO2 SLP164 T02390150 10244 20144 58006
14926KSTC STC20050728115510107/28/05 11:55:31  5-MIN KSTC 281755Z AUTO 36006KT 10SM FEW100 23/15 A3000 950 59 2200 350/06 RMK AO2
14926KSTC STC20050728120010107/28/05 12:00:31  5-MIN KSTC 281800Z AUTO 35006KT 10SM FEW100 24/15 A3000 950 57 2200 340/06 RMK AO2
14926KSTC STC20050728120510107/28/05 12:05:31  5-MIN KSTC 281805Z AUTO 01006KT 10SM FEW100 24/15 A3000 950 57 2200 010/06 RMK AO2
14926KSTC STC20050728121009807/28/05 12:10:31  5-MIN KSTC 281810Z AUTO 36007KT 10SM CLR 24/15 A3000 950 57 2200 360/07 RMK AO2
14926KSTC STC20050728121509807/28/05 12:15:31  5-MIN KSTC 281815Z AUTO 00000KT 10SM CLR 24/14 A3000 950 55 2200 000/00 RMK AO2
14926KSTC STC20050728122009807/28/05 12:20:31  5-MIN KSTC 281820Z AUTO 35009KT 10SM CLR 24/15 A3000 950 55 2300 350/09 RMK AO2
14926KSTC STC20050728122509807/28/05 12:25:31  5-MIN KSTC 281825Z AUTO 03005KT 10SM CLR 24/14 A3000 950 53 2300 030/05 RMK AO2
14926KSTC STC20050728123009807/28/05 12:30:31  5-MIN KSTC 281830Z AUTO 04005KT 10SM CLR 24/14 A3000 950 53 2300 040/05 RMK AO2
14926KSTC STC20050728123509807/28/05 12:35:31  5-MIN KSTC 281835Z AUTO 34007KT 10SM CLR 24/14 A3000 950 51 2300 340/07 RMK AO2
14926KSTC STC20050728124009807/28/05 12:40:31  5-MIN KSTC 281840Z AUTO VRB03KT 10SM CLR 24/14 A3000 950 53 2200 VRB/03 RMK AO2
14926KSTC STC20050728124510107/28/05 12:45:31  5-MIN KSTC 281845Z AUTO 33008KT 10SM FEW100 24/15 A3000 950 55 2300 330/08 RMK AO2
14926KSTC STC20050728125011507/28/05 12:50:31  5-MIN KSTC 281850Z AUTO 36006KT 10SM CLR 24/15 A3000 950 57 2200 350/06 RMK AO2 SLP164 T02390150
14926KSTC STC20050728125509807/28/05 12:55:31  5-MIN KSTC 281855Z AUTO VRB05KT 10SM CLR 24/15 A3000 950 55 2300 VRB/05 RMK AO2
14926KSTC STC20050728130010107/28/05 13:00:31  5-MIN KSTC 281900Z AUTO 00000KT 10SM FEW036 24/14 A3000 950 51 2300 000/00 RMK AO2
14926KSTC STC20050728130510107/28/05 13:05:31  5-MIN KSTC 281905Z AUTO 35006KT 10SM FEW034 24/15 A3000 950 55 2300 350/06 RMK AO2
14926KSTC STC20050728131010807/28/05 13:10:31  5-MIN KSTC 281910Z AUTO 34006KT 10SM FEW034 SCT090 24/15 A3000 950 55 2300 330/06 RMK AO2
14926KSTC STC20050728131510807/28/05 13:15:31  5-MIN KSTC 281915Z AUTO VRB06KT 10SM SCT034 BKN090 25/16 A3000 950 55 2400 VRB/06 RMK AO2
14926KSTC STC20050728132010807/28/05 13:20:31  5-MIN KSTC 281920Z AUTO VRB06KT 10SM BKN034 BKN090 25/16 A3001 950 55 2400 VRB/06 RMK AO2
14926KSTC STC20050728132510807/28/05 13:25:31  5-MIN KSTC 281925Z AUTO 33008KT 10SM SCT036 SCT090 24/15 A3001 950 55 2300 330/08 RMK AO2
14926KSTC STC20050728133010807/28/05 13:30:31  5-MIN KSTC 281930Z AUTO 34008KT 10SM SCT036 BKN090 24/14 A3001 950 53 2300 340/08 RMK AO2
14926KSTC STC20050728133510807/28/05 13:35:31  5-MIN KSTC 281935Z AUTO VRB05KT 10SM SCT036 SCT090 24/14 A3001 950 53 2300 VRB/05 RMK AO2
14926KSTC STC20050728134010107/28/05 13:40:31  5-MIN KSTC 281940Z AUTO 31009KT 10SM FEW036 25/14 A3001 950 51 2400 310/09 RMK AO2
14926KSTC STC20050728134510707/28/05 13:45:31  5-MIN KSTC 281945Z AUTO 33009G14KT 10SM FEW036 24/14 A3001 940 51 2300 320/09G14 RMK AO2
14926KSTC STC20050728135011807/28/05 13:50:31  5-MIN KSTC 281950Z AUTO 36006KT 10SM FEW036 24/14 A3001 940 53 2300 360/06 RMK AO2 SLP167 T02440144
14926KSTC STC20050728135509807/28/05 13:55:31  5-MIN KSTC 281955Z AUTO 36006KT 10SM CLR 25/14 A3001 940 51 2400 350/06 RMK AO2
14926KSTC STC20050728140009807/28/05 14:00:31  5-MIN KSTC 282000Z AUTO 35008KT 10SM CLR 25/14 A3001 940 51 2400 340/08 RMK AO2
14926KSTC STC20050728140511707/28/05 14:05:31  5-MIN KSTC 282005Z AUTO 36007KT 310V040 10SM FEW038 25/15 A3001 940 53 2400 360/07 310V040 RMK AO2
14926KSTC STC20050728141010107/28/05 14:10:31  5-MIN KSTC 282010Z AUTO 36006KT 10SM FEW040 26/15 A3001 940 51 2400 350/06 RMK AO2
14926KSTC STC20050728141510107/28/05 14:15:31  5-MIN KSTC 282015Z AUTO VRB04KT 10SM FEW040 25/14 A3001 940 51 2400 VRB/04 RMK AO2
14926KSTC STC20050728142010107/28/05 14:20:31  5-MIN KSTC 282020Z AUTO VRB04KT 10SM SCT040 24/14 A3001 940 53 2300 VRB/04 RMK AO2
14926KSTC STC20050728142510807/28/05 14:25:31  5-MIN KSTC 282025Z AUTO 36007KT 10SM SCT040 SCT065 24/15 A3001 940 55 2300 360/07 RMK AO2
14926KSTC STC20050728143010807/28/05 14:30:31  5-MIN KSTC 282030Z AUTO VRB06KT 10SM SCT040 BKN060 24/15 A3001 940 57 2200 VRB/06 RMK AO2
14926KSTC STC20050728143510807/28/05 14:35:31  5-MIN KSTC 282035Z AUTO VRB05KT 10SM SCT040 BKN060 24/14 A3001 940 53 2300 VRB/05 RMK AO2
14926KSTC STC20050728144010807/28/05 14:40:31  5-MIN KSTC 282040Z AUTO 36006KT 10SM SCT042 BKN060 25/15 A3001 940 53 2400 360/06 RMK AO2
14926KSTC STC20050728144510807/28/05 14:45:31  5-MIN KSTC 282045Z AUTO 36007KT 10SM SCT042 BKN060 24/14 A3001 940 53 2300 360/07 RMK AO2
14926KSTC STC20050728145013107/28/05 14:50:31  5-MIN KSTC 282050Z AUTO 33007KT 10SM FEW042 SCT060 24/14 A3001 940 51 2300 330/07 RMK AO2 SLP166 T02440139 53000
14926KSTC STC20050728145510807/28/05 14:55:31  5-MIN KSTC 282055Z AUTO 35007KT 10SM SCT040 SCT060 25/14 A3001 940 51 2400 350/07 RMK AO2
14926KSTC STC20050728150010807/28/05 15:00:31  5-MIN KSTC 282100Z AUTO 35006KT 10SM SCT040 SCT060 26/14 A3001 940 49 2400 350/06 RMK AO2
14926KSTC STC20050728150510107/28/05 15:05:31  5-MIN KSTC 282105Z AUTO 34008KT 10SM FEW040 25/14 A3001 940 51 2400 330/08 RMK AO2
14926KSTC STC20050728151010107/28/05 15:10:31  5-MIN KSTC 282110Z AUTO 33008KT 10SM FEW040 24/14 A3001 940 53 2300 320/08 RMK AO2
14926KSTC STC20050728151510107/28/05 15:15:31  5-MIN KSTC 282115Z AUTO 34006KT 10SM FEW038 25/14 A3001 940 51 2300 340/06 RMK AO2
14926KSTC STC20050728152010807/28/05 15:20:31  5-MIN KSTC 282120Z AUTO VRB04KT 10SM FEW038 SCT070 24/14 A3001 940 53 2200 VRB/04 RMK AO2
14926KSTC STC20050728152510807/28/05 15:25:31  5-MIN KSTC 282125Z AUTO 36006KT 10SM FEW040 SCT070 24/14 A3001 940 53 2300 360/06 RMK AO2
14926KSTC STC20050728153010807/28/05 15:30:31  5-MIN KSTC 282130Z AUTO 01006KT 10SM SCT042 SCT070 25/14 A3001 940 51 2300 010/06 RMK AO2
14926KSTC STC20050728153510807/28/05 15:35:31  5-MIN KSTC 282135Z AUTO VRB06KT 10SM FEW042 SCT070 25/14 A3001 940 51 2400 VRB/06 RMK AO2
14926KSTC STC20050728154011707/28/05 15:40:31  5-MIN KSTC 282140Z AUTO 33007KT 290V360 10SM FEW042 25/14 A3001 940 49 2300 330/07 290V360 RMK AO2
14926KSTC STC20050728154510807/28/05 15:45:31  5-MIN KSTC 282145Z AUTO 33005KT 10SM FEW042 SCT070 25/14 A3001 940 49 2300 330/05 RMK AO2
14926KSTC STC20050728155011807/28/05 15:50:31  5-MIN KSTC 282150Z AUTO 36007KT 10SM FEW042 25/14 A3001 940 49 2300 360/07 RMK AO2 SLP168 T02500139
14926KSTC STC20050728155510107/28/05 15:55:31  5-MIN KSTC 282155Z AUTO 33006KT 10SM FEW042 25/14 A3001 940 51 2300 330/06 RMK AO2
14926KSTC STC20050728160009807/28/05 16:00:31  5-MIN KSTC 282200Z AUTO 31007KT 10SM CLR 26/14 A3001 940 48 2400 310/07 RMK AO2
14926KSTC STC20050728160509807/28/05 16:05:31  5-MIN KSTC 282205Z AUTO 33006KT 10SM CLR 24/13 A3001 940 51 2200 330/06 RMK AO2
14926KSTC STC20050728161009807/28/05 16:10:31  5-MIN KSTC 282210Z AUTO 35005KT 10SM CLR 24/13 A3001 940 47 2300 340/05 RMK AO2
14926KSTC STC20050728161510107/28/05 16:15:31  5-MIN KSTC 282215Z AUTO 34007KT 10SM FEW070 25/13 A3001 940 46 2400 340/07 RMK AO2
14926KSTC STC20050728162010107/28/05 16:20:31  5-MIN KSTC 282220Z AUTO 35006KT 10SM SCT070 24/13 A3001 940 51 2200 340/06 RMK AO2
14926KSTC STC20050728162510107/28/05 16:25:31  5-MIN KSTC 282225Z AUTO 35005KT 10SM SCT070 23/13 A3001 940 53 2200 350/05 RMK AO2
14926KSTC STC20050728163010107/28/05 16:30:31  5-MIN KSTC 282230Z AUTO 35003KT 10SM SCT070 24/13 A3001 940 49 2300 350/03 RMK AO2
14926KSTC STC20050728163510107/28/05 16:35:31  5-MIN KSTC 282235Z AUTO 32008KT 10SM SCT070 25/14 A3001 940 49 2300 320/08 RMK AO2
14926KSTC STC20050728164010107/28/05 16:40:31  5-MIN KSTC 282240Z AUTO VRB03KT 10SM SCT070 25/13 A3001 940 46 2300 VRB/03 RMK AO2
14926KSTC STC20050728164510107/28/05 16:45:31  5-MIN KSTC 282245Z AUTO 34005KT 10SM FEW050 24/13 A3001 940 47 2300 340/05 RMK AO2
14926KSTC STC20050728165011807/28/05 16:50:31  5-MIN KSTC 282250Z AUTO 35007KT 10SM SCT050 26/14 A3001 940 48 2400 340/07 RMK AO2 SLP167 T02560139
14926KSTC STC20050728165510107/28/05 16:55:31  5-MIN KSTC 282255Z AUTO 36006KT 10SM SCT050 26/13 A3002 940 46 2400 360/06 RMK AO2
14926KSTC STC20050728170010107/28/05 17:00:31  5-MIN KSTC 282300Z AUTO 35008KT 10SM FEW050 25/13 A3002 940 48 2300 350/08 RMK AO2
14926KSTC STC20050728170510107/28/05 17:05:31  5-MIN KSTC 282305Z AUTO 35006KT 10SM FEW050 24/13 A3002 940 51 2200 350/06 RMK AO2
14926KSTC STC20050728171010807/28/05 17:10:31  5-MIN KSTC 282310Z AUTO 35005KT 10SM FEW050 SCT080 23/13 A3002 940 55 2100 350/05 RMK AO2
14926KSTC STC20050728171510807/28/05 17:15:31  5-MIN KSTC 282315Z AUTO 35004KT 10SM FEW050 SCT080 23/14 A3002 940 55 2200 350/04 RMK AO2
14926KSTC STC20050728172010107/28/05 17:20:31  5-MIN KSTC 282320Z AUTO 33006KT 10SM FEW080 24/14 A3002 940 51 2300 330/06 RMK AO2
14926KSTC STC20050728172510107/28/05 17:25:31  5-MIN KSTC 282325Z AUTO VRB04KT 10SM FEW080 24/13 A3002 940 49 2300 VRB/04 RMK AO2
14926KSTC STC20050728173010107/28/05 17:30:31  5-MIN KSTC 282330Z AUTO 34004KT 10SM FEW080 24/13 A3002 940 49 2300 340/04 RMK AO2
14926KSTC STC20050728173510107/28/05 17:35:31  5-MIN KSTC 282335Z AUTO 35006KT 10SM FEW048 24/13 A3002 940 49 2300 350/06 RMK AO2
14926KSTC STC20050728174010107/28/05 17:40:31  5-MIN KSTC 282340Z AUTO 34007KT 10SM SCT048 25/13 A3002 940 48 2300 340/07 RMK AO2
14926KSTC STC20050728174510807/28/05 17:45:31  5-MIN KSTC 282345Z AUTO 35007KT 10SM SCT050 SCT070 24/13 A3002 940 47 2300 340/07 RMK AO2
14926KSTC STC20050728175014307/28/05 17:50:31  5-MIN KSTC 282350Z AUTO 35008KT 10SM SCT050 BKN070 24/13 A3002 940 47 2300 350/08 RMK AO2 SLP170 T02440128 10256 20228 50003
14926KSTC STC20050728175510807/28/05 17:55:31  5-MIN KSTC 282355Z AUTO 34006KT 10SM SCT050 BKN070 24/13 A3002 930 49 2200 340/06 RMK AO2
14926KSTC STC20050728180010807/28/05 18:00:31  5-MIN KSTC 290000Z AUTO 35005KT 10SM SCT050 BKN070 23/13 A3002 930 53 2200 340/05 RMK AO2
14926KSTC STC20050728180510807/28/05 18:05:31  5-MIN KSTC 290005Z AUTO 35004KT 10SM FEW050 SCT070 23/13 A3002 930 55 2100 340/04 RMK AO2
14926KSTC STC20050728181010807/28/05 18:10:31  5-MIN KSTC 290010Z AUTO 34004KT 10SM FEW050 SCT070 23/13 A3002 930 53 2200 340/04 RMK AO2
14926KSTC STC20050728181510107/28/05 18:15:31  5-MIN KSTC 290015Z AUTO 35005KT 10SM FEW055 24/14 A3002 930 53 2200 350/05 RMK AO2
14926KSTC STC20050728182009807/28/05 18:20:31  5-MIN KSTC 290020Z AUTO 35005KT 10SM CLR 24/14 A3002 930 53 2200 350/05 RMK AO2
14926KSTC STC20050728182509807/28/05 18:25:31  5-MIN KSTC 290025Z AUTO 35005KT 10SM CLR 23/13 A3003 930 53 2100 350/05 RMK AO2
14926KSTC STC20050728183009807/28/05 18:30:31  5-MIN KSTC 290030Z AUTO 35004KT 10SM CLR 24/13 A3003 930 51 2200 350/04 RMK AO2
14926KSTC STC20050728183509807/28/05 18:35:31  5-MIN KSTC 290035Z AUTO 35004KT 10SM CLR 23/13 A3003 930 53 2100 340/04 RMK AO2
14926KSTC STC20050728184009807/28/05 18:40:31  5-MIN KSTC 290040Z AUTO 35004KT 10SM CLR 23/14 A3003 930 55 2100 340/04 RMK AO2
14926KSTC STC20050728184509807/28/05 18:45:31  5-MIN KSTC 290045Z AUTO 35005KT 10SM CLR 23/14 A3003 930 55 2100 340/05 RMK AO2
14926KSTC STC20050728185011507/28/05 18:50:31  5-MIN KSTC 290050Z AUTO 35003KT 10SM CLR 23/13 A3003 930 53 2100 350/03 RMK AO2 SLP173 T02330133
14926KSTC STC20050728185509807/28/05 18:55:31  5-MIN KSTC 290055Z AUTO 35004KT 10SM CLR 23/14 A3003 930 57 2100 350/04 RMK AO2
14926KSTC STC20050728190009807/28/05 19:00:31  5-MIN KSTC 290100Z AUTO 36004KT 10SM CLR 23/13 A3003 930 55 2100 360/04 RMK AO2
14926KSTC STC20050728190509807/28/05 19:05:31  5-MIN KSTC 290105Z AUTO 36003KT 10SM CLR 23/14 A3003 920 57 2100 360/03 RMK AO2
14926KSTC STC20050728191009807/28/05 19:10:31  5-MIN KSTC 290110Z AUTO 36003KT 10SM CLR 22/14 A3003 920 59 2000 360/03 RMK AO2
14926KSTC STC20050728191509807/28/05 19:15:31  5-MIN KSTC 290115Z AUTO 36003KT 10SM CLR 22/14 A3003 920 59 2000 350/03 RMK AO2
14926KSTC STC20050728192009807/28/05 19:20:31  5-MIN KSTC 290120Z AUTO 34003KT 10SM CLR 22/14 A3004 920 63 1900 340/03 RMK AO2
14926KSTC STC20050728192509807/28/05 19:25:31  5-MIN KSTC 290125Z AUTO 35004KT 10SM CLR 22/14 A3004 920 63 1900 350/04 RMK AO2
14926KSTC STC20050728193009807/28/05 19:30:31  5-MIN KSTC 290130Z AUTO 35005KT 10SM CLR 21/14 A3004 920 63 1900 350/05 RMK AO2
14926KSTC STC20050728193509807/28/05 19:35:31  5-MIN KSTC 290135Z AUTO 36004KT 10SM CLR 21/13 A3004 920 61 1900 360/04 RMK AO2
14926KSTC STC20050728194009807/28/05 19:40:31  5-MIN KSTC 290140Z AUTO 36004KT 10SM CLR 21/13 A3004 910 63 1800 360/04 RMK AO2
14926KSTC STC20050728194509807/28/05 19:45:31  5-MIN KSTC 290145Z AUTO 36003KT 10SM CLR 21/13 A3004 910 63 1800 360/03 RMK AO2
14926KSTC STC20050728212009807/28/05 21:20:31  5-MIN KSTC 290320Z AUTO 32003KT 10SM CLR 17/14 A3007 880 83 1300 320/03 RMK AO2
14926KSTC STC20050728212509807/28/05 21:25:31  5-MIN KSTC 290325Z AUTO 32003KT 10SM CLR 16/14 A3008 880 86 1300 320/03 RMK AO2
14926KSTC STC20050728213009807/28/05 21:30:31  5-MIN KSTC 290330Z AUTO 32005KT 10SM CLR 17/13 A3008 880 80 1300 310/05 RMK AO2
14926KSTC STC20050728213509807/28/05 21:35:31  5-MIN KSTC 290335Z AUTO 33003KT 10SM CLR 16/13 A3008 880 83 1300 320/03 RMK AO2
14926KSTC STC20050728214009807/28/05 21:40:31  5-MIN KSTC 290340Z AUTO 33004KT 10SM CLR 16/13 A3008 880 83 1300 330/04 RMK AO2
14926KSTC STC20050728214509807/28/05 21:45:31  5-MIN KSTC 290345Z AUTO 34003KT 10SM CLR 16/13 A3009 870 83 1200 340/03 RMK AO2
14926KSTC STC20050728215011507/28/05 21:50:31  5-MIN KSTC 290350Z AUTO 34004KT 10SM CLR 16/13 A3009 870 83 1200 340/04 RMK AO2 SLP196 T01610133
14926KSTC STC20050728215509807/28/05 21:55:31  5-MIN KSTC 290355Z AUTO 34004KT 10SM CLR 16/13 A3009 870 83 1200 340/04 RMK AO2
14926KSTC STC20050728220009807/28/05 22:00:31  5-MIN KSTC 290400Z AUTO 35004KT 10SM CLR 16/13 A3010 860 83 1200 340/04 RMK AO2
14926KSTC STC20050728220509807/28/05 22:05:31  5-MIN KSTC 290405Z AUTO 36003KT 10SM CLR 16/13 A3010 860 80 1200 350/03 RMK AO2
14926KSTC STC20050728221009807/28/05 22:10:31  5-MIN KSTC 290410Z AUTO 36003KT 10SM CLR 16/13 A3010 860 80 1200 350/03 RMK AO2
14926KSTC STC20050728221509807/28/05 22:15:31  5-MIN KSTC 290415Z AUTO 36003KT 10SM CLR 16/13 A3010 860 80 1200 360/03 RMK AO2
14926KSTC STC20050728222009807/28/05 22:20:31  5-MIN KSTC 290420Z AUTO 36004KT 10SM CLR 16/13 A3011 850 80 1200 360/04 RMK AO2
14926KSTC STC20050728222509807/28/05 22:25:31  5-MIN KSTC 290425Z AUTO 01005KT 10SM CLR 16/13 A3011 850 80 1200 010/05 RMK AO2
14926KSTC STC20050728223009807/28/05 22:30:31  5-MIN KSTC 290430Z AUTO 02005KT 10SM CLR 16/13 A3011 850 80 1200 010/05 RMK AO2
14926KSTC STC20050728223509807/28/05 22:35:31  5-MIN KSTC 290435Z AUTO 02006KT 10SM CLR 17/13 A3011 850 77 1300 020/06 RMK AO2
14926KSTC STC20050728224009807/28/05 22:40:31  5-MIN KSTC 290440Z AUTO 02004KT 10SM CLR 17/13 A3011 850 77 1300 020/04 RMK AO2
14926KSTC STC20050728224509807/28/05 22:45:31  5-MIN KSTC 290445Z AUTO 02005KT 10SM CLR 17/13 A3011 850 77 1300 020/05 RMK AO2
14926KSTC STC20050728225011507/28/05 22:50:31  5-MIN KSTC 290450Z AUTO 02005KT 10SM CLR 16/13 A3011 850 80 1200 010/05 RMK AO2 SLP202 T01610128
14926KSTC STC20050728225509807/28/05 22:55:31  5-MIN KSTC 290455Z AUTO 01004KT 10SM CLR 16/13 A3011 850 80 1200 010/04 RMK AO2
14926KSTC STC20050728230009807/28/05 23:00:31  5-MIN KSTC 290500Z AUTO 01003KT 10SM CLR 16/13 A3012 850 83 1100 010/03 RMK AO2
14926KSTC STC20050728230509807/28/05 23:05:31  5-MIN KSTC 290505Z AUTO 02003KT 10SM CLR 16/13 A3012 850 83 1100 010/03 RMK AO2
14926KSTC STC20050728231009807/28/05 23:10:31  5-MIN KSTC 290510Z AUTO 01003KT 10SM CLR 15/13 A3012 840 86 1100 010/03 RMK AO2
14926KSTC STC20050728231509807/28/05 23:15:31  5-MIN KSTC 290515Z AUTO 02003KT 10SM CLR 15/13 A3012 840 86 1100 020/03 RMK AO2
14926KSTC STC20050728232009807/28/05 23:20:31  5-MIN KSTC 290520Z AUTO 01003KT 10SM CLR 15/13 A3012 840 86 1100 010/03 RMK AO2
14926KSTC STC20050728232509807/28/05 23:25:31  5-MIN KSTC 290525Z AUTO 00000KT 10SM CLR 14/13 A3012 840 90 1000 000/00 RMK AO2
14926KSTC STC20050728233009807/28/05 23:30:31  5-MIN KSTC 290530Z AUTO 00000KT 10SM CLR 15/13 A3012 840 86 1100 000/00 RMK AO2
14926KSTC STC20050728233509807/28/05 23:35:31  5-MIN KSTC 290535Z AUTO 00000KT 10SM CLR 14/13 A3012 840 90 1000 000/00 RMK AO2
14926KSTC STC20050728234009807/28/05 23:40:31  5-MIN KSTC 290540Z AUTO 00000KT 10SM CLR 14/13 A3012 840 90 1000 000/00 RMK AO2
14926KSTC STC20050728234509707/28/05 23:45:31  5-MIN KSTC 290545Z AUTO 02003KT 10SM CLR 14/12 A3012 840 90 900 020/03 RMK AO2
14926KSTC STC20050728235014207/28/05 23:50:31  5-MIN KSTC 290550Z AUTO 00000KT 10SM CLR 14/12 A3012 840 90 900 000/00 RMK AO2 SLP205 T01390122 10239 20139 402560139 53015
14926KSTC STC20050728235509707/28/05 23:55:31  5-MIN KSTC 290555Z AUTO 00000KT 10SM CLR 14/12 A3012 840 90 900 000/00 RMK AO2
14926KSTC STC20050729000009707/29/05 00:00:32  5-MIN KSTC 290600Z AUTO 00000KT 10SM CLR 14/12 A3012 840 90 900 000/00 RMK AO2
14926KSTC STC20050729000509807/29/05 00:05:31  5-MIN KSTC 290605Z AUTO 00000KT 10SM CLR 14/12 A3012 840 86 1000 000/00 RMK AO2
14926KSTC STC20050729001009807/29/05 00:10:31  5-MIN KSTC 290610Z AUTO 00000KT 10SM CLR 14/12 A3012 840 86 1000 000/00 RMK AO2
14926KSTC STC20050729001509807/29/05 00:15:31  5-MIN KSTC 290615Z AUTO 00000KT 10SM CLR 14/12 A3012 840 86 1000 000/00 RMK AO2
14926KSTC STC20050729002009707/29/05 00:20:31  5-MIN KSTC 290620Z AUTO 00000KT 10SM CLR 14/12 A3012 840 90 900 000/00 RMK AO2
14926KSTC STC20050729002509707/29/05 00:25:31  5-MIN KSTC 290625Z AUTO 00000KT 10SM CLR 14/12 A3012 840 90 900 000/00 RMK AO2
14926KSTC STC20050729003009707/29/05 00:30:31  5-MIN KSTC 290630Z AUTO 00000KT 10SM CLR 14/12 A3012 840 90 900 000/00 RMK AO2
14926KSTC STC20050729003509707/29/05 00:35:31  5-MIN KSTC 290635Z AUTO 00000KT 10SM CLR 14/12 A3012 840 90 900 000/00 RMK AO2
14926KSTC STC20050729004009707/29/05 00:40:31  5-MIN KSTC 290640Z AUTO 00000KT 10SM CLR 14/12 A3012 840 90 900 000/00 RMK AO2
14926KSTC STC20050729004509707/29/05 00:45:31  5-MIN KSTC 290645Z AUTO 00000KT 10SM CLR 14/12 A3012 840 90 900 000/00 RMK AO2
14926KSTC STC20050729005011507/29/05 00:50:31  5-MIN KSTC 290650Z AUTO 00000KT 10SM CLR 14/12 A3012 840 90 1000 000/00 RMK AO2 SLP205 T01390122
14926KSTC STC20050729005509807/29/05 00:55:31  5-MIN KSTC 290655Z AUTO 00000KT 10SM CLR 14/12 A3012 850 90 1000 000/00 RMK AO2
14926KSTC STC20050729010009707/29/05 01:00:31  5-MIN KSTC 290700Z AUTO 00000KT 10SM CLR 13/12 A3012 850 93 900 000/00 RMK AO2
14926KSTC STC20050729010509707/29/05 01:05:31  5-MIN KSTC 290705Z AUTO 00000KT 10SM CLR 13/12 A3012 840 93 900 000/00 RMK AO2
14926KSTC STC20050729011009707/29/05 01:10:31  5-MIN KSTC 290710Z AUTO 00000KT 10SM CLR 13/12 A3012 850 93 900 000/00 RMK AO2
14926KSTC STC20050729011509707/29/05 01:15:31  5-MIN KSTC 290715Z AUTO 00000KT 10SM CLR 13/12 A3012 840 93 900 000/00 RMK AO2
14926KSTC STC20050729012009707/29/05 01:20:31  5-MIN KSTC 290720Z AUTO 00000KT 10SM CLR 13/12 A3012 840 93 900 000/00 RMK AO2
14926KSTC STC20050729012509707/29/05 01:25:31  5-MIN KSTC 290725Z AUTO 00000KT 10SM CLR 13/12 A3012 840 93 800 000/00 RMK AO2
14926KSTC STC20050729013009707/29/05 01:30:31  5-MIN KSTC 290730Z AUTO 00000KT 10SM CLR 13/12 A3013 840 93 800 000/00 RMK AO2
14926KSTC STC20050729013509707/29/05 01:35:31  5-MIN KSTC 290735Z AUTO 00000KT 10SM CLR 13/12 A3013 830 93 800 000/00 RMK AO2
14926KSTC STC20050729014009707/29/05 01:40:31  5-MIN KSTC 290740Z AUTO 00000KT 10SM CLR 13/12 A3013 830 93 800 000/00 RMK AO2
14926KSTC STC20050729014509707/29/05 01:45:31  5-MIN KSTC 290745Z AUTO 00000KT 10SM CLR 12/11 A3014 830 93 700 000/00 RMK AO2
14926KSTC STC20050729015011407/29/05 01:50:31  5-MIN KSTC 290750Z AUTO 00000KT 10SM CLR 12/11 A3014 830 93 700 000/00 RMK AO2 SLP212 T01220111
14926KSTC STC20050729015509707/29/05 01:55:31  5-MIN KSTC 290755Z AUTO 00000KT 10SM CLR 12/11 A3014 830 93 700 000/00 RMK AO2
14926KSTC STC20050729020009707/29/05 02:00:31  5-MIN KSTC 290800Z AUTO 00000KT 10SM CLR 12/11 A3014 830 93 700 000/00 RMK AO2
14926KSTC STC20050729020509707/29/05 02:05:31  5-MIN KSTC 290805Z AUTO 00000KT 10SM CLR 12/12 A3014 830 96 700 000/00 RMK AO2
14926KSTC STC20050729021009607/29/05 02:10:31  5-MIN KSTC 290810Z AUTO 00000KT 9SM CLR 12/11 A3014 820 96 700 000/00 RMK AO2
14926KSTC STC20050729021509607/29/05 02:15:31  5-MIN KSTC 290815Z AUTO 00000KT 8SM CLR 12/11 A3014 820 96 700 000/00 RMK AO2
14926KSTC STC20050729022009607/29/05 02:20:31  5-MIN KSTC 290820Z AUTO 00000KT 9SM CLR 12/11 A3014 830 96 700 000/00 RMK AO2
14926KSTC STC20050729022509607/29/05 02:25:31  5-MIN KSTC 290825Z AUTO 03003KT 9SM CLR 12/11 A3013 830 93 700 030/03 RMK AO2
14926KSTC STC20050729023009607/29/05 02:30:31  5-MIN KSTC 290830Z AUTO 04003KT 9SM CLR 12/11 A3013 830 96 700 030/03 RMK AO2
14926KSTC STC20050729023509707/29/05 02:35:31  5-MIN KSTC 290835Z AUTO 00000KT 10SM CLR 12/11 A3013 830 93 700 000/00 RMK AO2
14926KSTC STC20050729024009707/29/05 02:40:31  5-MIN KSTC 290840Z AUTO 00000KT 10SM CLR 12/11 A3013 830 96 700 000/00 RMK AO2
14926KSTC STC20050729024509707/29/05 02:45:31  5-MIN KSTC 290845Z AUTO 00000KT 10SM CLR 12/11 A3013 830 96 700 000/00 RMK AO2
14926KSTC STC20050729025012007/29/05 02:50:31  5-MIN KSTC 290850Z AUTO 00000KT 10SM CLR 12/11 A3013 830 96 700 000/00 RMK AO2 SLP209 T01170111 51018
14926KSTC STC20050729025509607/29/05 02:55:31  5-MIN KSTC 290855Z AUTO 05003KT 9SM CLR 12/11 A3013 840 93 700 050/03 RMK AO2
14926KSTC STC20050729030009607/29/05 03:00:31  5-MIN KSTC 290900Z AUTO 05003KT 9SM CLR 12/11 A3013 830 93 700 050/03 RMK AO2
14926KSTC STC20050729030509707/29/05 03:05:31  5-MIN KSTC 290905Z AUTO 06004KT 10SM CLR 12/11 A3013 830 93 700 060/04 RMK AO2
14926KSTC STC20050729031009707/29/05 03:10:31  5-MIN KSTC 290910Z AUTO 06003KT 10SM CLR 12/11 A3013 830 93 700 060/03 RMK AO2
14926KSTC STC20050729031509707/29/05 03:15:31  5-MIN KSTC 290915Z AUTO 00000KT 10SM CLR 12/11 A3014 820 93 700 000/00 RMK AO2
14926KSTC STC20050729032009707/29/05 03:20:31  5-MIN KSTC 290920Z AUTO 00000KT 10SM CLR 12/11 A3014 820 93 700 000/00 RMK AO2
14926KSTC STC20050729032509707/29/05 03:25:31  5-MIN KSTC 290925Z AUTO 00000KT 10SM CLR 12/11 A3014 820 93 700 000/00 RMK AO2
14926KSTC STC20050729033009707/29/05 03:30:31  5-MIN KSTC 290930Z AUTO 01003KT 10SM CLR 12/11 A3014 820 93 700 010/03 RMK AO2
14926KSTC STC20050729033509707/29/05 03:35:31  5-MIN KSTC 290935Z AUTO 01003KT 10SM CLR 11/10 A3015 820 93 600 360/03 RMK AO2
14926KSTC STC20050729034009707/29/05 03:40:31  5-MIN KSTC 290940Z AUTO 36003KT 10SM CLR 12/11 A3015 810 93 600 350/03 RMK AO2
14926KSTC STC20050729034509707/29/05 03:45:31  5-MIN KSTC 290945Z AUTO 00000KT 10SM CLR 11/11 A3015 810 96 600 000/00 RMK AO2
14926KSTC STC20050729035011407/29/05 03:50:31  5-MIN KSTC 290950Z AUTO 30003KT 10SM CLR 12/11 A3016 800 93 600 300/03 RMK AO2 SLP220 T01170106
14926KSTC STC20050729035510407/29/05 03:55:31  5-MIN KSTC 290955Z AUTO 29004KT 10SM CLR 12/11 A3017 800 96 600 290/04 RMK AO2 PRESRR
14926KSTC STC20050729040009707/29/05 04:00:31  5-MIN KSTC 291000Z AUTO 31003KT 10SM CLR 12/11 A3018 790 93 700 310/03 RMK AO2
14926KSTC STC20050729040509707/29/05 04:05:31  5-MIN KSTC 291005Z AUTO 32003KT 10SM CLR 12/11 A3018 790 93 700 320/03 RMK AO2
14926KSTC STC20050729041009707/29/05 04:10:31  5-MIN KSTC 291010Z AUTO 00000KT 10SM CLR 12/11 A3018 780 96 600 000/00 RMK AO2
14926KSTC STC20050729041509707/29/05 04:15:31  5-MIN KSTC 291015Z AUTO 00000KT 10SM CLR 12/11 A3018 790 93 700 000/00 RMK AO2
14926KSTC STC20050729042009707/29/05 04:20:31  5-MIN KSTC 291020Z AUTO 00000KT 10SM CLR 12/11 A3018 790 89 700 000/00 RMK AO2
14926KSTC STC20050729042509707/29/05 04:25:31  5-MIN KSTC 291025Z AUTO 00000KT 10SM CLR 12/11 A3018 790 93 700 000/00 RMK AO2
14926KSTC STC20050729043009707/29/05 04:30:31  5-MIN KSTC 291030Z AUTO 00000KT 10SM CLR 12/11 A3017 790 93 600 000/00 RMK AO2
14926KSTC STC20050729043509707/29/05 04:35:31  5-MIN KSTC 291035Z AUTO 00000KT 10SM CLR 12/11 A3017 790 93 600 000/00 RMK AO2
14926KSTC STC20050729044009607/29/05 04:40:31  5-MIN KSTC 291040Z AUTO 00000KT 9SM CLR 11/11 A3017 790 96 600 000/00 RMK AO2
14926KSTC STC20050729044509607/29/05 04:45:31  5-MIN KSTC 291045Z AUTO 00000KT 9SM CLR 12/11 A3017 790 93 600 000/00 RMK AO2
14926KSTC STC20050729045011307/29/05 04:50:31  5-MIN KSTC 291050Z AUTO 05003KT 8SM CLR 11/11 A3017 790 96 600 050/03 RMK AO2 SLP224 T01110106
14926KSTC STC20050729045509607/29/05 04:55:31  5-MIN KSTC 291055Z AUTO 05004KT 8SM CLR 12/11 A3017 790 93 600 050/04 RMK AO2
14926KSTC STC20050729050009607/29/05 05:00:31  5-MIN KSTC 291100Z AUTO 05005KT 9SM CLR 12/11 A3017 790 93 600 040/05 RMK AO2
14926KSTC STC20050729050509607/29/05 05:05:31  5-MIN KSTC 291105Z AUTO 05004KT 9SM CLR 12/11 A3017 790 96 600 050/04 RMK AO2
14926KSTC STC20050729051009707/29/05 05:10:31  5-MIN KSTC 291110Z AUTO 05005KT 10SM CLR 12/11 A3017 800 96 600 050/05 RMK AO2
14926KSTC STC20050729051509707/29/05 05:15:31  5-MIN KSTC 291115Z AUTO 06005KT 10SM CLR 12/11 A3017 800 93 700 060/05 RMK AO2
14926KSTC STC20050729052009707/29/05 05:20:31  5-MIN KSTC 291120Z AUTO 06005KT 10SM CLR 12/11 A3017 800 93 700 050/05 RMK AO2
14926KSTC STC20050729052509707/29/05 05:25:31  5-MIN KSTC 291125Z AUTO 05005KT 10SM CLR 12/11 A3017 800 93 700 050/05 RMK AO2
14926KSTC STC20050729053009707/29/05 05:30:31  5-MIN KSTC 291130Z AUTO 06004KT 10SM CLR 13/12 A3017 790 93 800 060/04 RMK AO2
14926KSTC STC20050729053509707/29/05 05:35:31  5-MIN KSTC 291135Z AUTO 06003KT 10SM CLR 13/12 A3017 800 93 800 060/03 RMK AO2
14926KSTC STC20050729054009707/29/05 05:40:31  5-MIN KSTC 291140Z AUTO 05004KT 10SM CLR 13/12 A3017 800 93 800 050/04 RMK AO2
14926KSTC STC20050729054509707/29/05 05:45:31  5-MIN KSTC 291145Z AUTO 06004KT 10SM CLR 13/12 A3017 800 93 800 060/04 RMK AO2
14926KSTC STC20050729055013207/29/05 05:50:31  5-MIN KSTC 291150Z AUTO 06006KT 10SM CLR 13/12 A3016 800 89 800 050/06 RMK AO2 SLP221 T01330117 10144 20111 50003
14926KSTC STC20050729055509207/29/05 05:55:31  5-MIN KSTC 291155Z 07005KT 10SM CLR 13/12 A3017 800 89 800 070/05 RMK AO2
14926KSTC STC20050729060009207/29/05 06:00:31  5-MIN KSTC 291200Z 06005KT 10SM CLR 14/12 A3017 800 90 900 050/05 RMK AO2
14926KSTC STC20050729060509207/29/05 06:05:31  5-MIN KSTC 291205Z 06005KT 10SM CLR 14/12 A3017 800 90 900 060/05 RMK AO2
14926KSTC STC20050729061009207/29/05 06:10:31  5-MIN KSTC 291210Z 07003KT 10SM CLR 14/12 A3018 790 86 900 070/03 RMK AO2
14926KSTC STC20050729061509207/29/05 06:15:31  5-MIN KSTC 291215Z VRB04KT 10SM CLR 14/12 A3018 780 86 900 VRB/04 RMK AO2
14926KSTC STC20050729062009207/29/05 06:20:31  5-MIN KSTC 291220Z 00000KT 10SM CLR 14/13 A3018 780 90 900 000/00 RMK AO2
14926KSTC STC20050729062509307/29/05 06:25:31  5-MIN KSTC 291225Z VRB03KT 10SM CLR 15/13 A3019 780 86 1000 VRB/03 RMK AO2
14926KSTC STC20050729063009307/29/05 06:30:31  5-MIN KSTC 291230Z 00000KT 10SM CLR 15/13 A3019 780 86 1000 000/00 RMK AO2
14926KSTC STC20050729063509307/29/05 06:35:31  5-MIN KSTC 291235Z VRB03KT 10SM CLR 16/13 A3019 780 86 1100 VRB/03 RMK AO2
14926KSTC STC20050729064009307/29/05 06:40:31  5-MIN KSTC 291240Z 00000KT 10SM CLR 16/13 A3019 780 83 1100 000/00 RMK AO2
14926KSTC STC20050729064509307/29/05 06:45:31  5-MIN KSTC 291245Z 00000KT 10SM CLR 16/13 A3019 770 83 1100 000/00 RMK AO2
14926KSTC STC20050729065011007/29/05 06:50:31  5-MIN KSTC 291250Z 10003KT 10SM CLR 16/13 A3020 770 83 1100 100/03 RMK AO2 SLP232 T01560128
14926KSTC STC20050729065509307/29/05 06:55:31  5-MIN KSTC 291255Z 10003KT 10SM CLR 16/13 A3020 770 83 1100 090/03 RMK AO2
14926KSTC STC20050729070009307/29/05 07:00:31  5-MIN KSTC 291300Z 07004KT 10SM CLR 16/13 A3020 770 83 1100 060/04 RMK AO2
14926KSTC STC20050729070509607/29/05 07:05:31  5-MIN KSTC 291305Z 08003KT 10SM FEW110 16/13 A3020 770 83 1100 080/03 RMK AO2
14926KSTC STC20050729071009607/29/05 07:10:31  5-MIN KSTC 291310Z 07004KT 10SM SCT110 16/13 A3020 770 83 1100 070/04 RMK AO2
14926KSTC STC20050729071509607/29/05 07:15:31  5-MIN KSTC 291315Z 09005KT 10SM FEW110 16/13 A3020 770 80 1100 080/05 RMK AO2
14926KSTC STC20050729072009607/29/05 07:20:31  5-MIN KSTC 291320Z 10004KT 10SM FEW110 16/13 A3020 770 80 1100 100/04 RMK AO2
14926KSTC STC20050729072509607/29/05 07:25:31  5-MIN KSTC 291325Z 08004KT 10SM FEW110 17/13 A3021 760 80 1200 080/04 RMK AO2
14926KSTC STC20050729073009607/29/05 07:30:31  5-MIN KSTC 291330Z 08003KT 10SM FEW110 17/13 A3021 760 78 1200 070/03 RMK AO2
14926KSTC STC20050729073509307/29/05 07:35:31  5-MIN KSTC 291335Z 08003KT 10SM CLR 17/13 A3021 760 78 1200 080/03 RMK AO2
14926KSTC STC20050729074009307/29/05 07:40:31  5-MIN KSTC 291340Z 08003KT 10SM CLR 18/13 A3020 770 75 1300 080/03 RMK AO2
14926KSTC STC20050729074509307/29/05 07:45:31  5-MIN KSTC 291345Z 07004KT 10SM CLR 18/13 A3020 770 70 1400 070/04 RMK AO2
14926KSTC STC20050729075011307/29/05 07:50:31  5-MIN KSTC 291350Z 09005KT 10SM SCT110 18/13 A3020 770 70 1400 090/05 RMK AO2 SLP233 T01830128
14926KSTC STC20050729075511207/29/05 07:55:31  5-MIN KSTC 291355Z 10008KT 080V140 10SM SCT110 18/12 A3020 770 67 1400 100/08 080V140 RMK AO2
14926KSTC STC20050729080009607/29/05 08:00:31  5-MIN KSTC 291400Z 09006KT 10SM SCT110 18/12 A3020 760 65 1400 090/06 RMK AO2
14926KSTC STC20050729080509607/29/05 08:05:31  5-MIN KSTC 291405Z 10007KT 10SM FEW110 19/12 A3021 760 62 1400 100/07 RMK AO2
14926KSTC STC20050729081009607/29/05 08:10:31  5-MIN KSTC 291410Z 12006KT 10SM SCT110 19/12 A3021 760 65 1400 120/06 RMK AO2
14926KSTC STC20050729081509607/29/05 08:15:31  5-MIN KSTC 291415Z VRB05KT 10SM BKN110 19/12 A3021 760 62 1500 VRB/05 RMK AO2
14926KSTC STC20050729082009607/29/05 08:20:31  5-MIN KSTC 291420Z 09006KT 10SM BKN110 19/12 A3021 760 60 1500 090/06 RMK AO2
14926KSTC STC20050729082509607/29/05 08:25:31  5-MIN KSTC 291425Z 11006KT 10SM SCT110 19/12 A3021 760 62 1400 110/06 RMK AO2
14926KSTC STC20050729083009607/29/05 08:30:31  5-MIN KSTC 291430Z VRB05KT 10SM SCT110 19/12 A3021 760 60 1500 VRB/05 RMK AO2
14926KSTC STC20050729083509607/29/05 08:35:31  5-MIN KSTC 291435Z 10005KT 10SM BKN110 19/12 A3021 760 60 1500 100/05 RMK AO2
14926KSTC STC20050729084009607/29/05 08:40:31  5-MIN KSTC 291440Z 11005KT 10SM BKN110 19/12 A3020 760 60 1500 110/05 RMK AO2
14926KSTC STC20050729084509607/29/05 08:45:31  5-MIN KSTC 291445Z 10005KT 10SM BKN110 19/12 A3021 760 60 1500 090/05 RMK AO2
14926KSTC STC20050729085011907/29/05 08:50:31  5-MIN KSTC 291450Z 11006KT 10SM BKN110 19/12 A3020 770 60 1500 100/06 RMK AO2 SLP234 T01940117 50014
14926KSTC STC20050729085509607/29/05 08:55:31  5-MIN KSTC 291455Z 09007KT 10SM BKN110 20/12 A3021 760 58 1600 090/07 RMK AO2
14926KSTC STC20050729090009607/29/05 09:00:31  5-MIN KSTC 291500Z 10007KT 10SM BKN110 20/12 A3020 770 60 1600 090/07 RMK AO2
14926KSTC STC20050729090509607/29/05 09:05:31  5-MIN KSTC 291505Z 11005KT 10SM BKN110 20/12 A3020 770 60 1600 100/05 RMK AO2
14926KSTC STC20050729091009607/29/05 09:10:31  5-MIN KSTC 291510Z VRB06KT 10SM SCT110 21/12 A3020 770 58 1600 VRB/06 RMK AO2
14926KSTC STC20050729091509607/29/05 09:15:31  5-MIN KSTC 291515Z VRB05KT 10SM SCT110 21/12 A3021 760 56 1600 VRB/05 RMK AO2
14926KSTC STC20050730165011007/30/05 16:50:31  5-MIN KSTC 302250Z 18011KT 10SM CLR 30/19 A3000 950 52 2900 170/11 RMK AO2 SLP162 T03000194
14926KSTC STC20050730165509307/30/05 16:55:31  5-MIN KSTC 302255Z 18011KT 10SM CLR 30/19 A3000 950 51 2900 180/11 RMK AO2
14926KSTC STC20050730170009307/30/05 17:00:31  5-MIN KSTC 302300Z 18010KT 10SM CLR 30/19 A3000 950 51 2900 180/10 RMK AO2
14926KSTC STC20050730170509307/30/05 17:05:31  5-MIN KSTC 302305Z 18008KT 10SM CLR 30/19 A3000 950 52 2900 170/08 RMK AO2
14926KSTC STC20050730171009307/30/05 17:10:31  5-MIN KSTC 302310Z 17010KT 10SM CLR 30/19 A3000 950 52 2900 170/10 RMK AO2
14926KSTC STC20050730171509307/30/05 17:15:31  5-MIN KSTC 302315Z 17010KT 10SM CLR 29/19 A3000 950 52 2900 160/10 RMK AO2
14926KSTC STC20050730172009307/30/05 17:20:31  5-MIN KSTC 302320Z 18009KT 10SM CLR 30/19 A3000 950 51 2900 170/09 RMK AO2
14926KSTC STC20050730172509307/30/05 17:25:31  5-MIN KSTC 302325Z 18009KT 10SM CLR 29/19 A3000 950 54 2900 180/09 RMK AO2
14926KSTC STC20050730173009307/30/05 17:30:31  5-MIN KSTC 302330Z 19010KT 10SM CLR 29/19 A3000 950 54 2900 190/10 RMK AO2
14926KSTC STC20050730173509307/30/05 17:35:31  5-MIN KSTC 302335Z 19009KT 10SM CLR 29/19 A3000 950 54 2900 180/09 RMK AO2
14926KSTC STC20050730174009307/30/05 17:40:31  5-MIN KSTC 302340Z 19009KT 10SM CLR 29/19 A3000 950 52 2900 190/09 RMK AO2
14926KSTC STC20050730174509307/30/05 17:45:31  5-MIN KSTC 302345Z 19008KT 10SM CLR 29/19 A3000 950 54 2900 190/08 RMK AO2
14926KSTC STC20050730175012807/30/05 17:50:31  5-MIN KSTC 302350Z 19008KT 10SM CLR 29/19 A3000 950 54 2900 190/08 RMK AO2 SLP162 T02940194 10306 20283 56005
14926KSTC STC20050730175509307/30/05 17:55:31  5-MIN KSTC 302355Z 19008KT 10SM CLR 29/19 A3000 950 56 2800 180/08 RMK AO2
