14926KSTC STC20190101000011301/01/19 00:00:31  5-MIN KSTC 010600Z AUTO 35011KT 10SM CLR M18/M23 A3032 660 68 -3300 350/11 RMK AO2 T11831228 $
14926KSTC STC20190101000511301/01/19 00:05:31  5-MIN KSTC 010605Z AUTO 35010KT 10SM CLR M18/M23 A3033 650 68 -3300 350/10 RMK AO2 T11831228 $
14926KSTC STC20190101001011301/01/19 00:10:31  5-MIN KSTC 010610Z AUTO 35011KT 10SM CLR M18/M23 A3033 650 68 -3300 350/11 RMK AO2 T11831228 $
14926KSTC STC20190101001511301/01/19 00:15:31  5-MIN KSTC 010615Z AUTO 35011KT 10SM CLR M18/M23 A3033 650 68 -3300 350/11 RMK AO2 T11831228 $
14926KSTC STC20190101002011901/01/19 00:20:31  5-MIN KSTC 010620Z AUTO 35010G18KT 10SM CLR M18/M23 A3033 650 68 -3300 350/10G18 RMK AO2 T11831228 $
14926KSTC STC20190101002511901/01/19 00:25:31  5-MIN KSTC 010625Z AUTO 35012G18KT 10SM CLR M19/M23 A3033 650 68 -3400 350/12G18 RMK AO2 T11891233 $
14926KSTC STC20190101003011301/01/19 00:30:31  5-MIN KSTC 010630Z AUTO 35010KT 10SM CLR M19/M23 A3033 650 68 -3400 350/10 RMK AO2 T11891233 $
14926KSTC STC20190101003511301/01/19 00:35:31  5-MIN KSTC 010635Z AUTO 35012KT 10SM CLR M19/M23 A3034 640 68 -3400 350/12 RMK AO2 T11891233 $
14926KSTC STC20190101004011301/01/19 00:40:31  5-MIN KSTC 010640Z AUTO 35011KT 10SM CLR M19/M23 A3034 640 68 -3400 350/11 RMK AO2 T11891233 $
14926KSTC STC20190101004511301/01/19 00:45:31  5-MIN KSTC 010645Z AUTO 35010KT 10SM CLR M19/M23 A3034 640 68 -3400 350/10 RMK AO2 T11891233 $
14926KSTC STC20190101005012001/01/19 00:50:31  5-MIN KSTC 010650Z AUTO 35009KT 10SM CLR M19/M23 A3034 640 68 -3400 350/09 RMK AO2 SLP309 T11891233 $
14926KSTC STC20190101005511301/01/19 00:55:31  5-MIN KSTC 010655Z AUTO 35011KT 10SM CLR M19/M23 A3035 630 68 -3400 350/11 RMK AO2 T11891233 $
14926KSTC STC20190101010011301/01/19 01:00:31  5-MIN KSTC 010700Z AUTO 35009KT 10SM CLR M19/M23 A3035 630 68 -3400 350/09 RMK AO2 T11891233 $
14926KSTC STC20190101010511301/01/19 01:05:31  5-MIN KSTC 010705Z AUTO 35009KT 10SM CLR M19/M23 A3036 620 72 -3500 350/09 RMK AO2 T11941233 $
14926KSTC STC20190101011011301/01/19 01:10:31  5-MIN KSTC 010710Z AUTO 35009KT 10SM CLR M19/M23 A3036 620 72 -3500 350/09 RMK AO2 T11941233 $
14926KSTC STC20190101011511301/01/19 01:15:31  5-MIN KSTC 010715Z AUTO 35009KT 10SM CLR M19/M24 A3036 620 68 -3500 350/09 RMK AO2 T11941239 $
14926KSTC STC20190101012011301/01/19 01:20:31  5-MIN KSTC 010720Z AUTO 35009KT 10SM CLR M19/M24 A3036 620 68 -3500 350/09 RMK AO2 T11941239 $
14926KSTC STC20190101012511301/01/19 01:25:31  5-MIN KSTC 010725Z AUTO 35011KT 10SM CLR M19/M24 A3036 620 68 -3500 350/11 RMK AO2 T11941239 $
14926KSTC STC20190101013011301/01/19 01:30:31  5-MIN KSTC 010730Z AUTO 35010KT 10SM CLR M19/M24 A3036 620 68 -3500 350/10 RMK AO2 T11941239 $
14926KSTC STC20190101013511301/01/19 01:35:31  5-MIN KSTC 010735Z AUTO 35010KT 10SM CLR M19/M24 A3036 620 68 -3500 350/10 RMK AO2 T11941239 $
14926KSTC STC20190101014011301/01/19 01:40:31  5-MIN KSTC 010740Z AUTO 35012KT 10SM CLR M19/M24 A3037 620 68 -3500 350/12 RMK AO2 T11941239 $
14926KSTC STC20190101014511301/01/19 01:45:31  5-MIN KSTC 010745Z AUTO 35009KT 10SM CLR M19/M24 A3037 610 68 -3500 350/09 RMK AO2 T11941239 $
14926KSTC STC20190101015012601/01/19 01:50:31  5-MIN KSTC 010750Z AUTO 35010G18KT 10SM CLR M19/M24 A3037 610 68 -3500 350/10G18 RMK AO2 SLP319 T11941239 $
14926KSTC STC20190101015511301/01/19 01:55:31  5-MIN KSTC 010755Z AUTO 36011KT 10SM CLR M20/M24 A3038 610 71 -3600 350/11 RMK AO2 T12001239 $
14926KSTC STC20190101020011301/01/19 02:00:31  5-MIN KSTC 010800Z AUTO 35009KT 10SM CLR M20/M24 A3038 600 71 -3600 350/09 RMK AO2 T12001239 $
14926KSTC STC20190101020511301/01/19 02:05:31  5-MIN KSTC 010805Z AUTO 35009KT 10SM CLR M20/M24 A3038 600 71 -3600 350/09 RMK AO2 T12001239 $
14926KSTC STC20190101021011901/01/19 02:10:31  5-MIN KSTC 010810Z AUTO 35008G16KT 10SM CLR M20/M24 A3039 600 68 -3600 350/08G16 RMK AO2 T12001244 $
14926KSTC STC20190101021511901/01/19 02:15:31  5-MIN KSTC 010815Z AUTO 35011G17KT 10SM CLR M20/M24 A3039 600 68 -3600 350/11G17 RMK AO2 T12001244 $
14926KSTC STC20190101022011901/01/19 02:20:31  5-MIN KSTC 010820Z AUTO 35008G17KT 10SM CLR M20/M24 A3040 590 68 -3600 350/08G17 RMK AO2 T12001244 $
14926KSTC STC20190101022511301/01/19 02:25:31  5-MIN KSTC 010825Z AUTO 34007KT 10SM CLR M20/M24 A3040 580 68 -3700 340/07 RMK AO2 T12001244 $
14926KSTC STC20190101023011301/01/19 02:30:31  5-MIN KSTC 010830Z AUTO 34007KT 10SM CLR M20/M24 A3041 580 68 -3700 340/07 RMK AO2 T12001244 $
14926KSTC STC20190101023511301/01/19 02:35:31  5-MIN KSTC 010835Z AUTO 34007KT 10SM CLR M20/M24 A3041 580 68 -3700 340/07 RMK AO2 T12001244 $
14926KSTC STC20190101024011301/01/19 02:40:31  5-MIN KSTC 010840Z AUTO 35007KT 10SM CLR M21/M24 A3041 570 71 -3700 340/07 RMK AO2 T12061244 $
14926KSTC STC20190101024511301/01/19 02:45:31  5-MIN KSTC 010845Z AUTO 33007KT 10SM CLR M21/M24 A3042 570 71 -3800 330/07 RMK AO2 T12061244 $
14926KSTC STC20190101025012601/01/19 02:50:31  5-MIN KSTC 010850Z AUTO 33006KT 10SM CLR M21/M24 A3042 560 71 -3800 330/06 RMK AO2 SLP337 T12061244 51040 $
14926KSTC STC20190101025511301/01/19 02:55:31  5-MIN KSTC 010855Z AUTO 33007KT 10SM CLR M21/M24 A3042 570 71 -3800 330/07 RMK AO2 T12061244 $
14926KSTC STC20190101030011301/01/19 03:00:31  5-MIN KSTC 010900Z AUTO 33008KT 10SM CLR M21/M25 A3042 570 68 -3700 330/08 RMK AO2 T12061250 $
14926KSTC STC20190101030511301/01/19 03:05:31  5-MIN KSTC 010905Z AUTO 34009KT 10SM CLR M21/M25 A3041 570 71 -3800 340/09 RMK AO2 T12111250 $
14926KSTC STC20190101031011301/01/19 03:10:31  5-MIN KSTC 010910Z AUTO 34008KT 10SM CLR M21/M25 A3041 570 71 -3800 340/08 RMK AO2 T12111250 $
14926KSTC STC20190101031511301/01/19 03:15:31  5-MIN KSTC 010915Z AUTO 35009KT 10SM CLR M21/M25 A3041 570 71 -3800 350/09 RMK AO2 T12111250 $
14926KSTC STC20190101032011301/01/19 03:20:31  5-MIN KSTC 010920Z AUTO 35008KT 10SM CLR M21/M25 A3041 580 71 -3800 340/08 RMK AO2 T12111250 $
14926KSTC STC20190101032511301/01/19 03:25:31  5-MIN KSTC 010925Z AUTO 34009KT 10SM CLR M21/M25 A3041 570 71 -3800 340/09 RMK AO2 T12111250 $
14926KSTC STC20190101033011301/01/19 03:30:31  5-MIN KSTC 010930Z AUTO 34008KT 10SM CLR M22/M25 A3041 570 75 -3900 340/08 RMK AO2 T12171250 $
14926KSTC STC20190101033511301/01/19 03:35:31  5-MIN KSTC 010935Z AUTO 35009KT 10SM CLR M22/M25 A3041 580 75 -3900 350/09 RMK AO2 T12171250 $
14926KSTC STC20190101034011301/01/19 03:40:31  5-MIN KSTC 010940Z AUTO 34007KT 10SM CLR M22/M25 A3041 570 75 -3900 340/07 RMK AO2 T12171250 $
14926KSTC STC20190101034511301/01/19 03:45:31  5-MIN KSTC 010945Z AUTO 35007KT 10SM CLR M22/M26 A3041 580 71 -3900 340/07 RMK AO2 T12171256 $
14926KSTC STC20190101035012001/01/19 03:50:31  5-MIN KSTC 010950Z AUTO 34007KT 10SM CLR M22/M26 A3041 570 71 -3900 340/07 RMK AO2 SLP334 T12171256 $
14926KSTC STC20190101035511301/01/19 03:55:31  5-MIN KSTC 010955Z AUTO 34007KT 10SM CLR M22/M26 A3041 570 71 -3900 340/07 RMK AO2 T12171256 $
14926KSTC STC20190101040011301/01/19 04:00:31  5-MIN KSTC 011000Z AUTO 34008KT 10SM CLR M22/M26 A3041 580 71 -3900 340/08 RMK AO2 T12171256 $
14926KSTC STC20190101040511301/01/19 04:05:31  5-MIN KSTC 011005Z AUTO 34008KT 10SM CLR M22/M26 A3041 580 75 -4000 340/08 RMK AO2 T12221256 $
14926KSTC STC20190101041011301/01/19 04:10:31  5-MIN KSTC 011010Z AUTO 34009KT 10SM CLR M22/M26 A3040 580 75 -4000 340/09 RMK AO2 T12221256 $
14926KSTC STC20190101041511301/01/19 04:15:31  5-MIN KSTC 011015Z AUTO 34008KT 10SM CLR M22/M26 A3040 580 75 -4000 330/08 RMK AO2 T12221256 $
14926KSTC STC20190101042011301/01/19 04:20:31  5-MIN KSTC 011020Z AUTO 35007KT 10SM CLR M22/M26 A3040 580 75 -4000 340/07 RMK AO2 T12221256 $
14926KSTC STC20190101042511301/01/19 04:25:31  5-MIN KSTC 011025Z AUTO 34009KT 10SM CLR M22/M26 A3040 580 75 -4000 340/09 RMK AO2 T12221256 $
14926KSTC STC20190101043011301/01/19 04:30:31  5-MIN KSTC 011030Z AUTO 34007KT 10SM CLR M22/M26 A3041 580 75 -4000 340/07 RMK AO2 T12221256 $
14926KSTC STC20190101043511301/01/19 04:35:31  5-MIN KSTC 011035Z AUTO 34008KT 10SM CLR M22/M26 A3041 580 75 -4000 340/08 RMK AO2 T12221256 $
14926KSTC STC20190101044011301/01/19 04:40:31  5-MIN KSTC 011040Z AUTO 34007KT 10SM CLR M23/M26 A3041 580 78 -4000 340/07 RMK AO2 T12281256 $
14926KSTC STC20190101044511301/01/19 04:45:31  5-MIN KSTC 011045Z AUTO 34007KT 10SM CLR M23/M26 A3041 580 78 -4100 340/07 RMK AO2 T12281256 $
14926KSTC STC20190101045012001/01/19 04:50:31  5-MIN KSTC 011050Z AUTO 34007KT 10SM CLR M23/M26 A3040 580 78 -4000 340/07 RMK AO2 SLP332 T12281256 $
14926KSTC STC20190101045511301/01/19 04:55:31  5-MIN KSTC 011055Z AUTO 34007KT 10SM CLR M23/M26 A3040 590 78 -4000 340/07 RMK AO2 T12281256 $
14926KSTC STC20190101050011301/01/19 05:00:31  5-MIN KSTC 011100Z AUTO 34006KT 10SM CLR M23/M26 A3040 580 75 -4000 340/06 RMK AO2 T12281261 $
14926KSTC STC20190101050511301/01/19 05:05:31  5-MIN KSTC 011105Z AUTO 33007KT 10SM CLR M23/M26 A3041 580 75 -4000 330/07 RMK AO2 T12281261 $
14926KSTC STC20190101051011301/01/19 05:10:31  5-MIN KSTC 011110Z AUTO 33007KT 10SM CLR M23/M26 A3041 580 78 -4000 330/07 RMK AO2 T12281256 $
14926KSTC STC20190101051511301/01/19 05:15:31  5-MIN KSTC 011115Z AUTO 34006KT 10SM CLR M23/M26 A3040 580 75 -4000 340/06 RMK AO2 T12281261 $
14926KSTC STC20190101052011301/01/19 05:20:31  5-MIN KSTC 011120Z AUTO 34007KT 10SM CLR M23/M26 A3040 580 75 -4000 340/07 RMK AO2 T12281261 $
14926KSTC STC20190101052511301/01/19 05:25:31  5-MIN KSTC 011125Z AUTO 34007KT 10SM CLR M23/M26 A3040 580 75 -4000 340/07 RMK AO2 T12281261 $
14926KSTC STC20190101053011301/01/19 05:30:31  5-MIN KSTC 011130Z AUTO 34006KT 10SM CLR M23/M26 A3041 580 75 -4000 340/06 RMK AO2 T12281261 $
14926KSTC STC20190101053511301/01/19 05:35:31  5-MIN KSTC 011135Z AUTO 34006KT 10SM CLR M23/M26 A3041 580 75 -4000 340/06 RMK AO2 T12281261 $
14926KSTC STC20190101054011301/01/19 05:40:31  5-MIN KSTC 011140Z AUTO 35006KT 10SM CLR M23/M26 A3040 590 75 -4000 350/06 RMK AO2 T12281261 $
14926KSTC STC20190101054511301/01/19 05:45:31  5-MIN KSTC 011145Z AUTO 34007KT 10SM CLR M23/M26 A3040 580 78 -4100 340/07 RMK AO2 T12331261 $
14926KSTC STC20190101055013801/01/19 05:50:31  5-MIN KSTC 011150Z AUTO 35007KT 10SM CLR M23/M26 A3040 580 75 -4000 350/07 RMK AO2 SLP333 T12281261 11183 21233 53033 $
14926KSTC STC20190101055511301/01/19 05:55:31  5-MIN KSTC 011155Z AUTO 34007KT 10SM CLR M23/M26 A3041 580 78 -4100 340/07 RMK AO2 T12331261 $
14926KSTC STC20190101060011301/01/19 06:00:31  5-MIN KSTC 011200Z AUTO 34009KT 10SM CLR M23/M26 A3042 570 78 -4100 340/09 RMK AO2 T12331261 $
14926KSTC STC20190101060512001/01/19 06:05:31  5-MIN KSTC 011205Z AUTO 34006KT 10SM CLR M23/M26 A3042 560 78 -4100 340/06 RMK AO2 PRESRR T12331261 $
14926KSTC STC20190101061011301/01/19 06:10:31  5-MIN KSTC 011210Z AUTO 34007KT 10SM CLR M23/M26 A3042 560 78 -4100 340/07 RMK AO2 T12331261 $
14926KSTC STC20190101061511301/01/19 06:15:31  5-MIN KSTC 011215Z AUTO 33007KT 10SM CLR M23/M26 A3043 560 78 -4200 330/07 RMK AO2 T12331261 $
14926KSTC STC20190101062011301/01/19 06:20:31  5-MIN KSTC 011220Z AUTO 34007KT 10SM CLR M23/M26 A3043 560 78 -4200 340/07 RMK AO2 T12331261 $
14926KSTC STC20190101062511301/01/19 06:25:31  5-MIN KSTC 011225Z AUTO 34008KT 10SM CLR M23/M27 A3043 560 74 -4200 340/08 RMK AO2 T12331267 $
14926KSTC STC20190101063010801/01/19 06:30:31  5-MIN KSTC 011230Z 34007KT 10SM CLR M23/M27 A3043 550 74 -4200 340/07 RMK AO2 T12331267 $
14926KSTC STC20190101063510801/01/19 06:35:31  5-MIN KSTC 011235Z 33006KT 10SM CLR M23/M26 A3044 550 78 -4200 330/06 RMK AO2 T12331261 $
14926KSTC STC20190101064010801/01/19 06:40:31  5-MIN KSTC 011240Z 33004KT 10SM CLR M23/M26 A3044 550 78 -4200 330/04 RMK AO2 T12331261 $
14926KSTC STC20190101064510801/01/19 06:45:31  5-MIN KSTC 011245Z 32005KT 10SM CLR M23/M26 A3045 540 78 -4200 320/05 RMK AO2 T12331261 $
14926KSTC STC20190101065011501/01/19 06:50:31  5-MIN KSTC 011250Z 32005KT 10SM CLR M24/M27 A3045 540 78 -4300 310/05 RMK AO2 SLP349 T12391267 $
14926KSTC STC20190101065510801/01/19 06:55:31  5-MIN KSTC 011255Z 32006KT 10SM CLR M24/M27 A3045 540 78 -4300 320/06 RMK AO2 T12391267 $
14926KSTC STC20190101070010801/01/19 07:00:31  5-MIN KSTC 011300Z 33006KT 10SM CLR M24/M27 A3045 540 78 -4300 330/06 RMK AO2 T12391267 $
14926KSTC STC20190101070510801/01/19 07:05:31  5-MIN KSTC 011305Z 34006KT 10SM CLR M24/M27 A3045 540 78 -4300 340/06 RMK AO2 T12391267 $
14926KSTC STC20190101071010801/01/19 07:10:31  5-MIN KSTC 011310Z 32004KT 10SM CLR M24/M27 A3046 530 78 -4300 320/04 RMK AO2 T12391267 $
14926KSTC STC20190101071510801/01/19 07:15:31  5-MIN KSTC 011315Z 32005KT 10SM CLR M24/M27 A3046 530 78 -4300 320/05 RMK AO2 T12391267 $
14926KSTC STC20190101072010801/01/19 07:20:31  5-MIN KSTC 011320Z 32004KT 10SM CLR M24/M27 A3046 530 78 -4300 320/04 RMK AO2 T12391267 $
14926KSTC STC20190101072510801/01/19 07:25:31  5-MIN KSTC 011325Z 32005KT 10SM CLR M24/M27 A3046 530 78 -4300 320/05 RMK AO2 T12391267 $
14926KSTC STC20190101073010801/01/19 07:30:31  5-MIN KSTC 011330Z 33005KT 10SM CLR M24/M27 A3047 530 78 -4300 330/05 RMK AO2 T12391267 $
14926KSTC STC20190101073510801/01/19 07:35:31  5-MIN KSTC 011335Z 32005KT 10SM CLR M24/M27 A3047 520 78 -4300 320/05 RMK AO2 T12391267 $
14926KSTC STC20190101074010801/01/19 07:40:31  5-MIN KSTC 011340Z 33007KT 10SM CLR M24/M27 A3047 520 78 -4300 330/07 RMK AO2 T12391267 $
14926KSTC STC20190101074510801/01/19 07:45:31  5-MIN KSTC 011345Z 32006KT 10SM CLR M24/M27 A3048 510 78 -4300 320/06 RMK AO2 T12391267 $
14926KSTC STC20190101075011501/01/19 07:50:31  5-MIN KSTC 011350Z 33006KT 10SM CLR M24/M27 A3048 520 78 -4300 330/06 RMK AO2 SLP359 T12391267 $
14926KSTC STC20190101075510801/01/19 07:55:31  5-MIN KSTC 011355Z 33006KT 10SM CLR M24/M27 A3048 520 78 -4300 330/06 RMK AO2 T12391267 $
14926KSTC STC20190101080010801/01/19 08:00:31  5-MIN KSTC 011400Z 33006KT 10SM CLR M24/M27 A3048 510 78 -4300 330/06 RMK AO2 T12391267 $
14926KSTC STC20190101080510801/01/19 08:05:31  5-MIN KSTC 011405Z 33006KT 10SM CLR M24/M27 A3048 520 78 -4300 330/06 RMK AO2 T12391267 $
14926KSTC STC20190101081010801/01/19 08:10:31  5-MIN KSTC 011410Z 33005KT 10SM CLR M24/M27 A3048 510 78 -4300 330/05 RMK AO2 T12391267 $
14926KSTC STC20190101081510801/01/19 08:15:31  5-MIN KSTC 011415Z 33004KT 10SM CLR M24/M27 A3048 510 78 -4300 330/04 RMK AO2 T12391267 $
14926KSTC STC20190101082010801/01/19 08:20:31  5-MIN KSTC 011420Z 32005KT 10SM CLR M24/M27 A3048 510 78 -4300 320/05 RMK AO2 T12391267 $
14926KSTC STC20190101082510801/01/19 08:25:31  5-MIN KSTC 011425Z 33005KT 10SM CLR M24/M27 A3049 500 78 -4300 330/05 RMK AO2 T12391267 $
14926KSTC STC20190101083010801/01/19 08:30:31  5-MIN KSTC 011430Z 32006KT 10SM CLR M24/M27 A3049 510 78 -4300 320/06 RMK AO2 T12391267 $
14926KSTC STC20190101083510801/01/19 08:35:31  5-MIN KSTC 011435Z 33006KT 10SM CLR M24/M27 A3049 500 78 -4300 320/06 RMK AO2 T12391267 $
14926KSTC STC20190101084010801/01/19 08:40:31  5-MIN KSTC 011440Z 32006KT 10SM CLR M24/M27 A3049 500 78 -4300 320/06 RMK AO2 T12391267 $
14926KSTC STC20190101084510801/01/19 08:45:31  5-MIN KSTC 011445Z 32004KT 10SM CLR M24/M27 A3049 500 78 -4300 320/04 RMK AO2 T12391267 $
14926KSTC STC20190101085012101/01/19 08:50:31  5-MIN KSTC 011450Z 32005KT 10SM CLR M23/M27 A3049 500 74 -4200 320/05 RMK AO2 SLP366 T12331267 55005 $
14926KSTC STC20190101085510801/01/19 08:55:31  5-MIN KSTC 011455Z 32005KT 10SM CLR M23/M27 A3049 500 74 -4200 320/05 RMK AO2 T12331267 $
14926KSTC STC20190101090010801/01/19 09:00:31  5-MIN KSTC 011500Z 32007KT 10SM CLR M23/M27 A3049 500 74 -4200 320/07 RMK AO2 T12331267 $
14926KSTC STC20190101090510801/01/19 09:05:31  5-MIN KSTC 011505Z 32006KT 10SM CLR M23/M27 A3050 500 74 -4200 320/06 RMK AO2 T12331267 $
14926KSTC STC20190101091010801/01/19 09:10:31  5-MIN KSTC 011510Z 33004KT 10SM CLR M23/M27 A3049 500 74 -4200 330/04 RMK AO2 T12331267 $
14926KSTC STC20190101091510801/01/19 09:15:31  5-MIN KSTC 011515Z 35006KT 10SM CLR M23/M27 A3049 510 74 -4200 340/06 RMK AO2 T12331267 $
14926KSTC STC20190101092010801/01/19 09:20:31  5-MIN KSTC 011520Z 34006KT 10SM CLR M23/M27 A3049 500 74 -4200 340/06 RMK AO2 T12331267 $
14926KSTC STC20190101092510801/01/19 09:25:31  5-MIN KSTC 011525Z 34006KT 10SM CLR M23/M27 A3049 500 74 -4200 340/06 RMK AO2 T12331267 $
14926KSTC STC20190101093010801/01/19 09:30:31  5-MIN KSTC 011530Z 34008KT 10SM CLR M23/M27 A3049 510 74 -4200 340/08 RMK AO2 T12331267 $
14926KSTC STC20190101093510801/01/19 09:35:31  5-MIN KSTC 011535Z 33006KT 10SM CLR M23/M27 A3049 500 71 -4200 330/06 RMK AO2 T12331272 $
14926KSTC STC20190101094010801/01/19 09:40:31  5-MIN KSTC 011540Z 34006KT 10SM CLR M23/M27 A3049 510 71 -4100 340/06 RMK AO2 T12281267 $
14926KSTC STC20190101094510801/01/19 09:45:31  5-MIN KSTC 011545Z 34007KT 10SM CLR M23/M27 A3049 510 71 -4100 340/07 RMK AO2 T12281267 $
14926KSTC STC20190101095011501/01/19 09:50:31  5-MIN KSTC 011550Z 34006KT 10SM CLR M23/M27 A3048 510 71 -4100 340/06 RMK AO2 SLP362 T12281267 $
14926KSTC STC20190101095510801/01/19 09:55:31  5-MIN KSTC 011555Z 34006KT 10SM CLR M23/M27 A3048 520 71 -4100 340/06 RMK AO2 T12281267 $
14926KSTC STC20190101100010801/01/19 10:00:31  5-MIN KSTC 011600Z 35007KT 10SM CLR M23/M27 A3047 520 71 -4100 350/07 RMK AO2 T12281267 $
14926KSTC STC20190101100510801/01/19 10:05:31  5-MIN KSTC 011605Z 35006KT 10SM CLR M23/M27 A3047 520 71 -4100 350/06 RMK AO2 T12281267 $
14926KSTC STC20190101101010801/01/19 10:10:31  5-MIN KSTC 011610Z 35007KT 10SM CLR M23/M27 A3047 520 71 -4100 350/07 RMK AO2 T12281267 $
14926KSTC STC20190101101510801/01/19 10:15:31  5-MIN KSTC 011615Z 35006KT 10SM CLR M23/M27 A3047 520 71 -4100 340/06 RMK AO2 T12281267 $
14926KSTC STC20190101102010801/01/19 10:20:31  5-MIN KSTC 011620Z 35006KT 10SM CLR M23/M27 A3047 520 71 -4100 350/06 RMK AO2 T12281267 $
14926KSTC STC20190101102510801/01/19 10:25:31  5-MIN KSTC 011625Z 35006KT 10SM CLR M22/M27 A3047 520 68 -4000 350/06 RMK AO2 T12221267 $
14926KSTC STC20190101103010801/01/19 10:30:31  5-MIN KSTC 011630Z 35007KT 10SM CLR M22/M27 A3047 520 68 -4000 350/07 RMK AO2 T12221267 $
14926KSTC STC20190101103510801/01/19 10:35:31  5-MIN KSTC 011635Z 35007KT 10SM CLR M22/M27 A3047 520 68 -4000 350/07 RMK AO2 T12221267 $
14926KSTC STC20190101104010801/01/19 10:40:31  5-MIN KSTC 011640Z 35008KT 10SM CLR M22/M26 A3046 530 68 -4000 350/08 RMK AO2 T12171261 $
14926KSTC STC20190101104510801/01/19 10:45:31  5-MIN KSTC 011645Z 35006KT 10SM CLR M22/M26 A3046 530 68 -4000 350/06 RMK AO2 T12171261 $
14926KSTC STC20190101105011501/01/19 10:50:31  5-MIN KSTC 011650Z 35004KT 10SM CLR M21/M26 A3045 540 65 -3900 350/04 RMK AO2 SLP353 T12111261 $
14926KSTC STC20190101105510801/01/19 10:55:31  5-MIN KSTC 011655Z 36003KT 10SM CLR M21/M26 A3045 540 65 -3900 350/03 RMK AO2 T12111261 $
14926KSTC STC20190101110010801/01/19 11:00:31  5-MIN KSTC 011700Z 34005KT 10SM CLR M21/M26 A3045 540 65 -3800 340/05 RMK AO2 T12061256 $
14926KSTC STC20190101110510801/01/19 11:05:31  5-MIN KSTC 011705Z 34004KT 10SM CLR M21/M26 A3045 540 62 -3800 340/04 RMK AO2 T12061261 $
14926KSTC STC20190101111010801/01/19 11:10:31  5-MIN KSTC 011710Z 35005KT 10SM CLR M21/M26 A3044 550 65 -3800 350/05 RMK AO2 T12061256 $
14926KSTC STC20190101111510801/01/19 11:15:31  5-MIN KSTC 011715Z 34005KT 10SM CLR M21/M26 A3044 550 65 -3800 340/05 RMK AO2 T12061256 $
14926KSTC STC20190101112010801/01/19 11:20:31  5-MIN KSTC 011720Z 36005KT 10SM CLR M20/M26 A3044 550 62 -3700 360/05 RMK AO2 T12001256 $
14926KSTC STC20190101112510801/01/19 11:25:31  5-MIN KSTC 011725Z 32004KT 10SM CLR M20/M26 A3044 550 62 -3700 320/04 RMK AO2 T12001256 $
14926KSTC STC20190101113010801/01/19 11:30:31  5-MIN KSTC 011730Z 35004KT 10SM CLR M20/M26 A3044 550 62 -3700 350/04 RMK AO2 T12001256 $
14926KSTC STC20190101113510801/01/19 11:35:31  5-MIN KSTC 011735Z 30004KT 10SM CLR M20/M26 A3044 550 62 -3700 300/04 RMK AO2 T12001256 $
14926KSTC STC20190101114010801/01/19 11:40:31  5-MIN KSTC 011740Z 30005KT 10SM CLR M20/M25 A3044 550 65 -3700 300/05 RMK AO2 T12001250 $
14926KSTC STC20190101114510801/01/19 11:45:31  5-MIN KSTC 011745Z 29004KT 10SM CLR M20/M25 A3044 550 65 -3700 290/04 RMK AO2 T12001250 $
14926KSTC STC20190101115013301/01/19 11:50:31  5-MIN KSTC 011750Z 29003KT 10SM CLR M19/M25 A3043 560 62 -3600 290/03 RMK AO2 SLP345 T11941250 11194 21239 51028 $
14926KSTC STC20190101115510801/01/19 11:55:31  5-MIN KSTC 011755Z 29003KT 10SM CLR M19/M24 A3043 560 62 -3500 290/03 RMK AO2 T11891244 $
14926KSTC STC20190101120010801/01/19 12:00:31  5-MIN KSTC 011800Z 00000KT 10SM CLR M19/M24 A3043 560 62 -3500 000/00 RMK AO2 T11891244 $
14926KSTC STC20190101120510801/01/19 12:05:31  5-MIN KSTC 011805Z 00000KT 10SM CLR M18/M24 A3043 560 59 -3500 000/00 RMK AO2 T11831244 $
14926KSTC STC20190101121010801/01/19 12:10:31  5-MIN KSTC 011810Z 00000KT 10SM CLR M18/M24 A3042 570 59 -3400 000/00 RMK AO2 T11831244 $
14926KSTC STC20190101121510801/01/19 12:15:31  5-MIN KSTC 011815Z 00000KT 10SM CLR M18/M24 A3042 570 59 -3400 000/00 RMK AO2 T11831244 $
14926KSTC STC20190101122010801/01/19 12:20:31  5-MIN KSTC 011820Z 00000KT 10SM CLR M18/M24 A3041 570 59 -3400 000/00 RMK AO2 T11831244 $
14926KSTC STC20190101122510801/01/19 12:25:31  5-MIN KSTC 011825Z 33003KT 10SM CLR M18/M24 A3041 580 56 -3400 330/03 RMK AO2 T11781244 $
14926KSTC STC20190101123010801/01/19 12:30:31  5-MIN KSTC 011830Z 31005KT 10SM CLR M18/M24 A3041 580 59 -3400 310/05 RMK AO2 T11831244 $
14926KSTC STC20190101123510801/01/19 12:35:31  5-MIN KSTC 011835Z 31005KT 10SM CLR M18/M24 A3041 580 62 -3400 310/05 RMK AO2 T11831239 $
14926KSTC STC20190101124010801/01/19 12:40:31  5-MIN KSTC 011840Z 33004KT 10SM CLR M18/M24 A3040 580 59 -3400 330/04 RMK AO2 T11831244 $
14926KSTC STC20190101124510801/01/19 12:45:31  5-MIN KSTC 011845Z 32004KT 10SM CLR M18/M24 A3040 580 59 -3400 320/04 RMK AO2 T11831244 $
14926KSTC STC20190101125011501/01/19 12:50:31  5-MIN KSTC 011850Z 33003KT 10SM CLR M18/M24 A3040 590 59 -3400 330/03 RMK AO2 SLP333 T11831244 $
14926KSTC STC20190101125510801/01/19 12:55:31  5-MIN KSTC 011855Z 31005KT 10SM CLR M18/M24 A3040 590 59 -3400 310/05 RMK AO2 T11831244 $
14926KSTC STC20190101130010801/01/19 13:00:31  5-MIN KSTC 011900Z 32003KT 10SM CLR M18/M24 A3040 590 59 -3400 320/03 RMK AO2 T11831244 $
14926KSTC STC20190101130510801/01/19 13:05:31  5-MIN KSTC 011905Z 31003KT 10SM CLR M18/M24 A3040 590 62 -3400 310/03 RMK AO2 T11831239 $
14926KSTC STC20190101131010801/01/19 13:10:31  5-MIN KSTC 011910Z 29003KT 10SM CLR M18/M24 A3039 590 59 -3300 290/03 RMK AO2 T11781239 $
14926KSTC STC20190101131510801/01/19 13:15:31  5-MIN KSTC 011915Z 27003KT 10SM CLR M18/M24 A3039 590 59 -3300 270/03 RMK AO2 T11781239 $
14926KSTC STC20190101132010801/01/19 13:20:31  5-MIN KSTC 011920Z 27003KT 10SM CLR M17/M24 A3039 590 57 -3300 270/03 RMK AO2 T11721239 $
14926KSTC STC20190101132510801/01/19 13:25:31  5-MIN KSTC 011925Z 00000KT 10SM CLR M17/M24 A3039 590 57 -3300 000/00 RMK AO2 T11721239 $
14926KSTC STC20190101133010801/01/19 13:30:31  5-MIN KSTC 011930Z 00000KT 10SM CLR M17/M24 A3039 590 54 -3200 000/00 RMK AO2 T11671239 $
14926KSTC STC20190101133510801/01/19 13:35:31  5-MIN KSTC 011935Z 00000KT 10SM CLR M17/M23 A3039 590 57 -3200 000/00 RMK AO2 T11671233 $
14926KSTC STC20190101134010801/01/19 13:40:31  5-MIN KSTC 011940Z 00000KT 10SM CLR M17/M23 A3039 600 57 -3200 000/00 RMK AO2 T11671233 $
14926KSTC STC20190101134510801/01/19 13:45:31  5-MIN KSTC 011945Z 00000KT 10SM CLR M16/M23 A3039 600 54 -3100 000/00 RMK AO2 T11611233 $
14926KSTC STC20190101135011501/01/19 13:50:31  5-MIN KSTC 011950Z 00000KT 10SM CLR M16/M23 A3038 600 54 -3100 000/00 RMK AO2 SLP326 T11611233 $
14926KSTC STC20190101135510801/01/19 13:55:31  5-MIN KSTC 011955Z 01003KT 10SM CLR M16/M24 A3038 610 49 -3000 010/03 RMK AO2 T11561239 $
14926KSTC STC20190101140010801/01/19 14:00:31  5-MIN KSTC 012000Z 00000KT 10SM CLR M16/M24 A3038 610 52 -3100 000/00 RMK AO2 T11611239 $
14926KSTC STC20190101140510801/01/19 14:05:31  5-MIN KSTC 012005Z 36003KT 10SM CLR M16/M24 A3037 610 52 -3100 360/03 RMK AO2 T11611239 $
14926KSTC STC20190101141010801/01/19 14:10:31  5-MIN KSTC 012010Z 00000KT 10SM CLR M16/M24 A3037 610 52 -3100 000/00 RMK AO2 T11611239 $
14926KSTC STC20190101141510801/01/19 14:15:31  5-MIN KSTC 012015Z 02003KT 10SM CLR M16/M24 A3037 610 49 -3000 020/03 RMK AO2 T11561239 $
14926KSTC STC20190101142010801/01/19 14:20:31  5-MIN KSTC 012020Z 00000KT 10SM CLR M16/M24 A3037 610 49 -3000 000/00 RMK AO2 T11561239 $
14926KSTC STC20190101142510801/01/19 14:25:31  5-MIN KSTC 012025Z 00000KT 10SM CLR M16/M24 A3037 610 49 -3000 000/00 RMK AO2 T11561239 $
14926KSTC STC20190101143010801/01/19 14:30:31  5-MIN KSTC 012030Z 00000KT 10SM CLR M16/M23 A3037 620 52 -3000 000/00 RMK AO2 T11561233 $
14926KSTC STC20190101143510801/01/19 14:35:31  5-MIN KSTC 012035Z 00000KT 10SM CLR M16/M23 A3037 620 52 -3000 000/00 RMK AO2 T11561233 $
14926KSTC STC20190101144010801/01/19 14:40:31  5-MIN KSTC 012040Z 32003KT 10SM CLR M16/M23 A3036 620 52 -3000 320/03 RMK AO2 T11561233 $
14926KSTC STC20190101144510801/01/19 14:45:31  5-MIN KSTC 012045Z 00000KT 10SM CLR M16/M24 A3036 620 49 -3000 000/00 RMK AO2 T11561239 $
14926KSTC STC20190101145012101/01/19 14:50:31  5-MIN KSTC 012050Z 32003KT 10SM CLR M16/M24 A3036 620 49 -3000 320/03 RMK AO2 SLP320 T11561239 58020 $
14926KSTC STC20190101145510801/01/19 14:55:31  5-MIN KSTC 012055Z 35003KT 10SM CLR M16/M24 A3036 620 49 -3000 350/03 RMK AO2 T11561239 $
14926KSTC STC20190101150010801/01/19 15:00:31  5-MIN KSTC 012100Z 00000KT 10SM CLR M16/M24 A3036 620 49 -3000 000/00 RMK AO2 T11561239 $
14926KSTC STC20190101150510801/01/19 15:05:31  5-MIN KSTC 012105Z 00000KT 10SM CLR M15/M24 A3036 620 47 -2900 000/00 RMK AO2 T11501239 $
14926KSTC STC20190101151010801/01/19 15:10:31  5-MIN KSTC 012110Z 00000KT 10SM CLR M15/M23 A3036 620 49 -2900 000/00 RMK AO2 T11501233 $
14926KSTC STC20190101151510801/01/19 15:15:31  5-MIN KSTC 012115Z 00000KT 10SM CLR M16/M24 A3036 620 49 -3000 000/00 RMK AO2 T11561239 $
14926KSTC STC20190101152010801/01/19 15:20:31  5-MIN KSTC 012120Z 00000KT 10SM CLR M16/M23 A3036 620 52 -3000 000/00 RMK AO2 T11561233 $
14926KSTC STC20190101152510801/01/19 15:25:31  5-MIN KSTC 012125Z 00000KT 10SM CLR M16/M24 A3036 620 52 -3100 000/00 RMK AO2 T11611239 $
14926KSTC STC20190101153011301/01/19 15:30:31  5-MIN KSTC 012130Z AUTO 00000KT 10SM CLR M17/M24 A3036 620 54 -3100 000/00 RMK AO2 T11671239 $
14926KSTC STC20190101153510801/01/19 15:35:31  5-MIN KSTC 012135Z 00000KT 10SM CLR M17/M24 A3036 620 54 -3100 000/00 RMK AO2 T11671239 $
14926KSTC STC20190101154010801/01/19 15:40:31  5-MIN KSTC 012140Z 00000KT 10SM CLR M16/M24 A3036 620 52 -3100 000/00 RMK AO2 T11611239 $
14926KSTC STC20190101154510801/01/19 15:45:31  5-MIN KSTC 012145Z 00000KT 10SM CLR M16/M23 A3036 620 54 -3100 000/00 RMK AO2 T11611233 $
14926KSTC STC20190101155011501/01/19 15:50:31  5-MIN KSTC 012150Z 00000KT 10SM CLR M16/M23 A3036 620 54 -3100 000/00 RMK AO2 SLP321 T11611233 $
14926KSTC STC20190101155510801/01/19 15:55:31  5-MIN KSTC 012155Z 00000KT 10SM CLR M16/M23 A3036 620 52 -3000 000/00 RMK AO2 T11561233 $
14926KSTC STC20190101160010801/01/19 16:00:31  5-MIN KSTC 012200Z 00000KT 10SM CLR M16/M23 A3036 620 52 -3000 000/00 RMK AO2 T11561233 $
14926KSTC STC20190101160510801/01/19 16:05:31  5-MIN KSTC 012205Z 00000KT 10SM CLR M16/M23 A3035 630 52 -3000 000/00 RMK AO2 T11561233 $
14926KSTC STC20190101161010801/01/19 16:10:31  5-MIN KSTC 012210Z 00000KT 10SM CLR M16/M23 A3035 630 52 -3000 000/00 RMK AO2 T11561233 $
14926KSTC STC20190101161510801/01/19 16:15:31  5-MIN KSTC 012215Z 00000KT 10SM CLR M16/M23 A3035 630 54 -3100 000/00 RMK AO2 T11611233 $
14926KSTC STC20190101162010801/01/19 16:20:31  5-MIN KSTC 012220Z 00000KT 10SM CLR M16/M23 A3035 630 52 -3000 000/00 RMK AO2 T11561233 $
14926KSTC STC20190101162510801/01/19 16:25:31  5-MIN KSTC 012225Z 00000KT 10SM CLR M16/M23 A3034 640 52 -3000 000/00 RMK AO2 T11561233 $
14926KSTC STC20190101163010801/01/19 16:30:31  5-MIN KSTC 012230Z 00000KT 10SM CLR M16/M22 A3034 640 60 -3100 000/00 RMK AO2 T11611222 $
14926KSTC STC20190101163510801/01/19 16:35:31  5-MIN KSTC 012235Z 00000KT 10SM CLR M16/M24 A3034 640 52 -3100 000/00 RMK AO2 T11611239 $
14926KSTC STC20190101164010801/01/19 16:40:31  5-MIN KSTC 012240Z 00000KT 10SM CLR M17/M24 A3034 640 54 -3100 000/00 RMK AO2 T11671239 $
14926KSTC STC20190101164510801/01/19 16:45:31  5-MIN KSTC 012245Z 00000KT 10SM CLR M17/M23 A3034 640 57 -3100 000/00 RMK AO2 T11671233 $
14926KSTC STC20190101165011501/01/19 16:50:31  5-MIN KSTC 012250Z 00000KT 10SM CLR M17/M23 A3034 640 60 -3100 000/00 RMK AO2 SLP313 T11671228 $
14926KSTC STC20190101165510801/01/19 16:55:31  5-MIN KSTC 012255Z 00000KT 10SM CLR M17/M23 A3034 640 60 -3100 000/00 RMK AO2 T11671228 $
14926KSTC STC20190101170010801/01/19 17:00:31  5-MIN KSTC 012300Z 00000KT 10SM CLR M17/M22 A3034 640 65 -3200 000/00 RMK AO2 T11721222 $
14926KSTC STC20190101170510801/01/19 17:05:31  5-MIN KSTC 012305Z 00000KT 10SM CLR M18/M23 A3034 640 65 -3300 000/00 RMK AO2 T11781228 $
14926KSTC STC20190101171010801/01/19 17:10:31  5-MIN KSTC 012310Z 00000KT 10SM CLR M18/M23 A3034 640 65 -3300 000/00 RMK AO2 T11781228 $
14926KSTC STC20190101171510801/01/19 17:15:31  5-MIN KSTC 012315Z 00000KT 10SM CLR M18/M23 A3034 640 68 -3300 000/00 RMK AO2 T11831228 $
14926KSTC STC20190101172010801/01/19 17:20:31  5-MIN KSTC 012320Z 00000KT 10SM CLR M18/M23 A3033 650 65 -3300 000/00 RMK AO2 T11831233 $
14926KSTC STC20190101172510801/01/19 17:25:31  5-MIN KSTC 012325Z 00000KT 10SM CLR M18/M23 A3033 650 65 -3300 000/00 RMK AO2 T11831233 $
14926KSTC STC20190101173010801/01/19 17:30:31  5-MIN KSTC 012330Z 00000KT 10SM CLR M18/M23 A3033 650 65 -3300 000/00 RMK AO2 T11831233 $
14926KSTC STC20190101173510801/01/19 17:35:31  5-MIN KSTC 012335Z 00000KT 10SM CLR M19/M23 A3033 650 68 -3400 000/00 RMK AO2 T11891233 $
14926KSTC STC20190101174010801/01/19 17:40:31  5-MIN KSTC 012340Z 00000KT 10SM CLR M19/M23 A3033 650 68 -3400 000/00 RMK AO2 T11891233 $
14926KSTC STC20190101174510801/01/19 17:45:31  5-MIN KSTC 012345Z 00000KT 10SM CLR M19/M23 A3033 650 72 -3500 000/00 RMK AO2 T11941233 $
14926KSTC STC20190101175013301/01/19 17:50:31  5-MIN KSTC 012350Z 00000KT 10SM CLR M19/M23 A3033 650 68 -3400 000/00 RMK AO2 SLP313 T11891233 11150 21194 56024 $
14926KSTC STC20190101175510801/01/19 17:55:31  5-MIN KSTC 012355Z 00000KT 10SM CLR M19/M23 A3033 650 72 -3500 000/00 RMK AO2 T11941233 $
14926KSTC STC20190101180010801/01/19 18:00:31  5-MIN KSTC 020000Z 00000KT 10SM CLR M19/M23 A3033 650 68 -3400 000/00 RMK AO2 T11891233 $
14926KSTC STC20190101180510801/01/19 18:05:31  5-MIN KSTC 020005Z 00000KT 10SM CLR M19/M23 A3033 650 72 -3500 000/00 RMK AO2 T11941233 $
14926KSTC STC20190101181010801/01/19 18:10:31  5-MIN KSTC 020010Z 00000KT 10SM CLR M20/M23 A3033 650 75 -3600 000/00 RMK AO2 T12001233 $
14926KSTC STC20190101181509801/01/19 18:15:31  5-MIN KSTC 020015Z 10SM CLR M20/M23 A3032 660 79 -3600 M /M RMK AO2 T12001228 $
14926KSTC STC20190101182010801/01/19 18:20:31  5-MIN KSTC 020020Z 00000KT 10SM CLR M20/M23 A3032 660 75 -3600 000/00 RMK AO2 T12001233 $
14926KSTC STC20190101182510801/01/19 18:25:31  5-MIN KSTC 020025Z 00000KT 10SM CLR M20/M23 A3032 660 75 -3600 000/00 RMK AO2 T12001233 $
14926KSTC STC20190101183009801/01/19 18:30:31  5-MIN KSTC 020030Z 10SM CLR M21/M23 A3032 660 79 -3600 M /M RMK AO2 T12061233 $
14926KSTC STC20190101183510801/01/19 18:35:31  5-MIN KSTC 020035Z 00000KT 10SM CLR M21/M23 A3032 660 79 -3600 000/00 RMK AO2 T12061233 $
14926KSTC STC20190101184010801/01/19 18:40:31  5-MIN KSTC 020040Z 00000KT 10SM CLR M21/M24 A3032 660 79 -3700 000/00 RMK AO2 T12111239 $
14926KSTC STC20190101184510801/01/19 18:45:31  5-MIN KSTC 020045Z 00000KT 10SM CLR M22/M24 A3031 660 79 -3800 000/00 RMK AO2 T12171244 $
14926KSTC STC20190101185011501/01/19 18:50:31  5-MIN KSTC 020050Z 00000KT 10SM CLR M21/M24 A3031 670 75 -3600 000/00 RMK AO2 SLP307 T12061239 $
14926KSTC STC20190101185510801/01/19 18:55:31  5-MIN KSTC 020055Z 00000KT 10SM CLR M21/M23 A3031 670 79 -3600 000/00 RMK AO2 T12061233 $
14926KSTC STC20190101190009801/01/19 19:00:31  5-MIN KSTC 020100Z 10SM CLR M21/M23 A3031 670 83 -3700 M /M RMK AO2 T12111233 $
14926KSTC STC20190101190509801/01/19 19:05:31  5-MIN KSTC 020105Z 10SM CLR M21/M23 A3031 670 83 -3700 M /M RMK AO2 T12111233 $
14926KSTC STC20190101191009801/01/19 19:10:31  5-MIN KSTC 020110Z 10SM CLR M21/M23 A3031 670 83 -3700 M /M RMK AO2 T12111233 $
14926KSTC STC20190101191509801/01/19 19:15:31  5-MIN KSTC 020115Z 10SM CLR M21/M24 A3031 670 79 -3700 M /M RMK AO2 T12111239 $
14926KSTC STC20190101192009801/01/19 19:20:31  5-MIN KSTC 020120Z 10SM CLR M21/M24 A3031 670 79 -3700 M /M RMK AO2 T12111239 $
14926KSTC STC20190101192509801/01/19 19:25:31  5-MIN KSTC 020125Z 10SM CLR M22/M24 A3031 670 82 -3900 M /M RMK AO2 T12221244 $
14926KSTC STC20190101193009801/01/19 19:30:31  5-MIN KSTC 020130Z 10SM CLR M22/M24 A3031 670 79 -3800 M /M RMK AO2 T12171244 $
14926KSTC STC20190101193509801/01/19 19:35:31  5-MIN KSTC 020135Z 10SM CLR M22/M24 A3031 670 82 -3800 M /M RMK AO2 T12171239 $
14926KSTC STC20190101194009801/01/19 19:40:31  5-MIN KSTC 020140Z 10SM CLR M22/M25 A3030 670 78 -3900 M /M RMK AO2 T12221250 $
14926KSTC STC20190101194509801/01/19 19:45:31  5-MIN KSTC 020145Z 10SM CLR M22/M24 A3030 680 82 -3800 M /M RMK AO2 T12221244 $
14926KSTC STC20190101195011501/01/19 19:50:31  5-MIN KSTC 020150Z 00000KT 10SM CLR M22/M24 A3030 680 82 -3800 000/00 RMK AO2 SLP303 T12221244 $
14926KSTC STC20190101195510301/01/19 19:55:31  5-MIN KSTC 020155Z AUTO 10SM CLR M22/M24 A3030 680 82 -3800 M /M RMK AO2 T12171239 $
14926KSTC STC20190101200009801/01/19 20:00:31  5-MIN KSTC 020200Z 10SM CLR M22/M24 A3029 680 82 -3800 M /M RMK AO2 T12171239 $
14926KSTC STC20190101200509801/01/19 20:05:31  5-MIN KSTC 020205Z 10SM CLR M22/M24 A3029 690 82 -3800 M /M RMK AO2 T12171239 $
14926KSTC STC20190101201010801/01/19 20:10:31  5-MIN KSTC 020210Z 18003KT 10SM CLR M22/M24 A3029 690 82 -3800 180/03 RMK AO2 T12171239 $
14926KSTC STC20190101201510801/01/19 20:15:31  5-MIN KSTC 020215Z 17003KT 10SM CLR M22/M24 A3028 690 82 -3800 170/03 RMK AO2 T12221244 $
14926KSTC STC20190101202010801/01/19 20:20:31  5-MIN KSTC 020220Z 18003KT 10SM CLR M22/M24 A3028 700 82 -3800 180/03 RMK AO2 T12221244 $
14926KSTC STC20190101202510801/01/19 20:25:31  5-MIN KSTC 020225Z 00000KT 10SM CLR M22/M24 A3027 700 82 -3800 000/00 RMK AO2 T12221244 $
14926KSTC STC20190101203010801/01/19 20:30:31  5-MIN KSTC 020230Z 00000KT 10SM CLR M22/M24 A3027 700 79 -3700 000/00 RMK AO2 T12171244 $
14926KSTC STC20190101203510801/01/19 20:35:31  5-MIN KSTC 020235Z 00000KT 10SM CLR M22/M24 A3027 710 79 -3700 000/00 RMK AO2 T12171244 $
14926KSTC STC20190101204010801/01/19 20:40:31  5-MIN KSTC 020240Z 00000KT 10SM CLR M23/M25 A3026 710 82 -3900 000/00 RMK AO2 T12281250 $
14926KSTC STC20190101204510801/01/19 20:45:31  5-MIN KSTC 020245Z 00000KT 10SM CLR M23/M25 A3026 720 82 -3900 000/00 RMK AO2 T12281250 $
14926KSTC STC20190101205012101/01/19 20:50:31  5-MIN KSTC 020250Z 16003KT 10SM CLR M22/M25 A3026 720 78 -3800 160/03 RMK AO2 SLP289 T12221250 58009 $
14926KSTC STC20190101205510801/01/19 20:55:31  5-MIN KSTC 020255Z 16003KT 10SM CLR M23/M25 A3025 720 82 -3900 160/03 RMK AO2 T12281250 $
14926KSTC STC20190101210010801/01/19 21:00:31  5-MIN KSTC 020300Z 00000KT 10SM CLR M23/M25 A3025 720 82 -3900 000/00 RMK AO2 T12281250 $
14926KSTC STC20190101210510801/01/19 21:05:31  5-MIN KSTC 020305Z 18003KT 10SM CLR M23/M25 A3025 730 82 -3900 170/03 RMK AO2 T12281250 $
14926KSTC STC20190101211010801/01/19 21:10:31  5-MIN KSTC 020310Z 19003KT 10SM CLR M22/M24 A3024 730 82 -3800 190/03 RMK AO2 T12221244 $
14926KSTC STC20190101211510801/01/19 21:15:31  5-MIN KSTC 020315Z 20003KT 10SM CLR M22/M24 A3024 730 82 -3800 200/03 RMK AO2 T12221244 $
14926KSTC STC20190101212010801/01/19 21:20:31  5-MIN KSTC 020320Z 20003KT 10SM CLR M23/M25 A3023 740 82 -3800 200/03 RMK AO2 T12281250 $
14926KSTC STC20190101212510801/01/19 21:25:31  5-MIN KSTC 020325Z 19003KT 10SM CLR M22/M24 A3023 740 82 -3800 190/03 RMK AO2 T12221244 $
14926KSTC STC20190101213010801/01/19 21:30:31  5-MIN KSTC 020330Z 16003KT 10SM CLR M22/M24 A3022 750 82 -3800 160/03 RMK AO2 T12221244 $
14926KSTC STC20190101213510801/01/19 21:35:31  5-MIN KSTC 020335Z 16003KT 10SM CLR M22/M24 A3022 750 82 -3800 160/03 RMK AO2 T12221244 $
14926KSTC STC20190101214010801/01/19 21:40:31  5-MIN KSTC 020340Z 17004KT 10SM CLR M23/M25 A3022 750 86 -3900 170/04 RMK AO2 T12331250 $
14926KSTC STC20190101214510801/01/19 21:45:31  5-MIN KSTC 020345Z 17004KT 10SM CLR M24/M26 A3022 750 86 -4000 160/04 RMK AO2 T12391256 $
14926KSTC STC20190101215011501/01/19 21:50:31  5-MIN KSTC 020350Z 17004KT 10SM CLR M23/M24 A3021 760 86 -3800 170/04 RMK AO2 SLP273 T12281244 $
14926KSTC STC20190101215510801/01/19 21:55:31  5-MIN KSTC 020355Z 16005KT 10SM CLR M23/M25 A3021 760 86 -3900 160/05 RMK AO2 T12331250 $
14926KSTC STC20190101220011401/01/19 22:00:31  5-MIN KSTC 020400Z 17005KT 10SM CLR M23/M25 A3021 760 82 -3800 160/05 RMK AO2 I1000 T12281250 $
14926KSTC STC20190101220511401/01/19 22:05:31  5-MIN KSTC 020405Z 16004KT 10SM CLR M22/M24 A3021 760 82 -3700 160/04 RMK AO2 I1000 T12221244 $
14926KSTC STC20190101221011401/01/19 22:10:31  5-MIN KSTC 020410Z 16003KT 10SM CLR M22/M24 A3020 770 82 -3700 160/03 RMK AO2 I1000 T12171239 $
14926KSTC STC20190101221511401/01/19 22:15:31  5-MIN KSTC 020415Z 00000KT 10SM CLR M22/M24 A3020 760 82 -3700 000/00 RMK AO2 I1000 T12171239 $
14926KSTC STC20190101222011401/01/19 22:20:31  5-MIN KSTC 020420Z 00000KT 10SM CLR M22/M24 A3020 770 82 -3700 000/00 RMK AO2 I1000 T12221244 $
14926KSTC STC20190101222511401/01/19 22:25:31  5-MIN KSTC 020425Z 00000KT 10SM CLR M23/M25 A3020 770 82 -3800 000/00 RMK AO2 I1000 T12281250 $
14926KSTC STC20190101223011401/01/19 22:30:31  5-MIN KSTC 020430Z 00000KT 10SM CLR M23/M26 A3020 770 78 -3800 000/00 RMK AO2 I1000 T12281256 $
14926KSTC STC20190101223511401/01/19 22:35:31  5-MIN KSTC 020435Z 00000KT 10SM CLR M23/M26 A3019 770 78 -3800 000/00 RMK AO2 I1000 T12281256 $
14926KSTC STC20190101224011401/01/19 22:40:31  5-MIN KSTC 020440Z 00000KT 10SM CLR M23/M26 A3019 770 82 -3900 000/00 RMK AO2 I1000 T12331256 $
14926KSTC STC20190101224511401/01/19 22:45:31  5-MIN KSTC 020445Z 00000KT 10SM CLR M23/M25 A3019 780 82 -3800 000/00 RMK AO2 I1000 T12281250 $
14926KSTC STC20190101225012101/01/19 22:50:31  5-MIN KSTC 020450Z 00000KT 10SM CLR M23/M25 A3019 780 86 -3900 000/00 RMK AO2 SLP264 I1000 T12331250 $
14926KSTC STC20190101225510801/01/19 22:55:31  5-MIN KSTC 020455Z 00000KT 10SM CLR M23/M26 A3018 790 82 -3900 000/00 RMK AO2 T12331256 $
14926KSTC STC20190101230011301/01/19 23:00:31  5-MIN KSTC 020500Z AUTO 00000KT 10SM CLR M24/M26 A3018 790 82 -3900 000/00 RMK AO2 T12391261 $
14926KSTC STC20190101230511301/01/19 23:05:31  5-MIN KSTC 020505Z AUTO 00000KT 10SM CLR M24/M27 A3018 790 82 -4000 000/00 RMK AO2 T12441267 $
14926KSTC STC20190101231011301/01/19 23:10:31  5-MIN KSTC 020510Z AUTO 15003KT 10SM CLR M24/M27 A3018 790 82 -4000 150/03 RMK AO2 T12441267 $
14926KSTC STC20190101231511301/01/19 23:15:31  5-MIN KSTC 020515Z AUTO 14005KT 10SM CLR M25/M28 A3018 790 78 -4100 140/05 RMK AO2 T12501278 $
14926KSTC STC20190101232011301/01/19 23:20:31  5-MIN KSTC 020520Z AUTO 15006KT 10SM CLR M24/M27 A3018 790 78 -3900 150/06 RMK AO2 T12391267 $
14926KSTC STC20190101232511301/01/19 23:25:31  5-MIN KSTC 020525Z AUTO 15006KT 10SM CLR M23/M25 A3018 790 82 -3800 150/06 RMK AO2 T12281250 $
14926KSTC STC20190101233011301/01/19 23:30:31  5-MIN KSTC 020530Z AUTO 16005KT 10SM CLR M23/M25 A3017 790 82 -3800 160/05 RMK AO2 T12281250 $
14926KSTC STC20190101233511301/01/19 23:35:31  5-MIN KSTC 020535Z AUTO 17004KT 10SM CLR M23/M25 A3017 790 86 -3900 170/04 RMK AO2 T12331250 $
14926KSTC STC20190101234011301/01/19 23:40:31  5-MIN KSTC 020540Z AUTO 16004KT 10SM CLR M23/M24 A3017 800 86 -3800 160/04 RMK AO2 T12281244 $
14926KSTC STC20190101234511301/01/19 23:45:31  5-MIN KSTC 020545Z AUTO 16005KT 10SM CLR M23/M24 A3017 800 86 -3800 160/05 RMK AO2 T12281244 $
14926KSTC STC20190101235015401/01/19 23:50:31  5-MIN KSTC 020550Z AUTO 17004KT 10SM CLR M23/M24 A3017 800 86 -3800 170/04 RMK AO2 SLP257 I6000 T12281244 11189 21250 411501250 58025 $
14926KSTC STC20190101235511301/01/19 23:55:31  5-MIN KSTC 020555Z AUTO 17004KT 10SM CLR M23/M24 A3017 800 86 -3800 170/04 RMK AO2 T12281244 $
14926KSTC STC20190102000011301/02/19 00:00:31  5-MIN KSTC 020600Z AUTO 16005KT 10SM CLR M22/M24 A3016 810 82 -3700 160/05 RMK AO2 T12221244 $
14926KSTC STC20190102000511301/02/19 00:05:31  5-MIN KSTC 020605Z AUTO 15006KT 10SM CLR M23/M25 A3015 810 82 -3800 150/06 RMK AO2 T12281250 $
14926KSTC STC20190102001011301/02/19 00:10:31  5-MIN KSTC 020610Z AUTO 15006KT 10SM CLR M23/M26 A3015 810 78 -3800 150/06 RMK AO2 T12281256 $
14926KSTC STC20190102001511301/02/19 00:15:31  5-MIN KSTC 020615Z AUTO 15006KT 10SM CLR M23/M25 A3015 820 82 -3700 150/06 RMK AO2 T12281250 $
14926KSTC STC20190102002011301/02/19 00:20:31  5-MIN KSTC 020620Z AUTO 16005KT 10SM CLR M23/M25 A3015 820 82 -3700 160/05 RMK AO2 T12281250 $
14926KSTC STC20190102002511301/02/19 00:25:31  5-MIN KSTC 020625Z AUTO 16004KT 10SM CLR M23/M25 A3015 810 82 -3700 160/04 RMK AO2 T12281250 $
14926KSTC STC20190102003011301/02/19 00:30:31  5-MIN KSTC 020630Z AUTO 16004KT 10SM CLR M23/M25 A3015 810 82 -3700 160/04 RMK AO2 T12281250 $
14926KSTC STC20190102003511301/02/19 00:35:31  5-MIN KSTC 020635Z AUTO 16004KT 10SM CLR M23/M24 A3015 820 86 -3700 160/04 RMK AO2 T12281244 $
14926KSTC STC20190102004011301/02/19 00:40:31  5-MIN KSTC 020640Z AUTO 16005KT 10SM CLR M23/M25 A3014 820 82 -3700 160/05 RMK AO2 T12281250 $
14926KSTC STC20190102004511301/02/19 00:45:31  5-MIN KSTC 020645Z AUTO 16006KT 10SM CLR M23/M26 A3014 820 82 -3800 160/06 RMK AO2 T12331256 $
14926KSTC STC20190102005012001/02/19 00:50:31  5-MIN KSTC 020650Z AUTO 15006KT 10SM CLR M24/M26 A3014 830 86 -3900 150/06 RMK AO2 SLP246 T12391256 $
14926KSTC STC20190102005511301/02/19 00:55:31  5-MIN KSTC 020655Z AUTO 15005KT 10SM CLR M24/M26 A3013 830 82 -3900 150/05 RMK AO2 T12391261 $
14926KSTC STC20190102010011301/02/19 01:00:31  5-MIN KSTC 020700Z AUTO 15004KT 10SM CLR M23/M26 A3013 830 82 -3800 150/04 RMK AO2 T12331256 $
14926KSTC STC20190102010511301/02/19 01:05:31  5-MIN KSTC 020705Z AUTO 16005KT 10SM CLR M23/M26 A3013 830 78 -3700 160/05 RMK AO2 T12281256 $
14926KSTC STC20190102011011301/02/19 01:10:31  5-MIN KSTC 020710Z AUTO 15005KT 10SM CLR M23/M26 A3012 840 78 -3700 150/05 RMK AO2 T12281256 $
14926KSTC STC20190102011512001/02/19 01:15:31  5-MIN KSTC 020715Z AUTO 15006KT 10SM CLR M23/M25 A3011 850 82 -3700 150/06 RMK AO2 PRESFR T12281250 $
14926KSTC STC20190102012011301/02/19 01:20:31  5-MIN KSTC 020720Z AUTO 15006KT 10SM CLR M23/M25 A3011 850 82 -3700 150/06 RMK AO2 T12281250 $
14926KSTC STC20190102012511301/02/19 01:25:31  5-MIN KSTC 020725Z AUTO 15007KT 10SM CLR M23/M26 A3010 860 78 -3700 150/07 RMK AO2 T12281256 $
14926KSTC STC20190102013011301/02/19 01:30:31  5-MIN KSTC 020730Z AUTO 15007KT 10SM CLR M23/M26 A3010 860 82 -3800 150/07 RMK AO2 T12331256 $
14926KSTC STC20190102013511301/02/19 01:35:31  5-MIN KSTC 020735Z AUTO 17007KT 10SM CLR M23/M26 A3010 860 78 -3700 160/07 RMK AO2 T12281256 $
14926KSTC STC20190102014011301/02/19 01:40:31  5-MIN KSTC 020740Z AUTO 16006KT 10SM CLR M23/M26 A3010 860 78 -3700 160/06 RMK AO2 T12281256 $
14926KSTC STC20190102014511301/02/19 01:45:31  5-MIN KSTC 020745Z AUTO 16005KT 10SM CLR M23/M26 A3009 870 78 -3700 160/05 RMK AO2 T12281256 $
14926KSTC STC20190102015012001/02/19 01:50:31  5-MIN KSTC 020750Z AUTO 15006KT 10SM CLR M23/M25 A3009 870 82 -3700 150/06 RMK AO2 SLP230 T12281250 $
14926KSTC STC20190102015511301/02/19 01:55:31  5-MIN KSTC 020755Z AUTO 16005KT 10SM CLR M23/M26 A3008 880 78 -3700 160/05 RMK AO2 T12281256 $
14926KSTC STC20190102020011301/02/19 02:00:31  5-MIN KSTC 020800Z AUTO 15007KT 10SM CLR M22/M25 A3008 880 78 -3600 150/07 RMK AO2 T12221250 $
14926KSTC STC20190102020511301/02/19 02:05:31  5-MIN KSTC 020805Z AUTO 15006KT 10SM CLR M23/M25 A3008 880 82 -3700 150/06 RMK AO2 T12281250 $
14926KSTC STC20190102021011301/02/19 02:10:31  5-MIN KSTC 020810Z AUTO 16004KT 10SM CLR M23/M25 A3009 870 82 -3700 160/04 RMK AO2 T12281250 $
14926KSTC STC20190102021511301/02/19 02:15:31  5-MIN KSTC 020815Z AUTO 16006KT 10SM CLR M22/M25 A3008 870 78 -3600 160/06 RMK AO2 T12221250 $
14926KSTC STC20190102022011301/02/19 02:20:31  5-MIN KSTC 020820Z AUTO 16005KT 10SM CLR M23/M25 A3009 870 82 -3700 160/05 RMK AO2 T12281250 $
14926KSTC STC20190102022511301/02/19 02:25:31  5-MIN KSTC 020825Z AUTO 17005KT 10SM CLR M23/M25 A3009 870 82 -3700 170/05 RMK AO2 T12281250 $
14926KSTC STC20190102023011301/02/19 02:30:31  5-MIN KSTC 020830Z AUTO 16004KT 10SM CLR M23/M25 A3009 870 82 -3700 160/04 RMK AO2 T12281250 $
14926KSTC STC20190102023511301/02/19 02:35:31  5-MIN KSTC 020835Z AUTO 00000KT 10SM CLR M22/M25 A3009 870 78 -3600 000/00 RMK AO2 T12221250 $
14926KSTC STC20190102024011301/02/19 02:40:31  5-MIN KSTC 020840Z AUTO 18003KT 10SM CLR M22/M24 A3009 870 82 -3600 170/03 RMK AO2 T12221244 $
14926KSTC STC20190102024511301/02/19 02:45:31  5-MIN KSTC 020845Z AUTO 15004KT 10SM CLR M22/M25 A3008 880 78 -3600 150/04 RMK AO2 T12221250 $
14926KSTC STC20190102025012601/02/19 02:50:31  5-MIN KSTC 020850Z AUTO 14006KT 10SM CLR M22/M25 A3007 890 75 -3500 140/06 RMK AO2 SLP221 T12171250 56029 $
14926KSTC STC20190102025512001/02/19 02:55:31  5-MIN KSTC 020855Z AUTO 14008KT 10SM CLR M22/M24 A3006 900 79 -3500 140/08 RMK AO2 PRESFR T12171244 $
14926KSTC STC20190102030011301/02/19 03:00:31  5-MIN KSTC 020900Z AUTO 13008KT 10SM CLR M22/M24 A3006 900 79 -3500 130/08 RMK AO2 T12171244 $
14926KSTC STC20190102030511301/02/19 03:05:31  5-MIN KSTC 020905Z AUTO 14006KT 10SM CLR M21/M24 A3006 900 75 -3400 140/06 RMK AO2 T12111244 $
14926KSTC STC20190102031011301/02/19 03:10:31  5-MIN KSTC 020910Z AUTO 14007KT 10SM CLR M22/M24 A3005 910 79 -3500 140/07 RMK AO2 T12171244 $
14926KSTC STC20190102031511301/02/19 03:15:31  5-MIN KSTC 020915Z AUTO 14005KT 10SM CLR M22/M24 A3005 900 79 -3500 140/05 RMK AO2 T12171244 $
14926KSTC STC20190102032011301/02/19 03:20:31  5-MIN KSTC 020920Z AUTO 13004KT 10SM CLR M22/M24 A3005 910 79 -3500 130/04 RMK AO2 T12171244 $
14926KSTC STC20190102032511301/02/19 03:25:31  5-MIN KSTC 020925Z AUTO 12004KT 10SM CLR M22/M24 A3004 920 79 -3500 120/04 RMK AO2 T12171244 $
14926KSTC STC20190102033011301/02/19 03:30:31  5-MIN KSTC 020930Z AUTO 12004KT 10SM CLR M22/M24 A3004 920 79 -3500 120/04 RMK AO2 T12171244 $
14926KSTC STC20190102033511301/02/19 03:35:31  5-MIN KSTC 020935Z AUTO 13005KT 10SM CLR M22/M24 A3004 920 79 -3500 130/05 RMK AO2 T12171244 $
14926KSTC STC20190102034011301/02/19 03:40:31  5-MIN KSTC 020940Z AUTO 14005KT 10SM CLR M22/M24 A3004 920 79 -3500 140/05 RMK AO2 T12171244 $
14926KSTC STC20190102034511301/02/19 03:45:31  5-MIN KSTC 020945Z AUTO 14004KT 10SM CLR M22/M24 A3004 920 82 -3500 140/04 RMK AO2 T12221244 $
14926KSTC STC20190102035012001/02/19 03:50:31  5-MIN KSTC 020950Z AUTO 14004KT 10SM CLR M23/M25 A3003 920 82 -3600 140/04 RMK AO2 SLP210 T12281250 $
14926KSTC STC20190102035511301/02/19 03:55:31  5-MIN KSTC 020955Z AUTO 14005KT 10SM CLR M23/M25 A3003 930 82 -3600 140/05 RMK AO2 T12281250 $
14926KSTC STC20190102040011301/02/19 04:00:31  5-MIN KSTC 021000Z AUTO 14006KT 10SM CLR M23/M26 A3002 930 78 -3600 140/06 RMK AO2 T12281256 $
14926KSTC STC20190102040511301/02/19 04:05:31  5-MIN KSTC 021005Z AUTO 14006KT 10SM CLR M23/M26 A3002 940 82 -3700 140/06 RMK AO2 T12331256 $
14926KSTC STC20190102041011301/02/19 04:10:31  5-MIN KSTC 021010Z AUTO 14006KT 10SM CLR M23/M25 A3002 940 82 -3600 140/06 RMK AO2 T12281250 $
14926KSTC STC20190102041511301/02/19 04:15:31  5-MIN KSTC 021015Z AUTO 14007KT 10SM CLR M23/M25 A3001 940 82 -3600 140/07 RMK AO2 T12281250 $
14926KSTC STC20190102042012001/02/19 04:20:31  5-MIN KSTC 021020Z AUTO 14008KT 10SM CLR M23/M26 A3000 950 78 -3600 140/08 RMK AO2 PRESFR T12281256 $
14926KSTC STC20190102042512001/02/19 04:25:31  5-MIN KSTC 021025Z AUTO 14008KT 10SM CLR M23/M26 A3000 960 78 -3600 140/08 RMK AO2 PRESFR T12281256 $
14926KSTC STC20190102043011301/02/19 04:30:31  5-MIN KSTC 021030Z AUTO 14007KT 10SM CLR M23/M25 A2999 960 82 -3600 140/07 RMK AO2 T12281250 $
14926KSTC STC20190102043511301/02/19 04:35:31  5-MIN KSTC 021035Z AUTO 14007KT 10SM CLR M23/M25 A2999 960 82 -3600 140/07 RMK AO2 T12281250 $
14926KSTC STC20190102044011301/02/19 04:40:31  5-MIN KSTC 021040Z AUTO 14007KT 10SM CLR M22/M25 A2998 970 78 -3500 140/07 RMK AO2 T12221250 $
14926KSTC STC20190102044511301/02/19 04:45:31  5-MIN KSTC 021045Z AUTO 14007KT 10SM CLR M22/M24 A2998 970 79 -3400 140/07 RMK AO2 T12171244 $
14926KSTC STC20190102045012001/02/19 04:50:31  5-MIN KSTC 021050Z AUTO 14007KT 10SM CLR M22/M24 A2997 980 82 -3500 140/07 RMK AO2 SLP189 T12221244 $
14926KSTC STC20190102045512001/02/19 04:55:31  5-MIN KSTC 021055Z AUTO 14007KT 10SM CLR M22/M24 A2996 990 82 -3500 140/07 RMK AO2 PRESFR T12221244 $
14926KSTC STC20190102050011301/02/19 05:00:31  5-MIN KSTC 021100Z AUTO 14007KT 10SM CLR M22/M24 A2997 980 82 -3500 140/07 RMK AO2 T12221244 $
14926KSTC STC20190102050511301/02/19 05:05:31  5-MIN KSTC 021105Z AUTO 15007KT 10SM CLR M22/M24 A2996 990 82 -3500 150/07 RMK AO2 T12221244 $
14926KSTC STC20190102051011301/02/19 05:10:31  5-MIN KSTC 021110Z AUTO 15006KT 10SM CLR M22/M24 A2996 990 82 -3400 150/06 RMK AO2 T12221244 $
14926KSTC STC20190102051511301/02/19 05:15:31  5-MIN KSTC 021115Z AUTO 14008KT 10SM CLR M22/M24 A2996 990 82 -3400 140/08 RMK AO2 T12171239 $
14926KSTC STC20190102052011301/02/19 05:20:31  5-MIN KSTC 021120Z AUTO 15007KT 10SM CLR M22/M24 A2996 990 82 -3400 150/07 RMK AO2 T12171239 $
14926KSTC STC20190102052511401/02/19 05:25:31  5-MIN KSTC 021125Z AUTO 15006KT 10SM CLR M22/M24 A2995 1000 79 -3400 140/06 RMK AO2 T12171244 $
14926KSTC STC20190102053011301/02/19 05:30:31  5-MIN KSTC 021130Z AUTO 14007KT 10SM CLR M22/M24 A2995 990 82 -3400 140/07 RMK AO2 T12171239 $
14926KSTC STC20190102053511301/02/19 05:35:31  5-MIN KSTC 021135Z AUTO 15006KT 10SM CLR M21/M23 A2996 990 83 -3300 150/06 RMK AO2 T12111233 $
14926KSTC STC20190102054011401/02/19 05:40:31  5-MIN KSTC 021140Z AUTO 15007KT 10SM CLR M21/M23 A2995 1000 83 -3300 140/07 RMK AO2 T12111233 $
14926KSTC STC20190102054511401/02/19 05:45:31  5-MIN KSTC 021145Z AUTO 15005KT 10SM CLR M21/M23 A2995 1000 83 -3200 150/05 RMK AO2 T12061228 $
14926KSTC STC20190102055013901/02/19 05:50:31  5-MIN KSTC 021150Z AUTO 15007KT 10SM CLR M20/M22 A2995 1000 83 -3100 150/07 RMK AO2 SLP180 T12001222 11200 21239 56033 $
14926KSTC STC20190102055511401/02/19 05:55:31  5-MIN KSTC 021155Z AUTO 14007KT 10SM CLR M20/M22 A2995 1000 83 -3100 140/07 RMK AO2 T12001222 $
14926KSTC STC20190102060011401/02/19 06:00:31  5-MIN KSTC 021200Z AUTO 15007KT 10SM CLR M19/M22 A2994 1010 83 -3000 150/07 RMK AO2 T11941217 $
14926KSTC STC20190102060511401/02/19 06:05:31  5-MIN KSTC 021205Z AUTO 14008KT 10SM CLR M19/M22 A2994 1010 83 -3000 140/08 RMK AO2 T11941217 $
14926KSTC STC20190102061011401/02/19 06:10:31  5-MIN KSTC 021210Z AUTO 14008KT 10SM CLR M19/M22 A2994 1010 79 -3000 140/08 RMK AO2 T11891217 $
14926KSTC STC20190102061511401/02/19 06:15:31  5-MIN KSTC 021215Z AUTO 15008KT 10SM CLR M19/M21 A2993 1010 83 -3000 150/08 RMK AO2 T11891211 $
14926KSTC STC20190102062010901/02/19 06:20:31  5-MIN KSTC 021220Z 15008KT 10SM CLR M19/M21 A2993 1010 83 -3000 150/08 RMK AO2 T11891211 $
14926KSTC STC20190102062510901/02/19 06:25:31  5-MIN KSTC 021225Z 15009KT 10SM CLR M19/M21 A2993 1010 83 -3000 150/09 RMK AO2 T11891211 $
14926KSTC STC20190102063010901/02/19 06:30:31  5-MIN KSTC 021230Z 15008KT 10SM CLR M18/M21 A2994 1010 79 -2900 150/08 RMK AO2 T11831211 $
14926KSTC STC20190102063510901/02/19 06:35:31  5-MIN KSTC 021235Z 16007KT 10SM CLR M18/M21 A2994 1010 79 -2900 160/07 RMK AO2 T11831211 $
14926KSTC STC20190102064010901/02/19 06:40:31  5-MIN KSTC 021240Z 16007KT 10SM CLR M18/M21 A2994 1010 79 -2800 160/07 RMK AO2 T11781206 $
14926KSTC STC20190102064510901/02/19 06:45:31  5-MIN KSTC 021245Z 16006KT 10SM CLR M18/M21 A2994 1010 79 -2800 160/06 RMK AO2 T11781206 $
14926KSTC STC20190102065011601/02/19 06:50:31  5-MIN KSTC 021250Z 16005KT 10SM CLR M18/M20 A2993 1010 83 -2800 160/05 RMK AO2 SLP175 T11781200 $
14926KSTC STC20190102065510901/02/19 06:55:31  5-MIN KSTC 021255Z 15007KT 10SM CLR M18/M20 A2993 1020 83 -2800 150/07 RMK AO2 T11781200 $
14926KSTC STC20190102070010901/02/19 07:00:31  5-MIN KSTC 021300Z 15008KT 10SM CLR M18/M20 A2993 1020 83 -2800 150/08 RMK AO2 T11781200 $
14926KSTC STC20190102070510901/02/19 07:05:31  5-MIN KSTC 021305Z 16008KT 10SM CLR M18/M20 A2993 1020 83 -2800 160/08 RMK AO2 T11781200 $
14926KSTC STC20190102071010901/02/19 07:10:31  5-MIN KSTC 021310Z 15008KT 10SM CLR M17/M19 A2992 1020 83 -2700 150/08 RMK AO2 T11721194 $
14926KSTC STC20190102071510901/02/19 07:15:31  5-MIN KSTC 021315Z 15008KT 10SM CLR M17/M19 A2992 1030 83 -2700 150/08 RMK AO2 T11721194 $
14926KSTC STC20190102072010901/02/19 07:20:31  5-MIN KSTC 021320Z 15007KT 10SM CLR M17/M19 A2992 1020 79 -2600 150/07 RMK AO2 T11671194 $
14926KSTC STC20190102072510901/02/19 07:25:31  5-MIN KSTC 021325Z 15007KT 10SM CLR M17/M19 A2992 1030 83 -2600 150/07 RMK AO2 T11671189 $
14926KSTC STC20190102073010901/02/19 07:30:31  5-MIN KSTC 021330Z 15007KT 10SM CLR M17/M19 A2992 1030 83 -2600 150/07 RMK AO2 T11671189 $
14926KSTC STC20190102073511201/02/19 07:35:31  5-MIN KSTC 021335Z 15008KT 10SM FEW095 M17/M18 A2992 1030 87 -2600 150/08 RMK AO2 T11671183 $
14926KSTC STC20190102074011201/02/19 07:40:31  5-MIN KSTC 021340Z 15006KT 10SM SCT095 M16/M18 A2992 1030 83 -2600 150/06 RMK AO2 T11611183 $
14926KSTC STC20190102074511201/02/19 07:45:31  5-MIN KSTC 021345Z 15006KT 10SM FEW095 M16/M18 A2992 1030 83 -2600 150/06 RMK AO2 T11611183 $
14926KSTC STC20190102075011901/02/19 07:50:31  5-MIN KSTC 021350Z 14007KT 10SM FEW095 M16/M18 A2991 1030 83 -2600 140/07 RMK AO2 SLP167 T11611183 $
14926KSTC STC20190102075511201/02/19 07:55:31  5-MIN KSTC 021355Z 14007KT 10SM FEW100 M16/M18 A2991 1040 83 -2500 140/07 RMK AO2 T11561178 $
14926KSTC STC20190102080011201/02/19 08:00:31  5-MIN KSTC 021400Z 15009KT 10SM FEW100 M16/M18 A2990 1040 83 -2500 150/09 RMK AO2 T11561178 $
14926KSTC STC20190102080511001/02/19 08:05:31  5-MIN KSTC 021405Z 15008KT 10SM FEW100 M16/M18 A2990 1040 83 -2500 150/08 RMK AO2 T11561178
14926KSTC STC20190102081011001/02/19 08:10:31  5-MIN KSTC 021410Z 15008KT 10SM FEW110 M15/M18 A2990 1040 80 -2400 150/08 RMK AO2 T11501178
14926KSTC STC20190102081511701/02/19 08:15:31  5-MIN KSTC 021415Z 15008KT 10SM FEW085 SCT110 M15/M17 A2990 1040 83 -2400 150/08 RMK AO2 T11501172
14926KSTC STC20190102082011701/02/19 08:20:31  5-MIN KSTC 021420Z 17010KT 10SM SCT085 BKN100 M14/M17 A2991 1040 80 -2300 170/10 RMK AO2 T11441172
14926KSTC STC20190102082511701/02/19 08:25:31  5-MIN KSTC 021425Z 17011KT 10SM SCT080 BKN100 M14/M17 A2991 1040 80 -2200 170/11 RMK AO2 T11391167
14926KSTC STC20190102083011701/02/19 08:30:31  5-MIN KSTC 021430Z 17011KT 10SM SCT070 BKN090 M13/M17 A2990 1040 76 -2200 170/11 RMK AO2 T11331167
14926KSTC STC20190102083511701/02/19 08:35:31  5-MIN KSTC 021435Z 18012KT 10SM BKN070 BKN090 M13/M16 A2990 1050 80 -2200 180/12 RMK AO2 T11331161
14926KSTC STC20190102084011701/02/19 08:40:31  5-MIN KSTC 021440Z 17011KT 10SM BKN070 OVC090 M13/M16 A2990 1050 76 -2100 170/11 RMK AO2 T11281161
14926KSTC STC20190102084511701/02/19 08:45:31  5-MIN KSTC 021445Z 18011KT 10SM BKN070 OVC090 M13/M16 A2989 1050 76 -2100 180/11 RMK AO2 T11281161
14926KSTC STC20190102085012301/02/19 08:50:31  5-MIN KSTC 021450Z 18010KT 10SM OVC070 M13/M16 A2989 1050 76 -2100 180/10 RMK AO2 SLP158 T11281161 56041
14926KSTC STC20190102085511001/02/19 08:55:31  5-MIN KSTC 021455Z 18011KT 10SM OVC070 M13/M16 A2989 1060 76 -2100 180/11 RMK AO2 T11281161
14926KSTC STC20190102090011001/02/19 09:00:31  5-MIN KSTC 021500Z 18012KT 10SM OVC070 M12/M16 A2989 1060 73 -2000 180/12 RMK AO2 T11221161
14926KSTC STC20190102090511001/02/19 09:05:31  5-MIN KSTC 021505Z 18013KT 10SM OVC070 M12/M16 A2989 1060 73 -2000 180/13 RMK AO2 T11221161
14926KSTC STC20190102091011701/02/19 09:10:31  5-MIN KSTC 021510Z 18012KT 10SM FEW046 OVC070 M12/M16 A2989 1050 73 -2000 180/12 RMK AO2 T11221161
14926KSTC STC20190102091511701/02/19 09:15:31  5-MIN KSTC 021515Z 18011KT 10SM SCT046 OVC070 M12/M16 A2989 1050 73 -2000 180/11 RMK AO2 T11221161
14926KSTC STC20190102092011701/02/19 09:20:31  5-MIN KSTC 021520Z 19012KT 10SM BKN044 OVC070 M12/M16 A2990 1050 70 -1900 190/12 RMK AO2 T11171161
14926KSTC STC20190102092511701/02/19 09:25:31  5-MIN KSTC 021525Z 19011KT 10SM BKN044 OVC070 M12/M16 A2990 1050 70 -1900 190/11 RMK AO2 T11171161
14926KSTC STC20190102093011701/02/19 09:30:31  5-MIN KSTC 021530Z 19010KT 10SM BKN044 OVC070 M12/M16 A2990 1040 73 -1900 190/10 RMK AO2 T11171156
14926KSTC STC20190102093511001/02/19 09:35:31  5-MIN KSTC 021535Z 20011KT 10SM OVC043 M12/M16 A2990 1040 73 -1900 200/11 RMK AO2 T11171156
14926KSTC STC20190102094011001/02/19 09:40:31  5-MIN KSTC 021540Z 20010KT 10SM OVC041 M12/M16 A2989 1050 73 -1900 200/10 RMK AO2 T11171156
14926KSTC STC20190102094511001/02/19 09:45:31  5-MIN KSTC 021545Z 20013KT 10SM OVC039 M12/M16 A2989 1060 73 -1900 190/13 RMK AO2 T11171156
14926KSTC STC20190102095012401/02/19 09:50:31  5-MIN KSTC 021550Z 19011KT 10SM OVC039 M12/M16 A2988 1060 73 -1900 190/11 RMK AO2 PRESFR SLP154 T11171156
14926KSTC STC20190102095511001/02/19 09:55:31  5-MIN KSTC 021555Z 19013KT 10SM OVC039 M11/M16 A2988 1070 70 -1800 190/13 RMK AO2 T11111156
14926KSTC STC20190102100011001/02/19 10:00:31  5-MIN KSTC 021600Z 20012KT 10SM OVC037 M11/M15 A2988 1060 73 -1800 190/12 RMK AO2 T11111150
14926KSTC STC20190102100511001/02/19 10:05:31  5-MIN KSTC 021605Z 19014KT 10SM OVC037 M11/M15 A2987 1070 73 -1800 190/14 RMK AO2 T11111150
14926KSTC STC20190102101011601/02/19 10:10:31  5-MIN KSTC 021610Z 20010G19KT 10SM OVC036 M11/M15 A2988 1070 73 -1800 200/10G19 RMK AO2 T11111150
14926KSTC STC20190102101511601/02/19 10:15:31  5-MIN KSTC 021615Z 20013G19KT 10SM OVC036 M11/M15 A2987 1070 73 -1800 200/13G19 RMK AO2 T11111150
14926KSTC STC20190102102011701/02/19 10:20:31  5-MIN KSTC 021620Z 21012KT 10SM BKN036 OVC047 M11/M15 A2988 1070 73 -1800 200/12 RMK AO2 T11111150
14926KSTC STC20190102102511701/02/19 10:25:31  5-MIN KSTC 021625Z 20013KT 10SM BKN036 OVC045 M11/M15 A2987 1070 70 -1800 200/13 RMK AO2 T11061150
14926KSTC STC20190102103011701/02/19 10:30:31  5-MIN KSTC 021630Z 20013KT 10SM SCT036 OVC045 M11/M15 A2987 1070 70 -1800 200/13 RMK AO2 T11061150
14926KSTC STC20190102103511701/02/19 10:35:31  5-MIN KSTC 021635Z 20014KT 10SM FEW036 OVC045 M11/M15 A2987 1080 70 -1800 200/14 RMK AO2 T11061150
14926KSTC STC20190102104011701/02/19 10:40:31  5-MIN KSTC 021640Z 20013KT 10SM FEW036 OVC045 M11/M15 A2987 1080 70 -1800 200/13 RMK AO2 T11061150
14926KSTC STC20190102104513201/02/19 10:45:31  5-MIN KSTC 021645Z 21013KT 8SM -SN BKN045 OVC055 M11/M14 A2987 1070 73 -1800 210/13 RMK AO2 SNB44 P0000 T11061144
14926KSTC STC20190102105013901/02/19 10:50:31  5-MIN KSTC 021650Z 20011KT 6SM -SN BKN045 OVC055 M11/M14 A2987 1080 73 -1800 200/11 RMK AO2 SNB44 SLP149 P0000 T11061144
14926KSTC STC20190102105512601/02/19 10:55:31  5-MIN KSTC 021655Z 20013KT 7SM -SN SCT045 OVC055 M11/M14 A2986 1080 73 -1800 200/13 RMK AO2 P0000 T11061144
14926KSTC STC20190102110013001/02/19 11:00:31  5-MIN KSTC 021700Z 20014KT 9SM SCT047 OVC060 M11/M14 A2985 1090 73 -1700 200/14 RMK AO2 SNE1659 P0000 T11061144
14926KSTC STC20190102110512401/02/19 11:05:31  5-MIN KSTC 021705Z 20012KT 10SM OVC049 M11/M14 A2986 1090 73 -1700 200/12 RMK AO2 SNE1659 P0000 T11061144
14926KSTC STC20190102111013101/02/19 11:10:31  5-MIN KSTC 021710Z 20011KT 10SM BKN049 OVC060 M10/M14 A2985 1090 70 -1700 190/11 RMK AO2 SNE1659 P0000 T11001144
14926KSTC STC20190102111513101/02/19 11:15:31  5-MIN KSTC 021715Z 20012KT 10SM BKN047 OVC060 M10/M14 A2985 1090 73 -1700 200/12 RMK AO2 SNE1659 P0000 T11001139
14926KSTC STC20190102112013101/02/19 11:20:31  5-MIN KSTC 021720Z 19012KT 10SM BKN045 OVC055 M10/M14 A2985 1090 73 -1700 190/12 RMK AO2 SNE1659 P0000 T11001139
14926KSTC STC20190102112513101/02/19 11:25:31  5-MIN KSTC 021725Z 20013KT 10SM BKN042 OVC050 M10/M14 A2985 1090 73 -1700 200/13 RMK AO2 SNE1659 P0000 T11001139
14926KSTC STC20190102113013101/02/19 11:30:31  5-MIN KSTC 021730Z 21012KT 10SM BKN042 OVC050 M10/M14 A2985 1090 73 -1700 210/12 RMK AO2 SNE1659 P0000 T11001139
14926KSTC STC20190102113513101/02/19 11:35:31  5-MIN KSTC 021735Z 21012KT 10SM BKN042 OVC049 M10/M14 A2985 1090 73 -1700 210/12 RMK AO2 SNE1659 P0000 T11001139
14926KSTC STC20190102114013101/02/19 11:40:31  5-MIN KSTC 021740Z 21010KT 10SM FEW027 OVC042 M10/M14 A2985 1090 73 -1700 210/10 RMK AO2 SNE1659 P0000 T11001139
14926KSTC STC20190102114513101/02/19 11:45:31  5-MIN KSTC 021745Z 23011KT 10SM SCT027 OVC042 M10/M14 A2985 1090 73 -1700 230/11 RMK AO2 SNE1659 P0000 T11001139
14926KSTC STC20190102115012101/02/19 11:50:31  5-MIN KSTC 021750Z 21010KT 10SM BKN026 OVC042 M09/M14 A2985 1090 70 -1600 210/10 RMK AO2 SNE1659 P0000
14926KSTC STC20190102115511701/02/19 11:55:31  5-MIN KSTC 021755Z 22013KT 10SM BKN026 OVC042 M09/M14 A2984 1100 70 -1600 220/13 RMK AO2 T10941139
14926KSTC STC20190102120011701/02/19 12:00:31  5-MIN KSTC 021800Z 22011KT 10SM BKN026 OVC042 M09/M14 A2984 1100 70 -1600 220/11 RMK AO2 T10941139
14926KSTC STC20190102120511001/02/19 12:05:31  5-MIN KSTC 021805Z 21010KT 10SM OVC026 M09/M13 A2984 1100 73 -1600 210/10 RMK AO2 T10941133
14926KSTC STC20190102121011001/02/19 12:10:31  5-MIN KSTC 021810Z 20011KT 10SM OVC026 M09/M13 A2984 1100 73 -1600 200/11 RMK AO2 T10941133
14926KSTC STC20190102121511001/02/19 12:15:31  5-MIN KSTC 021815Z 22010KT 10SM OVC026 M09/M13 A2983 1110 73 -1600 220/10 RMK AO2 T10941133
14926KSTC STC20190102122011001/02/19 12:20:31  5-MIN KSTC 021820Z 21010KT 10SM OVC024 M09/M13 A2983 1110 73 -1600 210/10 RMK AO2 T10941133
14926KSTC STC20190102122511001/02/19 12:25:31  5-MIN KSTC 021825Z 20009KT 10SM OVC024 M09/M13 A2983 1110 73 -1600 200/09 RMK AO2 T10941133
14926KSTC STC20190102123011001/02/19 12:30:31  5-MIN KSTC 021830Z 21008KT 10SM OVC024 M09/M13 A2983 1110 73 -1600 210/08 RMK AO2 T10941133
14926KSTC STC20190102123511001/02/19 12:35:31  5-MIN KSTC 021835Z 20008KT 10SM OVC022 M09/M13 A2983 1110 73 -1600 200/08 RMK AO2 T10941133
14926KSTC STC20190102124011001/02/19 12:40:31  5-MIN KSTC 021840Z 20009KT 10SM OVC022 M09/M13 A2982 1120 77 -1600 200/09 RMK AO2 T10941128
14926KSTC STC20190102124511001/02/19 12:45:31  5-MIN KSTC 021845Z 20010KT 10SM OVC020 M09/M13 A2982 1120 74 -1500 200/10 RMK AO2 T10891128
14926KSTC STC20190102125011701/02/19 12:50:31  5-MIN KSTC 021850Z 20010KT 10SM OVC020 M09/M13 A2982 1120 74 -1500 200/10 RMK AO2 SLP133 T10891128
14926KSTC STC20190102125511001/02/19 12:55:31  5-MIN KSTC 021855Z 20009KT 10SM OVC020 M09/M13 A2982 1120 74 -1500 200/09 RMK AO2 T10891128
14926KSTC STC20190102130011001/02/19 13:00:31  5-MIN KSTC 021900Z 21009KT 10SM OVC020 M09/M13 A2982 1120 74 -1500 200/09 RMK AO2 T10891128
14926KSTC STC20190102130511001/02/19 13:05:31  5-MIN KSTC 021905Z 20009KT 10SM OVC019 M09/M13 A2982 1120 74 -1500 200/09 RMK AO2 T10891128
14926KSTC STC20190102131011701/02/19 13:10:31  5-MIN KSTC 021910Z 21008KT 10SM BKN019 OVC029 M09/M13 A2982 1120 74 -1500 210/08 RMK AO2 T10891128
14926KSTC STC20190102131512401/02/19 13:15:31  5-MIN KSTC 021915Z 21011KT 10SM SCT019 BKN024 OVC029 M08/M13 A2981 1130 70 -1400 210/11 RMK AO2 T10831128
14926KSTC STC20190102132012401/02/19 13:20:31  5-MIN KSTC 021920Z 20010KT 10SM SCT019 SCT024 OVC029 M08/M13 A2981 1130 70 -1400 200/10 RMK AO2 T10831128
14926KSTC STC20190102132511701/02/19 13:25:31  5-MIN KSTC 021925Z 20011KT 10SM SCT019 OVC030 M08/M13 A2980 1140 70 -1400 200/11 RMK AO2 T10831128
14926KSTC STC20190102133011701/02/19 13:30:31  5-MIN KSTC 021930Z 20010KT 10SM FEW021 OVC030 M08/M12 A2980 1130 74 -1400 200/10 RMK AO2 T10831122
14926KSTC STC20190102133511001/02/19 13:35:31  5-MIN KSTC 021935Z 19012KT 10SM OVC030 M08/M12 A2980 1130 74 -1400 190/12 RMK AO2 T10831122
14926KSTC STC20190102134011001/02/19 13:40:31  5-MIN KSTC 021940Z 20011KT 10SM BKN030 M08/M12 A2981 1130 74 -1400 200/11 RMK AO2 T10831122
14926KSTC STC20190102134511701/02/19 13:45:31  5-MIN KSTC 021945Z 21009KT 10SM BKN030 BKN035 M08/M13 A2980 1140 70 -1400 210/09 RMK AO2 T10831128
14926KSTC STC20190102135011701/02/19 13:50:31  5-MIN KSTC 021950Z 20011KT 10SM BKN032 M08/M12 A2980 1130 74 -1400 200/11 RMK AO2 SLP128 T10831122
14926KSTC STC20190102135511701/02/19 13:55:31  5-MIN KSTC 021955Z 20010KT 10SM BKN030 BKN035 M08/M12 A2981 1130 74 -1400 200/10 RMK AO2 T10831122
14926KSTC STC20190102140012401/02/19 14:00:31  5-MIN KSTC 022000Z 20009KT 10SM FEW022 BKN030 BKN035 M08/M12 A2980 1140 74 -1400 200/09 RMK AO2 T10831122
14926KSTC STC20190102140511701/02/19 14:05:31  5-MIN KSTC 022005Z 20009KT 10SM BKN024 BKN032 M08/M12 A2981 1130 71 -1300 200/09 RMK AO2 T10781122
14926KSTC STC20190102141011701/02/19 14:10:31  5-MIN KSTC 022010Z 21009KT 10SM BKN026 OVC032 M08/M12 A2981 1130 71 -1300 200/09 RMK AO2 T10781122
14926KSTC STC20190102141511701/02/19 14:15:31  5-MIN KSTC 022015Z 20011KT 10SM BKN026 OVC031 M08/M12 A2981 1130 71 -1300 200/11 RMK AO2 T10781122
14926KSTC STC20190102142012401/02/19 14:20:31  5-MIN KSTC 022020Z 20011KT 10SM BKN024 BKN029 OVC055 M08/M12 A2981 1130 71 -1300 200/11 RMK AO2 T10781122
14926KSTC STC20190102142512401/02/19 14:25:31  5-MIN KSTC 022025Z 22009KT 10SM BKN024 BKN043 OVC055 M08/M12 A2981 1130 71 -1300 220/09 RMK AO2 T10781122
14926KSTC STC20190102143012401/02/19 14:30:31  5-MIN KSTC 022030Z 20010KT 10SM SCT026 BKN041 OVC050 M08/M12 A2981 1130 71 -1300 200/10 RMK AO2 T10781122
14926KSTC STC20190102143512401/02/19 14:35:31  5-MIN KSTC 022035Z 20011KT 10SM FEW023 BKN039 OVC055 M08/M12 A2981 1130 71 -1300 200/11 RMK AO2 T10781122
14926KSTC STC20190102144012401/02/19 14:40:31  5-MIN KSTC 022040Z 20010KT 10SM FEW023 BKN039 OVC055 M08/M12 A2981 1130 71 -1300 200/10 RMK AO2 T10781122
14926KSTC STC20190102144512401/02/19 14:45:31  5-MIN KSTC 022045Z 20010KT 10SM BKN039 BKN046 OVC055 M08/M12 A2982 1120 74 -1300 190/10 RMK AO2 T10781117
14926KSTC STC20190102145013001/02/19 14:50:31  5-MIN KSTC 022050Z 20008KT 10SM BKN039 OVC050 M08/M12 A2982 1120 74 -1300 200/08 RMK AO2 SLP129 T10781117 58014
14926KSTC STC20190102145511701/02/19 14:55:31  5-MIN KSTC 022055Z 20010KT 10SM BKN039 OVC047 M08/M12 A2981 1130 74 -1300 200/10 RMK AO2 T10781117
14926KSTC STC20190102150011701/02/19 15:00:31  5-MIN KSTC 022100Z 20009KT 10SM BKN037 OVC047 M08/M12 A2981 1130 74 -1300 200/09 RMK AO2 T10781117
14926KSTC STC20190102150511001/02/19 15:05:31  5-MIN KSTC 022105Z 20010KT 10SM OVC041 M07/M12 A2981 1130 71 -1300 190/10 RMK AO2 T10721117
14926KSTC STC20190102151011701/02/19 15:10:31  5-MIN KSTC 022110Z 20010KT 10SM BKN041 OVC048 M08/M12 A2981 1130 74 -1300 200/10 RMK AO2 T10781117
14926KSTC STC20190102151511701/02/19 15:15:31  5-MIN KSTC 022115Z 21009KT 10SM BKN041 BKN048 M07/M12 A2981 1130 71 -1300 210/09 RMK AO2 T10721117
14926KSTC STC20190102152011501/02/19 15:20:31  5-MIN KSTC 022120Z AUTO 21007KT 10SM SCT043 M07/M12 A2982 1120 71 -1300 210/07 RMK AO2 T10721117
14926KSTC STC20190102152512201/02/19 15:25:31  5-MIN KSTC 022125Z AUTO 22007KT 10SM FEW019 SCT043 M07/M12 A2982 1120 71 -1300 220/07 RMK AO2 T10721117
14926KSTC STC20190102153012201/02/19 15:30:31  5-MIN KSTC 022130Z AUTO 22007KT 10SM SCT019 BKN043 M07/M12 A2982 1120 71 -1300 220/07 RMK AO2 T10721117
14926KSTC STC20190102153511701/02/19 15:35:31  5-MIN KSTC 022135Z 22007KT 10SM BKN019 BKN043 M07/M12 A2982 1120 71 -1300 220/07 RMK AO2 T10721117
14926KSTC STC20190102154011001/02/19 15:40:31  5-MIN KSTC 022140Z 22006KT 10SM BKN018 M07/M12 A2982 1120 71 -1300 220/06 RMK AO2 T10721117
14926KSTC STC20190102154511001/02/19 15:45:31  5-MIN KSTC 022145Z 21006KT 10SM BKN018 M07/M12 A2983 1110 71 -1300 210/06 RMK AO2 T10721117
14926KSTC STC20190102155011701/02/19 15:50:31  5-MIN KSTC 022150Z 21006KT 10SM OVC018 M07/M12 A2983 1110 71 -1300 210/06 RMK AO2 SLP135 T10721117
14926KSTC STC20190102155511001/02/19 15:55:31  5-MIN KSTC 022155Z 20007KT 10SM OVC018 M07/M12 A2983 1110 71 -1300 200/07 RMK AO2 T10721117
14926KSTC STC20190102160011001/02/19 16:00:31  5-MIN KSTC 022200Z 21007KT 10SM OVC018 M07/M12 A2984 1100 71 -1300 210/07 RMK AO2 T10721117
14926KSTC STC20190102160511001/02/19 16:05:31  5-MIN KSTC 022205Z 21005KT 10SM OVC018 M07/M12 A2984 1100 71 -1300 210/05 RMK AO2 T10721117
14926KSTC STC20190102161011001/02/19 16:10:31  5-MIN KSTC 022210Z 21007KT 10SM OVC017 M07/M12 A2984 1110 71 -1300 210/07 RMK AO2 T10721117
14926KSTC STC20190102161511001/02/19 16:15:31  5-MIN KSTC 022215Z 20006KT 10SM OVC017 M07/M11 A2984 1110 74 -1300 200/06 RMK AO2 T10721111
14926KSTC STC20190102162011001/02/19 16:20:31  5-MIN KSTC 022220Z 22007KT 10SM OVC017 M07/M11 A2984 1100 74 -1300 220/07 RMK AO2 T10721111
14926KSTC STC20190102162511001/02/19 16:25:31  5-MIN KSTC 022225Z 22006KT 10SM OVC017 M07/M11 A2984 1100 74 -1300 220/06 RMK AO2 T10721111
14926KSTC STC20190102163011001/02/19 16:30:31  5-MIN KSTC 022230Z 22006KT 10SM OVC017 M07/M11 A2984 1100 74 -1300 210/06 RMK AO2 T10721111
14926KSTC STC20190102163511001/02/19 16:35:31  5-MIN KSTC 022235Z 21008KT 10SM OVC017 M07/M11 A2984 1100 74 -1300 210/08 RMK AO2 T10721111
14926KSTC STC20190102164011001/02/19 16:40:31  5-MIN KSTC 022240Z 22006KT 10SM OVC017 M07/M11 A2984 1100 74 -1300 220/06 RMK AO2 T10721111
14926KSTC STC20190102164511001/02/19 16:45:31  5-MIN KSTC 022245Z 21005KT 10SM OVC016 M07/M11 A2984 1100 74 -1300 210/05 RMK AO2 T10721111
14926KSTC STC20190102165011701/02/19 16:50:31  5-MIN KSTC 022250Z 22006KT 10SM OVC016 M07/M11 A2984 1100 74 -1300 220/06 RMK AO2 SLP139 T10721111
14926KSTC STC20190102165511001/02/19 16:55:31  5-MIN KSTC 022255Z 22006KT 10SM OVC016 M07/M11 A2984 1100 77 -1300 220/06 RMK AO2 T10721106
14926KSTC STC20190102170011001/02/19 17:00:31  5-MIN KSTC 022300Z 22006KT 10SM OVC016 M07/M11 A2984 1100 77 -1300 220/06 RMK AO2 T10721106
14926KSTC STC20190102170511001/02/19 17:05:31  5-MIN KSTC 022305Z 21006KT 10SM OVC015 M07/M11 A2984 1100 74 -1200 210/06 RMK AO2 T10671106
14926KSTC STC20190102171011001/02/19 17:10:31  5-MIN KSTC 022310Z 21007KT 10SM OVC015 M07/M11 A2985 1090 74 -1200 210/07 RMK AO2 T10671106
14926KSTC STC20190102171511001/02/19 17:15:31  5-MIN KSTC 022315Z 21006KT 10SM OVC015 M07/M11 A2985 1090 74 -1200 210/06 RMK AO2 T10671106
14926KSTC STC20190102172011001/02/19 17:20:31  5-MIN KSTC 022320Z 20007KT 10SM OVC016 M07/M11 A2985 1100 74 -1200 200/07 RMK AO2 T10671106
14926KSTC STC20190102172511701/02/19 17:25:31  5-MIN KSTC 022325Z 21005KT 10SM BKN016 OVC024 M07/M11 A2984 1100 74 -1200 210/05 RMK AO2 T10671106
14926KSTC STC20190103143010401/03/19 14:30:31  5-MIN KSTC 032030Z 21007KT 10SM CLR 02/M04 A2967 1260 64 100 210/07 RMK AO2 T00221039
14926KSTC STC20190103143510401/03/19 14:35:31  5-MIN KSTC 032035Z 22008KT 10SM CLR 02/M04 A2967 1260 64 100 210/08 RMK AO2 T00221039
14926KSTC STC20190103144010201/03/19 14:40:31  5-MIN KSTC 032040Z 22009KT 10SM CLR 02/M04 A2967 1250 64 0 220/09 RMK AO2 T00221039
14926KSTC STC20190103144510201/03/19 14:45:31  5-MIN KSTC 032045Z 23008KT 10SM CLR 02/M03 A2968 1250 67 0 230/08 RMK AO2 T00221033
14926KSTC STC20190103145011501/03/19 14:50:31  5-MIN KSTC 032050Z 23007KT 10SM CLR 02/M03 A2968 1250 67 0 230/07 RMK AO2 SLP071 T00221033 58022
14926KSTC STC20190103145510201/03/19 14:55:31  5-MIN KSTC 032055Z 23008KT 10SM CLR 02/M03 A2968 1250 67 0 230/08 RMK AO2 T00221033
14926KSTC STC20190103150010201/03/19 15:00:31  5-MIN KSTC 032100Z 21007KT 10SM CLR 02/M03 A2967 1250 67 0 210/07 RMK AO2 T00221033
14926KSTC STC20190103150510401/03/19 15:05:31  5-MIN KSTC 032105Z 21007KT 10SM CLR 02/M03 A2967 1260 67 100 210/07 RMK AO2 T00221033
14926KSTC STC20190103151010401/03/19 15:10:31  5-MIN KSTC 032110Z 21008KT 10SM CLR 02/M03 A2967 1260 67 100 210/08 RMK AO2 T00221033
14926KSTC STC20190103151510401/03/19 15:15:31  5-MIN KSTC 032115Z 22007KT 10SM CLR 03/M03 A2967 1260 64 100 220/07 RMK AO2 T00281033
14926KSTC STC20190103152010401/03/19 15:20:31  5-MIN KSTC 032120Z 22007KT 10SM CLR 03/M03 A2967 1260 64 100 220/07 RMK AO2 T00281033
14926KSTC STC20190103152510401/03/19 15:25:31  5-MIN KSTC 032125Z 23008KT 10SM CLR 03/M03 A2967 1260 64 100 220/08 RMK AO2 T00281033
14926KSTC STC20190103153010401/03/19 15:30:31  5-MIN KSTC 032130Z 22007KT 10SM CLR 03/M03 A2967 1260 64 100 220/07 RMK AO2 T00281033
14926KSTC STC20190103153510401/03/19 15:35:31  5-MIN KSTC 032135Z 22007KT 10SM CLR 03/M03 A2967 1260 64 100 220/07 RMK AO2 T00281033
14926KSTC STC20190103154010401/03/19 15:40:31  5-MIN KSTC 032140Z 23007KT 10SM CLR 03/M03 A2967 1260 64 100 230/07 RMK AO2 T00281033
14926KSTC STC20190103154506301/03/19 15:45:31  5-MIN KSTC 032145Z AUTO M M M M /M RMK AO2 $
14926KSTC STC20190103155010901/03/19 15:50:31  5-MIN KSTC 032150Z AUTO 25006KT 03/M03 A2967 1250 64 100 250/06 RMK AO2 SLP070 T00281033 $
14926KSTC STC20190103155510201/03/19 15:55:31  5-MIN KSTC 032155Z 24006KT 10SM 03/M03 A2967 1260 64 100 240/06 RMK AO2 T00281033 $
14926KSTC STC20190103160010601/03/19 16:00:31  5-MIN KSTC 032200Z 24006KT 10SM CLR 02/M03 A2967 1260 67 100 230/06 RMK AO2 T00221033 $
14926KSTC STC20190103160510201/03/19 16:05:31  5-MIN KSTC 032205Z 23005KT 10SM 03/M03 A2967 1260 64 100 230/05 RMK AO2 T00281033 $
14926KSTC STC20190103161010601/03/19 16:10:31  5-MIN KSTC 032210Z 21005KT 10SM CLR 02/M03 A2967 1260 67 100 210/05 RMK AO2 T00221033 $
14926KSTC STC20190103161510401/03/19 16:15:31  5-MIN KSTC 032215Z 20007KT 10SM CLR 02/M03 A2967 1260 69 0 200/07 RMK AO2 T00171033 $
14926KSTC STC20190103162010401/03/19 16:20:31  5-MIN KSTC 032220Z 21006KT 10SM CLR 02/M03 A2967 1260 69 0 210/06 RMK AO2 T00171033 $
14926KSTC STC20190103162510401/03/19 16:25:31  5-MIN KSTC 032225Z 22006KT 10SM CLR 02/M03 A2967 1260 69 0 210/06 RMK AO2 T00171033 $
14926KSTC STC20190103163010401/03/19 16:30:31  5-MIN KSTC 032230Z 22005KT 10SM CLR 02/M03 A2967 1260 69 0 220/05 RMK AO2 T00171033 $
14926KSTC STC20190103163510401/03/19 16:35:31  5-MIN KSTC 032235Z 22005KT 10SM CLR 02/M03 A2967 1260 69 0 220/05 RMK AO2 T00171033 $
14926KSTC STC20190103164010401/03/19 16:40:31  5-MIN KSTC 032240Z 21005KT 10SM CLR 01/M03 A2967 1260 72 0 210/05 RMK AO2 T00111033 $
14926KSTC STC20190103164510701/03/19 16:45:31  5-MIN KSTC 032245Z 22004KT 10SM CLR 01/M03 A2967 1260 75 -100 220/04 RMK AO2 T00061033 $
14926KSTC STC20190103165011401/03/19 16:50:31  5-MIN KSTC 032250Z 22005KT 10SM CLR 01/M03 A2967 1260 75 -100 220/05 RMK AO2 SLP071 T00061033 $
14926KSTC STC20190103165510401/03/19 16:55:31  5-MIN KSTC 032255Z 21005KT 10SM CLR 01/M03 A2967 1260 72 0 210/05 RMK AO2 T00111033 $
14926KSTC STC20190103170010701/03/19 17:00:31  5-MIN KSTC 032300Z 21005KT 10SM CLR 01/M04 A2967 1260 72 -100 210/05 RMK AO2 T00061039 $
14926KSTC STC20190103170510701/03/19 17:05:31  5-MIN KSTC 032305Z 22005KT 10SM CLR 00/M04 A2967 1260 75 -200 220/05 RMK AO2 T00001039 $
14926KSTC STC20190103171010401/03/19 17:10:31  5-MIN KSTC 032310Z 22006KT 10SM CLR 01/M03 A2967 1260 72 0 220/06 RMK AO2 T00111033 $
14926KSTC STC20190103171510401/03/19 17:15:31  5-MIN KSTC 032315Z 21006KT 10SM CLR 01/M03 A2966 1260 72 0 210/06 RMK AO2 T00111033 $
14926KSTC STC20190103172010701/03/19 17:20:31  5-MIN KSTC 032320Z 21007KT 10SM CLR 00/M04 A2967 1260 75 -200 210/07 RMK AO2 T00001039 $
14926KSTC STC20190103172510801/03/19 17:25:31  5-MIN KSTC 032325Z 20006KT 10SM CLR M01/M04 A2967 1260 75 -200 200/06 RMK AO2 T10061044 $
14926KSTC STC20190103173010701/03/19 17:30:31  5-MIN KSTC 032330Z 21005KT 10SM CLR 00/M04 A2967 1260 75 -200 210/05 RMK AO2 T00001039 $
14926KSTC STC20190103173510801/03/19 17:35:31  5-MIN KSTC 032335Z 22004KT 10SM CLR M01/M04 A2967 1260 78 -200 210/04 RMK AO2 T10061039 $
14926KSTC STC20190103174010801/03/19 17:40:31  5-MIN KSTC 032340Z 21004KT 10SM CLR M01/M04 A2967 1260 78 -300 200/04 RMK AO2 T10111044 $
14926KSTC STC20190103174510801/03/19 17:45:31  5-MIN KSTC 032345Z 21006KT 10SM CLR M02/M04 A2967 1260 81 -400 210/06 RMK AO2 T10171044 $
14926KSTC STC20190103175012601/03/19 17:50:31  5-MIN KSTC 032350Z 22003KT 10SM CLR 00/M04 A2967 1260 75 -200 220/03 RMK AO2 SLP071 T00001039 10028 21017 $
14926KSTC STC20190103175510801/03/19 17:55:31  5-MIN KSTC 032355Z 22003KT 10SM CLR M01/M04 A2967 1260 78 -200 220/03 RMK AO2 T10061039 $
14926KSTC STC20190103180010801/03/19 18:00:31  5-MIN KSTC 040000Z 21004KT 10SM CLR M01/M04 A2967 1260 78 -200 210/04 RMK AO2 T10061039 $
14926KSTC STC20190103180510801/03/19 18:05:31  5-MIN KSTC 040005Z 22003KT 10SM CLR M01/M04 A2967 1250 78 -300 220/03 RMK AO2 T10061039 $
14926KSTC STC20190103181010801/03/19 18:10:31  5-MIN KSTC 040010Z 22005KT 10SM CLR M01/M04 A2968 1250 78 -300 220/05 RMK AO2 T10111044 $
14926KSTC STC20190103181510801/03/19 18:15:31  5-MIN KSTC 040015Z 22005KT 10SM CLR M02/M04 A2968 1250 81 -400 220/05 RMK AO2 T10171044 $
14926KSTC STC20190103182010801/03/19 18:20:31  5-MIN KSTC 040020Z 21004KT 10SM CLR M02/M04 A2968 1250 81 -400 210/04 RMK AO2 T10171044 $
14926KSTC STC20190103182510801/03/19 18:25:31  5-MIN KSTC 040025Z 22004KT 10SM CLR M02/M04 A2968 1250 81 -400 220/04 RMK AO2 T10171044 $
14926KSTC STC20190103183010801/03/19 18:30:31  5-MIN KSTC 040030Z 21004KT 10SM CLR M02/M05 A2968 1250 81 -500 210/04 RMK AO2 T10221050 $
14926KSTC STC20190103183510801/03/19 18:35:31  5-MIN KSTC 040035Z 21005KT 10SM CLR M03/M05 A2969 1240 85 -500 210/05 RMK AO2 T10281050 $
14926KSTC STC20190103184010801/03/19 18:40:31  5-MIN KSTC 040040Z 20005KT 10SM CLR M02/M05 A2969 1240 81 -500 200/05 RMK AO2 T10221050 $
14926KSTC STC20190103184510801/03/19 18:45:31  5-MIN KSTC 040045Z 19007KT 10SM CLR M02/M04 A2969 1240 81 -400 190/07 RMK AO2 T10171044 $
14926KSTC STC20190103185011501/03/19 18:50:31  5-MIN KSTC 040050Z 20008KT 10SM CLR M01/M04 A2968 1250 78 -300 200/08 RMK AO2 SLP074 T10061039 $
14926KSTC STC20190103185510801/03/19 18:55:31  5-MIN KSTC 040055Z 20007KT 10SM CLR M01/M04 A2968 1250 78 -300 200/07 RMK AO2 T10061039 $
14926KSTC STC20190103190010801/03/19 19:00:31  5-MIN KSTC 040100Z 20008KT 10SM CLR M02/M04 A2969 1240 81 -400 200/08 RMK AO2 T10171044 $
14926KSTC STC20190103190510801/03/19 19:05:31  5-MIN KSTC 040105Z 20009KT 10SM CLR M01/M04 A2969 1240 78 -300 200/09 RMK AO2 T10111044 $
14926KSTC STC20190103191010801/03/19 19:10:31  5-MIN KSTC 040110Z 20008KT 10SM CLR M02/M04 A2969 1240 81 -400 200/08 RMK AO2 T10171044 $
14926KSTC STC20190103191510801/03/19 19:15:31  5-MIN KSTC 040115Z 21008KT 10SM CLR M02/M04 A2969 1240 81 -400 210/08 RMK AO2 T10171044 $
14926KSTC STC20190103192010801/03/19 19:20:31  5-MIN KSTC 040120Z 21008KT 10SM CLR M01/M04 A2969 1240 78 -300 200/08 RMK AO2 T10061039 $
14926KSTC STC20190103192510801/03/19 19:25:31  5-MIN KSTC 040125Z 21009KT 10SM CLR M01/M04 A2969 1240 81 -300 210/09 RMK AO2 T10111039 $
14926KSTC STC20190103193010801/03/19 19:30:31  5-MIN KSTC 040130Z 21008KT 10SM CLR M01/M04 A2969 1240 81 -300 210/08 RMK AO2 T10111039 $
14926KSTC STC20190103193510801/03/19 19:35:31  5-MIN KSTC 040135Z 21006KT 10SM CLR M01/M04 A2969 1240 78 -300 210/06 RMK AO2 T10061039 $
14926KSTC STC20190103194010801/03/19 19:40:31  5-MIN KSTC 040140Z 22006KT 10SM CLR M01/M04 A2969 1240 78 -300 220/06 RMK AO2 T10061039 $
14926KSTC STC20190103194510801/03/19 19:45:31  5-MIN KSTC 040145Z 23006KT 10SM CLR M01/M04 A2970 1230 81 -300 220/06 RMK AO2 T10111039 $
14926KSTC STC20190103195011501/03/19 19:50:31  5-MIN KSTC 040150Z 23005KT 10SM CLR M02/M04 A2969 1240 85 -400 230/05 RMK AO2 SLP079 T10171039 $
14926KSTC STC20190103195510801/03/19 19:55:31  5-MIN KSTC 040155Z 23006KT 10SM CLR M02/M04 A2970 1240 81 -400 230/06 RMK AO2 T10171044 $
14926KSTC STC20190103200010801/03/19 20:00:31  5-MIN KSTC 040200Z 23004KT 10SM CLR M02/M04 A2969 1240 81 -400 230/04 RMK AO2 T10171044 $
14926KSTC STC20190103200510801/03/19 20:05:31  5-MIN KSTC 040205Z 23007KT 10SM CLR M02/M04 A2969 1240 81 -400 230/07 RMK AO2 T10171044 $
14926KSTC STC20190103201010801/03/19 20:10:31  5-MIN KSTC 040210Z 20007KT 10SM CLR M01/M04 A2968 1250 81 -300 200/07 RMK AO2 T10111039 $
14926KSTC STC20190103201510801/03/19 20:15:31  5-MIN KSTC 040215Z 21006KT 10SM CLR M02/M04 A2968 1250 85 -500 210/06 RMK AO2 T10221044 $
14926KSTC STC20190103202010801/03/19 20:20:31  5-MIN KSTC 040220Z 20007KT 10SM CLR M02/M04 A2968 1250 85 -500 200/07 RMK AO2 T10221044 $
14926KSTC STC20190103202510801/03/19 20:25:31  5-MIN KSTC 040225Z 19007KT 10SM CLR M03/M05 A2968 1250 88 -600 190/07 RMK AO2 T10331050 $
14926KSTC STC20190103203010801/03/19 20:30:31  5-MIN KSTC 040230Z 20007KT 10SM CLR M03/M05 A2968 1250 85 -500 200/07 RMK AO2 T10281050 $
14926KSTC STC20190103203510801/03/19 20:35:31  5-MIN KSTC 040235Z 21007KT 10SM CLR M03/M05 A2968 1250 85 -500 210/07 RMK AO2 T10281050 $
14926KSTC STC20190103204010801/03/19 20:40:31  5-MIN KSTC 040240Z 20006KT 10SM CLR M02/M04 A2968 1250 85 -400 200/06 RMK AO2 T10171039 $
14926KSTC STC20190103204510801/03/19 20:45:31  5-MIN KSTC 040245Z 21006KT 10SM CLR M03/M04 A2968 1250 88 -500 210/06 RMK AO2 T10281044 $
14926KSTC STC20190103205011501/03/19 20:50:31  5-MIN KSTC 040250Z 21004KT 10SM CLR M03/M05 A2969 1240 85 -500 210/04 RMK AO2 SLP076 T10281050 $
14926KSTC STC20190103205510801/03/19 20:55:31  5-MIN KSTC 040255Z 21003KT 10SM CLR M03/M05 A2969 1240 85 -500 210/03 RMK AO2 T10281050 $
14926KSTC STC20190103210010801/03/19 21:00:31  5-MIN KSTC 040300Z 21004KT 10SM CLR M03/M05 A2969 1240 85 -500 210/04 RMK AO2 T10281050 $
14926KSTC STC20190103210510801/03/19 21:05:31  5-MIN KSTC 040305Z 22005KT 10SM CLR M02/M04 A2968 1240 81 -400 220/05 RMK AO2 T10171044 $
14926KSTC STC20190103211010801/03/19 21:10:31  5-MIN KSTC 040310Z 21006KT 10SM CLR M02/M04 A2968 1240 81 -400 210/06 RMK AO2 T10171044 $
14926KSTC STC20190103211510801/03/19 21:15:31  5-MIN KSTC 040315Z 21006KT 10SM CLR M02/M04 A2969 1240 85 -500 210/06 RMK AO2 T10221044 $
14926KSTC STC20190103212010801/03/19 21:20:31  5-MIN KSTC 040320Z 21007KT 10SM CLR M02/M04 A2969 1240 81 -400 210/07 RMK AO2 T10171044 $
14926KSTC STC20190103212510801/03/19 21:25:31  5-MIN KSTC 040325Z 22006KT 10SM CLR M01/M04 A2970 1230 81 -300 220/06 RMK AO2 T10111039 $
14926KSTC STC20190103213010801/03/19 21:30:31  5-MIN KSTC 040330Z 22006KT 10SM CLR M02/M04 A2970 1230 85 -400 220/06 RMK AO2 T10171039 $
14926KSTC STC20190103213510801/03/19 21:35:31  5-MIN KSTC 040335Z 23006KT 10SM CLR M02/M04 A2969 1240 85 -400 230/06 RMK AO2 T10171039 $
14926KSTC STC20190103214010801/03/19 21:40:31  5-MIN KSTC 040340Z 23006KT 10SM CLR M01/M04 A2970 1230 81 -300 220/06 RMK AO2 T10111039 $
14926KSTC STC20190103214510801/03/19 21:45:31  5-MIN KSTC 040345Z 23007KT 10SM CLR M02/M04 A2970 1230 85 -400 230/07 RMK AO2 T10171039 $
14926KSTC STC20190103215011501/03/19 21:50:31  5-MIN KSTC 040350Z 21006KT 10SM CLR M01/M04 A2969 1240 81 -300 210/06 RMK AO2 SLP076 T10111039 $
14926KSTC STC20190103215510801/03/19 21:55:31  5-MIN KSTC 040355Z 20008KT 10SM CLR M01/M04 A2969 1240 81 -300 200/08 RMK AO2 T10111039 $
14926KSTC STC20190103220010801/03/19 22:00:31  5-MIN KSTC 040400Z 21007KT 10SM CLR M02/M04 A2969 1240 85 -500 210/07 RMK AO2 T10221044 $
14926KSTC STC20190103220510801/03/19 22:05:31  5-MIN KSTC 040405Z 20009KT 10SM CLR M01/M04 A2968 1250 81 -300 200/09 RMK AO2 T10111039 $
14926KSTC STC20190103221010801/03/19 22:10:31  5-MIN KSTC 040410Z 19009KT 10SM CLR M02/M04 A2968 1250 85 -500 190/09 RMK AO2 T10221044 $
14926KSTC STC20190103221510801/03/19 22:15:31  5-MIN KSTC 040415Z 21008KT 10SM CLR M02/M04 A2969 1240 81 -400 210/08 RMK AO2 T10171044 $
14926KSTC STC20190103222010801/03/19 22:20:31  5-MIN KSTC 040420Z 21008KT 10SM CLR M01/M04 A2968 1250 81 -300 210/08 RMK AO2 T10111039 $
14926KSTC STC20190103222510801/03/19 22:25:31  5-MIN KSTC 040425Z 21008KT 10SM CLR M01/M04 A2968 1250 81 -300 210/08 RMK AO2 T10111039 $
14926KSTC STC20190103223010801/03/19 22:30:31  5-MIN KSTC 040430Z 21007KT 10SM CLR M01/M04 A2968 1250 81 -300 210/07 RMK AO2 T10111039 $
14926KSTC STC20190103223510801/03/19 22:35:31  5-MIN KSTC 040435Z 21007KT 10SM CLR M01/M04 A2968 1250 81 -300 210/07 RMK AO2 T10111039 $
14926KSTC STC20190103224010801/03/19 22:40:31  5-MIN KSTC 040440Z 21007KT 10SM CLR M01/M04 A2968 1250 81 -300 210/07 RMK AO2 T10111039 $
14926KSTC STC20190103224510801/03/19 22:45:31  5-MIN KSTC 040445Z 21007KT 10SM CLR M01/M04 A2968 1250 81 -300 210/07 RMK AO2 T10111039 $
14926KSTC STC20190103225011501/03/19 22:50:31  5-MIN KSTC 040450Z 21009KT 10SM CLR M01/M04 A2967 1260 81 -300 210/09 RMK AO2 SLP069 T10111039 $
14926KSTC STC20190103225511301/03/19 22:55:31  5-MIN KSTC 040455Z AUTO 21008KT 10SM CLR M01/M04 A2967 1260 81 -300 210/08 RMK AO2 T10111039 $
14926KSTC STC20190103230011301/03/19 23:00:31  5-MIN KSTC 040500Z AUTO 21008KT 10SM CLR M01/M04 A2967 1260 81 -300 210/08 RMK AO2 T10111039 $
14926KSTC STC20190103230511301/03/19 23:05:31  5-MIN KSTC 040505Z AUTO 21009KT 10SM CLR M01/M04 A2967 1260 81 -300 210/09 RMK AO2 T10111039 $
14926KSTC STC20190103231011301/03/19 23:10:31  5-MIN KSTC 040510Z AUTO 22008KT 10SM CLR M01/M04 A2967 1260 81 -300 220/08 RMK AO2 T10111039 $
14926KSTC STC20190103231511301/03/19 23:15:31  5-MIN KSTC 040515Z AUTO 22008KT 10SM CLR M01/M04 A2967 1260 81 -300 220/08 RMK AO2 T10111039 $
14926KSTC STC20190103232011301/03/19 23:20:31  5-MIN KSTC 040520Z AUTO 22007KT 10SM CLR M01/M04 A2967 1260 81 -300 220/07 RMK AO2 T10111039 $
14926KSTC STC20190103232511301/03/19 23:25:31  5-MIN KSTC 040525Z AUTO 22006KT 10SM CLR M02/M04 A2967 1260 85 -400 220/06 RMK AO2 T10171039 $
14926KSTC STC20190103233011301/03/19 23:30:31  5-MIN KSTC 040530Z AUTO 23006KT 10SM CLR M02/M04 A2967 1260 85 -400 230/06 RMK AO2 T10171039 $
14926KSTC STC20190103233511301/03/19 23:35:31  5-MIN KSTC 040535Z AUTO 22005KT 10SM CLR M02/M04 A2967 1260 85 -400 220/05 RMK AO2 T10171039 $
14926KSTC STC20190103234011301/03/19 23:40:31  5-MIN KSTC 040540Z AUTO 22004KT 10SM CLR M01/M04 A2967 1260 81 -300 220/04 RMK AO2 T10111039 $
14926KSTC STC20190103234511301/03/19 23:45:31  5-MIN KSTC 040545Z AUTO 24003KT 10SM CLR M02/M04 A2968 1250 85 -400 240/03 RMK AO2 T10171039 $
14926KSTC STC20190103235014801/03/19 23:50:31  5-MIN KSTC 040550Z AUTO 23005KT 10SM CLR M02/M04 A2968 1250 85 -500 230/05 RMK AO2 SLP072 T10221044 11006 21033 400281100 50004 $
14926KSTC STC20190103235511301/03/19 23:55:31  5-MIN KSTC 040555Z AUTO 22005KT 10SM CLR M02/M04 A2968 1250 85 -500 220/05 RMK AO2 T10221044 $
14926KSTC STC20190104000011301/04/19 00:00:31  5-MIN KSTC 040600Z AUTO 22006KT 10SM CLR M02/M04 A2968 1250 85 -500 220/06 RMK AO2 T10221044 $
14926KSTC STC20190104000511301/04/19 00:05:31  5-MIN KSTC 040605Z AUTO 22004KT 10SM CLR M02/M04 A2968 1250 81 -400 220/04 RMK AO2 T10171044 $
14926KSTC STC20190104001011301/04/19 00:10:31  5-MIN KSTC 040610Z AUTO 22004KT 10SM CLR M02/M04 A2968 1250 85 -500 220/04 RMK AO2 T10221044 $
14926KSTC STC20190104001511301/04/19 00:15:31  5-MIN KSTC 040615Z AUTO 23004KT 10SM CLR M02/M04 A2969 1240 81 -400 230/04 RMK AO2 T10171044 $
14926KSTC STC20190104002011301/04/19 00:20:31  5-MIN KSTC 040620Z AUTO 24004KT 10SM CLR M02/M04 A2969 1240 85 -500 240/04 RMK AO2 T10221044 $
14926KSTC STC20190104002511301/04/19 00:25:31  5-MIN KSTC 040625Z AUTO 24004KT 10SM CLR M02/M04 A2969 1240 85 -500 240/04 RMK AO2 T10221044 $
14926KSTC STC20190104003011301/04/19 00:30:31  5-MIN KSTC 040630Z AUTO 23004KT 10SM CLR M03/M04 A2969 1240 88 -500 230/04 RMK AO2 T10281044 $
14926KSTC STC20190104003511301/04/19 00:35:31  5-MIN KSTC 040635Z AUTO 21004KT 10SM CLR M03/M04 A2969 1240 88 -500 210/04 RMK AO2 T10281044 $
14926KSTC STC20190104004011301/04/19 00:40:31  5-MIN KSTC 040640Z AUTO 21005KT 10SM CLR M03/M05 A2969 1240 88 -600 210/05 RMK AO2 T10331050 $
14926KSTC STC20190104004511301/04/19 00:45:31  5-MIN KSTC 040645Z AUTO 20005KT 10SM CLR M04/M05 A2969 1240 92 -700 200/05 RMK AO2 T10391050 $
14926KSTC STC20190104005012001/04/19 00:50:31  5-MIN KSTC 040650Z AUTO 19004KT 10SM CLR M03/M05 A2969 1240 88 -600 190/04 RMK AO2 SLP076 T10331050 $
14926KSTC STC20190104005511301/04/19 00:55:31  5-MIN KSTC 040655Z AUTO 20004KT 10SM CLR M03/M04 A2970 1240 88 -600 200/04 RMK AO2 T10281044 $
14926KSTC STC20190104010011301/04/19 01:00:31  5-MIN KSTC 040700Z AUTO 19003KT 10SM CLR M03/M04 A2969 1240 88 -600 190/03 RMK AO2 T10281044 $
14926KSTC STC20190104010511301/04/19 01:05:31  5-MIN KSTC 040705Z AUTO 00000KT 10SM CLR M03/M04 A2969 1240 92 -600 000/00 RMK AO2 T10331044 $
14926KSTC STC20190104011011301/04/19 01:10:31  5-MIN KSTC 040710Z AUTO 18004KT 10SM CLR M03/M04 A2969 1240 92 -600 180/04 RMK AO2 T10331044 $
14926KSTC STC20190104011511301/04/19 01:15:31  5-MIN KSTC 040715Z AUTO 18004KT 10SM CLR M03/M04 A2969 1240 88 -500 180/04 RMK AO2 T10281044 $
14926KSTC STC20190104012011301/04/19 01:20:31  5-MIN KSTC 040720Z AUTO 19003KT 10SM CLR M03/M04 A2969 1240 88 -500 190/03 RMK AO2 T10281044 $
14926KSTC STC20190104012511301/04/19 01:25:31  5-MIN KSTC 040725Z AUTO 00000KT 10SM CLR M03/M04 A2969 1240 88 -600 000/00 RMK AO2 T10281044 $
14926KSTC STC20190104013011301/04/19 01:30:31  5-MIN KSTC 040730Z AUTO 20003KT 10SM CLR M03/M04 A2969 1240 88 -600 200/03 RMK AO2 T10281044 $
14926KSTC STC20190104013511301/04/19 01:35:31  5-MIN KSTC 040735Z AUTO 20004KT 10SM CLR M03/M04 A2969 1240 88 -600 200/04 RMK AO2 T10281044 $
14926KSTC STC20190104014011301/04/19 01:40:31  5-MIN KSTC 040740Z AUTO 20004KT 10SM CLR M03/M04 A2969 1240 92 -600 200/04 RMK AO2 T10331044 $
14926KSTC STC20190104014511301/04/19 01:45:31  5-MIN KSTC 040745Z AUTO 20005KT 10SM CLR M03/M05 A2969 1240 88 -600 200/05 RMK AO2 T10331050 $
14926KSTC STC20190104015012001/04/19 01:50:31  5-MIN KSTC 040750Z AUTO 21005KT 10SM CLR M03/M05 A2970 1240 88 -600 210/05 RMK AO2 SLP076 T10331050 $
14926KSTC STC20190104015511301/04/19 01:55:31  5-MIN KSTC 040755Z AUTO 21005KT 10SM CLR M03/M05 A2970 1240 88 -600 210/05 RMK AO2 T10331050 $
14926KSTC STC20190104020011301/04/19 02:00:31  5-MIN KSTC 040800Z AUTO 21005KT 10SM CLR M04/M06 A2969 1240 92 -800 210/05 RMK AO2 T10441056 $
14926KSTC STC20190104020511301/04/19 02:05:31  5-MIN KSTC 040805Z AUTO 20006KT 10SM CLR M04/M06 A2969 1240 92 -800 200/06 RMK AO2 T10441056 $
14926KSTC STC20190104021011301/04/19 02:10:31  5-MIN KSTC 040810Z AUTO 20006KT 10SM CLR M04/M06 A2970 1240 92 -800 200/06 RMK AO2 T10441056 $
14926KSTC STC20190104021511301/04/19 02:15:31  5-MIN KSTC 040815Z AUTO 19006KT 10SM CLR M04/M06 A2969 1240 88 -800 190/06 RMK AO2 T10441061 $
14926KSTC STC20190104022011301/04/19 02:20:31  5-MIN KSTC 040820Z AUTO 20006KT 10SM CLR M04/M06 A2969 1240 88 -800 190/06 RMK AO2 T10441061 $
14926KSTC STC20190104022511301/04/19 02:25:31  5-MIN KSTC 040825Z AUTO 20005KT 10SM CLR M04/M06 A2970 1230 88 -800 200/05 RMK AO2 T10441061 $
14926KSTC STC20190104023011301/04/19 02:30:31  5-MIN KSTC 040830Z AUTO 21006KT 10SM CLR M04/M06 A2970 1230 92 -800 200/06 RMK AO2 T10441056 $
14926KSTC STC20190104023511301/04/19 02:35:31  5-MIN KSTC 040835Z AUTO 21005KT 10SM CLR M05/M06 A2970 1240 92 -800 210/05 RMK AO2 T10501061 $
14926KSTC STC20190104024011301/04/19 02:40:31  5-MIN KSTC 040840Z AUTO 21005KT 10SM CLR M06/M07 A2970 1230 92 -900 210/05 RMK AO2 T10561067 $
14926KSTC STC20190104024511301/04/19 02:45:31  5-MIN KSTC 040845Z AUTO 21005KT 10SM CLR M05/M07 A2969 1240 88 -800 210/05 RMK AO2 T10501067 $
14926KSTC STC20190104025012601/04/19 02:50:31  5-MIN KSTC 040850Z AUTO 21006KT 10SM CLR M04/M06 A2969 1240 88 -800 210/06 RMK AO2 SLP076 T10441061 55002 $
14926KSTC STC20190104025511301/04/19 02:55:31  5-MIN KSTC 040855Z AUTO 21005KT 10SM CLR M04/M06 A2969 1240 88 -800 210/05 RMK AO2 T10441061 $
14926KSTC STC20190104030011301/04/19 03:00:31  5-MIN KSTC 040900Z AUTO 22004KT 10SM CLR M05/M06 A2969 1240 92 -800 220/04 RMK AO2 T10501061 $
14926KSTC STC20190104030511301/04/19 03:05:31  5-MIN KSTC 040905Z AUTO 21004KT 10SM CLR M05/M06 A2969 1240 92 -800 210/04 RMK AO2 T10501061 $
14926KSTC STC20190104031011301/04/19 03:10:31  5-MIN KSTC 040910Z AUTO 21005KT 10SM CLR M06/M07 A2969 1240 92 -900 200/05 RMK AO2 T10561067 $
14926KSTC STC20190104031511301/04/19 03:15:31  5-MIN KSTC 040915Z AUTO 20005KT 10SM CLR M05/M07 A2969 1240 88 -800 200/05 RMK AO2 T10501067 $
14926KSTC STC20190104032011301/04/19 03:20:31  5-MIN KSTC 040920Z AUTO 21006KT 10SM CLR M05/M06 A2969 1240 92 -800 210/06 RMK AO2 T10501061 $
14926KSTC STC20190104032511301/04/19 03:25:31  5-MIN KSTC 040925Z AUTO 22005KT 10SM CLR M04/M06 A2969 1240 88 -800 220/05 RMK AO2 T10441061 $
14926KSTC STC20190104033011301/04/19 03:30:31  5-MIN KSTC 040930Z AUTO 22004KT 10SM CLR M05/M06 A2969 1240 92 -800 220/04 RMK AO2 T10501061 $
14926KSTC STC20190104033511301/04/19 03:35:31  5-MIN KSTC 040935Z AUTO 00000KT 10SM CLR M06/M07 A2969 1240 92 -900 000/00 RMK AO2 T10561067 $
14926KSTC STC20190104034011301/04/19 03:40:31  5-MIN KSTC 040940Z AUTO 00000KT 10SM CLR M05/M07 A2969 1240 88 -800 000/00 RMK AO2 T10501067 $
14926KSTC STC20190104034511301/04/19 03:45:31  5-MIN KSTC 040945Z AUTO 00000KT 10SM CLR M05/M06 A2969 1240 92 -800 000/00 RMK AO2 T10501061 $
14926KSTC STC20190104035012001/04/19 03:50:31  5-MIN KSTC 040950Z AUTO 19003KT 10SM CLR M04/M06 A2969 1240 92 -800 190/03 RMK AO2 SLP074 T10441056 $
14926KSTC STC20190104035511301/04/19 03:55:31  5-MIN KSTC 040955Z AUTO 20004KT 10SM CLR M04/M05 A2969 1240 92 -700 200/04 RMK AO2 T10391050 $
14926KSTC STC20190104040011301/04/19 04:00:31  5-MIN KSTC 041000Z AUTO 20003KT 10SM CLR M04/M05 A2969 1240 92 -700 200/03 RMK AO2 T10391050 $
14926KSTC STC20190104040511301/04/19 04:05:31  5-MIN KSTC 041005Z AUTO 19003KT 10SM CLR M04/M05 A2969 1240 92 -700 190/03 RMK AO2 T10391050 $
14926KSTC STC20190104041011301/04/19 04:10:31  5-MIN KSTC 041010Z AUTO 19005KT 10SM CLR M04/M05 A2968 1250 92 -700 190/05 RMK AO2 T10391050 $
14926KSTC STC20190104041511301/04/19 04:15:31  5-MIN KSTC 041015Z AUTO 19004KT 10SM CLR M05/M06 A2968 1250 96 -800 190/04 RMK AO2 T10501056 $
14926KSTC STC20190104042011301/04/19 04:20:31  5-MIN KSTC 041020Z AUTO 20003KT 10SM CLR M04/M06 A2969 1240 92 -800 200/03 RMK AO2 T10441056 $
14926KSTC STC20190104042511301/04/19 04:25:31  5-MIN KSTC 041025Z AUTO 00000KT 10SM CLR M04/M05 A2968 1250 92 -700 000/00 RMK AO2 T10391050 $
14926KSTC STC20190104043011301/04/19 04:30:31  5-MIN KSTC 041030Z AUTO 00000KT 10SM CLR M04/M05 A2969 1240 92 -700 000/00 RMK AO2 T10391050 $
14926KSTC STC20190104043511301/04/19 04:35:31  5-MIN KSTC 041035Z AUTO 20003KT 10SM CLR M04/M05 A2969 1240 92 -700 200/03 RMK AO2 T10391050 $
14926KSTC STC20190104044011301/04/19 04:40:31  5-MIN KSTC 041040Z AUTO 20003KT 10SM CLR M04/M05 A2968 1250 96 -800 200/03 RMK AO2 T10441050 $
14926KSTC STC20190104044511301/04/19 04:45:31  5-MIN KSTC 041045Z AUTO 00000KT 10SM CLR M04/M05 A2968 1250 92 -700 000/00 RMK AO2 T10391050 $
14926KSTC STC20190104045012001/04/19 04:50:31  5-MIN KSTC 041050Z AUTO 20003KT 10SM CLR M04/M05 A2969 1240 92 -700 200/03 RMK AO2 SLP073 T10391050 $
14926KSTC STC20190104045511301/04/19 04:55:31  5-MIN KSTC 041055Z AUTO 00000KT 10SM CLR M04/M05 A2969 1240 92 -700 000/00 RMK AO2 T10391050 $
14926KSTC STC20190104050011301/04/19 05:00:31  5-MIN KSTC 041100Z AUTO 00000KT 10SM CLR M04/M05 A2969 1240 96 -800 000/00 RMK AO2 T10441050 $
14926KSTC STC20190104050511301/04/19 05:05:31  5-MIN KSTC 041105Z AUTO 00000KT 10SM CLR M04/M06 A2969 1240 92 -800 000/00 RMK AO2 T10441056 $
14926KSTC STC20190104051011301/04/19 05:10:31  5-MIN KSTC 041110Z AUTO 00000KT 10SM CLR M04/M06 A2969 1240 92 -800 000/00 RMK AO2 T10441056 $
14926KSTC STC20190104051511301/04/19 05:15:31  5-MIN KSTC 041115Z AUTO 22003KT 10SM CLR M04/M06 A2969 1240 92 -800 220/03 RMK AO2 T10441056 $
14926KSTC STC20190104052011301/04/19 05:20:31  5-MIN KSTC 041120Z AUTO 00000KT 10SM CLR M04/M06 A2969 1240 92 -800 000/00 RMK AO2 T10441056 $
14926KSTC STC20190104052511301/04/19 05:25:31  5-MIN KSTC 041125Z AUTO 21003KT 10SM CLR M04/M06 A2969 1240 92 -800 210/03 RMK AO2 T10441056 $
14926KSTC STC20190104053011301/04/19 05:30:31  5-MIN KSTC 041130Z AUTO 20004KT 10SM CLR M05/M06 A2969 1240 96 -800 200/04 RMK AO2 T10501056 $
14926KSTC STC20190104053511201/04/19 05:35:31  5-MIN KSTC 041135Z AUTO 20004KT 9SM CLR M06/M06 A2969 1240 96 -900 200/04 RMK AO2 T10561061 $
14926KSTC STC20190104054011401/04/19 05:40:31  5-MIN KSTC 041140Z AUTO 20005KT 8SM CLR M06/M06 A2969 1240 100 -1000 190/05 RMK AO2 T10611061 $
14926KSTC STC20190104054511301/04/19 05:45:31  5-MIN KSTC 041145Z AUTO 19004KT 8SM CLR M06/M07 A2969 1240 96 -1000 190/04 RMK AO2 T10611067 $
14926KSTC STC20190104055014901/04/19 05:50:31  5-MIN KSTC 041150Z AUTO 20005KT 9SM CLR M06/M07 A2969 1240 92 -900 200/05 RMK AO2 SLP077 I1000 I6000 T10561067 11017 21061 50004 $
14926KSTC STC20190104055511301/04/19 05:55:31  5-MIN KSTC 041155Z AUTO 20005KT 10SM CLR M06/M07 A2969 1240 92 -900 200/05 RMK AO2 T10561067 $
14926KSTC STC20190104060011401/04/19 06:00:31  5-MIN KSTC 041200Z AUTO 21003KT 10SM CLR M06/M07 A2969 1240 96 -1000 210/03 RMK AO2 T10611067 $
14926KSTC STC20190104060511301/04/19 06:05:31  5-MIN KSTC 041205Z AUTO 21003KT 10SM CLR M06/M07 A2970 1240 92 -900 210/03 RMK AO2 T10561067 $
14926KSTC STC20190104061011301/04/19 06:10:31  5-MIN KSTC 041210Z AUTO 21003KT 9SM CLR M07/M07 A2970 1240 96 -1100 210/03 RMK AO2 T10671072 $
14926KSTC STC20190104061511301/04/19 06:15:31  5-MIN KSTC 041215Z AUTO 00000KT 9SM CLR M07/M08 A2970 1230 92 -1100 000/00 RMK AO2 T10671078 $
14926KSTC STC20190104062011301/04/19 06:20:31  5-MIN KSTC 041220Z AUTO 22004KT 9SM CLR M07/M08 A2970 1230 92 -1100 220/04 RMK AO2 T10721083 $
14926KSTC STC20190104062510801/04/19 06:25:31  5-MIN KSTC 041225Z 23003KT 7SM CLR M07/M08 A2970 1230 92 -1100 230/03 RMK AO2 T10721083 $
14926KSTC STC20190104063011101/04/19 06:30:31  5-MIN KSTC 041230Z 22003KT 6SM BR CLR M07/M08 A2970 1240 92 -1100 220/03 RMK AO2 T10721083 $
14926KSTC STC20190104063511701/04/19 06:35:31  5-MIN KSTC 041235Z 21003KT 6SM BR CLR M07/M08 A2970 1230 92 -1100 210/03 RMK AO2 I1000 T10671078 $
14926KSTC STC20190104064011701/04/19 06:40:31  5-MIN KSTC 041240Z 22004KT 6SM BR CLR M07/M08 A2970 1230 92 -1100 220/04 RMK AO2 I1000 T10671078 $
14926KSTC STC20190104064511401/04/19 06:45:31  5-MIN KSTC 041245Z 22004KT 8SM CLR M07/M07 A2970 1230 96 -1100 210/04 RMK AO2 I1000 T10671072 $
14926KSTC STC20190104065012201/04/19 06:50:31  5-MIN KSTC 041250Z 20003KT 10SM CLR M07/M08 A2970 1240 92 -1100 200/03 RMK AO2 SLP079 I1000 T10671078 $
14926KSTC STC20190104065510801/04/19 06:55:31  5-MIN KSTC 041255Z 22003KT 9SM CLR M07/M07 A2970 1230 96 -1100 220/03 RMK AO2 T10671072 $
14926KSTC STC20190104070010801/04/19 07:00:31  5-MIN KSTC 041300Z 23003KT 9SM CLR M06/M07 A2970 1230 96 -1000 230/03 RMK AO2 T10611067 $
14926KSTC STC20190104070510801/04/19 07:05:31  5-MIN KSTC 041305Z 23003KT 10SM CLR M06/M07 A2970 1230 92 -900 230/03 RMK AO2 T10561067 $
14926KSTC STC20190104071010801/04/19 07:10:31  5-MIN KSTC 041310Z 00000KT 10SM CLR M06/M07 A2970 1230 92 -900 000/00 RMK AO2 T10561067 $
14926KSTC STC20190104071510801/04/19 07:15:31  5-MIN KSTC 041315Z 00000KT 10SM CLR M06/M06 A2970 1230 96 -900 000/00 RMK AO2 T10561061 $
14926KSTC STC20190104072010701/04/19 07:20:31  5-MIN KSTC 041320Z 00000KT 9SM CLR M06/M06 A2970 1230 96 -900 000/00 RMK AO2 T10561061 $
14926KSTC STC20190104072511601/04/19 07:25:31  5-MIN KSTC 041325Z 00000KT 5SM BR CLR M06/M07 A2970 1230 92 -900 000/00 RMK AO2 I1000 T10561067 $
14926KSTC STC20190104073011701/04/19 07:30:31  5-MIN KSTC 041330Z 00000KT 2SM BR CLR M06/M07 A2970 1230 96 -1000 000/00 RMK AO2 I1000 T10611067 $
14926KSTC STC20190104073511501/04/19 07:35:31  5-MIN KSTC 041335Z 00000KT 10SM CLR M07/M08 A2971 1220 92 -1100 000/00 RMK AO2 I1000 T10671078 $
14926KSTC STC20190104074011501/04/19 07:40:31  5-MIN KSTC 041340Z 00000KT 10SM CLR M07/M08 A2971 1230 92 -1100 000/00 RMK AO2 I1000 T10671078 $
14926KSTC STC20190104074511501/04/19 07:45:31  5-MIN KSTC 041345Z 00000KT 10SM CLR M07/M07 A2970 1230 96 -1100 000/00 RMK AO2 I1000 T10671072 $
14926KSTC STC20190104075012201/04/19 07:50:31  5-MIN KSTC 041350Z 15003KT 10SM CLR M08/M08 A2970 1230 96 -1200 150/03 RMK AO2 SLP081 I1000 T10781083 $
14926KSTC STC20190104075511101/04/19 07:55:31  5-MIN KSTC 041355Z 15003KT 1SM BR CLR M08/M09 A2970 1230 96 -1300 150/03 RMK AO2 T10831089 $
14926KSTC STC20190104080011101/04/19 08:00:31  5-MIN KSTC 041400Z 16003KT 5SM BR CLR M08/M09 A2970 1230 92 -1300 160/03 RMK AO2 T10831094 $
14926KSTC STC20190104080511101/04/19 08:05:31  5-MIN KSTC 041405Z 18003KT 5SM BR CLR M09/M09 A2970 1230 96 -1300 180/03 RMK AO2 T10891094 $
14926KSTC STC20190104081011101/04/19 08:10:31  5-MIN KSTC 041410Z 00000KT 5SM BR CLR M08/M09 A2971 1230 92 -1200 000/00 RMK AO2 T10781089 $
14926KSTC STC20190104081511101/04/19 08:15:31  5-MIN KSTC 041415Z 00000KT 5SM BR CLR M08/M09 A2970 1230 92 -1300 000/00 RMK AO2 T10831094 $
14926KSTC STC20190104082010901/04/19 08:20:31  5-MIN KSTC 041420Z 00000KT 10SM CLR M08/M09 A2971 1220 92 -1200 000/00 RMK AO2 T10781089 $
14926KSTC STC20190104082510901/04/19 08:25:31  5-MIN KSTC 041425Z 00000KT 10SM CLR M08/M09 A2971 1220 92 -1200 000/00 RMK AO2 T10781089 $
14926KSTC STC20190104083010701/04/19 08:30:31  5-MIN KSTC 041430Z 00000KT 10SM CLR M07/M08 A2971 1220 92 -1100 000/00 RMK AO2 T10721083
14926KSTC STC20190104083510701/04/19 08:35:31  5-MIN KSTC 041435Z 00000KT 10SM CLR M07/M08 A2971 1220 92 -1100 000/00 RMK AO2 T10671078
14926KSTC STC20190104084010701/04/19 08:40:31  5-MIN KSTC 041440Z 00000KT 10SM CLR M07/M07 A2972 1220 96 -1100 000/00 RMK AO2 T10671072
14926KSTC STC20190104084510701/04/19 08:45:31  5-MIN KSTC 041445Z 00000KT 10SM CLR M06/M07 A2971 1220 96 -1000 000/00 RMK AO2 T10611067
14926KSTC STC20190104085012601/04/19 08:50:31  5-MIN KSTC 041450Z 00000KT 10SM CLR M06/M07 A2972 1220 96 -1000 000/00 RMK AO2 SLP086 I3/// T10611067 53000
14926KSTC STC20190104085511001/04/19 08:55:31  5-MIN KSTC 041455Z 00000KT 2SM BR CLR M07/M07 A2972 1220 100 -1100 000/00 RMK AO2 T10671067
14926KSTC STC20190104090010701/04/19 09:00:31  5-MIN KSTC 041500Z 00000KT 10SM CLR M06/M07 A2972 1210 96 -1000 000/00 RMK AO2 T10611067
14926KSTC STC20190104090510601/04/19 09:05:31  5-MIN KSTC 041505Z 00000KT 10SM CLR M06/M06 A2972 1210 96 -900 000/00 RMK AO2 T10561061
14926KSTC STC20190104091010701/04/19 09:10:31  5-MIN KSTC 041510Z 00000KT 10SM CLR M06/M06 A2972 1210 100 -900 000/00 RMK AO2 T10561056
14926KSTC STC20190104091510601/04/19 09:15:31  5-MIN KSTC 041515Z 24003KT 10SM CLR M05/M06 A2972 1210 96 -900 240/03 RMK AO2 T10501056
14926KSTC STC20190104092010601/04/19 09:20:31  5-MIN KSTC 041520Z 00000KT 10SM CLR M05/M06 A2972 1210 96 -900 000/00 RMK AO2 T10501056
14926KSTC STC20190104092510701/04/19 09:25:31  5-MIN KSTC 041525Z 00000KT 10SM CLR M05/M05 A2972 1210 100 -900 000/00 RMK AO2 T10501050
14926KSTC STC20190104093010701/04/19 09:30:31  5-MIN KSTC 041530Z 00000KT 10SM CLR M04/M04 A2973 1210 100 -800 000/00 RMK AO2 T10441044
14926KSTC STC20190104093510701/04/19 09:35:31  5-MIN KSTC 041535Z 00000KT 10SM CLR M04/M04 A2972 1210 100 -800 000/00 RMK AO2 T10441044
14926KSTC STC20190104094010601/04/19 09:40:31  5-MIN KSTC 041540Z 00000KT 10SM CLR M04/M05 A2973 1210 96 -800 000/00 RMK AO2 T10441050
14926KSTC STC20190104094510701/04/19 09:45:31  5-MIN KSTC 041545Z 00000KT 10SM CLR M04/M04 A2973 1210 100 -800 000/00 RMK AO2 T10441044
14926KSTC STC20190104095011401/04/19 09:50:31  5-MIN KSTC 041550Z 00000KT 10SM CLR M04/M04 A2973 1200 100 -800 000/00 RMK AO2 SLP089 T10441044
14926KSTC STC20190104095510601/04/19 09:55:31  5-MIN KSTC 041555Z 00000KT 10SM CLR M04/M04 A2973 1200 96 -700 000/00 RMK AO2 T10391044
14926KSTC STC20190104100010601/04/19 10:00:31  5-MIN KSTC 041600Z 00000KT 10SM CLR M03/M04 A2973 1200 96 -700 000/00 RMK AO2 T10331039
14926KSTC STC20190104100510601/04/19 10:05:31  5-MIN KSTC 041605Z 00000KT 10SM CLR M03/M04 A2973 1200 96 -700 000/00 RMK AO2 T10331039
14926KSTC STC20190104101010601/04/19 10:10:31  5-MIN KSTC 041610Z 00000KT 10SM CLR M03/M04 A2973 1200 96 -700 000/00 RMK AO2 T10331039
14926KSTC STC20190104101510601/04/19 10:15:31  5-MIN KSTC 041615Z 00000KT 10SM CLR M03/M04 A2973 1200 92 -700 000/00 RMK AO2 T10331044
14926KSTC STC20190104102010601/04/19 10:20:31  5-MIN KSTC 041620Z 00000KT 10SM CLR M03/M04 A2973 1200 92 -600 000/00 RMK AO2 T10281039
14926KSTC STC20190104102510701/04/19 10:25:31  5-MIN KSTC 041625Z 15003KT 10SM CLR M04/M04 A2973 1200 100 -700 150/03 RMK AO2 T10391039
14926KSTC STC20190104103010601/04/19 10:30:31  5-MIN KSTC 041630Z 17003KT 10SM CLR M04/M04 A2973 1200 96 -700 170/03 RMK AO2 T10391044
14926KSTC STC20190104103510601/04/19 10:35:31  5-MIN KSTC 041635Z 17003KT 10SM CLR M03/M04 A2973 1200 92 -600 170/03 RMK AO2 T10281039
14926KSTC STC20190104104010601/04/19 10:40:31  5-MIN KSTC 041640Z 17003KT 10SM CLR M03/M04 A2973 1200 92 -600 170/03 RMK AO2 T10281039
14926KSTC STC20190104104510601/04/19 10:45:31  5-MIN KSTC 041645Z 19003KT 10SM CLR M02/M03 A2973 1200 92 -500 190/03 RMK AO2 T10221033
14926KSTC STC20190104105011301/04/19 10:50:31  5-MIN KSTC 041650Z 19003KT 10SM CLR M02/M03 A2974 1200 88 -500 190/03 RMK AO2 SLP090 T10171033
14926KSTC STC20190104105510601/04/19 10:55:31  5-MIN KSTC 041655Z 18003KT 10SM CLR M01/M03 A2973 1200 85 -400 170/03 RMK AO2 T10111033
14926KSTC STC20190104110010601/04/19 11:00:31  5-MIN KSTC 041700Z 18003KT 10SM CLR M01/M03 A2973 1200 85 -400 180/03 RMK AO2 T10111033
14926KSTC STC20190104110510601/04/19 11:05:31  5-MIN KSTC 041705Z 18003KT 10SM CLR M01/M03 A2973 1200 85 -400 180/03 RMK AO2 T10111033
14926KSTC STC20190104111010601/04/19 11:10:31  5-MIN KSTC 041710Z 20004KT 10SM CLR M01/M03 A2973 1200 85 -400 200/04 RMK AO2 T10111033
14926KSTC STC20190104111510601/04/19 11:15:31  5-MIN KSTC 041715Z 18003KT 10SM CLR M01/M03 A2973 1200 85 -400 180/03 RMK AO2 T10111033
14926KSTC STC20190104112010501/04/19 11:20:31  5-MIN KSTC 041720Z 16003KT 10SM CLR 00/M03 A2972 1210 81 -200 150/03 RMK AO2 T00001028
14926KSTC STC20190104112510501/04/19 11:25:31  5-MIN KSTC 041725Z 14003KT 10SM CLR 00/M03 A2972 1210 81 -200 140/03 RMK AO2 T00001028
14926KSTC STC20190104113010501/04/19 11:30:31  5-MIN KSTC 041730Z 15004KT 10SM CLR 00/M03 A2971 1220 81 -200 150/04 RMK AO2 T00001028
14926KSTC STC20190104113510501/04/19 11:35:31  5-MIN KSTC 041735Z 15004KT 10SM CLR 01/M03 A2971 1220 78 -200 150/04 RMK AO2 T00061028
14926KSTC STC20190104114010501/04/19 11:40:31  5-MIN KSTC 041740Z 15003KT 10SM CLR 01/M03 A2971 1220 75 -100 150/03 RMK AO2 T00111028
14926KSTC STC20190104114510501/04/19 11:45:31  5-MIN KSTC 041745Z 00000KT 10SM CLR 01/M03 A2971 1220 75 -100 000/00 RMK AO2 T00111028
14926KSTC STC20190104115013601/04/19 11:50:31  5-MIN KSTC 041750Z 00000KT 10SM CLR 01/M02 A2970 1230 78 -100 000/00 RMK AO2 SLP079 I6000 T00111022 10011 21089 53007
14926KSTC STC20190104115510501/04/19 11:55:31  5-MIN KSTC 041755Z 15003KT 10SM CLR 01/M02 A2970 1230 78 -100 150/03 RMK AO2 T00111022
14926KSTC STC20190104120010201/04/19 12:00:31  5-MIN KSTC 041800Z 00000KT 10SM CLR 02/M02 A2971 1220 75 0 000/00 RMK AO2 T00171022
14926KSTC STC20190104120510201/04/19 12:05:31  5-MIN KSTC 041805Z 20003KT 10SM CLR 02/M02 A2970 1230 75 0 200/03 RMK AO2 T00171022
14926KSTC STC20190104121010201/04/19 12:10:31  5-MIN KSTC 041810Z 19003KT 10SM CLR 02/M02 A2970 1230 72 0 190/03 RMK AO2 T00221022
14926KSTC STC20190104121510201/04/19 12:15:31  5-MIN KSTC 041815Z 22003KT 10SM CLR 02/M02 A2970 1230 75 0 220/03 RMK AO2 T00221017
14926KSTC STC20190104122010201/04/19 12:20:31  5-MIN KSTC 041820Z 20003KT 10SM CLR 02/M02 A2969 1240 75 0 200/03 RMK AO2 T00221017
14926KSTC STC20190104122510201/04/19 12:25:31  5-MIN KSTC 041825Z 19003KT 10SM CLR 02/M02 A2969 1240 75 0 190/03 RMK AO2 T00221017
14926KSTC STC20190104123010201/04/19 12:30:31  5-MIN KSTC 041830Z 19003KT 10SM CLR 02/M02 A2969 1240 75 0 190/03 RMK AO2 T00221017
14926KSTC STC20190104123510201/04/19 12:35:31  5-MIN KSTC 041835Z 20003KT 10SM CLR 02/M02 A2969 1240 75 0 200/03 RMK AO2 T00221017
14926KSTC STC20190104124010401/04/19 12:40:31  5-MIN KSTC 041840Z 19003KT 10SM CLR 03/M02 A2970 1240 72 100 190/03 RMK AO2 T00281017
14926KSTC STC20190104124510401/04/19 12:45:31  5-MIN KSTC 041845Z 17004KT 10SM CLR 03/M02 A2969 1240 72 100 170/04 RMK AO2 T00281017
14926KSTC STC20190104125010901/04/19 12:50:31  5-MIN KSTC 041850Z 17003KT 10SM CLR 02/M02 A2969 1240 75 0 160/03 RMK AO2 SLP074 T00221017
14926KSTC STC20190104125510201/04/19 12:55:31  5-MIN KSTC 041855Z 17004KT 10SM CLR 02/M02 A2969 1240 75 0 170/04 RMK AO2 T00221017
14926KSTC STC20190104130010401/04/19 13:00:31  5-MIN KSTC 041900Z 17003KT 10SM CLR 03/M02 A2969 1240 72 100 170/03 RMK AO2 T00281017
14926KSTC STC20190104130510201/04/19 13:05:31  5-MIN KSTC 041905Z 18004KT 10SM CLR 02/M02 A2969 1240 75 0 180/04 RMK AO2 T00221017
14926KSTC STC20190104131010401/04/19 13:10:31  5-MIN KSTC 041910Z 19004KT 10SM CLR 03/M02 A2969 1240 72 100 190/04 RMK AO2 T00281017
14926KSTC STC20190104131510401/04/19 13:15:31  5-MIN KSTC 041915Z 20004KT 10SM CLR 03/M02 A2969 1240 70 200 200/04 RMK AO2 T00331017
14926KSTC STC20190104132010401/04/19 13:20:31  5-MIN KSTC 041920Z 19005KT 10SM CLR 03/M02 A2969 1240 70 200 190/05 RMK AO2 T00331017
14926KSTC STC20190104132510401/04/19 13:25:31  5-MIN KSTC 041925Z 18005KT 10SM CLR 03/M01 A2968 1250 75 100 180/05 RMK AO2 T00281011
14926KSTC STC20190104133010401/04/19 13:30:31  5-MIN KSTC 041930Z 19006KT 10SM CLR 03/M01 A2968 1250 72 200 190/06 RMK AO2 T00331011
14926KSTC STC20190104133510401/04/19 13:35:31  5-MIN KSTC 041935Z 19005KT 10SM CLR 03/M01 A2969 1240 72 200 190/05 RMK AO2 T00331011
14926KSTC STC20190104134010401/04/19 13:40:31  5-MIN KSTC 041940Z 20006KT 10SM CLR 03/M01 A2968 1240 72 200 190/06 RMK AO2 T00331011
14926KSTC STC20190104134510401/04/19 13:45:31  5-MIN KSTC 041945Z 19006KT 10SM CLR 03/M01 A2968 1250 72 200 190/06 RMK AO2 T00331011
14926KSTC STC20190104135011101/04/19 13:50:31  5-MIN KSTC 041950Z 19006KT 10SM CLR 04/M01 A2968 1250 70 200 190/06 RMK AO2 SLP070 T00391011
14926KSTC STC20190104135510401/04/19 13:55:31  5-MIN KSTC 041955Z 19007KT 10SM CLR 04/M01 A2968 1250 70 200 190/07 RMK AO2 T00391011
14926KSTC STC20190104140010401/04/19 14:00:31  5-MIN KSTC 042000Z 20007KT 10SM CLR 04/M01 A2968 1250 70 200 200/07 RMK AO2 T00391011
14926KSTC STC20190104140510401/04/19 14:05:31  5-MIN KSTC 042005Z 19008KT 10SM CLR 04/M01 A2968 1250 70 200 190/08 RMK AO2 T00391011
14926KSTC STC20190104141010401/04/19 14:10:31  5-MIN KSTC 042010Z 20007KT 10SM CLR 03/M01 A2968 1250 72 200 200/07 RMK AO2 T00331011
14926KSTC STC20190104141510401/04/19 14:15:31  5-MIN KSTC 042015Z 20008KT 10SM CLR 04/M01 A2968 1250 70 200 200/08 RMK AO2 T00391011
14926KSTC STC20190104142010401/04/19 14:20:31  5-MIN KSTC 042020Z 19009KT 10SM CLR 04/M01 A2968 1250 70 200 190/09 RMK AO2 T00391011
14926KSTC STC20190104142510401/04/19 14:25:31  5-MIN KSTC 042025Z 19008KT 10SM CLR 04/M01 A2968 1250 70 200 190/08 RMK AO2 T00391011
14926KSTC STC20190104143010401/04/19 14:30:31  5-MIN KSTC 042030Z 20009KT 10SM CLR 03/M01 A2969 1240 72 200 200/09 RMK AO2 T00331011
14926KSTC STC20190104143510401/04/19 14:35:31  5-MIN KSTC 042035Z 20009KT 10SM CLR 03/M01 A2968 1250 72 200 190/09 RMK AO2 T00331011
14926KSTC STC20190104144010401/04/19 14:40:31  5-MIN KSTC 042040Z 19010KT 10SM CLR 03/M01 A2968 1250 72 200 190/10 RMK AO2 T00331011
14926KSTC STC20190104144510401/04/19 14:45:31  5-MIN KSTC 042045Z 20008KT 10SM CLR 04/M01 A2968 1250 70 200 200/08 RMK AO2 T00391011
14926KSTC STC20190104145011701/04/19 14:50:31  5-MIN KSTC 042050Z 20008KT 10SM CLR 04/M01 A2969 1240 70 200 200/08 RMK AO2 SLP073 T00391011 58005
14926KSTC STC20190104145510401/04/19 14:55:31  5-MIN KSTC 042055Z 21007KT 10SM CLR 04/M02 A2969 1240 67 200 210/07 RMK AO2 T00391017
14926KSTC STC20190104150010401/04/19 15:00:31  5-MIN KSTC 042100Z 20008KT 10SM CLR 04/M02 A2968 1250 67 200 200/08 RMK AO2 T00391017
14926KSTC STC20190104150510401/04/19 15:05:31  5-MIN KSTC 042105Z 19008KT 10SM CLR 04/M01 A2968 1250 70 200 190/08 RMK AO2 T00391011
14926KSTC STC20190104151010401/04/19 15:10:31  5-MIN KSTC 042110Z 19008KT 10SM CLR 04/M01 A2968 1250 70 200 190/08 RMK AO2 T00391011
14926KSTC STC20190104151510401/04/19 15:15:31  5-MIN KSTC 042115Z 19007KT 10SM CLR 03/M01 A2968 1250 72 200 190/07 RMK AO2 T00331011
14926KSTC STC20190104152010401/04/19 15:20:31  5-MIN KSTC 042120Z 20006KT 10SM CLR 03/M01 A2968 1250 72 200 200/06 RMK AO2 T00331011
14926KSTC STC20190104152510401/04/19 15:25:31  5-MIN KSTC 042125Z 22005KT 10SM CLR 04/M02 A2968 1250 67 200 220/05 RMK AO2 T00391017
14926KSTC STC20190104153010401/04/19 15:30:31  5-MIN KSTC 042130Z 21005KT 10SM CLR 04/M02 A2968 1250 67 200 210/05 RMK AO2 T00391017
14926KSTC STC20190104153510401/04/19 15:35:31  5-MIN KSTC 042135Z 21005KT 10SM CLR 03/M01 A2968 1250 72 200 210/05 RMK AO2 T00331011
14926KSTC STC20190104154010401/04/19 15:40:31  5-MIN KSTC 042140Z 21005KT 10SM CLR 04/M02 A2968 1250 67 200 210/05 RMK AO2 T00391017
14926KSTC STC20190104154510401/04/19 15:45:31  5-MIN KSTC 042145Z 22005KT 10SM CLR 04/M02 A2968 1250 64 300 220/05 RMK AO2 T00441017
14926KSTC STC20190104155011101/04/19 15:50:31  5-MIN KSTC 042150Z 21005KT 10SM CLR 04/M02 A2968 1250 67 200 210/05 RMK AO2 SLP070 T00391017
14926KSTC STC20190104155510401/04/19 15:55:31  5-MIN KSTC 042155Z 20006KT 10SM CLR 04/M02 A2968 1250 67 200 200/06 RMK AO2 T00391017
14926KSTC STC20190104160010401/04/19 16:00:31  5-MIN KSTC 042200Z 21005KT 10SM CLR 04/M02 A2968 1250 67 200 210/05 RMK AO2 T00391017
14926KSTC STC20190104160510401/04/19 16:05:31  5-MIN KSTC 042205Z 22004KT 10SM CLR 04/M02 A2968 1250 67 200 220/04 RMK AO2 T00391017
14926KSTC STC20190104161010401/04/19 16:10:31  5-MIN KSTC 042210Z 24005KT 10SM CLR 04/M02 A2969 1240 67 200 240/05 RMK AO2 T00391017
14926KSTC STC20190104161510401/04/19 16:15:31  5-MIN KSTC 042215Z 26005KT 10SM CLR 03/M02 A2969 1240 70 200 260/05 RMK AO2 T00331017
14926KSTC STC20190104162010401/04/19 16:20:31  5-MIN KSTC 042220Z 26004KT 10SM CLR 03/M02 A2969 1240 72 100 260/04 RMK AO2 T00281017
14926KSTC STC20190104162510401/04/19 16:25:31  5-MIN KSTC 042225Z 25004KT 10SM CLR 03/M02 A2969 1240 72 100 250/04 RMK AO2 T00281017
14926KSTC STC20190104163010401/04/19 16:30:31  5-MIN KSTC 042230Z 24003KT 10SM CLR 03/M02 A2969 1240 70 200 240/03 RMK AO2 T00331017
14926KSTC STC20190104163510401/04/19 16:35:31  5-MIN KSTC 042235Z 23003KT 10SM CLR 03/M02 A2969 1240 70 200 230/03 RMK AO2 T00331017
14926KSTC STC20190104164010401/04/19 16:40:31  5-MIN KSTC 042240Z 23003KT 10SM CLR 03/M02 A2969 1240 72 100 230/03 RMK AO2 T00281017
14926KSTC STC20190104164510201/04/19 16:45:31  5-MIN KSTC 042245Z 00000KT 10SM CLR 02/M02 A2969 1240 72 0 000/00 RMK AO2 T00221022
14926KSTC STC20190104165010901/04/19 16:50:31  5-MIN KSTC 042250Z 00000KT 10SM CLR 02/M02 A2969 1240 75 0 000/00 RMK AO2 SLP072 T00221017
14926KSTC STC20190104165510201/04/19 16:55:31  5-MIN KSTC 042255Z 21003KT 10SM CLR 02/M02 A2969 1240 75 0 210/03 RMK AO2 T00221017
14926KSTC STC20190104170010201/04/19 17:00:31  5-MIN KSTC 042300Z 20003KT 10SM CLR 02/M02 A2968 1250 75 0 200/03 RMK AO2 T00171022
14926KSTC STC20190104170510501/04/19 17:05:31  5-MIN KSTC 042305Z 20005KT 10SM CLR 01/M02 A2969 1240 78 -100 200/05 RMK AO2 T00111022
14926KSTC STC20190104171010501/04/19 17:10:31  5-MIN KSTC 042310Z 20005KT 10SM CLR 01/M02 A2968 1250 82 -100 200/05 RMK AO2 T00061022
14926KSTC STC20190104171510501/04/19 17:15:31  5-MIN KSTC 042315Z 21005KT 10SM CLR 01/M02 A2969 1240 78 -100 210/05 RMK AO2 T00111022
14926KSTC STC20190104172010501/04/19 17:20:31  5-MIN KSTC 042320Z 21005KT 10SM CLR 01/M02 A2969 1240 78 -100 210/05 RMK AO2 T00111022
14926KSTC STC20190104172510501/04/19 17:25:31  5-MIN KSTC 042325Z 21005KT 10SM CLR 01/M03 A2968 1250 75 -100 200/05 RMK AO2 T00111028
14926KSTC STC20190104173010201/04/19 17:30:31  5-MIN KSTC 042330Z 21006KT 10SM CLR 02/M02 A2968 1250 75 0 210/06 RMK AO2 T00171022
14926KSTC STC20190104173510501/04/19 17:35:31  5-MIN KSTC 042335Z 21005KT 10SM CLR 01/M03 A2968 1250 75 -100 210/05 RMK AO2 T00111028
14926KSTC STC20190104174010501/04/19 17:40:31  5-MIN KSTC 042340Z 21005KT 10SM CLR 01/M03 A2968 1250 78 -100 210/05 RMK AO2 T00061028
14926KSTC STC20190104174510501/04/19 17:45:31  5-MIN KSTC 042345Z 21004KT 10SM CLR 01/M03 A2969 1240 75 -100 210/04 RMK AO2 T00111028
14926KSTC STC20190104175013001/04/19 17:50:31  5-MIN KSTC 042350Z 22005KT 10SM CLR 01/M03 A2969 1240 78 -100 220/05 RMK AO2 SLP075 T00061028 10044 20006 55004
14926KSTC STC20190104175510501/04/19 17:55:31  5-MIN KSTC 042355Z 23005KT 10SM CLR 01/M02 A2968 1250 78 -100 220/05 RMK AO2 T00111022
14926KSTC STC20190104180010501/04/19 18:00:31  5-MIN KSTC 050000Z 22005KT 10SM CLR 01/M03 A2968 1250 75 -100 220/05 RMK AO2 T00111028
14926KSTC STC20190104180510201/04/19 18:05:31  5-MIN KSTC 050005Z 22003KT 10SM CLR 01/M02 A2968 1250 78 0 220/03 RMK AO2 T00111022
14926KSTC STC20190104181010501/04/19 18:10:31  5-MIN KSTC 050010Z 21004KT 10SM CLR 00/M03 A2968 1250 81 -200 210/04 RMK AO2 T00001028
14926KSTC STC20190104181510501/04/19 18:15:31  5-MIN KSTC 050015Z 21003KT 10SM CLR 01/M03 A2968 1250 78 -100 210/03 RMK AO2 T00061028
14926KSTC STC20190104182010501/04/19 18:20:31  5-MIN KSTC 050020Z 23003KT 10SM CLR 00/M03 A2968 1250 81 -200 230/03 RMK AO2 T00001028
14926KSTC STC20190104182510501/04/19 18:25:31  5-MIN KSTC 050025Z 24003KT 10SM CLR 00/M03 A2969 1240 81 -200 240/03 RMK AO2 T00001028
14926KSTC STC20190104183010501/04/19 18:30:31  5-MIN KSTC 050030Z 25004KT 10SM CLR 00/M03 A2969 1240 81 -200 250/04 RMK AO2 T00001028
14926KSTC STC20190104183510501/04/19 18:35:31  5-MIN KSTC 050035Z 26005KT 10SM CLR 00/M03 A2969 1240 81 -200 260/05 RMK AO2 T00001028
14926KSTC STC20190104184010601/04/19 18:40:31  5-MIN KSTC 050040Z 25005KT 10SM CLR M01/M03 A2969 1240 81 -300 250/05 RMK AO2 T10061033
14926KSTC STC20190104184510601/04/19 18:45:31  5-MIN KSTC 050045Z 25005KT 10SM CLR M01/M03 A2969 1240 85 -300 250/05 RMK AO2 T10111033
14926KSTC STC20190104185011301/04/19 18:50:31  5-MIN KSTC 050050Z 24005KT 10SM CLR M01/M03 A2969 1240 85 -300 240/05 RMK AO2 SLP078 T10111033
14926KSTC STC20190104185510601/04/19 18:55:31  5-MIN KSTC 050055Z 23004KT 10SM CLR M01/M03 A2969 1240 85 -300 230/04 RMK AO2 T10111033
14926KSTC STC20190104190010601/04/19 19:00:31  5-MIN KSTC 050100Z 00000KT 10SM CLR M01/M03 A2969 1240 81 -300 000/00 RMK AO2 T10061033
14926KSTC STC20190104190510601/04/19 19:05:31  5-MIN KSTC 050105Z 00000KT 10SM CLR M01/M03 A2969 1240 81 -300 000/00 RMK AO2 T10061033
14926KSTC STC20190104191010601/04/19 19:10:31  5-MIN KSTC 050110Z 00000KT 10SM CLR M01/M03 A2969 1240 85 -300 000/00 RMK AO2 T10111033
14926KSTC STC20190104191510601/04/19 19:15:31  5-MIN KSTC 050115Z 23003KT 10SM CLR M01/M03 A2969 1240 81 -300 230/03 RMK AO2 T10061033
14926KSTC STC20190104192010601/04/19 19:20:31  5-MIN KSTC 050120Z 23003KT 10SM CLR M01/M03 A2969 1240 85 -300 230/03 RMK AO2 T10111033
14926KSTC STC20190104192510601/04/19 19:25:31  5-MIN KSTC 050125Z 23003KT 10SM CLR M01/M03 A2969 1240 85 -300 230/03 RMK AO2 T10111033
14926KSTC STC20190104193010601/04/19 19:30:31  5-MIN KSTC 050130Z 23003KT 10SM CLR M01/M03 A2970 1230 85 -300 230/03 RMK AO2 T10111033
14926KSTC STC20190104193510601/04/19 19:35:31  5-MIN KSTC 050135Z 22003KT 10SM CLR M02/M03 A2970 1240 88 -400 220/03 RMK AO2 T10171033
14926KSTC STC20190104194010601/04/19 19:40:31  5-MIN KSTC 050140Z 21003KT 10SM CLR M02/M04 A2969 1240 88 -500 210/03 RMK AO2 T10221039
14926KSTC STC20190104194510601/04/19 19:45:31  5-MIN KSTC 050145Z 22003KT 10SM CLR M02/M03 A2969 1240 92 -500 220/03 RMK AO2 T10221033
14926KSTC STC20190104195011301/04/19 19:50:31  5-MIN KSTC 050150Z 22003KT 10SM CLR M02/M04 A2969 1240 88 -500 220/03 RMK AO2 SLP078 T10221039
14926KSTC STC20190104195510601/04/19 19:55:31  5-MIN KSTC 050155Z 21003KT 10SM CLR M02/M04 A2969 1240 88 -500 210/03 RMK AO2 T10221039
14926KSTC STC20190104200010601/04/19 20:00:31  5-MIN KSTC 050200Z 23003KT 10SM CLR M02/M04 A2970 1230 88 -500 230/03 RMK AO2 T10221039
14926KSTC STC20190104200510601/04/19 20:05:31  5-MIN KSTC 050205Z 23003KT 10SM CLR M03/M04 A2970 1230 92 -600 230/03 RMK AO2 T10281039
14926KSTC STC20190104201010601/04/19 20:10:31  5-MIN KSTC 050210Z 25004KT 10SM CLR M03/M04 A2970 1230 92 -600 250/04 RMK AO2 T10331044
14926KSTC STC20190104201510601/04/19 20:15:31  5-MIN KSTC 050215Z 00000KT 10SM CLR M04/M05 A2970 1230 92 -700 000/00 RMK AO2 T10391050
14926KSTC STC20190104202010601/04/19 20:20:31  5-MIN KSTC 050220Z 25003KT 10SM CLR M03/M04 A2970 1230 88 -600 240/03 RMK AO2 T10281044
14926KSTC STC20190104202510601/04/19 20:25:31  5-MIN KSTC 050225Z 25003KT 10SM CLR M02/M04 A2970 1230 85 -500 250/03 RMK AO2 T10221044
14926KSTC STC20190104203010601/04/19 20:30:31  5-MIN KSTC 050230Z 24003KT 10SM CLR M02/M04 A2970 1230 88 -500 240/03 RMK AO2 T10221039
14926KSTC STC20190104203510601/04/19 20:35:31  5-MIN KSTC 050235Z 26003KT 10SM CLR M03/M04 A2970 1230 92 -600 260/03 RMK AO2 T10281039
14926KSTC STC20190104204010601/04/19 20:40:31  5-MIN KSTC 050240Z 25003KT 10SM CLR M03/M04 A2970 1230 88 -600 250/03 RMK AO2 T10281044
14926KSTC STC20190104204510601/04/19 20:45:31  5-MIN KSTC 050245Z 00000KT 10SM CLR M02/M04 A2970 1230 85 -500 000/00 RMK AO2 T10221044
14926KSTC STC20190104205011901/04/19 20:50:31  5-MIN KSTC 050250Z 00000KT 10SM CLR M02/M04 A2970 1230 88 -500 000/00 RMK AO2 SLP079 T10221039 56001
14926KSTC STC20190104205510601/04/19 20:55:31  5-MIN KSTC 050255Z 24003KT 10SM CLR M02/M04 A2970 1230 88 -500 240/03 RMK AO2 T10221039
14926KSTC STC20190104210010601/04/19 21:00:31  5-MIN KSTC 050300Z 00000KT 10SM CLR M03/M04 A2970 1230 92 -600 000/00 RMK AO2 T10281039
14926KSTC STC20190104210510501/04/19 21:05:31  5-MIN KSTC 050305Z 00000KT 9SM CLR M03/M04 A2970 1230 92 -600 000/00 RMK AO2 T10281039
14926KSTC STC20190104211010601/04/19 21:10:31  5-MIN KSTC 050310Z 00000KT 10SM CLR M02/M04 A2970 1230 88 -500 000/00 RMK AO2 T10221039
14926KSTC STC20190104211510601/04/19 21:15:31  5-MIN KSTC 050315Z 00000KT 10SM CLR M02/M04 A2969 1240 88 -500 000/00 RMK AO2 T10221039
14926KSTC STC20190104212010501/04/19 21:20:31  5-MIN KSTC 050320Z 00000KT 9SM CLR M03/M04 A2970 1230 92 -600 000/00 RMK AO2 T10281039
14926KSTC STC20190104212510501/04/19 21:25:31  5-MIN KSTC 050325Z 00000KT 9SM CLR M03/M04 A2970 1230 92 -600 000/00 RMK AO2 T10281039
14926KSTC STC20190104213010501/04/19 21:30:31  5-MIN KSTC 050330Z 00000KT 8SM CLR M03/M04 A2970 1240 96 -600 000/00 RMK AO2 T10331039
14926KSTC STC20190104213510501/04/19 21:35:31  5-MIN KSTC 050335Z 22003KT 7SM CLR M04/M04 A2969 1240 96 -700 220/03 RMK AO2 T10391044
14926KSTC STC20190104214010801/04/19 21:40:31  5-MIN KSTC 050340Z 21003KT 6SM BR CLR M04/M05 A2969 1240 96 -800 210/03 RMK AO2 T10441050
14926KSTC STC20190104214510901/04/19 21:45:31  5-MIN KSTC 050345Z 20003KT 6SM BR CLR M04/M04 A2969 1240 100 -800 200/03 RMK AO2 T10441044
14926KSTC STC20190104215011201/04/19 21:50:31  5-MIN KSTC 050350Z 00000KT 7SM CLR M03/M04 A2969 1240 92 -600 000/00 RMK AO2 SLP076 T10331044
14926KSTC STC20190104215510601/04/19 21:55:31  5-MIN KSTC 050355Z 00000KT 10SM CLR M04/M04 A2969 1240 96 -700 000/00 RMK AO2 T10391044
14926KSTC STC20190104220010601/04/19 22:00:31  5-MIN KSTC 050400Z 00000KT 10SM CLR M04/M04 A2969 1240 96 -700 000/00 RMK AO2 T10391044
14926KSTC STC20190104220510501/04/19 22:05:31  5-MIN KSTC 050405Z 20003KT 7SM CLR M04/M05 A2969 1240 96 -800 200/03 RMK AO2 T10441050
14926KSTC STC20190104221010801/04/19 22:10:31  5-MIN KSTC 050410Z 20004KT 6SM BR CLR M05/M06 A2969 1240 96 -800 200/04 RMK AO2 T10501056
14926KSTC STC20190104221510501/04/19 22:15:31  5-MIN KSTC 050415Z 21004KT 7SM CLR M04/M05 A2969 1240 96 -800 210/04 RMK AO2 T10441050
14926KSTC STC20190104222011101/04/19 22:20:31  5-MIN KSTC 050420Z 21004KT 8SM CLR M03/M04 A2969 1240 92 -600 210/04 RMK AO2 I1000 T10331044
14926KSTC STC20190104222511101/04/19 22:25:31  5-MIN KSTC 050425Z 21003KT 9SM CLR M03/M04 A2969 1240 92 -500 200/03 RMK AO2 I1000 T10281039
14926KSTC STC20190104223011201/04/19 22:30:31  5-MIN KSTC 050430Z 21003KT 10SM CLR M03/M04 A2968 1250 92 -500 200/03 RMK AO2 I1000 T10281039
14926KSTC STC20190104223511201/04/19 22:35:31  5-MIN KSTC 050435Z 22003KT 10SM CLR M03/M04 A2969 1240 92 -500 210/03 RMK AO2 I1000 T10281039
14926KSTC STC20190104224011201/04/19 22:40:31  5-MIN KSTC 050440Z 22003KT 10SM CLR M02/M04 A2969 1240 88 -500 220/03 RMK AO2 I1000 T10221039
14926KSTC STC20190104224511201/04/19 22:45:31  5-MIN KSTC 050445Z 00000KT 10SM CLR M02/M04 A2969 1240 88 -500 000/00 RMK AO2 I1000 T10221039
14926KSTC STC20190104225011901/04/19 22:50:31  5-MIN KSTC 050450Z 22003KT 10SM CLR M02/M03 A2969 1240 92 -500 220/03 RMK AO2 SLP074 I1000 T10221033
14926KSTC STC20190104225510601/04/19 22:55:31  5-MIN KSTC 050455Z 00000KT 10SM CLR M02/M03 A2968 1250 88 -400 000/00 RMK AO2 T10171033
14926KSTC STC20190104230011101/04/19 23:00:31  5-MIN KSTC 050500Z AUTO 00000KT 10SM CLR M02/M03 A2969 1240 88 -400 000/00 RMK AO2 T10171033
14926KSTC STC20190104230511101/04/19 23:05:31  5-MIN KSTC 050505Z AUTO 00000KT 10SM CLR M01/M03 A2968 1250 85 -300 000/00 RMK AO2 T10111033
14926KSTC STC20190104231011101/04/19 23:10:31  5-MIN KSTC 050510Z AUTO 20003KT 10SM CLR M01/M03 A2969 1240 85 -300 200/03 RMK AO2 T10111033
14926KSTC STC20190104231511101/04/19 23:15:31  5-MIN KSTC 050515Z AUTO 22003KT 10SM CLR M01/M03 A2969 1240 85 -300 220/03 RMK AO2 T10111033
14926KSTC STC20190104232011101/04/19 23:20:31  5-MIN KSTC 050520Z AUTO 23004KT 10SM CLR M02/M03 A2970 1230 88 -400 230/04 RMK AO2 T10171033
14926KSTC STC20190104232511101/04/19 23:25:31  5-MIN KSTC 050525Z AUTO 24004KT 10SM CLR M03/M04 A2969 1240 92 -600 230/04 RMK AO2 T10281039
14926KSTC STC20190104233011101/04/19 23:30:31  5-MIN KSTC 050530Z AUTO 23003KT 10SM CLR M03/M04 A2969 1240 92 -500 230/03 RMK AO2 T10281039
14926KSTC STC20190104233511101/04/19 23:35:31  5-MIN KSTC 050535Z AUTO 22003KT 10SM CLR M02/M04 A2969 1240 88 -500 220/03 RMK AO2 T10221039
14926KSTC STC20190104234011101/04/19 23:40:31  5-MIN KSTC 050540Z AUTO 20003KT 10SM CLR M02/M04 A2969 1240 88 -500 190/03 RMK AO2 T10221039
14926KSTC STC20190104234511101/04/19 23:45:31  5-MIN KSTC 050545Z AUTO 20003KT 10SM CLR M02/M03 A2969 1240 88 -400 200/03 RMK AO2 T10171033
14926KSTC STC20190104235015201/04/19 23:50:31  5-MIN KSTC 050550Z AUTO 20004KT 10SM CLR M02/M03 A2969 1240 88 -400 200/04 RMK AO2 SLP074 I6000 T10171033 10011 21050 400441089 53005
14926KSTC STC20190104235511101/04/19 23:55:31  5-MIN KSTC 050555Z AUTO 22003KT 10SM CLR M02/M04 A2969 1240 88 -500 220/03 RMK AO2 T10221039
14926KSTC STC20190105000010101/05/19 00:00:31  5-MIN KSTC 050600Z AUTO 10SM CLR M02/M03 A2969 1240 92 -500 M /M RMK AO2 T10221033
14926KSTC STC20190105000510101/05/19 00:05:31  5-MIN KSTC 050605Z AUTO 10SM CLR M03/M04 A2969 1240 92 -600 M /M RMK AO2 T10281039
14926KSTC STC20190105001010101/05/19 00:10:31  5-MIN KSTC 050610Z AUTO 10SM CLR M02/M03 A2969 1240 92 -500 M /M RMK AO2 T10221033
14926KSTC STC20190105001510101/05/19 00:15:31  5-MIN KSTC 050615Z AUTO 10SM CLR M02/M03 A2969 1240 92 -500 M /M RMK AO2 T10221033
14926KSTC STC20190105002010101/05/19 00:20:31  5-MIN KSTC 050620Z AUTO 10SM CLR M02/M03 A2970 1230 92 -500 M /M RMK AO2 T10221033
14926KSTC STC20190105002510101/05/19 00:25:31  5-MIN KSTC 050625Z AUTO 10SM CLR M03/M04 A2970 1230 92 -600 M /M RMK AO2 T10281039
14926KSTC STC20190105003010101/05/19 00:30:31  5-MIN KSTC 050630Z AUTO 10SM CLR M03/M04 A2970 1230 92 -600 M /M RMK AO2 T10281039
14926KSTC STC20190105003510101/05/19 00:35:31  5-MIN KSTC 050635Z AUTO 10SM CLR M03/M04 A2970 1230 92 -600 M /M RMK AO2 T10281039
14926KSTC STC20190105104510201/05/19 10:45:31  5-MIN KSTC 051645Z 30012KT 10SM CLR 03/M02 A2984 1110 70 0 300/12 RMK AO2 T00331017
14926KSTC STC20190105105010901/05/19 10:50:31  5-MIN KSTC 051650Z 30013KT 10SM CLR 03/M02 A2984 1100 70 0 300/13 RMK AO2 SLP123 T00331017
14926KSTC STC20190105105510201/05/19 10:55:31  5-MIN KSTC 051655Z 30013KT 10SM CLR 03/M02 A2984 1100 70 0 300/13 RMK AO2 T00331017
14926KSTC STC20190105110010201/05/19 11:00:31  5-MIN KSTC 051700Z 29012KT 10SM CLR 03/M02 A2984 1100 70 0 290/12 RMK AO2 T00331017
14926KSTC STC20190105110510201/05/19 11:05:31  5-MIN KSTC 051705Z 29011KT 10SM CLR 03/M02 A2984 1100 70 0 290/11 RMK AO2 T00331017
14926KSTC STC20190105111010201/05/19 11:10:31  5-MIN KSTC 051710Z 30010KT 10SM CLR 03/M02 A2985 1100 70 0 300/10 RMK AO2 T00331017
14926KSTC STC20190105111510401/05/19 11:15:31  5-MIN KSTC 051715Z 29011KT 10SM CLR 04/M02 A2985 1090 67 100 290/11 RMK AO2 T00391017
14926KSTC STC20190105112010401/05/19 11:20:31  5-MIN KSTC 051720Z 29012KT 10SM CLR 04/M02 A2985 1090 67 100 290/12 RMK AO2 T00391017
14926KSTC STC20190105112510201/05/19 11:25:31  5-MIN KSTC 051725Z 29012KT 10SM CLR 04/M02 A2985 1090 67 0 290/12 RMK AO2 T00391017
14926KSTC STC20190105113010201/05/19 11:30:31  5-MIN KSTC 051730Z 28012KT 10SM CLR 04/M02 A2985 1090 67 0 280/12 RMK AO2 T00391017
14926KSTC STC20190105113510201/05/19 11:35:31  5-MIN KSTC 051735Z 29012KT 10SM CLR 04/M02 A2985 1090 67 0 290/12 RMK AO2 T00391017
14926KSTC STC20190105114010201/05/19 11:40:31  5-MIN KSTC 051740Z 28010KT 10SM CLR 04/M02 A2985 1090 67 0 280/10 RMK AO2 T00391017
14926KSTC STC20190105114510201/05/19 11:45:31  5-MIN KSTC 051745Z 29012KT 10SM CLR 04/M02 A2985 1090 67 0 290/12 RMK AO2 T00391017
14926KSTC STC20190105115012701/05/19 11:50:31  5-MIN KSTC 051750Z 30011KT 10SM CLR 04/M02 A2986 1090 67 0 290/11 RMK AO2 SLP129 T00391017 10039 21056 53024
14926KSTC STC20190105115510201/05/19 11:55:31  5-MIN KSTC 051755Z 29011KT 10SM CLR 04/M02 A2986 1080 67 0 290/11 RMK AO2 T00391017
14926KSTC STC20190105120010201/05/19 12:00:31  5-MIN KSTC 051800Z 30011KT 10SM CLR 04/M02 A2986 1080 67 0 300/11 RMK AO2 T00391017
14926KSTC STC20190105120510201/05/19 12:05:31  5-MIN KSTC 051805Z 30012KT 10SM CLR 04/M02 A2986 1080 67 0 300/12 RMK AO2 T00391017
14926KSTC STC20190105121010201/05/19 12:10:31  5-MIN KSTC 051810Z 30010KT 10SM CLR 03/M01 A2986 1080 72 0 300/10 RMK AO2 T00331011
14926KSTC STC20190105121510201/05/19 12:15:31  5-MIN KSTC 051815Z 30009KT 10SM CLR 04/M01 A2986 1080 70 0 300/09 RMK AO2 T00391011
14926KSTC STC20190105122010201/05/19 12:20:31  5-MIN KSTC 051820Z 31010KT 10SM CLR 04/M01 A2986 1080 70 0 310/10 RMK AO2 T00391011
14926KSTC STC20190105122510201/05/19 12:25:31  5-MIN KSTC 051825Z 30011KT 10SM CLR 04/M01 A2986 1080 70 0 300/11 RMK AO2 T00391011
14926KSTC STC20190105123010201/05/19 12:30:31  5-MIN KSTC 051830Z 30011KT 10SM CLR 04/M01 A2986 1080 70 0 300/11 RMK AO2 T00391011
14926KSTC STC20190105123510201/05/19 12:35:31  5-MIN KSTC 051835Z 31011KT 10SM CLR 04/M01 A2986 1080 70 0 300/11 RMK AO2 T00391011
14926KSTC STC20190105124010201/05/19 12:40:31  5-MIN KSTC 051840Z 31011KT 10SM CLR 04/M01 A2987 1080 70 0 300/11 RMK AO2 T00391011
14926KSTC STC20190105124510201/05/19 12:45:31  5-MIN KSTC 051845Z 31011KT 10SM CLR 04/M01 A2987 1070 70 0 310/11 RMK AO2 T00391011
14926KSTC STC20190105125011101/05/19 12:50:31  5-MIN KSTC 051850Z 32011KT 10SM CLR 05/M01 A2987 1070 64 200 310/11 RMK AO2 SLP134 T00501011
14926KSTC STC20190105125511001/05/19 12:55:31  5-MIN KSTC 051855Z 31015G19KT 10SM CLR 05/M01 A2987 1070 64 200 310/15G19 RMK AO2 T00501011
14926KSTC STC20190105130010401/05/19 13:00:31  5-MIN KSTC 051900Z 31011KT 10SM CLR 04/M01 A2987 1070 67 100 310/11 RMK AO2 T00441011
14926KSTC STC20190105130510401/05/19 13:05:31  5-MIN KSTC 051905Z 31011KT 10SM CLR 04/M01 A2987 1070 67 100 310/11 RMK AO2 T00441011
14926KSTC STC20190105131010401/05/19 13:10:31  5-MIN KSTC 051910Z 32010KT 10SM CLR 05/M01 A2988 1060 64 100 320/10 RMK AO2 T00501011
14926KSTC STC20190105131510401/05/19 13:15:31  5-MIN KSTC 051915Z 32010KT 10SM CLR 05/M01 A2989 1060 64 100 320/10 RMK AO2 T00501011
14926KSTC STC20190105132010401/05/19 13:20:31  5-MIN KSTC 051920Z 31010KT 10SM CLR 05/M01 A2989 1060 64 100 310/10 RMK AO2 T00501011
14926KSTC STC20190105132510401/05/19 13:25:31  5-MIN KSTC 051925Z 31011KT 10SM CLR 04/M01 A2989 1050 67 100 310/11 RMK AO2 T00441011
14926KSTC STC20190105133010401/05/19 13:30:31  5-MIN KSTC 051930Z 31010KT 10SM CLR 04/M01 A2989 1060 67 100 310/10 RMK AO2 T00441011
14926KSTC STC20190105133510401/05/19 13:35:31  5-MIN KSTC 051935Z 31009KT 10SM CLR 05/M01 A2989 1050 64 100 310/09 RMK AO2 T00501011
14926KSTC STC20190105134010401/05/19 13:40:31  5-MIN KSTC 051940Z 32010KT 10SM CLR 05/M01 A2989 1050 64 100 320/10 RMK AO2 T00501011
14926KSTC STC20190105134510401/05/19 13:45:31  5-MIN KSTC 051945Z 32007KT 10SM CLR 06/M01 A2990 1050 65 200 320/07 RMK AO2 T00561006
14926KSTC STC20190105135011101/05/19 13:50:31  5-MIN KSTC 051950Z 32011KT 10SM CLR 06/M01 A2990 1050 65 200 310/11 RMK AO2 SLP144 T00561006
14926KSTC STC20190105135510401/05/19 13:55:31  5-MIN KSTC 051955Z 32009KT 10SM CLR 06/M01 A2990 1050 62 200 320/09 RMK AO2 T00561011
14926KSTC STC20190105140010401/05/19 14:00:31  5-MIN KSTC 052000Z 33009KT 10SM CLR 06/M01 A2990 1040 65 200 330/09 RMK AO2 T00561006
14926KSTC STC20190105140510401/05/19 14:05:31  5-MIN KSTC 052005Z 34008KT 10SM CLR 06/M01 A2990 1040 62 200 330/08 RMK AO2 T00561011
14926KSTC STC20190105141010401/05/19 14:10:31  5-MIN KSTC 052010Z 33010KT 10SM CLR 06/M01 A2991 1040 62 200 330/10 RMK AO2 T00561011
14926KSTC STC20190105141510401/05/19 14:15:31  5-MIN KSTC 052015Z 34009KT 10SM CLR 06/M01 A2991 1040 62 200 340/09 RMK AO2 T00561011
14926KSTC STC20190105142010401/05/19 14:20:31  5-MIN KSTC 052020Z 33012KT 10SM CLR 05/M01 A2992 1030 64 100 330/12 RMK AO2 T00501011
14926KSTC STC20190105142510401/05/19 14:25:31  5-MIN KSTC 052025Z 33010KT 10SM CLR 05/M01 A2992 1030 64 100 330/10 RMK AO2 T00501011
14926KSTC STC20190105143010401/05/19 14:30:31  5-MIN KSTC 052030Z 33010KT 10SM CLR 05/M01 A2992 1020 64 100 330/10 RMK AO2 T00501011
14926KSTC STC20190105143510401/05/19 14:35:31  5-MIN KSTC 052035Z 33010KT 10SM CLR 05/M01 A2993 1020 64 100 320/10 RMK AO2 T00501011
14926KSTC STC20190105144010401/05/19 14:40:31  5-MIN KSTC 052040Z 34007KT 10SM CLR 05/M01 A2993 1020 64 100 340/07 RMK AO2 T00501011
14926KSTC STC20190105144510401/05/19 14:45:31  5-MIN KSTC 052045Z 36009KT 10SM CLR 05/M01 A2993 1010 64 100 360/09 RMK AO2 T00501011
14926KSTC STC20190105145011501/05/19 14:50:31  5-MIN KSTC 052050Z 36011KT 10SM CLR 04/M01 A2994 1010 67 0 360/11 RMK AO2 SLP157 T00441011 51021
14926KSTC STC20190105145510201/05/19 14:55:31  5-MIN KSTC 052055Z 36009KT 10SM CLR 04/M01 A2994 1010 67 0 350/09 RMK AO2 T00441011
14926KSTC STC20190105150010201/05/19 15:00:31  5-MIN KSTC 052100Z 36010KT 10SM CLR 04/M01 A2994 1010 67 0 360/10 RMK AO2 T00441011
14926KSTC STC20190105150510201/05/19 15:05:31  5-MIN KSTC 052105Z 36009KT 10SM CLR 04/M01 A2995 1000 67 0 360/09 RMK AO2 T00441011
14926KSTC STC20190105151010201/05/19 15:10:31  5-MIN KSTC 052110Z 36009KT 10SM CLR 04/M01 A2995 1000 67 0 360/09 RMK AO2 T00441011
14926KSTC STC20190105151510101/05/19 15:15:31  5-MIN KSTC 052115Z 35010KT 10SM CLR 04/M01 A2996 990 70 0 350/10 RMK AO2 T00391011
14926KSTC STC20190105152010101/05/19 15:20:31  5-MIN KSTC 052120Z 35010KT 10SM CLR 04/M01 A2996 990 70 0 350/10 RMK AO2 T00391011
14926KSTC STC20190105152510101/05/19 15:25:31  5-MIN KSTC 052125Z 35010KT 10SM CLR 04/M01 A2996 990 70 0 350/10 RMK AO2 T00391011
14926KSTC STC20190105153010101/05/19 15:30:31  5-MIN KSTC 052130Z 35010KT 10SM CLR 04/M01 A2996 990 70 0 350/10 RMK AO2 T00391011
14926KSTC STC20190105153510401/05/19 15:35:31  5-MIN KSTC 052135Z 36010KT 10SM CLR 03/M01 A2997 980 72 -100 360/10 RMK AO2 T00331011
14926KSTC STC20190105154010401/05/19 15:40:31  5-MIN KSTC 052140Z 36010KT 10SM CLR 03/M01 A2997 980 72 -100 360/10 RMK AO2 T00331011
14926KSTC STC20190105154510401/05/19 15:45:31  5-MIN KSTC 052145Z 36010KT 10SM CLR 03/M02 A2997 980 70 -100 360/10 RMK AO2 T00331017
14926KSTC STC20190105155011101/05/19 15:50:31  5-MIN KSTC 052150Z 36009KT 10SM CLR 03/M02 A2997 980 72 -200 360/09 RMK AO2 SLP171 T00281017
14926KSTC STC20190105155510401/05/19 15:55:31  5-MIN KSTC 052155Z 36010KT 10SM CLR 03/M02 A2998 970 72 -200 360/10 RMK AO2 T00281017
14926KSTC STC20190105160010401/05/19 16:00:31  5-MIN KSTC 052200Z 36009KT 10SM CLR 03/M02 A2998 970 72 -200 360/09 RMK AO2 T00281017
14926KSTC STC20190105160510401/05/19 16:05:31  5-MIN KSTC 052205Z 36008KT 10SM CLR 03/M02 A2998 970 72 -200 360/08 RMK AO2 T00281017
14926KSTC STC20190105161010401/05/19 16:10:31  5-MIN KSTC 052210Z 35009KT 10SM CLR 03/M02 A2999 970 72 -200 350/09 RMK AO2 T00281017
14926KSTC STC20190105161510401/05/19 16:15:31  5-MIN KSTC 052215Z 36009KT 10SM CLR 02/M02 A2999 960 75 -300 360/09 RMK AO2 T00221017
14926KSTC STC20190105162010401/05/19 16:20:31  5-MIN KSTC 052220Z 36008KT 10SM CLR 02/M02 A2999 960 75 -300 360/08 RMK AO2 T00221017
14926KSTC STC20190105162510401/05/19 16:25:31  5-MIN KSTC 052225Z 36009KT 10SM CLR 02/M02 A3000 960 75 -300 360/09 RMK AO2 T00171022
14926KSTC STC20190105163010401/05/19 16:30:31  5-MIN KSTC 052230Z 36010KT 10SM CLR 02/M02 A3000 950 75 -300 360/10 RMK AO2 T00171022
14926KSTC STC20190105163510401/05/19 16:35:31  5-MIN KSTC 052235Z 36010KT 10SM CLR 02/M02 A3000 950 75 -300 360/10 RMK AO2 T00171022
14926KSTC STC20190105164010401/05/19 16:40:31  5-MIN KSTC 052240Z 01008KT 10SM CLR 01/M02 A3000 950 78 -400 010/08 RMK AO2 T00111022
14926KSTC STC20190105164510401/05/19 16:45:31  5-MIN KSTC 052245Z 36008KT 10SM CLR 01/M02 A3000 950 78 -400 360/08 RMK AO2 T00111022
14926KSTC STC20190105165011101/05/19 16:50:31  5-MIN KSTC 052250Z 36009KT 10SM CLR 01/M02 A3000 950 78 -400 360/09 RMK AO2 SLP181 T00111022
14926KSTC STC20190105165510401/05/19 16:55:31  5-MIN KSTC 052255Z 36009KT 10SM CLR 01/M02 A3001 950 78 -400 360/09 RMK AO2 T00111022
14926KSTC STC20190105170010401/05/19 17:00:31  5-MIN KSTC 052300Z 36008KT 10SM CLR 01/M02 A3001 940 78 -400 360/08 RMK AO2 T00111022
14926KSTC STC20190105170510401/05/19 17:05:31  5-MIN KSTC 052305Z 35008KT 10SM CLR 01/M02 A3001 940 78 -400 350/08 RMK AO2 T00111022
14926KSTC STC20190105171010401/05/19 17:10:31  5-MIN KSTC 052310Z 35007KT 10SM CLR 01/M03 A3001 940 78 -500 350/07 RMK AO2 T00061028
14926KSTC STC20190105171510401/05/19 17:15:31  5-MIN KSTC 052315Z 35008KT 10SM CLR 01/M03 A3002 940 78 -500 350/08 RMK AO2 T00061028
14926KSTC STC20190105172010401/05/19 17:20:31  5-MIN KSTC 052320Z 35007KT 10SM CLR 01/M03 A3002 930 78 -500 350/07 RMK AO2 T00061028
14926KSTC STC20190105172510401/05/19 17:25:31  5-MIN KSTC 052325Z 35006KT 10SM CLR 01/M03 A3003 930 78 -500 350/06 RMK AO2 T00061028
14926KSTC STC20190105173010401/05/19 17:30:31  5-MIN KSTC 052330Z 35006KT 10SM CLR 00/M03 A3003 930 81 -600 350/06 RMK AO2 T00001028
14926KSTC STC20190105173510401/05/19 17:35:31  5-MIN KSTC 052335Z 35004KT 10SM CLR 00/M03 A3003 930 81 -600 350/04 RMK AO2 T00001028
14926KSTC STC20190105174010401/05/19 17:40:31  5-MIN KSTC 052340Z 35005KT 10SM CLR 00/M03 A3003 920 81 -600 350/05 RMK AO2 T00001028
14926KSTC STC20190105174510501/05/19 17:45:31  5-MIN KSTC 052345Z 35004KT 10SM CLR M01/M03 A3003 920 85 -700 350/04 RMK AO2 T10061028
14926KSTC STC20190105175013001/05/19 17:50:31  5-MIN KSTC 052350Z 35004KT 10SM CLR M01/M03 A3004 920 85 -700 350/04 RMK AO2 SLP193 T10061028 10056 21006 53027
14926KSTC STC20190105175510501/05/19 17:55:31  5-MIN KSTC 052355Z 35005KT 10SM CLR M01/M03 A3004 920 81 -700 350/05 RMK AO2 T10061033
14926KSTC STC20190105180010501/05/19 18:00:31  5-MIN KSTC 060000Z 35005KT 10SM CLR M01/M03 A3004 910 81 -700 350/05 RMK AO2 T10061033
14926KSTC STC20190105180510501/05/19 18:05:31  5-MIN KSTC 060005Z 36005KT 10SM CLR M01/M03 A3004 910 85 -700 360/05 RMK AO2 T10111033
14926KSTC STC20190105181010501/05/19 18:10:31  5-MIN KSTC 060010Z 36005KT 10SM CLR M01/M03 A3005 910 81 -700 360/05 RMK AO2 T10061033
14926KSTC STC20190105181510501/05/19 18:15:31  5-MIN KSTC 060015Z 36005KT 10SM CLR M01/M03 A3005 910 85 -800 360/05 RMK AO2 T10111033
14926KSTC STC20190105182010501/05/19 18:20:31  5-MIN KSTC 060020Z 36006KT 10SM CLR M01/M03 A3005 900 81 -700 360/06 RMK AO2 T10061033
14926KSTC STC20190105182510501/05/19 18:25:31  5-MIN KSTC 060025Z 36005KT 10SM CLR M01/M03 A3005 900 85 -800 360/05 RMK AO2 T10111033
14926KSTC STC20190105183010501/05/19 18:30:31  5-MIN KSTC 060030Z 36006KT 10SM CLR M01/M03 A3006 900 85 -800 360/06 RMK AO2 T10111033
14926KSTC STC20190105183510501/05/19 18:35:31  5-MIN KSTC 060035Z 36005KT 10SM CLR M01/M03 A3006 890 85 -800 360/05 RMK AO2 T10111033
14926KSTC STC20190105184010501/05/19 18:40:31  5-MIN KSTC 060040Z 36006KT 10SM CLR M01/M03 A3006 890 85 -800 360/06 RMK AO2 T10111033
14926KSTC STC20190105184510501/05/19 18:45:31  5-MIN KSTC 060045Z 36005KT 10SM CLR M01/M03 A3007 890 85 -800 360/05 RMK AO2 T10111033
14926KSTC STC20190105185011201/05/19 18:50:31  5-MIN KSTC 060050Z 36006KT 10SM CLR M01/M04 A3007 890 81 -800 360/06 RMK AO2 SLP206 T10111039
14926KSTC STC20190105185510501/05/19 18:55:31  5-MIN KSTC 060055Z 36006KT 10SM CLR M02/M04 A3007 890 85 -900 360/06 RMK AO2 T10171039
14926KSTC STC20190105190010501/05/19 19:00:31  5-MIN KSTC 060100Z 36005KT 10SM CLR M02/M04 A3007 890 85 -900 360/05 RMK AO2 T10171039
14926KSTC STC20190105190510501/05/19 19:05:31  5-MIN KSTC 060105Z 36005KT 10SM CLR M02/M04 A3007 880 85 -900 360/05 RMK AO2 T10171039
14926KSTC STC20190105191010501/05/19 19:10:31  5-MIN KSTC 060110Z 36005KT 10SM CLR M02/M04 A3007 880 85 -900 360/05 RMK AO2 T10171039
14926KSTC STC20190105191510501/05/19 19:15:31  5-MIN KSTC 060115Z 36005KT 10SM CLR M02/M04 A3008 880 88 -900 360/05 RMK AO2 T10221039
14926KSTC STC20190105192010501/05/19 19:20:31  5-MIN KSTC 060120Z 36004KT 10SM CLR M02/M04 A3008 880 88 -900 360/04 RMK AO2 T10221039
14926KSTC STC20190105192510501/05/19 19:25:31  5-MIN KSTC 060125Z 36004KT 10SM CLR M02/M04 A3008 880 88 -900 360/04 RMK AO2 T10221039
14926KSTC STC20190105193010501/05/19 19:30:31  5-MIN KSTC 060130Z 36005KT 10SM CLR M02/M04 A3009 870 88 -900 360/05 RMK AO2 T10221039
14926KSTC STC20190105193510601/05/19 19:35:31  5-MIN KSTC 060135Z 36006KT 10SM CLR M03/M04 A3009 870 92 -1000 360/06 RMK AO2 T10281039
14926KSTC STC20190105194010601/05/19 19:40:31  5-MIN KSTC 060140Z 36005KT 10SM CLR M03/M04 A3009 870 92 -1000 360/05 RMK AO2 T10281039
14926KSTC STC20190105194510601/05/19 19:45:31  5-MIN KSTC 060145Z 01005KT 10SM CLR M03/M04 A3010 860 88 -1000 010/05 RMK AO2 T10281044
14926KSTC STC20190105195011201/05/19 19:50:31  5-MIN KSTC 060150Z 01005KT 10SM CLR M02/M04 A3010 860 88 -900 010/05 RMK AO2 SLP215 T10221039
14926KSTC STC20190105195510601/05/19 19:55:31  5-MIN KSTC 060155Z 01005KT 10SM CLR M02/M04 A3010 860 88 -1000 010/05 RMK AO2 T10221039
14926KSTC STC20190105200010601/05/19 20:00:31  5-MIN KSTC 060200Z 01004KT 10SM CLR M02/M04 A3010 860 88 -1000 010/04 RMK AO2 T10221039
14926KSTC STC20190105200510601/05/19 20:05:31  5-MIN KSTC 060205Z 01005KT 10SM CLR M02/M04 A3010 860 88 -1000 010/05 RMK AO2 T10221039
14926KSTC STC20190105201010601/05/19 20:10:31  5-MIN KSTC 060210Z 36005KT 10SM CLR M02/M04 A3011 860 88 -1000 360/05 RMK AO2 T10221039
14926KSTC STC20190105201510601/05/19 20:15:31  5-MIN KSTC 060215Z 36004KT 10SM CLR M03/M04 A3011 850 92 -1000 350/04 RMK AO2 T10281039
14926KSTC STC20190105202010601/05/19 20:20:31  5-MIN KSTC 060220Z 35003KT 10SM CLR M03/M04 A3011 850 92 -1000 350/03 RMK AO2 T10281039
14926KSTC STC20190105202510601/05/19 20:25:31  5-MIN KSTC 060225Z 36003KT 10SM CLR M03/M04 A3011 850 92 -1000 360/03 RMK AO2 T10281039
14926KSTC STC20190105203010601/05/19 20:30:31  5-MIN KSTC 060230Z 00000KT 10SM CLR M03/M04 A3012 850 92 -1000 000/00 RMK AO2 T10281039
14926KSTC STC20190105203510601/05/19 20:35:31  5-MIN KSTC 060235Z 00000KT 10SM CLR M03/M04 A3012 850 92 -1000 000/00 RMK AO2 T10281039
14926KSTC STC20190105204010601/05/19 20:40:31  5-MIN KSTC 060240Z 00000KT 10SM CLR M03/M04 A3012 840 92 -1000 000/00 RMK AO2 T10281039
14926KSTC STC20190105204510601/05/19 20:45:31  5-MIN KSTC 060245Z 32003KT 10SM CLR M03/M04 A3012 840 92 -1100 320/03 RMK AO2 T10331044
14926KSTC STC20190105205011901/05/19 20:50:31  5-MIN KSTC 060250Z 00000KT 10SM CLR M04/M05 A3012 840 96 -1300 000/00 RMK AO2 SLP224 T10441050 51033
14926KSTC STC20190105205510501/05/19 20:55:31  5-MIN KSTC 060255Z 00000KT 9SM CLR M04/M06 A3013 830 92 -1300 000/00 RMK AO2 T10441056
14926KSTC STC20190105210010601/05/19 21:00:31  5-MIN KSTC 060300Z 00000KT 10SM CLR M04/M06 A3013 830 88 -1200 000/00 RMK AO2 T10391056
14926KSTC STC20190105210510601/05/19 21:05:31  5-MIN KSTC 060305Z 00000KT 10SM CLR M04/M05 A3013 830 92 -1200 000/00 RMK AO2 T10391050
14926KSTC STC20190105211010601/05/19 21:10:31  5-MIN KSTC 060310Z 00000KT 10SM CLR M04/M05 A3013 830 92 -1200 000/00 RMK AO2 T10391050
14926KSTC STC20190105211510601/05/19 21:15:31  5-MIN KSTC 060315Z 01003KT 10SM CLR M04/M05 A3013 830 96 -1300 010/03 RMK AO2 T10441050
14926KSTC STC20190105212010601/05/19 21:20:31  5-MIN KSTC 060320Z 35003KT 10SM CLR M04/M05 A3013 830 92 -1200 350/03 RMK AO2 T10391050
14926KSTC STC20190105212511101/05/19 21:25:31  5-MIN KSTC 060325Z 36003KT 9SM CLR M04/M05 A3013 830 92 -1200 360/03 RMK AO2 I1000 T10391050
14926KSTC STC20190105213011101/05/19 21:30:31  5-MIN KSTC 060330Z 01003KT 8SM CLR M04/M05 A3013 830 96 -1300 010/03 RMK AO2 I1000 T10441050
14926KSTC STC20190105213511101/05/19 21:35:31  5-MIN KSTC 060335Z 01003KT 8SM CLR M04/M06 A3013 830 92 -1300 010/03 RMK AO2 I1000 T10441056
14926KSTC STC20190105214011101/05/19 21:40:31  5-MIN KSTC 060340Z 00000KT 9SM CLR M04/M06 A3013 830 92 -1300 000/00 RMK AO2 I1000 T10441056
14926KSTC STC20190105214511101/05/19 21:45:31  5-MIN KSTC 060345Z 00000KT 8SM CLR M04/M06 A3013 830 88 -1300 000/00 RMK AO2 I1000 T10441061
14926KSTC STC20190105215011801/05/19 21:50:31  5-MIN KSTC 060350Z 00000KT 7SM CLR M05/M06 A3013 830 92 -1300 000/00 RMK AO2 SLP225 I1001 T10501061
14926KSTC STC20190105215510801/05/19 21:55:31  5-MIN KSTC 060355Z 00000KT 6SM BR CLR M06/M06 A3013 830 96 -1400 000/00 RMK AO2 T10561061
14926KSTC STC20190105220010901/05/19 22:00:31  5-MIN KSTC 060400Z 00000KT 4SM BR CLR M07/M07 A3013 830 100 -1600 000/00 RMK AO2 T10671067
14926KSTC STC20190105220510801/05/19 22:05:31  5-MIN KSTC 060405Z 00000KT 6SM BR CLR M06/M07 A3013 830 96 -1500 000/00 RMK AO2 T10611067
14926KSTC STC20190105221010801/05/19 22:10:31  5-MIN KSTC 060410Z 00000KT 6SM BR CLR M06/M07 A3013 830 96 -1500 000/00 RMK AO2 T10611067
14926KSTC STC20190105221510901/05/19 22:15:31  5-MIN KSTC 060415Z 00000KT 6SM BR CLR M06/M06 A3013 830 100 -1500 000/00 RMK AO2 T10611061
14926KSTC STC20190105222010801/05/19 22:20:31  5-MIN KSTC 060420Z 00000KT 6SM BR CLR M06/M06 A3013 830 96 -1400 000/00 RMK AO2 T10561061
14926KSTC STC20190105222510801/05/19 22:25:31  5-MIN KSTC 060425Z 00000KT 6SM BR CLR M06/M07 A3013 830 96 -1500 000/00 RMK AO2 T10611067
14926KSTC STC20190105223010801/05/19 22:30:31  5-MIN KSTC 060430Z 00000KT 6SM BR CLR M07/M08 A3014 830 96 -1600 000/00 RMK AO2 T10721078
14926KSTC STC20190105223510801/05/19 22:35:31  5-MIN KSTC 060435Z 00000KT 6SM BR CLR M07/M08 A3013 830 92 -1600 000/00 RMK AO2 T10671078
14926KSTC STC20190105224011101/05/19 22:40:31  5-MIN KSTC 060440Z 00000KT 6SM BR FEW002 M07/M08 A3014 830 92 -1600 000/00 RMK AO2 T10671078
14926KSTC STC20190105224510801/05/19 22:45:31  5-MIN KSTC 060445Z 00000KT 6SM BR CLR M07/M08 A3013 830 96 -1600 000/00 RMK AO2 T10721078
14926KSTC STC20190105225011501/05/19 22:50:31  5-MIN KSTC 060450Z 00000KT 6SM BR CLR M07/M08 A3013 830 92 -1600 000/00 RMK AO2 SLP225 T10721083
14926KSTC STC20190105225511401/05/19 22:55:31  5-MIN KSTC 060455Z 00000KT 1/4SM FZFG VV002 M07/M08 A3013 840 92 -1600 000/00 RMK AO2 T10721083
14926KSTC STC20190105230010801/05/19 23:00:31  5-MIN KSTC 060500Z 00000KT 6SM BR CLR M07/M08 A3013 840 92 -1600 000/00 RMK AO2 T10721083
14926KSTC STC20190105230511301/05/19 23:05:31  5-MIN KSTC 060505Z AUTO 00000KT 6SM BR CLR M07/M08 A3013 830 88 -1600 000/00 RMK AO2 T10671083
14926KSTC STC20190105231011301/05/19 23:10:31  5-MIN KSTC 060510Z AUTO 00000KT 6SM BR CLR M07/M08 A3013 830 92 -1600 000/00 RMK AO2 T10671078
14926KSTC STC20190105231511301/05/19 23:15:31  5-MIN KSTC 060515Z AUTO 00000KT 6SM BR CLR M07/M08 A3013 830 96 -1600 000/00 RMK AO2 T10721078
14926KSTC STC20190105232011901/05/19 23:20:31  5-MIN KSTC 060520Z AUTO 00000KT 6SM BR CLR M08/M08 A3014 830 96 -1700 000/00 RMK AO2 I1000 T10781083
14926KSTC STC20190105232511901/05/19 23:25:31  5-MIN KSTC 060525Z AUTO 00000KT 6SM BR CLR M08/M09 A3014 830 92 -1700 000/00 RMK AO2 I1000 T10781089
14926KSTC STC20190105233011901/05/19 23:30:31  5-MIN KSTC 060530Z AUTO 00000KT 6SM BR CLR M08/M09 A3014 830 92 -1700 000/00 RMK AO2 I1000 T10781089
14926KSTC STC20190105233511901/05/19 23:35:31  5-MIN KSTC 060535Z AUTO 34004KT 6SM BR CLR M08/M08 A3014 820 96 -1700 340/04 RMK AO2 I1000 T10781083
14926KSTC STC20190105234011901/05/19 23:40:31  5-MIN KSTC 060540Z AUTO 34004KT 6SM BR CLR M07/M08 A3014 820 96 -1600 340/04 RMK AO2 I1000 T10721078
14926KSTC STC20190105234511901/05/19 23:45:31  5-MIN KSTC 060545Z AUTO 34003KT 6SM BR CLR M07/M07 A3014 820 96 -1600 340/03 RMK AO2 I1000 T10671072
14926KSTC STC20190105235016101/05/19 23:50:31  5-MIN KSTC 060550Z AUTO 34003KT 6SM BR CLR M07/M07 A3014 820 100 -1600 340/03 RMK AO2 SLP229 I1000 I6001 T10671067 11006 21078 400561078 51029
14926KSTC STC20190105235511701/05/19 23:55:31  5-MIN KSTC 060555Z AUTO 35003KT 1/2SM FZFG CLR M07/M08 A3014 820 96 -1600 340/03 RMK AO2 T10721078
14926KSTC STC20190106000011701/06/19 00:00:31  5-MIN KSTC 060600Z AUTO 00000KT 1 1/4SM BR CLR M07/M08 A3015 820 96 -1600 000/00 RMK AO2 T10721078
14926KSTC STC20190106000511301/06/19 00:05:31  5-MIN KSTC 060605Z AUTO 00000KT 1SM BR CLR M09/M09 A3015 810 96 -1900 000/00 RMK AO2 T10891094
14926KSTC STC20190106001011501/06/19 00:10:31  5-MIN KSTC 060610Z AUTO 00000KT 1SM BR VV002 M09/M10 A3015 810 96 -1900 000/00 RMK AO2 T10941100
14926KSTC STC20190106001511701/06/19 00:15:31  5-MIN KSTC 060615Z AUTO 00000KT 3/4SM BR VV001 M08/M09 A3016 810 88 -1700 000/00 RMK AO2 T10781094
14926KSTC STC20190106002011701/06/19 00:20:31  5-MIN KSTC 060620Z AUTO 00000KT 3/4SM BR VV001 M08/M09 A3016 800 92 -1700 000/00 RMK AO2 T10781089
14926KSTC STC20190106002511901/06/19 00:25:31  5-MIN KSTC 060625Z AUTO 00000KT 1/2SM FZFG VV001 M08/M09 A3017 800 92 -1700 000/00 RMK AO2 T10781089
14926KSTC STC20190106003012501/06/19 00:30:31  5-MIN KSTC 060630Z AUTO 00000KT 1/4SM FZFG VV001 M08/M09 A3017 800 96 -1800 000/00 RMK AO2 I1000 T10831089
14926KSTC STC20190106003512501/06/19 00:35:31  5-MIN KSTC 060635Z AUTO 00000KT 1/4SM FZFG VV001 M09/M10 A3017 800 92 -1900 000/00 RMK AO2 I1000 T10891100
14926KSTC STC20190106004012301/06/19 00:40:31  5-MIN KSTC 060640Z AUTO 00000KT 3/4SM BR VV002 M08/M09 A3017 790 92 -1800 000/00 RMK AO2 I1000 T10831094
14926KSTC STC20190106004512601/06/19 00:45:31  5-MIN KSTC 060645Z AUTO 00000KT 1 1/4SM BR BKN002 M08/M09 A3017 790 92 -1800 000/00 RMK AO2 I1000 T10831094
14926KSTC STC20190106005011101/06/19 00:50:31  5-MIN KSTC 060650Z AUTO 00000KT 1SM BR VV002 M08/M09 A3017 790 96 -1800 000/00 RMK AO2 I1000
14926KSTC STC20190106005511901/06/19 00:55:31  5-MIN KSTC 060655Z AUTO 00000KT 1/2SM FZFG VV002 M08/M08 A3017 790 96 -1700 000/00 RMK AO2 T10781083
14926KSTC STC20190106010011901/06/19 01:00:31  5-MIN KSTC 060700Z AUTO 01003KT 1/4SM FZFG VV001 M08/M08 A3017 800 96 -1700 010/03 RMK AO2 T10781083
14926KSTC STC20190106010511901/06/19 01:05:31  5-MIN KSTC 060705Z AUTO 01004KT 1/4SM FZFG VV001 M08/M09 A3017 800 92 -1700 010/04 RMK AO2 T10781089
14926KSTC STC20190106011011901/06/19 01:10:31  5-MIN KSTC 060710Z AUTO 01003KT 1/4SM FZFG VV001 M08/M09 A3017 800 92 -1700 010/03 RMK AO2 T10781089
14926KSTC STC20190106011511901/06/19 01:15:31  5-MIN KSTC 060715Z AUTO 01003KT 1/4SM FZFG VV001 M08/M09 A3016 800 92 -1700 010/03 RMK AO2 T10781089
14926KSTC STC20190106012011901/06/19 01:20:31  5-MIN KSTC 060720Z AUTO 00000KT 1/4SM FZFG VV001 M08/M08 A3017 800 96 -1700 000/00 RMK AO2 T10781083
14926KSTC STC20190106012511901/06/19 01:25:31  5-MIN KSTC 060725Z AUTO 01004KT 1/2SM FZFG VV001 M08/M09 A3017 800 96 -1800 010/04 RMK AO2 T10831089
14926KSTC STC20190106013011701/06/19 01:30:31  5-MIN KSTC 060730Z AUTO 01004KT 3/4SM BR VV001 M08/M09 A3017 800 96 -1800 010/04 RMK AO2 T10831089
14926KSTC STC20190106013512001/06/19 01:35:31  5-MIN KSTC 060735Z AUTO 02003KT 1 1/4SM BR BKN001 M08/M09 A3017 800 96 -1800 020/03 RMK AO2 T10831089
14926KSTC STC20190106014012201/06/19 01:40:31  5-MIN KSTC 060740Z AUTO 01003KT 2SM BR BKN001 M08/M09 A3017 800 96 -1800 010/03 RMK AO2 I1000 T10831089
14926KSTC STC20190106014512201/06/19 01:45:31  5-MIN KSTC 060745Z AUTO 36003KT 2SM BR BKN001 M08/M09 A3017 790 96 -1800 350/03 RMK AO2 I1000 T10831089
14926KSTC STC20190106015012801/06/19 01:50:31  5-MIN KSTC 060750Z AUTO 36004KT 1SM BR VV002 M09/M09 A3018 790 96 -1900 360/04 RMK AO2 SLP241 I1000 T10891094
14926KSTC STC20190106015511701/06/19 01:55:31  5-MIN KSTC 060755Z AUTO 36004KT 3/4SM BR VV002 M09/M10 A3018 790 92 -1900 360/04 RMK AO2 T10891100
14926KSTC STC20190106020011701/06/19 02:00:31  5-MIN KSTC 060800Z AUTO 36004KT 3/4SM BR VV002 M09/M09 A3018 790 96 -1900 360/04 RMK AO2 T10891094
14926KSTC STC20190106020512001/06/19 02:05:31  5-MIN KSTC 060805Z AUTO 36004KT 1 1/4SM BR BKN002 M09/M10 A3018 790 92 -1900 360/04 RMK AO2 T10891100
14926KSTC STC20190106021012001/06/19 02:10:31  5-MIN KSTC 060810Z AUTO 01005KT 1 1/2SM BR OVC002 M09/M10 A3018 790 92 -1900 010/05 RMK AO2 T10891100
14926KSTC STC20190106021512001/06/19 02:15:31  5-MIN KSTC 060815Z AUTO 01003KT 1 1/4SM BR OVC002 M08/M09 A3018 780 92 -1800 010/03 RMK AO2 T10831094
14926KSTC STC20190106022011501/06/19 02:20:31  5-MIN KSTC 060820Z AUTO 36004KT 1SM BR VV002 M08/M09 A3018 780 92 -1800 360/04 RMK AO2 T10831094
14926KSTC STC20190106022511701/06/19 02:25:31  5-MIN KSTC 060825Z AUTO 36004KT 3/4SM BR VV002 M08/M09 A3018 790 92 -1800 360/04 RMK AO2 T10831094
14926KSTC STC20190106023011901/06/19 02:30:31  5-MIN KSTC 060830Z AUTO 36004KT 1/2SM FZFG VV002 M08/M09 A3018 780 92 -1800 360/04 RMK AO2 T10831094
14926KSTC STC20190106023511901/06/19 02:35:31  5-MIN KSTC 060835Z AUTO 01004KT 1/2SM FZFG VV002 M08/M09 A3018 790 92 -1800 010/04 RMK AO2 T10831094
14926KSTC STC20190106024011901/06/19 02:40:31  5-MIN KSTC 060840Z AUTO 36004KT 1/2SM FZFG VV002 M09/M09 A3018 780 96 -1900 360/04 RMK AO2 T10891094
14926KSTC STC20190106024511901/06/19 02:45:31  5-MIN KSTC 060845Z AUTO 36003KT 1/2SM FZFG VV002 M09/M09 A3019 780 96 -1900 360/03 RMK AO2 T10891094
14926KSTC STC20190106025013601/06/19 02:50:31  5-MIN KSTC 060850Z AUTO 36004KT 3/4SM BR VV002 M09/M09 A3018 780 96 -1900 360/04 RMK AO2 SLP245 I3/// T10891094 53005
14926KSTC STC20190106025511701/06/19 02:55:31  5-MIN KSTC 060855Z AUTO 36004KT 3/4SM BR VV002 M09/M09 A3019 780 96 -1900 360/04 RMK AO2 T10891094
14926KSTC STC20190106030011501/06/19 03:00:31  5-MIN KSTC 060900Z AUTO 36003KT 1SM BR VV002 M09/M09 A3019 780 96 -1900 360/03 RMK AO2 T10891094
14926KSTC STC20190106030512001/06/19 03:05:31  5-MIN KSTC 060905Z AUTO 36003KT 1 3/4SM BR OVC002 M09/M10 A3019 780 92 -1900 350/03 RMK AO2 T10891100
14926KSTC STC20190106031011601/06/19 03:10:31  5-MIN KSTC 060910Z AUTO 00000KT 3SM BR BKN002 M09/M09 A3019 780 96 -1900 000/00 RMK AO2 T10891094
14926KSTC STC20190106031511601/06/19 03:15:31  5-MIN KSTC 060915Z AUTO 00000KT 5SM BR SCT002 M09/M11 A3019 780 92 -2000 000/00 RMK AO2 T10941106
14926KSTC STC20190106032011601/06/19 03:20:31  5-MIN KSTC 060920Z AUTO 00000KT 6SM BR SCT002 M09/M11 A3019 780 92 -2000 000/00 RMK AO2 T10941106
14926KSTC STC20190106032511301/06/19 03:25:31  5-MIN KSTC 060925Z AUTO 00000KT 7SM FEW002 M09/M11 A3019 780 88 -1900 000/00 RMK AO2 T10891106
14926KSTC STC20190106033011301/06/19 03:30:31  5-MIN KSTC 060930Z AUTO 00000KT 7SM FEW002 M09/M10 A3019 780 92 -1900 000/00 RMK AO2 T10891100
14926KSTC STC20190106033511001/06/19 03:35:31  5-MIN KSTC 060935Z AUTO 01003KT 8SM CLR M09/M10 A3018 790 92 -1900 010/03 RMK AO2 T10891100
14926KSTC STC20190106034011001/06/19 03:40:31  5-MIN KSTC 060940Z AUTO 00000KT 9SM CLR M09/M11 A3018 790 92 -2000 000/00 RMK AO2 T10941106
14926KSTC STC20190106034511101/06/19 03:45:31  5-MIN KSTC 060945Z AUTO 00000KT 10SM CLR M09/M11 A3018 790 92 -2000 000/00 RMK AO2 T10941106
14926KSTC STC20190106035011801/06/19 03:50:31  5-MIN KSTC 060950Z AUTO 03003KT 10SM CLR M09/M11 A3018 790 92 -2000 030/03 RMK AO2 SLP244 T10941106
14926KSTC STC20190106035511101/06/19 03:55:31  5-MIN KSTC 060955Z AUTO 00000KT 10SM CLR M09/M11 A3018 790 92 -2000 000/00 RMK AO2 T10941106
14926KSTC STC20190106040011101/06/19 04:00:31  5-MIN KSTC 061000Z AUTO 00000KT 10SM CLR M09/M11 A3018 780 88 -1900 000/00 RMK AO2 T10891106
14926KSTC STC20190106040511101/06/19 04:05:31  5-MIN KSTC 061005Z AUTO 00000KT 10SM CLR M09/M10 A3018 790 92 -1900 000/00 RMK AO2 T10891100
14926KSTC STC20190106041011101/06/19 04:10:31  5-MIN KSTC 061010Z AUTO 00000KT 10SM CLR M09/M11 A3018 790 92 -2000 000/00 RMK AO2 T10941106
14926KSTC STC20190106041511101/06/19 04:15:31  5-MIN KSTC 061015Z AUTO 00000KT 10SM CLR M09/M11 A3018 790 92 -2000 000/00 RMK AO2 T10941106
14926KSTC STC20190106042011101/06/19 04:20:31  5-MIN KSTC 061020Z AUTO 00000KT 10SM CLR M09/M11 A3018 780 88 -1900 000/00 RMK AO2 T10891106
14926KSTC STC20190106042511101/06/19 04:25:31  5-MIN KSTC 061025Z AUTO 00000KT 10SM CLR M09/M11 A3019 780 92 -2000 000/00 RMK AO2 T10941106
14926KSTC STC20190106043011101/06/19 04:30:31  5-MIN KSTC 061030Z AUTO 00000KT 10SM CLR M09/M11 A3018 790 92 -2000 000/00 RMK AO2 T10941106
14926KSTC STC20190106043511101/06/19 04:35:31  5-MIN KSTC 061035Z AUTO 00000KT 10SM CLR M09/M11 A3018 790 88 -1900 000/00 RMK AO2 T10891106
14926KSTC STC20190106044011101/06/19 04:40:31  5-MIN KSTC 061040Z AUTO 00000KT 10SM CLR M09/M11 A3019 780 88 -1900 000/00 RMK AO2 T10891106
14926KSTC STC20190106044511101/06/19 04:45:31  5-MIN KSTC 061045Z AUTO 00000KT 10SM CLR M09/M10 A3019 780 92 -1900 000/00 RMK AO2 T10891100
14926KSTC STC20190106045011801/06/19 04:50:31  5-MIN KSTC 061050Z AUTO 00000KT 10SM CLR M09/M10 A3019 780 92 -1900 000/00 RMK AO2 SLP248 T10891100
14926KSTC STC20190106045511101/06/19 04:55:31  5-MIN KSTC 061055Z AUTO 08003KT 10SM CLR M09/M10 A3018 780 92 -1900 080/03 RMK AO2 T10891100
14926KSTC STC20190106050011101/06/19 05:00:31  5-MIN KSTC 061100Z AUTO 07003KT 10SM CLR M09/M10 A3018 790 92 -1900 070/03 RMK AO2 T10891100
14926KSTC STC20190106050511101/06/19 05:05:31  5-MIN KSTC 061105Z AUTO 06005KT 10SM CLR M08/M09 A3018 790 92 -1800 060/05 RMK AO2 T10831094
14926KSTC STC20190106051011101/06/19 05:10:31  5-MIN KSTC 061110Z AUTO 07003KT 10SM CLR M08/M09 A3018 790 92 -1800 070/03 RMK AO2 T10781089
14926KSTC STC20190106051511101/06/19 05:15:31  5-MIN KSTC 061115Z AUTO 06005KT 10SM CLR M07/M08 A3017 800 92 -1700 060/05 RMK AO2 T10721083
14926KSTC STC20190106052011101/06/19 05:20:31  5-MIN KSTC 061120Z AUTO 07005KT 10SM CLR M07/M08 A3017 800 88 -1600 070/05 RMK AO2 T10671083
14926KSTC STC20190106052511101/06/19 05:25:31  5-MIN KSTC 061125Z AUTO 07005KT 10SM CLR M07/M08 A3017 790 92 -1600 070/05 RMK AO2 T10671078
14926KSTC STC20190106053011101/06/19 05:30:31  5-MIN KSTC 061130Z AUTO 07006KT 10SM CLR M07/M08 A3017 800 92 -1600 070/06 RMK AO2 T10671078
14926KSTC STC20190106053511101/06/19 05:35:31  5-MIN KSTC 061135Z AUTO 07005KT 10SM CLR M06/M07 A3017 800 92 -1500 070/05 RMK AO2 T10611072
14926KSTC STC20190106054011101/06/19 05:40:31  5-MIN KSTC 061140Z AUTO 07006KT 10SM CLR M06/M07 A3017 790 92 -1500 070/06 RMK AO2 T10611072
14926KSTC STC20190106054511101/06/19 05:45:31  5-MIN KSTC 061145Z AUTO 07006KT 10SM CLR M06/M07 A3017 790 92 -1500 070/06 RMK AO2 T10611072
14926KSTC STC20190106055014201/06/19 05:50:31  5-MIN KSTC 061150Z AUTO 06007KT 10SM CLR M06/M07 A3017 800 92 -1500 060/07 RMK AO2 SLP241 I6000 T10611072 11061 21094 53004
14926KSTC STC20190106055511101/06/19 05:55:31  5-MIN KSTC 061155Z AUTO 06006KT 10SM CLR M06/M07 A3017 790 92 -1500 060/06 RMK AO2 T10611072
14926KSTC STC20190106060011101/06/19 06:00:31  5-MIN KSTC 061200Z AUTO 07006KT 10SM CLR M06/M07 A3017 790 92 -1500 070/06 RMK AO2 T10611072
14926KSTC STC20190106060511101/06/19 06:05:31  5-MIN KSTC 061205Z AUTO 07006KT 10SM CLR M06/M07 A3017 800 92 -1500 070/06 RMK AO2 T10611072
14926KSTC STC20190106061011101/06/19 06:10:31  5-MIN KSTC 061210Z AUTO 07007KT 10SM CLR M06/M07 A3017 790 92 -1500 070/07 RMK AO2 T10611072
14926KSTC STC20190106061511101/06/19 06:15:31  5-MIN KSTC 061215Z AUTO 08006KT 10SM CLR M06/M07 A3017 790 92 -1500 080/06 RMK AO2 T10611072
14926KSTC STC20190106062011101/06/19 06:20:31  5-MIN KSTC 061220Z AUTO 08006KT 10SM CLR M06/M07 A3018 790 92 -1500 080/06 RMK AO2 T10611072
14926KSTC STC20190106062511101/06/19 06:25:31  5-MIN KSTC 061225Z AUTO 08005KT 10SM CLR M06/M07 A3018 790 92 -1500 080/05 RMK AO2 T10611072
14926KSTC STC20190106063011101/06/19 06:30:31  5-MIN KSTC 061230Z AUTO 08007KT 10SM CLR M06/M07 A3018 790 92 -1500 080/07 RMK AO2 T10611072
14926KSTC STC20190106063511101/06/19 06:35:31  5-MIN KSTC 061235Z AUTO 08006KT 10SM CLR M06/M07 A3017 790 92 -1500 080/06 RMK AO2 T10611072
14926KSTC STC20190106064011101/06/19 06:40:31  5-MIN KSTC 061240Z AUTO 08006KT 10SM CLR M06/M07 A3017 790 92 -1500 070/06 RMK AO2 T10611072
14926KSTC STC20190106064511101/06/19 06:45:31  5-MIN KSTC 061245Z AUTO 08007KT 10SM CLR M06/M07 A3017 790 92 -1500 080/07 RMK AO2 T10611072
14926KSTC STC20190106065011301/06/19 06:50:31  5-MIN KSTC 061250Z 08007KT 10SM CLR M06/M07 A3017 790 92 -1500 080/07 RMK AO2 SLP242 T10611072
14926KSTC STC20190106065510601/06/19 06:55:31  5-MIN KSTC 061255Z 07007KT 10SM CLR M06/M07 A3017 800 92 -1500 070/07 RMK AO2 T10611072
14926KSTC STC20190106070010601/06/19 07:00:31  5-MIN KSTC 061300Z 08009KT 10SM CLR M06/M07 A3016 800 92 -1500 070/09 RMK AO2 T10611072
14926KSTC STC20190106070510601/06/19 07:05:31  5-MIN KSTC 061305Z 08007KT 10SM CLR M06/M07 A3016 800 92 -1500 080/07 RMK AO2 T10611072
14926KSTC STC20190106071010601/06/19 07:10:31  5-MIN KSTC 061310Z 08009KT 10SM CLR M06/M07 A3016 810 92 -1500 080/09 RMK AO2 T10611072
14926KSTC STC20190106071510601/06/19 07:15:31  5-MIN KSTC 061315Z 08006KT 10SM CLR M06/M07 A3016 810 92 -1500 080/06 RMK AO2 T10611072
14926KSTC STC20190106072010601/06/19 07:20:31  5-MIN KSTC 061320Z 07007KT 10SM CLR M06/M07 A3016 800 92 -1500 070/07 RMK AO2 T10611072
14926KSTC STC20190106072510601/06/19 07:25:31  5-MIN KSTC 061325Z 07007KT 10SM CLR M06/M07 A3016 800 92 -1500 070/07 RMK AO2 T10611072
14926KSTC STC20190106073010601/06/19 07:30:31  5-MIN KSTC 061330Z 08007KT 10SM CLR M06/M07 A3017 800 92 -1500 080/07 RMK AO2 T10611072
14926KSTC STC20190106073510901/06/19 07:35:31  5-MIN KSTC 061335Z 08006KT 10SM FEW007 M06/M07 A3017 800 92 -1500 080/06 RMK AO2 T10611072
14926KSTC STC20190106074010901/06/19 07:40:31  5-MIN KSTC 061340Z 08007KT 10SM SCT007 M06/M07 A3017 800 92 -1500 080/07 RMK AO2 T10611072
14926KSTC STC20190106074510901/06/19 07:45:31  5-MIN KSTC 061345Z 08006KT 10SM SCT006 M06/M07 A3017 800 92 -1500 080/06 RMK AO2 T10611072
14926KSTC STC20190106075011601/06/19 07:50:31  5-MIN KSTC 061350Z 07006KT 10SM SCT006 M06/M07 A3017 800 92 -1500 070/06 RMK AO2 SLP240 T10611072
14926KSTC STC20190106075510901/06/19 07:55:31  5-MIN KSTC 061355Z 08006KT 10SM BKN006 M06/M07 A3016 800 92 -1500 080/06 RMK AO2 T10611072
14926KSTC STC20190106080010901/06/19 08:00:31  5-MIN KSTC 061400Z 08006KT 10SM BKN006 M06/M07 A3016 800 92 -1500 080/06 RMK AO2 T10611072
14926KSTC STC20190106080510901/06/19 08:05:31  5-MIN KSTC 061405Z 09006KT 10SM BKN006 M06/M07 A3016 800 92 -1500 090/06 RMK AO2 T10611072
14926KSTC STC20190106081010901/06/19 08:10:31  5-MIN KSTC 061410Z 08008KT 10SM BKN005 M06/M07 A3016 800 92 -1500 080/08 RMK AO2 T10611072
14926KSTC STC20190106081510901/06/19 08:15:31  5-MIN KSTC 061415Z 08006KT 10SM OVC005 M06/M07 A3016 800 92 -1500 080/06 RMK AO2 T10611072
14926KSTC STC20190106082010901/06/19 08:20:31  5-MIN KSTC 061420Z 08007KT 10SM OVC005 M06/M07 A3016 800 92 -1500 080/07 RMK AO2 T10611072
14926KSTC STC20190106082510901/06/19 08:25:31  5-MIN KSTC 061425Z 09007KT 10SM OVC005 M06/M07 A3016 800 92 -1500 090/07 RMK AO2 T10611072
14926KSTC STC20190106083010901/06/19 08:30:31  5-MIN KSTC 061430Z 08007KT 10SM OVC005 M06/M07 A3016 800 96 -1500 080/07 RMK AO2 T10611067
14926KSTC STC20190106083510901/06/19 08:35:31  5-MIN KSTC 061435Z 08008KT 10SM OVC005 M06/M07 A3016 810 92 -1400 080/08 RMK AO2 T10561067
14926KSTC STC20190106084010901/06/19 08:40:31  5-MIN KSTC 061440Z 08007KT 10SM OVC005 M06/M07 A3016 810 92 -1400 080/07 RMK AO2 T10561067
14926KSTC STC20190106084511501/06/19 08:45:31  5-MIN KSTC 061445Z 09008G16KT 10SM OVC005 M06/M07 A3016 810 92 -1400 090/08G16 RMK AO2 T10561067
14926KSTC STC20190106085012201/06/19 08:50:31  5-MIN KSTC 061450Z 08009KT 10SM OVC005 M06/M07 A3016 810 92 -1400 080/09 RMK AO2 SLP237 T10561067 58005
14926KSTC STC20190106085510801/06/19 08:55:31  5-MIN KSTC 061455Z 08010KT 9SM OVC005 M06/M06 A3015 810 96 -1400 080/10 RMK AO2 T10561061
14926KSTC STC20190106090010801/06/19 09:00:31  5-MIN KSTC 061500Z 09008KT 9SM OVC005 M06/M06 A3015 810 96 -1400 090/08 RMK AO2 T10561061
14926KSTC STC20190106090511401/06/19 09:05:31  5-MIN KSTC 061505Z 08009G17KT 9SM OVC005 M06/M06 A3015 810 96 -1400 080/09G17 RMK AO2 T10561061
14926KSTC STC20190106091011401/06/19 09:10:31  5-MIN KSTC 061510Z 08008G17KT 8SM OVC005 M05/M06 A3016 810 92 -1400 080/08G17 RMK AO2 T10501061
14926KSTC STC20190106091511401/06/19 09:15:31  5-MIN KSTC 061515Z 08008G17KT 8SM OVC005 M05/M06 A3015 810 92 -1400 080/08G17 RMK AO2 T10501061
14926KSTC STC20190106092010801/06/19 09:20:31  5-MIN KSTC 061520Z 08008KT 8SM OVC004 M05/M06 A3015 810 92 -1400 080/08 RMK AO2 T10501061
14926KSTC STC20190106092510801/06/19 09:25:31  5-MIN KSTC 061525Z 09007KT 9SM OVC004 M05/M06 A3015 810 96 -1400 090/07 RMK AO2 T10501056
14926KSTC STC20190106093010801/06/19 09:30:31  5-MIN KSTC 061530Z 09007KT 9SM OVC005 M04/M06 A3015 810 92 -1300 080/07 RMK AO2 T10441056
14926KSTC STC20190106093511401/06/19 09:35:31  5-MIN KSTC 061535Z 08010G17KT 9SM OVC005 M04/M06 A3015 820 92 -1300 080/10G17 RMK AO2 T10441056
14926KSTC STC20190107174510501/07/19 17:45:31  5-MIN KSTC 072345Z 18003KT 9SM CLR M01/M02 A2960 1330 92 -200 180/03 RMK AO2 T10061017
14926KSTC STC20190107175013001/07/19 17:50:31  5-MIN KSTC 072350Z 17004KT 8SM CLR M01/M02 A2960 1320 92 -200 170/04 RMK AO2 SLP042 T10061017 10022 21006 53014
14926KSTC STC20190107175510501/07/19 17:55:31  5-MIN KSTC 072355Z 19004KT 8SM CLR M01/M02 A2960 1320 96 -200 190/04 RMK AO2 T10111017
14926KSTC STC20190107180010501/07/19 18:00:31  5-MIN KSTC 080000Z 19004KT 8SM CLR M01/M02 A2961 1320 96 -200 190/04 RMK AO2 T10111017
14926KSTC STC20190107180510501/07/19 18:05:31  5-MIN KSTC 080005Z 19005KT 8SM CLR M01/M02 A2961 1310 96 -200 190/05 RMK AO2 T10111017
14926KSTC STC20190107181010501/07/19 18:10:31  5-MIN KSTC 080010Z 19005KT 8SM CLR M01/M02 A2961 1310 92 -200 190/05 RMK AO2 T10061017
14926KSTC STC20190107181510501/07/19 18:15:31  5-MIN KSTC 080015Z 18005KT 8SM CLR M01/M02 A2961 1320 92 -200 170/05 RMK AO2 T10061017
14926KSTC STC20190107182010501/07/19 18:20:31  5-MIN KSTC 080020Z 18005KT 8SM CLR M01/M02 A2961 1320 92 -200 180/05 RMK AO2 T10061017
14926KSTC STC20190107182510501/07/19 18:25:31  5-MIN KSTC 080025Z 18004KT 8SM CLR M01/M02 A2961 1310 92 -200 180/04 RMK AO2 T10061017
14926KSTC STC20190107183010501/07/19 18:30:31  5-MIN KSTC 080030Z 17004KT 8SM CLR M01/M02 A2961 1310 92 -200 170/04 RMK AO2 T10061017
14926KSTC STC20190107183510501/07/19 18:35:31  5-MIN KSTC 080035Z 19004KT 8SM CLR M01/M02 A2962 1310 92 -200 190/04 RMK AO2 T10061017
14926KSTC STC20190107184010401/07/19 18:40:31  5-MIN KSTC 080040Z 22003KT 8SM CLR 00/M01 A2963 1300 92 -100 220/03 RMK AO2 T00001011
14926KSTC STC20190107184510501/07/19 18:45:31  5-MIN KSTC 080045Z 24003KT 8SM CLR M01/M01 A2963 1300 96 -200 240/03 RMK AO2 T10061011
14926KSTC STC20190107185011201/07/19 18:50:31  5-MIN KSTC 080050Z 26003KT 7SM CLR M01/M02 A2963 1300 92 -200 260/03 RMK AO2 SLP052 T10061017
14926KSTC STC20190107185510501/07/19 18:55:31  5-MIN KSTC 080055Z 26003KT 7SM CLR M01/M02 A2963 1290 92 -200 260/03 RMK AO2 T10061017
14926KSTC STC20190107190010501/07/19 19:00:31  5-MIN KSTC 080100Z 26003KT 7SM CLR M01/M02 A2963 1290 92 -200 260/03 RMK AO2 T10061017
14926KSTC STC20190107190510501/07/19 19:05:31  5-MIN KSTC 080105Z 00000KT 7SM CLR M01/M02 A2963 1290 92 -200 000/00 RMK AO2 T10061017
14926KSTC STC20190107191010501/07/19 19:10:31  5-MIN KSTC 080110Z 00000KT 7SM CLR M01/M02 A2964 1290 92 -200 000/00 RMK AO2 T10061017
14926KSTC STC20190107191510801/07/19 19:15:31  5-MIN KSTC 080115Z 00000KT 6SM BR CLR M01/M02 A2964 1290 92 -200 000/00 RMK AO2 T10061017
14926KSTC STC20190107192010801/07/19 19:20:31  5-MIN KSTC 080120Z 00000KT 6SM BR CLR M01/M02 A2964 1290 96 -300 000/00 RMK AO2 T10111017
14926KSTC STC20190107192510801/07/19 19:25:31  5-MIN KSTC 080125Z 19004KT 6SM BR CLR M01/M02 A2964 1290 92 -200 190/04 RMK AO2 T10061017
14926KSTC STC20190107193010801/07/19 19:30:31  5-MIN KSTC 080130Z 20004KT 6SM BR CLR M01/M02 A2964 1290 92 -200 200/04 RMK AO2 T10061017
14926KSTC STC20190107193510501/07/19 19:35:31  5-MIN KSTC 080135Z 20004KT 7SM CLR M01/M02 A2963 1290 92 -200 200/04 RMK AO2 T10061017
14926KSTC STC20190107194010501/07/19 19:40:31  5-MIN KSTC 080140Z 20004KT 7SM CLR M01/M02 A2963 1300 92 -200 200/04 RMK AO2 T10061017
14926KSTC STC20190107194510501/07/19 19:45:31  5-MIN KSTC 080145Z 21003KT 7SM CLR M01/M01 A2963 1290 96 -200 210/03 RMK AO2 T10061011
14926KSTC STC20190107195011201/07/19 19:50:31  5-MIN KSTC 080150Z 20004KT 7SM CLR M01/M02 A2963 1290 92 -200 200/04 RMK AO2 SLP053 T10061017
14926KSTC STC20190107195510501/07/19 19:55:31  5-MIN KSTC 080155Z 19005KT 7SM CLR M01/M02 A2963 1290 96 -300 190/05 RMK AO2 T10111017
14926KSTC STC20190107200010501/07/19 20:00:31  5-MIN KSTC 080200Z 00000KT 7SM CLR M01/M02 A2963 1300 92 -200 000/00 RMK AO2 T10061017
14926KSTC STC20190107200510501/07/19 20:05:31  5-MIN KSTC 080205Z 00000KT 7SM CLR M01/M02 A2963 1300 92 -200 000/00 RMK AO2 T10061017
14926KSTC STC20190107201010501/07/19 20:10:31  5-MIN KSTC 080210Z 15003KT 7SM CLR M01/M02 A2963 1300 92 -200 150/03 RMK AO2 T10061017
14926KSTC STC20190107201510501/07/19 20:15:31  5-MIN KSTC 080215Z 17005KT 7SM CLR M01/M02 A2964 1290 96 -300 170/05 RMK AO2 T10111017
14926KSTC STC20190107202010501/07/19 20:20:31  5-MIN KSTC 080220Z 19005KT 7SM CLR M01/M02 A2964 1290 96 -300 190/05 RMK AO2 T10111017
14926KSTC STC20190107202510501/07/19 20:25:31  5-MIN KSTC 080225Z 19003KT 7SM CLR M01/M02 A2963 1290 96 -300 190/03 RMK AO2 T10111017
14926KSTC STC20190107203010501/07/19 20:30:31  5-MIN KSTC 080230Z 19005KT 7SM CLR M01/M02 A2964 1290 96 -300 190/05 RMK AO2 T10111017
14926KSTC STC20190107203510501/07/19 20:35:31  5-MIN KSTC 080235Z 21008KT 7SM CLR M01/M02 A2964 1280 96 -300 200/08 RMK AO2 T10111017
14926KSTC STC20190107204010501/07/19 20:40:31  5-MIN KSTC 080240Z 20005KT 8SM CLR M01/M02 A2964 1290 92 -200 200/05 RMK AO2 T10061017
14926KSTC STC20190107204510501/07/19 20:45:31  5-MIN KSTC 080245Z 20005KT 8SM CLR M01/M02 A2964 1290 92 -200 200/05 RMK AO2 T10061017
14926KSTC STC20190107205012101/07/19 20:50:31  5-MIN KSTC 080250Z 20004KT 8SM FEW120 M01/M02 A2964 1290 92 -200 200/04 RMK AO2 SLP055 T10061017 51024
14926KSTC STC20190107205510801/07/19 20:55:31  5-MIN KSTC 080255Z 20004KT 8SM FEW120 M01/M02 A2964 1290 92 -200 190/04 RMK AO2 T10061017
14926KSTC STC20190107210010801/07/19 21:00:31  5-MIN KSTC 080300Z 20006KT 8SM SCT120 M01/M02 A2964 1290 92 -200 200/06 RMK AO2 T10061017
14926KSTC STC20190107210510801/07/19 21:05:31  5-MIN KSTC 080305Z 20005KT 8SM BKN120 M01/M02 A2964 1290 92 -200 200/05 RMK AO2 T10061017
14926KSTC STC20190107211010801/07/19 21:10:31  5-MIN KSTC 080310Z 20006KT 8SM BKN120 M01/M01 A2964 1280 96 -200 200/06 RMK AO2 T10061011
14926KSTC STC20190107211510801/07/19 21:15:31  5-MIN KSTC 080315Z 20007KT 8SM BKN120 M01/M02 A2965 1280 92 -200 200/07 RMK AO2 T10061017
14926KSTC STC20190107212010801/07/19 21:20:31  5-MIN KSTC 080320Z 20007KT 8SM OVC110 M01/M02 A2965 1280 92 -200 200/07 RMK AO2 T10061017
14926KSTC STC20190107212510801/07/19 21:25:31  5-MIN KSTC 080325Z 19006KT 8SM OVC110 M01/M01 A2964 1290 96 -200 190/06 RMK AO2 T10061011
14926KSTC STC20190107213010801/07/19 21:30:31  5-MIN KSTC 080330Z 19006KT 8SM OVC110 M01/M01 A2965 1280 96 -200 190/06 RMK AO2 T10061011
14926KSTC STC20190107213511501/07/19 21:35:31  5-MIN KSTC 080335Z 19005KT 8SM FEW090 OVC110 M01/M01 A2965 1280 96 -200 190/05 RMK AO2 T10061011
14926KSTC STC20190107214010801/07/19 21:40:31  5-MIN KSTC 080340Z 21004KT 8SM OVC110 M01/M01 A2965 1280 96 -200 210/04 RMK AO2 T10061011
14926KSTC STC20190107214510701/07/19 21:45:31  5-MIN KSTC 080345Z 22004KT 8SM OVC100 00/M01 A2965 1280 92 -100 220/04 RMK AO2 T00001011
14926KSTC STC20190107215011401/07/19 21:50:31  5-MIN KSTC 080350Z 20004KT 9SM OVC100 00/M01 A2965 1280 92 -100 200/04 RMK AO2 SLP058 T00001011
14926KSTC STC20190107215510801/07/19 21:55:31  5-MIN KSTC 080355Z 20005KT 8SM OVC100 M01/M01 A2965 1280 96 -200 200/05 RMK AO2 T10061011
14926KSTC STC20190107220010801/07/19 22:00:31  5-MIN KSTC 080400Z 22004KT 8SM OVC100 M01/M01 A2965 1280 96 -200 210/04 RMK AO2 T10061011
14926KSTC STC20190107220510701/07/19 22:05:31  5-MIN KSTC 080405Z 22006KT 8SM OVC100 00/M01 A2965 1280 92 -200 210/06 RMK AO2 T00001011
14926KSTC STC20190107221010701/07/19 22:10:31  5-MIN KSTC 080410Z 22005KT 9SM OVC100 00/M01 A2965 1280 92 -200 220/05 RMK AO2 T00001011
14926KSTC STC20190107221511401/07/19 22:15:31  5-MIN KSTC 080415Z 22006KT 9SM BKN100 OVC120 00/M01 A2965 1270 92 -200 210/06 RMK AO2 T00001011
14926KSTC STC20190107222011401/07/19 22:20:31  5-MIN KSTC 080420Z 24004KT 9SM BKN100 BKN120 00/M01 A2966 1270 92 -200 240/04 RMK AO2 T00001011
14926KSTC STC20190107222511401/07/19 22:25:31  5-MIN KSTC 080425Z 22004KT 9SM SCT100 BKN120 00/M01 A2966 1270 92 -200 220/04 RMK AO2 T00001011
14926KSTC STC20190107223011401/07/19 22:30:31  5-MIN KSTC 080430Z 22004KT 9SM FEW095 SCT120 00/M01 A2966 1270 92 -200 220/04 RMK AO2 T00001011
14926KSTC STC20190107223511401/07/19 22:35:31  5-MIN KSTC 080435Z 21005KT 9SM FEW100 SCT120 00/M01 A2966 1270 92 -200 210/05 RMK AO2 T00001011
14926KSTC STC20190107224010701/07/19 22:40:31  5-MIN KSTC 080440Z 22004KT 9SM BKN120 00/M01 A2966 1270 92 -200 220/04 RMK AO2 T00001011
14926KSTC STC20190107224510801/07/19 22:45:31  5-MIN KSTC 080445Z 23004KT 10SM SCT120 00/M01 A2966 1270 92 -200 230/04 RMK AO2 T00001011
14926KSTC STC20190107225011501/07/19 22:50:31  5-MIN KSTC 080450Z 25004KT 10SM SCT120 00/M01 A2966 1270 92 -200 250/04 RMK AO2 SLP062 T00001011
14926KSTC STC20190107225510701/07/19 22:55:31  5-MIN KSTC 080455Z 24005KT 9SM SCT120 00/M01 A2966 1270 92 -200 240/05 RMK AO2 T00001011
14926KSTC STC20190107230011201/07/19 23:00:31  5-MIN KSTC 080500Z AUTO 26004KT 9SM SCT120 00/M01 A2966 1270 92 -200 260/04 RMK AO2 T00001011
14926KSTC STC20190107230511201/07/19 23:05:31  5-MIN KSTC 080505Z AUTO 26005KT 9SM SCT110 00/M02 A2966 1270 88 -200 260/05 RMK AO2 T00001017
14926KSTC STC20190107231011201/07/19 23:10:31  5-MIN KSTC 080510Z AUTO 26006KT 9SM BKN100 00/M02 A2967 1260 88 -200 260/06 RMK AO2 T00001017
14926KSTC STC20190107231512001/07/19 23:15:31  5-MIN KSTC 080515Z AUTO 27006KT 10SM BKN100 BKN120 00/M01 A2967 1260 92 -200 270/06 RMK AO2 T00001011
14926KSTC STC20190107232012001/07/19 23:20:31  5-MIN KSTC 080520Z AUTO 26006KT 10SM BKN090 BKN110 00/M01 A2967 1260 92 -200 260/06 RMK AO2 T00001011
14926KSTC STC20190107232512001/07/19 23:25:31  5-MIN KSTC 080525Z AUTO 27006KT 10SM BKN085 OVC110 01/M01 A2967 1260 89 -100 270/06 RMK AO2 T00061011
14926KSTC STC20190107233012001/07/19 23:30:31  5-MIN KSTC 080530Z AUTO 27006KT 10SM BKN080 OVC100 01/M01 A2967 1260 89 -100 270/06 RMK AO2 T00061011
14926KSTC STC20190107233512001/07/19 23:35:31  5-MIN KSTC 080535Z AUTO 28006KT 10SM BKN080 OVC090 01/M01 A2967 1260 89 -100 270/06 RMK AO2 T00061011
14926KSTC STC20190107234012001/07/19 23:40:31  5-MIN KSTC 080540Z AUTO 27007KT 10SM BKN075 OVC090 01/M01 A2967 1260 89 -100 270/07 RMK AO2 T00061011
14926KSTC STC20190107234511001/07/19 23:45:31  5-MIN KSTC 080545Z AUTO 27008KT 10SM OVC075 01/M01 A2967 1260 85 0 270/08 RMK AO2 T00111011
14926KSTC STC20190107235015201/07/19 23:50:31  5-MIN KSTC 080550Z AUTO 27010KT 10SM BKN075 OVC090 01/M01 A2967 1260 85 0 270/10 RMK AO2 SLP067 T00111011 10011 21011 400221011 51012
14926KSTC STC20190107235511701/07/19 23:55:31  5-MIN KSTC 080555Z AUTO 27010KT 10SM BKN075 OVC090 01/M02 A2967 1250 82 0 270/10 RMK AO2 T00111017
14926KSTC STC20190108000011001/08/19 00:00:31  5-MIN KSTC 080600Z AUTO 28010KT 10SM OVC080 01/M02 A2967 1250 82 0 280/10 RMK AO2 T00111017
14926KSTC STC20190108000511001/08/19 00:05:31  5-MIN KSTC 080605Z AUTO 28008KT 10SM OVC080 01/M02 A2967 1250 82 0 280/08 RMK AO2 T00111017
14926KSTC STC20190108001011001/08/19 00:10:31  5-MIN KSTC 080610Z AUTO 28010KT 10SM OVC080 01/M02 A2967 1250 82 0 280/10 RMK AO2 T00111017
14926KSTC STC20190108001511001/08/19 00:15:31  5-MIN KSTC 080615Z AUTO 28009KT 10SM OVC085 02/M02 A2967 1250 78 0 280/09 RMK AO2 T00171017
14926KSTC STC20190108002011001/08/19 00:20:31  5-MIN KSTC 080620Z AUTO 28010KT 10SM BKN085 02/M02 A2968 1250 78 0 280/10 RMK AO2 T00171017
14926KSTC STC20190108002511001/08/19 00:25:31  5-MIN KSTC 080625Z AUTO 28009KT 10SM BKN080 01/M02 A2968 1250 82 0 270/09 RMK AO2 T00111017
14926KSTC STC20190108003011701/08/19 00:30:31  5-MIN KSTC 080630Z AUTO 28008KT 10SM SCT085 SCT120 02/M02 A2967 1250 78 0 280/08 RMK AO2 T00171017
14926KSTC STC20190108003511701/08/19 00:35:31  5-MIN KSTC 080635Z AUTO 28009KT 10SM FEW085 BKN120 02/M02 A2968 1250 78 0 270/09 RMK AO2 T00171017
14926KSTC STC20190108004011701/08/19 00:40:31  5-MIN KSTC 080640Z AUTO 28009KT 10SM FEW090 BKN110 02/M02 A2968 1250 78 0 280/09 RMK AO2 T00171017
14926KSTC STC20190108004511001/08/19 00:45:31  5-MIN KSTC 080645Z AUTO 29009KT 10SM BKN120 02/M02 A2968 1250 78 0 290/09 RMK AO2 T00171017
14926KSTC STC20190108005011701/08/19 00:50:31  5-MIN KSTC 080650Z AUTO 28009KT 10SM BKN110 02/M02 A2968 1250 78 0 280/09 RMK AO2 SLP069 T00171017
14926KSTC STC20190108005511701/08/19 00:55:31  5-MIN KSTC 080655Z AUTO 28009KT 10SM SCT100 OVC120 02/M02 A2968 1250 78 0 280/09 RMK AO2 T00171017
14926KSTC STC20190108010011701/08/19 01:00:31  5-MIN KSTC 080700Z AUTO 29010KT 10SM BKN100 OVC120 02/M02 A2968 1250 72 0 290/10 RMK AO2 T00221022
14926KSTC STC20190108010511001/08/19 01:05:31  5-MIN KSTC 080705Z AUTO 29010KT 10SM OVC110 02/M02 A2968 1250 75 0 290/10 RMK AO2 T00171022
14926KSTC STC20190108011011001/08/19 01:10:31  5-MIN KSTC 080710Z AUTO 29012KT 10SM BKN110 02/M02 A2969 1240 75 0 290/12 RMK AO2 T00171022
14926KSTC STC20190108011511701/08/19 01:15:31  5-MIN KSTC 080715Z AUTO 29011KT 10SM SCT100 BKN120 02/M02 A2969 1240 72 0 290/11 RMK AO2 T00221022
14926KSTC STC20190108012011701/08/19 01:20:31  5-MIN KSTC 080720Z AUTO 29012KT 10SM SCT095 SCT120 02/M02 A2969 1240 75 0 290/12 RMK AO2 T00171022
14926KSTC STC20190108012511001/08/19 01:25:31  5-MIN KSTC 080725Z AUTO 29012KT 10SM BKN110 02/M02 A2969 1240 75 0 290/12 RMK AO2 T00171022
14926KSTC STC20190108013011001/08/19 01:30:31  5-MIN KSTC 080730Z AUTO 29011KT 10SM BKN110 02/M02 A2969 1240 75 0 290/11 RMK AO2 T00171022
14926KSTC STC20190108013511701/08/19 01:35:31  5-MIN KSTC 080735Z AUTO 29011KT 10SM BKN095 BKN120 02/M02 A2969 1240 75 0 290/11 RMK AO2 T00171022
14926KSTC STC20190108014011701/08/19 01:40:31  5-MIN KSTC 080740Z AUTO 30011KT 10SM BKN090 BKN110 02/M02 A2970 1230 75 0 290/11 RMK AO2 T00171022
14926KSTC STC20190108014512401/08/19 01:45:31  5-MIN KSTC 080745Z AUTO 30011KT 10SM SCT070 BKN095 OVC120 02/M02 A2970 1230 75 0 290/11 RMK AO2 T00171022
14926KSTC STC20190108015012401/08/19 01:50:31  5-MIN KSTC 080750Z AUTO 29012KT 10SM BKN070 OVC095 02/M02 A2970 1230 75 0 290/12 RMK AO2 SLP077 T00171022
14926KSTC STC20190108015511701/08/19 01:55:31  5-MIN KSTC 080755Z AUTO 29011KT 10SM FEW065 OVC085 02/M02 A2971 1230 75 0 290/11 RMK AO2 T00171022
14926KSTC STC20190108020011001/08/19 02:00:31  5-MIN KSTC 080800Z AUTO 30012KT 10SM OVC080 02/M02 A2971 1220 75 0 290/12 RMK AO2 T00171022
14926KSTC STC20190108020511001/08/19 02:05:31  5-MIN KSTC 080805Z AUTO 30012KT 10SM OVC080 02/M02 A2971 1220 75 0 300/12 RMK AO2 T00171022
14926KSTC STC20190108021011701/08/19 02:10:31  5-MIN KSTC 080810Z AUTO 30014KT 10SM SCT070 OVC085 02/M02 A2971 1220 75 0 300/14 RMK AO2 T00171022
14926KSTC STC20190108021511701/08/19 02:15:31  5-MIN KSTC 080815Z AUTO 30011KT 10SM FEW065 OVC085 02/M02 A2972 1210 75 0 300/11 RMK AO2 T00171022
14926KSTC STC20190108022011701/08/19 02:20:31  5-MIN KSTC 080820Z AUTO 30015KT 10SM SCT080 OVC100 02/M03 A2972 1210 72 0 300/15 RMK AO2 T00171028
14926KSTC STC20190108022512001/08/19 02:25:31  5-MIN KSTC 080825Z AUTO 30014KT 10SM SCT080 OVC100 01/M03 A2972 1210 75 -100 300/14 RMK AO2 T00111028
14926KSTC STC20190108023012001/08/19 02:30:31  5-MIN KSTC 080830Z AUTO 30014KT 10SM FEW080 BKN100 01/M03 A2973 1210 75 -100 300/14 RMK AO2 T00111028
14926KSTC STC20190108023511701/08/19 02:35:31  5-MIN KSTC 080835Z AUTO 30015KT 10SM FEW070 BKN100 02/M03 A2973 1200 69 0 300/15 RMK AO2 T00171033
14926KSTC STC20190108024011301/08/19 02:40:31  5-MIN KSTC 080840Z AUTO 30014KT 10SM SCT100 01/M03 A2973 1200 72 -100 300/14 RMK AO2 T00111033
14926KSTC STC20190108024511301/08/19 02:45:31  5-MIN KSTC 080845Z AUTO 30015KT 10SM FEW110 01/M03 A2974 1200 72 -100 300/15 RMK AO2 T00111033
14926KSTC STC20190108025012601/08/19 02:50:31  5-MIN KSTC 080850Z AUTO 30015KT 10SM FEW110 01/M03 A2974 1200 72 -100 300/15 RMK AO2 SLP089 T00111033 53012
14926KSTC STC20190108025511001/08/19 02:55:31  5-MIN KSTC 080855Z AUTO 30013KT 10SM CLR 01/M03 A2974 1190 72 -100 300/13 RMK AO2 T00111033
14926KSTC STC20190108030011901/08/19 03:00:31  5-MIN KSTC 080900Z AUTO 30014G22KT 10SM FEW110 01/M03 A2974 1190 72 -100 300/14G22 RMK AO2 T00111033
14926KSTC STC20190108030511901/08/19 03:05:31  5-MIN KSTC 080905Z AUTO 30015G22KT 10SM SCT110 01/M03 A2975 1190 75 -200 300/15G22 RMK AO2 T00061033
14926KSTC STC20190108031011901/08/19 03:10:31  5-MIN KSTC 080910Z AUTO 30016G24KT 10SM SCT110 01/M04 A2975 1190 72 -200 290/16G24 RMK AO2 T00061039
14926KSTC STC20190108031511901/08/19 03:15:31  5-MIN KSTC 080915Z AUTO 30015G24KT 10SM SCT110 01/M04 A2975 1180 69 -200 300/15G24 RMK AO2 T00061044
14926KSTC STC20190108032011301/08/19 03:20:31  5-MIN KSTC 080920Z AUTO 30016KT 10SM FEW110 01/M04 A2975 1180 69 -200 300/16 RMK AO2 T00061044
14926KSTC STC20190108032511301/08/19 03:25:31  5-MIN KSTC 080925Z AUTO 30016KT 10SM SCT110 00/M04 A2975 1180 72 -300 300/16 RMK AO2 T00001044
14926KSTC STC20190108033013701/08/19 03:30:31  5-MIN KSTC 080930Z AUTO 29019G27KT 10SM BKN110 01/M04 A2975 1180 69 -200 290/19G27 RMK AO2 PK WND 29027/0929 T00061044
14926KSTC STC20190108033513701/08/19 03:35:31  5-MIN KSTC 080935Z AUTO 30019G27KT 10SM BKN120 00/M06 A2976 1180 66 -300 300/19G27 RMK AO2 PK WND 29027/0929 T00001056
14926KSTC STC20190108034013701/08/19 03:40:31  5-MIN KSTC 080940Z AUTO 30020G27KT 10SM SCT120 00/M06 A2976 1180 66 -300 300/20G27 RMK AO2 PK WND 29027/0929 T00001056
14926KSTC STC20190108034513801/08/19 03:45:31  5-MIN KSTC 080945Z AUTO 30019G30KT 10SM SCT120 M01/M06 A2976 1170 66 -400 300/19G30 RMK AO2 PK WND 30030/0943 T10061061
14926KSTC STC20190108035014501/08/19 03:50:31  5-MIN KSTC 080950Z AUTO 30018G30KT 10SM SCT120 M01/M06 A2976 1170 66 -400 300/18G30 RMK AO2 PK WND 30030/0943 SLP098 T10061061
14926KSTC STC20190108035512001/08/19 03:55:31  5-MIN KSTC 080955Z AUTO 31017G27KT 10SM FEW120 M01/M07 A2977 1170 66 -400 310/17G27 RMK AO2 T10111067
14926KSTC STC20190108040012001/08/19 04:00:31  5-MIN KSTC 081000Z AUTO 30014G27KT 10SM FEW120 M01/M07 A2977 1170 66 -400 300/14G27 RMK AO2 T10111067
14926KSTC STC20190108040511101/08/19 04:05:31  5-MIN KSTC 081005Z AUTO 30014KT 10SM CLR M01/M07 A2977 1170 66 -400 300/14 RMK AO2 T10111067
14926KSTC STC20190108041011101/08/19 04:10:31  5-MIN KSTC 081010Z AUTO 29012KT 10SM CLR M01/M07 A2977 1170 66 -400 290/12 RMK AO2 T10111067
14926KSTC STC20190108041511701/08/19 04:15:31  5-MIN KSTC 081015Z AUTO 30015G24KT 10SM CLR M01/M07 A2977 1170 66 -400 300/15G24 RMK AO2 T10111067
14926KSTC STC20190108042013501/08/19 04:20:31  5-MIN KSTC 081020Z AUTO 30018G29KT 10SM CLR M01/M07 A2977 1170 66 -400 300/18G29 RMK AO2 PK WND 31029/1020 T10111067
14926KSTC STC20190108042513501/08/19 04:25:31  5-MIN KSTC 081025Z AUTO 29015G29KT 10SM CLR M02/M07 A2977 1170 69 -500 290/15G29 RMK AO2 PK WND 31029/1020 T10171067
14926KSTC STC20190108043013501/08/19 04:30:31  5-MIN KSTC 081030Z AUTO 29014G24KT 10SM CLR M02/M07 A2977 1160 69 -500 290/14G24 RMK AO2 PK WND 31029/1020 T10171067
14926KSTC STC20190108043513501/08/19 04:35:31  5-MIN KSTC 081035Z AUTO 29016G24KT 10SM CLR M02/M07 A2978 1160 69 -500 290/16G24 RMK AO2 PK WND 31029/1020 T10171067
14926KSTC STC20190108044013501/08/19 04:40:31  5-MIN KSTC 081040Z AUTO 29014G24KT 10SM CLR M02/M07 A2978 1160 69 -500 290/14G24 RMK AO2 PK WND 31029/1020 T10171067
14926KSTC STC20190108044513501/08/19 04:45:31  5-MIN KSTC 081045Z AUTO 29013G23KT 10SM CLR M02/M07 A2978 1160 69 -500 290/13G23 RMK AO2 PK WND 31029/1020 T10171067
14926KSTC STC20190108045014201/08/19 04:50:31  5-MIN KSTC 081050Z AUTO 28016G23KT 10SM CLR M02/M07 A2978 1160 69 -500 280/16G23 RMK AO2 PK WND 31029/1020 SLP104 T10171067
14926KSTC STC20190108045511701/08/19 04:55:31  5-MIN KSTC 081055Z AUTO 29015G23KT 10SM CLR M02/M07 A2978 1160 69 -500 290/15G23 RMK AO2 T10171067
14926KSTC STC20190108050011701/08/19 05:00:31  5-MIN KSTC 081100Z AUTO 28018G23KT 10SM CLR M02/M07 A2978 1160 69 -500 280/18G23 RMK AO2 T10171067
14926KSTC STC20190108050511701/08/19 05:05:31  5-MIN KSTC 081105Z AUTO 28013G23KT 10SM CLR M02/M07 A2978 1150 69 -500 280/13G23 RMK AO2 T10171067
14926KSTC STC20190108051011701/08/19 05:10:31  5-MIN KSTC 081110Z AUTO 29018G25KT 10SM CLR M02/M07 A2979 1150 69 -500 290/18G25 RMK AO2 T10171067
14926KSTC STC20190108051511701/08/19 05:15:31  5-MIN KSTC 081115Z AUTO 28017G25KT 10SM CLR M02/M07 A2978 1150 72 -600 280/17G25 RMK AO2 T10221067
14926KSTC STC20190108052013501/08/19 05:20:31  5-MIN KSTC 081120Z AUTO 28020G29KT 10SM CLR M02/M07 A2979 1150 66 -500 280/20G29 RMK AO2 PK WND 28029/1119 T10171072
14926KSTC STC20190108052513501/08/19 05:25:31  5-MIN KSTC 081125Z AUTO 29018G29KT 10SM CLR M02/M07 A2979 1150 69 -600 290/18G29 RMK AO2 PK WND 28029/1119 T10221072
14926KSTC STC20190108053013501/08/19 05:30:31  5-MIN KSTC 081130Z AUTO 29016G29KT 10SM CLR M02/M07 A2979 1150 69 -600 290/16G29 RMK AO2 PK WND 28029/1119 T10221072
14926KSTC STC20190108053513501/08/19 05:35:31  5-MIN KSTC 081135Z AUTO 29020G32KT 10SM CLR M02/M08 A2979 1150 66 -600 290/20G32 RMK AO2 PK WND 30032/1131 T10221078
14926KSTC STC20190108054013501/08/19 05:40:31  5-MIN KSTC 081140Z AUTO 29022G32KT 10SM CLR M02/M08 A2979 1140 66 -600 290/22G32 RMK AO2 PK WND 30032/1131 T10221078
14926KSTC STC20190108160515701/08/19 16:05:31  5-MIN KSTC 082205Z 30018G27KT 5SM -SN BKN028 OVC033 M11/M15 A3010 860 70 -2000 300/18G27 RMK AO2 PK WND 31027/2157 SNB2155 P0000 T11061150
14926KSTC STC20190108161015001/08/19 16:10:31  5-MIN KSTC 082210Z 29016KT 8SM BKN028 OVC034 M11/M14 A3010 860 73 -2000 290/16 RMK AO2 PK WND 31027/2157 SNB2155E10 P0000 T11061144
14926KSTC STC20190108161515001/08/19 16:15:31  5-MIN KSTC 082215Z 31017KT 9SM BKN026 OVC034 M11/M15 A3010 860 70 -2000 310/17 RMK AO2 PK WND 31027/2157 SNB2155E10 P0000 T11061150
14926KSTC STC20190108162015701/08/19 16:20:31  5-MIN KSTC 082220Z 30015G24KT 10SM SCT026 BKN034 M11/M15 A3010 860 70 -2000 300/15G24 RMK AO2 PK WND 31027/2157 SNB2155E10 P0000 T11061150
14926KSTC STC20190108162515701/08/19 16:25:31  5-MIN KSTC 082225Z 30019G25KT 10SM BKN030 BKN034 M11/M16 A3010 860 67 -2000 300/19G25 RMK AO2 PK WND 31027/2157 SNB2155E10 P0000 T11061156
14926KSTC STC20190108163015701/08/19 16:30:31  5-MIN KSTC 082230Z 29016G25KT 10SM BKN030 BKN034 M11/M15 A3010 860 70 -2000 290/16G25 RMK AO2 PK WND 31027/2157 SNB2155E10 P0000 T11061150
14926KSTC STC20190108163515001/08/19 16:35:31  5-MIN KSTC 082235Z 30014G23KT 10SM BKN032 M11/M16 A3010 860 67 -2000 300/14G23 RMK AO2 PK WND 31027/2157 SNB2155E10 P0000 T11061156
14926KSTC STC20190108164015701/08/19 16:40:31  5-MIN KSTC 082240Z 30014G23KT 10SM FEW026 BKN032 M11/M15 A3010 860 70 -2000 300/14G23 RMK AO2 PK WND 31027/2157 SNB2155E10 P0000 T11061150
14926KSTC STC20190108164515701/08/19 16:45:31  5-MIN KSTC 082245Z 30015G26KT 10SM FEW026 BKN032 M11/M15 A3011 860 70 -2000 300/15G26 RMK AO2 PK WND 31027/2157 SNB2155E10 P0000 T11061150
14926KSTC STC20190108165015701/08/19 16:50:31  5-MIN KSTC 082250Z 29019G27KT 10SM BKN032 M11/M16 A3011 850 64 -2000 290/19G27 RMK AO2 PK WND 30027/2246 SNB2155E10 SLP221 P0000 T11061161
14926KSTC STC20190108165511501/08/19 16:55:31  5-MIN KSTC 082255Z 30016G27KT 10SM BKN032 M11/M16 A3011 850 64 -2000 300/16G27 RMK AO2 T11061161
14926KSTC STC20190108170011501/08/19 17:00:31  5-MIN KSTC 082300Z 30016G24KT 10SM SCT030 M11/M16 A3012 850 64 -2000 300/16G24 RMK AO2 T11061161
14926KSTC STC20190108170510901/08/19 17:05:31  5-MIN KSTC 082305Z 30016KT 10SM FEW030 M11/M16 A3012 840 67 -2100 300/16 RMK AO2 T11111161
14926KSTC STC20190108171013301/08/19 17:10:31  5-MIN KSTC 082310Z 30022G28KT 10SM FEW030 M11/M16 A3012 840 67 -2100 300/22G28 RMK AO2 PK WND 29028/2309 T11111161
14926KSTC STC20190108171513301/08/19 17:15:31  5-MIN KSTC 082315Z 30017G28KT 10SM FEW030 M11/M17 A3012 840 64 -2100 300/17G28 RMK AO2 PK WND 29028/2309 T11111167
14926KSTC STC20190108172013001/08/19 17:20:31  5-MIN KSTC 082320Z 30018G26KT 10SM CLR M11/M17 A3013 830 64 -2100 300/18G26 RMK AO2 PK WND 29028/2309 T11111167
14926KSTC STC20190108172513001/08/19 17:25:31  5-MIN KSTC 082325Z 30018G30KT 10SM CLR M11/M17 A3013 840 64 -2100 300/18G30 RMK AO2 PK WND 30030/2322 T11111167
14926KSTC STC20190108173013001/08/19 17:30:31  5-MIN KSTC 082330Z 29019G30KT 10SM CLR M11/M17 A3013 830 64 -2100 290/19G30 RMK AO2 PK WND 30030/2322 T11111167
14926KSTC STC20190108173513001/08/19 17:35:31  5-MIN KSTC 082335Z 30020G27KT 10SM CLR M11/M17 A3013 830 64 -2100 290/20G27 RMK AO2 PK WND 30030/2322 T11111167
14926KSTC STC20190108174013001/08/19 17:40:31  5-MIN KSTC 082340Z 30017G29KT 10SM CLR M11/M17 A3014 830 64 -2100 290/17G29 RMK AO2 PK WND 30030/2322 T11111167
14926KSTC STC20190108174513001/08/19 17:45:31  5-MIN KSTC 082345Z 30015G29KT 10SM CLR M11/M16 A3014 820 67 -2100 300/15G29 RMK AO2 PK WND 30030/2322 T11111161
14926KSTC STC20190108175016101/08/19 17:50:31  5-MIN KSTC 082350Z 30016G25KT 10SM CLR M11/M17 A3014 820 64 -2200 300/16G25 RMK AO2 PK WND 30030/2322 SLP234 60000 T11111167 11083 21111 53037
14926KSTC STC20190108175511501/08/19 17:55:31  5-MIN KSTC 082355Z 30014G25KT 10SM FEW033 M12/M16 A3015 820 70 -2200 300/14G25 RMK AO2 T11171161
14926KSTC STC20190108180011501/08/19 18:00:31  5-MIN KSTC 090000Z 30013G24KT 10SM FEW031 M11/M16 A3015 810 67 -2200 300/13G24 RMK AO2 T11111161
14926KSTC STC20190108180510901/08/19 18:05:31  5-MIN KSTC 090005Z 29013KT 10SM SCT031 M11/M16 A3016 810 67 -2200 290/13 RMK AO2 T11111161
14926KSTC STC20190108181010901/08/19 18:10:31  5-MIN KSTC 090010Z 29014KT 10SM BKN031 M11/M16 A3016 810 67 -2200 290/14 RMK AO2 T11111161
14926KSTC STC20190108181511501/08/19 18:15:31  5-MIN KSTC 090015Z 29017G22KT 10SM BKN032 M11/M16 A3016 810 67 -2200 290/17G22 RMK AO2 T11111161
14926KSTC STC20190108182013301/08/19 18:20:31  5-MIN KSTC 090020Z 30015G27KT 10SM BKN032 M11/M16 A3016 800 67 -2200 300/15G27 RMK AO2 PK WND 30027/0016 T11111161
14926KSTC STC20190108182513301/08/19 18:25:31  5-MIN KSTC 090025Z 29016G27KT 10SM BKN032 M11/M16 A3017 800 70 -2200 290/16G27 RMK AO2 PK WND 30027/0016 T11111156
14926KSTC STC20190108183013401/08/19 18:30:31  5-MIN KSTC 090030Z 30014KT 10SM FEW023 BKN031 M11/M16 A3016 800 70 -2200 300/14 RMK AO2 PK WND 30027/0016 T11111156
14926KSTC STC20190108183513401/08/19 18:35:31  5-MIN KSTC 090035Z 30015KT 10SM FEW023 BKN031 M11/M16 A3016 800 67 -2200 300/15 RMK AO2 PK WND 30027/0016 T11111161
14926KSTC STC20190108184013301/08/19 18:40:31  5-MIN KSTC 090040Z 30017G23KT 10SM BKN031 M11/M16 A3016 800 67 -2200 290/17G23 RMK AO2 PK WND 30027/0016 T11111161
14926KSTC STC20190108184513301/08/19 18:45:31  5-MIN KSTC 090045Z 29016G25KT 10SM SCT029 M12/M17 A3017 800 67 -2300 290/16G25 RMK AO2 PK WND 30027/0016 T11171167
14926KSTC STC20190108185014001/08/19 18:50:31  5-MIN KSTC 090050Z 30017G25KT 10SM FEW029 M12/M17 A3017 800 67 -2300 300/17G25 RMK AO2 PK WND 30027/0016 SLP243 T11171167
14926KSTC STC20190108185513301/08/19 18:55:31  5-MIN KSTC 090055Z 30016G26KT 10SM SCT029 M12/M16 A3017 800 70 -2300 300/16G26 RMK AO2 PK WND 29026/0055 T11171161
14926KSTC STC20190108190014001/08/19 19:00:31  5-MIN KSTC 090100Z 30018G26KT 10SM SCT029 SCT100 M12/M16 A3017 800 70 -2300 300/18G26 RMK AO2 PK WND 29026/0056 T11171161
14926KSTC STC20190108190514001/08/19 19:05:31  5-MIN KSTC 090105Z 29013G26KT 10SM SCT029 BKN100 M12/M16 A3017 800 73 -2300 290/13G26 RMK AO2 PK WND 29026/0056 T11171156
14926KSTC STC20190108191014001/08/19 19:10:31  5-MIN KSTC 090110Z 30017G23KT 10SM SCT029 BKN100 M12/M16 A3017 790 73 -2300 290/17G23 RMK AO2 PK WND 29026/0056 T11171156
14926KSTC STC20190108191514001/08/19 19:15:31  5-MIN KSTC 090115Z 30013G24KT 10SM SCT029 BKN100 M12/M16 A3017 800 70 -2300 300/13G24 RMK AO2 PK WND 29026/0056 T11171161
14926KSTC STC20190108192014001/08/19 19:20:31  5-MIN KSTC 090120Z 30019G25KT 10SM SCT029 OVC100 M12/M16 A3017 790 70 -2300 300/19G25 RMK AO2 PK WND 29026/0056 T11171161
14926KSTC STC20190108192514001/08/19 19:25:31  5-MIN KSTC 090125Z 30017G25KT 10SM SCT029 OVC100 M12/M17 A3017 790 67 -2300 300/17G25 RMK AO2 PK WND 29026/0056 T11171167
14926KSTC STC20190108193014001/08/19 19:30:31  5-MIN KSTC 090130Z 29012G26KT 10SM FEW029 OVC110 M12/M17 A3018 790 67 -2300 290/12G26 RMK AO2 PK WND 29026/0056 T11171167
14926KSTC STC20190108193514001/08/19 19:35:31  5-MIN KSTC 090135Z 29015G26KT 10SM SCT029 OVC110 M12/M16 A3018 790 70 -2300 280/15G26 RMK AO2 PK WND 29026/0056 T11171161
14926KSTC STC20190108194014001/08/19 19:40:31  5-MIN KSTC 090140Z 29016G22KT 10SM FEW029 OVC110 M12/M16 A3018 780 70 -2300 290/16G22 RMK AO2 PK WND 29026/0056 T11171161
14926KSTC STC20190108194514001/08/19 19:45:31  5-MIN KSTC 090145Z 30018G25KT 10SM FEW029 BKN110 M12/M17 A3018 780 67 -2300 290/18G25 RMK AO2 PK WND 29026/0056 T11171167
14926KSTC STC20190108195014701/08/19 19:50:31  5-MIN KSTC 090150Z 29021G31KT 10SM FEW029 BKN110 M12/M17 A3019 780 64 -2300 290/21G31 RMK AO2 PK WND 28031/0149 SLP249 T11171172
14926KSTC STC20190108195514001/08/19 19:55:31  5-MIN KSTC 090155Z 30020G31KT 10SM FEW029 BKN110 M12/M17 A3019 780 67 -2400 300/20G31 RMK AO2 PK WND 31028/0155 T11221172
14926KSTC STC20190108200014001/08/19 20:00:31  5-MIN KSTC 090200Z 29013G28KT 10SM FEW029 SCT110 M12/M17 A3019 780 67 -2400 290/13G28 RMK AO2 PK WND 31028/0155 T11221172
14926KSTC STC20190108200513301/08/19 20:05:31  5-MIN KSTC 090205Z 30020G28KT 10SM FEW110 M12/M17 A3019 780 67 -2400 300/20G28 RMK AO2 PK WND 31028/0204 T11221172
14926KSTC STC20190108201013001/08/19 20:10:31  5-MIN KSTC 090210Z 29017G28KT 10SM CLR M12/M17 A3019 780 67 -2400 290/17G28 RMK AO2 PK WND 31028/0204 T11221172
14926KSTC STC20190108201513001/08/19 20:15:31  5-MIN KSTC 090215Z 29017G23KT 10SM CLR M12/M17 A3019 770 67 -2400 290/17G23 RMK AO2 PK WND 31028/0204 T11221172
14926KSTC STC20190108202013001/08/19 20:20:31  5-MIN KSTC 090220Z 30014G24KT 10SM CLR M12/M17 A3019 770 67 -2400 300/14G24 RMK AO2 PK WND 31028/0204 T11221172
14926KSTC STC20190108202513001/08/19 20:25:31  5-MIN KSTC 090225Z 30017G24KT 10SM CLR M12/M17 A3020 770 67 -2400 300/17G24 RMK AO2 PK WND 31028/0204 T11221172
14926KSTC STC20190108203013001/08/19 20:30:31  5-MIN KSTC 090230Z 30014G22KT 10SM CLR M12/M17 A3020 770 67 -2400 290/14G22 RMK AO2 PK WND 31028/0204 T11221172
14926KSTC STC20190108203513001/08/19 20:35:31  5-MIN KSTC 090235Z 29016G26KT 10SM CLR M13/M17 A3020 770 70 -2400 290/16G26 RMK AO2 PK WND 31028/0204 T11281172
14926KSTC STC20190108204013001/08/19 20:40:31  5-MIN KSTC 090240Z 29018G26KT 10SM CLR M13/M18 A3020 770 66 -2400 290/18G26 RMK AO2 PK WND 31028/0204 T11281178
14926KSTC STC20190108204512401/08/19 20:45:31  5-MIN KSTC 090245Z 29017KT 10SM CLR M13/M17 A3021 760 70 -2400 290/17 RMK AO2 PK WND 31028/0204 T11281172
14926KSTC STC20190108205014301/08/19 20:50:31  5-MIN KSTC 090250Z 30017G24KT 10SM CLR M13/M18 A3021 760 66 -2500 300/17G24 RMK AO2 PK WND 31028/0204 SLP259 T11281178 53029
14926KSTC STC20190108205513001/08/19 20:55:31  5-MIN KSTC 090255Z 30019G26KT 10SM CLR M13/M18 A3021 760 66 -2500 290/19G26 RMK AO2 PK WND 30026/0254 T11281178
14926KSTC STC20190108210013001/08/19 21:00:31  5-MIN KSTC 090300Z 29017G26KT 10SM CLR M13/M18 A3021 760 66 -2500 290/17G26 RMK AO2 PK WND 30026/0254 T11281178
14926KSTC STC20190108210513001/08/19 21:05:31  5-MIN KSTC 090305Z 30017G26KT 10SM CLR M13/M18 A3022 750 66 -2500 290/17G26 RMK AO2 PK WND 30026/0254 T11281178
14926KSTC STC20190108211013001/08/19 21:10:31  5-MIN KSTC 090310Z 29016G26KT 10SM CLR M13/M18 A3022 750 66 -2500 290/16G26 RMK AO2 PK WND 30026/0254 T11281178
14926KSTC STC20190108211513001/08/19 21:15:31  5-MIN KSTC 090315Z 29017G24KT 10SM CLR M13/M18 A3022 750 66 -2500 290/17G24 RMK AO2 PK WND 30026/0254 T11281178
14926KSTC STC20190108212013001/08/19 21:20:31  5-MIN KSTC 090320Z 30018G24KT 10SM CLR M13/M18 A3022 750 66 -2500 300/18G24 RMK AO2 PK WND 30026/0254 T11281178
14926KSTC STC20190108212513001/08/19 21:25:31  5-MIN KSTC 090325Z 30016G24KT 10SM CLR M13/M18 A3022 750 66 -2500 290/16G24 RMK AO2 PK WND 30026/0254 T11281178
14926KSTC STC20190108213013001/08/19 21:30:31  5-MIN KSTC 090330Z 30015G24KT 10SM CLR M13/M18 A3023 750 66 -2500 300/15G24 RMK AO2 PK WND 30026/0254 T11281178
14926KSTC STC20190108213513001/08/19 21:35:31  5-MIN KSTC 090335Z 29015G23KT 10SM CLR M13/M18 A3023 740 66 -2500 290/15G23 RMK AO2 PK WND 30026/0254 T11281178
14926KSTC STC20190108214013001/08/19 21:40:31  5-MIN KSTC 090340Z 30015G22KT 10SM CLR M13/M18 A3023 740 66 -2500 300/15G22 RMK AO2 PK WND 30026/0254 T11281178
14926KSTC STC20190108214513001/08/19 21:45:31  5-MIN KSTC 090345Z 30018G23KT 10SM CLR M13/M18 A3023 740 66 -2500 300/18G23 RMK AO2 PK WND 30026/0254 T11281178
14926KSTC STC20190108215013701/08/19 21:50:31  5-MIN KSTC 090350Z 30015G23KT 10SM CLR M13/M18 A3023 740 69 -2500 300/15G23 RMK AO2 PK WND 30026/0254 SLP267 T11331178
14926KSTC STC20190108215511201/08/19 21:55:31  5-MIN KSTC 090355Z 30018G29KT 10SM CLR M13/M18 A3023 740 69 -2600 300/18G29 RMK AO2 T11331178
14926KSTC STC20190108220011201/08/19 22:00:31  5-MIN KSTC 090400Z 30016G29KT 10SM CLR M13/M18 A3023 740 69 -2600 300/16G29 RMK AO2 T11331178
14926KSTC STC20190108220511201/08/19 22:05:31  5-MIN KSTC 090405Z 30018G25KT 10SM CLR M13/M18 A3023 740 69 -2600 300/18G25 RMK AO2 T11331178
14926KSTC STC20190108221010601/08/19 22:10:31  5-MIN KSTC 090410Z 30016KT 10SM CLR M13/M18 A3024 740 69 -2600 300/16 RMK AO2 T11331178
14926KSTC STC20190108221511201/08/19 22:15:31  5-MIN KSTC 090415Z 30016G23KT 10SM CLR M13/M18 A3023 740 66 -2600 300/16G23 RMK AO2 T11331183
14926KSTC STC20190108222010601/08/19 22:20:31  5-MIN KSTC 090420Z 30017KT 10SM CLR M13/M18 A3023 740 66 -2600 300/17 RMK AO2 T11331183
14926KSTC STC20190108222511201/08/19 22:25:31  5-MIN KSTC 090425Z 29016G24KT 10SM CLR M13/M18 A3024 740 66 -2600 290/16G24 RMK AO2 T11331183
14926KSTC STC20190108223011201/08/19 22:30:31  5-MIN KSTC 090430Z 30018G24KT 10SM CLR M13/M18 A3024 730 66 -2600 300/18G24 RMK AO2 T11331183
14926KSTC STC20190108223511201/08/19 22:35:31  5-MIN KSTC 090435Z 30015G23KT 10SM CLR M13/M18 A3024 730 66 -2600 300/15G23 RMK AO2 T11331183
14926KSTC STC20190108224010601/08/19 22:40:31  5-MIN KSTC 090440Z 30015KT 10SM CLR M13/M18 A3024 730 66 -2600 300/15 RMK AO2 T11331183
14926KSTC STC20190108224511201/08/19 22:45:31  5-MIN KSTC 090445Z 30014G22KT 10SM CLR M13/M18 A3024 730 66 -2600 300/14G22 RMK AO2 T11331183
14926KSTC STC20190108225011901/08/19 22:50:31  5-MIN KSTC 090450Z 30018G24KT 10SM CLR M13/M18 A3024 730 66 -2600 300/18G24 RMK AO2 SLP271 T11331183
14926KSTC STC20190108225511201/08/19 22:55:31  5-MIN KSTC 090455Z 30015G24KT 10SM CLR M13/M18 A3024 730 66 -2600 300/15G24 RMK AO2 T11331183
14926KSTC STC20190108230011101/08/19 23:00:31  5-MIN KSTC 090500Z AUTO 30015KT 10SM CLR M14/M18 A3024 730 69 -2600 300/15 RMK AO2 T11391183
14926KSTC STC20190108230511701/08/19 23:05:31  5-MIN KSTC 090505Z AUTO 30016G23KT 10SM CLR M14/M18 A3025 730 69 -2600 300/16G23 RMK AO2 T11391183
14926KSTC STC20190108231011701/08/19 23:10:31  5-MIN KSTC 090510Z AUTO 31016G23KT 10SM CLR M14/M18 A3024 730 69 -2600 300/16G23 RMK AO2 T11391183
14926KSTC STC20190108231511701/08/19 23:15:31  5-MIN KSTC 090515Z AUTO 30017G25KT 10SM CLR M14/M18 A3025 730 69 -2600 300/17G25 RMK AO2 T11391183
14926KSTC STC20190108232011701/08/19 23:20:31  5-MIN KSTC 090520Z AUTO 30016G25KT 10SM CLR M14/M18 A3025 730 69 -2600 300/16G25 RMK AO2 T11391183
14926KSTC STC20190108232511101/08/19 23:25:31  5-MIN KSTC 090525Z AUTO 30015KT 10SM CLR M14/M18 A3025 720 69 -2600 300/15 RMK AO2 T11391183
14926KSTC STC20190108233011701/08/19 23:30:31  5-MIN KSTC 090530Z AUTO 30016G23KT 10SM CLR M14/M18 A3025 720 69 -2600 300/16G23 RMK AO2 T11391183
14926KSTC STC20190108233511701/08/19 23:35:31  5-MIN KSTC 090535Z AUTO 30014G22KT 10SM CLR M14/M18 A3025 720 69 -2600 300/14G22 RMK AO2 T11391183
14926KSTC STC20190108234011701/08/19 23:40:31  5-MIN KSTC 090540Z AUTO 30016G23KT 10SM CLR M14/M18 A3025 720 69 -2600 300/16G23 RMK AO2 T11391183
14926KSTC STC20190108234511701/08/19 23:45:31  5-MIN KSTC 090545Z AUTO 30014G23KT 10SM CLR M14/M18 A3025 720 69 -2600 300/14G23 RMK AO2 T11391183
14926KSTC STC20190108235014601/08/19 23:50:31  5-MIN KSTC 090550Z AUTO 30014KT 10SM CLR M14/M18 A3025 720 69 -2700 300/14 RMK AO2 SLP276 T11391183 11111 21139 400221139 51021
14926KSTC STC20190108235511101/08/19 23:55:31  5-MIN KSTC 090555Z AUTO 30014KT 10SM CLR M14/M18 A3026 720 69 -2700 300/14 RMK AO2 T11391183
14926KSTC STC20190109000011701/09/19 00:00:31  5-MIN KSTC 090600Z AUTO 30015G21KT 10SM CLR M14/M18 A3026 720 69 -2700 300/15G21 RMK AO2 T11391183
14926KSTC STC20190109000511101/09/19 00:05:31  5-MIN KSTC 090605Z AUTO 30014KT 10SM CLR M14/M18 A3026 720 69 -2700 300/14 RMK AO2 T11391183
14926KSTC STC20190109001011101/09/19 00:10:31  5-MIN KSTC 090610Z AUTO 30013KT 10SM CLR M14/M18 A3026 720 69 -2700 300/13 RMK AO2 T11391183
14926KSTC STC20190109001513501/09/19 00:15:31  5-MIN KSTC 090615Z AUTO 30016G26KT 10SM CLR M14/M18 A3026 710 69 -2700 290/16G26 RMK AO2 PK WND 30026/0613 T11391183
14926KSTC STC20190109002013501/09/19 00:20:31  5-MIN KSTC 090620Z AUTO 30015G26KT 10SM CLR M14/M18 A3026 710 69 -2700 300/15G26 RMK AO2 PK WND 30026/0613 T11391183
14926KSTC STC20190109002513501/09/19 00:25:31  5-MIN KSTC 090625Z AUTO 30018G24KT 10SM CLR M14/M19 A3027 710 66 -2700 300/18G24 RMK AO2 PK WND 30026/0613 T11391189
14926KSTC STC20190109003013501/09/19 00:30:31  5-MIN KSTC 090630Z AUTO 30015G24KT 10SM CLR M14/M19 A3027 710 66 -2700 300/15G24 RMK AO2 PK WND 30026/0613 T11391189
14926KSTC STC20190109003512901/09/19 00:35:31  5-MIN KSTC 090635Z AUTO 30017KT 10SM CLR M14/M19 A3027 710 69 -2700 300/17 RMK AO2 PK WND 30026/0613 T11441189
14926KSTC STC20190109004013501/09/19 00:40:31  5-MIN KSTC 090640Z AUTO 30014G24KT 10SM CLR M14/M19 A3027 700 69 -2700 300/14G24 RMK AO2 PK WND 30026/0613 T11441189
14926KSTC STC20190109004513501/09/19 00:45:31  5-MIN KSTC 090645Z AUTO 30014G24KT 10SM CLR M14/M19 A3027 700 69 -2700 300/14G24 RMK AO2 PK WND 30026/0613 T11441189
14926KSTC STC20190109005014201/09/19 00:50:31  5-MIN KSTC 090650Z AUTO 30017G24KT 10SM CLR M14/M19 A3027 700 69 -2700 300/17G24 RMK AO2 PK WND 30026/0613 SLP284 T11441189
14926KSTC STC20190109005511701/09/19 00:55:31  5-MIN KSTC 090655Z AUTO 30018G24KT 10SM CLR M14/M19 A3028 700 69 -2800 300/18G24 RMK AO2 T11441189
14926KSTC STC20190109010011701/09/19 01:00:31  5-MIN KSTC 090700Z AUTO 30017G24KT 10SM CLR M14/M19 A3028 700 69 -2800 300/17G24 RMK AO2 T11441189
14926KSTC STC20190109010511701/09/19 01:05:31  5-MIN KSTC 090705Z AUTO 30018G24KT 10SM CLR M14/M19 A3028 700 69 -2800 300/18G24 RMK AO2 T11441189
14926KSTC STC20190109011011701/09/19 01:10:31  5-MIN KSTC 090710Z AUTO 30016G24KT 10SM CLR M14/M19 A3029 690 69 -2800 300/16G24 RMK AO2 T11441189
14926KSTC STC20190109011511701/09/19 01:15:31  5-MIN KSTC 090715Z AUTO 30015G23KT 10SM CLR M14/M19 A3029 690 69 -2800 300/15G23 RMK AO2 T11441189
14926KSTC STC20190109012011701/09/19 01:20:31  5-MIN KSTC 090720Z AUTO 30016G23KT 10SM CLR M14/M19 A3029 690 69 -2800 300/16G23 RMK AO2 T11441189
14926KSTC STC20190109012511701/09/19 01:25:31  5-MIN KSTC 090725Z AUTO 30014G24KT 10SM CLR M14/M19 A3029 690 69 -2800 300/14G24 RMK AO2 T11441189
14926KSTC STC20190109013011701/09/19 01:30:31  5-MIN KSTC 090730Z AUTO 29014G24KT 10SM CLR M14/M19 A3029 690 69 -2800 290/14G24 RMK AO2 T11441189
14926KSTC STC20190109013511701/09/19 01:35:31  5-MIN KSTC 090735Z AUTO 30014G21KT 10SM CLR M14/M19 A3029 680 69 -2800 300/14G21 RMK AO2 T11441189
14926KSTC STC20190109014011701/09/19 01:40:31  5-MIN KSTC 090740Z AUTO 30014G21KT 10SM CLR M14/M19 A3030 680 69 -2800 300/14G21 RMK AO2 T11441189
14926KSTC STC20190109014511101/09/19 01:45:31  5-MIN KSTC 090745Z AUTO 30015KT 10SM CLR M14/M19 A3030 680 69 -2800 300/15 RMK AO2 T11441189
14926KSTC STC20190109015011801/09/19 01:50:31  5-MIN KSTC 090750Z AUTO 30016KT 10SM CLR M14/M19 A3030 680 69 -2800 300/16 RMK AO2 SLP293 T11441189
14926KSTC STC20190109015511101/09/19 01:55:31  5-MIN KSTC 090755Z AUTO 30017KT 10SM CLR M15/M19 A3030 680 72 -2900 300/17 RMK AO2 T11501189
14926KSTC STC20190109020011101/09/19 02:00:31  5-MIN KSTC 090800Z AUTO 30017KT 10SM CLR M15/M19 A3031 670 72 -2900 300/17 RMK AO2 T11501189
14926KSTC STC20190109020511101/09/19 02:05:31  5-MIN KSTC 090805Z AUTO 30017KT 10SM CLR M15/M19 A3031 670 72 -2900 300/17 RMK AO2 T11501189
14926KSTC STC20190109021011101/09/19 02:10:31  5-MIN KSTC 090810Z AUTO 29014KT 10SM CLR M15/M19 A3031 670 69 -2900 290/14 RMK AO2 T11501194
14926KSTC STC20190109021511701/09/19 02:15:31  5-MIN KSTC 090815Z AUTO 30017G24KT 10SM CLR M15/M19 A3031 670 69 -2900 300/17G24 RMK AO2 T11501194
14926KSTC STC20190109022011101/09/19 02:20:31  5-MIN KSTC 090820Z AUTO 30017KT 10SM CLR M15/M19 A3032 660 69 -2900 300/17 RMK AO2 T11501194
14926KSTC STC20190109022511101/09/19 02:25:31  5-MIN KSTC 090825Z AUTO 30017KT 10SM CLR M15/M19 A3033 650 69 -2900 300/17 RMK AO2 T11501194
14926KSTC STC20190109023013501/09/19 02:30:31  5-MIN KSTC 090830Z AUTO 29016G27KT 10SM CLR M15/M19 A3033 650 69 -2900 290/16G27 RMK AO2 PK WND 31027/0827 T11501194
14926KSTC STC20190109023513501/09/19 02:35:31  5-MIN KSTC 090835Z AUTO 29017G27KT 10SM CLR M15/M19 A3033 650 69 -2900 290/17G27 RMK AO2 PK WND 31027/0827 T11501194
14926KSTC STC20190109024012901/09/19 02:40:31  5-MIN KSTC 090840Z AUTO 30015KT 10SM CLR M15/M19 A3034 640 69 -2900 300/15 RMK AO2 PK WND 31027/0827 T11501194
14926KSTC STC20190109024513501/09/19 02:45:31  5-MIN KSTC 090845Z AUTO 30018G25KT 10SM CLR M15/M19 A3034 640 69 -2900 300/18G25 RMK AO2 PK WND 31027/0827 T11501194
14926KSTC STC20190109025014801/09/19 02:50:31  5-MIN KSTC 090850Z AUTO 29015G25KT 10SM CLR M15/M19 A3033 650 69 -2900 290/15G25 RMK AO2 PK WND 31027/0827 SLP305 T11501194 51015
14926KSTC STC20190109025511101/09/19 02:55:31  5-MIN KSTC 090855Z AUTO 30015KT 10SM CLR M15/M19 A3033 650 69 -2900 300/15 RMK AO2 T11501194
14926KSTC STC20190109030011101/09/19 03:00:31  5-MIN KSTC 090900Z AUTO 30016KT 10SM CLR M15/M19 A3034 640 69 -2900 300/16 RMK AO2 T11501194
14926KSTC STC20190109030511101/09/19 03:05:31  5-MIN KSTC 090905Z AUTO 30016KT 10SM CLR M15/M19 A3033 650 69 -2900 300/16 RMK AO2 T11501194
14926KSTC STC20190109031011101/09/19 03:10:31  5-MIN KSTC 090910Z AUTO 31013KT 10SM CLR M16/M19 A3034 640 72 -3000 310/13 RMK AO2 T11561194
14926KSTC STC20190109031511101/09/19 03:15:31  5-MIN KSTC 090915Z AUTO 31012KT 10SM CLR M16/M19 A3034 640 72 -3000 310/12 RMK AO2 T11561194
14926KSTC STC20190109032011101/09/19 03:20:31  5-MIN KSTC 090920Z AUTO 30014KT 10SM CLR M16/M19 A3034 640 72 -3000 300/14 RMK AO2 T11561194
14926KSTC STC20190109032511701/09/19 03:25:31  5-MIN KSTC 090925Z AUTO 31016G24KT 10SM CLR M16/M19 A3035 640 72 -3000 310/16G24 RMK AO2 T11561194
14926KSTC STC20190109033011701/09/19 03:30:31  5-MIN KSTC 090930Z AUTO 31017G24KT 10SM CLR M16/M19 A3034 640 72 -3000 300/17G24 RMK AO2 T11561194
14926KSTC STC20190109033511701/09/19 03:35:31  5-MIN KSTC 090935Z AUTO 31018G23KT 10SM CLR M16/M19 A3034 640 72 -3000 300/18G23 RMK AO2 T11561194
14926KSTC STC20190109034011701/09/19 03:40:31  5-MIN KSTC 090940Z AUTO 31014G23KT 10SM CLR M16/M19 A3035 640 72 -3000 310/14G23 RMK AO2 T11561194
14926KSTC STC20190109034511101/09/19 03:45:31  5-MIN KSTC 090945Z AUTO 31015KT 10SM CLR M16/M19 A3034 640 72 -3000 310/15 RMK AO2 T11561194
14926KSTC STC20190109035011801/09/19 03:50:31  5-MIN KSTC 090950Z AUTO 31016KT 10SM CLR M16/M19 A3035 640 72 -3000 300/16 RMK AO2 SLP310 T11561194
14926KSTC STC20190109035511101/09/19 03:55:31  5-MIN KSTC 090955Z AUTO 30015KT 10SM CLR M16/M19 A3035 630 72 -3000 300/15 RMK AO2 T11561194
14926KSTC STC20190109040011701/09/19 04:00:31  5-MIN KSTC 091000Z AUTO 31011G21KT 10SM CLR M16/M19 A3035 640 72 -3000 310/11G21 RMK AO2 T11561194
14926KSTC STC20190109040511101/09/19 04:05:31  5-MIN KSTC 091005Z AUTO 31014KT 10SM CLR M16/M20 A3034 640 69 -3000 310/14 RMK AO2 T11561200
14926KSTC STC20190109041011701/09/19 04:10:31  5-MIN KSTC 091010Z AUTO 31012G22KT 10SM CLR M16/M20 A3035 640 69 -3000 310/12G22 RMK AO2 T11561200
14926KSTC STC20190109041511701/09/19 04:15:31  5-MIN KSTC 091015Z AUTO 30015G22KT 10SM CLR M16/M20 A3035 630 69 -3000 300/15G22 RMK AO2 T11561200
14926KSTC STC20190109042011101/09/19 04:20:31  5-MIN KSTC 091020Z AUTO 30013KT 10SM CLR M16/M20 A3036 620 69 -3000 300/13 RMK AO2 T11561200
14926KSTC STC20190109042511101/09/19 04:25:31  5-MIN KSTC 091025Z AUTO 30014KT 10SM CLR M16/M20 A3036 620 69 -3000 300/14 RMK AO2 T11561200
14926KSTC STC20190109043011101/09/19 04:30:31  5-MIN KSTC 091030Z AUTO 30015KT 10SM CLR M16/M20 A3036 620 69 -3000 300/15 RMK AO2 T11561200
14926KSTC STC20190109043511101/09/19 04:35:31  5-MIN KSTC 091035Z AUTO 30014KT 10SM CLR M16/M20 A3036 630 72 -3100 300/14 RMK AO2 T11611200
14926KSTC STC20190109044011101/09/19 04:40:31  5-MIN KSTC 091040Z AUTO 31014KT 10SM CLR M16/M20 A3036 620 72 -3100 310/14 RMK AO2 T11611200
14926KSTC STC20190109044511101/09/19 04:45:31  5-MIN KSTC 091045Z AUTO 31015KT 10SM CLR M16/M20 A3036 620 72 -3100 310/15 RMK AO2 T11611200
14926KSTC STC20190109045011801/09/19 04:50:31  5-MIN KSTC 091050Z AUTO 31015KT 10SM CLR M16/M20 A3036 620 72 -3100 300/15 RMK AO2 SLP316 T11611200
14926KSTC STC20190109045511101/09/19 04:55:31  5-MIN KSTC 091055Z AUTO 30013KT 10SM CLR M16/M20 A3037 610 72 -3100 300/13 RMK AO2 T11611200
14926KSTC STC20190109050011101/09/19 05:00:31  5-MIN KSTC 091100Z AUTO 30014KT 10SM CLR M16/M20 A3037 610 72 -3100 300/14 RMK AO2 T11611200
14926KSTC STC20190109050511101/09/19 05:05:31  5-MIN KSTC 091105Z AUTO 30016KT 10SM CLR M16/M20 A3038 610 72 -3100 300/16 RMK AO2 T11611200
14926KSTC STC20190109051011101/09/19 05:10:31  5-MIN KSTC 091110Z AUTO 30014KT 10SM CLR M16/M20 A3038 610 72 -3100 300/14 RMK AO2 T11611200
14926KSTC STC20190109051511101/09/19 05:15:31  5-MIN KSTC 091115Z AUTO 30015KT 10SM CLR M16/M20 A3038 600 72 -3100 300/15 RMK AO2 T11611200
14926KSTC STC20190109052011701/09/19 05:20:31  5-MIN KSTC 091120Z AUTO 30016G24KT 10SM CLR M16/M20 A3038 600 72 -3100 300/16G24 RMK AO2 T11611200
14926KSTC STC20190109052511701/09/19 05:25:31  5-MIN KSTC 091125Z AUTO 30015G24KT 10SM CLR M16/M21 A3038 600 69 -3100 300/15G24 RMK AO2 T11611206
14926KSTC STC20190109053011101/09/19 05:30:31  5-MIN KSTC 091130Z AUTO 31017KT 10SM CLR M16/M21 A3038 600 69 -3100 310/17 RMK AO2 T11611206
14926KSTC STC20190109053511101/09/19 05:35:31  5-MIN KSTC 091135Z AUTO 31015KT 10SM CLR M16/M21 A3038 600 69 -3100 300/15 RMK AO2 T11611206
14926KSTC STC20190109054011101/09/19 05:40:31  5-MIN KSTC 091140Z AUTO 31014KT 10SM CLR M16/M21 A3038 600 69 -3100 310/14 RMK AO2 T11611206
14926KSTC STC20190109054511101/09/19 05:45:31  5-MIN KSTC 091145Z AUTO 31013KT 10SM CLR M17/M21 A3039 600 72 -3200 310/13 RMK AO2 T11671206
14926KSTC STC20190109055013601/09/19 05:50:31  5-MIN KSTC 091150Z AUTO 31015KT 10SM CLR M17/M21 A3039 600 72 -3200 310/15 RMK AO2 SLP325 T11671206 11139 21167 53025
14926KSTC STC20190109055511101/09/19 05:55:31  5-MIN KSTC 091155Z AUTO 31013KT 10SM CLR M17/M21 A3039 600 72 -3200 310/13 RMK AO2 T11671206
14926KSTC STC20190109060011101/09/19 06:00:31  5-MIN KSTC 091200Z AUTO 31014KT 10SM CLR M17/M21 A3039 590 72 -3200 310/14 RMK AO2 T11671206
14926KSTC STC20190109060511101/09/19 06:05:31  5-MIN KSTC 091205Z AUTO 31014KT 10SM CLR M17/M21 A3039 590 72 -3200 310/14 RMK AO2 T11671206
14926KSTC STC20190109061011101/09/19 06:10:31  5-MIN KSTC 091210Z AUTO 31013KT 10SM CLR M17/M21 A3039 590 72 -3200 310/13 RMK AO2 T11671206
14926KSTC STC20190109061511101/09/19 06:15:31  5-MIN KSTC 091215Z AUTO 31012KT 10SM CLR M17/M21 A3039 590 72 -3200 310/12 RMK AO2 T11671206
14926KSTC STC20190109062011701/09/19 06:20:31  5-MIN KSTC 091220Z AUTO 31013G20KT 10SM CLR M17/M21 A3040 590 72 -3200 310/13G20 RMK AO2 T11671206
14926KSTC STC20190109062511101/09/19 06:25:31  5-MIN KSTC 091225Z AUTO 31013KT 10SM CLR M17/M21 A3040 590 72 -3200 300/13 RMK AO2 T11671206
14926KSTC STC20190109063011101/09/19 06:30:31  5-MIN KSTC 091230Z AUTO 31012KT 10SM CLR M17/M21 A3040 580 72 -3200 310/12 RMK AO2 T11671206
14926KSTC STC20190109063511101/09/19 06:35:31  5-MIN KSTC 091235Z AUTO 31013KT 10SM CLR M17/M21 A3040 590 72 -3200 310/13 RMK AO2 T11671206
14926KSTC STC20190109064011101/09/19 06:40:31  5-MIN KSTC 091240Z AUTO 31012KT 10SM CLR M17/M21 A3040 580 72 -3200 310/12 RMK AO2 T11671206
14926KSTC STC20190109064511101/09/19 06:45:31  5-MIN KSTC 091245Z AUTO 31012KT 10SM CLR M17/M21 A3041 580 72 -3200 310/12 RMK AO2 T11671206
14926KSTC STC20190109065012401/09/19 06:50:31  5-MIN KSTC 091250Z AUTO 31015G22KT 10SM CLR M17/M21 A3041 580 72 -3200 310/15G22 RMK AO2 SLP332 T11671206
14926KSTC STC20190109065511701/09/19 06:55:31  5-MIN KSTC 091255Z AUTO 31011G22KT 10SM CLR M17/M21 A3041 580 72 -3200 310/11G22 RMK AO2 T11671206
14926KSTC STC20190109070011101/09/19 07:00:31  5-MIN KSTC 091300Z AUTO 31015KT 10SM CLR M17/M21 A3041 580 72 -3200 310/15 RMK AO2 T11671206
14926KSTC STC20190109070510601/09/19 07:05:31  5-MIN KSTC 091305Z 31013KT 10SM CLR M17/M21 A3041 570 72 -3200 310/13 RMK AO2 T11671206
14926KSTC STC20190109071010601/09/19 07:10:31  5-MIN KSTC 091310Z 31013KT 10SM CLR M17/M21 A3041 580 72 -3200 310/13 RMK AO2 T11671206
14926KSTC STC20190109071510601/09/19 07:15:31  5-MIN KSTC 091315Z 31012KT 10SM CLR M17/M21 A3041 570 72 -3200 310/12 RMK AO2 T11671206
14926KSTC STC20190109072010601/09/19 07:20:31  5-MIN KSTC 091320Z 31012KT 10SM CLR M17/M21 A3042 570 72 -3200 310/12 RMK AO2 T11671206
14926KSTC STC20190109072510601/09/19 07:25:31  5-MIN KSTC 091325Z 31014KT 10SM CLR M17/M21 A3042 570 69 -3200 310/14 RMK AO2 T11671211
14926KSTC STC20190109073010601/09/19 07:30:31  5-MIN KSTC 091330Z 31011KT 10SM CLR M17/M21 A3042 570 72 -3200 310/11 RMK AO2 T11671206
14926KSTC STC20190109073510601/09/19 07:35:31  5-MIN KSTC 091335Z 31010KT 10SM CLR M17/M21 A3042 570 69 -3200 300/10 RMK AO2 T11671211
14926KSTC STC20190109074010601/09/19 07:40:31  5-MIN KSTC 091340Z 31011KT 10SM CLR M17/M21 A3042 560 72 -3300 310/11 RMK AO2 T11721211
14926KSTC STC20190109074510601/09/19 07:45:31  5-MIN KSTC 091345Z 31010KT 10SM CLR M17/M21 A3043 560 72 -3300 310/10 RMK AO2 T11721211
14926KSTC STC20190109075011301/09/19 07:50:31  5-MIN KSTC 091350Z 31009KT 10SM CLR M17/M21 A3043 560 72 -3300 310/09 RMK AO2 SLP338 T11721211
14926KSTC STC20190109075510601/09/19 07:55:31  5-MIN KSTC 091355Z 31013KT 10SM CLR M17/M21 A3043 560 72 -3300 310/13 RMK AO2 T11721211
14926KSTC STC20190109080010601/09/19 08:00:31  5-MIN KSTC 091400Z 31010KT 10SM CLR M17/M21 A3043 560 72 -3300 310/10 RMK AO2 T11721211
14926KSTC STC20190109080510601/09/19 08:05:31  5-MIN KSTC 091405Z 31012KT 10SM CLR M17/M21 A3043 550 72 -3300 310/12 RMK AO2 T11721211
14926KSTC STC20190109081010601/09/19 08:10:31  5-MIN KSTC 091410Z 31012KT 10SM CLR M17/M21 A3043 550 72 -3300 310/12 RMK AO2 T11721211
14926KSTC STC20190109081510601/09/19 08:15:31  5-MIN KSTC 091415Z 31011KT 10SM CLR M17/M21 A3044 550 72 -3300 310/11 RMK AO2 T11721211
14926KSTC STC20190109082010601/09/19 08:20:31  5-MIN KSTC 091420Z 31012KT 10SM CLR M17/M21 A3044 550 72 -3300 310/12 RMK AO2 T11721211
14926KSTC STC20190109082510601/09/19 08:25:31  5-MIN KSTC 091425Z 31013KT 10SM CLR M17/M21 A3044 550 69 -3200 310/13 RMK AO2 T11671211
14926KSTC STC20190109083010601/09/19 08:30:31  5-MIN KSTC 091430Z 31012KT 10SM CLR M17/M21 A3045 540 69 -3200 310/12 RMK AO2 T11671211
14926KSTC STC20190109083510601/09/19 08:35:31  5-MIN KSTC 091435Z 31013KT 10SM CLR M17/M21 A3045 540 69 -3300 310/13 RMK AO2 T11671211
14926KSTC STC20190109084010601/09/19 08:40:31  5-MIN KSTC 091440Z 31012KT 10SM CLR M17/M21 A3045 540 69 -3200 310/12 RMK AO2 T11671211
14926KSTC STC20190109084510601/09/19 08:45:31  5-MIN KSTC 091445Z 31011KT 10SM CLR M17/M21 A3045 540 69 -3300 310/11 RMK AO2 T11671211
14926KSTC STC20190109085011901/09/19 08:50:31  5-MIN KSTC 091450Z 31014KT 10SM CLR M17/M21 A3046 530 69 -3300 310/14 RMK AO2 SLP348 T11671211 53017
14926KSTC STC20190109085510601/09/19 08:55:31  5-MIN KSTC 091455Z 31012KT 10SM CLR M17/M21 A3045 540 69 -3300 310/12 RMK AO2 T11671211
14926KSTC STC20190109090010601/09/19 09:00:31  5-MIN KSTC 091500Z 32013KT 10SM CLR M17/M21 A3046 530 69 -3300 320/13 RMK AO2 T11671211
14926KSTC STC20190109090510601/09/19 09:05:31  5-MIN KSTC 091505Z 32012KT 10SM CLR M17/M21 A3046 530 69 -3300 320/12 RMK AO2 T11671211
14926KSTC STC20190109091010601/09/19 09:10:31  5-MIN KSTC 091510Z 31013KT 10SM CLR M17/M21 A3046 530 69 -3300 310/13 RMK AO2 T11671211
14926KSTC STC20190109091510601/09/19 09:15:31  5-MIN KSTC 091515Z 31013KT 10SM CLR M17/M21 A3047 530 69 -3300 310/13 RMK AO2 T11671211
14926KSTC STC20190109092010601/09/19 09:20:31  5-MIN KSTC 091520Z 31012KT 10SM CLR M17/M21 A3047 530 69 -3300 310/12 RMK AO2 T11671211
14926KSTC STC20190109092510601/09/19 09:25:31  5-MIN KSTC 091525Z 31015KT 10SM CLR M17/M21 A3047 520 72 -3300 310/15 RMK AO2 T11671206
14926KSTC STC20190109093010601/09/19 09:30:31  5-MIN KSTC 091530Z 31013KT 10SM CLR M17/M21 A3047 520 69 -3300 310/13 RMK AO2 T11671211
14926KSTC STC20190109093510601/09/19 09:35:31  5-MIN KSTC 091535Z 31014KT 10SM CLR M16/M21 A3047 520 69 -3200 310/14 RMK AO2 T11611206
14926KSTC STC20190109094010601/09/19 09:40:31  5-MIN KSTC 091540Z 31015KT 10SM CLR M16/M21 A3047 520 69 -3200 310/15 RMK AO2 T11611206
14926KSTC STC20190109094510601/09/19 09:45:31  5-MIN KSTC 091545Z 31014KT 10SM CLR M16/M21 A3048 520 69 -3200 310/14 RMK AO2 T11611206
14926KSTC STC20190109095011301/09/19 09:50:31  5-MIN KSTC 091550Z 32014KT 10SM CLR M16/M21 A3047 520 69 -3200 320/14 RMK AO2 SLP355 T11611206
14926KSTC STC20190109095510601/09/19 09:55:31  5-MIN KSTC 091555Z 31012KT 10SM CLR M16/M21 A3047 520 69 -3200 310/12 RMK AO2 T11611206
14926KSTC STC20190109100011201/09/19 10:00:31  5-MIN KSTC 091600Z 31011G21KT 10SM CLR M16/M21 A3047 520 69 -3200 310/11G21 RMK AO2 T11611206
14926KSTC STC20190109100511201/09/19 10:05:31  5-MIN KSTC 091605Z 31012G21KT 10SM CLR M16/M21 A3047 520 66 -3100 310/12G21 RMK AO2 T11561206
14926KSTC STC20190109101011201/09/19 10:10:31  5-MIN KSTC 091610Z 32013G20KT 10SM CLR M16/M21 A3047 520 66 -3100 320/13G20 RMK AO2 T11561206
14926KSTC STC20190109101511201/09/19 10:15:31  5-MIN KSTC 091615Z 32015G21KT 10SM CLR M16/M20 A3048 520 69 -3100 310/15G21 RMK AO2 T11561200
14926KSTC STC20190109102010601/09/19 10:20:31  5-MIN KSTC 091620Z 31014KT 10SM CLR M16/M21 A3048 520 66 -3100 310/14 RMK AO2 T11561206
14926KSTC STC20190109102510601/09/19 10:25:31  5-MIN KSTC 091625Z 31013KT 10SM CLR M16/M20 A3048 510 69 -3100 310/13 RMK AO2 T11561200
14926KSTC STC20190109103011201/09/19 10:30:31  5-MIN KSTC 091630Z 31013G22KT 10SM CLR M16/M20 A3048 520 69 -3100 310/13G22 RMK AO2 T11561200
14926KSTC STC20190109103511201/09/19 10:35:31  5-MIN KSTC 091635Z 31014G22KT 10SM CLR M16/M20 A3048 520 69 -3100 310/14G22 RMK AO2 T11561200
14926KSTC STC20190109104010601/09/19 10:40:31  5-MIN KSTC 091640Z 32010KT 10SM CLR M15/M20 A3048 510 66 -3100 320/10 RMK AO2 T11501200
14926KSTC STC20190109104510601/09/19 10:45:31  5-MIN KSTC 091645Z 32013KT 10SM CLR M15/M20 A3047 520 66 -3100 320/13 RMK AO2 T11501200
14926KSTC STC20190109105011301/09/19 10:50:31  5-MIN KSTC 091650Z 31013KT 10SM CLR M15/M20 A3048 520 66 -3100 310/13 RMK AO2 SLP355 T11501200
14926KSTC STC20190109105510601/09/19 10:55:31  5-MIN KSTC 091655Z 31014KT 10SM CLR M15/M20 A3048 520 66 -3100 310/14 RMK AO2 T11501200
14926KSTC STC20190109110010601/09/19 11:00:31  5-MIN KSTC 091700Z 31013KT 10SM CLR M15/M19 A3047 520 69 -3100 310/13 RMK AO2 T11501194
14926KSTC STC20190109110510601/09/19 11:05:31  5-MIN KSTC 091705Z 31012KT 10SM CLR M15/M19 A3047 520 69 -3000 310/12 RMK AO2 T11501194
14926KSTC STC20190109111011201/09/19 11:10:31  5-MIN KSTC 091710Z 32011G20KT 10SM CLR M15/M19 A3047 530 69 -3000 320/11G20 RMK AO2 T11501194
14926KSTC STC20190109111510601/09/19 11:15:31  5-MIN KSTC 091715Z 31013KT 10SM CLR M14/M19 A3047 530 66 -3000 310/13 RMK AO2 T11441194
14926KSTC STC20190109112011201/09/19 11:20:31  5-MIN KSTC 091720Z 32009G20KT 10SM CLR M14/M19 A3047 530 66 -3000 320/09G20 RMK AO2 T11441194
14926KSTC STC20190109112511201/09/19 11:25:31  5-MIN KSTC 091725Z 31012G20KT 10SM CLR M14/M19 A3047 520 66 -3000 310/12G20 RMK AO2 T11441194
14926KSTC STC20190109113010601/09/19 11:30:31  5-MIN KSTC 091730Z 31013KT 10SM CLR M14/M19 A3046 530 66 -3000 310/13 RMK AO2 T11441194
14926KSTC STC20190109113510601/09/19 11:35:31  5-MIN KSTC 091735Z 32012KT 10SM CLR M14/M19 A3046 530 66 -3000 320/12 RMK AO2 T11441194
14926KSTC STC20190109114010601/09/19 11:40:31  5-MIN KSTC 091740Z 31013KT 10SM CLR M14/M19 A3047 530 63 -2900 310/13 RMK AO2 T11391194
14926KSTC STC20190109114511201/09/19 11:45:31  5-MIN KSTC 091745Z 31013G20KT 10SM CLR M14/M19 A3046 530 66 -2900 310/13G20 RMK AO2 T11391189
14926KSTC STC20190109115013101/09/19 11:50:31  5-MIN KSTC 091750Z 31013KT 10SM CLR M14/M19 A3046 530 66 -2900 310/13 RMK AO2 SLP349 T11391189 11139 21172 53023
14926KSTC STC20190109221010601/09/19 22:10:31  5-MIN KSTC 100410Z 00000KT 10SM CLR M16/M19 A3045 540 76 -3100 000/00 RMK AO2 T11561189
14926KSTC STC20190109221510601/09/19 22:15:31  5-MIN KSTC 100415Z 00000KT 10SM CLR M15/M19 A3046 530 72 -3000 000/00 RMK AO2 T11501189
14926KSTC STC20190109222010601/09/19 22:20:31  5-MIN KSTC 100420Z 35003KT 10SM CLR M16/M19 A3046 530 76 -3100 350/03 RMK AO2 T11561189
14926KSTC STC20190109222510601/09/19 22:25:31  5-MIN KSTC 100425Z 34003KT 10SM CLR M16/M19 A3045 540 72 -3100 330/03 RMK AO2 T11561194
14926KSTC STC20190109223010601/09/19 22:30:31  5-MIN KSTC 100430Z 34003KT 10SM CLR M16/M19 A3045 540 72 -3100 340/03 RMK AO2 T11561194
14926KSTC STC20190109223510601/09/19 22:35:31  5-MIN KSTC 100435Z 36004KT 10SM CLR M16/M19 A3045 540 72 -3100 360/04 RMK AO2 T11561194
14926KSTC STC20190109224010601/09/19 22:40:31  5-MIN KSTC 100440Z 35004KT 10SM CLR M16/M19 A3046 540 76 -3100 350/04 RMK AO2 T11561189
14926KSTC STC20190109224510601/09/19 22:45:31  5-MIN KSTC 100445Z 01003KT 10SM CLR M16/M19 A3046 530 76 -3100 010/03 RMK AO2 T11561189
14926KSTC STC20190109225011301/09/19 22:50:31  5-MIN KSTC 100450Z 35003KT 10SM CLR M16/M19 A3046 530 76 -3100 350/03 RMK AO2 SLP350 T11561189
14926KSTC STC20190109225510601/09/19 22:55:31  5-MIN KSTC 100455Z 30003KT 10SM CLR M16/M19 A3047 530 76 -3100 300/03 RMK AO2 T11561189
14926KSTC STC20190109230011101/09/19 23:00:31  5-MIN KSTC 100500Z AUTO 30005KT 10SM CLR M16/M19 A3047 520 76 -3100 300/05 RMK AO2 T11561189
14926KSTC STC20190109230511101/09/19 23:05:31  5-MIN KSTC 100505Z AUTO 30005KT 10SM CLR M16/M19 A3047 520 76 -3100 300/05 RMK AO2 T11561189
14926KSTC STC20190109231011101/09/19 23:10:31  5-MIN KSTC 100510Z AUTO 31005KT 10SM CLR M16/M19 A3047 530 76 -3100 300/05 RMK AO2 T11561189
14926KSTC STC20190109231511101/09/19 23:15:31  5-MIN KSTC 100515Z AUTO 34004KT 10SM CLR M16/M19 A3046 530 76 -3100 340/04 RMK AO2 T11561189
14926KSTC STC20190109232011101/09/19 23:20:31  5-MIN KSTC 100520Z AUTO 36004KT 10SM CLR M15/M19 A3046 530 72 -3000 360/04 RMK AO2 T11501189
14926KSTC STC20190109232511101/09/19 23:25:31  5-MIN KSTC 100525Z AUTO 01004KT 10SM CLR M15/M19 A3046 530 72 -3000 360/04 RMK AO2 T11501189
14926KSTC STC20190109233011101/09/19 23:30:31  5-MIN KSTC 100530Z AUTO 36004KT 10SM CLR M15/M19 A3046 530 72 -3000 360/04 RMK AO2 T11501189
14926KSTC STC20190109233511101/09/19 23:35:31  5-MIN KSTC 100535Z AUTO 01004KT 10SM CLR M15/M19 A3046 530 72 -3000 360/04 RMK AO2 T11501189
14926KSTC STC20190109234011101/09/19 23:40:31  5-MIN KSTC 100540Z AUTO 02004KT 10SM CLR M15/M19 A3046 530 72 -3000 020/04 RMK AO2 T11501189
14926KSTC STC20190109234511101/09/19 23:45:31  5-MIN KSTC 100545Z AUTO 01004KT 10SM CLR M15/M19 A3046 530 72 -3000 010/04 RMK AO2 T11501189
14926KSTC STC20190109235014601/09/19 23:50:31  5-MIN KSTC 100550Z AUTO 35004KT 10SM CLR M15/M19 A3047 520 72 -3000 350/04 RMK AO2 SLP353 T11501189 11139 21156 411171172 50000
14926KSTC STC20190109235511101/09/19 23:55:31  5-MIN KSTC 100555Z AUTO 33004KT 10SM CLR M15/M19 A3047 520 72 -3100 330/04 RMK AO2 T11501189
14926KSTC STC20190110000011101/10/19 00:00:31  5-MIN KSTC 100600Z AUTO 35004KT 10SM CLR M15/M19 A3047 530 72 -3000 350/04 RMK AO2 T11501189
14926KSTC STC20190110000511101/10/19 00:05:31  5-MIN KSTC 100605Z AUTO 03006KT 10SM CLR M15/M18 A3046 530 76 -3000 030/06 RMK AO2 T11501183
14926KSTC STC20190110001011101/10/19 00:10:31  5-MIN KSTC 100610Z AUTO 04006KT 10SM CLR M15/M19 A3046 530 72 -3000 040/06 RMK AO2 T11501189
14926KSTC STC20190110001511101/10/19 00:15:31  5-MIN KSTC 100615Z AUTO 04007KT 10SM CLR M14/M19 A3045 540 69 -3000 040/07 RMK AO2 T11441189
14926KSTC STC20190110002011101/10/19 00:20:31  5-MIN KSTC 100620Z AUTO 03006KT 10SM CLR M14/M19 A3045 540 69 -3000 030/06 RMK AO2 T11441189
14926KSTC STC20190110002511101/10/19 00:25:31  5-MIN KSTC 100625Z AUTO 04005KT 10SM CLR M14/M19 A3045 540 69 -2900 040/05 RMK AO2 T11441189
14926KSTC STC20190110003011101/10/19 00:30:31  5-MIN KSTC 100630Z AUTO 03005KT 10SM CLR M14/M18 A3044 550 73 -2900 030/05 RMK AO2 T11441183
14926KSTC STC20190110003511101/10/19 00:35:31  5-MIN KSTC 100635Z AUTO 03007KT 10SM CLR M14/M18 A3044 550 73 -2900 030/07 RMK AO2 T11441183
14926KSTC STC20190110004011101/10/19 00:40:31  5-MIN KSTC 100640Z AUTO 05007KT 10SM CLR M14/M18 A3044 550 73 -2900 040/07 RMK AO2 T11441183
14926KSTC STC20190110004511101/10/19 00:45:31  5-MIN KSTC 100645Z AUTO 05006KT 10SM CLR M14/M18 A3044 550 69 -2900 050/06 RMK AO2 T11391183
14926KSTC STC20190110005011801/10/19 00:50:31  5-MIN KSTC 100650Z AUTO 03004KT 10SM CLR M14/M18 A3044 550 69 -2900 030/04 RMK AO2 SLP343 T11391183
14926KSTC STC20190110005511101/10/19 00:55:31  5-MIN KSTC 100655Z AUTO 04004KT 10SM CLR M14/M18 A3044 550 69 -2900 040/04 RMK AO2 T11391183
14926KSTC STC20190110010011101/10/19 01:00:31  5-MIN KSTC 100700Z AUTO 02004KT 10SM CLR M14/M18 A3044 550 69 -2900 020/04 RMK AO2 T11391183
14926KSTC STC20190110010511101/10/19 01:05:31  5-MIN KSTC 100705Z AUTO 04004KT 10SM CLR M14/M18 A3044 550 69 -2900 040/04 RMK AO2 T11391183
14926KSTC STC20190110011011401/10/19 01:10:31  5-MIN KSTC 100710Z AUTO 05003KT 10SM FEW110 M14/M18 A3044 550 69 -2900 050/03 RMK AO2 T11391183
14926KSTC STC20190110011511401/10/19 01:15:31  5-MIN KSTC 100715Z AUTO 06004KT 10SM SCT110 M14/M18 A3043 560 69 -2900 060/04 RMK AO2 T11391183
14926KSTC STC20190110012011401/10/19 01:20:31  5-MIN KSTC 100720Z AUTO 05004KT 10SM BKN110 M13/M18 A3043 550 66 -2800 050/04 RMK AO2 T11331183
14926KSTC STC20190110012511401/10/19 01:25:31  5-MIN KSTC 100725Z AUTO 06004KT 10SM BKN100 M13/M18 A3043 550 66 -2800 060/04 RMK AO2 T11331183
14926KSTC STC20190110013011401/10/19 01:30:31  5-MIN KSTC 100730Z AUTO 06003KT 10SM BKN100 M13/M18 A3044 550 66 -2800 060/03 RMK AO2 T11331183
14926KSTC STC20190110013511401/10/19 01:35:31  5-MIN KSTC 100735Z AUTO 07003KT 10SM BKN100 M13/M18 A3043 550 69 -2800 070/03 RMK AO2 T11331178
14926KSTC STC20190110014011401/10/19 01:40:31  5-MIN KSTC 100740Z AUTO 08004KT 10SM BKN100 M13/M18 A3043 560 66 -2800 080/04 RMK AO2 T11331183
14926KSTC STC20190110014512101/10/19 01:45:31  5-MIN KSTC 100745Z AUTO 08006KT 10SM SCT100 SCT120 M13/M18 A3043 560 69 -2800 080/06 RMK AO2 T11331178
14926KSTC STC20190110015012101/10/19 01:50:31  5-MIN KSTC 100750Z AUTO 08004KT 10SM SCT100 M13/M18 A3043 560 69 -2800 080/04 RMK AO2 SLP339 T11331178
14926KSTC STC20190110015511401/10/19 01:55:31  5-MIN KSTC 100755Z AUTO 09004KT 10SM FEW100 M13/M18 A3044 550 69 -2800 090/04 RMK AO2 T11331178
14926KSTC STC20190110020011401/10/19 02:00:31  5-MIN KSTC 100800Z AUTO 08005KT 10SM FEW110 M13/M18 A3043 560 69 -2800 080/05 RMK AO2 T11331178
14926KSTC STC20190110020511401/10/19 02:05:31  5-MIN KSTC 100805Z AUTO 07005KT 10SM FEW110 M13/M18 A3043 560 69 -2800 070/05 RMK AO2 T11331178
14926KSTC STC20190110021011401/10/19 02:10:31  5-MIN KSTC 100810Z AUTO 07004KT 10SM FEW110 M13/M18 A3044 550 69 -2800 070/04 RMK AO2 T11331178
14926KSTC STC20190110021511401/10/19 02:15:31  5-MIN KSTC 100815Z AUTO 00000KT 10SM FEW110 M13/M18 A3045 540 69 -2800 000/00 RMK AO2 T11331178
14926KSTC STC20190110022011401/10/19 02:20:31  5-MIN KSTC 100820Z AUTO 06003KT 10SM SCT110 M13/M18 A3045 540 69 -2800 060/03 RMK AO2 T11331178
14926KSTC STC20190110022511401/10/19 02:25:31  5-MIN KSTC 100825Z AUTO 00000KT 10SM SCT110 M13/M18 A3046 530 69 -2800 000/00 RMK AO2 T11331178
14926KSTC STC20190110023011401/10/19 02:30:31  5-MIN KSTC 100830Z AUTO 00000KT 10SM BKN100 M13/M18 A3046 530 69 -2800 000/00 RMK AO2 T11331178
14926KSTC STC20190110023511401/10/19 02:35:31  5-MIN KSTC 100835Z AUTO 00000KT 10SM BKN100 M13/M18 A3046 530 69 -2800 000/00 RMK AO2 T11331178
14926KSTC STC20190110024011401/10/19 02:40:31  5-MIN KSTC 100840Z AUTO 00000KT 10SM BKN100 M13/M18 A3047 530 69 -2800 000/00 RMK AO2 T11331178
14926KSTC STC20190110024511401/10/19 02:45:31  5-MIN KSTC 100845Z AUTO 00000KT 10SM BKN100 M13/M18 A3046 530 69 -2800 000/00 RMK AO2 T11331178
14926KSTC STC20190110025012701/10/19 02:50:31  5-MIN KSTC 100850Z AUTO 00000KT 10SM BKN100 M13/M18 A3046 530 69 -2800 000/00 RMK AO2 SLP349 T11331178 53002
14926KSTC STC20190110025511401/10/19 02:55:31  5-MIN KSTC 100855Z AUTO 00000KT 10SM SCT100 M13/M18 A3047 530 69 -2800 000/00 RMK AO2 T11331178
14926KSTC STC20190110030011401/10/19 03:00:31  5-MIN KSTC 100900Z AUTO 00000KT 10SM SCT100 M13/M18 A3047 520 69 -2800 000/00 RMK AO2 T11331178
14926KSTC STC20190110030511401/10/19 03:05:31  5-MIN KSTC 100905Z AUTO 00000KT 10SM FEW100 M13/M18 A3046 530 69 -2800 000/00 RMK AO2 T11331178
14926KSTC STC20190110031011101/10/19 03:10:31  5-MIN KSTC 100910Z AUTO 00000KT 10SM CLR M13/M18 A3047 520 69 -2800 000/00 RMK AO2 T11331178
14926KSTC STC20190110031511101/10/19 03:15:31  5-MIN KSTC 100915Z AUTO 00000KT 10SM CLR M13/M18 A3047 520 66 -2700 000/00 RMK AO2 T11281178
14926KSTC STC20190110032011401/10/19 03:20:31  5-MIN KSTC 100920Z AUTO 00000KT 10SM FEW120 M13/M18 A3047 530 66 -2700 000/00 RMK AO2 T11281178
14926KSTC STC20190110032511401/10/19 03:25:31  5-MIN KSTC 100925Z AUTO 08003KT 10SM SCT110 M13/M18 A3046 530 69 -2800 080/03 RMK AO2 T11331178
14926KSTC STC20190110033011401/10/19 03:30:31  5-MIN KSTC 100930Z AUTO 07003KT 10SM FEW110 M13/M18 A3046 530 69 -2800 060/03 RMK AO2 T11331178
14926KSTC STC20190110033511401/10/19 03:35:31  5-MIN KSTC 100935Z AUTO 09004KT 10SM FEW110 M13/M18 A3046 530 69 -2800 090/04 RMK AO2 T11331178
14926KSTC STC20190110034011401/10/19 03:40:31  5-MIN KSTC 100940Z AUTO 09004KT 10SM FEW120 M13/M18 A3045 540 69 -2800 090/04 RMK AO2 T11331178
14926KSTC STC20190110034511401/10/19 03:45:31  5-MIN KSTC 100945Z AUTO 08004KT 10SM SCT110 M13/M18 A3045 540 69 -2800 080/04 RMK AO2 T11331178
14926KSTC STC20190110035012101/10/19 03:50:31  5-MIN KSTC 100950Z AUTO 09005KT 10SM BKN110 M13/M18 A3044 550 69 -2800 090/05 RMK AO2 SLP341 T11331178
14926KSTC STC20190110035511401/10/19 03:55:31  5-MIN KSTC 100955Z AUTO 08004KT 10SM BKN110 M13/M18 A3044 550 69 -2800 070/04 RMK AO2 T11331178
14926KSTC STC20190110040011401/10/19 04:00:31  5-MIN KSTC 101000Z AUTO VRB04KT 10SM BKN110 M13/M17 A3045 540 73 -2800 VRB/04 RMK AO2 T11331172
14926KSTC STC20190110040511401/10/19 04:05:31  5-MIN KSTC 101005Z AUTO 05003KT 10SM BKN110 M13/M17 A3045 540 73 -2800 050/03 RMK AO2 T11331172
14926KSTC STC20190110041011401/10/19 04:10:31  5-MIN KSTC 101010Z AUTO 08005KT 10SM BKN110 M13/M18 A3045 540 69 -2800 080/05 RMK AO2 T11331178
14926KSTC STC20190110041511401/10/19 04:15:31  5-MIN KSTC 101015Z AUTO 07004KT 10SM SCT110 M13/M18 A3044 550 69 -2800 070/04 RMK AO2 T11331178
14926KSTC STC20190110042011401/10/19 04:20:31  5-MIN KSTC 101020Z AUTO 09005KT 10SM SCT110 M13/M17 A3043 560 73 -2800 090/05 RMK AO2 T11331172
14926KSTC STC20190110042511401/10/19 04:25:31  5-MIN KSTC 101025Z AUTO 08004KT 10SM FEW110 M13/M17 A3043 560 73 -2800 080/04 RMK AO2 T11331172
14926KSTC STC20190110043011401/10/19 04:30:31  5-MIN KSTC 101030Z AUTO 08005KT 10SM FEW110 M13/M17 A3042 560 73 -2800 080/05 RMK AO2 T11331172
14926KSTC STC20190110043511101/10/19 04:35:31  5-MIN KSTC 101035Z AUTO 07006KT 10SM CLR M13/M17 A3042 560 73 -2800 070/06 RMK AO2 T11331172
14926KSTC STC20190110044011101/10/19 04:40:31  5-MIN KSTC 101040Z AUTO 08006KT 10SM CLR M13/M17 A3042 570 73 -2800 080/06 RMK AO2 T11331172
14926KSTC STC20190110044511101/10/19 04:45:31  5-MIN KSTC 101045Z AUTO 07005KT 10SM CLR M13/M17 A3042 570 73 -2800 070/05 RMK AO2 T11331172
14926KSTC STC20190110045011801/10/19 04:50:31  5-MIN KSTC 101050Z AUTO 06006KT 10SM CLR M13/M17 A3042 570 73 -2800 060/06 RMK AO2 SLP335 T11331172
14926KSTC STC20190110045511101/10/19 04:55:31  5-MIN KSTC 101055Z AUTO 07005KT 10SM CLR M13/M17 A3041 570 73 -2800 070/05 RMK AO2 T11331172
14926KSTC STC20190110050011101/10/19 05:00:31  5-MIN KSTC 101100Z AUTO 08003KT 10SM CLR M13/M17 A3042 560 73 -2800 080/03 RMK AO2 T11331172
14926KSTC STC20190110050511101/10/19 05:05:31  5-MIN KSTC 101105Z AUTO VRB03KT 10SM CLR M13/M17 A3043 560 70 -2700 VRB/03 RMK AO2 T11281172
14926KSTC STC20190110051011101/10/19 05:10:31  5-MIN KSTC 101110Z AUTO 09004KT 10SM CLR M13/M17 A3042 570 73 -2800 090/04 RMK AO2 T11331172
14926KSTC STC20190110051511101/10/19 05:15:31  5-MIN KSTC 101115Z AUTO 09005KT 10SM CLR M13/M17 A3041 570 73 -2800 090/05 RMK AO2 T11331172
14926KSTC STC20190110052011101/10/19 05:20:31  5-MIN KSTC 101120Z AUTO 08005KT 10SM CLR M13/M17 A3042 570 73 -2800 080/05 RMK AO2 T11331172
14926KSTC STC20190110052511101/10/19 05:25:31  5-MIN KSTC 101125Z AUTO 10005KT 10SM CLR M13/M17 A3041 570 73 -2800 090/05 RMK AO2 T11331172
14926KSTC STC20190110053011101/10/19 05:30:31  5-MIN KSTC 101130Z AUTO 11005KT 10SM CLR M13/M17 A3041 570 73 -2800 110/05 RMK AO2 T11331172
14926KSTC STC20190110053511101/10/19 05:35:31  5-MIN KSTC 101135Z AUTO 11004KT 10SM CLR M13/M17 A3041 570 73 -2800 110/04 RMK AO2 T11331172
14926KSTC STC20190110054011101/10/19 05:40:31  5-MIN KSTC 101140Z AUTO 12003KT 10SM CLR M13/M17 A3041 570 73 -2800 120/03 RMK AO2 T11331172
14926KSTC STC20190110054511101/10/19 05:45:31  5-MIN KSTC 101145Z AUTO VRB03KT 10SM CLR M13/M17 A3041 580 73 -2800 VRB/03 RMK AO2 T11331172
14926KSTC STC20190110055013601/10/19 05:50:31  5-MIN KSTC 101150Z AUTO 00000KT 10SM CLR M13/M17 A3041 570 73 -2800 000/00 RMK AO2 SLP333 T11331172 11128 21150 55001
14926KSTC STC20190110055511101/10/19 05:55:31  5-MIN KSTC 101155Z AUTO 11004KT 10SM CLR M13/M17 A3041 570 73 -2800 110/04 RMK AO2 T11331172
14926KSTC STC20190110060011101/10/19 06:00:31  5-MIN KSTC 101200Z AUTO 13004KT 10SM CLR M13/M17 A3042 570 73 -2800 120/04 RMK AO2 T11331172
14926KSTC STC20190110060511101/10/19 06:05:31  5-MIN KSTC 101205Z AUTO 12003KT 10SM CLR M13/M17 A3041 570 73 -2800 110/03 RMK AO2 T11331172
14926KSTC STC20190110061011101/10/19 06:10:31  5-MIN KSTC 101210Z AUTO 11003KT 10SM CLR M13/M17 A3041 570 73 -2800 110/03 RMK AO2 T11331172
14926KSTC STC20190110061511101/10/19 06:15:31  5-MIN KSTC 101215Z AUTO 09003KT 10SM CLR M13/M17 A3041 570 73 -2800 090/03 RMK AO2 T11331172
14926KSTC STC20190110062011101/10/19 06:20:31  5-MIN KSTC 101220Z AUTO 11005KT 10SM CLR M13/M17 A3041 580 73 -2800 110/05 RMK AO2 T11331172
14926KSTC STC20190110062510601/10/19 06:25:31  5-MIN KSTC 101225Z 10004KT 10SM CLR M13/M17 A3041 570 73 -2800 090/04 RMK AO2 T11331172
14926KSTC STC20190110063010601/10/19 06:30:31  5-MIN KSTC 101230Z 10005KT 10SM CLR M13/M17 A3041 580 73 -2800 100/05 RMK AO2 T11331172
14926KSTC STC20190110063510601/10/19 06:35:31  5-MIN KSTC 101235Z 09005KT 10SM CLR M13/M17 A3040 580 73 -2800 090/05 RMK AO2 T11331172
14926KSTC STC20190110064010601/10/19 06:40:31  5-MIN KSTC 101240Z 09004KT 10SM CLR M13/M17 A3041 580 73 -2800 090/04 RMK AO2 T11331172
14926KSTC STC20190110064510601/10/19 06:45:31  5-MIN KSTC 101245Z 10003KT 10SM CLR M13/M17 A3041 580 73 -2800 100/03 RMK AO2 T11331172
14926KSTC STC20190110065011301/10/19 06:50:31  5-MIN KSTC 101250Z 08003KT 10SM CLR M13/M17 A3041 580 73 -2800 080/03 RMK AO2 SLP332 T11331172
14926KSTC STC20190110065510601/10/19 06:55:31  5-MIN KSTC 101255Z 10003KT 10SM CLR M13/M17 A3041 580 73 -2800 090/03 RMK AO2 T11331172
14926KSTC STC20190110070010601/10/19 07:00:31  5-MIN KSTC 101300Z 09003KT 10SM CLR M13/M17 A3041 580 73 -2800 090/03 RMK AO2 T11331172
14926KSTC STC20190110070510601/10/19 07:05:31  5-MIN KSTC 101305Z 00000KT 10SM CLR M13/M17 A3040 580 73 -2800 000/00 RMK AO2 T11331172
14926KSTC STC20190110071010601/10/19 07:10:31  5-MIN KSTC 101310Z 10004KT 10SM CLR M14/M17 A3040 580 76 -2800 100/04 RMK AO2 T11391172
14926KSTC STC20190110071510601/10/19 07:15:31  5-MIN KSTC 101315Z 09004KT 10SM CLR M13/M17 A3040 590 73 -2700 090/04 RMK AO2 T11331172
14926KSTC STC20190110072010601/10/19 07:20:31  5-MIN KSTC 101320Z 09004KT 10SM CLR M13/M17 A3040 590 73 -2700 090/04 RMK AO2 T11331172
14926KSTC STC20190110072510601/10/19 07:25:31  5-MIN KSTC 101325Z 08003KT 10SM CLR M13/M17 A3040 580 73 -2700 080/03 RMK AO2 T11331172
14926KSTC STC20190110073010601/10/19 07:30:31  5-MIN KSTC 101330Z 09003KT 10SM CLR M13/M17 A3040 580 73 -2700 090/03 RMK AO2 T11331172
14926KSTC STC20190110073510601/10/19 07:35:31  5-MIN KSTC 101335Z 11003KT 10SM CLR M13/M17 A3040 580 73 -2700 110/03 RMK AO2 T11331172
14926KSTC STC20190110074010601/10/19 07:40:31  5-MIN KSTC 101340Z 00000KT 10SM CLR M13/M17 A3040 580 73 -2700 000/00 RMK AO2 T11331172
14926KSTC STC20190110074510601/10/19 07:45:31  5-MIN KSTC 101345Z 08004KT 10SM CLR M13/M17 A3040 580 76 -2700 080/04 RMK AO2 T11331167
14926KSTC STC20190110075011301/10/19 07:50:31  5-MIN KSTC 101350Z 00000KT 10SM CLR M13/M17 A3041 580 76 -2800 000/00 RMK AO2 SLP331 T11331167
14926KSTC STC20190110075510601/10/19 07:55:31  5-MIN KSTC 101355Z 08004KT 10SM CLR M13/M17 A3040 580 76 -2800 080/04 RMK AO2 T11331167
14926KSTC STC20190110080010601/10/19 08:00:31  5-MIN KSTC 101400Z 08005KT 10SM CLR M13/M17 A3040 580 76 -2700 080/05 RMK AO2 T11331167
14926KSTC STC20190110080510601/10/19 08:05:31  5-MIN KSTC 101405Z 09004KT 10SM CLR M13/M17 A3040 580 76 -2800 080/04 RMK AO2 T11331167
14926KSTC STC20190110081010601/10/19 08:10:31  5-MIN KSTC 101410Z 10003KT 10SM CLR M13/M17 A3041 580 76 -2800 100/03 RMK AO2 T11331167
14926KSTC STC20190110081510601/10/19 08:15:31  5-MIN KSTC 101415Z 10003KT 10SM CLR M13/M17 A3041 580 76 -2800 100/03 RMK AO2 T11331167
14926KSTC STC20190110082010601/10/19 08:20:31  5-MIN KSTC 101420Z 12004KT 10SM CLR M13/M17 A3041 580 76 -2800 120/04 RMK AO2 T11331167
14926KSTC STC20190110082510601/10/19 08:25:31  5-MIN KSTC 101425Z 11005KT 10SM CLR M13/M17 A3041 580 76 -2800 110/05 RMK AO2 T11331167
14926KSTC STC20190110083010601/10/19 08:30:31  5-MIN KSTC 101430Z 10005KT 10SM CLR M13/M17 A3041 580 76 -2800 100/05 RMK AO2 T11331167
14926KSTC STC20190110083510601/10/19 08:35:31  5-MIN KSTC 101435Z 11004KT 10SM CLR M13/M17 A3041 580 76 -2800 110/04 RMK AO2 T11331167
14926KSTC STC20190110084010601/10/19 08:40:31  5-MIN KSTC 101440Z 11006KT 10SM CLR M13/M17 A3040 580 73 -2700 110/06 RMK AO2 T11281167
14926KSTC STC20190110084510901/10/19 08:45:31  5-MIN KSTC 101445Z 09005KT 10SM FEW011 M13/M17 A3040 580 76 -2700 090/05 RMK AO2 T11331167
14926KSTC STC20190110085012201/10/19 08:50:31  5-MIN KSTC 101450Z 12007KT 10SM FEW011 M13/M17 A3040 590 73 -2700 120/07 RMK AO2 SLP329 T11281167 56018
14926KSTC STC20190110085510901/10/19 08:55:31  5-MIN KSTC 101455Z 11006KT 10SM FEW011 M13/M17 A3040 590 73 -2700 110/06 RMK AO2 T11281167
14926KSTC STC20190110090010901/10/19 09:00:31  5-MIN KSTC 101500Z 09004KT 10SM FEW011 M13/M17 A3040 590 73 -2700 090/04 RMK AO2 T11281167
14926KSTC STC20190110090510901/10/19 09:05:31  5-MIN KSTC 101505Z 12006KT 10SM SCT011 M13/M17 A3040 580 73 -2700 110/06 RMK AO2 T11281167
14926KSTC STC20190110091010901/10/19 09:10:31  5-MIN KSTC 101510Z 13004KT 10SM SCT011 M13/M16 A3041 580 76 -2700 120/04 RMK AO2 T11281161
14926KSTC STC20190110091510901/10/19 09:15:31  5-MIN KSTC 101515Z 11006KT 10SM FEW011 M13/M16 A3040 580 76 -2700 110/06 RMK AO2 T11281161
14926KSTC STC20190110092010901/10/19 09:20:31  5-MIN KSTC 101520Z 11006KT 10SM FEW011 M13/M16 A3041 580 76 -2700 110/06 RMK AO2 T11281161
14926KSTC STC20190110092510901/10/19 09:25:31  5-MIN KSTC 101525Z 14005KT 10SM FEW011 M13/M16 A3041 580 76 -2700 140/05 RMK AO2 T11281161
14926KSTC STC20190110093010901/10/19 09:30:31  5-MIN KSTC 101530Z 10006KT 10SM FEW011 M12/M16 A3041 580 73 -2600 100/06 RMK AO2 T11221161
14926KSTC STC20190110093510601/10/19 09:35:31  5-MIN KSTC 101535Z 12006KT 10SM CLR M12/M16 A3041 580 73 -2600 110/06 RMK AO2 T11221161
14926KSTC STC20190110094010601/10/19 09:40:31  5-MIN KSTC 101540Z VRB05KT 10SM CLR M12/M16 A3041 580 73 -2600 VRB/05 RMK AO2 T11221161
14926KSTC STC20190110094510601/10/19 09:45:31  5-MIN KSTC 101545Z 11005KT 10SM CLR M12/M16 A3041 580 73 -2600 110/05 RMK AO2 T11221161
14926KSTC STC20190110095011301/10/19 09:50:31  5-MIN KSTC 101550Z 10004KT 10SM CLR M12/M16 A3041 580 73 -2600 100/04 RMK AO2 SLP332 T11221161
14926KSTC STC20190110095510601/10/19 09:55:31  5-MIN KSTC 101555Z 12005KT 10SM CLR M12/M16 A3041 580 73 -2600 120/05 RMK AO2 T11221161
14926KSTC STC20190110100010601/10/19 10:00:31  5-MIN KSTC 101600Z 12007KT 10SM CLR M12/M16 A3041 580 73 -2500 120/07 RMK AO2 T11171156
14926KSTC STC20190110100510601/10/19 10:05:31  5-MIN KSTC 101605Z 11005KT 10SM CLR M12/M16 A3041 580 73 -2500 110/05 RMK AO2 T11171156
14926KSTC STC20190110101010601/10/19 10:10:31  5-MIN KSTC 101610Z 13008KT 10SM CLR M12/M16 A3040 580 73 -2500 130/08 RMK AO2 T11171156
14926KSTC STC20190110101510601/10/19 10:15:31  5-MIN KSTC 101615Z 11005KT 10SM CLR M12/M16 A3040 590 73 -2500 110/05 RMK AO2 T11171156
14926KSTC STC20190110102010601/10/19 10:20:31  5-MIN KSTC 101620Z 13007KT 10SM CLR M12/M16 A3040 590 73 -2500 120/07 RMK AO2 T11171156
14926KSTC STC20190110102510601/10/19 10:25:31  5-MIN KSTC 101625Z 14008KT 10SM CLR M12/M16 A3039 590 73 -2500 140/08 RMK AO2 T11171156
14926KSTC STC20190110103010601/10/19 10:30:31  5-MIN KSTC 101630Z 12008KT 10SM CLR M11/M16 A3039 590 70 -2400 120/08 RMK AO2 T11111156
14926KSTC STC20190110103510601/10/19 10:35:31  5-MIN KSTC 101635Z 11008KT 10SM CLR M11/M16 A3039 600 70 -2400 110/08 RMK AO2 T11111156
14926KSTC STC20190110104010601/10/19 10:40:31  5-MIN KSTC 101640Z 11007KT 10SM CLR M11/M16 A3038 600 70 -2400 110/07 RMK AO2 T11111156
14926KSTC STC20190110104510601/10/19 10:45:31  5-MIN KSTC 101645Z 11007KT 10SM CLR M11/M16 A3038 600 70 -2400 110/07 RMK AO2 T11111156
14926KSTC STC20190110105011301/10/19 10:50:31  5-MIN KSTC 101650Z 14007KT 10SM CLR M11/M15 A3038 610 73 -2400 140/07 RMK AO2 SLP320 T11111150
14926KSTC STC20190110105510601/10/19 10:55:31  5-MIN KSTC 101655Z 15011KT 10SM CLR M11/M15 A3038 600 73 -2400 140/11 RMK AO2 T11111150
14926KSTC STC20190110110010601/10/19 11:00:31  5-MIN KSTC 101700Z 13008KT 10SM CLR M11/M15 A3037 610 70 -2300 130/08 RMK AO2 T11061150
14926KSTC STC20190110110510601/10/19 11:05:31  5-MIN KSTC 101705Z 11008KT 10SM CLR M11/M16 A3037 610 67 -2300 100/08 RMK AO2 T11061156
14926KSTC STC20190110111010601/10/19 11:10:31  5-MIN KSTC 101710Z 13009KT 10SM CLR M11/M16 A3037 610 67 -2300 130/09 RMK AO2 T11061156
14926KSTC STC20190110111511301/10/19 11:15:31  5-MIN KSTC 101715Z 13009KT 10SM CLR M11/M16 A3036 620 67 -2300 130/09 RMK AO2 PRESFR T11061156
14926KSTC STC20190110112010601/10/19 11:20:31  5-MIN KSTC 101720Z 10007KT 10SM CLR M10/M16 A3035 630 64 -2200 100/07 RMK AO2 T11001156
14926KSTC STC20190110112510601/10/19 11:25:31  5-MIN KSTC 101725Z 14009KT 10SM CLR M10/M15 A3035 630 67 -2200 140/09 RMK AO2 T11001150
14926KSTC STC20190110113010601/10/19 11:30:31  5-MIN KSTC 101730Z 13007KT 10SM CLR M10/M15 A3035 630 67 -2200 130/07 RMK AO2 T11001150
14926KSTC STC20190110113510601/10/19 11:35:31  5-MIN KSTC 101735Z 15008KT 10SM CLR M10/M14 A3034 640 70 -2200 140/08 RMK AO2 T11001144
14926KSTC STC20190110114010601/10/19 11:40:31  5-MIN KSTC 101740Z 14009KT 10SM CLR M10/M15 A3034 640 67 -2200 130/09 RMK AO2 T11001150
14926KSTC STC20190110114510601/10/19 11:45:31  5-MIN KSTC 101745Z 12008KT 10SM CLR M09/M15 A3034 640 64 -2200 120/08 RMK AO2 T10941150
14926KSTC STC20190110115013101/10/19 11:50:31  5-MIN KSTC 101750Z 14008KT 10SM CLR M09/M15 A3034 640 64 -2200 140/08 RMK AO2 SLP305 T10941150 11094 21139 58005
14926KSTC STC20190110115510601/10/19 11:55:31  5-MIN KSTC 101755Z 14008KT 10SM CLR M09/M14 A3033 650 67 -2200 140/08 RMK AO2 T10941144
14926KSTC STC20190110120010601/10/19 12:00:31  5-MIN KSTC 101800Z 13007KT 10SM CLR M09/M14 A3033 650 67 -2100 130/07 RMK AO2 T10941144
14926KSTC STC20190110120510601/10/19 12:05:31  5-MIN KSTC 101805Z 13007KT 10SM CLR M09/M14 A3033 650 64 -2100 130/07 RMK AO2 T10891144
14926KSTC STC20190110121010601/10/19 12:10:31  5-MIN KSTC 101810Z 11007KT 10SM CLR M09/M14 A3033 650 64 -2100 110/07 RMK AO2 T10891144
14926KSTC STC20190110121510601/10/19 12:15:31  5-MIN KSTC 101815Z 13008KT 10SM CLR M09/M14 A3032 660 64 -2100 130/08 RMK AO2 T10891144
14926KSTC STC20190110122010601/10/19 12:20:31  5-MIN KSTC 101820Z 13009KT 10SM CLR M09/M14 A3032 660 64 -2100 130/09 RMK AO2 T10891144
14926KSTC STC20190110122510601/10/19 12:25:31  5-MIN KSTC 101825Z 13008KT 10SM CLR M09/M14 A3032 660 64 -2100 130/08 RMK AO2 T10891144
14926KSTC STC20190110123010601/10/19 12:30:31  5-MIN KSTC 101830Z 14008KT 10SM CLR M09/M14 A3031 670 64 -2100 140/08 RMK AO2 T10891144
14926KSTC STC20190110123510901/10/19 12:35:31  5-MIN KSTC 101835Z 13005KT 10SM FEW120 M09/M14 A3031 670 67 -2100 130/05 RMK AO2 T10891139
14926KSTC STC20190110124010901/10/19 12:40:31  5-MIN KSTC 101840Z 13007KT 10SM SCT120 M08/M14 A3030 680 64 -2000 130/07 RMK AO2 T10831139
14926KSTC STC20190110124511601/10/19 12:45:31  5-MIN KSTC 101845Z 13009KT 10SM BKN120 M08/M14 A3029 680 64 -2000 130/09 RMK AO2 PRESFR T10831139
14926KSTC STC20190110125011601/10/19 12:50:31  5-MIN KSTC 101850Z 11008KT 10SM BKN120 M08/M14 A3029 690 62 -1900 110/08 RMK AO2 SLP288 T10781139
14926KSTC STC20190110125510901/10/19 12:55:31  5-MIN KSTC 101855Z 13008KT 10SM SCT120 M08/M14 A3029 690 62 -1900 130/08 RMK AO2 T10781139
14926KSTC STC20190110130010901/10/19 13:00:31  5-MIN KSTC 101900Z 13009KT 10SM SCT120 M08/M14 A3029 690 64 -2000 130/09 RMK AO2 T10831139
14926KSTC STC20190110130510901/10/19 13:05:31  5-MIN KSTC 101905Z 14008KT 10SM FEW120 M08/M13 A3029 690 67 -2000 140/08 RMK AO2 T10831133
14926KSTC STC20190110131010901/10/19 13:10:31  5-MIN KSTC 101910Z VRB06KT 10SM FEW120 M08/M14 A3029 690 62 -1900 VRB/06 RMK AO2 T10781139
14926KSTC STC20190110131510601/10/19 13:15:31  5-MIN KSTC 101915Z 14007KT 10SM CLR M08/M13 A3029 690 64 -1900 130/07 RMK AO2 T10781133
14926KSTC STC20190110132010601/10/19 13:20:31  5-MIN KSTC 101920Z 14009KT 10SM CLR M08/M13 A3029 690 64 -1900 130/09 RMK AO2 T10781133
14926KSTC STC20190110132510601/10/19 13:25:31  5-MIN KSTC 101925Z 14008KT 10SM CLR M08/M13 A3028 690 67 -1900 140/08 RMK AO2 T10781128
14926KSTC STC20190110133010601/10/19 13:30:31  5-MIN KSTC 101930Z 13009KT 10SM CLR M08/M13 A3028 690 64 -1900 130/09 RMK AO2 T10781133
14926KSTC STC20190110133510601/10/19 13:35:31  5-MIN KSTC 101935Z 11007KT 10SM CLR M08/M13 A3028 700 64 -1900 110/07 RMK AO2 T10781133
14926KSTC STC20190110134010601/10/19 13:40:31  5-MIN KSTC 101940Z 13009KT 10SM CLR M07/M14 A3028 700 59 -1800 130/09 RMK AO2 T10721139
14926KSTC STC20190110134510601/10/19 13:45:31  5-MIN KSTC 101945Z 10007KT 10SM CLR M07/M13 A3027 700 62 -1800 100/07 RMK AO2 T10721133
14926KSTC STC20190110135011601/10/19 13:50:31  5-MIN KSTC 101950Z 12007KT 10SM FEW120 M07/M13 A3027 700 62 -1800 120/07 RMK AO2 SLP281 T10721133
14926KSTC STC20190110135510901/10/19 13:55:31  5-MIN KSTC 101955Z 12007KT 10SM FEW120 M07/M13 A3027 710 62 -1800 120/07 RMK AO2 T10721133
14926KSTC STC20190110140010901/10/19 14:00:31  5-MIN KSTC 102000Z 13008KT 10SM SCT120 M07/M13 A3027 710 62 -1800 130/08 RMK AO2 T10721133
14926KSTC STC20190110140510901/10/19 14:05:31  5-MIN KSTC 102005Z 14009KT 10SM SCT120 M07/M13 A3026 710 62 -1700 130/09 RMK AO2 T10671128
14926KSTC STC20190110141010901/10/19 14:10:31  5-MIN KSTC 102010Z 12008KT 10SM SCT120 M07/M13 A3026 720 62 -1700 120/08 RMK AO2 T10671128
14926KSTC STC20190110141510901/10/19 14:15:31  5-MIN KSTC 102015Z 15012KT 10SM BKN120 M07/M12 A3026 720 65 -1700 150/12 RMK AO2 T10671122
14926KSTC STC20190110142011501/10/19 14:20:31  5-MIN KSTC 102020Z 13008G16KT 10SM BKN120 M07/M13 A3026 720 62 -1700 130/08G16 RMK AO2 T10671128
14926KSTC STC20190110142510901/10/19 14:25:31  5-MIN KSTC 102025Z 12008KT 10SM SCT120 M07/M13 A3026 720 59 -1700 120/08 RMK AO2 T10671133
14926KSTC STC20190110143010901/10/19 14:30:31  5-MIN KSTC 102030Z 14010KT 10SM SCT120 M07/M13 A3026 720 62 -1700 140/10 RMK AO2 T10671128
14926KSTC STC20190110143510901/10/19 14:35:31  5-MIN KSTC 102035Z 13009KT 10SM SCT110 M07/M13 A3025 720 62 -1700 130/09 RMK AO2 T10671128
14926KSTC STC20190110144010901/10/19 14:40:31  5-MIN KSTC 102040Z 13008KT 10SM SCT110 M07/M13 A3025 720 62 -1700 130/08 RMK AO2 T10671128
14926KSTC STC20190110144510901/10/19 14:45:31  5-MIN KSTC 102045Z 13009KT 10SM FEW110 M06/M13 A3025 720 59 -1600 130/09 RMK AO2 T10611128
14926KSTC STC20190110145012201/10/19 14:50:31  5-MIN KSTC 102050Z 12005KT 10SM FEW110 M07/M13 A3025 720 62 -1700 120/05 RMK AO2 SLP275 T10671128 58021
14926KSTC STC20190110145510901/10/19 14:55:31  5-MIN KSTC 102055Z 12008KT 10SM FEW110 M06/M13 A3025 720 59 -1600 120/08 RMK AO2 T10611128
14926KSTC STC20190110150010901/10/19 15:00:31  5-MIN KSTC 102100Z 11007KT 10SM FEW110 M06/M13 A3025 730 59 -1600 110/07 RMK AO2 T10611128
14926KSTC STC20190110150510601/10/19 15:05:31  5-MIN KSTC 102105Z 13009KT 10SM CLR M06/M13 A3024 730 59 -1600 130/09 RMK AO2 T10611128
14926KSTC STC20190110151010601/10/19 15:10:31  5-MIN KSTC 102110Z 12008KT 10SM CLR M06/M13 A3024 730 59 -1600 120/08 RMK AO2 T10611128
14926KSTC STC20190110151510601/10/19 15:15:31  5-MIN KSTC 102115Z 13007KT 10SM CLR M06/M13 A3024 730 59 -1600 130/07 RMK AO2 T10611128
14926KSTC STC20190110152010601/10/19 15:20:31  5-MIN KSTC 102120Z 13008KT 10SM CLR M06/M13 A3024 730 59 -1600 130/08 RMK AO2 T10611128
14926KSTC STC20190110152511201/10/19 15:25:31  5-MIN KSTC 102125Z 13010G15KT 10SM CLR M06/M13 A3023 740 59 -1600 130/10G15 RMK AO2 T10611128
14926KSTC STC20190110153010901/10/19 15:30:31  5-MIN KSTC 102130Z 14009KT 10SM FEW120 M06/M13 A3023 740 59 -1600 140/09 RMK AO2 T10611128
14926KSTC STC20190110153510901/10/19 15:35:31  5-MIN KSTC 102135Z 12006KT 10SM SCT120 M06/M13 A3023 740 59 -1600 120/06 RMK AO2 T10611128
14926KSTC STC20190110154010901/10/19 15:40:31  5-MIN KSTC 102140Z 13008KT 10SM FEW120 M06/M13 A3023 740 59 -1600 130/08 RMK AO2 T10611128
14926KSTC STC20190110154510901/10/19 15:45:31  5-MIN KSTC 102145Z 12007KT 10SM SCT120 M06/M13 A3023 740 59 -1600 120/07 RMK AO2 T10611128
14926KSTC STC20190110155011601/10/19 15:50:31  5-MIN KSTC 102150Z 12007KT 10SM BKN110 M06/M13 A3023 750 59 -1600 120/07 RMK AO2 SLP266 T10611128
14926KSTC STC20190110155510901/10/19 15:55:31  5-MIN KSTC 102155Z 12006KT 10SM BKN110 M06/M13 A3023 740 59 -1600 120/06 RMK AO2 T10611128
14926KSTC STC20190110160010901/10/19 16:00:31  5-MIN KSTC 102200Z 12005KT 10SM BKN110 M06/M13 A3022 750 59 -1600 120/05 RMK AO2 T10611128
14926KSTC STC20190110160510901/10/19 16:05:31  5-MIN KSTC 102205Z 14006KT 10SM BKN110 M06/M13 A3022 750 59 -1600 130/06 RMK AO2 T10611128
14926KSTC STC20190110161010901/10/19 16:10:31  5-MIN KSTC 102210Z 13007KT 10SM BKN110 M06/M13 A3022 750 59 -1600 130/07 RMK AO2 T10611128
14926KSTC STC20190110161510901/10/19 16:15:31  5-MIN KSTC 102215Z 11005KT 10SM BKN110 M06/M13 A3022 750 59 -1600 110/05 RMK AO2 T10611128
14926KSTC STC20190110162010901/10/19 16:20:31  5-MIN KSTC 102220Z 12007KT 10SM OVC110 M06/M13 A3022 750 59 -1600 120/07 RMK AO2 T10611128
14926KSTC STC20190110162510901/10/19 16:25:31  5-MIN KSTC 102225Z 12005KT 10SM OVC110 M06/M13 A3022 750 59 -1600 110/05 RMK AO2 T10611128
14926KSTC STC20190110163010901/10/19 16:30:31  5-MIN KSTC 102230Z 11005KT 10SM OVC110 M06/M13 A3022 750 59 -1600 110/05 RMK AO2 T10611128
14926KSTC STC20190110163510901/10/19 16:35:31  5-MIN KSTC 102235Z 12006KT 10SM OVC110 M06/M13 A3022 750 59 -1600 110/06 RMK AO2 T10611128
14926KSTC STC20190110164010901/10/19 16:40:31  5-MIN KSTC 102240Z 11004KT 10SM BKN110 M06/M13 A3022 750 59 -1600 110/04 RMK AO2 T10611128
14926KSTC STC20190110164510901/10/19 16:45:31  5-MIN KSTC 102245Z 11006KT 10SM BKN110 M06/M13 A3022 750 59 -1600 110/06 RMK AO2 T10611128
14926KSTC STC20190110165011601/10/19 16:50:31  5-MIN KSTC 102250Z 11005KT 10SM SCT110 M06/M13 A3022 750 59 -1600 110/05 RMK AO2 SLP264 T10611128
14926KSTC STC20190110165510901/10/19 16:55:31  5-MIN KSTC 102255Z 11005KT 10SM SCT110 M07/M13 A3022 750 62 -1700 110/05 RMK AO2 T10671128
14926KSTC STC20190110170010901/10/19 17:00:31  5-MIN KSTC 102300Z 11005KT 10SM BKN110 M07/M13 A3022 750 62 -1700 110/05 RMK AO2 T10671128
14926KSTC STC20190110170510901/10/19 17:05:31  5-MIN KSTC 102305Z 11005KT 10SM BKN110 M07/M13 A3022 750 62 -1700 110/05 RMK AO2 T10671128
14926KSTC STC20190110171010901/10/19 17:10:31  5-MIN KSTC 102310Z 11005KT 10SM SCT110 M07/M13 A3022 750 62 -1700 110/05 RMK AO2 T10671128
14926KSTC STC20190110171510901/10/19 17:15:31  5-MIN KSTC 102315Z 12005KT 10SM SCT110 M07/M13 A3022 750 62 -1700 120/05 RMK AO2 T10671128
14926KSTC STC20190110172010901/10/19 17:20:31  5-MIN KSTC 102320Z 11007KT 10SM SCT110 M07/M13 A3022 750 62 -1700 110/07 RMK AO2 T10671128
14926KSTC STC20190110172510901/10/19 17:25:31  5-MIN KSTC 102325Z 11006KT 10SM FEW110 M07/M13 A3022 750 62 -1700 110/06 RMK AO2 T10671128
14926KSTC STC20190110173010901/10/19 17:30:31  5-MIN KSTC 102330Z 11006KT 10SM FEW110 M07/M13 A3021 760 62 -1600 110/06 RMK AO2 T10671128
14926KSTC STC20190110173510601/10/19 17:35:31  5-MIN KSTC 102335Z 12006KT 10SM CLR M07/M13 A3021 760 62 -1600 110/06 RMK AO2 T10671128
14926KSTC STC20190110174010601/10/19 17:40:31  5-MIN KSTC 102340Z 12005KT 10SM CLR M07/M13 A3021 760 62 -1700 120/05 RMK AO2 T10671128
14926KSTC STC20190110174510601/10/19 17:45:31  5-MIN KSTC 102345Z 12006KT 10SM CLR M07/M13 A3021 760 62 -1600 120/06 RMK AO2 T10671128
14926KSTC STC20190110175013101/10/19 17:50:31  5-MIN KSTC 102350Z 12006KT 10SM CLR M07/M13 A3021 760 62 -1600 120/06 RMK AO2 SLP261 T10671128 11061 21094 56026
14926KSTC STC20190110175510601/10/19 17:55:31  5-MIN KSTC 102355Z 11005KT 10SM CLR M07/M13 A3021 760 62 -1600 110/05 RMK AO2 T10671128
14926KSTC STC20190110180010601/10/19 18:00:31  5-MIN KSTC 110000Z 12005KT 10SM CLR M07/M13 A3021 760 62 -1600 120/05 RMK AO2 T10671128
14926KSTC STC20190110180510601/10/19 18:05:31  5-MIN KSTC 110005Z 13005KT 10SM CLR M07/M13 A3021 760 62 -1600 120/05 RMK AO2 T10671128
14926KSTC STC20190110181010601/10/19 18:10:31  5-MIN KSTC 110010Z 13005KT 10SM CLR M07/M13 A3021 760 62 -1600 120/05 RMK AO2 T10671128
14926KSTC STC20190110181510601/10/19 18:15:31  5-MIN KSTC 110015Z 12004KT 10SM CLR M07/M13 A3021 760 65 -1700 120/04 RMK AO2 T10721128
14926KSTC STC20190110182010601/10/19 18:20:31  5-MIN KSTC 110020Z 12005KT 10SM CLR M07/M13 A3021 760 65 -1700 120/05 RMK AO2 T10721128
14926KSTC STC20190110182510601/10/19 18:25:31  5-MIN KSTC 110025Z 12005KT 10SM CLR M07/M13 A3021 760 65 -1700 120/05 RMK AO2 T10721128
14926KSTC STC20190110183010601/10/19 18:30:31  5-MIN KSTC 110030Z 13005KT 10SM CLR M07/M13 A3021 760 65 -1700 130/05 RMK AO2 T10721128
14926KSTC STC20190110183510601/10/19 18:35:31  5-MIN KSTC 110035Z 13004KT 10SM CLR M07/M13 A3021 760 65 -1700 130/04 RMK AO2 T10721128
14926KSTC STC20190110184010601/10/19 18:40:31  5-MIN KSTC 110040Z 13004KT 10SM CLR M08/M13 A3021 760 70 -1900 130/04 RMK AO2 T10831128
14926KSTC STC20190110184510601/10/19 18:45:31  5-MIN KSTC 110045Z 13003KT 10SM CLR M09/M13 A3021 760 74 -1900 130/03 RMK AO2 T10891128
14926KSTC STC20190110185011301/10/19 18:50:31  5-MIN KSTC 110050Z 13003KT 10SM CLR M08/M13 A3021 760 70 -1900 130/03 RMK AO2 SLP262 T10831128
14926KSTC STC20190110185510601/10/19 18:55:31  5-MIN KSTC 110055Z 13003KT 10SM CLR M08/M13 A3021 760 70 -1900 130/03 RMK AO2 T10831128
14926KSTC STC20190110190010601/10/19 19:00:31  5-MIN KSTC 110100Z 13003KT 10SM CLR M08/M13 A3021 760 70 -1900 120/03 RMK AO2 T10831128
14926KSTC STC20190110190510601/10/19 19:05:31  5-MIN KSTC 110105Z 12003KT 10SM CLR M08/M13 A3021 760 67 -1800 120/03 RMK AO2 T10781128
14926KSTC STC20190110191010601/10/19 19:10:31  5-MIN KSTC 110110Z 12003KT 10SM CLR M08/M13 A3021 760 67 -1800 120/03 RMK AO2 T10781128
14926KSTC STC20190110191510601/10/19 19:15:31  5-MIN KSTC 110115Z 11003KT 10SM CLR M08/M13 A3021 760 67 -1800 110/03 RMK AO2 T10781128
14926KSTC STC20190110192010601/10/19 19:20:31  5-MIN KSTC 110120Z 11003KT 10SM CLR M08/M13 A3021 760 67 -1800 110/03 RMK AO2 T10781128
14926KSTC STC20190110192510601/10/19 19:25:31  5-MIN KSTC 110125Z 10003KT 10SM CLR M08/M13 A3021 760 67 -1800 100/03 RMK AO2 T10781128
14926KSTC STC20190110193010601/10/19 19:30:31  5-MIN KSTC 110130Z 10003KT 10SM CLR M08/M13 A3021 760 67 -1800 100/03 RMK AO2 T10781128
14926KSTC STC20190110193510601/10/19 19:35:31  5-MIN KSTC 110135Z 00000KT 10SM CLR M08/M13 A3021 760 70 -1900 000/00 RMK AO2 T10831128
14926KSTC STC20190110194010601/10/19 19:40:31  5-MIN KSTC 110140Z 00000KT 10SM CLR M08/M13 A3021 760 67 -1800 000/00 RMK AO2 T10781128
14926KSTC STC20190110194510601/10/19 19:45:31  5-MIN KSTC 110145Z 00000KT 10SM CLR M08/M13 A3021 760 70 -1900 000/00 RMK AO2 T10831128
14926KSTC STC20190110195011301/10/19 19:50:31  5-MIN KSTC 110150Z 12003KT 10SM CLR M09/M13 A3021 760 74 -1900 120/03 RMK AO2 SLP260 T10891128
14926KSTC STC20190110195510601/10/19 19:55:31  5-MIN KSTC 110155Z 11003KT 10SM CLR M09/M13 A3021 760 74 -1900 110/03 RMK AO2 T10891128
14926KSTC STC20190110200010601/10/19 20:00:31  5-MIN KSTC 110200Z 11003KT 10SM CLR M09/M13 A3020 760 77 -2000 100/03 RMK AO2 T10941128
14926KSTC STC20190110200510601/10/19 20:05:31  5-MIN KSTC 110205Z 10004KT 10SM CLR M08/M13 A3020 770 70 -1900 090/04 RMK AO2 T10831128
14926KSTC STC20190110201010601/10/19 20:10:31  5-MIN KSTC 110210Z 10003KT 10SM CLR M08/M13 A3020 770 70 -1900 100/03 RMK AO2 T10831128
14926KSTC STC20190110201510601/10/19 20:15:31  5-MIN KSTC 110215Z 10004KT 10SM CLR M08/M13 A3020 770 70 -1900 100/04 RMK AO2 T10831128
14926KSTC STC20190110202010601/10/19 20:20:31  5-MIN KSTC 110220Z 11005KT 10SM CLR M08/M13 A3020 770 70 -1900 110/05 RMK AO2 T10831128
14926KSTC STC20190110202510601/10/19 20:25:31  5-MIN KSTC 110225Z 11004KT 10SM CLR M08/M13 A3020 770 67 -1800 110/04 RMK AO2 T10781128
14926KSTC STC20190110203010601/10/19 20:30:31  5-MIN KSTC 110230Z 12005KT 10SM CLR M08/M13 A3020 770 70 -1900 120/05 RMK AO2 T10831128
14926KSTC STC20190110203510601/10/19 20:35:31  5-MIN KSTC 110235Z 11005KT 10SM CLR M08/M13 A3020 770 67 -1800 110/05 RMK AO2 T10781128
14926KSTC STC20190110204010601/10/19 20:40:31  5-MIN KSTC 110240Z 12006KT 10SM CLR M08/M13 A3020 770 67 -1800 120/06 RMK AO2 T10781128
14926KSTC STC20190110204510601/10/19 20:45:31  5-MIN KSTC 110245Z 11005KT 10SM CLR M08/M13 A3020 770 67 -1800 100/05 RMK AO2 T10781128
14926KSTC STC20190110205011901/10/19 20:50:31  5-MIN KSTC 110250Z 11006KT 10SM CLR M08/M13 A3019 780 67 -1800 110/06 RMK AO2 SLP253 T10781128 56015
14926KSTC STC20190110205510601/10/19 20:55:31  5-MIN KSTC 110255Z 11006KT 10SM CLR M08/M13 A3019 780 67 -1800 110/06 RMK AO2 T10781128
14926KSTC STC20190110210010601/10/19 21:00:31  5-MIN KSTC 110300Z 11006KT 10SM CLR M08/M13 A3019 780 67 -1800 110/06 RMK AO2 T10781128
14926KSTC STC20190110210510601/10/19 21:05:31  5-MIN KSTC 110305Z 11005KT 10SM CLR M08/M13 A3019 770 67 -1800 100/05 RMK AO2 T10781128
14926KSTC STC20190110211010601/10/19 21:10:31  5-MIN KSTC 110310Z 11006KT 10SM CLR M08/M13 A3019 780 67 -1800 110/06 RMK AO2 T10781128
14926KSTC STC20190110211510601/10/19 21:15:31  5-MIN KSTC 110315Z 11006KT 10SM CLR M08/M13 A3019 780 67 -1800 110/06 RMK AO2 T10781128
14926KSTC STC20190110212010601/10/19 21:20:31  5-MIN KSTC 110320Z 11005KT 10SM CLR M08/M13 A3019 780 67 -1800 110/05 RMK AO2 T10781128
14926KSTC STC20190110212510601/10/19 21:25:31  5-MIN KSTC 110325Z 11006KT 10SM CLR M08/M13 A3019 780 67 -1800 110/06 RMK AO2 T10781128
14926KSTC STC20190110213010601/10/19 21:30:31  5-MIN KSTC 110330Z 11006KT 10SM CLR M08/M13 A3019 780 67 -1800 110/06 RMK AO2 T10781128
14926KSTC STC20190110213510601/10/19 21:35:31  5-MIN KSTC 110335Z 11006KT 10SM CLR M08/M13 A3019 780 70 -1800 100/06 RMK AO2 T10831128
14926KSTC STC20190110214010601/10/19 21:40:31  5-MIN KSTC 110340Z 11006KT 10SM CLR M08/M13 A3018 780 70 -1800 100/06 RMK AO2 T10831128
14926KSTC STC20190110214510601/10/19 21:45:31  5-MIN KSTC 110345Z 11007KT 10SM CLR M08/M13 A3018 790 70 -1800 110/07 RMK AO2 T10831128
14926KSTC STC20190110215011301/10/19 21:50:31  5-MIN KSTC 110350Z 12007KT 10SM CLR M08/M13 A3018 790 70 -1800 120/07 RMK AO2 SLP251 T10831128
14926KSTC STC20190110215510601/10/19 21:55:31  5-MIN KSTC 110355Z 12007KT 10SM CLR M08/M13 A3018 790 70 -1800 110/07 RMK AO2 T10831128
14926KSTC STC20190110220010601/10/19 22:00:31  5-MIN KSTC 110400Z 11006KT 10SM CLR M08/M13 A3018 790 70 -1800 110/06 RMK AO2 T10831128
14926KSTC STC20190110220510601/10/19 22:05:31  5-MIN KSTC 110405Z 11006KT 10SM CLR M08/M12 A3017 790 74 -1800 110/06 RMK AO2 T10831122
14926KSTC STC20190110221010601/10/19 22:10:31  5-MIN KSTC 110410Z 11006KT 10SM CLR M08/M12 A3018 790 74 -1800 110/06 RMK AO2 T10831122
14926KSTC STC20190110221510601/10/19 22:15:31  5-MIN KSTC 110415Z 12007KT 10SM CLR M08/M12 A3017 790 74 -1800 120/07 RMK AO2 T10831122
14926KSTC STC20190110222010601/10/19 22:20:31  5-MIN KSTC 110420Z 11007KT 10SM CLR M08/M12 A3017 790 74 -1800 110/07 RMK AO2 T10831122
14926KSTC STC20190110222510601/10/19 22:25:31  5-MIN KSTC 110425Z 11007KT 10SM CLR M08/M12 A3017 800 74 -1800 110/07 RMK AO2 T10831122
14926KSTC STC20190110223010601/10/19 22:30:31  5-MIN KSTC 110430Z 12007KT 10SM CLR M08/M12 A3018 790 71 -1800 120/07 RMK AO2 T10781122
14926KSTC STC20190110223509601/10/19 22:35:31  5-MIN KSTC 110435Z 10SM CLR M08/M12 A3018 790 71 -1800 M /M RMK AO2 T10781122
14926KSTC STC20190110224009601/10/19 22:40:31  5-MIN KSTC 110440Z 10SM CLR M08/M12 A3018 790 71 -1800 M /M RMK AO2 T10781122
14926KSTC STC20190110224509601/10/19 22:45:31  5-MIN KSTC 110445Z 10SM CLR M08/M12 A3018 790 71 -1800 M /M RMK AO2 T10781122
14926KSTC STC20190110225011301/10/19 22:50:31  5-MIN KSTC 110450Z 12006KT 10SM CLR M08/M12 A3018 790 71 -1800 120/06 RMK AO2 SLP249 T10781122
14926KSTC STC20190110225510101/10/19 22:55:31  5-MIN KSTC 110455Z AUTO 10SM CLR M08/M12 A3018 790 71 -1800 M /M RMK AO2 T10781122
14926KSTC STC20190110230010101/10/19 23:00:31  5-MIN KSTC 110500Z AUTO 10SM CLR M08/M12 A3017 790 71 -1800 M /M RMK AO2 T10781122
14926KSTC STC20190110230511101/10/19 23:05:31  5-MIN KSTC 110505Z AUTO 12006KT 10SM CLR M08/M12 A3017 790 71 -1800 120/06 RMK AO2 T10781122
14926KSTC STC20190110231011101/10/19 23:10:31  5-MIN KSTC 110510Z AUTO 12006KT 10SM CLR M08/M12 A3017 790 71 -1700 120/06 RMK AO2 T10781122
14926KSTC STC20190110231511101/10/19 23:15:31  5-MIN KSTC 110515Z AUTO 11007KT 10SM CLR M08/M12 A3017 790 71 -1700 110/07 RMK AO2 T10781122
14926KSTC STC20190110232011101/10/19 23:20:31  5-MIN KSTC 110520Z AUTO 11006KT 10SM CLR M08/M12 A3017 800 74 -1700 110/06 RMK AO2 T10781117
14926KSTC STC20190110232511101/10/19 23:25:31  5-MIN KSTC 110525Z AUTO 11006KT 10SM CLR M08/M12 A3017 800 74 -1700 110/06 RMK AO2 T10781117
14926KSTC STC20190110233011101/10/19 23:30:31  5-MIN KSTC 110530Z AUTO 11006KT 10SM CLR M08/M12 A3017 800 74 -1700 110/06 RMK AO2 T10781117
14926KSTC STC20190110233511101/10/19 23:35:31  5-MIN KSTC 110535Z AUTO 11006KT 10SM CLR M08/M12 A3017 790 74 -1700 110/06 RMK AO2 T10781117
14926KSTC STC20190110234011101/10/19 23:40:31  5-MIN KSTC 110540Z AUTO 12005KT 10SM CLR M08/M12 A3017 790 74 -1700 120/05 RMK AO2 T10781117
14926KSTC STC20190110234511101/10/19 23:45:31  5-MIN KSTC 110545Z AUTO 12004KT 10SM CLR M08/M12 A3018 790 74 -1800 120/04 RMK AO2 T10781117
14926KSTC STC20190110235014601/10/19 23:50:31  5-MIN KSTC 110550Z AUTO 12004KT 10SM CLR M08/M12 A3018 790 74 -1800 110/04 RMK AO2 SLP248 T10781117 11067 21094 410611150 58006
14926KSTC STC20190110235511101/10/19 23:55:31  5-MIN KSTC 110555Z AUTO 11004KT 10SM CLR M08/M12 A3018 790 77 -1800 110/04 RMK AO2 T10831117
14926KSTC STC20190111000011101/11/19 00:00:31  5-MIN KSTC 110600Z AUTO 11004KT 10SM CLR M08/M12 A3018 790 77 -1800 110/04 RMK AO2 T10831117
14926KSTC STC20190111000511101/11/19 00:05:31  5-MIN KSTC 110605Z AUTO 12005KT 10SM CLR M08/M12 A3018 790 77 -1800 120/05 RMK AO2 T10831117
14926KSTC STC20190111001011101/11/19 00:10:31  5-MIN KSTC 110610Z AUTO 11006KT 10SM CLR M08/M12 A3018 790 77 -1800 110/06 RMK AO2 T10831117
14926KSTC STC20190111001511101/11/19 00:15:31  5-MIN KSTC 110615Z AUTO 12006KT 10SM CLR M08/M12 A3018 790 77 -1800 110/06 RMK AO2 T10831117
14926KSTC STC20190111002011101/11/19 00:20:31  5-MIN KSTC 110620Z AUTO 11005KT 10SM CLR M08/M12 A3018 790 77 -1800 110/05 RMK AO2 T10831117
14926KSTC STC20190111002511101/11/19 00:25:31  5-MIN KSTC 110625Z AUTO 11005KT 10SM CLR M08/M12 A3018 790 77 -1800 110/05 RMK AO2 T10831117
14926KSTC STC20190111003011101/11/19 00:30:31  5-MIN KSTC 110630Z AUTO 10005KT 10SM CLR M08/M12 A3018 790 77 -1800 100/05 RMK AO2 T10831117
14926KSTC STC20190111003511101/11/19 00:35:31  5-MIN KSTC 110635Z AUTO 10005KT 10SM CLR M08/M12 A3018 790 77 -1800 100/05 RMK AO2 T10831117
14926KSTC STC20190111004011101/11/19 00:40:31  5-MIN KSTC 110640Z AUTO 10005KT 10SM CLR M08/M12 A3018 790 77 -1800 090/05 RMK AO2 T10831117
14926KSTC STC20190111004511101/11/19 00:45:31  5-MIN KSTC 110645Z AUTO 10005KT 10SM CLR M08/M12 A3018 790 74 -1800 100/05 RMK AO2 T10831122
14926KSTC STC20190111005011801/11/19 00:50:31  5-MIN KSTC 110650Z AUTO 10005KT 10SM CLR M08/M12 A3018 790 77 -1800 100/05 RMK AO2 SLP247 T10831117
14926KSTC STC20190111005511101/11/19 00:55:31  5-MIN KSTC 110655Z AUTO 11004KT 10SM CLR M08/M12 A3017 790 77 -1800 110/04 RMK AO2 T10831117
14926KSTC STC20190111010011101/11/19 01:00:31  5-MIN KSTC 110700Z AUTO 11003KT 10SM CLR M08/M12 A3017 790 77 -1800 110/03 RMK AO2 T10831117
14926KSTC STC20190111010511101/11/19 01:05:31  5-MIN KSTC 110705Z AUTO 09005KT 10SM CLR M08/M12 A3017 790 77 -1800 090/05 RMK AO2 T10831117
14926KSTC STC20190111011011101/11/19 01:10:31  5-MIN KSTC 110710Z AUTO 09004KT 10SM CLR M08/M12 A3017 790 77 -1800 090/04 RMK AO2 T10831117
14926KSTC STC20190111011511101/11/19 01:15:31  5-MIN KSTC 110715Z AUTO 09005KT 10SM CLR M09/M12 A3017 790 77 -1900 090/05 RMK AO2 T10891122
14926KSTC STC20190111012011101/11/19 01:20:31  5-MIN KSTC 110720Z AUTO 10005KT 10SM CLR M09/M12 A3017 800 77 -1900 100/05 RMK AO2 T10891122
14926KSTC STC20190111012511101/11/19 01:25:31  5-MIN KSTC 110725Z AUTO 10005KT 10SM CLR M09/M12 A3017 800 77 -1900 090/05 RMK AO2 T10891122
14926KSTC STC20190111013011101/11/19 01:30:31  5-MIN KSTC 110730Z AUTO 09005KT 10SM CLR M09/M12 A3017 800 77 -1900 090/05 RMK AO2 T10891122
14926KSTC STC20190111013511101/11/19 01:35:31  5-MIN KSTC 110735Z AUTO 09005KT 10SM CLR M09/M12 A3017 800 77 -1900 090/05 RMK AO2 T10891122
14926KSTC STC20190111014011101/11/19 01:40:31  5-MIN KSTC 110740Z AUTO 09005KT 10SM CLR M09/M12 A3017 800 77 -1900 090/05 RMK AO2 T10891122
14926KSTC STC20190111014511101/11/19 01:45:31  5-MIN KSTC 110745Z AUTO 10006KT 10SM CLR M09/M12 A3017 800 77 -1900 100/06 RMK AO2 T10891122
14926KSTC STC20190111015011801/11/19 01:50:31  5-MIN KSTC 110750Z AUTO 10006KT 10SM CLR M09/M12 A3017 800 80 -1900 100/06 RMK AO2 SLP244 T10891117
14926KSTC STC20190111015511101/11/19 01:55:31  5-MIN KSTC 110755Z AUTO 10007KT 10SM CLR M09/M12 A3017 800 80 -1900 090/07 RMK AO2 T10891117
14926KSTC STC20190111020011101/11/19 02:00:31  5-MIN KSTC 110800Z AUTO 10006KT 10SM CLR M09/M12 A3017 800 80 -1900 100/06 RMK AO2 T10891117
14926KSTC STC20190111020511101/11/19 02:05:31  5-MIN KSTC 110805Z AUTO 10006KT 10SM CLR M09/M12 A3017 800 80 -1900 100/06 RMK AO2 T10891117
14926KSTC STC20190111021011101/11/19 02:10:31  5-MIN KSTC 110810Z AUTO 10006KT 10SM CLR M09/M12 A3017 800 80 -1900 100/06 RMK AO2 T10891117
14926KSTC STC20190111021511101/11/19 02:15:31  5-MIN KSTC 110815Z AUTO 11006KT 10SM CLR M09/M12 A3017 800 80 -1900 110/06 RMK AO2 T10891117
14926KSTC STC20190111022011101/11/19 02:20:31  5-MIN KSTC 110820Z AUTO 11006KT 10SM CLR M09/M12 A3017 800 80 -1900 110/06 RMK AO2 T10891117
14926KSTC STC20190111022511101/11/19 02:25:31  5-MIN KSTC 110825Z AUTO 11006KT 10SM CLR M09/M12 A3017 800 80 -1900 110/06 RMK AO2 T10891117
14926KSTC STC20190111023011101/11/19 02:30:31  5-MIN KSTC 110830Z AUTO 12007KT 10SM CLR M09/M12 A3017 800 80 -1900 110/07 RMK AO2 T10891117
14926KSTC STC20190111023511101/11/19 02:35:31  5-MIN KSTC 110835Z AUTO 11005KT 10SM CLR M09/M12 A3017 800 80 -1900 110/05 RMK AO2 T10891117
14926KSTC STC20190111024011101/11/19 02:40:31  5-MIN KSTC 110840Z AUTO 11006KT 10SM CLR M09/M12 A3017 800 80 -1900 110/06 RMK AO2 T10891117
14926KSTC STC20190111024511101/11/19 02:45:31  5-MIN KSTC 110845Z AUTO 11005KT 10SM CLR M09/M12 A3017 800 80 -1900 110/05 RMK AO2 T10891117
14926KSTC STC20190111025012401/11/19 02:50:31  5-MIN KSTC 110850Z AUTO 11005KT 10SM CLR M09/M12 A3016 800 80 -1900 110/05 RMK AO2 SLP243 T10891117 56004
14926KSTC STC20190111025511101/11/19 02:55:31  5-MIN KSTC 110855Z AUTO 10005KT 10SM CLR M09/M12 A3016 800 84 -2000 100/05 RMK AO2 T10941117
14926KSTC STC20190111030011101/11/19 03:00:31  5-MIN KSTC 110900Z AUTO 10004KT 10SM CLR M09/M12 A3016 800 84 -2000 100/04 RMK AO2 T10941117
14926KSTC STC20190111030511101/11/19 03:05:31  5-MIN KSTC 110905Z AUTO 10005KT 10SM CLR M09/M12 A3016 810 84 -2000 100/05 RMK AO2 T10941117
14926KSTC STC20190111031011101/11/19 03:10:31  5-MIN KSTC 110910Z AUTO 10005KT 10SM CLR M09/M12 A3016 810 84 -1900 100/05 RMK AO2 T10941117
14926KSTC STC20190111031511101/11/19 03:15:31  5-MIN KSTC 110915Z AUTO 09005KT 10SM CLR M09/M12 A3015 810 84 -1900 090/05 RMK AO2 T10941117
14926KSTC STC20190111032011101/11/19 03:20:31  5-MIN KSTC 110920Z AUTO 10006KT 10SM CLR M09/M12 A3015 810 84 -1900 100/06 RMK AO2 T10941117
14926KSTC STC20190111032511101/11/19 03:25:31  5-MIN KSTC 110925Z AUTO 11006KT 10SM CLR M09/M12 A3015 810 84 -1900 110/06 RMK AO2 T10941117
14926KSTC STC20190111033011101/11/19 03:30:31  5-MIN KSTC 110930Z AUTO 11006KT 10SM CLR M09/M12 A3015 820 84 -1900 110/06 RMK AO2 T10941117
14926KSTC STC20190111033511101/11/19 03:35:31  5-MIN KSTC 110935Z AUTO 10005KT 10SM CLR M09/M12 A3015 820 84 -1900 100/05 RMK AO2 T10941117
14926KSTC STC20190111034011101/11/19 03:40:31  5-MIN KSTC 110940Z AUTO 10005KT 10SM CLR M09/M12 A3015 820 84 -1900 100/05 RMK AO2 T10941117
14926KSTC STC20190111034511101/11/19 03:45:31  5-MIN KSTC 110945Z AUTO 11004KT 10SM CLR M09/M12 A3015 820 84 -1900 110/04 RMK AO2 T10941117
14926KSTC STC20190111035011801/11/19 03:50:31  5-MIN KSTC 110950Z AUTO 09004KT 10SM CLR M09/M12 A3015 810 84 -1900 090/04 RMK AO2 SLP238 T10941117
14926KSTC STC20190111035511101/11/19 03:55:31  5-MIN KSTC 110955Z AUTO 09005KT 10SM CLR M09/M12 A3015 820 84 -1900 090/05 RMK AO2 T10941117
14926KSTC STC20190111040011101/11/19 04:00:31  5-MIN KSTC 111000Z AUTO 10005KT 10SM CLR M09/M12 A3015 820 84 -1900 100/05 RMK AO2 T10941117
14926KSTC STC20190111040511101/11/19 04:05:31  5-MIN KSTC 111005Z AUTO 09004KT 10SM CLR M09/M12 A3015 820 84 -1900 090/04 RMK AO2 T10941117
14926KSTC STC20190111041011101/11/19 04:10:31  5-MIN KSTC 111010Z AUTO 09004KT 10SM CLR M09/M12 A3015 810 84 -1900 090/04 RMK AO2 T10941117
14926KSTC STC20190111041511101/11/19 04:15:31  5-MIN KSTC 111015Z AUTO 09003KT 10SM CLR M09/M12 A3015 810 84 -1900 090/03 RMK AO2 T10941117
14926KSTC STC20190111042011101/11/19 04:20:31  5-MIN KSTC 111020Z AUTO 10003KT 10SM CLR M09/M12 A3015 820 84 -1900 090/03 RMK AO2 T10941117
14926KSTC STC20190111042511101/11/19 04:25:31  5-MIN KSTC 111025Z AUTO 11004KT 10SM CLR M10/M12 A3015 820 88 -2000 110/04 RMK AO2 T11001117
14926KSTC STC20190111043011101/11/19 04:30:31  5-MIN KSTC 111030Z AUTO 10004KT 10SM CLR M09/M12 A3015 820 84 -1900 100/04 RMK AO2 T10941117
14926KSTC STC20190111043511101/11/19 04:35:31  5-MIN KSTC 111035Z AUTO 10004KT 10SM CLR M09/M12 A3015 820 84 -1900 100/04 RMK AO2 T10941117
14926KSTC STC20190111044011101/11/19 04:40:31  5-MIN KSTC 111040Z AUTO 08003KT 10SM CLR M09/M12 A3015 810 84 -1900 080/03 RMK AO2 T10941117
14926KSTC STC20190111044511101/11/19 04:45:31  5-MIN KSTC 111045Z AUTO 07004KT 10SM CLR M10/M12 A3015 810 88 -2000 070/04 RMK AO2 T11001117
14926KSTC STC20190111045011801/11/19 04:50:31  5-MIN KSTC 111050Z AUTO 07003KT 10SM CLR M11/M12 A3015 810 88 -2100 070/03 RMK AO2 SLP239 T11061122
14926KSTC STC20190111045511101/11/19 04:55:31  5-MIN KSTC 111055Z AUTO 08003KT 10SM CLR M10/M12 A3015 820 88 -2000 080/03 RMK AO2 T11001117
14926KSTC STC20190111050011101/11/19 05:00:31  5-MIN KSTC 111100Z AUTO 11004KT 10SM CLR M10/M12 A3014 820 88 -2000 110/04 RMK AO2 T11001117
14926KSTC STC20190111050511101/11/19 05:05:31  5-MIN KSTC 111105Z AUTO 11004KT 10SM CLR M10/M12 A3014 820 88 -2000 110/04 RMK AO2 T11001117
14926KSTC STC20190111051011101/11/19 05:10:31  5-MIN KSTC 111110Z AUTO 12004KT 10SM CLR M11/M12 A3015 820 88 -2100 120/04 RMK AO2 T11061122
14926KSTC STC20190111051511101/11/19 05:15:31  5-MIN KSTC 111115Z AUTO 10003KT 10SM CLR M10/M12 A3015 820 88 -2000 100/03 RMK AO2 T11001117
14926KSTC STC20190111052011101/11/19 05:20:31  5-MIN KSTC 111120Z AUTO 09003KT 10SM CLR M10/M12 A3015 820 88 -2000 090/03 RMK AO2 T11001117
14926KSTC STC20190111052511101/11/19 05:25:31  5-MIN KSTC 111125Z AUTO 12003KT 10SM CLR M10/M12 A3015 820 88 -2000 120/03 RMK AO2 T11001117
14926KSTC STC20190111053011101/11/19 05:30:31  5-MIN KSTC 111130Z AUTO 11003KT 10SM CLR M10/M12 A3015 820 88 -2000 110/03 RMK AO2 T11001117
14926KSTC STC20190111053511101/11/19 05:35:31  5-MIN KSTC 111135Z AUTO 10004KT 10SM CLR M11/M12 A3015 820 92 -2100 100/04 RMK AO2 T11061117
14926KSTC STC20190111054011101/11/19 05:40:31  5-MIN KSTC 111140Z AUTO 09004KT 10SM CLR M10/M12 A3014 820 88 -2000 090/04 RMK AO2 T11001117
14926KSTC STC20190111054511101/11/19 05:45:31  5-MIN KSTC 111145Z AUTO 09004KT 10SM CLR M10/M12 A3014 820 88 -2000 090/04 RMK AO2 T11001117
14926KSTC STC20190111055013601/11/19 05:50:31  5-MIN KSTC 111150Z AUTO 09003KT 10SM CLR M10/M12 A3014 820 88 -2000 090/03 RMK AO2 SLP237 T11001117 11083 21106 58004
14926KSTC STC20190111055511101/11/19 05:55:31  5-MIN KSTC 111155Z AUTO 11003KT 10SM CLR M10/M12 A3014 820 88 -2000 110/03 RMK AO2 T11001117
14926KSTC STC20190111060011101/11/19 06:00:31  5-MIN KSTC 111200Z AUTO 11003KT 10SM CLR M10/M12 A3015 820 88 -2000 110/03 RMK AO2 T11001117
14926KSTC STC20190111060511101/11/19 06:05:31  5-MIN KSTC 111205Z AUTO 11004KT 10SM CLR M10/M12 A3015 820 88 -2000 110/04 RMK AO2 T11001117
14926KSTC STC20190111061011101/11/19 06:10:31  5-MIN KSTC 111210Z AUTO 11004KT 10SM CLR M10/M12 A3015 820 88 -2000 110/04 RMK AO2 T11001117
14926KSTC STC20190111061511101/11/19 06:15:31  5-MIN KSTC 111215Z AUTO 12004KT 10SM CLR M10/M12 A3014 820 88 -2000 120/04 RMK AO2 T11001117
14926KSTC STC20190111062011101/11/19 06:20:31  5-MIN KSTC 111220Z AUTO 12004KT 10SM CLR M10/M11 A3014 820 92 -2000 120/04 RMK AO2 T11001111
14926KSTC STC20190111062511101/11/19 06:25:31  5-MIN KSTC 111225Z AUTO 10003KT 10SM CLR M10/M12 A3014 820 88 -2000 100/03 RMK AO2 T11001117
14926KSTC STC20190111063011101/11/19 06:30:31  5-MIN KSTC 111230Z AUTO 10003KT 10SM CLR M10/M12 A3014 820 88 -2000 100/03 RMK AO2 T11001117
14926KSTC STC20190111063511101/11/19 06:35:31  5-MIN KSTC 111235Z AUTO 09003KT 10SM CLR M10/M12 A3014 820 88 -2000 090/03 RMK AO2 T11001117
14926KSTC STC20190111064011101/11/19 06:40:31  5-MIN KSTC 111240Z AUTO 10003KT 10SM CLR M10/M12 A3014 820 88 -2000 100/03 RMK AO2 T11001117
14926KSTC STC20190111064511101/11/19 06:45:31  5-MIN KSTC 111245Z AUTO 10004KT 10SM CLR M10/M12 A3014 820 88 -2000 100/04 RMK AO2 T11001117
14926KSTC STC20190111065011301/11/19 06:50:31  5-MIN KSTC 111250Z 10003KT 10SM CLR M10/M12 A3014 820 88 -2000 100/03 RMK AO2 SLP235 T11001117
14926KSTC STC20190111065510601/11/19 06:55:31  5-MIN KSTC 111255Z 09004KT 10SM CLR M10/M12 A3014 820 88 -2000 090/04 RMK AO2 T11001117
14926KSTC STC20190111070010601/11/19 07:00:31  5-MIN KSTC 111300Z 08003KT 10SM CLR M11/M12 A3014 820 88 -2100 080/03 RMK AO2 T11061122
14926KSTC STC20190111070510601/11/19 07:05:31  5-MIN KSTC 111305Z 08003KT 10SM CLR M11/M12 A3014 820 92 -2200 070/03 RMK AO2 T11111122
14926KSTC STC20190111071010601/11/19 07:10:31  5-MIN KSTC 111310Z 07003KT 10SM CLR M11/M12 A3014 820 92 -2200 070/03 RMK AO2 T11111122
14926KSTC STC20190111071510601/11/19 07:15:31  5-MIN KSTC 111315Z 06003KT 10SM CLR M11/M12 A3015 820 92 -2200 060/03 RMK AO2 T11111122
14926KSTC STC20190111072010601/11/19 07:20:31  5-MIN KSTC 111320Z 06003KT 10SM CLR M11/M12 A3015 820 92 -2200 060/03 RMK AO2 T11111122
14926KSTC STC20190111072510601/11/19 07:25:31  5-MIN KSTC 111325Z 07003KT 10SM CLR M11/M12 A3015 820 92 -2200 070/03 RMK AO2 T11111122
14926KSTC STC20190111073010501/11/19 07:30:31  5-MIN KSTC 111330Z 07004KT 9SM CLR M12/M13 A3015 820 91 -2200 070/04 RMK AO2 T11171128
14926KSTC STC20190111073510501/11/19 07:35:31  5-MIN KSTC 111335Z 07004KT 9SM CLR M12/M13 A3015 820 91 -2300 070/04 RMK AO2 T11221133
14926KSTC STC20190111074010501/11/19 07:40:31  5-MIN KSTC 111340Z 08004KT 9SM CLR M12/M13 A3015 820 87 -2200 080/04 RMK AO2 T11171133
14926KSTC STC20190111074510501/11/19 07:45:31  5-MIN KSTC 111345Z 08004KT 9SM CLR M12/M13 A3015 820 91 -2200 080/04 RMK AO2 T11171128
14926KSTC STC20190111075011201/11/19 07:50:31  5-MIN KSTC 111350Z 08004KT 9SM CLR M11/M12 A3015 820 92 -2200 080/04 RMK AO2 SLP239 T11111122
14926KSTC STC20190111075510501/11/19 07:55:31  5-MIN KSTC 111355Z 08004KT 9SM CLR M11/M12 A3015 820 92 -2200 080/04 RMK AO2 T11111122
14926KSTC STC20190111080010501/11/19 08:00:31  5-MIN KSTC 111400Z 09003KT 8SM CLR M11/M12 A3015 810 92 -2200 090/03 RMK AO2 T11111122
14926KSTC STC20190111080510501/11/19 08:05:31  5-MIN KSTC 111405Z 08003KT 8SM CLR M11/M12 A3015 810 92 -2200 080/03 RMK AO2 T11111122
14926KSTC STC20190111081010501/11/19 08:10:31  5-MIN KSTC 111410Z 07003KT 8SM CLR M12/M12 A3016 810 96 -2200 070/03 RMK AO2 T11171122
14926KSTC STC20190111081510501/11/19 08:15:31  5-MIN KSTC 111415Z 07003KT 8SM CLR M11/M12 A3016 810 92 -2200 070/03 RMK AO2 T11111122
14926KSTC STC20190111082010501/11/19 08:20:31  5-MIN KSTC 111420Z 08004KT 8SM CLR M11/M12 A3016 810 92 -2200 080/04 RMK AO2 T11111122
14926KSTC STC20190111082510501/11/19 08:25:31  5-MIN KSTC 111425Z 09005KT 8SM CLR M11/M12 A3016 810 88 -2100 080/05 RMK AO2 T11061122
14926KSTC STC20190111083010501/11/19 08:30:31  5-MIN KSTC 111430Z 09005KT 9SM CLR M10/M12 A3016 810 88 -2000 090/05 RMK AO2 T11001117
14926KSTC STC20190111083510501/11/19 08:35:31  5-MIN KSTC 111435Z 11004KT 9SM CLR M10/M12 A3016 800 88 -2000 100/04 RMK AO2 T11001117
14926KSTC STC20190111084010501/11/19 08:40:31  5-MIN KSTC 111440Z 10004KT 9SM CLR M10/M11 A3016 800 92 -2000 100/04 RMK AO2 T11001111
14926KSTC STC20190111084510601/11/19 08:45:31  5-MIN KSTC 111445Z 10003KT 10SM CLR M10/M11 A3017 800 92 -2000 100/03 RMK AO2 T11001111
14926KSTC STC20190111085011901/11/19 08:50:31  5-MIN KSTC 111450Z 09004KT 10SM CLR M09/M11 A3017 800 88 -2000 090/04 RMK AO2 SLP245 T10941111 56006
14926KSTC STC20190111085510601/11/19 08:55:31  5-MIN KSTC 111455Z 09004KT 10SM CLR M09/M11 A3017 800 88 -2000 090/04 RMK AO2 T10941111
14926KSTC STC20190111090010601/11/19 09:00:31  5-MIN KSTC 111500Z 10004KT 10SM CLR M09/M11 A3017 800 88 -2000 100/04 RMK AO2 T10941111
14926KSTC STC20190111090510601/11/19 09:05:31  5-MIN KSTC 111505Z 10005KT 10SM CLR M09/M11 A3017 800 88 -1900 100/05 RMK AO2 T10891106
14926KSTC STC20190111091010601/11/19 09:10:31  5-MIN KSTC 111510Z 09006KT 10SM CLR M09/M11 A3017 800 88 -1900 090/06 RMK AO2 T10891106
14926KSTC STC20190111091510601/11/19 09:15:31  5-MIN KSTC 111515Z 10005KT 10SM CLR M09/M11 A3017 800 88 -1900 090/05 RMK AO2 T10891106
14926KSTC STC20190111092010601/11/19 09:20:31  5-MIN KSTC 111520Z 10006KT 10SM CLR M08/M11 A3017 800 84 -1800 100/06 RMK AO2 T10831106
14926KSTC STC20190111092510601/11/19 09:25:31  5-MIN KSTC 111525Z 11006KT 10SM CLR M08/M11 A3017 800 84 -1800 110/06 RMK AO2 T10831106
14926KSTC STC20190111093010601/11/19 09:30:31  5-MIN KSTC 111530Z 11005KT 10SM CLR M08/M11 A3017 800 84 -1800 110/05 RMK AO2 T10831106
14926KSTC STC20190111093510601/11/19 09:35:31  5-MIN KSTC 111535Z 10004KT 10SM CLR M08/M10 A3017 800 88 -1800 100/04 RMK AO2 T10831100
14926KSTC STC20190111094010601/11/19 09:40:31  5-MIN KSTC 111540Z 11005KT 10SM CLR M08/M10 A3017 800 84 -1700 110/05 RMK AO2 T10781100
14926KSTC STC20190111094510601/11/19 09:45:31  5-MIN KSTC 111545Z 11005KT 10SM CLR M08/M10 A3017 800 84 -1700 110/05 RMK AO2 T10781100
14926KSTC STC20190111095011301/11/19 09:50:31  5-MIN KSTC 111550Z 12004KT 10SM CLR M08/M10 A3017 800 84 -1700 120/04 RMK AO2 SLP244 T10781100
14926KSTC STC20190111095510601/11/19 09:55:31  5-MIN KSTC 111555Z 12005KT 10SM CLR M08/M10 A3017 800 84 -1700 120/05 RMK AO2 T10781100
14926KSTC STC20190111100010601/11/19 10:00:31  5-MIN KSTC 111600Z 13005KT 10SM CLR M07/M10 A3016 800 81 -1700 120/05 RMK AO2 T10721100
14926KSTC STC20190111100510601/11/19 10:05:31  5-MIN KSTC 111605Z 12005KT 10SM CLR M07/M10 A3016 800 81 -1700 120/05 RMK AO2 T10721100
14926KSTC STC20190111101010601/11/19 10:10:31  5-MIN KSTC 111610Z 12004KT 10SM CLR M07/M09 A3017 800 84 -1700 120/04 RMK AO2 T10721094
14926KSTC STC20190111101510601/11/19 10:15:31  5-MIN KSTC 111615Z VRB03KT 10SM CLR M07/M09 A3016 800 81 -1600 VRB/03 RMK AO2 T10671094
14926KSTC STC20190111102010601/11/19 10:20:31  5-MIN KSTC 111620Z 14006KT 10SM CLR M07/M09 A3016 800 81 -1600 140/06 RMK AO2 T10671094
14926KSTC STC20190111102510601/11/19 10:25:31  5-MIN KSTC 111625Z 14005KT 10SM CLR M07/M09 A3017 800 81 -1600 140/05 RMK AO2 T10671094
14926KSTC STC20190111103010601/11/19 10:30:31  5-MIN KSTC 111630Z 14006KT 10SM CLR M07/M09 A3017 800 81 -1600 140/06 RMK AO2 T10671094
14926KSTC STC20190111103510601/11/19 10:35:31  5-MIN KSTC 111635Z 14004KT 10SM CLR M07/M09 A3017 800 84 -1600 140/04 RMK AO2 T10671089
14926KSTC STC20190111104010601/11/19 10:40:31  5-MIN KSTC 111640Z 14004KT 10SM CLR M06/M09 A3017 800 81 -1500 140/04 RMK AO2 T10611089
14926KSTC STC20190111104510601/11/19 10:45:31  5-MIN KSTC 111645Z 15005KT 10SM CLR M06/M09 A3017 800 81 -1500 150/05 RMK AO2 T10611089
14926KSTC STC20190111105011301/11/19 10:50:31  5-MIN KSTC 111650Z 15005KT 10SM CLR M06/M09 A3017 800 81 -1500 140/05 RMK AO2 SLP244 T10611089
14926KSTC STC20190111105510601/11/19 10:55:31  5-MIN KSTC 111655Z 14004KT 10SM CLR M06/M09 A3017 800 81 -1500 140/04 RMK AO2 T10611089
14926KSTC STC20190111110010601/11/19 11:00:31  5-MIN KSTC 111700Z 14004KT 10SM CLR M06/M09 A3017 800 81 -1500 140/04 RMK AO2 T10611089
14926KSTC STC20190111110510601/11/19 11:05:31  5-MIN KSTC 111705Z 13004KT 10SM CLR M06/M08 A3016 800 81 -1500 130/04 RMK AO2 T10561083
14926KSTC STC20190111111010601/11/19 11:10:31  5-MIN KSTC 111710Z 13004KT 10SM CLR M06/M08 A3016 800 81 -1400 130/04 RMK AO2 T10561083
14926KSTC STC20190111111510601/11/19 11:15:31  5-MIN KSTC 111715Z 13005KT 10SM CLR M06/M08 A3016 810 81 -1400 130/05 RMK AO2 T10561083
14926KSTC STC20190111112010601/11/19 11:20:31  5-MIN KSTC 111720Z 15004KT 10SM CLR M06/M08 A3016 810 81 -1400 150/04 RMK AO2 T10561083
14926KSTC STC20190111112510601/11/19 11:25:31  5-MIN KSTC 111725Z 13004KT 10SM CLR M06/M08 A3016 810 81 -1400 130/04 RMK AO2 T10561083
14926KSTC STC20190111113010601/11/19 11:30:31  5-MIN KSTC 111730Z 14004KT 10SM CLR M05/M08 A3015 810 77 -1400 140/04 RMK AO2 T10501083
14926KSTC STC20190111113510601/11/19 11:35:31  5-MIN KSTC 111735Z 15004KT 10SM CLR M05/M08 A3016 810 77 -1400 150/04 RMK AO2 T10501083
14926KSTC STC20190111114010601/11/19 11:40:31  5-MIN KSTC 111740Z 15003KT 10SM CLR M05/M08 A3016 810 77 -1400 150/03 RMK AO2 T10501083
14926KSTC STC20190111114510601/11/19 11:45:31  5-MIN KSTC 111745Z 15005KT 10SM CLR M05/M08 A3015 810 81 -1400 150/05 RMK AO2 T10501078
14926KSTC STC20190111115013101/11/19 11:50:31  5-MIN KSTC 111750Z 15004KT 10SM CLR M05/M08 A3015 810 77 -1400 140/04 RMK AO2 SLP237 T10501083 11050 21122 53007
14926KSTC STC20190111115510601/11/19 11:55:31  5-MIN KSTC 111755Z 16004KT 10SM CLR M04/M08 A3015 810 78 -1300 150/04 RMK AO2 T10441078
14926KSTC STC20190111120010601/11/19 12:00:31  5-MIN KSTC 111800Z 15005KT 10SM CLR M04/M08 A3015 810 78 -1300 150/05 RMK AO2 T10441078
14926KSTC STC20190111120510601/11/19 12:05:31  5-MIN KSTC 111805Z 16005KT 10SM CLR M04/M08 A3015 810 78 -1300 150/05 RMK AO2 T10441078
14926KSTC STC20190111121010601/11/19 12:10:31  5-MIN KSTC 111810Z 16005KT 10SM CLR M04/M08 A3016 810 78 -1300 160/05 RMK AO2 T10441078
14926KSTC STC20190111121510601/11/19 12:15:31  5-MIN KSTC 111815Z 16004KT 10SM CLR M04/M07 A3016 810 81 -1300 160/04 RMK AO2 T10441072
14926KSTC STC20190111122010601/11/19 12:20:31  5-MIN KSTC 111820Z 15005KT 10SM CLR M04/M07 A3016 800 81 -1300 150/05 RMK AO2 T10441072
14926KSTC STC20190111122510601/11/19 12:25:31  5-MIN KSTC 111825Z 15006KT 10SM CLR M04/M08 A3016 800 78 -1300 150/06 RMK AO2 T10441078
14926KSTC STC20190111123010601/11/19 12:30:31  5-MIN KSTC 111830Z 14005KT 10SM CLR M04/M08 A3016 800 78 -1300 140/05 RMK AO2 T10441078
14926KSTC STC20190111123510601/11/19 12:35:31  5-MIN KSTC 111835Z 14005KT 10SM CLR M04/M08 A3016 800 78 -1300 130/05 RMK AO2 T10441078
14926KSTC STC20190111124010601/11/19 12:40:31  5-MIN KSTC 111840Z 14005KT 10SM CLR M04/M08 A3016 800 74 -1200 140/05 RMK AO2 T10391078
14926KSTC STC20190111124510601/11/19 12:45:31  5-MIN KSTC 111845Z 15006KT 10SM CLR M04/M07 A3016 810 78 -1200 140/06 RMK AO2 T10391072
14926KSTC STC20190111125011301/11/19 12:50:31  5-MIN KSTC 111850Z 14004KT 10SM CLR M04/M07 A3016 810 78 -1200 140/04 RMK AO2 SLP238 T10391072
14926KSTC STC20190111125510601/11/19 12:55:31  5-MIN KSTC 111855Z 15005KT 10SM CLR M04/M07 A3016 810 78 -1200 140/05 RMK AO2 T10391072
14926KSTC STC20190111130010601/11/19 13:00:31  5-MIN KSTC 111900Z 16005KT 10SM CLR M04/M07 A3016 810 78 -1200 160/05 RMK AO2 T10391072
14926KSTC STC20190111130510901/11/19 13:05:31  5-MIN KSTC 111905Z 14005KT 10SM FEW013 M04/M07 A3015 810 78 -1200 140/05 RMK AO2 T10391072
14926KSTC STC20190111131010901/11/19 13:10:31  5-MIN KSTC 111910Z 15005KT 10SM FEW013 M04/M07 A3015 810 78 -1200 150/05 RMK AO2 T10391072
14926KSTC STC20190111131510901/11/19 13:15:31  5-MIN KSTC 111915Z 16005KT 10SM FEW013 M04/M07 A3015 810 81 -1200 160/05 RMK AO2 T10391067
14926KSTC STC20190111132010901/11/19 13:20:31  5-MIN KSTC 111920Z 16005KT 10SM FEW012 M03/M07 A3015 820 78 -1200 160/05 RMK AO2 T10331067
14926KSTC STC20190111132510901/11/19 13:25:31  5-MIN KSTC 111925Z 15005KT 10SM FEW012 M03/M07 A3015 820 78 -1100 150/05 RMK AO2 T10331067
14926KSTC STC20190111133010901/11/19 13:30:31  5-MIN KSTC 111930Z 16005KT 10SM FEW012 M03/M07 A3015 820 78 -1100 160/05 RMK AO2 T10331067
14926KSTC STC20190111133510601/11/19 13:35:31  5-MIN KSTC 111935Z 15005KT 10SM CLR M03/M07 A3015 810 78 -1200 150/05 RMK AO2 T10331067
14926KSTC STC20190111134010601/11/19 13:40:31  5-MIN KSTC 111940Z 16004KT 10SM CLR M03/M07 A3015 820 78 -1200 160/04 RMK AO2 T10331067
14926KSTC STC20190111134510601/11/19 13:45:31  5-MIN KSTC 111945Z 16005KT 10SM CLR M03/M07 A3015 810 78 -1200 160/05 RMK AO2 T10331067
14926KSTC STC20190111135011301/11/19 13:50:31  5-MIN KSTC 111950Z 15004KT 10SM CLR M03/M07 A3015 810 78 -1200 150/04 RMK AO2 SLP236 T10331067
14926KSTC STC20190111135510601/11/19 13:55:31  5-MIN KSTC 111955Z 17005KT 10SM CLR M03/M07 A3015 810 78 -1200 160/05 RMK AO2 T10331067
14926KSTC STC20190111140010601/11/19 14:00:31  5-MIN KSTC 112000Z 15005KT 10SM CLR M03/M07 A3015 810 75 -1100 150/05 RMK AO2 T10281067
14926KSTC STC20190111140510601/11/19 14:05:31  5-MIN KSTC 112005Z 16006KT 10SM CLR M03/M07 A3015 810 75 -1100 160/06 RMK AO2 T10281067
14926KSTC STC20190111141010601/11/19 14:10:31  5-MIN KSTC 112010Z 15006KT 10SM CLR M03/M07 A3015 810 75 -1100 150/06 RMK AO2 T10281067
14926KSTC STC20190111141510601/11/19 14:15:31  5-MIN KSTC 112015Z 15006KT 10SM CLR M03/M07 A3015 810 75 -1100 150/06 RMK AO2 T10281067
14926KSTC STC20190111142010601/11/19 14:20:31  5-MIN KSTC 112020Z 16005KT 10SM CLR M03/M07 A3015 810 75 -1100 150/05 RMK AO2 T10281067
14926KSTC STC20190111142510601/11/19 14:25:31  5-MIN KSTC 112025Z 16004KT 10SM CLR M03/M07 A3015 810 75 -1100 160/04 RMK AO2 T10281067
14926KSTC STC20190111143010601/11/19 14:30:31  5-MIN KSTC 112030Z 16005KT 10SM CLR M03/M07 A3015 810 75 -1100 160/05 RMK AO2 T10281067
14926KSTC STC20190111143510601/11/19 14:35:31  5-MIN KSTC 112035Z 16006KT 10SM CLR M03/M07 A3016 810 75 -1100 160/06 RMK AO2 T10281067
14926KSTC STC20190111144010601/11/19 14:40:31  5-MIN KSTC 112040Z 16005KT 10SM CLR M03/M07 A3016 810 75 -1100 160/05 RMK AO2 T10281067
14926KSTC STC20190111144510601/11/19 14:45:31  5-MIN KSTC 112045Z 15005KT 10SM CLR M03/M07 A3016 810 75 -1100 150/05 RMK AO2 T10281067
14926KSTC STC20190111145011901/11/19 14:50:31  5-MIN KSTC 112050Z 15004KT 10SM CLR M03/M07 A3016 810 75 -1100 150/04 RMK AO2 SLP238 T10281067 58005
14926KSTC STC20190111145510601/11/19 14:55:31  5-MIN KSTC 112055Z 16004KT 10SM CLR M03/M07 A3016 810 75 -1100 160/04 RMK AO2 T10281067
14926KSTC STC20190111150010601/11/19 15:00:31  5-MIN KSTC 112100Z 17003KT 10SM CLR M02/M07 A3016 800 69 -1000 170/03 RMK AO2 T10221072
14926KSTC STC20190111150510601/11/19 15:05:31  5-MIN KSTC 112105Z 00000KT 10SM CLR M02/M07 A3016 800 72 -1000 000/00 RMK AO2 T10221067
14926KSTC STC20190111151010601/11/19 15:10:31  5-MIN KSTC 112110Z 00000KT 10SM CLR M02/M07 A3016 800 72 -1000 000/00 RMK AO2 T10221067
14926KSTC STC20190111151510601/11/19 15:15:31  5-MIN KSTC 112115Z 16003KT 10SM CLR M02/M07 A3016 800 72 -1000 160/03 RMK AO2 T10221067
14926KSTC STC20190111152010601/11/19 15:20:31  5-MIN KSTC 112120Z 16003KT 10SM CLR M02/M07 A3016 800 69 -1000 160/03 RMK AO2 T10221072
14926KSTC STC20190111152510601/11/19 15:25:31  5-MIN KSTC 112125Z 16003KT 10SM CLR M02/M07 A3016 800 69 -1000 160/03 RMK AO2 T10221072
14926KSTC STC20190111153010601/11/19 15:30:31  5-MIN KSTC 112130Z 18003KT 10SM CLR M02/M07 A3016 800 69 -1000 180/03 RMK AO2 T10221072
14926KSTC STC20190111153510601/11/19 15:35:31  5-MIN KSTC 112135Z 17003KT 10SM CLR M02/M07 A3016 800 69 -1000 160/03 RMK AO2 T10221072
14926KSTC STC20190111154010601/11/19 15:40:31  5-MIN KSTC 112140Z 16004KT 10SM CLR M02/M07 A3016 800 69 -1000 160/04 RMK AO2 T10221072
14926KSTC STC20190111154510601/11/19 15:45:31  5-MIN KSTC 112145Z 17003KT 10SM CLR M02/M07 A3017 800 69 -1000 160/03 RMK AO2 T10221072
14926KSTC STC20190111155011301/11/19 15:50:31  5-MIN KSTC 112150Z 17003KT 10SM CLR M02/M07 A3017 800 69 -1000 170/03 RMK AO2 SLP242 T10221072
14926KSTC STC20190111155510601/11/19 15:55:31  5-MIN KSTC 112155Z 18003KT 10SM CLR M02/M07 A3017 800 69 -1000 180/03 RMK AO2 T10221072
14926KSTC STC20190111160010601/11/19 16:00:31  5-MIN KSTC 112200Z 00000KT 10SM CLR M02/M07 A3017 800 69 -1000 000/00 RMK AO2 T10221072
14926KSTC STC20190111160510601/11/19 16:05:31  5-MIN KSTC 112205Z 00000KT 10SM CLR M02/M07 A3017 790 69 -1000 000/00 RMK AO2 T10221072
14926KSTC STC20190111161010601/11/19 16:10:31  5-MIN KSTC 112210Z 00000KT 10SM CLR M02/M07 A3018 790 69 -1000 000/00 RMK AO2 T10221072
14926KSTC STC20190111161510601/11/19 16:15:31  5-MIN KSTC 112215Z 00000KT 10SM CLR M02/M07 A3018 790 69 -1000 000/00 RMK AO2 T10221072
14926KSTC STC20190111162010601/11/19 16:20:31  5-MIN KSTC 112220Z 00000KT 10SM CLR M02/M07 A3018 790 69 -1000 000/00 RMK AO2 T10221072
14926KSTC STC20190111162510601/11/19 16:25:31  5-MIN KSTC 112225Z 00000KT 10SM CLR M02/M07 A3018 790 69 -1000 000/00 RMK AO2 T10221072
14926KSTC STC20190111163010601/11/19 16:30:31  5-MIN KSTC 112230Z 00000KT 10SM CLR M02/M07 A3018 780 69 -1000 000/00 RMK AO2 T10221072
14926KSTC STC20190111163510601/11/19 16:35:31  5-MIN KSTC 112235Z 00000KT 10SM CLR M02/M07 A3019 780 69 -1100 000/00 RMK AO2 T10221072
14926KSTC STC20190111164010601/11/19 16:40:31  5-MIN KSTC 112240Z 00000KT 10SM CLR M02/M07 A3019 780 69 -1100 000/00 RMK AO2 T10221072
14926KSTC STC20190111164510601/11/19 16:45:31  5-MIN KSTC 112245Z 00000KT 10SM CLR M03/M07 A3019 780 74 -1200 000/00 RMK AO2 T10331072
14926KSTC STC20190111165011301/11/19 16:50:31  5-MIN KSTC 112250Z 05003KT 10SM CLR M03/M08 A3019 780 71 -1200 050/03 RMK AO2 SLP251 T10331078
14926KSTC STC20190111165510601/11/19 16:55:31  5-MIN KSTC 112255Z 08003KT 10SM CLR M03/M08 A3019 770 71 -1200 080/03 RMK AO2 T10331078
14926KSTC STC20190111170010601/11/19 17:00:31  5-MIN KSTC 112300Z 08003KT 10SM CLR M03/M08 A3020 770 68 -1100 080/03 RMK AO2 T10281078
14926KSTC STC20190111170510601/11/19 17:05:31  5-MIN KSTC 112305Z 08003KT 10SM CLR M03/M08 A3020 770 68 -1100 080/03 RMK AO2 T10281078
14926KSTC STC20190111171010601/11/19 17:10:31  5-MIN KSTC 112310Z 00000KT 10SM CLR M03/M08 A3019 780 71 -1200 000/00 RMK AO2 T10331078
14926KSTC STC20190111171510601/11/19 17:15:31  5-MIN KSTC 112315Z 05003KT 10SM CLR M03/M08 A3019 770 71 -1200 050/03 RMK AO2 T10331078
14926KSTC STC20190111172010601/11/19 17:20:31  5-MIN KSTC 112320Z 05004KT 10SM CLR M04/M08 A3020 770 74 -1300 050/04 RMK AO2 T10391078
14926KSTC STC20190111172510601/11/19 17:25:31  5-MIN KSTC 112325Z 06003KT 10SM CLR M04/M08 A3020 770 74 -1300 060/03 RMK AO2 T10391078
14926KSTC STC20190111173010601/11/19 17:30:31  5-MIN KSTC 112330Z 05003KT 10SM CLR M03/M08 A3020 760 71 -1200 050/03 RMK AO2 T10331078
14926KSTC STC20190111173510601/11/19 17:35:31  5-MIN KSTC 112335Z 04003KT 10SM CLR M04/M08 A3021 760 74 -1300 040/03 RMK AO2 T10391078
14926KSTC STC20190111174010601/11/19 17:40:31  5-MIN KSTC 112340Z 05003KT 10SM CLR M04/M08 A3021 760 74 -1300 050/03 RMK AO2 T10391078
14926KSTC STC20190111174510601/11/19 17:45:31  5-MIN KSTC 112345Z 05003KT 10SM CLR M04/M08 A3021 760 74 -1300 050/03 RMK AO2 T10391078
14926KSTC STC20190111175013101/11/19 17:50:31  5-MIN KSTC 112350Z 05003KT 10SM CLR M04/M08 A3021 760 74 -1400 050/03 RMK AO2 SLP257 T10441083 11022 21044 53002
14926KSTC STC20190111175510601/11/19 17:55:31  5-MIN KSTC 112355Z 06003KT 10SM CLR M04/M08 A3021 760 74 -1400 050/03 RMK AO2 T10441083
14926KSTC STC20190111180010601/11/19 18:00:31  5-MIN KSTC 120000Z 06003KT 10SM CLR M04/M08 A3021 760 74 -1400 060/03 RMK AO2 T10441083
14926KSTC STC20190111180510601/11/19 18:05:31  5-MIN KSTC 120005Z 00000KT 10SM CLR M04/M08 A3021 760 74 -1400 000/00 RMK AO2 T10441083
14926KSTC STC20190111181010601/11/19 18:10:31  5-MIN KSTC 120010Z 00000KT 10SM CLR M04/M08 A3021 760 74 -1400 000/00 RMK AO2 T10441083
14926KSTC STC20190111181510601/11/19 18:15:31  5-MIN KSTC 120015Z 00000KT 10SM CLR M05/M08 A3021 760 77 -1400 000/00 RMK AO2 T10501083
14926KSTC STC20190111182010601/11/19 18:20:31  5-MIN KSTC 120020Z 04003KT 10SM CLR M05/M08 A3021 760 77 -1400 040/03 RMK AO2 T10501083
14926KSTC STC20190111182510601/11/19 18:25:31  5-MIN KSTC 120025Z 05003KT 10SM CLR M05/M08 A3021 760 77 -1400 050/03 RMK AO2 T10501083
14926KSTC STC20190111183010601/11/19 18:30:31  5-MIN KSTC 120030Z 04003KT 10SM CLR M04/M08 A3022 750 74 -1400 040/03 RMK AO2 T10441083
14926KSTC STC20190111183510601/11/19 18:35:31  5-MIN KSTC 120035Z 00000KT 10SM CLR M06/M08 A3021 760 81 -1500 000/00 RMK AO2 T10561083
14926KSTC STC20190111184010601/11/19 18:40:31  5-MIN KSTC 120040Z 00000KT 10SM CLR M05/M08 A3022 750 77 -1400 000/00 RMK AO2 T10501083
14926KSTC STC20190111184510601/11/19 18:45:31  5-MIN KSTC 120045Z 00000KT 10SM CLR M06/M08 A3022 750 81 -1500 000/00 RMK AO2 T10561083
14926KSTC STC20190111185011301/11/19 18:50:31  5-MIN KSTC 120050Z 00000KT 10SM CLR M06/M09 A3022 750 81 -1600 000/00 RMK AO2 SLP261 T10611089
14926KSTC STC20190111185510601/11/19 18:55:31  5-MIN KSTC 120055Z 00000KT 10SM CLR M06/M09 A3022 750 81 -1600 000/00 RMK AO2 T10611089
14926KSTC STC20190111190010601/11/19 19:00:31  5-MIN KSTC 120100Z 00000KT 10SM CLR M06/M09 A3022 750 81 -1600 000/00 RMK AO2 T10611089
14926KSTC STC20190111190510601/11/19 19:05:31  5-MIN KSTC 120105Z 05003KT 10SM CLR M06/M09 A3022 750 81 -1600 040/03 RMK AO2 T10611089
14926KSTC STC20190111191010601/11/19 19:10:31  5-MIN KSTC 120110Z 04004KT 10SM CLR M06/M09 A3022 750 77 -1500 040/04 RMK AO2 T10561089
14926KSTC STC20190111191510601/11/19 19:15:31  5-MIN KSTC 120115Z 05003KT 10SM CLR M06/M09 A3022 750 77 -1500 050/03 RMK AO2 T10561089
14926KSTC STC20190111192010601/11/19 19:20:31  5-MIN KSTC 120120Z 05004KT 10SM CLR M06/M09 A3022 750 77 -1500 050/04 RMK AO2 T10561089
14926KSTC STC20190111192510601/11/19 19:25:31  5-MIN KSTC 120125Z 05003KT 10SM CLR M06/M09 A3022 750 77 -1500 050/03 RMK AO2 T10561089
14926KSTC STC20190111193010601/11/19 19:30:31  5-MIN KSTC 120130Z 04004KT 10SM CLR M06/M09 A3022 750 77 -1500 040/04 RMK AO2 T10561089
14926KSTC STC20190111193510601/11/19 19:35:31  5-MIN KSTC 120135Z 05003KT 10SM CLR M06/M09 A3022 750 77 -1500 050/03 RMK AO2 T10561089
14926KSTC STC20190111194010601/11/19 19:40:31  5-MIN KSTC 120140Z 05003KT 10SM CLR M06/M09 A3022 750 77 -1500 050/03 RMK AO2 T10561089
14926KSTC STC20190111194510601/11/19 19:45:31  5-MIN KSTC 120145Z 05003KT 10SM CLR M06/M09 A3022 750 77 -1500 050/03 RMK AO2 T10561089
14926KSTC STC20190111195011301/11/19 19:50:31  5-MIN KSTC 120150Z 06004KT 10SM CLR M06/M09 A3022 750 77 -1500 060/04 RMK AO2 SLP264 T10561089
14926KSTC STC20190111195510601/11/19 19:55:31  5-MIN KSTC 120155Z 06004KT 10SM CLR M06/M09 A3022 750 77 -1500 060/04 RMK AO2 T10561089
14926KSTC STC20190111200010601/11/19 20:00:31  5-MIN KSTC 120200Z 06004KT 10SM CLR M06/M09 A3022 750 77 -1500 060/04 RMK AO2 T10561089
14926KSTC STC20190111200510601/11/19 20:05:31  5-MIN KSTC 120205Z 05004KT 10SM CLR M06/M09 A3022 750 81 -1600 050/04 RMK AO2 T10611089
14926KSTC STC20190111201010601/11/19 20:10:31  5-MIN KSTC 120210Z 04004KT 10SM CLR M06/M09 A3023 750 77 -1500 040/04 RMK AO2 T10561089
14926KSTC STC20190111201510601/11/19 20:15:31  5-MIN KSTC 120215Z 05004KT 10SM CLR M06/M09 A3023 750 77 -1500 050/04 RMK AO2 T10561089
14926KSTC STC20190111202010601/11/19 20:20:31  5-MIN KSTC 120220Z 04004KT 10SM CLR M06/M09 A3023 740 81 -1600 040/04 RMK AO2 T10611089
14926KSTC STC20190111202510601/11/19 20:25:31  5-MIN KSTC 120225Z 04004KT 10SM CLR M06/M09 A3023 750 81 -1600 040/04 RMK AO2 T10611089
14926KSTC STC20190111203010601/11/19 20:30:31  5-MIN KSTC 120230Z 04004KT 10SM CLR M06/M09 A3022 750 81 -1600 040/04 RMK AO2 T10611089
14926KSTC STC20190111203510601/11/19 20:35:31  5-MIN KSTC 120235Z 04004KT 10SM CLR M06/M09 A3022 750 77 -1600 040/04 RMK AO2 T10611094
14926KSTC STC20190111204010601/11/19 20:40:31  5-MIN KSTC 120240Z 04004KT 10SM CLR M06/M09 A3023 750 77 -1500 040/04 RMK AO2 T10561089
14926KSTC STC20190111204510601/11/19 20:45:31  5-MIN KSTC 120245Z 05004KT 10SM CLR M06/M09 A3023 740 77 -1600 050/04 RMK AO2 T10611094
14926KSTC STC20190111205011901/11/19 20:50:31  5-MIN KSTC 120250Z 04004KT 10SM CLR M06/M09 A3023 740 81 -1600 040/04 RMK AO2 SLP265 T10611089 53017
14926KSTC STC20190111205510601/11/19 20:55:31  5-MIN KSTC 120255Z 04004KT 10SM CLR M06/M09 A3023 740 77 -1600 040/04 RMK AO2 T10611094
14926KSTC STC20190111210010601/11/19 21:00:31  5-MIN KSTC 120300Z 05004KT 10SM CLR M06/M09 A3023 740 77 -1600 050/04 RMK AO2 T10611094
14926KSTC STC20190111210510601/11/19 21:05:31  5-MIN KSTC 120305Z 04005KT 10SM CLR M06/M09 A3023 740 77 -1600 040/05 RMK AO2 T10611094
14926KSTC STC20190111211010601/11/19 21:10:31  5-MIN KSTC 120310Z 04005KT 10SM CLR M06/M09 A3023 740 77 -1600 040/05 RMK AO2 T10611094
14926KSTC STC20190111211510601/11/19 21:15:31  5-MIN KSTC 120315Z 04005KT 10SM CLR M06/M09 A3024 730 77 -1600 040/05 RMK AO2 T10611094
14926KSTC STC20190111212010601/11/19 21:20:31  5-MIN KSTC 120320Z 05005KT 10SM CLR M06/M09 A3024 730 77 -1600 040/05 RMK AO2 T10611094
14926KSTC STC20190111212510601/11/19 21:25:31  5-MIN KSTC 120325Z 04004KT 10SM CLR M06/M09 A3024 730 77 -1600 040/04 RMK AO2 T10611094
14926KSTC STC20190111213010601/11/19 21:30:31  5-MIN KSTC 120330Z 04005KT 10SM CLR M06/M09 A3024 730 77 -1600 040/05 RMK AO2 T10611094
14926KSTC STC20190111213510601/11/19 21:35:31  5-MIN KSTC 120335Z 04005KT 10SM CLR M06/M09 A3024 730 77 -1600 040/05 RMK AO2 T10611094
14926KSTC STC20190111214010601/11/19 21:40:31  5-MIN KSTC 120340Z 05005KT 10SM CLR M06/M09 A3024 730 77 -1600 050/05 RMK AO2 T10611094
14926KSTC STC20190111214510601/11/19 21:45:31  5-MIN KSTC 120345Z 05005KT 10SM CLR M06/M09 A3024 730 77 -1600 050/05 RMK AO2 T10611094
14926KSTC STC20190111215011301/11/19 21:50:31  5-MIN KSTC 120350Z 06005KT 10SM CLR M06/M09 A3024 730 77 -1600 060/05 RMK AO2 SLP268 T10611094
14926KSTC STC20190111215510601/11/19 21:55:31  5-MIN KSTC 120355Z 06005KT 10SM CLR M06/M09 A3024 730 77 -1600 060/05 RMK AO2 T10611094
14926KSTC STC20190111220010601/11/19 22:00:31  5-MIN KSTC 120400Z 06005KT 10SM CLR M06/M09 A3024 730 77 -1600 050/05 RMK AO2 T10611094
14926KSTC STC20190111220510601/11/19 22:05:31  5-MIN KSTC 120405Z 06005KT 10SM CLR M06/M09 A3025 730 77 -1600 060/05 RMK AO2 T10611094
14926KSTC STC20190111221010601/11/19 22:10:31  5-MIN KSTC 120410Z 06005KT 10SM CLR M06/M09 A3025 720 77 -1600 060/05 RMK AO2 T10611094
14926KSTC STC20190111221510601/11/19 22:15:31  5-MIN KSTC 120415Z 06005KT 10SM CLR M06/M09 A3025 720 77 -1600 060/05 RMK AO2 T10611094
14926KSTC STC20190111222010601/11/19 22:20:31  5-MIN KSTC 120420Z 05005KT 10SM CLR M06/M09 A3025 720 77 -1600 050/05 RMK AO2 T10611094
14926KSTC STC20190111222510601/11/19 22:25:31  5-MIN KSTC 120425Z 07004KT 10SM CLR M06/M09 A3026 720 77 -1600 060/04 RMK AO2 T10611094
14926KSTC STC20190111223010601/11/19 22:30:31  5-MIN KSTC 120430Z 06005KT 10SM CLR M06/M09 A3026 720 77 -1600 060/05 RMK AO2 T10611094
14926KSTC STC20190111223510601/11/19 22:35:31  5-MIN KSTC 120435Z 06004KT 10SM CLR M06/M09 A3026 720 77 -1600 060/04 RMK AO2 T10611094
14926KSTC STC20190111224010601/11/19 22:40:31  5-MIN KSTC 120440Z 05005KT 10SM CLR M06/M09 A3026 720 77 -1600 050/05 RMK AO2 T10611094
14926KSTC STC20190111224510601/11/19 22:45:31  5-MIN KSTC 120445Z 07004KT 10SM CLR M06/M09 A3025 720 77 -1600 070/04 RMK AO2 T10611094
14926KSTC STC20190111225011301/11/19 22:50:31  5-MIN KSTC 120450Z 08004KT 10SM CLR M06/M09 A3025 720 77 -1600 080/04 RMK AO2 SLP270 T10611094
14926KSTC STC20190111225511101/11/19 22:55:31  5-MIN KSTC 120455Z AUTO 06004KT 10SM CLR M06/M09 A3025 720 77 -1600 060/04 RMK AO2 T10611094
14926KSTC STC20190111230011101/11/19 23:00:31  5-MIN KSTC 120500Z AUTO 07004KT 10SM CLR M06/M09 A3025 720 77 -1600 070/04 RMK AO2 T10611094
14926KSTC STC20190111230511101/11/19 23:05:31  5-MIN KSTC 120505Z AUTO 08004KT 10SM CLR M07/M09 A3025 720 81 -1700 070/04 RMK AO2 T10671094
14926KSTC STC20190111231011101/11/19 23:10:31  5-MIN KSTC 120510Z AUTO 07004KT 10SM CLR M07/M09 A3025 720 81 -1700 070/04 RMK AO2 T10671094
14926KSTC STC20190111231511101/11/19 23:15:31  5-MIN KSTC 120515Z AUTO 05004KT 10SM CLR M07/M09 A3025 720 81 -1700 050/04 RMK AO2 T10671094
14926KSTC STC20190111232011101/11/19 23:20:31  5-MIN KSTC 120520Z AUTO 05005KT 10SM CLR M07/M09 A3025 720 81 -1700 050/05 RMK AO2 T10671094
14926KSTC STC20190111232511101/11/19 23:25:31  5-MIN KSTC 120525Z AUTO 05004KT 10SM CLR M07/M09 A3025 720 81 -1700 050/04 RMK AO2 T10671094
14926KSTC STC20190111233011101/11/19 23:30:31  5-MIN KSTC 120530Z AUTO 05004KT 10SM CLR M07/M09 A3025 720 81 -1700 050/04 RMK AO2 T10671094
14926KSTC STC20190111233511101/11/19 23:35:31  5-MIN KSTC 120535Z AUTO 05005KT 10SM CLR M07/M09 A3025 720 81 -1700 050/05 RMK AO2 T10671094
14926KSTC STC20190111234011101/11/19 23:40:31  5-MIN KSTC 120540Z AUTO 06005KT 10SM CLR M07/M09 A3025 720 81 -1700 060/05 RMK AO2 T10671094
14926KSTC STC20190111234511101/11/19 23:45:31  5-MIN KSTC 120545Z AUTO 06004KT 10SM CLR M07/M09 A3025 720 81 -1700 060/04 RMK AO2 T10671094
14926KSTC STC20190111235014601/11/19 23:50:31  5-MIN KSTC 120550Z AUTO 06004KT 10SM CLR M07/M09 A3025 720 81 -1700 060/04 RMK AO2 SLP271 T10671094 11039 21067 410221122 51007
14926KSTC STC20190111235511101/11/19 23:55:31  5-MIN KSTC 120555Z AUTO 07003KT 10SM CLR M07/M09 A3026 720 81 -1700 070/03 RMK AO2 T10671094
14926KSTC STC20190112000011101/12/19 00:00:31  5-MIN KSTC 120600Z AUTO 06004KT 10SM CLR M07/M09 A3025 720 81 -1700 060/04 RMK AO2 T10671094
14926KSTC STC20190112000511101/12/19 00:05:31  5-MIN KSTC 120605Z AUTO 06005KT 10SM CLR M07/M09 A3025 720 84 -1800 060/05 RMK AO2 T10721094
14926KSTC STC20190112001011101/12/19 00:10:31  5-MIN KSTC 120610Z AUTO 05005KT 10SM CLR M07/M10 A3025 720 81 -1800 050/05 RMK AO2 T10721100
14926KSTC STC20190112001511101/12/19 00:15:31  5-MIN KSTC 120615Z AUTO 06003KT 10SM CLR M07/M10 A3025 720 81 -1800 060/03 RMK AO2 T10721100
14926KSTC STC20190112002011101/12/19 00:20:31  5-MIN KSTC 120620Z AUTO 06005KT 10SM CLR M07/M10 A3025 720 81 -1800 050/05 RMK AO2 T10721100
14926KSTC STC20190112002511101/12/19 00:25:31  5-MIN KSTC 120625Z AUTO 05005KT 10SM CLR M07/M10 A3025 720 81 -1800 050/05 RMK AO2 T10721100
14926KSTC STC20190112003011101/12/19 00:30:31  5-MIN KSTC 120630Z AUTO 05005KT 10SM CLR M07/M10 A3025 720 81 -1800 050/05 RMK AO2 T10721100
14926KSTC STC20190112003511101/12/19 00:35:31  5-MIN KSTC 120635Z AUTO 04005KT 10SM CLR M07/M10 A3026 720 81 -1800 040/05 RMK AO2 T10721100
14926KSTC STC20190112004011101/12/19 00:40:31  5-MIN KSTC 120640Z AUTO 04006KT 10SM CLR M07/M10 A3026 720 81 -1800 040/06 RMK AO2 T10721100
14926KSTC STC20190112004511101/12/19 00:45:31  5-MIN KSTC 120645Z AUTO 04004KT 10SM CLR M07/M10 A3026 710 81 -1800 040/04 RMK AO2 T10721100
14926KSTC STC20190112005011801/12/19 00:50:31  5-MIN KSTC 120650Z AUTO 05005KT 10SM CLR M07/M10 A3026 710 81 -1800 040/05 RMK AO2 SLP274 T10721100
14926KSTC STC20190112005511101/12/19 00:55:31  5-MIN KSTC 120655Z AUTO 05005KT 10SM CLR M07/M10 A3026 710 81 -1800 040/05 RMK AO2 T10721100
14926KSTC STC20190112010011101/12/19 01:00:31  5-MIN KSTC 120700Z AUTO 04006KT 10SM CLR M07/M10 A3026 710 81 -1800 040/06 RMK AO2 T10721100
14926KSTC STC20190112010511101/12/19 01:05:31  5-MIN KSTC 120705Z AUTO 05005KT 10SM CLR M07/M10 A3026 710 81 -1800 050/05 RMK AO2 T10721100
14926KSTC STC20190112011011101/12/19 01:10:31  5-MIN KSTC 120710Z AUTO 05005KT 10SM CLR M07/M10 A3026 710 81 -1800 050/05 RMK AO2 T10721100
14926KSTC STC20190112011511101/12/19 01:15:31  5-MIN KSTC 120715Z AUTO 05006KT 10SM CLR M07/M10 A3027 710 81 -1800 050/06 RMK AO2 T10721100
14926KSTC STC20190112012011101/12/19 01:20:31  5-MIN KSTC 120720Z AUTO 05006KT 10SM CLR M07/M10 A3027 710 81 -1800 050/06 RMK AO2 T10721100
14926KSTC STC20190112012511101/12/19 01:25:31  5-MIN KSTC 120725Z AUTO 05006KT 10SM CLR M07/M10 A3027 710 81 -1800 050/06 RMK AO2 T10721100
14926KSTC STC20190112013011101/12/19 01:30:31  5-MIN KSTC 120730Z AUTO 04007KT 10SM CLR M07/M10 A3027 700 81 -1800 040/07 RMK AO2 T10721100
14926KSTC STC20190112013511101/12/19 01:35:31  5-MIN KSTC 120735Z AUTO 04006KT 10SM CLR M07/M10 A3027 700 81 -1800 040/06 RMK AO2 T10721100
14926KSTC STC20190112014011101/12/19 01:40:31  5-MIN KSTC 120740Z AUTO 05006KT 10SM CLR M07/M10 A3027 700 81 -1800 050/06 RMK AO2 T10721100
14926KSTC STC20190112014511101/12/19 01:45:31  5-MIN KSTC 120745Z AUTO 05006KT 10SM CLR M07/M10 A3028 700 81 -1800 050/06 RMK AO2 T10721100
14926KSTC STC20190112015011801/12/19 01:50:31  5-MIN KSTC 120750Z AUTO 05005KT 10SM CLR M07/M10 A3028 700 81 -1800 050/05 RMK AO2 SLP279 T10721100
14926KSTC STC20190112015511101/12/19 01:55:31  5-MIN KSTC 120755Z AUTO 04006KT 10SM CLR M07/M10 A3028 690 81 -1800 040/06 RMK AO2 T10721100
14926KSTC STC20190112020011101/12/19 02:00:31  5-MIN KSTC 120800Z AUTO 03006KT 10SM CLR M07/M10 A3028 690 81 -1800 030/06 RMK AO2 T10721100
14926KSTC STC20190112020511101/12/19 02:05:31  5-MIN KSTC 120805Z AUTO 04006KT 10SM CLR M07/M10 A3029 690 81 -1800 040/06 RMK AO2 T10721100
14926KSTC STC20190112021011101/12/19 02:10:31  5-MIN KSTC 120810Z AUTO 04005KT 10SM CLR M07/M10 A3029 690 81 -1800 040/05 RMK AO2 T10721100
14926KSTC STC20190112021511101/12/19 02:15:31  5-MIN KSTC 120815Z AUTO 04006KT 10SM CLR M08/M10 A3029 680 84 -1900 040/06 RMK AO2 T10781100
14926KSTC STC20190112022011101/12/19 02:20:31  5-MIN KSTC 120820Z AUTO 05006KT 10SM CLR M07/M10 A3029 680 81 -1800 050/06 RMK AO2 T10721100
14926KSTC STC20190112022511101/12/19 02:25:31  5-MIN KSTC 120825Z AUTO 05005KT 10SM CLR M07/M10 A3029 680 81 -1800 050/05 RMK AO2 T10721100
14926KSTC STC20190112023011101/12/19 02:30:31  5-MIN KSTC 120830Z AUTO 05006KT 10SM CLR M07/M10 A3030 680 81 -1800 050/06 RMK AO2 T10721100
14926KSTC STC20190112023511101/12/19 02:35:31  5-MIN KSTC 120835Z AUTO 05006KT 10SM CLR M07/M10 A3030 680 81 -1800 050/06 RMK AO2 T10721100
14926KSTC STC20190112024011101/12/19 02:40:31  5-MIN KSTC 120840Z AUTO 04006KT 10SM CLR M07/M10 A3030 680 81 -1800 040/06 RMK AO2 T10721100
14926KSTC STC20190112024511101/12/19 02:45:31  5-MIN KSTC 120845Z AUTO 05006KT 10SM CLR M07/M10 A3030 680 81 -1800 050/06 RMK AO2 T10721100
14926KSTC STC20190112025012401/12/19 02:50:31  5-MIN KSTC 120850Z AUTO 04006KT 10SM CLR M07/M10 A3030 680 81 -1800 040/06 RMK AO2 SLP287 T10721100 51008
14926KSTC STC20190112025511101/12/19 02:55:31  5-MIN KSTC 120855Z AUTO 05005KT 10SM CLR M07/M10 A3030 670 81 -1800 040/05 RMK AO2 T10721100
14926KSTC STC20190112030011401/12/19 03:00:31  5-MIN KSTC 120900Z AUTO 05005KT 10SM FEW048 M07/M10 A3030 680 81 -1800 050/05 RMK AO2 T10721100
14926KSTC STC20190112030511401/12/19 03:05:31  5-MIN KSTC 120905Z AUTO 05005KT 10SM SCT048 M07/M10 A3030 680 81 -1800 050/05 RMK AO2 T10721100
14926KSTC STC20190112031011401/12/19 03:10:31  5-MIN KSTC 120910Z AUTO 05006KT 10SM BKN047 M07/M10 A3030 670 81 -1800 050/06 RMK AO2 T10721100
14926KSTC STC20190112031511401/12/19 03:15:31  5-MIN KSTC 120915Z AUTO 05006KT 10SM BKN047 M07/M09 A3030 670 84 -1800 050/06 RMK AO2 T10721094
14926KSTC STC20190112032011401/12/19 03:20:31  5-MIN KSTC 120920Z AUTO 05006KT 10SM BKN048 M07/M09 A3030 670 81 -1800 050/06 RMK AO2 T10671094
14926KSTC STC20190112032511401/12/19 03:25:31  5-MIN KSTC 120925Z AUTO 05007KT 10SM OVC048 M07/M09 A3030 670 81 -1800 050/07 RMK AO2 T10671094
14926KSTC STC20190112033011401/12/19 03:30:31  5-MIN KSTC 120930Z AUTO 06007KT 10SM OVC048 M07/M09 A3030 670 81 -1800 060/07 RMK AO2 T10671094
14926KSTC STC20190112033511401/12/19 03:35:31  5-MIN KSTC 120935Z AUTO 06007KT 10SM OVC047 M07/M09 A3031 670 81 -1800 050/07 RMK AO2 T10671094
14926KSTC STC20190112034011401/12/19 03:40:31  5-MIN KSTC 120940Z AUTO 06007KT 10SM OVC047 M07/M09 A3030 670 81 -1800 050/07 RMK AO2 T10671094
14926KSTC STC20190112034511401/12/19 03:45:31  5-MIN KSTC 120945Z AUTO 06007KT 10SM OVC047 M07/M09 A3031 670 81 -1800 050/07 RMK AO2 T10671094
14926KSTC STC20190112035012101/12/19 03:50:31  5-MIN KSTC 120950Z AUTO 06007KT 10SM OVC047 M07/M09 A3031 670 81 -1800 060/07 RMK AO2 SLP288 T10671094
14926KSTC STC20190112035511401/12/19 03:55:31  5-MIN KSTC 120955Z AUTO 06006KT 10SM OVC046 M06/M09 A3031 670 77 -1700 060/06 RMK AO2 T10611094
14926KSTC STC20190112040011401/12/19 04:00:31  5-MIN KSTC 121000Z AUTO 06006KT 10SM OVC046 M07/M09 A3031 670 81 -1800 060/06 RMK AO2 T10671094
14926KSTC STC20190112040511401/12/19 04:05:31  5-MIN KSTC 121005Z AUTO 06007KT 10SM OVC046 M07/M09 A3031 670 81 -1800 050/07 RMK AO2 T10671094
14926KSTC STC20190112041011401/12/19 04:10:31  5-MIN KSTC 121010Z AUTO 05006KT 10SM OVC046 M06/M09 A3031 670 77 -1700 050/06 RMK AO2 T10611094
14926KSTC STC20190112041511401/12/19 04:15:31  5-MIN KSTC 121015Z AUTO 05006KT 10SM OVC046 M07/M09 A3031 670 81 -1800 050/06 RMK AO2 T10671094
14926KSTC STC20190112042011401/12/19 04:20:31  5-MIN KSTC 121020Z AUTO 06005KT 10SM BKN046 M07/M09 A3031 670 81 -1800 060/05 RMK AO2 T10671094
14926KSTC STC20190112042511401/12/19 04:25:31  5-MIN KSTC 121025Z AUTO 05007KT 10SM BKN046 M06/M09 A3031 670 77 -1700 050/07 RMK AO2 T10611094
14926KSTC STC20190112043011401/12/19 04:30:31  5-MIN KSTC 121030Z AUTO 06007KT 10SM BKN046 M07/M09 A3031 670 84 -1800 060/07 RMK AO2 T10671089
14926KSTC STC20190112043511401/12/19 04:35:31  5-MIN KSTC 121035Z AUTO 06006KT 10SM BKN046 M06/M09 A3031 670 81 -1700 060/06 RMK AO2 T10611089
14926KSTC STC20190112044011401/12/19 04:40:31  5-MIN KSTC 121040Z AUTO 06006KT 10SM BKN046 M06/M09 A3031 670 81 -1700 060/06 RMK AO2 T10611089
14926KSTC STC20190112044511401/12/19 04:45:31  5-MIN KSTC 121045Z AUTO 06005KT 10SM SCT046 M06/M09 A3031 670 81 -1700 060/05 RMK AO2 T10611089
14926KSTC STC20190112045012101/12/19 04:50:31  5-MIN KSTC 121050Z AUTO 06006KT 10SM SCT047 M06/M09 A3031 670 81 -1700 050/06 RMK AO2 SLP290 T10611089
14926KSTC STC20190112045511401/12/19 04:55:31  5-MIN KSTC 121055Z AUTO 05006KT 10SM FEW047 M06/M09 A3031 670 81 -1700 050/06 RMK AO2 T10611089
14926KSTC STC20190112050011401/12/19 05:00:31  5-MIN KSTC 121100Z AUTO 05004KT 10SM FEW045 M07/M09 A3032 660 84 -1800 050/04 RMK AO2 T10671089
14926KSTC STC20190112050511401/12/19 05:05:31  5-MIN KSTC 121105Z AUTO 04006KT 10SM SCT043 M07/M09 A3032 660 84 -1800 040/06 RMK AO2 T10671089
14926KSTC STC20190112051011401/12/19 05:10:31  5-MIN KSTC 121110Z AUTO 05006KT 10SM BKN043 M06/M09 A3032 660 81 -1700 050/06 RMK AO2 T10611089
14926KSTC STC20190112051511401/12/19 05:15:31  5-MIN KSTC 121115Z AUTO 04006KT 10SM BKN042 M06/M09 A3031 660 81 -1700 040/06 RMK AO2 T10611089
14926KSTC STC20190112052011401/12/19 05:20:31  5-MIN KSTC 121120Z AUTO 05005KT 10SM BKN042 M06/M09 A3031 660 81 -1700 050/05 RMK AO2 T10611089
14926KSTC STC20190112052511401/12/19 05:25:31  5-MIN KSTC 121125Z AUTO 05005KT 10SM BKN042 M07/M09 A3032 660 84 -1800 040/05 RMK AO2 T10671089
14926KSTC STC20190112053011401/12/19 05:30:31  5-MIN KSTC 121130Z AUTO 05005KT 10SM BKN042 M06/M09 A3032 660 81 -1700 050/05 RMK AO2 T10611089
14926KSTC STC20190112053511401/12/19 05:35:31  5-MIN KSTC 121135Z AUTO 06006KT 10SM OVC042 M06/M09 A3032 660 81 -1700 060/06 RMK AO2 T10611089
14926KSTC STC20190112054011401/12/19 05:40:31  5-MIN KSTC 121140Z AUTO 05006KT 10SM OVC042 M06/M09 A3032 660 81 -1700 050/06 RMK AO2 T10611089
14926KSTC STC20190112054511401/12/19 05:45:31  5-MIN KSTC 121145Z AUTO 05006KT 10SM OVC043 M06/M09 A3032 660 81 -1700 050/06 RMK AO2 T10611089
14926KSTC STC20190112055013901/12/19 05:50:31  5-MIN KSTC 121150Z AUTO 05006KT 10SM OVC043 M06/M09 A3032 660 81 -1700 050/06 RMK AO2 SLP292 T10611089 11061 21078 53016
14926KSTC STC20190112055511401/12/19 05:55:31  5-MIN KSTC 121155Z AUTO 05006KT 10SM OVC043 M06/M09 A3032 660 81 -1700 050/06 RMK AO2 T10611089
14926KSTC STC20190112060011401/12/19 06:00:31  5-MIN KSTC 121200Z AUTO 05006KT 10SM OVC043 M06/M09 A3032 660 81 -1700 050/06 RMK AO2 T10611089
14926KSTC STC20190112060511401/12/19 06:05:31  5-MIN KSTC 121205Z AUTO 05006KT 10SM OVC043 M06/M09 A3032 660 77 -1600 050/06 RMK AO2 T10561089
14926KSTC STC20190113031011601/13/19 03:10:31  5-MIN KSTC 130910Z AUTO 14004KT 5SM BR OVC007 M03/M04 A3041 570 92 -1400 140/04 RMK AO2 T10281039
14926KSTC STC20190113031511601/13/19 03:15:31  5-MIN KSTC 130915Z AUTO 14005KT 5SM BR OVC007 M03/M04 A3041 570 92 -1400 140/05 RMK AO2 T10281039
14926KSTC STC20190113032011601/13/19 03:20:31  5-MIN KSTC 130920Z AUTO 14005KT 5SM BR OVC008 M03/M04 A3041 570 92 -1400 140/05 RMK AO2 T10281039
14926KSTC STC20190113032511601/13/19 03:25:31  5-MIN KSTC 130925Z AUTO 14005KT 5SM BR OVC008 M03/M04 A3041 570 92 -1400 140/05 RMK AO2 T10281039
14926KSTC STC20190113033011601/13/19 03:30:31  5-MIN KSTC 130930Z AUTO 14005KT 5SM BR OVC008 M03/M04 A3041 580 92 -1400 140/05 RMK AO2 T10281039
14926KSTC STC20190113033510401/13/19 03:35:31  5-MIN KSTC 130935Z AUTO 14005KT M03/M04 A3041 570 92 -1400 130/05 RMK AO2 T10281039 $
14926KSTC STC20190113034010401/13/19 03:40:31  5-MIN KSTC 130940Z AUTO 14005KT M03/M04 A3041 580 92 -1400 140/05 RMK AO2 T10281039 $
14926KSTC STC20190113034511101/13/19 03:45:31  5-MIN KSTC 130945Z AUTO 14005KT 5SM BR M03/M04 A3041 580 92 -1400 140/05 RMK AO2 T10281039 $
14926KSTC STC20190113035011801/13/19 03:50:31  5-MIN KSTC 130950Z AUTO 15004KT 5SM BR M03/M03 A3041 580 96 -1400 150/04 RMK AO2 SLP321 T10281033 $
14926KSTC STC20190113035511101/13/19 03:55:31  5-MIN KSTC 130955Z AUTO 15005KT 5SM BR M03/M03 A3041 580 96 -1400 150/05 RMK AO2 T10281033 $
14926KSTC STC20190113040011101/13/19 04:00:31  5-MIN KSTC 131000Z AUTO 15006KT 4SM BR M03/M03 A3041 580 96 -1400 150/06 RMK AO2 T10281033 $
14926KSTC STC20190113040511801/13/19 04:05:31  5-MIN KSTC 131005Z AUTO 15005KT 4SM BR OVC006 M03/M03 A3041 580 96 -1400 140/05 RMK AO2 T10281033 $
14926KSTC STC20190113041011801/13/19 04:10:31  5-MIN KSTC 131010Z AUTO 14006KT 4SM BR OVC006 M03/M03 A3041 580 96 -1400 140/06 RMK AO2 T10281033 $
14926KSTC STC20190113041511801/13/19 04:15:31  5-MIN KSTC 131015Z AUTO 14006KT 4SM BR OVC006 M03/M03 A3041 580 96 -1400 140/06 RMK AO2 T10281033 $
14926KSTC STC20190113042011801/13/19 04:20:31  5-MIN KSTC 131020Z AUTO 15005KT 4SM BR OVC006 M03/M03 A3041 580 96 -1400 150/05 RMK AO2 T10281033 $
14926KSTC STC20190113042511801/13/19 04:25:31  5-MIN KSTC 131025Z AUTO 15005KT 4SM BR OVC005 M03/M03 A3041 580 96 -1400 150/05 RMK AO2 T10281033 $
14926KSTC STC20190113043011801/13/19 04:30:31  5-MIN KSTC 131030Z AUTO 15005KT 4SM BR OVC005 M03/M03 A3041 580 96 -1400 150/05 RMK AO2 T10281033 $
14926KSTC STC20190113043511801/13/19 04:35:31  5-MIN KSTC 131035Z AUTO 15004KT 4SM BR OVC005 M03/M03 A3041 580 96 -1400 150/04 RMK AO2 T10281033 $
14926KSTC STC20190113044011801/13/19 04:40:31  5-MIN KSTC 131040Z AUTO 16004KT 4SM BR OVC005 M03/M03 A3041 580 96 -1400 160/04 RMK AO2 T10281033 $
14926KSTC STC20190113044511801/13/19 04:45:31  5-MIN KSTC 131045Z AUTO 16004KT 4SM BR OVC005 M03/M03 A3041 580 96 -1400 160/04 RMK AO2 T10281033 $
14926KSTC STC20190113045012501/13/19 04:50:31  5-MIN KSTC 131050Z AUTO 16003KT 4SM BR OVC005 M03/M03 A3040 580 96 -1400 160/03 RMK AO2 SLP320 T10281033 $
14926KSTC STC20190113045510801/13/19 04:55:31  5-MIN KSTC 131055Z AUTO 4SM BR OVC005 M03/M03 A3040 580 96 -1400 M /M RMK AO2 T10281033 $
14926KSTC STC20190113050010801/13/19 05:00:31  5-MIN KSTC 131100Z AUTO 4SM BR OVC005 M02/M03 A3040 580 92 -1300 M /M RMK AO2 T10221033 $
14926KSTC STC20190113050510801/13/19 05:05:31  5-MIN KSTC 131105Z AUTO 4SM BR OVC005 M02/M03 A3040 580 92 -1300 M /M RMK AO2 T10221033 $
14926KSTC STC20190113051010801/13/19 05:10:31  5-MIN KSTC 131110Z AUTO 4SM BR OVC006 M02/M03 A3040 580 92 -1300 M /M RMK AO2 T10221033 $
14926KSTC STC20190113051510801/13/19 05:15:31  5-MIN KSTC 131115Z AUTO 4SM BR OVC006 M02/M03 A3040 580 92 -1300 M /M RMK AO2 T10221033 $
14926KSTC STC20190113052010801/13/19 05:20:31  5-MIN KSTC 131120Z AUTO 4SM BR OVC006 M02/M03 A3040 580 92 -1300 M /M RMK AO2 T10221033 $
14926KSTC STC20190113052510801/13/19 05:25:31  5-MIN KSTC 131125Z AUTO 4SM BR OVC006 M02/M03 A3040 580 92 -1300 M /M RMK AO2 T10221033 $
14926KSTC STC20190113053010801/13/19 05:30:31  5-MIN KSTC 131130Z AUTO 4SM BR OVC006 M02/M03 A3040 580 92 -1300 M /M RMK AO2 T10221033 $
14926KSTC STC20190113053510801/13/19 05:35:31  5-MIN KSTC 131135Z AUTO 4SM BR OVC006 M02/M03 A3040 580 92 -1300 M /M RMK AO2 T10221033 $
14926KSTC STC20190113054010801/13/19 05:40:31  5-MIN KSTC 131140Z AUTO 4SM BR OVC006 M02/M03 A3040 580 92 -1300 M /M RMK AO2 T10221033 $
14926KSTC STC20190113054510801/13/19 05:45:31  5-MIN KSTC 131145Z AUTO 4SM BR OVC006 M02/M03 A3040 580 92 -1300 M /M RMK AO2 T10221033 $
14926KSTC STC20190113055013701/13/19 05:50:31  5-MIN KSTC 131150Z AUTO 16005KT 4SM BR OVC006 M02/M03 A3040 580 92 -1300 160/05 RMK AO2 SLP319 T10221033 11022 21039 $
14926KSTC STC20190113055511801/13/19 05:55:31  5-MIN KSTC 131155Z AUTO 16006KT 4SM BR OVC006 M02/M03 A3040 580 92 -1300 160/06 RMK AO2 T10221033 $
14926KSTC STC20190113060011801/13/19 06:00:31  5-MIN KSTC 131200Z AUTO 16006KT 4SM BR OVC006 M02/M03 A3040 580 92 -1300 160/06 RMK AO2 T10221033 $
14926KSTC STC20190113060512501/13/19 06:05:31  5-MIN KSTC 131205Z AUTO 16006KT 4SM BR BKN006 OVC019 M02/M03 A3041 580 92 -1300 160/06 RMK AO2 T10221033 $
14926KSTC STC20190113061012501/13/19 06:10:31  5-MIN KSTC 131210Z AUTO 16004KT 4SM BR BKN006 OVC019 M02/M03 A3041 580 92 -1300 160/04 RMK AO2 T10221033 $
14926KSTC STC20190113061512501/13/19 06:15:31  5-MIN KSTC 131215Z AUTO 17005KT 4SM BR BKN006 OVC019 M03/M03 A3040 580 96 -1400 170/05 RMK AO2 T10281033 $
14926KSTC STC20190113062012501/13/19 06:20:31  5-MIN KSTC 131220Z AUTO 17005KT 4SM BR BKN006 OVC018 M02/M03 A3041 580 92 -1300 170/05 RMK AO2 T10221033 $
14926KSTC STC20190113062512501/13/19 06:25:31  5-MIN KSTC 131225Z AUTO 17004KT 4SM BR BKN006 OVC018 M02/M03 A3040 580 92 -1300 170/04 RMK AO2 T10221033 $
14926KSTC STC20190113063011801/13/19 06:30:31  5-MIN KSTC 131230Z AUTO 17004KT 4SM BR OVC006 M02/M03 A3040 580 92 -1300 170/04 RMK AO2 T10221033 $
14926KSTC STC20190113063511801/13/19 06:35:31  5-MIN KSTC 131235Z AUTO 17005KT 4SM BR OVC006 M02/M03 A3040 580 92 -1300 170/05 RMK AO2 T10221033 $
14926KSTC STC20190113064011801/13/19 06:40:31  5-MIN KSTC 131240Z AUTO 17005KT 4SM BR OVC006 M02/M03 A3040 580 92 -1300 170/05 RMK AO2 T10221033 $
14926KSTC STC20190113064512501/13/19 06:45:31  5-MIN KSTC 131245Z AUTO 17005KT 4SM BR BKN006 OVC019 M02/M03 A3040 580 92 -1300 170/05 RMK AO2 T10221033 $
14926KSTC STC20190113065012701/13/19 06:50:31  5-MIN KSTC 131250Z 17004KT 4SM BR BKN006 OVC019 M02/M03 A3041 580 92 -1300 170/04 RMK AO2 SLP320 T10221033 $
14926KSTC STC20190113065511301/13/19 06:55:31  5-MIN KSTC 131255Z 17004KT 4SM BR BKN006 M02/M03 A3040 580 92 -1300 170/04 RMK AO2 T10221033 $
14926KSTC STC20190113070011301/13/19 07:00:31  5-MIN KSTC 131300Z 18004KT 4SM BR BKN006 M03/M03 A3041 580 96 -1400 180/04 RMK AO2 T10281033 $
14926KSTC STC20190113070512001/13/19 07:05:31  5-MIN KSTC 131305Z 18004KT 4SM BR BKN006 BKN019 M03/M03 A3041 580 96 -1400 180/04 RMK AO2 T10281033 $
14926KSTC STC20190113071012001/13/19 07:10:31  5-MIN KSTC 131310Z 18004KT 4SM BR BKN006 BKN019 M03/M03 A3041 580 96 -1400 180/04 RMK AO2 T10281033 $
14926KSTC STC20190113071512001/13/19 07:15:31  5-MIN KSTC 131315Z 19005KT 4SM BR BKN006 BKN019 M02/M03 A3041 580 92 -1300 190/05 RMK AO2 T10221033 $
14926KSTC STC20190113072012001/13/19 07:20:31  5-MIN KSTC 131320Z 19004KT 4SM BR BKN006 BKN019 M03/M03 A3041 580 96 -1400 190/04 RMK AO2 T10281033 $
14926KSTC STC20190113072512001/13/19 07:25:31  5-MIN KSTC 131325Z 18005KT 4SM BR BKN006 BKN017 M03/M03 A3041 580 96 -1400 180/05 RMK AO2 T10281033 $
14926KSTC STC20190113073012001/13/19 07:30:31  5-MIN KSTC 131330Z 18005KT 4SM BR SCT006 BKN017 M02/M03 A3041 580 92 -1300 180/05 RMK AO2 T10221033 $
14926KSTC STC20190113073512001/13/19 07:35:31  5-MIN KSTC 131335Z 19005KT 4SM BR FEW006 BKN017 M02/M03 A3041 580 92 -1300 190/05 RMK AO2 T10221033 $
14926KSTC STC20190113074012001/13/19 07:40:31  5-MIN KSTC 131340Z 19006KT 4SM BR FEW006 OVC017 M02/M03 A3041 580 92 -1300 180/06 RMK AO2 T10221033 $
14926KSTC STC20190113074512001/13/19 07:45:31  5-MIN KSTC 131345Z 18005KT 4SM BR FEW006 OVC017 M03/M03 A3041 580 96 -1400 180/05 RMK AO2 T10281033 $
14926KSTC STC20190113075012001/13/19 07:50:31  5-MIN KSTC 131350Z 20005KT 4SM BR OVC017 M03/M03 A3041 580 96 -1400 190/05 RMK AO2 SLP321 T10281033 $
14926KSTC STC20190113075512001/13/19 07:55:31  5-MIN KSTC 131355Z 20005KT 4SM BR FEW007 OVC017 M03/M03 A3041 580 96 -1400 200/05 RMK AO2 T10281033 $
14926KSTC STC20190113080012001/13/19 08:00:31  5-MIN KSTC 131400Z 20004KT 4SM BR FEW007 OVC017 M03/M03 A3041 580 96 -1400 200/04 RMK AO2 T10281033 $
14926KSTC STC20190113080512001/13/19 08:05:31  5-MIN KSTC 131405Z 20003KT 4SM BR FEW007 OVC017 M03/M03 A3041 580 96 -1400 200/03 RMK AO2 T10281033 $
14926KSTC STC20190113081012001/13/19 08:10:31  5-MIN KSTC 131410Z 20003KT 4SM BR FEW007 OVC017 M03/M03 A3041 580 96 -1400 200/03 RMK AO2 T10281033 $
14926KSTC STC20190113081512001/13/19 08:15:31  5-MIN KSTC 131415Z 20004KT 3SM BR FEW007 OVC017 M03/M03 A3041 580 96 -1400 190/04 RMK AO2 T10281033 $
14926KSTC STC20190113082012001/13/19 08:20:31  5-MIN KSTC 131420Z 18005KT 3SM BR FEW007 OVC017 M03/M03 A3041 580 96 -1400 180/05 RMK AO2 T10281033 $
14926KSTC STC20190113082511301/13/19 08:25:31  5-MIN KSTC 131425Z 18005KT 3SM BR OVC017 M03/M03 A3041 580 96 -1400 180/05 RMK AO2 T10281033 $
14926KSTC STC20190113083011301/13/19 08:30:31  5-MIN KSTC 131430Z 18005KT 3SM BR OVC018 M03/M03 A3041 580 96 -1400 180/05 RMK AO2 T10281033 $
14926KSTC STC20190113083511301/13/19 08:35:31  5-MIN KSTC 131435Z 18005KT 3SM BR OVC018 M03/M03 A3041 580 96 -1400 180/05 RMK AO2 T10281033 $
14926KSTC STC20190113084011301/13/19 08:40:31  5-MIN KSTC 131440Z 18005KT 3SM BR OVC018 M03/M03 A3041 580 96 -1400 180/05 RMK AO2 T10281033 $
14926KSTC STC20190113084511301/13/19 08:45:31  5-MIN KSTC 131445Z 18005KT 3SM BR OVC018 M03/M03 A3041 580 96 -1400 180/05 RMK AO2 T10281033 $
14926KSTC STC20190113085012001/13/19 08:50:31  5-MIN KSTC 131450Z 19005KT 3SM BR OVC018 M03/M03 A3041 580 96 -1400 190/05 RMK AO2 SLP322 T10281033 $
14926KSTC STC20190113085512001/13/19 08:55:31  5-MIN KSTC 131455Z 18005KT 3SM BR FEW008 OVC018 M02/M03 A3041 580 92 -1300 180/05 RMK AO2 T10221033 $
14926KSTC STC20190113090012001/13/19 09:00:31  5-MIN KSTC 131500Z 19005KT 3SM BR FEW008 OVC018 M02/M03 A3041 580 92 -1300 190/05 RMK AO2 T10221033 $
14926KSTC STC20190113090512001/13/19 09:05:31  5-MIN KSTC 131505Z 19007KT 4SM BR FEW007 OVC018 M02/M03 A3041 580 92 -1300 180/07 RMK AO2 T10221033 $
14926KSTC STC20190113091012001/13/19 09:10:31  5-MIN KSTC 131510Z 18005KT 4SM BR FEW007 OVC018 M02/M03 A3041 580 92 -1300 170/05 RMK AO2 T10221033 $
14926KSTC STC20190113091512001/13/19 09:15:31  5-MIN KSTC 131515Z 18005KT 4SM BR FEW007 OVC018 M02/M03 A3041 580 92 -1300 180/05 RMK AO2 T10221033 $
14926KSTC STC20190113092011301/13/19 09:20:31  5-MIN KSTC 131520Z 18006KT 4SM BR OVC018 M02/M03 A3040 580 92 -1300 180/06 RMK AO2 T10221033 $
14926KSTC STC20190113092511301/13/19 09:25:31  5-MIN KSTC 131525Z 17008KT 4SM BR OVC018 M02/M03 A3040 580 92 -1300 170/08 RMK AO2 T10221033 $
14926KSTC STC20190113093011301/13/19 09:30:31  5-MIN KSTC 131530Z 17008KT 4SM BR OVC018 M02/M03 A3040 580 92 -1300 170/08 RMK AO2 T10221033 $
14926KSTC STC20190113093511301/13/19 09:35:31  5-MIN KSTC 131535Z 17007KT 4SM BR OVC018 M02/M03 A3040 590 92 -1300 170/07 RMK AO2 T10221033 $
14926KSTC STC20190113094011301/13/19 09:40:31  5-MIN KSTC 131540Z 17008KT 4SM BR OVC018 M02/M03 A3040 590 92 -1300 170/08 RMK AO2 T10221033 $
14926KSTC STC20190113094511301/13/19 09:45:31  5-MIN KSTC 131545Z 17008KT 4SM BR OVC018 M02/M03 A3040 590 92 -1300 170/08 RMK AO2 T10221033 $
14926KSTC STC20190113095012001/13/19 09:50:31  5-MIN KSTC 131550Z 17008KT 4SM BR OVC018 M02/M03 A3040 580 92 -1300 170/08 RMK AO2 SLP319 T10221033 $
14926KSTC STC20190113095511301/13/19 09:55:31  5-MIN KSTC 131555Z 17007KT 4SM BR OVC020 M02/M03 A3040 580 92 -1300 160/07 RMK AO2 T10221033 $
14926KSTC STC20190113100011301/13/19 10:00:31  5-MIN KSTC 131600Z 17008KT 4SM BR OVC020 M02/M03 A3040 580 92 -1300 170/08 RMK AO2 T10221033 $
14926KSTC STC20190113100511301/13/19 10:05:31  5-MIN KSTC 131605Z 17006KT 4SM BR OVC020 M02/M03 A3040 580 88 -1200 170/06 RMK AO2 T10171033 $
14926KSTC STC20190113101011301/13/19 10:10:31  5-MIN KSTC 131610Z 19008KT 4SM BR OVC020 M02/M03 A3040 580 88 -1200 190/08 RMK AO2 T10171033 $
14926KSTC STC20190113101511301/13/19 10:15:31  5-MIN KSTC 131615Z 17009KT 5SM BR OVC020 M02/M03 A3040 580 88 -1200 170/09 RMK AO2 T10171033 $
14926KSTC STC20190113102011301/13/19 10:20:31  5-MIN KSTC 131620Z 18008KT 5SM BR OVC022 M02/M03 A3041 580 88 -1200 180/08 RMK AO2 T10171033 $
14926KSTC STC20190113102512001/13/19 10:25:31  5-MIN KSTC 131625Z 18008KT 5SM BR FEW010 OVC022 M02/M03 A3041 580 88 -1200 180/08 RMK AO2 T10171033 $
14926KSTC STC20190113103012001/13/19 10:30:31  5-MIN KSTC 131630Z 19008KT 5SM BR FEW010 OVC022 M02/M03 A3041 580 88 -1200 190/08 RMK AO2 T10171033 $
14926KSTC STC20190113103511301/13/19 10:35:31  5-MIN KSTC 131635Z 19009KT 5SM BR OVC020 M02/M03 A3040 580 88 -1200 190/09 RMK AO2 T10171033 $
14926KSTC STC20190113104012001/13/19 10:40:31  5-MIN KSTC 131640Z 19009KT 5SM BR BKN018 OVC023 M02/M04 A3040 580 85 -1200 190/09 RMK AO2 T10171039 $
14926KSTC STC20190113104512001/13/19 10:45:31  5-MIN KSTC 131645Z 18009KT 5SM BR BKN018 OVC023 M02/M03 A3040 580 88 -1200 180/09 RMK AO2 T10171033 $
14926KSTC STC20190113105012001/13/19 10:50:31  5-MIN KSTC 131650Z 18008KT 5SM BR OVC018 M02/M04 A3040 580 85 -1200 180/08 RMK AO2 SLP319 T10171039 $
14926KSTC STC20190113105511301/13/19 10:55:31  5-MIN KSTC 131655Z 20008KT 5SM BR OVC017 M02/M03 A3040 590 88 -1200 200/08 RMK AO2 T10171033 $
14926KSTC STC20190113110011301/13/19 11:00:31  5-MIN KSTC 131700Z 20010KT 5SM BR OVC017 M02/M03 A3040 590 88 -1200 200/10 RMK AO2 T10171033 $
14926KSTC STC20190113110511301/13/19 11:05:31  5-MIN KSTC 131705Z 19010KT 5SM HZ OVC017 M01/M04 A3039 590 81 -1100 190/10 RMK AO2 T10111039 $
14926KSTC STC20190113111011301/13/19 11:10:31  5-MIN KSTC 131710Z 19010KT 5SM HZ OVC017 M01/M04 A3039 590 81 -1100 190/10 RMK AO2 T10111039 $
14926KSTC STC20190113111511301/13/19 11:15:31  5-MIN KSTC 131715Z 20010KT 5SM HZ OVC017 M01/M04 A3039 590 81 -1100 200/10 RMK AO2 T10111039 $
14926KSTC STC20190113112011301/13/19 11:20:31  5-MIN KSTC 131720Z 19011KT 5SM HZ OVC016 M01/M04 A3039 590 81 -1100 190/11 RMK AO2 T10111039 $
14926KSTC STC20190113112511301/13/19 11:25:31  5-MIN KSTC 131725Z 20008KT 5SM HZ OVC016 M01/M04 A3039 600 81 -1100 200/08 RMK AO2 T10111039 $
14926KSTC STC20190113113011301/13/19 11:30:31  5-MIN KSTC 131730Z 19008KT 5SM BR OVC014 M01/M03 A3039 600 85 -1100 190/08 RMK AO2 T10111033 $
14926KSTC STC20190113113511301/13/19 11:35:31  5-MIN KSTC 131735Z 19010KT 5SM BR OVC014 M01/M03 A3038 600 85 -1100 190/10 RMK AO2 T10111033 $
14926KSTC STC20190113114011301/13/19 11:40:31  5-MIN KSTC 131740Z 19010KT 5SM BR OVC014 M01/M03 A3038 600 85 -1100 190/10 RMK AO2 T10111033 $
14926KSTC STC20190113114511301/13/19 11:45:31  5-MIN KSTC 131745Z 20010KT 5SM HZ OVC014 M01/M04 A3038 610 81 -1100 200/10 RMK AO2 T10111039 $
14926KSTC STC20190113115013801/13/19 11:50:31  5-MIN KSTC 131750Z 19010KT 5SM BR OVC014 M01/M03 A3038 610 85 -1100 190/10 RMK AO2 SLP309 T10111033 11011 21028 51002 $
14926KSTC STC20190113115511301/13/19 11:55:31  5-MIN KSTC 131755Z 20012KT 5SM BR OVC014 M01/M03 A3037 610 85 -1100 200/12 RMK AO2 T10111033 $
14926KSTC STC20190113120011301/13/19 12:00:31  5-MIN KSTC 131800Z 20011KT 5SM BR OVC014 M01/M03 A3037 610 85 -1100 200/11 RMK AO2 T10111033 $
14926KSTC STC20190113120511301/13/19 12:05:31  5-MIN KSTC 131805Z 19012KT 5SM BR OVC014 M01/M03 A3037 610 85 -1100 190/12 RMK AO2 T10111033 $
14926KSTC STC20190113121011301/13/19 12:10:31  5-MIN KSTC 131810Z 20009KT 5SM HZ OVC014 M01/M04 A3037 610 81 -1100 200/09 RMK AO2 T10111039 $
14926KSTC STC20190113121511301/13/19 12:15:31  5-MIN KSTC 131815Z 20012KT 5SM BR OVC014 M01/M03 A3037 620 85 -1100 200/12 RMK AO2 T10111033 $
14926KSTC STC20190113122011301/13/19 12:20:31  5-MIN KSTC 131820Z 19013KT 5SM HZ OVC014 M01/M04 A3036 620 81 -1100 190/13 RMK AO2 T10111039 $
14926KSTC STC20190113122511301/13/19 12:25:31  5-MIN KSTC 131825Z 20011KT 5SM BR OVC014 M01/M03 A3036 620 85 -1100 200/11 RMK AO2 T10111033 $
14926KSTC STC20190113123011301/13/19 12:30:31  5-MIN KSTC 131830Z 19010KT 5SM BR OVC014 M01/M03 A3036 620 85 -1100 190/10 RMK AO2 T10111033 $
14926KSTC STC20190113123511301/13/19 12:35:31  5-MIN KSTC 131835Z 20010KT 5SM BR OVC015 M01/M03 A3036 620 85 -1100 200/10 RMK AO2 T10111033 $
14926KSTC STC20190113124011301/13/19 12:40:31  5-MIN KSTC 131840Z 20010KT 5SM BR OVC015 M01/M03 A3036 620 85 -1100 200/10 RMK AO2 T10111033 $
14926KSTC STC20190113124511301/13/19 12:45:31  5-MIN KSTC 131845Z 20010KT 5SM BR OVC015 M01/M03 A3035 630 85 -1100 200/10 RMK AO2 T10111033 $
14926KSTC STC20190113125010301/13/19 12:50:31  5-MIN KSTC 131850Z 20008KT 5SM HZ OVC014 M01/M03 A3035 630 81 -1000 200/08 RMK AO2 $
14926KSTC STC20190113125512001/13/19 12:55:31  5-MIN KSTC 131855Z 21008KT 5SM HZ BKN014 OVC027 M01/M03 A3035 630 81 -1000 210/08 RMK AO2 T10061033 $
14926KSTC STC20190113130012001/13/19 13:00:31  5-MIN KSTC 131900Z 21008KT 5SM HZ BKN014 OVC027 M01/M03 A3035 630 81 -1000 210/08 RMK AO2 T10061033 $
14926KSTC STC20190113130512001/13/19 13:05:31  5-MIN KSTC 131905Z 20010KT 5SM HZ BKN016 OVC027 M01/M03 A3035 630 81 -1000 200/10 RMK AO2 T10061033 $
14926KSTC STC20190113131012001/13/19 13:10:31  5-MIN KSTC 131910Z 20010KT 5SM BR BKN016 OVC027 M01/M03 A3034 640 85 -1100 200/10 RMK AO2 T10111033 $
14926KSTC STC20190113131512001/13/19 13:15:31  5-MIN KSTC 131915Z 20009KT 5SM HZ SCT016 OVC027 M01/M04 A3034 640 81 -1100 200/09 RMK AO2 T10111039 $
14926KSTC STC20190113132012001/13/19 13:20:31  5-MIN KSTC 131920Z 20010KT 5SM HZ SCT016 OVC027 M01/M03 A3034 640 81 -1000 200/10 RMK AO2 T10061033 $
14926KSTC STC20190113132512001/13/19 13:25:31  5-MIN KSTC 131925Z 21009KT 5SM HZ FEW016 OVC027 M01/M03 A3034 640 81 -1000 210/09 RMK AO2 T10061033 $
14926KSTC STC20190113133012001/13/19 13:30:31  5-MIN KSTC 131930Z 19010KT 5SM HZ FEW016 OVC027 M01/M03 A3034 640 81 -1000 190/10 RMK AO2 T10061033 $
14926KSTC STC20190113133512001/13/19 13:35:31  5-MIN KSTC 131935Z 20009KT 5SM HZ FEW016 OVC027 M01/M03 A3033 650 81 -1000 200/09 RMK AO2 T10061033 $
14926KSTC STC20190113134011301/13/19 13:40:31  5-MIN KSTC 131940Z 20011KT 5SM HZ OVC027 M01/M03 A3033 650 81 -1000 200/11 RMK AO2 T10061033 $
14926KSTC STC20190113134511301/13/19 13:45:31  5-MIN KSTC 131945Z 20009KT 5SM HZ OVC027 M01/M04 A3033 650 78 -1000 200/09 RMK AO2 T10061039 $
14926KSTC STC20190113135012001/13/19 13:50:31  5-MIN KSTC 131950Z 20009KT 6SM HZ OVC027 M01/M04 A3033 650 78 -1000 190/09 RMK AO2 SLP293 T10061039 $
14926KSTC STC20190113135511301/13/19 13:55:31  5-MIN KSTC 131955Z 19008KT 6SM HZ OVC027 M01/M03 A3033 650 81 -1000 190/08 RMK AO2 T10061033 $
14926KSTC STC20190113140011301/13/19 14:00:31  5-MIN KSTC 132000Z 19008KT 6SM HZ OVC027 M01/M03 A3033 650 81 -1000 190/08 RMK AO2 T10061033 $
14926KSTC STC20190113140511301/13/19 14:05:31  5-MIN KSTC 132005Z 20010KT 6SM HZ OVC026 M01/M03 A3033 650 81 -1000 190/10 RMK AO2 T10061033 $
14926KSTC STC20190113141011301/13/19 14:10:31  5-MIN KSTC 132010Z 19011KT 6SM HZ OVC026 M01/M04 A3032 660 78 -1000 190/11 RMK AO2 T10061039 $
14926KSTC STC20190113141511301/13/19 14:15:31  5-MIN KSTC 132015Z 20009KT 6SM HZ OVC024 M01/M03 A3032 660 81 -1000 200/09 RMK AO2 T10061033 $
14926KSTC STC20190113142011301/13/19 14:20:31  5-MIN KSTC 132020Z 19009KT 6SM HZ OVC024 M01/M03 A3032 660 81 -1000 190/09 RMK AO2 T10061033 $
14926KSTC STC20190113142512001/13/19 14:25:31  5-MIN KSTC 132025Z 19011KT 6SM HZ FEW018 OVC024 M01/M03 A3032 660 81 -1000 190/11 RMK AO2 T10061033 $
14926KSTC STC20190113143011301/13/19 14:30:31  5-MIN KSTC 132030Z 19009KT 6SM HZ OVC024 M01/M03 A3032 660 81 -1000 190/09 RMK AO2 T10061033 $
14926KSTC STC20190113143511301/13/19 14:35:31  5-MIN KSTC 132035Z 19009KT 6SM HZ OVC023 M01/M03 A3031 660 81 -1000 190/09 RMK AO2 T10061033 $
14926KSTC STC20190113144011301/13/19 14:40:31  5-MIN KSTC 132040Z 18009KT 6SM HZ OVC023 M01/M03 A3031 660 81 -1000 180/09 RMK AO2 T10061033 $
14926KSTC STC20190113144511301/13/19 14:45:31  5-MIN KSTC 132045Z 19009KT 6SM HZ OVC022 M01/M03 A3031 660 81 -1000 190/09 RMK AO2 T10061033 $
14926KSTC STC20190113145012601/13/19 14:50:31  5-MIN KSTC 132050Z 19011KT 6SM HZ OVC022 M01/M03 A3031 660 81 -1000 190/11 RMK AO2 SLP288 T10061033 58012 $
14926KSTC STC20190113145511301/13/19 14:55:31  5-MIN KSTC 132055Z 19011KT 6SM HZ OVC022 M01/M03 A3031 660 81 -1000 190/11 RMK AO2 T10061033 $
14926KSTC STC20190113150011301/13/19 15:00:31  5-MIN KSTC 132100Z 20009KT 6SM HZ OVC022 M01/M03 A3032 660 81 -1000 200/09 RMK AO2 T10061033 $
14926KSTC STC20190113150511301/13/19 15:05:31  5-MIN KSTC 132105Z 20008KT 6SM HZ OVC022 M01/M03 A3031 660 81 -1000 200/08 RMK AO2 T10061033 $
14926KSTC STC20190114004511601/14/19 00:45:31  5-MIN KSTC 140645Z AUTO 22008KT 10SM OVC010 M02/M03 A3021 760 88 -1000 220/08 RMK AO2 T10171033 $
14926KSTC STC20190114005012301/14/19 00:50:31  5-MIN KSTC 140650Z AUTO 23009KT 10SM OVC010 M02/M03 A3021 760 88 -1000 220/09 RMK AO2 SLP252 T10171033 $
14926KSTC STC20190114005511501/14/19 00:55:31  5-MIN KSTC 140655Z AUTO 23007KT 10SM OVC010 M01/M03 A3021 760 85 -900 230/07 RMK AO2 T10111033 $
14926KSTC STC20190114010011601/14/19 01:00:31  5-MIN KSTC 140700Z AUTO 23006KT 10SM OVC010 M02/M03 A3021 760 88 -1000 230/06 RMK AO2 T10171033 $
14926KSTC STC20190114010511601/14/19 01:05:31  5-MIN KSTC 140705Z AUTO 24008KT 10SM OVC010 M02/M03 A3021 760 88 -1000 230/08 RMK AO2 T10171033 $
14926KSTC STC20190114011011601/14/19 01:10:31  5-MIN KSTC 140710Z AUTO 23009KT 10SM OVC010 M02/M03 A3021 760 88 -1000 230/09 RMK AO2 T10171033 $
14926KSTC STC20190114011511501/14/19 01:15:31  5-MIN KSTC 140715Z AUTO 23007KT 10SM OVC010 M01/M03 A3021 760 85 -900 230/07 RMK AO2 T10111033 $
14926KSTC STC20190114012011601/14/19 01:20:31  5-MIN KSTC 140720Z AUTO 23008KT 10SM OVC010 M02/M03 A3021 760 88 -1000 230/08 RMK AO2 T10171033 $
14926KSTC STC20190114012511601/14/19 01:25:31  5-MIN KSTC 140725Z AUTO 24008KT 10SM OVC010 M02/M03 A3021 760 88 -1000 230/08 RMK AO2 T10171033 $
14926KSTC STC20190114013011601/14/19 01:30:31  5-MIN KSTC 140730Z AUTO 24007KT 10SM OVC010 M02/M03 A3021 760 88 -1000 240/07 RMK AO2 T10171033 $
14926KSTC STC20190114013511601/14/19 01:35:31  5-MIN KSTC 140735Z AUTO 24009KT 10SM OVC010 M02/M03 A3021 760 88 -1000 240/09 RMK AO2 T10171033 $
14926KSTC STC20190114014011601/14/19 01:40:31  5-MIN KSTC 140740Z AUTO 24006KT 10SM OVC010 M02/M03 A3021 760 88 -1000 240/06 RMK AO2 T10171033 $
14926KSTC STC20190114014511601/14/19 01:45:31  5-MIN KSTC 140745Z AUTO 24006KT 10SM OVC010 M02/M03 A3021 760 88 -1000 240/06 RMK AO2 T10171033 $
14926KSTC STC20190114015012201/14/19 01:50:31  5-MIN KSTC 140750Z AUTO 25008KT 10SM OVC010 M01/M03 A3021 750 85 -900 240/08 RMK AO2 SLP253 T10111033 $
14926KSTC STC20190114015511501/14/19 01:55:31  5-MIN KSTC 140755Z AUTO 25007KT 10SM OVC010 M01/M03 A3021 760 85 -900 250/07 RMK AO2 T10111033 $
14926KSTC STC20190114020011501/14/19 02:00:31  5-MIN KSTC 140800Z AUTO 24007KT 10SM OVC010 M01/M03 A3021 760 85 -900 240/07 RMK AO2 T10111033 $
14926KSTC STC20190114020511601/14/19 02:05:31  5-MIN KSTC 140805Z AUTO 23007KT 10SM OVC011 M02/M03 A3021 760 88 -1000 230/07 RMK AO2 T10171033 $
14926KSTC STC20190114021011601/14/19 02:10:31  5-MIN KSTC 140810Z AUTO 23007KT 10SM OVC011 M02/M03 A3021 760 88 -1000 230/07 RMK AO2 T10171033 $
14926KSTC STC20190114021511601/14/19 02:15:31  5-MIN KSTC 140815Z AUTO 24006KT 10SM OVC011 M02/M03 A3021 760 88 -1000 240/06 RMK AO2 T10171033 $
14926KSTC STC20190114022011601/14/19 02:20:31  5-MIN KSTC 140820Z AUTO 23005KT 10SM OVC011 M02/M03 A3021 760 88 -1000 230/05 RMK AO2 T10171033 $
14926KSTC STC20190114022511501/14/19 02:25:31  5-MIN KSTC 140825Z AUTO 23006KT 10SM OVC011 M01/M03 A3021 760 85 -900 230/06 RMK AO2 T10111033 $
14926KSTC STC20190114023011501/14/19 02:30:31  5-MIN KSTC 140830Z AUTO 23005KT 10SM OVC011 M01/M03 A3021 760 85 -900 230/05 RMK AO2 T10111033 $
14926KSTC STC20190114023511501/14/19 02:35:31  5-MIN KSTC 140835Z AUTO 23006KT 10SM OVC011 M01/M03 A3021 760 85 -900 230/06 RMK AO2 T10111033 $
14926KSTC STC20190114024011501/14/19 02:40:31  5-MIN KSTC 140840Z AUTO 24007KT 10SM OVC010 M01/M03 A3021 760 85 -900 240/07 RMK AO2 T10111033 $
14926KSTC STC20190114024511501/14/19 02:45:31  5-MIN KSTC 140845Z AUTO 22005KT 10SM OVC010 M01/M03 A3021 760 85 -900 220/05 RMK AO2 T10111033 $
14926KSTC STC20190114025012901/14/19 02:50:31  5-MIN KSTC 140850Z AUTO 24008KT 10SM OVC010 M02/M03 A3021 760 88 -1000 240/08 RMK AO2 SLP251 T10171033 56007 $
14926KSTC STC20190114025511501/14/19 02:55:31  5-MIN KSTC 140855Z AUTO 24006KT 10SM OVC010 M01/M03 A3021 760 85 -900 240/06 RMK AO2 T10111033 $
14926KSTC STC20190114030011601/14/19 03:00:31  5-MIN KSTC 140900Z AUTO 23007KT 10SM OVC010 M02/M03 A3020 770 88 -1000 230/07 RMK AO2 T10171033 $
14926KSTC STC20190114030511501/14/19 03:05:31  5-MIN KSTC 140905Z AUTO 22006KT 10SM OVC010 M01/M03 A3020 770 85 -900 220/06 RMK AO2 T10111033 $
14926KSTC STC20190114031011501/14/19 03:10:31  5-MIN KSTC 140910Z AUTO 24006KT 10SM OVC010 M01/M03 A3020 770 85 -900 240/06 RMK AO2 T10111033 $
14926KSTC STC20190114031511501/14/19 03:15:31  5-MIN KSTC 140915Z AUTO 22007KT 10SM OVC010 M01/M03 A3020 770 85 -900 220/07 RMK AO2 T10111033 $
14926KSTC STC20190114032011601/14/19 03:20:31  5-MIN KSTC 140920Z AUTO 25007KT 10SM OVC010 M02/M03 A3020 770 88 -1000 250/07 RMK AO2 T10171033 $
14926KSTC STC20190114032511501/14/19 03:25:31  5-MIN KSTC 140925Z AUTO 24008KT 10SM OVC010 M01/M03 A3020 770 85 -900 240/08 RMK AO2 T10111033 $
14926KSTC STC20190114033011501/14/19 03:30:31  5-MIN KSTC 140930Z AUTO 25008KT 10SM OVC010 M01/M03 A3020 770 85 -900 250/08 RMK AO2 T10111033 $
14926KSTC STC20190114033511501/14/19 03:35:31  5-MIN KSTC 140935Z AUTO 25008KT 10SM OVC010 M01/M03 A3020 770 85 -900 250/08 RMK AO2 T10111033 $
14926KSTC STC20190114034011501/14/19 03:40:31  5-MIN KSTC 140940Z AUTO 25010KT 10SM OVC010 M01/M03 A3020 770 85 -900 250/10 RMK AO2 T10111033 $
14926KSTC STC20190114034511501/14/19 03:45:31  5-MIN KSTC 140945Z AUTO 25009KT 10SM OVC010 M01/M03 A3020 770 85 -900 250/09 RMK AO2 T10111033 $
14926KSTC STC20190114035012201/14/19 03:50:31  5-MIN KSTC 140950Z AUTO 24007KT 10SM OVC010 M01/M03 A3020 770 85 -900 240/07 RMK AO2 SLP247 T10111033 $
14926KSTC STC20190114035511501/14/19 03:55:31  5-MIN KSTC 140955Z AUTO 25008KT 10SM OVC010 M01/M03 A3019 770 85 -900 250/08 RMK AO2 T10111033 $
14926KSTC STC20190114040011501/14/19 04:00:31  5-MIN KSTC 141000Z AUTO 25006KT 10SM OVC010 M01/M03 A3019 770 85 -900 250/06 RMK AO2 T10111033 $
14926KSTC STC20190114040511501/14/19 04:05:31  5-MIN KSTC 141005Z AUTO 25006KT 10SM OVC010 M01/M03 A3019 770 85 -900 250/06 RMK AO2 T10111033 $
14926KSTC STC20190114041011501/14/19 04:10:31  5-MIN KSTC 141010Z AUTO 26009KT 10SM OVC010 M01/M03 A3019 780 85 -900 250/09 RMK AO2 T10111033 $
14926KSTC STC20190114041511501/14/19 04:15:31  5-MIN KSTC 141015Z AUTO 26008KT 10SM OVC010 M01/M03 A3019 780 85 -900 260/08 RMK AO2 T10111033 $
14926KSTC STC20190114042011501/14/19 04:20:31  5-MIN KSTC 141020Z AUTO 27006KT 10SM OVC010 M01/M03 A3019 780 85 -900 270/06 RMK AO2 T10111033 $
14926KSTC STC20190114042511501/14/19 04:25:31  5-MIN KSTC 141025Z AUTO 25008KT 10SM OVC010 M01/M03 A3019 780 85 -900 250/08 RMK AO2 T10111033 $
14926KSTC STC20190114043011501/14/19 04:30:31  5-MIN KSTC 141030Z AUTO 25007KT 10SM OVC010 M01/M03 A3019 780 85 -900 250/07 RMK AO2 T10111033 $
14926KSTC STC20190114043511501/14/19 04:35:31  5-MIN KSTC 141035Z AUTO 25006KT 10SM OVC010 M01/M03 A3019 780 85 -900 250/06 RMK AO2 T10111033 $
14926KSTC STC20190114044011601/14/19 04:40:31  5-MIN KSTC 141040Z AUTO 25008KT 10SM OVC010 M02/M03 A3019 780 88 -1000 250/08 RMK AO2 T10171033 $
14926KSTC STC20190114044511501/14/19 04:45:31  5-MIN KSTC 141045Z AUTO 25007KT 10SM OVC010 M01/M03 A3019 780 85 -900 250/07 RMK AO2 T10111033 $
14926KSTC STC20190114045012301/14/19 04:50:31  5-MIN KSTC 141050Z AUTO 26007KT 10SM OVC010 M02/M03 A3019 780 88 -1000 260/07 RMK AO2 SLP244 T10171033 $
14926KSTC STC20190114045511601/14/19 04:55:31  5-MIN KSTC 141055Z AUTO 26006KT 10SM OVC010 M02/M03 A3018 780 88 -1000 260/06 RMK AO2 T10171033 $
14926KSTC STC20190114050011601/14/19 05:00:31  5-MIN KSTC 141100Z AUTO 27006KT 10SM OVC009 M02/M03 A3018 780 88 -1000 270/06 RMK AO2 T10171033 $
14926KSTC STC20190114050511601/14/19 05:05:31  5-MIN KSTC 141105Z AUTO 26010KT 10SM OVC009 M02/M03 A3018 780 88 -1000 260/10 RMK AO2 T10171033 $
14926KSTC STC20190114051011601/14/19 05:10:31  5-MIN KSTC 141110Z AUTO 26011KT 10SM OVC009 M02/M03 A3018 790 88 -1000 260/11 RMK AO2 T10171033 $
14926KSTC STC20190114051511601/14/19 05:15:31  5-MIN KSTC 141115Z AUTO 26007KT 10SM OVC009 M02/M03 A3018 790 88 -1000 260/07 RMK AO2 T10171033 $
14926KSTC STC20190114052011601/14/19 05:20:31  5-MIN KSTC 141120Z AUTO 27007KT 10SM OVC009 M02/M03 A3018 790 88 -1000 270/07 RMK AO2 T10171033 $
14926KSTC STC20190114052511601/14/19 05:25:31  5-MIN KSTC 141125Z AUTO 27007KT 10SM OVC010 M02/M03 A3018 790 88 -1000 270/07 RMK AO2 T10171033 $
14926KSTC STC20190114053011601/14/19 05:30:31  5-MIN KSTC 141130Z AUTO 26006KT 10SM OVC010 M02/M03 A3018 790 88 -1000 260/06 RMK AO2 T10171033 $
14926KSTC STC20190114053511601/14/19 05:35:31  5-MIN KSTC 141135Z AUTO 26008KT 10SM OVC010 M02/M03 A3018 790 88 -1000 260/08 RMK AO2 T10171033 $
14926KSTC STC20190114054011601/14/19 05:40:31  5-MIN KSTC 141140Z AUTO 28007KT 10SM OVC009 M02/M03 A3018 790 88 -1000 280/07 RMK AO2 T10171033 $
14926KSTC STC20190114054511601/14/19 05:45:31  5-MIN KSTC 141145Z AUTO 27007KT 10SM OVC009 M02/M03 A3018 790 88 -1000 270/07 RMK AO2 T10171033 $
14926KSTC STC20190114055014101/14/19 05:50:31  5-MIN KSTC 141150Z AUTO 30007KT 10SM OVC009 M02/M03 A3018 780 88 -1000 300/07 RMK AO2 SLP243 T10171033 11011 21017 56010 $
14926KSTC STC20190114055511601/14/19 05:55:31  5-MIN KSTC 141155Z AUTO 27008KT 10SM OVC009 M02/M03 A3018 790 88 -1000 260/08 RMK AO2 T10171033 $
14926KSTC STC20190114060011601/14/19 06:00:31  5-MIN KSTC 141200Z AUTO 26009KT 10SM OVC009 M02/M03 A3018 780 88 -1000 260/09 RMK AO2 T10171033 $
14926KSTC STC20190114060511601/14/19 06:05:31  5-MIN KSTC 141205Z AUTO 28006KT 10SM OVC009 M02/M03 A3018 780 88 -1000 280/06 RMK AO2 T10171033 $
14926KSTC STC20190114061011601/14/19 06:10:31  5-MIN KSTC 141210Z AUTO 30006KT 10SM OVC009 M02/M03 A3018 780 88 -1000 300/06 RMK AO2 T10171033 $
14926KSTC STC20190114061511601/14/19 06:15:31  5-MIN KSTC 141215Z AUTO 29005KT 10SM OVC009 M02/M03 A3018 780 88 -1000 290/05 RMK AO2 T10171033 $
14926KSTC STC20190114062011601/14/19 06:20:31  5-MIN KSTC 141220Z AUTO 30006KT 10SM OVC009 M02/M03 A3018 780 88 -1000 290/06 RMK AO2 T10171033 $
14926KSTC STC20190114062511601/14/19 06:25:31  5-MIN KSTC 141225Z AUTO 29007KT 10SM OVC009 M02/M03 A3019 780 88 -1000 290/07 RMK AO2 T10171033 $
14926KSTC STC20190114063011601/14/19 06:30:31  5-MIN KSTC 141230Z AUTO 28008KT 10SM OVC009 M02/M03 A3019 780 88 -1000 280/08 RMK AO2 T10171033 $
14926KSTC STC20190114063511601/14/19 06:35:31  5-MIN KSTC 141235Z AUTO 29007KT 10SM OVC009 M02/M03 A3019 780 88 -1000 290/07 RMK AO2 T10171033 $
14926KSTC STC20190114064011601/14/19 06:40:31  5-MIN KSTC 141240Z AUTO 30008KT 10SM OVC009 M02/M03 A3019 780 88 -1000 300/08 RMK AO2 T10171033 $
14926KSTC STC20190114064511601/14/19 06:45:31  5-MIN KSTC 141245Z AUTO 31010KT 10SM OVC009 M02/M03 A3019 780 88 -1000 310/10 RMK AO2 T10171033 $
14926KSTC STC20190114065012301/14/19 06:50:31  5-MIN KSTC 141250Z AUTO 30010KT 10SM OVC009 M02/M03 A3019 780 88 -1000 300/10 RMK AO2 SLP246 T10171033 $
14926KSTC STC20190114065511101/14/19 06:55:31  5-MIN KSTC 141255Z 31011KT 10SM OVC009 M02/M03 A3019 770 88 -1000 300/11 RMK AO2 T10171033 $
14926KSTC STC20190114070011101/14/19 07:00:31  5-MIN KSTC 141300Z 29010KT 10SM OVC009 M02/M03 A3019 770 88 -1000 290/10 RMK AO2 T10171033 $
14926KSTC STC20190114070511101/14/19 07:05:31  5-MIN KSTC 141305Z 30010KT 10SM OVC009 M02/M03 A3019 770 88 -1000 300/10 RMK AO2 T10171033 $
14926KSTC STC20190114071011101/14/19 07:10:31  5-MIN KSTC 141310Z 30009KT 10SM OVC009 M02/M03 A3020 770 92 -1100 300/09 RMK AO2 T10221033 $
14926KSTC STC20190114071511101/14/19 07:15:31  5-MIN KSTC 141315Z 29008KT 10SM OVC009 M02/M03 A3020 770 92 -1100 280/08 RMK AO2 T10221033 $
14926KSTC STC20190114072011101/14/19 07:20:31  5-MIN KSTC 141320Z 29008KT 10SM OVC009 M02/M03 A3020 770 92 -1100 290/08 RMK AO2 T10221033 $
14926KSTC STC20190114072511101/14/19 07:25:31  5-MIN KSTC 141325Z 29006KT 10SM OVC009 M02/M03 A3020 770 92 -1100 290/06 RMK AO2 T10221033 $
14926KSTC STC20190114073011501/14/19 07:30:31  5-MIN KSTC 141330Z 31012G16KT 10SM OVC009 M02/M03 A3020 770 92 -1100 310/12G16 RMK AO2 T10221033
14926KSTC STC20190114073510801/14/19 07:35:31  5-MIN KSTC 141335Z 32009KT 8SM OVC008 M03/M04 A3020 770 92 -1100 320/09 RMK AO2 T10281039
14926KSTC STC20190114074010801/14/19 07:40:31  5-MIN KSTC 141340Z 31010KT 7SM OVC008 M03/M04 A3020 760 92 -1100 310/10 RMK AO2 T10281039
14926KSTC STC20190114074510801/14/19 07:45:31  5-MIN KSTC 141345Z 31012KT 7SM OVC008 M03/M04 A3021 760 92 -1100 310/12 RMK AO2 T10281039
14926KSTC STC20190114075011501/14/19 07:50:31  5-MIN KSTC 141350Z 31009KT 7SM OVC007 M03/M04 A3021 760 92 -1100 310/09 RMK AO2 SLP252 T10281039
14926KSTC STC20190114075512701/14/19 07:55:31  5-MIN KSTC 141355Z 31008KT 8SM BKN007 OVC015 M03/M04 A3021 760 92 -1100 310/08 RMK AO2 CIG 006V010 T10281039
14926KSTC STC20190114080012701/14/19 08:00:31  5-MIN KSTC 141400Z 31007KT 9SM BKN007 OVC015 M03/M04 A3021 760 92 -1100 310/07 RMK AO2 CIG 006V010 T10281039
14926KSTC STC20190114080511501/14/19 08:05:31  5-MIN KSTC 141405Z 31008KT 9SM SCT007 OVC017 M03/M04 A3021 760 92 -1100 310/08 RMK AO2 T10281039
14926KSTC STC20190114081011601/14/19 08:10:31  5-MIN KSTC 141410Z 31006KT 10SM SCT006 OVC017 M03/M04 A3021 760 92 -1100 310/06 RMK AO2 T10281039
14926KSTC STC20190114081511601/14/19 08:15:31  5-MIN KSTC 141415Z 31006KT 10SM FEW006 OVC019 M03/M04 A3021 760 88 -1100 310/06 RMK AO2 T10281044
14926KSTC STC20190114082010901/14/19 08:20:31  5-MIN KSTC 141420Z 31007KT 10SM OVC019 M03/M04 A3021 760 88 -1100 310/07 RMK AO2 T10281044
14926KSTC STC20190114082511601/14/19 08:25:31  5-MIN KSTC 141425Z 32007KT 10SM BKN019 OVC024 M03/M04 A3021 760 88 -1100 320/07 RMK AO2 T10281044
14926KSTC STC20190114083011601/14/19 08:30:31  5-MIN KSTC 141430Z 32007KT 10SM BKN019 OVC024 M03/M04 A3021 760 88 -1100 310/07 RMK AO2 T10281044
14926KSTC STC20190114083511601/14/19 08:35:31  5-MIN KSTC 141435Z 32006KT 10SM BKN019 OVC024 M03/M05 A3021 760 85 -1100 320/06 RMK AO2 T10281050
14926KSTC STC20190114084011601/14/19 08:40:31  5-MIN KSTC 141440Z 32006KT 10SM BKN019 OVC025 M03/M05 A3021 760 85 -1100 320/06 RMK AO2 T10281050
14926KSTC STC20190114084511601/14/19 08:45:31  5-MIN KSTC 141445Z 33005KT 10SM BKN017 OVC025 M03/M05 A3021 760 85 -1100 330/05 RMK AO2 T10281050
14926KSTC STC20190114085012901/14/19 08:50:31  5-MIN KSTC 141450Z 31007KT 10SM BKN017 OVC025 M03/M04 A3021 760 88 -1100 310/07 RMK AO2 SLP253 T10281044 56008
14926KSTC STC20190114085511601/14/19 08:55:31  5-MIN KSTC 141455Z 33005KT 10SM BKN017 OVC025 M03/M04 A3021 760 88 -1100 330/05 RMK AO2 T10281044
14926KSTC STC20190114090010901/14/19 09:00:31  5-MIN KSTC 141500Z 33007KT 10SM OVC017 M03/M04 A3021 760 88 -1100 330/07 RMK AO2 T10281044
14926KSTC STC20190114090510901/14/19 09:05:31  5-MIN KSTC 141505Z 33006KT 10SM OVC017 M03/M04 A3021 760 88 -1100 330/06 RMK AO2 T10281044
14926KSTC STC20190114091010901/14/19 09:10:31  5-MIN KSTC 141510Z 33007KT 10SM OVC017 M03/M04 A3021 760 88 -1100 330/07 RMK AO2 T10281044
14926KSTC STC20190114091510901/14/19 09:15:31  5-MIN KSTC 141515Z 33006KT 10SM OVC016 M03/M04 A3021 760 88 -1100 330/06 RMK AO2 T10281044
14926KSTC STC20190114092010901/14/19 09:20:31  5-MIN KSTC 141520Z 33006KT 10SM OVC016 M03/M04 A3021 760 88 -1100 330/06 RMK AO2 T10281044
14926KSTC STC20190114092510901/14/19 09:25:31  5-MIN KSTC 141525Z 33004KT 10SM OVC017 M03/M04 A3021 760 88 -1100 330/04 RMK AO2 T10281044
14926KSTC STC20190114093011601/14/19 09:30:31  5-MIN KSTC 141530Z 33005KT 10SM FEW010 OVC017 M03/M04 A3021 760 88 -1100 330/05 RMK AO2 T10281044
14926KSTC STC20190114093511601/14/19 09:35:31  5-MIN KSTC 141535Z 33006KT 10SM FEW010 OVC017 M03/M04 A3021 760 88 -1100 330/06 RMK AO2 T10281044
14926KSTC STC20190114094011601/14/19 09:40:31  5-MIN KSTC 141540Z 32005KT 10SM FEW010 OVC017 M03/M04 A3021 760 88 -1200 320/05 RMK AO2 T10281044
14926KSTC STC20190114094510901/14/19 09:45:31  5-MIN KSTC 141545Z 33005KT 10SM OVC017 M03/M04 A3021 760 88 -1200 330/05 RMK AO2 T10281044
14926KSTC STC20190114095011601/14/19 09:50:31  5-MIN KSTC 141550Z 33004KT 10SM OVC015 M03/M04 A3021 760 88 -1200 330/04 RMK AO2 SLP253 T10281044
14926KSTC STC20190114095510901/14/19 09:55:31  5-MIN KSTC 141555Z 33005KT 10SM OVC015 M03/M04 A3021 760 88 -1200 330/05 RMK AO2 T10281044
14926KSTC STC20190114100010901/14/19 10:00:31  5-MIN KSTC 141600Z 34004KT 10SM OVC015 M03/M04 A3022 750 88 -1200 340/04 RMK AO2 T10281044
14926KSTC STC20190114100510901/14/19 10:05:31  5-MIN KSTC 141605Z 32005KT 10SM OVC015 M03/M04 A3022 750 88 -1200 320/05 RMK AO2 T10281044
14926KSTC STC20190114101010901/14/19 10:10:31  5-MIN KSTC 141610Z 32006KT 10SM OVC013 M03/M04 A3022 750 88 -1200 320/06 RMK AO2 T10281044
14926KSTC STC20190114101510901/14/19 10:15:31  5-MIN KSTC 141615Z 34006KT 10SM OVC013 M03/M04 A3022 750 88 -1200 330/06 RMK AO2 T10281044
14926KSTC STC20190114102010901/14/19 10:20:31  5-MIN KSTC 141620Z 34007KT 10SM OVC013 M03/M05 A3023 740 85 -1200 340/07 RMK AO2 T10281050
14926KSTC STC20190114102510901/14/19 10:25:31  5-MIN KSTC 141625Z 35007KT 10SM OVC011 M03/M05 A3023 740 85 -1200 350/07 RMK AO2 T10281050
14926KSTC STC20190114103012101/14/19 10:30:31  5-MIN KSTC 141630Z 36007KT 10SM OVC011 M03/M05 A3023 740 85 -1200 360/07 RMK AO2 CIG 009V014 T10281050
14926KSTC STC20190114103512101/14/19 10:35:31  5-MIN KSTC 141635Z 34007KT 10SM OVC009 M03/M05 A3023 740 85 -1200 340/07 RMK AO2 CIG 009V012 T10281050
14926KSTC STC20190114104010901/14/19 10:40:31  5-MIN KSTC 141640Z 35008KT 10SM OVC009 M03/M05 A3023 740 85 -1200 350/08 RMK AO2 T10281050
14926KSTC STC20190114104510901/14/19 10:45:31  5-MIN KSTC 141645Z 35007KT 10SM OVC009 M03/M05 A3023 740 85 -1200 350/07 RMK AO2 T10281050
14926KSTC STC20190114105009901/14/19 10:50:31  5-MIN KSTC 141650Z 35006KT 10SM OVC010 M03/M05 A3023 740 85 -1200 350/06 RMK AO2
14926KSTC STC20190114105510901/14/19 10:55:31  5-MIN KSTC 141655Z 35007KT 10SM OVC010 M03/M05 A3023 740 85 -1200 350/07 RMK AO2 T10281050
14926KSTC STC20190114110010901/14/19 11:00:31  5-MIN KSTC 141700Z 34006KT 10SM OVC010 M03/M05 A3023 740 85 -1200 340/06 RMK AO2 T10281050
14926KSTC STC20190114110510901/14/19 11:05:31  5-MIN KSTC 141705Z 34007KT 10SM OVC011 M03/M06 A3023 740 81 -1200 340/07 RMK AO2 T10281056
14926KSTC STC20190114111010901/14/19 11:10:31  5-MIN KSTC 141710Z 35008KT 10SM OVC011 M03/M05 A3023 740 85 -1200 350/08 RMK AO2 T10281050
14926KSTC STC20190114111510901/14/19 11:15:31  5-MIN KSTC 141715Z 34006KT 10SM OVC011 M03/M05 A3023 740 85 -1200 340/06 RMK AO2 T10281050
14926KSTC STC20190114112010901/14/19 11:20:31  5-MIN KSTC 141720Z 34007KT 10SM OVC011 M03/M05 A3023 740 85 -1200 340/07 RMK AO2 T10281050
14926KSTC STC20190114112510901/14/19 11:25:31  5-MIN KSTC 141725Z 35007KT 10SM OVC011 M03/M06 A3023 740 81 -1200 350/07 RMK AO2 T10281056
14926KSTC STC20190114113010901/14/19 11:30:31  5-MIN KSTC 141730Z 34008KT 10SM OVC011 M03/M05 A3023 740 85 -1200 340/08 RMK AO2 T10281050
14926KSTC STC20190114113510901/14/19 11:35:31  5-MIN KSTC 141735Z 35008KT 10SM OVC011 M03/M05 A3023 740 85 -1200 350/08 RMK AO2 T10281050
14926KSTC STC20190114114010901/14/19 11:40:31  5-MIN KSTC 141740Z 34009KT 10SM OVC011 M03/M05 A3022 750 85 -1200 340/09 RMK AO2 T10281050
14926KSTC STC20190114114510901/14/19 11:45:31  5-MIN KSTC 141745Z 35009KT 10SM OVC011 M03/M05 A3022 750 85 -1200 350/09 RMK AO2 T10281050
14926KSTC STC20190114115013401/14/19 11:50:31  5-MIN KSTC 141750Z 33007KT 10SM OVC011 M03/M05 A3022 750 85 -1200 330/07 RMK AO2 SLP256 T10281050 11017 21033 51009
14926KSTC STC20190114115510901/14/19 11:55:31  5-MIN KSTC 141755Z 34008KT 10SM OVC011 M03/M05 A3022 750 85 -1200 340/08 RMK AO2 T10281050
14926KSTC STC20190114120010901/14/19 12:00:31  5-MIN KSTC 141800Z 35007KT 10SM OVC011 M03/M05 A3022 750 85 -1200 350/07 RMK AO2 T10281050
14926KSTC STC20190114120510901/14/19 12:05:31  5-MIN KSTC 141805Z 34007KT 10SM OVC010 M03/M05 A3021 760 85 -1200 340/07 RMK AO2 T10281050
14926KSTC STC20190114121010901/14/19 12:10:31  5-MIN KSTC 141810Z 35006KT 10SM OVC010 M03/M05 A3021 760 88 -1200 350/06 RMK AO2 T10331050
14926KSTC STC20190114121510901/14/19 12:15:31  5-MIN KSTC 141815Z 34007KT 10SM OVC010 M03/M05 A3021 760 88 -1200 340/07 RMK AO2 T10331050
14926KSTC STC20190114122010901/14/19 12:20:31  5-MIN KSTC 141820Z 34007KT 10SM OVC010 M03/M05 A3021 760 88 -1200 340/07 RMK AO2 T10331050
14926KSTC STC20190114122510901/14/19 12:25:31  5-MIN KSTC 141825Z 35006KT 10SM OVC010 M03/M05 A3021 760 88 -1200 350/06 RMK AO2 T10331050
14926KSTC STC20190114123010901/14/19 12:30:31  5-MIN KSTC 141830Z 35006KT 10SM OVC009 M03/M05 A3021 760 88 -1200 350/06 RMK AO2 T10331050
14926KSTC STC20190114123510901/14/19 12:35:31  5-MIN KSTC 141835Z 35007KT 10SM OVC009 M03/M05 A3021 760 88 -1200 350/07 RMK AO2 T10331050
14926KSTC STC20190114124010901/14/19 12:40:31  5-MIN KSTC 141840Z 35006KT 10SM OVC009 M03/M05 A3021 760 88 -1200 350/06 RMK AO2 T10331050
14926KSTC STC20190115094511101/15/19 09:45:31  5-MIN KSTC 151545Z 20013KT 3SM BR OVC004 M04/M05 A2996 990 96 -1100 200/13 RMK AO2 T10441050
14926KSTC STC20190115095011801/15/19 09:50:31  5-MIN KSTC 151550Z 20011KT 3SM BR OVC004 M04/M05 A2996 990 96 -1100 200/11 RMK AO2 SLP173 T10441050
14926KSTC STC20190115095511101/15/19 09:55:31  5-MIN KSTC 151555Z 21011KT 6SM BR OVC004 M04/M05 A2996 990 96 -1100 200/11 RMK AO2 T10441050
14926KSTC STC20190115100011101/15/19 10:00:31  5-MIN KSTC 151600Z 20011KT 5SM BR OVC004 M04/M05 A2996 990 96 -1100 200/11 RMK AO2 T10441050
14926KSTC STC20190115100511101/15/19 10:05:31  5-MIN KSTC 151605Z 21011KT 5SM BR OVC004 M04/M05 A2996 990 96 -1100 210/11 RMK AO2 T10441050
14926KSTC STC20190115101011201/15/19 10:10:31  5-MIN KSTC 151610Z 21013KT 2SM BR OVC003 M04/M05 A2995 1000 96 -1100 210/13 RMK AO2 T10441050
14926KSTC STC20190115101511701/15/19 10:15:31  5-MIN KSTC 151615Z 21011G19KT 2SM BR OVC003 M04/M05 A2995 990 96 -1100 210/11G19 RMK AO2 T10441050
14926KSTC STC20190115102011801/15/19 10:20:31  5-MIN KSTC 151620Z 21012G19KT 2SM BR OVC003 M04/M05 A2995 1000 96 -1100 210/12G19 RMK AO2 T10441050
14926KSTC STC20190115102511301/15/19 10:25:31  5-MIN KSTC 151625Z 22013KT 2SM BR OVC003 M04/M04 A2995 1000 100 -1100 220/13 RMK AO2 T10441044
14926KSTC STC20190115103011201/15/19 10:30:31  5-MIN KSTC 151630Z 22010KT 2SM BR OVC003 M04/M04 A2995 1000 96 -1000 210/10 RMK AO2 T10391044
14926KSTC STC20190115103511201/15/19 10:35:31  5-MIN KSTC 151635Z 21011KT 2SM BR OVC003 M04/M04 A2995 1000 96 -1000 210/11 RMK AO2 T10391044
14926KSTC STC20190115104011201/15/19 10:40:31  5-MIN KSTC 151640Z 22010KT 2SM BR OVC003 M04/M04 A2995 1000 96 -1000 220/10 RMK AO2 T10391044
14926KSTC STC20190115104511101/15/19 10:45:31  5-MIN KSTC 151645Z 23009KT 2SM BR OVC003 M04/M04 A2995 990 96 -1000 230/09 RMK AO2 T10391044
14926KSTC STC20190115105011901/15/19 10:50:31  5-MIN KSTC 151650Z 21009KT 2SM BR OVC003 M04/M04 A2995 1000 96 -1000 210/09 RMK AO2 SLP169 T10391044
14926KSTC STC20190115105511301/15/19 10:55:31  5-MIN KSTC 151655Z 21009KT 2SM BR OVC003 M04/M04 A2995 1000 100 -1000 210/09 RMK AO2 T10391039
14926KSTC STC20190115110011301/15/19 11:00:31  5-MIN KSTC 151700Z 21010KT 2SM BR OVC003 M04/M04 A2994 1000 100 -1000 210/10 RMK AO2 T10391039
14926KSTC STC20190115110511301/15/19 11:05:31  5-MIN KSTC 151705Z 21009KT 2SM BR OVC003 M04/M04 A2995 1000 100 -1000 210/09 RMK AO2 T10391039
14926KSTC STC20190115111011301/15/19 11:10:31  5-MIN KSTC 151710Z 22011KT 2SM BR OVC003 M04/M04 A2995 1000 100 -1000 220/11 RMK AO2 T10391039
14926KSTC STC20190115111511301/15/19 11:15:31  5-MIN KSTC 151715Z 21009KT 2SM BR OVC003 M04/M04 A2994 1010 100 -1000 210/09 RMK AO2 T10391039
14926KSTC STC20190115112011101/15/19 11:20:31  5-MIN KSTC 151720Z 21010KT 2SM BR OVC003 M03/M04 A2994 1010 96 -900 210/10 RMK AO2 T10331039
14926KSTC STC20190115112511101/15/19 11:25:31  5-MIN KSTC 151725Z 21011KT 2SM BR OVC003 M03/M04 A2993 1010 96 -900 200/11 RMK AO2 T10331039
14926KSTC STC20190115113011101/15/19 11:30:31  5-MIN KSTC 151730Z 21010KT 2SM BR OVC003 M03/M04 A2994 1010 96 -900 210/10 RMK AO2 T10331039
14926KSTC STC20190115113511101/15/19 11:35:31  5-MIN KSTC 151735Z 22012KT 2SM BR OVC003 M03/M04 A2994 1010 96 -900 220/12 RMK AO2 T10331039
14926KSTC STC20190115114011201/15/19 11:40:31  5-MIN KSTC 151740Z 23009KT 2SM BR OVC003 M03/M03 A2993 1020 100 -900 230/09 RMK AO2 T10331033
14926KSTC STC20190115114511201/15/19 11:45:31  5-MIN KSTC 151745Z 23007KT 2SM BR OVC003 M03/M03 A2993 1010 100 -900 230/07 RMK AO2 T10331033
14926KSTC STC20190115115014201/15/19 11:50:31  5-MIN KSTC 151750Z 23010KT 2SM BR OVC003 M03/M03 A2993 1010 96 -800 230/10 RMK AO2 SLP163 I6001 T10281033 11028 21050 56019
14926KSTC STC20190115115511101/15/19 11:55:31  5-MIN KSTC 151755Z 23009KT 3SM BR OVC004 M03/M03 A2993 1020 96 -800 230/09 RMK AO2 T10281033
14926KSTC STC20190115120011101/15/19 12:00:31  5-MIN KSTC 151800Z 23011KT 3SM BR OVC004 M03/M03 A2993 1020 96 -800 230/11 RMK AO2 T10281033
14926KSTC STC20190115120511101/15/19 12:05:31  5-MIN KSTC 151805Z 23013KT 3SM BR OVC004 M03/M03 A2992 1020 96 -800 230/13 RMK AO2 T10281033
14926KSTC STC20190115121011101/15/19 12:10:31  5-MIN KSTC 151810Z 24010KT 3SM BR OVC004 M03/M03 A2992 1030 96 -800 230/10 RMK AO2 T10281033
14926KSTC STC20190115121511101/15/19 12:15:31  5-MIN KSTC 151815Z 23011KT 3SM BR OVC004 M03/M03 A2992 1030 96 -800 230/11 RMK AO2 T10281033
14926KSTC STC20190115122011101/15/19 12:20:31  5-MIN KSTC 151820Z 24010KT 3SM BR OVC004 M03/M03 A2992 1030 96 -800 240/10 RMK AO2 T10281033
14926KSTC STC20190115122511101/15/19 12:25:31  5-MIN KSTC 151825Z 24010KT 3SM BR OVC005 M03/M03 A2991 1030 96 -800 240/10 RMK AO2 T10281033
14926KSTC STC20190115123011101/15/19 12:30:31  5-MIN KSTC 151830Z 24012KT 3SM BR OVC005 M02/M03 A2991 1030 92 -700 240/12 RMK AO2 T10221033
14926KSTC STC20190115123511101/15/19 12:35:31  5-MIN KSTC 151835Z 24010KT 3SM BR OVC005 M02/M03 A2991 1030 92 -700 240/10 RMK AO2 T10221033
14926KSTC STC20190115124011101/15/19 12:40:31  5-MIN KSTC 151840Z 24011KT 3SM BR OVC005 M02/M03 A2991 1030 92 -700 240/11 RMK AO2 T10221033
14926KSTC STC20190115124512901/15/19 12:45:31  5-MIN KSTC 151845Z 25016G22KT 3SM BR OVC005 M02/M03 A2991 1040 92 -700 240/16G22 RMK AO2 CIG 005V008 T10221033
14926KSTC STC20190115125013601/15/19 12:50:31  5-MIN KSTC 151850Z 25011G22KT 3SM BR OVC007 M02/M03 A2991 1040 92 -700 250/11G22 RMK AO2 CIG 005V008 SLP153 T10221033
14926KSTC STC20190115125510901/15/19 12:55:31  5-MIN KSTC 151855Z 25014KT 10SM OVC007 M02/M03 A2990 1040 92 -700 250/14 RMK AO2 T10221033
14926KSTC STC20190115130010901/15/19 13:00:31  5-MIN KSTC 151900Z 25013KT 10SM OVC007 M02/M03 A2990 1040 92 -700 250/13 RMK AO2 T10221033
14926KSTC STC20190115130510901/15/19 13:05:31  5-MIN KSTC 151905Z 26013KT 10SM OVC007 M02/M03 A2990 1040 92 -700 260/13 RMK AO2 T10221033
14926KSTC STC20190115131011501/15/19 13:10:31  5-MIN KSTC 151910Z 27010G19KT 10SM OVC007 M02/M03 A2991 1040 92 -700 270/10G19 RMK AO2 T10221033
14926KSTC STC20190115131511501/15/19 13:15:31  5-MIN KSTC 151915Z 27014G21KT 10SM OVC008 M02/M03 A2990 1040 92 -700 270/14G21 RMK AO2 T10221033
14926KSTC STC20190115132011501/15/19 13:20:31  5-MIN KSTC 151920Z 28014G21KT 10SM OVC008 M02/M03 A2990 1040 92 -700 280/14G21 RMK AO2 T10221033
14926KSTC STC20190115132511501/15/19 13:25:31  5-MIN KSTC 151925Z 27013G20KT 10SM OVC008 M02/M03 A2990 1040 92 -700 270/13G20 RMK AO2 T10221033
14926KSTC STC20190115133010901/15/19 13:30:31  5-MIN KSTC 151930Z 27013KT 10SM OVC009 M02/M03 A2990 1040 92 -700 270/13 RMK AO2 T10221033
14926KSTC STC20190115133510901/15/19 13:35:31  5-MIN KSTC 151935Z 28013KT 10SM OVC009 M02/M03 A2991 1040 92 -700 280/13 RMK AO2 T10221033
14926KSTC STC20190115134010901/15/19 13:40:31  5-MIN KSTC 151940Z 28016KT 10SM OVC009 M02/M04 A2991 1040 88 -700 280/16 RMK AO2 T10221039
14926KSTC STC20190115134510901/15/19 13:45:31  5-MIN KSTC 151945Z 27015KT 10SM OVC009 M02/M04 A2991 1040 88 -700 270/15 RMK AO2 T10221039
14926KSTC STC20190115135012201/15/19 13:50:31  5-MIN KSTC 151950Z 29016G24KT 10SM OVC009 M02/M04 A2991 1030 88 -700 290/16G24 RMK AO2 SLP153 T10221039
14926KSTC STC20190115135511501/15/19 13:55:31  5-MIN KSTC 151955Z 28014G24KT 10SM OVC009 M02/M04 A2991 1030 88 -700 280/14G24 RMK AO2 T10221039
14926KSTC STC20190115140010901/15/19 14:00:31  5-MIN KSTC 152000Z 28013KT 10SM OVC009 M02/M04 A2992 1030 88 -700 280/13 RMK AO2 T10221039
14926KSTC STC20190115140511501/15/19 14:05:31  5-MIN KSTC 152005Z 28018G24KT 10SM OVC009 M02/M04 A2992 1030 88 -700 280/18G24 RMK AO2 T10221039
14926KSTC STC20190115141011501/15/19 14:10:31  5-MIN KSTC 152010Z 28015G24KT 10SM OVC009 M02/M04 A2992 1030 85 -700 280/15G24 RMK AO2 T10221044
14926KSTC STC20190115141510901/15/19 14:15:31  5-MIN KSTC 152015Z 29014KT 10SM OVC009 M03/M04 A2992 1030 88 -800 290/14 RMK AO2 T10281044
14926KSTC STC20190115142010901/15/19 14:20:31  5-MIN KSTC 152020Z 30014KT 10SM OVC009 M03/M04 A2992 1020 88 -800 300/14 RMK AO2 T10281044
14926KSTC STC20190115142512101/15/19 14:25:31  5-MIN KSTC 152025Z 29015KT 10SM OVC009 M03/M04 A2993 1020 88 -800 290/15 RMK AO2 CIG 009V013 T10281044
14926KSTC STC20190115143010901/15/19 14:30:31  5-MIN KSTC 152030Z 29013KT 10SM OVC011 M03/M04 A2993 1020 88 -800 290/13 RMK AO2 T10281044
14926KSTC STC20190115143510901/15/19 14:35:31  5-MIN KSTC 152035Z 30014KT 10SM OVC011 M03/M04 A2993 1020 88 -800 300/14 RMK AO2 T10281044
14926KSTC STC20190115144011501/15/19 14:40:31  5-MIN KSTC 152040Z 30015G21KT 10SM OVC011 M03/M04 A2993 1010 88 -800 300/15G21 RMK AO2 T10281044
14926KSTC STC20190115144511501/15/19 14:45:31  5-MIN KSTC 152045Z 31016G22KT 10SM OVC011 M03/M04 A2994 1010 88 -800 310/16G22 RMK AO2 T10281044
14926KSTC STC20190115145012801/15/19 14:50:31  5-MIN KSTC 152050Z 30014G22KT 10SM OVC011 M03/M05 A2994 1010 85 -800 300/14G22 RMK AO2 SLP163 T10281050 56019
14926KSTC STC20190115145511501/15/19 14:55:31  5-MIN KSTC 152055Z 32017G22KT 10SM OVC011 M03/M05 A2994 1010 85 -800 320/17G22 RMK AO2 T10281050
14926KSTC STC20190115150010901/15/19 15:00:31  5-MIN KSTC 152100Z 31014KT 10SM OVC011 M03/M05 A2994 1000 85 -800 310/14 RMK AO2 T10281050
14926KSTC STC20190115150510901/15/19 15:05:31  5-MIN KSTC 152105Z 32014KT 10SM OVC011 M03/M05 A2995 1000 85 -800 320/14 RMK AO2 T10281050
14926KSTC STC20190115151011501/15/19 15:10:31  5-MIN KSTC 152110Z 31017G23KT 10SM OVC011 M03/M06 A2995 1000 85 -900 310/17G23 RMK AO2 T10331056
14926KSTC STC20190115151511501/15/19 15:15:31  5-MIN KSTC 152115Z 31014G23KT 10SM OVC011 M03/M05 A2995 1000 88 -900 310/14G23 RMK AO2 T10331050
14926KSTC STC20190115152010801/15/19 15:20:31  5-MIN KSTC 152120Z 31012KT 9SM OVC011 M03/M05 A2995 1000 88 -900 310/12 RMK AO2 T10331050
14926KSTC STC20190115152510701/15/19 15:25:31  5-MIN KSTC 152125Z 31013KT 9SM OVC011 M03/M05 A2996 990 88 -900 310/13 RMK AO2 T10331050
14926KSTC STC20190115153011301/15/19 15:30:31  5-MIN KSTC 152130Z 31014G20KT 9SM OVC011 M03/M05 A2996 990 88 -900 310/14G20 RMK AO2 T10331050
14926KSTC STC20190115153510701/15/19 15:35:31  5-MIN KSTC 152135Z 31014KT 9SM OVC011 M03/M05 A2996 990 88 -900 310/14 RMK AO2 T10331050
14926KSTC STC20190115154010701/15/19 15:40:31  5-MIN KSTC 152140Z 31012KT 8SM OVC011 M03/M05 A2996 990 88 -900 310/12 RMK AO2 T10331050
14926KSTC STC20190115154510701/15/19 15:45:31  5-MIN KSTC 152145Z 31013KT 8SM OVC011 M03/M05 A2996 990 88 -900 310/13 RMK AO2 T10331050
14926KSTC STC20190115155011401/15/19 15:50:31  5-MIN KSTC 152150Z 32012KT 8SM OVC011 M03/M05 A2997 980 88 -900 320/12 RMK AO2 SLP173 T10331050
14926KSTC STC20190115155511301/15/19 15:55:31  5-MIN KSTC 152155Z 30015G20KT 8SM OVC011 M03/M05 A2997 980 88 -900 300/15G20 RMK AO2 T10331050
14926KSTC STC20190115160011301/15/19 16:00:31  5-MIN KSTC 152200Z 31013G21KT 8SM OVC011 M03/M05 A2997 980 88 -900 310/13G21 RMK AO2 T10331050
14926KSTC STC20190115160511301/15/19 16:05:31  5-MIN KSTC 152205Z 30009G21KT 8SM OVC011 M03/M05 A2997 980 85 -900 300/09G21 RMK AO2 T10281050
14926KSTC STC20190115161010701/15/19 16:10:31  5-MIN KSTC 152210Z 31009KT 8SM OVC011 M03/M05 A2997 980 85 -900 310/09 RMK AO2 T10281050
14926KSTC STC20190115161510701/15/19 16:15:31  5-MIN KSTC 152215Z 30012KT 8SM OVC011 M03/M05 A2997 980 85 -900 300/12 RMK AO2 T10281050
14926KSTC STC20190115162010701/15/19 16:20:31  5-MIN KSTC 152220Z 30011KT 8SM OVC012 M03/M05 A2997 980 85 -900 300/11 RMK AO2 T10281050
14926KSTC STC20190115162510701/15/19 16:25:31  5-MIN KSTC 152225Z 30012KT 8SM OVC012 M03/M05 A2998 970 85 -900 300/12 RMK AO2 T10281050
14926KSTC STC20190115163010701/15/19 16:30:31  5-MIN KSTC 152230Z 30011KT 8SM OVC012 M03/M05 A2998 970 85 -900 300/11 RMK AO2 T10281050
14926KSTC STC20190115163510701/15/19 16:35:31  5-MIN KSTC 152235Z 31011KT 8SM OVC012 M03/M05 A2998 970 85 -900 300/11 RMK AO2 T10281050
14926KSTC STC20190115164010701/15/19 16:40:31  5-MIN KSTC 152240Z 30012KT 8SM OVC012 M03/M05 A2998 970 85 -900 300/12 RMK AO2 T10281050
14926KSTC STC20190115164511401/15/19 16:45:31  5-MIN KSTC 152245Z 31013KT 8SM BKN012 OVC022 M03/M05 A2998 970 85 -900 310/13 RMK AO2 T10281050
14926KSTC STC20190115165012101/15/19 16:50:31  5-MIN KSTC 152250Z 30013KT 8SM BKN014 OVC022 M03/M05 A2998 970 85 -900 300/13 RMK AO2 SLP176 T10281050
14926KSTC STC20190115165511401/15/19 16:55:31  5-MIN KSTC 152255Z 31010KT 8SM BKN016 OVC022 M03/M05 A2998 970 85 -900 310/10 RMK AO2 T10281050
14926KSTC STC20190115170011401/15/19 17:00:31  5-MIN KSTC 152300Z 30011KT 9SM BKN016 OVC022 M03/M05 A2999 970 85 -900 290/11 RMK AO2 T10281050
14926KSTC STC20190115170510801/15/19 17:05:31  5-MIN KSTC 152305Z 31011KT 10SM OVC018 M03/M06 A2999 970 81 -900 310/11 RMK AO2 T10281056
14926KSTC STC20190115171010801/15/19 17:10:31  5-MIN KSTC 152310Z 31013KT 10SM OVC018 M03/M06 A2999 970 81 -900 310/13 RMK AO2 T10281056
14926KSTC STC20190115171510801/15/19 17:15:31  5-MIN KSTC 152315Z 31012KT 10SM OVC018 M03/M06 A2999 960 81 -900 310/12 RMK AO2 T10281056
14926KSTC STC20190115172010801/15/19 17:20:31  5-MIN KSTC 152320Z 30013KT 10SM OVC018 M03/M06 A2999 960 81 -900 300/13 RMK AO2 T10281056
14926KSTC STC20190115172511401/15/19 17:25:31  5-MIN KSTC 152325Z 31015G24KT 10SM OVC018 M03/M06 A3000 960 81 -900 310/15G24 RMK AO2 T10281056
14926KSTC STC20190115173011401/15/19 17:30:31  5-MIN KSTC 152330Z 31012G24KT 10SM OVC018 M03/M06 A3000 960 81 -900 310/12G24 RMK AO2 T10281056
14926KSTC STC20190115173510801/15/19 17:35:31  5-MIN KSTC 152335Z 32013KT 10SM OVC018 M03/M06 A3000 950 81 -900 320/13 RMK AO2 T10281056
14926KSTC STC20190115174010801/15/19 17:40:31  5-MIN KSTC 152340Z 31011KT 10SM OVC018 M03/M06 A3000 950 81 -900 310/11 RMK AO2 T10281056
14926KSTC STC20190115174510801/15/19 17:45:31  5-MIN KSTC 152345Z 31014KT 10SM OVC020 M03/M06 A3000 950 78 -900 310/14 RMK AO2 T10281061
14926KSTC STC20190115175013301/15/19 17:50:31  5-MIN KSTC 152350Z 31011KT 10SM OVC020 M03/M06 A3000 950 78 -900 310/11 RMK AO2 SLP183 T10281061 11022 21033 53003
14926KSTC STC20190115175510801/15/19 17:55:31  5-MIN KSTC 152355Z 31013KT 10SM OVC022 M03/M06 A3001 950 78 -900 310/13 RMK AO2 T10281061
14926KSTC STC20190115180011401/15/19 18:00:31  5-MIN KSTC 160000Z 31015G22KT 10SM OVC022 M03/M07 A3000 950 75 -900 310/15G22 RMK AO2 T10281067
14926KSTC STC20190115180511401/15/19 18:05:31  5-MIN KSTC 160005Z 31013G22KT 10SM OVC022 M03/M07 A3001 950 75 -900 310/13G22 RMK AO2 T10281067
14926KSTC STC20190115181010801/15/19 18:10:31  5-MIN KSTC 160010Z 31012KT 10SM OVC022 M03/M07 A3001 940 75 -900 310/12 RMK AO2 T10281067
14926KSTC STC20190115181510801/15/19 18:15:31  5-MIN KSTC 160015Z 31013KT 10SM OVC023 M03/M07 A3001 940 75 -900 310/13 RMK AO2 T10281067
14926KSTC STC20190115182010801/15/19 18:20:31  5-MIN KSTC 160020Z 31011KT 10SM OVC023 M03/M07 A3001 940 75 -900 310/11 RMK AO2 T10281067
14926KSTC STC20190115182510901/15/19 18:25:31  5-MIN KSTC 160025Z 31014KT 10SM OVC023 M03/M07 A3001 940 74 -1000 310/14 RMK AO2 T10331072
14926KSTC STC20190115183011501/15/19 18:30:31  5-MIN KSTC 160030Z 30017G22KT 10SM BKN023 M03/M07 A3002 940 74 -1000 300/17G22 RMK AO2 T10331072
14926KSTC STC20190115183510901/15/19 18:35:31  5-MIN KSTC 160035Z 31015KT 10SM BKN023 M04/M07 A3002 930 78 -1100 310/15 RMK AO2 T10391072
14926KSTC STC20190115184010901/15/19 18:40:31  5-MIN KSTC 160040Z 31016KT 10SM BKN023 M04/M08 A3002 930 74 -1100 310/16 RMK AO2 T10391078
14926KSTC STC20190115184513301/15/19 18:45:31  5-MIN KSTC 160045Z 31020G27KT 10SM BKN023 M04/M08 A3003 930 71 -1100 300/20G27 RMK AO2 PK WND 31027/0043 T10391083
14926KSTC STC20190115185012301/15/19 18:50:31  5-MIN KSTC 160050Z 31018G27KT 10SM SCT023 M04/M09 A3003 930 71 -1200 310/18G27 RMK AO2 PK WND 31027/0043
14926KSTC STC20190115185510901/15/19 18:55:31  5-MIN KSTC 160055Z 31016KT 10SM FEW023 M04/M09 A3003 920 71 -1200 310/16 RMK AO2 T10441089
14926KSTC STC20190115190010901/15/19 19:00:31  5-MIN KSTC 160100Z 31014KT 10SM FEW023 M05/M09 A3003 920 74 -1200 310/14 RMK AO2 T10501089
14926KSTC STC20190115190511501/15/19 19:05:31  5-MIN KSTC 160105Z 32011G21KT 10SM FEW024 M05/M09 A3004 920 71 -1200 310/11G21 RMK AO2 T10501094
14926KSTC STC20190115191010601/15/19 19:10:31  5-MIN KSTC 160110Z 32011KT 10SM CLR M05/M09 A3004 920 71 -1200 320/11 RMK AO2 T10501094
14926KSTC STC20190115191511201/15/19 19:15:31  5-MIN KSTC 160115Z 32012G18KT 10SM CLR M05/M09 A3004 910 71 -1200 320/12G18 RMK AO2 T10501094
14926KSTC STC20190115192011201/15/19 19:20:31  5-MIN KSTC 160120Z 32009G18KT 10SM CLR M05/M09 A3005 910 71 -1200 320/09G18 RMK AO2 T10501094
14926KSTC STC20190115192511201/15/19 19:25:31  5-MIN KSTC 160125Z 32010G17KT 10SM CLR M06/M10 A3005 910 71 -1300 320/10G17 RMK AO2 T10561100
14926KSTC STC20190115193011201/15/19 19:30:31  5-MIN KSTC 160130Z 32009G18KT 10SM CLR M06/M10 A3005 900 71 -1300 320/09G18 RMK AO2 T10561100
14926KSTC STC20190115193511201/15/19 19:35:31  5-MIN KSTC 160135Z 31011G18KT 10SM CLR M06/M10 A3006 900 71 -1300 310/11G18 RMK AO2 T10561100
14926KSTC STC20190115194010601/15/19 19:40:31  5-MIN KSTC 160140Z 31013KT 10SM CLR M07/M11 A3006 900 74 -1500 310/13 RMK AO2 T10671106
14926KSTC STC20190115194510601/15/19 19:45:31  5-MIN KSTC 160145Z 31014KT 10SM CLR M07/M11 A3006 890 74 -1500 310/14 RMK AO2 T10671106
14926KSTC STC20190115195011301/15/19 19:50:31  5-MIN KSTC 160150Z 31012KT 10SM CLR M07/M11 A3007 890 77 -1600 310/12 RMK AO2 SLP207 T10721106
14926KSTC STC20190115195510601/15/19 19:55:31  5-MIN KSTC 160155Z 31011KT 10SM CLR M07/M11 A3007 890 74 -1600 310/11 RMK AO2 T10721111
14926KSTC STC20190115200010601/15/19 20:00:31  5-MIN KSTC 160200Z 32011KT 10SM CLR M07/M11 A3007 880 74 -1600 310/11 RMK AO2 T10721111
14926KSTC STC20190115200510601/15/19 20:05:31  5-MIN KSTC 160205Z 32012KT 10SM CLR M07/M11 A3008 880 74 -1600 320/12 RMK AO2 T10721111
14926KSTC STC20190115201010601/15/19 20:10:31  5-MIN KSTC 160210Z 32010KT 10SM CLR M07/M11 A3008 880 74 -1600 320/10 RMK AO2 T10721111
14926KSTC STC20190115201511201/15/19 20:15:31  5-MIN KSTC 160215Z 32010G19KT 10SM CLR M07/M12 A3008 870 71 -1600 320/10G19 RMK AO2 T10721117
14926KSTC STC20190115202011201/15/19 20:20:31  5-MIN KSTC 160220Z 32011G19KT 10SM CLR M07/M12 A3009 870 71 -1600 320/11G19 RMK AO2 T10721117
14926KSTC STC20190115202510601/15/19 20:25:31  5-MIN KSTC 160225Z 32010KT 10SM CLR M08/M12 A3009 870 74 -1700 320/10 RMK AO2 T10781117
14926KSTC STC20190115203010601/15/19 20:30:31  5-MIN KSTC 160230Z 32009KT 10SM CLR M08/M12 A3010 860 74 -1700 320/09 RMK AO2 T10781117
14926KSTC STC20190115203510601/15/19 20:35:31  5-MIN KSTC 160235Z 31011KT 10SM CLR M08/M12 A3010 860 77 -1700 310/11 RMK AO2 T10831117
14926KSTC STC20190115204010601/15/19 20:40:31  5-MIN KSTC 160240Z 31011KT 10SM CLR M08/M12 A3011 850 74 -1700 310/11 RMK AO2 T10831122
14926KSTC STC20190115204510601/15/19 20:45:31  5-MIN KSTC 160245Z 32012KT 10SM CLR M09/M12 A3011 850 77 -1800 320/12 RMK AO2 T10891122
14926KSTC STC20190115205012501/15/19 20:50:31  5-MIN KSTC 160250Z 31012G19KT 10SM CLR M08/M12 A3012 850 74 -1800 310/12G19 RMK AO2 SLP224 T10831122 51021
14926KSTC STC20190115205511301/15/19 20:55:31  5-MIN KSTC 160255Z 31012KT 10SM CLR M09/M12 A3012 840 77 -1800 310/12 RMK AO2 PRESRR T10891122
14926KSTC STC20190115210011301/15/19 21:00:31  5-MIN KSTC 160300Z 31011KT 10SM CLR M09/M12 A3013 840 77 -1800 310/11 RMK AO2 PRESRR T10891122
14926KSTC STC20190115210510601/15/19 21:05:31  5-MIN KSTC 160305Z 31011KT 10SM CLR M09/M13 A3013 830 77 -1900 310/11 RMK AO2 T10941128
14926KSTC STC20190115211010601/15/19 21:10:31  5-MIN KSTC 160310Z 31011KT 10SM CLR M09/M13 A3013 830 77 -1900 310/11 RMK AO2 T10941128
14926KSTC STC20190115211510601/15/19 21:15:31  5-MIN KSTC 160315Z 32010KT 10SM CLR M09/M13 A3013 830 74 -1900 320/10 RMK AO2 T10891128
14926KSTC STC20190115212010601/15/19 21:20:31  5-MIN KSTC 160320Z 33010KT 10SM CLR M09/M13 A3014 830 77 -1900 330/10 RMK AO2 T10941128
14926KSTC STC20190115212510601/15/19 21:25:31  5-MIN KSTC 160325Z 32008KT 10SM CLR M09/M13 A3014 820 77 -1900 320/08 RMK AO2 T10941128
14926KSTC STC20190115213010601/15/19 21:30:31  5-MIN KSTC 160330Z 33008KT 10SM CLR M09/M13 A3014 820 73 -1900 320/08 RMK AO2 T10941133
14926KSTC STC20190115213510601/15/19 21:35:31  5-MIN KSTC 160335Z 33009KT 10SM CLR M10/M13 A3015 820 77 -2000 330/09 RMK AO2 T11001133
14926KSTC STC20190115214011201/15/19 21:40:31  5-MIN KSTC 160340Z 33010G17KT 10SM CLR M10/M13 A3015 810 77 -2000 330/10G17 RMK AO2 T11001133
14926KSTC STC20190115214511201/15/19 21:45:31  5-MIN KSTC 160345Z 32010G17KT 10SM CLR M10/M14 A3016 810 73 -2000 320/10G17 RMK AO2 T11001139
14926KSTC STC20190115215011901/15/19 21:50:31  5-MIN KSTC 160350Z 33011G19KT 10SM CLR M11/M14 A3016 810 77 -2100 330/11G19 RMK AO2 SLP240 T11061139
14926KSTC STC20190115215511201/15/19 21:55:31  5-MIN KSTC 160355Z 33012G19KT 10SM CLR M11/M14 A3016 800 73 -2100 330/12G19 RMK AO2 T11061144
14926KSTC STC20190115220010601/15/19 22:00:31  5-MIN KSTC 160400Z 32011KT 10SM CLR M11/M14 A3017 800 73 -2100 320/11 RMK AO2 T11061144
14926KSTC STC20190115220510601/15/19 22:05:31  5-MIN KSTC 160405Z 32010KT 10SM CLR M11/M14 A3017 800 77 -2200 320/10 RMK AO2 T11111144
14926KSTC STC20190115221010601/15/19 22:10:31  5-MIN KSTC 160410Z 33011KT 10SM CLR M11/M14 A3017 790 77 -2200 320/11 RMK AO2 T11111144
14926KSTC STC20190115221511201/15/19 22:15:31  5-MIN KSTC 160415Z 33012G20KT 10SM CLR M11/M15 A3018 790 73 -2200 330/12G20 RMK AO2 T11111150
14926KSTC STC20190115222011201/15/19 22:20:31  5-MIN KSTC 160420Z 32010G20KT 10SM CLR M12/M15 A3018 790 76 -2300 320/10G20 RMK AO2 T11171150
14926KSTC STC20190115222510601/15/19 22:25:31  5-MIN KSTC 160425Z 32010KT 10SM CLR M12/M16 A3018 780 73 -2300 320/10 RMK AO2 T11171156
14926KSTC STC20190115223011201/15/19 22:30:31  5-MIN KSTC 160430Z 32009G17KT 10SM CLR M12/M16 A3019 780 73 -2300 320/09G17 RMK AO2 T11171156
14926KSTC STC20190115223510601/15/19 22:35:31  5-MIN KSTC 160435Z 32009KT 10SM CLR M12/M16 A3019 780 76 -2400 320/09 RMK AO2 T11221156
14926KSTC STC20190115224010601/15/19 22:40:31  5-MIN KSTC 160440Z 32009KT 10SM CLR M12/M16 A3019 770 76 -2400 320/09 RMK AO2 T11221156
14926KSTC STC20190115224510601/15/19 22:45:31  5-MIN KSTC 160445Z 32011KT 10SM CLR M12/M16 A3020 770 73 -2400 320/11 RMK AO2 T11221161
14926KSTC STC20190115225011301/15/19 22:50:31  5-MIN KSTC 160450Z 32010KT 10SM CLR M12/M16 A3020 770 73 -2400 310/10 RMK AO2 SLP255 T11221161
14926KSTC STC20190115225510601/15/19 22:55:31  5-MIN KSTC 160455Z 32009KT 10SM CLR M13/M16 A3020 760 76 -2400 320/09 RMK AO2 T11281161
14926KSTC STC20190115230011101/15/19 23:00:31  5-MIN KSTC 160500Z AUTO 32010KT 10SM CLR M13/M16 A3021 760 76 -2400 320/10 RMK AO2 T11281161
14926KSTC STC20190115230511101/15/19 23:05:31  5-MIN KSTC 160505Z AUTO 31010KT 10SM CLR M13/M16 A3021 760 76 -2500 310/10 RMK AO2 T11281161
14926KSTC STC20190115231011101/15/19 23:10:31  5-MIN KSTC 160510Z AUTO 32008KT 10SM CLR M13/M16 A3021 760 76 -2500 320/08 RMK AO2 T11281161
14926KSTC STC20190115231511101/15/19 23:15:31  5-MIN KSTC 160515Z AUTO 32008KT 10SM CLR M13/M16 A3021 760 76 -2500 320/08 RMK AO2 T11281161
14926KSTC STC20190115232011101/15/19 23:20:31  5-MIN KSTC 160520Z AUTO 32009KT 10SM CLR M13/M17 A3022 750 73 -2500 320/09 RMK AO2 T11281167
14926KSTC STC20190115232511101/15/19 23:25:31  5-MIN KSTC 160525Z AUTO 33008KT 10SM CLR M13/M17 A3022 750 76 -2500 320/08 RMK AO2 T11331167
14926KSTC STC20190115233011101/15/19 23:30:31  5-MIN KSTC 160530Z AUTO 33008KT 10SM CLR M13/M17 A3022 750 76 -2500 330/08 RMK AO2 T11331167
14926KSTC STC20190115233511101/15/19 23:35:31  5-MIN KSTC 160535Z AUTO 32009KT 10SM CLR M13/M17 A3022 750 76 -2500 320/09 RMK AO2 T11331167
14926KSTC STC20190115234011101/15/19 23:40:31  5-MIN KSTC 160540Z AUTO 33008KT 10SM CLR M13/M17 A3022 750 76 -2500 330/08 RMK AO2 T11331167
14926KSTC STC20190115234511101/15/19 23:45:31  5-MIN KSTC 160545Z AUTO 33008KT 10SM CLR M13/M17 A3022 750 76 -2500 330/08 RMK AO2 T11331167
14926KSTC STC20190115235014601/15/19 23:50:31  5-MIN KSTC 160550Z AUTO 33007KT 10SM CLR M13/M17 A3022 750 76 -2500 330/07 RMK AO2 SLP263 T11331167 11028 21133 410221133 53038
14926KSTC STC20190115235511101/15/19 23:55:31  5-MIN KSTC 160555Z AUTO 34008KT 10SM CLR M14/M17 A3022 750 80 -2600 330/08 RMK AO2 T11391167
14926KSTC STC20190116000011101/16/19 00:00:31  5-MIN KSTC 160600Z AUTO 33008KT 10SM CLR M14/M17 A3022 750 76 -2600 330/08 RMK AO2 T11391172
14926KSTC STC20190116000511101/16/19 00:05:31  5-MIN KSTC 160605Z AUTO 32006KT 10SM CLR M14/M17 A3023 740 80 -2600 320/06 RMK AO2 T11391167
14926KSTC STC20190116001011101/16/19 00:10:31  5-MIN KSTC 160610Z AUTO 33007KT 10SM CLR M14/M17 A3023 740 76 -2600 330/07 RMK AO2 T11391172
14926KSTC STC20190116001511101/16/19 00:15:31  5-MIN KSTC 160615Z AUTO 33007KT 10SM CLR M14/M17 A3023 740 76 -2600 330/07 RMK AO2 T11391172
14926KSTC STC20190116002011101/16/19 00:20:31  5-MIN KSTC 160620Z AUTO 32007KT 10SM CLR M14/M17 A3023 740 76 -2600 320/07 RMK AO2 T11391172
14926KSTC STC20190116002511101/16/19 00:25:31  5-MIN KSTC 160625Z AUTO 33007KT 10SM CLR M14/M17 A3023 740 80 -2700 330/07 RMK AO2 T11441172
14926KSTC STC20190116003011101/16/19 00:30:31  5-MIN KSTC 160630Z AUTO 34006KT 10SM CLR M14/M17 A3023 740 80 -2700 340/06 RMK AO2 T11441172
14926KSTC STC20190116003511101/16/19 00:35:31  5-MIN KSTC 160635Z AUTO 33006KT 10SM CLR M14/M17 A3024 730 80 -2700 330/06 RMK AO2 T11441172
14926KSTC STC20190116004011101/16/19 00:40:31  5-MIN KSTC 160640Z AUTO 33006KT 10SM CLR M14/M17 A3024 730 80 -2700 330/06 RMK AO2 T11441172
14926KSTC STC20190116004511101/16/19 00:45:31  5-MIN KSTC 160645Z AUTO 33006KT 10SM CLR M14/M17 A3024 730 80 -2700 320/06 RMK AO2 T11441172
14926KSTC STC20190116005011801/16/19 00:50:31  5-MIN KSTC 160650Z AUTO 34007KT 10SM CLR M14/M17 A3024 730 80 -2700 340/07 RMK AO2 SLP269 T11441172
14926KSTC STC20190116005511101/16/19 00:55:31  5-MIN KSTC 160655Z AUTO 34006KT 10SM CLR M14/M17 A3024 730 80 -2700 340/06 RMK AO2 T11441172
14926KSTC STC20190116010011101/16/19 01:00:31  5-MIN KSTC 160700Z AUTO 35008KT 10SM CLR M14/M18 A3025 730 76 -2700 350/08 RMK AO2 T11441178
14926KSTC STC20190116010511101/16/19 01:05:31  5-MIN KSTC 160705Z AUTO 35008KT 10SM CLR M14/M18 A3024 730 76 -2700 350/08 RMK AO2 T11441178
14926KSTC STC20190116011011101/16/19 01:10:31  5-MIN KSTC 160710Z AUTO 36009KT 10SM CLR M14/M18 A3024 730 76 -2700 360/09 RMK AO2 T11441178
14926KSTC STC20190116011511101/16/19 01:15:31  5-MIN KSTC 160715Z AUTO 36011KT 10SM CLR M14/M18 A3024 730 73 -2700 360/11 RMK AO2 T11441183
14926KSTC STC20190116012011101/16/19 01:20:31  5-MIN KSTC 160720Z AUTO 36011KT 10SM CLR M14/M18 A3023 740 73 -2700 360/11 RMK AO2 T11441183
14926KSTC STC20190116012511101/16/19 01:25:31  5-MIN KSTC 160725Z AUTO 36011KT 10SM CLR M14/M18 A3023 740 73 -2700 360/11 RMK AO2 T11441183
14926KSTC STC20190116013011101/16/19 01:30:31  5-MIN KSTC 160730Z AUTO 36008KT 10SM CLR M15/M18 A3024 730 76 -2800 350/08 RMK AO2 T11501183
14926KSTC STC20190116013511101/16/19 01:35:31  5-MIN KSTC 160735Z AUTO 35009KT 10SM CLR M15/M18 A3024 730 76 -2800 350/09 RMK AO2 T11501183
14926KSTC STC20190116014011701/16/19 01:40:31  5-MIN KSTC 160740Z AUTO 35008G16KT 10SM CLR M15/M18 A3025 720 76 -2800 350/08G16 RMK AO2 T11501183
14926KSTC STC20190116014511101/16/19 01:45:31  5-MIN KSTC 160745Z AUTO 35008KT 10SM CLR M15/M18 A3026 720 76 -2800 350/08 RMK AO2 T11501183
14926KSTC STC20190116015011801/16/19 01:50:31  5-MIN KSTC 160750Z AUTO 35007KT 10SM CLR M15/M19 A3026 720 72 -2800 350/07 RMK AO2 SLP276 T11501189
14926KSTC STC20190116015511101/16/19 01:55:31  5-MIN KSTC 160755Z AUTO 35006KT 10SM CLR M15/M19 A3026 720 72 -2800 350/06 RMK AO2 T11501189
14926KSTC STC20190116020011101/16/19 02:00:31  5-MIN KSTC 160800Z AUTO 35007KT 10SM CLR M15/M19 A3026 710 72 -2800 350/07 RMK AO2 T11501189
14926KSTC STC20190116020511101/16/19 02:05:31  5-MIN KSTC 160805Z AUTO 35007KT 10SM CLR M16/M19 A3026 710 76 -2900 350/07 RMK AO2 T11561189
14926KSTC STC20190116021011101/16/19 02:10:31  5-MIN KSTC 160810Z AUTO 35006KT 10SM CLR M16/M19 A3026 710 76 -2900 350/06 RMK AO2 T11561189
14926KSTC STC20190116021511101/16/19 02:15:31  5-MIN KSTC 160815Z AUTO 35007KT 10SM CLR M16/M19 A3027 710 76 -2900 350/07 RMK AO2 T11561189
14926KSTC STC20190116022011101/16/19 02:20:31  5-MIN KSTC 160820Z AUTO 35008KT 10SM CLR M16/M19 A3027 710 76 -2900 350/08 RMK AO2 T11561189
14926KSTC STC20190116022511101/16/19 02:25:31  5-MIN KSTC 160825Z AUTO 35008KT 10SM CLR M16/M19 A3027 710 76 -2900 350/08 RMK AO2 T11561189
14926KSTC STC20190116023011101/16/19 02:30:31  5-MIN KSTC 160830Z AUTO 35007KT 10SM CLR M16/M19 A3027 700 76 -2900 350/07 RMK AO2 T11561189
14926KSTC STC20190116023511101/16/19 02:35:31  5-MIN KSTC 160835Z AUTO 34006KT 10SM CLR M16/M19 A3028 700 76 -2900 340/06 RMK AO2 T11561189
14926KSTC STC20190116024011101/16/19 02:40:31  5-MIN KSTC 160840Z AUTO 33006KT 10SM CLR M16/M19 A3028 700 79 -3000 330/06 RMK AO2 T11611189
14926KSTC STC20190116024511101/16/19 02:45:31  5-MIN KSTC 160845Z AUTO 33005KT 10SM CLR M16/M19 A3028 690 79 -3000 330/05 RMK AO2 T11611189
14926KSTC STC20190116025012401/16/19 02:50:31  5-MIN KSTC 160850Z AUTO 34005KT 10SM CLR M16/M19 A3029 690 79 -3000 340/05 RMK AO2 SLP287 T11611189 51034
14926KSTC STC20190116025511101/16/19 02:55:31  5-MIN KSTC 160855Z AUTO 34005KT 10SM CLR M16/M19 A3028 690 79 -3000 340/05 RMK AO2 T11611189
14926KSTC STC20190116030011101/16/19 03:00:31  5-MIN KSTC 160900Z AUTO 35005KT 10SM CLR M16/M19 A3028 690 76 -3000 350/05 RMK AO2 T11611194
14926KSTC STC20190116030511101/16/19 03:05:31  5-MIN KSTC 160905Z AUTO 35005KT 10SM CLR M16/M19 A3028 690 76 -3000 350/05 RMK AO2 T11611194
14926KSTC STC20190116031011101/16/19 03:10:31  5-MIN KSTC 160910Z AUTO 34004KT 10SM CLR M16/M19 A3029 690 76 -3000 340/04 RMK AO2 T11611194
14926KSTC STC20190116031511101/16/19 03:15:31  5-MIN KSTC 160915Z AUTO 33005KT 10SM CLR M17/M19 A3029 690 79 -3100 330/05 RMK AO2 T11671194
14926KSTC STC20190116032011101/16/19 03:20:31  5-MIN KSTC 160920Z AUTO 34004KT 10SM CLR M17/M19 A3029 680 79 -3100 340/04 RMK AO2 T11671194
14926KSTC STC20190116032511101/16/19 03:25:31  5-MIN KSTC 160925Z AUTO 34004KT 10SM CLR M17/M19 A3029 680 79 -3100 340/04 RMK AO2 T11671194
14926KSTC STC20190116033011101/16/19 03:30:31  5-MIN KSTC 160930Z AUTO 34005KT 10SM CLR M17/M19 A3029 680 79 -3100 340/05 RMK AO2 T11671194
14926KSTC STC20190116033511101/16/19 03:35:31  5-MIN KSTC 160935Z AUTO 33004KT 10SM CLR M17/M19 A3029 680 79 -3100 330/04 RMK AO2 T11671194
14926KSTC STC20190116034011101/16/19 03:40:31  5-MIN KSTC 160940Z AUTO 33004KT 10SM CLR M17/M19 A3029 680 79 -3100 330/04 RMK AO2 T11671194
14926KSTC STC20190116034511101/16/19 03:45:31  5-MIN KSTC 160945Z AUTO 33004KT 10SM CLR M17/M19 A3029 680 79 -3100 330/04 RMK AO2 T11671194
14926KSTC STC20190116035011801/16/19 03:50:31  5-MIN KSTC 160950Z AUTO 35005KT 10SM CLR M17/M19 A3029 690 79 -3100 340/05 RMK AO2 SLP287 T11671194
14926KSTC STC20190116035511101/16/19 03:55:31  5-MIN KSTC 160955Z AUTO 35005KT 10SM CLR M17/M19 A3029 690 79 -3100 350/05 RMK AO2 T11671194
14926KSTC STC20190116040011101/16/19 04:00:31  5-MIN KSTC 161000Z AUTO 35005KT 10SM CLR M17/M19 A3029 680 79 -3100 340/05 RMK AO2 T11671194
14926KSTC STC20190116040511101/16/19 04:05:31  5-MIN KSTC 161005Z AUTO 34004KT 10SM CLR M17/M19 A3029 680 79 -3100 340/04 RMK AO2 T11671194
14926KSTC STC20190116041011101/16/19 04:10:31  5-MIN KSTC 161010Z AUTO 33004KT 10SM CLR M17/M19 A3030 680 79 -3100 330/04 RMK AO2 T11671194
14926KSTC STC20190116041511101/16/19 04:15:31  5-MIN KSTC 161015Z AUTO 32003KT 10SM CLR M17/M19 A3030 680 79 -3100 320/03 RMK AO2 T11671194
14926KSTC STC20190116042011101/16/19 04:20:31  5-MIN KSTC 161020Z AUTO 30004KT 10SM CLR M17/M19 A3030 670 79 -3100 300/04 RMK AO2 T11671194
14926KSTC STC20190116042511101/16/19 04:25:31  5-MIN KSTC 161025Z AUTO 31005KT 10SM CLR M17/M19 A3030 670 83 -3200 310/05 RMK AO2 T11721194
14926KSTC STC20190116043011101/16/19 04:30:31  5-MIN KSTC 161030Z AUTO 32004KT 10SM CLR M17/M19 A3030 670 83 -3200 320/04 RMK AO2 T11721194
14926KSTC STC20190116043511101/16/19 04:35:31  5-MIN KSTC 161035Z AUTO 32003KT 10SM CLR M17/M19 A3030 670 79 -3100 320/03 RMK AO2 T11671194
14926KSTC STC20190116044011101/16/19 04:40:31  5-MIN KSTC 161040Z AUTO 32004KT 10SM CLR M17/M19 A3031 670 83 -3200 320/04 RMK AO2 T11721194
14926KSTC STC20190116044511101/16/19 04:45:31  5-MIN KSTC 161045Z AUTO 34004KT 10SM CLR M17/M19 A3030 680 83 -3200 340/04 RMK AO2 T11721194
14926KSTC STC20190116045011801/16/19 04:50:31  5-MIN KSTC 161050Z AUTO 33004KT 10SM CLR M17/M19 A3030 670 83 -3200 330/04 RMK AO2 SLP292 T11721194
14926KSTC STC20190116045511101/16/19 04:55:31  5-MIN KSTC 161055Z AUTO 32004KT 10SM CLR M17/M19 A3030 670 83 -3200 320/04 RMK AO2 T11721194
14926KSTC STC20190116050011101/16/19 05:00:31  5-MIN KSTC 161100Z AUTO 33004KT 10SM CLR M17/M19 A3031 670 83 -3200 330/04 RMK AO2 T11721194
14926KSTC STC20190116050511101/16/19 05:05:31  5-MIN KSTC 161105Z AUTO 33004KT 10SM CLR M17/M20 A3030 670 79 -3200 330/04 RMK AO2 T11721200
14926KSTC STC20190116051011101/16/19 05:10:31  5-MIN KSTC 161110Z AUTO 34005KT 10SM CLR M17/M20 A3030 680 79 -3200 340/05 RMK AO2 T11721200
14926KSTC STC20190116051511101/16/19 05:15:31  5-MIN KSTC 161115Z AUTO 35005KT 10SM CLR M17/M20 A3030 680 79 -3200 350/05 RMK AO2 T11721200
14926KSTC STC20190116052010101/16/19 05:20:31  5-MIN KSTC 161120Z AUTO 10SM CLR M17/M20 A3030 670 79 -3200 M /M RMK AO2 T11721200
14926KSTC STC20190116052510101/16/19 05:25:31  5-MIN KSTC 161125Z AUTO 10SM CLR M17/M20 A3030 670 79 -3200 M /M RMK AO2 T11721200
14926KSTC STC20190116053010101/16/19 05:30:31  5-MIN KSTC 161130Z AUTO 10SM CLR M17/M20 A3030 680 79 -3200 M /M RMK AO2 T11721200
14926KSTC STC20190116053510101/16/19 05:35:31  5-MIN KSTC 161135Z AUTO 10SM CLR M18/M20 A3030 670 83 -3200 M /M RMK AO2 T11781200
14926KSTC STC20190116054011101/16/19 05:40:31  5-MIN KSTC 161140Z AUTO 33004KT 10SM CLR M18/M20 A3031 670 83 -3200 320/04 RMK AO2 T11781200
14926KSTC STC20190116054511101/16/19 05:45:31  5-MIN KSTC 161145Z AUTO 32004KT 10SM CLR M18/M20 A3031 670 83 -3200 320/04 RMK AO2 T11781200
14926KSTC STC20190116055013601/16/19 05:50:31  5-MIN KSTC 161150Z AUTO 32004KT 10SM CLR M18/M20 A3031 670 83 -3200 320/04 RMK AO2 SLP294 T11781200 11139 21178 53021
14926KSTC STC20190116055511101/16/19 05:55:31  5-MIN KSTC 161155Z AUTO 33005KT 10SM CLR M18/M20 A3031 670 83 -3200 330/05 RMK AO2 T11781200
14926KSTC STC20190116060011101/16/19 06:00:31  5-MIN KSTC 161200Z AUTO 34005KT 10SM CLR M18/M20 A3031 670 83 -3200 340/05 RMK AO2 T11781200
14926KSTC STC20190116060511101/16/19 06:05:31  5-MIN KSTC 161205Z AUTO 35005KT 10SM CLR M18/M20 A3031 670 83 -3200 350/05 RMK AO2 T11781200
14926KSTC STC20190116061011101/16/19 06:10:31  5-MIN KSTC 161210Z AUTO 35005KT 10SM CLR M18/M20 A3031 670 83 -3200 350/05 RMK AO2 T11781200
14926KSTC STC20190116061511101/16/19 06:15:31  5-MIN KSTC 161215Z AUTO 34005KT 10SM CLR M18/M20 A3031 670 83 -3200 340/05 RMK AO2 T11781200
14926KSTC STC20190116062011101/16/19 06:20:31  5-MIN KSTC 161220Z AUTO 35005KT 10SM CLR M18/M20 A3030 670 83 -3200 350/05 RMK AO2 T11781200
14926KSTC STC20190116062511101/16/19 06:25:31  5-MIN KSTC 161225Z AUTO 35005KT 10SM CLR M18/M20 A3030 670 83 -3200 350/05 RMK AO2 T11781200
14926KSTC STC20190116063011101/16/19 06:30:31  5-MIN KSTC 161230Z AUTO 35005KT 10SM CLR M18/M20 A3031 670 83 -3200 350/05 RMK AO2 T11781200
14926KSTC STC20190116063510101/16/19 06:35:31  5-MIN KSTC 161235Z AUTO 10SM CLR M18/M20 A3031 670 83 -3200 M /M RMK AO2 T11781200
14926KSTC STC20190116064010101/16/19 06:40:31  5-MIN KSTC 161240Z AUTO 10SM CLR M18/M20 A3031 670 83 -3200 M /M RMK AO2 T11781200
14926KSTC STC20190116064510101/16/19 06:45:31  5-MIN KSTC 161245Z AUTO 10SM CLR M18/M20 A3031 670 83 -3200 M /M RMK AO2 T11781200
14926KSTC STC20190116065010801/16/19 06:50:31  5-MIN KSTC 161250Z AUTO 10SM CLR M18/M20 A3031 670 83 -3200 M /M RMK AO2 SLP296 T11781200
14926KSTC STC20190116065510601/16/19 06:55:31  5-MIN KSTC 161255Z 35006KT 10SM CLR M18/M20 A3031 660 83 -3200 350/06 RMK AO2 T11781200
14926KSTC STC20190116070010601/16/19 07:00:31  5-MIN KSTC 161300Z 35006KT 10SM CLR M18/M20 A3032 660 83 -3300 350/06 RMK AO2 T11781200
14926KSTC STC20190116070510601/16/19 07:05:31  5-MIN KSTC 161305Z 35006KT 10SM CLR M18/M21 A3032 660 79 -3300 350/06 RMK AO2 T11781206
14926KSTC STC20190116071010601/16/19 07:10:31  5-MIN KSTC 161310Z 35006KT 10SM CLR M18/M21 A3032 660 79 -3300 350/06 RMK AO2 T11781206
14926KSTC STC20190116071510601/16/19 07:15:31  5-MIN KSTC 161315Z 35006KT 10SM CLR M18/M21 A3032 660 79 -3300 350/06 RMK AO2 T11781206
14926KSTC STC20190116072010601/16/19 07:20:31  5-MIN KSTC 161320Z 35006KT 10SM CLR M18/M21 A3032 660 79 -3300 350/06 RMK AO2 T11781206
14926KSTC STC20190116072510601/16/19 07:25:31  5-MIN KSTC 161325Z 35006KT 10SM CLR M18/M21 A3032 660 83 -3300 350/06 RMK AO2 T11831206
14926KSTC STC20190116073010601/16/19 07:30:31  5-MIN KSTC 161330Z 35004KT 10SM CLR M18/M21 A3032 660 83 -3300 350/04 RMK AO2 T11831206
14926KSTC STC20190116073510601/16/19 07:35:31  5-MIN KSTC 161335Z 34005KT 10SM CLR M18/M21 A3032 660 83 -3300 340/05 RMK AO2 T11831206
14926KSTC STC20190116074010601/16/19 07:40:31  5-MIN KSTC 161340Z 34004KT 10SM CLR M18/M21 A3032 660 83 -3300 340/04 RMK AO2 T11831206
14926KSTC STC20190116074510601/16/19 07:45:31  5-MIN KSTC 161345Z 34004KT 10SM CLR M18/M21 A3032 660 83 -3300 340/04 RMK AO2 T11831206
14926KSTC STC20190116075011301/16/19 07:50:31  5-MIN KSTC 161350Z 34004KT 10SM CLR M18/M21 A3032 660 83 -3300 340/04 RMK AO2 SLP302 T11831206
14926KSTC STC20190116075510601/16/19 07:55:31  5-MIN KSTC 161355Z 33003KT 10SM CLR M18/M21 A3032 650 83 -3300 330/03 RMK AO2 T11831206
14926KSTC STC20190116080010601/16/19 08:00:31  5-MIN KSTC 161400Z 32003KT 10SM CLR M18/M21 A3033 650 83 -3300 320/03 RMK AO2 T11831206
14926KSTC STC20190116080510601/16/19 08:05:31  5-MIN KSTC 161405Z 32003KT 10SM CLR M18/M21 A3033 650 83 -3300 320/03 RMK AO2 T11831206
14926KSTC STC20190116081010601/16/19 08:10:31  5-MIN KSTC 161410Z 34004KT 10SM CLR M18/M21 A3033 650 83 -3300 340/04 RMK AO2 T11831206
14926KSTC STC20190116081510601/16/19 08:15:31  5-MIN KSTC 161415Z 33005KT 10SM CLR M19/M21 A3033 650 87 -3400 330/05 RMK AO2 T11891206
14926KSTC STC20190116082010601/16/19 08:20:31  5-MIN KSTC 161420Z 33004KT 10SM CLR M18/M21 A3033 650 83 -3300 330/04 RMK AO2 T11831206
14926KSTC STC20190116082510601/16/19 08:25:31  5-MIN KSTC 161425Z 33003KT 10SM CLR M18/M21 A3033 650 79 -3300 330/03 RMK AO2 T11781206
14926KSTC STC20190116083010601/16/19 08:30:31  5-MIN KSTC 161430Z 00000KT 10SM CLR M18/M21 A3034 640 79 -3300 000/00 RMK AO2 T11781206
14926KSTC STC20190118144510901/18/19 14:45:31  5-MIN KSTC 182045Z 36008KT 10SM BKN060 M15/M22 A3025 720 57 -2800 360/08 RMK AO2 T11501217
14926KSTC STC20190118145012901/18/19 14:50:31  5-MIN KSTC 182050Z 01009KT 10SM SCT055 BKN070 M15/M22 A3026 720 57 -2800 360/09 RMK AO2 SLP281 T11501217 50014
14926KSTC STC20190118145510901/18/19 14:55:31  5-MIN KSTC 182055Z 02006KT 10SM SCT060 M15/M22 A3025 720 57 -2800 020/06 RMK AO2 T11501217
14926KSTC STC20190118150010901/18/19 15:00:31  5-MIN KSTC 182100Z 02009KT 10SM FEW060 M15/M22 A3025 720 57 -2800 010/09 RMK AO2 T11501217
14926KSTC STC20190118150510901/18/19 15:05:31  5-MIN KSTC 182105Z 02007KT 10SM SCT065 M15/M22 A3026 720 54 -2800 010/07 RMK AO2 T11501222
14926KSTC STC20190118151011601/18/19 15:10:31  5-MIN KSTC 182110Z 01008KT 10SM SCT065 SCT080 M15/M22 A3026 710 57 -2800 010/08 RMK AO2 T11501217
14926KSTC STC20190118151510901/18/19 15:15:31  5-MIN KSTC 182115Z 01007KT 10SM BKN070 M15/M22 A3026 710 57 -2800 010/07 RMK AO2 T11501217
14926KSTC STC20190118152010901/18/19 15:20:31  5-MIN KSTC 182120Z 36009KT 10SM BKN070 M15/M22 A3027 710 57 -2800 360/09 RMK AO2 T11501217
14926KSTC STC20190118152510901/18/19 15:25:31  5-MIN KSTC 182125Z 01009KT 10SM BKN070 M16/M22 A3027 710 60 -2900 360/09 RMK AO2 T11561217
14926KSTC STC20190118153010901/18/19 15:30:31  5-MIN KSTC 182130Z 36009KT 10SM OVC070 M16/M22 A3027 700 60 -2900 360/09 RMK AO2 T11561217
14926KSTC STC20190118153510901/18/19 15:35:31  5-MIN KSTC 182135Z 35010KT 10SM OVC070 M16/M22 A3027 700 60 -2900 350/10 RMK AO2 T11561217
14926KSTC STC20190118154010901/18/19 15:40:31  5-MIN KSTC 182140Z 36010KT 10SM OVC070 M16/M22 A3027 700 57 -2900 350/10 RMK AO2 T11561222
14926KSTC STC20190118154510901/18/19 15:45:31  5-MIN KSTC 182145Z 01008KT 10SM OVC070 M16/M22 A3028 700 57 -2900 010/08 RMK AO2 T11561222
14926KSTC STC20190118155012101/18/19 15:50:31  5-MIN KSTC 182150Z AUTO 01008KT 10SM OVC065 M16/M22 A3028 690 60 -2900 360/08 RMK AO2 SLP291 T11561217
14926KSTC STC20190118155510901/18/19 15:55:31  5-MIN KSTC 182155Z 02007KT 10SM OVC065 M16/M22 A3028 690 57 -2900 020/07 RMK AO2 T11561222
14926KSTC STC20190118160010901/18/19 16:00:31  5-MIN KSTC 182200Z 01009KT 10SM OVC065 M16/M22 A3029 690 60 -3000 010/09 RMK AO2 T11611222
14926KSTC STC20190118160510901/18/19 16:05:31  5-MIN KSTC 182205Z 36009KT 10SM OVC060 M16/M22 A3028 690 60 -3000 360/09 RMK AO2 T11611222
14926KSTC STC20190118161010901/18/19 16:10:31  5-MIN KSTC 182210Z 01008KT 10SM OVC055 M16/M22 A3029 690 60 -3000 010/08 RMK AO2 T11611222
14926KSTC STC20190118161510901/18/19 16:15:31  5-MIN KSTC 182215Z 36009KT 10SM OVC055 M16/M22 A3029 690 60 -3000 360/09 RMK AO2 T11611222
14926KSTC STC20190118162010901/18/19 16:20:31  5-MIN KSTC 182220Z 36009KT 10SM OVC050 M16/M23 A3029 690 57 -3000 360/09 RMK AO2 T11611228
14926KSTC STC20190118162510901/18/19 16:25:31  5-MIN KSTC 182225Z 36010KT 10SM OVC050 M16/M23 A3029 690 57 -3000 360/10 RMK AO2 T11611228
14926KSTC STC20190118163010901/18/19 16:30:31  5-MIN KSTC 182230Z 01010KT 10SM OVC050 M17/M23 A3029 680 60 -3100 010/10 RMK AO2 T11671228
14926KSTC STC20190118163510901/18/19 16:35:31  5-MIN KSTC 182235Z 36010KT 10SM OVC050 M17/M23 A3029 680 60 -3100 350/10 RMK AO2 T11671228
14926KSTC STC20190118164010901/18/19 16:40:31  5-MIN KSTC 182240Z 36010KT 10SM OVC050 M17/M23 A3030 680 60 -3100 360/10 RMK AO2 T11671228
14926KSTC STC20190118164510901/18/19 16:45:31  5-MIN KSTC 182245Z 01010KT 10SM OVC055 M17/M23 A3030 680 57 -3100 010/10 RMK AO2 T11671233
14926KSTC STC20190118165011601/18/19 16:50:31  5-MIN KSTC 182250Z 01010KT 10SM OVC055 M17/M23 A3030 680 57 -3100 010/10 RMK AO2 SLP297 T11671233
14926KSTC STC20190118165510901/18/19 16:55:31  5-MIN KSTC 182255Z 35009KT 10SM OVC060 M17/M23 A3030 680 60 -3100 350/09 RMK AO2 T11671228
14926KSTC STC20190118170010901/18/19 17:00:31  5-MIN KSTC 182300Z 36011KT 10SM OVC060 M17/M23 A3030 670 60 -3100 360/11 RMK AO2 T11671228
14926KSTC STC20190118170511601/18/19 17:05:31  5-MIN KSTC 182305Z 36008KT 10SM BKN060 OVC075 M17/M23 A3030 670 57 -3100 360/08 RMK AO2 T11671233
14926KSTC STC20190118171011601/18/19 17:10:31  5-MIN KSTC 182310Z 35011KT 10SM BKN060 OVC075 M17/M23 A3031 670 60 -3100 350/11 RMK AO2 T11671228
14926KSTC STC20190118171510901/18/19 17:15:31  5-MIN KSTC 182315Z 01009KT 10SM OVC070 M17/M23 A3031 670 57 -3100 010/09 RMK AO2 T11671233
14926KSTC STC20190118172010901/18/19 17:20:31  5-MIN KSTC 182320Z 01009KT 10SM OVC070 M17/M23 A3032 660 57 -3100 360/09 RMK AO2 T11671233
14926KSTC STC20190118172510901/18/19 17:25:31  5-MIN KSTC 182325Z 36010KT 10SM OVC065 M17/M23 A3032 660 57 -3100 360/10 RMK AO2 T11671233
14926KSTC STC20190118173010901/18/19 17:30:31  5-MIN KSTC 182330Z 01009KT 10SM OVC065 M17/M23 A3032 660 60 -3100 010/09 RMK AO2 T11671228
14926KSTC STC20190118173511601/18/19 17:35:31  5-MIN KSTC 182335Z 35009KT 10SM BKN060 OVC075 M17/M23 A3032 660 60 -3100 350/09 RMK AO2 T11671228
14926KSTC STC20190118174010901/18/19 17:40:31  5-MIN KSTC 182340Z 36007KT 10SM OVC060 M17/M23 A3032 660 57 -3100 360/07 RMK AO2 T11671233
14926KSTC STC20190118174510901/18/19 17:45:31  5-MIN KSTC 182345Z 35010KT 10SM OVC060 M17/M23 A3033 650 60 -3100 350/10 RMK AO2 T11671228
14926KSTC STC20190118175013401/18/19 17:50:31  5-MIN KSTC 182350Z 35010KT 10SM OVC060 M17/M23 A3033 650 57 -3100 350/10 RMK AO2 SLP307 T11671233 11150 21167 57015
14926KSTC STC20190118175510901/18/19 17:55:31  5-MIN KSTC 182355Z 36009KT 10SM OVC060 M17/M23 A3034 640 60 -3100 360/09 RMK AO2 T11671228
14926KSTC STC20190118180010901/18/19 18:00:31  5-MIN KSTC 190000Z 36011KT 10SM OVC060 M17/M23 A3033 650 59 -3200 360/11 RMK AO2 T11721233
14926KSTC STC20190118180511601/18/19 18:05:31  5-MIN KSTC 190005Z 36009KT 10SM BKN060 OVC075 M17/M23 A3034 640 59 -3200 350/09 RMK AO2 T11721233
14926KSTC STC20190118181011601/18/19 18:10:31  5-MIN KSTC 190010Z 36010KT 10SM BKN065 OVC075 M17/M23 A3034 640 59 -3200 360/10 RMK AO2 T11721233
14926KSTC STC20190118181511601/18/19 18:15:31  5-MIN KSTC 190015Z 36012KT 10SM BKN065 OVC075 M17/M23 A3034 640 59 -3200 360/12 RMK AO2 T11721233
14926KSTC STC20190118182011601/18/19 18:20:31  5-MIN KSTC 190020Z 01012KT 10SM BKN065 BKN075 M17/M23 A3034 640 59 -3200 010/12 RMK AO2 T11721233
14926KSTC STC20190118182510901/18/19 18:25:31  5-MIN KSTC 190025Z 01011KT 10SM BKN070 M17/M23 A3034 640 59 -3200 360/11 RMK AO2 T11721233
14926KSTC STC20190118183011601/18/19 18:30:31  5-MIN KSTC 190030Z 01012KT 10SM SCT070 SCT120 M17/M23 A3034 640 59 -3200 010/12 RMK AO2 T11721233
14926KSTC STC20190118183511601/18/19 18:35:31  5-MIN KSTC 190035Z 36008KT 10SM FEW065 BKN120 M17/M23 A3034 640 59 -3200 360/08 RMK AO2 T11721233
14926KSTC STC20190118184011601/18/19 18:40:31  5-MIN KSTC 190040Z 36009KT 10SM FEW065 BKN110 M17/M23 A3035 630 62 -3200 360/09 RMK AO2 T11721228
14926KSTC STC20190118184511601/18/19 18:45:31  5-MIN KSTC 190045Z 36009KT 10SM BKN100 BKN120 M17/M23 A3035 630 59 -3200 360/09 RMK AO2 T11721233
14926KSTC STC20190118185012901/18/19 18:50:31  5-MIN KSTC 190050Z 01012G18KT 10SM BKN100 BKN120 M17/M23 A3035 630 59 -3200 010/12G18 RMK AO2 SLP315 T11721233
14926KSTC STC20190118185511601/18/19 18:55:31  5-MIN KSTC 190055Z 36011KT 10SM BKN090 OVC110 M17/M23 A3035 630 59 -3200 360/11 RMK AO2 T11721233
14926KSTC STC20190118190011601/18/19 19:00:31  5-MIN KSTC 190100Z 01012KT 10SM BKN090 OVC110 M18/M24 A3035 630 59 -3300 360/12 RMK AO2 T11781239
14926KSTC STC20190118190510901/18/19 19:05:31  5-MIN KSTC 190105Z 36012KT 10SM OVC090 M18/M24 A3036 620 59 -3300 360/12 RMK AO2 T11781239
14926KSTC STC20190118191010901/18/19 19:10:31  5-MIN KSTC 190110Z 01010KT 10SM OVC090 M18/M24 A3036 620 59 -3300 360/10 RMK AO2 T11781239
14926KSTC STC20190118191510901/18/19 19:15:31  5-MIN KSTC 190115Z 36011KT 10SM OVC090 M18/M24 A3036 620 59 -3300 360/11 RMK AO2 T11781239
14926KSTC STC20190118192011501/18/19 19:20:31  5-MIN KSTC 190120Z 01009G18KT 10SM OVC085 M18/M24 A3036 620 59 -3300 010/09G18 RMK AO2 T11781239
14926KSTC STC20190118192510901/18/19 19:25:31  5-MIN KSTC 190125Z 01009KT 10SM OVC085 M18/M23 A3036 620 62 -3300 010/09 RMK AO2 T11781233
14926KSTC STC20190118193010901/18/19 19:30:31  5-MIN KSTC 190130Z 36010KT 10SM OVC085 M18/M24 A3036 620 59 -3300 360/10 RMK AO2 T11781239
14926KSTC STC20190118193510901/18/19 19:35:31  5-MIN KSTC 190135Z 02008KT 10SM OVC085 M18/M23 A3037 610 62 -3300 010/08 RMK AO2 T11781233
14926KSTC STC20190118194010901/18/19 19:40:31  5-MIN KSTC 190140Z 01011KT 10SM OVC080 M18/M24 A3037 610 59 -3300 010/11 RMK AO2 T11781239
14926KSTC STC20190118194510901/18/19 19:45:31  5-MIN KSTC 190145Z 01009KT 10SM OVC080 M18/M24 A3037 610 59 -3300 010/09 RMK AO2 T11781239
14926KSTC STC20190118195012201/18/19 19:50:31  5-MIN KSTC 190150Z 01010G17KT 10SM OVC080 M18/M23 A3037 620 62 -3300 010/10G17 RMK AO2 SLP321 T11781233
14926KSTC STC20190118195510901/18/19 19:55:31  5-MIN KSTC 190155Z 01009KT 10SM OVC080 M18/M24 A3037 620 59 -3300 010/09 RMK AO2 T11781239
14926KSTC STC20190118200010901/18/19 20:00:31  5-MIN KSTC 190200Z 01010KT 10SM OVC080 M18/M24 A3037 620 59 -3300 010/10 RMK AO2 T11781239
14926KSTC STC20190118200510901/18/19 20:05:31  5-MIN KSTC 190205Z 01009KT 10SM OVC080 M18/M24 A3037 610 59 -3300 010/09 RMK AO2 T11781239
14926KSTC STC20190118201010901/18/19 20:10:31  5-MIN KSTC 190210Z 36012KT 10SM OVC080 M18/M24 A3037 610 59 -3300 360/12 RMK AO2 T11781239
14926KSTC STC20190118201510901/18/19 20:15:31  5-MIN KSTC 190215Z 01011KT 10SM OVC080 M18/M24 A3038 610 59 -3300 010/11 RMK AO2 T11781239
14926KSTC STC20190118202010901/18/19 20:20:31  5-MIN KSTC 190220Z 01010KT 10SM OVC085 M18/M24 A3038 610 59 -3300 360/10 RMK AO2 T11781239
14926KSTC STC20190118202510901/18/19 20:25:31  5-MIN KSTC 190225Z 01010KT 10SM OVC085 M18/M24 A3037 610 59 -3300 010/10 RMK AO2 T11781239
14926KSTC STC20190118203010901/18/19 20:30:31  5-MIN KSTC 190230Z 02009KT 10SM OVC085 M18/M24 A3037 610 59 -3300 020/09 RMK AO2 T11781239
14926KSTC STC20190118203510901/18/19 20:35:31  5-MIN KSTC 190235Z 01009KT 10SM OVC080 M18/M24 A3038 610 59 -3300 010/09 RMK AO2 T11781239
14926KSTC STC20190118204011501/18/19 20:40:31  5-MIN KSTC 190240Z 02007G16KT 10SM OVC080 M18/M24 A3038 610 59 -3300 020/07G16 RMK AO2 T11781239
14926KSTC STC20190118204511501/18/19 20:45:31  5-MIN KSTC 190245Z 01008G16KT 10SM OVC085 M18/M24 A3038 610 59 -3300 010/08G16 RMK AO2 T11781239
14926KSTC STC20190118205012201/18/19 20:50:31  5-MIN KSTC 190250Z 36009KT 10SM OVC085 M18/M24 A3038 600 59 -3300 360/09 RMK AO2 SLP325 T11781239 53027
14926KSTC STC20190118205510901/18/19 20:55:31  5-MIN KSTC 190255Z 01011KT 10SM OVC085 M18/M24 A3038 610 59 -3300 010/11 RMK AO2 T11781239
14926KSTC STC20190118210010901/18/19 21:00:31  5-MIN KSTC 190300Z 01008KT 10SM OVC085 M18/M24 A3037 610 59 -3300 010/08 RMK AO2 T11781239
14926KSTC STC20190118210510901/18/19 21:05:31  5-MIN KSTC 190305Z 36007KT 10SM OVC085 M18/M23 A3038 610 62 -3300 360/07 RMK AO2 T11781233
14926KSTC STC20190118211010901/18/19 21:10:31  5-MIN KSTC 190310Z 01009KT 10SM OVC085 M18/M24 A3038 610 59 -3300 010/09 RMK AO2 T11781239
14926KSTC STC20190118211511601/18/19 21:15:31  5-MIN KSTC 190315Z 02007KT 10SM BKN080 OVC090 M17/M24 A3038 610 57 -3200 020/07 RMK AO2 T11721239
14926KSTC STC20190118212010901/18/19 21:20:31  5-MIN KSTC 190320Z 01011KT 10SM OVC080 M17/M23 A3037 610 59 -3200 010/11 RMK AO2 T11721233
14926KSTC STC20190118212510901/18/19 21:25:31  5-MIN KSTC 190325Z 03009KT 10SM OVC080 M18/M24 A3037 610 59 -3300 030/09 RMK AO2 T11781239
14926KSTC STC20190118213010901/18/19 21:30:31  5-MIN KSTC 190330Z 01007KT 10SM OVC080 M17/M23 A3038 610 59 -3200 010/07 RMK AO2 T11721233
14926KSTC STC20190118213510901/18/19 21:35:31  5-MIN KSTC 190335Z 01009KT 10SM OVC080 M17/M23 A3038 600 59 -3200 360/09 RMK AO2 T11721233
14926KSTC STC20190118214011501/18/19 21:40:31  5-MIN KSTC 190340Z 01013G18KT 10SM OVC080 M17/M23 A3038 600 59 -3300 010/13G18 RMK AO2 T11721233
14926KSTC STC20190118214511501/18/19 21:45:31  5-MIN KSTC 190345Z 01008G18KT 10SM OVC080 M18/M23 A3038 600 62 -3300 010/08G18 RMK AO2 T11781233
14926KSTC STC20190118215011601/18/19 21:50:31  5-MIN KSTC 190350Z 36007KT 10SM OVC080 M17/M23 A3039 600 59 -3300 360/07 RMK AO2 SLP327 T11721233
14926KSTC STC20190118215510901/18/19 21:55:31  5-MIN KSTC 190355Z 02008KT 10SM OVC085 M17/M23 A3039 600 59 -3300 020/08 RMK AO2 T11721233
14926KSTC STC20190118220010901/18/19 22:00:31  5-MIN KSTC 190400Z 02006KT 10SM OVC085 M17/M23 A3039 600 59 -3300 020/06 RMK AO2 T11721233
14926KSTC STC20190118220510901/18/19 22:05:31  5-MIN KSTC 190405Z 01008KT 10SM OVC080 M18/M23 A3039 600 62 -3300 010/08 RMK AO2 T11781233
14926KSTC STC20190118221010901/18/19 22:10:31  5-MIN KSTC 190410Z 02009KT 10SM BKN080 M18/M24 A3039 600 59 -3300 010/09 RMK AO2 T11781239
14926KSTC STC20190118221510901/18/19 22:15:31  5-MIN KSTC 190415Z 36010KT 10SM BKN080 M18/M24 A3039 590 59 -3300 360/10 RMK AO2 T11781239
14926KSTC STC20190118222010901/18/19 22:20:31  5-MIN KSTC 190420Z 01008KT 10SM SCT080 M18/M24 A3039 590 59 -3300 010/08 RMK AO2 T11781239
14926KSTC STC20190118222510901/18/19 22:25:31  5-MIN KSTC 190425Z 02008KT 10SM FEW080 M18/M24 A3039 590 59 -3300 010/08 RMK AO2 T11781239
14926KSTC STC20190118223011601/18/19 22:30:31  5-MIN KSTC 190430Z 01011KT 10SM FEW080 SCT090 M18/M24 A3039 600 59 -3300 010/11 RMK AO2 T11781239
14926KSTC STC20190118223511601/18/19 22:35:31  5-MIN KSTC 190435Z 01010KT 10SM FEW080 BKN095 M18/M24 A3039 600 59 -3300 010/10 RMK AO2 T11781239
14926KSTC STC20190118224011601/18/19 22:40:31  5-MIN KSTC 190440Z 02009KT 10SM FEW080 BKN095 M18/M24 A3039 590 59 -3300 020/09 RMK AO2 T11781239
14926KSTC STC20190118224510901/18/19 22:45:31  5-MIN KSTC 190445Z 01007KT 10SM BKN090 M18/M24 A3039 590 59 -3300 010/07 RMK AO2 T11781239
14926KSTC STC20190118225012201/18/19 22:50:31  5-MIN KSTC 190450Z 01010G16KT 10SM OVC090 M18/M24 A3039 590 59 -3300 010/10G16 RMK AO2 SLP331 T11781239
14926KSTC STC20190118225511401/18/19 22:55:31  5-MIN KSTC 190455Z AUTO 02007KT 10SM BKN090 M18/M24 A3039 590 59 -3300 020/07 RMK AO2 T11781239
14926KSTC STC20190118230011401/18/19 23:00:31  5-MIN KSTC 190500Z AUTO 02007KT 10SM BKN090 M18/M24 A3039 590 56 -3300 020/07 RMK AO2 T11781244
14926KSTC STC20190118230511401/18/19 23:05:31  5-MIN KSTC 190505Z AUTO 01009KT 10SM BKN090 M18/M24 A3040 590 56 -3300 010/09 RMK AO2 T11781244
14926KSTC STC20190118231011401/18/19 23:10:31  5-MIN KSTC 190510Z AUTO 36008KT 10SM BKN090 M18/M24 A3040 590 59 -3300 360/08 RMK AO2 T11781239
14926KSTC STC20190118231511401/18/19 23:15:31  5-MIN KSTC 190515Z AUTO 36008KT 10SM BKN095 M18/M24 A3040 590 56 -3300 360/08 RMK AO2 T11781244
14926KSTC STC20190118232011401/18/19 23:20:31  5-MIN KSTC 190520Z AUTO 01009KT 10SM BKN095 M18/M24 A3040 590 56 -3300 360/09 RMK AO2 T11781244
14926KSTC STC20190118232511401/18/19 23:25:31  5-MIN KSTC 190525Z AUTO 36011KT 10SM BKN095 M18/M24 A3040 580 56 -3300 360/11 RMK AO2 T11781244
14926KSTC STC20190118233011401/18/19 23:30:31  5-MIN KSTC 190530Z AUTO 36009KT 10SM BKN095 M18/M24 A3040 580 59 -3400 360/09 RMK AO2 T11831244
14926KSTC STC20190118233511401/18/19 23:35:31  5-MIN KSTC 190535Z AUTO 01009KT 10SM BKN095 M18/M24 A3041 580 59 -3400 360/09 RMK AO2 T11831244
14926KSTC STC20190118234011401/18/19 23:40:31  5-MIN KSTC 190540Z AUTO 36008KT 10SM BKN095 M18/M24 A3041 580 59 -3400 360/08 RMK AO2 T11831244
14926KSTC STC20190118234511401/18/19 23:45:31  5-MIN KSTC 190545Z AUTO 01007KT 10SM BKN095 M18/M24 A3041 580 59 -3400 010/07 RMK AO2 T11831244
14926KSTC STC20190118235014901/18/19 23:50:31  5-MIN KSTC 190550Z AUTO 02009KT 10SM FEW095 M18/M24 A3041 580 59 -3400 010/09 RMK AO2 SLP335 T11831244 11167 21183 411281183 51014
14926KSTC STC20190118235511401/18/19 23:55:31  5-MIN KSTC 190555Z AUTO 01007KT 10SM FEW095 M18/M24 A3041 580 59 -3400 010/07 RMK AO2 T11831244
14926KSTC STC20190119000011401/19/19 00:00:31  5-MIN KSTC 190600Z AUTO 01009KT 10SM FEW100 M18/M24 A3041 580 59 -3400 010/09 RMK AO2 T11831244
14926KSTC STC20190119000511401/19/19 00:05:31  5-MIN KSTC 190605Z AUTO 36008KT 10SM FEW095 M18/M24 A3041 580 59 -3400 360/08 RMK AO2 T11831244
14926KSTC STC20190119001011101/19/19 00:10:31  5-MIN KSTC 190610Z AUTO 01007KT 10SM CLR M18/M24 A3040 580 59 -3400 010/07 RMK AO2 T11831244
14926KSTC STC20190119001511401/19/19 00:15:31  5-MIN KSTC 190615Z AUTO 01005KT 10SM FEW110 M18/M24 A3040 580 59 -3400 360/05 RMK AO2 T11831244
14926KSTC STC20190119002011401/19/19 00:20:31  5-MIN KSTC 190620Z AUTO 36006KT 10SM FEW110 M18/M24 A3040 580 62 -3400 360/06 RMK AO2 T11831239
14926KSTC STC20190119002511401/19/19 00:25:31  5-MIN KSTC 190625Z AUTO 02006KT 10SM SCT110 M18/M24 A3040 580 62 -3400 020/06 RMK AO2 T11831239
14926KSTC STC20190119003011401/19/19 00:30:31  5-MIN KSTC 190630Z AUTO 01006KT 10SM BKN110 M18/M24 A3040 580 59 -3400 010/06 RMK AO2 T11831244
14926KSTC STC20190119003511401/19/19 00:35:31  5-MIN KSTC 190635Z AUTO 36004KT 10SM BKN110 M18/M24 A3040 580 59 -3400 360/04 RMK AO2 T11831244
14926KSTC STC20190119004011401/19/19 00:40:31  5-MIN KSTC 190640Z AUTO 01007KT 10SM BKN110 M18/M24 A3040 580 62 -3400 010/07 RMK AO2 T11831239
14926KSTC STC20190119004511401/19/19 00:45:31  5-MIN KSTC 190645Z AUTO 01006KT 10SM BKN110 M18/M24 A3040 580 59 -3400 360/06 RMK AO2 T11831244
14926KSTC STC20190119005012101/19/19 00:50:31  5-MIN KSTC 190650Z AUTO 36007KT 10SM BKN110 M18/M24 A3040 580 59 -3400 360/07 RMK AO2 SLP333 T11831244
14926KSTC STC20190119005511401/19/19 00:55:31  5-MIN KSTC 190655Z AUTO 36006KT 10SM SCT110 M18/M24 A3040 590 59 -3400 360/06 RMK AO2 T11831244
14926KSTC STC20190119010011401/19/19 01:00:31  5-MIN KSTC 190700Z AUTO 01006KT 10SM SCT100 M18/M24 A3040 590 62 -3400 360/06 RMK AO2 T11831239
14926KSTC STC20190119010511401/19/19 01:05:31  5-MIN KSTC 190705Z AUTO 36007KT 10SM BKN110 M18/M24 A3040 590 62 -3400 360/07 RMK AO2 T11831239
14926KSTC STC20190119011011401/19/19 01:10:31  5-MIN KSTC 190710Z AUTO 36007KT 10SM BKN110 M18/M24 A3040 590 62 -3400 360/07 RMK AO2 T11831239
14926KSTC STC20190119011511401/19/19 01:15:31  5-MIN KSTC 190715Z AUTO 36006KT 10SM BKN100 M18/M24 A3040 590 62 -3400 360/06 RMK AO2 T11831239
14926KSTC STC20190119012011401/19/19 01:20:31  5-MIN KSTC 190720Z AUTO 36008KT 10SM BKN100 M18/M24 A3040 590 62 -3400 360/08 RMK AO2 T11831239
14926KSTC STC20190119012511401/19/19 01:25:31  5-MIN KSTC 190725Z AUTO 35008KT 10SM OVC100 M18/M24 A3040 590 62 -3400 350/08 RMK AO2 T11831239
14926KSTC STC20190119013011401/19/19 01:30:31  5-MIN KSTC 190730Z AUTO 36008KT 10SM OVC100 M18/M24 A3040 590 62 -3400 360/08 RMK AO2 T11831239
14926KSTC STC20190119013511401/19/19 01:35:31  5-MIN KSTC 190735Z AUTO 36010KT 10SM OVC100 M18/M24 A3040 580 62 -3400 360/10 RMK AO2 T11831239
14926KSTC STC20190119014012101/19/19 01:40:31  5-MIN KSTC 190740Z AUTO 35010KT 10SM BKN090 OVC110 M18/M24 A3040 580 62 -3400 350/10 RMK AO2 T11831239
14926KSTC STC20190119014512101/19/19 01:45:31  5-MIN KSTC 190745Z AUTO 36009KT 10SM BKN090 BKN110 M18/M24 A3040 580 59 -3400 360/09 RMK AO2 T11831244
14926KSTC STC20190119015012801/19/19 01:50:31  5-MIN KSTC 190750Z AUTO 01007KT 10SM SCT090 BKN100 M18/M24 A3041 580 59 -3400 010/07 RMK AO2 SLP334 T11831244
14926KSTC STC20190119015511401/19/19 01:55:31  5-MIN KSTC 190755Z AUTO 01007KT 10SM SCT085 M19/M24 A3040 580 62 -3500 010/07 RMK AO2 T11891244
14926KSTC STC20190119020011401/19/19 02:00:31  5-MIN KSTC 190800Z AUTO 36006KT 10SM FEW085 M19/M24 A3040 580 62 -3500 360/06 RMK AO2 T11891244
14926KSTC STC20190119020511401/19/19 02:05:31  5-MIN KSTC 190805Z AUTO 36008KT 10SM FEW080 M19/M24 A3040 580 62 -3500 360/08 RMK AO2 T11891244
14926KSTC STC20190119021011101/19/19 02:10:31  5-MIN KSTC 190810Z AUTO 36008KT 10SM CLR M19/M24 A3040 580 62 -3500 360/08 RMK AO2 T11891244
14926KSTC STC20190119021511101/19/19 02:15:31  5-MIN KSTC 190815Z AUTO 36008KT 10SM CLR M19/M24 A3040 580 62 -3500 360/08 RMK AO2 T11891244
14926KSTC STC20190119022011101/19/19 02:20:31  5-MIN KSTC 190820Z AUTO 35006KT 10SM CLR M19/M24 A3040 580 62 -3500 350/06 RMK AO2 T11891244
14926KSTC STC20190119022511101/19/19 02:25:31  5-MIN KSTC 190825Z AUTO 36009KT 10SM CLR M19/M24 A3040 590 62 -3500 360/09 RMK AO2 T11891244
14926KSTC STC20190119023011101/19/19 02:30:31  5-MIN KSTC 190830Z AUTO 01008KT 10SM CLR M19/M25 A3040 590 59 -3500 360/08 RMK AO2 T11891250
14926KSTC STC20190119023511101/19/19 02:35:31  5-MIN KSTC 190835Z AUTO 01008KT 10SM CLR M19/M25 A3040 590 59 -3500 010/08 RMK AO2 T11891250
14926KSTC STC20190119024011101/19/19 02:40:31  5-MIN KSTC 190840Z AUTO 36007KT 10SM CLR M19/M25 A3040 590 62 -3600 360/07 RMK AO2 T11941250
14926KSTC STC20190119024511101/19/19 02:45:31  5-MIN KSTC 190845Z AUTO 36007KT 10SM CLR M19/M25 A3040 590 62 -3600 360/07 RMK AO2 T11941250
14926KSTC STC20190119025012401/19/19 02:50:31  5-MIN KSTC 190850Z AUTO 36007KT 10SM CLR M19/M25 A3040 590 62 -3600 360/07 RMK AO2 SLP332 T11941250 53010
14926KSTC STC20190119025511101/19/19 02:55:31  5-MIN KSTC 190855Z AUTO 35007KT 10SM CLR M19/M25 A3040 580 62 -3600 350/07 RMK AO2 T11941250
14926KSTC STC20190119030011101/19/19 03:00:31  5-MIN KSTC 190900Z AUTO 35006KT 10SM CLR M19/M24 A3040 580 65 -3600 350/06 RMK AO2 T11941244
14926KSTC STC20190119030511101/19/19 03:05:31  5-MIN KSTC 190905Z AUTO 35007KT 10SM CLR M19/M25 A3040 580 62 -3600 350/07 RMK AO2 T11941250
14926KSTC STC20190119031011101/19/19 03:10:31  5-MIN KSTC 190910Z AUTO 35006KT 10SM CLR M19/M25 A3040 590 62 -3600 350/06 RMK AO2 T11941250
14926KSTC STC20190119031511101/19/19 03:15:31  5-MIN KSTC 190915Z AUTO 36008KT 10SM CLR M19/M25 A3040 590 62 -3600 360/08 RMK AO2 T11941250
14926KSTC STC20190119032011101/19/19 03:20:31  5-MIN KSTC 190920Z AUTO 36007KT 10SM CLR M20/M25 A3039 590 65 -3600 360/07 RMK AO2 T12001250
14926KSTC STC20190119032511101/19/19 03:25:31  5-MIN KSTC 190925Z AUTO 35006KT 10SM CLR M20/M25 A3039 590 65 -3600 350/06 RMK AO2 T12001250
14926KSTC STC20190119033011101/19/19 03:30:31  5-MIN KSTC 190930Z AUTO 36007KT 10SM CLR M20/M26 A3039 590 62 -3600 360/07 RMK AO2 T12001256
14926KSTC STC20190119033511101/19/19 03:35:31  5-MIN KSTC 190935Z AUTO 36007KT 10SM CLR M20/M26 A3039 600 62 -3600 360/07 RMK AO2 T12001256
14926KSTC STC20190119034011101/19/19 03:40:31  5-MIN KSTC 190940Z AUTO 35006KT 10SM CLR M20/M26 A3039 590 62 -3600 350/06 RMK AO2 T12001256
14926KSTC STC20190119034511101/19/19 03:45:31  5-MIN KSTC 190945Z AUTO 35006KT 10SM CLR M20/M26 A3039 590 62 -3600 350/06 RMK AO2 T12001256
14926KSTC STC20190119035011801/19/19 03:50:31  5-MIN KSTC 190950Z AUTO 34007KT 10SM CLR M20/M25 A3040 590 65 -3600 340/07 RMK AO2 SLP332 T12001250
14926KSTC STC20190119035511101/19/19 03:55:31  5-MIN KSTC 190955Z AUTO 34006KT 10SM CLR M20/M26 A3040 590 62 -3600 340/06 RMK AO2 T12001256
14926KSTC STC20190119040011101/19/19 04:00:31  5-MIN KSTC 191000Z AUTO 35007KT 10SM CLR M20/M26 A3040 590 62 -3600 350/07 RMK AO2 T12001256
14926KSTC STC20190119040511101/19/19 04:05:31  5-MIN KSTC 191005Z AUTO 35007KT 10SM CLR M21/M26 A3040 590 65 -3700 350/07 RMK AO2 T12061256
14926KSTC STC20190119041011101/19/19 04:10:31  5-MIN KSTC 191010Z AUTO 35008KT 10SM CLR M21/M26 A3039 590 65 -3700 350/08 RMK AO2 T12061256
14926KSTC STC20190119041511101/19/19 04:15:31  5-MIN KSTC 191015Z AUTO 36006KT 10SM CLR M21/M26 A3039 600 65 -3700 360/06 RMK AO2 T12061256
14926KSTC STC20190119042011101/19/19 04:20:31  5-MIN KSTC 191020Z AUTO 35008KT 10SM CLR M21/M26 A3039 600 65 -3700 350/08 RMK AO2 T12061256
14926KSTC STC20190119042511101/19/19 04:25:31  5-MIN KSTC 191025Z AUTO 35007KT 10SM CLR M21/M26 A3039 590 65 -3700 350/07 RMK AO2 T12061256
14926KSTC STC20190119043011101/19/19 04:30:31  5-MIN KSTC 191030Z AUTO 34007KT 10SM CLR M21/M26 A3040 590 65 -3700 340/07 RMK AO2 T12061256
14926KSTC STC20190119043511101/19/19 04:35:31  5-MIN KSTC 191035Z AUTO 35007KT 10SM CLR M21/M26 A3039 590 62 -3700 350/07 RMK AO2 T12061261
14926KSTC STC20190119044011101/19/19 04:40:31  5-MIN KSTC 191040Z AUTO 35006KT 10SM CLR M21/M26 A3039 590 62 -3700 350/06 RMK AO2 T12061261
14926KSTC STC20190119044511101/19/19 04:45:31  5-MIN KSTC 191045Z AUTO 35007KT 10SM CLR M21/M26 A3039 590 62 -3700 350/07 RMK AO2 T12061261
14926KSTC STC20190119045011801/19/19 04:50:31  5-MIN KSTC 191050Z AUTO 34006KT 10SM CLR M21/M26 A3039 590 65 -3800 340/06 RMK AO2 SLP332 T12111261
14926KSTC STC20190119045511101/19/19 04:55:31  5-MIN KSTC 191055Z AUTO 35008KT 10SM CLR M21/M26 A3039 590 65 -3800 350/08 RMK AO2 T12111261
14926KSTC STC20190119050011101/19/19 05:00:31  5-MIN KSTC 191100Z AUTO 35006KT 10SM CLR M21/M26 A3039 600 65 -3800 350/06 RMK AO2 T12111261
14926KSTC STC20190119050511101/19/19 05:05:31  5-MIN KSTC 191105Z AUTO 34006KT 10SM CLR M21/M26 A3039 600 65 -3800 340/06 RMK AO2 T12111261
14926KSTC STC20190119051011101/19/19 05:10:31  5-MIN KSTC 191110Z AUTO 35006KT 10SM CLR M21/M26 A3039 590 65 -3800 350/06 RMK AO2 T12111261
14926KSTC STC20190119051511101/19/19 05:15:31  5-MIN KSTC 191115Z AUTO 35008KT 10SM CLR M21/M26 A3039 590 65 -3800 350/08 RMK AO2 T12111261
14926KSTC STC20190119052011101/19/19 05:20:31  5-MIN KSTC 191120Z AUTO 35007KT 10SM CLR M21/M26 A3039 590 65 -3800 350/07 RMK AO2 T12111261
14926KSTC STC20190119052511101/19/19 05:25:31  5-MIN KSTC 191125Z AUTO 35008KT 10SM CLR M21/M27 A3039 590 61 -3800 350/08 RMK AO2 T12111267
14926KSTC STC20190119053011101/19/19 05:30:31  5-MIN KSTC 191130Z AUTO 35008KT 10SM CLR M21/M27 A3039 590 61 -3800 350/08 RMK AO2 T12111267
14926KSTC STC20190119053511101/19/19 05:35:31  5-MIN KSTC 191135Z AUTO 35006KT 10SM CLR M22/M27 A3039 590 64 -3900 350/06 RMK AO2 T12171267
14926KSTC STC20190119054011101/19/19 05:40:31  5-MIN KSTC 191140Z AUTO 36006KT 10SM CLR M22/M27 A3039 600 64 -3900 360/06 RMK AO2 T12171267
14926KSTC STC20190119054511101/19/19 05:45:31  5-MIN KSTC 191145Z AUTO 35007KT 10SM CLR M22/M27 A3039 600 64 -3900 350/07 RMK AO2 T12171267
14926KSTC STC20190119055013601/19/19 05:50:31  5-MIN KSTC 191150Z AUTO 35007KT 10SM CLR M22/M27 A3039 590 64 -3900 350/07 RMK AO2 SLP332 T12171267 11183 21217 56001
14926KSTC STC20190119055511101/19/19 05:55:31  5-MIN KSTC 191155Z AUTO 35007KT 10SM CLR M22/M27 A3039 590 64 -3900 350/07 RMK AO2 T12171267
14926KSTC STC20190119060011101/19/19 06:00:31  5-MIN KSTC 191200Z AUTO 36007KT 10SM CLR M22/M27 A3039 590 61 -3900 350/07 RMK AO2 T12171272
14926KSTC STC20190119060511101/19/19 06:05:31  5-MIN KSTC 191205Z AUTO 35007KT 10SM CLR M22/M27 A3040 590 61 -3900 350/07 RMK AO2 T12171272
14926KSTC STC20190119061011101/19/19 06:10:31  5-MIN KSTC 191210Z AUTO 35007KT 10SM CLR M22/M27 A3040 580 64 -4000 340/07 RMK AO2 T12221272
14926KSTC STC20190119061511101/19/19 06:15:31  5-MIN KSTC 191215Z AUTO 34005KT 10SM CLR M22/M27 A3040 580 64 -4000 330/05 RMK AO2 T12221272
14926KSTC STC20190119062011101/19/19 06:20:31  5-MIN KSTC 191220Z AUTO 34006KT 10SM CLR M22/M27 A3040 590 64 -4000 340/06 RMK AO2 T12221272
14926KSTC STC20190119062511101/19/19 06:25:31  5-MIN KSTC 191225Z AUTO 34007KT 10SM CLR M22/M27 A3040 580 64 -4000 340/07 RMK AO2 T12221272
14926KSTC STC20190119063011101/19/19 06:30:31  5-MIN KSTC 191230Z AUTO 34006KT 10SM CLR M22/M27 A3041 580 64 -4000 340/06 RMK AO2 T12221272
14926KSTC STC20190119063511101/19/19 06:35:31  5-MIN KSTC 191235Z AUTO 35006KT 10SM CLR M22/M27 A3040 580 64 -4000 350/06 RMK AO2 T12221272
14926KSTC STC20190119064011101/19/19 06:40:31  5-MIN KSTC 191240Z AUTO 35006KT 10SM CLR M22/M27 A3040 590 64 -4000 350/06 RMK AO2 T12221272
14926KSTC STC20190119064511101/19/19 06:45:31  5-MIN KSTC 191245Z AUTO 34007KT 10SM CLR M23/M27 A3040 590 68 -4000 340/07 RMK AO2 T12281272
14926KSTC STC20190119065011301/19/19 06:50:31  5-MIN KSTC 191250Z 35007KT 10SM CLR M23/M27 A3040 580 68 -4000 350/07 RMK AO2 SLP336 T12281272
14926KSTC STC20190119065510601/19/19 06:55:31  5-MIN KSTC 191255Z 35006KT 10SM CLR M23/M28 A3040 590 64 -4000 350/06 RMK AO2 T12281278
14926KSTC STC20190119070010601/19/19 07:00:31  5-MIN KSTC 191300Z 34006KT 10SM CLR M23/M28 A3040 580 64 -4000 340/06 RMK AO2 T12281278
14926KSTC STC20190119070510601/19/19 07:05:31  5-MIN KSTC 191305Z 35006KT 10SM CLR M23/M28 A3041 580 64 -4000 340/06 RMK AO2 T12281278
14926KSTC STC20190119071010601/19/19 07:10:31  5-MIN KSTC 191310Z 34006KT 10SM CLR M23/M28 A3041 580 64 -4100 340/06 RMK AO2 T12281278
14926KSTC STC20190119071510601/19/19 07:15:31  5-MIN KSTC 191315Z 34008KT 10SM CLR M23/M28 A3041 580 64 -4100 340/08 RMK AO2 T12281278
14926KSTC STC20190119072010601/19/19 07:20:31  5-MIN KSTC 191320Z 34006KT 10SM CLR M23/M28 A3041 580 64 -4100 340/06 RMK AO2 T12281278
14926KSTC STC20190119072510601/19/19 07:25:31  5-MIN KSTC 191325Z 35006KT 10SM CLR M23/M28 A3041 580 64 -4100 350/06 RMK AO2 T12281278
14926KSTC STC20190119073010601/19/19 07:30:31  5-MIN KSTC 191330Z 34007KT 10SM CLR M23/M28 A3041 580 64 -4100 340/07 RMK AO2 T12281278
14926KSTC STC20190119073510601/19/19 07:35:31  5-MIN KSTC 191335Z 35005KT 10SM CLR M23/M28 A3041 580 64 -4100 350/05 RMK AO2 T12281278
14926KSTC STC20190119074010601/19/19 07:40:31  5-MIN KSTC 191340Z 35005KT 10SM CLR M23/M28 A3041 580 64 -4100 350/05 RMK AO2 T12281278
14926KSTC STC20190119074510601/19/19 07:45:31  5-MIN KSTC 191345Z 35006KT 10SM CLR M23/M28 A3041 580 64 -4100 350/06 RMK AO2 T12281278
14926KSTC STC20190119075011301/19/19 07:50:31  5-MIN KSTC 191350Z 35006KT 10SM CLR M23/M28 A3041 580 64 -4100 350/06 RMK AO2 SLP339 T12281278
14926KSTC STC20190119075510601/19/19 07:55:31  5-MIN KSTC 191355Z 35006KT 10SM CLR M23/M28 A3041 580 64 -4100 340/06 RMK AO2 T12281278
14926KSTC STC20190119080010601/19/19 08:00:31  5-MIN KSTC 191400Z 35007KT 10SM CLR M23/M28 A3041 580 64 -4000 350/07 RMK AO2 T12281278
14926KSTC STC20190119080510601/19/19 08:05:31  5-MIN KSTC 191405Z 35005KT 10SM CLR M23/M28 A3041 580 64 -4000 350/05 RMK AO2 T12281278
14926KSTC STC20190119081010601/19/19 08:10:31  5-MIN KSTC 191410Z 34006KT 10SM CLR M23/M28 A3041 580 64 -4100 340/06 RMK AO2 T12281278
14926KSTC STC20190119081510901/19/19 08:15:31  5-MIN KSTC 191415Z 34006KT 10SM FEW023 M23/M28 A3041 570 61 -4100 340/06 RMK AO2 T12281283
14926KSTC STC20190119082010901/19/19 08:20:31  5-MIN KSTC 191420Z 34005KT 10SM FEW023 M23/M28 A3041 570 64 -4100 340/05 RMK AO2 T12281278
14926KSTC STC20190119082510901/19/19 08:25:31  5-MIN KSTC 191425Z 35005KT 10SM SCT023 M23/M28 A3041 580 64 -4100 350/05 RMK AO2 T12281278
14926KSTC STC20190119083010901/19/19 08:30:31  5-MIN KSTC 191430Z 35006KT 10SM SCT023 M23/M28 A3041 580 64 -4000 350/06 RMK AO2 T12281278
14926KSTC STC20190119083510901/19/19 08:35:31  5-MIN KSTC 191435Z 36005KT 10SM BKN023 M23/M28 A3041 580 64 -4000 360/05 RMK AO2 T12281278
14926KSTC STC20190119084010901/19/19 08:40:31  5-MIN KSTC 191440Z 35005KT 10SM BKN023 M23/M28 A3040 580 64 -4000 350/05 RMK AO2 T12281278
14926KSTC STC20190119084510901/19/19 08:45:31  5-MIN KSTC 191445Z 36005KT 10SM SCT023 M23/M28 A3040 580 64 -4000 350/05 RMK AO2 T12281278
14926KSTC STC20190119085009901/19/19 08:50:31  5-MIN KSTC 191450Z 35004KT 10SM SCT023 M23/M28 A3040 580 64 -4000 350/04 RMK AO2
14926KSTC STC20190119085510901/19/19 08:55:31  5-MIN KSTC 191455Z 35006KT 10SM SCT023 M22/M28 A3041 580 61 -4000 350/06 RMK AO2 T12221278
14926KSTC STC20190119090010901/19/19 09:00:31  5-MIN KSTC 191500Z 35006KT 10SM SCT023 M22/M28 A3041 580 61 -4000 350/06 RMK AO2 T12221278
14926KSTC STC20190119090510901/19/19 09:05:31  5-MIN KSTC 191505Z 35005KT 10SM SCT023 M22/M28 A3041 580 61 -4000 350/05 RMK AO2 T12221278
14926KSTC STC20190119091010901/19/19 09:10:31  5-MIN KSTC 191510Z 35005KT 10SM SCT023 M22/M28 A3041 580 61 -4000 350/05 RMK AO2 T12221278
14926KSTC STC20190119091510901/19/19 09:15:31  5-MIN KSTC 191515Z 34007KT 10SM SCT023 M22/M28 A3041 580 61 -4000 340/07 RMK AO2 T12221278
14926KSTC STC20190119092010901/19/19 09:20:31  5-MIN KSTC 191520Z 34006KT 10SM SCT023 M22/M28 A3041 570 61 -4000 340/06 RMK AO2 T12221278
14926KSTC STC20190119092510901/19/19 09:25:31  5-MIN KSTC 191525Z 34006KT 10SM SCT023 M22/M28 A3042 570 61 -4000 340/06 RMK AO2 T12221278
14926KSTC STC20190119093010901/19/19 09:30:31  5-MIN KSTC 191530Z 35007KT 10SM SCT023 M22/M28 A3042 570 61 -4000 340/07 RMK AO2 T12221278
14926KSTC STC20190119093510901/19/19 09:35:31  5-MIN KSTC 191535Z 33006KT 10SM SCT023 M22/M28 A3042 570 61 -4000 330/06 RMK AO2 T12221278
14926KSTC STC20190119094010901/19/19 09:40:31  5-MIN KSTC 191540Z 34007KT 10SM SCT023 M22/M28 A3042 570 61 -4000 340/07 RMK AO2 T12221278
14926KSTC STC20190119094510901/19/19 09:45:31  5-MIN KSTC 191545Z 35007KT 10SM SCT023 M22/M28 A3041 570 61 -4000 350/07 RMK AO2 T12221278
14926KSTC STC20190119095011601/19/19 09:50:31  5-MIN KSTC 191550Z 01007KT 10SM SCT023 M22/M28 A3042 570 58 -4000 010/07 RMK AO2 SLP341 T12221283
14926KSTC STC20190119095510601/19/19 09:55:31  5-MIN KSTC 191555Z 36007KT 10SM CLR M22/M28 A3042 570 58 -3900 360/07 RMK AO2 T12171278
14926KSTC STC20190119100010601/19/19 10:00:31  5-MIN KSTC 191600Z 36006KT 10SM CLR M22/M28 A3041 570 58 -3900 360/06 RMK AO2 T12171278
14926KSTC STC20190119100510601/19/19 10:05:31  5-MIN KSTC 191605Z 35007KT 10SM CLR M21/M27 A3041 570 58 -3800 350/07 RMK AO2 T12111272
14926KSTC STC20190119101010601/19/19 10:10:31  5-MIN KSTC 191610Z 35006KT 10SM CLR M21/M28 A3042 570 56 -3800 350/06 RMK AO2 T12111278
14926KSTC STC20190119101510601/19/19 10:15:31  5-MIN KSTC 191615Z 35007KT 10SM CLR M21/M28 A3041 570 56 -3800 350/07 RMK AO2 T12111278
14926KSTC STC20190119102010601/19/19 10:20:31  5-MIN KSTC 191620Z 34007KT 10SM CLR M21/M27 A3042 570 58 -3800 340/07 RMK AO2 T12111272
14926KSTC STC20190119102510601/19/19 10:25:31  5-MIN KSTC 191625Z 33007KT 10SM CLR M21/M28 A3042 570 56 -3800 330/07 RMK AO2 T12111278
14926KSTC STC20190119103010601/19/19 10:30:31  5-MIN KSTC 191630Z 35008KT 10SM CLR M21/M27 A3042 570 56 -3800 350/08 RMK AO2 T12061272
14926KSTC STC20190119103510601/19/19 10:35:31  5-MIN KSTC 191635Z 34007KT 10SM CLR M21/M27 A3042 560 56 -3800 340/07 RMK AO2 T12061272
14926KSTC STC20190119104010601/19/19 10:40:31  5-MIN KSTC 191640Z 33006KT 10SM CLR M21/M27 A3042 570 56 -3800 330/06 RMK AO2 T12061272
14926KSTC STC20190119104510601/19/19 10:45:31  5-MIN KSTC 191645Z 34006KT 10SM CLR M21/M27 A3042 570 56 -3700 340/06 RMK AO2 T12061272
14926KSTC STC20190119105011301/19/19 10:50:31  5-MIN KSTC 191650Z 36006KT 10SM CLR M21/M27 A3041 570 56 -3700 360/06 RMK AO2 SLP339 T12061272
14926KSTC STC20190119105510601/19/19 10:55:31  5-MIN KSTC 191655Z 01007KT 10SM CLR M20/M27 A3041 570 53 -3700 010/07 RMK AO2 T12001272
14926KSTC STC20190119110010601/19/19 11:00:31  5-MIN KSTC 191700Z 35007KT 10SM CLR M20/M27 A3041 580 53 -3700 350/07 RMK AO2 T12001272
14926KSTC STC20190119110510601/19/19 11:05:31  5-MIN KSTC 191705Z 35007KT 10SM CLR M20/M27 A3041 580 53 -3700 350/07 RMK AO2 T12001272
14926KSTC STC20190119111010601/19/19 11:10:31  5-MIN KSTC 191710Z 35005KT 10SM CLR M20/M27 A3040 580 53 -3700 350/05 RMK AO2 T12001272
14926KSTC STC20190119111510601/19/19 11:15:31  5-MIN KSTC 191715Z 34007KT 10SM CLR M20/M27 A3040 580 53 -3700 340/07 RMK AO2 T12001272
14926KSTC STC20190119112010601/19/19 11:20:31  5-MIN KSTC 191720Z 35007KT 10SM CLR M20/M27 A3040 590 53 -3700 350/07 RMK AO2 T12001272
14926KSTC STC20190119112510601/19/19 11:25:31  5-MIN KSTC 191725Z 34007KT 10SM CLR M19/M27 A3040 590 51 -3600 340/07 RMK AO2 T11941272
14926KSTC STC20190119113010601/19/19 11:30:31  5-MIN KSTC 191730Z VRB06KT 10SM CLR M19/M27 A3039 590 53 -3600 VRB/06 RMK AO2 T11941267
14926KSTC STC20190119113510601/19/19 11:35:31  5-MIN KSTC 191735Z 36007KT 10SM CLR M19/M27 A3039 590 53 -3600 350/07 RMK AO2 T11941267
14926KSTC STC20190119114010601/19/19 11:40:31  5-MIN KSTC 191740Z 33007KT 10SM CLR M19/M27 A3039 590 53 -3600 330/07 RMK AO2 T11941267
14926KSTC STC20190119114510601/19/19 11:45:31  5-MIN KSTC 191745Z 35006KT 10SM CLR M19/M27 A3039 600 51 -3500 350/06 RMK AO2 T11891267
14926KSTC STC20190119115013101/19/19 11:50:31  5-MIN KSTC 191750Z 33007KT 10SM CLR M19/M27 A3039 600 51 -3500 330/07 RMK AO2 SLP328 T11891267 11189 21228 50005
14926KSTC STC20190119115510601/19/19 11:55:31  5-MIN KSTC 191755Z 33008KT 10SM CLR M19/M27 A3038 600 51 -3600 330/08 RMK AO2 T11941272
14926KSTC STC20190119120010601/19/19 12:00:31  5-MIN KSTC 191800Z 34008KT 10SM CLR M19/M27 A3038 610 48 -3500 340/08 RMK AO2 T11891272
14926KSTC STC20190119120510601/19/19 12:05:31  5-MIN KSTC 191805Z 35010KT 10SM CLR M19/M27 A3037 610 48 -3500 350/10 RMK AO2 T11891272
14926KSTC STC20190119121010601/19/19 12:10:31  5-MIN KSTC 191810Z 35008KT 10SM CLR M19/M27 A3038 610 48 -3500 340/08 RMK AO2 T11891272
14926KSTC STC20190119121510601/19/19 12:15:31  5-MIN KSTC 191815Z 35010KT 10SM CLR M19/M27 A3038 610 51 -3500 350/10 RMK AO2 T11891267
14926KSTC STC20190119122010601/19/19 12:20:31  5-MIN KSTC 191820Z 35008KT 10SM CLR M18/M27 A3038 600 49 -3400 350/08 RMK AO2 T11831267
14926KSTC STC20190119122510601/19/19 12:25:31  5-MIN KSTC 191825Z 34008KT 10SM CLR M18/M26 A3038 600 51 -3400 340/08 RMK AO2 T11831261
14926KSTC STC20190119123010601/19/19 12:30:31  5-MIN KSTC 191830Z 35010KT 10SM CLR M18/M27 A3039 600 46 -3400 350/10 RMK AO2 T11831272
14926KSTC STC20190119123510601/19/19 12:35:31  5-MIN KSTC 191835Z 34010KT 10SM CLR M18/M27 A3038 600 46 -3400 340/10 RMK AO2 T11831272
14926KSTC STC20190119124010601/19/19 12:40:31  5-MIN KSTC 191840Z 33010KT 10SM CLR M18/M27 A3038 600 46 -3400 330/10 RMK AO2 T11831272
14926KSTC STC20190119124510601/19/19 12:45:31  5-MIN KSTC 191845Z 33010KT 10SM CLR M18/M28 A3038 600 44 -3400 330/10 RMK AO2 T11831278
14926KSTC STC20190119125011301/19/19 12:50:31  5-MIN KSTC 191850Z 36008KT 10SM CLR M18/M28 A3038 610 44 -3400 360/08 RMK AO2 SLP325 T11831278
14926KSTC STC20190119125510601/19/19 12:55:31  5-MIN KSTC 191855Z 34012KT 10SM CLR M18/M27 A3038 610 44 -3300 340/12 RMK AO2 T11781272
14926KSTC STC20190119130010601/19/19 13:00:31  5-MIN KSTC 191900Z 34009KT 10SM CLR M18/M27 A3038 610 44 -3300 340/09 RMK AO2 T11781272
14926KSTC STC20190119130510601/19/19 13:05:31  5-MIN KSTC 191905Z 34008KT 10SM CLR M18/M27 A3038 610 46 -3300 340/08 RMK AO2 T11781267
14926KSTC STC20190119131010601/19/19 13:10:31  5-MIN KSTC 191910Z 34009KT 10SM CLR M18/M27 A3037 610 44 -3300 340/09 RMK AO2 T11781272
14926KSTC STC20190119131510601/19/19 13:15:31  5-MIN KSTC 191915Z 35008KT 10SM CLR M18/M27 A3037 610 44 -3300 350/08 RMK AO2 T11781272
14926KSTC STC20190119132010601/19/19 13:20:31  5-MIN KSTC 191920Z 35008KT 10SM CLR M17/M27 A3036 620 44 -3200 340/08 RMK AO2 T11721267
14926KSTC STC20190120005011801/20/19 00:50:31  5-MIN KSTC 200650Z AUTO 03006KT 10SM CLR M20/M26 A3038 600 59 -3600 030/06 RMK AO2 SLP328 T12001261
14926KSTC STC20190120005511101/20/19 00:55:31  5-MIN KSTC 200655Z AUTO 04006KT 10SM CLR M20/M26 A3038 600 59 -3600 040/06 RMK AO2 T12001261
14926KSTC STC20190120010011101/20/19 01:00:31  5-MIN KSTC 200700Z AUTO 03006KT 10SM CLR M20/M27 A3038 600 56 -3600 030/06 RMK AO2 T12001267
14926KSTC STC20190120010511101/20/19 01:05:31  5-MIN KSTC 200705Z AUTO 03005KT 10SM CLR M21/M27 A3038 600 59 -3700 030/05 RMK AO2 T12061267
14926KSTC STC20190120011011101/20/19 01:10:31  5-MIN KSTC 200710Z AUTO 03005KT 10SM CLR M21/M27 A3038 610 59 -3700 030/05 RMK AO2 T12061267
14926KSTC STC20190120011511101/20/19 01:15:31  5-MIN KSTC 200715Z AUTO 04005KT 10SM CLR M21/M27 A3038 610 59 -3700 040/05 RMK AO2 T12061267
14926KSTC STC20190120012011101/20/19 01:20:31  5-MIN KSTC 200720Z AUTO 04004KT 10SM CLR M21/M27 A3037 610 59 -3700 040/04 RMK AO2 T12061267
14926KSTC STC20190120012511101/20/19 01:25:31  5-MIN KSTC 200725Z AUTO 04007KT 10SM CLR M21/M27 A3037 610 59 -3700 040/07 RMK AO2 T12061267
14926KSTC STC20190120013011101/20/19 01:30:31  5-MIN KSTC 200730Z AUTO 05005KT 10SM CLR M21/M27 A3037 610 59 -3700 050/05 RMK AO2 T12061267
14926KSTC STC20190120013511101/20/19 01:35:31  5-MIN KSTC 200735Z AUTO 05005KT 10SM CLR M21/M27 A3037 610 59 -3700 050/05 RMK AO2 T12061267
14926KSTC STC20190120014011101/20/19 01:40:31  5-MIN KSTC 200740Z AUTO 04007KT 10SM CLR M21/M27 A3037 610 59 -3700 040/07 RMK AO2 T12061267
14926KSTC STC20190120014511101/20/19 01:45:31  5-MIN KSTC 200745Z AUTO 05005KT 10SM CLR M21/M27 A3038 610 59 -3700 050/05 RMK AO2 T12061267
14926KSTC STC20190120015011801/20/19 01:50:31  5-MIN KSTC 200750Z AUTO 04004KT 10SM CLR M21/M27 A3038 610 59 -3700 040/04 RMK AO2 SLP326 T12061267
14926KSTC STC20190120015511101/20/19 01:55:31  5-MIN KSTC 200755Z AUTO 04004KT 10SM CLR M21/M27 A3038 600 61 -3800 040/04 RMK AO2 T12111267
14926KSTC STC20190120020011101/20/19 02:00:31  5-MIN KSTC 200800Z AUTO 05006KT 10SM CLR M21/M27 A3038 600 61 -3800 050/06 RMK AO2 T12111267
14926KSTC STC20190120020511101/20/19 02:05:31  5-MIN KSTC 200805Z AUTO 05005KT 10SM CLR M21/M27 A3038 600 61 -3800 050/05 RMK AO2 T12111267
14926KSTC STC20190120021011101/20/19 02:10:31  5-MIN KSTC 200810Z AUTO 04004KT 10SM CLR M21/M27 A3039 590 61 -3800 040/04 RMK AO2 T12111267
14926KSTC STC20190120021511101/20/19 02:15:31  5-MIN KSTC 200815Z AUTO 04003KT 10SM CLR M21/M27 A3039 590 61 -3800 040/03 RMK AO2 T12111267
14926KSTC STC20190120022011101/20/19 02:20:31  5-MIN KSTC 200820Z AUTO 03004KT 10SM CLR M21/M27 A3039 590 61 -3800 030/04 RMK AO2 T12111267
14926KSTC STC20190120022511101/20/19 02:25:31  5-MIN KSTC 200825Z AUTO 02003KT 10SM CLR M21/M27 A3039 590 61 -3800 020/03 RMK AO2 T12111267
14926KSTC STC20190120023011101/20/19 02:30:31  5-MIN KSTC 200830Z AUTO 04004KT 10SM CLR M22/M27 A3039 590 64 -3900 040/04 RMK AO2 T12171267
14926KSTC STC20190120023511101/20/19 02:35:31  5-MIN KSTC 200835Z AUTO 05004KT 10SM CLR M22/M27 A3040 590 64 -3900 050/04 RMK AO2 T12171267
14926KSTC STC20190120024011101/20/19 02:40:31  5-MIN KSTC 200840Z AUTO 04004KT 10SM CLR M22/M27 A3039 590 61 -3900 040/04 RMK AO2 T12171272
14926KSTC STC20190120024511101/20/19 02:45:31  5-MIN KSTC 200845Z AUTO 04003KT 10SM CLR M22/M27 A3040 590 61 -3900 040/03 RMK AO2 T12171272
14926KSTC STC20190120025012401/20/19 02:50:31  5-MIN KSTC 200850Z AUTO 05004KT 10SM CLR M22/M27 A3039 590 61 -3900 050/04 RMK AO2 SLP332 T12171272 50010
14926KSTC STC20190120025511101/20/19 02:55:31  5-MIN KSTC 200855Z AUTO 03003KT 10SM CLR M22/M27 A3039 590 61 -3900 030/03 RMK AO2 T12171272
14926KSTC STC20190120030011101/20/19 03:00:31  5-MIN KSTC 200900Z AUTO 02005KT 10SM CLR M22/M27 A3039 590 61 -3900 020/05 RMK AO2 T12171272
14926KSTC STC20190120030511101/20/19 03:05:31  5-MIN KSTC 200905Z AUTO 03004KT 10SM CLR M22/M27 A3039 590 61 -3900 030/04 RMK AO2 T12171272
14926KSTC STC20190120031011101/20/19 03:10:31  5-MIN KSTC 200910Z AUTO 02003KT 10SM CLR M22/M27 A3039 590 61 -3900 020/03 RMK AO2 T12171272
14926KSTC STC20190120031511101/20/19 03:15:31  5-MIN KSTC 200915Z AUTO 03004KT 10SM CLR M22/M27 A3039 590 64 -4000 030/04 RMK AO2 T12221272
14926KSTC STC20190120032011101/20/19 03:20:31  5-MIN KSTC 200920Z AUTO 02003KT 10SM CLR M22/M27 A3039 590 64 -4000 020/03 RMK AO2 T12221272
14926KSTC STC20190120032511101/20/19 03:25:31  5-MIN KSTC 200925Z AUTO 03004KT 10SM CLR M22/M27 A3039 590 64 -4000 030/04 RMK AO2 T12221272
14926KSTC STC20190120033011101/20/19 03:30:31  5-MIN KSTC 200930Z AUTO 03004KT 10SM CLR M22/M27 A3039 590 64 -4000 030/04 RMK AO2 T12221272
14926KSTC STC20190120033511101/20/19 03:35:31  5-MIN KSTC 200935Z AUTO 03004KT 10SM CLR M22/M27 A3039 590 64 -4000 030/04 RMK AO2 T12221272
14926KSTC STC20190120034011101/20/19 03:40:31  5-MIN KSTC 200940Z AUTO 03004KT 10SM CLR M22/M27 A3040 590 64 -4000 030/04 RMK AO2 T12221272
14926KSTC STC20190120034511101/20/19 03:45:31  5-MIN KSTC 200945Z AUTO 03003KT 10SM CLR M22/M27 A3039 590 64 -4000 030/03 RMK AO2 T12221272
14926KSTC STC20190120035011801/20/19 03:50:31  5-MIN KSTC 200950Z AUTO 04004KT 10SM CLR M22/M27 A3040 590 64 -4000 040/04 RMK AO2 SLP334 T12221272
14926KSTC STC20190120035511101/20/19 03:55:31  5-MIN KSTC 200955Z AUTO 03003KT 10SM CLR M23/M27 A3040 590 68 -4000 020/03 RMK AO2 T12281272
14926KSTC STC20190120040011101/20/19 04:00:31  5-MIN KSTC 201000Z AUTO 04004KT 10SM CLR M23/M28 A3040 590 64 -4000 040/04 RMK AO2 T12281278
14926KSTC STC20190120040511101/20/19 04:05:31  5-MIN KSTC 201005Z AUTO 04005KT 10SM CLR M23/M28 A3040 590 64 -4000 040/05 RMK AO2 T12281278
14926KSTC STC20190120041011101/20/19 04:10:31  5-MIN KSTC 201010Z AUTO 03004KT 10SM CLR M23/M28 A3040 590 64 -4000 030/04 RMK AO2 T12281278
14926KSTC STC20190120041511101/20/19 04:15:31  5-MIN KSTC 201015Z AUTO 03004KT 10SM CLR M23/M28 A3039 590 64 -4000 030/04 RMK AO2 T12281278
14926KSTC STC20190120042011101/20/19 04:20:31  5-MIN KSTC 201020Z AUTO 03003KT 10SM CLR M23/M28 A3040 590 64 -4000 030/03 RMK AO2 T12281278
14926KSTC STC20190120042511101/20/19 04:25:31  5-MIN KSTC 201025Z AUTO 03004KT 10SM CLR M23/M28 A3039 590 64 -4000 030/04 RMK AO2 T12281278
14926KSTC STC20190120043011101/20/19 04:30:31  5-MIN KSTC 201030Z AUTO 03004KT 10SM CLR M23/M28 A3039 590 64 -4000 030/04 RMK AO2 T12281278
14926KSTC STC20190120043511101/20/19 04:35:31  5-MIN KSTC 201035Z AUTO 02003KT 10SM CLR M23/M28 A3040 590 64 -4000 020/03 RMK AO2 T12281278
14926KSTC STC20190120044011101/20/19 04:40:31  5-MIN KSTC 201040Z AUTO 04004KT 10SM CLR M23/M28 A3040 590 64 -4000 030/04 RMK AO2 T12281278
14926KSTC STC20190120044511101/20/19 04:45:31  5-MIN KSTC 201045Z AUTO 04005KT 10SM CLR M23/M28 A3039 590 64 -4000 040/05 RMK AO2 T12281278
14926KSTC STC20190120045011801/20/19 04:50:31  5-MIN KSTC 201050Z AUTO 04003KT 10SM CLR M23/M28 A3039 590 64 -4000 040/03 RMK AO2 SLP333 T12281278
14926KSTC STC20190120045511101/20/19 04:55:31  5-MIN KSTC 201055Z AUTO VRB03KT 10SM CLR M23/M28 A3039 590 64 -4000 VRB/03 RMK AO2 T12281278
14926KSTC STC20190120050011101/20/19 05:00:31  5-MIN KSTC 201100Z AUTO 05003KT 10SM CLR M23/M28 A3039 590 64 -4000 050/03 RMK AO2 T12281278
14926KSTC STC20190120050511101/20/19 05:05:31  5-MIN KSTC 201105Z AUTO 05003KT 10SM CLR M23/M28 A3039 590 64 -4000 050/03 RMK AO2 T12281278
14926KSTC STC20190120051011101/20/19 05:10:31  5-MIN KSTC 201110Z AUTO 05003KT 10SM CLR M23/M28 A3039 590 64 -4000 050/03 RMK AO2 T12281278
14926KSTC STC20190120051511101/20/19 05:15:31  5-MIN KSTC 201115Z AUTO 05005KT 10SM CLR M23/M28 A3039 600 64 -4000 050/05 RMK AO2 T12281278
14926KSTC STC20190120052011101/20/19 05:20:31  5-MIN KSTC 201120Z AUTO 06004KT 10SM CLR M23/M28 A3039 600 64 -4000 050/04 RMK AO2 T12281278
14926KSTC STC20190120052511101/20/19 05:25:31  5-MIN KSTC 201125Z AUTO 06003KT 10SM CLR M23/M28 A3039 600 64 -4000 060/03 RMK AO2 T12281278
14926KSTC STC20190120053011101/20/19 05:30:31  5-MIN KSTC 201130Z AUTO 05003KT 10SM CLR M23/M28 A3039 590 64 -4000 050/03 RMK AO2 T12281278
14926KSTC STC20190120053511101/20/19 05:35:31  5-MIN KSTC 201135Z AUTO 04004KT 10SM CLR M23/M28 A3040 590 64 -4000 040/04 RMK AO2 T12281278
14926KSTC STC20190120054011101/20/19 05:40:31  5-MIN KSTC 201140Z AUTO 00000KT 10SM CLR M23/M28 A3040 590 64 -4000 000/00 RMK AO2 T12281278
14926KSTC STC20190120054511101/20/19 05:45:31  5-MIN KSTC 201145Z AUTO 02003KT 10SM CLR M23/M28 A3040 590 64 -4000 020/03 RMK AO2 T12281278
14926KSTC STC20190120055013601/20/19 05:50:31  5-MIN KSTC 201150Z AUTO 03003KT 10SM CLR M23/M28 A3040 590 64 -4000 030/03 RMK AO2 SLP336 T12281278 11200 21228 52009
14926KSTC STC20190120055511101/20/19 05:55:31  5-MIN KSTC 201155Z AUTO 01003KT 10SM CLR M23/M28 A3040 580 64 -4000 010/03 RMK AO2 T12281278
14926KSTC STC20190120060011101/20/19 06:00:31  5-MIN KSTC 201200Z AUTO 02004KT 10SM CLR M23/M28 A3040 580 64 -4000 020/04 RMK AO2 T12281278
14926KSTC STC20190120060511101/20/19 06:05:31  5-MIN KSTC 201205Z AUTO 03004KT 10SM CLR M23/M28 A3040 580 64 -4000 020/04 RMK AO2 T12281278
14926KSTC STC20190120061011101/20/19 06:10:31  5-MIN KSTC 201210Z AUTO 04004KT 10SM CLR M23/M28 A3041 580 64 -4000 040/04 RMK AO2 T12281278
14926KSTC STC20190120061511101/20/19 06:15:31  5-MIN KSTC 201215Z AUTO 03004KT 10SM CLR M23/M28 A3041 580 64 -4000 030/04 RMK AO2 T12281278
14926KSTC STC20190120062011101/20/19 06:20:31  5-MIN KSTC 201220Z AUTO 04005KT 10SM CLR M23/M28 A3041 570 64 -4100 040/05 RMK AO2 T12281278
14926KSTC STC20190120062511101/20/19 06:25:31  5-MIN KSTC 201225Z AUTO 04004KT 10SM CLR M23/M28 A3041 580 64 -4100 040/04 RMK AO2 T12281278
14926KSTC STC20190120063011101/20/19 06:30:31  5-MIN KSTC 201230Z AUTO 04004KT 10SM CLR M23/M28 A3041 570 64 -4100 040/04 RMK AO2 T12281278
14926KSTC STC20190120063511101/20/19 06:35:31  5-MIN KSTC 201235Z AUTO 04006KT 10SM CLR M23/M28 A3041 570 64 -4100 040/06 RMK AO2 T12281278
14926KSTC STC20190120064011101/20/19 06:40:31  5-MIN KSTC 201240Z AUTO 04004KT 10SM CLR M23/M28 A3042 570 64 -4100 040/04 RMK AO2 T12281278
14926KSTC STC20190120064511101/20/19 06:45:31  5-MIN KSTC 201245Z AUTO VRB05KT 10SM CLR M23/M28 A3042 570 64 -4100 VRB/05 RMK AO2 T12281278
14926KSTC STC20190120065011301/20/19 06:50:31  5-MIN KSTC 201250Z 04004KT 10SM CLR M23/M28 A3042 570 64 -4100 030/04 RMK AO2 SLP343 T12281278
14926KSTC STC20190120065510601/20/19 06:55:31  5-MIN KSTC 201255Z 03004KT 10SM CLR M23/M28 A3043 560 64 -4100 030/04 RMK AO2 T12281278
14926KSTC STC20190120070010601/20/19 07:00:31  5-MIN KSTC 201300Z 04007KT 10SM CLR M23/M28 A3043 560 64 -4100 040/07 RMK AO2 T12281278
14926KSTC STC20190120070510601/20/19 07:05:31  5-MIN KSTC 201305Z 05005KT 10SM CLR M23/M28 A3042 560 64 -4100 050/05 RMK AO2 T12281278
14926KSTC STC20190120071010901/20/19 07:10:31  5-MIN KSTC 201310Z 04006KT 10SM FEW120 M23/M28 A3043 560 64 -4100 040/06 RMK AO2 T12281278
14926KSTC STC20190120071510901/20/19 07:15:31  5-MIN KSTC 201315Z 03006KT 10SM FEW120 M23/M28 A3043 560 64 -4100 030/06 RMK AO2 T12281278
14926KSTC STC20190120072010901/20/19 07:20:31  5-MIN KSTC 201320Z 05007KT 10SM FEW120 M23/M28 A3043 560 64 -4100 050/07 RMK AO2 T12281278
14926KSTC STC20190120072510901/20/19 07:25:31  5-MIN KSTC 201325Z 04005KT 10SM FEW120 M23/M28 A3044 550 64 -4100 040/05 RMK AO2 T12281278
14926KSTC STC20190120073010901/20/19 07:30:31  5-MIN KSTC 201330Z 04005KT 10SM FEW120 M23/M28 A3044 550 64 -4100 040/05 RMK AO2 T12281278
14926KSTC STC20190120073510901/20/19 07:35:31  5-MIN KSTC 201335Z 04005KT 10SM FEW120 M23/M28 A3044 550 64 -4100 040/05 RMK AO2 T12281278
14926KSTC STC20190120074010901/20/19 07:40:31  5-MIN KSTC 201340Z 04004KT 10SM FEW120 M23/M28 A3044 550 64 -4100 030/04 RMK AO2 T12281278
14926KSTC STC20190120074510901/20/19 07:45:31  5-MIN KSTC 201345Z 03006KT 10SM FEW120 M23/M28 A3044 550 64 -4100 030/06 RMK AO2 T12281278
14926KSTC STC20190120075011601/20/19 07:50:31  5-MIN KSTC 201350Z 04006KT 10SM FEW120 M23/M28 A3044 550 67 -4200 030/06 RMK AO2 SLP350 T12331278
14926KSTC STC20190120075510601/20/19 07:55:31  5-MIN KSTC 201355Z 03005KT 10SM CLR M23/M28 A3044 550 64 -4200 030/05 RMK AO2 T12331283
14926KSTC STC20190120080010601/20/19 08:00:31  5-MIN KSTC 201400Z 03005KT 10SM CLR M23/M28 A3044 550 64 -4200 030/05 RMK AO2 T12331283
14926KSTC STC20190120080510601/20/19 08:05:31  5-MIN KSTC 201405Z 03004KT 10SM CLR M23/M28 A3044 550 64 -4200 030/04 RMK AO2 T12331283
14926KSTC STC20190120081010601/20/19 08:10:31  5-MIN KSTC 201410Z 03004KT 10SM CLR M23/M28 A3044 540 64 -4200 020/04 RMK AO2 T12331283
14926KSTC STC20190120081510601/20/19 08:15:31  5-MIN KSTC 201415Z 02004KT 10SM CLR M23/M28 A3044 550 64 -4200 020/04 RMK AO2 T12331283
14926KSTC STC20190120082010601/20/19 08:20:31  5-MIN KSTC 201420Z 01005KT 10SM CLR M23/M28 A3044 550 64 -4200 010/05 RMK AO2 T12331283
14926KSTC STC20190120082510601/20/19 08:25:31  5-MIN KSTC 201425Z 03006KT 10SM CLR M23/M28 A3044 540 64 -4200 030/06 RMK AO2 T12331283
14926KSTC STC20190120083010601/20/19 08:30:31  5-MIN KSTC 201430Z 04006KT 10SM CLR M23/M28 A3044 550 61 -4100 040/06 RMK AO2 T12281283
14926KSTC STC20190120083510601/20/19 08:35:31  5-MIN KSTC 201435Z 03006KT 10SM CLR M23/M28 A3045 540 61 -4100 030/06 RMK AO2 T12281283
14926KSTC STC20190120084010601/20/19 08:40:31  5-MIN KSTC 201440Z 03004KT 10SM CLR M23/M28 A3045 540 64 -4100 030/04 RMK AO2 T12281278
14926KSTC STC20190120084510601/20/19 08:45:31  5-MIN KSTC 201445Z 03004KT 10SM CLR M23/M28 A3045 540 64 -4100 030/04 RMK AO2 T12281278
14926KSTC STC20190120085011901/20/19 08:50:31  5-MIN KSTC 201450Z 05005KT 10SM CLR M23/M28 A3045 540 64 -4100 050/05 RMK AO2 SLP355 T12281278 53003
14926KSTC STC20190120085510601/20/19 08:55:31  5-MIN KSTC 201455Z 03004KT 10SM CLR M22/M28 A3046 530 61 -4000 030/04 RMK AO2 T12221278
14926KSTC STC20190120090010601/20/19 09:00:31  5-MIN KSTC 201500Z VRB06KT 10SM CLR M22/M28 A3046 530 61 -4000 VRB/06 RMK AO2 T12221278
14926KSTC STC20190120090510601/20/19 09:05:31  5-MIN KSTC 201505Z 05007KT 10SM CLR M22/M28 A3046 530 61 -4000 050/07 RMK AO2 T12221278
14926KSTC STC20190120091010601/20/19 09:10:31  5-MIN KSTC 201510Z 04008KT 10SM CLR M23/M28 A3046 530 64 -4100 040/08 RMK AO2 T12281278
14926KSTC STC20190120091510601/20/19 09:15:31  5-MIN KSTC 201515Z 04007KT 10SM CLR M22/M28 A3046 530 61 -4000 040/07 RMK AO2 T12221278
14926KSTC STC20190120092010601/20/19 09:20:31  5-MIN KSTC 201520Z 04007KT 10SM CLR M22/M28 A3047 530 61 -4000 040/07 RMK AO2 T12221278
14926KSTC STC20190120092510601/20/19 09:25:31  5-MIN KSTC 201525Z 03006KT 10SM CLR M22/M28 A3047 520 61 -4000 030/06 RMK AO2 T12221278
14926KSTC STC20190120093010601/20/19 09:30:31  5-MIN KSTC 201530Z 03006KT 10SM CLR M22/M28 A3047 520 61 -4000 030/06 RMK AO2 T12221278
14926KSTC STC20190120093510601/20/19 09:35:31  5-MIN KSTC 201535Z 02004KT 10SM CLR M22/M28 A3047 520 58 -4000 020/04 RMK AO2 T12171278
14926KSTC STC20190120094010601/20/19 09:40:31  5-MIN KSTC 201540Z 03005KT 10SM CLR M22/M27 A3047 520 61 -4000 020/05 RMK AO2 T12171272
14926KSTC STC20190120094510601/20/19 09:45:31  5-MIN KSTC 201545Z 01005KT 10SM CLR M22/M27 A3047 520 61 -4000 010/05 RMK AO2 T12171272
14926KSTC STC20190120095011301/20/19 09:50:31  5-MIN KSTC 201550Z 03004KT 10SM CLR M22/M27 A3047 520 61 -4000 020/04 RMK AO2 SLP360 T12171272
14926KSTC STC20190120095510601/20/19 09:55:31  5-MIN KSTC 201555Z 04005KT 10SM CLR M22/M27 A3047 520 61 -4000 040/05 RMK AO2 T12171272
14926KSTC STC20190120100010601/20/19 10:00:31  5-MIN KSTC 201600Z 01005KT 10SM CLR M21/M27 A3047 520 58 -3900 010/05 RMK AO2 T12111272
14926KSTC STC20190120100510601/20/19 10:05:31  5-MIN KSTC 201605Z 01005KT 10SM CLR M21/M27 A3047 520 61 -3900 010/05 RMK AO2 T12111267
14926KSTC STC20190120101010601/20/19 10:10:31  5-MIN KSTC 201610Z 01005KT 10SM CLR M21/M27 A3047 520 61 -3900 010/05 RMK AO2 T12111267
14926KSTC STC20190120101510601/20/19 10:15:31  5-MIN KSTC 201615Z 03004KT 10SM CLR M21/M26 A3047 520 62 -3800 030/04 RMK AO2 T12061261
14926KSTC STC20190120102010601/20/19 10:20:31  5-MIN KSTC 201620Z 03004KT 10SM CLR M20/M26 A3048 520 59 -3700 030/04 RMK AO2 T12001261
14926KSTC STC20190120102510601/20/19 10:25:31  5-MIN KSTC 201625Z 04004KT 10SM CLR M20/M26 A3048 520 59 -3700 040/04 RMK AO2 T12001261
14926KSTC STC20190120103010601/20/19 10:30:31  5-MIN KSTC 201630Z 04005KT 10SM CLR M20/M26 A3048 510 62 -3700 040/05 RMK AO2 T12001256
14926KSTC STC20190120103510601/20/19 10:35:31  5-MIN KSTC 201635Z 03004KT 10SM CLR M20/M26 A3048 510 62 -3700 030/04 RMK AO2 T12001256
14926KSTC STC20190120104010601/20/19 10:40:31  5-MIN KSTC 201640Z 35004KT 10SM CLR M20/M26 A3048 510 62 -3700 350/04 RMK AO2 T12001256
14926KSTC STC20190120104510601/20/19 10:45:31  5-MIN KSTC 201645Z 06003KT 10SM CLR M19/M26 A3048 510 59 -3700 060/03 RMK AO2 T11941256
14926KSTC STC20190120105011301/20/19 10:50:31  5-MIN KSTC 201650Z 36003KT 10SM CLR M19/M26 A3048 510 59 -3700 360/03 RMK AO2 SLP363 T11941256
14926KSTC STC20190120105510601/20/19 10:55:31  5-MIN KSTC 201655Z 09005KT 10SM CLR M19/M25 A3048 510 62 -3700 090/05 RMK AO2 T11941250
14926KSTC STC20190120110010601/20/19 11:00:31  5-MIN KSTC 201700Z 09005KT 10SM CLR M20/M25 A3048 510 65 -3700 090/05 RMK AO2 T12001250
14926KSTC STC20190120110510601/20/19 11:05:31  5-MIN KSTC 201705Z 08004KT 10SM CLR M19/M24 A3048 510 65 -3700 080/04 RMK AO2 T11941244
14926KSTC STC20190120111010601/20/19 11:10:31  5-MIN KSTC 201710Z 09006KT 10SM CLR M19/M24 A3048 510 65 -3700 090/06 RMK AO2 T11941244
14926KSTC STC20190120111510601/20/19 11:15:31  5-MIN KSTC 201715Z 08006KT 10SM CLR M19/M24 A3048 510 65 -3700 080/06 RMK AO2 T11941244
14926KSTC STC20190120112010601/20/19 11:20:31  5-MIN KSTC 201720Z 08006KT 10SM CLR M19/M24 A3048 510 65 -3700 080/06 RMK AO2 T11941244
14926KSTC STC20190120112510601/20/19 11:25:31  5-MIN KSTC 201725Z 07006KT 10SM CLR M19/M24 A3048 510 65 -3700 070/06 RMK AO2 T11941244
14926KSTC STC20190120113010601/20/19 11:30:31  5-MIN KSTC 201730Z 09004KT 10SM CLR M19/M24 A3048 510 65 -3700 090/04 RMK AO2 T11941244
14926KSTC STC20190120113510601/20/19 11:35:31  5-MIN KSTC 201735Z 08005KT 10SM CLR M19/M24 A3048 520 65 -3600 070/05 RMK AO2 T11891239
14926KSTC STC20190120114010601/20/19 11:40:31  5-MIN KSTC 201740Z 09005KT 10SM CLR M19/M24 A3047 520 65 -3600 090/05 RMK AO2 T11891239
14926KSTC STC20190120114510601/20/19 11:45:31  5-MIN KSTC 201745Z 08005KT 10SM CLR M19/M24 A3047 520 65 -3600 080/05 RMK AO2 T11891239
14926KSTC STC20190120115013101/20/19 11:50:31  5-MIN KSTC 201750Z 08004KT 10SM CLR M19/M24 A3047 520 65 -3600 080/04 RMK AO2 SLP359 T11891239 11189 21233 51017
14926KSTC STC20190120115510601/20/19 11:55:31  5-MIN KSTC 201755Z 07006KT 10SM CLR M18/M24 A3047 520 62 -3500 070/06 RMK AO2 T11831239
14926KSTC STC20190120120010601/20/19 12:00:31  5-MIN KSTC 201800Z 08005KT 10SM CLR M18/M24 A3047 520 62 -3500 080/05 RMK AO2 T11831239
14926KSTC STC20190120120510601/20/19 12:05:31  5-MIN KSTC 201805Z 10006KT 10SM CLR M18/M24 A3046 530 62 -3500 090/06 RMK AO2 T11831239
14926KSTC STC20190120121010601/20/19 12:10:31  5-MIN KSTC 201810Z 09006KT 10SM CLR M18/M24 A3046 530 62 -3500 090/06 RMK AO2 T11831239
14926KSTC STC20190120121510601/20/19 12:15:31  5-MIN KSTC 201815Z 08003KT 10SM CLR M18/M23 A3046 530 62 -3400 080/03 RMK AO2 T11781233
14926KSTC STC20190120122010601/20/19 12:20:31  5-MIN KSTC 201820Z 08005KT 10SM CLR M18/M23 A3046 530 62 -3400 080/05 RMK AO2 T11781233
14926KSTC STC20190120122510601/20/19 12:25:31  5-MIN KSTC 201825Z 07006KT 10SM CLR M18/M23 A3046 530 62 -3400 070/06 RMK AO2 T11781233
14926KSTC STC20190120123010601/20/19 12:30:31  5-MIN KSTC 201830Z 08006KT 10SM CLR M18/M23 A3046 530 62 -3400 080/06 RMK AO2 T11781233
14926KSTC STC20190120123510601/20/19 12:35:31  5-MIN KSTC 201835Z 09006KT 10SM CLR M18/M23 A3046 530 62 -3400 090/06 RMK AO2 T11781233
14926KSTC STC20190120124010601/20/19 12:40:31  5-MIN KSTC 201840Z 09005KT 10SM CLR M17/M23 A3045 540 59 -3300 090/05 RMK AO2 T11721233
14926KSTC STC20190120124510601/20/19 12:45:31  5-MIN KSTC 201845Z VRB04KT 10SM CLR M18/M23 A3045 540 62 -3400 VRB/04 RMK AO2 T11781233
14926KSTC STC20190120225510601/20/19 22:55:31  5-MIN KSTC 210455Z 10004KT 10SM CLR M20/M24 A3040 580 71 -3700 100/04 RMK AO2 T12001239
14926KSTC STC20190120230010601/20/19 23:00:31  5-MIN KSTC 210500Z 09003KT 10SM CLR M20/M24 A3040 580 71 -3700 090/03 RMK AO2 T12001239
14926KSTC STC20190120230511101/20/19 23:05:31  5-MIN KSTC 210505Z AUTO 09003KT 10SM CLR M20/M24 A3040 580 71 -3700 090/03 RMK AO2 T12001239
14926KSTC STC20190120231011101/20/19 23:10:31  5-MIN KSTC 210510Z AUTO 00000KT 10SM CLR M20/M24 A3041 580 71 -3700 000/00 RMK AO2 T12001239
14926KSTC STC20190120231511101/20/19 23:15:31  5-MIN KSTC 210515Z AUTO 15004KT 10SM CLR M21/M24 A3041 580 75 -3700 150/04 RMK AO2 T12061239
14926KSTC STC20190120232011101/20/19 23:20:31  5-MIN KSTC 210520Z AUTO 14004KT 10SM CLR M21/M24 A3040 580 71 -3700 140/04 RMK AO2 T12061244
14926KSTC STC20190120232511101/20/19 23:25:31  5-MIN KSTC 210525Z AUTO 14004KT 10SM CLR M21/M24 A3041 580 71 -3700 140/04 RMK AO2 T12061244
14926KSTC STC20190120233011101/20/19 23:30:31  5-MIN KSTC 210530Z AUTO 13004KT 10SM CLR M21/M24 A3040 580 75 -3800 130/04 RMK AO2 T12111244
14926KSTC STC20190120233511101/20/19 23:35:31  5-MIN KSTC 210535Z AUTO 12003KT 10SM CLR M21/M24 A3041 580 75 -3800 120/03 RMK AO2 T12111244
14926KSTC STC20190120234011101/20/19 23:40:31  5-MIN KSTC 210540Z AUTO 12003KT 10SM CLR M21/M24 A3041 580 75 -3800 120/03 RMK AO2 T12111244
14926KSTC STC20190120234510101/20/19 23:45:31  5-MIN KSTC 210545Z AUTO 10SM CLR M21/M24 A3040 580 75 -3800 M /M RMK AO2 T12111244
14926KSTC STC20190120235013601/20/19 23:50:31  5-MIN KSTC 210550Z AUTO 10SM CLR M22/M24 A3040 580 79 -3900 M /M RMK AO2 SLP336 T12171244 11178 21217 411561233 58006
14926KSTC STC20190120235510101/20/19 23:55:31  5-MIN KSTC 210555Z AUTO 10SM CLR M21/M24 A3040 590 79 -3800 M /M RMK AO2 T12111239
14926KSTC STC20190121000011101/21/19 00:00:31  5-MIN KSTC 210600Z AUTO 13003KT 10SM CLR M21/M24 A3040 590 79 -3800 130/03 RMK AO2 T12111239
14926KSTC STC20190121000511101/21/19 00:05:31  5-MIN KSTC 210605Z AUTO 12003KT 10SM CLR M21/M24 A3040 590 75 -3700 120/03 RMK AO2 T12061239
14926KSTC STC20190121001011101/21/19 00:10:31  5-MIN KSTC 210610Z AUTO 12003KT 10SM CLR M21/M24 A3040 590 75 -3700 120/03 RMK AO2 T12061239
14926KSTC STC20190121001511101/21/19 00:15:31  5-MIN KSTC 210615Z AUTO 11004KT 10SM CLR M21/M24 A3039 590 75 -3700 100/04 RMK AO2 T12061239
14926KSTC STC20190121002011101/21/19 00:20:31  5-MIN KSTC 210620Z AUTO 10005KT 10SM CLR M21/M24 A3039 590 75 -3700 100/05 RMK AO2 T12061239
14926KSTC STC20190121002511101/21/19 00:25:31  5-MIN KSTC 210625Z AUTO 11005KT 10SM CLR M21/M24 A3039 590 79 -3800 110/05 RMK AO2 T12111239
14926KSTC STC20190121003011101/21/19 00:30:31  5-MIN KSTC 210630Z AUTO 11005KT 10SM CLR M21/M24 A3039 590 75 -3700 110/05 RMK AO2 T12061239
14926KSTC STC20190121003511101/21/19 00:35:31  5-MIN KSTC 210635Z AUTO 10005KT 10SM CLR M20/M24 A3039 600 71 -3600 100/05 RMK AO2 T12001239
14926KSTC STC20190121004011101/21/19 00:40:31  5-MIN KSTC 210640Z AUTO 10005KT 10SM CLR M20/M24 A3038 600 71 -3600 100/05 RMK AO2 T12001239
14926KSTC STC20190121004511101/21/19 00:45:31  5-MIN KSTC 210645Z AUTO 09006KT 10SM CLR M21/M24 A3038 600 75 -3700 090/06 RMK AO2 T12061239
14926KSTC STC20190121005011801/21/19 00:50:31  5-MIN KSTC 210650Z AUTO 09006KT 10SM CLR M21/M24 A3038 610 75 -3700 090/06 RMK AO2 SLP326 T12061239
14926KSTC STC20190121005511101/21/19 00:55:31  5-MIN KSTC 210655Z AUTO 08005KT 10SM CLR M20/M24 A3037 610 71 -3600 080/05 RMK AO2 T12001239
14926KSTC STC20190121010011101/21/19 01:00:31  5-MIN KSTC 210700Z AUTO 09005KT 10SM CLR M21/M24 A3037 610 75 -3700 090/05 RMK AO2 T12061239
14926KSTC STC20190121010511101/21/19 01:05:31  5-MIN KSTC 210705Z AUTO 10003KT 10SM CLR M21/M24 A3037 610 75 -3700 100/03 RMK AO2 T12061239
14926KSTC STC20190121011011101/21/19 01:10:31  5-MIN KSTC 210710Z AUTO 10004KT 10SM CLR M21/M24 A3037 610 75 -3700 090/04 RMK AO2 T12061239
14926KSTC STC20190121011511101/21/19 01:15:31  5-MIN KSTC 210715Z AUTO 10004KT 10SM CLR M21/M24 A3037 610 75 -3700 100/04 RMK AO2 T12061239
14926KSTC STC20190121012011101/21/19 01:20:31  5-MIN KSTC 210720Z AUTO 11004KT 10SM CLR M21/M24 A3037 610 75 -3700 100/04 RMK AO2 T12061239
14926KSTC STC20190121012511101/21/19 01:25:31  5-MIN KSTC 210725Z AUTO 10004KT 10SM CLR M20/M24 A3037 610 71 -3600 100/04 RMK AO2 T12001239
14926KSTC STC20190121013011101/21/19 01:30:31  5-MIN KSTC 210730Z AUTO 10004KT 10SM CLR M21/M24 A3037 610 75 -3700 100/04 RMK AO2 T12061239
14926KSTC STC20190121013511101/21/19 01:35:31  5-MIN KSTC 210735Z AUTO 10005KT 10SM CLR M21/M24 A3037 610 75 -3700 100/05 RMK AO2 T12061239
14926KSTC STC20190121014011101/21/19 01:40:31  5-MIN KSTC 210740Z AUTO 11004KT 10SM CLR M20/M24 A3037 610 71 -3600 110/04 RMK AO2 T12001239
14926KSTC STC20190121014511101/21/19 01:45:31  5-MIN KSTC 210745Z AUTO 11004KT 10SM CLR M20/M24 A3037 610 71 -3600 110/04 RMK AO2 T12001239
14926KSTC STC20190121015011801/21/19 01:50:31  5-MIN KSTC 210750Z AUTO 11003KT 10SM CLR M20/M24 A3037 610 71 -3600 110/03 RMK AO2 SLP324 T12001239
14926KSTC STC20190121015511101/21/19 01:55:31  5-MIN KSTC 210755Z AUTO 11004KT 10SM CLR M20/M23 A3037 610 75 -3600 110/04 RMK AO2 T12001233
14926KSTC STC20190121020011101/21/19 02:00:31  5-MIN KSTC 210800Z AUTO 11004KT 10SM CLR M20/M23 A3037 610 75 -3600 110/04 RMK AO2 T12001233
14926KSTC STC20190121020511101/21/19 02:05:31  5-MIN KSTC 210805Z AUTO 12003KT 10SM CLR M20/M23 A3037 610 75 -3600 120/03 RMK AO2 T12001233
14926KSTC STC20190121021011101/21/19 02:10:31  5-MIN KSTC 210810Z AUTO 11003KT 10SM CLR M20/M23 A3038 610 75 -3600 110/03 RMK AO2 T12001233
14926KSTC STC20190121021511101/21/19 02:15:31  5-MIN KSTC 210815Z AUTO 11004KT 10SM CLR M21/M23 A3038 610 79 -3700 110/04 RMK AO2 T12061233
14926KSTC STC20190121022011101/21/19 02:20:31  5-MIN KSTC 210820Z AUTO 11004KT 10SM CLR M21/M23 A3038 610 79 -3700 110/04 RMK AO2 T12061233
14926KSTC STC20190121022511401/21/19 02:25:31  5-MIN KSTC 210825Z AUTO 11004KT 10SM FEW090 M21/M23 A3038 600 79 -3700 110/04 RMK AO2 T12061233
14926KSTC STC20190121023011401/21/19 02:30:31  5-MIN KSTC 210830Z AUTO 11005KT 10SM SCT090 M20/M23 A3038 600 75 -3600 110/05 RMK AO2 T12001233
14926KSTC STC20190121023511401/21/19 02:35:31  5-MIN KSTC 210835Z AUTO 11004KT 10SM BKN090 M20/M23 A3038 610 75 -3600 110/04 RMK AO2 T12001233
14926KSTC STC20190121024011401/21/19 02:40:31  5-MIN KSTC 210840Z AUTO 11005KT 10SM BKN090 M20/M23 A3037 610 75 -3600 110/05 RMK AO2 T12001233
14926KSTC STC20190121024511401/21/19 02:45:31  5-MIN KSTC 210845Z AUTO 10004KT 10SM BKN090 M19/M23 A3038 610 75 -3500 100/04 RMK AO2 T11941228
14926KSTC STC20190121025012701/21/19 02:50:31  5-MIN KSTC 210850Z AUTO 11005KT 10SM OVC090 M19/M23 A3037 610 75 -3500 110/05 RMK AO2 SLP324 T11941228 56007
14926KSTC STC20190121025511401/21/19 02:55:31  5-MIN KSTC 210855Z AUTO 11005KT 10SM OVC090 M19/M23 A3037 610 75 -3500 110/05 RMK AO2 T11941228
14926KSTC STC20190121030011401/21/19 03:00:31  5-MIN KSTC 210900Z AUTO 11004KT 10SM OVC090 M19/M23 A3037 610 75 -3500 110/04 RMK AO2 T11941228
14926KSTC STC20190121030511401/21/19 03:05:31  5-MIN KSTC 210905Z AUTO 11005KT 10SM BKN090 M19/M23 A3037 610 72 -3500 110/05 RMK AO2 T11891228
14926KSTC STC20190121031011401/21/19 03:10:31  5-MIN KSTC 210910Z AUTO 12005KT 10SM BKN090 M19/M23 A3037 610 72 -3500 120/05 RMK AO2 T11891228
14926KSTC STC20190121031511401/21/19 03:15:31  5-MIN KSTC 210915Z AUTO 12005KT 10SM SCT090 M19/M23 A3037 610 72 -3500 120/05 RMK AO2 T11891228
14926KSTC STC20190121032011401/21/19 03:20:31  5-MIN KSTC 210920Z AUTO 13005KT 10SM FEW090 M19/M23 A3037 610 72 -3500 120/05 RMK AO2 T11891228
14926KSTC STC20190121032511401/21/19 03:25:31  5-MIN KSTC 210925Z AUTO 12005KT 10SM FEW090 M19/M23 A3037 610 72 -3500 120/05 RMK AO2 T11891228
14926KSTC STC20190121033011101/21/19 03:30:31  5-MIN KSTC 210930Z AUTO 12006KT 10SM CLR M19/M23 A3037 610 75 -3500 120/06 RMK AO2 T11941228
14926KSTC STC20190121033511101/21/19 03:35:31  5-MIN KSTC 210935Z AUTO 12005KT 10SM CLR M19/M23 A3037 610 75 -3500 120/05 RMK AO2 T11941228
14926KSTC STC20190121034011101/21/19 03:40:31  5-MIN KSTC 210940Z AUTO 12006KT 10SM CLR M19/M23 A3037 610 75 -3500 120/06 RMK AO2 T11941228
14926KSTC STC20190121034511101/21/19 03:45:31  5-MIN KSTC 210945Z AUTO 12005KT 10SM CLR M19/M23 A3037 610 75 -3500 120/05 RMK AO2 T11941228
14926KSTC STC20190121035011801/21/19 03:50:31  5-MIN KSTC 210950Z AUTO 13005KT 10SM CLR M19/M23 A3037 610 75 -3500 130/05 RMK AO2 SLP322 T11941228
14926KSTC STC20190121035511101/21/19 03:55:31  5-MIN KSTC 210955Z AUTO 12005KT 10SM CLR M19/M23 A3037 610 75 -3500 120/05 RMK AO2 T11941228
14926KSTC STC20190121040011101/21/19 04:00:31  5-MIN KSTC 211000Z AUTO 12005KT 10SM CLR M19/M22 A3037 610 79 -3500 120/05 RMK AO2 T11941222
14926KSTC STC20190121040511101/21/19 04:05:31  5-MIN KSTC 211005Z AUTO 12005KT 10SM CLR M19/M22 A3037 620 79 -3500 120/05 RMK AO2 T11941222
14926KSTC STC20190121041011101/21/19 04:10:31  5-MIN KSTC 211010Z AUTO 12004KT 10SM CLR M19/M22 A3037 620 79 -3500 120/04 RMK AO2 T11941222
14926KSTC STC20190121041511101/21/19 04:15:31  5-MIN KSTC 211015Z AUTO 13005KT 10SM CLR M19/M22 A3036 620 75 -3500 130/05 RMK AO2 T11891222
14926KSTC STC20190121042011101/21/19 04:20:31  5-MIN KSTC 211020Z AUTO 13005KT 10SM CLR M19/M22 A3036 620 75 -3500 130/05 RMK AO2 T11891222
14926KSTC STC20190121042511101/21/19 04:25:31  5-MIN KSTC 211025Z AUTO 13006KT 10SM CLR M19/M22 A3036 620 75 -3500 130/06 RMK AO2 T11891222
14926KSTC STC20190121043011101/21/19 04:30:31  5-MIN KSTC 211030Z AUTO 13006KT 10SM CLR M19/M22 A3036 620 75 -3500 130/06 RMK AO2 T11891222
14926KSTC STC20190121043511401/21/19 04:35:31  5-MIN KSTC 211035Z AUTO 13007KT 10SM FEW085 M18/M22 A3036 620 75 -3400 130/07 RMK AO2 T11831217
14926KSTC STC20190121044011401/21/19 04:40:31  5-MIN KSTC 211040Z AUTO 13007KT 10SM SCT085 M18/M22 A3035 630 75 -3400 130/07 RMK AO2 T11831217
14926KSTC STC20190121044511401/21/19 04:45:31  5-MIN KSTC 211045Z AUTO 12007KT 10SM SCT085 M18/M22 A3035 630 75 -3400 120/07 RMK AO2 T11831217
14926KSTC STC20190121045012101/21/19 04:50:31  5-MIN KSTC 211050Z AUTO 13007KT 10SM SCT085 M18/M22 A3035 630 75 -3400 130/07 RMK AO2 SLP314 T11831217
14926KSTC STC20190121045511401/21/19 04:55:31  5-MIN KSTC 211055Z AUTO 13008KT 10SM SCT085 M18/M22 A3035 630 75 -3400 130/08 RMK AO2 T11831217
14926KSTC STC20190121050011401/21/19 05:00:31  5-MIN KSTC 211100Z AUTO 13008KT 10SM FEW085 M18/M22 A3035 640 72 -3300 130/08 RMK AO2 T11781217
14926KSTC STC20190121050511401/21/19 05:05:31  5-MIN KSTC 211105Z AUTO 13007KT 10SM FEW085 M18/M22 A3034 640 72 -3300 130/07 RMK AO2 T11781217
14926KSTC STC20190121051011401/21/19 05:10:31  5-MIN KSTC 211110Z AUTO 13008KT 10SM FEW085 M18/M22 A3034 640 72 -3300 130/08 RMK AO2 T11781217
14926KSTC STC20190121051511101/21/19 05:15:31  5-MIN KSTC 211115Z AUTO 13008KT 10SM CLR M18/M22 A3034 640 72 -3300 130/08 RMK AO2 T11781217
14926KSTC STC20190121052011101/21/19 05:20:31  5-MIN KSTC 211120Z AUTO 13009KT 10SM CLR M18/M22 A3033 650 72 -3300 130/09 RMK AO2 T11781217
14926KSTC STC20190121052511701/21/19 05:25:31  5-MIN KSTC 211125Z AUTO 13010G15KT 10SM CLR M18/M22 A3033 650 72 -3300 130/10G15 RMK AO2 T11781217
14926KSTC STC20190121053011701/21/19 05:30:31  5-MIN KSTC 211130Z AUTO 13008G15KT 10SM CLR M18/M21 A3033 650 75 -3300 130/08G15 RMK AO2 T11781211
14926KSTC STC20190121053511101/21/19 05:35:31  5-MIN KSTC 211135Z AUTO 13008KT 10SM CLR M17/M21 A3033 650 72 -3200 130/08 RMK AO2 T11721211
14926KSTC STC20190121054011101/21/19 05:40:31  5-MIN KSTC 211140Z AUTO 13009KT 10SM CLR M17/M21 A3033 650 72 -3200 130/09 RMK AO2 T11721211
14926KSTC STC20190121054511101/21/19 05:45:31  5-MIN KSTC 211145Z AUTO 13008KT 10SM CLR M17/M21 A3033 650 72 -3200 130/08 RMK AO2 T11721211
14926KSTC STC20190121055013601/21/19 05:50:31  5-MIN KSTC 211150Z AUTO 14009KT 10SM CLR M17/M21 A3032 650 72 -3200 140/09 RMK AO2 SLP307 T11721211 11172 21211 55008
14926KSTC STC20190121055511101/21/19 05:55:31  5-MIN KSTC 211155Z AUTO 13009KT 10SM CLR M17/M21 A3032 660 72 -3200 130/09 RMK AO2 T11721211
14926KSTC STC20190121060011101/21/19 06:00:31  5-MIN KSTC 211200Z AUTO 13009KT 10SM CLR M17/M21 A3032 660 69 -3100 130/09 RMK AO2 T11671211
14926KSTC STC20190121060511101/21/19 06:05:31  5-MIN KSTC 211205Z AUTO 14009KT 10SM CLR M17/M21 A3032 660 69 -3100 140/09 RMK AO2 T11671211
14926KSTC STC20190121061011101/21/19 06:10:31  5-MIN KSTC 211210Z AUTO 15011KT 10SM CLR M17/M21 A3032 660 69 -3100 150/11 RMK AO2 T11671211
14926KSTC STC20190121061511101/21/19 06:15:31  5-MIN KSTC 211215Z AUTO 15011KT 10SM CLR M17/M21 A3033 650 69 -3100 150/11 RMK AO2 T11671211
14926KSTC STC20190121062011101/21/19 06:20:31  5-MIN KSTC 211220Z AUTO 15011KT 10SM CLR M17/M21 A3032 650 69 -3100 150/11 RMK AO2 T11671211
14926KSTC STC20190121062511101/21/19 06:25:31  5-MIN KSTC 211225Z AUTO 15011KT 10SM CLR M17/M22 A3032 660 66 -3100 150/11 RMK AO2 T11671217
14926KSTC STC20190121063011101/21/19 06:30:31  5-MIN KSTC 211230Z AUTO 15010KT 10SM CLR M17/M22 A3032 660 66 -3100 150/10 RMK AO2 T11671217
14926KSTC STC20190121063511101/21/19 06:35:31  5-MIN KSTC 211235Z AUTO 15011KT 10SM CLR M17/M21 A3031 670 69 -3100 150/11 RMK AO2 T11671211
14926KSTC STC20190121064011101/21/19 06:40:31  5-MIN KSTC 211240Z AUTO 15011KT 10SM CLR M17/M21 A3031 670 69 -3100 150/11 RMK AO2 T11671211
14926KSTC STC20190121064511101/21/19 06:45:31  5-MIN KSTC 211245Z AUTO 15009KT 10SM CLR M17/M22 A3031 670 66 -3100 150/09 RMK AO2 T11671217
14926KSTC STC20190121065011301/21/19 06:50:31  5-MIN KSTC 211250Z 15010KT 10SM CLR M17/M22 A3031 670 66 -3100 150/10 RMK AO2 SLP302 T11671217
14926KSTC STC20190121065510601/21/19 06:55:31  5-MIN KSTC 211255Z 15010KT 10SM CLR M17/M22 A3031 670 66 -3100 150/10 RMK AO2 T11671217
14926KSTC STC20190121070010601/21/19 07:00:31  5-MIN KSTC 211300Z 15011KT 10SM CLR M17/M22 A3031 670 66 -3100 150/11 RMK AO2 T11671217
14926KSTC STC20190121070510601/21/19 07:05:31  5-MIN KSTC 211305Z 15010KT 10SM CLR M17/M22 A3031 670 66 -3100 150/10 RMK AO2 T11671217
14926KSTC STC20190121071010601/21/19 07:10:31  5-MIN KSTC 211310Z 15012KT 10SM CLR M17/M22 A3030 680 66 -3100 150/12 RMK AO2 T11671217
14926KSTC STC20190121071510601/21/19 07:15:31  5-MIN KSTC 211315Z 14010KT 10SM CLR M17/M22 A3030 680 66 -3100 140/10 RMK AO2 T11671217
14926KSTC STC20190121072010901/21/19 07:20:31  5-MIN KSTC 211320Z 14011KT 10SM FEW120 M17/M22 A3029 680 66 -3100 140/11 RMK AO2 T11671217
14926KSTC STC20190121072510901/21/19 07:25:31  5-MIN KSTC 211325Z 14010KT 10SM FEW120 M17/M22 A3030 680 66 -3100 140/10 RMK AO2 T11671217
14926KSTC STC20190121073010901/21/19 07:30:31  5-MIN KSTC 211330Z 14010KT 10SM FEW120 M17/M21 A3029 690 69 -3100 140/10 RMK AO2 T11671211
14926KSTC STC20190121073510901/21/19 07:35:31  5-MIN KSTC 211335Z 14012KT 10SM SCT120 M17/M22 A3028 690 66 -3100 140/12 RMK AO2 T11671217
14926KSTC STC20190121074010901/21/19 07:40:31  5-MIN KSTC 211340Z 14011KT 10SM SCT120 M17/M22 A3028 690 66 -3100 140/11 RMK AO2 T11671217
14926KSTC STC20190121074510901/21/19 07:45:31  5-MIN KSTC 211345Z 14010KT 10SM SCT120 M17/M22 A3028 690 66 -3100 140/10 RMK AO2 T11671217
14926KSTC STC20190121075011601/21/19 07:50:31  5-MIN KSTC 211350Z 14011KT 10SM FEW120 M17/M22 A3028 700 66 -3100 140/11 RMK AO2 SLP291 T11671217
14926KSTC STC20190121075510901/21/19 07:55:31  5-MIN KSTC 211355Z 14012KT 10SM FEW120 M17/M21 A3028 700 69 -3100 140/12 RMK AO2 T11671211
14926KSTC STC20190121080010901/21/19 08:00:31  5-MIN KSTC 211400Z 14013KT 10SM FEW120 M16/M21 A3028 700 66 -3000 140/13 RMK AO2 T11611211
14926KSTC STC20190121080510601/21/19 08:05:31  5-MIN KSTC 211405Z 14013KT 10SM CLR M16/M21 A3028 700 66 -3000 140/13 RMK AO2 T11611211
14926KSTC STC20190121081010601/21/19 08:10:31  5-MIN KSTC 211410Z 14015KT 10SM CLR M16/M21 A3028 700 66 -3000 140/15 RMK AO2 T11611211
14926KSTC STC20190121081511201/21/19 08:15:31  5-MIN KSTC 211415Z 14012G21KT 10SM CLR M16/M21 A3027 700 66 -3000 140/12G21 RMK AO2 T11611211
14926KSTC STC20190121082010601/21/19 08:20:31  5-MIN KSTC 211420Z 14013KT 10SM CLR M16/M21 A3027 700 66 -3000 140/13 RMK AO2 T11611211
14926KSTC STC20190121082510601/21/19 08:25:31  5-MIN KSTC 211425Z 14014KT 10SM CLR M16/M21 A3027 710 66 -3000 140/14 RMK AO2 T11611211
14926KSTC STC20190121083010601/21/19 08:30:31  5-MIN KSTC 211430Z 14015KT 10SM CLR M16/M21 A3027 700 66 -3000 140/15 RMK AO2 T11611211
14926KSTC STC20190121083510601/21/19 08:35:31  5-MIN KSTC 211435Z 14015KT 10SM CLR M16/M21 A3027 710 66 -3000 140/15 RMK AO2 T11611211
14926KSTC STC20190121084010601/21/19 08:40:31  5-MIN KSTC 211440Z 14013KT 10SM CLR M16/M21 A3027 710 63 -2900 140/13 RMK AO2 T11561211
14926KSTC STC20190121084511201/21/19 08:45:31  5-MIN KSTC 211445Z 14015G22KT 10SM CLR M16/M21 A3026 710 66 -2900 140/15G22 RMK AO2 T11561206
14926KSTC STC20190121085012201/21/19 08:50:31  5-MIN KSTC 211450Z 14015KT 10SM FEW110 M16/M21 A3026 710 66 -2900 140/15 RMK AO2 SLP285 T11561206 58017
14926KSTC STC20190121085510901/21/19 08:55:31  5-MIN KSTC 211455Z 14015KT 10SM SCT110 M16/M21 A3027 710 63 -2900 140/15 RMK AO2 T11561211
14926KSTC STC20190121090010901/21/19 09:00:31  5-MIN KSTC 211500Z 14013KT 10SM BKN110 M16/M21 A3026 710 63 -2900 140/13 RMK AO2 T11561211
14926KSTC STC20190121090511501/21/19 09:05:31  5-MIN KSTC 211505Z 14018G23KT 10SM BKN110 M16/M21 A3026 710 63 -2900 140/18G23 RMK AO2 T11561211
14926KSTC STC20190121091011501/21/19 09:10:31  5-MIN KSTC 211510Z 15014G23KT 10SM BKN110 M16/M21 A3026 710 63 -2900 150/14G23 RMK AO2 T11561211
14926KSTC STC20190121091511501/21/19 09:15:31  5-MIN KSTC 211515Z 14018G24KT 10SM OVC100 M16/M21 A3026 710 63 -2900 140/18G24 RMK AO2 T11561211
14926KSTC STC20190121092011501/21/19 09:20:31  5-MIN KSTC 211520Z 15016G24KT 10SM OVC100 M16/M21 A3026 710 63 -2900 150/16G24 RMK AO2 T11561211
14926KSTC STC20190121092511501/21/19 09:25:31  5-MIN KSTC 211525Z 14012G23KT 10SM OVC100 M16/M21 A3026 710 66 -2900 140/12G23 RMK AO2 T11561206
14926KSTC STC20190121093010901/21/19 09:30:31  5-MIN KSTC 211530Z 13013KT 10SM OVC100 M16/M21 A3026 720 63 -2900 130/13 RMK AO2 T11561211
14926KSTC STC20190121093510901/21/19 09:35:31  5-MIN KSTC 211535Z 13014KT 10SM OVC100 M16/M21 A3025 720 63 -2900 130/14 RMK AO2 T11561211
14926KSTC STC20190121094010901/21/19 09:40:31  5-MIN KSTC 211540Z 14014KT 10SM OVC100 M16/M21 A3025 720 63 -2900 130/14 RMK AO2 T11561211
14926KSTC STC20190121094511501/21/19 09:45:31  5-MIN KSTC 211545Z 14013G20KT 10SM BKN100 M15/M21 A3025 720 63 -2800 140/13G20 RMK AO2 T11501206
14926KSTC STC20190121095012201/21/19 09:50:31  5-MIN KSTC 211550Z 13016G20KT 10SM BKN100 M15/M21 A3025 720 60 -2800 130/16G20 RMK AO2 SLP282 T11501211
14926KSTC STC20190121095511501/21/19 09:55:31  5-MIN KSTC 211555Z 14015G20KT 10SM BKN100 M15/M21 A3025 720 60 -2800 140/15G20 RMK AO2 T11501211
14926KSTC STC20190121100011501/21/19 10:00:31  5-MIN KSTC 211600Z 13013G22KT 10SM BKN095 M15/M21 A3026 720 63 -2800 130/13G22 RMK AO2 T11501206
14926KSTC STC20190121100511501/21/19 10:05:31  5-MIN KSTC 211605Z 13015G22KT 10SM BKN090 M15/M21 A3026 710 63 -2800 130/15G22 RMK AO2 T11501206
14926KSTC STC20190121101010901/21/19 10:10:31  5-MIN KSTC 211610Z 14015KT 10SM BKN090 M15/M21 A3027 710 63 -2800 140/15 RMK AO2 T11501206
14926KSTC STC20190121101510901/21/19 10:15:31  5-MIN KSTC 211615Z 14016KT 10SM BKN090 M15/M21 A3027 710 63 -2800 140/16 RMK AO2 T11501206
14926KSTC STC20190121102011601/21/19 10:20:31  5-MIN KSTC 211620Z 14015KT 10SM SCT070 BKN090 M15/M21 A3027 710 63 -2800 140/15 RMK AO2 T11501206
14926KSTC STC20190121102512301/21/19 10:25:31  5-MIN KSTC 211625Z 15016KT 10SM SCT060 BKN080 BKN090 M15/M21 A3026 710 63 -2800 150/16 RMK AO2 T11501206
14926KSTC STC20190121103011601/21/19 10:30:31  5-MIN KSTC 211630Z 14015KT 10SM BKN060 OVC080 M15/M21 A3026 720 63 -2800 140/15 RMK AO2 T11501206
14926KSTC STC20190121103511601/21/19 10:35:31  5-MIN KSTC 211635Z 13014KT 10SM BKN060 BKN080 M15/M21 A3026 720 63 -2800 130/14 RMK AO2 T11501206
14926KSTC STC20190121104011601/21/19 10:40:31  5-MIN KSTC 211640Z 14014KT 10SM BKN060 OVC075 M15/M21 A3026 710 63 -2800 140/14 RMK AO2 T11501206
14926KSTC STC20190121104512201/21/19 10:45:31  5-MIN KSTC 211645Z 14013G19KT 10SM FEW049 OVC060 M14/M21 A3026 720 60 -2700 130/13G19 RMK AO2 T11441206
14926KSTC STC20190121105012201/21/19 10:50:31  5-MIN KSTC 211650Z 14015G19KT 10SM OVC050 M14/M21 A3026 720 57 -2700 140/15G19 RMK AO2 SLP283 T11441211
14926KSTC STC20190121105511501/21/19 10:55:31  5-MIN KSTC 211655Z 14011G19KT 10SM OVC055 M14/M21 A3026 720 60 -2700 140/11G19 RMK AO2 T11441206
14926KSTC STC20190121110011501/21/19 11:00:31  5-MIN KSTC 211700Z 14015G21KT 10SM OVC055 M14/M21 A3026 720 57 -2700 140/15G21 RMK AO2 T11441211
14926KSTC STC20190121110510901/21/19 11:05:31  5-MIN KSTC 211705Z 13013KT 10SM OVC050 M14/M21 A3025 720 60 -2700 130/13 RMK AO2 T11441206
14926KSTC STC20190121111010901/21/19 11:10:31  5-MIN KSTC 211710Z 14015KT 10SM OVC050 M14/M21 A3025 720 57 -2700 130/15 RMK AO2 T11441211
14926KSTC STC20190121111510901/21/19 11:15:31  5-MIN KSTC 211715Z 14014KT 10SM OVC049 M14/M21 A3025 720 57 -2700 140/14 RMK AO2 T11441211
14926KSTC STC20190121112011501/21/19 11:20:31  5-MIN KSTC 211720Z 14015G20KT 10SM OVC049 M14/M21 A3025 730 57 -2700 140/15G20 RMK AO2 T11441211
14926KSTC STC20190121112511501/21/19 11:25:31  5-MIN KSTC 211725Z 13011G19KT 10SM OVC047 M14/M21 A3025 730 60 -2700 130/11G19 RMK AO2 T11441206
14926KSTC STC20190121113010901/21/19 11:30:31  5-MIN KSTC 211730Z 14012KT 10SM OVC047 M14/M21 A3025 730 55 -2600 140/12 RMK AO2 T11391211
14926KSTC STC20190121113510901/21/19 11:35:31  5-MIN KSTC 211735Z 14015KT 10SM OVC045 M14/M21 A3025 720 57 -2700 130/15 RMK AO2 T11441211
14926KSTC STC20190121114011601/21/19 11:40:31  5-MIN KSTC 211740Z 15015KT 10SM BKN042 OVC050 M14/M21 A3025 720 55 -2600 150/15 RMK AO2 T11391211
14926KSTC STC20190121114511601/21/19 11:45:31  5-MIN KSTC 211745Z 14014KT 10SM BKN037 OVC048 M14/M21 A3025 720 57 -2700 140/14 RMK AO2 T11391206
14926KSTC STC20190121115016801/21/19 11:50:31  5-MIN KSTC 211750Z 13013G21KT 8SM -SN BKN034 OVC048 M14/M21 A3025 720 60 -2700 130/13G21 RMK AO2 SNB49 SLP282 P0000 60000 T11441206 11139 21172 58018
14926KSTC STC20190121115513101/21/19 11:55:31  5-MIN KSTC 211755Z 14013G21KT 4SM -SN BKN029 OVC037 M14/M21 A3025 720 60 -2700 130/13G21 RMK AO2 P0000 T11441206
14926KSTC STC20190121120012501/21/19 12:00:31  5-MIN KSTC 211800Z 13011KT 2SM -SN BKN027 OVC036 M14/M21 A3024 730 60 -2700 130/11 RMK AO2 P0000 T11441206
14926KSTC STC20190121120512501/21/19 12:05:31  5-MIN KSTC 211805Z 13012KT 2SM -SN BKN025 OVC036 M14/M20 A3024 730 63 -2700 130/12 RMK AO2 P0000 T11441200
14926KSTC STC20190121121011801/21/19 12:10:31  5-MIN KSTC 211810Z 13011KT 2SM -SN OVC023 M14/M19 A3023 740 66 -2700 120/11 RMK AO2 P0000 T11441194
14926KSTC STC20190121121511801/21/19 12:15:31  5-MIN KSTC 211815Z 13012KT 2SM -SN OVC021 M14/M19 A3023 740 66 -2700 130/12 RMK AO2 P0000 T11441194
14926KSTC STC20190121122011801/21/19 12:20:31  5-MIN KSTC 211820Z 13009KT 2SM -SN OVC021 M14/M19 A3023 740 69 -2700 130/09 RMK AO2 P0001 T11441189
14926KSTC STC20190121122511801/21/19 12:25:31  5-MIN KSTC 211825Z 13009KT 2SM -SN OVC021 M14/M19 A3023 750 69 -2700 130/09 RMK AO2 P0001 T11441189
14926KSTC STC20190121123011801/21/19 12:30:31  5-MIN KSTC 211830Z 12008KT 2SM -SN OVC023 M14/M18 A3022 750 73 -2700 120/08 RMK AO2 P0001 T11441183
14926KSTC STC20190121123511801/21/19 12:35:31  5-MIN KSTC 211835Z 12009KT 2SM -SN OVC025 M14/M18 A3022 750 73 -2700 120/09 RMK AO2 P0001 T11441183
14926KSTC STC20190121124011801/21/19 12:40:31  5-MIN KSTC 211840Z 13008KT 2SM -SN OVC025 M14/M18 A3021 760 73 -2700 120/08 RMK AO2 P0001 T11441183
14926KSTC STC20190121124512401/21/19 12:45:31  5-MIN KSTC 211845Z 13009G16KT 2SM -SN OVC025 M14/M18 A3021 760 73 -2700 130/09G16 RMK AO2 P0002 T11441183
14926KSTC STC20190121125013101/21/19 12:50:31  5-MIN KSTC 211850Z 13014G19KT 2SM -SN OVC025 M14/M18 A3021 760 73 -2700 130/14G19 RMK AO2 SLP266 P0002 T11441183
14926KSTC STC20190121125512601/21/19 12:55:31  5-MIN KSTC 211855Z 13011G19KT 3/4SM -SN OVC023 M14/M18 A3021 760 73 -2700 130/11G19 RMK AO2 P0000 T11441183
14926KSTC STC20190121130012601/21/19 13:00:31  5-MIN KSTC 211900Z 13009G19KT 3/4SM -SN OVC021 M14/M18 A3021 760 76 -2700 130/09G19 RMK AO2 P0000 T11441178
14926KSTC STC20190121130512501/21/19 13:05:31  5-MIN KSTC 211905Z 13010G19KT 3/4SM -SN VV019 M14/M18 A3021 760 76 -2700 130/10G19 RMK AO2 P0000 T11441178
14926KSTC STC20190121131011901/21/19 13:10:31  5-MIN KSTC 211910Z 13010KT 3/4SM -SN VV019 M14/M18 A3021 760 76 -2700 130/10 RMK AO2 P0000 T11441178
14926KSTC STC20190121131512501/21/19 13:15:31  5-MIN KSTC 211915Z 13011G18KT 3/4SM -SN VV019 M14/M18 A3021 760 76 -2700 130/11G18 RMK AO2 P0000 T11441178
14926KSTC STC20190121132012501/21/19 13:20:31  5-MIN KSTC 211920Z 14011G18KT 3/4SM -SN VV020 M14/M17 A3021 760 80 -2700 140/11G18 RMK AO2 P0000 T11441172
14926KSTC STC20190121132513101/21/19 13:25:31  5-MIN KSTC 211925Z 13013G18KT 1SM -SN BKN021 OVC037 M14/M17 A3020 760 80 -2700 130/13G18 RMK AO2 P0001 T11441172
14926KSTC STC20190121133013501/21/19 13:30:31  5-MIN KSTC 211930Z 13010G18KT 1 1/2SM -SN BKN023 OVC037 M14/M17 A3020 770 80 -2700 130/10G18 RMK AO2 P0001 T11441172
14926KSTC STC20190121133513501/21/19 13:35:31  5-MIN KSTC 211935Z 13011G17KT 1 1/2SM -SN BKN025 OVC037 M14/M17 A3020 770 80 -2700 130/11G17 RMK AO2 P0001 T11441172
14926KSTC STC20190121134013501/21/19 13:40:31  5-MIN KSTC 211940Z 13010G17KT 1 1/2SM -SN BKN027 OVC037 M14/M17 A3020 770 80 -2700 130/10G17 RMK AO2 P0001 T11441172
14926KSTC STC20190121134513501/21/19 13:45:31  5-MIN KSTC 211945Z 13011G17KT 1 3/4SM -SN BKN029 OVC038 M14/M17 A3019 770 76 -2600 130/11G17 RMK AO2 P0001 T11391172
14926KSTC STC20190121135013101/21/19 13:50:31  5-MIN KSTC 211950Z 13009G18KT 2SM -SN OVC031 M14/M17 A3020 770 76 -2600 130/09G18 RMK AO2 SLP263 P0001 T11391172
14926KSTC STC20190121135513501/21/19 13:55:31  5-MIN KSTC 211955Z 12008G18KT 2 1/2SM -SN BKN033 OVC041 M14/M17 A3020 770 76 -2600 120/08G18 RMK AO2 P0000 T11391172
14926KSTC STC20190121140013501/21/19 14:00:31  5-MIN KSTC 212000Z 13009G18KT 2 1/2SM -SN BKN033 OVC045 M14/M17 A3019 770 76 -2600 130/09G18 RMK AO2 P0000 T11391172
14926KSTC STC20190121140513801/21/19 14:05:31  5-MIN KSTC 212005Z 13009G18KT 4SM -SN BKN036 BKN047 OVC055 M14/M17 A3019 780 76 -2600 120/09G18 RMK AO2 P0000 T11391172
14926KSTC STC20190121141013101/21/19 14:10:31  5-MIN KSTC 212010Z 12010G17KT 4SM -SN BKN038 OVC050 M14/M17 A3019 780 76 -2600 120/10G17 RMK AO2 P0000 T11391172
14926KSTC STC20190121141513101/21/19 14:15:31  5-MIN KSTC 212015Z 13011G17KT 5SM -SN BKN036 OVC046 M14/M17 A3018 780 76 -2600 130/11G17 RMK AO2 P0000 T11391172
14926KSTC STC20190121142013101/21/19 14:20:31  5-MIN KSTC 212020Z 12009G17KT 5SM -SN BKN036 OVC050 M14/M17 A3018 790 76 -2600 120/09G17 RMK AO2 P0000 T11391172
14926KSTC STC20190121142513201/21/19 14:25:31  5-MIN KSTC 212025Z 12010KT 5SM -SN BKN033 BKN041 OVC050 M14/M17 A3018 790 76 -2600 120/10 RMK AO2 P0000 T11391172
14926KSTC STC20190121143012501/21/19 14:30:31  5-MIN KSTC 212030Z 12009KT 6SM -SN BKN033 OVC044 M14/M17 A3018 790 76 -2600 120/09 RMK AO2 P0000 T11391172
14926KSTC STC20190121143511801/21/19 14:35:31  5-MIN KSTC 212035Z 12010KT 8SM -SN OVC033 M14/M17 A3017 790 76 -2600 120/10 RMK AO2 P0000 T11391172
14926KSTC STC20190121144012001/21/19 14:40:31  5-MIN KSTC 212040Z 13011KT 9SM OVC033 M14/M17 A3017 790 76 -2600 130/11 RMK AO2 SNE36 P0000 T11391172
14926KSTC STC20190121144512701/21/19 14:45:31  5-MIN KSTC 212045Z 13010G18KT 10SM OVC033 M13/M17 A3017 800 73 -2500 130/10G18 RMK AO2 SNE36 P0000 T11331172
14926KSTC STC20190121145015301/21/19 14:50:31  5-MIN KSTC 212050Z 12013G19KT 10SM BKN032 OVC080 M13/M18 A3017 800 69 -2500 120/13G19 RMK AO2 SNE36 SLP252 P0000 60003 T11331178 56006
14926KSTC STC20190121145512901/21/19 14:55:31  5-MIN KSTC 212055Z 13010G19KT 10SM BKN032 BKN050 OVC080 M13/M18 A3017 800 69 -2500 130/10G19 RMK AO2 T11331178
14926KSTC STC20190121150012901/21/19 15:00:31  5-MIN KSTC 212100Z 12011G19KT 10SM BKN032 BKN050 OVC080 M13/M18 A3016 800 69 -2500 120/11G19 RMK AO2 T11331178
14926KSTC STC20190121150512901/21/19 15:05:31  5-MIN KSTC 212105Z 12010G19KT 10SM SCT032 BKN050 OVC080 M13/M18 A3016 810 69 -2500 120/10G19 RMK AO2 T11331178
14926KSTC STC20190121151012901/21/19 15:10:31  5-MIN KSTC 212110Z 13009G18KT 10SM SCT032 SCT050 OVC080 M13/M17 A3015 810 73 -2500 130/09G18 RMK AO2 T11331172
14926KSTC STC20190121151512301/21/19 15:15:31  5-MIN KSTC 212115Z 13011KT 10SM FEW032 SCT050 OVC080 M13/M17 A3015 810 73 -2500 120/11 RMK AO2 T11331172
14926KSTC STC20190121152012301/21/19 15:20:31  5-MIN KSTC 212120Z 12011KT 10SM FEW030 SCT050 OVC080 M13/M17 A3015 810 73 -2500 120/11 RMK AO2 T11331172
14926KSTC STC20190121152512301/21/19 15:25:31  5-MIN KSTC 212125Z 11009KT 10SM SCT038 SCT050 OVC080 M13/M17 A3015 820 70 -2400 110/09 RMK AO2 T11281172
14926KSTC STC20190121153011601/21/19 15:30:31  5-MIN KSTC 212130Z 12010KT 10SM SCT038 OVC080 M13/M17 A3015 820 70 -2400 120/10 RMK AO2 T11281172
14926KSTC STC20190121153512201/21/19 15:35:31  5-MIN KSTC 212135Z 12009G17KT 10SM BKN040 OVC080 M13/M17 A3014 820 70 -2400 120/09G17 RMK AO2 T11281172
14926KSTC STC20190121154012201/21/19 15:40:31  5-MIN KSTC 212140Z 11010G17KT 10SM BKN040 OVC080 M13/M17 A3014 820 70 -2400 110/10G17 RMK AO2 T11281172
14926KSTC STC20190121154512201/21/19 15:45:31  5-MIN KSTC 212145Z 12012G17KT 10SM BKN040 OVC080 M13/M17 A3014 820 70 -2400 120/12G17 RMK AO2 T11281172
14926KSTC STC20190121155012201/21/19 15:50:31  5-MIN KSTC 212150Z 12010G17KT 10SM OVC041 M13/M17 A3014 830 70 -2400 120/10G17 RMK AO2 SLP242 T11281172
14926KSTC STC20190121155511501/21/19 15:55:31  5-MIN KSTC 212155Z 12010G18KT 10SM OVC039 M13/M17 A3013 830 70 -2400 120/10G18 RMK AO2 T11281172
14926KSTC STC20190121160011501/21/19 16:00:31  5-MIN KSTC 212200Z 11009G18KT 10SM OVC039 M13/M17 A3013 830 70 -2400 110/09G18 RMK AO2 T11281172
14926KSTC STC20190121160511501/21/19 16:05:31  5-MIN KSTC 212205Z 12011G16KT 10SM OVC039 M13/M17 A3013 830 70 -2400 120/11G16 RMK AO2 T11281172
14926KSTC STC20190121161011501/21/19 16:10:31  5-MIN KSTC 212210Z 12010G17KT 10SM OVC037 M12/M17 A3013 830 67 -2300 120/10G17 RMK AO2 T11221172
14926KSTC STC20190121161512201/21/19 16:15:31  5-MIN KSTC 212215Z 12012G18KT 10SM FEW028 OVC037 M12/M17 A3013 840 67 -2300 120/12G18 RMK AO2 T11221172
14926KSTC STC20190121162012201/21/19 16:20:31  5-MIN KSTC 212220Z 12011G18KT 10SM FEW029 OVC037 M12/M17 A3013 840 70 -2300 120/11G18 RMK AO2 T11221167
14926KSTC STC20190121162512201/21/19 16:25:31  5-MIN KSTC 212225Z 12009G17KT 10SM FEW029 OVC037 M12/M17 A3013 840 70 -2300 120/09G17 RMK AO2 T11221167
14926KSTC STC20190121163011601/21/19 16:30:31  5-MIN KSTC 212230Z 11009KT 10SM FEW029 OVC036 M12/M17 A3013 840 70 -2300 110/09 RMK AO2 T11221167
14926KSTC STC20190121163511601/21/19 16:35:31  5-MIN KSTC 212235Z 11010KT 10SM FEW029 OVC036 M12/M17 A3013 840 70 -2300 110/10 RMK AO2 T11221167
14926KSTC STC20190121164011601/21/19 16:40:31  5-MIN KSTC 212240Z 12010KT 10SM FEW029 OVC036 M12/M17 A3012 840 67 -2200 120/10 RMK AO2 T11171167
14926KSTC STC20190121164510901/21/19 16:45:31  5-MIN KSTC 212245Z 12011KT 10SM OVC035 M12/M17 A3013 840 67 -2200 120/11 RMK AO2 T11171167
14926KSTC STC20190121165012201/21/19 16:50:31  5-MIN KSTC 212250Z 12007G17KT 10SM OVC035 M12/M17 A3012 840 67 -2200 120/07G17 RMK AO2 SLP235 T11171167
14926KSTC STC20190121165511501/21/19 16:55:31  5-MIN KSTC 212255Z 12010G18KT 10SM OVC035 M12/M17 A3012 840 67 -2200 120/10G18 RMK AO2 T11171167
14926KSTC STC20190121170011501/21/19 17:00:31  5-MIN KSTC 212300Z 11010G18KT 10SM OVC035 M12/M17 A3012 840 67 -2200 110/10G18 RMK AO2 T11171167
14926KSTC STC20190121170510901/21/19 17:05:31  5-MIN KSTC 212305Z 12008KT 10SM OVC034 M12/M16 A3012 840 70 -2200 120/08 RMK AO2 T11171161
14926KSTC STC20190121171010901/21/19 17:10:31  5-MIN KSTC 212310Z 11009KT 10SM OVC034 M12/M16 A3012 850 70 -2200 110/09 RMK AO2 T11171161
14926KSTC STC20190121171511501/21/19 17:15:31  5-MIN KSTC 212315Z 11008G17KT 10SM OVC034 M12/M16 A3012 850 70 -2200 110/08G17 RMK AO2 T11171161
14926KSTC STC20190121172010901/21/19 17:20:31  5-MIN KSTC 212320Z 11009KT 10SM OVC034 M12/M16 A3012 850 70 -2200 110/09 RMK AO2 T11171161
14926KSTC STC20190121172510901/21/19 17:25:31  5-MIN KSTC 212325Z 11008KT 10SM OVC034 M12/M16 A3012 850 70 -2200 110/08 RMK AO2 T11171161
14926KSTC STC20190121173011501/21/19 17:30:31  5-MIN KSTC 212330Z 11011G18KT 10SM OVC033 M11/M16 A3011 850 67 -2100 110/11G18 RMK AO2 T11111161
14926KSTC STC20190121173511501/21/19 17:35:31  5-MIN KSTC 212335Z 11008G18KT 10SM OVC033 M11/M16 A3011 850 67 -2100 110/08G18 RMK AO2 T11111161
14926KSTC STC20190121174011501/21/19 17:40:31  5-MIN KSTC 212340Z 11010G17KT 10SM OVC033 M11/M16 A3011 850 67 -2100 110/10G17 RMK AO2 T11111161
14926KSTC STC20190121174510901/21/19 17:45:31  5-MIN KSTC 212345Z 11009KT 10SM OVC033 M11/M16 A3011 850 67 -2100 110/09 RMK AO2 T11111161
14926KSTC STC20190121175014001/21/19 17:50:31  5-MIN KSTC 212350Z 11011KT 10SM OVC033 M11/M16 A3011 850 67 -2100 110/11 RMK AO2 SLP230 60003 T11111161 11111 21144 56027
14926KSTC STC20190121175511501/21/19 17:55:31  5-MIN KSTC 212355Z 12011G17KT 10SM OVC033 M11/M16 A3011 850 67 -2100 120/11G17 RMK AO2 T11111161
14926KSTC STC20190121180011501/21/19 18:00:31  5-MIN KSTC 220000Z 12008G17KT 10SM OVC033 M11/M16 A3011 850 67 -2100 120/08G17 RMK AO2 T11111161
14926KSTC STC20190121180511501/21/19 18:05:31  5-MIN KSTC 220005Z 11007G17KT 10SM OVC033 M11/M16 A3011 850 64 -2000 110/07G17 RMK AO2 T11061161
14926KSTC STC20190121181011501/21/19 18:10:31  5-MIN KSTC 220010Z 11009G17KT 10SM OVC032 M11/M16 A3010 860 64 -2000 110/09G17 RMK AO2 T11061161
14926KSTC STC20190121181511501/21/19 18:15:31  5-MIN KSTC 220015Z 10010G17KT 10SM OVC032 M11/M16 A3010 860 70 -2100 100/10G17 RMK AO2 T11111156
14926KSTC STC20190121182011501/21/19 18:20:31  5-MIN KSTC 220020Z 11008G17KT 10SM OVC032 M11/M16 A3010 860 70 -2100 110/08G17 RMK AO2 T11111156
14926KSTC STC20190121182511601/21/19 18:25:31  5-MIN KSTC 220025Z 11009KT 10SM BKN032 OVC040 M11/M16 A3010 860 70 -2100 110/09 RMK AO2 T11111156
14926KSTC STC20190121183011601/21/19 18:30:31  5-MIN KSTC 220030Z 11009KT 10SM BKN033 OVC040 M11/M16 A3009 870 67 -2000 110/09 RMK AO2 T11061156
14926KSTC STC20190121183512201/21/19 18:35:31  5-MIN KSTC 220035Z 11009G17KT 10SM SCT033 OVC040 M11/M16 A3009 870 67 -2000 110/09G17 RMK AO2 T11061156
14926KSTC STC20190121184011501/21/19 18:40:31  5-MIN KSTC 220040Z 11008G17KT 10SM OVC040 M11/M16 A3009 870 67 -2000 110/08G17 RMK AO2 T11061156
14926KSTC STC20190121184511601/21/19 18:45:31  5-MIN KSTC 220045Z 12008KT 10SM FEW033 OVC040 M11/M16 A3009 870 67 -2000 120/08 RMK AO2 T11061156
14926KSTC STC20190121185013901/21/19 18:50:31  5-MIN KSTC 220050Z 11008KT 080V140 10SM SCT031 OVC042 M11/M16 A3009 870 67 -2000 110/08 080V140 RMK AO2 SLP222 T11061156
14926KSTC STC20190121185512201/21/19 18:55:31  5-MIN KSTC 220055Z 11011G20KT 10SM BKN031 OVC042 M11/M16 A3009 870 67 -2000 110/11G20 RMK AO2 T11061156
14926KSTC STC20190121190012201/21/19 19:00:31  5-MIN KSTC 220100Z 11009G20KT 10SM BKN031 OVC041 M11/M16 A3009 870 67 -2000 110/09G20 RMK AO2 T11061156
14926KSTC STC20190121190512201/21/19 19:05:31  5-MIN KSTC 220105Z 10011G20KT 10SM BKN031 OVC043 M11/M16 A3009 870 67 -2000 100/11G20 RMK AO2 T11061156
14926KSTC STC20190121191012201/21/19 19:10:31  5-MIN KSTC 220110Z 11007G17KT 10SM BKN031 OVC043 M11/M16 A3009 870 67 -2000 110/07G17 RMK AO2 T11061156
14926KSTC STC20190121191512201/21/19 19:15:31  5-MIN KSTC 220115Z 12008G19KT 10SM BKN031 OVC045 M11/M16 A3009 870 67 -2000 120/08G19 RMK AO2 T11061156
14926KSTC STC20190121192012201/21/19 19:20:31  5-MIN KSTC 220120Z 11008G19KT 10SM SCT031 OVC045 M11/M16 A3009 870 67 -2000 110/08G19 RMK AO2 T11061156
14926KSTC STC20190121192512201/21/19 19:25:31  5-MIN KSTC 220125Z 12010G18KT 10SM SCT031 OVC045 M11/M16 A3009 870 67 -2000 120/10G18 RMK AO2 T11061156
14926KSTC STC20190121193012201/21/19 19:30:31  5-MIN KSTC 220130Z 11009G18KT 10SM FEW031 OVC045 M11/M16 A3008 880 67 -2000 110/09G18 RMK AO2 T11061156
14926KSTC STC20190121193510901/21/19 19:35:31  5-MIN KSTC 220135Z 12008KT 10SM OVC045 M11/M16 A3009 870 67 -2000 120/08 RMK AO2 T11061156
14926KSTC STC20190121194012201/21/19 19:40:31  5-MIN KSTC 220140Z 12008G18KT 10SM FEW029 OVC045 M10/M16 A3009 870 64 -1900 120/08G18 RMK AO2 T11001156
14926KSTC STC20190121194512201/21/19 19:45:31  5-MIN KSTC 220145Z 11008G18KT 10SM SCT029 OVC045 M10/M16 A3009 870 64 -1900 110/08G18 RMK AO2 T11001156
14926KSTC STC20190121195012301/21/19 19:50:31  5-MIN KSTC 220150Z 12008KT 10SM SCT029 OVC045 M10/M16 A3009 870 64 -1900 120/08 RMK AO2 SLP221 T11001156
14926KSTC STC20190121195511601/21/19 19:55:31  5-MIN KSTC 220155Z 12009KT 10SM BKN028 OVC045 M10/M16 A3008 880 64 -1900 120/09 RMK AO2 T11001156
14926KSTC STC20190121200011601/21/19 20:00:31  5-MIN KSTC 220200Z 11008KT 10SM BKN028 OVC045 M10/M16 A3008 880 64 -1900 110/08 RMK AO2 T11001156
14926KSTC STC20190121200511501/21/19 20:05:31  5-MIN KSTC 220205Z 11008G15KT 10SM OVC027 M10/M16 A3008 880 64 -1900 110/08G15 RMK AO2 T11001156
14926KSTC STC20190121201010901/21/19 20:10:31  5-MIN KSTC 220210Z 13007KT 10SM OVC027 M10/M16 A3008 880 64 -1900 130/07 RMK AO2 T11001156
14926KSTC STC20190121201511501/21/19 20:15:31  5-MIN KSTC 220215Z 12010G16KT 10SM OVC027 M10/M16 A3008 880 64 -1900 120/10G16 RMK AO2 T11001156
14926KSTC STC20190121202010901/21/19 20:20:31  5-MIN KSTC 220220Z 11008KT 10SM OVC027 M10/M16 A3008 880 64 -1900 110/08 RMK AO2 T11001156
14926KSTC STC20190121202510901/21/19 20:25:31  5-MIN KSTC 220225Z 13009KT 10SM OVC027 M10/M16 A3008 880 64 -1900 120/09 RMK AO2 T11001156
14926KSTC STC20190121203012201/21/19 20:30:31  5-MIN KSTC 220230Z 13010G18KT 10SM BKN026 OVC065 M10/M15 A3008 880 67 -1900 130/10G18 RMK AO2 T11001150
14926KSTC STC20190121203512201/21/19 20:35:31  5-MIN KSTC 220235Z 12010G18KT 10SM BKN026 OVC065 M10/M15 A3008 880 67 -1900 120/10G18 RMK AO2 T11001150
14926KSTC STC20190121204012201/21/19 20:40:31  5-MIN KSTC 220240Z 13011G19KT 10SM SCT026 OVC065 M10/M15 A3008 880 67 -1900 130/11G19 RMK AO2 T11001150
14926KSTC STC20190121204512201/21/19 20:45:31  5-MIN KSTC 220245Z 13011G19KT 10SM SCT026 OVC065 M10/M15 A3008 880 67 -1900 120/11G19 RMK AO2 T11001150
14926KSTC STC20190121205011201/21/19 20:50:31  5-MIN KSTC 220250Z 12008G19KT 10SM BKN026 OVC065 M10/M15 A3008 880 67 -1900 120/08G19 RMK AO2
14926KSTC STC20190121205512201/21/19 20:55:31  5-MIN KSTC 220255Z 13011G19KT 10SM BKN027 OVC065 M10/M15 A3007 880 67 -1900 130/11G19 RMK AO2 T11001150
14926KSTC STC20190121210012201/21/19 21:00:31  5-MIN KSTC 220300Z 13009G19KT 10SM BKN027 OVC065 M10/M15 A3007 890 67 -1900 130/09G19 RMK AO2 T11001150
14926KSTC STC20190121210512201/21/19 21:05:31  5-MIN KSTC 220305Z 13010G18KT 10SM BKN026 OVC070 M09/M15 A3007 880 64 -1900 130/10G18 RMK AO2 T10941150
14926KSTC STC20190121211011501/21/19 21:10:31  5-MIN KSTC 220310Z 13011G18KT 10SM OVC026 M09/M15 A3007 880 64 -1900 130/11G18 RMK AO2 T10941150
14926KSTC STC20190121211510901/21/19 21:15:31  5-MIN KSTC 220315Z 14011KT 10SM OVC026 M09/M15 A3007 890 64 -1900 130/11 RMK AO2 T10941150
14926KSTC STC20190121212010901/21/19 21:20:31  5-MIN KSTC 220320Z 13012KT 10SM OVC026 M09/M15 A3007 890 64 -1900 130/12 RMK AO2 T10941150
14926KSTC STC20190121212511501/21/19 21:25:31  5-MIN KSTC 220325Z 13009G19KT 10SM OVC026 M09/M15 A3007 890 64 -1900 130/09G19 RMK AO2 T10941150
14926KSTC STC20190121213010901/21/19 21:30:31  5-MIN KSTC 220330Z 13010KT 10SM OVC027 M09/M15 A3007 890 64 -1800 130/10 RMK AO2 T10941150
14926KSTC STC20190121213510901/21/19 21:35:31  5-MIN KSTC 220335Z 13011KT 10SM OVC027 M09/M15 A3006 890 64 -1800 130/11 RMK AO2 T10941150
14926KSTC STC20190121214011501/21/19 21:40:31  5-MIN KSTC 220340Z 12009G18KT 10SM OVC027 M09/M15 A3006 890 64 -1800 120/09G18 RMK AO2 T10941150
14926KSTC STC20190121214511501/21/19 21:45:31  5-MIN KSTC 220345Z 13012G18KT 10SM OVC028 M09/M15 A3006 890 64 -1800 130/12G18 RMK AO2 T10941150
14926KSTC STC20190121215012201/21/19 21:50:31  5-MIN KSTC 220350Z 13012G20KT 10SM OVC028 M09/M15 A3006 900 64 -1800 130/12G20 RMK AO2 SLP212 T10941150
14926KSTC STC20190122004011401/22/19 00:40:31  5-MIN KSTC 220640Z AUTO 14011KT 10SM OVC026 M09/M14 A3005 910 67 -1800 140/11 RMK AO2 T10941144
14926KSTC STC20190122004511401/22/19 00:45:31  5-MIN KSTC 220645Z AUTO 14012KT 10SM OVC026 M09/M14 A3005 910 67 -1800 130/12 RMK AO2 T10941144
14926KSTC STC20190122005012101/22/19 00:50:31  5-MIN KSTC 220650Z AUTO 14012KT 10SM OVC026 M09/M14 A3005 910 70 -1800 140/12 RMK AO2 SLP208 T10941139
14926KSTC STC20190122005511401/22/19 00:55:31  5-MIN KSTC 220655Z AUTO 13010KT 10SM OVC025 M10/M14 A3005 910 73 -1900 130/10 RMK AO2 T11001139
14926KSTC STC20190122010011401/22/19 01:00:31  5-MIN KSTC 220700Z AUTO 14009KT 10SM OVC025 M09/M14 A3005 910 70 -1800 140/09 RMK AO2 T10941139
14926KSTC STC20190122010511401/22/19 01:05:31  5-MIN KSTC 220705Z AUTO 14012KT 10SM OVC027 M10/M14 A3005 910 73 -1900 140/12 RMK AO2 T11001139
14926KSTC STC20190122011011401/22/19 01:10:31  5-MIN KSTC 220710Z AUTO 14009KT 10SM OVC027 M10/M14 A3005 910 73 -1900 140/09 RMK AO2 T11001139
14926KSTC STC20190122011511301/22/19 01:15:31  5-MIN KSTC 220715Z AUTO 14009KT 8SM OVC027 M10/M14 A3004 910 73 -1900 140/09 RMK AO2 T11001139
14926KSTC STC20190122012012201/22/19 01:20:31  5-MIN KSTC 220720Z AUTO 14011G16KT 6SM HZ OVC027 M10/M14 A3004 910 73 -1900 130/11G16 RMK AO2 T11001139
14926KSTC STC20190122012513501/22/19 01:25:31  5-MIN KSTC 220725Z AUTO 13011G16KT 4SM -SN OVC025 M10/M13 A3004 910 77 -1900 130/11G16 RMK AO2 SNB22 P0000 T11001133
14926KSTC STC20190122013012901/22/19 01:30:31  5-MIN KSTC 220730Z AUTO 13009KT 3SM -SN OVC025 M10/M13 A3004 910 77 -1900 130/09 RMK AO2 SNB22 P0000 T11001133
14926KSTC STC20190122013512901/22/19 01:35:31  5-MIN KSTC 220735Z AUTO 14009KT 3SM -SN OVC023 M10/M13 A3004 910 77 -1900 140/09 RMK AO2 SNB22 P0000 T11001133
14926KSTC STC20190122014012901/22/19 01:40:31  5-MIN KSTC 220740Z AUTO 14009KT 3SM -SN OVC021 M10/M13 A3004 910 80 -1900 130/09 RMK AO2 SNB22 P0000 T11001128
14926KSTC STC20190122014513301/22/19 01:45:31  5-MIN KSTC 220745Z AUTO 14011KT 2 1/2SM -SN OVC019 M10/M13 A3004 910 80 -1900 140/11 RMK AO2 SNB22 P0001 T11001128
14926KSTC STC20190122015013601/22/19 01:50:31  5-MIN KSTC 220750Z AUTO 14009KT 2SM -SN OVC019 M10/M13 A3004 910 80 -1900 140/09 RMK AO2 SNB22 SLP206 P0001 T11001128
14926KSTC STC20190122015512601/22/19 01:55:31  5-MIN KSTC 220755Z AUTO 14008KT 2SM -SN BR OVC019 M10/M12 A3004 910 84 -1900 130/08 RMK AO2 P0000 T11001122
14926KSTC STC20190122020012601/22/19 02:00:31  5-MIN KSTC 220800Z AUTO 13009KT 2SM -SN BR OVC019 M10/M12 A3004 920 84 -1900 130/09 RMK AO2 P0000 T11001122
14926KSTC STC20190122020512601/22/19 02:05:31  5-MIN KSTC 220805Z AUTO 14009KT 2SM -SN BR OVC019 M10/M12 A3004 920 84 -1900 130/09 RMK AO2 P0000 T11001122
14926KSTC STC20190122021013001/22/19 02:10:31  5-MIN KSTC 220810Z AUTO 13008KT 1 3/4SM -SN BR OVC019 M10/M12 A3004 920 84 -1900 130/08 RMK AO2 P0000 T11001122
14926KSTC STC20190122021513001/22/19 02:15:31  5-MIN KSTC 220815Z AUTO 13006KT 1 3/4SM -SN BR OVC019 M11/M12 A3004 920 88 -2000 130/06 RMK AO2 P0000 T11061122
14926KSTC STC20190122022012601/22/19 02:20:31  5-MIN KSTC 220820Z AUTO 13005KT 2SM -SN BR OVC021 M11/M12 A3004 920 88 -2000 130/05 RMK AO2 P0000 T11061122
14926KSTC STC20190122022513301/22/19 02:25:31  5-MIN KSTC 220825Z AUTO 13005KT 2SM -SN BR BKN021 OVC027 M11/M12 A3004 920 88 -2000 120/05 RMK AO2 P0000 T11061122
14926KSTC STC20190122023013001/22/19 02:30:31  5-MIN KSTC 220830Z AUTO 13006KT 2 1/2SM -SN BR OVC024 M11/M12 A3003 920 88 -2000 130/06 RMK AO2 P0000 T11061122
14926KSTC STC20190122023513001/22/19 02:35:31  5-MIN KSTC 220835Z AUTO 13006KT 2 1/2SM -SN BR OVC024 M11/M12 A3003 920 88 -2000 130/06 RMK AO2 P0000 T11061122
14926KSTC STC20190122024013001/22/19 02:40:31  5-MIN KSTC 220840Z AUTO 12006KT 2 1/2SM -SN BR OVC026 M11/M12 A3003 920 88 -1900 120/06 RMK AO2 P0000 T11061122
14926KSTC STC20190122024512601/22/19 02:45:31  5-MIN KSTC 220845Z AUTO 12004KT 2SM -SN BR OVC026 M11/M12 A3003 930 88 -1900 120/04 RMK AO2 P0000 T11061122
14926KSTC STC20190122025014501/22/19 02:50:31  5-MIN KSTC 220850Z AUTO 11005KT 2SM -SN BR OVC028 M11/M12 A3003 930 88 -1900 110/05 RMK AO2 SLP201 P0000 60001 T11061122 57012
14926KSTC STC20190122025512601/22/19 02:55:31  5-MIN KSTC 220855Z AUTO 12006KT 2SM -SN BR OVC028 M11/M12 A3003 930 88 -1900 120/06 RMK AO2 P0000 T11061122
14926KSTC STC20190122030012601/22/19 03:00:31  5-MIN KSTC 220900Z AUTO 11005KT 2SM -SN BR OVC028 M11/M12 A3003 930 88 -1900 110/05 RMK AO2 P0000 T11061122
14926KSTC STC20190122030513001/22/19 03:05:31  5-MIN KSTC 220905Z AUTO 12006KT 2 1/2SM -SN BR OVC028 M11/M12 A3002 930 88 -1900 110/06 RMK AO2 P0000 T11061122
14926KSTC STC20190122031013001/22/19 03:10:31  5-MIN KSTC 220910Z AUTO 11005KT 2 1/2SM -SN BR OVC028 M11/M12 A3002 930 88 -1900 110/05 RMK AO2 P0000 T11061122
14926KSTC STC20190122031513001/22/19 03:15:31  5-MIN KSTC 220915Z AUTO 12005KT 2 1/2SM -SN BR OVC028 M11/M12 A3002 930 88 -1900 120/05 RMK AO2 P0000 T11061122
14926KSTC STC20190122032013001/22/19 03:20:31  5-MIN KSTC 220920Z AUTO 11005KT 2 1/2SM -SN BR OVC026 M11/M12 A3002 930 88 -1900 110/05 RMK AO2 P0000 T11061122
14926KSTC STC20190122032513701/22/19 03:25:31  5-MIN KSTC 220925Z AUTO 11006KT 1 3/4SM -SN BR BKN021 OVC028 M11/M12 A3002 930 88 -1900 110/06 RMK AO2 P0000 T11061122
14926KSTC STC20190122033013001/22/19 03:30:31  5-MIN KSTC 220930Z AUTO 11005KT 1 1/4SM -SN BR OVC019 M11/M12 A3002 940 88 -1900 110/05 RMK AO2 P0001 T11061122
14926KSTC STC20190122033512501/22/19 03:35:31  5-MIN KSTC 220935Z AUTO 12005KT 1SM -SN BR VV016 M11/M12 A3002 930 88 -1900 110/05 RMK AO2 P0001 T11061122
14926KSTC STC20190122034012501/22/19 03:40:31  5-MIN KSTC 220940Z AUTO 11004KT 1SM -SN BR VV014 M11/M12 A3002 930 88 -1900 110/04 RMK AO2 P0001 T11061122
14926KSTC STC20190122034512501/22/19 03:45:31  5-MIN KSTC 220945Z AUTO 11005KT 1SM -SN BR VV013 M11/M12 A3002 930 88 -1900 110/05 RMK AO2 P0001 T11061122
14926KSTC STC20190122035013201/22/19 03:50:31  5-MIN KSTC 220950Z AUTO 12004KT 1SM -SN BR VV013 M11/M12 A3002 930 88 -1900 120/04 RMK AO2 SLP198 P0002 T11061122
14926KSTC STC20190122035513001/22/19 03:55:31  5-MIN KSTC 220955Z AUTO 11005KT 1 1/4SM -SN BR OVC014 M11/M12 A3002 930 88 -1900 110/05 RMK AO2 P0000 T11061122
14926KSTC STC20190122040013001/22/19 04:00:31  5-MIN KSTC 221000Z AUTO 12006KT 1 1/4SM -SN BR OVC016 M11/M12 A3002 940 88 -1900 120/06 RMK AO2 P0000 T11061122
14926KSTC STC20190122040512001/22/19 04:05:31  5-MIN KSTC 221005Z AUTO 1 1/2SM -SN BR OVC018 M11/M12 A3002 940 88 -1900 M /M RMK AO2 P0000 T11061122
14926KSTC STC20190122041012001/22/19 04:10:31  5-MIN KSTC 221010Z AUTO 1 3/4SM -SN BR OVC020 M11/M12 A3002 940 88 -1900 M /M RMK AO2 P0000 T11061122
14926KSTC STC20190122041513001/22/19 04:15:31  5-MIN KSTC 221015Z AUTO 12005KT 1 3/4SM -SN BR OVC022 M11/M12 A3002 940 88 -1900 120/05 RMK AO2 P0000 T11061122
14926KSTC STC20190122042013001/22/19 04:20:31  5-MIN KSTC 221020Z AUTO 09004KT 1 3/4SM -SN BR OVC022 M11/M12 A3002 940 88 -1900 090/04 RMK AO2 P0000 T11061122
14926KSTC STC20190122042511601/22/19 04:25:31  5-MIN KSTC 221025Z AUTO 2SM -SN BR OVC024 M11/M12 A3002 940 88 -1900 M /M RMK AO2 P0000 T11061122
14926KSTC STC20190122043011601/22/19 04:30:31  5-MIN KSTC 221030Z AUTO 2SM -SN BR OVC024 M11/M12 A3001 940 88 -1900 M /M RMK AO2 P0000 T11061122
14926KSTC STC20190122043511601/22/19 04:35:31  5-MIN KSTC 221035Z AUTO 2SM -SN BR OVC024 M11/M12 A3002 940 88 -1900 M /M RMK AO2 P0000 T11061122
14926KSTC STC20190122044012601/22/19 04:40:31  5-MIN KSTC 221040Z AUTO 09003KT 2SM -SN BR OVC026 M11/M12 A3001 940 88 -1900 090/03 RMK AO2 P0000 T11061122
14926KSTC STC20190122044511601/22/19 04:45:31  5-MIN KSTC 221045Z AUTO 2SM -SN BR OVC026 M11/M12 A3001 940 88 -1900 M /M RMK AO2 P0000 T11061122
14926KSTC STC20190122045011001/22/19 04:50:31  5-MIN KSTC 221050Z AUTO 1 3/4SM -SN BR OVC026 M11/M12 A3001 940 88 -1900 M /M RMK AO2 P0000
14926KSTC STC20190122045512001/22/19 04:55:31  5-MIN KSTC 221055Z AUTO 1 1/2SM -SN BR OVC024 M11/M12 A3001 940 88 -1900 M /M RMK AO2 P0001 T11061122
14926KSTC STC20190122050012001/22/19 05:00:31  5-MIN KSTC 221100Z AUTO 1 1/2SM -SN BR OVC024 M11/M12 A3001 940 88 -1900 M /M RMK AO2 P0001 T11061122
14926KSTC STC20190122050512001/22/19 05:05:31  5-MIN KSTC 221105Z AUTO 1 1/2SM -SN BR OVC022 M11/M12 A3001 940 88 -1900 M /M RMK AO2 P0001 T11061122
14926KSTC STC20190122051012001/22/19 05:10:31  5-MIN KSTC 221110Z AUTO 1 1/2SM -SN BR OVC022 M11/M12 A3001 950 88 -1900 M /M RMK AO2 P0001 T11061122
14926KSTC STC20190122051512001/22/19 05:15:31  5-MIN KSTC 221115Z AUTO 1 3/4SM -SN BR OVC022 M11/M12 A3001 940 88 -1900 M /M RMK AO2 P0001 T11061122
14926KSTC STC20190122052012601/22/19 05:20:31  5-MIN KSTC 221120Z AUTO 10004KT 2SM -SN BR OVC026 M11/M12 A3001 940 88 -1900 100/04 RMK AO2 P0001 T11061122
14926KSTC STC20190122052513001/22/19 05:25:31  5-MIN KSTC 221125Z AUTO 00000KT 2 1/2SM -SN BR OVC034 M11/M12 A3001 940 88 -1900 000/00 RMK AO2 P0001 T11061122
14926KSTC STC20190122053012601/22/19 05:30:31  5-MIN KSTC 221130Z AUTO 11003KT 3SM -SN BR OVC042 M11/M12 A3001 940 88 -1900 110/03 RMK AO2 P0001 T11061122
14926KSTC STC20190122053512601/22/19 05:35:31  5-MIN KSTC 221135Z AUTO 10003KT 3SM -SN BR OVC042 M11/M12 A3001 940 88 -1900 100/03 RMK AO2 P0001 T11061122
14926KSTC STC20190122054012601/22/19 05:40:31  5-MIN KSTC 221140Z AUTO 11003KT 4SM -SN BR OVC042 M11/M12 A3001 950 88 -1900 110/03 RMK AO2 P0001 T11061122
14926KSTC STC20190122054512601/22/19 05:45:31  5-MIN KSTC 221145Z AUTO 00000KT 3SM -SN BR OVC042 M11/M12 A3001 950 88 -1900 000/00 RMK AO2 P0001 T11061122
14926KSTC STC20190122055012001/22/19 05:50:31  5-MIN KSTC 221150Z AUTO 10003KT 2 1/2SM -SN BR OVC040 M11/M12 A3000 950 88 -1900 090/03 RMK AO2 P0001
14926KSTC STC20190122055512601/22/19 05:55:31  5-MIN KSTC 221155Z AUTO 10003KT 2SM -SN BR OVC038 M11/M12 A3001 950 88 -1900 100/03 RMK AO2 P0000 T11061122
14926KSTC STC20190122060013001/22/19 06:00:31  5-MIN KSTC 221200Z AUTO 09003KT 2 1/2SM -SN BR OVC034 M11/M12 A3001 950 88 -1900 090/03 RMK AO2 P0001 T11061122
14926KSTC STC20190122060513001/22/19 06:05:31  5-MIN KSTC 221205Z AUTO 09003KT 2 1/2SM -SN BR OVC034 M11/M12 A3001 950 88 -1900 090/03 RMK AO2 P0001 T11061122
14926KSTC STC20190122061013001/22/19 06:10:31  5-MIN KSTC 221210Z AUTO 09003KT 2 1/2SM -SN BR OVC034 M11/M12 A3001 940 88 -1900 090/03 RMK AO2 P0001 T11061122
14926KSTC STC20190122061512601/22/19 06:15:31  5-MIN KSTC 221215Z AUTO 08003KT 3SM -SN BR OVC034 M11/M12 A3001 950 88 -1900 080/03 RMK AO2 P0001 T11061122
14926KSTC STC20190122062013001/22/19 06:20:31  5-MIN KSTC 221220Z AUTO 08003KT 2 1/2SM -SN BR OVC034 M11/M12 A3000 950 88 -1900 080/03 RMK AO2 P0001 T11061122
14926KSTC STC20190122062513001/22/19 06:25:31  5-MIN KSTC 221225Z AUTO 09003KT 2 1/2SM -SN BR OVC035 M11/M12 A3001 950 88 -1900 090/03 RMK AO2 P0001 T11061122
14926KSTC STC20190122063013001/22/19 06:30:31  5-MIN KSTC 221230Z AUTO 09003KT 2 1/2SM -SN BR OVC033 M11/M12 A3001 950 88 -1900 090/03 RMK AO2 P0001 T11061122
14926KSTC STC20190122063513001/22/19 06:35:31  5-MIN KSTC 221235Z AUTO 09003KT 2 1/2SM -SN BR OVC038 M11/M12 A3000 950 88 -1900 090/03 RMK AO2 P0001 T11061122
14926KSTC STC20190122064013001/22/19 06:40:31  5-MIN KSTC 221240Z AUTO 09004KT 2 1/2SM -SN BR OVC046 M11/M12 A3000 950 88 -1900 090/04 RMK AO2 P0001 T11061122
14926KSTC STC20190122064513301/22/19 06:45:31  5-MIN KSTC 221245Z AUTO 00000KT 3SM -SN BR BKN046 OVC065 M11/M12 A3000 950 88 -1900 000/00 RMK AO2 P0001 T11061122
14926KSTC STC20190122065012301/22/19 06:50:31  5-MIN KSTC 221250Z AUTO 09003KT 4SM -SN BR BKN046 OVC065 M11/M12 A3000 950 88 -1900 090/03 RMK AO2 P0001
14926KSTC STC20190122065512801/22/19 06:55:31  5-MIN KSTC 221255Z 09003KT 6SM -SN BR SCT050 OVC065 M11/M12 A3000 950 88 -1900 090/03 RMK AO2 P0000 T11061122
14926KSTC STC20190122070012201/22/19 07:00:31  5-MIN KSTC 221300Z 09003KT 9SM OVC065 M11/M12 A3000 960 88 -1900 090/03 RMK AO2 SNE1259 P0000 T11061122
14926KSTC STC20190122070512301/22/19 07:05:31  5-MIN KSTC 221305Z 10003KT 10SM OVC065 M11/M12 A3000 950 88 -1900 100/03 RMK AO2 SNE1259 P0000 T11061122
14926KSTC STC20190122071012301/22/19 07:10:31  5-MIN KSTC 221310Z 00000KT 10SM OVC060 M11/M12 A3001 950 88 -1900 000/00 RMK AO2 SNE1259 P0000 T11061122
14926KSTC STC20190122071512301/22/19 07:15:31  5-MIN KSTC 221315Z 00000KT 10SM OVC060 M11/M12 A3001 940 88 -1900 000/00 RMK AO2 SNE1259 P0000 T11061122
14926KSTC STC20190122072013001/22/19 07:20:31  5-MIN KSTC 221320Z 10003KT 10SM BKN055 OVC065 M11/M12 A3001 940 88 -1900 100/03 RMK AO2 SNE1259 P0000 T11061122
14926KSTC STC20190122072512301/22/19 07:25:31  5-MIN KSTC 221325Z 00000KT 10SM OVC055 M10/M12 A3001 950 84 -1900 000/00 RMK AO2 SNE1259 P0000 T11001122
14926KSTC STC20190122073012301/22/19 07:30:31  5-MIN KSTC 221330Z 00000KT 10SM OVC055 M11/M12 A3001 940 88 -1900 000/00 RMK AO2 SNE1259 P0000 T11061122
14926KSTC STC20190122073512301/22/19 07:35:31  5-MIN KSTC 221335Z 00000KT 10SM OVC055 M10/M12 A3001 940 84 -1900 000/00 RMK AO2 SNE1259 P0000 T11001122
14926KSTC STC20190122074013001/22/19 07:40:31  5-MIN KSTC 221340Z 00000KT 10SM FEW018 OVC055 M10/M12 A3001 940 84 -1900 000/00 RMK AO2 SNE1259 P0000 T11001122
14926KSTC STC20190122074513001/22/19 07:45:31  5-MIN KSTC 221345Z 00000KT 10SM FEW018 OVC055 M10/M12 A3001 940 84 -1900 000/00 RMK AO2 SNE1259 P0000 T11001122
14926KSTC STC20190122075013701/22/19 07:50:31  5-MIN KSTC 221350Z 00000KT 10SM FEW018 OVC055 M10/M12 A3001 940 84 -1900 000/00 RMK AO2 SNE1259 SLP193 P0000 T11001122
14926KSTC STC20190122075511601/22/19 07:55:31  5-MIN KSTC 221355Z 00000KT 10SM FEW018 OVC055 M10/M12 A3001 940 84 -1900 000/00 RMK AO2 T11001122
14926KSTC STC20190122080011601/22/19 08:00:31  5-MIN KSTC 221400Z 00000KT 10SM FEW018 OVC055 M10/M12 A3002 940 84 -1900 000/00 RMK AO2 T11001122
14926KSTC STC20190122080511601/22/19 08:05:31  5-MIN KSTC 221405Z 00000KT 10SM SCT018 OVC055 M10/M12 A3002 940 84 -1900 000/00 RMK AO2 T11001122
14926KSTC STC20190122081011601/22/19 08:10:31  5-MIN KSTC 221410Z 08003KT 10SM BKN017 OVC055 M10/M12 A3002 940 84 -1900 080/03 RMK AO2 T11001122
14926KSTC STC20190122081511601/22/19 08:15:31  5-MIN KSTC 221415Z 09003KT 10SM BKN017 OVC060 M10/M12 A3002 940 84 -1900 080/03 RMK AO2 T11001122
14926KSTC STC20190122082012301/22/19 08:20:31  5-MIN KSTC 221420Z 08003KT 10SM BKN017 BKN044 OVC060 M10/M12 A3002 940 84 -1900 080/03 RMK AO2 T11001122
14926KSTC STC20190122082512301/22/19 08:25:31  5-MIN KSTC 221425Z 00000KT 10SM BKN016 BKN044 OVC060 M10/M12 A3002 930 84 -1900 000/00 RMK AO2 T11001122
14926KSTC STC20190122083011601/22/19 08:30:31  5-MIN KSTC 221430Z 00000KT 10SM BKN016 OVC060 M10/M12 A3002 940 84 -1900 000/00 RMK AO2 T11001122
14926KSTC STC20190122083511501/22/19 08:35:31  5-MIN KSTC 221435Z 00000KT 9SM BKN016 OVC060 M10/M12 A3002 940 84 -1900 000/00 RMK AO2 T11001122
14926KSTC STC20190122084011501/22/19 08:40:31  5-MIN KSTC 221440Z 07003KT 7SM BKN016 OVC060 M10/M12 A3001 940 84 -1900 070/03 RMK AO2 T11001122
14926KSTC STC20190122084511501/22/19 08:45:31  5-MIN KSTC 221445Z 00000KT 7SM BKN016 OVC065 M10/M12 A3001 940 84 -1900 000/00 RMK AO2 T11001122
14926KSTC STC20190122085012701/22/19 08:50:31  5-MIN KSTC 221450Z 00000KT 7SM OVC016 M10/M12 A3002 940 84 -1900 000/00 RMK AO2 SLP194 60001 T11001122 58007
14926KSTC STC20190122085511101/22/19 08:55:31  5-MIN KSTC 221455Z 00000KT 6SM BR OVC016 M10/M12 A3002 940 88 -1900 000/00 RMK AO2 T11001117
14926KSTC STC20190122090011101/22/19 09:00:31  5-MIN KSTC 221500Z 00000KT 5SM BR OVC016 M10/M12 A3002 930 88 -1900 000/00 RMK AO2 T11001117
14926KSTC STC20190122090511101/22/19 09:05:31  5-MIN KSTC 221505Z 00000KT 5SM BR OVC016 M10/M12 A3002 930 84 -1900 000/00 RMK AO2 T11001122
14926KSTC STC20190122091011101/22/19 09:10:31  5-MIN KSTC 221510Z 00000KT 6SM BR OVC016 M10/M12 A3002 930 88 -1900 000/00 RMK AO2 T11001117
14926KSTC STC20190122091511801/22/19 09:15:31  5-MIN KSTC 221515Z 00000KT 6SM BR BKN016 OVC042 M10/M12 A3002 930 84 -1900 000/00 RMK AO2 T11001122
14926KSTC STC20190122092011801/22/19 09:20:31  5-MIN KSTC 221520Z 00000KT 6SM HZ BKN016 OVC042 M09/M12 A3003 930 80 -1800 000/00 RMK AO2 T10941122
14926KSTC STC20190122092511801/22/19 09:25:31  5-MIN KSTC 221525Z 00000KT 6SM BR BKN016 OVC042 M10/M12 A3003 930 84 -1900 000/00 RMK AO2 T11001122
14926KSTC STC20190122093013401/22/19 09:30:31  5-MIN KSTC 221530Z 00000KT 4SM -SN BR BKN016 OVC041 M09/M12 A3003 930 84 -1800 000/00 RMK AO2 SNB29 P0000 T10941117
14926KSTC STC20190122093513401/22/19 09:35:31  5-MIN KSTC 221535Z 00000KT 3SM -SN BR SCT016 OVC043 M09/M12 A3003 930 84 -1800 000/00 RMK AO2 SNB29 P0000 T10941117
14926KSTC STC20190122094013401/22/19 09:40:31  5-MIN KSTC 221540Z 00000KT 3SM -SN BR FEW016 OVC043 M09/M12 A3003 930 84 -1800 000/00 RMK AO2 SNB29 P0000 T10941117
14926KSTC STC20190122094513401/22/19 09:45:31  5-MIN KSTC 221545Z 00000KT 3SM -SN BR FEW016 OVC043 M09/M12 A3003 930 84 -1800 000/00 RMK AO2 SNB29 P0000 T10941117
14926KSTC STC20190122095014101/22/19 09:50:31  5-MIN KSTC 221550Z 00000KT 3SM -SN BR FEW016 OVC043 M09/M12 A3003 920 84 -1800 000/00 RMK AO2 SNB29 SLP200 P0000 T10941117
14926KSTC STC20190122095513201/22/19 09:55:31  5-MIN KSTC 221555Z 00000KT 2 1/2SM -SN BR SCT037 OVC044 M09/M12 A3003 920 84 -1800 000/00 RMK AO2 P0000 T10941117
14926KSTC STC20190122100012801/22/19 10:00:31  5-MIN KSTC 221600Z 00000KT 2SM -SN BR BKN034 OVC044 M09/M12 A3004 920 84 -1800 000/00 RMK AO2 P0000 T10941117
14926KSTC STC20190122100512801/22/19 10:05:31  5-MIN KSTC 221605Z 00000KT 2SM -SN BR BKN032 OVC044 M09/M12 A3004 920 84 -1800 000/00 RMK AO2 P0000 T10941117
14926KSTC STC20190122101013501/22/19 10:10:31  5-MIN KSTC 221610Z 00000KT 2SM -SN BR FEW011 BKN029 OVC044 M09/M12 A3004 920 84 -1800 000/00 RMK AO2 P0000 T10941117
14926KSTC STC20190122101513501/22/19 10:15:31  5-MIN KSTC 221615Z 00000KT 2SM -SN BR FEW011 BKN027 OVC044 M09/M11 A3004 920 88 -1800 000/00 RMK AO2 P0000 T10941111
14926KSTC STC20190122102013901/22/19 10:20:31  5-MIN KSTC 221620Z 00000KT 2 1/2SM -SN BR FEW011 BKN027 OVC044 M09/M11 A3003 920 88 -1800 000/00 RMK AO2 P0000 T10941111
14926KSTC STC20190122102513901/22/19 10:25:31  5-MIN KSTC 221625Z 00000KT 2 1/2SM -SN BR FEW011 BKN029 OVC045 M09/M11 A3004 920 84 -1700 000/00 RMK AO2 P0000 T10891111
14926KSTC STC20190122103013201/22/19 10:30:31  5-MIN KSTC 221630Z 00000KT 3SM -SN SCT011 BKN029 OVC045 M09/M12 A3004 920 80 -1700 000/00 RMK AO2 P0000 T10891117
14926KSTC STC20190122103513901/22/19 10:35:31  5-MIN KSTC 221635Z 00000KT 2 1/2SM -SN BR SCT011 BKN029 OVC045 M09/M12 A3004 920 84 -1800 000/00 RMK AO2 P0000 T10941117
14926KSTC STC20190122104013901/22/19 10:40:31  5-MIN KSTC 221640Z 31003KT 2 1/2SM -SN BR FEW012 SCT029 OVC045 M09/M12 A3004 920 84 -1800 310/03 RMK AO2 P0000 T10941117
14926KSTC STC20190122104513901/22/19 10:45:31  5-MIN KSTC 221645Z 00000KT 2 1/2SM -SN BR FEW012 FEW036 OVC045 M09/M12 A3004 920 84 -1800 000/00 RMK AO2 P0000 T10941117
14926KSTC STC20190122105011501/22/19 10:50:31  5-MIN KSTC 221650Z 00000KT 3SM -SN FEW012 OVC045 M09/M12 A3004 920 80 -1700 000/00 RMK AO2 P0000
14926KSTC STC20190122105511801/22/19 10:55:31  5-MIN KSTC 221655Z 29003KT 3SM HZ FEW012 OVC045 M09/M12 A3004 920 80 -1700 290/03 RMK AO2 T10891117
14926KSTC STC20190122110011101/22/19 11:00:31  5-MIN KSTC 221700Z 00000KT 4SM HZ OVC044 M09/M12 A3004 920 80 -1700 000/00 RMK AO2 T10891117
14926KSTC STC20190122110511101/22/19 11:05:31  5-MIN KSTC 221705Z 00000KT 6SM BR OVC044 M09/M11 A3004 920 84 -1700 000/00 RMK AO2 T10891111
14926KSTC STC20190122111010801/22/19 11:10:31  5-MIN KSTC 221710Z 00000KT 7SM OVC044 M08/M12 A3004 920 77 -1700 000/00 RMK AO2 T10831117
14926KSTC STC20190122111511501/22/19 11:15:31  5-MIN KSTC 221715Z 31003KT 9SM FEW019 OVC044 M08/M12 A3003 920 77 -1700 310/03 RMK AO2 T10831117
14926KSTC STC20190122112011601/22/19 11:20:31  5-MIN KSTC 221720Z 30004KT 10SM FEW019 OVC045 M09/M12 A3003 920 80 -1700 300/04 RMK AO2 T10891117
14926KSTC STC20190122112511601/22/19 11:25:31  5-MIN KSTC 221725Z 30004KT 10SM FEW019 OVC045 M09/M12 A3003 920 80 -1700 300/04 RMK AO2 T10891117
14926KSTC STC20190122113011501/22/19 11:30:31  5-MIN KSTC 221730Z 30004KT 9SM FEW017 OVC045 M09/M12 A3003 930 80 -1700 300/04 RMK AO2 T10891117
14926KSTC STC20190122113511501/22/19 11:35:31  5-MIN KSTC 221735Z 30004KT 8SM SCT017 OVC047 M09/M12 A3003 930 80 -1700 300/04 RMK AO2 T10891117
14926KSTC STC20190122114011501/22/19 11:40:31  5-MIN KSTC 221740Z 30006KT 9SM SCT017 OVC047 M09/M12 A3003 930 80 -1700 300/06 RMK AO2 T10891117
14926KSTC STC20190122114511601/22/19 11:45:31  5-MIN KSTC 221745Z 30007KT 10SM BKN017 OVC047 M09/M12 A3003 930 77 -1700 300/07 RMK AO2 T10891122
14926KSTC STC20190122115010601/22/19 11:50:31  5-MIN KSTC 221750Z 31007KT 10SM BKN017 OVC047 M09/M12 A3003 930 80 -1800 310/07 RMK AO2
14926KSTC STC20190122115511501/22/19 11:55:31  5-MIN KSTC 221755Z 34005KT 9SM BKN017 OVC046 M09/M12 A3003 930 77 -1700 330/05 RMK AO2 T10891122
14926KSTC STC20190122120011501/22/19 12:00:31  5-MIN KSTC 221800Z 32005KT 9SM BKN017 OVC046 M09/M12 A3003 920 77 -1700 320/05 RMK AO2 T10891122
14926KSTC STC20190122120510801/22/19 12:05:31  5-MIN KSTC 221805Z 31006KT 8SM OVC017 M08/M12 A3003 930 74 -1700 310/06 RMK AO2 T10831122
14926KSTC STC20190122121011101/22/19 12:10:31  5-MIN KSTC 221810Z 31006KT 6SM HZ OVC019 M08/M12 A3003 930 74 -1700 310/06 RMK AO2 T10831122
14926KSTC STC20190122121512401/22/19 12:15:31  5-MIN KSTC 221815Z 32006KT 4SM -SN OVC019 M08/M12 A3002 930 77 -1700 320/06 RMK AO2 SNB11 P0000 T10831117
14926KSTC STC20190122122012401/22/19 12:20:31  5-MIN KSTC 221820Z 31006KT 3SM -SN OVC019 M08/M12 A3002 930 77 -1600 310/06 RMK AO2 SNB11 P0000 T10831117
14926KSTC STC20190122122512401/22/19 12:25:31  5-MIN KSTC 221825Z 32004KT 3SM -SN OVC019 M08/M12 A3002 930 77 -1600 320/04 RMK AO2 SNB11 P0000 T10831117
14926KSTC STC20190122123012401/22/19 12:30:31  5-MIN KSTC 221830Z 34007KT 4SM -SN OVC019 M08/M12 A3002 930 74 -1600 340/07 RMK AO2 SNB11 P0000 T10781117
14926KSTC STC20190122123512401/22/19 12:35:31  5-MIN KSTC 221835Z 34007KT 6SM -SN OVC019 M08/M12 A3002 930 71 -1600 330/07 RMK AO2 SNB11 P0000 T10781122
14926KSTC STC20190122124012601/22/19 12:40:31  5-MIN KSTC 221840Z 32008KT 6SM HZ OVC019 M08/M12 A3002 930 74 -1600 320/08 RMK AO2 SNB11E39 P0000 T10831122
14926KSTC STC20190122124512601/22/19 12:45:31  5-MIN KSTC 221845Z 32008KT 6SM HZ OVC019 M08/M13 A3002 930 70 -1600 320/08 RMK AO2 SNB11E39 P0000 T10831128
14926KSTC STC20190122125013001/22/19 12:50:31  5-MIN KSTC 221850Z 33005KT 8SM OVC021 M08/M13 A3002 930 70 -1700 330/05 RMK AO2 SNB11E39 SLP196 P0000 T10831128
14926KSTC STC20190122125512401/22/19 12:55:31  5-MIN KSTC 221855Z 34007KT 7SM -SN OVC021 M08/M12 A3002 930 71 -1600 340/07 RMK AO2 SNB55 P0000 T10781122
14926KSTC STC20190122130012601/22/19 13:00:31  5-MIN KSTC 221900Z 31006KT 6SM -SN OVC021 M08/M12 A3002 930 71 -1600 310/06 RMK AO2 SNB1855 P0000 T10781122
14926KSTC STC20190122130512501/22/19 13:05:31  5-MIN KSTC 221905Z 33006KT 7SM OVC021 M08/M12 A3002 930 71 -1600 330/06 RMK AO2 SNB1855E04 P0000 T10781122
14926KSTC STC20190122131012501/22/19 13:10:31  5-MIN KSTC 221910Z 33007KT 9SM OVC020 M08/M12 A3002 930 71 -1600 330/07 RMK AO2 SNB1855E04 P0000 T10781122
14926KSTC STC20190122131512601/22/19 13:15:31  5-MIN KSTC 221915Z 33006KT 10SM OVC020 M08/M13 A3002 930 67 -1600 330/06 RMK AO2 SNB1855E04 P0000 T10781128
14926KSTC STC20190122132012501/22/19 13:20:31  5-MIN KSTC 221920Z 30006KT 9SM OVC020 M08/M12 A3002 930 71 -1600 300/06 RMK AO2 SNB1855E04 P0000 T10781122
14926KSTC STC20190122132512501/22/19 13:25:31  5-MIN KSTC 221925Z 31007KT 9SM OVC019 M08/M12 A3002 930 74 -1700 310/07 RMK AO2 SNB1855E04 P0000 T10831122
14926KSTC STC20190122133012501/22/19 13:30:31  5-MIN KSTC 221930Z 33004KT 9SM OVC019 M08/M12 A3002 930 74 -1600 330/04 RMK AO2 SNB1855E04 P0000 T10831122
14926KSTC STC20190122133512501/22/19 13:35:31  5-MIN KSTC 221935Z 33006KT 8SM OVC019 M08/M13 A3002 930 70 -1600 330/06 RMK AO2 SNB1855E04 P0000 T10831128
14926KSTC STC20190122134012501/22/19 13:40:31  5-MIN KSTC 221940Z 33007KT 9SM OVC019 M08/M13 A3002 940 70 -1600 330/07 RMK AO2 SNB1855E04 P0000 T10831128
14926KSTC STC20190122134512501/22/19 13:45:31  5-MIN KSTC 221945Z 33006KT 7SM OVC020 M08/M13 A3002 940 70 -1600 330/06 RMK AO2 SNB1855E04 P0000 T10831128
14926KSTC STC20190122135013501/22/19 13:50:31  5-MIN KSTC 221950Z 31006KT 6SM HZ OVC020 M08/M12 A3002 940 74 -1600 310/06 RMK AO2 SNB1855E04 SLP194 P0000 T10831122
14926KSTC STC20190122135510801/22/19 13:55:31  5-MIN KSTC 221955Z 34006KT 8SM OVC020 M08/M12 A3002 940 71 -1600 330/06 RMK AO2 T10781122
14926KSTC STC20190122140010801/22/19 14:00:31  5-MIN KSTC 222000Z 34005KT 7SM OVC020 M08/M12 A3002 940 71 -1600 340/05 RMK AO2 T10781122
14926KSTC STC20190122140510801/22/19 14:05:31  5-MIN KSTC 222005Z 32005KT 8SM OVC020 M08/M12 A3002 940 71 -1600 320/05 RMK AO2 T10781122
14926KSTC STC20190122141010801/22/19 14:10:31  5-MIN KSTC 222010Z 32006KT 9SM OVC020 M08/M12 A3002 940 71 -1600 320/06 RMK AO2 T10781122
14926KSTC STC20190122141510801/22/19 14:15:31  5-MIN KSTC 222015Z 32006KT 9SM OVC020 M08/M12 A3001 940 71 -1600 320/06 RMK AO2 T10781122
14926KSTC STC20190122142010901/22/19 14:20:31  5-MIN KSTC 222020Z 34007KT 10SM OVC020 M08/M12 A3001 940 71 -1600 340/07 RMK AO2 T10781122
14926KSTC STC20190122142510901/22/19 14:25:31  5-MIN KSTC 222025Z 35007KT 10SM OVC021 M08/M12 A3001 940 71 -1600 350/07 RMK AO2 T10781122
14926KSTC STC20190122143010901/22/19 14:30:31  5-MIN KSTC 222030Z 34007KT 10SM OVC021 M08/M12 A3001 940 71 -1600 340/07 RMK AO2 T10781122
14926KSTC STC20190122143510901/22/19 14:35:31  5-MIN KSTC 222035Z 33005KT 10SM BKN022 M08/M12 A3001 940 71 -1600 330/05 RMK AO2 T10781122
14926KSTC STC20190122144010801/22/19 14:40:31  5-MIN KSTC 222040Z 33006KT 9SM BKN022 M08/M12 A3001 940 71 -1600 330/06 RMK AO2 T10781122
14926KSTC STC20190122144510801/22/19 14:45:31  5-MIN KSTC 222045Z 33006KT 9SM OVC022 M08/M12 A3001 940 71 -1600 330/06 RMK AO2 T10781122
14926KSTC STC20190122145012801/22/19 14:50:31  5-MIN KSTC 222050Z 33007KT 10SM BKN022 M08/M12 A3001 940 71 -1600 330/07 RMK AO2 SLP191 60000 T10781122 50004
14926KSTC STC20190122145510901/22/19 14:55:31  5-MIN KSTC 222055Z 34007KT 10SM BKN022 M08/M12 A3001 940 71 -1600 340/07 RMK AO2 T10781122
14926KSTC STC20190122150010901/22/19 15:00:31  5-MIN KSTC 222100Z 33007KT 10SM BKN022 M08/M12 A3001 940 71 -1600 330/07 RMK AO2 T10781122
14926KSTC STC20190122150510801/22/19 15:05:31  5-MIN KSTC 222105Z 33007KT 9SM BKN022 M08/M12 A3001 940 71 -1600 330/07 RMK AO2 T10781122
14926KSTC STC20190122151010801/22/19 15:10:31  5-MIN KSTC 222110Z 33007KT 7SM BKN022 M08/M12 A3001 940 74 -1600 330/07 RMK AO2 T10831122
14926KSTC STC20190122151510801/22/19 15:15:31  5-MIN KSTC 222115Z 33005KT 7SM BKN022 M08/M12 A3001 940 74 -1600 330/05 RMK AO2 T10831122
14926KSTC STC20190122152010801/22/19 15:20:31  5-MIN KSTC 222120Z 33007KT 8SM OVC022 M08/M12 A3001 940 74 -1600 330/07 RMK AO2 T10831122
14926KSTC STC20190122152511501/22/19 15:25:31  5-MIN KSTC 222125Z 32005KT 8SM BKN020 OVC025 M08/M13 A3001 940 67 -1600 320/05 RMK AO2 T10781128
14926KSTC STC20190122153010801/22/19 15:30:31  5-MIN KSTC 222130Z 32006KT 9SM BKN022 M08/M13 A3001 940 67 -1600 320/06 RMK AO2 T10781128
14926KSTC STC20190122153510901/22/19 15:35:31  5-MIN KSTC 222135Z 35004KT 10SM BKN022 M08/M13 A3001 940 67 -1600 350/04 RMK AO2 T10781128
14926KSTC STC20190122154010901/22/19 15:40:31  5-MIN KSTC 222140Z 34004KT 10SM BKN022 M08/M13 A3001 940 67 -1600 340/04 RMK AO2 T10781128
14926KSTC STC20190122154510901/22/19 15:45:31  5-MIN KSTC 222145Z 35003KT 10SM BKN022 M08/M13 A3001 950 64 -1600 350/03 RMK AO2 T10781133
14926KSTC STC20190122155011601/22/19 15:50:31  5-MIN KSTC 222150Z 35003KT 10SM BKN022 M08/M13 A3001 950 64 -1600 340/03 RMK AO2 SLP190 T10781133
14926KSTC STC20190122155510901/22/19 15:55:31  5-MIN KSTC 222155Z 35004KT 10SM BKN024 M08/M13 A3001 950 64 -1600 350/04 RMK AO2 T10781133
14926KSTC STC20190122160010901/22/19 16:00:31  5-MIN KSTC 222200Z 35003KT 10SM BKN024 M08/M13 A3001 940 64 -1600 350/03 RMK AO2 T10781133
14926KSTC STC20190122160510901/22/19 16:05:31  5-MIN KSTC 222205Z 34004KT 10SM BKN024 M08/M13 A3001 940 64 -1600 340/04 RMK AO2 T10781133
14926KSTC STC20190122161010901/22/19 16:10:31  5-MIN KSTC 222210Z 36003KT 10SM BKN024 M08/M13 A3001 950 64 -1600 350/03 RMK AO2 T10781133
14926KSTC STC20190122161510901/22/19 16:15:31  5-MIN KSTC 222215Z 34004KT 10SM BKN024 M08/M13 A3001 940 67 -1600 340/04 RMK AO2 T10831133
14926KSTC STC20190122162010901/22/19 16:20:31  5-MIN KSTC 222220Z 34004KT 10SM BKN024 M08/M14 A3001 950 64 -1600 340/04 RMK AO2 T10831139
14926KSTC STC20190122162510901/22/19 16:25:31  5-MIN KSTC 222225Z 34004KT 10SM SCT024 M08/M14 A3001 950 64 -1600 340/04 RMK AO2 T10831139
14926KSTC STC20190122163010901/22/19 16:30:31  5-MIN KSTC 222230Z 33003KT 10SM FEW024 M09/M14 A3001 950 67 -1700 330/03 RMK AO2 T10891139
14926KSTC STC20190122163510901/22/19 16:35:31  5-MIN KSTC 222235Z 33003KT 10SM FEW024 M09/M14 A3001 940 67 -1700 330/03 RMK AO2 T10891139
14926KSTC STC20190122164010601/22/19 16:40:31  5-MIN KSTC 222240Z 33003KT 10SM CLR M09/M14 A3001 940 67 -1700 330/03 RMK AO2 T10891139
14926KSTC STC20190122164510601/22/19 16:45:31  5-MIN KSTC 222245Z 33003KT 10SM CLR M09/M14 A3001 940 67 -1700 330/03 RMK AO2 T10891139
14926KSTC STC20190122165011301/22/19 16:50:31  5-MIN KSTC 222250Z 33003KT 10SM CLR M09/M14 A3001 940 67 -1700 330/03 RMK AO2 SLP193 T10891139
14926KSTC STC20190122165510601/22/19 16:55:31  5-MIN KSTC 222255Z 33003KT 10SM CLR M09/M14 A3001 940 67 -1700 330/03 RMK AO2 T10891139
14926KSTC STC20190122170010601/22/19 17:00:31  5-MIN KSTC 222300Z 32003KT 10SM CLR M10/M14 A3002 940 70 -1900 320/03 RMK AO2 T11001144
14926KSTC STC20190122170510601/22/19 17:05:31  5-MIN KSTC 222305Z 32003KT 10SM CLR M10/M14 A3002 940 70 -1900 320/03 RMK AO2 T11001144
14926KSTC STC20190122171010601/22/19 17:10:31  5-MIN KSTC 222310Z 00000KT 10SM CLR M11/M14 A3002 930 73 -1900 000/00 RMK AO2 T11061144
14926KSTC STC20190122171510601/22/19 17:15:31  5-MIN KSTC 222315Z 00000KT 10SM CLR M11/M14 A3002 930 73 -1900 000/00 RMK AO2 T11061144
14926KSTC STC20190122172010601/22/19 17:20:31  5-MIN KSTC 222320Z 00000KT 10SM CLR M11/M14 A3002 930 73 -1900 000/00 RMK AO2 T11061144
14926KSTC STC20190122172510601/22/19 17:25:31  5-MIN KSTC 222325Z 32003KT 10SM CLR M10/M14 A3002 930 70 -1900 320/03 RMK AO2 T11001144
14926KSTC STC20190122173010601/22/19 17:30:31  5-MIN KSTC 222330Z 32003KT 10SM CLR M10/M14 A3002 930 70 -1900 320/03 RMK AO2 T11001144
14926KSTC STC20190122173510601/22/19 17:35:31  5-MIN KSTC 222335Z 32003KT 10SM CLR M10/M14 A3002 930 70 -1900 310/03 RMK AO2 T11001144
14926KSTC STC20190122174010601/22/19 17:40:31  5-MIN KSTC 222340Z 31004KT 10SM CLR M11/M14 A3002 930 73 -1900 310/04 RMK AO2 T11061144
14926KSTC STC20190122174510601/22/19 17:45:31  5-MIN KSTC 222345Z 31004KT 10SM CLR M11/M14 A3002 930 73 -1900 310/04 RMK AO2 T11061144
14926KSTC STC20190122175013701/22/19 17:50:31  5-MIN KSTC 222350Z 31004KT 10SM CLR M11/M14 A3002 930 73 -1900 300/04 RMK AO2 SLP198 60000 T11061144 11078 21106 58006
14926KSTC STC20190122175510601/22/19 17:55:31  5-MIN KSTC 222355Z 30004KT 10SM CLR M11/M14 A3003 930 77 -2000 300/04 RMK AO2 T11111144
14926KSTC STC20190122180009601/22/19 18:00:31  5-MIN KSTC 230000Z 10SM CLR M11/M14 A3002 930 77 -2000 M /M RMK AO2 T11111144
14926KSTC STC20190122180509601/22/19 18:05:31  5-MIN KSTC 230005Z 10SM CLR M11/M14 A3002 930 77 -2000 M /M RMK AO2 T11111144
14926KSTC STC20190122181009601/22/19 18:10:31  5-MIN KSTC 230010Z 10SM CLR M12/M15 A3002 930 76 -2100 M /M RMK AO2 T11171150
14926KSTC STC20190122181509601/22/19 18:15:31  5-MIN KSTC 230015Z 10SM CLR M12/M15 A3003 930 76 -2100 M /M RMK AO2 T11171150
14926KSTC STC20190122182009601/22/19 18:20:31  5-MIN KSTC 230020Z 10SM CLR M12/M15 A3002 930 80 -2200 M /M RMK AO2 T11221150
14926KSTC STC20190122182509601/22/19 18:25:31  5-MIN KSTC 230025Z 10SM CLR M12/M15 A3002 930 80 -2200 M /M RMK AO2 T11221150
14926KSTC STC20190122183009601/22/19 18:30:31  5-MIN KSTC 230030Z 10SM CLR M13/M15 A3002 930 84 -2200 M /M RMK AO2 T11281150
14926KSTC STC20190122183509601/22/19 18:35:31  5-MIN KSTC 230035Z 10SM CLR M13/M15 A3002 930 84 -2200 M /M RMK AO2 T11281150
14926KSTC STC20190122184010601/22/19 18:40:31  5-MIN KSTC 230040Z 30005KT 10SM CLR M13/M15 A3002 930 84 -2200 300/05 RMK AO2 T11281150
14926KSTC STC20190122184510601/22/19 18:45:31  5-MIN KSTC 230045Z 29004KT 10SM CLR M13/M15 A3003 930 84 -2200 290/04 RMK AO2 T11281150
14926KSTC STC20190122185011301/22/19 18:50:31  5-MIN KSTC 230050Z 28003KT 10SM CLR M13/M15 A3003 930 84 -2200 280/03 RMK AO2 SLP200 T11281150
14926KSTC STC20190122185510601/22/19 18:55:31  5-MIN KSTC 230055Z 28003KT 10SM CLR M14/M16 A3003 920 87 -2400 280/03 RMK AO2 T11391156
14926KSTC STC20190122190010601/22/19 19:00:31  5-MIN KSTC 230100Z 28003KT 10SM CLR M13/M16 A3003 920 83 -2300 280/03 RMK AO2 T11331156
14926KSTC STC20190122190510601/22/19 19:05:31  5-MIN KSTC 230105Z 27003KT 10SM CLR M14/M16 A3004 920 87 -2500 270/03 RMK AO2 T11441161
14926KSTC STC20190122191010601/22/19 19:10:31  5-MIN KSTC 230110Z 26003KT 10SM CLR M14/M16 A3004 920 83 -2400 260/03 RMK AO2 T11391161
14926KSTC STC20190122191510601/22/19 19:15:31  5-MIN KSTC 230115Z 26003KT 10SM CLR M14/M16 A3004 920 83 -2400 260/03 RMK AO2 T11391161
14926KSTC STC20190122192010601/22/19 19:20:31  5-MIN KSTC 230120Z 27004KT 10SM CLR M14/M16 A3004 920 83 -2400 270/04 RMK AO2 T11391161
14926KSTC STC20190122192510601/22/19 19:25:31  5-MIN KSTC 230125Z 29004KT 10SM CLR M14/M16 A3003 920 83 -2400 290/04 RMK AO2 T11391161
14926KSTC STC20190122193010601/22/19 19:30:31  5-MIN KSTC 230130Z 30005KT 10SM CLR M14/M16 A3003 920 87 -2400 300/05 RMK AO2 T11391156
14926KSTC STC20190122193510601/22/19 19:35:31  5-MIN KSTC 230135Z 31006KT 10SM CLR M14/M16 A3003 930 87 -2500 310/06 RMK AO2 T11441161
14926KSTC STC20190122194010601/22/19 19:40:31  5-MIN KSTC 230140Z 31005KT 10SM CLR M14/M16 A3003 930 83 -2400 310/05 RMK AO2 T11391161
14926KSTC STC20190122194510601/22/19 19:45:31  5-MIN KSTC 230145Z 32004KT 10SM CLR M14/M16 A3002 930 87 -2500 320/04 RMK AO2 T11441161
14926KSTC STC20190122195011301/22/19 19:50:31  5-MIN KSTC 230150Z 32005KT 10SM CLR M13/M16 A3002 930 83 -2300 320/05 RMK AO2 SLP198 T11331156
14926KSTC STC20190122195510601/22/19 19:55:31  5-MIN KSTC 230155Z 32004KT 10SM CLR M14/M16 A3002 930 87 -2400 320/04 RMK AO2 T11391156
14926KSTC STC20190122200010601/22/19 20:00:31  5-MIN KSTC 230200Z 32005KT 10SM CLR M14/M16 A3002 930 83 -2400 320/05 RMK AO2 T11391161
14926KSTC STC20190122200510601/22/19 20:05:31  5-MIN KSTC 230205Z 31005KT 10SM CLR M14/M16 A3002 930 87 -2400 310/05 RMK AO2 T11391156
14926KSTC STC20190122201010601/22/19 20:10:31  5-MIN KSTC 230210Z 32006KT 10SM CLR M14/M16 A3003 930 83 -2400 310/06 RMK AO2 T11391161
14926KSTC STC20190122201510601/22/19 20:15:31  5-MIN KSTC 230215Z 32006KT 10SM CLR M13/M16 A3002 930 83 -2300 320/06 RMK AO2 T11331156
14926KSTC STC20190122202010601/22/19 20:20:31  5-MIN KSTC 230220Z 32006KT 10SM CLR M13/M16 A3002 930 83 -2300 320/06 RMK AO2 T11331156
14926KSTC STC20190122202510601/22/19 20:25:31  5-MIN KSTC 230225Z 32006KT 10SM CLR M13/M16 A3002 940 83 -2300 320/06 RMK AO2 T11331156
14926KSTC STC20190122203010901/22/19 20:30:31  5-MIN KSTC 230230Z 32005KT 10SM FEW039 M13/M16 A3002 930 83 -2300 320/05 RMK AO2 T11331156
14926KSTC STC20190122203510901/22/19 20:35:31  5-MIN KSTC 230235Z 32005KT 10SM SCT039 M13/M16 A3002 930 83 -2300 310/05 RMK AO2 T11331156
14926KSTC STC20190122204010901/22/19 20:40:31  5-MIN KSTC 230240Z 32005KT 10SM BKN039 M13/M16 A3002 940 83 -2300 320/05 RMK AO2 T11331156
14926KSTC STC20190122204510901/22/19 20:45:31  5-MIN KSTC 230245Z 32005KT 10SM BKN039 M13/M16 A3002 940 83 -2300 320/05 RMK AO2 T11331156
14926KSTC STC20190122205012201/22/19 20:50:31  5-MIN KSTC 230250Z 32005KT 10SM BKN039 M13/M15 A3002 940 87 -2300 320/05 RMK AO2 SLP196 T11331150 53005
14926KSTC STC20190122205510901/22/19 20:55:31  5-MIN KSTC 230255Z 32004KT 10SM OVC038 M13/M15 A3002 940 84 -2200 320/04 RMK AO2 T11281150
14926KSTC STC20190122210010901/22/19 21:00:31  5-MIN KSTC 230300Z 32005KT 10SM OVC038 M12/M14 A3002 940 84 -2200 320/05 RMK AO2 T11221144
14926KSTC STC20190122210510901/22/19 21:05:31  5-MIN KSTC 230305Z 32006KT 10SM OVC038 M12/M14 A3001 940 84 -2100 320/06 RMK AO2 T11171139
14926KSTC STC20190122211010901/22/19 21:10:31  5-MIN KSTC 230310Z 32006KT 10SM OVC038 M11/M13 A3001 940 80 -1900 320/06 RMK AO2 T11061133
14926KSTC STC20190122211510901/22/19 21:15:31  5-MIN KSTC 230315Z 32006KT 10SM OVC038 M10/M13 A3002 940 77 -1900 320/06 RMK AO2 T11001133
14926KSTC STC20190122212010901/22/19 21:20:31  5-MIN KSTC 230320Z 32005KT 10SM OVC038 M10/M13 A3002 940 77 -1900 320/05 RMK AO2 T11001133
14926KSTC STC20190122212510901/22/19 21:25:31  5-MIN KSTC 230325Z 32006KT 10SM OVC037 M10/M13 A3002 940 77 -1900 320/06 RMK AO2 T11001133
14926KSTC STC20190122213010901/22/19 21:30:31  5-MIN KSTC 230330Z 32005KT 10SM OVC037 M10/M13 A3002 930 77 -1900 320/05 RMK AO2 T11001133
14926KSTC STC20190122213510901/22/19 21:35:31  5-MIN KSTC 230335Z 31004KT 10SM OVC037 M10/M13 A3003 930 77 -1900 310/04 RMK AO2 T11001133
14926KSTC STC20190122214010901/22/19 21:40:31  5-MIN KSTC 230340Z 31003KT 10SM OVC037 M10/M13 A3003 930 80 -1900 310/03 RMK AO2 T11001128
14926KSTC STC20190122214510901/22/19 21:45:31  5-MIN KSTC 230345Z 00000KT 10SM OVC037 M10/M13 A3003 930 80 -1900 000/00 RMK AO2 T11001128
14926KSTC STC20190122215011601/22/19 21:50:31  5-MIN KSTC 230350Z 00000KT 10SM OVC037 M10/M13 A3003 930 80 -1900 000/00 RMK AO2 SLP199 T11001128
14926KSTC STC20190122215510901/22/19 21:55:31  5-MIN KSTC 230355Z 28003KT 10SM OVC036 M09/M13 A3003 920 73 -1800 280/03 RMK AO2 T10941133
14926KSTC STC20190122220010901/22/19 22:00:31  5-MIN KSTC 230400Z 27003KT 10SM OVC036 M09/M13 A3004 920 73 -1800 260/03 RMK AO2 T10941133
14926KSTC STC20190122220510901/22/19 22:05:31  5-MIN KSTC 230405Z 26003KT 10SM OVC036 M09/M13 A3004 910 73 -1800 260/03 RMK AO2 T10941133
14926KSTC STC20190122221010901/22/19 22:10:31  5-MIN KSTC 230410Z 25003KT 10SM OVC036 M09/M13 A3004 920 77 -1800 250/03 RMK AO2 T10941128
14926KSTC STC20190122221510901/22/19 22:15:31  5-MIN KSTC 230415Z 25003KT 10SM OVC036 M09/M13 A3004 920 77 -1800 250/03 RMK AO2 T10941128
14926KSTC STC20190122222010901/22/19 22:20:31  5-MIN KSTC 230420Z 25003KT 10SM OVC036 M09/M13 A3004 920 77 -1800 250/03 RMK AO2 T10941128
14926KSTC STC20190122222510901/22/19 22:25:31  5-MIN KSTC 230425Z 26003KT 10SM OVC036 M09/M13 A3004 920 77 -1800 260/03 RMK AO2 T10941128
14926KSTC STC20190122223010901/22/19 22:30:31  5-MIN KSTC 230430Z 29004KT 10SM OVC036 M09/M13 A3004 920 77 -1800 290/04 RMK AO2 T10941128
14926KSTC STC20190122223510901/22/19 22:35:31  5-MIN KSTC 230435Z 30004KT 10SM OVC036 M09/M13 A3003 920 77 -1800 300/04 RMK AO2 T10941128
14926KSTC STC20190122224010901/22/19 22:40:31  5-MIN KSTC 230440Z 30004KT 10SM OVC036 M09/M13 A3003 920 77 -1800 300/04 RMK AO2 T10941128
14926KSTC STC20190122224510901/22/19 22:45:31  5-MIN KSTC 230445Z 30005KT 10SM OVC036 M09/M13 A3003 930 77 -1800 300/05 RMK AO2 T10941128
14926KSTC STC20190122225011601/22/19 22:50:31  5-MIN KSTC 230450Z 31005KT 10SM OVC036 M09/M13 A3003 930 77 -1800 310/05 RMK AO2 SLP196 T10941128
14926KSTC STC20190122225510901/22/19 22:55:31  5-MIN KSTC 230455Z 31005KT 10SM OVC036 M09/M13 A3002 930 77 -1800 310/05 RMK AO2 T10941128
14926KSTC STC20190122230010901/22/19 23:00:31  5-MIN KSTC 230500Z 31007KT 10SM OVC036 M09/M13 A3002 930 77 -1800 310/07 RMK AO2 T10941128
14926KSTC STC20190122230511401/22/19 23:05:31  5-MIN KSTC 230505Z AUTO 32007KT 10SM OVC036 M09/M13 A3002 930 77 -1800 310/07 RMK AO2 T10941128
14926KSTC STC20190122231011401/22/19 23:10:31  5-MIN KSTC 230510Z AUTO 32006KT 10SM OVC036 M09/M13 A3002 930 77 -1800 320/06 RMK AO2 T10941128
14926KSTC STC20190122231511401/22/19 23:15:31  5-MIN KSTC 230515Z AUTO 31006KT 10SM OVC036 M09/M13 A3002 930 77 -1800 310/06 RMK AO2 T10941128
14926KSTC STC20190122232011401/22/19 23:20:31  5-MIN KSTC 230520Z AUTO 31007KT 10SM OVC036 M09/M13 A3002 930 77 -1800 310/07 RMK AO2 T10941128
14926KSTC STC20190122232511401/22/19 23:25:31  5-MIN KSTC 230525Z AUTO 32007KT 10SM OVC036 M09/M13 A3002 940 77 -1800 310/07 RMK AO2 T10941128
14926KSTC STC20190122233011401/22/19 23:30:31  5-MIN KSTC 230530Z AUTO 32009KT 10SM OVC036 M09/M13 A3001 940 73 -1800 320/09 RMK AO2 T10941133
14926KSTC STC20190122233511401/22/19 23:35:31  5-MIN KSTC 230535Z AUTO 32008KT 10SM OVC036 M09/M13 A3001 940 73 -1800 320/08 RMK AO2 T10941133
14926KSTC STC20190122234011401/22/19 23:40:31  5-MIN KSTC 230540Z AUTO 32007KT 10SM OVC036 M09/M13 A3001 940 73 -1800 320/07 RMK AO2 T10941133
14926KSTC STC20190122234511401/22/19 23:45:31  5-MIN KSTC 230545Z AUTO 32008KT 10SM OVC036 M09/M13 A3001 940 73 -1800 320/08 RMK AO2 T10941133
14926KSTC STC20190122235014901/22/19 23:50:31  5-MIN KSTC 230550Z AUTO 32007KT 10SM OVC036 M10/M13 A3001 950 77 -1800 320/07 RMK AO2 SLP191 T11001133 11094 21144 410781144 58003
14926KSTC STC20190122235511401/22/19 23:55:31  5-MIN KSTC 230555Z AUTO 32008KT 10SM OVC037 M10/M13 A3000 950 77 -1800 320/08 RMK AO2 T11001133
14926KSTC STC20190123000011401/23/19 00:00:31  5-MIN KSTC 230600Z AUTO 32007KT 10SM OVC037 M10/M13 A3000 950 77 -1800 320/07 RMK AO2 T11001133
14926KSTC STC20190123000511401/23/19 00:05:31  5-MIN KSTC 230605Z AUTO 32007KT 10SM OVC037 M10/M13 A3000 950 77 -1800 310/07 RMK AO2 T11001133
14926KSTC STC20190123001011401/23/19 00:10:31  5-MIN KSTC 230610Z AUTO 33006KT 10SM OVC037 M10/M13 A3000 950 77 -1800 330/06 RMK AO2 T11001133
14926KSTC STC20190123001511401/23/19 00:15:31  5-MIN KSTC 230615Z AUTO 33007KT 10SM OVC037 M10/M13 A3000 950 77 -1800 330/07 RMK AO2 T11001133
14926KSTC STC20190123002011401/23/19 00:20:31  5-MIN KSTC 230620Z AUTO 32007KT 10SM OVC037 M10/M13 A3000 960 77 -1800 320/07 RMK AO2 T11001133
14926KSTC STC20190123002511401/23/19 00:25:31  5-MIN KSTC 230625Z AUTO 32005KT 10SM OVC037 M10/M13 A2999 960 77 -1800 320/05 RMK AO2 T11001133
14926KSTC STC20190123003011401/23/19 00:30:31  5-MIN KSTC 230630Z AUTO 33005KT 10SM OVC037 M10/M13 A2999 960 77 -1800 330/05 RMK AO2 T11001133
14926KSTC STC20190123003511401/23/19 00:35:31  5-MIN KSTC 230635Z AUTO 32005KT 10SM OVC038 M10/M13 A2999 960 77 -1800 320/05 RMK AO2 T11001133
14926KSTC STC20190123004011401/23/19 00:40:31  5-MIN KSTC 230640Z AUTO 33006KT 10SM OVC038 M10/M13 A2999 960 77 -1800 330/06 RMK AO2 T11001133
14926KSTC STC20190123004511401/23/19 00:45:31  5-MIN KSTC 230645Z AUTO 32005KT 10SM OVC038 M10/M13 A2998 970 77 -1800 320/05 RMK AO2 T11001133
14926KSTC STC20190123005012101/23/19 00:50:31  5-MIN KSTC 230650Z AUTO 32005KT 10SM OVC038 M10/M13 A2998 970 77 -1800 320/05 RMK AO2 SLP181 T11001133
14926KSTC STC20190123005511401/23/19 00:55:31  5-MIN KSTC 230655Z AUTO 33004KT 10SM OVC038 M10/M13 A2998 970 77 -1800 330/04 RMK AO2 T11001133
14926KSTC STC20190123010011401/23/19 01:00:31  5-MIN KSTC 230700Z AUTO 32004KT 10SM OVC038 M10/M13 A2999 970 77 -1800 320/04 RMK AO2 T11001133
14926KSTC STC20190123010511401/23/19 01:05:31  5-MIN KSTC 230705Z AUTO 33005KT 10SM OVC038 M10/M13 A2998 970 77 -1800 330/05 RMK AO2 T11001133
14926KSTC STC20190123011011401/23/19 01:10:31  5-MIN KSTC 230710Z AUTO 33007KT 10SM OVC038 M10/M14 A2998 970 73 -1800 330/07 RMK AO2 T11001139
14926KSTC STC20190123011511401/23/19 01:15:31  5-MIN KSTC 230715Z AUTO 33006KT 10SM OVC038 M10/M13 A2999 970 77 -1800 330/06 RMK AO2 T11001133
14926KSTC STC20190123012011401/23/19 01:20:31  5-MIN KSTC 230720Z AUTO 33006KT 10SM OVC038 M10/M13 A2998 970 77 -1800 330/06 RMK AO2 T11001133
14926KSTC STC20190123012511401/23/19 01:25:31  5-MIN KSTC 230725Z AUTO 32006KT 10SM OVC038 M10/M13 A2999 970 77 -1800 320/06 RMK AO2 T11001133
14926KSTC STC20190123013011401/23/19 01:30:31  5-MIN KSTC 230730Z AUTO 31007KT 10SM OVC038 M10/M13 A2999 970 77 -1800 310/07 RMK AO2 T11001133
14926KSTC STC20190123013511401/23/19 01:35:31  5-MIN KSTC 230735Z AUTO 32006KT 10SM OVC038 M10/M14 A2999 970 73 -1800 320/06 RMK AO2 T11001139
14926KSTC STC20190123014011401/23/19 01:40:31  5-MIN KSTC 230740Z AUTO 32007KT 10SM OVC038 M11/M13 A2999 970 80 -1900 320/07 RMK AO2 T11061133
14926KSTC STC20190123014511401/23/19 01:45:31  5-MIN KSTC 230745Z AUTO 32007KT 10SM OVC038 M11/M14 A2999 970 77 -1900 310/07 RMK AO2 T11061139
14926KSTC STC20190123015012101/23/19 01:50:31  5-MIN KSTC 230750Z AUTO 31008KT 10SM OVC038 M11/M14 A2998 970 77 -1900 310/08 RMK AO2 SLP183 T11061139
14926KSTC STC20190123015511401/23/19 01:55:31  5-MIN KSTC 230755Z AUTO 32009KT 10SM OVC038 M11/M14 A2999 970 77 -1900 310/09 RMK AO2 T11061139
14926KSTC STC20190123020011401/23/19 02:00:31  5-MIN KSTC 230800Z AUTO 32008KT 10SM OVC038 M11/M14 A2998 970 77 -1900 320/08 RMK AO2 T11061139
14926KSTC STC20190123020511401/23/19 02:05:31  5-MIN KSTC 230805Z AUTO 32007KT 10SM OVC038 M11/M14 A2998 970 77 -1900 320/07 RMK AO2 T11061139
14926KSTC STC20190123021011401/23/19 02:10:31  5-MIN KSTC 230810Z AUTO 32006KT 10SM OVC038 M11/M14 A2998 970 77 -1900 320/06 RMK AO2 T11061139
14926KSTC STC20190123021511401/23/19 02:15:31  5-MIN KSTC 230815Z AUTO 32005KT 10SM OVC038 M11/M14 A2998 970 77 -1900 320/05 RMK AO2 T11061139
14926KSTC STC20190123022011401/23/19 02:20:31  5-MIN KSTC 230820Z AUTO 32005KT 10SM OVC038 M11/M14 A2999 970 77 -1900 320/05 RMK AO2 T11061139
14926KSTC STC20190123022511401/23/19 02:25:31  5-MIN KSTC 230825Z AUTO 32005KT 10SM OVC038 M11/M14 A2999 970 77 -1900 320/05 RMK AO2 T11061139
14926KSTC STC20190123023011401/23/19 02:30:31  5-MIN KSTC 230830Z AUTO 32007KT 10SM OVC038 M11/M14 A2999 960 80 -2000 320/07 RMK AO2 T11111139
14926KSTC STC20190123023511401/23/19 02:35:31  5-MIN KSTC 230835Z AUTO 32006KT 10SM OVC038 M11/M14 A2999 970 80 -2000 320/06 RMK AO2 T11111139
14926KSTC STC20190123024011401/23/19 02:40:31  5-MIN KSTC 230840Z AUTO 32007KT 10SM OVC038 M11/M14 A2999 960 77 -2000 320/07 RMK AO2 T11111144
14926KSTC STC20190123024511401/23/19 02:45:31  5-MIN KSTC 230845Z AUTO 32005KT 10SM OVC038 M11/M14 A2999 970 77 -2000 320/05 RMK AO2 T11111144
14926KSTC STC20190123025012701/23/19 02:50:31  5-MIN KSTC 230850Z AUTO 32006KT 10SM OVC038 M12/M14 A2998 970 80 -2000 320/06 RMK AO2 SLP183 T11171144 58004
14926KSTC STC20190123025511401/23/19 02:55:31  5-MIN KSTC 230855Z AUTO 33004KT 10SM OVC038 M12/M14 A2998 970 80 -2000 320/04 RMK AO2 T11171144
14926KSTC STC20190123030011401/23/19 03:00:31  5-MIN KSTC 230900Z AUTO 32005KT 10SM OVC037 M12/M14 A2998 970 80 -2000 320/05 RMK AO2 T11171144
14926KSTC STC20190123030511401/23/19 03:05:31  5-MIN KSTC 230905Z AUTO 32004KT 10SM OVC037 M12/M15 A2998 970 80 -2100 320/04 RMK AO2 T11221150
14926KSTC STC20190123031011401/23/19 03:10:31  5-MIN KSTC 230910Z AUTO 33004KT 10SM OVC037 M13/M15 A2998 970 84 -2200 330/04 RMK AO2 T11281150
14926KSTC STC20190123031511401/23/19 03:15:31  5-MIN KSTC 230915Z AUTO 33005KT 10SM OVC037 M12/M15 A2998 970 80 -2100 330/05 RMK AO2 T11221150
14926KSTC STC20190123032011401/23/19 03:20:31  5-MIN KSTC 230920Z AUTO 32005KT 10SM OVC037 M12/M14 A2998 970 84 -2100 320/05 RMK AO2 T11221144
14926KSTC STC20190123032511401/23/19 03:25:31  5-MIN KSTC 230925Z AUTO 33005KT 10SM OVC037 M12/M15 A2998 970 80 -2100 320/05 RMK AO2 T11221150
14926KSTC STC20190123033011401/23/19 03:30:31  5-MIN KSTC 230930Z AUTO 32004KT 10SM OVC037 M13/M15 A2998 970 84 -2200 320/04 RMK AO2 T11281150
14926KSTC STC20190123033511401/23/19 03:35:31  5-MIN KSTC 230935Z AUTO 00000KT 10SM OVC037 M13/M15 A2998 970 84 -2200 000/00 RMK AO2 T11281150
14926KSTC STC20190123034011401/23/19 03:40:31  5-MIN KSTC 230940Z AUTO 33004KT 10SM OVC037 M13/M15 A2998 970 84 -2200 330/04 RMK AO2 T11281150
14926KSTC STC20190123034511401/23/19 03:45:31  5-MIN KSTC 230945Z AUTO 33003KT 10SM OVC037 M13/M15 A2998 970 87 -2300 330/03 RMK AO2 T11331150
14926KSTC STC20190123035012101/23/19 03:50:31  5-MIN KSTC 230950Z AUTO 33003KT 10SM OVC037 M13/M15 A2997 980 87 -2300 330/03 RMK AO2 SLP181 T11331150
14926KSTC STC20190123035511401/23/19 03:55:31  5-MIN KSTC 230955Z AUTO 00000KT 10SM OVC037 M13/M15 A2997 980 87 -2300 000/00 RMK AO2 T11331150
14926KSTC STC20190123040011401/23/19 04:00:31  5-MIN KSTC 231000Z AUTO 31003KT 10SM OVC037 M14/M16 A2997 980 87 -2300 310/03 RMK AO2 T11391156
14926KSTC STC20190123040511401/23/19 04:05:31  5-MIN KSTC 231005Z AUTO 32003KT 10SM OVC037 M14/M16 A2997 980 87 -2300 310/03 RMK AO2 T11391156
14926KSTC STC20190123041011401/23/19 04:10:31  5-MIN KSTC 231010Z AUTO 32003KT 10SM OVC037 M14/M16 A2997 980 87 -2300 320/03 RMK AO2 T11391156
14926KSTC STC20190123041511401/23/19 04:15:31  5-MIN KSTC 231015Z AUTO 00000KT 10SM OVC037 M14/M16 A2997 980 87 -2300 000/00 RMK AO2 T11391156
14926KSTC STC20190123042011401/23/19 04:20:31  5-MIN KSTC 231020Z AUTO 31004KT 10SM OVC037 M14/M16 A2997 980 87 -2300 310/04 RMK AO2 T11391156
14926KSTC STC20190123042511401/23/19 04:25:31  5-MIN KSTC 231025Z AUTO 32004KT 10SM OVC037 M14/M16 A2996 990 91 -2400 320/04 RMK AO2 T11441156
14926KSTC STC20190123043011401/23/19 04:30:31  5-MIN KSTC 231030Z AUTO 31004KT 10SM BKN037 M14/M16 A2996 990 91 -2400 310/04 RMK AO2 T11441156
14926KSTC STC20190123043511401/23/19 04:35:31  5-MIN KSTC 231035Z AUTO 32004KT 10SM BKN037 M14/M16 A2996 990 91 -2400 310/04 RMK AO2 T11441156
14926KSTC STC20190123044011301/23/19 04:40:31  5-MIN KSTC 231040Z AUTO 31003KT 9SM BKN037 M15/M16 A2996 990 91 -2500 310/03 RMK AO2 T11501161
14926KSTC STC20190123044511301/23/19 04:45:31  5-MIN KSTC 231045Z AUTO 31004KT 9SM BKN037 M15/M16 A2996 990 91 -2500 310/04 RMK AO2 T11501161
14926KSTC STC20190123045012001/23/19 04:50:31  5-MIN KSTC 231050Z AUTO 31005KT 9SM SCT037 M15/M16 A2996 990 91 -2500 310/05 RMK AO2 SLP176 T11501161
14926KSTC STC20190123045511301/23/19 04:55:31  5-MIN KSTC 231055Z AUTO 31005KT 8SM FEW037 M16/M17 A2996 990 91 -2500 310/05 RMK AO2 T11561167
14926KSTC STC20190123050011401/23/19 05:00:31  5-MIN KSTC 231100Z AUTO 32004KT 8SM FEW037 M15/M17 A2995 1000 87 -2500 320/04 RMK AO2 T11501167
14926KSTC STC20190123050511401/23/19 05:05:31  5-MIN KSTC 231105Z AUTO 32005KT 8SM FEW037 M15/M16 A2995 1000 91 -2400 320/05 RMK AO2 T11501161
14926KSTC STC20190123051011101/23/19 05:10:31  5-MIN KSTC 231110Z AUTO 32003KT 8SM CLR M16/M17 A2995 1000 91 -2500 320/03 RMK AO2 T11561167
14926KSTC STC20190123051511101/23/19 05:15:31  5-MIN KSTC 231115Z AUTO 32003KT 8SM CLR M16/M17 A2995 1000 91 -2500 320/03 RMK AO2 T11561167
14926KSTC STC20190123052011101/23/19 05:20:31  5-MIN KSTC 231120Z AUTO 32003KT 8SM CLR M16/M17 A2995 1000 91 -2500 320/03 RMK AO2 T11561167
14926KSTC STC20190123052511101/23/19 05:25:31  5-MIN KSTC 231125Z AUTO 32003KT 8SM CLR M16/M17 A2994 1000 91 -2500 320/03 RMK AO2 T11561167
14926KSTC STC20190123053010101/23/19 05:30:31  5-MIN KSTC 231130Z AUTO 7SM CLR M16/M17 A2994 1010 96 -2600 M /M RMK AO2 T11611167
14926KSTC STC20190123053510101/23/19 05:35:31  5-MIN KSTC 231135Z AUTO 7SM CLR M16/M17 A2994 1010 91 -2600 M /M RMK AO2 T11611172
14926KSTC STC20190123054011101/23/19 05:40:31  5-MIN KSTC 231140Z AUTO 31006KT 7SM CLR M16/M17 A2994 1010 91 -2600 310/06 RMK AO2 T11611172
14926KSTC STC20190123054511701/23/19 05:45:31  5-MIN KSTC 231145Z AUTO 31006KT 7SM CLR M17/M18 A2994 1010 91 -2700 310/06 RMK AO2 I1000 T11671178
14926KSTC STC20190123055015401/23/19 05:50:31  5-MIN KSTC 231150Z AUTO 32004KT 7SM CLR M16/M17 A2993 1010 91 -2600 320/04 RMK AO2 SLP169 70001 I1000 I6000 T11611172 11100 21167 56007
14926KSTC STC20190123055511101/23/19 05:55:31  5-MIN KSTC 231155Z AUTO 32004KT 7SM CLR M16/M18 A2993 1010 87 -2600 320/04 RMK AO2 T11611178
14926KSTC STC20190123060011101/23/19 06:00:31  5-MIN KSTC 231200Z AUTO 31004KT 7SM CLR M16/M18 A2993 1010 87 -2600 310/04 RMK AO2 T11611178
14926KSTC STC20190123060510101/23/19 06:05:31  5-MIN KSTC 231205Z AUTO 7SM CLR M17/M18 A2993 1020 87 -2600 M /M RMK AO2 T11671183
14926KSTC STC20190123061010101/23/19 06:10:31  5-MIN KSTC 231210Z AUTO 7SM CLR M17/M18 A2993 1020 87 -2600 M /M RMK AO2 T11671183
14926KSTC STC20190123061510401/23/19 06:15:31  5-MIN KSTC 231215Z AUTO 4SM BR CLR M17/M18 A2993 1020 91 -2600 M /M RMK AO2 T11671178
14926KSTC STC20190123062010401/23/19 06:20:31  5-MIN KSTC 231220Z AUTO 4SM BR CLR M17/M18 A2993 1020 91 -2600 M /M RMK AO2 T11671178
14926KSTC STC20190123062510401/23/19 06:25:31  5-MIN KSTC 231225Z AUTO 6SM BR CLR M17/M18 A2993 1020 87 -2600 M /M RMK AO2 T11671183
14926KSTC STC20190123063010101/23/19 06:30:31  5-MIN KSTC 231230Z AUTO 7SM CLR M17/M18 A2992 1020 91 -2700 M /M RMK AO2 T11721183
14926KSTC STC20190123063510101/23/19 06:35:31  5-MIN KSTC 231235Z AUTO 7SM CLR M17/M19 A2992 1020 83 -2700 M /M RMK AO2 T11721194
14926KSTC STC20190123064010401/23/19 06:40:31  5-MIN KSTC 231240Z AUTO 6SM HZ CLR M17/M19 A2992 1020 79 -2600 M /M RMK AO2 T11671194
14926KSTC STC20190123064510401/23/19 06:45:31  5-MIN KSTC 231245Z AUTO 6SM BR CLR M17/M19 A2992 1020 83 -2600 M /M RMK AO2 T11671189
14926KSTC STC20190123065012201/23/19 06:50:31  5-MIN KSTC 231250Z 00000KT 6SM BR CLR M17/M18 A2993 1020 87 -2600 000/00 RMK AO2 SLP167 I1000 T11671183
14926KSTC STC20190123065509901/23/19 06:55:31  5-MIN KSTC 231255Z 6SM BR CLR M17/M18 A2993 1020 91 -2700 M /M RMK AO2 T11721183
14926KSTC STC20190123070009601/23/19 07:00:31  5-MIN KSTC 231300Z 7SM CLR M17/M18 A2993 1020 91 -2700 M /M RMK AO2 T11721183
14926KSTC STC20190123070509601/23/19 07:05:31  5-MIN KSTC 231305Z 7SM CLR M17/M18 A2992 1020 91 -2700 M /M RMK AO2 T11721183
14926KSTC STC20190123071010601/23/19 07:10:31  5-MIN KSTC 231310Z 31004KT 7SM CLR M17/M18 A2993 1020 91 -2700 310/04 RMK AO2 T11721183
14926KSTC STC20190123071510601/23/19 07:15:31  5-MIN KSTC 231315Z 31004KT 7SM CLR M17/M19 A2993 1020 87 -2700 310/04 RMK AO2 T11721189
14926KSTC STC20190123072010601/23/19 07:20:31  5-MIN KSTC 231320Z 31004KT 7SM CLR M17/M19 A2993 1020 87 -2700 310/04 RMK AO2 T11721189
14926KSTC STC20190123072510601/23/19 07:25:31  5-MIN KSTC 231325Z 32004KT 7SM CLR M17/M19 A2992 1020 87 -2700 320/04 RMK AO2 T11721189
14926KSTC STC20190123073010601/23/19 07:30:31  5-MIN KSTC 231330Z 31005KT 7SM CLR M17/M19 A2992 1020 87 -2700 310/05 RMK AO2 T11721189
14926KSTC STC20190123073511201/23/19 07:35:31  5-MIN KSTC 231335Z 31005KT 7SM CLR M18/M19 A2992 1020 91 -2900 310/05 RMK AO2 I1000 T11831194
14926KSTC STC20190123074011501/23/19 07:40:31  5-MIN KSTC 231340Z 31005KT 7SM FEW004 M18/M19 A2992 1030 91 -2900 300/05 RMK AO2 I1000 T11831194
14926KSTC STC20190123074511501/23/19 07:45:31  5-MIN KSTC 231345Z 30005KT 7SM SCT004 M18/M19 A2992 1030 91 -2900 300/05 RMK AO2 I1000 T11831194
14926KSTC STC20190123075010501/23/19 07:50:31  5-MIN KSTC 231350Z 31005KT 7SM BKN004 M18/M19 A2992 1030 87 -2800 310/05 RMK AO2 I1000
14926KSTC STC20190123075511201/23/19 07:55:31  5-MIN KSTC 231355Z 30005KT 6SM BR BKN004 M18/M19 A2991 1030 87 -2800 300/05 RMK AO2 T11781194
14926KSTC STC20190123080011201/23/19 08:00:31  5-MIN KSTC 231400Z 30006KT 6SM BR BKN004 M18/M19 A2992 1030 91 -2900 300/06 RMK AO2 T11831194
14926KSTC STC20190123080511201/23/19 08:05:31  5-MIN KSTC 231405Z 31005KT 5SM BR BKN004 M19/M21 A2992 1030 87 -2900 310/05 RMK AO2 T11891206
14926KSTC STC20190123081011201/23/19 08:10:31  5-MIN KSTC 231410Z 31004KT 4SM BR OVC004 M18/M19 A2992 1030 91 -2900 300/04 RMK AO2 T11831194
14926KSTC STC20190123081511201/23/19 08:15:31  5-MIN KSTC 231415Z 33003KT 4SM BR BKN003 M18/M19 A2992 1030 91 -2800 330/03 RMK AO2 T11781189
14926KSTC STC20190123082011201/23/19 08:20:31  5-MIN KSTC 231420Z 32003KT 4SM BR BKN003 M17/M19 A2991 1030 87 -2700 320/03 RMK AO2 T11721189
14926KSTC STC20190123082511201/23/19 08:25:31  5-MIN KSTC 231425Z 33003KT 5SM BR OVC003 M17/M19 A2991 1030 87 -2700 330/03 RMK AO2 T11721189
14926KSTC STC20190123083011201/23/19 08:30:31  5-MIN KSTC 231430Z 00000KT 5SM BR OVC003 M17/M19 A2991 1030 87 -2700 000/00 RMK AO2 T11721189
14926KSTC STC20190123083511201/23/19 08:35:31  5-MIN KSTC 231435Z 00000KT 4SM BR OVC003 M17/M19 A2991 1030 87 -2700 000/00 RMK AO2 T11721189
14926KSTC STC20190123084011201/23/19 08:40:31  5-MIN KSTC 231440Z 00000KT 4SM BR OVC003 M17/M19 A2991 1030 87 -2700 000/00 RMK AO2 T11721189
14926KSTC STC20190123084511201/23/19 08:45:31  5-MIN KSTC 231445Z 32003KT 5SM BR OVC003 M17/M19 A2991 1040 87 -2700 320/03 RMK AO2 T11721189
14926KSTC STC20190123085013101/23/19 08:50:31  5-MIN KSTC 231450Z 32003KT 5SM BR OVC003 M17/M19 A2991 1040 83 -2600 320/03 RMK AO2 SLP162 I3/// T11671189 58017
14926KSTC STC20190123085511201/23/19 08:55:31  5-MIN KSTC 231455Z 00000KT 5SM BR OVC003 M17/M18 A2991 1040 87 -2600 000/00 RMK AO2 T11671183
14926KSTC STC20190123090011201/23/19 09:00:31  5-MIN KSTC 231500Z 00000KT 5SM BR OVC003 M16/M18 A2991 1040 87 -2500 000/00 RMK AO2 T11611178
14926KSTC STC20190123090511201/23/19 09:05:31  5-MIN KSTC 231505Z 30003KT 5SM BR OVC003 M16/M18 A2991 1040 87 -2500 300/03 RMK AO2 T11611178
14926KSTC STC20190123091011201/23/19 09:10:31  5-MIN KSTC 231510Z 31003KT 5SM BR OVC004 M17/M18 A2991 1040 87 -2600 310/03 RMK AO2 T11671183
14926KSTC STC20190123091511201/23/19 09:15:31  5-MIN KSTC 231515Z 31004KT 5SM BR OVC004 M17/M18 A2990 1040 87 -2600 310/04 RMK AO2 T11671183
14926KSTC STC20190123092011201/23/19 09:20:31  5-MIN KSTC 231520Z 00000KT 5SM BR BKN004 M17/M18 A2990 1050 87 -2600 000/00 RMK AO2 T11671183
14926KSTC STC20190123092511201/23/19 09:25:31  5-MIN KSTC 231525Z 31004KT 5SM BR BKN004 M16/M18 A2990 1050 83 -2500 310/04 RMK AO2 T11611183
14926KSTC STC20190123093011201/23/19 09:30:31  5-MIN KSTC 231530Z 31003KT 6SM BR BKN004 M17/M18 A2990 1050 91 -2600 300/03 RMK AO2 T11671178
14926KSTC STC20190123093511201/23/19 09:35:31  5-MIN KSTC 231535Z 31005KT 6SM BR SCT004 M17/M18 A2990 1040 87 -2600 300/05 RMK AO2 T11671183
14926KSTC STC20190123094011201/23/19 09:40:31  5-MIN KSTC 231540Z 33003KT 6SM BR FEW004 M17/M18 A2990 1040 87 -2600 330/03 RMK AO2 T11671183
14926KSTC STC20190123094511201/23/19 09:45:31  5-MIN KSTC 231545Z 33003KT 6SM BR FEW004 M15/M17 A2991 1040 87 -2400 330/03 RMK AO2 T11501167
14926KSTC STC20190123095011601/23/19 09:50:31  5-MIN KSTC 231550Z 33004KT 5SM BR CLR M15/M17 A2991 1040 87 -2400 330/04 RMK AO2 SLP158 T11501167
14926KSTC STC20190123095510901/23/19 09:55:31  5-MIN KSTC 231555Z 32003KT 5SM BR CLR M15/M17 A2990 1040 87 -2400 320/03 RMK AO2 T11501167
14926KSTC STC20190123100010901/23/19 10:00:31  5-MIN KSTC 231600Z 32005KT 5SM BR CLR M15/M17 A2990 1040 87 -2400 320/05 RMK AO2 T11501167
14926KSTC STC20190123100510901/23/19 10:05:31  5-MIN KSTC 231605Z 34004KT 5SM BR CLR M15/M17 A2990 1050 87 -2400 340/04 RMK AO2 T11501167
14926KSTC STC20190123101010901/23/19 10:10:31  5-MIN KSTC 231610Z 33005KT 5SM BR CLR M14/M16 A2990 1040 87 -2300 330/05 RMK AO2 T11441161
14926KSTC STC20190123101510901/23/19 10:15:31  5-MIN KSTC 231615Z 33004KT 5SM BR CLR M14/M16 A2990 1040 87 -2300 330/04 RMK AO2 T11441161
14926KSTC STC20190123102010901/23/19 10:20:31  5-MIN KSTC 231620Z 32004KT 5SM BR CLR M14/M16 A2990 1050 87 -2300 320/04 RMK AO2 T11441161
14926KSTC STC20190123102510901/23/19 10:25:31  5-MIN KSTC 231625Z 34004KT 6SM BR CLR M14/M16 A2990 1050 87 -2300 330/04 RMK AO2 T11441161
14926KSTC STC20190123103010901/23/19 10:30:31  5-MIN KSTC 231630Z 00000KT 6SM BR CLR M14/M16 A2990 1050 87 -2200 000/00 RMK AO2 T11391156
14926KSTC STC20190123103510901/23/19 10:35:31  5-MIN KSTC 231635Z 00000KT 6SM BR CLR M14/M16 A2990 1050 87 -2200 000/00 RMK AO2 T11391156
14926KSTC STC20190123104010901/23/19 10:40:31  5-MIN KSTC 231640Z 00000KT 6SM BR CLR M13/M16 A2989 1050 83 -2200 000/00 RMK AO2 T11331156
14926KSTC STC20190123104510901/23/19 10:45:31  5-MIN KSTC 231645Z 00000KT 6SM BR CLR M13/M16 A2989 1050 83 -2200 000/00 RMK AO2 T11331156
14926KSTC STC20190123105011601/23/19 10:50:31  5-MIN KSTC 231650Z 00000KT 6SM HZ CLR M13/M16 A2989 1050 80 -2100 000/00 RMK AO2 SLP153 T11281156
14926KSTC STC20190123105510601/23/19 10:55:31  5-MIN KSTC 231655Z 00000KT 7SM CLR M13/M16 A2989 1050 80 -2100 000/00 RMK AO2 T11281156
14926KSTC STC20190123110010601/23/19 11:00:31  5-MIN KSTC 231700Z 00000KT 7SM CLR M13/M15 A2989 1060 87 -2100 000/00 RMK AO2 T11331150
14926KSTC STC20190123110510601/23/19 11:05:31  5-MIN KSTC 231705Z 00000KT 7SM CLR M13/M15 A2988 1060 87 -2100 000/00 RMK AO2 T11331150
14926KSTC STC20190123111010601/23/19 11:10:31  5-MIN KSTC 231710Z 00000KT 7SM CLR M13/M16 A2988 1070 80 -2100 000/00 RMK AO2 T11281156
14926KSTC STC20190123111510601/23/19 11:15:31  5-MIN KSTC 231715Z 00000KT 8SM CLR M13/M15 A2988 1070 84 -2100 000/00 RMK AO2 T11281150
14926KSTC STC20190123112010601/23/19 11:20:31  5-MIN KSTC 231720Z 00000KT 8SM CLR M12/M15 A2987 1070 80 -2000 000/00 RMK AO2 T11221150
14926KSTC STC20190123112510601/23/19 11:25:31  5-MIN KSTC 231725Z 30004KT 8SM CLR M13/M15 A2987 1070 84 -2100 290/04 RMK AO2 T11281150
14926KSTC STC20190123113010601/23/19 11:30:31  5-MIN KSTC 231730Z 00000KT 8SM CLR M13/M16 A2986 1080 80 -2000 000/00 RMK AO2 T11281156
14926KSTC STC20190123113510601/23/19 11:35:31  5-MIN KSTC 231735Z 00000KT 7SM CLR M12/M15 A2986 1080 80 -2000 000/00 RMK AO2 T11221150
14926KSTC STC20190123114010601/23/19 11:40:31  5-MIN KSTC 231740Z 00000KT 7SM CLR M12/M15 A2986 1080 76 -1900 000/00 RMK AO2 T11171150
14926KSTC STC20190123114510601/23/19 11:45:31  5-MIN KSTC 231745Z 00000KT 7SM CLR M12/M15 A2986 1090 76 -1900 000/00 RMK AO2 T11171150
14926KSTC STC20190123115013701/23/19 11:50:31  5-MIN KSTC 231750Z 00000KT 8SM CLR M12/M15 A2985 1090 76 -1900 000/00 RMK AO2 SLP139 I6000 T11171150 11111 21189 58009
14926KSTC STC20190123115510601/23/19 11:55:31  5-MIN KSTC 231755Z 00000KT 8SM CLR M12/M15 A2985 1090 80 -2000 000/00 RMK AO2 T11221150
14926KSTC STC20190123120010601/23/19 12:00:31  5-MIN KSTC 231800Z 00000KT 8SM CLR M11/M14 A2985 1100 77 -1800 000/00 RMK AO2 T11111144
14926KSTC STC20190123120510601/23/19 12:05:31  5-MIN KSTC 231805Z 00000KT 8SM CLR M10/M14 A2985 1090 70 -1700 000/00 RMK AO2 T11001144
14926KSTC STC20190123121010601/23/19 12:10:31  5-MIN KSTC 231810Z 00000KT 8SM CLR M11/M14 A2985 1090 73 -1700 000/00 RMK AO2 T11061144
14926KSTC STC20190123121510601/23/19 12:15:31  5-MIN KSTC 231815Z 00000KT 8SM CLR M11/M15 A2985 1100 70 -1700 000/00 RMK AO2 T11061150
14926KSTC STC20190123122010601/23/19 12:20:31  5-MIN KSTC 231820Z 00000KT 8SM CLR M11/M14 A2984 1100 77 -1800 000/00 RMK AO2 T11111144
14926KSTC STC20190123122510601/23/19 12:25:31  5-MIN KSTC 231825Z 00000KT 9SM CLR M12/M14 A2984 1100 80 -1900 000/00 RMK AO2 T11171144
14926KSTC STC20190123123010601/23/19 12:30:31  5-MIN KSTC 231830Z 00000KT 9SM CLR M12/M14 A2984 1100 80 -1900 000/00 RMK AO2 T11171144
14926KSTC STC20190123123510601/23/19 12:35:31  5-MIN KSTC 231835Z 00000KT 9SM CLR M11/M14 A2984 1100 77 -1800 000/00 RMK AO2 T11111144
14926KSTC STC20190123124010601/23/19 12:40:31  5-MIN KSTC 231840Z 00000KT 9SM CLR M11/M14 A2984 1100 77 -1800 000/00 RMK AO2 T11111144
14926KSTC STC20190123124510901/23/19 12:45:31  5-MIN KSTC 231845Z 00000KT 9SM FEW110 M11/M14 A2983 1110 73 -1700 000/00 RMK AO2 T11061144
14926KSTC STC20190123125011601/23/19 12:50:31  5-MIN KSTC 231850Z 00000KT 9SM SCT110 M11/M14 A2983 1110 73 -1700 000/00 RMK AO2 SLP130 T11061144
14926KSTC STC20190123125510901/23/19 12:55:31  5-MIN KSTC 231855Z 00000KT 9SM BKN110 M11/M14 A2983 1110 77 -1700 000/00 RMK AO2 T11061139
14926KSTC STC20190123130010901/23/19 13:00:31  5-MIN KSTC 231900Z 00000KT 8SM BKN110 M10/M14 A2983 1110 73 -1600 000/00 RMK AO2 T11001139
14926KSTC STC20190123130510901/23/19 13:05:31  5-MIN KSTC 231905Z 00000KT 9SM BKN110 M10/M14 A2983 1110 73 -1600 000/00 RMK AO2 T11001139
14926KSTC STC20190123131010901/23/19 13:10:31  5-MIN KSTC 231910Z 00000KT 9SM OVC110 M09/M14 A2983 1110 70 -1600 000/00 RMK AO2 T10941139
14926KSTC STC20190123131510901/23/19 13:15:31  5-MIN KSTC 231915Z 00000KT 9SM OVC110 M09/M14 A2982 1120 70 -1600 000/00 RMK AO2 T10941139
14926KSTC STC20190123132010901/23/19 13:20:31  5-MIN KSTC 231920Z 00000KT 9SM OVC110 M09/M14 A2982 1120 70 -1600 000/00 RMK AO2 T10941139
14926KSTC STC20190123132510901/23/19 13:25:31  5-MIN KSTC 231925Z 00000KT 9SM OVC110 M09/M13 A2982 1120 73 -1600 000/00 RMK AO2 T10941133
14926KSTC STC20190123133010901/23/19 13:30:31  5-MIN KSTC 231930Z 15003KT 9SM OVC110 M09/M13 A2982 1120 70 -1500 150/03 RMK AO2 T10891133
14926KSTC STC20190123133511001/23/19 13:35:31  5-MIN KSTC 231935Z 15003KT 10SM OVC110 M09/M13 A2982 1120 73 -1600 140/03 RMK AO2 T10941133
14926KSTC STC20190123134011001/23/19 13:40:31  5-MIN KSTC 231940Z 16003KT 10SM OVC110 M09/M13 A2981 1130 73 -1600 160/03 RMK AO2 T10941133
14926KSTC STC20190123134511001/23/19 13:45:31  5-MIN KSTC 231945Z 19003KT 10SM OVC110 M09/M13 A2981 1130 73 -1500 190/03 RMK AO2 T10941133
14926KSTC STC20190123135011701/23/19 13:50:31  5-MIN KSTC 231950Z 18003KT 10SM OVC110 M09/M13 A2981 1130 73 -1500 180/03 RMK AO2 SLP124 T10941133
14926KSTC STC20190123135511001/23/19 13:55:31  5-MIN KSTC 231955Z 18004KT 10SM OVC110 M09/M13 A2981 1130 73 -1500 180/04 RMK AO2 T10941133
14926KSTC STC20190123140011001/23/19 14:00:31  5-MIN KSTC 232000Z 17003KT 10SM OVC110 M09/M13 A2981 1130 70 -1500 170/03 RMK AO2 T10891133
14926KSTC STC20190123140511001/23/19 14:05:31  5-MIN KSTC 232005Z 18003KT 10SM OVC110 M09/M13 A2981 1130 70 -1500 180/03 RMK AO2 T10891133
14926KSTC STC20190123141011001/23/19 14:10:31  5-MIN KSTC 232010Z 18003KT 10SM OVC110 M09/M13 A2981 1130 70 -1500 180/03 RMK AO2 T10891133
14926KSTC STC20190123141511001/23/19 14:15:31  5-MIN KSTC 232015Z 18004KT 10SM OVC100 M09/M13 A2980 1130 70 -1500 180/04 RMK AO2 T10891133
14926KSTC STC20190123142011001/23/19 14:20:31  5-MIN KSTC 232020Z 15003KT 10SM OVC100 M09/M13 A2980 1140 70 -1500 150/03 RMK AO2 T10891133
14926KSTC STC20190123142511001/23/19 14:25:31  5-MIN KSTC 232025Z 18003KT 10SM BKN100 M09/M13 A2980 1140 70 -1500 170/03 RMK AO2 T10891133
14926KSTC STC20190123143011001/23/19 14:30:31  5-MIN KSTC 232030Z 17003KT 10SM BKN100 M09/M13 A2980 1140 74 -1500 170/03 RMK AO2 T10891128
14926KSTC STC20190123143511001/23/19 14:35:31  5-MIN KSTC 232035Z 15003KT 10SM BKN100 M09/M13 A2979 1140 70 -1500 150/03 RMK AO2 T10891133
14926KSTC STC20190123144011001/23/19 14:40:31  5-MIN KSTC 232040Z 14004KT 10SM BKN100 M09/M13 A2979 1150 74 -1500 140/04 RMK AO2 T10891128
14926KSTC STC20190123144511001/23/19 14:45:31  5-MIN KSTC 232045Z 14003KT 10SM BKN100 M09/M13 A2979 1150 70 -1500 140/03 RMK AO2 T10891133
14926KSTC STC20190123145012301/23/19 14:50:31  5-MIN KSTC 232050Z 00000KT 10SM BKN095 M08/M13 A2979 1150 70 -1400 000/00 RMK AO2 SLP117 T10831128 58018
14926KSTC STC20190123145511001/23/19 14:55:31  5-MIN KSTC 232055Z 16003KT 10SM BKN095 M08/M13 A2979 1150 70 -1400 160/03 RMK AO2 T10831128
14926KSTC STC20190123150011001/23/19 15:00:31  5-MIN KSTC 232100Z 14004KT 10SM SCT090 M08/M13 A2979 1150 70 -1400 140/04 RMK AO2 T10831128
14926KSTC STC20190123150511001/23/19 15:05:31  5-MIN KSTC 232105Z 13005KT 10SM SCT090 M08/M13 A2979 1150 70 -1400 130/05 RMK AO2 T10831128
14926KSTC STC20190123151011701/23/19 15:10:31  5-MIN KSTC 232110Z 13005KT 10SM SCT090 SCT120 M08/M13 A2979 1150 67 -1400 130/05 RMK AO2 T10831133
14926KSTC STC20190123151511701/23/19 15:15:31  5-MIN KSTC 232115Z 15004KT 10SM FEW090 SCT120 M08/M13 A2979 1150 70 -1400 140/04 RMK AO2 T10831128
14926KSTC STC20190123152011701/23/19 15:20:31  5-MIN KSTC 232120Z 17003KT 10SM FEW090 FEW120 M08/M13 A2979 1140 70 -1400 170/03 RMK AO2 T10831128
14926KSTC STC20190123152511001/23/19 15:25:31  5-MIN KSTC 232125Z 19005KT 10SM FEW120 M08/M13 A2979 1150 70 -1400 180/05 RMK AO2 T10831128
14926KSTC STC20190123153011001/23/19 15:30:31  5-MIN KSTC 232130Z 16004KT 10SM FEW120 M08/M13 A2979 1150 70 -1400 160/04 RMK AO2 T10831128
14926KSTC STC20190123153511001/23/19 15:35:31  5-MIN KSTC 232135Z 15004KT 10SM FEW120 M08/M13 A2979 1150 70 -1400 150/04 RMK AO2 T10831128
14926KSTC STC20190123154011001/23/19 15:40:31  5-MIN KSTC 232140Z 16005KT 10SM FEW120 M08/M13 A2979 1150 70 -1400 160/05 RMK AO2 T10831128
14926KSTC STC20190123154510701/23/19 15:45:31  5-MIN KSTC 232145Z VRB04KT 10SM CLR M08/M13 A2979 1150 70 -1400 VRB/04 RMK AO2 T10831128
14926KSTC STC20190123155011401/23/19 15:50:31  5-MIN KSTC 232150Z 19006KT 10SM CLR M08/M13 A2979 1150 64 -1300 190/06 RMK AO2 SLP118 T10781133
14926KSTC STC20190123155510701/23/19 15:55:31  5-MIN KSTC 232155Z 18006KT 10SM CLR M08/M14 A2979 1150 64 -1400 180/06 RMK AO2 T10831139
14926KSTC STC20190123160010701/23/19 16:00:31  5-MIN KSTC 232200Z 19005KT 10SM CLR M08/M13 A2979 1150 67 -1400 190/05 RMK AO2 T10831133
14926KSTC STC20190123160511701/23/19 16:05:31  5-MIN KSTC 232205Z 19005KT 10SM FEW080 FEW120 M08/M14 A2979 1150 64 -1400 190/05 RMK AO2 T10831139
14926KSTC STC20190123161011701/23/19 16:10:31  5-MIN KSTC 232210Z 18005KT 10SM SCT080 SCT120 M08/M13 A2979 1150 67 -1400 180/05 RMK AO2 T10831133
14926KSTC STC20190123161511701/23/19 16:15:31  5-MIN KSTC 232215Z 18004KT 10SM SCT080 BKN120 M08/M14 A2978 1150 64 -1400 170/04 RMK AO2 T10831139
14926KSTC STC20190123162011701/23/19 16:20:31  5-MIN KSTC 232220Z 16004KT 10SM SCT080 SCT120 M08/M14 A2978 1150 64 -1400 160/04 RMK AO2 T10831139
14926KSTC STC20190123162511701/23/19 16:25:31  5-MIN KSTC 232225Z 18004KT 10SM BKN075 BKN120 M08/M14 A2978 1150 64 -1400 180/04 RMK AO2 T10831139
14926KSTC STC20190123163011701/23/19 16:30:31  5-MIN KSTC 232230Z 19003KT 10SM BKN075 BKN120 M08/M14 A2978 1160 64 -1400 190/03 RMK AO2 T10831139
14926KSTC STC20190123163511001/23/19 16:35:31  5-MIN KSTC 232235Z 18004KT 10SM BKN075 M08/M14 A2978 1160 64 -1400 180/04 RMK AO2 T10831139
14926KSTC STC20190123164011001/23/19 16:40:31  5-MIN KSTC 232240Z 14005KT 10SM SCT075 M09/M14 A2977 1160 67 -1500 140/05 RMK AO2 T10941144
14926KSTC STC20190123164511001/23/19 16:45:31  5-MIN KSTC 232245Z 14004KT 10SM FEW075 M09/M14 A2977 1170 67 -1500 140/04 RMK AO2 T10941144
14926KSTC STC20190123165011701/23/19 16:50:31  5-MIN KSTC 232250Z 11003KT 10SM FEW075 M09/M14 A2977 1160 67 -1500 110/03 RMK AO2 SLP112 T10941144
14926KSTC STC20190123165511701/23/19 16:55:31  5-MIN KSTC 232255Z 10003KT 10SM FEW021 FEW070 M08/M14 A2977 1160 64 -1400 100/03 RMK AO2 T10831139
14926KSTC STC20190123170011001/23/19 17:00:31  5-MIN KSTC 232300Z 11003KT 10SM SCT021 M08/M14 A2977 1170 64 -1400 110/03 RMK AO2 T10831139
14926KSTC STC20190123170511001/23/19 17:05:31  5-MIN KSTC 232305Z 12004KT 10SM BKN021 M09/M14 A2977 1170 67 -1400 120/04 RMK AO2 T10891139
14926KSTC STC20190123171011001/23/19 17:10:31  5-MIN KSTC 232310Z 12003KT 10SM BKN023 M09/M14 A2977 1170 67 -1400 120/03 RMK AO2 T10891139
14926KSTC STC20190123171511001/23/19 17:15:31  5-MIN KSTC 232315Z 13004KT 10SM BKN023 M08/M14 A2977 1170 64 -1400 120/04 RMK AO2 T10831139
14926KSTC STC20190123172011001/23/19 17:20:31  5-MIN KSTC 232320Z 12003KT 10SM OVC023 M09/M13 A2977 1170 70 -1400 120/03 RMK AO2 T10891133
14926KSTC STC20190123172511001/23/19 17:25:31  5-MIN KSTC 232325Z 12003KT 10SM OVC023 M09/M13 A2977 1170 70 -1400 120/03 RMK AO2 T10891133
14926KSTC STC20190123173011001/23/19 17:30:31  5-MIN KSTC 232330Z 13004KT 10SM OVC023 M08/M13 A2977 1170 67 -1400 130/04 RMK AO2 T10831133
14926KSTC STC20190123173511001/23/19 17:35:31  5-MIN KSTC 232335Z 13004KT 10SM OVC021 M08/M13 A2977 1170 67 -1400 130/04 RMK AO2 T10831133
14926KSTC STC20190123174011001/23/19 17:40:31  5-MIN KSTC 232340Z 13003KT 10SM OVC021 M08/M13 A2977 1170 67 -1300 130/03 RMK AO2 T10831133
14926KSTC STC20190123174511001/23/19 17:45:31  5-MIN KSTC 232345Z 13003KT 10SM OVC021 M09/M13 A2976 1170 74 -1400 130/03 RMK AO2 T10891128
14926KSTC STC20190123175013501/23/19 17:50:31  5-MIN KSTC 232350Z 13004KT 10SM OVC019 M08/M13 A2976 1170 70 -1300 130/04 RMK AO2 SLP109 T10831128 11078 21122 56020
14926KSTC STC20190123175511001/23/19 17:55:31  5-MIN KSTC 232355Z 14005KT 10SM OVC019 M08/M13 A2976 1170 70 -1300 140/05 RMK AO2 T10831128
14926KSTC STC20190123180011001/23/19 18:00:31  5-MIN KSTC 240000Z 15005KT 10SM OVC019 M08/M13 A2976 1170 70 -1300 150/05 RMK AO2 T10831128
14926KSTC STC20190123180511001/23/19 18:05:31  5-MIN KSTC 240005Z 15006KT 10SM OVC019 M08/M13 A2976 1170 70 -1300 150/06 RMK AO2 T10831128
14926KSTC STC20190123181011001/23/19 18:10:31  5-MIN KSTC 240010Z 15005KT 10SM OVC019 M08/M12 A2976 1170 74 -1300 150/05 RMK AO2 T10831122
14926KSTC STC20190123181511001/23/19 18:15:31  5-MIN KSTC 240015Z 16005KT 10SM OVC019 M08/M12 A2977 1170 74 -1400 160/05 RMK AO2 T10831122
14926KSTC STC20190123182011001/23/19 18:20:31  5-MIN KSTC 240020Z 17005KT 10SM OVC019 M08/M12 A2977 1170 71 -1300 170/05 RMK AO2 T10781122
14926KSTC STC20190123182511001/23/19 18:25:31  5-MIN KSTC 240025Z 19005KT 10SM OVC019 M08/M12 A2977 1170 71 -1300 180/05 RMK AO2 T10781122
14926KSTC STC20190123183011001/23/19 18:30:31  5-MIN KSTC 240030Z 20007KT 10SM OVC019 M08/M12 A2977 1160 71 -1300 200/07 RMK AO2 T10781122
14926KSTC STC20190123183511001/23/19 18:35:31  5-MIN KSTC 240035Z 19007KT 10SM OVC019 M08/M12 A2977 1170 74 -1300 190/07 RMK AO2 T10781117
14926KSTC STC20190123184011001/23/19 18:40:31  5-MIN KSTC 240040Z 20008KT 10SM OVC019 M08/M12 A2977 1170 74 -1300 200/08 RMK AO2 T10781117
14926KSTC STC20190123184511001/23/19 18:45:31  5-MIN KSTC 240045Z 20007KT 10SM OVC020 M08/M12 A2977 1170 74 -1300 200/07 RMK AO2 T10781117
14926KSTC STC20190123185011701/23/19 18:50:31  5-MIN KSTC 240050Z 20007KT 10SM OVC020 M08/M12 A2977 1170 74 -1300 200/07 RMK AO2 SLP112 T10781117
14926KSTC STC20190123185511001/23/19 18:55:31  5-MIN KSTC 240055Z 20006KT 10SM OVC020 M08/M12 A2977 1170 74 -1300 200/06 RMK AO2 T10781117
14926KSTC STC20190123190011001/23/19 19:00:31  5-MIN KSTC 240100Z VRB05KT 10SM OVC020 M08/M12 A2977 1170 74 -1300 VRB/05 RMK AO2 T10781117
14926KSTC STC20190123190511001/23/19 19:05:31  5-MIN KSTC 240105Z 22005KT 10SM OVC020 M08/M12 A2977 1170 71 -1300 220/05 RMK AO2 T10781122
14926KSTC STC20190123191011001/23/19 19:10:31  5-MIN KSTC 240110Z 22006KT 10SM OVC020 M08/M12 A2977 1170 74 -1300 220/06 RMK AO2 T10781117
14926KSTC STC20190123191511001/23/19 19:15:31  5-MIN KSTC 240115Z 22005KT 10SM OVC019 M08/M12 A2977 1170 74 -1300 220/05 RMK AO2 T10781117
14926KSTC STC20190123192011001/23/19 19:20:31  5-MIN KSTC 240120Z 22005KT 10SM OVC019 M08/M12 A2977 1170 74 -1300 220/05 RMK AO2 T10781117
14926KSTC STC20190123192511001/23/19 19:25:31  5-MIN KSTC 240125Z 22004KT 10SM OVC019 M08/M12 A2977 1170 74 -1300 220/04 RMK AO2 T10781117
14926KSTC STC20190123193011001/23/19 19:30:31  5-MIN KSTC 240130Z 22004KT 10SM OVC019 M08/M12 A2976 1170 74 -1300 220/04 RMK AO2 T10781117
14926KSTC STC20190123193511001/23/19 19:35:31  5-MIN KSTC 240135Z 22003KT 10SM OVC019 M08/M12 A2976 1170 74 -1300 220/03 RMK AO2 T10781117
14926KSTC STC20190123194011001/23/19 19:40:31  5-MIN KSTC 240140Z 22004KT 10SM OVC019 M08/M12 A2976 1170 74 -1300 220/04 RMK AO2 T10781117
14926KSTC STC20190123194511001/23/19 19:45:31  5-MIN KSTC 240145Z 21005KT 10SM OVC019 M08/M12 A2976 1180 74 -1300 210/05 RMK AO2 T10781117
14926KSTC STC20190123195011701/23/19 19:50:31  5-MIN KSTC 240150Z 22004KT 10SM OVC018 M08/M12 A2976 1180 74 -1300 220/04 RMK AO2 SLP109 T10781117
14926KSTC STC20190123195510001/23/19 19:55:31  5-MIN KSTC 240155Z 10SM OVC018 M08/M12 A2976 1180 74 -1300 M /M RMK AO2 T10781117
14926KSTC STC20190123200010001/23/19 20:00:31  5-MIN KSTC 240200Z 10SM OVC016 M08/M12 A2976 1180 74 -1300 M /M RMK AO2 T10781117
14926KSTC STC20190123200510001/23/19 20:05:31  5-MIN KSTC 240205Z 10SM OVC016 M08/M12 A2976 1170 74 -1300 M /M RMK AO2 T10781117
14926KSTC STC20190123201010001/23/19 20:10:31  5-MIN KSTC 240210Z 10SM OVC016 M08/M12 A2976 1170 74 -1300 M /M RMK AO2 T10781117
14926KSTC STC20190123201511001/23/19 20:15:31  5-MIN KSTC 240215Z 23003KT 10SM OVC016 M08/M12 A2976 1170 74 -1300 230/03 RMK AO2 T10781117
14926KSTC STC20190123202011001/23/19 20:20:31  5-MIN KSTC 240220Z 00000KT 10SM OVC016 M08/M12 A2976 1170 74 -1300 000/00 RMK AO2 T10781117
14926KSTC STC20190123202511001/23/19 20:25:31  5-MIN KSTC 240225Z 00000KT 10SM OVC016 M08/M12 A2976 1180 74 -1300 000/00 RMK AO2 T10781117
14926KSTC STC20190123203011001/23/19 20:30:31  5-MIN KSTC 240230Z 00000KT 10SM OVC015 M08/M11 A2976 1180 77 -1300 000/00 RMK AO2 T10781111
14926KSTC STC20190123203510001/23/19 20:35:31  5-MIN KSTC 240235Z 10SM OVC015 M08/M12 A2976 1180 74 -1300 M /M RMK AO2 T10781117
14926KSTC STC20190123204010001/23/19 20:40:31  5-MIN KSTC 240240Z 10SM OVC015 M08/M12 A2976 1180 74 -1300 M /M RMK AO2 T10781117
14926KSTC STC20190123204510001/23/19 20:45:31  5-MIN KSTC 240245Z 10SM OVC015 M08/M11 A2976 1180 77 -1300 M /M RMK AO2 T10781111
14926KSTC STC20190123205012301/23/19 20:50:31  5-MIN KSTC 240250Z 20003KT 10SM OVC015 M08/M11 A2976 1180 77 -1300 200/03 RMK AO2 SLP108 T10781111 58008
14926KSTC STC20190123205510001/23/19 20:55:31  5-MIN KSTC 240255Z 10SM OVC015 M08/M11 A2976 1180 77 -1300 M /M RMK AO2 T10781111
14926KSTC STC20190123210010001/23/19 21:00:31  5-MIN KSTC 240300Z 10SM OVC015 M08/M11 A2976 1170 77 -1300 M /M RMK AO2 T10781111
14926KSTC STC20190123210510001/23/19 21:05:31  5-MIN KSTC 240305Z 10SM OVC016 M08/M11 A2976 1170 80 -1300 M /M RMK AO2 T10831111
14926KSTC STC20190123211010001/23/19 21:10:31  5-MIN KSTC 240310Z 10SM OVC016 M08/M11 A2976 1170 77 -1300 M /M RMK AO2 T10781111
14926KSTC STC20190123211510001/23/19 21:15:31  5-MIN KSTC 240315Z 10SM OVC016 M08/M11 A2976 1170 77 -1300 M /M RMK AO2 T10781111
14926KSTC STC20190123212010001/23/19 21:20:31  5-MIN KSTC 240320Z 10SM OVC016 M08/M11 A2976 1170 80 -1300 M /M RMK AO2 T10831111
14926KSTC STC20190123212510001/23/19 21:25:31  5-MIN KSTC 240325Z 10SM OVC016 M08/M11 A2976 1180 80 -1300 M /M RMK AO2 T10831111
14926KSTC STC20190123213011001/23/19 21:30:31  5-MIN KSTC 240330Z 18003KT 10SM OVC016 M08/M11 A2975 1180 80 -1300 180/03 RMK AO2 T10831111
14926KSTC STC20190123213511001/23/19 21:35:31  5-MIN KSTC 240335Z 18003KT 10SM OVC016 M08/M11 A2975 1180 80 -1300 180/03 RMK AO2 T10831111
14926KSTC STC20190124184011101/24/19 18:40:31  5-MIN KSTC 250040Z AUTO 31014KT 10SM CLR M22/M28 A3020 770 58 -3600 310/14 RMK AO2 T12171278
14926KSTC STC20190124184511701/24/19 18:45:31  5-MIN KSTC 250045Z AUTO 30016G21KT 10SM CLR M22/M28 A3020 770 58 -3600 300/16G21 RMK AO2 T12171278
14926KSTC STC20190124185011801/24/19 18:50:31  5-MIN KSTC 250050Z AUTO 31014KT 10SM CLR M22/M28 A3020 770 61 -3700 310/14 RMK AO2 SLP266 T12221278
14926KSTC STC20190124185511201/24/19 18:55:31  5-MIN KSTC 250055Z 30014G22KT 10SM CLR M22/M28 A3020 770 61 -3700 300/14G22 RMK AO2 T12221278
14926KSTC STC20190124190010601/24/19 19:00:31  5-MIN KSTC 250100Z 31012KT 10SM CLR M22/M28 A3020 770 61 -3700 310/12 RMK AO2 T12221278
14926KSTC STC20190124190510601/24/19 19:05:31  5-MIN KSTC 250105Z 31015KT 10SM CLR M22/M28 A3020 770 61 -3700 310/15 RMK AO2 T12221278
14926KSTC STC20190124191010601/24/19 19:10:31  5-MIN KSTC 250110Z 30014KT 10SM CLR M22/M28 A3020 770 61 -3700 300/14 RMK AO2 T12221278
14926KSTC STC20190124191510601/24/19 19:15:31  5-MIN KSTC 250115Z 31015KT 10SM CLR M22/M28 A3020 770 61 -3700 310/15 RMK AO2 T12221278
14926KSTC STC20190124192010601/24/19 19:20:31  5-MIN KSTC 250120Z 30014KT 10SM CLR M22/M28 A3020 770 58 -3700 300/14 RMK AO2 T12221283
14926KSTC STC20190124192510601/24/19 19:25:31  5-MIN KSTC 250125Z 30010KT 10SM CLR M23/M28 A3020 770 64 -3800 300/10 RMK AO2 T12281278
14926KSTC STC20190124193010601/24/19 19:30:31  5-MIN KSTC 250130Z 30014KT 10SM CLR M23/M28 A3020 760 64 -3800 300/14 RMK AO2 T12281278
14926KSTC STC20190124193511201/24/19 19:35:31  5-MIN KSTC 250135Z 31015G23KT 10SM CLR M22/M28 A3020 770 58 -3700 310/15G23 RMK AO2 T12221283
14926KSTC STC20190124194011201/24/19 19:40:31  5-MIN KSTC 250140Z 30014G23KT 10SM CLR M23/M28 A3020 770 64 -3800 300/14G23 RMK AO2 T12281278
14926KSTC STC20190124194510601/24/19 19:45:31  5-MIN KSTC 250145Z 31013KT 10SM CLR M23/M28 A3020 770 64 -3800 310/13 RMK AO2 T12281278
14926KSTC STC20190124195011301/24/19 19:50:31  5-MIN KSTC 250150Z 31012KT 10SM CLR M23/M28 A3020 770 64 -3800 310/12 RMK AO2 SLP267 T12281278
14926KSTC STC20190124195510601/24/19 19:55:31  5-MIN KSTC 250155Z 30013KT 10SM CLR M23/M28 A3020 770 64 -3800 300/13 RMK AO2 T12281278
14926KSTC STC20190124200010601/24/19 20:00:31  5-MIN KSTC 250200Z 31012KT 10SM CLR M23/M28 A3020 770 61 -3800 310/12 RMK AO2 T12281283
14926KSTC STC20190124200510601/24/19 20:05:31  5-MIN KSTC 250205Z 30013KT 10SM CLR M23/M28 A3020 770 61 -3800 300/13 RMK AO2 T12281283
14926KSTC STC20190124201010601/24/19 20:10:31  5-MIN KSTC 250210Z 31012KT 10SM CLR M23/M28 A3020 770 61 -3800 310/12 RMK AO2 T12281283
14926KSTC STC20190124201510601/24/19 20:15:31  5-MIN KSTC 250215Z 30012KT 10SM CLR M23/M28 A3020 770 61 -3800 300/12 RMK AO2 T12281283
14926KSTC STC20190124202010601/24/19 20:20:31  5-MIN KSTC 250220Z 30012KT 10SM CLR M23/M28 A3020 770 61 -3800 300/12 RMK AO2 T12281283
14926KSTC STC20190124202510601/24/19 20:25:31  5-MIN KSTC 250225Z 31012KT 10SM CLR M23/M28 A3020 770 64 -3900 310/12 RMK AO2 T12331283
14926KSTC STC20190124203010601/24/19 20:30:31  5-MIN KSTC 250230Z 30013KT 10SM CLR M23/M28 A3020 770 64 -3900 300/13 RMK AO2 T12331283
14926KSTC STC20190124203510601/24/19 20:35:31  5-MIN KSTC 250235Z 30012KT 10SM CLR M23/M28 A3020 770 64 -3900 300/12 RMK AO2 T12331283
14926KSTC STC20190124204010601/24/19 20:40:31  5-MIN KSTC 250240Z 31010KT 10SM CLR M23/M28 A3020 770 64 -3900 310/10 RMK AO2 T12331283
14926KSTC STC20190124204510601/24/19 20:45:31  5-MIN KSTC 250245Z 30010KT 10SM CLR M23/M28 A3020 770 64 -3900 300/10 RMK AO2 T12331283
14926KSTC STC20190124205011901/24/19 20:50:31  5-MIN KSTC 250250Z 30008KT 10SM CLR M23/M28 A3019 770 64 -3900 300/08 RMK AO2 SLP266 T12331283 51019
14926KSTC STC20190124205510601/24/19 20:55:31  5-MIN KSTC 250255Z 30009KT 10SM CLR M23/M28 A3019 780 64 -3900 300/09 RMK AO2 T12331283
14926KSTC STC20190124210010601/24/19 21:00:31  5-MIN KSTC 250300Z 30010KT 10SM CLR M23/M28 A3019 780 64 -3900 300/10 RMK AO2 T12331283
14926KSTC STC20190124210510601/24/19 21:05:31  5-MIN KSTC 250305Z 30008KT 10SM CLR M23/M28 A3019 780 64 -3900 300/08 RMK AO2 T12331283
14926KSTC STC20190124211010601/24/19 21:10:31  5-MIN KSTC 250310Z 29009KT 10SM CLR M23/M28 A3019 780 64 -3900 290/09 RMK AO2 T12331283
14926KSTC STC20190124211510601/24/19 21:15:31  5-MIN KSTC 250315Z 29009KT 10SM CLR M23/M28 A3019 780 64 -3900 290/09 RMK AO2 T12331283
14926KSTC STC20190124212010601/24/19 21:20:31  5-MIN KSTC 250320Z 29009KT 10SM CLR M23/M28 A3019 780 64 -3900 290/09 RMK AO2 T12331283
14926KSTC STC20190124212510601/24/19 21:25:31  5-MIN KSTC 250325Z 29011KT 10SM CLR M23/M28 A3019 780 64 -3900 290/11 RMK AO2 T12331283
14926KSTC STC20190124213010601/24/19 21:30:31  5-MIN KSTC 250330Z 29010KT 10SM CLR M23/M28 A3019 780 64 -3900 290/10 RMK AO2 T12331283
14926KSTC STC20190124213510601/24/19 21:35:31  5-MIN KSTC 250335Z 29010KT 10SM CLR M23/M28 A3019 780 64 -3900 290/10 RMK AO2 T12331283
14926KSTC STC20190124214010601/24/19 21:40:31  5-MIN KSTC 250340Z 30009KT 10SM CLR M23/M28 A3019 780 64 -3900 300/09 RMK AO2 T12331283
14926KSTC STC20190124214510601/24/19 21:45:31  5-MIN KSTC 250345Z 29009KT 10SM CLR M24/M28 A3019 780 67 -3900 290/09 RMK AO2 T12391283
14926KSTC STC20190124215011301/24/19 21:50:31  5-MIN KSTC 250350Z 29009KT 10SM CLR M24/M28 A3019 780 67 -3900 290/09 RMK AO2 SLP263 T12391283
14926KSTC STC20190124215510601/24/19 21:55:31  5-MIN KSTC 250355Z 29009KT 10SM CLR M24/M28 A3019 780 67 -3900 290/09 RMK AO2 T12391283
14926KSTC STC20190124220010601/24/19 22:00:31  5-MIN KSTC 250400Z 29007KT 10SM CLR M24/M28 A3019 780 67 -3900 290/07 RMK AO2 T12391283
14926KSTC STC20190124220510601/24/19 22:05:31  5-MIN KSTC 250405Z 30006KT 10SM CLR M24/M28 A3019 780 67 -3900 290/06 RMK AO2 T12391283
14926KSTC STC20190124221010601/24/19 22:10:31  5-MIN KSTC 250410Z 29007KT 10SM CLR M24/M28 A3019 780 67 -3900 290/07 RMK AO2 T12391283
14926KSTC STC20190124221510601/24/19 22:15:31  5-MIN KSTC 250415Z 28006KT 10SM CLR M24/M28 A3019 780 67 -3900 280/06 RMK AO2 T12391283
14926KSTC STC20190124222010601/24/19 22:20:31  5-MIN KSTC 250420Z 28006KT 10SM CLR M24/M28 A3018 780 67 -3900 280/06 RMK AO2 T12391283
14926KSTC STC20190124222510601/24/19 22:25:31  5-MIN KSTC 250425Z 27005KT 10SM CLR M24/M28 A3018 780 67 -3900 270/05 RMK AO2 T12391283
14926KSTC STC20190124223010601/24/19 22:30:31  5-MIN KSTC 250430Z 27005KT 10SM CLR M24/M28 A3018 780 67 -3900 270/05 RMK AO2 T12391283
14926KSTC STC20190124223510601/24/19 22:35:31  5-MIN KSTC 250435Z 25004KT 10SM CLR M24/M28 A3018 790 71 -4000 250/04 RMK AO2 T12441283
14926KSTC STC20190124224010601/24/19 22:40:31  5-MIN KSTC 250440Z 27005KT 10SM CLR M24/M28 A3018 780 71 -4000 270/05 RMK AO2 T12441283
14926KSTC STC20190124224510601/24/19 22:45:31  5-MIN KSTC 250445Z 27006KT 10SM CLR M24/M28 A3018 780 71 -4000 270/06 RMK AO2 T12441283
14926KSTC STC20190124225011301/24/19 22:50:31  5-MIN KSTC 250450Z 26005KT 10SM CLR M24/M28 A3018 790 71 -3900 260/05 RMK AO2 SLP261 T12391278
14926KSTC STC20190124225510601/24/19 22:55:31  5-MIN KSTC 250455Z 26005KT 10SM CLR M24/M28 A3018 790 74 -4000 260/05 RMK AO2 T12441278
14926KSTC STC20190124230011101/24/19 23:00:31  5-MIN KSTC 250500Z AUTO 26005KT 10SM CLR M24/M28 A3018 790 71 -4000 260/05 RMK AO2 T12441283
14926KSTC STC20190124230511101/24/19 23:05:31  5-MIN KSTC 250505Z AUTO 25005KT 10SM CLR M24/M28 A3018 790 71 -4000 250/05 RMK AO2 T12441283
14926KSTC STC20190124231011101/24/19 23:10:31  5-MIN KSTC 250510Z AUTO 25004KT 10SM CLR M24/M28 A3017 790 71 -4000 250/04 RMK AO2 T12441283
14926KSTC STC20190124231511101/24/19 23:15:31  5-MIN KSTC 250515Z AUTO 23005KT 10SM CLR M24/M28 A3018 790 71 -4000 230/05 RMK AO2 T12441283
14926KSTC STC20190124232011101/24/19 23:20:31  5-MIN KSTC 250520Z AUTO 23005KT 10SM CLR M24/M28 A3018 790 74 -4000 230/05 RMK AO2 T12441278
14926KSTC STC20190124232511101/24/19 23:25:31  5-MIN KSTC 250525Z AUTO 24006KT 10SM CLR M24/M28 A3018 790 74 -4000 240/06 RMK AO2 T12441278
14926KSTC STC20190124233011101/24/19 23:30:31  5-MIN KSTC 250530Z AUTO 25005KT 10SM CLR M24/M28 A3018 790 71 -4000 250/05 RMK AO2 T12441283
14926KSTC STC20190124233511101/24/19 23:35:31  5-MIN KSTC 250535Z AUTO 24005KT 10SM CLR M25/M28 A3018 790 74 -4100 240/05 RMK AO2 T12501283
14926KSTC STC20190124234011101/24/19 23:40:31  5-MIN KSTC 250540Z AUTO 25005KT 10SM CLR M25/M28 A3018 790 74 -4100 250/05 RMK AO2 T12501283
14926KSTC STC20190124234511101/24/19 23:45:31  5-MIN KSTC 250545Z AUTO 24005KT 10SM CLR M25/M28 A3018 790 74 -4100 240/05 RMK AO2 T12501283
14926KSTC STC20190124235014601/24/19 23:50:31  5-MIN KSTC 250550Z AUTO 24006KT 10SM CLR M25/M28 A3018 790 74 -4100 240/06 RMK AO2 SLP261 T12501283 11211 21250 410781250 50004
14926KSTC STC20190124235511101/24/19 23:55:31  5-MIN KSTC 250555Z AUTO 25005KT 10SM CLR M25/M28 A3017 790 74 -4100 250/05 RMK AO2 T12501283
14926KSTC STC20190125000011101/25/19 00:00:31  5-MIN KSTC 250600Z AUTO 25005KT 10SM CLR M25/M28 A3017 790 74 -4100 250/05 RMK AO2 T12501283
14926KSTC STC20190125000511101/25/19 00:05:31  5-MIN KSTC 250605Z AUTO 24004KT 10SM CLR M25/M28 A3017 800 74 -4100 240/04 RMK AO2 T12501283
14926KSTC STC20190125001011401/25/19 00:10:31  5-MIN KSTC 250610Z AUTO 23005KT 10SM FEW100 M25/M28 A3017 800 74 -4100 230/05 RMK AO2 T12501283
14926KSTC STC20190125001511401/25/19 00:15:31  5-MIN KSTC 250615Z AUTO 23005KT 10SM FEW100 M24/M28 A3016 800 74 -4000 230/05 RMK AO2 T12441278
14926KSTC STC20190125002011401/25/19 00:20:31  5-MIN KSTC 250620Z AUTO 23005KT 10SM SCT100 M24/M28 A3016 800 74 -4000 220/05 RMK AO2 T12441278
14926KSTC STC20190125002511401/25/19 00:25:31  5-MIN KSTC 250625Z AUTO 22004KT 10SM SCT100 M24/M28 A3016 800 74 -4000 220/04 RMK AO2 T12441278
14926KSTC STC20190125003011401/25/19 00:30:31  5-MIN KSTC 250630Z AUTO 21004KT 10SM FEW100 M24/M28 A3016 800 74 -4000 210/04 RMK AO2 T12441278
14926KSTC STC20190125003511401/25/19 00:35:31  5-MIN KSTC 250635Z AUTO 20003KT 10SM FEW100 M25/M28 A3016 800 78 -4100 200/03 RMK AO2 T12501278
14926KSTC STC20190125004011401/25/19 00:40:31  5-MIN KSTC 250640Z AUTO 20003KT 10SM FEW100 M25/M28 A3016 810 78 -4100 200/03 RMK AO2 T12501278
14926KSTC STC20190125004511401/25/19 00:45:31  5-MIN KSTC 250645Z AUTO 20003KT 10SM FEW110 M25/M28 A3016 810 78 -4100 200/03 RMK AO2 T12501278
14926KSTC STC20190125005012101/25/19 00:50:31  5-MIN KSTC 250650Z AUTO 20004KT 10SM FEW120 M25/M28 A3015 820 78 -4100 200/04 RMK AO2 SLP251 T12501278
14926KSTC STC20190125005511401/25/19 00:55:31  5-MIN KSTC 250655Z AUTO 19004KT 10SM FEW120 M25/M28 A3015 820 78 -4100 190/04 RMK AO2 T12501278
14926KSTC STC20190125010011401/25/19 01:00:31  5-MIN KSTC 250700Z AUTO 19005KT 10SM FEW120 M26/M28 A3015 820 82 -4100 190/05 RMK AO2 T12561278
14926KSTC STC20190125010511401/25/19 01:05:31  5-MIN KSTC 250705Z AUTO 19004KT 10SM FEW120 M25/M28 A3014 820 78 -4100 190/04 RMK AO2 T12501278
14926KSTC STC20190125011011401/25/19 01:10:31  5-MIN KSTC 250710Z AUTO 19004KT 10SM FEW120 M25/M28 A3014 820 78 -4100 190/04 RMK AO2 T12501278
14926KSTC STC20190125011511401/25/19 01:15:31  5-MIN KSTC 250715Z AUTO 19004KT 10SM FEW120 M25/M28 A3014 820 78 -4100 190/04 RMK AO2 T12501278
14926KSTC STC20190125012011101/25/19 01:20:31  5-MIN KSTC 250720Z AUTO 19003KT 10SM CLR M26/M28 A3014 820 78 -4100 190/03 RMK AO2 T12561283
14926KSTC STC20190125012511101/25/19 01:25:31  5-MIN KSTC 250725Z AUTO 18003KT 10SM CLR M26/M28 A3014 830 82 -4200 180/03 RMK AO2 T12611283
14926KSTC STC20190125013011101/25/19 01:30:31  5-MIN KSTC 250730Z AUTO 19003KT 10SM CLR M26/M28 A3013 830 82 -4200 190/03 RMK AO2 T12611283
14926KSTC STC20190125013511101/25/19 01:35:31  5-MIN KSTC 250735Z AUTO 18004KT 10SM CLR M26/M28 A3013 830 82 -4200 180/04 RMK AO2 T12611283
14926KSTC STC20190125014011101/25/19 01:40:31  5-MIN KSTC 250740Z AUTO 18003KT 10SM CLR M26/M28 A3013 830 78 -4100 180/03 RMK AO2 T12561283
14926KSTC STC20190125014511101/25/19 01:45:31  5-MIN KSTC 250745Z AUTO 19004KT 10SM CLR M26/M28 A3013 830 82 -4200 190/04 RMK AO2 T12611283
14926KSTC STC20190125015011801/25/19 01:50:31  5-MIN KSTC 250750Z AUTO 19004KT 10SM CLR M26/M28 A3013 830 82 -4200 190/04 RMK AO2 SLP246 T12611283
14926KSTC STC20190125015511101/25/19 01:55:31  5-MIN KSTC 250755Z AUTO 19003KT 10SM CLR M26/M28 A3013 830 78 -4100 190/03 RMK AO2 T12561283
14926KSTC STC20190125020011101/25/19 02:00:31  5-MIN KSTC 250800Z AUTO 18004KT 10SM CLR M26/M28 A3013 840 78 -4100 180/04 RMK AO2 T12561283
14926KSTC STC20190125020511101/25/19 02:05:31  5-MIN KSTC 250805Z AUTO 19004KT 10SM CLR M26/M28 A3013 830 78 -4100 190/04 RMK AO2 T12561283
14926KSTC STC20190125021011101/25/19 02:10:31  5-MIN KSTC 250810Z AUTO 20003KT 10SM CLR M26/M28 A3013 830 78 -4100 200/03 RMK AO2 T12561283
14926KSTC STC20190125021511101/25/19 02:15:31  5-MIN KSTC 250815Z AUTO 21004KT 10SM CLR M26/M28 A3013 830 78 -4100 210/04 RMK AO2 T12561283
14926KSTC STC20190125022011101/25/19 02:20:31  5-MIN KSTC 250820Z AUTO 21003KT 10SM CLR M26/M28 A3013 830 78 -4100 210/03 RMK AO2 T12561283
14926KSTC STC20190125022511101/25/19 02:25:31  5-MIN KSTC 250825Z AUTO 21004KT 10SM CLR M26/M28 A3012 840 78 -4100 210/04 RMK AO2 T12561283
14926KSTC STC20190125023011101/25/19 02:30:31  5-MIN KSTC 250830Z AUTO 20003KT 10SM CLR M26/M28 A3012 840 78 -4100 200/03 RMK AO2 T12561283
14926KSTC STC20190125023511101/25/19 02:35:31  5-MIN KSTC 250835Z AUTO 19004KT 10SM CLR M26/M28 A3012 840 82 -4200 190/04 RMK AO2 T12611283
14926KSTC STC20190125024011101/25/19 02:40:31  5-MIN KSTC 250840Z AUTO 19005KT 10SM CLR M26/M29 A3011 850 78 -4200 190/05 RMK AO2 T12611289
14926KSTC STC20190125024511101/25/19 02:45:31  5-MIN KSTC 250845Z AUTO 19005KT 10SM CLR M26/M28 A3011 850 82 -4200 190/05 RMK AO2 T12611283
14926KSTC STC20190125025012401/25/19 02:50:31  5-MIN KSTC 250850Z AUTO 19005KT 10SM CLR M26/M28 A3011 850 82 -4200 190/05 RMK AO2 SLP239 T12611283 56005
14926KSTC STC20190125025511101/25/19 02:55:31  5-MIN KSTC 250855Z AUTO 19004KT 10SM CLR M26/M28 A3011 850 82 -4200 190/04 RMK AO2 T12611283
14926KSTC STC20190125030011101/25/19 03:00:31  5-MIN KSTC 250900Z AUTO 19003KT 10SM CLR M26/M28 A3010 860 82 -4200 190/03 RMK AO2 T12611283
14926KSTC STC20190125030511101/25/19 03:05:31  5-MIN KSTC 250905Z AUTO 18004KT 10SM CLR M26/M28 A3010 860 82 -4200 180/04 RMK AO2 T12611283
14926KSTC STC20190125031011101/25/19 03:10:31  5-MIN KSTC 250910Z AUTO 00000KT 10SM CLR M26/M29 A3010 860 78 -4200 000/00 RMK AO2 T12611289
14926KSTC STC20190125031511101/25/19 03:15:31  5-MIN KSTC 250915Z AUTO 00000KT 10SM CLR M26/M28 A3010 870 82 -4200 000/00 RMK AO2 T12611283
14926KSTC STC20190125032011101/25/19 03:20:31  5-MIN KSTC 250920Z AUTO 00000KT 10SM CLR M26/M28 A3010 860 82 -4200 000/00 RMK AO2 T12611283
14926KSTC STC20190125032511101/25/19 03:25:31  5-MIN KSTC 250925Z AUTO 00000KT 10SM CLR M26/M28 A3009 870 82 -4100 000/00 RMK AO2 T12611283
14926KSTC STC20190125033011101/25/19 03:30:31  5-MIN KSTC 250930Z AUTO 00000KT 10SM CLR M26/M28 A3009 870 82 -4100 000/00 RMK AO2 T12611283
14926KSTC STC20190125033511101/25/19 03:35:31  5-MIN KSTC 250935Z AUTO 00000KT 10SM CLR M26/M29 A3009 870 78 -4100 000/00 RMK AO2 T12611289
14926KSTC STC20190125034011101/25/19 03:40:31  5-MIN KSTC 250940Z AUTO 00000KT 10SM CLR M26/M29 A3008 880 78 -4100 000/00 RMK AO2 T12611289
14926KSTC STC20190125034511101/25/19 03:45:31  5-MIN KSTC 250945Z AUTO 00000KT 10SM CLR M27/M29 A3008 870 78 -4200 000/00 RMK AO2 T12671294
14926KSTC STC20190125035011801/25/19 03:50:31  5-MIN KSTC 250950Z AUTO 00000KT 10SM CLR M27/M29 A3008 880 82 -4300 000/00 RMK AO2 SLP230 T12721294
14926KSTC STC20190125035511101/25/19 03:55:31  5-MIN KSTC 250955Z AUTO 00000KT 10SM CLR M27/M29 A3008 880 78 -4200 000/00 RMK AO2 T12671294
14926KSTC STC20190125040011101/25/19 04:00:31  5-MIN KSTC 251000Z AUTO 00000KT 10SM CLR M27/M29 A3008 880 82 -4300 000/00 RMK AO2 T12721294
14926KSTC STC20190125040511101/25/19 04:05:31  5-MIN KSTC 251005Z AUTO 00000KT 10SM CLR M27/M29 A3008 880 78 -4200 000/00 RMK AO2 T12671294
14926KSTC STC20190125041011101/25/19 04:10:31  5-MIN KSTC 251010Z AUTO 00000KT 10SM CLR M27/M29 A3008 880 82 -4300 000/00 RMK AO2 T12721294
14926KSTC STC20190125041511101/25/19 04:15:31  5-MIN KSTC 251015Z AUTO 00000KT 10SM CLR M27/M30 A3007 880 78 -4300 000/00 RMK AO2 T12721300
14926KSTC STC20190125042011101/25/19 04:20:31  5-MIN KSTC 251020Z AUTO 00000KT 10SM CLR M27/M29 A3007 890 78 -4200 000/00 RMK AO2 T12671294
14926KSTC STC20190125042511101/25/19 04:25:31  5-MIN KSTC 251025Z AUTO 14003KT 10SM CLR M28/M31 A3007 890 82 -4400 140/03 RMK AO2 T12831306
14926KSTC STC20190125043011101/25/19 04:30:31  5-MIN KSTC 251030Z AUTO 15004KT 10SM CLR M28/M31 A3007 890 82 -4400 150/04 RMK AO2 T12831306
14926KSTC STC20190125043511101/25/19 04:35:31  5-MIN KSTC 251035Z AUTO 14004KT 10SM CLR M28/M31 A3007 890 82 -4400 140/04 RMK AO2 T12831306
14926KSTC STC20190125044011101/25/19 04:40:31  5-MIN KSTC 251040Z AUTO 15003KT 10SM CLR M28/M30 A3007 890 82 -4400 150/03 RMK AO2 T12781300
14926KSTC STC20190125044511101/25/19 04:45:31  5-MIN KSTC 251045Z AUTO 15003KT 10SM CLR M27/M30 A3007 890 78 -4300 150/03 RMK AO2 T12721300
14926KSTC STC20190125045011801/25/19 04:50:31  5-MIN KSTC 251050Z AUTO 17003KT 10SM CLR M27/M30 A3007 890 78 -4300 170/03 RMK AO2 SLP227 T12721300
14926KSTC STC20190125045511101/25/19 04:55:31  5-MIN KSTC 251055Z AUTO 17003KT 10SM CLR M27/M30 A3007 890 78 -4300 170/03 RMK AO2 T12721300
14926KSTC STC20190125050011101/25/19 05:00:31  5-MIN KSTC 251100Z AUTO 15003KT 10SM CLR M27/M29 A3007 890 82 -4300 150/03 RMK AO2 T12721294
14926KSTC STC20190125050511101/25/19 05:05:31  5-MIN KSTC 251105Z AUTO 14003KT 10SM CLR M27/M29 A3006 890 82 -4300 140/03 RMK AO2 T12721294
14926KSTC STC20190125051011101/25/19 05:10:31  5-MIN KSTC 251110Z AUTO 16003KT 10SM CLR M28/M30 A3007 890 82 -4400 160/03 RMK AO2 T12781300
14926KSTC STC20190125051511101/25/19 05:15:31  5-MIN KSTC 251115Z AUTO 16003KT 10SM CLR M28/M30 A3007 890 82 -4400 160/03 RMK AO2 T12781300
14926KSTC STC20190125052011401/25/19 05:20:31  5-MIN KSTC 251120Z AUTO 00000KT 10SM FEW110 M27/M30 A3007 890 78 -4300 000/00 RMK AO2 T12721300
14926KSTC STC20190125052511401/25/19 05:25:31  5-MIN KSTC 251125Z AUTO 00000KT 10SM SCT110 M27/M29 A3007 890 78 -4200 000/00 RMK AO2 T12671294
14926KSTC STC20190125053011401/25/19 05:30:31  5-MIN KSTC 251130Z AUTO 00000KT 10SM SCT110 M28/M30 A3007 890 82 -4400 000/00 RMK AO2 T12781300
14926KSTC STC20190125053511401/25/19 05:35:31  5-MIN KSTC 251135Z AUTO 00000KT 10SM SCT110 M28/M31 A3006 900 78 -4400 000/00 RMK AO2 T12781306
14926KSTC STC20190125054011401/25/19 05:40:31  5-MIN KSTC 251140Z AUTO 13003KT 10SM SCT110 M27/M31 A3006 890 74 -4300 130/03 RMK AO2 T12721306
14926KSTC STC20190125054511401/25/19 05:45:31  5-MIN KSTC 251145Z AUTO 00000KT 10SM SCT110 M27/M30 A3006 900 78 -4300 000/00 RMK AO2 T12721300
14926KSTC STC20190125055013901/25/19 05:50:31  5-MIN KSTC 251150Z AUTO 00000KT 10SM BKN110 M28/M30 A3006 900 82 -4400 000/00 RMK AO2 SLP224 T12781300 11244 21283 56023
14926KSTC STC20190125055511401/25/19 05:55:31  5-MIN KSTC 251155Z AUTO 00000KT 10SM BKN110 M28/M30 A3006 900 82 -4400 000/00 RMK AO2 T12781300
14926KSTC STC20190125060011401/25/19 06:00:31  5-MIN KSTC 251200Z AUTO 00000KT 10SM FEW110 M28/M30 A3006 890 82 -4400 000/00 RMK AO2 T12781300
14926KSTC STC20190125060511401/25/19 06:05:31  5-MIN KSTC 251205Z AUTO 00000KT 10SM FEW110 M28/M31 A3007 890 78 -4400 000/00 RMK AO2 T12781306
14926KSTC STC20190125061011401/25/19 06:10:31  5-MIN KSTC 251210Z AUTO 00000KT 10SM FEW110 M28/M31 A3006 890 78 -4400 000/00 RMK AO2 T12781306
14926KSTC STC20190125061511401/25/19 06:15:31  5-MIN KSTC 251215Z AUTO 00000KT 10SM FEW110 M28/M31 A3006 890 78 -4400 000/00 RMK AO2 T12781306
14926KSTC STC20190125062011101/25/19 06:20:31  5-MIN KSTC 251220Z AUTO 00000KT 10SM CLR M28/M31 A3007 890 74 -4400 000/00 RMK AO2 T12781311
14926KSTC STC20190125062511101/25/19 06:25:31  5-MIN KSTC 251225Z AUTO 00000KT 10SM CLR M28/M31 A3007 890 77 -4400 000/00 RMK AO2 T12831311
14926KSTC STC20190125063011401/25/19 06:30:31  5-MIN KSTC 251230Z AUTO 00000KT 10SM FEW100 M28/M31 A3008 880 78 -4400 000/00 RMK AO2 T12781306
14926KSTC STC20190125063511401/25/19 06:35:31  5-MIN KSTC 251235Z AUTO 00000KT 10SM FEW100 M28/M31 A3008 880 82 -4500 000/00 RMK AO2 T12831306
14926KSTC STC20190125064011401/25/19 06:40:31  5-MIN KSTC 251240Z AUTO 00000KT 10SM FEW100 M28/M31 A3008 880 78 -4400 000/00 RMK AO2 T12781306
14926KSTC STC20190125064511401/25/19 06:45:31  5-MIN KSTC 251245Z AUTO 00000KT 10SM FEW100 M28/M31 A3007 890 82 -4400 000/00 RMK AO2 T12831306
14926KSTC STC20190125065012101/25/19 06:50:31  5-MIN KSTC 251250Z AUTO 00000KT 10SM FEW100 M28/M31 A3007 890 74 -4400 000/00 RMK AO2 SLP229 T12781311
14926KSTC STC20190125065510901/25/19 06:55:31  5-MIN KSTC 251255Z 00000KT 10SM FEW100 M28/M31 A3007 890 74 -4400 000/00 RMK AO2 T12781311
14926KSTC STC20190125070010601/25/19 07:00:31  5-MIN KSTC 251300Z 00000KT 10SM CLR M28/M31 A3008 880 78 -4400 000/00 RMK AO2 T12781306
14926KSTC STC20190125070510601/25/19 07:05:31  5-MIN KSTC 251305Z 00000KT 10SM CLR M28/M31 A3008 880 82 -4400 000/00 RMK AO2 T12831306
14926KSTC STC20190125071010601/25/19 07:10:31  5-MIN KSTC 251310Z 04003KT 10SM CLR M28/M31 A3008 880 82 -4500 040/03 RMK AO2 T12831306
14926KSTC STC20190125071510601/25/19 07:15:31  5-MIN KSTC 251315Z 00000KT 10SM CLR M28/M31 A3007 880 82 -4400 000/00 RMK AO2 T12831306
14926KSTC STC20190125072010601/25/19 07:20:31  5-MIN KSTC 251320Z 00000KT 10SM CLR M28/M31 A3007 880 77 -4400 000/00 RMK AO2 T12831311
14926KSTC STC20190125072510601/25/19 07:25:31  5-MIN KSTC 251325Z 06003KT 10SM CLR M29/M31 A3007 880 81 -4500 060/03 RMK AO2 T12891311
14926KSTC STC20190125073010601/25/19 07:30:31  5-MIN KSTC 251330Z 07003KT 10SM CLR M28/M31 A3008 880 74 -4400 070/03 RMK AO2 T12781311
14926KSTC STC20190125073510901/25/19 07:35:31  5-MIN KSTC 251335Z 06004KT 10SM SCT070 M28/M31 A3008 880 77 -4400 060/04 RMK AO2 T12831311
14926KSTC STC20190125074010901/25/19 07:40:31  5-MIN KSTC 251340Z 07004KT 10SM BKN070 M28/M31 A3008 880 82 -4500 070/04 RMK AO2 T12831306
14926KSTC STC20190125074510901/25/19 07:45:31  5-MIN KSTC 251345Z 08003KT 10SM BKN065 M28/M31 A3008 880 78 -4400 080/03 RMK AO2 T12781306
14926KSTC STC20190125075011601/25/19 07:50:31  5-MIN KSTC 251350Z 00000KT 10SM BKN065 M28/M30 A3008 880 82 -4400 000/00 RMK AO2 SLP230 T12781300
14926KSTC STC20190125075510901/25/19 07:55:31  5-MIN KSTC 251355Z 00000KT 10SM OVC065 M27/M29 A3007 880 82 -4300 000/00 RMK AO2 T12721294
14926KSTC STC20190125080010901/25/19 08:00:31  5-MIN KSTC 251400Z 00000KT 10SM OVC065 M27/M29 A3007 890 78 -4200 000/00 RMK AO2 T12671294
14926KSTC STC20190125080510901/25/19 08:05:31  5-MIN KSTC 251405Z 00000KT 10SM OVC065 M27/M29 A3007 890 78 -4200 000/00 RMK AO2 T12671294
14926KSTC STC20190125081010901/25/19 08:10:31  5-MIN KSTC 251410Z 00000KT 10SM OVC060 M27/M29 A3007 890 78 -4200 000/00 RMK AO2 T12671294
14926KSTC STC20190125081510901/25/19 08:15:31  5-MIN KSTC 251415Z 00000KT 10SM OVC060 M26/M29 A3008 880 78 -4100 000/00 RMK AO2 T12611289
14926KSTC STC20190125082010901/25/19 08:20:31  5-MIN KSTC 251420Z 00000KT 10SM OVC060 M26/M28 A3008 880 82 -4100 000/00 RMK AO2 T12611283
14926KSTC STC20190125082510901/25/19 08:25:31  5-MIN KSTC 251425Z 00000KT 10SM OVC060 M26/M28 A3008 880 82 -4100 000/00 RMK AO2 T12561278
14926KSTC STC20190125083010901/25/19 08:30:31  5-MIN KSTC 251430Z 00000KT 10SM OVC060 M26/M28 A3008 880 82 -4100 000/00 RMK AO2 T12561278
14926KSTC STC20190125083510901/25/19 08:35:31  5-MIN KSTC 251435Z 00000KT 10SM OVC060 M26/M28 A3008 880 82 -4100 000/00 RMK AO2 T12561278
14926KSTC STC20190125084010901/25/19 08:40:31  5-MIN KSTC 251440Z 00000KT 10SM OVC060 M25/M28 A3008 880 78 -4000 000/00 RMK AO2 T12501278
14926KSTC STC20190125084510901/25/19 08:45:31  5-MIN KSTC 251445Z 00000KT 10SM OVC060 M26/M28 A3008 880 82 -4100 000/00 RMK AO2 T12561278
14926KSTC STC20190125085012801/25/19 08:50:31  5-MIN KSTC 251450Z 00000KT 10SM OVC060 M25/M27 A3008 880 82 -4000 000/00 RMK AO2 SLP230 I3/// T12501272 56015
14926KSTC STC20190125085510901/25/19 08:55:31  5-MIN KSTC 251455Z 00000KT 10SM OVC060 M25/M27 A3008 880 82 -4000 000/00 RMK AO2 T12501272
14926KSTC STC20190125090010901/25/19 09:00:31  5-MIN KSTC 251500Z 00000KT 10SM OVC060 M24/M27 A3008 880 82 -3900 000/00 RMK AO2 T12441267
14926KSTC STC20190125090510901/25/19 09:05:31  5-MIN KSTC 251505Z 00000KT 10SM OVC060 M24/M27 A3008 880 82 -3900 000/00 RMK AO2 T12441267
14926KSTC STC20190125091010901/25/19 09:10:31  5-MIN KSTC 251510Z 00000KT 10SM OVC060 M24/M26 A3008 870 86 -3900 000/00 RMK AO2 T12441261
14926KSTC STC20190125091510901/25/19 09:15:31  5-MIN KSTC 251515Z 00000KT 10SM OVC060 M24/M26 A3009 870 82 -3800 000/00 RMK AO2 T12391261
14926KSTC STC20190125092010901/25/19 09:20:31  5-MIN KSTC 251520Z 00000KT 10SM OVC060 M24/M26 A3009 870 82 -3800 000/00 RMK AO2 T12391261
14926KSTC STC20190125092510901/25/19 09:25:31  5-MIN KSTC 251525Z 00000KT 10SM OVC060 M24/M26 A3009 870 86 -3800 000/00 RMK AO2 T12391256
14926KSTC STC20190125093010901/25/19 09:30:31  5-MIN KSTC 251530Z 00000KT 10SM OVC060 M23/M26 A3009 870 78 -3700 000/00 RMK AO2 T12281256
14926KSTC STC20190125093510901/25/19 09:35:31  5-MIN KSTC 251535Z 00000KT 10SM OVC055 M23/M26 A3009 870 82 -3800 000/00 RMK AO2 T12331256
14926KSTC STC20190125094010901/25/19 09:40:31  5-MIN KSTC 251540Z 00000KT 10SM OVC055 M23/M26 A3009 870 78 -3700 000/00 RMK AO2 T12281256
14926KSTC STC20190125094510901/25/19 09:45:31  5-MIN KSTC 251545Z 00000KT 10SM OVC055 M23/M26 A3010 860 78 -3700 000/00 RMK AO2 T12281256
14926KSTC STC20190125095011601/25/19 09:50:31  5-MIN KSTC 251550Z 00000KT 10SM OVC055 M23/M26 A3010 860 78 -3700 000/00 RMK AO2 SLP235 T12281256
14926KSTC STC20190125095510901/25/19 09:55:31  5-MIN KSTC 251555Z 00000KT 10SM OVC055 M22/M26 A3010 860 75 -3600 000/00 RMK AO2 T12221256
14926KSTC STC20190125100010901/25/19 10:00:31  5-MIN KSTC 251600Z 00000KT 10SM BKN055 M22/M26 A3010 860 75 -3600 000/00 RMK AO2 T12221256
14926KSTC STC20190125100510901/25/19 10:05:31  5-MIN KSTC 251605Z 33003KT 10SM BKN055 M22/M26 A3010 860 75 -3600 330/03 RMK AO2 T12221256
14926KSTC STC20190125101010901/25/19 10:10:31  5-MIN KSTC 251610Z 35003KT 10SM SCT050 M22/M25 A3010 860 75 -3500 350/03 RMK AO2 T12171250
14926KSTC STC20190125101510901/25/19 10:15:31  5-MIN KSTC 251615Z 00000KT 10SM SCT050 M22/M25 A3010 860 75 -3500 000/00 RMK AO2 T12171250
14926KSTC STC20190125102010901/25/19 10:20:31  5-MIN KSTC 251620Z 35003KT 10SM FEW055 M21/M25 A3010 860 71 -3500 350/03 RMK AO2 T12111250
14926KSTC STC20190125102510901/25/19 10:25:31  5-MIN KSTC 251625Z 35003KT 10SM FEW050 M22/M26 A3010 860 71 -3500 340/03 RMK AO2 T12171256
14926KSTC STC20190125103010601/25/19 10:30:31  5-MIN KSTC 251630Z 36005KT 10SM CLR M21/M26 A3010 860 68 -3500 360/05 RMK AO2 T12111256
14926KSTC STC20190125103510601/25/19 10:35:31  5-MIN KSTC 251635Z 35005KT 10SM CLR M21/M26 A3011 850 68 -3500 350/05 RMK AO2 T12111256
14926KSTC STC20190125104010601/25/19 10:40:31  5-MIN KSTC 251640Z 36005KT 10SM CLR M21/M25 A3011 850 68 -3400 350/05 RMK AO2 T12061250
14926KSTC STC20190125104510601/25/19 10:45:31  5-MIN KSTC 251645Z 36005KT 10SM CLR M21/M25 A3011 850 68 -3400 360/05 RMK AO2 T12061250
14926KSTC STC20190125105011301/25/19 10:50:31  5-MIN KSTC 251650Z 35004KT 10SM CLR M21/M25 A3011 850 68 -3400 350/04 RMK AO2 SLP239 T12061250
14926KSTC STC20190125105510601/25/19 10:55:31  5-MIN KSTC 251655Z 35005KT 10SM CLR M21/M25 A3012 850 68 -3400 350/05 RMK AO2 T12061250
14926KSTC STC20190125110010601/25/19 11:00:31  5-MIN KSTC 251700Z 35004KT 10SM CLR M21/M25 A3012 840 68 -3400 350/04 RMK AO2 T12061250
14926KSTC STC20190125110510601/25/19 11:05:31  5-MIN KSTC 251705Z 35004KT 10SM CLR M20/M25 A3012 840 65 -3300 350/04 RMK AO2 T12001250
14926KSTC STC20190125111010601/25/19 11:10:31  5-MIN KSTC 251710Z 35005KT 10SM CLR M20/M25 A3012 840 65 -3300 350/05 RMK AO2 T12001250
14926KSTC STC20190125111510601/25/19 11:15:31  5-MIN KSTC 251715Z 01004KT 10SM CLR M20/M25 A3012 840 65 -3300 010/04 RMK AO2 T12001250
14926KSTC STC20190125112010601/25/19 11:20:31  5-MIN KSTC 251720Z 34004KT 10SM CLR M20/M25 A3012 840 65 -3300 330/04 RMK AO2 T12001250
14926KSTC STC20190125112510601/25/19 11:25:31  5-MIN KSTC 251725Z 32003KT 10SM CLR M20/M25 A3012 840 65 -3300 320/03 RMK AO2 T12001250
14926KSTC STC20190125113010601/25/19 11:30:31  5-MIN KSTC 251730Z 00000KT 10SM CLR M19/M24 A3012 840 62 -3200 000/00 RMK AO2 T11891244
14926KSTC STC20190125113510601/25/19 11:35:31  5-MIN KSTC 251735Z 01003KT 10SM CLR M19/M25 A3012 840 59 -3200 010/03 RMK AO2 T11891250
14926KSTC STC20190125114010601/25/19 11:40:31  5-MIN KSTC 251740Z 35004KT 10SM CLR M19/M25 A3012 840 62 -3300 350/04 RMK AO2 T11941250
14926KSTC STC20190125114510601/25/19 11:45:31  5-MIN KSTC 251745Z 33003KT 10SM CLR M19/M25 A3012 840 62 -3300 330/03 RMK AO2 T11941250
14926KSTC STC20190125115013701/25/19 11:50:31  5-MIN KSTC 251750Z 34003KT 10SM CLR M19/M24 A3012 840 62 -3200 340/03 RMK AO2 SLP243 I6000 T11891244 11189 21289 51006
14926KSTC STC20190125115510601/25/19 11:55:31  5-MIN KSTC 251755Z 34004KT 10SM CLR M19/M24 A3012 840 62 -3200 340/04 RMK AO2 T11891244
14926KSTC STC20190125120010601/25/19 12:00:31  5-MIN KSTC 251800Z 00000KT 10SM CLR M19/M24 A3012 840 62 -3200 000/00 RMK AO2 T11891244
14926KSTC STC20190125120510601/25/19 12:05:31  5-MIN KSTC 251805Z 36003KT 10SM CLR M19/M24 A3012 840 62 -3200 360/03 RMK AO2 T11891244
14926KSTC STC20190125121010601/25/19 12:10:31  5-MIN KSTC 251810Z 36003KT 10SM CLR M18/M25 A3013 840 56 -3100 360/03 RMK AO2 T11831250
14926KSTC STC20190125121510601/25/19 12:15:31  5-MIN KSTC 251815Z 34004KT 10SM CLR M19/M25 A3013 840 59 -3200 340/04 RMK AO2 T11891250
14926KSTC STC20190125122010601/25/19 12:20:31  5-MIN KSTC 251820Z 35003KT 10SM CLR M18/M25 A3013 840 56 -3100 350/03 RMK AO2 T11831250
14926KSTC STC20190125122510601/25/19 12:25:31  5-MIN KSTC 251825Z 34006KT 10SM CLR M18/M24 A3012 840 59 -3100 340/06 RMK AO2 T11831244
14926KSTC STC20190125123010601/25/19 12:30:31  5-MIN KSTC 251830Z 36005KT 10SM CLR M19/M25 A3012 840 59 -3200 360/05 RMK AO2 T11891250
14926KSTC STC20190125123510601/25/19 12:35:31  5-MIN KSTC 251835Z 01006KT 10SM CLR M19/M25 A3012 840 59 -3200 010/06 RMK AO2 T11891250
14926KSTC STC20190125124010601/25/19 12:40:31  5-MIN KSTC 251840Z 34005KT 10SM CLR M19/M25 A3012 840 59 -3200 340/05 RMK AO2 T11891250
14926KSTC STC20190125124510601/25/19 12:45:31  5-MIN KSTC 251845Z 34005KT 10SM CLR M19/M25 A3013 840 59 -3200 340/05 RMK AO2 T11891250
14926KSTC STC20190125125011301/25/19 12:50:31  5-MIN KSTC 251850Z 36007KT 10SM CLR M18/M25 A3013 840 56 -3100 360/07 RMK AO2 SLP244 T11831250
14926KSTC STC20190125125510601/25/19 12:55:31  5-MIN KSTC 251855Z 01005KT 10SM CLR M18/M25 A3013 840 56 -3100 360/05 RMK AO2 T11831250
14926KSTC STC20190125130010601/25/19 13:00:31  5-MIN KSTC 251900Z 01007KT 10SM CLR M18/M25 A3012 840 56 -3100 010/07 RMK AO2 T11831250
14926KSTC STC20190125130510601/25/19 13:05:31  5-MIN KSTC 251905Z 35005KT 10SM CLR M18/M25 A3013 840 56 -3100 350/05 RMK AO2 T11831250
14926KSTC STC20190125131010601/25/19 13:10:31  5-MIN KSTC 251910Z VRB04KT 10SM CLR M18/M25 A3013 840 56 -3100 VRB/04 RMK AO2 T11831250
14926KSTC STC20190125131510601/25/19 13:15:31  5-MIN KSTC 251915Z 01006KT 10SM CLR M18/M25 A3013 840 56 -3100 010/06 RMK AO2 T11831250
14926KSTC STC20190125132010601/25/19 13:20:31  5-MIN KSTC 251920Z 01008KT 10SM CLR M18/M25 A3012 840 56 -3100 360/08 RMK AO2 T11831250
14926KSTC STC20190125132510601/25/19 13:25:31  5-MIN KSTC 251925Z 01006KT 10SM CLR M18/M25 A3012 840 56 -3100 010/06 RMK AO2 T11831250
14926KSTC STC20190125133010601/25/19 13:30:31  5-MIN KSTC 251930Z 36006KT 10SM CLR M18/M25 A3012 840 56 -3100 360/06 RMK AO2 T11831250
14926KSTC STC20190125133510601/25/19 13:35:31  5-MIN KSTC 251935Z 36008KT 10SM CLR M18/M25 A3012 840 56 -3100 360/08 RMK AO2 T11831250
14926KSTC STC20190125134010601/25/19 13:40:31  5-MIN KSTC 251940Z 01007KT 10SM CLR M18/M24 A3012 840 59 -3100 360/07 RMK AO2 T11831244
14926KSTC STC20190125134510601/25/19 13:45:31  5-MIN KSTC 251945Z 01006KT 10SM CLR M18/M24 A3012 840 59 -3100 010/06 RMK AO2 T11831244
14926KSTC STC20190125135011301/25/19 13:50:31  5-MIN KSTC 251950Z 36005KT 10SM CLR M18/M24 A3012 840 56 -3000 360/05 RMK AO2 SLP243 T11781244
14926KSTC STC20190125135510601/25/19 13:55:31  5-MIN KSTC 251955Z 36007KT 10SM CLR M18/M24 A3012 840 56 -3000 360/07 RMK AO2 T11781244
14926KSTC STC20190125140010601/25/19 14:00:31  5-MIN KSTC 252000Z 01006KT 10SM CLR M18/M24 A3012 840 59 -3100 010/06 RMK AO2 T11831244
14926KSTC STC20190125140510601/25/19 14:05:31  5-MIN KSTC 252005Z 01006KT 10SM CLR M18/M24 A3012 840 56 -3000 010/06 RMK AO2 T11781244
14926KSTC STC20190125141010601/25/19 14:10:31  5-MIN KSTC 252010Z 01006KT 10SM CLR M18/M24 A3012 840 56 -3000 010/06 RMK AO2 T11781244
14926KSTC STC20190125141510601/25/19 14:15:31  5-MIN KSTC 252015Z 36007KT 10SM CLR M18/M24 A3012 840 56 -3000 360/07 RMK AO2 T11781244
14926KSTC STC20190125142010601/25/19 14:20:31  5-MIN KSTC 252020Z 36005KT 10SM CLR M18/M24 A3012 840 56 -3000 350/05 RMK AO2 T11781244
14926KSTC STC20190125142510601/25/19 14:25:31  5-MIN KSTC 252025Z 35005KT 10SM CLR M18/M24 A3012 840 56 -3000 350/05 RMK AO2 T11781244
14926KSTC STC20190125143010601/25/19 14:30:31  5-MIN KSTC 252030Z 35005KT 10SM CLR M18/M24 A3012 840 56 -3000 350/05 RMK AO2 T11781244
14926KSTC STC20190125143510601/25/19 14:35:31  5-MIN KSTC 252035Z 01004KT 10SM CLR M18/M24 A3012 840 56 -3000 010/04 RMK AO2 T11781244
14926KSTC STC20190125144010601/25/19 14:40:31  5-MIN KSTC 252040Z VRB03KT 10SM CLR M17/M24 A3012 840 54 -2900 VRB/03 RMK AO2 T11721244
14926KSTC STC20190125144510601/25/19 14:45:31  5-MIN KSTC 252045Z 31007KT 10SM CLR M18/M24 A3012 840 56 -3000 310/07 RMK AO2 T11781244
14926KSTC STC20190125145011901/25/19 14:50:31  5-MIN KSTC 252050Z 32007KT 10SM CLR M18/M25 A3013 840 54 -3000 320/07 RMK AO2 SLP243 T11781250 51014
14926KSTC STC20190125145510601/25/19 14:55:31  5-MIN KSTC 252055Z 33007KT 10SM CLR M18/M25 A3013 840 54 -3000 320/07 RMK AO2 T11781250
14926KSTC STC20190125150010601/25/19 15:00:31  5-MIN KSTC 252100Z 32008KT 10SM CLR M18/M24 A3013 830 56 -3000 310/08 RMK AO2 T11781244
14926KSTC STC20190125150510601/25/19 15:05:31  5-MIN KSTC 252105Z 01008KT 10SM CLR M18/M24 A3013 830 56 -3000 010/08 RMK AO2 T11781244
14926KSTC STC20190125151010601/25/19 15:10:31  5-MIN KSTC 252110Z 35007KT 10SM CLR M18/M24 A3013 830 56 -3000 350/07 RMK AO2 T11781244
14926KSTC STC20190125151510601/25/19 15:15:31  5-MIN KSTC 252115Z 35008KT 10SM CLR M18/M24 A3013 830 56 -3000 350/08 RMK AO2 T11781244
14926KSTC STC20190125152010601/25/19 15:20:31  5-MIN KSTC 252120Z 34008KT 10SM CLR M18/M25 A3013 830 54 -3000 340/08 RMK AO2 T11781250
14926KSTC STC20190125152510601/25/19 15:25:31  5-MIN KSTC 252125Z 36008KT 10SM CLR M18/M25 A3013 830 54 -3000 360/08 RMK AO2 T11781250
14926KSTC STC20190125153010601/25/19 15:30:31  5-MIN KSTC 252130Z 36007KT 10SM CLR M18/M25 A3013 830 54 -3000 360/07 RMK AO2 T11781250
14926KSTC STC20190125153510601/25/19 15:35:31  5-MIN KSTC 252135Z VRB05KT 10SM CLR M18/M24 A3014 830 56 -3000 VRB/05 RMK AO2 T11781244
14926KSTC STC20190125154010601/25/19 15:40:31  5-MIN KSTC 252140Z 36008KT 10SM CLR M18/M24 A3014 820 56 -3000 350/08 RMK AO2 T11781244
14926KSTC STC20190125154510601/25/19 15:45:31  5-MIN KSTC 252145Z 36006KT 10SM CLR M18/M25 A3014 820 54 -3000 360/06 RMK AO2 T11781250
14926KSTC STC20190125155011301/25/19 15:50:31  5-MIN KSTC 252150Z 36006KT 10SM CLR M18/M25 A3014 820 54 -3000 360/06 RMK AO2 SLP248 T11781250
14926KSTC STC20190125155511101/25/19 15:55:31  5-MIN KSTC 252155Z AUTO 36007KT 10SM CLR M18/M25 A3014 820 54 -3000 360/07 RMK AO2 T11781250
14926KSTC STC20190125160011101/25/19 16:00:31  5-MIN KSTC 252200Z AUTO 01006KT 10SM CLR M18/M25 A3014 820 54 -3000 010/06 RMK AO2 T11781250
14926KSTC STC20190125160511101/25/19 16:05:31  5-MIN KSTC 252205Z AUTO 01005KT 10SM CLR M18/M25 A3014 820 54 -3100 360/05 RMK AO2 T11781250
14926KSTC STC20190125161011101/25/19 16:10:31  5-MIN KSTC 252210Z AUTO 01005KT 10SM CLR M18/M25 A3015 820 54 -3100 010/05 RMK AO2 T11781250
14926KSTC STC20190125161510601/25/19 16:15:31  5-MIN KSTC 252215Z 01006KT 10SM CLR M18/M25 A3015 820 54 -3100 010/06 RMK AO2 T11781250
14926KSTC STC20190125162010601/25/19 16:20:31  5-MIN KSTC 252220Z 01005KT 10SM CLR M18/M25 A3015 820 54 -3100 010/05 RMK AO2 T11781250
14926KSTC STC20190125162510601/25/19 16:25:31  5-MIN KSTC 252225Z 01004KT 10SM CLR M18/M25 A3015 810 54 -3100 010/04 RMK AO2 T11781250
14926KSTC STC20190125163010601/25/19 16:30:31  5-MIN KSTC 252230Z 01004KT 10SM CLR M18/M25 A3015 820 54 -3100 010/04 RMK AO2 T11781250
14926KSTC STC20190125163510601/25/19 16:35:31  5-MIN KSTC 252235Z 36004KT 10SM CLR M18/M25 A3015 820 54 -3100 360/04 RMK AO2 T11781250
14926KSTC STC20190125164010601/25/19 16:40:31  5-MIN KSTC 252240Z 35004KT 10SM CLR M18/M25 A3015 820 56 -3100 350/04 RMK AO2 T11831250
14926KSTC STC20190125164510601/25/19 16:45:31  5-MIN KSTC 252245Z 35003KT 10SM CLR M18/M25 A3015 810 56 -3100 340/03 RMK AO2 T11831250
14926KSTC STC20190125165011301/25/19 16:50:31  5-MIN KSTC 252250Z 34003KT 10SM CLR M18/M25 A3015 810 56 -3100 340/03 RMK AO2 SLP253 T11831250
14926KSTC STC20190125165510601/25/19 16:55:31  5-MIN KSTC 252255Z 34003KT 10SM CLR M18/M26 A3015 810 54 -3100 340/03 RMK AO2 T11831256
14926KSTC STC20190125170010601/25/19 17:00:31  5-MIN KSTC 252300Z 34004KT 10SM CLR M19/M26 A3015 810 56 -3200 340/04 RMK AO2 T11891256
14926KSTC STC20190125170510601/25/19 17:05:31  5-MIN KSTC 252305Z 35004KT 10SM CLR M19/M26 A3016 810 56 -3200 340/04 RMK AO2 T11891256
14926KSTC STC20190125171010601/25/19 17:10:31  5-MIN KSTC 252310Z 34003KT 10SM CLR M19/M26 A3016 810 56 -3200 340/03 RMK AO2 T11891256
14926KSTC STC20190125171510601/25/19 17:15:31  5-MIN KSTC 252315Z 35003KT 10SM CLR M19/M26 A3016 810 56 -3200 350/03 RMK AO2 T11891256
14926KSTC STC20190125172010601/25/19 17:20:31  5-MIN KSTC 252320Z 00000KT 10SM CLR M19/M26 A3016 800 59 -3300 000/00 RMK AO2 T11941256
14926KSTC STC20190125172510601/25/19 17:25:31  5-MIN KSTC 252325Z 00000KT 10SM CLR M19/M26 A3016 800 56 -3200 000/00 RMK AO2 T11891256
14926KSTC STC20190125173010601/25/19 17:30:31  5-MIN KSTC 252330Z 00000KT 10SM CLR M19/M26 A3016 800 59 -3300 000/00 RMK AO2 T11941256
14926KSTC STC20190125173510601/25/19 17:35:31  5-MIN KSTC 252335Z 00000KT 10SM CLR M20/M26 A3016 800 62 -3400 000/00 RMK AO2 T12001256
14926KSTC STC20190125174010601/25/19 17:40:31  5-MIN KSTC 252340Z 00000KT 10SM CLR M21/M26 A3016 800 65 -3500 000/00 RMK AO2 T12061256
14926KSTC STC20190125174510601/25/19 17:45:31  5-MIN KSTC 252345Z 00000KT 10SM CLR M21/M26 A3017 800 65 -3500 000/00 RMK AO2 T12061256
14926KSTC STC20190125175013101/25/19 17:50:31  5-MIN KSTC 252350Z 00000KT 10SM CLR M21/M26 A3017 800 68 -3500 000/00 RMK AO2 SLP261 T12111256 11172 21211 51001
14926KSTC STC20190125175510601/25/19 17:55:31  5-MIN KSTC 252355Z 00000KT 10SM CLR M21/M26 A3017 800 68 -3500 000/00 RMK AO2 T12111256
14926KSTC STC20190125180010601/25/19 18:00:31  5-MIN KSTC 260000Z 01003KT 10SM CLR M21/M26 A3017 800 68 -3500 010/03 RMK AO2 T12111256
14926KSTC STC20190125180510601/25/19 18:05:31  5-MIN KSTC 260005Z 00000KT 10SM CLR M21/M26 A3017 800 65 -3500 000/00 RMK AO2 T12111261
14926KSTC STC20190125181009601/25/19 18:10:31  5-MIN KSTC 260010Z 10SM CLR M21/M26 A3017 800 65 -3500 M /M RMK AO2 T12111261
14926KSTC STC20190125181509601/25/19 18:15:31  5-MIN KSTC 260015Z 10SM CLR M21/M26 A3017 800 65 -3500 M /M RMK AO2 T12111261
14926KSTC STC20190125182010601/25/19 18:20:31  5-MIN KSTC 260020Z 00000KT 10SM CLR M22/M26 A3017 790 68 -3600 000/00 RMK AO2 T12171261
14926KSTC STC20190125182510601/25/19 18:25:31  5-MIN KSTC 260025Z 00000KT 10SM CLR M22/M26 A3017 790 68 -3600 000/00 RMK AO2 T12171261
14926KSTC STC20190125183010601/25/19 18:30:31  5-MIN KSTC 260030Z 00000KT 10SM CLR M22/M26 A3017 790 71 -3700 000/00 RMK AO2 T12221261
14926KSTC STC20190125183510601/25/19 18:35:31  5-MIN KSTC 260035Z 00000KT 10SM CLR M22/M26 A3018 790 71 -3700 000/00 RMK AO2 T12221261
14926KSTC STC20190125184010601/25/19 18:40:31  5-MIN KSTC 260040Z 00000KT 10SM CLR M23/M27 A3018 790 71 -3800 000/00 RMK AO2 T12281267
14926KSTC STC20190125184510601/25/19 18:45:31  5-MIN KSTC 260045Z 00000KT 10SM CLR M23/M27 A3018 790 71 -3800 000/00 RMK AO2 T12281267
14926KSTC STC20190125185011301/25/19 18:50:31  5-MIN KSTC 260050Z 00000KT 10SM CLR M23/M27 A3018 780 71 -3800 000/00 RMK AO2 SLP267 T12281267
14926KSTC STC20190125185510601/25/19 18:55:31  5-MIN KSTC 260055Z 00000KT 10SM CLR M23/M27 A3019 780 71 -3800 000/00 RMK AO2 T12281267
14926KSTC STC20190125190010601/25/19 19:00:31  5-MIN KSTC 260100Z 00000KT 10SM CLR M23/M27 A3019 780 71 -3800 000/00 RMK AO2 T12281267
14926KSTC STC20190125190510601/25/19 19:05:31  5-MIN KSTC 260105Z 00000KT 10SM CLR M22/M26 A3019 780 71 -3700 000/00 RMK AO2 T12221261
14926KSTC STC20190125191010601/25/19 19:10:31  5-MIN KSTC 260110Z 00000KT 10SM CLR M22/M26 A3019 780 71 -3700 000/00 RMK AO2 T12221261
14926KSTC STC20190125191510601/25/19 19:15:31  5-MIN KSTC 260115Z 00000KT 10SM CLR M23/M27 A3019 780 71 -3800 000/00 RMK AO2 T12281267
14926KSTC STC20190125192010601/25/19 19:20:31  5-MIN KSTC 260120Z 00000KT 10SM CLR M23/M27 A3019 770 74 -3900 000/00 RMK AO2 T12331267
14926KSTC STC20190125192510601/25/19 19:25:31  5-MIN KSTC 260125Z 00000KT 10SM CLR M23/M27 A3019 780 71 -3800 000/00 RMK AO2 T12281267
14926KSTC STC20190125193010601/25/19 19:30:31  5-MIN KSTC 260130Z 00000KT 10SM CLR M23/M27 A3019 780 71 -3800 000/00 RMK AO2 T12281267
14926KSTC STC20190125193510601/25/19 19:35:31  5-MIN KSTC 260135Z 00000KT 10SM CLR M23/M27 A3019 780 71 -3800 000/00 RMK AO2 T12281267
14926KSTC STC20190125194010601/25/19 19:40:31  5-MIN KSTC 260140Z 00000KT 10SM CLR M23/M27 A3019 780 74 -3900 000/00 RMK AO2 T12331267
14926KSTC STC20190125194510601/25/19 19:45:31  5-MIN KSTC 260145Z 00000KT 10SM CLR M23/M27 A3019 780 74 -3900 000/00 RMK AO2 T12331267
14926KSTC STC20190125195011301/25/19 19:50:31  5-MIN KSTC 260150Z 00000KT 10SM CLR M24/M27 A3019 770 78 -4000 000/00 RMK AO2 SLP270 T12391267
14926KSTC STC20190125195510601/25/19 19:55:31  5-MIN KSTC 260155Z 00000KT 10SM CLR M24/M27 A3020 770 78 -4000 000/00 RMK AO2 T12391267
14926KSTC STC20190125200010601/25/19 20:00:31  5-MIN KSTC 260200Z 00000KT 10SM CLR M24/M27 A3020 770 78 -4000 000/00 RMK AO2 T12391267
14926KSTC STC20190125200510601/25/19 20:05:31  5-MIN KSTC 260205Z 00000KT 10SM CLR M24/M27 A3020 770 78 -4000 000/00 RMK AO2 T12391267
14926KSTC STC20190125201010601/25/19 20:10:31  5-MIN KSTC 260210Z 00000KT 10SM CLR M24/M27 A3019 780 78 -4000 000/00 RMK AO2 T12441272
14926KSTC STC20190125201510601/25/19 20:15:31  5-MIN KSTC 260215Z 00000KT 10SM CLR M24/M27 A3019 780 74 -4000 000/00 RMK AO2 T12391272
14926KSTC STC20190125202010601/25/19 20:20:31  5-MIN KSTC 260220Z 00000KT 10SM CLR M24/M27 A3019 770 78 -4000 000/00 RMK AO2 T12391267
14926KSTC STC20190125202510601/25/19 20:25:31  5-MIN KSTC 260225Z 00000KT 10SM CLR M24/M27 A3019 770 78 -4000 000/00 RMK AO2 T12441272
14926KSTC STC20190125203010601/25/19 20:30:31  5-MIN KSTC 260230Z 00000KT 10SM CLR M24/M27 A3019 770 78 -4000 000/00 RMK AO2 T12441272
14926KSTC STC20190125203510601/25/19 20:35:31  5-MIN KSTC 260235Z 00000KT 10SM CLR M24/M27 A3019 780 78 -4000 000/00 RMK AO2 T12441272
14926KSTC STC20190125204010601/25/19 20:40:31  5-MIN KSTC 260240Z 00000KT 10SM CLR M24/M27 A3019 780 78 -4000 000/00 RMK AO2 T12441272
14926KSTC STC20190125204510601/25/19 20:45:31  5-MIN KSTC 260245Z 00000KT 10SM CLR M24/M27 A3018 780 78 -4000 000/00 RMK AO2 T12441272
14926KSTC STC20190125205011901/25/19 20:50:31  5-MIN KSTC 260250Z 00000KT 10SM CLR M24/M27 A3018 780 78 -4000 000/00 RMK AO2 SLP266 T12441272 53014
14926KSTC STC20190125205510601/25/19 20:55:31  5-MIN KSTC 260255Z 00000KT 10SM CLR M24/M27 A3018 780 78 -4000 000/00 RMK AO2 T12441272
14926KSTC STC20190125210010601/25/19 21:00:31  5-MIN KSTC 260300Z 00000KT 10SM CLR M24/M27 A3018 780 78 -4000 000/00 RMK AO2 T12441272
14926KSTC STC20190125210510601/25/19 21:05:31  5-MIN KSTC 260305Z 00000KT 10SM CLR M24/M27 A3018 790 78 -4000 000/00 RMK AO2 T12441272
14926KSTC STC20190125211010601/25/19 21:10:31  5-MIN KSTC 260310Z 00000KT 10SM CLR M25/M28 A3018 790 78 -4100 000/00 RMK AO2 T12501278
14926KSTC STC20190125211510601/25/19 21:15:31  5-MIN KSTC 260315Z 00000KT 10SM CLR M25/M28 A3018 790 78 -4100 000/00 RMK AO2 T12501278
14926KSTC STC20190125212010601/25/19 21:20:31  5-MIN KSTC 260320Z 00000KT 10SM CLR M25/M28 A3018 790 78 -4100 000/00 RMK AO2 T12501278
14926KSTC STC20190125212510601/25/19 21:25:31  5-MIN KSTC 260325Z 00000KT 10SM CLR M25/M28 A3017 790 78 -4100 000/00 RMK AO2 T12501278
14926KSTC STC20190125213010601/25/19 21:30:31  5-MIN KSTC 260330Z 00000KT 10SM CLR M25/M28 A3017 790 78 -4100 000/00 RMK AO2 T12501278
14926KSTC STC20190125213510601/25/19 21:35:31  5-MIN KSTC 260335Z 00000KT 10SM CLR M26/M28 A3017 800 82 -4200 000/00 RMK AO2 T12561278
14926KSTC STC20190125214010601/25/19 21:40:31  5-MIN KSTC 260340Z 00000KT 10SM CLR M26/M28 A3017 800 78 -4200 000/00 RMK AO2 T12561283
14926KSTC STC20190125214510601/25/19 21:45:31  5-MIN KSTC 260345Z 18003KT 10SM CLR M26/M29 A3017 800 78 -4200 180/03 RMK AO2 T12611289
14926KSTC STC20190125215011301/25/19 21:50:31  5-MIN KSTC 260350Z 00000KT 10SM CLR M27/M29 A3016 800 82 -4300 000/00 RMK AO2 SLP259 T12671289
14926KSTC STC20190125215510601/25/19 21:55:31  5-MIN KSTC 260355Z 00000KT 10SM CLR M26/M28 A3016 810 82 -4200 000/00 RMK AO2 T12611283
14926KSTC STC20190125220010601/25/19 22:00:31  5-MIN KSTC 260400Z 00000KT 10SM CLR M26/M28 A3016 810 78 -4200 000/00 RMK AO2 T12561283
14926KSTC STC20190125220510601/25/19 22:05:31  5-MIN KSTC 260405Z 00000KT 10SM CLR M26/M28 A3016 800 82 -4200 000/00 RMK AO2 T12611283
14926KSTC STC20190125221010601/25/19 22:10:31  5-MIN KSTC 260410Z 00000KT 10SM CLR M26/M28 A3016 810 82 -4200 000/00 RMK AO2 T12611283
14926KSTC STC20190125221510601/25/19 22:15:31  5-MIN KSTC 260415Z 00000KT 10SM CLR M26/M28 A3016 810 82 -4200 000/00 RMK AO2 T12611283
14926KSTC STC20190125222010601/25/19 22:20:31  5-MIN KSTC 260420Z 00000KT 10SM CLR M27/M29 A3015 810 82 -4300 000/00 RMK AO2 T12671289
14926KSTC STC20190125222510601/25/19 22:25:31  5-MIN KSTC 260425Z 00000KT 10SM CLR M27/M29 A3015 810 78 -4300 000/00 RMK AO2 T12671294
14926KSTC STC20190125223010601/25/19 22:30:31  5-MIN KSTC 260430Z 00000KT 10SM CLR M27/M29 A3015 810 78 -4300 000/00 RMK AO2 T12671294
14926KSTC STC20190125223510601/25/19 22:35:31  5-MIN KSTC 260435Z 00000KT 10SM CLR M27/M29 A3015 820 78 -4300 000/00 RMK AO2 T12671294
14926KSTC STC20190125224010601/25/19 22:40:31  5-MIN KSTC 260440Z 00000KT 10SM CLR M27/M29 A3015 820 78 -4300 000/00 RMK AO2 T12671294
14926KSTC STC20190125224510601/25/19 22:45:31  5-MIN KSTC 260445Z 00000KT 10SM CLR M27/M29 A3015 820 78 -4300 000/00 RMK AO2 T12671294
14926KSTC STC20190125225011301/25/19 22:50:31  5-MIN KSTC 260450Z 00000KT 10SM CLR M27/M29 A3014 820 78 -4300 000/00 RMK AO2 SLP252 T12671294
14926KSTC STC20190125225510601/25/19 22:55:31  5-MIN KSTC 260455Z 00000KT 10SM CLR M27/M29 A3015 820 78 -4300 000/00 RMK AO2 T12671294
14926KSTC STC20190125230011101/25/19 23:00:31  5-MIN KSTC 260500Z AUTO 00000KT 10SM CLR M27/M30 A3015 820 78 -4400 000/00 RMK AO2 T12721300
14926KSTC STC20190125230511101/25/19 23:05:31  5-MIN KSTC 260505Z AUTO 00000KT 10SM CLR M27/M30 A3015 810 78 -4400 000/00 RMK AO2 T12721300
14926KSTC STC20190125231011101/25/19 23:10:31  5-MIN KSTC 260510Z AUTO 00000KT 10SM CLR M27/M30 A3015 810 78 -4400 000/00 RMK AO2 T12721300
14926KSTC STC20190125231511101/25/19 23:15:31  5-MIN KSTC 260515Z AUTO 00000KT 10SM CLR M27/M30 A3015 810 74 -4300 000/00 RMK AO2 T12671300
14926KSTC STC20190125232011101/25/19 23:20:31  5-MIN KSTC 260520Z AUTO 00000KT 10SM CLR M27/M29 A3015 810 78 -4300 000/00 RMK AO2 T12671294
14926KSTC STC20190125232511101/25/19 23:25:31  5-MIN KSTC 260525Z AUTO 00000KT 10SM CLR M27/M30 A3015 810 78 -4400 000/00 RMK AO2 T12721300
14926KSTC STC20190125233011101/25/19 23:30:31  5-MIN KSTC 260530Z AUTO 00000KT 10SM CLR M27/M30 A3015 810 78 -4400 000/00 RMK AO2 T12721300
14926KSTC STC20190125233511101/25/19 23:35:31  5-MIN KSTC 260535Z AUTO 00000KT 10SM CLR M27/M30 A3015 810 78 -4400 000/00 RMK AO2 T12721300
14926KSTC STC20190125234011101/25/19 23:40:31  5-MIN KSTC 260540Z AUTO 00000KT 10SM CLR M28/M30 A3015 820 82 -4500 000/00 RMK AO2 T12781300
14926KSTC STC20190125234511101/25/19 23:45:31  5-MIN KSTC 260545Z AUTO 00000KT 10SM CLR M27/M30 A3015 820 78 -4400 000/00 RMK AO2 T12721300
14926KSTC STC20190125235014601/25/19 23:50:31  5-MIN KSTC 260550Z AUTO 00000KT 10SM CLR M27/M30 A3015 820 78 -4400 000/00 RMK AO2 SLP251 T12721300 11211 21278 411721289 50005
14926KSTC STC20190125235511101/25/19 23:55:31  5-MIN KSTC 260555Z AUTO 00000KT 10SM CLR M27/M30 A3015 820 78 -4400 000/00 RMK AO2 T12721300
14926KSTC STC20190126000011101/26/19 00:00:31  5-MIN KSTC 260600Z AUTO 00000KT 10SM CLR M27/M30 A3015 820 78 -4400 000/00 RMK AO2 T12721300
14926KSTC STC20190126000511101/26/19 00:05:31  5-MIN KSTC 260605Z AUTO 00000KT 10SM CLR M27/M29 A3015 810 82 -4400 000/00 RMK AO2 T12721294
14926KSTC STC20190126001011401/26/19 00:10:31  5-MIN KSTC 260610Z AUTO 00000KT 10SM FEW120 M27/M29 A3015 810 78 -4300 000/00 RMK AO2 T12671294
14926KSTC STC20190126001511401/26/19 00:15:31  5-MIN KSTC 260615Z AUTO 00000KT 10SM FEW110 M27/M29 A3015 820 78 -4300 000/00 RMK AO2 T12671294
14926KSTC STC20190126002011401/26/19 00:20:31  5-MIN KSTC 260620Z AUTO 00000KT 10SM FEW110 M27/M29 A3015 820 78 -4300 000/00 RMK AO2 T12671294
14926KSTC STC20190126002511401/26/19 00:25:31  5-MIN KSTC 260625Z AUTO 00000KT 10SM FEW110 M27/M29 A3015 820 82 -4300 000/00 RMK AO2 T12671289
14926KSTC STC20190126003011401/26/19 00:30:31  5-MIN KSTC 260630Z AUTO 00000KT 10SM FEW110 M27/M29 A3014 820 82 -4300 000/00 RMK AO2 T12671289
14926KSTC STC20190126003511401/26/19 00:35:31  5-MIN KSTC 260635Z AUTO 00000KT 10SM FEW110 M27/M29 A3014 820 78 -4300 000/00 RMK AO2 T12671294
14926KSTC STC20190126004011401/26/19 00:40:31  5-MIN KSTC 260640Z AUTO 00000KT 10SM FEW110 M26/M29 A3014 820 78 -4200 000/00 RMK AO2 T12611289
14926KSTC STC20190126004511101/26/19 00:45:31  5-MIN KSTC 260645Z AUTO 00000KT 10SM CLR M27/M29 A3014 820 78 -4300 000/00 RMK AO2 T12671294
14926KSTC STC20190126005011801/26/19 00:50:31  5-MIN KSTC 260650Z AUTO 00000KT 10SM CLR M26/M29 A3014 830 74 -4200 000/00 RMK AO2 SLP247 T12611294
14926KSTC STC20190126005511101/26/19 00:55:31  5-MIN KSTC 260655Z AUTO 00000KT 10SM CLR M26/M29 A3013 830 78 -4200 000/00 RMK AO2 T12611289
14926KSTC STC20190126010011101/26/19 01:00:31  5-MIN KSTC 260700Z AUTO 00000KT 10SM CLR M26/M29 A3013 830 78 -4200 000/00 RMK AO2 T12611289
14926KSTC STC20190126010511101/26/19 01:05:31  5-MIN KSTC 260705Z AUTO 00000KT 10SM CLR M26/M29 A3013 830 78 -4200 000/00 RMK AO2 T12611289
14926KSTC STC20190126011011101/26/19 01:10:31  5-MIN KSTC 260710Z AUTO 00000KT 10SM CLR M26/M29 A3013 830 78 -4200 000/00 RMK AO2 T12611289
14926KSTC STC20190126011511101/26/19 01:15:31  5-MIN KSTC 260715Z AUTO 00000KT 10SM CLR M26/M29 A3013 830 78 -4200 000/00 RMK AO2 T12611289
14926KSTC STC20190126012011401/26/19 01:20:31  5-MIN KSTC 260720Z AUTO 00000KT 10SM FEW110 M26/M29 A3013 830 78 -4200 000/00 RMK AO2 T12611289
14926KSTC STC20190126012511401/26/19 01:25:31  5-MIN KSTC 260725Z AUTO 00000KT 10SM SCT110 M26/M29 A3013 840 78 -4200 000/00 RMK AO2 T12611289
14926KSTC STC20190126013011401/26/19 01:30:31  5-MIN KSTC 260730Z AUTO 00000KT 10SM SCT110 M26/M29 A3012 840 78 -4200 000/00 RMK AO2 T12611289
14926KSTC STC20190126013511401/26/19 01:35:31  5-MIN KSTC 260735Z AUTO 00000KT 10SM SCT110 M26/M29 A3012 840 78 -4200 000/00 RMK AO2 T12611289
14926KSTC STC20190126014011401/26/19 01:40:31  5-MIN KSTC 260740Z AUTO 00000KT 10SM BKN110 M26/M29 A3012 840 78 -4200 000/00 RMK AO2 T12611289
14926KSTC STC20190126014511401/26/19 01:45:31  5-MIN KSTC 260745Z AUTO 00000KT 10SM BKN100 M26/M29 A3012 840 78 -4200 000/00 RMK AO2 T12611289
14926KSTC STC20190126015012101/26/19 01:50:31  5-MIN KSTC 260750Z AUTO 00000KT 10SM SCT110 M26/M29 A3012 850 78 -4200 000/00 RMK AO2 SLP240 T12611289
14926KSTC STC20190126015511401/26/19 01:55:31  5-MIN KSTC 260755Z AUTO 00000KT 10SM SCT110 M26/M29 A3011 850 78 -4200 000/00 RMK AO2 T12611289
14926KSTC STC20190126020011401/26/19 02:00:31  5-MIN KSTC 260800Z AUTO 00000KT 10SM SCT110 M26/M29 A3011 850 78 -4200 000/00 RMK AO2 T12611289
14926KSTC STC20190126020511401/26/19 02:05:31  5-MIN KSTC 260805Z AUTO 00000KT 10SM SCT110 M26/M29 A3011 850 78 -4200 000/00 RMK AO2 T12611289
14926KSTC STC20190126021011401/26/19 02:10:31  5-MIN KSTC 260810Z AUTO 00000KT 10SM FEW110 M26/M29 A3011 850 78 -4200 000/00 RMK AO2 T12611289
14926KSTC STC20190126021511401/26/19 02:15:31  5-MIN KSTC 260815Z AUTO 00000KT 10SM FEW110 M26/M29 A3011 860 78 -4200 000/00 RMK AO2 T12611289
14926KSTC STC20190126022011401/26/19 02:20:31  5-MIN KSTC 260820Z AUTO 00000KT 10SM FEW110 M26/M29 A3011 860 78 -4200 000/00 RMK AO2 T12611289
14926KSTC STC20190126022511401/26/19 02:25:31  5-MIN KSTC 260825Z AUTO 14003KT 10SM FEW110 M27/M29 A3010 860 82 -4200 140/03 RMK AO2 T12671289
14926KSTC STC20190126023011101/26/19 02:30:31  5-MIN KSTC 260830Z AUTO 15003KT 10SM CLR M27/M29 A3010 860 82 -4200 140/03 RMK AO2 T12671289
14926KSTC STC20190126023511101/26/19 02:35:31  5-MIN KSTC 260835Z AUTO 15004KT 10SM CLR M26/M29 A3009 870 78 -4200 140/04 RMK AO2 T12611289
14926KSTC STC20190126024011401/26/19 02:40:31  5-MIN KSTC 260840Z AUTO 15004KT 10SM FEW110 M26/M29 A3009 870 78 -4100 150/04 RMK AO2 T12611289
14926KSTC STC20190126024511401/26/19 02:45:31  5-MIN KSTC 260845Z AUTO 14005KT 10SM FEW120 M26/M28 A3009 870 82 -4100 140/05 RMK AO2 T12611283
14926KSTC STC20190126025012701/26/19 02:50:31  5-MIN KSTC 260850Z AUTO 15004KT 10SM SCT120 M26/M28 A3009 870 82 -4100 150/04 RMK AO2 SLP230 T12611283 56013
14926KSTC STC20190126025511401/26/19 02:55:31  5-MIN KSTC 260855Z AUTO 14004KT 10SM BKN110 M26/M28 A3008 880 78 -4100 140/04 RMK AO2 T12561283
14926KSTC STC20190126030011401/26/19 03:00:31  5-MIN KSTC 260900Z AUTO 15003KT 10SM BKN110 M26/M28 A3008 880 82 -4100 140/03 RMK AO2 T12561278
14926KSTC STC20190126030511401/26/19 03:05:31  5-MIN KSTC 260905Z AUTO 15003KT 10SM BKN110 M26/M28 A3008 880 82 -4100 150/03 RMK AO2 T12561278
14926KSTC STC20190126031011401/26/19 03:10:31  5-MIN KSTC 260910Z AUTO 15003KT 10SM BKN110 M26/M28 A3008 880 82 -4100 150/03 RMK AO2 T12561278
14926KSTC STC20190126031511401/26/19 03:15:31  5-MIN KSTC 260915Z AUTO 17003KT 10SM BKN110 M26/M28 A3007 890 82 -4000 170/03 RMK AO2 T12561278
14926KSTC STC20190126032011401/26/19 03:20:31  5-MIN KSTC 260920Z AUTO 16003KT 10SM BKN110 M26/M28 A3007 890 82 -4000 160/03 RMK AO2 T12561278
14926KSTC STC20190126032511401/26/19 03:25:31  5-MIN KSTC 260925Z AUTO 16003KT 10SM BKN110 M26/M28 A3007 890 82 -4000 160/03 RMK AO2 T12561278
14926KSTC STC20190126033011401/26/19 03:30:31  5-MIN KSTC 260930Z AUTO 15004KT 10SM BKN110 M25/M28 A3006 900 78 -4000 150/04 RMK AO2 T12501278
14926KSTC STC20190126033511401/26/19 03:35:31  5-MIN KSTC 260935Z AUTO 15003KT 10SM BKN110 M25/M28 A3006 900 78 -4000 150/03 RMK AO2 T12501278
14926KSTC STC20190126034011401/26/19 03:40:31  5-MIN KSTC 260940Z AUTO 15004KT 10SM BKN110 M26/M28 A3005 900 82 -4000 150/04 RMK AO2 T12561278
14926KSTC STC20190126034511401/26/19 03:45:31  5-MIN KSTC 260945Z AUTO 15004KT 10SM BKN110 M26/M28 A3005 910 82 -4000 150/04 RMK AO2 T12561278
14926KSTC STC20190126035012101/26/19 03:50:31  5-MIN KSTC 260950Z AUTO 15004KT 10SM BKN110 M25/M28 A3004 910 78 -3900 150/04 RMK AO2 SLP213 T12501278
14926KSTC STC20190126035512101/26/19 03:55:31  5-MIN KSTC 260955Z AUTO 14005KT 10SM BKN100 M25/M27 A3003 920 82 -3900 140/05 RMK AO2 PRESFR T12501272
14926KSTC STC20190126040011401/26/19 04:00:31  5-MIN KSTC 261000Z AUTO 15005KT 10SM BKN100 M24/M27 A3003 920 78 -3800 150/05 RMK AO2 T12441272
14926KSTC STC20190126040511401/26/19 04:05:31  5-MIN KSTC 261005Z AUTO 15005KT 10SM OVC100 M24/M27 A3003 930 78 -3800 150/05 RMK AO2 T12441272
14926KSTC STC20190126041011401/26/19 04:10:31  5-MIN KSTC 261010Z AUTO 15005KT 10SM OVC100 M24/M27 A3003 930 82 -3800 150/05 RMK AO2 T12441267
14926KSTC STC20190126041511401/26/19 04:15:31  5-MIN KSTC 261015Z AUTO 14004KT 10SM OVC100 M24/M27 A3003 930 78 -3800 140/04 RMK AO2 T12391267
14926KSTC STC20190126042011401/26/19 04:20:31  5-MIN KSTC 261020Z AUTO 15004KT 10SM BKN100 M24/M27 A3002 940 78 -3800 140/04 RMK AO2 T12391267
14926KSTC STC20190126042511401/26/19 04:25:31  5-MIN KSTC 261025Z AUTO 15005KT 10SM BKN100 M24/M26 A3002 940 82 -3700 150/05 RMK AO2 T12391261
14926KSTC STC20190126043011401/26/19 04:30:31  5-MIN KSTC 261030Z AUTO 15004KT 10SM BKN100 M24/M26 A3001 940 82 -3700 150/04 RMK AO2 T12391261
14926KSTC STC20190126043511401/26/19 04:35:31  5-MIN KSTC 261035Z AUTO 15004KT 10SM BKN100 M23/M26 A3002 940 78 -3700 150/04 RMK AO2 T12331261
14926KSTC STC20190126044011401/26/19 04:40:31  5-MIN KSTC 261040Z AUTO 16004KT 10SM BKN100 M23/M26 A3002 940 78 -3700 160/04 RMK AO2 T12331261
14926KSTC STC20190126044511401/26/19 04:45:31  5-MIN KSTC 261045Z AUTO 17003KT 10SM BKN100 M23/M26 A3002 940 78 -3700 170/03 RMK AO2 T12331261
14926KSTC STC20190126045012101/26/19 04:50:31  5-MIN KSTC 261050Z AUTO 17003KT 10SM BKN095 M23/M26 A3002 940 82 -3700 170/03 RMK AO2 SLP205 T12331256
14926KSTC STC20190126045511401/26/19 04:55:31  5-MIN KSTC 261055Z AUTO 16003KT 10SM BKN095 M23/M26 A3001 940 78 -3600 160/03 RMK AO2 T12281256
14926KSTC STC20190126050012101/26/19 05:00:31  5-MIN KSTC 261100Z AUTO 16003KT 10SM FEW075 OVC095 M23/M25 A3001 950 82 -3600 160/03 RMK AO2 T12281250
14926KSTC STC20190126050512101/26/19 05:05:31  5-MIN KSTC 261105Z AUTO 16003KT 10SM FEW075 OVC095 M23/M25 A3000 950 82 -3600 160/03 RMK AO2 T12281250
14926KSTC STC20190126051011401/26/19 05:10:31  5-MIN KSTC 261110Z AUTO 00000KT 10SM BKN095 M23/M25 A3000 950 82 -3600 000/00 RMK AO2 T12281250
14926KSTC STC20190126051512101/26/19 05:15:31  5-MIN KSTC 261115Z AUTO 00000KT 10SM SCT090 BKN110 M23/M25 A3000 950 82 -3600 000/00 RMK AO2 T12281250
14926KSTC STC20190126052012101/26/19 05:20:31  5-MIN KSTC 261120Z AUTO 00000KT 10SM BKN085 BKN110 M23/M25 A3000 950 82 -3600 000/00 RMK AO2 T12281250
14926KSTC STC20190126052512101/26/19 05:25:31  5-MIN KSTC 261125Z AUTO 00000KT 10SM BKN085 BKN110 M23/M25 A3000 950 82 -3600 000/00 RMK AO2 T12281250
14926KSTC STC20190126053012101/26/19 05:30:31  5-MIN KSTC 261130Z AUTO 16003KT 10SM BKN080 BKN100 M23/M26 A3000 950 78 -3600 160/03 RMK AO2 T12281256
14926KSTC STC20190126053512101/26/19 05:35:31  5-MIN KSTC 261135Z AUTO 17004KT 10SM BKN080 BKN090 M23/M26 A3000 960 78 -3600 170/04 RMK AO2 T12281256
14926KSTC STC20190126054011401/26/19 05:40:31  5-MIN KSTC 261140Z AUTO 17004KT 10SM BKN085 M23/M25 A3000 960 82 -3600 170/04 RMK AO2 T12281250
14926KSTC STC20190126054512801/26/19 05:45:31  5-MIN KSTC 261145Z AUTO 17004KT 10SM SCT080 SCT090 BKN110 M23/M25 A2999 960 82 -3600 170/04 RMK AO2 T12281250
14926KSTC STC20190126055015301/26/19 05:50:31  5-MIN KSTC 261150Z AUTO 17003KT 10SM SCT080 BKN090 BKN110 M23/M25 A2999 960 82 -3600 170/03 RMK AO2 SLP197 T12281250 11228 21272 58020
14926KSTC STC20190126055512101/26/19 05:55:31  5-MIN KSTC 261155Z AUTO 15004KT 10SM FEW075 SCT090 M23/M25 A2999 970 82 -3600 150/04 RMK AO2 T12281250
14926KSTC STC20190126060011401/26/19 06:00:31  5-MIN KSTC 261200Z AUTO 15004KT 10SM FEW090 M23/M25 A2998 970 82 -3600 150/04 RMK AO2 T12281250
14926KSTC STC20190126060511401/26/19 06:05:31  5-MIN KSTC 261205Z AUTO 15004KT 10SM FEW090 M23/M25 A2998 970 82 -3500 150/04 RMK AO2 T12281250
14926KSTC STC20190126061011401/26/19 06:10:31  5-MIN KSTC 261210Z AUTO 15005KT 10SM FEW090 M23/M25 A2997 980 82 -3500 150/05 RMK AO2 T12281250
14926KSTC STC20190126061511401/26/19 06:15:31  5-MIN KSTC 261215Z AUTO 14005KT 10SM FEW100 M23/M25 A2997 980 82 -3500 140/05 RMK AO2 T12281250
14926KSTC STC20190126062011401/26/19 06:20:31  5-MIN KSTC 261220Z AUTO 13004KT 10SM SCT100 M22/M25 A2997 980 78 -3500 130/04 RMK AO2 T12221250
14926KSTC STC20190126062511401/26/19 06:25:31  5-MIN KSTC 261225Z AUTO 13003KT 10SM BKN090 M22/M24 A2997 980 82 -3500 130/03 RMK AO2 T12221244
14926KSTC STC20190126063012101/26/19 06:30:31  5-MIN KSTC 261230Z AUTO 13004KT 10SM SCT075 BKN095 M22/M24 A2997 980 79 -3400 130/04 RMK AO2 T12171244
14926KSTC STC20190126063512101/26/19 06:35:31  5-MIN KSTC 261235Z AUTO 12003KT 10SM BKN080 BKN100 M22/M24 A2997 980 79 -3400 120/03 RMK AO2 T12171244
14926KSTC STC20190126064012101/26/19 06:40:31  5-MIN KSTC 261240Z AUTO 10003KT 10SM SCT075 OVC090 M22/M24 A2997 980 79 -3400 100/03 RMK AO2 T12171244
14926KSTC STC20190126064512101/26/19 06:45:31  5-MIN KSTC 261245Z AUTO 10003KT 10SM BKN075 OVC090 M22/M24 A2997 980 79 -3400 090/03 RMK AO2 T12171244
14926KSTC STC20190126065012301/26/19 06:50:31  5-MIN KSTC 261250Z 12003KT 10SM BKN075 OVC085 M22/M24 A2997 980 79 -3400 110/03 RMK AO2 SLP189 T12171244
14926KSTC STC20190126065512301/26/19 06:55:31  5-MIN KSTC 261255Z 13004KT 10SM FEW060 BKN075 OVC085 M22/M24 A2997 980 82 -3400 120/04 RMK AO2 T12171239
14926KSTC STC20190126070012301/26/19 07:00:31  5-MIN KSTC 261300Z 13004KT 10SM SCT060 BKN075 OVC085 M21/M24 A2997 980 79 -3300 130/04 RMK AO2 T12111239
14926KSTC STC20190126070511601/26/19 07:05:31  5-MIN KSTC 261305Z 15004KT 10SM BKN050 OVC075 M21/M24 A2997 980 79 -3300 140/04 RMK AO2 T12111239
14926KSTC STC20190126071013101/26/19 07:10:31  5-MIN KSTC 261310Z 16004KT 5SM -SN BKN041 OVC070 M21/M24 A2997 980 79 -3300 160/04 RMK AO2 SNB08 P0000 T12111239
14926KSTC STC20190126071513401/26/19 07:15:31  5-MIN KSTC 261315Z 16005KT 2SM -SN BR BKN034 OVC070 M21/M23 A2996 990 83 -3300 160/05 RMK AO2 SNB08 P0000 T12111233
14926KSTC STC20190126072013101/26/19 07:20:31  5-MIN KSTC 261320Z 15005KT 1 1/2SM -SN BR OVC032 M21/M23 A2996 990 83 -3300 150/05 RMK AO2 SNB08 P0000 T12111233
14926KSTC STC20190126072512901/26/19 07:25:31  5-MIN KSTC 261325Z 15007KT 1 1/2SM -SN OVC030 M21/M23 A2995 1000 79 -3200 150/07 RMK AO2 SNB08 P0000 T12061233
14926KSTC STC20190126073012501/26/19 07:30:31  5-MIN KSTC 261330Z 15006KT 2SM -SN OVC028 M21/M23 A2995 1000 79 -3200 150/06 RMK AO2 SNB08 P0000 T12061233
14926KSTC STC20190126073512701/26/19 07:35:31  5-MIN KSTC 261335Z 15006KT 2SM -SN BR OVC026 M21/M23 A2996 990 83 -3200 150/06 RMK AO2 SNB08 P0001 T12061228
14926KSTC STC20190126074013201/26/19 07:40:31  5-MIN KSTC 261340Z 15005KT 1 3/4SM -SN BR OVC026 M21/M23 A2995 1000 83 -3200 150/05 RMK AO2 SNB08 P0001 T12061228
14926KSTC STC20190126074512801/26/19 07:45:31  5-MIN KSTC 261345Z 15005KT 2SM -SN BR OVC030 M21/M23 A2995 1000 83 -3200 150/05 RMK AO2 SNB08 P0001 T12061228
14926KSTC STC20190126075013601/26/19 07:50:31  5-MIN KSTC 261350Z 14004KT 2 1/2SM -SN OVC032 M20/M23 A2995 1000 79 -3100 140/04 RMK AO2 SNB08 SLP184 P0001 T12001228
14926KSTC STC20190126075511901/26/19 07:55:31  5-MIN KSTC 261355Z 14004KT 2SM -SN OVC034 M20/M23 A2995 1000 79 -3100 130/04 RMK AO2 P0000 T12001228
14926KSTC STC20190126080012301/26/19 08:00:31  5-MIN KSTC 261400Z 12003KT 1 3/4SM -SN OVC036 M20/M23 A2995 1000 79 -3100 120/03 RMK AO2 P0000 T12001228
14926KSTC STC20190126080512601/26/19 08:05:31  5-MIN KSTC 261405Z 00000KT 1 3/4SM -SN BR OVC036 M20/M22 A2995 1000 83 -3100 000/00 RMK AO2 P0000 T12001222
14926KSTC STC20190126081012601/26/19 08:10:31  5-MIN KSTC 261410Z 11003KT 1 1/4SM -SN BR OVC034 M20/M22 A2994 1000 83 -3100 110/03 RMK AO2 P0000 T12001222
14926KSTC STC20190126081512601/26/19 08:15:31  5-MIN KSTC 261415Z 12004KT 1 1/4SM -SN BR OVC034 M20/M22 A2994 1010 83 -3100 120/04 RMK AO2 P0000 T12001222
14926KSTC STC20190126082012601/26/19 08:20:31  5-MIN KSTC 261420Z 11003KT 1 1/4SM -SN BR OVC034 M20/M22 A2994 1010 83 -3100 110/03 RMK AO2 P0000 T12001222
14926KSTC STC20190126082512601/26/19 08:25:31  5-MIN KSTC 261425Z 12004KT 1 1/2SM -SN BR OVC032 M20/M22 A2994 1010 83 -3100 120/04 RMK AO2 P0000 T12001222
14926KSTC STC20190126083012601/26/19 08:30:31  5-MIN KSTC 261430Z 13005KT 1 1/2SM -SN BR OVC032 M20/M22 A2993 1010 83 -3100 130/05 RMK AO2 P0000 T12001222
14926KSTC STC20190126083512601/26/19 08:35:31  5-MIN KSTC 261435Z 14004KT 1 1/2SM -SN BR OVC030 M20/M22 A2993 1010 83 -3100 140/04 RMK AO2 P0000 T12001222
14926KSTC STC20190126084012301/26/19 08:40:31  5-MIN KSTC 261440Z 14005KT 1 1/2SM -SN OVC030 M19/M22 A2993 1020 79 -3000 140/05 RMK AO2 P0000 T11941222
14926KSTC STC20190126084512301/26/19 08:45:31  5-MIN KSTC 261445Z 14006KT 1 1/2SM -SN OVC030 M19/M22 A2993 1020 79 -3000 140/06 RMK AO2 P0000 T11941222
14926KSTC STC20190126085014201/26/19 08:50:31  5-MIN KSTC 261450Z 15006KT 1 1/2SM -SN OVC030 M19/M22 A2992 1020 79 -3000 150/06 RMK AO2 SLP174 P0000 60001 T11941222 56032
14926KSTC STC20190126085512601/26/19 08:55:31  5-MIN KSTC 261455Z 14006KT 1 1/2SM -SN BR OVC030 M19/M22 A2992 1030 83 -3000 140/06 RMK AO2 P0000 T11941217
14926KSTC STC20190126090012601/26/19 09:00:31  5-MIN KSTC 261500Z 14006KT 1 3/4SM -SN BR OVC030 M19/M22 A2992 1030 83 -3000 140/06 RMK AO2 P0001 T11941217
14926KSTC STC20190126090512201/26/19 09:05:31  5-MIN KSTC 261505Z 15006KT 2SM -SN BR OVC032 M19/M22 A2992 1030 83 -3000 150/06 RMK AO2 P0001 T11941217
14926KSTC STC20190126091012601/26/19 09:10:31  5-MIN KSTC 261510Z 15006KT 2 1/2SM -SN BR OVC032 M19/M22 A2992 1030 83 -3000 150/06 RMK AO2 P0001 T11941217
14926KSTC STC20190126091512301/26/19 09:15:31  5-MIN KSTC 261515Z 14006KT 2 1/2SM -SN OVC032 M19/M22 A2992 1030 79 -2900 140/06 RMK AO2 P0001 T11891217
14926KSTC STC20190126092012301/26/19 09:20:31  5-MIN KSTC 261520Z 14006KT 2 1/2SM -SN OVC032 M19/M22 A2991 1030 79 -2900 140/06 RMK AO2 P0001 T11891217
14926KSTC STC20190126092514001/26/19 09:25:31  5-MIN KSTC 261525Z 15006KT 2 1/2SM -SN BR BKN032 BKN045 OVC055 M19/M21 A2991 1040 83 -2900 150/06 RMK AO2 P0001 T11891211
14926KSTC STC20190126093012901/26/19 09:30:31  5-MIN KSTC 261530Z 15007KT 3SM -SN BR BKN034 OVC045 M19/M21 A2991 1040 83 -2900 150/07 RMK AO2 P0001 T11891211
14926KSTC STC20190126093512901/26/19 09:35:31  5-MIN KSTC 261535Z 15006KT 4SM -SN BR BKN034 OVC043 M19/M21 A2991 1040 83 -2900 150/06 RMK AO2 P0001 T11891211
14926KSTC STC20190126094013301/26/19 09:40:31  5-MIN KSTC 261540Z 15006KT 3SM -SN BKN035 BKN043 OVC055 M18/M21 A2991 1040 79 -2800 140/06 RMK AO2 P0001 T11831211
14926KSTC STC20190126094512601/26/19 09:45:31  5-MIN KSTC 261545Z 14006KT 3SM -SN BKN037 OVC050 M18/M21 A2991 1040 79 -2800 140/06 RMK AO2 P0001 T11831211
14926KSTC STC20190126095013301/26/19 09:50:31  5-MIN KSTC 261550Z 14007KT 3SM -SN BKN039 OVC050 M18/M21 A2991 1040 79 -2800 140/07 RMK AO2 SLP168 P0001 T11831211
14926KSTC STC20190126095512901/26/19 09:55:31  5-MIN KSTC 261555Z 13005KT 4SM -SN BR BKN039 OVC050 M18/M21 A2991 1040 83 -2800 130/05 RMK AO2 P0000 T11831206
14926KSTC STC20190126100012901/26/19 10:00:31  5-MIN KSTC 261600Z 13006KT 3SM -SN BR BKN039 OVC050 M18/M21 A2991 1040 83 -2800 130/06 RMK AO2 P0000 T11831206
14926KSTC STC20190126100512901/26/19 10:05:31  5-MIN KSTC 261605Z 13005KT 3SM -SN BR BKN039 OVC050 M18/M21 A2991 1040 83 -2900 120/05 RMK AO2 P0000 T11831206
14926KSTC STC20190126101012601/26/19 10:10:31  5-MIN KSTC 261610Z 14005KT 3SM -SN BKN041 OVC050 M18/M21 A2991 1040 79 -2800 140/05 RMK AO2 P0000 T11781206
14926KSTC STC20190126101512601/26/19 10:15:31  5-MIN KSTC 261615Z 15003KT 4SM -SN BKN041 OVC050 M18/M21 A2991 1030 79 -2800 150/03 RMK AO2 P0000 T11781206
14926KSTC STC20190126102012901/26/19 10:20:31  5-MIN KSTC 261620Z 18004KT 4SM -SN BR BKN041 OVC050 M18/M20 A2991 1030 83 -2800 180/04 RMK AO2 P0000 T11781200
14926KSTC STC20190126102512901/26/19 10:25:31  5-MIN KSTC 261625Z 18003KT 4SM -SN BR BKN040 OVC050 M18/M20 A2992 1030 83 -2800 180/03 RMK AO2 P0000 T11781200
14926KSTC STC20190126103012201/26/19 10:30:31  5-MIN KSTC 261630Z 18003KT 3SM -SN BR OVC040 M18/M20 A2992 1030 83 -2800 180/03 RMK AO2 P0000 T11781200
14926KSTC STC20190126103512301/26/19 10:35:31  5-MIN KSTC 261635Z 20004KT 2 1/2SM -SN OVC040 M17/M20 A2992 1030 79 -2700 190/04 RMK AO2 P0000 T11721200
14926KSTC STC20190126104012201/26/19 10:40:31  5-MIN KSTC 261640Z 20003KT 2SM -SN BR OVC038 M17/M19 A2992 1020 83 -2700 200/03 RMK AO2 P0000 T11721194
14926KSTC STC20190126104512301/26/19 10:45:31  5-MIN KSTC 261645Z 21003KT 2 1/2SM -SN OVC036 M17/M20 A2992 1020 79 -2700 210/03 RMK AO2 P0000 T11721200
14926KSTC STC20190126105013001/26/19 10:50:31  5-MIN KSTC 261650Z 20004KT 2 1/2SM -SN OVC036 M17/M20 A2992 1020 79 -2700 200/04 RMK AO2 SLP174 P0000 T11721200
14926KSTC STC20190126105512301/26/19 10:55:31  5-MIN KSTC 261655Z 21004KT 2 1/2SM -SN OVC036 M17/M20 A2993 1020 79 -2700 210/04 RMK AO2 P0000 T11721200
14926KSTC STC20190126110012301/26/19 11:00:31  5-MIN KSTC 261700Z 22004KT 2 1/2SM -SN OVC036 M17/M20 A2993 1020 79 -2700 210/04 RMK AO2 P0000 T11721200
14926KSTC STC20190126110512301/26/19 11:05:31  5-MIN KSTC 261705Z 20003KT 2 1/2SM -SN OVC035 M17/M19 A2993 1020 79 -2600 200/03 RMK AO2 P0000 T11671194
14926KSTC STC20190126111011901/26/19 11:10:31  5-MIN KSTC 261710Z 21003KT 3SM -SN OVC035 M17/M19 A2992 1020 79 -2600 210/03 RMK AO2 P0000 T11671194
14926KSTC STC20190126111513001/26/19 11:15:31  5-MIN KSTC 261715Z 00000KT 2 1/2SM -SN SCT027 OVC035 M17/M19 A2993 1020 79 -2600 000/00 RMK AO2 P0000 T11671194
14926KSTC STC20190126112012601/26/19 11:20:31  5-MIN KSTC 261720Z 00000KT 2SM -SN SCT027 OVC035 M17/M19 A2993 1020 79 -2600 000/00 RMK AO2 P0000 T11671194
14926KSTC STC20190126112512601/26/19 11:25:31  5-MIN KSTC 261725Z 00000KT 2SM -SN FEW027 OVC035 M16/M19 A2993 1020 76 -2600 000/00 RMK AO2 P0000 T11611194
14926KSTC STC20190126113013001/26/19 11:30:31  5-MIN KSTC 261730Z 00000KT 2 1/2SM -SN FEW029 OVC035 M16/M19 A2993 1020 79 -2600 000/00 RMK AO2 P0000 T11611189
14926KSTC STC20190126113512601/26/19 11:35:31  5-MIN KSTC 261735Z 00000KT 3SM -SN FEW029 OVC035 M16/M19 A2993 1020 79 -2600 000/00 RMK AO2 P0000 T11611189
14926KSTC STC20190126114013101/26/19 11:40:31  5-MIN KSTC 261740Z 00000KT 4SM HZ FEW026 OVC035 M16/M19 A2992 1020 79 -2600 000/00 RMK AO2 SNE40 P0000 T11611189
14926KSTC STC20190126114512401/26/19 11:45:31  5-MIN KSTC 261745Z 00000KT 4SM BR OVC035 M16/M18 A2992 1020 83 -2600 000/00 RMK AO2 SNE40 P0000 T11611183
14926KSTC STC20190126115015301/26/19 11:50:31  5-MIN KSTC 261750Z 00000KT 3SM -SN BR OVC035 M16/M18 A2992 1030 83 -2600 000/00 RMK AO2 SLP173 P0000 60002 T11611183 11161 21228 58021
14926KSTC STC20190126115512601/26/19 11:55:31  5-MIN KSTC 261755Z 00000KT 2 1/2SM -SN BR OVC035 M16/M18 A2992 1030 83 -2600 000/00 RMK AO2 P0000 T11611183
14926KSTC STC20190126120011901/26/19 12:00:31  5-MIN KSTC 261800Z 00000KT 3SM -SN OVC035 M16/M18 A2992 1030 79 -2500 000/00 RMK AO2 P0000 T11561183
14926KSTC STC20190126120512401/26/19 12:05:31  5-MIN KSTC 261805Z 00000KT 3SM HZ OVC034 M16/M18 A2992 1030 79 -2500 000/00 RMK AO2 SNE04 P0000 T11561183
14926KSTC STC20190126121012601/26/19 12:10:31  5-MIN KSTC 261810Z 00000KT 3SM -SN FEW028 OVC034 M15/M18 A2992 1030 76 -2400 000/00 RMK AO2 P0000 T11501183
14926KSTC STC20190126121512601/26/19 12:15:31  5-MIN KSTC 261815Z 00000KT 3SM -SN FEW028 OVC036 M15/M18 A2991 1030 76 -2400 000/00 RMK AO2 P0000 T11501183
14926KSTC STC20190126122012601/26/19 12:20:31  5-MIN KSTC 261820Z 36003KT 4SM -SN BKN032 OVC040 M15/M19 A2991 1030 72 -2400 360/03 RMK AO2 P0000 T11501189
14926KSTC STC20190126122512601/26/19 12:25:31  5-MIN KSTC 261825Z 01003KT 5SM -SN BKN032 OVC040 M14/M19 A2991 1030 69 -2300 010/03 RMK AO2 P0000 T11441189
14926KSTC STC20190126123012601/26/19 12:30:31  5-MIN KSTC 261830Z 36003KT 6SM -SN BKN032 OVC040 M14/M18 A2991 1030 73 -2300 360/03 RMK AO2 P0000 T11441183
14926KSTC STC20190126123512801/26/19 12:35:31  5-MIN KSTC 261835Z 02003KT 8SM BKN032 OVC040 M14/M19 A2991 1030 69 -2300 020/03 RMK AO2 SNE35 P0000 T11441189
14926KSTC STC20190126124012801/26/19 12:40:31  5-MIN KSTC 261840Z 36003KT 9SM BKN031 OVC040 M14/M19 A2991 1040 69 -2300 360/03 RMK AO2 SNE35 P0000 T11441189
14926KSTC STC20190126124512901/26/19 12:45:31  5-MIN KSTC 261845Z 01003KT 10SM BKN031 OVC040 M14/M19 A2991 1030 69 -2300 010/03 RMK AO2 SNE35 P0000 T11441189
14926KSTC STC20190126125012901/26/19 12:50:31  5-MIN KSTC 261850Z 35004KT 10SM OVC031 M14/M19 A2991 1040 69 -2300 350/04 RMK AO2 SNE35 SLP168 P0000 T11441189
14926KSTC STC20190126125511001/26/19 12:55:31  5-MIN KSTC 261855Z 36005KT 10SM BKN031 M14/M19 A2991 1040 69 -2300 350/05 RMK AO2 T11441189
14926KSTC STC20190126130011001/26/19 13:00:31  5-MIN KSTC 261900Z 34006KT 10SM BKN031 M14/M18 A2991 1040 69 -2300 340/06 RMK AO2 T11391183
14926KSTC STC20190126130511001/26/19 13:05:31  5-MIN KSTC 261905Z 35006KT 10SM BKN029 M14/M18 A2991 1040 69 -2300 350/06 RMK AO2 T11391183
14926KSTC STC20190126131011001/26/19 13:10:31  5-MIN KSTC 261910Z 36006KT 10SM OVC029 M14/M18 A2991 1040 73 -2300 360/06 RMK AO2 T11441183
14926KSTC STC20190126131511001/26/19 13:15:31  5-MIN KSTC 261915Z 35005KT 10SM OVC029 M14/M18 A2991 1040 69 -2200 350/05 RMK AO2 T11391183
14926KSTC STC20190126132011001/26/19 13:20:31  5-MIN KSTC 261920Z 35006KT 10SM OVC029 M14/M18 A2991 1040 69 -2300 350/06 RMK AO2 T11391183
14926KSTC STC20190126132511001/26/19 13:25:31  5-MIN KSTC 261925Z 35005KT 10SM OVC029 M14/M18 A2991 1040 69 -2300 340/05 RMK AO2 T11391183
14926KSTC STC20190126133011001/26/19 13:30:31  5-MIN KSTC 261930Z 33005KT 10SM OVC028 M14/M18 A2991 1040 69 -2300 330/05 RMK AO2 T11391183
14926KSTC STC20190126133511001/26/19 13:35:31  5-MIN KSTC 261935Z 33007KT 10SM OVC028 M13/M18 A2991 1040 66 -2200 330/07 RMK AO2 T11331183
14926KSTC STC20190126134011001/26/19 13:40:31  5-MIN KSTC 261940Z 32008KT 10SM OVC028 M14/M18 A2991 1040 69 -2300 320/08 RMK AO2 T11391183
14926KSTC STC20190126134511001/26/19 13:45:31  5-MIN KSTC 261945Z 31008KT 10SM BKN027 M14/M19 A2991 1040 66 -2200 310/08 RMK AO2 T11391189
14926KSTC STC20190126135011701/26/19 13:50:31  5-MIN KSTC 261950Z 31007KT 10SM BKN027 M14/M19 A2991 1040 66 -2300 310/07 RMK AO2 SLP167 T11391189
14926KSTC STC20190126135511001/26/19 13:55:31  5-MIN KSTC 261955Z 33007KT 10SM SCT027 M14/M19 A2991 1030 69 -2300 330/07 RMK AO2 T11441189
14926KSTC STC20190126140011001/26/19 14:00:31  5-MIN KSTC 262000Z 33008KT 10SM SCT026 M14/M19 A2991 1040 66 -2300 330/08 RMK AO2 T11391189
14926KSTC STC20190126140511001/26/19 14:05:31  5-MIN KSTC 262005Z 33008KT 10SM FEW026 M13/M19 A2991 1040 63 -2200 330/08 RMK AO2 T11331189
14926KSTC STC20190126141011001/26/19 14:10:31  5-MIN KSTC 262010Z 35007KT 10SM FEW026 M14/M19 A2991 1030 66 -2300 350/07 RMK AO2 T11391189
14926KSTC STC20190126141510701/26/19 14:15:31  5-MIN KSTC 262015Z 34009KT 10SM CLR M14/M19 A2991 1030 66 -2300 330/09 RMK AO2 T11391189
14926KSTC STC20190126142010701/26/19 14:20:31  5-MIN KSTC 262020Z 34008KT 10SM CLR M14/M19 A2992 1030 66 -2300 340/08 RMK AO2 T11391189
14926KSTC STC20190126142510701/26/19 14:25:31  5-MIN KSTC 262025Z 33009KT 10SM CLR M14/M19 A2992 1030 66 -2300 330/09 RMK AO2 T11391189
14926KSTC STC20190126143010701/26/19 14:30:31  5-MIN KSTC 262030Z 33010KT 10SM CLR M14/M19 A2992 1030 66 -2300 330/10 RMK AO2 T11391189
14926KSTC STC20190126143510701/26/19 14:35:31  5-MIN KSTC 262035Z 33009KT 10SM CLR M14/M19 A2992 1020 63 -2300 320/09 RMK AO2 T11391194
14926KSTC STC20190126144010701/26/19 14:40:31  5-MIN KSTC 262040Z 32010KT 10SM CLR M14/M19 A2992 1020 63 -2300 320/10 RMK AO2 T11391194
14926KSTC STC20190126144510701/26/19 14:45:31  5-MIN KSTC 262045Z 32009KT 10SM CLR M14/M19 A2993 1020 63 -2300 320/09 RMK AO2 T11391194
14926KSTC STC20190126145012601/26/19 14:50:31  5-MIN KSTC 262050Z 31009KT 10SM CLR M14/M19 A2993 1020 63 -2300 310/09 RMK AO2 SLP174 60000 T11391194 56000
14926KSTC STC20190126145510701/26/19 14:55:31  5-MIN KSTC 262055Z 32008KT 10SM CLR M14/M19 A2993 1020 66 -2300 320/08 RMK AO2 T11441194
14926KSTC STC20190126150010701/26/19 15:00:31  5-MIN KSTC 262100Z 32009KT 10SM CLR M14/M19 A2993 1010 63 -2300 320/09 RMK AO2 T11391194
14926KSTC STC20190126150510701/26/19 15:05:31  5-MIN KSTC 262105Z 32008KT 10SM CLR M14/M19 A2994 1010 63 -2300 320/08 RMK AO2 T11391194
14926KSTC STC20190126151010701/26/19 15:10:31  5-MIN KSTC 262110Z 32009KT 10SM CLR M14/M19 A2994 1010 66 -2400 310/09 RMK AO2 T11441194
14926KSTC STC20190126151510701/26/19 15:15:31  5-MIN KSTC 262115Z 32008KT 10SM CLR M14/M19 A2994 1010 66 -2400 320/08 RMK AO2 T11441194
14926KSTC STC20190126152010701/26/19 15:20:31  5-MIN KSTC 262120Z 31010KT 10SM CLR M14/M19 A2994 1010 66 -2400 310/10 RMK AO2 T11441194
14926KSTC STC20190126152510701/26/19 15:25:31  5-MIN KSTC 262125Z 32008KT 10SM CLR M14/M19 A2994 1010 66 -2400 320/08 RMK AO2 T11441194
14926KSTC STC20190126153010701/26/19 15:30:31  5-MIN KSTC 262130Z 33009KT 10SM CLR M14/M20 A2995 1000 63 -2400 330/09 RMK AO2 T11441200
14926KSTC STC20190126153510701/26/19 15:35:31  5-MIN KSTC 262135Z 32009KT 10SM CLR M14/M20 A2995 1000 63 -2400 320/09 RMK AO2 T11441200
14926KSTC STC20190126154010701/26/19 15:40:31  5-MIN KSTC 262140Z 31008KT 10SM CLR M14/M20 A2995 1000 63 -2400 310/08 RMK AO2 T11441200
14926KSTC STC20190126154510701/26/19 15:45:31  5-MIN KSTC 262145Z 32007KT 10SM CLR M14/M20 A2995 1000 63 -2400 310/07 RMK AO2 T11441200
14926KSTC STC20190126155011401/26/19 15:50:31  5-MIN KSTC 262150Z 33007KT 10SM CLR M14/M20 A2995 1000 60 -2300 330/07 RMK AO2 SLP182 T11391200
14926KSTC STC20190126155510601/26/19 15:55:31  5-MIN KSTC 262155Z 32005KT 10SM CLR M14/M20 A2996 990 60 -2300 320/05 RMK AO2 T11391200
14926KSTC STC20190126160010601/26/19 16:00:31  5-MIN KSTC 262200Z 32007KT 10SM CLR M14/M20 A2996 990 60 -2300 320/07 RMK AO2 T11391200
14926KSTC STC20190126160510601/26/19 16:05:31  5-MIN KSTC 262205Z 33007KT 10SM CLR M14/M20 A2996 990 63 -2400 330/07 RMK AO2 T11441200
14926KSTC STC20190126161010601/26/19 16:10:31  5-MIN KSTC 262210Z 33005KT 10SM CLR M14/M20 A2996 990 60 -2300 330/05 RMK AO2 T11391200
14926KSTC STC20190126161510601/26/19 16:15:31  5-MIN KSTC 262215Z 33006KT 10SM CLR M14/M20 A2996 990 63 -2400 330/06 RMK AO2 T11441200
14926KSTC STC20190126162010601/26/19 16:20:31  5-MIN KSTC 262220Z 33006KT 10SM CLR M14/M20 A2996 990 63 -2400 330/06 RMK AO2 T11441200
14926KSTC STC20190126162510601/26/19 16:25:31  5-MIN KSTC 262225Z 33004KT 10SM CLR M14/M20 A2997 980 63 -2400 330/04 RMK AO2 T11441200
14926KSTC STC20190126163010601/26/19 16:30:31  5-MIN KSTC 262230Z 32006KT 10SM CLR M14/M20 A2997 980 63 -2400 320/06 RMK AO2 T11441200
14926KSTC STC20190126163510601/26/19 16:35:31  5-MIN KSTC 262235Z 32005KT 10SM CLR M14/M20 A2997 980 63 -2400 320/05 RMK AO2 T11441200
14926KSTC STC20190126164010601/26/19 16:40:31  5-MIN KSTC 262240Z 32008KT 10SM CLR M14/M20 A2997 980 63 -2400 320/08 RMK AO2 T11441200
14926KSTC STC20190126164510601/26/19 16:45:31  5-MIN KSTC 262245Z 32007KT 10SM CLR M15/M20 A2997 980 66 -2500 310/07 RMK AO2 T11501200
14926KSTC STC20190126165011301/26/19 16:50:31  5-MIN KSTC 262250Z 31007KT 10SM CLR M15/M20 A2997 980 66 -2500 310/07 RMK AO2 SLP188 T11501200
14926KSTC STC20190126165510601/26/19 16:55:31  5-MIN KSTC 262255Z 31008KT 10SM CLR M15/M21 A2997 980 63 -2500 310/08 RMK AO2 T11501206
14926KSTC STC20190126170010601/26/19 17:00:31  5-MIN KSTC 262300Z 31009KT 10SM CLR M16/M21 A2997 980 66 -2600 310/09 RMK AO2 T11561206
14926KSTC STC20190126170510601/26/19 17:05:31  5-MIN KSTC 262305Z 31009KT 10SM CLR M16/M21 A2998 970 66 -2600 310/09 RMK AO2 T11561206
14926KSTC STC20190126171010601/26/19 17:10:31  5-MIN KSTC 262310Z 32008KT 10SM CLR M16/M21 A2998 970 66 -2600 320/08 RMK AO2 T11561206
14926KSTC STC20190126171510601/26/19 17:15:31  5-MIN KSTC 262315Z 31009KT 10SM CLR M16/M21 A2998 970 66 -2600 310/09 RMK AO2 T11561206
14926KSTC STC20190126172010601/26/19 17:20:31  5-MIN KSTC 262320Z 31010KT 10SM CLR M16/M21 A2999 970 69 -2600 310/10 RMK AO2 T11611206
14926KSTC STC20190126172510601/26/19 17:25:31  5-MIN KSTC 262325Z 31011KT 10SM CLR M16/M21 A2999 970 66 -2600 310/11 RMK AO2 T11611211
14926KSTC STC20190126173010601/26/19 17:30:31  5-MIN KSTC 262330Z 32009KT 10SM CLR M16/M21 A2999 960 66 -2600 310/09 RMK AO2 T11611211
14926KSTC STC20190126173510601/26/19 17:35:31  5-MIN KSTC 262335Z 32010KT 10SM CLR M16/M21 A2999 960 66 -2600 320/10 RMK AO2 T11611211
14926KSTC STC20190126174010601/26/19 17:40:31  5-MIN KSTC 262340Z 32010KT 10SM CLR M16/M21 A2999 960 63 -2600 320/10 RMK AO2 T11561211
14926KSTC STC20190126174510601/26/19 17:45:31  5-MIN KSTC 262345Z 32008KT 10SM CLR M16/M21 A3000 950 63 -2600 320/08 RMK AO2 T11561211
14926KSTC STC20190126175013701/26/19 17:50:31  5-MIN KSTC 262350Z 32008KT 10SM CLR M16/M21 A3000 950 63 -2600 320/08 RMK AO2 SLP197 60000 T11561211 11133 21161 53002
14926KSTC STC20190126175510601/26/19 17:55:31  5-MIN KSTC 262355Z 32007KT 10SM CLR M16/M21 A3000 950 66 -2700 320/07 RMK AO2 T11611211
14926KSTC STC20190126180010601/26/19 18:00:31  5-MIN KSTC 270000Z 32008KT 10SM CLR M16/M22 A3000 950 63 -2700 320/08 RMK AO2 T11611217
14926KSTC STC20190126180510601/26/19 18:05:31  5-MIN KSTC 270005Z 31008KT 10SM CLR M17/M22 A3001 950 66 -2700 310/08 RMK AO2 T11671217
14926KSTC STC20190126181010601/26/19 18:10:31  5-MIN KSTC 270010Z 31007KT 10SM CLR M17/M22 A3001 940 69 -2800 310/07 RMK AO2 T11721217
14926KSTC STC20190126181510601/26/19 18:15:31  5-MIN KSTC 270015Z 31008KT 10SM CLR M17/M22 A3001 940 69 -2800 310/08 RMK AO2 T11721217
14926KSTC STC20190126182010601/26/19 18:20:31  5-MIN KSTC 270020Z 31007KT 10SM CLR M18/M22 A3001 940 69 -2900 310/07 RMK AO2 T11781222
14926KSTC STC20190126182510601/26/19 18:25:31  5-MIN KSTC 270025Z 31007KT 10SM CLR M18/M22 A3002 940 69 -2900 310/07 RMK AO2 T11781222
14926KSTC STC20190126183010601/26/19 18:30:31  5-MIN KSTC 270030Z 31007KT 10SM CLR M18/M22 A3002 940 69 -2900 310/07 RMK AO2 T11781222
14926KSTC STC20190126183510601/26/19 18:35:31  5-MIN KSTC 270035Z 31007KT 10SM CLR M18/M22 A3002 940 69 -2900 310/07 RMK AO2 T11781222
14926KSTC STC20190126184010601/26/19 18:40:31  5-MIN KSTC 270040Z 31007KT 10SM CLR M18/M22 A3002 940 72 -3000 310/07 RMK AO2 T11831222
14926KSTC STC20190126184510601/26/19 18:45:31  5-MIN KSTC 270045Z 31007KT 10SM CLR M18/M22 A3002 930 69 -2900 310/07 RMK AO2 T11781222
14926KSTC STC20190126185011301/26/19 18:50:31  5-MIN KSTC 270050Z 31007KT 10SM CLR M18/M22 A3002 930 69 -2900 310/07 RMK AO2 SLP206 T11781222
14926KSTC STC20190126185510601/26/19 18:55:31  5-MIN KSTC 270055Z 31008KT 10SM CLR M18/M22 A3002 930 72 -3000 310/08 RMK AO2 T11831222
14926KSTC STC20190126190010601/26/19 19:00:31  5-MIN KSTC 270100Z 31008KT 10SM CLR M18/M22 A3003 930 72 -3000 310/08 RMK AO2 T11831222
14926KSTC STC20190126190510601/26/19 19:05:31  5-MIN KSTC 270105Z 31008KT 10SM CLR M18/M23 A3003 930 68 -3000 310/08 RMK AO2 T11831228
14926KSTC STC20190126191010601/26/19 19:10:31  5-MIN KSTC 270110Z 31008KT 10SM CLR M18/M23 A3003 920 68 -3000 310/08 RMK AO2 T11831228
14926KSTC STC20190126191510601/26/19 19:15:31  5-MIN KSTC 270115Z 31008KT 10SM CLR M18/M23 A3003 920 68 -3000 310/08 RMK AO2 T11831228
14926KSTC STC20190126192010601/26/19 19:20:31  5-MIN KSTC 270120Z 31008KT 10SM CLR M19/M23 A3003 920 72 -3100 310/08 RMK AO2 T11891228
14926KSTC STC20190126192510601/26/19 19:25:31  5-MIN KSTC 270125Z 31008KT 10SM CLR M19/M23 A3003 920 72 -3100 310/08 RMK AO2 T11891228
14926KSTC STC20190126193010601/26/19 19:30:31  5-MIN KSTC 270130Z 31008KT 10SM CLR M19/M23 A3003 920 72 -3100 310/08 RMK AO2 T11891228
14926KSTC STC20190126193510601/26/19 19:35:31  5-MIN KSTC 270135Z 31009KT 10SM CLR M18/M23 A3004 920 68 -3000 310/09 RMK AO2 T11831228
14926KSTC STC20190126194010601/26/19 19:40:31  5-MIN KSTC 270140Z 31009KT 10SM CLR M18/M23 A3004 920 68 -3000 310/09 RMK AO2 T11831228
14926KSTC STC20190126194510601/26/19 19:45:31  5-MIN KSTC 270145Z 31009KT 10SM CLR M18/M22 A3004 910 72 -3000 310/09 RMK AO2 T11831222
14926KSTC STC20190126195011301/26/19 19:50:31  5-MIN KSTC 270150Z 31009KT 10SM CLR M18/M22 A3004 920 72 -3000 310/09 RMK AO2 SLP211 T11831222
14926KSTC STC20190126195510601/26/19 19:55:31  5-MIN KSTC 270155Z 31009KT 10SM CLR M18/M22 A3004 910 72 -3000 310/09 RMK AO2 T11831222
14926KSTC STC20190126200010601/26/19 20:00:31  5-MIN KSTC 270200Z 31009KT 10SM CLR M18/M22 A3005 910 72 -3000 310/09 RMK AO2 T11831222
14926KSTC STC20190126200510601/26/19 20:05:31  5-MIN KSTC 270205Z 32008KT 10SM CLR M18/M23 A3004 910 68 -3000 320/08 RMK AO2 T11831228
14926KSTC STC20190126201010601/26/19 20:10:31  5-MIN KSTC 270210Z 32008KT 10SM CLR M18/M23 A3005 910 68 -3000 310/08 RMK AO2 T11831228
14926KSTC STC20190126201510601/26/19 20:15:31  5-MIN KSTC 270215Z 31007KT 10SM CLR M18/M23 A3005 910 68 -3000 310/07 RMK AO2 T11831228
14926KSTC STC20190126202010601/26/19 20:20:31  5-MIN KSTC 270220Z 32007KT 10SM CLR M19/M23 A3005 900 72 -3100 310/07 RMK AO2 T11891228
14926KSTC STC20190126202510601/26/19 20:25:31  5-MIN KSTC 270225Z 32007KT 10SM CLR M19/M23 A3005 900 72 -3100 310/07 RMK AO2 T11891228
14926KSTC STC20190126203010601/26/19 20:30:31  5-MIN KSTC 270230Z 32007KT 10SM CLR M19/M23 A3005 900 72 -3200 310/07 RMK AO2 T11941233
14926KSTC STC20190126203510601/26/19 20:35:31  5-MIN KSTC 270235Z 32007KT 10SM CLR M19/M23 A3005 900 72 -3200 310/07 RMK AO2 T11941233
14926KSTC STC20190126204010601/26/19 20:40:31  5-MIN KSTC 270240Z 32007KT 10SM CLR M19/M23 A3006 900 72 -3200 320/07 RMK AO2 T11941233
14926KSTC STC20190126204510601/26/19 20:45:31  5-MIN KSTC 270245Z 32007KT 10SM CLR M19/M23 A3006 900 72 -3200 320/07 RMK AO2 T11941233
14926KSTC STC20190126205011901/26/19 20:50:31  5-MIN KSTC 270250Z 32007KT 10SM CLR M19/M23 A3006 900 72 -3100 320/07 RMK AO2 SLP217 T11891228 53024
14926KSTC STC20190126205510601/26/19 20:55:31  5-MIN KSTC 270255Z 32006KT 10SM CLR M19/M23 A3006 900 72 -3200 320/06 RMK AO2 T11941233
14926KSTC STC20190126210010601/26/19 21:00:31  5-MIN KSTC 270300Z 32006KT 10SM CLR M19/M23 A3006 900 72 -3100 320/06 RMK AO2 T11891228
14926KSTC STC20190126210510601/26/19 21:05:31  5-MIN KSTC 270305Z 33006KT 10SM CLR M19/M23 A3006 890 75 -3200 330/06 RMK AO2 T11941228
14926KSTC STC20190126211010601/26/19 21:10:31  5-MIN KSTC 270310Z 34004KT 10SM CLR M19/M23 A3007 890 72 -3200 340/04 RMK AO2 T11941233
14926KSTC STC20190126211510601/26/19 21:15:31  5-MIN KSTC 270315Z 34004KT 10SM CLR M20/M23 A3007 890 75 -3300 340/04 RMK AO2 T12001233
14926KSTC STC20190126212010601/26/19 21:20:31  5-MIN KSTC 270320Z 34004KT 10SM CLR M20/M23 A3007 890 75 -3300 340/04 RMK AO2 T12001233
14926KSTC STC20190126212510601/26/19 21:25:31  5-MIN KSTC 270325Z 34005KT 10SM CLR M21/M23 A3007 890 79 -3300 330/05 RMK AO2 T12061233
14926KSTC STC20190126213010601/26/19 21:30:31  5-MIN KSTC 270330Z 33006KT 10SM CLR M21/M24 A3008 880 75 -3400 330/06 RMK AO2 T12061239
14926KSTC STC20190126213510601/26/19 21:35:31  5-MIN KSTC 270335Z 33006KT 10SM CLR M20/M23 A3008 880 75 -3300 330/06 RMK AO2 T12001233
14926KSTC STC20190126214010601/26/19 21:40:31  5-MIN KSTC 270340Z 33005KT 10SM CLR M20/M23 A3008 880 75 -3300 330/05 RMK AO2 T12001233
14926KSTC STC20190126214510601/26/19 21:45:31  5-MIN KSTC 270345Z 33005KT 10SM CLR M20/M23 A3008 880 75 -3300 330/05 RMK AO2 T12001233
14926KSTC STC20190126215011301/26/19 21:50:31  5-MIN KSTC 270350Z 33005KT 10SM CLR M20/M24 A3008 880 71 -3300 330/05 RMK AO2 SLP225 T12001239
14926KSTC STC20190126215510601/26/19 21:55:31  5-MIN KSTC 270355Z 33005KT 10SM CLR M21/M24 A3008 880 75 -3400 330/05 RMK AO2 T12061239
14926KSTC STC20190126220010601/26/19 22:00:31  5-MIN KSTC 270400Z 32006KT 10SM CLR M21/M24 A3009 870 75 -3400 320/06 RMK AO2 T12061239
14926KSTC STC20190126220510601/26/19 22:05:31  5-MIN KSTC 270405Z 32006KT 10SM CLR M21/M24 A3009 870 75 -3400 320/06 RMK AO2 T12061239
14926KSTC STC20190126221010601/26/19 22:10:31  5-MIN KSTC 270410Z 32006KT 10SM CLR M21/M24 A3009 870 75 -3400 320/06 RMK AO2 T12061239
14926KSTC STC20190126221510601/26/19 22:15:31  5-MIN KSTC 270415Z 32004KT 10SM CLR M21/M24 A3009 870 75 -3400 320/04 RMK AO2 T12061239
14926KSTC STC20190126222010601/26/19 22:20:31  5-MIN KSTC 270420Z 32005KT 10SM CLR M22/M24 A3009 870 79 -3500 320/05 RMK AO2 T12171244
14926KSTC STC20190126222510601/26/19 22:25:31  5-MIN KSTC 270425Z 32004KT 10SM CLR M22/M25 A3009 870 78 -3600 320/04 RMK AO2 T12221250
14926KSTC STC20190126223010601/26/19 22:30:31  5-MIN KSTC 270430Z 32004KT 10SM CLR M23/M25 A3009 870 82 -3700 320/04 RMK AO2 T12281250
14926KSTC STC20190126223510601/26/19 22:35:31  5-MIN KSTC 270435Z 32004KT 10SM CLR M22/M25 A3009 870 78 -3600 320/04 RMK AO2 T12221250
14926KSTC STC20190126224010601/26/19 22:40:31  5-MIN KSTC 270440Z 32005KT 10SM CLR M23/M26 A3010 860 82 -3800 310/05 RMK AO2 T12331256
14926KSTC STC20190126224510601/26/19 22:45:31  5-MIN KSTC 270445Z 32005KT 10SM CLR M22/M25 A3010 860 78 -3600 310/05 RMK AO2 T12221250
14926KSTC STC20190126225011301/26/19 22:50:31  5-MIN KSTC 270450Z 31005KT 10SM CLR M22/M25 A3010 860 78 -3600 310/05 RMK AO2 SLP232 T12221250
14926KSTC STC20190126225510601/26/19 22:55:31  5-MIN KSTC 270455Z 31006KT 10SM CLR M23/M25 A3010 860 82 -3700 310/06 RMK AO2 T12281250
14926KSTC STC20190126230010601/26/19 23:00:31  5-MIN KSTC 270500Z 32004KT 10SM CLR M22/M24 A3010 860 82 -3600 320/04 RMK AO2 T12221244
14926KSTC STC20190126230511101/26/19 23:05:31  5-MIN KSTC 270505Z AUTO 33004KT 10SM CLR M22/M24 A3010 860 82 -3600 330/04 RMK AO2 T12221244
14926KSTC STC20190126231011101/26/19 23:10:31  5-MIN KSTC 270510Z AUTO 34004KT 10SM CLR M22/M25 A3010 860 78 -3600 340/04 RMK AO2 T12221250
14926KSTC STC20190126231511101/26/19 23:15:31  5-MIN KSTC 270515Z AUTO 34004KT 10SM CLR M23/M25 A3011 850 82 -3700 330/04 RMK AO2 T12281250
14926KSTC STC20190126232011101/26/19 23:20:31  5-MIN KSTC 270520Z AUTO 33005KT 10SM CLR M22/M24 A3011 850 82 -3600 330/05 RMK AO2 T12221244
14926KSTC STC20190126232511101/26/19 23:25:31  5-MIN KSTC 270525Z AUTO 33005KT 10SM CLR M22/M24 A3011 850 82 -3600 330/05 RMK AO2 T12221244
14926KSTC STC20190126233011101/26/19 23:30:31  5-MIN KSTC 270530Z AUTO 34004KT 10SM CLR M23/M25 A3011 850 82 -3700 340/04 RMK AO2 T12281250
14926KSTC STC20190126233511101/26/19 23:35:31  5-MIN KSTC 270535Z AUTO 34005KT 10SM CLR M23/M26 A3011 850 78 -3700 340/05 RMK AO2 T12281256
14926KSTC STC20190126234011101/26/19 23:40:31  5-MIN KSTC 270540Z AUTO 33005KT 10SM CLR M23/M25 A3011 850 82 -3700 330/05 RMK AO2 T12281250
14926KSTC STC20190126234511101/26/19 23:45:31  5-MIN KSTC 270545Z AUTO 33004KT 10SM CLR M22/M25 A3011 850 78 -3600 330/04 RMK AO2 T12221250
14926KSTC STC20190126235014601/26/19 23:50:31  5-MIN KSTC 270550Z AUTO 33005KT 10SM CLR M23/M25 A3011 850 82 -3700 330/05 RMK AO2 SLP237 T12281250 11161 21233 411331272 51019
14926KSTC STC20190126235511101/26/19 23:55:31  5-MIN KSTC 270555Z AUTO 34005KT 10SM CLR M23/M25 A3011 850 82 -3700 340/05 RMK AO2 T12281250
14926KSTC STC20190127000011101/27/19 00:00:31  5-MIN KSTC 270600Z AUTO 34005KT 10SM CLR M23/M26 A3012 850 78 -3700 340/05 RMK AO2 T12281256
14926KSTC STC20190127000511101/27/19 00:05:31  5-MIN KSTC 270605Z AUTO 34005KT 10SM CLR M23/M26 A3012 850 78 -3700 340/05 RMK AO2 T12281256
14926KSTC STC20190127001011101/27/19 00:10:31  5-MIN KSTC 270610Z AUTO 33005KT 10SM CLR M23/M26 A3012 850 78 -3700 330/05 RMK AO2 T12281256
14926KSTC STC20190127001511101/27/19 00:15:31  5-MIN KSTC 270615Z AUTO 33005KT 10SM CLR M23/M26 A3011 850 78 -3700 330/05 RMK AO2 T12281256
14926KSTC STC20190127002011101/27/19 00:20:31  5-MIN KSTC 270620Z AUTO 33004KT 10SM CLR M23/M26 A3011 850 78 -3700 330/04 RMK AO2 T12281256
14926KSTC STC20190127002511101/27/19 00:25:31  5-MIN KSTC 270625Z AUTO 32004KT 10SM CLR M23/M26 A3011 850 78 -3700 320/04 RMK AO2 T12281256
14926KSTC STC20190127003011101/27/19 00:30:31  5-MIN KSTC 270630Z AUTO 32004KT 10SM CLR M24/M26 A3011 850 82 -3900 320/04 RMK AO2 T12391261
14926KSTC STC20190127003511101/27/19 00:35:31  5-MIN KSTC 270635Z AUTO 32005KT 10SM CLR M24/M27 A3011 850 82 -3900 320/05 RMK AO2 T12441267
14926KSTC STC20190127004011101/27/19 00:40:31  5-MIN KSTC 270640Z AUTO 31006KT 10SM CLR M24/M27 A3012 850 82 -3900 310/06 RMK AO2 T12441267
14926KSTC STC20190127004511101/27/19 00:45:31  5-MIN KSTC 270645Z AUTO 32006KT 10SM CLR M25/M27 A3011 850 82 -4000 320/06 RMK AO2 T12501272
14926KSTC STC20190127005011801/27/19 00:50:31  5-MIN KSTC 270650Z AUTO 32005KT 10SM CLR M24/M27 A3012 850 78 -3900 320/05 RMK AO2 SLP237 T12391267
14926KSTC STC20190127005511101/27/19 00:55:31  5-MIN KSTC 270655Z AUTO 32004KT 10SM CLR M24/M27 A3012 850 78 -3900 320/04 RMK AO2 T12391267
14926KSTC STC20190127010011101/27/19 01:00:31  5-MIN KSTC 270700Z AUTO 32004KT 10SM CLR M24/M27 A3011 850 78 -3900 320/04 RMK AO2 T12391267
14926KSTC STC20190127010511101/27/19 01:05:31  5-MIN KSTC 270705Z AUTO 32003KT 10SM CLR M24/M27 A3011 850 78 -3900 320/03 RMK AO2 T12391267
14926KSTC STC20190127011011101/27/19 01:10:31  5-MIN KSTC 270710Z AUTO 32003KT 10SM CLR M24/M27 A3011 850 78 -3900 320/03 RMK AO2 T12391267
14926KSTC STC20190127011511101/27/19 01:15:31  5-MIN KSTC 270715Z AUTO 33003KT 10SM CLR M24/M27 A3011 850 78 -3900 330/03 RMK AO2 T12391267
14926KSTC STC20190127012011101/27/19 01:20:31  5-MIN KSTC 270720Z AUTO 35003KT 10SM CLR M24/M27 A3011 860 78 -3900 350/03 RMK AO2 T12391267
14926KSTC STC20190127012511101/27/19 01:25:31  5-MIN KSTC 270725Z AUTO 00000KT 10SM CLR M24/M27 A3010 860 82 -3900 000/00 RMK AO2 T12441267
14926KSTC STC20190127013011101/27/19 01:30:31  5-MIN KSTC 270730Z AUTO 35003KT 10SM CLR M24/M27 A3011 860 78 -3900 350/03 RMK AO2 T12391267
14926KSTC STC20190127013511101/27/19 01:35:31  5-MIN KSTC 270735Z AUTO 33003KT 10SM CLR M24/M27 A3011 850 78 -3900 330/03 RMK AO2 T12391267
14926KSTC STC20190127014011101/27/19 01:40:31  5-MIN KSTC 270740Z AUTO 33003KT 10SM CLR M24/M27 A3011 850 78 -3900 330/03 RMK AO2 T12391267
14926KSTC STC20190127014511101/27/19 01:45:31  5-MIN KSTC 270745Z AUTO 33003KT 10SM CLR M24/M27 A3011 850 78 -3900 320/03 RMK AO2 T12391267
14926KSTC STC20190127015011801/27/19 01:50:31  5-MIN KSTC 270750Z AUTO 32004KT 10SM CLR M24/M27 A3011 850 82 -3900 320/04 RMK AO2 SLP236 T12441267
14926KSTC STC20190127015511101/27/19 01:55:31  5-MIN KSTC 270755Z AUTO 32004KT 10SM CLR M24/M27 A3011 850 78 -3900 320/04 RMK AO2 T12441272
14926KSTC STC20190127020011101/27/19 02:00:31  5-MIN KSTC 270800Z AUTO 32004KT 10SM CLR M25/M27 A3012 850 82 -4000 320/04 RMK AO2 T12501272
14926KSTC STC20190127020511101/27/19 02:05:31  5-MIN KSTC 270805Z AUTO 33005KT 10SM CLR M24/M27 A3012 850 78 -3900 330/05 RMK AO2 T12441272
14926KSTC STC20190127021011101/27/19 02:10:31  5-MIN KSTC 270810Z AUTO 33004KT 10SM CLR M24/M27 A3012 850 78 -3900 330/04 RMK AO2 T12441272
14926KSTC STC20190127123010601/27/19 12:30:31  5-MIN KSTC 271830Z 14009KT 10SM CLR M20/M25 A2997 980 65 -3200 130/09 RMK AO2 T12001250
14926KSTC STC20190127123510601/27/19 12:35:31  5-MIN KSTC 271835Z 14008KT 10SM CLR M20/M25 A2997 980 65 -3200 130/08 RMK AO2 T12001250
14926KSTC STC20190127124010601/27/19 12:40:31  5-MIN KSTC 271840Z 13008KT 10SM CLR M20/M24 A2997 980 68 -3200 130/08 RMK AO2 T12001244
14926KSTC STC20190127124510601/27/19 12:45:31  5-MIN KSTC 271845Z 13009KT 10SM CLR M20/M25 A2996 990 65 -3100 130/09 RMK AO2 T12001250
14926KSTC STC20190127125011301/27/19 12:50:31  5-MIN KSTC 271850Z 14009KT 10SM CLR M20/M25 A2996 990 65 -3100 130/09 RMK AO2 SLP187 T12001250
14926KSTC STC20190127125510601/27/19 12:55:31  5-MIN KSTC 271855Z 14011KT 10SM CLR M19/M24 A2995 990 65 -3100 140/11 RMK AO2 T11941244
14926KSTC STC20190127130010701/27/19 13:00:31  5-MIN KSTC 271900Z 14010KT 10SM CLR M19/M24 A2995 1000 65 -3100 140/10 RMK AO2 T11941244
14926KSTC STC20190127130510701/27/19 13:05:31  5-MIN KSTC 271905Z 14010KT 10SM CLR M19/M24 A2995 1000 65 -3100 140/10 RMK AO2 T11941244
14926KSTC STC20190127131010701/27/19 13:10:31  5-MIN KSTC 271910Z 14010KT 10SM CLR M19/M24 A2995 1000 65 -3000 140/10 RMK AO2 T11941244
14926KSTC STC20190127131510701/27/19 13:15:31  5-MIN KSTC 271915Z 14009KT 10SM CLR M19/M24 A2994 1000 65 -3000 140/09 RMK AO2 T11891239
14926KSTC STC20190127132010701/27/19 13:20:31  5-MIN KSTC 271920Z 15011KT 10SM CLR M19/M24 A2994 1010 65 -3000 150/11 RMK AO2 T11891239
14926KSTC STC20190127132510701/27/19 13:25:31  5-MIN KSTC 271925Z 14008KT 10SM CLR M19/M24 A2994 1010 65 -3000 140/08 RMK AO2 T11891239
14926KSTC STC20190127133010701/27/19 13:30:31  5-MIN KSTC 271930Z 14011KT 10SM CLR M19/M24 A2993 1010 65 -3000 140/11 RMK AO2 T11891239
14926KSTC STC20190127133510701/27/19 13:35:31  5-MIN KSTC 271935Z 14012KT 10SM CLR M19/M23 A2993 1020 68 -2900 140/12 RMK AO2 T11891233
14926KSTC STC20190127134011401/27/19 13:40:31  5-MIN KSTC 271940Z 14012KT 10SM CLR M19/M24 A2992 1030 65 -2900 140/12 RMK AO2 PRESFR T11891239
14926KSTC STC20190127134511401/27/19 13:45:31  5-MIN KSTC 271945Z 14013KT 10SM CLR M19/M23 A2991 1040 68 -2900 140/13 RMK AO2 PRESFR T11891233
14926KSTC STC20190127135012101/27/19 13:50:31  5-MIN KSTC 271950Z 14012KT 10SM CLR M18/M23 A2990 1050 65 -2800 140/12 RMK AO2 PRESFR SLP164 T11831233
14926KSTC STC20190127135511401/27/19 13:55:31  5-MIN KSTC 271955Z 14014KT 10SM CLR M18/M23 A2988 1060 65 -2800 140/14 RMK AO2 PRESFR T11831233
14926KSTC STC20190127140011401/27/19 14:00:31  5-MIN KSTC 272000Z 14014KT 10SM CLR M18/M23 A2987 1080 65 -2800 140/14 RMK AO2 PRESFR T11831233
14926KSTC STC20190127140511401/27/19 14:05:31  5-MIN KSTC 272005Z 14012KT 10SM CLR M18/M23 A2985 1100 65 -2800 140/12 RMK AO2 PRESFR T11831233
14926KSTC STC20190127141011701/27/19 14:10:31  5-MIN KSTC 272010Z 12011KT 10SM FEW090 M18/M23 A2983 1110 62 -2700 120/11 RMK AO2 PRESFR T11781233
14926KSTC STC20190127141511601/27/19 14:15:31  5-MIN KSTC 272015Z 13013G20KT 10SM FEW090 M18/M23 A2984 1100 62 -2700 130/13G20 RMK AO2 T11781233
14926KSTC STC20190127142011301/27/19 14:20:31  5-MIN KSTC 272020Z 14010G20KT 10SM CLR M18/M23 A2985 1100 62 -2700 140/10G20 RMK AO2 T11781233
14926KSTC STC20190127142510701/27/19 14:25:31  5-MIN KSTC 272025Z 14011KT 10SM CLR M18/M23 A2985 1100 62 -2700 130/11 RMK AO2 T11781233
14926KSTC STC20190127143011301/27/19 14:30:31  5-MIN KSTC 272030Z 14012G17KT 10SM CLR M18/M23 A2984 1100 62 -2700 140/12G17 RMK AO2 T11781233
14926KSTC STC20190127143510701/27/19 14:35:31  5-MIN KSTC 272035Z 14012KT 10SM CLR M18/M23 A2984 1100 62 -2700 130/12 RMK AO2 T11781233
14926KSTC STC20190127144010701/27/19 14:40:31  5-MIN KSTC 272040Z 14011KT 10SM CLR M18/M23 A2984 1100 62 -2700 140/11 RMK AO2 T11781233
14926KSTC STC20190127144510701/27/19 14:45:31  5-MIN KSTC 272045Z 14012KT 10SM CLR M18/M23 A2985 1090 62 -2700 140/12 RMK AO2 T11781233
14926KSTC STC20190127145012001/27/19 14:50:31  5-MIN KSTC 272050Z 14011KT 10SM CLR M18/M23 A2985 1090 62 -2700 140/11 RMK AO2 SLP149 T11781233 58026
14926KSTC STC20190127145510701/27/19 14:55:31  5-MIN KSTC 272055Z 14010KT 10SM CLR M17/M23 A2985 1090 59 -2600 140/10 RMK AO2 T11721233
14926KSTC STC20190127150010701/27/19 15:00:31  5-MIN KSTC 272100Z 14010KT 10SM CLR M17/M23 A2984 1100 62 -2600 140/10 RMK AO2 T11721228
14926KSTC STC20190127150510701/27/19 15:05:31  5-MIN KSTC 272105Z 13010KT 10SM CLR M17/M23 A2983 1110 59 -2600 130/10 RMK AO2 T11721233
14926KSTC STC20190127151010701/27/19 15:10:31  5-MIN KSTC 272110Z 13010KT 10SM CLR M17/M23 A2983 1110 59 -2600 130/10 RMK AO2 T11721233
14926KSTC STC20190127151511001/27/19 15:15:31  5-MIN KSTC 272115Z 13009KT 10SM FEW120 M17/M23 A2983 1110 59 -2600 130/09 RMK AO2 T11721233
14926KSTC STC20190127152011001/27/19 15:20:31  5-MIN KSTC 272120Z 13012KT 10SM FEW120 M17/M23 A2982 1120 59 -2600 130/12 RMK AO2 T11721233
14926KSTC STC20190127152512301/27/19 15:25:31  5-MIN KSTC 272125Z 13011G19KT 10SM SCT110 M17/M23 A2981 1130 59 -2600 130/11G19 RMK AO2 PRESFR T11721233
14926KSTC STC20190127153012301/27/19 15:30:31  5-MIN KSTC 272130Z 13011G19KT 10SM SCT095 BKN110 M17/M23 A2981 1130 59 -2600 130/11G19 RMK AO2 T11721233
14926KSTC STC20190127153511701/27/19 15:35:31  5-MIN KSTC 272135Z 13013KT 10SM BKN090 BKN110 M17/M23 A2981 1130 57 -2500 130/13 RMK AO2 T11671233
14926KSTC STC20190127154012401/27/19 15:40:31  5-MIN KSTC 272140Z 13012KT 10SM SCT080 BKN095 BKN110 M17/M23 A2980 1140 57 -2500 130/12 RMK AO2 T11671233
14926KSTC STC20190127154513001/27/19 15:45:31  5-MIN KSTC 272145Z 12009G19KT 10SM BKN075 BKN095 OVC110 M17/M23 A2980 1140 57 -2500 120/09G19 RMK AO2 T11671233
14926KSTC STC20190127155013001/27/19 15:50:31  5-MIN KSTC 272150Z 13010G20KT 10SM BKN070 OVC090 M17/M23 A2979 1140 57 -2500 130/10G20 RMK AO2 SLP128 T11671233
14926KSTC STC20190127155513001/27/19 15:55:31  5-MIN KSTC 272155Z 13012G20KT 10SM BKN065 BKN080 OVC090 M17/M23 A2979 1150 57 -2500 130/12G20 RMK AO2 T11671233
14926KSTC STC20190127160012301/27/19 16:00:31  5-MIN KSTC 272200Z 13010G19KT 10SM BKN060 OVC080 M17/M23 A2979 1150 57 -2500 130/10G19 RMK AO2 T11671233
14926KSTC STC20190127160512301/27/19 16:05:31  5-MIN KSTC 272205Z 13011G18KT 10SM BKN055 OVC070 M17/M23 A2979 1150 57 -2500 130/11G18 RMK AO2 T11671233
14926KSTC STC20190127161011601/27/19 16:10:31  5-MIN KSTC 272210Z 13012G18KT 10SM OVC055 M17/M23 A2978 1160 57 -2500 130/12G18 RMK AO2 T11671233
14926KSTC STC20190127161511601/27/19 16:15:31  5-MIN KSTC 272215Z 13012G18KT 10SM OVC055 M17/M23 A2978 1160 57 -2500 130/12G18 RMK AO2 T11671233
14926KSTC STC20190127162011001/27/19 16:20:31  5-MIN KSTC 272220Z 13013KT 10SM OVC055 M17/M23 A2977 1170 57 -2500 130/13 RMK AO2 T11671233
14926KSTC STC20190127162511601/27/19 16:25:31  5-MIN KSTC 272225Z 13013G19KT 10SM OVC050 M17/M23 A2976 1170 57 -2500 130/13G19 RMK AO2 T11671233
14926KSTC STC20190127163012301/27/19 16:30:31  5-MIN KSTC 272230Z 13012G19KT 10SM OVC048 M17/M23 A2975 1180 57 -2400 130/12G19 RMK AO2 PRESFR T11671233
14926KSTC STC20190127163512301/27/19 16:35:31  5-MIN KSTC 272235Z 13010G18KT 10SM BKN046 OVC055 M17/M23 A2975 1180 57 -2400 130/10G18 RMK AO2 T11671233
14926KSTC STC20190127164011601/27/19 16:40:31  5-MIN KSTC 272240Z 12013G21KT 10SM OVC046 M17/M24 A2975 1180 54 -2400 120/13G21 RMK AO2 T11671239
14926KSTC STC20190127164511601/27/19 16:45:31  5-MIN KSTC 272245Z 12012G23KT 10SM OVC044 M17/M24 A2974 1190 54 -2400 120/12G23 RMK AO2 T11671239
14926KSTC STC20190127165012301/27/19 16:50:31  5-MIN KSTC 272250Z 11011G23KT 10SM OVC044 M17/M24 A2974 1190 54 -2400 110/11G23 RMK AO2 SLP111 T11671239
14926KSTC STC20190127165511601/27/19 16:55:31  5-MIN KSTC 272255Z 12011G18KT 10SM OVC042 M17/M23 A2975 1190 57 -2400 120/11G18 RMK AO2 T11671233
14926KSTC STC20190127170011001/27/19 17:00:31  5-MIN KSTC 272300Z 11008KT 10SM OVC042 M17/M24 A2975 1190 54 -2400 110/08 RMK AO2 T11671239
14926KSTC STC20190127170511601/27/19 17:05:31  5-MIN KSTC 272305Z 12009G15KT 10SM OVC040 M17/M24 A2975 1190 54 -2400 120/09G15 RMK AO2 T11671239
14926KSTC STC20190127171011601/27/19 17:10:31  5-MIN KSTC 272310Z 12008G15KT 10SM OVC038 M17/M24 A2975 1190 54 -2400 110/08G15 RMK AO2 T11671239
14926KSTC STC20190127171511001/27/19 17:15:31  5-MIN KSTC 272315Z 12009KT 10SM OVC036 M17/M24 A2974 1190 54 -2400 110/09 RMK AO2 T11671239
14926KSTC STC20190127172011601/27/19 17:20:31  5-MIN KSTC 272320Z 11007G15KT 10SM OVC034 M17/M24 A2974 1190 54 -2400 110/07G15 RMK AO2 T11671239
14926KSTC STC20190127172510901/27/19 17:25:31  5-MIN KSTC 272325Z 11009KT 9SM OVC032 M17/M24 A2974 1190 54 -2400 110/09 RMK AO2 T11671239
14926KSTC STC20190127173013101/27/19 17:30:31  5-MIN KSTC 272330Z 11010G16KT 6SM -SN OVC028 M17/M24 A2974 1200 54 -2400 110/10G16 RMK AO2 SNB29 P0000 T11671239
14926KSTC STC20190127173513101/27/19 17:35:31  5-MIN KSTC 272335Z 12010G17KT 3SM -SN OVC024 M17/M23 A2973 1200 57 -2400 110/10G17 RMK AO2 SNB29 P0000 T11671233
14926KSTC STC20190127174013101/27/19 17:40:31  5-MIN KSTC 272340Z 11012G18KT 2SM -SN OVC022 M17/M23 A2973 1200 60 -2400 110/12G18 RMK AO2 SNB29 P0000 T11671228
14926KSTC STC20190127174513501/27/19 17:45:31  5-MIN KSTC 272345Z 12012G20KT 1 1/2SM -SN OVC018 M17/M22 A2973 1210 65 -2500 110/12G20 RMK AO2 SNB29 P0000 T11721222
14926KSTC STC20190127175016101/27/19 17:50:31  5-MIN KSTC 272350Z 11012G20KT 1SM -SN VV015 M17/M22 A2972 1210 69 -2500 110/12G20 RMK AO2 SNB29 SLP105 P0000 60000 T11721217 11167 21206 58045
14926KSTC STC20190127175512401/27/19 17:55:31  5-MIN KSTC 272355Z 11010G19KT 1SM -SN VV014 M17/M21 A2971 1220 72 -2500 110/10G19 RMK AO2 P0000 T11721211
14926KSTC STC20190127180012401/27/19 18:00:31  5-MIN KSTC 280000Z 11009G18KT 1SM -SN VV013 M17/M21 A2971 1220 72 -2500 100/09G18 RMK AO2 P0001 T11721211
14926KSTC STC20190127180511801/27/19 18:05:31  5-MIN KSTC 280005Z 12010KT 1SM -SN VV013 M17/M21 A2971 1220 76 -2500 110/10 RMK AO2 P0001 T11721206
14926KSTC STC20190127181012401/27/19 18:10:31  5-MIN KSTC 280010Z 11009G17KT 1SM -SN VV013 M17/M21 A2970 1230 76 -2500 110/09G17 RMK AO2 P0001 T11721206
14926KSTC STC20190127181512401/27/19 18:15:31  5-MIN KSTC 280015Z 11010G17KT 1SM -SN VV013 M17/M21 A2970 1230 76 -2400 110/10G17 RMK AO2 P0001 T11721206
14926KSTC STC20190127182012601/27/19 18:20:31  5-MIN KSTC 280020Z 11010G18KT 3/4SM -SN VV013 M17/M21 A2969 1240 76 -2400 110/10G18 RMK AO2 P0002 T11721206
14926KSTC STC20190127182512401/27/19 18:25:31  5-MIN KSTC 280025Z 11010G18KT 1SM -SN VV013 M17/M20 A2969 1240 79 -2400 110/10G18 RMK AO2 P0002 T11721200
14926KSTC STC20190127183012401/27/19 18:30:31  5-MIN KSTC 280030Z 11009G19KT 1SM -SN VV013 M17/M20 A2969 1240 79 -2400 110/09G19 RMK AO2 P0002 T11721200
14926KSTC STC20190127183512401/27/19 18:35:31  5-MIN KSTC 280035Z 11010G19KT 1SM -SN VV014 M17/M20 A2969 1240 79 -2400 110/10G19 RMK AO2 P0003 T11721200
14926KSTC STC20190127184012401/27/19 18:40:31  5-MIN KSTC 280040Z 10010G19KT 1SM -SN VV014 M17/M20 A2969 1240 79 -2400 100/10G19 RMK AO2 P0003 T11721200
14926KSTC STC20190127184512401/27/19 18:45:31  5-MIN KSTC 280045Z 11010G19KT 1SM -SN VV015 M17/M20 A2968 1250 79 -2400 110/10G19 RMK AO2 P0003 T11721200
14926KSTC STC20190127185010801/27/19 18:50:31  5-MIN KSTC 280050Z 10009KT 1SM -SN VV015 M17/M20 A2968 1250 79 -2400 100/09 RMK AO2 P0004
14926KSTC STC20190127185512401/27/19 18:55:31  5-MIN KSTC 280055Z 10011G21KT 1SM -SN VV015 M17/M20 A2969 1240 79 -2400 100/11G21 RMK AO2 P0000 T11721200
14926KSTC STC20190127190012401/27/19 19:00:31  5-MIN KSTC 280100Z 11008G21KT 1SM -SN VV015 M17/M20 A2968 1250 79 -2400 100/08G21 RMK AO2 P0000 T11721200
14926KSTC STC20190127190512401/27/19 19:05:31  5-MIN KSTC 280105Z 11010G19KT 1SM -SN VV015 M17/M20 A2968 1250 79 -2400 110/10G19 RMK AO2 P0000 T11721200
14926KSTC STC20190127191012401/27/19 19:10:31  5-MIN KSTC 280110Z 11010G18KT 1SM -SN VV015 M17/M20 A2968 1250 79 -2400 110/10G18 RMK AO2 P0001 T11721200
14926KSTC STC20190127191512401/27/19 19:15:31  5-MIN KSTC 280115Z 11011G19KT 1SM -SN VV016 M17/M20 A2967 1260 79 -2400 100/11G19 RMK AO2 P0001 T11721200
14926KSTC STC20190127192012401/27/19 19:20:31  5-MIN KSTC 280120Z 10011G19KT 1SM -SN VV016 M17/M20 A2967 1250 79 -2400 100/11G19 RMK AO2 P0001 T11721200
14926KSTC STC20190127192512401/27/19 19:25:31  5-MIN KSTC 280125Z 10009G19KT 1SM -SN VV015 M17/M20 A2968 1250 79 -2400 100/09G19 RMK AO2 P0002 T11721200
14926KSTC STC20190127193012401/27/19 19:30:31  5-MIN KSTC 280130Z 11012G19KT 1SM -SN VV015 M17/M20 A2968 1250 79 -2400 110/12G19 RMK AO2 P0002 T11721200
14926KSTC STC20190127193512401/27/19 19:35:31  5-MIN KSTC 280135Z 11008G19KT 1SM -SN VV014 M17/M20 A2967 1260 79 -2400 110/08G19 RMK AO2 P0002 T11721200
14926KSTC STC20190127194012601/27/19 19:40:31  5-MIN KSTC 280140Z 11008G16KT 3/4SM -SN VV014 M17/M20 A2968 1250 79 -2400 110/08G16 RMK AO2 P0003 T11721200
14926KSTC STC20190127194512601/27/19 19:45:31  5-MIN KSTC 280145Z 11010G18KT 3/4SM -SN VV013 M17/M20 A2968 1250 79 -2400 110/10G18 RMK AO2 P0003 T11721200
14926KSTC STC20190127195013301/27/19 19:50:31  5-MIN KSTC 280150Z 11010G18KT 3/4SM -SN VV012 M17/M20 A2967 1250 79 -2400 100/10G18 RMK AO2 SLP091 P0003 T11721200
14926KSTC STC20190127195512601/27/19 19:55:31  5-MIN KSTC 280155Z 11010G19KT 3/4SM -SN VV012 M17/M20 A2968 1250 79 -2400 110/10G19 RMK AO2 P0000 T11721200
14926KSTC STC20190127200012901/27/19 20:00:31  5-MIN KSTC 280200Z 10008G19KT 3/4SM -SN BR VV011 M17/M19 A2967 1250 83 -2400 100/08G19 RMK AO2 P0000 T11721194
14926KSTC STC20190127200513001/27/19 20:05:31  5-MIN KSTC 280205Z 10008G19KT 1/2SM SN FZFG VV010 M17/M19 A2967 1260 83 -2400 100/08G19 RMK AO2 P0001 T11721194
14926KSTC STC20190127201013001/27/19 20:10:31  5-MIN KSTC 280210Z 10009G18KT 1/2SM SN FZFG VV009 M17/M19 A2967 1260 83 -2400 100/09G18 RMK AO2 P0002 T11721194
14926KSTC STC20190127201512901/27/19 20:15:31  5-MIN KSTC 280215Z 09010G18KT 3/4SM -SN BR VV009 M17/M19 A2967 1260 83 -2400 090/10G18 RMK AO2 P0002 T11721194
14926KSTC STC20190127202012901/27/19 20:20:31  5-MIN KSTC 280220Z 09010G20KT 3/4SM -SN BR VV010 M17/M19 A2966 1260 83 -2400 090/10G20 RMK AO2 P0003 T11721194
14926KSTC STC20190127202512901/27/19 20:25:31  5-MIN KSTC 280225Z 09010G20KT 3/4SM -SN BR VV010 M17/M19 A2966 1270 83 -2400 090/10G20 RMK AO2 P0003 T11721194
14926KSTC STC20190127203012301/27/19 20:30:31  5-MIN KSTC 280230Z 10008KT 3/4SM -SN BR VV011 M17/M19 A2966 1270 83 -2400 100/08 RMK AO2 P0004 T11721194
14926KSTC STC20190127203512601/27/19 20:35:31  5-MIN KSTC 280235Z 10010G20KT 3/4SM -SN VV011 M17/M19 A2965 1270 79 -2300 100/10G20 RMK AO2 P0004 T11671194
14926KSTC STC20190127204012601/27/19 20:40:31  5-MIN KSTC 280240Z 09011G20KT 3/4SM -SN VV012 M17/M19 A2965 1280 79 -2300 090/11G20 RMK AO2 P0004 T11671194
14926KSTC STC20190127204512601/27/19 20:45:31  5-MIN KSTC 280245Z 10008G20KT 3/4SM -SN VV012 M17/M19 A2965 1280 79 -2300 100/08G20 RMK AO2 P0005 T11671194
14926KSTC STC20190127205014501/27/19 20:50:31  5-MIN KSTC 280250Z 10010G17KT 3/4SM -SN VV012 M17/M19 A2964 1280 79 -2300 100/10G17 RMK AO2 SLP078 P0005 60013 T11671194 56044
14926KSTC STC20190127205512401/27/19 20:55:31  5-MIN KSTC 280255Z 09011G21KT 1SM -SN VV013 M17/M19 A2964 1290 79 -2300 090/11G21 RMK AO2 P0000 T11671194
14926KSTC STC20190127210012601/27/19 21:00:31  5-MIN KSTC 280300Z 09009G21KT 3/4SM -SN VV013 M17/M19 A2964 1290 79 -2300 090/09G21 RMK AO2 P0000 T11671194
14926KSTC STC20190127210512601/27/19 21:05:31  5-MIN KSTC 280305Z 10011G19KT 3/4SM -SN VV013 M17/M19 A2964 1290 79 -2300 100/11G19 RMK AO2 P0001 T11671194
14926KSTC STC20190127211012601/27/19 21:10:31  5-MIN KSTC 280310Z 09009G19KT 3/4SM -SN VV013 M17/M19 A2964 1290 79 -2300 090/09G19 RMK AO2 P0001 T11671194
14926KSTC STC20190127211512601/27/19 21:15:31  5-MIN KSTC 280315Z 10011G18KT 3/4SM -SN VV012 M17/M19 A2964 1290 79 -2300 100/11G18 RMK AO2 P0001 T11671194
14926KSTC STC20190127212012601/27/19 21:20:31  5-MIN KSTC 280320Z 10008G18KT 3/4SM -SN VV013 M17/M19 A2964 1290 79 -2300 100/08G18 RMK AO2 P0002 T11671194
14926KSTC STC20190127212512001/27/19 21:25:31  5-MIN KSTC 280325Z 09009KT 3/4SM -SN VV013 M17/M19 A2964 1290 79 -2300 090/09 RMK AO2 P0002 T11671194
14926KSTC STC20190127213012401/27/19 21:30:31  5-MIN KSTC 280330Z 09008G16KT 1SM -SN VV014 M17/M19 A2964 1290 79 -2300 090/08G16 RMK AO2 P0002 T11671194
14926KSTC STC20190127213512401/27/19 21:35:31  5-MIN KSTC 280335Z 09011G18KT 1SM -SN VV015 M17/M19 A2963 1290 79 -2300 090/11G18 RMK AO2 P0003 T11671194
14926KSTC STC20190127214012401/27/19 21:40:31  5-MIN KSTC 280340Z 10009G18KT 1SM -SN VV016 M17/M19 A2963 1290 79 -2300 100/09G18 RMK AO2 P0003 T11671194
14926KSTC STC20190127214512901/27/19 21:45:31  5-MIN KSTC 280345Z 10011G18KT 1 1/4SM -SN OVC016 M17/M19 A2963 1300 79 -2300 100/11G18 RMK AO2 P0003 T11671194
14926KSTC STC20190127215013601/27/19 21:50:31  5-MIN KSTC 280350Z 09011G19KT 1 1/4SM -SN OVC016 M17/M19 A2963 1300 79 -2300 090/11G19 RMK AO2 SLP072 P0003 T11671194
14926KSTC STC20190127215512901/27/19 21:55:31  5-MIN KSTC 280355Z 09010G19KT 1 1/4SM -SN OVC016 M17/M19 A2963 1300 79 -2300 090/10G19 RMK AO2 P0000 T11671194
14926KSTC STC20190127220012901/27/19 22:00:31  5-MIN KSTC 280400Z 09011G22KT 1 1/4SM -SN OVC016 M17/M19 A2963 1300 79 -2300 090/11G22 RMK AO2 P0001 T11671194
14926KSTC STC20190127220512401/27/19 22:05:31  5-MIN KSTC 280405Z 10010G22KT 1SM -SN VV016 M17/M19 A2963 1300 79 -2300 090/10G22 RMK AO2 P0001 T11671194
14926KSTC STC20190127221011801/27/19 22:10:31  5-MIN KSTC 280410Z 10008KT 1SM -SN VV016 M17/M19 A2963 1300 79 -2300 100/08 RMK AO2 P0001 T11671194
14926KSTC STC20190127221511801/27/19 22:15:31  5-MIN KSTC 280415Z 10008KT 1SM -SN VV016 M17/M19 A2963 1300 79 -2300 100/08 RMK AO2 P0001 T11671194
14926KSTC STC20190127222012301/27/19 22:20:31  5-MIN KSTC 280420Z 10009KT 1 1/4SM -SN OVC018 M17/M19 A2963 1300 79 -2300 100/09 RMK AO2 P0002 T11671194
14926KSTC STC20190127222512301/27/19 22:25:31  5-MIN KSTC 280425Z 10008KT 1 1/4SM -SN OVC020 M17/M19 A2963 1300 79 -2300 100/08 RMK AO2 P0002 T11671194
14926KSTC STC20190127223012301/27/19 22:30:31  5-MIN KSTC 280430Z 10007KT 1 1/2SM -SN OVC022 M17/M19 A2963 1300 79 -2300 100/07 RMK AO2 P0002 T11671194
14926KSTC STC20190127223512901/27/19 22:35:31  5-MIN KSTC 280435Z 10009G16KT 1 3/4SM -SN OVC022 M17/M19 A2963 1300 79 -2300 100/09G16 RMK AO2 P0002 T11671194
14926KSTC STC20190127224012901/27/19 22:40:31  5-MIN KSTC 280440Z 10010G16KT 1 3/4SM -SN OVC023 M17/M19 A2963 1300 79 -2300 100/10G16 RMK AO2 P0002 T11671194
14926KSTC STC20190127224512901/27/19 22:45:31  5-MIN KSTC 280445Z 10011G19KT 1 1/2SM -SN OVC023 M17/M19 A2962 1300 79 -2300 100/11G19 RMK AO2 P0002 T11671194
14926KSTC STC20190127225013601/27/19 22:50:31  5-MIN KSTC 280450Z 10010G19KT 1 1/4SM -SN OVC023 M17/M19 A2962 1300 79 -2300 100/10G19 RMK AO2 SLP068 P0003 T11671194
14926KSTC STC20190127225512901/27/19 22:55:31  5-MIN KSTC 280455Z 09009G18KT 1 1/4SM -SN OVC023 M17/M19 A2962 1310 79 -2300 090/09G18 RMK AO2 P0000 T11671194
14926KSTC STC20190127230012901/27/19 23:00:31  5-MIN KSTC 280500Z 10009G17KT 1 1/4SM -SN OVC022 M17/M19 A2962 1300 79 -2300 100/09G17 RMK AO2 P0000 T11671194
14926KSTC STC20190127230513401/27/19 23:05:31  5-MIN KSTC 280505Z AUTO 09009G18KT 1 1/2SM -SN OVC022 M17/M19 A2963 1300 79 -2300 090/09G18 RMK AO2 P0000 T11671194
14926KSTC STC20190127231013401/27/19 23:10:31  5-MIN KSTC 280510Z AUTO 09009G18KT 1 1/2SM -SN OVC022 M17/M19 A2963 1300 79 -2300 090/09G18 RMK AO2 P0000 T11671194
14926KSTC STC20190127231513401/27/19 23:15:31  5-MIN KSTC 280515Z AUTO 10009G17KT 1 3/4SM -SN OVC022 M17/M19 A2963 1300 79 -2300 100/09G17 RMK AO2 P0000 T11671194
14926KSTC STC20190127232012801/27/19 23:20:31  5-MIN KSTC 280520Z AUTO 09009KT 1 1/2SM -SN OVC022 M17/M19 A2963 1300 79 -2300 090/09 RMK AO2 P0001 T11671194
14926KSTC STC20190127232513401/27/19 23:25:31  5-MIN KSTC 280525Z AUTO 09009G17KT 1 1/2SM -SN OVC022 M17/M19 A2963 1300 79 -2300 080/09G17 RMK AO2 P0001 T11671194
14926KSTC STC20190127233013401/27/19 23:30:31  5-MIN KSTC 280530Z AUTO 10009G21KT 1 1/2SM -SN OVC020 M17/M19 A2963 1300 79 -2300 090/09G21 RMK AO2 P0001 T11671194
14926KSTC STC20190127233513401/27/19 23:35:31  5-MIN KSTC 280535Z AUTO 09009G21KT 1 1/2SM -SN OVC020 M17/M19 A2963 1300 79 -2300 090/09G21 RMK AO2 P0001 T11671194
14926KSTC STC20190127234013401/27/19 23:40:31  5-MIN KSTC 280540Z AUTO 09009G17KT 1 1/4SM -SN OVC020 M17/M19 A2964 1290 79 -2300 090/09G17 RMK AO2 P0001 T11671194
14926KSTC STC20190127234513401/27/19 23:45:31  5-MIN KSTC 280545Z AUTO 09010G17KT 1 1/4SM -SN OVC018 M17/M19 A2964 1290 79 -2300 090/10G17 RMK AO2 P0001 T11671194
14926KSTC STC20190127235017001/27/19 23:50:31  5-MIN KSTC 280550Z AUTO 09009G17KT 1SM -SN VV017 M17/M19 A2964 1290 79 -2300 090/09G17 RMK AO2 SLP072 P0002 60022 T11671194 11167 21172 411671294 58025
14926KSTC STC20190127235512901/27/19 23:55:31  5-MIN KSTC 280555Z AUTO 08009G16KT 1SM -SN VV016 M17/M19 A2964 1290 79 -2300 080/09G16 RMK AO2 P0000 T11671194
14926KSTC STC20190128000012901/28/19 00:00:31  5-MIN KSTC 280600Z AUTO 08011G20KT 1SM -SN VV015 M17/M19 A2964 1290 79 -2300 080/11G20 RMK AO2 P0000 T11671194
14926KSTC STC20190128000512901/28/19 00:05:31  5-MIN KSTC 280605Z AUTO 07009G20KT 1SM -SN VV015 M17/M19 A2964 1280 79 -2300 070/09G20 RMK AO2 P0000 T11671194
14926KSTC STC20190128001012301/28/19 00:10:31  5-MIN KSTC 280610Z AUTO 08009KT 1SM -SN VV016 M17/M19 A2965 1280 79 -2300 080/09 RMK AO2 P0001 T11671194
14926KSTC STC20190128001512801/28/19 00:15:31  5-MIN KSTC 280615Z AUTO 07010KT 1 1/4SM -SN OVC016 M17/M19 A2965 1280 79 -2300 070/10 RMK AO2 P0001 T11671194
14926KSTC STC20190128002012801/28/19 00:20:31  5-MIN KSTC 280620Z AUTO 08008KT 1 1/4SM -SN OVC016 M17/M19 A2965 1280 79 -2300 080/08 RMK AO2 P0001 T11671194
14926KSTC STC20190128002513401/28/19 00:25:31  5-MIN KSTC 280625Z AUTO 08009G15KT 1 1/4SM -SN OVC016 M17/M19 A2965 1280 79 -2300 080/09G15 RMK AO2 P0001 T11671194
14926KSTC STC20190128104510701/28/19 10:45:31  5-MIN KSTC 281645Z 35007KT 10SM CLR M16/M20 A2995 1000 69 -2500 350/07 RMK AO2 T11561200
14926KSTC STC20190128105011401/28/19 10:50:31  5-MIN KSTC 281650Z 34008KT 10SM CLR M16/M20 A2995 1000 69 -2500 340/08 RMK AO2 SLP178 T11561200
14926KSTC STC20190128105510701/28/19 10:55:31  5-MIN KSTC 281655Z 34007KT 10SM CLR M16/M20 A2995 1000 69 -2500 340/07 RMK AO2 T11561200
14926KSTC STC20190128110010701/28/19 11:00:31  5-MIN KSTC 281700Z 35007KT 10SM CLR M16/M20 A2995 1000 69 -2500 340/07 RMK AO2 T11561200
14926KSTC STC20190128110510601/28/19 11:05:31  5-MIN KSTC 281705Z 35007KT 10SM CLR M16/M20 A2996 990 69 -2500 350/07 RMK AO2 T11561200
14926KSTC STC20190128111010701/28/19 11:10:31  5-MIN KSTC 281710Z 01007KT 10SM CLR M15/M19 A2995 1000 69 -2500 360/07 RMK AO2 T11501194
14926KSTC STC20190128111510701/28/19 11:15:31  5-MIN KSTC 281715Z 35007KT 10SM CLR M15/M19 A2995 1000 69 -2400 350/07 RMK AO2 T11501194
14926KSTC STC20190128112010701/28/19 11:20:31  5-MIN KSTC 281720Z 35009KT 10SM CLR M15/M20 A2995 1000 66 -2400 350/09 RMK AO2 T11501200
14926KSTC STC20190128112510701/28/19 11:25:31  5-MIN KSTC 281725Z 35006KT 10SM CLR M15/M19 A2995 1000 69 -2400 350/06 RMK AO2 T11501194
14926KSTC STC20190128113011001/28/19 11:30:31  5-MIN KSTC 281730Z 35008KT 10SM FEW120 M15/M19 A2995 1000 69 -2400 350/08 RMK AO2 T11501194
14926KSTC STC20190128113511001/28/19 11:35:31  5-MIN KSTC 281735Z 34007KT 10SM FEW120 M15/M19 A2995 1000 69 -2500 340/07 RMK AO2 T11501194
14926KSTC STC20190128114011001/28/19 11:40:31  5-MIN KSTC 281740Z 34007KT 10SM FEW120 M14/M19 A2995 1000 66 -2400 340/07 RMK AO2 T11441194
14926KSTC STC20190128114511001/28/19 11:45:31  5-MIN KSTC 281745Z 33006KT 10SM FEW120 M14/M19 A2995 1000 66 -2400 330/06 RMK AO2 T11441194
14926KSTC STC20190128115014101/28/19 11:50:31  5-MIN KSTC 281750Z 34007KT 10SM FEW120 M14/M19 A2995 1000 66 -2400 340/07 RMK AO2 SLP177 60001 T11441194 11144 21178 51030
14926KSTC STC20190128115511001/28/19 11:55:31  5-MIN KSTC 281755Z 33006KT 10SM FEW120 M14/M19 A2995 1000 69 -2400 330/06 RMK AO2 T11441189
14926KSTC STC20190128120010701/28/19 12:00:31  5-MIN KSTC 281800Z 33008KT 10SM CLR M14/M19 A2995 1000 66 -2300 320/08 RMK AO2 T11391189
14926KSTC STC20190128120510701/28/19 12:05:31  5-MIN KSTC 281805Z 33007KT 10SM CLR M14/M19 A2995 1000 69 -2400 330/07 RMK AO2 T11441189
14926KSTC STC20190128121010701/28/19 12:10:31  5-MIN KSTC 281810Z 32009KT 10SM CLR M14/M19 A2995 1000 69 -2400 310/09 RMK AO2 T11441189
14926KSTC STC20190128121510701/28/19 12:15:31  5-MIN KSTC 281815Z 33008KT 10SM CLR M14/M19 A2995 1000 66 -2300 330/08 RMK AO2 T11391189
14926KSTC STC20190128122010701/28/19 12:20:31  5-MIN KSTC 281820Z 31010KT 10SM CLR M14/M19 A2995 1000 66 -2300 310/10 RMK AO2 T11391189
14926KSTC STC20190128122510701/28/19 12:25:31  5-MIN KSTC 281825Z 32008KT 10SM CLR M14/M19 A2995 1000 66 -2300 320/08 RMK AO2 T11391189
14926KSTC STC20190128123010701/28/19 12:30:31  5-MIN KSTC 281830Z 31010KT 10SM CLR M14/M19 A2995 1000 66 -2300 310/10 RMK AO2 T11391189
14926KSTC STC20190128123510701/28/19 12:35:31  5-MIN KSTC 281835Z 31011KT 10SM CLR M14/M19 A2995 1000 69 -2400 310/11 RMK AO2 T11441189
14926KSTC STC20190128124010701/28/19 12:40:31  5-MIN KSTC 281840Z 31011KT 10SM CLR M14/M19 A2995 1000 69 -2400 310/11 RMK AO2 T11441189
14926KSTC STC20190128124510701/28/19 12:45:31  5-MIN KSTC 281845Z 31013KT 10SM CLR M14/M19 A2995 1000 69 -2400 310/13 RMK AO2 T11441189
14926KSTC STC20190128125011401/28/19 12:50:31  5-MIN KSTC 281850Z 31010KT 10SM CLR M14/M19 A2995 1000 66 -2300 310/10 RMK AO2 SLP175 T11391189
14926KSTC STC20190128125510701/28/19 12:55:31  5-MIN KSTC 281855Z 33008KT 10SM CLR M14/M19 A2995 1000 66 -2300 330/08 RMK AO2 T11391189
14926KSTC STC20190128130010701/28/19 13:00:31  5-MIN KSTC 281900Z 35007KT 10SM CLR M13/M19 A2994 1000 63 -2200 340/07 RMK AO2 T11331189
14926KSTC STC20190128130510701/28/19 13:05:31  5-MIN KSTC 281905Z 33008KT 10SM CLR M13/M19 A2994 1010 63 -2200 330/08 RMK AO2 T11331189
14926KSTC STC20190128131011001/28/19 13:10:31  5-MIN KSTC 281910Z 33008KT 10SM FEW110 M13/M18 A2994 1010 63 -2100 330/08 RMK AO2 T11281183
14926KSTC STC20190128131511001/28/19 13:15:31  5-MIN KSTC 281915Z 32007KT 10SM SCT110 M13/M18 A2994 1010 63 -2100 320/07 RMK AO2 T11281183
14926KSTC STC20190128132011001/28/19 13:20:31  5-MIN KSTC 281920Z 33008KT 10SM BKN110 M12/M18 A2994 1010 61 -2100 330/08 RMK AO2 T11221183
14926KSTC STC20190128132511001/28/19 13:25:31  5-MIN KSTC 281925Z 33007KT 10SM BKN110 M13/M18 A2994 1010 63 -2100 330/07 RMK AO2 T11281183
14926KSTC STC20190128133011001/28/19 13:30:31  5-MIN KSTC 281930Z 31011KT 10SM BKN110 M13/M18 A2994 1010 63 -2100 310/11 RMK AO2 T11281183
14926KSTC STC20190128133511001/28/19 13:35:31  5-MIN KSTC 281935Z 31011KT 10SM BKN110 M13/M18 A2994 1010 66 -2200 300/11 RMK AO2 T11331183
14926KSTC STC20190128134011001/28/19 13:40:31  5-MIN KSTC 281940Z 33008KT 10SM BKN110 M13/M18 A2994 1010 66 -2200 330/08 RMK AO2 T11331183
14926KSTC STC20190128134511001/28/19 13:45:31  5-MIN KSTC 281945Z 32009KT 10SM BKN110 M13/M18 A2994 1010 63 -2100 320/09 RMK AO2 T11281183
14926KSTC STC20190128135011701/28/19 13:50:31  5-MIN KSTC 281950Z 31010KT 10SM BKN110 M13/M18 A2994 1010 63 -2100 310/10 RMK AO2 SLP172 T11281183
14926KSTC STC20190128135511001/28/19 13:55:31  5-MIN KSTC 281955Z 31010KT 10SM SCT110 M13/M18 A2994 1010 63 -2100 310/10 RMK AO2 T11281183
14926KSTC STC20190128140011001/28/19 14:00:31  5-MIN KSTC 282000Z 31008KT 10SM SCT110 M13/M18 A2994 1010 63 -2100 310/08 RMK AO2 T11281183
14926KSTC STC20190128140511001/28/19 14:05:31  5-MIN KSTC 282005Z 31009KT 10SM FEW110 M13/M18 A2994 1010 63 -2100 310/09 RMK AO2 T11281183
14926KSTC STC20190128141011001/28/19 14:10:31  5-MIN KSTC 282010Z 32009KT 10SM FEW110 M13/M18 A2994 1010 63 -2100 320/09 RMK AO2 T11281183
14926KSTC STC20190128141511001/28/19 14:15:31  5-MIN KSTC 282015Z 31010KT 10SM FEW060 M13/M18 A2994 1010 63 -2100 310/10 RMK AO2 T11281183
14926KSTC STC20190128142011701/28/19 14:20:31  5-MIN KSTC 282020Z 31013KT 10SM FEW055 SCT070 M13/M18 A2994 1010 63 -2100 300/13 RMK AO2 T11281183
14926KSTC STC20190128142511701/28/19 14:25:31  5-MIN KSTC 282025Z 30012KT 10SM SCT042 BKN060 M13/M18 A2994 1010 66 -2100 300/12 RMK AO2 T11281178
14926KSTC STC20190128143011001/28/19 14:30:31  5-MIN KSTC 282030Z 31013KT 10SM BKN036 M13/M18 A2994 1010 69 -2200 310/13 RMK AO2 T11331178
14926KSTC STC20190128143511601/28/19 14:35:31  5-MIN KSTC 282035Z 30011KT 9SM FEW030 BKN036 M13/M18 A2994 1010 69 -2200 300/11 RMK AO2 T11331178
14926KSTC STC20190128144012501/28/19 14:40:31  5-MIN KSTC 282040Z 30014KT 6SM -SN BKN036 M13/M18 A2994 1010 69 -2200 300/14 RMK AO2 SNB39 P0000 T11331178
14926KSTC STC20190128144513201/28/19 14:45:31  5-MIN KSTC 282045Z 30015KT 4SM -SN BKN034 OVC042 M13/M18 A2995 1000 69 -2200 300/15 RMK AO2 SNB39 P0000 T11331178
14926KSTC STC20190128145012201/28/19 14:50:31  5-MIN KSTC 282050Z 30014KT 3SM -SN BKN029 OVC038 M14/M18 A2995 1000 73 -2300 300/14 RMK AO2 SNB39 P0000
14926KSTC STC20190128145512601/28/19 14:55:31  5-MIN KSTC 282055Z 31013KT 3SM -SN BKN027 OVC038 M13/M18 A2995 1000 69 -2200 300/13 RMK AO2 P0000 T11331178
14926KSTC STC20190128150012601/28/19 15:00:31  5-MIN KSTC 282100Z 31013KT 3SM -SN BKN027 OVC038 M14/M17 A2995 1000 76 -2300 310/13 RMK AO2 P0000 T11391172
14926KSTC STC20190128150512601/28/19 15:05:31  5-MIN KSTC 282105Z 30016KT 4SM -SN BKN027 OVC035 M14/M18 A2995 1000 73 -2300 300/16 RMK AO2 P0000 T11391178
14926KSTC STC20190128151012501/28/19 15:10:31  5-MIN KSTC 282110Z 30014KT 4SM -SN BKN029 OVC035 M14/M18 A2996 990 73 -2300 300/14 RMK AO2 P0000 T11391178
14926KSTC STC20190128151512501/28/19 15:15:31  5-MIN KSTC 282115Z 31017KT 4SM -SN BKN031 OVC039 M14/M18 A2996 990 73 -2400 300/17 RMK AO2 P0000 T11441183
14926KSTC STC20190128152012901/28/19 15:20:31  5-MIN KSTC 282120Z 31016KT 2 1/2SM -SN BKN031 OVC039 M14/M18 A2996 990 73 -2400 310/16 RMK AO2 P0000 T11441183
14926KSTC STC20190128152513701/28/19 15:25:31  5-MIN KSTC 282125Z 32016KT 2SM -SN BKN029 OVC036 M14/M18 A2996 990 73 -2400 320/16 RMK AO2 VIS 1 3/4V3 P0000 T11441183
14926KSTC STC20190128153012501/28/19 15:30:31  5-MIN KSTC 282130Z 31013KT 2SM -SN BKN029 OVC037 M14/M18 A2996 990 73 -2400 310/13 RMK AO2 P0000 T11441183
14926KSTC STC20190128153512501/28/19 15:35:31  5-MIN KSTC 282135Z 31016KT 2SM -SN BKN031 OVC044 M14/M18 A2996 990 73 -2400 310/16 RMK AO2 P0000 T11441183
14926KSTC STC20190128154012501/28/19 15:40:31  5-MIN KSTC 282140Z 30016KT 2SM -SN BKN029 OVC039 M15/M18 A2996 990 76 -2500 300/16 RMK AO2 P0000 T11501183
14926KSTC STC20190128154512501/28/19 15:45:31  5-MIN KSTC 282145Z 30016KT 2SM -SN BKN029 OVC039 M15/M19 A2996 990 72 -2500 300/16 RMK AO2 P0000 T11501189
14926KSTC STC20190128155013201/28/19 15:50:31  5-MIN KSTC 282150Z 31018KT 2SM -SN BKN029 OVC039 M15/M19 A2997 980 72 -2500 310/18 RMK AO2 SLP183 P0000 T11501189
14926KSTC STC20190128155512501/28/19 15:55:31  5-MIN KSTC 282155Z 31018KT 2SM -SN BKN031 OVC043 M16/M19 A2997 980 76 -2500 310/18 RMK AO2 P0000 T11561189
14926KSTC STC20190128160013101/28/19 16:00:31  5-MIN KSTC 282200Z 31017G24KT 2SM -SN BKN033 OVC041 M16/M19 A2997 980 72 -2500 310/17G24 RMK AO2 P0000 T11561194
14926KSTC STC20190128160511801/28/19 16:05:31  5-MIN KSTC 282205Z 31017KT 2SM -SN OVC033 M16/M19 A2997 980 72 -2500 310/17 RMK AO2 P0000 T11561194
14926KSTC STC20190128161012801/28/19 16:10:31  5-MIN KSTC 282210Z 31016G24KT 1 1/2SM -SN OVC031 M16/M19 A2997 980 72 -2500 310/16G24 RMK AO2 P0000 T11561194
14926KSTC STC20190128161512801/28/19 16:15:31  5-MIN KSTC 282215Z 32015G24KT 1 1/2SM -SN OVC031 M16/M19 A2997 980 72 -2600 310/15G24 RMK AO2 P0000 T11561194
14926KSTC STC20190128162012401/28/19 16:20:31  5-MIN KSTC 282220Z 32012G22KT 2SM -SN OVC031 M16/M19 A2998 980 72 -2600 320/12G22 RMK AO2 P0000 T11561194
14926KSTC STC20190128162512401/28/19 16:25:31  5-MIN KSTC 282225Z 31013G21KT 2SM -SN OVC033 M16/M19 A2998 970 72 -2600 310/13G21 RMK AO2 P0000 T11561194
14926KSTC STC20190128163012201/28/19 16:30:31  5-MIN KSTC 282230Z 31012KT 2 1/2SM -SN OVC033 M16/M19 A2998 980 72 -2600 310/12 RMK AO2 P0000 T11561194
14926KSTC STC20190128163511801/28/19 16:35:31  5-MIN KSTC 282235Z 31014KT 3SM -SN OVC032 M16/M19 A2997 980 72 -2600 310/14 RMK AO2 P0000 T11561194
14926KSTC STC20190128164012201/28/19 16:40:31  5-MIN KSTC 282240Z 31014KT 2 1/2SM -SN OVC034 M16/M19 A2998 980 76 -2600 310/14 RMK AO2 P0000 T11611194
14926KSTC STC20190128164512401/28/19 16:45:31  5-MIN KSTC 282245Z 30016G22KT 2SM -SN OVC034 M16/M19 A2998 970 76 -2600 300/16G22 RMK AO2 P0000 T11611194
14926KSTC STC20190128165012501/28/19 16:50:31  5-MIN KSTC 282250Z 31019G25KT 1 3/4SM -SN FEW019 OVC032 M16/M19 A2998 970 76 -2600 310/19G25 RMK AO2 P0000
14926KSTC STC20190128165513501/28/19 16:55:31  5-MIN KSTC 282255Z 31017G25KT 1 3/4SM -SN FEW019 OVC032 M17/M20 A2998 970 76 -2700 310/17G25 RMK AO2 P0000 T11671200
14926KSTC STC20190128170011801/28/19 17:00:31  5-MIN KSTC 282300Z 30016KT 2SM -SN OVC036 M17/M20 A2998 970 76 -2700 300/16 RMK AO2 P0000 T11671200
14926KSTC STC20190128170512201/28/19 17:05:31  5-MIN KSTC 282305Z 30015KT 2 1/2SM -SN OVC036 M17/M20 A2998 970 76 -2700 300/15 RMK AO2 P0000 T11671200
14926KSTC STC20190128171012201/28/19 17:10:31  5-MIN KSTC 282310Z 30015KT 2 1/2SM -SN OVC038 M17/M20 A2999 970 76 -2700 300/15 RMK AO2 P0000 T11671200
14926KSTC STC20190128171512801/28/19 17:15:31  5-MIN KSTC 282315Z 30018G24KT 2 1/2SM -SN OVC040 M17/M20 A2999 970 76 -2700 300/18G24 RMK AO2 P0000 T11671200
14926KSTC STC20190128172012801/28/19 17:20:31  5-MIN KSTC 282320Z 30019G24KT 2 1/2SM -SN OVC040 M17/M20 A2999 960 76 -2700 300/19G24 RMK AO2 P0000 T11671200
14926KSTC STC20190128172514201/28/19 17:25:31  5-MIN KSTC 282325Z 31019G26KT 2SM -SN OVC042 M17/M20 A2999 960 76 -2700 300/19G26 RMK AO2 PK WND 30026/2325 P0000 T11671200
14926KSTC STC20190128173014201/28/19 17:30:31  5-MIN KSTC 282330Z 31016G26KT 2SM -SN OVC042 M17/M21 A2999 960 72 -2700 310/16G26 RMK AO2 PK WND 30026/2325 P0000 T11671206
14926KSTC STC20190128173514601/28/19 17:35:31  5-MIN KSTC 282335Z 31016G24KT 2 1/2SM -SN OVC044 M17/M21 A2999 960 72 -2700 310/16G24 RMK AO2 PK WND 30026/2325 P0000 T11671206
14926KSTC STC20190128174014201/28/19 17:40:31  5-MIN KSTC 282340Z 31018G24KT 4SM -SN OVC044 M17/M21 A3000 960 72 -2700 310/18G24 RMK AO2 PK WND 30026/2325 P0000 T11671206
14926KSTC STC20190128174514201/28/19 17:45:31  5-MIN KSTC 282345Z 31016G24KT 4SM -SN OVC045 M17/M21 A3000 960 72 -2700 310/16G24 RMK AO2 PK WND 30026/2325 P0000 T11671206
14926KSTC STC20190128175016701/28/19 17:50:31  5-MIN KSTC 282350Z 31015KT 4SM -SN OVC045 M17/M21 A3000 960 72 -2700 310/15 RMK AO2 PK WND 30026/2325 SLP194 P0000 60000 T11671206 11122 21167 55001
14926KSTC STC20190128175511801/28/19 17:55:31  5-MIN KSTC 282355Z 31016KT 4SM -SN OVC047 M17/M21 A3000 950 72 -2700 310/16 RMK AO2 P0000 T11671206
14926KSTC STC20190128180013101/28/19 18:00:31  5-MIN KSTC 290000Z 32013G22KT 5SM -SN BKN049 OVC085 M17/M21 A3000 950 69 -2700 310/13G22 RMK AO2 P0000 T11671211
14926KSTC STC20190128180513201/28/19 18:05:31  5-MIN KSTC 290005Z 31014KT 6SM -SN BKN049 BKN070 OVC085 M17/M21 A3000 950 69 -2700 310/14 RMK AO2 P0000 T11671211
14926KSTC STC20190128181014001/28/19 18:10:31  5-MIN KSTC 290010Z 31014G20KT 8SM SCT050 BKN070 OVC085 M17/M21 A3000 950 69 -2700 310/14G20 RMK AO2 SNE08 P0000 T11671211
14926KSTC STC20190128181514101/28/19 18:15:31  5-MIN KSTC 290015Z 31013G20KT 10SM SCT050 BKN070 OVC085 M17/M21 A3000 950 72 -2800 310/13G20 RMK AO2 SNE08 P0000 T11721211
14926KSTC STC20190128182012801/28/19 18:20:31  5-MIN KSTC 290020Z 31013KT 10SM SCT060 OVC085 M17/M21 A3000 950 72 -2800 310/13 RMK AO2 SNE08 P0000 T11721211
14926KSTC STC20190128182512801/28/19 18:25:31  5-MIN KSTC 290025Z 31009KT 10SM BKN065 OVC085 M17/M21 A3000 960 72 -2800 310/09 RMK AO2 SNE08 P0000 T11721211
14926KSTC STC20190128183012801/28/19 18:30:31  5-MIN KSTC 290030Z 31011KT 10SM BKN070 OVC085 M17/M21 A3000 960 72 -2800 310/11 RMK AO2 SNE08 P0000 T11721211
14926KSTC STC20190128183513401/28/19 18:35:31  5-MIN KSTC 290035Z 31013G19KT 10SM BKN070 OVC085 M17/M21 A3000 950 72 -2800 310/13G19 RMK AO2 SNE08 P0000 T11721211
14926KSTC STC20190128184012101/28/19 18:40:31  5-MIN KSTC 290040Z 32014KT 10SM OVC075 M17/M21 A3000 950 69 -2700 310/14 RMK AO2 SNE08 P0000 T11671211
14926KSTC STC20190128184512701/28/19 18:45:31  5-MIN KSTC 290045Z 32013G20KT 10SM OVC075 M17/M22 A3000 950 66 -2700 320/13G20 RMK AO2 SNE08 P0000 T11671217
14926KSTC STC20190128185013401/28/19 18:50:31  5-MIN KSTC 290050Z 32012G20KT 10SM OVC075 M17/M22 A3000 950 66 -2700 320/12G20 RMK AO2 SNE08 SLP195 P0000 T11671217
14926KSTC STC20190128185511501/28/19 18:55:31  5-MIN KSTC 290055Z 32012G20KT 10SM OVC075 M17/M22 A3000 950 66 -2700 320/12G20 RMK AO2 T11671217
14926KSTC STC20190128190010901/28/19 19:00:31  5-MIN KSTC 290100Z 32011KT 10SM OVC075 M17/M22 A3000 950 66 -2700 320/11 RMK AO2 T11671217
14926KSTC STC20190128190510901/28/19 19:05:31  5-MIN KSTC 290105Z 31013KT 10SM OVC075 M17/M22 A3000 950 66 -2700 310/13 RMK AO2 T11671217
14926KSTC STC20190128191010901/28/19 19:10:31  5-MIN KSTC 290110Z 31012KT 10SM OVC075 M17/M22 A3000 950 66 -2700 310/12 RMK AO2 T11671217
14926KSTC STC20190128191510901/28/19 19:15:31  5-MIN KSTC 290115Z 31013KT 10SM OVC075 M17/M22 A3000 950 69 -2800 310/13 RMK AO2 T11721217
14926KSTC STC20190128192010901/28/19 19:20:31  5-MIN KSTC 290120Z 30012KT 10SM OVC075 M17/M22 A3000 950 69 -2800 300/12 RMK AO2 T11721217
14926KSTC STC20190128192510901/28/19 19:25:31  5-MIN KSTC 290125Z 31012KT 10SM OVC075 M17/M21 A3000 950 72 -2800 310/12 RMK AO2 T11721211
14926KSTC STC20190128193010901/28/19 19:30:31  5-MIN KSTC 290130Z 31011KT 10SM OVC075 M17/M21 A3000 950 72 -2800 300/11 RMK AO2 T11721211
14926KSTC STC20190128193510901/28/19 19:35:31  5-MIN KSTC 290135Z 30011KT 10SM OVC075 M17/M21 A3000 950 72 -2800 300/11 RMK AO2 T11721211
14926KSTC STC20190128194009901/28/19 19:40:31  5-MIN KSTC 290140Z 10SM OVC070 M17/M22 A3000 950 69 -2800 M /M RMK AO2 T11721217
14926KSTC STC20190128194510901/28/19 19:45:31  5-MIN KSTC 290145Z 31010KT 10SM OVC070 M17/M22 A3000 950 69 -2800 310/10 RMK AO2 T11721217
14926KSTC STC20190128195011601/28/19 19:50:31  5-MIN KSTC 290150Z 31010KT 10SM BKN070 M17/M22 A3000 950 69 -2800 310/10 RMK AO2 SLP195 T11721217
14926KSTC STC20190128195510901/28/19 19:55:31  5-MIN KSTC 290155Z 30011KT 10SM BKN070 M18/M22 A3000 950 72 -2900 300/11 RMK AO2 T11781217
14926KSTC STC20190128200010901/28/19 20:00:31  5-MIN KSTC 290200Z 30010KT 10SM SCT070 M18/M22 A3000 960 69 -2900 290/10 RMK AO2 T11781222
14926KSTC STC20190128200510901/28/19 20:05:31  5-MIN KSTC 290205Z 29011KT 10SM FEW070 M18/M22 A3000 960 69 -2900 290/11 RMK AO2 T11781222
14926KSTC STC20190128201010901/28/19 20:10:31  5-MIN KSTC 290210Z 29012KT 10SM FEW070 M18/M22 A2999 960 69 -2900 290/12 RMK AO2 T11781222
14926KSTC STC20190128201510601/28/19 20:15:31  5-MIN KSTC 290215Z 30012KT 10SM CLR M18/M22 A2999 960 69 -2900 290/12 RMK AO2 T11781222
14926KSTC STC20190128202010601/28/19 20:20:31  5-MIN KSTC 290220Z 30011KT 10SM CLR M18/M22 A2999 960 69 -2900 300/11 RMK AO2 T11781222
14926KSTC STC20190128202510601/28/19 20:25:31  5-MIN KSTC 290225Z 30011KT 10SM CLR M18/M22 A2999 960 69 -2900 290/11 RMK AO2 T11781222
14926KSTC STC20190128203010601/28/19 20:30:31  5-MIN KSTC 290230Z 29010KT 10SM CLR M18/M22 A2999 970 69 -2900 290/10 RMK AO2 T11781222
14926KSTC STC20190128203510601/28/19 20:35:31  5-MIN KSTC 290235Z 29010KT 10SM CLR M18/M22 A2998 970 72 -2900 290/10 RMK AO2 T11831222
14926KSTC STC20190128204010601/28/19 20:40:31  5-MIN KSTC 290240Z 29010KT 10SM CLR M18/M22 A2998 970 72 -2900 290/10 RMK AO2 T11831222
14926KSTC STC20190128204510601/28/19 20:45:31  5-MIN KSTC 290245Z 29012KT 10SM CLR M18/M22 A2998 970 72 -2900 290/12 RMK AO2 T11831222
14926KSTC STC20190128205012501/28/19 20:50:31  5-MIN KSTC 290250Z 29012KT 10SM CLR M18/M22 A2998 970 72 -2900 290/12 RMK AO2 SLP190 60000 T11831222 53010
14926KSTC STC20190128205510601/28/19 20:55:31  5-MIN KSTC 290255Z 29011KT 10SM CLR M18/M22 A2998 970 72 -2900 290/11 RMK AO2 T11831222
14926KSTC STC20190128210010601/28/19 21:00:31  5-MIN KSTC 290300Z 29010KT 10SM CLR M18/M22 A2998 970 72 -2900 280/10 RMK AO2 T11831222
14926KSTC STC20190128210510601/28/19 21:05:31  5-MIN KSTC 290305Z 28009KT 10SM CLR M18/M23 A2998 970 68 -2900 280/09 RMK AO2 T11831228
14926KSTC STC20190128211010601/28/19 21:10:31  5-MIN KSTC 290310Z 28009KT 10SM CLR M19/M23 A2998 970 72 -3000 280/09 RMK AO2 T11891228
14926KSTC STC20190128211510601/28/19 21:15:31  5-MIN KSTC 290315Z 28009KT 10SM CLR M18/M23 A2998 970 68 -2900 280/09 RMK AO2 T11831228
14926KSTC STC20190128212010601/28/19 21:20:31  5-MIN KSTC 290320Z 29010KT 10SM CLR M18/M23 A2998 970 68 -2900 290/10 RMK AO2 T11831228
14926KSTC STC20190128212510601/28/19 21:25:31  5-MIN KSTC 290325Z 29009KT 10SM CLR M19/M23 A2998 970 72 -3000 290/09 RMK AO2 T11891228
14926KSTC STC20190128213010601/28/19 21:30:31  5-MIN KSTC 290330Z 29011KT 10SM CLR M19/M23 A2998 970 72 -3000 290/11 RMK AO2 T11891228
14926KSTC STC20190128213510601/28/19 21:35:31  5-MIN KSTC 290335Z 30010KT 10SM CLR M19/M23 A2998 970 72 -3000 290/10 RMK AO2 T11891228
14926KSTC STC20190128214010601/28/19 21:40:31  5-MIN KSTC 290340Z 30010KT 10SM CLR M19/M23 A2998 980 75 -3100 300/10 RMK AO2 T11941228
14926KSTC STC20190128214510601/28/19 21:45:31  5-MIN KSTC 290345Z 30012KT 10SM CLR M19/M23 A2998 980 72 -3000 300/12 RMK AO2 T11891228
14926KSTC STC20190128215011301/28/19 21:50:31  5-MIN KSTC 290350Z 30011KT 10SM CLR M19/M23 A2997 980 75 -3100 290/11 RMK AO2 SLP188 T11941228
14926KSTC STC20190128215510601/28/19 21:55:31  5-MIN KSTC 290355Z 30011KT 10SM CLR M19/M23 A2997 980 72 -3000 300/11 RMK AO2 T11891228
14926KSTC STC20190128220010601/28/19 22:00:31  5-MIN KSTC 290400Z 30010KT 10SM CLR M19/M23 A2997 980 75 -3100 300/10 RMK AO2 T11941228
14926KSTC STC20190128220510601/28/19 22:05:31  5-MIN KSTC 290405Z 31010KT 10SM CLR M19/M23 A2997 980 72 -3100 300/10 RMK AO2 T11941233
14926KSTC STC20190128221010601/28/19 22:10:31  5-MIN KSTC 290410Z 31008KT 10SM CLR M20/M23 A2996 990 75 -3100 310/08 RMK AO2 T12001233
14926KSTC STC20190128221510601/28/19 22:15:31  5-MIN KSTC 290415Z 31009KT 10SM CLR M20/M23 A2996 990 75 -3100 300/09 RMK AO2 T12001233
14926KSTC STC20190128222010601/28/19 22:20:31  5-MIN KSTC 290420Z 30011KT 10SM CLR M20/M23 A2996 990 75 -3100 300/11 RMK AO2 T12001233
14926KSTC STC20190128222510601/28/19 22:25:31  5-MIN KSTC 290425Z 30011KT 10SM CLR M20/M23 A2996 990 75 -3100 300/11 RMK AO2 T12001233
14926KSTC STC20190128223010701/28/19 22:30:31  5-MIN KSTC 290430Z 30010KT 10SM CLR M20/M23 A2995 1000 75 -3100 300/10 RMK AO2 T12001233
14926KSTC STC20190128223510701/28/19 22:35:31  5-MIN KSTC 290435Z 30011KT 10SM CLR M20/M23 A2995 1000 75 -3100 300/11 RMK AO2 T12001233
14926KSTC STC20190128224010701/28/19 22:40:31  5-MIN KSTC 290440Z 29009KT 10SM CLR M20/M23 A2995 1000 75 -3100 290/09 RMK AO2 T12001233
14926KSTC STC20190129193012801/29/19 19:30:31  5-MIN KSTC 300130Z 32015KT 9SM FEW025 M32/M37 A3014 820 62 -5100 320/15 RMK AO2 PK WND 32028/0109 T13221372 $
14926KSTC STC20190129193513201/29/19 19:35:31  5-MIN KSTC 300135Z 32015G22KT 10SM CLR M32/M37 A3014 820 62 -5100 310/15G22 RMK AO2 PK WND 32028/0109 T13221372 $
14926KSTC STC20190129194013201/29/19 19:40:31  5-MIN KSTC 300140Z 32015G26KT 10SM CLR M32/M37 A3015 820 62 -5100 310/15G26 RMK AO2 PK WND 32028/0109 T13221372 $
14926KSTC STC20190129194513201/29/19 19:45:31  5-MIN KSTC 300145Z 31017G26KT 10SM CLR M32/M37 A3015 820 62 -5100 310/17G26 RMK AO2 PK WND 32028/0109 T13221372 $
14926KSTC STC20190129195013901/29/19 19:50:31  5-MIN KSTC 300150Z 32015G23KT 10SM CLR M33/M37 A3015 810 65 -5200 320/15G23 RMK AO2 PK WND 32028/0109 SLP260 T13281372 $
14926KSTC STC20190129195511401/29/19 19:55:31  5-MIN KSTC 300155Z 32015G23KT 10SM CLR M33/M37 A3015 810 65 -5200 320/15G23 RMK AO2 T13281372 $
14926KSTC STC20190129200010801/29/19 20:00:31  5-MIN KSTC 300200Z 31015KT 10SM CLR M33/M38 A3015 810 62 -5200 310/15 RMK AO2 T13281378 $
14926KSTC STC20190129200511401/29/19 20:05:31  5-MIN KSTC 300205Z 31016G23KT 10SM CLR M33/M38 A3015 810 62 -5200 310/16G23 RMK AO2 T13281378 $
14926KSTC STC20190129201010801/29/19 20:10:31  5-MIN KSTC 300210Z 32012KT 10SM CLR M33/M38 A3015 810 62 -5200 320/12 RMK AO2 T13281378 $
14926KSTC STC20190129201511401/29/19 20:15:31  5-MIN KSTC 300215Z 31015G21KT 10SM CLR M33/M38 A3015 810 62 -5200 310/15G21 RMK AO2 T13281378 $
14926KSTC STC20190129202011401/29/19 20:20:31  5-MIN KSTC 300220Z 31013G21KT 10SM CLR M33/M38 A3015 810 62 -5200 310/13G21 RMK AO2 T13281378 $
14926KSTC STC20190129202511401/29/19 20:25:31  5-MIN KSTC 300225Z 32015G22KT 10SM CLR M33/M38 A3016 810 62 -5200 320/15G22 RMK AO2 T13281378 $
14926KSTC STC20190129203011401/29/19 20:30:31  5-MIN KSTC 300230Z 32016G22KT 10SM CLR M33/M38 A3016 810 62 -5200 310/16G22 RMK AO2 T13281378 $
14926KSTC STC20190129203511401/29/19 20:35:31  5-MIN KSTC 300235Z 32017G24KT 10SM CLR M33/M38 A3016 810 59 -5200 320/17G24 RMK AO2 T13281383 $
14926KSTC STC20190129204011401/29/19 20:40:31  5-MIN KSTC 300240Z 32013G24KT 10SM CLR M33/M38 A3016 800 59 -5200 320/13G24 RMK AO2 T13281383 $
14926KSTC STC20190129204511401/29/19 20:45:31  5-MIN KSTC 300245Z 31014G25KT 10SM CLR M33/M38 A3016 800 59 -5200 310/14G25 RMK AO2 T13281383 $
14926KSTC STC20190129205012701/29/19 20:50:31  5-MIN KSTC 300250Z 31014G25KT 10SM CLR M33/M38 A3016 800 59 -5200 310/14G25 RMK AO2 SLP263 T13281383 53011 $
14926KSTC STC20190129205511401/29/19 20:55:31  5-MIN KSTC 300255Z 32016G22KT 10SM CLR M33/M38 A3017 800 59 -5200 320/16G22 RMK AO2 T13281383 $
14926KSTC STC20190129210011401/29/19 21:00:31  5-MIN KSTC 300300Z 31017G24KT 10SM CLR M33/M38 A3017 800 59 -5200 310/17G24 RMK AO2 T13281383 $
14926KSTC STC20190129210511401/29/19 21:05:31  5-MIN KSTC 300305Z 31016G24KT 10SM CLR M33/M38 A3017 800 65 -5300 310/16G24 RMK AO2 T13331378 $
14926KSTC STC20190129211011401/29/19 21:10:31  5-MIN KSTC 300310Z 31012G22KT 10SM CLR M33/M38 A3017 800 62 -5300 310/12G22 RMK AO2 T13331383 $
14926KSTC STC20190129211510801/29/19 21:15:31  5-MIN KSTC 300315Z 31015KT 10SM CLR M33/M38 A3017 800 62 -5300 310/15 RMK AO2 T13331383 $
14926KSTC STC20190129212010801/29/19 21:20:31  5-MIN KSTC 300320Z 32013KT 10SM CLR M33/M38 A3017 800 62 -5300 310/13 RMK AO2 T13331383 $
14926KSTC STC20190129212510801/29/19 21:25:31  5-MIN KSTC 300325Z 32013KT 10SM CLR M33/M38 A3017 800 62 -5300 320/13 RMK AO2 T13331383 $
14926KSTC STC20190129213010801/29/19 21:30:31  5-MIN KSTC 300330Z 31015KT 10SM CLR M33/M38 A3017 790 62 -5300 310/15 RMK AO2 T13331383 $
14926KSTC STC20190129213511401/29/19 21:35:31  5-MIN KSTC 300335Z 31016G24KT 10SM CLR M33/M38 A3017 790 62 -5300 310/16G24 RMK AO2 T13331383 $
14926KSTC STC20190129214011401/29/19 21:40:31  5-MIN KSTC 300340Z 32014G24KT 10SM CLR M33/M38 A3017 790 62 -5300 310/14G24 RMK AO2 T13331383 $
14926KSTC STC20190129214511401/29/19 21:45:31  5-MIN KSTC 300345Z 32011G21KT 10SM CLR M33/M38 A3017 790 62 -5300 320/11G21 RMK AO2 T13331383 $
14926KSTC STC20190129215012101/29/19 21:50:31  5-MIN KSTC 300350Z 32013G21KT 10SM CLR M33/M38 A3017 790 62 -5300 310/13G21 RMK AO2 SLP267 T13331383 $
14926KSTC STC20190129215511401/29/19 21:55:31  5-MIN KSTC 300355Z 32014G22KT 10SM CLR M33/M38 A3017 790 62 -5300 310/14G22 RMK AO2 T13331383 $
14926KSTC STC20190129220011401/29/19 22:00:31  5-MIN KSTC 300400Z 31015G22KT 10SM CLR M33/M38 A3018 790 62 -5300 310/15G22 RMK AO2 T13331383 $
14926KSTC STC20190129220511401/29/19 22:05:31  5-MIN KSTC 300405Z 32016G22KT 10SM CLR M33/M38 A3018 790 62 -5300 320/16G22 RMK AO2 T13331383 $
14926KSTC STC20190129221010801/29/19 22:10:31  5-MIN KSTC 300410Z 32014KT 10SM CLR M33/M38 A3018 790 62 -5300 310/14 RMK AO2 T13331383 $
14926KSTC STC20190129221511401/29/19 22:15:31  5-MIN KSTC 300415Z 32015G22KT 10SM CLR M33/M38 A3018 790 62 -5300 310/15G22 RMK AO2 T13331383 $
14926KSTC STC20190129222011401/29/19 22:20:31  5-MIN KSTC 300420Z 32012G22KT 10SM CLR M33/M38 A3018 790 62 -5300 310/12G22 RMK AO2 T13331383 $
14926KSTC STC20190129222511401/29/19 22:25:31  5-MIN KSTC 300425Z 31012G20KT 10SM CLR M34/M38 A3018 790 65 -5400 310/12G20 RMK AO2 T13391383 $
14926KSTC STC20190129223011401/29/19 22:30:31  5-MIN KSTC 300430Z 31015G21KT 10SM CLR M34/M38 A3018 790 65 -5400 310/15G21 RMK AO2 T13391383 $
14926KSTC STC20190129223510801/29/19 22:35:31  5-MIN KSTC 300435Z 31013KT 10SM CLR M34/M38 A3018 790 65 -5400 310/13 RMK AO2 T13391383 $
14926KSTC STC20190129224011101/29/19 22:40:31  5-MIN KSTC 300440Z 31015KT 10SM FEW055 M34/M38 A3018 790 65 -5400 310/15 RMK AO2 T13391383 $
14926KSTC STC20190129224511101/29/19 22:45:31  5-MIN KSTC 300445Z 31012KT 10SM FEW055 M34/M38 A3018 790 65 -5400 310/12 RMK AO2 T13391383 $
14926KSTC STC20190129225012401/29/19 22:50:31  5-MIN KSTC 300450Z 31015G21KT 10SM FEW055 M34/M38 A3018 790 65 -5400 310/15G21 RMK AO2 SLP271 T13391383 $
14926KSTC STC20190129225511101/29/19 22:55:31  5-MIN KSTC 300455Z 31014KT 10SM FEW055 M34/M39 A3018 790 62 -5400 310/14 RMK AO2 T13391389 $
14926KSTC STC20190129230011701/29/19 23:00:31  5-MIN KSTC 300500Z 31013G21KT 10SM FEW055 M34/M39 A3018 790 62 -5400 310/13G21 RMK AO2 T13391389 $
14926KSTC STC20190129230511401/29/19 23:05:31  5-MIN KSTC 300505Z 32013G20KT 10SM CLR M34/M39 A3018 790 62 -5400 320/13G20 RMK AO2 T13391389 $
14926KSTC STC20190129231011401/29/19 23:10:31  5-MIN KSTC 300510Z 32011G20KT 10SM CLR M34/M39 A3018 790 62 -5400 320/11G20 RMK AO2 T13391389 $
14926KSTC STC20190129231511401/29/19 23:15:31  5-MIN KSTC 300515Z 31014G19KT 10SM CLR M34/M39 A3018 790 62 -5400 310/14G19 RMK AO2 T13391389 $
14926KSTC STC20190129232011401/29/19 23:20:31  5-MIN KSTC 300520Z 32011G21KT 10SM CLR M34/M39 A3018 790 62 -5400 320/11G21 RMK AO2 T13391389 $
14926KSTC STC20190129232511401/29/19 23:25:31  5-MIN KSTC 300525Z 31013G21KT 10SM CLR M34/M39 A3018 790 62 -5400 310/13G21 RMK AO2 T13391389 $
14926KSTC STC20190129233011401/29/19 23:30:31  5-MIN KSTC 300530Z 31013G20KT 10SM CLR M34/M39 A3018 790 62 -5400 310/13G20 RMK AO2 T13391389 $
14926KSTC STC20190129233510801/29/19 23:35:31  5-MIN KSTC 300535Z 31015KT 10SM CLR M34/M39 A3018 780 62 -5400 310/15 RMK AO2 T13391389 $
14926KSTC STC20190129234010801/29/19 23:40:31  5-MIN KSTC 300540Z 32014KT 10SM CLR M34/M39 A3018 790 62 -5400 310/14 RMK AO2 T13391389 $
14926KSTC STC20190129234510801/29/19 23:45:31  5-MIN KSTC 300545Z 32014KT 10SM CLR M34/M39 A3018 790 62 -5400 310/14 RMK AO2 T13391389 $
14926KSTC STC20190129235014901/29/19 23:50:31  5-MIN KSTC 300550Z 31015G21KT 10SM CLR M34/M39 A3018 790 62 -5400 310/15G21 RMK AO2 SLP271 T13391389 11311 21339 412221339 51018 $
14926KSTC STC20190129235511401/29/19 23:55:31  5-MIN KSTC 300555Z 31012G21KT 10SM CLR M34/M39 A3018 780 62 -5400 310/12G21 RMK AO2 T13391389 $
14926KSTC STC20190130000010801/30/19 00:00:31  5-MIN KSTC 300600Z 32011KT 10SM CLR M34/M39 A3019 780 62 -5400 320/11 RMK AO2 T13391389 $
14926KSTC STC20190130000510801/30/19 00:05:31  5-MIN KSTC 300605Z 32012KT 10SM CLR M34/M39 A3019 780 62 -5400 310/12 RMK AO2 T13391389 $
14926KSTC STC20190130001010801/30/19 00:10:31  5-MIN KSTC 300610Z 32012KT 10SM CLR M34/M39 A3019 780 62 -5400 320/12 RMK AO2 T13391389 $
14926KSTC STC20190130001510801/30/19 00:15:31  5-MIN KSTC 300615Z 32013KT 10SM CLR M34/M39 A3019 780 62 -5400 310/13 RMK AO2 T13391389 $
14926KSTC STC20190130002010801/30/19 00:20:31  5-MIN KSTC 300620Z 32012KT 10SM CLR M34/M39 A3018 780 62 -5400 320/12 RMK AO2 T13391389 $
14926KSTC STC20190130002511301/30/19 00:25:31  5-MIN KSTC 300625Z AUTO 31013KT 10SM CLR M34/M39 A3018 780 62 -5400 310/13 RMK AO2 T13391389 $
14926KSTC STC20190130003011901/30/19 00:30:31  5-MIN KSTC 300630Z AUTO 31011G19KT 10SM CLR M34/M39 A3018 790 62 -5400 310/11G19 RMK AO2 T13391389 $
14926KSTC STC20190130003511301/30/19 00:35:31  5-MIN KSTC 300635Z AUTO 31012KT 10SM CLR M34/M39 A3018 780 62 -5400 310/12 RMK AO2 T13391389 $
14926KSTC STC20190130004011301/30/19 00:40:31  5-MIN KSTC 300640Z AUTO 31013KT 10SM CLR M34/M39 A3018 780 62 -5400 310/13 RMK AO2 T13391389 $
14926KSTC STC20190130004511301/30/19 00:45:31  5-MIN KSTC 300645Z AUTO 31013KT 10SM CLR M34/M39 A3018 780 62 -5400 310/13 RMK AO2 T13391389 $
14926KSTC STC20190130005012601/30/19 00:50:31  5-MIN KSTC 300650Z AUTO 31015G25KT 10SM CLR M34/M39 A3018 780 62 -5400 310/15G25 RMK AO2 SLP272 T13391389 $
14926KSTC STC20190130005511101/30/19 00:55:31  5-MIN KSTC 300655Z AUTO 30015G25KT 10SM CLR M34/ A3019 780 M -5500 300/15G25 RMK AO2 T1344 $
14926KSTC STC20190130010010501/30/19 01:00:31  5-MIN KSTC 300700Z AUTO 31013KT 10SM CLR M34/ A3019 780 M -5500 310/13 RMK AO2 T1344 $
14926KSTC STC20190130010510501/30/19 01:05:31  5-MIN KSTC 300705Z AUTO 31014KT 10SM CLR M34/ A3019 780 M -5500 300/14 RMK AO2 T1344 $
14926KSTC STC20190130011010501/30/19 01:10:31  5-MIN KSTC 300710Z AUTO 31013KT 10SM CLR M34/ A3019 780 M -5500 310/13 RMK AO2 T1344 $
14926KSTC STC20190130011510501/30/19 01:15:31  5-MIN KSTC 300715Z AUTO 30012KT 10SM CLR M34/ A3019 780 M -5500 300/12 RMK AO2 T1344 $
14926KSTC STC20190130012010501/30/19 01:20:31  5-MIN KSTC 300720Z AUTO 30012KT 10SM CLR M34/ A3019 780 M -5500 300/12 RMK AO2 T1344 $
14926KSTC STC20190130012510501/30/19 01:25:31  5-MIN KSTC 300725Z AUTO 31013KT 10SM CLR M34/ A3019 780 M -5500 310/13 RMK AO2 T1344 $
14926KSTC STC20190130013010501/30/19 01:30:31  5-MIN KSTC 300730Z AUTO 31013KT 10SM CLR M34/ A3019 780 M -5500 310/13 RMK AO2 T1344 $
14926KSTC STC20190130013510501/30/19 01:35:31  5-MIN KSTC 300735Z AUTO 31013KT 10SM CLR M34/ A3019 780 M -5500 310/13 RMK AO2 T1344 $
14926KSTC STC20190130014010501/30/19 01:40:31  5-MIN KSTC 300740Z AUTO 30012KT 10SM CLR M34/ A3019 770 M -5500 300/12 RMK AO2 T1344 $
14926KSTC STC20190130014510501/30/19 01:45:31  5-MIN KSTC 300745Z AUTO 31013KT 10SM CLR M34/ A3020 770 M -5500 300/13 RMK AO2 T1344 $
14926KSTC STC20190130015011201/30/19 01:50:31  5-MIN KSTC 300750Z AUTO 31014KT 10SM CLR M34/ A3020 770 M -5500 310/14 RMK AO2 SLP277 T1344 $
14926KSTC STC20190130015510501/30/19 01:55:31  5-MIN KSTC 300755Z AUTO 31013KT 10SM CLR M34/ A3020 770 M -5500 300/13 RMK AO2 T1344 $
14926KSTC STC20190130020010501/30/19 02:00:31  5-MIN KSTC 300800Z AUTO 31012KT 10SM CLR M34/ A3020 770 M -5500 310/12 RMK AO2 T1344 $
14926KSTC STC20190130020510501/30/19 02:05:31  5-MIN KSTC 300805Z AUTO 31013KT 10SM CLR M34/ A3020 770 M -5500 300/13 RMK AO2 T1344 $
14926KSTC STC20190130021010501/30/19 02:10:31  5-MIN KSTC 300810Z AUTO 30012KT 10SM CLR M34/ A3020 770 M -5500 300/12 RMK AO2 T1344 $
14926KSTC STC20190130021510501/30/19 02:15:31  5-MIN KSTC 300815Z AUTO 30013KT 10SM CLR M34/ A3020 770 M -5500 300/13 RMK AO2 T1344 $
14926KSTC STC20190130022010501/30/19 02:20:31  5-MIN KSTC 300820Z AUTO 30012KT 10SM CLR M34/ A3020 770 M -5500 300/12 RMK AO2 T1344 $
14926KSTC STC20190130022510501/30/19 02:25:31  5-MIN KSTC 300825Z AUTO 30014KT 10SM CLR M34/ A3021 760 M -5500 300/14 RMK AO2 T1344 $
14926KSTC STC20190130023010501/30/19 02:30:31  5-MIN KSTC 300830Z AUTO 30012KT 10SM CLR M34/ A3021 760 M -5500 300/12 RMK AO2 T1344 $
14926KSTC STC20190130023510501/30/19 02:35:31  5-MIN KSTC 300835Z AUTO 30014KT 10SM CLR M34/ A3021 760 M -5500 300/14 RMK AO2 T1344 $
14926KSTC STC20190130024010501/30/19 02:40:31  5-MIN KSTC 300840Z AUTO 30015KT 10SM CLR M34/ A3021 760 M -5500 300/15 RMK AO2 T1344 $
14926KSTC STC20190130024510501/30/19 02:45:31  5-MIN KSTC 300845Z AUTO 30015KT 10SM CLR M34/ A3021 760 M -5500 300/15 RMK AO2 T1344 $
14926KSTC STC20190130025011801/30/19 02:50:31  5-MIN KSTC 300850Z AUTO 30011KT 10SM CLR M34/ A3021 760 M -5500 300/11 RMK AO2 SLP281 T1344 51006 $
14926KSTC STC20190130025510501/30/19 02:55:31  5-MIN KSTC 300855Z AUTO 30013KT 10SM CLR M34/ A3021 760 M -5500 300/13 RMK AO2 T1344 $
14926KSTC STC20190130030010501/30/19 03:00:31  5-MIN KSTC 300900Z AUTO 30014KT 10SM CLR M34/ A3021 760 M -5500 300/14 RMK AO2 T1344 $
14926KSTC STC20190130030510501/30/19 03:05:31  5-MIN KSTC 300905Z AUTO 30014KT 10SM CLR M34/ A3020 770 M -5500 300/14 RMK AO2 T1344 $
14926KSTC STC20190130031010501/30/19 03:10:31  5-MIN KSTC 300910Z AUTO 30012KT 10SM CLR M34/ A3020 770 M -5500 300/12 RMK AO2 T1344 $
14926KSTC STC20190130031510501/30/19 03:15:31  5-MIN KSTC 300915Z AUTO 30014KT 10SM CLR M34/ A3020 760 M -5500 300/14 RMK AO2 T1344 $
14926KSTC STC20190130032010501/30/19 03:20:31  5-MIN KSTC 300920Z AUTO 30015KT 10SM CLR M34/ A3021 760 M -5500 300/15 RMK AO2 T1344 $
14926KSTC STC20190130032510501/30/19 03:25:31  5-MIN KSTC 300925Z AUTO 31015KT 10SM CLR M34/ A3020 760 M -5500 310/15 RMK AO2 T1344 $
14926KSTC STC20190130033010501/30/19 03:30:31  5-MIN KSTC 300930Z AUTO 31013KT 10SM CLR M34/ A3020 770 M -5500 310/13 RMK AO2 T1344 $
14926KSTC STC20190130033510501/30/19 03:35:31  5-MIN KSTC 300935Z AUTO 31014KT 10SM CLR M34/ A3020 770 M -5500 310/14 RMK AO2 T1344 $
14926KSTC STC20190130034010501/30/19 03:40:31  5-MIN KSTC 300940Z AUTO 31012KT 10SM CLR M34/ A3020 770 M -5500 310/12 RMK AO2 T1344 $
14926KSTC STC20190130034510501/30/19 03:45:31  5-MIN KSTC 300945Z AUTO 31015KT 10SM CLR M34/ A3020 770 M -5500 310/15 RMK AO2 T1344 $
14926KSTC STC20190130035011201/30/19 03:50:31  5-MIN KSTC 300950Z AUTO 30014KT 10SM CLR M34/ A3020 770 M -5500 300/14 RMK AO2 SLP281 T1344 $
14926KSTC STC20190130035510501/30/19 03:55:31  5-MIN KSTC 300955Z AUTO 30014KT 10SM CLR M34/ A3020 770 M -5500 300/14 RMK AO2 T1344 $
14926KSTC STC20190130040010501/30/19 04:00:31  5-MIN KSTC 301000Z AUTO 30013KT 10SM CLR M34/ A3020 760 M -5500 300/13 RMK AO2 T1344 $
14926KSTC STC20190130040510501/30/19 04:05:31  5-MIN KSTC 301005Z AUTO 31014KT 10SM CLR M34/ A3020 770 M -5500 300/14 RMK AO2 T1344 $
14926KSTC STC20190130041010501/30/19 04:10:31  5-MIN KSTC 301010Z AUTO 31015KT 10SM CLR M34/ A3020 770 M -5500 300/15 RMK AO2 T1344 $
14926KSTC STC20190130041510501/30/19 04:15:31  5-MIN KSTC 301015Z AUTO 31014KT 10SM CLR M34/ A3020 770 M -5500 310/14 RMK AO2 T1344 $
14926KSTC STC20190130042010501/30/19 04:20:31  5-MIN KSTC 301020Z AUTO 31016KT 10SM CLR M34/ A3020 770 M -5500 310/16 RMK AO2 T1344 $
14926KSTC STC20190130042510501/30/19 04:25:31  5-MIN KSTC 301025Z AUTO 31014KT 10SM CLR M34/ A3020 770 M -5500 310/14 RMK AO2 T1344 $
14926KSTC STC20190130043010501/30/19 04:30:31  5-MIN KSTC 301030Z AUTO 31012KT 10SM CLR M34/ A3020 770 M -5500 310/12 RMK AO2 T1344 $
14926KSTC STC20190130043510501/30/19 04:35:31  5-MIN KSTC 301035Z AUTO 31012KT 10SM CLR M34/ A3020 770 M -5500 310/12 RMK AO2 T1344 $
14926KSTC STC20190130044010501/30/19 04:40:31  5-MIN KSTC 301040Z AUTO 31013KT 10SM CLR M34/ A3020 770 M -5500 310/13 RMK AO2 T1344 $
14926KSTC STC20190130044510501/30/19 04:45:31  5-MIN KSTC 301045Z AUTO 31013KT 10SM CLR M34/ A3020 770 M -5500 310/13 RMK AO2 T1344 $
14926KSTC STC20190130045011201/30/19 04:50:31  5-MIN KSTC 301050Z AUTO 31012KT 10SM CLR M34/ A3020 770 M -5500 310/12 RMK AO2 SLP281 T1344 $
14926KSTC STC20190130045510501/30/19 04:55:31  5-MIN KSTC 301055Z AUTO 31012KT 10SM CLR M34/ A3020 760 M -5500 310/12 RMK AO2 T1344 $
14926KSTC STC20190130050010501/30/19 05:00:31  5-MIN KSTC 301100Z AUTO 31012KT 10SM CLR M34/ A3020 770 M -5500 310/12 RMK AO2 T1344 $
14926KSTC STC20190130050510501/30/19 05:05:31  5-MIN KSTC 301105Z AUTO 31012KT 10SM CLR M34/ A3020 770 M -5500 310/12 RMK AO2 T1344 $
14926KSTC STC20190130051010501/30/19 05:10:31  5-MIN KSTC 301110Z AUTO 31012KT 10SM CLR M34/ A3020 770 M -5500 310/12 RMK AO2 T1344 $
14926KSTC STC20190130051510501/30/19 05:15:31  5-MIN KSTC 301115Z AUTO 31011KT 10SM CLR M34/ A3020 760 M -5500 310/11 RMK AO2 T1344 $
14926KSTC STC20190130052010501/30/19 05:20:31  5-MIN KSTC 301120Z AUTO 31011KT 10SM CLR M35/ A3021 760 M -5600 310/11 RMK AO2 T1350 $
14926KSTC STC20190130052510501/30/19 05:25:31  5-MIN KSTC 301125Z AUTO 31011KT 10SM CLR M35/ A3021 760 M -5600 310/11 RMK AO2 T1350 $
14926KSTC STC20190130053010501/30/19 05:30:31  5-MIN KSTC 301130Z AUTO 31013KT 10SM CLR M35/ A3021 760 M -5600 310/13 RMK AO2 T1350 $
14926KSTC STC20190130053510501/30/19 05:35:31  5-MIN KSTC 301135Z AUTO 31011KT 10SM CLR M35/ A3021 760 M -5600 310/11 RMK AO2 T1350 $
14926KSTC STC20190130054010501/30/19 05:40:31  5-MIN KSTC 301140Z AUTO 31011KT 10SM CLR M35/ A3021 760 M -5600 310/11 RMK AO2 T1350 $
14926KSTC STC20190130054510501/30/19 05:45:31  5-MIN KSTC 301145Z AUTO 31010KT 10SM CLR M35/ A3021 760 M -5600 310/10 RMK AO2 T1350 $
14926KSTC STC20190130055013001/30/19 05:50:31  5-MIN KSTC 301150Z AUTO 31012KT 10SM CLR M35/ A3021 760 M -5600 310/12 RMK AO2 SLP284 T1350 11339 21350 53008 $
14926KSTC STC20190130055510501/30/19 05:55:31  5-MIN KSTC 301155Z AUTO 31011KT 10SM CLR M35/ A3021 760 M -5600 310/11 RMK AO2 T1350 $
14926KSTC STC20190130060010501/30/19 06:00:31  5-MIN KSTC 301200Z AUTO 31010KT 10SM CLR M35/ A3021 760 M -5600 310/10 RMK AO2 T1350 $
14926KSTC STC20190130060510501/30/19 06:05:31  5-MIN KSTC 301205Z AUTO 31010KT 10SM CLR M35/ A3021 760 M -5600 310/10 RMK AO2 T1350 $
14926KSTC STC20190130061010501/30/19 06:10:31  5-MIN KSTC 301210Z AUTO 31011KT 10SM CLR M35/ A3021 760 M -5600 310/11 RMK AO2 T1350 $
14926KSTC STC20190130061510501/30/19 06:15:31  5-MIN KSTC 301215Z AUTO 31012KT 10SM CLR M35/ A3021 760 M -5600 310/12 RMK AO2 T1350 $
14926KSTC STC20190130062010501/30/19 06:20:31  5-MIN KSTC 301220Z AUTO 31011KT 10SM CLR M35/ A3021 760 M -5600 310/11 RMK AO2 T1350 $
14926KSTC STC20190130062510501/30/19 06:25:31  5-MIN KSTC 301225Z AUTO 31012KT 10SM CLR M35/ A3021 760 M -5600 310/12 RMK AO2 T1350 $
14926KSTC STC20190130063010501/30/19 06:30:31  5-MIN KSTC 301230Z AUTO 31011KT 10SM CLR M35/ A3021 760 M -5600 310/11 RMK AO2 T1350 $
14926KSTC STC20190130063510501/30/19 06:35:31  5-MIN KSTC 301235Z AUTO 31010KT 10SM CLR M35/ A3021 760 M -5600 310/10 RMK AO2 T1350 $
14926KSTC STC20190130064010501/30/19 06:40:31  5-MIN KSTC 301240Z AUTO 31009KT 10SM CLR M35/ A3021 760 M -5600 310/09 RMK AO2 T1350 $
14926KSTC STC20190130064510501/30/19 06:45:31  5-MIN KSTC 301245Z AUTO 31010KT 10SM CLR M35/ A3022 750 M -5600 310/10 RMK AO2 T1350 $
14926KSTC STC20190130065011201/30/19 06:50:31  5-MIN KSTC 301250Z AUTO 31010KT 10SM CLR M35/ A3022 750 M -5600 310/10 RMK AO2 SLP288 T1350 $
14926KSTC STC20190130065510501/30/19 06:55:31  5-MIN KSTC 301255Z AUTO 31009KT 10SM CLR M35/ A3022 750 M -5600 310/09 RMK AO2 T1350 $
14926KSTC STC20190130070010501/30/19 07:00:31  5-MIN KSTC 301300Z AUTO 31009KT 10SM CLR M35/ A3022 750 M -5600 310/09 RMK AO2 T1350 $
14926KSTC STC20190130070510501/30/19 07:05:31  5-MIN KSTC 301305Z AUTO 31010KT 10SM CLR M35/ A3022 750 M -5600 310/10 RMK AO2 T1350 $
14926KSTC STC20190130071010501/30/19 07:10:31  5-MIN KSTC 301310Z AUTO 31010KT 10SM CLR M35/ A3023 750 M -5600 310/10 RMK AO2 T1350 $
14926KSTC STC20190130071510501/30/19 07:15:31  5-MIN KSTC 301315Z AUTO 31010KT 10SM CLR M35/ A3023 740 M -5600 310/10 RMK AO2 T1350 $
14926KSTC STC20190130072010501/30/19 07:20:31  5-MIN KSTC 301320Z AUTO 31010KT 10SM CLR M35/ A3023 740 M -5600 300/10 RMK AO2 T1350 $
14926KSTC STC20190130072510501/30/19 07:25:31  5-MIN KSTC 301325Z AUTO 31010KT 10SM CLR M35/ A3023 740 M -5600 300/10 RMK AO2 T1350 $
14926KSTC STC20190131043510301/31/19 04:35:31  5-MIN KSTC 311035Z AUTO 00000KT 10SM CLR M37/ A3025 720 M -5900 000/00 RMK AO2 T1367
14926KSTC STC20190131044010301/31/19 04:40:31  5-MIN KSTC 311040Z AUTO 00000KT 10SM CLR M37/ A3025 720 M -5900 000/00 RMK AO2 T1367
14926KSTC STC20190131044510301/31/19 04:45:31  5-MIN KSTC 311045Z AUTO 00000KT 10SM CLR M37/ A3025 720 M -5900 000/00 RMK AO2 T1367
14926KSTC STC20190131045011001/31/19 04:50:31  5-MIN KSTC 311050Z AUTO 00000KT 10SM CLR M37/ A3025 730 M -5900 000/00 RMK AO2 SLP297 T1367
14926KSTC STC20190131045510301/31/19 04:55:31  5-MIN KSTC 311055Z AUTO 00000KT 10SM CLR M37/ A3025 730 M -5900 000/00 RMK AO2 T1367
14926KSTC STC20190131050010301/31/19 05:00:31  5-MIN KSTC 311100Z AUTO 00000KT 10SM CLR M37/ A3024 730 M -5900 000/00 RMK AO2 T1367
14926KSTC STC20190131050510301/31/19 05:05:31  5-MIN KSTC 311105Z AUTO 00000KT 10SM CLR M37/ A3024 730 M -5900 000/00 RMK AO2 T1367
14926KSTC STC20190131051010301/31/19 05:10:31  5-MIN KSTC 311110Z AUTO 00000KT 10SM CLR M37/ A3024 730 M -5900 000/00 RMK AO2 T1367
14926KSTC STC20190131051510301/31/19 05:15:31  5-MIN KSTC 311115Z AUTO 15003KT 10SM CLR M37/ A3024 730 M -5900 150/03 RMK AO2 T1367
14926KSTC STC20190131052010301/31/19 05:20:31  5-MIN KSTC 311120Z AUTO 15004KT 10SM CLR M37/ A3025 720 M -5900 150/04 RMK AO2 T1367
14926KSTC STC20190131052510301/31/19 05:25:31  5-MIN KSTC 311125Z AUTO 16004KT 10SM CLR M36/ A3025 730 M -5800 160/04 RMK AO2 T1361
14926KSTC STC20190131053010301/31/19 05:30:31  5-MIN KSTC 311130Z AUTO 14003KT 10SM CLR M37/ A3024 730 M -5900 140/03 RMK AO2 T1367
14926KSTC STC20190131053510301/31/19 05:35:31  5-MIN KSTC 311135Z AUTO 00000KT 10SM CLR M36/ A3024 730 M -5800 000/00 RMK AO2 T1361
14926KSTC STC20190131054010301/31/19 05:40:31  5-MIN KSTC 311140Z AUTO 00000KT 10SM CLR M36/ A3024 730 M -5800 000/00 RMK AO2 T1361
14926KSTC STC20190131054510301/31/19 05:45:31  5-MIN KSTC 311145Z AUTO 00000KT 10SM CLR M36/ A3024 730 M -5800 000/00 RMK AO2 T1361
14926KSTC STC20190131055012801/31/19 05:50:31  5-MIN KSTC 311150Z AUTO 00000KT 10SM CLR M36/ A3024 730 M -5800 000/00 RMK AO2 SLP294 T1361 11322 21367 50001
14926KSTC STC20190131055510301/31/19 05:55:31  5-MIN KSTC 311155Z AUTO 00000KT 10SM CLR M36/ A3024 730 M -5800 000/00 RMK AO2 T1361
14926KSTC STC20190131060010301/31/19 06:00:31  5-MIN KSTC 311200Z AUTO 00000KT 10SM CLR M36/ A3024 730 M -5800 000/00 RMK AO2 T1361
14926KSTC STC20190131060510301/31/19 06:05:31  5-MIN KSTC 311205Z AUTO 00000KT 10SM CLR M36/ A3025 730 M -5800 000/00 RMK AO2 T1361
14926KSTC STC20190131061010301/31/19 06:10:31  5-MIN KSTC 311210Z AUTO 00000KT 10SM CLR M36/ A3024 730 M -5800 000/00 RMK AO2 T1361
14926KSTC STC20190131061510301/31/19 06:15:31  5-MIN KSTC 311215Z AUTO 00000KT 10SM CLR M36/ A3024 730 M -5800 000/00 RMK AO2 T1361
14926KSTC STC20190131062010301/31/19 06:20:31  5-MIN KSTC 311220Z AUTO 00000KT 10SM CLR M36/ A3024 730 M -5800 000/00 RMK AO2 T1361
14926KSTC STC20190131062510301/31/19 06:25:31  5-MIN KSTC 311225Z AUTO 00000KT 10SM CLR M37/ A3024 730 M -5900 000/00 RMK AO2 T1367
14926KSTC STC20190131063010301/31/19 06:30:31  5-MIN KSTC 311230Z AUTO 00000KT 10SM CLR M37/ A3024 730 M -5900 000/00 RMK AO2 T1367
14926KSTC STC20190131063510301/31/19 06:35:31  5-MIN KSTC 311235Z AUTO 07003KT 10SM CLR M37/ A3024 730 M -5900 070/03 RMK AO2 T1367
14926KSTC STC20190131064010301/31/19 06:40:31  5-MIN KSTC 311240Z AUTO 07003KT 10SM CLR M37/ A3024 730 M -5900 070/03 RMK AO2 T1367
14926KSTC STC20190131064510301/31/19 06:45:31  5-MIN KSTC 311245Z AUTO 06004KT 10SM CLR M37/ A3024 730 M -5900 060/04 RMK AO2 T1367
14926KSTC STC20190131065011001/31/19 06:50:31  5-MIN KSTC 311250Z AUTO 06003KT 10SM CLR M37/ A3024 730 M -5900 060/03 RMK AO2 SLP295 T1367
14926KSTC STC20190131065510301/31/19 06:55:31  5-MIN KSTC 311255Z AUTO 06003KT 10SM CLR M37/ A3024 730 M -5900 060/03 RMK AO2 T1367
14926KSTC STC20190131070010301/31/19 07:00:31  5-MIN KSTC 311300Z AUTO 00000KT 10SM CLR M37/ A3024 730 M -5900 000/00 RMK AO2 T1367
14926KSTC STC20190131070510301/31/19 07:05:31  5-MIN KSTC 311305Z AUTO 00000KT 10SM CLR M36/ A3024 730 M -5800 000/00 RMK AO2 T1361
14926KSTC STC20190131071010301/31/19 07:10:31  5-MIN KSTC 311310Z AUTO 00000KT 10SM CLR M37/ A3024 730 M -5900 000/00 RMK AO2 T1367
14926KSTC STC20190131071510301/31/19 07:15:31  5-MIN KSTC 311315Z AUTO 00000KT 10SM CLR M36/ A3024 730 M -5800 000/00 RMK AO2 T1361
14926KSTC STC20190131072010301/31/19 07:20:31  5-MIN KSTC 311320Z AUTO 00000KT 10SM CLR M36/ A3024 730 M -5800 000/00 RMK AO2 T1361
14926KSTC STC20190131072510301/31/19 07:25:31  5-MIN KSTC 311325Z AUTO 00000KT 10SM CLR M36/ A3024 730 M -5800 000/00 RMK AO2 T1361
14926KSTC STC20190131073010301/31/19 07:30:31  5-MIN KSTC 311330Z AUTO 00000KT 10SM CLR M36/ A3025 730 M -5800 000/00 RMK AO2 T1361
14926KSTC STC20190131073510301/31/19 07:35:31  5-MIN KSTC 311335Z AUTO 00000KT 10SM CLR M36/ A3024 730 M -5700 000/00 RMK AO2 T1356
14926KSTC STC20190131074010301/31/19 07:40:31  5-MIN KSTC 311340Z AUTO 00000KT 10SM CLR M36/ A3024 730 M -5800 000/00 RMK AO2 T1361
14926KSTC STC20190131074510301/31/19 07:45:31  5-MIN KSTC 311345Z AUTO 00000KT 10SM CLR M36/ A3024 730 M -5800 000/00 RMK AO2 T1361
14926KSTC STC20190131075011001/31/19 07:50:31  5-MIN KSTC 311350Z AUTO 00000KT 10SM CLR M36/ A3024 730 M -5700 000/00 RMK AO2 SLP296 T1356
14926KSTC STC20190131075510301/31/19 07:55:31  5-MIN KSTC 311355Z AUTO 00000KT 10SM CLR M36/ A3024 730 M -5700 000/00 RMK AO2 T1356
14926KSTC STC20190131080010301/31/19 08:00:31  5-MIN KSTC 311400Z AUTO 00000KT 10SM CLR M36/ A3024 740 M -5700 000/00 RMK AO2 T1356
14926KSTC STC20190131080510301/31/19 08:05:31  5-MIN KSTC 311405Z AUTO 00000KT 10SM CLR M36/ A3024 730 M -5700 000/00 RMK AO2 T1356
14926KSTC STC20190131081010301/31/19 08:10:31  5-MIN KSTC 311410Z AUTO 00000KT 10SM CLR M35/ A3024 730 M -5600 000/00 RMK AO2 T1350
14926KSTC STC20190131081510301/31/19 08:15:31  5-MIN KSTC 311415Z AUTO 00000KT 10SM CLR M35/ A3025 730 M -5600 000/00 RMK AO2 T1350
14926KSTC STC20190131082010301/31/19 08:20:31  5-MIN KSTC 311420Z AUTO 00000KT 10SM CLR M34/ A3025 720 M -5500 000/00 RMK AO2 T1344
14926KSTC STC20190131082511101/31/19 08:25:31  5-MIN KSTC 311425Z AUTO 00000KT 10SM CLR M34/M37 A3025 720 73 -5500 000/00 RMK AO2 T13391372
14926KSTC STC20190131083010301/31/19 08:30:31  5-MIN KSTC 311430Z AUTO 00000KT 10SM CLR M34/ A3025 720 M -5500 000/00 RMK AO2 T1344
14926KSTC STC20190131083511101/31/19 08:35:31  5-MIN KSTC 311435Z AUTO 00000KT 10SM CLR M34/M37 A3025 720 73 -5500 000/00 RMK AO2 T13391372
14926KSTC STC20190131084011101/31/19 08:40:31  5-MIN KSTC 311440Z AUTO 00000KT 10SM CLR M33/M37 A3025 720 73 -5400 000/00 RMK AO2 T13331367
14926KSTC STC20190131084511101/31/19 08:45:31  5-MIN KSTC 311445Z AUTO 00000KT 10SM CLR M33/M36 A3025 720 73 -5300 000/00 RMK AO2 T13281361
14926KSTC STC20190131085012401/31/19 08:50:31  5-MIN KSTC 311450Z AUTO 00000KT 10SM CLR M33/M36 A3025 720 73 -5300 000/00 RMK AO2 SLP297 T13281361 56008
14926KSTC STC20190131085511101/31/19 08:55:31  5-MIN KSTC 311455Z AUTO 00000KT 10SM CLR M33/M36 A3025 720 77 -5300 000/00 RMK AO2 T13281356
14926KSTC STC20190131090011101/31/19 09:00:31  5-MIN KSTC 311500Z AUTO 00000KT 10SM CLR M32/M35 A3025 720 77 -5200 000/00 RMK AO2 T13221350
14926KSTC STC20190131090511101/31/19 09:05:31  5-MIN KSTC 311505Z AUTO 00000KT 10SM CLR M33/M35 A3024 730 81 -5300 000/00 RMK AO2 T13281350
14926KSTC STC20190131091011101/31/19 09:10:31  5-MIN KSTC 311510Z AUTO 15003KT 10SM CLR M33/M35 A3024 730 81 -5300 140/03 RMK AO2 T13281350
14926KSTC STC20190131091511101/31/19 09:15:31  5-MIN KSTC 311515Z AUTO 13003KT 10SM CLR M32/M35 A3024 730 77 -5200 130/03 RMK AO2 T13221350
14926KSTC STC20190131092011101/31/19 09:20:31  5-MIN KSTC 311520Z AUTO 13003KT 10SM CLR M32/M35 A3024 730 73 -5100 130/03 RMK AO2 T13171350
14926KSTC STC20190131092511101/31/19 09:25:31  5-MIN KSTC 311525Z AUTO 14005KT 10SM CLR M32/M34 A3024 730 77 -5100 140/05 RMK AO2 T13171344
14926KSTC STC20190131093011101/31/19 09:30:31  5-MIN KSTC 311530Z AUTO 12004KT 10SM CLR M31/M34 A3024 730 73 -5000 120/04 RMK AO2 T13111344
14926KSTC STC20190131093511101/31/19 09:35:31  5-MIN KSTC 311535Z AUTO 11006KT 10SM CLR M31/M34 A3024 730 73 -5000 110/06 RMK AO2 T13111344
14926KSTC STC20190131094011101/31/19 09:40:31  5-MIN KSTC 311540Z AUTO 14005KT 10SM CLR M31/M34 A3024 730 73 -5000 140/05 RMK AO2 T13111344
14926KSTC STC20190131094511101/31/19 09:45:31  5-MIN KSTC 311545Z AUTO 15006KT 10SM CLR M31/M34 A3025 730 73 -5100 150/06 RMK AO2 T13111344
14926KSTC STC20190131095011801/31/19 09:50:31  5-MIN KSTC 311550Z AUTO 15006KT 10SM CLR M31/M34 A3025 720 73 -5100 150/06 RMK AO2 SLP296 T13111344
14926KSTC STC20190131095511101/31/19 09:55:31  5-MIN KSTC 311555Z AUTO 14007KT 10SM CLR M31/M34 A3025 720 73 -5100 140/07 RMK AO2 T13111344
14926KSTC STC20190131100011101/31/19 10:00:31  5-MIN KSTC 311600Z AUTO 14006KT 10SM CLR M31/M34 A3025 730 73 -5000 140/06 RMK AO2 T13061339
14926KSTC STC20190131100511101/31/19 10:05:31  5-MIN KSTC 311605Z AUTO 14007KT 10SM CLR M31/M34 A3024 730 73 -5000 140/07 RMK AO2 T13061339
14926KSTC STC20190131101011101/31/19 10:10:31  5-MIN KSTC 311610Z AUTO 13006KT 10SM CLR M31/M34 A3024 730 73 -5000 130/06 RMK AO2 T13061339
14926KSTC STC20190131101511101/31/19 10:15:31  5-MIN KSTC 311615Z AUTO 14005KT 10SM CLR M31/M34 A3024 730 73 -5000 140/05 RMK AO2 T13061339
14926KSTC STC20190131102011101/31/19 10:20:31  5-MIN KSTC 311620Z AUTO 12004KT 10SM CLR M30/M33 A3024 730 73 -4900 120/04 RMK AO2 T13001333
14926KSTC STC20190131102511101/31/19 10:25:31  5-MIN KSTC 311625Z AUTO 10005KT 10SM CLR M29/M33 A3024 730 73 -4800 100/05 RMK AO2 T12941328
14926KSTC STC20190131103011101/31/19 10:30:31  5-MIN KSTC 311630Z AUTO VRB04KT 10SM CLR M29/M33 A3023 740 73 -4800 VRB/04 RMK AO2 T12941328
14926KSTC STC20190131103511101/31/19 10:35:31  5-MIN KSTC 311635Z AUTO 13007KT 10SM CLR M29/M33 A3024 740 73 -4800 130/07 RMK AO2 T12941328
14926KSTC STC20190131104011101/31/19 10:40:31  5-MIN KSTC 311640Z AUTO 12005KT 10SM CLR M29/M33 A3024 730 73 -4800 120/05 RMK AO2 T12941328
14926KSTC STC20190131104511101/31/19 10:45:31  5-MIN KSTC 311645Z AUTO 10005KT 10SM CLR M29/M33 A3024 730 70 -4700 100/05 RMK AO2 T12891328
14926KSTC STC20190131105011801/31/19 10:50:31  5-MIN KSTC 311650Z AUTO 11004KT 10SM CLR M29/M33 A3024 730 70 -4700 110/04 RMK AO2 SLP291 T12891328
14926KSTC STC20190131105511101/31/19 10:55:31  5-MIN KSTC 311655Z AUTO 11006KT 10SM CLR M29/M32 A3024 730 73 -4700 110/06 RMK AO2 T12891322
14926KSTC STC20190131110011101/31/19 11:00:31  5-MIN KSTC 311700Z AUTO 10005KT 10SM CLR M29/M33 A3024 730 70 -4700 100/05 RMK AO2 T12891328
14926KSTC STC20190131110511101/31/19 11:05:31  5-MIN KSTC 311705Z AUTO 11006KT 10SM CLR M29/M33 A3024 730 70 -4700 100/06 RMK AO2 T12891328
14926KSTC STC20190131111011101/31/19 11:10:31  5-MIN KSTC 311710Z AUTO 15005KT 10SM CLR M28/M32 A3025 720 70 -4700 150/05 RMK AO2 T12831322
14926KSTC STC20190131111511101/31/19 11:15:31  5-MIN KSTC 311715Z AUTO 14005KT 10SM CLR M28/M32 A3025 730 70 -4700 140/05 RMK AO2 T12831322
14926KSTC STC20190131112011101/31/19 11:20:31  5-MIN KSTC 311720Z AUTO 14005KT 10SM CLR M28/M32 A3025 730 70 -4700 140/05 RMK AO2 T12831322
14926KSTC STC20190131112511101/31/19 11:25:31  5-MIN KSTC 311725Z AUTO 14007KT 10SM CLR M28/M32 A3024 730 74 -4600 140/07 RMK AO2 T12831317
14926KSTC STC20190131113011101/31/19 11:30:31  5-MIN KSTC 311730Z AUTO 15007KT 10SM CLR M28/M32 A3024 730 74 -4600 150/07 RMK AO2 T12831317
14926KSTC STC20190131113511101/31/19 11:35:31  5-MIN KSTC 311735Z AUTO 14007KT 10SM CLR M28/M32 A3024 730 70 -4600 140/07 RMK AO2 T12781317
14926KSTC STC20190131114011101/31/19 11:40:31  5-MIN KSTC 311740Z AUTO 15006KT 10SM CLR M28/M32 A3024 730 70 -4600 150/06 RMK AO2 T12781317
14926KSTC STC20190131114511101/31/19 11:45:31  5-MIN KSTC 311745Z AUTO 15006KT 10SM CLR M28/M31 A3024 730 74 -4600 150/06 RMK AO2 T12781311
14926KSTC STC20190131115013601/31/19 11:50:31  5-MIN KSTC 311750Z AUTO 14006KT 10SM CLR M28/M31 A3024 730 74 -4600 140/06 RMK AO2 SLP291 T12781311 11278 21367 53003
14926KSTC STC20190131115511101/31/19 11:55:31  5-MIN KSTC 311755Z AUTO 15006KT 10SM CLR M27/M31 A3024 740 70 -4500 140/06 RMK AO2 T12721311
14926KSTC STC20190131120011101/31/19 12:00:31  5-MIN KSTC 311800Z AUTO 13006KT 10SM CLR M27/M31 A3023 740 70 -4500 120/06 RMK AO2 T12721311
14926KSTC STC20190131120511401/31/19 12:05:31  5-MIN KSTC 311805Z AUTO 11005KT 10SM FEW035 M27/M31 A3023 740 70 -4500 110/05 RMK AO2 T12721311
14926KSTC STC20190131121011401/31/19 12:10:31  5-MIN KSTC 311810Z AUTO 10005KT 10SM SCT037 M27/M31 A3023 740 67 -4400 100/05 RMK AO2 T12671311
14926KSTC STC20190131121511401/31/19 12:15:31  5-MIN KSTC 311815Z AUTO VRB05KT 10SM BKN037 M26/M31 A3022 750 63 -4300 VRB/05 RMK AO2 T12611311
14926KSTC STC20190131122011401/31/19 12:20:31  5-MIN KSTC 311820Z AUTO 12006KT 10SM BKN037 M26/M31 A3022 750 63 -4300 120/06 RMK AO2 T12611311
14926KSTC STC20190131122511401/31/19 12:25:31  5-MIN KSTC 311825Z AUTO 11005KT 10SM BKN037 M26/M31 A3022 750 67 -4300 110/05 RMK AO2 T12611306
14926KSTC STC20190131123011401/31/19 12:30:31  5-MIN KSTC 311830Z AUTO VRB06KT 10SM OVC037 M26/M31 A3023 750 64 -4200 VRB/06 RMK AO2 T12561306
14926KSTC STC20190131123511401/31/19 12:35:31  5-MIN KSTC 311835Z AUTO 12005KT 10SM OVC039 M26/M31 A3022 750 64 -4200 120/05 RMK AO2 T12561306
14926KSTC STC20190131124011401/31/19 12:40:31  5-MIN KSTC 311840Z AUTO 13005KT 10SM OVC039 M26/M31 A3021 760 64 -4200 130/05 RMK AO2 T12561306
14926KSTC STC20190131124511401/31/19 12:45:31  5-MIN KSTC 311845Z AUTO VRB05KT 10SM OVC039 M25/M31 A3021 760 61 -4100 VRB/05 RMK AO2 T12501306
14926KSTC STC20190131125012101/31/19 12:50:31  5-MIN KSTC 311850Z AUTO 12007KT 10SM OVC041 M25/M31 A3021 760 61 -4100 120/07 RMK AO2 SLP280 T12501306
14926KSTC STC20190131125511401/31/19 12:55:31  5-MIN KSTC 311855Z AUTO 12005KT 10SM OVC041 M24/M31 A3021 760 58 -4000 120/05 RMK AO2 T12441306
14926KSTC STC20190131130011401/31/19 13:00:31  5-MIN KSTC 311900Z AUTO 13007KT 10SM OVC041 M24/M31 A3020 760 58 -4000 130/07 RMK AO2 T12441306
14926KSTC STC20190131130511401/31/19 13:05:31  5-MIN KSTC 311905Z AUTO 10005KT 10SM OVC041 M24/M30 A3020 770 61 -4000 100/05 RMK AO2 T12441300
14926KSTC STC20190131131011401/31/19 13:10:31  5-MIN KSTC 311910Z AUTO 11006KT 10SM BKN041 M24/M30 A3020 770 61 -4000 100/06 RMK AO2 T12441300
14926KSTC STC20190131131511401/31/19 13:15:31  5-MIN KSTC 311915Z AUTO 12006KT 10SM BKN041 M24/M30 A3020 770 58 -4000 120/06 RMK AO2 T12391300
14926KSTC STC20190131132011401/31/19 13:20:31  5-MIN KSTC 311920Z AUTO VRB06KT 10SM BKN041 M24/M30 A3020 770 58 -4000 VRB/06 RMK AO2 T12391300
14926KSTC STC20190131132511401/31/19 13:25:31  5-MIN KSTC 311925Z AUTO 13007KT 10SM SCT041 M24/M30 A3019 780 58 -4000 120/07 RMK AO2 T12391300
14926KSTC STC20190131133013001/31/19 13:30:31  5-MIN KSTC 311930Z AUTO 11007KT 090V150 10SM SCT041 M23/M30 A3019 780 55 -3900 110/07 090V150 RMK AO2 T12331300
14926KSTC STC20190131133511401/31/19 13:35:31  5-MIN KSTC 311935Z AUTO 14009KT 10SM SCT042 M23/M29 A3019 780 58 -3900 140/09 RMK AO2 T12331294
14926KSTC STC20190131134011401/31/19 13:40:31  5-MIN KSTC 311940Z AUTO 14008KT 10SM SCT042 M23/M30 A3019 780 55 -3900 140/08 RMK AO2 T12331300
14926KSTC STC20190131134511401/31/19 13:45:31  5-MIN KSTC 311945Z AUTO 14009KT 10SM SCT042 M23/M29 A3018 790 55 -3800 140/09 RMK AO2 T12281294
14926KSTC STC20190131135012101/31/19 13:50:31  5-MIN KSTC 311950Z AUTO 14011KT 10SM SCT042 M23/M29 A3018 790 58 -3800 140/11 RMK AO2 SLP269 T12281289
14926KSTC STC20190131135511401/31/19 13:55:31  5-MIN KSTC 311955Z AUTO 14010KT 10SM SCT042 M23/M29 A3017 790 58 -3800 140/10 RMK AO2 T12281289
14926KSTC STC20190131140011401/31/19 14:00:31  5-MIN KSTC 312000Z AUTO 14010KT 10SM SCT042 M23/M29 A3017 790 58 -3800 140/10 RMK AO2 T12281289
14926KSTC STC20190131140511401/31/19 14:05:31  5-MIN KSTC 312005Z AUTO 14010KT 10SM FEW042 M23/M29 A3017 790 55 -3800 140/10 RMK AO2 T12281294
14926KSTC STC20190131141011401/31/19 14:10:31  5-MIN KSTC 312010Z AUTO 15009KT 10SM FEW042 M23/M29 A3018 790 58 -3800 150/09 RMK AO2 T12281289
14926KSTC STC20190131141511101/31/19 14:15:31  5-MIN KSTC 312015Z AUTO 14009KT 10SM CLR M23/M29 A3018 790 58 -3800 140/09 RMK AO2 T12281289
14926KSTC STC20190131142011101/31/19 14:20:31  5-MIN KSTC 312020Z AUTO 15009KT 10SM CLR M23/M29 A3018 790 58 -3800 150/09 RMK AO2 T12281289
14926KSTC STC20190131142511101/31/19 14:25:31  5-MIN KSTC 312025Z AUTO 15008KT 10SM CLR M23/M28 A3018 790 61 -3800 150/08 RMK AO2 T12281283
14926KSTC STC20190131143011101/31/19 14:30:31  5-MIN KSTC 312030Z AUTO 15007KT 10SM CLR M22/M28 A3018 790 58 -3700 150/07 RMK AO2 T12221283
14926KSTC STC20190131143511101/31/19 14:35:31  5-MIN KSTC 312035Z AUTO 13006KT 10SM CLR M22/M28 A3018 790 58 -3700 130/06 RMK AO2 T12221283
14926KSTC STC20190131144011101/31/19 14:40:31  5-MIN KSTC 312040Z AUTO 10006KT 10SM CLR M22/M29 A3017 790 55 -3700 100/06 RMK AO2 T12221289
14926KSTC STC20190131144511401/31/19 14:45:31  5-MIN KSTC 312045Z AUTO 14008KT 10SM FEW036 M22/M29 A3018 790 55 -3700 140/08 RMK AO2 T12221289
14926KSTC STC20190131145012701/31/19 14:50:31  5-MIN KSTC 312050Z AUTO 13008KT 10SM SCT036 M22/M29 A3017 790 55 -3700 130/08 RMK AO2 SLP267 T12221289 56005
14926KSTC STC20190131145511401/31/19 14:55:31  5-MIN KSTC 312055Z AUTO 12006KT 10SM SCT036 M22/M28 A3017 800 55 -3600 110/06 RMK AO2 T12171283
14926KSTC STC20190131150011401/31/19 15:00:31  5-MIN KSTC 312100Z AUTO 14007KT 10SM BKN035 M22/M28 A3017 800 55 -3600 140/07 RMK AO2 T12171283
14926KSTC STC20190131150511401/31/19 15:05:31  5-MIN KSTC 312105Z AUTO 14009KT 10SM BKN035 M22/M28 A3017 800 55 -3600 140/09 RMK AO2 T12171283
14926KSTC STC20190131151011301/31/19 15:10:31  5-MIN KSTC 312110Z AUTO 13006KT 9SM BKN035 M22/M28 A3017 800 58 -3600 130/06 RMK AO2 T12171278
14926KSTC STC20190131151511301/31/19 15:15:31  5-MIN KSTC 312115Z AUTO 10005KT 9SM OVC035 M21/M28 A3017 800 56 -3500 100/05 RMK AO2 T12111278
14926KSTC STC20190131152011401/31/19 15:20:31  5-MIN KSTC 312120Z AUTO VRB04KT 10SM BKN035 M21/M28 A3017 800 56 -3500 VRB/04 RMK AO2 T12111278
14926KSTC STC20190131152511401/31/19 15:25:31  5-MIN KSTC 312125Z AUTO 12007KT 10SM BKN035 M21/M28 A3017 800 56 -3500 120/07 RMK AO2 T12111278
14926KSTC STC20190131153011401/31/19 15:30:31  5-MIN KSTC 312130Z AUTO 11005KT 10SM BKN035 M21/M28 A3017 800 56 -3500 110/05 RMK AO2 T12111278
14926KSTC STC20190131153511401/31/19 15:35:31  5-MIN KSTC 312135Z AUTO 09006KT 10SM SCT035 M21/M28 A3017 800 56 -3500 080/06 RMK AO2 T12111278
14926KSTC STC20190131154011401/31/19 15:40:31  5-MIN KSTC 312140Z AUTO 10006KT 10SM FEW035 M21/M28 A3017 800 56 -3500 100/06 RMK AO2 T12111278
14926KSTC STC20190131154511401/31/19 15:45:31  5-MIN KSTC 312145Z AUTO 11005KT 10SM FEW035 M21/M28 A3017 800 56 -3500 110/05 RMK AO2 T12111278
14926KSTC STC20190131155011801/31/19 15:50:31  5-MIN KSTC 312150Z AUTO 12006KT 10SM CLR M21/M28 A3016 800 56 -3500 120/06 RMK AO2 SLP263 T12111278
14926KSTC STC20190131155511101/31/19 15:55:31  5-MIN KSTC 312155Z AUTO 10006KT 10SM CLR M21/M28 A3016 810 56 -3500 100/06 RMK AO2 T12111278
14926KSTC STC20190131160011801/31/19 16:00:31  5-MIN KSTC 312200Z AUTO 10007KT 10SM CLR M21/M28 A3015 820 56 -3500 100/07 RMK AO2 PRESFR T12111278
14926KSTC STC20190131160511101/31/19 16:05:31  5-MIN KSTC 312205Z AUTO 12008KT 10SM CLR M21/M28 A3014 820 56 -3500 120/08 RMK AO2 T12111278
14926KSTC STC20190131161011801/31/19 16:10:31  5-MIN KSTC 312210Z AUTO 10005KT 10SM CLR M21/M28 A3014 830 56 -3500 100/05 RMK AO2 PRESFR T12111278
14926KSTC STC20190131161511101/31/19 16:15:31  5-MIN KSTC 312215Z AUTO 11006KT 10SM CLR M21/M28 A3014 830 56 -3500 110/06 RMK AO2 T12111278
14926KSTC STC20190131162011101/31/19 16:20:31  5-MIN KSTC 312220Z AUTO 10005KT 10SM CLR M21/M28 A3015 820 56 -3500 090/05 RMK AO2 T12111278
14926KSTC STC20190131162511401/31/19 16:25:31  5-MIN KSTC 312225Z AUTO 10006KT 10SM FEW030 M21/M28 A3015 810 56 -3500 100/06 RMK AO2 T12111278
14926KSTC STC20190131163011401/31/19 16:30:31  5-MIN KSTC 312230Z AUTO 11005KT 10SM SCT030 M21/M28 A3015 810 56 -3500 110/05 RMK AO2 T12111278
