14926KSTC STC20020901000009709/01/02 00:00:32  5-MIN KSTC 010600Z AUTO 17010KT 8SM CLR 22/19 A3003 920 84 2000 170/10 RMK AO2
14926KSTC STC20020901000509709/01/02 00:05:31  5-MIN KSTC 010605Z AUTO 17009KT 8SM CLR 22/19 A3003 930 84 2000 160/09 RMK AO2
14926KSTC STC20020901001009709/01/02 00:10:31  5-MIN KSTC 010610Z AUTO 17009KT 8SM CLR 22/19 A3003 930 84 2000 160/09 RMK AO2
14926KSTC STC20020901001509709/01/02 00:15:31  5-MIN KSTC 010615Z AUTO 17009KT 8SM CLR 21/19 A3003 930 87 1900 170/09 RMK AO2
14926KSTC STC20020901002009709/01/02 00:20:31  5-MIN KSTC 010620Z AUTO 17009KT 8SM CLR 22/18 A3003 930 81 2000 170/09 RMK AO2
14926KSTC STC20020901002509709/01/02 00:25:31  5-MIN KSTC 010625Z AUTO 17010KT 8SM CLR 21/18 A3003 920 84 1900 170/10 RMK AO2
14926KSTC STC20020901003009709/01/02 00:30:31  5-MIN KSTC 010630Z AUTO 19009KT 8SM CLR 22/18 A3003 920 81 1900 180/09 RMK AO2
14926KSTC STC20020901003509709/01/02 00:35:31  5-MIN KSTC 010635Z AUTO 18010KT 8SM CLR 22/18 A3003 920 81 2000 180/10 RMK AO2
14926KSTC STC20020901004009709/01/02 00:40:31  5-MIN KSTC 010640Z AUTO 18011KT 8SM CLR 22/18 A3003 920 81 1900 170/11 RMK AO2
14926KSTC STC20020901004509709/01/02 00:45:31  5-MIN KSTC 010645Z AUTO 18011KT 8SM CLR 22/18 A3004 920 81 1900 180/11 RMK AO2
14926KSTC STC20020901005011409/01/02 00:50:31  5-MIN KSTC 010650Z AUTO 18011KT 8SM CLR 22/18 A3003 920 81 1900 180/11 RMK AO2 SLP173 T02170183
14926KSTC STC20020901005509709/01/02 00:55:31  5-MIN KSTC 010655Z AUTO 18011KT 8SM CLR 22/18 A3003 920 81 1900 180/11 RMK AO2
14926KSTC STC20020901010009709/01/02 01:00:31  5-MIN KSTC 010700Z AUTO 19012KT 8SM CLR 22/18 A3003 920 81 2000 180/12 RMK AO2
14926KSTC STC20020901010509709/01/02 01:05:31  5-MIN KSTC 010705Z AUTO 18010KT 8SM CLR 22/18 A3003 930 81 2000 170/10 RMK AO2
14926KSTC STC20020901011009709/01/02 01:10:31  5-MIN KSTC 010710Z AUTO 18012KT 8SM CLR 22/18 A3003 930 81 2000 180/12 RMK AO2
14926KSTC STC20020901011509709/01/02 01:15:31  5-MIN KSTC 010715Z AUTO 18010KT 8SM CLR 21/18 A3002 930 84 1900 180/10 RMK AO2
14926KSTC STC20020901012009709/01/02 01:20:31  5-MIN KSTC 010720Z AUTO 18012KT 8SM CLR 21/18 A3002 930 84 1900 170/12 RMK AO2
14926KSTC STC20020901012509709/01/02 01:25:31  5-MIN KSTC 010725Z AUTO 18011KT 8SM CLR 21/18 A3002 940 81 1900 170/11 RMK AO2
14926KSTC STC20020901013009709/01/02 01:30:31  5-MIN KSTC 010730Z AUTO 18010KT 8SM CLR 21/18 A3002 940 81 1900 170/10 RMK AO2
14926KSTC STC20020901013509709/01/02 01:35:31  5-MIN KSTC 010735Z AUTO 18012KT 8SM CLR 21/18 A3002 940 81 1900 170/12 RMK AO2
14926KSTC STC20020901014009709/01/02 01:40:31  5-MIN KSTC 010740Z AUTO 18011KT 8SM CLR 21/18 A3001 940 81 1900 170/11 RMK AO2
14926KSTC STC20020901014509709/01/02 01:45:31  5-MIN KSTC 010745Z AUTO 18012KT 8SM CLR 21/18 A3001 950 81 1900 170/12 RMK AO2
14926KSTC STC20020901015012009/01/02 01:50:31  5-MIN KSTC 010750Z AUTO 18012G18KT 8SM CLR 21/18 A3001 950 81 1900 170/12G18 RMK AO2 SLP163 T02110178
14926KSTC STC20020901015510309/01/02 01:55:31  5-MIN KSTC 010755Z AUTO 17011G18KT 9SM CLR 21/18 A3001 950 81 1900 170/11G18 RMK AO2
14926KSTC STC20020901020009709/01/02 02:00:31  5-MIN KSTC 010800Z AUTO 18011KT 9SM CLR 21/18 A3001 950 81 1900 170/11 RMK AO2
14926KSTC STC20020901020509709/01/02 02:05:31  5-MIN KSTC 010805Z AUTO 18011KT 9SM CLR 21/18 A3001 950 81 1900 170/11 RMK AO2
14926KSTC STC20020901021009709/01/02 02:10:31  5-MIN KSTC 010810Z AUTO 18010KT 8SM CLR 21/18 A3001 950 81 1900 180/10 RMK AO2
14926KSTC STC20020901021509709/01/02 02:15:31  5-MIN KSTC 010815Z AUTO 18011KT 8SM CLR 21/18 A3001 940 81 1900 180/11 RMK AO2
14926KSTC STC20020901022009709/01/02 02:20:31  5-MIN KSTC 010820Z AUTO 18010KT 8SM CLR 21/18 A3001 940 81 1900 180/10 RMK AO2
14926KSTC STC20020901022509709/01/02 02:25:31  5-MIN KSTC 010825Z AUTO 18011KT 8SM CLR 21/18 A3001 940 81 1900 170/11 RMK AO2
14926KSTC STC20020901023009709/01/02 02:30:31  5-MIN KSTC 010830Z AUTO 18010KT 8SM CLR 21/18 A3001 940 81 1900 170/10 RMK AO2
14926KSTC STC20020901023509709/01/02 02:35:31  5-MIN KSTC 010835Z AUTO 18009KT 8SM CLR 21/18 A3001 940 81 1900 180/09 RMK AO2
14926KSTC STC20020901024009709/01/02 02:40:31  5-MIN KSTC 010840Z AUTO 18010KT 8SM CLR 21/18 A3001 940 84 1800 180/10 RMK AO2
14926KSTC STC20020901024509709/01/02 02:45:31  5-MIN KSTC 010845Z AUTO 18010KT 8SM CLR 21/18 A3001 940 84 1800 180/10 RMK AO2
14926KSTC STC20020901025012009/01/02 02:50:31  5-MIN KSTC 010850Z AUTO 18010KT 8SM CLR 21/18 A3001 940 84 1800 180/10 RMK AO2 SLP164 T02060178 58006
14926KSTC STC20020901025509709/01/02 02:55:31  5-MIN KSTC 010855Z AUTO 18009KT 8SM CLR 21/18 A3001 950 84 1900 180/09 RMK AO2
14926KSTC STC20020901030009709/01/02 03:00:31  5-MIN KSTC 010900Z AUTO 18010KT 8SM CLR 21/18 A3001 950 84 1900 180/10 RMK AO2
14926KSTC STC20020901030509709/01/02 03:05:31  5-MIN KSTC 010905Z AUTO 18009KT 8SM CLR 21/18 A3001 950 84 1900 180/09 RMK AO2
14926KSTC STC20020901031009709/01/02 03:10:31  5-MIN KSTC 010910Z AUTO 19009KT 8SM CLR 21/18 A3001 940 84 1800 180/09 RMK AO2
14926KSTC STC20020901031509709/01/02 03:15:31  5-MIN KSTC 010915Z AUTO 19008KT 8SM CLR 21/18 A3001 940 84 1800 180/08 RMK AO2
14926KSTC STC20020901032009709/01/02 03:20:31  5-MIN KSTC 010920Z AUTO 19008KT 8SM CLR 21/18 A3001 940 84 1800 190/08 RMK AO2
14926KSTC STC20020901032509709/01/02 03:25:31  5-MIN KSTC 010925Z AUTO 19008KT 8SM CLR 21/18 A3001 940 84 1800 190/08 RMK AO2
14926KSTC STC20020901033009709/01/02 03:30:31  5-MIN KSTC 010930Z AUTO 18007KT 8SM CLR 20/18 A3001 940 87 1800 180/07 RMK AO2
14926KSTC STC20020901033509709/01/02 03:35:31  5-MIN KSTC 010935Z AUTO 18009KT 8SM CLR 20/18 A3001 950 87 1800 170/09 RMK AO2
14926KSTC STC20020901034009709/01/02 03:40:31  5-MIN KSTC 010940Z AUTO 18009KT 8SM CLR 20/18 A3001 950 87 1800 170/09 RMK AO2
14926KSTC STC20020901034509709/01/02 03:45:31  5-MIN KSTC 010945Z AUTO 18008KT 7SM CLR 20/18 A3001 950 87 1800 180/08 RMK AO2
14926KSTC STC20020901035011409/01/02 03:50:31  5-MIN KSTC 010950Z AUTO 18007KT 7SM CLR 20/18 A3001 950 87 1800 180/07 RMK AO2 SLP163 T02000178
14926KSTC STC20020901035509709/01/02 03:55:31  5-MIN KSTC 010955Z AUTO 18007KT 7SM CLR 20/18 A3000 950 87 1800 180/07 RMK AO2
14926KSTC STC20020901040009709/01/02 04:00:31  5-MIN KSTC 011000Z AUTO 18007KT 7SM CLR 20/18 A3000 950 87 1800 170/07 RMK AO2
14926KSTC STC20020901040509709/01/02 04:05:31  5-MIN KSTC 011005Z AUTO 18008KT 7SM CLR 20/18 A3000 950 87 1800 170/08 RMK AO2
14926KSTC STC20020901041010009/01/02 04:10:31  5-MIN KSTC 011010Z AUTO 18008KT 7SM FEW065 21/18 A3000 950 84 1900 180/08 RMK AO2
14926KSTC STC20020901041510009/01/02 04:15:31  5-MIN KSTC 011015Z AUTO 21006KT 7SM SCT065 20/18 A3002 940 87 1800 200/06 RMK AO2
14926KSTC STC20020901042012009/01/02 04:20:31  5-MIN KSTC 011020Z AUTO 30016G20KT 7SM FEW019 BKN065 20/18 A3004 910 87 1700 300/16G20 RMK AO2 PRESRR
14926KSTC STC20020901042511309/01/02 04:25:31  5-MIN KSTC 011025Z AUTO 30012G20KT 7SM FEW019 BKN065 21/18 A3005 910 84 1800 290/12G20 RMK AO2
14926KSTC STC20020901043010709/01/02 04:30:31  5-MIN KSTC 011030Z AUTO 30010KT 7SM FEW019 BKN060 21/18 A3005 910 84 1800 300/10 RMK AO2
14926KSTC STC20020901043511609/01/02 04:35:31  5-MIN KSTC 011035Z AUTO 30009KT 7SM TS FEW021 OVC060 21/18 A3005 900 84 1800 300/09 RMK AO2 TSB34
14926KSTC STC20020901044011609/01/02 04:40:31  5-MIN KSTC 011040Z AUTO 29005KT 7SM TS SCT021 OVC060 21/18 A3005 910 84 1800 290/05 RMK AO2 TSB34
14926KSTC STC20020901044512309/01/02 04:45:31  5-MIN KSTC 011045Z AUTO 31004KT 7SM TS SCT021 SCT026 OVC060 21/18 A3005 910 87 1800 300/04 RMK AO2 TSB34
14926KSTC STC20020901045013309/01/02 04:50:31  5-MIN KSTC 011050Z AUTO 31005KT 7SM SCT023 OVC060 21/18 A3005 910 87 1800 310/05 RMK AO2 TSB34E49 SLP177 T02060183
14926KSTC STC20020901045511409/01/02 04:55:31  5-MIN KSTC 011055Z AUTO 00000KT 7SM SCT024 BKN060 BKN090 21/18 A3005 910 87 1800 000/00 RMK AO2
14926KSTC STC20020901050012609/01/02 05:00:31  5-MIN KSTC 011100Z AUTO 00000KT 6SM TS BR SCT024 BKN060 BKN095 20/18 A3004 910 90 1700 000/00 RMK AO2 TSB00
14926KSTC STC20020901050514009/01/02 05:05:31  5-MIN KSTC 011105Z AUTO 00000KT 6SM -TSRA BR FEW011 BKN060 OVC090 20/18 A3004 910 90 1700 000/00 RMK AO2 TSB00RAB02 P0000
14926KSTC STC20020901051014009/01/02 05:10:31  5-MIN KSTC 011110Z AUTO 00000KT 6SM -TSRA BR FEW024 SCT028 BKN060 20/18 A3004 920 90 1800 000/00 RMK AO2 TSB00RAB02 P0000
14926KSTC STC20020901051514009/01/02 05:15:31  5-MIN KSTC 011115Z AUTO 00000KT 6SM TS BR FEW028 BKN060 BKN090 19/18 A3004 920 93 1700 000/00 RMK AO2 TSB00RAB02E15 P0000
14926KSTC STC20020901052013309/01/02 05:20:31  5-MIN KSTC 011120Z AUTO 13003KT 5SM TS BR FEW028 BKN060 19/18 A3004 920 93 1700 130/03 RMK AO2 TSB00RAB02E15 P0000
14926KSTC STC20020901052514009/01/02 05:25:31  5-MIN KSTC 011125Z AUTO 11003KT 4SM TS BR FEW030 BKN060 BKN100 19/18 A3003 920 97 1600 100/03 RMK AO2 TSB00RAB02E15 P0000
14926KSTC STC20020901053013309/01/02 05:30:31  5-MIN KSTC 011130Z AUTO 09003KT 4SM -TSRA BR FEW030 BKN060 19/18 A3003 930 93 1700 090/03 RMK AO2 TSB00RAB02 P0000
14926KSTC STC20020901053513309/01/02 05:35:31  5-MIN KSTC 011135Z AUTO 12005KT 5SM -TSRA BR FEW030 BKN065 19/18 A3003 930 93 1700 120/05 RMK AO2 TSB00RAB02 P0000
14926KSTC STC20020901054012609/01/02 05:40:31  5-MIN KSTC 011140Z AUTO 15005KT 5SM -TSRA BR BKN060 19/18 A3003 930 93 1700 140/05 RMK AO2 TSB00RAB02 P0000
14926KSTC STC20020901054512609/01/02 05:45:31  5-MIN KSTC 011145Z AUTO 14005KT 5SM -TSRA BR BKN060 19/18 A3003 920 97 1600 140/05 RMK AO2 TSB00RAB02 P0000
14926KSTC STC20020901055016709/01/02 05:50:31  5-MIN KSTC 011150Z AUTO 13004KT 4SM TS BR BKN060 19/18 A3003 930 93 1700 130/04 RMK AO2 TSB00RAB02E47 SLP172 P0000 60000 T01940183 10217 20189 55009
14926KSTC STC20020901055510609/01/02 05:55:31  5-MIN KSTC 011155Z AUTO 13006KT 4SM TS BR OVC060 19/18 A3003 930 93 1700 130/06 RMK AO2
14926KSTC STC20020901060010609/01/02 06:00:31  5-MIN KSTC 011200Z AUTO 14007KT 4SM TS BR OVC060 19/18 A3002 930 93 1700 140/07 RMK AO2
14926KSTC STC20020901060510609/01/02 06:05:31  5-MIN KSTC 011205Z AUTO 14006KT 3SM TS BR OVC060 19/18 A3002 930 93 1700 140/06 RMK AO2
14926KSTC STC20020901061010609/01/02 06:10:31  5-MIN KSTC 011210Z AUTO 14006KT 3SM TS BR OVC060 19/18 A3002 940 93 1700 130/06 RMK AO2
14926KSTC STC20020901061511309/01/02 06:15:31  5-MIN KSTC 011215Z AUTO 13007KT 4SM TS BR BKN060 19/18 A3001 950 93 1700 130/07 RMK AO2 PRESFR
14926KSTC STC20020901062011309/01/02 06:20:31  5-MIN KSTC 011220Z AUTO 13010KT 4SM TS BR BKN065 19/18 A2999 960 93 1700 130/10 RMK AO2 PRESFR
14926KSTC STC20020901062510609/01/02 06:25:31  5-MIN KSTC 011225Z AUTO 13009KT 4SM TS BR BKN065 19/18 A2999 960 93 1700 130/09 RMK AO2
14926KSTC STC20020901063010609/01/02 06:30:31  5-MIN KSTC 011230Z AUTO 15008KT 4SM TS BR SCT065 19/18 A2999 960 93 1700 150/08 RMK AO2
14926KSTC STC20020901063510909/01/02 06:35:31  5-MIN KSTC 011235Z AUTO 14007KT 4SM BR FEW065 19/18 A2999 960 93 1700 140/07 RMK AO2 TSE31
14926KSTC STC20020901064010909/01/02 06:40:31  5-MIN KSTC 011240Z AUTO 14008KT 3SM BR FEW070 19/18 A2998 970 93 1700 140/08 RMK AO2 TSE31
14926KSTC STC20020901064510609/01/02 06:45:31  5-MIN KSTC 011245Z AUTO 14008KT 4SM BR CLR 19/18 A2998 970 93 1800 140/08 RMK AO2 TSE31
14926KSTC STC20020901065012309/01/02 06:50:31  5-MIN KSTC 011250Z AUTO 15008KT 4SM BR CLR 19/18 A2998 970 93 1800 140/08 RMK AO2 TSE31 SLP156 T01940183
14926KSTC STC20020901065510009/01/02 06:55:31  5-MIN KSTC 011255Z AUTO 15008KT 4SM BR CLR 19/18 A2998 970 93 1800 150/08 RMK AO2
14926KSTC STC20020901070010009/01/02 07:00:31  5-MIN KSTC 011300Z AUTO 15010KT 3SM BR CLR 19/18 A2998 970 93 1800 150/10 RMK AO2
14926KSTC STC20020901070510009/01/02 07:05:31  5-MIN KSTC 011305Z AUTO 15011KT 3SM BR CLR 19/18 A2997 980 93 1800 150/11 RMK AO2
14926KSTC STC20020901071010009/01/02 07:10:31  5-MIN KSTC 011310Z AUTO 15012KT 3SM BR CLR 19/18 A2997 980 93 1800 150/12 RMK AO2
14926KSTC STC20020901071510009/01/02 07:15:31  5-MIN KSTC 011315Z AUTO 15011KT 3SM BR CLR 19/19 A2997 980 97 1800 150/11 RMK AO2
14926KSTC STC20020901072010009/01/02 07:20:31  5-MIN KSTC 011320Z AUTO 15009KT 3SM BR CLR 20/19 A2996 990 93 1800 140/09 RMK AO2
14926KSTC STC20020901072510009/01/02 07:25:31  5-MIN KSTC 011325Z AUTO 15010KT 3SM BR CLR 20/19 A2996 990 93 1800 140/10 RMK AO2
14926KSTC STC20020901073010109/01/02 07:30:31  5-MIN KSTC 011330Z AUTO 15011KT 4SM BR CLR 21/19 A2995 1000 90 1900 150/11 RMK AO2
14926KSTC STC20020901073510109/01/02 07:35:31  5-MIN KSTC 011335Z AUTO 14011KT 4SM BR CLR 21/19 A2994 1000 90 1900 140/11 RMK AO2
14926KSTC STC20020901074010109/01/02 07:40:31  5-MIN KSTC 011340Z AUTO 14010KT 4SM BR CLR 21/19 A2994 1010 90 1900 140/10 RMK AO2
14926KSTC STC20020901074510109/01/02 07:45:31  5-MIN KSTC 011345Z AUTO 15009KT 4SM BR CLR 21/19 A2995 1000 87 2000 150/09 RMK AO2
14926KSTC STC20020901075011809/01/02 07:50:31  5-MIN KSTC 011350Z AUTO 15011KT 4SM BR CLR 21/19 A2995 1000 87 2000 150/11 RMK AO2 SLP145 T02110189
14926KSTC STC20020901075510009/01/02 07:55:31  5-MIN KSTC 011355Z AUTO 15010KT 4SM BR CLR 21/19 A2995 990 87 2000 150/10 RMK AO2
14926KSTC STC20020901080010009/01/02 08:00:31  5-MIN KSTC 011400Z AUTO 15010KT 5SM BR CLR 22/19 A2996 990 87 2000 150/10 RMK AO2
14926KSTC STC20020901080510009/01/02 08:05:31  5-MIN KSTC 011405Z AUTO 16015KT 5SM BR CLR 22/19 A2995 990 87 2000 150/15 RMK AO2
14926KSTC STC20020901081010109/01/02 08:10:31  5-MIN KSTC 011410Z AUTO 15013KT 5SM HZ CLR 22/19 A2995 1000 84 2000 150/13 RMK AO2
14926KSTC STC20020901081510109/01/02 08:15:31  5-MIN KSTC 011415Z AUTO 16013KT 5SM HZ CLR 22/19 A2995 1000 84 2000 160/13 RMK AO2
14926KSTC STC20020901082010109/01/02 08:20:31  5-MIN KSTC 011420Z AUTO 16011KT 5SM HZ CLR 22/19 A2995 1000 84 2000 150/11 RMK AO2
14926KSTC STC20020901082510109/01/02 08:25:31  5-MIN KSTC 011425Z AUTO 16012KT 5SM HZ CLR 22/19 A2995 1000 84 2000 160/12 RMK AO2
14926KSTC STC20020901083010009/01/02 08:30:31  5-MIN KSTC 011430Z AUTO 17011KT 5SM HZ CLR 22/19 A2995 990 84 2000 160/11 RMK AO2
14926KSTC STC20020901083510109/01/02 08:35:31  5-MIN KSTC 011435Z AUTO 17011KT 5SM HZ CLR 22/19 A2995 1000 84 2000 160/11 RMK AO2
14926KSTC STC20020901084010109/01/02 08:40:31  5-MIN KSTC 011440Z AUTO 16012KT 5SM HZ CLR 22/19 A2995 1000 81 2100 150/12 RMK AO2
14926KSTC STC20020901084510109/01/02 08:45:31  5-MIN KSTC 011445Z AUTO 17015KT 5SM HZ CLR 22/19 A2995 1000 81 2100 170/15 RMK AO2
14926KSTC STC20020901085012409/01/02 08:50:31  5-MIN KSTC 011450Z AUTO 18013KT 5SM HZ CLR 23/19 A2995 1000 78 2200 170/13 RMK AO2 SLP144 T02280189 50006
14926KSTC STC20020901085510109/01/02 08:55:31  5-MIN KSTC 011455Z AUTO 17011KT 5SM HZ CLR 23/19 A2995 1000 78 2200 170/11 RMK AO2
14926KSTC STC20020901090010709/01/02 09:00:31  5-MIN KSTC 011500Z AUTO 17013G19KT 6SM HZ CLR 23/19 A2995 1000 78 2200 170/13G19 RMK AO2
14926KSTC STC20020901090510709/01/02 09:05:31  5-MIN KSTC 011505Z AUTO 17015G19KT 6SM HZ CLR 23/19 A2995 1000 78 2200 170/15G19 RMK AO2
14926KSTC STC20020901091010709/01/02 09:10:31  5-MIN KSTC 011510Z AUTO 18013G19KT 6SM HZ CLR 23/19 A2995 1000 78 2200 170/13G19 RMK AO2
14926KSTC STC20020901091510109/01/02 09:15:31  5-MIN KSTC 011515Z AUTO 19012KT 6SM HZ CLR 23/19 A2995 1000 78 2200 190/12 RMK AO2
14926KSTC STC20020901092010109/01/02 09:20:31  5-MIN KSTC 011520Z AUTO 17012KT 5SM HZ CLR 23/19 A2995 1000 78 2200 170/12 RMK AO2
14926KSTC STC20020901092510109/01/02 09:25:31  5-MIN KSTC 011525Z AUTO 19012KT 6SM HZ CLR 23/19 A2995 1000 78 2200 190/12 RMK AO2
14926KSTC STC20020901093010109/01/02 09:30:31  5-MIN KSTC 011530Z AUTO 18012KT 6SM HZ CLR 23/19 A2995 1000 78 2200 180/12 RMK AO2
14926KSTC STC20020901093510109/01/02 09:35:31  5-MIN KSTC 011535Z AUTO 19011KT 6SM HZ CLR 23/19 A2995 1000 78 2200 180/11 RMK AO2
14926KSTC STC20020901094010109/01/02 09:40:31  5-MIN KSTC 011540Z AUTO 19012KT 6SM HZ CLR 23/19 A2995 1000 78 2200 190/12 RMK AO2
14926KSTC STC20020901094510109/01/02 09:45:31  5-MIN KSTC 011545Z AUTO 19010KT 6SM HZ CLR 23/19 A2995 1000 76 2200 190/10 RMK AO2
14926KSTC STC20020901095012409/01/02 09:50:31  5-MIN KSTC 011550Z AUTO 18009G16KT 6SM HZ CLR 23/19 A2995 1000 78 2200 180/09G16 RMK AO2 SLP144 T02330194
14926KSTC STC20020901095511009/01/02 09:55:31  5-MIN KSTC 011555Z AUTO 18011G16KT 6SM HZ FEW085 24/19 A2995 1000 76 2300 180/11G16 RMK AO2
14926KSTC STC20020901100010409/01/02 10:00:31  5-MIN KSTC 011600Z AUTO 18015KT 6SM HZ FEW085 23/19 A2995 1000 78 2200 180/15 RMK AO2
14926KSTC STC20020901100510409/01/02 10:05:31  5-MIN KSTC 011605Z AUTO 19013KT 6SM HZ FEW085 23/19 A2995 1000 76 2200 190/13 RMK AO2
14926KSTC STC20020901101010409/01/02 10:10:31  5-MIN KSTC 011610Z AUTO 18011KT 6SM HZ FEW085 23/19 A2994 1010 78 2200 180/11 RMK AO2
14926KSTC STC20020901101510109/01/02 10:15:31  5-MIN KSTC 011615Z AUTO 18013KT 6SM HZ CLR 23/19 A2995 1000 76 2200 180/13 RMK AO2
14926KSTC STC20020901102010109/01/02 10:20:31  5-MIN KSTC 011620Z AUTO 18011KT 6SM HZ CLR 23/19 A2994 1010 78 2200 180/11 RMK AO2
14926KSTC STC20020901102510109/01/02 10:25:31  5-MIN KSTC 011625Z AUTO 19010KT 6SM HZ CLR 23/19 A2994 1010 78 2200 180/10 RMK AO2
14926KSTC STC20020901103010109/01/02 10:30:31  5-MIN KSTC 011630Z AUTO 19010KT 6SM HZ CLR 24/19 A2994 1010 76 2300 190/10 RMK AO2
14926KSTC STC20020901103510709/01/02 10:35:31  5-MIN KSTC 011635Z AUTO 19011G17KT 6SM HZ CLR 24/19 A2994 1010 76 2300 190/11G17 RMK AO2
14926KSTC STC20020901104010109/01/02 10:40:31  5-MIN KSTC 011640Z AUTO 19012KT 6SM HZ CLR 24/19 A2993 1020 76 2300 190/12 RMK AO2
14926KSTC STC20020901104510109/01/02 10:45:31  5-MIN KSTC 011645Z AUTO 17014KT 6SM HZ CLR 24/19 A2993 1020 76 2300 160/14 RMK AO2
14926KSTC STC20020901105011809/01/02 10:50:31  5-MIN KSTC 011650Z AUTO 18014KT 6SM HZ CLR 24/19 A2993 1020 73 2400 180/14 RMK AO2 SLP138 T02440194
14926KSTC STC20020901105510109/01/02 10:55:31  5-MIN KSTC 011655Z AUTO 18012KT 6SM HZ CLR 24/20 A2993 1020 76 2400 180/12 RMK AO2
14926KSTC STC20020901110010109/01/02 11:00:31  5-MIN KSTC 011700Z AUTO 17013KT 6SM HZ CLR 24/20 A2992 1030 76 2400 170/13 RMK AO2
14926KSTC STC20020901110510109/01/02 11:05:31  5-MIN KSTC 011705Z AUTO 17010KT 6SM HZ CLR 24/20 A2992 1030 76 2400 160/10 RMK AO2
14926KSTC STC20020901111010109/01/02 11:10:31  5-MIN KSTC 011710Z AUTO 17012KT 6SM HZ CLR 25/20 A2991 1030 73 2500 160/12 RMK AO2
14926KSTC STC20020901111510809/01/02 11:15:31  5-MIN KSTC 011715Z AUTO 16012KT 6SM HZ CLR 25/20 A2990 1040 73 2500 160/12 RMK AO2 PRESFR
14926KSTC STC20020901112010109/01/02 11:20:31  5-MIN KSTC 011720Z AUTO 16012KT 6SM HZ CLR 25/20 A2990 1040 73 2500 160/12 RMK AO2
14926KSTC STC20020901112510109/01/02 11:25:31  5-MIN KSTC 011725Z AUTO 17011KT 6SM HZ CLR 25/20 A2991 1040 73 2500 170/11 RMK AO2
14926KSTC STC20020901113010109/01/02 11:30:31  5-MIN KSTC 011730Z AUTO 16012KT 6SM HZ CLR 24/20 A2991 1030 76 2400 160/12 RMK AO2
14926KSTC STC20020901113510109/01/02 11:35:31  5-MIN KSTC 011735Z AUTO 17010KT 6SM HZ CLR 25/20 A2991 1030 73 2500 170/10 RMK AO2
14926KSTC STC20020901114010109/01/02 11:40:31  5-MIN KSTC 011740Z AUTO 17010KT 6SM HZ CLR 25/20 A2992 1030 73 2500 160/10 RMK AO2
14926KSTC STC20020901114510109/01/02 11:45:31  5-MIN KSTC 011745Z AUTO 17010KT 6SM HZ CLR 25/21 A2992 1030 76 2500 170/10 RMK AO2
14926KSTC STC20020901115013609/01/02 11:50:31  5-MIN KSTC 011750Z AUTO 17008KT 6SM HZ CLR 26/21 A2992 1030 73 2500 170/08 RMK AO2 SLP133 T02560206 10256 20194 56027
14926KSTC STC20020901115510109/01/02 11:55:31  5-MIN KSTC 011755Z AUTO 18011KT 6SM HZ CLR 25/21 A2991 1030 76 2500 180/11 RMK AO2
14926KSTC STC20020901120010409/01/02 12:00:31  5-MIN KSTC 011800Z AUTO 16012KT 6SM HZ FEW070 25/20 A2991 1040 73 2500 160/12 RMK AO2
14926KSTC STC20020901120510409/01/02 12:05:31  5-MIN KSTC 011805Z AUTO 17014KT 6SM HZ FEW070 24/20 A2991 1040 76 2400 170/14 RMK AO2
14926KSTC STC20020901121011309/01/02 12:10:31  5-MIN KSTC 011810Z AUTO 17012KT 5SM TS HZ FEW075 24/20 A2991 1040 76 2400 170/12 RMK AO2 TSB10
14926KSTC STC20020901121511309/01/02 12:15:31  5-MIN KSTC 011815Z AUTO 18011KT 6SM TS HZ FEW070 24/20 A2991 1040 76 2400 180/11 RMK AO2 TSB10
14926KSTC STC20020901122011309/01/02 12:20:31  5-MIN KSTC 011820Z AUTO 17013KT 6SM TS HZ FEW070 24/20 A2990 1040 76 2400 170/13 RMK AO2 TSB10
14926KSTC STC20020901122511309/01/02 12:25:31  5-MIN KSTC 011825Z AUTO 17013KT 6SM TS HZ FEW075 24/21 A2990 1050 78 2400 170/13 RMK AO2 TSB10
14926KSTC STC20020901123011309/01/02 12:30:31  5-MIN KSTC 011830Z AUTO 17012KT 6SM TS HZ FEW080 24/21 A2989 1050 78 2400 160/12 RMK AO2 TSB10
14926KSTC STC20020901123511309/01/02 12:35:31  5-MIN KSTC 011835Z AUTO 17011KT 6SM TS HZ FEW060 26/21 A2989 1050 76 2500 160/11 RMK AO2 TSB10
14926KSTC STC20020901124011309/01/02 12:40:31  5-MIN KSTC 011840Z AUTO 17013KT 6SM TS HZ FEW065 26/21 A2990 1050 76 2500 160/13 RMK AO2 TSB10
14926KSTC STC20020901124511309/01/02 12:45:31  5-MIN KSTC 011845Z AUTO 17012KT 6SM TS HZ SCT075 26/21 A2990 1040 76 2500 170/12 RMK AO2 TSB10
14926KSTC STC20020901125013009/01/02 12:50:31  5-MIN KSTC 011850Z AUTO 19007KT 6SM TS HZ SCT075 26/21 A2990 1050 73 2500 180/07 RMK AO2 TSB10 SLP127 T02560206
14926KSTC STC20020901125510709/01/02 12:55:31  5-MIN KSTC 011855Z AUTO 17009KT 6SM TS HZ FEW075 26/21 A2990 1050 73 2500 170/09 RMK AO2
14926KSTC STC20020901130010709/01/02 13:00:31  5-MIN KSTC 011900Z AUTO 16009KT 6SM TS HZ FEW075 25/21 A2989 1050 76 2500 160/09 RMK AO2
14926KSTC STC20020901130510709/01/02 13:05:31  5-MIN KSTC 011905Z AUTO 17009KT 6SM TS HZ FEW080 26/21 A2989 1060 76 2600 170/09 RMK AO2
14926KSTC STC20020901131010709/01/02 13:10:31  5-MIN KSTC 011910Z AUTO 15009KT 6SM TS HZ FEW080 26/21 A2988 1060 76 2600 150/09 RMK AO2
14926KSTC STC20020901131510409/01/02 13:15:31  5-MIN KSTC 011915Z AUTO 18006KT 6SM TS HZ CLR 26/22 A2988 1060 76 2600 180/06 RMK AO2
14926KSTC STC20020901132012309/01/02 13:20:31  5-MIN KSTC 011920Z AUTO 17007KT 150V210 6SM HZ CLR 26/21 A2988 1060 73 2600 170/07 150V210 RMK AO2 TSE19
14926KSTC STC20020901132510709/01/02 13:25:31  5-MIN KSTC 011925Z AUTO 16008KT 6SM HZ CLR 26/21 A2988 1070 73 2600 160/08 RMK AO2 TSE19
14926KSTC STC20020901133010709/01/02 13:30:31  5-MIN KSTC 011930Z AUTO 17009KT 6SM HZ CLR 26/22 A2988 1070 76 2600 170/09 RMK AO2 TSE19
14926KSTC STC20020901133510709/01/02 13:35:31  5-MIN KSTC 011935Z AUTO 17006KT 6SM HZ CLR 27/21 A2988 1070 69 2800 170/06 RMK AO2 TSE19
14926KSTC STC20020901134010709/01/02 13:40:31  5-MIN KSTC 011940Z AUTO 18007KT 6SM HZ CLR 27/22 A2987 1070 71 2800 170/07 RMK AO2 TSE19
14926KSTC STC20020901134510709/01/02 13:45:31  5-MIN KSTC 011945Z AUTO 15010KT 6SM HZ CLR 27/21 A2986 1080 69 2800 150/10 RMK AO2 TSE19
14926KSTC STC20020901135012409/01/02 13:50:31  5-MIN KSTC 011950Z AUTO 17010KT 6SM HZ CLR 27/21 A2985 1090 69 2800 170/10 RMK AO2 TSE19 SLP112 T02720211
14926KSTC STC20020901135510109/01/02 13:55:31  5-MIN KSTC 011955Z AUTO 16009KT 6SM HZ CLR 27/21 A2986 1090 69 2800 150/09 RMK AO2
14926KSTC STC20020901140010109/01/02 14:00:31  5-MIN KSTC 012000Z AUTO 15008KT 7SM FEW080 27/22 A2986 1080 71 2800 150/08 RMK AO2
14926KSTC STC20020901140510409/01/02 14:05:31  5-MIN KSTC 012005Z AUTO 14007KT 6SM HZ SCT080 27/22 A2986 1080 73 2700 140/07 RMK AO2
14926KSTC STC20020901141010409/01/02 14:10:31  5-MIN KSTC 012010Z AUTO 15008KT 6SM HZ SCT080 26/22 A2985 1090 76 2700 150/08 RMK AO2
14926KSTC STC20020901141510409/01/02 14:15:31  5-MIN KSTC 012015Z AUTO 15010KT 6SM HZ FEW080 26/22 A2985 1100 76 2700 150/10 RMK AO2
14926KSTC STC20020901142010409/01/02 14:20:31  5-MIN KSTC 012020Z AUTO 13009KT 6SM HZ SCT080 26/22 A2985 1090 76 2700 130/09 RMK AO2
14926KSTC STC20020901142510409/01/02 14:25:31  5-MIN KSTC 012025Z AUTO 12007KT 6SM HZ BKN075 26/22 A2984 1100 76 2700 120/07 RMK AO2
14926KSTC STC20020901143010409/01/02 14:30:31  5-MIN KSTC 012030Z AUTO 12005KT 6SM HZ BKN075 26/22 A2984 1100 76 2700 110/05 RMK AO2
14926KSTC STC20020901143510409/01/02 14:35:31  5-MIN KSTC 012035Z AUTO 12006KT 6SM HZ BKN075 26/22 A2983 1110 79 2700 110/06 RMK AO2
14926KSTC STC20020901144010409/01/02 14:40:31  5-MIN KSTC 012040Z AUTO 14006KT 6SM HZ BKN075 26/22 A2983 1110 76 2700 130/06 RMK AO2
14926KSTC STC20020901144511109/01/02 14:45:31  5-MIN KSTC 012045Z AUTO 15011KT 6SM HZ BKN075 27/22 A2982 1120 73 2800 140/11 RMK AO2 PRESFR
14926KSTC STC20020901145013409/01/02 14:50:31  5-MIN KSTC 012050Z AUTO 15010KT 6SM HZ SCT075 27/22 A2981 1130 73 2800 150/10 RMK AO2 PRESFR SLP098 T02670217 58010
14926KSTC STC20020901145510409/01/02 14:55:31  5-MIN KSTC 012055Z AUTO 16011KT 7SM TS SCT075 27/21 A2982 1120 71 2800 160/11 RMK AO2
14926KSTC STC20020901150010409/01/02 15:00:31  5-MIN KSTC 012100Z AUTO 15009KT 7SM TS SCT075 27/22 A2982 1110 73 2700 140/09 RMK AO2
14926KSTC STC20020901150510409/01/02 15:05:31  5-MIN KSTC 012105Z AUTO 16009KT 7SM TS BKN075 27/22 A2983 1110 73 2700 150/09 RMK AO2
14926KSTC STC20020901151010409/01/02 15:10:31  5-MIN KSTC 012110Z AUTO 16007KT 7SM TS BKN075 27/22 A2983 1110 73 2700 150/07 RMK AO2
14926KSTC STC20020901151510709/01/02 15:15:31  5-MIN KSTC 012115Z AUTO 16007KT 6SM TS HZ BKN075 27/22 A2983 1110 76 2700 150/07 RMK AO2
14926KSTC STC20020901152010709/01/02 15:20:31  5-MIN KSTC 012120Z AUTO 16006KT 6SM TS HZ BKN075 27/22 A2983 1110 74 2800 160/06 RMK AO2
14926KSTC STC20020901152510409/01/02 15:25:31  5-MIN KSTC 012125Z AUTO 16006KT 7SM TS SCT075 28/23 A2983 1110 74 2900 160/06 RMK AO2
14926KSTC STC20020901153011109/01/02 15:30:31  5-MIN KSTC 012130Z AUTO 16005KT 7SM TS FEW044 SCT075 27/22 A2983 1110 74 2800 160/05 RMK AO2
14926KSTC STC20020901153511409/01/02 15:35:31  5-MIN KSTC 012135Z AUTO 12004KT 6SM TS HZ SCT043 BKN075 27/22 A2983 1110 74 2800 110/04 RMK AO2
14926KSTC STC20020901154013009/01/02 15:40:31  5-MIN KSTC 012140Z AUTO 02007KT 350V090 6SM TS HZ SCT043 BKN075 27/22 A2985 1090 74 2800 020/07 350V090 RMK AO2
14926KSTC STC20020901154512609/01/02 15:45:31  5-MIN KSTC 012145Z AUTO 01013G18KT 8SM TS BKN041 BKN049 22/17 A2986 1090 70 2200 010/13G18 RMK AO2 TSE41B44
14926KSTC STC20020901155014409/01/02 15:50:31  5-MIN KSTC 012150Z AUTO 02014G19KT 10SM TS BKN041 BKN049 21/16 A2984 1100 75 2000 020/14G19 RMK AO2 TSE41B44 SLP109 T02060161
14926KSTC STC20020901155511809/01/02 15:55:31  5-MIN KSTC 012155Z AUTO 07008G23KT 10SM TS BKN041 BKN049 21/16 A2983 1110 73 2100 070/08G23 RMK AO2
14926KSTC STC20020901160012509/01/02 16:00:31  5-MIN KSTC 012200Z AUTO 07008G23KT 10SM TS BKN041 BKN049 22/17 A2982 1120 73 2200 070/08G23 RMK AO2 PRESFR
14926KSTC STC20020901160512509/01/02 16:05:31  5-MIN KSTC 012205Z AUTO 05009G14KT 10SM TS BKN041 BKN049 21/16 A2981 1130 73 2100 050/09G14 RMK AO2 PRESFR
14926KSTC STC20020901161011209/01/02 16:10:31  5-MIN KSTC 012210Z AUTO 06010KT 10SM TS BKN041 22/17 A2980 1140 73 2200 050/10 RMK AO2 PRESFR
14926KSTC STC20020901161510509/01/02 16:15:31  5-MIN KSTC 012215Z AUTO 07008KT 10SM TS SCT041 22/17 A2980 1140 73 2200 070/08 RMK AO2
14926KSTC STC20020901162011209/01/02 16:20:31  5-MIN KSTC 012220Z AUTO 07007KT 10SM TS FEW041 SCT060 22/17 A2980 1140 73 2200 070/07 RMK AO2
14926KSTC STC20020901162512709/01/02 16:25:31  5-MIN KSTC 012225Z AUTO 06009KT 10SM -TSRA FEW033 SCT041 21/17 A2980 1140 75 2200 060/09 RMK AO2 RAB23 P0001
14926KSTC STC20020901163013309/01/02 16:30:31  5-MIN KSTC 012230Z AUTO 08008KT 6SM -TSRA SCT021 SCT041 BKN065 21/17 A2980 1140 81 2100 070/08 RMK AO2 RAB23 P0007
14926KSTC STC20020901163514009/01/02 16:35:31  5-MIN KSTC 012235Z AUTO 06009KT 2 1/2SM +TSRA BR SCT018 BKN055 BKN070 19/17 A2979 1150 87 2000 050/09 RMK AO2 RAB23 P0013
14926KSTC STC20020901164013909/01/02 16:40:31  5-MIN KSTC 012240Z AUTO 05007KT 2 1/2SM TSRA BR SCT018 SCT043 BKN055 19/18 A2979 1150 90 2000 050/07 RMK AO2 RAB23 P0016
14926KSTC STC20020901164513309/01/02 16:45:31  5-MIN KSTC 012245Z AUTO 05009KT 8SM -TSRA FEW021 BKN041 BKN055 19/18 A2978 1160 90 2000 050/09 RMK AO2 RAB23 P0016
14926KSTC STC20020901165018009/01/02 16:50:31  5-MIN KSTC 012250Z AUTO 15009G18KT 050V250 10SM TS FEW013 BKN039 OVC050 19/18 A2983 1110 93 1900 150/09G18 050V250 RMK AO2 RAB23E50 PRESRR SLP105 P0016 T01940183
14926KSTC STC20020901175019709/01/02 17:50:31  5-MIN KSTC 012350Z AUTO 11006KT 5SM BR FEW044 BKN055 BKN075 22/21 A2979 1150 93 2200 100/06 RMK AO2 PK WND 24031/2254 TSE01RAB07E30 SLP092 P0000 60016 T02170206 10278 20194 58031
14926KSTC STC20020901175511809/01/02 17:55:31  5-MIN KSTC 012355Z AUTO 11008KT 6SM BR BKN048 BKN060 BKN080 22/20 A2978 1150 90 2200 110/08 RMK AO2
14926KSTC STC20020901180013809/01/02 18:00:31  5-MIN KSTC 020000Z AUTO 11008KT 6SM VCTS BR SCT048 SCT060 BKN090 22/20 A2977 1160 90 2200 110/08 RMK AO2 TSB2358 PRESFR
14926KSTC STC20020901180512809/01/02 18:05:31  5-MIN KSTC 020005Z AUTO 11009KT 6SM TS BR FEW036 SCT055 22/20 A2977 1170 90 2200 110/09 RMK AO2 TSB2358 P0001
14926KSTC STC20020901181014309/01/02 18:10:31  5-MIN KSTC 020010Z AUTO 12006KT 6SM -TSRA BR FEW027 SCT046 SCT055 22/21 A2979 1150 93 2200 120/06 RMK AO2 TSB2358RAB06 P0001
14926KSTC STC20020901181514309/01/02 18:15:31  5-MIN KSTC 020015Z AUTO 10003KT 6SM -TSRA BR FEW029 SCT044 BKN055 22/21 A2979 1150 93 2200 100/03 RMK AO2 TSB2358RAB06 P0001
14926KSTC STC20020901182013609/01/02 18:20:31  5-MIN KSTC 020020Z AUTO 09006KT 4SM -TSRA BR FEW019 BKN044 22/21 A2979 1150 93 2200 090/06 RMK AO2 TSB2358RAB06 P0005
14926KSTC STC20020901182514309/01/02 18:25:31  5-MIN KSTC 020025Z AUTO 09005KT 3SM -TSRA BR FEW019 BKN044 BKN060 22/21 A2979 1150 93 2200 090/05 RMK AO2 TSB2358RAB06 P0005
14926KSTC STC20020901183014309/01/02 18:30:31  5-MIN KSTC 020030Z AUTO VRB04KT 4SM TS BR FEW022 SCT042 BKN050 22/21 A2978 1150 93 2200 VRB/04 RMK AO2 TSB2358RAB06E29 P0005
14926KSTC STC20020901183514309/01/02 18:35:31  5-MIN KSTC 020035Z AUTO 04004KT 4SM TS BR FEW021 BKN044 BKN060 22/21 A2978 1150 93 2200 030/04 RMK AO2 TSB2358RAB06E29 P0005
14926KSTC STC20020901184013609/01/02 18:40:31  5-MIN KSTC 020040Z AUTO 07004KT 4SM TS BR BKN042 OVC055 22/21 A2978 1160 93 2200 070/04 RMK AO2 TSB2358RAB06E29 P0005
14926KSTC STC20020901184513609/01/02 18:45:31  5-MIN KSTC 020045Z AUTO 08006KT 3SM BR BKN042 OVC055 22/21 A2978 1160 97 2200 080/06 RMK AO2 TSB2358E45RAB06E29 P0005
14926KSTC STC20020901185015309/01/02 18:50:31  5-MIN KSTC 020050Z AUTO 03004KT 3SM BR BKN040 OVC055 22/21 A2979 1150 97 2200 030/04 RMK AO2 TSB2358E45RAB06E29 SLP090 P0005 T02170211
14926KSTC STC20020901185511609/01/02 18:55:31  5-MIN KSTC 020055Z AUTO 02005KT 3SM VCTS BR BKN040 OVC055 22/21 A2979 1150 97 2200 020/05 RMK AO2
14926KSTC STC20020901190010909/01/02 19:00:31  5-MIN KSTC 020100Z AUTO VRB05KT 3SM VCTS BR OVC037 22/21 A2978 1150 93 2200 VRB/05 RMK AO2
14926KSTC STC20020901190511009/01/02 19:05:31  5-MIN KSTC 020105Z AUTO 09007KT 5SM BR OVC037 22/21 A2978 1150 93 2200 090/07 RMK AO2 TSE05
14926KSTC STC20020901191011009/01/02 19:10:31  5-MIN KSTC 020110Z AUTO 11007KT 6SM BR OVC037 21/20 A2978 1150 93 2200 100/07 RMK AO2 TSE05
14926KSTC STC20020901191511009/01/02 19:15:31  5-MIN KSTC 020115Z AUTO 12010KT 6SM BR OVC035 21/20 A2978 1150 93 2200 110/10 RMK AO2 TSE05
14926KSTC STC20020901192011709/01/02 19:20:31  5-MIN KSTC 020120Z AUTO 12011KT 6SM BR BKN035 OVC047 21/21 A2978 1160 97 2200 120/11 RMK AO2 TSE05
14926KSTC STC20020901192511709/01/02 19:25:31  5-MIN KSTC 020125Z AUTO 12009KT 6SM BR BKN035 OVC047 22/21 A2978 1160 93 2200 120/09 RMK AO2 TSE05
14926KSTC STC20020901193011709/01/02 19:30:31  5-MIN KSTC 020130Z AUTO 14008KT 6SM BR SCT035 OVC045 22/21 A2978 1150 93 2200 130/08 RMK AO2 TSE05
14926KSTC STC20020901193511709/01/02 19:35:31  5-MIN KSTC 020135Z AUTO 13005KT 6SM BR BKN040 OVC049 22/21 A2979 1150 93 2200 120/05 RMK AO2 TSE05
14926KSTC STC20020901194011709/01/02 19:40:31  5-MIN KSTC 020140Z AUTO 10005KT 6SM BR BKN042 OVC049 22/21 A2979 1140 93 2200 100/05 RMK AO2 TSE05
14926KSTC STC20020901194511709/01/02 19:45:31  5-MIN KSTC 020145Z AUTO 10006KT 5SM BR BKN042 OVC049 22/21 A2980 1140 93 2200 090/06 RMK AO2 TSE05
14926KSTC STC20020901195012709/01/02 19:50:31  5-MIN KSTC 020150Z AUTO 10006KT 5SM BR OVC040 21/21 A2980 1140 97 2100 090/06 RMK AO2 TSE05 SLP095 T02110206
14926KSTC STC20020901195510409/01/02 19:55:31  5-MIN KSTC 020155Z AUTO 10005KT 6SM BR OVC040 21/21 A2980 1130 97 2100 090/05 RMK AO2
14926KSTC STC20020901200010409/01/02 20:00:31  5-MIN KSTC 020200Z AUTO 09006KT 6SM BR OVC040 21/21 A2981 1130 97 2100 080/06 RMK AO2
14926KSTC STC20020901200511109/01/02 20:05:31  5-MIN KSTC 020205Z AUTO 07005KT 6SM BR FEW032 OVC040 21/21 A2981 1130 97 2100 070/05 RMK AO2
14926KSTC STC20020901201010409/01/02 20:10:31  5-MIN KSTC 020210Z AUTO 07006KT 6SM BR OVC038 21/21 A2981 1130 97 2100 070/06 RMK AO2
14926KSTC STC20020901201510109/01/02 20:15:31  5-MIN KSTC 020215Z AUTO 09005KT 7SM OVC038 21/21 A2981 1130 97 2100 090/05 RMK AO2
14926KSTC STC20020901202010109/01/02 20:20:31  5-MIN KSTC 020220Z AUTO 10007KT 7SM OVC038 21/21 A2981 1130 97 2100 100/07 RMK AO2
14926KSTC STC20020901202510109/01/02 20:25:31  5-MIN KSTC 020225Z AUTO 10008KT 7SM OVC038 21/20 A2981 1130 93 2100 100/08 RMK AO2
14926KSTC STC20020901203010109/01/02 20:30:31  5-MIN KSTC 020230Z AUTO 11008KT 7SM OVC036 21/20 A2981 1130 93 2100 110/08 RMK AO2
14926KSTC STC20020901203510109/01/02 20:35:31  5-MIN KSTC 020235Z AUTO 12009KT 7SM OVC036 21/20 A2981 1130 93 2100 110/09 RMK AO2
14926KSTC STC20020901204010109/01/02 20:40:31  5-MIN KSTC 020240Z AUTO 11010KT 7SM OVC036 21/20 A2981 1130 93 2100 110/10 RMK AO2
14926KSTC STC20020901204510109/01/02 20:45:31  5-MIN KSTC 020245Z AUTO 10008KT 7SM OVC036 21/20 A2981 1130 93 2100 100/08 RMK AO2
14926KSTC STC20020901205013009/01/02 20:50:31  5-MIN KSTC 020250Z AUTO 10012KT 8SM OVC036 21/20 A2981 1130 97 2100 100/12 RMK AO2 SLP097 60005 T02060200 58012
14926KSTC STC20020901205510809/01/02 20:55:31  5-MIN KSTC 020255Z AUTO 10009KT 8SM BKN036 BKN055 21/20 A2981 1130 97 2100 100/09 RMK AO2
14926KSTC STC20020901210010809/01/02 21:00:31  5-MIN KSTC 020300Z AUTO 10010KT 9SM BKN036 BKN060 21/19 A2981 1130 93 2100 100/10 RMK AO2
14926KSTC STC20020901210511509/01/02 21:05:31  5-MIN KSTC 020305Z AUTO 11010KT 9SM SCT036 BKN045 BKN060 21/19 A2980 1130 93 2100 100/10 RMK AO2
14926KSTC STC20020901211011509/01/02 21:10:31  5-MIN KSTC 020310Z AUTO 11009KT 9SM FEW036 SCT044 BKN060 20/19 A2980 1140 97 2000 110/09 RMK AO2
14926KSTC STC20020901211510909/01/02 21:15:31  5-MIN KSTC 020315Z AUTO 11006KT 10SM FEW036 SCT060 20/19 A2980 1140 97 2000 100/06 RMK AO2
14926KSTC STC20020901212011609/01/02 21:20:31  5-MIN KSTC 020320Z AUTO 10007KT 10SM FEW039 SCT065 BKN080 20/19 A2980 1140 93 2000 100/07 RMK AO2
14926KSTC STC20020901212511609/01/02 21:25:31  5-MIN KSTC 020325Z AUTO 11007KT 10SM FEW040 SCT065 BKN080 20/19 A2980 1140 93 2000 110/07 RMK AO2
14926KSTC STC20020901213011609/01/02 21:30:31  5-MIN KSTC 020330Z AUTO 11007KT 10SM FEW043 SCT065 BKN080 20/19 A2980 1140 93 2000 110/07 RMK AO2
14926KSTC STC20020901213510909/01/02 21:35:31  5-MIN KSTC 020335Z AUTO 10006KT 10SM FEW043 BKN070 20/19 A2980 1140 93 2000 100/06 RMK AO2
14926KSTC STC20020901214010909/01/02 21:40:31  5-MIN KSTC 020340Z AUTO 12007KT 10SM SCT043 BKN075 19/19 A2980 1140 97 2000 110/07 RMK AO2
14926KSTC STC20020901214511609/01/02 21:45:31  5-MIN KSTC 020345Z AUTO 11006KT 10SM FEW043 SCT065 SCT080 19/19 A2980 1140 97 2000 110/06 RMK AO2
14926KSTC STC20020901215012609/01/02 21:50:31  5-MIN KSTC 020350Z AUTO 11007KT 10SM FEW041 SCT080 19/19 A2980 1140 97 2000 110/07 RMK AO2 SLP094 T01940189
14926KSTC STC20020901215510909/01/02 21:55:31  5-MIN KSTC 020355Z AUTO 11007KT 10SM SCT041 SCT070 19/19 A2980 1140 97 2000 110/07 RMK AO2
14926KSTC STC20020901220010209/01/02 22:00:31  5-MIN KSTC 020400Z AUTO 11007KT 10SM SCT041 19/19 A2980 1140 97 2000 110/07 RMK AO2
14926KSTC STC20020901220510209/01/02 22:05:31  5-MIN KSTC 020405Z AUTO 12007KT 10SM BKN039 19/19 A2980 1140 97 2000 110/07 RMK AO2
14926KSTC STC20020901221010209/01/02 22:10:31  5-MIN KSTC 020410Z AUTO 12006KT 10SM BKN039 19/19 A2980 1140 97 2000 120/06 RMK AO2
14926KSTC STC20020901221510209/01/02 22:15:31  5-MIN KSTC 020415Z AUTO 12008KT 10SM BKN039 20/19 A2980 1140 93 2000 120/08 RMK AO2
14926KSTC STC20020901222010209/01/02 22:20:31  5-MIN KSTC 020420Z AUTO 12008KT 10SM OVC039 20/19 A2980 1140 93 2000 120/08 RMK AO2
14926KSTC STC20020901222510209/01/02 22:25:31  5-MIN KSTC 020425Z AUTO 12009KT 10SM OVC039 20/19 A2980 1140 93 2000 120/09 RMK AO2
14926KSTC STC20020901223010209/01/02 22:30:31  5-MIN KSTC 020430Z AUTO 13007KT 10SM BKN039 20/19 A2980 1140 93 2000 120/07 RMK AO2
14926KSTC STC20020901223510909/01/02 22:35:31  5-MIN KSTC 020435Z AUTO 13008KT 10SM BKN041 BKN070 19/19 A2980 1140 97 2000 130/08 RMK AO2
14926KSTC STC20020901224010909/01/02 22:40:31  5-MIN KSTC 020440Z AUTO 13008KT 10SM SCT041 BKN070 19/19 A2980 1140 97 2000 130/08 RMK AO2
14926KSTC STC20020901224510909/01/02 22:45:31  5-MIN KSTC 020445Z AUTO 14008KT 10SM SCT041 BKN070 19/19 A2980 1140 97 2000 130/08 RMK AO2
14926KSTC STC20020901225012609/01/02 22:50:31  5-MIN KSTC 020450Z AUTO 13008KT 10SM FEW041 BKN070 19/19 A2980 1140 97 2000 130/08 RMK AO2 SLP093 T01940189
14926KSTC STC20020901225510209/01/02 22:55:31  5-MIN KSTC 020455Z AUTO 14008KT 10SM BKN070 19/19 A2979 1140 97 2000 140/08 RMK AO2
14926KSTC STC20020901230010209/01/02 23:00:31  5-MIN KSTC 020500Z AUTO 14008KT 10SM SCT070 19/19 A2979 1150 97 2000 140/08 RMK AO2
14926KSTC STC20020901230510209/01/02 23:05:31  5-MIN KSTC 020505Z AUTO 13009KT 10SM SCT070 19/19 A2979 1150 97 2000 130/09 RMK AO2
14926KSTC STC20020901231010209/01/02 23:10:31  5-MIN KSTC 020510Z AUTO 13007KT 10SM FEW070 19/19 A2979 1150 97 2000 130/07 RMK AO2
14926KSTC STC20020901231510209/01/02 23:15:31  5-MIN KSTC 020515Z AUTO 13007KT 10SM FEW070 19/19 A2979 1150 97 2000 130/07 RMK AO2
14926KSTC STC20020901232009909/01/02 23:20:31  5-MIN KSTC 020520Z AUTO 14007KT 10SM CLR 19/19 A2979 1150 97 2000 140/07 RMK AO2
14926KSTC STC20020901232509809/01/02 23:25:31  5-MIN KSTC 020525Z AUTO 14007KT 9SM CLR 19/19 A2978 1150 97 2000 130/07 RMK AO2
14926KSTC STC20020901233009809/01/02 23:30:31  5-MIN KSTC 020530Z AUTO 14008KT 9SM CLR 19/19 A2978 1160 97 2000 140/08 RMK AO2
14926KSTC STC20020901233509909/01/02 23:35:31  5-MIN KSTC 020535Z AUTO 14007KT 10SM CLR 19/19 A2978 1160 97 2000 140/07 RMK AO2
14926KSTC STC20020901234009909/01/02 23:40:31  5-MIN KSTC 020540Z AUTO 14007KT 10SM CLR 19/19 A2978 1160 97 2000 130/07 RMK AO2
14926KSTC STC20020901234510209/01/02 23:45:31  5-MIN KSTC 020545Z AUTO 13008KT 10SM FEW037 19/19 A2978 1160 97 2000 130/08 RMK AO2
14926KSTC STC20020901235015309/01/02 23:50:31  5-MIN KSTC 020550Z AUTO 14008KT 10SM FEW037 19/18 A2978 1160 93 2000 140/08 RMK AO2 SLP086 60005 T01940183 10217 20194 402780189 52007
14926KSTC STC20020901235510209/01/02 23:55:31  5-MIN KSTC 020555Z AUTO 14009KT 10SM FEW037 19/18 A2978 1160 93 2000 130/09 RMK AO2
14926KSTC STC20020902000010209/02/02 00:00:31  5-MIN KSTC 020600Z AUTO 13009KT 10SM FEW037 19/18 A2978 1160 93 2000 130/09 RMK AO2
14926KSTC STC20020902000510209/02/02 00:05:31  5-MIN KSTC 020605Z AUTO 14009KT 10SM FEW037 19/18 A2978 1160 93 2000 130/09 RMK AO2
14926KSTC STC20020902001010209/02/02 00:10:31  5-MIN KSTC 020610Z AUTO 14008KT 10SM SCT037 19/18 A2978 1160 97 1900 140/08 RMK AO2
14926KSTC STC20020902001510209/02/02 00:15:31  5-MIN KSTC 020615Z AUTO 14010KT 10SM FEW037 19/18 A2978 1160 97 1900 140/10 RMK AO2
14926KSTC STC20020902002010209/02/02 00:20:31  5-MIN KSTC 020620Z AUTO 14010KT 10SM FEW037 19/18 A2978 1160 97 1900 140/10 RMK AO2
14926KSTC STC20020902002510209/02/02 00:25:31  5-MIN KSTC 020625Z AUTO 14009KT 10SM FEW037 19/18 A2977 1160 97 1900 140/09 RMK AO2
14926KSTC STC20020902003010209/02/02 00:30:31  5-MIN KSTC 020630Z AUTO 14010KT 10SM FEW037 19/18 A2977 1170 97 1900 140/10 RMK AO2
14926KSTC STC20020902003510209/02/02 00:35:31  5-MIN KSTC 020635Z AUTO 14009KT 10SM FEW037 19/18 A2977 1170 97 1900 140/09 RMK AO2
14926KSTC STC20020902004010209/02/02 00:40:31  5-MIN KSTC 020640Z AUTO 14009KT 10SM FEW037 19/18 A2976 1170 97 1900 140/09 RMK AO2
14926KSTC STC20020902004510209/02/02 00:45:31  5-MIN KSTC 020645Z AUTO 14010KT 10SM FEW037 19/18 A2976 1170 97 1900 140/10 RMK AO2
14926KSTC STC20020902005011609/02/02 00:50:31  5-MIN KSTC 020650Z AUTO 14011KT 10SM CLR 19/18 A2977 1170 97 1900 140/11 RMK AO2 SLP082 T01890183
14926KSTC STC20020902005509909/02/02 00:55:31  5-MIN KSTC 020655Z AUTO 14011KT 10SM CLR 19/18 A2976 1170 93 1900 140/11 RMK AO2
14926KSTC STC20020902010009909/02/02 01:00:31  5-MIN KSTC 020700Z AUTO 14009KT 10SM CLR 18/18 A2976 1170 96 1900 140/09 RMK AO2
14926KSTC STC20020902010509909/02/02 01:05:31  5-MIN KSTC 020705Z AUTO 14008KT 10SM CLR 18/18 A2976 1170 96 1900 130/08 RMK AO2
14926KSTC STC20020902011009909/02/02 01:10:31  5-MIN KSTC 020710Z AUTO 14012KT 10SM CLR 18/18 A2976 1180 96 1900 140/12 RMK AO2
14926KSTC STC20020902011509909/02/02 01:15:31  5-MIN KSTC 020715Z AUTO 13010KT 10SM CLR 18/18 A2976 1180 96 1900 130/10 RMK AO2
14926KSTC STC20020902012009909/02/02 01:20:31  5-MIN KSTC 020720Z AUTO 14011KT 10SM CLR 18/18 A2976 1180 96 1900 130/11 RMK AO2
14926KSTC STC20020902012509909/02/02 01:25:31  5-MIN KSTC 020725Z AUTO 14009KT 10SM CLR 18/18 A2976 1180 96 1900 140/09 RMK AO2
14926KSTC STC20020902013009909/02/02 01:30:31  5-MIN KSTC 020730Z AUTO 14006KT 10SM CLR 18/18 A2976 1180 96 1900 140/06 RMK AO2
14926KSTC STC20020902013509909/02/02 01:35:31  5-MIN KSTC 020735Z AUTO 14007KT 10SM CLR 18/17 A2976 1180 93 1900 140/07 RMK AO2
14926KSTC STC20020902014009909/02/02 01:40:31  5-MIN KSTC 020740Z AUTO 14008KT 10SM CLR 18/17 A2975 1180 96 1800 140/08 RMK AO2
14926KSTC STC20020902014509809/02/02 01:45:31  5-MIN KSTC 020745Z AUTO 14007KT 9SM CLR 18/17 A2975 1190 96 1800 140/07 RMK AO2
14926KSTC STC20020902015011509/02/02 01:50:31  5-MIN KSTC 020750Z AUTO 14008KT 9SM CLR 18/17 A2975 1190 96 1800 140/08 RMK AO2 SLP076 T01780172
14926KSTC STC20020902015509809/02/02 01:55:31  5-MIN KSTC 020755Z AUTO 13006KT 8SM CLR 18/17 A2975 1190 96 1800 130/06 RMK AO2
14926KSTC STC20020902020009809/02/02 02:00:31  5-MIN KSTC 020800Z AUTO 14006KT 8SM CLR 18/17 A2975 1190 96 1800 140/06 RMK AO2
14926KSTC STC20020902020509809/02/02 02:05:31  5-MIN KSTC 020805Z AUTO 13005KT 8SM CLR 18/17 A2975 1190 96 1800 130/05 RMK AO2
14926KSTC STC20020902021009809/02/02 02:10:31  5-MIN KSTC 020810Z AUTO 14005KT 7SM CLR 18/17 A2975 1190 96 1800 130/05 RMK AO2
14926KSTC STC20020902021509809/02/02 02:15:31  5-MIN KSTC 020815Z AUTO 13005KT 7SM CLR 18/17 A2974 1190 96 1800 130/05 RMK AO2
14926KSTC STC20020902022009809/02/02 02:20:31  5-MIN KSTC 020820Z AUTO 13007KT 7SM CLR 18/17 A2974 1200 96 1800 130/07 RMK AO2
14926KSTC STC20020902022509809/02/02 02:25:31  5-MIN KSTC 020825Z AUTO 14007KT 7SM CLR 18/17 A2973 1200 96 1800 130/07 RMK AO2
14926KSTC STC20020902023009809/02/02 02:30:31  5-MIN KSTC 020830Z AUTO 13007KT 7SM CLR 18/17 A2973 1200 96 1800 130/07 RMK AO2
14926KSTC STC20020902023509809/02/02 02:35:31  5-MIN KSTC 020835Z AUTO 13006KT 7SM CLR 18/17 A2973 1200 96 1800 130/06 RMK AO2
14926KSTC STC20020902024009809/02/02 02:40:31  5-MIN KSTC 020840Z AUTO 13006KT 7SM CLR 18/17 A2973 1200 96 1800 130/06 RMK AO2
14926KSTC STC20020902024509809/02/02 02:45:31  5-MIN KSTC 020845Z AUTO 14007KT 7SM CLR 18/17 A2973 1210 96 1800 140/07 RMK AO2
14926KSTC STC20020902025012109/02/02 02:50:31  5-MIN KSTC 020850Z AUTO 14006KT 7SM CLR 18/17 A2972 1210 96 1900 140/06 RMK AO2 SLP068 T01780172 58009
14926KSTC STC20020902025509809/02/02 02:55:31  5-MIN KSTC 020855Z AUTO 14007KT 7SM CLR 18/17 A2972 1210 96 1900 140/07 RMK AO2
14926KSTC STC20020902030009909/02/02 03:00:31  5-MIN KSTC 020900Z AUTO 14007KT 7SM CLR 17/17 A2972 1220 100 1800 130/07 RMK AO2
14926KSTC STC20020902030509909/02/02 03:05:31  5-MIN KSTC 020905Z AUTO 14007KT 7SM CLR 17/17 A2971 1220 100 1800 130/07 RMK AO2
14926KSTC STC20020902031009809/02/02 03:10:31  5-MIN KSTC 020910Z AUTO 14006KT 7SM CLR 18/17 A2971 1220 96 1900 140/06 RMK AO2
14926KSTC STC20020902031509809/02/02 03:15:31  5-MIN KSTC 020915Z AUTO 13006KT 7SM CLR 18/17 A2971 1220 96 1900 130/06 RMK AO2
14926KSTC STC20020902032009809/02/02 03:20:31  5-MIN KSTC 020920Z AUTO 13006KT 7SM CLR 18/17 A2971 1220 96 1900 130/06 RMK AO2
14926KSTC STC20020902032509909/02/02 03:25:31  5-MIN KSTC 020925Z AUTO 13006KT 7SM CLR 17/17 A2971 1230 100 1800 130/06 RMK AO2
14926KSTC STC20020902033009909/02/02 03:30:31  5-MIN KSTC 020930Z AUTO 13007KT 7SM CLR 17/17 A2970 1230 100 1800 130/07 RMK AO2
14926KSTC STC20020902033509909/02/02 03:35:31  5-MIN KSTC 020935Z AUTO 13007KT 7SM CLR 17/17 A2970 1230 100 1800 130/07 RMK AO2
14926KSTC STC20020902034009909/02/02 03:40:31  5-MIN KSTC 020940Z AUTO 14008KT 7SM CLR 17/17 A2969 1240 100 1800 130/08 RMK AO2
14926KSTC STC20020902034509909/02/02 03:45:31  5-MIN KSTC 020945Z AUTO 14008KT 8SM CLR 17/17 A2969 1240 100 1800 130/08 RMK AO2
14926KSTC STC20020902035011609/02/02 03:50:31  5-MIN KSTC 020950Z AUTO 14007KT 8SM CLR 17/17 A2969 1240 100 1800 140/07 RMK AO2 SLP058 T01720172
14926KSTC STC20020902035509909/02/02 03:55:31  5-MIN KSTC 020955Z AUTO 14006KT 8SM CLR 17/17 A2968 1250 100 1800 140/06 RMK AO2
14926KSTC STC20020902040009909/02/02 04:00:31  5-MIN KSTC 021000Z AUTO 14007KT 8SM CLR 17/17 A2968 1250 100 1800 140/07 RMK AO2
14926KSTC STC20020902040509909/02/02 04:05:31  5-MIN KSTC 021005Z AUTO 14006KT 7SM CLR 17/17 A2968 1250 100 1800 140/06 RMK AO2
14926KSTC STC20020902041009909/02/02 04:10:31  5-MIN KSTC 021010Z AUTO 14007KT 7SM CLR 17/17 A2968 1250 100 1800 140/07 RMK AO2
14926KSTC STC20020902041509909/02/02 04:15:31  5-MIN KSTC 021015Z AUTO 15006KT 7SM CLR 17/17 A2968 1250 100 1800 140/06 RMK AO2
14926KSTC STC20020902042009909/02/02 04:20:31  5-MIN KSTC 021020Z AUTO 15007KT 7SM CLR 17/17 A2968 1250 100 1800 140/07 RMK AO2
14926KSTC STC20020902042509909/02/02 04:25:31  5-MIN KSTC 021025Z AUTO 15006KT 7SM CLR 17/17 A2967 1250 100 1800 150/06 RMK AO2
14926KSTC STC20020902043010209/02/02 04:30:31  5-MIN KSTC 021030Z AUTO 14005KT 6SM BR CLR 17/17 A2967 1260 100 1800 140/05 RMK AO2
14926KSTC STC20020902043510209/02/02 04:35:31  5-MIN KSTC 021035Z AUTO 15004KT 6SM BR CLR 17/17 A2967 1260 100 1900 140/04 RMK AO2
14926KSTC STC20020902044010209/02/02 04:40:31  5-MIN KSTC 021040Z AUTO 15004KT 6SM BR CLR 17/17 A2967 1260 100 1900 150/04 RMK AO2
14926KSTC STC20020902044510209/02/02 04:45:31  5-MIN KSTC 021045Z AUTO 15005KT 6SM BR CLR 17/17 A2967 1260 100 1800 150/05 RMK AO2
14926KSTC STC20020902045011909/02/02 04:50:31  5-MIN KSTC 021050Z AUTO 16004KT 5SM BR CLR 17/17 A2967 1260 100 1800 160/04 RMK AO2 SLP054 T01670167
14926KSTC STC20020902045510509/02/02 04:55:31  5-MIN KSTC 021055Z AUTO 15004KT 5SM BR FEW005 17/17 A2967 1260 100 1800 150/04 RMK AO2
14926KSTC STC20020902050010509/02/02 05:00:31  5-MIN KSTC 021100Z AUTO 14004KT 5SM BR FEW005 17/17 A2967 1260 100 1800 140/04 RMK AO2
14926KSTC STC20020902050510509/02/02 05:05:31  5-MIN KSTC 021105Z AUTO 14005KT 4SM BR FEW005 17/17 A2967 1260 100 1800 140/05 RMK AO2
14926KSTC STC20020902051010509/02/02 05:10:31  5-MIN KSTC 021110Z AUTO 14004KT 4SM BR FEW005 17/17 A2967 1260 100 1800 140/04 RMK AO2
14926KSTC STC20020902051510509/02/02 05:15:31  5-MIN KSTC 021115Z AUTO 14004KT 4SM BR FEW005 17/17 A2967 1260 100 1800 140/04 RMK AO2
14926KSTC STC20020902052010509/02/02 05:20:31  5-MIN KSTC 021120Z AUTO 14005KT 4SM BR FEW005 17/17 A2967 1260 100 1800 140/05 RMK AO2
14926KSTC STC20020902052510209/02/02 05:25:31  5-MIN KSTC 021125Z AUTO 14006KT 5SM BR CLR 17/17 A2966 1260 100 1800 140/06 RMK AO2
14926KSTC STC20020902053010209/02/02 05:30:31  5-MIN KSTC 021130Z AUTO 15005KT 4SM BR CLR 17/17 A2966 1260 100 1900 150/05 RMK AO2
14926KSTC STC20020902053510209/02/02 05:35:31  5-MIN KSTC 021135Z AUTO 16005KT 4SM BR CLR 17/17 A2966 1260 100 1800 150/05 RMK AO2
14926KSTC STC20020902054010209/02/02 05:40:31  5-MIN KSTC 021140Z AUTO 15005KT 3SM BR CLR 17/17 A2966 1270 100 1800 150/05 RMK AO2
14926KSTC STC20020902054510609/02/02 05:45:31  5-MIN KSTC 021145Z AUTO 14006KT 2 1/2SM BR CLR 17/17 A2965 1270 100 1800 140/06 RMK AO2
14926KSTC STC20020902055014309/02/02 05:50:31  5-MIN KSTC 021150Z AUTO 14007KT 2SM BR CLR 17/17 A2965 1280 100 1800 140/07 RMK AO2 SLP044 70021 T01670167 10194 20167 58018
14926KSTC STC20020902055510209/02/02 05:55:31  5-MIN KSTC 021155Z AUTO 15007KT 2SM BR CLR 17/17 A2964 1280 100 1900 140/07 RMK AO2
14926KSTC STC20020902060010609/02/02 06:00:31  5-MIN KSTC 021200Z AUTO 15006KT 2 1/2SM BR CLR 17/17 A2965 1280 100 1900 140/06 RMK AO2
14926KSTC STC20020902060510909/02/02 06:05:31  5-MIN KSTC 021205Z AUTO 14006KT 2 1/2SM BR FEW002 17/17 A2965 1280 100 1900 140/06 RMK AO2
14926KSTC STC20020902061010909/02/02 06:10:31  5-MIN KSTC 021210Z AUTO 14005KT 2 1/2SM BR SCT002 17/17 A2964 1290 100 1900 140/05 RMK AO2
14926KSTC STC20020902061510909/02/02 06:15:31  5-MIN KSTC 021215Z AUTO 14006KT 2 1/2SM BR BKN002 17/17 A2964 1290 100 1900 140/06 RMK AO2
14926KSTC STC20020902062010909/02/02 06:20:31  5-MIN KSTC 021220Z AUTO 14006KT 2 1/2SM BR BKN002 18/18 A2964 1290 100 1900 140/06 RMK AO2
14926KSTC STC20020902062510509/02/02 06:25:31  5-MIN KSTC 021225Z AUTO 14005KT 3SM BR BKN002 18/18 A2964 1280 100 1900 140/05 RMK AO2
14926KSTC STC20020902063011709/02/02 06:30:31  5-MIN KSTC 021230Z AUTO 14005KT 3SM BR OVC002 18/18 A2965 1280 100 1900 140/05 RMK AO2 CIG 001V007
14926KSTC STC20020902063510509/02/02 06:35:31  5-MIN KSTC 021235Z AUTO 14003KT 3SM BR OVC002 18/18 A2965 1280 100 1900 140/03 RMK AO2
14926KSTC STC20020902064010509/02/02 06:40:31  5-MIN KSTC 021240Z AUTO 17003KT 3SM BR OVC002 18/18 A2965 1280 100 2000 170/03 RMK AO2
14926KSTC STC20020902064510509/02/02 06:45:31  5-MIN KSTC 021245Z AUTO 17005KT 3SM BR OVC002 18/18 A2965 1280 100 2000 170/05 RMK AO2
14926KSTC STC20020902065012209/02/02 06:50:31  5-MIN KSTC 021250Z AUTO VRB04KT 3SM BR OVC002 18/18 A2966 1270 100 2000 VRB/04 RMK AO2 SLP047 T01830183
14926KSTC STC20020902065510409/02/02 06:55:31  5-MIN KSTC 021255Z AUTO 17005KT 3SM BR OVC002 19/18 A2966 1270 97 2100 170/05 RMK AO2
14926KSTC STC20020902070010509/02/02 07:00:31  5-MIN KSTC 021300Z AUTO VRB04KT 3SM BR OVC002 19/19 A2966 1270 100 2100 VRB/04 RMK AO2
14926KSTC STC20020902070510509/02/02 07:05:31  5-MIN KSTC 021305Z AUTO 00000KT 3SM BR OVC002 19/19 A2966 1260 100 2100 000/00 RMK AO2
14926KSTC STC20020902071011209/02/02 07:10:31  5-MIN KSTC 021310Z AUTO 32005KT 3SM BR OVC002 19/19 A2968 1250 100 2000 320/05 RMK AO2 PRESRR
14926KSTC STC20020902071510509/02/02 07:15:31  5-MIN KSTC 021315Z AUTO 33008KT 3SM BR OVC002 19/19 A2968 1250 100 2000 330/08 RMK AO2
14926KSTC STC20020902072010509/02/02 07:20:31  5-MIN KSTC 021320Z AUTO VRB04KT 3SM BR OVC002 19/19 A2967 1260 100 2000 VRB/04 RMK AO2
14926KSTC STC20020902072510509/02/02 07:25:31  5-MIN KSTC 021325Z AUTO 04003KT 3SM BR OVC002 19/19 A2966 1260 100 2000 030/03 RMK AO2
14926KSTC STC20020902073010909/02/02 07:30:31  5-MIN KSTC 021330Z AUTO 04003KT 2 1/2SM BR OVC002 19/19 A2966 1270 100 2100 030/03 RMK AO2
14926KSTC STC20020902073511609/02/02 07:35:31  5-MIN KSTC 021335Z AUTO 12004KT 2 1/2SM BR OVC002 19/19 A2965 1280 100 2100 110/04 RMK AO2 PRESFR
14926KSTC STC20020902074010909/02/02 07:40:31  5-MIN KSTC 021340Z AUTO 13004KT 2 1/2SM BR OVC002 19/19 A2965 1280 100 2100 130/04 RMK AO2
14926KSTC STC20020902074510409/02/02 07:45:31  5-MIN KSTC 021345Z AUTO 00000KT 3SM BR OVC002 19/19 A2966 1270 97 2100 000/00 RMK AO2
14926KSTC STC20020902075012109/02/02 07:50:31  5-MIN KSTC 021350Z AUTO 05003KT 3SM BR OVC002 19/19 A2966 1270 97 2100 050/03 RMK AO2 SLP046 T01940189
14926KSTC STC20020902075510409/02/02 07:55:31  5-MIN KSTC 021355Z AUTO 09004KT 3SM BR OVC002 19/19 A2965 1280 97 2100 080/04 RMK AO2
14926KSTC STC20020902080010809/02/02 08:00:31  5-MIN KSTC 021400Z AUTO 11004KT 2 1/2SM BR OVC002 19/19 A2965 1280 97 2100 100/04 RMK AO2
14926KSTC STC20020902080510409/02/02 08:05:31  5-MIN KSTC 021405Z AUTO 10005KT 3SM BR OVC002 19/19 A2964 1290 97 2100 100/05 RMK AO2
14926KSTC STC20020902081010409/02/02 08:10:31  5-MIN KSTC 021410Z AUTO 11005KT 3SM BR OVC002 19/19 A2964 1280 97 2100 100/05 RMK AO2
14926KSTC STC20020902081510509/02/02 08:15:31  5-MIN KSTC 021415Z AUTO 00000KT 3SM BR OVC002 19/19 A2965 1280 100 2100 000/00 RMK AO2
14926KSTC STC20020902082010409/02/02 08:20:31  5-MIN KSTC 021420Z AUTO 08004KT 3SM BR OVC002 20/19 A2965 1270 97 2200 070/04 RMK AO2
14926KSTC STC20020902082510409/02/02 08:25:31  5-MIN KSTC 021425Z AUTO 09003KT 3SM BR OVC002 20/19 A2965 1270 97 2200 090/03 RMK AO2
14926KSTC STC20020902083010409/02/02 08:30:31  5-MIN KSTC 021430Z AUTO 13003KT 3SM BR OVC002 20/19 A2965 1270 97 2200 120/03 RMK AO2
14926KSTC STC20020902083510409/02/02 08:35:31  5-MIN KSTC 021435Z AUTO 00000KT 3SM BR OVC002 20/19 A2966 1270 97 2200 000/00 RMK AO2
14926KSTC STC20020902084010409/02/02 08:40:31  5-MIN KSTC 021440Z AUTO 00000KT 3SM BR OVC002 20/19 A2966 1270 97 2200 000/00 RMK AO2
14926KSTC STC20020902084510409/02/02 08:45:31  5-MIN KSTC 021445Z AUTO VRB03KT 3SM BR OVC002 20/19 A2966 1270 97 2200 VRB/03 RMK AO2
14926KSTC STC20020902085012709/02/02 08:50:31  5-MIN KSTC 021450Z AUTO 00000KT 3SM BR OVC002 20/19 A2966 1270 97 2200 000/00 RMK AO2 SLP047 T02000194 56025
14926KSTC STC20020902085510409/02/02 08:55:31  5-MIN KSTC 021455Z AUTO VRB04KT 3SM BR OVC004 21/19 A2967 1260 93 2200 VRB/04 RMK AO2
14926KSTC STC20020902090010409/02/02 09:00:31  5-MIN KSTC 021500Z AUTO 00000KT 3SM BR OVC004 20/19 A2966 1260 97 2200 000/00 RMK AO2
14926KSTC STC20020902090510409/02/02 09:05:31  5-MIN KSTC 021505Z AUTO 00000KT 3SM BR OVC004 20/19 A2966 1270 97 2200 000/00 RMK AO2
14926KSTC STC20020902091010409/02/02 09:10:31  5-MIN KSTC 021510Z AUTO 00000KT 3SM BR OVC004 20/19 A2966 1270 97 2200 000/00 RMK AO2
14926KSTC STC20020902091510409/02/02 09:15:31  5-MIN KSTC 021515Z AUTO 00000KT 3SM BR OVC004 21/19 A2966 1270 93 2200 000/00 RMK AO2
14926KSTC STC20020902092010409/02/02 09:20:31  5-MIN KSTC 021520Z AUTO 11005KT 3SM BR OVC004 21/20 A2964 1280 97 2300 110/05 RMK AO2
14926KSTC STC20020902092510409/02/02 09:25:31  5-MIN KSTC 021525Z AUTO 11003KT 3SM BR OVC004 21/20 A2964 1290 97 2300 110/03 RMK AO2
14926KSTC STC20020902093010409/02/02 09:30:31  5-MIN KSTC 021530Z AUTO 13007KT 3SM BR OVC004 21/20 A2964 1290 93 2300 120/07 RMK AO2
14926KSTC STC20020902093510409/02/02 09:35:31  5-MIN KSTC 021535Z AUTO 12007KT 3SM BR OVC004 21/20 A2964 1290 97 2300 120/07 RMK AO2
14926KSTC STC20020902094010409/02/02 09:40:31  5-MIN KSTC 021540Z AUTO 14006KT 4SM BR OVC004 21/20 A2964 1290 97 2300 130/06 RMK AO2
14926KSTC STC20020902094510409/02/02 09:45:31  5-MIN KSTC 021545Z AUTO 11005KT 4SM BR OVC004 21/20 A2964 1290 97 2300 100/05 RMK AO2
14926KSTC STC20020902095012109/02/02 09:50:31  5-MIN KSTC 021550Z AUTO 10003KT 4SM BR OVC004 21/20 A2964 1280 93 2300 100/03 RMK AO2 SLP042 T02110200
14926KSTC STC20020902095510409/02/02 09:55:31  5-MIN KSTC 021555Z AUTO VRB03KT 4SM BR OVC004 21/20 A2966 1270 93 2300 VRB/03 RMK AO2
14926KSTC STC20020902100010409/02/02 10:00:31  5-MIN KSTC 021600Z AUTO 00000KT 4SM BR OVC004 21/19 A2966 1270 93 2300 000/00 RMK AO2
14926KSTC STC20020902100510409/02/02 10:05:31  5-MIN KSTC 021605Z AUTO 00000KT 4SM BR OVC004 21/19 A2965 1280 90 2300 000/00 RMK AO2
14926KSTC STC20020902101010409/02/02 10:10:31  5-MIN KSTC 021610Z AUTO 00000KT 4SM BR OVC004 21/19 A2965 1270 90 2300 000/00 RMK AO2
14926KSTC STC20020902101510409/02/02 10:15:31  5-MIN KSTC 021615Z AUTO 00000KT 4SM BR OVC006 21/20 A2965 1280 93 2300 000/00 RMK AO2
14926KSTC STC20020902102010409/02/02 10:20:31  5-MIN KSTC 021620Z AUTO 00000KT 4SM BR OVC006 21/19 A2965 1280 90 2300 000/00 RMK AO2
14926KSTC STC20020902102510409/02/02 10:25:31  5-MIN KSTC 021625Z AUTO 00000KT 4SM BR OVC006 21/19 A2966 1270 90 2300 000/00 RMK AO2
14926KSTC STC20020902103010409/02/02 10:30:31  5-MIN KSTC 021630Z AUTO 00000KT 4SM BR OVC006 21/19 A2966 1270 90 2300 000/00 RMK AO2
14926KSTC STC20020902103510409/02/02 10:35:31  5-MIN KSTC 021635Z AUTO 00000KT 4SM BR OVC006 21/19 A2966 1270 90 2300 000/00 RMK AO2
14926KSTC STC20020902104010409/02/02 10:40:31  5-MIN KSTC 021640Z AUTO 00000KT 4SM BR OVC006 21/20 A2966 1270 93 2300 000/00 RMK AO2
14926KSTC STC20020902104510409/02/02 10:45:31  5-MIN KSTC 021645Z AUTO 00000KT 4SM BR OVC006 21/20 A2966 1270 93 2300 000/00 RMK AO2
14926KSTC STC20020902105012109/02/02 10:50:31  5-MIN KSTC 021650Z AUTO 28003KT 4SM BR OVC006 21/20 A2966 1260 93 2300 280/03 RMK AO2 SLP048 T02110200
14926KSTC STC20020902105510409/02/02 10:55:31  5-MIN KSTC 021655Z AUTO 00000KT 4SM BR OVC006 21/20 A2967 1260 93 2300 000/00 RMK AO2
14926KSTC STC20020902110010409/02/02 11:00:31  5-MIN KSTC 021700Z AUTO 00000KT 4SM BR OVC006 21/20 A2967 1260 93 2300 000/00 RMK AO2
14926KSTC STC20020902110510409/02/02 11:05:31  5-MIN KSTC 021705Z AUTO 00000KT 4SM BR OVC006 21/20 A2967 1260 93 2300 000/00 RMK AO2
14926KSTC STC20020902111010409/02/02 11:10:31  5-MIN KSTC 021710Z AUTO 28005KT 4SM BR OVC006 22/20 A2967 1260 90 2400 280/05 RMK AO2
14926KSTC STC20020902111510409/02/02 11:15:31  5-MIN KSTC 021715Z AUTO 28004KT 4SM BR OVC006 22/21 A2967 1260 93 2400 270/04 RMK AO2
14926KSTC STC20020902112011609/02/02 11:20:31  5-MIN KSTC 021720Z AUTO 29003KT 4SM BR BKN006 22/21 A2967 1260 90 2400 290/03 RMK AO2 CIG 006V009
14926KSTC STC20020902112510409/02/02 11:25:31  5-MIN KSTC 021725Z AUTO VRB03KT 4SM BR BKN006 23/21 A2967 1260 90 2500 VRB/03 RMK AO2
14926KSTC STC20020902113010409/02/02 11:30:31  5-MIN KSTC 021730Z AUTO VRB04KT 5SM BR BKN006 23/21 A2967 1260 87 2600 VRB/04 RMK AO2
14926KSTC STC20020902113510409/02/02 11:35:31  5-MIN KSTC 021735Z AUTO 29006KT 5SM HZ BKN008 24/21 A2967 1260 84 2600 280/06 RMK AO2
14926KSTC STC20020902114011109/02/02 11:40:31  5-MIN KSTC 021740Z AUTO 28008KT 5SM HZ FEW008 SCT013 24/21 A2967 1260 84 2600 280/08 RMK AO2
14926KSTC STC20020902114511109/02/02 11:45:31  5-MIN KSTC 021745Z AUTO 30006KT 5SM HZ FEW008 SCT013 24/21 A2967 1260 81 2700 290/06 RMK AO2
14926KSTC STC20020902115013909/02/02 11:50:31  5-MIN KSTC 021750Z AUTO 29007KT 6SM HZ FEW008 24/21 A2967 1260 81 2700 290/07 RMK AO2 SLP049 T02440211 10244 20172 53008
14926KSTC STC20020902115511109/02/02 11:55:31  5-MIN KSTC 021755Z AUTO 31008KT 6SM HZ FEW008 SCT014 25/21 A2966 1260 79 2700 310/08 RMK AO2
14926KSTC STC20020902120011009/02/02 12:00:31  5-MIN KSTC 021800Z AUTO 31010G14KT 6SM HZ FEW016 24/21 A2966 1270 78 2700 300/10G14 RMK AO2
14926KSTC STC20020902120510409/02/02 12:05:31  5-MIN KSTC 021805Z AUTO 29010KT 6SM HZ SCT016 24/21 A2966 1270 81 2700 290/10 RMK AO2
14926KSTC STC20020902121010809/02/02 12:10:31  5-MIN KSTC 021810Z AUTO 31011KT 7SM SCT016 SCT022 24/21 A2966 1260 78 2700 300/11 RMK AO2
14926KSTC STC20020902121510109/02/02 12:15:31  5-MIN KSTC 021815Z AUTO 29012KT 7SM BKN019 24/21 A2967 1260 81 2600 290/12 RMK AO2
14926KSTC STC20020902122011409/02/02 12:20:31  5-MIN KSTC 021820Z AUTO 29016G25KT 8SM BKN019 BKN037 23/19 A2967 1260 78 2500 290/16G25 RMK AO2
14926KSTC STC20020902122512109/02/02 12:25:31  5-MIN KSTC 021825Z AUTO 31020G25KT 9SM SCT019 SCT023 BKN037 24/19 A2968 1250 71 2700 310/20G25 RMK AO2
14926KSTC STC20020902123012209/02/02 12:30:31  5-MIN KSTC 021830Z AUTO 30020G25KT 10SM FEW019 SCT023 SCT037 24/18 A2968 1250 68 2700 300/20G25 RMK AO2
14926KSTC STC20020902123513409/02/02 12:35:31  5-MIN KSTC 021835Z AUTO 29020KT 10SM FEW019 SCT023 SCT037 24/18 A2968 1250 71 2600 290/20 RMK AO2 PK WND 30026/1834
14926KSTC STC20020902124012009/02/02 12:40:31  5-MIN KSTC 021840Z AUTO 30016KT 10SM FEW019 24/19 A2968 1250 71 2700 300/16 RMK AO2 PK WND 30026/1834
14926KSTC STC20020902124512609/02/02 12:45:31  5-MIN KSTC 021845Z AUTO 30015G23KT 10SM FEW019 24/18 A2968 1250 68 2700 300/15G23 RMK AO2 PK WND 30026/1834
14926KSTC STC20020902125014309/02/02 12:50:31  5-MIN KSTC 021850Z AUTO 29016G23KT 10SM FEW027 24/18 A2968 1250 68 2700 290/16G23 RMK AO2 PK WND 30026/1834 SLP055 T02440183
14926KSTC STC20020902125510809/02/02 12:55:31  5-MIN KSTC 021855Z AUTO 30018G23KT 10SM FEW027 24/18 A2969 1240 66 2700 300/18G23 RMK AO2
14926KSTC STC20020902130010809/02/02 13:00:31  5-MIN KSTC 021900Z AUTO 31017G23KT 10SM FEW027 24/18 A2969 1240 66 2700 310/17G23 RMK AO2
14926KSTC STC20020902130510809/02/02 13:05:31  5-MIN KSTC 021905Z AUTO 29021G24KT 10SM FEW027 24/17 A2969 1240 63 2700 280/21G24 RMK AO2
14926KSTC STC20020902131010809/02/02 13:10:31  5-MIN KSTC 021910Z AUTO 30019G24KT 10SM FEW027 24/17 A2969 1240 61 2700 290/19G24 RMK AO2
14926KSTC STC20020902131510809/02/02 13:15:31  5-MIN KSTC 021915Z AUTO 31020G24KT 10SM FEW027 24/17 A2969 1240 63 2600 310/20G24 RMK AO2
14926KSTC STC20020902132010509/02/02 13:20:31  5-MIN KSTC 021920Z AUTO 28018G24KT 10SM CLR 24/17 A2969 1240 63 2600 280/18G24 RMK AO2
14926KSTC STC20020902132510509/02/02 13:25:31  5-MIN KSTC 021925Z AUTO 29020G24KT 10SM CLR 24/16 A2969 1240 59 2600 290/20G24 RMK AO2
14926KSTC STC20020902133010509/02/02 13:30:31  5-MIN KSTC 021930Z AUTO 29022G25KT 10SM CLR 24/15 A2970 1230 57 2600 290/22G25 RMK AO2
14926KSTC STC20020902133510509/02/02 13:35:31  5-MIN KSTC 021935Z AUTO 29019G25KT 10SM CLR 24/15 A2970 1230 57 2600 290/19G25 RMK AO2
14926KSTC STC20020902134012309/02/02 13:40:31  5-MIN KSTC 021940Z AUTO 30020G26KT 10SM CLR 23/14 A2970 1230 55 2500 300/20G26 RMK AO2 PK WND 31026/1938
14926KSTC STC20020902134512309/02/02 13:45:31  5-MIN KSTC 021945Z AUTO 30019G26KT 10SM CLR 23/14 A2971 1230 55 2500 300/19G26 RMK AO2 PK WND 30026/1944
14926KSTC STC20020902135014009/02/02 13:50:31  5-MIN KSTC 021950Z AUTO 29023G28KT 10SM CLR 23/13 A2971 1220 53 2500 290/23G28 RMK AO2 PK WND 29028/1949 SLP063 T02330133
14926KSTC STC20020902135512309/02/02 13:55:31  5-MIN KSTC 021955Z AUTO 30019G28KT 10SM CLR 23/13 A2971 1220 53 2500 290/19G28 RMK AO2 PK WND 30026/1955
14926KSTC STC20020902140012309/02/02 14:00:31  5-MIN KSTC 022000Z AUTO 29020G27KT 10SM CLR 23/13 A2971 1220 53 2500 290/20G27 RMK AO2 PK WND 29027/1956
14926KSTC STC20020902140512309/02/02 14:05:31  5-MIN KSTC 022005Z AUTO 29019G27KT 10SM CLR 23/14 A2971 1220 55 2500 290/19G27 RMK AO2 PK WND 29027/1956
14926KSTC STC20020902141012309/02/02 14:10:31  5-MIN KSTC 022010Z AUTO 30020G28KT 10SM CLR 23/14 A2971 1220 55 2500 300/20G28 RMK AO2 PK WND 28028/2007
14926KSTC STC20020902141512309/02/02 14:15:31  5-MIN KSTC 022015Z AUTO 30016G28KT 10SM CLR 23/13 A2971 1220 53 2500 290/16G28 RMK AO2 PK WND 28028/2007
14926KSTC STC20020902142012309/02/02 14:20:31  5-MIN KSTC 022020Z AUTO 28020G25KT 10SM CLR 23/13 A2972 1220 53 2500 280/20G25 RMK AO2 PK WND 28028/2007
14926KSTC STC20020902142512309/02/02 14:25:31  5-MIN KSTC 022025Z AUTO 30017G27KT 10SM CLR 23/14 A2972 1220 55 2500 300/17G27 RMK AO2 PK WND 28028/2007
14926KSTC STC20020902143012309/02/02 14:30:31  5-MIN KSTC 022030Z AUTO 29016G27KT 10SM CLR 23/14 A2972 1210 55 2500 280/16G27 RMK AO2 PK WND 28028/2007
14926KSTC STC20020902143512309/02/02 14:35:31  5-MIN KSTC 022035Z AUTO 30022G29KT 10SM CLR 23/13 A2972 1210 51 2500 290/22G29 RMK AO2 PK WND 30029/2034
14926KSTC STC20020902144012309/02/02 14:40:31  5-MIN KSTC 022040Z AUTO 31020G29KT 10SM CLR 23/13 A2972 1210 53 2400 310/20G29 RMK AO2 PK WND 30029/2034
14926KSTC STC20020902144512309/02/02 14:45:31  5-MIN KSTC 022045Z AUTO 29018G24KT 10SM CLR 23/13 A2972 1210 53 2500 280/18G24 RMK AO2 PK WND 30029/2034
14926KSTC STC20020902145014909/02/02 14:50:31  5-MIN KSTC 022050Z AUTO 30019G23KT 10SM FEW045 23/13 A2972 1210 53 2500 290/19G23 RMK AO2 PK WND 30029/2034 SLP068 T02330133 56002
14926KSTC STC20020902145510809/02/02 14:55:31  5-MIN KSTC 022055Z AUTO 29020G25KT 10SM FEW045 23/13 A2972 1210 53 2400 290/20G25 RMK AO2
14926KSTC STC20020902150012609/02/02 15:00:31  5-MIN KSTC 022100Z AUTO 30019G28KT 10SM FEW045 23/13 A2972 1210 53 2400 290/19G28 RMK AO2 PK WND 29028/2057
14926KSTC STC20020902150512609/02/02 15:05:31  5-MIN KSTC 022105Z AUTO 29019G28KT 10SM FEW045 23/13 A2973 1210 53 2400 290/19G28 RMK AO2 PK WND 29028/2057
14926KSTC STC20020902152012609/02/02 15:20:31  5-MIN KSTC 022120Z AUTO 29016G25KT 10SM SCT045 23/13 A2973 1200 53 2500 290/16G25 RMK AO2 PK WND 29028/2057
14926KSTC STC20020902152512609/02/02 15:25:31  5-MIN KSTC 022125Z AUTO 29015G25KT 10SM SCT045 23/13 A2973 1200 53 2500 280/15G25 RMK AO2 PK WND 29028/2057
14926KSTC STC20020902153012609/02/02 15:30:31  5-MIN KSTC 022130Z AUTO 30014G20KT 10SM SCT045 23/13 A2973 1200 55 2400 300/14G20 RMK AO2 PK WND 29028/2057
14926KSTC STC20020902153512609/02/02 15:35:31  5-MIN KSTC 022135Z AUTO 31017G22KT 10SM FEW045 22/13 A2974 1200 56 2300 300/17G22 RMK AO2 PK WND 29028/2057
14926KSTC STC20020902154012609/02/02 15:40:31  5-MIN KSTC 022140Z AUTO 30018G25KT 10SM FEW045 23/13 A2974 1200 53 2400 300/18G25 RMK AO2 PK WND 29028/2057
14926KSTC STC20020902154512609/02/02 15:45:31  5-MIN KSTC 022145Z AUTO 31018G25KT 10SM FEW045 23/12 A2974 1190 51 2400 310/18G25 RMK AO2 PK WND 29028/2057
14926KSTC STC20020902155014309/02/02 15:50:31  5-MIN KSTC 022150Z AUTO 30016G23KT 10SM FEW045 23/13 A2974 1190 53 2400 290/16G23 RMK AO2 PK WND 29028/2057 SLP076 T02280128
14926KSTC STC20020902155510509/02/02 15:55:31  5-MIN KSTC 022155Z AUTO 29021G26KT 10SM CLR 22/12 A2974 1190 51 2300 290/21G26 RMK AO2
14926KSTC STC20020902160010509/02/02 16:00:31  5-MIN KSTC 022200Z AUTO 30013G26KT 10SM CLR 22/12 A2975 1190 52 2300 290/13G26 RMK AO2
14926KSTC STC20020902160510509/02/02 16:05:31  5-MIN KSTC 022205Z AUTO 28019G24KT 10SM CLR 22/12 A2975 1180 52 2300 280/19G24 RMK AO2
14926KSTC STC20020902161010509/02/02 16:10:31  5-MIN KSTC 022210Z AUTO 29018G24KT 10SM CLR 22/12 A2975 1180 52 2300 290/18G24 RMK AO2
14926KSTC STC20020902161510509/02/02 16:15:31  5-MIN KSTC 022215Z AUTO 30015G22KT 10SM CLR 22/12 A2976 1180 52 2300 290/15G22 RMK AO2
14926KSTC STC20020902162010509/02/02 16:20:31  5-MIN KSTC 022220Z AUTO 29014G20KT 10SM CLR 23/12 A2976 1180 51 2400 290/14G20 RMK AO2
14926KSTC STC20020902162510509/02/02 16:25:31  5-MIN KSTC 022225Z AUTO 30019G25KT 10SM CLR 22/12 A2976 1180 51 2300 300/19G25 RMK AO2
14926KSTC STC20020902163010509/02/02 16:30:31  5-MIN KSTC 022230Z AUTO 30021G25KT 10SM CLR 22/12 A2976 1170 51 2300 290/21G25 RMK AO2
14926KSTC STC20020902163510509/02/02 16:35:31  5-MIN KSTC 022235Z AUTO 29017G24KT 10SM CLR 22/12 A2977 1170 51 2300 280/17G24 RMK AO2
14926KSTC STC20020902164010509/02/02 16:40:31  5-MIN KSTC 022240Z AUTO 30017G21KT 10SM CLR 22/12 A2977 1170 51 2300 300/17G21 RMK AO2
14926KSTC STC20020902164510509/02/02 16:45:31  5-MIN KSTC 022245Z AUTO 30018G23KT 10SM CLR 22/12 A2977 1170 51 2300 290/18G23 RMK AO2
14926KSTC STC20020902165012209/02/02 16:50:31  5-MIN KSTC 022250Z AUTO 30015G23KT 10SM CLR 22/12 A2977 1170 51 2300 290/15G23 RMK AO2 SLP085 T02220117
14926KSTC STC20020902165510509/02/02 16:55:31  5-MIN KSTC 022255Z AUTO 29013G23KT 10SM CLR 22/12 A2977 1160 52 2300 290/13G23 RMK AO2
14926KSTC STC20020902170010509/02/02 17:00:31  5-MIN KSTC 022300Z AUTO 30015G20KT 10SM CLR 22/12 A2977 1160 52 2300 290/15G20 RMK AO2
14926KSTC STC20020902170510509/02/02 17:05:31  5-MIN KSTC 022305Z AUTO 29017G23KT 10SM CLR 22/12 A2977 1160 52 2300 280/17G23 RMK AO2
14926KSTC STC20020902171010509/02/02 17:10:31  5-MIN KSTC 022310Z AUTO 29012G23KT 10SM CLR 22/12 A2978 1160 54 2200 290/12G23 RMK AO2
14926KSTC STC20020902171509909/02/02 17:15:31  5-MIN KSTC 022315Z AUTO 28013KT 10SM CLR 22/12 A2978 1160 54 2200 280/13 RMK AO2
14926KSTC STC20020902172009909/02/02 17:20:31  5-MIN KSTC 022320Z AUTO 29014KT 10SM CLR 22/12 A2978 1160 54 2200 290/14 RMK AO2
14926KSTC STC20020902172509909/02/02 17:25:31  5-MIN KSTC 022325Z AUTO 29013KT 10SM CLR 22/12 A2978 1160 52 2200 290/13 RMK AO2
14926KSTC STC20020902173009909/02/02 17:30:31  5-MIN KSTC 022330Z AUTO 30013KT 10SM CLR 22/12 A2978 1160 52 2200 290/13 RMK AO2
14926KSTC STC20020902173509909/02/02 17:35:31  5-MIN KSTC 022335Z AUTO 28010KT 10SM CLR 22/12 A2978 1160 54 2200 280/10 RMK AO2
14926KSTC STC20020902174009909/02/02 17:40:31  5-MIN KSTC 022340Z AUTO 29012KT 10SM CLR 22/12 A2978 1160 54 2200 280/12 RMK AO2
14926KSTC STC20020902174509909/02/02 17:45:31  5-MIN KSTC 022345Z AUTO 29010KT 10SM CLR 22/12 A2978 1160 54 2200 290/10 RMK AO2
14926KSTC STC20020902175013409/02/02 17:50:31  5-MIN KSTC 022350Z AUTO 29011KT 10SM CLR 21/12 A2978 1160 56 2200 280/11 RMK AO2 SLP090 T02110122 10250 20211 51019
14926KSTC STC20020902175509909/02/02 17:55:31  5-MIN KSTC 022355Z AUTO 28009KT 10SM CLR 21/12 A2978 1160 56 2200 280/09 RMK AO2
14926KSTC STC20020902180009909/02/02 18:00:31  5-MIN KSTC 030000Z AUTO 27010KT 10SM CLR 21/12 A2978 1160 56 2200 270/10 RMK AO2
14926KSTC STC20020902180509909/02/02 18:05:31  5-MIN KSTC 030005Z AUTO 28009KT 10SM CLR 21/12 A2978 1150 56 2200 280/09 RMK AO2
14926KSTC STC20020902181009909/02/02 18:10:31  5-MIN KSTC 030010Z AUTO 28007KT 10SM CLR 21/13 A2979 1150 60 2100 270/07 RMK AO2
14926KSTC STC20020902181509909/02/02 18:15:31  5-MIN KSTC 030015Z AUTO 28008KT 10SM CLR 21/13 A2979 1150 60 2100 280/08 RMK AO2
14926KSTC STC20020902182009909/02/02 18:20:31  5-MIN KSTC 030020Z AUTO 27007KT 10SM CLR 21/13 A2979 1150 60 2100 270/07 RMK AO2
14926KSTC STC20020902182509909/02/02 18:25:31  5-MIN KSTC 030025Z AUTO 27007KT 10SM CLR 20/13 A2979 1150 63 2000 270/07 RMK AO2
14926KSTC STC20020902183009909/02/02 18:30:31  5-MIN KSTC 030030Z AUTO 27006KT 10SM CLR 20/13 A2979 1150 63 2000 270/06 RMK AO2
14926KSTC STC20020902183509909/02/02 18:35:31  5-MIN KSTC 030035Z AUTO 26006KT 10SM CLR 19/13 A2979 1150 70 1900 260/06 RMK AO2
14926KSTC STC20020902184009909/02/02 18:40:31  5-MIN KSTC 030040Z AUTO 25007KT 10SM CLR 18/13 A2979 1140 72 1800 250/07 RMK AO2
14926KSTC STC20020902184509909/02/02 18:45:31  5-MIN KSTC 030045Z AUTO 25006KT 10SM CLR 18/13 A2980 1140 72 1800 250/06 RMK AO2
14926KSTC STC20020902185011609/02/02 18:50:31  5-MIN KSTC 030050Z AUTO 25007KT 10SM CLR 18/13 A2980 1140 75 1800 250/07 RMK AO2 SLP096 T01780133
14926KSTC STC20020902185509909/02/02 18:55:31  5-MIN KSTC 030055Z AUTO 26006KT 10SM CLR 18/13 A2980 1140 75 1800 260/06 RMK AO2
14926KSTC STC20020902190009909/02/02 19:00:31  5-MIN KSTC 030100Z AUTO 26007KT 10SM CLR 18/13 A2980 1140 75 1800 260/07 RMK AO2
14926KSTC STC20020902190509909/02/02 19:05:31  5-MIN KSTC 030105Z AUTO 26005KT 10SM CLR 17/13 A2980 1130 78 1700 250/05 RMK AO2
14926KSTC STC20020902191009909/02/02 19:10:31  5-MIN KSTC 030110Z AUTO 26005KT 10SM CLR 17/13 A2980 1130 80 1600 250/05 RMK AO2
14926KSTC STC20020902191509909/02/02 19:15:31  5-MIN KSTC 030115Z AUTO 26004KT 10SM CLR 17/13 A2981 1130 80 1600 260/04 RMK AO2
14926KSTC STC20020902192009909/02/02 19:20:31  5-MIN KSTC 030120Z AUTO 26004KT 10SM CLR 17/13 A2981 1130 80 1600 250/04 RMK AO2
14926KSTC STC20020902192509909/02/02 19:25:31  5-MIN KSTC 030125Z AUTO 27006KT 10SM CLR 17/13 A2981 1130 78 1700 270/06 RMK AO2
14926KSTC STC20020902193009909/02/02 19:30:31  5-MIN KSTC 030130Z AUTO 28006KT 10SM CLR 18/13 A2981 1130 72 1800 280/06 RMK AO2
14926KSTC STC20020902193509909/02/02 19:35:31  5-MIN KSTC 030135Z AUTO 28005KT 10SM CLR 18/13 A2982 1120 72 1700 280/05 RMK AO2
14926KSTC STC20020902194009909/02/02 19:40:31  5-MIN KSTC 030140Z AUTO 28005KT 10SM CLR 17/13 A2982 1120 75 1700 270/05 RMK AO2
14926KSTC STC20020902194509909/02/02 19:45:31  5-MIN KSTC 030145Z AUTO 27005KT 10SM CLR 17/13 A2982 1120 75 1700 270/05 RMK AO2
14926KSTC STC20020902195011609/02/02 19:50:31  5-MIN KSTC 030150Z AUTO 26006KT 10SM CLR 17/13 A2982 1120 75 1700 260/06 RMK AO2 SLP104 T01720128
14926KSTC STC20020902195509909/02/02 19:55:31  5-MIN KSTC 030155Z AUTO 27006KT 10SM CLR 17/13 A2982 1120 77 1600 260/06 RMK AO2
14926KSTC STC20020902200009909/02/02 20:00:31  5-MIN KSTC 030200Z AUTO 27006KT 10SM CLR 16/13 A2982 1120 80 1500 270/06 RMK AO2
14926KSTC STC20020902200509909/02/02 20:05:31  5-MIN KSTC 030205Z AUTO 26006KT 10SM CLR 16/13 A2983 1110 80 1500 260/06 RMK AO2
14926KSTC STC20020902201009909/02/02 20:10:31  5-MIN KSTC 030210Z AUTO 25006KT 10SM CLR 16/13 A2983 1110 83 1500 240/06 RMK AO2
14926KSTC STC20020902201509909/02/02 20:15:31  5-MIN KSTC 030215Z AUTO 24006KT 10SM CLR 16/13 A2983 1110 83 1500 240/06 RMK AO2
14926KSTC STC20020902202009909/02/02 20:20:31  5-MIN KSTC 030220Z AUTO 23006KT 10SM CLR 16/13 A2983 1110 83 1500 230/06 RMK AO2
14926KSTC STC20020902202509909/02/02 20:25:31  5-MIN KSTC 030225Z AUTO 22008KT 10SM CLR 15/13 A2984 1100 86 1400 220/08 RMK AO2
14926KSTC STC20020902203009909/02/02 20:30:31  5-MIN KSTC 030230Z AUTO 22008KT 10SM CLR 15/13 A2984 1100 90 1400 220/08 RMK AO2
14926KSTC STC20020902203509909/02/02 20:35:31  5-MIN KSTC 030235Z AUTO 22008KT 10SM CLR 15/13 A2984 1100 90 1400 220/08 RMK AO2
14926KSTC STC20020902204009909/02/02 20:40:31  5-MIN KSTC 030240Z AUTO 23008KT 10SM CLR 15/13 A2984 1100 90 1400 220/08 RMK AO2
14926KSTC STC20020902204509909/02/02 20:45:31  5-MIN KSTC 030245Z AUTO 24008KT 10SM CLR 16/13 A2984 1100 83 1500 240/08 RMK AO2
14926KSTC STC20020902205012209/02/02 20:50:31  5-MIN KSTC 030250Z AUTO 25008KT 10SM CLR 16/13 A2984 1100 80 1500 250/08 RMK AO2 SLP111 T01610128 51019
14926KSTC STC20020902205509909/02/02 20:55:31  5-MIN KSTC 030255Z AUTO 27008KT 10SM CLR 16/13 A2984 1100 83 1500 270/08 RMK AO2
14926KSTC STC20020902210009909/02/02 21:00:31  5-MIN KSTC 030300Z AUTO 28009KT 10SM CLR 17/13 A2984 1100 77 1600 280/09 RMK AO2
14926KSTC STC20020902210509909/02/02 21:05:31  5-MIN KSTC 030305Z AUTO 28009KT 10SM CLR 17/13 A2984 1100 77 1600 270/09 RMK AO2
14926KSTC STC20020902211009909/02/02 21:10:31  5-MIN KSTC 030310Z AUTO 26007KT 10SM CLR 16/13 A2985 1090 80 1500 260/07 RMK AO2
14926KSTC STC20020902211509909/02/02 21:15:31  5-MIN KSTC 030315Z AUTO 24008KT 10SM CLR 15/13 A2985 1090 86 1400 240/08 RMK AO2
14926KSTC STC20020902212009909/02/02 21:20:31  5-MIN KSTC 030320Z AUTO 24007KT 10SM CLR 15/13 A2985 1090 86 1400 240/07 RMK AO2
14926KSTC STC20020902212509909/02/02 21:25:31  5-MIN KSTC 030325Z AUTO 24007KT 10SM CLR 15/13 A2985 1090 86 1400 240/07 RMK AO2
14926KSTC STC20020902213009909/02/02 21:30:31  5-MIN KSTC 030330Z AUTO 22006KT 10SM CLR 15/12 A2985 1090 83 1400 220/06 RMK AO2
14926KSTC STC20020902213509909/02/02 21:35:31  5-MIN KSTC 030335Z AUTO 21008KT 10SM CLR 14/13 A2985 1090 90 1300 210/08 RMK AO2
14926KSTC STC20020902214009909/02/02 21:40:31  5-MIN KSTC 030340Z AUTO 22008KT 10SM CLR 14/13 A2985 1090 93 1300 210/08 RMK AO2
14926KSTC STC20020902214509909/02/02 21:45:31  5-MIN KSTC 030345Z AUTO 22008KT 10SM CLR 14/13 A2986 1090 90 1300 220/08 RMK AO2
14926KSTC STC20020902215011609/02/02 21:50:31  5-MIN KSTC 030350Z AUTO 23007KT 10SM CLR 14/13 A2986 1090 90 1300 230/07 RMK AO2 SLP117 T01440128
14926KSTC STC20020902215509909/02/02 21:55:31  5-MIN KSTC 030355Z AUTO 23008KT 10SM CLR 15/13 A2985 1090 86 1400 230/08 RMK AO2
14926KSTC STC20020902220009909/02/02 22:00:31  5-MIN KSTC 030400Z AUTO 24007KT 10SM CLR 15/12 A2985 1090 83 1400 230/07 RMK AO2
14926KSTC STC20020902220509909/02/02 22:05:31  5-MIN KSTC 030405Z AUTO 24006KT 10SM CLR 15/12 A2985 1090 83 1400 230/06 RMK AO2
14926KSTC STC20020902221009909/02/02 22:10:31  5-MIN KSTC 030410Z AUTO 25006KT 10SM CLR 14/12 A2985 1090 86 1300 240/06 RMK AO2
14926KSTC STC20020902221509909/02/02 22:15:31  5-MIN KSTC 030415Z AUTO 26005KT 10SM CLR 14/12 A2985 1090 86 1300 260/05 RMK AO2
14926KSTC STC20020902222009909/02/02 22:20:31  5-MIN KSTC 030420Z AUTO 24006KT 10SM CLR 14/12 A2986 1090 90 1200 240/06 RMK AO2
14926KSTC STC20020902222509909/02/02 22:25:31  5-MIN KSTC 030425Z AUTO 24007KT 10SM CLR 14/12 A2986 1090 86 1200 240/07 RMK AO2
14926KSTC STC20020902223009909/02/02 22:30:31  5-MIN KSTC 030430Z AUTO 24006KT 10SM CLR 14/12 A2986 1080 86 1300 230/06 RMK AO2
14926KSTC STC20020902223509909/02/02 22:35:31  5-MIN KSTC 030435Z AUTO 24006KT 10SM CLR 14/12 A2986 1080 86 1300 240/06 RMK AO2
14926KSTC STC20020902224009909/02/02 22:40:31  5-MIN KSTC 030440Z AUTO 25007KT 10SM CLR 14/12 A2986 1080 90 1200 250/07 RMK AO2
14926KSTC STC20020902224509909/02/02 22:45:31  5-MIN KSTC 030445Z AUTO 26007KT 10SM CLR 14/12 A2986 1080 86 1300 250/07 RMK AO2
14926KSTC STC20020902225011609/02/02 22:50:31  5-MIN KSTC 030450Z AUTO 26006KT 10SM CLR 14/12 A2986 1080 86 1300 250/06 RMK AO2 SLP119 T01440122
14926KSTC STC20020902225509909/02/02 22:55:31  5-MIN KSTC 030455Z AUTO 25006KT 10SM CLR 14/12 A2986 1080 86 1200 250/06 RMK AO2
14926KSTC STC20020902230009909/02/02 23:00:31  5-MIN KSTC 030500Z AUTO 26007KT 10SM CLR 14/12 A2986 1080 86 1200 260/07 RMK AO2
14926KSTC STC20020902230509909/02/02 23:05:31  5-MIN KSTC 030505Z AUTO 26008KT 10SM CLR 14/12 A2986 1080 86 1200 260/08 RMK AO2
14926KSTC STC20020902231009909/02/02 23:10:31  5-MIN KSTC 030510Z AUTO 25007KT 10SM CLR 14/12 A2987 1080 86 1200 250/07 RMK AO2
14926KSTC STC20020902231509909/02/02 23:15:31  5-MIN KSTC 030515Z AUTO 25007KT 10SM CLR 14/12 A2987 1070 86 1200 240/07 RMK AO2
14926KSTC STC20020902232009909/02/02 23:20:31  5-MIN KSTC 030520Z AUTO 24007KT 10SM CLR 13/12 A2987 1070 89 1200 240/07 RMK AO2
14926KSTC STC20020902232509909/02/02 23:25:31  5-MIN KSTC 030525Z AUTO 25007KT 10SM CLR 13/12 A2987 1070 89 1200 240/07 RMK AO2
14926KSTC STC20020902233009909/02/02 23:30:31  5-MIN KSTC 030530Z AUTO 25008KT 10SM CLR 14/12 A2987 1070 86 1200 240/08 RMK AO2
14926KSTC STC20020902233509909/02/02 23:35:31  5-MIN KSTC 030535Z AUTO 24008KT 10SM CLR 14/12 A2987 1070 86 1200 240/08 RMK AO2
14926KSTC STC20020902234009909/02/02 23:40:31  5-MIN KSTC 030540Z AUTO 25008KT 10SM CLR 14/12 A2988 1070 86 1200 250/08 RMK AO2
14926KSTC STC20020902234509909/02/02 23:45:31  5-MIN KSTC 030545Z AUTO 25008KT 10SM CLR 14/12 A2988 1070 86 1200 250/08 RMK AO2
14926KSTC STC20020902235014409/02/02 23:50:31  5-MIN KSTC 030550Z AUTO 25008KT 10SM CLR 14/12 A2988 1060 86 1200 250/08 RMK AO2 SLP123 T01390117 10211 20133 402500133 51020
14926KSTC STC20020902235509909/02/02 23:55:31  5-MIN KSTC 030555Z AUTO 25008KT 10SM CLR 14/12 A2988 1060 86 1200 250/08 RMK AO2
14926KSTC STC20020903000009909/03/02 00:00:31  5-MIN KSTC 030600Z AUTO 25008KT 10SM CLR 14/12 A2988 1060 86 1200 250/08 RMK AO2
14926KSTC STC20020903000509909/03/02 00:05:31  5-MIN KSTC 030605Z AUTO 25008KT 10SM CLR 14/12 A2988 1060 86 1200 250/08 RMK AO2
14926KSTC STC20020903001009909/03/02 00:10:31  5-MIN KSTC 030610Z AUTO 25007KT 10SM CLR 13/12 A2988 1060 89 1200 250/07 RMK AO2
14926KSTC STC20020903001509909/03/02 00:15:31  5-MIN KSTC 030615Z AUTO 24007KT 10SM CLR 13/12 A2989 1060 89 1100 240/07 RMK AO2
14926KSTC STC20020903002009909/03/02 00:20:31  5-MIN KSTC 030620Z AUTO 25008KT 10SM CLR 13/12 A2989 1060 89 1100 240/08 RMK AO2
14926KSTC STC20020903002509909/03/02 00:25:31  5-MIN KSTC 030625Z AUTO 25008KT 10SM CLR 13/12 A2989 1060 89 1100 250/08 RMK AO2
14926KSTC STC20020903003009909/03/02 00:30:31  5-MIN KSTC 030630Z AUTO 25009KT 10SM CLR 14/12 A2989 1050 86 1200 250/09 RMK AO2
14926KSTC STC20020903003509909/03/02 00:35:31  5-MIN KSTC 030635Z AUTO 25008KT 10SM CLR 14/11 A2989 1050 83 1200 250/08 RMK AO2
14926KSTC STC20020903004009909/03/02 00:40:31  5-MIN KSTC 030640Z AUTO 25007KT 10SM CLR 14/11 A2989 1050 83 1200 250/07 RMK AO2
14926KSTC STC20020903004509909/03/02 00:45:31  5-MIN KSTC 030645Z AUTO 25008KT 10SM CLR 13/11 A2990 1050 86 1100 250/08 RMK AO2
14926KSTC STC20020903005011609/03/02 00:50:31  5-MIN KSTC 030650Z AUTO 25008KT 10SM CLR 14/11 A2990 1050 83 1200 240/08 RMK AO2 SLP130 T01390111
14926KSTC STC20020903005509909/03/02 00:55:31  5-MIN KSTC 030655Z AUTO 25007KT 10SM CLR 13/11 A2990 1050 86 1100 250/07 RMK AO2
14926KSTC STC20020903010009909/03/02 01:00:31  5-MIN KSTC 030700Z AUTO 25008KT 10SM CLR 14/11 A2990 1050 83 1200 250/08 RMK AO2
14926KSTC STC20020903010509909/03/02 01:05:31  5-MIN KSTC 030705Z AUTO 26008KT 10SM CLR 14/11 A2990 1050 83 1200 250/08 RMK AO2
14926KSTC STC20020903011009909/03/02 01:10:31  5-MIN KSTC 030710Z AUTO 25008KT 10SM CLR 13/11 A2990 1040 86 1100 250/08 RMK AO2
14926KSTC STC20020903011509909/03/02 01:15:31  5-MIN KSTC 030715Z AUTO 25007KT 10SM CLR 13/11 A2990 1040 86 1100 250/07 RMK AO2
14926KSTC STC20020903012009909/03/02 01:20:31  5-MIN KSTC 030720Z AUTO 25008KT 10SM CLR 13/11 A2990 1040 86 1100 250/08 RMK AO2
14926KSTC STC20020903012509909/03/02 01:25:31  5-MIN KSTC 030725Z AUTO 25008KT 10SM CLR 13/11 A2990 1040 86 1100 250/08 RMK AO2
14926KSTC STC20020903013009909/03/02 01:30:31  5-MIN KSTC 030730Z AUTO 25008KT 10SM CLR 13/11 A2990 1040 86 1100 250/08 RMK AO2
14926KSTC STC20020903013509909/03/02 01:35:31  5-MIN KSTC 030735Z AUTO 25008KT 10SM CLR 13/11 A2990 1040 86 1100 250/08 RMK AO2
14926KSTC STC20020903014009909/03/02 01:40:31  5-MIN KSTC 030740Z AUTO 25008KT 10SM CLR 13/11 A2990 1040 86 1100 250/08 RMK AO2
14926KSTC STC20020903014509909/03/02 01:45:31  5-MIN KSTC 030745Z AUTO 25008KT 10SM CLR 13/11 A2991 1040 86 1100 250/08 RMK AO2
14926KSTC STC20020903015011609/03/02 01:50:31  5-MIN KSTC 030750Z AUTO 25008KT 10SM CLR 13/11 A2991 1040 86 1100 250/08 RMK AO2 SLP134 T01330111
14926KSTC STC20020903015509909/03/02 01:55:31  5-MIN KSTC 030755Z AUTO 26008KT 10SM CLR 13/11 A2991 1040 83 1100 250/08 RMK AO2
14926KSTC STC20020903020009909/03/02 02:00:31  5-MIN KSTC 030800Z AUTO 26008KT 10SM CLR 13/11 A2991 1040 83 1100 260/08 RMK AO2
14926KSTC STC20020903020509909/03/02 02:05:31  5-MIN KSTC 030805Z AUTO 26008KT 10SM CLR 13/11 A2991 1040 83 1100 260/08 RMK AO2
14926KSTC STC20020903021009909/03/02 02:10:31  5-MIN KSTC 030810Z AUTO 26007KT 10SM CLR 13/11 A2991 1030 83 1100 260/07 RMK AO2
14926KSTC STC20020903021509909/03/02 02:15:31  5-MIN KSTC 030815Z AUTO 25008KT 10SM CLR 13/11 A2992 1030 86 1000 250/08 RMK AO2
14926KSTC STC20020903022009909/03/02 02:20:31  5-MIN KSTC 030820Z AUTO 24007KT 10SM CLR 13/11 A2992 1030 86 1000 240/07 RMK AO2
14926KSTC STC20020903022509909/03/02 02:25:31  5-MIN KSTC 030825Z AUTO 25007KT 10SM CLR 13/11 A2992 1030 86 1000 250/07 RMK AO2
14926KSTC STC20020903023009909/03/02 02:30:31  5-MIN KSTC 030830Z AUTO 25009KT 10SM CLR 13/11 A2992 1030 83 1100 250/09 RMK AO2
14926KSTC STC20020903023509909/03/02 02:35:31  5-MIN KSTC 030835Z AUTO 26008KT 10SM CLR 13/11 A2991 1030 83 1100 250/08 RMK AO2
14926KSTC STC20020903024009909/03/02 02:40:31  5-MIN KSTC 030840Z AUTO 26009KT 10SM CLR 13/11 A2992 1030 83 1100 260/09 RMK AO2
14926KSTC STC20020903024509909/03/02 02:45:31  5-MIN KSTC 030845Z AUTO 26008KT 10SM CLR 13/11 A2992 1030 83 1100 250/08 RMK AO2
14926KSTC STC20020903025012209/03/02 02:50:31  5-MIN KSTC 030850Z AUTO 25009KT 10SM CLR 13/11 A2992 1030 83 1100 250/09 RMK AO2 SLP138 T01330106 53013
14926KSTC STC20020903025509909/03/02 02:55:31  5-MIN KSTC 030855Z AUTO 26008KT 10SM CLR 13/11 A2992 1020 83 1100 250/08 RMK AO2
14926KSTC STC20020903030009909/03/02 03:00:31  5-MIN KSTC 030900Z AUTO 26008KT 10SM CLR 13/11 A2992 1020 83 1100 260/08 RMK AO2
14926KSTC STC20020903030509909/03/02 03:05:31  5-MIN KSTC 030905Z AUTO 26007KT 10SM CLR 13/11 A2992 1020 86 1000 260/07 RMK AO2
14926KSTC STC20020903031009909/03/02 03:10:31  5-MIN KSTC 030910Z AUTO 26008KT 10SM CLR 13/10 A2992 1020 83 1000 260/08 RMK AO2
14926KSTC STC20020903031509909/03/02 03:15:31  5-MIN KSTC 030915Z AUTO 26007KT 10SM CLR 13/10 A2993 1020 83 1000 260/07 RMK AO2
14926KSTC STC20020903032009909/03/02 03:20:31  5-MIN KSTC 030920Z AUTO 27007KT 10SM CLR 12/10 A2993 1020 86 1000 260/07 RMK AO2
14926KSTC STC20020903032509909/03/02 03:25:31  5-MIN KSTC 030925Z AUTO 27007KT 10SM CLR 12/10 A2993 1020 86 1000 260/07 RMK AO2
14926KSTC STC20020903033009909/03/02 03:30:31  5-MIN KSTC 030930Z AUTO 27008KT 10SM CLR 12/10 A2993 1020 86 1000 270/08 RMK AO2
14926KSTC STC20020903033509909/03/02 03:35:31  5-MIN KSTC 030935Z AUTO 26007KT 10SM CLR 13/10 A2993 1020 83 1000 260/07 RMK AO2
14926KSTC STC20020903034009909/03/02 03:40:31  5-MIN KSTC 030940Z AUTO 25006KT 10SM CLR 12/10 A2993 1020 86 1000 250/06 RMK AO2
14926KSTC STC20020903034509809/03/02 03:45:31  5-MIN KSTC 030945Z AUTO 26006KT 10SM CLR 12/10 A2993 1020 89 900 250/06 RMK AO2
14926KSTC STC20020903035011509/03/02 03:50:31  5-MIN KSTC 030950Z AUTO 26006KT 10SM CLR 12/10 A2993 1020 89 900 250/06 RMK AO2 SLP143 T01170100
14926KSTC STC20020903035509809/03/02 03:55:31  5-MIN KSTC 030955Z AUTO 26006KT 10SM CLR 12/10 A2993 1010 89 900 260/06 RMK AO2
14926KSTC STC20020903040009809/03/02 04:00:31  5-MIN KSTC 031000Z AUTO 26006KT 10SM CLR 12/10 A2993 1010 89 900 250/06 RMK AO2
14926KSTC STC20020903040509809/03/02 04:05:31  5-MIN KSTC 031005Z AUTO 25007KT 10SM CLR 12/10 A2994 1010 89 900 250/07 RMK AO2
14926KSTC STC20020903041009809/03/02 04:10:31  5-MIN KSTC 031010Z AUTO 25007KT 10SM CLR 12/10 A2994 1010 89 900 250/07 RMK AO2
14926KSTC STC20020903041509809/03/02 04:15:31  5-MIN KSTC 031015Z AUTO 25006KT 10SM CLR 12/10 A2994 1010 89 900 250/06 RMK AO2
14926KSTC STC20020903042009809/03/02 04:20:31  5-MIN KSTC 031020Z AUTO 25005KT 10SM CLR 12/10 A2994 1010 89 900 250/05 RMK AO2
14926KSTC STC20020903042509809/03/02 04:25:31  5-MIN KSTC 031025Z AUTO 25005KT 10SM CLR 12/10 A2994 1010 89 900 250/05 RMK AO2
14926KSTC STC20020903043009809/03/02 04:30:31  5-MIN KSTC 031030Z AUTO 25005KT 10SM CLR 11/10 A2994 1000 93 800 250/05 RMK AO2
14926KSTC STC20020903043509809/03/02 04:35:31  5-MIN KSTC 031035Z AUTO 26004KT 10SM CLR 11/10 A2994 1000 93 800 250/04 RMK AO2
14926KSTC STC20020903044009809/03/02 04:40:31  5-MIN KSTC 031040Z AUTO 25003KT 10SM CLR 11/09 A2994 1000 89 800 250/03 RMK AO2
14926KSTC STC20020903044509809/03/02 04:45:31  5-MIN KSTC 031045Z AUTO 26003KT 10SM CLR 11/09 A2994 1000 89 800 260/03 RMK AO2
14926KSTC STC20020903045011509/03/02 04:50:31  5-MIN KSTC 031050Z AUTO 00000KT 10SM CLR 11/10 A2994 1010 93 800 000/00 RMK AO2 SLP147 T01110100
14926KSTC STC20020903045509809/03/02 04:55:31  5-MIN KSTC 031055Z AUTO 25003KT 10SM CLR 11/09 A2994 1010 89 800 250/03 RMK AO2
14926KSTC STC20020903050009809/03/02 05:00:31  5-MIN KSTC 031100Z AUTO 26003KT 10SM CLR 11/09 A2995 1000 89 800 250/03 RMK AO2
14926KSTC STC20020903050509809/03/02 05:05:31  5-MIN KSTC 031105Z AUTO 25005KT 10SM CLR 11/09 A2995 1000 89 800 250/05 RMK AO2
14926KSTC STC20020903051009809/03/02 05:10:31  5-MIN KSTC 031110Z AUTO 25005KT 10SM CLR 11/09 A2995 1000 93 700 240/05 RMK AO2
14926KSTC STC20020903051509709/03/02 05:15:31  5-MIN KSTC 031115Z AUTO 24006KT 10SM CLR 11/09 A2995 990 89 800 240/06 RMK AO2
14926KSTC STC20020903052009709/03/02 05:20:31  5-MIN KSTC 031120Z AUTO 25006KT 10SM CLR 11/09 A2996 990 93 700 250/06 RMK AO2
14926KSTC STC20020903052509709/03/02 05:25:31  5-MIN KSTC 031125Z AUTO 26006KT 10SM CLR 11/09 A2996 990 89 800 260/06 RMK AO2
14926KSTC STC20020903053009709/03/02 05:30:31  5-MIN KSTC 031130Z AUTO 27005KT 10SM CLR 11/09 A2996 990 89 800 260/05 RMK AO2
14926KSTC STC20020903053509709/03/02 05:35:31  5-MIN KSTC 031135Z AUTO 26006KT 10SM CLR 11/09 A2996 990 89 800 250/06 RMK AO2
14926KSTC STC20020903054009709/03/02 05:40:31  5-MIN KSTC 031140Z AUTO 26006KT 10SM CLR 11/09 A2996 990 89 800 260/06 RMK AO2
14926KSTC STC20020903054509709/03/02 05:45:31  5-MIN KSTC 031145Z AUTO 25007KT 10SM CLR 11/09 A2997 980 89 800 250/07 RMK AO2
14926KSTC STC20020903055013209/03/02 05:50:31  5-MIN KSTC 031150Z AUTO 26007KT 10SM CLR 12/09 A2997 980 86 900 260/07 RMK AO2 SLP156 T01170094 10139 20106 51013
14926KSTC STC20020903055509709/03/02 05:55:31  5-MIN KSTC 031155Z AUTO 27007KT 10SM CLR 12/10 A2997 980 89 900 260/07 RMK AO2
14926KSTC STC20020903060009709/03/02 06:00:31  5-MIN KSTC 031200Z AUTO 27006KT 10SM CLR 12/10 A2997 980 89 900 260/06 RMK AO2
14926KSTC STC20020903060509709/03/02 06:05:31  5-MIN KSTC 031205Z AUTO 27005KT 10SM CLR 12/10 A2997 980 89 900 270/05 RMK AO2
14926KSTC STC20020903061009709/03/02 06:10:31  5-MIN KSTC 031210Z AUTO 27005KT 10SM CLR 12/10 A2997 980 89 800 270/05 RMK AO2
14926KSTC STC20020903061509709/03/02 06:15:31  5-MIN KSTC 031215Z AUTO 26005KT 10SM CLR 12/10 A2998 970 89 800 260/05 RMK AO2
14926KSTC STC20020903062009709/03/02 06:20:31  5-MIN KSTC 031220Z AUTO 25006KT 10SM CLR 12/10 A2998 970 89 800 250/06 RMK AO2
14926KSTC STC20020903062509709/03/02 06:25:31  5-MIN KSTC 031225Z AUTO 26007KT 10SM CLR 12/10 A2998 970 86 900 250/07 RMK AO2
14926KSTC STC20020903063009709/03/02 06:30:31  5-MIN KSTC 031230Z AUTO 26007KT 10SM CLR 12/10 A2998 970 86 900 250/07 RMK AO2
14926KSTC STC20020903063509809/03/02 06:35:31  5-MIN KSTC 031235Z AUTO 25007KT 10SM CLR 13/10 A2998 970 83 1000 240/07 RMK AO2
14926KSTC STC20020903064009809/03/02 06:40:31  5-MIN KSTC 031240Z AUTO 25007KT 10SM CLR 13/11 A2998 970 86 1000 250/07 RMK AO2
14926KSTC STC20020903064509809/03/02 06:45:31  5-MIN KSTC 031245Z AUTO 25007KT 10SM CLR 13/11 A2998 970 86 1000 250/07 RMK AO2
14926KSTC STC20020903065011509/03/02 06:50:31  5-MIN KSTC 031250Z AUTO 25007KT 10SM CLR 13/11 A2999 970 83 1000 250/07 RMK AO2 SLP162 T01330106
14926KSTC STC20020903065509809/03/02 06:55:31  5-MIN KSTC 031255Z AUTO 26007KT 10SM CLR 13/11 A2999 970 83 1000 250/07 RMK AO2
14926KSTC STC20020903070009809/03/02 07:00:31  5-MIN KSTC 031300Z AUTO 26007KT 10SM CLR 14/11 A2999 970 80 1100 260/07 RMK AO2
14926KSTC STC20020903070509809/03/02 07:05:31  5-MIN KSTC 031305Z AUTO 27006KT 10SM CLR 14/11 A2999 970 80 1100 260/06 RMK AO2
14926KSTC STC20020903071009809/03/02 07:10:31  5-MIN KSTC 031310Z AUTO 27006KT 10SM CLR 14/11 A2999 970 77 1200 260/06 RMK AO2
14926KSTC STC20020903071509809/03/02 07:15:31  5-MIN KSTC 031315Z AUTO 27007KT 10SM CLR 14/11 A2999 960 77 1200 270/07 RMK AO2
14926KSTC STC20020903072009809/03/02 07:20:31  5-MIN KSTC 031320Z AUTO 27006KT 10SM CLR 15/11 A2999 960 74 1200 270/06 RMK AO2
14926KSTC STC20020903072509809/03/02 07:25:31  5-MIN KSTC 031325Z AUTO 27006KT 10SM CLR 16/11 A2999 960 72 1300 270/06 RMK AO2
14926KSTC STC20020903073009809/03/02 07:30:31  5-MIN KSTC 031330Z AUTO 26008KT 10SM CLR 16/11 A2999 960 72 1300 260/08 RMK AO2
14926KSTC STC20020903073509809/03/02 07:35:31  5-MIN KSTC 031335Z AUTO 25008KT 10SM CLR 16/11 A3000 960 72 1300 250/08 RMK AO2
14926KSTC STC20020903074009809/03/02 07:40:31  5-MIN KSTC 031340Z AUTO 25009KT 10SM CLR 16/11 A3000 960 69 1300 250/09 RMK AO2
14926KSTC STC20020903074509809/03/02 07:45:31  5-MIN KSTC 031345Z AUTO 26009KT 10SM CLR 16/11 A2999 960 72 1400 260/09 RMK AO2
14926KSTC STC20020903075011509/03/02 07:50:31  5-MIN KSTC 031350Z AUTO 26007KT 10SM CLR 16/11 A3000 960 72 1300 250/07 RMK AO2 SLP165 T01610111
14926KSTC STC20020903075509809/03/02 07:55:31  5-MIN KSTC 031355Z AUTO 26009KT 10SM CLR 17/11 A3000 960 69 1400 260/09 RMK AO2
14926KSTC STC20020903080009809/03/02 08:00:31  5-MIN KSTC 031400Z AUTO 26009KT 10SM CLR 17/11 A3000 950 67 1400 260/09 RMK AO2
14926KSTC STC20020903080509809/03/02 08:05:31  5-MIN KSTC 031405Z AUTO 27008KT 10SM CLR 17/11 A3000 950 67 1500 270/08 RMK AO2
14926KSTC STC20020903081009809/03/02 08:10:31  5-MIN KSTC 031410Z AUTO 26009KT 10SM CLR 17/11 A3000 950 64 1500 260/09 RMK AO2
14926KSTC STC20020903081509809/03/02 08:15:31  5-MIN KSTC 031415Z AUTO 26008KT 10SM CLR 17/11 A3000 950 67 1500 260/08 RMK AO2
14926KSTC STC20020903082009809/03/02 08:20:31  5-MIN KSTC 031420Z AUTO 27008KT 10SM CLR 18/11 A3001 950 64 1500 270/08 RMK AO2
14926KSTC STC20020903082509809/03/02 08:25:31  5-MIN KSTC 031425Z AUTO 27008KT 10SM CLR 18/11 A3001 950 64 1500 270/08 RMK AO2
14926KSTC STC20020903083009809/03/02 08:30:31  5-MIN KSTC 031430Z AUTO 27008KT 10SM CLR 18/11 A3001 940 62 1600 270/08 RMK AO2
14926KSTC STC20020903083509809/03/02 08:35:31  5-MIN KSTC 031435Z AUTO 27009KT 10SM CLR 18/11 A3001 940 60 1600 270/09 RMK AO2
14926KSTC STC20020903084009809/03/02 08:40:31  5-MIN KSTC 031440Z AUTO 27008KT 10SM CLR 18/11 A3001 940 62 1600 270/08 RMK AO2
14926KSTC STC20020903084509809/03/02 08:45:31  5-MIN KSTC 031445Z AUTO 27009KT 10SM CLR 19/11 A3002 940 58 1700 270/09 RMK AO2
14926KSTC STC20020903085012109/03/02 08:50:31  5-MIN KSTC 031450Z AUTO 27010KT 10SM CLR 19/11 A3002 940 58 1600 270/10 RMK AO2 SLP172 T01890106 53016
14926KSTC STC20020903085509809/03/02 08:55:31  5-MIN KSTC 031455Z AUTO 27009KT 10SM CLR 19/11 A3002 940 56 1700 260/09 RMK AO2
14926KSTC STC20020903090009809/03/02 09:00:31  5-MIN KSTC 031500Z AUTO 27009KT 10SM CLR 19/11 A3002 940 56 1700 270/09 RMK AO2
14926KSTC STC20020903090509809/03/02 09:05:31  5-MIN KSTC 031505Z AUTO 27011KT 10SM CLR 20/10 A3002 930 52 1800 270/11 RMK AO2
14926KSTC STC20020903091009809/03/02 09:10:31  5-MIN KSTC 031510Z AUTO 27008KT 10SM CLR 20/10 A3002 930 52 1800 270/08 RMK AO2
14926KSTC STC20020903091509809/03/02 09:15:31  5-MIN KSTC 031515Z AUTO 27009KT 10SM CLR 21/11 A3002 930 52 1800 270/09 RMK AO2
14926KSTC STC20020903092009809/03/02 09:20:31  5-MIN KSTC 031520Z AUTO 28008KT 10SM CLR 21/11 A3002 930 52 1800 280/08 RMK AO2
14926KSTC STC20020903092509809/03/02 09:25:31  5-MIN KSTC 031525Z AUTO 28008KT 10SM CLR 21/10 A3002 930 48 1900 280/08 RMK AO2
14926KSTC STC20020903093009809/03/02 09:30:31  5-MIN KSTC 031530Z AUTO 28008KT 10SM CLR 21/10 A3002 930 48 1900 280/08 RMK AO2
14926KSTC STC20020903093509809/03/02 09:35:31  5-MIN KSTC 031535Z AUTO 29007KT 10SM CLR 22/10 A3002 930 47 2000 290/07 RMK AO2
14926KSTC STC20020903094009809/03/02 09:40:31  5-MIN KSTC 031540Z AUTO 29010KT 10SM CLR 21/10 A3002 930 48 1900 290/10 RMK AO2
14926KSTC STC20020903094509809/03/02 09:45:31  5-MIN KSTC 031545Z AUTO 28008KT 10SM CLR 22/11 A3002 930 49 2000 280/08 RMK AO2
14926KSTC STC20020903095011509/03/02 09:50:31  5-MIN KSTC 031550Z AUTO 29007KT 10SM CLR 22/11 A3002 930 47 2000 290/07 RMK AO2 SLP173 T02220106
14926KSTC STC20020903095509809/03/02 09:55:31  5-MIN KSTC 031555Z AUTO 26008KT 10SM CLR 22/11 A3002 930 47 2000 260/08 RMK AO2
14926KSTC STC20020903100009809/03/02 10:00:31  5-MIN KSTC 031600Z AUTO 26007KT 10SM CLR 22/11 A3002 930 47 2000 260/07 RMK AO2
14926KSTC STC20020903100509809/03/02 10:05:31  5-MIN KSTC 031605Z AUTO 26010KT 10SM CLR 22/11 A3002 930 49 2000 250/10 RMK AO2
14926KSTC STC20020903101009809/03/02 10:10:31  5-MIN KSTC 031610Z AUTO 27010KT 10SM CLR 23/11 A3003 930 45 2100 270/10 RMK AO2
14926KSTC STC20020903101509809/03/02 10:15:31  5-MIN KSTC 031615Z AUTO 27010KT 10SM CLR 23/11 A3003 930 45 2100 260/10 RMK AO2
14926KSTC STC20020903102009809/03/02 10:20:31  5-MIN KSTC 031620Z AUTO 27010KT 10SM CLR 23/11 A3003 930 45 2100 270/10 RMK AO2
14926KSTC STC20020903102509809/03/02 10:25:31  5-MIN KSTC 031625Z AUTO 26007KT 10SM CLR 23/11 A3003 930 47 2100 260/07 RMK AO2
14926KSTC STC20020903103009809/03/02 10:30:31  5-MIN KSTC 031630Z AUTO 26008KT 10SM CLR 23/11 A3003 930 45 2100 260/08 RMK AO2
14926KSTC STC20020903103509809/03/02 10:35:31  5-MIN KSTC 031635Z AUTO 25008KT 10SM CLR 23/12 A3003 930 47 2100 250/08 RMK AO2
14926KSTC STC20020903104009809/03/02 10:40:31  5-MIN KSTC 031640Z AUTO 26009KT 10SM CLR 23/12 A3003 930 47 2100 260/09 RMK AO2
14926KSTC STC20020903104510409/03/02 10:45:31  5-MIN KSTC 031645Z AUTO 27009G15KT 10SM CLR 23/11 A3003 930 45 2100 270/09G15 RMK AO2
14926KSTC STC20020903105011509/03/02 10:50:31  5-MIN KSTC 031650Z AUTO 25010KT 10SM CLR 23/11 A3003 930 45 2100 240/10 RMK AO2 SLP175 T02330111
14926KSTC STC20020903105509809/03/02 10:55:31  5-MIN KSTC 031655Z AUTO 28009KT 10SM CLR 24/11 A3003 930 44 2200 270/09 RMK AO2
14926KSTC STC20020903110009809/03/02 11:00:31  5-MIN KSTC 031700Z AUTO 25011KT 10SM CLR 23/11 A3003 930 45 2100 250/11 RMK AO2
14926KSTC STC20020903110509809/03/02 11:05:31  5-MIN KSTC 031705Z AUTO 26009KT 10SM CLR 23/11 A3003 930 44 2100 260/09 RMK AO2
14926KSTC STC20020903111009809/03/02 11:10:31  5-MIN KSTC 031710Z AUTO 26008KT 10SM CLR 24/11 A3003 920 44 2200 250/08 RMK AO2
14926KSTC STC20020903111509809/03/02 11:15:31  5-MIN KSTC 031715Z AUTO 26009KT 10SM CLR 24/11 A3003 920 44 2200 250/09 RMK AO2
14926KSTC STC20020903112009809/03/02 11:20:31  5-MIN KSTC 031720Z AUTO 26009KT 10SM CLR 24/11 A3003 920 42 2200 260/09 RMK AO2
14926KSTC STC20020903112509809/03/02 11:25:31  5-MIN KSTC 031725Z AUTO 26012KT 10SM CLR 24/11 A3003 930 42 2300 250/12 RMK AO2
14926KSTC STC20020903113009809/03/02 11:30:31  5-MIN KSTC 031730Z AUTO 27009KT 10SM CLR 24/11 A3003 930 42 2200 260/09 RMK AO2
14926KSTC STC20020903113509809/03/02 11:35:31  5-MIN KSTC 031735Z AUTO 25011KT 10SM CLR 24/11 A3003 920 42 2300 250/11 RMK AO2
14926KSTC STC20020903114009809/03/02 11:40:31  5-MIN KSTC 031740Z AUTO 27009KT 10SM CLR 24/11 A3003 920 41 2300 260/09 RMK AO2
14926KSTC STC20020903114509809/03/02 11:45:31  5-MIN KSTC 031745Z AUTO 26009KT 10SM CLR 24/11 A3003 920 41 2300 260/09 RMK AO2
14926KSTC STC20020903115013309/03/02 11:50:31  5-MIN KSTC 031750Z AUTO 27010KT 10SM CLR 24/11 A3003 930 41 2300 270/10 RMK AO2 SLP174 T02440106 10244 20117 53015
14926KSTC STC20020903115509809/03/02 11:55:31  5-MIN KSTC 031755Z AUTO 25008KT 10SM CLR 24/11 A3003 930 41 2300 240/08 RMK AO2
14926KSTC STC20020903120009809/03/02 12:00:31  5-MIN KSTC 031800Z AUTO 28008KT 10SM CLR 25/11 A3003 930 41 2300 280/08 RMK AO2
14926KSTC STC20020903120509809/03/02 12:05:31  5-MIN KSTC 031805Z AUTO 28010KT 10SM CLR 25/11 A3003 930 41 2300 280/10 RMK AO2
14926KSTC STC20020903121009809/03/02 12:10:31  5-MIN KSTC 031810Z AUTO 26009KT 10SM CLR 25/11 A3003 930 41 2300 260/09 RMK AO2
14926KSTC STC20020903121509809/03/02 12:15:31  5-MIN KSTC 031815Z AUTO 26009KT 10SM CLR 26/12 A3003 930 41 2400 260/09 RMK AO2
14926KSTC STC20020903122009809/03/02 12:20:31  5-MIN KSTC 031820Z AUTO 26007KT 10SM CLR 25/11 A3003 930 41 2300 260/07 RMK AO2
14926KSTC STC20020903122509809/03/02 12:25:31  5-MIN KSTC 031825Z AUTO 26009KT 10SM CLR 26/11 A3003 930 40 2400 260/09 RMK AO2
14926KSTC STC20020903123009809/03/02 12:30:31  5-MIN KSTC 031830Z AUTO 26013KT 10SM CLR 25/11 A3003 930 39 2300 250/13 RMK AO2
14926KSTC STC20020903123509809/03/02 12:35:31  5-MIN KSTC 031835Z AUTO 26011KT 10SM CLR 25/10 A3003 930 38 2300 260/11 RMK AO2
14926KSTC STC20020903124009809/03/02 12:40:31  5-MIN KSTC 031840Z AUTO 28012KT 10SM CLR 26/10 A3002 930 37 2400 280/12 RMK AO2
14926KSTC STC20020903124509809/03/02 12:45:31  5-MIN KSTC 031845Z AUTO 30013KT 10SM CLR 26/09 A3002 930 35 2400 290/13 RMK AO2
14926KSTC STC20020903125011509/03/02 12:50:31  5-MIN KSTC 031850Z AUTO 28009KT 10SM CLR 26/11 A3002 930 38 2400 280/09 RMK AO2 SLP172 T02560106
14926KSTC STC20020903125509809/03/02 12:55:31  5-MIN KSTC 031855Z AUTO 29011KT 10SM CLR 26/11 A3002 930 38 2400 290/11 RMK AO2
14926KSTC STC20020903130009809/03/02 13:00:31  5-MIN KSTC 031900Z AUTO 29010KT 10SM CLR 26/10 A3002 930 37 2400 280/10 RMK AO2
14926KSTC STC20020903130509809/03/02 13:05:31  5-MIN KSTC 031905Z AUTO 27009KT 10SM CLR 26/11 A3002 930 38 2400 270/09 RMK AO2
14926KSTC STC20020903131010409/03/02 13:10:31  5-MIN KSTC 031910Z AUTO 29012G16KT 10SM CLR 26/10 A3002 930 36 2500 280/12G16 RMK AO2
14926KSTC STC20020903131510409/03/02 13:15:31  5-MIN KSTC 031915Z AUTO 27012G16KT 10SM CLR 26/09 A3002 930 35 2400 270/12G16 RMK AO2
14926KSTC STC20020903132009809/03/02 13:20:31  5-MIN KSTC 031920Z AUTO 26011KT 10SM CLR 26/10 A3002 930 36 2500 260/11 RMK AO2
14926KSTC STC20020903132509809/03/02 13:25:31  5-MIN KSTC 031925Z AUTO 25010KT 10SM CLR 26/11 A3002 930 37 2500 250/10 RMK AO2
14926KSTC STC20020903133009809/03/02 13:30:31  5-MIN KSTC 031930Z AUTO 27010KT 10SM CLR 27/11 A3002 930 36 2500 270/10 RMK AO2
14926KSTC STC20020903133509809/03/02 13:35:31  5-MIN KSTC 031935Z AUTO 27008KT 10SM CLR 26/10 A3002 930 37 2400 260/08 RMK AO2
14926KSTC STC20020903134009809/03/02 13:40:31  5-MIN KSTC 031940Z AUTO 29010KT 10SM CLR 26/11 A3002 930 37 2500 290/10 RMK AO2
14926KSTC STC20020903134509809/03/02 13:45:31  5-MIN KSTC 031945Z AUTO 27010KT 10SM CLR 26/11 A3002 930 37 2500 270/10 RMK AO2
14926KSTC STC20020903135012109/03/02 13:50:31  5-MIN KSTC 031950Z AUTO 27012G17KT 10SM CLR 26/11 A3002 930 37 2500 270/12G17 RMK AO2 SLP171 T02610106
14926KSTC STC20020903135510409/03/02 13:55:31  5-MIN KSTC 031955Z AUTO 28012G17KT 10SM CLR 26/09 A3002 940 34 2500 280/12G17 RMK AO2
14926KSTC STC20020903140009809/03/02 14:00:31  5-MIN KSTC 032000Z AUTO 28010KT 10SM CLR 26/09 A3002 940 34 2500 280/10 RMK AO2
14926KSTC STC20020903140509809/03/02 14:05:31  5-MIN KSTC 032005Z AUTO 28009KT 10SM CLR 26/11 A3002 940 37 2500 280/09 RMK AO2
14926KSTC STC20020903141009809/03/02 14:10:31  5-MIN KSTC 032010Z AUTO 26009KT 10SM CLR 27/11 A3002 940 36 2500 260/09 RMK AO2
14926KSTC STC20020903141509809/03/02 14:15:31  5-MIN KSTC 032015Z AUTO 27007KT 10SM CLR 26/11 A3002 940 37 2500 270/07 RMK AO2
14926KSTC STC20020903142009809/03/02 14:20:31  5-MIN KSTC 032020Z AUTO 28011KT 10SM CLR 26/11 A3002 940 37 2500 270/11 RMK AO2
14926KSTC STC20020903142509809/03/02 14:25:31  5-MIN KSTC 032025Z AUTO 27009KT 10SM CLR 26/11 A3002 940 37 2500 260/09 RMK AO2
14926KSTC STC20020903143009809/03/02 14:30:31  5-MIN KSTC 032030Z AUTO 25011KT 10SM CLR 26/11 A3002 940 38 2500 250/11 RMK AO2
14926KSTC STC20020903143509809/03/02 14:35:31  5-MIN KSTC 032035Z AUTO 25009KT 10SM CLR 26/11 A3002 940 38 2500 250/09 RMK AO2
14926KSTC STC20020903144009809/03/02 14:40:31  5-MIN KSTC 032040Z AUTO 25008KT 10SM CLR 26/11 A3002 930 38 2500 250/08 RMK AO2
14926KSTC STC20020903144511409/03/02 14:45:31  5-MIN KSTC 032045Z AUTO 25010KT 210V290 10SM CLR 26/12 A3002 930 40 2500 250/10 210V290 RMK AO2
14926KSTC STC20020903145012709/03/02 14:50:31  5-MIN KSTC 032050Z AUTO 25006G14KT 10SM CLR 27/12 A3002 930 40 2500 250/06G14 RMK AO2 SLP171 T02670122 51004
14926KSTC STC20020903145509809/03/02 14:55:31  5-MIN KSTC 032055Z AUTO 25009KT 10SM CLR 26/12 A3002 930 41 2500 240/09 RMK AO2
14926KSTC STC20020903150009809/03/02 15:00:31  5-MIN KSTC 032100Z AUTO 24009KT 10SM CLR 26/12 A3002 930 41 2500 240/09 RMK AO2
14926KSTC STC20020903150509809/03/02 15:05:31  5-MIN KSTC 032105Z AUTO 27010KT 10SM CLR 26/12 A3002 930 41 2500 260/10 RMK AO2
14926KSTC STC20020903151009809/03/02 15:10:31  5-MIN KSTC 032110Z AUTO 25009KT 10SM CLR 26/12 A3002 930 40 2500 250/09 RMK AO2
14926KSTC STC20020903151509809/03/02 15:15:31  5-MIN KSTC 032115Z AUTO 25009KT 10SM CLR 27/12 A3002 930 38 2500 250/09 RMK AO2
14926KSTC STC20020903152009809/03/02 15:20:31  5-MIN KSTC 032120Z AUTO 26009KT 10SM CLR 26/12 A3002 930 41 2500 250/09 RMK AO2
14926KSTC STC20020903152509809/03/02 15:25:31  5-MIN KSTC 032125Z AUTO 27007KT 10SM CLR 27/12 A3002 930 40 2500 270/07 RMK AO2
14926KSTC STC20020903153009809/03/02 15:30:31  5-MIN KSTC 032130Z AUTO 27007KT 10SM CLR 27/13 A3002 930 41 2500 270/07 RMK AO2
14926KSTC STC20020903153509809/03/02 15:35:31  5-MIN KSTC 032135Z AUTO 27009KT 10SM CLR 27/12 A3002 930 40 2500 270/09 RMK AO2
14926KSTC STC20020903154009809/03/02 15:40:31  5-MIN KSTC 032140Z AUTO 26008KT 10SM CLR 26/12 A3002 930 41 2500 250/08 RMK AO2
14926KSTC STC20020903154509809/03/02 15:45:31  5-MIN KSTC 032145Z AUTO 26010KT 10SM CLR 26/12 A3002 930 41 2500 260/10 RMK AO2
14926KSTC STC20020903155011509/03/02 15:50:31  5-MIN KSTC 032150Z AUTO 25010KT 10SM CLR 26/12 A3002 930 41 2500 250/10 RMK AO2 SLP172 T02610122
14926KSTC STC20020903155509809/03/02 15:55:31  5-MIN KSTC 032155Z AUTO 27007KT 10SM CLR 27/12 A3002 940 40 2500 260/07 RMK AO2
14926KSTC STC20020903160009809/03/02 16:00:31  5-MIN KSTC 032200Z AUTO 25010KT 10SM CLR 26/12 A3002 940 41 2500 250/10 RMK AO2
14926KSTC STC20020903160509809/03/02 16:05:31  5-MIN KSTC 032205Z AUTO 25009KT 10SM CLR 26/12 A3002 940 40 2500 250/09 RMK AO2
14926KSTC STC20020903161009809/03/02 16:10:31  5-MIN KSTC 032210Z AUTO 27008KT 10SM CLR 27/12 A3002 940 40 2500 270/08 RMK AO2
14926KSTC STC20020903161509809/03/02 16:15:31  5-MIN KSTC 032215Z AUTO 27008KT 10SM CLR 27/12 A3002 940 40 2500 270/08 RMK AO2
14926KSTC STC20020903162009809/03/02 16:20:31  5-MIN KSTC 032220Z AUTO 26008KT 10SM CLR 26/11 A3002 940 38 2500 260/08 RMK AO2
14926KSTC STC20020903162509809/03/02 16:25:31  5-MIN KSTC 032225Z AUTO 26006KT 10SM CLR 26/12 A3002 940 40 2500 260/06 RMK AO2
14926KSTC STC20020903163009809/03/02 16:30:31  5-MIN KSTC 032230Z AUTO 27006KT 10SM CLR 26/12 A3002 940 40 2500 260/06 RMK AO2
14926KSTC STC20020903163509809/03/02 16:35:31  5-MIN KSTC 032235Z AUTO 28007KT 10SM CLR 27/12 A3002 940 40 2500 280/07 RMK AO2
14926KSTC STC20020903164009809/03/02 16:40:31  5-MIN KSTC 032240Z AUTO VRB05KT 10SM CLR 26/12 A3002 940 41 2500 VRB/05 RMK AO2
14926KSTC STC20020903164509809/03/02 16:45:31  5-MIN KSTC 032245Z AUTO 29006KT 10SM CLR 26/12 A3002 940 40 2500 280/06 RMK AO2
14926KSTC STC20020903165011509/03/02 16:50:31  5-MIN KSTC 032250Z AUTO 29006KT 10SM CLR 26/12 A3002 940 40 2500 280/06 RMK AO2 SLP172 T02610117
14926KSTC STC20020903165509809/03/02 16:55:31  5-MIN KSTC 032255Z AUTO 26006KT 10SM CLR 26/12 A3002 930 41 2500 260/06 RMK AO2
14926KSTC STC20020903170009809/03/02 17:00:31  5-MIN KSTC 032300Z AUTO 26006KT 10SM CLR 26/13 A3002 930 44 2500 260/06 RMK AO2
14926KSTC STC20020903170509809/03/02 17:05:31  5-MIN KSTC 032305Z AUTO 25005KT 10SM CLR 26/13 A3002 930 46 2400 250/05 RMK AO2
14926KSTC STC20020903171009809/03/02 17:10:31  5-MIN KSTC 032310Z AUTO 24004KT 10SM CLR 26/14 A3002 930 49 2400 240/04 RMK AO2
14926KSTC STC20020903171509809/03/02 17:15:31  5-MIN KSTC 032315Z AUTO 24005KT 10SM CLR 26/14 A3002 930 49 2400 240/05 RMK AO2
14926KSTC STC20020903172009809/03/02 17:20:31  5-MIN KSTC 032320Z AUTO 24005KT 10SM CLR 25/14 A3002 930 51 2300 240/05 RMK AO2
14926KSTC STC20020903172509809/03/02 17:25:31  5-MIN KSTC 032325Z AUTO 24005KT 10SM CLR 25/14 A3002 930 51 2300 240/05 RMK AO2
14926KSTC STC20020903173009809/03/02 17:30:31  5-MIN KSTC 032330Z AUTO 24005KT 10SM CLR 24/14 A3002 930 53 2300 240/05 RMK AO2
14926KSTC STC20020903173509809/03/02 17:35:31  5-MIN KSTC 032335Z AUTO 24005KT 10SM CLR 24/15 A3002 930 55 2300 240/05 RMK AO2
14926KSTC STC20020903174009809/03/02 17:40:31  5-MIN KSTC 032340Z AUTO 24005KT 10SM CLR 24/15 A3002 930 57 2200 240/05 RMK AO2
14926KSTC STC20020903174509809/03/02 17:45:31  5-MIN KSTC 032345Z AUTO 25004KT 10SM CLR 24/15 A3002 930 57 2200 250/04 RMK AO2
14926KSTC STC20020903175013309/03/02 17:50:31  5-MIN KSTC 032350Z AUTO 25003KT 10SM CLR 24/16 A3002 930 59 2200 250/03 RMK AO2 SLP174 T02390156 10267 20239 55003
14926KSTC STC20020903175509809/03/02 17:55:31  5-MIN KSTC 032355Z AUTO 25003KT 10SM CLR 24/16 A3002 930 61 2200 250/03 RMK AO2
14926KSTC STC20020903180009809/03/02 18:00:31  5-MIN KSTC 040000Z AUTO 00000KT 10SM CLR 24/16 A3003 930 59 2200 000/00 RMK AO2
14926KSTC STC20020903180509809/03/02 18:05:31  5-MIN KSTC 040005Z AUTO 23003KT 10SM CLR 24/15 A3003 930 57 2200 230/03 RMK AO2
14926KSTC STC20020903181009809/03/02 18:10:31  5-MIN KSTC 040010Z AUTO 23003KT 10SM CLR 23/16 A3003 930 61 2100 220/03 RMK AO2
14926KSTC STC20020903181509809/03/02 18:15:31  5-MIN KSTC 040015Z AUTO 23003KT 10SM CLR 23/16 A3003 930 61 2100 230/03 RMK AO2
14926KSTC STC20020903182009809/03/02 18:20:31  5-MIN KSTC 040020Z AUTO 00000KT 10SM CLR 22/17 A3003 930 73 2000 000/00 RMK AO2
14926KSTC STC20020903182509809/03/02 18:25:31  5-MIN KSTC 040025Z AUTO 00000KT 10SM CLR 22/17 A3003 930 75 2000 000/00 RMK AO2
14926KSTC STC20020903183009809/03/02 18:30:31  5-MIN KSTC 040030Z AUTO 00000KT 10SM CLR 21/17 A3003 920 78 1900 000/00 RMK AO2
14926KSTC STC20020903183509809/03/02 18:35:31  5-MIN KSTC 040035Z AUTO 00000KT 10SM CLR 21/16 A3003 920 73 1900 000/00 RMK AO2
14926KSTC STC20020903184009809/03/02 18:40:31  5-MIN KSTC 040040Z AUTO 00000KT 10SM CLR 21/16 A3003 920 75 1800 000/00 RMK AO2
14926KSTC STC20020903184509809/03/02 18:45:31  5-MIN KSTC 040045Z AUTO 00000KT 10SM CLR 19/16 A3003 920 81 1700 000/00 RMK AO2
14926KSTC STC20020903185011509/03/02 18:50:31  5-MIN KSTC 040050Z AUTO 00000KT 10SM CLR 19/16 A3003 920 84 1600 000/00 RMK AO2 SLP179 T01890161
14926KSTC STC20020903185509809/03/02 18:55:31  5-MIN KSTC 040055Z AUTO 00000KT 10SM CLR 19/17 A3004 920 87 1600 000/00 RMK AO2
14926KSTC STC20020903190009809/03/02 19:00:31  5-MIN KSTC 040100Z AUTO 00000KT 10SM CLR 19/16 A3004 920 84 1600 000/00 RMK AO2
14926KSTC STC20020903190509809/03/02 19:05:31  5-MIN KSTC 040105Z AUTO 00000KT 10SM CLR 18/16 A3004 920 87 1600 000/00 RMK AO2
14926KSTC STC20020903191009809/03/02 19:10:31  5-MIN KSTC 040110Z AUTO 00000KT 10SM CLR 18/16 A3004 920 90 1500 000/00 RMK AO2
14926KSTC STC20020903191509809/03/02 19:15:31  5-MIN KSTC 040115Z AUTO 00000KT 10SM CLR 18/16 A3004 920 90 1500 000/00 RMK AO2
14926KSTC STC20020903192009809/03/02 19:20:31  5-MIN KSTC 040120Z AUTO 00000KT 10SM CLR 17/16 A3004 910 90 1400 000/00 RMK AO2
14926KSTC STC20020903192509809/03/02 19:25:31  5-MIN KSTC 040125Z AUTO 00000KT 10SM CLR 18/16 A3005 910 90 1500 000/00 RMK AO2
14926KSTC STC20020903193009809/03/02 19:30:31  5-MIN KSTC 040130Z AUTO 00000KT 10SM CLR 17/16 A3005 910 90 1400 000/00 RMK AO2
14926KSTC STC20020903193509809/03/02 19:35:31  5-MIN KSTC 040135Z AUTO 00000KT 10SM CLR 17/16 A3005 910 93 1400 000/00 RMK AO2
14926KSTC STC20020903194009809/03/02 19:40:31  5-MIN KSTC 040140Z AUTO 00000KT 10SM CLR 16/15 A3005 910 93 1300 000/00 RMK AO2
14926KSTC STC20020903194509809/03/02 19:45:31  5-MIN KSTC 040145Z AUTO 00000KT 10SM CLR 16/15 A3005 910 93 1300 000/00 RMK AO2
14926KSTC STC20020903195011509/03/02 19:50:31  5-MIN KSTC 040150Z AUTO 00000KT 10SM CLR 17/15 A3005 910 90 1400 000/00 RMK AO2 SLP183 T01670150
14926KSTC STC20020903195509809/03/02 19:55:31  5-MIN KSTC 040155Z AUTO 00000KT 10SM CLR 16/15 A3005 910 96 1200 000/00 RMK AO2
14926KSTC STC20020903200009809/03/02 20:00:31  5-MIN KSTC 040200Z AUTO 00000KT 10SM CLR 16/15 A3005 900 96 1200 000/00 RMK AO2
14926KSTC STC20020903200509809/03/02 20:05:31  5-MIN KSTC 040205Z AUTO 00000KT 10SM CLR 17/16 A3005 900 93 1300 000/00 RMK AO2
14926KSTC STC20020903201009809/03/02 20:10:31  5-MIN KSTC 040210Z AUTO 00000KT 10SM CLR 17/15 A3005 900 90 1300 000/00 RMK AO2
14926KSTC STC20020903201509809/03/02 20:15:31  5-MIN KSTC 040215Z AUTO 16003KT 10SM CLR 16/14 A3006 900 93 1200 160/03 RMK AO2
14926KSTC STC20020903202009809/03/02 20:20:31  5-MIN KSTC 040220Z AUTO 15003KT 10SM CLR 16/15 A3006 900 96 1200 150/03 RMK AO2
14926KSTC STC20020903202509809/03/02 20:25:31  5-MIN KSTC 040225Z AUTO 00000KT 10SM CLR 16/15 A3006 900 96 1200 000/00 RMK AO2
14926KSTC STC20020903203009809/03/02 20:30:31  5-MIN KSTC 040230Z AUTO 00000KT 10SM CLR 16/14 A3005 900 93 1200 000/00 RMK AO2
14926KSTC STC20020903203509809/03/02 20:35:31  5-MIN KSTC 040235Z AUTO 00000KT 10SM CLR 15/14 A3006 900 96 1200 000/00 RMK AO2
14926KSTC STC20020903204009809/03/02 20:40:31  5-MIN KSTC 040240Z AUTO 00000KT 10SM CLR 15/14 A3006 900 96 1200 000/00 RMK AO2
14926KSTC STC20020903204509809/03/02 20:45:31  5-MIN KSTC 040245Z AUTO 00000KT 10SM CLR 16/14 A3006 900 93 1200 000/00 RMK AO2
14926KSTC STC20020903205012109/03/02 20:50:31  5-MIN KSTC 040250Z AUTO 09003KT 10SM CLR 16/14 A3006 900 93 1200 090/03 RMK AO2 SLP186 T01560144 53001
14926KSTC STC20020903205509809/03/02 20:55:31  5-MIN KSTC 040255Z AUTO 00000KT 10SM CLR 16/15 A3006 900 96 1200 000/00 RMK AO2
14926KSTC STC20020903210009809/03/02 21:00:31  5-MIN KSTC 040300Z AUTO 00000KT 10SM CLR 16/15 A3006 900 96 1200 000/00 RMK AO2
14926KSTC STC20020903210509809/03/02 21:05:31  5-MIN KSTC 040305Z AUTO 00000KT 10SM CLR 16/15 A3006 900 96 1200 000/00 RMK AO2
14926KSTC STC20020903211009809/03/02 21:10:31  5-MIN KSTC 040310Z AUTO 00000KT 10SM CLR 16/15 A3006 890 96 1200 000/00 RMK AO2
14926KSTC STC20020903211509809/03/02 21:15:31  5-MIN KSTC 040315Z AUTO 00000KT 10SM CLR 15/14 A3007 890 96 1100 000/00 RMK AO2
14926KSTC STC20020903212009909/03/02 21:20:31  5-MIN KSTC 040320Z AUTO 00000KT 10SM CLR 15/15 A3007 890 100 1100 000/00 RMK AO2
14926KSTC STC20020903212509809/03/02 21:25:31  5-MIN KSTC 040325Z AUTO 00000KT 10SM CLR 15/14 A3007 890 96 1100 000/00 RMK AO2
14926KSTC STC20020903213009809/03/02 21:30:31  5-MIN KSTC 040330Z AUTO 00000KT 10SM CLR 15/14 A3007 890 96 1100 000/00 RMK AO2
14926KSTC STC20020903213509809/03/02 21:35:31  5-MIN KSTC 040335Z AUTO 00000KT 10SM CLR 15/14 A3007 890 96 1100 000/00 RMK AO2
14926KSTC STC20020903214009909/03/02 21:40:31  5-MIN KSTC 040340Z AUTO 00000KT 10SM CLR 14/14 A3007 890 100 1100 000/00 RMK AO2
14926KSTC STC20020903214509909/03/02 21:45:31  5-MIN KSTC 040345Z AUTO 00000KT 10SM CLR 14/14 A3007 890 100 1100 000/00 RMK AO2
14926KSTC STC20020903215011609/03/02 21:50:31  5-MIN KSTC 040350Z AUTO 16003KT 10SM CLR 14/14 A3007 880 100 1000 160/03 RMK AO2 SLP190 T01390139
14926KSTC STC20020903215509909/03/02 21:55:31  5-MIN KSTC 040355Z AUTO 17003KT 10SM CLR 14/14 A3008 880 100 1000 160/03 RMK AO2
14926KSTC STC20020903220009909/03/02 22:00:31  5-MIN KSTC 040400Z AUTO 00000KT 10SM CLR 14/14 A3007 880 100 1000 000/00 RMK AO2
14926KSTC STC20020903220509809/03/02 22:05:31  5-MIN KSTC 040405Z AUTO 00000KT 10SM CLR 14/14 A3007 880 96 1100 000/00 RMK AO2
14926KSTC STC20020903221009909/03/02 22:10:31  5-MIN KSTC 040410Z AUTO 00000KT 10SM CLR 14/14 A3008 880 100 1000 000/00 RMK AO2
14926KSTC STC20020903221509809/03/02 22:15:31  5-MIN KSTC 040415Z AUTO 00000KT 10SM CLR 14/14 A3008 880 96 1100 000/00 RMK AO2
14926KSTC STC20020903222009909/03/02 22:20:31  5-MIN KSTC 040420Z AUTO 00000KT 10SM CLR 14/14 A3008 880 100 1000 000/00 RMK AO2
14926KSTC STC20020903222509809/03/02 22:25:31  5-MIN KSTC 040425Z AUTO 00000KT 10SM CLR 14/13 A3008 880 96 1000 000/00 RMK AO2
14926KSTC STC20020903223009809/03/02 22:30:31  5-MIN KSTC 040430Z AUTO 07003KT 10SM CLR 14/13 A3008 880 96 1000 070/03 RMK AO2
14926KSTC STC20020903223509909/03/02 22:35:31  5-MIN KSTC 040435Z AUTO 00000KT 10SM CLR 14/14 A3008 880 100 1000 000/00 RMK AO2
14926KSTC STC20020903224009909/03/02 22:40:31  5-MIN KSTC 040440Z AUTO 00000KT 10SM CLR 14/14 A3008 880 100 1000 000/00 RMK AO2
14926KSTC STC20020903224509909/03/02 22:45:31  5-MIN KSTC 040445Z AUTO 06003KT 10SM CLR 14/14 A3008 880 100 1000 060/03 RMK AO2
14926KSTC STC20020903225011609/03/02 22:50:31  5-MIN KSTC 040450Z AUTO 07003KT 10SM CLR 14/14 A3008 880 100 1000 060/03 RMK AO2 SLP193 T01390139
14926KSTC STC20020903225509809/03/02 22:55:31  5-MIN KSTC 040455Z AUTO 06003KT 10SM CLR 14/13 A3008 880 96 1000 060/03 RMK AO2
14926KSTC STC20020903230009809/03/02 23:00:31  5-MIN KSTC 040500Z AUTO 00000KT 10SM CLR 13/13 A3008 880 100 900 000/00 RMK AO2
14926KSTC STC20020903230509809/03/02 23:05:31  5-MIN KSTC 040505Z AUTO 00000KT 10SM CLR 14/13 A3008 880 96 1000 000/00 RMK AO2
14926KSTC STC20020903231009909/03/02 23:10:31  5-MIN KSTC 040510Z AUTO 00000KT 10SM CLR 14/14 A3008 880 100 1000 000/00 RMK AO2
14926KSTC STC20020903231509809/03/02 23:15:31  5-MIN KSTC 040515Z AUTO 09003KT 10SM CLR 14/13 A3008 880 96 1000 080/03 RMK AO2
14926KSTC STC20020903232009809/03/02 23:20:31  5-MIN KSTC 040520Z AUTO 08003KT 10SM CLR 13/13 A3008 880 100 900 080/03 RMK AO2
14926KSTC STC20020903232509809/03/02 23:25:31  5-MIN KSTC 040525Z AUTO 09003KT 10SM CLR 13/13 A3008 880 100 900 080/03 RMK AO2
14926KSTC STC20020903233009709/03/02 23:30:31  5-MIN KSTC 040530Z AUTO 00000KT 10SM CLR 13/13 A3008 880 96 900 000/00 RMK AO2
14926KSTC STC20020903233509809/03/02 23:35:31  5-MIN KSTC 040535Z AUTO 00000KT 10SM CLR 13/13 A3008 870 100 900 000/00 RMK AO2
14926KSTC STC20020903234009809/03/02 23:40:31  5-MIN KSTC 040540Z AUTO 00000KT 10SM CLR 14/13 A3008 870 96 1000 000/00 RMK AO2
14926KSTC STC20020903234509909/03/02 23:45:31  5-MIN KSTC 040545Z AUTO 00000KT 10SM CLR 14/14 A3008 880 100 1000 000/00 RMK AO2
14926KSTC STC20020903235014309/03/02 23:50:31  5-MIN KSTC 040550Z AUTO 07003KT 10SM CLR 14/13 A3008 880 96 1000 070/03 RMK AO2 SLP193 T01390133 10239 20133 402670106 51012
14926KSTC STC20020903235509809/03/02 23:55:31  5-MIN KSTC 040555Z AUTO 00000KT 10SM CLR 13/13 A3009 870 100 900 000/00 RMK AO2
14926KSTC STC20020904000009809/04/02 00:00:31  5-MIN KSTC 040600Z AUTO 07003KT 10SM CLR 13/13 A3009 870 100 900 070/03 RMK AO2
14926KSTC STC20020904000509809/04/02 00:05:31  5-MIN KSTC 040605Z AUTO 00000KT 10SM CLR 13/13 A3009 870 100 900 000/00 RMK AO2
14926KSTC STC20020904001009809/04/02 00:10:31  5-MIN KSTC 040610Z AUTO 00000KT 10SM CLR 13/13 A3009 870 100 900 000/00 RMK AO2
14926KSTC STC20020904001509709/04/02 00:15:31  5-MIN KSTC 040615Z AUTO 00000KT 10SM CLR 13/13 A3009 870 96 900 000/00 RMK AO2
14926KSTC STC20020904002009809/04/02 00:20:31  5-MIN KSTC 040620Z AUTO 00000KT 10SM CLR 13/13 A3009 870 100 900 000/00 RMK AO2
14926KSTC STC20020904002509809/04/02 00:25:31  5-MIN KSTC 040625Z AUTO 00000KT 10SM CLR 13/13 A3009 870 100 900 000/00 RMK AO2
14926KSTC STC20020904003009809/04/02 00:30:31  5-MIN KSTC 040630Z AUTO 00000KT 10SM CLR 13/13 A3009 870 100 900 000/00 RMK AO2
14926KSTC STC20020904003509809/04/02 00:35:31  5-MIN KSTC 040635Z AUTO 00000KT 10SM CLR 13/13 A3009 870 100 800 000/00 RMK AO2
14926KSTC STC20020904004009709/04/02 00:40:31  5-MIN KSTC 040640Z AUTO 00000KT 10SM CLR 13/12 A3009 870 96 800 000/00 RMK AO2
14926KSTC STC20020904004509709/04/02 00:45:31  5-MIN KSTC 040645Z AUTO 00000KT 10SM CLR 13/12 A3009 870 93 900 000/00 RMK AO2
14926KSTC STC20020904005011409/04/02 00:50:31  5-MIN KSTC 040650Z AUTO 00000KT 10SM CLR 13/12 A3009 870 93 900 000/00 RMK AO2 SLP196 T01330122
14926KSTC STC20020904005509809/04/02 00:55:31  5-MIN KSTC 040655Z AUTO 00000KT 10SM CLR 13/13 A3010 870 100 800 000/00 RMK AO2
14926KSTC STC20020904010009809/04/02 01:00:31  5-MIN KSTC 040700Z AUTO 00000KT 10SM CLR 13/13 A3010 860 100 800 000/00 RMK AO2
14926KSTC STC20020904010509809/04/02 01:05:31  5-MIN KSTC 040705Z AUTO 00000KT 10SM CLR 13/13 A3010 860 100 800 000/00 RMK AO2
14926KSTC STC20020904011009709/04/02 01:10:31  5-MIN KSTC 040710Z AUTO 00000KT 10SM CLR 13/12 A3010 860 96 800 000/00 RMK AO2
14926KSTC STC20020904011509809/04/02 01:15:31  5-MIN KSTC 040715Z AUTO 00000KT 10SM CLR 13/13 A3010 860 100 800 000/00 RMK AO2
14926KSTC STC20020904012009809/04/02 01:20:31  5-MIN KSTC 040720Z AUTO 00000KT 10SM CLR 12/12 A3010 860 100 800 000/00 RMK AO2
14926KSTC STC20020904012509809/04/02 01:25:31  5-MIN KSTC 040725Z AUTO 00000KT 10SM CLR 13/13 A3010 860 100 800 000/00 RMK AO2
14926KSTC STC20020904013009809/04/02 01:30:31  5-MIN KSTC 040730Z AUTO 00000KT 10SM CLR 12/12 A3010 860 100 800 000/00 RMK AO2
14926KSTC STC20020904013509709/04/02 01:35:31  5-MIN KSTC 040735Z AUTO 00000KT 8SM CLR 12/12 A3010 860 100 800 000/00 RMK AO2
14926KSTC STC20020904014009709/04/02 01:40:31  5-MIN KSTC 040740Z AUTO 00000KT 7SM CLR 12/12 A3010 860 100 800 000/00 RMK AO2
14926KSTC STC20020904014509709/04/02 01:45:31  5-MIN KSTC 040745Z AUTO 00000KT 8SM CLR 12/12 A3010 860 100 800 000/00 RMK AO2
14926KSTC STC20020904015011409/04/02 01:50:31  5-MIN KSTC 040750Z AUTO 00000KT 9SM CLR 12/12 A3010 860 100 800 000/00 RMK AO2 SLP199 T01220122
14926KSTC STC20020904015509809/04/02 01:55:31  5-MIN KSTC 040755Z AUTO 00000KT 10SM CLR 12/12 A3010 860 100 800 000/00 RMK AO2
14926KSTC STC20020904020009709/04/02 02:00:31  5-MIN KSTC 040800Z AUTO 00000KT 10SM CLR 13/12 A3010 860 96 800 000/00 RMK AO2
14926KSTC STC20020904020510009/04/02 02:05:31  5-MIN KSTC 040805Z AUTO 00000KT 5SM BR CLR 12/12 A3010 860 100 800 000/00 RMK AO2
14926KSTC STC20020904021010009/04/02 02:10:31  5-MIN KSTC 040810Z AUTO 00000KT 5SM BR CLR 12/12 A3010 860 100 800 000/00 RMK AO2
14926KSTC STC20020904021509809/04/02 02:15:31  5-MIN KSTC 040815Z AUTO 00000KT 10SM CLR 13/13 A3010 860 100 800 000/00 RMK AO2
14926KSTC STC20020904022009809/04/02 02:20:31  5-MIN KSTC 040820Z AUTO 00000KT 10SM CLR 12/12 A3010 860 100 800 000/00 RMK AO2
14926KSTC STC20020904022509809/04/02 02:25:31  5-MIN KSTC 040825Z AUTO 00000KT 10SM CLR 12/12 A3010 860 100 800 000/00 RMK AO2
14926KSTC STC20020904023009809/04/02 02:30:31  5-MIN KSTC 040830Z AUTO 00000KT 10SM CLR 12/12 A3010 860 100 800 000/00 RMK AO2
14926KSTC STC20020904023509709/04/02 02:35:31  5-MIN KSTC 040835Z AUTO 00000KT 9SM CLR 12/12 A3011 860 100 800 000/00 RMK AO2
14926KSTC STC20020904024009709/04/02 02:40:31  5-MIN KSTC 040840Z AUTO 00000KT 9SM CLR 12/12 A3011 850 100 700 000/00 RMK AO2
14926KSTC STC20020904024509609/04/02 02:45:31  5-MIN KSTC 040845Z AUTO 00000KT 9SM CLR 12/12 A3011 850 96 800 000/00 RMK AO2
14926KSTC STC20020904025012109/04/02 02:50:31  5-MIN KSTC 040850Z AUTO 00000KT 10SM CLR 12/12 A3011 850 100 700 000/00 RMK AO2 SLP201 T01170117 51008
14926KSTC STC20020904025509809/04/02 02:55:31  5-MIN KSTC 040855Z AUTO 00000KT 10SM CLR 12/12 A3011 850 100 700 000/00 RMK AO2
14926KSTC STC20020904030009809/04/02 03:00:31  5-MIN KSTC 040900Z AUTO 00000KT 10SM CLR 12/12 A3011 850 100 700 000/00 RMK AO2
14926KSTC STC20020904030509809/04/02 03:05:31  5-MIN KSTC 040905Z AUTO 00000KT 10SM CLR 12/12 A3011 850 100 700 000/00 RMK AO2
14926KSTC STC20020904031009809/04/02 03:10:31  5-MIN KSTC 040910Z AUTO 00000KT 10SM CLR 12/12 A3011 850 100 700 000/00 RMK AO2
14926KSTC STC20020904031509809/04/02 03:15:31  5-MIN KSTC 040915Z AUTO 00000KT 10SM CLR 11/11 A3011 850 100 600 000/00 RMK AO2
14926KSTC STC20020904032009709/04/02 03:20:31  5-MIN KSTC 040920Z AUTO 00000KT 10SM CLR 12/11 A3011 850 96 700 000/00 RMK AO2
14926KSTC STC20020904032509809/04/02 03:25:31  5-MIN KSTC 040925Z AUTO 00000KT 10SM CLR 12/12 A3011 850 100 700 000/00 RMK AO2
14926KSTC STC20020904033009809/04/02 03:30:31  5-MIN KSTC 040930Z AUTO 00000KT 10SM CLR 11/11 A3011 850 100 600 000/00 RMK AO2
14926KSTC STC20020904033509809/04/02 03:35:31  5-MIN KSTC 040935Z AUTO 10003KT 10SM CLR 12/12 A3012 850 100 700 100/03 RMK AO2
14926KSTC STC20020904034009809/04/02 03:40:31  5-MIN KSTC 040940Z AUTO 09003KT 10SM CLR 12/12 A3012 850 100 700 090/03 RMK AO2
14926KSTC STC20020904034509809/04/02 03:45:31  5-MIN KSTC 040945Z AUTO 08004KT 10SM CLR 12/12 A3012 850 100 800 080/04 RMK AO2
14926KSTC STC20020904035011509/04/02 03:50:31  5-MIN KSTC 040950Z AUTO 08004KT 10SM CLR 12/12 A3012 840 100 800 080/04 RMK AO2 SLP205 T01220122
14926KSTC STC20020904035509809/04/02 03:55:31  5-MIN KSTC 040955Z AUTO 08004KT 10SM CLR 13/13 A3012 840 100 800 080/04 RMK AO2
14926KSTC STC20020904040009809/04/02 04:00:31  5-MIN KSTC 041000Z AUTO 08004KT 10SM CLR 13/13 A3012 840 100 800 080/04 RMK AO2
14926KSTC STC20020904040509809/04/02 04:05:31  5-MIN KSTC 041005Z AUTO 09003KT 10SM CLR 13/13 A3012 840 100 800 080/03 RMK AO2
14926KSTC STC20020904041009809/04/02 04:10:31  5-MIN KSTC 041010Z AUTO 08003KT 10SM CLR 13/13 A3012 840 100 800 080/03 RMK AO2
14926KSTC STC20020904041509709/04/02 04:15:31  5-MIN KSTC 041015Z AUTO 08003KT 10SM CLR 13/13 A3012 840 96 900 080/03 RMK AO2
14926KSTC STC20020904042009809/04/02 04:20:31  5-MIN KSTC 041020Z AUTO 08004KT 10SM CLR 13/13 A3012 840 100 800 080/04 RMK AO2
14926KSTC STC20020904042509809/04/02 04:25:31  5-MIN KSTC 041025Z AUTO VRB03KT 10SM CLR 12/12 A3012 840 100 800 VRB/03 RMK AO2
14926KSTC STC20020904043009809/04/02 04:30:31  5-MIN KSTC 041030Z AUTO 08003KT 10SM CLR 12/12 A3012 840 100 700 080/03 RMK AO2
14926KSTC STC20020904043509709/04/02 04:35:31  5-MIN KSTC 041035Z AUTO 09003KT 10SM CLR 13/12 A3012 840 96 800 080/03 RMK AO2
14926KSTC STC20020904044009709/04/02 04:40:31  5-MIN KSTC 041040Z AUTO 00000KT 10SM CLR 13/13 A3013 840 96 900 000/00 RMK AO2
14926KSTC STC20020904044509809/04/02 04:45:31  5-MIN KSTC 041045Z AUTO 00000KT 10SM CLR 13/13 A3013 840 100 800 000/00 RMK AO2
14926KSTC STC20020904045011509/04/02 04:50:31  5-MIN KSTC 041050Z AUTO 09003KT 10SM CLR 13/13 A3013 840 100 800 080/03 RMK AO2 SLP207 T01280128
14926KSTC STC20020904045509709/04/02 04:55:31  5-MIN KSTC 041055Z AUTO 00000KT 10SM CLR 13/13 A3013 830 96 900 000/00 RMK AO2
14926KSTC STC20020904050009809/04/02 05:00:31  5-MIN KSTC 041100Z AUTO 09003KT 10SM CLR 13/13 A3013 830 100 800 090/03 RMK AO2
14926KSTC STC20020904050509809/04/02 05:05:31  5-MIN KSTC 041105Z AUTO 09003KT 10SM CLR 13/13 A3013 830 100 800 090/03 RMK AO2
14926KSTC STC20020904051009709/04/02 05:10:31  5-MIN KSTC 041110Z AUTO 00000KT 10SM CLR 13/12 A3013 830 96 800 000/00 RMK AO2
14926KSTC STC20020904051509709/04/02 05:15:31  5-MIN KSTC 041115Z AUTO 09003KT 10SM CLR 13/12 A3013 830 96 800 090/03 RMK AO2
14926KSTC STC20020904052009709/04/02 05:20:31  5-MIN KSTC 041120Z AUTO 00000KT 10SM CLR 13/12 A3013 830 96 800 000/00 RMK AO2
14926KSTC STC20020904052509809/04/02 05:25:31  5-MIN KSTC 041125Z AUTO 00000KT 10SM CLR 13/13 A3013 830 100 800 000/00 RMK AO2
14926KSTC STC20020904053009809/04/02 05:30:31  5-MIN KSTC 041130Z AUTO 00000KT 10SM CLR 13/13 A3014 830 100 800 000/00 RMK AO2
14926KSTC STC20020904053509809/04/02 05:35:31  5-MIN KSTC 041135Z AUTO 00000KT 10SM CLR 13/13 A3014 830 100 800 000/00 RMK AO2
14926KSTC STC20020904054009809/04/02 05:40:31  5-MIN KSTC 041140Z AUTO 00000KT 10SM CLR 12/12 A3014 830 100 700 000/00 RMK AO2
14926KSTC STC20020904054509809/04/02 05:45:31  5-MIN KSTC 041145Z AUTO 00000KT 10SM CLR 12/12 A3014 830 100 700 000/00 RMK AO2
14926KSTC STC20020904055013209/04/02 05:50:31  5-MIN KSTC 041150Z AUTO 00000KT 10SM CLR 13/12 A3014 830 96 800 000/00 RMK AO2 SLP212 T01280122 10133 20111 51007
14926KSTC STC20020904055509809/04/02 05:55:31  5-MIN KSTC 041155Z AUTO 00000KT 10SM CLR 13/13 A3014 820 100 800 000/00 RMK AO2
14926KSTC STC20020904060009809/04/02 06:00:31  5-MIN KSTC 041200Z AUTO 00000KT 10SM CLR 12/12 A3014 820 100 700 000/00 RMK AO2
14926KSTC STC20020904060509709/04/02 06:05:31  5-MIN KSTC 041205Z AUTO 00000KT 10SM CLR 12/12 A3014 820 96 700 000/00 RMK AO2
14926KSTC STC20020904061009809/04/02 06:10:31  5-MIN KSTC 041210Z AUTO 00000KT 10SM CLR 12/12 A3014 820 100 700 000/00 RMK AO2
14926KSTC STC20020904061509809/04/02 06:15:31  5-MIN KSTC 041215Z AUTO 00000KT 10SM CLR 12/12 A3014 820 100 700 000/00 RMK AO2
14926KSTC STC20020904062009809/04/02 06:20:31  5-MIN KSTC 041220Z AUTO 00000KT 10SM CLR 12/12 A3014 820 100 700 000/00 RMK AO2
14926KSTC STC20020904062509709/04/02 06:25:31  5-MIN KSTC 041225Z AUTO 00000KT 10SM CLR 13/12 A3015 820 96 800 000/00 RMK AO2
14926KSTC STC20020904063009709/04/02 06:30:31  5-MIN KSTC 041230Z AUTO 00000KT 10SM CLR 13/13 A3015 820 96 900 000/00 RMK AO2
14926KSTC STC20020904063509809/04/02 06:35:31  5-MIN KSTC 041235Z AUTO 00000KT 10SM CLR 13/13 A3015 820 100 800 000/00 RMK AO2
14926KSTC STC20020904064009709/04/02 06:40:31  5-MIN KSTC 041240Z AUTO 00000KT 10SM CLR 14/13 A3015 820 96 900 000/00 RMK AO2
14926KSTC STC20020904064509809/04/02 06:45:31  5-MIN KSTC 041245Z AUTO 00000KT 10SM CLR 14/14 A3015 820 100 900 000/00 RMK AO2
14926KSTC STC20020904065011509/04/02 06:50:31  5-MIN KSTC 041250Z AUTO 00000KT 10SM CLR 14/14 A3015 820 96 1000 000/00 RMK AO2 SLP216 T01440139
14926KSTC STC20020904065509809/04/02 06:55:31  5-MIN KSTC 041255Z AUTO 10003KT 10SM CLR 15/14 A3015 820 93 1000 100/03 RMK AO2
14926KSTC STC20020904070009809/04/02 07:00:31  5-MIN KSTC 041300Z AUTO 11003KT 10SM CLR 15/14 A3015 820 93 1000 110/03 RMK AO2
14926KSTC STC20020904070509809/04/02 07:05:31  5-MIN KSTC 041305Z AUTO 00000KT 10SM CLR 16/14 A3015 810 93 1100 000/00 RMK AO2
14926KSTC STC20020904071009809/04/02 07:10:31  5-MIN KSTC 041310Z AUTO 14003KT 10SM CLR 16/14 A3015 810 93 1100 140/03 RMK AO2
14926KSTC STC20020904071509809/04/02 07:15:31  5-MIN KSTC 041315Z AUTO 15003KT 10SM CLR 16/14 A3015 810 93 1100 150/03 RMK AO2
14926KSTC STC20020904072009809/04/02 07:20:31  5-MIN KSTC 041320Z AUTO 14003KT 10SM CLR 16/15 A3015 810 93 1200 140/03 RMK AO2
14926KSTC STC20020904072509809/04/02 07:25:31  5-MIN KSTC 041325Z AUTO 00000KT 10SM CLR 16/15 A3016 810 93 1200 000/00 RMK AO2
14926KSTC STC20020904073009809/04/02 07:30:31  5-MIN KSTC 041330Z AUTO 17003KT 10SM CLR 16/15 A3016 810 93 1200 170/03 RMK AO2
14926KSTC STC20020904073509809/04/02 07:35:31  5-MIN KSTC 041335Z AUTO 15005KT 10SM CLR 17/15 A3016 810 90 1200 150/05 RMK AO2
14926KSTC STC20020904074009809/04/02 07:40:31  5-MIN KSTC 041340Z AUTO 14004KT 10SM CLR 17/15 A3016 810 90 1200 140/04 RMK AO2
14926KSTC STC20020904074509809/04/02 07:45:31  5-MIN KSTC 041345Z AUTO 14004KT 10SM CLR 17/16 A3016 800 90 1300 140/04 RMK AO2
14926KSTC STC20020904075011509/04/02 07:50:31  5-MIN KSTC 041350Z AUTO VRB03KT 10SM CLR 18/16 A3016 800 87 1400 VRB/03 RMK AO2 SLP222 T01780156
14926KSTC STC20020904075509809/04/02 07:55:31  5-MIN KSTC 041355Z AUTO 13004KT 10SM CLR 18/16 A3016 800 87 1400 130/04 RMK AO2
14926KSTC STC20020904080009809/04/02 08:00:31  5-MIN KSTC 041400Z AUTO 12003KT 10SM CLR 18/16 A3016 800 87 1400 110/03 RMK AO2
14926KSTC STC20020904080509809/04/02 08:05:31  5-MIN KSTC 041405Z AUTO 12004KT 10SM CLR 18/16 A3016 800 87 1400 120/04 RMK AO2
14926KSTC STC20020904081009809/04/02 08:10:31  5-MIN KSTC 041410Z AUTO 12005KT 10SM CLR 19/16 A3016 800 84 1500 110/05 RMK AO2
14926KSTC STC20020904081509809/04/02 08:15:31  5-MIN KSTC 041415Z AUTO 13004KT 10SM CLR 19/16 A3017 800 84 1500 120/04 RMK AO2
14926KSTC STC20020904082009809/04/02 08:20:31  5-MIN KSTC 041420Z AUTO 12004KT 10SM CLR 19/16 A3017 800 81 1500 120/04 RMK AO2
14926KSTC STC20020904082509809/04/02 08:25:31  5-MIN KSTC 041425Z AUTO 11003KT 10SM CLR 20/16 A3017 800 78 1600 110/03 RMK AO2
14926KSTC STC20020904083009809/04/02 08:30:31  5-MIN KSTC 041430Z AUTO 13005KT 10SM CLR 21/16 A3017 800 75 1700 120/05 RMK AO2
14926KSTC STC20020904083509809/04/02 08:35:31  5-MIN KSTC 041435Z AUTO 13006KT 10SM CLR 20/16 A3017 800 78 1600 130/06 RMK AO2
14926KSTC STC20020904084009809/04/02 08:40:31  5-MIN KSTC 041440Z AUTO 13005KT 10SM CLR 21/16 A3017 800 75 1700 130/05 RMK AO2
14926KSTC STC20020904084509809/04/02 08:45:31  5-MIN KSTC 041445Z AUTO 12005KT 10SM CLR 21/16 A3016 800 73 1700 120/05 RMK AO2
14926KSTC STC20020904085012109/04/02 08:50:31  5-MIN KSTC 041450Z AUTO 13006KT 10SM CLR 21/16 A3016 800 70 1700 130/06 RMK AO2 SLP221 T02110156 51011
14926KSTC STC20020904085509809/04/02 08:55:31  5-MIN KSTC 041455Z AUTO 13005KT 10SM CLR 21/16 A3017 800 70 1700 130/05 RMK AO2
14926KSTC STC20020904090009809/04/02 09:00:31  5-MIN KSTC 041500Z AUTO 15007KT 10SM CLR 22/16 A3017 800 68 1800 140/07 RMK AO2
14926KSTC STC20020904090509809/04/02 09:05:31  5-MIN KSTC 041505Z AUTO 15007KT 10SM CLR 22/16 A3017 800 68 1800 150/07 RMK AO2
14926KSTC STC20020904091009809/04/02 09:10:31  5-MIN KSTC 041510Z AUTO 14007KT 10SM CLR 22/16 A3017 800 68 1900 140/07 RMK AO2
14926KSTC STC20020904091509809/04/02 09:15:31  5-MIN KSTC 041515Z AUTO 16007KT 10SM CLR 22/16 A3017 800 68 1900 160/07 RMK AO2
14926KSTC STC20020904092009809/04/02 09:20:31  5-MIN KSTC 041520Z AUTO 16006KT 10SM CLR 22/16 A3017 800 65 1900 150/06 RMK AO2
14926KSTC STC20020904092509809/04/02 09:25:31  5-MIN KSTC 041525Z AUTO 17008KT 10SM CLR 22/16 A3017 800 65 1900 170/08 RMK AO2
14926KSTC STC20020904093009809/04/02 09:30:31  5-MIN KSTC 041530Z AUTO 16008KT 10SM CLR 23/16 A3017 800 63 1900 160/08 RMK AO2
14926KSTC STC20020904093509809/04/02 09:35:31  5-MIN KSTC 041535Z AUTO 18007KT 10SM CLR 23/16 A3017 800 65 1900 180/07 RMK AO2
14926KSTC STC20020904094009809/04/02 09:40:31  5-MIN KSTC 041540Z AUTO 16009KT 10SM CLR 23/15 A3017 800 61 1900 160/09 RMK AO2
14926KSTC STC20020904094509809/04/02 09:45:31  5-MIN KSTC 041545Z AUTO 16007KT 10SM CLR 23/16 A3017 800 63 1900 160/07 RMK AO2
14926KSTC STC20020904095011509/04/02 09:50:31  5-MIN KSTC 041550Z AUTO 16008KT 10SM CLR 23/16 A3017 800 63 1900 160/08 RMK AO2 SLP222 T02280156
14926KSTC STC20020904095509809/04/02 09:55:31  5-MIN KSTC 041555Z AUTO 17006KT 10SM CLR 23/16 A3017 800 63 2000 170/06 RMK AO2
14926KSTC STC20020904100009809/04/02 10:00:31  5-MIN KSTC 041600Z AUTO 18007KT 10SM CLR 24/16 A3017 800 61 2100 170/07 RMK AO2
14926KSTC STC20020904100509809/04/02 10:05:31  5-MIN KSTC 041605Z AUTO 18009KT 10SM CLR 24/16 A3017 800 59 2000 170/09 RMK AO2
14926KSTC STC20020904101009809/04/02 10:10:31  5-MIN KSTC 041610Z AUTO 18008KT 10SM CLR 24/16 A3017 800 59 2100 170/08 RMK AO2
14926KSTC STC20020904101509809/04/02 10:15:31  5-MIN KSTC 041615Z AUTO 16009KT 10SM CLR 24/16 A3017 800 59 2100 160/09 RMK AO2
14926KSTC STC20020904102009809/04/02 10:20:31  5-MIN KSTC 041620Z AUTO 15010KT 10SM CLR 24/16 A3016 800 57 2100 150/10 RMK AO2
14926KSTC STC20020904102509809/04/02 10:25:31  5-MIN KSTC 041625Z AUTO 16009KT 10SM CLR 24/16 A3016 800 59 2100 160/09 RMK AO2
14926KSTC STC20020904103009809/04/02 10:30:31  5-MIN KSTC 041630Z AUTO 17009KT 10SM CLR 24/16 A3017 800 59 2100 160/09 RMK AO2
14926KSTC STC20020904103509809/04/02 10:35:31  5-MIN KSTC 041635Z AUTO 15009KT 10SM CLR 24/16 A3016 800 57 2100 150/09 RMK AO2
14926KSTC STC20020904104009809/04/02 10:40:31  5-MIN KSTC 041640Z AUTO 17012KT 10SM CLR 24/15 A3016 800 55 2100 160/12 RMK AO2
14926KSTC STC20020904104509809/04/02 10:45:31  5-MIN KSTC 041645Z AUTO 16010KT 10SM CLR 24/15 A3016 800 55 2100 160/10 RMK AO2
14926KSTC STC20020904105011509/04/02 10:50:31  5-MIN KSTC 041650Z AUTO 16010KT 10SM CLR 25/15 A3016 810 53 2200 160/10 RMK AO2 SLP219 T02500150
14926KSTC STC20020904105509809/04/02 10:55:31  5-MIN KSTC 041655Z AUTO 18009KT 10SM CLR 25/16 A3016 800 55 2200 170/09 RMK AO2
14926KSTC STC20020904110009809/04/02 11:00:31  5-MIN KSTC 041700Z AUTO 17009KT 10SM CLR 25/16 A3016 810 55 2200 170/09 RMK AO2
14926KSTC STC20020904110509809/04/02 11:05:31  5-MIN KSTC 041705Z AUTO 19011KT 10SM CLR 26/16 A3015 810 53 2300 180/11 RMK AO2
14926KSTC STC20020904111009809/04/02 11:10:31  5-MIN KSTC 041710Z AUTO 18010KT 10SM CLR 26/16 A3015 810 53 2300 170/10 RMK AO2
14926KSTC STC20020904111509809/04/02 11:15:31  5-MIN KSTC 041715Z AUTO 16010KT 10SM CLR 26/16 A3015 810 53 2300 150/10 RMK AO2
14926KSTC STC20020904112009809/04/02 11:20:31  5-MIN KSTC 041720Z AUTO 17009KT 10SM CLR 26/16 A3015 820 53 2300 170/09 RMK AO2
14926KSTC STC20020904112509809/04/02 11:25:31  5-MIN KSTC 041725Z AUTO 15011KT 10SM CLR 26/16 A3015 820 53 2300 150/11 RMK AO2
14926KSTC STC20020904113009809/04/02 11:30:31  5-MIN KSTC 041730Z AUTO 16010KT 10SM CLR 26/15 A3015 820 51 2300 160/10 RMK AO2
14926KSTC STC20020904113509809/04/02 11:35:31  5-MIN KSTC 041735Z AUTO 15010KT 10SM CLR 26/16 A3015 820 53 2300 150/10 RMK AO2
14926KSTC STC20020904114009809/04/02 11:40:31  5-MIN KSTC 041740Z AUTO 16010KT 10SM CLR 26/16 A3014 820 51 2300 160/10 RMK AO2
14926KSTC STC20020904114509809/04/02 11:45:31  5-MIN KSTC 041745Z AUTO 16012KT 10SM CLR 26/14 A3014 820 48 2300 160/12 RMK AO2
14926KSTC STC20020904115013309/04/02 11:50:31  5-MIN KSTC 041750Z AUTO 16013KT 10SM CLR 26/14 A3014 830 48 2300 160/13 RMK AO2 SLP211 T02610144 10261 20117 51008
14926KSTC STC20020904115509809/04/02 11:55:31  5-MIN KSTC 041755Z AUTO 16014KT 10SM CLR 26/14 A3014 830 46 2300 160/14 RMK AO2
14926KSTC STC20020904120009809/04/02 12:00:31  5-MIN KSTC 041800Z AUTO 17011KT 10SM CLR 26/14 A3014 830 46 2300 170/11 RMK AO2
14926KSTC STC20020904120509809/04/02 12:05:31  5-MIN KSTC 041805Z AUTO 15014KT 10SM CLR 27/14 A3014 830 46 2400 150/14 RMK AO2
14926KSTC STC20020904121009809/04/02 12:10:31  5-MIN KSTC 041810Z AUTO 17015KT 10SM CLR 27/14 A3014 830 45 2400 170/15 RMK AO2
14926KSTC STC20020904121509809/04/02 12:15:31  5-MIN KSTC 041815Z AUTO 18011KT 10SM CLR 27/14 A3013 830 46 2400 170/11 RMK AO2
14926KSTC STC20020904122009809/04/02 12:20:31  5-MIN KSTC 041820Z AUTO 18011KT 10SM CLR 27/15 A3013 830 46 2500 170/11 RMK AO2
14926KSTC STC20020904122510409/04/02 12:25:31  5-MIN KSTC 041825Z AUTO 17016G21KT 10SM CLR 27/13 A3013 830 43 2400 170/16G21 RMK AO2
14926KSTC STC20020904123010409/04/02 12:30:31  5-MIN KSTC 041830Z AUTO 17014G21KT 10SM CLR 27/14 A3013 830 45 2400 170/14G21 RMK AO2
14926KSTC STC20020904123509809/04/02 12:35:31  5-MIN KSTC 041835Z AUTO 18013KT 10SM CLR 27/14 A3013 830 45 2500 180/13 RMK AO2
14926KSTC STC20020904124009809/04/02 12:40:31  5-MIN KSTC 041840Z AUTO 16011KT 10SM CLR 27/14 A3013 830 45 2500 160/11 RMK AO2
14926KSTC STC20020904124509809/04/02 12:45:31  5-MIN KSTC 041845Z AUTO 18012KT 10SM CLR 27/14 A3013 830 45 2500 170/12 RMK AO2
14926KSTC STC20020904125011509/04/02 12:50:31  5-MIN KSTC 041850Z AUTO 16014KT 10SM CLR 27/14 A3013 840 45 2500 160/14 RMK AO2 SLP206 T02720144
14926KSTC STC20020904125509809/04/02 12:55:31  5-MIN KSTC 041855Z AUTO 16012KT 10SM CLR 27/14 A3012 840 45 2500 160/12 RMK AO2
14926KSTC STC20020904130009809/04/02 13:00:31  5-MIN KSTC 041900Z AUTO 18013KT 10SM CLR 27/15 A3012 840 46 2500 170/13 RMK AO2
14926KSTC STC20020904130510409/04/02 13:05:31  5-MIN KSTC 041905Z AUTO 18015G20KT 10SM CLR 27/14 A3012 840 45 2500 170/15G20 RMK AO2
14926KSTC STC20020904131010409/04/02 13:10:31  5-MIN KSTC 041910Z AUTO 17013G20KT 10SM CLR 27/15 A3012 840 46 2500 160/13G20 RMK AO2
14926KSTC STC20020904131510409/04/02 13:15:31  5-MIN KSTC 041915Z AUTO 16016G20KT 10SM CLR 27/16 A3012 840 48 2500 160/16G20 RMK AO2
14926KSTC STC20020904132010409/04/02 13:20:31  5-MIN KSTC 041920Z AUTO 16015G20KT 10SM CLR 27/15 A3011 850 46 2500 160/15G20 RMK AO2
14926KSTC STC20020904132510409/04/02 13:25:31  5-MIN KSTC 041925Z AUTO 17015G19KT 10SM CLR 27/15 A3011 850 46 2500 160/15G19 RMK AO2
14926KSTC STC20020904133009809/04/02 13:30:31  5-MIN KSTC 041930Z AUTO 16016KT 10SM CLR 27/15 A3011 850 46 2500 160/16 RMK AO2
14926KSTC STC20020904133509809/04/02 13:35:31  5-MIN KSTC 041935Z AUTO 16013KT 10SM CLR 27/15 A3011 850 46 2500 160/13 RMK AO2
14926KSTC STC20020904134009809/04/02 13:40:31  5-MIN KSTC 041940Z AUTO 18015KT 10SM CLR 27/14 A3011 850 45 2500 170/15 RMK AO2
14926KSTC STC20020904134510409/04/02 13:45:31  5-MIN KSTC 041945Z AUTO 17015G20KT 10SM CLR 27/14 A3011 850 45 2500 170/15G20 RMK AO2
14926KSTC STC20020904135012109/04/02 13:50:31  5-MIN KSTC 041950Z AUTO 17015G20KT 10SM CLR 27/14 A3011 850 45 2500 170/15G20 RMK AO2 SLP202 T02720144
14926KSTC STC20020904135510409/04/02 13:55:31  5-MIN KSTC 041955Z AUTO 18014G20KT 10SM CLR 27/14 A3011 850 45 2500 170/14G20 RMK AO2
14926KSTC STC20020904140009809/04/02 14:00:31  5-MIN KSTC 042000Z AUTO 17016KT 10SM CLR 27/14 A3011 860 45 2500 160/16 RMK AO2
14926KSTC STC20020904140510409/04/02 14:05:31  5-MIN KSTC 042005Z AUTO 17011G20KT 10SM CLR 28/15 A3011 850 45 2600 170/11G20 RMK AO2
14926KSTC STC20020904141009809/04/02 14:10:31  5-MIN KSTC 042010Z AUTO 16015KT 10SM CLR 28/16 A3011 850 46 2600 160/15 RMK AO2
14926KSTC STC20020904141509809/04/02 14:15:31  5-MIN KSTC 042015Z AUTO 16014KT 10SM CLR 28/15 A3011 860 45 2600 160/14 RMK AO2
14926KSTC STC20020904142009809/04/02 14:20:31  5-MIN KSTC 042020Z AUTO 17014KT 10SM CLR 27/15 A3010 860 46 2500 160/14 RMK AO2
14926KSTC STC20020904142510409/04/02 14:25:31  5-MIN KSTC 042025Z AUTO 17015G21KT 10SM CLR 28/15 A3010 860 45 2600 160/15G21 RMK AO2
14926KSTC STC20020904143010409/04/02 14:30:31  5-MIN KSTC 042030Z AUTO 17011G21KT 10SM CLR 28/15 A3010 860 45 2600 170/11G21 RMK AO2
14926KSTC STC20020904143509809/04/02 14:35:31  5-MIN KSTC 042035Z AUTO 17014KT 10SM CLR 28/15 A3010 860 45 2600 160/14 RMK AO2
14926KSTC STC20020904144010409/04/02 14:40:31  5-MIN KSTC 042040Z AUTO 16015G19KT 10SM CLR 28/15 A3010 860 45 2600 150/15G19 RMK AO2
14926KSTC STC20020904144509809/04/02 14:45:31  5-MIN KSTC 042045Z AUTO 16015KT 10SM CLR 28/15 A3009 870 45 2600 160/15 RMK AO2
14926KSTC STC20020904145012109/04/02 14:50:31  5-MIN KSTC 042050Z AUTO 16014KT 10SM CLR 28/14 A3009 870 43 2600 160/14 RMK AO2 SLP195 T02780144 58009
14926KSTC STC20020904145510409/04/02 14:55:31  5-MIN KSTC 042055Z AUTO 16016G20KT 10SM CLR 28/15 A3009 870 45 2600 160/16G20 RMK AO2
14926KSTC STC20020904150010409/04/02 15:00:31  5-MIN KSTC 042100Z AUTO 16015G20KT 10SM CLR 27/15 A3009 870 46 2500 160/15G20 RMK AO2
14926KSTC STC20020904150509809/04/02 15:05:31  5-MIN KSTC 042105Z AUTO 15016KT 10SM CLR 27/14 A3009 870 45 2500 150/16 RMK AO2
14926KSTC STC20020904151010409/04/02 15:10:31  5-MIN KSTC 042110Z AUTO 16016G22KT 10SM CLR 27/14 A3008 880 45 2500 150/16G22 RMK AO2
14926KSTC STC20020904151510409/04/02 15:15:31  5-MIN KSTC 042115Z AUTO 16017G22KT 10SM CLR 27/14 A3008 880 43 2500 160/17G22 RMK AO2
14926KSTC STC20020904152010409/04/02 15:20:31  5-MIN KSTC 042120Z AUTO 16015G22KT 10SM CLR 27/14 A3008 880 45 2500 160/15G22 RMK AO2
14926KSTC STC20020904152510409/04/02 15:25:31  5-MIN KSTC 042125Z AUTO 17015G22KT 10SM CLR 27/14 A3008 880 43 2500 160/15G22 RMK AO2
14926KSTC STC20020904153009809/04/02 15:30:31  5-MIN KSTC 042130Z AUTO 15015KT 10SM CLR 27/14 A3007 880 45 2500 150/15 RMK AO2
14926KSTC STC20020904153509809/04/02 15:35:31  5-MIN KSTC 042135Z AUTO 17014KT 10SM CLR 27/14 A3007 890 45 2500 160/14 RMK AO2
14926KSTC STC20020904154009809/04/02 15:40:31  5-MIN KSTC 042140Z AUTO 16015KT 10SM CLR 27/14 A3008 880 45 2500 160/15 RMK AO2
14926KSTC STC20020904154509809/04/02 15:45:31  5-MIN KSTC 042145Z AUTO 17013KT 10SM CLR 27/14 A3008 880 45 2500 160/13 RMK AO2
14926KSTC STC20020904155011509/04/02 15:50:31  5-MIN KSTC 042150Z AUTO 16014KT 10SM CLR 27/15 A3008 880 46 2500 160/14 RMK AO2 SLP190 T02720150
14926KSTC STC20020904155510409/04/02 15:55:31  5-MIN KSTC 042155Z AUTO 17012G18KT 10SM CLR 27/15 A3008 880 46 2500 170/12G18 RMK AO2
14926KSTC STC20020904160009809/04/02 16:00:31  5-MIN KSTC 042200Z AUTO 15013KT 10SM CLR 27/16 A3007 890 48 2500 150/13 RMK AO2
14926KSTC STC20020904160510409/04/02 16:05:31  5-MIN KSTC 042205Z AUTO 15015G18KT 10SM CLR 27/15 A3007 890 46 2500 140/15G18 RMK AO2
14926KSTC STC20020904161010409/04/02 16:10:31  5-MIN KSTC 042210Z AUTO 16019G23KT 10SM CLR 27/15 A3007 890 46 2500 150/19G23 RMK AO2
14926KSTC STC20020904161510409/04/02 16:15:31  5-MIN KSTC 042215Z AUTO 17015G23KT 10SM CLR 27/14 A3007 890 45 2500 160/15G23 RMK AO2
14926KSTC STC20020904162010409/04/02 16:20:31  5-MIN KSTC 042220Z AUTO 16011G18KT 10SM CLR 27/15 A3006 900 46 2500 150/11G18 RMK AO2
14926KSTC STC20020904162510409/04/02 16:25:31  5-MIN KSTC 042225Z AUTO 17014G19KT 10SM CLR 27/16 A3006 890 48 2500 160/14G19 RMK AO2
14926KSTC STC20020904163010409/04/02 16:30:31  5-MIN KSTC 042230Z AUTO 16014G20KT 10SM CLR 27/15 A3006 900 48 2500 160/14G20 RMK AO2
14926KSTC STC20020904163510409/04/02 16:35:31  5-MIN KSTC 042235Z AUTO 17012G20KT 10SM CLR 27/15 A3006 890 48 2500 160/12G20 RMK AO2
14926KSTC STC20020904164009809/04/02 16:40:31  5-MIN KSTC 042240Z AUTO 16012KT 10SM CLR 27/15 A3006 890 48 2500 160/12 RMK AO2
14926KSTC STC20020904164509809/04/02 16:45:31  5-MIN KSTC 042245Z AUTO 16011KT 10SM CLR 26/16 A3006 900 51 2400 160/11 RMK AO2
14926KSTC STC20020904165011509/04/02 16:50:31  5-MIN KSTC 042250Z AUTO 17011KT 10SM CLR 26/15 A3006 890 50 2400 160/11 RMK AO2 SLP185 T02610150
14926KSTC STC20020904165509809/04/02 16:55:31  5-MIN KSTC 042255Z AUTO 16012KT 10SM CLR 26/15 A3007 890 50 2400 160/12 RMK AO2
14926KSTC STC20020904170009809/04/02 17:00:31  5-MIN KSTC 042300Z AUTO 17009KT 10SM CLR 26/15 A3007 890 50 2400 170/09 RMK AO2
14926KSTC STC20020904170509809/04/02 17:05:31  5-MIN KSTC 042305Z AUTO 16009KT 10SM CLR 26/16 A3006 890 53 2400 160/09 RMK AO2
14926KSTC STC20020904171009809/04/02 17:10:31  5-MIN KSTC 042310Z AUTO 16009KT 10SM CLR 25/16 A3006 890 55 2300 150/09 RMK AO2
14926KSTC STC20020904171509809/04/02 17:15:31  5-MIN KSTC 042315Z AUTO 16009KT 10SM CLR 25/16 A3006 890 55 2300 150/09 RMK AO2
14926KSTC STC20020904172009809/04/02 17:20:31  5-MIN KSTC 042320Z AUTO 16009KT 10SM CLR 25/16 A3007 890 57 2300 160/09 RMK AO2
14926KSTC STC20020904172509809/04/02 17:25:31  5-MIN KSTC 042325Z AUTO 16009KT 10SM CLR 25/16 A3006 890 57 2300 160/09 RMK AO2
14926KSTC STC20020904173009809/04/02 17:30:31  5-MIN KSTC 042330Z AUTO 16008KT 10SM CLR 25/16 A3006 900 57 2300 160/08 RMK AO2
14926KSTC STC20020904173509809/04/02 17:35:31  5-MIN KSTC 042335Z AUTO 15010KT 10SM CLR 24/16 A3006 900 59 2200 150/10 RMK AO2
14926KSTC STC20020904174009809/04/02 17:40:31  5-MIN KSTC 042340Z AUTO 15009KT 10SM CLR 24/16 A3006 900 59 2200 150/09 RMK AO2
14926KSTC STC20020904174509809/04/02 17:45:31  5-MIN KSTC 042345Z AUTO 15009KT 10SM CLR 24/16 A3005 900 59 2200 150/09 RMK AO2
14926KSTC STC20020904175013309/04/02 17:50:31  5-MIN KSTC 042350Z AUTO 15009KT 10SM CLR 24/16 A3005 900 57 2200 150/09 RMK AO2 SLP184 T02440156 10278 20244 58015
14926KSTC STC20020904175509809/04/02 17:55:31  5-MIN KSTC 042355Z AUTO 16009KT 10SM CLR 24/16 A3005 900 59 2200 150/09 RMK AO2
14926KSTC STC20020904180009809/04/02 18:00:31  5-MIN KSTC 050000Z AUTO 16010KT 10SM CLR 24/16 A3005 900 59 2200 150/10 RMK AO2
14926KSTC STC20020904180509809/04/02 18:05:31  5-MIN KSTC 050005Z AUTO 16009KT 10SM CLR 24/16 A3006 900 59 2200 150/09 RMK AO2
14926KSTC STC20020904181009809/04/02 18:10:31  5-MIN KSTC 050010Z AUTO 16008KT 10SM CLR 24/16 A3006 900 59 2200 160/08 RMK AO2
14926KSTC STC20020904181509809/04/02 18:15:31  5-MIN KSTC 050015Z AUTO 16007KT 10SM CLR 23/16 A3006 900 61 2100 160/07 RMK AO2
14926KSTC STC20020904182009809/04/02 18:20:31  5-MIN KSTC 050020Z AUTO 16007KT 10SM CLR 23/16 A3006 900 65 2000 150/07 RMK AO2
14926KSTC STC20020904182509809/04/02 18:25:31  5-MIN KSTC 050025Z AUTO 15007KT 10SM CLR 23/16 A3006 900 65 2000 150/07 RMK AO2
14926KSTC STC20020904183009809/04/02 18:30:31  5-MIN KSTC 050030Z AUTO 15007KT 10SM CLR 22/16 A3006 900 68 2000 150/07 RMK AO2
14926KSTC STC20020904183509809/04/02 18:35:31  5-MIN KSTC 050035Z AUTO 15006KT 10SM CLR 22/16 A3006 900 68 2000 150/06 RMK AO2
14926KSTC STC20020904184009809/04/02 18:40:31  5-MIN KSTC 050040Z AUTO 14007KT 10SM CLR 22/16 A3006 900 70 1900 140/07 RMK AO2
14926KSTC STC20020904184509809/04/02 18:45:31  5-MIN KSTC 050045Z AUTO 15006KT 10SM CLR 22/16 A3006 900 70 1900 140/06 RMK AO2
14926KSTC STC20020904185011509/04/02 18:50:31  5-MIN KSTC 050050Z AUTO 15007KT 10SM CLR 22/16 A3006 900 70 1900 150/07 RMK AO2 SLP185 T02170161
14926KSTC STC20020904185509809/04/02 18:55:31  5-MIN KSTC 050055Z AUTO 15006KT 10SM CLR 22/16 A3006 900 70 1900 150/06 RMK AO2
14926KSTC STC20020904190009809/04/02 19:00:31  5-MIN KSTC 050100Z AUTO 15007KT 10SM CLR 22/16 A3006 900 70 1900 150/07 RMK AO2
14926KSTC STC20020904190509809/04/02 19:05:31  5-MIN KSTC 050105Z AUTO 15006KT 10SM CLR 22/16 A3006 900 70 1900 140/06 RMK AO2
14926KSTC STC20020904191009809/04/02 19:10:31  5-MIN KSTC 050110Z AUTO 14007KT 10SM CLR 22/16 A3006 900 70 1900 140/07 RMK AO2
14926KSTC STC20020904191509809/04/02 19:15:31  5-MIN KSTC 050115Z AUTO 15007KT 10SM CLR 22/16 A3006 900 70 1900 140/07 RMK AO2
14926KSTC STC20020904192010109/04/02 19:20:31  5-MIN KSTC 050120Z AUTO 15006KT 10SM FEW120 22/16 A3006 900 70 1900 140/06 RMK AO2
14926KSTC STC20020904192509809/04/02 19:25:31  5-MIN KSTC 050125Z AUTO 14006KT 10SM CLR 22/16 A3006 900 70 1900 140/06 RMK AO2
14926KSTC STC20020904193010109/04/02 19:30:31  5-MIN KSTC 050130Z AUTO 15006KT 10SM FEW120 22/16 A3006 900 68 1900 140/06 RMK AO2
14926KSTC STC20020904193510109/04/02 19:35:31  5-MIN KSTC 050135Z AUTO 15006KT 10SM FEW120 22/16 A3006 900 68 1900 150/06 RMK AO2
14926KSTC STC20020904194010109/04/02 19:40:31  5-MIN KSTC 050140Z AUTO 14007KT 10SM FEW120 22/16 A3006 900 68 1900 140/07 RMK AO2
14926KSTC STC20020904194510109/04/02 19:45:31  5-MIN KSTC 050145Z AUTO 14007KT 10SM FEW120 22/16 A3006 900 68 1900 140/07 RMK AO2
14926KSTC STC20020904195011809/04/02 19:50:31  5-MIN KSTC 050150Z AUTO 14007KT 10SM FEW120 22/16 A3006 900 68 1900 140/07 RMK AO2 SLP184 T02170156
14926KSTC STC20020904195510109/04/02 19:55:31  5-MIN KSTC 050155Z AUTO 14007KT 10SM FEW120 22/16 A3006 900 68 1900 140/07 RMK AO2
14926KSTC STC20020904200010109/04/02 20:00:31  5-MIN KSTC 050200Z AUTO 14008KT 10SM FEW120 22/16 A3005 900 65 2000 140/08 RMK AO2
14926KSTC STC20020904200509809/04/02 20:05:31  5-MIN KSTC 050205Z AUTO 14008KT 10SM CLR 22/16 A3005 900 65 2000 140/08 RMK AO2
14926KSTC STC20020904201009809/04/02 20:10:31  5-MIN KSTC 050210Z AUTO 14009KT 10SM CLR 22/16 A3005 910 68 1900 140/09 RMK AO2
14926KSTC STC20020904201509809/04/02 20:15:31  5-MIN KSTC 050215Z AUTO 14009KT 10SM CLR 22/16 A3005 910 68 1900 140/09 RMK AO2
14926KSTC STC20020904202009809/04/02 20:20:31  5-MIN KSTC 050220Z AUTO 15007KT 10SM CLR 22/16 A3006 900 68 1900 150/07 RMK AO2
14926KSTC STC20020904202509809/04/02 20:25:31  5-MIN KSTC 050225Z AUTO 14006KT 10SM CLR 22/16 A3006 900 68 1900 140/06 RMK AO2
14926KSTC STC20020904203009809/04/02 20:30:31  5-MIN KSTC 050230Z AUTO 15005KT 10SM CLR 22/16 A3007 890 68 1900 150/05 RMK AO2
14926KSTC STC20020904203509809/04/02 20:35:31  5-MIN KSTC 050235Z AUTO 15006KT 10SM CLR 21/16 A3007 890 70 1800 140/06 RMK AO2
14926KSTC STC20020904204009809/04/02 20:40:31  5-MIN KSTC 050240Z AUTO 15006KT 10SM CLR 21/16 A3006 890 70 1900 140/06 RMK AO2
14926KSTC STC20020904204509809/04/02 20:45:31  5-MIN KSTC 050245Z AUTO 15007KT 10SM CLR 21/15 A3006 890 68 1900 150/07 RMK AO2
14926KSTC STC20020904205012109/04/02 20:50:31  5-MIN KSTC 050250Z AUTO 15007KT 10SM CLR 21/15 A3006 900 68 1900 140/07 RMK AO2 SLP184 T02110150 56012
14926KSTC STC20020904205509809/04/02 20:55:31  5-MIN KSTC 050255Z AUTO 15007KT 10SM CLR 21/15 A3006 900 68 1900 140/07 RMK AO2
14926KSTC STC20020904210009809/04/02 21:00:31  5-MIN KSTC 050300Z AUTO 14008KT 10SM CLR 21/16 A3006 900 73 1800 140/08 RMK AO2
14926KSTC STC20020904210509809/04/02 21:05:31  5-MIN KSTC 050305Z AUTO 15008KT 10SM CLR 21/15 A3005 900 70 1800 140/08 RMK AO2
14926KSTC STC20020904211009809/04/02 21:10:31  5-MIN KSTC 050310Z AUTO 14009KT 10SM CLR 21/15 A3005 910 70 1800 140/09 RMK AO2
14926KSTC STC20020904211509809/04/02 21:15:31  5-MIN KSTC 050315Z AUTO 14011KT 10SM CLR 22/15 A3005 910 65 1900 130/11 RMK AO2
14926KSTC STC20020904212009809/04/02 21:20:31  5-MIN KSTC 050320Z AUTO 14010KT 10SM CLR 22/15 A3005 910 65 1900 130/10 RMK AO2
14926KSTC STC20020904212509809/04/02 21:25:31  5-MIN KSTC 050325Z AUTO 14010KT 10SM CLR 22/15 A3004 910 65 1900 140/10 RMK AO2
14926KSTC STC20020904213009809/04/02 21:30:31  5-MIN KSTC 050330Z AUTO 14008KT 10SM CLR 22/16 A3005 910 68 1900 140/08 RMK AO2
14926KSTC STC20020904213509809/04/02 21:35:31  5-MIN KSTC 050335Z AUTO 15008KT 10SM CLR 21/16 A3005 910 70 1900 140/08 RMK AO2
14926KSTC STC20020904214009809/04/02 21:40:31  5-MIN KSTC 050340Z AUTO 15008KT 10SM CLR 21/16 A3005 910 70 1900 140/08 RMK AO2
14926KSTC STC20020904214509809/04/02 21:45:31  5-MIN KSTC 050345Z AUTO 15007KT 10SM CLR 21/16 A3005 900 70 1900 140/07 RMK AO2
14926KSTC STC20020904215011509/04/02 21:50:31  5-MIN KSTC 050350Z AUTO 15007KT 10SM CLR 21/16 A3005 910 70 1900 150/07 RMK AO2 SLP179 T02110156
14926KSTC STC20020904215509809/04/02 21:55:31  5-MIN KSTC 050355Z AUTO 14008KT 10SM CLR 21/16 A3005 910 70 1900 140/08 RMK AO2
14926KSTC STC20020904220009809/04/02 22:00:31  5-MIN KSTC 050400Z AUTO 15009KT 10SM CLR 22/16 A3005 910 68 1900 150/09 RMK AO2
14926KSTC STC20020904220509809/04/02 22:05:31  5-MIN KSTC 050405Z AUTO 16009KT 10SM CLR 22/15 A3005 910 65 1900 150/09 RMK AO2
14926KSTC STC20020904221009809/04/02 22:10:31  5-MIN KSTC 050410Z AUTO 15008KT 10SM CLR 22/15 A3005 910 65 1900 150/08 RMK AO2
14926KSTC STC20020904221509809/04/02 22:15:31  5-MIN KSTC 050415Z AUTO 15009KT 10SM CLR 22/15 A3005 910 65 1900 150/09 RMK AO2
14926KSTC STC20020904222009809/04/02 22:20:31  5-MIN KSTC 050420Z AUTO 15010KT 10SM CLR 22/15 A3004 910 65 1900 150/10 RMK AO2
14926KSTC STC20020904222509809/04/02 22:25:31  5-MIN KSTC 050425Z AUTO 15010KT 10SM CLR 22/15 A3004 910 65 1900 150/10 RMK AO2
14926KSTC STC20020904223009809/04/02 22:30:31  5-MIN KSTC 050430Z AUTO 16008KT 10SM CLR 22/15 A3004 910 65 1900 150/08 RMK AO2
14926KSTC STC20020904223509809/04/02 22:35:31  5-MIN KSTC 050435Z AUTO 16010KT 10SM CLR 22/15 A3004 920 65 1900 150/10 RMK AO2
14926KSTC STC20020904224010409/04/02 22:40:31  5-MIN KSTC 050440Z AUTO 15011G17KT 10SM CLR 22/15 A3004 920 65 1900 150/11G17 RMK AO2
14926KSTC STC20020904224510409/04/02 22:45:31  5-MIN KSTC 050445Z AUTO 16011G17KT 10SM CLR 22/15 A3004 920 65 1900 150/11G17 RMK AO2
14926KSTC STC20020904225011509/04/02 22:50:31  5-MIN KSTC 050450Z AUTO 16011KT 10SM CLR 22/15 A3004 920 65 1900 150/11 RMK AO2 SLP175 T02170150
14926KSTC STC20020904225509809/04/02 22:55:31  5-MIN KSTC 050455Z AUTO 16010KT 10SM CLR 22/15 A3004 920 65 1900 160/10 RMK AO2
14926KSTC STC20020904230009809/04/02 23:00:31  5-MIN KSTC 050500Z AUTO 16011KT 10SM CLR 22/15 A3004 920 65 1900 160/11 RMK AO2
14926KSTC STC20020904230509809/04/02 23:05:31  5-MIN KSTC 050505Z AUTO 16012KT 10SM CLR 22/15 A3004 920 65 1900 160/12 RMK AO2
14926KSTC STC20020904231009809/04/02 23:10:31  5-MIN KSTC 050510Z AUTO 17011KT 10SM CLR 22/14 A3004 910 63 1900 160/11 RMK AO2
14926KSTC STC20020904231509809/04/02 23:15:31  5-MIN KSTC 050515Z AUTO 16013KT 10SM CLR 22/14 A3004 910 61 2000 160/13 RMK AO2
14926KSTC STC20020904232009809/04/02 23:20:31  5-MIN KSTC 050520Z AUTO 16012KT 10SM CLR 22/14 A3004 910 61 2000 160/12 RMK AO2
14926KSTC STC20020904232509809/04/02 23:25:31  5-MIN KSTC 050525Z AUTO 17009KT 10SM CLR 22/14 A3005 910 63 1900 170/09 RMK AO2
14926KSTC STC20020904233009809/04/02 23:30:31  5-MIN KSTC 050530Z AUTO 17008KT 10SM CLR 22/14 A3005 910 63 1900 160/08 RMK AO2
14926KSTC STC20020904233509809/04/02 23:35:31  5-MIN KSTC 050535Z AUTO 18009KT 10SM CLR 22/14 A3005 910 63 1900 170/09 RMK AO2
14926KSTC STC20020904234009809/04/02 23:40:31  5-MIN KSTC 050540Z AUTO 17009KT 10SM CLR 22/14 A3005 910 63 1900 170/09 RMK AO2
14926KSTC STC20020904234509809/04/02 23:45:31  5-MIN KSTC 050545Z AUTO 17008KT 10SM CLR 22/14 A3005 910 63 1900 170/08 RMK AO2
14926KSTC STC20020904235014309/04/02 23:50:31  5-MIN KSTC 050550Z AUTO 16008KT 10SM CLR 22/14 A3005 910 63 1900 160/08 RMK AO2 SLP177 T02170144 10239 20206 402780111 52002
14926KSTC STC20020904235509809/04/02 23:55:31  5-MIN KSTC 050555Z AUTO 17009KT 10SM CLR 22/14 A3005 910 63 1900 170/09 RMK AO2
14926KSTC STC20020905000009809/05/02 00:00:31  5-MIN KSTC 050600Z AUTO 16009KT 10SM CLR 22/14 A3004 910 63 1900 160/09 RMK AO2
14926KSTC STC20020905000509809/05/02 00:05:31  5-MIN KSTC 050605Z AUTO 16010KT 10SM CLR 22/14 A3004 910 63 1900 160/10 RMK AO2
14926KSTC STC20020905001009809/05/02 00:10:31  5-MIN KSTC 050610Z AUTO 16008KT 10SM CLR 21/14 A3004 910 65 1900 150/08 RMK AO2
14926KSTC STC20020905001509809/05/02 00:15:31  5-MIN KSTC 050615Z AUTO 16007KT 10SM CLR 21/14 A3004 910 65 1900 160/07 RMK AO2
14926KSTC STC20020905002009809/05/02 00:20:31  5-MIN KSTC 050620Z AUTO 17007KT 10SM CLR 21/14 A3004 910 65 1900 170/07 RMK AO2
14926KSTC STC20020905002509809/05/02 00:25:31  5-MIN KSTC 050625Z AUTO 16008KT 10SM CLR 21/14 A3004 910 65 1900 160/08 RMK AO2
14926KSTC STC20020905003009809/05/02 00:30:31  5-MIN KSTC 050630Z AUTO 16007KT 10SM CLR 21/14 A3004 910 65 1900 160/07 RMK AO2
14926KSTC STC20020905003509809/05/02 00:35:31  5-MIN KSTC 050635Z AUTO 16006KT 10SM CLR 21/14 A3004 910 65 1900 160/06 RMK AO2
14926KSTC STC20020905004009809/05/02 00:40:31  5-MIN KSTC 050640Z AUTO 17009KT 10SM CLR 21/14 A3004 910 65 1900 170/09 RMK AO2
14926KSTC STC20020905004509809/05/02 00:45:31  5-MIN KSTC 050645Z AUTO 17008KT 10SM CLR 22/14 A3004 920 63 1900 160/08 RMK AO2
14926KSTC STC20020905005011509/05/02 00:50:31  5-MIN KSTC 050650Z AUTO 16009KT 10SM CLR 22/14 A3004 920 63 1900 160/09 RMK AO2 SLP174 T02170144
14926KSTC STC20020905005509809/05/02 00:55:31  5-MIN KSTC 050655Z AUTO 16009KT 10SM CLR 21/14 A3004 920 65 1900 160/09 RMK AO2
14926KSTC STC20020905010009809/05/02 01:00:31  5-MIN KSTC 050700Z AUTO 17008KT 10SM CLR 22/14 A3003 920 63 2000 160/08 RMK AO2
14926KSTC STC20020905010509809/05/02 01:05:31  5-MIN KSTC 050705Z AUTO 16010KT 10SM CLR 21/14 A3003 920 65 1900 160/10 RMK AO2
14926KSTC STC20020905011009809/05/02 01:10:31  5-MIN KSTC 050710Z AUTO 16008KT 10SM CLR 21/14 A3003 930 65 1900 160/08 RMK AO2
14926KSTC STC20020905011509809/05/02 01:15:31  5-MIN KSTC 050715Z AUTO 16008KT 10SM CLR 21/14 A3003 930 65 1900 150/08 RMK AO2
14926KSTC STC20020905012009809/05/02 01:20:31  5-MIN KSTC 050720Z AUTO 15008KT 10SM CLR 21/14 A3003 920 67 1800 150/08 RMK AO2
14926KSTC STC20020905012509809/05/02 01:25:31  5-MIN KSTC 050725Z AUTO 16009KT 10SM CLR 21/14 A3003 930 67 1800 150/09 RMK AO2
14926KSTC STC20020905013009809/05/02 01:30:31  5-MIN KSTC 050730Z AUTO 15008KT 10SM CLR 21/14 A3002 930 67 1800 150/08 RMK AO2
14926KSTC STC20020905013509809/05/02 01:35:31  5-MIN KSTC 050735Z AUTO 16009KT 10SM CLR 21/14 A3002 930 67 1800 150/09 RMK AO2
14926KSTC STC20020905014009809/05/02 01:40:31  5-MIN KSTC 050740Z AUTO 15009KT 10SM CLR 21/14 A3002 930 67 1800 150/09 RMK AO2
14926KSTC STC20020905014509809/05/02 01:45:31  5-MIN KSTC 050745Z AUTO 16007KT 10SM CLR 20/14 A3002 930 70 1800 160/07 RMK AO2
14926KSTC STC20020905015011509/05/02 01:50:31  5-MIN KSTC 050750Z AUTO 16008KT 10SM CLR 21/14 A3002 930 67 1800 160/08 RMK AO2 SLP170 T02060144
14926KSTC STC20020905015509809/05/02 01:55:31  5-MIN KSTC 050755Z AUTO 16009KT 10SM CLR 21/14 A3002 930 67 1800 160/09 RMK AO2
14926KSTC STC20020905020009809/05/02 02:00:31  5-MIN KSTC 050800Z AUTO 16009KT 10SM CLR 21/14 A3002 930 67 1800 160/09 RMK AO2
14926KSTC STC20020905020509809/05/02 02:05:31  5-MIN KSTC 050805Z AUTO 16009KT 10SM CLR 20/14 A3002 940 70 1800 150/09 RMK AO2
14926KSTC STC20020905021009809/05/02 02:10:31  5-MIN KSTC 050810Z AUTO 16010KT 10SM CLR 20/14 A3002 940 70 1800 160/10 RMK AO2
14926KSTC STC20020905021509809/05/02 02:15:31  5-MIN KSTC 050815Z AUTO 16009KT 10SM CLR 20/14 A3002 940 70 1800 160/09 RMK AO2
14926KSTC STC20020905022009809/05/02 02:20:31  5-MIN KSTC 050820Z AUTO 16009KT 10SM CLR 20/14 A3002 940 70 1800 150/09 RMK AO2
14926KSTC STC20020905022509809/05/02 02:25:31  5-MIN KSTC 050825Z AUTO 16010KT 10SM CLR 19/14 A3002 940 72 1700 160/10 RMK AO2
14926KSTC STC20020905023009809/05/02 02:30:31  5-MIN KSTC 050830Z AUTO 16009KT 10SM CLR 20/14 A3002 940 70 1800 160/09 RMK AO2
14926KSTC STC20020905023509809/05/02 02:35:31  5-MIN KSTC 050835Z AUTO 16009KT 10SM CLR 20/14 A3002 940 70 1800 160/09 RMK AO2
14926KSTC STC20020905024009809/05/02 02:40:31  5-MIN KSTC 050840Z AUTO 16008KT 10SM CLR 19/14 A3002 940 72 1700 160/08 RMK AO2
14926KSTC STC20020905024509809/05/02 02:45:31  5-MIN KSTC 050845Z AUTO 16009KT 10SM CLR 20/14 A3002 940 70 1800 160/09 RMK AO2
14926KSTC STC20020905025012109/05/02 02:50:31  5-MIN KSTC 050850Z AUTO 16010KT 10SM CLR 20/14 A3001 940 70 1800 160/10 RMK AO2 SLP166 T02000144 55005
14926KSTC STC20020905025509809/05/02 02:55:31  5-MIN KSTC 050855Z AUTO 16010KT 10SM CLR 20/14 A3001 940 70 1800 160/10 RMK AO2
14926KSTC STC20020905030009809/05/02 03:00:31  5-MIN KSTC 050900Z AUTO 16010KT 10SM CLR 20/14 A3001 940 70 1800 150/10 RMK AO2
14926KSTC STC20020905030509809/05/02 03:05:31  5-MIN KSTC 050905Z AUTO 16009KT 10SM CLR 20/14 A3001 940 70 1800 160/09 RMK AO2
14926KSTC STC20020905031009809/05/02 03:10:31  5-MIN KSTC 050910Z AUTO 16008KT 10SM CLR 20/14 A3001 950 70 1800 160/08 RMK AO2
14926KSTC STC20020905031509809/05/02 03:15:31  5-MIN KSTC 050915Z AUTO 16009KT 10SM CLR 19/14 A3001 950 72 1700 160/09 RMK AO2
14926KSTC STC20020905032009809/05/02 03:20:31  5-MIN KSTC 050920Z AUTO 16009KT 10SM CLR 20/14 A3001 950 70 1800 160/09 RMK AO2
14926KSTC STC20020905032509809/05/02 03:25:31  5-MIN KSTC 050925Z AUTO 16009KT 10SM CLR 20/14 A3001 950 70 1800 160/09 RMK AO2
14926KSTC STC20020905033009809/05/02 03:30:31  5-MIN KSTC 050930Z AUTO 16009KT 10SM CLR 20/14 A3001 950 67 1800 160/09 RMK AO2
14926KSTC STC20020905033509809/05/02 03:35:31  5-MIN KSTC 050935Z AUTO 17009KT 10SM CLR 20/14 A3001 940 70 1800 160/09 RMK AO2
14926KSTC STC20020905034009809/05/02 03:40:31  5-MIN KSTC 050940Z AUTO 17007KT 10SM CLR 20/14 A3002 940 67 1800 170/07 RMK AO2
14926KSTC STC20020905034510509/05/02 03:45:31  5-MIN KSTC 050945Z AUTO 24005KT 10SM CLR 20/14 A3004 920 70 1800 240/05 RMK AO2 PRESRR
14926KSTC STC20020905035011509/05/02 03:50:31  5-MIN KSTC 050950Z AUTO VRB04KT 10SM CLR 19/14 A3002 930 72 1700 VRB/04 RMK AO2 SLP169 T01940144
14926KSTC STC20020905035509809/05/02 03:55:31  5-MIN KSTC 050955Z AUTO 16008KT 10SM CLR 19/14 A3001 940 75 1700 150/08 RMK AO2
14926KSTC STC20020905040009809/05/02 04:00:31  5-MIN KSTC 051000Z AUTO 17005KT 10SM CLR 19/14 A3002 930 72 1700 160/05 RMK AO2
14926KSTC STC20020905040509809/05/02 04:05:31  5-MIN KSTC 051005Z AUTO VRB03KT 10SM CLR 19/14 A3002 930 72 1700 VRB/03 RMK AO2
14926KSTC STC20020905041009809/05/02 04:10:31  5-MIN KSTC 051010Z AUTO 16006KT 10SM CLR 19/14 A3001 940 75 1700 160/06 RMK AO2
14926KSTC STC20020905041509809/05/02 04:15:31  5-MIN KSTC 051015Z AUTO 16006KT 10SM CLR 18/14 A3002 940 78 1600 150/06 RMK AO2
14926KSTC STC20020905042009809/05/02 04:20:31  5-MIN KSTC 051020Z AUTO 14006KT 10SM CLR 18/14 A3001 940 78 1600 140/06 RMK AO2
14926KSTC STC20020905042509809/05/02 04:25:31  5-MIN KSTC 051025Z AUTO 14006KT 10SM CLR 18/14 A3002 940 78 1600 140/06 RMK AO2
14926KSTC STC20020905043009809/05/02 04:30:31  5-MIN KSTC 051030Z AUTO 14005KT 10SM CLR 18/14 A3001 940 78 1600 140/05 RMK AO2
14926KSTC STC20020905043509809/05/02 04:35:31  5-MIN KSTC 051035Z AUTO 14005KT 10SM CLR 18/14 A3001 940 81 1500 140/05 RMK AO2
14926KSTC STC20020905044009809/05/02 04:40:31  5-MIN KSTC 051040Z AUTO 14007KT 10SM CLR 18/14 A3001 940 78 1600 140/07 RMK AO2
14926KSTC STC20020905044509809/05/02 04:45:31  5-MIN KSTC 051045Z AUTO 14007KT 10SM CLR 18/14 A3001 950 78 1600 140/07 RMK AO2
14926KSTC STC20020905045011509/05/02 04:50:31  5-MIN KSTC 051050Z AUTO 15005KT 10SM CLR 18/14 A3001 940 81 1500 150/05 RMK AO2 SLP166 T01780144
14926KSTC STC20020905045509809/05/02 04:55:31  5-MIN KSTC 051055Z AUTO 14008KT 10SM CLR 17/14 A3001 940 83 1500 140/08 RMK AO2
14926KSTC STC20020905050009809/05/02 05:00:31  5-MIN KSTC 051100Z AUTO 14006KT 10SM CLR 17/14 A3001 940 83 1500 140/06 RMK AO2
14926KSTC STC20020905050509809/05/02 05:05:31  5-MIN KSTC 051105Z AUTO 15007KT 10SM CLR 17/14 A3001 940 83 1500 140/07 RMK AO2
14926KSTC STC20020905051009809/05/02 05:10:31  5-MIN KSTC 051110Z AUTO 14008KT 10SM CLR 17/14 A3001 940 83 1500 140/08 RMK AO2
14926KSTC STC20020905051509809/05/02 05:15:31  5-MIN KSTC 051115Z AUTO 14005KT 10SM CLR 18/14 A3001 940 81 1500 140/05 RMK AO2
14926KSTC STC20020905052009809/05/02 05:20:31  5-MIN KSTC 051120Z AUTO 14006KT 10SM CLR 17/14 A3001 940 83 1500 140/06 RMK AO2
14926KSTC STC20020905052509809/05/02 05:25:31  5-MIN KSTC 051125Z AUTO 14006KT 10SM CLR 17/14 A3001 940 83 1500 140/06 RMK AO2
14926KSTC STC20020905053009809/05/02 05:30:31  5-MIN KSTC 051130Z AUTO 14006KT 10SM CLR 17/14 A3001 950 83 1500 140/06 RMK AO2
14926KSTC STC20020905053509809/05/02 05:35:31  5-MIN KSTC 051135Z AUTO 14005KT 10SM CLR 17/14 A3001 940 83 1500 140/05 RMK AO2
14926KSTC STC20020905054009809/05/02 05:40:31  5-MIN KSTC 051140Z AUTO 14008KT 10SM CLR 17/14 A3001 950 83 1500 140/08 RMK AO2
14926KSTC STC20020905054509809/05/02 05:45:31  5-MIN KSTC 051145Z AUTO 14006KT 10SM CLR 18/14 A3001 940 81 1500 140/06 RMK AO2
14926KSTC STC20020905055013309/05/02 05:50:31  5-MIN KSTC 051150Z AUTO 14007KT 10SM CLR 18/14 A3001 950 78 1600 130/07 RMK AO2 SLP165 T01830144 10217 20172 56011
14926KSTC STC20020905055509809/05/02 05:55:31  5-MIN KSTC 051155Z AUTO 14007KT 10SM CLR 18/14 A3001 940 78 1600 130/07 RMK AO2
14926KSTC STC20020905060009809/05/02 06:00:31  5-MIN KSTC 051200Z AUTO 14008KT 10SM CLR 18/14 A3001 950 78 1600 130/08 RMK AO2
14926KSTC STC20020905060509809/05/02 06:05:31  5-MIN KSTC 051205Z AUTO 14007KT 10SM CLR 18/14 A3000 950 78 1600 140/07 RMK AO2
14926KSTC STC20020905061009809/05/02 06:10:31  5-MIN KSTC 051210Z AUTO 14008KT 10SM CLR 18/14 A3001 950 78 1600 140/08 RMK AO2
14926KSTC STC20020905061509809/05/02 06:15:31  5-MIN KSTC 051215Z AUTO 14008KT 10SM CLR 18/14 A3000 950 78 1600 140/08 RMK AO2
14926KSTC STC20020905062009809/05/02 06:20:31  5-MIN KSTC 051220Z AUTO 14007KT 10SM CLR 18/14 A3000 950 81 1500 140/07 RMK AO2
14926KSTC STC20020905062509809/05/02 06:25:31  5-MIN KSTC 051225Z AUTO 14008KT 10SM CLR 18/14 A3000 950 81 1500 140/08 RMK AO2
14926KSTC STC20020905063009809/05/02 06:30:31  5-MIN KSTC 051230Z AUTO 14008KT 10SM CLR 18/14 A3000 950 81 1500 140/08 RMK AO2
14926KSTC STC20020905063509809/05/02 06:35:31  5-MIN KSTC 051235Z AUTO 14008KT 10SM CLR 18/15 A3000 950 83 1500 140/08 RMK AO2
14926KSTC STC20020905064009809/05/02 06:40:31  5-MIN KSTC 051240Z AUTO 15007KT 10SM CLR 18/15 A3000 950 81 1600 150/07 RMK AO2
14926KSTC STC20020905064509809/05/02 06:45:31  5-MIN KSTC 051245Z AUTO 15006KT 10SM CLR 18/15 A3001 950 81 1600 150/06 RMK AO2
14926KSTC STC20020905065011509/05/02 06:50:31  5-MIN KSTC 051250Z AUTO 16006KT 10SM CLR 19/15 A3001 940 78 1700 150/06 RMK AO2 SLP166 T01890150
14926KSTC STC20020905065509809/05/02 06:55:31  5-MIN KSTC 051255Z AUTO 15006KT 10SM CLR 19/15 A3001 950 78 1700 150/06 RMK AO2
14926KSTC STC20020905070009809/05/02 07:00:31  5-MIN KSTC 051300Z AUTO 16007KT 10SM CLR 19/15 A3001 940 75 1700 150/07 RMK AO2
14926KSTC STC20020905070509809/05/02 07:05:31  5-MIN KSTC 051305Z AUTO 16007KT 10SM CLR 19/15 A3001 940 75 1700 160/07 RMK AO2
14926KSTC STC20020905071009809/05/02 07:10:31  5-MIN KSTC 051310Z AUTO 16008KT 10SM CLR 20/15 A3001 950 72 1800 160/08 RMK AO2
14926KSTC STC20020905071509809/05/02 07:15:31  5-MIN KSTC 051315Z AUTO 16009KT 10SM CLR 20/15 A3001 950 72 1800 160/09 RMK AO2
14926KSTC STC20020905072009809/05/02 07:20:31  5-MIN KSTC 051320Z AUTO 16009KT 10SM CLR 20/15 A3001 950 72 1800 160/09 RMK AO2
14926KSTC STC20020905072509809/05/02 07:25:31  5-MIN KSTC 051325Z AUTO 17009KT 10SM CLR 20/15 A3001 940 72 1800 160/09 RMK AO2
14926KSTC STC20020905073009809/05/02 07:30:31  5-MIN KSTC 051330Z AUTO 17007KT 10SM CLR 20/15 A3002 940 72 1800 170/07 RMK AO2
14926KSTC STC20020905073509809/05/02 07:35:31  5-MIN KSTC 051335Z AUTO 17006KT 10SM CLR 20/15 A3002 930 72 1800 170/06 RMK AO2
14926KSTC STC20020905074009809/05/02 07:40:31  5-MIN KSTC 051340Z AUTO 17006KT 10SM CLR 21/16 A3002 930 73 1800 170/06 RMK AO2
14926KSTC STC20020905074509809/05/02 07:45:31  5-MIN KSTC 051345Z AUTO 17007KT 10SM CLR 21/16 A3002 930 73 1800 170/07 RMK AO2
14926KSTC STC20020905075011509/05/02 07:50:31  5-MIN KSTC 051350Z AUTO 16008KT 10SM CLR 21/16 A3002 940 73 1800 160/08 RMK AO2 SLP169 T02060156
14926KSTC STC20020905075509809/05/02 07:55:31  5-MIN KSTC 051355Z AUTO 16008KT 10SM CLR 21/16 A3002 930 73 1800 160/08 RMK AO2
14926KSTC STC20020905080009809/05/02 08:00:31  5-MIN KSTC 051400Z AUTO 17009KT 10SM CLR 21/16 A3002 940 73 1800 160/09 RMK AO2
14926KSTC STC20020905080509809/05/02 08:05:31  5-MIN KSTC 051405Z AUTO 17008KT 10SM CLR 21/16 A3002 940 73 1800 160/08 RMK AO2
14926KSTC STC20020905081009809/05/02 08:10:31  5-MIN KSTC 051410Z AUTO 16009KT 10SM CLR 21/16 A3002 940 73 1900 160/09 RMK AO2
14926KSTC STC20020905110009809/05/02 11:00:31  5-MIN KSTC 051700Z AUTO 15010KT 10SM CLR 25/18 A3000 950 64 2400 150/10 RMK AO2
14926KSTC STC20020905110509809/05/02 11:05:31  5-MIN KSTC 051705Z AUTO 16008KT 10SM CLR 25/18 A3000 950 64 2400 160/08 RMK AO2
14926KSTC STC20020905111009809/05/02 11:10:31  5-MIN KSTC 051710Z AUTO 17011KT 10SM CLR 25/18 A3000 950 64 2400 170/11 RMK AO2
14926KSTC STC20020905111509809/05/02 11:15:31  5-MIN KSTC 051715Z AUTO 16008KT 10SM CLR 25/18 A3000 950 64 2400 160/08 RMK AO2
14926KSTC STC20020905112009809/05/02 11:20:31  5-MIN KSTC 051720Z AUTO 15013KT 10SM CLR 25/18 A3000 950 64 2400 150/13 RMK AO2
14926KSTC STC20020905112509809/05/02 11:25:31  5-MIN KSTC 051725Z AUTO 15013KT 10SM CLR 25/18 A3000 950 64 2400 150/13 RMK AO2
14926KSTC STC20020905113009809/05/02 11:30:31  5-MIN KSTC 051730Z AUTO 16013KT 10SM CLR 26/18 A3000 950 64 2400 160/13 RMK AO2
14926KSTC STC20020905113509809/05/02 11:35:31  5-MIN KSTC 051735Z AUTO 17010KT 10SM CLR 27/19 A3000 950 62 2500 170/10 RMK AO2
14926KSTC STC20020905114009809/05/02 11:40:31  5-MIN KSTC 051740Z AUTO 15010KT 10SM CLR 26/18 A3000 950 62 2500 150/10 RMK AO2
14926KSTC STC20020905114509809/05/02 11:45:31  5-MIN KSTC 051745Z AUTO 14012KT 10SM CLR 26/19 A3000 950 64 2500 140/12 RMK AO2
14926KSTC STC20020905115013309/05/02 11:50:31  5-MIN KSTC 051750Z AUTO 15012KT 10SM CLR 26/19 A3000 960 64 2500 140/12 RMK AO2 SLP160 T02610189 10267 20178 50002
14926KSTC STC20020905115509809/05/02 11:55:31  5-MIN KSTC 051755Z AUTO 16011KT 10SM CLR 26/19 A3000 960 64 2500 160/11 RMK AO2
14926KSTC STC20020905120010409/05/02 12:00:31  5-MIN KSTC 051800Z AUTO 15012G18KT 10SM CLR 26/18 A2999 960 62 2500 150/12G18 RMK AO2
14926KSTC STC20020905120509809/05/02 12:05:31  5-MIN KSTC 051805Z AUTO 16013KT 10SM CLR 27/19 A2999 960 62 2600 160/13 RMK AO2
14926KSTC STC20020905121009809/05/02 12:10:31  5-MIN KSTC 051810Z AUTO 16012KT 10SM CLR 27/19 A2999 960 62 2600 160/12 RMK AO2
14926KSTC STC20020905121509809/05/02 12:15:31  5-MIN KSTC 051815Z AUTO 16013KT 10SM CLR 27/19 A2999 960 60 2600 160/13 RMK AO2
14926KSTC STC20020905122009809/05/02 12:20:31  5-MIN KSTC 051820Z AUTO 17012KT 10SM CLR 27/19 A2999 960 62 2600 160/12 RMK AO2
14926KSTC STC20020905122509809/05/02 12:25:31  5-MIN KSTC 051825Z AUTO 17011KT 10SM CLR 27/19 A2999 970 62 2600 170/11 RMK AO2
14926KSTC STC20020905123009809/05/02 12:30:31  5-MIN KSTC 051830Z AUTO 16013KT 10SM CLR 27/19 A2998 970 62 2600 160/13 RMK AO2
14926KSTC STC20020905123509809/05/02 12:35:31  5-MIN KSTC 051835Z AUTO 16010KT 10SM CLR 27/19 A2998 970 62 2600 150/10 RMK AO2
14926KSTC STC20020905124009809/05/02 12:40:31  5-MIN KSTC 051840Z AUTO 14012KT 10SM CLR 27/19 A2998 970 62 2600 140/12 RMK AO2
14926KSTC STC20020905124509809/05/02 12:45:31  5-MIN KSTC 051845Z AUTO 16014KT 10SM CLR 27/19 A2998 970 62 2600 160/14 RMK AO2
14926KSTC STC20020905125011509/05/02 12:50:31  5-MIN KSTC 051850Z AUTO 16013KT 10SM CLR 27/19 A2999 970 62 2600 160/13 RMK AO2 SLP156 T02670189
14926KSTC STC20020905125509809/05/02 12:55:31  5-MIN KSTC 051855Z AUTO 17013KT 10SM CLR 27/19 A2998 970 60 2600 170/13 RMK AO2
14926KSTC STC20020905130009809/05/02 13:00:31  5-MIN KSTC 051900Z AUTO 18014KT 10SM CLR 27/19 A2998 970 60 2600 170/14 RMK AO2
14926KSTC STC20020905130509809/05/02 13:05:31  5-MIN KSTC 051905Z AUTO 16009KT 10SM CLR 27/19 A2998 970 62 2600 160/09 RMK AO2
14926KSTC STC20020905131010409/05/02 13:10:31  5-MIN KSTC 051910Z AUTO 15012G16KT 10SM CLR 27/19 A2998 970 62 2600 150/12G16 RMK AO2
14926KSTC STC20020905131509809/05/02 13:15:31  5-MIN KSTC 051915Z AUTO 16014KT 10SM CLR 27/19 A2998 970 62 2600 160/14 RMK AO2
14926KSTC STC20020905132009809/05/02 13:20:31  5-MIN KSTC 051920Z AUTO 17013KT 10SM CLR 28/19 A2999 970 60 2700 170/13 RMK AO2
14926KSTC STC20020905132509809/05/02 13:25:31  5-MIN KSTC 051925Z AUTO 16013KT 10SM CLR 27/19 A2998 970 62 2600 160/13 RMK AO2
14926KSTC STC20020905133009809/05/02 13:30:31  5-MIN KSTC 051930Z AUTO 16012KT 10SM CLR 28/19 A2998 970 60 2700 160/12 RMK AO2
14926KSTC STC20020905133510409/05/02 13:35:31  5-MIN KSTC 051935Z AUTO 16010G18KT 10SM CLR 28/20 A2998 970 62 2700 160/10G18 RMK AO2
14926KSTC STC20020905134009809/05/02 13:40:31  5-MIN KSTC 051940Z AUTO 17013KT 10SM CLR 27/20 A2998 970 64 2600 160/13 RMK AO2
14926KSTC STC20020905134509809/05/02 13:45:31  5-MIN KSTC 051945Z AUTO 17012KT 10SM CLR 27/20 A2998 970 66 2600 170/12 RMK AO2
14926KSTC STC20020905135011509/05/02 13:50:31  5-MIN KSTC 051950Z AUTO 17011KT 10SM CLR 27/19 A2998 970 64 2600 170/11 RMK AO2 SLP155 T02670194
14926KSTC STC20020905135509809/05/02 13:55:31  5-MIN KSTC 051955Z AUTO 17012KT 10SM CLR 27/19 A2998 970 62 2600 160/12 RMK AO2
14926KSTC STC20020905140009809/05/02 14:00:31  5-MIN KSTC 052000Z AUTO 16010KT 10SM CLR 27/20 A2998 970 66 2600 160/10 RMK AO2
14926KSTC STC20020905140509809/05/02 14:05:31  5-MIN KSTC 052005Z AUTO 17009KT 10SM CLR 27/20 A2998 970 66 2600 160/09 RMK AO2
14926KSTC STC20020905141009809/05/02 14:10:31  5-MIN KSTC 052010Z AUTO 18011KT 10SM CLR 27/20 A2998 970 66 2600 180/11 RMK AO2
14926KSTC STC20020905141509809/05/02 14:15:31  5-MIN KSTC 052015Z AUTO 18010KT 10SM CLR 27/20 A2998 970 66 2600 170/10 RMK AO2
14926KSTC STC20020905142009809/05/02 14:20:31  5-MIN KSTC 052020Z AUTO 17010KT 10SM CLR 26/19 A2998 980 66 2500 170/10 RMK AO2
14926KSTC STC20020905142509809/05/02 14:25:31  5-MIN KSTC 052025Z AUTO 16009KT 10SM CLR 26/20 A2998 980 68 2500 160/09 RMK AO2
14926KSTC STC20020905143009809/05/02 14:30:31  5-MIN KSTC 052030Z AUTO 17010KT 10SM CLR 26/20 A2997 980 68 2500 160/10 RMK AO2
14926KSTC STC20020905143509809/05/02 14:35:31  5-MIN KSTC 052035Z AUTO 15007KT 10SM CLR 26/20 A2997 980 68 2500 150/07 RMK AO2
14926KSTC STC20020905144009809/05/02 14:40:31  5-MIN KSTC 052040Z AUTO 16010KT 10SM CLR 26/20 A2997 980 68 2500 160/10 RMK AO2
14926KSTC STC20020905144509809/05/02 14:45:31  5-MIN KSTC 052045Z AUTO 16009KT 10SM CLR 26/20 A2997 980 68 2500 160/09 RMK AO2
14926KSTC STC20020905145012109/05/02 14:50:31  5-MIN KSTC 052050Z AUTO 16010KT 10SM CLR 26/20 A2998 980 68 2500 150/10 RMK AO2 SLP154 T02610200 58006
14926KSTC STC20020905145510109/05/02 14:55:31  5-MIN KSTC 052055Z AUTO 16009KT 10SM TS CLR 26/20 A2998 970 68 2500 160/09 RMK AO2
14926KSTC STC20020905150010109/05/02 15:00:31  5-MIN KSTC 052100Z AUTO 17008KT 10SM TS CLR 26/20 A2998 970 68 2500 170/08 RMK AO2
14926KSTC STC20020905150510709/05/02 15:05:31  5-MIN KSTC 052105Z AUTO 17011G16KT 10SM TS CLR 26/20 A2999 960 68 2500 170/11G16 RMK AO2
14926KSTC STC20020905151011009/05/02 15:10:31  5-MIN KSTC 052110Z AUTO 16008G16KT 10SM CLR 26/20 A2999 970 68 2500 160/08G16 RMK AO2 TSE07
14926KSTC STC20020905151510409/05/02 15:15:31  5-MIN KSTC 052115Z AUTO 16010KT 10SM CLR 26/21 A2998 970 71 2500 160/10 RMK AO2 TSE07
14926KSTC STC20020905152010409/05/02 15:20:31  5-MIN KSTC 052120Z AUTO 16006KT 10SM CLR 26/21 A2998 970 71 2500 160/06 RMK AO2 TSE07
14926KSTC STC20020905152510409/05/02 15:25:31  5-MIN KSTC 052125Z AUTO 16009KT 10SM CLR 26/20 A2999 970 68 2500 160/09 RMK AO2 TSE07
14926KSTC STC20020905153010409/05/02 15:30:31  5-MIN KSTC 052130Z AUTO 16010KT 10SM CLR 26/21 A2998 970 71 2500 160/10 RMK AO2 TSE07
14926KSTC STC20020905153510409/05/02 15:35:31  5-MIN KSTC 052135Z AUTO 16008KT 10SM CLR 26/21 A2998 970 71 2500 150/08 RMK AO2 TSE07
14926KSTC STC20020905154010409/05/02 15:40:31  5-MIN KSTC 052140Z AUTO 16009KT 10SM CLR 26/21 A2999 970 71 2500 150/09 RMK AO2 TSE07
14926KSTC STC20020905154510309/05/02 15:45:31  5-MIN KSTC 052145Z AUTO 16010KT 9SM CLR 27/21 A2998 970 69 2600 160/10 RMK AO2 TSE07
14926KSTC STC20020905155012009/05/02 15:50:31  5-MIN KSTC 052150Z AUTO 16011KT 9SM CLR 27/21 A2998 970 69 2600 160/11 RMK AO2 TSE07 SLP155 T02670206
14926KSTC STC20020905155509809/05/02 15:55:31  5-MIN KSTC 052155Z AUTO 16012KT 10SM CLR 27/21 A2998 970 69 2600 150/12 RMK AO2
14926KSTC STC20020905160009809/05/02 16:00:31  5-MIN KSTC 052200Z AUTO 15013KT 10SM CLR 27/21 A2998 970 66 2600 150/13 RMK AO2
14926KSTC STC20020905160509809/05/02 16:05:31  5-MIN KSTC 052205Z AUTO 16011KT 10SM CLR 27/21 A2998 970 69 2600 160/11 RMK AO2
14926KSTC STC20020905161009809/05/02 16:10:31  5-MIN KSTC 052210Z AUTO 15009KT 10SM CLR 27/21 A2998 970 69 2600 150/09 RMK AO2
14926KSTC STC20020905161509809/05/02 16:15:31  5-MIN KSTC 052215Z AUTO 14010KT 10SM CLR 27/21 A2998 970 71 2600 140/10 RMK AO2
14926KSTC STC20020905162009809/05/02 16:20:31  5-MIN KSTC 052220Z AUTO 15009KT 10SM CLR 26/21 A2998 970 71 2500 140/09 RMK AO2
14926KSTC STC20020905162509809/05/02 16:25:31  5-MIN KSTC 052225Z AUTO 15012KT 10SM CLR 26/21 A2999 970 73 2500 150/12 RMK AO2
14926KSTC STC20020905163009809/05/02 16:30:31  5-MIN KSTC 052230Z AUTO 16010KT 10SM CLR 26/21 A2999 970 71 2500 150/10 RMK AO2
14926KSTC STC20020905163509809/05/02 16:35:31  5-MIN KSTC 052235Z AUTO 15012KT 10SM CLR 26/21 A2998 970 73 2500 150/12 RMK AO2
14926KSTC STC20020905164009809/05/02 16:40:31  5-MIN KSTC 052240Z AUTO 15010KT 10SM CLR 26/21 A2998 970 76 2400 150/10 RMK AO2
14926KSTC STC20020905164509809/05/02 16:45:31  5-MIN KSTC 052245Z AUTO 14010KT 10SM CLR 26/21 A2998 970 76 2400 140/10 RMK AO2
14926KSTC STC20020905165011809/05/02 16:50:31  5-MIN KSTC 052250Z AUTO 14011KT 10SM FEW036 26/21 A2998 970 73 2400 140/11 RMK AO2 SLP158 T02560206
14926KSTC STC20020905165510109/05/02 16:55:31  5-MIN KSTC 052255Z AUTO 15013KT 10SM FEW036 25/21 A2998 970 76 2400 150/13 RMK AO2
14926KSTC STC20020905170010109/05/02 17:00:31  5-MIN KSTC 052300Z AUTO 15010KT 10SM FEW036 25/21 A2999 970 76 2400 150/10 RMK AO2
14926KSTC STC20020905170510809/05/02 17:05:31  5-MIN KSTC 052305Z AUTO 15011KT 10SM FEW036 SCT110 25/21 A2998 970 76 2400 150/11 RMK AO2
14926KSTC STC20020905171011509/05/02 17:10:31  5-MIN KSTC 052310Z AUTO 16010KT 10SM FEW036 SCT055 SCT110 24/21 A2999 970 78 2300 160/10 RMK AO2
14926KSTC STC20020905171511509/05/02 17:15:31  5-MIN KSTC 052315Z AUTO 16008KT 10SM FEW036 SCT060 SCT110 24/20 A2998 970 76 2300 150/08 RMK AO2
14926KSTC STC20020905172010809/05/02 17:20:31  5-MIN KSTC 052320Z AUTO 15008KT 10SM SCT060 SCT110 24/20 A2998 970 76 2300 150/08 RMK AO2
14926KSTC STC20020905172511509/05/02 17:25:31  5-MIN KSTC 052325Z AUTO 15008KT 10SM SCT055 SCT095 BKN120 24/20 A2998 970 78 2300 150/08 RMK AO2
14926KSTC STC20020905173010809/05/02 17:30:31  5-MIN KSTC 052330Z AUTO 13006KT 10SM FEW055 BKN110 24/20 A2997 980 78 2300 130/06 RMK AO2
14926KSTC STC20020905173510809/05/02 17:35:31  5-MIN KSTC 052335Z AUTO 12008KT 10SM FEW055 BKN110 24/21 A2997 980 81 2300 120/08 RMK AO2
14926KSTC STC20020905174011709/05/02 17:40:31  5-MIN KSTC 052340Z AUTO 12006KT 10SM TS FEW055 OVC110 24/21 A2997 980 81 2300 120/06 RMK AO2 TSB37
14926KSTC STC20020905174511709/05/02 17:45:31  5-MIN KSTC 052345Z AUTO 10007KT 10SM TS FEW055 OVC110 24/21 A2996 990 81 2300 100/07 RMK AO2 TSB37
14926KSTC STC20020905175014509/05/02 17:50:31  5-MIN KSTC 052350Z AUTO 11008KT 10SM TS OVC110 24/21 A2996 990 81 2300 110/08 RMK AO2 TSB37 SLP151 T02390206 10278 20239 56006
14926KSTC STC20020905175510109/05/02 17:55:31  5-MIN KSTC 052355Z AUTO 11007KT 10SM OVC110 24/21 A2997 980 81 2300 110/07 RMK AO2
14926KSTC STC20020905180010109/05/02 18:00:31  5-MIN KSTC 060000Z AUTO 12010KT 10SM BKN110 23/21 A2997 980 84 2200 120/10 RMK AO2
14926KSTC STC20020905180510109/05/02 18:05:31  5-MIN KSTC 060005Z AUTO 12008KT 10SM BKN110 23/20 A2997 980 81 2200 120/08 RMK AO2
14926KSTC STC20020905181010809/05/02 18:10:31  5-MIN KSTC 060010Z AUTO 12009KT 10SM FEW060 BKN110 23/20 A2996 990 81 2200 110/09 RMK AO2
14926KSTC STC20020905181511709/05/02 18:15:31  5-MIN KSTC 060015Z AUTO 13007KT 10SM TS FEW060 SCT110 23/19 A2997 980 81 2100 130/07 RMK AO2 TSB12
14926KSTC STC20020905182011009/05/02 18:20:31  5-MIN KSTC 060020Z AUTO 11008KT 10SM TS FEW070 23/19 A2998 970 81 2100 110/08 RMK AO2 TSB12
14926KSTC STC20020905182511009/05/02 18:25:31  5-MIN KSTC 060025Z AUTO 12007KT 10SM TS FEW070 23/19 A2998 970 81 2100 120/07 RMK AO2 TSB12
14926KSTC STC20020905183011009/05/02 18:30:31  5-MIN KSTC 060030Z AUTO 12006KT 10SM FEW065 22/19 A2998 970 84 2100 120/06 RMK AO2 TSB12E27
14926KSTC STC20020905183511009/05/02 18:35:31  5-MIN KSTC 060035Z AUTO 13009KT 10SM FEW065 22/19 A2997 980 84 2100 120/09 RMK AO2 TSB12E27
14926KSTC STC20020905184010709/05/02 18:40:31  5-MIN KSTC 060040Z AUTO 13008KT 10SM CLR 22/19 A2997 980 84 2100 130/08 RMK AO2 TSB12E27
14926KSTC STC20020905184510709/05/02 18:45:31  5-MIN KSTC 060045Z AUTO 14011KT 10SM CLR 22/19 A2998 970 84 2100 140/11 RMK AO2 TSB12E27
14926KSTC STC20020905185012409/05/02 18:50:31  5-MIN KSTC 060050Z AUTO 13008KT 10SM CLR 22/19 A2998 970 84 2100 130/08 RMK AO2 TSB12E27 SLP158 T02220194
14926KSTC STC20020905185509809/05/02 18:55:31  5-MIN KSTC 060055Z AUTO 13008KT 10SM CLR 22/19 A2999 960 87 2000 130/08 RMK AO2
14926KSTC STC20020905190009809/05/02 19:00:31  5-MIN KSTC 060100Z AUTO 13009KT 10SM CLR 22/19 A2999 960 84 2100 130/09 RMK AO2
14926KSTC STC20020905190509809/05/02 19:05:31  5-MIN KSTC 060105Z AUTO 13010KT 10SM CLR 22/19 A2999 960 87 2000 130/10 RMK AO2
14926KSTC STC20020905191009809/05/02 19:10:31  5-MIN KSTC 060110Z AUTO 13011KT 10SM CLR 22/19 A2999 960 87 2000 130/11 RMK AO2
14926KSTC STC20020905191510709/05/02 19:15:31  5-MIN KSTC 060115Z AUTO 13009KT 10SM TS CLR 22/19 A2999 960 87 2000 130/09 RMK AO2 TSB14
14926KSTC STC20020905192011309/05/02 19:20:31  5-MIN KSTC 060120Z AUTO 13008G15KT 10SM TS CLR 22/19 A2999 960 87 2000 130/08G15 RMK AO2 TSB14
14926KSTC STC20020905192510709/05/02 19:25:31  5-MIN KSTC 060125Z AUTO 13010KT 10SM TS CLR 22/19 A2999 960 87 2000 130/10 RMK AO2 TSB14
14926KSTC STC20020905193011009/05/02 19:30:31  5-MIN KSTC 060130Z AUTO 13008KT 10SM FEW065 22/19 A2999 960 87 2000 130/08 RMK AO2 TSB14E28
14926KSTC STC20020905193511009/05/02 19:35:31  5-MIN KSTC 060135Z AUTO 13009KT 10SM SCT065 22/19 A2999 960 87 2000 130/09 RMK AO2 TSB14E28
14926KSTC STC20020905194011009/05/02 19:40:31  5-MIN KSTC 060140Z AUTO 13008KT 10SM SCT060 22/19 A2999 960 87 2000 130/08 RMK AO2 TSB14E28
14926KSTC STC20020905194511009/05/02 19:45:31  5-MIN KSTC 060145Z AUTO 14010KT 10SM FEW060 22/19 A2999 960 87 2000 130/10 RMK AO2 TSB14E28
14926KSTC STC20020905195012709/05/02 19:50:31  5-MIN KSTC 060150Z AUTO 13011KT 10SM FEW060 22/19 A2999 960 87 2000 130/11 RMK AO2 TSB14E28 SLP159 T02170194
14926KSTC STC20020905195510109/05/02 19:55:31  5-MIN KSTC 060155Z AUTO 13009KT 10SM SCT060 22/19 A2998 970 87 2000 130/09 RMK AO2
14926KSTC STC20020905200010109/05/02 20:00:31  5-MIN KSTC 060200Z AUTO 14011KT 10SM FEW060 22/19 A2998 970 87 2000 130/11 RMK AO2
14926KSTC STC20020905200510109/05/02 20:05:31  5-MIN KSTC 060205Z AUTO 14011KT 10SM FEW065 22/20 A2997 980 90 2000 140/11 RMK AO2
14926KSTC STC20020905201010809/05/02 20:10:31  5-MIN KSTC 060210Z AUTO 14011KT 10SM SCT100 22/20 A2997 980 90 2000 130/11 RMK AO2 PRESFR
14926KSTC STC20020905201513009/05/02 20:15:31  5-MIN KSTC 060215Z AUTO 13011KT 9SM -RA FEW060 BKN100 21/20 A2996 990 93 2000 130/11 RMK AO2 RAB12 PRESFR P0000
14926KSTC STC20020905202013809/05/02 20:20:31  5-MIN KSTC 060220Z AUTO 13010KT 9SM -RA FEW060 SCT080 BKN100 21/20 A2995 1000 93 2000 130/10 RMK AO2 RAB12 PRESFR P0000
14926KSTC STC20020905202513809/05/02 20:25:31  5-MIN KSTC 060225Z AUTO 13011KT 9SM TS FEW060 BKN110 21/20 A2994 1010 93 2000 130/11 RMK AO2 TSB24RAB12E25 PRESFR P0000
14926KSTC STC20020905203013809/05/02 20:30:31  5-MIN KSTC 060230Z AUTO 14010KT 9SM TS FEW048 SCT060 BKN100 21/20 A2995 1000 93 2000 130/10 RMK AO2 TSB24RAB12E25 P0000
14926KSTC STC20020905203513109/05/02 20:35:31  5-MIN KSTC 060235Z AUTO 13011KT 9SM -TSRA BKN060 BKN100 21/20 A2994 1000 93 2000 130/11 RMK AO2 TSB24RAB12 P0000
14926KSTC STC20020905204013809/05/02 20:40:31  5-MIN KSTC 060240Z AUTO 13012KT 9SM -TSRA FEW055 BKN070 OVC110 21/20 A2993 1010 93 2000 130/12 RMK AO2 TSB24RAB12 P0000
14926KSTC STC20020905204515209/05/02 20:45:31  5-MIN KSTC 060245Z AUTO 13014G21KT 10SM -TSRA FEW055 BKN070 BKN110 21/20 A2992 1030 93 2000 130/14G21 RMK AO2 TSB24RAB12 PRESFR P0000
14926KSTC STC20020905205016709/05/02 20:50:31  5-MIN KSTC 060250Z AUTO 14015G22KT 10SM TS FEW055 BKN070 21/20 A2993 1020 93 2000 140/15G22 RMK AO2 TSB24RAB12E50 SLP138 P0000 60000 T02110200 58004
14926KSTC STC20020905205511809/05/02 20:55:31  5-MIN KSTC 060255Z AUTO 15015G22KT 10SM TS FEW050 BKN070 21/19 A2994 1010 90 2000 150/15G22 RMK AO2
14926KSTC STC20020905210011209/05/02 21:00:31  5-MIN KSTC 060300Z AUTO 15015KT 10SM TS SCT050 BKN075 21/19 A2994 1010 90 2000 150/15 RMK AO2
14926KSTC STC20020905210512509/05/02 21:05:31  5-MIN KSTC 060305Z AUTO 15016G22KT 10SM TS SCT050 BKN075 21/19 A2995 1000 90 2000 150/16G22 RMK AO2 PRESRR
14926KSTC STC20020905211011809/05/02 21:10:31  5-MIN KSTC 060310Z AUTO 16017G22KT 10SM TS FEW050 BKN080 22/19 A2995 1000 87 2000 160/17G22 RMK AO2
14926KSTC STC20020905211511709/05/02 21:15:31  5-MIN KSTC 060315Z AUTO 17014G22KT 10SM TS FEW050 BKN080 21/19 A2996 990 90 2000 170/14G22 RMK AO2
14926KSTC STC20020905212011809/05/02 21:20:31  5-MIN KSTC 060320Z AUTO 18010G22KT 10SM TS SCT050 BKN080 21/19 A2995 1000 90 2000 180/10G22 RMK AO2
14926KSTC STC20020905212511209/05/02 21:25:31  5-MIN KSTC 060325Z AUTO 17009KT 10SM TS FEW055 BKN080 22/19 A2995 1000 84 2000 170/09 RMK AO2
14926KSTC STC20020905213011709/05/02 21:30:31  5-MIN KSTC 060330Z AUTO 17010G16KT 10SM TS FEW055 SCT080 22/19 A2997 980 84 2000 170/10G16 RMK AO2
14926KSTC STC20020905213511709/05/02 21:35:31  5-MIN KSTC 060335Z AUTO 17013G16KT 10SM TS SCT055 BKN085 22/19 A2997 980 84 2000 170/13G16 RMK AO2
14926KSTC STC20020905214011109/05/02 21:40:31  5-MIN KSTC 060340Z AUTO 17018G22KT 10SM TS BKN055 22/19 A2994 1010 84 2100 160/18G22 RMK AO2
14926KSTC STC20020905214511809/05/02 21:45:31  5-MIN KSTC 060345Z AUTO 17017G22KT 10SM TS SCT055 21/19 A2993 1020 87 2000 160/17G22 RMK AO2 PRESFR
14926KSTC STC20020905215012209/05/02 21:50:31  5-MIN KSTC 060350Z AUTO 16011KT 10SM TS SCT055 21/19 A2994 1000 87 2000 150/11 RMK AO2 SLP143 T02110189
14926KSTC STC20020905215512009/05/02 21:55:31  5-MIN KSTC 060355Z AUTO 10008KT 070V140 10SM TS SCT060 21/19 A2997 980 87 2000 090/08 070V140 RMK AO2
14926KSTC STC20020905220011809/05/02 22:00:31  5-MIN KSTC 060400Z AUTO 04007KT 10SM TS SCT060 BKN080 21/19 A2999 960 87 1900 030/07 RMK AO2 PRESRR
14926KSTC STC20020905220513109/05/02 22:05:31  5-MIN KSTC 060405Z AUTO 05008KT 10SM TS FEW017 SCT031 BKN065 21/19 A3000 960 87 1900 050/08 RMK AO2 PRESRR P0001
14926KSTC STC20020905221013909/05/02 22:10:31  5-MIN KSTC 060410Z AUTO 06011KT 9SM -TSRA FEW017 BKN031 BKN065 21/19 A3002 940 87 1900 060/11 RMK AO2 RAB09 PRESRR P0002
14926KSTC STC20020905221513209/05/02 22:15:31  5-MIN KSTC 060415Z AUTO 06011KT 9SM -TSRA SCT017 BKN031 BKN065 21/19 A3003 920 90 1800 060/11 RMK AO2 RAB09 P0002
14926KSTC STC20020905222013809/05/02 22:20:31  5-MIN KSTC 060420Z AUTO 04007G15KT 7SM -TSRA BKN017 BKN031 OVC065 21/19 A3002 930 90 1800 040/07G15 RMK AO2 RAB09 P0005
14926KSTC STC20020905222512709/05/02 22:25:31  5-MIN KSTC 060425Z AUTO VRB05KT 5SM TSRA BR BKN017 OVC030 21/19 A3004 910 93 1800 VRB/05 RMK AO2 RAB09 P0011
14926KSTC STC20020905223013909/05/02 22:30:31  5-MIN KSTC 060430Z AUTO VRB06KT 2 1/2SM +TSRA BR BKN015 BKN020 OVC030 20/19 A3005 900 97 1700 VRB/06 RMK AO2 RAB09 P0019
14926KSTC STC20020905223513909/05/02 22:35:31  5-MIN KSTC 060435Z AUTO 06009KT 1 1/4SM +TSRA BR FEW003 BKN015 OVC020 20/19 A3002 930 97 1800 050/09 RMK AO2 RAB09 P0039
14926KSTC STC20020905224013409/05/02 22:40:31  5-MIN KSTC 060440Z AUTO 07015G20KT 1SM +TSRA BR SCT001 OVC017 20/19 A3003 920 97 1800 070/15G20 RMK AO2 RAB09 P0070
14926KSTC STC20020905224513609/05/02 22:45:31  5-MIN KSTC 060445Z AUTO 05019G23KT 3/4SM +TSRA BR BKN001 OVC017 19/19 A3002 930 97 1700 050/19G23 RMK AO2 RAB09 P0107
14926KSTC STC20020905225017809/05/02 22:50:31  5-MIN KSTC 060450Z AUTO 05019G26KT 3/4SM +TSRA BR BKN001 BKN017 OVC034 19/19 A3001 940 97 1700 040/19G26 RMK AO2 PK WND 06026/0449 RAB09 SLP165 P0122 T01940189
14926KSTC STC20020905225513909/05/02 22:55:31  5-MIN KSTC 060455Z AUTO 06019G26KT 1 1/2SM TSRA BR BKN001 BKN018 OVC034 19/19 A3001 950 100 1700 050/19G26 RMK AO2 P0001
14926KSTC STC20020905230015409/05/02 23:00:31  5-MIN KSTC 060500Z AUTO 03022G31KT 3SM -TSRA BR FEW001 BKN036 OVC060 19/19 A3001 940 100 1700 030/22G31 RMK AO2 PK WND 02031/0500 P0008
14926KSTC STC20020905230515809/05/02 23:05:31  5-MIN KSTC 060505Z AUTO 02021G31KT 1 3/4SM +TSRA BR SCT001 BKN006 OVC060 18/18 A3003 930 100 1500 020/21G31 RMK AO2 PK WND 02031/0500 P0029
14926KSTC STC20020905231016409/05/02 23:10:31  5-MIN KSTC 060510Z AUTO 35019G27KT 1 1/4SM +TSRA BR FEW001 BKN006 OVC036 18/17 A3004 910 93 1500 350/19G27 RMK AO2 PK WND 02031/0500 PRESRR P0052
14926KSTC STC20020905231516409/05/02 23:15:31  5-MIN KSTC 060515Z AUTO 34007G24KT 1SM +TSRA BR FEW001 BKN006 OVC036 18/16 A3003 920 90 1500 330/07G24 RMK AO2 PK WND 02031/0500 WSHFT 0458 P0084
14926KSTC STC20020905232017609/05/02 23:20:31  5-MIN KSTC 060520Z AUTO 19009KT 140V230 3/4SM +TSRA BR SCT001 BKN006 OVC036 18/17 A3003 930 96 1500 190/09 140V230 RMK AO2 PK WND 02031/0500 WSHFT 0458 P0108
14926KSTC STC20020905232515509/05/02 23:25:31  5-MIN KSTC 060525Z AUTO 17014KT 1 1/4SM +TSRA BR FEW001 OVC006 18/17 A3002 930 96 1500 160/14 RMK AO2 PK WND 02031/0500 WSHFT 0458 P0120
14926KSTC STC20020905233015209/05/02 23:30:31  5-MIN KSTC 060530Z AUTO 19008KT 2SM +TSRA BR FEW001 OVC008 17/17 A3002 940 100 1500 190/08 RMK AO2 PK WND 02031/0500 WSHFT 0458 P0127
14926KSTC STC20020905233516209/05/02 23:35:31  5-MIN KSTC 060535Z AUTO 10008KT 2 1/2SM +TSRA BR FEW001 OVC008 18/17 A3000 950 96 1500 100/08 RMK AO2 PK WND 02031/0500 WSHFT 0458 PRESFR P0135
14926KSTC STC20020905234015209/05/02 23:40:31  5-MIN KSTC 060540Z AUTO 14005KT 3SM +TSRA BR FEW001 OVC012 17/17 A3002 940 100 1500 140/05 RMK AO2 PK WND 02031/0500 WSHFT 0458 P0140
14926KSTC STC20020905234515109/05/02 23:45:31  5-MIN KSTC 060545Z AUTO 12005KT 4SM +TSRA BR FEW001 OVC014 18/17 A3003 920 96 1500 110/05 RMK AO2 PK WND 02031/0500 WSHFT 0458 P0145
14926KSTC STC20020905235020809/05/02 23:50:31  5-MIN KSTC 060550Z AUTO 08003KT 4SM TSRA BR FEW008 OVC014 18/17 A3004 920 96 1500 080/03 RMK AO2 PK WND 02031/0500 WSHFT 0458 PRESRR SLP176 P0148 60271 T01780172 10239 20172 402780172 58012
14926KSTC STC20020905235512209/05/02 23:55:31  5-MIN KSTC 060555Z AUTO 16005KT 5SM TSRA BR FEW008 OVC018 18/18 A3003 920 100 1500 150/05 RMK AO2 P0002
14926KSTC STC20020906000011609/06/02 00:00:31  5-MIN KSTC 060600Z AUTO 14013KT 3SM +TSRA BR OVC018 18/18 A3001 940 100 1500 140/13 RMK AO2 P0014
14926KSTC STC20020906000512709/06/02 00:05:31  5-MIN KSTC 060605Z AUTO 14012KT 2 1/2SM +TSRA BR FEW006 OVC016 18/18 A3001 940 100 1600 140/12 RMK AO2 P0018
14926KSTC STC20020906001012809/06/02 00:10:31  5-MIN KSTC 060610Z AUTO 17010KT 4SM TSRA BR FEW006 OVC021 18/18 A2999 960 96 1600 160/10 RMK AO2 PRESFR P0022
14926KSTC STC20020906001513809/06/02 00:15:31  5-MIN KSTC 060615Z AUTO 13008KT 090V150 5SM TSRA BR FEW006 OVC023 18/18 A2999 960 100 1500 130/08 090V150 RMK AO2 P0026
14926KSTC STC20020906002012909/06/02 00:20:31  5-MIN KSTC 060620Z AUTO VRB05KT 5SM TSRA BR FEW006 BKN021 OVC085 18/18 A3000 950 100 1500 VRB/05 RMK AO2 P0028
14926KSTC STC20020906002512609/06/02 00:25:31  5-MIN KSTC 060625Z AUTO 15006KT 7SM -TSRA FEW006 BKN021 OVC090 18/17 A3001 950 96 1500 150/06 RMK AO2 P0029
14926KSTC STC20020906003012709/06/02 00:30:31  5-MIN KSTC 060630Z AUTO 16006KT 8SM -TSRA FEW006 SCT023 OVC090 17/17 A3001 940 100 1500 150/06 RMK AO2 P0030
14926KSTC STC20020906003512809/06/02 00:35:31  5-MIN KSTC 060635Z AUTO 14006KT 10SM -TSRA FEW027 OVC090 17/17 A3002 930 100 1500 140/06 RMK AO2 PRESRR P0030
14926KSTC STC20020906004012009/06/02 00:40:31  5-MIN KSTC 060640Z AUTO 13007KT 10SM -TSRA FEW018 OVC090 17/17 A3002 930 96 1400 120/07 RMK AO2 P0031
14926KSTC STC20020906004511409/06/02 00:45:31  5-MIN KSTC 060645Z AUTO 10008KT 10SM -TSRA OVC090 17/17 A3001 950 100 1400 100/08 RMK AO2 P0031
14926KSTC STC20020906005013009/06/02 00:50:31  5-MIN KSTC 060650Z AUTO 10008KT 10SM -TSRA OVC090 17/17 A3003 930 96 1400 090/08 RMK AO2 SLP172 P0031 T01720167
14926KSTC STC20020906005511309/06/02 00:55:31  5-MIN KSTC 060655Z AUTO 12011KT 10SM -TSRA OVC090 17/17 A3003 920 96 1400 120/11 RMK AO2 P0000
14926KSTC STC20020906010012009/06/02 01:00:31  5-MIN KSTC 060700Z AUTO 08007KT 10SM -TSRA FEW042 OVC090 17/17 A3003 920 96 1400 080/07 RMK AO2 P0003
14926KSTC STC20020906010512209/06/02 01:05:31  5-MIN KSTC 060705Z AUTO VRB05KT 5SM +TSRA BR FEW009 OVC090 17/17 A3003 920 96 1400 VRB/05 RMK AO2 P0008
14926KSTC STC20020906011012209/06/02 01:10:31  5-MIN KSTC 060710Z AUTO VRB04KT 4SM -TSRA BR FEW015 OVC090 17/17 A3003 920 96 1400 VRB/04 RMK AO2 P0010
14926KSTC STC20020906011513009/06/02 01:15:31  5-MIN KSTC 060715Z AUTO 15004KT 5SM +TSRA BR FEW006 SCT015 OVC085 17/17 A3005 910 100 1400 150/04 RMK AO2 P0014
14926KSTC STC20020906012012909/06/02 01:20:31  5-MIN KSTC 060720Z AUTO 05004KT 4SM TSRA BR FEW006 BKN017 OVC085 17/17 A3005 910 100 1400 050/04 RMK AO2 P0017
14926KSTC STC20020906012512209/06/02 01:25:31  5-MIN KSTC 060725Z AUTO 00000KT 4SM TSRA BR BKN019 OVC085 17/17 A3005 910 100 1400 000/00 RMK AO2 P0021
14926KSTC STC20020906013012209/06/02 01:30:31  5-MIN KSTC 060730Z AUTO 00000KT 4SM TSRA BR BKN021 OVC085 17/17 A3004 910 100 1400 000/00 RMK AO2 P0025
14926KSTC STC20020906013512709/06/02 01:35:31  5-MIN KSTC 060735Z AUTO 15010KT 2 1/2SM +TSRA BR FEW006 OVC019 17/17 A3003 930 100 1400 140/10 RMK AO2 P0037
14926KSTC STC20020906014012309/06/02 01:40:31  5-MIN KSTC 060740Z AUTO 14007KT 2SM +TSRA BR FEW006 OVC015 17/17 A3003 920 100 1400 140/07 RMK AO2 P0046
14926KSTC STC20020906014511909/06/02 01:45:31  5-MIN KSTC 060745Z AUTO 18006KT 2 1/2SM +TSRA BR OVC015 18/17 A3003 930 96 1500 180/06 RMK AO2 P0051
14926KSTC STC20020906015013309/06/02 01:50:31  5-MIN KSTC 060750Z AUTO 17010KT 3SM +TSRA BR OVC015 18/18 A3002 930 100 1500 170/10 RMK AO2 SLP169 P0057 T01780178
14926KSTC STC20020906015512009/06/02 01:55:31  5-MIN KSTC 060755Z AUTO 19012KT 2 1/2SM +TSRA BR OVC015 18/18 A3002 930 100 1500 180/12 RMK AO2 P0005
14926KSTC STC20020906020012009/06/02 02:00:31  5-MIN KSTC 060800Z AUTO 19010KT 2 1/2SM +TSRA BR OVC013 18/18 A3003 930 100 1500 190/10 RMK AO2 P0014
14926KSTC STC20020906020512009/06/02 02:05:31  5-MIN KSTC 060805Z AUTO 20009KT 2 1/2SM +TSRA BR OVC015 18/18 A3003 930 100 1500 190/09 RMK AO2 P0019
14926KSTC STC20020906021011609/06/02 02:10:31  5-MIN KSTC 060810Z AUTO 20013KT 3SM +TSRA BR OVC015 18/18 A3003 930 100 1500 200/13 RMK AO2 P0027
14926KSTC STC20020906021511609/06/02 02:15:31  5-MIN KSTC 060815Z AUTO 20010KT 3SM +TSRA BR OVC015 18/18 A3002 940 100 1500 200/10 RMK AO2 P0032
14926KSTC STC20020906022011609/06/02 02:20:31  5-MIN KSTC 060820Z AUTO 21006KT 5SM -TSRA BR OVC017 18/18 A3002 940 100 1500 200/06 RMK AO2 P0033
14926KSTC STC20020906022512009/06/02 02:25:31  5-MIN KSTC 060825Z AUTO 16006KT 8SM -TSRA BKN021 OVC110 18/18 A3002 940 100 1500 160/06 RMK AO2 P0034
14926KSTC STC20020906023012109/06/02 02:30:31  5-MIN KSTC 060830Z AUTO 18013KT 3SM TSRA BR BKN023 OVC110 18/17 A3002 940 96 1500 170/13 RMK AO2 P0037
14926KSTC STC20020906023512809/06/02 02:35:31  5-MIN KSTC 060835Z AUTO 17011KT 3SM TSRA BR BKN023 BKN049 OVC090 18/17 A3001 950 96 1500 170/11 RMK AO2 P0040
14926KSTC STC20020906024012109/06/02 02:40:31  5-MIN KSTC 060840Z AUTO 14008KT 3SM TSRA BR BKN029 BKN090 18/17 A3001 940 96 1500 140/08 RMK AO2 P0042
14926KSTC STC20020906024512209/06/02 02:45:31  5-MIN KSTC 060845Z AUTO 00000KT 4SM -TSRA BR BKN034 BKN090 18/17 A3003 930 96 1500 000/00 RMK AO2 P0043
14926KSTC STC20020906025015009/06/02 02:50:31  5-MIN KSTC 060850Z AUTO 17006KT 4SM TSRA BR BKN031 OVC090 18/17 A3002 940 96 1500 170/06 RMK AO2 SLP167 P0050 60143 T01780172 53036
14926KSTC STC20020906025512209/06/02 02:55:31  5-MIN KSTC 060855Z AUTO 14005KT 3SM +TSRA BR BKN026 OVC090 18/17 A2999 960 96 1500 130/05 RMK AO2 P0003
14926KSTC STC20020906030013209/06/02 03:00:31  5-MIN KSTC 060900Z AUTO 15014G17KT 2 1/2SM +TSRA BR BKN023 OVC090 18/17 A2999 960 96 1600 140/14G17 RMK AO2 P0012
14926KSTC STC20020906030512809/06/02 03:05:31  5-MIN KSTC 060905Z AUTO 18011G17KT 4SM +TSRA BR BKN021 OVC090 18/17 A3000 950 96 1500 180/11G17 RMK AO2 P0017
14926KSTC STC20020906031012809/06/02 03:10:31  5-MIN KSTC 060910Z AUTO 19010KT 6SM TSRA BR BKN019 BKN090 OVC110 18/17 A3000 950 96 1500 190/10 RMK AO2 P0018
14926KSTC STC20020906031511909/06/02 03:15:31  5-MIN KSTC 060915Z AUTO 17010KT 9SM -TSRA BKN019 OVC100 18/17 A2999 970 96 1600 160/10 RMK AO2 P0019
14926KSTC STC20020906032012009/06/02 03:20:31  5-MIN KSTC 060920Z AUTO 14009KT 10SM -TSRA SCT016 OVC100 18/17 A2998 970 96 1600 130/09 RMK AO2 P0019
14926KSTC STC20020906032513009/06/02 03:25:31  5-MIN KSTC 060925Z AUTO 16009KT 10SM TS SCT016 BKN090 OVC110 18/17 A2998 970 96 1600 160/09 RMK AO2 RAE23 P0019
14926KSTC STC20020906033012309/06/02 03:30:31  5-MIN KSTC 060930Z AUTO 17009KT 10SM TS FEW016 OVC090 18/17 A2997 980 96 1600 170/09 RMK AO2 RAE23 P0019
14926KSTC STC20020906033512309/06/02 03:35:31  5-MIN KSTC 060935Z AUTO 15011KT 10SM TS BKN090 OVC110 18/17 A2997 980 96 1600 150/11 RMK AO2 RAE23 P0019
14926KSTC STC20020906034011609/06/02 03:40:31  5-MIN KSTC 060940Z AUTO 15009KT 10SM TS OVC090 18/17 A2997 980 96 1600 150/09 RMK AO2 RAE23 P0019
14926KSTC STC20020906034511609/06/02 03:45:31  5-MIN KSTC 060945Z AUTO 14007KT 10SM TS OVC085 18/17 A2997 980 96 1600 130/07 RMK AO2 RAE23 P0019
14926KSTC STC20020906035013309/06/02 03:50:31  5-MIN KSTC 060950Z AUTO 14007KT 10SM TS OVC085 18/17 A2998 980 96 1600 140/07 RMK AO2 RAE23 SLP154 P0019 T01780172
14926KSTC STC20020906035510409/06/02 03:55:31  5-MIN KSTC 060955Z AUTO 15006KT 10SM TS OVC080 18/17 A2997 980 96 1600 150/06 RMK AO2
14926KSTC STC20020906040010409/06/02 04:00:31  5-MIN KSTC 061000Z AUTO 12005KT 10SM TS OVC085 18/17 A2998 970 96 1600 120/05 RMK AO2
14926KSTC STC20020906040510409/06/02 04:05:31  5-MIN KSTC 061005Z AUTO VRB04KT 10SM TS OVC085 18/17 A2998 970 96 1600 VRB/04 RMK AO2
14926KSTC STC20020906041010409/06/02 04:10:31  5-MIN KSTC 061010Z AUTO 11007KT 10SM TS OVC085 18/17 A2997 980 96 1600 100/07 RMK AO2
14926KSTC STC20020906041510409/06/02 04:15:31  5-MIN KSTC 061015Z AUTO 11008KT 10SM TS OVC085 18/17 A2997 980 96 1600 110/08 RMK AO2
14926KSTC STC20020906042010409/06/02 04:20:31  5-MIN KSTC 061020Z AUTO 14010KT 10SM TS OVC085 18/17 A2996 990 96 1600 130/10 RMK AO2
14926KSTC STC20020906042510409/06/02 04:25:31  5-MIN KSTC 061025Z AUTO 14011KT 10SM TS OVC085 18/17 A2996 990 96 1600 130/11 RMK AO2
14926KSTC STC20020906043010409/06/02 04:30:31  5-MIN KSTC 061030Z AUTO 14011KT 10SM TS OVC085 18/17 A2996 990 96 1600 130/11 RMK AO2
14926KSTC STC20020906043510409/06/02 04:35:31  5-MIN KSTC 061035Z AUTO 14009KT 10SM TS OVC085 18/17 A2996 990 96 1600 140/09 RMK AO2
14926KSTC STC20020906044010409/06/02 04:40:31  5-MIN KSTC 061040Z AUTO 15008KT 10SM TS OVC085 18/17 A2996 990 96 1600 150/08 RMK AO2
14926KSTC STC20020906044510409/06/02 04:45:31  5-MIN KSTC 061045Z AUTO 14006KT 10SM TS OVC085 18/17 A2996 990 96 1600 140/06 RMK AO2
14926KSTC STC20020906045012109/06/02 04:50:31  5-MIN KSTC 061050Z AUTO 17007KT 10SM TS OVC085 18/17 A2997 980 96 1600 170/07 RMK AO2 SLP151 T01780172
14926KSTC STC20020906045510409/06/02 04:55:31  5-MIN KSTC 061055Z AUTO 14007KT 10SM TS OVC085 18/17 A2997 980 96 1600 140/07 RMK AO2
14926KSTC STC20020906050010409/06/02 05:00:31  5-MIN KSTC 061100Z AUTO 15007KT 10SM TS OVC085 18/17 A2997 980 96 1600 150/07 RMK AO2
14926KSTC STC20020906050510409/06/02 05:05:31  5-MIN KSTC 061105Z AUTO 15008KT 10SM TS OVC085 18/17 A2997 980 96 1600 150/08 RMK AO2
14926KSTC STC20020906051010409/06/02 05:10:31  5-MIN KSTC 061110Z AUTO 15009KT 10SM TS BKN085 18/17 A2997 980 96 1600 150/09 RMK AO2
14926KSTC STC20020906051510709/06/02 05:15:31  5-MIN KSTC 061115Z AUTO 14008KT 10SM VCTS BKN085 17/17 A2997 980 100 1500 140/08 RMK AO2
14926KSTC STC20020906052010809/06/02 05:20:31  5-MIN KSTC 061120Z AUTO 15008KT 10SM BKN085 17/17 A2997 980 100 1500 150/08 RMK AO2 TSE20
14926KSTC STC20020906052510809/06/02 05:25:31  5-MIN KSTC 061125Z AUTO 15008KT 10SM BKN085 17/17 A2997 980 100 1500 140/08 RMK AO2 TSE20
14926KSTC STC20020906053010809/06/02 05:30:31  5-MIN KSTC 061130Z AUTO 16009KT 10SM SCT085 17/17 A2997 980 100 1500 150/09 RMK AO2 TSE20
14926KSTC STC20020906053510809/06/02 05:35:31  5-MIN KSTC 061135Z AUTO 16009KT 10SM FEW085 17/17 A2997 980 100 1500 150/09 RMK AO2 TSE20
14926KSTC STC20020906054010809/06/02 05:40:31  5-MIN KSTC 061140Z AUTO 15007KT 10SM FEW085 17/17 A2997 980 100 1500 150/07 RMK AO2 TSE20
14926KSTC STC20020906054511109/06/02 05:45:31  5-MIN KSTC 061145Z AUTO 14009KT 10SM TS CLR 17/17 A2997 980 100 1500 130/09 RMK AO2 TSE20B41
14926KSTC STC20020906055015809/06/02 05:50:31  5-MIN KSTC 061150Z AUTO 14007KT 10SM TS CLR 17/17 A2997 980 100 1500 130/07 RMK AO2 TSE20B41 SLP152 60167 70439 T01720172 10183 20167 58013
14926KSTC STC20020906055510509/06/02 05:55:31  5-MIN KSTC 061155Z AUTO 13006KT 10SM CLR 17/17 A2997 980 100 1500 130/06 RMK AO2 TSE55
14926KSTC STC20020906060010709/06/02 06:00:31  5-MIN KSTC 061200Z AUTO 14004KT 10SM CLR 17/17 A2997 990 100 1500 140/04 RMK AO2 TSE1155
14926KSTC STC20020906060510709/06/02 06:05:31  5-MIN KSTC 061205Z AUTO 15004KT 10SM CLR 17/17 A2996 990 100 1500 140/04 RMK AO2 TSE1155
14926KSTC STC20020906061010709/06/02 06:10:31  5-MIN KSTC 061210Z AUTO 14005KT 10SM CLR 17/17 A2996 990 100 1500 140/05 RMK AO2 TSE1155
14926KSTC STC20020906061510709/06/02 06:15:31  5-MIN KSTC 061215Z AUTO 11004KT 10SM CLR 17/17 A2996 990 100 1500 110/04 RMK AO2 TSE1155
14926KSTC STC20020906062010709/06/02 06:20:31  5-MIN KSTC 061220Z AUTO 12003KT 10SM CLR 17/17 A2996 990 100 1500 120/03 RMK AO2 TSE1155
14926KSTC STC20020906062510709/06/02 06:25:31  5-MIN KSTC 061225Z AUTO 13005KT 10SM CLR 17/17 A2996 990 100 1500 120/05 RMK AO2 TSE1155
14926KSTC STC20020906063010709/06/02 06:30:31  5-MIN KSTC 061230Z AUTO 10003KT 10SM CLR 17/17 A2996 990 100 1500 100/03 RMK AO2 TSE1155
14926KSTC STC20020906063510709/06/02 06:35:31  5-MIN KSTC 061235Z AUTO 12003KT 10SM CLR 17/17 A2996 990 100 1500 110/03 RMK AO2 TSE1155
14926KSTC STC20020906064010709/06/02 06:40:31  5-MIN KSTC 061240Z AUTO 13004KT 10SM CLR 17/17 A2996 990 100 1500 120/04 RMK AO2 TSE1155
14926KSTC STC20020906064510709/06/02 06:45:31  5-MIN KSTC 061245Z AUTO 14003KT 10SM CLR 17/17 A2997 980 100 1500 140/03 RMK AO2 TSE1155
14926KSTC STC20020906065012409/06/02 06:50:31  5-MIN KSTC 061250Z AUTO 13004KT 10SM CLR 17/17 A2997 980 100 1500 130/04 RMK AO2 TSE1155 SLP152 T01720172
14926KSTC STC20020906065509909/06/02 06:55:31  5-MIN KSTC 061255Z AUTO 14003KT 10SM CLR 17/17 A2996 990 100 1500 140/03 RMK AO2
14926KSTC STC20020906070009909/06/02 07:00:31  5-MIN KSTC 061300Z AUTO 14004KT 10SM CLR 17/17 A2997 980 100 1500 140/04 RMK AO2
14926KSTC STC20020906070509909/06/02 07:05:31  5-MIN KSTC 061305Z AUTO 13003KT 10SM CLR 17/17 A2997 980 100 1500 130/03 RMK AO2
14926KSTC STC20020906071009809/06/02 07:10:31  5-MIN KSTC 061310Z AUTO 12003KT 10SM CLR 18/17 A2997 980 96 1600 120/03 RMK AO2
14926KSTC STC20020906071509809/06/02 07:15:31  5-MIN KSTC 061315Z AUTO 13004KT 10SM CLR 18/17 A2997 980 96 1600 130/04 RMK AO2
14926KSTC STC20020906072009909/06/02 07:20:31  5-MIN KSTC 061320Z AUTO 13005KT 10SM CLR 18/18 A2997 980 100 1600 130/05 RMK AO2
14926KSTC STC20020906072509809/06/02 07:25:31  5-MIN KSTC 061325Z AUTO 14004KT 10SM CLR 18/17 A2997 980 96 1600 140/04 RMK AO2
14926KSTC STC20020906073009909/06/02 07:30:31  5-MIN KSTC 061330Z AUTO 13006KT 10SM CLR 18/18 A2997 980 100 1600 130/06 RMK AO2
14926KSTC STC20020906073509809/06/02 07:35:31  5-MIN KSTC 061335Z AUTO 13005KT 10SM CLR 18/18 A2997 980 96 1600 130/05 RMK AO2
14926KSTC STC20020906074010109/06/02 07:40:31  5-MIN KSTC 061340Z AUTO 14005KT 10SM FEW005 18/18 A2997 980 96 1600 140/05 RMK AO2
14926KSTC STC20020906074510109/06/02 07:45:31  5-MIN KSTC 061345Z AUTO 13005KT 10SM FEW005 18/18 A2997 980 96 1600 130/05 RMK AO2
14926KSTC STC20020906075011809/06/02 07:50:31  5-MIN KSTC 061350Z AUTO 14006KT 10SM FEW005 18/18 A2997 980 96 1600 140/06 RMK AO2 SLP152 T01830178
14926KSTC STC20020906075509809/06/02 07:55:31  5-MIN KSTC 061355Z AUTO 14006KT 10SM CLR 19/18 A2997 980 93 1700 130/06 RMK AO2
14926KSTC STC20020906080010109/06/02 08:00:31  5-MIN KSTC 061400Z AUTO 13007KT 10SM FEW005 19/18 A2997 980 97 1700 130/07 RMK AO2
14926KSTC STC20020906080510109/06/02 08:05:31  5-MIN KSTC 061405Z AUTO 14005KT 10SM FEW005 19/18 A2997 980 97 1700 140/05 RMK AO2
14926KSTC STC20020906081010109/06/02 08:10:31  5-MIN KSTC 061410Z AUTO 12006KT 10SM FEW005 19/18 A2996 990 93 1800 120/06 RMK AO2
14926KSTC STC20020906081510109/06/02 08:15:31  5-MIN KSTC 061415Z AUTO 13006KT 10SM FEW005 19/18 A2996 990 93 1800 130/06 RMK AO2
14926KSTC STC20020906082010109/06/02 08:20:31  5-MIN KSTC 061420Z AUTO 12006KT 10SM FEW005 20/18 A2996 990 90 1800 110/06 RMK AO2
14926KSTC STC20020906082510109/06/02 08:25:31  5-MIN KSTC 061425Z AUTO 14007KT 10SM FEW005 20/18 A2997 980 90 1800 140/07 RMK AO2
14926KSTC STC20020906083009809/06/02 08:30:31  5-MIN KSTC 061430Z AUTO 14009KT 10SM CLR 20/18 A2997 980 90 1800 130/09 RMK AO2
14926KSTC STC20020906083509809/06/02 08:35:31  5-MIN KSTC 061435Z AUTO 14009KT 10SM CLR 20/18 A2997 980 90 1800 140/09 RMK AO2
14926KSTC STC20020906084009809/06/02 08:40:31  5-MIN KSTC 061440Z AUTO 14010KT 10SM CLR 21/18 A2997 980 87 1900 130/10 RMK AO2
14926KSTC STC20020906084509809/06/02 08:45:31  5-MIN KSTC 061445Z AUTO 15010KT 10SM CLR 21/18 A2997 980 84 1900 140/10 RMK AO2
14926KSTC STC20020906085012109/06/02 08:50:31  5-MIN KSTC 061450Z AUTO 14008KT 10SM CLR 21/18 A2996 990 84 2000 140/08 RMK AO2 SLP151 T02110183 55012
14926KSTC STC20020906085509809/06/02 08:55:31  5-MIN KSTC 061455Z AUTO 15010KT 10SM CLR 21/18 A2996 990 84 2000 150/10 RMK AO2
14926KSTC STC20020906090009809/06/02 09:00:31  5-MIN KSTC 061500Z AUTO 14008KT 10SM CLR 21/18 A2996 990 84 2000 140/08 RMK AO2
14926KSTC STC20020906090509809/06/02 09:05:31  5-MIN KSTC 061505Z AUTO 15011KT 10SM CLR 22/18 A2996 990 81 2000 140/11 RMK AO2
14926KSTC STC20020906091009809/06/02 09:10:31  5-MIN KSTC 061510Z AUTO 15008KT 10SM CLR 22/18 A2996 990 81 2000 150/08 RMK AO2
14926KSTC STC20020906091509809/06/02 09:15:31  5-MIN KSTC 061515Z AUTO 16010KT 10SM CLR 22/18 A2996 990 78 2100 150/10 RMK AO2
14926KSTC STC20020906092009809/06/02 09:20:31  5-MIN KSTC 061520Z AUTO 16010KT 10SM CLR 22/18 A2996 990 78 2100 160/10 RMK AO2
14926KSTC STC20020906092509809/06/02 09:25:31  5-MIN KSTC 061525Z AUTO 16010KT 10SM CLR 22/18 A2996 990 78 2100 150/10 RMK AO2
14926KSTC STC20020906093009809/06/02 09:30:31  5-MIN KSTC 061530Z AUTO 16011KT 10SM CLR 23/18 A2996 990 73 2200 160/11 RMK AO2
14926KSTC STC20020906093509809/06/02 09:35:31  5-MIN KSTC 061535Z AUTO 16010KT 10SM CLR 23/18 A2996 990 76 2200 160/10 RMK AO2
14926KSTC STC20020906094009809/06/02 09:40:31  5-MIN KSTC 061540Z AUTO 16010KT 10SM CLR 23/18 A2996 990 76 2200 160/10 RMK AO2
14926KSTC STC20020906094509809/06/02 09:45:31  5-MIN KSTC 061545Z AUTO 15009KT 10SM CLR 23/19 A2996 990 76 2200 150/09 RMK AO2
14926KSTC STC20020906095011609/06/02 09:50:31  5-MIN KSTC 061550Z AUTO 15010KT 10SM CLR 23/19 A2995 1000 76 2200 150/10 RMK AO2 SLP146 T02330189
14926KSTC STC20020906095509909/06/02 09:55:31  5-MIN KSTC 061555Z AUTO 14008KT 10SM CLR 23/19 A2995 1000 76 2200 140/08 RMK AO2
14926KSTC STC20020906100010509/06/02 10:00:31  5-MIN KSTC 061600Z AUTO 16009G15KT 10SM CLR 24/18 A2995 1000 71 2300 160/09G15 RMK AO2
14926KSTC STC20020906100510509/06/02 10:05:31  5-MIN KSTC 061605Z AUTO 15008G15KT 10SM CLR 24/19 A2995 1000 73 2300 140/08G15 RMK AO2
14926KSTC STC20020906101010509/06/02 10:10:31  5-MIN KSTC 061610Z AUTO 13009G15KT 10SM CLR 24/19 A2995 1000 73 2300 130/09G15 RMK AO2
14926KSTC STC20020906101509909/06/02 10:15:31  5-MIN KSTC 061615Z AUTO 14010KT 10SM CLR 24/19 A2995 1000 73 2300 140/10 RMK AO2
14926KSTC STC20020906102009909/06/02 10:20:31  5-MIN KSTC 061620Z AUTO 15011KT 10SM CLR 24/19 A2995 1000 71 2400 140/11 RMK AO2
14926KSTC STC20020906102509909/06/02 10:25:31  5-MIN KSTC 061625Z AUTO 14010KT 10SM CLR 24/19 A2995 1000 71 2400 140/10 RMK AO2
14926KSTC STC20020906103009909/06/02 10:30:31  5-MIN KSTC 061630Z AUTO 13007KT 10SM CLR 24/19 A2994 1010 71 2400 120/07 RMK AO2
14926KSTC STC20020906103509909/06/02 10:35:31  5-MIN KSTC 061635Z AUTO 15009KT 10SM CLR 24/19 A2994 1010 71 2400 140/09 RMK AO2
14926KSTC STC20020906104009909/06/02 10:40:31  5-MIN KSTC 061640Z AUTO 14009KT 10SM CLR 24/19 A2994 1010 71 2400 140/09 RMK AO2
14926KSTC STC20020906104509909/06/02 10:45:31  5-MIN KSTC 061645Z AUTO 15010KT 10SM CLR 25/19 A2994 1010 68 2400 150/10 RMK AO2
14926KSTC STC20020906105011609/06/02 10:50:31  5-MIN KSTC 061650Z AUTO 13009KT 10SM CLR 25/19 A2994 1010 68 2400 130/09 RMK AO2 SLP142 T02500189
14926KSTC STC20020906105509909/06/02 10:55:31  5-MIN KSTC 061655Z AUTO 15011KT 10SM CLR 26/19 A2994 1010 66 2500 140/11 RMK AO2
14926KSTC STC20020906110009909/06/02 11:00:31  5-MIN KSTC 061700Z AUTO 14009KT 10SM CLR 26/19 A2994 1010 66 2500 140/09 RMK AO2
14926KSTC STC20020906110509909/06/02 11:05:31  5-MIN KSTC 061705Z AUTO 15011KT 10SM CLR 26/18 A2993 1010 64 2500 150/11 RMK AO2
14926KSTC STC20020906111009909/06/02 11:10:31  5-MIN KSTC 061710Z AUTO 15009KT 10SM CLR 26/19 A2993 1020 64 2600 150/09 RMK AO2
14926KSTC STC20020906111509909/06/02 11:15:31  5-MIN KSTC 061715Z AUTO 15011KT 10SM CLR 26/19 A2993 1020 66 2600 140/11 RMK AO2
14926KSTC STC20020906112009909/06/02 11:20:31  5-MIN KSTC 061720Z AUTO 16012KT 10SM CLR 26/19 A2993 1020 64 2600 160/12 RMK AO2
14926KSTC STC20020906112509909/06/02 11:25:31  5-MIN KSTC 061725Z AUTO 16011KT 10SM CLR 26/19 A2993 1020 64 2600 150/11 RMK AO2
14926KSTC STC20020906113009909/06/02 11:30:31  5-MIN KSTC 061730Z AUTO 16013KT 10SM CLR 27/19 A2992 1020 62 2600 150/13 RMK AO2
14926KSTC STC20020906113509909/06/02 11:35:31  5-MIN KSTC 061735Z AUTO 15011KT 10SM CLR 27/19 A2992 1030 62 2600 150/11 RMK AO2
14926KSTC STC20020906114009909/06/02 11:40:31  5-MIN KSTC 061740Z AUTO 15011KT 10SM CLR 27/19 A2992 1030 62 2600 150/11 RMK AO2
14926KSTC STC20020906114509909/06/02 11:45:31  5-MIN KSTC 061745Z AUTO 15010KT 10SM CLR 27/19 A2992 1030 64 2600 150/10 RMK AO2
14926KSTC STC20020906115013409/06/02 11:50:31  5-MIN KSTC 061750Z AUTO 15010KT 10SM CLR 27/19 A2992 1030 62 2700 150/10 RMK AO2 SLP134 T02720194 10272 20172 58001
14926KSTC STC20020906115509909/06/02 11:55:31  5-MIN KSTC 061755Z AUTO 16012KT 10SM CLR 27/19 A2992 1030 62 2600 150/12 RMK AO2
14926KSTC STC20020906120009909/06/02 12:00:31  5-MIN KSTC 061800Z AUTO 17013KT 10SM CLR 27/19 A2991 1030 60 2700 160/13 RMK AO2
14926KSTC STC20020906120509909/06/02 12:05:31  5-MIN KSTC 061805Z AUTO 17013KT 10SM CLR 27/19 A2991 1030 62 2700 170/13 RMK AO2
14926KSTC STC20020906121009909/06/02 12:10:31  5-MIN KSTC 061810Z AUTO 16011KT 10SM CLR 27/19 A2991 1030 62 2700 160/11 RMK AO2
14926KSTC STC20020906121509909/06/02 12:15:31  5-MIN KSTC 061815Z AUTO 16012KT 10SM CLR 27/19 A2991 1040 62 2700 160/12 RMK AO2
14926KSTC STC20020906122009909/06/02 12:20:31  5-MIN KSTC 061820Z AUTO 15012KT 10SM CLR 27/19 A2990 1040 62 2700 150/12 RMK AO2
14926KSTC STC20020906122509909/06/02 12:25:31  5-MIN KSTC 061825Z AUTO 14011KT 10SM CLR 27/19 A2990 1040 62 2700 140/11 RMK AO2
14926KSTC STC20020906123009909/06/02 12:30:31  5-MIN KSTC 061830Z AUTO 16011KT 10SM CLR 27/19 A2990 1040 62 2700 160/11 RMK AO2
14926KSTC STC20020906123509909/06/02 12:35:31  5-MIN KSTC 061835Z AUTO 15011KT 10SM CLR 27/19 A2990 1050 62 2700 150/11 RMK AO2
14926KSTC STC20020906124009909/06/02 12:40:31  5-MIN KSTC 061840Z AUTO 14013KT 10SM CLR 28/19 A2990 1050 60 2800 140/13 RMK AO2
14926KSTC STC20020906124509909/06/02 12:45:31  5-MIN KSTC 061845Z AUTO 15013KT 10SM CLR 28/19 A2990 1050 60 2800 150/13 RMK AO2
14926KSTC STC20020906125011609/06/02 12:50:31  5-MIN KSTC 061850Z AUTO 15011KT 10SM CLR 28/20 A2990 1050 62 2800 150/11 RMK AO2 SLP127 T02780200
14926KSTC STC20020906125510509/06/02 12:55:31  5-MIN KSTC 061855Z AUTO 16014G17KT 10SM CLR 28/19 A2990 1050 60 2800 150/14G17 RMK AO2
14926KSTC STC20020906130009909/06/02 13:00:31  5-MIN KSTC 061900Z AUTO 15014KT 10SM CLR 28/19 A2989 1050 60 2800 140/14 RMK AO2
14926KSTC STC20020906130509909/06/02 13:05:31  5-MIN KSTC 061905Z AUTO 15010KT 10SM CLR 28/20 A2989 1050 62 2800 150/10 RMK AO2
14926KSTC STC20020906131010509/06/02 13:10:31  5-MIN KSTC 061910Z AUTO 16011G17KT 10SM CLR 28/20 A2989 1050 62 2800 160/11G17 RMK AO2
14926KSTC STC20020906131509909/06/02 13:15:31  5-MIN KSTC 061915Z AUTO 16013KT 10SM CLR 28/20 A2989 1060 62 2800 160/13 RMK AO2
14926KSTC STC20020906132009909/06/02 13:20:31  5-MIN KSTC 061920Z AUTO 16014KT 10SM CLR 28/20 A2989 1060 62 2800 160/14 RMK AO2
14926KSTC STC20020906132509909/06/02 13:25:31  5-MIN KSTC 061925Z AUTO 16013KT 10SM CLR 28/20 A2989 1060 62 2800 160/13 RMK AO2
14926KSTC STC20020906133009909/06/02 13:30:31  5-MIN KSTC 061930Z AUTO 16009KT 10SM CLR 28/20 A2989 1060 62 2800 160/09 RMK AO2
14926KSTC STC20020906133510509/06/02 13:35:31  5-MIN KSTC 061935Z AUTO 16011G16KT 10SM CLR 28/21 A2989 1060 62 2900 160/11G16 RMK AO2
14926KSTC STC20020906134009909/06/02 13:40:31  5-MIN KSTC 061940Z AUTO 16014KT 10SM CLR 28/21 A2988 1060 62 2900 160/14 RMK AO2
14926KSTC STC20020906134509909/06/02 13:45:31  5-MIN KSTC 061945Z AUTO 15014KT 10SM CLR 28/20 A2988 1060 62 2800 150/14 RMK AO2
14926KSTC STC20020906135011609/06/02 13:50:31  5-MIN KSTC 061950Z AUTO 16011KT 10SM CLR 28/21 A2988 1060 62 2900 160/11 RMK AO2 SLP122 T02830206
14926KSTC STC20020906135509909/06/02 13:55:31  5-MIN KSTC 061955Z AUTO 15014KT 10SM CLR 28/21 A2988 1070 62 2900 150/14 RMK AO2
14926KSTC STC20020906140009909/06/02 14:00:31  5-MIN KSTC 062000Z AUTO 15014KT 10SM CLR 28/21 A2988 1070 62 2900 140/14 RMK AO2
14926KSTC STC20020906140509909/06/02 14:05:31  5-MIN KSTC 062005Z AUTO 15014KT 10SM CLR 28/21 A2987 1070 62 2900 150/14 RMK AO2
14926KSTC STC20020906141009909/06/02 14:10:31  5-MIN KSTC 062010Z AUTO 15014KT 10SM CLR 28/21 A2987 1070 62 2900 140/14 RMK AO2
14926KSTC STC20020906141509909/06/02 14:15:31  5-MIN KSTC 062015Z AUTO 15017KT 10SM CLR 28/21 A2987 1070 62 2900 150/17 RMK AO2
14926KSTC STC20020906142009909/06/02 14:20:31  5-MIN KSTC 062020Z AUTO 16012KT 10SM CLR 28/21 A2987 1070 62 2900 160/12 RMK AO2
14926KSTC STC20020906142509909/06/02 14:25:31  5-MIN KSTC 062025Z AUTO 14010KT 10SM CLR 29/21 A2987 1070 62 2900 140/10 RMK AO2
14926KSTC STC20020906143009909/06/02 14:30:31  5-MIN KSTC 062030Z AUTO 14014KT 10SM CLR 28/21 A2987 1070 62 2900 130/14 RMK AO2
14926KSTC STC20020906143510509/06/02 14:35:31  5-MIN KSTC 062035Z AUTO 15015G19KT 10SM CLR 28/21 A2987 1080 62 2900 150/15G19 RMK AO2
14926KSTC STC20020906144009909/06/02 14:40:31  5-MIN KSTC 062040Z AUTO 14013KT 10SM CLR 28/21 A2986 1080 62 2900 140/13 RMK AO2
14926KSTC STC20020906144509909/06/02 14:45:31  5-MIN KSTC 062045Z AUTO 15013KT 10SM CLR 28/21 A2986 1080 64 2900 140/13 RMK AO2
14926KSTC STC20020906145012809/06/02 14:50:31  5-MIN KSTC 062050Z AUTO 15015G20KT 10SM CLR 28/21 A2986 1080 64 2900 140/15G20 RMK AO2 SLP115 T02830211 58015
14926KSTC STC20020906145510509/06/02 14:55:31  5-MIN KSTC 062055Z AUTO 15015G20KT 10SM CLR 28/21 A2986 1080 64 2900 140/15G20 RMK AO2
14926KSTC STC20020906150009909/06/02 15:00:31  5-MIN KSTC 062100Z AUTO 14015KT 10SM CLR 28/21 A2986 1080 64 2900 140/15 RMK AO2
14926KSTC STC20020906150509909/06/02 15:05:31  5-MIN KSTC 062105Z AUTO 15012KT 10SM CLR 29/22 A2986 1080 64 3000 140/12 RMK AO2
14926KSTC STC20020906151009909/06/02 15:10:31  5-MIN KSTC 062110Z AUTO 15014KT 10SM CLR 29/21 A2986 1080 62 3000 150/14 RMK AO2
14926KSTC STC20020906151510509/06/02 15:15:31  5-MIN KSTC 062115Z AUTO 14013G17KT 10SM CLR 29/22 A2986 1080 64 3000 140/13G17 RMK AO2
14926KSTC STC20020906152009909/06/02 15:20:31  5-MIN KSTC 062120Z AUTO 15013KT 10SM CLR 29/21 A2986 1080 62 3000 150/13 RMK AO2
14926KSTC STC20020906152509909/06/02 15:25:31  5-MIN KSTC 062125Z AUTO 14012KT 10SM CLR 29/22 A2986 1080 64 3000 140/12 RMK AO2
14926KSTC STC20020906153009909/06/02 15:30:31  5-MIN KSTC 062130Z AUTO 15012KT 10SM CLR 29/22 A2986 1080 64 3000 150/12 RMK AO2
14926KSTC STC20020906153510509/06/02 15:35:31  5-MIN KSTC 062135Z AUTO 14015G18KT 10SM CLR 29/22 A2986 1080 64 3000 140/15G18 RMK AO2
14926KSTC STC20020906154010509/06/02 15:40:31  5-MIN KSTC 062140Z AUTO 14013G18KT 10SM CLR 29/22 A2986 1090 64 3000 140/13G18 RMK AO2
14926KSTC STC20020906154509909/06/02 15:45:31  5-MIN KSTC 062145Z AUTO 14013KT 10SM CLR 29/22 A2986 1080 64 3000 140/13 RMK AO2
14926KSTC STC20020906155011609/06/02 15:50:31  5-MIN KSTC 062150Z AUTO 14012KT 10SM CLR 29/22 A2986 1090 64 3000 140/12 RMK AO2 SLP113 T02890217
14926KSTC STC20020906155509909/06/02 15:55:31  5-MIN KSTC 062155Z AUTO 16013KT 10SM CLR 29/22 A2986 1080 64 3000 150/13 RMK AO2
14926KSTC STC20020906160010509/06/02 16:00:31  5-MIN KSTC 062200Z AUTO 15013G16KT 10SM CLR 29/22 A2985 1090 67 3000 150/13G16 RMK AO2
14926KSTC STC20020906160510509/06/02 16:05:31  5-MIN KSTC 062205Z AUTO 14013G16KT 10SM CLR 29/22 A2985 1090 64 3000 140/13G16 RMK AO2
14926KSTC STC20020906161009909/06/02 16:10:31  5-MIN KSTC 062210Z AUTO 15010KT 10SM CLR 29/22 A2985 1090 67 3000 150/10 RMK AO2
14926KSTC STC20020906161509909/06/02 16:15:31  5-MIN KSTC 062215Z AUTO 15012KT 10SM CLR 29/22 A2985 1090 67 3000 150/12 RMK AO2
14926KSTC STC20020906162009909/06/02 16:20:31  5-MIN KSTC 062220Z AUTO 14012KT 10SM CLR 29/22 A2985 1090 64 3000 130/12 RMK AO2
14926KSTC STC20020906162509909/06/02 16:25:31  5-MIN KSTC 062225Z AUTO 15009KT 10SM CLR 29/22 A2985 1090 67 3000 150/09 RMK AO2
14926KSTC STC20020906163009909/06/02 16:30:31  5-MIN KSTC 062230Z AUTO 15010KT 10SM CLR 29/22 A2985 1090 67 3000 150/10 RMK AO2
14926KSTC STC20020906163509909/06/02 16:35:31  5-MIN KSTC 062235Z AUTO 14009KT 10SM CLR 29/22 A2985 1090 67 3000 140/09 RMK AO2
14926KSTC STC20020906164009909/06/02 16:40:31  5-MIN KSTC 062240Z AUTO 15009KT 10SM CLR 29/22 A2985 1090 67 3000 150/09 RMK AO2
14926KSTC STC20020906164509909/06/02 16:45:31  5-MIN KSTC 062245Z AUTO 14008KT 10SM CLR 28/23 A2985 1090 71 2900 140/08 RMK AO2
14926KSTC STC20020906165011609/06/02 16:50:31  5-MIN KSTC 062250Z AUTO 15008KT 10SM CLR 28/23 A2985 1090 71 2900 150/08 RMK AO2 SLP112 T02830228
14926KSTC STC20020906165510509/06/02 16:55:31  5-MIN KSTC 062255Z AUTO 16012G16KT 10SM CLR 28/22 A2985 1090 69 2900 160/12G16 RMK AO2
14926KSTC STC20020906170010509/06/02 17:00:31  5-MIN KSTC 062300Z AUTO 16012G16KT 10SM CLR 28/22 A2985 1090 66 2900 150/12G16 RMK AO2
14926KSTC STC20020906170509909/06/02 17:05:31  5-MIN KSTC 062305Z AUTO 15010KT 10SM CLR 28/22 A2985 1090 69 2900 150/10 RMK AO2
14926KSTC STC20020906171009909/06/02 17:10:31  5-MIN KSTC 062310Z AUTO 15009KT 10SM CLR 28/22 A2985 1090 69 2900 150/09 RMK AO2
14926KSTC STC20020906171509909/06/02 17:15:31  5-MIN KSTC 062315Z AUTO 15010KT 10SM CLR 28/22 A2985 1090 69 2900 140/10 RMK AO2
14926KSTC STC20020906172009909/06/02 17:20:31  5-MIN KSTC 062320Z AUTO 14008KT 10SM CLR 28/22 A2985 1090 69 2900 140/08 RMK AO2
14926KSTC STC20020906172509909/06/02 17:25:31  5-MIN KSTC 062325Z AUTO 15008KT 10SM CLR 28/22 A2985 1090 71 2800 150/08 RMK AO2
14926KSTC STC20020906173009909/06/02 17:30:31  5-MIN KSTC 062330Z AUTO 14009KT 10SM CLR 28/22 A2985 1090 71 2800 140/09 RMK AO2
14926KSTC STC20020906173509909/06/02 17:35:31  5-MIN KSTC 062335Z AUTO 14008KT 10SM CLR 28/22 A2985 1090 71 2800 140/08 RMK AO2
14926KSTC STC20020906174009909/06/02 17:40:31  5-MIN KSTC 062340Z AUTO 15009KT 10SM CLR 28/22 A2985 1090 71 2800 140/09 RMK AO2
14926KSTC STC20020906174509909/06/02 17:45:31  5-MIN KSTC 062345Z AUTO 15008KT 10SM CLR 27/22 A2985 1090 74 2800 140/08 RMK AO2
14926KSTC STC20020906175013409/06/02 17:50:31  5-MIN KSTC 062350Z AUTO 15009KT 10SM CLR 27/22 A2986 1090 74 2800 140/09 RMK AO2 SLP113 T02720222 10289 20267 57019
14926KSTC STC20020906175509909/06/02 17:55:31  5-MIN KSTC 062355Z AUTO 14007KT 10SM CLR 27/22 A2985 1090 74 2800 140/07 RMK AO2
14926KSTC STC20020906180009909/06/02 18:00:31  5-MIN KSTC 070000Z AUTO 14008KT 10SM CLR 27/22 A2985 1090 76 2700 140/08 RMK AO2
14926KSTC STC20020906180509909/06/02 18:05:31  5-MIN KSTC 070005Z AUTO 14008KT 10SM CLR 27/22 A2985 1090 76 2700 140/08 RMK AO2
14926KSTC STC20020906181009909/06/02 18:10:31  5-MIN KSTC 070010Z AUTO 14009KT 10SM CLR 27/22 A2985 1090 76 2700 130/09 RMK AO2
14926KSTC STC20020906181509909/06/02 18:15:31  5-MIN KSTC 070015Z AUTO 14008KT 10SM CLR 27/22 A2985 1090 76 2700 140/08 RMK AO2
14926KSTC STC20020906182009909/06/02 18:20:31  5-MIN KSTC 070020Z AUTO 14008KT 10SM CLR 26/22 A2985 1090 79 2700 140/08 RMK AO2
14926KSTC STC20020906182509909/06/02 18:25:31  5-MIN KSTC 070025Z AUTO 14008KT 10SM CLR 26/22 A2985 1090 79 2700 140/08 RMK AO2
14926KSTC STC20020906183009909/06/02 18:30:31  5-MIN KSTC 070030Z AUTO 14007KT 10SM CLR 26/22 A2986 1090 79 2700 140/07 RMK AO2
14926KSTC STC20020909020010109/09/02 02:00:31  5-MIN KSTC 090800Z AUTO 19007KT 10SM SCT090 23/19 A3000 950 78 2100 190/07 RMK AO2
14926KSTC STC20020909020510109/09/02 02:05:31  5-MIN KSTC 090805Z AUTO 19008KT 10SM SCT090 23/19 A3000 950 78 2100 180/08 RMK AO2
14926KSTC STC20020909021010109/09/02 02:10:31  5-MIN KSTC 090810Z AUTO 18007KT 10SM BKN090 23/19 A3000 950 78 2100 180/07 RMK AO2
14926KSTC STC20020909021510109/09/02 02:15:31  5-MIN KSTC 090815Z AUTO 18007KT 10SM BKN090 23/19 A3000 950 78 2100 180/07 RMK AO2
14926KSTC STC20020909022010109/09/02 02:20:31  5-MIN KSTC 090820Z AUTO 18006KT 10SM BKN090 23/19 A3000 960 78 2100 180/06 RMK AO2
14926KSTC STC20020909022510109/09/02 02:25:31  5-MIN KSTC 090825Z AUTO 19007KT 10SM BKN090 23/19 A3000 960 78 2100 190/07 RMK AO2
14926KSTC STC20020909023010109/09/02 02:30:31  5-MIN KSTC 090830Z AUTO 19007KT 10SM BKN090 23/19 A3000 960 78 2100 190/07 RMK AO2
14926KSTC STC20020909023510809/09/02 02:35:31  5-MIN KSTC 090835Z AUTO 19009KT 10SM BKN090 OVC110 23/19 A3000 960 78 2100 190/09 RMK AO2
14926KSTC STC20020909024010809/09/02 02:40:31  5-MIN KSTC 090840Z AUTO 19009KT 10SM BKN090 BKN110 23/19 A2999 960 78 2100 190/09 RMK AO2
14926KSTC STC20020909024510809/09/02 02:45:31  5-MIN KSTC 090845Z AUTO 19009KT 10SM BKN090 BKN110 23/19 A2999 960 78 2100 190/09 RMK AO2
14926KSTC STC20020909025013109/09/02 02:50:31  5-MIN KSTC 090850Z AUTO 19008KT 10SM SCT090 BKN110 23/19 A2999 960 78 2100 190/08 RMK AO2 SLP156 T02280189 50002
14926KSTC STC20020909025510809/09/02 02:55:31  5-MIN KSTC 090855Z AUTO 20007KT 10SM SCT090 SCT110 22/19 A2999 960 81 2100 190/07 RMK AO2
14926KSTC STC20020909030010109/09/02 03:00:31  5-MIN KSTC 090900Z AUTO 19007KT 10SM FEW090 22/19 A2999 960 81 2100 190/07 RMK AO2
14926KSTC STC20020909030510109/09/02 03:05:31  5-MIN KSTC 090905Z AUTO 19008KT 10SM FEW090 22/19 A2999 960 81 2100 190/08 RMK AO2
14926KSTC STC20020909031009809/09/02 03:10:31  5-MIN KSTC 090910Z AUTO 19008KT 10SM CLR 22/19 A2999 960 81 2100 190/08 RMK AO2
14926KSTC STC20020909031509809/09/02 03:15:31  5-MIN KSTC 090915Z AUTO 19008KT 10SM CLR 22/19 A2999 960 81 2100 190/08 RMK AO2
14926KSTC STC20020909032009809/09/02 03:20:31  5-MIN KSTC 090920Z AUTO 20007KT 10SM CLR 22/19 A3000 960 81 2100 190/07 RMK AO2
14926KSTC STC20020909032510109/09/02 03:25:31  5-MIN KSTC 090925Z AUTO 21006KT 10SM FEW090 22/19 A3000 960 81 2100 200/06 RMK AO2
14926KSTC STC20020909033010109/09/02 03:30:31  5-MIN KSTC 090930Z AUTO 20006KT 10SM FEW090 22/19 A2999 960 84 2000 200/06 RMK AO2
14926KSTC STC20020909033509809/09/02 03:35:31  5-MIN KSTC 090935Z AUTO 19006KT 10SM CLR 22/19 A2999 960 84 2000 190/06 RMK AO2
14926KSTC STC20020909034009809/09/02 03:40:31  5-MIN KSTC 090940Z AUTO 20006KT 10SM CLR 22/19 A2999 960 84 2000 190/06 RMK AO2
14926KSTC STC20020909034509809/09/02 03:45:31  5-MIN KSTC 090945Z AUTO 20007KT 10SM CLR 22/19 A2999 960 84 2000 200/07 RMK AO2
14926KSTC STC20020909035011509/09/02 03:50:31  5-MIN KSTC 090950Z AUTO 20008KT 10SM CLR 22/19 A2999 960 81 2100 200/08 RMK AO2 SLP156 T02220189
14926KSTC STC20020909035510109/09/02 03:55:31  5-MIN KSTC 090955Z AUTO 20008KT 10SM FEW095 22/18 A2999 960 78 2100 200/08 RMK AO2
14926KSTC STC20020909040010109/09/02 04:00:31  5-MIN KSTC 091000Z AUTO 20008KT 10SM FEW100 22/18 A2999 960 78 2100 200/08 RMK AO2
14926KSTC STC20020909040510109/09/02 04:05:31  5-MIN KSTC 091005Z AUTO 20008KT 10SM FEW100 22/18 A2999 960 78 2100 200/08 RMK AO2
14926KSTC STC20020909041010109/09/02 04:10:31  5-MIN KSTC 091010Z AUTO 21007KT 10SM FEW100 22/18 A2999 960 78 2100 210/07 RMK AO2
14926KSTC STC20020909041510109/09/02 04:15:31  5-MIN KSTC 091015Z AUTO 21007KT 10SM FEW100 22/18 A2999 960 78 2100 210/07 RMK AO2
14926KSTC STC20020909042010109/09/02 04:20:31  5-MIN KSTC 091020Z AUTO 21007KT 10SM FEW100 22/18 A2999 960 81 2000 210/07 RMK AO2
14926KSTC STC20020909042510109/09/02 04:25:31  5-MIN KSTC 091025Z AUTO 21007KT 10SM FEW100 22/18 A2999 960 81 2000 210/07 RMK AO2
14926KSTC STC20020909043010109/09/02 04:30:31  5-MIN KSTC 091030Z AUTO 21006KT 10SM FEW095 22/18 A2999 960 81 2000 210/06 RMK AO2
14926KSTC STC20020909043510109/09/02 04:35:31  5-MIN KSTC 091035Z AUTO 22006KT 10SM FEW095 22/18 A2999 960 81 2000 210/06 RMK AO2
14926KSTC STC20020909044010109/09/02 04:40:31  5-MIN KSTC 091040Z AUTO 21005KT 10SM FEW100 22/18 A2999 960 81 2000 210/05 RMK AO2
14926KSTC STC20020909044511009/09/02 04:45:31  5-MIN KSTC 091045Z AUTO 20006KT 10SM TS SCT110 22/19 A2999 960 84 2000 200/06 RMK AO2 TSB43
14926KSTC STC20020909045012709/09/02 04:50:31  5-MIN KSTC 091050Z AUTO 21006KT 10SM TS BKN110 22/19 A2999 960 84 2000 210/06 RMK AO2 TSB43 SLP156 T02170189
14926KSTC STC20020909045510409/09/02 04:55:31  5-MIN KSTC 091055Z AUTO 20006KT 10SM TS BKN110 22/19 A2999 960 84 2000 200/06 RMK AO2
14926KSTC STC20020909050010409/09/02 05:00:31  5-MIN KSTC 091100Z AUTO 20006KT 10SM TS BKN110 22/19 A2999 960 84 2000 200/06 RMK AO2
14926KSTC STC20020909050511109/09/02 05:05:31  5-MIN KSTC 091105Z AUTO 20007KT 10SM TS SCT100 BKN120 22/19 A2999 960 84 2000 200/07 RMK AO2
14926KSTC STC20020909051011109/09/02 05:10:31  5-MIN KSTC 091110Z AUTO 20007KT 10SM TS SCT090 BKN110 22/19 A3000 960 84 2000 200/07 RMK AO2
14926KSTC STC20020909051511109/09/02 05:15:31  5-MIN KSTC 091115Z AUTO 21005KT 10SM TS SCT090 BKN110 22/19 A3000 950 84 2000 210/05 RMK AO2
14926KSTC STC20020909052011409/09/02 05:20:31  5-MIN KSTC 091120Z AUTO 21006KT 10SM SCT090 BKN110 22/19 A3000 950 84 2000 210/06 RMK AO2 TSE17
14926KSTC STC20020909052512009/09/02 05:25:31  5-MIN KSTC 091125Z AUTO 17005KT 10SM TS FEW090 SCT110 22/19 A3000 950 84 2000 170/05 RMK AO2 TSE17B24
14926KSTC STC20020909053012009/09/02 05:30:31  5-MIN KSTC 091130Z AUTO 18008KT 10SM TS FEW090 SCT110 22/19 A3001 950 84 2000 180/08 RMK AO2 TSE17B24
14926KSTC STC20020909053512009/09/02 05:35:31  5-MIN KSTC 091135Z AUTO 18007KT 10SM TS FEW095 SCT110 22/19 A3001 950 81 2000 180/07 RMK AO2 TSE17B24
14926KSTC STC20020909054012009/09/02 05:40:31  5-MIN KSTC 091140Z AUTO 17006KT 10SM TS FEW095 SCT110 22/19 A3001 950 81 2000 170/06 RMK AO2 TSE17B24
14926KSTC STC20020909054511309/09/02 05:45:31  5-MIN KSTC 091145Z AUTO 20008KT 10SM TS FEW110 22/19 A3000 950 81 2000 190/08 RMK AO2 TSE17B24
14926KSTC STC20020909055014809/09/02 05:50:31  5-MIN KSTC 091150Z AUTO 18007KT 10SM TS FEW100 22/19 A3000 950 81 2000 180/07 RMK AO2 TSE17B24 SLP161 T02220189 10239 20217 58006
14926KSTC STC20020909055510409/09/02 05:55:31  5-MIN KSTC 091155Z AUTO 19007KT 10SM TS FEW100 22/19 A3000 950 81 2000 180/07 RMK AO2
14926KSTC STC20020909060010409/09/02 06:00:31  5-MIN KSTC 091200Z AUTO 18007KT 10SM TS FEW110 22/19 A3000 950 81 2000 180/07 RMK AO2
14926KSTC STC20020909060510109/09/02 06:05:31  5-MIN KSTC 091205Z AUTO 19008KT 10SM TS CLR 22/19 A3000 950 81 2000 180/08 RMK AO2
14926KSTC STC20020909061010109/09/02 06:10:31  5-MIN KSTC 091210Z AUTO 19007KT 10SM TS CLR 22/19 A3001 950 81 2000 180/07 RMK AO2
14926KSTC STC20020909061510409/09/02 06:15:31  5-MIN KSTC 091215Z AUTO 19007KT 10SM CLR 22/19 A3001 940 81 2000 190/07 RMK AO2 TSE11
14926KSTC STC20020909062010409/09/02 06:20:31  5-MIN KSTC 091220Z AUTO 19006KT 10SM CLR 23/19 A3001 940 78 2100 190/06 RMK AO2 TSE11
14926KSTC STC20020909062510409/09/02 06:25:31  5-MIN KSTC 091225Z AUTO 18005KT 10SM CLR 23/19 A3001 940 78 2100 170/05 RMK AO2 TSE11
14926KSTC STC20020909063010409/09/02 06:30:31  5-MIN KSTC 091230Z AUTO 21007KT 10SM CLR 23/19 A3002 940 78 2100 200/07 RMK AO2 TSE11
14926KSTC STC20020909063512009/09/02 06:35:31  5-MIN KSTC 091235Z AUTO 21009KT 170V250 10SM CLR 23/18 A3002 930 76 2100 210/09 170V250 RMK AO2 TSE11
14926KSTC STC20020909064010409/09/02 06:40:31  5-MIN KSTC 091240Z AUTO 18006KT 10SM CLR 23/18 A3002 930 76 2100 180/06 RMK AO2 TSE11
14926KSTC STC20020909064510709/09/02 06:45:31  5-MIN KSTC 091245Z AUTO VRB05KT 10SM FEW095 23/18 A3002 930 76 2100 VRB/05 RMK AO2 TSE11
14926KSTC STC20020909065012409/09/02 06:50:31  5-MIN KSTC 091250Z AUTO 25006KT 10SM SCT100 23/18 A3002 930 73 2100 240/06 RMK AO2 TSE11 SLP169 T02330183
14926KSTC STC20020909065511009/09/02 06:55:31  5-MIN KSTC 091255Z AUTO 25007KT 10SM TS SCT100 23/18 A3002 930 73 2200 250/07 RMK AO2 TSB54
14926KSTC STC20020909070011209/09/02 07:00:31  5-MIN KSTC 091300Z AUTO 26006KT 10SM TS SCT100 23/18 A3003 930 73 2100 250/06 RMK AO2 TSB1254
14926KSTC STC20020909070511209/09/02 07:05:31  5-MIN KSTC 091305Z AUTO 27003KT 10SM TS SCT100 23/19 A3002 940 78 2100 270/03 RMK AO2 TSB1254
14926KSTC STC20020909071011209/09/02 07:10:31  5-MIN KSTC 091310Z AUTO 27005KT 10SM TS FEW100 23/19 A3002 930 78 2100 260/05 RMK AO2 TSB1254
14926KSTC STC20020909071512609/09/02 07:15:31  5-MIN KSTC 091315Z AUTO 26004KT 10SM -TSRA FEW100 23/19 A3002 940 78 2100 250/04 RMK AO2 TSB1254RAB12 P0000
14926KSTC STC20020909072012609/09/02 07:20:31  5-MIN KSTC 091320Z AUTO 31003KT 10SM -TSRA FEW100 22/19 A3002 940 81 2000 310/03 RMK AO2 TSB1254RAB12 P0000
14926KSTC STC20020909072512609/09/02 07:25:31  5-MIN KSTC 091325Z AUTO 00000KT 10SM -TSRA FEW110 22/19 A3002 940 87 2000 000/00 RMK AO2 TSB1254RAB12 P0001
14926KSTC STC20020909073012209/09/02 07:30:31  5-MIN KSTC 091330Z AUTO 00000KT 9SM -TSRA CLR 22/19 A3002 940 87 2000 000/00 RMK AO2 TSB1254RAB12 P0001
14926KSTC STC20020909073512309/09/02 07:35:31  5-MIN KSTC 091335Z AUTO 00000KT 9SM -RA CLR 22/19 A3002 940 87 2000 000/00 RMK AO2 TSB1254E34RAB12 P0002
14926KSTC STC20020909074012409/09/02 07:40:31  5-MIN KSTC 091340Z AUTO 00000KT 10SM -RA CLR 22/21 A3003 930 93 2000 000/00 RMK AO2 TSB1254E34RAB12 P0002
14926KSTC STC20020909074512409/09/02 07:45:31  5-MIN KSTC 091345Z AUTO 27003KT 10SM -RA CLR 21/21 A3003 920 97 1900 260/03 RMK AO2 TSB1254E34RAB12 P0002
14926KSTC STC20020909075014109/09/02 07:50:31  5-MIN KSTC 091350Z AUTO VRB04KT 10SM -RA CLR 21/21 A3002 930 97 1900 VRB/04 RMK AO2 TSB1254E34RAB12 SLP170 P0003 T02110206
14926KSTC STC20020909075510809/09/02 07:55:31  5-MIN KSTC 091355Z AUTO 01004KT 10SM -RA CLR 22/20 A3002 940 90 2000 010/04 RMK AO2 P0000
14926KSTC STC20020909080010809/09/02 08:00:31  5-MIN KSTC 091400Z AUTO 34004KT 10SM -RA CLR 22/20 A3002 930 90 2000 340/04 RMK AO2 P0000
14926KSTC STC20020909080511009/09/02 08:05:31  5-MIN KSTC 091405Z AUTO 27003KT 10SM CLR 21/20 A3003 930 93 1900 270/03 RMK AO2 RAE03 P0000
14926KSTC STC20020909081011009/09/02 08:10:31  5-MIN KSTC 091410Z AUTO 21004KT 10SM CLR 22/20 A3003 920 90 1900 200/04 RMK AO2 RAE03 P0000
14926KSTC STC20020909081511009/09/02 08:15:31  5-MIN KSTC 091415Z AUTO 18005KT 10SM CLR 22/21 A3003 920 93 2000 170/05 RMK AO2 RAE03 P0000
14926KSTC STC20020909082011009/09/02 08:20:31  5-MIN KSTC 091420Z AUTO 19004KT 10SM CLR 22/20 A3003 920 90 1900 180/04 RMK AO2 RAE03 P0000
14926KSTC STC20020909082511009/09/02 08:25:31  5-MIN KSTC 091425Z AUTO 21004KT 10SM CLR 22/21 A3004 920 93 1900 200/04 RMK AO2 RAE03 P0000
14926KSTC STC20020909083011009/09/02 08:30:31  5-MIN KSTC 091430Z AUTO 19008KT 10SM CLR 22/21 A3005 910 93 1900 190/08 RMK AO2 RAE03 P0000
14926KSTC STC20020909083512009/09/02 08:35:31  5-MIN KSTC 091435Z AUTO 23010KT 10SM -RA FEW015 22/21 A3005 910 93 1900 220/10 RMK AO2 RAE03B35 P0000
14926KSTC STC20020909084012709/09/02 08:40:31  5-MIN KSTC 091440Z AUTO 24009KT 10SM -RA FEW015 SCT025 22/21 A3005 910 93 1900 240/09 RMK AO2 RAE03B35 P0000
14926KSTC STC20020909084513309/09/02 08:45:31  5-MIN KSTC 091445Z AUTO 26007KT 8SM -TSRA SCT017 BKN025 21/21 A3004 910 97 1900 260/07 RMK AO2 TSB43RAE03B35 P0001
14926KSTC STC20020909085016209/09/02 08:50:31  5-MIN KSTC 091450Z AUTO 26005KT 7SM -TSRA SCT015 BKN025 21/20 A3004 910 93 1900 260/05 RMK AO2 TSB43RAE03B35 SLP176 P0001 60004 T02110200 53005
14926KSTC STC20020909085511909/09/02 08:55:31  5-MIN KSTC 091455Z AUTO 29004KT 9SM -TSRA BKN013 BKN025 22/21 A3004 920 93 1900 290/04 RMK AO2 P0001
14926KSTC STC20020909090012009/09/02 09:00:31  5-MIN KSTC 091500Z AUTO 25004KT 10SM -TSRA SCT013 BKN025 22/21 A3004 920 93 1900 250/04 RMK AO2 P0001
14926KSTC STC20020909090512309/09/02 09:05:31  5-MIN KSTC 091505Z AUTO 28004KT 10SM TS SCT013 SCT025 22/21 A3004 910 93 1900 280/04 RMK AO2 RAE05 P0001
14926KSTC STC20020909091012309/09/02 09:10:31  5-MIN KSTC 091510Z AUTO VRB03KT 10SM TS FEW013 SCT100 22/21 A3004 920 93 1900 VRB/03 RMK AO2 RAE05 P0001
14926KSTC STC20020909091512309/09/02 09:15:31  5-MIN KSTC 091515Z AUTO 00000KT 10SM TS SCT021 SCT100 22/20 A3003 920 90 2000 000/00 RMK AO2 RAE05 P0001
14926KSTC STC20020909092012009/09/02 09:20:31  5-MIN KSTC 091520Z AUTO 33004KT 10SM -TSRA FEW021 SCT100 22/20 A3002 930 90 2000 330/04 RMK AO2 P0001
14926KSTC STC20020909092512009/09/02 09:25:31  5-MIN KSTC 091525Z AUTO 35006KT 10SM -TSRA FEW033 22/20 A3002 940 90 2000 340/06 RMK AO2 PRESFR P0001
14926KSTC STC20020909093011609/09/02 09:30:31  5-MIN KSTC 091530Z AUTO 34006KT 10SM TS SCT043 21/20 A3002 940 93 1900 340/06 RMK AO2 RAE28 P0001
14926KSTC STC20020909093511309/09/02 09:35:31  5-MIN KSTC 091535Z AUTO 36006KT 10SM -TSRA SCT043 21/20 A3001 940 93 1900 360/06 RMK AO2 P0001
14926KSTC STC20020909094011709/09/02 09:40:31  5-MIN KSTC 091540Z AUTO 05004KT 10SM -RA FEW041 22/21 A3001 950 93 2000 050/04 RMK AO2 TSE38 P0001
14926KSTC STC20020909094511709/09/02 09:45:31  5-MIN KSTC 091545Z AUTO 00000KT 10SM -RA FEW043 22/21 A3002 930 93 2000 000/00 RMK AO2 TSE38 P0001
14926KSTC STC20020909095013509/09/02 09:50:31  5-MIN KSTC 091550Z AUTO 00000KT 10SM FEW050 22/21 A3003 930 90 2000 000/00 RMK AO2 TSE38RAE48 SLP171 P0001 T02220206
14926KSTC STC20020909095510109/09/02 09:55:31  5-MIN KSTC 091555Z AUTO VRB03KT 10SM FEW050 22/21 A3003 930 90 2000 VRB/03 RMK AO2
14926KSTC STC20020909100009809/09/02 10:00:31  5-MIN KSTC 091600Z AUTO 22004KT 10SM CLR 22/21 A3003 920 90 2000 220/04 RMK AO2
14926KSTC STC20020909100510109/09/02 10:05:31  5-MIN KSTC 091605Z AUTO VRB03KT 10SM FEW009 22/21 A3003 920 90 2000 VRB/03 RMK AO2
14926KSTC STC20020909101010109/09/02 10:10:31  5-MIN KSTC 091610Z AUTO 21004KT 10SM SCT009 23/21 A3003 920 90 2100 210/04 RMK AO2
14926KSTC STC20020909101510109/09/02 10:15:31  5-MIN KSTC 091615Z AUTO 20006KT 10SM BKN009 23/21 A3003 920 90 2100 190/06 RMK AO2
14926KSTC STC20020909102012009/09/02 10:20:31  5-MIN KSTC 091620Z AUTO 22005KT 10SM BKN009 BKN013 23/21 A3004 920 90 2100 220/05 RMK AO2 CIG 008V012
14926KSTC STC20020909102512009/09/02 10:25:31  5-MIN KSTC 091625Z AUTO 21005KT 10SM BKN009 BKN013 23/21 A3004 920 90 2100 210/05 RMK AO2 CIG 008V012
14926KSTC STC20020909103010809/09/02 10:30:31  5-MIN KSTC 091630Z AUTO 25004KT 10SM BKN009 OVC014 23/21 A3004 920 90 2100 240/04 RMK AO2
14926KSTC STC20020909103510809/09/02 10:35:31  5-MIN KSTC 091635Z AUTO 23004KT 10SM BKN009 OVC014 23/21 A3004 920 87 2100 220/04 RMK AO2
14926KSTC STC20020909104011309/09/02 10:40:31  5-MIN KSTC 091640Z AUTO 21003KT 10SM OVC009 23/21 A3004 910 87 2100 210/03 RMK AO2 CIG 008V013
14926KSTC STC20020909104511309/09/02 10:45:31  5-MIN KSTC 091645Z AUTO 25007KT 10SM OVC009 23/21 A3005 910 90 2100 250/07 RMK AO2 CIG 009V013
14926KSTC STC20020909105013709/09/02 10:50:31  5-MIN KSTC 091650Z AUTO 26007KT 10SM BKN009 OVC015 23/21 A3005 910 87 2100 250/07 RMK AO2 CIG 009V014 SLP177 T02330211
14926KSTC STC20020909105512009/09/02 10:55:31  5-MIN KSTC 091655Z AUTO 25007KT 10SM BKN009 OVC017 23/21 A3005 910 87 2100 250/07 RMK AO2 CIG 009V014
14926KSTC STC20020909110012009/09/02 11:00:31  5-MIN KSTC 091700Z AUTO 26007KT 10SM BKN011 OVC017 23/21 A3005 910 87 2100 260/07 RMK AO2 CIG 009V013
14926KSTC STC20020909110511509/09/02 11:05:31  5-MIN KSTC 091705Z AUTO 26009KT 10SM SCT011 BKN017 OVC022 23/21 A3005 900 87 2100 260/09 RMK AO2
14926KSTC STC20020909111011509/09/02 11:10:31  5-MIN KSTC 091710Z AUTO 25009KT 10SM FEW011 SCT014 OVC020 23/21 A3005 900 87 2100 240/09 RMK AO2
14926KSTC STC20020909111511509/09/02 11:15:31  5-MIN KSTC 091715Z AUTO 26008KT 10SM FEW011 SCT016 BKN022 24/21 A3005 910 84 2200 260/08 RMK AO2
14926KSTC STC20020909112010809/09/02 11:20:31  5-MIN KSTC 091720Z AUTO 26007KT 10SM FEW011 BKN020 24/21 A3005 910 81 2200 260/07 RMK AO2
14926KSTC STC20020909112510809/09/02 11:25:31  5-MIN KSTC 091725Z AUTO 24009KT 10SM FEW011 SCT020 24/21 A3005 910 81 2200 240/09 RMK AO2
14926KSTC STC20020909113011509/09/02 11:30:31  5-MIN KSTC 091730Z AUTO 24009KT 10SM FEW012 SCT020 SCT026 23/21 A3005 900 84 2100 240/09 RMK AO2
14926KSTC STC20020909113510109/09/02 11:35:31  5-MIN KSTC 091735Z AUTO 24008KT 10SM SCT024 24/21 A3005 900 81 2200 240/08 RMK AO2
14926KSTC STC20020909114011509/09/02 11:40:31  5-MIN KSTC 091740Z AUTO 22008KT 10SM FEW014 SCT024 BKN029 24/21 A3005 910 81 2200 220/08 RMK AO2
14926KSTC STC20020909114510809/09/02 11:45:31  5-MIN KSTC 091745Z AUTO 23007KT 10SM FEW014 BKN026 24/21 A3005 910 81 2200 230/07 RMK AO2
14926KSTC STC20020909115014909/09/02 11:50:31  5-MIN KSTC 091750Z AUTO VRB03KT 10SM SCT014 BKN024 24/21 A3005 910 81 2200 VRB/03 RMK AO2 SLP177 60005 T02390206 10239 20211 51011
14926KSTC STC20020909115510809/09/02 11:55:31  5-MIN KSTC 091755Z AUTO 24005KT 10SM SCT016 BKN024 24/21 A3004 910 78 2300 240/05 RMK AO2
14926KSTC STC20020909120011509/09/02 12:00:31  5-MIN KSTC 091800Z AUTO 24006KT 10SM SCT016 BKN024 BKN028 24/21 A3004 910 78 2300 240/06 RMK AO2
14926KSTC STC20020909120510809/09/02 12:05:31  5-MIN KSTC 091805Z AUTO 19004KT 10SM SCT016 BKN024 25/21 A3004 910 76 2300 190/04 RMK AO2
14926KSTC STC20020909121010809/09/02 12:10:31  5-MIN KSTC 091810Z AUTO 20005KT 10SM SCT016 BKN024 25/21 A3004 910 79 2300 190/05 RMK AO2
14926KSTC STC20020909121510109/09/02 12:15:31  5-MIN KSTC 091815Z AUTO 23005KT 10SM SCT016 25/21 A3004 910 79 2300 230/05 RMK AO2
14926KSTC STC20020909122010109/09/02 12:20:31  5-MIN KSTC 091820Z AUTO 00000KT 10SM BKN018 25/21 A3004 920 76 2300 000/00 RMK AO2
14926KSTC STC20020909122510109/09/02 12:25:31  5-MIN KSTC 091825Z AUTO VRB03KT 10SM SCT018 25/21 A3004 920 76 2300 VRB/03 RMK AO2
14926KSTC STC20020909123010109/09/02 12:30:31  5-MIN KSTC 091830Z AUTO VRB05KT 10SM SCT018 25/21 A3004 920 76 2300 VRB/05 RMK AO2
14926KSTC STC20020909123510109/09/02 12:35:31  5-MIN KSTC 091835Z AUTO 00000KT 10SM SCT018 25/21 A3003 920 76 2300 000/00 RMK AO2
14926KSTC STC20020909124010109/09/02 12:40:31  5-MIN KSTC 091840Z AUTO 17005KT 10SM FEW018 26/21 A3004 920 73 2400 170/05 RMK AO2
14926KSTC STC20020909124510109/09/02 12:45:31  5-MIN KSTC 091845Z AUTO 19005KT 10SM FEW018 26/21 A3003 920 73 2400 180/05 RMK AO2
14926KSTC STC20020909125011809/09/02 12:50:31  5-MIN KSTC 091850Z AUTO 17006KT 10SM FEW018 26/21 A3003 920 73 2400 170/06 RMK AO2 SLP172 T02560206
14926KSTC STC20020909125509809/09/02 12:55:31  5-MIN KSTC 091855Z AUTO VRB03KT 10SM CLR 26/21 A3004 920 71 2500 VRB/03 RMK AO2
14926KSTC STC20020909130009809/09/02 13:00:31  5-MIN KSTC 091900Z AUTO 00000KT 10SM CLR 26/21 A3003 920 73 2400 000/00 RMK AO2
14926KSTC STC20020909130509809/09/02 13:05:31  5-MIN KSTC 091905Z AUTO VRB03KT 10SM CLR 26/21 A3003 920 71 2500 VRB/03 RMK AO2
14926KSTC STC20020909131009809/09/02 13:10:31  5-MIN KSTC 091910Z AUTO 00000KT 10SM CLR 26/21 A3003 930 71 2500 000/00 RMK AO2
14926KSTC STC20020909131509809/09/02 13:15:31  5-MIN KSTC 091915Z AUTO 00000KT 10SM CLR 26/20 A3003 930 68 2500 000/00 RMK AO2
14926KSTC STC20020909132009809/09/02 13:20:31  5-MIN KSTC 091920Z AUTO 00000KT 10SM CLR 26/20 A3003 930 68 2500 000/00 RMK AO2
14926KSTC STC20020909132509809/09/02 13:25:31  5-MIN KSTC 091925Z AUTO 00000KT 10SM CLR 27/20 A3003 930 66 2500 000/00 RMK AO2
14926KSTC STC20020909133009809/09/02 13:30:31  5-MIN KSTC 091930Z AUTO 00000KT 10SM CLR 27/20 A3003 930 66 2500 000/00 RMK AO2
14926KSTC STC20020909133509809/09/02 13:35:31  5-MIN KSTC 091935Z AUTO VRB04KT 10SM CLR 27/20 A3003 920 66 2500 VRB/04 RMK AO2
14926KSTC STC20020909134009809/09/02 13:40:31  5-MIN KSTC 091940Z AUTO VRB04KT 10SM CLR 27/20 A3003 920 66 2500 VRB/04 RMK AO2
14926KSTC STC20020909134509809/09/02 13:45:31  5-MIN KSTC 091945Z AUTO 23005KT 10SM CLR 27/21 A3003 920 69 2500 230/05 RMK AO2
14926KSTC STC20020909135011509/09/02 13:50:31  5-MIN KSTC 091950Z AUTO 24004KT 10SM CLR 27/21 A3003 920 69 2500 240/04 RMK AO2 SLP171 T02670206
14926KSTC STC20020909135510109/09/02 13:55:31  5-MIN KSTC 091955Z AUTO VRB04KT 10SM FEW032 26/21 A3003 930 71 2500 VRB/04 RMK AO2
14926KSTC STC20020909140010109/09/02 14:00:31  5-MIN KSTC 092000Z AUTO 00000KT 10SM SCT032 27/21 A3003 930 69 2500 000/00 RMK AO2
14926KSTC STC20020909140510109/09/02 14:05:31  5-MIN KSTC 092005Z AUTO 24005KT 10SM SCT034 27/21 A3003 930 69 2500 240/05 RMK AO2
14926KSTC STC20020909141010109/09/02 14:10:31  5-MIN KSTC 092010Z AUTO 25007KT 10SM BKN034 27/21 A3003 930 69 2500 250/07 RMK AO2
14926KSTC STC20020909141510109/09/02 14:15:31  5-MIN KSTC 092015Z AUTO 26006KT 10SM BKN034 27/21 A3003 930 69 2500 260/06 RMK AO2
14926KSTC STC20020909142010109/09/02 14:20:31  5-MIN KSTC 092020Z AUTO 26006KT 10SM BKN034 27/21 A3003 930 66 2600 260/06 RMK AO2
14926KSTC STC20020909142510109/09/02 14:25:31  5-MIN KSTC 092025Z AUTO 22005KT 10SM BKN034 27/21 A3003 930 69 2500 220/05 RMK AO2
14926KSTC STC20020909143010109/09/02 14:30:31  5-MIN KSTC 092030Z AUTO 24007KT 10SM BKN034 27/21 A3003 930 66 2600 240/07 RMK AO2
14926KSTC STC20020909143510809/09/02 14:35:31  5-MIN KSTC 092035Z AUTO 22009KT 10SM FEW029 BKN036 27/21 A3003 930 71 2500 220/09 RMK AO2
14926KSTC STC20020909144010809/09/02 14:40:31  5-MIN KSTC 092040Z AUTO 22008KT 10SM FEW029 BKN036 27/21 A3003 930 69 2500 220/08 RMK AO2
14926KSTC STC20020909144510809/09/02 14:45:31  5-MIN KSTC 092045Z AUTO 22008KT 10SM SCT029 BKN036 27/21 A3003 920 71 2500 210/08 RMK AO2
14926KSTC STC20020909145013109/09/02 14:50:31  5-MIN KSTC 092050Z AUTO VRB06KT 10SM SCT027 OVC036 27/21 A3003 920 71 2500 VRB/06 RMK AO2 SLP171 T02670211 53003
14926KSTC STC20020909145510809/09/02 14:55:31  5-MIN KSTC 092055Z AUTO 25008KT 10SM SCT027 OVC036 27/21 A3003 920 69 2600 240/08 RMK AO2
14926KSTC STC20020909150010809/09/02 15:00:31  5-MIN KSTC 092100Z AUTO 24007KT 10SM SCT027 OVC036 27/21 A3003 920 66 2600 240/07 RMK AO2
14926KSTC STC20020909150510809/09/02 15:05:31  5-MIN KSTC 092105Z AUTO 24007KT 10SM FEW027 OVC036 27/21 A3003 930 69 2600 240/07 RMK AO2
14926KSTC STC20020909151010809/09/02 15:10:31  5-MIN KSTC 092110Z AUTO 23007KT 10SM SCT027 OVC036 27/21 A3003 930 69 2500 230/07 RMK AO2
14926KSTC STC20020909151510809/09/02 15:15:31  5-MIN KSTC 092115Z AUTO 25008KT 10SM FEW027 OVC036 27/21 A3003 930 69 2600 240/08 RMK AO2
14926KSTC STC20020909152010809/09/02 15:20:31  5-MIN KSTC 092120Z AUTO 25008KT 10SM FEW028 BKN034 27/21 A3002 930 69 2600 250/08 RMK AO2
14926KSTC STC20020909152510809/09/02 15:25:31  5-MIN KSTC 092125Z AUTO 29005KT 10SM FEW028 BKN036 27/21 A3002 930 71 2500 290/05 RMK AO2
14926KSTC STC20020909153010809/09/02 15:30:31  5-MIN KSTC 092130Z AUTO 29005KT 10SM SCT028 BKN034 27/21 A3002 930 71 2500 280/05 RMK AO2
14926KSTC STC20020909153510809/09/02 15:35:31  5-MIN KSTC 092135Z AUTO 28006KT 10SM BKN028 BKN036 27/21 A3002 930 71 2500 270/06 RMK AO2
14926KSTC STC20020909154010809/09/02 15:40:31  5-MIN KSTC 092140Z AUTO 27005KT 10SM BKN028 OVC036 27/21 A3002 930 71 2500 260/05 RMK AO2
14926KSTC STC20020909154510809/09/02 15:45:31  5-MIN KSTC 092145Z AUTO 28007KT 10SM BKN026 OVC034 27/21 A3002 930 71 2500 270/07 RMK AO2
14926KSTC STC20020909155012509/09/02 15:50:31  5-MIN KSTC 092150Z AUTO 28005KT 10SM BKN028 OVC035 27/21 A3002 930 69 2600 270/05 RMK AO2 SLP168 T02720211
14926KSTC STC20020909155510809/09/02 15:55:31  5-MIN KSTC 092155Z AUTO 27005KT 10SM BKN028 OVC036 27/21 A3002 930 71 2500 260/05 RMK AO2
14926KSTC STC20020909160010809/09/02 16:00:31  5-MIN KSTC 092200Z AUTO 29004KT 10SM BKN028 BKN036 27/21 A3002 930 71 2500 290/04 RMK AO2
14926KSTC STC20020909160510809/09/02 16:05:31  5-MIN KSTC 092205Z AUTO 31005KT 10SM SCT028 BKN033 27/22 A3002 930 73 2500 300/05 RMK AO2
14926KSTC STC20020909161010809/09/02 16:10:31  5-MIN KSTC 092210Z AUTO VRB05KT 10SM SCT026 BKN033 27/22 A3002 930 73 2500 VRB/05 RMK AO2
14926KSTC STC20020909161510809/09/02 16:15:31  5-MIN KSTC 092215Z AUTO 32005KT 10SM FEW023 BKN033 26/22 A3002 930 76 2500 320/05 RMK AO2
14926KSTC STC20020909162010809/09/02 16:20:31  5-MIN KSTC 092220Z AUTO 33005KT 10SM SCT030 BKN037 26/22 A3002 930 76 2500 330/05 RMK AO2
14926KSTC STC20020909162510809/09/02 16:25:31  5-MIN KSTC 092225Z AUTO 34005KT 10SM SCT026 BKN034 26/22 A3002 930 76 2500 340/05 RMK AO2
14926KSTC STC20020909163010809/09/02 16:30:31  5-MIN KSTC 092230Z AUTO 35005KT 10SM SCT026 SCT034 26/22 A3002 940 76 2500 350/05 RMK AO2
14926KSTC STC20020909163510109/09/02 16:35:31  5-MIN KSTC 092235Z AUTO 36005KT 10SM FEW026 26/22 A3002 940 79 2400 360/05 RMK AO2
14926KSTC STC20020909164010109/09/02 16:40:31  5-MIN KSTC 092240Z AUTO 36005KT 10SM SCT026 26/22 A3002 940 76 2500 360/05 RMK AO2
14926KSTC STC20020909164510109/09/02 16:45:31  5-MIN KSTC 092245Z AUTO 35004KT 10SM SCT026 26/22 A3002 940 79 2400 350/04 RMK AO2
14926KSTC STC20020909165011809/09/02 16:50:31  5-MIN KSTC 092250Z AUTO 34005KT 10SM FEW026 26/22 A3002 940 79 2400 340/05 RMK AO2 SLP167 T02560217
14926KSTC STC20020909165510109/09/02 16:55:31  5-MIN KSTC 092255Z AUTO 34004KT 10SM FEW024 26/22 A3002 940 79 2400 340/04 RMK AO2
14926KSTC STC20020909170010109/09/02 17:00:31  5-MIN KSTC 092300Z AUTO 33006KT 10SM FEW024 26/21 A3002 940 76 2400 330/06 RMK AO2
14926KSTC STC20020909170510109/09/02 17:05:31  5-MIN KSTC 092305Z AUTO 34006KT 10SM FEW024 25/21 A3002 940 79 2300 330/06 RMK AO2
14926KSTC STC20020909171010809/09/02 17:10:31  5-MIN KSTC 092310Z AUTO 35007KT 10SM FEW024 SCT060 25/21 A3002 940 79 2300 340/07 RMK AO2
14926KSTC STC20020909171510109/09/02 17:15:31  5-MIN KSTC 092315Z AUTO 36005KT 10SM FEW024 25/21 A3001 940 79 2300 350/05 RMK AO2
14926KSTC STC20020909172010109/09/02 17:20:31  5-MIN KSTC 092320Z AUTO 36004KT 10SM FEW024 25/21 A3001 940 79 2400 360/04 RMK AO2
14926KSTC STC20020909172510109/09/02 17:25:31  5-MIN KSTC 092325Z AUTO 36006KT 10SM FEW060 25/21 A3001 950 79 2400 350/06 RMK AO2
14926KSTC STC20020909173010109/09/02 17:30:31  5-MIN KSTC 092330Z AUTO 36007KT 10SM FEW060 24/21 A3001 950 81 2300 360/07 RMK AO2
14926KSTC STC20020909173509809/09/02 17:35:31  5-MIN KSTC 092335Z AUTO 36008KT 10SM CLR 24/21 A3001 940 81 2300 360/08 RMK AO2
14926KSTC STC20020909174009809/09/02 17:40:31  5-MIN KSTC 092340Z AUTO 01007KT 10SM CLR 24/21 A3001 940 81 2300 360/07 RMK AO2
14926KSTC STC20020909174509809/09/02 17:45:31  5-MIN KSTC 092345Z AUTO 36006KT 10SM CLR 24/21 A3001 940 84 2200 360/06 RMK AO2
14926KSTC STC20020909175013309/09/02 17:50:31  5-MIN KSTC 092350Z AUTO 36006KT 10SM CLR 24/21 A3001 940 84 2200 360/06 RMK AO2 SLP166 T02390211 10272 20239 55005
14926KSTC STC20020909175509809/09/02 17:55:31  5-MIN KSTC 092355Z AUTO 01006KT 10SM CLR 24/21 A3001 940 84 2200 360/06 RMK AO2
14926KSTC STC20020909180009809/09/02 18:00:31  5-MIN KSTC 100000Z AUTO 01006KT 10SM CLR 24/21 A3001 940 84 2200 010/06 RMK AO2
14926KSTC STC20020909180510109/09/02 18:05:31  5-MIN KSTC 100005Z AUTO 01006KT 10SM FEW065 23/21 A3001 950 87 2200 010/06 RMK AO2
14926KSTC STC20020909181010109/09/02 18:10:31  5-MIN KSTC 100010Z AUTO 36007KT 10SM FEW060 23/21 A3001 950 84 2200 360/07 RMK AO2
14926KSTC STC20020909181510109/09/02 18:15:31  5-MIN KSTC 100015Z AUTO 35006KT 10SM SCT060 23/21 A3001 950 84 2200 350/06 RMK AO2
14926KSTC STC20020909182010109/09/02 18:20:31  5-MIN KSTC 100020Z AUTO 36005KT 10SM BKN060 23/21 A3000 950 84 2200 360/05 RMK AO2
14926KSTC STC20020909182510109/09/02 18:25:31  5-MIN KSTC 100025Z AUTO 02005KT 10SM SCT060 23/21 A3000 950 84 2200 010/05 RMK AO2
14926KSTC STC20020909183010809/09/02 18:30:31  5-MIN KSTC 100030Z AUTO 36006KT 10SM SCT055 BKN070 23/21 A3001 940 84 2200 360/06 RMK AO2
14926KSTC STC20020909183510809/09/02 18:35:31  5-MIN KSTC 100035Z AUTO 36006KT 10SM BKN055 BKN070 23/21 A3001 940 84 2200 360/06 RMK AO2
14926KSTC STC20020909184010809/09/02 18:40:31  5-MIN KSTC 100040Z AUTO 35007KT 10SM FEW029 BKN055 23/21 A3001 940 87 2100 350/07 RMK AO2
14926KSTC STC20020909184510809/09/02 18:45:31  5-MIN KSTC 100045Z AUTO 01007KT 10SM FEW029 BKN055 23/20 A3001 950 84 2100 010/07 RMK AO2
14926KSTC STC20020909185013209/09/02 18:50:31  5-MIN KSTC 100050Z AUTO 01005KT 10SM FEW029 SCT055 SCT070 23/20 A3001 950 84 2100 010/05 RMK AO2 SLP165 T02280200
14926KSTC STC20020909185511509/09/02 18:55:31  5-MIN KSTC 100055Z AUTO 36006KT 10SM FEW029 SCT055 BKN065 23/20 A3001 950 84 2100 360/06 RMK AO2
14926KSTC STC20020909190011509/09/02 19:00:31  5-MIN KSTC 100100Z AUTO 02006KT 10SM FEW029 SCT050 BKN065 23/20 A3000 950 84 2100 020/06 RMK AO2
14926KSTC STC20020909190511509/09/02 19:05:31  5-MIN KSTC 100105Z AUTO 01006KT 10SM FEW029 SCT050 SCT065 23/20 A3000 950 84 2100 010/06 RMK AO2
14926KSTC STC20020909191010109/09/02 19:10:31  5-MIN KSTC 100110Z AUTO 02006KT 10SM FEW050 23/20 A3001 950 84 2100 010/06 RMK AO2
14926KSTC STC20020909191510809/09/02 19:15:31  5-MIN KSTC 100115Z AUTO 36005KT 10SM FEW031 SCT065 23/20 A3001 940 84 2100 360/05 RMK AO2
14926KSTC STC20020909192011509/09/02 19:20:31  5-MIN KSTC 100120Z AUTO 02005KT 10SM FEW017 SCT028 SCT050 22/20 A3001 940 87 2000 010/05 RMK AO2
14926KSTC STC20020909192511509/09/02 19:25:31  5-MIN KSTC 100125Z AUTO 03005KT 10SM FEW017 BKN028 BKN050 22/20 A3001 940 87 2000 030/05 RMK AO2
14926KSTC STC20020909193010809/09/02 19:30:31  5-MIN KSTC 100130Z AUTO 03006KT 10SM SCT017 BKN028 22/20 A3001 950 87 2000 020/06 RMK AO2
14926KSTC STC20020909193510809/09/02 19:35:31  5-MIN KSTC 100135Z AUTO 02006KT 10SM BKN017 BKN028 22/20 A3001 950 87 2000 020/06 RMK AO2
14926KSTC STC20020909194010809/09/02 19:40:31  5-MIN KSTC 100140Z AUTO 02006KT 10SM BKN017 OVC028 22/20 A3001 950 87 2000 020/06 RMK AO2
14926KSTC STC20020909194510809/09/02 19:45:31  5-MIN KSTC 100145Z AUTO 05006KT 10SM BKN017 OVC028 22/20 A3000 950 87 2000 040/06 RMK AO2
14926KSTC STC20020909195012509/09/02 19:50:31  5-MIN KSTC 100150Z AUTO 04007KT 10SM BKN017 BKN028 22/20 A3000 950 87 2000 040/07 RMK AO2 SLP163 T02220200
14926KSTC STC20020909195510109/09/02 19:55:31  5-MIN KSTC 100155Z AUTO 05006KT 10SM SCT017 22/19 A3000 960 84 2100 050/06 RMK AO2
14926KSTC STC20020909200010109/09/02 20:00:31  5-MIN KSTC 100200Z AUTO 05005KT 10SM SCT017 22/19 A3000 950 84 2100 050/05 RMK AO2
14926KSTC STC20020909200511709/09/02 20:05:31  5-MIN KSTC 100205Z AUTO 06007KT 030V090 10SM FEW017 22/19 A3000 950 87 2000 060/07 030V090 RMK AO2
14926KSTC STC20020909201010109/09/02 20:10:31  5-MIN KSTC 100210Z AUTO 05007KT 10SM FEW017 22/19 A3000 950 84 2000 040/07 RMK AO2
14926KSTC STC20020909201509809/09/02 20:15:31  5-MIN KSTC 100215Z AUTO 05006KT 10SM CLR 22/19 A3000 950 84 2000 040/06 RMK AO2
14926KSTC STC20020909202010109/09/02 20:20:31  5-MIN KSTC 100220Z AUTO 05005KT 10SM FEW028 22/19 A2999 960 84 2000 050/05 RMK AO2
14926KSTC STC20020909202510109/09/02 20:25:31  5-MIN KSTC 100225Z AUTO 05005KT 10SM SCT028 22/19 A2999 960 84 2000 050/05 RMK AO2
14926KSTC STC20020909203010109/09/02 20:30:31  5-MIN KSTC 100230Z AUTO 05005KT 10SM BKN028 22/19 A2999 960 84 2000 050/05 RMK AO2
14926KSTC STC20020909203510109/09/02 20:35:31  5-MIN KSTC 100235Z AUTO 06004KT 10SM BKN028 22/19 A2999 960 84 2000 060/04 RMK AO2
14926KSTC STC20020909204010109/09/02 20:40:31  5-MIN KSTC 100240Z AUTO VRB04KT 10SM BKN028 22/19 A2999 960 84 2000 VRB/04 RMK AO2
14926KSTC STC20020909204510109/09/02 20:45:31  5-MIN KSTC 100245Z AUTO 06004KT 10SM BKN028 22/19 A2999 960 84 2000 060/04 RMK AO2
14926KSTC STC20020909205012409/09/02 20:50:31  5-MIN KSTC 100250Z AUTO 06003KT 10SM BKN026 22/19 A2999 970 84 2000 060/03 RMK AO2 SLP158 T02170189 56007
14926KSTC STC20020909205510109/09/02 20:55:31  5-MIN KSTC 100255Z AUTO VRB04KT 10SM OVC026 21/19 A2998 970 87 1900 VRB/04 RMK AO2
14926KSTC STC20020909210010109/09/02 21:00:31  5-MIN KSTC 100300Z AUTO VRB04KT 10SM OVC026 21/19 A2998 970 87 1900 VRB/04 RMK AO2
14926KSTC STC20020909210510109/09/02 21:05:31  5-MIN KSTC 100305Z AUTO 05003KT 10SM OVC024 21/19 A2999 960 87 1900 050/03 RMK AO2
14926KSTC STC20020909211010109/09/02 21:10:31  5-MIN KSTC 100310Z AUTO VRB03KT 10SM OVC024 22/19 A2999 960 84 2000 VRB/03 RMK AO2
14926KSTC STC20020909211510109/09/02 21:15:31  5-MIN KSTC 100315Z AUTO VRB03KT 10SM OVC024 21/19 A2999 960 87 1900 VRB/03 RMK AO2
14926KSTC STC20020909212010109/09/02 21:20:31  5-MIN KSTC 100320Z AUTO 26006KT 10SM OVC024 22/19 A3000 950 84 2000 260/06 RMK AO2
14926KSTC STC20020909212512409/09/02 21:25:31  5-MIN KSTC 100325Z AUTO 26011KT 10SM -RA FEW016 OVC024 21/19 A3000 950 90 1900 250/11 RMK AO2 RAB21 P0000
14926KSTC STC20020909213013109/09/02 21:30:31  5-MIN KSTC 100330Z AUTO 08009KT 10SM -RA SCT016 BKN026 OVC049 21/19 A2998 980 90 2000 080/09 RMK AO2 RAB21 P0000
14926KSTC STC20020909213514709/09/02 21:35:31  5-MIN KSTC 100335Z AUTO 08008KT 060V120 10SM -RA FEW016 BKN026 OVC046 21/19 A2998 970 87 1900 080/08 060V120 RMK AO2 RAB21 P0001
14926KSTC STC20020909214013109/09/02 21:40:31  5-MIN KSTC 100340Z AUTO 05009KT 10SM -RA FEW016 BKN026 OVC045 21/19 A2998 970 87 1900 050/09 RMK AO2 RAB21 P0001
14926KSTC STC20020909214513109/09/02 21:45:31  5-MIN KSTC 100345Z AUTO 08006KT 10SM -RA FEW016 BKN029 OVC065 21/19 A2997 980 87 2000 070/06 RMK AO2 RAB21 P0002
14926KSTC STC20020909215014809/09/02 21:50:31  5-MIN KSTC 100350Z AUTO 07005KT 10SM -RA FEW016 BKN029 OVC036 21/19 A2997 980 90 1900 070/05 RMK AO2 RAB21 SLP153 P0003 T02060189
14926KSTC STC20020909215512409/09/02 21:55:31  5-MIN KSTC 100355Z AUTO VRB03KT 9SM -RA BKN029 BKN036 OVC050 21/19 A2997 980 90 1900 VRB/03 RMK AO2 P0001
14926KSTC STC20020909220011709/09/02 22:00:31  5-MIN KSTC 100400Z AUTO VRB04KT 8SM -RA BKN027 OVC036 21/19 A2997 980 93 1900 VRB/04 RMK AO2 P0002
14926KSTC STC20020909220511709/09/02 22:05:31  5-MIN KSTC 100405Z AUTO 10004KT 7SM -RA BKN027 OVC036 21/19 A2997 980 93 1900 100/04 RMK AO2 P0003
14926KSTC STC20020909221011609/09/02 22:10:31  5-MIN KSTC 100410Z AUTO 08004KT 7SM RA BKN023 OVC028 20/19 A2996 990 97 1800 070/04 RMK AO2 P0005
14926KSTC STC20020909221511709/09/02 22:15:31  5-MIN KSTC 100415Z AUTO 00000KT 7SM -RA BKN023 OVC028 20/19 A2997 980 97 1800 000/00 RMK AO2 P0005
14926KSTC STC20020910002514209/10/02 00:25:31  5-MIN KSTC 100625Z AUTO 35011G18KT 8SM -RA BKN009 BKN013 OVC027 17/16 A3000 950 96 1400 350/11G18 RMK AO2 CIG 006V011 P0002
14926KSTC STC20020910003013009/10/02 00:30:31  5-MIN KSTC 100630Z AUTO 35012G21KT 7SM -RA SCT009 BKN012 OVC029 17/16 A3000 950 96 1400 350/12G21 RMK AO2 P0003
14926KSTC STC20020910003513309/10/02 00:35:31  5-MIN KSTC 100635Z AUTO 34012G21KT 6SM -RA BR SCT009 BKN013 OVC029 17/16 A3000 950 96 1400 330/12G21 RMK AO2 P0004
14926KSTC STC20020910004013409/10/02 00:40:31  5-MIN KSTC 100640Z AUTO 33013G18KT 6SM -RA BR FEW009 BKN013 OVC032 16/16 A3000 950 100 1300 330/13G18 RMK AO2 P0004
14926KSTC STC20020910004513709/10/02 00:45:31  5-MIN KSTC 100645Z AUTO 35011KT 8SM -RA BKN011 BKN016 OVC029 16/16 A3000 960 100 1300 350/11 RMK AO2 CIG 007V012 P0005
14926KSTC STC20020910005014109/10/02 00:50:31  5-MIN KSTC 100650Z AUTO 35011KT 9SM -RA FEW009 BKN014 OVC038 16/16 A3000 960 96 1300 350/11 RMK AO2 SLP162 P0005 T01610156
14926KSTC STC20020910005513609/10/02 00:55:31  5-MIN KSTC 100655Z AUTO 34011KT 9SM -RA BKN009 BKN014 OVC038 16/16 A3000 960 96 1300 340/11 RMK AO2 CIG 007V012 P0000
14926KSTC STC20020910010013509/10/02 01:00:31  5-MIN KSTC 100700Z AUTO 33014G20KT 9SM -RA BKN009 OVC014 16/16 A3000 950 96 1300 330/14G20 RMK AO2 CIG 007V011 P0000
14926KSTC STC20020910010513509/10/02 01:05:31  5-MIN KSTC 100705Z AUTO 33014G20KT 9SM -RA BKN011 OVC015 16/15 A3000 950 96 1300 330/14G20 RMK AO2 CIG 007V014 P0000
14926KSTC STC20020910011014209/10/02 01:10:31  5-MIN KSTC 100710Z AUTO 34013G20KT 8SM -RA BKN009 BKN015 OVC039 16/15 A3001 950 96 1300 330/13G20 RMK AO2 CIG 007V012 P0001
14926KSTC STC20020910011514209/10/02 01:15:31  5-MIN KSTC 100715Z AUTO 34014G20KT 7SM -RA BKN009 BKN015 OVC037 15/14 A3001 940 96 1200 340/14G20 RMK AO2 CIG 007V012 P0001
14926KSTC STC20020910012014209/10/02 01:20:31  5-MIN KSTC 100720Z AUTO 34012G23KT 7SM -RA BKN010 BKN015 OVC035 15/14 A3001 940 96 1200 340/12G23 RMK AO2 CIG 007V012 P0001
14926KSTC STC20020910012512409/10/02 01:25:31  5-MIN KSTC 100725Z AUTO 34014G23KT 10SM -RA SCT010 OVC035 15/14 A3001 940 96 1200 340/14G23 RMK AO2 P0001
14926KSTC STC20020910013012409/10/02 01:30:31  5-MIN KSTC 100730Z AUTO 35012G23KT 10SM -RA SCT010 OVC037 15/14 A3002 940 96 1200 340/12G23 RMK AO2 P0001
14926KSTC STC20020910013512409/10/02 01:35:31  5-MIN KSTC 100735Z AUTO 36014G20KT 10SM -RA FEW013 OVC037 15/14 A3001 940 96 1200 350/14G20 RMK AO2 P0001
14926KSTC STC20020910014012609/10/02 01:40:31  5-MIN KSTC 100740Z AUTO 36012G20KT 10SM FEW011 OVC039 15/14 A3001 940 96 1200 360/12G20 RMK AO2 RAE36 P0002
14926KSTC STC20020910014511909/10/02 01:45:31  5-MIN KSTC 100745Z AUTO 36011G19KT 10SM OVC039 15/14 A3002 940 96 1200 350/11G19 RMK AO2 RAE36 P0002
14926KSTC STC20020910015014009/10/02 01:50:31  5-MIN KSTC 100750Z AUTO 35012G17KT 9SM -RA FEW012 OVC039 15/14 A3002 940 96 1200 350/12G17 RMK AO2 SLP169 P0002 T01500144
14926KSTC STC20020910015512309/10/02 01:55:31  5-MIN KSTC 100755Z AUTO 35011G17KT 9SM -RA BKN039 OVC049 15/14 A3002 930 96 1200 350/11G17 RMK AO2 P0000
14926KSTC STC20020910020011809/10/02 02:00:31  5-MIN KSTC 100800Z AUTO 35011KT 10SM -RA BKN041 OVC049 15/14 A3001 940 96 1200 350/11 RMK AO2 P0000
14926KSTC STC20020910020511809/10/02 02:05:31  5-MIN KSTC 100805Z AUTO 36010KT 10SM -RA BKN041 OVC055 15/14 A3002 930 96 1200 360/10 RMK AO2 P0000
14926KSTC STC20020910021012409/10/02 02:10:31  5-MIN KSTC 100810Z AUTO 35011G16KT 10SM -RA SCT041 OVC055 15/14 A3003 930 96 1200 350/11G16 RMK AO2 P0001
14926KSTC STC20020910021512409/10/02 02:15:31  5-MIN KSTC 100815Z AUTO 34011KT 9SM -RA SCT012 SCT041 OVC055 15/14 A3004 920 96 1200 340/11 RMK AO2 P0002
14926KSTC STC20020910022012409/10/02 02:20:31  5-MIN KSTC 100820Z AUTO 33010KT 8SM -RA FEW010 BKN014 OVC055 15/14 A3003 920 96 1200 330/10 RMK AO2 P0003
14926KSTC STC20020910022512909/10/02 02:25:31  5-MIN KSTC 100825Z AUTO 34010G17KT 7SM RA FEW010 BKN014 OVC055 15/14 A3003 930 96 1200 340/10G17 RMK AO2 P0004
14926KSTC STC20020910023013209/10/02 02:30:31  5-MIN KSTC 100830Z AUTO 35011G17KT 5SM RA BR FEW009 BKN014 OVC060 15/14 A3002 930 96 1200 350/11G17 RMK AO2 P0006
14926KSTC STC20020910023512609/10/02 02:35:31  5-MIN KSTC 100835Z AUTO 34010G16KT 5SM RA BR FEW009 OVC014 14/14 A3003 930 100 1100 340/10G16 RMK AO2 P0008
14926KSTC STC20020910024011409/10/02 02:40:31  5-MIN KSTC 100840Z AUTO 34012KT 6SM -RA BR OVC014 14/14 A3003 930 100 1100 340/12 RMK AO2 P0008
14926KSTC STC20020910024511109/10/02 02:45:31  5-MIN KSTC 100845Z AUTO 33010KT 9SM -RA OVC012 14/14 A3003 920 100 1100 330/10 RMK AO2 P0009
14926KSTC STC20020910025014709/10/02 02:50:31  5-MIN KSTC 100850Z AUTO 34010KT 10SM -RA BKN010 OVC015 14/14 A3004 920 96 1100 340/10 RMK AO2 SLP176 P0009 60016 T01440139 55001
14926KSTC STC20020910025511809/10/02 02:55:31  5-MIN KSTC 100855Z AUTO 33009KT 10SM -RA OVC013 14/14 A3005 900 96 1100 330/09 RMK AO2 PRESRR P0000
14926KSTC STC20020910030011509/10/02 03:00:31  5-MIN KSTC 100900Z AUTO 32010KT 10SM OVC013 14/14 A3006 900 96 1100 320/10 RMK AO2 RAE0858 P0000
14926KSTC STC20020910030511509/10/02 03:05:31  5-MIN KSTC 100905Z AUTO 33010KT 10SM OVC011 14/14 A3006 900 96 1100 330/10 RMK AO2 RAE0858 P0000
14926KSTC STC20020910031012109/10/02 03:10:31  5-MIN KSTC 100910Z AUTO 33008G15KT 10SM OVC011 14/14 A3006 900 96 1100 330/08G15 RMK AO2 RAE0858 P0000
14926KSTC STC20020910031512109/10/02 03:15:31  5-MIN KSTC 100915Z AUTO 34009G16KT 10SM OVC011 14/14 A3006 900 96 1100 340/09G16 RMK AO2 RAE0858 P0000
14926KSTC STC20020910032012109/10/02 03:20:31  5-MIN KSTC 100920Z AUTO 34012G16KT 10SM OVC013 14/14 A3007 890 96 1100 340/12G16 RMK AO2 RAE0858 P0000
14926KSTC STC20020910032512109/10/02 03:25:31  5-MIN KSTC 100925Z AUTO 34009G15KT 10SM OVC013 14/14 A3007 890 96 1100 340/09G15 RMK AO2 RAE0858 P0000
14926KSTC STC20020910033011509/10/02 03:30:31  5-MIN KSTC 100930Z AUTO 34009KT 10SM OVC015 14/14 A3007 890 96 1100 330/09 RMK AO2 RAE0858 P0000
14926KSTC STC20020910033512209/10/02 03:35:31  5-MIN KSTC 100935Z AUTO 35009KT 10SM BKN013 OVC021 14/14 A3007 890 96 1100 340/09 RMK AO2 RAE0858 P0000
14926KSTC STC20020910034013509/10/02 03:40:31  5-MIN KSTC 100940Z AUTO 34009G16KT 10SM BKN015 BKN021 OVC032 14/13 A3007 890 93 1100 330/09G16 RMK AO2 RAE0858 P0000
14926KSTC STC20020910034512809/10/02 03:45:31  5-MIN KSTC 100945Z AUTO 34009G16KT 10SM BKN015 OVC034 14/13 A3007 890 93 1100 330/09G16 RMK AO2 RAE0858 P0000
14926KSTC STC20020910035015209/10/02 03:50:31  5-MIN KSTC 100950Z AUTO 34013G16KT 10SM SCT015 SCT019 OVC034 14/13 A3008 880 93 1100 330/13G16 RMK AO2 RAE0858 SLP189 P0000 T01440133
14926KSTC STC20020910035512109/10/02 03:55:31  5-MIN KSTC 100955Z AUTO 34010G16KT 10SM FEW015 SCT019 OVC034 14/13 A3008 880 93 1100 330/10G16 RMK AO2
14926KSTC STC20020910040011509/10/02 04:00:31  5-MIN KSTC 101000Z AUTO 34011KT 10SM FEW014 SCT019 OVC034 14/13 A3008 880 93 1100 340/11 RMK AO2
14926KSTC STC20020910040510809/10/02 04:05:31  5-MIN KSTC 101005Z AUTO 34010KT 10SM FEW016 OVC034 14/13 A3007 880 93 1100 340/10 RMK AO2
14926KSTC STC20020910041010809/10/02 04:10:31  5-MIN KSTC 101010Z AUTO 34009KT 10SM FEW016 OVC034 14/13 A3008 880 90 1100 340/09 RMK AO2
14926KSTC STC20020910041512409/10/02 04:15:31  5-MIN KSTC 101015Z AUTO 34009KT 310V010 10SM FEW014 BKN034 14/13 A3008 880 90 1100 330/09 310V010 RMK AO2
14926KSTC STC20020910042010109/10/02 04:20:31  5-MIN KSTC 101020Z AUTO 34008KT 10SM BKN034 14/13 A3009 870 93 1000 340/08 RMK AO2
14926KSTC STC20020910042510109/10/02 04:25:31  5-MIN KSTC 101025Z AUTO 34007KT 10SM SCT034 14/13 A3009 870 93 1000 340/07 RMK AO2
14926KSTC STC20020910043010109/10/02 04:30:31  5-MIN KSTC 101030Z AUTO 34008KT 10SM SCT034 14/13 A3009 870 93 1000 340/08 RMK AO2
14926KSTC STC20020910043510109/10/02 04:35:31  5-MIN KSTC 101035Z AUTO 34008KT 10SM FEW034 14/13 A3009 870 93 1000 330/08 RMK AO2
14926KSTC STC20020910044009809/10/02 04:40:31  5-MIN KSTC 101040Z AUTO 33006KT 10SM CLR 14/13 A3009 870 93 1000 330/06 RMK AO2
14926KSTC STC20020910044509709/10/02 04:45:31  5-MIN KSTC 101045Z AUTO 33006KT 10SM CLR 13/13 A3009 870 96 900 330/06 RMK AO2
14926KSTC STC20020910045011409/10/02 04:50:31  5-MIN KSTC 101050Z AUTO 33006KT 10SM CLR 13/13 A3009 870 96 900 330/06 RMK AO2 SLP195 T01330128
14926KSTC STC20020910045509709/10/02 04:55:31  5-MIN KSTC 101055Z AUTO 33006KT 10SM CLR 13/13 A3009 870 96 900 330/06 RMK AO2
14926KSTC STC20020910050009709/10/02 05:00:31  5-MIN KSTC 101100Z AUTO 33006KT 10SM CLR 13/13 A3009 870 96 900 330/06 RMK AO2
14926KSTC STC20020910050509709/10/02 05:05:31  5-MIN KSTC 101105Z AUTO 33006KT 10SM CLR 13/13 A3009 870 96 900 330/06 RMK AO2
14926KSTC STC20020910051009709/10/02 05:10:31  5-MIN KSTC 101110Z AUTO 32007KT 10SM CLR 13/13 A3009 870 96 900 320/07 RMK AO2
14926KSTC STC20020910051509709/10/02 05:15:31  5-MIN KSTC 101115Z AUTO 32006KT 10SM CLR 13/13 A3010 860 96 900 320/06 RMK AO2
14926KSTC STC20020910052009709/10/02 05:20:31  5-MIN KSTC 101120Z AUTO 32005KT 10SM CLR 13/13 A3010 860 96 900 320/05 RMK AO2
14926KSTC STC20020910052509709/10/02 05:25:31  5-MIN KSTC 101125Z AUTO 33004KT 10SM CLR 13/13 A3010 860 96 900 320/04 RMK AO2
14926KSTC STC20020910053009709/10/02 05:30:31  5-MIN KSTC 101130Z AUTO 32005KT 10SM CLR 13/13 A3010 860 96 900 320/05 RMK AO2
14926KSTC STC20020910053509709/10/02 05:35:31  5-MIN KSTC 101135Z AUTO 32005KT 10SM CLR 13/13 A3010 860 96 900 320/05 RMK AO2
14926KSTC STC20020910054009709/10/02 05:40:31  5-MIN KSTC 101140Z AUTO 34004KT 10SM CLR 13/13 A3010 860 96 900 340/04 RMK AO2
14926KSTC STC20020910054509709/10/02 05:45:31  5-MIN KSTC 101145Z AUTO 33003KT 10SM CLR 13/13 A3010 860 96 900 330/03 RMK AO2
14926KSTC STC20020910055014809/10/02 05:50:31  5-MIN KSTC 101150Z AUTO 32004KT 10SM FEW011 13/13 A3011 850 100 800 320/04 RMK AO2 SLP201 60016 70083 T01280128 10172 20128 53022
14926KSTC STC20020910055510109/10/02 05:55:31  5-MIN KSTC 101155Z AUTO 32003KT 10SM FEW011 13/13 A3011 850 100 800 320/03 RMK AO2
14926KSTC STC20020910060010009/10/02 06:00:31  5-MIN KSTC 101200Z AUTO 33003KT 10SM FEW011 13/12 A3011 850 96 800 330/03 RMK AO2
14926KSTC STC20020910060510109/10/02 06:05:31  5-MIN KSTC 101205Z AUTO 32004KT 10SM SCT011 13/13 A3011 850 100 800 320/04 RMK AO2
14926KSTC STC20020910061010009/10/02 06:10:31  5-MIN KSTC 101210Z AUTO 32004KT 10SM SCT011 13/12 A3011 850 96 800 320/04 RMK AO2
14926KSTC STC20020910061510009/10/02 06:15:31  5-MIN KSTC 101215Z AUTO 32004KT 10SM FEW011 13/12 A3012 850 96 800 320/04 RMK AO2
14926KSTC STC20020910062010109/10/02 06:20:31  5-MIN KSTC 101220Z AUTO 32005KT 10SM SCT011 13/13 A3012 850 100 800 320/05 RMK AO2
14926KSTC STC20020910062510009/10/02 06:25:31  5-MIN KSTC 101225Z AUTO 32005KT 10SM FEW009 13/13 A3012 840 96 900 320/05 RMK AO2
14926KSTC STC20020910063010009/10/02 06:30:31  5-MIN KSTC 101230Z AUTO 32006KT 10SM FEW009 13/13 A3012 850 96 900 320/06 RMK AO2
14926KSTC STC20020910063510009/10/02 06:35:31  5-MIN KSTC 101235Z AUTO 32007KT 10SM FEW009 13/13 A3012 840 96 900 320/07 RMK AO2
14926KSTC STC20020910064010009/10/02 06:40:31  5-MIN KSTC 101240Z AUTO 32007KT 10SM FEW009 13/13 A3012 840 96 900 320/07 RMK AO2
14926KSTC STC20020910064510009/10/02 06:45:31  5-MIN KSTC 101245Z AUTO 33007KT 10SM FEW009 14/13 A3012 840 96 900 330/07 RMK AO2
14926KSTC STC20020910065011709/10/02 06:50:31  5-MIN KSTC 101250Z AUTO 33006KT 10SM SCT009 14/13 A3012 840 96 900 330/06 RMK AO2 SLP207 T01390133
14926KSTC STC20020910065510009/10/02 06:55:31  5-MIN KSTC 101255Z AUTO 33006KT 10SM SCT009 14/13 A3013 840 96 900 330/06 RMK AO2
14926KSTC STC20020910070010009/10/02 07:00:31  5-MIN KSTC 101300Z AUTO 33006KT 10SM SCT009 14/13 A3012 840 96 900 330/06 RMK AO2
14926KSTC STC20020910070510109/10/02 07:05:31  5-MIN KSTC 101305Z AUTO 34006KT 10SM SCT009 14/13 A3013 840 93 1000 340/06 RMK AO2
14926KSTC STC20020910071010109/10/02 07:10:31  5-MIN KSTC 101310Z AUTO 34007KT 10SM SCT009 14/13 A3013 830 93 1000 340/07 RMK AO2
14926KSTC STC20020910071510009/10/02 07:15:31  5-MIN KSTC 101315Z AUTO 34005KT 10SM SCT009 14/13 A3013 830 96 900 340/05 RMK AO2
14926KSTC STC20020910072010009/10/02 07:20:31  5-MIN KSTC 101320Z AUTO 34006KT 10SM SCT009 14/13 A3013 830 96 900 330/06 RMK AO2
14926KSTC STC20020910072510109/10/02 07:25:31  5-MIN KSTC 101325Z AUTO 34006KT 10SM SCT009 14/13 A3013 830 93 1000 330/06 RMK AO2
14926KSTC STC20020910073011309/10/02 07:30:31  5-MIN KSTC 101330Z AUTO 34007KT 10SM BKN009 14/13 A3013 830 93 1000 330/07 RMK AO2 CIG 006V013
14926KSTC STC20020910073511309/10/02 07:35:31  5-MIN KSTC 101335Z AUTO 36007KT 10SM BKN009 14/13 A3013 830 93 1000 350/07 RMK AO2 CIG 008V013
14926KSTC STC20020910074012909/10/02 07:40:31  5-MIN KSTC 101340Z AUTO 35007KT 320V020 10SM BKN009 15/13 A3014 830 90 1100 340/07 320V020 RMK AO2 CIG 008V013
14926KSTC STC20020910074511309/10/02 07:45:31  5-MIN KSTC 101345Z AUTO 35006KT 10SM BKN009 15/13 A3014 830 90 1100 350/06 RMK AO2 CIG 008V013
14926KSTC STC20020910075011809/10/02 07:50:31  5-MIN KSTC 101350Z AUTO 34006KT 10SM BKN011 15/13 A3013 830 90 1100 340/06 RMK AO2 SLP211 T01500133
14926KSTC STC20020910075510109/10/02 07:55:31  5-MIN KSTC 101355Z AUTO 36009KT 10SM SCT011 15/13 A3014 830 90 1100 360/09 RMK AO2
14926KSTC STC20020910080010109/10/02 08:00:31  5-MIN KSTC 101400Z AUTO 35007KT 10SM SCT011 16/13 A3014 830 86 1100 350/07 RMK AO2
14926KSTC STC20020910080510109/10/02 08:05:31  5-MIN KSTC 101405Z AUTO 35007KT 10SM FEW011 16/13 A3014 830 86 1100 350/07 RMK AO2
14926KSTC STC20020910081010109/10/02 08:10:31  5-MIN KSTC 101410Z AUTO 36008KT 10SM SCT011 16/13 A3014 830 86 1100 360/08 RMK AO2
14926KSTC STC20020910081510109/10/02 08:15:31  5-MIN KSTC 101415Z AUTO 36010KT 10SM SCT011 16/13 A3014 830 86 1100 360/10 RMK AO2
14926KSTC STC20020910082010109/10/02 08:20:31  5-MIN KSTC 101420Z AUTO 34008KT 10SM SCT011 16/13 A3014 820 86 1100 340/08 RMK AO2
14926KSTC STC20020910082510109/10/02 08:25:31  5-MIN KSTC 101425Z AUTO 34010KT 10SM SCT011 16/13 A3014 820 86 1100 340/10 RMK AO2
14926KSTC STC20020910083010109/10/02 08:30:31  5-MIN KSTC 101430Z AUTO 36008KT 10SM FEW011 16/13 A3014 820 80 1200 350/08 RMK AO2
14926KSTC STC20020910083510109/10/02 08:35:31  5-MIN KSTC 101435Z AUTO 01009KT 10SM SCT011 16/13 A3014 820 83 1200 360/09 RMK AO2
14926KSTC STC20020910084010109/10/02 08:40:31  5-MIN KSTC 101440Z AUTO 35007KT 10SM FEW011 17/13 A3014 820 80 1200 350/07 RMK AO2
14926KSTC STC20020910084510109/10/02 08:45:31  5-MIN KSTC 101445Z AUTO 36008KT 10SM FEW013 16/13 A3015 820 83 1200 350/08 RMK AO2
14926KSTC STC20020910085012409/10/02 08:50:31  5-MIN KSTC 101450Z AUTO 35006KT 10SM FEW013 17/13 A3015 820 80 1200 350/06 RMK AO2 SLP214 T01670133 51019
14926KSTC STC20020910085510109/10/02 08:55:31  5-MIN KSTC 101455Z AUTO 01009KT 10SM FEW015 17/13 A3015 820 80 1200 010/09 RMK AO2
14926KSTC STC20020910090010109/10/02 09:00:31  5-MIN KSTC 101500Z AUTO 36006KT 10SM FEW013 17/13 A3015 820 78 1300 350/06 RMK AO2
14926KSTC STC20020910090510109/10/02 09:05:31  5-MIN KSTC 101505Z AUTO 35005KT 10SM FEW013 17/13 A3015 820 78 1300 350/05 RMK AO2
14926KSTC STC20020910091010109/10/02 09:10:31  5-MIN KSTC 101510Z AUTO VRB06KT 10SM FEW013 17/13 A3015 820 78 1300 VRB/06 RMK AO2
14926KSTC STC20020910091509809/10/02 09:15:31  5-MIN KSTC 101515Z AUTO 32006KT 10SM CLR 18/13 A3015 810 75 1400 320/06 RMK AO2
14926KSTC STC20020910092009809/10/02 09:20:31  5-MIN KSTC 101520Z AUTO 33009KT 10SM CLR 18/13 A3015 810 75 1400 330/09 RMK AO2
14926KSTC STC20020910092509809/10/02 09:25:31  5-MIN KSTC 101525Z AUTO 34007KT 10SM CLR 18/13 A3015 810 72 1400 330/07 RMK AO2
14926KSTC STC20020910093009809/10/02 09:30:31  5-MIN KSTC 101530Z AUTO 36009KT 10SM CLR 18/13 A3015 810 72 1400 360/09 RMK AO2
14926KSTC STC20020910093510109/10/02 09:35:31  5-MIN KSTC 101535Z AUTO 34006KT 10SM FEW019 18/13 A3015 810 72 1400 330/06 RMK AO2
14926KSTC STC20020910094010109/10/02 09:40:31  5-MIN KSTC 101540Z AUTO 35006KT 10SM FEW019 18/13 A3015 810 75 1400 340/06 RMK AO2
14926KSTC STC20020910094510109/10/02 09:45:31  5-MIN KSTC 101545Z AUTO 33008KT 10SM FEW019 18/13 A3015 810 70 1400 330/08 RMK AO2
14926KSTC STC20020910095011809/10/02 09:50:31  5-MIN KSTC 101550Z AUTO 32007KT 10SM FEW019 18/13 A3016 810 70 1400 310/07 RMK AO2 SLP217 T01830128
14926KSTC STC20020910095510109/10/02 09:55:31  5-MIN KSTC 101555Z AUTO 35006KT 10SM FEW022 18/13 A3016 810 72 1400 340/06 RMK AO2
14926KSTC STC20020910100010109/10/02 10:00:31  5-MIN KSTC 101600Z AUTO 36009KT 10SM FEW022 19/13 A3015 810 67 1500 350/09 RMK AO2
14926KSTC STC20020910100509809/10/02 10:05:31  5-MIN KSTC 101605Z AUTO 33008KT 10SM CLR 19/13 A3015 810 67 1500 330/08 RMK AO2
14926KSTC STC20020910101009809/10/02 10:10:31  5-MIN KSTC 101610Z AUTO 34007KT 10SM CLR 19/13 A3015 810 65 1600 340/07 RMK AO2
14926KSTC STC20020910101511409/10/02 10:15:31  5-MIN KSTC 101615Z AUTO 34008KT 280V020 10SM CLR 19/13 A3015 810 67 1600 330/08 280V020 RMK AO2
14926KSTC STC20020910102009809/10/02 10:20:31  5-MIN KSTC 101620Z AUTO 33009KT 10SM CLR 19/13 A3015 810 67 1500 320/09 RMK AO2
14926KSTC STC20020910102509809/10/02 10:25:31  5-MIN KSTC 101625Z AUTO 35008KT 10SM CLR 19/12 A3015 810 65 1500 340/08 RMK AO2
14926KSTC STC20020910103009809/10/02 10:30:31  5-MIN KSTC 101630Z AUTO 33008KT 10SM CLR 19/13 A3015 820 65 1600 330/08 RMK AO2
14926KSTC STC20020910103509809/10/02 10:35:31  5-MIN KSTC 101635Z AUTO 33010KT 10SM CLR 19/12 A3015 820 62 1600 330/10 RMK AO2
14926KSTC STC20020910104009809/10/02 10:40:31  5-MIN KSTC 101640Z AUTO 35008KT 10SM CLR 19/12 A3015 810 62 1600 350/08 RMK AO2
14926KSTC STC20020910104509809/10/02 10:45:31  5-MIN KSTC 101645Z AUTO 32009KT 10SM CLR 19/12 A3015 810 62 1600 320/09 RMK AO2
14926KSTC STC20020910105011509/10/02 10:50:31  5-MIN KSTC 101650Z AUTO 33010KT 10SM CLR 19/12 A3015 810 62 1600 330/10 RMK AO2 SLP215 T01940122
14926KSTC STC20020910105509809/10/02 10:55:31  5-MIN KSTC 101655Z AUTO 34009KT 10SM CLR 20/12 A3015 820 60 1600 340/09 RMK AO2
14926KSTC STC20020910110009809/10/02 11:00:31  5-MIN KSTC 101700Z AUTO 33009KT 10SM CLR 20/12 A3015 820 60 1600 320/09 RMK AO2
14926KSTC STC20020910110509809/10/02 11:05:31  5-MIN KSTC 101705Z AUTO 34010KT 10SM CLR 20/13 A3015 820 63 1600 340/10 RMK AO2
14926KSTC STC20020910111010409/10/02 11:10:31  5-MIN KSTC 101710Z AUTO 35007G14KT 10SM CLR 20/13 A3015 820 63 1600 350/07G14 RMK AO2
14926KSTC STC20020910111510409/10/02 11:15:31  5-MIN KSTC 101715Z AUTO 32009G14KT 10SM CLR 20/12 A3015 820 60 1600 320/09G14 RMK AO2
14926KSTC STC20020910112009809/10/02 11:20:31  5-MIN KSTC 101720Z AUTO 34007KT 10SM CLR 21/13 A3015 820 60 1700 340/07 RMK AO2
14926KSTC STC20020910112509809/10/02 11:25:31  5-MIN KSTC 101725Z AUTO 31011KT 10SM CLR 21/13 A3015 820 63 1700 300/11 RMK AO2
14926KSTC STC20020910113009809/10/02 11:30:31  5-MIN KSTC 101730Z AUTO 32008KT 10SM CLR 21/13 A3015 820 60 1700 320/08 RMK AO2
14926KSTC STC20020910113509809/10/02 11:35:31  5-MIN KSTC 101735Z AUTO 34009KT 10SM CLR 21/13 A3015 810 60 1700 340/09 RMK AO2
14926KSTC STC20020910114009809/10/02 11:40:31  5-MIN KSTC 101740Z AUTO 31012KT 10SM CLR 21/12 A3015 820 58 1700 310/12 RMK AO2
14926KSTC STC20020910114509809/10/02 11:45:31  5-MIN KSTC 101745Z AUTO 34010KT 10SM CLR 21/12 A3015 820 58 1700 330/10 RMK AO2
14926KSTC STC20020910115013309/10/02 11:50:31  5-MIN KSTC 101750Z AUTO 35010KT 10SM CLR 21/12 A3015 810 56 1700 350/10 RMK AO2 SLP216 T02060117 10206 20128 51014
14926KSTC STC20020910115510409/10/02 11:55:31  5-MIN KSTC 101755Z AUTO 32011G17KT 10SM CLR 21/12 A3015 820 56 1800 320/11G17 RMK AO2
14926KSTC STC20020910120010409/10/02 12:00:31  5-MIN KSTC 101800Z AUTO 34011G17KT 10SM CLR 21/12 A3015 820 56 1800 330/11G17 RMK AO2
14926KSTC STC20020910120510409/10/02 12:05:31  5-MIN KSTC 101805Z AUTO 33009G15KT 10SM CLR 21/12 A3015 820 56 1800 330/09G15 RMK AO2
14926KSTC STC20020910121009809/10/02 12:10:31  5-MIN KSTC 101810Z AUTO 33007KT 10SM CLR 21/12 A3015 820 56 1800 330/07 RMK AO2
14926KSTC STC20020910121510409/10/02 12:15:31  5-MIN KSTC 101815Z AUTO 32007G14KT 10SM CLR 21/12 A3015 820 54 1800 320/07G14 RMK AO2
14926KSTC STC20020910122009809/10/02 12:20:31  5-MIN KSTC 101820Z AUTO 35009KT 10SM CLR 22/12 A3015 820 52 1900 350/09 RMK AO2
14926KSTC STC20020911205012109/11/02 20:50:31  5-MIN KSTC 120250Z AUTO 00000KT 10SM CLR 14/13 A3007 890 96 1000 000/00 RMK AO2 SLP190 T01390133 56012
14926KSTC STC20020911205509809/11/02 20:55:31  5-MIN KSTC 120255Z AUTO 00000KT 10SM CLR 14/13 A3007 890 96 1000 000/00 RMK AO2
14926KSTC STC20020911210009809/11/02 21:00:31  5-MIN KSTC 120300Z AUTO 00000KT 10SM CLR 14/13 A3007 890 96 1000 000/00 RMK AO2
14926KSTC STC20020911210509809/11/02 21:05:31  5-MIN KSTC 120305Z AUTO 00000KT 10SM CLR 14/13 A3007 890 93 1000 000/00 RMK AO2
14926KSTC STC20020911211009809/11/02 21:10:31  5-MIN KSTC 120310Z AUTO 00000KT 10SM CLR 14/13 A3007 890 93 1000 000/00 RMK AO2
14926KSTC STC20020911211509709/11/02 21:15:31  5-MIN KSTC 120315Z AUTO 15003KT 10SM CLR 13/13 A3007 890 96 900 150/03 RMK AO2
14926KSTC STC20020911212009809/11/02 21:20:31  5-MIN KSTC 120320Z AUTO 15003KT 10SM CLR 14/13 A3007 890 96 1000 140/03 RMK AO2
14926KSTC STC20020911212509809/11/02 21:25:31  5-MIN KSTC 120325Z AUTO 15003KT 10SM CLR 14/13 A3007 890 96 1000 140/03 RMK AO2
14926KSTC STC20020911213009709/11/02 21:30:31  5-MIN KSTC 120330Z AUTO 15003KT 10SM CLR 13/13 A3006 890 96 900 140/03 RMK AO2
14926KSTC STC20020911213509709/11/02 21:35:31  5-MIN KSTC 120335Z AUTO 15003KT 10SM CLR 13/13 A3006 890 96 900 140/03 RMK AO2
14926KSTC STC20020911214009709/11/02 21:40:31  5-MIN KSTC 120340Z AUTO 15003KT 10SM CLR 13/12 A3006 900 93 900 140/03 RMK AO2
14926KSTC STC20020911214509809/11/02 21:45:31  5-MIN KSTC 120345Z AUTO 15003KT 10SM CLR 14/13 A3006 890 93 1000 150/03 RMK AO2
14926KSTC STC20020911215011409/11/02 21:50:31  5-MIN KSTC 120350Z AUTO 15003KT 10SM CLR 13/13 A3006 890 96 900 150/03 RMK AO2 SLP187 T01330128
14926KSTC STC20020911215509709/11/02 21:55:31  5-MIN KSTC 120355Z AUTO 15003KT 10SM CLR 13/13 A3006 900 96 900 150/03 RMK AO2
14926KSTC STC20020911220009709/11/02 22:00:31  5-MIN KSTC 120400Z AUTO 15003KT 10SM CLR 13/13 A3006 900 96 900 150/03 RMK AO2
14926KSTC STC20020911220509709/11/02 22:05:31  5-MIN KSTC 120405Z AUTO 14003KT 10SM CLR 13/12 A3006 900 96 900 140/03 RMK AO2
14926KSTC STC20020911221009709/11/02 22:10:31  5-MIN KSTC 120410Z AUTO 15003KT 10SM CLR 13/12 A3006 900 96 900 140/03 RMK AO2
14926KSTC STC20020911221509709/11/02 22:15:31  5-MIN KSTC 120415Z AUTO 00000KT 10SM CLR 13/12 A3006 900 96 900 000/00 RMK AO2
14926KSTC STC20020911222009709/11/02 22:20:31  5-MIN KSTC 120420Z AUTO 16003KT 10SM CLR 13/12 A3006 900 96 900 150/03 RMK AO2
14926KSTC STC20020911222509709/11/02 22:25:31  5-MIN KSTC 120425Z AUTO 16003KT 10SM CLR 13/13 A3006 900 96 900 160/03 RMK AO2
14926KSTC STC20020911223009809/11/02 22:30:31  5-MIN KSTC 120430Z AUTO 16003KT 10SM CLR 13/13 A3006 900 100 900 160/03 RMK AO2
14926KSTC STC20020911223509809/11/02 22:35:31  5-MIN KSTC 120435Z AUTO 00000KT 10SM CLR 13/12 A3006 900 93 1000 000/00 RMK AO2
14926KSTC STC20020911224009709/11/02 22:40:31  5-MIN KSTC 120440Z AUTO 00000KT 10SM CLR 13/13 A3006 900 96 900 000/00 RMK AO2
14926KSTC STC20020911224509709/11/02 22:45:31  5-MIN KSTC 120445Z AUTO 00000KT 10SM CLR 13/13 A3006 900 96 900 000/00 RMK AO2
14926KSTC STC20020911225011409/11/02 22:50:31  5-MIN KSTC 120450Z AUTO 00000KT 10SM CLR 13/13 A3006 900 96 900 000/00 RMK AO2 SLP186 T01330128
14926KSTC STC20020911225509709/11/02 22:55:31  5-MIN KSTC 120455Z AUTO 00000KT 10SM CLR 13/12 A3006 900 96 900 000/00 RMK AO2
14926KSTC STC20020911230009709/11/02 23:00:31  5-MIN KSTC 120500Z AUTO 00000KT 10SM CLR 13/12 A3006 900 96 900 000/00 RMK AO2
14926KSTC STC20020911230509709/11/02 23:05:31  5-MIN KSTC 120505Z AUTO 00000KT 10SM CLR 13/12 A3006 900 96 900 000/00 RMK AO2
14926KSTC STC20020911231009809/11/02 23:10:31  5-MIN KSTC 120510Z AUTO 00000KT 10SM CLR 12/12 A3006 900 100 800 000/00 RMK AO2
14926KSTC STC20020911231509709/11/02 23:15:31  5-MIN KSTC 120515Z AUTO 00000KT 10SM CLR 13/12 A3006 900 96 900 000/00 RMK AO2
14926KSTC STC20020911232009809/11/02 23:20:31  5-MIN KSTC 120520Z AUTO 00000KT 10SM CLR 13/13 A3006 900 100 900 000/00 RMK AO2
14926KSTC STC20020911232509709/11/02 23:25:31  5-MIN KSTC 120525Z AUTO 00000KT 10SM CLR 13/12 A3006 900 96 900 000/00 RMK AO2
14926KSTC STC20020911233009809/11/02 23:30:31  5-MIN KSTC 120530Z AUTO 16003KT 10SM CLR 12/12 A3006 900 100 800 150/03 RMK AO2
14926KSTC STC20020911233509809/11/02 23:35:31  5-MIN KSTC 120535Z AUTO 16003KT 10SM CLR 12/12 A3006 900 100 800 150/03 RMK AO2
14926KSTC STC20020911234009809/11/02 23:40:31  5-MIN KSTC 120540Z AUTO 00000KT 10SM CLR 12/12 A3006 900 100 800 000/00 RMK AO2
14926KSTC STC20020911234509709/11/02 23:45:31  5-MIN KSTC 120545Z AUTO 00000KT 10SM CLR 13/12 A3005 900 96 900 000/00 RMK AO2
14926KSTC STC20020911235014209/11/02 23:50:31  5-MIN KSTC 120550Z AUTO 00000KT 10SM CLR 13/12 A3005 900 96 900 000/00 RMK AO2 SLP183 T01280122 10211 20122 402440100 56000
14926KSTC STC20020911235509709/11/02 23:55:31  5-MIN KSTC 120555Z AUTO 00000KT 10SM CLR 13/12 A3005 900 96 900 000/00 RMK AO2
14926KSTC STC20020912000009709/12/02 00:00:31  5-MIN KSTC 120600Z AUTO 00000KT 10SM CLR 12/12 A3005 900 96 800 000/00 RMK AO2
14926KSTC STC20020912000509709/12/02 00:05:31  5-MIN KSTC 120605Z AUTO 00000KT 10SM CLR 12/12 A3005 910 96 800 000/00 RMK AO2
14926KSTC STC20020912001009709/12/02 00:10:31  5-MIN KSTC 120610Z AUTO 00000KT 10SM CLR 12/12 A3005 910 96 800 000/00 RMK AO2
14926KSTC STC20020912001509709/12/02 00:15:31  5-MIN KSTC 120615Z AUTO 00000KT 10SM CLR 12/12 A3005 910 96 800 000/00 RMK AO2
14926KSTC STC20020912002009709/12/02 00:20:31  5-MIN KSTC 120620Z AUTO 00000KT 10SM CLR 12/12 A3005 910 96 800 000/00 RMK AO2
14926KSTC STC20020912002509809/12/02 00:25:31  5-MIN KSTC 120625Z AUTO 00000KT 10SM CLR 12/12 A3005 910 100 800 000/00 RMK AO2
14926KSTC STC20020912003009809/12/02 00:30:31  5-MIN KSTC 120630Z AUTO 00000KT 10SM CLR 12/12 A3005 910 100 800 000/00 RMK AO2
14926KSTC STC20020912003509709/12/02 00:35:31  5-MIN KSTC 120635Z AUTO 00000KT 10SM CLR 12/12 A3005 910 96 800 000/00 RMK AO2
14926KSTC STC20020912004009809/12/02 00:40:31  5-MIN KSTC 120640Z AUTO 00000KT 10SM CLR 12/12 A3005 910 100 800 000/00 RMK AO2
14926KSTC STC20020912004509809/12/02 00:45:31  5-MIN KSTC 120645Z AUTO 00000KT 10SM CLR 12/12 A3005 910 100 800 000/00 RMK AO2
14926KSTC STC20020912005011309/12/02 00:50:31  5-MIN KSTC 120650Z AUTO 00000KT 9SM CLR 12/12 A3005 910 96 800 000/00 RMK AO2 SLP182 T01220117
14926KSTC STC20020912005509709/12/02 00:55:31  5-MIN KSTC 120655Z AUTO 00000KT 8SM CLR 12/12 A3005 910 100 800 000/00 RMK AO2
14926KSTC STC20020912010009709/12/02 01:00:31  5-MIN KSTC 120700Z AUTO 00000KT 9SM CLR 12/12 A3005 910 100 800 000/00 RMK AO2
14926KSTC STC20020912010509709/12/02 01:05:31  5-MIN KSTC 120705Z AUTO 00000KT 10SM CLR 12/12 A3004 910 96 800 000/00 RMK AO2
14926KSTC STC20020912011009809/12/02 01:10:31  5-MIN KSTC 120710Z AUTO 00000KT 10SM CLR 12/12 A3004 910 100 800 000/00 RMK AO2
14926KSTC STC20020912011509809/12/02 01:15:31  5-MIN KSTC 120715Z AUTO 18003KT 10SM CLR 12/12 A3004 910 100 800 180/03 RMK AO2
14926KSTC STC20020912012009709/12/02 01:20:31  5-MIN KSTC 120720Z AUTO 18003KT 9SM CLR 12/12 A3004 910 100 800 180/03 RMK AO2
14926KSTC STC20020912012509709/12/02 01:25:31  5-MIN KSTC 120725Z AUTO 18003KT 8SM CLR 12/12 A3004 910 100 800 180/03 RMK AO2
14926KSTC STC20020912013009709/12/02 01:30:31  5-MIN KSTC 120730Z AUTO 18003KT 8SM CLR 12/12 A3004 910 100 800 180/03 RMK AO2
14926KSTC STC20020912013509709/12/02 01:35:31  5-MIN KSTC 120735Z AUTO 18003KT 9SM CLR 12/12 A3004 910 100 800 180/03 RMK AO2
14926KSTC STC20020912014009809/12/02 01:40:31  5-MIN KSTC 120740Z AUTO 18003KT 10SM CLR 12/12 A3004 910 100 800 180/03 RMK AO2
14926KSTC STC20020912014509709/12/02 01:45:31  5-MIN KSTC 120745Z AUTO 18003KT 10SM CLR 12/12 A3004 910 96 800 170/03 RMK AO2
14926KSTC STC20020912015011409/12/02 01:50:31  5-MIN KSTC 120750Z AUTO 00000KT 10SM CLR 12/12 A3004 910 96 800 000/00 RMK AO2 SLP180 T01220117
14926KSTC STC20020912015509809/12/02 01:55:31  5-MIN KSTC 120755Z AUTO 17003KT 10SM CLR 12/12 A3004 910 100 800 170/03 RMK AO2
14926KSTC STC20020912020009709/12/02 02:00:31  5-MIN KSTC 120800Z AUTO 17003KT 10SM CLR 12/12 A3004 910 96 800 170/03 RMK AO2
14926KSTC STC20020912020509709/12/02 02:05:31  5-MIN KSTC 120805Z AUTO 17003KT 10SM CLR 12/12 A3004 910 96 800 160/03 RMK AO2
14926KSTC STC20020912021009709/12/02 02:10:31  5-MIN KSTC 120810Z AUTO 17003KT 10SM CLR 12/12 A3004 910 96 800 160/03 RMK AO2
14926KSTC STC20020912021509709/12/02 02:15:31  5-MIN KSTC 120815Z AUTO 17003KT 10SM CLR 12/12 A3004 910 96 800 160/03 RMK AO2
14926KSTC STC20020912022009709/12/02 02:20:31  5-MIN KSTC 120820Z AUTO 17003KT 10SM CLR 12/11 A3004 910 93 800 170/03 RMK AO2
14926KSTC STC20020912022509709/12/02 02:25:31  5-MIN KSTC 120825Z AUTO 17003KT 10SM CLR 12/12 A3004 910 96 800 170/03 RMK AO2
14926KSTC STC20020912023009709/12/02 02:30:31  5-MIN KSTC 120830Z AUTO 18003KT 10SM CLR 12/12 A3004 910 96 800 170/03 RMK AO2
14926KSTC STC20020912023509709/12/02 02:35:31  5-MIN KSTC 120835Z AUTO 17003KT 10SM CLR 12/11 A3004 910 93 800 170/03 RMK AO2
14926KSTC STC20020912024009709/12/02 02:40:31  5-MIN KSTC 120840Z AUTO 17003KT 10SM CLR 12/12 A3004 910 96 800 170/03 RMK AO2
14926KSTC STC20020912024509709/12/02 02:45:31  5-MIN KSTC 120845Z AUTO 17003KT 10SM CLR 12/12 A3004 920 96 800 170/03 RMK AO2
14926KSTC STC20020912025012009/12/02 02:50:31  5-MIN KSTC 120850Z AUTO 00000KT 10SM CLR 12/12 A3004 920 96 800 000/00 RMK AO2 SLP179 T01220117 56006
14926KSTC STC20020912025509709/12/02 02:55:31  5-MIN KSTC 120855Z AUTO 18003KT 10SM CLR 12/12 A3004 920 96 800 170/03 RMK AO2
14926KSTC STC20020912030009709/12/02 03:00:31  5-MIN KSTC 120900Z AUTO 18003KT 10SM CLR 12/12 A3004 920 96 800 170/03 RMK AO2
14926KSTC STC20020912030509709/12/02 03:05:31  5-MIN KSTC 120905Z AUTO 17003KT 10SM CLR 12/12 A3004 920 96 800 170/03 RMK AO2
14926KSTC STC20020912031009709/12/02 03:10:31  5-MIN KSTC 120910Z AUTO 18004KT 10SM CLR 12/11 A3003 920 96 800 170/04 RMK AO2
14926KSTC STC20020912031509709/12/02 03:15:31  5-MIN KSTC 120915Z AUTO 18004KT 10SM CLR 12/11 A3003 920 93 800 170/04 RMK AO2
14926KSTC STC20020912032009709/12/02 03:20:31  5-MIN KSTC 120920Z AUTO 17004KT 10SM CLR 12/11 A3003 920 93 800 170/04 RMK AO2
14926KSTC STC20020912032509709/12/02 03:25:31  5-MIN KSTC 120925Z AUTO 18005KT 10SM CLR 12/11 A3003 920 93 800 170/05 RMK AO2
14926KSTC STC20020912033009709/12/02 03:30:31  5-MIN KSTC 120930Z AUTO 18005KT 10SM CLR 12/11 A3003 930 93 800 180/05 RMK AO2
14926KSTC STC20020912033509709/12/02 03:35:31  5-MIN KSTC 120935Z AUTO 18005KT 10SM CLR 12/11 A3003 920 89 900 180/05 RMK AO2
14926KSTC STC20020912034009709/12/02 03:40:31  5-MIN KSTC 120940Z AUTO 18004KT 10SM CLR 12/11 A3003 920 93 900 180/04 RMK AO2
14926KSTC STC20020912034509709/12/02 03:45:31  5-MIN KSTC 120945Z AUTO 19005KT 10SM CLR 12/11 A3003 920 93 900 180/05 RMK AO2
14926KSTC STC20020912035011409/12/02 03:50:31  5-MIN KSTC 120950Z AUTO 18005KT 10SM CLR 12/11 A3003 920 89 800 180/05 RMK AO2 SLP176 T01220106
14926KSTC STC20020912035509709/12/02 03:55:31  5-MIN KSTC 120955Z AUTO 19004KT 10SM CLR 12/11 A3003 920 89 800 190/04 RMK AO2
14926KSTC STC20020912040009709/12/02 04:00:31  5-MIN KSTC 121000Z AUTO 19006KT 10SM CLR 12/11 A3003 920 89 800 190/06 RMK AO2
14926KSTC STC20020912040509709/12/02 04:05:31  5-MIN KSTC 121005Z AUTO 19005KT 10SM CLR 12/11 A3003 920 93 800 190/05 RMK AO2
14926KSTC STC20020912041009709/12/02 04:10:31  5-MIN KSTC 121010Z AUTO 19005KT 10SM CLR 12/11 A3003 920 93 900 190/05 RMK AO2
14926KSTC STC20020912041509709/12/02 04:15:31  5-MIN KSTC 121015Z AUTO 19004KT 10SM CLR 12/11 A3003 930 89 900 190/04 RMK AO2
14926KSTC STC20020912042009709/12/02 04:20:31  5-MIN KSTC 121020Z AUTO 18004KT 10SM CLR 12/11 A3003 920 89 900 180/04 RMK AO2
14926KSTC STC20020912042509709/12/02 04:25:31  5-MIN KSTC 121025Z AUTO 00000KT 10SM CLR 12/11 A3003 920 93 800 000/00 RMK AO2
14926KSTC STC20020912043009709/12/02 04:30:31  5-MIN KSTC 121030Z AUTO 18003KT 10SM CLR 12/11 A3003 930 93 800 170/03 RMK AO2
14926KSTC STC20020912043509709/12/02 04:35:31  5-MIN KSTC 121035Z AUTO 18003KT 10SM CLR 12/11 A3003 920 93 800 170/03 RMK AO2
14926KSTC STC20020912044009709/12/02 04:40:31  5-MIN KSTC 121040Z AUTO 17004KT 10SM CLR 12/11 A3003 920 93 800 170/04 RMK AO2
14926KSTC STC20020912044509709/12/02 04:45:31  5-MIN KSTC 121045Z AUTO 18004KT 10SM CLR 11/11 A3003 920 96 700 170/04 RMK AO2
14926KSTC STC20020912045011409/12/02 04:50:31  5-MIN KSTC 121050Z AUTO 17004KT 10SM CLR 11/11 A3003 920 96 700 170/04 RMK AO2 SLP177 T01110106
14926KSTC STC20020912045509709/12/02 04:55:31  5-MIN KSTC 121055Z AUTO 18004KT 10SM CLR 11/11 A3003 920 96 700 170/04 RMK AO2
14926KSTC STC20020912050009709/12/02 05:00:31  5-MIN KSTC 121100Z AUTO 18003KT 10SM CLR 11/11 A3003 920 96 700 170/03 RMK AO2
14926KSTC STC20020912050509709/12/02 05:05:31  5-MIN KSTC 121105Z AUTO 17003KT 10SM CLR 12/11 A3003 920 93 800 170/03 RMK AO2
14926KSTC STC20020912051009709/12/02 05:10:31  5-MIN KSTC 121110Z AUTO 17003KT 10SM CLR 12/11 A3003 920 93 800 170/03 RMK AO2
14926KSTC STC20020912051509709/12/02 05:15:31  5-MIN KSTC 121115Z AUTO 17003KT 10SM CLR 12/11 A3004 920 89 800 170/03 RMK AO2
14926KSTC STC20020912052009709/12/02 05:20:31  5-MIN KSTC 121120Z AUTO 17004KT 10SM CLR 12/11 A3004 920 89 800 170/04 RMK AO2
14926KSTC STC20020912052509709/12/02 05:25:31  5-MIN KSTC 121125Z AUTO 17005KT 10SM CLR 12/10 A3004 920 89 800 170/05 RMK AO2
14926KSTC STC20020912053009709/12/02 05:30:31  5-MIN KSTC 121130Z AUTO 17004KT 10SM CLR 12/11 A3004 920 93 800 170/04 RMK AO2
14926KSTC STC20020912053509709/12/02 05:35:31  5-MIN KSTC 121135Z AUTO 17004KT 10SM CLR 12/11 A3004 920 93 800 160/04 RMK AO2
14926KSTC STC20020912054009709/12/02 05:40:31  5-MIN KSTC 121140Z AUTO 15003KT 10SM CLR 11/11 A3004 920 96 700 150/03 RMK AO2
14926KSTC STC20020912054509709/12/02 05:45:31  5-MIN KSTC 121145Z AUTO 15003KT 10SM CLR 12/11 A3004 920 93 800 150/03 RMK AO2
14926KSTC STC20020912055013209/12/02 05:50:31  5-MIN KSTC 121150Z AUTO 17004KT 10SM CLR 12/11 A3003 920 93 800 160/04 RMK AO2 SLP178 T01170106 10128 20111 56004
14926KSTC STC20020912055509709/12/02 05:55:31  5-MIN KSTC 121155Z AUTO 17004KT 10SM CLR 12/11 A3003 920 93 800 170/04 RMK AO2
14926KSTC STC20020912060009709/12/02 06:00:31  5-MIN KSTC 121200Z AUTO 18003KT 10SM CLR 11/11 A3003 920 96 700 180/03 RMK AO2
14926KSTC STC20020912060509709/12/02 06:05:31  5-MIN KSTC 121205Z AUTO 18003KT 10SM CLR 12/11 A3004 920 93 800 180/03 RMK AO2
14926KSTC STC20020912061009709/12/02 06:10:31  5-MIN KSTC 121210Z AUTO 17004KT 10SM CLR 12/11 A3003 920 93 800 170/04 RMK AO2
14926KSTC STC20020912061509709/12/02 06:15:31  5-MIN KSTC 121215Z AUTO 17004KT 10SM CLR 12/11 A3003 920 93 800 160/04 RMK AO2
14926KSTC STC20020912062009709/12/02 06:20:31  5-MIN KSTC 121220Z AUTO 17004KT 10SM CLR 12/11 A3003 920 93 800 170/04 RMK AO2
14926KSTC STC20020912062509709/12/02 06:25:31  5-MIN KSTC 121225Z AUTO 18005KT 10SM CLR 12/11 A3003 920 96 800 170/05 RMK AO2
14926KSTC STC20020912063009709/12/02 06:30:31  5-MIN KSTC 121230Z AUTO 18003KT 10SM CLR 12/11 A3003 920 93 800 180/03 RMK AO2
14926KSTC STC20020912063509709/12/02 06:35:31  5-MIN KSTC 121235Z AUTO 19004KT 10SM CLR 12/12 A3003 920 96 800 180/04 RMK AO2
14926KSTC STC20020912064009709/12/02 06:40:31  5-MIN KSTC 121240Z AUTO 18004KT 10SM CLR 13/12 A3003 920 93 900 180/04 RMK AO2
14926KSTC STC20020912064509709/12/02 06:45:31  5-MIN KSTC 121245Z AUTO 19004KT 10SM CLR 13/12 A3003 930 93 900 180/04 RMK AO2
14926KSTC STC20020912065011409/12/02 06:50:31  5-MIN KSTC 121250Z AUTO 18004KT 10SM CLR 13/12 A3003 930 93 900 180/04 RMK AO2 SLP178 T01280117
14926KSTC STC20020912065509809/12/02 06:55:31  5-MIN KSTC 121255Z AUTO 19005KT 10SM CLR 13/12 A3003 930 89 1000 180/05 RMK AO2
14926KSTC STC20020912070009809/12/02 07:00:31  5-MIN KSTC 121300Z AUTO 19005KT 10SM CLR 13/12 A3003 930 89 1000 180/05 RMK AO2
14926KSTC STC20020912070509809/12/02 07:05:31  5-MIN KSTC 121305Z AUTO 20004KT 10SM CLR 13/12 A3003 930 93 1000 190/04 RMK AO2
14926KSTC STC20020912071009809/12/02 07:10:31  5-MIN KSTC 121310Z AUTO 19004KT 10SM CLR 14/12 A3003 930 90 1000 190/04 RMK AO2
14926KSTC STC20020912071509809/12/02 07:15:31  5-MIN KSTC 121315Z AUTO 20004KT 10SM CLR 14/12 A3003 920 90 1000 190/04 RMK AO2
14926KSTC STC20020912072009809/12/02 07:20:31  5-MIN KSTC 121320Z AUTO 20003KT 10SM CLR 14/12 A3003 930 90 1000 200/03 RMK AO2
14926KSTC STC20020912072509809/12/02 07:25:31  5-MIN KSTC 121325Z AUTO 20004KT 10SM CLR 14/13 A3003 920 93 1000 190/04 RMK AO2
14926KSTC STC20020912073009809/12/02 07:30:31  5-MIN KSTC 121330Z AUTO 19004KT 10SM CLR 14/13 A3003 930 90 1100 190/04 RMK AO2
14926KSTC STC20020912073509809/12/02 07:35:31  5-MIN KSTC 121335Z AUTO 20003KT 10SM CLR 14/13 A3003 930 93 1100 200/03 RMK AO2
14926KSTC STC20020912074009809/12/02 07:40:31  5-MIN KSTC 121340Z AUTO 20003KT 10SM CLR 14/13 A3003 930 90 1100 200/03 RMK AO2
14926KSTC STC20020912074509809/12/02 07:45:31  5-MIN KSTC 121345Z AUTO 21004KT 10SM CLR 15/13 A3003 930 90 1200 210/04 RMK AO2
14926KSTC STC20020912075011509/12/02 07:50:31  5-MIN KSTC 121350Z AUTO 21005KT 10SM CLR 16/13 A3003 930 86 1200 210/05 RMK AO2 SLP177 T01560133
14926KSTC STC20020912075509809/12/02 07:55:31  5-MIN KSTC 121355Z AUTO 21004KT 10SM CLR 16/13 A3003 930 86 1300 210/04 RMK AO2
14926KSTC STC20020912080009809/12/02 08:00:31  5-MIN KSTC 121400Z AUTO 21005KT 10SM CLR 16/13 A3002 930 83 1300 210/05 RMK AO2
14926KSTC STC20020912080509809/12/02 08:05:31  5-MIN KSTC 121405Z AUTO 21006KT 10SM CLR 16/14 A3002 930 86 1300 210/06 RMK AO2
14926KSTC STC20020912081009809/12/02 08:10:31  5-MIN KSTC 121410Z AUTO 21006KT 10SM CLR 17/14 A3002 930 86 1400 210/06 RMK AO2
14926KSTC STC20020912081509809/12/02 08:15:31  5-MIN KSTC 121415Z AUTO 21006KT 10SM CLR 17/14 A3002 940 83 1400 200/06 RMK AO2
14926KSTC STC20020912082009809/12/02 08:20:31  5-MIN KSTC 121420Z AUTO 21006KT 10SM CLR 17/14 A3002 940 83 1500 210/06 RMK AO2
14926KSTC STC20020912082509809/12/02 08:25:31  5-MIN KSTC 121425Z AUTO 21006KT 10SM CLR 18/14 A3002 940 78 1500 210/06 RMK AO2
14926KSTC STC20020912083009809/12/02 08:30:31  5-MIN KSTC 121430Z AUTO 22005KT 10SM CLR 18/14 A3002 930 78 1500 220/05 RMK AO2
14926KSTC STC20020912083509809/12/02 08:35:31  5-MIN KSTC 121435Z AUTO 23006KT 10SM CLR 18/14 A3002 930 78 1600 220/06 RMK AO2
14926KSTC STC20020912084009809/12/02 08:40:31  5-MIN KSTC 121440Z AUTO 22005KT 10SM CLR 19/14 A3002 930 75 1600 210/05 RMK AO2
14926KSTC STC20020912084509809/12/02 08:45:31  5-MIN KSTC 121445Z AUTO 22006KT 10SM CLR 19/14 A3002 930 75 1600 220/06 RMK AO2
14926KSTC STC20020912085509809/12/02 08:55:31  5-MIN KSTC 121455Z AUTO 22007KT 10SM CLR 19/14 A3002 930 70 1700 220/07 RMK AO2
14926KSTC STC20020912090009809/12/02 09:00:31  5-MIN KSTC 121500Z AUTO 23006KT 10SM CLR 20/14 A3002 930 70 1800 230/06 RMK AO2
14926KSTC STC20020912090509809/12/02 09:05:31  5-MIN KSTC 121505Z AUTO 23006KT 10SM CLR 21/14 A3002 930 65 1800 230/06 RMK AO2
14926KSTC STC20020912091009809/12/02 09:10:31  5-MIN KSTC 121510Z AUTO 24009KT 10SM CLR 21/14 A3002 930 67 1800 240/09 RMK AO2
14926KSTC STC20020912091509809/12/02 09:15:31  5-MIN KSTC 121515Z AUTO 24007KT 10SM CLR 21/14 A3002 930 65 1800 230/07 RMK AO2
14926KSTC STC20020912092009809/12/02 09:20:31  5-MIN KSTC 121520Z AUTO 25007KT 10SM CLR 21/14 A3003 930 63 1900 250/07 RMK AO2
14926KSTC STC20020912092509809/12/02 09:25:31  5-MIN KSTC 121525Z AUTO 26006KT 10SM CLR 22/14 A3003 930 63 2000 250/06 RMK AO2
14926KSTC STC20020912093009809/12/02 09:30:31  5-MIN KSTC 121530Z AUTO 24006KT 10SM CLR 22/14 A3003 930 63 2000 240/06 RMK AO2
14926KSTC STC20020912093509809/12/02 09:35:31  5-MIN KSTC 121535Z AUTO 26008KT 10SM CLR 22/14 A3003 930 61 2000 260/08 RMK AO2
14926KSTC STC20020912094009809/12/02 09:40:31  5-MIN KSTC 121540Z AUTO 26009KT 10SM CLR 22/13 A3003 930 58 2000 250/09 RMK AO2
14926KSTC STC20020912094509809/12/02 09:45:31  5-MIN KSTC 121545Z AUTO 24008KT 10SM CLR 22/14 A3003 930 59 2000 230/08 RMK AO2
14926KSTC STC20020912095011509/12/02 09:50:31  5-MIN KSTC 121550Z AUTO 26007KT 10SM CLR 22/14 A3003 930 59 2000 260/07 RMK AO2 SLP176 T02220139
14926KSTC STC20020912095509809/12/02 09:55:31  5-MIN KSTC 121555Z AUTO 26008KT 10SM CLR 22/14 A3003 930 59 2000 250/08 RMK AO2
14926KSTC STC20020912100009809/12/02 10:00:31  5-MIN KSTC 121600Z AUTO 24008KT 10SM CLR 22/14 A3003 930 59 2000 240/08 RMK AO2
14926KSTC STC20020912100509809/12/02 10:05:31  5-MIN KSTC 121605Z AUTO 24008KT 10SM CLR 22/14 A3002 930 59 2000 240/08 RMK AO2
14926KSTC STC20020912101009809/12/02 10:10:31  5-MIN KSTC 121610Z AUTO 23009KT 10SM CLR 23/14 A3002 930 57 2100 230/09 RMK AO2
14926KSTC STC20020912101509809/12/02 10:15:31  5-MIN KSTC 121615Z AUTO 24009KT 10SM CLR 23/14 A3002 930 57 2100 230/09 RMK AO2
14926KSTC STC20020912102009809/12/02 10:20:31  5-MIN KSTC 121620Z AUTO 23008KT 10SM CLR 23/14 A3002 930 57 2100 230/08 RMK AO2
14926KSTC STC20020912102509809/12/02 10:25:31  5-MIN KSTC 121625Z AUTO 24007KT 10SM CLR 23/14 A3002 940 59 2100 230/07 RMK AO2
14926KSTC STC20020912103009809/12/02 10:30:31  5-MIN KSTC 121630Z AUTO 24007KT 10SM CLR 23/14 A3002 940 57 2200 230/07 RMK AO2
14926KSTC STC20020912103509809/12/02 10:35:31  5-MIN KSTC 121635Z AUTO 26008KT 10SM CLR 23/14 A3002 940 55 2200 260/08 RMK AO2
14926KSTC STC20020912104009809/12/02 10:40:31  5-MIN KSTC 121640Z AUTO 24010KT 10SM CLR 24/14 A3002 940 55 2200 240/10 RMK AO2
14926KSTC STC20020912104509809/12/02 10:45:31  5-MIN KSTC 121645Z AUTO 23009KT 10SM CLR 23/14 A3002 940 57 2200 230/09 RMK AO2
14926KSTC STC20020912105011509/12/02 10:50:31  5-MIN KSTC 121650Z AUTO 26008KT 10SM CLR 24/14 A3001 940 55 2200 250/08 RMK AO2 SLP170 T02390144
14926KSTC STC20020912105509809/12/02 10:55:31  5-MIN KSTC 121655Z AUTO 24007KT 10SM CLR 24/14 A3001 940 53 2300 230/07 RMK AO2
14926KSTC STC20020912110009809/12/02 11:00:31  5-MIN KSTC 121700Z AUTO 26007KT 10SM CLR 24/14 A3001 940 53 2300 250/07 RMK AO2
14926KSTC STC20020912110509809/12/02 11:05:31  5-MIN KSTC 121705Z AUTO 26009KT 10SM CLR 24/14 A3001 940 53 2300 260/09 RMK AO2
14926KSTC STC20020912111009809/12/02 11:10:31  5-MIN KSTC 121710Z AUTO 26009KT 10SM CLR 24/14 A3001 940 53 2300 260/09 RMK AO2
14926KSTC STC20020912111509809/12/02 11:15:31  5-MIN KSTC 121715Z AUTO 24008KT 10SM CLR 24/14 A3001 940 51 2300 240/08 RMK AO2
14926KSTC STC20020912112009809/12/02 11:20:31  5-MIN KSTC 121720Z AUTO 26008KT 10SM CLR 25/14 A3001 940 51 2300 260/08 RMK AO2
14926KSTC STC20020912112509809/12/02 11:25:31  5-MIN KSTC 121725Z AUTO 27007KT 10SM CLR 25/14 A3001 940 49 2400 260/07 RMK AO2
14926KSTC STC20020912113009809/12/02 11:30:31  5-MIN KSTC 121730Z AUTO 26008KT 10SM CLR 25/14 A3001 940 51 2400 260/08 RMK AO2
14926KSTC STC20020912113509809/12/02 11:35:31  5-MIN KSTC 121735Z AUTO 25009KT 10SM CLR 25/14 A3001 940 49 2400 240/09 RMK AO2
14926KSTC STC20020912114009809/12/02 11:40:31  5-MIN KSTC 121740Z AUTO 26010KT 10SM CLR 25/14 A3001 940 49 2400 250/10 RMK AO2
14926KSTC STC20020912114509809/12/02 11:45:31  5-MIN KSTC 121745Z AUTO 25008KT 10SM CLR 26/14 A3001 940 49 2400 240/08 RMK AO2
14926KSTC STC20020912115013309/12/02 11:50:31  5-MIN KSTC 121750Z AUTO 25008KT 10SM CLR 26/14 A3001 940 49 2400 250/08 RMK AO2 SLP167 T02560144 10256 20111 56004
14926KSTC STC20020912115509809/12/02 11:55:31  5-MIN KSTC 121755Z AUTO 25009KT 10SM CLR 26/14 A3001 950 49 2400 240/09 RMK AO2
14926KSTC STC20020912120009809/12/02 12:00:31  5-MIN KSTC 121800Z AUTO 22008KT 10SM CLR 26/15 A3000 950 50 2500 220/08 RMK AO2
14926KSTC STC20020912120509809/12/02 12:05:31  5-MIN KSTC 121805Z AUTO 24009KT 10SM CLR 26/14 A3000 950 48 2500 230/09 RMK AO2
14926KSTC STC20020912121009809/12/02 12:10:31  5-MIN KSTC 121810Z AUTO 25009KT 10SM CLR 26/14 A3000 950 49 2400 240/09 RMK AO2
14926KSTC STC20020912121509809/12/02 12:15:31  5-MIN KSTC 121815Z AUTO 25011KT 10SM CLR 26/14 A3000 950 48 2500 250/11 RMK AO2
14926KSTC STC20020912122009809/12/02 12:20:31  5-MIN KSTC 121820Z AUTO 26008KT 10SM CLR 26/14 A3000 950 49 2400 260/08 RMK AO2
14926KSTC STC20020912122509809/12/02 12:25:31  5-MIN KSTC 121825Z AUTO 24010KT 10SM CLR 26/14 A3000 950 48 2500 240/10 RMK AO2
14926KSTC STC20020912123009809/12/02 12:30:31  5-MIN KSTC 121830Z AUTO 25012KT 10SM CLR 26/14 A3000 950 48 2500 240/12 RMK AO2
14926KSTC STC20020912123509809/12/02 12:35:31  5-MIN KSTC 121835Z AUTO 25009KT 10SM CLR 26/14 A3000 950 46 2500 250/09 RMK AO2
14926KSTC STC20020912124009809/12/02 12:40:31  5-MIN KSTC 121840Z AUTO 26012KT 10SM CLR 27/14 A3000 950 46 2600 250/12 RMK AO2
14926KSTC STC20020912124509809/12/02 12:45:31  5-MIN KSTC 121845Z AUTO 25010KT 10SM CLR 26/14 A3000 950 46 2500 250/10 RMK AO2
14926KSTC STC20020912125011509/12/02 12:50:31  5-MIN KSTC 121850Z AUTO 25008KT 10SM CLR 27/14 A3000 960 46 2600 240/08 RMK AO2 SLP163 T02670144
14926KSTC STC20020912125510409/12/02 12:55:31  5-MIN KSTC 121855Z AUTO 27010G15KT 10SM CLR 27/14 A2999 960 46 2600 270/10G15 RMK AO2
14926KSTC STC20020912130009809/12/02 13:00:31  5-MIN KSTC 121900Z AUTO 26010KT 10SM CLR 27/14 A2999 960 46 2600 260/10 RMK AO2
14926KSTC STC20020912130509809/12/02 13:05:31  5-MIN KSTC 121905Z AUTO 26010KT 10SM CLR 27/15 A2999 960 46 2600 260/10 RMK AO2
14926KSTC STC20020912131010109/12/02 13:10:31  5-MIN KSTC 121910Z AUTO 24007KT 10SM FEW055 27/14 A2999 960 46 2600 240/07 RMK AO2
14926KSTC STC20020912131510109/12/02 13:15:31  5-MIN KSTC 121915Z AUTO 25010KT 10SM FEW050 27/14 A2999 960 46 2600 250/10 RMK AO2
14926KSTC STC20020912132010109/12/02 13:20:31  5-MIN KSTC 121920Z AUTO 26009KT 10SM FEW050 26/14 A2999 960 48 2500 250/09 RMK AO2
14926KSTC STC20020912132510709/12/02 13:25:31  5-MIN KSTC 121925Z AUTO 23012G16KT 10SM FEW050 27/14 A2999 960 46 2600 230/12G16 RMK AO2
14926KSTC STC20020912133010109/12/02 13:30:31  5-MIN KSTC 121930Z AUTO 24009KT 10SM FEW050 27/14 A2999 960 46 2600 240/09 RMK AO2
14926KSTC STC20020912133510109/12/02 13:35:31  5-MIN KSTC 121935Z AUTO 25011KT 10SM FEW050 27/14 A2999 960 46 2600 250/11 RMK AO2
14926KSTC STC20020912134009809/12/02 13:40:31  5-MIN KSTC 121940Z AUTO 25012KT 10SM CLR 27/14 A2999 960 46 2600 250/12 RMK AO2
14926KSTC STC20020912134509809/12/02 13:45:31  5-MIN KSTC 121945Z AUTO 24010KT 10SM CLR 27/14 A2999 960 45 2600 240/10 RMK AO2
14926KSTC STC20020912135011509/12/02 13:50:31  5-MIN KSTC 121950Z AUTO 23011KT 10SM CLR 26/13 A2999 970 44 2500 230/11 RMK AO2 SLP159 T02610133
14926KSTC STC20020912135509809/12/02 13:55:31  5-MIN KSTC 121955Z AUTO 24011KT 10SM CLR 27/14 A2999 970 45 2600 240/11 RMK AO2
14926KSTC STC20020912140009809/12/02 14:00:31  5-MIN KSTC 122000Z AUTO 25013KT 10SM CLR 27/14 A2998 970 45 2600 250/13 RMK AO2
14926KSTC STC20020912140509809/12/02 14:05:31  5-MIN KSTC 122005Z AUTO 26010KT 10SM CLR 27/13 A2998 970 42 2600 260/10 RMK AO2
14926KSTC STC20020912141009809/12/02 14:10:31  5-MIN KSTC 122010Z AUTO 25015KT 10SM CLR 27/14 A2998 970 45 2600 250/15 RMK AO2
14926KSTC STC20020912141509809/12/02 14:15:31  5-MIN KSTC 122015Z AUTO 25013KT 10SM CLR 27/13 A2998 970 43 2600 250/13 RMK AO2
14926KSTC STC20020912142009809/12/02 14:20:31  5-MIN KSTC 122020Z AUTO 25011KT 10SM CLR 27/14 A2998 970 45 2600 240/11 RMK AO2
14926KSTC STC20020912142509809/12/02 14:25:31  5-MIN KSTC 122025Z AUTO 24010KT 10SM CLR 27/14 A2998 970 45 2600 240/10 RMK AO2
14926KSTC STC20020912143009809/12/02 14:30:31  5-MIN KSTC 122030Z AUTO 24014KT 10SM CLR 27/14 A2998 970 45 2600 240/14 RMK AO2
14926KSTC STC20020912143509809/12/02 14:35:31  5-MIN KSTC 122035Z AUTO 27009KT 10SM CLR 27/14 A2998 970 45 2600 260/09 RMK AO2
14926KSTC STC20020912144009809/12/02 14:40:31  5-MIN KSTC 122040Z AUTO 24010KT 10SM CLR 27/14 A2998 970 46 2600 240/10 RMK AO2
14926KSTC STC20020912144509809/12/02 14:45:31  5-MIN KSTC 122045Z AUTO 27011KT 10SM CLR 27/14 A2998 970 45 2600 260/11 RMK AO2
14926KSTC STC20020912145012109/12/02 14:50:31  5-MIN KSTC 122050Z AUTO 24013KT 10SM CLR 27/14 A2998 970 45 2600 240/13 RMK AO2 SLP156 T02670139 58005
14926KSTC STC20020912145509809/12/02 14:55:31  5-MIN KSTC 122055Z AUTO 25009KT 10SM CLR 26/14 A2998 970 46 2500 240/09 RMK AO2
14926KSTC STC20020912150009809/12/02 15:00:31  5-MIN KSTC 122100Z AUTO 24012KT 10SM CLR 27/14 A2998 970 45 2600 240/12 RMK AO2
14926KSTC STC20020912150509809/12/02 15:05:31  5-MIN KSTC 122105Z AUTO 25011KT 10SM CLR 27/14 A2998 980 45 2600 240/11 RMK AO2
14926KSTC STC20020912151009809/12/02 15:10:31  5-MIN KSTC 122110Z AUTO 24011KT 10SM CLR 27/14 A2997 980 45 2600 230/11 RMK AO2
14926KSTC STC20020912151509809/12/02 15:15:31  5-MIN KSTC 122115Z AUTO 25009KT 10SM CLR 26/14 A2997 980 46 2500 240/09 RMK AO2
14926KSTC STC20020912152009809/12/02 15:20:31  5-MIN KSTC 122120Z AUTO 23012KT 10SM CLR 26/14 A2997 980 46 2500 230/12 RMK AO2
14926KSTC STC20020912152509809/12/02 15:25:31  5-MIN KSTC 122125Z AUTO 22012KT 10SM CLR 26/14 A2997 980 46 2500 220/12 RMK AO2
14926KSTC STC20020912153009809/12/02 15:30:31  5-MIN KSTC 122130Z AUTO 23012KT 10SM CLR 26/13 A2997 980 46 2500 220/12 RMK AO2
14926KSTC STC20020912153509809/12/02 15:35:31  5-MIN KSTC 122135Z AUTO 23010KT 10SM CLR 26/14 A2997 980 48 2500 230/10 RMK AO2
14926KSTC STC20020912154009809/12/02 15:40:31  5-MIN KSTC 122140Z AUTO 23011KT 10SM CLR 26/14 A2997 980 46 2500 230/11 RMK AO2
14926KSTC STC20020912154509809/12/02 15:45:31  5-MIN KSTC 122145Z AUTO 24011KT 10SM CLR 26/14 A2997 980 48 2500 230/11 RMK AO2
14926KSTC STC20020912155011509/12/02 15:50:31  5-MIN KSTC 122150Z AUTO 24009KT 10SM CLR 26/14 A2997 980 48 2500 230/09 RMK AO2 SLP154 T02560139
14926KSTC STC20020912155509809/12/02 15:55:31  5-MIN KSTC 122155Z AUTO 24008KT 10SM CLR 26/14 A2997 980 49 2500 240/08 RMK AO2
14926KSTC STC20020912160009809/12/02 16:00:31  5-MIN KSTC 122200Z AUTO 23009KT 10SM CLR 26/14 A2997 980 49 2500 230/09 RMK AO2
14926KSTC STC20020912160509809/12/02 16:05:31  5-MIN KSTC 122205Z AUTO 23008KT 10SM CLR 26/14 A2996 990 49 2500 230/08 RMK AO2
14926KSTC STC20020912161009809/12/02 16:10:31  5-MIN KSTC 122210Z AUTO 23009KT 10SM CLR 25/14 A2996 990 51 2400 230/09 RMK AO2
14926KSTC STC20020912161509809/12/02 16:15:31  5-MIN KSTC 122215Z AUTO 24009KT 10SM CLR 25/14 A2996 990 51 2400 230/09 RMK AO2
14926KSTC STC20020912162009809/12/02 16:20:31  5-MIN KSTC 122220Z AUTO 23007KT 10SM CLR 25/14 A2996 990 51 2400 230/07 RMK AO2
14926KSTC STC20020912162509809/12/02 16:25:31  5-MIN KSTC 122225Z AUTO 23006KT 10SM CLR 25/14 A2996 990 51 2400 230/06 RMK AO2
14926KSTC STC20020912163009809/12/02 16:30:31  5-MIN KSTC 122230Z AUTO 23007KT 10SM CLR 24/14 A2996 990 53 2300 230/07 RMK AO2
14926KSTC STC20020912163509809/12/02 16:35:31  5-MIN KSTC 122235Z AUTO 23007KT 10SM CLR 24/14 A2996 990 53 2300 230/07 RMK AO2
14926KSTC STC20020912164009809/12/02 16:40:31  5-MIN KSTC 122240Z AUTO 23006KT 10SM CLR 25/15 A2996 990 53 2400 220/06 RMK AO2
14926KSTC STC20020912164509809/12/02 16:45:31  5-MIN KSTC 122245Z AUTO 22006KT 10SM CLR 25/16 A2996 990 55 2400 220/06 RMK AO2
14926KSTC STC20020912165011509/12/02 16:50:31  5-MIN KSTC 122250Z AUTO 22005KT 10SM CLR 24/16 A2996 990 57 2300 220/05 RMK AO2 SLP152 T02440156
14926KSTC STC20020912165509809/12/02 16:55:31  5-MIN KSTC 122255Z AUTO 22006KT 10SM CLR 24/16 A2996 990 57 2400 220/06 RMK AO2
14926KSTC STC20020912170009809/12/02 17:00:31  5-MIN KSTC 122300Z AUTO 22005KT 10SM CLR 24/16 A2996 990 57 2300 220/05 RMK AO2
14926KSTC STC20020912170509809/12/02 17:05:31  5-MIN KSTC 122305Z AUTO 22006KT 10SM CLR 24/16 A2996 990 57 2300 220/06 RMK AO2
14926KSTC STC20020912171009809/12/02 17:10:31  5-MIN KSTC 122310Z AUTO 22006KT 10SM CLR 24/16 A2996 990 59 2300 220/06 RMK AO2
14926KSTC STC20020912171509809/12/02 17:15:31  5-MIN KSTC 122315Z AUTO 22006KT 10SM CLR 24/16 A2996 990 59 2300 220/06 RMK AO2
14926KSTC STC20020912172009809/12/02 17:20:31  5-MIN KSTC 122320Z AUTO 22005KT 10SM CLR 23/16 A2996 990 61 2200 220/05 RMK AO2
14926KSTC STC20020912172509809/12/02 17:25:31  5-MIN KSTC 122325Z AUTO 21006KT 10SM CLR 23/16 A2996 990 63 2200 210/06 RMK AO2
14926KSTC STC20020912173009809/12/02 17:30:31  5-MIN KSTC 122330Z AUTO 21005KT 10SM CLR 23/16 A2996 990 65 2200 210/05 RMK AO2
14926KSTC STC20020912173509809/12/02 17:35:31  5-MIN KSTC 122335Z AUTO 21005KT 10SM CLR 23/16 A2996 990 65 2200 210/05 RMK AO2
14926KSTC STC20020912174009809/12/02 17:40:31  5-MIN KSTC 122340Z AUTO 22005KT 10SM CLR 22/16 A2996 990 68 2100 210/05 RMK AO2
14926KSTC STC20020912174509809/12/02 17:45:31  5-MIN KSTC 122345Z AUTO 22006KT 10SM CLR 22/16 A2996 990 68 2100 210/06 RMK AO2
14926KSTC STC20020912175013309/12/02 17:50:31  5-MIN KSTC 122350Z AUTO 22005KT 10SM CLR 22/16 A2996 990 68 2100 220/05 RMK AO2 SLP151 T02220161 10272 20222 56010
14926KSTC STC20020912175509809/12/02 17:55:31  5-MIN KSTC 122355Z AUTO 22006KT 10SM CLR 22/16 A2996 990 70 2000 220/06 RMK AO2
14926KSTC STC20020912180009809/12/02 18:00:31  5-MIN KSTC 130000Z AUTO 22006KT 10SM CLR 22/16 A2996 990 70 2000 210/06 RMK AO2
14926KSTC STC20020912180509809/12/02 18:05:31  5-MIN KSTC 130005Z AUTO 21005KT 10SM CLR 21/16 A2996 990 73 2000 210/05 RMK AO2
14926KSTC STC20020912181009809/12/02 18:10:31  5-MIN KSTC 130010Z AUTO 22006KT 10SM CLR 21/16 A2996 990 73 2000 210/06 RMK AO2
14926KSTC STC20020912181509809/12/02 18:15:31  5-MIN KSTC 130015Z AUTO 22007KT 10SM CLR 21/16 A2996 990 70 2000 220/07 RMK AO2
14926KSTC STC20020912182009809/12/02 18:20:31  5-MIN KSTC 130020Z AUTO 22006KT 10SM CLR 21/16 A2996 990 70 2000 220/06 RMK AO2
14926KSTC STC20020912182509809/12/02 18:25:31  5-MIN KSTC 130025Z AUTO 22006KT 10SM CLR 21/16 A2996 990 70 2000 220/06 RMK AO2
14926KSTC STC20020912183009809/12/02 18:30:31  5-MIN KSTC 130030Z AUTO 22005KT 10SM CLR 20/16 A2996 990 75 1800 210/05 RMK AO2
14926KSTC STC20020912183509809/12/02 18:35:31  5-MIN KSTC 130035Z AUTO 22004KT 10SM CLR 20/16 A2996 990 75 1800 220/04 RMK AO2
14926KSTC STC20020912184009809/12/02 18:40:31  5-MIN KSTC 130040Z AUTO 22004KT 10SM CLR 20/16 A2996 990 75 1800 220/04 RMK AO2
14926KSTC STC20020912184509809/12/02 18:45:31  5-MIN KSTC 130045Z AUTO 23005KT 10SM CLR 20/16 A2996 990 75 1800 220/05 RMK AO2
14926KSTC STC20020912185011509/12/02 18:50:31  5-MIN KSTC 130050Z AUTO 23005KT 10SM CLR 19/16 A2996 990 78 1800 220/05 RMK AO2 SLP154 T01940156
14926KSTC STC20020912185509809/12/02 18:55:31  5-MIN KSTC 130055Z AUTO 23005KT 10SM CLR 20/16 A2996 990 75 1800 230/05 RMK AO2
14926KSTC STC20020912190009809/12/02 19:00:31  5-MIN KSTC 130100Z AUTO 23005KT 10SM CLR 20/16 A2996 990 75 1800 230/05 RMK AO2
14926KSTC STC20020912190509809/12/02 19:05:31  5-MIN KSTC 130105Z AUTO 23006KT 10SM CLR 20/15 A2996 990 72 1800 220/06 RMK AO2
14926KSTC STC20020912191009809/12/02 19:10:31  5-MIN KSTC 130110Z AUTO 22006KT 10SM CLR 19/15 A2996 990 75 1800 220/06 RMK AO2
14926KSTC STC20020912191509809/12/02 19:15:31  5-MIN KSTC 130115Z AUTO 22005KT 10SM CLR 19/15 A2996 990 75 1800 220/05 RMK AO2
14926KSTC STC20020912192009809/12/02 19:20:31  5-MIN KSTC 130120Z AUTO 22005KT 10SM CLR 19/15 A2996 990 75 1800 220/05 RMK AO2
14926KSTC STC20020912192509809/12/02 19:25:31  5-MIN KSTC 130125Z AUTO 23005KT 10SM CLR 19/15 A2997 980 78 1700 220/05 RMK AO2
14926KSTC STC20020912193009809/12/02 19:30:31  5-MIN KSTC 130130Z AUTO 23005KT 10SM CLR 19/15 A2997 980 78 1700 230/05 RMK AO2
14926KSTC STC20020912193509809/12/02 19:35:31  5-MIN KSTC 130135Z AUTO 23005KT 10SM CLR 19/15 A2997 980 78 1700 220/05 RMK AO2
14926KSTC STC20020912194009809/12/02 19:40:31  5-MIN KSTC 130140Z AUTO 22005KT 10SM CLR 18/15 A2997 980 81 1600 220/05 RMK AO2
14926KSTC STC20020912194509809/12/02 19:45:31  5-MIN KSTC 130145Z AUTO 22005KT 10SM CLR 18/15 A2997 980 81 1600 220/05 RMK AO2
14926KSTC STC20020912195011509/12/02 19:50:31  5-MIN KSTC 130150Z AUTO 23005KT 10SM CLR 18/15 A2997 980 81 1600 220/05 RMK AO2 SLP156 T01830150
14926KSTC STC20020912195509809/12/02 19:55:31  5-MIN KSTC 130155Z AUTO 23005KT 10SM CLR 18/15 A2997 980 81 1600 220/05 RMK AO2
14926KSTC STC20020912200009809/12/02 20:00:31  5-MIN KSTC 130200Z AUTO 23005KT 10SM CLR 18/15 A2997 980 81 1600 220/05 RMK AO2
14926KSTC STC20020912200509809/12/02 20:05:31  5-MIN KSTC 130205Z AUTO 23005KT 10SM CLR 18/15 A2998 980 81 1600 230/05 RMK AO2
14926KSTC STC20020912201009809/12/02 20:10:31  5-MIN KSTC 130210Z AUTO 23006KT 10SM CLR 18/15 A2997 980 81 1600 230/06 RMK AO2
14926KSTC STC20020912201509809/12/02 20:15:31  5-MIN KSTC 130215Z AUTO 23006KT 10SM CLR 18/15 A2997 980 81 1600 220/06 RMK AO2
14926KSTC STC20020912202009809/12/02 20:20:31  5-MIN KSTC 130220Z AUTO 22005KT 10SM CLR 18/15 A2997 980 81 1600 220/05 RMK AO2
14926KSTC STC20020912202509809/12/02 20:25:31  5-MIN KSTC 130225Z AUTO 23005KT 10SM CLR 18/15 A2997 980 81 1600 220/05 RMK AO2
14926KSTC STC20020912203009809/12/02 20:30:31  5-MIN KSTC 130230Z AUTO 23005KT 10SM CLR 18/15 A2997 980 81 1600 220/05 RMK AO2
14926KSTC STC20020912203509809/12/02 20:35:31  5-MIN KSTC 130235Z AUTO 23004KT 10SM CLR 18/15 A2997 980 83 1600 220/04 RMK AO2
14926KSTC STC20020912204009809/12/02 20:40:31  5-MIN KSTC 130240Z AUTO 22004KT 10SM CLR 18/15 A2997 980 83 1600 220/04 RMK AO2
14926KSTC STC20020912204509809/12/02 20:45:31  5-MIN KSTC 130245Z AUTO 22004KT 10SM CLR 18/15 A2997 980 83 1600 220/04 RMK AO2
14926KSTC STC20020912205012109/12/02 20:50:31  5-MIN KSTC 130250Z AUTO 22004KT 10SM CLR 17/15 A2997 980 87 1500 220/04 RMK AO2 SLP155 T01720150 56007
14926KSTC STC20020912205509809/12/02 20:55:31  5-MIN KSTC 130255Z AUTO 22004KT 10SM CLR 18/15 A2997 980 83 1600 220/04 RMK AO2
14926KSTC STC20020912210009809/12/02 21:00:31  5-MIN KSTC 130300Z AUTO 22004KT 10SM CLR 18/15 A2997 980 83 1600 220/04 RMK AO2
14926KSTC STC20020912210509809/12/02 21:05:31  5-MIN KSTC 130305Z AUTO 22004KT 10SM CLR 17/15 A2997 980 87 1500 220/04 RMK AO2
14926KSTC STC20020912211009809/12/02 21:10:31  5-MIN KSTC 130310Z AUTO 22005KT 10SM CLR 17/14 A2997 980 83 1500 220/05 RMK AO2
14926KSTC STC20020912211509809/12/02 21:15:31  5-MIN KSTC 130315Z AUTO 22005KT 10SM CLR 17/14 A2997 980 83 1500 220/05 RMK AO2
14926KSTC STC20020912212009809/12/02 21:20:31  5-MIN KSTC 130320Z AUTO 23005KT 10SM CLR 17/14 A2998 980 83 1500 220/05 RMK AO2
14926KSTC STC20020912212509809/12/02 21:25:31  5-MIN KSTC 130325Z AUTO 23004KT 10SM CLR 17/14 A2998 980 83 1500 220/04 RMK AO2
14926KSTC STC20020912213009809/12/02 21:30:31  5-MIN KSTC 130330Z AUTO 23004KT 10SM CLR 17/14 A2998 980 86 1400 220/04 RMK AO2
14926KSTC STC20020912213509809/12/02 21:35:31  5-MIN KSTC 130335Z AUTO 23003KT 10SM CLR 17/14 A2998 970 83 1500 220/03 RMK AO2
14926KSTC STC20020912214009809/12/02 21:40:31  5-MIN KSTC 130340Z AUTO 23003KT 10SM CLR 17/14 A2998 970 83 1500 230/03 RMK AO2
14926KSTC STC20020912214509809/12/02 21:45:31  5-MIN KSTC 130345Z AUTO 24003KT 10SM CLR 17/14 A2998 980 83 1500 230/03 RMK AO2
14926KSTC STC20020912215011509/12/02 21:50:31  5-MIN KSTC 130350Z AUTO 24003KT 10SM CLR 17/14 A2998 970 86 1400 230/03 RMK AO2 SLP156 T01670144
14926KSTC STC20020912215509809/12/02 21:55:31  5-MIN KSTC 130355Z AUTO 23003KT 10SM CLR 17/14 A2998 970 86 1400 230/03 RMK AO2
14926KSTC STC20020912220009809/12/02 22:00:31  5-MIN KSTC 130400Z AUTO 23003KT 10SM CLR 17/14 A2998 970 83 1500 230/03 RMK AO2
14926KSTC STC20020912220509809/12/02 22:05:31  5-MIN KSTC 130405Z AUTO 00000KT 10SM CLR 17/14 A2998 970 83 1500 000/00 RMK AO2
14926KSTC STC20020912221009809/12/02 22:10:31  5-MIN KSTC 130410Z AUTO 00000KT 10SM CLR 16/14 A2998 970 90 1400 000/00 RMK AO2
14926KSTC STC20020912221509809/12/02 22:15:31  5-MIN KSTC 130415Z AUTO 00000KT 10SM CLR 17/14 A2997 980 86 1400 000/00 RMK AO2
14926KSTC STC20020912222009809/12/02 22:20:31  5-MIN KSTC 130420Z AUTO 00000KT 10SM CLR 16/14 A2997 980 90 1400 000/00 RMK AO2
14926KSTC STC20020912222509809/12/02 22:25:31  5-MIN KSTC 130425Z AUTO 00000KT 10SM CLR 16/15 A2997 980 93 1400 000/00 RMK AO2
14926KSTC STC20020912223009809/12/02 22:30:31  5-MIN KSTC 130430Z AUTO 00000KT 10SM CLR 16/15 A2998 970 93 1400 000/00 RMK AO2
14926KSTC STC20020912223509809/12/02 22:35:31  5-MIN KSTC 130435Z AUTO 18003KT 10SM CLR 16/14 A2998 980 93 1300 180/03 RMK AO2
14926KSTC STC20020912224009809/12/02 22:40:31  5-MIN KSTC 130440Z AUTO 18004KT 10SM CLR 16/14 A2998 980 93 1300 170/04 RMK AO2
14926KSTC STC20020912224509809/12/02 22:45:31  5-MIN KSTC 130445Z AUTO 19003KT 10SM CLR 16/15 A2997 980 96 1300 190/03 RMK AO2
14926KSTC STC20020912225011509/12/02 22:50:31  5-MIN KSTC 130450Z AUTO 20003KT 10SM CLR 16/15 A2997 980 96 1300 200/03 RMK AO2 SLP154 T01560150
14926KSTC STC20020912225509809/12/02 22:55:31  5-MIN KSTC 130455Z AUTO 19003KT 10SM CLR 16/15 A2997 980 93 1400 190/03 RMK AO2
14926KSTC STC20020912230009809/12/02 23:00:31  5-MIN KSTC 130500Z AUTO 20003KT 10SM CLR 16/15 A2997 980 93 1400 190/03 RMK AO2
14926KSTC STC20020912230509809/12/02 23:05:31  5-MIN KSTC 130505Z AUTO 00000KT 10SM CLR 16/15 A2997 980 93 1400 000/00 RMK AO2
14926KSTC STC20020912231009809/12/02 23:10:31  5-MIN KSTC 130510Z AUTO 00000KT 10SM CLR 16/15 A2997 980 93 1400 000/00 RMK AO2
14926KSTC STC20020912231509809/12/02 23:15:31  5-MIN KSTC 130515Z AUTO 00000KT 10SM CLR 17/15 A2997 980 90 1400 000/00 RMK AO2
14926KSTC STC20020912232009809/12/02 23:20:31  5-MIN KSTC 130520Z AUTO 00000KT 10SM CLR 17/14 A2997 980 86 1400 000/00 RMK AO2
14926KSTC STC20020912232509809/12/02 23:25:31  5-MIN KSTC 130525Z AUTO 00000KT 10SM CLR 17/14 A2997 980 86 1400 000/00 RMK AO2
14926KSTC STC20020912233009809/12/02 23:30:31  5-MIN KSTC 130530Z AUTO 00000KT 10SM CLR 17/15 A2997 980 90 1400 000/00 RMK AO2
14926KSTC STC20020912233509809/12/02 23:35:31  5-MIN KSTC 130535Z AUTO 00000KT 10SM CLR 17/14 A2997 980 83 1500 000/00 RMK AO2
14926KSTC STC20020912234009809/12/02 23:40:31  5-MIN KSTC 130540Z AUTO 00000KT 10SM CLR 17/14 A2997 980 83 1500 000/00 RMK AO2
14926KSTC STC20020912234509809/12/02 23:45:31  5-MIN KSTC 130545Z AUTO 00000KT 10SM CLR 17/14 A2997 980 83 1500 000/00 RMK AO2
14926KSTC STC20020912235014309/12/02 23:50:31  5-MIN KSTC 130550Z AUTO 00000KT 10SM CLR 16/14 A2997 980 90 1400 000/00 RMK AO2 SLP154 T01610144 10217 20156 402720111 51005
14926KSTC STC20020912235509809/12/02 23:55:31  5-MIN KSTC 130555Z AUTO 00000KT 10SM CLR 16/14 A2997 980 90 1400 000/00 RMK AO2
14926KSTC STC20020913000009809/13/02 00:00:31  5-MIN KSTC 130600Z AUTO 00000KT 10SM CLR 16/14 A2998 980 90 1400 000/00 RMK AO2
14926KSTC STC20020913000509809/13/02 00:05:31  5-MIN KSTC 130605Z AUTO 00000KT 10SM CLR 16/14 A2998 980 90 1400 000/00 RMK AO2
14926KSTC STC20020913001009809/13/02 00:10:31  5-MIN KSTC 130610Z AUTO 27003KT 10SM CLR 17/14 A2998 970 86 1400 260/03 RMK AO2
14926KSTC STC20020913001509809/13/02 00:15:31  5-MIN KSTC 130615Z AUTO 00000KT 10SM CLR 16/14 A2998 970 90 1400 000/00 RMK AO2
14926KSTC STC20020913002009809/13/02 00:20:31  5-MIN KSTC 130620Z AUTO 00000KT 10SM CLR 16/14 A2998 970 90 1400 000/00 RMK AO2
14926KSTC STC20020913002509809/13/02 00:25:31  5-MIN KSTC 130625Z AUTO 00000KT 10SM CLR 16/15 A2998 970 93 1400 000/00 RMK AO2
14926KSTC STC20020913003009809/13/02 00:30:31  5-MIN KSTC 130630Z AUTO 00000KT 10SM CLR 16/14 A2998 970 90 1400 000/00 RMK AO2
14926KSTC STC20020913003509809/13/02 00:35:31  5-MIN KSTC 130635Z AUTO 00000KT 10SM CLR 16/14 A2998 970 90 1400 000/00 RMK AO2
14926KSTC STC20020913004009809/13/02 00:40:31  5-MIN KSTC 130640Z AUTO 00000KT 10SM CLR 16/14 A2998 970 93 1300 000/00 RMK AO2
14926KSTC STC20020913004509809/13/02 00:45:31  5-MIN KSTC 130645Z AUTO 00000KT 10SM CLR 16/14 A2998 970 93 1300 000/00 RMK AO2
14926KSTC STC20020913005011509/13/02 00:50:31  5-MIN KSTC 130650Z AUTO 36003KT 10SM CLR 16/14 A2997 980 93 1300 360/03 RMK AO2 SLP154 T01560144
14926KSTC STC20020913005509809/13/02 00:55:31  5-MIN KSTC 130655Z AUTO 35004KT 10SM CLR 16/14 A2997 980 90 1400 340/04 RMK AO2
14926KSTC STC20020913010009809/13/02 01:00:31  5-MIN KSTC 130700Z AUTO 35004KT 10SM CLR 17/14 A2997 980 86 1400 340/04 RMK AO2
14926KSTC STC20020913010509809/13/02 01:05:31  5-MIN KSTC 130705Z AUTO 35004KT 10SM CLR 17/14 A2997 980 86 1400 350/04 RMK AO2
14926KSTC STC20020913011009809/13/02 01:10:31  5-MIN KSTC 130710Z AUTO 36004KT 10SM CLR 16/14 A2997 980 90 1400 350/04 RMK AO2
14926KSTC STC20020913011509809/13/02 01:15:31  5-MIN KSTC 130715Z AUTO 35004KT 10SM CLR 16/14 A2997 980 90 1400 340/04 RMK AO2
14926KSTC STC20020913012009809/13/02 01:20:31  5-MIN KSTC 130720Z AUTO 35003KT 10SM CLR 17/14 A2997 980 86 1400 350/03 RMK AO2
14926KSTC STC20020913012509809/13/02 01:25:31  5-MIN KSTC 130725Z AUTO 33004KT 10SM CLR 16/14 A2997 980 90 1400 330/04 RMK AO2
14926KSTC STC20020913013009809/13/02 01:30:31  5-MIN KSTC 130730Z AUTO 00000KT 10SM CLR 17/14 A2998 970 86 1400 000/00 RMK AO2
14926KSTC STC20020913013509809/13/02 01:35:31  5-MIN KSTC 130735Z AUTO 22004KT 10SM CLR 16/14 A2998 970 93 1300 220/04 RMK AO2
14926KSTC STC20020913014009809/13/02 01:40:31  5-MIN KSTC 130740Z AUTO 00000KT 10SM CLR 16/14 A2998 970 93 1300 000/00 RMK AO2
14926KSTC STC20020913014509809/13/02 01:45:31  5-MIN KSTC 130745Z AUTO 31003KT 10SM CLR 16/14 A2998 980 93 1300 300/03 RMK AO2
14926KSTC STC20020913015011509/13/02 01:50:31  5-MIN KSTC 130750Z AUTO 31003KT 10SM CLR 16/14 A2998 970 93 1300 310/03 RMK AO2 SLP155 T01560144
14926KSTC STC20020913015509809/13/02 01:55:31  5-MIN KSTC 130755Z AUTO 00000KT 10SM CLR 16/14 A2998 980 93 1300 000/00 RMK AO2
14926KSTC STC20020913020009809/13/02 02:00:31  5-MIN KSTC 130800Z AUTO 00000KT 10SM CLR 16/14 A2998 970 93 1300 000/00 RMK AO2
14926KSTC STC20020913020509809/13/02 02:05:31  5-MIN KSTC 130805Z AUTO 00000KT 10SM CLR 16/14 A2997 980 93 1300 000/00 RMK AO2
14926KSTC STC20020913021009809/13/02 02:10:31  5-MIN KSTC 130810Z AUTO 33003KT 10SM CLR 15/14 A2997 980 96 1200 320/03 RMK AO2
14926KSTC STC20020913021509809/13/02 02:15:31  5-MIN KSTC 130815Z AUTO 00000KT 10SM CLR 15/14 A2997 980 96 1200 000/00 RMK AO2
14926KSTC STC20020913022009809/13/02 02:20:31  5-MIN KSTC 130820Z AUTO 00000KT 10SM CLR 15/14 A2998 980 96 1200 000/00 RMK AO2
14926KSTC STC20020913022509809/13/02 02:25:31  5-MIN KSTC 130825Z AUTO 00000KT 10SM CLR 16/14 A2998 970 93 1300 000/00 RMK AO2
14926KSTC STC20020913023009809/13/02 02:30:31  5-MIN KSTC 130830Z AUTO 00000KT 10SM CLR 16/14 A2998 980 93 1300 000/00 RMK AO2
14926KSTC STC20020913023509809/13/02 02:35:31  5-MIN KSTC 130835Z AUTO 33004KT 10SM CLR 16/14 A2997 980 93 1300 330/04 RMK AO2
14926KSTC STC20020913024009809/13/02 02:40:31  5-MIN KSTC 130840Z AUTO 35003KT 10SM CLR 15/14 A2997 980 96 1200 350/03 RMK AO2
14926KSTC STC20020913024509809/13/02 02:45:31  5-MIN KSTC 130845Z AUTO 00000KT 10SM CLR 16/14 A2998 980 93 1300 000/00 RMK AO2
14926KSTC STC20020913025012109/13/02 02:50:31  5-MIN KSTC 130850Z AUTO 00000KT 10SM CLR 15/14 A2998 970 96 1200 000/00 RMK AO2 SLP155 T01500144 51001
14926KSTC STC20020913025509809/13/02 02:55:31  5-MIN KSTC 130855Z AUTO 00000KT 10SM CLR 15/14 A2998 970 96 1200 000/00 RMK AO2
14926KSTC STC20020913030009809/13/02 03:00:31  5-MIN KSTC 130900Z AUTO 00000KT 10SM CLR 15/14 A2998 970 96 1200 000/00 RMK AO2
14926KSTC STC20020913030509809/13/02 03:05:31  5-MIN KSTC 130905Z AUTO 00000KT 10SM CLR 15/14 A2997 980 96 1200 000/00 RMK AO2
14926KSTC STC20020913031009809/13/02 03:10:31  5-MIN KSTC 130910Z AUTO 00000KT 10SM CLR 15/14 A2997 980 96 1200 000/00 RMK AO2
14926KSTC STC20020913031509809/13/02 03:15:31  5-MIN KSTC 130915Z AUTO 00000KT 10SM CLR 15/14 A2998 970 96 1200 000/00 RMK AO2
14926KSTC STC20020913032009809/13/02 03:20:31  5-MIN KSTC 130920Z AUTO 00000KT 10SM CLR 16/14 A2998 970 93 1300 000/00 RMK AO2
14926KSTC STC20020913032509809/13/02 03:25:31  5-MIN KSTC 130925Z AUTO 00000KT 10SM CLR 16/14 A2998 970 93 1300 000/00 RMK AO2
14926KSTC STC20020913033009809/13/02 03:30:31  5-MIN KSTC 130930Z AUTO 36003KT 10SM CLR 15/14 A2997 980 96 1200 360/03 RMK AO2
14926KSTC STC20020913033509809/13/02 03:35:31  5-MIN KSTC 130935Z AUTO 00000KT 10SM CLR 15/14 A2998 980 96 1200 000/00 RMK AO2
14926KSTC STC20020913034009809/13/02 03:40:31  5-MIN KSTC 130940Z AUTO 00000KT 10SM CLR 15/14 A2998 970 96 1200 000/00 RMK AO2
14926KSTC STC20020913034509809/13/02 03:45:31  5-MIN KSTC 130945Z AUTO 35003KT 10SM CLR 15/14 A2997 980 96 1200 350/03 RMK AO2
14926KSTC STC20020913035011509/13/02 03:50:31  5-MIN KSTC 130950Z AUTO 01004KT 10SM CLR 16/14 A2997 980 93 1300 010/04 RMK AO2 SLP152 T01560144
14926KSTC STC20020913035509809/13/02 03:55:31  5-MIN KSTC 130955Z AUTO 00000KT 10SM CLR 16/14 A2997 980 93 1300 000/00 RMK AO2
14926KSTC STC20020913040009809/13/02 04:00:31  5-MIN KSTC 131000Z AUTO 04003KT 10SM CLR 16/14 A2997 980 93 1300 040/03 RMK AO2
14926KSTC STC20020913040509809/13/02 04:05:31  5-MIN KSTC 131005Z AUTO 01004KT 10SM CLR 16/14 A2997 980 93 1300 010/04 RMK AO2
14926KSTC STC20020913041009809/13/02 04:10:31  5-MIN KSTC 131010Z AUTO 02003KT 10SM CLR 16/14 A2997 980 93 1300 010/03 RMK AO2
14926KSTC STC20020913041509809/13/02 04:15:31  5-MIN KSTC 131015Z AUTO 00000KT 10SM CLR 16/14 A2997 980 93 1300 000/00 RMK AO2
14926KSTC STC20020913042009809/13/02 04:20:31  5-MIN KSTC 131020Z AUTO 00000KT 10SM CLR 16/14 A2997 980 93 1300 000/00 RMK AO2
14926KSTC STC20020913042509809/13/02 04:25:31  5-MIN KSTC 131025Z AUTO 00000KT 10SM CLR 16/14 A2997 980 93 1300 000/00 RMK AO2
14926KSTC STC20020913043009809/13/02 04:30:31  5-MIN KSTC 131030Z AUTO 03005KT 10SM CLR 15/14 A2996 990 96 1300 030/05 RMK AO2
14926KSTC STC20020913043509809/13/02 04:35:31  5-MIN KSTC 131035Z AUTO 00000KT 10SM CLR 16/14 A2997 980 93 1300 000/00 RMK AO2
14926KSTC STC20020913044009809/13/02 04:40:31  5-MIN KSTC 131040Z AUTO 00000KT 10SM CLR 16/14 A2997 980 90 1300 000/00 RMK AO2
14926KSTC STC20020913044509809/13/02 04:45:31  5-MIN KSTC 131045Z AUTO 00000KT 10SM CLR 16/14 A2997 980 90 1300 000/00 RMK AO2
14926KSTC STC20020913045011509/13/02 04:50:31  5-MIN KSTC 131050Z AUTO 00000KT 10SM CLR 16/14 A2997 980 90 1300 000/00 RMK AO2 SLP153 T01560139
14926KSTC STC20020913045509809/13/02 04:55:31  5-MIN KSTC 131055Z AUTO 00000KT 10SM CLR 16/14 A2997 980 90 1300 000/00 RMK AO2
14926KSTC STC20020913050009809/13/02 05:00:31  5-MIN KSTC 131100Z AUTO 00000KT 10SM CLR 15/14 A2997 980 93 1200 000/00 RMK AO2
14926KSTC STC20020913050509809/13/02 05:05:31  5-MIN KSTC 131105Z AUTO 01003KT 10SM CLR 15/14 A2997 980 93 1200 360/03 RMK AO2
14926KSTC STC20020913051009809/13/02 05:10:31  5-MIN KSTC 131110Z AUTO 36003KT 10SM CLR 15/14 A2997 980 93 1200 360/03 RMK AO2
14926KSTC STC20020913051509809/13/02 05:15:31  5-MIN KSTC 131115Z AUTO 00000KT 10SM CLR 15/14 A2997 980 93 1200 000/00 RMK AO2
14926KSTC STC20020913052009809/13/02 05:20:31  5-MIN KSTC 131120Z AUTO 00000KT 10SM CLR 15/14 A2997 980 96 1200 000/00 RMK AO2
14926KSTC STC20020913052509809/13/02 05:25:31  5-MIN KSTC 131125Z AUTO 02003KT 10SM CLR 15/14 A2997 980 93 1200 010/03 RMK AO2
14926KSTC STC20020913053009809/13/02 05:30:31  5-MIN KSTC 131130Z AUTO 00000KT 10SM CLR 15/14 A2997 980 93 1200 000/00 RMK AO2
14926KSTC STC20020913053509809/13/02 05:35:31  5-MIN KSTC 131135Z AUTO 00000KT 10SM CLR 15/14 A2998 980 93 1200 000/00 RMK AO2
14926KSTC STC20020913054009809/13/02 05:40:31  5-MIN KSTC 131140Z AUTO 00000KT 10SM CLR 15/14 A2998 970 96 1200 000/00 RMK AO2
14926KSTC STC20020913054509809/13/02 05:45:31  5-MIN KSTC 131145Z AUTO 00000KT 10SM CLR 15/14 A2998 970 96 1200 000/00 RMK AO2
14926KSTC STC20020913055013309/13/02 05:50:31  5-MIN KSTC 131150Z AUTO 00000KT 10SM CLR 15/14 A2998 970 93 1200 000/00 RMK AO2 SLP158 T01500139 10167 20150 51001
14926KSTC STC20020913055509809/13/02 05:55:31  5-MIN KSTC 131155Z AUTO 00000KT 10SM CLR 15/14 A2998 970 93 1200 000/00 RMK AO2
14926KSTC STC20020913060009809/13/02 06:00:31  5-MIN KSTC 131200Z AUTO 00000KT 10SM CLR 14/14 A2998 970 96 1200 000/00 RMK AO2
14926KSTC STC20020913060509809/13/02 06:05:31  5-MIN KSTC 131205Z AUTO 00000KT 10SM CLR 14/14 A2998 970 96 1200 000/00 RMK AO2
14926KSTC STC20020913061009809/13/02 06:10:31  5-MIN KSTC 131210Z AUTO 00000KT 10SM CLR 14/14 A2998 970 96 1200 000/00 RMK AO2
14926KSTC STC20020913061509809/13/02 06:15:31  5-MIN KSTC 131215Z AUTO 00000KT 10SM CLR 14/14 A2998 970 96 1200 000/00 RMK AO2
14926KSTC STC20020913062009809/13/02 06:20:31  5-MIN KSTC 131220Z AUTO 00000KT 10SM CLR 14/14 A2998 970 96 1200 000/00 RMK AO2
14926KSTC STC20020913062509809/13/02 06:25:31  5-MIN KSTC 131225Z AUTO 00000KT 10SM CLR 14/14 A2998 970 96 1200 000/00 RMK AO2
14926KSTC STC20020913063009809/13/02 06:30:31  5-MIN KSTC 131230Z AUTO 00000KT 10SM CLR 15/14 A2998 980 96 1200 000/00 RMK AO2
14926KSTC STC20020913063509809/13/02 06:35:31  5-MIN KSTC 131235Z AUTO 00000KT 10SM CLR 15/14 A2998 980 96 1200 000/00 RMK AO2
14926KSTC STC20020913105511809/13/02 10:55:31  5-MIN KSTC 131655Z AUTO 29003KT 10SM -RA FEW013 BKN021 17/16 A2997 980 90 1500 290/03 RMK AO2 P0001
14926KSTC STC20020913110011809/13/02 11:00:31  5-MIN KSTC 131700Z AUTO 30003KT 10SM -RA BKN021 BKN065 17/16 A2997 980 90 1500 300/03 RMK AO2 P0001
14926KSTC STC20020913110511109/13/02 11:05:31  5-MIN KSTC 131705Z AUTO VRB03KT 10SM -RA SCT023 17/16 A2997 980 93 1500 VRB/03 RMK AO2 P0001
14926KSTC STC20020913111011109/13/02 11:10:31  5-MIN KSTC 131710Z AUTO 30003KT 10SM -RA SCT023 17/16 A2997 980 93 1500 290/03 RMK AO2 P0001
14926KSTC STC20020913111511809/13/02 11:15:31  5-MIN KSTC 131715Z AUTO 30003KT 10SM -RA SCT021 SCT065 18/16 A2997 980 90 1600 290/03 RMK AO2 P0001
14926KSTC STC20020913112011109/13/02 11:20:31  5-MIN KSTC 131720Z AUTO VRB03KT 10SM -RA SCT021 18/16 A2997 980 90 1600 VRB/03 RMK AO2 P0001
14926KSTC STC20020913112511109/13/02 11:25:31  5-MIN KSTC 131725Z AUTO 00000KT 10SM -RA FEW023 18/16 A2996 990 90 1600 000/00 RMK AO2 P0001
14926KSTC STC20020913113011109/13/02 11:30:31  5-MIN KSTC 131730Z AUTO 00000KT 10SM -RA FEW028 18/16 A2997 980 90 1600 000/00 RMK AO2 P0002
14926KSTC STC20020913113511109/13/02 11:35:31  5-MIN KSTC 131735Z AUTO 00000KT 10SM -RA FEW024 18/16 A2997 980 90 1600 000/00 RMK AO2 P0002
14926KSTC STC20020913114011109/13/02 11:40:31  5-MIN KSTC 131740Z AUTO 00000KT 10SM -RA FEW022 18/16 A2997 980 90 1600 000/00 RMK AO2 P0002
14926KSTC STC20020913114511109/13/02 11:45:31  5-MIN KSTC 131745Z AUTO 26004KT 10SM -RA SCT022 18/16 A2997 980 90 1600 260/04 RMK AO2 P0002
14926KSTC STC20020913115015209/13/02 11:50:31  5-MIN KSTC 131750Z AUTO 27004KT 10SM -RA SCT022 18/16 A2997 980 90 1600 260/04 RMK AO2 SLP155 P0002 60004 T01780161 10178 20144 58001
14926KSTC STC20020913115511109/13/02 11:55:31  5-MIN KSTC 131755Z AUTO 28004KT 10SM -RA SCT020 18/16 A2997 980 90 1600 280/04 RMK AO2 P0001
14926KSTC STC20020913120011809/13/02 12:00:31  5-MIN KSTC 131800Z AUTO 25004KT 10SM -RA FEW018 SCT070 18/16 A2997 980 90 1600 250/04 RMK AO2 P0001
14926KSTC STC20020913120511809/13/02 12:05:31  5-MIN KSTC 131805Z AUTO 28005KT 10SM -RA FEW018 SCT065 18/16 A2997 980 90 1600 280/05 RMK AO2 P0001
14926KSTC STC20020913121012009/13/02 12:10:31  5-MIN KSTC 131810Z AUTO 27004KT 10SM FEW032 BKN065 18/16 A2996 990 90 1600 270/04 RMK AO2 RAE08 P0001
14926KSTC STC20020913121512009/13/02 12:15:31  5-MIN KSTC 131815Z AUTO 29004KT 10SM FEW042 BKN070 18/16 A2996 990 87 1600 290/04 RMK AO2 RAE08 P0001
14926KSTC STC20020913122012009/13/02 12:20:31  5-MIN KSTC 131820Z AUTO 28004KT 10SM FEW047 SCT065 18/16 A2996 990 87 1600 280/04 RMK AO2 RAE08 P0001
14926KSTC STC20020913122511309/13/02 12:25:31  5-MIN KSTC 131825Z AUTO 30003KT 10SM SCT065 18/16 A2996 990 87 1600 290/03 RMK AO2 RAE08 P0001
14926KSTC STC20020913123011309/13/02 12:30:31  5-MIN KSTC 131830Z AUTO 31004KT 10SM SCT065 18/16 A2996 990 87 1600 300/04 RMK AO2 RAE08 P0001
14926KSTC STC20020913123511309/13/02 12:35:31  5-MIN KSTC 131835Z AUTO 31004KT 10SM SCT065 18/16 A2996 990 87 1700 300/04 RMK AO2 RAE08 P0001
14926KSTC STC20020913124011409/13/02 12:40:31  5-MIN KSTC 131840Z AUTO VRB03KT 10SM FEW065 18/16 A2995 1000 87 1700 VRB/03 RMK AO2 RAE08 P0001
14926KSTC STC20020913124511409/13/02 12:45:31  5-MIN KSTC 131845Z AUTO 34004KT 10SM FEW055 18/16 A2995 1000 87 1700 330/04 RMK AO2 RAE08 P0001
14926KSTC STC20020913125013009/13/02 12:50:31  5-MIN KSTC 131850Z AUTO 29003KT 10SM FEW055 18/16 A2996 990 87 1700 290/03 RMK AO2 RAE08 SLP151 P0001 T01830161
14926KSTC STC20020913125510109/13/02 12:55:31  5-MIN KSTC 131855Z AUTO 31003KT 10SM FEW055 18/16 A2995 990 84 1700 300/03 RMK AO2
14926KSTC STC20020913130011909/13/02 13:00:31  5-MIN KSTC 131900Z AUTO 27003KT 10SM -RA FEW050 19/16 A2996 990 84 1700 270/03 RMK AO2 RAB1858 P0000
14926KSTC STC20020913130511709/13/02 13:05:31  5-MIN KSTC 131905Z AUTO 27004KT 10SM -RA CLR 19/16 A2995 1000 84 1700 270/04 RMK AO2 RAB1858 P0000
14926KSTC STC20020913131011609/13/02 13:10:31  5-MIN KSTC 131910Z AUTO 28004KT 10SM -RA CLR 19/16 A2995 990 84 1700 280/04 RMK AO2 RAB1858 P0000
14926KSTC STC20020913131511609/13/02 13:15:31  5-MIN KSTC 131915Z AUTO 27004KT 10SM -RA CLR 19/16 A2995 990 84 1700 270/04 RMK AO2 RAB1858 P0000
14926KSTC STC20020913132011609/13/02 13:20:31  5-MIN KSTC 131920Z AUTO 26003KT 10SM CLR 19/16 A2995 1000 84 1700 250/03 RMK AO2 RAB1858E19 P0000
14926KSTC STC20020913132511709/13/02 13:25:31  5-MIN KSTC 131925Z AUTO VRB05KT 10SM -RA CLR 19/16 A2995 1000 84 1700 VRB/05 RMK AO2 RAB1858 P0000
14926KSTC STC20020913133011709/13/02 13:30:31  5-MIN KSTC 131930Z AUTO 27005KT 10SM -RA CLR 19/16 A2995 1000 81 1800 260/05 RMK AO2 RAB1858 P0000
14926KSTC STC20020913133511909/13/02 13:35:31  5-MIN KSTC 131935Z AUTO 27006KT 10SM FEW070 19/16 A2995 1000 78 1800 270/06 RMK AO2 RAB1858E33 P0000
14926KSTC STC20020913134011909/13/02 13:40:31  5-MIN KSTC 131940Z AUTO 28005KT 10SM FEW065 19/16 A2995 1000 81 1800 280/05 RMK AO2 RAB1858E33 P0000
14926KSTC STC20020913134512609/13/02 13:45:31  5-MIN KSTC 131945Z AUTO 27005KT 10SM FEW065 SCT090 19/16 A2995 1000 78 1800 270/05 RMK AO2 RAB1858E33 P0000
14926KSTC STC20020913135014309/13/02 13:50:31  5-MIN KSTC 131950Z AUTO 29004KT 10SM FEW065 SCT090 19/16 A2995 1000 78 1800 290/04 RMK AO2 RAB1858E33 SLP148 P0000 T01940156
14926KSTC STC20020913135510909/13/02 13:55:31  5-MIN KSTC 131955Z AUTO 28004KT 10SM FEW065 SCT095 19/15 A2995 1000 75 1800 280/04 RMK AO2
14926KSTC STC20020913140010909/13/02 14:00:31  5-MIN KSTC 132000Z AUTO 29004KT 10SM FEW065 BKN095 19/15 A2994 1000 75 1800 280/04 RMK AO2
14926KSTC STC20020913140510209/13/02 14:05:31  5-MIN KSTC 132005Z AUTO 27003KT 10SM BKN090 19/16 A2994 1010 78 1800 270/03 RMK AO2
14926KSTC STC20020913141010209/13/02 14:10:31  5-MIN KSTC 132010Z AUTO 25003KT 10SM BKN090 19/15 A2994 1010 75 1800 250/03 RMK AO2
14926KSTC STC20020913141510209/13/02 14:15:31  5-MIN KSTC 132015Z AUTO 22004KT 10SM BKN090 19/16 A2994 1010 78 1800 220/04 RMK AO2
14926KSTC STC20020913142010209/13/02 14:20:31  5-MIN KSTC 132020Z AUTO 24004KT 10SM BKN090 19/15 A2994 1010 75 1800 230/04 RMK AO2
14926KSTC STC20020913142510209/13/02 14:25:31  5-MIN KSTC 132025Z AUTO 00000KT 10SM BKN090 19/15 A2994 1010 75 1800 000/00 RMK AO2
14926KSTC STC20020913143010209/13/02 14:30:31  5-MIN KSTC 132030Z AUTO 22003KT 10SM BKN085 19/15 A2994 1010 75 1800 220/03 RMK AO2
14926KSTC STC20020913143510209/13/02 14:35:31  5-MIN KSTC 132035Z AUTO 23003KT 10SM BKN085 19/15 A2993 1010 75 1800 220/03 RMK AO2
14926KSTC STC20020913144010209/13/02 14:40:31  5-MIN KSTC 132040Z AUTO 20003KT 10SM OVC085 19/15 A2993 1020 75 1800 200/03 RMK AO2
14926KSTC STC20020913144510209/13/02 14:45:31  5-MIN KSTC 132045Z AUTO 20003KT 10SM OVC085 19/15 A2993 1020 75 1800 200/03 RMK AO2
14926KSTC STC20020913145013109/13/02 14:50:31  5-MIN KSTC 132050Z AUTO 18003KT 10SM OVC085 19/15 A2993 1020 75 1800 180/03 RMK AO2 SLP142 60001 T01940150 56003
14926KSTC STC20020913145510209/13/02 14:55:31  5-MIN KSTC 132055Z AUTO 17004KT 10SM OVC085 19/15 A2993 1020 75 1800 170/04 RMK AO2
14926KSTC STC20020913150010209/13/02 15:00:31  5-MIN KSTC 132100Z AUTO 17003KT 10SM BKN085 19/16 A2992 1020 78 1800 160/03 RMK AO2
14926KSTC STC20020913150510209/13/02 15:05:31  5-MIN KSTC 132105Z AUTO 00000KT 10SM BKN085 20/15 A2992 1030 72 1900 000/00 RMK AO2
14926KSTC STC20020913151010209/13/02 15:10:31  5-MIN KSTC 132110Z AUTO 00000KT 10SM BKN085 20/14 A2992 1030 70 1900 000/00 RMK AO2
14926KSTC STC20020913151510209/13/02 15:15:31  5-MIN KSTC 132115Z AUTO 19004KT 10SM BKN085 20/14 A2992 1030 70 1900 190/04 RMK AO2
14926KSTC STC20020913152010209/13/02 15:20:31  5-MIN KSTC 132120Z AUTO VRB04KT 10SM BKN080 20/14 A2992 1030 70 1900 VRB/04 RMK AO2
14926KSTC STC20020913152510209/13/02 15:25:31  5-MIN KSTC 132125Z AUTO 00000KT 10SM BKN075 20/14 A2992 1030 67 1900 000/00 RMK AO2
14926KSTC STC20020913153010209/13/02 15:30:31  5-MIN KSTC 132130Z AUTO 00000KT 10SM BKN075 20/15 A2992 1030 72 1900 000/00 RMK AO2
14926KSTC STC20020913153510909/13/02 15:35:31  5-MIN KSTC 132135Z AUTO 20004KT 10SM BKN070 BKN080 20/14 A2992 1030 70 1900 200/04 RMK AO2
14926KSTC STC20020913154010909/13/02 15:40:31  5-MIN KSTC 132140Z AUTO 24004KT 10SM BKN070 OVC080 20/15 A2992 1030 72 1900 240/04 RMK AO2
14926KSTC STC20020913154510209/13/02 15:45:31  5-MIN KSTC 132145Z AUTO 23004KT 10SM OVC070 20/15 A2991 1030 72 1900 230/04 RMK AO2
14926KSTC STC20020913155011909/13/02 15:50:31  5-MIN KSTC 132150Z AUTO 20005KT 10SM OVC075 20/15 A2991 1030 72 1900 190/05 RMK AO2 SLP136 T02000150
14926KSTC STC20020913155510209/13/02 15:55:31  5-MIN KSTC 132155Z AUTO 23004KT 10SM OVC075 20/15 A2991 1040 72 1900 220/04 RMK AO2
14926KSTC STC20020913160010209/13/02 16:00:31  5-MIN KSTC 132200Z AUTO 26005KT 10SM OVC070 20/15 A2991 1040 72 1900 260/05 RMK AO2
14926KSTC STC20020913160510209/13/02 16:05:31  5-MIN KSTC 132205Z AUTO 22005KT 10SM OVC070 20/14 A2991 1040 70 1900 220/05 RMK AO2
14926KSTC STC20020913161010209/13/02 16:10:31  5-MIN KSTC 132210Z AUTO 20006KT 10SM OVC070 20/15 A2991 1040 72 1900 200/06 RMK AO2
14926KSTC STC20020913161510209/13/02 16:15:31  5-MIN KSTC 132215Z AUTO 20006KT 10SM OVC070 20/15 A2990 1040 72 1900 200/06 RMK AO2
14926KSTC STC20020913162010209/13/02 16:20:31  5-MIN KSTC 132220Z AUTO 21004KT 10SM OVC070 20/15 A2990 1040 72 1900 210/04 RMK AO2
14926KSTC STC20020913162510209/13/02 16:25:31  5-MIN KSTC 132225Z AUTO 20005KT 10SM OVC070 19/15 A2990 1040 75 1800 200/05 RMK AO2
14926KSTC STC20020913163010209/13/02 16:30:31  5-MIN KSTC 132230Z AUTO 21005KT 10SM OVC070 19/15 A2990 1050 75 1800 200/05 RMK AO2
14926KSTC STC20020913163510209/13/02 16:35:31  5-MIN KSTC 132235Z AUTO 21005KT 10SM OVC070 19/15 A2990 1050 75 1800 210/05 RMK AO2
14926KSTC STC20020913164010209/13/02 16:40:31  5-MIN KSTC 132240Z AUTO 18005KT 10SM OVC070 19/16 A2990 1050 78 1900 180/05 RMK AO2
14926KSTC STC20020913164510209/13/02 16:45:31  5-MIN KSTC 132245Z AUTO 17005KT 10SM OVC070 19/16 A2989 1050 81 1900 160/05 RMK AO2
14926KSTC STC20020913165011909/13/02 16:50:31  5-MIN KSTC 132250Z AUTO 17006KT 10SM BKN070 19/16 A2989 1050 81 1900 160/06 RMK AO2 SLP129 T01940161
14926KSTC STC20020913165510209/13/02 16:55:31  5-MIN KSTC 132255Z AUTO 17006KT 10SM BKN070 19/16 A2989 1050 81 1900 160/06 RMK AO2
14926KSTC STC20020913170010209/13/02 17:00:31  5-MIN KSTC 132300Z AUTO 17006KT 10SM SCT070 19/16 A2989 1050 81 1900 170/06 RMK AO2
14926KSTC STC20020913170510209/13/02 17:05:31  5-MIN KSTC 132305Z AUTO 17006KT 10SM SCT070 19/16 A2989 1050 81 1900 170/06 RMK AO2
14926KSTC STC20020913171010209/13/02 17:10:31  5-MIN KSTC 132310Z AUTO 18007KT 10SM SCT070 19/16 A2989 1050 81 1900 170/07 RMK AO2
14926KSTC STC20020913171510209/13/02 17:15:31  5-MIN KSTC 132315Z AUTO 17006KT 10SM BKN070 19/16 A2989 1060 81 1900 160/06 RMK AO2
14926KSTC STC20020913172010209/13/02 17:20:31  5-MIN KSTC 132320Z AUTO 16007KT 10SM BKN070 19/17 A2989 1060 87 1800 150/07 RMK AO2
14926KSTC STC20020913172510209/13/02 17:25:31  5-MIN KSTC 132325Z AUTO 17006KT 10SM BKN070 19/17 A2988 1060 87 1800 160/06 RMK AO2
14926KSTC STC20020913173010209/13/02 17:30:31  5-MIN KSTC 132330Z AUTO 16005KT 10SM OVC065 19/17 A2988 1060 87 1800 160/05 RMK AO2
14926KSTC STC20020913173510209/13/02 17:35:31  5-MIN KSTC 132335Z AUTO 16007KT 10SM OVC065 19/16 A2988 1060 84 1800 160/07 RMK AO2
14926KSTC STC20020913174010909/13/02 17:40:31  5-MIN KSTC 132340Z AUTO 17005KT 10SM BKN065 OVC110 19/16 A2988 1070 84 1800 160/05 RMK AO2
14926KSTC STC20020913174510909/13/02 17:45:31  5-MIN KSTC 132345Z AUTO 16005KT 10SM BKN065 OVC110 19/16 A2987 1070 84 1800 160/05 RMK AO2
14926KSTC STC20020913175015009/13/02 17:50:31  5-MIN KSTC 132350Z AUTO 16006KT 10SM SCT065 OVC110 19/16 A2987 1070 84 1800 160/06 RMK AO2 SLP122 60001 T01890161 10200 20178 58013
14926KSTC STC20020913175510909/13/02 17:55:31  5-MIN KSTC 132355Z AUTO 17004KT 10SM SCT065 OVC110 19/16 A2987 1070 84 1800 160/04 RMK AO2
14926KSTC STC20020913180010909/13/02 18:00:31  5-MIN KSTC 140000Z AUTO 17005KT 10SM FEW065 OVC110 19/16 A2987 1070 84 1800 170/05 RMK AO2
14926KSTC STC20020913180510209/13/02 18:05:31  5-MIN KSTC 140005Z AUTO 17005KT 10SM OVC110 18/16 A2987 1070 87 1700 170/05 RMK AO2
14926KSTC STC20020913181010209/13/02 18:10:31  5-MIN KSTC 140010Z AUTO 17004KT 10SM OVC110 18/16 A2987 1070 87 1700 170/04 RMK AO2
14926KSTC STC20020913181510909/13/02 18:15:31  5-MIN KSTC 140015Z AUTO 16004KT 10SM FEW060 BKN110 18/16 A2987 1070 87 1800 160/04 RMK AO2
14926KSTC STC20020913182010909/13/02 18:20:31  5-MIN KSTC 140020Z AUTO 16004KT 10SM SCT060 OVC110 18/16 A2987 1080 87 1800 160/04 RMK AO2
14926KSTC STC20020913182510909/13/02 18:25:31  5-MIN KSTC 140025Z AUTO 16004KT 10SM BKN055 OVC110 18/16 A2987 1080 87 1800 160/04 RMK AO2
14926KSTC STC20020913183010909/13/02 18:30:31  5-MIN KSTC 140030Z AUTO 16004KT 10SM BKN055 OVC110 18/16 A2987 1080 87 1800 160/04 RMK AO2
14926KSTC STC20020913183510909/13/02 18:35:31  5-MIN KSTC 140035Z AUTO 16004KT 10SM BKN055 OVC100 18/16 A2986 1080 87 1800 160/04 RMK AO2
14926KSTC STC20020913184010909/13/02 18:40:31  5-MIN KSTC 140040Z AUTO 16004KT 10SM BKN055 OVC100 18/16 A2986 1080 90 1700 160/04 RMK AO2
14926KSTC STC20020913184510909/13/02 18:45:31  5-MIN KSTC 140045Z AUTO 16005KT 10SM BKN055 OVC100 18/16 A2986 1080 90 1700 150/05 RMK AO2
14926KSTC STC20020913185012609/13/02 18:50:31  5-MIN KSTC 140050Z AUTO 16005KT 10SM BKN055 OVC100 18/16 A2986 1080 90 1700 150/05 RMK AO2 SLP119 T01780161
14926KSTC STC20020913185510909/13/02 18:55:31  5-MIN KSTC 140055Z AUTO 16005KT 10SM BKN055 OVC100 18/16 A2986 1080 90 1700 160/05 RMK AO2
14926KSTC STC20020913190010909/13/02 19:00:31  5-MIN KSTC 140100Z AUTO 17005KT 10SM BKN055 OVC100 18/16 A2986 1080 90 1700 160/05 RMK AO2
14926KSTC STC20020913190510909/13/02 19:05:31  5-MIN KSTC 140105Z AUTO 17005KT 10SM BKN055 OVC100 18/16 A2987 1080 90 1700 170/05 RMK AO2
14926KSTC STC20020913191010909/13/02 19:10:31  5-MIN KSTC 140110Z AUTO 18005KT 10SM BKN055 OVC100 18/16 A2987 1080 90 1700 180/05 RMK AO2
14926KSTC STC20020913191510909/13/02 19:15:31  5-MIN KSTC 140115Z AUTO 17005KT 10SM BKN055 OVC100 18/16 A2986 1080 90 1700 170/05 RMK AO2
14926KSTC STC20020913192010909/13/02 19:20:31  5-MIN KSTC 140120Z AUTO 18005KT 10SM BKN055 OVC095 18/16 A2986 1080 90 1700 180/05 RMK AO2
14926KSTC STC20020913192510909/13/02 19:25:31  5-MIN KSTC 140125Z AUTO 18005KT 10SM SCT055 BKN095 18/16 A2986 1080 90 1700 180/05 RMK AO2
14926KSTC STC20020913193010909/13/02 19:30:31  5-MIN KSTC 140130Z AUTO 16005KT 10SM SCT055 BKN100 18/16 A2986 1090 90 1700 160/05 RMK AO2
14926KSTC STC20020913193510909/13/02 19:35:31  5-MIN KSTC 140135Z AUTO 17005KT 10SM FEW055 BKN100 17/16 A2986 1080 93 1600 170/05 RMK AO2
14926KSTC STC20020913194010209/13/02 19:40:31  5-MIN KSTC 140140Z AUTO 17005KT 10SM BKN100 17/16 A2986 1090 93 1600 170/05 RMK AO2
14926KSTC STC20020913194510209/13/02 19:45:31  5-MIN KSTC 140145Z AUTO 17006KT 10SM BKN100 17/16 A2986 1080 93 1600 170/06 RMK AO2
14926KSTC STC20020913195012609/13/02 19:50:31  5-MIN KSTC 140150Z AUTO 17006KT 10SM FEW075 BKN100 17/16 A2986 1080 93 1600 170/06 RMK AO2 SLP118 T01720161
14926KSTC STC20020913195510909/13/02 19:55:31  5-MIN KSTC 140155Z AUTO 17006KT 10SM SCT075 BKN100 17/16 A2986 1080 93 1600 170/06 RMK AO2
14926KSTC STC20020913200010909/13/02 20:00:31  5-MIN KSTC 140200Z AUTO 17005KT 10SM SCT075 OVC100 17/16 A2986 1080 93 1600 170/05 RMK AO2
14926KSTC STC20020913200510909/13/02 20:05:31  5-MIN KSTC 140205Z AUTO 17005KT 10SM FEW075 OVC100 17/16 A2986 1080 93 1600 170/05 RMK AO2
14926KSTC STC20020913201010909/13/02 20:10:31  5-MIN KSTC 140210Z AUTO 16005KT 10SM FEW075 OVC100 17/16 A2985 1090 93 1600 160/05 RMK AO2
14926KSTC STC20020913201510909/13/02 20:15:31  5-MIN KSTC 140215Z AUTO 17006KT 10SM FEW075 OVC100 17/16 A2986 1080 93 1600 160/06 RMK AO2
14926KSTC STC20020913202010909/13/02 20:20:31  5-MIN KSTC 140220Z AUTO 17005KT 10SM FEW075 OVC100 17/16 A2986 1080 93 1600 170/05 RMK AO2
14926KSTC STC20020913202510209/13/02 20:25:31  5-MIN KSTC 140225Z AUTO 17005KT 10SM OVC100 17/16 A2986 1080 93 1600 170/05 RMK AO2
14926KSTC STC20020913203010209/13/02 20:30:31  5-MIN KSTC 140230Z AUTO 17006KT 10SM OVC100 17/16 A2986 1080 93 1600 170/06 RMK AO2
14926KSTC STC20020913203510209/13/02 20:35:31  5-MIN KSTC 140235Z AUTO 18006KT 10SM OVC100 17/16 A2986 1090 93 1600 170/06 RMK AO2
14926KSTC STC20020913204010209/13/02 20:40:31  5-MIN KSTC 140240Z AUTO 17007KT 10SM OVC100 17/16 A2986 1090 93 1600 170/07 RMK AO2
14926KSTC STC20020913204510209/13/02 20:45:31  5-MIN KSTC 140245Z AUTO 17007KT 10SM OVC100 17/16 A2985 1090 93 1600 170/07 RMK AO2
14926KSTC STC20020913205012509/13/02 20:50:31  5-MIN KSTC 140250Z AUTO 17006KT 10SM OVC100 17/16 A2985 1090 93 1600 170/06 RMK AO2 SLP116 T01720161 56019
14926KSTC STC20020913205510209/13/02 20:55:31  5-MIN KSTC 140255Z AUTO 17005KT 10SM OVC100 17/16 A2985 1090 93 1600 160/05 RMK AO2
14926KSTC STC20020913210010209/13/02 21:00:31  5-MIN KSTC 140300Z AUTO 17005KT 10SM OVC100 17/16 A2985 1090 93 1600 160/05 RMK AO2
14926KSTC STC20020913210510209/13/02 21:05:31  5-MIN KSTC 140305Z AUTO 17006KT 10SM OVC100 17/16 A2985 1090 93 1600 170/06 RMK AO2
14926KSTC STC20020913211010909/13/02 21:10:31  5-MIN KSTC 140310Z AUTO 17006KT 10SM FEW070 OVC100 17/16 A2985 1090 93 1600 170/06 RMK AO2
14926KSTC STC20020913211510909/13/02 21:15:31  5-MIN KSTC 140315Z AUTO 17006KT 10SM SCT060 OVC095 17/16 A2985 1090 93 1600 160/06 RMK AO2
14926KSTC STC20020913212010909/13/02 21:20:31  5-MIN KSTC 140320Z AUTO 17006KT 10SM BKN055 OVC100 17/16 A2985 1090 93 1600 170/06 RMK AO2
14926KSTC STC20020913212510909/13/02 21:25:31  5-MIN KSTC 140325Z AUTO 17006KT 10SM BKN055 OVC100 17/16 A2985 1090 93 1600 170/06 RMK AO2
14926KSTC STC20020913213010909/13/02 21:30:31  5-MIN KSTC 140330Z AUTO 17006KT 10SM BKN055 OVC100 17/16 A2985 1090 93 1600 170/06 RMK AO2
14926KSTC STC20020913213510909/13/02 21:35:31  5-MIN KSTC 140335Z AUTO 17006KT 10SM BKN055 OVC095 17/16 A2985 1090 93 1600 170/06 RMK AO2
14926KSTC STC20020913214010209/13/02 21:40:31  5-MIN KSTC 140340Z AUTO 18006KT 10SM OVC055 17/16 A2985 1090 93 1600 180/06 RMK AO2
14926KSTC STC20020913214510209/13/02 21:45:31  5-MIN KSTC 140345Z AUTO 18006KT 10SM OVC050 17/16 A2985 1090 90 1600 180/06 RMK AO2
14926KSTC STC20020913215011909/13/02 21:50:31  5-MIN KSTC 140350Z AUTO 18006KT 10SM OVC050 17/16 A2985 1090 90 1600 180/06 RMK AO2 SLP114 T01720156
14926KSTC STC20020913215510209/13/02 21:55:31  5-MIN KSTC 140355Z AUTO 18007KT 10SM OVC050 18/16 A2985 1090 87 1700 180/07 RMK AO2
14926KSTC STC20020913220010209/13/02 22:00:31  5-MIN KSTC 140400Z AUTO 18006KT 10SM OVC050 18/16 A2985 1100 87 1700 180/06 RMK AO2
14926KSTC STC20020913220510209/13/02 22:05:31  5-MIN KSTC 140405Z AUTO 19006KT 10SM OVC050 18/16 A2985 1090 87 1700 190/06 RMK AO2
14926KSTC STC20020913221010209/13/02 22:10:31  5-MIN KSTC 140410Z AUTO 20007KT 10SM OVC050 18/16 A2985 1090 87 1700 190/07 RMK AO2
14926KSTC STC20020913221510209/13/02 22:15:31  5-MIN KSTC 140415Z AUTO 20007KT 10SM OVC050 18/15 A2985 1090 83 1700 200/07 RMK AO2
14926KSTC STC20020913222010209/13/02 22:20:31  5-MIN KSTC 140420Z AUTO 20007KT 10SM OVC050 18/15 A2985 1090 83 1700 200/07 RMK AO2
14926KSTC STC20020913222510209/13/02 22:25:31  5-MIN KSTC 140425Z AUTO 20006KT 10SM OVC050 18/15 A2985 1090 83 1700 200/06 RMK AO2
14926KSTC STC20020913223010209/13/02 22:30:31  5-MIN KSTC 140430Z AUTO 20006KT 10SM OVC050 17/15 A2985 1090 87 1600 200/06 RMK AO2
14926KSTC STC20020913223510209/13/02 22:35:31  5-MIN KSTC 140435Z AUTO 20007KT 10SM OVC050 18/15 A2985 1090 83 1700 200/07 RMK AO2
14926KSTC STC20020913224010209/13/02 22:40:31  5-MIN KSTC 140440Z AUTO 20005KT 10SM OVC050 17/15 A2985 1090 87 1600 200/05 RMK AO2
14926KSTC STC20020913224510209/13/02 22:45:31  5-MIN KSTC 140445Z AUTO 20005KT 10SM OVC050 17/15 A2985 1090 87 1600 200/05 RMK AO2
14926KSTC STC20020913225011909/13/02 22:50:31  5-MIN KSTC 140450Z AUTO 20005KT 10SM OVC050 17/15 A2985 1090 87 1600 200/05 RMK AO2 SLP114 T01720150
14926KSTC STC20020913225510209/13/02 22:55:31  5-MIN KSTC 140455Z AUTO 20006KT 10SM OVC050 17/14 A2985 1090 83 1600 200/06 RMK AO2
14926KSTC STC20020913230010209/13/02 23:00:31  5-MIN KSTC 140500Z AUTO 20006KT 10SM OVC050 17/14 A2985 1090 83 1600 200/06 RMK AO2
14926KSTC STC20020913230510209/13/02 23:05:31  5-MIN KSTC 140505Z AUTO 20005KT 10SM OVC050 17/14 A2985 1090 83 1600 190/05 RMK AO2
14926KSTC STC20020913231010209/13/02 23:10:31  5-MIN KSTC 140510Z AUTO 20006KT 10SM OVC050 17/14 A2985 1090 83 1600 200/06 RMK AO2
14926KSTC STC20020913231510209/13/02 23:15:31  5-MIN KSTC 140515Z AUTO 20006KT 10SM OVC050 17/14 A2985 1090 83 1600 200/06 RMK AO2
14926KSTC STC20020913232010209/13/02 23:20:31  5-MIN KSTC 140520Z AUTO 20006KT 10SM OVC048 17/14 A2985 1090 83 1600 190/06 RMK AO2
14926KSTC STC20020913232510209/13/02 23:25:31  5-MIN KSTC 140525Z AUTO 19006KT 10SM OVC048 17/14 A2985 1090 83 1600 190/06 RMK AO2
14926KSTC STC20020913233010209/13/02 23:30:31  5-MIN KSTC 140530Z AUTO 20006KT 10SM OVC046 17/14 A2985 1090 83 1600 190/06 RMK AO2
14926KSTC STC20020913233510209/13/02 23:35:31  5-MIN KSTC 140535Z AUTO 20006KT 10SM OVC044 17/14 A2985 1090 83 1600 200/06 RMK AO2
14926KSTC STC20020913234010209/13/02 23:40:31  5-MIN KSTC 140540Z AUTO 20006KT 10SM OVC044 17/14 A2985 1090 83 1600 200/06 RMK AO2
14926KSTC STC20020913234510909/13/02 23:45:31  5-MIN KSTC 140545Z AUTO 20008KT 10SM SCT037 OVC044 17/14 A2985 1090 80 1600 200/08 RMK AO2
14926KSTC STC20020913235015409/13/02 23:50:31  5-MIN KSTC 140550Z AUTO 20008KT 10SM BKN033 OVC044 17/14 A2985 1100 80 1600 200/08 RMK AO2 SLP113 T01720139 10189 20172 402000144 58007
14926KSTC STC20020913235510909/13/02 23:55:31  5-MIN KSTC 140555Z AUTO 20007KT 10SM BKN035 OVC044 17/14 A2984 1100 80 1700 200/07 RMK AO2
14926KSTC STC20020914000010909/14/02 00:00:31  5-MIN KSTC 140600Z AUTO 20008KT 10SM BKN037 OVC044 17/14 A2984 1100 80 1700 200/08 RMK AO2
14926KSTC STC20020914000510209/14/02 00:05:31  5-MIN KSTC 140605Z AUTO 20009KT 10SM OVC037 17/14 A2984 1100 80 1700 200/09 RMK AO2
14926KSTC STC20020914001010209/14/02 00:10:31  5-MIN KSTC 140610Z AUTO 21008KT 10SM OVC037 17/14 A2985 1100 80 1700 210/08 RMK AO2
14926KSTC STC20020914001510209/14/02 00:15:31  5-MIN KSTC 140615Z AUTO 21008KT 10SM OVC037 17/14 A2984 1100 80 1700 210/08 RMK AO2
14926KSTC STC20020914002010209/14/02 00:20:31  5-MIN KSTC 140620Z AUTO 21008KT 10SM OVC037 17/14 A2985 1100 80 1700 210/08 RMK AO2
14926KSTC STC20020914002510209/14/02 00:25:31  5-MIN KSTC 140625Z AUTO 21007KT 10SM OVC037 17/14 A2985 1100 80 1700 210/07 RMK AO2
14926KSTC STC20020914003010209/14/02 00:30:31  5-MIN KSTC 140630Z AUTO 22008KT 10SM OVC037 17/14 A2985 1100 80 1600 210/08 RMK AO2
14926KSTC STC20020914003510209/14/02 00:35:31  5-MIN KSTC 140635Z AUTO 22012KT 10SM OVC037 17/14 A2985 1090 80 1600 210/12 RMK AO2
14926KSTC STC20020914004010209/14/02 00:40:31  5-MIN KSTC 140640Z AUTO 21009KT 10SM OVC037 17/14 A2985 1090 86 1600 200/09 RMK AO2
14926KSTC STC20020914004510209/14/02 00:45:31  5-MIN KSTC 140645Z AUTO 20009KT 10SM OVC037 17/14 A2985 1090 86 1600 200/09 RMK AO2
14926KSTC STC20020914005011909/14/02 00:50:31  5-MIN KSTC 140650Z AUTO 21008KT 10SM OVC039 17/14 A2985 1090 83 1600 210/08 RMK AO2 SLP114 T01670139
14926KSTC STC20020914005510209/14/02 00:55:31  5-MIN KSTC 140655Z AUTO 21010KT 10SM OVC039 17/14 A2985 1090 83 1600 210/10 RMK AO2
14926KSTC STC20020914010010209/14/02 01:00:31  5-MIN KSTC 140700Z AUTO 21009KT 10SM OVC039 17/14 A2985 1090 83 1600 210/09 RMK AO2
14926KSTC STC20020914010510209/14/02 01:05:31  5-MIN KSTC 140705Z AUTO 21009KT 10SM OVC041 16/14 A2985 1090 86 1500 200/09 RMK AO2
14926KSTC STC20020914011010209/14/02 01:10:31  5-MIN KSTC 140710Z AUTO 20008KT 10SM OVC041 16/14 A2985 1090 86 1500 200/08 RMK AO2
14926KSTC STC20020914011510209/14/02 01:15:31  5-MIN KSTC 140715Z AUTO 20008KT 10SM OVC041 16/14 A2985 1090 90 1500 200/08 RMK AO2
14926KSTC STC20020914012010209/14/02 01:20:31  5-MIN KSTC 140720Z AUTO 19008KT 10SM OVC041 16/14 A2985 1090 90 1500 180/08 RMK AO2
14926KSTC STC20020914012510209/14/02 01:25:31  5-MIN KSTC 140725Z AUTO 19007KT 10SM OVC041 16/14 A2985 1100 93 1500 190/07 RMK AO2
14926KSTC STC20020914013010209/14/02 01:30:31  5-MIN KSTC 140730Z AUTO 18007KT 10SM OVC041 16/14 A2984 1100 93 1500 180/07 RMK AO2
14926KSTC STC20020914013510209/14/02 01:35:31  5-MIN KSTC 140735Z AUTO 18007KT 10SM OVC039 16/14 A2984 1100 93 1500 170/07 RMK AO2
14926KSTC STC20020914014010209/14/02 01:40:31  5-MIN KSTC 140740Z AUTO 18007KT 10SM OVC039 16/14 A2983 1110 93 1500 180/07 RMK AO2
14926KSTC STC20020914014510209/14/02 01:45:31  5-MIN KSTC 140745Z AUTO 18008KT 10SM OVC039 16/14 A2983 1110 93 1500 180/08 RMK AO2
14926KSTC STC20020914015011909/14/02 01:50:31  5-MIN KSTC 140750Z AUTO 16008KT 10SM OVC039 16/14 A2983 1110 93 1500 160/08 RMK AO2 SLP106 T01560144
14926KSTC STC20020914015510209/14/02 01:55:31  5-MIN KSTC 140755Z AUTO 18007KT 10SM OVC039 16/14 A2982 1120 93 1500 180/07 RMK AO2
14926KSTC STC20020914020010909/14/02 02:00:31  5-MIN KSTC 140800Z AUTO 19006KT 10SM BKN039 OVC090 16/14 A2982 1120 93 1500 190/06 RMK AO2
14926KSTC STC20020914020510909/14/02 02:05:31  5-MIN KSTC 140805Z AUTO 19005KT 10SM BKN037 OVC090 16/14 A2982 1120 93 1500 190/05 RMK AO2
14926KSTC STC20020914021010909/14/02 02:10:31  5-MIN KSTC 140810Z AUTO 19005KT 10SM SCT037 OVC090 16/14 A2982 1120 93 1500 190/05 RMK AO2
14926KSTC STC20020914021511609/14/02 02:15:31  5-MIN KSTC 140815Z AUTO 23004KT 10SM FEW031 SCT037 OVC090 16/14 A2982 1120 93 1500 220/04 RMK AO2
14926KSTC STC20020914022011609/14/02 02:20:31  5-MIN KSTC 140820Z AUTO 25004KT 10SM SCT034 SCT060 OVC090 16/14 A2982 1120 93 1500 240/04 RMK AO2
14926KSTC STC20020914022510909/14/02 02:25:31  5-MIN KSTC 140825Z AUTO 00000KT 10SM BKN032 OVC090 16/14 A2982 1120 93 1500 000/00 RMK AO2
14926KSTC STC20020914023010909/14/02 02:30:31  5-MIN KSTC 140830Z AUTO 22003KT 10SM BKN032 OVC090 16/14 A2982 1120 93 1500 210/03 RMK AO2
14926KSTC STC20020914023510909/14/02 02:35:31  5-MIN KSTC 140835Z AUTO 21004KT 10SM BKN032 OVC090 16/14 A2982 1120 93 1500 210/04 RMK AO2
14926KSTC STC20020914024010209/14/02 02:40:31  5-MIN KSTC 140840Z AUTO 19004KT 10SM OVC032 16/14 A2982 1120 93 1500 180/04 RMK AO2
14926KSTC STC20020914024510209/14/02 02:45:31  5-MIN KSTC 140845Z AUTO 21004KT 10SM OVC032 16/14 A2982 1120 93 1500 200/04 RMK AO2
14926KSTC STC20020914025012509/14/02 02:50:31  5-MIN KSTC 140850Z AUTO 22004KT 10SM OVC032 16/14 A2983 1110 93 1500 220/04 RMK AO2 SLP106 T01560144 58002
14926KSTC STC20020914025510209/14/02 02:55:31  5-MIN KSTC 140855Z AUTO 22004KT 10SM OVC032 16/14 A2983 1110 93 1500 220/04 RMK AO2
14926KSTC STC20020914030010209/14/02 03:00:31  5-MIN KSTC 140900Z AUTO 23003KT 10SM OVC032 16/14 A2983 1110 93 1500 230/03 RMK AO2
14926KSTC STC20020914030510209/14/02 03:05:31  5-MIN KSTC 140905Z AUTO 23003KT 10SM OVC032 16/14 A2983 1110 93 1500 230/03 RMK AO2
14926KSTC STC20020914031010209/14/02 03:10:31  5-MIN KSTC 140910Z AUTO 25004KT 10SM OVC032 16/14 A2983 1110 93 1500 250/04 RMK AO2
14926KSTC STC20020914031510209/14/02 03:15:31  5-MIN KSTC 140915Z AUTO 25004KT 10SM OVC032 16/14 A2983 1110 93 1500 250/04 RMK AO2
14926KSTC STC20020914032010209/14/02 03:20:31  5-MIN KSTC 140920Z AUTO 25003KT 10SM OVC032 16/14 A2983 1110 93 1500 250/03 RMK AO2
14926KSTC STC20020914032510209/14/02 03:25:31  5-MIN KSTC 140925Z AUTO 22003KT 10SM OVC032 16/14 A2982 1120 93 1500 220/03 RMK AO2
14926KSTC STC20020914033010209/14/02 03:30:31  5-MIN KSTC 140930Z AUTO 20004KT 10SM OVC032 16/15 A2982 1120 96 1500 200/04 RMK AO2
14926KSTC STC20020914033510209/14/02 03:35:31  5-MIN KSTC 140935Z AUTO 20004KT 10SM OVC032 16/15 A2982 1120 96 1500 190/04 RMK AO2
14926KSTC STC20020914034010209/14/02 03:40:31  5-MIN KSTC 140940Z AUTO 19005KT 10SM OVC030 16/15 A2982 1120 96 1500 190/05 RMK AO2
14926KSTC STC20020914034510209/14/02 03:45:31  5-MIN KSTC 140945Z AUTO 19005KT 10SM OVC030 16/15 A2982 1120 96 1500 190/05 RMK AO2
14926KSTC STC20020914035011909/14/02 03:50:31  5-MIN KSTC 140950Z AUTO 20005KT 10SM OVC028 16/15 A2982 1120 96 1500 190/05 RMK AO2 SLP106 T01560150
14926KSTC STC20020914035510209/14/02 03:55:31  5-MIN KSTC 140955Z AUTO 19005KT 10SM OVC026 16/15 A2982 1120 96 1500 190/05 RMK AO2
14926KSTC STC20020914040010209/14/02 04:00:31  5-MIN KSTC 141000Z AUTO 20004KT 10SM OVC026 16/15 A2982 1120 96 1500 190/04 RMK AO2
14926KSTC STC20020914040510209/14/02 04:05:31  5-MIN KSTC 141005Z AUTO 20004KT 10SM OVC026 16/15 A2982 1120 96 1500 200/04 RMK AO2
14926KSTC STC20020914041010209/14/02 04:10:31  5-MIN KSTC 141010Z AUTO 20005KT 10SM OVC024 16/15 A2982 1120 96 1500 200/05 RMK AO2
14926KSTC STC20020914041510209/14/02 04:15:31  5-MIN KSTC 141015Z AUTO 19004KT 10SM OVC024 16/15 A2982 1120 96 1500 190/04 RMK AO2
14926KSTC STC20020914042010209/14/02 04:20:31  5-MIN KSTC 141020Z AUTO 19004KT 10SM OVC024 16/15 A2982 1120 96 1500 190/04 RMK AO2
14926KSTC STC20020914042510209/14/02 04:25:31  5-MIN KSTC 141025Z AUTO 19004KT 10SM OVC022 16/15 A2981 1130 96 1500 190/04 RMK AO2
14926KSTC STC20020914043010909/14/02 04:30:31  5-MIN KSTC 141030Z AUTO 20005KT 10SM BKN022 OVC027 16/15 A2981 1120 96 1500 190/05 RMK AO2
14926KSTC STC20020914043510909/14/02 04:35:31  5-MIN KSTC 141035Z AUTO 20005KT 10SM BKN022 OVC027 16/15 A2981 1130 96 1500 190/05 RMK AO2
14926KSTC STC20020914044010209/14/02 04:40:31  5-MIN KSTC 141040Z AUTO 20004KT 10SM OVC022 16/15 A2981 1130 96 1500 200/04 RMK AO2
14926KSTC STC20020914044510209/14/02 04:45:31  5-MIN KSTC 141045Z AUTO 21004KT 10SM OVC020 16/15 A2981 1130 96 1500 200/04 RMK AO2
14926KSTC STC20020914045011909/14/02 04:50:31  5-MIN KSTC 141050Z AUTO 20005KT 10SM OVC020 16/15 A2981 1130 96 1500 200/05 RMK AO2 SLP102 T01560150
14926KSTC STC20020914045510909/14/02 04:55:31  5-MIN KSTC 141055Z AUTO 19004KT 10SM BKN020 OVC028 16/15 A2981 1130 96 1500 190/04 RMK AO2
14926KSTC STC20020914050010209/14/02 05:00:31  5-MIN KSTC 141100Z AUTO 19005KT 10SM OVC020 16/15 A2981 1130 96 1500 180/05 RMK AO2
14926KSTC STC20020914050510209/14/02 05:05:31  5-MIN KSTC 141105Z AUTO 20004KT 10SM OVC020 16/15 A2981 1120 96 1500 190/04 RMK AO2
14926KSTC STC20020914051010209/14/02 05:10:31  5-MIN KSTC 141110Z AUTO 20004KT 10SM OVC018 16/15 A2982 1120 96 1500 190/04 RMK AO2
14926KSTC STC20020914051510909/14/02 05:15:31  5-MIN KSTC 141115Z AUTO 20004KT 10SM BKN018 OVC028 16/15 A2981 1130 96 1500 200/04 RMK AO2
14926KSTC STC20020914052011609/14/02 05:20:31  5-MIN KSTC 141120Z AUTO 19005KT 10SM BKN018 BKN028 OVC040 16/15 A2981 1130 96 1500 190/05 RMK AO2
14926KSTC STC20020914052511609/14/02 05:25:31  5-MIN KSTC 141125Z AUTO 20005KT 10SM BKN018 BKN028 OVC040 16/15 A2981 1120 96 1500 190/05 RMK AO2
14926KSTC STC20020914053011609/14/02 05:30:31  5-MIN KSTC 141130Z AUTO 20004KT 10SM BKN018 BKN028 OVC040 16/15 A2982 1120 96 1500 200/04 RMK AO2
14926KSTC STC20020914053511609/14/02 05:35:31  5-MIN KSTC 141135Z AUTO 21004KT 10SM BKN018 BKN028 OVC040 16/15 A2982 1120 96 1500 200/04 RMK AO2
14926KSTC STC20020914054011609/14/02 05:40:31  5-MIN KSTC 141140Z AUTO 21005KT 10SM BKN016 BKN028 OVC040 16/15 A2982 1120 96 1500 210/05 RMK AO2
14926KSTC STC20020914054511609/14/02 05:45:31  5-MIN KSTC 141145Z AUTO 21005KT 10SM BKN016 BKN031 OVC040 16/15 A2982 1120 96 1500 210/05 RMK AO2
14926KSTC STC20020914055014309/14/02 05:50:31  5-MIN KSTC 141150Z AUTO 21005KT 10SM OVC016 16/15 A2982 1120 96 1500 210/05 RMK AO2 SLP105 70005 T01560150 10172 20156 58005
14926KSTC STC20020914055510209/14/02 05:55:31  5-MIN KSTC 141155Z AUTO 21005KT 10SM OVC016 16/15 A2982 1120 96 1500 210/05 RMK AO2
14926KSTC STC20020914060010209/14/02 06:00:31  5-MIN KSTC 141200Z AUTO 20005KT 10SM OVC016 16/15 A2982 1120 96 1500 200/05 RMK AO2
14926KSTC STC20020914060510209/14/02 06:05:31  5-MIN KSTC 141205Z AUTO 20005KT 10SM OVC016 16/15 A2983 1110 96 1500 190/05 RMK AO2
14926KSTC STC20020914061010209/14/02 06:10:31  5-MIN KSTC 141210Z AUTO 21005KT 10SM OVC016 16/15 A2983 1110 96 1500 210/05 RMK AO2
14926KSTC STC20020914061510109/14/02 06:15:31  5-MIN KSTC 141215Z AUTO 21004KT 9SM OVC014 16/15 A2983 1110 96 1500 210/04 RMK AO2
14926KSTC STC20020914062010109/14/02 06:20:31  5-MIN KSTC 141220Z AUTO 22004KT 9SM OVC014 16/15 A2983 1110 96 1500 220/04 RMK AO2
14926KSTC STC20020914062510109/14/02 06:25:31  5-MIN KSTC 141225Z AUTO 23004KT 9SM OVC014 16/15 A2983 1110 96 1500 230/04 RMK AO2
14926KSTC STC20020914063010109/14/02 06:30:31  5-MIN KSTC 141230Z AUTO 23004KT 9SM OVC014 16/15 A2983 1110 96 1500 230/04 RMK AO2
14926KSTC STC20020914063510109/14/02 06:35:31  5-MIN KSTC 141235Z AUTO 22004KT 9SM OVC014 16/15 A2983 1110 96 1500 220/04 RMK AO2
14926KSTC STC20020914064010109/14/02 06:40:31  5-MIN KSTC 141240Z AUTO 23004KT 9SM OVC014 16/15 A2983 1110 96 1500 230/04 RMK AO2
14926KSTC STC20020914064510209/14/02 06:45:31  5-MIN KSTC 141245Z AUTO 24005KT 10SM OVC012 16/15 A2983 1110 93 1500 230/05 RMK AO2
14926KSTC STC20020914065011909/14/02 06:50:31  5-MIN KSTC 141250Z AUTO 24004KT 10SM OVC012 16/15 A2983 1110 93 1500 240/04 RMK AO2 SLP109 T01610150
14926KSTC STC20020914065510109/14/02 06:55:31  5-MIN KSTC 141255Z AUTO 25005KT 8SM OVC012 16/15 A2983 1110 93 1500 250/05 RMK AO2
14926KSTC STC20020914070010809/14/02 07:00:31  5-MIN KSTC 141300Z AUTO 23004KT 7SM BKN014 OVC018 16/15 A2983 1110 93 1500 230/04 RMK AO2
14926KSTC STC20020914070510809/14/02 07:05:31  5-MIN KSTC 141305Z AUTO 25004KT 7SM BKN014 OVC033 16/16 A2983 1110 96 1500 240/04 RMK AO2
14926KSTC STC20020914071011509/14/02 07:10:31  5-MIN KSTC 141310Z AUTO 26004KT 8SM BKN014 BKN022 OVC033 16/16 A2983 1110 96 1500 260/04 RMK AO2
14926KSTC STC20020914071511509/14/02 07:15:31  5-MIN KSTC 141315Z AUTO 25004KT 9SM SCT014 BKN022 OVC031 16/16 A2983 1110 96 1500 250/04 RMK AO2
14926KSTC STC20020914072011509/14/02 07:20:31  5-MIN KSTC 141320Z AUTO 25004KT 9SM FEW014 BKN024 OVC033 16/16 A2983 1110 96 1500 250/04 RMK AO2
14926KSTC STC20020914072511509/14/02 07:25:31  5-MIN KSTC 141325Z AUTO 25005KT 9SM FEW014 SCT020 OVC033 16/16 A2983 1110 96 1500 250/05 RMK AO2
14926KSTC STC20020914073011609/14/02 07:30:31  5-MIN KSTC 141330Z AUTO 25004KT 10SM FEW021 SCT025 OVC035 16/16 A2983 1110 96 1500 250/04 RMK AO2
14926KSTC STC20020914073511609/14/02 07:35:31  5-MIN KSTC 141335Z AUTO 26004KT 10SM FEW021 SCT025 OVC035 17/16 A2983 1110 93 1600 260/04 RMK AO2
14926KSTC STC20020914074011609/14/02 07:40:31  5-MIN KSTC 141340Z AUTO 26005KT 10SM FEW022 SCT027 OVC035 17/16 A2983 1110 93 1600 260/05 RMK AO2
14926KSTC STC20020914074510909/14/02 07:45:31  5-MIN KSTC 141345Z AUTO 27004KT 10SM FEW020 OVC035 17/16 A2983 1110 93 1600 270/04 RMK AO2
14926KSTC STC20020914075013309/14/02 07:50:31  5-MIN KSTC 141350Z AUTO 26005KT 10SM FEW020 SCT025 OVC037 17/16 A2983 1110 93 1600 260/05 RMK AO2 SLP109 T01670156
14926KSTC STC20020914075510909/14/02 07:55:31  5-MIN KSTC 141355Z AUTO 26004KT 10SM SCT025 OVC037 17/16 A2983 1110 93 1600 260/04 RMK AO2
14926KSTC STC20020914080010909/14/02 08:00:31  5-MIN KSTC 141400Z AUTO 28005KT 10SM BKN025 OVC037 17/16 A2984 1100 93 1600 270/05 RMK AO2
14926KSTC STC20020914080510909/14/02 08:05:31  5-MIN KSTC 141405Z AUTO 28005KT 10SM BKN025 OVC039 17/16 A2984 1100 90 1700 280/05 RMK AO2
14926KSTC STC20020914081010909/14/02 08:10:31  5-MIN KSTC 141410Z AUTO 28006KT 10SM BKN025 OVC039 17/16 A2984 1100 90 1700 280/06 RMK AO2
14926KSTC STC20020914081510909/14/02 08:15:31  5-MIN KSTC 141415Z AUTO 29005KT 10SM BKN023 OVC039 17/16 A2984 1100 90 1700 280/05 RMK AO2
14926KSTC STC20020914082010909/14/02 08:20:31  5-MIN KSTC 141420Z AUTO 30004KT 10SM BKN023 OVC039 17/16 A2984 1100 90 1700 290/04 RMK AO2
14926KSTC STC20020914082510909/14/02 08:25:31  5-MIN KSTC 141425Z AUTO 29007KT 10SM BKN023 OVC039 17/16 A2984 1100 90 1700 290/07 RMK AO2
14926KSTC STC20020914083010909/14/02 08:30:31  5-MIN KSTC 141430Z AUTO 29006KT 10SM BKN023 OVC039 18/16 A2984 1100 87 1700 280/06 RMK AO2
14926KSTC STC20020914083510909/14/02 08:35:31  5-MIN KSTC 141435Z AUTO 30007KT 10SM BKN023 OVC039 18/16 A2985 1090 87 1700 290/07 RMK AO2
14926KSTC STC20020914084011609/14/02 08:40:31  5-MIN KSTC 141440Z AUTO 30008KT 10SM FEW015 BKN023 OVC039 18/16 A2985 1090 87 1700 300/08 RMK AO2
14926KSTC STC20020914084511609/14/02 08:45:31  5-MIN KSTC 141445Z AUTO 29009KT 10SM FEW015 BKN023 OVC039 18/16 A2985 1090 87 1700 290/09 RMK AO2
14926KSTC STC20020914085013909/14/02 08:50:31  5-MIN KSTC 141450Z AUTO 30008KT 10SM FEW016 BKN023 OVC039 18/16 A2985 1090 87 1700 300/08 RMK AO2 SLP116 T01780156 55001
14926KSTC STC20020914085511609/14/02 08:55:31  5-MIN KSTC 141455Z AUTO 30008KT 10SM FEW016 BKN023 OVC039 18/16 A2986 1090 87 1700 290/08 RMK AO2
14926KSTC STC20020914090011609/14/02 09:00:31  5-MIN KSTC 141500Z AUTO 30010KT 10SM SCT016 BKN023 OVC039 18/16 A2986 1090 87 1700 300/10 RMK AO2
14926KSTC STC20020914090511609/14/02 09:05:31  5-MIN KSTC 141505Z AUTO 30010KT 10SM FEW016 BKN023 OVC039 18/16 A2986 1090 87 1700 290/10 RMK AO2
14926KSTC STC20020914091010909/14/02 09:10:31  5-MIN KSTC 141510Z AUTO 31010KT 10SM FEW016 OVC023 18/15 A2986 1090 83 1700 300/10 RMK AO2
14926KSTC STC20020914091511609/14/02 09:15:31  5-MIN KSTC 141515Z AUTO 30008KT 10SM FEW016 BKN023 OVC029 18/16 A2986 1080 84 1800 300/08 RMK AO2
14926KSTC STC20020914092011609/14/02 09:20:31  5-MIN KSTC 141520Z AUTO 30007KT 10SM SCT016 BKN023 OVC029 18/16 A2986 1080 84 1800 300/07 RMK AO2
14926KSTC STC20020914092511609/14/02 09:25:31  5-MIN KSTC 141525Z AUTO 32009KT 10SM FEW014 BKN023 OVC043 19/16 A2986 1080 81 1800 310/09 RMK AO2
14926KSTC STC20020914093013209/14/02 09:30:31  5-MIN KSTC 141530Z AUTO 33010KT 300V360 10SM SCT016 BKN023 OVC043 19/16 A2986 1080 81 1800 320/10 300V360 RMK AO2
14926KSTC STC20020914093511609/14/02 09:35:31  5-MIN KSTC 141535Z AUTO 32011KT 10SM SCT016 BKN023 OVC043 19/16 A2986 1080 81 1800 310/11 RMK AO2
14926KSTC STC20020914094011609/14/02 09:40:31  5-MIN KSTC 141540Z AUTO 32014KT 10SM SCT016 BKN023 OVC043 19/15 A2986 1080 75 1900 320/14 RMK AO2
14926KSTC STC20020914094511609/14/02 09:45:31  5-MIN KSTC 141545Z AUTO 33010KT 10SM SCT016 SCT023 OVC043 19/14 A2987 1080 75 1800 320/10 RMK AO2
14926KSTC STC20020914095012609/14/02 09:50:31  5-MIN KSTC 141550Z AUTO 31012KT 10SM SCT016 BKN043 19/15 A2987 1070 75 1900 310/12 RMK AO2 SLP120 T01940150
14926KSTC STC20020914095510909/14/02 09:55:31  5-MIN KSTC 141555Z AUTO 32010KT 10SM SCT016 BKN043 20/15 A2987 1070 72 1900 320/10 RMK AO2
14926KSTC STC20020914100010909/14/02 10:00:31  5-MIN KSTC 141600Z AUTO 34009KT 10SM SCT016 BKN043 20/15 A2987 1070 72 1900 330/09 RMK AO2
14926KSTC STC20020914100512209/14/02 10:05:31  5-MIN KSTC 141605Z AUTO 32012G16KT 10SM SCT020 SCT028 BKN043 19/15 A2987 1070 75 1900 320/12G16 RMK AO2
14926KSTC STC20020914101012209/14/02 10:10:31  5-MIN KSTC 141610Z AUTO 33012G17KT 10SM SCT020 BKN026 BKN043 19/15 A2988 1070 75 1900 330/12G17 RMK AO2
14926KSTC STC20020914101511509/14/02 10:15:31  5-MIN KSTC 141615Z AUTO 32018G23KT 10SM BKN022 BKN046 18/14 A2988 1060 75 1700 320/18G23 RMK AO2
14926KSTC STC20020914102011509/14/02 10:20:31  5-MIN KSTC 141620Z AUTO 32015G23KT 10SM SCT022 BKN045 19/14 A2989 1060 72 1800 320/15G23 RMK AO2
14926KSTC STC20020914102511509/14/02 10:25:31  5-MIN KSTC 141625Z AUTO 34011G22KT 10SM SCT022 BKN045 18/14 A2989 1050 75 1700 330/11G22 RMK AO2
14926KSTC STC20020914103012209/14/02 10:30:31  5-MIN KSTC 141630Z AUTO 33013G17KT 10SM FEW022 SCT026 BKN043 19/14 A2989 1060 72 1800 320/13G17 RMK AO2
14926KSTC STC20020914103510909/14/02 10:35:31  5-MIN KSTC 141635Z AUTO 32014KT 10SM SCT022 BKN043 18/14 A2989 1050 75 1700 310/14 RMK AO2
14926KSTC STC20020914104010909/14/02 10:40:31  5-MIN KSTC 141640Z AUTO 34011KT 10SM SCT022 BKN045 18/14 A2990 1050 75 1700 330/11 RMK AO2
14926KSTC STC20020914104511509/14/02 10:45:31  5-MIN KSTC 141645Z AUTO 34013G18KT 10SM SCT022 BKN045 19/14 A2990 1050 72 1800 330/13G18 RMK AO2
14926KSTC STC20020914105013209/14/02 10:50:31  5-MIN KSTC 141650Z AUTO 34015G21KT 10SM SCT022 BKN043 19/13 A2990 1040 70 1800 340/15G21 RMK AO2 SLP131 T01890133
14926KSTC STC20020914105511509/14/02 10:55:31  5-MIN KSTC 141655Z AUTO 32015G21KT 10SM SCT022 BKN043 19/13 A2990 1040 70 1800 320/15G21 RMK AO2
14926KSTC STC20020914110010909/14/02 11:00:31  5-MIN KSTC 141700Z AUTO 35014KT 10SM BKN022 BKN043 18/13 A2990 1040 72 1700 340/14 RMK AO2
14926KSTC STC20020914110510909/14/02 11:05:31  5-MIN KSTC 141705Z AUTO 35010KT 10SM BKN022 BKN043 19/13 A2990 1040 70 1800 340/10 RMK AO2
14926KSTC STC20020914111010909/14/02 11:10:31  5-MIN KSTC 141710Z AUTO 35013KT 10SM BKN022 BKN043 19/13 A2991 1040 70 1800 350/13 RMK AO2
14926KSTC STC20020914111510909/14/02 11:15:31  5-MIN KSTC 141715Z AUTO 33013KT 10SM BKN022 BKN043 18/13 A2991 1040 72 1700 330/13 RMK AO2
14926KSTC STC20020914112010809/14/02 11:20:31  5-MIN KSTC 141720Z AUTO 35011G17KT 10SM BKN024 18/13 A2991 1030 72 1700 340/11G17 RMK AO2
14926KSTC STC20020914112511509/14/02 11:25:31  5-MIN KSTC 141725Z AUTO 35012G16KT 10SM BKN024 OVC029 18/13 A2991 1030 72 1700 340/12G16 RMK AO2
14926KSTC STC20020914113010809/14/02 11:30:31  5-MIN KSTC 141730Z AUTO 35015G19KT 10SM OVC026 18/13 A2992 1030 70 1700 340/15G19 RMK AO2
14926KSTC STC20020914113510809/14/02 11:35:31  5-MIN KSTC 141735Z AUTO 34013G20KT 10SM OVC026 18/13 A2992 1030 72 1600 330/13G20 RMK AO2
14926KSTC STC20020914114010809/14/02 11:40:31  5-MIN KSTC 141740Z AUTO 34013G20KT 10SM BKN026 18/12 A2992 1030 69 1600 340/13G20 RMK AO2
14926KSTC STC20020914114511509/14/02 11:45:31  5-MIN KSTC 141745Z AUTO 34014G20KT 10SM SCT024 BKN030 19/12 A2992 1030 65 1800 340/14G20 RMK AO2
14926KSTC STC20020914115014309/14/02 11:50:31  5-MIN KSTC 141750Z AUTO 35014G20KT 10SM SCT027 19/12 A2992 1020 65 1800 350/14G20 RMK AO2 SLP139 T01890122 10200 20156 53010
14926KSTC STC20020914115511509/14/02 11:55:31  5-MIN KSTC 141755Z AUTO 36013G20KT 10SM FEW024 SCT030 19/11 A2993 1020 60 1800 360/13G20 RMK AO2
14926KSTC STC20020914120010809/14/02 12:00:31  5-MIN KSTC 141800Z AUTO 35012G20KT 10SM FEW030 19/11 A2993 1020 60 1700 340/12G20 RMK AO2
14926KSTC STC20020914120510809/14/02 12:05:31  5-MIN KSTC 141805Z AUTO 35015G19KT 10SM FEW030 19/12 A2993 1020 62 1700 350/15G19 RMK AO2
14926KSTC STC20020914121010809/14/02 12:10:31  5-MIN KSTC 141810Z AUTO 34013G19KT 10SM SCT032 19/11 A2993 1020 60 1700 340/13G19 RMK AO2
14926KSTC STC20020914121510809/14/02 12:15:31  5-MIN KSTC 141815Z AUTO 34015G20KT 10SM FEW032 19/11 A2993 1020 60 1700 330/15G20 RMK AO2
14926KSTC STC20020914122010809/14/02 12:20:31  5-MIN KSTC 141820Z AUTO 33013G20KT 10SM FEW032 19/11 A2993 1010 60 1700 330/13G20 RMK AO2
14926KSTC STC20020914122510809/14/02 12:25:31  5-MIN KSTC 141825Z AUTO 34014G20KT 10SM FEW032 19/11 A2994 1010 58 1700 340/14G20 RMK AO2
14926KSTC STC20020914123010809/14/02 12:30:31  5-MIN KSTC 141830Z AUTO 34013G20KT 10SM FEW032 19/11 A2994 1010 56 1800 330/13G20 RMK AO2
14926KSTC STC20020914123510209/14/02 12:35:31  5-MIN KSTC 141835Z AUTO 34015KT 10SM SCT034 19/11 A2994 1010 56 1800 340/15 RMK AO2
14926KSTC STC20020914124010809/14/02 12:40:31  5-MIN KSTC 141840Z AUTO 35010G17KT 10SM SCT034 18/10 A2994 1010 58 1700 350/10G17 RMK AO2
14926KSTC STC20020914124510209/14/02 12:45:31  5-MIN KSTC 141845Z AUTO 35012KT 10SM FEW036 19/09 A2994 1010 54 1700 350/12 RMK AO2
14926KSTC STC20020914125012509/14/02 12:50:31  5-MIN KSTC 141850Z AUTO 35015G20KT 10SM SCT038 19/10 A2995 1000 54 1800 340/15G20 RMK AO2 SLP147 T01940100
14926KSTC STC20020914125510809/14/02 12:55:31  5-MIN KSTC 141855Z AUTO 35011G20KT 10SM SCT038 19/09 A2995 1000 54 1700 340/11G20 RMK AO2
14926KSTC STC20020914130010809/14/02 13:00:31  5-MIN KSTC 141900Z AUTO 35012G19KT 10SM SCT040 19/09 A2995 1000 52 1700 350/12G19 RMK AO2
14926KSTC STC20020914130510809/14/02 13:05:31  5-MIN KSTC 141905Z AUTO 35014G20KT 10SM FEW040 19/09 A2995 1000 50 1800 350/14G20 RMK AO2
14926KSTC STC20020914131010809/14/02 13:10:31  5-MIN KSTC 141910Z AUTO 35015G20KT 10SM SCT042 19/09 A2995 1000 52 1800 350/15G20 RMK AO2
14926KSTC STC20020914131510809/14/02 13:15:31  5-MIN KSTC 141915Z AUTO 36014G18KT 10SM SCT042 18/09 A2995 1000 54 1700 360/14G18 RMK AO2
14926KSTC STC20020914132010809/14/02 13:20:31  5-MIN KSTC 141920Z AUTO 35014G18KT 10SM SCT042 19/09 A2995 1000 52 1700 350/14G18 RMK AO2
14926KSTC STC20020914132510109/14/02 13:25:31  5-MIN KSTC 141925Z AUTO 34013KT 10SM FEW042 19/08 A2996 990 48 1800 330/13 RMK AO2
14926KSTC STC20020914133010709/14/02 13:30:31  5-MIN KSTC 141930Z AUTO 34013G18KT 10SM FEW042 19/08 A2996 990 46 1800 340/13G18 RMK AO2
14926KSTC STC20020914133510809/14/02 13:35:31  5-MIN KSTC 141935Z AUTO 34013G19KT 10SM SCT044 19/08 A2995 1000 48 1800 330/13G19 RMK AO2
14926KSTC STC20020914134010709/14/02 13:40:31  5-MIN KSTC 141940Z AUTO 36010G19KT 10SM SCT044 19/08 A2996 990 50 1700 360/10G19 RMK AO2
14926KSTC STC20020914134510109/14/02 13:45:31  5-MIN KSTC 141945Z AUTO 36013KT 10SM SCT044 18/08 A2996 990 53 1600 360/13 RMK AO2
14926KSTC STC20020914135012409/14/02 13:50:31  5-MIN KSTC 141950Z AUTO 36010G17KT 10SM SCT044 19/09 A2996 990 52 1700 350/10G17 RMK AO2 SLP151 T01890089
14926KSTC STC20020914135510709/14/02 13:55:31  5-MIN KSTC 141955Z AUTO 36012G17KT 10SM SCT044 18/09 A2996 990 54 1600 360/12G17 RMK AO2
14926KSTC STC20020914140010109/14/02 14:00:31  5-MIN KSTC 142000Z AUTO 35013KT 10SM SCT044 18/08 A2996 990 52 1600 340/13 RMK AO2
14926KSTC STC20020914140510709/14/02 14:05:31  5-MIN KSTC 142005Z AUTO 36016G21KT 10SM SCT044 19/08 A2997 980 50 1700 360/16G21 RMK AO2
14926KSTC STC20020914141010709/14/02 14:10:31  5-MIN KSTC 142010Z AUTO 36014G21KT 10SM BKN044 18/08 A2997 980 52 1600 350/14G21 RMK AO2
14926KSTC STC20020914141510709/14/02 14:15:31  5-MIN KSTC 142015Z AUTO 36014G20KT 10SM BKN044 19/08 A2997 980 50 1700 360/14G20 RMK AO2
14926KSTC STC20020914142010709/14/02 14:20:31  5-MIN KSTC 142020Z AUTO 36011G19KT 10SM SCT044 18/09 A2997 980 55 1600 350/11G19 RMK AO2
14926KSTC STC20020914142510709/14/02 14:25:31  5-MIN KSTC 142025Z AUTO 35015G20KT 10SM FEW044 18/09 A2998 970 54 1600 350/15G20 RMK AO2
14926KSTC STC20020914143010709/14/02 14:30:31  5-MIN KSTC 142030Z AUTO 35014G20KT 10SM FEW044 18/08 A2998 970 52 1600 350/14G20 RMK AO2
14926KSTC STC20020914143510709/14/02 14:35:31  5-MIN KSTC 142035Z AUTO 36013G19KT 10SM FEW044 18/08 A2998 970 52 1600 360/13G19 RMK AO2
14926KSTC STC20020914144010409/14/02 14:40:31  5-MIN KSTC 142040Z AUTO 34013G19KT 10SM CLR 18/08 A2999 970 52 1600 330/13G19 RMK AO2
14926KSTC STC20020914144510709/14/02 14:45:31  5-MIN KSTC 142045Z AUTO 35015G20KT 10SM FEW042 18/08 A2999 960 53 1600 350/15G20 RMK AO2
14926KSTC STC20020914145013009/14/02 14:50:31  5-MIN KSTC 142050Z AUTO 35015G20KT 10SM FEW042 17/08 A2999 960 55 1500 340/15G20 RMK AO2 SLP162 T01720083 53023
14926KSTC STC20020914145510109/14/02 14:55:31  5-MIN KSTC 142055Z AUTO 36013KT 10SM FEW042 18/08 A2999 960 53 1500 360/13 RMK AO2
14926KSTC STC20020914150010109/14/02 15:00:31  5-MIN KSTC 142100Z AUTO 36013KT 10SM FEW042 18/08 A3000 960 52 1600 360/13 RMK AO2
14926KSTC STC20020914150510709/14/02 15:05:31  5-MIN KSTC 142105Z AUTO 35011G19KT 10SM FEW042 18/08 A3000 950 53 1500 350/11G19 RMK AO2
14926KSTC STC20020914151010709/14/02 15:10:31  5-MIN KSTC 142110Z AUTO 01014G19KT 10SM SCT042 18/08 A3000 950 53 1500 010/14G19 RMK AO2
14926KSTC STC20020914151510709/14/02 15:15:31  5-MIN KSTC 142115Z AUTO 35014G19KT 10SM SCT040 17/08 A3000 950 55 1500 350/14G19 RMK AO2
14926KSTC STC20020914152010709/14/02 15:20:31  5-MIN KSTC 142120Z AUTO 35014G21KT 10SM SCT040 18/08 A3000 950 51 1500 350/14G21 RMK AO2
14926KSTC STC20020914152510709/14/02 15:25:31  5-MIN KSTC 142125Z AUTO 36013G21KT 10SM SCT040 18/08 A3001 950 51 1500 360/13G21 RMK AO2
14926KSTC STC20020914153010709/14/02 15:30:31  5-MIN KSTC 142130Z AUTO 36014G18KT 10SM FEW040 18/08 A3001 940 51 1500 360/14G18 RMK AO2
14926KSTC STC20020914153510709/14/02 15:35:31  5-MIN KSTC 142135Z AUTO 35011G18KT 10SM FEW040 18/08 A3001 940 51 1500 350/11G18 RMK AO2
14926KSTC STC20020914154010709/14/02 15:40:31  5-MIN KSTC 142140Z AUTO 34014G19KT 10SM FEW042 18/08 A3001 940 51 1500 330/14G19 RMK AO2
14926KSTC STC20020914154510709/14/02 15:45:31  5-MIN KSTC 142145Z AUTO 34013G19KT 10SM FEW042 18/08 A3001 940 51 1500 330/13G19 RMK AO2
14926KSTC STC20020914155011509/14/02 15:50:31  5-MIN KSTC 142150Z AUTO 36012KT 10SM CLR 18/08 A3001 940 51 1500 360/12 RMK AO2 SLP171 T01780078
14926KSTC STC20020914155509809/14/02 15:55:31  5-MIN KSTC 142155Z AUTO 35013KT 10SM CLR 18/08 A3002 940 51 1500 350/13 RMK AO2
14926KSTC STC20020914160010109/14/02 16:00:31  5-MIN KSTC 142200Z AUTO 35011KT 10SM FEW046 18/07 A3002 930 49 1500 350/11 RMK AO2
14926KSTC STC20020914160510109/14/02 16:05:31  5-MIN KSTC 142205Z AUTO 35010KT 10SM FEW046 18/08 A3002 940 51 1500 350/10 RMK AO2
14926KSTC STC20020914161010109/14/02 16:10:31  5-MIN KSTC 142210Z AUTO 35013KT 10SM FEW046 18/08 A3002 930 51 1500 350/13 RMK AO2
14926KSTC STC20020914161510109/14/02 16:15:31  5-MIN KSTC 142215Z AUTO 36011KT 10SM FEW046 18/08 A3002 930 51 1500 360/11 RMK AO2
14926KSTC STC20020914162010709/14/02 16:20:31  5-MIN KSTC 142220Z AUTO 36011G17KT 10SM FEW046 17/08 A3002 930 53 1400 360/11G17 RMK AO2
14926KSTC STC20020914162509809/14/02 16:25:31  5-MIN KSTC 142225Z AUTO 36010KT 10SM CLR 17/08 A3002 930 55 1400 350/10 RMK AO2
14926KSTC STC20020914163009809/14/02 16:30:31  5-MIN KSTC 142230Z AUTO 36010KT 10SM CLR 18/08 A3003 930 51 1500 360/10 RMK AO2
14926KSTC STC20020914163509809/14/02 16:35:31  5-MIN KSTC 142235Z AUTO 35011KT 10SM CLR 18/08 A3003 930 51 1500 350/11 RMK AO2
14926KSTC STC20020914164009809/14/02 16:40:31  5-MIN KSTC 142240Z AUTO 35010KT 10SM CLR 17/07 A3003 920 51 1400 350/10 RMK AO2
14926KSTC STC20020914164509809/14/02 16:45:31  5-MIN KSTC 142245Z AUTO 36011KT 10SM CLR 18/07 A3003 920 49 1500 360/11 RMK AO2
14926KSTC STC20020914165011509/14/02 16:50:31  5-MIN KSTC 142250Z AUTO 34009KT 10SM CLR 18/08 A3004 920 51 1500 340/09 RMK AO2 SLP178 T01780078
14926KSTC STC20020914165510409/14/02 16:55:31  5-MIN KSTC 142255Z AUTO 35014G17KT 10SM CLR 18/07 A3004 920 49 1500 340/14G17 RMK AO2
14926KSTC STC20020914170010109/14/02 17:00:31  5-MIN KSTC 142300Z AUTO 35011KT 10SM FEW047 17/07 A3004 920 51 1400 340/11 RMK AO2
14926KSTC STC20020914170510109/14/02 17:05:31  5-MIN KSTC 142305Z AUTO 34010KT 10SM FEW047 17/08 A3004 920 53 1400 340/10 RMK AO2
14926KSTC STC20020914171010109/14/02 17:10:31  5-MIN KSTC 142310Z AUTO 34012KT 10SM FEW047 17/07 A3004 920 51 1400 340/12 RMK AO2
14926KSTC STC20020914171510709/14/02 17:15:31  5-MIN KSTC 142315Z AUTO 35010G16KT 10SM FEW047 17/07 A3004 920 51 1400 350/10G16 RMK AO2
14926KSTC STC20020914172010109/14/02 17:20:31  5-MIN KSTC 142320Z AUTO 35008KT 10SM FEW047 17/07 A3004 920 51 1400 340/08 RMK AO2
14926KSTC STC20020914172510109/14/02 17:25:31  5-MIN KSTC 142325Z AUTO 35010KT 10SM FEW047 17/07 A3004 910 51 1400 350/10 RMK AO2
14926KSTC STC20020914173009809/14/02 17:30:31  5-MIN KSTC 142330Z AUTO 34007KT 10SM CLR 17/07 A3004 910 51 1400 340/07 RMK AO2
14926KSTC STC20020914173509809/14/02 17:35:31  5-MIN KSTC 142335Z AUTO 35008KT 10SM CLR 17/08 A3005 910 55 1400 350/08 RMK AO2
14926KSTC STC20020914174009809/14/02 17:40:31  5-MIN KSTC 142340Z AUTO 35008KT 10SM CLR 17/07 A3005 910 53 1400 350/08 RMK AO2
14926KSTC STC20020914174509809/14/02 17:45:31  5-MIN KSTC 142345Z AUTO 35006KT 10SM CLR 17/07 A3005 910 53 1400 350/06 RMK AO2
14926KSTC STC20020914175013309/14/02 17:50:31  5-MIN KSTC 142350Z AUTO 35005KT 10SM CLR 16/08 A3005 910 57 1300 350/05 RMK AO2 SLP184 T01610078 10194 20161 53022
14926KSTC STC20020914175509809/14/02 17:55:31  5-MIN KSTC 142355Z AUTO 35006KT 10SM CLR 16/07 A3005 900 55 1300 350/06 RMK AO2
14926KSTC STC20020914180009809/14/02 18:00:31  5-MIN KSTC 150000Z AUTO 35007KT 10SM CLR 16/07 A3006 900 55 1300 350/07 RMK AO2
14926KSTC STC20020914180509809/14/02 18:05:31  5-MIN KSTC 150005Z AUTO 34007KT 10SM CLR 16/07 A3006 900 57 1200 340/07 RMK AO2
14926KSTC STC20020914181009809/14/02 18:10:31  5-MIN KSTC 150010Z AUTO 35007KT 10SM CLR 16/07 A3006 900 57 1200 350/07 RMK AO2
14926KSTC STC20020914181509809/14/02 18:15:31  5-MIN KSTC 150015Z AUTO 35006KT 10SM CLR 15/07 A3006 900 59 1100 350/06 RMK AO2
14926KSTC STC20020914182009809/14/02 18:20:31  5-MIN KSTC 150020Z AUTO 35005KT 10SM CLR 15/07 A3006 890 59 1100 350/05 RMK AO2
14926KSTC STC20020914182509809/14/02 18:25:31  5-MIN KSTC 150025Z AUTO 35004KT 10SM CLR 14/08 A3007 890 64 1100 350/04 RMK AO2
14926KSTC STC20020914183009809/14/02 18:30:31  5-MIN KSTC 150030Z AUTO 34004KT 10SM CLR 14/08 A3007 890 66 1000 340/04 RMK AO2
14926KSTC STC20020914183509809/14/02 18:35:31  5-MIN KSTC 150035Z AUTO 34005KT 10SM CLR 14/08 A3007 880 66 1000 340/05 RMK AO2
14926KSTC STC20020914184009709/14/02 18:40:31  5-MIN KSTC 150040Z AUTO 34004KT 10SM CLR 13/08 A3008 880 69 900 340/04 RMK AO2
14926KSTC STC20020914184509709/14/02 18:45:31  5-MIN KSTC 150045Z AUTO 34004KT 10SM CLR 13/08 A3008 880 69 900 340/04 RMK AO2
14926KSTC STC20020914185011409/14/02 18:50:31  5-MIN KSTC 150050Z AUTO 34004KT 10SM CLR 13/08 A3009 870 69 900 330/04 RMK AO2 SLP197 T01330078
14926KSTC STC20020914185509709/14/02 18:55:31  5-MIN KSTC 150055Z AUTO 34006KT 10SM CLR 13/08 A3009 870 71 900 340/06 RMK AO2
14926KSTC STC20020914190009709/14/02 19:00:31  5-MIN KSTC 150100Z AUTO 35005KT 10SM CLR 13/08 A3009 870 71 900 340/05 RMK AO2
14926KSTC STC20020914190509709/14/02 19:05:31  5-MIN KSTC 150105Z AUTO 35005KT 10SM CLR 13/08 A3009 870 71 800 350/05 RMK AO2
14926KSTC STC20020914191009709/14/02 19:10:31  5-MIN KSTC 150110Z AUTO 35005KT 10SM CLR 13/08 A3010 870 71 800 340/05 RMK AO2
14926KSTC STC20020914191509709/14/02 19:15:31  5-MIN KSTC 150115Z AUTO 35005KT 10SM CLR 12/08 A3010 860 74 800 340/05 RMK AO2
14926KSTC STC20020914192009709/14/02 19:20:31  5-MIN KSTC 150120Z AUTO 34005KT 10SM CLR 13/08 A3010 860 71 800 340/05 RMK AO2
14926KSTC STC20020914192509709/14/02 19:25:31  5-MIN KSTC 150125Z AUTO 35005KT 10SM CLR 12/08 A3010 860 74 800 340/05 RMK AO2
14926KSTC STC20020914193009709/14/02 19:30:31  5-MIN KSTC 150130Z AUTO 35006KT 10SM CLR 13/08 A3010 860 71 800 350/06 RMK AO2
14926KSTC STC20020914193509709/14/02 19:35:31  5-MIN KSTC 150135Z AUTO 35005KT 10SM CLR 12/08 A3011 860 74 800 350/05 RMK AO2
14926KSTC STC20020914194009709/14/02 19:40:31  5-MIN KSTC 150140Z AUTO 35005KT 10SM CLR 12/08 A3011 850 74 800 340/05 RMK AO2
14926KSTC STC20020914194509709/14/02 19:45:31  5-MIN KSTC 150145Z AUTO 34004KT 10SM CLR 12/08 A3011 850 74 800 340/04 RMK AO2
14926KSTC STC20020914195011409/14/02 19:50:31  5-MIN KSTC 150150Z AUTO 34004KT 10SM CLR 12/08 A3011 850 74 800 340/04 RMK AO2 SLP207 T01220078
14926KSTC STC20020914195509709/14/02 19:55:31  5-MIN KSTC 150155Z AUTO 34004KT 10SM CLR 12/08 A3012 850 74 800 330/04 RMK AO2
14926KSTC STC20020914200009709/14/02 20:00:31  5-MIN KSTC 150200Z AUTO 33004KT 10SM CLR 12/08 A3012 840 77 700 330/04 RMK AO2
14926KSTC STC20020914200509709/14/02 20:05:31  5-MIN KSTC 150205Z AUTO 33004KT 10SM CLR 12/08 A3012 840 77 700 330/04 RMK AO2
14926KSTC STC20020914201009709/14/02 20:10:31  5-MIN KSTC 150210Z AUTO 34004KT 10SM CLR 12/08 A3012 840 77 700 340/04 RMK AO2
14926KSTC STC20020914201509709/14/02 20:15:31  5-MIN KSTC 150215Z AUTO 35004KT 10SM CLR 11/08 A3012 840 80 600 340/04 RMK AO2
14926KSTC STC20020914202009709/14/02 20:20:31  5-MIN KSTC 150220Z AUTO 35004KT 10SM CLR 11/08 A3012 840 80 600 350/04 RMK AO2
14926KSTC STC20020914202509709/14/02 20:25:31  5-MIN KSTC 150225Z AUTO 34004KT 10SM CLR 11/08 A3013 840 80 600 330/04 RMK AO2
14926KSTC STC20020914203009709/14/02 20:30:31  5-MIN KSTC 150230Z AUTO 34004KT 10SM CLR 11/08 A3013 830 80 600 330/04 RMK AO2
14926KSTC STC20020914203509709/14/02 20:35:31  5-MIN KSTC 150235Z AUTO 34004KT 10SM CLR 11/08 A3013 830 80 600 330/04 RMK AO2
14926KSTC STC20020914204009709/14/02 20:40:31  5-MIN KSTC 150240Z AUTO 34004KT 10SM CLR 11/08 A3013 830 83 500 330/04 RMK AO2
14926KSTC STC20020914204509709/14/02 20:45:31  5-MIN KSTC 150245Z AUTO 33005KT 10SM CLR 11/08 A3014 830 83 500 330/05 RMK AO2
14926KSTC STC20020914205012009/14/02 20:50:31  5-MIN KSTC 150250Z AUTO 34005KT 10SM CLR 11/08 A3014 830 80 600 330/05 RMK AO2 SLP215 T01110078 51020
14926KSTC STC20020914205509709/14/02 20:55:31  5-MIN KSTC 150255Z AUTO 35004KT 10SM CLR 11/08 A3014 830 83 500 350/04 RMK AO2
14926KSTC STC20020914210009709/14/02 21:00:31  5-MIN KSTC 150300Z AUTO 35004KT 10SM CLR 11/08 A3014 820 83 500 350/04 RMK AO2
14926KSTC STC20020914210509709/14/02 21:05:31  5-MIN KSTC 150305Z AUTO 35005KT 10SM CLR 11/08 A3014 820 83 500 350/05 RMK AO2
14926KSTC STC20020914211009709/14/02 21:10:31  5-MIN KSTC 150310Z AUTO 34005KT 10SM CLR 11/08 A3014 820 83 500 340/05 RMK AO2
14926KSTC STC20020914211509709/14/02 21:15:31  5-MIN KSTC 150315Z AUTO 35003KT 10SM CLR 11/08 A3014 820 83 500 350/03 RMK AO2
14926KSTC STC20020914212009709/14/02 21:20:31  5-MIN KSTC 150320Z AUTO 35003KT 10SM CLR 10/08 A3015 820 86 500 350/03 RMK AO2
14926KSTC STC20020914212509709/14/02 21:25:31  5-MIN KSTC 150325Z AUTO 35004KT 10SM CLR 10/08 A3015 820 86 500 350/04 RMK AO2
14926KSTC STC20020914213009709/14/02 21:30:31  5-MIN KSTC 150330Z AUTO 35005KT 10SM CLR 10/08 A3015 810 86 400 350/05 RMK AO2
14926KSTC STC20020914213509709/14/02 21:35:31  5-MIN KSTC 150335Z AUTO 35005KT 10SM CLR 10/08 A3015 810 86 400 350/05 RMK AO2
14926KSTC STC20020914214009709/14/02 21:40:31  5-MIN KSTC 150340Z AUTO 35005KT 10SM CLR 10/08 A3015 810 86 400 350/05 RMK AO2
14926KSTC STC20020914214509709/14/02 21:45:31  5-MIN KSTC 150345Z AUTO 35004KT 10SM CLR 10/08 A3016 810 86 400 350/04 RMK AO2
14926KSTC STC20020914215011409/14/02 21:50:31  5-MIN KSTC 150350Z AUTO 35003KT 10SM CLR 10/08 A3016 810 86 400 350/03 RMK AO2 SLP221 T01000078
14926KSTC STC20020914215509709/14/02 21:55:31  5-MIN KSTC 150355Z AUTO 36003KT 10SM CLR 10/08 A3016 810 86 400 350/03 RMK AO2
14926KSTC STC20020914220009709/14/02 22:00:31  5-MIN KSTC 150400Z AUTO 36004KT 10SM CLR 10/08 A3016 810 86 400 350/04 RMK AO2
14926KSTC STC20020914220509709/14/02 22:05:31  5-MIN KSTC 150405Z AUTO 35005KT 10SM CLR 10/08 A3016 800 86 400 350/05 RMK AO2
14926KSTC STC20020914221009709/14/02 22:10:31  5-MIN KSTC 150410Z AUTO 36004KT 10SM CLR 10/08 A3016 800 86 400 350/04 RMK AO2
14926KSTC STC20020914221509709/14/02 22:15:31  5-MIN KSTC 150415Z AUTO 36005KT 10SM CLR 10/08 A3016 800 86 400 360/05 RMK AO2
14926KSTC STC20020914222009709/14/02 22:20:31  5-MIN KSTC 150420Z AUTO 36004KT 10SM CLR 10/08 A3016 800 86 400 360/04 RMK AO2
14926KSTC STC20020914222509709/14/02 22:25:31  5-MIN KSTC 150425Z AUTO 35005KT 10SM CLR 10/08 A3017 800 86 400 350/05 RMK AO2
14926KSTC STC20020914223009709/14/02 22:30:31  5-MIN KSTC 150430Z AUTO 36005KT 10SM CLR 10/08 A3017 800 86 400 360/05 RMK AO2
14926KSTC STC20020914223509709/14/02 22:35:31  5-MIN KSTC 150435Z AUTO 36005KT 10SM CLR 10/08 A3017 800 86 400 350/05 RMK AO2
14926KSTC STC20020914224009709/14/02 22:40:31  5-MIN KSTC 150440Z AUTO 36005KT 10SM CLR 10/08 A3017 800 86 400 360/05 RMK AO2
14926KSTC STC20020914224509709/14/02 22:45:31  5-MIN KSTC 150445Z AUTO 36005KT 10SM CLR 10/08 A3017 800 86 400 360/05 RMK AO2
14926KSTC STC20020914225011409/14/02 22:50:31  5-MIN KSTC 150450Z AUTO 35005KT 10SM CLR 10/08 A3017 800 86 400 350/05 RMK AO2 SLP226 T01000078
14926KSTC STC20020914225509709/14/02 22:55:31  5-MIN KSTC 150455Z AUTO 35005KT 10SM CLR 10/08 A3017 790 86 400 350/05 RMK AO2
14926KSTC STC20020914230009709/14/02 23:00:31  5-MIN KSTC 150500Z AUTO 35005KT 10SM CLR 09/08 A3017 790 89 400 350/05 RMK AO2
14926KSTC STC20020914230509709/14/02 23:05:31  5-MIN KSTC 150505Z AUTO 35005KT 10SM CLR 09/08 A3017 800 89 400 350/05 RMK AO2
14926KSTC STC20020914231009709/14/02 23:10:31  5-MIN KSTC 150510Z AUTO 36005KT 10SM CLR 09/08 A3017 790 89 400 350/05 RMK AO2
14926KSTC STC20020914231509709/14/02 23:15:31  5-MIN KSTC 150515Z AUTO 36004KT 10SM CLR 09/08 A3017 790 89 400 350/04 RMK AO2
14926KSTC STC20020914232009709/14/02 23:20:31  5-MIN KSTC 150520Z AUTO 35004KT 10SM CLR 09/08 A3017 790 89 400 350/04 RMK AO2
14926KSTC STC20020914232509709/14/02 23:25:31  5-MIN KSTC 150525Z AUTO 35004KT 10SM CLR 09/08 A3018 790 89 400 350/04 RMK AO2
14926KSTC STC20020914233009709/14/02 23:30:31  5-MIN KSTC 150530Z AUTO 35003KT 10SM CLR 09/08 A3018 790 89 400 350/03 RMK AO2
14926KSTC STC20020914233509709/14/02 23:35:31  5-MIN KSTC 150535Z AUTO 00000KT 10SM CLR 09/08 A3018 790 93 300 000/00 RMK AO2
14926KSTC STC20020914234009709/14/02 23:40:31  5-MIN KSTC 150540Z AUTO 00000KT 10SM CLR 09/08 A3018 790 93 300 000/00 RMK AO2
14926KSTC STC20020914234509709/14/02 23:45:31  5-MIN KSTC 150545Z AUTO 36003KT 10SM CLR 09/08 A3018 790 93 300 360/03 RMK AO2
14926KSTC STC20020914235014209/14/02 23:50:31  5-MIN KSTC 150550Z AUTO 01003KT 10SM CLR 09/08 A3018 790 93 300 360/03 RMK AO2 SLP229 T00890078 10161 20089 402000089 51028
14926KSTC STC20020914235509709/14/02 23:55:31  5-MIN KSTC 150555Z AUTO 36003KT 10SM CLR 09/08 A3018 790 93 300 360/03 RMK AO2
14926KSTC STC20020915000009709/15/02 00:00:31  5-MIN KSTC 150600Z AUTO 36003KT 10SM CLR 09/08 A3018 790 93 300 360/03 RMK AO2
14926KSTC STC20020915000509709/15/02 00:05:31  5-MIN KSTC 150605Z AUTO 36003KT 10SM CLR 09/07 A3018 790 89 300 350/03 RMK AO2
14926KSTC STC20020915001009709/15/02 00:10:31  5-MIN KSTC 150610Z AUTO 36003KT 10SM CLR 09/07 A3018 790 89 300 360/03 RMK AO2
14926KSTC STC20020915001509709/15/02 00:15:31  5-MIN KSTC 150615Z AUTO 01003KT 10SM CLR 09/07 A3018 790 89 300 360/03 RMK AO2
14926KSTC STC20020915002009709/15/02 00:20:31  5-MIN KSTC 150620Z AUTO 36003KT 10SM CLR 09/08 A3018 790 93 300 350/03 RMK AO2
14926KSTC STC20020915002509709/15/02 00:25:31  5-MIN KSTC 150625Z AUTO 00000KT 10SM CLR 09/08 A3018 790 93 300 000/00 RMK AO2
14926KSTC STC20020915003009709/15/02 00:30:31  5-MIN KSTC 150630Z AUTO 00000KT 10SM CLR 09/08 A3018 790 93 300 000/00 RMK AO2
14926KSTC STC20020915003509709/15/02 00:35:31  5-MIN KSTC 150635Z AUTO 00000KT 10SM CLR 09/08 A3018 790 93 300 000/00 RMK AO2
14926KSTC STC20020915004009709/15/02 00:40:31  5-MIN KSTC 150640Z AUTO 00000KT 10SM CLR 08/08 A3018 780 96 200 000/00 RMK AO2
14926KSTC STC20020915004509809/15/02 00:45:31  5-MIN KSTC 150645Z AUTO 00000KT 10SM CLR 08/08 A3018 780 100 100 000/00 RMK AO2
14926KSTC STC20020915005011409/15/02 00:50:31  5-MIN KSTC 150650Z AUTO 00000KT 10SM CLR 08/07 A3018 780 96 100 000/00 RMK AO2 SLP232 T00780072
14926KSTC STC20020915005509709/15/02 00:55:31  5-MIN KSTC 150655Z AUTO 00000KT 10SM CLR 08/07 A3019 780 93 200 000/00 RMK AO2
14926KSTC STC20020915010009709/15/02 01:00:31  5-MIN KSTC 150700Z AUTO 00000KT 10SM CLR 08/07 A3019 780 96 100 000/00 RMK AO2
14926KSTC STC20020915010509709/15/02 01:05:31  5-MIN KSTC 150705Z AUTO 00000KT 10SM CLR 07/07 A3019 780 96 100 000/00 RMK AO2
14926KSTC STC20020915011009709/15/02 01:10:31  5-MIN KSTC 150710Z AUTO 00000KT 10SM CLR 08/07 A3019 780 96 100 000/00 RMK AO2
14926KSTC STC20020915011509709/15/02 01:15:31  5-MIN KSTC 150715Z AUTO 00000KT 10SM CLR 08/07 A3019 770 96 100 000/00 RMK AO2
14926KSTC STC20020915012009709/15/02 01:20:31  5-MIN KSTC 150720Z AUTO 00000KT 10SM CLR 08/07 A3020 770 96 100 000/00 RMK AO2
14926KSTC STC20020915012509709/15/02 01:25:31  5-MIN KSTC 150725Z AUTO 00000KT 10SM CLR 07/07 A3020 770 96 100 000/00 RMK AO2
14926KSTC STC20020915013009709/15/02 01:30:31  5-MIN KSTC 150730Z AUTO 33003KT 10SM CLR 07/07 A3020 770 96 100 330/03 RMK AO2
14926KSTC STC20020915013509709/15/02 01:35:31  5-MIN KSTC 150735Z AUTO 00000KT 10SM CLR 07/07 A3020 770 96 100 000/00 RMK AO2
14926KSTC STC20020915014009809/15/02 01:40:31  5-MIN KSTC 150740Z AUTO 31004KT 10SM CLR 07/07 A3021 760 100 100 310/04 RMK AO2
14926KSTC STC20020915014509609/15/02 01:45:31  5-MIN KSTC 150745Z AUTO 32004KT 10SM CLR 07/07 A3021 760 100 0 320/04 RMK AO2
14926KSTC STC20020915015011209/15/02 01:50:31  5-MIN KSTC 150750Z AUTO 32004KT 10SM CLR 06/06 A3021 760 96 0 320/04 RMK AO2 SLP239 T00610056
14926KSTC STC20020915015509509/15/02 01:55:31  5-MIN KSTC 150755Z AUTO 33004KT 10SM CLR 07/06 A3020 760 96 0 330/04 RMK AO2
14926KSTC STC20020915020009509/15/02 02:00:31  5-MIN KSTC 150800Z AUTO 33003KT 10SM CLR 07/06 A3020 760 96 0 320/03 RMK AO2
14926KSTC STC20020915020509609/15/02 02:05:31  5-MIN KSTC 150805Z AUTO 32003KT 10SM CLR 06/06 A3021 760 100 0 320/03 RMK AO2
14926KSTC STC20020915021009509/15/02 02:10:31  5-MIN KSTC 150810Z AUTO 32003KT 10SM CLR 06/06 A3021 760 96 0 320/03 RMK AO2
14926KSTC STC20020915021509509/15/02 02:15:31  5-MIN KSTC 150815Z AUTO 33003KT 10SM CLR 07/06 A3021 760 96 0 330/03 RMK AO2
14926KSTC STC20020915022009609/15/02 02:20:31  5-MIN KSTC 150820Z AUTO 33003KT 10SM CLR 06/06 A3021 760 100 0 330/03 RMK AO2
14926KSTC STC20020915022509509/15/02 02:25:31  5-MIN KSTC 150825Z AUTO 32003KT 10SM CLR 07/06 A3021 760 96 0 320/03 RMK AO2
14926KSTC STC20020915023009609/15/02 02:30:31  5-MIN KSTC 150830Z AUTO 33003KT 10SM CLR 07/07 A3021 760 100 0 320/03 RMK AO2
14926KSTC STC20020915023509609/15/02 02:35:31  5-MIN KSTC 150835Z AUTO 33004KT 10SM CLR 07/07 A3021 760 100 0 330/04 RMK AO2
14926KSTC STC20020915024009509/15/02 02:40:31  5-MIN KSTC 150840Z AUTO 33004KT 10SM CLR 07/07 A3021 760 96 0 330/04 RMK AO2
14926KSTC STC20020915024509609/15/02 02:45:31  5-MIN KSTC 150845Z AUTO 33004KT 10SM CLR 07/07 A3021 760 100 0 330/04 RMK AO2
14926KSTC STC20020915025011909/15/02 02:50:31  5-MIN KSTC 150850Z AUTO 33003KT 10SM CLR 07/07 A3021 760 100 0 330/03 RMK AO2 SLP242 T00720072 51013
14926KSTC STC20020915025509509/15/02 02:55:31  5-MIN KSTC 150855Z AUTO 33003KT 10SM CLR 07/07 A3021 760 96 0 330/03 RMK AO2
14926KSTC STC20020915030009509/15/02 03:00:31  5-MIN KSTC 150900Z AUTO 33004KT 10SM CLR 07/06 A3022 750 96 0 330/04 RMK AO2
14926KSTC STC20020915060509809/15/02 06:05:31  5-MIN KSTC 151205Z AUTO 32004KT 9SM CLR 06/06 A3025 720 100 -200 310/04 RMK AO2
14926KSTC STC20020915061009909/15/02 06:10:31  5-MIN KSTC 151210Z AUTO 33004KT 10SM CLR 06/06 A3025 720 100 -200 320/04 RMK AO2
14926KSTC STC20020915061509909/15/02 06:15:31  5-MIN KSTC 151215Z AUTO 34003KT 10SM CLR 06/06 A3026 720 100 -200 330/03 RMK AO2
14926KSTC STC20020915062009909/15/02 06:20:31  5-MIN KSTC 151220Z AUTO 34003KT 10SM CLR 06/06 A3026 720 100 -100 340/03 RMK AO2
14926KSTC STC20020915062509909/15/02 06:25:31  5-MIN KSTC 151225Z AUTO 00000KT 10SM CLR 06/06 A3026 720 100 -100 000/00 RMK AO2
14926KSTC STC20020915063009609/15/02 06:30:31  5-MIN KSTC 151230Z AUTO 33003KT 10SM CLR 07/07 A3025 720 100 0 320/03 RMK AO2
14926KSTC STC20020915063509609/15/02 06:35:31  5-MIN KSTC 151235Z AUTO 33003KT 10SM CLR 07/07 A3026 720 100 0 330/03 RMK AO2
14926KSTC STC20020915064009609/15/02 06:40:31  5-MIN KSTC 151240Z AUTO 00000KT 10SM CLR 07/07 A3026 720 100 0 000/00 RMK AO2
14926KSTC STC20020915064509609/15/02 06:45:31  5-MIN KSTC 151245Z AUTO 00000KT 10SM CLR 07/07 A3026 720 100 0 000/00 RMK AO2
14926KSTC STC20020915065011309/15/02 06:50:31  5-MIN KSTC 151250Z AUTO 00000KT 10SM CLR 07/07 A3026 710 100 0 000/00 RMK AO2 SLP259 T00720072
14926KSTC STC20020915065509809/15/02 06:55:31  5-MIN KSTC 151255Z AUTO 00000KT 10SM CLR 08/08 A3026 710 100 100 000/00 RMK AO2
14926KSTC STC20020915070009809/15/02 07:00:31  5-MIN KSTC 151300Z AUTO 00000KT 10SM CLR 08/08 A3026 710 100 100 000/00 RMK AO2
14926KSTC STC20020915070509809/15/02 07:05:31  5-MIN KSTC 151305Z AUTO 00000KT 10SM CLR 08/08 A3026 710 100 100 000/00 RMK AO2
14926KSTC STC20020915071009709/15/02 07:10:31  5-MIN KSTC 151310Z AUTO 00000KT 10SM CLR 09/08 A3026 710 96 200 000/00 RMK AO2
14926KSTC STC20020915071509709/15/02 07:15:31  5-MIN KSTC 151315Z AUTO 00000KT 10SM CLR 09/08 A3026 710 96 200 000/00 RMK AO2
14926KSTC STC20020915072009709/15/02 07:20:31  5-MIN KSTC 151320Z AUTO 00000KT 10SM CLR 09/09 A3026 710 96 300 000/00 RMK AO2
14926KSTC STC20020915072509709/15/02 07:25:31  5-MIN KSTC 151325Z AUTO 00000KT 10SM CLR 10/09 A3026 710 93 300 000/00 RMK AO2
14926KSTC STC20020915073009709/15/02 07:30:31  5-MIN KSTC 151330Z AUTO 00000KT 10SM CLR 10/09 A3026 710 93 300 000/00 RMK AO2
14926KSTC STC20020915073509709/15/02 07:35:31  5-MIN KSTC 151335Z AUTO 00000KT 10SM CLR 11/09 A3026 710 89 400 000/00 RMK AO2
14926KSTC STC20020915074009709/15/02 07:40:31  5-MIN KSTC 151340Z AUTO 00000KT 10SM CLR 11/09 A3026 710 89 400 000/00 RMK AO2
14926KSTC STC20020915074509709/15/02 07:45:31  5-MIN KSTC 151345Z AUTO 00000KT 10SM CLR 11/09 A3026 710 89 500 000/00 RMK AO2
14926KSTC STC20020915075011409/15/02 07:50:31  5-MIN KSTC 151350Z AUTO 00000KT 10SM CLR 11/09 A3026 710 89 500 000/00 RMK AO2 SLP260 T01110094
14926KSTC STC20020915075509709/15/02 07:55:31  5-MIN KSTC 151355Z AUTO 00000KT 10SM CLR 11/09 A3026 710 89 500 000/00 RMK AO2
14926KSTC STC20020915080009709/15/02 08:00:31  5-MIN KSTC 151400Z AUTO 00000KT 10SM CLR 12/09 A3026 710 86 500 000/00 RMK AO2
14926KSTC STC20020915080509709/15/02 08:05:31  5-MIN KSTC 151405Z AUTO 00000KT 10SM CLR 12/09 A3026 710 86 500 000/00 RMK AO2
14926KSTC STC20020915081009709/15/02 08:10:31  5-MIN KSTC 151410Z AUTO 00000KT 10SM CLR 12/09 A3026 710 83 600 000/00 RMK AO2
14926KSTC STC20020915081509709/15/02 08:15:31  5-MIN KSTC 151415Z AUTO 00000KT 10SM CLR 12/09 A3026 720 83 600 000/00 RMK AO2
14926KSTC STC20020915082009709/15/02 08:20:31  5-MIN KSTC 151420Z AUTO 00000KT 10SM CLR 13/10 A3026 710 83 700 000/00 RMK AO2
14926KSTC STC20020915082509709/15/02 08:25:31  5-MIN KSTC 151425Z AUTO 00000KT 10SM CLR 13/10 A3026 720 83 700 000/00 RMK AO2
14926KSTC STC20020915083009709/15/02 08:30:31  5-MIN KSTC 151430Z AUTO 11004KT 10SM CLR 13/08 A3026 720 71 700 100/04 RMK AO2
14926KSTC STC20020915083509709/15/02 08:35:31  5-MIN KSTC 151435Z AUTO VRB03KT 10SM CLR 13/08 A3025 720 71 700 VRB/03 RMK AO2
14926KSTC STC20020915084009709/15/02 08:40:31  5-MIN KSTC 151440Z AUTO 15004KT 10SM CLR 13/08 A3025 720 71 700 140/04 RMK AO2
14926KSTC STC20020915084509709/15/02 08:45:31  5-MIN KSTC 151445Z AUTO 14004KT 10SM CLR 14/08 A3025 720 69 800 140/04 RMK AO2
14926KSTC STC20020915085012009/15/02 08:50:31  5-MIN KSTC 151450Z AUTO 13004KT 10SM CLR 14/08 A3025 720 69 800 120/04 RMK AO2 SLP255 T01390083 53012
14926KSTC STC20020915085509709/15/02 08:55:31  5-MIN KSTC 151455Z AUTO 16004KT 10SM CLR 14/08 A3026 720 66 900 160/04 RMK AO2
14926KSTC STC20020915090009709/15/02 09:00:31  5-MIN KSTC 151500Z AUTO VRB04KT 10SM CLR 14/08 A3026 720 64 900 VRB/04 RMK AO2
14926KSTC STC20020915090509709/15/02 09:05:31  5-MIN KSTC 151505Z AUTO 15004KT 10SM CLR 14/08 A3026 720 66 900 140/04 RMK AO2
14926KSTC STC20020915091009709/15/02 09:10:31  5-MIN KSTC 151510Z AUTO VRB03KT 10SM CLR 14/08 A3025 720 66 900 VRB/03 RMK AO2
14926KSTC STC20020915091509709/15/02 09:15:31  5-MIN KSTC 151515Z AUTO VRB03KT 10SM CLR 14/08 A3025 720 66 900 VRB/03 RMK AO2
14926KSTC STC20020915092009709/15/02 09:20:31  5-MIN KSTC 151520Z AUTO VRB04KT 10SM CLR 15/08 A3025 720 64 900 VRB/04 RMK AO2
14926KSTC STC20020915092509809/15/02 09:25:31  5-MIN KSTC 151525Z AUTO 18005KT 10SM CLR 16/08 A3026 720 59 1000 180/05 RMK AO2
14926KSTC STC20020915093009809/15/02 09:30:31  5-MIN KSTC 151530Z AUTO 20004KT 10SM CLR 16/08 A3026 720 59 1000 200/04 RMK AO2
14926KSTC STC20020915093509809/15/02 09:35:31  5-MIN KSTC 151535Z AUTO 19004KT 10SM CLR 16/08 A3025 720 59 1000 180/04 RMK AO2
14926KSTC STC20020915094009809/15/02 09:40:31  5-MIN KSTC 151540Z AUTO 18005KT 10SM CLR 16/07 A3025 720 57 1000 170/05 RMK AO2
14926KSTC STC20020915094509809/15/02 09:45:31  5-MIN KSTC 151545Z AUTO 14004KT 10SM CLR 16/07 A3025 720 57 1000 140/04 RMK AO2
14926KSTC STC20020915095011509/15/02 09:50:31  5-MIN KSTC 151550Z AUTO 17006KT 10SM CLR 16/07 A3025 720 55 1100 170/06 RMK AO2 SLP255 T01610072
14926KSTC STC20020915095509809/15/02 09:55:31  5-MIN KSTC 151555Z AUTO 18006KT 10SM CLR 16/07 A3025 720 55 1100 180/06 RMK AO2
14926KSTC STC20020915100009809/15/02 10:00:31  5-MIN KSTC 151600Z AUTO 19006KT 10SM CLR 17/07 A3025 730 53 1100 190/06 RMK AO2
14926KSTC STC20020915100509809/15/02 10:05:31  5-MIN KSTC 151605Z AUTO 16005KT 10SM CLR 17/07 A3025 730 51 1100 160/05 RMK AO2
14926KSTC STC20020915101009809/15/02 10:10:31  5-MIN KSTC 151610Z AUTO VRB04KT 10SM CLR 17/06 A3024 730 49 1100 VRB/04 RMK AO2
14926KSTC STC20020915101509809/15/02 10:15:31  5-MIN KSTC 151615Z AUTO 17008KT 10SM CLR 17/06 A3025 730 47 1200 160/08 RMK AO2
14926KSTC STC20020915102009809/15/02 10:20:31  5-MIN KSTC 151620Z AUTO 15006KT 10SM CLR 17/07 A3024 730 49 1200 150/06 RMK AO2
14926KSTC STC20020915102509809/15/02 10:25:31  5-MIN KSTC 151625Z AUTO 15008KT 10SM CLR 17/06 A3024 730 46 1200 150/08 RMK AO2
14926KSTC STC20020915103009809/15/02 10:30:31  5-MIN KSTC 151630Z AUTO VRB06KT 10SM CLR 17/06 A3024 730 47 1200 VRB/06 RMK AO2
14926KSTC STC20020915103509809/15/02 10:35:31  5-MIN KSTC 151635Z AUTO 17007KT 10SM CLR 17/06 A3024 730 46 1200 170/07 RMK AO2
14926KSTC STC20020915104009809/15/02 10:40:31  5-MIN KSTC 151640Z AUTO 18006KT 10SM CLR 17/06 A3024 740 46 1200 170/06 RMK AO2
14926KSTC STC20020915104509809/15/02 10:45:31  5-MIN KSTC 151645Z AUTO 20007KT 10SM CLR 17/04 A3024 740 42 1200 200/07 RMK AO2
14926KSTC STC20020915105011509/15/02 10:50:31  5-MIN KSTC 151650Z AUTO 20005KT 10SM CLR 17/05 A3023 740 44 1200 200/05 RMK AO2 SLP248 T01720050
14926KSTC STC20020915105511409/15/02 10:55:31  5-MIN KSTC 151655Z AUTO 19007KT 150V210 10SM CLR 18/06 A3023 740 44 1300 180/07 150V210 RMK AO2
14926KSTC STC20020915110011409/15/02 11:00:31  5-MIN KSTC 151700Z AUTO 18007KT 120V220 10SM CLR 18/06 A3023 740 44 1300 180/07 120V220 RMK AO2
14926KSTC STC20020915110509809/15/02 11:05:31  5-MIN KSTC 151705Z AUTO 17006KT 10SM CLR 17/06 A3023 740 46 1200 170/06 RMK AO2
14926KSTC STC20020915111009809/15/02 11:10:31  5-MIN KSTC 151710Z AUTO 18009KT 10SM CLR 17/06 A3022 750 46 1200 180/09 RMK AO2
14926KSTC STC20020915111509809/15/02 11:15:31  5-MIN KSTC 151715Z AUTO 18009KT 10SM CLR 18/06 A3022 750 44 1300 180/09 RMK AO2
14926KSTC STC20020915112011409/15/02 11:20:31  5-MIN KSTC 151720Z AUTO 17007KT 130V200 10SM CLR 18/06 A3022 750 44 1300 170/07 130V200 RMK AO2
14926KSTC STC20020915112509809/15/02 11:25:31  5-MIN KSTC 151725Z AUTO 17008KT 10SM CLR 18/06 A3022 750 42 1400 170/08 RMK AO2
14926KSTC STC20020915113009809/15/02 11:30:31  5-MIN KSTC 151730Z AUTO 15007KT 10SM CLR 18/06 A3022 750 42 1400 150/07 RMK AO2
14926KSTC STC20020915113509809/15/02 11:35:31  5-MIN KSTC 151735Z AUTO 18007KT 10SM CLR 18/06 A3022 750 44 1300 170/07 RMK AO2
14926KSTC STC20020915114009809/15/02 11:40:31  5-MIN KSTC 151740Z AUTO VRB05KT 10SM CLR 18/06 A3022 750 42 1400 VRB/05 RMK AO2
14926KSTC STC20020915114511409/15/02 11:45:31  5-MIN KSTC 151745Z AUTO 18008KT 140V210 10SM CLR 18/06 A3022 750 44 1300 180/08 140V210 RMK AO2
14926KSTC STC20020915115015509/15/02 11:50:31  5-MIN KSTC 151750Z AUTO 19011G17KT 120V220 10SM CLR 18/06 A3022 750 44 1300 190/11G17 120V220 RMK AO2 SLP245 T01780056 10183 20056 50002
14926KSTC STC20020915115512009/15/02 11:55:31  5-MIN KSTC 151755Z AUTO 19007G17KT 160V220 10SM CLR 18/05 A3022 750 41 1400 180/07G17 160V220 RMK AO2
14926KSTC STC20020915120009809/15/02 12:00:31  5-MIN KSTC 151800Z AUTO 18006KT 10SM CLR 18/05 A3022 750 41 1400 170/06 RMK AO2
14926KSTC STC20020915120509809/15/02 12:05:31  5-MIN KSTC 151805Z AUTO 19007KT 10SM CLR 18/06 A3022 750 42 1400 190/07 RMK AO2
14926KSTC STC20020915121009809/15/02 12:10:31  5-MIN KSTC 151810Z AUTO VRB05KT 10SM CLR 18/06 A3022 750 44 1400 VRB/05 RMK AO2
14926KSTC STC20020915121509809/15/02 12:15:31  5-MIN KSTC 151815Z AUTO 16007KT 10SM CLR 18/06 A3022 750 44 1400 160/07 RMK AO2
14926KSTC STC20020915122009809/15/02 12:20:31  5-MIN KSTC 151820Z AUTO 20008KT 10SM CLR 18/06 A3021 760 44 1400 190/08 RMK AO2
14926KSTC STC20020915122509809/15/02 12:25:31  5-MIN KSTC 151825Z AUTO 00000KT 10SM CLR 18/06 A3020 760 44 1400 000/00 RMK AO2
14926KSTC STC20020915123009809/15/02 12:30:31  5-MIN KSTC 151830Z AUTO VRB06KT 10SM CLR 19/07 A3021 760 44 1400 VRB/06 RMK AO2
14926KSTC STC20020915123509809/15/02 12:35:31  5-MIN KSTC 151835Z AUTO 18009KT 10SM CLR 19/06 A3020 770 43 1400 180/09 RMK AO2
14926KSTC STC20020915124009809/15/02 12:40:31  5-MIN KSTC 151840Z AUTO 19007KT 10SM CLR 19/06 A3020 770 43 1400 180/07 RMK AO2
14926KSTC STC20020915124509809/15/02 12:45:31  5-MIN KSTC 151845Z AUTO 18005KT 10SM CLR 19/06 A3020 770 43 1400 170/05 RMK AO2
14926KSTC STC20020915125011509/15/02 12:50:31  5-MIN KSTC 151850Z AUTO 23008KT 10SM CLR 19/06 A3020 770 41 1400 230/08 RMK AO2 SLP237 T01890056
14926KSTC STC20020915125509809/15/02 12:55:31  5-MIN KSTC 151855Z AUTO 21009KT 10SM CLR 19/06 A3020 770 41 1400 210/09 RMK AO2
14926KSTC STC20020915130009809/15/02 13:00:31  5-MIN KSTC 151900Z AUTO VRB05KT 10SM CLR 19/06 A3020 770 41 1400 VRB/05 RMK AO2
14926KSTC STC20020915130509809/15/02 13:05:31  5-MIN KSTC 151905Z AUTO 17006KT 10SM CLR 19/06 A3020 770 41 1400 170/06 RMK AO2
14926KSTC STC20020915131009809/15/02 13:10:31  5-MIN KSTC 151910Z AUTO VRB06KT 10SM CLR 19/06 A3019 770 43 1400 VRB/06 RMK AO2
14926KSTC STC20020915131509809/15/02 13:15:31  5-MIN KSTC 151915Z AUTO 17009KT 10SM CLR 19/06 A3019 780 43 1500 170/09 RMK AO2
14926KSTC STC20020915132009809/15/02 13:20:31  5-MIN KSTC 151920Z AUTO 16006KT 10SM CLR 19/06 A3019 780 41 1500 160/06 RMK AO2
14926KSTC STC20020915132509809/15/02 13:25:31  5-MIN KSTC 151925Z AUTO 18007KT 10SM CLR 19/06 A3018 780 43 1500 180/07 RMK AO2
14926KSTC STC20020915133009809/15/02 13:30:31  5-MIN KSTC 151930Z AUTO VRB06KT 10SM CLR 19/07 A3018 790 44 1500 VRB/06 RMK AO2
14926KSTC STC20020915133509809/15/02 13:35:31  5-MIN KSTC 151935Z AUTO 18009KT 10SM CLR 19/07 A3018 790 43 1500 180/09 RMK AO2
14926KSTC STC20020915134009809/15/02 13:40:31  5-MIN KSTC 151940Z AUTO 18008KT 10SM CLR 19/06 A3018 790 41 1500 180/08 RMK AO2
14926KSTC STC20020915134509809/15/02 13:45:31  5-MIN KSTC 151945Z AUTO 17008KT 10SM CLR 19/06 A3018 790 41 1500 170/08 RMK AO2
14926KSTC STC20020915135013109/15/02 13:50:31  5-MIN KSTC 151950Z AUTO 19007KT 160V220 10SM CLR 19/07 A3017 790 43 1500 190/07 160V220 RMK AO2 SLP228 T01940067
14926KSTC STC20020915135509809/15/02 13:55:31  5-MIN KSTC 151955Z AUTO 17010KT 10SM CLR 19/07 A3017 800 43 1500 170/10 RMK AO2
14926KSTC STC20020915140009809/15/02 14:00:31  5-MIN KSTC 152000Z AUTO 17010KT 10SM CLR 19/07 A3017 800 43 1500 170/10 RMK AO2
14926KSTC STC20020915140509809/15/02 14:05:31  5-MIN KSTC 152005Z AUTO 15009KT 10SM CLR 19/07 A3017 800 43 1500 150/09 RMK AO2
14926KSTC STC20020915141010409/15/02 14:10:31  5-MIN KSTC 152010Z AUTO 19008G15KT 10SM CLR 19/07 A3016 810 43 1600 180/08G15 RMK AO2
14926KSTC STC20020915141510409/15/02 14:15:31  5-MIN KSTC 152015Z AUTO 16008G15KT 10SM CLR 20/07 A3016 810 41 1600 160/08G15 RMK AO2
14926KSTC STC20020915142009809/15/02 14:20:31  5-MIN KSTC 152020Z AUTO 17008KT 10SM CLR 19/07 A3016 810 43 1600 170/08 RMK AO2
14926KSTC STC20020915142509809/15/02 14:25:31  5-MIN KSTC 152025Z AUTO 21008KT 10SM CLR 19/07 A3016 810 43 1600 210/08 RMK AO2
14926KSTC STC20020915143009809/15/02 14:30:31  5-MIN KSTC 152030Z AUTO 19007KT 10SM CLR 19/07 A3015 810 43 1600 180/07 RMK AO2
14926KSTC STC20020915143509809/15/02 14:35:31  5-MIN KSTC 152035Z AUTO 19008KT 10SM CLR 19/06 A3015 820 41 1600 190/08 RMK AO2
14926KSTC STC20020915144011409/15/02 14:40:31  5-MIN KSTC 152040Z AUTO 20012KT 170V230 10SM CLR 20/07 A3015 820 41 1600 200/12 170V230 RMK AO2
14926KSTC STC20020915144509809/15/02 14:45:31  5-MIN KSTC 152045Z AUTO 21008KT 10SM CLR 20/07 A3015 820 41 1600 210/08 RMK AO2
14926KSTC STC20020915145012109/15/02 14:50:31  5-MIN KSTC 152050Z AUTO 17009KT 10SM CLR 19/07 A3014 820 43 1600 160/09 RMK AO2 SLP218 T01940067 58012
14926KSTC STC20020915145509809/15/02 14:55:31  5-MIN KSTC 152055Z AUTO 16006KT 10SM CLR 19/07 A3014 820 43 1600 150/06 RMK AO2
14926KSTC STC20020915150009809/15/02 15:00:31  5-MIN KSTC 152100Z AUTO 18009KT 10SM CLR 20/07 A3014 820 43 1600 180/09 RMK AO2
14926KSTC STC20020915150509809/15/02 15:05:31  5-MIN KSTC 152105Z AUTO 18008KT 10SM CLR 19/07 A3014 830 43 1600 170/08 RMK AO2
14926KSTC STC20020915151009809/15/02 15:10:31  5-MIN KSTC 152110Z AUTO 20007KT 10SM CLR 20/07 A3014 830 41 1600 200/07 RMK AO2
14926KSTC STC20020915151509809/15/02 15:15:31  5-MIN KSTC 152115Z AUTO 17008KT 10SM CLR 20/07 A3014 830 41 1600 170/08 RMK AO2
14926KSTC STC20020915152009809/15/02 15:20:31  5-MIN KSTC 152120Z AUTO 16007KT 10SM CLR 19/07 A3013 830 43 1600 160/07 RMK AO2
14926KSTC STC20020915152509809/15/02 15:25:31  5-MIN KSTC 152125Z AUTO 21008KT 10SM CLR 20/07 A3013 830 41 1600 210/08 RMK AO2
14926KSTC STC20020915153009809/15/02 15:30:31  5-MIN KSTC 152130Z AUTO 17007KT 10SM CLR 20/07 A3013 830 41 1600 170/07 RMK AO2
14926KSTC STC20020915153509809/15/02 15:35:31  5-MIN KSTC 152135Z AUTO 19011KT 10SM CLR 20/07 A3013 830 41 1600 190/11 RMK AO2
14926KSTC STC20020915154009809/15/02 15:40:31  5-MIN KSTC 152140Z AUTO 21009KT 10SM CLR 20/07 A3013 830 41 1600 210/09 RMK AO2
14926KSTC STC20020915154509809/15/02 15:45:31  5-MIN KSTC 152145Z AUTO 20010KT 10SM CLR 20/07 A3012 840 41 1700 200/10 RMK AO2
14926KSTC STC20020915155011509/15/02 15:50:31  5-MIN KSTC 152150Z AUTO 20010KT 10SM CLR 20/07 A3012 840 41 1700 200/10 RMK AO2 SLP209 T02000067
14926KSTC STC20020915155509809/15/02 15:55:31  5-MIN KSTC 152155Z AUTO 23010KT 10SM CLR 20/07 A3012 840 41 1700 220/10 RMK AO2
14926KSTC STC20020915160009809/15/02 16:00:31  5-MIN KSTC 152200Z AUTO 19009KT 10SM CLR 20/07 A3011 850 41 1700 190/09 RMK AO2
14926KSTC STC20020915160509809/15/02 16:05:31  5-MIN KSTC 152205Z AUTO 19009KT 10SM CLR 20/06 A3012 850 40 1700 190/09 RMK AO2
14926KSTC STC20020915161009809/15/02 16:10:31  5-MIN KSTC 152210Z AUTO 18007KT 10SM CLR 20/07 A3011 850 43 1700 170/07 RMK AO2
14926KSTC STC20020915161509809/15/02 16:15:31  5-MIN KSTC 152215Z AUTO 21010KT 10SM CLR 20/07 A3011 850 41 1700 210/10 RMK AO2
14926KSTC STC20020915162009809/15/02 16:20:31  5-MIN KSTC 152220Z AUTO 19010KT 10SM CLR 20/07 A3011 850 41 1700 190/10 RMK AO2
14926KSTC STC20020915162509809/15/02 16:25:31  5-MIN KSTC 152225Z AUTO 21008KT 10SM CLR 19/07 A3011 850 44 1600 210/08 RMK AO2
14926KSTC STC20020915163009809/15/02 16:30:31  5-MIN KSTC 152230Z AUTO 19009KT 10SM CLR 19/07 A3010 860 43 1600 190/09 RMK AO2
14926KSTC STC20020915163509809/15/02 16:35:31  5-MIN KSTC 152235Z AUTO 20008KT 10SM CLR 20/07 A3011 850 41 1700 200/08 RMK AO2
14926KSTC STC20020915164009809/15/02 16:40:31  5-MIN KSTC 152240Z AUTO 20010KT 10SM CLR 19/07 A3011 860 43 1600 200/10 RMK AO2
14926KSTC STC20020915164509809/15/02 16:45:31  5-MIN KSTC 152245Z AUTO 20009KT 10SM CLR 19/06 A3010 860 41 1600 200/09 RMK AO2
14926KSTC STC20020915165011509/15/02 16:50:31  5-MIN KSTC 152250Z AUTO 20005KT 10SM CLR 19/06 A3011 850 41 1600 200/05 RMK AO2 SLP206 T01940061
14926KSTC STC20020915165509809/15/02 16:55:31  5-MIN KSTC 152255Z AUTO 21008KT 10SM CLR 19/07 A3011 850 43 1600 210/08 RMK AO2
14926KSTC STC20020915170009809/15/02 17:00:31  5-MIN KSTC 152300Z AUTO 21008KT 10SM CLR 19/06 A3010 860 41 1600 200/08 RMK AO2
14926KSTC STC20020915170509809/15/02 17:05:31  5-MIN KSTC 152305Z AUTO 21008KT 10SM CLR 19/06 A3010 860 41 1600 210/08 RMK AO2
14926KSTC STC20020915171009809/15/02 17:10:31  5-MIN KSTC 152310Z AUTO 20006KT 10SM CLR 19/07 A3010 860 43 1600 200/06 RMK AO2
14926KSTC STC20020915171509809/15/02 17:15:31  5-MIN KSTC 152315Z AUTO 19008KT 10SM CLR 19/07 A3010 860 44 1600 190/08 RMK AO2
14926KSTC STC20020915172009809/15/02 17:20:31  5-MIN KSTC 152320Z AUTO 20007KT 10SM CLR 19/07 A3009 870 44 1600 200/07 RMK AO2
14926KSTC STC20020915172509809/15/02 17:25:31  5-MIN KSTC 152325Z AUTO 19006KT 10SM CLR 19/07 A3009 870 46 1600 190/06 RMK AO2
14926KSTC STC20020915173009809/15/02 17:30:31  5-MIN KSTC 152330Z AUTO 19006KT 10SM CLR 19/07 A3009 870 46 1600 190/06 RMK AO2
14926KSTC STC20020915173509809/15/02 17:35:31  5-MIN KSTC 152335Z AUTO 18006KT 10SM CLR 19/07 A3009 870 46 1600 180/06 RMK AO2
14926KSTC STC20020915174009809/15/02 17:40:31  5-MIN KSTC 152340Z AUTO 18005KT 10SM CLR 18/07 A3009 870 48 1500 180/05 RMK AO2
14926KSTC STC20020915174509809/15/02 17:45:31  5-MIN KSTC 152345Z AUTO 18004KT 10SM CLR 18/08 A3009 870 51 1400 170/04 RMK AO2
14926KSTC STC20020915175013309/15/02 17:50:31  5-MIN KSTC 152350Z AUTO 16003KT 10SM CLR 18/08 A3009 870 51 1400 160/03 RMK AO2 SLP201 T01780078 10200 20178 58026
14926KSTC STC20020915175509809/15/02 17:55:31  5-MIN KSTC 152355Z AUTO 16004KT 10SM CLR 17/08 A3009 870 55 1400 160/04 RMK AO2
14926KSTC STC20020915180009809/15/02 18:00:31  5-MIN KSTC 160000Z AUTO 17005KT 10SM CLR 17/08 A3009 870 57 1300 170/05 RMK AO2
14926KSTC STC20020915180509809/15/02 18:05:31  5-MIN KSTC 160005Z AUTO 17005KT 10SM CLR 17/08 A3009 870 57 1300 160/05 RMK AO2
14926KSTC STC20020915181009809/15/02 18:10:31  5-MIN KSTC 160010Z AUTO 17005KT 10SM CLR 16/09 A3008 880 64 1200 170/05 RMK AO2
14926KSTC STC20020915181509809/15/02 18:15:31  5-MIN KSTC 160015Z AUTO 16004KT 10SM CLR 15/09 A3008 880 69 1100 160/04 RMK AO2
14926KSTC STC20020915182009809/15/02 18:20:31  5-MIN KSTC 160020Z AUTO 15004KT 10SM CLR 15/09 A3009 870 69 1100 150/04 RMK AO2
14926KSTC STC20020915182509809/15/02 18:25:31  5-MIN KSTC 160025Z AUTO 15003KT 10SM CLR 16/09 A3009 870 64 1200 150/03 RMK AO2
14926KSTC STC20020915183009809/15/02 18:30:31  5-MIN KSTC 160030Z AUTO 15004KT 10SM CLR 15/09 A3008 880 69 1100 150/04 RMK AO2
14926KSTC STC20020915183509809/15/02 18:35:31  5-MIN KSTC 160035Z AUTO 15004KT 10SM CLR 14/09 A3008 880 69 1100 150/04 RMK AO2
14926KSTC STC20020915184009809/15/02 18:40:31  5-MIN KSTC 160040Z AUTO 14004KT 10SM CLR 15/09 A3008 880 66 1100 140/04 RMK AO2
14926KSTC STC20020915184509809/15/02 18:45:31  5-MIN KSTC 160045Z AUTO 14004KT 10SM CLR 14/09 A3008 880 69 1100 140/04 RMK AO2
14926KSTC STC20020915185011509/15/02 18:50:31  5-MIN KSTC 160050Z AUTO 14003KT 10SM CLR 14/09 A3008 880 71 1000 130/03 RMK AO2 SLP198 T01390089
14926KSTC STC20020915185509809/15/02 18:55:31  5-MIN KSTC 160055Z AUTO 13003KT 10SM CLR 14/09 A3008 880 71 1000 130/03 RMK AO2
14926KSTC STC20020915190009809/15/02 19:00:31  5-MIN KSTC 160100Z AUTO 13003KT 10SM CLR 14/09 A3008 880 71 1000 120/03 RMK AO2
14926KSTC STC20020915190509709/15/02 19:05:31  5-MIN KSTC 160105Z AUTO 13003KT 10SM CLR 13/09 A3008 880 77 900 130/03 RMK AO2
14926KSTC STC20020915191009709/15/02 19:10:31  5-MIN KSTC 160110Z AUTO 14004KT 10SM CLR 13/09 A3008 880 80 900 140/04 RMK AO2
14926KSTC STC20020915191509709/15/02 19:15:31  5-MIN KSTC 160115Z AUTO 14005KT 10SM CLR 12/09 A3008 880 83 800 140/05 RMK AO2
14926KSTC STC20020915192009709/15/02 19:20:31  5-MIN KSTC 160120Z AUTO 15005KT 10SM CLR 11/10 A3008 880 93 700 140/05 RMK AO2
14926KSTC STC20020915192509709/15/02 19:25:31  5-MIN KSTC 160125Z AUTO 15005KT 10SM CLR 12/10 A3007 880 89 700 140/05 RMK AO2
14926KSTC STC20020915193009709/15/02 19:30:31  5-MIN KSTC 160130Z AUTO 15005KT 10SM CLR 12/10 A3007 890 86 800 140/05 RMK AO2
14926KSTC STC20020915193509709/15/02 19:35:31  5-MIN KSTC 160135Z AUTO 15005KT 10SM CLR 13/09 A3007 880 80 900 140/05 RMK AO2
14926KSTC STC20020915194009709/15/02 19:40:31  5-MIN KSTC 160140Z AUTO 15005KT 10SM CLR 13/09 A3008 880 80 900 150/05 RMK AO2
14926KSTC STC20020915194509709/15/02 19:45:31  5-MIN KSTC 160145Z AUTO 15005KT 10SM CLR 12/09 A3008 880 83 800 150/05 RMK AO2
14926KSTC STC20020915195011409/15/02 19:50:31  5-MIN KSTC 160150Z AUTO 15005KT 10SM CLR 12/09 A3007 880 83 800 150/05 RMK AO2 SLP195 T01220094
14926KSTC STC20020915195509709/15/02 19:55:31  5-MIN KSTC 160155Z AUTO 15005KT 10SM CLR 12/09 A3007 880 83 800 150/05 RMK AO2
14926KSTC STC20020915200009709/15/02 20:00:31  5-MIN KSTC 160200Z AUTO 15005KT 10SM CLR 12/09 A3008 880 83 800 150/05 RMK AO2
14926KSTC STC20020915200509709/15/02 20:05:31  5-MIN KSTC 160205Z AUTO 15005KT 10SM CLR 12/09 A3007 880 83 800 150/05 RMK AO2
14926KSTC STC20020915201009709/15/02 20:10:31  5-MIN KSTC 160210Z AUTO 15005KT 10SM CLR 12/09 A3008 880 83 800 150/05 RMK AO2
14926KSTC STC20020915201509709/15/02 20:15:31  5-MIN KSTC 160215Z AUTO 15005KT 10SM CLR 12/09 A3007 880 83 800 150/05 RMK AO2
14926KSTC STC20020915202009709/15/02 20:20:31  5-MIN KSTC 160220Z AUTO 16005KT 10SM CLR 12/09 A3007 880 83 800 160/05 RMK AO2
14926KSTC STC20020915202509709/15/02 20:25:31  5-MIN KSTC 160225Z AUTO 16006KT 10SM CLR 12/09 A3007 890 86 700 160/06 RMK AO2
14926KSTC STC20020915203009709/15/02 20:30:31  5-MIN KSTC 160230Z AUTO 16006KT 10SM CLR 12/09 A3007 890 86 700 160/06 RMK AO2
14926KSTC STC20020915203509709/15/02 20:35:31  5-MIN KSTC 160235Z AUTO 16006KT 10SM CLR 11/09 A3007 890 89 700 160/06 RMK AO2
14926KSTC STC20020915204009709/15/02 20:40:31  5-MIN KSTC 160240Z AUTO 17006KT 10SM CLR 11/09 A3006 890 89 700 160/06 RMK AO2
14926KSTC STC20020915204509709/15/02 20:45:31  5-MIN KSTC 160245Z AUTO 17005KT 10SM CLR 11/09 A3006 890 89 700 160/05 RMK AO2
14926KSTC STC20020915205012009/15/02 20:50:31  5-MIN KSTC 160250Z AUTO 17005KT 10SM CLR 11/09 A3007 890 89 700 170/05 RMK AO2 SLP191 T01110094 56016
14926KSTC STC20020915205509709/15/02 20:55:31  5-MIN KSTC 160255Z AUTO 17006KT 10SM CLR 11/09 A3006 900 89 700 170/06 RMK AO2
14926KSTC STC20020915210009709/15/02 21:00:31  5-MIN KSTC 160300Z AUTO 17006KT 10SM CLR 12/09 A3006 900 86 800 170/06 RMK AO2
14926KSTC STC20020915210509709/15/02 21:05:31  5-MIN KSTC 160305Z AUTO 17007KT 10SM CLR 12/09 A3005 900 83 800 170/07 RMK AO2
14926KSTC STC20020915211009709/15/02 21:10:31  5-MIN KSTC 160310Z AUTO 17007KT 10SM CLR 12/09 A3005 900 83 800 170/07 RMK AO2
14926KSTC STC20020915211509709/15/02 21:15:31  5-MIN KSTC 160315Z AUTO 18007KT 10SM CLR 12/09 A3005 900 83 800 170/07 RMK AO2
14926KSTC STC20020915212009709/15/02 21:20:31  5-MIN KSTC 160320Z AUTO 17006KT 10SM CLR 13/09 A3005 900 80 900 170/06 RMK AO2
14926KSTC STC20020915212509709/15/02 21:25:31  5-MIN KSTC 160325Z AUTO 17006KT 10SM CLR 12/09 A3005 900 83 800 170/06 RMK AO2
14926KSTC STC20020915213009709/15/02 21:30:31  5-MIN KSTC 160330Z AUTO 17006KT 10SM CLR 12/09 A3005 900 86 800 170/06 RMK AO2
14926KSTC STC20020915213509709/15/02 21:35:31  5-MIN KSTC 160335Z AUTO 17006KT 10SM CLR 12/09 A3006 900 86 800 170/06 RMK AO2
14926KSTC STC20020915214009709/15/02 21:40:31  5-MIN KSTC 160340Z AUTO 17006KT 10SM CLR 12/09 A3006 900 86 800 170/06 RMK AO2
14926KSTC STC20020915214509709/15/02 21:45:31  5-MIN KSTC 160345Z AUTO 18006KT 10SM CLR 12/09 A3006 900 83 800 170/06 RMK AO2
14926KSTC STC20020915215011409/15/02 21:50:31  5-MIN KSTC 160350Z AUTO 18006KT 10SM CLR 12/09 A3006 900 83 800 180/06 RMK AO2 SLP188 T01220094
14926KSTC STC20020915215509709/15/02 21:55:31  5-MIN KSTC 160355Z AUTO 17006KT 10SM CLR 12/09 A3006 900 83 800 170/06 RMK AO2
14926KSTC STC20020915220009709/15/02 22:00:31  5-MIN KSTC 160400Z AUTO 18007KT 10SM CLR 12/09 A3005 900 83 800 170/07 RMK AO2
14926KSTC STC20020915220509709/15/02 22:05:31  5-MIN KSTC 160405Z AUTO 18007KT 10SM CLR 12/09 A3005 900 83 800 170/07 RMK AO2
14926KSTC STC20020915221009709/15/02 22:10:31  5-MIN KSTC 160410Z AUTO 18007KT 10SM CLR 12/09 A3005 900 83 800 180/07 RMK AO2
14926KSTC STC20020915221509709/15/02 22:15:31  5-MIN KSTC 160415Z AUTO 18007KT 10SM CLR 12/09 A3005 900 80 800 180/07 RMK AO2
14926KSTC STC20020915222009709/15/02 22:20:31  5-MIN KSTC 160420Z AUTO 18007KT 10SM CLR 12/09 A3005 910 80 800 170/07 RMK AO2
14926KSTC STC20020915222509709/15/02 22:25:31  5-MIN KSTC 160425Z AUTO 17006KT 10SM CLR 12/09 A3005 910 80 800 170/06 RMK AO2
14926KSTC STC20020915223009709/15/02 22:30:31  5-MIN KSTC 160430Z AUTO 17007KT 10SM CLR 12/09 A3005 910 80 800 170/07 RMK AO2
14926KSTC STC20020915223509709/15/02 22:35:31  5-MIN KSTC 160435Z AUTO 17006KT 10SM CLR 12/09 A3005 910 80 800 170/06 RMK AO2
14926KSTC STC20020915224009709/15/02 22:40:31  5-MIN KSTC 160440Z AUTO 17006KT 10SM CLR 12/09 A3005 910 80 800 170/06 RMK AO2
14926KSTC STC20020915224509709/15/02 22:45:31  5-MIN KSTC 160445Z AUTO 17007KT 10SM CLR 12/09 A3005 910 80 800 170/07 RMK AO2
14926KSTC STC20020915225011409/15/02 22:50:31  5-MIN KSTC 160450Z AUTO 17006KT 10SM CLR 12/09 A3005 910 83 800 160/06 RMK AO2 SLP184 T01170089
14926KSTC STC20020915225509709/15/02 22:55:31  5-MIN KSTC 160455Z AUTO 16005KT 10SM CLR 11/09 A3005 910 86 700 160/05 RMK AO2
14926KSTC STC20020915230009709/15/02 23:00:31  5-MIN KSTC 160500Z AUTO 16006KT 10SM CLR 11/09 A3005 910 86 700 160/06 RMK AO2
14926KSTC STC20020915230509709/15/02 23:05:31  5-MIN KSTC 160505Z AUTO 17006KT 10SM CLR 11/09 A3004 910 86 700 160/06 RMK AO2
14926KSTC STC20020915231009709/15/02 23:10:31  5-MIN KSTC 160510Z AUTO 17006KT 10SM CLR 11/09 A3004 920 89 600 160/06 RMK AO2
14926KSTC STC20020915231509709/15/02 23:15:31  5-MIN KSTC 160515Z AUTO 17006KT 10SM CLR 11/09 A3004 920 89 600 170/06 RMK AO2
14926KSTC STC20020915232009709/15/02 23:20:31  5-MIN KSTC 160520Z AUTO 17006KT 10SM CLR 11/08 A3004 920 86 600 160/06 RMK AO2
14926KSTC STC20020915232509709/15/02 23:25:31  5-MIN KSTC 160525Z AUTO 16006KT 10SM CLR 11/08 A3003 920 86 600 160/06 RMK AO2
14926KSTC STC20020915233009709/15/02 23:30:31  5-MIN KSTC 160530Z AUTO 16006KT 10SM CLR 11/08 A3003 920 86 700 160/06 RMK AO2
14926KSTC STC20020915233509709/15/02 23:35:31  5-MIN KSTC 160535Z AUTO 16006KT 10SM CLR 11/08 A3003 920 86 700 160/06 RMK AO2
14926KSTC STC20020915234009709/15/02 23:40:31  5-MIN KSTC 160540Z AUTO 17006KT 10SM CLR 11/08 A3003 930 86 700 160/06 RMK AO2
14926KSTC STC20020915234509709/15/02 23:45:31  5-MIN KSTC 160545Z AUTO 17006KT 10SM CLR 11/08 A3003 930 86 700 170/06 RMK AO2
14926KSTC STC20020915235014209/15/02 23:50:31  5-MIN KSTC 160550Z AUTO 17006KT 10SM CLR 11/08 A3003 930 86 700 170/06 RMK AO2 SLP178 T01060083 10172 20106 402000050 58010
14926KSTC STC20020915235509709/15/02 23:55:31  5-MIN KSTC 160555Z AUTO 17006KT 10SM CLR 11/08 A3003 930 86 700 160/06 RMK AO2
14926KSTC STC20020916000009709/16/02 00:00:31  5-MIN KSTC 160600Z AUTO 17007KT 10SM CLR 11/08 A3003 930 86 700 160/07 RMK AO2
14926KSTC STC20020916000509709/16/02 00:05:31  5-MIN KSTC 160605Z AUTO 17006KT 10SM CLR 11/08 A3003 930 86 700 170/06 RMK AO2
14926KSTC STC20020916001009709/16/02 00:10:31  5-MIN KSTC 160610Z AUTO 18006KT 10SM CLR 11/08 A3002 930 86 700 170/06 RMK AO2
14926KSTC STC20020916001509709/16/02 00:15:31  5-MIN KSTC 160615Z AUTO 18006KT 10SM CLR 11/08 A3003 930 86 700 180/06 RMK AO2
14926KSTC STC20020916002009709/16/02 00:20:31  5-MIN KSTC 160620Z AUTO 18005KT 10SM CLR 11/08 A3003 930 86 700 180/05 RMK AO2
14926KSTC STC20020916002509709/16/02 00:25:31  5-MIN KSTC 160625Z AUTO 19005KT 10SM CLR 11/08 A3003 930 86 700 180/05 RMK AO2
14926KSTC STC20020916003009709/16/02 00:30:31  5-MIN KSTC 160630Z AUTO 19005KT 10SM CLR 11/08 A3002 930 86 700 180/05 RMK AO2
14926KSTC STC20020916003509709/16/02 00:35:31  5-MIN KSTC 160635Z AUTO 19006KT 10SM CLR 10/08 A3002 940 89 600 180/06 RMK AO2
14926KSTC STC20020916004009709/16/02 00:40:31  5-MIN KSTC 160640Z AUTO 19006KT 10SM CLR 11/08 A3002 940 86 700 190/06 RMK AO2
14926KSTC STC20020916004509709/16/02 00:45:31  5-MIN KSTC 160645Z AUTO 19007KT 10SM CLR 11/08 A3001 940 83 700 190/07 RMK AO2
14926KSTC STC20020916005011409/16/02 00:50:31  5-MIN KSTC 160650Z AUTO 19007KT 10SM CLR 11/08 A3001 940 83 700 190/07 RMK AO2 SLP173 T01110083
14926KSTC STC20020916005509709/16/02 00:55:31  5-MIN KSTC 160655Z AUTO 19006KT 10SM CLR 11/08 A3001 940 83 700 190/06 RMK AO2
14926KSTC STC20020916010009709/16/02 01:00:31  5-MIN KSTC 160700Z AUTO 19006KT 10SM CLR 11/08 A3001 940 83 700 180/06 RMK AO2
14926KSTC STC20020916010509709/16/02 01:05:31  5-MIN KSTC 160705Z AUTO 18006KT 10SM CLR 11/08 A3001 950 80 700 180/06 RMK AO2
14926KSTC STC20020916011009709/16/02 01:10:31  5-MIN KSTC 160710Z AUTO 18005KT 10SM CLR 11/08 A3001 940 83 700 180/05 RMK AO2
14926KSTC STC20020916011509709/16/02 01:15:31  5-MIN KSTC 160715Z AUTO 18005KT 10SM CLR 11/08 A3001 950 80 700 180/05 RMK AO2
14926KSTC STC20020916012009709/16/02 01:20:31  5-MIN KSTC 160720Z AUTO 18006KT 10SM CLR 11/08 A3001 950 83 700 180/06 RMK AO2
14926KSTC STC20020916012509709/16/02 01:25:31  5-MIN KSTC 160725Z AUTO 19006KT 10SM CLR 11/08 A3001 950 83 700 180/06 RMK AO2
14926KSTC STC20020916013009709/16/02 01:30:31  5-MIN KSTC 160730Z AUTO 19005KT 10SM CLR 11/08 A3001 950 80 700 190/05 RMK AO2
14926KSTC STC20020916013509709/16/02 01:35:31  5-MIN KSTC 160735Z AUTO 19005KT 10SM CLR 11/08 A3000 950 83 700 190/05 RMK AO2
14926KSTC STC20020916014009709/16/02 01:40:31  5-MIN KSTC 160740Z AUTO 19005KT 10SM CLR 11/08 A3000 950 83 700 180/05 RMK AO2
14926KSTC STC20020916014509709/16/02 01:45:31  5-MIN KSTC 160745Z AUTO 19005KT 10SM CLR 11/08 A3001 950 83 700 180/05 RMK AO2
14926KSTC STC20020916015011409/16/02 01:50:31  5-MIN KSTC 160750Z AUTO 18005KT 10SM CLR 11/08 A3001 950 83 700 180/05 RMK AO2 SLP170 T01060078
14926KSTC STC20020916015509709/16/02 01:55:31  5-MIN KSTC 160755Z AUTO 18004KT 10SM CLR 11/08 A3000 950 83 700 180/04 RMK AO2
14926KSTC STC20020916020009709/16/02 02:00:31  5-MIN KSTC 160800Z AUTO 18004KT 10SM CLR 11/08 A3000 950 83 700 170/04 RMK AO2
14926KSTC STC20020916020509709/16/02 02:05:31  5-MIN KSTC 160805Z AUTO 17004KT 10SM CLR 10/08 A3000 950 86 600 170/04 RMK AO2
14926KSTC STC20020916021009709/16/02 02:10:31  5-MIN KSTC 160810Z AUTO 17004KT 10SM CLR 09/08 A3000 950 89 600 170/04 RMK AO2
14926KSTC STC20020916021509709/16/02 02:15:31  5-MIN KSTC 160815Z AUTO 17005KT 10SM CLR 09/08 A3000 960 89 600 170/05 RMK AO2
14926KSTC STC20020916022009709/16/02 02:20:31  5-MIN KSTC 160820Z AUTO 17005KT 10SM CLR 09/08 A2999 960 89 600 160/05 RMK AO2
14926KSTC STC20020916022509709/16/02 02:25:31  5-MIN KSTC 160825Z AUTO 16005KT 10SM CLR 09/08 A2999 960 89 600 160/05 RMK AO2
14926KSTC STC20020916023009709/16/02 02:30:31  5-MIN KSTC 160830Z AUTO 17005KT 10SM CLR 09/08 A2999 960 89 600 160/05 RMK AO2
14926KSTC STC20020916023509709/16/02 02:35:31  5-MIN KSTC 160835Z AUTO 16005KT 10SM CLR 09/08 A2999 960 89 600 160/05 RMK AO2
14926KSTC STC20020916024009709/16/02 02:40:31  5-MIN KSTC 160840Z AUTO 16005KT 10SM CLR 09/08 A2999 960 89 600 160/05 RMK AO2
14926KSTC STC20020916024509709/16/02 02:45:31  5-MIN KSTC 160845Z AUTO 16005KT 10SM CLR 09/08 A2999 960 89 600 160/05 RMK AO2
14926KSTC STC20020916025012009/16/02 02:50:31  5-MIN KSTC 160850Z AUTO 17006KT 10SM CLR 09/08 A2999 960 89 600 170/06 RMK AO2 SLP164 T00940078 58012
14926KSTC STC20020916025509709/16/02 02:55:31  5-MIN KSTC 160855Z AUTO 17006KT 10SM CLR 10/08 A2999 960 86 600 170/06 RMK AO2
14926KSTC STC20020916030009709/16/02 03:00:31  5-MIN KSTC 160900Z AUTO 16006KT 10SM CLR 09/08 A2999 970 89 600 160/06 RMK AO2
14926KSTC STC20020916030509709/16/02 03:05:31  5-MIN KSTC 160905Z AUTO 16006KT 10SM CLR 09/08 A2999 970 89 600 160/06 RMK AO2
14926KSTC STC20020916031009709/16/02 03:10:31  5-MIN KSTC 160910Z AUTO 16005KT 10SM CLR 09/08 A2999 960 89 600 150/05 RMK AO2
14926KSTC STC20020916031509709/16/02 03:15:31  5-MIN KSTC 160915Z AUTO 16005KT 10SM CLR 09/08 A2999 970 89 600 160/05 RMK AO2
14926KSTC STC20020916032009709/16/02 03:20:31  5-MIN KSTC 160920Z AUTO 16005KT 10SM CLR 09/08 A2999 970 89 600 160/05 RMK AO2
14926KSTC STC20020916032509709/16/02 03:25:31  5-MIN KSTC 160925Z AUTO 16005KT 10SM CLR 09/08 A2998 970 89 600 150/05 RMK AO2
14926KSTC STC20020916033009709/16/02 03:30:31  5-MIN KSTC 160930Z AUTO 15006KT 10SM CLR 09/08 A2998 970 89 600 150/06 RMK AO2
14926KSTC STC20020916033509709/16/02 03:35:31  5-MIN KSTC 160935Z AUTO 15005KT 10SM CLR 09/08 A2998 970 89 600 140/05 RMK AO2
14926KSTC STC20020916034009709/16/02 03:40:31  5-MIN KSTC 160940Z AUTO 15006KT 10SM CLR 09/08 A2998 970 89 600 150/06 RMK AO2
14926KSTC STC20020916034509709/16/02 03:45:31  5-MIN KSTC 160945Z AUTO 15006KT 10SM CLR 10/08 A2998 970 86 600 150/06 RMK AO2
14926KSTC STC20020916035011409/16/02 03:50:31  5-MIN KSTC 160950Z AUTO 16007KT 10SM CLR 10/08 A2998 970 86 600 160/07 RMK AO2 SLP160 T01000078
14926KSTC STC20020916035509709/16/02 03:55:31  5-MIN KSTC 160955Z AUTO 15007KT 10SM CLR 10/08 A2997 980 86 600 150/07 RMK AO2
14926KSTC STC20020916040009709/16/02 04:00:31  5-MIN KSTC 161000Z AUTO 15007KT 10SM CLR 10/08 A2997 980 86 700 140/07 RMK AO2
14926KSTC STC20020916040509709/16/02 04:05:31  5-MIN KSTC 161005Z AUTO 15007KT 10SM CLR 10/08 A2997 980 86 700 140/07 RMK AO2
14926KSTC STC20020916041009709/16/02 04:10:31  5-MIN KSTC 161010Z AUTO 15007KT 10SM CLR 10/08 A2997 980 86 700 150/07 RMK AO2
14926KSTC STC20020916041509709/16/02 04:15:31  5-MIN KSTC 161015Z AUTO 16008KT 10SM CLR 09/08 A2997 980 89 600 150/08 RMK AO2
14926KSTC STC20020916042009709/16/02 04:20:31  5-MIN KSTC 161020Z AUTO 15007KT 10SM CLR 09/08 A2997 980 89 600 150/07 RMK AO2
14926KSTC STC20020916042509709/16/02 04:25:31  5-MIN KSTC 161025Z AUTO 15007KT 10SM CLR 09/08 A2997 980 89 600 150/07 RMK AO2
14926KSTC STC20020916043009709/16/02 04:30:31  5-MIN KSTC 161030Z AUTO 15006KT 10SM CLR 09/08 A2997 980 89 600 150/06 RMK AO2
14926KSTC STC20020916043509709/16/02 04:35:31  5-MIN KSTC 161035Z AUTO 15006KT 10SM CLR 09/08 A2997 980 89 600 150/06 RMK AO2
14926KSTC STC20020916044009709/16/02 04:40:31  5-MIN KSTC 161040Z AUTO 15006KT 10SM CLR 09/08 A2997 980 89 600 150/06 RMK AO2
14926KSTC STC20020916044509709/16/02 04:45:31  5-MIN KSTC 161045Z AUTO 15007KT 10SM CLR 10/08 A2997 980 86 700 150/07 RMK AO2
14926KSTC STC20020916045011409/16/02 04:50:31  5-MIN KSTC 161050Z AUTO 15007KT 10SM CLR 10/08 A2996 990 86 700 150/07 RMK AO2 SLP156 T01000078
14926KSTC STC20020916045509709/16/02 04:55:31  5-MIN KSTC 161055Z AUTO 15007KT 10SM CLR 09/08 A2996 990 89 600 150/07 RMK AO2
14926KSTC STC20020916050009709/16/02 05:00:31  5-MIN KSTC 161100Z AUTO 16007KT 10SM CLR 10/08 A2996 990 86 700 150/07 RMK AO2
14926KSTC STC20020916050509709/16/02 05:05:31  5-MIN KSTC 161105Z AUTO 16007KT 10SM CLR 09/08 A2996 990 89 600 150/07 RMK AO2
14926KSTC STC20020916051009709/16/02 05:10:31  5-MIN KSTC 161110Z AUTO 15006KT 10SM CLR 10/08 A2997 980 86 700 150/06 RMK AO2
14926KSTC STC20020916051509709/16/02 05:15:31  5-MIN KSTC 161115Z AUTO 15005KT 10SM CLR 10/08 A2997 980 86 700 140/05 RMK AO2
14926KSTC STC20020916052009709/16/02 05:20:31  5-MIN KSTC 161120Z AUTO 15006KT 10SM CLR 11/08 A2997 980 83 700 140/06 RMK AO2
14926KSTC STC20020916052509709/16/02 05:25:31  5-MIN KSTC 161125Z AUTO 15006KT 10SM CLR 11/08 A2997 980 83 700 150/06 RMK AO2
14926KSTC STC20020916053009709/16/02 05:30:31  5-MIN KSTC 161130Z AUTO 15007KT 10SM CLR 10/08 A2997 980 86 700 150/07 RMK AO2
14926KSTC STC20020916053509709/16/02 05:35:31  5-MIN KSTC 161135Z AUTO 16006KT 10SM CLR 10/08 A2997 980 86 700 150/06 RMK AO2
14926KSTC STC20020916054009709/16/02 05:40:31  5-MIN KSTC 161140Z AUTO 15007KT 10SM CLR 10/08 A2997 980 86 700 150/07 RMK AO2
14926KSTC STC20020916054509709/16/02 05:45:31  5-MIN KSTC 161145Z AUTO 15006KT 10SM CLR 10/08 A2997 980 86 700 150/06 RMK AO2
14926KSTC STC20020916055013209/16/02 05:50:31  5-MIN KSTC 161150Z AUTO 15005KT 10SM CLR 10/08 A2997 980 86 700 150/05 RMK AO2 SLP159 T01000078 10111 20094 58013
14926KSTC STC20020916055509709/16/02 05:55:31  5-MIN KSTC 161155Z AUTO 15004KT 10SM CLR 10/08 A2997 980 86 700 150/04 RMK AO2
14926KSTC STC20020916060009709/16/02 06:00:31  5-MIN KSTC 161200Z AUTO 15005KT 10SM CLR 10/08 A2997 980 86 700 150/05 RMK AO2
14926KSTC STC20020916060509709/16/02 06:05:31  5-MIN KSTC 161205Z AUTO 15005KT 10SM CLR 10/08 A2997 980 86 700 150/05 RMK AO2
14926KSTC STC20020916061009709/16/02 06:10:31  5-MIN KSTC 161210Z AUTO 15005KT 10SM CLR 09/08 A2997 980 89 600 150/05 RMK AO2
14926KSTC STC20020916061509709/16/02 06:15:31  5-MIN KSTC 161215Z AUTO 16006KT 10SM CLR 10/08 A2997 980 86 700 160/06 RMK AO2
14926KSTC STC20020916062009709/16/02 06:20:31  5-MIN KSTC 161220Z AUTO 16006KT 10SM CLR 10/08 A2998 980 86 600 160/06 RMK AO2
14926KSTC STC20020916062509709/16/02 06:25:31  5-MIN KSTC 161225Z AUTO 17006KT 10SM CLR 10/08 A2998 970 89 600 160/06 RMK AO2
14926KSTC STC20020916063009709/16/02 06:30:31  5-MIN KSTC 161230Z AUTO 17006KT 10SM CLR 10/08 A2997 980 89 700 160/06 RMK AO2
14926KSTC STC20020916063509709/16/02 06:35:31  5-MIN KSTC 161235Z AUTO 17006KT 10SM CLR 11/09 A2997 980 89 700 160/06 RMK AO2
14926KSTC STC20020916064009709/16/02 06:40:31  5-MIN KSTC 161240Z AUTO 17006KT 10SM CLR 11/09 A2997 980 86 800 160/06 RMK AO2
14926KSTC STC20020916064509709/16/02 06:45:31  5-MIN KSTC 161245Z AUTO 17006KT 10SM CLR 11/09 A2997 980 86 800 160/06 RMK AO2
14926KSTC STC20020916065011409/16/02 06:50:31  5-MIN KSTC 161250Z AUTO 17005KT 10SM CLR 12/09 A2997 980 83 900 160/05 RMK AO2 SLP160 T01170089
14926KSTC STC20020916065509709/16/02 06:55:31  5-MIN KSTC 161255Z AUTO 17006KT 10SM CLR 12/09 A2997 980 83 900 160/06 RMK AO2
14926KSTC STC20020916070009709/16/02 07:00:31  5-MIN KSTC 161300Z AUTO 17005KT 10SM CLR 12/09 A2997 980 83 900 170/05 RMK AO2
14926KSTC STC20020916070509709/16/02 07:05:31  5-MIN KSTC 161305Z AUTO 17006KT 10SM CLR 12/09 A2997 980 80 900 170/06 RMK AO2
14926KSTC STC20020916071009709/16/02 07:10:31  5-MIN KSTC 161310Z AUTO 17006KT 10SM CLR 12/09 A2997 980 80 900 170/06 RMK AO2
14926KSTC STC20020916071509709/16/02 07:15:31  5-MIN KSTC 161315Z AUTO 17006KT 10SM CLR 12/09 A2997 980 80 900 170/06 RMK AO2
14926KSTC STC20020916072009809/16/02 07:20:31  5-MIN KSTC 161320Z AUTO 17006KT 10SM CLR 13/09 A2997 980 80 1000 170/06 RMK AO2
14926KSTC STC20020916072509809/16/02 07:25:31  5-MIN KSTC 161325Z AUTO 18007KT 10SM CLR 13/09 A2997 980 80 1000 180/07 RMK AO2
14926KSTC STC20020916073009809/16/02 07:30:31  5-MIN KSTC 161330Z AUTO 18006KT 10SM CLR 13/09 A2997 980 77 1100 180/06 RMK AO2
14926KSTC STC20020916073509809/16/02 07:35:31  5-MIN KSTC 161335Z AUTO 19007KT 10SM CLR 13/09 A2997 980 77 1100 190/07 RMK AO2
14926KSTC STC20020916074009809/16/02 07:40:31  5-MIN KSTC 161340Z AUTO 19008KT 10SM CLR 14/09 A2997 990 74 1100 180/08 RMK AO2
14926KSTC STC20020916074509809/16/02 07:45:31  5-MIN KSTC 161345Z AUTO 20007KT 10SM CLR 14/09 A2996 990 74 1100 190/07 RMK AO2
14926KSTC STC20020916075011509/16/02 07:50:31  5-MIN KSTC 161350Z AUTO 19008KT 10SM CLR 14/09 A2996 990 72 1200 190/08 RMK AO2 SLP157 T01440094
14926KSTC STC20020916075509809/16/02 07:55:31  5-MIN KSTC 161355Z AUTO 19007KT 10SM CLR 14/09 A2997 980 72 1200 190/07 RMK AO2
14926KSTC STC20020916080009809/16/02 08:00:31  5-MIN KSTC 161400Z AUTO 20009KT 10SM CLR 14/09 A2997 980 72 1200 200/09 RMK AO2
14926KSTC STC20020916080509809/16/02 08:05:31  5-MIN KSTC 161405Z AUTO 20010KT 10SM CLR 15/09 A2997 980 69 1200 190/10 RMK AO2
14926KSTC STC20020916081009809/16/02 08:10:31  5-MIN KSTC 161410Z AUTO 21008KT 10SM CLR 15/09 A2997 980 69 1200 200/08 RMK AO2
14926KSTC STC20020916081509809/16/02 08:15:31  5-MIN KSTC 161415Z AUTO 21009KT 10SM CLR 15/09 A2997 980 69 1200 200/09 RMK AO2
14926KSTC STC20020916082009809/16/02 08:20:31  5-MIN KSTC 161420Z AUTO 20009KT 10SM CLR 16/09 A2997 980 67 1300 190/09 RMK AO2
14926KSTC STC20020916082509809/16/02 08:25:31  5-MIN KSTC 161425Z AUTO 20008KT 10SM CLR 16/10 A2997 980 69 1300 200/08 RMK AO2
14926KSTC STC20020916083009809/16/02 08:30:31  5-MIN KSTC 161430Z AUTO 21007KT 10SM CLR 16/10 A2998 980 67 1400 210/07 RMK AO2
14926KSTC STC20020916083509809/16/02 08:35:31  5-MIN KSTC 161435Z AUTO 22007KT 10SM CLR 16/10 A2998 970 67 1400 220/07 RMK AO2
14926KSTC STC20020916084009809/16/02 08:40:31  5-MIN KSTC 161440Z AUTO 21007KT 10SM CLR 17/10 A2997 980 64 1400 210/07 RMK AO2
14926KSTC STC20020916084509809/16/02 08:45:31  5-MIN KSTC 161445Z AUTO 21008KT 10SM CLR 17/10 A2997 980 64 1400 210/08 RMK AO2
14926KSTC STC20020916085012109/16/02 08:50:31  5-MIN KSTC 161450Z AUTO 21008KT 10SM CLR 17/10 A2998 980 64 1400 210/08 RMK AO2 SLP161 T01670100 55005
14926KSTC STC20020916085509809/16/02 08:55:31  5-MIN KSTC 161455Z AUTO 22006KT 10SM CLR 17/11 A2998 970 64 1500 220/06 RMK AO2
14926KSTC STC20020916090009809/16/02 09:00:31  5-MIN KSTC 161500Z AUTO 22008KT 10SM CLR 17/11 A2998 970 64 1500 210/08 RMK AO2
14926KSTC STC20020916090509809/16/02 09:05:31  5-MIN KSTC 161505Z AUTO 21009KT 10SM CLR 18/11 A2998 970 62 1600 210/09 RMK AO2
14926KSTC STC20020916091009809/16/02 09:10:31  5-MIN KSTC 161510Z AUTO 23010KT 10SM CLR 18/11 A2998 970 62 1600 220/10 RMK AO2
14926KSTC STC20020916091509809/16/02 09:15:31  5-MIN KSTC 161515Z AUTO 22008KT 10SM CLR 18/10 A2998 970 60 1600 220/08 RMK AO2
14926KSTC STC20020916092009809/16/02 09:20:31  5-MIN KSTC 161520Z AUTO 20008KT 10SM CLR 18/11 A2998 970 60 1600 200/08 RMK AO2
14926KSTC STC20020916092509809/16/02 09:25:31  5-MIN KSTC 161525Z AUTO 21010KT 10SM CLR 18/11 A2997 980 60 1600 200/10 RMK AO2
14926KSTC STC20020916093009809/16/02 09:30:31  5-MIN KSTC 161530Z AUTO 21008KT 10SM CLR 18/11 A2997 980 60 1600 210/08 RMK AO2
14926KSTC STC20020916093509809/16/02 09:35:31  5-MIN KSTC 161535Z AUTO 22008KT 10SM CLR 19/11 A2998 980 58 1700 220/08 RMK AO2
14926KSTC STC20020916094009809/16/02 09:40:31  5-MIN KSTC 161540Z AUTO 23011KT 10SM CLR 19/11 A2997 980 56 1800 220/11 RMK AO2
14926KSTC STC20020916094509809/16/02 09:45:31  5-MIN KSTC 161545Z AUTO 19009KT 10SM CLR 19/11 A2997 980 60 1700 180/09 RMK AO2
14926KSTC STC20020916095011509/16/02 09:50:31  5-MIN KSTC 161550Z AUTO 20009KT 10SM CLR 20/11 A2998 980 56 1800 200/09 RMK AO2 SLP158 T02000111
14926KSTC STC20020916095509809/16/02 09:55:31  5-MIN KSTC 161555Z AUTO 20007KT 10SM CLR 19/11 A2997 980 58 1800 200/07 RMK AO2
14926KSTC STC20020916100009809/16/02 10:00:31  5-MIN KSTC 161600Z AUTO 20008KT 10SM CLR 20/11 A2998 970 56 1800 200/08 RMK AO2
14926KSTC STC20020916100509809/16/02 10:05:31  5-MIN KSTC 161605Z AUTO 23007KT 10SM CLR 21/11 A2998 970 54 1900 230/07 RMK AO2
14926KSTC STC20020916101009809/16/02 10:10:31  5-MIN KSTC 161610Z AUTO 21006KT 10SM CLR 20/11 A2998 970 56 1800 210/06 RMK AO2
14926KSTC STC20020916101509809/16/02 10:15:31  5-MIN KSTC 161615Z AUTO 20008KT 10SM CLR 21/11 A2998 980 54 1900 190/08 RMK AO2
14926KSTC STC20020916102009809/16/02 10:20:31  5-MIN KSTC 161620Z AUTO 20007KT 10SM CLR 21/11 A2997 980 54 1900 200/07 RMK AO2
14926KSTC STC20020916102509809/16/02 10:25:31  5-MIN KSTC 161625Z AUTO 20008KT 10SM CLR 21/12 A2997 980 56 1900 190/08 RMK AO2
14926KSTC STC20020916103009809/16/02 10:30:31  5-MIN KSTC 161630Z AUTO 22007KT 10SM CLR 21/12 A2997 980 54 2000 220/07 RMK AO2
14926KSTC STC20020916103509809/16/02 10:35:31  5-MIN KSTC 161635Z AUTO 20006KT 10SM CLR 21/12 A2997 980 54 2000 200/06 RMK AO2
14926KSTC STC20020916104009809/16/02 10:40:31  5-MIN KSTC 161640Z AUTO 22007KT 10SM CLR 22/12 A2996 990 52 2000 210/07 RMK AO2
14926KSTC STC20020916104509809/16/02 10:45:31  5-MIN KSTC 161645Z AUTO 22007KT 10SM CLR 22/12 A2997 980 52 2000 210/07 RMK AO2
14926KSTC STC20020916105011509/16/02 10:50:31  5-MIN KSTC 161650Z AUTO 19007KT 10SM CLR 22/12 A2996 990 52 2000 190/07 RMK AO2 SLP154 T02170117
14926KSTC STC20020916105509809/16/02 10:55:31  5-MIN KSTC 161655Z AUTO 20009KT 10SM CLR 22/12 A2996 990 54 2000 200/09 RMK AO2
14926KSTC STC20020916110009809/16/02 11:00:31  5-MIN KSTC 161700Z AUTO 20008KT 10SM CLR 22/12 A2996 990 54 2000 190/08 RMK AO2
14926KSTC STC20020916110509809/16/02 11:05:31  5-MIN KSTC 161705Z AUTO 18008KT 10SM CLR 22/12 A2996 990 52 2100 180/08 RMK AO2
14926KSTC STC20020916111009809/16/02 11:10:31  5-MIN KSTC 161710Z AUTO 20006KT 10SM CLR 22/12 A2996 990 52 2100 190/06 RMK AO2
14926KSTC STC20020916111509909/16/02 11:15:31  5-MIN KSTC 161715Z AUTO 19009KT 10SM CLR 22/12 A2995 1000 52 2100 180/09 RMK AO2
14926KSTC STC20020916112009809/16/02 11:20:31  5-MIN KSTC 161720Z AUTO 19009KT 10SM CLR 22/12 A2995 990 52 2100 190/09 RMK AO2
14926KSTC STC20020916112509909/16/02 11:25:31  5-MIN KSTC 161725Z AUTO 20009KT 10SM CLR 22/12 A2995 1000 52 2100 200/09 RMK AO2
14926KSTC STC20020916113009909/16/02 11:30:31  5-MIN KSTC 161730Z AUTO 20008KT 10SM CLR 23/12 A2995 1000 51 2200 190/08 RMK AO2
14926KSTC STC20020916113509909/16/02 11:35:31  5-MIN KSTC 161735Z AUTO 19008KT 10SM CLR 23/12 A2995 1000 51 2200 190/08 RMK AO2
14926KSTC STC20020916114009909/16/02 11:40:31  5-MIN KSTC 161740Z AUTO 19008KT 10SM CLR 23/13 A2995 1000 51 2200 180/08 RMK AO2
14926KSTC STC20020916114509909/16/02 11:45:31  5-MIN KSTC 161745Z AUTO 19007KT 10SM CLR 23/13 A2995 1000 53 2200 180/07 RMK AO2
14926KSTC STC20020916115013409/16/02 11:50:31  5-MIN KSTC 161750Z AUTO 20008KT 10SM CLR 24/13 A2995 1000 51 2300 200/08 RMK AO2 SLP149 T02390133 10239 20094 53002
14926KSTC STC20020916115509909/16/02 11:55:31  5-MIN KSTC 161755Z AUTO 20009KT 10SM CLR 24/13 A2995 1000 51 2300 190/09 RMK AO2
14926KSTC STC20020916120009909/16/02 12:00:31  5-MIN KSTC 161800Z AUTO 20009KT 10SM CLR 24/13 A2995 1000 51 2300 190/09 RMK AO2
14926KSTC STC20020916120509909/16/02 12:05:31  5-MIN KSTC 161805Z AUTO 18008KT 10SM CLR 24/14 A2995 1000 53 2300 170/08 RMK AO2
14926KSTC STC20020916121009909/16/02 12:10:31  5-MIN KSTC 161810Z AUTO 17010KT 10SM CLR 24/14 A2995 1000 53 2300 170/10 RMK AO2
14926KSTC STC20020916121509909/16/02 12:15:31  5-MIN KSTC 161815Z AUTO 18008KT 10SM CLR 24/14 A2995 1000 53 2300 180/08 RMK AO2
14926KSTC STC20020916122009909/16/02 12:20:31  5-MIN KSTC 161820Z AUTO 18008KT 10SM CLR 24/14 A2994 1000 53 2300 180/08 RMK AO2
14926KSTC STC20020916122509909/16/02 12:25:31  5-MIN KSTC 161825Z AUTO 17009KT 10SM CLR 24/14 A2995 1000 53 2300 170/09 RMK AO2
14926KSTC STC20020916123009909/16/02 12:30:31  5-MIN KSTC 161830Z AUTO 18009KT 10SM CLR 24/14 A2995 1000 53 2300 180/09 RMK AO2
14926KSTC STC20020916123509909/16/02 12:35:31  5-MIN KSTC 161835Z AUTO 20010KT 10SM CLR 24/14 A2995 1000 51 2400 200/10 RMK AO2
14926KSTC STC20020916124009909/16/02 12:40:31  5-MIN KSTC 161840Z AUTO 19010KT 10SM CLR 24/14 A2995 1000 51 2400 180/10 RMK AO2
14926KSTC STC20020916124509909/16/02 12:45:31  5-MIN KSTC 161845Z AUTO 20010KT 10SM CLR 24/14 A2994 1000 51 2400 190/10 RMK AO2
14926KSTC STC20020916125011609/16/02 12:50:31  5-MIN KSTC 161850Z AUTO 20009KT 10SM CLR 25/14 A2994 1010 49 2400 200/09 RMK AO2 SLP145 T02500139
14926KSTC STC20020916125509909/16/02 12:55:31  5-MIN KSTC 161855Z AUTO 20008KT 10SM CLR 25/14 A2994 1010 49 2400 190/08 RMK AO2
14926KSTC STC20020916130009909/16/02 13:00:31  5-MIN KSTC 161900Z AUTO 19010KT 10SM CLR 25/14 A2994 1010 49 2400 190/10 RMK AO2
14926KSTC STC20020916130509909/16/02 13:05:31  5-MIN KSTC 161905Z AUTO 18010KT 10SM CLR 25/14 A2994 1010 49 2400 170/10 RMK AO2
14926KSTC STC20020916131009909/16/02 13:10:31  5-MIN KSTC 161910Z AUTO 20008KT 10SM CLR 26/14 A2994 1010 49 2500 200/08 RMK AO2
14926KSTC STC20020916131509909/16/02 13:15:31  5-MIN KSTC 161915Z AUTO 19009KT 10SM CLR 25/14 A2994 1010 49 2400 190/09 RMK AO2
14926KSTC STC20020916132009909/16/02 13:20:31  5-MIN KSTC 161920Z AUTO 20009KT 10SM CLR 25/14 A2993 1010 49 2400 190/09 RMK AO2
14926KSTC STC20020916132509909/16/02 13:25:31  5-MIN KSTC 161925Z AUTO 19011KT 10SM CLR 26/14 A2993 1010 49 2500 190/11 RMK AO2
14926KSTC STC20020916133009909/16/02 13:30:31  5-MIN KSTC 161930Z AUTO 18010KT 10SM CLR 26/14 A2993 1020 49 2500 180/10 RMK AO2
14926KSTC STC20020916133509909/16/02 13:35:31  5-MIN KSTC 161935Z AUTO 18010KT 10SM CLR 26/14 A2993 1020 48 2600 170/10 RMK AO2
14926KSTC STC20020916134009909/16/02 13:40:31  5-MIN KSTC 161940Z AUTO 19011KT 10SM CLR 26/14 A2993 1020 49 2500 190/11 RMK AO2
14926KSTC STC20020916134509909/16/02 13:45:31  5-MIN KSTC 161945Z AUTO 20011KT 10SM CLR 26/14 A2993 1020 46 2600 200/11 RMK AO2
14926KSTC STC20020916135011609/16/02 13:50:31  5-MIN KSTC 161950Z AUTO 19010KT 10SM CLR 26/14 A2993 1020 46 2600 180/10 RMK AO2 SLP140 T02610139
14926KSTC STC20020916135509909/16/02 13:55:31  5-MIN KSTC 161955Z AUTO 20011KT 10SM CLR 26/14 A2992 1020 48 2600 200/11 RMK AO2
14926KSTC STC20020916140009909/16/02 14:00:31  5-MIN KSTC 162000Z AUTO 19010KT 10SM CLR 27/14 A2992 1030 45 2600 190/10 RMK AO2
14926KSTC STC20020916140509909/16/02 14:05:31  5-MIN KSTC 162005Z AUTO 21011KT 10SM CLR 27/14 A2992 1020 45 2600 210/11 RMK AO2
14926KSTC STC20020916141009909/16/02 14:10:31  5-MIN KSTC 162010Z AUTO 21009KT 10SM CLR 26/14 A2992 1030 46 2600 210/09 RMK AO2
14926KSTC STC20020916141509909/16/02 14:15:31  5-MIN KSTC 162015Z AUTO 20011KT 10SM CLR 27/14 A2992 1030 45 2600 190/11 RMK AO2
14926KSTC STC20020916142009909/16/02 14:20:31  5-MIN KSTC 162020Z AUTO 20010KT 10SM CLR 27/14 A2992 1030 45 2600 190/10 RMK AO2
14926KSTC STC20020916142509909/16/02 14:25:31  5-MIN KSTC 162025Z AUTO 21011KT 10SM CLR 27/14 A2992 1030 45 2600 210/11 RMK AO2
14926KSTC STC20020916143009909/16/02 14:30:31  5-MIN KSTC 162030Z AUTO 19011KT 10SM CLR 27/14 A2992 1030 46 2600 180/11 RMK AO2
14926KSTC STC20020916143509909/16/02 14:35:31  5-MIN KSTC 162035Z AUTO 18010KT 10SM CLR 27/14 A2992 1030 45 2700 180/10 RMK AO2
14926KSTC STC20020916144009909/16/02 14:40:31  5-MIN KSTC 162040Z AUTO 20009KT 10SM CLR 27/14 A2992 1030 45 2700 200/09 RMK AO2
14926KSTC STC20020916144509909/16/02 14:45:31  5-MIN KSTC 162045Z AUTO 20010KT 10SM CLR 27/14 A2991 1030 45 2700 200/10 RMK AO2
14926KSTC STC20020916145012209/16/02 14:50:31  5-MIN KSTC 162050Z AUTO 19011KT 10SM CLR 27/14 A2991 1030 45 2700 180/11 RMK AO2 SLP135 T02720144 58009
14926KSTC STC20020916145509909/16/02 14:55:31  5-MIN KSTC 162055Z AUTO 20012KT 10SM CLR 27/14 A2991 1040 45 2700 190/12 RMK AO2
14926KSTC STC20020916150009909/16/02 15:00:31  5-MIN KSTC 162100Z AUTO 19008KT 10SM CLR 28/14 A2991 1040 43 2800 190/08 RMK AO2
14926KSTC STC20020916150509909/16/02 15:05:31  5-MIN KSTC 162105Z AUTO 20012KT 10SM CLR 28/14 A2990 1040 43 2800 200/12 RMK AO2
14926KSTC STC20020916151009909/16/02 15:10:31  5-MIN KSTC 162110Z AUTO 20011KT 10SM CLR 28/14 A2990 1040 43 2800 200/11 RMK AO2
14926KSTC STC20020916151509909/16/02 15:15:31  5-MIN KSTC 162115Z AUTO 19011KT 10SM CLR 28/14 A2990 1050 43 2800 190/11 RMK AO2
14926KSTC STC20020916152009909/16/02 15:20:31  5-MIN KSTC 162120Z AUTO 19011KT 10SM CLR 28/14 A2990 1050 43 2800 190/11 RMK AO2
14926KSTC STC20020916152509909/16/02 15:25:31  5-MIN KSTC 162125Z AUTO 19011KT 10SM CLR 28/15 A2990 1050 45 2800 190/11 RMK AO2
14926KSTC STC20020916153009909/16/02 15:30:31  5-MIN KSTC 162130Z AUTO 19010KT 10SM CLR 28/14 A2990 1050 43 2800 190/10 RMK AO2
14926KSTC STC20020916153509909/16/02 15:35:31  5-MIN KSTC 162135Z AUTO 20010KT 10SM CLR 28/15 A2990 1050 45 2800 200/10 RMK AO2
14926KSTC STC20020916154009909/16/02 15:40:31  5-MIN KSTC 162140Z AUTO 20008KT 10SM CLR 28/15 A2990 1050 45 2800 190/08 RMK AO2
14926KSTC STC20020916154509909/16/02 15:45:31  5-MIN KSTC 162145Z AUTO 21011KT 10SM CLR 28/15 A2990 1050 45 2800 210/11 RMK AO2
14926KSTC STC20020916155011609/16/02 15:50:31  5-MIN KSTC 162150Z AUTO 19008KT 10SM CLR 28/15 A2989 1050 45 2800 190/08 RMK AO2 SLP129 T02780150
14926KSTC STC20020916155509909/16/02 15:55:31  5-MIN KSTC 162155Z AUTO 18008KT 10SM CLR 28/16 A2989 1050 45 2900 180/08 RMK AO2
14926KSTC STC20020916160009909/16/02 16:00:31  5-MIN KSTC 162200Z AUTO 19008KT 10SM CLR 28/16 A2989 1050 45 2900 180/08 RMK AO2
14926KSTC STC20020916160509909/16/02 16:05:31  5-MIN KSTC 162205Z AUTO 21009KT 10SM CLR 28/16 A2989 1050 45 2900 200/09 RMK AO2
14926KSTC STC20020916161009909/16/02 16:10:31  5-MIN KSTC 162210Z AUTO 20009KT 10SM CLR 28/15 A2989 1050 43 2900 200/09 RMK AO2
14926KSTC STC20020916161509909/16/02 16:15:31  5-MIN KSTC 162215Z AUTO 19008KT 10SM CLR 28/16 A2989 1050 45 2900 190/08 RMK AO2
14926KSTC STC20020916162009909/16/02 16:20:31  5-MIN KSTC 162220Z AUTO 19008KT 10SM CLR 28/16 A2989 1050 45 2900 190/08 RMK AO2
14926KSTC STC20020916162509909/16/02 16:25:31  5-MIN KSTC 162225Z AUTO 19006KT 10SM CLR 28/16 A2989 1050 45 2900 190/06 RMK AO2
14926KSTC STC20020916163009909/16/02 16:30:31  5-MIN KSTC 162230Z AUTO 17005KT 10SM CLR 28/16 A2989 1060 47 2900 170/05 RMK AO2
14926KSTC STC20020916163509909/16/02 16:35:31  5-MIN KSTC 162235Z AUTO 17005KT 10SM CLR 28/17 A2989 1060 48 2900 160/05 RMK AO2
14926KSTC STC20020916164009909/16/02 16:40:31  5-MIN KSTC 162240Z AUTO 17006KT 10SM CLR 28/16 A2989 1060 47 2900 160/06 RMK AO2
14926KSTC STC20020916164509909/16/02 16:45:31  5-MIN KSTC 162245Z AUTO 16006KT 10SM CLR 28/16 A2989 1060 48 2800 160/06 RMK AO2
14926KSTC STC20020916165011609/16/02 16:50:31  5-MIN KSTC 162250Z AUTO 16005KT 10SM CLR 28/17 A2989 1060 50 2800 160/05 RMK AO2 SLP127 T02780167
14926KSTC STC20020916165509909/16/02 16:55:31  5-MIN KSTC 162255Z AUTO 16005KT 10SM CLR 28/17 A2989 1060 50 2800 160/05 RMK AO2
14926KSTC STC20020916170009909/16/02 17:00:31  5-MIN KSTC 162300Z AUTO 16004KT 10SM CLR 28/17 A2989 1060 50 2800 160/04 RMK AO2
14926KSTC STC20020916170509909/16/02 17:05:31  5-MIN KSTC 162305Z AUTO 16004KT 10SM CLR 28/17 A2989 1050 50 2800 150/04 RMK AO2
14926KSTC STC20020916171009909/16/02 17:10:31  5-MIN KSTC 162310Z AUTO 16005KT 10SM CLR 28/17 A2989 1060 52 2800 150/05 RMK AO2
14926KSTC STC20020916171509909/16/02 17:15:31  5-MIN KSTC 162315Z AUTO 16004KT 10SM CLR 27/17 A2989 1060 52 2700 150/04 RMK AO2
14926KSTC STC20020916172009909/16/02 17:20:31  5-MIN KSTC 162320Z AUTO 16004KT 10SM CLR 27/17 A2989 1060 54 2700 150/04 RMK AO2
14926KSTC STC20020916172509909/16/02 17:25:31  5-MIN KSTC 162325Z AUTO 15004KT 10SM CLR 27/17 A2989 1060 54 2700 150/04 RMK AO2
14926KSTC STC20020916173009909/16/02 17:30:31  5-MIN KSTC 162330Z AUTO 15004KT 10SM CLR 27/17 A2989 1060 55 2700 150/04 RMK AO2
14926KSTC STC20020916173509909/16/02 17:35:31  5-MIN KSTC 162335Z AUTO 16004KT 10SM CLR 26/18 A2989 1060 59 2600 160/04 RMK AO2
14926KSTC STC20020916174009909/16/02 17:40:31  5-MIN KSTC 162340Z AUTO 16004KT 10SM CLR 26/18 A2988 1060 64 2600 160/04 RMK AO2
14926KSTC STC20020916174509909/16/02 17:45:31  5-MIN KSTC 162345Z AUTO 16004KT 10SM CLR 26/18 A2989 1060 64 2600 150/04 RMK AO2
14926KSTC STC20020916175013409/16/02 17:50:31  5-MIN KSTC 162350Z AUTO 15004KT 10SM CLR 25/18 A2989 1060 66 2500 150/04 RMK AO2 SLP127 T02500183 10283 20233 58013
14926KSTC STC20020916175509909/16/02 17:55:31  5-MIN KSTC 162355Z AUTO 15004KT 10SM CLR 24/18 A2989 1060 66 2400 150/04 RMK AO2
14926KSTC STC20020916180009909/16/02 18:00:31  5-MIN KSTC 170000Z AUTO 15004KT 10SM CLR 24/18 A2989 1060 71 2400 150/04 RMK AO2
14926KSTC STC20020916180509909/16/02 18:05:31  5-MIN KSTC 170005Z AUTO 15003KT 10SM CLR 24/18 A2989 1060 71 2400 150/03 RMK AO2
14926KSTC STC20020916181009909/16/02 18:10:31  5-MIN KSTC 170010Z AUTO 15003KT 10SM CLR 24/18 A2989 1060 68 2400 150/03 RMK AO2
14926KSTC STC20020916181509909/16/02 18:15:31  5-MIN KSTC 170015Z AUTO 15003KT 10SM CLR 23/18 A2989 1060 70 2300 150/03 RMK AO2
14926KSTC STC20020916182009909/16/02 18:20:31  5-MIN KSTC 170020Z AUTO 15003KT 10SM CLR 23/18 A2989 1060 73 2200 150/03 RMK AO2
14926KSTC STC20020916182509909/16/02 18:25:31  5-MIN KSTC 170025Z AUTO 15003KT 10SM CLR 21/18 A2989 1050 81 2000 150/03 RMK AO2
14926KSTC STC20020916183009909/16/02 18:30:31  5-MIN KSTC 170030Z AUTO 00000KT 10SM CLR 21/18 A2989 1050 84 2000 000/00 RMK AO2
14926KSTC STC20020916183509909/16/02 18:35:31  5-MIN KSTC 170035Z AUTO 00000KT 10SM CLR 20/18 A2989 1050 87 1900 000/00 RMK AO2
14926KSTC STC20020916184009909/16/02 18:40:31  5-MIN KSTC 170040Z AUTO 00000KT 10SM CLR 20/18 A2989 1050 87 1900 000/00 RMK AO2
14926KSTC STC20020916184509909/16/02 18:45:31  5-MIN KSTC 170045Z AUTO 00000KT 10SM CLR 19/18 A2989 1050 90 1900 000/00 RMK AO2
14926KSTC STC20020916185011609/16/02 18:50:31  5-MIN KSTC 170050Z AUTO 00000KT 10SM CLR 19/17 A2989 1050 87 1900 000/00 RMK AO2 SLP131 T01940172
14926KSTC STC20020916185509909/16/02 18:55:31  5-MIN KSTC 170055Z AUTO 00000KT 10SM CLR 19/17 A2990 1050 90 1800 000/00 RMK AO2
14926KSTC STC20020916190009909/16/02 19:00:31  5-MIN KSTC 170100Z AUTO 15003KT 10SM CLR 19/18 A2990 1050 93 1800 140/03 RMK AO2
14926KSTC STC20020916190509909/16/02 19:05:31  5-MIN KSTC 170105Z AUTO 15004KT 10SM CLR 19/18 A2990 1050 90 1800 150/04 RMK AO2
14926KSTC STC20020916191009909/16/02 19:10:31  5-MIN KSTC 170110Z AUTO 16005KT 10SM CLR 20/17 A2990 1050 84 1900 150/05 RMK AO2
14926KSTC STC20020916191509909/16/02 19:15:31  5-MIN KSTC 170115Z AUTO 15005KT 10SM CLR 20/17 A2990 1050 81 1900 150/05 RMK AO2
14926KSTC STC20020916192009909/16/02 19:20:31  5-MIN KSTC 170120Z AUTO 15005KT 10SM CLR 21/16 A2990 1050 75 2000 150/05 RMK AO2
14926KSTC STC20020916192509909/16/02 19:25:31  5-MIN KSTC 170125Z AUTO 15005KT 10SM CLR 21/16 A2990 1040 75 2000 150/05 RMK AO2
14926KSTC STC20020916193009909/16/02 19:30:31  5-MIN KSTC 170130Z AUTO 15005KT 10SM CLR 21/16 A2990 1040 75 2000 150/05 RMK AO2
14926KSTC STC20020916193509909/16/02 19:35:31  5-MIN KSTC 170135Z AUTO 15004KT 10SM CLR 21/16 A2990 1040 75 2000 150/04 RMK AO2
14926KSTC STC20020916194009909/16/02 19:40:31  5-MIN KSTC 170140Z AUTO 15004KT 10SM CLR 20/16 A2990 1040 78 1900 150/04 RMK AO2
14926KSTC STC20020916194509909/16/02 19:45:31  5-MIN KSTC 170145Z AUTO 16003KT 10SM CLR 19/16 A2990 1040 81 1800 150/03 RMK AO2
14926KSTC STC20020916195011609/16/02 19:50:31  5-MIN KSTC 170150Z AUTO 16003KT 10SM CLR 19/16 A2990 1040 84 1800 160/03 RMK AO2 SLP133 T01890161
14926KSTC STC20020916195509909/16/02 19:55:31  5-MIN KSTC 170155Z AUTO 16003KT 10SM CLR 18/16 A2990 1040 87 1700 160/03 RMK AO2
14926KSTC STC20020916200009909/16/02 20:00:31  5-MIN KSTC 170200Z AUTO 16003KT 10SM CLR 18/16 A2991 1040 90 1600 160/03 RMK AO2
14926KSTC STC20020916200509909/16/02 20:05:31  5-MIN KSTC 170205Z AUTO 00000KT 10SM CLR 17/16 A2991 1040 93 1600 000/00 RMK AO2
14926KSTC STC20020916201009909/16/02 20:10:31  5-MIN KSTC 170210Z AUTO 00000KT 10SM CLR 17/16 A2991 1040 96 1500 000/00 RMK AO2
14926KSTC STC20020916201509909/16/02 20:15:31  5-MIN KSTC 170215Z AUTO 00000KT 10SM CLR 17/16 A2991 1040 96 1500 000/00 RMK AO2
14926KSTC STC20020916202009909/16/02 20:20:31  5-MIN KSTC 170220Z AUTO 00000KT 10SM CLR 17/16 A2991 1040 96 1500 000/00 RMK AO2
14926KSTC STC20020916202509909/16/02 20:25:31  5-MIN KSTC 170225Z AUTO 15003KT 10SM CLR 17/16 A2991 1040 96 1500 150/03 RMK AO2
14926KSTC STC20020916203009909/16/02 20:30:31  5-MIN KSTC 170230Z AUTO 15003KT 10SM CLR 17/16 A2991 1040 93 1600 150/03 RMK AO2
14926KSTC STC20020916203509909/16/02 20:35:31  5-MIN KSTC 170235Z AUTO 15003KT 10SM CLR 17/16 A2991 1040 93 1600 150/03 RMK AO2
14926KSTC STC20020916204009909/16/02 20:40:31  5-MIN KSTC 170240Z AUTO 15003KT 10SM CLR 17/16 A2991 1040 93 1600 150/03 RMK AO2
14926KSTC STC20020916204509909/16/02 20:45:31  5-MIN KSTC 170245Z AUTO 16004KT 10SM CLR 17/16 A2991 1040 93 1600 160/04 RMK AO2
14926KSTC STC20020916205012209/16/02 20:50:31  5-MIN KSTC 170250Z AUTO 17004KT 10SM CLR 16/15 A2991 1030 93 1400 160/04 RMK AO2 SLP136 T01610150 56007
14926KSTC STC20020916205509909/16/02 20:55:31  5-MIN KSTC 170255Z AUTO 17004KT 10SM CLR 16/15 A2991 1030 96 1400 170/04 RMK AO2
14926KSTC STC20020916210009909/16/02 21:00:31  5-MIN KSTC 170300Z AUTO 18005KT 10SM CLR 16/15 A2991 1040 93 1400 180/05 RMK AO2
14926KSTC STC20020916210509909/16/02 21:05:31  5-MIN KSTC 170305Z AUTO 17005KT 10SM CLR 17/14 A2991 1040 86 1500 170/05 RMK AO2
14926KSTC STC20020916211009909/16/02 21:10:31  5-MIN KSTC 170310Z AUTO 17005KT 10SM CLR 17/14 A2991 1040 86 1500 170/05 RMK AO2
14926KSTC STC20020916211509909/16/02 21:15:31  5-MIN KSTC 170315Z AUTO 18005KT 10SM CLR 17/14 A2991 1030 86 1500 170/05 RMK AO2
14926KSTC STC20020916212009909/16/02 21:20:31  5-MIN KSTC 170320Z AUTO 18005KT 10SM CLR 17/14 A2991 1030 86 1500 170/05 RMK AO2
14926KSTC STC20020916212509909/16/02 21:25:31  5-MIN KSTC 170325Z AUTO 17004KT 10SM CLR 17/14 A2991 1030 86 1500 170/04 RMK AO2
14926KSTC STC20020916213009909/16/02 21:30:31  5-MIN KSTC 170330Z AUTO 17004KT 10SM CLR 17/14 A2991 1030 83 1600 170/04 RMK AO2
14926KSTC STC20020916213509909/16/02 21:35:31  5-MIN KSTC 170335Z AUTO 17004KT 10SM CLR 17/14 A2991 1030 80 1600 170/04 RMK AO2
14926KSTC STC20020916214009909/16/02 21:40:31  5-MIN KSTC 170340Z AUTO 17004KT 10SM CLR 17/14 A2991 1030 80 1600 170/04 RMK AO2
14926KSTC STC20020916214509909/16/02 21:45:31  5-MIN KSTC 170345Z AUTO 17004KT 10SM CLR 17/14 A2991 1030 83 1500 170/04 RMK AO2
14926KSTC STC20020916215011609/16/02 21:50:31  5-MIN KSTC 170350Z AUTO 17005KT 10SM CLR 16/14 A2991 1030 86 1400 170/05 RMK AO2 SLP135 T01610139
14926KSTC STC20020916215509909/16/02 21:55:31  5-MIN KSTC 170355Z AUTO 17005KT 10SM CLR 16/13 A2991 1030 83 1400 170/05 RMK AO2
14926KSTC STC20020916220009909/16/02 22:00:31  5-MIN KSTC 170400Z AUTO 17005KT 10SM CLR 16/13 A2991 1030 83 1400 170/05 RMK AO2
14926KSTC STC20020916220509909/16/02 22:05:31  5-MIN KSTC 170405Z AUTO 17005KT 10SM CLR 16/13 A2991 1030 83 1400 170/05 RMK AO2
14926KSTC STC20020916221009909/16/02 22:10:31  5-MIN KSTC 170410Z AUTO 17005KT 10SM CLR 16/13 A2991 1030 83 1400 170/05 RMK AO2
14926KSTC STC20020916221509909/16/02 22:15:31  5-MIN KSTC 170415Z AUTO 17004KT 10SM CLR 16/13 A2991 1030 83 1400 160/04 RMK AO2
14926KSTC STC20020916222009909/16/02 22:20:31  5-MIN KSTC 170420Z AUTO 17005KT 10SM CLR 16/13 A2991 1040 83 1400 170/05 RMK AO2
14926KSTC STC20020916222509909/16/02 22:25:31  5-MIN KSTC 170425Z AUTO 17005KT 10SM CLR 16/13 A2991 1040 86 1400 170/05 RMK AO2
14926KSTC STC20020916223009909/16/02 22:30:31  5-MIN KSTC 170430Z AUTO 17005KT 10SM CLR 16/13 A2991 1040 86 1400 170/05 RMK AO2
14926KSTC STC20020916223509909/16/02 22:35:31  5-MIN KSTC 170435Z AUTO 17005KT 10SM CLR 16/13 A2991 1040 86 1400 170/05 RMK AO2
14926KSTC STC20020916224009909/16/02 22:40:31  5-MIN KSTC 170440Z AUTO 18004KT 10SM CLR 16/13 A2991 1040 83 1400 170/04 RMK AO2
14926KSTC STC20020916224509909/16/02 22:45:31  5-MIN KSTC 170445Z AUTO 18004KT 10SM CLR 16/13 A2991 1040 83 1400 170/04 RMK AO2
14926KSTC STC20020916225011609/16/02 22:50:31  5-MIN KSTC 170450Z AUTO 17004KT 10SM CLR 16/13 A2991 1040 80 1400 170/04 RMK AO2 SLP133 T01610128
14926KSTC STC20020916225509909/16/02 22:55:31  5-MIN KSTC 170455Z AUTO 17004KT 10SM CLR 16/13 A2991 1040 80 1500 170/04 RMK AO2
14926KSTC STC20020916230009909/16/02 23:00:31  5-MIN KSTC 170500Z AUTO 17004KT 10SM CLR 16/13 A2991 1040 80 1500 170/04 RMK AO2
14926KSTC STC20020916230509909/16/02 23:05:31  5-MIN KSTC 170505Z AUTO 17005KT 10SM CLR 16/13 A2991 1040 83 1400 170/05 RMK AO2
14926KSTC STC20020916231009909/16/02 23:10:31  5-MIN KSTC 170510Z AUTO 17004KT 10SM CLR 15/12 A2991 1040 83 1300 170/04 RMK AO2
14926KSTC STC20020916231509909/16/02 23:15:31  5-MIN KSTC 170515Z AUTO 17004KT 10SM CLR 15/12 A2991 1040 83 1300 170/04 RMK AO2
14926KSTC STC20020916232009909/16/02 23:20:31  5-MIN KSTC 170520Z AUTO 18004KT 10SM CLR 16/12 A2991 1040 80 1400 180/04 RMK AO2
14926KSTC STC20020916232509909/16/02 23:25:31  5-MIN KSTC 170525Z AUTO 18004KT 10SM CLR 16/12 A2991 1040 80 1400 180/04 RMK AO2
14926KSTC STC20020916233009909/16/02 23:30:31  5-MIN KSTC 170530Z AUTO 19004KT 10SM CLR 15/12 A2991 1040 80 1300 180/04 RMK AO2
14926KSTC STC20020916233509909/16/02 23:35:31  5-MIN KSTC 170535Z AUTO 19004KT 10SM CLR 15/12 A2991 1040 80 1300 190/04 RMK AO2
14926KSTC STC20020916234009909/16/02 23:40:31  5-MIN KSTC 170540Z AUTO 19005KT 10SM CLR 15/12 A2991 1040 80 1300 180/05 RMK AO2
14926KSTC STC20020916234509909/16/02 23:45:31  5-MIN KSTC 170545Z AUTO 18004KT 10SM CLR 15/12 A2991 1040 80 1300 180/04 RMK AO2
14926KSTC STC20020916235014409/16/02 23:50:31  5-MIN KSTC 170550Z AUTO 19004KT 10SM CLR 15/12 A2991 1040 80 1300 180/04 RMK AO2 SLP132 T01500117 10250 20150 402830094 51008
14926KSTC STC20020916235509909/16/02 23:55:31  5-MIN KSTC 170555Z AUTO 19004KT 10SM CLR 15/12 A2991 1040 80 1300 190/04 RMK AO2
14926KSTC STC20020917000009909/17/02 00:00:31  5-MIN KSTC 170600Z AUTO 20004KT 10SM CLR 16/12 A2991 1040 77 1400 190/04 RMK AO2
14926KSTC STC20020917000509909/17/02 00:05:31  5-MIN KSTC 170605Z AUTO 20003KT 10SM CLR 16/12 A2991 1040 77 1400 190/03 RMK AO2
14926KSTC STC20020917001009909/17/02 00:10:31  5-MIN KSTC 170610Z AUTO 19003KT 10SM CLR 16/12 A2991 1040 77 1400 180/03 RMK AO2
14926KSTC STC20020917001509909/17/02 00:15:31  5-MIN KSTC 170615Z AUTO 18003KT 10SM CLR 15/12 A2991 1040 80 1300 170/03 RMK AO2
14926KSTC STC20020917002009909/17/02 00:20:31  5-MIN KSTC 170620Z AUTO 17003KT 10SM CLR 16/12 A2991 1040 80 1400 170/03 RMK AO2
14926KSTC STC20020917002509909/17/02 00:25:31  5-MIN KSTC 170625Z AUTO 17003KT 10SM CLR 16/12 A2991 1040 80 1400 170/03 RMK AO2
14926KSTC STC20020917003009909/17/02 00:30:31  5-MIN KSTC 170630Z AUTO 17003KT 10SM CLR 15/12 A2990 1040 83 1300 160/03 RMK AO2
14926KSTC STC20020917003509909/17/02 00:35:31  5-MIN KSTC 170635Z AUTO 16004KT 10SM CLR 15/12 A2991 1040 83 1300 160/04 RMK AO2
14926KSTC STC20020917004009909/17/02 00:40:31  5-MIN KSTC 170640Z AUTO 16003KT 10SM CLR 15/12 A2991 1040 83 1300 160/03 RMK AO2
14926KSTC STC20020917004509909/17/02 00:45:31  5-MIN KSTC 170645Z AUTO 16004KT 10SM CLR 14/12 A2991 1040 86 1300 150/04 RMK AO2
14926KSTC STC20020917005011609/17/02 00:50:31  5-MIN KSTC 170650Z AUTO 17004KT 10SM CLR 14/12 A2991 1040 90 1200 160/04 RMK AO2 SLP132 T01390122
14926KSTC STC20020917005509909/17/02 00:55:31  5-MIN KSTC 170655Z AUTO 17004KT 10SM CLR 13/12 A2991 1040 89 1100 160/04 RMK AO2
14926KSTC STC20020917010009909/17/02 01:00:31  5-MIN KSTC 170700Z AUTO 17004KT 10SM CLR 13/12 A2991 1040 89 1100 170/04 RMK AO2
14926KSTC STC20020917010509909/17/02 01:05:31  5-MIN KSTC 170705Z AUTO 17003KT 10SM CLR 13/11 A2991 1040 89 1100 170/03 RMK AO2
14926KSTC STC20020917011009909/17/02 01:10:31  5-MIN KSTC 170710Z AUTO 16003KT 10SM CLR 13/12 A2991 1030 93 1100 160/03 RMK AO2
14926KSTC STC20020917011509909/17/02 01:15:31  5-MIN KSTC 170715Z AUTO 16003KT 10SM CLR 13/12 A2991 1030 89 1100 150/03 RMK AO2
14926KSTC STC20020917012009909/17/02 01:20:31  5-MIN KSTC 170720Z AUTO 15003KT 10SM CLR 13/11 A2991 1030 89 1100 150/03 RMK AO2
14926KSTC STC20020917012509909/17/02 01:25:31  5-MIN KSTC 170725Z AUTO 15003KT 10SM CLR 13/12 A2991 1030 93 1100 150/03 RMK AO2
14926KSTC STC20020917013009909/17/02 01:30:31  5-MIN KSTC 170730Z AUTO 00000KT 10SM CLR 12/12 A2991 1030 96 1000 000/00 RMK AO2
14926KSTC STC20020917013509909/17/02 01:35:31  5-MIN KSTC 170735Z AUTO 14003KT 10SM CLR 13/12 A2991 1030 93 1100 140/03 RMK AO2
14926KSTC STC20020917014009909/17/02 01:40:31  5-MIN KSTC 170740Z AUTO 15003KT 10SM CLR 12/12 A2991 1030 96 1000 140/03 RMK AO2
14926KSTC STC20020917014509909/17/02 01:45:31  5-MIN KSTC 170745Z AUTO 16003KT 10SM CLR 12/12 A2992 1030 96 1000 150/03 RMK AO2
14926KSTC STC20020917015011609/17/02 01:50:31  5-MIN KSTC 170750Z AUTO 15003KT 10SM CLR 12/11 A2992 1030 93 1000 150/03 RMK AO2 SLP135 T01220111
14926KSTC STC20020917015509909/17/02 01:55:31  5-MIN KSTC 170755Z AUTO 16004KT 10SM CLR 12/12 A2992 1030 96 1000 150/04 RMK AO2
14926KSTC STC20020917020009909/17/02 02:00:31  5-MIN KSTC 170800Z AUTO 16004KT 10SM CLR 12/12 A2992 1030 96 1000 150/04 RMK AO2
14926KSTC STC20020917020509809/17/02 02:05:31  5-MIN KSTC 170805Z AUTO 16004KT 10SM CLR 12/11 A2992 1030 96 900 160/04 RMK AO2
14926KSTC STC20020917021009909/17/02 02:10:31  5-MIN KSTC 170810Z AUTO 17004KT 10SM CLR 12/11 A2992 1030 93 1000 160/04 RMK AO2
14926KSTC STC20020917021509809/17/02 02:15:31  5-MIN KSTC 170815Z AUTO 16003KT 10SM CLR 12/11 A2992 1030 96 900 160/03 RMK AO2
14926KSTC STC20020917022009909/17/02 02:20:31  5-MIN KSTC 170820Z AUTO 16003KT 10SM CLR 12/11 A2992 1030 93 1000 150/03 RMK AO2
14926KSTC STC20020917022509909/17/02 02:25:31  5-MIN KSTC 170825Z AUTO 16003KT 10SM CLR 13/11 A2992 1030 89 1000 160/03 RMK AO2
14926KSTC STC20020917023009909/17/02 02:30:31  5-MIN KSTC 170830Z AUTO 15003KT 10SM CLR 12/11 A2992 1030 93 1000 140/03 RMK AO2
14926KSTC STC20020917023509809/17/02 02:35:31  5-MIN KSTC 170835Z AUTO 14003KT 10SM CLR 12/11 A2991 1030 96 900 130/03 RMK AO2
14926KSTC STC20020917024009809/17/02 02:40:31  5-MIN KSTC 170840Z AUTO 13003KT 10SM CLR 12/11 A2991 1030 96 900 130/03 RMK AO2
14926KSTC STC20020917024509809/17/02 02:45:31  5-MIN KSTC 170845Z AUTO 14003KT 10SM CLR 12/11 A2991 1030 96 900 130/03 RMK AO2
14926KSTC STC20020917025012109/17/02 02:50:31  5-MIN KSTC 170850Z AUTO 00000KT 10SM CLR 12/11 A2991 1030 96 900 000/00 RMK AO2 SLP134 T01170111 58001
14926KSTC STC20020917025509909/17/02 02:55:31  5-MIN KSTC 170855Z AUTO 00000KT 10SM CLR 11/11 A2991 1030 100 800 000/00 RMK AO2
14926KSTC STC20020917030009809/17/02 03:00:31  5-MIN KSTC 170900Z AUTO 13003KT 10SM CLR 12/11 A2991 1030 96 900 130/03 RMK AO2
14926KSTC STC20020917030509809/17/02 03:05:31  5-MIN KSTC 170905Z AUTO 14003KT 10SM CLR 11/11 A2991 1030 96 900 130/03 RMK AO2
14926KSTC STC20020917031009909/17/02 03:10:31  5-MIN KSTC 170910Z AUTO 14003KT 10SM CLR 11/11 A2991 1030 100 800 140/03 RMK AO2
14926KSTC STC20020917031509809/17/02 03:15:31  5-MIN KSTC 170915Z AUTO 14004KT 10SM CLR 11/11 A2991 1030 96 900 140/04 RMK AO2
14926KSTC STC20020917032009809/17/02 03:20:31  5-MIN KSTC 170920Z AUTO 14004KT 10SM CLR 11/11 A2991 1040 96 900 140/04 RMK AO2
14926KSTC STC20020917032509809/17/02 03:25:31  5-MIN KSTC 170925Z AUTO 14004KT 10SM CLR 11/11 A2991 1040 96 900 140/04 RMK AO2
14926KSTC STC20020917033009809/17/02 03:30:31  5-MIN KSTC 170930Z AUTO 14004KT 10SM CLR 11/10 A2991 1040 96 800 140/04 RMK AO2
14926KSTC STC20020917033509809/17/02 03:35:31  5-MIN KSTC 170935Z AUTO 14004KT 10SM CLR 11/10 A2991 1040 96 800 140/04 RMK AO2
14926KSTC STC20020917034009809/17/02 03:40:31  5-MIN KSTC 170940Z AUTO 14004KT 10SM CLR 11/10 A2991 1040 93 900 130/04 RMK AO2
14926KSTC STC20020917034509909/17/02 03:45:31  5-MIN KSTC 170945Z AUTO 15005KT 10SM CLR 12/11 A2991 1040 89 1000 140/05 RMK AO2
14926KSTC STC20020917035011609/17/02 03:50:31  5-MIN KSTC 170950Z AUTO 14004KT 10SM CLR 12/11 A2991 1040 89 1000 140/04 RMK AO2 SLP132 T01220106
14926KSTC STC20020917035509809/17/02 03:55:31  5-MIN KSTC 170955Z AUTO 14003KT 10SM CLR 11/10 A2991 1040 93 900 130/03 RMK AO2
14926KSTC STC20020917040009809/17/02 04:00:31  5-MIN KSTC 171000Z AUTO 13003KT 10SM CLR 11/10 A2991 1040 96 800 130/03 RMK AO2
14926KSTC STC20020917040509809/17/02 04:05:31  5-MIN KSTC 171005Z AUTO 00000KT 10SM CLR 11/10 A2991 1040 96 800 000/00 RMK AO2
14926KSTC STC20020917041009809/17/02 04:10:31  5-MIN KSTC 171010Z AUTO 13003KT 10SM CLR 11/10 A2990 1040 96 800 130/03 RMK AO2
14926KSTC STC20020917041509809/17/02 04:15:31  5-MIN KSTC 171015Z AUTO 12003KT 10SM CLR 10/09 A2990 1040 96 700 120/03 RMK AO2
14926KSTC STC20020917042009809/17/02 04:20:31  5-MIN KSTC 171020Z AUTO 11003KT 10SM CLR 10/09 A2990 1040 96 700 110/03 RMK AO2
14926KSTC STC20020917042509909/17/02 04:25:31  5-MIN KSTC 171025Z AUTO 12003KT 10SM CLR 10/10 A2990 1040 100 700 120/03 RMK AO2
14926KSTC STC20020917043009909/17/02 04:30:31  5-MIN KSTC 171030Z AUTO 12003KT 10SM CLR 10/10 A2990 1040 100 700 110/03 RMK AO2
14926KSTC STC20020917043509809/17/02 04:35:31  5-MIN KSTC 171035Z AUTO 12004KT 10SM CLR 11/10 A2990 1040 96 800 120/04 RMK AO2
14926KSTC STC20020917044009809/17/02 04:40:31  5-MIN KSTC 171040Z AUTO 12003KT 10SM CLR 11/10 A2990 1040 93 900 120/03 RMK AO2
14926KSTC STC20020917044509809/17/02 04:45:31  5-MIN KSTC 171045Z AUTO 00000KT 10SM CLR 11/10 A2990 1040 96 800 000/00 RMK AO2
14926KSTC STC20020917045011509/17/02 04:50:31  5-MIN KSTC 171050Z AUTO 13003KT 10SM CLR 10/09 A2990 1040 96 700 120/03 RMK AO2 SLP132 T01000094
14926KSTC STC20020917045509809/17/02 04:55:31  5-MIN KSTC 171055Z AUTO 14004KT 10SM CLR 10/09 A2990 1040 96 700 140/04 RMK AO2
14926KSTC STC20020917050009809/17/02 05:00:31  5-MIN KSTC 171100Z AUTO 13003KT 10SM CLR 10/09 A2990 1040 96 700 120/03 RMK AO2
14926KSTC STC20020917050509809/17/02 05:05:31  5-MIN KSTC 171105Z AUTO 13004KT 10SM CLR 11/09 A2990 1040 93 800 130/04 RMK AO2
14926KSTC STC20020917051009809/17/02 05:10:31  5-MIN KSTC 171110Z AUTO 12004KT 10SM CLR 11/10 A2990 1040 96 800 120/04 RMK AO2
14926KSTC STC20020917051509809/17/02 05:15:31  5-MIN KSTC 171115Z AUTO 13004KT 10SM CLR 12/11 A2990 1050 93 900 130/04 RMK AO2
14926KSTC STC20020917052009809/17/02 05:20:31  5-MIN KSTC 171120Z AUTO 14005KT 10SM CLR 12/11 A2990 1050 93 900 130/05 RMK AO2
14926KSTC STC20020917052509809/17/02 05:25:31  5-MIN KSTC 171125Z AUTO 13004KT 10SM CLR 12/11 A2990 1040 93 900 130/04 RMK AO2
14926KSTC STC20020917053009809/17/02 05:30:31  5-MIN KSTC 171130Z AUTO 14004KT 10SM CLR 11/10 A2990 1040 93 900 130/04 RMK AO2
14926KSTC STC20020917053509809/17/02 05:35:31  5-MIN KSTC 171135Z AUTO 14004KT 10SM CLR 11/10 A2990 1040 93 900 140/04 RMK AO2
14926KSTC STC20020917054009809/17/02 05:40:31  5-MIN KSTC 171140Z AUTO 14004KT 10SM CLR 10/09 A2990 1040 96 700 130/04 RMK AO2
14926KSTC STC20020917054509809/17/02 05:45:31  5-MIN KSTC 171145Z AUTO 13005KT 10SM CLR 11/09 A2990 1040 93 800 130/05 RMK AO2
14926KSTC STC20020917055013309/17/02 05:50:31  5-MIN KSTC 171150Z AUTO 14005KT 10SM CLR 11/10 A2991 1040 93 900 140/05 RMK AO2 SLP133 T01110100 10156 20100 50002
14926KSTC STC20020917055509809/17/02 05:55:31  5-MIN KSTC 171155Z AUTO 14005KT 10SM CLR 11/10 A2991 1040 96 800 140/05 RMK AO2
14926KSTC STC20020917060009809/17/02 06:00:31  5-MIN KSTC 171200Z AUTO 14005KT 10SM CLR 11/09 A2991 1040 93 800 130/05 RMK AO2
14926KSTC STC20020917060509809/17/02 06:05:31  5-MIN KSTC 171205Z AUTO 14006KT 10SM CLR 11/10 A2991 1040 96 800 130/06 RMK AO2
14926KSTC STC20020917061009809/17/02 06:10:31  5-MIN KSTC 171210Z AUTO 14006KT 10SM CLR 11/10 A2991 1040 93 900 140/06 RMK AO2
14926KSTC STC20020917061509809/17/02 06:15:31  5-MIN KSTC 171215Z AUTO 14006KT 10SM CLR 11/10 A2991 1030 96 800 140/06 RMK AO2
14926KSTC STC20020917062009809/17/02 06:20:31  5-MIN KSTC 171220Z AUTO 14006KT 10SM CLR 11/10 A2991 1030 96 800 140/06 RMK AO2
14926KSTC STC20020917062509809/17/02 06:25:31  5-MIN KSTC 171225Z AUTO 14007KT 10SM CLR 11/10 A2991 1030 96 800 140/07 RMK AO2
14926KSTC STC20020917063009809/17/02 06:30:31  5-MIN KSTC 171230Z AUTO 14007KT 10SM CLR 11/11 A2991 1030 96 900 140/07 RMK AO2
14926KSTC STC20020917063509809/17/02 06:35:31  5-MIN KSTC 171235Z AUTO 14007KT 10SM CLR 12/11 A2991 1030 93 900 140/07 RMK AO2
14926KSTC STC20020917064009809/17/02 06:40:31  5-MIN KSTC 171240Z AUTO 15007KT 10SM CLR 12/11 A2991 1030 93 900 140/07 RMK AO2
14926KSTC STC20020917064509809/17/02 06:45:31  5-MIN KSTC 171245Z AUTO 15007KT 10SM CLR 12/11 A2991 1030 93 900 150/07 RMK AO2
14926KSTC STC20020917065011609/17/02 06:50:31  5-MIN KSTC 171250Z AUTO 15007KT 10SM CLR 12/11 A2991 1030 93 1000 140/07 RMK AO2 SLP137 T01220111
14926KSTC STC20020917065509909/17/02 06:55:31  5-MIN KSTC 171255Z AUTO 15007KT 10SM CLR 12/11 A2991 1030 93 1000 150/07 RMK AO2
14926KSTC STC20020917070009909/17/02 07:00:31  5-MIN KSTC 171300Z AUTO 15007KT 10SM CLR 13/11 A2991 1030 89 1100 150/07 RMK AO2
14926KSTC STC20020917070509909/17/02 07:05:31  5-MIN KSTC 171305Z AUTO 15007KT 10SM CLR 13/12 A2991 1030 89 1100 150/07 RMK AO2
14926KSTC STC20020917071009909/17/02 07:10:31  5-MIN KSTC 171310Z AUTO 15008KT 10SM CLR 13/12 A2991 1030 89 1100 150/08 RMK AO2
14926KSTC STC20020917071509909/17/02 07:15:31  5-MIN KSTC 171315Z AUTO 15007KT 10SM CLR 14/12 A2991 1030 86 1200 150/07 RMK AO2
14926KSTC STC20020917072009909/17/02 07:20:31  5-MIN KSTC 171320Z AUTO 15008KT 10SM CLR 14/12 A2991 1040 86 1200 150/08 RMK AO2
14926KSTC STC20020917072509909/17/02 07:25:31  5-MIN KSTC 171325Z AUTO 15008KT 10SM CLR 14/12 A2991 1040 86 1200 150/08 RMK AO2
14926KSTC STC20020917073009909/17/02 07:30:31  5-MIN KSTC 171330Z AUTO 16007KT 10SM CLR 14/12 A2991 1040 86 1300 150/07 RMK AO2
14926KSTC STC20020917073509909/17/02 07:35:31  5-MIN KSTC 171335Z AUTO 16006KT 10SM CLR 14/12 A2991 1040 86 1300 150/06 RMK AO2
14926KSTC STC20020917074009909/17/02 07:40:31  5-MIN KSTC 171340Z AUTO 16006KT 10SM CLR 15/12 A2991 1030 83 1300 160/06 RMK AO2
14926KSTC STC20020917074509909/17/02 07:45:31  5-MIN KSTC 171345Z AUTO 16007KT 10SM CLR 16/12 A2991 1030 80 1400 160/07 RMK AO2
14926KSTC STC20020917075011609/17/02 07:50:31  5-MIN KSTC 171350Z AUTO 17007KT 10SM CLR 16/12 A2991 1030 77 1400 160/07 RMK AO2 SLP137 T01560117
14926KSTC STC20020917075509909/17/02 07:55:31  5-MIN KSTC 171355Z AUTO 17007KT 10SM CLR 16/12 A2991 1030 75 1400 160/07 RMK AO2
14926KSTC STC20020917080009909/17/02 08:00:31  5-MIN KSTC 171400Z AUTO 16008KT 10SM CLR 16/12 A2991 1030 75 1400 160/08 RMK AO2
14926KSTC STC20020917080509909/17/02 08:05:31  5-MIN KSTC 171405Z AUTO 17008KT 10SM CLR 17/12 A2991 1030 72 1500 160/08 RMK AO2
14926KSTC STC20020917081009909/17/02 08:10:31  5-MIN KSTC 171410Z AUTO 16007KT 10SM CLR 17/12 A2991 1030 75 1500 160/07 RMK AO2
14926KSTC STC20020917081509909/17/02 08:15:31  5-MIN KSTC 171415Z AUTO 16007KT 10SM CLR 17/12 A2991 1040 69 1600 160/07 RMK AO2
14926KSTC STC20020917082009909/17/02 08:20:31  5-MIN KSTC 171420Z AUTO 15007KT 10SM CLR 17/12 A2991 1030 72 1600 150/07 RMK AO2
14926KSTC STC20020917082509909/17/02 08:25:31  5-MIN KSTC 171425Z AUTO 18007KT 10SM CLR 18/12 A2991 1030 69 1600 170/07 RMK AO2
14926KSTC STC20020917083009909/17/02 08:30:31  5-MIN KSTC 171430Z AUTO 16008KT 10SM CLR 18/12 A2991 1030 67 1600 160/08 RMK AO2
14926KSTC STC20020917083509909/17/02 08:35:31  5-MIN KSTC 171435Z AUTO 18007KT 10SM CLR 18/12 A2991 1030 65 1700 170/07 RMK AO2
14926KSTC STC20020917084009909/17/02 08:40:31  5-MIN KSTC 171440Z AUTO 17007KT 10SM CLR 19/12 A2991 1030 65 1800 170/07 RMK AO2
14926KSTC STC20020917084509909/17/02 08:45:31  5-MIN KSTC 171445Z AUTO 17006KT 10SM CLR 19/12 A2991 1040 62 1800 170/06 RMK AO2
14926KSTC STC20020917085012209/17/02 08:50:31  5-MIN KSTC 171450Z AUTO 17007KT 10SM CLR 19/12 A2991 1040 62 1800 170/07 RMK AO2 SLP135 T01940122 55002
14926KSTC STC20020917085509909/17/02 08:55:31  5-MIN KSTC 171455Z AUTO 17007KT 10SM CLR 19/12 A2991 1040 62 1800 170/07 RMK AO2
14926KSTC STC20020917090009909/17/02 09:00:31  5-MIN KSTC 171500Z AUTO 18008KT 10SM CLR 19/12 A2991 1040 62 1800 180/08 RMK AO2
14926KSTC STC20020917090509909/17/02 09:05:31  5-MIN KSTC 171505Z AUTO 18007KT 10SM CLR 20/12 A2991 1040 60 1900 170/07 RMK AO2
14926KSTC STC20020917091009909/17/02 09:10:31  5-MIN KSTC 171510Z AUTO 18008KT 10SM CLR 21/13 A2991 1040 60 2000 170/08 RMK AO2
14926KSTC STC20020917091509909/17/02 09:15:31  5-MIN KSTC 171515Z AUTO 18007KT 10SM CLR 21/13 A2990 1040 60 2000 170/07 RMK AO2
14926KSTC STC20020917092009909/17/02 09:20:31  5-MIN KSTC 171520Z AUTO 17011KT 10SM CLR 21/12 A2990 1040 58 2000 170/11 RMK AO2
14926KSTC STC20020917092509909/17/02 09:25:31  5-MIN KSTC 171525Z AUTO 17010KT 10SM CLR 21/12 A2990 1040 58 2000 170/10 RMK AO2
14926KSTC STC20020917093009909/17/02 09:30:31  5-MIN KSTC 171530Z AUTO 17009KT 10SM CLR 21/12 A2990 1040 56 2000 160/09 RMK AO2
14926KSTC STC20020917093509909/17/02 09:35:31  5-MIN KSTC 171535Z AUTO 17010KT 10SM CLR 21/12 A2990 1050 56 2000 170/10 RMK AO2
14926KSTC STC20020917094009909/17/02 09:40:31  5-MIN KSTC 171540Z AUTO 18010KT 10SM CLR 21/12 A2990 1050 56 2000 180/10 RMK AO2
14926KSTC STC20020917094509909/17/02 09:45:31  5-MIN KSTC 171545Z AUTO 17010KT 10SM CLR 22/12 A2990 1050 54 2100 170/10 RMK AO2
14926KSTC STC20020917095011609/17/02 09:50:31  5-MIN KSTC 171550Z AUTO 16011KT 10SM CLR 22/12 A2990 1050 54 2100 160/11 RMK AO2 SLP129 T02170122
14926KSTC STC20020917095509909/17/02 09:55:31  5-MIN KSTC 171555Z AUTO 18012KT 10SM CLR 22/12 A2989 1050 51 2200 180/12 RMK AO2
14926KSTC STC20020917100009909/17/02 10:00:31  5-MIN KSTC 171600Z AUTO 18012KT 10SM CLR 22/12 A2989 1050 52 2200 180/12 RMK AO2
14926KSTC STC20020917100509909/17/02 10:05:31  5-MIN KSTC 171605Z AUTO 17010KT 10SM CLR 23/12 A2989 1050 51 2200 170/10 RMK AO2
14926KSTC STC20020917101009909/17/02 10:10:31  5-MIN KSTC 171610Z AUTO 18013KT 10SM CLR 22/12 A2989 1050 52 2200 170/13 RMK AO2
14926KSTC STC20020917101509909/17/02 10:15:31  5-MIN KSTC 171615Z AUTO 17011KT 10SM CLR 23/12 A2989 1050 49 2200 170/11 RMK AO2
14926KSTC STC20020917102010509/17/02 10:20:31  5-MIN KSTC 171620Z AUTO 19011G17KT 10SM CLR 23/12 A2989 1050 49 2200 180/11G17 RMK AO2
14926KSTC STC20020917102510509/17/02 10:25:31  5-MIN KSTC 171625Z AUTO 18014G17KT 10SM CLR 23/12 A2989 1050 51 2200 170/14G17 RMK AO2
14926KSTC STC20020917103009909/17/02 10:30:31  5-MIN KSTC 171630Z AUTO 18012KT 10SM CLR 23/12 A2989 1060 49 2200 180/12 RMK AO2
14926KSTC STC20020917103509909/17/02 10:35:31  5-MIN KSTC 171635Z AUTO 17014KT 10SM CLR 23/12 A2989 1060 47 2300 160/14 RMK AO2
14926KSTC STC20020917104010509/17/02 10:40:31  5-MIN KSTC 171640Z AUTO 16014G19KT 10SM CLR 23/12 A2988 1060 49 2200 160/14G19 RMK AO2
14926KSTC STC20020917104509909/17/02 10:45:31  5-MIN KSTC 171645Z AUTO 18013KT 10SM CLR 23/12 A2988 1060 47 2300 180/13 RMK AO2
14926KSTC STC20020917105011609/17/02 10:50:31  5-MIN KSTC 171650Z AUTO 19015KT 10SM CLR 23/12 A2988 1070 47 2300 180/15 RMK AO2 SLP123 T02330117
14926KSTC STC20020917105510509/17/02 10:55:31  5-MIN KSTC 171655Z AUTO 19013G19KT 10SM CLR 23/12 A2988 1060 47 2300 180/13G19 RMK AO2
14926KSTC STC20020917110010509/17/02 11:00:31  5-MIN KSTC 171700Z AUTO 17013G19KT 10SM CLR 24/12 A2988 1060 47 2400 170/13G19 RMK AO2
14926KSTC STC20020917110509909/17/02 11:05:31  5-MIN KSTC 171705Z AUTO 17016KT 10SM CLR 24/12 A2988 1070 46 2400 170/16 RMK AO2
14926KSTC STC20020917111009909/17/02 11:10:31  5-MIN KSTC 171710Z AUTO 17012KT 10SM CLR 24/12 A2988 1070 46 2400 160/12 RMK AO2
14926KSTC STC20020917111510509/17/02 11:15:31  5-MIN KSTC 171715Z AUTO 17015G19KT 10SM CLR 24/12 A2987 1070 47 2400 170/15G19 RMK AO2
14926KSTC STC20020917112010509/17/02 11:20:31  5-MIN KSTC 171720Z AUTO 17013G19KT 10SM CLR 24/12 A2987 1070 46 2400 170/13G19 RMK AO2
14926KSTC STC20020917112509909/17/02 11:25:31  5-MIN KSTC 171725Z AUTO 17012KT 10SM CLR 24/12 A2987 1070 47 2400 170/12 RMK AO2
14926KSTC STC20020917113009909/17/02 11:30:31  5-MIN KSTC 171730Z AUTO 18012KT 10SM CLR 25/13 A2987 1070 46 2500 180/12 RMK AO2
14926KSTC STC20020917113509909/17/02 11:35:31  5-MIN KSTC 171735Z AUTO 18012KT 10SM CLR 24/13 A2987 1070 47 2500 170/12 RMK AO2
14926KSTC STC20020917114010509/17/02 11:40:31  5-MIN KSTC 171740Z AUTO 17016G21KT 10SM CLR 24/12 A2987 1080 46 2500 170/16G21 RMK AO2
14926KSTC STC20020917114510509/17/02 11:45:31  5-MIN KSTC 171745Z AUTO 17013G21KT 10SM CLR 25/13 A2987 1080 46 2500 170/13G21 RMK AO2
14926KSTC STC20020917115014009/17/02 11:50:31  5-MIN KSTC 171750Z AUTO 18013G18KT 10SM CLR 25/13 A2986 1080 46 2500 180/13G18 RMK AO2 SLP117 T02500128 10250 20106 50001
14926KSTC STC20020917115510509/17/02 11:55:31  5-MIN KSTC 171755Z AUTO 17014G18KT 10SM CLR 25/13 A2986 1080 46 2500 170/14G18 RMK AO2
14926KSTC STC20020917120009909/17/02 12:00:31  5-MIN KSTC 171800Z AUTO 17013KT 10SM CLR 25/12 A2986 1080 44 2500 170/13 RMK AO2
14926KSTC STC20020917120509909/17/02 12:05:31  5-MIN KSTC 171805Z AUTO 18013KT 10SM CLR 25/12 A2986 1080 44 2500 180/13 RMK AO2
14926KSTC STC20020917121010509/17/02 12:10:31  5-MIN KSTC 171810Z AUTO 19013G23KT 10SM CLR 25/12 A2986 1080 44 2500 190/13G23 RMK AO2
14926KSTC STC20020917121510509/17/02 12:15:31  5-MIN KSTC 171815Z AUTO 18014G23KT 10SM CLR 25/12 A2986 1080 44 2500 180/14G23 RMK AO2
14926KSTC STC20020917122010509/17/02 12:20:31  5-MIN KSTC 171820Z AUTO 17016G20KT 10SM CLR 25/12 A2986 1090 44 2500 170/16G20 RMK AO2
14926KSTC STC20020917122509909/17/02 12:25:31  5-MIN KSTC 171825Z AUTO 17013KT 10SM CLR 25/12 A2985 1090 44 2500 170/13 RMK AO2
14926KSTC STC20020917123010509/17/02 12:30:31  5-MIN KSTC 171830Z AUTO 18014G20KT 10SM CLR 25/12 A2985 1090 44 2500 170/14G20 RMK AO2
14926KSTC STC20020917123510509/17/02 12:35:31  5-MIN KSTC 171835Z AUTO 17013G20KT 10SM CLR 26/12 A2985 1090 43 2600 170/13G20 RMK AO2
14926KSTC STC20020917124010509/17/02 12:40:31  5-MIN KSTC 171840Z AUTO 16013G18KT 10SM CLR 26/12 A2985 1090 43 2600 160/13G18 RMK AO2
14926KSTC STC20020917124510509/17/02 12:45:31  5-MIN KSTC 171845Z AUTO 18013G21KT 10SM CLR 26/12 A2985 1100 43 2600 170/13G21 RMK AO2
14926KSTC STC20020917125012209/17/02 12:50:31  5-MIN KSTC 171850Z AUTO 17016G21KT 10SM CLR 26/12 A2984 1100 43 2600 170/16G21 RMK AO2 SLP110 T02560122
14926KSTC STC20020917125509909/17/02 12:55:31  5-MIN KSTC 171855Z AUTO 19014KT 10SM CLR 26/12 A2984 1100 43 2600 180/14 RMK AO2
14926KSTC STC20020917130010509/17/02 13:00:31  5-MIN KSTC 171900Z AUTO 18014G18KT 10SM CLR 25/12 A2984 1100 44 2500 170/14G18 RMK AO2
14926KSTC STC20020917130510509/17/02 13:05:31  5-MIN KSTC 171905Z AUTO 17011G18KT 10SM CLR 25/12 A2984 1100 44 2500 170/11G18 RMK AO2
14926KSTC STC20020917131009909/17/02 13:10:31  5-MIN KSTC 171910Z AUTO 17014KT 10SM CLR 25/13 A2984 1100 46 2500 170/14 RMK AO2
14926KSTC STC20020917131509909/17/02 13:15:31  5-MIN KSTC 171915Z AUTO 17012KT 10SM CLR 25/12 A2984 1100 44 2500 170/12 RMK AO2
14926KSTC STC20020917132009909/17/02 13:20:31  5-MIN KSTC 171920Z AUTO 18011KT 10SM CLR 26/13 A2983 1110 44 2600 170/11 RMK AO2
14926KSTC STC20020917132509909/17/02 13:25:31  5-MIN KSTC 171925Z AUTO 16012KT 10SM CLR 26/13 A2983 1110 43 2700 160/12 RMK AO2
14926KSTC STC20020917133009909/17/02 13:30:31  5-MIN KSTC 171930Z AUTO 17014KT 10SM CLR 26/13 A2983 1110 43 2700 170/14 RMK AO2
14926KSTC STC20020917133510509/17/02 13:35:31  5-MIN KSTC 171935Z AUTO 17010G19KT 10SM CLR 26/13 A2982 1110 44 2600 160/10G19 RMK AO2
14926KSTC STC20020917134010509/17/02 13:40:31  5-MIN KSTC 171940Z AUTO 16018G22KT 10SM CLR 26/13 A2982 1120 44 2700 160/18G22 RMK AO2
14926KSTC STC20020917134510509/17/02 13:45:31  5-MIN KSTC 171945Z AUTO 16014G22KT 10SM CLR 26/13 A2982 1120 44 2600 160/14G22 RMK AO2
14926KSTC STC20020917135012209/17/02 13:50:31  5-MIN KSTC 171950Z AUTO 16013G21KT 10SM CLR 26/13 A2982 1120 43 2700 150/13G21 RMK AO2 SLP102 T02610128
14926KSTC STC20020917135509909/17/02 13:55:31  5-MIN KSTC 171955Z AUTO 17015KT 10SM CLR 26/13 A2982 1120 43 2700 160/15 RMK AO2
14926KSTC STC20020917140009909/17/02 14:00:31  5-MIN KSTC 172000Z AUTO 16017KT 10SM CLR 26/13 A2982 1120 44 2700 160/17 RMK AO2
14926KSTC STC20020917140510409/17/02 14:05:31  5-MIN KSTC 172005Z AUTO 18015G19KT 9SM CLR 26/13 A2981 1120 44 2600 180/15G19 RMK AO2
14926KSTC STC20020917141010409/17/02 14:10:31  5-MIN KSTC 172010Z AUTO 18013G18KT 9SM CLR 26/12 A2981 1130 43 2600 180/13G18 RMK AO2
14926KSTC STC20020917141510509/17/02 14:15:31  5-MIN KSTC 172015Z AUTO 16015G20KT 10SM CLR 26/13 A2981 1130 44 2600 160/15G20 RMK AO2
14926KSTC STC20020917142009909/17/02 14:20:31  5-MIN KSTC 172020Z AUTO 18014KT 10SM CLR 26/13 A2981 1130 44 2600 170/14 RMK AO2
14926KSTC STC20020917142510509/17/02 14:25:31  5-MIN KSTC 172025Z AUTO 18016G20KT 10SM CLR 26/13 A2981 1130 46 2600 170/16G20 RMK AO2
14926KSTC STC20020917143010509/17/02 14:30:31  5-MIN KSTC 172030Z AUTO 17014G20KT 10SM CLR 26/13 A2981 1130 46 2600 160/14G20 RMK AO2
14926KSTC STC20020917143509909/17/02 14:35:31  5-MIN KSTC 172035Z AUTO 16015KT 10SM CLR 26/13 A2980 1140 44 2700 160/15 RMK AO2
14926KSTC STC20020917144009909/17/02 14:40:31  5-MIN KSTC 172040Z AUTO 16015KT 10SM CLR 26/13 A2980 1140 46 2700 160/15 RMK AO2
14926KSTC STC20020917144509909/17/02 14:45:31  5-MIN KSTC 172045Z AUTO 16015KT 10SM CLR 25/13 A2980 1140 46 2600 160/15 RMK AO2
14926KSTC STC20020917145012209/17/02 14:50:31  5-MIN KSTC 172050Z AUTO 17012KT 10SM CLR 25/13 A2980 1140 46 2600 160/12 RMK AO2 SLP096 T02500128 57015
14926KSTC STC20020917145509909/17/02 14:55:31  5-MIN KSTC 172055Z AUTO 17012KT 10SM CLR 25/13 A2980 1140 48 2600 170/12 RMK AO2
14926KSTC STC20020917150009909/17/02 15:00:31  5-MIN KSTC 172100Z AUTO 17011KT 10SM CLR 25/13 A2979 1140 48 2600 170/11 RMK AO2
14926KSTC STC20020917150509909/17/02 15:05:31  5-MIN KSTC 172105Z AUTO 17009KT 10SM CLR 25/13 A2979 1150 48 2600 160/09 RMK AO2
14926KSTC STC20020917151009909/17/02 15:10:31  5-MIN KSTC 172110Z AUTO 16011KT 10SM CLR 25/13 A2979 1150 48 2600 150/11 RMK AO2
14926KSTC STC20020917151509909/17/02 15:15:31  5-MIN KSTC 172115Z AUTO 17010KT 10SM CLR 25/13 A2979 1150 48 2600 160/10 RMK AO2
14926KSTC STC20020917152010509/17/02 15:20:31  5-MIN KSTC 172120Z AUTO 15012G18KT 10SM CLR 25/13 A2979 1150 48 2600 150/12G18 RMK AO2
14926KSTC STC20020917152509909/17/02 15:25:31  5-MIN KSTC 172125Z AUTO 15012KT 10SM CLR 25/13 A2978 1150 48 2600 150/12 RMK AO2
14926KSTC STC20020917153010509/17/02 15:30:31  5-MIN KSTC 172130Z AUTO 17009G17KT 10SM CLR 25/14 A2978 1150 49 2600 170/09G17 RMK AO2
14926KSTC STC20020917153509909/17/02 15:35:31  5-MIN KSTC 172135Z AUTO 16014KT 10SM CLR 25/14 A2978 1160 49 2600 150/14 RMK AO2
14926KSTC STC20020917154009909/17/02 15:40:31  5-MIN KSTC 172140Z AUTO 16011KT 10SM CLR 25/14 A2978 1160 49 2600 150/11 RMK AO2
14926KSTC STC20020917154509909/17/02 15:45:31  5-MIN KSTC 172145Z AUTO 15013KT 10SM CLR 26/14 A2978 1160 48 2700 150/13 RMK AO2
14926KSTC STC20020917155011609/17/02 15:50:31  5-MIN KSTC 172150Z AUTO 15012KT 10SM CLR 26/14 A2978 1160 48 2700 150/12 RMK AO2 SLP088 T02560139
14926KSTC STC20020917155509909/17/02 15:55:31  5-MIN KSTC 172155Z AUTO 16012KT 10SM CLR 26/14 A2977 1170 48 2700 160/12 RMK AO2
14926KSTC STC20020917160009909/17/02 16:00:31  5-MIN KSTC 172200Z AUTO 16014KT 10SM CLR 25/14 A2977 1170 49 2600 160/14 RMK AO2
14926KSTC STC20020917160509909/17/02 16:05:31  5-MIN KSTC 172205Z AUTO 17013KT 10SM CLR 25/14 A2977 1170 49 2600 170/13 RMK AO2
14926KSTC STC20020917161009909/17/02 16:10:31  5-MIN KSTC 172210Z AUTO 16012KT 10SM CLR 25/14 A2977 1170 49 2600 160/12 RMK AO2
14926KSTC STC20020917161509909/17/02 16:15:31  5-MIN KSTC 172215Z AUTO 16013KT 10SM CLR 25/14 A2977 1170 49 2600 160/13 RMK AO2
14926KSTC STC20020917162009909/17/02 16:20:31  5-MIN KSTC 172220Z AUTO 16013KT 10SM CLR 24/14 A2977 1170 51 2600 150/13 RMK AO2
14926KSTC STC20020917162509909/17/02 16:25:31  5-MIN KSTC 172225Z AUTO 16011KT 10SM CLR 24/14 A2976 1170 51 2600 150/11 RMK AO2
14926KSTC STC20020917163009909/17/02 16:30:31  5-MIN KSTC 172230Z AUTO 16010KT 10SM CLR 24/14 A2976 1170 51 2600 150/10 RMK AO2
14926KSTC STC20020917163510509/17/02 16:35:31  5-MIN KSTC 172235Z AUTO 16012G16KT 10SM CLR 24/14 A2976 1170 51 2600 150/12G16 RMK AO2
14926KSTC STC20020917164010509/17/02 16:40:31  5-MIN KSTC 172240Z AUTO 16010G16KT 10SM CLR 24/14 A2976 1170 55 2500 160/10G16 RMK AO2
14926KSTC STC20020917164509909/17/02 16:45:31  5-MIN KSTC 172245Z AUTO 16012KT 10SM CLR 24/14 A2976 1170 53 2600 160/12 RMK AO2
14926KSTC STC20020917165011609/17/02 16:50:31  5-MIN KSTC 172250Z AUTO 17009KT 10SM CLR 24/14 A2976 1170 51 2600 160/09 RMK AO2 SLP085 T02440139
14926KSTC STC20020917165510509/17/02 16:55:31  5-MIN KSTC 172255Z AUTO 16012G19KT 10SM CLR 24/14 A2976 1170 53 2500 160/12G19 RMK AO2
14926KSTC STC20020917170010509/17/02 17:00:31  5-MIN KSTC 172300Z AUTO 16013G19KT 10SM CLR 24/14 A2976 1170 53 2500 160/13G19 RMK AO2
14926KSTC STC20020917170509909/17/02 17:05:31  5-MIN KSTC 172305Z AUTO 16012KT 10SM CLR 24/14 A2976 1170 53 2500 160/12 RMK AO2
14926KSTC STC20020917171009909/17/02 17:10:31  5-MIN KSTC 172310Z AUTO 15011KT 10SM CLR 24/14 A2976 1180 53 2500 150/11 RMK AO2
14926KSTC STC20020917171509909/17/02 17:15:31  5-MIN KSTC 172315Z AUTO 15011KT 10SM CLR 23/14 A2976 1180 57 2400 150/11 RMK AO2
14926KSTC STC20020917172009909/17/02 17:20:31  5-MIN KSTC 172320Z AUTO 15010KT 10SM CLR 23/14 A2976 1180 57 2500 150/10 RMK AO2
14926KSTC STC20020917172509909/17/02 17:25:31  5-MIN KSTC 172325Z AUTO 15009KT 10SM CLR 23/14 A2976 1180 57 2500 150/09 RMK AO2
14926KSTC STC20020917173009909/17/02 17:30:31  5-MIN KSTC 172330Z AUTO 15008KT 10SM CLR 23/14 A2976 1180 57 2500 150/08 RMK AO2
14926KSTC STC20020917173509909/17/02 17:35:31  5-MIN KSTC 172335Z AUTO 15009KT 10SM CLR 23/14 A2976 1180 59 2400 150/09 RMK AO2
14926KSTC STC20020917174009909/17/02 17:40:31  5-MIN KSTC 172340Z AUTO 15008KT 10SM CLR 23/14 A2976 1180 59 2400 150/08 RMK AO2
14926KSTC STC20020917174509909/17/02 17:45:31  5-MIN KSTC 172345Z AUTO 15009KT 10SM CLR 22/15 A2976 1180 63 2300 150/09 RMK AO2
14926KSTC STC20020917175013409/17/02 17:50:31  5-MIN KSTC 172350Z AUTO 15007KT 10SM CLR 22/15 A2975 1180 63 2300 150/07 RMK AO2 SLP082 T02220150 10261 20222 56022
14926KSTC STC20020917175509909/17/02 17:55:31  5-MIN KSTC 172355Z AUTO 15007KT 10SM CLR 22/15 A2975 1180 63 2300 150/07 RMK AO2
14926KSTC STC20020917180009909/17/02 18:00:31  5-MIN KSTC 180000Z AUTO 15008KT 10SM CLR 22/15 A2975 1180 63 2300 140/08 RMK AO2
14926KSTC STC20020917180509909/17/02 18:05:31  5-MIN KSTC 180005Z AUTO 14007KT 10SM CLR 22/15 A2975 1180 63 2300 140/07 RMK AO2
14926KSTC STC20020917181009909/17/02 18:10:31  5-MIN KSTC 180010Z AUTO 14007KT 10SM CLR 22/15 A2975 1180 65 2300 140/07 RMK AO2
14926KSTC STC20020917181509909/17/02 18:15:31  5-MIN KSTC 180015Z AUTO 14007KT 10SM CLR 22/15 A2975 1180 65 2300 140/07 RMK AO2
14926KSTC STC20020917182009909/17/02 18:20:31  5-MIN KSTC 180020Z AUTO 15008KT 10SM CLR 22/15 A2975 1180 65 2300 150/08 RMK AO2
14926KSTC STC20020917182509909/17/02 18:25:31  5-MIN KSTC 180025Z AUTO 15009KT 10SM CLR 22/15 A2975 1180 65 2300 150/09 RMK AO2
14926KSTC STC20020917183009909/17/02 18:30:31  5-MIN KSTC 180030Z AUTO 15008KT 10SM CLR 21/15 A2975 1180 68 2200 150/08 RMK AO2
14926KSTC STC20020917183509909/17/02 18:35:31  5-MIN KSTC 180035Z AUTO 16008KT 10SM CLR 21/15 A2975 1180 68 2200 150/08 RMK AO2
14926KSTC STC20020917184009909/17/02 18:40:31  5-MIN KSTC 180040Z AUTO 15009KT 10SM CLR 21/15 A2975 1180 68 2200 150/09 RMK AO2
14926KSTC STC20020917184509909/17/02 18:45:31  5-MIN KSTC 180045Z AUTO 16009KT 10SM CLR 21/15 A2976 1180 68 2200 150/09 RMK AO2
14926KSTC STC20020917185011609/17/02 18:50:31  5-MIN KSTC 180050Z AUTO 15007KT 10SM CLR 21/15 A2976 1180 70 2100 150/07 RMK AO2 SLP083 T02060150
14926KSTC STC20020917185509909/17/02 18:55:31  5-MIN KSTC 180055Z AUTO 15007KT 10SM CLR 21/15 A2976 1180 70 2100 150/07 RMK AO2
14926KSTC STC20020917190009909/17/02 19:00:31  5-MIN KSTC 180100Z AUTO 15007KT 10SM CLR 20/15 A2976 1180 72 2100 150/07 RMK AO2
14926KSTC STC20020917190509909/17/02 19:05:31  5-MIN KSTC 180105Z AUTO 14007KT 10SM CLR 20/15 A2976 1180 72 2100 140/07 RMK AO2
14926KSTC STC20020917191009909/17/02 19:10:31  5-MIN KSTC 180110Z AUTO 14007KT 10SM CLR 20/15 A2976 1180 72 2100 130/07 RMK AO2
14926KSTC STC20020917191509909/17/02 19:15:31  5-MIN KSTC 180115Z AUTO 14006KT 10SM CLR 20/15 A2976 1180 72 2100 130/06 RMK AO2
14926KSTC STC20020917192009909/17/02 19:20:31  5-MIN KSTC 180120Z AUTO 14006KT 10SM CLR 20/14 A2976 1180 70 2100 140/06 RMK AO2
14926KSTC STC20020917192509909/17/02 19:25:31  5-MIN KSTC 180125Z AUTO 15007KT 10SM CLR 19/14 A2976 1170 72 2000 140/07 RMK AO2
14926KSTC STC20020917193009909/17/02 19:30:31  5-MIN KSTC 180130Z AUTO 15008KT 10SM CLR 19/15 A2976 1170 75 2000 150/08 RMK AO2
14926KSTC STC20020917193509909/17/02 19:35:31  5-MIN KSTC 180135Z AUTO 15008KT 10SM CLR 19/14 A2976 1170 72 2000 140/08 RMK AO2
14926KSTC STC20020917194009909/17/02 19:40:31  5-MIN KSTC 180140Z AUTO 15007KT 10SM CLR 19/14 A2976 1170 72 2000 140/07 RMK AO2
14926KSTC STC20020917194509909/17/02 19:45:31  5-MIN KSTC 180145Z AUTO 15006KT 10SM CLR 19/14 A2976 1170 72 2000 140/06 RMK AO2
14926KSTC STC20020917195011609/17/02 19:50:31  5-MIN KSTC 180150Z AUTO 15008KT 10SM CLR 19/14 A2976 1170 72 2000 140/08 RMK AO2 SLP085 T01940144
14926KSTC STC20020917195509909/17/02 19:55:31  5-MIN KSTC 180155Z AUTO 15008KT 10SM CLR 19/14 A2976 1170 72 2000 150/08 RMK AO2
14926KSTC STC20020917200009909/17/02 20:00:31  5-MIN KSTC 180200Z AUTO 15007KT 10SM CLR 19/14 A2976 1170 72 2000 140/07 RMK AO2
14926KSTC STC20020917200509909/17/02 20:05:31  5-MIN KSTC 180205Z AUTO 15007KT 10SM CLR 19/14 A2977 1170 72 2000 140/07 RMK AO2
14926KSTC STC20020917201009909/17/02 20:10:31  5-MIN KSTC 180210Z AUTO 14006KT 10SM CLR 19/14 A2977 1170 72 2000 140/06 RMK AO2
14926KSTC STC20020917201509909/17/02 20:15:31  5-MIN KSTC 180215Z AUTO 14006KT 10SM CLR 19/14 A2977 1170 72 2000 140/06 RMK AO2
14926KSTC STC20020917202009909/17/02 20:20:31  5-MIN KSTC 180220Z AUTO 14006KT 10SM CLR 19/14 A2977 1170 75 1900 140/06 RMK AO2
14926KSTC STC20020917202509909/17/02 20:25:31  5-MIN KSTC 180225Z AUTO 14006KT 10SM CLR 19/14 A2977 1170 75 1900 140/06 RMK AO2
14926KSTC STC20020917203009909/17/02 20:30:31  5-MIN KSTC 180230Z AUTO 14006KT 10SM CLR 19/14 A2977 1170 75 1900 140/06 RMK AO2
14926KSTC STC20020917203509909/17/02 20:35:31  5-MIN KSTC 180235Z AUTO 14006KT 10SM CLR 19/14 A2977 1170 75 1900 140/06 RMK AO2
14926KSTC STC20020917204009909/17/02 20:40:31  5-MIN KSTC 180240Z AUTO 14007KT 10SM CLR 19/14 A2977 1170 72 2000 130/07 RMK AO2
14926KSTC STC20020917204509909/17/02 20:45:31  5-MIN KSTC 180245Z AUTO 14008KT 10SM CLR 19/14 A2977 1170 72 2000 140/08 RMK AO2
14926KSTC STC20020917205012209/17/02 20:50:31  5-MIN KSTC 180250Z AUTO 14007KT 10SM CLR 19/14 A2977 1170 75 1900 140/07 RMK AO2 SLP085 T01890144 56014
14926KSTC STC20020917205509909/17/02 20:55:31  5-MIN KSTC 180255Z AUTO 14007KT 10SM CLR 19/14 A2977 1170 75 1900 140/07 RMK AO2
14926KSTC STC20020917210009909/17/02 21:00:31  5-MIN KSTC 180300Z AUTO 14007KT 10SM CLR 19/14 A2977 1170 75 1900 140/07 RMK AO2
14926KSTC STC20020917210509909/17/02 21:05:31  5-MIN KSTC 180305Z AUTO 14008KT 10SM CLR 19/14 A2977 1170 75 1900 140/08 RMK AO2
14926KSTC STC20020917211009909/17/02 21:10:31  5-MIN KSTC 180310Z AUTO 14007KT 10SM CLR 19/14 A2977 1170 75 1900 140/07 RMK AO2
14926KSTC STC20020917211509909/17/02 21:15:31  5-MIN KSTC 180315Z AUTO 14008KT 10SM CLR 19/14 A2977 1170 75 1900 140/08 RMK AO2
14926KSTC STC20020917212009909/17/02 21:20:31  5-MIN KSTC 180320Z AUTO 14008KT 10SM CLR 19/14 A2977 1170 75 1900 130/08 RMK AO2
14926KSTC STC20020917212509909/17/02 21:25:31  5-MIN KSTC 180325Z AUTO 14007KT 10SM CLR 19/14 A2977 1170 75 1900 140/07 RMK AO2
14926KSTC STC20020917213009909/17/02 21:30:31  5-MIN KSTC 180330Z AUTO 14007KT 10SM CLR 19/14 A2977 1170 75 1900 140/07 RMK AO2
14926KSTC STC20020917213509909/17/02 21:35:31  5-MIN KSTC 180335Z AUTO 14006KT 10SM CLR 18/14 A2977 1170 78 1900 140/06 RMK AO2
14926KSTC STC20020917214009909/17/02 21:40:31  5-MIN KSTC 180340Z AUTO 14007KT 10SM CLR 18/14 A2977 1170 78 1900 130/07 RMK AO2
14926KSTC STC20020917214510209/17/02 21:45:31  5-MIN KSTC 180345Z AUTO 14006KT 10SM FEW050 18/14 A2976 1170 78 1900 140/06 RMK AO2
14926KSTC STC20020917215011909/17/02 21:50:31  5-MIN KSTC 180350Z AUTO 14007KT 10SM FEW050 18/14 A2976 1170 78 1900 140/07 RMK AO2 SLP083 T01830144
14926KSTC STC20020917215510209/17/02 21:55:31  5-MIN KSTC 180355Z AUTO 14007KT 10SM FEW050 18/14 A2976 1170 78 1900 140/07 RMK AO2
14926KSTC STC20020917220010209/17/02 22:00:31  5-MIN KSTC 180400Z AUTO 14007KT 10SM FEW050 18/14 A2976 1180 78 1900 140/07 RMK AO2
14926KSTC STC20020917220510209/17/02 22:05:31  5-MIN KSTC 180405Z AUTO 14007KT 10SM FEW050 18/14 A2976 1180 78 1900 140/07 RMK AO2
14926KSTC STC20020917221010209/17/02 22:10:31  5-MIN KSTC 180410Z AUTO 14007KT 10SM FEW055 18/14 A2976 1180 78 1900 140/07 RMK AO2
14926KSTC STC20020917221510209/17/02 22:15:31  5-MIN KSTC 180415Z AUTO 14007KT 10SM FEW055 18/14 A2975 1180 81 1800 140/07 RMK AO2
14926KSTC STC20020917222009909/17/02 22:20:31  5-MIN KSTC 180420Z AUTO 14008KT 10SM CLR 18/14 A2975 1180 81 1800 140/08 RMK AO2
14926KSTC STC20020917222509909/17/02 22:25:31  5-MIN KSTC 180425Z AUTO 14007KT 10SM CLR 18/14 A2975 1180 81 1800 140/07 RMK AO2
14926KSTC STC20020917223009909/17/02 22:30:31  5-MIN KSTC 180430Z AUTO 14008KT 10SM CLR 18/14 A2975 1180 81 1800 140/08 RMK AO2
14926KSTC STC20020917223509909/17/02 22:35:31  5-MIN KSTC 180435Z AUTO 14007KT 10SM CLR 18/14 A2975 1180 78 1900 140/07 RMK AO2
14926KSTC STC20020917224009909/17/02 22:40:31  5-MIN KSTC 180440Z AUTO 14007KT 10SM CLR 18/14 A2975 1180 81 1800 130/07 RMK AO2
14926KSTC STC20020917224509909/17/02 22:45:31  5-MIN KSTC 180445Z AUTO 14007KT 10SM CLR 18/14 A2975 1190 81 1800 140/07 RMK AO2
14926KSTC STC20020917225011609/17/02 22:50:31  5-MIN KSTC 180450Z AUTO 14007KT 10SM CLR 18/14 A2975 1190 81 1800 130/07 RMK AO2 SLP076 T01780144
14926KSTC STC20020917225509909/17/02 22:55:31  5-MIN KSTC 180455Z AUTO 13007KT 10SM CLR 18/14 A2974 1190 78 1900 130/07 RMK AO2
14926KSTC STC20020917230009909/17/02 23:00:31  5-MIN KSTC 180500Z AUTO 13006KT 10SM CLR 18/14 A2974 1190 78 1900 120/06 RMK AO2
14926KSTC STC20020917230509909/17/02 23:05:31  5-MIN KSTC 180505Z AUTO 13006KT 10SM CLR 18/14 A2974 1190 78 1900 120/06 RMK AO2
14926KSTC STC20020917231010209/17/02 23:10:31  5-MIN KSTC 180510Z AUTO 13006KT 10SM SCT049 18/14 A2974 1190 81 1800 130/06 RMK AO2
14926KSTC STC20020917231510209/17/02 23:15:31  5-MIN KSTC 180515Z AUTO 13007KT 10SM SCT049 18/14 A2974 1200 81 1800 130/07 RMK AO2
14926KSTC STC20020917232010209/17/02 23:20:31  5-MIN KSTC 180520Z AUTO 13006KT 10SM FEW049 18/14 A2974 1200 81 1800 130/06 RMK AO2
14926KSTC STC20020917232510209/17/02 23:25:31  5-MIN KSTC 180525Z AUTO 12005KT 10SM FEW049 18/14 A2973 1200 81 1800 120/05 RMK AO2
14926KSTC STC20020917233010209/17/02 23:30:31  5-MIN KSTC 180530Z AUTO 12006KT 10SM SCT049 18/14 A2973 1200 81 1800 120/06 RMK AO2
14926KSTC STC20020917233510209/17/02 23:35:31  5-MIN KSTC 180535Z AUTO 13006KT 10SM BKN047 18/14 A2973 1200 81 1800 130/06 RMK AO2
14926KSTC STC20020917234010209/17/02 23:40:31  5-MIN KSTC 180540Z AUTO 13006KT 10SM BKN045 18/14 A2973 1210 81 1900 120/06 RMK AO2
14926KSTC STC20020917234510209/17/02 23:45:31  5-MIN KSTC 180545Z AUTO 13006KT 10SM BKN045 18/14 A2972 1210 81 1900 130/06 RMK AO2
14926KSTC STC20020917235014709/17/02 23:50:31  5-MIN KSTC 180550Z AUTO 13006KT 10SM BKN045 18/14 A2972 1210 81 1900 120/06 RMK AO2 SLP069 T01780144 10222 20178 402610100 53005
14926KSTC STC20020917235510909/17/02 23:55:31  5-MIN KSTC 180555Z AUTO 12007KT 10SM BKN045 OVC055 18/14 A2972 1210 81 1900 120/07 RMK AO2
14926KSTC STC20020918000010909/18/02 00:00:31  5-MIN KSTC 180600Z AUTO 13008KT 10SM BKN045 OVC055 18/14 A2972 1210 81 1900 130/08 RMK AO2
14926KSTC STC20020918000510909/18/02 00:05:31  5-MIN KSTC 180605Z AUTO 14007KT 10SM SCT045 BKN055 18/14 A2972 1210 81 1900 130/07 RMK AO2
14926KSTC STC20020918001010909/18/02 00:10:31  5-MIN KSTC 180610Z AUTO 15007KT 10SM FEW045 BKN055 18/14 A2972 1210 81 1900 150/07 RMK AO2
14926KSTC STC20020918001510909/18/02 00:15:31  5-MIN KSTC 180615Z AUTO 14008KT 10SM FEW045 SCT055 18/14 A2972 1220 81 1900 130/08 RMK AO2
14926KSTC STC20020918002010209/18/02 00:20:31  5-MIN KSTC 180620Z AUTO 14008KT 10SM FEW050 18/14 A2972 1220 81 1900 130/08 RMK AO2
14926KSTC STC20020918002510209/18/02 00:25:31  5-MIN KSTC 180625Z AUTO 14007KT 10SM FEW055 18/14 A2971 1220 81 1900 140/07 RMK AO2
14926KSTC STC20020918003009909/18/02 00:30:31  5-MIN KSTC 180630Z AUTO 14008KT 10SM CLR 18/14 A2971 1220 81 1900 140/08 RMK AO2
14926KSTC STC20020918003509909/18/02 00:35:31  5-MIN KSTC 180635Z AUTO 14008KT 10SM CLR 18/15 A2971 1220 83 1900 130/08 RMK AO2
14926KSTC STC20020918004009909/18/02 00:40:31  5-MIN KSTC 180640Z AUTO 13008KT 10SM CLR 18/16 A2971 1220 87 1900 130/08 RMK AO2
14926KSTC STC20020918004509909/18/02 00:45:31  5-MIN KSTC 180645Z AUTO 13007KT 10SM CLR 18/16 A2971 1220 87 1900 130/07 RMK AO2
14926KSTC STC20020918005011609/18/02 00:50:31  5-MIN KSTC 180650Z AUTO 13006KT 10SM CLR 18/15 A2971 1220 83 1900 130/06 RMK AO2 SLP065 T01780150
14926KSTC STC20020918005509909/18/02 00:55:31  5-MIN KSTC 180655Z AUTO 13006KT 10SM CLR 18/15 A2971 1220 83 1900 130/06 RMK AO2
14926KSTC STC20020918010009909/18/02 01:00:31  5-MIN KSTC 180700Z AUTO 12006KT 10SM CLR 18/15 A2971 1220 83 1900 120/06 RMK AO2
14926KSTC STC20020918010509909/18/02 01:05:31  5-MIN KSTC 180705Z AUTO 13006KT 10SM CLR 17/15 A2971 1220 87 1800 130/06 RMK AO2
14926KSTC STC20020918011009909/18/02 01:10:31  5-MIN KSTC 180710Z AUTO 14005KT 10SM CLR 17/15 A2971 1220 87 1800 140/05 RMK AO2
14926KSTC STC20020918011509909/18/02 01:15:31  5-MIN KSTC 180715Z AUTO 14005KT 10SM CLR 17/15 A2971 1230 87 1800 130/05 RMK AO2
14926KSTC STC20020918012009909/18/02 01:20:31  5-MIN KSTC 180720Z AUTO 13005KT 10SM CLR 17/15 A2970 1230 87 1800 130/05 RMK AO2
14926KSTC STC20020918012509909/18/02 01:25:31  5-MIN KSTC 180725Z AUTO 13006KT 10SM CLR 17/15 A2970 1230 87 1800 130/06 RMK AO2
14926KSTC STC20020918013009909/18/02 01:30:31  5-MIN KSTC 180730Z AUTO 14006KT 10SM CLR 17/15 A2970 1230 87 1800 140/06 RMK AO2
14926KSTC STC20020918013509909/18/02 01:35:31  5-MIN KSTC 180735Z AUTO 14006KT 10SM CLR 17/15 A2970 1230 87 1800 130/06 RMK AO2
14926KSTC STC20020918014009909/18/02 01:40:31  5-MIN KSTC 180740Z AUTO 14007KT 10SM CLR 17/15 A2970 1240 87 1800 140/07 RMK AO2
14926KSTC STC20020918014509909/18/02 01:45:31  5-MIN KSTC 180745Z AUTO 14006KT 10SM CLR 17/15 A2969 1240 87 1800 130/06 RMK AO2
14926KSTC STC20020918015011509/18/02 01:50:31  5-MIN KSTC 180750Z AUTO 14006KT 9SM CLR 17/15 A2969 1240 87 1800 130/06 RMK AO2 SLP057 T01720150
14926KSTC STC20020918015509809/18/02 01:55:31  5-MIN KSTC 180755Z AUTO 13008KT 9SM CLR 17/16 A2969 1240 90 1800 130/08 RMK AO2
14926KSTC STC20020918020009809/18/02 02:00:31  5-MIN KSTC 180800Z AUTO 13008KT 9SM CLR 17/16 A2969 1240 90 1800 130/08 RMK AO2
14926KSTC STC20020918020509809/18/02 02:05:31  5-MIN KSTC 180805Z AUTO 13006KT 9SM CLR 17/16 A2969 1240 90 1800 130/06 RMK AO2
14926KSTC STC20020918021009809/18/02 02:10:31  5-MIN KSTC 180810Z AUTO 13006KT 9SM CLR 17/16 A2968 1250 90 1800 130/06 RMK AO2
14926KSTC STC20020918021509809/18/02 02:15:31  5-MIN KSTC 180815Z AUTO 13005KT 9SM CLR 17/16 A2968 1250 90 1800 120/05 RMK AO2
14926KSTC STC20020918022009809/18/02 02:20:31  5-MIN KSTC 180820Z AUTO 13005KT 9SM CLR 17/16 A2968 1250 90 1800 130/05 RMK AO2
14926KSTC STC20020918022509809/18/02 02:25:31  5-MIN KSTC 180825Z AUTO 13005KT 9SM CLR 17/16 A2968 1250 90 1800 130/05 RMK AO2
14926KSTC STC20020918023009809/18/02 02:30:31  5-MIN KSTC 180830Z AUTO 13006KT 8SM CLR 17/16 A2967 1260 90 1800 130/06 RMK AO2
14926KSTC STC20020918023509809/18/02 02:35:31  5-MIN KSTC 180835Z AUTO 13007KT 8SM CLR 17/16 A2967 1260 90 1900 130/07 RMK AO2
14926KSTC STC20020918024009809/18/02 02:40:31  5-MIN KSTC 180840Z AUTO 13006KT 8SM CLR 17/16 A2967 1260 90 1900 120/06 RMK AO2
14926KSTC STC20020918024509809/18/02 02:45:31  5-MIN KSTC 180845Z AUTO 12006KT 8SM CLR 17/16 A2966 1270 90 1900 120/06 RMK AO2
14926KSTC STC20020918025012109/18/02 02:50:31  5-MIN KSTC 180850Z AUTO 11005KT 8SM CLR 17/16 A2966 1270 93 1800 110/05 RMK AO2 SLP047 T01670156 58016
14926KSTC STC20020918025509809/18/02 02:55:31  5-MIN KSTC 180855Z AUTO 10004KT 7SM CLR 17/16 A2966 1270 93 1800 100/04 RMK AO2
14926KSTC STC20020918030009809/18/02 03:00:31  5-MIN KSTC 180900Z AUTO 11005KT 7SM CLR 17/16 A2965 1270 93 1800 110/05 RMK AO2
14926KSTC STC20020918030509809/18/02 03:05:31  5-MIN KSTC 180905Z AUTO 10005KT 7SM CLR 17/16 A2965 1280 93 1800 100/05 RMK AO2
14926KSTC STC20020918031009809/18/02 03:10:31  5-MIN KSTC 180910Z AUTO 10006KT 7SM CLR 17/16 A2965 1280 93 1800 100/06 RMK AO2
14926KSTC STC20020918031510109/18/02 03:15:31  5-MIN KSTC 180915Z AUTO 11006KT 6SM BR CLR 17/16 A2965 1280 93 1800 100/06 RMK AO2
14926KSTC STC20020918032010109/18/02 03:20:31  5-MIN KSTC 180920Z AUTO 10006KT 6SM BR CLR 17/16 A2965 1280 93 1800 100/06 RMK AO2
14926KSTC STC20020918032510109/18/02 03:25:31  5-MIN KSTC 180925Z AUTO 11007KT 6SM BR CLR 17/16 A2965 1280 93 1800 100/07 RMK AO2
14926KSTC STC20020918033010109/18/02 03:30:31  5-MIN KSTC 180930Z AUTO 11006KT 6SM BR CLR 17/16 A2965 1280 93 1800 100/06 RMK AO2
14926KSTC STC20020918033510109/18/02 03:35:31  5-MIN KSTC 180935Z AUTO 10004KT 6SM BR CLR 17/16 A2964 1280 93 1800 100/04 RMK AO2
14926KSTC STC20020918034010109/18/02 03:40:31  5-MIN KSTC 180940Z AUTO 10006KT 6SM BR CLR 17/16 A2964 1280 93 1800 090/06 RMK AO2
14926KSTC STC20020918034510109/18/02 03:45:31  5-MIN KSTC 180945Z AUTO 11005KT 6SM BR CLR 16/16 A2965 1280 96 1700 110/05 RMK AO2
14926KSTC STC20020918035011809/18/02 03:50:31  5-MIN KSTC 180950Z AUTO 11005KT 6SM BR CLR 16/16 A2964 1280 96 1800 110/05 RMK AO2 SLP041 T01610156
14926KSTC STC20020918035510109/18/02 03:55:31  5-MIN KSTC 180955Z AUTO 11005KT 6SM BR CLR 16/16 A2965 1280 96 1700 100/05 RMK AO2
14926KSTC STC20020918040010109/18/02 04:00:31  5-MIN KSTC 181000Z AUTO 11006KT 6SM BR CLR 16/16 A2965 1280 96 1700 110/06 RMK AO2
14926KSTC STC20020918040510109/18/02 04:05:31  5-MIN KSTC 181005Z AUTO 11006KT 6SM BR CLR 16/16 A2965 1280 96 1700 110/06 RMK AO2
14926KSTC STC20020918041010109/18/02 04:10:31  5-MIN KSTC 181010Z AUTO 12005KT 6SM BR CLR 17/16 A2965 1280 93 1800 120/05 RMK AO2
14926KSTC STC20020918041510109/18/02 04:15:31  5-MIN KSTC 181015Z AUTO 12005KT 6SM BR CLR 17/16 A2965 1280 93 1800 110/05 RMK AO2
14926KSTC STC20020918042010109/18/02 04:20:31  5-MIN KSTC 181020Z AUTO 12004KT 6SM BR CLR 16/16 A2966 1270 96 1700 120/04 RMK AO2
14926KSTC STC20020918042510109/18/02 04:25:31  5-MIN KSTC 181025Z AUTO 13005KT 6SM BR CLR 17/16 A2966 1270 93 1800 120/05 RMK AO2
14926KSTC STC20020918043010409/18/02 04:30:31  5-MIN KSTC 181030Z AUTO 13004KT 6SM BR FEW017 17/16 A2966 1270 93 1800 130/04 RMK AO2
14926KSTC STC20020918043510409/18/02 04:35:31  5-MIN KSTC 181035Z AUTO 14004KT 6SM BR FEW017 16/16 A2967 1260 96 1700 130/04 RMK AO2
14926KSTC STC20020918044010409/18/02 04:40:31  5-MIN KSTC 181040Z AUTO 12005KT 5SM BR FEW017 16/16 A2967 1260 96 1700 120/05 RMK AO2
14926KSTC STC20020918044510409/18/02 04:45:31  5-MIN KSTC 181045Z AUTO 13005KT 5SM BR FEW017 16/16 A2968 1250 96 1700 130/05 RMK AO2
14926KSTC STC20020918045012109/18/02 04:50:31  5-MIN KSTC 181050Z AUTO 13006KT 5SM BR FEW017 16/16 A2968 1250 96 1700 120/06 RMK AO2 SLP053 T01610156
14926KSTC STC20020918045510409/18/02 04:55:31  5-MIN KSTC 181055Z AUTO 12006KT 5SM BR FEW017 16/16 A2967 1260 96 1700 120/06 RMK AO2
14926KSTC STC20020918050010409/18/02 05:00:31  5-MIN KSTC 181100Z AUTO 12006KT 5SM BR FEW017 16/16 A2967 1260 96 1700 110/06 RMK AO2
14926KSTC STC20020918050510109/18/02 05:05:31  5-MIN KSTC 181105Z AUTO 12005KT 5SM BR CLR 16/16 A2967 1260 96 1700 110/05 RMK AO2
14926KSTC STC20020918051010109/18/02 05:10:31  5-MIN KSTC 181110Z AUTO 11006KT 5SM BR CLR 16/16 A2966 1270 96 1700 110/06 RMK AO2
14926KSTC STC20020918051510109/18/02 05:15:31  5-MIN KSTC 181115Z AUTO 11007KT 5SM BR CLR 16/16 A2966 1270 96 1700 110/07 RMK AO2
14926KSTC STC20020918052010109/18/02 05:20:31  5-MIN KSTC 181120Z AUTO 11007KT 5SM BR CLR 16/16 A2966 1270 96 1700 110/07 RMK AO2
14926KSTC STC20020918052510109/18/02 05:25:31  5-MIN KSTC 181125Z AUTO 12007KT 5SM BR CLR 16/16 A2966 1270 96 1700 110/07 RMK AO2
14926KSTC STC20020918053010109/18/02 05:30:31  5-MIN KSTC 181130Z AUTO 12008KT 5SM BR CLR 17/16 A2966 1270 93 1800 110/08 RMK AO2
14926KSTC STC20020918053510109/18/02 05:35:31  5-MIN KSTC 181135Z AUTO 12008KT 5SM BR CLR 17/16 A2966 1270 96 1800 110/08 RMK AO2
14926KSTC STC20020918054010409/18/02 05:40:31  5-MIN KSTC 181140Z AUTO 13007KT 5SM BR SCT012 17/16 A2966 1260 96 1800 120/07 RMK AO2
14926KSTC STC20020918054510409/18/02 05:45:31  5-MIN KSTC 181145Z AUTO 14009KT 5SM BR BKN012 17/16 A2967 1260 96 1800 130/09 RMK AO2
14926KSTC STC20020918055013909/18/02 05:50:31  5-MIN KSTC 181150Z AUTO 13008KT 5SM BR BKN012 17/16 A2966 1260 96 1800 130/08 RMK AO2 SLP050 T01670161 10178 20161 58021
14926KSTC STC20020918055510409/18/02 05:55:31  5-MIN KSTC 181155Z AUTO 13007KT 5SM BR BKN012 17/16 A2967 1260 96 1800 120/07 RMK AO2
14926KSTC STC20020918060010409/18/02 06:00:31  5-MIN KSTC 181200Z AUTO 13008KT 5SM BR BKN012 17/16 A2967 1260 96 1800 130/08 RMK AO2
14926KSTC STC20020918060510409/18/02 06:05:31  5-MIN KSTC 181205Z AUTO 13007KT 4SM BR BKN012 17/16 A2967 1260 96 1800 130/07 RMK AO2
14926KSTC STC20020918061010409/18/02 06:10:31  5-MIN KSTC 181210Z AUTO 12008KT 3SM BR BKN012 17/16 A2967 1260 96 1800 120/08 RMK AO2
14926KSTC STC20020918061510409/18/02 06:15:31  5-MIN KSTC 181215Z AUTO 13007KT 3SM BR SCT010 17/16 A2966 1260 96 1800 130/07 RMK AO2
14926KSTC STC20020918062010409/18/02 06:20:31  5-MIN KSTC 181220Z AUTO 14009KT 3SM BR SCT010 17/16 A2967 1260 93 1900 130/09 RMK AO2
14926KSTC STC20020918062511809/18/02 06:25:31  5-MIN KSTC 181225Z AUTO 13010KT 3SM BR SCT010 BKN070 BKN090 17/16 A2967 1260 93 1900 120/10 RMK AO2
14926KSTC STC20020918063011809/18/02 06:30:31  5-MIN KSTC 181230Z AUTO 13009KT 3SM BR SCT010 BKN070 BKN090 17/16 A2967 1260 93 1900 130/09 RMK AO2
14926KSTC STC20020918063511109/18/02 06:35:31  5-MIN KSTC 181235Z AUTO 13007KT 3SM BR SCT010 BKN070 17/16 A2966 1260 93 1900 120/07 RMK AO2
14926KSTC STC20020918064011109/18/02 06:40:31  5-MIN KSTC 181240Z AUTO 13007KT 3SM BR SCT010 BKN070 17/16 A2966 1260 93 1900 130/07 RMK AO2
14926KSTC STC20020918064511109/18/02 06:45:31  5-MIN KSTC 181245Z AUTO 12007KT 3SM BR SCT010 BKN070 17/16 A2966 1270 93 1900 120/07 RMK AO2
14926KSTC STC20020918065014009/18/02 06:50:31  5-MIN KSTC 181250Z AUTO 14008KT 3SM BR BKN010 BKN070 17/16 A2966 1260 93 1900 130/08 RMK AO2 CIG 008V013 SLP051 T01720161
14926KSTC STC20020918065511609/18/02 06:55:31  5-MIN KSTC 181255Z AUTO 13008KT 3SM BR BKN010 17/17 A2967 1260 96 1900 130/08 RMK AO2 CIG 008V013
14926KSTC STC20020918070010409/18/02 07:00:31  5-MIN KSTC 181300Z AUTO 14008KT 3SM BR BKN010 17/17 A2966 1270 96 1900 140/08 RMK AO2
14926KSTC STC20020918071513009/18/02 07:15:31  5-MIN KSTC 181315Z AUTO 14008KT 3SM BR BKN010 BKN015 17/17 A2965 1280 96 1900 130/08 RMK AO2 CIG 007V013 PRESFR
14926KSTC STC20020918072010409/18/02 07:20:31  5-MIN KSTC 181320Z AUTO 14010KT 3SM BR BKN010 18/17 A2964 1280 93 1900 130/10 RMK AO2
14926KSTC STC20020918072510409/18/02 07:25:31  5-MIN KSTC 181325Z AUTO 13009KT 4SM BR BKN012 18/17 A2964 1280 93 1900 130/09 RMK AO2
14926KSTC STC20020918073011109/18/02 07:30:31  5-MIN KSTC 181330Z AUTO 14009KT 4SM BR FEW008 SCT012 18/17 A2964 1290 93 2000 130/09 RMK AO2
14926KSTC STC20020918073511109/18/02 07:35:31  5-MIN KSTC 181335Z AUTO 14009KT 4SM BR FEW008 SCT012 18/17 A2964 1290 93 2000 130/09 RMK AO2
14926KSTC STC20020918074010409/18/02 07:40:31  5-MIN KSTC 181340Z AUTO 14010KT 4SM BR FEW012 18/17 A2963 1290 93 2000 140/10 RMK AO2
14926KSTC STC20020918074510409/18/02 07:45:31  5-MIN KSTC 181345Z AUTO 14008KT 4SM BR FEW010 18/17 A2963 1290 93 2000 140/08 RMK AO2
14926KSTC STC20020918075012109/18/02 07:50:31  5-MIN KSTC 181350Z AUTO 14011KT 4SM BR SCT010 18/17 A2963 1300 93 2000 130/11 RMK AO2 SLP038 T01830172
14926KSTC STC20020918075510409/18/02 07:55:31  5-MIN KSTC 181355Z AUTO 13010KT 4SM BR BKN010 18/17 A2963 1300 93 2000 130/10 RMK AO2
14926KSTC STC20020918080011009/18/02 08:00:31  5-MIN KSTC 181400Z AUTO 13011G16KT 4SM BR BKN010 18/17 A2963 1300 93 2000 130/11G16 RMK AO2
14926KSTC STC20020918080511009/18/02 08:05:31  5-MIN KSTC 181405Z AUTO 14012G16KT 4SM BR BKN010 19/17 A2963 1300 90 2100 140/12G16 RMK AO2
14926KSTC STC20020918081010409/18/02 08:10:31  5-MIN KSTC 181410Z AUTO 14010KT 5SM BR OVC010 19/17 A2963 1300 90 2100 130/10 RMK AO2
14926KSTC STC20020918081510409/18/02 08:15:31  5-MIN KSTC 181415Z AUTO 14009KT 5SM BR OVC010 19/17 A2963 1300 90 2100 140/09 RMK AO2
14926KSTC STC20020918082010409/18/02 08:20:31  5-MIN KSTC 181420Z AUTO 15012KT 5SM BR OVC010 19/17 A2963 1300 90 2100 150/12 RMK AO2
14926KSTC STC20020918082510409/18/02 08:25:31  5-MIN KSTC 181425Z AUTO 13011KT 5SM BR OVC010 19/17 A2963 1300 90 2100 130/11 RMK AO2
14926KSTC STC20020918083010409/18/02 08:30:31  5-MIN KSTC 181430Z AUTO 13008KT 5SM BR OVC010 19/17 A2962 1300 90 2100 130/08 RMK AO2
14926KSTC STC20020918083510409/18/02 08:35:31  5-MIN KSTC 181435Z AUTO 14009KT 5SM BR OVC010 19/17 A2962 1310 90 2100 130/09 RMK AO2
14926KSTC STC20020918084010409/18/02 08:40:31  5-MIN KSTC 181440Z AUTO 14011KT 5SM BR OVC012 19/17 A2962 1310 87 2200 130/11 RMK AO2
14926KSTC STC20020918084510409/18/02 08:45:31  5-MIN KSTC 181445Z AUTO 13011KT 5SM BR OVC012 19/17 A2962 1310 87 2200 130/11 RMK AO2
14926KSTC STC20020918085012709/18/02 08:50:31  5-MIN KSTC 181450Z AUTO 14009KT 5SM BR OVC012 19/17 A2961 1310 87 2200 140/09 RMK AO2 SLP031 T01940172 53003
14926KSTC STC20020918085510409/18/02 08:55:31  5-MIN KSTC 181455Z AUTO 13007KT 6SM HZ OVC012 20/17 A2961 1320 84 2200 130/07 RMK AO2
14926KSTC STC20020918090010409/18/02 09:00:31  5-MIN KSTC 181500Z AUTO 13009KT 6SM HZ OVC012 20/17 A2961 1320 84 2200 120/09 RMK AO2
14926KSTC STC20020918090510409/18/02 09:05:31  5-MIN KSTC 181505Z AUTO 14009KT 6SM BR OVC012 20/18 A2961 1320 87 2200 130/09 RMK AO2
14926KSTC STC20020918091010409/18/02 09:10:31  5-MIN KSTC 181510Z AUTO 14010KT 6SM HZ OVC012 20/17 A2960 1320 84 2200 140/10 RMK AO2
14926KSTC STC20020918091510409/18/02 09:15:31  5-MIN KSTC 181515Z AUTO 14011KT 6SM HZ OVC012 21/17 A2960 1320 81 2300 140/11 RMK AO2
14926KSTC STC20020918092010409/18/02 09:20:31  5-MIN KSTC 181520Z AUTO 14011KT 6SM HZ OVC012 21/17 A2961 1320 81 2300 140/11 RMK AO2
14926KSTC STC20020918092510409/18/02 09:25:31  5-MIN KSTC 181525Z AUTO 14012KT 6SM HZ OVC012 20/17 A2961 1310 84 2200 130/12 RMK AO2
14926KSTC STC20020918093010409/18/02 09:30:31  5-MIN KSTC 181530Z AUTO 16011KT 6SM HZ OVC012 21/17 A2962 1310 81 2300 160/11 RMK AO2
14926KSTC STC20020918093510109/18/02 09:35:31  5-MIN KSTC 181535Z AUTO 16012KT 7SM OVC012 21/17 A2962 1300 81 2300 160/12 RMK AO2
14926KSTC STC20020918094010109/18/02 09:40:31  5-MIN KSTC 181540Z AUTO 16011KT 7SM OVC012 21/17 A2962 1300 81 2300 160/11 RMK AO2
14926KSTC STC20020918094510709/18/02 09:45:31  5-MIN KSTC 181545Z AUTO 17015G19KT 7SM OVC012 21/17 A2962 1300 81 2300 160/15G19 RMK AO2
14926KSTC STC20020918095012409/18/02 09:50:31  5-MIN KSTC 181550Z AUTO 16012G19KT 7SM OVC012 20/17 A2962 1300 84 2200 160/12G19 RMK AO2 SLP035 T02000172
14926KSTC STC20020918095510109/18/02 09:55:31  5-MIN KSTC 181555Z AUTO 17010KT 7SM OVC012 20/17 A2962 1310 84 2200 170/10 RMK AO2
14926KSTC STC20020918100010109/18/02 10:00:31  5-MIN KSTC 181600Z AUTO 17008KT 7SM OVC012 20/18 A2962 1310 87 2200 170/08 RMK AO2
14926KSTC STC20020918100510109/18/02 10:05:31  5-MIN KSTC 181605Z AUTO 17008KT 7SM OVC012 20/18 A2961 1310 87 2200 170/08 RMK AO2
14926KSTC STC20020918101010709/18/02 10:10:31  5-MIN KSTC 181610Z AUTO 17013G17KT 7SM OVC012 21/17 A2962 1310 81 2300 170/13G17 RMK AO2
14926KSTC STC20020918101510709/18/02 10:15:31  5-MIN KSTC 181615Z AUTO 17013G17KT 7SM OVC012 20/17 A2961 1310 84 2200 170/13G17 RMK AO2
14926KSTC STC20020918102010109/18/02 10:20:31  5-MIN KSTC 181620Z AUTO 17009KT 7SM OVC012 21/18 A2962 1310 84 2300 160/09 RMK AO2
14926KSTC STC20020918102510709/18/02 10:25:31  5-MIN KSTC 181625Z AUTO 18011G17KT 7SM OVC012 20/18 A2962 1300 87 2200 170/11G17 RMK AO2
14926KSTC STC20020918103010709/18/02 10:30:31  5-MIN KSTC 181630Z AUTO 17014G17KT 7SM OVC012 20/17 A2962 1300 84 2200 170/14G17 RMK AO2
14926KSTC STC20020918103510109/18/02 10:35:31  5-MIN KSTC 181635Z AUTO 17011KT 7SM OVC012 20/17 A2962 1300 84 2200 170/11 RMK AO2
14926KSTC STC20020918104010109/18/02 10:40:31  5-MIN KSTC 181640Z AUTO 18013KT 7SM OVC012 20/17 A2962 1300 84 2200 180/13 RMK AO2
14926KSTC STC20020918104510109/18/02 10:45:31  5-MIN KSTC 181645Z AUTO 17011KT 7SM OVC012 20/17 A2962 1300 84 2200 160/11 RMK AO2
14926KSTC STC20020918105011809/18/02 10:50:31  5-MIN KSTC 181650Z AUTO 16013KT 7SM OVC012 20/17 A2962 1310 84 2200 160/13 RMK AO2 SLP034 T02000172
14926KSTC STC20020918105510109/18/02 10:55:31  5-MIN KSTC 181655Z AUTO 16010KT 7SM OVC012 21/18 A2961 1310 84 2300 150/10 RMK AO2
14926KSTC STC20020918110010709/18/02 11:00:31  5-MIN KSTC 181700Z AUTO 16013G16KT 7SM OVC014 21/18 A2961 1310 84 2300 160/13G16 RMK AO2
14926KSTC STC20020918110510109/18/02 11:05:31  5-MIN KSTC 181705Z AUTO 16012KT 7SM OVC014 21/18 A2961 1310 84 2300 160/12 RMK AO2
14926KSTC STC20020918111010109/18/02 11:10:31  5-MIN KSTC 181710Z AUTO 15008KT 7SM OVC014 21/18 A2960 1320 84 2300 150/08 RMK AO2
14926KSTC STC20020918111510109/18/02 11:15:31  5-MIN KSTC 181715Z AUTO 14009KT 7SM OVC014 21/18 A2959 1330 81 2400 140/09 RMK AO2
14926KSTC STC20020918112010109/18/02 11:20:31  5-MIN KSTC 181720Z AUTO 15012KT 8SM OVC014 21/18 A2959 1330 81 2400 140/12 RMK AO2
14926KSTC STC20020918112510109/18/02 11:25:31  5-MIN KSTC 181725Z AUTO 15013KT 7SM OVC016 21/18 A2959 1330 81 2400 150/13 RMK AO2
14926KSTC STC20020918113010709/18/02 11:30:31  5-MIN KSTC 181730Z AUTO 15011G17KT 7SM OVC016 22/18 A2959 1330 78 2500 140/11G17 RMK AO2
14926KSTC STC20020918113510109/18/02 11:35:31  5-MIN KSTC 181735Z AUTO 14012KT 8SM OVC016 22/18 A2959 1340 78 2500 140/12 RMK AO2
14926KSTC STC20020918114010709/18/02 11:40:31  5-MIN KSTC 181740Z AUTO 14011G16KT 8SM BKN016 22/18 A2958 1340 78 2500 130/11G16 RMK AO2
14926KSTC STC20020918114510709/18/02 11:45:31  5-MIN KSTC 181745Z AUTO 14009G16KT 8SM BKN018 22/18 A2958 1350 75 2500 130/09G16 RMK AO2
14926KSTC STC20020918115013609/18/02 11:50:31  5-MIN KSTC 181750Z AUTO 13008KT 9SM BKN018 23/18 A2957 1350 73 2600 120/08 RMK AO2 SLP016 T02280178 10228 20167 58018
14926KSTC STC20020918115510109/18/02 11:55:31  5-MIN KSTC 181755Z AUTO 15009KT 9SM BKN018 23/18 A2957 1350 73 2600 150/09 RMK AO2
14926KSTC STC20020918120010109/18/02 12:00:31  5-MIN KSTC 181800Z AUTO 14011KT 9SM SCT018 23/18 A2957 1350 73 2600 140/11 RMK AO2
14926KSTC STC20020918120510209/18/02 12:05:31  5-MIN KSTC 181805Z AUTO 15009KT 10SM SCT018 23/17 A2957 1350 70 2600 140/09 RMK AO2
14926KSTC STC20020918121010209/18/02 12:10:31  5-MIN KSTC 181810Z AUTO 17011KT 10SM FEW020 23/17 A2957 1350 68 2700 160/11 RMK AO2
14926KSTC STC20020918121510209/18/02 12:15:31  5-MIN KSTC 181815Z AUTO 16013KT 10SM FEW020 24/17 A2957 1350 66 2700 160/13 RMK AO2
14926KSTC STC20020918122010509/18/02 12:20:31  5-MIN KSTC 181820Z AUTO 14013G17KT 10SM CLR 24/18 A2957 1350 66 2800 140/13G17 RMK AO2
14926KSTC STC20020918122510209/18/02 12:25:31  5-MIN KSTC 181825Z AUTO 15011KT 10SM FEW022 24/17 A2957 1350 63 2800 150/11 RMK AO2
14926KSTC STC20020918123010209/18/02 12:30:31  5-MIN KSTC 181830Z AUTO 15013KT 10SM SCT022 23/17 A2957 1350 68 2700 150/13 RMK AO2
14926KSTC STC20020918123510209/18/02 12:35:31  5-MIN KSTC 181835Z AUTO 15014KT 10SM SCT024 24/18 A2957 1360 68 2700 150/14 RMK AO2
14926KSTC STC20020918124010209/18/02 12:40:31  5-MIN KSTC 181840Z AUTO 15013KT 10SM SCT024 24/18 A2957 1360 68 2700 150/13 RMK AO2
14926KSTC STC20020918124510909/18/02 12:45:31  5-MIN KSTC 181845Z AUTO 14009KT 10SM SCT024 SCT031 23/18 A2957 1360 70 2700 140/09 RMK AO2
14926KSTC STC20020918125012609/18/02 12:50:31  5-MIN KSTC 181850Z AUTO 14010KT 10SM SCT024 BKN031 24/18 A2957 1350 71 2700 140/10 RMK AO2 SLP016 T02390183
14926KSTC STC20020918125512209/18/02 12:55:31  5-MIN KSTC 181855Z AUTO 15012G19KT 10SM BKN024 BKN031 BKN035 23/18 A2957 1350 70 2700 150/12G19 RMK AO2
14926KSTC STC20020918130012209/18/02 13:00:31  5-MIN KSTC 181900Z AUTO 16015G19KT 10SM FEW022 BKN029 BKN035 23/17 A2957 1350 68 2700 150/15G19 RMK AO2
14926KSTC STC20020918130511609/18/02 13:05:31  5-MIN KSTC 181905Z AUTO 15013KT 10SM FEW022 BKN029 BKN035 24/18 A2957 1350 68 2700 150/13 RMK AO2
14926KSTC STC20020918131010909/18/02 13:10:31  5-MIN KSTC 181910Z AUTO 16013KT 10SM SCT025 BKN033 24/18 A2957 1350 66 2800 160/13 RMK AO2
14926KSTC STC20020918131512209/18/02 13:15:31  5-MIN KSTC 181915Z AUTO 15015G20KT 10SM SCT025 BKN030 BKN036 24/17 A2957 1350 66 2700 140/15G20 RMK AO2
14926KSTC STC20020918132012209/18/02 13:20:31  5-MIN KSTC 181920Z AUTO 15014G20KT 10SM FEW025 BKN036 BKN042 24/17 A2957 1350 66 2700 150/14G20 RMK AO2
14926KSTC STC20020918132512209/18/02 13:25:31  5-MIN KSTC 181925Z AUTO 15015G20KT 10SM FEW027 BKN036 BKN044 24/17 A2957 1350 63 2800 150/15G20 RMK AO2
14926KSTC STC20020918133011509/18/02 13:30:31  5-MIN KSTC 181930Z AUTO 15016G20KT 10SM FEW027 BKN039 25/17 A2956 1360 59 2900 150/16G20 RMK AO2
14926KSTC STC20020918133510909/18/02 13:35:31  5-MIN KSTC 181935Z AUTO 15015KT 10SM FEW027 BKN039 24/17 A2956 1360 61 2800 150/15 RMK AO2
14926KSTC STC20020918134010909/18/02 13:40:31  5-MIN KSTC 181940Z AUTO 16014KT 10SM FEW035 SCT042 24/17 A2956 1360 61 2800 160/14 RMK AO2
14926KSTC STC20020918134510909/18/02 13:45:31  5-MIN KSTC 181945Z AUTO 16011KT 10SM FEW033 SCT042 24/17 A2955 1370 61 2800 150/11 RMK AO2
14926KSTC STC20020918135013209/18/02 13:50:31  5-MIN KSTC 181950Z AUTO 15013G20KT 10SM FEW033 SCT042 25/17 A2955 1370 59 2900 150/13G20 RMK AO2 SLP010 T02500167
14926KSTC STC20020918135511509/18/02 13:55:31  5-MIN KSTC 181955Z AUTO 13010G20KT 10SM FEW030 SCT036 25/17 A2955 1370 61 2900 130/10G20 RMK AO2
14926KSTC STC20020918140010209/18/02 14:00:31  5-MIN KSTC 182000Z AUTO 13012KT 10SM SCT030 25/17 A2954 1380 61 2900 130/12 RMK AO2
14926KSTC STC20020918140510809/18/02 14:05:31  5-MIN KSTC 182005Z AUTO 12011G19KT 10SM BKN030 25/17 A2954 1380 61 2900 120/11G19 RMK AO2
14926KSTC STC20020918141010809/18/02 14:10:31  5-MIN KSTC 182010Z AUTO 12012G19KT 10SM BKN030 24/17 A2954 1380 63 2800 110/12G19 RMK AO2
14926KSTC STC20020918141510809/18/02 14:15:31  5-MIN KSTC 182015Z AUTO 13009G18KT 10SM SCT030 25/17 A2954 1380 59 2900 120/09G18 RMK AO2
14926KSTC STC20020918142010809/18/02 14:20:31  5-MIN KSTC 182020Z AUTO 14011G18KT 10SM SCT030 25/17 A2954 1380 59 2900 140/11G18 RMK AO2
14926KSTC STC20020918142510809/18/02 14:25:31  5-MIN KSTC 182025Z AUTO 13009G15KT 10SM FEW030 25/17 A2954 1380 59 2900 120/09G15 RMK AO2
14926KSTC STC20020918143010809/18/02 14:30:31  5-MIN KSTC 182030Z AUTO 13010G15KT 10SM FEW030 24/17 A2954 1380 61 2800 130/10G15 RMK AO2
14926KSTC STC20020918143509909/18/02 14:35:31  5-MIN KSTC 182035Z AUTO 13009KT 10SM CLR 24/17 A2954 1380 61 2800 130/09 RMK AO2
14926KSTC STC20020918144009909/18/02 14:40:31  5-MIN KSTC 182040Z AUTO 15009KT 10SM CLR 25/17 A2954 1380 59 2900 150/09 RMK AO2
14926KSTC STC20020918144509909/18/02 14:45:31  5-MIN KSTC 182045Z AUTO 17015KT 10SM CLR 25/16 A2954 1380 57 2900 170/15 RMK AO2
14926KSTC STC20020918145012209/18/02 14:50:31  5-MIN KSTC 182050Z AUTO 15013KT 10SM CLR 26/16 A2954 1380 55 2900 150/13 RMK AO2 SLP007 T02560161 58013
14926KSTC STC20020918145509909/18/02 14:55:31  5-MIN KSTC 182055Z AUTO 16013KT 10SM CLR 24/17 A2954 1380 61 2800 160/13 RMK AO2
14926KSTC STC20020918150010209/18/02 15:00:31  5-MIN KSTC 182100Z AUTO 15013KT 10SM FEW043 24/17 A2954 1380 61 2800 150/13 RMK AO2
14926KSTC STC20020918150510209/18/02 15:05:31  5-MIN KSTC 182105Z AUTO 16012KT 10SM SCT043 24/17 A2954 1380 61 2800 160/12 RMK AO2
14926KSTC STC20020918151010209/18/02 15:10:31  5-MIN KSTC 182110Z AUTO 16011KT 10SM BKN041 24/17 A2954 1380 61 2800 160/11 RMK AO2
14926KSTC STC20020918151510209/18/02 15:15:31  5-MIN KSTC 182115Z AUTO 15013KT 10SM BKN041 24/17 A2954 1380 61 2800 150/13 RMK AO2
14926KSTC STC20020918152010909/18/02 15:20:31  5-MIN KSTC 182120Z AUTO 16011KT 10SM SCT040 BKN047 24/17 A2954 1380 63 2800 150/11 RMK AO2
14926KSTC STC20020918152510909/18/02 15:25:31  5-MIN KSTC 182125Z AUTO 15008KT 10SM SCT040 BKN047 24/17 A2954 1380 63 2800 150/08 RMK AO2
14926KSTC STC20020918153010209/18/02 15:30:31  5-MIN KSTC 182130Z AUTO 16009KT 10SM BKN044 24/17 A2954 1380 66 2800 150/09 RMK AO2
14926KSTC STC20020918153510909/18/02 15:35:31  5-MIN KSTC 182135Z AUTO 14011KT 10SM FEW039 BKN047 24/17 A2954 1380 66 2800 140/11 RMK AO2
14926KSTC STC20020918154010909/18/02 15:40:31  5-MIN KSTC 182140Z AUTO 15012KT 10SM FEW039 SCT047 24/17 A2954 1380 63 2800 140/12 RMK AO2
14926KSTC STC20020918154510209/18/02 15:45:31  5-MIN KSTC 182145Z AUTO 16012KT 10SM SCT047 24/17 A2953 1390 63 2800 150/12 RMK AO2
14926KSTC STC20020918155011909/18/02 15:50:31  5-MIN KSTC 182150Z AUTO 15012KT 10SM SCT049 24/17 A2953 1390 63 2800 150/12 RMK AO2 SLP004 T02440172
14926KSTC STC20020918155510209/18/02 15:55:31  5-MIN KSTC 182155Z AUTO 14009KT 10SM SCT049 24/18 A2953 1390 66 2800 140/09 RMK AO2
14926KSTC STC20020918160010909/18/02 16:00:31  5-MIN KSTC 182200Z AUTO 14010KT 10SM FEW033 SCT049 24/17 A2953 1390 63 2800 140/10 RMK AO2
14926KSTC STC20020918160511509/18/02 16:05:31  5-MIN KSTC 182205Z AUTO 13010G16KT 10SM SCT033 BKN049 24/17 A2953 1390 63 2800 130/10G16 RMK AO2
14926KSTC STC20020918161010909/18/02 16:10:31  5-MIN KSTC 182210Z AUTO 15016KT 10SM SCT031 BKN049 24/18 A2953 1390 66 2800 150/16 RMK AO2
14926KSTC STC20020918161511509/18/02 16:15:31  5-MIN KSTC 182215Z AUTO 15013G18KT 10SM SCT031 BKN049 24/17 A2953 1390 66 2800 150/13G18 RMK AO2
14926KSTC STC20020918162011509/18/02 16:20:31  5-MIN KSTC 182220Z AUTO 14011G18KT 10SM FEW031 SCT049 24/18 A2953 1390 68 2800 130/11G18 RMK AO2
14926KSTC STC20020918162511509/18/02 16:25:31  5-MIN KSTC 182225Z AUTO 15015G19KT 10SM FEW031 SCT049 24/17 A2953 1390 66 2800 140/15G19 RMK AO2
14926KSTC STC20020918163011509/18/02 16:30:31  5-MIN KSTC 182230Z AUTO 16015G19KT 10SM FEW031 BKN049 24/17 A2953 1390 63 2800 160/15G19 RMK AO2
14926KSTC STC20020918163510909/18/02 16:35:31  5-MIN KSTC 182235Z AUTO 15013KT 10SM FEW029 BKN049 24/17 A2953 1390 66 2800 150/13 RMK AO2
14926KSTC STC20020918164010209/18/02 16:40:31  5-MIN KSTC 182240Z AUTO 15012KT 10SM BKN049 23/17 A2953 1390 68 2700 150/12 RMK AO2
14926KSTC STC20020918164510209/18/02 16:45:31  5-MIN KSTC 182245Z AUTO 16014KT 10SM BKN049 23/17 A2953 1380 68 2700 150/14 RMK AO2
14926KSTC STC20020918165011909/18/02 16:50:31  5-MIN KSTC 182250Z AUTO 16011KT 10SM OVC049 23/17 A2953 1390 68 2700 150/11 RMK AO2 SLP005 T02330172
14926KSTC STC20020918165510809/18/02 16:55:31  5-MIN KSTC 182255Z AUTO 16014G18KT 10SM OVC049 23/17 A2953 1390 68 2700 150/14G18 RMK AO2
14926KSTC STC20020918170010809/18/02 17:00:31  5-MIN KSTC 182300Z AUTO 16011G18KT 10SM OVC049 23/17 A2954 1380 68 2700 150/11G18 RMK AO2
14926KSTC STC20020918170510909/18/02 17:05:31  5-MIN KSTC 182305Z AUTO 16012KT 10SM FEW043 OVC049 23/17 A2954 1380 68 2700 160/12 RMK AO2
14926KSTC STC20020918171010909/18/02 17:10:31  5-MIN KSTC 182310Z AUTO 16013KT 10SM SCT041 OVC049 23/17 A2954 1380 68 2600 160/13 RMK AO2
14926KSTC STC20020918171510909/18/02 17:15:31  5-MIN KSTC 182315Z AUTO 16011KT 10SM BKN041 OVC049 23/17 A2954 1380 68 2600 150/11 RMK AO2
14926KSTC STC20020918172010909/18/02 17:20:31  5-MIN KSTC 182320Z AUTO 16011KT 10SM BKN039 OVC055 23/17 A2954 1380 68 2600 150/11 RMK AO2
14926KSTC STC20020918172510909/18/02 17:25:31  5-MIN KSTC 182325Z AUTO 15013KT 10SM BKN039 OVC055 23/17 A2954 1380 68 2600 150/13 RMK AO2
14926KSTC STC20020918173010909/18/02 17:30:31  5-MIN KSTC 182330Z AUTO 15011KT 10SM BKN039 OVC055 23/17 A2954 1380 68 2600 150/11 RMK AO2
14926KSTC STC20020918173510909/18/02 17:35:31  5-MIN KSTC 182335Z AUTO 15013KT 10SM SCT039 OVC055 23/17 A2953 1380 68 2600 150/13 RMK AO2
14926KSTC STC20020918174010909/18/02 17:40:31  5-MIN KSTC 182340Z AUTO 15013KT 10SM FEW039 OVC055 23/17 A2953 1390 68 2600 150/13 RMK AO2
14926KSTC STC20020918174511509/18/02 17:45:31  5-MIN KSTC 182345Z AUTO 15008G16KT 10SM FEW039 OVC055 22/17 A2953 1390 70 2600 150/08G16 RMK AO2
14926KSTC STC20020918175014309/18/02 17:50:31  5-MIN KSTC 182350Z AUTO 15010G16KT 10SM OVC055 22/17 A2953 1390 70 2600 150/10G16 RMK AO2 SLP004 T02220167 10256 20222 58010
14926KSTC STC20020918175510209/18/02 17:55:31  5-MIN KSTC 182355Z AUTO 16012KT 10SM OVC055 22/17 A2953 1390 70 2600 160/12 RMK AO2
14926KSTC STC20020918180010209/18/02 18:00:31  5-MIN KSTC 190000Z AUTO 15013KT 10SM OVC055 22/17 A2954 1380 70 2600 150/13 RMK AO2
14926KSTC STC20020918180510909/18/02 18:05:31  5-MIN KSTC 190005Z AUTO 16011KT 10SM FEW049 OVC060 22/17 A2954 1380 70 2600 160/11 RMK AO2
14926KSTC STC20020918181010909/18/02 18:10:31  5-MIN KSTC 190010Z AUTO 16010KT 10SM FEW049 OVC060 22/17 A2954 1380 70 2600 160/10 RMK AO2
14926KSTC STC20020918181510909/18/02 18:15:31  5-MIN KSTC 190015Z AUTO 15010KT 10SM FEW049 OVC060 22/17 A2954 1380 70 2600 150/10 RMK AO2
14926KSTC STC20020918182010209/18/02 18:20:31  5-MIN KSTC 190020Z AUTO 16011KT 10SM OVC060 22/17 A2954 1380 73 2600 150/11 RMK AO2
14926KSTC STC20020918182511609/18/02 18:25:31  5-MIN KSTC 190025Z AUTO 16012KT 10SM SCT027 SCT049 OVC060 22/17 A2954 1380 75 2500 160/12 RMK AO2
14926KSTC STC20020918183012209/18/02 18:30:31  5-MIN KSTC 190030Z AUTO 16015G19KT 10SM SCT027 SCT042 OVC060 22/17 A2953 1390 75 2500 160/15G19 RMK AO2
14926KSTC STC20020918183512209/18/02 18:35:31  5-MIN KSTC 190035Z AUTO 16016G19KT 10SM FEW027 SCT042 OVC060 22/17 A2953 1390 75 2500 160/16G19 RMK AO2
14926KSTC STC20020918184011609/18/02 18:40:31  5-MIN KSTC 190040Z AUTO 16014KT 10SM FEW027 BKN050 OVC065 22/17 A2953 1390 75 2500 150/14 RMK AO2
14926KSTC STC20020918184512209/18/02 18:45:31  5-MIN KSTC 190045Z AUTO 16016G19KT 10SM FEW027 BKN042 OVC065 21/17 A2953 1390 78 2500 150/16G19 RMK AO2
14926KSTC STC20020918185013309/18/02 18:50:31  5-MIN KSTC 190050Z AUTO 16014KT 10SM FEW025 BKN035 OVC050 21/17 A2953 1390 78 2500 160/14 RMK AO2 SLP003 T02110172
14926KSTC STC20020918185511609/18/02 18:55:31  5-MIN KSTC 190055Z AUTO 15011KT 10SM FEW021 BKN035 OVC050 21/18 A2953 1390 84 2400 140/11 RMK AO2
14926KSTC STC20020918190011609/18/02 19:00:31  5-MIN KSTC 190100Z AUTO 15013KT 10SM FEW021 BKN033 OVC042 21/18 A2953 1390 84 2400 150/13 RMK AO2
14926KSTC STC20020918190511609/18/02 19:05:31  5-MIN KSTC 190105Z AUTO 15011KT 10SM FEW021 BKN033 OVC042 21/18 A2953 1390 84 2400 150/11 RMK AO2
14926KSTC STC20020918191011609/18/02 19:10:31  5-MIN KSTC 190110Z AUTO 14007KT 10SM FEW021 SCT028 OVC033 21/18 A2953 1390 84 2400 140/07 RMK AO2
14926KSTC STC20020918191512509/18/02 19:15:31  5-MIN KSTC 190115Z AUTO 13009KT 10SM -RA SCT028 OVC033 20/18 A2953 1390 90 2300 130/09 RMK AO2 RAB12 P0000
14926KSTC STC20020918192012409/18/02 19:20:31  5-MIN KSTC 190120Z AUTO 14008KT 10SM BKN028 OVC033 20/18 A2953 1390 90 2300 140/08 RMK AO2 RAB12E19 P0000
14926KSTC STC20020918192511709/18/02 19:25:31  5-MIN KSTC 190125Z AUTO 13008KT 10SM OVC030 20/18 A2953 1390 90 2300 130/08 RMK AO2 RAB12E19 P0000
14926KSTC STC20020918193011709/18/02 19:30:31  5-MIN KSTC 190130Z AUTO 13008KT 10SM OVC030 20/18 A2953 1390 90 2300 130/08 RMK AO2 RAB12E19 P0000
14926KSTC STC20020918193511709/18/02 19:35:31  5-MIN KSTC 190135Z AUTO 13009KT 10SM OVC030 20/18 A2953 1390 90 2300 130/09 RMK AO2 RAB12E19 P0000
14926KSTC STC20020918194011709/18/02 19:40:31  5-MIN KSTC 190140Z AUTO 13008KT 10SM OVC030 20/18 A2953 1390 90 2300 130/08 RMK AO2 RAB12E19 P0000
14926KSTC STC20020918194512409/18/02 19:45:31  5-MIN KSTC 190145Z AUTO 13009KT 10SM BKN030 OVC065 20/18 A2952 1400 90 2300 130/09 RMK AO2 RAB12E19 P0000
14926KSTC STC20020918195014809/18/02 19:50:31  5-MIN KSTC 190150Z AUTO 13008KT 10SM BKN030 BKN038 BKN065 20/18 A2952 1400 87 2300 120/08 RMK AO2 RAB12E19 SLP000 P0000 T02000178
14926KSTC STC20020918195510909/18/02 19:55:31  5-MIN KSTC 190155Z AUTO 12008KT 10SM SCT032 BKN065 20/18 A2952 1400 87 2300 120/08 RMK AO2
14926KSTC STC20020918200010909/18/02 20:00:31  5-MIN KSTC 190200Z AUTO 13010KT 10SM SCT032 BKN065 20/18 A2952 1400 87 2300 130/10 RMK AO2
14926KSTC STC20020918200510909/18/02 20:05:31  5-MIN KSTC 190205Z AUTO 14011KT 10SM FEW032 BKN065 20/18 A2952 1400 87 2300 130/11 RMK AO2
14926KSTC STC20020918201010909/18/02 20:10:31  5-MIN KSTC 190210Z AUTO 14009KT 10SM FEW034 BKN065 20/18 A2952 1400 87 2300 140/09 RMK AO2
14926KSTC STC20020918201510209/18/02 20:15:31  5-MIN KSTC 190215Z AUTO 13009KT 10SM BKN065 20/18 A2951 1410 87 2400 130/09 RMK AO2
14926KSTC STC20020918202010209/18/02 20:20:31  5-MIN KSTC 190220Z AUTO 13008KT 10SM BKN060 20/18 A2951 1410 87 2400 130/08 RMK AO2
14926KSTC STC20020918202510209/18/02 20:25:31  5-MIN KSTC 190225Z AUTO 14008KT 10SM SCT060 19/18 A2951 1410 90 2300 130/08 RMK AO2
14926KSTC STC20020918203010209/18/02 20:30:31  5-MIN KSTC 190230Z AUTO 13010KT 10SM FEW060 19/18 A2951 1410 90 2300 130/10 RMK AO2
14926KSTC STC20020918203510209/18/02 20:35:31  5-MIN KSTC 190235Z AUTO 14007KT 10SM FEW060 19/18 A2951 1410 90 2300 130/07 RMK AO2
14926KSTC STC20020918204010209/18/02 20:40:31  5-MIN KSTC 190240Z AUTO 15008KT 10SM FEW046 19/18 A2951 1400 90 2300 140/08 RMK AO2
14926KSTC STC20020918204510209/18/02 20:45:31  5-MIN KSTC 190245Z AUTO 14008KT 10SM SCT044 19/18 A2951 1410 90 2300 140/08 RMK AO2
14926KSTC STC20020918205013109/18/02 20:50:31  5-MIN KSTC 190250Z AUTO 14007KT 10SM BKN047 20/18 A2951 1410 87 2400 140/07 RMK AO2 SLP998 60000 T02000178 56002
14926KSTC STC20020918205510909/18/02 20:55:31  5-MIN KSTC 190255Z AUTO 14008KT 10SM SCT045 BKN049 20/18 A2951 1410 87 2400 140/08 RMK AO2
14926KSTC STC20020918210010909/18/02 21:00:31  5-MIN KSTC 190300Z AUTO 14007KT 10SM FEW030 BKN049 20/18 A2951 1400 87 2300 140/07 RMK AO2
14926KSTC STC20020918210511609/18/02 21:05:31  5-MIN KSTC 190305Z AUTO 14007KT 10SM FEW029 SCT035 OVC047 20/18 A2951 1410 87 2400 140/07 RMK AO2
14926KSTC STC20020918211011609/18/02 21:10:31  5-MIN KSTC 190310Z AUTO 13007KT 10SM SCT029 SCT036 OVC050 20/18 A2951 1410 87 2400 130/07 RMK AO2
14926KSTC STC20020918211510909/18/02 21:15:31  5-MIN KSTC 190315Z AUTO 14007KT 10SM BKN031 OVC050 20/18 A2951 1410 87 2400 140/07 RMK AO2
14926KSTC STC20020918212010909/18/02 21:20:31  5-MIN KSTC 190320Z AUTO 14007KT 10SM BKN031 OVC050 20/18 A2951 1410 87 2400 130/07 RMK AO2
14926KSTC STC20020918212511609/18/02 21:25:31  5-MIN KSTC 190325Z AUTO 14007KT 10SM BKN031 BKN035 OVC050 20/18 A2951 1410 87 2400 130/07 RMK AO2
14926KSTC STC20020918213011609/18/02 21:30:31  5-MIN KSTC 190330Z AUTO 13008KT 10SM BKN028 BKN033 OVC050 20/18 A2951 1410 87 2400 130/08 RMK AO2
14926KSTC STC20020918213511609/18/02 21:35:31  5-MIN KSTC 190335Z AUTO 13007KT 10SM BKN028 BKN033 OVC050 20/18 A2950 1410 87 2400 120/07 RMK AO2
14926KSTC STC20020918214011609/18/02 21:40:31  5-MIN KSTC 190340Z AUTO 13006KT 10SM SCT028 BKN033 OVC050 20/18 A2950 1410 87 2400 120/06 RMK AO2
14926KSTC STC20020918214511609/18/02 21:45:31  5-MIN KSTC 190345Z AUTO 13005KT 10SM BKN028 BKN033 OVC050 20/18 A2950 1410 87 2400 120/05 RMK AO2
14926KSTC STC20020918215013309/18/02 21:50:31  5-MIN KSTC 190350Z AUTO 13005KT 10SM SCT027 BKN032 OVC050 20/18 A2950 1410 87 2400 130/05 RMK AO2 SLP995 T02000178
14926KSTC STC20020918215511609/18/02 21:55:31  5-MIN KSTC 190355Z AUTO 14004KT 10SM BKN027 BKN034 OVC050 20/18 A2950 1410 87 2400 130/04 RMK AO2
14926KSTC STC20020918220011609/18/02 22:00:31  5-MIN KSTC 190400Z AUTO 14006KT 10SM BKN024 BKN033 OVC050 20/18 A2951 1410 87 2400 130/06 RMK AO2
14926KSTC STC20020918220511609/18/02 22:05:31  5-MIN KSTC 190405Z AUTO 14006KT 10SM BKN024 BKN030 OVC049 21/18 A2951 1410 84 2400 140/06 RMK AO2
14926KSTC STC20020918221010909/18/02 22:10:31  5-MIN KSTC 190410Z AUTO 14008KT 10SM BKN024 OVC030 20/18 A2951 1410 87 2400 130/08 RMK AO2
14926KSTC STC20020918221510909/18/02 22:15:31  5-MIN KSTC 190415Z AUTO 14006KT 10SM BKN024 OVC030 21/18 A2951 1410 84 2400 130/06 RMK AO2
14926KSTC STC20020918222010209/18/02 22:20:31  5-MIN KSTC 190420Z AUTO 14007KT 10SM OVC024 21/18 A2951 1410 84 2400 130/07 RMK AO2
14926KSTC STC20020918222510209/18/02 22:25:31  5-MIN KSTC 190425Z AUTO 14007KT 10SM OVC024 21/18 A2950 1410 84 2400 130/07 RMK AO2
14926KSTC STC20020918223010209/18/02 22:30:31  5-MIN KSTC 190430Z AUTO 13007KT 10SM OVC024 21/18 A2950 1420 84 2400 130/07 RMK AO2
14926KSTC STC20020918223510909/18/02 22:35:31  5-MIN KSTC 190435Z AUTO 13007KT 10SM BKN024 OVC030 21/18 A2949 1430 84 2400 130/07 RMK AO2
14926KSTC STC20020918224010909/18/02 22:40:31  5-MIN KSTC 190440Z AUTO 13008KT 10SM BKN024 OVC033 21/18 A2949 1430 84 2400 130/08 RMK AO2
14926KSTC STC20020918224510909/18/02 22:45:31  5-MIN KSTC 190445Z AUTO 12007KT 10SM SCT024 OVC033 21/18 A2948 1430 84 2500 120/07 RMK AO2
14926KSTC STC20020918225013309/18/02 22:50:31  5-MIN KSTC 190450Z AUTO 12006KT 10SM SCT024 BKN037 20/18 A2947 1440 87 2400 120/06 RMK AO2 PRESFR SLP985 T02000178
14926KSTC STC20020918225511609/18/02 22:55:31  5-MIN KSTC 190455Z AUTO 11005KT 10SM SCT026 BKN037 20/18 A2946 1450 87 2400 110/05 RMK AO2 PRESFR
14926KSTC STC20020918230011609/18/02 23:00:31  5-MIN KSTC 190500Z AUTO 11006KT 10SM FEW026 BKN037 20/18 A2945 1460 87 2400 100/06 RMK AO2 PRESFR
14926KSTC STC20020918230510909/18/02 23:05:31  5-MIN KSTC 190505Z AUTO 14007KT 10SM FEW028 SCT037 20/18 A2947 1440 87 2400 140/07 RMK AO2
14926KSTC STC20020918231010909/18/02 23:10:31  5-MIN KSTC 190510Z AUTO 13006KT 10SM FEW030 SCT037 20/18 A2948 1440 87 2400 130/06 RMK AO2
14926KSTC STC20020918231512509/18/02 23:15:31  5-MIN KSTC 190515Z AUTO 14007KT 10SM -RA SCT028 BKN037 20/18 A2948 1440 87 2400 140/07 RMK AO2 RAB11 P0000
14926KSTC STC20020918232012509/18/02 23:20:31  5-MIN KSTC 190520Z AUTO 15007KT 10SM -RA BKN028 BKN045 20/18 A2948 1440 90 2400 140/07 RMK AO2 RAB11 P0000
14926KSTC STC20020918232512409/18/02 23:25:31  5-MIN KSTC 190525Z AUTO 13006KT 8SM -RA BKN027 BKN045 19/18 A2947 1440 93 2300 130/06 RMK AO2 RAB11 P0001
14926KSTC STC20020918233011709/18/02 23:30:31  5-MIN KSTC 190530Z AUTO 13006KT 8SM -RA BKN027 19/18 A2946 1450 93 2300 120/06 RMK AO2 RAB11 P0001
14926KSTC STC20020918233511709/18/02 23:35:31  5-MIN KSTC 190535Z AUTO 13006KT 8SM -RA OVC027 19/18 A2946 1450 93 2300 120/06 RMK AO2 RAB11 P0001
14926KSTC STC20020918234013109/18/02 23:40:31  5-MIN KSTC 190540Z AUTO 11006KT 8SM -RA BKN027 OVC033 19/18 A2945 1460 93 2400 110/06 RMK AO2 RAB11 PRESFR P0001
14926KSTC STC20020918234514009/18/02 23:45:31  5-MIN KSTC 190545Z AUTO 14005KT 8SM VCTS FEW014 BKN027 OVC033 19/18 A2946 1450 93 2300 140/05 RMK AO2 TSB43RAB11E45 P0001
14926KSTC STC20020918235019109/18/02 23:50:31  5-MIN KSTC 190550Z AUTO 14006KT 8SM VCTS FEW014 BKN027 OVC034 19/18 A2946 1450 93 2300 130/06 RMK AO2 TSB43RAB11E45 SLP979 P0001 60001 T01940183 10222 20194 402560161 57006
14926KSTC STC20020918235511809/18/02 23:55:31  5-MIN KSTC 190555Z AUTO 14005KT 7SM TS FEW014 BKN027 OVC034 19/18 A2946 1460 93 2300 130/05 RMK AO2
14926KSTC STC20020919000011809/19/02 00:00:31  5-MIN KSTC 190600Z AUTO 13004KT 7SM TS FEW014 BKN027 OVC034 19/18 A2946 1460 93 2300 130/04 RMK AO2
14926KSTC STC20020919000511809/19/02 00:05:31  5-MIN KSTC 190605Z AUTO 15004KT 7SM TS SCT014 BKN027 OVC034 19/18 A2946 1450 93 2300 150/04 RMK AO2
14926KSTC STC20020919001013609/19/02 00:10:31  5-MIN KSTC 190610Z AUTO 16004KT 6SM -TSRA BR BKN012 BKN027 OVC034 19/18 A2946 1450 93 2300 160/04 RMK AO2 RAB06 P0001
14926KSTC STC20020919001513509/19/02 00:15:31  5-MIN KSTC 190615Z AUTO 18007KT 3SM TSRA BR FEW001 BKN012 OVC034 19/18 A2947 1440 93 2300 180/07 RMK AO2 RAB06 P0007
14926KSTC STC20020919002014009/19/02 00:20:31  5-MIN KSTC 190620Z AUTO 20012KT 1 3/4SM +TSRA BR FEW001 BKN012 OVC034 19/19 A2947 1440 97 2300 200/12 RMK AO2 RAB06 P0019
14926KSTC STC20020919002514709/19/02 00:25:31  5-MIN KSTC 190625Z AUTO 23014G18KT 1 1/4SM +TSRA BR FEW001 BKN013 OVC025 19/19 A2948 1440 100 2300 220/14G18 RMK AO2 RAB06 P0030
14926KSTC STC20020919003014709/19/02 00:30:31  5-MIN KSTC 190630Z AUTO 23009G18KT 1 1/4SM +TSRA BR FEW001 SCT006 OVC011 18/18 A2947 1440 100 2200 230/09G18 RMK AO2 RAB06 P0040
14926KSTC STC20020919003514109/19/02 00:35:31  5-MIN KSTC 190635Z AUTO VRB04KT 1 3/4SM +TSRA BR FEW001 BKN009 OVC015 18/18 A2947 1440 100 2200 VRB/04 RMK AO2 RAB06 P0046
14926KSTC STC20020919004013709/19/02 00:40:31  5-MIN KSTC 190640Z AUTO 00000KT 3SM +TSRA BR FEW001 BKN011 OVC033 18/18 A2947 1450 100 2200 000/00 RMK AO2 RAB06 P0048
14926KSTC STC20020919004513909/19/02 00:45:31  5-MIN KSTC 190645Z AUTO 00000KT 6SM -TSRA BR FEW001 BKN011 OVC044 18/18 A2946 1450 100 2200 000/00 RMK AO2 RAB06 P0048 $
14926KSTC STC20020919005015309/19/02 00:50:31  5-MIN KSTC 190650Z AUTO 00000KT 10SM -TSRA SCT009 SCT022 OVC044 18/18 A2946 1450 96 2200 000/00 RMK AO2 RAB06 SLP980 P0048 T01830178 $
14926KSTC STC20020919005513109/19/02 00:55:31  5-MIN KSTC 190655Z AUTO 14003KT 10SM -TSRA FEW009 BKN042 OVC050 18/18 A2946 1450 100 2200 130/03 RMK AO2 P0000 $
14926KSTC STC20020919010013609/19/02 01:00:31  5-MIN KSTC 190700Z AUTO 00000KT 10SM TS SCT013 BKN038 OVC045 18/18 A2947 1450 100 2200 000/00 RMK AO2 RAE0657 P0000 $
14926KSTC STC20020919010513609/19/02 01:05:31  5-MIN KSTC 190705Z AUTO 16003KT 10SM TS BKN011 BKN022 OVC050 18/18 A2947 1450 100 2200 160/03 RMK AO2 RAE0657 P0000 $
14926KSTC STC20020919011013709/19/02 01:10:31  5-MIN KSTC 190710Z AUTO 18004KT 10SM VCTS BKN011 BKN041 OVC050 19/18 A2947 1440 97 2300 170/04 RMK AO2 RAE0657 P0000 $
14926KSTC STC20020919011514209/19/02 01:15:31  5-MIN KSTC 190715Z AUTO 17005KT 10SM BKN011 OVC041 19/18 A2947 1440 97 2300 160/05 RMK AO2 TSE11RAE0657 CIG 008V013 P0000 $
14926KSTC STC20020919012013409/19/02 01:20:31  5-MIN KSTC 190720Z AUTO 18005KT 8SM OVC009 19/19 A2948 1440 97 2300 170/05 RMK AO2 TSE11RAE0657 CIG 008V013 P0000 $
14926KSTC STC20020919012513409/19/02 01:25:31  5-MIN KSTC 190725Z AUTO 18005KT 8SM OVC009 19/19 A2948 1440 97 2300 180/05 RMK AO2 TSE11RAE0657 CIG 007V013 P0000 $
14926KSTC STC20020919013012909/19/02 01:30:31  5-MIN KSTC 190730Z AUTO 19005KT 7SM BKN007 OVC011 19/19 A2947 1440 97 2300 180/05 RMK AO2 TSE11RAE0657 P0000 $
14926KSTC STC20020919013512509/19/02 01:35:31  5-MIN KSTC 190735Z AUTO 17005KT 6SM BR OVC007 19/19 A2947 1440 97 2300 170/05 RMK AO2 TSE11RAE0657 P0000 $
14926KSTC STC20020919014012509/19/02 01:40:31  5-MIN KSTC 190740Z AUTO 16007KT 6SM BR OVC007 19/19 A2948 1430 97 2300 160/07 RMK AO2 TSE11RAE0657 P0000 $
14926KSTC STC20020919014512509/19/02 01:45:31  5-MIN KSTC 190745Z AUTO 17007KT 5SM BR OVC007 19/19 A2949 1430 97 2300 170/07 RMK AO2 TSE11RAE0657 P0000 $
14926KSTC STC20020919015014209/19/02 01:50:31  5-MIN KSTC 190750Z AUTO 17008KT 5SM BR OVC007 19/19 A2948 1430 97 2300 160/08 RMK AO2 TSE11RAE0657 SLP986 P0000 T01940189 $
14926KSTC STC20020919015510609/19/02 01:55:31  5-MIN KSTC 190755Z AUTO 18007KT 5SM BR OVC007 19/19 A2948 1430 97 2300 170/07 RMK AO2 $
14926KSTC STC20020919020010609/19/02 02:00:31  5-MIN KSTC 190800Z AUTO 18007KT 5SM BR OVC007 19/19 A2948 1440 97 2300 170/07 RMK AO2 $
14926KSTC STC20020919020511309/19/02 02:05:31  5-MIN KSTC 190805Z AUTO VRB03KT 4SM BR OVC007 19/19 A2946 1450 97 2300 VRB/03 RMK AO2 PRESFR $
14926KSTC STC20020919021011309/19/02 02:10:31  5-MIN KSTC 190810Z AUTO 20003KT 4SM BR OVC007 19/19 A2946 1460 97 2400 200/03 RMK AO2 PRESFR $
14926KSTC STC20020919021511809/19/02 02:15:31  5-MIN KSTC 190815Z AUTO 17006KT 4SM BR OVC007 19/19 A2946 1450 97 2300 170/06 RMK AO2 CIG 005V010 $
14926KSTC STC20020919022012509/19/02 02:20:31  5-MIN KSTC 190820Z AUTO 17007KT 4SM BR BKN007 OVC012 19/19 A2947 1450 97 2300 170/07 RMK AO2 CIG 005V011 $
14926KSTC STC20020919022511309/19/02 02:25:31  5-MIN KSTC 190825Z AUTO 18007KT 4SM BR BKN007 OVC012 19/19 A2947 1450 97 2300 180/07 RMK AO2 $
14926KSTC STC20020919023011309/19/02 02:30:31  5-MIN KSTC 190830Z AUTO 19006KT 4SM BR SCT007 OVC012 19/19 A2946 1450 97 2300 180/06 RMK AO2 $
14926KSTC STC20020919023511809/19/02 02:35:31  5-MIN KSTC 190835Z AUTO 20006KT 4SM BR OVC010 19/19 A2946 1450 97 2300 190/06 RMK AO2 CIG 005V013 $
14926KSTC STC20020919024012509/19/02 02:40:31  5-MIN KSTC 190840Z AUTO 19006KT 4SM BR BKN008 OVC012 19/19 A2947 1450 97 2300 190/06 RMK AO2 CIG 005V011 $
14926KSTC STC20020919024511809/19/02 02:45:31  5-MIN KSTC 190845Z AUTO 20005KT 4SM BR OVC010 19/19 A2946 1450 97 2300 200/05 RMK AO2 CIG 005V014 $
14926KSTC STC20020919025016109/19/02 02:50:31  5-MIN KSTC 190850Z AUTO 21006KT 4SM BR FEW005 BKN010 OVC014 19/19 A2946 1450 97 2300 210/06 RMK AO2 CIG 008V012 SLP979 60048 T01940189 56017 $
14926KSTC STC20020919025511309/19/02 02:55:31  5-MIN KSTC 190855Z AUTO 21007KT 5SM BR FEW005 OVC010 19/19 A2946 1450 97 2300 210/07 RMK AO2 $
14926KSTC STC20020919030011309/19/02 03:00:31  5-MIN KSTC 190900Z AUTO 20006KT 5SM BR SCT010 OVC014 19/19 A2946 1450 97 2300 200/06 RMK AO2 $
14926KSTC STC20020919030511309/19/02 03:05:31  5-MIN KSTC 190905Z AUTO 22006KT 4SM BR SCT010 OVC016 19/19 A2946 1460 97 2300 210/06 RMK AO2 $
14926KSTC STC20020919031010609/19/02 03:10:31  5-MIN KSTC 190910Z AUTO 22005KT 4SM BR OVC016 19/19 A2946 1460 97 2300 220/05 RMK AO2 $
14926KSTC STC20020919031510609/19/02 03:15:31  5-MIN KSTC 190915Z AUTO 23006KT 4SM BR OVC014 19/19 A2946 1460 97 2400 220/06 RMK AO2 $
14926KSTC STC20020919032010609/19/02 03:20:31  5-MIN KSTC 190920Z AUTO 24007KT 4SM BR OVC014 19/19 A2946 1460 97 2400 230/07 RMK AO2 $
14926KSTC STC20020919032510609/19/02 03:25:31  5-MIN KSTC 190925Z AUTO 24008KT 4SM BR OVC014 19/19 A2946 1460 97 2400 240/08 RMK AO2 $
14926KSTC STC20020919033010609/19/02 03:30:31  5-MIN KSTC 190930Z AUTO 24006KT 5SM BR OVC014 19/19 A2945 1460 97 2400 240/06 RMK AO2 $
14926KSTC STC20020919033511409/19/02 03:35:31  5-MIN KSTC 190935Z AUTO 24006KT 5SM BR FEW007 OVC014 19/19 A2946 1460 100 2300 230/06 RMK AO2 $
14926KSTC STC20020919034011309/19/02 03:40:31  5-MIN KSTC 190940Z AUTO 23006KT 5SM BR FEW007 BKN014 19/18 A2946 1460 97 2300 230/06 RMK AO2 $
14926KSTC STC20020919034511309/19/02 03:45:31  5-MIN KSTC 190945Z AUTO 23005KT 5SM BR FEW007 BKN014 19/18 A2946 1460 97 2300 220/05 RMK AO2 $
14926KSTC STC20020919035012409/19/02 03:50:31  5-MIN KSTC 190950Z AUTO 23005KT 5SM BR SCT014 18/18 A2946 1460 100 2200 220/05 RMK AO2 SLP979 T01830183 $
14926KSTC STC20020919035510709/19/02 03:55:31  5-MIN KSTC 190955Z AUTO 23004KT 5SM BR FEW014 18/18 A2946 1450 100 2200 230/04 RMK AO2 $
14926KSTC STC20020919040010309/19/02 04:00:31  5-MIN KSTC 191000Z AUTO 24005KT 5SM BR CLR 18/18 A2946 1450 96 2200 240/05 RMK AO2 $
14926KSTC STC20020919040510309/19/02 04:05:31  5-MIN KSTC 191005Z AUTO 24005KT 5SM BR CLR 18/18 A2946 1450 96 2200 230/05 RMK AO2 $
14926KSTC STC20020919041010409/19/02 04:10:31  5-MIN KSTC 191010Z AUTO 23005KT 5SM BR CLR 18/18 A2946 1450 100 2200 230/05 RMK AO2 $
14926KSTC STC20020919041510409/19/02 04:15:31  5-MIN KSTC 191015Z AUTO 24006KT 6SM BR CLR 18/18 A2946 1450 100 2200 230/06 RMK AO2 $
14926KSTC STC20020919042010309/19/02 04:20:31  5-MIN KSTC 191020Z AUTO 25006KT 6SM BR CLR 18/17 A2946 1450 96 2200 240/06 RMK AO2 $
14926KSTC STC20020919042510009/19/02 04:25:31  5-MIN KSTC 191025Z AUTO 25008KT 7SM CLR 18/17 A2947 1450 96 2100 240/08 RMK AO2 $
14926KSTC STC20020919043010009/19/02 04:30:31  5-MIN KSTC 191030Z AUTO 26008KT 8SM CLR 18/17 A2947 1450 96 2100 260/08 RMK AO2 $
14926KSTC STC20020919043510009/19/02 04:35:31  5-MIN KSTC 191035Z AUTO 27008KT 9SM CLR 18/17 A2946 1450 93 2200 270/08 RMK AO2 $
14926KSTC STC20020919044010109/19/02 04:40:31  5-MIN KSTC 191040Z AUTO 27007KT 10SM CLR 17/17 A2946 1460 96 2100 270/07 RMK AO2 $
14926KSTC STC20020919044510109/19/02 04:45:31  5-MIN KSTC 191045Z AUTO 27008KT 10SM CLR 17/16 A2946 1460 93 2100 270/08 RMK AO2 $
14926KSTC STC20020919045011809/19/02 04:50:31  5-MIN KSTC 191050Z AUTO 27007KT 10SM CLR 17/16 A2946 1460 93 2100 260/07 RMK AO2 SLP978 T01720161 $
14926KSTC STC20020919045510109/19/02 04:55:31  5-MIN KSTC 191055Z AUTO 26007KT 10SM CLR 17/16 A2946 1460 96 2000 260/07 RMK AO2 $
14926KSTC STC20020919050010109/19/02 05:00:31  5-MIN KSTC 191100Z AUTO 27007KT 10SM CLR 17/16 A2946 1450 96 2000 260/07 RMK AO2 $
14926KSTC STC20020919050510109/19/02 05:05:31  5-MIN KSTC 191105Z AUTO 26006KT 10SM CLR 17/16 A2946 1450 93 2000 260/06 RMK AO2 $
14926KSTC STC20020919051010309/19/02 05:10:31  5-MIN KSTC 191110Z AUTO 26006KT 9SM FEW070 17/16 A2946 1450 93 2000 260/06 RMK AO2 $
14926KSTC STC20020919051510309/19/02 05:15:31  5-MIN KSTC 191115Z AUTO 27006KT 9SM SCT070 16/16 A2946 1460 96 2000 270/06 RMK AO2 $
14926KSTC STC20020919052010309/19/02 05:20:31  5-MIN KSTC 191120Z AUTO 28006KT 9SM SCT070 16/16 A2946 1460 96 2000 280/06 RMK AO2 $
14926KSTC STC20020919052510409/19/02 05:25:31  5-MIN KSTC 191125Z AUTO 28007KT 10SM SCT070 16/16 A2946 1460 96 2000 280/07 RMK AO2 $
14926KSTC STC20020919053010409/19/02 05:30:31  5-MIN KSTC 191130Z AUTO 26006KT 10SM SCT070 16/16 A2946 1450 96 2000 260/06 RMK AO2 $
14926KSTC STC20020919053510409/19/02 05:35:31  5-MIN KSTC 191135Z AUTO 24004KT 10SM SCT070 16/16 A2947 1450 96 2000 240/04 RMK AO2 $
14926KSTC STC20020919054010409/19/02 05:40:31  5-MIN KSTC 191140Z AUTO 27004KT 10SM SCT065 16/15 A2947 1450 93 2000 260/04 RMK AO2 $
14926KSTC STC20020919054510409/19/02 05:45:31  5-MIN KSTC 191145Z AUTO 27004KT 10SM SCT060 16/15 A2947 1440 93 1900 270/04 RMK AO2 $
14926KSTC STC20020919065012009/19/02 06:50:31  5-MIN KSTC 191250Z AUTO 27004KT 8SM OVC060 16/15 A2949 1420 96 1900 260/04 RMK AO2 SLP993 T01560150 $
14926KSTC STC20020919065510309/19/02 06:55:31  5-MIN KSTC 191255Z AUTO 26005KT 8SM BKN060 16/15 A2950 1420 96 1900 250/05 RMK AO2 $
14926KSTC STC20020919070010309/19/02 07:00:31  5-MIN KSTC 191300Z AUTO 26003KT 8SM BKN060 16/15 A2950 1420 96 1900 260/03 RMK AO2 $
14926KSTC STC20020919070510309/19/02 07:05:31  5-MIN KSTC 191305Z AUTO 25004KT 7SM SCT060 16/15 A2950 1420 96 1900 240/04 RMK AO2 $
14926KSTC STC20020919071010309/19/02 07:10:31  5-MIN KSTC 191310Z AUTO 24003KT 7SM SCT060 16/15 A2951 1410 96 1800 230/03 RMK AO2 $
14926KSTC STC20020919071510309/19/02 07:15:31  5-MIN KSTC 191315Z AUTO 25003KT 7SM FEW065 16/15 A2951 1410 96 1800 240/03 RMK AO2 $
14926KSTC STC20020919072010009/19/02 07:20:31  5-MIN KSTC 191320Z AUTO 24003KT 7SM CLR 16/15 A2951 1410 96 1800 240/03 RMK AO2 $
14926KSTC STC20020919072510009/19/02 07:25:31  5-MIN KSTC 191325Z AUTO 24004KT 7SM CLR 16/15 A2952 1400 96 1800 230/04 RMK AO2 $
14926KSTC STC20020919073010009/19/02 07:30:31  5-MIN KSTC 191330Z AUTO 22004KT 7SM CLR 16/15 A2952 1400 96 1800 220/04 RMK AO2 $
14926KSTC STC20020919073510009/19/02 07:35:31  5-MIN KSTC 191335Z AUTO 24004KT 8SM CLR 16/15 A2952 1400 96 1800 230/04 RMK AO2 $
14926KSTC STC20020919074010009/19/02 07:40:31  5-MIN KSTC 191340Z AUTO 25004KT 8SM CLR 16/15 A2952 1400 96 1800 240/04 RMK AO2 $
14926KSTC STC20020919074510009/19/02 07:45:31  5-MIN KSTC 191345Z AUTO 25004KT 8SM CLR 16/15 A2951 1400 96 1800 250/04 RMK AO2 $
14926KSTC STC20020919075012009/19/02 07:50:31  5-MIN KSTC 191350Z AUTO 26004KT 8SM FEW009 16/16 A2951 1400 96 1900 260/04 RMK AO2 SLP999 T01610156 $
14926KSTC STC20020919075510309/19/02 07:55:31  5-MIN KSTC 191355Z AUTO 26005KT 8SM SCT007 16/15 A2952 1400 93 1900 260/05 RMK AO2 $
14926KSTC STC20020919080011509/19/02 08:00:31  5-MIN KSTC 191400Z AUTO 28007KT 8SM BKN007 16/16 A2952 1400 96 1900 280/07 RMK AO2 CIG 005V009 $
14926KSTC STC20020919080511509/19/02 08:05:31  5-MIN KSTC 191405Z AUTO 28008KT 8SM BKN007 16/15 A2952 1400 93 1900 280/08 RMK AO2 CIG 005V009 $
14926KSTC STC20020919081011509/19/02 08:10:31  5-MIN KSTC 191410Z AUTO 29006KT 7SM BKN007 16/15 A2952 1400 93 1900 290/06 RMK AO2 CIG 005V009 $
14926KSTC STC20020919081511509/19/02 08:15:31  5-MIN KSTC 191415Z AUTO 30007KT 7SM OVC005 16/16 A2952 1400 96 1900 300/07 RMK AO2 CIG 004V009 $
14926KSTC STC20020919082011809/19/02 08:20:31  5-MIN KSTC 191420Z AUTO 30007KT 6SM BR OVC005 16/16 A2952 1400 96 1900 290/07 RMK AO2 CIG 003V008 $
14926KSTC STC20020919082511809/19/02 08:25:31  5-MIN KSTC 191425Z AUTO 30007KT 4SM BR OVC005 16/16 A2952 1400 96 1900 300/07 RMK AO2 CIG 003V006 $
14926KSTC STC20020919083011809/19/02 08:30:31  5-MIN KSTC 191430Z AUTO 30007KT 3SM BR OVC003 16/16 A2953 1390 96 1900 300/07 RMK AO2 CIG 003V006 $
14926KSTC STC20020919083512309/19/02 08:35:31  5-MIN KSTC 191435Z AUTO 30005KT 2 1/2SM BR OVC003 16/16 A2952 1390 100 1900 300/05 RMK AO2 CIG 002V006 $
14926KSTC STC20020919084011109/19/02 08:40:31  5-MIN KSTC 191440Z AUTO 29005KT 2 1/2SM BR OVC003 16/16 A2952 1390 100 1900 290/05 RMK AO2 $
14926KSTC STC20020919084511009/19/02 08:45:31  5-MIN KSTC 191445Z AUTO 29005KT 2 1/2SM BR OVC003 17/16 A2953 1390 96 2000 280/05 RMK AO2 $
14926KSTC STC20020919085013309/19/02 08:50:31  5-MIN KSTC 191450Z AUTO 29007KT 2 1/2SM BR OVC003 17/16 A2953 1390 96 1900 290/07 RMK AO2 SLP004 T01670161 53007 $
14926KSTC STC20020919085510609/19/02 08:55:31  5-MIN KSTC 191455Z AUTO 29007KT 3SM BR OVC003 17/16 A2953 1390 96 2000 290/07 RMK AO2 $
14926KSTC STC20020919090010609/19/02 09:00:31  5-MIN KSTC 191500Z AUTO 30007KT 3SM BR OVC003 17/16 A2952 1400 96 2000 290/07 RMK AO2 $
14926KSTC STC20020919090510709/19/02 09:05:31  5-MIN KSTC 191505Z AUTO 30006KT 3SM BR OVC003 17/17 A2953 1390 100 2000 290/06 RMK AO2 $
14926KSTC STC20020919091010509/19/02 09:10:31  5-MIN KSTC 191510Z AUTO 29008KT 4SM BR OVC003 17/17 A2953 1390 100 1900 290/08 RMK AO2
14926KSTC STC20020919091510409/19/02 09:15:31  5-MIN KSTC 191515Z AUTO 30007KT 4SM BR OVC003 17/17 A2953 1390 96 2000 290/07 RMK AO2
14926KSTC STC20020919092010409/19/02 09:20:31  5-MIN KSTC 191520Z AUTO 30007KT 4SM BR OVC003 17/17 A2953 1390 96 2000 300/07 RMK AO2
14926KSTC STC20020919092510409/19/02 09:25:31  5-MIN KSTC 191525Z AUTO 30007KT 4SM BR OVC003 17/17 A2953 1390 96 2000 300/07 RMK AO2
14926KSTC STC20020919093010409/19/02 09:30:31  5-MIN KSTC 191530Z AUTO 30008KT 5SM BR OVC003 17/17 A2953 1390 96 2000 300/08 RMK AO2
14926KSTC STC20020919093511609/19/02 09:35:31  5-MIN KSTC 191535Z AUTO 30008KT 5SM BR OVC003 18/17 A2952 1390 93 2100 300/08 RMK AO2 CIG 003V006
14926KSTC STC20020919094011609/19/02 09:40:31  5-MIN KSTC 191540Z AUTO 30010KT 5SM BR OVC005 18/17 A2952 1400 96 2100 300/10 RMK AO2 CIG 003V007
14926KSTC STC20020919094511609/19/02 09:45:31  5-MIN KSTC 191545Z AUTO 30009KT 6SM BR OVC005 18/17 A2952 1400 96 2100 300/09 RMK AO2 CIG 003V007
14926KSTC STC20020919095012809/19/02 09:50:31  5-MIN KSTC 191550Z AUTO 30010KT 6SM BR BKN005 OVC009 18/17 A2952 1400 96 2100 290/10 RMK AO2 SLP002 T01780172
14926KSTC STC20020919095511609/19/02 09:55:31  5-MIN KSTC 191555Z AUTO 29010KT 6SM BR OVC007 18/17 A2952 1400 93 2100 290/10 RMK AO2 CIG 004V011
14926KSTC STC20020919100011309/19/02 10:00:31  5-MIN KSTC 191600Z AUTO 29009KT 7SM OVC007 18/17 A2953 1390 93 2100 290/09 RMK AO2 CIG 005V011
14926KSTC STC20020919100511309/19/02 10:05:31  5-MIN KSTC 191605Z AUTO 29009KT 7SM OVC007 18/17 A2953 1390 93 2100 280/09 RMK AO2 CIG 005V011
14926KSTC STC20020919101011309/19/02 10:10:31  5-MIN KSTC 191610Z AUTO 30009KT 8SM OVC007 18/17 A2953 1390 93 2100 300/09 RMK AO2 CIG 005V012
14926KSTC STC20020919101511309/19/02 10:15:31  5-MIN KSTC 191615Z AUTO 31008KT 9SM OVC007 18/17 A2953 1390 93 2100 310/08 RMK AO2 CIG 006V012
14926KSTC STC20020919102011309/19/02 10:20:31  5-MIN KSTC 191620Z AUTO 31007KT 9SM OVC007 18/17 A2953 1390 93 2100 300/07 RMK AO2 CIG 006V012
14926KSTC STC20020919102511409/19/02 10:25:31  5-MIN KSTC 191625Z AUTO 30007KT 10SM OVC009 18/17 A2954 1380 93 2100 300/07 RMK AO2 CIG 006V012
14926KSTC STC20020919103011409/19/02 10:30:31  5-MIN KSTC 191630Z AUTO 30010KT 10SM OVC009 18/17 A2954 1380 93 2100 300/10 RMK AO2 CIG 006V012
14926KSTC STC20020919103511409/19/02 10:35:31  5-MIN KSTC 191635Z AUTO 31013KT 10SM OVC007 18/17 A2954 1380 93 2100 300/13 RMK AO2 CIG 006V012
14926KSTC STC20020919104011409/19/02 10:40:31  5-MIN KSTC 191640Z AUTO 31011KT 10SM OVC007 17/16 A2954 1380 93 2000 300/11 RMK AO2 CIG 006V009
14926KSTC STC20020919104510209/19/02 10:45:31  5-MIN KSTC 191645Z AUTO 30013KT 10SM OVC007 17/16 A2955 1370 93 2000 300/13 RMK AO2
14926KSTC STC20020919105011909/19/02 10:50:31  5-MIN KSTC 191650Z AUTO 30013KT 10SM OVC007 17/16 A2955 1370 93 2000 300/13 RMK AO2 SLP012 T01720161
14926KSTC STC20020919105510209/19/02 10:55:31  5-MIN KSTC 191655Z AUTO 30010KT 10SM OVC007 17/16 A2955 1370 90 2000 300/10 RMK AO2
14926KSTC STC20020919110010209/19/02 11:00:31  5-MIN KSTC 191700Z AUTO 30011KT 10SM OVC007 17/16 A2956 1370 90 2000 290/11 RMK AO2
14926KSTC STC20020919110510209/19/02 11:05:31  5-MIN KSTC 191705Z AUTO 30011KT 10SM OVC007 17/16 A2956 1360 90 2000 290/11 RMK AO2
14926KSTC STC20020919111010209/19/02 11:10:31  5-MIN KSTC 191710Z AUTO 30010KT 10SM OVC007 17/16 A2956 1360 90 2000 290/10 RMK AO2
14926KSTC STC20020919111510209/19/02 11:15:31  5-MIN KSTC 191715Z AUTO 30012KT 10SM OVC007 17/16 A2957 1360 93 1900 290/12 RMK AO2
14926KSTC STC20020919112010209/19/02 11:20:31  5-MIN KSTC 191720Z AUTO 30014KT 10SM OVC007 17/16 A2957 1350 93 1900 300/14 RMK AO2
14926KSTC STC20020919112510209/19/02 11:25:31  5-MIN KSTC 191725Z AUTO 30015KT 10SM OVC007 17/15 A2957 1360 90 1900 290/15 RMK AO2
14926KSTC STC20020919113010209/19/02 11:30:31  5-MIN KSTC 191730Z AUTO 31013KT 10SM OVC007 17/16 A2957 1350 93 1900 310/13 RMK AO2
14926KSTC STC20020919113510209/19/02 11:35:31  5-MIN KSTC 191735Z AUTO 31014KT 10SM OVC007 16/15 A2957 1350 93 1800 300/14 RMK AO2
14926KSTC STC20020919114010209/19/02 11:40:31  5-MIN KSTC 191740Z AUTO 31015KT 10SM OVC007 16/15 A2957 1350 93 1800 310/15 RMK AO2
14926KSTC STC20020919114510209/19/02 11:45:31  5-MIN KSTC 191745Z AUTO 31014KT 10SM OVC007 16/15 A2957 1350 93 1800 310/14 RMK AO2
14926KSTC STC20020919115013709/19/02 11:50:31  5-MIN KSTC 191750Z AUTO 31012KT 10SM OVC007 16/15 A2957 1350 93 1800 310/12 RMK AO2 SLP020 T01610150 10183 20156 52014
14926KSTC STC20020919115510209/19/02 11:55:31  5-MIN KSTC 191755Z AUTO 31011KT 10SM OVC007 16/15 A2957 1350 93 1800 310/11 RMK AO2
14926KSTC STC20020919120010209/19/02 12:00:31  5-MIN KSTC 191800Z AUTO 32011KT 10SM OVC007 17/15 A2958 1350 90 1900 310/11 RMK AO2
14926KSTC STC20020919120510209/19/02 12:05:31  5-MIN KSTC 191805Z AUTO 32012KT 10SM OVC007 16/15 A2957 1350 93 1800 320/12 RMK AO2
14926KSTC STC20020919121010209/19/02 12:10:31  5-MIN KSTC 191810Z AUTO 32011KT 10SM OVC009 16/15 A2957 1350 93 1800 320/11 RMK AO2
14926KSTC STC20020919121510209/19/02 12:15:31  5-MIN KSTC 191815Z AUTO 32013KT 10SM OVC009 16/15 A2957 1350 93 1800 320/13 RMK AO2
14926KSTC STC20020919122011409/19/02 12:20:31  5-MIN KSTC 191820Z AUTO 32013KT 10SM OVC009 16/14 A2957 1350 90 1800 320/13 RMK AO2 CIG 008V012
14926KSTC STC20020919122511409/19/02 12:25:31  5-MIN KSTC 191825Z AUTO 32014KT 10SM OVC009 17/14 A2957 1350 86 1900 320/14 RMK AO2 CIG 008V013
14926KSTC STC20020919123011409/19/02 12:30:31  5-MIN KSTC 191830Z AUTO 32015KT 10SM OVC009 17/14 A2958 1340 86 1900 310/15 RMK AO2 CIG 008V013
14926KSTC STC20020919123510209/19/02 12:35:31  5-MIN KSTC 191835Z AUTO 33011KT 10SM OVC011 17/14 A2958 1340 86 1900 320/11 RMK AO2
14926KSTC STC20020919124010809/19/02 12:40:31  5-MIN KSTC 191840Z AUTO 32014G17KT 10SM OVC011 16/14 A2958 1340 90 1800 320/14G17 RMK AO2
14926KSTC STC20020919124510209/19/02 12:45:31  5-MIN KSTC 191845Z AUTO 32012KT 10SM OVC011 16/14 A2958 1340 90 1800 320/12 RMK AO2
14926KSTC STC20020919125012509/19/02 12:50:31  5-MIN KSTC 191850Z AUTO 32013G18KT 10SM OVC011 16/14 A2958 1340 90 1800 320/13G18 RMK AO2 SLP022 T01610144
14926KSTC STC20020919125510809/19/02 12:55:31  5-MIN KSTC 191855Z AUTO 34010G18KT 10SM OVC011 17/14 A2958 1340 86 1900 340/10G18 RMK AO2
14926KSTC STC20020919130010809/19/02 13:00:31  5-MIN KSTC 191900Z AUTO 34010G18KT 10SM OVC013 17/14 A2958 1340 86 1900 340/10G18 RMK AO2
14926KSTC STC20020919130511609/19/02 13:05:31  5-MIN KSTC 191905Z AUTO 35009KT 10SM BKN013 BKN017 OVC023 17/14 A2958 1350 83 2000 340/09 RMK AO2
14926KSTC STC20020919131011509/19/02 13:10:31  5-MIN KSTC 191910Z AUTO 34010G17KT 10SM BKN013 OVC025 17/14 A2958 1340 83 2000 340/10G17 RMK AO2
14926KSTC STC20020919131512209/19/02 13:15:31  5-MIN KSTC 191915Z AUTO 34012G17KT 10SM SCT013 SCT017 OVC025 17/14 A2958 1340 83 2000 340/12G17 RMK AO2
14926KSTC STC20020919132010909/19/02 13:20:31  5-MIN KSTC 191920Z AUTO 35009KT 10SM SCT015 OVC025 17/14 A2958 1340 80 2000 340/09 RMK AO2
14926KSTC STC20020919132510909/19/02 13:25:31  5-MIN KSTC 191925Z AUTO 33008KT 10SM BKN015 OVC027 17/14 A2958 1340 83 2000 330/08 RMK AO2
14926KSTC STC20020919133010909/19/02 13:30:31  5-MIN KSTC 191930Z AUTO 32008KT 10SM BKN015 OVC027 17/14 A2958 1340 83 2000 320/08 RMK AO2
14926KSTC STC20020919133510909/19/02 13:35:31  5-MIN KSTC 191935Z AUTO 32011KT 10SM BKN015 OVC027 17/14 A2958 1340 83 2000 310/11 RMK AO2
14926KSTC STC20020919134010909/19/02 13:40:31  5-MIN KSTC 191940Z AUTO 32009KT 10SM BKN015 OVC027 17/14 A2958 1340 83 2000 320/09 RMK AO2
14926KSTC STC20020919134510209/19/02 13:45:31  5-MIN KSTC 191945Z AUTO 32009KT 10SM OVC015 17/14 A2958 1340 83 1900 320/09 RMK AO2
14926KSTC STC20020919135011909/19/02 13:50:31  5-MIN KSTC 191950Z AUTO 32010KT 10SM OVC015 17/14 A2959 1340 83 1900 310/10 RMK AO2 SLP024 T01720144
14926KSTC STC20020919135510209/19/02 13:55:31  5-MIN KSTC 191955Z AUTO 31009KT 10SM OVC015 18/14 A2959 1330 81 2000 310/09 RMK AO2
14926KSTC STC20020919140010209/19/02 14:00:31  5-MIN KSTC 192000Z AUTO 32011KT 10SM OVC015 18/14 A2959 1330 81 2000 310/11 RMK AO2
14926KSTC STC20020919140510209/19/02 14:05:31  5-MIN KSTC 192005Z AUTO 32011KT 10SM OVC015 18/14 A2959 1330 81 2000 320/11 RMK AO2
14926KSTC STC20020919141010209/19/02 14:10:31  5-MIN KSTC 192010Z AUTO 31011KT 10SM OVC015 18/14 A2959 1330 81 2000 310/11 RMK AO2
14926KSTC STC20020919141510209/19/02 14:15:31  5-MIN KSTC 192015Z AUTO 32013KT 10SM OVC015 18/14 A2959 1330 81 2000 320/13 RMK AO2
14926KSTC STC20020919142010209/19/02 14:20:31  5-MIN KSTC 192020Z AUTO 33010KT 10SM OVC015 18/14 A2960 1330 81 2000 320/10 RMK AO2
14926KSTC STC20020919142510209/19/02 14:25:31  5-MIN KSTC 192025Z AUTO 33012KT 10SM OVC015 18/14 A2960 1330 78 2000 330/12 RMK AO2
14926KSTC STC20020919143010209/19/02 14:30:31  5-MIN KSTC 192030Z AUTO 32013KT 10SM OVC015 17/14 A2960 1330 80 1900 320/13 RMK AO2
14926KSTC STC20020919143510209/19/02 14:35:31  5-MIN KSTC 192035Z AUTO 32012KT 10SM OVC015 17/14 A2960 1330 80 1900 310/12 RMK AO2
14926KSTC STC20020919144011509/19/02 14:40:31  5-MIN KSTC 192040Z AUTO 34008G18KT 10SM BKN017 OVC033 18/14 A2960 1330 81 2000 340/08G18 RMK AO2
14926KSTC STC20020919144510909/19/02 14:45:31  5-MIN KSTC 192045Z AUTO 33011KT 10SM BKN017 OVC033 18/14 A2960 1330 78 2100 320/11 RMK AO2
14926KSTC STC20020919145013209/19/02 14:50:31  5-MIN KSTC 192050Z AUTO 34011KT 10SM BKN017 OVC033 18/14 A2959 1330 75 2100 330/11 RMK AO2 SLP026 T01830139 53015
14926KSTC STC20020919145511509/19/02 14:55:31  5-MIN KSTC 192055Z AUTO 32012G16KT 10SM BKN017 OVC033 18/14 A2959 1330 75 2100 320/12G16 RMK AO2
14926KSTC STC20020919150012209/19/02 15:00:31  5-MIN KSTC 192100Z AUTO 33011G16KT 10SM BKN019 BKN033 OVC060 18/14 A2959 1330 75 2100 320/11G16 RMK AO2
14926KSTC STC20020919150510909/19/02 15:05:31  5-MIN KSTC 192105Z AUTO 34010KT 10SM BKN019 OVC060 18/14 A2959 1330 75 2100 330/10 RMK AO2
14926KSTC STC20020919151010209/19/02 15:10:31  5-MIN KSTC 192110Z AUTO 33011KT 10SM OVC019 18/14 A2959 1330 78 2000 330/11 RMK AO2
14926KSTC STC20020919151510809/19/02 15:15:31  5-MIN KSTC 192115Z AUTO 32010G16KT 10SM OVC019 18/14 A2959 1330 78 2100 310/10G16 RMK AO2
14926KSTC STC20020919152010209/19/02 15:20:31  5-MIN KSTC 192120Z AUTO 32013KT 10SM OVC019 18/14 A2959 1340 78 2000 320/13 RMK AO2
14926KSTC STC20020919152510209/19/02 15:25:31  5-MIN KSTC 192125Z AUTO 33009KT 10SM OVC019 18/14 A2959 1340 78 2000 330/09 RMK AO2
14926KSTC STC20020919153010209/19/02 15:30:31  5-MIN KSTC 192130Z AUTO 31013KT 10SM OVC019 17/14 A2959 1330 80 1900 310/13 RMK AO2
14926KSTC STC20020919153510209/19/02 15:35:31  5-MIN KSTC 192135Z AUTO 33008KT 10SM OVC017 18/14 A2959 1330 78 2000 330/08 RMK AO2
14926KSTC STC20020919154010809/19/02 15:40:31  5-MIN KSTC 192140Z AUTO 32012G17KT 10SM OVC017 17/14 A2959 1330 80 1900 320/12G17 RMK AO2
14926KSTC STC20020919154510809/19/02 15:45:31  5-MIN KSTC 192145Z AUTO 32013G17KT 10SM OVC017 17/14 A2960 1330 80 1900 320/13G17 RMK AO2
14926KSTC STC20020919155011909/19/02 15:50:31  5-MIN KSTC 192150Z AUTO 33012KT 10SM OVC017 17/14 A2960 1330 80 1900 330/12 RMK AO2 SLP029 T01720139
14926KSTC STC20020919155510209/19/02 15:55:31  5-MIN KSTC 192155Z AUTO 33010KT 10SM OVC017 17/14 A2960 1320 80 1900 330/10 RMK AO2
14926KSTC STC20020919160010209/19/02 16:00:31  5-MIN KSTC 192200Z AUTO 33010KT 10SM OVC017 17/14 A2960 1320 80 1900 320/10 RMK AO2
14926KSTC STC20020919160510209/19/02 16:05:31  5-MIN KSTC 192205Z AUTO 33009KT 10SM OVC017 17/13 A2960 1320 78 1900 320/09 RMK AO2
14926KSTC STC20020919161010209/19/02 16:10:31  5-MIN KSTC 192210Z AUTO 32009KT 10SM OVC019 17/13 A2960 1320 78 1900 320/09 RMK AO2
14926KSTC STC20020919161510809/19/02 16:15:31  5-MIN KSTC 192215Z AUTO 32011G17KT 10SM OVC019 17/13 A2960 1320 78 1900 320/11G17 RMK AO2
14926KSTC STC20020919162010809/19/02 16:20:31  5-MIN KSTC 192220Z AUTO 34009G17KT 10SM OVC019 17/13 A2960 1320 78 1900 330/09G17 RMK AO2
14926KSTC STC20020919162510209/19/02 16:25:31  5-MIN KSTC 192225Z AUTO 34011KT 10SM OVC019 17/13 A2960 1320 78 1900 340/11 RMK AO2
14926KSTC STC20020919163010209/19/02 16:30:31  5-MIN KSTC 192230Z AUTO 34010KT 10SM OVC021 17/13 A2960 1320 78 1900 330/10 RMK AO2
14926KSTC STC20020919163510209/19/02 16:35:31  5-MIN KSTC 192235Z AUTO 33011KT 10SM OVC021 17/13 A2961 1320 78 1900 330/11 RMK AO2
14926KSTC STC20020919164010809/19/02 16:40:31  5-MIN KSTC 192240Z AUTO 34013G16KT 10SM OVC021 17/13 A2960 1320 78 1900 340/13G16 RMK AO2
14926KSTC STC20020919164510809/19/02 16:45:31  5-MIN KSTC 192245Z AUTO 35010G16KT 10SM OVC023 17/13 A2961 1320 78 1900 340/10G16 RMK AO2
14926KSTC STC20020919165012509/19/02 16:50:31  5-MIN KSTC 192250Z AUTO 34012G16KT 10SM OVC025 17/13 A2961 1310 78 1900 330/12G16 RMK AO2 SLP033 T01720133
14926KSTC STC20020919165510809/19/02 16:55:31  5-MIN KSTC 192255Z AUTO 33011G17KT 10SM OVC025 17/13 A2961 1310 80 1900 330/11G17 RMK AO2
14926KSTC STC20020919170010809/19/02 17:00:31  5-MIN KSTC 192300Z AUTO 33011G17KT 10SM OVC025 17/13 A2961 1310 80 1900 320/11G17 RMK AO2
14926KSTC STC20020919170510209/19/02 17:05:31  5-MIN KSTC 192305Z AUTO 33009KT 10SM OVC025 17/13 A2961 1310 80 1900 330/09 RMK AO2
14926KSTC STC20020919171010209/19/02 17:10:31  5-MIN KSTC 192310Z AUTO 34011KT 10SM OVC027 17/13 A2961 1310 80 1800 340/11 RMK AO2
14926KSTC STC20020919171510209/19/02 17:15:31  5-MIN KSTC 192315Z AUTO 34010KT 10SM OVC027 17/13 A2962 1300 80 1800 330/10 RMK AO2
14926KSTC STC20020919172010209/19/02 17:20:31  5-MIN KSTC 192320Z AUTO 35010KT 10SM OVC027 17/13 A2962 1300 78 1900 350/10 RMK AO2
14926KSTC STC20020919172510209/19/02 17:25:31  5-MIN KSTC 192325Z AUTO 36008KT 10SM OVC027 17/13 A2962 1300 78 1900 360/08 RMK AO2
14926KSTC STC20020919173010209/19/02 17:30:31  5-MIN KSTC 192330Z AUTO 36010KT 10SM BKN027 17/13 A2962 1310 78 1900 350/10 RMK AO2
14926KSTC STC20020919173510209/19/02 17:35:31  5-MIN KSTC 192335Z AUTO 36009KT 10SM BKN027 17/13 A2962 1300 77 1800 350/09 RMK AO2
14926KSTC STC20020919174010209/19/02 17:40:31  5-MIN KSTC 192340Z AUTO 36009KT 10SM SCT029 17/13 A2963 1300 77 1800 360/09 RMK AO2
14926KSTC STC20020919174510209/19/02 17:45:31  5-MIN KSTC 192345Z AUTO 36006KT 10SM FEW029 17/13 A2963 1300 77 1800 360/06 RMK AO2
14926KSTC STC20020919175013709/19/02 17:50:31  5-MIN KSTC 192350Z AUTO 36006KT 10SM FEW029 17/13 A2963 1300 77 1800 360/06 RMK AO2 SLP039 T01670128 10183 20161 51006
14926KSTC STC20020919175510209/19/02 17:55:31  5-MIN KSTC 192355Z AUTO 36006KT 10SM FEW060 16/13 A2963 1290 80 1800 360/06 RMK AO2
14926KSTC STC20020919180010209/19/02 18:00:31  5-MIN KSTC 200000Z AUTO VRB05KT 10SM FEW060 16/13 A2963 1290 80 1800 VRB/05 RMK AO2
14926KSTC STC20020919180510209/19/02 18:05:31  5-MIN KSTC 200005Z AUTO 02005KT 10SM SCT060 16/13 A2964 1290 80 1800 020/05 RMK AO2
14926KSTC STC20020919181010209/19/02 18:10:31  5-MIN KSTC 200010Z AUTO 02003KT 10SM SCT060 16/13 A2965 1280 80 1700 020/03 RMK AO2
14926KSTC STC20020919181510209/19/02 18:15:31  5-MIN KSTC 200015Z AUTO 01004KT 10SM BKN060 16/13 A2964 1280 83 1700 010/04 RMK AO2
14926KSTC STC20020919182010209/19/02 18:20:31  5-MIN KSTC 200020Z AUTO 01004KT 10SM BKN060 16/13 A2964 1280 83 1700 360/04 RMK AO2
14926KSTC STC20020919182510209/19/02 18:25:31  5-MIN KSTC 200025Z AUTO 36004KT 10SM BKN060 15/13 A2965 1280 86 1600 360/04 RMK AO2
14926KSTC STC20020919183010209/19/02 18:30:31  5-MIN KSTC 200030Z AUTO 01004KT 10SM OVC060 15/13 A2965 1280 86 1600 360/04 RMK AO2
14926KSTC STC20020919183510209/19/02 18:35:31  5-MIN KSTC 200035Z AUTO 01003KT 10SM BKN060 15/13 A2964 1280 86 1600 010/03 RMK AO2
14926KSTC STC20020919184010209/19/02 18:40:31  5-MIN KSTC 200040Z AUTO 00000KT 10SM BKN060 15/13 A2965 1280 86 1600 000/00 RMK AO2
14926KSTC STC20020919184510209/19/02 18:45:31  5-MIN KSTC 200045Z AUTO 00000KT 10SM SCT060 15/13 A2965 1280 86 1600 000/00 RMK AO2
14926KSTC STC20020919185011909/19/02 18:50:31  5-MIN KSTC 200050Z AUTO 00000KT 10SM SCT060 14/13 A2965 1280 90 1500 000/00 RMK AO2 SLP049 T01440128
14926KSTC STC20020919185510209/19/02 18:55:31  5-MIN KSTC 200055Z AUTO 00000KT 10SM FEW060 14/13 A2965 1280 93 1500 000/00 RMK AO2
14926KSTC STC20020919190009909/19/02 19:00:31  5-MIN KSTC 200100Z AUTO 00000KT 10SM CLR 14/13 A2965 1280 93 1500 000/00 RMK AO2
14926KSTC STC20020919190509909/19/02 19:05:31  5-MIN KSTC 200105Z AUTO 00000KT 10SM CLR 13/13 A2965 1280 96 1400 000/00 RMK AO2
14926KSTC STC20020919191009909/19/02 19:10:31  5-MIN KSTC 200110Z AUTO 00000KT 10SM CLR 14/13 A2965 1270 93 1500 000/00 RMK AO2
14926KSTC STC20020919191509909/19/02 19:15:31  5-MIN KSTC 200115Z AUTO 00000KT 10SM CLR 13/12 A2966 1270 93 1400 000/00 RMK AO2
14926KSTC STC20020919192009909/19/02 19:20:31  5-MIN KSTC 200120Z AUTO 00000KT 10SM CLR 13/12 A2966 1270 93 1400 000/00 RMK AO2
14926KSTC STC20020919192509909/19/02 19:25:31  5-MIN KSTC 200125Z AUTO 00000KT 10SM CLR 13/12 A2966 1270 93 1400 000/00 RMK AO2
14926KSTC STC20020919193009909/19/02 19:30:31  5-MIN KSTC 200130Z AUTO 00000KT 10SM CLR 13/12 A2966 1270 93 1400 000/00 RMK AO2
14926KSTC STC20020919193509909/19/02 19:35:31  5-MIN KSTC 200135Z AUTO 00000KT 10SM CLR 13/12 A2966 1270 96 1300 000/00 RMK AO2
14926KSTC STC20020919194009909/19/02 19:40:31  5-MIN KSTC 200140Z AUTO 00000KT 10SM CLR 12/12 A2967 1260 96 1300 000/00 RMK AO2
14926KSTC STC20020919194510209/19/02 19:45:31  5-MIN KSTC 200145Z AUTO 00000KT 10SM FEW037 13/12 A2967 1260 96 1300 000/00 RMK AO2
14926KSTC STC20020919195011909/19/02 19:50:31  5-MIN KSTC 200150Z AUTO 00000KT 10SM SCT037 13/12 A2967 1260 96 1300 000/00 RMK AO2 SLP056 T01280122
14926KSTC STC20020919195510209/19/02 19:55:31  5-MIN KSTC 200155Z AUTO 00000KT 10SM BKN037 13/12 A2967 1260 96 1300 000/00 RMK AO2
14926KSTC STC20020919200010209/19/02 20:00:31  5-MIN KSTC 200200Z AUTO 00000KT 10SM BKN039 13/12 A2967 1260 96 1300 000/00 RMK AO2
14926KSTC STC20020919200510209/19/02 20:05:31  5-MIN KSTC 200205Z AUTO 00000KT 10SM BKN039 13/12 A2967 1250 96 1300 000/00 RMK AO2
14926KSTC STC20020919201010209/19/02 20:10:31  5-MIN KSTC 200210Z AUTO 00000KT 10SM OVC039 13/12 A2967 1250 96 1300 000/00 RMK AO2
14926KSTC STC20020919201510209/19/02 20:15:31  5-MIN KSTC 200215Z AUTO 00000KT 10SM OVC039 13/12 A2967 1260 96 1300 000/00 RMK AO2
14926KSTC STC20020919202010209/19/02 20:20:31  5-MIN KSTC 200220Z AUTO 00000KT 10SM OVC039 13/13 A2967 1250 96 1400 000/00 RMK AO2
14926KSTC STC20020919202510909/19/02 20:25:31  5-MIN KSTC 200225Z AUTO 00000KT 10SM SCT032 OVC039 13/13 A2968 1250 96 1400 000/00 RMK AO2
14926KSTC STC20020919203010909/19/02 20:30:31  5-MIN KSTC 200230Z AUTO 00000KT 10SM SCT032 OVC040 13/13 A2967 1250 96 1400 000/00 RMK AO2
14926KSTC STC20020919203510909/19/02 20:35:31  5-MIN KSTC 200235Z AUTO 00000KT 10SM BKN035 OVC042 13/13 A2968 1250 96 1400 000/00 RMK AO2
14926KSTC STC20020919204010209/19/02 20:40:31  5-MIN KSTC 200240Z AUTO 00000KT 10SM OVC036 13/13 A2967 1250 96 1400 000/00 RMK AO2
14926KSTC STC20020919204510209/19/02 20:45:31  5-MIN KSTC 200245Z AUTO 00000KT 10SM OVC036 14/13 A2967 1250 96 1500 000/00 RMK AO2
14926KSTC STC20020919205013209/19/02 20:50:31  5-MIN KSTC 200250Z AUTO 00000KT 10SM FEW030 OVC040 14/13 A2968 1250 96 1500 000/00 RMK AO2 SLP056 T01390133 53013
14926KSTC STC20020919205510909/19/02 20:55:31  5-MIN KSTC 200255Z AUTO 00000KT 10SM FEW030 OVC040 14/13 A2968 1250 96 1500 000/00 RMK AO2
14926KSTC STC20020919210010909/19/02 21:00:31  5-MIN KSTC 200300Z AUTO 00000KT 10SM FEW030 OVC040 14/13 A2968 1250 96 1500 000/00 RMK AO2
14926KSTC STC20020919210510209/19/02 21:05:31  5-MIN KSTC 200305Z AUTO 00000KT 10SM OVC040 14/13 A2967 1260 96 1500 000/00 RMK AO2
14926KSTC STC20020919211010209/19/02 21:10:31  5-MIN KSTC 200310Z AUTO 00000KT 10SM OVC040 14/13 A2967 1260 96 1500 000/00 RMK AO2
14926KSTC STC20020919211510209/19/02 21:15:31  5-MIN KSTC 200315Z AUTO 00000KT 10SM OVC042 14/13 A2967 1260 96 1500 000/00 RMK AO2
14926KSTC STC20020919212010209/19/02 21:20:31  5-MIN KSTC 200320Z AUTO 00000KT 10SM OVC042 14/13 A2967 1260 96 1500 000/00 RMK AO2
14926KSTC STC20020919212510209/19/02 21:25:31  5-MIN KSTC 200325Z AUTO 00000KT 10SM OVC042 13/13 A2967 1260 96 1400 000/00 RMK AO2
14926KSTC STC20020919213010209/19/02 21:30:31  5-MIN KSTC 200330Z AUTO 00000KT 10SM BKN042 13/13 A2967 1260 96 1400 000/00 RMK AO2
14926KSTC STC20020919213510309/19/02 21:35:31  5-MIN KSTC 200335Z AUTO 30003KT 10SM BKN042 13/13 A2967 1260 100 1300 300/03 RMK AO2
14926KSTC STC20020919214010209/19/02 21:40:31  5-MIN KSTC 200340Z AUTO 30003KT 10SM SCT042 13/12 A2966 1260 96 1300 300/03 RMK AO2
14926KSTC STC20020919214510309/19/02 21:45:31  5-MIN KSTC 200345Z AUTO 32003KT 10SM SCT042 12/12 A2966 1270 100 1300 310/03 RMK AO2
14926KSTC STC20020919215011909/19/02 21:50:31  5-MIN KSTC 200350Z AUTO 32004KT 10SM FEW042 13/12 A2966 1270 96 1300 310/04 RMK AO2 SLP051 T01280122
14926KSTC STC20020919215509909/19/02 21:55:31  5-MIN KSTC 200355Z AUTO 32003KT 10SM CLR 13/12 A2966 1270 96 1300 320/03 RMK AO2
14926KSTC STC20020919220010009/19/02 22:00:31  5-MIN KSTC 200400Z AUTO 32003KT 10SM CLR 12/12 A2966 1270 100 1300 310/03 RMK AO2
14926KSTC STC20020919220509909/19/02 22:05:31  5-MIN KSTC 200405Z AUTO 32003KT 10SM CLR 13/12 A2966 1270 96 1300 310/03 RMK AO2
14926KSTC STC20020919221010009/19/02 22:10:31  5-MIN KSTC 200410Z AUTO 32003KT 10SM CLR 12/12 A2966 1270 100 1300 320/03 RMK AO2
14926KSTC STC20020919221510009/19/02 22:15:31  5-MIN KSTC 200415Z AUTO 31004KT 10SM CLR 12/12 A2966 1270 100 1300 310/04 RMK AO2
14926KSTC STC20020919222010009/19/02 22:20:31  5-MIN KSTC 200420Z AUTO 31003KT 10SM CLR 12/12 A2966 1270 100 1200 310/03 RMK AO2
14926KSTC STC20020919222510009/19/02 22:25:31  5-MIN KSTC 200425Z AUTO 00000KT 10SM CLR 12/12 A2966 1270 100 1200 000/00 RMK AO2
14926KSTC STC20020919223009809/19/02 22:30:31  5-MIN KSTC 200430Z AUTO 00000KT 8SM CLR 12/12 A2966 1270 96 1300 000/00 RMK AO2
14926KSTC STC20020919223510209/19/02 22:35:31  5-MIN KSTC 200435Z AUTO 00000KT 4SM BR CLR 12/12 A2966 1270 100 1300 000/00 RMK AO2
14926KSTC STC20020919224010209/19/02 22:40:31  5-MIN KSTC 200440Z AUTO 00000KT 3SM BR CLR 12/12 A2966 1270 100 1200 000/00 RMK AO2
14926KSTC STC20020919224510209/19/02 22:45:31  5-MIN KSTC 200445Z AUTO 00000KT 6SM BR CLR 12/12 A2965 1270 100 1200 000/00 RMK AO2
14926KSTC STC20020919225011909/19/02 22:50:31  5-MIN KSTC 200450Z AUTO 00000KT 6SM BR CLR 12/12 A2965 1270 100 1200 000/00 RMK AO2 SLP050 T01170117
14926KSTC STC20020919225510109/19/02 22:55:31  5-MIN KSTC 200455Z AUTO 00000KT 3SM BR CLR 12/11 A2965 1270 96 1200 000/00 RMK AO2
14926KSTC STC20020919230010609/19/02 23:00:31  5-MIN KSTC 200500Z AUTO 00000KT 1 1/2SM BR CLR 12/12 A2965 1280 100 1200 000/00 RMK AO2
14926KSTC STC20020919230510609/19/02 23:05:31  5-MIN KSTC 200505Z AUTO 00000KT 1 1/2SM BR CLR 11/11 A2965 1280 100 1200 000/00 RMK AO2
14926KSTC STC20020919231010209/19/02 23:10:31  5-MIN KSTC 200510Z AUTO 00000KT 4SM BR CLR 11/11 A2964 1290 100 1100 000/00 RMK AO2
14926KSTC STC20020919231509909/19/02 23:15:31  5-MIN KSTC 200515Z AUTO 00000KT 8SM CLR 11/11 A2964 1290 100 1200 000/00 RMK AO2
14926KSTC STC20020919232009909/19/02 23:20:31  5-MIN KSTC 200520Z AUTO 00000KT 9SM CLR 11/11 A2964 1290 100 1200 000/00 RMK AO2
14926KSTC STC20020919232509909/19/02 23:25:31  5-MIN KSTC 200525Z AUTO 34003KT 7SM CLR 11/11 A2964 1290 100 1200 340/03 RMK AO2
14926KSTC STC20020919233009909/19/02 23:30:31  5-MIN KSTC 200530Z AUTO 34003KT 7SM CLR 11/11 A2964 1290 100 1200 340/03 RMK AO2
14926KSTC STC20020919233510509/19/02 23:35:31  5-MIN KSTC 200535Z AUTO 00000KT 9SM CLR 11/11 A2964 1290 100 1200 000/00 RMK AO2 P0001
14926KSTC STC20020919234010509/19/02 23:40:31  5-MIN KSTC 200540Z AUTO 00000KT 9SM CLR 11/11 A2964 1280 100 1200 000/00 RMK AO2 P0001
14926KSTC STC20020919234510509/19/02 23:45:31  5-MIN KSTC 200545Z AUTO 00000KT 9SM CLR 11/11 A2964 1290 100 1200 000/00 RMK AO2 P0001
14926KSTC STC20020919235015509/19/02 23:50:31  5-MIN KSTC 200550Z AUTO 34003KT 9SM CLR 12/11 A2964 1290 96 1200 340/03 RMK AO2 SLP047 P0001 60001 T01170111 10161 20106 401940106 51015
14926KSTC STC20020919235510009/19/02 23:55:31  5-MIN KSTC 200555Z AUTO 33003KT 10SM CLR 12/12 A2964 1290 100 1200 330/03 RMK AO2
14926KSTC STC20020920000009909/20/02 00:00:31  5-MIN KSTC 200600Z AUTO 33003KT 9SM CLR 11/11 A2964 1290 100 1100 330/03 RMK AO2
14926KSTC STC20020920000509909/20/02 00:05:31  5-MIN KSTC 200605Z AUTO 34003KT 8SM CLR 11/11 A2963 1290 100 1100 340/03 RMK AO2
14926KSTC STC20020920001009909/20/02 00:10:31  5-MIN KSTC 200610Z AUTO 34004KT 8SM CLR 11/11 A2963 1300 100 1200 340/04 RMK AO2
14926KSTC STC20020920001509909/20/02 00:15:31  5-MIN KSTC 200615Z AUTO 35005KT 7SM CLR 11/11 A2962 1300 100 1200 350/05 RMK AO2
14926KSTC STC20020920002009909/20/02 00:20:31  5-MIN KSTC 200620Z AUTO 35005KT 8SM CLR 11/11 A2962 1300 100 1200 340/05 RMK AO2
14926KSTC STC20020920002509909/20/02 00:25:31  5-MIN KSTC 200625Z AUTO 35005KT 9SM CLR 11/11 A2962 1300 100 1200 340/05 RMK AO2
14926KSTC STC20020920003009909/20/02 00:30:31  5-MIN KSTC 200630Z AUTO 35004KT 9SM CLR 11/11 A2962 1310 100 1200 340/04 RMK AO2
14926KSTC STC20020920003509909/20/02 00:35:31  5-MIN KSTC 200635Z AUTO 35003KT 9SM CLR 11/11 A2962 1310 100 1200 340/03 RMK AO2
14926KSTC STC20020920004010009/20/02 00:40:31  5-MIN KSTC 200640Z AUTO 34003KT 10SM CLR 11/11 A2962 1300 100 1200 340/03 RMK AO2
14926KSTC STC20020920004510109/20/02 00:45:31  5-MIN KSTC 200645Z AUTO 34003KT 10SM CLR 12/11 A2962 1300 96 1300 330/03 RMK AO2 $
14926KSTC STC20020920005011909/20/02 00:50:31  5-MIN KSTC 200650Z AUTO 32004KT 10SM CLR 11/11 A2962 1300 100 1200 320/04 RMK AO2 SLP040 T01110111 $
14926KSTC STC20020920005510209/20/02 00:55:31  5-MIN KSTC 200655Z AUTO 00000KT 10SM CLR 11/11 A2962 1300 100 1200 000/00 RMK AO2 $
14926KSTC STC20020920010010209/20/02 01:00:31  5-MIN KSTC 200700Z AUTO 00000KT 10SM CLR 11/11 A2962 1300 100 1200 000/00 RMK AO2 $
14926KSTC STC20020920010510209/20/02 01:05:31  5-MIN KSTC 200705Z AUTO 30003KT 10SM CLR 11/11 A2963 1300 100 1200 300/03 RMK AO2 $
14926KSTC STC20020920011010209/20/02 01:10:31  5-MIN KSTC 200710Z AUTO 30003KT 10SM CLR 11/11 A2963 1300 100 1200 300/03 RMK AO2 $
14926KSTC STC20020920011510209/20/02 01:15:31  5-MIN KSTC 200715Z AUTO 00000KT 10SM CLR 11/11 A2963 1300 100 1200 000/00 RMK AO2 $
14926KSTC STC20020920012010109/20/02 01:20:31  5-MIN KSTC 200720Z AUTO 00000KT 10SM CLR 11/11 A2963 1290 96 1200 000/00 RMK AO2 $
14926KSTC STC20020920012510109/20/02 01:25:31  5-MIN KSTC 200725Z AUTO 00000KT 10SM CLR 11/11 A2963 1290 96 1200 000/00 RMK AO2 $
14926KSTC STC20020920013010209/20/02 01:30:31  5-MIN KSTC 200730Z AUTO 00000KT 10SM CLR 11/11 A2963 1300 100 1200 000/00 RMK AO2 $
14926KSTC STC20020920013510109/20/02 01:35:31  5-MIN KSTC 200735Z AUTO 34003KT 8SM CLR 11/11 A2963 1300 100 1100 330/03 RMK AO2 $
14926KSTC STC20020920014010109/20/02 01:40:31  5-MIN KSTC 200740Z AUTO 00000KT 7SM CLR 11/11 A2963 1290 100 1100 000/00 RMK AO2 $
14926KSTC STC20020920014510009/20/02 01:45:31  5-MIN KSTC 200745Z AUTO 34003KT 7SM CLR 11/11 A2963 1300 96 1200 340/03 RMK AO2 $
14926KSTC STC20020920015011809/20/02 01:50:31  5-MIN KSTC 200750Z AUTO 00000KT 7SM CLR 11/11 A2963 1290 100 1200 000/00 RMK AO2 SLP042 T01110111 $
14926KSTC STC20020920015510109/20/02 01:55:31  5-MIN KSTC 200755Z AUTO 32003KT 8SM CLR 11/11 A2963 1300 100 1200 320/03 RMK AO2 $
14926KSTC STC20020920020010409/20/02 02:00:31  5-MIN KSTC 200800Z AUTO 32004KT 6SM BR CLR 11/11 A2962 1300 100 1100 320/04 RMK AO2 $
14926KSTC STC20020920020510409/20/02 02:05:31  5-MIN KSTC 200805Z AUTO 32003KT 3SM BR CLR 11/11 A2962 1310 100 1100 320/03 RMK AO2 $
14926KSTC STC20020920021010409/20/02 02:10:31  5-MIN KSTC 200810Z AUTO 00000KT 4SM BR CLR 11/11 A2962 1300 100 1100 000/00 RMK AO2 $
14926KSTC STC20020920021510109/20/02 02:15:31  5-MIN KSTC 200815Z AUTO 00000KT 8SM CLR 11/11 A2962 1310 100 1100 000/00 RMK AO2 $
14926KSTC STC20020920022010409/20/02 02:20:31  5-MIN KSTC 200820Z AUTO 00000KT 4SM BR CLR 11/11 A2961 1310 100 1100 000/00 RMK AO2 $
14926KSTC STC20020920022510609/20/02 02:25:31  5-MIN KSTC 200825Z AUTO 00000KT 3SM BR FEW027 11/10 A2961 1320 96 1100 000/00 RMK AO2 $
14926KSTC STC20020920023011909/20/02 02:30:31  5-MIN KSTC 200830Z AUTO 36003KT 1 3/4SM BR FEW027 10/10 A2960 1320 100 1100 360/03 RMK AO2 VIS 1V5 $
14926KSTC STC20020920023510709/20/02 02:35:31  5-MIN KSTC 200835Z AUTO 36003KT 2SM BR SCT032 11/11 A2960 1320 100 1100 360/03 RMK AO2 $
14926KSTC STC20020920024010709/20/02 02:40:31  5-MIN KSTC 200840Z AUTO 00000KT 4SM BR SCT032 11/11 A2960 1320 100 1100 000/00 RMK AO2 $
14926KSTC STC20020920024510709/20/02 02:45:31  5-MIN KSTC 200845Z AUTO 00000KT 4SM BR SCT032 10/10 A2961 1310 100 1100 000/00 RMK AO2 $
14926KSTC STC20020920025013009/20/02 02:50:31  5-MIN KSTC 200850Z AUTO 00000KT 5SM BR BKN032 11/11 A2962 1310 100 1100 000/00 RMK AO2 SLP038 T01060106 56011 $
14926KSTC STC20020920025510409/20/02 02:55:31  5-MIN KSTC 200855Z AUTO 00000KT 7SM BKN032 11/11 A2962 1300 100 1100 000/00 RMK AO2 $
14926KSTC STC20020920030010409/20/02 03:00:31  5-MIN KSTC 200900Z AUTO 00000KT 8SM BKN032 11/11 A2962 1310 100 1100 000/00 RMK AO2 $
14926KSTC STC20020920030510409/20/02 03:05:31  5-MIN KSTC 200905Z AUTO 00000KT 9SM BKN034 11/11 A2962 1310 100 1200 000/00 RMK AO2 $
14926KSTC STC20020920031010409/20/02 03:10:31  5-MIN KSTC 200910Z AUTO 00000KT 9SM BKN034 11/11 A2962 1310 100 1200 000/00 RMK AO2 $
14926KSTC STC20020920031510409/20/02 03:15:31  5-MIN KSTC 200915Z AUTO 00000KT 9SM BKN034 11/11 A2962 1310 100 1100 000/00 RMK AO2 $
14926KSTC STC20020920032010409/20/02 03:20:31  5-MIN KSTC 200920Z AUTO 00000KT 8SM BKN034 11/11 A2963 1300 100 1100 000/00 RMK AO2 $
14926KSTC STC20020920032510409/20/02 03:25:31  5-MIN KSTC 200925Z AUTO 15003KT 7SM BKN034 11/11 A2963 1290 100 1100 140/03 RMK AO2 $
14926KSTC STC20020920033010409/20/02 03:30:31  5-MIN KSTC 200930Z AUTO 00000KT 7SM BKN034 11/11 A2963 1300 100 1200 000/00 RMK AO2 $
14926KSTC STC20020920033510409/20/02 03:35:31  5-MIN KSTC 200935Z AUTO 00000KT 7SM BKN032 11/11 A2963 1300 100 1200 000/00 RMK AO2 $
14926KSTC STC20020920034010409/20/02 03:40:31  5-MIN KSTC 200940Z AUTO 00000KT 7SM BKN032 11/11 A2962 1310 100 1200 000/00 RMK AO2 $
14926KSTC STC20020920034511109/20/02 03:45:31  5-MIN KSTC 200945Z AUTO 30003KT 7SM BKN032 11/11 A2961 1320 100 1200 300/03 RMK AO2 PRESFR $
14926KSTC STC20020920035012109/20/02 03:50:31  5-MIN KSTC 200950Z AUTO 00000KT 8SM BKN032 11/11 A2961 1320 100 1100 000/00 RMK AO2 SLP035 T01060106 $
14926KSTC STC20020920035510409/20/02 03:55:31  5-MIN KSTC 200955Z AUTO 31004KT 8SM SCT032 11/11 A2960 1320 100 1100 310/04 RMK AO2 $
14926KSTC STC20020920040010409/20/02 04:00:31  5-MIN KSTC 201000Z AUTO 31007KT 7SM SCT032 11/11 A2959 1330 100 1200 310/07 RMK AO2 $
14926KSTC STC20020920040510709/20/02 04:05:31  5-MIN KSTC 201005Z AUTO 31006KT 6SM BR FEW032 11/11 A2959 1330 100 1200 310/06 RMK AO2 $
14926KSTC STC20020920041010409/20/02 04:10:31  5-MIN KSTC 201010Z AUTO 31006KT 6SM BR CLR 11/11 A2959 1330 100 1200 310/06 RMK AO2 $
14926KSTC STC20020920041510409/20/02 04:15:31  5-MIN KSTC 201015Z AUTO 32005KT 6SM BR CLR 11/11 A2959 1340 100 1200 320/05 RMK AO2 $
14926KSTC STC20020920042010409/20/02 04:20:31  5-MIN KSTC 201020Z AUTO 00000KT 5SM BR CLR 11/11 A2959 1330 100 1200 000/00 RMK AO2 $
14926KSTC STC20020920042510409/20/02 04:25:31  5-MIN KSTC 201025Z AUTO 00000KT 6SM BR CLR 11/11 A2959 1330 100 1200 000/00 RMK AO2 $
14926KSTC STC20020920043010409/20/02 04:30:31  5-MIN KSTC 201030Z AUTO 00000KT 6SM BR CLR 11/11 A2960 1330 100 1200 000/00 RMK AO2 $
14926KSTC STC20020920043510409/20/02 04:35:31  5-MIN KSTC 201035Z AUTO 00000KT 6SM BR CLR 11/11 A2959 1330 100 1200 000/00 RMK AO2 $
14926KSTC STC20020920044010709/20/02 04:40:31  5-MIN KSTC 201040Z AUTO 00000KT 6SM BR FEW001 11/11 A2959 1340 100 1200 000/00 RMK AO2 $
14926KSTC STC20020920044510709/20/02 04:45:31  5-MIN KSTC 201045Z AUTO 00000KT 4SM BR FEW001 11/11 A2959 1340 100 1200 000/00 RMK AO2 $
14926KSTC STC20020920045012009/20/02 04:50:31  5-MIN KSTC 201050Z AUTO 00000KT 4SM BR CLR 11/10 A2959 1340 96 1200 000/00 RMK AO2 SLP028 T01060100 $
14926KSTC STC20020920045510409/20/02 04:55:31  5-MIN KSTC 201055Z AUTO 00000KT 4SM BR CLR 11/11 A2959 1330 100 1200 000/00 RMK AO2 $
14926KSTC STC20020920050010409/20/02 05:00:31  5-MIN KSTC 201100Z AUTO 00000KT 6SM BR CLR 11/11 A2960 1330 100 1100 000/00 RMK AO2 $
14926KSTC STC20020920050510109/20/02 05:05:31  5-MIN KSTC 201105Z AUTO 00000KT 7SM CLR 11/11 A2960 1320 100 1100 000/00 RMK AO2 $
14926KSTC STC20020920051010109/20/02 05:10:31  5-MIN KSTC 201110Z AUTO 30003KT 8SM CLR 11/11 A2959 1330 100 1200 300/03 RMK AO2 $
14926KSTC STC20020920051510009/20/02 05:15:31  5-MIN KSTC 201115Z AUTO 00000KT 8SM CLR 11/10 A2959 1330 96 1200 000/00 RMK AO2 $
14926KSTC STC20020920052010109/20/02 05:20:31  5-MIN KSTC 201120Z AUTO 34003KT 8SM CLR 11/11 A2959 1330 100 1200 340/03 RMK AO2 $
14926KSTC STC20020920052510109/20/02 05:25:31  5-MIN KSTC 201125Z AUTO 00000KT 8SM CLR 11/11 A2959 1330 100 1200 000/00 RMK AO2 $
14926KSTC STC20020920053010109/20/02 05:30:31  5-MIN KSTC 201130Z AUTO 34004KT 7SM CLR 11/11 A2958 1340 100 1200 330/04 RMK AO2 $
14926KSTC STC20020920053510009/20/02 05:35:31  5-MIN KSTC 201135Z AUTO 33003KT 7SM CLR 11/11 A2959 1340 96 1200 320/03 RMK AO2 $
14926KSTC STC20020920054010109/20/02 05:40:31  5-MIN KSTC 201140Z AUTO 00000KT 7SM CLR 11/11 A2959 1340 100 1200 000/00 RMK AO2 $
14926KSTC STC20020920054510109/20/02 05:45:31  5-MIN KSTC 201145Z AUTO 33003KT 8SM CLR 11/11 A2959 1340 100 1200 330/03 RMK AO2 $
14926KSTC STC20020920055014209/20/02 05:50:31  5-MIN KSTC 201150Z AUTO 00000KT 8SM CLR 11/11 A2959 1340 100 1200 000/00 RMK AO2 SLP027 70001 T01110111 10117 20100 56006 $
14926KSTC STC20020920055510009/20/02 05:55:31  5-MIN KSTC 201155Z AUTO 32003KT 7SM CLR 11/11 A2959 1340 96 1200 310/03 RMK AO2 $
14926KSTC STC20020920060010009/20/02 06:00:31  5-MIN KSTC 201200Z AUTO 32003KT 8SM CLR 11/11 A2959 1340 96 1200 320/03 RMK AO2 $
14926KSTC STC20020920060510109/20/02 06:05:31  5-MIN KSTC 201205Z AUTO 31004KT 7SM CLR 11/11 A2959 1340 100 1200 300/04 RMK AO2 $
14926KSTC STC20020920061010409/20/02 06:10:31  5-MIN KSTC 201210Z AUTO 31004KT 6SM BR CLR 11/11 A2959 1340 100 1200 310/04 RMK AO2 $
14926KSTC STC20020920061510409/20/02 06:15:31  5-MIN KSTC 201215Z AUTO 32004KT 6SM BR CLR 11/11 A2959 1330 100 1200 320/04 RMK AO2 $
14926KSTC STC20020920062010409/20/02 06:20:31  5-MIN KSTC 201220Z AUTO 32003KT 6SM BR CLR 11/11 A2960 1330 100 1200 320/03 RMK AO2 $
14926KSTC STC20020920062510309/20/02 06:25:31  5-MIN KSTC 201225Z AUTO 00000KT 6SM BR CLR 11/11 A2960 1330 96 1200 000/00 RMK AO2 $
14926KSTC STC20020920063010409/20/02 06:30:31  5-MIN KSTC 201230Z AUTO 00000KT 6SM BR CLR 11/11 A2960 1320 100 1200 000/00 RMK AO2 $
14926KSTC STC20020920063510409/20/02 06:35:31  5-MIN KSTC 201235Z AUTO 00000KT 6SM BR CLR 11/11 A2961 1320 100 1200 000/00 RMK AO2 $
14926KSTC STC20020920064010309/20/02 06:40:31  5-MIN KSTC 201240Z AUTO 00000KT 6SM BR CLR 11/11 A2960 1320 96 1200 000/00 RMK AO2 $
14926KSTC STC20020920064510309/20/02 06:45:31  5-MIN KSTC 201245Z AUTO 00000KT 6SM BR CLR 11/11 A2960 1320 96 1200 000/00 RMK AO2 $
14926KSTC STC20020920065012109/20/02 06:50:31  5-MIN KSTC 201250Z AUTO 32004KT 6SM BR CLR 11/11 A2960 1330 100 1100 320/04 RMK AO2 SLP032 T01060106 $
14926KSTC STC20020920065510409/20/02 06:55:31  5-MIN KSTC 201255Z AUTO 33004KT 6SM BR CLR 11/11 A2960 1330 100 1200 320/04 RMK AO2 $
14926KSTC STC20020920070010009/20/02 07:00:31  5-MIN KSTC 201300Z AUTO 32005KT 7SM CLR 11/11 A2959 1330 96 1200 320/05 RMK AO2 $
14926KSTC STC20020920070510009/20/02 07:05:31  5-MIN KSTC 201305Z AUTO 33003KT 7SM CLR 11/11 A2959 1330 96 1200 320/03 RMK AO2 $
14926KSTC STC20020920071010009/20/02 07:10:31  5-MIN KSTC 201310Z AUTO 00000KT 7SM CLR 11/11 A2959 1330 96 1200 000/00 RMK AO2 $
14926KSTC STC20020920071510109/20/02 07:15:31  5-MIN KSTC 201315Z AUTO 00000KT 7SM CLR 11/11 A2959 1330 100 1200 000/00 RMK AO2 $
14926KSTC STC20020920072010409/20/02 07:20:31  5-MIN KSTC 201320Z AUTO 00000KT 6SM BR CLR 11/11 A2960 1330 100 1200 000/00 RMK AO2 $
14926KSTC STC20020920072510409/20/02 07:25:31  5-MIN KSTC 201325Z AUTO 32003KT 6SM BR CLR 11/11 A2959 1330 100 1200 320/03 RMK AO2 $
14926KSTC STC20020920073010409/20/02 07:30:31  5-MIN KSTC 201330Z AUTO 32004KT 6SM BR CLR 11/11 A2959 1330 100 1200 320/04 RMK AO2 $
14926KSTC STC20020920073510109/20/02 07:35:31  5-MIN KSTC 201335Z AUTO 33003KT 7SM CLR 12/12 A2959 1340 100 1300 320/03 RMK AO2 $
14926KSTC STC20020920074010009/20/02 07:40:31  5-MIN KSTC 201340Z AUTO 00000KT 8SM CLR 12/12 A2959 1340 96 1400 000/00 RMK AO2 $
14926KSTC STC20020920074510009/20/02 07:45:31  5-MIN KSTC 201345Z AUTO 33003KT 9SM CLR 12/12 A2959 1340 96 1400 320/03 RMK AO2 $
14926KSTC STC20020920075011709/20/02 07:50:31  5-MIN KSTC 201350Z AUTO 00000KT 9SM CLR 12/12 A2959 1340 96 1400 000/00 RMK AO2 SLP028 T01220117 $
14926KSTC STC20020920075510409/20/02 07:55:31  5-MIN KSTC 201355Z AUTO 35003KT 10SM FEW070 13/12 A2959 1340 96 1400 340/03 RMK AO2 $
14926KSTC STC20020920080010409/20/02 08:00:31  5-MIN KSTC 201400Z AUTO 32003KT 10SM FEW070 13/12 A2958 1340 96 1400 310/03 RMK AO2 $
14926KSTC STC20020920080510409/20/02 08:05:31  5-MIN KSTC 201405Z AUTO 33004KT 10SM FEW070 13/12 A2958 1340 96 1400 330/04 RMK AO2 $
14926KSTC STC20020920081010409/20/02 08:10:31  5-MIN KSTC 201410Z AUTO VRB04KT 10SM FEW070 13/13 A2958 1340 96 1500 VRB/04 RMK AO2 $
14926KSTC STC20020920081510409/20/02 08:15:31  5-MIN KSTC 201415Z AUTO 32005KT 10SM FEW070 14/13 A2958 1340 93 1600 310/05 RMK AO2 $
14926KSTC STC20020920082010409/20/02 08:20:31  5-MIN KSTC 201420Z AUTO 30005KT 10SM FEW070 14/13 A2958 1340 93 1600 300/05 RMK AO2 $
14926KSTC STC20020920082509909/20/02 08:25:31  5-MIN KSTC 201425Z AUTO 31004KT 10SM CLR 14/13 A2958 1340 93 1600 310/04 RMK AO2
14926KSTC STC20020920083009909/20/02 08:30:31  5-MIN KSTC 201430Z AUTO 31004KT 10SM CLR 14/13 A2958 1340 90 1600 300/04 RMK AO2
14926KSTC STC20020920083509909/20/02 08:35:31  5-MIN KSTC 201435Z AUTO 31004KT 10SM CLR 14/13 A2958 1340 90 1600 310/04 RMK AO2
14926KSTC STC20020920084009909/20/02 08:40:31  5-MIN KSTC 201440Z AUTO 33003KT 10SM CLR 15/13 A2958 1350 86 1700 330/03 RMK AO2
14926KSTC STC20020920084509909/20/02 08:45:31  5-MIN KSTC 201445Z AUTO 00000KT 10SM CLR 15/13 A2958 1350 86 1700 000/00 RMK AO2
14926KSTC STC20020920085012209/20/02 08:50:31  5-MIN KSTC 201450Z AUTO VRB03KT 10SM CLR 16/13 A2957 1350 83 1800 VRB/03 RMK AO2 SLP023 T01560128 56012
14926KSTC STC20020920085509909/20/02 08:55:31  5-MIN KSTC 201455Z AUTO 34004KT 10SM CLR 16/13 A2957 1350 83 1800 330/04 RMK AO2
14926KSTC STC20020920090009909/20/02 09:00:31  5-MIN KSTC 201500Z AUTO 29004KT 10SM CLR 16/12 A2957 1350 80 1800 290/04 RMK AO2
14926KSTC STC20020920090509909/20/02 09:05:31  5-MIN KSTC 201505Z AUTO VRB03KT 10SM CLR 16/12 A2957 1350 80 1800 VRB/03 RMK AO2
14926KSTC STC20020920091009909/20/02 09:10:31  5-MIN KSTC 201510Z AUTO VRB03KT 10SM CLR 16/13 A2957 1350 83 1800 VRB/03 RMK AO2
14926KSTC STC20020920091509909/20/02 09:15:31  5-MIN KSTC 201515Z AUTO 00000KT 10SM CLR 16/12 A2957 1350 80 1800 000/00 RMK AO2
14926KSTC STC20020920092009909/20/02 09:20:31  5-MIN KSTC 201520Z AUTO 00000KT 10SM CLR 16/13 A2957 1350 80 1800 000/00 RMK AO2
14926KSTC STC20020920092509909/20/02 09:25:31  5-MIN KSTC 201525Z AUTO VRB03KT 10SM CLR 16/12 A2957 1350 77 1800 VRB/03 RMK AO2
14926KSTC STC20020920093009909/20/02 09:30:31  5-MIN KSTC 201530Z AUTO VRB04KT 10SM CLR 16/13 A2957 1350 80 1800 VRB/04 RMK AO2
14926KSTC STC20020920093509909/20/02 09:35:31  5-MIN KSTC 201535Z AUTO VRB03KT 10SM CLR 17/13 A2957 1350 77 1900 VRB/03 RMK AO2
14926KSTC STC20020920094009909/20/02 09:40:31  5-MIN KSTC 201540Z AUTO 29004KT 10SM CLR 17/12 A2957 1350 75 1900 290/04 RMK AO2
14926KSTC STC20020920094510209/20/02 09:45:31  5-MIN KSTC 201545Z AUTO VRB05KT 10SM FEW019 17/12 A2957 1350 75 1900 VRB/05 RMK AO2
14926KSTC STC20020920095011909/20/02 09:50:31  5-MIN KSTC 201550Z AUTO 28004KT 10SM FEW019 17/13 A2957 1350 75 2000 280/04 RMK AO2 SLP021 T01720128
14926KSTC STC20020920095510209/20/02 09:55:31  5-MIN KSTC 201555Z AUTO VRB03KT 10SM FEW019 17/13 A2957 1350 75 2000 VRB/03 RMK AO2
14926KSTC STC20020920100010209/20/02 10:00:31  5-MIN KSTC 201600Z AUTO 31005KT 10SM FEW019 18/12 A2957 1350 69 2000 300/05 RMK AO2
14926KSTC STC20020920100510209/20/02 10:05:31  5-MIN KSTC 201605Z AUTO 31004KT 10SM FEW019 18/12 A2957 1350 69 2000 310/04 RMK AO2
14926KSTC STC20020920101010209/20/02 10:10:31  5-MIN KSTC 201610Z AUTO 29006KT 10SM FEW022 18/12 A2956 1360 69 2000 290/06 RMK AO2
14926KSTC STC20020920101510209/20/02 10:15:31  5-MIN KSTC 201615Z AUTO 31005KT 10SM FEW022 18/12 A2957 1360 67 2000 310/05 RMK AO2
14926KSTC STC20020920102009909/20/02 10:20:31  5-MIN KSTC 201620Z AUTO VRB06KT 10SM CLR 18/12 A2956 1360 65 2100 VRB/06 RMK AO2
14926KSTC STC20020920102510209/20/02 10:25:31  5-MIN KSTC 201625Z AUTO 28006KT 10SM FEW027 18/12 A2956 1360 67 2000 280/06 RMK AO2
14926KSTC STC20020920103010209/20/02 10:30:31  5-MIN KSTC 201630Z AUTO VRB04KT 10SM FEW027 18/12 A2956 1360 67 2000 VRB/04 RMK AO2
14926KSTC STC20020920103510209/20/02 10:35:31  5-MIN KSTC 201635Z AUTO 32004KT 10SM FEW029 18/11 A2956 1370 64 2000 320/04 RMK AO2
14926KSTC STC20020920104010209/20/02 10:40:31  5-MIN KSTC 201640Z AUTO 30005KT 10SM FEW029 18/11 A2955 1370 64 2000 300/05 RMK AO2
14926KSTC STC20020920104510209/20/02 10:45:31  5-MIN KSTC 201645Z AUTO 28007KT 10SM FEW029 18/11 A2955 1370 62 2100 280/07 RMK AO2
14926KSTC STC20020920105011909/20/02 10:50:31  5-MIN KSTC 201650Z AUTO VRB05KT 10SM FEW029 18/11 A2955 1370 62 2100 VRB/05 RMK AO2 SLP013 T01830111
14926KSTC STC20020920105510209/20/02 10:55:31  5-MIN KSTC 201655Z AUTO 29008KT 10SM SCT029 19/12 A2955 1370 60 2200 290/08 RMK AO2
14926KSTC STC20020920110010809/20/02 11:00:31  5-MIN KSTC 201700Z AUTO 30011G14KT 10SM BKN029 19/11 A2955 1370 60 2200 290/11G14 RMK AO2
14926KSTC STC20020920110510209/20/02 11:05:31  5-MIN KSTC 201705Z AUTO 30010KT 10SM BKN031 18/11 A2955 1370 62 2100 300/10 RMK AO2
14926KSTC STC20020920111010209/20/02 11:10:31  5-MIN KSTC 201710Z AUTO 30007KT 10SM SCT031 19/11 A2955 1380 60 2200 300/07 RMK AO2
14926KSTC STC20020920111510209/20/02 11:15:31  5-MIN KSTC 201715Z AUTO 27007KT 10SM SCT031 19/11 A2954 1380 58 2300 270/07 RMK AO2
14926KSTC STC20020920112010209/20/02 11:20:31  5-MIN KSTC 201720Z AUTO 29008KT 10SM SCT031 20/12 A2954 1380 58 2300 290/08 RMK AO2
14926KSTC STC20020920112510209/20/02 11:25:31  5-MIN KSTC 201725Z AUTO 28006KT 10SM BKN033 19/12 A2953 1380 60 2300 280/06 RMK AO2
14926KSTC STC20020920113010209/20/02 11:30:31  5-MIN KSTC 201730Z AUTO 31007KT 10SM BKN033 19/12 A2953 1390 62 2200 310/07 RMK AO2
14926KSTC STC20020920113510209/20/02 11:35:31  5-MIN KSTC 201735Z AUTO 33006KT 10SM BKN033 18/12 A2953 1390 65 2100 330/06 RMK AO2
14926KSTC STC20020920114010209/20/02 11:40:31  5-MIN KSTC 201740Z AUTO 32005KT 10SM BKN035 19/12 A2953 1390 62 2200 320/05 RMK AO2
14926KSTC STC20020920114510209/20/02 11:45:31  5-MIN KSTC 201745Z AUTO 33008KT 10SM BKN035 19/11 A2953 1390 58 2300 320/08 RMK AO2
14926KSTC STC20020920115013709/20/02 11:50:31  5-MIN KSTC 201750Z AUTO 30009KT 10SM BKN035 20/09 A2953 1390 48 2300 300/09 RMK AO2 SLP006 T02000089 10200 20106 58004
14926KSTC STC20020920115511809/20/02 11:55:31  5-MIN KSTC 201755Z AUTO 30008KT 260V330 10SM SCT035 20/09 A2953 1390 48 2300 290/08 260V330 RMK AO2
14926KSTC STC20020920120010209/20/02 12:00:31  5-MIN KSTC 201800Z AUTO 29010KT 10SM FEW035 21/09 A2953 1390 46 2400 290/10 RMK AO2
14926KSTC STC20020920120510209/20/02 12:05:31  5-MIN KSTC 201805Z AUTO 29009KT 10SM FEW035 21/08 A2952 1400 45 2400 280/09 RMK AO2
14926KSTC STC20020920121009909/20/02 12:10:31  5-MIN KSTC 201810Z AUTO 29006KT 10SM CLR 20/08 A2952 1400 46 2300 290/06 RMK AO2
14926KSTC STC20020920121509909/20/02 12:15:31  5-MIN KSTC 201815Z AUTO 28008KT 10SM CLR 21/08 A2953 1390 45 2400 280/08 RMK AO2
14926KSTC STC20020920122009909/20/02 12:20:31  5-MIN KSTC 201820Z AUTO 29009KT 10SM CLR 21/08 A2952 1390 43 2500 290/09 RMK AO2
14926KSTC STC20020920122509909/20/02 12:25:31  5-MIN KSTC 201825Z AUTO 31008KT 10SM CLR 21/09 A2952 1400 46 2400 300/08 RMK AO2
14926KSTC STC20020920123009909/20/02 12:30:31  5-MIN KSTC 201830Z AUTO 26006KT 10SM CLR 21/09 A2952 1400 48 2400 260/06 RMK AO2
14926KSTC STC20020920123509909/20/02 12:35:31  5-MIN KSTC 201835Z AUTO 25005KT 10SM CLR 21/09 A2952 1400 48 2400 250/05 RMK AO2
14926KSTC STC20020920124009909/20/02 12:40:31  5-MIN KSTC 201840Z AUTO 29009KT 10SM CLR 21/09 A2952 1400 47 2500 280/09 RMK AO2
14926KSTC STC20020920124509909/20/02 12:45:31  5-MIN KSTC 201845Z AUTO 24006KT 10SM CLR 21/09 A2952 1400 46 2400 240/06 RMK AO2
14926KSTC STC20020920125011609/20/02 12:50:31  5-MIN KSTC 201850Z AUTO 30006KT 10SM CLR 21/09 A2952 1400 46 2400 300/06 RMK AO2 SLP002 T02060089
14926KSTC STC20020920125509909/20/02 12:55:31  5-MIN KSTC 201855Z AUTO 27005KT 10SM CLR 21/09 A2952 1400 48 2400 270/05 RMK AO2
14926KSTC STC20020920130009909/20/02 13:00:31  5-MIN KSTC 201900Z AUTO VRB03KT 10SM CLR 20/09 A2952 1400 48 2300 VRB/03 RMK AO2
14926KSTC STC20020920130509909/20/02 13:05:31  5-MIN KSTC 201905Z AUTO VRB05KT 10SM CLR 20/09 A2952 1400 48 2300 VRB/05 RMK AO2
14926KSTC STC20020920131009909/20/02 13:10:31  5-MIN KSTC 201910Z AUTO 00000KT 10SM CLR 19/09 A2952 1400 50 2300 000/00 RMK AO2
14926KSTC STC20020920131509909/20/02 13:15:31  5-MIN KSTC 201915Z AUTO 00000KT 10SM CLR 21/09 A2952 1400 46 2400 000/00 RMK AO2
14926KSTC STC20020920132009909/20/02 13:20:31  5-MIN KSTC 201920Z AUTO 00000KT 10SM CLR 21/09 A2952 1400 48 2400 000/00 RMK AO2
14926KSTC STC20020920132509909/20/02 13:25:31  5-MIN KSTC 201925Z AUTO VRB04KT 10SM CLR 21/09 A2952 1400 45 2500 VRB/04 RMK AO2
14926KSTC STC20020920133009909/20/02 13:30:31  5-MIN KSTC 201930Z AUTO VRB05KT 10SM CLR 21/08 A2952 1400 43 2500 VRB/05 RMK AO2
14926KSTC STC20020920133509909/20/02 13:35:31  5-MIN KSTC 201935Z AUTO 29008KT 10SM CLR 22/07 A2952 1400 39 2500 290/08 RMK AO2
14926KSTC STC20020920134009909/20/02 13:40:31  5-MIN KSTC 201940Z AUTO 29005KT 10SM CLR 22/07 A2951 1400 37 2600 290/05 RMK AO2
14926KSTC STC20020920134509909/20/02 13:45:31  5-MIN KSTC 201945Z AUTO 26007KT 10SM CLR 22/07 A2951 1400 37 2600 260/07 RMK AO2
14926KSTC STC20020920135011609/20/02 13:50:31  5-MIN KSTC 201950Z AUTO 28005KT 10SM CLR 22/07 A2951 1410 37 2600 270/05 RMK AO2 SLP999 T02220072
14926KSTC STC20020920135509909/20/02 13:55:31  5-MIN KSTC 201955Z AUTO 00000KT 10SM CLR 22/07 A2951 1410 36 2600 000/00 RMK AO2
14926KSTC STC20020920140009909/20/02 14:00:31  5-MIN KSTC 202000Z AUTO 29007KT 10SM CLR 23/07 A2951 1410 35 2700 290/07 RMK AO2
14926KSTC STC20020920140509909/20/02 14:05:31  5-MIN KSTC 202005Z AUTO VRB05KT 10SM CLR 22/06 A2951 1410 35 2600 VRB/05 RMK AO2
14926KSTC STC20020920141009909/20/02 14:10:31  5-MIN KSTC 202010Z AUTO 27009KT 10SM CLR 22/07 A2951 1410 37 2600 260/09 RMK AO2
14926KSTC STC20020920141509909/20/02 14:15:31  5-MIN KSTC 202015Z AUTO 26009KT 10SM CLR 22/07 A2951 1410 36 2600 260/09 RMK AO2
14926KSTC STC20020920142009909/20/02 14:20:31  5-MIN KSTC 202020Z AUTO 26009KT 10SM CLR 22/07 A2950 1410 36 2600 260/09 RMK AO2
14926KSTC STC20020920142509909/20/02 14:25:31  5-MIN KSTC 202025Z AUTO 29006KT 10SM CLR 22/07 A2950 1420 36 2600 290/06 RMK AO2
14926KSTC STC20020920143009909/20/02 14:30:31  5-MIN KSTC 202030Z AUTO 24006KT 10SM CLR 22/07 A2950 1420 37 2600 240/06 RMK AO2
14926KSTC STC20020920143509909/20/02 14:35:31  5-MIN KSTC 202035Z AUTO 24007KT 10SM CLR 22/08 A2950 1420 39 2600 230/07 RMK AO2
14926KSTC STC20020920144009909/20/02 14:40:31  5-MIN KSTC 202040Z AUTO 26009KT 10SM CLR 22/07 A2950 1420 36 2600 260/09 RMK AO2
14926KSTC STC20020920144509909/20/02 14:45:31  5-MIN KSTC 202045Z AUTO 26009KT 10SM CLR 22/07 A2950 1420 37 2600 250/09 RMK AO2
14926KSTC STC20020920145012209/20/02 14:50:31  5-MIN KSTC 202050Z AUTO 26010KT 10SM CLR 22/08 A2950 1420 40 2600 260/10 RMK AO2 SLP997 T02170078 58016
14926KSTC STC20020920145509909/20/02 14:55:31  5-MIN KSTC 202055Z AUTO 26008KT 10SM CLR 22/08 A2950 1420 39 2600 260/08 RMK AO2
14926KSTC STC20020920150009909/20/02 15:00:31  5-MIN KSTC 202100Z AUTO 26007KT 10SM CLR 22/08 A2950 1420 40 2600 260/07 RMK AO2
14926KSTC STC20020920150509909/20/02 15:05:31  5-MIN KSTC 202105Z AUTO 25009KT 10SM CLR 22/08 A2950 1420 40 2600 240/09 RMK AO2
14926KSTC STC20020920151009909/20/02 15:10:31  5-MIN KSTC 202110Z AUTO VRB06KT 10SM CLR 22/08 A2950 1420 40 2600 VRB/06 RMK AO2
14926KSTC STC20020920151509909/20/02 15:15:31  5-MIN KSTC 202115Z AUTO 22006KT 10SM CLR 22/08 A2949 1420 42 2600 220/06 RMK AO2
14926KSTC STC20020920152009909/20/02 15:20:31  5-MIN KSTC 202120Z AUTO 23007KT 10SM CLR 22/08 A2950 1420 40 2600 230/07 RMK AO2
14926KSTC STC20020920152509909/20/02 15:25:31  5-MIN KSTC 202125Z AUTO 23007KT 10SM CLR 22/09 A2949 1420 42 2600 230/07 RMK AO2
14926KSTC STC20020920153009909/20/02 15:30:31  5-MIN KSTC 202130Z AUTO 23007KT 10SM CLR 22/09 A2949 1420 42 2600 230/07 RMK AO2
14926KSTC STC20020920153509909/20/02 15:35:31  5-MIN KSTC 202135Z AUTO 24006KT 10SM CLR 23/09 A2949 1420 42 2700 230/06 RMK AO2
14926KSTC STC20020920154009909/20/02 15:40:31  5-MIN KSTC 202140Z AUTO 23008KT 10SM CLR 23/09 A2949 1420 40 2700 230/08 RMK AO2
14926KSTC STC20020920154509909/20/02 15:45:31  5-MIN KSTC 202145Z AUTO 25009KT 10SM CLR 23/09 A2949 1420 40 2700 250/09 RMK AO2
14926KSTC STC20020920155011609/20/02 15:50:31  5-MIN KSTC 202150Z AUTO 24010KT 10SM CLR 23/09 A2950 1420 40 2700 230/10 RMK AO2 SLP995 T02280089
14926KSTC STC20020920155509909/20/02 15:55:31  5-MIN KSTC 202155Z AUTO 23007KT 10SM CLR 23/09 A2950 1420 40 2700 230/07 RMK AO2
14926KSTC STC20020920160009909/20/02 16:00:31  5-MIN KSTC 202200Z AUTO 24008KT 10SM CLR 23/09 A2950 1420 40 2700 230/08 RMK AO2
14926KSTC STC20020920160509909/20/02 16:05:31  5-MIN KSTC 202205Z AUTO 24009KT 10SM CLR 23/09 A2950 1420 40 2700 240/09 RMK AO2
14926KSTC STC20020920161009909/20/02 16:10:31  5-MIN KSTC 202210Z AUTO 24009KT 10SM CLR 23/09 A2950 1420 40 2700 240/09 RMK AO2
14926KSTC STC20020920161509909/20/02 16:15:31  5-MIN KSTC 202215Z AUTO 23007KT 10SM CLR 23/08 A2950 1420 39 2700 230/07 RMK AO2
14926KSTC STC20020920162009909/20/02 16:20:31  5-MIN KSTC 202220Z AUTO 23007KT 10SM CLR 23/09 A2950 1420 40 2700 230/07 RMK AO2
14926KSTC STC20020920162509909/20/02 16:25:31  5-MIN KSTC 202225Z AUTO 23007KT 10SM CLR 23/08 A2950 1420 39 2700 220/07 RMK AO2
14926KSTC STC20020920163009909/20/02 16:30:31  5-MIN KSTC 202230Z AUTO 24006KT 10SM CLR 23/09 A2949 1420 40 2700 240/06 RMK AO2
14926KSTC STC20020920163509909/20/02 16:35:31  5-MIN KSTC 202235Z AUTO 23006KT 10SM CLR 22/09 A2949 1430 42 2600 220/06 RMK AO2
14926KSTC STC20020920164009909/20/02 16:40:31  5-MIN KSTC 202240Z AUTO 22006KT 10SM CLR 23/09 A2949 1430 40 2700 220/06 RMK AO2
14926KSTC STC20020920164509909/20/02 16:45:31  5-MIN KSTC 202245Z AUTO 21008KT 10SM CLR 22/09 A2949 1430 42 2600 210/08 RMK AO2
14926KSTC STC20020920165011609/20/02 16:50:31  5-MIN KSTC 202250Z AUTO 21007KT 10SM CLR 22/09 A2949 1420 43 2600 210/07 RMK AO2 SLP993 T02220094
14926KSTC STC20020920165509909/20/02 16:55:31  5-MIN KSTC 202255Z AUTO 22006KT 10SM CLR 22/09 A2949 1430 43 2600 210/06 RMK AO2
14926KSTC STC20020920170009909/20/02 17:00:31  5-MIN KSTC 202300Z AUTO 22006KT 10SM CLR 22/09 A2949 1430 43 2600 220/06 RMK AO2
14926KSTC STC20020920170509909/20/02 17:05:31  5-MIN KSTC 202305Z AUTO 21005KT 10SM CLR 22/09 A2949 1430 43 2600 210/05 RMK AO2
14926KSTC STC20020920171009909/20/02 17:10:31  5-MIN KSTC 202310Z AUTO 21006KT 10SM CLR 22/09 A2949 1430 43 2600 210/06 RMK AO2
14926KSTC STC20020920171509909/20/02 17:15:31  5-MIN KSTC 202315Z AUTO 21005KT 10SM CLR 22/10 A2949 1430 45 2600 210/05 RMK AO2
14926KSTC STC20020920172009909/20/02 17:20:31  5-MIN KSTC 202320Z AUTO 20005KT 10SM CLR 22/10 A2949 1430 45 2600 200/05 RMK AO2
14926KSTC STC20020920172509909/20/02 17:25:31  5-MIN KSTC 202325Z AUTO 20006KT 10SM CLR 22/11 A2949 1430 49 2600 200/06 RMK AO2
14926KSTC STC20020920173009909/20/02 17:30:31  5-MIN KSTC 202330Z AUTO 19004KT 10SM CLR 21/11 A2949 1430 50 2500 180/04 RMK AO2
14926KSTC STC20020920173509909/20/02 17:35:31  5-MIN KSTC 202335Z AUTO 17004KT 10SM CLR 21/11 A2949 1430 54 2400 170/04 RMK AO2
14926KSTC STC20020920174009909/20/02 17:40:31  5-MIN KSTC 202340Z AUTO 17004KT 10SM CLR 20/12 A2949 1430 60 2400 170/04 RMK AO2
14926KSTC STC20020920174509909/20/02 17:45:31  5-MIN KSTC 202345Z AUTO 17005KT 10SM CLR 19/12 A2949 1420 65 2200 170/05 RMK AO2
14926KSTC STC20020920175013409/20/02 17:50:31  5-MIN KSTC 202350Z AUTO 18004KT 10SM CLR 18/12 A2949 1420 67 2200 170/04 RMK AO2 SLP995 T01830122 10228 20183 58009
14926KSTC STC20020920175509909/20/02 17:55:31  5-MIN KSTC 202355Z AUTO 18004KT 10SM CLR 18/12 A2950 1420 67 2200 170/04 RMK AO2
14926KSTC STC20020920180009909/20/02 18:00:31  5-MIN KSTC 210000Z AUTO 19004KT 10SM CLR 18/12 A2950 1420 69 2100 190/04 RMK AO2
14926KSTC STC20020920180509909/20/02 18:05:31  5-MIN KSTC 210005Z AUTO 19004KT 10SM CLR 18/12 A2950 1420 69 2100 190/04 RMK AO2
14926KSTC STC20020920181009909/20/02 18:10:31  5-MIN KSTC 210010Z AUTO 19004KT 10SM CLR 17/13 A2950 1420 75 2100 190/04 RMK AO2
14926KSTC STC20020920181509909/20/02 18:15:31  5-MIN KSTC 210015Z AUTO 20005KT 10SM CLR 17/13 A2950 1420 75 2000 190/05 RMK AO2
14926KSTC STC20020920182009909/20/02 18:20:31  5-MIN KSTC 210020Z AUTO 20005KT 10SM CLR 18/12 A2950 1410 69 2100 200/05 RMK AO2
14926KSTC STC20020920182509909/20/02 18:25:31  5-MIN KSTC 210025Z AUTO 20005KT 10SM CLR 18/12 A2951 1410 69 2100 200/05 RMK AO2
14926KSTC STC20020920183010609/20/02 18:30:31  5-MIN KSTC 210030Z AUTO 21006KT 10SM CLR 18/12 A2952 1400 69 2100 200/06 RMK AO2 PRESRR
14926KSTC STC20020920183510609/20/02 18:35:31  5-MIN KSTC 210035Z AUTO 27011KT 10SM CLR 17/12 A2953 1390 72 2000 260/11 RMK AO2 PRESRR
14926KSTC STC20020920184010509/20/02 18:40:31  5-MIN KSTC 210040Z AUTO 29013G17KT 10SM CLR 19/12 A2953 1390 60 2300 290/13G17 RMK AO2
14926KSTC STC20020920184509909/20/02 18:45:31  5-MIN KSTC 210045Z AUTO 31011KT 10SM CLR 19/12 A2954 1380 60 2300 300/11 RMK AO2
14926KSTC STC20020920185013309/20/02 18:50:31  5-MIN KSTC 210050Z AUTO 31013G18KT 10SM CLR 19/12 A2954 1380 60 2300 310/13G18 RMK AO2 WSHFT 0034 SLP011 T01940117
14926KSTC STC20020920185511609/20/02 18:55:31  5-MIN KSTC 210055Z AUTO 31011G19KT 10SM CLR 19/12 A2954 1380 60 2300 310/11G19 RMK AO2 WSHFT 0040
14926KSTC STC20020920190011609/20/02 19:00:31  5-MIN KSTC 210100Z AUTO 32015G19KT 10SM CLR 19/12 A2955 1370 60 2200 320/15G19 RMK AO2 WSHFT 0040
14926KSTC STC20020920190511609/20/02 19:05:31  5-MIN KSTC 210105Z AUTO 32014G20KT 10SM CLR 19/11 A2955 1370 58 2200 320/14G20 RMK AO2 WSHFT 0040
14926KSTC STC20020920191011009/20/02 19:10:31  5-MIN KSTC 210110Z AUTO 32012KT 10SM CLR 19/12 A2956 1370 62 2200 310/12 RMK AO2 WSHFT 0040
14926KSTC STC20020920191511009/20/02 19:15:31  5-MIN KSTC 210115Z AUTO 31010KT 10SM CLR 19/12 A2956 1360 62 2200 310/10 RMK AO2 WSHFT 0040
14926KSTC STC20020920192011009/20/02 19:20:31  5-MIN KSTC 210120Z AUTO 31013KT 10SM CLR 18/12 A2957 1360 65 2100 310/13 RMK AO2 WSHFT 0040
14926KSTC STC20020920192511009/20/02 19:25:31  5-MIN KSTC 210125Z AUTO 31011KT 10SM CLR 18/12 A2957 1350 65 2100 310/11 RMK AO2 WSHFT 0040
14926KSTC STC20020920193011009/20/02 19:30:31  5-MIN KSTC 210130Z AUTO 31013KT 10SM CLR 18/12 A2958 1350 65 2100 310/13 RMK AO2 WSHFT 0040
14926KSTC STC20020920193511009/20/02 19:35:31  5-MIN KSTC 210135Z AUTO 31012KT 10SM CLR 18/12 A2958 1340 67 2000 310/12 RMK AO2 WSHFT 0040
14926KSTC STC20020920194012309/20/02 19:40:31  5-MIN KSTC 210140Z AUTO 32016G22KT 10SM CLR 18/12 A2959 1340 65 2100 320/16G22 RMK AO2 WSHFT 0040 PRESRR
14926KSTC STC20020920194512309/20/02 19:45:31  5-MIN KSTC 210145Z AUTO 32014G22KT 10SM CLR 18/12 A2959 1330 67 2000 310/14G22 RMK AO2 WSHFT 0040 PRESRR
14926KSTC STC20020920195012709/20/02 19:50:31  5-MIN KSTC 210150Z AUTO 31016KT 10SM CLR 18/12 A2960 1330 67 2000 310/16 RMK AO2 WSHFT 0040 SLP030 T01780117
14926KSTC STC20020920195509909/20/02 19:55:31  5-MIN KSTC 210155Z AUTO 31016KT 10SM CLR 17/12 A2960 1320 69 1900 310/16 RMK AO2
14926KSTC STC20020920200009909/20/02 20:00:31  5-MIN KSTC 210200Z AUTO 31015KT 10SM CLR 17/12 A2960 1320 69 1900 310/15 RMK AO2
14926KSTC STC20020920200510509/20/02 20:05:31  5-MIN KSTC 210205Z AUTO 31017G21KT 10SM CLR 17/12 A2961 1320 69 1900 310/17G21 RMK AO2
14926KSTC STC20020920201010509/20/02 20:10:31  5-MIN KSTC 210210Z AUTO 31014G21KT 10SM CLR 17/11 A2961 1310 69 1900 310/14G21 RMK AO2
14926KSTC STC20020920201509909/20/02 20:15:31  5-MIN KSTC 210215Z AUTO 32012KT 10SM CLR 17/11 A2962 1310 67 1800 310/12 RMK AO2
14926KSTC STC20020920202009909/20/02 20:20:31  5-MIN KSTC 210220Z AUTO 31013KT 10SM CLR 17/11 A2962 1300 67 1800 310/13 RMK AO2
14926KSTC STC20020920202509909/20/02 20:25:31  5-MIN KSTC 210225Z AUTO 31015KT 10SM CLR 17/11 A2963 1300 67 1800 310/15 RMK AO2
14926KSTC STC20020920203010509/20/02 20:30:31  5-MIN KSTC 210230Z AUTO 32015G22KT 10SM CLR 17/10 A2963 1300 64 1800 310/15G22 RMK AO2
14926KSTC STC20020920203510509/20/02 20:35:31  5-MIN KSTC 210235Z AUTO 32014G22KT 10SM CLR 17/10 A2963 1300 64 1800 320/14G22 RMK AO2
14926KSTC STC20020920204009909/20/02 20:40:31  5-MIN KSTC 210240Z AUTO 32015KT 10SM CLR 17/09 A2964 1290 62 1800 310/15 RMK AO2
14926KSTC STC20020920204509909/20/02 20:45:31  5-MIN KSTC 210245Z AUTO 32016KT 10SM CLR 17/09 A2964 1290 62 1800 320/16 RMK AO2
14926KSTC STC20020920205012809/20/02 20:50:31  5-MIN KSTC 210250Z AUTO 32014G21KT 10SM CLR 16/09 A2965 1280 62 1700 320/14G21 RMK AO2 SLP046 T01610089 55002
14926KSTC STC20020920205510509/20/02 20:55:31  5-MIN KSTC 210255Z AUTO 32013G21KT 10SM CLR 16/08 A2965 1280 59 1700 320/13G21 RMK AO2
14926KSTC STC20020920210010509/20/02 21:00:31  5-MIN KSTC 210300Z AUTO 32014G21KT 10SM CLR 16/08 A2965 1280 57 1700 320/14G21 RMK AO2
14926KSTC STC20020920210510509/20/02 21:05:31  5-MIN KSTC 210305Z AUTO 32014G21KT 10SM CLR 16/07 A2965 1280 55 1700 320/14G21 RMK AO2
14926KSTC STC20020920211010509/20/02 21:10:31  5-MIN KSTC 210310Z AUTO 32017G23KT 10SM CLR 16/07 A2966 1270 53 1700 320/17G23 RMK AO2
14926KSTC STC20020920211510509/20/02 21:15:31  5-MIN KSTC 210315Z AUTO 32014G23KT 10SM CLR 16/07 A2966 1270 53 1700 320/14G23 RMK AO2
14926KSTC STC20020920212010509/20/02 21:20:31  5-MIN KSTC 210320Z AUTO 32014G20KT 10SM CLR 16/07 A2967 1260 55 1700 320/14G20 RMK AO2
14926KSTC STC20020920212510509/20/02 21:25:31  5-MIN KSTC 210325Z AUTO 32013G20KT 10SM CLR 16/06 A2967 1260 53 1700 320/13G20 RMK AO2
14926KSTC STC20020920213010509/20/02 21:30:31  5-MIN KSTC 210330Z AUTO 32014G20KT 10SM CLR 16/06 A2967 1260 53 1700 320/14G20 RMK AO2
14926KSTC STC20020920213510509/20/02 21:35:31  5-MIN KSTC 210335Z AUTO 32013G21KT 10SM CLR 16/06 A2967 1250 53 1700 320/13G21 RMK AO2
14926KSTC STC20020920214010509/20/02 21:40:31  5-MIN KSTC 210340Z AUTO 32016G21KT 10SM CLR 16/06 A2968 1250 53 1600 320/16G21 RMK AO2
14926KSTC STC20020920214510509/20/02 21:45:31  5-MIN KSTC 210345Z AUTO 31014G20KT 10SM CLR 15/06 A2968 1250 55 1600 310/14G20 RMK AO2
14926KSTC STC20020920215011609/20/02 21:50:31  5-MIN KSTC 210350Z AUTO 32014KT 10SM CLR 15/06 A2968 1250 55 1600 310/14 RMK AO2 SLP059 T01500061
14926KSTC STC20020920215510509/20/02 21:55:31  5-MIN KSTC 210355Z AUTO 32015G23KT 10SM CLR 16/06 A2969 1240 51 1600 320/15G23 RMK AO2
14926KSTC STC20020920220010509/20/02 22:00:31  5-MIN KSTC 210400Z AUTO 32015G23KT 10SM CLR 16/06 A2969 1240 51 1600 320/15G23 RMK AO2
14926KSTC STC20020920220510509/20/02 22:05:31  5-MIN KSTC 210405Z AUTO 32015G21KT 10SM CLR 15/06 A2970 1230 53 1600 320/15G21 RMK AO2
14926KSTC STC20020920221010509/20/02 22:10:31  5-MIN KSTC 210410Z AUTO 32017G21KT 10SM CLR 15/06 A2970 1230 53 1600 320/17G21 RMK AO2
14926KSTC STC20020920221510509/20/02 22:15:31  5-MIN KSTC 210415Z AUTO 32013G20KT 10SM CLR 15/06 A2971 1220 53 1500 320/13G20 RMK AO2
14926KSTC STC20020920222010509/20/02 22:20:31  5-MIN KSTC 210420Z AUTO 32014G19KT 10SM CLR 15/06 A2971 1220 53 1500 310/14G19 RMK AO2
14926KSTC STC20020920222510509/20/02 22:25:31  5-MIN KSTC 210425Z AUTO 32012G22KT 10SM CLR 15/05 A2971 1220 51 1500 310/12G22 RMK AO2
14926KSTC STC20020920223010509/20/02 22:30:31  5-MIN KSTC 210430Z AUTO 31014G22KT 10SM CLR 14/05 A2971 1220 53 1500 310/14G22 RMK AO2
14926KSTC STC20020920223510509/20/02 22:35:31  5-MIN KSTC 210435Z AUTO 31014G19KT 10SM CLR 14/06 A2972 1220 55 1500 310/14G19 RMK AO2
14926KSTC STC20020920224009909/20/02 22:40:31  5-MIN KSTC 210440Z AUTO 31012KT 10SM CLR 14/06 A2972 1210 57 1400 310/12 RMK AO2
14926KSTC STC20020920224509909/20/02 22:45:31  5-MIN KSTC 210445Z AUTO 31011KT 10SM CLR 14/06 A2971 1220 57 1400 310/11 RMK AO2
14926KSTC STC20020920225011609/20/02 22:50:31  5-MIN KSTC 210450Z AUTO 31010KT 10SM CLR 14/06 A2972 1220 59 1400 310/10 RMK AO2 SLP070 T01390061
14926KSTC STC20020920225509909/20/02 22:55:31  5-MIN KSTC 210455Z AUTO 31010KT 10SM CLR 14/06 A2971 1220 57 1400 310/10 RMK AO2
14926KSTC STC20020920230009909/20/02 23:00:31  5-MIN KSTC 210500Z AUTO 31010KT 10SM CLR 14/06 A2972 1220 57 1400 310/10 RMK AO2
14926KSTC STC20020920230509909/20/02 23:05:31  5-MIN KSTC 210505Z AUTO 31009KT 10SM CLR 13/06 A2972 1220 61 1300 310/09 RMK AO2
14926KSTC STC20020920231009909/20/02 23:10:31  5-MIN KSTC 210510Z AUTO 31009KT 10SM CLR 13/06 A2972 1210 61 1300 310/09 RMK AO2
14926KSTC STC20020920231509909/20/02 23:15:31  5-MIN KSTC 210515Z AUTO 31008KT 10SM CLR 13/06 A2972 1210 61 1300 310/08 RMK AO2
14926KSTC STC20020920232009909/20/02 23:20:31  5-MIN KSTC 210520Z AUTO 31008KT 10SM CLR 12/06 A2972 1210 63 1200 310/08 RMK AO2
14926KSTC STC20020920232509909/20/02 23:25:31  5-MIN KSTC 210525Z AUTO 31007KT 10SM CLR 12/06 A2972 1210 66 1100 310/07 RMK AO2
14926KSTC STC20020920233009909/20/02 23:30:31  5-MIN KSTC 210530Z AUTO 31007KT 10SM CLR 11/06 A2972 1210 68 1100 310/07 RMK AO2
14926KSTC STC20020920233509909/20/02 23:35:31  5-MIN KSTC 210535Z AUTO 31007KT 10SM CLR 11/06 A2972 1210 68 1100 310/07 RMK AO2
14926KSTC STC20020920234009909/20/02 23:40:31  5-MIN KSTC 210540Z AUTO 30007KT 10SM CLR 11/06 A2973 1210 71 1000 300/07 RMK AO2
14926KSTC STC20020920234509909/20/02 23:45:31  5-MIN KSTC 210545Z AUTO 29007KT 10SM CLR 11/06 A2973 1210 68 1100 290/07 RMK AO2
14926KSTC STC20020920235014409/20/02 23:50:31  5-MIN KSTC 210550Z AUTO 29005KT 10SM CLR 11/06 A2973 1200 68 1100 290/05 RMK AO2 SLP074 T01110056 10194 20106 402280100 52050
14926KSTC STC20020920235509909/20/02 23:55:31  5-MIN KSTC 210555Z AUTO 29006KT 10SM CLR 11/06 A2973 1210 71 1000 290/06 RMK AO2
14926KSTC STC20020921000009909/21/02 00:00:31  5-MIN KSTC 210600Z AUTO 29006KT 10SM CLR 11/06 A2973 1210 68 1100 290/06 RMK AO2
14926KSTC STC20020921000509909/21/02 00:05:31  5-MIN KSTC 210605Z AUTO 29006KT 10SM CLR 11/06 A2973 1200 68 1100 290/06 RMK AO2
14926KSTC STC20020921001009909/21/02 00:10:31  5-MIN KSTC 210610Z AUTO 28007KT 10SM CLR 11/06 A2974 1200 68 1100 280/07 RMK AO2
14926KSTC STC20020921001509909/21/02 00:15:31  5-MIN KSTC 210615Z AUTO 28007KT 10SM CLR 11/06 A2974 1200 68 1100 280/07 RMK AO2
14926KSTC STC20020921002009909/21/02 00:20:31  5-MIN KSTC 210620Z AUTO 27007KT 10SM CLR 11/06 A2974 1190 68 1100 270/07 RMK AO2
14926KSTC STC20020921002509909/21/02 00:25:31  5-MIN KSTC 210625Z AUTO 27008KT 10SM CLR 11/06 A2975 1190 68 1000 260/08 RMK AO2
14926KSTC STC20020921003009909/21/02 00:30:31  5-MIN KSTC 210630Z AUTO 27008KT 10SM CLR 11/06 A2975 1190 68 1000 260/08 RMK AO2
14926KSTC STC20020921003509909/21/02 00:35:31  5-MIN KSTC 210635Z AUTO 27008KT 10SM CLR 11/06 A2975 1180 68 1000 270/08 RMK AO2
14926KSTC STC20020921004009909/21/02 00:40:31  5-MIN KSTC 210640Z AUTO 27008KT 10SM CLR 12/06 A2975 1180 66 1100 270/08 RMK AO2
14926KSTC STC20020921004510109/21/02 00:45:31  5-MIN KSTC 210645Z AUTO 27009KT 10SM CLR 12/06 A2976 1180 66 1100 270/09 RMK AO2 $
14926KSTC STC20020921005011809/21/02 00:50:31  5-MIN KSTC 210650Z AUTO 27008KT 10SM CLR 12/05 A2976 1170 63 1100 270/08 RMK AO2 SLP085 T01170050 $
14926KSTC STC20020921005510109/21/02 00:55:31  5-MIN KSTC 210655Z AUTO 26007KT 10SM CLR 12/05 A2976 1180 63 1100 260/07 RMK AO2 $
14926KSTC STC20020921010010109/21/02 01:00:31  5-MIN KSTC 210700Z AUTO 26007KT 10SM CLR 11/05 A2976 1170 66 1000 260/07 RMK AO2 $
14926KSTC STC20020921010510109/21/02 01:05:31  5-MIN KSTC 210705Z AUTO 26007KT 10SM CLR 11/06 A2976 1180 68 1000 260/07 RMK AO2 $
14926KSTC STC20020921011010109/21/02 01:10:31  5-MIN KSTC 210710Z AUTO 26007KT 10SM CLR 11/06 A2976 1180 68 1000 260/07 RMK AO2 $
14926KSTC STC20020921011510109/21/02 01:15:31  5-MIN KSTC 210715Z AUTO 26006KT 10SM CLR 11/06 A2975 1180 68 1000 260/06 RMK AO2 $
14926KSTC STC20020921012010109/21/02 01:20:31  5-MIN KSTC 210720Z AUTO 27007KT 10SM CLR 11/06 A2976 1170 68 1000 260/07 RMK AO2 $
14926KSTC STC20020921012510109/21/02 01:25:31  5-MIN KSTC 210725Z AUTO 27007KT 10SM CLR 11/06 A2976 1170 68 1000 270/07 RMK AO2 $
14926KSTC STC20020921013010109/21/02 01:30:31  5-MIN KSTC 210730Z AUTO 27007KT 10SM CLR 11/06 A2976 1180 68 1000 270/07 RMK AO2 $
14926KSTC STC20020921013510109/21/02 01:35:31  5-MIN KSTC 210735Z AUTO 28009KT 10SM CLR 12/05 A2976 1180 63 1100 280/09 RMK AO2 $
14926KSTC STC20020921014010109/21/02 01:40:31  5-MIN KSTC 210740Z AUTO 29010KT 10SM CLR 12/05 A2976 1170 61 1200 290/10 RMK AO2 $
14926KSTC STC20020921014510109/21/02 01:45:31  5-MIN KSTC 210745Z AUTO 28008KT 10SM CLR 12/05 A2976 1170 63 1100 280/08 RMK AO2 $
14926KSTC STC20020921015011809/21/02 01:50:31  5-MIN KSTC 210750Z AUTO 29009KT 10SM CLR 12/04 A2977 1170 61 1100 290/09 RMK AO2 SLP086 T01170044 $
14926KSTC STC20020921015510109/21/02 01:55:31  5-MIN KSTC 210755Z AUTO 29009KT 10SM CLR 12/04 A2977 1170 61 1100 290/09 RMK AO2 $
14926KSTC STC20020921020010109/21/02 02:00:31  5-MIN KSTC 210800Z AUTO 28009KT 10SM CLR 12/04 A2976 1170 61 1100 280/09 RMK AO2 $
14926KSTC STC20020921020510109/21/02 02:05:31  5-MIN KSTC 210805Z AUTO 29008KT 10SM CLR 12/04 A2976 1170 61 1100 280/08 RMK AO2 $
14926KSTC STC20020921021010109/21/02 02:10:31  5-MIN KSTC 210810Z AUTO 29007KT 10SM CLR 11/04 A2976 1170 63 1000 280/07 RMK AO2 $
14926KSTC STC20020921021510109/21/02 02:15:31  5-MIN KSTC 210815Z AUTO 28008KT 10SM CLR 11/04 A2977 1170 63 1000 280/08 RMK AO2 $
14926KSTC STC20020921022010109/21/02 02:20:31  5-MIN KSTC 210820Z AUTO 29007KT 10SM CLR 11/04 A2977 1160 63 1000 280/07 RMK AO2 $
14926KSTC STC20020921022510109/21/02 02:25:31  5-MIN KSTC 210825Z AUTO 28008KT 10SM CLR 11/04 A2977 1160 63 1000 280/08 RMK AO2 $
14926KSTC STC20020921023010109/21/02 02:30:31  5-MIN KSTC 210830Z AUTO 28007KT 10SM CLR 11/04 A2978 1160 63 1000 270/07 RMK AO2 $
14926KSTC STC20020921023510109/21/02 02:35:31  5-MIN KSTC 210835Z AUTO 27007KT 10SM CLR 11/04 A2978 1160 63 1000 270/07 RMK AO2 $
14926KSTC STC20020921024010109/21/02 02:40:31  5-MIN KSTC 210840Z AUTO 27007KT 10SM CLR 11/04 A2978 1150 63 1000 270/07 RMK AO2 $
14926KSTC STC20020921024510109/21/02 02:45:31  5-MIN KSTC 210845Z AUTO 28007KT 10SM CLR 11/04 A2978 1150 61 1000 270/07 RMK AO2 $
14926KSTC STC20020921025012409/21/02 02:50:31  5-MIN KSTC 210850Z AUTO 27008KT 10SM CLR 11/04 A2978 1150 61 1000 270/08 RMK AO2 SLP093 T01110039 51027 $
14926KSTC STC20020921025510109/21/02 02:55:31  5-MIN KSTC 210855Z AUTO 27007KT 10SM CLR 11/04 A2979 1150 63 1000 260/07 RMK AO2 $
14926KSTC STC20020921030010109/21/02 03:00:31  5-MIN KSTC 210900Z AUTO 27006KT 10SM CLR 11/04 A2979 1150 63 1000 260/06 RMK AO2 $
14926KSTC STC20020921030510109/21/02 03:05:31  5-MIN KSTC 210905Z AUTO 26007KT 10SM CLR 11/04 A2979 1150 63 1000 260/07 RMK AO2 $
14926KSTC STC20020921031010109/21/02 03:10:31  5-MIN KSTC 210910Z AUTO 27006KT 10SM CLR 11/04 A2979 1150 63 1000 270/06 RMK AO2 $
14926KSTC STC20020921031510109/21/02 03:15:31  5-MIN KSTC 210915Z AUTO 25006KT 10SM CLR 11/04 A2979 1150 63 1000 250/06 RMK AO2 $
14926KSTC STC20020921032010109/21/02 03:20:31  5-MIN KSTC 210920Z AUTO 24007KT 10SM CLR 11/04 A2979 1150 61 1000 240/07 RMK AO2 $
14926KSTC STC20020921032510009/21/02 03:25:31  5-MIN KSTC 210925Z AUTO 25007KT 10SM CLR 11/04 A2979 1140 66 900 250/07 RMK AO2 $
14926KSTC STC20020921033010109/21/02 03:30:31  5-MIN KSTC 210930Z AUTO 25007KT 10SM CLR 11/04 A2980 1140 63 1000 240/07 RMK AO2 $
14926KSTC STC20020921033510109/21/02 03:35:31  5-MIN KSTC 210935Z AUTO 25007KT 10SM CLR 11/04 A2980 1140 61 1000 240/07 RMK AO2 $
14926KSTC STC20020921034010009/21/02 03:40:31  5-MIN KSTC 210940Z AUTO 24006KT 10SM CLR 11/04 A2980 1140 66 900 230/06 RMK AO2 $
14926KSTC STC20020921034510009/21/02 03:45:31  5-MIN KSTC 210945Z AUTO 22007KT 10SM CLR 10/05 A2980 1140 71 800 210/07 RMK AO2 $
14926KSTC STC20020921035011709/21/02 03:50:31  5-MIN KSTC 210950Z AUTO 23006KT 10SM CLR 10/06 A2980 1140 74 800 230/06 RMK AO2 SLP098 T01000056 $
14926KSTC STC20020921035510009/21/02 03:55:31  5-MIN KSTC 210955Z AUTO 23005KT 10SM CLR 10/06 A2980 1140 74 900 230/05 RMK AO2 $
14926KSTC STC20020921040010009/21/02 04:00:31  5-MIN KSTC 211000Z AUTO 23005KT 10SM CLR 10/05 A2980 1140 71 900 220/05 RMK AO2 $
14926KSTC STC20020921040510009/21/02 04:05:31  5-MIN KSTC 211005Z AUTO 23006KT 10SM CLR 10/05 A2980 1140 71 800 230/06 RMK AO2 $
14926KSTC STC20020921041010009/21/02 04:10:31  5-MIN KSTC 211010Z AUTO 23006KT 10SM CLR 10/05 A2980 1130 71 800 220/06 RMK AO2 $
14926KSTC STC20020921041510009/21/02 04:15:31  5-MIN KSTC 211015Z AUTO 23006KT 10SM CLR 10/05 A2981 1130 71 800 230/06 RMK AO2 $
14926KSTC STC20020921042010009/21/02 04:20:31  5-MIN KSTC 211020Z AUTO 23007KT 10SM CLR 10/05 A2981 1130 71 800 230/07 RMK AO2 $
14926KSTC STC20020921042510009/21/02 04:25:31  5-MIN KSTC 211025Z AUTO 23008KT 10SM CLR 10/05 A2981 1130 71 800 230/08 RMK AO2 $
14926KSTC STC20020921043010009/21/02 04:30:31  5-MIN KSTC 211030Z AUTO 23007KT 10SM CLR 10/05 A2981 1130 71 800 230/07 RMK AO2 $
14926KSTC STC20020921043510009/21/02 04:35:31  5-MIN KSTC 211035Z AUTO 24007KT 10SM CLR 10/05 A2981 1130 71 800 230/07 RMK AO2 $
14926KSTC STC20020921044010009/21/02 04:40:31  5-MIN KSTC 211040Z AUTO 24007KT 10SM CLR 10/05 A2982 1120 71 800 240/07 RMK AO2 $
14926KSTC STC20020921044510009/21/02 04:45:31  5-MIN KSTC 211045Z AUTO 24007KT 10SM CLR 09/06 A2982 1120 76 800 240/07 RMK AO2 $
14926KSTC STC20020921045011709/21/02 04:50:31  5-MIN KSTC 211050Z AUTO 24007KT 10SM CLR 10/06 A2983 1110 74 800 230/07 RMK AO2 SLP108 T01000056 $
14926KSTC STC20020921045510009/21/02 04:55:31  5-MIN KSTC 211055Z AUTO 24008KT 10SM CLR 10/05 A2983 1110 71 800 240/08 RMK AO2 $
14926KSTC STC20020921050010009/21/02 05:00:31  5-MIN KSTC 211100Z AUTO 24008KT 10SM CLR 10/05 A2983 1110 71 800 240/08 RMK AO2 $
14926KSTC STC20020921050510009/21/02 05:05:31  5-MIN KSTC 211105Z AUTO 24007KT 10SM CLR 10/06 A2984 1110 74 800 240/07 RMK AO2 $
14926KSTC STC20020921051010009/21/02 05:10:31  5-MIN KSTC 211110Z AUTO 24008KT 10SM CLR 10/05 A2984 1100 71 800 240/08 RMK AO2 $
14926KSTC STC20020921051510009/21/02 05:15:31  5-MIN KSTC 211115Z AUTO 24008KT 10SM CLR 10/05 A2984 1100 71 800 240/08 RMK AO2 $
14926KSTC STC20020921052010009/21/02 05:20:31  5-MIN KSTC 211120Z AUTO 25008KT 10SM CLR 10/05 A2984 1100 71 800 240/08 RMK AO2 $
14926KSTC STC20020921052510009/21/02 05:25:31  5-MIN KSTC 211125Z AUTO 25008KT 10SM CLR 10/05 A2984 1100 71 800 240/08 RMK AO2 $
14926KSTC STC20020921053010009/21/02 05:30:31  5-MIN KSTC 211130Z AUTO 25007KT 10SM CLR 10/05 A2983 1110 71 800 240/07 RMK AO2 $
14926KSTC STC20020921053510009/21/02 05:35:31  5-MIN KSTC 211135Z AUTO 24007KT 10SM CLR 10/05 A2983 1110 71 800 240/07 RMK AO2 $
14926KSTC STC20020921054010009/21/02 05:40:31  5-MIN KSTC 211140Z AUTO 24006KT 10SM CLR 09/05 A2983 1110 74 800 240/06 RMK AO2 $
14926KSTC STC20020921054510009/21/02 05:45:31  5-MIN KSTC 211145Z AUTO 25006KT 10SM CLR 09/05 A2983 1110 74 800 240/06 RMK AO2 $
14926KSTC STC20020921055013509/21/02 05:50:31  5-MIN KSTC 211150Z AUTO 25006KT 10SM CLR 09/05 A2983 1110 74 800 240/06 RMK AO2 SLP110 T00940050 10122 20094 51020 $
14926KSTC STC20020921055510009/21/02 05:55:31  5-MIN KSTC 211155Z AUTO 25005KT 10SM CLR 09/06 A2982 1120 76 800 240/05 RMK AO2 $
14926KSTC STC20020921060010009/21/02 06:00:31  5-MIN KSTC 211200Z AUTO 25006KT 10SM CLR 09/06 A2983 1110 76 700 250/06 RMK AO2 $
14926KSTC STC20020921060510009/21/02 06:05:31  5-MIN KSTC 211205Z AUTO 24006KT 10SM CLR 09/06 A2984 1100 79 700 240/06 RMK AO2 $
14926KSTC STC20020921061010009/21/02 06:10:31  5-MIN KSTC 211210Z AUTO 24007KT 10SM CLR 09/06 A2984 1100 79 700 240/07 RMK AO2 $
14926KSTC STC20020921061510709/21/02 06:15:31  5-MIN KSTC 211215Z AUTO 24007KT 10SM CLR 09/06 A2985 1090 79 700 240/07 RMK AO2 PRESRR $
14926KSTC STC20020921062010709/21/02 06:20:31  5-MIN KSTC 211220Z AUTO 24007KT 10SM CLR 09/06 A2986 1080 79 600 240/07 RMK AO2 PRESRR $
14926KSTC STC20020921062510709/21/02 06:25:31  5-MIN KSTC 211225Z AUTO 24008KT 10SM CLR 09/06 A2987 1080 79 600 240/08 RMK AO2 PRESRR $
14926KSTC STC20020921063010009/21/02 06:30:31  5-MIN KSTC 211230Z AUTO 25008KT 10SM CLR 09/06 A2987 1080 76 700 240/08 RMK AO2 $
14926KSTC STC20020921063510009/21/02 06:35:31  5-MIN KSTC 211235Z AUTO 25009KT 10SM CLR 09/05 A2987 1080 74 700 240/09 RMK AO2 $
14926KSTC STC20020921064010009/21/02 06:40:31  5-MIN KSTC 211240Z AUTO 25008KT 10SM CLR 09/05 A2987 1080 74 700 250/08 RMK AO2 $
14926KSTC STC20020921064510009/21/02 06:45:31  5-MIN KSTC 211245Z AUTO 25008KT 10SM CLR 09/05 A2987 1080 74 700 250/08 RMK AO2 $
14926KSTC STC20020921065011709/21/02 06:50:31  5-MIN KSTC 211250Z AUTO 25008KT 10SM CLR 09/05 A2987 1080 74 700 250/08 RMK AO2 SLP122 T00940050 $
14926KSTC STC20020921065510009/21/02 06:55:31  5-MIN KSTC 211255Z AUTO 25007KT 10SM CLR 09/05 A2987 1080 74 700 250/07 RMK AO2 $
14926KSTC STC20020921070010009/21/02 07:00:31  5-MIN KSTC 211300Z AUTO 26008KT 10SM CLR 09/05 A2987 1070 74 700 250/08 RMK AO2 $
14926KSTC STC20020921070510009/21/02 07:05:31  5-MIN KSTC 211305Z AUTO 26007KT 10SM CLR 10/05 A2987 1080 71 800 250/07 RMK AO2 $
14926KSTC STC20020921071010009/21/02 07:10:31  5-MIN KSTC 211310Z AUTO 26007KT 10SM CLR 10/05 A2987 1080 71 800 250/07 RMK AO2 $
14926KSTC STC20020921071510009/21/02 07:15:31  5-MIN KSTC 211315Z AUTO 26006KT 10SM CLR 10/05 A2987 1080 71 800 250/06 RMK AO2 $
14926KSTC STC20020921072010009/21/02 07:20:31  5-MIN KSTC 211320Z AUTO 26006KT 10SM CLR 10/05 A2986 1080 71 800 260/06 RMK AO2 $
14926KSTC STC20020921072510009/21/02 07:25:31  5-MIN KSTC 211325Z AUTO 25007KT 10SM CLR 10/05 A2986 1080 71 800 250/07 RMK AO2 $
14926KSTC STC20020921073010009/21/02 07:30:31  5-MIN KSTC 211330Z AUTO 25006KT 10SM CLR 10/05 A2986 1080 71 800 250/06 RMK AO2 $
14926KSTC STC20020921073510009/21/02 07:35:31  5-MIN KSTC 211335Z AUTO 24007KT 10SM CLR 10/05 A2986 1080 71 800 240/07 RMK AO2 $
14926KSTC STC20020921074010009/21/02 07:40:31  5-MIN KSTC 211340Z AUTO 25006KT 10SM CLR 10/05 A2987 1080 71 800 240/06 RMK AO2 $
14926KSTC STC20020921074510009/21/02 07:45:31  5-MIN KSTC 211345Z AUTO 25007KT 10SM CLR 11/05 A2987 1080 68 800 240/07 RMK AO2 $
14926KSTC STC20020921075011709/21/02 07:50:31  5-MIN KSTC 211350Z AUTO 25008KT 10SM CLR 11/05 A2987 1070 66 900 250/08 RMK AO2 SLP123 T01110050 $
14926KSTC STC20020921075510009/21/02 07:55:31  5-MIN KSTC 211355Z AUTO 26007KT 10SM CLR 11/05 A2987 1070 66 900 250/07 RMK AO2 $
14926KSTC STC20020921080010009/21/02 08:00:31  5-MIN KSTC 211400Z AUTO 26008KT 10SM CLR 11/05 A2988 1060 66 900 250/08 RMK AO2 $
14926KSTC STC20020921080510809/21/02 08:05:31  5-MIN KSTC 211405Z AUTO 26009KT 10SM CLR 12/05 A2989 1060 63 1000 250/09 RMK AO2 PRESRR $
14926KSTC STC20020921081010009/21/02 08:10:31  5-MIN KSTC 211410Z AUTO 25008KT 10SM CLR 11/05 A2989 1060 66 900 250/08 RMK AO2 $
14926KSTC STC20020921081510009/21/02 08:15:31  5-MIN KSTC 211415Z AUTO 24010KT 10SM CLR 12/05 A2989 1050 63 900 240/10 RMK AO2 $
14926KSTC STC20020921082010009/21/02 08:20:31  5-MIN KSTC 211420Z AUTO 25010KT 10SM CLR 12/05 A2990 1050 63 900 250/10 RMK AO2 $
14926KSTC STC20020921082510009/21/02 08:25:31  5-MIN KSTC 211425Z AUTO 26009KT 10SM CLR 12/05 A2990 1040 63 900 260/09 RMK AO2 $
14926KSTC STC20020921083010009/21/02 08:30:31  5-MIN KSTC 211430Z AUTO 26010KT 10SM CLR 12/04 A2990 1050 61 900 260/10 RMK AO2 $
14926KSTC STC20020921083510109/21/02 08:35:31  5-MIN KSTC 211435Z AUTO 25008KT 10SM CLR 12/04 A2989 1050 59 1000 250/08 RMK AO2 $
14926KSTC STC20020921084010109/21/02 08:40:31  5-MIN KSTC 211440Z AUTO 24009KT 10SM CLR 12/04 A2990 1050 59 1000 240/09 RMK AO2 $
14926KSTC STC20020921084510109/21/02 08:45:31  5-MIN KSTC 211445Z AUTO 25008KT 10SM CLR 12/04 A2990 1040 59 1000 250/08 RMK AO2 $
14926KSTC STC20020921085012409/21/02 08:50:31  5-MIN KSTC 211450Z AUTO 25009KT 10SM CLR 12/04 A2991 1040 59 1000 240/09 RMK AO2 SLP136 T01220044 50012 $
14926KSTC STC20020921085510109/21/02 08:55:31  5-MIN KSTC 211455Z AUTO 25009KT 10SM CLR 12/04 A2991 1040 59 1000 240/09 RMK AO2 $
14926KSTC STC20020921090010109/21/02 09:00:31  5-MIN KSTC 211500Z AUTO 25010KT 10SM CLR 12/04 A2992 1030 59 1000 250/10 RMK AO2 $
14926KSTC STC20020921090510109/21/02 09:05:31  5-MIN KSTC 211505Z AUTO 25008KT 10SM CLR 12/04 A2992 1030 59 1000 240/08 RMK AO2 $
14926KSTC STC20020921091010109/21/02 09:10:31  5-MIN KSTC 211510Z AUTO 24009KT 10SM CLR 12/05 A2992 1030 61 1000 240/09 RMK AO2 $
14926KSTC STC20020921091510109/21/02 09:15:31  5-MIN KSTC 211515Z AUTO 24008KT 10SM CLR 12/05 A2992 1030 61 1000 240/08 RMK AO2 $
14926KSTC STC20020921092010109/21/02 09:20:31  5-MIN KSTC 211520Z AUTO 24008KT 10SM CLR 12/05 A2992 1030 61 1000 240/08 RMK AO2 $
14926KSTC STC20020921092510109/21/02 09:25:31  5-MIN KSTC 211525Z AUTO 24008KT 10SM CLR 12/05 A2992 1030 61 1000 240/08 RMK AO2 $
14926KSTC STC20020921093010109/21/02 09:30:31  5-MIN KSTC 211530Z AUTO 24009KT 10SM CLR 12/05 A2992 1030 61 1000 240/09 RMK AO2 $
14926KSTC STC20020921093510109/21/02 09:35:31  5-MIN KSTC 211535Z AUTO 24009KT 10SM CLR 12/05 A2992 1030 61 1000 240/09 RMK AO2 $
14926KSTC STC20020921094010109/21/02 09:40:31  5-MIN KSTC 211540Z AUTO 26008KT 10SM CLR 13/05 A2992 1030 59 1000 250/08 RMK AO2 $
14926KSTC STC20020921094510109/21/02 09:45:31  5-MIN KSTC 211545Z AUTO 24009KT 10SM CLR 13/05 A2992 1020 57 1100 240/09 RMK AO2 $
14926KSTC STC20020921095011809/21/02 09:50:31  5-MIN KSTC 211550Z AUTO 24010KT 10SM CLR 13/05 A2992 1020 57 1100 240/10 RMK AO2 SLP142 T01330050 $
14926KSTC STC20020921095510109/21/02 09:55:31  5-MIN KSTC 211555Z AUTO 26010KT 10SM CLR 13/05 A2992 1020 57 1100 260/10 RMK AO2 $
14926KSTC STC20020921100010109/21/02 10:00:31  5-MIN KSTC 211600Z AUTO 25010KT 10SM CLR 13/04 A2992 1020 54 1100 250/10 RMK AO2 $
14926KSTC STC20020921100510109/21/02 10:05:31  5-MIN KSTC 211605Z AUTO 26009KT 10SM CLR 13/04 A2992 1030 54 1100 260/09 RMK AO2 $
14926KSTC STC20020921101010109/21/02 10:10:31  5-MIN KSTC 211610Z AUTO 26009KT 10SM CLR 14/04 A2992 1020 52 1200 260/09 RMK AO2 $
14926KSTC STC20020921101510109/21/02 10:15:31  5-MIN KSTC 211615Z AUTO 26008KT 10SM CLR 14/04 A2992 1020 52 1200 250/08 RMK AO2 $
14926KSTC STC20020921102010109/21/02 10:20:31  5-MIN KSTC 211620Z AUTO 25009KT 10SM CLR 14/04 A2992 1020 52 1200 250/09 RMK AO2 $
14926KSTC STC20020921102510109/21/02 10:25:31  5-MIN KSTC 211625Z AUTO 27009KT 10SM CLR 14/04 A2993 1020 52 1200 260/09 RMK AO2 $
14926KSTC STC20020921103010109/21/02 10:30:31  5-MIN KSTC 211630Z AUTO 26011KT 10SM CLR 14/04 A2993 1020 50 1200 260/11 RMK AO2 $
14926KSTC STC20020921103510109/21/02 10:35:31  5-MIN KSTC 211635Z AUTO 26011KT 10SM CLR 14/04 A2993 1020 50 1200 250/11 RMK AO2 $
14926KSTC STC20020921104010109/21/02 10:40:31  5-MIN KSTC 211640Z AUTO 26011KT 10SM CLR 14/04 A2993 1020 51 1200 260/11 RMK AO2 $
14926KSTC STC20020921104510109/21/02 10:45:31  5-MIN KSTC 211645Z AUTO 26012KT 10SM CLR 14/04 A2993 1020 51 1200 250/12 RMK AO2 $
14926KSTC STC20020921105011809/21/02 10:50:31  5-MIN KSTC 211650Z AUTO 25010KT 10SM CLR 14/04 A2993 1020 49 1200 250/10 RMK AO2 SLP144 T01440039 $
14926KSTC STC20020921105510109/21/02 10:55:31  5-MIN KSTC 211655Z AUTO 26010KT 10SM CLR 14/04 A2993 1020 51 1200 260/10 RMK AO2 $
14926KSTC STC20020921110010109/21/02 11:00:31  5-MIN KSTC 211700Z AUTO 26012KT 10SM CLR 15/04 A2993 1020 49 1300 260/12 RMK AO2 $
14926KSTC STC20020921110510109/21/02 11:05:31  5-MIN KSTC 211705Z AUTO 26011KT 10SM CLR 15/04 A2993 1020 47 1300 260/11 RMK AO2 $
14926KSTC STC20020921111010109/21/02 11:10:31  5-MIN KSTC 211710Z AUTO 27011KT 10SM CLR 15/04 A2993 1020 49 1300 260/11 RMK AO2 $
14926KSTC STC20020921111510109/21/02 11:15:31  5-MIN KSTC 211715Z AUTO 25012KT 10SM CLR 15/04 A2992 1020 47 1300 240/12 RMK AO2 $
14926KSTC STC20020921112010109/21/02 11:20:31  5-MIN KSTC 211720Z AUTO 27012KT 10SM CLR 15/04 A2993 1020 47 1300 260/12 RMK AO2 $
14926KSTC STC20020921112510109/21/02 11:25:31  5-MIN KSTC 211725Z AUTO 27012KT 10SM CLR 15/04 A2993 1020 49 1300 260/12 RMK AO2 $
14926KSTC STC20020921113010109/21/02 11:30:31  5-MIN KSTC 211730Z AUTO 26013KT 10SM CLR 15/04 A2993 1020 47 1300 260/13 RMK AO2 $
14926KSTC STC20020921113510109/21/02 11:35:31  5-MIN KSTC 211735Z AUTO 27012KT 10SM CLR 15/04 A2993 1020 49 1300 270/12 RMK AO2 $
14926KSTC STC20020921114010109/21/02 11:40:31  5-MIN KSTC 211740Z AUTO 26010KT 10SM CLR 16/04 A2993 1020 45 1400 260/10 RMK AO2 $
14926KSTC STC20020921114510109/21/02 11:45:31  5-MIN KSTC 211745Z AUTO 26011KT 10SM CLR 16/04 A2993 1020 47 1400 250/11 RMK AO2 $
14926KSTC STC20020921115014209/21/02 11:50:31  5-MIN KSTC 211750Z AUTO 27012G19KT 10SM CLR 16/04 A2993 1020 47 1400 260/12G19 RMK AO2 SLP145 T01560044 10161 20089 51027 $
14926KSTC STC20020921115510709/21/02 11:55:31  5-MIN KSTC 211755Z AUTO 27012G19KT 10SM CLR 16/04 A2993 1020 45 1400 260/12G19 RMK AO2 $
14926KSTC STC20020921120010109/21/02 12:00:31  5-MIN KSTC 211800Z AUTO 26012KT 10SM CLR 16/04 A2993 1020 45 1400 250/12 RMK AO2 $
14926KSTC STC20020921120510109/21/02 12:05:31  5-MIN KSTC 211805Z AUTO 26012KT 10SM CLR 16/04 A2993 1020 47 1400 260/12 RMK AO2 $
14926KSTC STC20020921121010709/21/02 12:10:31  5-MIN KSTC 211810Z AUTO 25013G20KT 10SM CLR 16/04 A2993 1020 47 1400 250/13G20 RMK AO2 $
14926KSTC STC20020921121510709/21/02 12:15:31  5-MIN KSTC 211815Z AUTO 25013G20KT 10SM CLR 16/04 A2993 1020 45 1400 240/13G20 RMK AO2 $
14926KSTC STC20020921122010109/21/02 12:20:31  5-MIN KSTC 211820Z AUTO 26013KT 10SM CLR 16/04 A2992 1020 45 1400 260/13 RMK AO2 $
14926KSTC STC20020921122510109/21/02 12:25:31  5-MIN KSTC 211825Z AUTO 26010KT 10SM CLR 16/04 A2992 1020 44 1400 250/10 RMK AO2 $
14926KSTC STC20020921123010109/21/02 12:30:31  5-MIN KSTC 211830Z AUTO 25011KT 10SM CLR 16/04 A2992 1020 45 1400 250/11 RMK AO2 $
14926KSTC STC20020921123510109/21/02 12:35:31  5-MIN KSTC 211835Z AUTO 27013KT 10SM CLR 16/04 A2992 1020 44 1400 270/13 RMK AO2 $
14926KSTC STC20020921124010109/21/02 12:40:31  5-MIN KSTC 211840Z AUTO 26013KT 10SM CLR 16/04 A2992 1030 44 1400 260/13 RMK AO2 $
14926KSTC STC20020921124510409/21/02 12:45:31  5-MIN KSTC 211845Z AUTO 25013KT 10SM FEW060 16/03 A2992 1030 42 1400 250/13 RMK AO2 $
14926KSTC STC20020921125012109/21/02 12:50:31  5-MIN KSTC 211850Z AUTO 27012KT 10SM SCT060 16/03 A2991 1040 42 1400 260/12 RMK AO2 SLP139 T01610033 $
14926KSTC STC20020921125510409/21/02 12:55:31  5-MIN KSTC 211855Z AUTO 28010KT 10SM SCT060 17/04 A2992 1030 42 1500 280/10 RMK AO2 $
14926KSTC STC20020921130010409/21/02 13:00:31  5-MIN KSTC 211900Z AUTO 26010KT 10SM SCT060 16/04 A2991 1030 44 1400 260/10 RMK AO2 $
14926KSTC STC20020921130510409/21/02 13:05:31  5-MIN KSTC 211905Z AUTO 26015KT 10SM SCT055 16/04 A2992 1030 44 1400 260/15 RMK AO2 $
14926KSTC STC20020921131011009/21/02 13:10:31  5-MIN KSTC 211910Z AUTO 25011G19KT 10SM SCT055 16/03 A2992 1030 42 1400 250/11G19 RMK AO2 $
14926KSTC STC20020921131511009/21/02 13:15:31  5-MIN KSTC 211915Z AUTO 26013G19KT 10SM SCT060 16/04 A2992 1030 44 1400 260/13G19 RMK AO2 $
14926KSTC STC20020921132011009/21/02 13:20:31  5-MIN KSTC 211920Z AUTO 26010G18KT 10SM FEW055 16/04 A2992 1030 44 1400 260/10G18 RMK AO2 $
14926KSTC STC20020921132510409/21/02 13:25:31  5-MIN KSTC 211925Z AUTO 27012KT 10SM FEW055 16/04 A2992 1030 45 1400 260/12 RMK AO2 $
14926KSTC STC20020921133010409/21/02 13:30:31  5-MIN KSTC 211930Z AUTO 26013KT 10SM FEW055 16/04 A2992 1030 45 1400 260/13 RMK AO2 $
14926KSTC STC20020921133510409/21/02 13:35:31  5-MIN KSTC 211935Z AUTO 25013KT 10SM FEW055 16/04 A2992 1030 45 1400 250/13 RMK AO2 $
14926KSTC STC20020921134010409/21/02 13:40:31  5-MIN KSTC 211940Z AUTO 24012KT 10SM FEW065 16/04 A2992 1030 45 1400 240/12 RMK AO2 $
14926KSTC STC20020921134510409/21/02 13:45:31  5-MIN KSTC 211945Z AUTO 26011KT 10SM SCT065 17/04 A2991 1030 44 1500 260/11 RMK AO2 $
14926KSTC STC20020921135012109/21/02 13:50:31  5-MIN KSTC 211950Z AUTO 25012KT 10SM SCT060 17/04 A2991 1030 44 1500 250/12 RMK AO2 SLP139 T01670044 $
14926KSTC STC20020921135510409/21/02 13:55:31  5-MIN KSTC 211955Z AUTO 25015KT 10SM BKN065 17/04 A2991 1030 42 1500 250/15 RMK AO2 $
14926KSTC STC20020921140010409/21/02 14:00:31  5-MIN KSTC 212000Z AUTO 26011KT 10SM BKN065 17/04 A2991 1030 41 1600 260/11 RMK AO2 $
14926KSTC STC20020921140510409/21/02 14:05:31  5-MIN KSTC 212005Z AUTO 26014KT 10SM BKN065 18/04 A2992 1030 41 1600 260/14 RMK AO2 $
14926KSTC STC20020921141011009/21/02 14:10:31  5-MIN KSTC 212010Z AUTO 27013G19KT 10SM BKN065 17/03 A2992 1030 37 1600 270/13G19 RMK AO2 $
14926KSTC STC20020921141510409/21/02 14:15:31  5-MIN KSTC 212015Z AUTO 28011KT 10SM OVC065 17/03 A2992 1030 39 1600 280/11 RMK AO2 $
14926KSTC STC20020921142010409/21/02 14:20:31  5-MIN KSTC 212020Z AUTO 26015KT 10SM OVC065 17/03 A2992 1030 39 1500 260/15 RMK AO2 $
14926KSTC STC20020921142510409/21/02 14:25:31  5-MIN KSTC 212025Z AUTO 26012KT 10SM OVC065 17/02 A2992 1020 37 1500 260/12 RMK AO2 $
14926KSTC STC20020921143010409/21/02 14:30:31  5-MIN KSTC 212030Z AUTO 27012KT 10SM OVC065 17/03 A2992 1020 39 1500 260/12 RMK AO2 $
14926KSTC STC20020921143510409/21/02 14:35:31  5-MIN KSTC 212035Z AUTO 27015KT 10SM OVC065 17/03 A2992 1020 40 1500 270/15 RMK AO2 $
14926KSTC STC20020921144011009/21/02 14:40:31  5-MIN KSTC 212040Z AUTO 28013G19KT 10SM BKN065 17/03 A2993 1020 40 1500 280/13G19 RMK AO2 $
14926KSTC STC20020921144511009/21/02 14:45:31  5-MIN KSTC 212045Z AUTO 28014G19KT 10SM BKN065 17/03 A2993 1020 40 1500 280/14G19 RMK AO2 $
14926KSTC STC20020921145013309/21/02 14:50:31  5-MIN KSTC 212050Z AUTO 27013G19KT 10SM SCT065 17/03 A2993 1020 39 1500 270/13G19 RMK AO2 SLP144 T01670028 51007 $
14926KSTC STC20020921145510409/21/02 14:55:31  5-MIN KSTC 212055Z AUTO 27012KT 10SM SCT070 17/03 A2993 1020 39 1500 270/12 RMK AO2 $
14926KSTC STC20020921150010409/21/02 15:00:31  5-MIN KSTC 212100Z AUTO 27012KT 10SM SCT070 17/02 A2993 1020 37 1500 260/12 RMK AO2 $
14926KSTC STC20020921150510409/21/02 15:05:31  5-MIN KSTC 212105Z AUTO 26014KT 10SM SCT075 17/03 A2993 1020 39 1500 260/14 RMK AO2 $
14926KSTC STC20020921151010409/21/02 15:10:31  5-MIN KSTC 212110Z AUTO 28011KT 10SM SCT080 16/03 A2993 1020 40 1400 280/11 RMK AO2 $
14926KSTC STC20020921151510409/21/02 15:15:31  5-MIN KSTC 212115Z AUTO 27014KT 10SM SCT080 16/03 A2993 1020 40 1400 270/14 RMK AO2 $
14926KSTC STC20020921152010409/21/02 15:20:31  5-MIN KSTC 212120Z AUTO 26012KT 10SM BKN080 16/03 A2992 1020 40 1400 250/12 RMK AO2 $
14926KSTC STC20020921152511009/21/02 15:25:31  5-MIN KSTC 212125Z AUTO 27009G17KT 10SM BKN080 17/03 A2992 1020 39 1500 270/09G17 RMK AO2 $
14926KSTC STC20020921153010409/21/02 15:30:31  5-MIN KSTC 212130Z AUTO 26012KT 10SM BKN080 17/03 A2993 1020 40 1500 260/12 RMK AO2 $
14926KSTC STC20020921153510409/21/02 15:35:31  5-MIN KSTC 212135Z AUTO 26012KT 10SM BKN080 17/03 A2993 1020 40 1500 260/12 RMK AO2 $
14926KSTC STC20020921154010409/21/02 15:40:31  5-MIN KSTC 212140Z AUTO 26009KT 10SM BKN075 17/03 A2993 1020 40 1500 260/09 RMK AO2 $
14926KSTC STC20020921154510409/21/02 15:45:31  5-MIN KSTC 212145Z AUTO 27010KT 10SM BKN075 17/03 A2992 1020 40 1500 270/10 RMK AO2 $
14926KSTC STC20020921155012109/21/02 15:50:31  5-MIN KSTC 212150Z AUTO 28010KT 10SM SCT075 17/04 A2992 1020 41 1600 280/10 RMK AO2 SLP143 T01720039 $
14926KSTC STC20020921155510409/21/02 15:55:31  5-MIN KSTC 212155Z AUTO 29010KT 10SM SCT075 17/03 A2993 1020 40 1500 280/10 RMK AO2 $
14926KSTC STC20020921160010409/21/02 16:00:31  5-MIN KSTC 212200Z AUTO 28009KT 10SM FEW075 17/04 A2993 1020 41 1600 280/09 RMK AO2 $
14926KSTC STC20020921160511009/21/02 16:05:31  5-MIN KSTC 212205Z AUTO 26012G17KT 10SM FEW070 17/03 A2993 1020 40 1500 260/12G17 RMK AO2 $
14926KSTC STC20020921161010709/21/02 16:10:31  5-MIN KSTC 212210Z AUTO 27012G17KT 10SM CLR 17/03 A2993 1020 40 1500 270/12G17 RMK AO2 $
14926KSTC STC20020921161510409/21/02 16:15:31  5-MIN KSTC 212215Z AUTO 28013KT 10SM FEW080 17/03 A2993 1010 39 1500 270/13 RMK AO2 $
14926KSTC STC20020921162011009/21/02 16:20:31  5-MIN KSTC 212220Z AUTO 28018G22KT 10SM FEW080 16/02 A2994 1010 39 1400 280/18G22 RMK AO2 $
14926KSTC STC20020921162511009/21/02 16:25:31  5-MIN KSTC 212225Z AUTO 29012G22KT 10SM FEW085 16/02 A2994 1010 39 1400 280/12G22 RMK AO2 $
14926KSTC STC20020921163010409/21/02 16:30:31  5-MIN KSTC 212230Z AUTO 28012KT 10SM FEW085 17/03 A2994 1010 39 1500 280/12 RMK AO2 $
14926KSTC STC20020921163511009/21/02 16:35:31  5-MIN KSTC 212235Z AUTO 30015G18KT 10SM FEW085 17/03 A2993 1010 39 1500 300/15G18 RMK AO2 $
14926KSTC STC20020921164011009/21/02 16:40:31  5-MIN KSTC 212240Z AUTO 30014G21KT 10SM FEW085 16/02 A2993 1010 39 1400 300/14G21 RMK AO2 $
14926KSTC STC20020921164510109/21/02 16:45:31  5-MIN KSTC 212245Z AUTO 29013KT 10SM CLR 16/03 A2994 1010 40 1400 280/13 RMK AO2 $
14926KSTC STC20020921165011809/21/02 16:50:31  5-MIN KSTC 212250Z AUTO 29013KT 10SM CLR 16/03 A2995 1000 40 1400 290/13 RMK AO2 SLP150 T01610028 $
14926KSTC STC20020921165510409/21/02 16:55:31  5-MIN KSTC 212255Z AUTO 28016KT 10SM FEW090 16/03 A2994 1000 42 1300 280/16 RMK AO2 $
14926KSTC STC20020921170010409/21/02 17:00:31  5-MIN KSTC 212300Z AUTO 30013KT 10SM FEW090 16/03 A2994 1000 40 1400 300/13 RMK AO2 $
14926KSTC STC20020921170510409/21/02 17:05:31  5-MIN KSTC 212305Z AUTO 29012KT 10SM FEW090 16/02 A2995 1000 39 1400 290/12 RMK AO2 $
14926KSTC STC20020921171011009/21/02 17:10:31  5-MIN KSTC 212310Z AUTO 29009G18KT 10SM FEW090 16/03 A2995 1000 40 1400 290/09G18 RMK AO2 $
14926KSTC STC20020921171511009/21/02 17:15:31  5-MIN KSTC 212315Z AUTO 28012G18KT 10SM FEW090 16/03 A2995 1000 40 1400 280/12G18 RMK AO2 $
14926KSTC STC20020921172011009/21/02 17:20:31  5-MIN KSTC 212320Z AUTO 28012G18KT 10SM FEW090 16/02 A2995 1000 40 1300 280/12G18 RMK AO2 $
14926KSTC STC20020921172510109/21/02 17:25:31  5-MIN KSTC 212325Z AUTO 29009KT 10SM CLR 16/03 A2995 1000 42 1300 280/09 RMK AO2 $
14926KSTC STC20020921173010109/21/02 17:30:31  5-MIN KSTC 212330Z AUTO 28009KT 10SM CLR 15/03 A2995 1000 43 1300 280/09 RMK AO2 $
14926KSTC STC20020921173510109/21/02 17:35:31  5-MIN KSTC 212335Z AUTO 27008KT 10SM CLR 14/03 A2995 1000 45 1200 270/08 RMK AO2 $
14926KSTC STC20020921174010109/21/02 17:40:31  5-MIN KSTC 212340Z AUTO 28007KT 10SM CLR 14/03 A2995 1000 47 1200 270/07 RMK AO2 $
14926KSTC STC20020921174510009/21/02 17:45:31  5-MIN KSTC 212345Z AUTO 28008KT 10SM CLR 14/03 A2996 990 48 1100 280/08 RMK AO2 $
14926KSTC STC20020921175013509/21/02 17:50:31  5-MIN KSTC 212350Z AUTO 28007KT 10SM CLR 14/03 A2996 990 48 1100 280/07 RMK AO2 SLP155 T01390033 10178 20139 55001 $
14926KSTC STC20020921175510009/21/02 17:55:31  5-MIN KSTC 212355Z AUTO 28006KT 10SM CLR 14/03 A2996 990 48 1100 280/06 RMK AO2 $
14926KSTC STC20020921180010009/21/02 18:00:31  5-MIN KSTC 220000Z AUTO 28006KT 10SM CLR 13/04 A2996 990 52 1100 280/06 RMK AO2 $
14926KSTC STC20020921180510009/21/02 18:05:31  5-MIN KSTC 220005Z AUTO 28006KT 10SM CLR 13/04 A2996 990 54 1000 270/06 RMK AO2 $
14926KSTC STC20020921181010009/21/02 18:10:31  5-MIN KSTC 220010Z AUTO 27007KT 10SM CLR 13/04 A2996 990 54 1000 270/07 RMK AO2 $
14926KSTC STC20020921181510209/21/02 18:15:31  5-MIN KSTC 220015Z AUTO 27007KT 10SM SCT090 12/04 A2997 980 56 900 260/07 RMK AO2 $
14926KSTC STC20020921182010209/21/02 18:20:31  5-MIN KSTC 220020Z AUTO 27007KT 10SM BKN090 12/04 A2997 980 56 900 270/07 RMK AO2 $
14926KSTC STC20020921182510209/21/02 18:25:31  5-MIN KSTC 220025Z AUTO 27007KT 10SM BKN090 12/04 A2997 980 59 900 260/07 RMK AO2 $
14926KSTC STC20020921183010209/21/02 18:30:31  5-MIN KSTC 220030Z AUTO 27006KT 10SM BKN090 12/04 A2997 980 61 800 270/06 RMK AO2 $
14926KSTC STC20020921183510209/21/02 18:35:31  5-MIN KSTC 220035Z AUTO 27006KT 10SM SCT090 12/04 A2997 980 61 800 270/06 RMK AO2 $
14926KSTC STC20020921184010209/21/02 18:40:31  5-MIN KSTC 220040Z AUTO 27007KT 10SM SCT090 12/04 A2998 970 61 800 270/07 RMK AO2 $
14926KSTC STC20020921184510209/21/02 18:45:31  5-MIN KSTC 220045Z AUTO 27007KT 10SM FEW090 12/04 A2998 970 61 800 260/07 RMK AO2 $
14926KSTC STC20020921185011909/21/02 18:50:31  5-MIN KSTC 220050Z AUTO 27007KT 10SM FEW090 11/04 A2998 970 63 800 260/07 RMK AO2 SLP165 T01110044 $
14926KSTC STC20020921185509909/21/02 18:55:31  5-MIN KSTC 220055Z AUTO 27007KT 10SM CLR 11/04 A2999 970 63 800 260/07 RMK AO2 $
14926KSTC STC20020921190009909/21/02 19:00:31  5-MIN KSTC 220100Z AUTO 27007KT 10SM CLR 11/04 A2999 970 63 800 270/07 RMK AO2 $
14926KSTC STC20020921190509909/21/02 19:05:31  5-MIN KSTC 220105Z AUTO 28007KT 10SM CLR 11/04 A2999 960 63 800 270/07 RMK AO2 $
14926KSTC STC20020921191009909/21/02 19:10:31  5-MIN KSTC 220110Z AUTO 28006KT 10SM CLR 11/04 A2999 960 63 800 270/06 RMK AO2 $
14926KSTC STC20020921191509909/21/02 19:15:31  5-MIN KSTC 220115Z AUTO 27007KT 10SM CLR 11/04 A2999 960 61 800 270/07 RMK AO2 $
14926KSTC STC20020921192009909/21/02 19:20:31  5-MIN KSTC 220120Z AUTO 27008KT 10SM CLR 11/04 A3000 950 61 800 270/08 RMK AO2 $
14926KSTC STC20020921192509909/21/02 19:25:31  5-MIN KSTC 220125Z AUTO 28008KT 10SM CLR 12/04 A3000 950 58 800 270/08 RMK AO2 $
14926KSTC STC20020921193009909/21/02 19:30:31  5-MIN KSTC 220130Z AUTO 28008KT 10SM CLR 12/03 A3000 950 56 800 280/08 RMK AO2 $
14926KSTC STC20020921193509909/21/02 19:35:31  5-MIN KSTC 220135Z AUTO 28008KT 10SM CLR 12/03 A3000 950 56 800 280/08 RMK AO2 $
14926KSTC STC20020921194009909/21/02 19:40:31  5-MIN KSTC 220140Z AUTO 28007KT 10SM CLR 12/03 A3000 950 56 800 280/07 RMK AO2 $
14926KSTC STC20020921194509909/21/02 19:45:31  5-MIN KSTC 220145Z AUTO 28007KT 10SM CLR 11/04 A3000 950 61 700 270/07 RMK AO2 $
14926KSTC STC20020921195011609/21/02 19:50:31  5-MIN KSTC 220150Z AUTO 28008KT 10SM CLR 11/03 A3001 950 58 700 280/08 RMK AO2 SLP173 T01110033 $
14926KSTC STC20020921195509909/21/02 19:55:31  5-MIN KSTC 220155Z AUTO 27008KT 10SM CLR 12/03 A3001 950 56 800 270/08 RMK AO2 $
14926KSTC STC20020921200009909/21/02 20:00:31  5-MIN KSTC 220200Z AUTO 27008KT 10SM CLR 12/03 A3001 950 56 800 270/08 RMK AO2 $
14926KSTC STC20020921200509909/21/02 20:05:31  5-MIN KSTC 220205Z AUTO 27008KT 10SM CLR 11/03 A3001 950 58 700 270/08 RMK AO2 $
14926KSTC STC20020921201009909/21/02 20:10:31  5-MIN KSTC 220210Z AUTO 27007KT 10SM CLR 11/03 A3001 940 58 700 270/07 RMK AO2 $
14926KSTC STC20020921201509909/21/02 20:15:31  5-MIN KSTC 220215Z AUTO 28007KT 10SM CLR 11/03 A3001 940 61 700 270/07 RMK AO2 $
14926KSTC STC20020921202009909/21/02 20:20:31  5-MIN KSTC 220220Z AUTO 28008KT 10SM CLR 11/03 A3001 940 61 700 270/08 RMK AO2 $
14926KSTC STC20020921202509909/21/02 20:25:31  5-MIN KSTC 220225Z AUTO 28008KT 10SM CLR 11/03 A3001 940 61 700 270/08 RMK AO2 $
14926KSTC STC20020921203009909/21/02 20:30:31  5-MIN KSTC 220230Z AUTO 27007KT 10SM CLR 11/03 A3002 940 61 700 270/07 RMK AO2 $
14926KSTC STC20020921203509909/21/02 20:35:31  5-MIN KSTC 220235Z AUTO 27007KT 10SM CLR 10/03 A3002 940 63 600 270/07 RMK AO2 $
14926KSTC STC20020921204009909/21/02 20:40:31  5-MIN KSTC 220240Z AUTO 27007KT 10SM CLR 10/03 A3002 940 63 600 270/07 RMK AO2 $
14926KSTC STC20020921204509909/21/02 20:45:31  5-MIN KSTC 220245Z AUTO 26006KT 10SM CLR 10/03 A3002 930 63 600 260/06 RMK AO2 $
14926KSTC STC20020921205012209/21/02 20:50:31  5-MIN KSTC 220250Z AUTO 25006KT 10SM CLR 09/03 A3002 930 65 500 250/06 RMK AO2 SLP179 T00940033 53010 $
14926KSTC STC20020921205509909/21/02 20:55:31  5-MIN KSTC 220255Z AUTO 26007KT 10SM CLR 09/03 A3002 930 68 500 250/07 RMK AO2 $
14926KSTC STC20020921210009909/21/02 21:00:31  5-MIN KSTC 220300Z AUTO 27008KT 10SM CLR 10/03 A3002 930 63 600 270/08 RMK AO2 $
14926KSTC STC20020921210509909/21/02 21:05:31  5-MIN KSTC 220305Z AUTO 27007KT 10SM CLR 10/03 A3002 930 63 600 270/07 RMK AO2 $
14926KSTC STC20020921211009909/21/02 21:10:31  5-MIN KSTC 220310Z AUTO 26006KT 10SM CLR 09/03 A3003 930 65 500 260/06 RMK AO2 $
14926KSTC STC20020921211509909/21/02 21:15:31  5-MIN KSTC 220315Z AUTO 26006KT 10SM CLR 09/03 A3003 930 65 500 260/06 RMK AO2 $
14926KSTC STC20020921212009909/21/02 21:20:31  5-MIN KSTC 220320Z AUTO 26006KT 10SM CLR 09/03 A3003 930 68 500 250/06 RMK AO2 $
14926KSTC STC20020921212509909/21/02 21:25:31  5-MIN KSTC 220325Z AUTO 25006KT 10SM CLR 08/03 A3003 930 70 400 250/06 RMK AO2 $
14926KSTC STC20020921213009909/21/02 21:30:31  5-MIN KSTC 220330Z AUTO 25007KT 10SM CLR 08/03 A3003 930 70 400 250/07 RMK AO2 $
14926KSTC STC20020921213509909/21/02 21:35:31  5-MIN KSTC 220335Z AUTO 25007KT 10SM CLR 09/03 A3003 920 68 500 250/07 RMK AO2 $
14926KSTC STC20020921214009909/21/02 21:40:31  5-MIN KSTC 220340Z AUTO 26007KT 10SM CLR 08/03 A3003 920 70 400 250/07 RMK AO2 $
14926KSTC STC20020921214509909/21/02 21:45:31  5-MIN KSTC 220345Z AUTO 25006KT 10SM CLR 08/03 A3003 920 70 400 250/06 RMK AO2 $
14926KSTC STC20020921215011609/21/02 21:50:31  5-MIN KSTC 220350Z AUTO 25007KT 10SM CLR 08/03 A3003 920 73 300 250/07 RMK AO2 SLP183 T00780033 $
14926KSTC STC20020921215509909/21/02 21:55:31  5-MIN KSTC 220355Z AUTO 25006KT 10SM CLR 08/03 A3004 920 73 300 240/06 RMK AO2 $
14926KSTC STC20020921220009909/21/02 22:00:31  5-MIN KSTC 220400Z AUTO 24006KT 10SM CLR 08/03 A3004 920 73 300 240/06 RMK AO2 $
14926KSTC STC20020921220509909/21/02 22:05:31  5-MIN KSTC 220405Z AUTO 24006KT 10SM CLR 08/03 A3004 920 73 300 240/06 RMK AO2 $
14926KSTC STC20020921221009909/21/02 22:10:31  5-MIN KSTC 220410Z AUTO 24007KT 10SM CLR 08/03 A3004 920 70 400 240/07 RMK AO2 $
14926KSTC STC20020921221509909/21/02 22:15:31  5-MIN KSTC 220415Z AUTO 24007KT 10SM CLR 08/03 A3004 920 73 300 240/07 RMK AO2 $
14926KSTC STC20020921222009909/21/02 22:20:31  5-MIN KSTC 220420Z AUTO 24006KT 10SM CLR 08/03 A3004 910 73 300 240/06 RMK AO2 $
14926KSTC STC20020921222509909/21/02 22:25:31  5-MIN KSTC 220425Z AUTO 24006KT 10SM CLR 08/03 A3004 910 73 300 240/06 RMK AO2 $
14926KSTC STC20020921223009909/21/02 22:30:31  5-MIN KSTC 220430Z AUTO 25007KT 10SM CLR 08/03 A3004 910 70 400 250/07 RMK AO2 $
14926KSTC STC20020921223509909/21/02 22:35:31  5-MIN KSTC 220435Z AUTO 25006KT 10SM CLR 08/03 A3004 910 73 300 250/06 RMK AO2 $
14926KSTC STC20020921224009909/21/02 22:40:31  5-MIN KSTC 220440Z AUTO 25006KT 10SM CLR 08/03 A3004 910 73 300 250/06 RMK AO2 $
14926KSTC STC20020921224509909/21/02 22:45:31  5-MIN KSTC 220445Z AUTO 26007KT 10SM CLR 08/03 A3005 910 73 300 250/07 RMK AO2 $
14926KSTC STC20020921225011609/21/02 22:50:31  5-MIN KSTC 220450Z AUTO 26008KT 10SM CLR 08/03 A3005 910 73 300 260/08 RMK AO2 SLP187 T00780033 $
14926KSTC STC20020921225509909/21/02 22:55:31  5-MIN KSTC 220455Z AUTO 27008KT 10SM CLR 08/03 A3005 910 70 400 260/08 RMK AO2 $
14926KSTC STC20020921230009909/21/02 23:00:31  5-MIN KSTC 220500Z AUTO 27007KT 10SM CLR 08/03 A3005 910 68 400 260/07 RMK AO2 $
14926KSTC STC20020921230509909/21/02 23:05:31  5-MIN KSTC 220505Z AUTO 27008KT 10SM CLR 09/03 A3005 910 65 400 270/08 RMK AO2 $
14926KSTC STC20020921231009909/21/02 23:10:31  5-MIN KSTC 220510Z AUTO 27008KT 10SM CLR 09/03 A3005 910 65 400 270/08 RMK AO2 $
14926KSTC STC20020921231509909/21/02 23:15:31  5-MIN KSTC 220515Z AUTO 27009KT 10SM CLR 09/03 A3005 910 65 400 270/09 RMK AO2 $
14926KSTC STC20020921232009909/21/02 23:20:31  5-MIN KSTC 220520Z AUTO 27009KT 10SM CLR 09/03 A3005 910 65 400 260/09 RMK AO2 $
14926KSTC STC20020921232509909/21/02 23:25:31  5-MIN KSTC 220525Z AUTO 27009KT 10SM CLR 09/03 A3005 910 65 400 270/09 RMK AO2 $
14926KSTC STC20020921233009909/21/02 23:30:31  5-MIN KSTC 220530Z AUTO 28009KT 10SM CLR 09/02 A3005 910 60 500 270/09 RMK AO2 $
14926KSTC STC20020921233509909/21/02 23:35:31  5-MIN KSTC 220535Z AUTO 28010KT 10SM CLR 09/02 A3005 910 60 500 280/10 RMK AO2 $
14926KSTC STC20020921234009909/21/02 23:40:31  5-MIN KSTC 220540Z AUTO 28011KT 10SM CLR 09/02 A3005 910 60 500 270/11 RMK AO2 $
14926KSTC STC20020921234509909/21/02 23:45:31  5-MIN KSTC 220545Z AUTO 28010KT 10SM CLR 09/02 A3005 910 60 500 280/10 RMK AO2 $
14926KSTC STC20020921235014409/21/02 23:50:31  5-MIN KSTC 220550Z AUTO 28010KT 10SM CLR 09/02 A3005 910 60 500 280/10 RMK AO2 SLP186 T00940022 10139 20078 401780078 51021 $
14926KSTC STC20020921235509909/21/02 23:55:31  5-MIN KSTC 220555Z AUTO 28010KT 10SM CLR 09/02 A3005 910 60 500 280/10 RMK AO2 $
14926KSTC STC20020922000009909/22/02 00:00:31  5-MIN KSTC 220600Z AUTO 28010KT 10SM CLR 09/02 A3005 910 60 500 280/10 RMK AO2 $
14926KSTC STC20020922000509909/22/02 00:05:31  5-MIN KSTC 220605Z AUTO 28009KT 10SM CLR 09/02 A3005 910 63 400 280/09 RMK AO2 $
14926KSTC STC20020922001009909/22/02 00:10:31  5-MIN KSTC 220610Z AUTO 28009KT 10SM CLR 09/02 A3005 910 63 400 270/09 RMK AO2 $
14926KSTC STC20020922001509909/22/02 00:15:31  5-MIN KSTC 220615Z AUTO 27009KT 10SM CLR 09/02 A3005 910 63 400 270/09 RMK AO2 $
14926KSTC STC20020922002009909/22/02 00:20:31  5-MIN KSTC 220620Z AUTO 27008KT 10SM CLR 09/02 A3005 910 63 400 270/08 RMK AO2 $
14926KSTC STC20020922002509909/22/02 00:25:31  5-MIN KSTC 220625Z AUTO 27008KT 10SM CLR 08/03 A3005 910 68 400 260/08 RMK AO2 $
14926KSTC STC20020922003009909/22/02 00:30:31  5-MIN KSTC 220630Z AUTO 27007KT 10SM CLR 08/03 A3005 910 68 400 260/07 RMK AO2 $
14926KSTC STC20020922003509909/22/02 00:35:31  5-MIN KSTC 220635Z AUTO 26007KT 10SM CLR 08/03 A3005 910 70 300 260/07 RMK AO2 $
14926KSTC STC20020922004009909/22/02 00:40:31  5-MIN KSTC 220640Z AUTO 25006KT 10SM CLR 07/04 A3005 910 79 200 250/06 RMK AO2 $
14926KSTC STC20020922004509909/22/02 00:45:31  5-MIN KSTC 220645Z AUTO 25007KT 10SM CLR 07/04 A3005 910 82 200 250/07 RMK AO2 $
14926KSTC STC20020922005011609/22/02 00:50:31  5-MIN KSTC 220650Z AUTO 25007KT 10SM CLR 07/03 A3005 900 73 200 250/07 RMK AO2 SLP188 T00720028 $
14926KSTC STC20020922005509909/22/02 00:55:31  5-MIN KSTC 220655Z AUTO 25007KT 10SM CLR 07/03 A3005 900 73 200 250/07 RMK AO2 $
14926KSTC STC20020922010009909/22/02 01:00:31  5-MIN KSTC 220700Z AUTO 24007KT 10SM CLR 07/03 A3005 900 76 200 240/07 RMK AO2 $
14926KSTC STC20020922010509909/22/02 01:05:31  5-MIN KSTC 220705Z AUTO 25007KT 10SM CLR 07/03 A3005 900 76 200 250/07 RMK AO2 $
14926KSTC STC20020922011009909/22/02 01:10:31  5-MIN KSTC 220710Z AUTO 25007KT 10SM CLR 07/03 A3005 900 79 200 250/07 RMK AO2 $
14926KSTC STC20020922011509909/22/02 01:15:31  5-MIN KSTC 220715Z AUTO 25007KT 10SM CLR 07/03 A3005 900 76 200 250/07 RMK AO2 $
14926KSTC STC20020922012009909/22/02 01:20:31  5-MIN KSTC 220720Z AUTO 25007KT 10SM CLR 07/03 A3006 900 79 200 250/07 RMK AO2 $
14926KSTC STC20020922012509909/22/02 01:25:31  5-MIN KSTC 220725Z AUTO 25006KT 10SM CLR 06/03 A3005 900 82 100 240/06 RMK AO2 $
14926KSTC STC20020922013009909/22/02 01:30:31  5-MIN KSTC 220730Z AUTO 24006KT 10SM CLR 06/03 A3005 900 82 100 240/06 RMK AO2 $
14926KSTC STC20020922013509909/22/02 01:35:31  5-MIN KSTC 220735Z AUTO 24007KT 10SM CLR 06/03 A3005 900 82 100 240/07 RMK AO2 $
14926KSTC STC20020922014009909/22/02 01:40:31  5-MIN KSTC 220740Z AUTO 24007KT 10SM CLR 06/03 A3005 900 82 100 240/07 RMK AO2 $
14926KSTC STC20020922014509909/22/02 01:45:31  5-MIN KSTC 220745Z AUTO 24007KT 10SM CLR 06/03 A3005 900 82 100 240/07 RMK AO2 $
14926KSTC STC20020922015011609/22/02 01:50:31  5-MIN KSTC 220750Z AUTO 24007KT 10SM CLR 06/03 A3005 910 82 100 240/07 RMK AO2 SLP187 T00610033 $
14926KSTC STC20020922015509909/22/02 01:55:31  5-MIN KSTC 220755Z AUTO 24007KT 10SM CLR 06/03 A3005 910 82 100 240/07 RMK AO2 $
14926KSTC STC20020922020009909/22/02 02:00:31  5-MIN KSTC 220800Z AUTO 25007KT 10SM CLR 06/03 A3005 910 82 100 240/07 RMK AO2 $
14926KSTC STC20020922020509909/22/02 02:05:31  5-MIN KSTC 220805Z AUTO 25006KT 10SM CLR 06/03 A3005 910 82 100 240/06 RMK AO2 $
14926KSTC STC20020922021009909/22/02 02:10:31  5-MIN KSTC 220810Z AUTO 24007KT 10SM CLR 06/03 A3005 910 82 100 240/07 RMK AO2 $
14926KSTC STC20020922021509709/22/02 02:15:31  5-MIN KSTC 220815Z AUTO 24007KT 10SM CLR 06/03 A3005 910 85 0 240/07 RMK AO2 $
14926KSTC STC20020922022009709/22/02 02:20:31  5-MIN KSTC 220820Z AUTO 24006KT 10SM CLR 06/03 A3005 910 82 0 240/06 RMK AO2 $
14926KSTC STC20020922022509909/22/02 02:25:31  5-MIN KSTC 220825Z AUTO 24007KT 10SM CLR 06/03 A3005 910 82 100 240/07 RMK AO2 $
14926KSTC STC20020922023009909/22/02 02:30:31  5-MIN KSTC 220830Z AUTO 24007KT 10SM CLR 06/03 A3005 910 79 100 240/07 RMK AO2 $
14926KSTC STC20020922023509909/22/02 02:35:31  5-MIN KSTC 220835Z AUTO 24007KT 10SM CLR 06/03 A3005 910 82 100 240/07 RMK AO2 $
14926KSTC STC20020922024009909/22/02 02:40:31  5-MIN KSTC 220840Z AUTO 24008KT 10SM CLR 06/03 A3005 910 82 100 240/08 RMK AO2 $
14926KSTC STC20020922024509909/22/02 02:45:31  5-MIN KSTC 220845Z AUTO 25008KT 10SM CLR 06/03 A3005 910 82 100 240/08 RMK AO2 $
14926KSTC STC20020922025012209/22/02 02:50:31  5-MIN KSTC 220850Z AUTO 25007KT 10SM CLR 06/03 A3005 900 82 100 250/07 RMK AO2 SLP188 T00610033 51008 $
14926KSTC STC20020922025509909/22/02 02:55:31  5-MIN KSTC 220855Z AUTO 25007KT 10SM CLR 06/03 A3005 900 82 100 250/07 RMK AO2 $
14926KSTC STC20020922030009909/22/02 03:00:31  5-MIN KSTC 220900Z AUTO 25008KT 10SM CLR 06/03 A3005 900 82 100 250/08 RMK AO2 $
14926KSTC STC20020922030509909/22/02 03:05:31  5-MIN KSTC 220905Z AUTO 26007KT 10SM CLR 06/03 A3005 900 79 100 250/07 RMK AO2 $
14926KSTC STC20020922031009909/22/02 03:10:31  5-MIN KSTC 220910Z AUTO 26007KT 10SM CLR 06/03 A3005 900 79 100 260/07 RMK AO2 $
14926KSTC STC20020922031509909/22/02 03:15:31  5-MIN KSTC 220915Z AUTO 27010KT 10SM CLR 07/03 A3005 900 76 200 260/10 RMK AO2 $
14926KSTC STC20020922032009909/22/02 03:20:31  5-MIN KSTC 220920Z AUTO 27008KT 10SM CLR 07/03 A3005 910 76 200 260/08 RMK AO2 $
14926KSTC STC20020922032509909/22/02 03:25:31  5-MIN KSTC 220925Z AUTO 26009KT 10SM CLR 07/03 A3005 910 76 200 260/09 RMK AO2 $
14926KSTC STC20020922033009909/22/02 03:30:31  5-MIN KSTC 220930Z AUTO 25007KT 10SM CLR 07/03 A3005 900 76 200 250/07 RMK AO2 $
14926KSTC STC20020922033509909/22/02 03:35:31  5-MIN KSTC 220935Z AUTO 25008KT 10SM CLR 07/03 A3005 910 76 200 250/08 RMK AO2 $
14926KSTC STC20020922034009909/22/02 03:40:31  5-MIN KSTC 220940Z AUTO 25007KT 10SM CLR 06/03 A3005 910 82 100 250/07 RMK AO2 $
14926KSTC STC20020922034509909/22/02 03:45:31  5-MIN KSTC 220945Z AUTO 25008KT 10SM CLR 06/03 A3005 910 82 100 250/08 RMK AO2 $
14926KSTC STC20020922035011609/22/02 03:50:31  5-MIN KSTC 220950Z AUTO 26008KT 10SM CLR 06/03 A3005 910 82 100 250/08 RMK AO2 SLP187 T00610033 $
14926KSTC STC20020922035509909/22/02 03:55:31  5-MIN KSTC 220955Z AUTO 26008KT 10SM CLR 06/03 A3005 910 79 100 260/08 RMK AO2 $
14926KSTC STC20020922040009909/22/02 04:00:31  5-MIN KSTC 221000Z AUTO 26007KT 10SM CLR 06/03 A3005 900 82 100 260/07 RMK AO2 $
14926KSTC STC20020922040509909/22/02 04:05:31  5-MIN KSTC 221005Z AUTO 26008KT 10SM CLR 06/03 A3005 900 82 100 260/08 RMK AO2 $
14926KSTC STC20020922041009909/22/02 04:10:31  5-MIN KSTC 221010Z AUTO 27010KT 10SM CLR 06/03 A3006 900 82 100 270/10 RMK AO2 $
14926KSTC STC20020922041509909/22/02 04:15:31  5-MIN KSTC 221015Z AUTO 26009KT 10SM CLR 07/03 A3006 900 79 200 260/09 RMK AO2 $
14926KSTC STC20020922042009909/22/02 04:20:31  5-MIN KSTC 221020Z AUTO 27009KT 10SM CLR 06/03 A3006 900 82 100 270/09 RMK AO2 $
14926KSTC STC20020922042509909/22/02 04:25:31  5-MIN KSTC 221025Z AUTO 27008KT 10SM CLR 06/03 A3006 900 82 100 260/08 RMK AO2 $
14926KSTC STC20020922043009909/22/02 04:30:31  5-MIN KSTC 221030Z AUTO 27009KT 10SM CLR 06/03 A3006 900 82 100 270/09 RMK AO2 $
14926KSTC STC20020922043509909/22/02 04:35:31  5-MIN KSTC 221035Z AUTO 27009KT 10SM CLR 06/03 A3005 900 82 100 270/09 RMK AO2 $
14926KSTC STC20020922044009909/22/02 04:40:31  5-MIN KSTC 221040Z AUTO 27008KT 10SM CLR 06/03 A3006 900 82 100 270/08 RMK AO2 $
14926KSTC STC20020922044509909/22/02 04:45:31  5-MIN KSTC 221045Z AUTO 27010KT 10SM CLR 06/03 A3006 900 82 100 260/10 RMK AO2 $
14926KSTC STC20020922045011609/22/02 04:50:31  5-MIN KSTC 221050Z AUTO 27011KT 10SM CLR 06/03 A3006 900 82 100 270/11 RMK AO2 SLP190 T00610033 $
14926KSTC STC20020922045509909/22/02 04:55:31  5-MIN KSTC 221055Z AUTO 27009KT 10SM CLR 06/03 A3006 900 82 100 270/09 RMK AO2 $
14926KSTC STC20020922050009909/22/02 05:00:31  5-MIN KSTC 221100Z AUTO 27009KT 10SM CLR 06/03 A3006 900 82 100 270/09 RMK AO2 $
14926KSTC STC20020922050509909/22/02 05:05:31  5-MIN KSTC 221105Z AUTO 28009KT 10SM CLR 06/03 A3006 900 82 100 280/09 RMK AO2 $
14926KSTC STC20020922051009909/22/02 05:10:31  5-MIN KSTC 221110Z AUTO 28009KT 10SM CLR 06/03 A3006 890 82 100 280/09 RMK AO2 $
14926KSTC STC20020922051509909/22/02 05:15:31  5-MIN KSTC 221115Z AUTO 28010KT 10SM CLR 06/03 A3006 890 82 100 280/10 RMK AO2 $
14926KSTC STC20020922052009909/22/02 05:20:31  5-MIN KSTC 221120Z AUTO 28010KT 10SM CLR 06/03 A3006 900 82 100 280/10 RMK AO2 $
14926KSTC STC20020922052509909/22/02 05:25:31  5-MIN KSTC 221125Z AUTO 28010KT 10SM CLR 06/03 A3006 900 82 100 280/10 RMK AO2 $
14926KSTC STC20020922053009909/22/02 05:30:31  5-MIN KSTC 221130Z AUTO 28010KT 10SM CLR 06/03 A3006 900 82 100 270/10 RMK AO2 $
14926KSTC STC20020922053509909/22/02 05:35:31  5-MIN KSTC 221135Z AUTO 28011KT 10SM CLR 06/03 A3006 900 82 100 280/11 RMK AO2 $
14926KSTC STC20020922054009909/22/02 05:40:31  5-MIN KSTC 221140Z AUTO 28010KT 10SM CLR 06/03 A3006 900 82 100 280/10 RMK AO2 $
14926KSTC STC20020922054509909/22/02 05:45:31  5-MIN KSTC 221145Z AUTO 28009KT 10SM CLR 06/03 A3006 900 82 100 280/09 RMK AO2 $
14926KSTC STC20020922055013409/22/02 05:50:31  5-MIN KSTC 221150Z AUTO 28010KT 10SM CLR 06/03 A3006 900 82 100 280/10 RMK AO2 SLP193 T00610033 10094 20056 51001 $
14926KSTC STC20020922055509909/22/02 05:55:31  5-MIN KSTC 221155Z AUTO 28009KT 10SM CLR 06/03 A3006 900 82 100 280/09 RMK AO2 $
14926KSTC STC20020922060009909/22/02 06:00:31  5-MIN KSTC 221200Z AUTO 28010KT 10SM CLR 06/03 A3006 890 82 100 280/10 RMK AO2 $
14926KSTC STC20020922060509909/22/02 06:05:31  5-MIN KSTC 221205Z AUTO 28009KT 10SM CLR 06/03 A3007 890 82 100 280/09 RMK AO2 $
14926KSTC STC20020922061009709/22/02 06:10:31  5-MIN KSTC 221210Z AUTO 28008KT 10SM CLR 06/03 A3007 890 85 0 280/08 RMK AO2 $
14926KSTC STC20020922061509909/22/02 06:15:31  5-MIN KSTC 221215Z AUTO 28008KT 10SM CLR 06/03 A3007 890 82 100 270/08 RMK AO2 $
14926KSTC STC20020922062009709/22/02 06:20:31  5-MIN KSTC 221220Z AUTO 28008KT 10SM CLR 06/03 A3007 890 85 0 280/08 RMK AO2 $
14926KSTC STC20020922062509909/22/02 06:25:31  5-MIN KSTC 221225Z AUTO 27009KT 10SM CLR 06/03 A3007 890 82 100 270/09 RMK AO2 $
14926KSTC STC20020922063009909/22/02 06:30:31  5-MIN KSTC 221230Z AUTO 28009KT 10SM CLR 06/03 A3007 890 82 100 270/09 RMK AO2 $
14926KSTC STC20020922063509909/22/02 06:35:31  5-MIN KSTC 221235Z AUTO 28010KT 10SM CLR 06/04 A3007 890 86 100 280/10 RMK AO2 $
14926KSTC STC20020922064009909/22/02 06:40:31  5-MIN KSTC 221240Z AUTO 27011KT 10SM CLR 06/04 A3007 890 86 100 270/11 RMK AO2 $
14926KSTC STC20020922064509909/22/02 06:45:31  5-MIN KSTC 221245Z AUTO 28010KT 10SM CLR 07/04 A3007 880 82 100 280/10 RMK AO2 $
14926KSTC STC20020922065011609/22/02 06:50:31  5-MIN KSTC 221250Z AUTO 28011KT 10SM CLR 07/04 A3008 880 82 100 280/11 RMK AO2 SLP199 T00670039 $
14926KSTC STC20020922065509909/22/02 06:55:31  5-MIN KSTC 221255Z AUTO 28011KT 10SM CLR 07/04 A3008 880 82 100 280/11 RMK AO2 $
14926KSTC STC20020922070009909/22/02 07:00:31  5-MIN KSTC 221300Z AUTO 28009KT 10SM CLR 07/04 A3008 880 82 100 270/09 RMK AO2 $
14926KSTC STC20020922070509909/22/02 07:05:31  5-MIN KSTC 221305Z AUTO 28012KT 10SM CLR 07/04 A3008 880 79 200 280/12 RMK AO2 $
14926KSTC STC20020922071009909/22/02 07:10:31  5-MIN KSTC 221310Z AUTO 28009KT 10SM CLR 07/04 A3008 880 79 200 280/09 RMK AO2 $
14926KSTC STC20020922071509909/22/02 07:15:31  5-MIN KSTC 221315Z AUTO 28011KT 10SM CLR 07/04 A3008 880 79 200 280/11 RMK AO2 $
14926KSTC STC20020922072009909/22/02 07:20:31  5-MIN KSTC 221320Z AUTO 28010KT 10SM CLR 08/04 A3008 880 76 300 280/10 RMK AO2 $
14926KSTC STC20020922072509909/22/02 07:25:31  5-MIN KSTC 221325Z AUTO 29009KT 10SM CLR 08/04 A3008 880 76 300 290/09 RMK AO2 $
14926KSTC STC20020922073009909/22/02 07:30:31  5-MIN KSTC 221330Z AUTO 29011KT 10SM CLR 08/04 A3008 880 76 300 280/11 RMK AO2 $
14926KSTC STC20020922073509909/22/02 07:35:31  5-MIN KSTC 221335Z AUTO 29011KT 10SM CLR 08/04 A3008 880 76 300 290/11 RMK AO2 $
14926KSTC STC20020922074010209/22/02 07:40:31  5-MIN KSTC 221340Z AUTO 28011KT 10SM FEW022 08/04 A3008 880 73 300 280/11 RMK AO2 $
14926KSTC STC20020922074510209/22/02 07:45:31  5-MIN KSTC 221345Z AUTO 30009KT 10SM FEW022 08/04 A3008 880 73 300 290/09 RMK AO2 $
14926KSTC STC20020922075011909/22/02 07:50:31  5-MIN KSTC 221350Z AUTO 28011KT 10SM SCT022 08/04 A3008 880 73 300 280/11 RMK AO2 SLP200 T00830039 $
14926KSTC STC20020922075510209/22/02 07:55:31  5-MIN KSTC 221355Z AUTO 30011KT 10SM BKN022 08/04 A3009 870 73 300 300/11 RMK AO2 $
14926KSTC STC20020922080010209/22/02 08:00:31  5-MIN KSTC 221400Z AUTO 28011KT 10SM BKN020 08/04 A3009 870 73 300 280/11 RMK AO2 $
14926KSTC STC20020922080510209/22/02 08:05:31  5-MIN KSTC 221405Z AUTO 28013KT 10SM BKN020 08/04 A3009 870 76 300 280/13 RMK AO2 $
14926KSTC STC20020922081010209/22/02 08:10:31  5-MIN KSTC 221410Z AUTO 29013KT 10SM BKN020 08/04 A3009 870 73 300 290/13 RMK AO2 $
14926KSTC STC20020922081510209/22/02 08:15:31  5-MIN KSTC 221415Z AUTO 29011KT 10SM BKN020 08/04 A3009 870 73 300 290/11 RMK AO2 $
14926KSTC STC20020922082010209/22/02 08:20:31  5-MIN KSTC 221420Z AUTO 29013KT 10SM BKN020 08/04 A3009 870 73 300 290/13 RMK AO2 $
14926KSTC STC20020922082510209/22/02 08:25:31  5-MIN KSTC 221425Z AUTO 28014KT 10SM BKN020 09/04 A3009 870 71 400 280/14 RMK AO2 $
14926KSTC STC20020922083010209/22/02 08:30:31  5-MIN KSTC 221430Z AUTO 30013KT 10SM BKN022 08/04 A3010 860 73 300 290/13 RMK AO2 $
14926KSTC STC20020922083510209/22/02 08:35:31  5-MIN KSTC 221435Z AUTO 29013KT 10SM BKN022 09/04 A3010 860 71 400 280/13 RMK AO2 $
14926KSTC STC20020922084010909/22/02 08:40:31  5-MIN KSTC 221440Z AUTO 28013KT 10SM BKN020 BKN025 09/04 A3010 860 71 400 280/13 RMK AO2 $
14926KSTC STC20020922084511509/22/02 08:45:31  5-MIN KSTC 221445Z AUTO 30012G17KT 10SM BKN023 BKN029 09/04 A3010 860 71 400 300/12G17 RMK AO2 $
14926KSTC STC20020922085013809/22/02 08:50:31  5-MIN KSTC 221450Z AUTO 30011G18KT 10SM BKN023 BKN029 09/04 A3010 860 71 400 300/11G18 RMK AO2 SLP206 T00890039 53003 $
14926KSTC STC20020922085511509/22/02 08:55:31  5-MIN KSTC 221455Z AUTO 31015G18KT 10SM BKN023 BKN029 09/04 A3010 860 68 400 310/15G18 RMK AO2 $
14926KSTC STC20020922090010909/22/02 09:00:31  5-MIN KSTC 221500Z AUTO 30014KT 10SM SCT023 SCT029 09/03 A3010 860 68 400 300/14 RMK AO2 $
14926KSTC STC20020922090510909/22/02 09:05:31  5-MIN KSTC 221505Z AUTO 30013KT 10SM SCT023 SCT029 09/03 A3010 860 68 400 300/13 RMK AO2 $
14926KSTC STC20020922091010209/22/02 09:10:31  5-MIN KSTC 221510Z AUTO 29014KT 10SM FEW026 09/03 A3011 860 65 400 280/14 RMK AO2 $
14926KSTC STC20020922091510209/22/02 09:15:31  5-MIN KSTC 221515Z AUTO 31015KT 10SM FEW023 09/03 A3011 850 63 400 300/15 RMK AO2 $
14926KSTC STC20020922092010209/22/02 09:20:31  5-MIN KSTC 221520Z AUTO 29012KT 10SM FEW028 10/03 A3011 850 60 500 290/12 RMK AO2 $
14926KSTC STC20020922092510209/22/02 09:25:31  5-MIN KSTC 221525Z AUTO 30012KT 10SM SCT028 10/03 A3011 850 63 500 300/12 RMK AO2 $
14926KSTC STC20020922093010209/22/02 09:30:31  5-MIN KSTC 221530Z AUTO 29013KT 10SM BKN028 10/03 A3011 850 63 500 280/13 RMK AO2 $
14926KSTC STC20020922093511509/22/02 09:35:31  5-MIN KSTC 221535Z AUTO 30012G19KT 10SM BKN028 BKN034 10/03 A3011 850 63 500 300/12G19 RMK AO2 $
14926KSTC STC20020922094010909/22/02 09:40:31  5-MIN KSTC 221540Z AUTO 29014KT 10SM BKN028 BKN035 10/03 A3011 850 63 500 290/14 RMK AO2 $
14926KSTC STC20020922094510909/22/02 09:45:31  5-MIN KSTC 221545Z AUTO 29013KT 10SM BKN028 BKN035 10/03 A3011 850 63 500 290/13 RMK AO2 $
14926KSTC STC20020922095012609/22/02 09:50:31  5-MIN KSTC 221550Z AUTO 28013KT 10SM BKN030 BKN037 10/03 A3011 850 63 500 280/13 RMK AO2 SLP211 T01000033 $
14926KSTC STC20020922095510909/22/02 09:55:31  5-MIN KSTC 221555Z AUTO 29014KT 10SM BKN030 BKN037 11/03 A3011 850 61 600 280/14 RMK AO2 $
14926KSTC STC20020922100011509/22/02 10:00:31  5-MIN KSTC 221600Z AUTO 29014G19KT 10SM BKN030 BKN037 11/03 A3011 850 61 600 290/14G19 RMK AO2 $
14926KSTC STC20020922100511509/22/02 10:05:31  5-MIN KSTC 221605Z AUTO 29015G19KT 10SM BKN030 BKN037 11/03 A3012 850 58 600 280/15G19 RMK AO2 $
14926KSTC STC20020922101010809/22/02 10:10:31  5-MIN KSTC 221610Z AUTO 30012G19KT 10SM BKN032 11/03 A3012 850 58 600 300/12G19 RMK AO2 $
14926KSTC STC20020922101510209/22/02 10:15:31  5-MIN KSTC 221615Z AUTO 31012KT 10SM BKN032 11/03 A3011 850 56 600 310/12 RMK AO2 $
14926KSTC STC20020922102011509/22/02 10:20:31  5-MIN KSTC 221620Z AUTO 30012G18KT 10SM BKN032 BKN040 12/03 A3011 850 54 700 300/12G18 RMK AO2 $
14926KSTC STC20020922102511509/22/02 10:25:31  5-MIN KSTC 221625Z AUTO 31016G21KT 10SM BKN034 BKN040 11/03 A3011 850 56 600 300/16G21 RMK AO2 $
14926KSTC STC20020922103010809/22/02 10:30:31  5-MIN KSTC 221630Z AUTO 30015G21KT 10SM BKN034 11/02 A3012 850 56 600 300/15G21 RMK AO2 $
14926KSTC STC20020922103510209/22/02 10:35:31  5-MIN KSTC 221635Z AUTO 29016KT 10SM BKN034 11/02 A3012 850 56 600 290/16 RMK AO2 $
14926KSTC STC20020922104010809/22/02 10:40:31  5-MIN KSTC 221640Z AUTO 31016G20KT 10SM SCT036 12/02 A3012 850 52 700 300/16G20 RMK AO2 $
14926KSTC STC20020922104510809/22/02 10:45:31  5-MIN KSTC 221645Z AUTO 30015G20KT 10SM SCT036 11/02 A3011 850 54 600 300/15G20 RMK AO2 $
14926KSTC STC20020922105011909/22/02 10:50:31  5-MIN KSTC 221650Z AUTO 30014KT 10SM SCT036 12/03 A3011 850 54 700 290/14 RMK AO2 SLP211 T01170028 $
14926KSTC STC20020922105510809/22/02 10:55:31  5-MIN KSTC 221655Z AUTO 30015G21KT 10SM FEW038 11/02 A3011 850 54 600 300/15G21 RMK AO2 $
14926KSTC STC20020922110010809/22/02 11:00:31  5-MIN KSTC 221700Z AUTO 31013G21KT 10SM FEW038 11/02 A3011 850 52 600 310/13G21 RMK AO2 $
14926KSTC STC20020922110510209/22/02 11:05:31  5-MIN KSTC 221705Z AUTO 30014KT 10SM SCT040 12/02 A3011 850 52 700 300/14 RMK AO2 $
14926KSTC STC20020922111010209/22/02 11:10:31  5-MIN KSTC 221710Z AUTO 32015KT 10SM BKN042 12/03 A3011 850 52 800 310/15 RMK AO2 $
14926KSTC STC20020922111510809/22/02 11:15:31  5-MIN KSTC 221715Z AUTO 30011G20KT 10SM BKN042 12/02 A3011 850 50 700 300/11G20 RMK AO2 $
14926KSTC STC20020922112010809/22/02 11:20:31  5-MIN KSTC 221720Z AUTO 30015G19KT 10SM BKN042 13/02 A3012 850 48 800 300/15G19 RMK AO2 $
14926KSTC STC20020922112511509/22/02 11:25:31  5-MIN KSTC 221725Z AUTO 30015G20KT 10SM BKN042 BKN049 12/01 A3011 850 48 700 300/15G20 RMK AO2 $
14926KSTC STC20020922113010809/22/02 11:30:31  5-MIN KSTC 221730Z AUTO 28015G20KT 10SM BKN042 12/02 A3011 850 48 800 280/15G20 RMK AO2 $
14926KSTC STC20020922113510809/22/02 11:35:31  5-MIN KSTC 221735Z AUTO 30015G20KT 10SM BKN042 13/02 A3011 850 46 800 290/15G20 RMK AO2 $
14926KSTC STC20020922114010809/22/02 11:40:31  5-MIN KSTC 221740Z AUTO 30015G20KT 10SM BKN044 12/02 A3011 850 48 800 290/15G20 RMK AO2 $
14926KSTC STC20020922114510909/22/02 11:45:31  5-MIN KSTC 221745Z AUTO 29013KT 10SM FEW042 BKN050 12/02 A3011 860 48 800 280/13 RMK AO2 $
14926KSTC STC20020922115014309/22/02 11:50:31  5-MIN KSTC 221750Z AUTO 29015G18KT 10SM BKN047 12/02 A3011 860 48 800 290/15G18 RMK AO2 SLP207 T01220017 10128 20056 53013 $
14926KSTC STC20020922115510809/22/02 11:55:31  5-MIN KSTC 221755Z AUTO 29014G18KT 10SM BKN048 13/02 A3010 860 46 800 280/14G18 RMK AO2 $
14926KSTC STC20020922120010209/22/02 12:00:31  5-MIN KSTC 221800Z AUTO 30012KT 10SM SCT048 13/01 A3011 860 44 800 300/12 RMK AO2 $
14926KSTC STC20020922120510909/22/02 12:05:31  5-MIN KSTC 221805Z AUTO 31012KT 10SM BKN048 BKN060 13/01 A3010 860 44 800 310/12 RMK AO2 $
14926KSTC STC20020922121011509/22/02 12:10:31  5-MIN KSTC 221810Z AUTO 30013G17KT 10SM BKN050 BKN060 13/02 A3011 850 46 800 290/13G17 RMK AO2 $
14926KSTC STC20020922121511509/22/02 12:15:31  5-MIN KSTC 221815Z AUTO 28013G18KT 10SM BKN050 BKN060 13/01 A3011 860 43 800 280/13G18 RMK AO2 $
14926KSTC STC20020922122011509/22/02 12:20:31  5-MIN KSTC 221820Z AUTO 29017G21KT 10SM BKN050 BKN060 13/01 A3010 860 44 800 290/17G21 RMK AO2 $
14926KSTC STC20020922122511509/22/02 12:25:31  5-MIN KSTC 221825Z AUTO 29015G21KT 10SM BKN050 OVC060 13/01 A3010 860 41 900 290/15G21 RMK AO2 $
14926KSTC STC20020922123010809/22/02 12:30:31  5-MIN KSTC 221830Z AUTO 29015G22KT 10SM OVC055 13/01 A3010 860 43 800 290/15G22 RMK AO2 $
14926KSTC STC20020922123511509/22/02 12:35:31  5-MIN KSTC 221835Z AUTO 29016G22KT 10SM BKN050 OVC060 13/01 A3010 860 43 800 280/16G22 RMK AO2 $
14926KSTC STC20020922124010809/22/02 12:40:31  5-MIN KSTC 221840Z AUTO 30015G21KT 10SM OVC055 13/01 A3010 860 43 900 290/15G21 RMK AO2 $
14926KSTC STC20020922124510809/22/02 12:45:31  5-MIN KSTC 221845Z AUTO 29014G21KT 10SM BKN060 13/01 A3010 860 41 900 290/14G21 RMK AO2 $
14926KSTC STC20020922125012509/22/02 12:50:31  5-MIN KSTC 221850Z AUTO 31015G20KT 10SM BKN060 13/01 A3010 860 43 800 300/15G20 RMK AO2 SLP207 T01280006 $
14926KSTC STC20020922125511509/22/02 12:55:31  5-MIN KSTC 221855Z AUTO 30012G21KT 10SM BKN055 BKN070 12/01 A3010 860 44 800 300/12G21 RMK AO2 $
14926KSTC STC20020922130011509/22/02 13:00:31  5-MIN KSTC 221900Z AUTO 29011G21KT 10SM BKN055 BKN070 13/01 A3010 860 43 900 290/11G21 RMK AO2 $
14926KSTC STC20020922130511609/22/02 13:05:31  5-MIN KSTC 221905Z AUTO 30011G18KT 10SM SCT055 BKN070 14/01 A3010 860 40 1000 290/11G18 RMK AO2 $
14926KSTC STC20020922131011509/22/02 13:10:31  5-MIN KSTC 221910Z AUTO 27015G21KT 10SM BKN055 BKN070 13/01 A3010 860 41 900 260/15G21 RMK AO2 $
14926KSTC STC20020922131511609/22/02 13:15:31  5-MIN KSTC 221915Z AUTO 28013G21KT 10SM SCT055 BKN070 14/00 A3010 860 38 1000 280/13G21 RMK AO2 $
14926KSTC STC20020922132011609/22/02 13:20:31  5-MIN KSTC 221920Z AUTO 28017G23KT 10SM SCT055 BKN070 14/01 A3010 860 38 1000 270/17G23 RMK AO2 $
14926KSTC STC20020922132511609/22/02 13:25:31  5-MIN KSTC 221925Z AUTO 28017G23KT 10SM FEW055 BKN070 14/01 A3010 870 40 1000 270/17G23 RMK AO2 $
14926KSTC STC20020922133011609/22/02 13:30:31  5-MIN KSTC 221930Z AUTO 28015G21KT 10SM FEW055 BKN070 14/00 A3009 870 38 1000 280/15G21 RMK AO2 $
14926KSTC STC20020922133510909/22/02 13:35:31  5-MIN KSTC 221935Z AUTO 28015G21KT 10SM BKN065 14/00 A3009 870 37 1000 280/15G21 RMK AO2 $
14926KSTC STC20020922134010909/22/02 13:40:31  5-MIN KSTC 221940Z AUTO 29013G21KT 10SM BKN070 14/00 A3009 870 37 1000 280/13G21 RMK AO2 $
14926KSTC STC20020922134510909/22/02 13:45:31  5-MIN KSTC 221945Z AUTO 27016G24KT 10SM BKN070 14/01 A3009 870 40 1000 270/16G24 RMK AO2 $
14926KSTC STC20020922135012609/22/02 13:50:31  5-MIN KSTC 221950Z AUTO 27013G24KT 10SM BKN070 14/01 A3009 870 40 1000 260/13G24 RMK AO2 SLP203 T01390006 $
14926KSTC STC20020922135510909/22/02 13:55:31  5-MIN KSTC 221955Z AUTO 27013G20KT 10SM SCT070 14/01 A3009 870 38 1000 260/13G20 RMK AO2 $
14926KSTC STC20020922140010909/22/02 14:00:31  5-MIN KSTC 222000Z AUTO 27013G20KT 10SM SCT070 14/01 A3009 870 38 1000 270/13G20 RMK AO2 $
14926KSTC STC20020922140510809/22/02 14:05:31  5-MIN KSTC 222005Z AUTO 28014G19KT 10SM BKN070 13/00 A3009 870 40 900 280/14G19 RMK AO2 $
14926KSTC STC20020922141010809/22/02 14:10:31  5-MIN KSTC 222010Z AUTO 29012G19KT 10SM SCT070 13/01 A3009 870 41 900 290/12G19 RMK AO2 $
14926KSTC STC20020922141510209/22/02 14:15:31  5-MIN KSTC 222015Z AUTO 28010KT 10SM SCT070 13/01 A3009 870 41 900 280/10 RMK AO2 $
14926KSTC STC20020922142010309/22/02 14:20:31  5-MIN KSTC 222020Z AUTO 27011KT 10SM SCT070 14/01 A3009 870 41 1000 270/11 RMK AO2 $
14926KSTC STC20020922142510309/22/02 14:25:31  5-MIN KSTC 222025Z AUTO 28011KT 10SM SCT075 14/01 A3008 870 40 1000 280/11 RMK AO2 $
14926KSTC STC20020922143010909/22/02 14:30:31  5-MIN KSTC 222030Z AUTO 28013G20KT 10SM SCT075 14/01 A3008 880 38 1100 280/13G20 RMK AO2 $
14926KSTC STC20020922143510909/22/02 14:35:31  5-MIN KSTC 222035Z AUTO 29013G20KT 10SM SCT075 14/01 A3008 880 38 1100 290/13G20 RMK AO2 $
14926KSTC STC20020922144010309/22/02 14:40:31  5-MIN KSTC 222040Z AUTO 27012KT 10SM BKN075 14/01 A3008 880 40 1100 270/12 RMK AO2 $
14926KSTC STC20020922144510909/22/02 14:45:31  5-MIN KSTC 222045Z AUTO 28012G18KT 10SM BKN075 14/01 A3008 880 38 1100 280/12G18 RMK AO2 $
14926KSTC STC20020922145013209/22/02 14:50:31  5-MIN KSTC 222050Z AUTO 28015G18KT 10SM BKN075 14/01 A3008 880 38 1100 280/15G18 RMK AO2 SLP198 T01440006 50001 $
14926KSTC STC20020922145510309/22/02 14:55:31  5-MIN KSTC 222055Z AUTO 27014KT 10SM BKN075 14/00 A3008 880 38 1000 260/14 RMK AO2 $
14926KSTC STC20020922150010909/22/02 15:00:31  5-MIN KSTC 222100Z AUTO 27013G20KT 10SM SCT075 14/01 A3008 880 40 1000 270/13G20 RMK AO2 $
14926KSTC STC20020922150510809/22/02 15:05:31  5-MIN KSTC 222105Z AUTO 28014G20KT 10SM SCT075 13/00 A3008 880 40 900 280/14G20 RMK AO2 $
14926KSTC STC20020922151011809/22/02 15:10:31  5-MIN KSTC 222110Z AUTO 27011KT 240V300 10SM SCT070 13/01 A3008 880 41 900 270/11 240V300 RMK AO2 $
14926KSTC STC20020922151510809/22/02 15:15:31  5-MIN KSTC 222115Z AUTO 27014G18KT 10SM BKN070 13/01 A3008 880 41 900 270/14G18 RMK AO2 $
14926KSTC STC20020922152010809/22/02 15:20:31  5-MIN KSTC 222120Z AUTO 29013G18KT 10SM BKN070 13/01 A3008 880 41 900 290/13G18 RMK AO2 $
14926KSTC STC20020922152510809/22/02 15:25:31  5-MIN KSTC 222125Z AUTO 29013G18KT 10SM SCT070 13/00 A3008 880 40 900 280/13G18 RMK AO2 $
14926KSTC STC20020922153011509/22/02 15:30:31  5-MIN KSTC 222130Z AUTO 27014G18KT 10SM SCT060 SCT075 13/01 A3008 880 41 900 260/14G18 RMK AO2 $
14926KSTC STC20020922153510909/22/02 15:35:31  5-MIN KSTC 222135Z AUTO 28012KT 10SM SCT060 BKN075 13/01 A3008 880 41 900 280/12 RMK AO2 $
14926KSTC STC20020922154010909/22/02 15:40:31  5-MIN KSTC 222140Z AUTO 28011KT 10SM SCT055 BKN075 13/01 A3008 880 41 900 280/11 RMK AO2 $
14926KSTC STC20020922154510909/22/02 15:45:31  5-MIN KSTC 222145Z AUTO 28010KT 10SM SCT060 SCT075 13/01 A3008 880 43 900 280/10 RMK AO2 $
14926KSTC STC20020922155011909/22/02 15:50:31  5-MIN KSTC 222150Z AUTO 29011KT 10SM FEW060 13/01 A3008 880 44 900 290/11 RMK AO2 SLP200 T01280011 $
14926KSTC STC20020922155510209/22/02 15:55:31  5-MIN KSTC 222155Z AUTO 28009KT 10SM FEW060 13/01 A3008 880 43 900 280/09 RMK AO2 $
14926KSTC STC20020922160010209/22/02 16:00:31  5-MIN KSTC 222200Z AUTO 30010KT 10SM FEW055 13/01 A3008 880 43 900 300/10 RMK AO2 $
14926KSTC STC20020922160510209/22/02 16:05:31  5-MIN KSTC 222205Z AUTO 30011KT 10SM FEW060 13/01 A3008 880 43 900 300/11 RMK AO2 $
14926KSTC STC20020922161009909/22/02 16:10:31  5-MIN KSTC 222210Z AUTO 29011KT 10SM CLR 13/01 A3008 880 44 900 290/11 RMK AO2 $
14926KSTC STC20020922161509909/22/02 16:15:31  5-MIN KSTC 222215Z AUTO 29009KT 10SM CLR 13/01 A3008 880 44 900 290/09 RMK AO2 $
14926KSTC STC20020922162009909/22/02 16:20:31  5-MIN KSTC 222220Z AUTO 28010KT 10SM CLR 13/01 A3008 870 43 900 280/10 RMK AO2 $
14926KSTC STC20020922162509909/22/02 16:25:31  5-MIN KSTC 222225Z AUTO 30007KT 10SM CLR 13/01 A3009 870 44 900 300/07 RMK AO2 $
14926KSTC STC20020922163009909/22/02 16:30:31  5-MIN KSTC 222230Z AUTO 29008KT 10SM CLR 13/01 A3009 870 44 900 290/08 RMK AO2 $
14926KSTC STC20020922163509909/22/02 16:35:31  5-MIN KSTC 222235Z AUTO 29008KT 10SM CLR 13/01 A3009 870 44 900 290/08 RMK AO2 $
14926KSTC STC20020922164009909/22/02 16:40:31  5-MIN KSTC 222240Z AUTO 29005KT 10SM CLR 13/01 A3009 870 44 900 290/05 RMK AO2 $
14926KSTC STC20020922164509909/22/02 16:45:31  5-MIN KSTC 222245Z AUTO 28007KT 10SM CLR 13/01 A3009 870 44 900 270/07 RMK AO2 $
14926KSTC STC20020922165011609/22/02 16:50:31  5-MIN KSTC 222250Z AUTO 28009KT 10SM CLR 13/01 A3009 870 44 900 270/09 RMK AO2 SLP202 T01280011 $
14926KSTC STC20020922165509909/22/02 16:55:31  5-MIN KSTC 222255Z AUTO 29009KT 10SM CLR 13/01 A3009 870 43 800 290/09 RMK AO2 $
14926KSTC STC20020922170009909/22/02 17:00:31  5-MIN KSTC 222300Z AUTO 28007KT 10SM CLR 12/01 A3009 870 46 800 280/07 RMK AO2 $
14926KSTC STC20020922170509909/22/02 17:05:31  5-MIN KSTC 222305Z AUTO 30006KT 10SM CLR 12/01 A3009 870 46 800 290/06 RMK AO2 $
14926KSTC STC20020922171009909/22/02 17:10:31  5-MIN KSTC 222310Z AUTO 28007KT 10SM CLR 12/01 A3009 870 46 800 280/07 RMK AO2 $
14926KSTC STC20020922171509909/22/02 17:15:31  5-MIN KSTC 222315Z AUTO 30005KT 10SM CLR 12/02 A3008 870 48 800 290/05 RMK AO2 $
14926KSTC STC20020922172009909/22/02 17:20:31  5-MIN KSTC 222320Z AUTO 30007KT 10SM CLR 12/02 A3008 880 48 800 300/07 RMK AO2 $
14926KSTC STC20020922172509909/22/02 17:25:31  5-MIN KSTC 222325Z AUTO 29006KT 10SM CLR 12/02 A3008 880 48 800 290/06 RMK AO2 $
14926KSTC STC20020922173009909/22/02 17:30:31  5-MIN KSTC 222330Z AUTO 28006KT 10SM CLR 12/02 A3008 880 50 700 280/06 RMK AO2 $
14926KSTC STC20020922173509909/22/02 17:35:31  5-MIN KSTC 222335Z AUTO 28005KT 10SM CLR 12/02 A3008 880 50 700 280/05 RMK AO2 $
14926KSTC STC20020922174009909/22/02 17:40:31  5-MIN KSTC 222340Z AUTO 29004KT 10SM CLR 12/02 A3008 880 50 700 290/04 RMK AO2 $
14926KSTC STC20020922174509909/22/02 17:45:31  5-MIN KSTC 222345Z AUTO 28004KT 10SM CLR 12/02 A3008 880 52 700 280/04 RMK AO2 $
14926KSTC STC20020922175013409/22/02 17:50:31  5-MIN KSTC 222350Z AUTO 28004KT 10SM CLR 11/02 A3008 880 54 700 270/04 RMK AO2 SLP200 T01110022 10144 20111 58008 $
14926KSTC STC20020922175509909/22/02 17:55:31  5-MIN KSTC 222355Z AUTO 28004KT 10SM CLR 11/02 A3008 880 54 700 270/04 RMK AO2 $
14926KSTC STC20020922180009909/22/02 18:00:31  5-MIN KSTC 230000Z AUTO 28005KT 10SM CLR 11/02 A3008 880 54 700 280/05 RMK AO2 $
14926KSTC STC20020922180509909/22/02 18:05:31  5-MIN KSTC 230005Z AUTO 28005KT 10SM CLR 11/02 A3008 880 56 600 270/05 RMK AO2 $
14926KSTC STC20020922181009909/22/02 18:10:31  5-MIN KSTC 230010Z AUTO 27004KT 10SM CLR 11/03 A3008 880 58 600 270/04 RMK AO2 $
14926KSTC STC20020922181509909/22/02 18:15:31  5-MIN KSTC 230015Z AUTO 27004KT 10SM CLR 10/03 A3008 880 60 500 270/04 RMK AO2 $
14926KSTC STC20020922182009909/22/02 18:20:31  5-MIN KSTC 230020Z AUTO 25003KT 10SM CLR 10/03 A3008 880 60 500 250/03 RMK AO2 $
14926KSTC STC20020922182509909/22/02 18:25:31  5-MIN KSTC 230025Z AUTO 00000KT 10SM CLR 10/03 A3008 880 63 500 000/00 RMK AO2 $
14926KSTC STC20020922183009909/22/02 18:30:31  5-MIN KSTC 230030Z AUTO 24003KT 10SM CLR 10/03 A3008 880 63 500 240/03 RMK AO2 $
14926KSTC STC20020922183509909/22/02 18:35:31  5-MIN KSTC 230035Z AUTO 00000KT 10SM CLR 09/04 A3008 880 71 400 000/00 RMK AO2 $
14926KSTC STC20020922184009909/22/02 18:40:31  5-MIN KSTC 230040Z AUTO 00000KT 10SM CLR 08/04 A3008 880 76 300 000/00 RMK AO2 $
14926KSTC STC20020922184509909/22/02 18:45:31  5-MIN KSTC 230045Z AUTO 00000KT 10SM CLR 08/04 A3008 880 73 300 000/00 RMK AO2 $
14926KSTC STC20020922185011609/22/02 18:50:31  5-MIN KSTC 230050Z AUTO 00000KT 10SM CLR 08/05 A3008 880 82 300 000/00 RMK AO2 SLP202 T00780050 $
14926KSTC STC20020922185509909/22/02 18:55:31  5-MIN KSTC 230055Z AUTO 00000KT 10SM CLR 08/04 A3008 880 73 300 000/00 RMK AO2 $
14926KSTC STC20020922190009909/22/02 19:00:31  5-MIN KSTC 230100Z AUTO 00000KT 10SM CLR 08/04 A3008 880 76 300 000/00 RMK AO2 $
14926KSTC STC20020922190509909/22/02 19:05:31  5-MIN KSTC 230105Z AUTO 00000KT 10SM CLR 08/04 A3008 880 79 300 000/00 RMK AO2 $
14926KSTC STC20020922191009909/22/02 19:10:31  5-MIN KSTC 230110Z AUTO 00000KT 10SM CLR 07/04 A3008 880 82 200 000/00 RMK AO2 $
14926KSTC STC20020922191509909/22/02 19:15:31  5-MIN KSTC 230115Z AUTO 00000KT 10SM CLR 07/04 A3009 870 82 200 000/00 RMK AO2 $
14926KSTC STC20020922192009909/22/02 19:20:31  5-MIN KSTC 230120Z AUTO 00000KT 10SM CLR 07/04 A3009 870 82 200 000/00 RMK AO2 $
14926KSTC STC20020922192509909/22/02 19:25:31  5-MIN KSTC 230125Z AUTO 00000KT 10SM CLR 07/04 A3009 870 86 100 000/00 RMK AO2 $
14926KSTC STC20020922193009909/22/02 19:30:31  5-MIN KSTC 230130Z AUTO 00000KT 10SM CLR 07/04 A3009 870 86 100 000/00 RMK AO2 $
14926KSTC STC20020922193509909/22/02 19:35:31  5-MIN KSTC 230135Z AUTO 00000KT 10SM CLR 07/04 A3008 870 86 100 000/00 RMK AO2 $
14926KSTC STC20020922194009909/22/02 19:40:31  5-MIN KSTC 230140Z AUTO 00000KT 10SM CLR 06/04 A3008 880 89 100 000/00 RMK AO2 $
14926KSTC STC20020922194509909/22/02 19:45:31  5-MIN KSTC 230145Z AUTO 00000KT 10SM CLR 06/05 A3008 870 93 100 000/00 RMK AO2 $
14926KSTC STC20020922195011609/22/02 19:50:31  5-MIN KSTC 230150Z AUTO 00000KT 10SM CLR 06/04 A3008 870 89 100 000/00 RMK AO2 SLP203 T00610044 $
14926KSTC STC20020922195509909/22/02 19:55:31  5-MIN KSTC 230155Z AUTO 00000KT 10SM CLR 06/04 A3008 880 89 100 000/00 RMK AO2 $
14926KSTC STC20020922200009709/22/02 20:00:31  5-MIN KSTC 230200Z AUTO 00000KT 10SM CLR 06/05 A3008 880 96 0 000/00 RMK AO2 $
14926KSTC STC20020922200509709/22/02 20:05:31  5-MIN KSTC 230205Z AUTO 00000KT 10SM CLR 06/04 A3008 880 92 0 000/00 RMK AO2 $
14926KSTC STC20020922201009909/22/02 20:10:31  5-MIN KSTC 230210Z AUTO 00000KT 10SM CLR 06/05 A3008 880 93 100 000/00 RMK AO2 $
14926KSTC STC20020922201509709/22/02 20:15:31  5-MIN KSTC 230215Z AUTO 00000KT 10SM CLR 06/05 A3008 880 96 0 000/00 RMK AO2 $
14926KSTC STC20020922202009709/22/02 20:20:31  5-MIN KSTC 230220Z AUTO 00000KT 10SM CLR 05/04 A3008 880 96 0 000/00 RMK AO2 $
14926KSTC STC20020922202509709/22/02 20:25:31  5-MIN KSTC 230225Z AUTO 00000KT 10SM CLR 06/04 A3008 880 92 0 000/00 RMK AO2 $
14926KSTC STC20020922203009709/22/02 20:30:31  5-MIN KSTC 230230Z AUTO 00000KT 10SM CLR 05/04 A3008 880 92 0 000/00 RMK AO2 $
14926KSTC STC20020922203509709/22/02 20:35:31  5-MIN KSTC 230235Z AUTO 00000KT 10SM CLR 05/04 A3008 880 92 0 000/00 RMK AO2 $
14926KSTC STC20020922204009709/22/02 20:40:31  5-MIN KSTC 230240Z AUTO 00000KT 10SM CLR 05/04 A3008 880 92 0 000/00 RMK AO2 $
14926KSTC STC20020922204509709/22/02 20:45:31  5-MIN KSTC 230245Z AUTO 00000KT 10SM CLR 05/04 A3008 880 96 0 000/00 RMK AO2 $
14926KSTC STC20020922205012009/22/02 20:50:31  5-MIN KSTC 230250Z AUTO 00000KT 10SM CLR 05/04 A3008 880 92 0 000/00 RMK AO2 SLP201 T00500039 50001 $
14926KSTC STC20020922205510009/22/02 20:55:31  5-MIN KSTC 230255Z AUTO 00000KT 10SM CLR 04/04 A3008 880 96 -100 000/00 RMK AO2 $
14926KSTC STC20020922210010009/22/02 21:00:31  5-MIN KSTC 230300Z AUTO 00000KT 10SM CLR 04/04 A3008 880 96 -100 000/00 RMK AO2 $
14926KSTC STC20020922210510109/22/02 21:05:31  5-MIN KSTC 230305Z AUTO 00000KT 10SM CLR 04/04 A3008 880 100 -200 000/00 RMK AO2 $
14926KSTC STC20020922211010009/22/02 21:10:31  5-MIN KSTC 230310Z AUTO 00000KT 10SM CLR 04/04 A3008 880 96 -100 000/00 RMK AO2 $
14926KSTC STC20020922211510009/22/02 21:15:31  5-MIN KSTC 230315Z AUTO 00000KT 10SM CLR 04/03 A3008 880 96 -200 000/00 RMK AO2 $
14926KSTC STC20020922212010009/22/02 21:20:31  5-MIN KSTC 230320Z AUTO 00000KT 10SM CLR 04/03 A3008 880 96 -200 000/00 RMK AO2 $
14926KSTC STC20020922212510109/22/02 21:25:31  5-MIN KSTC 230325Z AUTO 00000KT 10SM CLR 04/04 A3008 880 100 -200 000/00 RMK AO2 $
14926KSTC STC20020922213010009/22/02 21:30:31  5-MIN KSTC 230330Z AUTO 00000KT 10SM CLR 04/03 A3008 880 96 -200 000/00 RMK AO2 $
14926KSTC STC20020922213510009/22/02 21:35:31  5-MIN KSTC 230335Z AUTO 00000KT 10SM CLR 04/04 A3007 880 96 -100 000/00 RMK AO2 $
14926KSTC STC20020922214010009/22/02 21:40:31  5-MIN KSTC 230340Z AUTO 00000KT 10SM CLR 04/04 A3007 880 96 -100 000/00 RMK AO2 $
14926KSTC STC20020922214510109/22/02 21:45:31  5-MIN KSTC 230345Z AUTO 00000KT 10SM CLR 04/04 A3008 880 100 -200 000/00 RMK AO2 $
14926KSTC STC20020922215011709/22/02 21:50:31  5-MIN KSTC 230350Z AUTO 00000KT 10SM CLR 04/03 A3008 880 96 -200 000/00 RMK AO2 SLP200 T00390033 $
14926KSTC STC20020922215510109/22/02 21:55:31  5-MIN KSTC 230355Z AUTO 00000KT 10SM CLR 03/03 A3008 880 100 -200 000/00 RMK AO2 $
14926KSTC STC20020922220010009/22/02 22:00:31  5-MIN KSTC 230400Z AUTO 00000KT 10SM CLR 04/03 A3007 880 96 -200 000/00 RMK AO2 $
14926KSTC STC20020922220510009/22/02 22:05:31  5-MIN KSTC 230405Z AUTO 00000KT 10SM CLR 04/03 A3007 890 96 -200 000/00 RMK AO2 $
14926KSTC STC20020922221010009/22/02 22:10:31  5-MIN KSTC 230410Z AUTO 00000KT 10SM CLR 04/03 A3007 890 96 -200 000/00 RMK AO2 $
14926KSTC STC20020922221510109/22/02 22:15:31  5-MIN KSTC 230415Z AUTO 00000KT 10SM CLR 03/03 A3007 890 100 -200 000/00 RMK AO2 $
14926KSTC STC20020922222010109/22/02 22:20:31  5-MIN KSTC 230420Z AUTO 00000KT 10SM CLR 03/03 A3007 890 100 -200 000/00 RMK AO2 $
14926KSTC STC20020922222510009/22/02 22:25:31  5-MIN KSTC 230425Z AUTO 00000KT 10SM CLR 03/03 A3007 880 96 -200 000/00 RMK AO2 $
14926KSTC STC20020922223010009/22/02 22:30:31  5-MIN KSTC 230430Z AUTO 16003KT 10SM CLR 03/03 A3007 890 96 -200 150/03 RMK AO2 $
14926KSTC STC20020922223510109/22/02 22:35:31  5-MIN KSTC 230435Z AUTO 00000KT 10SM CLR 03/03 A3007 890 100 -300 000/00 RMK AO2 $
14926KSTC STC20020922224010009/22/02 22:40:31  5-MIN KSTC 230440Z AUTO 00000KT 10SM CLR 03/02 A3007 890 96 -300 000/00 RMK AO2 $
14926KSTC STC20020922224510109/22/02 22:45:31  5-MIN KSTC 230445Z AUTO 00000KT 10SM CLR 02/02 A3007 890 100 -400 000/00 RMK AO2 $
14926KSTC STC20020922225011809/22/02 22:50:31  5-MIN KSTC 230450Z AUTO 00000KT 10SM CLR 03/03 A3007 890 100 -300 000/00 RMK AO2 SLP199 T00280028 $
14926KSTC STC20020922225510109/22/02 22:55:31  5-MIN KSTC 230455Z AUTO 14003KT 10SM CLR 03/03 A3007 890 100 -300 140/03 RMK AO2 $
14926KSTC STC20020922230010409/22/02 23:00:31  5-MIN KSTC 230500Z AUTO 00000KT 10SM FEW100 03/03 A3007 890 100 -300 000/00 RMK AO2 $
14926KSTC STC20020922230510309/22/02 23:05:31  5-MIN KSTC 230505Z AUTO 00000KT 10SM SCT100 03/03 A3007 890 96 -200 000/00 RMK AO2 $
14926KSTC STC20020922231010409/22/02 23:10:31  5-MIN KSTC 230510Z AUTO 00000KT 10SM BKN100 03/03 A3007 890 100 -200 000/00 RMK AO2 $
14926KSTC STC20020922231510409/22/02 23:15:31  5-MIN KSTC 230515Z AUTO 00000KT 10SM BKN100 03/03 A3007 890 100 -200 000/00 RMK AO2 $
14926KSTC STC20020922232010409/22/02 23:20:31  5-MIN KSTC 230520Z AUTO 00000KT 10SM BKN100 04/04 A3007 890 100 -100 000/00 RMK AO2 $
14926KSTC STC20020922232510409/22/02 23:25:31  5-MIN KSTC 230525Z AUTO 00000KT 10SM OVC100 04/04 A3007 890 100 -100 000/00 RMK AO2 $
14926KSTC STC20020922233010409/22/02 23:30:31  5-MIN KSTC 230530Z AUTO 00000KT 10SM OVC100 04/04 A3007 890 100 -100 000/00 RMK AO2 $
14926KSTC STC20020922233510309/22/02 23:35:31  5-MIN KSTC 230535Z AUTO 00000KT 10SM OVC100 04/04 A3006 900 96 -100 000/00 RMK AO2 $
14926KSTC STC20020922234010309/22/02 23:40:31  5-MIN KSTC 230540Z AUTO 00000KT 10SM OVC100 04/04 A3006 900 96 -100 000/00 RMK AO2 $
14926KSTC STC20020922234510409/22/02 23:45:31  5-MIN KSTC 230545Z AUTO 00000KT 10SM OVC100 04/04 A3006 900 100 -100 000/00 RMK AO2 $
14926KSTC STC20020922235014909/22/02 23:50:31  5-MIN KSTC 230550Z AUTO 00000KT 10SM OVC100 04/04 A3006 900 100 -100 000/00 RMK AO2 SLP194 T00440044 10111 20022 401440022 58000 $
14926KSTC STC20020922235510309/22/02 23:55:31  5-MIN KSTC 230555Z AUTO 00000KT 10SM BKN100 04/04 A3006 900 96 -100 000/00 RMK AO2 $
14926KSTC STC20020923000010309/23/02 00:00:31  5-MIN KSTC 230600Z AUTO 00000KT 10SM BKN100 04/04 A3006 900 96 -100 000/00 RMK AO2 $
14926KSTC STC20020923000510409/23/02 00:05:31  5-MIN KSTC 230605Z AUTO 00000KT 10SM SCT100 04/04 A3006 900 100 -100 000/00 RMK AO2 $
14926KSTC STC20020923001010409/23/02 00:10:31  5-MIN KSTC 230610Z AUTO 15003KT 10SM FEW100 04/04 A3006 900 100 -100 150/03 RMK AO2 $
14926KSTC STC20020923001510409/23/02 00:15:31  5-MIN KSTC 230615Z AUTO 15003KT 10SM FEW110 04/04 A3006 900 100 -100 150/03 RMK AO2 $
14926KSTC STC20020923002010109/23/02 00:20:31  5-MIN KSTC 230620Z AUTO 15004KT 10SM CLR 04/04 A3006 900 100 -100 140/04 RMK AO2 $
14926KSTC STC20020923002510409/23/02 00:25:31  5-MIN KSTC 230625Z AUTO 14004KT 10SM FEW120 04/04 A3005 900 100 -100 140/04 RMK AO2 $
14926KSTC STC20020923003010309/23/02 00:30:31  5-MIN KSTC 230630Z AUTO 14003KT 10SM SCT110 04/04 A3005 900 96 -100 140/03 RMK AO2 $
14926KSTC STC20020923003510309/23/02 00:35:31  5-MIN KSTC 230635Z AUTO 00000KT 10SM SCT110 04/04 A3005 900 96 -100 000/00 RMK AO2 $
14926KSTC STC20020923004010709/23/02 00:40:31  5-MIN KSTC 230640Z AUTO 14003KT 10SM BKN100 BKN120 05/04 A3005 900 96 0 140/03 RMK AO2 $
14926KSTC STC20020923004510709/23/02 00:45:31  5-MIN KSTC 230645Z AUTO 14004KT 10SM BKN090 BKN110 05/04 A3005 910 96 0 140/04 RMK AO2 $
14926KSTC STC20020923005012409/23/02 00:50:31  5-MIN KSTC 230650Z AUTO 14003KT 10SM BKN100 BKN120 06/04 A3005 910 92 0 130/03 RMK AO2 SLP188 T00560044 $
14926KSTC STC20020923005510709/23/02 00:55:31  5-MIN KSTC 230655Z AUTO 14004KT 10SM BKN100 BKN120 06/05 A3004 910 96 0 140/04 RMK AO2 $
14926KSTC STC20020923010010009/23/02 01:00:31  5-MIN KSTC 230700Z AUTO 15005KT 10SM OVC110 06/05 A3005 910 96 0 150/05 RMK AO2 $
14926KSTC STC20020923010510009/23/02 01:05:31  5-MIN KSTC 230705Z AUTO 16005KT 10SM OVC110 06/05 A3005 910 96 0 160/05 RMK AO2 $
14926KSTC STC20020923011010009/23/02 01:10:31  5-MIN KSTC 230710Z AUTO 16006KT 10SM OVC110 06/05 A3005 910 96 0 160/06 RMK AO2 $
14926KSTC STC20020923011510709/23/02 01:15:31  5-MIN KSTC 230715Z AUTO 15005KT 10SM SCT080 OVC120 06/05 A3005 910 96 0 150/05 RMK AO2 $
14926KSTC STC20020923012010709/23/02 01:20:31  5-MIN KSTC 230720Z AUTO 13003KT 10SM BKN080 OVC120 06/05 A3005 910 96 0 130/03 RMK AO2 $
14926KSTC STC20020923012510909/23/02 01:25:31  5-MIN KSTC 230725Z AUTO 00000KT 10SM BKN085 OVC120 06/05 A3005 910 93 100 000/00 RMK AO2 $
14926KSTC STC20020923013010909/23/02 01:30:31  5-MIN KSTC 230730Z AUTO 02003KT 10SM BKN085 OVC120 06/05 A3005 910 93 100 010/03 RMK AO2 $
14926KSTC STC20020923013510209/23/02 01:35:31  5-MIN KSTC 230735Z AUTO 00000KT 10SM OVC085 06/06 A3005 900 96 100 000/00 RMK AO2 $
14926KSTC STC20020923014010209/23/02 01:40:31  5-MIN KSTC 230740Z AUTO 00000KT 10SM OVC080 06/06 A3005 900 96 100 000/00 RMK AO2 $
14926KSTC STC20020923014510909/23/02 01:45:31  5-MIN KSTC 230745Z AUTO 00000KT 10SM BKN070 OVC085 07/06 A3005 910 93 200 000/00 RMK AO2 $
14926KSTC STC20020923015012609/23/02 01:50:31  5-MIN KSTC 230750Z AUTO 00000KT 10SM BKN070 OVC090 07/06 A3005 910 93 200 000/00 RMK AO2 SLP188 T00670056 $
14926KSTC STC20020923015510209/23/02 01:55:31  5-MIN KSTC 230755Z AUTO 00000KT 10SM OVC065 07/06 A3005 910 96 200 000/00 RMK AO2 $
14926KSTC STC20020923020010209/23/02 02:00:31  5-MIN KSTC 230800Z AUTO 08003KT 10SM OVC065 07/06 A3004 910 96 200 080/03 RMK AO2 $
14926KSTC STC20020923020510209/23/02 02:05:31  5-MIN KSTC 230805Z AUTO 09004KT 10SM OVC060 07/06 A3004 910 93 200 080/04 RMK AO2 $
14926KSTC STC20020923021010909/23/02 02:10:31  5-MIN KSTC 230810Z AUTO 00000KT 10SM BKN055 OVC070 07/06 A3004 910 93 200 000/00 RMK AO2 $
14926KSTC STC20020923021510909/23/02 02:15:31  5-MIN KSTC 230815Z AUTO 00000KT 10SM BKN060 OVC075 07/06 A3004 910 93 200 000/00 RMK AO2 $
14926KSTC STC20020923022010909/23/02 02:20:31  5-MIN KSTC 230820Z AUTO 00000KT 10SM BKN060 OVC075 07/06 A3004 920 93 200 000/00 RMK AO2 $
14926KSTC STC20020923022509809/23/02 02:25:31  5-MIN KSTC 230825Z AUTO 13004KT 10SM BKN060 OVC085 A3004 M M M 130/04 RMK AO2 $
14926KSTC STC20020923023009809/23/02 02:30:31  5-MIN KSTC 230830Z AUTO 12004KT 10SM SCT060 OVC085 A3003 M M M 120/04 RMK AO2 $
14926KSTC STC20020923023509809/23/02 02:35:31  5-MIN KSTC 230835Z AUTO 11004KT 10SM FEW060 OVC080 A3003 M M M 110/04 RMK AO2 $
14926KSTC STC20020923024009809/23/02 02:40:31  5-MIN KSTC 230840Z AUTO 11005KT 10SM BKN080 OVC090 A3003 M M M 110/05 RMK AO2 $
14926KSTC STC20020923024509109/23/02 02:45:31  5-MIN KSTC 230845Z AUTO 11006KT 10SM OVC085 A3002 M M M 100/06 RMK AO2 $
14926KSTC STC20020923025010309/23/02 02:50:31  5-MIN KSTC 230850Z AUTO 10005KT 10SM OVC085 A3002 M M M 100/05 RMK AO2 SLPNO 58007 $
14926KSTC STC20020923025509109/23/02 02:55:31  5-MIN KSTC 230855Z AUTO 11005KT 10SM OVC085 A3002 M M M 110/05 RMK AO2 $
14926KSTC STC20020923030009109/23/02 03:00:31  5-MIN KSTC 230900Z AUTO 13004KT 10SM OVC080 A3003 M M M 130/04 RMK AO2 $
14926KSTC STC20020923030509809/23/02 03:05:31  5-MIN KSTC 230905Z AUTO 18003KT 10SM BKN075 OVC090 A3003 M M M 180/03 RMK AO2 $
14926KSTC STC20020923031009809/23/02 03:10:31  5-MIN KSTC 230910Z AUTO 19003KT 10SM BKN075 OVC090 A3003 M M M 190/03 RMK AO2 $
14926KSTC STC20020923031509109/23/02 03:15:31  5-MIN KSTC 230915Z AUTO 00000KT 10SM OVC075 A3003 M M M 000/00 RMK AO2 $
14926KSTC STC20020923032009109/23/02 03:20:31  5-MIN KSTC 230920Z AUTO 00000KT 10SM OVC075 A3002 M M M 000/00 RMK AO2 $
14926KSTC STC20020923032509109/23/02 03:25:31  5-MIN KSTC 230925Z AUTO 00000KT 10SM OVC070 A3002 M M M 000/00 RMK AO2 $
14926KSTC STC20020923033009109/23/02 03:30:31  5-MIN KSTC 230930Z AUTO 00000KT 10SM OVC070 A3002 M M M 000/00 RMK AO2 $
14926KSTC STC20020923033511409/23/02 03:35:31  5-MIN KSTC 230935Z AUTO 00000KT 10SM -RA FEW055 OVC070 A3002 M M M 000/00 RMK AO2 RAB33 P0000 $
14926KSTC STC20020923034011409/23/02 03:40:31  5-MIN KSTC 230940Z AUTO 05004KT 10SM -RA SCT050 OVC070 A3001 M M M 050/04 RMK AO2 RAB33 P0000 $
14926KSTC STC20020923034510709/23/02 03:45:31  5-MIN KSTC 230945Z AUTO 00000KT 10SM -RA OVC065 A3001 M M M 000/00 RMK AO2 RAB33 P0000 $
14926KSTC STC20020923035011909/23/02 03:50:31  5-MIN KSTC 230950Z AUTO 00000KT 10SM FEW050 OVC065 A3000 M M M 000/00 RMK AO2 RAB33E49 SLPNO P0000 $
14926KSTC STC20020923035509809/23/02 03:55:31  5-MIN KSTC 230955Z AUTO 00000KT 10SM FEW047 OVC065 A3000 M M M 000/00 RMK AO2 $
14926KSTC STC20020923040009809/23/02 04:00:31  5-MIN KSTC 231000Z AUTO 12005KT 10SM SCT045 OVC065 A3000 M M M 120/05 RMK AO2 $
14926KSTC STC20020923040511409/23/02 04:05:31  5-MIN KSTC 231005Z AUTO 13005KT 10SM -RA SCT043 OVC065 A3000 M M M 120/05 RMK AO2 RAB03 P0000 $
14926KSTC STC20020923041011409/23/02 04:10:31  5-MIN KSTC 231010Z AUTO 16006KT 10SM -RA BKN043 OVC060 A3000 M M M 150/06 RMK AO2 RAB03 P0000 $
14926KSTC STC20020923041511409/23/02 04:15:31  5-MIN KSTC 231015Z AUTO 14005KT 10SM -RA BKN039 OVC065 A2999 M M M 140/05 RMK AO2 RAB03 P0001 $
14926KSTC STC20020923042012009/23/02 04:20:31  5-MIN KSTC 231020Z AUTO 13005KT 9SM -RA BKN039 BKN049 OVC060 A2999 M M M 130/05 RMK AO2 RAB03 P0002 $
14926KSTC STC20020923042511209/23/02 04:25:31  5-MIN KSTC 231025Z AUTO 13006KT 8SM RA BKN039 OVC049 A2998 M M M 120/06 RMK AO2 RAB03 P0003 $
14926KSTC STC20020923043011309/23/02 04:30:31  5-MIN KSTC 231030Z AUTO 12006KT 8SM -RA BKN039 OVC049 A2998 M M M 110/06 RMK AO2 RAB03 P0004 $
14926KSTC STC20020923043511409/23/02 04:35:31  5-MIN KSTC 231035Z AUTO 11007KT 10SM -RA SCT039 OVC049 A2997 M M M 110/07 RMK AO2 RAB03 P0005 $
14926KSTC STC20020923044011409/23/02 04:40:31  5-MIN KSTC 231040Z AUTO 12006KT 10SM -RA SCT037 OVC049 A2997 M M M 120/06 RMK AO2 RAB03 P0005 $
14926KSTC STC20020923044511409/23/02 04:45:31  5-MIN KSTC 231045Z AUTO 13007KT 10SM -RA FEW037 OVC049 A2998 M M M 130/07 RMK AO2 RAB03 P0005 $
14926KSTC STC20020923045011909/23/02 04:50:31  5-MIN KSTC 231050Z AUTO 14006KT 9SM -RA FEW034 OVC049 A2997 M M M 130/06 RMK AO2 RAB03 SLPNO P0006 $
14926KSTC STC20020923045511409/23/02 04:55:31  5-MIN KSTC 231055Z AUTO 13008KT 8SM -RA FEW034 BKN049 OVC060 A2996 M M M 130/08 RMK AO2 P0000 $
14926KSTC STC20020923050010709/23/02 05:00:31  5-MIN KSTC 231100Z AUTO 13009KT 8SM -RA FEW036 OVC049 A2996 M M M 120/09 RMK AO2 P0001 $
14926KSTC STC20020923050512009/23/02 05:05:31  5-MIN KSTC 231105Z AUTO 12009KT 7SM RA FEW031 BKN049 OVC055 A2994 M M M 120/09 RMK AO2 PRESFR P0003 $
14926KSTC STC20020923051011409/23/02 05:10:31  5-MIN KSTC 231110Z AUTO 12011KT 8SM -RA FEW029 BKN049 OVC090 A2994 M M M 120/11 RMK AO2 P0004 $
14926KSTC STC20020923051511509/23/02 05:15:31  5-MIN KSTC 231115Z AUTO 13011KT 10SM -RA FEW029 BKN055 OVC090 A2993 M M M 120/11 RMK AO2 P0004 $
14926KSTC STC20020923052011509/23/02 05:20:31  5-MIN KSTC 231120Z AUTO 14013KT 10SM -RA FEW029 SCT055 OVC090 A2993 M M M 130/13 RMK AO2 P0004 $
14926KSTC STC20020923052511009/23/02 05:25:31  5-MIN KSTC 231125Z AUTO 13011KT 10SM FEW029 OVC090 A2992 M M M 130/11 RMK AO2 RAE24 P0004 $
14926KSTC STC20020923053011709/23/02 05:30:31  5-MIN KSTC 231130Z AUTO 12007KT 10SM FEW025 SCT070 OVC090 A2992 M M M 120/07 RMK AO2 RAE24 P0004 $
14926KSTC STC20020923053511709/23/02 05:35:31  5-MIN KSTC 231135Z AUTO 12008KT 10SM FEW060 BKN075 OVC090 A2992 M M M 120/08 RMK AO2 RAE24 P0004 $
14926KSTC STC20020923054011009/23/02 05:40:31  5-MIN KSTC 231140Z AUTO 13008KT 10SM BKN065 OVC090 A2992 M M M 120/08 RMK AO2 RAE24 P0004 $
14926KSTC STC20020923054511709/23/02 05:45:31  5-MIN KSTC 231145Z AUTO 12007KT 10SM FEW047 BKN065 OVC080 A2992 M M M 120/07 RMK AO2 RAE24 P0004 $
14926KSTC STC20020923055014809/23/02 05:50:31  5-MIN KSTC 231150Z AUTO 12009KT 10SM -RA SCT055 BKN070 OVC090 A2992 M M M 120/09 RMK AO2 RAE24B48 SLPNO P0004 60011 70011 58012 $
14926KSTC STC20020923055510809/23/02 05:55:31  5-MIN KSTC 231155Z AUTO 12008KT 10SM -RA FEW055 OVC075 A2991 M M M 120/08 RMK AO2 P0000 $
14926KSTC STC20020923060011209/23/02 06:00:31  5-MIN KSTC 231200Z AUTO 13008KT 10SM FEW055 OVC075 A2991 M M M 120/08 RMK AO2 RAE1159 P0000 $
14926KSTC STC20020923060511209/23/02 06:05:31  5-MIN KSTC 231205Z AUTO 12008KT 10SM FEW060 OVC075 A2991 M M M 120/08 RMK AO2 RAE1159 P0000 $
14926KSTC STC20020923061011209/23/02 06:10:31  5-MIN KSTC 231210Z AUTO 13008KT 10SM FEW060 OVC075 A2991 M M M 130/08 RMK AO2 RAE1159 P0000 $
14926KSTC STC20020923061510109/23/02 06:15:31  5-MIN KSTC 231215Z AUTO 13006KT 10SM -RA OVC070 A2991 M M M 130/06 RMK AO2 P0000 $
14926KSTC STC20020923062010809/23/02 06:20:31  5-MIN KSTC 231220Z AUTO 13005KT 10SM -RA BKN065 OVC080 A2991 M M M 130/05 RMK AO2 P0000 $
14926KSTC STC20020923062510809/23/02 06:25:31  5-MIN KSTC 231225Z AUTO 13004KT 10SM -RA BKN065 OVC080 A2991 M M M 130/04 RMK AO2 P0000 $
14926KSTC STC20020923063010809/23/02 06:30:31  5-MIN KSTC 231230Z AUTO 15006KT 10SM -RA BKN065 OVC080 A2991 M M M 140/06 RMK AO2 P0000 $
14926KSTC STC20020923063510309/23/02 06:35:31  5-MIN KSTC 231235Z AUTO 16006KT 10SM OVC070 A2991 M M M 160/06 RMK AO2 RAE31 P0000 $
14926KSTC STC20020923064011509/23/02 06:40:31  5-MIN KSTC 231240Z AUTO 18006KT 10SM OVC070 08/07 A2991 1040 93 500 170/06 RMK AO2 RAE31 P0000 $
14926KSTC STC20020923064511509/23/02 06:45:31  5-MIN KSTC 231245Z AUTO 19005KT 10SM OVC065 08/07 A2991 1030 93 500 190/05 RMK AO2 RAE31 P0000 $
14926KSTC STC20020923065013209/23/02 06:50:31  5-MIN KSTC 231250Z AUTO 20005KT 10SM OVC065 08/07 A2992 1030 93 400 190/05 RMK AO2 RAE31 SLP144 P0000 T00780067 $
14926KSTC STC20020923065510309/23/02 06:55:31  5-MIN KSTC 231255Z AUTO 18004KT 10SM OVC065 08/07 A2992 1030 96 400 180/04 RMK AO2 $
14926KSTC STC20020923070010309/23/02 07:00:31  5-MIN KSTC 231300Z AUTO 00000KT 10SM OVC065 08/07 A2992 1030 96 400 000/00 RMK AO2 $
14926KSTC STC20020923070511909/23/02 07:05:31  5-MIN KSTC 231305Z AUTO 00000KT 10SM -RA OVC065 08/07 A2992 1030 96 400 000/00 RMK AO2 RAB02 P0001 $
14926KSTC STC20020923071011909/23/02 07:10:31  5-MIN KSTC 231310Z AUTO 00000KT 10SM -RA OVC065 08/07 A2991 1030 96 500 000/00 RMK AO2 RAB02 P0001 $
14926KSTC STC20020923071511809/23/02 07:15:31  5-MIN KSTC 231315Z AUTO 00000KT 10SM OVC065 08/07 A2991 1040 96 500 000/00 RMK AO2 RAB02E13 P0001 $
14926KSTC STC20020923072011809/23/02 07:20:31  5-MIN KSTC 231320Z AUTO 03003KT 10SM OVC065 08/07 A2991 1040 96 500 030/03 RMK AO2 RAB02E13 P0001 $
14926KSTC STC20020923072512509/23/02 07:25:31  5-MIN KSTC 231325Z AUTO 00000KT 10SM BKN065 OVC080 08/07 A2991 1040 96 500 000/00 RMK AO2 RAB02E13 P0001 $
14926KSTC STC20020923073012509/23/02 07:30:31  5-MIN KSTC 231330Z AUTO 08003KT 10SM BKN065 BKN080 08/07 A2990 1040 96 500 080/03 RMK AO2 RAB02E13 P0001 $
14926KSTC STC20020923073512509/23/02 07:35:31  5-MIN KSTC 231335Z AUTO 00000KT 10SM BKN065 BKN080 08/08 A2990 1040 96 500 000/00 RMK AO2 RAB02E13 P0001 $
14926KSTC STC20020923074012509/23/02 07:40:31  5-MIN KSTC 231340Z AUTO 08003KT 10SM SCT065 BKN080 08/08 A2990 1050 96 500 080/03 RMK AO2 RAB02E13 P0001 $
14926KSTC STC20020923074512509/23/02 07:45:31  5-MIN KSTC 231345Z AUTO 10003KT 10SM FEW060 SCT075 09/08 A2990 1050 93 600 090/03 RMK AO2 RAB02E13 P0001 $
14926KSTC STC20020923075013509/23/02 07:50:31  5-MIN KSTC 231350Z AUTO 00000KT 10SM SCT075 09/08 A2990 1050 96 600 000/00 RMK AO2 RAB02E13 SLP138 P0001 T00890083 $
14926KSTC STC20020923075510309/23/02 07:55:31  5-MIN KSTC 231355Z AUTO 00000KT 10SM SCT070 09/08 A2990 1050 96 600 000/00 RMK AO2 $
14926KSTC STC20020923080010309/23/02 08:00:31  5-MIN KSTC 231400Z AUTO 00000KT 10SM SCT070 09/08 A2990 1050 96 600 000/00 RMK AO2 $
14926KSTC STC20020923080510309/23/02 08:05:31  5-MIN KSTC 231405Z AUTO 18005KT 10SM FEW070 09/08 A2990 1050 96 600 170/05 RMK AO2 $
14926KSTC STC20020923081009109/23/02 08:10:31  5-MIN KSTC 231410Z AUTO 17005KT 10SM FEW070 A2990 M M M 160/05 RMK AO2 $
14926KSTC STC20020923081509109/23/02 08:15:31  5-MIN KSTC 231415Z AUTO 19003KT 10SM FEW070 A2990 M M M 190/03 RMK AO2 $
14926KSTC STC20020923082009109/23/02 08:20:31  5-MIN KSTC 231420Z AUTO 23004KT 10SM FEW075 A2990 M M M 220/04 RMK AO2 $
14926KSTC STC20020923082508809/23/02 08:25:31  5-MIN KSTC 231425Z AUTO 24005KT 10SM CLR A2990 M M M 240/05 RMK AO2 $
14926KSTC STC20020923083009109/23/02 08:30:31  5-MIN KSTC 231430Z AUTO 23006KT 10SM FEW070 A2990 M M M 230/06 RMK AO2 $
14926KSTC STC20020923083509109/23/02 08:35:31  5-MIN KSTC 231435Z AUTO VRB06KT 10SM SCT070 A2990 M M M VRB/06 RMK AO2 $
14926KSTC STC20020923084009109/23/02 08:40:31  5-MIN KSTC 231440Z AUTO 25009KT 10SM SCT065 A2990 M M M 250/09 RMK AO2 $
14926KSTC STC20020923084509109/23/02 08:45:31  5-MIN KSTC 231445Z AUTO 26010KT 10SM BKN065 A2990 M M M 260/10 RMK AO2 $
14926KSTC STC20020923085010909/23/02 08:50:31  5-MIN KSTC 231450Z AUTO 28009KT 10SM BKN065 A2990 M M M 280/09 RMK AO2 SLPNO 60001 58036 $
14926KSTC STC20020923085509109/23/02 08:55:31  5-MIN KSTC 231455Z AUTO 29009KT 10SM BKN065 A2991 M M M 280/09 RMK AO2 $
14926KSTC STC20020923090009109/23/02 09:00:31  5-MIN KSTC 231500Z AUTO 28009KT 10SM BKN065 A2991 M M M 280/09 RMK AO2 $
14926KSTC STC20020923090509109/23/02 09:05:31  5-MIN KSTC 231505Z AUTO 29011KT 10SM SCT060 A2991 M M M 290/11 RMK AO2 $
14926KSTC STC20020924071509809/24/02 07:15:31  5-MIN KSTC 241315Z AUTO 13003KT 9SM CLR 02/02 A3026 720 100 -600 130/03 RMK AO2
14926KSTC STC20020924072009809/24/02 07:20:31  5-MIN KSTC 241320Z AUTO 00000KT 9SM CLR 02/02 A3026 720 100 -600 000/00 RMK AO2
14926KSTC STC20020924072509809/24/02 07:25:31  5-MIN KSTC 241325Z AUTO 00000KT 8SM CLR 03/03 A3026 720 100 -500 000/00 RMK AO2
14926KSTC STC20020924073009809/24/02 07:30:31  5-MIN KSTC 241330Z AUTO 16003KT 8SM CLR 03/03 A3026 720 100 -400 160/03 RMK AO2
14926KSTC STC20020924073509809/24/02 07:35:31  5-MIN KSTC 241335Z AUTO 15004KT 8SM CLR 03/03 A3026 720 100 -400 150/04 RMK AO2
14926KSTC STC20020924074010409/24/02 07:40:31  5-MIN KSTC 241340Z AUTO 16003KT 6SM BR FEW001 03/03 A3026 720 100 -400 150/03 RMK AO2
14926KSTC STC20020924074510409/24/02 07:45:31  5-MIN KSTC 241345Z AUTO 16005KT 6SM BR FEW001 03/03 A3026 710 100 -400 150/05 RMK AO2
14926KSTC STC20020924075011809/24/02 07:50:31  5-MIN KSTC 241350Z AUTO 15004KT 9SM FEW001 04/04 A3026 710 100 -400 140/04 RMK AO2 SLP264 T00390039
14926KSTC STC20020924075509809/24/02 07:55:31  5-MIN KSTC 241355Z AUTO VRB03KT 10SM CLR 04/04 A3026 710 96 -300 VRB/03 RMK AO2
14926KSTC STC20020924080009809/24/02 08:00:31  5-MIN KSTC 241400Z AUTO 17003KT 10SM CLR 05/04 A3027 710 96 -200 160/03 RMK AO2
14926KSTC STC20020924080509809/24/02 08:05:31  5-MIN KSTC 241405Z AUTO 18004KT 10SM CLR 06/05 A3027 710 96 -200 180/04 RMK AO2
14926KSTC STC20020924081009809/24/02 08:10:31  5-MIN KSTC 241410Z AUTO 17004KT 10SM CLR 06/06 A3027 710 96 -100 170/04 RMK AO2
14926KSTC STC20020924081509509/24/02 08:15:31  5-MIN KSTC 241415Z AUTO 19005KT 10SM CLR 07/06 A3027 710 93 0 180/05 RMK AO2
14926KSTC STC20020924082009509/24/02 08:20:31  5-MIN KSTC 241420Z AUTO 18005KT 10SM CLR 07/05 A3027 710 89 0 180/05 RMK AO2
14926KSTC STC20020924082509509/24/02 08:25:31  5-MIN KSTC 241425Z AUTO 18006KT 10SM CLR 07/05 A3027 700 86 0 180/06 RMK AO2
14926KSTC STC20020924083009509/24/02 08:30:31  5-MIN KSTC 241430Z AUTO 19006KT 10SM CLR 08/05 A3027 710 82 0 180/06 RMK AO2
14926KSTC STC20020924083509709/24/02 08:35:31  5-MIN KSTC 241435Z AUTO 19008KT 10SM CLR 08/05 A3027 710 79 100 190/08 RMK AO2
14926KSTC STC20020924084009709/24/02 08:40:31  5-MIN KSTC 241440Z AUTO 19008KT 10SM CLR 08/04 A3027 710 76 100 190/08 RMK AO2
14926KSTC STC20020924084509709/24/02 08:45:31  5-MIN KSTC 241445Z AUTO 20009KT 10SM CLR 08/04 A3027 710 76 100 200/09 RMK AO2
14926KSTC STC20020924085012009/24/02 08:50:31  5-MIN KSTC 241450Z AUTO 20008KT 10SM CLR 09/04 A3027 710 73 200 190/08 RMK AO2 SLP266 T00890044 53001
14926KSTC STC20020924085511309/24/02 08:55:31  5-MIN KSTC 241455Z AUTO 19008KT 150V220 10SM CLR 09/05 A3027 710 76 200 180/08 150V220 RMK AO2
14926KSTC STC20020924090009709/24/02 09:00:31  5-MIN KSTC 241500Z AUTO 18007KT 10SM CLR 09/04 A3026 710 71 300 180/07 RMK AO2
14926KSTC STC20020924090509709/24/02 09:05:31  5-MIN KSTC 241505Z AUTO 18008KT 10SM CLR 09/04 A3026 710 71 300 180/08 RMK AO2
14926KSTC STC20020924091009709/24/02 09:10:31  5-MIN KSTC 241510Z AUTO 17008KT 10SM CLR 09/04 A3026 710 68 300 170/08 RMK AO2
14926KSTC STC20020924091509709/24/02 09:15:31  5-MIN KSTC 241515Z AUTO 17010KT 10SM CLR 10/04 A3026 720 65 300 170/10 RMK AO2
14926KSTC STC20020924092009709/24/02 09:20:31  5-MIN KSTC 241520Z AUTO 17010KT 10SM CLR 10/03 A3025 720 63 300 170/10 RMK AO2
14926KSTC STC20020924092509709/24/02 09:25:31  5-MIN KSTC 241525Z AUTO 19011KT 10SM CLR 11/04 A3026 720 63 400 190/11 RMK AO2
14926KSTC STC20020924093009709/24/02 09:30:31  5-MIN KSTC 241530Z AUTO 19012KT 10SM CLR 11/03 A3026 720 61 400 190/12 RMK AO2
14926KSTC STC20020924093509709/24/02 09:35:31  5-MIN KSTC 241535Z AUTO 19012KT 10SM CLR 11/03 A3026 720 61 400 190/12 RMK AO2
14926KSTC STC20020924094009709/24/02 09:40:31  5-MIN KSTC 241540Z AUTO 20010KT 10SM CLR 11/03 A3025 720 61 400 200/10 RMK AO2
14926KSTC STC20020924094509709/24/02 09:45:31  5-MIN KSTC 241545Z AUTO 19011KT 10SM CLR 11/03 A3025 720 58 500 180/11 RMK AO2
14926KSTC STC20020924095011409/24/02 09:50:31  5-MIN KSTC 241550Z AUTO 20011KT 10SM CLR 11/03 A3025 730 58 500 190/11 RMK AO2 SLP257 T01110033
14926KSTC STC20020924095509709/24/02 09:55:31  5-MIN KSTC 241555Z AUTO 20010KT 10SM CLR 12/03 A3025 730 56 500 200/10 RMK AO2
14926KSTC STC20020924100009709/24/02 10:00:31  5-MIN KSTC 241600Z AUTO 18010KT 10SM CLR 12/03 A3025 730 56 500 180/10 RMK AO2
14926KSTC STC20020924100509709/24/02 10:05:31  5-MIN KSTC 241605Z AUTO 19009KT 10SM CLR 12/03 A3025 730 56 500 180/09 RMK AO2
14926KSTC STC20020924101009709/24/02 10:10:31  5-MIN KSTC 241610Z AUTO 19008KT 10SM CLR 12/03 A3025 720 54 500 180/08 RMK AO2
14926KSTC STC20020924101509709/24/02 10:15:31  5-MIN KSTC 241615Z AUTO 18013KT 10SM CLR 12/03 A3025 720 56 500 180/13 RMK AO2
14926KSTC STC20020924102010309/24/02 10:20:31  5-MIN KSTC 241620Z AUTO 21009G15KT 10SM CLR 12/03 A3025 730 52 600 200/09G15 RMK AO2
14926KSTC STC20020924102509709/24/02 10:25:31  5-MIN KSTC 241625Z AUTO 21011KT 10SM CLR 12/02 A3024 730 50 600 210/11 RMK AO2
14926KSTC STC20020924103009709/24/02 10:30:31  5-MIN KSTC 241630Z AUTO 18009KT 10SM CLR 13/03 A3024 730 50 700 180/09 RMK AO2
14926KSTC STC20020924103510009/24/02 10:35:31  5-MIN KSTC 241635Z AUTO 18013KT 10SM FEW090 12/03 A3024 730 54 500 180/13 RMK AO2
14926KSTC STC20020924104010009/24/02 10:40:31  5-MIN KSTC 241640Z AUTO 19008KT 10SM FEW090 12/03 A3024 730 52 600 190/08 RMK AO2
14926KSTC STC20020924104510009/24/02 10:45:31  5-MIN KSTC 241645Z AUTO 22010KT 10SM FEW090 13/03 A3024 730 50 700 210/10 RMK AO2
14926KSTC STC20020924105011709/24/02 10:50:31  5-MIN KSTC 241650Z AUTO 20009KT 10SM FEW090 13/03 A3024 740 50 800 190/09 RMK AO2 SLP253 T01330033
14926KSTC STC20020924105510009/24/02 10:55:31  5-MIN KSTC 241655Z AUTO 19011KT 10SM FEW090 13/03 A3023 740 48 800 180/11 RMK AO2
14926KSTC STC20020924110010009/24/02 11:00:31  5-MIN KSTC 241700Z AUTO 18014KT 10SM SCT095 13/02 A3023 740 46 700 180/14 RMK AO2
14926KSTC STC20020924110510009/24/02 11:05:31  5-MIN KSTC 241705Z AUTO 19011KT 10SM SCT090 12/02 A3023 740 50 600 180/11 RMK AO2
14926KSTC STC20020924111010009/24/02 11:10:31  5-MIN KSTC 241710Z AUTO 18013KT 10SM BKN090 13/02 A3023 740 48 700 180/13 RMK AO2
14926KSTC STC20020924111510009/24/02 11:15:31  5-MIN KSTC 241715Z AUTO 20011KT 10SM BKN090 12/02 A3023 740 50 600 200/11 RMK AO2
14926KSTC STC20020924112010009/24/02 11:20:31  5-MIN KSTC 241720Z AUTO 19011KT 10SM BKN090 12/02 A3022 750 50 600 180/11 RMK AO2
14926KSTC STC20020924112510009/24/02 11:25:31  5-MIN KSTC 241725Z AUTO 18011KT 10SM OVC090 13/02 A3023 740 48 700 180/11 RMK AO2
14926KSTC STC20020924113010009/24/02 11:30:31  5-MIN KSTC 241730Z AUTO 18012KT 10SM OVC085 13/02 A3022 750 48 700 170/12 RMK AO2
14926KSTC STC20020924113510009/24/02 11:35:31  5-MIN KSTC 241735Z AUTO 17012KT 10SM OVC085 12/02 A3022 750 50 600 160/12 RMK AO2
14926KSTC STC20020924114010009/24/02 11:40:31  5-MIN KSTC 241740Z AUTO 18011KT 10SM OVC080 13/02 A3021 760 46 700 180/11 RMK AO2
14926KSTC STC20020924114510009/24/02 11:45:31  5-MIN KSTC 241745Z AUTO 18012KT 10SM OVC080 12/01 A3021 760 46 600 180/12 RMK AO2
14926KSTC STC20020924115013509/24/02 11:50:31  5-MIN KSTC 241750Z AUTO 18009KT 10SM OVC080 12/02 A3021 760 48 700 170/09 RMK AO2 SLP244 T01220017 10133 21011 53003
14926KSTC STC20020924115510009/24/02 11:55:31  5-MIN KSTC 241755Z AUTO 17011KT 10SM OVC085 13/02 A3020 770 46 700 170/11 RMK AO2
14926KSTC STC20020924120010009/24/02 12:00:31  5-MIN KSTC 241800Z AUTO 19011KT 10SM OVC085 13/02 A3020 770 46 700 190/11 RMK AO2
14926KSTC STC20020924120510009/24/02 12:05:31  5-MIN KSTC 241805Z AUTO 17011KT 10SM OVC090 13/02 A3020 770 46 700 170/11 RMK AO2
14926KSTC STC20020924121010009/24/02 12:10:31  5-MIN KSTC 241810Z AUTO 17010KT 10SM OVC090 13/02 A3019 780 46 700 170/10 RMK AO2
14926KSTC STC20020924121510009/24/02 12:15:31  5-MIN KSTC 241815Z AUTO 18012KT 10SM OVC090 13/02 A3019 780 46 700 170/12 RMK AO2
14926KSTC STC20020924122010009/24/02 12:20:31  5-MIN KSTC 241820Z AUTO 18011KT 10SM OVC090 13/01 A3019 780 44 700 180/11 RMK AO2
14926KSTC STC20020924122510009/24/02 12:25:31  5-MIN KSTC 241825Z AUTO 18012KT 10SM OVC095 13/02 A3019 780 45 800 180/12 RMK AO2
14926KSTC STC20020924123010009/24/02 12:30:31  5-MIN KSTC 241830Z AUTO 17009KT 10SM BKN095 14/02 A3019 780 43 900 160/09 RMK AO2
14926KSTC STC20020924123510009/24/02 12:35:31  5-MIN KSTC 241835Z AUTO 18010KT 10SM BKN095 13/02 A3019 780 46 800 170/10 RMK AO2
14926KSTC STC20020924124010009/24/02 12:40:31  5-MIN KSTC 241840Z AUTO 17013KT 10SM OVC095 13/02 A3018 780 45 800 160/13 RMK AO2
14926KSTC STC20020924124510009/24/02 12:45:31  5-MIN KSTC 241845Z AUTO 18010KT 10SM OVC095 13/02 A3018 780 45 800 180/10 RMK AO2
14926KSTC STC20020924125011709/24/02 12:50:31  5-MIN KSTC 241850Z AUTO 18012KT 10SM OVC095 13/01 A3018 790 43 800 170/12 RMK AO2 SLP236 T01330011
14926KSTC STC20020924125510009/24/02 12:55:31  5-MIN KSTC 241855Z AUTO 17012KT 10SM OVC095 13/02 A3018 790 45 800 170/12 RMK AO2
14926KSTC STC20020924130010009/24/02 13:00:31  5-MIN KSTC 241900Z AUTO 17012KT 10SM OVC095 13/02 A3018 790 46 800 170/12 RMK AO2
14926KSTC STC20020924130510009/24/02 13:05:31  5-MIN KSTC 241905Z AUTO 16007KT 10SM OVC095 13/02 A3017 790 46 800 160/07 RMK AO2
14926KSTC STC20020924131010009/24/02 13:10:31  5-MIN KSTC 241910Z AUTO 17011KT 10SM OVC095 13/02 A3017 790 46 800 170/11 RMK AO2
14926KSTC STC20020924131510009/24/02 13:15:31  5-MIN KSTC 241915Z AUTO 17009KT 10SM OVC095 13/02 A3017 800 46 800 160/09 RMK AO2
14926KSTC STC20020924132009909/24/02 13:20:31  5-MIN KSTC 241920Z AUTO 16012KT 9SM OVC095 13/02 A3016 800 46 800 160/12 RMK AO2
14926KSTC STC20020924132509909/24/02 13:25:31  5-MIN KSTC 241925Z AUTO 16013KT 9SM OVC095 13/02 A3016 810 46 800 160/13 RMK AO2
14926KSTC STC20020924133010009/24/02 13:30:31  5-MIN KSTC 241930Z AUTO 16011KT 10SM OVC095 13/02 A3016 810 46 800 150/11 RMK AO2
14926KSTC STC20020924133510009/24/02 13:35:31  5-MIN KSTC 241935Z AUTO 16013KT 10SM OVC095 13/02 A3015 810 46 800 160/13 RMK AO2
14926KSTC STC20020924134010009/24/02 13:40:31  5-MIN KSTC 241940Z AUTO 17011KT 10SM OVC095 13/02 A3015 810 45 800 170/11 RMK AO2
14926KSTC STC20020924134510009/24/02 13:45:31  5-MIN KSTC 241945Z AUTO 16014KT 10SM OVC095 13/02 A3015 810 46 800 160/14 RMK AO2
14926KSTC STC20020924135011709/24/02 13:50:31  5-MIN KSTC 241950Z AUTO 16011KT 10SM OVC095 13/02 A3015 820 46 800 150/11 RMK AO2 SLP224 T01330022
14926KSTC STC20020924135510009/24/02 13:55:31  5-MIN KSTC 241955Z AUTO 16013KT 10SM BKN095 13/03 A3014 820 48 900 160/13 RMK AO2
14926KSTC STC20020924140010009/24/02 14:00:31  5-MIN KSTC 242000Z AUTO 15012KT 10SM OVC095 13/02 A3014 820 46 900 140/12 RMK AO2
14926KSTC STC20020924140510009/24/02 14:05:31  5-MIN KSTC 242005Z AUTO 15011KT 10SM OVC095 13/02 A3014 830 46 900 140/11 RMK AO2
14926KSTC STC20020924141010009/24/02 14:10:31  5-MIN KSTC 242010Z AUTO 14012KT 10SM OVC095 13/02 A3014 830 46 900 140/12 RMK AO2
14926KSTC STC20020924141510009/24/02 14:15:31  5-MIN KSTC 242015Z AUTO 16010KT 10SM BKN100 14/03 A3014 830 47 900 160/10 RMK AO2
14926KSTC STC20020924142010009/24/02 14:20:31  5-MIN KSTC 242020Z AUTO 16012KT 10SM BKN100 14/02 A3014 830 45 900 160/12 RMK AO2
14926KSTC STC20020924142510009/24/02 14:25:31  5-MIN KSTC 242025Z AUTO 15014KT 10SM BKN095 14/02 A3014 830 43 900 150/14 RMK AO2
14926KSTC STC20020924143010709/24/02 14:30:31  5-MIN KSTC 242030Z AUTO 17013KT 10SM FEW075 BKN095 14/01 A3013 830 41 900 160/13 RMK AO2
14926KSTC STC20020924143510709/24/02 14:35:31  5-MIN KSTC 242035Z AUTO 16014KT 10SM SCT075 BKN095 14/01 A3012 840 41 900 150/14 RMK AO2
14926KSTC STC20020924144011509/24/02 14:40:31  5-MIN KSTC 242040Z AUTO 17016KT 10SM SCT075 BKN090 BKN100 15/02 A3012 840 40 1100 160/16 RMK AO2
14926KSTC STC20020924144510109/24/02 14:45:31  5-MIN KSTC 242045Z AUTO 16013KT 10SM BKN080 16/02 A3012 840 39 1100 160/13 RMK AO2
14926KSTC STC20020924145012409/24/02 14:50:31  5-MIN KSTC 242050Z AUTO 15013KT 10SM BKN080 16/02 A3012 840 40 1100 150/13 RMK AO2 SLP213 T01560022 58021
14926KSTC STC20020924145510109/24/02 14:55:31  5-MIN KSTC 242055Z AUTO 16014KT 10SM SCT075 15/02 A3012 840 42 1100 160/14 RMK AO2
14926KSTC STC20020924150010809/24/02 15:00:31  5-MIN KSTC 242100Z AUTO 16014KT 10SM SCT075 SCT085 14/02 A3012 850 41 1000 150/14 RMK AO2
14926KSTC STC20020924150510809/24/02 15:05:31  5-MIN KSTC 242105Z AUTO 16013KT 10SM BKN075 BKN090 14/02 A3012 840 41 1000 160/13 RMK AO2
14926KSTC STC20020924151010709/24/02 15:10:31  5-MIN KSTC 242110Z AUTO 16014G20KT 10SM BKN075 14/02 A3011 850 43 1000 160/14G20 RMK AO2
14926KSTC STC20020924151510709/24/02 15:15:31  5-MIN KSTC 242115Z AUTO 16013G20KT 10SM BKN080 14/02 A3011 850 43 1000 160/13G20 RMK AO2
14926KSTC STC20020924152010109/24/02 15:20:31  5-MIN KSTC 242120Z AUTO 16012KT 10SM BKN080 14/02 A3011 850 43 1000 160/12 RMK AO2
14926KSTC STC20020924152510109/24/02 15:25:31  5-MIN KSTC 242125Z AUTO 15012KT 10SM OVC080 14/02 A3010 860 43 1000 150/12 RMK AO2
14926KSTC STC20020924153010109/24/02 15:30:31  5-MIN KSTC 242130Z AUTO 15012KT 10SM OVC080 14/02 A3010 860 45 1000 150/12 RMK AO2
14926KSTC STC20020924153510109/24/02 15:35:31  5-MIN KSTC 242135Z AUTO 15012KT 10SM OVC080 14/02 A3010 860 45 1000 150/12 RMK AO2
14926KSTC STC20020924154010109/24/02 15:40:31  5-MIN KSTC 242140Z AUTO 15009KT 10SM OVC080 14/03 A3010 860 47 1000 140/09 RMK AO2
14926KSTC STC20020924154510109/24/02 15:45:31  5-MIN KSTC 242145Z AUTO 14008KT 10SM OVC080 14/03 A3010 860 47 1000 140/08 RMK AO2
14926KSTC STC20020924155011809/24/02 15:50:31  5-MIN KSTC 242150Z AUTO 15012KT 10SM OVC080 14/03 A3010 860 47 1000 140/12 RMK AO2 SLP206 T01390028
14926KSTC STC20020924155511009/24/02 15:55:31  5-MIN KSTC 242155Z AUTO 14011KT 10SM TS OVC080 14/03 A3009 870 47 1000 140/11 RMK AO2 TSB54
14926KSTC STC20020924160011209/24/02 16:00:31  5-MIN KSTC 242200Z AUTO 15010KT 10SM TS OVC080 14/03 A3009 870 47 1100 140/10 RMK AO2 TSB2154
14926KSTC STC20020924160511209/24/02 16:05:31  5-MIN KSTC 242205Z AUTO 14010KT 10SM TS OVC080 14/03 A3009 870 47 1000 140/10 RMK AO2 TSB2154
14926KSTC STC20020924161011209/24/02 16:10:31  5-MIN KSTC 242210Z AUTO 15012KT 10SM TS OVC080 15/03 A3009 870 45 1100 150/12 RMK AO2 TSB2154
14926KSTC STC20020924161511209/24/02 16:15:31  5-MIN KSTC 242215Z AUTO 15011KT 10SM OVC080 15/03 A3009 870 43 1100 150/11 RMK AO2 TSB2154E13
14926KSTC STC20020924162011209/24/02 16:20:31  5-MIN KSTC 242220Z AUTO 16011KT 10SM OVC080 15/03 A3009 870 43 1100 150/11 RMK AO2 TSB2154E13
14926KSTC STC20020924162511209/24/02 16:25:31  5-MIN KSTC 242225Z AUTO 17011KT 10SM OVC075 14/03 A3009 870 45 1000 160/11 RMK AO2 TSB2154E13
14926KSTC STC20020924163011209/24/02 16:30:31  5-MIN KSTC 242230Z AUTO 16012KT 10SM OVC075 14/03 A3009 870 47 1000 160/12 RMK AO2 TSB2154E13
14926KSTC STC20020924163511809/24/02 16:35:31  5-MIN KSTC 242235Z AUTO 16010KT 10SM TS OVC075 14/03 A3008 880 47 1100 160/10 RMK AO2 TSB2154E13B35
14926KSTC STC20020924164012509/24/02 16:40:31  5-MIN KSTC 242240Z AUTO 16009KT 10SM TS BKN075 BKN095 14/04 A3009 870 52 1000 160/09 RMK AO2 TSB2154E13B35
14926KSTC STC20020924164513809/24/02 16:45:31  5-MIN KSTC 242245Z AUTO 16008KT 10SM -TSRA BKN075 BKN090 13/05 A3009 870 57 900 160/08 RMK AO2 TSB2154E13B35RAB41 P0000
14926KSTC STC20020924165015509/24/02 16:50:31  5-MIN KSTC 242250Z AUTO 16008KT 10SM -TSRA BKN080 OVC095 13/06 A3009 870 63 900 160/08 RMK AO2 TSB2154E13B35RAB41 SLP204 P0000 T01280061
14926KSTC STC20020924165511909/24/02 16:55:31  5-MIN KSTC 242255Z AUTO 16010KT 10SM -TSRA BKN080 OVC100 13/06 A3009 870 61 900 160/10 RMK AO2 P0000
14926KSTC STC20020924170011909/24/02 17:00:31  5-MIN KSTC 242300Z AUTO 15007KT 10SM -TSRA BKN080 OVC100 12/06 A3008 880 63 800 150/07 RMK AO2 P0000
14926KSTC STC20020924170511509/24/02 17:05:31  5-MIN KSTC 242305Z AUTO 15005KT 10SM TS OVC080 12/06 A3009 870 66 800 150/05 RMK AO2 RAE04 P0000
14926KSTC STC20020924171011509/24/02 17:10:31  5-MIN KSTC 242310Z AUTO 16005KT 10SM TS OVC085 12/06 A3009 870 66 800 150/05 RMK AO2 RAE04 P0000
14926KSTC STC20020924171511809/24/02 17:15:31  5-MIN KSTC 242315Z AUTO VRB03KT 9SM -TSRA FEW042 OVC080 12/06 A3009 870 68 700 VRB/03 RMK AO2 P0001
14926KSTC STC20020924172011809/24/02 17:20:31  5-MIN KSTC 242320Z AUTO 12004KT 9SM -TSRA FEW032 OVC080 12/07 A3009 870 71 700 120/04 RMK AO2 P0001
14926KSTC STC20020924172511509/24/02 17:25:31  5-MIN KSTC 242325Z AUTO 13005KT 10SM TS OVC080 11/07 A3008 880 77 700 130/05 RMK AO2 RAE25 P0001
14926KSTC STC20020924173011509/24/02 17:30:31  5-MIN KSTC 242330Z AUTO 12006KT 10SM TS OVC080 11/07 A3008 880 77 700 120/06 RMK AO2 RAE25 P0001
14926KSTC STC20020924173511509/24/02 17:35:31  5-MIN KSTC 242335Z AUTO 13006KT 10SM TS OVC080 11/07 A3007 880 77 700 130/06 RMK AO2 RAE25 P0001
14926KSTC STC20020924174011509/24/02 17:40:31  5-MIN KSTC 242340Z AUTO 13006KT 10SM TS OVC080 11/07 A3008 880 77 700 130/06 RMK AO2 RAE25 P0001
14926KSTC STC20020924174511509/24/02 17:45:31  5-MIN KSTC 242345Z AUTO 13005KT 10SM TS OVC075 11/07 A3007 890 74 700 120/05 RMK AO2 RAE25 P0001
14926KSTC STC20020924175015609/24/02 17:50:31  5-MIN KSTC 242350Z AUTO 12005KT 10SM TS OVC075 12/07 A3007 890 71 700 110/05 RMK AO2 RAE25 SLP200 P0001 60001 T01170067 10156 20111 58027
14926KSTC STC20020924175510309/24/02 17:55:31  5-MIN KSTC 242355Z AUTO 12005KT 10SM TS OVC070 12/07 A3007 880 71 700 110/05 RMK AO2
14926KSTC STC20020924180010309/24/02 18:00:31  5-MIN KSTC 250000Z AUTO 12005KT 10SM TS OVC070 11/07 A3008 880 74 700 120/05 RMK AO2
14926KSTC STC20020924180510309/24/02 18:05:31  5-MIN KSTC 250005Z AUTO 12004KT 10SM TS OVC070 12/06 A3008 880 68 700 120/04 RMK AO2
14926KSTC STC20020924181010309/24/02 18:10:31  5-MIN KSTC 250010Z AUTO 12003KT 10SM TS OVC070 11/07 A3009 870 74 700 110/03 RMK AO2
14926KSTC STC20020924181510309/24/02 18:15:31  5-MIN KSTC 250015Z AUTO 11004KT 10SM TS OVC070 12/07 A3009 870 71 700 100/04 RMK AO2
14926KSTC STC20020924182010309/24/02 18:20:31  5-MIN KSTC 250020Z AUTO 12004KT 10SM TS OVC070 11/07 A3010 870 74 600 110/04 RMK AO2
14926KSTC STC20020924182511409/24/02 18:25:31  5-MIN KSTC 250025Z AUTO 13006KT 10SM VCTS OVC070 11/07 A3010 860 74 600 130/06 RMK AO2 TSE22B24
14926KSTC STC20020924183011409/24/02 18:30:31  5-MIN KSTC 250030Z AUTO 13005KT 10SM VCTS OVC070 12/07 A3010 860 71 700 130/05 RMK AO2 TSE22B24
14926KSTC STC20020924183511409/24/02 18:35:31  5-MIN KSTC 250035Z AUTO 14007KT 10SM VCTS OVC070 12/07 A3009 870 71 700 140/07 RMK AO2 TSE22B24
14926KSTC STC20020924184011209/24/02 18:40:31  5-MIN KSTC 250040Z AUTO 13007KT 10SM OVC070 12/07 A3009 870 71 700 130/07 RMK AO2 TSE22B24E39
14926KSTC STC20020924184511209/24/02 18:45:31  5-MIN KSTC 250045Z AUTO 13007KT 10SM OVC070 12/06 A3010 860 68 700 130/07 RMK AO2 TSE22B24E39
14926KSTC STC20020924185012909/24/02 18:50:31  5-MIN KSTC 250050Z AUTO 13007KT 10SM OVC070 12/07 A3010 870 71 700 130/07 RMK AO2 TSE22B24E39 SLP207 T01170067
14926KSTC STC20020924185510009/24/02 18:55:31  5-MIN KSTC 250055Z AUTO 13007KT 10SM OVC070 12/06 A3009 870 68 700 130/07 RMK AO2
14926KSTC STC20020924190010009/24/02 19:00:31  5-MIN KSTC 250100Z AUTO 13007KT 10SM OVC070 11/07 A3009 870 74 600 130/07 RMK AO2
14926KSTC STC20020924190510009/24/02 19:05:31  5-MIN KSTC 250105Z AUTO 13007KT 10SM OVC070 11/07 A3009 870 74 600 130/07 RMK AO2
14926KSTC STC20020924191010009/24/02 19:10:31  5-MIN KSTC 250110Z AUTO 14008KT 10SM OVC065 11/07 A3010 860 74 600 130/08 RMK AO2
14926KSTC STC20020924191510009/24/02 19:15:31  5-MIN KSTC 250115Z AUTO 13007KT 10SM OVC065 11/07 A3010 860 74 600 130/07 RMK AO2
14926KSTC STC20020924192010009/24/02 19:20:31  5-MIN KSTC 250120Z AUTO 13007KT 10SM BKN065 11/07 A3010 860 74 600 130/07 RMK AO2
14926KSTC STC20020924192510009/24/02 19:25:31  5-MIN KSTC 250125Z AUTO 13007KT 10SM BKN065 11/06 A3010 860 71 600 130/07 RMK AO2
14926KSTC STC20020924193010009/24/02 19:30:31  5-MIN KSTC 250130Z AUTO 13007KT 10SM BKN065 11/06 A3010 860 71 600 130/07 RMK AO2
14926KSTC STC20020924193510009/24/02 19:35:31  5-MIN KSTC 250135Z AUTO 13007KT 10SM BKN065 11/06 A3010 860 71 600 120/07 RMK AO2
14926KSTC STC20020924194010009/24/02 19:40:31  5-MIN KSTC 250140Z AUTO 13007KT 10SM BKN065 12/06 A3010 860 68 700 130/07 RMK AO2
14926KSTC STC20020924194510009/24/02 19:45:31  5-MIN KSTC 250145Z AUTO 13006KT 10SM BKN065 11/07 A3010 860 74 600 120/06 RMK AO2
14926KSTC STC20020924195011709/24/02 19:50:31  5-MIN KSTC 250150Z AUTO 13006KT 10SM BKN065 11/07 A3010 860 74 600 130/06 RMK AO2 SLP208 T01110067
14926KSTC STC20020924195510009/24/02 19:55:31  5-MIN KSTC 250155Z AUTO 13007KT 10SM OVC065 12/07 A3011 860 71 700 130/07 RMK AO2
14926KSTC STC20020924200010009/24/02 20:00:31  5-MIN KSTC 250200Z AUTO 13008KT 10SM OVC065 12/07 A3010 860 71 700 130/08 RMK AO2
14926KSTC STC20020924200510009/24/02 20:05:31  5-MIN KSTC 250205Z AUTO 13007KT 10SM OVC065 12/07 A3010 860 71 700 130/07 RMK AO2
14926KSTC STC20020924201010009/24/02 20:10:31  5-MIN KSTC 250210Z AUTO 13007KT 10SM OVC065 12/07 A3010 860 71 700 130/07 RMK AO2
14926KSTC STC20020924201510009/24/02 20:15:31  5-MIN KSTC 250215Z AUTO 13007KT 10SM OVC065 12/07 A3011 860 71 700 130/07 RMK AO2
14926KSTC STC20020924202010009/24/02 20:20:31  5-MIN KSTC 250220Z AUTO 13008KT 10SM OVC070 12/07 A3011 860 71 700 130/08 RMK AO2
14926KSTC STC20020924202510009/24/02 20:25:31  5-MIN KSTC 250225Z AUTO 14007KT 10SM OVC070 12/07 A3010 860 71 700 130/07 RMK AO2
14926KSTC STC20020924203010009/24/02 20:30:31  5-MIN KSTC 250230Z AUTO 14008KT 10SM OVC070 12/07 A3010 860 71 700 140/08 RMK AO2
14926KSTC STC20020924203510009/24/02 20:35:31  5-MIN KSTC 250235Z AUTO 14007KT 10SM OVC070 12/07 A3010 860 71 700 140/07 RMK AO2
14926KSTC STC20020924204010009/24/02 20:40:31  5-MIN KSTC 250240Z AUTO 15008KT 10SM OVC070 12/07 A3010 860 71 700 140/08 RMK AO2
14926KSTC STC20020924204510009/24/02 20:45:31  5-MIN KSTC 250245Z AUTO 15008KT 10SM OVC070 12/07 A3010 860 71 700 140/08 RMK AO2
14926KSTC STC20020924205012309/24/02 20:50:31  5-MIN KSTC 250250Z AUTO 15009KT 10SM OVC070 12/07 A3010 860 71 700 150/09 RMK AO2 SLP204 T01170067 56015
14926KSTC STC20020924205510009/24/02 20:55:31  5-MIN KSTC 250255Z AUTO 15009KT 10SM OVC070 12/07 A3009 870 71 700 140/09 RMK AO2
14926KSTC STC20020924210010009/24/02 21:00:31  5-MIN KSTC 250300Z AUTO 15010KT 10SM OVC070 12/07 A3009 870 71 700 150/10 RMK AO2
14926KSTC STC20020924210510009/24/02 21:05:31  5-MIN KSTC 250305Z AUTO 15011KT 10SM BKN070 12/07 A3009 870 71 700 150/11 RMK AO2
14926KSTC STC20020924211010009/24/02 21:10:31  5-MIN KSTC 250310Z AUTO 15010KT 10SM BKN070 12/07 A3009 870 71 700 150/10 RMK AO2
14926KSTC STC20020924211510009/24/02 21:15:31  5-MIN KSTC 250315Z AUTO 15011KT 10SM OVC070 12/07 A3009 870 71 700 150/11 RMK AO2
14926KSTC STC20020924212010009/24/02 21:20:31  5-MIN KSTC 250320Z AUTO 15011KT 10SM OVC070 12/07 A3009 870 71 700 150/11 RMK AO2
14926KSTC STC20020924212510009/24/02 21:25:31  5-MIN KSTC 250325Z AUTO 15012KT 10SM OVC070 12/07 A3009 870 71 700 150/12 RMK AO2
14926KSTC STC20020924213010009/24/02 21:30:31  5-MIN KSTC 250330Z AUTO 15009KT 10SM OVC070 12/07 A3009 870 71 700 150/09 RMK AO2
14926KSTC STC20020924213510009/24/02 21:35:31  5-MIN KSTC 250335Z AUTO 15009KT 10SM OVC070 12/07 A3009 870 71 700 150/09 RMK AO2
14926KSTC STC20020924214010009/24/02 21:40:31  5-MIN KSTC 250340Z AUTO 15010KT 10SM BKN070 11/07 A3009 870 74 600 150/10 RMK AO2
14926KSTC STC20020924214510009/24/02 21:45:31  5-MIN KSTC 250345Z AUTO 16009KT 10SM BKN070 11/07 A3010 860 74 600 160/09 RMK AO2
14926KSTC STC20020924215011709/24/02 21:50:31  5-MIN KSTC 250350Z AUTO 16008KT 10SM SCT070 11/07 A3009 870 77 600 150/08 RMK AO2 SLP203 T01060067
14926KSTC STC20020924215510009/24/02 21:55:31  5-MIN KSTC 250355Z AUTO 16009KT 10SM SCT070 11/07 A3009 870 77 600 160/09 RMK AO2
14926KSTC STC20020924220010009/24/02 22:00:31  5-MIN KSTC 250400Z AUTO 16009KT 10SM FEW070 11/07 A3010 860 77 600 160/09 RMK AO2
14926KSTC STC20020924220509709/24/02 22:05:31  5-MIN KSTC 250405Z AUTO 16009KT 10SM CLR 11/07 A3009 870 77 600 160/09 RMK AO2
14926KSTC STC20020924221009709/24/02 22:10:31  5-MIN KSTC 250410Z AUTO 16009KT 10SM CLR 11/07 A3010 860 77 600 160/09 RMK AO2
14926KSTC STC20020924221509709/24/02 22:15:31  5-MIN KSTC 250415Z AUTO 16008KT 10SM CLR 11/07 A3010 860 77 600 160/08 RMK AO2
14926KSTC STC20020924222009709/24/02 22:20:31  5-MIN KSTC 250420Z AUTO 17009KT 10SM CLR 11/07 A3010 860 77 600 160/09 RMK AO2
14926KSTC STC20020924222509709/24/02 22:25:31  5-MIN KSTC 250425Z AUTO 16009KT 10SM CLR 11/07 A3010 860 77 600 160/09 RMK AO2
14926KSTC STC20020924223009709/24/02 22:30:31  5-MIN KSTC 250430Z AUTO 16008KT 10SM CLR 10/07 A3010 860 80 500 160/08 RMK AO2
14926KSTC STC20020924223509709/24/02 22:35:31  5-MIN KSTC 250435Z AUTO 16009KT 10SM CLR 11/07 A3010 860 77 600 160/09 RMK AO2
14926KSTC STC20020924224009709/24/02 22:40:31  5-MIN KSTC 250440Z AUTO 16009KT 10SM CLR 11/07 A3010 860 77 600 160/09 RMK AO2
14926KSTC STC20020924224509709/24/02 22:45:31  5-MIN KSTC 250445Z AUTO 17009KT 10SM CLR 11/07 A3010 860 80 600 160/09 RMK AO2
14926KSTC STC20020924225011409/24/02 22:50:31  5-MIN KSTC 250450Z AUTO 17008KT 10SM CLR 11/07 A3010 860 80 600 160/08 RMK AO2 SLP203 T01060072
14926KSTC STC20020924225509709/24/02 22:55:31  5-MIN KSTC 250455Z AUTO 17008KT 10SM CLR 11/07 A3010 860 80 600 170/08 RMK AO2
14926KSTC STC20020924230009709/24/02 23:00:31  5-MIN KSTC 250500Z AUTO 17008KT 10SM CLR 11/07 A3010 860 80 600 160/08 RMK AO2
14926KSTC STC20020924230509709/24/02 23:05:31  5-MIN KSTC 250505Z AUTO 17008KT 10SM CLR 10/07 A3010 860 83 500 160/08 RMK AO2
14926KSTC STC20020924231009709/24/02 23:10:31  5-MIN KSTC 250510Z AUTO 17008KT 10SM CLR 10/07 A3010 860 83 500 160/08 RMK AO2
14926KSTC STC20020924231509709/24/02 23:15:31  5-MIN KSTC 250515Z AUTO 17009KT 10SM CLR 10/07 A3010 860 83 500 170/09 RMK AO2
14926KSTC STC20020924232009709/24/02 23:20:31  5-MIN KSTC 250520Z AUTO 17008KT 10SM CLR 10/07 A3010 860 83 500 160/08 RMK AO2
14926KSTC STC20020924232509709/24/02 23:25:31  5-MIN KSTC 250525Z AUTO 16008KT 10SM CLR 10/07 A3009 870 83 500 160/08 RMK AO2
14926KSTC STC20020924233009709/24/02 23:30:31  5-MIN KSTC 250530Z AUTO 17008KT 10SM CLR 10/07 A3010 870 83 500 160/08 RMK AO2
14926KSTC STC20020924233509709/24/02 23:35:31  5-MIN KSTC 250535Z AUTO 17008KT 10SM CLR 10/08 A3009 870 86 500 160/08 RMK AO2
14926KSTC STC20020924234009709/24/02 23:40:31  5-MIN KSTC 250540Z AUTO 17008KT 10SM CLR 10/08 A3009 870 86 500 160/08 RMK AO2
14926KSTC STC20020924234509709/24/02 23:45:31  5-MIN KSTC 250545Z AUTO 16007KT 10SM CLR 10/08 A3009 870 86 500 160/07 RMK AO2
14926KSTC STC20020924235014209/24/02 23:50:31  5-MIN KSTC 250550Z AUTO 16008KT 10SM CLR 10/08 A3009 870 86 500 160/08 RMK AO2 SLP202 T01000078 10117 20094 401561011 50007
14926KSTC STC20020924235509709/24/02 23:55:31  5-MIN KSTC 250555Z AUTO 16007KT 10SM CLR 10/08 A3009 870 86 500 160/07 RMK AO2
14926KSTC STC20020925000009709/25/02 00:00:31  5-MIN KSTC 250600Z AUTO 16007KT 10SM CLR 10/08 A3009 870 86 500 160/07 RMK AO2
14926KSTC STC20020925000509709/25/02 00:05:31  5-MIN KSTC 250605Z AUTO 16005KT 10SM CLR 10/08 A3009 870 86 500 160/05 RMK AO2
14926KSTC STC20020925001009709/25/02 00:10:31  5-MIN KSTC 250610Z AUTO 16005KT 10SM CLR 09/08 A3009 870 89 400 150/05 RMK AO2
14926KSTC STC20020925001509709/25/02 00:15:31  5-MIN KSTC 250615Z AUTO 16005KT 10SM CLR 09/08 A3009 870 89 400 160/05 RMK AO2
14926KSTC STC20020925002009709/25/02 00:20:31  5-MIN KSTC 250620Z AUTO 16005KT 10SM CLR 09/08 A3009 870 89 400 160/05 RMK AO2
14926KSTC STC20020925002509709/25/02 00:25:31  5-MIN KSTC 250625Z AUTO 16006KT 10SM CLR 09/08 A3009 870 89 400 160/06 RMK AO2
14926KSTC STC20020925003009709/25/02 00:30:31  5-MIN KSTC 250630Z AUTO 16006KT 10SM CLR 09/08 A3009 870 89 400 160/06 RMK AO2
14926KSTC STC20020925003509709/25/02 00:35:31  5-MIN KSTC 250635Z AUTO 16007KT 10SM CLR 09/08 A3009 870 89 400 160/07 RMK AO2
14926KSTC STC20020925004009709/25/02 00:40:31  5-MIN KSTC 250640Z AUTO 17006KT 10SM CLR 09/08 A3009 870 89 400 160/06 RMK AO2
14926KSTC STC20020925004509709/25/02 00:45:31  5-MIN KSTC 250645Z AUTO 16006KT 10SM CLR 10/08 A3009 870 86 500 160/06 RMK AO2
14926KSTC STC20020925005011409/25/02 00:50:31  5-MIN KSTC 250650Z AUTO 16006KT 10SM CLR 09/08 A3009 870 89 500 160/06 RMK AO2 SLP201 T00940078
14926KSTC STC20020925005509709/25/02 00:55:31  5-MIN KSTC 250655Z AUTO 16006KT 10SM CLR 09/08 A3009 870 89 400 160/06 RMK AO2
14926KSTC STC20020925010009709/25/02 01:00:31  5-MIN KSTC 250700Z AUTO 16006KT 10SM CLR 09/08 A3009 870 89 500 160/06 RMK AO2
14926KSTC STC20020925010509709/25/02 01:05:31  5-MIN KSTC 250705Z AUTO 16006KT 10SM CLR 09/08 A3009 870 93 400 160/06 RMK AO2
14926KSTC STC20020925011010009/25/02 01:10:31  5-MIN KSTC 250710Z AUTO 15005KT 10SM FEW120 09/08 A3009 870 93 500 150/05 RMK AO2
14926KSTC STC20020925011510009/25/02 01:15:31  5-MIN KSTC 250715Z AUTO 15005KT 10SM SCT120 09/08 A3009 870 93 500 150/05 RMK AO2
14926KSTC STC20020925012010009/25/02 01:20:31  5-MIN KSTC 250720Z AUTO 15005KT 10SM BKN120 10/08 A3009 870 89 500 140/05 RMK AO2
14926KSTC STC20020925012510009/25/02 01:25:31  5-MIN KSTC 250725Z AUTO 15005KT 10SM BKN120 10/08 A3009 870 89 500 150/05 RMK AO2
14926KSTC STC20020925013010009/25/02 01:30:31  5-MIN KSTC 250730Z AUTO 15005KT 10SM BKN120 10/08 A3009 870 89 500 140/05 RMK AO2
14926KSTC STC20020925013510009/25/02 01:35:31  5-MIN KSTC 250735Z AUTO 14005KT 10SM SCT120 10/08 A3009 870 89 500 140/05 RMK AO2
14926KSTC STC20020925014010009/25/02 01:40:31  5-MIN KSTC 250740Z AUTO 15005KT 10SM SCT120 09/08 A3008 870 93 500 150/05 RMK AO2
14926KSTC STC20020925014510009/25/02 01:45:31  5-MIN KSTC 250745Z AUTO 15005KT 10SM FEW120 09/08 A3008 880 93 500 140/05 RMK AO2
14926KSTC STC20020925015011709/25/02 01:50:31  5-MIN KSTC 250750Z AUTO 15005KT 10SM FEW120 09/08 A3008 880 93 500 150/05 RMK AO2 SLP198 T00940083
14926KSTC STC20020925015509709/25/02 01:55:31  5-MIN KSTC 250755Z AUTO 15005KT 10SM CLR 09/08 A3008 880 93 500 150/05 RMK AO2
14926KSTC STC20020925020009709/25/02 02:00:31  5-MIN KSTC 250800Z AUTO 15005KT 10SM CLR 09/08 A3008 880 93 500 150/05 RMK AO2
14926KSTC STC20020925020510009/25/02 02:05:31  5-MIN KSTC 250805Z AUTO 15004KT 10SM FEW080 09/08 A3008 880 93 500 150/04 RMK AO2
14926KSTC STC20020925021010009/25/02 02:10:31  5-MIN KSTC 250810Z AUTO 15003KT 10SM SCT080 09/08 A3008 880 93 500 150/03 RMK AO2
14926KSTC STC20020925021510009/25/02 02:15:31  5-MIN KSTC 250815Z AUTO 15003KT 10SM FEW080 09/08 A3008 870 93 500 150/03 RMK AO2
14926KSTC STC20020925022010009/25/02 02:20:31  5-MIN KSTC 250820Z AUTO 00000KT 10SM FEW080 09/08 A3008 880 93 500 000/00 RMK AO2
14926KSTC STC20020925022510009/25/02 02:25:31  5-MIN KSTC 250825Z AUTO 00000KT 10SM FEW080 09/08 A3008 870 93 500 000/00 RMK AO2
14926KSTC STC20020925023010009/25/02 02:30:31  5-MIN KSTC 250830Z AUTO 00000KT 10SM FEW080 09/08 A3008 870 93 500 000/00 RMK AO2
14926KSTC STC20020925023510009/25/02 02:35:31  5-MIN KSTC 250835Z AUTO 00000KT 10SM FEW080 09/08 A3009 870 93 500 000/00 RMK AO2
14926KSTC STC20020925024009709/25/02 02:40:31  5-MIN KSTC 250840Z AUTO 00000KT 10SM CLR 09/08 A3009 870 93 500 000/00 RMK AO2
14926KSTC STC20020925024509709/25/02 02:45:31  5-MIN KSTC 250845Z AUTO 00000KT 10SM CLR 09/08 A3009 870 93 500 000/00 RMK AO2
14926KSTC STC20020925025012009/25/02 02:50:31  5-MIN KSTC 250850Z AUTO 00000KT 10SM CLR 10/08 A3008 880 89 500 000/00 RMK AO2 SLP197 T01000083 58001
14926KSTC STC20020925025509709/25/02 02:55:31  5-MIN KSTC 250855Z AUTO 00000KT 10SM CLR 09/08 A3008 870 93 500 000/00 RMK AO2
14926KSTC STC20020925030009709/25/02 03:00:31  5-MIN KSTC 250900Z AUTO 00000KT 10SM CLR 09/08 A3008 880 96 400 000/00 RMK AO2
14926KSTC STC20020925030509709/25/02 03:05:31  5-MIN KSTC 250905Z AUTO 12003KT 10SM CLR 09/08 A3008 880 93 500 120/03 RMK AO2
14926KSTC STC20020925031009709/25/02 03:10:31  5-MIN KSTC 250910Z AUTO 13004KT 10SM CLR 09/08 A3008 880 96 400 130/04 RMK AO2
14926KSTC STC20020925031509709/25/02 03:15:31  5-MIN KSTC 250915Z AUTO 13003KT 10SM CLR 09/08 A3008 880 93 500 130/03 RMK AO2
14926KSTC STC20020925032009709/25/02 03:20:31  5-MIN KSTC 250920Z AUTO 00000KT 10SM CLR 10/08 A3008 880 89 500 000/00 RMK AO2
14926KSTC STC20020925032509709/25/02 03:25:31  5-MIN KSTC 250925Z AUTO 00000KT 10SM CLR 09/08 A3008 880 93 500 000/00 RMK AO2
14926KSTC STC20020925033009709/25/02 03:30:31  5-MIN KSTC 250930Z AUTO 00000KT 10SM CLR 09/08 A3008 880 96 400 000/00 RMK AO2
14926KSTC STC20020925033509709/25/02 03:35:31  5-MIN KSTC 250935Z AUTO 00000KT 10SM CLR 09/08 A3008 880 93 500 000/00 RMK AO2
14926KSTC STC20020925034009709/25/02 03:40:31  5-MIN KSTC 250940Z AUTO 00000KT 10SM CLR 09/08 A3008 880 93 500 000/00 RMK AO2
14926KSTC STC20020925034509709/25/02 03:45:31  5-MIN KSTC 250945Z AUTO 00000KT 10SM CLR 09/08 A3008 880 93 500 000/00 RMK AO2
14926KSTC STC20020925035011409/25/02 03:50:31  5-MIN KSTC 250950Z AUTO 00000KT 10SM CLR 09/08 A3008 880 93 500 000/00 RMK AO2 SLP197 T00940083
14926KSTC STC20020925035510009/25/02 03:55:31  5-MIN KSTC 250955Z AUTO 08003KT 10SM SCT120 09/08 A3008 880 93 500 080/03 RMK AO2
14926KSTC STC20020925040010009/25/02 04:00:31  5-MIN KSTC 251000Z AUTO 00000KT 10SM SCT120 09/08 A3008 880 93 500 000/00 RMK AO2
14926KSTC STC20020925040510009/25/02 04:05:31  5-MIN KSTC 251005Z AUTO 00000KT 10SM FEW120 09/08 A3008 880 93 500 000/00 RMK AO2
14926KSTC STC20020925041010009/25/02 04:10:31  5-MIN KSTC 251010Z AUTO 11003KT 10SM FEW120 09/08 A3007 880 96 400 100/03 RMK AO2
14926KSTC STC20020925041510009/25/02 04:15:31  5-MIN KSTC 251015Z AUTO 11003KT 10SM SCT110 09/08 A3008 880 93 500 110/03 RMK AO2
14926KSTC STC20020925042010009/25/02 04:20:31  5-MIN KSTC 251020Z AUTO 00000KT 10SM SCT110 09/08 A3008 880 93 500 000/00 RMK AO2
14926KSTC STC20020925042510009/25/02 04:25:31  5-MIN KSTC 251025Z AUTO 00000KT 10SM BKN110 09/08 A3008 880 93 500 000/00 RMK AO2
14926KSTC STC20020925043010009/25/02 04:30:31  5-MIN KSTC 251030Z AUTO 00000KT 10SM SCT110 09/08 A3008 880 93 500 000/00 RMK AO2
14926KSTC STC20020925043510009/25/02 04:35:31  5-MIN KSTC 251035Z AUTO 00000KT 10SM SCT100 09/08 A3008 880 96 400 000/00 RMK AO2
14926KSTC STC20020925044010009/25/02 04:40:31  5-MIN KSTC 251040Z AUTO 00000KT 10SM SCT100 09/08 A3007 880 96 400 000/00 RMK AO2
14926KSTC STC20020925044510009/25/02 04:45:31  5-MIN KSTC 251045Z AUTO 10003KT 10SM SCT100 09/08 A3007 890 96 400 100/03 RMK AO2
14926KSTC STC20020925045011709/25/02 04:50:31  5-MIN KSTC 251050Z AUTO 12004KT 10SM BKN100 09/08 A3007 890 93 500 110/04 RMK AO2 SLP195 T00940083
14926KSTC STC20020925045510009/25/02 04:55:31  5-MIN KSTC 251055Z AUTO 12004KT 10SM BKN100 10/09 A3007 890 93 500 120/04 RMK AO2
14926KSTC STC20020925050010009/25/02 05:00:31  5-MIN KSTC 251100Z AUTO 12004KT 10SM BKN100 10/08 A3007 890 89 500 120/04 RMK AO2
14926KSTC STC20020925050510709/25/02 05:05:31  5-MIN KSTC 251105Z AUTO 11003KT 10SM BKN090 BKN110 10/08 A3006 890 89 500 110/03 RMK AO2
14926KSTC STC20020925051010009/25/02 05:10:31  5-MIN KSTC 251110Z AUTO 08005KT 10SM OVC095 10/08 A3006 900 89 600 080/05 RMK AO2
14926KSTC STC20020925051510009/25/02 05:15:31  5-MIN KSTC 251115Z AUTO 02004KT 10SM OVC090 09/08 A3007 890 93 500 010/04 RMK AO2
14926KSTC STC20020925052010709/25/02 05:20:31  5-MIN KSTC 251120Z AUTO 04003KT 10SM BKN080 OVC100 09/08 A3007 890 93 500 040/03 RMK AO2
14926KSTC STC20020925052510709/25/02 05:25:31  5-MIN KSTC 251125Z AUTO 36004KT 10SM BKN075 OVC090 09/09 A3008 880 96 500 360/04 RMK AO2
14926KSTC STC20020925053010709/25/02 05:30:31  5-MIN KSTC 251130Z AUTO 04004KT 10SM BKN070 OVC095 09/09 A3008 880 96 500 030/04 RMK AO2
14926KSTC STC20020925053510709/25/02 05:35:31  5-MIN KSTC 251135Z AUTO 08004KT 10SM BKN070 OVC090 10/09 A3008 880 93 500 080/04 RMK AO2
14926KSTC STC20020925054010009/25/02 05:40:31  5-MIN KSTC 251140Z AUTO 04004KT 10SM OVC075 09/09 A3008 880 96 500 030/04 RMK AO2
14926KSTC STC20020925054510009/25/02 05:45:31  5-MIN KSTC 251145Z AUTO 05003KT 10SM OVC070 09/09 A3008 880 96 500 040/03 RMK AO2
14926KSTC STC20020925055014109/25/02 05:50:31  5-MIN KSTC 251150Z AUTO 04004KT 10SM OVC070 09/09 A3008 880 96 500 040/04 RMK AO2 SLP198 70001 T00940089 10100 20089 57002
14926KSTC STC20020925055510009/25/02 05:55:31  5-MIN KSTC 251155Z AUTO 03003KT 10SM OVC075 09/09 A3008 880 96 500 030/03 RMK AO2
14926KSTC STC20020925060010009/25/02 06:00:31  5-MIN KSTC 251200Z AUTO 01003KT 10SM OVC075 09/09 A3008 880 96 500 010/03 RMK AO2
14926KSTC STC20020925060510009/25/02 06:05:31  5-MIN KSTC 251205Z AUTO 08003KT 10SM OVC075 09/09 A3007 890 96 500 080/03 RMK AO2
14926KSTC STC20020925061010009/25/02 06:10:31  5-MIN KSTC 251210Z AUTO 08004KT 10SM OVC075 10/09 A3007 890 93 500 080/04 RMK AO2
14926KSTC STC20020925061510009/25/02 06:15:31  5-MIN KSTC 251215Z AUTO 10005KT 10SM OVC075 09/09 A3006 900 96 500 090/05 RMK AO2
14926KSTC STC20020925062010009/25/02 06:20:31  5-MIN KSTC 251220Z AUTO 10006KT 10SM OVC080 09/09 A3006 900 96 500 090/06 RMK AO2
14926KSTC STC20020925062510909/25/02 06:25:31  5-MIN KSTC 251225Z AUTO 09006KT 10SM TS OVC080 10/09 A3006 900 93 600 090/06 RMK AO2 TSB23
14926KSTC STC20020925063010909/25/02 06:30:31  5-MIN KSTC 251230Z AUTO 08004KT 10SM TS OVC080 10/09 A3007 890 93 500 070/04 RMK AO2 TSB23
14926KSTC STC20020925063510909/25/02 06:35:31  5-MIN KSTC 251235Z AUTO 34006KT 10SM TS OVC080 09/09 A3007 880 96 500 330/06 RMK AO2 TSB23
14926KSTC STC20020925064010909/25/02 06:40:31  5-MIN KSTC 251240Z AUTO 35005KT 10SM OVC080 09/09 A3008 880 96 500 340/05 RMK AO2 TSB23E38
14926KSTC STC20020925064512309/25/02 06:45:31  5-MIN KSTC 251245Z AUTO 34006KT 10SM FEW060 OVC080 10/09 A3009 870 93 500 340/06 RMK AO2 TSB23E38 PRESRR
14926KSTC STC20020925065014009/25/02 06:50:31  5-MIN KSTC 251250Z AUTO 33005KT 10SM SCT060 OVC080 10/09 A3010 860 93 500 330/05 RMK AO2 TSB23E38 PRESRR SLP204 T01000089
14926KSTC STC20020925065510709/25/02 06:55:31  5-MIN KSTC 251255Z AUTO 34006KT 10SM BKN060 OVC080 10/09 A3010 870 93 500 340/06 RMK AO2
14926KSTC STC20020925070010709/25/02 07:00:31  5-MIN KSTC 251300Z AUTO 36005KT 10SM BKN060 OVC080 10/09 A3009 870 93 500 360/05 RMK AO2
14926KSTC STC20020925070510709/25/02 07:05:31  5-MIN KSTC 251305Z AUTO 02005KT 10SM BKN055 OVC080 10/09 A3009 870 93 500 010/05 RMK AO2
14926KSTC STC20020925071010709/25/02 07:10:31  5-MIN KSTC 251310Z AUTO 01004KT 10SM BKN055 OVC085 10/09 A3009 870 93 500 010/04 RMK AO2
14926KSTC STC20020925071511809/25/02 07:15:31  5-MIN KSTC 251315Z AUTO 02004KT 10SM VCTS FEW027 OVC055 10/09 A3009 870 93 500 020/04 RMK AO2 TSB12
14926KSTC STC20020925072011809/25/02 07:20:31  5-MIN KSTC 251320Z AUTO 01006KT 10SM VCTS SCT027 OVC055 10/09 A3008 880 93 500 010/06 RMK AO2 TSB12
14926KSTC STC20020925072511809/25/02 07:25:31  5-MIN KSTC 251325Z AUTO 02005KT 10SM VCTS SCT027 OVC055 10/09 A3008 880 93 500 020/05 RMK AO2 TSB12
14926KSTC STC20020925073011609/25/02 07:30:31  5-MIN KSTC 251330Z AUTO 05006KT 10SM BKN027 OVC055 10/09 A3008 880 96 500 050/06 RMK AO2 TSB12E26
14926KSTC STC20020925073512309/25/02 07:35:31  5-MIN KSTC 251335Z AUTO 10007KT 10SM BKN027 BKN041 OVC050 10/09 A3007 890 96 500 100/07 RMK AO2 TSB12E26
14926KSTC STC20020925074012309/25/02 07:40:31  5-MIN KSTC 251340Z AUTO 11008KT 10SM BKN027 BKN041 OVC050 10/09 A3007 890 96 500 110/08 RMK AO2 TSB12E26
14926KSTC STC20020925074511609/25/02 07:45:31  5-MIN KSTC 251345Z AUTO 00000KT 10SM SCT027 OVC050 11/09 A3008 880 93 600 000/00 RMK AO2 TSB12E26
14926KSTC STC20020925075013309/25/02 07:50:31  5-MIN KSTC 251350Z AUTO 11004KT 10SM SCT027 OVC055 11/09 A3009 870 93 600 100/04 RMK AO2 TSB12E26 SLP200 T01060094
14926KSTC STC20020925075511709/25/02 07:55:31  5-MIN KSTC 251355Z AUTO 00000KT 10SM TS SCT027 OVC055 11/09 A3010 860 93 600 000/00 RMK AO2 PRESRR
14926KSTC STC20020925080011009/25/02 08:00:31  5-MIN KSTC 251400Z AUTO 00000KT 10SM TS SCT027 OVC055 11/09 A3009 870 93 600 000/00 RMK AO2
14926KSTC STC20020925080512509/25/02 08:05:31  5-MIN KSTC 251405Z AUTO 00000KT 10SM -TSRA SCT027 OVC060 11/09 A3008 880 93 600 000/00 RMK AO2 RAB01 P0000
14926KSTC STC20020925081012509/25/02 08:10:31  5-MIN KSTC 251410Z AUTO 02004KT 10SM -TSRA SCT027 OVC060 10/09 A3008 880 96 500 020/04 RMK AO2 RAB01 P0000
14926KSTC STC20020925081513209/25/02 08:15:31  5-MIN KSTC 251415Z AUTO 32005KT 10SM -TSRA SCT027 BKN055 OVC090 10/09 A3009 870 96 500 320/05 RMK AO2 RAB01 P0000
14926KSTC STC20020925082013209/25/02 08:20:31  5-MIN KSTC 251420Z AUTO 32006KT 10SM -TSRA FEW006 BKN060 OVC080 10/09 A3009 870 96 500 320/06 RMK AO2 RAB01 P0000
14926KSTC STC20020925082514309/25/02 08:25:31  5-MIN KSTC 251425Z AUTO 35009KT 8SM -TSRA SCT006 BKN026 OVC080 10/09 A3009 870 96 500 340/09 RMK AO2 RAB01 CIG 019V034 P0002
14926KSTC STC20020925083013309/25/02 08:30:31  5-MIN KSTC 251430Z AUTO 34007KT 6SM TSRA BR SCT006 BKN022 OVC080 10/09 A3010 860 96 500 340/07 RMK AO2 RAB01 P0003
14926KSTC STC20020925083514909/25/02 08:35:31  5-MIN KSTC 251435Z AUTO 36007KT 6SM -RA BR BKN006 BKN022 OVC080 10/09 A3010 860 96 500 360/07 RMK AO2 TSE31RAB01 CIG 004V009 P0003
14926KSTC STC20020925084015509/25/02 08:40:31  5-MIN KSTC 251440Z AUTO 35007KT 10SM VCTS -RA BKN006 BKN020 OVC080 10/09 A3010 860 96 500 350/07 RMK AO2 TSE31B38RAB01 CIG 004V011 P0003
14926KSTC STC20020925084515409/25/02 08:45:31  5-MIN KSTC 251445Z AUTO 01008KT 10SM VCTS BKN006 BKN012 OVC018 10/09 A3010 860 93 500 010/08 RMK AO2 TSE31B38RAB01E44 CIG 004V009 P0003
14926KSTC STC20020925085016509/25/02 08:50:31  5-MIN KSTC 251450Z AUTO VRB06KT 10SM VCTS -RA SCT006 OVC013 10/09 A3011 850 93 500 VRB/06 RMK AO2 TSE31B38RAB01 SLP207 P0003 60003 T01000089 55002
14926KSTC STC20020925085512909/25/02 08:55:31  5-MIN KSTC 251455Z AUTO 04008KT 10SM VCTS -RA SCT008 BKN015 OVC039 09/09 A3011 850 96 400 040/08 RMK AO2 P0000
14926KSTC STC20020925090013309/25/02 09:00:31  5-MIN KSTC 251500Z AUTO VRB05KT 10SM VCTS FEW005 BKN012 OVC037 09/09 A3012 850 96 400 VRB/05 RMK AO2 RAE1458 P0000
14926KSTC STC20020925090513309/25/02 09:05:31  5-MIN KSTC 251505Z AUTO 05004KT 10SM FEW008 BKN025 OVC030 10/09 A3012 840 93 500 050/04 RMK AO2 TSE04RAE1458 P0000
14926KSTC STC20020925091012109/25/02 09:10:31  5-MIN KSTC 251510Z AUTO 01005KT 8SM RA SCT015 OVC027 10/09 A3012 840 93 500 010/05 RMK AO2 TSE04 P0001
14926KSTC STC20020925091512209/25/02 09:15:31  5-MIN KSTC 251515Z AUTO VRB03KT 8SM -RA FEW015 OVC027 10/09 A3013 830 93 500 VRB/03 RMK AO2 TSE04 P0001
14926KSTC STC20020925092011709/25/02 09:20:31  5-MIN KSTC 251520Z AUTO 01005KT 6SM RA BR OVC027 09/09 A3013 830 96 400 360/05 RMK AO2 TSE04 P0005
14926KSTC STC20020925092511809/25/02 09:25:31  5-MIN KSTC 251525Z AUTO 34006KT 6SM -RA BR OVC029 09/09 A3014 830 96 400 340/06 RMK AO2 TSE04 P0005
14926KSTC STC20020925093011609/25/02 09:30:31  5-MIN KSTC 251530Z AUTO 34007KT 10SM -RA OVC027 09/09 A3014 820 96 400 340/07 RMK AO2 TSE04 P0005
14926KSTC STC20020925093512409/25/02 09:35:31  5-MIN KSTC 251535Z AUTO 33007KT 10SM SCT010 OVC027 09/09 A3014 820 96 400 330/07 RMK AO2 TSE04RAE31 P0005
14926KSTC STC20020925094012509/25/02 09:40:31  5-MIN KSTC 251540Z AUTO 33007KT 6SM -RA BR BKN010 OVC027 09/09 A3014 820 96 400 330/07 RMK AO2 TSE04 P0007
14926KSTC STC20020925094513109/25/02 09:45:31  5-MIN KSTC 251545Z AUTO 35007KT 5SM RA BR BKN010 BKN027 OVC031 09/09 A3013 830 96 400 340/07 RMK AO2 TSE04 P0008
14926KSTC STC20020925095015409/25/02 09:50:31  5-MIN KSTC 251550Z AUTO 35008KT 5SM -RA BR BKN010 OVC027 09/09 A3013 830 96 400 340/08 RMK AO2 TSE04 CIG 005V012 SLP218 P0008 T00940089
14926KSTC STC20020925095512609/25/02 09:55:31  5-MIN KSTC 251555Z AUTO 36008KT 6SM -RA BR FEW006 BKN010 OVC025 09/09 A3012 840 96 400 360/08 RMK AO2 P0000
14926KSTC STC20020925100013809/25/02 10:00:31  5-MIN KSTC 251600Z AUTO 36006KT 6SM -RA BR FEW006 BKN010 OVC031 09/09 A3013 840 96 400 360/06 RMK AO2 CIG 007V013 P0001
14926KSTC STC20020925100513809/25/02 10:05:31  5-MIN KSTC 251605Z AUTO 35007KT 6SM -RA BR BKN010 BKN025 OVC031 09/08 A3013 830 96 300 350/07 RMK AO2 CIG 005V013 P0002
14926KSTC STC20020925101012609/25/02 10:10:31  5-MIN KSTC 251610Z AUTO 34008KT 5SM -RA BR SCT006 BKN010 OVC025 09/08 A3014 820 96 300 330/08 RMK AO2 P0002
14926KSTC STC20020925101513709/25/02 10:15:31  5-MIN KSTC 251615Z AUTO 33007KT 4SM RA BR SCT006 BKN011 OVC025 09/08 A3014 820 96 300 330/07 RMK AO2 CIG 009V013 P0004
14926KSTC STC20020925102014309/25/02 10:20:31  5-MIN KSTC 251620Z AUTO 36009G14KT 4SM RA BR BKN006 BKN011 OVC025 09/08 A3014 830 96 300 350/09G14 RMK AO2 CIG 004V009 P0006
14926KSTC STC20020925102515309/25/02 10:25:31  5-MIN KSTC 251625Z AUTO 35008KT 320V020 3SM RA BR BKN008 BKN011 OVC025 08/08 A3013 830 96 300 350/08 320V020 RMK AO2 CIG 004V009 P0007
14926KSTC STC20020925103013009/25/02 10:30:31  5-MIN KSTC 251630Z AUTO 36010KT 4SM RA BR BKN006 OVC011 08/08 A3013 830 96 300 350/10 RMK AO2 CIG 004V010 P0009
14926KSTC STC20020925103513009/25/02 10:35:31  5-MIN KSTC 251635Z AUTO 36009KT 4SM RA BR BKN006 OVC011 08/08 A3012 840 96 300 360/09 RMK AO2 CIG 004V008 P0010
14926KSTC STC20020925104013909/25/02 10:40:31  5-MIN KSTC 251640Z AUTO 02012G17KT 5SM -RA BR SCT006 BKN010 OVC028 08/08 A3011 850 96 300 010/12G17 RMK AO2 PRESFR P0010
14926KSTC STC20020925104513909/25/02 10:45:31  5-MIN KSTC 251645Z AUTO 02008G17KT 5SM -RA BR SCT006 BKN013 OVC028 08/08 A3010 860 96 300 010/08G17 RMK AO2 PRESFR P0011
14926KSTC STC20020925105016609/25/02 10:50:31  5-MIN KSTC 251650Z AUTO 01007KT 340V050 5SM -RA BR SCT008 BKN015 OVC028 08/08 A3009 870 96 300 010/07 340V050 RMK AO2 PRESFR SLP204 P0012 T00830078
14926KSTC STC20020925105512909/25/02 10:55:31  5-MIN KSTC 251655Z AUTO 02011G16KT 7SM -RA SCT008 BKN015 OVC021 09/08 A3010 860 93 400 020/11G16 RMK AO2 P0000
14926KSTC STC20020925110013009/25/02 11:00:31  5-MIN KSTC 251700Z AUTO 01010G16KT 10SM -RA SCT008 BKN013 OVC028 08/08 A3010 860 96 300 010/10G16 RMK AO2 P0000
14926KSTC STC20020925110513209/25/02 11:05:31  5-MIN KSTC 251705Z AUTO 02008G16KT 10SM SCT008 BKN014 OVC026 08/08 A3010 860 96 300 010/08G16 RMK AO2 RAE02 P0000
14926KSTC STC20020925111012609/25/02 11:10:31  5-MIN KSTC 251710Z AUTO 01010KT 10SM SCT008 BKN014 OVC024 08/08 A3011 850 96 300 010/10 RMK AO2 RAE02 P0000
14926KSTC STC20020925111513809/25/02 11:15:31  5-MIN KSTC 251715Z AUTO 01009KT 10SM BKN008 BKN015 OVC024 08/08 A3011 850 96 300 010/09 RMK AO2 RAE02 CIG 006V011 P0000
14926KSTC STC20020925112014409/25/02 11:20:31  5-MIN KSTC 251720Z AUTO 02011G15KT 10SM BKN010 BKN015 OVC024 08/07 A3012 840 93 300 020/11G15 RMK AO2 RAE02 CIG 006V011 P0000
14926KSTC STC20020925112513909/25/02 11:25:31  5-MIN KSTC 251725Z AUTO 02007G15KT 10SM -RA SCT010 BKN013 OVC024 08/07 A3012 840 93 300 020/07G15 RMK AO2 RAE02B22 P0000
14926KSTC STC20020925113012609/25/02 11:30:31  5-MIN KSTC 251730Z AUTO 02009KT 10SM -RA BKN010 OVC024 08/08 A3013 840 96 300 010/09 RMK AO2 RAE02B22 P0001
14926KSTC STC20020925113512609/25/02 11:35:31  5-MIN KSTC 251735Z AUTO 02010KT 10SM -RA BKN010 OVC024 08/07 A3013 840 93 300 020/10 RMK AO2 RAE02B22 P0001
14926KSTC STC20020925114012509/25/02 11:40:31  5-MIN KSTC 251740Z AUTO 01007KT 9SM -RA SCT012 OVC024 08/07 A3013 830 93 300 010/07 RMK AO2 RAE02B22 P0001
14926KSTC STC20020925114512809/25/02 11:45:31  5-MIN KSTC 251745Z AUTO 02006KT 6SM -RA BR FEW012 OVC026 08/08 A3013 830 96 300 020/06 RMK AO2 RAE02B22 P0002
14926KSTC STC20020925115016809/25/02 11:50:31  5-MIN KSTC 251750Z AUTO 03006KT 5SM RA BR FEW012 OVC026 08/08 A3013 840 96 300 030/06 RMK AO2 RAE02B22 SLP215 P0004 60028 T00830078 10106 20083 51009
14926KSTC STC20020925115511809/25/02 11:55:31  5-MIN KSTC 251755Z AUTO 01006KT 4SM RA BR FEW012 OVC026 08/08 A3013 840 96 300 010/06 RMK AO2 P0000
14926KSTC STC20020925120011809/25/02 12:00:31  5-MIN KSTC 251800Z AUTO 01006KT 4SM RA BR FEW012 OVC028 08/08 A3013 830 96 300 010/06 RMK AO2 P0002
14926KSTC STC20020925120511209/25/02 12:05:31  5-MIN KSTC 251805Z AUTO 36004KT 5SM -RA BR OVC028 08/08 A3014 830 96 300 360/04 RMK AO2 P0002
14926KSTC STC20020925121011209/25/02 12:10:31  5-MIN KSTC 251810Z AUTO 02006KT 5SM -RA BR OVC028 08/08 A3013 840 96 300 020/06 RMK AO2 P0003
14926KSTC STC20020925121511109/25/02 12:15:31  5-MIN KSTC 251815Z AUTO 02004KT 4SM RA BR OVC030 08/08 A3013 830 96 300 020/04 RMK AO2 P0005
14926KSTC STC20020925122011109/25/02 12:20:31  5-MIN KSTC 251820Z AUTO VRB05KT 4SM RA BR OVC030 08/08 A3013 830 96 300 VRB/05 RMK AO2 P0006
14926KSTC STC20020925122511909/25/02 12:25:31  5-MIN KSTC 251825Z AUTO 01006KT 5SM -RA BR FEW008 OVC030 08/08 A3014 830 96 300 010/06 RMK AO2 P0006
14926KSTC STC20020925123011609/25/02 12:30:31  5-MIN KSTC 251830Z AUTO 01006KT 7SM -RA FEW007 OVC030 08/08 A3013 830 96 300 360/06 RMK AO2 P0007
14926KSTC STC20020925123511609/25/02 12:35:31  5-MIN KSTC 251835Z AUTO 02006KT 9SM -RA FEW007 OVC032 08/08 A3013 830 96 300 010/06 RMK AO2 P0007
14926KSTC STC20020925124011609/25/02 12:40:31  5-MIN KSTC 251840Z AUTO 02005KT 8SM -RA FEW013 OVC032 08/08 A3012 840 96 300 020/05 RMK AO2 P0007
14926KSTC STC20020925124512309/25/02 12:45:31  5-MIN KSTC 251845Z AUTO 02006KT 7SM -RA FEW007 BKN034 OVC047 08/08 A3013 830 96 300 020/06 RMK AO2 P0007
14926KSTC STC20020925125014009/25/02 12:50:31  5-MIN KSTC 251850Z AUTO 03005KT 7SM -RA FEW007 BKN034 OVC047 09/08 A3013 830 93 300 030/05 RMK AO2 SLP217 P0008 T00890078
14926KSTC STC20020925125511609/25/02 12:55:31  5-MIN KSTC 251855Z AUTO 04005KT 8SM -RA BKN034 OVC047 09/08 A3013 830 93 300 040/05 RMK AO2 P0000
14926KSTC STC20020925130011609/25/02 13:00:31  5-MIN KSTC 251900Z AUTO 03006KT 8SM -RA BKN036 OVC047 09/08 A3012 840 93 400 030/06 RMK AO2 P0000
14926KSTC STC20020925130513009/25/02 13:05:31  5-MIN KSTC 251905Z AUTO 02008KT 9SM -RA FEW025 BKN036 OVC047 09/08 A3011 850 93 400 020/08 RMK AO2 PRESFR P0001
14926KSTC STC20020925131013109/25/02 13:10:31  5-MIN KSTC 251910Z AUTO 03008KT 10SM -RA SCT023 BKN036 OVC070 09/08 A3010 860 96 400 030/08 RMK AO2 PRESFR P0001
14926KSTC STC20020925131512409/25/02 13:15:31  5-MIN KSTC 251915Z AUTO 03006KT 10SM -RA FEW009 BKN036 OVC075 09/08 A3010 860 93 400 030/06 RMK AO2 P0001
14926KSTC STC20020925132012409/25/02 13:20:31  5-MIN KSTC 251920Z AUTO 04005KT 10SM -RA SCT009 BKN023 OVC075 09/08 A3010 860 93 400 040/05 RMK AO2 P0001
14926KSTC STC20020925132512409/25/02 13:25:31  5-MIN KSTC 251925Z AUTO 03009KT 10SM -RA SCT009 BKN023 OVC090 09/08 A3010 860 93 400 030/09 RMK AO2 P0001
14926KSTC STC20020925133013009/25/02 13:30:31  5-MIN KSTC 251930Z AUTO 02010G15KT 10SM -RA SCT009 BKN019 OVC090 09/08 A3010 860 93 400 020/10G15 RMK AO2 P0001
14926KSTC STC20020925133512509/25/02 13:35:31  5-MIN KSTC 251935Z AUTO 03008G15KT 10SM SCT009 BKN016 09/08 A3011 850 93 400 030/08G15 RMK AO2 RAE32 P0001
14926KSTC STC20020925134011909/25/02 13:40:31  5-MIN KSTC 251940Z AUTO 03010KT 10SM SCT009 OVC014 09/07 A3011 860 89 400 030/10 RMK AO2 RAE32 P0001
14926KSTC STC20020925134511909/25/02 13:45:31  5-MIN KSTC 251945Z AUTO 01007KT 10SM FEW009 OVC016 09/07 A3012 850 89 400 010/07 RMK AO2 RAE32 P0001
14926KSTC STC20020925135013609/25/02 13:50:31  5-MIN KSTC 251950Z AUTO 02007KT 10SM BKN014 OVC019 09/07 A3011 850 89 400 020/07 RMK AO2 RAE32 SLP210 P0001 T00890072
14926KSTC STC20020925135510009/25/02 13:55:31  5-MIN KSTC 251955Z AUTO 02008KT 10SM OVC014 09/07 A3011 850 89 400 010/08 RMK AO2
14926KSTC STC20020925140010009/25/02 14:00:31  5-MIN KSTC 252000Z AUTO 03007KT 10SM OVC016 08/07 A3012 840 93 300 030/07 RMK AO2
14926KSTC STC20020925140510009/25/02 14:05:31  5-MIN KSTC 252005Z AUTO VRB05KT 10SM OVC016 08/07 A3012 840 93 300 VRB/05 RMK AO2
14926KSTC STC20020925141010009/25/02 14:10:31  5-MIN KSTC 252010Z AUTO 04006KT 10SM OVC018 08/07 A3012 850 93 300 040/06 RMK AO2
14926KSTC STC20020925141510709/25/02 14:15:31  5-MIN KSTC 252015Z AUTO 03006KT 10SM FEW012 OVC018 08/07 A3012 840 93 300 030/06 RMK AO2
14926KSTC STC20020925142010009/25/02 14:20:31  5-MIN KSTC 252020Z AUTO 03007KT 10SM OVC018 08/07 A3012 840 93 300 030/07 RMK AO2
14926KSTC STC20020925142511409/25/02 14:25:31  5-MIN KSTC 252025Z AUTO 03007KT 10SM BKN018 BKN080 OVC090 08/07 A3012 840 93 300 030/07 RMK AO2
14926KSTC STC20020925143011409/25/02 14:30:31  5-MIN KSTC 252030Z AUTO 04009KT 10SM BKN020 BKN070 OVC090 08/07 A3012 840 89 300 040/09 RMK AO2
14926KSTC STC20020925143511409/25/02 14:35:31  5-MIN KSTC 252035Z AUTO 03007KT 10SM SCT020 BKN075 OVC090 08/06 A3012 840 86 300 030/07 RMK AO2
14926KSTC STC20020925144011409/25/02 14:40:31  5-MIN KSTC 252040Z AUTO 04006KT 10SM FEW020 BKN075 OVC090 08/06 A3012 840 86 300 040/06 RMK AO2
14926KSTC STC20020925144511409/25/02 14:45:31  5-MIN KSTC 252045Z AUTO 03005KT 10SM FEW020 BKN070 OVC090 08/06 A3013 840 86 300 020/05 RMK AO2
14926KSTC STC20020925145013609/25/02 14:50:31  5-MIN KSTC 252050Z AUTO 03005KT 10SM BKN070 OVC090 08/07 A3013 830 89 300 030/05 RMK AO2 SLP216 60009 T00830067 53006
14926KSTC STC20020925145511709/25/02 14:55:31  5-MIN KSTC 252055Z AUTO 04005KT 10SM -RA FEW037 OVC075 08/07 A3013 830 89 300 030/05 RMK AO2 P0000
14926KSTC STC20020925150011709/25/02 15:00:31  5-MIN KSTC 252100Z AUTO 04007KT 10SM -RA SCT039 OVC070 08/06 A3013 830 86 300 040/07 RMK AO2 P0000
14926KSTC STC20020925150511709/25/02 15:05:31  5-MIN KSTC 252105Z AUTO 05007KT 10SM -RA BKN039 OVC075 08/05 A3013 830 82 200 040/07 RMK AO2 P0000
14926KSTC STC20020925151011709/25/02 15:10:31  5-MIN KSTC 252110Z AUTO 04008KT 10SM -RA BKN039 OVC070 08/04 A3013 830 76 200 040/08 RMK AO2 P0000
14926KSTC STC20020925151511709/25/02 15:15:31  5-MIN KSTC 252115Z AUTO 05007KT 10SM -RA BKN039 OVC070 08/04 A3013 830 76 200 050/07 RMK AO2 P0000
14926KSTC STC20020925152011909/25/02 15:20:31  5-MIN KSTC 252120Z AUTO 05005KT 10SM BKN039 OVC075 07/03 A3014 830 76 100 040/05 RMK AO2 RAE18 P0000
14926KSTC STC20020925152511909/25/02 15:25:31  5-MIN KSTC 252125Z AUTO 05007KT 10SM BKN039 OVC075 07/04 A3014 830 79 100 050/07 RMK AO2 RAE18 P0000
14926KSTC STC20020925153011909/25/02 15:30:31  5-MIN KSTC 252130Z AUTO 04006KT 10SM BKN039 OVC075 07/04 A3014 820 79 100 040/06 RMK AO2 RAE18 P0000
14926KSTC STC20020925153511209/25/02 15:35:31  5-MIN KSTC 252135Z AUTO 04005KT 10SM OVC039 07/04 A3014 820 79 100 040/05 RMK AO2 RAE18 P0000
14926KSTC STC20020925154011209/25/02 15:40:31  5-MIN KSTC 252140Z AUTO 03006KT 10SM OVC039 07/04 A3014 820 82 100 020/06 RMK AO2 RAE18 P0000
14926KSTC STC20020925154511209/25/02 15:45:31  5-MIN KSTC 252145Z AUTO 04007KT 10SM OVC039 07/04 A3014 820 79 100 040/07 RMK AO2 RAE18 P0000
14926KSTC STC20020925155012909/25/02 15:50:31  5-MIN KSTC 252150Z AUTO 04006KT 10SM OVC039 07/03 A3014 820 76 100 040/06 RMK AO2 RAE18 SLP221 P0000 T00720033
14926KSTC STC20020925155510009/25/02 15:55:31  5-MIN KSTC 252155Z AUTO 04006KT 10SM OVC039 07/04 A3014 820 79 100 040/06 RMK AO2
14926KSTC STC20020925160010009/25/02 16:00:31  5-MIN KSTC 252200Z AUTO 07005KT 10SM OVC039 07/04 A3013 830 79 100 070/05 RMK AO2
14926KSTC STC20020925160510009/25/02 16:05:31  5-MIN KSTC 252205Z AUTO 06004KT 10SM OVC039 07/04 A3014 830 82 100 050/04 RMK AO2
14926KSTC STC20020925161010009/25/02 16:10:31  5-MIN KSTC 252210Z AUTO 05006KT 10SM OVC039 07/04 A3014 830 82 100 050/06 RMK AO2
14926KSTC STC20020925161510009/25/02 16:15:31  5-MIN KSTC 252215Z AUTO 06004KT 10SM OVC039 07/04 A3014 820 86 100 050/04 RMK AO2
14926KSTC STC20020925162010009/25/02 16:20:31  5-MIN KSTC 252220Z AUTO 08004KT 10SM OVC041 07/04 A3014 820 82 100 080/04 RMK AO2
14926KSTC STC20020925162510009/25/02 16:25:31  5-MIN KSTC 252225Z AUTO 09004KT 10SM OVC041 07/04 A3013 830 82 100 090/04 RMK AO2
14926KSTC STC20020925163010709/25/02 16:30:31  5-MIN KSTC 252230Z AUTO 08005KT 10SM BKN043 OVC050 07/04 A3013 830 82 100 080/05 RMK AO2
14926KSTC STC20020925163510709/25/02 16:35:31  5-MIN KSTC 252235Z AUTO 07004KT 10SM BKN043 OVC050 07/04 A3013 830 86 100 060/04 RMK AO2
14926KSTC STC20020925164010709/25/02 16:40:31  5-MIN KSTC 252240Z AUTO 04004KT 10SM SCT043 OVC050 07/04 A3013 830 86 100 030/04 RMK AO2
14926KSTC STC20020925164510709/25/02 16:45:31  5-MIN KSTC 252245Z AUTO 04003KT 10SM BKN047 OVC055 07/04 A3013 830 86 100 040/03 RMK AO2
14926KSTC STC20020925165011709/25/02 16:50:31  5-MIN KSTC 252250Z AUTO 04003KT 10SM OVC050 07/04 A3013 830 86 100 040/03 RMK AO2 SLP219 T00670044
14926KSTC STC20020925165510709/25/02 16:55:31  5-MIN KSTC 252255Z AUTO 00000KT 10SM BKN055 OVC075 07/05 A3013 830 89 100 000/00 RMK AO2
14926KSTC STC20020925170010709/25/02 17:00:31  5-MIN KSTC 252300Z AUTO 05004KT 10SM SCT055 OVC075 07/04 A3013 830 86 100 040/04 RMK AO2
14926KSTC STC20020925170510709/25/02 17:05:31  5-MIN KSTC 252305Z AUTO 00000KT 10SM SCT055 OVC075 07/05 A3014 830 89 100 000/00 RMK AO2
14926KSTC STC20020925171012309/25/02 17:10:31  5-MIN KSTC 252310Z AUTO 03003KT 10SM -RA FEW055 OVC075 07/05 A3014 830 89 100 030/03 RMK AO2 RAB08 P0000
14926KSTC STC20020925171512309/25/02 17:15:31  5-MIN KSTC 252315Z AUTO 03005KT 10SM -RA FEW060 OVC080 07/05 A3013 830 89 100 030/05 RMK AO2 RAB08 P0000
14926KSTC STC20020925172011609/25/02 17:20:31  5-MIN KSTC 252320Z AUTO 03005KT 10SM -RA OVC080 07/05 A3013 830 89 100 030/05 RMK AO2 RAB08 P0000
14926KSTC STC20020925172511509/25/02 17:25:31  5-MIN KSTC 252325Z AUTO 02005KT 10SM OVC080 07/05 A3013 830 89 100 020/05 RMK AO2 RAB08E23 P0000
14926KSTC STC20020925173011509/25/02 17:30:31  5-MIN KSTC 252330Z AUTO 02005KT 10SM OVC080 07/05 A3013 830 89 100 020/05 RMK AO2 RAB08E23 P0000
14926KSTC STC20020925173512209/25/02 17:35:31  5-MIN KSTC 252335Z AUTO 02005KT 10SM BKN080 OVC100 07/05 A3013 830 89 100 020/05 RMK AO2 RAB08E23 P0000
14926KSTC STC20020925174012209/25/02 17:40:31  5-MIN KSTC 252340Z AUTO 04004KT 10SM BKN080 OVC100 07/05 A3013 830 89 100 030/04 RMK AO2 RAB08E23 P0000
14926KSTC STC20020925174512209/25/02 17:45:31  5-MIN KSTC 252345Z AUTO 04005KT 10SM BKN080 OVC100 07/05 A3013 830 89 100 040/05 RMK AO2 RAB08E23 P0000
14926KSTC STC20020925175016309/25/02 17:50:31  5-MIN KSTC 252350Z AUTO 02004KT 10SM BKN080 OVC100 07/05 A3013 830 89 100 020/04 RMK AO2 RAB08E23 SLP218 P0000 60010 T00670050 10094 20067 53002
14926KSTC STC20020925175510709/25/02 17:55:31  5-MIN KSTC 252355Z AUTO 03003KT 10SM BKN080 OVC100 07/04 A3013 830 86 100 030/03 RMK AO2
14926KSTC STC20020925180010709/25/02 18:00:31  5-MIN KSTC 260000Z AUTO 04006KT 10SM BKN080 OVC100 07/04 A3013 830 82 100 030/06 RMK AO2
14926KSTC STC20020925180510009/25/02 18:05:31  5-MIN KSTC 260005Z AUTO 01005KT 10SM OVC080 07/03 A3014 830 76 100 010/05 RMK AO2
14926KSTC STC20020925181010009/25/02 18:10:31  5-MIN KSTC 260010Z AUTO 03006KT 10SM OVC080 07/02 A3013 830 73 100 030/06 RMK AO2
14926KSTC STC20020925181510009/25/02 18:15:31  5-MIN KSTC 260015Z AUTO 03004KT 10SM OVC080 07/02 A3014 830 73 100 020/04 RMK AO2
14926KSTC STC20020925182009809/25/02 18:20:31  5-MIN KSTC 260020Z AUTO 03004KT 10SM BKN080 06/02 A3014 830 76 0 030/04 RMK AO2
14926KSTC STC20020925182509809/25/02 18:25:31  5-MIN KSTC 260025Z AUTO 04004KT 10SM BKN080 06/02 A3014 830 73 0 030/04 RMK AO2
14926KSTC STC20020925183009809/25/02 18:30:31  5-MIN KSTC 260030Z AUTO 01005KT 10SM SCT080 06/02 A3014 820 73 0 360/05 RMK AO2
14926KSTC STC20020925183510509/25/02 18:35:31  5-MIN KSTC 260035Z AUTO 01005KT 10SM SCT080 SCT120 06/03 A3014 820 79 0 010/05 RMK AO2
14926KSTC STC20020925184010509/25/02 18:40:31  5-MIN KSTC 260040Z AUTO 01004KT 10SM FEW080 SCT120 06/03 A3014 820 79 0 360/04 RMK AO2
14926KSTC STC20020925184510509/25/02 18:45:31  5-MIN KSTC 260045Z AUTO 02004KT 10SM FEW100 SCT120 06/03 A3014 830 82 0 020/04 RMK AO2
14926KSTC STC20020925185012209/25/02 18:50:31  5-MIN KSTC 260050Z AUTO 02005KT 10SM FEW100 SCT120 06/03 A3013 830 79 0 010/05 RMK AO2 SLP219 T00610028
14926KSTC STC20020925185510509/25/02 18:55:31  5-MIN KSTC 260055Z AUTO 01005KT 10SM FEW100 SCT120 06/03 A3013 830 79 0 010/05 RMK AO2
14926KSTC STC20020925190010509/25/02 19:00:31  5-MIN KSTC 260100Z AUTO 03004KT 10SM FEW100 SCT120 06/02 A3013 830 76 0 030/04 RMK AO2
14926KSTC STC20020925190510509/25/02 19:05:31  5-MIN KSTC 260105Z AUTO 01004KT 10SM FEW100 SCT120 06/02 A3014 820 76 0 010/04 RMK AO2
14926KSTC STC20020925191010509/25/02 19:10:31  5-MIN KSTC 260110Z AUTO 04003KT 10SM FEW100 BKN120 06/02 A3014 820 76 0 030/03 RMK AO2
14926KSTC STC20020925191509809/25/02 19:15:31  5-MIN KSTC 260115Z AUTO 02003KT 10SM BKN120 06/02 A3014 820 76 0 010/03 RMK AO2
14926KSTC STC20020925192009809/25/02 19:20:31  5-MIN KSTC 260120Z AUTO 01006KT 10SM BKN120 06/02 A3014 820 79 0 360/06 RMK AO2
14926KSTC STC20020925192510509/25/02 19:25:31  5-MIN KSTC 260125Z AUTO 36005KT 10SM FEW100 BKN120 06/02 A3014 820 79 0 360/05 RMK AO2
14926KSTC STC20020925193010509/25/02 19:30:31  5-MIN KSTC 260130Z AUTO 02006KT 10SM FEW100 BKN120 06/03 A3013 830 82 0 020/06 RMK AO2
14926KSTC STC20020925193510509/25/02 19:35:31  5-MIN KSTC 260135Z AUTO 01006KT 10SM FEW100 BKN120 06/02 A3014 820 76 0 010/06 RMK AO2
14926KSTC STC20020925194009809/25/02 19:40:31  5-MIN KSTC 260140Z AUTO 36005KT 10SM BKN110 06/02 A3015 820 76 0 360/05 RMK AO2
14926KSTC STC20020925194509809/25/02 19:45:31  5-MIN KSTC 260145Z AUTO 01004KT 10SM BKN110 06/03 A3015 810 79 0 010/04 RMK AO2
14926KSTC STC20020925195012209/25/02 19:50:31  5-MIN KSTC 260150Z AUTO 01003KT 10SM SCT100 BKN120 06/03 A3015 810 79 0 360/03 RMK AO2 SLP226 T00610028
14926KSTC STC20020925195510509/25/02 19:55:31  5-MIN KSTC 260155Z AUTO 00000KT 10SM BKN095 BKN120 06/03 A3015 810 82 0 000/00 RMK AO2
14926KSTC STC20020925200010509/25/02 20:00:31  5-MIN KSTC 260200Z AUTO 00000KT 10SM BKN090 BKN110 06/03 A3015 810 82 0 000/00 RMK AO2
14926KSTC STC20020925200510509/25/02 20:05:31  5-MIN KSTC 260205Z AUTO 00000KT 10SM BKN090 BKN110 06/04 A3016 810 86 0 000/00 RMK AO2
14926KSTC STC20020925201009809/25/02 20:10:31  5-MIN KSTC 260210Z AUTO 00000KT 10SM OVC085 06/04 A3016 810 86 0 000/00 RMK AO2
14926KSTC STC20020925201509809/25/02 20:15:31  5-MIN KSTC 260215Z AUTO 00000KT 10SM OVC085 06/04 A3016 800 86 0 000/00 RMK AO2
14926KSTC STC20020925202009809/25/02 20:20:31  5-MIN KSTC 260220Z AUTO 00000KT 10SM OVC080 06/04 A3016 810 89 0 000/00 RMK AO2
14926KSTC STC20020925202509809/25/02 20:25:31  5-MIN KSTC 260225Z AUTO 00000KT 10SM OVC080 06/04 A3016 800 89 0 000/00 RMK AO2
14926KSTC STC20020925203009809/25/02 20:30:31  5-MIN KSTC 260230Z AUTO 02003KT 10SM OVC080 06/04 A3016 810 89 0 020/03 RMK AO2
14926KSTC STC20020925203509809/25/02 20:35:31  5-MIN KSTC 260235Z AUTO 00000KT 10SM OVC085 06/04 A3016 810 89 0 000/00 RMK AO2
14926KSTC STC20020925204009809/25/02 20:40:31  5-MIN KSTC 260240Z AUTO 02003KT 10SM OVC080 06/04 A3016 810 89 0 020/03 RMK AO2
14926KSTC STC20020925204511409/25/02 20:45:31  5-MIN KSTC 260245Z AUTO 02003KT 10SM -RA OVC080 06/05 A3016 810 93 0 020/03 RMK AO2 RAB44 P0000
14926KSTC STC20020925205014309/25/02 20:50:31  5-MIN KSTC 260250Z AUTO 02003KT 10SM -RA OVC080 06/05 A3015 810 93 0 020/03 RMK AO2 RAB44 SLP226 P0000 60000 T00610050 50000
14926KSTC STC20020925205510809/25/02 20:55:31  5-MIN KSTC 260255Z AUTO 05003KT 10SM -RA OVC080 06/05 A3015 810 93 0 040/03 RMK AO2 P0000
14926KSTC STC20020925210011209/25/02 21:00:31  5-MIN KSTC 260300Z AUTO 00000KT 10SM OVC080 06/05 A3015 820 93 0 000/00 RMK AO2 RAE0259 P0000
14926KSTC STC20020925210510809/25/02 21:05:31  5-MIN KSTC 260305Z AUTO 00000KT 10SM -RA OVC080 06/05 A3015 820 93 0 000/00 RMK AO2 P0000
14926KSTC STC20020925211010809/25/02 21:10:31  5-MIN KSTC 260310Z AUTO 08003KT 10SM -RA OVC080 06/05 A3014 820 93 0 080/03 RMK AO2 P0000
14926KSTC STC20020925211510809/25/02 21:15:31  5-MIN KSTC 260315Z AUTO 00000KT 10SM -RA OVC080 06/05 A3014 820 93 0 000/00 RMK AO2 P0000
14926KSTC STC20020925212011009/25/02 21:20:31  5-MIN KSTC 260320Z AUTO 00000KT 10SM OVC080 06/05 A3014 820 93 0 000/00 RMK AO2 RAE18 P0000
14926KSTC STC20020925212511009/25/02 21:25:31  5-MIN KSTC 260325Z AUTO 00000KT 10SM OVC085 06/05 A3014 820 93 0 000/00 RMK AO2 RAE18 P0000
14926KSTC STC20020925213011009/25/02 21:30:31  5-MIN KSTC 260330Z AUTO 00000KT 10SM OVC085 06/05 A3014 830 93 0 000/00 RMK AO2 RAE18 P0000
14926KSTC STC20020925213511009/25/02 21:35:31  5-MIN KSTC 260335Z AUTO 00000KT 10SM OVC085 06/05 A3014 820 93 0 000/00 RMK AO2 RAE18 P0000
14926KSTC STC20020925214011709/25/02 21:40:31  5-MIN KSTC 260340Z AUTO 01003KT 10SM -RA OVC080 06/05 A3014 830 93 0 010/03 RMK AO2 RAE18B37 P0001
14926KSTC STC20020925214511709/25/02 21:45:31  5-MIN KSTC 260345Z AUTO 01003KT 10SM -RA OVC080 06/05 A3013 830 93 0 010/03 RMK AO2 RAE18B37 P0001
14926KSTC STC20020925215013409/25/02 21:50:31  5-MIN KSTC 260350Z AUTO 02003KT 10SM -RA OVC080 06/06 A3013 830 96 0 010/03 RMK AO2 RAE18B37 SLP219 P0001 T00610056
14926KSTC STC20020925215510809/25/02 21:55:31  5-MIN KSTC 260355Z AUTO 02003KT 10SM -RA OVC080 06/06 A3013 830 96 0 010/03 RMK AO2 P0000
14926KSTC STC20020925220010809/25/02 22:00:31  5-MIN KSTC 260400Z AUTO 00000KT 10SM -RA OVC080 06/06 A3014 830 96 0 000/00 RMK AO2 P0000
14926KSTC STC20020925220510809/25/02 22:05:31  5-MIN KSTC 260405Z AUTO 00000KT 10SM -RA OVC080 06/06 A3014 830 96 0 000/00 RMK AO2 P0000
14926KSTC STC20020925221010809/25/02 22:10:31  5-MIN KSTC 260410Z AUTO 00000KT 10SM -RA OVC080 06/06 A3014 820 96 0 000/00 RMK AO2 P0000
14926KSTC STC20020925221510809/25/02 22:15:31  5-MIN KSTC 260415Z AUTO 00000KT 10SM -RA OVC080 06/06 A3014 820 96 0 000/00 RMK AO2 P0001
14926KSTC STC20020925222010809/25/02 22:20:31  5-MIN KSTC 260420Z AUTO 00000KT 10SM -RA OVC080 06/06 A3015 820 96 0 000/00 RMK AO2 P0001
14926KSTC STC20020925222510809/25/02 22:25:31  5-MIN KSTC 260425Z AUTO 00000KT 10SM -RA OVC075 06/06 A3015 820 96 0 000/00 RMK AO2 P0001
14926KSTC STC20020925223010809/25/02 22:30:31  5-MIN KSTC 260430Z AUTO 00000KT 10SM -RA OVC075 07/06 A3015 810 93 0 000/00 RMK AO2 P0001
14926KSTC STC20020925223511509/25/02 22:35:31  5-MIN KSTC 260435Z AUTO 00000KT 10SM -RA FEW060 OVC075 07/06 A3016 810 93 0 000/00 RMK AO2 P0001
14926KSTC STC20020925224011409/25/02 22:40:31  5-MIN KSTC 260440Z AUTO 00000KT 8SM -RA FEW060 OVC075 07/06 A3016 810 93 0 000/00 RMK AO2 P0002
14926KSTC STC20020925224511409/25/02 22:45:31  5-MIN KSTC 260445Z AUTO 00000KT 9SM -RA FEW060 OVC075 07/05 A3016 810 89 0 000/00 RMK AO2 P0002
14926KSTC STC20020925225012509/25/02 22:50:31  5-MIN KSTC 260450Z AUTO 00000KT 10SM -RA OVC075 06/05 A3015 810 93 0 000/00 RMK AO2 SLP226 P0002 T00610050
14926KSTC STC20020925225511509/25/02 22:55:31  5-MIN KSTC 260455Z AUTO 00000KT 10SM -RA SCT060 OVC075 06/06 A3015 810 96 0 000/00 RMK AO2 P0000
14926KSTC STC20020925230011509/25/02 23:00:31  5-MIN KSTC 260500Z AUTO 14003KT 10SM -RA BKN060 OVC080 06/06 A3015 820 96 0 140/03 RMK AO2 P0000
14926KSTC STC20020925230511509/25/02 23:05:31  5-MIN KSTC 260505Z AUTO 16003KT 10SM -RA BKN065 OVC080 06/06 A3015 810 96 0 150/03 RMK AO2 P0000
14926KSTC STC20020925231011509/25/02 23:10:31  5-MIN KSTC 260510Z AUTO 15003KT 10SM -RA BKN070 OVC085 06/06 A3015 820 96 0 150/03 RMK AO2 P0000
14926KSTC STC20020925231511509/25/02 23:15:31  5-MIN KSTC 260515Z AUTO 00000KT 10SM -RA SCT065 OVC080 06/06 A3015 810 96 0 000/00 RMK AO2 P0001
14926KSTC STC20020925232011509/25/02 23:20:31  5-MIN KSTC 260520Z AUTO 00000KT 10SM -RA SCT060 OVC080 06/06 A3015 810 96 0 000/00 RMK AO2 P0001
14926KSTC STC20020925232511709/25/02 23:25:31  5-MIN KSTC 260525Z AUTO 00000KT 10SM SCT070 OVC085 06/06 A3014 820 96 0 000/00 RMK AO2 RAE23 P0001
14926KSTC STC20020925233011709/25/02 23:30:31  5-MIN KSTC 260530Z AUTO 02003KT 10SM FEW070 OVC085 06/06 A3014 820 96 0 020/03 RMK AO2 RAE23 P0001
14926KSTC STC20020925233511709/25/02 23:35:31  5-MIN KSTC 260535Z AUTO 00000KT 10SM BKN085 OVC120 06/06 A3014 820 96 0 000/00 RMK AO2 RAE23 P0001
14926KSTC STC20020925234011009/25/02 23:40:31  5-MIN KSTC 260540Z AUTO 00000KT 10SM OVC085 06/06 A3014 820 96 0 000/00 RMK AO2 RAE23 P0001
14926KSTC STC20020925234511009/25/02 23:45:31  5-MIN KSTC 260545Z AUTO 00000KT 10SM OVC080 06/06 A3014 830 96 0 000/00 RMK AO2 RAE23 P0001
14926KSTC STC20020925235016809/25/02 23:50:31  5-MIN KSTC 260550Z AUTO 00000KT 10SM BKN085 OVC110 06/06 A3013 830 96 0 000/00 RMK AO2 RAE23 SLP219 P0001 60005 T00610056 10067 20056 401060056 50006
14926KSTC STC20020925235510509/25/02 23:55:31  5-MIN KSTC 260555Z AUTO 00000KT 10SM BKN085 OVC110 06/06 A3014 830 96 0 000/00 RMK AO2
14926KSTC STC20020926000010509/26/02 00:00:31  5-MIN KSTC 260600Z AUTO 00000KT 10SM BKN080 OVC120 06/06 A3013 830 96 0 000/00 RMK AO2
14926KSTC STC20020926000509809/26/02 00:05:31  5-MIN KSTC 260605Z AUTO 00000KT 10SM OVC080 06/06 A3013 830 96 0 000/00 RMK AO2
14926KSTC STC20020926001009909/26/02 00:10:31  5-MIN KSTC 260610Z AUTO 00000KT 10SM OVC080 06/06 A3013 830 100 0 000/00 RMK AO2
14926KSTC STC20020926001509909/26/02 00:15:31  5-MIN KSTC 260615Z AUTO 00000KT 10SM OVC080 06/06 A3012 840 100 0 000/00 RMK AO2
14926KSTC STC20020926002009809/26/02 00:20:31  5-MIN KSTC 260620Z AUTO 00000KT 10SM OVC080 06/06 A3012 840 96 0 000/00 RMK AO2
14926KSTC STC20020926002509809/26/02 00:25:31  5-MIN KSTC 260625Z AUTO 00000KT 10SM OVC080 06/06 A3012 840 96 0 000/00 RMK AO2
14926KSTC STC20020926003009809/26/02 00:30:31  5-MIN KSTC 260630Z AUTO 00000KT 10SM OVC080 06/06 A3013 840 96 0 000/00 RMK AO2
14926KSTC STC20020926003509809/26/02 00:35:31  5-MIN KSTC 260635Z AUTO 00000KT 10SM OVC080 06/06 A3013 840 96 0 000/00 RMK AO2
14926KSTC STC20020926004009809/26/02 00:40:31  5-MIN KSTC 260640Z AUTO 00000KT 10SM OVC080 06/06 A3013 840 96 0 000/00 RMK AO2
14926KSTC STC20020926004509809/26/02 00:45:31  5-MIN KSTC 260645Z AUTO 00000KT 10SM OVC080 06/06 A3013 830 96 0 000/00 RMK AO2
14926KSTC STC20020926005011509/26/02 00:50:31  5-MIN KSTC 260650Z AUTO 00000KT 10SM OVC080 06/06 A3013 830 96 0 000/00 RMK AO2 SLP219 T00610056
14926KSTC STC20020926005510009/26/02 00:55:31  5-MIN KSTC 260655Z AUTO 00000KT 10SM OVC080 07/06 A3013 830 93 100 000/00 RMK AO2
14926KSTC STC20020926010010009/26/02 01:00:31  5-MIN KSTC 260700Z AUTO 00000KT 10SM OVC080 07/06 A3013 830 93 100 000/00 RMK AO2
14926KSTC STC20020926010510009/26/02 01:05:31  5-MIN KSTC 260705Z AUTO 00000KT 10SM OVC080 07/06 A3013 830 93 100 000/00 RMK AO2
14926KSTC STC20020926011010009/26/02 01:10:31  5-MIN KSTC 260710Z AUTO 00000KT 10SM OVC075 07/06 A3013 830 96 100 000/00 RMK AO2
14926KSTC STC20020926011510009/26/02 01:15:31  5-MIN KSTC 260715Z AUTO 00000KT 10SM OVC075 07/06 A3014 830 96 100 000/00 RMK AO2
14926KSTC STC20020926012010009/26/02 01:20:31  5-MIN KSTC 260720Z AUTO 00000KT 10SM OVC075 07/06 A3014 830 96 100 000/00 RMK AO2
14926KSTC STC20020926012510009/26/02 01:25:31  5-MIN KSTC 260725Z AUTO 00000KT 10SM OVC075 07/06 A3013 830 96 100 000/00 RMK AO2
14926KSTC STC20020926013009909/26/02 01:30:31  5-MIN KSTC 260730Z AUTO 00000KT 10SM OVC075 06/06 A3012 840 100 0 000/00 RMK AO2
14926KSTC STC20020926013509909/26/02 01:35:31  5-MIN KSTC 260735Z AUTO 00000KT 10SM OVC075 06/06 A3012 840 100 0 000/00 RMK AO2
14926KSTC STC20020926014009909/26/02 01:40:31  5-MIN KSTC 260740Z AUTO 00000KT 10SM OVC075 06/06 A3012 840 100 0 000/00 RMK AO2
14926KSTC STC20020926014509909/26/02 01:45:31  5-MIN KSTC 260745Z AUTO 00000KT 10SM OVC075 06/06 A3012 840 100 0 000/00 RMK AO2
14926KSTC STC20020926015011609/26/02 01:50:31  5-MIN KSTC 260750Z AUTO 00000KT 10SM OVC080 06/06 A3012 840 100 0 000/00 RMK AO2 SLP214 T00610061
14926KSTC STC20020926015510009/26/02 01:55:31  5-MIN KSTC 260755Z AUTO 00000KT 10SM OVC080 07/06 A3012 840 96 100 000/00 RMK AO2
14926KSTC STC20020926020009909/26/02 02:00:31  5-MIN KSTC 260800Z AUTO 00000KT 10SM OVC080 06/06 A3012 840 100 0 000/00 RMK AO2
14926KSTC STC20020926020509909/26/02 02:05:31  5-MIN KSTC 260805Z AUTO 00000KT 10SM OVC080 06/06 A3012 840 100 0 000/00 RMK AO2
14926KSTC STC20020926021009909/26/02 02:10:31  5-MIN KSTC 260810Z AUTO 00000KT 10SM OVC080 06/06 A3012 840 100 0 000/00 RMK AO2
14926KSTC STC20020926021509909/26/02 02:15:31  5-MIN KSTC 260815Z AUTO 00000KT 10SM OVC080 06/06 A3012 850 100 0 000/00 RMK AO2
14926KSTC STC20020926022010709/26/02 02:20:31  5-MIN KSTC 260820Z AUTO 00000KT 10SM BKN080 OVC100 07/06 A3011 850 96 100 000/00 RMK AO2
14926KSTC STC20020926022509909/26/02 02:25:31  5-MIN KSTC 260825Z AUTO 00000KT 10SM OVC090 06/06 A3011 850 100 0 000/00 RMK AO2
14926KSTC STC20020926023009909/26/02 02:30:31  5-MIN KSTC 260830Z AUTO 00000KT 10SM OVC090 06/06 A3011 850 100 0 000/00 RMK AO2
14926KSTC STC20020926023509909/26/02 02:35:31  5-MIN KSTC 260835Z AUTO 14003KT 10SM OVC095 06/06 A3010 860 100 0 140/03 RMK AO2
14926KSTC STC20020926024009909/26/02 02:40:31  5-MIN KSTC 260840Z AUTO 14003KT 10SM OVC095 06/06 A3011 860 100 0 140/03 RMK AO2
14926KSTC STC20020926024509909/26/02 02:45:31  5-MIN KSTC 260845Z AUTO 00000KT 10SM OVC095 06/06 A3011 850 100 0 000/00 RMK AO2
14926KSTC STC20020926025012209/26/02 02:50:31  5-MIN KSTC 260850Z AUTO 00000KT 10SM OVC095 06/06 A3010 860 100 0 000/00 RMK AO2 SLP209 T00610061 58005
14926KSTC STC20020926025510609/26/02 02:55:31  5-MIN KSTC 260855Z AUTO 00000KT 10SM SCT080 OVC095 06/06 A3010 860 100 0 000/00 RMK AO2
14926KSTC STC20020926030010609/26/02 03:00:31  5-MIN KSTC 260900Z AUTO 00000KT 10SM SCT070 OVC090 06/06 A3011 860 100 0 000/00 RMK AO2
14926KSTC STC20020926030510609/26/02 03:05:31  5-MIN KSTC 260905Z AUTO 18003KT 10SM BKN070 OVC090 06/06 A3010 860 100 0 180/03 RMK AO2
14926KSTC STC20020926031010609/26/02 03:10:31  5-MIN KSTC 260910Z AUTO 16003KT 10SM BKN070 OVC090 06/06 A3010 860 100 0 160/03 RMK AO2
14926KSTC STC20020926031510609/26/02 03:15:31  5-MIN KSTC 260915Z AUTO 14003KT 10SM SCT070 OVC090 06/06 A3010 860 100 0 140/03 RMK AO2
14926KSTC STC20020926032010509/26/02 03:20:31  5-MIN KSTC 260920Z AUTO 00000KT 10SM SCT070 OVC090 06/06 A3011 850 96 0 000/00 RMK AO2
14926KSTC STC20020926032510509/26/02 03:25:31  5-MIN KSTC 260925Z AUTO 00000KT 10SM SCT065 OVC085 06/06 A3011 850 96 0 000/00 RMK AO2
14926KSTC STC20020926033010609/26/02 03:30:31  5-MIN KSTC 260930Z AUTO 27003KT 10SM SCT070 OVC085 06/06 A3012 840 100 0 260/03 RMK AO2
14926KSTC STC20020926033509909/26/02 03:35:31  5-MIN KSTC 260935Z AUTO 25003KT 10SM OVC080 06/06 A3012 840 100 0 240/03 RMK AO2
14926KSTC STC20020926034009909/26/02 03:40:31  5-MIN KSTC 260940Z AUTO 00000KT 10SM OVC080 06/06 A3012 840 100 0 000/00 RMK AO2
14926KSTC STC20020926034510509/26/02 03:45:31  5-MIN KSTC 260945Z AUTO 22003KT 10SM BKN070 OVC085 06/06 A3012 840 96 0 220/03 RMK AO2
14926KSTC STC20020926035012209/26/02 03:50:31  5-MIN KSTC 260950Z AUTO 22003KT 10SM BKN070 OVC085 06/06 A3012 840 96 0 210/03 RMK AO2 SLP215 T00610056
14926KSTC STC20020926035509809/26/02 03:55:31  5-MIN KSTC 260955Z AUTO 19005KT 10SM OVC070 06/06 A3012 850 96 0 190/05 RMK AO2
14926KSTC STC20020926040009809/26/02 04:00:31  5-MIN KSTC 261000Z AUTO 18005KT 10SM OVC070 06/06 A3012 840 96 0 170/05 RMK AO2
14926KSTC STC20020926040509809/26/02 04:05:31  5-MIN KSTC 261005Z AUTO 16007KT 10SM OVC065 06/06 A3011 850 96 0 160/07 RMK AO2
14926KSTC STC20020926041011209/26/02 04:10:31  5-MIN KSTC 261010Z AUTO 17008KT 10SM BKN060 OVC080 06/06 A3010 860 96 0 170/08 RMK AO2 PRESFR
14926KSTC STC20020926041509809/26/02 04:15:31  5-MIN KSTC 261015Z AUTO 17006KT 10SM OVC065 06/05 A3009 870 93 0 160/06 RMK AO2
14926KSTC STC20020926042010509/26/02 04:20:31  5-MIN KSTC 261020Z AUTO 15008KT 10SM OVC070 06/05 A3009 870 96 0 150/08 RMK AO2 PRESFR
14926KSTC STC20020926042510509/26/02 04:25:31  5-MIN KSTC 261025Z AUTO 15009KT 10SM OVC075 06/05 A3008 880 96 0 140/09 RMK AO2 PRESFR
14926KSTC STC20020926043010509/26/02 04:30:31  5-MIN KSTC 261030Z AUTO 13006KT 10SM BKN075 OVC095 06/04 A3008 870 92 0 130/06 RMK AO2
14926KSTC STC20020926043509809/26/02 04:35:31  5-MIN KSTC 261035Z AUTO VRB03KT 10SM BKN080 06/04 A3008 880 89 0 VRB/03 RMK AO2
14926KSTC STC20020926044009809/26/02 04:40:31  5-MIN KSTC 261040Z AUTO 36005KT 10SM BKN085 06/04 A3008 880 92 0 360/05 RMK AO2
14926KSTC STC20020926044509809/26/02 04:45:31  5-MIN KSTC 261045Z AUTO 01003KT 10SM OVC085 06/04 A3008 880 89 0 010/03 RMK AO2
14926KSTC STC20020926045011509/26/02 04:50:31  5-MIN KSTC 261050Z AUTO 36004KT 10SM OVC085 06/04 A3008 880 89 0 360/04 RMK AO2 SLP203 T00560039
14926KSTC STC20020926045509809/26/02 04:55:31  5-MIN KSTC 261055Z AUTO 00000KT 10SM OVC090 06/04 A3008 880 89 0 000/00 RMK AO2
14926KSTC STC20020926050009809/26/02 05:00:31  5-MIN KSTC 261100Z AUTO 00000KT 10SM OVC090 06/04 A3008 880 92 0 000/00 RMK AO2
14926KSTC STC20020926050509809/26/02 05:05:31  5-MIN KSTC 261105Z AUTO 00000KT 10SM OVC090 06/04 A3009 870 92 0 000/00 RMK AO2
14926KSTC STC20020926051009809/26/02 05:10:31  5-MIN KSTC 261110Z AUTO 00000KT 10SM OVC085 06/04 A3009 870 89 0 000/00 RMK AO2
14926KSTC STC20020926051509809/26/02 05:15:31  5-MIN KSTC 261115Z AUTO 00000KT 10SM OVC085 06/04 A3010 860 89 0 000/00 RMK AO2
14926KSTC STC20020926052009809/26/02 05:20:31  5-MIN KSTC 261120Z AUTO 00000KT 10SM OVC090 06/04 A3009 870 89 0 000/00 RMK AO2
14926KSTC STC20020926052509809/26/02 05:25:31  5-MIN KSTC 261125Z AUTO 00000KT 10SM OVC090 06/04 A3009 870 92 0 000/00 RMK AO2
14926KSTC STC20020926053009809/26/02 05:30:31  5-MIN KSTC 261130Z AUTO 00000KT 10SM OVC090 06/04 A3009 870 92 0 000/00 RMK AO2
14926KSTC STC20020926053509809/26/02 05:35:31  5-MIN KSTC 261135Z AUTO 00000KT 10SM OVC090 06/05 A3009 870 96 0 000/00 RMK AO2
14926KSTC STC20020926054009809/26/02 05:40:31  5-MIN KSTC 261140Z AUTO 17003KT 10SM OVC090 06/05 A3009 870 96 0 160/03 RMK AO2
14926KSTC STC20020926054509809/26/02 05:45:31  5-MIN KSTC 261145Z AUTO 00000KT 10SM OVC090 06/05 A3009 870 96 0 000/00 RMK AO2
14926KSTC STC20020926055013909/26/02 05:50:31  5-MIN KSTC 261150Z AUTO 00000KT 10SM OVC090 06/05 A3009 870 96 0 000/00 RMK AO2 SLP204 70044 T00560050 10067 20056 58013
14926KSTC STC20020926055509809/26/02 05:55:31  5-MIN KSTC 261155Z AUTO 00000KT 10SM OVC090 06/05 A3009 870 96 0 000/00 RMK AO2
14926KSTC STC20020926060009809/26/02 06:00:31  5-MIN KSTC 261200Z AUTO 00000KT 10SM BKN090 06/05 A3008 870 96 0 000/00 RMK AO2
14926KSTC STC20020926060509809/26/02 06:05:31  5-MIN KSTC 261205Z AUTO 00000KT 10SM BKN090 06/05 A3008 880 96 0 000/00 RMK AO2
14926KSTC STC20020926061009809/26/02 06:10:31  5-MIN KSTC 261210Z AUTO 00000KT 10SM SCT090 06/05 A3008 880 96 0 000/00 RMK AO2
14926KSTC STC20020926061509809/26/02 06:15:31  5-MIN KSTC 261215Z AUTO 00000KT 10SM FEW090 06/05 A3008 870 96 0 000/00 RMK AO2
14926KSTC STC20020926062009809/26/02 06:20:31  5-MIN KSTC 261220Z AUTO 00000KT 10SM FEW100 06/05 A3009 870 96 0 000/00 RMK AO2
14926KSTC STC20020926062509809/26/02 06:25:31  5-MIN KSTC 261225Z AUTO 00000KT 10SM FEW110 06/05 A3009 870 96 0 000/00 RMK AO2
14926KSTC STC20020926063009809/26/02 06:30:31  5-MIN KSTC 261230Z AUTO 00000KT 10SM FEW110 06/05 A3009 870 96 0 000/00 RMK AO2
14926KSTC STC20020926063509809/26/02 06:35:31  5-MIN KSTC 261235Z AUTO 00000KT 10SM SCT100 06/05 A3009 870 93 0 000/00 RMK AO2
14926KSTC STC20020926064009809/26/02 06:40:31  5-MIN KSTC 261240Z AUTO 00000KT 10SM SCT100 06/05 A3009 870 96 0 000/00 RMK AO2
14926KSTC STC20020926064509809/26/02 06:45:31  5-MIN KSTC 261245Z AUTO 00000KT 10SM SCT100 06/05 A3009 870 96 0 000/00 RMK AO2
14926KSTC STC20020926065011509/26/02 06:50:31  5-MIN KSTC 261250Z AUTO 00000KT 10SM SCT095 06/04 A3009 870 92 0 000/00 RMK AO2 SLP204 T00560044
14926KSTC STC20020926065509809/26/02 06:55:31  5-MIN KSTC 261255Z AUTO 00000KT 10SM SCT095 06/05 A3009 870 93 0 000/00 RMK AO2
14926KSTC STC20020926070009809/26/02 07:00:31  5-MIN KSTC 261300Z AUTO 00000KT 10SM SCT100 06/05 A3009 870 96 0 000/00 RMK AO2
14926KSTC STC20020926070509809/26/02 07:05:31  5-MIN KSTC 261305Z AUTO 00000KT 10SM FEW095 06/05 A3009 870 96 0 000/00 RMK AO2
14926KSTC STC20020926071009809/26/02 07:10:31  5-MIN KSTC 261310Z AUTO 00000KT 10SM FEW090 06/05 A3009 870 96 0 000/00 RMK AO2
14926KSTC STC20020926071509809/26/02 07:15:31  5-MIN KSTC 261315Z AUTO 00000KT 10SM FEW090 06/05 A3009 870 96 0 000/00 RMK AO2
14926KSTC STC20020926072009509/26/02 07:20:31  5-MIN KSTC 261320Z AUTO 00000KT 10SM CLR 06/05 A3009 870 96 0 000/00 RMK AO2
14926KSTC STC20020926072509709/26/02 07:25:31  5-MIN KSTC 261325Z AUTO 00000KT 10SM CLR 06/05 A3008 880 93 100 000/00 RMK AO2
14926KSTC STC20020926073009709/26/02 07:30:31  5-MIN KSTC 261330Z AUTO 00000KT 10SM CLR 06/06 A3009 870 96 100 000/00 RMK AO2
14926KSTC STC20020926073509509/26/02 07:35:31  5-MIN KSTC 261335Z AUTO 00000KT 10SM CLR 06/05 A3009 870 93 0 000/00 RMK AO2
14926KSTC STC20020926074009709/26/02 07:40:31  5-MIN KSTC 261340Z AUTO 00000KT 10SM CLR 07/04 A3009 870 86 100 000/00 RMK AO2
14926KSTC STC20020926074509709/26/02 07:45:31  5-MIN KSTC 261345Z AUTO 00000KT 10SM CLR 07/04 A3010 860 82 100 000/00 RMK AO2
14926KSTC STC20020926075011709/26/02 07:50:31  5-MIN KSTC 261350Z AUTO 00000KT 10SM FEW120 07/04 A3010 860 82 100 000/00 RMK AO2 SLP207 T00670039
14926KSTC STC20020926075510009/26/02 07:55:31  5-MIN KSTC 261355Z AUTO 00000KT 10SM FEW120 07/04 A3009 870 82 100 000/00 RMK AO2
14926KSTC STC20020926080010009/26/02 08:00:31  5-MIN KSTC 261400Z AUTO 00000KT 10SM FEW120 07/04 A3009 870 82 100 000/00 RMK AO2
14926KSTC STC20020926080510009/26/02 08:05:31  5-MIN KSTC 261405Z AUTO 00000KT 10SM FEW120 07/04 A3009 870 82 100 000/00 RMK AO2
14926KSTC STC20020926081010009/26/02 08:10:31  5-MIN KSTC 261410Z AUTO 00000KT 10SM FEW110 07/04 A3009 870 82 100 000/00 RMK AO2
14926KSTC STC20020926081510009/26/02 08:15:31  5-MIN KSTC 261415Z AUTO 00000KT 10SM SCT110 07/04 A3009 870 86 100 000/00 RMK AO2
14926KSTC STC20020926082010009/26/02 08:20:31  5-MIN KSTC 261420Z AUTO 00000KT 10SM SCT110 07/04 A3009 870 86 100 000/00 RMK AO2
14926KSTC STC20020926082510009/26/02 08:25:31  5-MIN KSTC 261425Z AUTO 00000KT 10SM SCT110 07/04 A3009 870 82 200 000/00 RMK AO2
14926KSTC STC20020926083010009/26/02 08:30:31  5-MIN KSTC 261430Z AUTO 00000KT 10SM BKN110 08/04 A3009 870 76 200 000/00 RMK AO2
14926KSTC STC20020926083510009/26/02 08:35:31  5-MIN KSTC 261435Z AUTO 00000KT 10SM BKN110 08/03 A3009 870 70 300 000/00 RMK AO2
14926KSTC STC20020926084010009/26/02 08:40:31  5-MIN KSTC 261440Z AUTO 00000KT 10SM BKN110 08/02 A3009 870 68 300 000/00 RMK AO2
14926KSTC STC20020926084510009/26/02 08:45:31  5-MIN KSTC 261445Z AUTO 00000KT 10SM BKN110 08/02 A3009 870 68 300 000/00 RMK AO2
14926KSTC STC20020926085012309/26/02 08:50:31  5-MIN KSTC 261450Z AUTO 00000KT 10SM SCT110 08/03 A3009 870 70 300 000/00 RMK AO2 SLP204 T00780028 58004
14926KSTC STC20020926085510009/26/02 08:55:31  5-MIN KSTC 261455Z AUTO 16003KT 10SM SCT110 08/03 A3009 870 68 300 150/03 RMK AO2
14926KSTC STC20020926090010009/26/02 09:00:31  5-MIN KSTC 261500Z AUTO 19003KT 10SM FEW110 08/03 A3009 870 68 300 190/03 RMK AO2
14926KSTC STC20020926090509709/26/02 09:05:31  5-MIN KSTC 261505Z AUTO 19003KT 10SM CLR 08/03 A3009 870 70 300 190/03 RMK AO2
14926KSTC STC20020926091009709/26/02 09:10:31  5-MIN KSTC 261510Z AUTO 19004KT 10SM CLR 08/03 A3009 870 68 300 190/04 RMK AO2
14926KSTC STC20020926091509709/26/02 09:15:31  5-MIN KSTC 261515Z AUTO 00000KT 10SM CLR 08/03 A3009 870 70 300 000/00 RMK AO2
14926KSTC STC20020926092009709/26/02 09:20:31  5-MIN KSTC 261520Z AUTO 00000KT 10SM CLR 09/03 A3009 870 68 400 000/00 RMK AO2
14926KSTC STC20020926092509709/26/02 09:25:31  5-MIN KSTC 261525Z AUTO 00000KT 10SM CLR 09/03 A3009 870 68 400 000/00 RMK AO2
14926KSTC STC20020926093009709/26/02 09:30:31  5-MIN KSTC 261530Z AUTO 00000KT 10SM CLR 09/03 A3008 880 68 400 000/00 RMK AO2
14926KSTC STC20020926093509709/26/02 09:35:31  5-MIN KSTC 261535Z AUTO 00000KT 10SM CLR 09/03 A3009 870 68 400 000/00 RMK AO2
14926KSTC STC20020926094009709/26/02 09:40:31  5-MIN KSTC 261540Z AUTO 00000KT 10SM CLR 08/03 A3009 870 68 300 000/00 RMK AO2
14926KSTC STC20020926094509709/26/02 09:45:31  5-MIN KSTC 261545Z AUTO 00000KT 10SM CLR 09/03 A3009 870 68 400 000/00 RMK AO2
14926KSTC STC20020926095011409/26/02 09:50:31  5-MIN KSTC 261550Z AUTO 00000KT 10SM CLR 09/03 A3008 880 65 400 000/00 RMK AO2 SLP200 T00890028
14926KSTC STC20020926095509709/26/02 09:55:31  5-MIN KSTC 261555Z AUTO 00000KT 10SM CLR 09/03 A3008 880 68 400 000/00 RMK AO2
14926KSTC STC20020926100009709/26/02 10:00:31  5-MIN KSTC 261600Z AUTO 00000KT 10SM CLR 09/03 A3008 880 68 400 000/00 RMK AO2
14926KSTC STC20020926100509709/26/02 10:05:31  5-MIN KSTC 261605Z AUTO 00000KT 10SM CLR 09/03 A3008 880 68 400 000/00 RMK AO2
14926KSTC STC20020926101009709/26/02 10:10:31  5-MIN KSTC 261610Z AUTO 00000KT 10SM CLR 09/03 A3008 880 68 400 000/00 RMK AO2
14926KSTC STC20020926101509709/26/02 10:15:31  5-MIN KSTC 261615Z AUTO 00000KT 10SM CLR 09/04 A3008 880 68 500 000/00 RMK AO2
14926KSTC STC20020926102009709/26/02 10:20:31  5-MIN KSTC 261620Z AUTO 00000KT 10SM CLR 09/03 A3008 880 68 400 000/00 RMK AO2
14926KSTC STC20020926102509709/26/02 10:25:31  5-MIN KSTC 261625Z AUTO 00000KT 10SM CLR 09/03 A3008 880 65 500 000/00 RMK AO2
14926KSTC STC20020926103009709/26/02 10:30:31  5-MIN KSTC 261630Z AUTO 00000KT 10SM CLR 09/03 A3007 890 65 500 000/00 RMK AO2
14926KSTC STC20020926103509709/26/02 10:35:31  5-MIN KSTC 261635Z AUTO 00000KT 10SM CLR 10/03 A3007 890 63 500 000/00 RMK AO2
14926KSTC STC20020926104009709/26/02 10:40:31  5-MIN KSTC 261640Z AUTO 00000KT 10SM CLR 10/04 A3007 890 65 500 000/00 RMK AO2
14926KSTC STC20020926104509709/26/02 10:45:31  5-MIN KSTC 261645Z AUTO 35003KT 10SM CLR 10/04 A3007 890 65 500 350/03 RMK AO2
14926KSTC STC20020926105011409/26/02 10:50:31  5-MIN KSTC 261650Z AUTO 00000KT 10SM CLR 09/04 A3007 890 68 500 000/00 RMK AO2 SLP195 T00940039
14926KSTC STC20020926105509709/26/02 10:55:31  5-MIN KSTC 261655Z AUTO 00000KT 10SM CLR 10/04 A3006 900 65 600 000/00 RMK AO2
14926KSTC STC20020926110009709/26/02 11:00:31  5-MIN KSTC 261700Z AUTO 33003KT 10SM CLR 10/04 A3006 890 65 500 320/03 RMK AO2
14926KSTC STC20020926110509709/26/02 11:05:31  5-MIN KSTC 261705Z AUTO 33003KT 10SM CLR 10/03 A3006 900 60 600 330/03 RMK AO2
14926KSTC STC20020926111009709/26/02 11:10:31  5-MIN KSTC 261710Z AUTO 30003KT 10SM CLR 10/03 A3006 900 63 500 300/03 RMK AO2
14926KSTC STC20020926111509709/26/02 11:15:31  5-MIN KSTC 261715Z AUTO 00000KT 10SM CLR 10/03 A3006 900 63 600 000/00 RMK AO2
14926KSTC STC20020926112009709/26/02 11:20:31  5-MIN KSTC 261720Z AUTO 09003KT 10SM CLR 11/04 A3006 900 63 600 090/03 RMK AO2
14926KSTC STC20020926112509709/26/02 11:25:31  5-MIN KSTC 261725Z AUTO 00000KT 10SM CLR 10/04 A3006 900 65 600 000/00 RMK AO2
14926KSTC STC20020926113009709/26/02 11:30:31  5-MIN KSTC 261730Z AUTO 33006KT 10SM CLR 11/02 A3006 900 56 600 330/06 RMK AO2
14926KSTC STC20020926113509709/26/02 11:35:31  5-MIN KSTC 261735Z AUTO 00000KT 10SM CLR 11/01 A3005 900 52 600 000/00 RMK AO2
14926KSTC STC20020926114009709/26/02 11:40:31  5-MIN KSTC 261740Z AUTO 00000KT 10SM CLR 11/02 A3005 900 54 600 000/00 RMK AO2
14926KSTC STC20020926114509709/26/02 11:45:31  5-MIN KSTC 261745Z AUTO VRB04KT 10SM CLR 11/02 A3005 900 54 700 VRB/04 RMK AO2
14926KSTC STC20020926115013209/26/02 11:50:31  5-MIN KSTC 261750Z AUTO 31005KT 10SM CLR 11/02 A3005 910 56 600 310/05 RMK AO2 SLP189 T01060022 10111 20050 50000
14926KSTC STC20020926115509709/26/02 11:55:31  5-MIN KSTC 261755Z AUTO VRB03KT 10SM CLR 11/03 A3005 910 56 700 VRB/03 RMK AO2
14926KSTC STC20020926120009709/26/02 12:00:31  5-MIN KSTC 261800Z AUTO 03004KT 10SM CLR 11/02 A3005 910 52 700 030/04 RMK AO2
14926KSTC STC20020926120509709/26/02 12:05:31  5-MIN KSTC 261805Z AUTO 00000KT 10SM CLR 11/01 A3004 910 50 700 000/00 RMK AO2
14926KSTC STC20020926121009709/26/02 12:10:31  5-MIN KSTC 261810Z AUTO 00000KT 10SM CLR 11/01 A3004 910 50 700 000/00 RMK AO2
14926KSTC STC20020926121509709/26/02 12:15:31  5-MIN KSTC 261815Z AUTO VRB03KT 10SM CLR 12/01 A3004 910 48 800 VRB/03 RMK AO2
14926KSTC STC20020926122009709/26/02 12:20:31  5-MIN KSTC 261820Z AUTO 00000KT 10SM CLR 12/02 A3004 920 50 800 000/00 RMK AO2
14926KSTC STC20020926122509709/26/02 12:25:31  5-MIN KSTC 261825Z AUTO 02005KT 10SM CLR 12/02 A3004 920 50 800 010/05 RMK AO2
14926KSTC STC20020926123009709/26/02 12:30:31  5-MIN KSTC 261830Z AUTO 04004KT 10SM CLR 12/02 A3004 920 48 800 030/04 RMK AO2
14926KSTC STC20020926123509709/26/02 12:35:31  5-MIN KSTC 261835Z AUTO VRB03KT 10SM CLR 12/02 A3003 920 48 800 VRB/03 RMK AO2
14926KSTC STC20020926124009709/26/02 12:40:31  5-MIN KSTC 261840Z AUTO VRB03KT 10SM CLR 12/02 A3003 920 52 800 VRB/03 RMK AO2
14926KSTC STC20020926124509709/26/02 12:45:31  5-MIN KSTC 261845Z AUTO VRB03KT 10SM CLR 12/02 A3003 930 48 900 VRB/03 RMK AO2
14926KSTC STC20020926125011409/26/02 12:50:31  5-MIN KSTC 261850Z AUTO 35003KT 10SM CLR 13/02 A3003 930 48 900 340/03 RMK AO2 SLP181 T01280022
14926KSTC STC20020926125509709/26/02 12:55:31  5-MIN KSTC 261855Z AUTO 27003KT 10SM CLR 13/02 A3003 930 46 900 270/03 RMK AO2
14926KSTC STC20020926130009709/26/02 13:00:31  5-MIN KSTC 261900Z AUTO 23004KT 10SM CLR 13/02 A3003 930 46 900 230/04 RMK AO2
14926KSTC STC20020926130509709/26/02 13:05:31  5-MIN KSTC 261905Z AUTO VRB04KT 10SM CLR 12/01 A3002 930 46 900 VRB/04 RMK AO2
14926KSTC STC20020926131009709/26/02 13:10:31  5-MIN KSTC 261910Z AUTO VRB04KT 10SM CLR 13/02 A3003 930 46 900 VRB/04 RMK AO2
14926KSTC STC20020926131509709/26/02 13:15:31  5-MIN KSTC 261915Z AUTO 00000KT 10SM CLR 13/01 A3002 930 44 900 000/00 RMK AO2
14926KSTC STC20020926132009809/26/02 13:20:31  5-MIN KSTC 261920Z AUTO VRB04KT 10SM CLR 13/02 A3002 930 45 1000 VRB/04 RMK AO2
14926KSTC STC20020926132509709/26/02 13:25:31  5-MIN KSTC 261925Z AUTO 19004KT 10SM CLR 13/02 A3002 940 46 900 180/04 RMK AO2
14926KSTC STC20020926133009709/26/02 13:30:31  5-MIN KSTC 261930Z AUTO 20004KT 10SM CLR 13/02 A3002 940 46 900 200/04 RMK AO2
14926KSTC STC20020926133509709/26/02 13:35:31  5-MIN KSTC 261935Z AUTO 19003KT 10SM CLR 13/01 A3001 940 44 900 190/03 RMK AO2
14926KSTC STC20020926134009709/26/02 13:40:31  5-MIN KSTC 261940Z AUTO 17004KT 10SM CLR 13/01 A3001 940 44 900 160/04 RMK AO2
14926KSTC STC20020926134509709/26/02 13:45:31  5-MIN KSTC 261945Z AUTO VRB03KT 10SM CLR 13/01 A3001 940 44 900 VRB/03 RMK AO2
14926KSTC STC20020926135011509/26/02 13:50:31  5-MIN KSTC 261950Z AUTO 00000KT 10SM CLR 13/01 A3001 950 43 1000 000/00 RMK AO2 SLP175 T01330011
14926KSTC STC20020926135509809/26/02 13:55:31  5-MIN KSTC 261955Z AUTO 00000KT 10SM CLR 13/01 A3001 940 43 1000 000/00 RMK AO2
14926KSTC STC20020926140009809/26/02 14:00:31  5-MIN KSTC 262000Z AUTO 00000KT 10SM CLR 14/01 A3001 950 41 1100 000/00 RMK AO2
14926KSTC STC20020926140509809/26/02 14:05:31  5-MIN KSTC 262005Z AUTO 10004KT 10SM CLR 14/02 A3001 950 43 1100 100/04 RMK AO2
14926KSTC STC20020926141009809/26/02 14:10:31  5-MIN KSTC 262010Z AUTO VRB03KT 10SM CLR 14/01 A3000 950 41 1100 VRB/03 RMK AO2
14926KSTC STC20020926141509809/26/02 14:15:31  5-MIN KSTC 262015Z AUTO VRB05KT 10SM CLR 13/02 A3000 950 45 1000 VRB/05 RMK AO2
14926KSTC STC20020926142009809/26/02 14:20:31  5-MIN KSTC 262020Z AUTO 00000KT 10SM CLR 14/01 A3000 950 40 1100 000/00 RMK AO2
14926KSTC STC20020926142509809/26/02 14:25:31  5-MIN KSTC 262025Z AUTO 14004KT 10SM CLR 14/01 A3000 950 41 1100 140/04 RMK AO2
14926KSTC STC20020926143009809/26/02 14:30:31  5-MIN KSTC 262030Z AUTO VRB04KT 10SM CLR 13/00 A3000 950 40 1000 VRB/04 RMK AO2
14926KSTC STC20020926143509809/26/02 14:35:31  5-MIN KSTC 262035Z AUTO 00000KT 10SM CLR 13/00 A3000 950 40 1000 000/00 RMK AO2
14926KSTC STC20020926144009809/26/02 14:40:31  5-MIN KSTC 262040Z AUTO VRB04KT 10SM CLR 13/01 A3000 950 43 1000 VRB/04 RMK AO2
14926KSTC STC20020926144509809/26/02 14:45:31  5-MIN KSTC 262045Z AUTO 18003KT 10SM CLR 13/01 A3000 950 43 1000 180/03 RMK AO2
14926KSTC STC20020926145012109/26/02 14:50:31  5-MIN KSTC 262050Z AUTO 12005KT 10SM CLR 13/02 A2999 960 45 1000 120/05 RMK AO2 SLP170 T01330017 58014
14926KSTC STC20020926145509809/26/02 14:55:31  5-MIN KSTC 262055Z AUTO VRB03KT 10SM CLR 13/01 A2999 960 43 1000 VRB/03 RMK AO2
14926KSTC STC20020926150009809/26/02 15:00:31  5-MIN KSTC 262100Z AUTO 08003KT 10SM CLR 13/01 A2999 960 43 1000 080/03 RMK AO2
14926KSTC STC20020926150509809/26/02 15:05:31  5-MIN KSTC 262105Z AUTO 13003KT 10SM CLR 14/02 A2999 960 43 1100 120/03 RMK AO2
14926KSTC STC20020926151009809/26/02 15:10:31  5-MIN KSTC 262110Z AUTO 17003KT 10SM CLR 13/02 A2999 960 45 1000 160/03 RMK AO2
14926KSTC STC20020926151509809/26/02 15:15:31  5-MIN KSTC 262115Z AUTO VRB03KT 10SM CLR 13/02 A2999 960 45 1000 VRB/03 RMK AO2
14926KSTC STC20020926152009809/26/02 15:20:31  5-MIN KSTC 262120Z AUTO 15004KT 10SM CLR 13/02 A2999 960 45 1000 140/04 RMK AO2
14926KSTC STC20020926152509809/26/02 15:25:31  5-MIN KSTC 262125Z AUTO 00000KT 10SM CLR 13/02 A2999 960 45 1000 000/00 RMK AO2
14926KSTC STC20020926153009809/26/02 15:30:31  5-MIN KSTC 262130Z AUTO 12004KT 10SM CLR 13/02 A2999 960 46 1000 120/04 RMK AO2
14926KSTC STC20020926153509809/26/02 15:35:31  5-MIN KSTC 262135Z AUTO 12004KT 10SM CLR 13/02 A2999 960 46 1000 120/04 RMK AO2
14926KSTC STC20020926154009809/26/02 15:40:31  5-MIN KSTC 262140Z AUTO 14004KT 10SM CLR 13/02 A2999 960 46 1000 140/04 RMK AO2
14926KSTC STC20020926154509809/26/02 15:45:31  5-MIN KSTC 262145Z AUTO 16003KT 10SM CLR 13/02 A2999 960 46 1000 160/03 RMK AO2
14926KSTC STC20020926155011509/26/02 15:50:31  5-MIN KSTC 262150Z AUTO 16005KT 10SM CLR 13/02 A2999 960 46 1000 150/05 RMK AO2 SLP168 T01330022
14926KSTC STC20020926155509809/26/02 15:55:31  5-MIN KSTC 262155Z AUTO 15006KT 10SM CLR 13/03 A2999 970 48 1000 150/06 RMK AO2
14926KSTC STC20020926160009809/26/02 16:00:31  5-MIN KSTC 262200Z AUTO 17005KT 10SM CLR 13/02 A2999 960 48 1000 170/05 RMK AO2
14926KSTC STC20020926160509809/26/02 16:05:31  5-MIN KSTC 262205Z AUTO 18005KT 10SM CLR 13/02 A2999 960 48 1000 170/05 RMK AO2
14926KSTC STC20020926161009809/26/02 16:10:31  5-MIN KSTC 262210Z AUTO 16005KT 10SM CLR 13/02 A2999 960 48 1000 160/05 RMK AO2
14926KSTC STC20020926161509809/26/02 16:15:31  5-MIN KSTC 262215Z AUTO 16004KT 10SM CLR 13/02 A2999 970 48 1000 160/04 RMK AO2
14926KSTC STC20020926162009809/26/02 16:20:31  5-MIN KSTC 262220Z AUTO 17004KT 10SM CLR 13/02 A2999 960 48 1000 170/04 RMK AO2
14926KSTC STC20020926162509809/26/02 16:25:31  5-MIN KSTC 262225Z AUTO 18004KT 10SM CLR 13/02 A2999 960 46 1000 180/04 RMK AO2
14926KSTC STC20020926163009809/26/02 16:30:31  5-MIN KSTC 262230Z AUTO 18003KT 10SM CLR 13/02 A2998 970 48 1000 180/03 RMK AO2
14926KSTC STC20020926163509809/26/02 16:35:31  5-MIN KSTC 262235Z AUTO 17004KT 10SM CLR 13/02 A2998 970 46 1000 160/04 RMK AO2
14926KSTC STC20020926164009809/26/02 16:40:31  5-MIN KSTC 262240Z AUTO 17004KT 10SM CLR 13/02 A2998 970 46 1000 160/04 RMK AO2
14926KSTC STC20020926164509809/26/02 16:45:31  5-MIN KSTC 262245Z AUTO 16003KT 10SM CLR 13/02 A2998 970 46 1000 160/03 RMK AO2
14926KSTC STC20020926165011509/26/02 16:50:31  5-MIN KSTC 262250Z AUTO 00000KT 10SM CLR 13/01 A2998 970 44 1000 000/00 RMK AO2 SLP166 T01280011
14926KSTC STC20020926165509809/26/02 16:55:31  5-MIN KSTC 262255Z AUTO 17003KT 10SM CLR 13/02 A2998 970 45 1000 160/03 RMK AO2
14926KSTC STC20020926170009809/26/02 17:00:31  5-MIN KSTC 262300Z AUTO 00000KT 10SM CLR 13/02 A2998 970 46 1000 000/00 RMK AO2
14926KSTC STC20020926170509809/26/02 17:05:31  5-MIN KSTC 262305Z AUTO 17003KT 10SM CLR 13/02 A2998 970 48 1000 170/03 RMK AO2
14926KSTC STC20020926171009809/26/02 17:10:31  5-MIN KSTC 262310Z AUTO 00000KT 10SM CLR 13/02 A2998 970 46 1000 000/00 RMK AO2
14926KSTC STC20020926171509809/26/02 17:15:31  5-MIN KSTC 262315Z AUTO 00000KT 10SM CLR 13/02 A2998 970 48 1000 000/00 RMK AO2
14926KSTC STC20020926172009709/26/02 17:20:31  5-MIN KSTC 262320Z AUTO 00000KT 10SM CLR 12/03 A2998 970 54 900 000/00 RMK AO2
14926KSTC STC20020926172509709/26/02 17:25:31  5-MIN KSTC 262325Z AUTO 00000KT 10SM CLR 12/04 A2998 970 56 900 000/00 RMK AO2
14926KSTC STC20020926173009709/26/02 17:30:31  5-MIN KSTC 262330Z AUTO 00000KT 10SM CLR 12/06 A2998 970 66 800 000/00 RMK AO2
14926KSTC STC20020926173509709/26/02 17:35:31  5-MIN KSTC 262335Z AUTO 00000KT 10SM CLR 11/06 A2998 970 71 700 000/00 RMK AO2
14926KSTC STC20020926174009709/26/02 17:40:31  5-MIN KSTC 262340Z AUTO 00000KT 10SM CLR 11/06 A2997 980 71 700 000/00 RMK AO2
14926KSTC STC20020926174509709/26/02 17:45:31  5-MIN KSTC 262345Z AUTO 00000KT 10SM CLR 11/06 A2997 980 74 700 000/00 RMK AO2
14926KSTC STC20020926175013209/26/02 17:50:31  5-MIN KSTC 262350Z AUTO 00000KT 10SM CLR 11/06 A2997 980 71 700 000/00 RMK AO2 SLP163 T01060056 10139 20106 56018
14926KSTC STC20020926175509709/26/02 17:55:31  5-MIN KSTC 262355Z AUTO 00000KT 10SM CLR 09/06 A2997 980 79 600 000/00 RMK AO2
14926KSTC STC20020926180009709/26/02 18:00:31  5-MIN KSTC 270000Z AUTO 00000KT 10SM CLR 09/06 A2997 980 76 600 000/00 RMK AO2
14926KSTC STC20020926180509709/26/02 18:05:31  5-MIN KSTC 270005Z AUTO 00000KT 10SM CLR 09/06 A2997 980 76 600 000/00 RMK AO2
14926KSTC STC20020926181009709/26/02 18:10:31  5-MIN KSTC 270010Z AUTO 00000KT 10SM CLR 08/06 A2997 980 82 500 000/00 RMK AO2
14926KSTC STC20020926181509709/26/02 18:15:31  5-MIN KSTC 270015Z AUTO 00000KT 10SM CLR 08/06 A2997 990 86 500 000/00 RMK AO2
14926KSTC STC20020926182009709/26/02 18:20:31  5-MIN KSTC 270020Z AUTO 00000KT 10SM CLR 08/07 A2997 980 89 500 000/00 RMK AO2
14926KSTC STC20020926182509709/26/02 18:25:31  5-MIN KSTC 270025Z AUTO 00000KT 10SM CLR 08/06 A2997 980 89 400 000/00 RMK AO2
14926KSTC STC20020926183009709/26/02 18:30:31  5-MIN KSTC 270030Z AUTO 00000KT 10SM CLR 07/06 A2997 980 93 300 000/00 RMK AO2
14926KSTC STC20020926183509709/26/02 18:35:31  5-MIN KSTC 270035Z AUTO 00000KT 10SM CLR 07/06 A2997 980 93 300 000/00 RMK AO2
14926KSTC STC20020926184009709/26/02 18:40:31  5-MIN KSTC 270040Z AUTO 00000KT 10SM CLR 07/06 A2997 980 93 300 000/00 RMK AO2
14926KSTC STC20020926184509709/26/02 18:45:31  5-MIN KSTC 270045Z AUTO 00000KT 10SM CLR 07/06 A2997 980 93 300 000/00 RMK AO2
14926KSTC STC20020926185011409/26/02 18:50:31  5-MIN KSTC 270050Z AUTO 00000KT 10SM CLR 07/06 A2997 980 93 300 000/00 RMK AO2 SLP163 T00670056
14926KSTC STC20020926185509709/26/02 18:55:31  5-MIN KSTC 270055Z AUTO 00000KT 10SM CLR 07/06 A2997 980 93 300 000/00 RMK AO2
14926KSTC STC20020926190009709/26/02 19:00:31  5-MIN KSTC 270100Z AUTO 00000KT 10SM CLR 07/06 A2997 980 93 300 000/00 RMK AO2
14926KSTC STC20020926190509709/26/02 19:05:31  5-MIN KSTC 270105Z AUTO 00000KT 10SM CLR 06/05 A2997 980 93 200 000/00 RMK AO2
14926KSTC STC20020926191009709/26/02 19:10:31  5-MIN KSTC 270110Z AUTO 00000KT 10SM CLR 06/05 A2997 980 96 100 000/00 RMK AO2
14926KSTC STC20020926191509809/26/02 19:15:31  5-MIN KSTC 270115Z AUTO 00000KT 10SM CLR 06/06 A2997 980 100 100 000/00 RMK AO2
14926KSTC STC20020926192009709/26/02 19:20:31  5-MIN KSTC 270120Z AUTO 00000KT 10SM CLR 06/05 A2997 980 96 100 000/00 RMK AO2
14926KSTC STC20020926192509709/26/02 19:25:31  5-MIN KSTC 270125Z AUTO 00000KT 10SM CLR 05/04 A2997 980 96 100 000/00 RMK AO2
14926KSTC STC20020926193009509/26/02 19:30:31  5-MIN KSTC 270130Z AUTO 00000KT 10SM CLR 05/04 A2997 980 96 0 000/00 RMK AO2
14926KSTC STC20020926193509709/26/02 19:35:31  5-MIN KSTC 270135Z AUTO 00000KT 10SM CLR 06/05 A2997 980 96 100 000/00 RMK AO2
14926KSTC STC20020926194009609/26/02 19:40:31  5-MIN KSTC 270140Z AUTO 00000KT 10SM CLR 04/04 A2997 980 100 0 000/00 RMK AO2
14926KSTC STC20020926194509509/26/02 19:45:31  5-MIN KSTC 270145Z AUTO 00000KT 10SM CLR 04/04 A2997 980 96 0 000/00 RMK AO2
14926KSTC STC20020926195011309/26/02 19:50:31  5-MIN KSTC 270150Z AUTO 00000KT 10SM CLR 04/04 A2997 980 100 0 000/00 RMK AO2 SLP164 T00440044
14926KSTC STC20020926195509609/26/02 19:55:31  5-MIN KSTC 270155Z AUTO 00000KT 10SM CLR 04/04 A2997 980 100 0 000/00 RMK AO2
14926KSTC STC20020926200009609/26/02 20:00:31  5-MIN KSTC 270200Z AUTO 00000KT 10SM CLR 04/04 A2997 980 100 0 000/00 RMK AO2
14926KSTC STC20020926200509609/26/02 20:05:31  5-MIN KSTC 270205Z AUTO 00000KT 10SM CLR 05/05 A2997 980 100 0 000/00 RMK AO2
14926KSTC STC20020926201009709/26/02 20:10:31  5-MIN KSTC 270210Z AUTO 00000KT 10SM CLR 05/04 A2997 980 96 100 000/00 RMK AO2
14926KSTC STC20020926201509609/26/02 20:15:31  5-MIN KSTC 270215Z AUTO 00000KT 10SM CLR 04/04 A2997 980 100 0 000/00 RMK AO2
14926KSTC STC20020926202009609/26/02 20:20:31  5-MIN KSTC 270220Z AUTO 00000KT 10SM CLR 04/04 A2996 990 100 0 000/00 RMK AO2
14926KSTC STC20020926202509709/26/02 20:25:31  5-MIN KSTC 270225Z AUTO 00000KT 10SM CLR 05/04 A2996 990 96 100 000/00 RMK AO2
14926KSTC STC20020926203009509/26/02 20:30:31  5-MIN KSTC 270230Z AUTO 00000KT 10SM CLR 04/04 A2996 990 96 0 000/00 RMK AO2
14926KSTC STC20020926203509509/26/02 20:35:31  5-MIN KSTC 270235Z AUTO 00000KT 10SM CLR 04/04 A2997 990 96 0 000/00 RMK AO2
14926KSTC STC20020926204009609/26/02 20:40:31  5-MIN KSTC 270240Z AUTO 00000KT 10SM CLR 04/04 A2996 990 100 0 000/00 RMK AO2
14926KSTC STC20020926204509609/26/02 20:45:31  5-MIN KSTC 270245Z AUTO 00000KT 10SM CLR 04/04 A2996 990 100 0 000/00 RMK AO2
14926KSTC STC20020926205011809/26/02 20:50:31  5-MIN KSTC 270250Z AUTO 00000KT 10SM CLR 04/04 A2997 980 96 0 000/00 RMK AO2 SLP163 T00440039 58007
14926KSTC STC20020926205509609/26/02 20:55:31  5-MIN KSTC 270255Z AUTO 00000KT 10SM CLR 04/04 A2996 990 100 0 000/00 RMK AO2
14926KSTC STC20020926210009609/26/02 21:00:31  5-MIN KSTC 270300Z AUTO 00000KT 10SM CLR 04/04 A2997 980 100 0 000/00 RMK AO2
14926KSTC STC20020926210509509/26/02 21:05:31  5-MIN KSTC 270305Z AUTO 00000KT 10SM CLR 04/03 A2996 990 96 0 000/00 RMK AO2
14926KSTC STC20020926211009909/26/02 21:10:31  5-MIN KSTC 270310Z AUTO 00000KT 10SM CLR 03/03 A2996 990 100 -100 000/00 RMK AO2
14926KSTC STC20020926211509609/26/02 21:15:31  5-MIN KSTC 270315Z AUTO 00000KT 10SM CLR 04/04 A2996 990 100 0 000/00 RMK AO2
14926KSTC STC20020926212009909/26/02 21:20:31  5-MIN KSTC 270320Z AUTO 00000KT 10SM CLR 03/03 A2996 990 100 -100 000/00 RMK AO2
14926KSTC STC20020926212509909/26/02 21:25:31  5-MIN KSTC 270325Z AUTO 00000KT 10SM CLR 03/03 A2996 990 100 -200 000/00 RMK AO2
14926KSTC STC20020926213009909/26/02 21:30:31  5-MIN KSTC 270330Z AUTO 00000KT 10SM CLR 03/03 A2996 990 100 -100 000/00 RMK AO2
14926KSTC STC20020926213509909/26/02 21:35:31  5-MIN KSTC 270335Z AUTO 00000KT 10SM CLR 03/03 A2996 990 100 -100 000/00 RMK AO2
14926KSTC STC20020926214009909/26/02 21:40:31  5-MIN KSTC 270340Z AUTO 00000KT 10SM CLR 03/03 A2996 990 100 -100 000/00 RMK AO2
14926KSTC STC20020926214509809/26/02 21:45:31  5-MIN KSTC 270345Z AUTO 00000KT 9SM CLR 03/03 A2996 990 100 -100 000/00 RMK AO2
14926KSTC STC20020926215011509/26/02 21:50:31  5-MIN KSTC 270350Z AUTO 00000KT 8SM CLR 03/03 A2996 990 100 -200 000/00 RMK AO2 SLP162 T00280028
14926KSTC STC20020926215509809/26/02 21:55:31  5-MIN KSTC 270355Z AUTO 00000KT 8SM CLR 02/02 A2996 990 100 -200 000/00 RMK AO2
14926KSTC STC20020926220009809/26/02 22:00:31  5-MIN KSTC 270400Z AUTO 00000KT 8SM CLR 03/03 A2996 990 100 -200 000/00 RMK AO2
14926KSTC STC20020926220509809/26/02 22:05:31  5-MIN KSTC 270405Z AUTO 00000KT 9SM CLR 03/03 A2996 990 100 -200 000/00 RMK AO2
14926KSTC STC20020926221009909/26/02 22:10:31  5-MIN KSTC 270410Z AUTO 00000KT 10SM CLR 03/03 A2996 990 100 -200 000/00 RMK AO2
14926KSTC STC20020926221509909/26/02 22:15:31  5-MIN KSTC 270415Z AUTO 00000KT 10SM CLR 03/03 A2996 990 100 -200 000/00 RMK AO2
14926KSTC STC20020926222009909/26/02 22:20:31  5-MIN KSTC 270420Z AUTO 00000KT 10SM CLR 03/03 A2996 990 100 -200 000/00 RMK AO2
14926KSTC STC20020926222509809/26/02 22:25:31  5-MIN KSTC 270425Z AUTO 00000KT 9SM CLR 03/03 A2996 990 100 -200 000/00 RMK AO2
14926KSTC STC20020926223009809/26/02 22:30:31  5-MIN KSTC 270430Z AUTO 00000KT 9SM CLR 03/03 A2996 990 100 -200 000/00 RMK AO2
14926KSTC STC20020926223509909/26/02 22:35:31  5-MIN KSTC 270435Z AUTO 00000KT 10SM CLR 03/03 A2996 990 100 -200 000/00 RMK AO2
14926KSTC STC20020926224009909/26/02 22:40:31  5-MIN KSTC 270440Z AUTO 00000KT 10SM CLR 03/03 A2996 990 100 -200 000/00 RMK AO2
14926KSTC STC20020926224509909/26/02 22:45:31  5-MIN KSTC 270445Z AUTO 00000KT 10SM CLR 03/03 A2996 990 100 -200 000/00 RMK AO2
14926KSTC STC20020926225011409/26/02 22:50:31  5-MIN KSTC 270450Z AUTO 00000KT 9SM CLR 03/02 A2996 990 96 -200 000/00 RMK AO2 SLP161 T00280022
14926KSTC STC20020926225509809/26/02 22:55:31  5-MIN KSTC 270455Z AUTO 00000KT 10SM CLR 03/02 A2996 990 96 -200 000/00 RMK AO2
14926KSTC STC20020926230009809/26/02 23:00:31  5-MIN KSTC 270500Z AUTO 00000KT 10SM CLR 03/02 A2996 990 96 -200 000/00 RMK AO2
14926KSTC STC20020926230509909/26/02 23:05:31  5-MIN KSTC 270505Z AUTO 00000KT 10SM CLR 02/02 A2996 990 100 -200 000/00 RMK AO2
14926KSTC STC20020926231009909/26/02 23:10:31  5-MIN KSTC 270510Z AUTO 00000KT 10SM CLR 02/02 A2996 990 100 -200 000/00 RMK AO2
14926KSTC STC20020926231509809/26/02 23:15:31  5-MIN KSTC 270515Z AUTO 00000KT 10SM CLR 03/02 A2996 990 96 -200 000/00 RMK AO2
14926KSTC STC20020926232009909/26/02 23:20:31  5-MIN KSTC 270520Z AUTO 00000KT 10SM CLR 03/02 A2995 1000 96 -200 000/00 RMK AO2
14926KSTC STC20020926232509809/26/02 23:25:31  5-MIN KSTC 270525Z AUTO 00000KT 10SM CLR 03/02 A2995 990 96 -200 000/00 RMK AO2
14926KSTC STC20020926233010009/26/02 23:30:31  5-MIN KSTC 270530Z AUTO 00000KT 10SM CLR 02/02 A2995 1000 100 -200 000/00 RMK AO2
14926KSTC STC20020926233510009/26/02 23:35:31  5-MIN KSTC 270535Z AUTO 00000KT 10SM CLR 02/02 A2995 1000 100 -200 000/00 RMK AO2
14926KSTC STC20020926234010009/26/02 23:40:31  5-MIN KSTC 270540Z AUTO 00000KT 10SM CLR 02/02 A2995 1000 100 -200 000/00 RMK AO2
14926KSTC STC20020926234509909/26/02 23:45:31  5-MIN KSTC 270545Z AUTO 00000KT 10SM CLR 02/02 A2995 1000 96 -200 000/00 RMK AO2
14926KSTC STC20020926235014509/26/02 23:50:31  5-MIN KSTC 270550Z AUTO 00000KT 10SM CLR 02/02 A2995 1000 100 -200 000/00 RMK AO2 SLP156 T00220022 10100 20017 401390017 58002
14926KSTC STC20020926235510009/26/02 23:55:31  5-MIN KSTC 270555Z AUTO 00000KT 10SM CLR 02/02 A2995 1000 100 -200 000/00 RMK AO2
14926KSTC STC20020927000010009/27/02 00:00:31  5-MIN KSTC 270600Z AUTO 00000KT 10SM CLR 02/02 A2995 1000 100 -200 000/00 RMK AO2
14926KSTC STC20020927000510009/27/02 00:05:31  5-MIN KSTC 270605Z AUTO 00000KT 10SM CLR 02/02 A2995 1000 100 -300 000/00 RMK AO2
14926KSTC STC20020927001010009/27/02 00:10:31  5-MIN KSTC 270610Z AUTO 00000KT 10SM CLR 02/02 A2995 1000 100 -200 000/00 RMK AO2
14926KSTC STC20020927001510009/27/02 00:15:31  5-MIN KSTC 270615Z AUTO 00000KT 10SM CLR 02/02 A2994 1000 100 -200 000/00 RMK AO2
14926KSTC STC20020927002009909/27/02 00:20:31  5-MIN KSTC 270620Z AUTO 00000KT 9SM CLR 02/02 A2994 1000 100 -300 000/00 RMK AO2
14926KSTC STC20020927002509909/27/02 00:25:31  5-MIN KSTC 270625Z AUTO 00000KT 7SM CLR 02/02 A2994 1000 100 -300 000/00 RMK AO2
14926KSTC STC20020927003009909/27/02 00:30:31  5-MIN KSTC 270630Z AUTO 36003KT 8SM CLR 02/02 A2994 1000 100 -300 360/03 RMK AO2
14926KSTC STC20020927003510009/27/02 00:35:31  5-MIN KSTC 270635Z AUTO 01003KT 10SM CLR 02/02 A2994 1000 100 -200 360/03 RMK AO2
14926KSTC STC20020927004010009/27/02 00:40:31  5-MIN KSTC 270640Z AUTO 02003KT 10SM CLR 02/02 A2994 1000 100 -300 010/03 RMK AO2
14926KSTC STC20020927004510009/27/02 00:45:31  5-MIN KSTC 270645Z AUTO 00000KT 10SM CLR 02/02 A2994 1000 100 -300 000/00 RMK AO2
14926KSTC STC20020927005011709/27/02 00:50:31  5-MIN KSTC 270650Z AUTO 00000KT 10SM CLR 02/02 A2994 1000 100 -200 000/00 RMK AO2 SLP154 T00220022
14926KSTC STC20020927005510009/27/02 00:55:31  5-MIN KSTC 270655Z AUTO 00000KT 10SM CLR 02/02 A2994 1000 100 -200 000/00 RMK AO2
14926KSTC STC20020927010010009/27/02 01:00:31  5-MIN KSTC 270700Z AUTO 00000KT 10SM CLR 02/02 A2994 1000 100 -300 000/00 RMK AO2
14926KSTC STC20020927010510009/27/02 01:05:31  5-MIN KSTC 270705Z AUTO 00000KT 10SM CLR 02/02 A2995 1000 100 -300 000/00 RMK AO2
14926KSTC STC20020927011009909/27/02 01:10:31  5-MIN KSTC 270710Z AUTO 00000KT 9SM CLR 02/02 A2995 1000 100 -300 000/00 RMK AO2
14926KSTC STC20020927011509909/27/02 01:15:31  5-MIN KSTC 270715Z AUTO 00000KT 8SM CLR 02/02 A2995 1000 100 -300 000/00 RMK AO2
14926KSTC STC20020927012009909/27/02 01:20:31  5-MIN KSTC 270720Z AUTO 00000KT 9SM CLR 02/02 A2995 1000 100 -300 000/00 RMK AO2
14926KSTC STC20020927012510009/27/02 01:25:31  5-MIN KSTC 270725Z AUTO 00000KT 10SM CLR 02/02 A2995 1000 100 -300 000/00 RMK AO2
14926KSTC STC20020927013010009/27/02 01:30:31  5-MIN KSTC 270730Z AUTO 00000KT 10SM CLR 02/02 A2995 1000 100 -300 000/00 RMK AO2
14926KSTC STC20020927013509909/27/02 01:35:31  5-MIN KSTC 270735Z AUTO 00000KT 9SM CLR 02/02 A2995 1000 100 -300 000/00 RMK AO2
14926KSTC STC20020927014009909/27/02 01:40:31  5-MIN KSTC 270740Z AUTO 00000KT 9SM CLR 02/02 A2995 1000 100 -300 000/00 RMK AO2
14926KSTC STC20020927014509909/27/02 01:45:31  5-MIN KSTC 270745Z AUTO 00000KT 9SM CLR 01/01 A2994 1000 100 -400 000/00 RMK AO2
14926KSTC STC20020927015011609/27/02 01:50:31  5-MIN KSTC 270750Z AUTO 00000KT 8SM CLR 01/01 A2994 1000 100 -400 000/00 RMK AO2 SLP155 T00110011
14926KSTC STC20020927015510209/27/02 01:55:31  5-MIN KSTC 270755Z AUTO 00000KT 6SM BR CLR 01/01 A2995 1000 100 -400 000/00 RMK AO2
14926KSTC STC20020927020010209/27/02 02:00:31  5-MIN KSTC 270800Z AUTO 00000KT 5SM BR CLR 01/01 A2994 1000 100 -400 000/00 RMK AO2
14926KSTC STC20020927020509909/27/02 02:05:31  5-MIN KSTC 270805Z AUTO 15003KT 7SM CLR 01/01 A2994 1010 100 -400 150/03 RMK AO2
14926KSTC STC20020927021009909/27/02 02:10:31  5-MIN KSTC 270810Z AUTO 00000KT 7SM CLR 01/01 A2994 1010 100 -400 000/00 RMK AO2
14926KSTC STC20020927021510209/27/02 02:15:31  5-MIN KSTC 270815Z AUTO 15003KT 6SM BR CLR 01/01 A2994 1010 100 -400 150/03 RMK AO2
14926KSTC STC20020927022010209/27/02 02:20:31  5-MIN KSTC 270820Z AUTO 00000KT 3SM BR CLR 01/01 A2994 1000 100 -400 000/00 RMK AO2
14926KSTC STC20020927022510209/27/02 02:25:31  5-MIN KSTC 270825Z AUTO 00000KT 4SM BR CLR 01/01 A2994 1000 100 -400 000/00 RMK AO2
14926KSTC STC20020927023009909/27/02 02:30:31  5-MIN KSTC 270830Z AUTO 00000KT 7SM CLR 01/01 A2994 1000 100 -400 000/00 RMK AO2
14926KSTC STC20020927023510009/27/02 02:35:31  5-MIN KSTC 270835Z AUTO 00000KT 10SM CLR 01/01 A2995 1000 100 -400 000/00 RMK AO2
14926KSTC STC20020927024009909/27/02 02:40:31  5-MIN KSTC 270840Z AUTO 00000KT 8SM CLR 01/01 A2994 1000 100 -400 000/00 RMK AO2
14926KSTC STC20020927024509909/27/02 02:45:31  5-MIN KSTC 270845Z AUTO 00000KT 8SM CLR 01/01 A2994 1000 100 -400 000/00 RMK AO2
14926KSTC STC20020927025012209/27/02 02:50:31  5-MIN KSTC 270850Z AUTO 00000KT 8SM CLR 01/01 A2994 1010 100 -400 000/00 RMK AO2 SLP154 T00110011 58005
14926KSTC STC20020927025509909/27/02 02:55:31  5-MIN KSTC 270855Z AUTO 00000KT 8SM CLR 01/01 A2994 1010 100 -400 000/00 RMK AO2
14926KSTC STC20020927030009909/27/02 03:00:31  5-MIN KSTC 270900Z AUTO 00000KT 9SM CLR 01/01 A2994 1010 100 -400 000/00 RMK AO2
14926KSTC STC20020927030509909/27/02 03:05:31  5-MIN KSTC 270905Z AUTO 00000KT 9SM CLR 01/01 A2994 1010 100 -300 000/00 RMK AO2
14926KSTC STC20020927031009809/27/02 03:10:31  5-MIN KSTC 270910Z AUTO 00000KT 9SM CLR 01/01 A2994 1010 96 -300 000/00 RMK AO2
14926KSTC STC20020927031510009/27/02 03:15:31  5-MIN KSTC 270915Z AUTO 00000KT 10SM CLR 01/01 A2994 1010 100 -400 000/00 RMK AO2
14926KSTC STC20020927032010009/27/02 03:20:31  5-MIN KSTC 270920Z AUTO 00000KT 10SM CLR 01/01 A2994 1010 100 -400 000/00 RMK AO2
14926KSTC STC20020927032509909/27/02 03:25:31  5-MIN KSTC 270925Z AUTO 00000KT 9SM CLR 01/01 A2994 1010 100 -400 000/00 RMK AO2
14926KSTC STC20020927033009909/27/02 03:30:31  5-MIN KSTC 270930Z AUTO 00000KT 9SM CLR 01/01 A2994 1010 100 -400 000/00 RMK AO2
14926KSTC STC20020927033509909/27/02 03:35:31  5-MIN KSTC 270935Z AUTO 00000KT 9SM CLR 01/01 A2994 1010 100 -400 000/00 RMK AO2
14926KSTC STC20020927034009909/27/02 03:40:31  5-MIN KSTC 270940Z AUTO 00000KT 9SM CLR 01/01 A2994 1010 100 -400 000/00 RMK AO2
14926KSTC STC20020927034509909/27/02 03:45:31  5-MIN KSTC 270945Z AUTO 00000KT 8SM CLR 01/01 A2994 1010 100 -400 000/00 RMK AO2
14926KSTC STC20020927035011609/27/02 03:50:31  5-MIN KSTC 270950Z AUTO 00000KT 9SM CLR 01/01 A2994 1010 100 -400 000/00 RMK AO2 SLP153 T00060006
14926KSTC STC20020927035509909/27/02 03:55:31  5-MIN KSTC 270955Z AUTO 00000KT 9SM CLR 01/01 A2994 1010 100 -400 000/00 RMK AO2
14926KSTC STC20020927040010009/27/02 04:00:31  5-MIN KSTC 271000Z AUTO 00000KT 10SM CLR 01/01 A2994 1010 100 -400 000/00 RMK AO2
14926KSTC STC20020927040510009/27/02 04:05:31  5-MIN KSTC 271005Z AUTO 00000KT 10SM CLR 01/01 A2994 1010 100 -400 000/00 RMK AO2
14926KSTC STC20020927041010009/27/02 04:10:31  5-MIN KSTC 271010Z AUTO 00000KT 10SM CLR 01/01 A2994 1000 100 -400 000/00 RMK AO2
14926KSTC STC20020927041510009/27/02 04:15:31  5-MIN KSTC 271015Z AUTO 00000KT 10SM CLR 01/01 A2994 1000 100 -400 000/00 RMK AO2
14926KSTC STC20020927042010009/27/02 04:20:31  5-MIN KSTC 271020Z AUTO 00000KT 10SM CLR 01/01 A2994 1000 100 -400 000/00 RMK AO2
14926KSTC STC20020927042510009/27/02 04:25:31  5-MIN KSTC 271025Z AUTO 00000KT 10SM CLR 01/01 A2994 1000 100 -400 000/00 RMK AO2
14926KSTC STC20020927043010009/27/02 04:30:31  5-MIN KSTC 271030Z AUTO 00000KT 10SM CLR 00/00 A2995 1000 100 -500 000/00 RMK AO2
14926KSTC STC20020927043509909/27/02 04:35:31  5-MIN KSTC 271035Z AUTO 00000KT 9SM CLR 00/00 A2995 1000 100 -500 000/00 RMK AO2
14926KSTC STC20020927044009909/27/02 04:40:31  5-MIN KSTC 271040Z AUTO 01003KT 9SM CLR 01/01 A2995 1000 100 -400 010/03 RMK AO2
14926KSTC STC20020927044510009/27/02 04:45:31  5-MIN KSTC 271045Z AUTO 00000KT 10SM CLR 01/01 A2995 1000 100 -400 000/00 RMK AO2
14926KSTC STC20020927045011709/27/02 04:50:31  5-MIN KSTC 271050Z AUTO 00000KT 10SM CLR 01/01 A2995 1000 100 -400 000/00 RMK AO2 SLP156 T00060006
14926KSTC STC20020927045510009/27/02 04:55:31  5-MIN KSTC 271055Z AUTO 00000KT 10SM CLR 00/00 A2995 1000 100 -500 000/00 RMK AO2
14926KSTC STC20020927050010009/27/02 05:00:31  5-MIN KSTC 271100Z AUTO 00000KT 10SM CLR 00/00 A2995 1000 100 -500 000/00 RMK AO2
14926KSTC STC20020927050509909/27/02 05:05:31  5-MIN KSTC 271105Z AUTO 00000KT 10SM CLR 01/00 A2995 1000 96 -400 000/00 RMK AO2
14926KSTC STC20020927051010009/27/02 05:10:31  5-MIN KSTC 271110Z AUTO 00000KT 10SM CLR 00/00 A2995 1000 100 -500 000/00 RMK AO2
14926KSTC STC20020927051510009/27/02 05:15:31  5-MIN KSTC 271115Z AUTO 00000KT 10SM CLR 00/00 A2995 1000 100 -500 000/00 RMK AO2
14926KSTC STC20020927052010009/27/02 05:20:31  5-MIN KSTC 271120Z AUTO 00000KT 10SM CLR 00/00 A2995 1000 100 -500 000/00 RMK AO2
14926KSTC STC20020927052510009/27/02 05:25:31  5-MIN KSTC 271125Z AUTO 00000KT 10SM CLR 00/00 A2995 1000 100 -500 000/00 RMK AO2
14926KSTC STC20020927053009909/27/02 05:30:31  5-MIN KSTC 271130Z AUTO 00000KT 10SM CLR 01/00 A2995 1000 96 -400 000/00 RMK AO2
14926KSTC STC20020927053510009/27/02 05:35:31  5-MIN KSTC 271135Z AUTO 00000KT 10SM CLR 01/01 A2995 1000 100 -400 000/00 RMK AO2
14926KSTC STC20020927054010009/27/02 05:40:31  5-MIN KSTC 271140Z AUTO 00000KT 10SM CLR 01/01 A2995 1000 100 -400 000/00 RMK AO2
14926KSTC STC20020927054510009/27/02 05:45:31  5-MIN KSTC 271145Z AUTO 00000KT 10SM CLR 01/01 A2995 1000 100 -400 000/00 RMK AO2
14926KSTC STC20020927055013509/27/02 05:50:31  5-MIN KSTC 271150Z AUTO 00000KT 10SM CLR 01/01 A2995 1000 100 -400 000/00 RMK AO2 SLP158 T00060006 10022 20000 56002
14926KSTC STC20020927055510009/27/02 05:55:31  5-MIN KSTC 271155Z AUTO 00000KT 10SM CLR 01/01 A2995 1000 100 -400 000/00 RMK AO2
14926KSTC STC20020927060010009/27/02 06:00:31  5-MIN KSTC 271200Z AUTO 00000KT 10SM CLR 01/01 A2995 1000 100 -400 000/00 RMK AO2
14926KSTC STC20020927060510009/27/02 06:05:31  5-MIN KSTC 271205Z AUTO 00000KT 10SM CLR 01/01 A2995 1000 100 -400 000/00 RMK AO2
14926KSTC STC20020927061010009/27/02 06:10:31  5-MIN KSTC 271210Z AUTO 00000KT 10SM CLR 01/01 A2995 1000 100 -400 000/00 RMK AO2
14926KSTC STC20020927061509809/27/02 06:15:31  5-MIN KSTC 271215Z AUTO 00000KT 9SM CLR 00/00 A2996 990 100 -500 000/00 RMK AO2
14926KSTC STC20020927062009709/27/02 06:20:31  5-MIN KSTC 271220Z AUTO 00000KT 9SM CLR 01/00 A2996 990 96 -400 000/00 RMK AO2
14926KSTC STC20020927062509909/27/02 06:25:31  5-MIN KSTC 271225Z AUTO 00000KT 10SM CLR 01/01 A2996 990 100 -400 000/00 RMK AO2
14926KSTC STC20020927063009909/27/02 06:30:31  5-MIN KSTC 271230Z AUTO 00000KT 10SM CLR 01/01 A2996 990 100 -400 000/00 RMK AO2
14926KSTC STC20020927063509909/27/02 06:35:31  5-MIN KSTC 271235Z AUTO 00000KT 10SM CLR 01/01 A2996 990 100 -400 000/00 RMK AO2
14926KSTC STC20020927064009909/27/02 06:40:31  5-MIN KSTC 271240Z AUTO 00000KT 10SM CLR 01/01 A2996 990 100 -400 000/00 RMK AO2
14926KSTC STC20020927064509909/27/02 06:45:31  5-MIN KSTC 271245Z AUTO 00000KT 10SM CLR 01/01 A2996 990 100 -400 000/00 RMK AO2
14926KSTC STC20020927065011509/27/02 06:50:31  5-MIN KSTC 271250Z AUTO 00000KT 10SM CLR 01/01 A2996 990 96 -400 000/00 RMK AO2 SLP163 T00110006
14926KSTC STC20020927065509909/27/02 06:55:31  5-MIN KSTC 271255Z AUTO 00000KT 10SM CLR 01/01 A2996 990 100 -400 000/00 RMK AO2
14926KSTC STC20020927070009909/27/02 07:00:31  5-MIN KSTC 271300Z AUTO 00000KT 10SM CLR 01/01 A2996 990 100 -400 000/00 RMK AO2
14926KSTC STC20020927070509909/27/02 07:05:31  5-MIN KSTC 271305Z AUTO 00000KT 10SM CLR 01/01 A2996 990 100 -400 000/00 RMK AO2
14926KSTC STC20020927071009909/27/02 07:10:31  5-MIN KSTC 271310Z AUTO 00000KT 10SM CLR 01/01 A2997 980 100 -400 000/00 RMK AO2
14926KSTC STC20020927071509909/27/02 07:15:31  5-MIN KSTC 271315Z AUTO 00000KT 10SM CLR 02/02 A2997 990 100 -300 000/00 RMK AO2
14926KSTC STC20020927072009809/27/02 07:20:31  5-MIN KSTC 271320Z AUTO 00000KT 10SM CLR 03/02 A2997 980 92 -200 000/00 RMK AO2
14926KSTC STC20020927072509809/27/02 07:25:31  5-MIN KSTC 271325Z AUTO 00000KT 10SM CLR 03/02 A2997 980 96 -200 000/00 RMK AO2
14926KSTC STC20020927073009809/27/02 07:30:31  5-MIN KSTC 271330Z AUTO 00000KT 10SM CLR 03/03 A2997 980 96 -100 000/00 RMK AO2
14926KSTC STC20020927073509509/27/02 07:35:31  5-MIN KSTC 271335Z AUTO 00000KT 10SM CLR 04/03 A2997 980 96 0 000/00 RMK AO2
14926KSTC STC20020927074009509/27/02 07:40:31  5-MIN KSTC 271340Z AUTO 00000KT 10SM CLR 04/03 A2997 980 92 0 000/00 RMK AO2
14926KSTC STC20020927074509509/27/02 07:45:31  5-MIN KSTC 271345Z AUTO 00000KT 10SM CLR 04/04 A2997 980 96 0 000/00 RMK AO2
14926KSTC STC20020927075011209/27/02 07:50:31  5-MIN KSTC 271350Z AUTO 00000KT 10SM CLR 05/04 A2997 980 92 0 000/00 RMK AO2 SLP166 T00500039
14926KSTC STC20020927075509509/27/02 07:55:31  5-MIN KSTC 271355Z AUTO 00000KT 10SM CLR 05/04 A2997 980 96 0 000/00 RMK AO2
14926KSTC STC20020927080009709/27/02 08:00:31  5-MIN KSTC 271400Z AUTO 00000KT 10SM CLR 06/04 A2997 980 92 100 000/00 RMK AO2
14926KSTC STC20020927080509709/27/02 08:05:31  5-MIN KSTC 271405Z AUTO 00000KT 10SM CLR 06/04 A2998 980 89 200 000/00 RMK AO2
14926KSTC STC20020927081009709/27/02 08:10:31  5-MIN KSTC 271410Z AUTO 00000KT 10SM CLR 06/05 A2998 970 93 200 000/00 RMK AO2
14926KSTC STC20020927081509709/27/02 08:15:31  5-MIN KSTC 271415Z AUTO 00000KT 10SM CLR 07/04 A2998 970 86 200 000/00 RMK AO2
14926KSTC STC20020927082009709/27/02 08:20:31  5-MIN KSTC 271420Z AUTO 00000KT 10SM CLR 07/04 A2998 970 82 300 000/00 RMK AO2
14926KSTC STC20020927082509709/27/02 08:25:31  5-MIN KSTC 271425Z AUTO 00000KT 10SM CLR 08/05 A2998 970 82 400 000/00 RMK AO2
14926KSTC STC20020927083009709/27/02 08:30:31  5-MIN KSTC 271430Z AUTO 00000KT 10SM CLR 08/05 A2998 970 82 400 000/00 RMK AO2
14926KSTC STC20020927083509709/27/02 08:35:31  5-MIN KSTC 271435Z AUTO 00000KT 10SM CLR 08/05 A2998 970 79 400 000/00 RMK AO2
14926KSTC STC20020927084009709/27/02 08:40:31  5-MIN KSTC 271440Z AUTO 00000KT 10SM CLR 08/06 A2998 970 82 400 000/00 RMK AO2
14926KSTC STC20020927084509709/27/02 08:45:31  5-MIN KSTC 271445Z AUTO 00000KT 10SM CLR 09/06 A2998 970 79 500 000/00 RMK AO2
14926KSTC STC20020927085012009/27/02 08:50:31  5-MIN KSTC 271450Z AUTO 00000KT 10SM CLR 09/06 A2998 970 76 600 000/00 RMK AO2 SLP168 T00940056 53003
14926KSTC STC20020927085509709/27/02 08:55:31  5-MIN KSTC 271455Z AUTO 00000KT 10SM CLR 09/06 A2998 970 76 600 000/00 RMK AO2
14926KSTC STC20020927090009709/27/02 09:00:31  5-MIN KSTC 271500Z AUTO VRB03KT 10SM CLR 10/06 A2998 970 74 600 VRB/03 RMK AO2
14926KSTC STC20020927090509709/27/02 09:05:31  5-MIN KSTC 271505Z AUTO 29004KT 10SM CLR 10/06 A2998 970 74 600 290/04 RMK AO2
14926KSTC STC20020927091009709/27/02 09:10:31  5-MIN KSTC 271510Z AUTO 30003KT 10SM CLR 11/06 A2998 970 71 700 290/03 RMK AO2
14926KSTC STC20020927091509709/27/02 09:15:31  5-MIN KSTC 271515Z AUTO 30003KT 10SM CLR 11/06 A2998 970 71 700 300/03 RMK AO2
14926KSTC STC20020927092009709/27/02 09:20:31  5-MIN KSTC 271520Z AUTO 00000KT 10SM CLR 11/06 A2998 970 68 800 000/00 RMK AO2
14926KSTC STC20020927092509709/27/02 09:25:31  5-MIN KSTC 271525Z AUTO 00000KT 10SM CLR 11/06 A2998 970 68 800 000/00 RMK AO2
14926KSTC STC20020927093009709/27/02 09:30:31  5-MIN KSTC 271530Z AUTO 29003KT 10SM CLR 11/06 A2998 970 68 800 290/03 RMK AO2
14926KSTC STC20020927093509709/27/02 09:35:31  5-MIN KSTC 271535Z AUTO 29004KT 10SM CLR 12/06 A2998 970 66 800 290/04 RMK AO2
14926KSTC STC20020927094009709/27/02 09:40:31  5-MIN KSTC 271540Z AUTO 28003KT 10SM CLR 12/06 A2998 970 66 800 280/03 RMK AO2
14926KSTC STC20020927094509709/27/02 09:45:31  5-MIN KSTC 271545Z AUTO 27004KT 10SM CLR 12/06 A2998 970 63 900 270/04 RMK AO2
14926KSTC STC20020927095011409/27/02 09:50:31  5-MIN KSTC 271550Z AUTO 29003KT 10SM CLR 12/05 A2998 970 61 900 290/03 RMK AO2 SLP165 T01220050
14926KSTC STC20020927095509809/27/02 09:55:31  5-MIN KSTC 271555Z AUTO 00000KT 10SM CLR 13/06 A2998 970 61 1000 000/00 RMK AO2
14926KSTC STC20020927100009809/27/02 10:00:31  5-MIN KSTC 271600Z AUTO 00000KT 10SM CLR 13/05 A2998 970 59 1000 000/00 RMK AO2
14926KSTC STC20020927100509809/27/02 10:05:31  5-MIN KSTC 271605Z AUTO 26004KT 10SM CLR 13/05 A2998 970 57 1000 260/04 RMK AO2
14926KSTC STC20020927101009809/27/02 10:10:31  5-MIN KSTC 271610Z AUTO 00000KT 10SM CLR 14/05 A2998 970 55 1100 000/00 RMK AO2
14926KSTC STC20020927101509809/27/02 10:15:31  5-MIN KSTC 271615Z AUTO 00000KT 10SM CLR 14/04 A2998 970 50 1100 000/00 RMK AO2
14926KSTC STC20020927102009809/27/02 10:20:31  5-MIN KSTC 271620Z AUTO 31004KT 10SM CLR 15/04 A2998 970 49 1200 310/04 RMK AO2
14926KSTC STC20020927102509809/27/02 10:25:31  5-MIN KSTC 271625Z AUTO 00000KT 10SM CLR 14/03 A2998 970 47 1200 000/00 RMK AO2
14926KSTC STC20020927103009809/27/02 10:30:31  5-MIN KSTC 271630Z AUTO VRB03KT 10SM CLR 15/03 A2998 970 45 1200 VRB/03 RMK AO2
14926KSTC STC20020927103509809/27/02 10:35:31  5-MIN KSTC 271635Z AUTO VRB03KT 10SM CLR 15/03 A2998 970 45 1200 VRB/03 RMK AO2
14926KSTC STC20020927104009809/27/02 10:40:31  5-MIN KSTC 271640Z AUTO 00000KT 10SM CLR 15/03 A2998 970 43 1200 000/00 RMK AO2
14926KSTC STC20020927104509809/27/02 10:45:31  5-MIN KSTC 271645Z AUTO 28004KT 10SM CLR 16/03 A2998 970 42 1300 280/04 RMK AO2
14926KSTC STC20020927105011509/27/02 10:50:31  5-MIN KSTC 271650Z AUTO 28004KT 10SM CLR 16/01 A2998 970 37 1300 280/04 RMK AO2 SLP165 T01560011
14926KSTC STC20020927105509809/27/02 10:55:31  5-MIN KSTC 271655Z AUTO VRB03KT 10SM CLR 16/01 A2998 970 37 1300 VRB/03 RMK AO2
14926KSTC STC20020927110009809/27/02 11:00:31  5-MIN KSTC 271700Z AUTO 28005KT 10SM CLR 16/02 A2998 970 39 1400 280/05 RMK AO2
14926KSTC STC20020927110509809/27/02 11:05:31  5-MIN KSTC 271705Z AUTO 31004KT 10SM CLR 16/01 A2998 970 36 1300 300/04 RMK AO2
14926KSTC STC20020927111009809/27/02 11:10:31  5-MIN KSTC 271710Z AUTO 00000KT 10SM CLR 16/01 A2998 970 36 1400 000/00 RMK AO2
14926KSTC STC20020927111509809/27/02 11:15:31  5-MIN KSTC 271715Z AUTO 34006KT 10SM CLR 16/01 A2998 970 34 1400 330/06 RMK AO2
14926KSTC STC20020927112009809/27/02 11:20:31  5-MIN KSTC 271720Z AUTO VRB05KT 10SM CLR 16/00 A2998 980 33 1400 VRB/05 RMK AO2
14926KSTC STC20020927112510109/27/02 11:25:31  5-MIN KSTC 271725Z AUTO VRB04KT 10SM CLR 17/01 A2998 980970 33 1400 290/05 RMK AO2
14926KSTC STC20020927114009809/27/02 11:40:31  5-MIN KSTC 271740Z AUTO 25003KT 10SM CLR 16/00 A2998 980 33 1400 240/03 RMK AO2
14926KSTC STC20020927114509809/27/02 11:45:31  5-MIN KSTC 271745Z AUTO 29004KT 10SM CLR 17/01 A2997 980 34 1400 290/04 RMK AO2
14926KSTC STC20020927115509809/27/02 11:55:31  5-MIN KSTC 271755Z AUTO VRB04KT 10SM CLR 16/01 A2997 980 34 1400 VRB/04 RMK AO2
14926KSTC STC20020927120009809/27/02 12:00:31  5-MIN KSTC 271800Z AUTO VRB03KT 10SM CLR 17/01 A2997 980 34 1400 VRB/03 RMK AO2
14926KSTC STC20020927120509809/27/02 12:05:31  5-MIN KSTC 271805Z AUTO 31005KT 10SM CLR 17/01 A2997 980 34 1400 300/05 RMK AO2
14926KSTC STC20020927121009809/27/02 12:10:31  5-MIN KSTC 271810Z AUTO VRB03KT 10SM CLR 17/01 A2997 980 34 1400 VRB/03 RMK AO2
14926KSTC STC20020927121509809/27/02 12:15:31  5-MIN KSTC 271815Z AUTO 31005KT 10SM CLR 17/01 A2997 980 34 1400 310/05 RMK AO2
14926KSTC STC20020927122009809/27/02 12:20:31  5-MIN KSTC 271820Z AUTO 00000KT 10SM CLR 17/01 A2997 980 34 1400 000/00 RMK AO2
14926KSTC STC20020927122509809/27/02 12:25:31  5-MIN KSTC 271825Z AUTO VRB04KT 10SM CLR 17/01 A2997 980 33 1500 VRB/04 RMK AO2
14926KSTC STC20020927123009809/27/02 12:30:31  5-MIN KSTC 271830Z AUTO VRB03KT 10SM CLR 17/02 A2997 980 35 1500 VRB/03 RMK AO2
14926KSTC STC20020927123509809/27/02 12:35:31  5-MIN KSTC 271835Z AUTO 27005KT 10SM CLR 17/01 A2997 980 33 1500 270/05 RMK AO2
14926KSTC STC20020927124009809/27/02 12:40:31  5-MIN KSTC 271840Z AUTO 31006KT 10SM CLR 17/01 A2996 990 32 1500 300/06 RMK AO2
14926KSTC STC20020927124509809/27/02 12:45:31  5-MIN KSTC 271845Z AUTO VRB04KT 10SM CLR 17/01 A2996 990 32 1500 VRB/04 RMK AO2
14926KSTC STC20020927125011509/27/02 12:50:31  5-MIN KSTC 271850Z AUTO 00000KT 10SM CLR 17/01 A2996 990 32 1500 000/00 RMK AO2 SLP159 T01720006
14926KSTC STC20020927125509809/27/02 12:55:31  5-MIN KSTC 271855Z AUTO 00000KT 10SM CLR 18/01 A2996 990 32 1600 000/00 RMK AO2
14926KSTC STC20020927130009809/27/02 13:00:31  5-MIN KSTC 271900Z AUTO 30007KT 10SM CLR 18/01 A2996 990 31 1600 300/07 RMK AO2
14926KSTC STC20020927130509809/27/02 13:05:31  5-MIN KSTC 271905Z AUTO VRB05KT 10SM CLR 17/01 A2996 990 32 1500 VRB/05 RMK AO2
14926KSTC STC20020927131009809/27/02 13:10:31  5-MIN KSTC 271910Z AUTO VRB03KT 10SM CLR 17/01 A2996 990 32 1500 VRB/03 RMK AO2
14926KSTC STC20020927131509809/27/02 13:15:31  5-MIN KSTC 271915Z AUTO 32004KT 10SM CLR 18/01 A2996 990 31 1600 310/04 RMK AO2
14926KSTC STC20020927132009809/27/02 13:20:31  5-MIN KSTC 271920Z AUTO 31005KT 10SM CLR 18/01 A2996 990 31 1600 310/05 RMK AO2
14926KSTC STC20020927132509809/27/02 13:25:31  5-MIN KSTC 271925Z AUTO 30005KT 10SM CLR 18/01 A2996 990 31 1600 290/05 RMK AO2
14926KSTC STC20020927133009909/27/02 13:30:31  5-MIN KSTC 271930Z AUTO VRB03KT 10SM CLR 17/00 A2995 1000 31 1500 VRB/03 RMK AO2
14926KSTC STC20020927133509909/27/02 13:35:31  5-MIN KSTC 271935Z AUTO 30007KT 10SM CLR 18/01 A2995 1000 31 1600 300/07 RMK AO2
14926KSTC STC20020927134009909/27/02 13:40:31  5-MIN KSTC 271940Z AUTO VRB04KT 10SM CLR 18/01 A2995 1000 31 1600 VRB/04 RMK AO2
14926KSTC STC20020927134509909/27/02 13:45:31  5-MIN KSTC 271945Z AUTO 29005KT 10SM CLR 18/01 A2995 1000 32 1600 280/05 RMK AO2
14926KSTC STC20020927135011609/27/02 13:50:31  5-MIN KSTC 271950Z AUTO VRB03KT 10SM CLR 18/00 A2995 1000 30 1600 VRB/03 RMK AO2 SLP156 T01780000
14926KSTC STC20020927135509909/27/02 13:55:31  5-MIN KSTC 271955Z AUTO VRB03KT 10SM CLR 18/01 A2995 1000 31 1600 VRB/03 RMK AO2
14926KSTC STC20020927140009909/27/02 14:00:31  5-MIN KSTC 272000Z AUTO 00000KT 10SM CLR 18/01 A2995 1000 31 1600 000/00 RMK AO2
14926KSTC STC20020927140509909/27/02 14:05:31  5-MIN KSTC 272005Z AUTO VRB04KT 10SM CLR 18/01 A2995 1000 31 1700 VRB/04 RMK AO2
14926KSTC STC20020927141009809/27/02 14:10:31  5-MIN KSTC 272010Z AUTO VRB03KT 9SM CLR 18/01 A2995 1000 32 1600 VRB/03 RMK AO2
14926KSTC STC20020927141509809/27/02 14:15:31  5-MIN KSTC 272015Z AUTO 12003KT 9SM CLR 18/01 A2995 1000 32 1600 120/03 RMK AO2
14926KSTC STC20020927142009909/27/02 14:20:31  5-MIN KSTC 272020Z AUTO 00000KT 10SM CLR 18/01 A2995 1000 32 1600 000/00 RMK AO2
14926KSTC STC20020927142509909/27/02 14:25:31  5-MIN KSTC 272025Z AUTO 29006KT 10SM CLR 18/01 A2995 1000 32 1600 280/06 RMK AO2
14926KSTC STC20020927143009909/27/02 14:30:31  5-MIN KSTC 272030Z AUTO 29004KT 10SM CLR 18/02 A2995 1000 34 1700 290/04 RMK AO2
14926KSTC STC20020927143509909/27/02 14:35:31  5-MIN KSTC 272035Z AUTO 27005KT 10SM CLR 18/01 A2995 1000 32 1600 270/05 RMK AO2
14926KSTC STC20020927144009909/27/02 14:40:31  5-MIN KSTC 272040Z AUTO 00000KT 10SM CLR 18/01 A2995 1000 32 1600 000/00 RMK AO2
14926KSTC STC20020927144509909/27/02 14:45:31  5-MIN KSTC 272045Z AUTO 31006KT 10SM CLR 18/01 A2995 1000 32 1600 300/06 RMK AO2
14926KSTC STC20020927145012209/27/02 14:50:31  5-MIN KSTC 272050Z AUTO 00000KT 10SM CLR 18/01 A2995 1000 32 1600 000/00 RMK AO2 SLP155 T01780011 56003
14926KSTC STC20020927145509909/27/02 14:55:31  5-MIN KSTC 272055Z AUTO 27005KT 10SM CLR 18/01 A2995 1000 32 1600 270/05 RMK AO2
14926KSTC STC20020927150009909/27/02 15:00:31  5-MIN KSTC 272100Z AUTO 28006KT 10SM CLR 18/02 A2995 1000 32 1700 270/06 RMK AO2
14926KSTC STC20020927150509809/27/02 15:05:31  5-MIN KSTC 272105Z AUTO 28004KT 10SM CLR 18/01 A2996 990 31 1700 270/04 RMK AO2
14926KSTC STC20020927151009809/27/02 15:10:31  5-MIN KSTC 272110Z AUTO 29005KT 10SM CLR 18/01 A2995 990 31 1700 280/05 RMK AO2
14926KSTC STC20020927151509909/27/02 15:15:31  5-MIN KSTC 272115Z AUTO 29004KT 10SM CLR 18/01 A2995 1000 32 1600 290/04 RMK AO2
14926KSTC STC20020927152009909/27/02 15:20:31  5-MIN KSTC 272120Z AUTO 00000KT 10SM CLR 18/01 A2995 1000 32 1600 000/00 RMK AO2
14926KSTC STC20020927152509909/27/02 15:25:31  5-MIN KSTC 272125Z AUTO 28003KT 10SM CLR 18/01 A2995 1000 32 1600 280/03 RMK AO2
14926KSTC STC20020927153009909/27/02 15:30:31  5-MIN KSTC 272130Z AUTO 28003KT 10SM CLR 18/01 A2995 1000 32 1600 270/03 RMK AO2
14926KSTC STC20020927153509809/27/02 15:35:31  5-MIN KSTC 272135Z AUTO 00000KT 10SM CLR 18/01 A2995 990 32 1600 000/00 RMK AO2
14926KSTC STC20020927154009809/27/02 15:40:31  5-MIN KSTC 272140Z AUTO 00000KT 10SM CLR 18/01 A2996 990 32 1600 000/00 RMK AO2
14926KSTC STC20020927154509809/27/02 15:45:31  5-MIN KSTC 272145Z AUTO 00000KT 10SM CLR 18/01 A2996 990 32 1600 000/00 RMK AO2
14926KSTC STC20020927155011509/27/02 15:50:31  5-MIN KSTC 272150Z AUTO 00000KT 10SM CLR 18/01 A2996 990 31 1600 000/00 RMK AO2 SLP158 T01780006
14926KSTC STC20020927155509809/27/02 15:55:31  5-MIN KSTC 272155Z AUTO 00000KT 10SM CLR 18/01 A2996 990 31 1600 000/00 RMK AO2
14926KSTC STC20020927160009809/27/02 16:00:31  5-MIN KSTC 272200Z AUTO 00000KT 10SM CLR 18/01 A2996 990 31 1600 000/00 RMK AO2
14926KSTC STC20020927160509809/27/02 16:05:31  5-MIN KSTC 272205Z AUTO 29003KT 10SM CLR 18/01 A2996 990 32 1600 280/03 RMK AO2
14926KSTC STC20020927161009809/27/02 16:10:31  5-MIN KSTC 272210Z AUTO 31003KT 10SM CLR 18/01 A2996 990 32 1600 310/03 RMK AO2
14926KSTC STC20020927161509809/27/02 16:15:31  5-MIN KSTC 272215Z AUTO 33003KT 10SM CLR 18/01 A2996 990 32 1600 330/03 RMK AO2
14926KSTC STC20020927162009809/27/02 16:20:31  5-MIN KSTC 272220Z AUTO 00000KT 10SM CLR 18/01 A2996 990 32 1600 000/00 RMK AO2
14926KSTC STC20020927162509809/27/02 16:25:31  5-MIN KSTC 272225Z AUTO 00000KT 10SM CLR 18/01 A2996 990 30 1600 000/00 RMK AO2
14926KSTC STC20020927163009809/27/02 16:30:31  5-MIN KSTC 272230Z AUTO 31003KT 10SM CLR 18/01 A2997 980 31 1600 310/03 RMK AO2
14926KSTC STC20020927163509809/27/02 16:35:31  5-MIN KSTC 272235Z AUTO 00000KT 10SM CLR 18/01 A2997 980 31 1600 000/00 RMK AO2
14926KSTC STC20020927164009809/27/02 16:40:31  5-MIN KSTC 272240Z AUTO 00000KT 10SM CLR 18/01 A2997 980 31 1600 000/00 RMK AO2
14926KSTC STC20020927164509809/27/02 16:45:31  5-MIN KSTC 272245Z AUTO 00000KT 10SM CLR 18/01 A2997 980 32 1600 000/00 RMK AO2
14926KSTC STC20020927165011509/27/02 16:50:31  5-MIN KSTC 272250Z AUTO 00000KT 10SM CLR 18/01 A2997 980 32 1600 000/00 RMK AO2 SLP161 T01780011
14926KSTC STC20020927165509809/27/02 16:55:31  5-MIN KSTC 272255Z AUTO 00000KT 10SM CLR 18/01 A2997 980 31 1600 000/00 RMK AO2
14926KSTC STC20020927170009809/27/02 17:00:31  5-MIN KSTC 272300Z AUTO 00000KT 10SM CLR 18/01 A2997 980 31 1600 000/00 RMK AO2
14926KSTC STC20020927170509809/27/02 17:05:31  5-MIN KSTC 272305Z AUTO 00000KT 10SM CLR 18/03 A2997 980 36 1600 000/00 RMK AO2
14926KSTC STC20020927171009809/27/02 17:10:31  5-MIN KSTC 272310Z AUTO 00000KT 10SM CLR 17/03 A2997 980 39 1500 000/00 RMK AO2
14926KSTC STC20020927171509809/27/02 17:15:31  5-MIN KSTC 272315Z AUTO 00000KT 10SM CLR 17/06 A2997 980 47 1400 000/00 RMK AO2
14926KSTC STC20020927172009809/27/02 17:20:31  5-MIN KSTC 272320Z AUTO 00000KT 10SM CLR 16/08 A2997 980 57 1400 000/00 RMK AO2
14926KSTC STC20020927172509809/27/02 17:25:31  5-MIN KSTC 272325Z AUTO 00000KT 10SM CLR 15/07 A2997 980 59 1200 000/00 RMK AO2
14926KSTC STC20020927173009809/27/02 17:30:31  5-MIN KSTC 272330Z AUTO 00000KT 10SM CLR 14/08 A2998 980 64 1200 000/00 RMK AO2
14926KSTC STC20020927173509809/27/02 17:35:31  5-MIN KSTC 272335Z AUTO 00000KT 10SM CLR 14/08 A2998 980 66 1100 000/00 RMK AO2
14926KSTC STC20020927174009809/27/02 17:40:31  5-MIN KSTC 272340Z AUTO 00000KT 10SM CLR 14/07 A2998 970 64 1100 000/00 RMK AO2
14926KSTC STC20020927174509809/27/02 17:45:31  5-MIN KSTC 272345Z AUTO 00000KT 10SM CLR 13/07 A2997 980 66 1000 000/00 RMK AO2
14926KSTC STC20020927175013209/27/02 17:50:31  5-MIN KSTC 272350Z AUTO 00000KT 10SM CLR 12/07 A2998 970 71 900 000/00 RMK AO2 SLP166 T01220072 10183 20122 55007
14926KSTC STC20020927175509709/27/02 17:55:31  5-MIN KSTC 272355Z AUTO 00000KT 10SM CLR 12/07 A2998 970 68 900 000/00 RMK AO2
14926KSTC STC20020927180009709/27/02 18:00:31  5-MIN KSTC 280000Z AUTO 00000KT 10SM CLR 12/07 A2998 970 68 900 000/00 RMK AO2
14926KSTC STC20020927180509709/27/02 18:05:31  5-MIN KSTC 280005Z AUTO 00000KT 10SM CLR 12/06 A2998 980 68 800 000/00 RMK AO2
14926KSTC STC20020927181009709/27/02 18:10:31  5-MIN KSTC 280010Z AUTO 00000KT 10SM CLR 12/06 A2998 970 68 800 000/00 RMK AO2
14926KSTC STC20020927181509709/27/02 18:15:31  5-MIN KSTC 280015Z AUTO 00000KT 10SM CLR 11/07 A2998 970 80 700 000/00 RMK AO2
14926KSTC STC20020927182009709/27/02 18:20:31  5-MIN KSTC 280020Z AUTO 00000KT 10SM CLR 10/07 A2998 970 83 600 000/00 RMK AO2
14926KSTC STC20020927182509709/27/02 18:25:31  5-MIN KSTC 280025Z AUTO 00000KT 10SM CLR 09/07 A2998 970 86 600 000/00 RMK AO2
14926KSTC STC20020927183009709/27/02 18:30:31  5-MIN KSTC 280030Z AUTO 00000KT 10SM CLR 09/08 A2998 970 89 600 000/00 RMK AO2
14926KSTC STC20020927183509709/27/02 18:35:31  5-MIN KSTC 280035Z AUTO 00000KT 10SM CLR 10/07 A2998 970 83 600 000/00 RMK AO2
14926KSTC STC20020927184009709/27/02 18:40:31  5-MIN KSTC 280040Z AUTO 00000KT 10SM CLR 10/07 A2998 970 80 600 000/00 RMK AO2
14926KSTC STC20020927184509709/27/02 18:45:31  5-MIN KSTC 280045Z AUTO 00000KT 10SM CLR 09/07 A2999 960 83 600 000/00 RMK AO2
14926KSTC STC20020927185011409/27/02 18:50:31  5-MIN KSTC 280050Z AUTO 00000KT 10SM CLR 09/07 A2999 960 89 500 000/00 RMK AO2 SLP172 T00890072
14926KSTC STC20020927185509709/27/02 18:55:31  5-MIN KSTC 280055Z AUTO 00000KT 10SM CLR 09/07 A2999 960 86 500 000/00 RMK AO2
14926KSTC STC20020927190009709/27/02 19:00:31  5-MIN KSTC 280100Z AUTO 00000KT 10SM CLR 10/07 A2999 960 80 600 000/00 RMK AO2
14926KSTC STC20020927190509709/27/02 19:05:31  5-MIN KSTC 280105Z AUTO 00000KT 10SM CLR 08/06 A3000 960 89 400 000/00 RMK AO2
14926KSTC STC20020927191009709/27/02 19:10:31  5-MIN KSTC 280110Z AUTO 00000KT 10SM CLR 09/07 A3000 950 86 500 000/00 RMK AO2
14926KSTC STC20020927191509709/27/02 19:15:31  5-MIN KSTC 280115Z AUTO 00000KT 10SM CLR 09/06 A3000 950 83 500 000/00 RMK AO2
14926KSTC STC20020927192009709/27/02 19:20:31  5-MIN KSTC 280120Z AUTO 00000KT 10SM CLR 09/06 A3000 950 79 500 000/00 RMK AO2
14926KSTC STC20020927192509709/27/02 19:25:31  5-MIN KSTC 280125Z AUTO 00000KT 10SM CLR 09/06 A3000 950 83 500 000/00 RMK AO2
14926KSTC STC20020927193009709/27/02 19:30:31  5-MIN KSTC 280130Z AUTO 00000KT 10SM CLR 09/07 A3000 950 86 500 000/00 RMK AO2
14926KSTC STC20020927193509709/27/02 19:35:31  5-MIN KSTC 280135Z AUTO 00000KT 10SM CLR 09/07 A3000 950 86 500 000/00 RMK AO2
14926KSTC STC20020927194009709/27/02 19:40:31  5-MIN KSTC 280140Z AUTO 00000KT 10SM CLR 09/07 A3001 950 83 500 000/00 RMK AO2
14926KSTC STC20020927194509709/27/02 19:45:31  5-MIN KSTC 280145Z AUTO 00000KT 10SM CLR 09/07 A3001 950 83 500 000/00 RMK AO2
14926KSTC STC20020927195011409/27/02 19:50:31  5-MIN KSTC 280150Z AUTO 00000KT 10SM CLR 08/07 A3001 940 89 400 000/00 RMK AO2 SLP177 T00830067
14926KSTC STC20020927195509709/27/02 19:55:31  5-MIN KSTC 280155Z AUTO 00000KT 10SM CLR 08/07 A3001 940 89 400 000/00 RMK AO2
14926KSTC STC20020927200009709/27/02 20:00:31  5-MIN KSTC 280200Z AUTO 00000KT 10SM CLR 08/07 A3001 940 89 400 000/00 RMK AO2
14926KSTC STC20020927200509709/27/02 20:05:31  5-MIN KSTC 280205Z AUTO 00000KT 10SM CLR 08/07 A3002 940 93 300 000/00 RMK AO2
14926KSTC STC20020927201009709/27/02 20:10:31  5-MIN KSTC 280210Z AUTO 00000KT 10SM CLR 08/07 A3002 940 89 400 000/00 RMK AO2
14926KSTC STC20020927201509709/27/02 20:15:31  5-MIN KSTC 280215Z AUTO 00000KT 10SM CLR 08/07 A3002 940 93 400 000/00 RMK AO2
14926KSTC STC20020927202009709/27/02 20:20:31  5-MIN KSTC 280220Z AUTO 00000KT 10SM CLR 08/07 A3002 930 93 400 000/00 RMK AO2
14926KSTC STC20020927202509709/27/02 20:25:31  5-MIN KSTC 280225Z AUTO 00000KT 10SM CLR 08/07 A3002 930 89 400 000/00 RMK AO2
14926KSTC STC20020927203009709/27/02 20:30:31  5-MIN KSTC 280230Z AUTO 00000KT 10SM CLR 08/07 A3002 930 93 300 000/00 RMK AO2
14926KSTC STC20020927203510009/27/02 20:35:31  5-MIN KSTC 280235Z AUTO 00000KT 10SM SCT120 08/07 A3003 930 93 300 000/00 RMK AO2
14926KSTC STC20020927204010009/27/02 20:40:31  5-MIN KSTC 280240Z AUTO 00000KT 10SM SCT120 08/07 A3003 930 93 300 000/00 RMK AO2
14926KSTC STC20020927204510009/27/02 20:45:31  5-MIN KSTC 280245Z AUTO 00000KT 10SM BKN120 08/07 A3003 930 96 300 000/00 RMK AO2
14926KSTC STC20020927205012309/27/02 20:50:31  5-MIN KSTC 280250Z AUTO 00000KT 10SM BKN120 08/07 A3003 930 96 300 000/00 RMK AO2 SLP183 T00780072 53008
14926KSTC STC20020927205510009/27/02 20:55:31  5-MIN KSTC 280255Z AUTO 00000KT 10SM BKN120 08/07 A3003 930 96 300 000/00 RMK AO2
14926KSTC STC20020927210010009/27/02 21:00:31  5-MIN KSTC 280300Z AUTO 00000KT 10SM BKN120 08/07 A3003 930 93 400 000/00 RMK AO2
14926KSTC STC20020927210510009/27/02 21:05:31  5-MIN KSTC 280305Z AUTO 00000KT 10SM SCT120 08/07 A3003 920 93 400 000/00 RMK AO2
14926KSTC STC20020927211010009/27/02 21:10:31  5-MIN KSTC 280310Z AUTO 00000KT 10SM SCT120 08/07 A3003 920 93 400 000/00 RMK AO2
14926KSTC STC20020927211510009/27/02 21:15:31  5-MIN KSTC 280315Z AUTO 00000KT 10SM BKN120 08/08 A3003 920 96 400 000/00 RMK AO2
14926KSTC STC20020927212010009/27/02 21:20:31  5-MIN KSTC 280320Z AUTO 00000KT 10SM BKN110 08/07 A3003 920 93 400 000/00 RMK AO2
14926KSTC STC20020927212510709/27/02 21:25:31  5-MIN KSTC 280325Z AUTO 00000KT 10SM BKN100 BKN120 08/07 A3003 920 93 400 000/00 RMK AO2
14926KSTC STC20020927213010709/27/02 21:30:31  5-MIN KSTC 280330Z AUTO 00000KT 10SM SCT100 BKN120 08/07 A3004 920 93 400 000/00 RMK AO2
14926KSTC STC20020927213510009/27/02 21:35:31  5-MIN KSTC 280335Z AUTO 00000KT 10SM BKN110 08/08 A3003 920 96 400 000/00 RMK AO2
14926KSTC STC20020927214010709/27/02 21:40:31  5-MIN KSTC 280340Z AUTO 00000KT 10SM SCT100 SCT120 08/07 A3003 920 93 400 000/00 RMK AO2
14926KSTC STC20020927214510009/27/02 21:45:31  5-MIN KSTC 280345Z AUTO 00000KT 10SM FEW095 08/07 A3004 920 93 400 000/00 RMK AO2
14926KSTC STC20020927215011709/27/02 21:50:31  5-MIN KSTC 280350Z AUTO 00000KT 10SM FEW095 08/08 A3004 920 96 400 000/00 RMK AO2 SLP183 T00830078
14926KSTC STC20020927215509709/27/02 21:55:31  5-MIN KSTC 280355Z AUTO 00000KT 10SM CLR 08/08 A3003 920 96 400 000/00 RMK AO2
14926KSTC STC20020927220009709/27/02 22:00:31  5-MIN KSTC 280400Z AUTO 00000KT 10SM CLR 08/08 A3004 920 96 400 000/00 RMK AO2
14926KSTC STC20020927220509709/27/02 22:05:31  5-MIN KSTC 280405Z AUTO 00000KT 10SM CLR 08/07 A3004 920 96 300 000/00 RMK AO2
14926KSTC STC20020927221009709/27/02 22:10:31  5-MIN KSTC 280410Z AUTO 00000KT 10SM CLR 08/07 A3004 920 93 400 000/00 RMK AO2
14926KSTC STC20020927221509709/27/02 22:15:31  5-MIN KSTC 280415Z AUTO 00000KT 10SM CLR 08/07 A3004 920 96 300 000/00 RMK AO2
14926KSTC STC20020927222009709/27/02 22:20:31  5-MIN KSTC 280420Z AUTO 00000KT 10SM CLR 08/08 A3004 920 96 400 000/00 RMK AO2
14926KSTC STC20020927222509709/27/02 22:25:31  5-MIN KSTC 280425Z AUTO 00000KT 10SM CLR 08/07 A3003 920 96 300 000/00 RMK AO2
14926KSTC STC20020927223009709/27/02 22:30:31  5-MIN KSTC 280430Z AUTO 00000KT 10SM CLR 08/07 A3003 920 93 300 000/00 RMK AO2
14926KSTC STC20020927223509709/27/02 22:35:31  5-MIN KSTC 280435Z AUTO 00000KT 10SM CLR 08/07 A3003 920 96 300 000/00 RMK AO2
14926KSTC STC20020927224009709/27/02 22:40:31  5-MIN KSTC 280440Z AUTO 00000KT 10SM CLR 08/07 A3003 930 96 300 000/00 RMK AO2
14926KSTC STC20020927224509709/27/02 22:45:31  5-MIN KSTC 280445Z AUTO 00000KT 10SM CLR 08/07 A3003 930 93 300 000/00 RMK AO2
14926KSTC STC20020927225011409/27/02 22:50:31  5-MIN KSTC 280450Z AUTO 00000KT 10SM CLR 08/07 A3003 930 93 300 000/00 RMK AO2 SLP179 T00780067
14926KSTC STC20020927225509709/27/02 22:55:31  5-MIN KSTC 280455Z AUTO 00000KT 10SM CLR 08/07 A3003 930 93 300 000/00 RMK AO2
14926KSTC STC20020927230009709/27/02 23:00:31  5-MIN KSTC 280500Z AUTO 00000KT 10SM CLR 08/07 A3003 930 93 300 000/00 RMK AO2
14926KSTC STC20020927230509709/27/02 23:05:31  5-MIN KSTC 280505Z AUTO 00000KT 10SM CLR 08/07 A3003 930 93 300 000/00 RMK AO2
14926KSTC STC20020927231018009/27/02 23:10:31  5-MIN KSTC 280510Z AUTO 00000KT 10SM CLR 08/07 A3003 930 93 300 000/00 RMK AO2 09/27/02 KSTC 280515Z AUTO 00000KT 10SM CLR 07/07 A3003 930  96 300 000/00 RMK AO2
14926KSTC STC20020927232010009/27/02 23:20:31  5-MIN KSTC 280520Z AUTO 00000KT 10SM SCT120 08/07 A3003 930 96 300 000/00 RMK AO2
14926KSTC STC20020927232506509/27/02 23:25:31  5-MIN KSTC 280525Z AUTO 00000KT 10SM SCT120 02
14926KSTC STC20020927234010009/27/02 23:40:31  5-MIN KSTC 280540Z AUTO 00000KT 10SM FEW120 07/06 A3003 920 96 200 000/00 RMK AO2
14926KSTC STC20020927234510109/27/02 23:45:31  5-MIN KSTC 280545Z AUTO 00000KT 10SM FEW120 06/06 A3004 920 100 100 000/00 RMK AO2
14926KSTC STC20020927235014609/27/02 23:50:31  5-MIN KSTC 280550Z AUTO 00000KT 10SM FEW120 06/06 A3004 920 100 100 000/00 RMK AO2 SLP183 T00610061 10122 20061 401830000 53017
14926KSTC STC20020927235509809/27/02 23:55:31  5-MIN KSTC 280555Z AUTO 00000KT 10SM CLR 06/06 A3004 920 100 100 000/00 RMK AO2
14926KSTC STC20020928000009809/28/02 00:00:31  5-MIN KSTC 280600Z AUTO 00000KT 10SM CLR 06/06 A3004 920 100 100 000/00 RMK AO2
14926KSTC STC20020928000509909/28/02 00:05:31  5-MIN KSTC 280605Z AUTO 00000KT 9SM FEW110 06/06 A3004 920 96 100 000/00 RMK AO2
14926KSTC STC20020928001009809/28/02 00:10:31  5-MIN KSTC 280610Z AUTO 00000KT 8SM SCT120 06/06 A3004 920 100 0 000/00 RMK AO2
14926KSTC STC20020928001509809/28/02 00:15:31  5-MIN KSTC 280615Z AUTO 00000KT 8SM SCT120 06/06 A3004 910 100 0 000/00 RMK AO2
14926KSTC STC20020928002010009/28/02 00:20:31  5-MIN KSTC 280620Z AUTO 00000KT 10SM FEW120 06/06 A3004 910 96 100 000/00 RMK AO2
14926KSTC STC20020928002510009/28/02 00:25:31  5-MIN KSTC 280625Z AUTO 00000KT 10SM FEW120 06/06 A3005 910 96 100 000/00 RMK AO2
14926KSTC STC20020928003010009/28/02 00:30:31  5-MIN KSTC 280630Z AUTO 00000KT 10SM SCT120 06/06 A3005 910 96 100 000/00 RMK AO2
14926KSTC STC20020928003510009/28/02 00:35:31  5-MIN KSTC 280635Z AUTO 00000KT 10SM SCT120 06/06 A3004 910 96 100 000/00 RMK AO2
14926KSTC STC20020928004010009/28/02 00:40:31  5-MIN KSTC 280640Z AUTO 00000KT 10SM SCT120 06/06 A3004 910 96 100 000/00 RMK AO2
14926KSTC STC20020928004510109/28/02 00:45:31  5-MIN KSTC 280645Z AUTO 00000KT 10SM FEW120 06/06 A3005 910 100 100 000/00 RMK AO2
14926KSTC STC20020928005011709/28/02 00:50:31  5-MIN KSTC 280650Z AUTO 00000KT 10SM FEW120 07/06 A3005 910 96 200 000/00 RMK AO2 SLP187 T00670061
14926KSTC STC20020928005510009/28/02 00:55:31  5-MIN KSTC 280655Z AUTO 00000KT 10SM FEW120 07/06 A3005 910 96 200 000/00 RMK AO2
14926KSTC STC20020928010010009/28/02 01:00:31  5-MIN KSTC 280700Z AUTO 00000KT 10SM FEW120 07/06 A3006 900 96 200 000/00 RMK AO2
14926KSTC STC20020928010510009/28/02 01:05:31  5-MIN KSTC 280705Z AUTO 00000KT 10SM FEW120 07/06 A3006 900 96 200 000/00 RMK AO2
14926KSTC STC20020928011009809/28/02 01:10:31  5-MIN KSTC 280710Z AUTO 00000KT 10SM CLR 06/06 A3006 900 100 100 000/00 RMK AO2
14926KSTC STC20020928011509809/28/02 01:15:31  5-MIN KSTC 280715Z AUTO 00000KT 10SM CLR 06/06 A3006 900 100 100 000/00 RMK AO2
14926KSTC STC20020928012009709/28/02 01:20:31  5-MIN KSTC 280720Z AUTO 00000KT 10SM CLR 07/06 A3006 900 96 200 000/00 RMK AO2
14926KSTC STC20020928012509709/28/02 01:25:31  5-MIN KSTC 280725Z AUTO 00000KT 10SM CLR 07/06 A3006 900 96 200 000/00 RMK AO2
14926KSTC STC20020928013009709/28/02 01:30:31  5-MIN KSTC 280730Z AUTO 00000KT 10SM CLR 07/06 A3006 900 96 100 000/00 RMK AO2
14926KSTC STC20020928013509709/28/02 01:35:31  5-MIN KSTC 280735Z AUTO 00000KT 10SM CLR 07/06 A3006 900 96 100 000/00 RMK AO2
14926KSTC STC20020928014009709/28/02 01:40:31  5-MIN KSTC 280740Z AUTO 00000KT 10SM CLR 07/06 A3006 890 96 100 000/00 RMK AO2
14926KSTC STC20020928014509809/28/02 01:45:31  5-MIN KSTC 280745Z AUTO 00000KT 10SM CLR 06/06 A3006 890 100 100 000/00 RMK AO2
14926KSTC STC20020928015011709/28/02 01:50:31  5-MIN KSTC 280750Z AUTO 00000KT 10SM FEW120 07/06 A3006 890 96 100 000/00 RMK AO2 SLP192 T00670061
14926KSTC STC20020928015510009/28/02 01:55:31  5-MIN KSTC 280755Z AUTO 00000KT 10SM FEW120 07/06 A3006 900 96 100 000/00 RMK AO2
14926KSTC STC20020928020009809/28/02 02:00:31  5-MIN KSTC 280800Z AUTO 00000KT 10SM CLR 06/06 A3006 900 100 100 000/00 RMK AO2
14926KSTC STC20020928020510109/28/02 02:05:31  5-MIN KSTC 280805Z AUTO 00000KT 10SM FEW120 06/06 A3006 900 100 100 000/00 RMK AO2
14926KSTC STC20020928021009809/28/02 02:10:31  5-MIN KSTC 280810Z AUTO 00000KT 9SM FEW120 06/06 A3006 900 100 0 000/00 RMK AO2
14926KSTC STC20020928021509909/28/02 02:15:31  5-MIN KSTC 280815Z AUTO 00000KT 9SM FEW120 06/06 A3006 900 96 100 000/00 RMK AO2
14926KSTC STC20020928022009809/28/02 02:20:31  5-MIN KSTC 280820Z AUTO 00000KT 10SM CLR 06/06 A3006 900 100 100 000/00 RMK AO2
14926KSTC STC20020928022509609/28/02 02:25:31  5-MIN KSTC 280825Z AUTO 00000KT 10SM CLR 06/06 A3006 900 100 0 000/00 RMK AO2
14926KSTC STC20020928023009609/28/02 02:30:31  5-MIN KSTC 280830Z AUTO 00000KT 9SM CLR 06/06 A3006 900 96 100 000/00 RMK AO2
14926KSTC STC20020928023509609/28/02 02:35:31  5-MIN KSTC 280835Z AUTO 00000KT 9SM CLR 06/06 A3005 900 96 100 000/00 RMK AO2
14926KSTC STC20020928024009809/28/02 02:40:31  5-MIN KSTC 280840Z AUTO 00000KT 10SM CLR 06/06 A3005 910 100 100 000/00 RMK AO2
14926KSTC STC20020928024509809/28/02 02:45:31  5-MIN KSTC 280845Z AUTO 00000KT 10SM CLR 06/06 A3005 910 100 100 000/00 RMK AO2
14926KSTC STC20020928025012009/28/02 02:50:31  5-MIN KSTC 280850Z AUTO 00000KT 10SM CLR 06/06 A3005 910 96 100 000/00 RMK AO2 SLP186 T00610056 53003
14926KSTC STC20020928025509509/28/02 02:55:31  5-MIN KSTC 280855Z AUTO 00000KT 9SM CLR 06/06 A3005 910 100 0 000/00 RMK AO2
14926KSTC STC20020928030009509/28/02 03:00:31  5-MIN KSTC 280900Z AUTO 00000KT 9SM CLR 06/06 A3005 910 100 0 000/00 RMK AO2
14926KSTC STC20020928030509709/28/02 03:05:31  5-MIN KSTC 280905Z AUTO 00000KT 9SM FEW120 06/05 A3005 910 96 0 000/00 RMK AO2
14926KSTC STC20020928031009709/28/02 03:10:31  5-MIN KSTC 280910Z AUTO 00000KT 9SM FEW120 06/05 A3005 910 96 0 000/00 RMK AO2
14926KSTC STC20020928031509809/28/02 03:15:31  5-MIN KSTC 280915Z AUTO 00000KT 9SM FEW120 06/06 A3005 900 100 0 000/00 RMK AO2
14926KSTC STC20020928032009809/28/02 03:20:31  5-MIN KSTC 280920Z AUTO 00000KT 8SM SCT120 06/06 A3005 900 100 0 000/00 RMK AO2
14926KSTC STC20020928032509809/28/02 03:25:31  5-MIN KSTC 280925Z AUTO 00000KT 8SM BKN120 06/06 A3006 900 100 0 000/00 RMK AO2
14926KSTC STC20020928033009809/28/02 03:30:31  5-MIN KSTC 280930Z AUTO 00000KT 8SM BKN120 06/06 A3006 900 100 0 000/00 RMK AO2
14926KSTC STC20020928033509809/28/02 03:35:31  5-MIN KSTC 280935Z AUTO 00000KT 7SM BKN120 06/06 A3006 900 100 0 000/00 RMK AO2
14926KSTC STC20020928034009809/28/02 03:40:31  5-MIN KSTC 280940Z AUTO 00000KT 8SM BKN120 06/06 A3005 900 100 0 000/00 RMK AO2
14926KSTC STC20020928034509909/28/02 03:45:31  5-MIN KSTC 280945Z AUTO 00000KT 10SM OVC120 06/06 A3006 900 100 0 000/00 RMK AO2
14926KSTC STC20020928035011809/28/02 03:50:31  5-MIN KSTC 280950Z AUTO 00000KT 10SM OVC120 06/06 A3006 900 100 100 000/00 RMK AO2 SLP189 T00610061
14926KSTC STC20020928035510009/28/02 03:55:31  5-MIN KSTC 280955Z AUTO 00000KT 10SM OVC120 07/06 A3006 900 96 200 000/00 RMK AO2
14926KSTC STC20020928040010009/28/02 04:00:31  5-MIN KSTC 281000Z AUTO 00000KT 10SM OVC120 07/06 A3005 900 96 200 000/00 RMK AO2
14926KSTC STC20020928040510009/28/02 04:05:31  5-MIN KSTC 281005Z AUTO 00000KT 10SM OVC110 07/06 A3005 900 96 200 000/00 RMK AO2
14926KSTC STC20020928041010009/28/02 04:10:31  5-MIN KSTC 281010Z AUTO 00000KT 10SM OVC110 07/06 A3005 900 96 200 000/00 RMK AO2
14926KSTC STC20020928041510009/28/02 04:15:31  5-MIN KSTC 281015Z AUTO 00000KT 10SM OVC110 07/06 A3005 900 96 200 000/00 RMK AO2
14926KSTC STC20020928042010109/28/02 04:20:31  5-MIN KSTC 281020Z AUTO 00000KT 10SM OVC110 07/07 A3005 900 100 200 000/00 RMK AO2
14926KSTC STC20020928042510109/28/02 04:25:31  5-MIN KSTC 281025Z AUTO 00000KT 10SM OVC110 07/07 A3006 900 100 200 000/00 RMK AO2
14926KSTC STC20020928043010009/28/02 04:30:31  5-MIN KSTC 281030Z AUTO 00000KT 10SM OVC110 07/07 A3006 900 96 200 000/00 RMK AO2
14926KSTC STC20020928043510009/28/02 04:35:31  5-MIN KSTC 281035Z AUTO 00000KT 10SM OVC110 07/07 A3006 900 96 200 000/00 RMK AO2
14926KSTC STC20020928044010009/28/02 04:40:31  5-MIN KSTC 281040Z AUTO 00000KT 10SM OVC110 07/07 A3006 900 96 200 000/00 RMK AO2
14926KSTC STC20020928044510109/28/02 04:45:31  5-MIN KSTC 281045Z AUTO 00000KT 10SM OVC110 07/07 A3006 900 100 100 000/00 RMK AO2
14926KSTC STC20020928045011809/28/02 04:50:31  5-MIN KSTC 281050Z AUTO 00000KT 10SM OVC110 07/07 A3006 890 100 100 000/00 RMK AO2 SLP192 T00670067
14926KSTC STC20020928045510109/28/02 04:55:31  5-MIN KSTC 281055Z AUTO 00000KT 10SM OVC110 07/07 A3007 890 100 100 000/00 RMK AO2
14926KSTC STC20020928050010109/28/02 05:00:31  5-MIN KSTC 281100Z AUTO 00000KT 10SM OVC110 07/07 A3007 890 100 100 000/00 RMK AO2
14926KSTC STC20020928050510009/28/02 05:05:31  5-MIN KSTC 281105Z AUTO 00000KT 10SM OVC110 07/07 A3006 890 96 200 000/00 RMK AO2
14926KSTC STC20020928051010009/28/02 05:10:31  5-MIN KSTC 281110Z AUTO 00000KT 10SM OVC110 07/07 A3007 890 96 200 000/00 RMK AO2
14926KSTC STC20020928051510009/28/02 05:15:31  5-MIN KSTC 281115Z AUTO 00000KT 10SM OVC110 07/07 A3006 900 96 200 000/00 RMK AO2
14926KSTC STC20020928052010009/28/02 05:20:31  5-MIN KSTC 281120Z AUTO 00000KT 10SM OVC110 07/07 A3006 900 96 200 000/00 RMK AO2
14926KSTC STC20020928052510009/28/02 05:25:31  5-MIN KSTC 281125Z AUTO 00000KT 10SM OVC110 07/07 A3006 900 96 200 000/00 RMK AO2
14926KSTC STC20020928053010009/28/02 05:30:31  5-MIN KSTC 281130Z AUTO 00000KT 10SM OVC110 08/07 A3006 900 93 300 000/00 RMK AO2
14926KSTC STC20020928053510009/28/02 05:35:31  5-MIN KSTC 281135Z AUTO 13003KT 10SM OVC100 08/07 A3006 900 93 300 130/03 RMK AO2
14926KSTC STC20020928054010009/28/02 05:40:31  5-MIN KSTC 281140Z AUTO 13004KT 10SM OVC100 08/07 A3005 900 93 300 120/04 RMK AO2
14926KSTC STC20020928054510009/28/02 05:45:31  5-MIN KSTC 281145Z AUTO 12004KT 10SM OVC100 08/07 A3005 900 89 400 120/04 RMK AO2
14926KSTC STC20020928055013509/28/02 05:50:31  5-MIN KSTC 281150Z AUTO 12004KT 10SM OVC100 08/07 A3005 910 89 400 110/04 RMK AO2 SLP188 T00830067 10083 20056 50003
14926KSTC STC20020928055510709/28/02 05:55:31  5-MIN KSTC 281155Z AUTO 13003KT 10SM BKN100 OVC120 08/07 A3005 900 89 400 120/03 RMK AO2
14926KSTC STC20020928060010709/28/02 06:00:31  5-MIN KSTC 281200Z AUTO 13003KT 10SM BKN100 OVC120 08/06 A3005 900 86 400 130/03 RMK AO2
14926KSTC STC20020928060510009/28/02 06:05:31  5-MIN KSTC 281205Z AUTO 00000KT 10SM OVC100 08/07 A3006 900 93 300 000/00 RMK AO2
14926KSTC STC20020928061010009/28/02 06:10:31  5-MIN KSTC 281210Z AUTO 00000KT 10SM OVC100 08/07 A3006 890 93 300 000/00 RMK AO2
14926KSTC STC20020928061510009/28/02 06:15:31  5-MIN KSTC 281215Z AUTO 00000KT 10SM OVC110 07/07 A3007 890 96 200 000/00 RMK AO2
14926KSTC STC20020928062010009/28/02 06:20:31  5-MIN KSTC 281220Z AUTO 00000KT 10SM OVC100 08/07 A3008 880 93 300 000/00 RMK AO2
14926KSTC STC20020928062510009/28/02 06:25:31  5-MIN KSTC 281225Z AUTO 00000KT 10SM OVC100 08/07 A3007 890 93 300 000/00 RMK AO2
14926KSTC STC20020928063010009/28/02 06:30:31  5-MIN KSTC 281230Z AUTO 00000KT 10SM OVC100 08/07 A3007 890 96 300 000/00 RMK AO2
14926KSTC STC20020928063510009/28/02 06:35:31  5-MIN KSTC 281235Z AUTO 00000KT 10SM OVC100 08/07 A3007 890 93 300 000/00 RMK AO2
14926KSTC STC20020928064010009/28/02 06:40:31  5-MIN KSTC 281240Z AUTO 00000KT 10SM OVC100 08/07 A3007 890 93 300 000/00 RMK AO2
14926KSTC STC20020928064510009/28/02 06:45:31  5-MIN KSTC 281245Z AUTO 00000KT 10SM OVC100 08/07 A3008 880 93 300 000/00 RMK AO2
14926KSTC STC20020928065011709/28/02 06:50:31  5-MIN KSTC 281250Z AUTO 00000KT 10SM OVC095 08/07 A3009 870 93 300 000/00 RMK AO2 SLP204 T00830072
14926KSTC STC20020928065510009/28/02 06:55:31  5-MIN KSTC 281255Z AUTO 00000KT 10SM OVC095 08/07 A3009 870 93 300 000/00 RMK AO2
14926KSTC STC20020928070010009/28/02 07:00:31  5-MIN KSTC 281300Z AUTO 00000KT 10SM OVC095 08/07 A3009 870 93 300 000/00 RMK AO2
14926KSTC STC20020928070510009/28/02 07:05:31  5-MIN KSTC 281305Z AUTO 00000KT 10SM OVC095 08/07 A3009 870 93 300 000/00 RMK AO2
14926KSTC STC20020928071010009/28/02 07:10:31  5-MIN KSTC 281310Z AUTO 06003KT 10SM OVC095 08/07 A3009 870 93 300 060/03 RMK AO2
14926KSTC STC20020928071510009/28/02 07:15:31  5-MIN KSTC 281315Z AUTO 06003KT 10SM OVC095 08/07 A3009 870 93 300 060/03 RMK AO2
14926KSTC STC20020928072010009/28/02 07:20:31  5-MIN KSTC 281320Z AUTO 06003KT 10SM OVC095 08/07 A3009 870 93 300 060/03 RMK AO2
14926KSTC STC20020928072510009/28/02 07:25:31  5-MIN KSTC 281325Z AUTO 06004KT 10SM OVC100 08/07 A3009 870 93 300 050/04 RMK AO2
14926KSTC STC20020928073010009/28/02 07:30:31  5-MIN KSTC 281330Z AUTO 07003KT 10SM OVC095 08/07 A3010 860 93 300 060/03 RMK AO2
14926KSTC STC20020928073510009/28/02 07:35:31  5-MIN KSTC 281335Z AUTO 05003KT 10SM OVC095 08/07 A3010 860 93 300 050/03 RMK AO2
14926KSTC STC20020928074010009/28/02 07:40:31  5-MIN KSTC 281340Z AUTO 05004KT 10SM OVC095 08/07 A3009 870 93 300 050/04 RMK AO2
14926KSTC STC20020928074510009/28/02 07:45:31  5-MIN KSTC 281345Z AUTO 06004KT 10SM OVC095 08/07 A3009 870 93 300 060/04 RMK AO2
14926KSTC STC20020928075011709/28/02 07:50:31  5-MIN KSTC 281350Z AUTO 06004KT 10SM OVC090 08/07 A3010 860 93 300 060/04 RMK AO2 SLP205 T00830072
14926KSTC STC20020928075510009/28/02 07:55:31  5-MIN KSTC 281355Z AUTO 06004KT 10SM OVC090 09/07 A3010 860 89 400 060/04 RMK AO2
14926KSTC STC20020928080010009/28/02 08:00:31  5-MIN KSTC 281400Z AUTO 05003KT 10SM OVC090 09/08 A3010 860 93 400 040/03 RMK AO2
14926KSTC STC20020928080510009/28/02 08:05:31  5-MIN KSTC 281405Z AUTO 00000KT 10SM OVC090 09/08 A3010 860 93 400 000/00 RMK AO2
14926KSTC STC20020928081010009/28/02 08:10:31  5-MIN KSTC 281410Z AUTO 07003KT 10SM OVC090 09/08 A3010 860 93 400 060/03 RMK AO2
14926KSTC STC20020928081510009/28/02 08:15:31  5-MIN KSTC 281415Z AUTO 06004KT 10SM OVC090 09/08 A3010 860 93 400 060/04 RMK AO2
14926KSTC STC20020928082010009/28/02 08:20:31  5-MIN KSTC 281420Z AUTO 06003KT 10SM OVC090 09/08 A3010 860 93 400 060/03 RMK AO2
14926KSTC STC20020928082510009/28/02 08:25:31  5-MIN KSTC 281425Z AUTO 06004KT 10SM OVC090 09/08 A3010 860 89 400 060/04 RMK AO2
14926KSTC STC20020928083010009/28/02 08:30:31  5-MIN KSTC 281430Z AUTO 06004KT 10SM OVC090 09/08 A3010 860 89 400 060/04 RMK AO2
14926KSTC STC20020928083510009/28/02 08:35:31  5-MIN KSTC 281435Z AUTO 00000KT 10SM OVC090 09/08 A3011 850 89 400 000/00 RMK AO2
14926KSTC STC20020928084010009/28/02 08:40:31  5-MIN KSTC 281440Z AUTO 00000KT 10SM OVC090 10/08 A3012 850 86 500 000/00 RMK AO2
14926KSTC STC20020928084510009/28/02 08:45:31  5-MIN KSTC 281445Z AUTO 00000KT 10SM OVC090 10/08 A3012 840 86 500 000/00 RMK AO2
14926KSTC STC20020928085012309/28/02 08:50:31  5-MIN KSTC 281450Z AUTO 00000KT 10SM OVC090 10/08 A3012 840 86 500 000/00 RMK AO2 SLP215 T01000078 50001
14926KSTC STC20020928085510009/28/02 08:55:31  5-MIN KSTC 281455Z AUTO 00000KT 10SM OVC090 10/08 A3012 840 86 500 000/00 RMK AO2
14926KSTC STC20020928090010009/28/02 09:00:31  5-MIN KSTC 281500Z AUTO 00000KT 10SM OVC090 10/08 A3012 840 86 500 000/00 RMK AO2
14926KSTC STC20020928090510009/28/02 09:05:31  5-MIN KSTC 281505Z AUTO 00000KT 10SM BKN090 10/08 A3012 840 86 500 000/00 RMK AO2
14926KSTC STC20020928091010009/28/02 09:10:31  5-MIN KSTC 281510Z AUTO 00000KT 10SM BKN090 11/08 A3012 840 86 600 000/00 RMK AO2
14926KSTC STC20020928091510009/28/02 09:15:31  5-MIN KSTC 281515Z AUTO 07003KT 10SM BKN095 11/08 A3011 850 86 600 060/03 RMK AO2
14926KSTC STC20020928092010009/28/02 09:20:31  5-MIN KSTC 281520Z AUTO 07003KT 10SM BKN095 11/08 A3011 850 86 600 060/03 RMK AO2
14926KSTC STC20020928092510009/28/02 09:25:31  5-MIN KSTC 281525Z AUTO 07003KT 10SM SCT095 10/08 A3011 850 89 500 070/03 RMK AO2
14926KSTC STC20020928093010009/28/02 09:30:31  5-MIN KSTC 281530Z AUTO 08004KT 10SM SCT095 11/09 A3010 860 89 600 070/04 RMK AO2
14926KSTC STC20020928093510009/28/02 09:35:31  5-MIN KSTC 281535Z AUTO 09005KT 10SM SCT095 11/09 A3010 860 89 600 080/05 RMK AO2
14926KSTC STC20020928094010009/28/02 09:40:31  5-MIN KSTC 281540Z AUTO 09006KT 10SM FEW095 11/08 A3009 870 86 600 080/06 RMK AO2
14926KSTC STC20020928094510009/28/02 09:45:31  5-MIN KSTC 281545Z AUTO 09006KT 10SM FEW090 11/08 A3010 860 86 600 090/06 RMK AO2
14926KSTC STC20020928095011709/28/02 09:50:31  5-MIN KSTC 281550Z AUTO 09005KT 10SM FEW090 11/08 A3009 870 86 600 080/05 RMK AO2 SLP204 T01060083
14926KSTC STC20020928095510009/28/02 09:55:31  5-MIN KSTC 281555Z AUTO 09005KT 10SM SCT090 11/08 A3009 870 86 600 080/05 RMK AO2
14926KSTC STC20020928100010009/28/02 10:00:31  5-MIN KSTC 281600Z AUTO 08004KT 10SM BKN090 11/08 A3010 860 83 600 080/04 RMK AO2
14926KSTC STC20020928100510009/28/02 10:05:31  5-MIN KSTC 281605Z AUTO 05003KT 10SM BKN090 11/08 A3011 850 83 600 040/03 RMK AO2
14926KSTC STC20020928101010009/28/02 10:10:31  5-MIN KSTC 281610Z AUTO 04003KT 10SM BKN090 11/08 A3011 860 86 600 040/03 RMK AO2
14926KSTC STC20020928101510009/28/02 10:15:31  5-MIN KSTC 281615Z AUTO 05005KT 10SM OVC090 11/08 A3010 860 86 600 040/05 RMK AO2
14926KSTC STC20020928102010009/28/02 10:20:31  5-MIN KSTC 281620Z AUTO 03004KT 10SM OVC090 11/08 A3011 850 86 600 030/04 RMK AO2
14926KSTC STC20020928102510709/28/02 10:25:31  5-MIN KSTC 281625Z AUTO 00000KT 10SM OVC090 11/08 A3013 840 86 500 000/00 RMK AO2 PRESRR
14926KSTC STC20020928103010009/28/02 10:30:31  5-MIN KSTC 281630Z AUTO 31003KT 10SM OVC090 11/08 A3013 830 86 500 310/03 RMK AO2
14926KSTC STC20020928103510009/28/02 10:35:31  5-MIN KSTC 281635Z AUTO 32003KT 10SM BKN085 11/09 A3013 840 89 500 310/03 RMK AO2
14926KSTC STC20020928104010009/28/02 10:40:31  5-MIN KSTC 281640Z AUTO 00000KT 10SM BKN090 11/08 A3012 840 86 500 000/00 RMK AO2
14926KSTC STC20020928104510009/28/02 10:45:31  5-MIN KSTC 281645Z AUTO 00000KT 10SM BKN090 11/08 A3012 840 83 600 000/00 RMK AO2
14926KSTC STC20020928105011709/28/02 10:50:31  5-MIN KSTC 281650Z AUTO 00000KT 10SM BKN090 11/08 A3012 840 83 600 000/00 RMK AO2 SLP213 T01110083
14926KSTC STC20020928105510709/28/02 10:55:31  5-MIN KSTC 281655Z AUTO 00000KT 10SM SCT070 BKN090 11/08 A3012 840 83 600 000/00 RMK AO2
14926KSTC STC20020928110010709/28/02 11:00:31  5-MIN KSTC 281700Z AUTO 00000KT 10SM BKN065 BKN090 11/09 A3012 840 89 600 000/00 RMK AO2
14926KSTC STC20020928110510709/28/02 11:05:31  5-MIN KSTC 281705Z AUTO 11003KT 10SM BKN060 BKN090 11/09 A3012 850 89 600 110/03 RMK AO2
14926KSTC STC20020928111012209/28/02 11:10:31  5-MIN KSTC 281710Z AUTO 08003KT 9SM -RA BKN050 BKN090 11/09 A3011 850 89 600 070/03 RMK AO2 RAB09 P0000
14926KSTC STC20020928111511509/28/02 11:15:31  5-MIN KSTC 281715Z AUTO 06003KT 9SM -RA BKN048 11/09 A3011 850 89 600 060/03 RMK AO2 RAB09 P0000
14926KSTC STC20020928112013009/28/02 11:20:31  5-MIN KSTC 281720Z AUTO 03003KT 10SM -RA BKN045 BKN050 BKN090 11/09 A3011 850 89 600 030/03 RMK AO2 RAB09 P0000
14926KSTC STC20020928112512909/28/02 11:25:31  5-MIN KSTC 281725Z AUTO 04005KT 10SM SCT043 BKN050 BKN090 11/09 A3010 860 89 600 040/05 RMK AO2 RAB09E25 P0000
14926KSTC STC20020928113012909/28/02 11:30:31  5-MIN KSTC 281730Z AUTO 04003KT 10SM SCT041 SCT050 BKN090 11/09 A3010 860 89 600 040/03 RMK AO2 RAB09E25 P0000
14926KSTC STC20020928113512209/28/02 11:35:31  5-MIN KSTC 281735Z AUTO 05003KT 10SM FEW037 BKN085 11/09 A3010 860 89 600 040/03 RMK AO2 RAB09E25 P0000
14926KSTC STC20020928114012209/28/02 11:40:31  5-MIN KSTC 281740Z AUTO 03004KT 10SM FEW040 BKN085 11/09 A3010 860 89 600 030/04 RMK AO2 RAB09E25 P0000
14926KSTC STC20020928114512209/28/02 11:45:31  5-MIN KSTC 281745Z AUTO 04004KT 10SM FEW065 BKN085 11/09 A3010 860 89 600 040/04 RMK AO2 RAB09E25 P0000
14926KSTC STC20020928115016209/28/02 11:50:31  5-MIN KSTC 281750Z AUTO 04004KT 9SM SCT041 BKN080 11/09 A3010 860 89 600 030/04 RMK AO2 RAB09E25 SLP206 P0000 60000 T01060089 10111 20072 51024
14926KSTC STC20020928115511609/28/02 11:55:31  5-MIN KSTC 281755Z AUTO 05004KT 8SM -RA BKN028 OVC085 11/09 A3010 860 89 600 050/04 RMK AO2 P0000
14926KSTC STC20020928120011609/28/02 12:00:31  5-MIN KSTC 281800Z AUTO 08004KT 8SM -RA BKN027 BKN080 11/09 A3009 870 89 600 070/04 RMK AO2 P0000
14926KSTC STC20020928120511709/28/02 12:05:31  5-MIN KSTC 281805Z AUTO 08003KT 10SM -RA SCT035 BKN080 11/09 A3009 870 89 600 070/03 RMK AO2 P0000
14926KSTC STC20020928121011709/28/02 12:10:31  5-MIN KSTC 281810Z AUTO 08003KT 10SM -RA SCT038 BKN075 11/09 A3010 860 93 600 080/03 RMK AO2 P0000
14926KSTC STC20020928121512409/28/02 12:15:31  5-MIN KSTC 281815Z AUTO 09003KT 10SM -RA BKN040 BKN065 OVC080 11/09 A3009 870 89 600 090/03 RMK AO2 P0000
14926KSTC STC20020928122011609/28/02 12:20:31  5-MIN KSTC 281820Z AUTO 00000KT 9SM -RA BKN040 OVC070 11/09 A3010 860 89 600 000/00 RMK AO2 P0001
14926KSTC STC20020928122511609/28/02 12:25:31  5-MIN KSTC 281825Z AUTO 00000KT 7SM -RA BKN042 OVC070 11/09 A3010 860 89 600 000/00 RMK AO2 P0002
14926KSTC STC20020928123011909/28/02 12:30:31  5-MIN KSTC 281830Z AUTO 00000KT 6SM -RA BR BKN036 OVC070 11/09 A3010 860 89 600 000/00 RMK AO2 P0002
14926KSTC STC20020928123511909/28/02 12:35:31  5-MIN KSTC 281835Z AUTO 00000KT 6SM -RA BR BKN029 OVC070 11/09 A3010 870 89 600 000/00 RMK AO2 P0003
14926KSTC STC20020928124011909/28/02 12:40:31  5-MIN KSTC 281840Z AUTO 00000KT 6SM -RA BR BKN026 OVC070 11/09 A3009 870 89 600 000/00 RMK AO2 P0004
14926KSTC STC20020928124511609/28/02 12:45:31  5-MIN KSTC 281845Z AUTO 00000KT 7SM -RA BKN022 OVC070 10/09 A3009 870 93 500 000/00 RMK AO2 P0005
14926KSTC STC20020928125013309/28/02 12:50:31  5-MIN KSTC 281850Z AUTO 00000KT 7SM -RA BKN019 OVC070 10/09 A3009 870 93 500 000/00 RMK AO2 SLP203 P0005 T01000089
14926KSTC STC20020928125511609/28/02 12:55:31  5-MIN KSTC 281855Z AUTO 00000KT 7SM -RA BKN019 BKN065 10/09 A3009 870 96 500 000/00 RMK AO2 P0000
14926KSTC STC20020928130011609/28/02 13:00:31  5-MIN KSTC 281900Z AUTO 00000KT 7SM -RA BKN019 BKN065 11/09 A3009 870 93 600 000/00 RMK AO2 P0000
14926KSTC STC20020928130512309/28/02 13:05:31  5-MIN KSTC 281905Z AUTO 00000KT 8SM -RA SCT019 BKN065 BKN080 11/09 A3008 880 93 600 000/00 RMK AO2 P0000
14926KSTC STC20020928131012309/28/02 13:10:31  5-MIN KSTC 281910Z AUTO 11004KT 9SM -RA SCT019 SCT065 BKN075 11/09 A3008 880 89 600 110/04 RMK AO2 P0000
14926KSTC STC20020928131512609/28/02 13:15:31  5-MIN KSTC 281915Z AUTO 12004KT 10SM FEW019 BKN065 BKN075 11/09 A3008 880 93 600 120/04 RMK AO2 RAE15 P0000
14926KSTC STC20020928132012609/28/02 13:20:31  5-MIN KSTC 281920Z AUTO 10003KT 10SM FEW021 BKN065 BKN075 10/09 A3008 880 93 500 100/03 RMK AO2 RAE15 P0000
14926KSTC STC20020928132512609/28/02 13:25:31  5-MIN KSTC 281925Z AUTO 00000KT 10SM FEW021 BKN060 BKN075 11/09 A3008 880 93 600 000/00 RMK AO2 RAE15 P0000
14926KSTC STC20020928133011709/28/02 13:30:31  5-MIN KSTC 281930Z AUTO 13003KT 10SM -RA BKN060 OVC075 11/09 A3008 880 93 600 130/03 RMK AO2 P0000
14926KSTC STC20020928133511009/28/02 13:35:31  5-MIN KSTC 281935Z AUTO 13003KT 10SM -RA OVC060 10/09 A3008 880 93 500 120/03 RMK AO2 P0000
14926KSTC STC20020928134011009/28/02 13:40:31  5-MIN KSTC 281940Z AUTO 13004KT 10SM -RA OVC060 10/09 A3007 890 93 500 130/04 RMK AO2 P0000
14926KSTC STC20020928134511209/28/02 13:45:31  5-MIN KSTC 281945Z AUTO 13004KT 10SM OVC065 10/09 A3007 890 96 500 120/04 RMK AO2 RAE43 P0000
14926KSTC STC20020928135013309/28/02 13:50:31  5-MIN KSTC 281950Z AUTO 00000KT 9SM -RA BKN065 OVC085 11/09 A3007 890 93 600 000/00 RMK AO2 SLP196 P0000 T01060094
14926KSTC STC20020928135511609/28/02 13:55:31  5-MIN KSTC 281955Z AUTO 00000KT 9SM -RA BKN070 OVC085 11/09 A3007 890 93 600 000/00 RMK AO2 P0000
14926KSTC STC20020928140011609/28/02 14:00:31  5-MIN KSTC 282000Z AUTO 00000KT 9SM -RA BKN070 OVC085 11/09 A3007 890 89 600 000/00 RMK AO2 P0001
14926KSTC STC20020928140511709/28/02 14:05:31  5-MIN KSTC 282005Z AUTO 00000KT 10SM -RA BKN070 OVC085 11/09 A3007 890 89 600 000/00 RMK AO2 P0001
14926KSTC STC20020928141011909/28/02 14:10:31  5-MIN KSTC 282010Z AUTO 09003KT 10SM BKN075 OVC085 11/09 A3007 890 93 600 090/03 RMK AO2 RAE07 P0001
14926KSTC STC20020928141511009/28/02 14:15:31  5-MIN KSTC 282015Z AUTO 08005KT 10SM -RA OVC075 11/09 A3006 900 93 600 080/05 RMK AO2 P0001
14926KSTC STC20020928142011009/28/02 14:20:31  5-MIN KSTC 282020Z AUTO 10004KT 10SM -RA BKN075 11/09 A3006 900 93 600 090/04 RMK AO2 P0001
14926KSTC STC20020928142511009/28/02 14:25:31  5-MIN KSTC 282025Z AUTO 11004KT 10SM -RA BKN075 11/09 A3006 900 93 600 100/04 RMK AO2 P0001
14926KSTC STC20020928143011909/28/02 14:30:31  5-MIN KSTC 282030Z AUTO 11004KT 10SM FEW014 BKN080 11/09 A3006 900 89 600 100/04 RMK AO2 RAE26 P0001
14926KSTC STC20020928143511909/28/02 14:35:31  5-MIN KSTC 282035Z AUTO 10004KT 10SM SCT014 BKN075 11/09 A3006 900 93 600 100/04 RMK AO2 RAE26 P0001
14926KSTC STC20020928144012609/28/02 14:40:31  5-MIN KSTC 282040Z AUTO 10004KT 10SM SCT014 BKN080 BKN110 11/09 A3006 900 93 600 100/04 RMK AO2 RAE26 P0001
14926KSTC STC20020928144512609/28/02 14:45:31  5-MIN KSTC 282045Z AUTO 12005KT 10SM SCT014 SCT085 BKN120 11/09 A3006 900 93 600 120/05 RMK AO2 RAE26 P0001
14926KSTC STC20020928145015509/28/02 14:50:31  5-MIN KSTC 282050Z AUTO 10004KT 10SM SCT014 SCT085 BKN120 11/09 A3006 900 93 600 100/04 RMK AO2 RAE26 SLP192 P0001 60007 T01060094 56009
14926KSTC STC20020928145510709/28/02 14:55:31  5-MIN KSTC 282055Z AUTO 09004KT 10SM SCT014 BKN120 11/09 A3006 900 93 600 090/04 RMK AO2
14926KSTC STC20020928150010709/28/02 15:00:31  5-MIN KSTC 282100Z AUTO 06004KT 10SM SCT014 BKN120 11/09 A3006 900 93 600 060/04 RMK AO2
14926KSTC STC20020928150510609/28/02 15:05:31  5-MIN KSTC 282105Z AUTO 07005KT 9SM BKN012 BKN120 11/09 A3005 900 93 600 070/05 RMK AO2
14926KSTC STC20020928151010609/28/02 15:10:31  5-MIN KSTC 282110Z AUTO 05003KT 9SM BKN012 BKN120 11/09 A3006 900 93 600 050/03 RMK AO2
14926KSTC STC20020928151510609/28/02 15:15:31  5-MIN KSTC 282115Z AUTO 05005KT 9SM BKN012 BKN120 11/09 A3005 900 93 600 050/05 RMK AO2
14926KSTC STC20020928152009909/28/02 15:20:31  5-MIN KSTC 282120Z AUTO 05004KT 8SM BKN012 11/09 A3005 900 93 600 050/04 RMK AO2
14926KSTC STC20020928152509909/28/02 15:25:31  5-MIN KSTC 282125Z AUTO 06005KT 7SM BKN012 11/10 A3005 910 96 600 060/05 RMK AO2
14926KSTC STC20020928153009909/28/02 15:30:31  5-MIN KSTC 282130Z AUTO 06005KT 7SM BKN010 11/10 A3005 910 96 600 060/05 RMK AO2
14926KSTC STC20020928153509909/28/02 15:35:31  5-MIN KSTC 282135Z AUTO 07006KT 7SM BKN010 11/09 A3004 910 93 600 060/06 RMK AO2
14926KSTC STC20020928154009909/28/02 15:40:31  5-MIN KSTC 282140Z AUTO 06006KT 7SM BKN010 11/09 A3004 910 93 600 050/06 RMK AO2
14926KSTC STC20020928154509909/28/02 15:45:31  5-MIN KSTC 282145Z AUTO 04006KT 7SM OVC010 11/10 A3005 910 96 600 040/06 RMK AO2
14926KSTC STC20020928155011609/28/02 15:50:31  5-MIN KSTC 282150Z AUTO 05007KT 7SM OVC010 11/10 A3004 910 96 600 040/07 RMK AO2 SLP188 T01060100
14926KSTC STC20020928155509909/28/02 15:55:31  5-MIN KSTC 282155Z AUTO 06006KT 8SM OVC010 11/09 A3005 910 93 600 050/06 RMK AO2
14926KSTC STC20020928160009909/28/02 16:00:31  5-MIN KSTC 282200Z AUTO 06006KT 9SM OVC010 11/10 A3005 910 93 700 060/06 RMK AO2
14926KSTC STC20020928160509909/28/02 16:05:31  5-MIN KSTC 282205Z AUTO 06007KT 9SM OVC010 11/09 A3004 910 93 600 060/07 RMK AO2
14926KSTC STC20020928161010009/28/02 16:10:31  5-MIN KSTC 282210Z AUTO 05006KT 10SM OVC010 11/09 A3004 910 93 600 050/06 RMK AO2
14926KSTC STC20020928161510009/28/02 16:15:31  5-MIN KSTC 282215Z AUTO 05007KT 10SM OVC010 11/09 A3004 920 93 600 040/07 RMK AO2
14926KSTC STC20020928162010709/28/02 16:20:31  5-MIN KSTC 282220Z AUTO 05009KT 10SM BKN010 OVC100 11/09 A3004 920 93 600 050/09 RMK AO2
14926KSTC STC20020928162510709/28/02 16:25:31  5-MIN KSTC 282225Z AUTO 07007KT 10SM BKN010 OVC100 11/09 A3005 910 93 600 060/07 RMK AO2
14926KSTC STC20020928163010709/28/02 16:30:31  5-MIN KSTC 282230Z AUTO 07005KT 10SM BKN010 OVC100 11/09 A3005 910 93 600 070/05 RMK AO2
14926KSTC STC20020928163510709/28/02 16:35:31  5-MIN KSTC 282235Z AUTO 08003KT 10SM BKN010 OVC100 11/09 A3005 900 93 600 070/03 RMK AO2
14926KSTC STC20020928164010709/28/02 16:40:31  5-MIN KSTC 282240Z AUTO 08006KT 10SM BKN012 OVC100 11/09 A3005 900 93 600 080/06 RMK AO2
14926KSTC STC20020928164510709/28/02 16:45:31  5-MIN KSTC 282245Z AUTO 06006KT 10SM BKN012 OVC100 11/09 A3005 910 93 600 060/06 RMK AO2
14926KSTC STC20020928165013309/28/02 16:50:31  5-MIN KSTC 282250Z AUTO 08006KT 10SM TS SCT012 OVC100 11/09 A3005 910 93 600 070/06 RMK AO2 TSB47 SLP189 T01060094
14926KSTC STC20020928165511009/28/02 16:55:31  5-MIN KSTC 282255Z AUTO 08006KT 10SM TS SCT012 OVC100 11/09 A3005 910 89 600 070/06 RMK AO2
14926KSTC STC20020928170011009/28/02 17:00:31  5-MIN KSTC 282300Z AUTO 07006KT 10SM TS FEW012 OVC100 11/09 A3005 910 93 600 070/06 RMK AO2
14926KSTC STC20020928170511309/28/02 17:05:31  5-MIN KSTC 282305Z AUTO 07004KT 10SM FEW014 OVC100 11/09 A3005 910 89 600 060/04 RMK AO2 TSE02
14926KSTC STC20020928171010609/28/02 17:10:31  5-MIN KSTC 282310Z AUTO 07004KT 10SM OVC100 11/09 A3005 910 93 600 070/04 RMK AO2 TSE02
14926KSTC STC20020928171510609/28/02 17:15:31  5-MIN KSTC 282315Z AUTO 08005KT 10SM OVC100 11/09 A3005 900 93 600 070/05 RMK AO2 TSE02
14926KSTC STC20020928172010609/28/02 17:20:31  5-MIN KSTC 282320Z AUTO 07005KT 10SM OVC100 11/09 A3006 900 93 600 060/05 RMK AO2 TSE02
14926KSTC STC20020928172510609/28/02 17:25:31  5-MIN KSTC 282325Z AUTO 07005KT 10SM OVC100 11/09 A3005 900 93 600 060/05 RMK AO2 TSE02
14926KSTC STC20020928173010609/28/02 17:30:31  5-MIN KSTC 282330Z AUTO 08005KT 10SM OVC100 11/09 A3006 900 93 600 080/05 RMK AO2 TSE02
14926KSTC STC20020928173511309/28/02 17:35:31  5-MIN KSTC 282335Z AUTO 07004KT 10SM FEW016 OVC100 11/09 A3006 900 93 600 070/04 RMK AO2 TSE02
14926KSTC STC20020928174011309/28/02 17:40:31  5-MIN KSTC 282340Z AUTO 07004KT 10SM SCT014 OVC100 11/09 A3006 900 93 600 070/04 RMK AO2 TSE02
14926KSTC STC20020928174511309/28/02 17:45:31  5-MIN KSTC 282345Z AUTO 07005KT 10SM SCT014 OVC100 11/09 A3005 900 89 600 070/05 RMK AO2 TSE02
14926KSTC STC20020928175015409/28/02 17:50:31  5-MIN KSTC 282350Z AUTO 08004KT 10SM SCT014 OVC100 11/09 A3006 900 93 600 080/04 RMK AO2 TSE02 SLP191 60007 T01060094 10111 20100 58012
14926KSTC STC20020928175510709/28/02 17:55:31  5-MIN KSTC 282355Z AUTO 08005KT 10SM SCT014 OVC100 11/09 A3006 900 93 600 080/05 RMK AO2
14926KSTC STC20020928180010709/28/02 18:00:31  5-MIN KSTC 290000Z AUTO 08004KT 10SM SCT016 OVC100 10/09 A3006 900 96 600 070/04 RMK AO2
14926KSTC STC20020928180510709/28/02 18:05:31  5-MIN KSTC 290005Z AUTO 07004KT 10SM FEW012 OVC100 10/09 A3006 900 93 600 070/04 RMK AO2
14926KSTC STC20020928181010709/28/02 18:10:31  5-MIN KSTC 290010Z AUTO 08005KT 10SM FEW017 OVC100 10/09 A3006 900 93 500 080/05 RMK AO2
14926KSTC STC20020928181510009/28/02 18:15:31  5-MIN KSTC 290015Z AUTO 08005KT 10SM OVC100 10/09 A3006 900 93 500 070/05 RMK AO2
14926KSTC STC20020928182010709/28/02 18:20:31  5-MIN KSTC 290020Z AUTO 08005KT 10SM FEW015 OVC095 10/09 A3006 900 93 600 070/05 RMK AO2
14926KSTC STC20020928182510709/28/02 18:25:31  5-MIN KSTC 290025Z AUTO 07006KT 10SM SCT015 OVC095 10/09 A3006 900 96 600 060/06 RMK AO2
14926KSTC STC20020928183010709/28/02 18:30:31  5-MIN KSTC 290030Z AUTO 06006KT 10SM SCT015 OVC100 10/09 A3006 900 96 600 060/06 RMK AO2
14926KSTC STC20020928183510709/28/02 18:35:31  5-MIN KSTC 290035Z AUTO 08005KT 10SM BKN015 OVC100 10/09 A3006 890 96 500 070/05 RMK AO2
14926KSTC STC20020928184010609/28/02 18:40:31  5-MIN KSTC 290040Z AUTO 07004KT 9SM BKN015 OVC100 11/09 A3006 890 93 600 070/04 RMK AO2
14926KSTC STC20020928184511309/28/02 18:45:31  5-MIN KSTC 290045Z AUTO 07007KT 9SM FEW007 BKN015 OVC100 10/09 A3006 900 96 600 060/07 RMK AO2
14926KSTC STC20020928185012309/28/02 18:50:31  5-MIN KSTC 290050Z AUTO 07005KT 9SM FEW007 OVC013 10/09 A3006 900 96 600 070/05 RMK AO2 SLP193 T01000094
14926KSTC STC20020928185510609/28/02 18:55:31  5-MIN KSTC 290055Z AUTO 08004KT 8SM BKN013 OVC100 10/09 A3006 900 96 500 080/04 RMK AO2
14926KSTC STC20020928190009909/28/02 19:00:31  5-MIN KSTC 290100Z AUTO 07004KT 8SM OVC013 10/09 A3006 900 96 500 070/04 RMK AO2
14926KSTC STC20020928190509909/28/02 19:05:31  5-MIN KSTC 290105Z AUTO 07005KT 8SM OVC013 10/09 A3006 890 96 500 070/05 RMK AO2
14926KSTC STC20020928191009909/28/02 19:10:31  5-MIN KSTC 290110Z AUTO 08005KT 9SM OVC011 11/09 A3006 890 93 600 080/05 RMK AO2
14926KSTC STC20020928191510609/28/02 19:15:31  5-MIN KSTC 290115Z AUTO 10004KT 9SM SCT007 OVC011 10/09 A3007 890 96 500 100/04 RMK AO2
14926KSTC STC20020928192010609/28/02 19:20:31  5-MIN KSTC 290120Z AUTO 09003KT 9SM BKN007 OVC011 11/09 A3007 890 93 600 090/03 RMK AO2
14926KSTC STC20020928192510609/28/02 19:25:31  5-MIN KSTC 290125Z AUTO 08004KT 8SM BKN007 OVC011 11/09 A3007 890 93 600 080/04 RMK AO2
14926KSTC STC20020928193010609/28/02 19:30:31  5-MIN KSTC 290130Z AUTO 09003KT 8SM BKN007 OVC011 11/09 A3007 890 93 600 080/03 RMK AO2
14926KSTC STC20020928193509909/28/02 19:35:31  5-MIN KSTC 290135Z AUTO 08005KT 8SM OVC007 10/09 A3007 890 96 500 070/05 RMK AO2
14926KSTC STC20020928194009909/28/02 19:40:31  5-MIN KSTC 290140Z AUTO 07005KT 7SM OVC007 10/09 A3007 890 96 500 070/05 RMK AO2
14926KSTC STC20020928194509909/28/02 19:45:31  5-MIN KSTC 290145Z AUTO 07006KT 7SM OVC007 10/09 A3007 890 96 500 070/06 RMK AO2
14926KSTC STC20020928195011609/28/02 19:50:31  5-MIN KSTC 290150Z AUTO 09005KT 7SM OVC007 11/09 A3007 890 93 600 090/05 RMK AO2 SLP196 T01060094
14926KSTC STC20020928195509909/28/02 19:55:31  5-MIN KSTC 290155Z AUTO 08004KT 7SM OVC007 11/09 A3007 890 93 600 080/04 RMK AO2
14926KSTC STC20020928200009909/28/02 20:00:31  5-MIN KSTC 290200Z AUTO VRB04KT 7SM OVC007 10/09 A3007 880 96 500 VRB/04 RMK AO2
14926KSTC STC20020928200509909/28/02 20:05:31  5-MIN KSTC 290205Z AUTO 08005KT 8SM OVC007 11/09 A3007 880 93 600 080/05 RMK AO2
14926KSTC STC20020928201009909/28/02 20:10:31  5-MIN KSTC 290210Z AUTO 06005KT 8SM OVC007 11/09 A3008 880 93 600 050/05 RMK AO2
14926KSTC STC20020928201511109/28/02 20:15:31  5-MIN KSTC 290215Z AUTO 07003KT 7SM OVC009 10/09 A3008 880 96 500 070/03 RMK AO2 CIG 007V010
14926KSTC STC20020928202011109/28/02 20:20:31  5-MIN KSTC 290220Z AUTO 08004KT 7SM OVC009 10/09 A3008 880 96 500 080/04 RMK AO2 CIG 007V010
14926KSTC STC20020928202509909/28/02 20:25:31  5-MIN KSTC 290225Z AUTO 07005KT 7SM OVC009 10/09 A3008 880 96 500 070/05 RMK AO2
14926KSTC STC20020928203009909/28/02 20:30:31  5-MIN KSTC 290230Z AUTO 07004KT 7SM OVC009 10/09 A3008 880 96 500 070/04 RMK AO2
14926KSTC STC20020928203509909/28/02 20:35:31  5-MIN KSTC 290235Z AUTO 07004KT 8SM OVC009 10/09 A3008 880 96 500 070/04 RMK AO2
14926KSTC STC20020928204009909/28/02 20:40:31  5-MIN KSTC 290240Z AUTO 08003KT 8SM OVC009 10/09 A3008 880 96 500 080/03 RMK AO2
14926KSTC STC20020928204509909/28/02 20:45:31  5-MIN KSTC 290245Z AUTO 09004KT 8SM OVC009 10/09 A3008 880 96 500 080/04 RMK AO2
14926KSTC STC20020928205012209/28/02 20:50:31  5-MIN KSTC 290250Z AUTO 08004KT 8SM OVC009 10/09 A3008 880 96 500 080/04 RMK AO2 SLP199 T01000094 55001
14926KSTC STC20020928205509909/28/02 20:55:31  5-MIN KSTC 290255Z AUTO 09005KT 8SM OVC009 10/09 A3008 880 96 500 080/05 RMK AO2
14926KSTC STC20020928210009909/28/02 21:00:31  5-MIN KSTC 290300Z AUTO 09004KT 8SM OVC009 10/09 A3008 880 96 500 090/04 RMK AO2
14926KSTC STC20020928210509909/28/02 21:05:31  5-MIN KSTC 290305Z AUTO 09003KT 8SM OVC009 10/09 A3008 880 96 500 080/03 RMK AO2
14926KSTC STC20020928211009909/28/02 21:10:31  5-MIN KSTC 290310Z AUTO 08005KT 8SM OVC009 10/09 A3007 880 96 500 080/05 RMK AO2
14926KSTC STC20020928211509909/28/02 21:15:31  5-MIN KSTC 290315Z AUTO 08004KT 9SM OVC007 10/09 A3007 880 96 500 080/04 RMK AO2
14926KSTC STC20020928212009909/28/02 21:20:31  5-MIN KSTC 290320Z AUTO 07005KT 8SM OVC007 10/09 A3007 880 96 500 070/05 RMK AO2
14926KSTC STC20020928212509909/28/02 21:25:31  5-MIN KSTC 290325Z AUTO 06004KT 8SM OVC007 10/09 A3007 890 96 500 060/04 RMK AO2
14926KSTC STC20020928213009909/28/02 21:30:31  5-MIN KSTC 290330Z AUTO 07005KT 8SM OVC007 10/09 A3007 890 96 500 060/05 RMK AO2
14926KSTC STC20020928213509909/28/02 21:35:31  5-MIN KSTC 290335Z AUTO 07004KT 8SM OVC007 10/09 A3007 890 96 500 070/04 RMK AO2
14926KSTC STC20020928214009909/28/02 21:40:31  5-MIN KSTC 290340Z AUTO 07005KT 8SM OVC007 10/09 A3007 890 96 500 070/05 RMK AO2
14926KSTC STC20020928214509909/28/02 21:45:31  5-MIN KSTC 290345Z AUTO 07005KT 8SM OVC007 10/09 A3007 890 96 500 070/05 RMK AO2
14926KSTC STC20020928215011609/28/02 21:50:31  5-MIN KSTC 290350Z AUTO 07005KT 8SM OVC007 10/09 A3007 890 96 500 070/05 RMK AO2 SLP193 T01000094
14926KSTC STC20020928215509909/28/02 21:55:31  5-MIN KSTC 290355Z AUTO 08005KT 8SM OVC005 10/09 A3006 890 96 500 080/05 RMK AO2
14926KSTC STC20020928220009909/28/02 22:00:31  5-MIN KSTC 290400Z AUTO 07005KT 8SM OVC005 10/09 A3007 890 96 500 060/05 RMK AO2
14926KSTC STC20020928220509909/28/02 22:05:31  5-MIN KSTC 290405Z AUTO 06005KT 8SM OVC005 10/09 A3007 890 96 500 060/05 RMK AO2
14926KSTC STC20020928221009909/28/02 22:10:31  5-MIN KSTC 290410Z AUTO 07004KT 8SM OVC005 10/09 A3007 890 96 500 070/04 RMK AO2
14926KSTC STC20020928221509909/28/02 22:15:31  5-MIN KSTC 290415Z AUTO 06004KT 7SM OVC005 10/09 A3006 890 96 500 060/04 RMK AO2
14926KSTC STC20020928222009909/28/02 22:20:31  5-MIN KSTC 290420Z AUTO 07004KT 7SM OVC005 10/09 A3006 890 96 500 060/04 RMK AO2
14926KSTC STC20020928222510609/28/02 22:25:31  5-MIN KSTC 290425Z AUTO 07005KT 7SM BKN005 OVC065 10/09 A3006 900 96 600 060/05 RMK AO2
14926KSTC STC20020928223010909/28/02 22:30:31  5-MIN KSTC 290430Z AUTO 06005KT 6SM BR BKN005 OVC065 10/09 A3006 900 96 600 060/05 RMK AO2
14926KSTC STC20020928223510909/28/02 22:35:31  5-MIN KSTC 290435Z AUTO VRB04KT 6SM BR BKN005 OVC065 10/09 A3006 900 96 600 VRB/04 RMK AO2
14926KSTC STC20020928224010909/28/02 22:40:31  5-MIN KSTC 290440Z AUTO 07004KT 6SM BR BKN005 OVC065 10/09 A3006 900 96 600 070/04 RMK AO2
14926KSTC STC20020928224510909/28/02 22:45:31  5-MIN KSTC 290445Z AUTO 07004KT 6SM BR SCT005 OVC065 10/09 A3005 900 96 600 070/04 RMK AO2
14926KSTC STC20020928225012609/28/02 22:50:31  5-MIN KSTC 290450Z AUTO 07004KT 6SM BR FEW005 OVC065 10/09 A3005 910 96 600 060/04 RMK AO2 SLP188 T01000094
14926KSTC STC20020928225510609/28/02 22:55:31  5-MIN KSTC 290455Z AUTO 07004KT 7SM FEW005 OVC065 10/09 A3005 910 96 600 060/04 RMK AO2
14926KSTC STC20020928230010609/28/02 23:00:31  5-MIN KSTC 290500Z AUTO 07004KT 7SM FEW005 OVC065 10/09 A3005 910 96 600 070/04 RMK AO2
14926KSTC STC20020928230509909/28/02 23:05:31  5-MIN KSTC 290505Z AUTO 07003KT 7SM OVC065 10/09 A3005 910 96 600 070/03 RMK AO2
14926KSTC STC20020928231009909/28/02 23:10:31  5-MIN KSTC 290510Z AUTO 07004KT 8SM OVC065 10/09 A3005 910 96 600 070/04 RMK AO2
14926KSTC STC20020928231509909/28/02 23:15:31  5-MIN KSTC 290515Z AUTO 08004KT 8SM OVC065 10/09 A3004 910 96 600 080/04 RMK AO2
14926KSTC STC20020928232009909/28/02 23:20:31  5-MIN KSTC 290520Z AUTO 07005KT 8SM OVC060 10/09 A3004 910 96 600 070/05 RMK AO2
14926KSTC STC20020928232509909/28/02 23:25:31  5-MIN KSTC 290525Z AUTO 07005KT 8SM OVC060 10/09 A3004 910 96 600 070/05 RMK AO2
14926KSTC STC20020928233009909/28/02 23:30:31  5-MIN KSTC 290530Z AUTO 08005KT 9SM OVC060 10/09 A3004 910 96 600 070/05 RMK AO2
14926KSTC STC20020928233509909/28/02 23:35:31  5-MIN KSTC 290535Z AUTO 07005KT 9SM OVC060 10/09 A3004 920 96 600 070/05 RMK AO2
14926KSTC STC20020928234010609/28/02 23:40:31  5-MIN KSTC 290540Z AUTO 05005KT 9SM BKN060 OVC070 10/09 A3004 920 96 600 050/05 RMK AO2
14926KSTC STC20020928234510609/28/02 23:45:31  5-MIN KSTC 290545Z AUTO 06007KT 9SM BKN060 OVC070 10/09 A3004 920 96 600 060/07 RMK AO2
14926KSTC STC20020928235015109/28/02 23:50:31  5-MIN KSTC 290550Z AUTO 06005KT 8SM BKN060 OVC070 10/09 A3004 920 96 600 060/05 RMK AO2 SLP183 T01000094 10106 20100 401110056 53007
14926KSTC STC20020928235509909/28/02 23:55:31  5-MIN KSTC 290555Z AUTO 07005KT 8SM OVC065 10/09 A3004 920 96 600 070/05 RMK AO2
14926KSTC STC20020929000009909/29/02 00:00:31  5-MIN KSTC 290600Z AUTO 07005KT 8SM OVC065 10/09 A3003 920 96 600 070/05 RMK AO2
14926KSTC STC20020929000510609/29/02 00:05:31  5-MIN KSTC 290605Z AUTO 07005KT 8SM BKN060 OVC070 10/09 A3004 920 96 600 070/05 RMK AO2
14926KSTC STC20020929001010609/29/02 00:10:31  5-MIN KSTC 290610Z AUTO 06005KT 8SM BKN055 OVC070 10/09 A3003 920 96 600 050/05 RMK AO2
14926KSTC STC20020929001510609/29/02 00:15:31  5-MIN KSTC 290615Z AUTO 06005KT 8SM BKN055 OVC070 10/09 A3003 920 96 600 060/05 RMK AO2
14926KSTC STC20020929002010609/29/02 00:20:31  5-MIN KSTC 290620Z AUTO 07005KT 8SM BKN050 OVC065 10/09 A3003 920 96 600 070/05 RMK AO2
14926KSTC STC20020929002510609/29/02 00:25:31  5-MIN KSTC 290625Z AUTO 06005KT 7SM BKN050 OVC060 10/09 A3003 920 96 600 060/05 RMK AO2
14926KSTC STC20020929003009909/29/02 00:30:31  5-MIN KSTC 290630Z AUTO 06005KT 7SM OVC050 10/09 A3003 920 96 600 060/05 RMK AO2
14926KSTC STC20020929003509909/29/02 00:35:31  5-MIN KSTC 290635Z AUTO 06004KT 7SM OVC050 10/09 A3003 920 96 600 060/04 RMK AO2
14926KSTC STC20020929004009909/29/02 00:40:31  5-MIN KSTC 290640Z AUTO VRB04KT 7SM OVC050 10/09 A3003 920 96 600 VRB/04 RMK AO2
14926KSTC STC20020929004510609/29/02 00:45:31  5-MIN KSTC 290645Z AUTO 07004KT 7SM FEW006 OVC050 10/09 A3003 920 96 600 070/04 RMK AO2
14926KSTC STC20020929005011609/29/02 00:50:31  5-MIN KSTC 290650Z AUTO 08006KT 7SM OVC050 10/09 A3003 920 96 600 070/06 RMK AO2 SLP183 T01000094
14926KSTC STC20020929005510609/29/02 00:55:31  5-MIN KSTC 290655Z AUTO 07004KT 8SM FEW006 OVC048 10/09 A3004 920 96 600 070/04 RMK AO2
14926KSTC STC20020929010010609/29/02 01:00:31  5-MIN KSTC 290700Z AUTO 07005KT 8SM FEW006 OVC048 10/09 A3003 920 96 600 070/05 RMK AO2
14926KSTC STC20020929010509909/29/02 01:05:31  5-MIN KSTC 290705Z AUTO 07005KT 8SM OVC048 10/09 A3003 920 96 600 070/05 RMK AO2
14926KSTC STC20020929011009909/29/02 01:10:31  5-MIN KSTC 290710Z AUTO 08004KT 8SM OVC048 10/09 A3003 920 96 600 080/04 RMK AO2
14926KSTC STC20020929011510609/29/02 01:15:31  5-MIN KSTC 290715Z AUTO 08005KT 8SM FEW007 OVC046 10/09 A3003 920 96 600 080/05 RMK AO2
14926KSTC STC20020929012010609/29/02 01:20:31  5-MIN KSTC 290720Z AUTO VRB04KT 8SM SCT007 OVC046 10/09 A3003 920 96 600 VRB/04 RMK AO2
14926KSTC STC20020929012510609/29/02 01:25:31  5-MIN KSTC 290725Z AUTO 09004KT 8SM BKN007 OVC046 10/09 A3003 920 96 600 080/04 RMK AO2
14926KSTC STC20020929013011309/29/02 01:30:31  5-MIN KSTC 290730Z AUTO 09004KT 8SM BKN007 BKN038 OVC046 10/09 A3003 920 96 600 090/04 RMK AO2
14926KSTC STC20020929013511309/29/02 01:35:31  5-MIN KSTC 290735Z AUTO 09004KT 8SM BKN007 BKN038 OVC046 10/09 A3003 920 96 600 080/04 RMK AO2
14926KSTC STC20020929014010609/29/02 01:40:31  5-MIN KSTC 290740Z AUTO 08004KT 8SM BKN007 OVC038 10/09 A3003 930 96 600 070/04 RMK AO2
14926KSTC STC20020929014510609/29/02 01:45:31  5-MIN KSTC 290745Z AUTO 09005KT 8SM BKN007 OVC038 10/09 A3003 930 96 600 090/05 RMK AO2
14926KSTC STC20020929015012309/29/02 01:50:31  5-MIN KSTC 290750Z AUTO VRB04KT 8SM SCT007 OVC038 10/09 A3003 930 96 600 VRB/04 RMK AO2 SLP180 T01000094
14926KSTC STC20020929015510609/29/02 01:55:31  5-MIN KSTC 290755Z AUTO 08004KT 8SM FEW007 OVC038 10/09 A3003 930 96 600 070/04 RMK AO2
14926KSTC STC20020929020010609/29/02 02:00:31  5-MIN KSTC 290800Z AUTO 06003KT 8SM FEW007 OVC038 10/09 A3002 930 96 600 060/03 RMK AO2
14926KSTC STC20020929020509909/29/02 02:05:31  5-MIN KSTC 290805Z AUTO 07004KT 8SM OVC036 10/09 A3002 930 96 600 070/04 RMK AO2
14926KSTC STC20020929021009909/29/02 02:10:31  5-MIN KSTC 290810Z AUTO 06004KT 8SM OVC036 10/09 A3002 930 96 600 060/04 RMK AO2
14926KSTC STC20020929021509909/29/02 02:15:31  5-MIN KSTC 290815Z AUTO 06006KT 8SM OVC036 10/09 A3002 940 96 600 050/06 RMK AO2
14926KSTC STC20020929022009909/29/02 02:20:31  5-MIN KSTC 290820Z AUTO 06004KT 8SM OVC034 10/09 A3001 940 96 600 050/04 RMK AO2
14926KSTC STC20020929022509909/29/02 02:25:31  5-MIN KSTC 290825Z AUTO 07004KT 7SM OVC034 10/09 A3001 940 96 600 070/04 RMK AO2
14926KSTC STC20020929023009909/29/02 02:30:31  5-MIN KSTC 290830Z AUTO 08004KT 8SM OVC034 10/09 A3001 940 96 600 070/04 RMK AO2
14926KSTC STC20020929023509909/29/02 02:35:31  5-MIN KSTC 290835Z AUTO 07004KT 8SM OVC034 10/09 A3001 950 96 600 070/04 RMK AO2
14926KSTC STC20020929024009909/29/02 02:40:31  5-MIN KSTC 290840Z AUTO 07005KT 9SM OVC034 10/09 A3001 950 96 600 070/05 RMK AO2
14926KSTC STC20020929024509909/29/02 02:45:31  5-MIN KSTC 290845Z AUTO 07005KT 9SM OVC034 10/09 A3001 950 96 600 070/05 RMK AO2
14926KSTC STC20020929025014409/29/02 02:50:31  5-MIN KSTC 290850Z AUTO 07005KT 8SM -RA OVC034 10/09 A3000 950 96 600 070/05 RMK AO2 RAB49 SLP171 P0000 60000 T01000094 58014
14926KSTC STC20020929025510909/29/02 02:55:31  5-MIN KSTC 290855Z AUTO 06006KT 8SM -RA OVC034 10/09 A3000 950 96 600 060/06 RMK AO2 P0000
14926KSTC STC20020929030010909/29/02 03:00:31  5-MIN KSTC 290900Z AUTO 06005KT 8SM -RA OVC034 10/09 A3000 950 93 600 060/05 RMK AO2 P0000
14926KSTC STC20020929030511109/29/02 03:05:31  5-MIN KSTC 290905Z AUTO 07005KT 8SM OVC034 10/09 A3000 950 93 600 070/05 RMK AO2 RAE05 P0000
14926KSTC STC20020929031011109/29/02 03:10:31  5-MIN KSTC 290910Z AUTO VRB05KT 8SM OVC034 10/09 A3000 950 96 600 VRB/05 RMK AO2 RAE05 P0000
14926KSTC STC20020929031511109/29/02 03:15:31  5-MIN KSTC 290915Z AUTO 07006KT 8SM OVC034 10/09 A3000 960 93 600 070/06 RMK AO2 RAE05 P0000
14926KSTC STC20020929032011109/29/02 03:20:31  5-MIN KSTC 290920Z AUTO 06005KT 9SM OVC034 10/09 A2999 960 96 600 060/05 RMK AO2 RAE05 P0000
14926KSTC STC20020929032511109/29/02 03:25:31  5-MIN KSTC 290925Z AUTO 07006KT 9SM OVC034 10/09 A2999 960 93 600 060/06 RMK AO2 RAE05 P0000
14926KSTC STC20020929033011109/29/02 03:30:31  5-MIN KSTC 290930Z AUTO 06007KT 9SM OVC032 10/09 A2999 960 93 600 060/07 RMK AO2 RAE05 P0000
14926KSTC STC20020929033511209/29/02 03:35:31  5-MIN KSTC 290935Z AUTO 06005KT 10SM OVC032 10/09 A2999 960 93 600 060/05 RMK AO2 RAE05 P0000
14926KSTC STC20020929034011909/29/02 03:40:31  5-MIN KSTC 290940Z AUTO 07005KT 10SM FEW006 OVC032 10/09 A2999 960 93 600 060/05 RMK AO2 RAE05 P0000
14926KSTC STC20020929034511909/29/02 03:45:31  5-MIN KSTC 290945Z AUTO 08005KT 10SM FEW006 OVC032 10/09 A2999 960 93 600 070/05 RMK AO2 RAE05 P0000
14926KSTC STC20020929035014309/29/02 03:50:31  5-MIN KSTC 290950Z AUTO 06006KT 10SM FEW006 BKN028 OVC034 10/09 A2999 960 93 600 060/06 RMK AO2 RAE05 SLP168 P0000 T01000089
14926KSTC STC20020929035510709/29/02 03:55:31  5-MIN KSTC 290955Z AUTO 07005KT 10SM BKN028 OVC032 10/09 A2999 960 93 600 060/05 RMK AO2
14926KSTC STC20020929040010709/29/02 04:00:31  5-MIN KSTC 291000Z AUTO 08005KT 10SM FEW006 OVC026 10/09 A2999 960 93 600 070/05 RMK AO2
14926KSTC STC20020929040510709/29/02 04:05:31  5-MIN KSTC 291005Z AUTO 08007KT 10SM FEW006 OVC026 10/09 A2999 960 93 600 080/07 RMK AO2
14926KSTC STC20020929041010009/29/02 04:10:31  5-MIN KSTC 291010Z AUTO 07005KT 10SM OVC026 10/09 A2999 960 93 600 070/05 RMK AO2
14926KSTC STC20020929041510009/29/02 04:15:31  5-MIN KSTC 291015Z AUTO 07006KT 10SM OVC026 10/09 A2999 960 93 600 070/06 RMK AO2
14926KSTC STC20020929042010709/29/02 04:20:31  5-MIN KSTC 291020Z AUTO 07005KT 10SM FEW006 OVC026 10/09 A2999 960 93 600 070/05 RMK AO2
14926KSTC STC20020929042510709/29/02 04:25:31  5-MIN KSTC 291025Z AUTO 07006KT 10SM FEW006 OVC026 10/09 A2999 960 93 600 070/06 RMK AO2
14926KSTC STC20020929043010709/29/02 04:30:31  5-MIN KSTC 291030Z AUTO 07005KT 10SM FEW006 OVC028 10/09 A2999 960 93 600 070/05 RMK AO2
14926KSTC STC20020929043510709/29/02 04:35:31  5-MIN KSTC 291035Z AUTO 07005KT 10SM SCT006 OVC028 09/09 A2999 960 96 600 070/05 RMK AO2
14926KSTC STC20020929044010709/29/02 04:40:31  5-MIN KSTC 291040Z AUTO 07005KT 10SM SCT006 OVC028 10/09 A2999 960 93 600 070/05 RMK AO2
14926KSTC STC20020929044510709/29/02 04:45:31  5-MIN KSTC 291045Z AUTO 07006KT 10SM SCT006 OVC028 09/09 A2999 960 96 600 070/06 RMK AO2
14926KSTC STC20020929045012409/29/02 04:50:31  5-MIN KSTC 291050Z AUTO 06005KT 10SM SCT006 OVC028 09/09 A3000 960 96 600 060/05 RMK AO2 SLP171 T00940089
14926KSTC STC20020929045510709/29/02 04:55:31  5-MIN KSTC 291055Z AUTO 07005KT 10SM BKN006 OVC030 09/09 A3000 960 96 600 060/05 RMK AO2
14926KSTC STC20020929050010709/29/02 05:00:31  5-MIN KSTC 291100Z AUTO 06006KT 10SM BKN006 OVC030 09/09 A3000 950 96 600 060/06 RMK AO2
14926KSTC STC20020929050510709/29/02 05:05:31  5-MIN KSTC 291105Z AUTO 07007KT 10SM BKN006 OVC030 09/09 A3000 950 96 600 060/07 RMK AO2
14926KSTC STC20020929051010709/29/02 05:10:31  5-MIN KSTC 291110Z AUTO 08006KT 10SM BKN006 OVC030 09/09 A3000 950 96 600 070/06 RMK AO2
14926KSTC STC20020929051510009/29/02 05:15:31  5-MIN KSTC 291115Z AUTO 07006KT 10SM OVC006 09/09 A3000 950 96 500 070/06 RMK AO2
14926KSTC STC20020929052010009/29/02 05:20:31  5-MIN KSTC 291120Z AUTO 06005KT 10SM OVC006 09/09 A3000 950 96 500 060/05 RMK AO2
14926KSTC STC20020929052510009/29/02 05:25:31  5-MIN KSTC 291125Z AUTO 07006KT 10SM OVC006 09/09 A3001 950 96 500 060/06 RMK AO2
14926KSTC STC20020929053010009/29/02 05:30:31  5-MIN KSTC 291130Z AUTO 07006KT 10SM OVC006 09/09 A3001 950 96 500 070/06 RMK AO2
14926KSTC STC20020929053511209/29/02 05:35:31  5-MIN KSTC 291135Z AUTO 07005KT 10SM OVC006 09/09 A3001 950 96 500 060/05 RMK AO2 CIG 005V010
14926KSTC STC20020929054010009/29/02 05:40:31  5-MIN KSTC 291140Z AUTO 08005KT 10SM OVC006 09/09 A3001 950 96 500 070/05 RMK AO2
14926KSTC STC20020929054510009/29/02 05:45:31  5-MIN KSTC 291145Z AUTO 08006KT 10SM OVC006 09/09 A3001 950 96 500 070/06 RMK AO2
14926KSTC STC20020929055014709/29/02 05:50:31  5-MIN KSTC 291150Z AUTO 08006KT 10SM OVC006 09/08 A3001 950 93 500 070/06 RMK AO2 SLP175 60000 70008 T00940083 10100 20094 58012
14926KSTC STC20020929055510009/29/02 05:55:31  5-MIN KSTC 291155Z AUTO 07005KT 10SM OVC006 09/08 A3001 950 93 500 060/05 RMK AO2
14926KSTC STC20020929060010009/29/02 06:00:31  5-MIN KSTC 291200Z AUTO 07005KT 10SM OVC006 09/08 A3001 950 93 500 060/05 RMK AO2
14926KSTC STC20020929060510009/29/02 06:05:31  5-MIN KSTC 291205Z AUTO 07005KT 10SM OVC006 09/08 A3001 950 93 500 070/05 RMK AO2
14926KSTC STC20020929061010009/29/02 06:10:31  5-MIN KSTC 291210Z AUTO 07005KT 10SM OVC006 09/08 A3001 950 93 500 070/05 RMK AO2
14926KSTC STC20020929061510709/29/02 06:15:31  5-MIN KSTC 291215Z AUTO 07003KT 10SM BKN006 OVC016 09/08 A3001 950 93 500 070/03 RMK AO2
14926KSTC STC20020929062010009/29/02 06:20:31  5-MIN KSTC 291220Z AUTO 07004KT 10SM OVC006 09/08 A3001 950 93 500 070/04 RMK AO2
14926KSTC STC20020929062510009/29/02 06:25:31  5-MIN KSTC 291225Z AUTO 09005KT 10SM OVC006 09/08 A3001 950 93 500 090/05 RMK AO2
14926KSTC STC20020929063010009/29/02 06:30:31  5-MIN KSTC 291230Z AUTO 08004KT 10SM OVC006 09/08 A3001 950 93 500 080/04 RMK AO2
14926KSTC STC20020929063510009/29/02 06:35:31  5-MIN KSTC 291235Z AUTO 07005KT 10SM OVC006 09/08 A3001 940 93 500 070/05 RMK AO2
14926KSTC STC20020929064010009/29/02 06:40:31  5-MIN KSTC 291240Z AUTO 07004KT 10SM OVC006 09/08 A3001 940 93 500 070/04 RMK AO2
14926KSTC STC20020929064510009/29/02 06:45:31  5-MIN KSTC 291245Z AUTO 07005KT 10SM OVC006 09/08 A3001 940 93 500 070/05 RMK AO2
14926KSTC STC20020929065011709/29/02 06:50:31  5-MIN KSTC 291250Z AUTO 07005KT 10SM OVC006 09/08 A3001 940 93 500 070/05 RMK AO2 SLP175 T00940083
14926KSTC STC20020929065509909/29/02 06:55:31  5-MIN KSTC 291255Z AUTO 07005KT 9SM OVC006 09/08 A3001 940 93 500 070/05 RMK AO2
14926KSTC STC20020929070009909/29/02 07:00:31  5-MIN KSTC 291300Z AUTO 08005KT 8SM OVC006 09/08 A3001 950 93 500 070/05 RMK AO2
14926KSTC STC20020929070509909/29/02 07:05:31  5-MIN KSTC 291305Z AUTO 07004KT 7SM OVC006 09/08 A3001 950 93 500 070/04 RMK AO2
14926KSTC STC20020929071010209/29/02 07:10:31  5-MIN KSTC 291310Z AUTO 07005KT 6SM BR OVC006 09/08 A3001 940 96 500 070/05 RMK AO2
14926KSTC STC20020929071510209/29/02 07:15:31  5-MIN KSTC 291315Z AUTO 07005KT 6SM BR OVC006 09/08 A3001 940 96 500 070/05 RMK AO2
14926KSTC STC20020929072009909/29/02 07:20:31  5-MIN KSTC 291320Z AUTO 08005KT 7SM OVC006 09/08 A3001 940 93 500 070/05 RMK AO2
14926KSTC STC20020929072509909/29/02 07:25:31  5-MIN KSTC 291325Z AUTO VRB05KT 7SM OVC006 09/08 A3001 940 96 500 VRB/05 RMK AO2
14926KSTC STC20020929073009909/29/02 07:30:31  5-MIN KSTC 291330Z AUTO 08005KT 7SM OVC006 09/08 A3001 940 96 500 070/05 RMK AO2
14926KSTC STC20020929073509909/29/02 07:35:31  5-MIN KSTC 291335Z AUTO 08006KT 7SM OVC006 09/08 A3001 950 96 500 080/06 RMK AO2
14926KSTC STC20020929074009909/29/02 07:40:31  5-MIN KSTC 291340Z AUTO 07006KT 7SM OVC006 09/08 A3000 950 96 500 070/06 RMK AO2
14926KSTC STC20020929080510209/29/02 08:05:31  5-MIN KSTC 291405Z AUTO 08004KT 5SM BR OVC006 09/09 A2999 960 96 600 070/04 RMK AO2
14926KSTC STC20020929081010209/29/02 08:10:31  5-MIN KSTC 291410Z AUTO 07005KT 5SM BR OVC006 09/09 A2999 960 96 600 070/05 RMK AO2
14926KSTC STC20020929081510209/29/02 08:15:31  5-MIN KSTC 291415Z AUTO 06005KT 5SM BR OVC006 09/09 A2999 960 96 600 060/05 RMK AO2
14926KSTC STC20020929082010209/29/02 08:20:31  5-MIN KSTC 291420Z AUTO 08004KT 5SM BR OVC006 09/09 A2999 960 96 600 070/04 RMK AO2
14926KSTC STC20020929082510209/29/02 08:25:31  5-MIN KSTC 291425Z AUTO 07005KT 5SM BR OVC006 09/09 A2999 960 96 600 070/05 RMK AO2
14926KSTC STC20020929083010209/29/02 08:30:31  5-MIN KSTC 291430Z AUTO 07006KT 5SM BR OVC006 09/09 A2999 960 96 600 070/06 RMK AO2
14926KSTC STC20020929083510209/29/02 08:35:31  5-MIN KSTC 291435Z AUTO 07004KT 6SM BR OVC006 09/09 A2999 960 96 600 070/04 RMK AO2
14926KSTC STC20020929084009909/29/02 08:40:31  5-MIN KSTC 291440Z AUTO 07006KT 7SM OVC006 09/09 A2999 960 96 600 070/06 RMK AO2
14926KSTC STC20020929084509909/29/02 08:45:31  5-MIN KSTC 291445Z AUTO 08006KT 7SM OVC006 09/09 A2999 960 96 600 070/06 RMK AO2
14926KSTC STC20020929085012209/29/02 08:50:31  5-MIN KSTC 291450Z AUTO 09005KT 8SM OVC006 09/09 A2999 960 96 600 080/05 RMK AO2 SLP170 T00940089 53002
14926KSTC STC20020929085509909/29/02 08:55:31  5-MIN KSTC 291455Z AUTO 09004KT 8SM OVC006 09/09 A2999 960 96 600 090/04 RMK AO2
14926KSTC STC20020929090009909/29/02 09:00:31  5-MIN KSTC 291500Z AUTO 09005KT 8SM OVC006 10/09 A2999 960 93 600 090/05 RMK AO2
14926KSTC STC20020929090509909/29/02 09:05:31  5-MIN KSTC 291505Z AUTO 09006KT 8SM OVC006 10/09 A2999 960 93 600 090/06 RMK AO2
14926KSTC STC20020929091009909/29/02 09:10:31  5-MIN KSTC 291510Z AUTO 11005KT 8SM OVC006 10/09 A2999 960 93 600 110/05 RMK AO2
14926KSTC STC20020929091509909/29/02 09:15:31  5-MIN KSTC 291515Z AUTO 10006KT 7SM OVC006 09/09 A2999 960 96 600 100/06 RMK AO2
14926KSTC STC20020929092010209/29/02 09:20:31  5-MIN KSTC 291520Z AUTO 09005KT 6SM BR OVC006 10/09 A2999 970 93 600 090/05 RMK AO2
14926KSTC STC20020929092509909/29/02 09:25:31  5-MIN KSTC 291525Z AUTO 08005KT 7SM OVC006 10/09 A2998 970 93 600 070/05 RMK AO2
14926KSTC STC20020929093009909/29/02 09:30:31  5-MIN KSTC 291530Z AUTO 09008KT 7SM OVC006 10/09 A2998 970 93 600 090/08 RMK AO2
14926KSTC STC20020929093509909/29/02 09:35:31  5-MIN KSTC 291535Z AUTO 10006KT 7SM OVC006 10/09 A2998 970 93 600 100/06 RMK AO2
14926KSTC STC20020929094009909/29/02 09:40:31  5-MIN KSTC 291540Z AUTO 09006KT 7SM OVC006 10/09 A2998 970 93 600 090/06 RMK AO2
14926KSTC STC20020929094509909/29/02 09:45:31  5-MIN KSTC 291545Z AUTO 10006KT 7SM OVC006 10/09 A2997 980 96 700 100/06 RMK AO2
14926KSTC STC20020929095011609/29/02 09:50:31  5-MIN KSTC 291550Z AUTO 11007KT 7SM OVC006 10/09 A2997 980 96 700 110/07 RMK AO2 SLP162 T01000094
14926KSTC STC20020929095509909/29/02 09:55:31  5-MIN KSTC 291555Z AUTO 12007KT 7SM OVC004 10/09 A2997 980 96 700 110/07 RMK AO2
14926KSTC STC20020929100009909/29/02 10:00:31  5-MIN KSTC 291600Z AUTO 10004KT 7SM OVC004 10/09 A2997 980 96 700 100/04 RMK AO2
14926KSTC STC20020929100509909/29/02 10:05:31  5-MIN KSTC 291605Z AUTO 12004KT 7SM OVC004 10/09 A2997 980 96 700 120/04 RMK AO2
14926KSTC STC20020929101009909/29/02 10:10:31  5-MIN KSTC 291610Z AUTO 11005KT 7SM OVC004 10/09 A2997 980 96 700 110/05 RMK AO2
14926KSTC STC20020929101509909/29/02 10:15:31  5-MIN KSTC 291615Z AUTO 11004KT 7SM OVC004 10/09 A2997 980 96 700 110/04 RMK AO2
14926KSTC STC20020929102009909/29/02 10:20:31  5-MIN KSTC 291620Z AUTO 11006KT 7SM OVC004 11/09 A2997 980 93 700 100/06 RMK AO2
14926KSTC STC20020929102509909/29/02 10:25:31  5-MIN KSTC 291625Z AUTO 10005KT 7SM OVC004 11/09 A2997 980 93 700 100/05 RMK AO2
14926KSTC STC20020929103009909/29/02 10:30:31  5-MIN KSTC 291630Z AUTO 09004KT 7SM OVC004 11/10 A2997 980 96 700 080/04 RMK AO2
14926KSTC STC20020929103509909/29/02 10:35:31  5-MIN KSTC 291635Z AUTO 09003KT 7SM OVC004 11/10 A2996 990 93 800 080/03 RMK AO2
14926KSTC STC20020929104009909/29/02 10:40:31  5-MIN KSTC 291640Z AUTO 11004KT 7SM OVC004 11/10 A2996 990 93 800 110/04 RMK AO2
14926KSTC STC20020929104509909/29/02 10:45:31  5-MIN KSTC 291645Z AUTO 11004KT 7SM OVC004 11/10 A2996 990 96 700 100/04 RMK AO2
14926KSTC STC20020929105011609/29/02 10:50:31  5-MIN KSTC 291650Z AUTO 11004KT 7SM OVC004 11/10 A2996 990 93 800 100/04 RMK AO2 SLP157 T01110100
14926KSTC STC20020929105509909/29/02 10:55:31  5-MIN KSTC 291655Z AUTO 10003KT 7SM OVC004 11/10 A2996 990 93 800 100/03 RMK AO2
14926KSTC STC20020929110010009/29/02 11:00:31  5-MIN KSTC 291700Z AUTO 10004KT 7SM OVC004 11/10 A2995 1000 93 800 100/04 RMK AO2
14926KSTC STC20020929110510009/29/02 11:05:31  5-MIN KSTC 291705Z AUTO VRB03KT 7SM OVC004 11/10 A2995 1000 93 800 VRB/03 RMK AO2
14926KSTC STC20020929111010009/29/02 11:10:31  5-MIN KSTC 291710Z AUTO 09005KT 7SM OVC004 12/11 A2995 1000 93 900 080/05 RMK AO2
14926KSTC STC20020929111510309/29/02 11:15:31  5-MIN KSTC 291715Z AUTO 09005KT 6SM BR OVC004 12/10 A2995 1000 89 900 090/05 RMK AO2
14926KSTC STC20020929112010309/29/02 11:20:31  5-MIN KSTC 291720Z AUTO 09005KT 6SM BR OVC004 11/10 A2995 1000 93 800 090/05 RMK AO2
14926KSTC STC20020929112510009/29/02 11:25:31  5-MIN KSTC 291725Z AUTO VRB03KT 7SM OVC004 12/11 A2994 1010 93 900 VRB/03 RMK AO2
14926KSTC STC20020929113010009/29/02 11:30:31  5-MIN KSTC 291730Z AUTO 08005KT 7SM OVC004 12/11 A2994 1010 93 900 080/05 RMK AO2
14926KSTC STC20020929113510009/29/02 11:35:31  5-MIN KSTC 291735Z AUTO VRB04KT 7SM OVC004 12/11 A2994 1010 93 900 VRB/04 RMK AO2
14926KSTC STC20020929114010009/29/02 11:40:31  5-MIN KSTC 291740Z AUTO 09005KT 7SM OVC004 12/11 A2994 1010 93 900 090/05 RMK AO2
14926KSTC STC20020929114510009/29/02 11:45:31  5-MIN KSTC 291745Z AUTO 11005KT 7SM OVC004 12/11 A2993 1010 93 900 100/05 RMK AO2
14926KSTC STC20020929115013509/29/02 11:50:31  5-MIN KSTC 291750Z AUTO 08005KT 7SM OVC004 12/11 A2993 1020 93 900 080/05 RMK AO2 SLP147 T01170106 10117 20089 58005
14926KSTC STC20020929115510009/29/02 11:55:31  5-MIN KSTC 291755Z AUTO 07005KT 7SM OVC004 12/11 A2993 1020 93 900 070/05 RMK AO2
14926KSTC STC20020929120010109/29/02 12:00:31  5-MIN KSTC 291800Z AUTO 11006KT 7SM OVC004 12/11 A2993 1010 89 1000 110/06 RMK AO2
14926KSTC STC20020929120510009/29/02 12:05:31  5-MIN KSTC 291805Z AUTO 12005KT 7SM OVC006 12/11 A2993 1020 93 900 120/05 RMK AO2
14926KSTC STC20020929121010109/29/02 12:10:31  5-MIN KSTC 291810Z AUTO 11005KT 7SM OVC006 12/11 A2993 1020 89 1000 100/05 RMK AO2
14926KSTC STC20020929121510109/29/02 12:15:31  5-MIN KSTC 291815Z AUTO 11006KT 7SM OVC006 12/11 A2993 1020 89 1000 110/06 RMK AO2
14926KSTC STC20020929122010109/29/02 12:20:31  5-MIN KSTC 291820Z AUTO VRB04KT 7SM OVC006 12/11 A2993 1020 93 1000 VRB/04 RMK AO2
14926KSTC STC20020929122510109/29/02 12:25:31  5-MIN KSTC 291825Z AUTO VRB04KT 7SM OVC006 12/11 A2992 1020 93 1000 VRB/04 RMK AO2
14926KSTC STC20020929123010109/29/02 12:30:31  5-MIN KSTC 291830Z AUTO 10005KT 7SM OVC006 13/11 A2992 1020 89 1000 100/05 RMK AO2
14926KSTC STC20020929123510109/29/02 12:35:31  5-MIN KSTC 291835Z AUTO 14006KT 7SM OVC006 12/11 A2992 1030 93 1000 140/06 RMK AO2
14926KSTC STC20020929124010109/29/02 12:40:31  5-MIN KSTC 291840Z AUTO 14005KT 7SM OVC006 13/11 A2992 1030 89 1000 130/05 RMK AO2
14926KSTC STC20020929124510109/29/02 12:45:31  5-MIN KSTC 291845Z AUTO VRB05KT 7SM OVC006 13/11 A2991 1030 89 1000 VRB/05 RMK AO2
14926KSTC STC20020929125011809/29/02 12:50:31  5-MIN KSTC 291850Z AUTO 14005KT 7SM OVC006 12/11 A2991 1030 93 1000 130/05 RMK AO2 SLP141 T01220111
14926KSTC STC20020929125510109/29/02 12:55:31  5-MIN KSTC 291855Z AUTO VRB05KT 7SM OVC006 12/11 A2991 1040 93 1000 VRB/05 RMK AO2
14926KSTC STC20020929130010109/29/02 13:00:31  5-MIN KSTC 291900Z AUTO 14004KT 7SM OVC006 12/11 A2991 1040 93 1000 130/04 RMK AO2
14926KSTC STC20020929130510109/29/02 13:05:31  5-MIN KSTC 291905Z AUTO 12006KT 7SM OVC006 12/11 A2991 1040 93 1000 120/06 RMK AO2
14926KSTC STC20020929131010409/29/02 13:10:31  5-MIN KSTC 291910Z AUTO 09004KT 6SM BR OVC006 13/11 A2990 1040 89 1100 090/04 RMK AO2
14926KSTC STC20020929131510409/29/02 13:15:31  5-MIN KSTC 291915Z AUTO 12006KT 6SM BR OVC006 13/11 A2990 1040 89 1100 120/06 RMK AO2
14926KSTC STC20020929132010409/29/02 13:20:31  5-MIN KSTC 291920Z AUTO 12005KT 6SM BR OVC006 13/11 A2990 1040 89 1100 120/05 RMK AO2
14926KSTC STC20020929132510409/29/02 13:25:31  5-MIN KSTC 291925Z AUTO VRB06KT 6SM BR OVC006 13/12 A2990 1040 93 1100 VRB/06 RMK AO2
14926KSTC STC20020929133010409/29/02 13:30:31  5-MIN KSTC 291930Z AUTO 15004KT 6SM BR OVC006 13/12 A2990 1040 93 1100 140/04 RMK AO2
14926KSTC STC20020929133510409/29/02 13:35:31  5-MIN KSTC 291935Z AUTO 13006KT 6SM BR OVC006 13/12 A2990 1050 93 1100 130/06 RMK AO2
14926KSTC STC20020929134010409/29/02 13:40:31  5-MIN KSTC 291940Z AUTO VRB04KT 6SM BR OVC006 13/12 A2990 1050 93 1100 VRB/04 RMK AO2
14926KSTC STC20020929134510409/29/02 13:45:31  5-MIN KSTC 291945Z AUTO 14005KT 6SM BR OVC006 13/12 A2990 1050 93 1100 140/05 RMK AO2
14926KSTC STC20020929135012109/29/02 13:50:31  5-MIN KSTC 291950Z AUTO 15004KT 5SM BR OVC006 13/12 A2989 1050 93 1100 140/04 RMK AO2 SLP134 T01280117
14926KSTC STC20020929135510409/29/02 13:55:31  5-MIN KSTC 291955Z AUTO 13005KT 5SM BR OVC006 13/12 A2989 1050 93 1100 120/05 RMK AO2
14926KSTC STC20020929140010409/29/02 14:00:31  5-MIN KSTC 292000Z AUTO 16005KT 5SM BR OVC006 13/12 A2989 1050 93 1100 150/05 RMK AO2
14926KSTC STC20020929140510409/29/02 14:05:31  5-MIN KSTC 292005Z AUTO 14006KT 5SM BR OVC006 13/12 A2990 1050 89 1100 140/06 RMK AO2
14926KSTC STC20020929141010409/29/02 14:10:31  5-MIN KSTC 292010Z AUTO 14006KT 5SM BR OVC006 13/12 A2990 1040 93 1100 140/06 RMK AO2
14926KSTC STC20020929141510409/29/02 14:15:31  5-MIN KSTC 292015Z AUTO 14008KT 5SM BR OVC006 13/12 A2990 1050 96 1100 130/08 RMK AO2
14926KSTC STC20020929142010409/29/02 14:20:31  5-MIN KSTC 292020Z AUTO 13005KT 4SM BR OVC006 13/12 A2989 1050 96 1100 120/05 RMK AO2
14926KSTC STC20020929142510409/29/02 14:25:31  5-MIN KSTC 292025Z AUTO 14006KT 4SM BR OVC004 13/12 A2989 1050 96 1100 140/06 RMK AO2
14926KSTC STC20020929143010409/29/02 14:30:31  5-MIN KSTC 292030Z AUTO 13004KT 4SM BR OVC004 13/12 A2989 1060 96 1100 130/04 RMK AO2
14926KSTC STC20020929143510409/29/02 14:35:31  5-MIN KSTC 292035Z AUTO 14004KT 4SM BR OVC004 13/12 A2989 1060 96 1100 140/04 RMK AO2
14926KSTC STC20020929144010409/29/02 14:40:31  5-MIN KSTC 292040Z AUTO 13005KT 4SM BR OVC004 13/12 A2989 1060 96 1100 120/05 RMK AO2
14926KSTC STC20020929144510409/29/02 14:45:31  5-MIN KSTC 292045Z AUTO 15005KT 4SM BR OVC004 13/12 A2988 1060 93 1200 140/05 RMK AO2
14926KSTC STC20020929145012709/29/02 14:50:31  5-MIN KSTC 292050Z AUTO 10005KT 4SM BR OVC004 13/12 A2988 1070 93 1200 100/05 RMK AO2 SLP128 T01330122 58020
14926KSTC STC20020929145510409/29/02 14:55:31  5-MIN KSTC 292055Z AUTO 12004KT 4SM BR OVC004 13/12 A2988 1060 93 1200 120/04 RMK AO2
14926KSTC STC20020929150010409/29/02 15:00:31  5-MIN KSTC 292100Z AUTO 13005KT 4SM BR OVC004 13/12 A2988 1060 93 1200 130/05 RMK AO2
14926KSTC STC20020929150510409/29/02 15:05:31  5-MIN KSTC 292105Z AUTO 11004KT 4SM BR OVC004 13/12 A2988 1060 93 1200 110/04 RMK AO2
14926KSTC STC20020929151010409/29/02 15:10:31  5-MIN KSTC 292110Z AUTO 13004KT 4SM BR OVC004 13/12 A2988 1060 93 1200 130/04 RMK AO2
14926KSTC STC20020929151510409/29/02 15:15:31  5-MIN KSTC 292115Z AUTO 13003KT 4SM BR OVC004 13/12 A2988 1060 93 1200 120/03 RMK AO2
14926KSTC STC20020929152010409/29/02 15:20:31  5-MIN KSTC 292120Z AUTO 13004KT 4SM BR OVC004 13/12 A2988 1060 93 1200 130/04 RMK AO2
14926KSTC STC20020929152510409/29/02 15:25:31  5-MIN KSTC 292125Z AUTO 12004KT 4SM BR OVC004 13/13 A2988 1070 96 1200 120/04 RMK AO2
14926KSTC STC20020929153010409/29/02 15:30:31  5-MIN KSTC 292130Z AUTO 11004KT 4SM BR OVC004 13/13 A2987 1070 96 1200 110/04 RMK AO2
14926KSTC STC20020929153510409/29/02 15:35:31  5-MIN KSTC 292135Z AUTO 11003KT 4SM BR OVC004 14/13 A2987 1070 93 1200 110/03 RMK AO2
14926KSTC STC20020929154010409/29/02 15:40:31  5-MIN KSTC 292140Z AUTO 10004KT 4SM BR OVC004 14/13 A2987 1070 93 1200 100/04 RMK AO2
14926KSTC STC20020929154510409/29/02 15:45:31  5-MIN KSTC 292145Z AUTO 08003KT 4SM BR OVC004 14/13 A2987 1080 93 1200 080/03 RMK AO2
14926KSTC STC20020929155012109/29/02 15:50:31  5-MIN KSTC 292150Z AUTO 10004KT 4SM BR OVC004 14/13 A2987 1080 93 1200 100/04 RMK AO2 SLP125 T01390128
14926KSTC STC20020929155510409/29/02 15:55:31  5-MIN KSTC 292155Z AUTO 08003KT 4SM BR OVC004 14/13 A2987 1080 93 1200 080/03 RMK AO2
14926KSTC STC20020929160010409/29/02 16:00:31  5-MIN KSTC 292200Z AUTO 11004KT 3SM BR OVC004 14/13 A2987 1080 93 1200 100/04 RMK AO2
14926KSTC STC20020929160510409/29/02 16:05:31  5-MIN KSTC 292205Z AUTO 12004KT 3SM BR OVC004 14/13 A2986 1080 93 1200 120/04 RMK AO2
14926KSTC STC20020929161010409/29/02 16:10:31  5-MIN KSTC 292210Z AUTO 11005KT 3SM BR OVC004 14/13 A2986 1080 93 1200 110/05 RMK AO2
14926KSTC STC20020929161510409/29/02 16:15:31  5-MIN KSTC 292215Z AUTO 10004KT 2SM BR OVC004 13/13 A2986 1090 96 1200 100/04 RMK AO2
14926KSTC STC20020929162010809/29/02 16:20:31  5-MIN KSTC 292220Z AUTO 11004KT 1 3/4SM BR OVC004 14/13 A2985 1090 96 1300 110/04 RMK AO2
14926KSTC STC20020929162512109/29/02 16:25:31  5-MIN KSTC 292225Z AUTO 12006KT 1 1/2SM BR OVC004 13/13 A2985 1090 100 1200 120/06 RMK AO2 CIG 002V006
14926KSTC STC20020929163010909/29/02 16:30:31  5-MIN KSTC 292230Z AUTO 13005KT 1 1/4SM BR OVC004 13/13 A2985 1090 100 1200 120/05 RMK AO2
14926KSTC STC20020929163510509/29/02 16:35:31  5-MIN KSTC 292235Z AUTO 14006KT 1SM BR OVC004 13/13 A2986 1080 100 1200 130/06 RMK AO2
14926KSTC STC20020929164010509/29/02 16:40:31  5-MIN KSTC 292240Z AUTO 13005KT 1SM BR OVC004 13/13 A2986 1080 100 1200 130/05 RMK AO2
14926KSTC STC20020929164510509/29/02 16:45:31  5-MIN KSTC 292245Z AUTO 12005KT 1SM BR OVC002 13/13 A2985 1090 100 1200 120/05 RMK AO2
14926KSTC STC20020929165012209/29/02 16:50:31  5-MIN KSTC 292250Z AUTO 12006KT 1SM BR OVC002 13/13 A2986 1090 100 1200 120/06 RMK AO2 SLP121 T01330133
14926KSTC STC20020929165510509/29/02 16:55:31  5-MIN KSTC 292255Z AUTO 13006KT 1SM BR OVC002 13/13 A2986 1090 100 1200 130/06 RMK AO2
14926KSTC STC20020929170010509/29/02 17:00:31  5-MIN KSTC 292300Z AUTO 12005KT 1SM BR OVC002 13/13 A2985 1090 100 1200 120/05 RMK AO2
14926KSTC STC20020929170510709/29/02 17:05:31  5-MIN KSTC 292305Z AUTO 13006KT 3/4SM BR OVC002 13/13 A2985 1090 100 1200 130/06 RMK AO2
14926KSTC STC20020929171010709/29/02 17:10:31  5-MIN KSTC 292310Z AUTO 11005KT 3/4SM BR OVC002 13/13 A2984 1100 100 1200 110/05 RMK AO2
14926KSTC STC20020929171510709/29/02 17:15:31  5-MIN KSTC 292315Z AUTO 11005KT 3/4SM BR OVC002 13/13 A2984 1100 100 1200 110/05 RMK AO2
14926KSTC STC20020929172010709/29/02 17:20:31  5-MIN KSTC 292320Z AUTO 10005KT 3/4SM BR OVC002 13/13 A2983 1110 100 1200 100/05 RMK AO2
14926KSTC STC20020929172510509/29/02 17:25:31  5-MIN KSTC 292325Z AUTO 10004KT 1SM BR OVC002 13/13 A2983 1110 100 1200 090/04 RMK AO2
14926KSTC STC20020929173010509/29/02 17:30:31  5-MIN KSTC 292330Z AUTO 12003KT 1SM BR OVC002 13/13 A2983 1110 100 1200 120/03 RMK AO2
14926KSTC STC20020929173511409/29/02 17:35:31  5-MIN KSTC 292335Z AUTO 09003KT 1SM TS BR OVC002 13/13 A2983 1110 100 1200 090/03 RMK AO2 TSB35
14926KSTC STC20020929174011509/29/02 17:40:31  5-MIN KSTC 292340Z AUTO 10005KT 3/4SM TS BR OVC002 14/13 A2983 1110 96 1300 090/05 RMK AO2 TSB35
14926KSTC STC20020929174511609/29/02 17:45:31  5-MIN KSTC 292345Z AUTO 11005KT 3/4SM TS BR OVC002 13/13 A2983 1110 100 1200 110/05 RMK AO2 TSB35
14926KSTC STC20020929175015109/29/02 17:50:31  5-MIN KSTC 292350Z AUTO 00000KT 3/4SM TS BR OVC002 13/13 A2983 1110 100 1200 000/00 RMK AO2 TSB35 SLP112 T01330133 10139 20117 56018
14926KSTC STC20020929175511009/29/02 17:55:31  5-MIN KSTC 292355Z AUTO 12004KT 3/4SM TS BR OVC002 13/13 A2983 1110 100 1200 110/04 RMK AO2
14926KSTC STC20020929180010809/29/02 18:00:31  5-MIN KSTC 300000Z AUTO 13005KT 1SM TS BR OVC002 13/13 A2983 1110 100 1200 130/05 RMK AO2
14926KSTC STC20020929180511209/29/02 18:05:31  5-MIN KSTC 300005Z AUTO 13004KT 1 1/4SM TS BR OVC002 13/13 A2983 1110 100 1200 130/04 RMK AO2
14926KSTC STC20020929181011109/29/02 18:10:31  5-MIN KSTC 300010Z AUTO 16006KT 1SM BR OVC002 13/13 A2985 1100 100 1200 150/06 RMK AO2 TSE08
14926KSTC STC20020929181511709/29/02 18:15:31  5-MIN KSTC 300015Z AUTO 13005KT 1SM TS BR OVC002 13/13 A2983 1110 100 1200 130/05 RMK AO2 TSE08B15
14926KSTC STC20020929182011909/29/02 18:20:31  5-MIN KSTC 300020Z AUTO 10005KT 3/4SM TS BR OVC002 13/13 A2982 1110 100 1200 100/05 RMK AO2 TSE08B15
14926KSTC STC20020929182512509/29/02 18:25:31  5-MIN KSTC 300025Z AUTO 14007KT 3/4SM TS BR OVC002 13/13 A2983 1110 100 1200 140/07 RMK AO2 TSE08B15 P0002
14926KSTC STC20020929183013309/29/02 18:30:31  5-MIN KSTC 300030Z AUTO 15007KT 3/4SM -TSRA BR OVC002 13/13 A2984 1100 100 1200 140/07 RMK AO2 TSE08B15RAB26 P0002
14926KSTC STC20020929183513109/29/02 18:35:31  5-MIN KSTC 300035Z AUTO 13008KT 1SM -TSRA BR OVC002 14/14 A2982 1120 100 1300 130/08 RMK AO2 TSE08B15RAB26 P0002
14926KSTC STC20020929184013509/29/02 18:40:31  5-MIN KSTC 300040Z AUTO 14008KT 1 1/4SM -TSRA BR OVC002 14/14 A2983 1110 100 1300 140/08 RMK AO2 TSE08B15RAB26 P0003
14926KSTC STC20020929184513509/29/02 18:45:31  5-MIN KSTC 300045Z AUTO 13006KT 1 3/4SM -TSRA BR OVC002 14/14 A2983 1110 100 1300 130/06 RMK AO2 TSE08B15RAB26 P0003
14926KSTC STC20020929185015209/29/02 18:50:31  5-MIN KSTC 300050Z AUTO 13007KT 2 1/2SM TS BR OVC002 14/14 A2982 1120 100 1300 130/07 RMK AO2 TSE08B15RAB26E47 SLP110 P0003 T01390139
14926KSTC STC20020929185513109/29/02 18:55:31  5-MIN KSTC 300055Z AUTO 12005KT 2 1/2SM TS BR BKN002 OVC009 14/14 A2982 1120 100 1300 120/05 RMK AO2 CIG 001V004
14926KSTC STC20020929190013109/29/02 19:00:31  5-MIN KSTC 300100Z AUTO 11005KT 2 1/2SM TS BR BKN002 OVC009 14/14 A2982 1120 100 1300 110/05 RMK AO2 CIG 001V006
14926KSTC STC20020929190513109/29/02 19:05:31  5-MIN KSTC 300105Z AUTO 12006KT 2 1/2SM TS BR BKN004 OVC007 14/14 A2982 1120 100 1300 120/06 RMK AO2 CIG 001V005
14926KSTC STC20020929191012409/29/02 19:10:31  5-MIN KSTC 300110Z AUTO 11005KT 2 1/2SM TS BR OVC004 14/14 A2981 1130 100 1300 110/05 RMK AO2 CIG 002V009
14926KSTC STC20020929191512409/29/02 19:15:31  5-MIN KSTC 300115Z AUTO 11005KT 2 1/2SM TS BR OVC004 14/14 A2982 1120 100 1300 110/05 RMK AO2 CIG 002V009
14926KSTC STC20020929192012409/29/02 19:20:31  5-MIN KSTC 300120Z AUTO 12004KT 2 1/2SM TS BR OVC004 14/14 A2981 1120 100 1300 120/04 RMK AO2 CIG 002V010
14926KSTC STC20020929192511509/29/02 19:25:31  5-MIN KSTC 300125Z AUTO 11005KT 2 1/2SM BR OVC004 14/14 A2981 1130 100 1300 110/05 RMK AO2 TSE21
14926KSTC STC20020929193011509/29/02 19:30:31  5-MIN KSTC 300130Z AUTO 12006KT 2 1/2SM BR OVC004 14/14 A2981 1130 100 1300 120/06 RMK AO2 TSE21
14926KSTC STC20020929193511109/29/02 19:35:31  5-MIN KSTC 300135Z AUTO 12006KT 3SM BR OVC004 14/14 A2981 1130 100 1300 120/06 RMK AO2 TSE21
14926KSTC STC20020929194011509/29/02 19:40:31  5-MIN KSTC 300140Z AUTO 13007KT 2 1/2SM BR OVC004 14/14 A2980 1130 100 1300 120/07 RMK AO2 TSE21
14926KSTC STC20020929194511509/29/02 19:45:31  5-MIN KSTC 300145Z AUTO 12006KT 2 1/2SM BR OVC004 14/14 A2980 1140 100 1300 110/06 RMK AO2 TSE21
14926KSTC STC20020929195013209/29/02 19:50:31  5-MIN KSTC 300150Z AUTO 11006KT 2 1/2SM BR OVC004 14/14 A2979 1150 100 1300 110/06 RMK AO2 TSE21 SLP098 T01390139
14926KSTC STC20020929195511109/29/02 19:55:31  5-MIN KSTC 300155Z AUTO 12007KT 2 1/2SM TS BR OVC004 14/13 A2979 1150 96 1300 120/07 RMK AO2
14926KSTC STC20020929200011109/29/02 20:00:31  5-MIN KSTC 300200Z AUTO 12006KT 2 1/2SM TS BR OVC004 14/13 A2979 1150 96 1300 120/06 RMK AO2
14926KSTC STC20020929200511109/29/02 20:05:31  5-MIN KSTC 300205Z AUTO 12006KT 2 1/2SM TS BR OVC004 14/13 A2979 1150 96 1300 110/06 RMK AO2
14926KSTC STC20020929201011109/29/02 20:10:31  5-MIN KSTC 300210Z AUTO 11006KT 2 1/2SM TS BR OVC004 14/13 A2978 1150 96 1300 110/06 RMK AO2
14926KSTC STC20020929201511409/29/02 20:15:31  5-MIN KSTC 300215Z AUTO 10006KT 2 1/2SM BR OVC004 14/13 A2978 1160 96 1300 100/06 RMK AO2 TSE11
14926KSTC STC20020929202011009/29/02 20:20:31  5-MIN KSTC 300220Z AUTO 11004KT 2SM BR OVC004 14/13 A2978 1160 96 1300 100/04 RMK AO2 TSE11
14926KSTC STC20020929202511009/29/02 20:25:31  5-MIN KSTC 300225Z AUTO 09005KT 2SM BR OVC002 14/13 A2978 1160 96 1300 090/05 RMK AO2 TSE11
14926KSTC STC20020929203011009/29/02 20:30:31  5-MIN KSTC 300230Z AUTO 10005KT 2SM BR OVC002 14/13 A2977 1160 96 1300 100/05 RMK AO2 TSE11
14926KSTC STC20020929203511409/29/02 20:35:31  5-MIN KSTC 300235Z AUTO 10005KT 1 3/4SM BR OVC002 14/13 A2977 1160 96 1300 100/05 RMK AO2 TSE11
14926KSTC STC20020929204011409/29/02 20:40:31  5-MIN KSTC 300240Z AUTO 11007KT 1 1/2SM BR OVC002 14/13 A2977 1170 96 1300 110/07 RMK AO2 TSE11
14926KSTC STC20020929204511409/29/02 20:45:31  5-MIN KSTC 300245Z AUTO 11006KT 1 1/4SM BR OVC002 14/13 A2977 1170 96 1300 110/06 RMK AO2 TSE11
14926KSTC STC20020929205014309/29/02 20:50:31  5-MIN KSTC 300250Z AUTO 11005KT 1 1/4SM BR OVC002 14/13 A2977 1170 96 1300 110/05 RMK AO2 TSE11 SLP092 60003 T01390133 58016
14926KSTC STC20020929205510409/29/02 20:55:31  5-MIN KSTC 300255Z AUTO 10005KT 1SM BR OVC002 14/13 A2977 1170 96 1300 090/05 RMK AO2
14926KSTC STC20020929210010409/29/02 21:00:31  5-MIN KSTC 300300Z AUTO 10006KT 1SM BR OVC002 14/13 A2977 1170 96 1400 100/06 RMK AO2
14926KSTC STC20020929210510409/29/02 21:05:31  5-MIN KSTC 300305Z AUTO 10005KT 1SM BR OVC002 14/13 A2977 1170 96 1300 100/05 RMK AO2
14926KSTC STC20020929211010609/29/02 21:10:31  5-MIN KSTC 300310Z AUTO 10006KT 3/4SM BR OVC002 14/13 A2977 1170 96 1300 100/06 RMK AO2
14926KSTC STC20020929211510709/29/02 21:15:31  5-MIN KSTC 300315Z AUTO 11006KT 3/4SM BR OVC002 14/14 A2977 1170 100 1400 110/06 RMK AO2
14926KSTC STC20020929212010709/29/02 21:20:31  5-MIN KSTC 300320Z AUTO 10005KT 3/4SM BR OVC002 14/14 A2976 1170 100 1400 100/05 RMK AO2
14926KSTC STC20020929212510709/29/02 21:25:31  5-MIN KSTC 300325Z AUTO 11006KT 1/2SM FG OVC002 13/13 A2976 1170 100 1300 100/06 RMK AO2
14926KSTC STC20020929213010609/29/02 21:30:31  5-MIN KSTC 300330Z AUTO 09005KT 1/2SM FG VV001 14/14 A2976 1180 100 1400 090/05 RMK AO2
14926KSTC STC20020929213510609/29/02 21:35:31  5-MIN KSTC 300335Z AUTO 11007KT 1/2SM FG VV001 14/14 A2976 1180 100 1400 110/07 RMK AO2
14926KSTC STC20020929214010609/29/02 21:40:31  5-MIN KSTC 300340Z AUTO 10005KT 1/2SM FG VV001 14/14 A2975 1180 100 1400 090/05 RMK AO2
14926KSTC STC20020929214510609/29/02 21:45:31  5-MIN KSTC 300345Z AUTO 10006KT 1/2SM FG VV001 14/14 A2975 1190 100 1400 100/06 RMK AO2
14926KSTC STC20020929215012309/29/02 21:50:31  5-MIN KSTC 300350Z AUTO 10006KT 1/2SM FG VV001 14/14 A2975 1190 100 1400 100/06 RMK AO2 SLP084 T01390139
14926KSTC STC20020929215510609/29/02 21:55:31  5-MIN KSTC 300355Z AUTO 10007KT 1/2SM FG VV001 14/14 A2974 1190 100 1400 100/07 RMK AO2
14926KSTC STC20020929220010609/29/02 22:00:31  5-MIN KSTC 300400Z AUTO 10006KT 1/2SM FG VV001 14/14 A2974 1190 100 1400 100/06 RMK AO2
14926KSTC STC20020929220510609/29/02 22:05:31  5-MIN KSTC 300405Z AUTO 10005KT 1/2SM FG VV001 14/14 A2974 1200 100 1400 100/05 RMK AO2
14926KSTC STC20020929221010609/29/02 22:10:31  5-MIN KSTC 300410Z AUTO 09005KT 1/2SM FG VV001 14/14 A2973 1200 100 1400 090/05 RMK AO2
14926KSTC STC20020929221510609/29/02 22:15:31  5-MIN KSTC 300415Z AUTO 09006KT 1/2SM FG VV001 14/14 A2973 1210 100 1400 090/06 RMK AO2
14926KSTC STC20020929222010609/29/02 22:20:31  5-MIN KSTC 300420Z AUTO 10004KT 1/2SM FG VV001 14/14 A2972 1210 100 1400 100/04 RMK AO2
14926KSTC STC20020929222510609/29/02 22:25:31  5-MIN KSTC 300425Z AUTO 09005KT 1/2SM FG VV001 14/14 A2972 1210 100 1400 090/05 RMK AO2
14926KSTC STC20020929223010609/29/02 22:30:31  5-MIN KSTC 300430Z AUTO 11005KT 1/2SM FG VV001 14/14 A2972 1210 100 1400 100/05 RMK AO2
14926KSTC STC20020929223510609/29/02 22:35:31  5-MIN KSTC 300435Z AUTO 11005KT 1/2SM FG VV001 14/14 A2972 1210 100 1400 110/05 RMK AO2
14926KSTC STC20020929224010609/29/02 22:40:31  5-MIN KSTC 300440Z AUTO 11005KT 1/2SM FG VV001 14/14 A2972 1210 100 1400 110/05 RMK AO2
14926KSTC STC20020929224510609/29/02 22:45:31  5-MIN KSTC 300445Z AUTO 11005KT 1/2SM FG VV001 14/14 A2972 1220 100 1400 100/05 RMK AO2
14926KSTC STC20020929225012309/29/02 22:50:31  5-MIN KSTC 300450Z AUTO 11005KT 1/2SM FG VV001 14/14 A2972 1220 100 1400 110/05 RMK AO2 SLP072 T01390139
14926KSTC STC20020929225510609/29/02 22:55:31  5-MIN KSTC 300455Z AUTO 10005KT 1/2SM FG VV001 14/14 A2971 1220 100 1400 100/05 RMK AO2
14926KSTC STC20020929230010609/29/02 23:00:31  5-MIN KSTC 300500Z AUTO 11005KT 1/2SM FG VV001 14/14 A2971 1220 100 1400 100/05 RMK AO2
14926KSTC STC20020929230510609/29/02 23:05:31  5-MIN KSTC 300505Z AUTO 10005KT 1/2SM FG VV001 14/14 A2971 1220 100 1400 100/05 RMK AO2
14926KSTC STC20020929231010609/29/02 23:10:31  5-MIN KSTC 300510Z AUTO 10005KT 1/2SM FG VV001 14/14 A2971 1220 100 1400 100/05 RMK AO2
14926KSTC STC20020929231510609/29/02 23:15:31  5-MIN KSTC 300515Z AUTO 10004KT 1/2SM FG VV001 14/14 A2971 1220 100 1400 090/04 RMK AO2
14926KSTC STC20020929232010609/29/02 23:20:31  5-MIN KSTC 300520Z AUTO 10005KT 1/2SM FG VV001 14/14 A2971 1220 100 1400 100/05 RMK AO2
14926KSTC STC20020929232510609/29/02 23:25:31  5-MIN KSTC 300525Z AUTO 09006KT 1/2SM FG VV001 14/14 A2971 1220 100 1400 090/06 RMK AO2
14926KSTC STC20020929233010609/29/02 23:30:31  5-MIN KSTC 300530Z AUTO 09005KT 1/2SM FG VV001 14/14 A2971 1230 100 1400 090/05 RMK AO2
14926KSTC STC20020929233510609/29/02 23:35:31  5-MIN KSTC 300535Z AUTO 11006KT 1/2SM FG VV001 14/14 A2970 1230 100 1400 100/06 RMK AO2
14926KSTC STC20020929234010709/29/02 23:40:31  5-MIN KSTC 300540Z AUTO 11006KT 3/4SM BR OVC001 14/14 A2970 1230 100 1400 110/06 RMK AO2
14926KSTC STC20020929234510709/29/02 23:45:31  5-MIN KSTC 300545Z AUTO 10005KT 3/4SM BR OVC001 14/14 A2970 1230 100 1400 100/05 RMK AO2
14926KSTC STC20020929235015809/29/02 23:50:31  5-MIN KSTC 300550Z AUTO 10005KT 3/4SM BR OVC001 14/14 A2969 1240 100 1400 100/05 RMK AO2 SLP065 60003 T01390139 10139 20133 401390089 58020
14926KSTC STC20020929235510709/29/02 23:55:31  5-MIN KSTC 300555Z AUTO 11005KT 3/4SM BR OVC001 14/14 A2969 1240 100 1400 100/05 RMK AO2
14926KSTC STC20020930000010709/30/02 00:00:31  5-MIN KSTC 300600Z AUTO 11005KT 3/4SM BR OVC001 14/14 A2969 1240 100 1400 110/05 RMK AO2
14926KSTC STC20020930000510709/30/02 00:05:31  5-MIN KSTC 300605Z AUTO 12005KT 3/4SM BR OVC001 14/14 A2969 1240 100 1500 110/05 RMK AO2
14926KSTC STC20020930001010709/30/02 00:10:31  5-MIN KSTC 300610Z AUTO 11005KT 3/4SM BR OVC001 14/14 A2969 1240 100 1500 110/05 RMK AO2
14926KSTC STC20020930001510709/30/02 00:15:31  5-MIN KSTC 300615Z AUTO 11005KT 3/4SM BR OVC001 14/14 A2969 1240 100 1500 110/05 RMK AO2
14926KSTC STC20020930002010709/30/02 00:20:31  5-MIN KSTC 300620Z AUTO 12004KT 1/2SM FG OVC001 14/14 A2969 1240 100 1500 120/04 RMK AO2
14926KSTC STC20020930002510709/30/02 00:25:31  5-MIN KSTC 300625Z AUTO 12005KT 1/2SM FG OVC001 14/14 A2968 1250 100 1500 110/05 RMK AO2
14926KSTC STC20020930003010709/30/02 00:30:31  5-MIN KSTC 300630Z AUTO 12007KT 1/2SM FG OVC001 14/14 A2968 1250 100 1500 120/07 RMK AO2
14926KSTC STC20020930003510709/30/02 00:35:31  5-MIN KSTC 300635Z AUTO 12005KT 1/2SM FG OVC001 14/14 A2967 1260 100 1500 110/05 RMK AO2
14926KSTC STC20020930004010609/30/02 00:40:31  5-MIN KSTC 300640Z AUTO 13005KT 1/2SM FG VV001 14/14 A2967 1260 100 1500 130/05 RMK AO2
14926KSTC STC20020930004510609/30/02 00:45:31  5-MIN KSTC 300645Z AUTO 13006KT 1/2SM FG VV001 14/14 A2967 1260 100 1500 120/06 RMK AO2
14926KSTC STC20020930005012309/30/02 00:50:31  5-MIN KSTC 300650Z AUTO 11007KT 1/2SM FG VV001 14/14 A2967 1260 100 1500 110/07 RMK AO2 SLP056 T01440144
14926KSTC STC20020930005510609/30/02 00:55:31  5-MIN KSTC 300655Z AUTO 12007KT 1/2SM FG VV001 14/14 A2967 1260 100 1500 120/07 RMK AO2
14926KSTC STC20020930010010609/30/02 01:00:31  5-MIN KSTC 300700Z AUTO 12006KT 1/2SM FG VV001 14/14 A2967 1260 100 1500 110/06 RMK AO2
14926KSTC STC20020930010510609/30/02 01:05:31  5-MIN KSTC 300705Z AUTO 14006KT 1/2SM FG VV001 14/14 A2967 1260 100 1500 140/06 RMK AO2
14926KSTC STC20020930011010609/30/02 01:10:31  5-MIN KSTC 300710Z AUTO 13006KT 1/2SM FG VV001 14/14 A2967 1260 100 1500 130/06 RMK AO2
14926KSTC STC20020930011511409/30/02 01:15:31  5-MIN KSTC 300715Z AUTO 14008KT 1/2SM FG BKN001 OVC007 14/14 A2967 1260 100 1500 140/08 RMK AO2
14926KSTC STC20020930012010609/30/02 01:20:31  5-MIN KSTC 300720Z AUTO 14007KT 3/4SM BR VV001 14/14 A2967 1260 100 1500 140/07 RMK AO2
14926KSTC STC20020930012510709/30/02 01:25:31  5-MIN KSTC 300725Z AUTO 14006KT 3/4SM BR OVC001 14/14 A2967 1260 100 1500 140/06 RMK AO2
14926KSTC STC20020930013010709/30/02 01:30:31  5-MIN KSTC 300730Z AUTO 14006KT 3/4SM BR OVC001 14/14 A2967 1260 100 1500 130/06 RMK AO2
14926KSTC STC20020930013510509/30/02 01:35:31  5-MIN KSTC 300735Z AUTO 14005KT 1SM BR OVC001 14/14 A2967 1260 100 1500 130/05 RMK AO2
14926KSTC STC20020930014010709/30/02 01:40:31  5-MIN KSTC 300740Z AUTO 15005KT 3/4SM BR OVC001 14/14 A2967 1260 100 1500 140/05 RMK AO2
14926KSTC STC20020930014510709/30/02 01:45:31  5-MIN KSTC 300745Z AUTO 16004KT 1/2SM FG OVC001 14/14 A2967 1260 100 1500 160/04 RMK AO2
14926KSTC STC20020930015012309/30/02 01:50:31  5-MIN KSTC 300750Z AUTO 16004KT 1/4SM FG VV001 14/14 A2967 1260 100 1500 160/04 RMK AO2 SLP057 T01390139
14926KSTC STC20020930015510609/30/02 01:55:31  5-MIN KSTC 300755Z AUTO 17003KT 1/4SM FG VV001 14/14 A2967 1260 100 1500 170/03 RMK AO2
14926KSTC STC20020930020010609/30/02 02:00:31  5-MIN KSTC 300800Z AUTO 16005KT 1/4SM FG VV001 14/14 A2967 1260 100 1500 160/05 RMK AO2
14926KSTC STC20020930020510609/30/02 02:05:31  5-MIN KSTC 300805Z AUTO 16003KT 1/4SM FG VV001 14/14 A2967 1260 100 1500 160/03 RMK AO2
14926KSTC STC20020930021010609/30/02 02:10:31  5-MIN KSTC 300810Z AUTO 16003KT 1/4SM FG VV001 14/14 A2967 1260 100 1500 150/03 RMK AO2
14926KSTC STC20020930021510609/30/02 02:15:31  5-MIN KSTC 300815Z AUTO 16003KT 1/4SM FG VV001 14/14 A2967 1260 100 1500 150/03 RMK AO2
14926KSTC STC20020930022010609/30/02 02:20:31  5-MIN KSTC 300820Z AUTO 18003KT 1/4SM FG VV001 14/14 A2967 1260 100 1500 170/03 RMK AO2
14926KSTC STC20020930022510609/30/02 02:25:31  5-MIN KSTC 300825Z AUTO 16004KT 1/4SM FG VV001 14/14 A2967 1260 100 1500 160/04 RMK AO2
14926KSTC STC20020930023010609/30/02 02:30:31  5-MIN KSTC 300830Z AUTO 18004KT 1/4SM FG VV001 14/14 A2967 1260 100 1500 180/04 RMK AO2
14926KSTC STC20020930023511409/30/02 02:35:31  5-MIN KSTC 300835Z AUTO 17003KT 1/4SM FG BKN001 OVC006 14/14 A2967 1260 100 1500 160/03 RMK AO2
14926KSTC STC20020930024011409/30/02 02:40:31  5-MIN KSTC 300840Z AUTO 16003KT 1/4SM FG BKN001 OVC006 14/14 A2966 1270 100 1500 160/03 RMK AO2
14926KSTC STC20020930024510609/30/02 02:45:31  5-MIN KSTC 300845Z AUTO 16004KT 1/4SM FG VV001 14/14 A2966 1270 100 1500 160/04 RMK AO2
14926KSTC STC20020930025012909/30/02 02:50:31  5-MIN KSTC 300850Z AUTO 17004KT 1/4SM FG VV001 14/14 A2966 1270 100 1500 160/04 RMK AO2 SLP053 T01390139 56025
14926KSTC STC20020930025510609/30/02 02:55:31  5-MIN KSTC 300855Z AUTO 17003KT 1/4SM FG VV001 14/14 A2966 1270 100 1500 170/03 RMK AO2
14926KSTC STC20020930030010609/30/02 03:00:31  5-MIN KSTC 300900Z AUTO 16003KT 1/4SM FG VV001 14/14 A2966 1260 100 1500 150/03 RMK AO2
14926KSTC STC20020930030510609/30/02 03:05:31  5-MIN KSTC 300905Z AUTO 18003KT 1/4SM FG VV001 14/14 A2966 1270 100 1500 170/03 RMK AO2
14926KSTC STC20020930031010609/30/02 03:10:31  5-MIN KSTC 300910Z AUTO 00000KT 1/4SM FG VV001 13/13 A2966 1270 100 1400 000/00 RMK AO2
14926KSTC STC20020930031510609/30/02 03:15:31  5-MIN KSTC 300915Z AUTO 19003KT 1/4SM FG VV001 13/13 A2966 1270 100 1400 180/03 RMK AO2
14926KSTC STC20020930032010609/30/02 03:20:31  5-MIN KSTC 300920Z AUTO 16003KT 1/4SM FG VV001 13/13 A2966 1270 100 1400 160/03 RMK AO2
14926KSTC STC20020930032510609/30/02 03:25:31  5-MIN KSTC 300925Z AUTO 00000KT 1/4SM FG VV001 13/13 A2966 1270 100 1400 000/00 RMK AO2
14926KSTC STC20020930033010609/30/02 03:30:31  5-MIN KSTC 300930Z AUTO 00000KT 1/4SM FG VV001 13/13 A2966 1270 100 1400 000/00 RMK AO2
14926KSTC STC20020930033510609/30/02 03:35:31  5-MIN KSTC 300935Z AUTO 00000KT 1/4SM FG VV001 13/13 A2966 1270 100 1400 000/00 RMK AO2
14926KSTC STC20020930034010609/30/02 03:40:31  5-MIN KSTC 300940Z AUTO 18003KT 1/4SM FG VV001 13/13 A2966 1270 100 1400 180/03 RMK AO2
14926KSTC STC20020930034510609/30/02 03:45:31  5-MIN KSTC 300945Z AUTO 18003KT 1/4SM FG VV001 13/13 A2966 1270 100 1300 170/03 RMK AO2
14926KSTC STC20020930035012309/30/02 03:50:31  5-MIN KSTC 300950Z AUTO 17004KT 1/4SM FG VV001 13/13 A2966 1270 100 1300 170/04 RMK AO2 SLP054 T01280128
14926KSTC STC20020930035510609/30/02 03:55:31  5-MIN KSTC 300955Z AUTO 00000KT 1/4SM FG VV001 13/13 A2966 1270 100 1300 000/00 RMK AO2
14926KSTC STC20020930040010609/30/02 04:00:31  5-MIN KSTC 301000Z AUTO 14003KT 1/4SM FG VV001 13/13 A2966 1270 100 1300 140/03 RMK AO2
14926KSTC STC20020930040510609/30/02 04:05:31  5-MIN KSTC 301005Z AUTO 13003KT 1/4SM FG VV001 13/13 A2966 1270 100 1300 130/03 RMK AO2
14926KSTC STC20020930041010609/30/02 04:10:31  5-MIN KSTC 301010Z AUTO 00000KT 1/4SM FG VV001 13/13 A2966 1270 100 1300 000/00 RMK AO2
14926KSTC STC20020930041510609/30/02 04:15:31  5-MIN KSTC 301015Z AUTO 00000KT 1/4SM FG VV001 13/13 A2966 1270 100 1300 000/00 RMK AO2
14926KSTC STC20020930042011409/30/02 04:20:31  5-MIN KSTC 301020Z AUTO 00000KT 1/4SM FG BKN001 OVC009 12/12 A2966 1270 100 1300 000/00 RMK AO2
14926KSTC STC20020930042511409/30/02 04:25:31  5-MIN KSTC 301025Z AUTO 00000KT 1/4SM FG BKN001 OVC009 12/12 A2966 1270 100 1300 000/00 RMK AO2
14926KSTC STC20020930043011409/30/02 04:30:31  5-MIN KSTC 301030Z AUTO 00000KT 1/4SM FG SCT001 OVC009 12/12 A2965 1270 100 1300 000/00 RMK AO2
14926KSTC STC20020930043511409/30/02 04:35:31  5-MIN KSTC 301035Z AUTO 00000KT 1/4SM FG FEW001 OVC009 12/12 A2965 1270 100 1200 000/00 RMK AO2
14926KSTC STC20020930044011409/30/02 04:40:31  5-MIN KSTC 301040Z AUTO 00000KT 1/4SM FG FEW001 OVC009 12/12 A2965 1270 100 1200 000/00 RMK AO2
14926KSTC STC20020930044510709/30/02 04:45:31  5-MIN KSTC 301045Z AUTO 00000KT 1/4SM FG OVC009 12/12 A2965 1280 100 1200 000/00 RMK AO2
14926KSTC STC20020930045012409/30/02 04:50:31  5-MIN KSTC 301050Z AUTO 00000KT 1/4SM FG OVC009 12/12 A2965 1280 100 1200 000/00 RMK AO2 SLP049 T01170117
14926KSTC STC20020930045511409/30/02 04:55:31  5-MIN KSTC 301055Z AUTO 00000KT 1/4SM FG FEW001 OVC009 12/12 A2965 1280 100 1200 000/00 RMK AO2
14926KSTC STC20020930050011409/30/02 05:00:31  5-MIN KSTC 301100Z AUTO 14003KT 1/4SM FG FEW001 OVC009 12/12 A2965 1280 100 1200 140/03 RMK AO2
14926KSTC STC20020930050511409/30/02 05:05:31  5-MIN KSTC 301105Z AUTO 00000KT 1/4SM FG SCT001 OVC009 11/11 A2965 1280 100 1200 000/00 RMK AO2
14926KSTC STC20020930051011409/30/02 05:10:31  5-MIN KSTC 301110Z AUTO 00000KT 1/4SM FG SCT001 OVC009 11/11 A2965 1280 100 1100 000/00 RMK AO2
14926KSTC STC20020930051511409/30/02 05:15:31  5-MIN KSTC 301115Z AUTO 00000KT 1/4SM FG SCT001 OVC009 11/11 A2964 1280 100 1200 000/00 RMK AO2
14926KSTC STC20020930052011409/30/02 05:20:31  5-MIN KSTC 301120Z AUTO 00000KT 1/4SM FG SCT001 OVC009 11/11 A2964 1280 100 1200 000/00 RMK AO2
14926KSTC STC20020930052511409/30/02 05:25:31  5-MIN KSTC 301125Z AUTO 14003KT 1/4SM FG BKN001 OVC009 11/11 A2964 1280 100 1100 140/03 RMK AO2
14926KSTC STC20020930053011409/30/02 05:30:31  5-MIN KSTC 301130Z AUTO 14004KT 1/4SM FG BKN001 OVC009 11/11 A2964 1280 100 1100 140/04 RMK AO2
14926KSTC STC20020930053511409/30/02 05:35:31  5-MIN KSTC 301135Z AUTO 13003KT 1/4SM FG BKN001 OVC009 11/11 A2964 1280 100 1100 130/03 RMK AO2
14926KSTC STC20020930054011309/30/02 05:40:31  5-MIN KSTC 301140Z AUTO 14004KT 1/2SM FG BKN001 BKN009 11/11 A2965 1280 96 1200 140/04 RMK AO2
14926KSTC STC20020930073510109/30/02 07:35:31  5-MIN KSTC 301335Z AUTO 15007KT 6SM BR CLR 15/14 A2963 1300 96 1600 150/07 RMK AO2
14926KSTC STC20020930074010109/30/02 07:40:31  5-MIN KSTC 301340Z AUTO 16006KT 6SM BR CLR 16/14 A2963 1300 93 1700 150/06 RMK AO2
14926KSTC STC20020930074509809/30/02 07:45:31  5-MIN KSTC 301345Z AUTO 15006KT 7SM CLR 16/15 A2963 1300 93 1800 150/06 RMK AO2
14926KSTC STC20020930075011509/30/02 07:50:31  5-MIN KSTC 301350Z AUTO 15006KT 7SM CLR 16/16 A2963 1300 96 1800 150/06 RMK AO2 SLP041 T01610156
14926KSTC STC20020930075509809/30/02 07:55:31  5-MIN KSTC 301355Z AUTO 15007KT 7SM CLR 17/16 A2963 1300 93 1800 150/07 RMK AO2
14926KSTC STC20020930080009809/30/02 08:00:31  5-MIN KSTC 301400Z AUTO 15006KT 8SM CLR 17/16 A2963 1300 90 1900 150/06 RMK AO2
14926KSTC STC20020930080509809/30/02 08:05:31  5-MIN KSTC 301405Z AUTO 15006KT 8SM CLR 17/16 A2962 1300 93 1900 150/06 RMK AO2
14926KSTC STC20020930081009809/30/02 08:10:31  5-MIN KSTC 301410Z AUTO 16007KT 9SM CLR 18/16 A2962 1300 90 2000 150/07 RMK AO2
14926KSTC STC20020930081509809/30/02 08:15:31  5-MIN KSTC 301415Z AUTO 15008KT 9SM CLR 18/17 A2962 1310 90 2000 150/08 RMK AO2
14926KSTC STC20020930082009809/30/02 08:20:31  5-MIN KSTC 301420Z AUTO 16008KT 9SM CLR 18/17 A2962 1310 90 2000 160/08 RMK AO2
14926KSTC STC20020930082509909/30/02 08:25:31  5-MIN KSTC 301425Z AUTO 17008KT 10SM CLR 19/17 A2962 1310 87 2100 160/08 RMK AO2
14926KSTC STC20020930083009909/30/02 08:30:31  5-MIN KSTC 301430Z AUTO 17008KT 10SM CLR 19/17 A2961 1310 87 2100 170/08 RMK AO2
14926KSTC STC20020930083509909/30/02 08:35:31  5-MIN KSTC 301435Z AUTO 17009KT 10SM CLR 19/17 A2961 1310 84 2200 170/09 RMK AO2
14926KSTC STC20020930084009909/30/02 08:40:31  5-MIN KSTC 301440Z AUTO 18010KT 10SM CLR 19/17 A2961 1310 84 2200 170/10 RMK AO2
14926KSTC STC20020930084509909/30/02 08:45:31  5-MIN KSTC 301445Z AUTO 18009KT 10SM CLR 20/17 A2961 1310 81 2200 180/09 RMK AO2
14926KSTC STC20020930085012209/30/02 08:50:31  5-MIN KSTC 301450Z AUTO 18009KT 10SM CLR 20/17 A2961 1310 84 2200 180/09 RMK AO2 SLP033 T02000172 58005
14926KSTC STC20020930085509909/30/02 08:55:31  5-MIN KSTC 301455Z AUTO 19011KT 10SM CLR 21/17 A2961 1320 78 2300 180/11 RMK AO2
14926KSTC STC20020930090009909/30/02 09:00:31  5-MIN KSTC 301500Z AUTO 19011KT 10SM CLR 21/17 A2961 1320 78 2300 190/11 RMK AO2
14926KSTC STC20020930090509909/30/02 09:05:31  5-MIN KSTC 301505Z AUTO 19011KT 10SM CLR 21/17 A2960 1320 78 2300 190/11 RMK AO2
14926KSTC STC20020930091009909/30/02 09:10:31  5-MIN KSTC 301510Z AUTO 19011KT 10SM CLR 21/17 A2960 1320 78 2300 190/11 RMK AO2
14926KSTC STC20020930091509909/30/02 09:15:31  5-MIN KSTC 301515Z AUTO 19010KT 10SM CLR 21/17 A2960 1330 78 2300 190/10 RMK AO2
14926KSTC STC20020930092010809/30/02 09:20:31  5-MIN KSTC 301520Z AUTO 19010KT 10SM TS CLR 21/17 A2960 1330 75 2400 180/10 RMK AO2 TSB19
14926KSTC STC20020930092510809/30/02 09:25:31  5-MIN KSTC 301525Z AUTO 20011KT 10SM TS CLR 21/17 A2960 1320 75 2400 190/11 RMK AO2 TSB19
14926KSTC STC20020930093010809/30/02 09:30:31  5-MIN KSTC 301530Z AUTO 20012KT 10SM TS CLR 21/17 A2960 1320 78 2400 190/12 RMK AO2 TSB19
14926KSTC STC20020930093510809/30/02 09:35:31  5-MIN KSTC 301535Z AUTO 20013KT 10SM TS CLR 21/17 A2960 1320 75 2400 200/13 RMK AO2 TSB19
14926KSTC STC20020930094010809/30/02 09:40:31  5-MIN KSTC 301540Z AUTO 19010KT 10SM TS CLR 21/17 A2960 1320 75 2400 190/10 RMK AO2 TSB19
14926KSTC STC20020930094510809/30/02 09:45:31  5-MIN KSTC 301545Z AUTO 20011KT 10SM TS CLR 21/17 A2960 1320 75 2400 190/11 RMK AO2 TSB19
14926KSTC STC20020930095012509/30/02 09:50:31  5-MIN KSTC 301550Z AUTO 20011KT 10SM TS CLR 21/17 A2960 1320 75 2400 190/11 RMK AO2 TSB19 SLP030 T02110167
14926KSTC STC20020930095510509/30/02 09:55:31  5-MIN KSTC 301555Z AUTO 20011KT 10SM TS FEW110 21/17 A2960 1330 78 2300 200/11 RMK AO2
14926KSTC STC20020930100013209/30/02 10:00:31  5-MIN KSTC 301600Z AUTO 18008KT 10SM -TSRA SCT100 21/17 A2959 1340 78 2300 180/08 RMK AO2 TSE1558B00RAB1559 P0000
14926KSTC STC20020930100514509/30/02 10:05:31  5-MIN KSTC 301605Z AUTO VRB03KT 9SM -TSRA FEW032 BKN100 20/17 A2955 1370 81 2300 VRB/03 RMK AO2 TSE1558B00RAB1559 PRESFR P0001
14926KSTC STC20020930101013809/30/02 10:10:31  5-MIN KSTC 301610Z AUTO 13003KT 8SM -TSRA FEW032 SCT100 20/17 A2956 1360 84 2300 130/03 RMK AO2 TSE1558B00RAB1559 P0001
14926KSTC STC20020930101513909/30/02 10:15:31  5-MIN KSTC 301615Z AUTO 00000KT 10SM -TSRA FEW032 SCT100 19/17 A2955 1370 87 2200 000/00 RMK AO2 TSE1558B00RAB1559 P0001
14926KSTC STC20020930102013909/30/02 10:20:31  5-MIN KSTC 301620Z AUTO 17012KT 10SM TS FEW032 SCT100 19/18 A2958 1340 90 2200 170/12 RMK AO2 TSE1558B00RAB1559E17 P0001
14926KSTC STC20020930102513209/30/02 10:25:31  5-MIN KSTC 301625Z AUTO 17011KT 10SM TS FEW032 20/17 A2959 1340 84 2300 170/11 RMK AO2 TSE1558B00RAB1559E17 P0001
14926KSTC STC20020930103013209/30/02 10:30:31  5-MIN KSTC 301630Z AUTO 17010KT 10SM TS FEW046 21/17 A2958 1340 81 2300 160/10 RMK AO2 TSE1558B00RAB1559E17 P0001
14926KSTC STC20020930103512909/30/02 10:35:31  5-MIN KSTC 301635Z AUTO 18008KT 10SM TS CLR 21/17 A2958 1340 78 2400 170/08 RMK AO2 TSE1558B00RAB1559E17 P0001
14926KSTC STC20020930104012909/30/02 10:40:31  5-MIN KSTC 301640Z AUTO 18007KT 10SM CLR 21/18 A2958 1340 81 2400 170/07 RMK AO2 TSE1558B00E39RAB1559E17 P0001
14926KSTC STC20020930104512909/30/02 10:45:31  5-MIN KSTC 301645Z AUTO 18007KT 10SM CLR 22/18 A2958 1340 78 2500 180/07 RMK AO2 TSE1558B00E39RAB1559E17 P0001
14926KSTC STC20020930105014609/30/02 10:50:31  5-MIN KSTC 301650Z AUTO 19009KT 10SM CLR 22/18 A2958 1350 75 2500 180/09 RMK AO2 TSE1558B00E39RAB1559E17 SLP020 P0001 T02220178
14926KSTC STC20020930105509909/30/02 10:55:31  5-MIN KSTC 301655Z AUTO 19010KT 10SM CLR 23/18 A2957 1350 73 2600 190/10 RMK AO2
14926KSTC STC20020930110009909/30/02 11:00:31  5-MIN KSTC 301700Z AUTO 19011KT 10SM CLR 23/18 A2957 1350 70 2700 190/11 RMK AO2
14926KSTC STC20020930110509909/30/02 11:05:31  5-MIN KSTC 301705Z AUTO 19010KT 10SM CLR 23/18 A2957 1350 70 2700 180/10 RMK AO2
14926KSTC STC20020930111009909/30/02 11:10:31  5-MIN KSTC 301710Z AUTO 20010KT 10SM CLR 24/18 A2957 1360 68 2700 190/10 RMK AO2
14926KSTC STC20020930111509909/30/02 11:15:31  5-MIN KSTC 301715Z AUTO 20009KT 10SM CLR 24/18 A2957 1360 66 2800 190/09 RMK AO2
14926KSTC STC20020930112009909/30/02 11:20:31  5-MIN KSTC 301720Z AUTO 20009KT 10SM CLR 24/18 A2956 1360 66 2800 200/09 RMK AO2
14926KSTC STC20020930112509909/30/02 11:25:31  5-MIN KSTC 301725Z AUTO 19011KT 10SM CLR 25/18 A2956 1360 64 2900 190/11 RMK AO2
14926KSTC STC20020930113009909/30/02 11:30:31  5-MIN KSTC 301730Z AUTO 21012KT 10SM CLR 25/17 A2956 1360 61 2900 200/12 RMK AO2
14926KSTC STC20020930113509909/30/02 11:35:31  5-MIN KSTC 301735Z AUTO 20010KT 10SM CLR 26/18 A2956 1360 61 2900 200/10 RMK AO2
14926KSTC STC20020930114009909/30/02 11:40:31  5-MIN KSTC 301740Z AUTO 19011KT 10SM CLR 26/18 A2956 1360 61 2900 190/11 RMK AO2
14926KSTC STC20020930114509909/30/02 11:45:31  5-MIN KSTC 301745Z AUTO 19014KT 10SM CLR 26/17 A2956 1360 57 3000 190/14 RMK AO2
14926KSTC STC20020930115014009/30/02 11:50:31  5-MIN KSTC 301750Z AUTO 19015KT 10SM CLR 26/17 A2956 1360 55 3000 190/15 RMK AO2 SLP013 60001 T02610167 10261 20106 58013
14926KSTC STC20020930115509909/30/02 11:55:31  5-MIN KSTC 301755Z AUTO 20016KT 10SM CLR 26/17 A2956 1360 55 3000 190/16 RMK AO2
14926KSTC STC20020930120009909/30/02 12:00:31  5-MIN KSTC 301800Z AUTO 19014KT 10SM CLR 26/17 A2956 1370 55 3000 190/14 RMK AO2
14926KSTC STC20020930120509909/30/02 12:05:31  5-MIN KSTC 301805Z AUTO 19012KT 10SM CLR 27/17 A2955 1370 53 3100 190/12 RMK AO2
14926KSTC STC20020930121010509/30/02 12:10:31  5-MIN KSTC 301810Z AUTO 20013G19KT 10SM CLR 26/17 A2955 1370 55 3000 200/13G19 RMK AO2
14926KSTC STC20020930121510509/30/02 12:15:31  5-MIN KSTC 301815Z AUTO 21013G19KT 10SM CLR 27/17 A2955 1370 53 3100 200/13G19 RMK AO2
14926KSTC STC20020930122009909/30/02 12:20:31  5-MIN KSTC 301820Z AUTO 20014KT 10SM CLR 27/16 A2955 1370 52 3100 200/14 RMK AO2
14926KSTC STC20020930122509909/30/02 12:25:31  5-MIN KSTC 301825Z AUTO 19010KT 10SM CLR 27/17 A2955 1370 52 3100 190/10 RMK AO2
14926KSTC STC20020930123009909/30/02 12:30:31  5-MIN KSTC 301830Z AUTO 20014KT 10SM CLR 27/17 A2955 1370 52 3100 200/14 RMK AO2
14926KSTC STC20020930123510509/30/02 12:35:31  5-MIN KSTC 301835Z AUTO 20016G20KT 10SM CLR 27/16 A2955 1370 50 3100 200/16G20 RMK AO2
14926KSTC STC20020930124009909/30/02 12:40:31  5-MIN KSTC 301840Z AUTO 22017KT 10SM CLR 27/16 A2955 1370 48 3100 220/17 RMK AO2
14926KSTC STC20020930124510509/30/02 12:45:31  5-MIN KSTC 301845Z AUTO 20017G22KT 10SM CLR 27/16 A2955 1370 48 3100 200/17G22 RMK AO2
14926KSTC STC20020930125011609/30/02 12:50:31  5-MIN KSTC 301850Z AUTO 21016KT 10SM CLR 27/16 A2954 1380 48 3100 200/16 RMK AO2 SLP007 T02720156
14926KSTC STC20020930125509909/30/02 12:55:31  5-MIN KSTC 301855Z AUTO 20013KT 10SM CLR 27/16 A2954 1380 48 3100 190/13 RMK AO2
14926KSTC STC20020930130009909/30/02 13:00:31  5-MIN KSTC 301900Z AUTO 19012KT 10SM CLR 28/16 A2954 1380 48 3200 190/12 RMK AO2
14926KSTC STC20020930130509909/30/02 13:05:31  5-MIN KSTC 301905Z AUTO 21014KT 10SM CLR 28/16 A2954 1380 48 3200 210/14 RMK AO2
14926KSTC STC20020930131009909/30/02 13:10:31  5-MIN KSTC 301910Z AUTO 22012KT 10SM CLR 27/16 A2954 1380 48 3100 210/12 RMK AO2
14926KSTC STC20020930131510209/30/02 13:15:31  5-MIN KSTC 301915Z AUTO 22010KT 10SM FEW050 27/16 A2954 1380 50 3100 220/10 RMK AO2
14926KSTC STC20020930132010209/30/02 13:20:31  5-MIN KSTC 301920Z AUTO 21012KT 10SM SCT050 27/16 A2954 1380 50 3100 210/12 RMK AO2
14926KSTC STC20020930132510209/30/02 13:25:31  5-MIN KSTC 301925Z AUTO 21012KT 10SM SCT050 28/16 A2954 1380 46 3200 210/12 RMK AO2
14926KSTC STC20020930133010209/30/02 13:30:31  5-MIN KSTC 301930Z AUTO 21014KT 10SM FEW050 28/16 A2954 1380 46 3200 210/14 RMK AO2
14926KSTC STC20020930133510209/30/02 13:35:31  5-MIN KSTC 301935Z AUTO 20014KT 10SM FEW055 28/16 A2954 1380 46 3200 190/14 RMK AO2
14926KSTC STC20020930134010209/30/02 13:40:31  5-MIN KSTC 301940Z AUTO 20013KT 10SM FEW055 28/16 A2954 1380 46 3200 190/13 RMK AO2
14926KSTC STC20020930134510209/30/02 13:45:31  5-MIN KSTC 301945Z AUTO 21012KT 10SM FEW055 28/16 A2954 1380 46 3200 210/12 RMK AO2
14926KSTC STC20020930135011609/30/02 13:50:31  5-MIN KSTC 301950Z AUTO 21010KT 10SM CLR 28/16 A2954 1380 48 3200 210/10 RMK AO2 SLP006 T02780161
14926KSTC STC20020930135510209/30/02 13:55:31  5-MIN KSTC 301955Z AUTO 19011KT 10SM FEW055 28/16 A2954 1380 46 3200 190/11 RMK AO2
14926KSTC STC20020930140010209/30/02 14:00:31  5-MIN KSTC 302000Z AUTO 19017KT 10SM SCT050 28/16 A2954 1380 46 3200 190/17 RMK AO2
14926KSTC STC20020930140510209/30/02 14:05:31  5-MIN KSTC 302005Z AUTO 20015KT 10SM FEW055 28/15 A2954 1380 43 3300 200/15 RMK AO2
14926KSTC STC20020930141010209/30/02 14:10:31  5-MIN KSTC 302010Z AUTO 20015KT 10SM FEW050 28/15 A2954 1380 43 3300 190/15 RMK AO2
14926KSTC STC20020930141510209/30/02 14:15:31  5-MIN KSTC 302015Z AUTO 19012KT 10SM FEW055 28/16 A2954 1380 45 3300 190/12 RMK AO2
14926KSTC STC20020930142010809/30/02 14:20:31  5-MIN KSTC 302020Z AUTO 18012G18KT 10SM FEW055 28/16 A2954 1380 46 3200 180/12G18 RMK AO2
14926KSTC STC20020930142510809/30/02 14:25:31  5-MIN KSTC 302025Z AUTO 19011G18KT 10SM FEW060 28/16 A2954 1380 45 3300 190/11G18 RMK AO2
14926KSTC STC20020930143010809/30/02 14:30:31  5-MIN KSTC 302030Z AUTO 19012G18KT 10SM FEW060 28/16 A2954 1380 45 3300 180/12G18 RMK AO2
14926KSTC STC20020930143510209/30/02 14:35:31  5-MIN KSTC 302035Z AUTO 20017KT 10SM FEW060 28/15 A2954 1380 43 3300 200/17 RMK AO2
14926KSTC STC20020930144010209/30/02 14:40:31  5-MIN KSTC 302040Z AUTO 21014KT 10SM FEW060 28/15 A2954 1380 43 3300 200/14 RMK AO2
14926KSTC STC20020930144510809/30/02 14:45:31  5-MIN KSTC 302045Z AUTO 20016G20KT 10SM FEW060 28/15 A2954 1380 43 3300 200/16G20 RMK AO2
14926KSTC STC20020930145012209/30/02 14:50:31  5-MIN KSTC 302050Z AUTO 20013KT 10SM CLR 28/15 A2954 1380 43 3300 200/13 RMK AO2 SLP005 T02830150 58017
14926KSTC STC20020930145509909/30/02 14:55:31  5-MIN KSTC 302055Z AUTO 20014KT 10SM CLR 28/16 A2954 1380 45 3300 200/14 RMK AO2
14926KSTC STC20020930150009909/30/02 15:00:31  5-MIN KSTC 302100Z AUTO 20015KT 10SM CLR 28/15 A2954 1380 43 3300 200/15 RMK AO2
14926KSTC STC20020930150509909/30/02 15:05:31  5-MIN KSTC 302105Z AUTO 20012KT 10SM CLR 28/16 A2954 1380 45 3300 200/12 RMK AO2
14926KSTC STC20020930151009909/30/02 15:10:31  5-MIN KSTC 302110Z AUTO 20014KT 10SM CLR 28/15 A2954 1380 43 3300 200/14 RMK AO2
14926KSTC STC20020930151509909/30/02 15:15:31  5-MIN KSTC 302115Z AUTO 21014KT 10SM CLR 28/14 A2954 1380 42 3300 210/14 RMK AO2
14926KSTC STC20020930152010509/30/02 15:20:31  5-MIN KSTC 302120Z AUTO 21014G19KT 10SM CLR 28/14 A2954 1380 40 3300 210/14G19 RMK AO2
14926KSTC STC20020930152509909/30/02 15:25:31  5-MIN KSTC 302125Z AUTO 22014KT 10SM CLR 28/14 A2954 1380 40 3300 210/14 RMK AO2
14926KSTC STC20020930153009909/30/02 15:30:31  5-MIN KSTC 302130Z AUTO 22014KT 10SM CLR 28/13 A2954 1380 39 3300 210/14 RMK AO2
14926KSTC STC20020930153510509/30/02 15:35:31  5-MIN KSTC 302135Z AUTO 23012G19KT 10SM CLR 28/14 A2954 1380 40 3300 220/12G19 RMK AO2
14926KSTC STC20020930154009909/30/02 15:40:31  5-MIN KSTC 302140Z AUTO 24012KT 10SM CLR 28/14 A2954 1380 40 3300 230/12 RMK AO2
14926KSTC STC20020930154509909/30/02 15:45:31  5-MIN KSTC 302145Z AUTO 21013KT 10SM CLR 28/14 A2954 1380 40 3300 210/13 RMK AO2
14926KSTC STC20020930155011609/30/02 15:50:31  5-MIN KSTC 302150Z AUTO 23012KT 10SM CLR 28/13 A2954 1380 40 3200 230/12 RMK AO2 SLP008 T02780133
14926KSTC STC20020930155509909/30/02 15:55:31  5-MIN KSTC 302155Z AUTO 23011KT 10SM CLR 28/13 A2954 1380 40 3200 230/11 RMK AO2
14926KSTC STC20020930160009909/30/02 16:00:31  5-MIN KSTC 302200Z AUTO 23008KT 10SM CLR 28/14 A2954 1380 42 3200 220/08 RMK AO2
14926KSTC STC20020930160509909/30/02 16:05:31  5-MIN KSTC 302205Z AUTO 23012KT 10SM CLR 28/13 A2954 1380 40 3200 230/12 RMK AO2
14926KSTC STC20020930161009909/30/02 16:10:31  5-MIN KSTC 302210Z AUTO 22012KT 10SM CLR 28/14 A2955 1380 42 3200 220/12 RMK AO2
14926KSTC STC20020930161509909/30/02 16:15:31  5-MIN KSTC 302215Z AUTO 24011KT 10SM CLR 28/14 A2955 1370 42 3200 240/11 RMK AO2
14926KSTC STC20020930162009909/30/02 16:20:31  5-MIN KSTC 302220Z AUTO 23009KT 10SM CLR 27/14 A2955 1370 43 3100 230/09 RMK AO2
14926KSTC STC20020930162509909/30/02 16:25:31  5-MIN KSTC 302225Z AUTO 23011KT 10SM CLR 27/13 A2955 1370 42 3100 230/11 RMK AO2
14926KSTC STC20020930163009909/30/02 16:30:31  5-MIN KSTC 302230Z AUTO 23010KT 10SM CLR 27/13 A2955 1370 42 3100 220/10 RMK AO2
14926KSTC STC20020930163509909/30/02 16:35:31  5-MIN KSTC 302235Z AUTO 23009KT 10SM CLR 27/13 A2955 1370 42 3100 230/09 RMK AO2
14926KSTC STC20020930164009909/30/02 16:40:31  5-MIN KSTC 302240Z AUTO 23010KT 10SM CLR 27/13 A2955 1370 42 3100 230/10 RMK AO2
14926KSTC STC20020930164509909/30/02 16:45:31  5-MIN KSTC 302245Z AUTO 23008KT 10SM CLR 27/14 A2955 1370 45 3100 230/08 RMK AO2
14926KSTC STC20020930165011609/30/02 16:50:31  5-MIN KSTC 302250Z AUTO 23008KT 10SM CLR 27/13 A2956 1370 43 3100 230/08 RMK AO2 SLP012 T02670133
14926KSTC STC20020930165509909/30/02 16:55:31  5-MIN KSTC 302255Z AUTO 23007KT 10SM CLR 26/14 A2956 1360 46 3000 230/07 RMK AO2
14926KSTC STC20020930170009909/30/02 17:00:31  5-MIN KSTC 302300Z AUTO 23007KT 10SM CLR 26/14 A2956 1360 46 3000 230/07 RMK AO2
14926KSTC STC20020930170509909/30/02 17:05:31  5-MIN KSTC 302305Z AUTO 23007KT 10SM CLR 26/14 A2956 1360 46 3000 230/07 RMK AO2
14926KSTC STC20020930171009909/30/02 17:10:31  5-MIN KSTC 302310Z AUTO 24007KT 10SM CLR 26/14 A2956 1360 48 2900 230/07 RMK AO2
14926KSTC STC20020930171509909/30/02 17:15:31  5-MIN KSTC 302315Z AUTO 24006KT 10SM CLR 26/14 A2957 1360 49 2900 230/06 RMK AO2
14926KSTC STC20020930172009909/30/02 17:20:31  5-MIN KSTC 302320Z AUTO 24005KT 10SM CLR 26/14 A2957 1360 49 2900 240/05 RMK AO2
14926KSTC STC20020930172509909/30/02 17:25:31  5-MIN KSTC 302325Z AUTO 24004KT 10SM CLR 25/14 A2957 1360 51 2900 240/04 RMK AO2
14926KSTC STC20020930173009909/30/02 17:30:31  5-MIN KSTC 302330Z AUTO 24005KT 10SM CLR 24/14 A2957 1350 53 2800 240/05 RMK AO2
14926KSTC STC20020930173509909/30/02 17:35:31  5-MIN KSTC 302335Z AUTO 24005KT 10SM CLR 24/14 A2957 1350 53 2800 230/05 RMK AO2
14926KSTC STC20020930174009909/30/02 17:40:31  5-MIN KSTC 302340Z AUTO 24005KT 10SM CLR 24/14 A2957 1350 55 2700 240/05 RMK AO2
14926KSTC STC20020930174509909/30/02 17:45:31  5-MIN KSTC 302345Z AUTO 24004KT 10SM CLR 23/14 A2957 1350 57 2700 240/04 RMK AO2
14926KSTC STC20020930175013409/30/02 17:50:31  5-MIN KSTC 302350Z AUTO 24005KT 10SM CLR 23/14 A2957 1350 57 2700 240/05 RMK AO2 SLP021 T02330144 10283 20233 56006
14926KSTC STC20020930175509909/30/02 17:55:31  5-MIN KSTC 302355Z AUTO 23005KT 10SM CLR 24/14 A2958 1350 55 2700 230/05 RMK AO2
14926KSTC STC20020930180009909/30/02 18:00:31  5-MIN KSTC 010000Z AUTO 19004KT 10SM CLR 22/14 A2958 1340 63 2500 190/04 RMK AO2
14926KSTC STC20020930180509909/30/02 18:05:31  5-MIN KSTC 010005Z AUTO 20004KT 10SM CLR 19/16 A2958 1340 78 2200 190/04 RMK AO2
14926KSTC STC20020930181009909/30/02 18:10:31  5-MIN KSTC 010010Z AUTO 22005KT 10SM CLR 21/15 A2958 1340 70 2300 210/05 RMK AO2
14926KSTC STC20020930181509909/30/02 18:15:31  5-MIN KSTC 010015Z AUTO 22004KT 10SM CLR 21/15 A2959 1340 70 2300 210/04 RMK AO2
14926KSTC STC20020930182009909/30/02 18:20:31  5-MIN KSTC 010020Z AUTO 22004KT 10SM CLR 21/15 A2959 1340 70 2300 220/04 RMK AO2
14926KSTC STC20020930182509909/30/02 18:25:31  5-MIN KSTC 010025Z AUTO 21003KT 10SM CLR 21/15 A2959 1330 70 2300 210/03 RMK AO2
14926KSTC STC20020930183009909/30/02 18:30:31  5-MIN KSTC 010030Z AUTO 19003KT 10SM CLR 19/15 A2959 1330 75 2200 190/03 RMK AO2
14926KSTC STC20020930183509909/30/02 18:35:31  5-MIN KSTC 010035Z AUTO 19004KT 10SM CLR 19/15 A2960 1330 78 2100 190/04 RMK AO2
14926KSTC STC20020930184009909/30/02 18:40:31  5-MIN KSTC 010040Z AUTO 20004KT 10SM CLR 19/15 A2960 1330 78 2100 200/04 RMK AO2
14926KSTC STC20020930184509909/30/02 18:45:31  5-MIN KSTC 010045Z AUTO 20004KT 10SM CLR 20/15 A2960 1320 72 2300 200/04 RMK AO2
14926KSTC STC20020930185011609/30/02 18:50:31  5-MIN KSTC 010050Z AUTO 19004KT 10SM CLR 19/15 A2960 1320 75 2200 190/04 RMK AO2 SLP030 T01940150
14926KSTC STC20020930185509909/30/02 18:55:31  5-MIN KSTC 010055Z AUTO 20004KT 10SM CLR 19/15 A2960 1320 78 2100 200/04 RMK AO2
14926KSTC STC20020930190009909/30/02 19:00:31  5-MIN KSTC 010100Z AUTO 21005KT 10SM CLR 18/15 A2961 1320 81 2100 200/05 RMK AO2
14926KSTC STC20020930190509909/30/02 19:05:31  5-MIN KSTC 010105Z AUTO 20005KT 10SM CLR 18/14 A2961 1320 81 2000 200/05 RMK AO2
14926KSTC STC20020930191009909/30/02 19:10:31  5-MIN KSTC 010110Z AUTO 20004KT 10SM CLR 18/15 A2961 1320 83 2000 200/04 RMK AO2
14926KSTC STC20020930191509909/30/02 19:15:31  5-MIN KSTC 010115Z AUTO 21004KT 10SM CLR 18/15 A2961 1310 81 2000 200/04 RMK AO2
14926KSTC STC20020930192009909/30/02 19:20:31  5-MIN KSTC 010120Z AUTO 22005KT 10SM CLR 17/15 A2961 1310 87 1900 210/05 RMK AO2
14926KSTC STC20020930192509909/30/02 19:25:31  5-MIN KSTC 010125Z AUTO 22005KT 10SM CLR 17/15 A2961 1310 87 1900 210/05 RMK AO2
14926KSTC STC20020930193009909/30/02 19:30:31  5-MIN KSTC 010130Z AUTO 22005KT 10SM CLR 17/14 A2962 1310 83 1900 210/05 RMK AO2
14926KSTC STC20020930193509909/30/02 19:35:31  5-MIN KSTC 010135Z AUTO 22006KT 10SM CLR 17/14 A2962 1310 80 1900 220/06 RMK AO2
14926KSTC STC20020930194009909/30/02 19:40:31  5-MIN KSTC 010140Z AUTO 22007KT 10SM CLR 17/14 A2962 1310 80 1900 220/07 RMK AO2
14926KSTC STC20020930194509909/30/02 19:45:31  5-MIN KSTC 010145Z AUTO 21007KT 10SM CLR 17/14 A2962 1300 80 1900 210/07 RMK AO2
14926KSTC STC20020930195011609/30/02 19:50:31  5-MIN KSTC 010150Z AUTO 22007KT 10SM CLR 18/14 A2962 1300 78 2000 210/07 RMK AO2 SLP037 T01780139
14926KSTC STC20020930195509909/30/02 19:55:31  5-MIN KSTC 010155Z AUTO 21006KT 10SM CLR 18/14 A2962 1300 78 2000 210/06 RMK AO2
14926KSTC STC20020930200009909/30/02 20:00:31  5-MIN KSTC 010200Z AUTO 21006KT 10SM CLR 18/14 A2963 1300 78 2000 210/06 RMK AO2
14926KSTC STC20020930200509909/30/02 20:05:31  5-MIN KSTC 010205Z AUTO 22005KT 10SM CLR 18/14 A2963 1300 78 2000 220/05 RMK AO2
14926KSTC STC20020930201009909/30/02 20:10:31  5-MIN KSTC 010210Z AUTO 22005KT 10SM CLR 17/14 A2963 1300 80 1900 220/05 RMK AO2
14926KSTC STC20020930201509909/30/02 20:15:31  5-MIN KSTC 010215Z AUTO 21006KT 10SM CLR 17/13 A2963 1300 80 1800 210/06 RMK AO2
14926KSTC STC20020930202009909/30/02 20:20:31  5-MIN KSTC 010220Z AUTO 20007KT 10SM CLR 17/13 A2963 1300 80 1800 200/07 RMK AO2
14926KSTC STC20020930202509909/30/02 20:25:31  5-MIN KSTC 010225Z AUTO 20007KT 10SM CLR 17/13 A2963 1290 80 1800 200/07 RMK AO2
14926KSTC STC20020930203009909/30/02 20:30:31  5-MIN KSTC 010230Z AUTO 21007KT 10SM CLR 16/13 A2963 1290 86 1700 200/07 RMK AO2
14926KSTC STC20020930203509909/30/02 20:35:31  5-MIN KSTC 010235Z AUTO 21005KT 10SM CLR 16/13 A2963 1290 83 1800 210/05 RMK AO2
14926KSTC STC20020930204009909/30/02 20:40:31  5-MIN KSTC 010240Z AUTO 22005KT 10SM CLR 16/13 A2964 1290 83 1800 220/05 RMK AO2
14926KSTC STC20020930204509909/30/02 20:45:31  5-MIN KSTC 010245Z AUTO 23005KT 10SM CLR 16/13 A2964 1290 80 1800 220/05 RMK AO2
14926KSTC STC20020930205012209/30/02 20:50:31  5-MIN KSTC 010250Z AUTO 23004KT 10SM CLR 17/13 A2964 1290 77 1800 220/04 RMK AO2 SLP041 T01670128 53012
14926KSTC STC20020930205509909/30/02 20:55:31  5-MIN KSTC 010255Z AUTO 21005KT 10SM CLR 17/13 A2964 1290 77 1800 200/05 RMK AO2
14926KSTC STC20020930210009909/30/02 21:00:31  5-MIN KSTC 010300Z AUTO 20005KT 10SM CLR 16/12 A2964 1290 77 1800 200/05 RMK AO2
14926KSTC STC20020930210509909/30/02 21:05:31  5-MIN KSTC 010305Z AUTO 19006KT 10SM CLR 16/12 A2964 1280 80 1700 190/06 RMK AO2
14926KSTC STC20020930211009909/30/02 21:10:31  5-MIN KSTC 010310Z AUTO 20005KT 10SM CLR 15/12 A2965 1280 83 1600 190/05 RMK AO2
14926KSTC STC20020930211509909/30/02 21:15:31  5-MIN KSTC 010315Z AUTO 22005KT 10SM CLR 16/12 A2965 1280 80 1700 220/05 RMK AO2
14926KSTC STC20020930212009909/30/02 21:20:31  5-MIN KSTC 010320Z AUTO 22004KT 10SM CLR 16/12 A2965 1280 77 1700 220/04 RMK AO2
14926KSTC STC20020930212509909/30/02 21:25:31  5-MIN KSTC 010325Z AUTO 21004KT 10SM CLR 16/12 A2965 1280 80 1700 210/04 RMK AO2
14926KSTC STC20020930213009909/30/02 21:30:31  5-MIN KSTC 010330Z AUTO 21005KT 10SM CLR 16/12 A2965 1280 80 1700 210/05 RMK AO2
14926KSTC STC20020930213509909/30/02 21:35:31  5-MIN KSTC 010335Z AUTO 21005KT 10SM CLR 16/12 A2965 1280 77 1700 200/05 RMK AO2
14926KSTC STC20020930214009909/30/02 21:40:31  5-MIN KSTC 010340Z AUTO 20004KT 10SM CLR 15/12 A2965 1280 80 1600 190/04 RMK AO2
14926KSTC STC20020930214509909/30/02 21:45:31  5-MIN KSTC 010345Z AUTO 19004KT 10SM CLR 16/12 A2965 1270 77 1700 190/04 RMK AO2
14926KSTC STC20020930215011609/30/02 21:50:31  5-MIN KSTC 010350Z AUTO 19003KT 10SM CLR 16/12 A2966 1270 77 1700 190/03 RMK AO2 SLP048 T01560117
14926KSTC STC20020930215509909/30/02 21:55:31  5-MIN KSTC 010355Z AUTO 19003KT 10SM CLR 15/12 A2966 1270 80 1600 190/03 RMK AO2
14926KSTC STC20020930220009909/30/02 22:00:31  5-MIN KSTC 010400Z AUTO 18003KT 10SM CLR 16/12 A2966 1270 77 1700 180/03 RMK AO2
14926KSTC STC20020930220509909/30/02 22:05:31  5-MIN KSTC 010405Z AUTO 00000KT 10SM CLR 15/12 A2966 1270 83 1600 000/00 RMK AO2
14926KSTC STC20020930221009909/30/02 22:10:31  5-MIN KSTC 010410Z AUTO 00000KT 10SM CLR 14/12 A2966 1270 86 1500 000/00 RMK AO2
14926KSTC STC20020930221509909/30/02 22:15:31  5-MIN KSTC 010415Z AUTO 00000KT 10SM CLR 14/12 A2966 1270 86 1500 000/00 RMK AO2
14926KSTC STC20020930222009909/30/02 22:20:31  5-MIN KSTC 010420Z AUTO 00000KT 10SM CLR 14/12 A2967 1260 90 1500 000/00 RMK AO2
14926KSTC STC20020930222509909/30/02 22:25:31  5-MIN KSTC 010425Z AUTO 00000KT 10SM CLR 14/12 A2967 1260 90 1500 000/00 RMK AO2
14926KSTC STC20020930223009909/30/02 22:30:31  5-MIN KSTC 010430Z AUTO 00000KT 10SM CLR 14/12 A2967 1260 86 1500 000/00 RMK AO2
14926KSTC STC20020930223509909/30/02 22:35:31  5-MIN KSTC 010435Z AUTO 00000KT 10SM CLR 14/12 A2967 1260 86 1500 000/00 RMK AO2
14926KSTC STC20020930224009909/30/02 22:40:31  5-MIN KSTC 010440Z AUTO 00000KT 10SM CLR 13/12 A2967 1260 93 1400 000/00 RMK AO2
14926KSTC STC20020930224509909/30/02 22:45:31  5-MIN KSTC 010445Z AUTO 00000KT 10SM CLR 12/11 A2967 1260 93 1300 000/00 RMK AO2
14926KSTC STC20020930225011609/30/02 22:50:31  5-MIN KSTC 010450Z AUTO 00000KT 10SM CLR 12/12 A2967 1260 96 1300 000/00 RMK AO2 SLP052 T01220117
14926KSTC STC20020930225509909/30/02 22:55:31  5-MIN KSTC 010455Z AUTO 00000KT 10SM CLR 12/12 A2967 1260 96 1300 000/00 RMK AO2
14926KSTC STC20020930230009909/30/02 23:00:31  5-MIN KSTC 010500Z AUTO 00000KT 10SM CLR 12/12 A2967 1260 96 1300 000/00 RMK AO2
14926KSTC STC20020930230509909/30/02 23:05:31  5-MIN KSTC 010505Z AUTO 00000KT 10SM CLR 13/12 A2967 1260 93 1300 000/00 RMK AO2
14926KSTC STC20020930231009909/30/02 23:10:31  5-MIN KSTC 010510Z AUTO 00000KT 10SM CLR 13/12 A2966 1260 93 1300 000/00 RMK AO2
14926KSTC STC20020930231509909/30/02 23:15:31  5-MIN KSTC 010515Z AUTO 00000KT 10SM CLR 12/11 A2966 1260 93 1300 000/00 RMK AO2
14926KSTC STC20020930232009909/30/02 23:20:31  5-MIN KSTC 010520Z AUTO 00000KT 10SM CLR 12/11 A2967 1260 96 1200 000/00 RMK AO2
14926KSTC STC20020930232509909/30/02 23:25:31  5-MIN KSTC 010525Z AUTO 00000KT 10SM CLR 12/11 A2967 1260 93 1200 000/00 RMK AO2
14926KSTC STC20020930233009909/30/02 23:30:31  5-MIN KSTC 010530Z AUTO 04003KT 10SM CLR 11/11 A2967 1250 96 1100 040/03 RMK AO2
14926KSTC STC20020930233509909/30/02 23:35:31  5-MIN KSTC 010535Z AUTO 00000KT 10SM CLR 12/11 A2968 1250 96 1200 000/00 RMK AO2
14926KSTC STC20020930234009909/30/02 23:40:31  5-MIN KSTC 010540Z AUTO 00000KT 10SM CLR 12/12 A2968 1250 96 1300 000/00 RMK AO2
14926KSTC STC20020930234509909/30/02 23:45:31  5-MIN KSTC 010545Z AUTO 00000KT 10SM CLR 12/12 A2968 1250 96 1300 000/00 RMK AO2
14926KSTC STC20020930235014409/30/02 23:50:31  5-MIN KSTC 010550Z AUTO 18004KT 10SM CLR 11/11 A2968 1250 96 1100 180/04 RMK AO2 SLP056 T01110106 10239 20111 402830106 51021
14926KSTC STC20020930235509909/30/02 23:55:31  5-MIN KSTC 010555Z AUTO 17003KT 10SM CLR 11/11 A2969 1240 96 1100 170/03 RMK AO2
