14926KSTC STC20041101000009711/01/04 00:00:35  5-MIN KSTC 010600Z AUTO 12003KT 9SM OVC018 05/03 A3003 920 85 0 120/03 RMK AO2
14926KSTC STC20041101000509711/01/04 00:05:31  5-MIN KSTC 010605Z AUTO 13003KT 9SM OVC016 05/03 A3003 920 85 0 120/03 RMK AO2
14926KSTC STC20041101001009711/01/04 00:10:31  5-MIN KSTC 010610Z AUTO 11003KT 9SM OVC016 05/03 A3003 920 85 0 110/03 RMK AO2
14926KSTC STC20041101001509711/01/04 00:15:31  5-MIN KSTC 010615Z AUTO 13003KT 9SM OVC016 05/02 A3003 930 82 0 130/03 RMK AO2
14926KSTC STC20041101002009711/01/04 00:20:31  5-MIN KSTC 010620Z AUTO 11003KT 9SM OVC016 04/02 A3003 920 85 0 110/03 RMK AO2
14926KSTC STC20041101002509711/01/04 00:25:31  5-MIN KSTC 010625Z AUTO 12003KT 9SM OVC016 04/02 A3003 930 85 0 120/03 RMK AO2
14926KSTC STC20041101003009711/01/04 00:30:31  5-MIN KSTC 010630Z AUTO 12004KT 9SM OVC016 04/02 A3003 930 85 0 120/04 RMK AO2
14926KSTC STC20041101003509711/01/04 00:35:31  5-MIN KSTC 010635Z AUTO 13004KT 9SM BKN016 04/02 A3003 930 85 0 120/04 RMK AO2
14926KSTC STC20041101004009711/01/04 00:40:31  5-MIN KSTC 010640Z AUTO 11004KT 9SM OVC016 04/02 A3003 930 85 0 110/04 RMK AO2
14926KSTC STC20041101004509711/01/04 00:45:31  5-MIN KSTC 010645Z AUTO 11004KT 9SM OVC016 04/03 A3003 930 89 0 110/04 RMK AO2
14926KSTC STC20041101005011411/01/04 00:50:31  5-MIN KSTC 010650Z AUTO 12003KT 8SM OVC016 04/03 A3003 930 89 0 120/03 RMK AO2 SLP184 T00440028
14926KSTC STC20041101005509711/01/04 00:55:31  5-MIN KSTC 010655Z AUTO 13004KT 8SM OVC016 04/03 A3003 930 89 0 120/04 RMK AO2
14926KSTC STC20041101010009711/01/04 01:00:31  5-MIN KSTC 010700Z AUTO 13004KT 9SM OVC016 04/03 A3004 920 89 0 130/04 RMK AO2
14926KSTC STC20041101010510011/01/04 01:05:31  5-MIN KSTC 010705Z AUTO 13004KT 9SM OVC016 04/03 A3004 910 89 -100 130/04 RMK AO2
14926KSTC STC20041101011010011/01/04 01:10:31  5-MIN KSTC 010710Z AUTO 13004KT 9SM OVC016 04/02 A3004 910 85 -100 130/04 RMK AO2
14926KSTC STC20041101011510111/01/04 01:15:31  5-MIN KSTC 010715Z AUTO 12004KT 10SM OVC016 04/02 A3004 910 85 -100 110/04 RMK AO2
14926KSTC STC20041101012009811/01/04 01:20:31  5-MIN KSTC 010720Z AUTO 12003KT 10SM OVC016 04/02 A3004 920 85 0 110/03 RMK AO2
14926KSTC STC20041101012510111/01/04 01:25:31  5-MIN KSTC 010725Z AUTO 00000KT 10SM OVC016 04/02 A3004 920 85 -100 000/00 RMK AO2
14926KSTC STC20041101013010111/01/04 01:30:31  5-MIN KSTC 010730Z AUTO 00000KT 10SM OVC016 04/02 A3004 910 85 -100 000/00 RMK AO2
14926KSTC STC20041101013509811/01/04 01:35:31  5-MIN KSTC 010735Z AUTO 11003KT 10SM OVC016 05/02 A3004 910 82 0 110/03 RMK AO2
14926KSTC STC20041101014010111/01/04 01:40:31  5-MIN KSTC 010740Z AUTO 11003KT 10SM OVC016 04/03 A3004 910 89 -100 100/03 RMK AO2
14926KSTC STC20041101014509711/01/04 01:45:31  5-MIN KSTC 010745Z AUTO 09003KT 9SM OVC016 05/02 A3004 920 82 0 080/03 RMK AO2
14926KSTC STC20041101015011711/01/04 01:50:31  5-MIN KSTC 010750Z AUTO 10003KT 9SM OVC016 04/02 A3004 910 85 -100 090/03 RMK AO2 SLP190 T00440022
14926KSTC STC20041101015510011/01/04 01:55:31  5-MIN KSTC 010755Z AUTO 00000KT 9SM OVC016 04/02 A3004 910 85 -100 000/00 RMK AO2
14926KSTC STC20041101020010011/01/04 02:00:31  5-MIN KSTC 010800Z AUTO 00000KT 9SM OVC016 04/03 A3004 910 89 -100 000/00 RMK AO2
14926KSTC STC20041101020510011/01/04 02:05:31  5-MIN KSTC 010805Z AUTO 00000KT 9SM BKN016 04/02 A3004 910 85 -100 000/00 RMK AO2
14926KSTC STC20041101021010011/01/04 02:10:31  5-MIN KSTC 010810Z AUTO 00000KT 9SM BKN016 04/02 A3004 910 89 -100 000/00 RMK AO2
14926KSTC STC20041101021510011/01/04 02:15:31  5-MIN KSTC 010815Z AUTO 00000KT 9SM SCT016 04/02 A3004 920 89 -100 000/00 RMK AO2
14926KSTC STC20041101022010011/01/04 02:20:31  5-MIN KSTC 010820Z AUTO 04003KT 8SM SCT016 04/02 A3004 920 89 -100 040/03 RMK AO2
14926KSTC STC20041101022510011/01/04 02:25:31  5-MIN KSTC 010825Z AUTO 04003KT 8SM FEW016 04/02 A3004 910 89 -100 040/03 RMK AO2
14926KSTC STC20041101023009711/01/04 02:30:31  5-MIN KSTC 010830Z AUTO 04003KT 8SM CLR 03/02 A3004 920 92 -200 040/03 RMK AO2
14926KSTC STC20041101023509711/01/04 02:35:31  5-MIN KSTC 010835Z AUTO 06003KT 7SM CLR 03/02 A3004 910 92 -200 060/03 RMK AO2
14926KSTC STC20041101024009711/01/04 02:40:31  5-MIN KSTC 010840Z AUTO 06003KT 8SM CLR 03/02 A3004 910 92 -200 050/03 RMK AO2
14926KSTC STC20041101024509711/01/04 02:45:31  5-MIN KSTC 010845Z AUTO 00000KT 8SM CLR 03/02 A3005 910 92 -200 000/00 RMK AO2
14926KSTC STC20041101025012011/01/04 02:50:31  5-MIN KSTC 010850Z AUTO 06003KT 8SM CLR 03/02 A3005 900 92 -200 060/03 RMK AO2 SLP194 T00330022 51011
14926KSTC STC20041101025509711/01/04 02:55:31  5-MIN KSTC 010855Z AUTO 07003KT 8SM CLR 03/02 A3005 910 92 -300 060/03 RMK AO2
14926KSTC STC20041101030009711/01/04 03:00:31  5-MIN KSTC 010900Z AUTO 05004KT 7SM CLR 02/02 A3004 920 96 -300 050/04 RMK AO2
14926KSTC STC20041101030509711/01/04 03:05:31  5-MIN KSTC 010905Z AUTO 04004KT 7SM CLR 03/02 A3004 910 92 -300 040/04 RMK AO2
14926KSTC STC20041101031010411/01/04 03:10:31  5-MIN KSTC 010910Z AUTO 04005KT 7SM CLR 02/02 A3003 930 96 -300 030/05 RMK AO2 PRESFR
14926KSTC STC20041101031509711/01/04 03:15:31  5-MIN KSTC 010915Z AUTO 04005KT 7SM CLR 03/02 A3002 930 96 -200 040/05 RMK AO2
14926KSTC STC20041101032009711/01/04 03:20:31  5-MIN KSTC 010920Z AUTO 04005KT 7SM CLR 03/02 A3002 930 92 -200 040/05 RMK AO2
14926KSTC STC20041101032509711/01/04 03:25:31  5-MIN KSTC 010925Z AUTO 06004KT 7SM CLR 03/02 A3003 930 92 -200 060/04 RMK AO2
14926KSTC STC20041101033009711/01/04 03:30:31  5-MIN KSTC 010930Z AUTO 07003KT 7SM CLR 03/02 A3003 930 92 -200 070/03 RMK AO2
14926KSTC STC20041101033509711/01/04 03:35:31  5-MIN KSTC 010935Z AUTO 05003KT 7SM CLR 03/02 A3004 920 92 -200 050/03 RMK AO2
14926KSTC STC20041101034009711/01/04 03:40:31  5-MIN KSTC 010940Z AUTO 06003KT 7SM CLR 03/02 A3004 920 96 -300 060/03 RMK AO2
14926KSTC STC20041101034509711/01/04 03:45:31  5-MIN KSTC 010945Z AUTO 00000KT 7SM CLR 03/02 A3004 910 96 -300 000/00 RMK AO2
14926KSTC STC20041101035011411/01/04 03:50:31  5-MIN KSTC 010950Z AUTO 00000KT 7SM CLR 03/02 A3005 910 96 -300 000/00 RMK AO2 SLP192 T00280022
14926KSTC STC20041101035509711/01/04 03:55:31  5-MIN KSTC 010955Z AUTO 00000KT 7SM CLR 03/02 A3006 900 96 -300 000/00 RMK AO2
14926KSTC STC20041101040010411/01/04 04:00:31  5-MIN KSTC 011000Z AUTO 00000KT 7SM CLR 03/02 A3006 900 92 -200 000/00 RMK AO2 PRESRR
14926KSTC STC20041101040509711/01/04 04:05:31  5-MIN KSTC 011005Z AUTO 00000KT 7SM CLR 03/02 A3006 900 92 -200 000/00 RMK AO2
14926KSTC STC20041101041010011/01/04 04:10:31  5-MIN KSTC 011010Z AUTO 00000KT 7SM FEW120 03/02 A3006 900 92 -300 000/00 RMK AO2
14926KSTC STC20041101041510011/01/04 04:15:31  5-MIN KSTC 011015Z AUTO 00000KT 7SM FEW120 03/02 A3007 890 92 -300 000/00 RMK AO2
14926KSTC STC20041101042010011/01/04 04:20:31  5-MIN KSTC 011020Z AUTO 00000KT 7SM FEW120 03/02 A3007 890 96 -300 000/00 RMK AO2
14926KSTC STC20041101042510011/01/04 04:25:31  5-MIN KSTC 011025Z AUTO 00000KT 7SM FEW120 03/02 A3007 890 92 -300 000/00 RMK AO2
14926KSTC STC20041101043010311/01/04 04:30:31  5-MIN KSTC 011030Z AUTO 02003KT 6SM BR FEW120 02/02 A3006 890 96 -400 020/03 RMK AO2
14926KSTC STC20041101043510311/01/04 04:35:31  5-MIN KSTC 011035Z AUTO 00000KT 6SM BR SCT120 02/02 A3007 890 96 -400 000/00 RMK AO2
14926KSTC STC20041101044010411/01/04 04:40:31  5-MIN KSTC 011040Z AUTO 35003KT 6SM BR FEW120 02/02 A3007 890 100 -400 340/03 RMK AO2
14926KSTC STC20041101044510311/01/04 04:45:31  5-MIN KSTC 011045Z AUTO 36004KT 6SM BR FEW120 03/02 A3007 890 96 -300 350/04 RMK AO2
14926KSTC STC20041101045012011/01/04 04:50:31  5-MIN KSTC 011050Z AUTO 36005KT 6SM BR FEW120 03/02 A3007 880 96 -300 360/05 RMK AO2 SLP201 T00280022
14926KSTC STC20041101045510311/01/04 04:55:31  5-MIN KSTC 011055Z AUTO 36005KT 6SM BR FEW120 03/02 A3008 880 96 -300 360/05 RMK AO2
14926KSTC STC20041101050010311/01/04 05:00:31  5-MIN KSTC 011100Z AUTO 03004KT 6SM BR SCT120 03/02 A3008 880 92 -200 020/04 RMK AO2
14926KSTC STC20041101050510311/01/04 05:05:31  5-MIN KSTC 011105Z AUTO 00000KT 6SM BR SCT120 03/02 A3008 880 92 -200 000/00 RMK AO2
14926KSTC STC20041101051010311/01/04 05:10:31  5-MIN KSTC 011110Z AUTO 05003KT 6SM BR BKN120 03/02 A3008 880 92 -200 040/03 RMK AO2
14926KSTC STC20041101051510311/01/04 05:15:31  5-MIN KSTC 011115Z AUTO 05003KT 6SM BR BKN120 03/02 A3009 870 96 -300 050/03 RMK AO2
14926KSTC STC20041101052010311/01/04 05:20:31  5-MIN KSTC 011120Z AUTO 06004KT 6SM BR BKN120 03/02 A3009 870 92 -200 050/04 RMK AO2
14926KSTC STC20041101052510311/01/04 05:25:31  5-MIN KSTC 011125Z AUTO 06004KT 6SM BR BKN120 03/02 A3009 870 92 -200 060/04 RMK AO2
14926KSTC STC20041101053010311/01/04 05:30:31  5-MIN KSTC 011130Z AUTO 06003KT 6SM BR SCT120 03/02 A3010 860 92 -300 060/03 RMK AO2
14926KSTC STC20041101053510311/01/04 05:35:31  5-MIN KSTC 011135Z AUTO 07003KT 6SM BR SCT120 03/02 A3010 860 92 -300 060/03 RMK AO2
14926KSTC STC20041101054010311/01/04 05:40:31  5-MIN KSTC 011140Z AUTO 07004KT 6SM BR FEW110 03/02 A3010 860 92 -300 070/04 RMK AO2
14926KSTC STC20041101054510311/01/04 05:45:31  5-MIN KSTC 011145Z AUTO 05003KT 6SM BR FEW110 03/02 A3010 860 96 -300 050/03 RMK AO2
14926KSTC STC20041101055014111/01/04 05:50:31  5-MIN KSTC 011150Z AUTO 05004KT 6SM BR CLR 03/02 A3009 870 96 -300 050/04 RMK AO2 SLP207 70001 T00280022 10050 20022 53004
14926KSTC STC20041101055510011/01/04 05:55:31  5-MIN KSTC 011155Z AUTO 06005KT 6SM BR CLR 03/02 A3009 870 96 -300 050/05 RMK AO2
14926KSTC STC20041101060010011/01/04 06:00:31  5-MIN KSTC 011200Z AUTO 06005KT 6SM BR CLR 03/02 A3009 870 96 -300 050/05 RMK AO2
14926KSTC STC20041101060510011/01/04 06:05:31  5-MIN KSTC 011205Z AUTO 05005KT 6SM BR CLR 03/02 A3009 870 96 -300 040/05 RMK AO2
14926KSTC STC20041101061010011/01/04 06:10:31  5-MIN KSTC 011210Z AUTO 04006KT 6SM BR CLR 03/02 A3008 880 96 -300 040/06 RMK AO2
14926KSTC STC20041101061510011/01/04 06:15:31  5-MIN KSTC 011215Z AUTO 04005KT 6SM BR CLR 03/02 A3009 870 96 -300 030/05 RMK AO2
14926KSTC STC20041101062010011/01/04 06:20:31  5-MIN KSTC 011220Z AUTO 05004KT 6SM BR CLR 03/02 A3009 870 96 -300 050/04 RMK AO2
14926KSTC STC20041101062510011/01/04 06:25:31  5-MIN KSTC 011225Z AUTO 06004KT 6SM BR CLR 03/02 A3009 870 96 -300 050/04 RMK AO2
14926KSTC STC20041101063010011/01/04 06:30:31  5-MIN KSTC 011230Z AUTO 05004KT 6SM BR CLR 03/02 A3009 870 96 -300 050/04 RMK AO2
14926KSTC STC20041101063510011/01/04 06:35:31  5-MIN KSTC 011235Z AUTO 04005KT 6SM BR CLR 03/02 A3009 870 96 -300 040/05 RMK AO2
14926KSTC STC20041101064010011/01/04 06:40:31  5-MIN KSTC 011240Z AUTO 04005KT 6SM BR CLR 03/02 A3009 870 96 -300 040/05 RMK AO2
14926KSTC STC20041101064510011/01/04 06:45:31  5-MIN KSTC 011245Z AUTO 04005KT 6SM BR CLR 03/02 A3009 870 96 -300 040/05 RMK AO2
14926KSTC STC20041101065011711/01/04 06:50:31  5-MIN KSTC 011250Z AUTO 04006KT 6SM BR CLR 03/02 A3009 870 96 -300 040/06 RMK AO2 SLP208 T00280022
14926KSTC STC20041101065510011/01/04 06:55:31  5-MIN KSTC 011255Z AUTO 04005KT 6SM BR CLR 03/02 A3010 860 96 -300 040/05 RMK AO2
14926KSTC STC20041101070010011/01/04 07:00:31  5-MIN KSTC 011300Z AUTO 04005KT 6SM BR CLR 03/02 A3010 860 96 -300 040/05 RMK AO2
14926KSTC STC20041101070510011/01/04 07:05:31  5-MIN KSTC 011305Z AUTO 05004KT 5SM BR CLR 03/02 A3010 860 96 -300 050/04 RMK AO2
14926KSTC STC20041101071010011/01/04 07:10:31  5-MIN KSTC 011310Z AUTO 04004KT 4SM BR CLR 03/02 A3010 860 96 -300 040/04 RMK AO2
14926KSTC STC20041101071510011/01/04 07:15:31  5-MIN KSTC 011315Z AUTO 04004KT 4SM BR CLR 03/02 A3011 850 96 -300 040/04 RMK AO2
14926KSTC STC20041101072010011/01/04 07:20:31  5-MIN KSTC 011320Z AUTO 04005KT 4SM BR CLR 03/02 A3011 860 96 -300 040/05 RMK AO2
14926KSTC STC20041101072510011/01/04 07:25:31  5-MIN KSTC 011325Z AUTO 06004KT 4SM BR CLR 03/02 A3011 850 96 -300 060/04 RMK AO2
14926KSTC STC20041101073010011/01/04 07:30:31  5-MIN KSTC 011330Z AUTO 04005KT 4SM BR CLR 03/02 A3011 850 96 -300 040/05 RMK AO2
14926KSTC STC20041101073510011/01/04 07:35:31  5-MIN KSTC 011335Z AUTO 05005KT 4SM BR CLR 03/02 A3011 850 96 -300 050/05 RMK AO2
14926KSTC STC20041101074010011/01/04 07:40:31  5-MIN KSTC 011340Z AUTO 05004KT 4SM BR CLR 03/02 A3012 840 96 -300 050/04 RMK AO2
14926KSTC STC20041101074510011/01/04 07:45:31  5-MIN KSTC 011345Z AUTO 05004KT 4SM BR CLR 03/02 A3012 840 96 -400 050/04 RMK AO2
14926KSTC STC20041101075011711/01/04 07:50:31  5-MIN KSTC 011350Z AUTO 04004KT 4SM BR CLR 03/02 A3012 840 96 -400 040/04 RMK AO2 SLP219 T00280022
14926KSTC STC20041101075510011/01/04 07:55:31  5-MIN KSTC 011355Z AUTO 05004KT 4SM BR CLR 03/02 A3013 830 92 -300 050/04 RMK AO2
14926KSTC STC20041101080010011/01/04 08:00:31  5-MIN KSTC 011400Z AUTO 05004KT 4SM BR CLR 03/02 A3013 830 92 -300 040/04 RMK AO2
14926KSTC STC20041101080510011/01/04 08:05:31  5-MIN KSTC 011405Z AUTO 04004KT 4SM BR CLR 03/02 A3013 840 92 -300 030/04 RMK AO2
14926KSTC STC20041101081010011/01/04 08:10:31  5-MIN KSTC 011410Z AUTO 05005KT 4SM BR CLR 03/02 A3013 830 92 -300 050/05 RMK AO2
14926KSTC STC20041101081510011/01/04 08:15:31  5-MIN KSTC 011415Z AUTO 05003KT 5SM BR CLR 03/02 A3013 830 92 -300 040/03 RMK AO2
14926KSTC STC20041101082010311/01/04 08:20:31  5-MIN KSTC 011420Z AUTO 04005KT 5SM BR FEW110 03/02 A3013 830 92 -300 040/05 RMK AO2
14926KSTC STC20041101082510311/01/04 08:25:31  5-MIN KSTC 011425Z AUTO 04005KT 5SM BR SCT110 03/02 A3013 830 92 -300 030/05 RMK AO2
14926KSTC STC20041101083010311/01/04 08:30:31  5-MIN KSTC 011430Z AUTO 03004KT 5SM BR BKN110 03/03 A3013 830 96 -300 020/04 RMK AO2
14926KSTC STC20041101083510311/01/04 08:35:31  5-MIN KSTC 011435Z AUTO 05005KT 5SM BR BKN110 04/03 A3013 830 92 -200 040/05 RMK AO2
14926KSTC STC20041101084010311/01/04 08:40:31  5-MIN KSTC 011440Z AUTO 06003KT 5SM BR BKN110 04/03 A3013 830 92 -200 050/03 RMK AO2
14926KSTC STC20041101084510311/01/04 08:45:31  5-MIN KSTC 011445Z AUTO 05005KT 5SM BR BKN110 04/03 A3013 830 92 -200 050/05 RMK AO2
14926KSTC STC20041101085012611/01/04 08:50:31  5-MIN KSTC 011450Z AUTO 04005KT 5SM BR BKN100 04/03 A3013 830 92 -200 040/05 RMK AO2 SLP220 T00390028 53014
14926KSTC STC20041101085510311/01/04 08:55:31  5-MIN KSTC 011455Z AUTO 04006KT 5SM BR OVC100 04/03 A3013 840 89 -100 040/06 RMK AO2
14926KSTC STC20041101090010311/01/04 09:00:31  5-MIN KSTC 011500Z AUTO 06006KT 5SM BR BKN100 04/03 A3013 840 92 -100 060/06 RMK AO2
14926KSTC STC20041101090510311/01/04 09:05:31  5-MIN KSTC 011505Z AUTO 04006KT 5SM BR BKN100 04/03 A3012 840 92 -100 040/06 RMK AO2
14926KSTC STC20041101091010311/01/04 09:10:31  5-MIN KSTC 011510Z AUTO 05005KT 5SM BR SCT100 05/03 A3012 840 89 -100 040/05 RMK AO2
14926KSTC STC20041101091510311/01/04 09:15:31  5-MIN KSTC 011515Z AUTO 05004KT 6SM BR SCT100 05/04 A3012 840 92 -100 040/04 RMK AO2
14926KSTC STC20041101092010011/01/04 09:20:31  5-MIN KSTC 011520Z AUTO 06005KT 6SM BR FEW100 06/04 A3012 840 89 0 060/05 RMK AO2
14926KSTC STC20041101092509711/01/04 09:25:31  5-MIN KSTC 011525Z AUTO VRB05KT 6SM BR CLR 06/04 A3013 830 89 0 VRB/05 RMK AO2
14926KSTC STC20041101093009711/01/04 09:30:31  5-MIN KSTC 011530Z AUTO 08005KT 7SM SCT026 06/04 A3013 830 86 0 080/05 RMK AO2
14926KSTC STC20041101093509711/01/04 09:35:31  5-MIN KSTC 011535Z AUTO 08005KT 8SM BKN026 06/04 A3014 830 86 0 070/05 RMK AO2
14926KSTC STC20041101094009711/01/04 09:40:31  5-MIN KSTC 011540Z AUTO 07005KT 8SM BKN024 06/04 A3014 830 86 0 070/05 RMK AO2
14926KSTC STC20041101094509711/01/04 09:45:31  5-MIN KSTC 011545Z AUTO 07007KT 8SM BKN024 06/04 A3013 830 86 0 070/07 RMK AO2
14926KSTC STC20041101095011611/01/04 09:50:31  5-MIN KSTC 011550Z AUTO 08005KT 9SM BKN024 07/04 A3013 830 82 100 070/05 RMK AO2 SLP219 T00670039
14926KSTC STC20041101095509911/01/04 09:55:31  5-MIN KSTC 011555Z AUTO 07005KT 9SM BKN024 07/04 A3013 840 82 100 060/05 RMK AO2
14926KSTC STC20041101100009911/01/04 10:00:31  5-MIN KSTC 011600Z AUTO 07005KT 9SM BKN024 07/04 A3013 840 82 100 060/05 RMK AO2
14926KSTC STC20041101100510011/01/04 10:05:31  5-MIN KSTC 011605Z AUTO 07006KT 10SM SCT024 07/04 A3013 840 82 100 070/06 RMK AO2
14926KSTC STC20041101101010011/01/04 10:10:31  5-MIN KSTC 011610Z AUTO 07004KT 10SM SCT024 07/04 A3013 830 82 100 060/04 RMK AO2
14926KSTC STC20041101101510011/01/04 10:15:31  5-MIN KSTC 011615Z AUTO 04005KT 10SM FEW024 07/04 A3013 830 79 100 040/05 RMK AO2
14926KSTC STC20041101102010011/01/04 10:20:31  5-MIN KSTC 011620Z AUTO 04006KT 10SM FEW024 07/04 A3012 840 79 100 040/06 RMK AO2
14926KSTC STC20041101102509711/01/04 10:25:31  5-MIN KSTC 011625Z AUTO 04005KT 10SM CLR 07/04 A3012 840 79 100 040/05 RMK AO2
14926KSTC STC20041101103009711/01/04 10:30:31  5-MIN KSTC 011630Z AUTO 04004KT 10SM CLR 07/04 A3012 840 79 100 040/04 RMK AO2
14926KSTC STC20041101103509711/01/04 10:35:31  5-MIN KSTC 011635Z AUTO 07005KT 10SM CLR 07/04 A3012 840 79 100 060/05 RMK AO2
14926KSTC STC20041101104009711/01/04 10:40:31  5-MIN KSTC 011640Z AUTO 06004KT 10SM CLR 07/04 A3012 850 79 200 060/04 RMK AO2
14926KSTC STC20041101104509711/01/04 10:45:31  5-MIN KSTC 011645Z AUTO 09007KT 10SM CLR 07/04 A3012 840 79 100 080/07 RMK AO2
14926KSTC STC20041101105011411/01/04 10:50:31  5-MIN KSTC 011650Z AUTO 09006KT 10SM CLR 07/04 A3013 840 79 100 090/06 RMK AO2 SLP218 T00720039
14926KSTC STC20041101105509711/01/04 10:55:31  5-MIN KSTC 011655Z AUTO 07005KT 10SM CLR 08/04 A3012 840 76 200 070/05 RMK AO2
14926KSTC STC20041101110009711/01/04 11:00:31  5-MIN KSTC 011700Z AUTO VRB04KT 10SM CLR 08/04 A3012 840 76 200 VRB/04 RMK AO2
14926KSTC STC20041101110509711/01/04 11:05:31  5-MIN KSTC 011705Z AUTO 05007KT 10SM CLR 08/04 A3012 840 76 200 050/07 RMK AO2
14926KSTC STC20041101111009711/01/04 11:10:31  5-MIN KSTC 011710Z AUTO 04007KT 10SM CLR 08/03 A3011 850 73 200 040/07 RMK AO2
14926KSTC STC20041101111509711/01/04 11:15:31  5-MIN KSTC 011715Z AUTO 05008KT 10SM CLR 08/04 A3011 850 76 200 050/08 RMK AO2
14926KSTC STC20041101112009711/01/04 11:20:31  5-MIN KSTC 011720Z AUTO 06006KT 10SM CLR 08/04 A3010 860 76 200 060/06 RMK AO2
14926KSTC STC20041101112509711/01/04 11:25:31  5-MIN KSTC 011725Z AUTO 06006KT 10SM CLR 08/04 A3010 860 76 200 060/06 RMK AO2
14926KSTC STC20041101113009711/01/04 11:30:31  5-MIN KSTC 011730Z AUTO 05007KT 10SM CLR 08/04 A3010 860 73 300 050/07 RMK AO2
14926KSTC STC20041101113509711/01/04 11:35:31  5-MIN KSTC 011735Z AUTO 07007KT 10SM CLR 08/04 A3010 860 73 300 060/07 RMK AO2
14926KSTC STC20041101114009711/01/04 11:40:31  5-MIN KSTC 011740Z AUTO 08006KT 10SM CLR 08/04 A3010 860 73 300 080/06 RMK AO2
14926KSTC STC20041101114510011/01/04 11:45:31  5-MIN KSTC 011745Z AUTO 06008KT 10SM FEW020 08/04 A3010 860 73 300 060/08 RMK AO2
14926KSTC STC20041101115013511/01/04 11:50:31  5-MIN KSTC 011750Z AUTO 06007KT 10SM FEW020 08/04 A3011 850 73 300 060/07 RMK AO2 SLP210 T00830039 10083 20028 50012
14926KSTC STC20041101115510011/01/04 11:55:31  5-MIN KSTC 011755Z AUTO 09007KT 10SM FEW020 08/04 A3010 860 73 300 080/07 RMK AO2
14926KSTC STC20041101120010011/01/04 12:00:31  5-MIN KSTC 011800Z AUTO 05008KT 10SM FEW020 08/04 A3011 850 73 300 040/08 RMK AO2
14926KSTC STC20041101120510711/01/04 12:05:31  5-MIN KSTC 011805Z AUTO 06006KT 10SM FEW020 SCT110 08/04 A3010 860 73 300 060/06 RMK AO2
14926KSTC STC20041101121012311/01/04 12:10:31  5-MIN KSTC 011810Z AUTO 06009KT 040V100 10SM FEW020 BKN110 08/04 A3010 860 73 300 060/09 040V100 RMK AO2
14926KSTC STC20041101121510711/01/04 12:15:31  5-MIN KSTC 011815Z AUTO 06007KT 10SM FEW020 BKN110 09/04 A3010 860 71 400 050/07 RMK AO2
14926KSTC STC20041101122010711/01/04 12:20:31  5-MIN KSTC 011820Z AUTO 04009KT 10SM FEW020 BKN110 09/04 A3010 860 71 400 040/09 RMK AO2
14926KSTC STC20041101122510711/01/04 12:25:31  5-MIN KSTC 011825Z AUTO 06008KT 10SM FEW020 BKN110 09/04 A3009 870 71 400 050/08 RMK AO2
14926KSTC STC20041101123010711/01/04 12:30:31  5-MIN KSTC 011830Z AUTO 03008KT 10SM FEW020 OVC110 09/04 A3009 870 71 400 030/08 RMK AO2
14926KSTC STC20041101123510711/01/04 12:35:31  5-MIN KSTC 011835Z AUTO 04007KT 10SM FEW020 OVC110 09/04 A3009 870 71 400 040/07 RMK AO2
14926KSTC STC20041101124010711/01/04 12:40:31  5-MIN KSTC 011840Z AUTO 06008KT 10SM SCT022 OVC110 09/04 A3009 870 71 400 060/08 RMK AO2
14926KSTC STC20041101124512311/01/04 12:45:31  5-MIN KSTC 011845Z AUTO 06007KT 020V080 10SM SCT022 OVC110 09/04 A3010 860 71 400 060/07 020V080 RMK AO2
14926KSTC STC20041101125012411/01/04 12:50:31  5-MIN KSTC 011850Z AUTO VRB05KT 10SM BKN022 OVC110 09/04 A3010 860 73 400 VRB/05 RMK AO2 SLP206 T00890044
14926KSTC STC20041101125510711/01/04 12:55:31  5-MIN KSTC 011855Z AUTO 04007KT 10SM BKN022 OVC110 09/04 A3010 860 71 400 040/07 RMK AO2
14926KSTC STC20041101130010711/01/04 13:00:31  5-MIN KSTC 011900Z AUTO 05007KT 10SM BKN022 OVC110 09/04 A3010 860 71 400 050/07 RMK AO2
14926KSTC STC20041101130510011/01/04 13:05:31  5-MIN KSTC 011905Z AUTO 09007KT 10SM OVC022 09/04 A3010 860 73 400 080/07 RMK AO2
14926KSTC STC20041101131010011/01/04 13:10:31  5-MIN KSTC 011910Z AUTO 07008KT 10SM OVC024 09/04 A3010 860 71 400 060/08 RMK AO2
14926KSTC STC20041101131510011/01/04 13:15:31  5-MIN KSTC 011915Z AUTO 06007KT 10SM OVC024 09/04 A3010 860 71 400 060/07 RMK AO2
14926KSTC STC20041101132010711/01/04 13:20:31  5-MIN KSTC 011920Z AUTO 04008KT 10SM BKN026 OVC030 09/04 A3010 860 71 400 040/08 RMK AO2
14926KSTC STC20041101132510011/01/04 13:25:31  5-MIN KSTC 011925Z AUTO 04007KT 10SM OVC026 09/04 A3010 860 71 400 040/07 RMK AO2
14926KSTC STC20041101133010711/01/04 13:30:31  5-MIN KSTC 011930Z AUTO 05008KT 10SM BKN026 OVC030 09/04 A3010 860 71 400 050/08 RMK AO2
14926KSTC STC20041101133510011/01/04 13:35:31  5-MIN KSTC 011935Z AUTO 06007KT 10SM OVC028 09/04 A3010 860 71 400 060/07 RMK AO2
14926KSTC STC20041101134010711/01/04 13:40:31  5-MIN KSTC 011940Z AUTO 05007KT 10SM BKN026 OVC031 09/04 A3010 860 71 400 050/07 RMK AO2
14926KSTC STC20041101134510011/01/04 13:45:31  5-MIN KSTC 011945Z AUTO 04006KT 10SM OVC028 09/04 A3010 860 71 400 030/06 RMK AO2
14926KSTC STC20041101135011711/01/04 13:50:31  5-MIN KSTC 011950Z AUTO 05006KT 10SM OVC030 09/04 A3010 860 71 400 040/06 RMK AO2 SLP208 T00890039
14926KSTC STC20041101135510011/01/04 13:55:31  5-MIN KSTC 011955Z AUTO 05007KT 10SM OVC030 09/04 A3010 860 73 400 050/07 RMK AO2
14926KSTC STC20041101140010011/01/04 14:00:31  5-MIN KSTC 012000Z AUTO 06003KT 10SM OVC028 09/04 A3010 860 71 400 060/03 RMK AO2
14926KSTC STC20041101140510011/01/04 14:05:31  5-MIN KSTC 012005Z AUTO 08006KT 10SM OVC030 09/04 A3010 860 73 400 080/06 RMK AO2
14926KSTC STC20041101141010711/01/04 14:10:31  5-MIN KSTC 012010Z AUTO 09006KT 10SM BKN028 OVC033 09/04 A3010 860 71 400 090/06 RMK AO2
14926KSTC STC20041101141510011/01/04 14:15:31  5-MIN KSTC 012015Z AUTO 08006KT 10SM OVC028 09/04 A3010 860 71 400 080/06 RMK AO2
14926KSTC STC20041101142010711/01/04 14:20:31  5-MIN KSTC 012020Z AUTO 09005KT 10SM BKN026 OVC032 09/04 A3010 860 71 400 090/05 RMK AO2
14926KSTC STC20041101142510711/01/04 14:25:31  5-MIN KSTC 012025Z AUTO 10006KT 10SM BKN026 OVC032 09/04 A3010 860 71 400 100/06 RMK AO2
14926KSTC STC20041101143010711/01/04 14:30:31  5-MIN KSTC 012030Z AUTO 10005KT 10SM FEW024 OVC032 09/04 A3010 860 71 400 100/05 RMK AO2
14926KSTC STC20041101143510711/01/04 14:35:31  5-MIN KSTC 012035Z AUTO 11005KT 10SM FEW024 OVC030 09/04 A3010 860 71 400 110/05 RMK AO2
14926KSTC STC20041101144010711/01/04 14:40:31  5-MIN KSTC 012040Z AUTO 10006KT 10SM FEW024 OVC030 09/04 A3011 850 71 400 090/06 RMK AO2
14926KSTC STC20041101144510711/01/04 14:45:31  5-MIN KSTC 012045Z AUTO 10004KT 10SM FEW024 OVC030 09/04 A3011 850 71 400 100/04 RMK AO2
14926KSTC STC20041101145012311/01/04 14:50:31  5-MIN KSTC 012050Z AUTO 09005KT 10SM OVC030 09/04 A3011 850 71 400 090/05 RMK AO2 SLP212 T00890039 58007
14926KSTC STC20041101145510011/01/04 14:55:31  5-MIN KSTC 012055Z AUTO 10005KT 10SM OVC030 09/04 A3011 850 71 400 100/05 RMK AO2
14926KSTC STC20041101150010011/01/04 15:00:31  5-MIN KSTC 012100Z AUTO 10006KT 10SM OVC030 09/04 A3011 850 71 400 090/06 RMK AO2
14926KSTC STC20041101150510011/01/04 15:05:31  5-MIN KSTC 012105Z AUTO 09004KT 10SM OVC030 09/04 A3011 850 71 400 090/04 RMK AO2
14926KSTC STC20041101151010011/01/04 15:10:31  5-MIN KSTC 012110Z AUTO 08005KT 10SM OVC030 09/03 A3012 840 68 400 080/05 RMK AO2
14926KSTC STC20041101151510011/01/04 15:15:31  5-MIN KSTC 012115Z AUTO 10005KT 10SM OVC028 09/04 A3012 840 71 400 090/05 RMK AO2
14926KSTC STC20041101152010011/01/04 15:20:31  5-MIN KSTC 012120Z AUTO 09004KT 10SM OVC028 09/04 A3012 840 71 300 090/04 RMK AO2
14926KSTC STC20041101152510011/01/04 15:25:31  5-MIN KSTC 012125Z AUTO VRB03KT 10SM OVC028 09/04 A3012 840 71 300 VRB/03 RMK AO2
14926KSTC STC20041101153010011/01/04 15:30:31  5-MIN KSTC 012130Z AUTO 08003KT 10SM OVC028 09/04 A3012 840 71 300 080/03 RMK AO2
14926KSTC STC20041101153510011/01/04 15:35:31  5-MIN KSTC 012135Z AUTO 06003KT 10SM OVC028 09/04 A3012 840 71 400 060/03 RMK AO2
14926KSTC STC20041101154010011/01/04 15:40:31  5-MIN KSTC 012140Z AUTO 06004KT 10SM OVC028 09/03 A3012 840 68 400 050/04 RMK AO2
14926KSTC STC20041101154510011/01/04 15:45:31  5-MIN KSTC 012145Z AUTO 05004KT 10SM OVC028 09/04 A3012 840 71 400 050/04 RMK AO2
14926KSTC STC20041101155011711/01/04 15:50:31  5-MIN KSTC 012150Z AUTO 04003KT 10SM OVC028 09/04 A3012 840 71 300 040/03 RMK AO2 SLP216 T00890039
14926KSTC STC20041101155510011/01/04 15:55:31  5-MIN KSTC 012155Z AUTO 05003KT 10SM OVC028 09/04 A3012 840 71 300 050/03 RMK AO2
14926KSTC STC20041101160010011/01/04 16:00:31  5-MIN KSTC 012200Z AUTO 00000KT 10SM OVC028 09/04 A3012 840 71 300 000/00 RMK AO2
14926KSTC STC20041101160510011/01/04 16:05:31  5-MIN KSTC 012205Z AUTO VRB03KT 10SM OVC028 09/04 A3013 840 71 300 VRB/03 RMK AO2
14926KSTC STC20041101161010011/01/04 16:10:31  5-MIN KSTC 012210Z AUTO 00000KT 10SM OVC030 09/04 A3013 830 71 300 000/00 RMK AO2
14926KSTC STC20041101161510011/01/04 16:15:31  5-MIN KSTC 012215Z AUTO 00000KT 10SM OVC030 08/04 A3013 830 73 300 000/00 RMK AO2
14926KSTC STC20041101162010011/01/04 16:20:31  5-MIN KSTC 012220Z AUTO 07003KT 10SM OVC030 09/04 A3013 830 71 300 070/03 RMK AO2
14926KSTC STC20041101162510011/01/04 16:25:31  5-MIN KSTC 012225Z AUTO 00000KT 10SM OVC030 08/04 A3013 830 73 300 000/00 RMK AO2
14926KSTC STC20041101163010011/01/04 16:30:31  5-MIN KSTC 012230Z AUTO 00000KT 10SM OVC030 08/04 A3013 830 73 300 000/00 RMK AO2
14926KSTC STC20041101163510011/01/04 16:35:31  5-MIN KSTC 012235Z AUTO 00000KT 10SM OVC030 08/04 A3013 830 73 300 000/00 RMK AO2
14926KSTC STC20041101164010011/01/04 16:40:31  5-MIN KSTC 012240Z AUTO 00000KT 10SM OVC030 08/04 A3013 830 73 300 000/00 RMK AO2
14926KSTC STC20041101164510011/01/04 16:45:31  5-MIN KSTC 012245Z AUTO 00000KT 10SM OVC030 08/04 A3014 830 73 300 000/00 RMK AO2
14926KSTC STC20041101165011711/01/04 16:50:31  5-MIN KSTC 012250Z AUTO 00000KT 10SM OVC032 08/04 A3014 820 73 300 000/00 RMK AO2 SLP223 T00830039
14926KSTC STC20041101165510011/01/04 16:55:31  5-MIN KSTC 012255Z AUTO 00000KT 10SM OVC032 08/04 A3014 820 76 300 000/00 RMK AO2
14926KSTC STC20041101170010011/01/04 17:00:31  5-MIN KSTC 012300Z AUTO 35003KT 10SM OVC032 08/04 A3014 830 79 200 350/03 RMK AO2
14926KSTC STC20041101170510011/01/04 17:05:31  5-MIN KSTC 012305Z AUTO 00000KT 10SM OVC030 08/04 A3014 820 79 200 000/00 RMK AO2
14926KSTC STC20041101171010011/01/04 17:10:31  5-MIN KSTC 012310Z AUTO 00000KT 10SM OVC030 08/04 A3014 830 79 200 000/00 RMK AO2
14926KSTC STC20041101171510711/01/04 17:15:31  5-MIN KSTC 012315Z AUTO 00000KT 10SM BKN030 OVC120 08/04 A3014 820 79 200 000/00 RMK AO2
14926KSTC STC20041101172010711/01/04 17:20:31  5-MIN KSTC 012320Z AUTO 00000KT 10SM BKN030 OVC120 08/04 A3015 820 79 200 000/00 RMK AO2
14926KSTC STC20041101172511411/01/04 17:25:31  5-MIN KSTC 012325Z AUTO 00000KT 10SM FEW026 SCT030 OVC110 08/04 A3015 820 79 200 000/00 RMK AO2
14926KSTC STC20041101173011411/01/04 17:30:31  5-MIN KSTC 012330Z AUTO 00000KT 10SM FEW030 SCT035 OVC110 08/04 A3015 810 79 200 000/00 RMK AO2
14926KSTC STC20041101173510711/01/04 17:35:31  5-MIN KSTC 012335Z AUTO 00000KT 10SM BKN035 OVC110 08/04 A3015 810 79 200 000/00 RMK AO2
14926KSTC STC20041101174010711/01/04 17:40:31  5-MIN KSTC 012340Z AUTO 00000KT 10SM BKN035 OVC110 07/05 A3015 820 86 100 000/00 RMK AO2
14926KSTC STC20041101174510711/01/04 17:45:31  5-MIN KSTC 012345Z AUTO 00000KT 10SM BKN035 OVC110 07/04 A3015 810 82 100 000/00 RMK AO2
14926KSTC STC20041101175014211/01/04 17:50:31  5-MIN KSTC 012350Z AUTO 35003KT 10SM BKN035 OVC110 07/04 A3015 810 82 100 350/03 RMK AO2 SLP227 T00720044 10089 20072 53001
14926KSTC STC20041101175510011/01/04 17:55:31  5-MIN KSTC 012355Z AUTO 35003KT 10SM OVC035 07/04 A3015 810 82 100 350/03 RMK AO2
14926KSTC STC20041101181010011/01/04 18:10:31  5-MIN KSTC 020010Z AUTO 00000KT 10SM OVC035 08/04 A3015 810 79 200 000/00 RMK AO2
14926KSTC STC20041101181510011/01/04 18:15:31  5-MIN KSTC 020015Z AUTO 00000KT 10SM BKN035 08/04 A3015 810 79 200 000/00 RMK AO2
14926KSTC STC20041101182010011/01/04 18:20:31  5-MIN KSTC 020020Z AUTO 00000KT 10SM BKN035 07/05 A3015 810 86 100 000/00 RMK AO2
14926KSTC STC20041101182510711/01/04 18:25:31  5-MIN KSTC 020025Z AUTO 00000KT 10SM SCT033 BKN120 07/05 A3016 810 86 100 000/00 RMK AO2
14926KSTC STC20041101183010511/01/04 18:30:31  5-MIN KSTC 020030Z AUTO 00000KT 10SM SCT033 BKN110 07/05 A3016 810 89 0 000/00 RMK AO2
14926KSTC STC20041101183510511/01/04 18:35:31  5-MIN KSTC 020035Z AUTO 00000KT 10SM SCT035 BKN110 07/05 A3016 810 89 0 000/00 RMK AO2
14926KSTC STC20041101184010511/01/04 18:40:31  5-MIN KSTC 020040Z AUTO 00000KT 10SM FEW035 SCT120 07/06 A3016 810 93 0 000/00 RMK AO2
14926KSTC STC20041101184510511/01/04 18:45:31  5-MIN KSTC 020045Z AUTO 00000KT 10SM FEW035 SCT120 07/06 A3016 810 93 0 000/00 RMK AO2
14926KSTC STC20041101185012211/01/04 18:50:31  5-MIN KSTC 020050Z AUTO 00000KT 10SM FEW035 SCT120 07/06 A3016 810 93 0 000/00 RMK AO2 SLP229 T00670056
14926KSTC STC20041101185510511/01/04 18:55:31  5-MIN KSTC 020055Z AUTO 00000KT 10SM FEW035 SCT120 07/05 A3016 810 89 0 000/00 RMK AO2
14926KSTC STC20041101190009811/01/04 19:00:31  5-MIN KSTC 020100Z AUTO 00000KT 10SM SCT120 07/04 A3016 810 86 0 000/00 RMK AO2
14926KSTC STC20041101190509811/01/04 19:05:31  5-MIN KSTC 020105Z AUTO 00000KT 10SM SCT120 07/04 A3015 810 86 0 000/00 RMK AO2
14926KSTC STC20041101191009811/01/04 19:10:31  5-MIN KSTC 020110Z AUTO 00000KT 10SM SCT120 06/04 A3015 810 89 0 000/00 RMK AO2
14926KSTC STC20041101191509811/01/04 19:15:31  5-MIN KSTC 020115Z AUTO 00000KT 10SM FEW120 06/04 A3015 810 89 0 000/00 RMK AO2
14926KSTC STC20041101192009811/01/04 19:20:31  5-MIN KSTC 020120Z AUTO 00000KT 10SM FEW120 06/04 A3016 810 89 0 000/00 RMK AO2
14926KSTC STC20041101192509811/01/04 19:25:31  5-MIN KSTC 020125Z AUTO 00000KT 10SM FEW120 07/04 A3016 810 86 0 000/00 RMK AO2
14926KSTC STC20041101193009811/01/04 19:30:31  5-MIN KSTC 020130Z AUTO 33003KT 10SM FEW120 06/04 A3016 810 89 0 330/03 RMK AO2
14926KSTC STC20041101193509511/01/04 19:35:31  5-MIN KSTC 020135Z AUTO 34003KT 10SM CLR 06/04 A3016 810 89 0 340/03 RMK AO2
14926KSTC STC20041101194009811/01/04 19:40:31  5-MIN KSTC 020140Z AUTO 34003KT 10SM FEW090 06/04 A3016 810 92 0 340/03 RMK AO2
14926KSTC STC20041101194509811/01/04 19:45:31  5-MIN KSTC 020145Z AUTO 00000KT 10SM SCT090 06/04 A3016 810 92 0 000/00 RMK AO2
14926KSTC STC20041101195011511/01/04 19:50:31  5-MIN KSTC 020150Z AUTO 00000KT 10SM SCT090 06/04 A3016 810 89 0 000/00 RMK AO2 SLP229 T00610044
14926KSTC STC20041101195509811/01/04 19:55:31  5-MIN KSTC 020155Z AUTO 00000KT 10SM SCT090 06/04 A3016 810 92 0 000/00 RMK AO2
14926KSTC STC20041101200009811/01/04 20:00:31  5-MIN KSTC 020200Z AUTO 00000KT 10SM BKN090 06/04 A3016 810 92 0 000/00 RMK AO2
14926KSTC STC20041101200509811/01/04 20:05:31  5-MIN KSTC 020205Z AUTO 32003KT 10SM BKN090 06/04 A3016 810 92 0 320/03 RMK AO2
14926KSTC STC20041101201009811/01/04 20:10:31  5-MIN KSTC 020210Z AUTO 31003KT 10SM BKN090 06/04 A3016 810 92 0 310/03 RMK AO2
14926KSTC STC20041101201509811/01/04 20:15:31  5-MIN KSTC 020215Z AUTO 31003KT 10SM BKN090 06/04 A3016 810 92 0 310/03 RMK AO2
14926KSTC STC20041101202009811/01/04 20:20:31  5-MIN KSTC 020220Z AUTO 30003KT 10SM OVC090 06/04 A3016 810 92 0 300/03 RMK AO2
14926KSTC STC20041101202509811/01/04 20:25:31  5-MIN KSTC 020225Z AUTO 00000KT 10SM OVC090 06/04 A3016 810 92 0 000/00 RMK AO2
14926KSTC STC20041101203009811/01/04 20:30:31  5-MIN KSTC 020230Z AUTO 00000KT 10SM OVC090 06/04 A3016 810 92 0 000/00 RMK AO2
14926KSTC STC20041101203509811/01/04 20:35:31  5-MIN KSTC 020235Z AUTO 00000KT 10SM OVC090 06/04 A3016 810 92 0 000/00 RMK AO2
14926KSTC STC20041101204010511/01/04 20:40:31  5-MIN KSTC 020240Z AUTO 30003KT 10SM FEW040 OVC090 06/04 A3016 810 92 0 290/03 RMK AO2
14926KSTC STC20041101204510511/01/04 20:45:31  5-MIN KSTC 020245Z AUTO 29003KT 10SM SCT040 OVC090 06/04 A3016 810 92 0 280/03 RMK AO2
14926KSTC STC20041101205012811/01/04 20:50:31  5-MIN KSTC 020250Z AUTO 00000KT 10SM BKN040 OVC090 06/04 A3016 810 92 0 000/00 RMK AO2 SLP230 T00560044 52014
14926KSTC STC20041101205510811/01/04 20:55:31  5-MIN KSTC 020255Z AUTO 00000KT 10SM BKN040 OVC095 06/04 A3016 810 92 -100 000/00 RMK AO2
14926KSTC STC20041101210010811/01/04 21:00:31  5-MIN KSTC 020300Z AUTO 00000KT 10SM BKN040 OVC095 06/04 A3016 800 92 -100 000/00 RMK AO2
14926KSTC STC20041101210510111/01/04 21:05:31  5-MIN KSTC 020305Z AUTO 00000KT 10SM OVC040 06/04 A3016 800 92 -100 000/00 RMK AO2
14926KSTC STC20041101211009811/01/04 21:10:31  5-MIN KSTC 020310Z AUTO 00000KT 10SM OVC040 06/04 A3016 800 89 0 000/00 RMK AO2
14926KSTC STC20041101211509811/01/04 21:15:31  5-MIN KSTC 020315Z AUTO 00000KT 10SM OVC040 06/04 A3016 800 89 0 000/00 RMK AO2
14926KSTC STC20041101212009811/01/04 21:20:31  5-MIN KSTC 020320Z AUTO 31004KT 10SM OVC040 06/04 A3017 800 89 0 310/04 RMK AO2
14926KSTC STC20041101212509811/01/04 21:25:31  5-MIN KSTC 020325Z AUTO 31004KT 10SM OVC040 06/04 A3017 800 89 0 310/04 RMK AO2
14926KSTC STC20041101213009811/01/04 21:30:31  5-MIN KSTC 020330Z AUTO 30004KT 10SM OVC038 06/04 A3017 800 89 0 300/04 RMK AO2
14926KSTC STC20041101213509811/01/04 21:35:31  5-MIN KSTC 020335Z AUTO 30004KT 10SM OVC036 06/04 A3017 800 89 0 300/04 RMK AO2
14926KSTC STC20041101214009811/01/04 21:40:31  5-MIN KSTC 020340Z AUTO 30004KT 10SM OVC036 06/04 A3017 800 89 0 300/04 RMK AO2
14926KSTC STC20041101214509811/01/04 21:45:31  5-MIN KSTC 020345Z AUTO 31004KT 10SM OVC038 06/04 A3017 800 89 0 300/04 RMK AO2
14926KSTC STC20041101215011511/01/04 21:50:31  5-MIN KSTC 020350Z AUTO 31005KT 10SM OVC038 06/04 A3017 800 89 0 310/05 RMK AO2 SLP231 T00610044
14926KSTC STC20041101215509811/01/04 21:55:31  5-MIN KSTC 020355Z AUTO 32006KT 10SM OVC038 07/04 A3017 800 86 0 310/06 RMK AO2
14926KSTC STC20041101220009811/01/04 22:00:31  5-MIN KSTC 020400Z AUTO 32006KT 10SM OVC040 06/04 A3017 800 89 0 320/06 RMK AO2
14926KSTC STC20041101220509811/01/04 22:05:31  5-MIN KSTC 020405Z AUTO 33005KT 10SM OVC040 07/04 A3017 800 86 0 330/05 RMK AO2
14926KSTC STC20041101221009811/01/04 22:10:31  5-MIN KSTC 020410Z AUTO 34007KT 10SM OVC042 07/04 A3016 800 86 0 330/07 RMK AO2
14926KSTC STC20041101221509811/01/04 22:15:31  5-MIN KSTC 020415Z AUTO 33006KT 10SM OVC044 07/04 A3016 800 86 0 330/06 RMK AO2
14926KSTC STC20041101222009811/01/04 22:20:31  5-MIN KSTC 020420Z AUTO 33006KT 10SM OVC044 07/04 A3017 800 86 0 330/06 RMK AO2
14926KSTC STC20041101222509811/01/04 22:25:31  5-MIN KSTC 020425Z AUTO 33006KT 10SM OVC044 07/04 A3017 800 86 0 330/06 RMK AO2
14926KSTC STC20041101223009811/01/04 22:30:31  5-MIN KSTC 020430Z AUTO 33007KT 10SM OVC044 07/04 A3016 800 86 0 330/07 RMK AO2
14926KSTC STC20041101223509811/01/04 22:35:31  5-MIN KSTC 020435Z AUTO 33005KT 10SM OVC044 07/04 A3016 800 86 0 330/05 RMK AO2
14926KSTC STC20041101224009711/01/04 22:40:31  5-MIN KSTC 020440Z AUTO 33006KT 9SM OVC046 07/04 A3016 800 86 0 330/06 RMK AO2
14926KSTC STC20041101224509711/01/04 22:45:31  5-MIN KSTC 020445Z AUTO 33005KT 9SM OVC046 07/04 A3016 800 86 0 330/05 RMK AO2
14926KSTC STC20041101225011411/01/04 22:50:31  5-MIN KSTC 020450Z AUTO 33006KT 9SM OVC048 07/04 A3016 800 86 0 320/06 RMK AO2 SLP229 T00670044
14926KSTC STC20041101225510411/01/04 22:55:31  5-MIN KSTC 020455Z AUTO 32006KT 9SM BKN050 OVC075 06/04 A3016 800 89 0 320/06 RMK AO2
14926KSTC STC20041101230012011/01/04 23:00:31  5-MIN KSTC 020500Z AUTO 33006KT 9SM -RA BKN055 OVC075 06/04 A3016 800 89 0 320/06 RMK AO2 RAB00 P0000
14926KSTC STC20041101230511311/01/04 23:05:31  5-MIN KSTC 020505Z AUTO 33007KT 9SM -RA OVC055 06/04 A3016 800 89 0 320/07 RMK AO2 RAB00 P0000
14926KSTC STC20041101231011311/01/04 23:10:31  5-MIN KSTC 020510Z AUTO 33006KT 9SM -RA OVC055 06/04 A3016 800 89 0 330/06 RMK AO2 RAB00 P0000
14926KSTC STC20041101231511311/01/04 23:15:31  5-MIN KSTC 020515Z AUTO 33007KT 9SM -RA OVC055 06/04 A3016 810 89 0 330/07 RMK AO2 RAB00 P0000
14926KSTC STC20041101232011311/01/04 23:20:31  5-MIN KSTC 020520Z AUTO 34007KT 9SM -RA OVC055 06/04 A3016 800 89 0 330/07 RMK AO2 RAB00 P0000
14926KSTC STC20041101232512011/01/04 23:25:31  5-MIN KSTC 020525Z AUTO 34007KT 9SM -RA BKN050 OVC065 06/04 A3016 800 89 0 330/07 RMK AO2 RAB00 P0000
14926KSTC STC20041101233012011/01/04 23:30:31  5-MIN KSTC 020530Z AUTO 33007KT 9SM -RA BKN050 OVC065 06/04 A3016 800 89 0 330/07 RMK AO2 RAB00 P0000
14926KSTC STC20041101233512011/01/04 23:35:31  5-MIN KSTC 020535Z AUTO 34007KT 9SM -RA BKN047 OVC065 06/04 A3016 800 89 0 340/07 RMK AO2 RAB00 P0000
14926KSTC STC20041101234012011/01/04 23:40:31  5-MIN KSTC 020540Z AUTO 34006KT 9SM -RA BKN047 OVC060 06/04 A3016 800 89 0 340/06 RMK AO2 RAB00 P0000
14926KSTC STC20041101234512011/01/04 23:45:31  5-MIN KSTC 020545Z AUTO 34006KT 9SM -RA BKN045 OVC055 06/04 A3016 800 89 0 340/06 RMK AO2 RAB00 P0000
14926KSTC STC20041101235017111/01/04 23:50:31  5-MIN KSTC 020550Z AUTO 34006KT 9SM -RA BKN043 OVC055 06/04 A3016 800 89 0 330/06 RMK AO2 RAB00 SLP229 P0000 60000 T00610044 10078 20056 400890022 51002
14926KSTC STC20041101235511411/01/04 23:55:31  5-MIN KSTC 020555Z AUTO 33006KT 9SM -RA BKN043 OVC055 06/04 A3016 800 89 0 330/06 RMK AO2 P0000
14926KSTC STC20041102000011411/02/04 00:00:32  5-MIN KSTC 020600Z AUTO 33005KT 8SM -RA BKN041 OVC055 06/04 A3016 800 89 0 330/05 RMK AO2 P0000
14926KSTC STC20041102000511411/02/04 00:05:31  5-MIN KSTC 020605Z AUTO 33006KT 8SM -RA BKN041 OVC055 06/04 A3017 800 89 0 330/06 RMK AO2 P0000
14926KSTC STC20041102001012411/02/04 00:10:31  5-MIN KSTC 020610Z AUTO 33005KT 8SM -RA BKN037 BKN044 OVC055 06/04 A3017 800 92 -100 320/05 RMK AO2 P0000
14926KSTC STC20041102001511711/02/04 00:15:31  5-MIN KSTC 020615Z AUTO 33006KT 7SM -RA BKN037 OVC044 06/05 A3017 800 96 -100 320/06 RMK AO2 P0000
14926KSTC STC20041102002011011/02/04 00:20:31  5-MIN KSTC 020620Z AUTO 32006KT 7SM -RA OVC042 06/05 A3017 800 96 -100 320/06 RMK AO2 P0000
14926KSTC STC20041102002511711/02/04 00:25:31  5-MIN KSTC 020625Z AUTO 33007KT 7SM -RA BKN037 OVC045 06/05 A3017 800 96 -100 320/07 RMK AO2 P0000
14926KSTC STC20041102003011711/02/04 00:30:31  5-MIN KSTC 020630Z AUTO 32006KT 7SM -RA BKN033 OVC045 06/05 A3017 800 96 -100 320/06 RMK AO2 P0000
14926KSTC STC20041102003512011/02/04 00:35:31  5-MIN KSTC 020635Z AUTO 33006KT 6SM -RA BR BKN033 OVC043 06/05 A3017 800 96 -100 320/06 RMK AO2 P0000
14926KSTC STC20041102004012011/02/04 00:40:31  5-MIN KSTC 020640Z AUTO 33005KT 6SM -RA BR BKN030 OVC042 06/05 A3017 800 96 -100 320/05 RMK AO2 P0001
14926KSTC STC20041102004511311/02/04 00:45:31  5-MIN KSTC 020645Z AUTO 32006KT 6SM -RA BR OVC032 06/05 A3017 800 96 -100 320/06 RMK AO2 P0001
14926KSTC STC20041102005013711/02/04 00:50:31  5-MIN KSTC 020650Z AUTO 32005KT 6SM -RA BR BKN032 OVC038 06/05 A3017 800 96 -100 320/05 RMK AO2 SLP232 P0001 T00560050
14926KSTC STC20041102005511311/02/04 00:55:31  5-MIN KSTC 020655Z AUTO 32005KT 6SM -RA BR OVC032 06/05 A3017 790 96 -100 320/05 RMK AO2 P0000
14926KSTC STC20041102010011311/02/04 01:00:31  5-MIN KSTC 020700Z AUTO 32005KT 5SM -RA BR OVC034 06/05 A3017 790 96 -100 320/05 RMK AO2 P0000
14926KSTC STC20041102010511311/02/04 01:05:31  5-MIN KSTC 020705Z AUTO 32005KT 5SM -RA BR OVC034 06/05 A3017 790 96 -100 320/05 RMK AO2 P0000
14926KSTC STC20041102011011311/02/04 01:10:31  5-MIN KSTC 020710Z AUTO 32006KT 5SM -RA BR OVC034 06/05 A3017 790 96 -100 320/06 RMK AO2 P0000
14926KSTC STC20041102011511311/02/04 01:15:31  5-MIN KSTC 020715Z AUTO 33005KT 5SM -RA BR OVC034 06/05 A3017 790 96 -100 320/05 RMK AO2 P0000
14926KSTC STC20041102012011311/02/04 01:20:31  5-MIN KSTC 020720Z AUTO 32005KT 5SM -RA BR OVC034 06/05 A3017 790 96 -100 320/05 RMK AO2 P0000
14926KSTC STC20041102012511311/02/04 01:25:31  5-MIN KSTC 020725Z AUTO 32005KT 5SM -RA BR OVC036 06/05 A3017 790 96 -100 320/05 RMK AO2 P0001
14926KSTC STC20041102013012011/02/04 01:30:31  5-MIN KSTC 020730Z AUTO 33005KT 5SM -RA BR BKN036 OVC043 06/05 A3018 790 96 -100 320/05 RMK AO2 P0001
14926KSTC STC20041102013512711/02/04 01:35:31  5-MIN KSTC 020735Z AUTO 33005KT 5SM -RA BR FEW023 BKN034 OVC045 06/05 A3018 790 96 -100 320/05 RMK AO2 P0001
14926KSTC STC20041102014012711/02/04 01:40:31  5-MIN KSTC 020740Z AUTO 33005KT 5SM -RA BR FEW023 BKN036 OVC045 06/05 A3017 790 96 -100 320/05 RMK AO2 P0001
14926KSTC STC20041102014512011/02/04 01:45:31  5-MIN KSTC 020745Z AUTO 32005KT 5SM -RA BR FEW023 OVC036 06/05 A3018 790 96 -100 320/05 RMK AO2 P0001
14926KSTC STC20041102015014411/02/04 01:50:31  5-MIN KSTC 020750Z AUTO 32005KT 5SM -RA BR SCT023 BKN036 OVC045 06/05 A3018 790 96 -100 320/05 RMK AO2 SLP235 P0001 T00560050
14926KSTC STC20041102015512711/02/04 01:55:31  5-MIN KSTC 020755Z AUTO 32006KT 5SM -RA BR BKN023 BKN030 OVC045 06/05 A3018 790 96 -100 320/06 RMK AO2 P0000
14926KSTC STC20041102020012711/02/04 02:00:31  5-MIN KSTC 020800Z AUTO 32006KT 5SM -RA BR BKN023 BKN030 OVC035 06/05 A3018 790 96 -100 320/06 RMK AO2 P0000
14926KSTC STC20041102020512011/02/04 02:05:31  5-MIN KSTC 020805Z AUTO 32006KT 5SM -RA BR BKN023 OVC033 06/05 A3018 790 96 -100 320/06 RMK AO2 P0001
14926KSTC STC20041102021012011/02/04 02:10:31  5-MIN KSTC 020810Z AUTO 32006KT 5SM -RA BR BKN023 OVC033 06/05 A3018 790 96 -100 320/06 RMK AO2 P0001
14926KSTC STC20041102021511311/02/04 02:15:31  5-MIN KSTC 020815Z AUTO 32006KT 5SM -RA BR OVC023 06/05 A3018 790 96 -100 320/06 RMK AO2 P0001
14926KSTC STC20041102022011311/02/04 02:20:31  5-MIN KSTC 020820Z AUTO 33005KT 5SM -RA BR OVC023 06/05 A3018 790 96 -100 320/05 RMK AO2 P0001
14926KSTC STC20041102022511411/02/04 02:25:31  5-MIN KSTC 020825Z AUTO 32006KT 5SM -RA BR OVC023 06/06 A3018 790 100 -100 320/06 RMK AO2 P0001
14926KSTC STC20041102023011411/02/04 02:30:31  5-MIN KSTC 020830Z AUTO 32006KT 5SM -RA BR OVC025 06/06 A3018 790 100 -100 320/06 RMK AO2 P0001
14926KSTC STC20041102023512111/02/04 02:35:31  5-MIN KSTC 020835Z AUTO 32005KT 5SM -RA BR FEW016 OVC025 06/06 A3018 790 100 -100 320/05 RMK AO2 P0001
14926KSTC STC20041102024012111/02/04 02:40:31  5-MIN KSTC 020840Z AUTO 32005KT 5SM -RA BR FEW016 OVC025 06/06 A3018 790 100 -100 320/05 RMK AO2 P0001
14926KSTC STC20041102024512111/02/04 02:45:31  5-MIN KSTC 020845Z AUTO 32006KT 5SM -RA BR FEW011 OVC025 06/06 A3018 790 100 -100 320/06 RMK AO2 P0001
14926KSTC STC20041102025015011/02/04 02:50:31  5-MIN KSTC 020850Z AUTO 32006KT 5SM -RA BR FEW011 OVC024 06/06 A3017 790 100 -100 320/06 RMK AO2 SLP233 P0002 60004 T00560056 51001
14926KSTC STC20041102025512711/02/04 02:55:31  5-MIN KSTC 020855Z AUTO 32006KT 4SM -RA BR FEW009 SCT017 OVC024 06/05 A3018 790 96 -100 320/06 RMK AO2 P0000
14926KSTC STC20041102030012811/02/04 03:00:31  5-MIN KSTC 020900Z AUTO 32007KT 4SM -RA BR FEW009 SCT014 OVC022 06/06 A3018 790 100 -100 320/07 RMK AO2 P0000
14926KSTC STC20041102030512011/02/04 03:05:31  5-MIN KSTC 020905Z AUTO 32007KT 5SM -RA BR FEW009 OVC022 06/05 A3018 790 96 -100 320/07 RMK AO2 P0000
14926KSTC STC20041102031012011/02/04 03:10:31  5-MIN KSTC 020910Z AUTO 32007KT 5SM -RA BR FEW009 OVC022 06/05 A3018 790 96 -100 320/07 RMK AO2 P0000
14926KSTC STC20041102031512711/02/04 03:15:31  5-MIN KSTC 020915Z AUTO 32007KT 5SM -RA BR FEW009 SCT018 OVC026 06/05 A3018 790 96 -100 320/07 RMK AO2 P0000
14926KSTC STC20041102032012711/02/04 03:20:31  5-MIN KSTC 020920Z AUTO 33007KT 5SM -RA BR FEW009 BKN020 OVC026 06/05 A3018 790 96 -100 320/07 RMK AO2 P0000
14926KSTC STC20041102032512711/02/04 03:25:31  5-MIN KSTC 020925Z AUTO 32007KT 4SM -RA BR FEW009 BKN020 OVC026 06/05 A3018 790 96 -100 320/07 RMK AO2 P0001
14926KSTC STC20041102033012011/02/04 03:30:31  5-MIN KSTC 020930Z AUTO 32008KT 4SM -RA BR SCT017 OVC024 06/05 A3018 790 96 -100 320/08 RMK AO2 P0001
14926KSTC STC20041102033512711/02/04 03:35:31  5-MIN KSTC 020935Z AUTO 32008KT 4SM -RA BR FEW015 SCT022 OVC027 06/05 A3018 790 96 -100 320/08 RMK AO2 P0001
14926KSTC STC20041102034012711/02/04 03:40:31  5-MIN KSTC 020940Z AUTO 32008KT 4SM -RA BR FEW015 BKN021 OVC027 06/05 A3018 790 96 -100 320/08 RMK AO2 P0002
14926KSTC STC20041102034512711/02/04 03:45:31  5-MIN KSTC 020945Z AUTO 32007KT 4SM -RA BR FEW015 BKN021 OVC027 06/05 A3018 780 96 -100 320/07 RMK AO2 P0002
14926KSTC STC20041102035014411/02/04 03:50:31  5-MIN KSTC 020950Z AUTO 33007KT 4SM -RA BR FEW015 BKN021 OVC027 06/05 A3018 780 96 -100 320/07 RMK AO2 SLP236 P0002 T00560050
14926KSTC STC20041102035512711/02/04 03:55:31  5-MIN KSTC 020955Z AUTO 33007KT 4SM -RA BR FEW015 BKN023 OVC029 06/05 A3018 780 96 -100 320/07 RMK AO2 P0000
14926KSTC STC20041102040012711/02/04 04:00:31  5-MIN KSTC 021000Z AUTO 33008KT 4SM -RA BR FEW014 BKN020 OVC026 06/04 A3018 780 92 -100 330/08 RMK AO2 P0001
14926KSTC STC20041102040512711/02/04 04:05:31  5-MIN KSTC 021005Z AUTO 34007KT 5SM -RA BR FEW007 BKN020 OVC027 06/05 A3018 780 96 -100 330/07 RMK AO2 P0001
14926KSTC STC20041102041012711/02/04 04:10:31  5-MIN KSTC 021010Z AUTO 33007KT 5SM -RA BR FEW007 BKN016 OVC027 05/04 A3019 780 96 -100 330/07 RMK AO2 P0001
14926KSTC STC20041102041512711/02/04 04:15:31  5-MIN KSTC 021015Z AUTO 34007KT 5SM -RA BR SCT009 BKN015 OVC027 05/04 A3019 780 96 -100 330/07 RMK AO2 P0001
14926KSTC STC20041102042012711/02/04 04:20:31  5-MIN KSTC 021020Z AUTO 34011KT 5SM -RA BR FEW007 BKN013 OVC020 05/04 A3019 780 96 -100 330/11 RMK AO2 P0002
14926KSTC STC20041102042512711/02/04 04:25:31  5-MIN KSTC 021025Z AUTO 34010KT 5SM -RA BR FEW007 BKN013 OVC018 05/04 A3019 780 96 -200 330/10 RMK AO2 P0002
14926KSTC STC20041102043012711/02/04 04:30:31  5-MIN KSTC 021030Z AUTO 33007KT 5SM -RA BR FEW007 BKN019 OVC025 05/04 A3019 780 96 -200 330/07 RMK AO2 P0002
14926KSTC STC20041102043512711/02/04 04:35:31  5-MIN KSTC 021035Z AUTO 34008KT 5SM -RA BR SCT011 BKN019 OVC025 05/04 A3019 780 92 -100 340/08 RMK AO2 P0003
14926KSTC STC20041102044012711/02/04 04:40:31  5-MIN KSTC 021040Z AUTO 35007KT 6SM -RA BR FEW009 SCT018 OVC027 05/04 A3019 780 92 -100 340/07 RMK AO2 P0003
14926KSTC STC20041102044512411/02/04 04:45:31  5-MIN KSTC 021045Z AUTO 35009KT 7SM -RA FEW012 SCT019 OVC027 05/04 A3019 780 92 -100 350/09 RMK AO2 P0003
14926KSTC STC20041102045014111/02/04 04:50:31  5-MIN KSTC 021050Z AUTO 34008KT 7SM -RA FEW009 SCT017 OVC027 04/04 A3019 780 96 -200 340/08 RMK AO2 SLP238 P0004 T00440039
14926KSTC STC20041102045512411/02/04 04:55:31  5-MIN KSTC 021055Z AUTO 33007KT 7SM -RA SCT009 BKN017 OVC027 04/04 A3019 780 96 -200 320/07 RMK AO2 P0000
14926KSTC STC20041102050012411/02/04 05:00:31  5-MIN KSTC 021100Z AUTO 33010KT 8SM -RA SCT009 BKN017 OVC027 04/04 A3019 780 96 -200 330/10 RMK AO2 P0000
14926KSTC STC20041102050512411/02/04 05:05:31  5-MIN KSTC 021105Z AUTO 34008KT 9SM -RA FEW007 BKN017 OVC029 04/04 A3019 780 96 -200 330/08 RMK AO2 P0000
14926KSTC STC20041102051012511/02/04 05:10:31  5-MIN KSTC 021110Z AUTO 34009KT 10SM -RA SCT009 BKN017 OVC031 04/04 A3019 780 96 -200 330/09 RMK AO2 P0000
14926KSTC STC20041102051512511/02/04 05:15:31  5-MIN KSTC 021115Z AUTO 34008KT 10SM -RA SCT009 BKN017 OVC060 04/04 A3019 780 96 -200 340/08 RMK AO2 P0000
14926KSTC STC20041102052012511/02/04 05:20:31  5-MIN KSTC 021120Z AUTO 34008KT 10SM -RA SCT009 BKN017 OVC065 04/04 A3019 780 96 -200 340/08 RMK AO2 P0000
14926KSTC STC20041102052512511/02/04 05:25:31  5-MIN KSTC 021125Z AUTO 34008KT 10SM -RA SCT009 BKN017 OVC070 04/03 A3019 780 92 -200 330/08 RMK AO2 P0000
14926KSTC STC20041102053012511/02/04 05:30:31  5-MIN KSTC 021130Z AUTO 34009KT 10SM -RA BKN011 BKN017 OVC090 04/03 A3019 770 92 -200 340/09 RMK AO2 P0000
14926KSTC STC20041102053512511/02/04 05:35:31  5-MIN KSTC 021135Z AUTO 34010KT 10SM -RA SCT011 BKN049 OVC090 04/03 A3020 770 96 -300 340/10 RMK AO2 P0000
14926KSTC STC20041102054012511/02/04 05:40:31  5-MIN KSTC 021140Z AUTO 34010KT 10SM -RA FEW011 BKN049 OVC090 04/03 A3020 770 96 -300 340/10 RMK AO2 P0000
14926KSTC STC20041102054512511/02/04 05:45:31  5-MIN KSTC 021145Z AUTO 34009KT 10SM -RA FEW011 BKN044 OVC055 04/03 A3020 770 92 -300 340/09 RMK AO2 P0000
14926KSTC STC20041102055017211/02/04 05:50:31  5-MIN KSTC 021150Z AUTO 33007KT 10SM -RA FEW011 BKN040 OVC055 04/03 A3020 770 92 -300 330/07 RMK AO2 SLP243 P0000 60010 70010 T00390028 10061 20039 50003
14926KSTC STC20041102055512511/02/04 05:55:31  5-MIN KSTC 021155Z AUTO 33008KT 10SM -RA FEW011 BKN040 OVC055 04/03 A3020 770 96 -300 320/08 RMK AO2 P0000
14926KSTC STC20041102060012511/02/04 06:00:31  5-MIN KSTC 021200Z AUTO 33008KT 10SM -RA FEW013 BKN040 OVC055 04/03 A3020 770 96 -300 330/08 RMK AO2 P0000
14926KSTC STC20041102060512511/02/04 06:05:31  5-MIN KSTC 021205Z AUTO 33009KT 10SM -RA FEW009 SCT013 OVC038 04/03 A3020 760 96 -300 320/09 RMK AO2 P0000
14926KSTC STC20041102061012511/02/04 06:10:31  5-MIN KSTC 021210Z AUTO 33010KT 10SM -RA BKN013 BKN024 OVC038 04/03 A3020 760 92 -300 320/10 RMK AO2 P0000
14926KSTC STC20041102061512511/02/04 06:15:31  5-MIN KSTC 021215Z AUTO 33008KT 10SM -RA BKN013 BKN024 OVC038 04/03 A3020 770 92 -300 320/08 RMK AO2 P0000
14926KSTC STC20041102062012511/02/04 06:20:31  5-MIN KSTC 021220Z AUTO 33008KT 10SM -RA FEW009 BKN013 OVC095 04/03 A3020 770 92 -300 330/08 RMK AO2 P0000
14926KSTC STC20041102062512511/02/04 06:25:31  5-MIN KSTC 021225Z AUTO 33008KT 10SM -RA FEW009 BKN037 OVC095 04/03 A3021 760 92 -300 330/08 RMK AO2 P0000
14926KSTC STC20041102063012511/02/04 06:30:31  5-MIN KSTC 021230Z AUTO 34007KT 10SM -RA FEW009 SCT015 OVC037 04/03 A3021 760 92 -300 330/07 RMK AO2 P0000
14926KSTC STC20041102063512011/02/04 06:35:31  5-MIN KSTC 021235Z AUTO 34007KT 10SM FEW013 OVC035 04/03 A3021 760 92 -300 330/07 RMK AO2 RAE32 P0000
14926KSTC STC20041102064012011/02/04 06:40:31  5-MIN KSTC 021240Z AUTO 33008KT 10SM FEW013 OVC035 04/03 A3021 760 92 -300 330/08 RMK AO2 RAE32 P0000
14926KSTC STC20041102064512011/02/04 06:45:31  5-MIN KSTC 021245Z AUTO 32008KT 10SM FEW013 OVC035 04/03 A3022 750 92 -300 320/08 RMK AO2 RAE32 P0000
14926KSTC STC20041102065013711/02/04 06:50:31  5-MIN KSTC 021250Z AUTO 32009KT 10SM SCT013 OVC035 04/03 A3022 750 92 -300 320/09 RMK AO2 RAE32 SLP249 P0000 T00390028
14926KSTC STC20041102065510811/02/04 06:55:31  5-MIN KSTC 021255Z AUTO 32007KT 10SM SCT013 OVC035 04/03 A3022 750 92 -300 320/07 RMK AO2
14926KSTC STC20041102070011511/02/04 07:00:31  5-MIN KSTC 021300Z AUTO 32007KT 10SM SCT013 BKN019 OVC035 04/03 A3022 750 92 -300 320/07 RMK AO2
14926KSTC STC20041102070511511/02/04 07:05:31  5-MIN KSTC 021305Z AUTO 32011KT 10SM SCT013 BKN019 OVC035 04/03 A3022 750 92 -300 320/11 RMK AO2
14926KSTC STC20041102071011511/02/04 07:10:31  5-MIN KSTC 021310Z AUTO 32009KT 10SM SCT013 BKN021 OVC035 04/03 A3022 750 92 -300 320/09 RMK AO2
14926KSTC STC20041102071510811/02/04 07:15:31  5-MIN KSTC 021315Z AUTO 32009KT 10SM FEW013 OVC021 04/03 A3022 750 92 -300 320/09 RMK AO2
14926KSTC STC20041102072010811/02/04 07:20:31  5-MIN KSTC 021320Z AUTO 32009KT 10SM FEW013 OVC021 04/03 A3023 740 92 -300 320/09 RMK AO2
14926KSTC STC20041102072511511/02/04 07:25:31  5-MIN KSTC 021325Z AUTO 32009KT 10SM FEW011 BKN018 OVC023 04/03 A3023 740 92 -300 320/09 RMK AO2
14926KSTC STC20041102073010811/02/04 07:30:31  5-MIN KSTC 021330Z AUTO 33007KT 10SM SCT015 OVC023 04/03 A3023 740 96 -300 330/07 RMK AO2
14926KSTC STC20041102073511511/02/04 07:35:31  5-MIN KSTC 021335Z AUTO 33009KT 10SM FEW010 BKN018 OVC023 04/03 A3023 740 96 -300 320/09 RMK AO2
14926KSTC STC20041102074010811/02/04 07:40:31  5-MIN KSTC 021340Z AUTO 33008KT 10SM SCT014 OVC020 04/03 A3023 740 96 -300 320/08 RMK AO2
14926KSTC STC20041102074510111/02/04 07:45:31  5-MIN KSTC 021345Z AUTO 33009KT 10SM OVC018 04/03 A3023 740 96 -300 320/09 RMK AO2
14926KSTC STC20041102075012511/02/04 07:50:31  5-MIN KSTC 021350Z AUTO 34008KT 10SM FEW014 OVC020 04/03 A3023 740 92 -300 340/08 RMK AO2 SLP255 T00390028
14926KSTC STC20041102075510811/02/04 07:55:31  5-MIN KSTC 021355Z AUTO 33009KT 10SM SCT013 OVC020 04/03 A3024 740 92 -300 330/09 RMK AO2
14926KSTC STC20041102080010811/02/04 08:00:31  5-MIN KSTC 021400Z AUTO 32008KT 10SM FEW013 OVC020 04/03 A3024 740 92 -300 320/08 RMK AO2
14926KSTC STC20041102080510111/02/04 08:05:31  5-MIN KSTC 021405Z AUTO 32010KT 10SM OVC020 04/03 A3024 730 96 -300 320/10 RMK AO2
14926KSTC STC20041102081010111/02/04 08:10:31  5-MIN KSTC 021410Z AUTO 32012KT 10SM OVC018 04/03 A3024 730 92 -300 320/12 RMK AO2
14926KSTC STC20041102081510811/02/04 08:15:31  5-MIN KSTC 021415Z AUTO 33011KT 10SM FEW013 OVC020 04/03 A3024 730 92 -300 320/11 RMK AO2
14926KSTC STC20041102082010811/02/04 08:20:31  5-MIN KSTC 021420Z AUTO 33011KT 10SM BKN020 OVC026 04/03 A3025 730 92 -400 320/11 RMK AO2
14926KSTC STC20041102082510811/02/04 08:25:31  5-MIN KSTC 021425Z AUTO 32009KT 10SM BKN020 OVC026 04/03 A3025 730 92 -400 320/09 RMK AO2
14926KSTC STC20041102083010811/02/04 08:30:31  5-MIN KSTC 021430Z AUTO 33007KT 10SM BKN020 OVC026 04/03 A3025 720 92 -400 330/07 RMK AO2
14926KSTC STC20041102083510111/02/04 08:35:31  5-MIN KSTC 021435Z AUTO 32010KT 10SM OVC023 04/03 A3025 720 92 -400 320/10 RMK AO2
14926KSTC STC20041102084010111/02/04 08:40:31  5-MIN KSTC 021440Z AUTO 33010KT 10SM OVC023 04/03 A3025 720 89 -300 330/10 RMK AO2
14926KSTC STC20041102084510111/02/04 08:45:31  5-MIN KSTC 021445Z AUTO 33011KT 10SM OVC023 04/03 A3026 720 89 -300 320/11 RMK AO2
14926KSTC STC20041102085013011/02/04 08:50:31  5-MIN KSTC 021450Z AUTO 33011KT 10SM OVC023 04/03 A3026 720 89 -300 320/11 RMK AO2 SLP264 60000 T00440028 53009
14926KSTC STC20041102085510111/02/04 08:55:31  5-MIN KSTC 021455Z AUTO 33010KT 10SM OVC023 04/03 A3026 720 89 -300 330/10 RMK AO2
14926KSTC STC20041102090010111/02/04 09:00:31  5-MIN KSTC 021500Z AUTO 34009KT 10SM OVC023 04/03 A3026 710 92 -300 330/09 RMK AO2
14926KSTC STC20041102090510111/02/04 09:05:31  5-MIN KSTC 021505Z AUTO 33010KT 10SM OVC023 04/03 A3026 710 89 -300 320/10 RMK AO2
14926KSTC STC20041102091010111/02/04 09:10:31  5-MIN KSTC 021510Z AUTO 33010KT 10SM OVC023 05/03 A3026 710 85 -200 330/10 RMK AO2
14926KSTC STC20041102091510111/02/04 09:15:31  5-MIN KSTC 021515Z AUTO 34009KT 10SM OVC023 05/03 A3026 710 85 -200 340/09 RMK AO2
14926KSTC STC20041102092010111/02/04 09:20:31  5-MIN KSTC 021520Z AUTO 34008KT 10SM OVC023 05/03 A3026 710 85 -200 330/08 RMK AO2
14926KSTC STC20041102092510811/02/04 09:25:31  5-MIN KSTC 021525Z AUTO 34008KT 10SM FEW018 OVC023 05/03 A3027 710 85 -200 340/08 RMK AO2
14926KSTC STC20041102093011411/02/04 09:30:31  5-MIN KSTC 021530Z AUTO 34008G15KT 10SM FEW015 OVC023 05/03 A3027 710 85 -200 330/08G15 RMK AO2
14926KSTC STC20041102093510811/02/04 09:35:31  5-MIN KSTC 021535Z AUTO 34010KT 10SM SCT017 OVC023 05/03 A3027 710 85 -200 340/10 RMK AO2
14926KSTC STC20041102094010811/02/04 09:40:31  5-MIN KSTC 021540Z AUTO 33009KT 10SM BKN019 OVC025 05/03 A3027 710 85 -200 330/09 RMK AO2
14926KSTC STC20041102094510111/02/04 09:45:31  5-MIN KSTC 021545Z AUTO 34009KT 10SM OVC022 05/03 A3027 710 85 -200 340/09 RMK AO2
14926KSTC STC20041102095011811/02/04 09:50:31  5-MIN KSTC 021550Z AUTO 35011KT 10SM OVC020 05/02 A3027 710 82 -200 350/11 RMK AO2 SLP265 T00500022
14926KSTC STC20041102095511411/02/04 09:55:31  5-MIN KSTC 021555Z AUTO 33011G16KT 10SM BKN020 OVC025 05/03 A3026 710 85 -200 330/11G16 RMK AO2
14926KSTC STC20041102100011411/02/04 10:00:31  5-MIN KSTC 021600Z AUTO 35009G16KT 10SM SCT017 OVC022 06/03 A3026 710 82 -200 340/09G16 RMK AO2
14926KSTC STC20041102100510111/02/04 10:05:31  5-MIN KSTC 021605Z AUTO 35009KT 10SM OVC023 06/03 A3026 710 79 -100 340/09 RMK AO2
14926KSTC STC20041102101010811/02/04 10:10:31  5-MIN KSTC 021610Z AUTO 35011KT 10SM BKN019 OVC023 06/03 A3026 710 82 -200 340/11 RMK AO2
14926KSTC STC20041102101510811/02/04 10:15:31  5-MIN KSTC 021615Z AUTO 34012KT 10SM BKN019 OVC024 06/02 A3026 710 79 -200 340/12 RMK AO2
14926KSTC STC20041102102010811/02/04 10:20:31  5-MIN KSTC 021620Z AUTO 35009KT 10SM BKN019 OVC024 06/02 A3026 710 79 -200 340/09 RMK AO2
14926KSTC STC20041102102510811/02/04 10:25:31  5-MIN KSTC 021625Z AUTO 34011KT 10SM BKN019 BKN024 06/02 A3026 710 79 -200 340/11 RMK AO2
14926KSTC STC20041102103010811/02/04 10:30:31  5-MIN KSTC 021630Z AUTO 34008KT 10SM BKN019 BKN026 06/02 A3026 710 79 -200 340/08 RMK AO2
14926KSTC STC20041102103510811/02/04 10:35:31  5-MIN KSTC 021635Z AUTO 35010KT 10SM BKN019 BKN026 06/03 A3026 710 79 -100 350/10 RMK AO2
14926KSTC STC20041102104010811/02/04 10:40:31  5-MIN KSTC 021640Z AUTO 35010KT 10SM BKN019 BKN024 06/02 A3026 710 76 -200 350/10 RMK AO2
14926KSTC STC20041102104510511/02/04 10:45:31  5-MIN KSTC 021645Z AUTO 36009KT 10SM SCT019 BKN026 07/02 A3026 710 70 0 360/09 RMK AO2
14926KSTC STC20041102105012211/02/04 10:50:31  5-MIN KSTC 021650Z AUTO 36008KT 10SM SCT019 BKN026 07/02 A3026 710 73 0 350/08 RMK AO2 SLP263 T00670022
14926KSTC STC20041102105510811/02/04 10:55:31  5-MIN KSTC 021655Z AUTO 34011KT 10SM FEW019 BKN026 06/02 A3026 710 73 -100 340/11 RMK AO2
14926KSTC STC20041102110010811/02/04 11:00:31  5-MIN KSTC 021700Z AUTO 36009KT 10SM FEW020 BKN025 06/02 A3026 710 76 -200 360/09 RMK AO2
14926KSTC STC20041102110510511/02/04 11:05:31  5-MIN KSTC 021705Z AUTO 35007KT 10SM SCT021 SCT026 07/02 A3026 710 73 0 350/07 RMK AO2
14926KSTC STC20041102111010411/02/04 11:10:31  5-MIN KSTC 021710Z AUTO 34012G16KT 10SM BKN023 07/02 A3027 710 73 0 340/12G16 RMK AO2
14926KSTC STC20041102111511411/02/04 11:15:31  5-MIN KSTC 021715Z AUTO 34009G16KT 10SM BKN023 BKN027 06/02 A3027 710 76 -100 340/09G16 RMK AO2
14926KSTC STC20041102112009811/02/04 11:20:31  5-MIN KSTC 021720Z AUTO 34012KT 10SM BKN023 07/02 A3026 710 73 0 340/12 RMK AO2
14926KSTC STC20041102112510811/02/04 11:25:31  5-MIN KSTC 021725Z AUTO 33009KT 10SM BKN023 BKN027 06/02 A3026 710 73 -100 330/09 RMK AO2
14926KSTC STC20041102113010511/02/04 11:30:31  5-MIN KSTC 021730Z AUTO 34013KT 10SM BKN023 BKN027 07/02 A3026 710 73 0 340/13 RMK AO2
14926KSTC STC20041102113512111/02/04 11:35:31  5-MIN KSTC 021735Z AUTO 36007KT 330V030 10SM BKN023 BKN027 07/02 A3026 720 70 0 360/07 330V030 RMK AO2
14926KSTC STC20041102114009811/02/04 11:40:31  5-MIN KSTC 021740Z AUTO 01010KT 10SM BKN023 07/02 A3026 720 68 0 360/10 RMK AO2
14926KSTC STC20041102114509811/02/04 11:45:31  5-MIN KSTC 021745Z AUTO 36008KT 10SM BKN023 07/02 A3026 720 68 0 360/08 RMK AO2
14926KSTC STC20041102115014611/02/04 11:50:31  5-MIN KSTC 021750Z AUTO 36010KT 10SM BKN023 BKN028 07/02 A3025 720 68 0 360/10 RMK AO2 SLP260 60000 T00720017 10072 20039 53019
14926KSTC STC20041102115510511/02/04 11:55:31  5-MIN KSTC 021755Z AUTO 01009KT 10SM BKN023 BKN028 07/01 A3025 720 65 0 360/09 RMK AO2
14926KSTC STC20041102120010011/02/04 12:00:31  5-MIN KSTC 021800Z AUTO 34010KT 10SM SCT025 08/02 A3025 720 65 100 340/10 RMK AO2
14926KSTC STC20041102120509811/02/04 12:05:31  5-MIN KSTC 021805Z AUTO 36009KT 10SM SCT025 07/02 A3025 720 68 0 360/09 RMK AO2
14926KSTC STC20041102121010011/02/04 12:10:31  5-MIN KSTC 021810Z AUTO 35006KT 10SM SCT025 08/02 A3025 720 65 100 350/06 RMK AO2
14926KSTC STC20041102121510011/02/04 12:15:31  5-MIN KSTC 021815Z AUTO 36009KT 10SM SCT025 08/01 A3025 720 62 100 360/09 RMK AO2
14926KSTC STC20041102122010011/02/04 12:20:31  5-MIN KSTC 021820Z AUTO 36009KT 10SM FEW025 08/01 A3025 720 62 100 360/09 RMK AO2
14926KSTC STC20041102122511611/02/04 12:25:31  5-MIN KSTC 021825Z AUTO 35007KT 320V030 10SM FEW025 08/01 A3025 720 62 100 350/07 320V030 RMK AO2
14926KSTC STC20041102123010011/02/04 12:30:31  5-MIN KSTC 021830Z AUTO 04006KT 10SM FEW027 08/01 A3025 720 62 100 040/06 RMK AO2
14926KSTC STC20041102123510011/02/04 12:35:31  5-MIN KSTC 021835Z AUTO 35008KT 10SM FEW027 08/02 A3025 730 63 100 350/08 RMK AO2
14926KSTC STC20041102124010011/02/04 12:40:31  5-MIN KSTC 021840Z AUTO 35007KT 10SM FEW027 08/01 A3024 730 60 100 350/07 RMK AO2
14926KSTC STC20041102124510011/02/04 12:45:31  5-MIN KSTC 021845Z AUTO 34009KT 10SM SCT027 08/01 A3024 730 60 100 330/09 RMK AO2
14926KSTC STC20041102125011711/02/04 12:50:31  5-MIN KSTC 021850Z AUTO 01007KT 10SM SCT027 08/01 A3025 730 62 100 010/07 RMK AO2 SLP258 T00780011
14926KSTC STC20041102125510011/02/04 12:55:31  5-MIN KSTC 021855Z AUTO 35005KT 10SM FEW027 08/01 A3025 730 60 100 350/05 RMK AO2
14926KSTC STC20041102130010011/02/04 13:00:31  5-MIN KSTC 021900Z AUTO 33008KT 10SM SCT029 08/01 A3024 730 60 100 330/08 RMK AO2
14926KSTC STC20041102130510011/02/04 13:05:31  5-MIN KSTC 021905Z AUTO 33009KT 10SM SCT029 08/01 A3024 730 62 100 320/09 RMK AO2
14926KSTC STC20041102131010011/02/04 13:10:31  5-MIN KSTC 021910Z AUTO 35008KT 10SM SCT029 08/02 A3025 730 65 100 340/08 RMK AO2
14926KSTC STC20041102131510011/02/04 13:15:31  5-MIN KSTC 021915Z AUTO 34007KT 10SM FEW031 08/01 A3024 730 60 100 340/07 RMK AO2
14926KSTC STC20041102132010011/02/04 13:20:31  5-MIN KSTC 021920Z AUTO 34008KT 10SM SCT031 08/01 A3024 730 58 100 340/08 RMK AO2
14926KSTC STC20041102132510011/02/04 13:25:31  5-MIN KSTC 021925Z AUTO 33007KT 10SM FEW031 08/01 A3024 730 58 100 330/07 RMK AO2
14926KSTC STC20041102133010011/02/04 13:30:31  5-MIN KSTC 021930Z AUTO 36008KT 10SM FEW031 08/01 A3024 730 60 100 360/08 RMK AO2
14926KSTC STC20041102133510011/02/04 13:35:31  5-MIN KSTC 021935Z AUTO 33006KT 10SM FEW031 08/02 A3024 730 65 100 330/06 RMK AO2
14926KSTC STC20041102134010011/02/04 13:40:31  5-MIN KSTC 021940Z AUTO 34008KT 10SM FEW031 08/01 A3024 740 60 200 340/08 RMK AO2
14926KSTC STC20041102134510011/02/04 13:45:31  5-MIN KSTC 021945Z AUTO 33006KT 10SM FEW031 08/01 A3023 740 60 100 330/06 RMK AO2
14926KSTC STC20041102135011711/02/04 13:50:31  5-MIN KSTC 021950Z AUTO 35007KT 10SM FEW031 08/01 A3023 740 58 200 350/07 RMK AO2 SLP254 T00830006
14926KSTC STC20041102135510011/02/04 13:55:31  5-MIN KSTC 021955Z AUTO 32007KT 10SM FEW031 08/01 A3023 740 60 100 310/07 RMK AO2
14926KSTC STC20041102140009711/02/04 14:00:31  5-MIN KSTC 022000Z AUTO 34008KT 10SM CLR 08/01 A3023 740 62 100 330/08 RMK AO2
14926KSTC STC20041102140509711/02/04 14:05:31  5-MIN KSTC 022005Z AUTO 33006KT 10SM CLR 08/01 A3023 740 62 100 330/06 RMK AO2
14926KSTC STC20041102141010011/02/04 14:10:31  5-MIN KSTC 022010Z AUTO 32007KT 10SM FEW031 08/01 A3023 740 60 200 310/07 RMK AO2
14926KSTC STC20041102141510011/02/04 14:15:31  5-MIN KSTC 022015Z AUTO 30008KT 10SM FEW031 08/01 A3024 740 60 200 290/08 RMK AO2
14926KSTC STC20041102142010011/02/04 14:20:31  5-MIN KSTC 022020Z AUTO 35009KT 10SM FEW031 08/02 A3023 740 63 200 340/09 RMK AO2
14926KSTC STC20041102142510011/02/04 14:25:31  5-MIN KSTC 022025Z AUTO 32008KT 10SM FEW031 08/01 A3023 740 58 200 310/08 RMK AO2
14926KSTC STC20041102143010011/02/04 14:30:31  5-MIN KSTC 022030Z AUTO 32010KT 10SM FEW031 08/01 A3024 740 60 200 310/10 RMK AO2
14926KSTC STC20041102143510011/02/04 14:35:31  5-MIN KSTC 022035Z AUTO 32006KT 10SM FEW031 08/01 A3023 740 60 200 310/06 RMK AO2
14926KSTC STC20041102144009711/02/04 14:40:31  5-MIN KSTC 022040Z AUTO 30008KT 10SM CLR 08/01 A3024 730 58 100 300/08 RMK AO2
14926KSTC STC20041102144509711/02/04 14:45:31  5-MIN KSTC 022045Z AUTO 30008KT 10SM CLR 08/01 A3024 730 58 100 300/08 RMK AO2
14926KSTC STC20041102145012011/02/04 14:50:31  5-MIN KSTC 022050Z AUTO 32007KT 10SM CLR 08/00 A3024 740 55 200 320/07 RMK AO2 SLP254 T00830000 58001
14926KSTC STC20041102145509711/02/04 14:55:31  5-MIN KSTC 022055Z AUTO 31005KT 10SM CLR 08/01 A3024 740 58 200 300/05 RMK AO2
14926KSTC STC20041102150009711/02/04 15:00:31  5-MIN KSTC 022100Z AUTO 30009KT 10SM CLR 08/01 A3024 740 58 200 290/09 RMK AO2
14926KSTC STC20041102150509711/02/04 15:05:31  5-MIN KSTC 022105Z AUTO 29008KT 10SM CLR 08/01 A3023 740 58 200 280/08 RMK AO2
14926KSTC STC20041102151009711/02/04 15:10:31  5-MIN KSTC 022110Z AUTO 30006KT 10SM CLR 08/01 A3024 730 58 100 290/06 RMK AO2
14926KSTC STC20041102151509711/02/04 15:15:31  5-MIN KSTC 022115Z AUTO 29007KT 10SM CLR 08/01 A3024 730 58 100 290/07 RMK AO2
14926KSTC STC20041102152009711/02/04 15:20:31  5-MIN KSTC 022120Z AUTO 33007KT 10SM CLR 08/01 A3024 730 58 200 330/07 RMK AO2
14926KSTC STC20041102152509711/02/04 15:25:31  5-MIN KSTC 022125Z AUTO 31006KT 10SM CLR 08/00 A3024 730 55 100 310/06 RMK AO2
14926KSTC STC20041102153009711/02/04 15:30:31  5-MIN KSTC 022130Z AUTO 32007KT 10SM CLR 08/00 A3024 730 55 100 320/07 RMK AO2
14926KSTC STC20041102153509811/02/04 15:35:31  5-MIN KSTC 022135Z AUTO 33006KT 10SM CLR 08/M01 A3024 730 55 100 330/06 RMK AO2
14926KSTC STC20041102154009711/02/04 15:40:31  5-MIN KSTC 022140Z AUTO 33005KT 10SM CLR 08/00 A3025 730 55 100 330/05 RMK AO2
14926KSTC STC20041102154509711/02/04 15:45:31  5-MIN KSTC 022145Z AUTO 34006KT 10SM CLR 08/00 A3025 730 55 100 340/06 RMK AO2
14926KSTC STC20041102155011411/02/04 15:50:31  5-MIN KSTC 022150Z AUTO 31006KT 10SM CLR 08/00 A3024 730 55 100 300/06 RMK AO2 SLP257 T00830000
14926KSTC STC20041102155509711/02/04 15:55:31  5-MIN KSTC 022155Z AUTO 32004KT 10SM CLR 08/01 A3024 730 60 100 320/04 RMK AO2
14926KSTC STC20041102160009711/02/04 16:00:31  5-MIN KSTC 022200Z AUTO 35004KT 10SM CLR 08/01 A3024 730 60 100 350/04 RMK AO2
14926KSTC STC20041102160509711/02/04 16:05:31  5-MIN KSTC 022205Z AUTO 00000KT 10SM CLR 08/00 A3024 730 58 100 000/00 RMK AO2
14926KSTC STC20041102161009711/02/04 16:10:31  5-MIN KSTC 022210Z AUTO 00000KT 10SM CLR 08/00 A3024 730 55 100 000/00 RMK AO2
14926KSTC STC20041102161509711/02/04 16:15:31  5-MIN KSTC 022215Z AUTO 00000KT 10SM CLR 08/01 A3025 730 60 100 000/00 RMK AO2
14926KSTC STC20041102162009711/02/04 16:20:31  5-MIN KSTC 022220Z AUTO 34003KT 10SM CLR 08/00 A3025 730 58 100 340/03 RMK AO2
14926KSTC STC20041102162509711/02/04 16:25:31  5-MIN KSTC 022225Z AUTO 00000KT 10SM CLR 08/00 A3025 730 58 100 000/00 RMK AO2
14926KSTC STC20041102163009711/02/04 16:30:31  5-MIN KSTC 022230Z AUTO 00000KT 10SM CLR 08/00 A3025 720 58 100 000/00 RMK AO2
14926KSTC STC20041102163509711/02/04 16:35:31  5-MIN KSTC 022235Z AUTO 00000KT 10SM CLR 08/00 A3025 720 58 100 000/00 RMK AO2
14926KSTC STC20041102164009511/02/04 16:40:31  5-MIN KSTC 022240Z AUTO 00000KT 10SM CLR 07/01 A3025 730 62 0 000/00 RMK AO2
14926KSTC STC20041102164509511/02/04 16:45:31  5-MIN KSTC 022245Z AUTO 00000KT 10SM CLR 07/02 A3025 730 70 0 000/00 RMK AO2
14926KSTC STC20041102165011511/02/04 16:50:31  5-MIN KSTC 022250Z AUTO 00000KT 10SM CLR 06/02 A3025 730 79 -100 000/00 RMK AO2 SLP260 T00560022
14926KSTC STC20041102165509811/02/04 16:55:31  5-MIN KSTC 022255Z AUTO 00000KT 10SM CLR 06/02 A3025 720 76 -200 000/00 RMK AO2
14926KSTC STC20041102170009811/02/04 17:00:31  5-MIN KSTC 022300Z AUTO 00000KT 10SM CLR 06/02 A3025 720 76 -200 000/00 RMK AO2
14926KSTC STC20041102170509811/02/04 17:05:31  5-MIN KSTC 022305Z AUTO 00000KT 10SM CLR 06/01 A3025 720 73 -200 000/00 RMK AO2
14926KSTC STC20041102171009811/02/04 17:10:31  5-MIN KSTC 022310Z AUTO 00000KT 10SM CLR 05/01 A3025 720 76 -200 000/00 RMK AO2
14926KSTC STC20041102171509811/02/04 17:15:31  5-MIN KSTC 022315Z AUTO 00000KT 10SM CLR 04/01 A3025 720 79 -300 000/00 RMK AO2
14926KSTC STC20041102172009811/02/04 17:20:31  5-MIN KSTC 022320Z AUTO 00000KT 10SM CLR 04/01 A3025 720 79 -300 000/00 RMK AO2
14926KSTC STC20041102172509811/02/04 17:25:31  5-MIN KSTC 022325Z AUTO 00000KT 10SM CLR 04/01 A3025 720 82 -400 000/00 RMK AO2
14926KSTC STC20041102173009811/02/04 17:30:31  5-MIN KSTC 022330Z AUTO 00000KT 10SM CLR 04/02 A3025 720 85 -400 000/00 RMK AO2
14926KSTC STC20041102173509811/02/04 17:35:31  5-MIN KSTC 022335Z AUTO 00000KT 10SM CLR 03/01 A3026 720 85 -400 000/00 RMK AO2
14926KSTC STC20041102174009811/02/04 17:40:31  5-MIN KSTC 022340Z AUTO 15003KT 10SM CLR 03/01 A3026 720 89 -500 150/03 RMK AO2
14926KSTC STC20041102174509811/02/04 17:45:31  5-MIN KSTC 022345Z AUTO 16003KT 10SM CLR 03/01 A3026 710 85 -400 160/03 RMK AO2
14926KSTC STC20041102175013311/02/04 17:50:31  5-MIN KSTC 022350Z AUTO 00000KT 10SM CLR 02/01 A3026 720 92 -600 000/00 RMK AO2 SLP266 T00170006 10089 20017 56006
14926KSTC STC20041102175509811/02/04 17:55:31  5-MIN KSTC 022355Z AUTO 14003KT 10SM CLR 02/01 A3026 720 92 -600 140/03 RMK AO2
14926KSTC STC20041102180009811/02/04 18:00:31  5-MIN KSTC 030000Z AUTO 00000KT 10SM CLR 02/01 A3026 710 89 -600 000/00 RMK AO2
14926KSTC STC20041102180509811/02/04 18:05:31  5-MIN KSTC 030005Z AUTO 00000KT 10SM CLR 02/00 A3026 710 89 -600 000/00 RMK AO2
14926KSTC STC20041102181009811/02/04 18:10:31  5-MIN KSTC 030010Z AUTO 00000KT 10SM CLR 02/00 A3026 710 89 -600 000/00 RMK AO2
14926KSTC STC20041102181509811/02/04 18:15:31  5-MIN KSTC 030015Z AUTO 00000KT 10SM CLR 02/00 A3026 710 85 -600 000/00 RMK AO2
14926KSTC STC20041102182009811/02/04 18:20:31  5-MIN KSTC 030020Z AUTO 00000KT 10SM CLR 02/00 A3026 710 89 -600 000/00 RMK AO2
14926KSTC STC20041102182509811/02/04 18:25:31  5-MIN KSTC 030025Z AUTO 00000KT 10SM CLR 02/01 A3026 710 89 -600 000/00 RMK AO2
14926KSTC STC20041102183009811/02/04 18:30:31  5-MIN KSTC 030030Z AUTO 00000KT 10SM CLR 02/00 A3026 710 89 -600 000/00 RMK AO2
14926KSTC STC20041102183509811/02/04 18:35:31  5-MIN KSTC 030035Z AUTO 00000KT 10SM CLR 01/00 A3026 710 92 -700 000/00 RMK AO2
14926KSTC STC20041102184009811/02/04 18:40:31  5-MIN KSTC 030040Z AUTO 00000KT 10SM CLR 01/00 A3026 710 96 -800 000/00 RMK AO2
14926KSTC STC20041102184509811/02/04 18:45:31  5-MIN KSTC 030045Z AUTO 00000KT 10SM CLR 01/00 A3026 710 96 -800 000/00 RMK AO2
14926KSTC STC20041102185011511/02/04 18:50:31  5-MIN KSTC 030050Z AUTO 00000KT 10SM CLR 01/00 A3026 720 92 -700 000/00 RMK AO2 SLP266 T00110000
14926KSTC STC20041102185509811/02/04 18:55:31  5-MIN KSTC 030055Z AUTO 00000KT 10SM CLR 01/00 A3026 720 92 -700 000/00 RMK AO2
14926KSTC STC20041102190009811/02/04 19:00:31  5-MIN KSTC 030100Z AUTO 00000KT 10SM CLR 01/00 A3026 720 92 -700 000/00 RMK AO2
14926KSTC STC20041102190509811/02/04 19:05:31  5-MIN KSTC 030105Z AUTO 00000KT 10SM CLR 01/00 A3026 720 92 -700 000/00 RMK AO2
14926KSTC STC20041102191009811/02/04 19:10:31  5-MIN KSTC 030110Z AUTO 00000KT 10SM CLR 01/00 A3026 720 96 -800 000/00 RMK AO2
14926KSTC STC20041102191509811/02/04 19:15:31  5-MIN KSTC 030115Z AUTO 00000KT 10SM CLR 01/00 A3026 720 96 -800 000/00 RMK AO2
14926KSTC STC20041102192009811/02/04 19:20:31  5-MIN KSTC 030120Z AUTO 00000KT 10SM CLR 01/00 A3025 720 96 -800 000/00 RMK AO2
14926KSTC STC20041102192509911/02/04 19:25:31  5-MIN KSTC 030125Z AUTO 00000KT 10SM CLR 01/M01 A3025 720 92 -800 000/00 RMK AO2
14926KSTC STC20041102193009911/02/04 19:30:31  5-MIN KSTC 030130Z AUTO 15003KT 10SM CLR 00/M01 A3025 720 96 -800 150/03 RMK AO2
14926KSTC STC20041102193509911/02/04 19:35:31  5-MIN KSTC 030135Z AUTO 00000KT 10SM CLR 00/M01 A3025 720 96 -800 000/00 RMK AO2
14926KSTC STC20041102194010111/02/04 19:40:31  5-MIN KSTC 030140Z AUTO 00000KT 10SM CLR M01/M01 A3025 720 100 -900 000/00 RMK AO2
14926KSTC STC20041102194509911/02/04 19:45:31  5-MIN KSTC 030145Z AUTO 00000KT 10SM CLR 00/M01 A3025 720 96 -800 000/00 RMK AO2
14926KSTC STC20041102195011611/02/04 19:50:31  5-MIN KSTC 030150Z AUTO 15003KT 10SM CLR 00/M01 A3025 720 96 -800 150/03 RMK AO2 SLP264 T00001006
14926KSTC STC20041102195509911/02/04 19:55:31  5-MIN KSTC 030155Z AUTO 00000KT 10SM CLR 00/M01 A3026 720 96 -900 000/00 RMK AO2
14926KSTC STC20041102200009911/02/04 20:00:31  5-MIN KSTC 030200Z AUTO 00000KT 10SM CLR 00/M01 A3025 720 96 -800 000/00 RMK AO2
14926KSTC STC20041102200510011/02/04 20:05:31  5-MIN KSTC 030205Z AUTO 00000KT 10SM CLR M01/M01 A3026 720 96 -900 000/00 RMK AO2
14926KSTC STC20041102201009911/02/04 20:10:31  5-MIN KSTC 030210Z AUTO 00000KT 10SM CLR 00/M01 A3025 720 96 -800 000/00 RMK AO2
14926KSTC STC20041102201509911/02/04 20:15:31  5-MIN KSTC 030215Z AUTO 00000KT 10SM CLR 00/M01 A3025 720 96 -800 000/00 RMK AO2
14926KSTC STC20041102202010011/02/04 20:20:31  5-MIN KSTC 030220Z AUTO 15004KT 10SM CLR M01/M01 A3025 720 96 -900 140/04 RMK AO2
14926KSTC STC20041102202510111/02/04 20:25:31  5-MIN KSTC 030225Z AUTO 15003KT 9SM CLR M01/M01 A3025 720 100 -1000 150/03 RMK AO2
14926KSTC STC20041102203010111/02/04 20:30:31  5-MIN KSTC 030230Z AUTO 00000KT 8SM CLR M01/M01 A3025 720 100 -1000 000/00 RMK AO2
14926KSTC STC20041102203509911/02/04 20:35:31  5-MIN KSTC 030235Z AUTO 00000KT 8SM CLR M01/M01 A3026 720 96 -900 000/00 RMK AO2
14926KSTC STC20041102204010011/02/04 20:40:31  5-MIN KSTC 030240Z AUTO 00000KT 9SM CLR M01/M02 A3026 720 96 -1000 000/00 RMK AO2
14926KSTC STC20041102204510111/02/04 20:45:31  5-MIN KSTC 030245Z AUTO 00000KT 9SM CLR M01/M01 A3026 720 100 -1000 000/00 RMK AO2
14926KSTC STC20041102205012411/02/04 20:50:31  5-MIN KSTC 030250Z AUTO 00000KT 8SM CLR M01/M01 A3026 720 100 -1000 000/00 RMK AO2 SLP267 T10111011 52008
14926KSTC STC20041102205509911/02/04 20:55:31  5-MIN KSTC 030255Z AUTO 00000KT 8SM CLR M01/M01 A3026 710 96 -900 000/00 RMK AO2
14926KSTC STC20041102210009911/02/04 21:00:31  5-MIN KSTC 030300Z AUTO 00000KT 7SM CLR M01/M01 A3026 710 96 -900 000/00 RMK AO2
14926KSTC STC20041102210509911/02/04 21:05:31  5-MIN KSTC 030305Z AUTO 00000KT 7SM CLR M01/M01 A3026 710 96 -900 000/00 RMK AO2
14926KSTC STC20041102211009911/02/04 21:10:31  5-MIN KSTC 030310Z AUTO 00000KT 8SM CLR M01/M01 A3026 720 96 -900 000/00 RMK AO2
14926KSTC STC20041102211510111/02/04 21:15:31  5-MIN KSTC 030315Z AUTO 00000KT 8SM CLR M01/M01 A3026 710 100 -1000 000/00 RMK AO2
14926KSTC STC20041102212010111/02/04 21:20:31  5-MIN KSTC 030320Z AUTO 00000KT 9SM CLR M01/M01 A3026 710 100 -1000 000/00 RMK AO2
14926KSTC STC20041102212510111/02/04 21:25:31  5-MIN KSTC 030325Z AUTO 00000KT 10SM CLR M01/M02 A3026 710 96 -1000 000/00 RMK AO2
14926KSTC STC20041102213010111/02/04 21:30:31  5-MIN KSTC 030330Z AUTO 00000KT 10SM CLR M01/M02 A3026 710 96 -1000 000/00 RMK AO2
14926KSTC STC20041102213510011/02/04 21:35:31  5-MIN KSTC 030335Z AUTO 16003KT 9SM CLR M01/M02 A3026 710 96 -1000 160/03 RMK AO2
14926KSTC STC20041102214010011/02/04 21:40:31  5-MIN KSTC 030340Z AUTO 00000KT 9SM CLR M01/M02 A3026 710 96 -1000 000/00 RMK AO2
14926KSTC STC20041102214510011/02/04 21:45:31  5-MIN KSTC 030345Z AUTO 17003KT 9SM CLR M01/M02 A3026 710 96 -1000 160/03 RMK AO2
14926KSTC STC20041102215011711/02/04 21:50:31  5-MIN KSTC 030350Z AUTO 00000KT 9SM CLR M02/M02 A3026 710 96 -1100 000/00 RMK AO2 SLP267 T10171022
14926KSTC STC20041102215510011/02/04 21:55:31  5-MIN KSTC 030355Z AUTO 00000KT 9SM CLR M02/M02 A3026 720 96 -1100 000/00 RMK AO2
14926KSTC STC20041102220010011/02/04 22:00:31  5-MIN KSTC 030400Z AUTO 15003KT 9SM CLR M01/M02 A3026 720 96 -1000 140/03 RMK AO2
14926KSTC STC20041102220510011/02/04 22:05:31  5-MIN KSTC 030405Z AUTO 15003KT 9SM CLR M01/M02 A3026 720 96 -1000 140/03 RMK AO2
14926KSTC STC20041102221010011/02/04 22:10:31  5-MIN KSTC 030410Z AUTO 00000KT 9SM CLR M02/M02 A3026 720 96 -1100 000/00 RMK AO2
14926KSTC STC20041102221510011/02/04 22:15:31  5-MIN KSTC 030415Z AUTO 00000KT 9SM CLR M01/M02 A3026 720 96 -1000 000/00 RMK AO2
14926KSTC STC20041102222010011/02/04 22:20:31  5-MIN KSTC 030420Z AUTO 00000KT 8SM CLR M02/M02 A3026 710 96 -1100 000/00 RMK AO2
14926KSTC STC20041102222510111/02/04 22:25:31  5-MIN KSTC 030425Z AUTO 00000KT 9SM CLR M02/M02 A3026 720 100 -1100 000/00 RMK AO2
14926KSTC STC20041102223010111/02/04 22:30:31  5-MIN KSTC 030430Z AUTO 00000KT 9SM CLR M02/M02 A3026 710 100 -1100 000/00 RMK AO2
14926KSTC STC20041102223510111/02/04 22:35:31  5-MIN KSTC 030435Z AUTO 00000KT 8SM CLR M02/M02 A3026 710 100 -1100 000/00 RMK AO2
14926KSTC STC20041102224010011/02/04 22:40:31  5-MIN KSTC 030440Z AUTO 00000KT 7SM CLR M01/M02 A3026 710 96 -1000 000/00 RMK AO2
14926KSTC STC20041102224510111/02/04 22:45:31  5-MIN KSTC 030445Z AUTO 00000KT 7SM CLR M02/M02 A3026 710 100 -1100 000/00 RMK AO2
14926KSTC STC20041102225011711/02/04 22:50:31  5-MIN KSTC 030450Z AUTO 00000KT 7SM CLR M02/M02 A3026 720 96 -1100 000/00 RMK AO2 SLP265 T10171022
14926KSTC STC20041102225510111/02/04 22:55:31  5-MIN KSTC 030455Z AUTO 00000KT 7SM CLR M02/M02 A3026 720 100 -1100 000/00 RMK AO2
14926KSTC STC20041102230010311/02/04 23:00:31  5-MIN KSTC 030500Z AUTO 00000KT 6SM BR CLR M02/M03 A3025 720 96 -1100 000/00 RMK AO2
14926KSTC STC20041102230510011/02/04 23:05:31  5-MIN KSTC 030505Z AUTO 00000KT 7SM CLR M02/M02 A3026 720 96 -1100 000/00 RMK AO2
14926KSTC STC20041102231010011/02/04 23:10:31  5-MIN KSTC 030510Z AUTO 13003KT 7SM CLR M02/M03 A3026 720 96 -1100 130/03 RMK AO2
14926KSTC STC20041102231510111/02/04 23:15:31  5-MIN KSTC 030515Z AUTO 00000KT 7SM CLR M02/M02 A3026 710 100 -1100 000/00 RMK AO2
14926KSTC STC20041102232010011/02/04 23:20:31  5-MIN KSTC 030520Z AUTO 00000KT 7SM CLR M02/M03 A3026 710 96 -1100 000/00 RMK AO2
14926KSTC STC20041102232510311/02/04 23:25:31  5-MIN KSTC 030525Z AUTO 00000KT 4SM BR CLR M02/M03 A3026 710 96 -1100 000/00 RMK AO2
14926KSTC STC20041102233010411/02/04 23:30:31  5-MIN KSTC 030530Z AUTO 00000KT 3SM BR CLR M02/M02 A3026 710 100 -1100 000/00 RMK AO2
14926KSTC STC20041102233510311/02/04 23:35:31  5-MIN KSTC 030535Z AUTO 00000KT 4SM BR CLR M02/M03 A3026 710 96 -1100 000/00 RMK AO2
14926KSTC STC20041102234010311/02/04 23:40:31  5-MIN KSTC 030540Z AUTO 00000KT 5SM BR CLR M02/M03 A3026 710 96 -1100 000/00 RMK AO2
14926KSTC STC20041102234510311/02/04 23:45:31  5-MIN KSTC 030545Z AUTO 00000KT 5SM BR CLR M02/M03 A3026 710 96 -1100 000/00 RMK AO2
14926KSTC STC20041102235014811/02/04 23:50:31  5-MIN KSTC 030550Z AUTO 00000KT 5SM BR CLR M02/M03 A3026 710 96 -1100 000/00 RMK AO2 SLP267 T10221028 10022 21022 400891022 55000
14926KSTC STC20041102235510411/02/04 23:55:31  5-MIN KSTC 030555Z AUTO 00000KT 5SM BR CLR M02/M02 A3025 720 100 -1100 000/00 RMK AO2
14926KSTC STC20041103000010411/03/04 00:00:32  5-MIN KSTC 030600Z AUTO 00000KT 4SM BR CLR M02/M02 A3025 720 100 -1100 000/00 RMK AO2
14926KSTC STC20041103000510411/03/04 00:05:31  5-MIN KSTC 030605Z AUTO 00000KT 5SM BR CLR M02/M02 A3025 720 100 -1100 000/00 RMK AO2
14926KSTC STC20041103001010311/03/04 00:10:31  5-MIN KSTC 030610Z AUTO 14003KT 6SM BR CLR M02/M03 A3026 720 96 -1100 140/03 RMK AO2
14926KSTC STC20041103001510011/03/04 00:15:31  5-MIN KSTC 030615Z AUTO 14003KT 7SM CLR M02/M03 A3026 720 96 -1100 140/03 RMK AO2
14926KSTC STC20041103002010011/03/04 00:20:31  5-MIN KSTC 030620Z AUTO 15003KT 7SM CLR M02/M03 A3025 720 96 -1100 140/03 RMK AO2
14926KSTC STC20041103002510011/03/04 00:25:31  5-MIN KSTC 030625Z AUTO 15004KT 8SM CLR M02/M02 A3025 720 96 -1100 150/04 RMK AO2
14926KSTC STC20041103003010011/03/04 00:30:31  5-MIN KSTC 030630Z AUTO 15005KT 9SM CLR M02/M02 A3025 720 96 -1100 150/05 RMK AO2
14926KSTC STC20041103003510011/03/04 00:35:31  5-MIN KSTC 030635Z AUTO 15005KT 9SM CLR M02/M03 A3025 720 96 -1100 140/05 RMK AO2
14926KSTC STC20041103004010011/03/04 00:40:31  5-MIN KSTC 030640Z AUTO 15005KT 9SM CLR M02/M03 A3025 720 96 -1100 150/05 RMK AO2
14926KSTC STC20041103004510011/03/04 00:45:31  5-MIN KSTC 030645Z AUTO 15005KT 8SM CLR M02/M03 A3025 730 96 -1100 150/05 RMK AO2
14926KSTC STC20041103005011711/03/04 00:50:31  5-MIN KSTC 030650Z AUTO 15005KT 8SM CLR M02/M03 A3025 730 96 -1100 150/05 RMK AO2 SLP262 T10221028
14926KSTC STC20041103005510011/03/04 00:55:31  5-MIN KSTC 030655Z AUTO 16004KT 8SM CLR M02/M03 A3024 730 96 -1100 150/04 RMK AO2
14926KSTC STC20041103010010011/03/04 01:00:31  5-MIN KSTC 030700Z AUTO 16004KT 7SM CLR M02/M03 A3024 730 96 -1100 150/04 RMK AO2
14926KSTC STC20041103010510011/03/04 01:05:31  5-MIN KSTC 030705Z AUTO 15004KT 7SM CLR M02/M02 A3024 730 96 -1000 150/04 RMK AO2
14926KSTC STC20041103011010011/03/04 01:10:31  5-MIN KSTC 030710Z AUTO 15004KT 7SM CLR M02/M02 A3024 730 96 -1000 140/04 RMK AO2
14926KSTC STC20041103011510011/03/04 01:15:31  5-MIN KSTC 030715Z AUTO 15003KT 7SM CLR M02/M02 A3024 730 96 -1000 150/03 RMK AO2
14926KSTC STC20041103012010011/03/04 01:20:31  5-MIN KSTC 030720Z AUTO 15003KT 7SM CLR M02/M02 A3024 730 96 -1000 140/03 RMK AO2
14926KSTC STC20041103012510011/03/04 01:25:31  5-MIN KSTC 030725Z AUTO 00000KT 7SM CLR M02/M03 A3024 730 92 -1000 000/00 RMK AO2
14926KSTC STC20041103013010011/03/04 01:30:31  5-MIN KSTC 030730Z AUTO 00000KT 8SM CLR M02/M02 A3024 730 96 -1000 000/00 RMK AO2
14926KSTC STC20041103013510011/03/04 01:35:31  5-MIN KSTC 030735Z AUTO 00000KT 7SM CLR M02/M03 A3024 730 96 -1100 000/00 RMK AO2
14926KSTC STC20041103014010311/03/04 01:40:31  5-MIN KSTC 030740Z AUTO 00000KT 6SM BR CLR M02/M03 A3024 730 96 -1100 000/00 RMK AO2
14926KSTC STC20041103014510411/03/04 01:45:31  5-MIN KSTC 030745Z AUTO 00000KT 5SM BR CLR M02/M02 A3024 730 100 -1100 000/00 RMK AO2
14926KSTC STC20041103015012011/03/04 01:50:31  5-MIN KSTC 030750Z AUTO 00000KT 5SM BR CLR M02/M02 A3024 730 96 -1000 000/00 RMK AO2 SLP258 T10171022
14926KSTC STC20041103015510311/03/04 01:55:31  5-MIN KSTC 030755Z AUTO 14003KT 6SM BR CLR M02/M02 A3024 730 96 -1000 130/03 RMK AO2
14926KSTC STC20041103020010011/03/04 02:00:31  5-MIN KSTC 030800Z AUTO 14004KT 7SM CLR M02/M02 A3024 730 96 -1000 140/04 RMK AO2
14926KSTC STC20041103020510011/03/04 02:05:31  5-MIN KSTC 030805Z AUTO 14003KT 8SM CLR M01/M02 A3024 740 92 -1000 140/03 RMK AO2
14926KSTC STC20041103021010011/03/04 02:10:31  5-MIN KSTC 030810Z AUTO 14004KT 8SM CLR M01/M02 A3023 740 96 -1000 140/04 RMK AO2
14926KSTC STC20041103021510011/03/04 02:15:31  5-MIN KSTC 030815Z AUTO 00000KT 8SM CLR M01/M02 A3023 740 96 -1000 000/00 RMK AO2
14926KSTC STC20041103022010011/03/04 02:20:31  5-MIN KSTC 030820Z AUTO 00000KT 7SM CLR M02/M03 A3023 740 96 -1100 000/00 RMK AO2
14926KSTC STC20041103022510311/03/04 02:25:31  5-MIN KSTC 030825Z AUTO 00000KT 6SM BR CLR M02/M03 A3023 740 96 -1100 000/00 RMK AO2
14926KSTC STC20041103023010411/03/04 02:30:31  5-MIN KSTC 030830Z AUTO 00000KT 6SM BR CLR M02/M02 A3023 740 100 -1100 000/00 RMK AO2
14926KSTC STC20041103023510311/03/04 02:35:31  5-MIN KSTC 030835Z AUTO 00000KT 6SM BR CLR M02/M03 A3023 740 96 -1100 000/00 RMK AO2
14926KSTC STC20041103024010411/03/04 02:40:31  5-MIN KSTC 030840Z AUTO 00000KT 6SM BR CLR M02/M02 A3023 740 100 -1100 000/00 RMK AO2
14926KSTC STC20041103024510111/03/04 02:45:31  5-MIN KSTC 030845Z AUTO 00000KT 7SM CLR M02/M02 A3023 740 100 -1100 000/00 RMK AO2
14926KSTC STC20041103025012411/03/04 02:50:31  5-MIN KSTC 030850Z AUTO 00000KT 8SM CLR M02/M02 A3023 740 100 -1100 000/00 RMK AO2 SLP255 T10221022 50000
14926KSTC STC20041103025510011/03/04 02:55:31  5-MIN KSTC 030855Z AUTO 14003KT 8SM CLR M02/M02 A3023 740 96 -1000 130/03 RMK AO2
14926KSTC STC20041103030010111/03/04 03:00:31  5-MIN KSTC 030900Z AUTO 14003KT 7SM CLR M02/M02 A3022 750 100 -1100 130/03 RMK AO2
14926KSTC STC20041103030510011/03/04 03:05:31  5-MIN KSTC 030905Z AUTO 13003KT 7SM CLR M03/M03 A3022 750 96 -1200 130/03 RMK AO2
14926KSTC STC20041103031010011/03/04 03:10:31  5-MIN KSTC 030910Z AUTO 14003KT 8SM CLR M02/M03 A3022 750 96 -1100 140/03 RMK AO2
14926KSTC STC20041103031510111/03/04 03:15:31  5-MIN KSTC 030915Z AUTO 14003KT 8SM CLR M03/M03 A3022 750 100 -1200 140/03 RMK AO2
14926KSTC STC20041103032010011/03/04 03:20:31  5-MIN KSTC 030920Z AUTO 13004KT 8SM CLR M02/M03 A3021 760 96 -1100 130/04 RMK AO2
14926KSTC STC20041103032510011/03/04 03:25:31  5-MIN KSTC 030925Z AUTO 13003KT 9SM CLR M02/M03 A3021 760 96 -1100 130/03 RMK AO2
14926KSTC STC20041103033010011/03/04 03:30:31  5-MIN KSTC 030930Z AUTO 13003KT 9SM CLR M02/M02 A3021 760 96 -1000 130/03 RMK AO2
14926KSTC STC20041103033509911/03/04 03:35:31  5-MIN KSTC 030935Z AUTO 13003KT 9SM CLR M01/M02 A3021 760 92 -900 130/03 RMK AO2
14926KSTC STC20041103034010011/03/04 03:40:31  5-MIN KSTC 030940Z AUTO 00000KT 9SM CLR M02/M02 A3021 760 96 -1000 000/00 RMK AO2
14926KSTC STC20041103034509911/03/04 03:45:31  5-MIN KSTC 030945Z AUTO 14004KT 9SM CLR M01/M02 A3021 760 92 -900 140/04 RMK AO2
14926KSTC STC20041103035011711/03/04 03:50:31  5-MIN KSTC 030950Z AUTO 13003KT 9SM CLR M02/M02 A3021 760 96 -1000 130/03 RMK AO2 SLP248 T10171022
14926KSTC STC20041103035510011/03/04 03:55:31  5-MIN KSTC 030955Z AUTO 13004KT 9SM CLR M02/M02 A3021 760 96 -1000 130/04 RMK AO2
14926KSTC STC20041103040009911/03/04 04:00:31  5-MIN KSTC 031000Z AUTO 14004KT 9SM CLR M01/M02 A3021 760 92 -900 130/04 RMK AO2
14926KSTC STC20041103040510011/03/04 04:05:31  5-MIN KSTC 031005Z AUTO 14005KT 10SM CLR M01/M02 A3020 760 96 -900 130/05 RMK AO2
14926KSTC STC20041103041010011/03/04 04:10:31  5-MIN KSTC 031010Z AUTO 14004KT 10SM CLR M01/M01 A3021 760 96 -900 130/04 RMK AO2
14926KSTC STC20041103041510011/03/04 04:15:31  5-MIN KSTC 031015Z AUTO 14005KT 10SM CLR M01/M01 A3021 760 96 -900 140/05 RMK AO2
14926KSTC STC20041103042010011/03/04 04:20:31  5-MIN KSTC 031020Z AUTO 14006KT 10SM CLR M01/M02 A3021 760 92 -900 130/06 RMK AO2
14926KSTC STC20041103042510111/03/04 04:25:31  5-MIN KSTC 031025Z AUTO 14006KT 10SM CLR M02/M02 A3021 760 96 -1000 140/06 RMK AO2
14926KSTC STC20041103043010011/03/04 04:30:31  5-MIN KSTC 031030Z AUTO 15005KT 9SM CLR M02/M03 A3021 760 96 -1100 140/05 RMK AO2
14926KSTC STC20041103043510011/03/04 04:35:31  5-MIN KSTC 031035Z AUTO 14005KT 9SM CLR M02/M03 A3021 760 92 -1000 140/05 RMK AO2
14926KSTC STC20041103044010011/03/04 04:40:31  5-MIN KSTC 031040Z AUTO 15005KT 9SM CLR M02/M03 A3021 760 92 -1000 150/05 RMK AO2
14926KSTC STC20041103044510111/03/04 04:45:31  5-MIN KSTC 031045Z AUTO 15005KT 10SM CLR M02/M02 A3021 760 96 -1000 150/05 RMK AO2
14926KSTC STC20041103045011711/03/04 04:50:31  5-MIN KSTC 031050Z AUTO 15004KT 10SM CLR M01/M02 A3021 760 92 -900 150/04 RMK AO2 SLP248 T10111022
14926KSTC STC20041103045510011/03/04 04:55:31  5-MIN KSTC 031055Z AUTO 15004KT 10SM CLR M01/M02 A3021 760 92 -900 140/04 RMK AO2
14926KSTC STC20041103050010011/03/04 05:00:31  5-MIN KSTC 031100Z AUTO 14004KT 10SM CLR M01/M02 A3021 760 92 -900 140/04 RMK AO2
14926KSTC STC20041103050510011/03/04 05:05:31  5-MIN KSTC 031105Z AUTO 14005KT 10SM CLR M01/M02 A3021 760 92 -900 130/05 RMK AO2
14926KSTC STC20041103051010011/03/04 05:10:31  5-MIN KSTC 031110Z AUTO 14005KT 10SM CLR M01/M01 A3021 760 96 -900 140/05 RMK AO2
14926KSTC STC20041103051509911/03/04 05:15:31  5-MIN KSTC 031115Z AUTO 14006KT 10SM CLR 00/M01 A3021 760 92 -800 140/06 RMK AO2
14926KSTC STC20041103052010011/03/04 05:20:31  5-MIN KSTC 031120Z AUTO 14005KT 10SM CLR M01/M01 A3021 760 96 -900 140/05 RMK AO2
14926KSTC STC20041103052510011/03/04 05:25:31  5-MIN KSTC 031125Z AUTO 14005KT 10SM CLR M01/M01 A3021 760 96 -900 140/05 RMK AO2
14926KSTC STC20041103053010011/03/04 05:30:31  5-MIN KSTC 031130Z AUTO 15005KT 10SM CLR M01/M02 A3020 760 92 -900 140/05 RMK AO2
14926KSTC STC20041103053510011/03/04 05:35:31  5-MIN KSTC 031135Z AUTO 15006KT 10SM CLR M01/M02 A3021 760 92 -900 140/06 RMK AO2
14926KSTC STC20041103054010011/03/04 05:40:31  5-MIN KSTC 031140Z AUTO 14006KT 10SM CLR M01/M02 A3020 770 92 -900 140/06 RMK AO2
14926KSTC STC20041103054510011/03/04 05:45:31  5-MIN KSTC 031145Z AUTO 15006KT 10SM CLR M01/M01 A3020 770 96 -900 140/06 RMK AO2
14926KSTC STC20041103055013511/03/04 05:50:31  5-MIN KSTC 031150Z AUTO 15007KT 10SM CLR M01/M02 A3020 770 92 -900 150/07 RMK AO2 SLP247 T10061017 10000 21028 56010
14926KSTC STC20041103055509911/03/04 05:55:31  5-MIN KSTC 031155Z AUTO 15007KT 9SM CLR M01/M02 A3020 770 96 -900 150/07 RMK AO2
14926KSTC STC20041103060009911/03/04 06:00:31  5-MIN KSTC 031200Z AUTO 15007KT 9SM CLR M01/M02 A3020 770 92 -900 150/07 RMK AO2
14926KSTC STC20041103060509911/03/04 06:05:31  5-MIN KSTC 031205Z AUTO 15007KT 9SM CLR M01/M02 A3020 770 96 -900 150/07 RMK AO2
14926KSTC STC20041103061009911/03/04 06:10:31  5-MIN KSTC 031210Z AUTO 16007KT 9SM CLR M01/M02 A3019 770 92 -800 160/07 RMK AO2
14926KSTC STC20041103061509911/03/04 06:15:31  5-MIN KSTC 031215Z AUTO 16007KT 9SM CLR M01/M02 A3019 770 92 -900 160/07 RMK AO2
14926KSTC STC20041103062009911/03/04 06:20:31  5-MIN KSTC 031220Z AUTO 17007KT 8SM CLR M01/M02 A3019 780 92 -800 160/07 RMK AO2
14926KSTC STC20041103062509911/03/04 06:25:31  5-MIN KSTC 031225Z AUTO 17006KT 8SM CLR M01/M01 A3019 780 96 -800 160/06 RMK AO2
14926KSTC STC20041103063009811/03/04 06:30:31  5-MIN KSTC 031230Z AUTO 17007KT 8SM CLR 00/M01 A3019 780 92 -800 170/07 RMK AO2
14926KSTC STC20041103063509811/03/04 06:35:31  5-MIN KSTC 031235Z AUTO 17007KT 8SM CLR 00/M01 A3019 780 96 -800 170/07 RMK AO2
14926KSTC STC20041103064009811/03/04 06:40:31  5-MIN KSTC 031240Z AUTO 17008KT 8SM CLR 01/M01 A3019 780 92 -700 170/08 RMK AO2
14926KSTC STC20041103064509811/03/04 06:45:31  5-MIN KSTC 031245Z AUTO 17008KT 8SM CLR 01/M01 A3019 780 92 -700 170/08 RMK AO2
14926KSTC STC20041103065011511/03/04 06:50:31  5-MIN KSTC 031250Z AUTO 18008KT 7SM CLR 01/M01 A3019 780 92 -700 170/08 RMK AO2 SLP243 T00061006
14926KSTC STC20041103065509711/03/04 06:55:31  5-MIN KSTC 031255Z AUTO 17009KT 8SM CLR 01/00 A3019 780 96 -700 170/09 RMK AO2
14926KSTC STC20041103070009711/03/04 07:00:31  5-MIN KSTC 031300Z AUTO 17009KT 7SM CLR 01/00 A3019 780 92 -600 170/09 RMK AO2
14926KSTC STC20041103070510011/03/04 07:05:31  5-MIN KSTC 031305Z AUTO 17008KT 6SM BR CLR 01/00 A3019 780 96 -700 170/08 RMK AO2
14926KSTC STC20041103071010011/03/04 07:10:31  5-MIN KSTC 031310Z AUTO 18008KT 6SM BR CLR 01/00 A3019 780 96 -700 170/08 RMK AO2
14926KSTC STC20041103071510011/03/04 07:15:31  5-MIN KSTC 031315Z AUTO 17007KT 6SM BR CLR 01/00 A3019 780 92 -600 170/07 RMK AO2
14926KSTC STC20041103072010011/03/04 07:20:31  5-MIN KSTC 031320Z AUTO 18008KT 6SM BR CLR 01/00 A3019 780 92 -600 170/08 RMK AO2
14926KSTC STC20041103072510011/03/04 07:25:31  5-MIN KSTC 031325Z AUTO 17008KT 6SM BR CLR 01/00 A3019 780 92 -600 170/08 RMK AO2
14926KSTC STC20041103073010011/03/04 07:30:31  5-MIN KSTC 031330Z AUTO 17007KT 6SM BR CLR 01/00 A3019 770 92 -600 170/07 RMK AO2
14926KSTC STC20041103073510011/03/04 07:35:31  5-MIN KSTC 031335Z AUTO 17008KT 6SM BR CLR 01/00 A3020 770 92 -600 170/08 RMK AO2
14926KSTC STC20041103074010011/03/04 07:40:31  5-MIN KSTC 031340Z AUTO 18008KT 6SM BR CLR 01/00 A3020 770 92 -600 170/08 RMK AO2
14926KSTC STC20041103074509711/03/04 07:45:31  5-MIN KSTC 031345Z AUTO 17007KT 7SM CLR 01/00 A3020 770 92 -600 170/07 RMK AO2
14926KSTC STC20041103075011411/03/04 07:50:31  5-MIN KSTC 031350Z AUTO 17008KT 7SM CLR 02/00 A3020 770 89 -600 170/08 RMK AO2 SLP246 T00170000
14926KSTC STC20041103075509711/03/04 07:55:31  5-MIN KSTC 031355Z AUTO 17008KT 7SM CLR 02/00 A3019 770 89 -600 170/08 RMK AO2
14926KSTC STC20041103080009711/03/04 08:00:31  5-MIN KSTC 031400Z AUTO 17008KT 7SM CLR 02/01 A3019 780 92 -600 170/08 RMK AO2
14926KSTC STC20041103080509711/03/04 08:05:31  5-MIN KSTC 031405Z AUTO 17008KT 7SM CLR 02/01 A3019 780 92 -600 170/08 RMK AO2
14926KSTC STC20041103081009711/03/04 08:10:31  5-MIN KSTC 031410Z AUTO 17009KT 8SM CLR 02/01 A3019 780 89 -500 170/09 RMK AO2
14926KSTC STC20041103081509711/03/04 08:15:31  5-MIN KSTC 031415Z AUTO 17010KT 8SM CLR 02/01 A3019 780 89 -500 170/10 RMK AO2
14926KSTC STC20041103082009711/03/04 08:20:31  5-MIN KSTC 031420Z AUTO 17009KT 8SM CLR 02/01 A3019 780 89 -500 170/09 RMK AO2
14926KSTC STC20041103082509711/03/04 08:25:31  5-MIN KSTC 031425Z AUTO 18009KT 9SM CLR 03/01 A3019 780 85 -400 180/09 RMK AO2
14926KSTC STC20041103083009711/03/04 08:30:31  5-MIN KSTC 031430Z AUTO 18009KT 9SM CLR 03/01 A3019 780 89 -400 170/09 RMK AO2
14926KSTC STC20041103083509711/03/04 08:35:31  5-MIN KSTC 031435Z AUTO 18008KT 9SM CLR 03/01 A3019 780 89 -400 170/08 RMK AO2
14926KSTC STC20041103084009811/03/04 08:40:31  5-MIN KSTC 031440Z AUTO 17010KT 10SM CLR 03/01 A3019 780 85 -400 170/10 RMK AO2
14926KSTC STC20041103084509811/03/04 08:45:31  5-MIN KSTC 031445Z AUTO 18007KT 10SM CLR 03/01 A3019 780 85 -400 180/07 RMK AO2
14926KSTC STC20041103085012111/03/04 08:50:31  5-MIN KSTC 031450Z AUTO 18009KT 10SM CLR 04/01 A3019 780 82 -300 180/09 RMK AO2 SLP243 T00390011 56009
14926KSTC STC20041103085509811/03/04 08:55:31  5-MIN KSTC 031455Z AUTO 18007KT 10SM CLR 04/01 A3019 780 82 -300 180/07 RMK AO2
14926KSTC STC20041103090009811/03/04 09:00:31  5-MIN KSTC 031500Z AUTO 18008KT 10SM CLR 04/02 A3019 780 85 -300 180/08 RMK AO2
14926KSTC STC20041103090509811/03/04 09:05:31  5-MIN KSTC 031505Z AUTO 18008KT 10SM CLR 04/02 A3018 780 82 -200 180/08 RMK AO2
14926KSTC STC20041103091009811/03/04 09:10:31  5-MIN KSTC 031510Z AUTO 19009KT 10SM CLR 04/02 A3018 780 82 -200 180/09 RMK AO2
14926KSTC STC20041103091509811/03/04 09:15:31  5-MIN KSTC 031515Z AUTO 19009KT 10SM CLR 05/02 A3018 780 79 -100 180/09 RMK AO2
14926KSTC STC20041103092009811/03/04 09:20:31  5-MIN KSTC 031520Z AUTO 19010KT 10SM CLR 05/02 A3018 780 79 -100 190/10 RMK AO2
14926KSTC STC20041103092509811/03/04 09:25:31  5-MIN KSTC 031525Z AUTO 19011KT 10SM CLR 06/02 A3018 780 76 -100 190/11 RMK AO2
14926KSTC STC20041103093009811/03/04 09:30:31  5-MIN KSTC 031530Z AUTO 19011KT 10SM CLR 06/02 A3018 790 76 -100 180/11 RMK AO2
14926KSTC STC20041103093509811/03/04 09:35:31  5-MIN KSTC 031535Z AUTO 19012KT 10SM CLR 06/02 A3018 790 76 -100 180/12 RMK AO2
14926KSTC STC20041103094009811/03/04 09:40:31  5-MIN KSTC 031540Z AUTO 20010KT 10SM CLR 06/02 A3018 790 76 -100 190/10 RMK AO2
14926KSTC STC20041103094509511/03/04 09:45:31  5-MIN KSTC 031545Z AUTO 19013KT 10SM CLR 06/02 A3018 790 76 0 190/13 RMK AO2
14926KSTC STC20041103095011211/03/04 09:50:31  5-MIN KSTC 031550Z AUTO 19015KT 10SM CLR 06/02 A3018 790 73 0 190/15 RMK AO2 SLP239 T00610017
14926KSTC STC20041103095509511/03/04 09:55:31  5-MIN KSTC 031555Z AUTO 19012KT 10SM CLR 06/02 A3018 790 73 0 190/12 RMK AO2
14926KSTC STC20041103100009511/03/04 10:00:31  5-MIN KSTC 031600Z AUTO 20014KT 10SM CLR 07/02 A3018 790 70 0 190/14 RMK AO2
14926KSTC STC20041103100509511/03/04 10:05:31  5-MIN KSTC 031605Z AUTO 19012KT 10SM CLR 07/02 A3018 790 73 0 190/12 RMK AO2
14926KSTC STC20041103101009511/03/04 10:10:31  5-MIN KSTC 031610Z AUTO 19014KT 10SM CLR 07/02 A3018 790 70 0 190/14 RMK AO2
14926KSTC STC20041103101509511/03/04 10:15:31  5-MIN KSTC 031615Z AUTO 20012KT 10SM CLR 07/02 A3018 790 73 0 190/12 RMK AO2
14926KSTC STC20041103102009711/03/04 10:20:31  5-MIN KSTC 031620Z AUTO 19014KT 10SM CLR 07/02 A3017 800 70 100 190/14 RMK AO2
14926KSTC STC20041103102509711/03/04 10:25:31  5-MIN KSTC 031625Z AUTO 20012KT 10SM CLR 07/02 A3017 790 68 100 200/12 RMK AO2
14926KSTC STC20041103103009711/03/04 10:30:31  5-MIN KSTC 031630Z AUTO 18013KT 10SM CLR 07/02 A3017 800 70 100 180/13 RMK AO2
14926KSTC STC20041103103509711/03/04 10:35:31  5-MIN KSTC 031635Z AUTO 20014KT 10SM CLR 07/02 A3017 800 68 100 190/14 RMK AO2
14926KSTC STC20041103104009711/03/04 10:40:31  5-MIN KSTC 031640Z AUTO 19014KT 10SM CLR 08/02 A3017 800 65 200 190/14 RMK AO2
14926KSTC STC20041103104509711/03/04 10:45:31  5-MIN KSTC 031645Z AUTO 20013KT 10SM CLR 08/02 A3017 800 68 200 200/13 RMK AO2
14926KSTC STC20041103105011411/03/04 10:50:31  5-MIN KSTC 031650Z AUTO 19012KT 10SM CLR 08/02 A3017 800 65 200 190/12 RMK AO2 SLP234 T00830022
14926KSTC STC20041103105509711/03/04 10:55:31  5-MIN KSTC 031655Z AUTO 19015KT 10SM CLR 08/02 A3017 800 65 200 190/15 RMK AO2
14926KSTC STC20041103110009711/03/04 11:00:31  5-MIN KSTC 031700Z AUTO 20011KT 10SM CLR 08/02 A3016 800 65 200 190/11 RMK AO2
14926KSTC STC20041103110509711/03/04 11:05:31  5-MIN KSTC 031705Z AUTO 19015KT 10SM CLR 08/02 A3016 800 65 200 190/15 RMK AO2
14926KSTC STC20041103111009711/03/04 11:10:31  5-MIN KSTC 031710Z AUTO 19010KT 10SM CLR 09/02 A3016 800 63 300 180/10 RMK AO2
14926KSTC STC20041103111509711/03/04 11:15:31  5-MIN KSTC 031715Z AUTO 19012KT 10SM CLR 09/02 A3016 810 63 300 190/12 RMK AO2
14926KSTC STC20041103112009711/03/04 11:20:31  5-MIN KSTC 031720Z AUTO 18014KT 10SM CLR 09/02 A3016 810 63 300 180/14 RMK AO2
14926KSTC STC20041103112509711/03/04 11:25:31  5-MIN KSTC 031725Z AUTO 19013KT 10SM CLR 09/02 A3015 810 60 300 190/13 RMK AO2
14926KSTC STC20041103113009711/03/04 11:30:31  5-MIN KSTC 031730Z AUTO 18015KT 10SM CLR 09/02 A3015 810 63 300 180/15 RMK AO2
14926KSTC STC20041103113509711/03/04 11:35:31  5-MIN KSTC 031735Z AUTO 19014KT 10SM CLR 09/02 A3015 820 60 300 190/14 RMK AO2
14926KSTC STC20041103114009711/03/04 11:40:31  5-MIN KSTC 031740Z AUTO 18012KT 10SM CLR 09/02 A3015 820 60 400 180/12 RMK AO2
14926KSTC STC20041103114509711/03/04 11:45:31  5-MIN KSTC 031745Z AUTO 18013KT 10SM CLR 09/02 A3014 820 60 400 180/13 RMK AO2
14926KSTC STC20041103115013211/03/04 11:50:31  5-MIN KSTC 031750Z AUTO 18014KT 10SM CLR 09/02 A3014 820 58 400 180/14 RMK AO2 SLP225 T00940017 10094 21011 56004
14926KSTC STC20041103115509711/03/04 11:55:31  5-MIN KSTC 031755Z AUTO 19014KT 10SM CLR 09/02 A3014 820 58 400 190/14 RMK AO2
14926KSTC STC20041103120009711/03/04 12:00:31  5-MIN KSTC 031800Z AUTO 19013KT 10SM CLR 09/02 A3014 830 58 400 180/13 RMK AO2
14926KSTC STC20041103120510311/03/04 12:05:31  5-MIN KSTC 031805Z AUTO 19013G19KT 10SM CLR 09/01 A3013 830 56 400 190/13G19 RMK AO2
14926KSTC STC20041103121009711/03/04 12:10:31  5-MIN KSTC 031810Z AUTO 19016KT 10SM CLR 09/01 A3013 830 56 400 190/16 RMK AO2
14926KSTC STC20041103121509711/03/04 12:15:31  5-MIN KSTC 031815Z AUTO 19013KT 10SM CLR 09/01 A3012 840 56 400 190/13 RMK AO2
14926KSTC STC20041103122009711/03/04 12:20:31  5-MIN KSTC 031820Z AUTO 19015KT 10SM CLR 09/01 A3012 840 56 400 190/15 RMK AO2
14926KSTC STC20041103122509711/03/04 12:25:31  5-MIN KSTC 031825Z AUTO 19013KT 10SM CLR 10/01 A3012 840 54 500 190/13 RMK AO2
14926KSTC STC20041103123009711/03/04 12:30:31  5-MIN KSTC 031830Z AUTO 19013KT 10SM CLR 10/01 A3012 850 52 500 190/13 RMK AO2
14926KSTC STC20041103123509711/03/04 12:35:31  5-MIN KSTC 031835Z AUTO 20012KT 10SM CLR 10/01 A3011 850 54 500 200/12 RMK AO2
14926KSTC STC20041103124009711/03/04 12:40:31  5-MIN KSTC 031840Z AUTO 19013KT 10SM CLR 10/01 A3011 850 54 500 190/13 RMK AO2
14926KSTC STC20041103124509711/03/04 12:45:31  5-MIN KSTC 031845Z AUTO 18012KT 10SM CLR 10/01 A3011 850 54 500 180/12 RMK AO2
14926KSTC STC20041103125011411/03/04 12:50:31  5-MIN KSTC 031850Z AUTO 19012KT 10SM CLR 10/01 A3011 850 54 500 180/12 RMK AO2 SLP214 T01000011
14926KSTC STC20041103125509711/03/04 12:55:31  5-MIN KSTC 031855Z AUTO 19015KT 10SM CLR 10/01 A3011 860 52 500 190/15 RMK AO2
14926KSTC STC20041103130009711/03/04 13:00:31  5-MIN KSTC 031900Z AUTO 17014KT 10SM CLR 10/01 A3010 860 52 500 170/14 RMK AO2
14926KSTC STC20041103130509711/03/04 13:05:31  5-MIN KSTC 031905Z AUTO 19014KT 10SM CLR 10/01 A3010 860 52 500 190/14 RMK AO2
14926KSTC STC20041103131009711/03/04 13:10:31  5-MIN KSTC 031910Z AUTO 19014KT 10SM CLR 10/01 A3010 860 52 500 190/14 RMK AO2
14926KSTC STC20041103131509711/03/04 13:15:31  5-MIN KSTC 031915Z AUTO 20013KT 10SM CLR 10/01 A3009 870 52 500 200/13 RMK AO2
14926KSTC STC20041103132009711/03/04 13:20:31  5-MIN KSTC 031920Z AUTO 20013KT 10SM CLR 11/01 A3009 870 52 600 190/13 RMK AO2
14926KSTC STC20041103132509711/03/04 13:25:31  5-MIN KSTC 031925Z AUTO 17012KT 10SM CLR 11/01 A3009 870 52 600 170/12 RMK AO2
14926KSTC STC20041103133009711/03/04 13:30:31  5-MIN KSTC 031930Z AUTO 20013KT 10SM CLR 10/01 A3009 870 54 500 200/13 RMK AO2
14926KSTC STC20041103133509711/03/04 13:35:31  5-MIN KSTC 031935Z AUTO 17015KT 10SM CLR 11/01 A3009 870 52 600 170/15 RMK AO2
14926KSTC STC20041103134009711/03/04 13:40:31  5-MIN KSTC 031940Z AUTO 18012KT 10SM CLR 10/01 A3008 880 52 500 170/12 RMK AO2
14926KSTC STC20041103134509711/03/04 13:45:31  5-MIN KSTC 031945Z AUTO 18013KT 10SM CLR 11/01 A3008 880 50 600 180/13 RMK AO2
14926KSTC STC20041103135011411/03/04 13:50:31  5-MIN KSTC 031950Z AUTO 19013KT 10SM CLR 10/01 A3008 880 52 500 190/13 RMK AO2 SLP204 T01000006
14926KSTC STC20041103135509711/03/04 13:55:31  5-MIN KSTC 031955Z AUTO 17013KT 10SM CLR 10/00 A3008 880 49 500 170/13 RMK AO2
14926KSTC STC20041103140009711/03/04 14:00:31  5-MIN KSTC 032000Z AUTO 19014KT 10SM CLR 11/01 A3008 880 50 600 190/14 RMK AO2
14926KSTC STC20041103140509711/03/04 14:05:31  5-MIN KSTC 032005Z AUTO 18014KT 10SM CLR 11/01 A3008 880 52 600 180/14 RMK AO2
14926KSTC STC20041103141009711/03/04 14:10:31  5-MIN KSTC 032010Z AUTO 19012KT 10SM CLR 10/01 A3008 880 54 500 180/12 RMK AO2
14926KSTC STC20041103141509711/03/04 14:15:31  5-MIN KSTC 032015Z AUTO 18014KT 10SM CLR 10/00 A3008 880 49 500 180/14 RMK AO2
14926KSTC STC20041103142009711/03/04 14:20:31  5-MIN KSTC 032020Z AUTO 19014KT 10SM CLR 10/00 A3007 880 49 500 190/14 RMK AO2
14926KSTC STC20041103142509711/03/04 14:25:31  5-MIN KSTC 032025Z AUTO 18014KT 10SM CLR 10/01 A3007 890 52 500 180/14 RMK AO2
14926KSTC STC20041103143010311/03/04 14:30:31  5-MIN KSTC 032030Z AUTO 19014G18KT 10SM CLR 10/01 A3007 890 52 500 190/14G18 RMK AO2
14926KSTC STC20041103143509711/03/04 14:35:31  5-MIN KSTC 032035Z AUTO 18012KT 10SM CLR 10/01 A3007 890 54 500 180/12 RMK AO2
14926KSTC STC20041103144009711/03/04 14:40:31  5-MIN KSTC 032040Z AUTO 17012KT 10SM CLR 10/02 A3007 890 56 500 170/12 RMK AO2
14926KSTC STC20041103144509711/03/04 14:45:31  5-MIN KSTC 032045Z AUTO 18014KT 10SM CLR 10/01 A3006 890 54 500 180/14 RMK AO2
14926KSTC STC20041103145012011/03/04 14:50:31  5-MIN KSTC 032050Z AUTO 20011KT 10SM CLR 10/02 A3006 900 56 600 190/11 RMK AO2 SLP197 T01000017 58014
14926KSTC STC20041103145509711/03/04 14:55:31  5-MIN KSTC 032055Z AUTO 18014KT 10SM CLR 10/01 A3006 900 54 600 180/14 RMK AO2
14926KSTC STC20041103150009711/03/04 15:00:31  5-MIN KSTC 032100Z AUTO 19012KT 10SM CLR 10/01 A3005 900 54 600 180/12 RMK AO2
14926KSTC STC20041103150509711/03/04 15:05:31  5-MIN KSTC 032105Z AUTO 19013KT 10SM CLR 09/01 A3006 900 53 500 190/13 RMK AO2
14926KSTC STC20041103151009711/03/04 15:10:31  5-MIN KSTC 032110Z AUTO 18014KT 10SM CLR 09/01 A3006 900 56 500 180/14 RMK AO2
14926KSTC STC20041103151509711/03/04 15:15:31  5-MIN KSTC 032115Z AUTO 19013KT 10SM CLR 09/01 A3005 900 56 500 180/13 RMK AO2
14926KSTC STC20041103152009711/03/04 15:20:31  5-MIN KSTC 032120Z AUTO 19013KT 10SM CLR 09/01 A3005 910 56 500 190/13 RMK AO2
14926KSTC STC20041103152509711/03/04 15:25:31  5-MIN KSTC 032125Z AUTO 19011KT 10SM CLR 09/02 A3005 910 58 500 190/11 RMK AO2
14926KSTC STC20041103153009711/03/04 15:30:31  5-MIN KSTC 032130Z AUTO 18011KT 10SM CLR 09/02 A3005 910 58 500 180/11 RMK AO2
14926KSTC STC20041103153509711/03/04 15:35:31  5-MIN KSTC 032135Z AUTO 18012KT 10SM CLR 09/02 A3005 910 58 500 170/12 RMK AO2
14926KSTC STC20041103154009711/03/04 15:40:31  5-MIN KSTC 032140Z AUTO 19012KT 10SM CLR 09/02 A3004 910 58 500 190/12 RMK AO2
14926KSTC STC20041103154509711/03/04 15:45:31  5-MIN KSTC 032145Z AUTO 19012KT 10SM CLR 09/02 A3005 910 58 500 190/12 RMK AO2
14926KSTC STC20041103155011411/03/04 15:50:31  5-MIN KSTC 032150Z AUTO 18013KT 10SM CLR 09/02 A3004 910 60 500 170/13 RMK AO2 SLP192 T00940022
14926KSTC STC20041103155509711/03/04 15:55:31  5-MIN KSTC 032155Z AUTO 18010KT 10SM CLR 09/02 A3004 910 60 500 170/10 RMK AO2
14926KSTC STC20041103160009711/03/04 16:00:31  5-MIN KSTC 032200Z AUTO 18013KT 10SM CLR 09/02 A3004 920 63 400 170/13 RMK AO2
14926KSTC STC20041103160509711/03/04 16:05:31  5-MIN KSTC 032205Z AUTO 18011KT 10SM CLR 09/02 A3004 920 63 400 180/11 RMK AO2
14926KSTC STC20041103161009711/03/04 16:10:31  5-MIN KSTC 032210Z AUTO 17012KT 10SM CLR 09/02 A3003 920 63 400 170/12 RMK AO2
14926KSTC STC20041103161509711/03/04 16:15:31  5-MIN KSTC 032215Z AUTO 18012KT 10SM CLR 09/02 A3003 920 60 500 180/12 RMK AO2
14926KSTC STC20041103162009711/03/04 16:20:31  5-MIN KSTC 032220Z AUTO 17013KT 10SM CLR 09/02 A3003 920 63 500 170/13 RMK AO2
14926KSTC STC20041103162509711/03/04 16:25:31  5-MIN KSTC 032225Z AUTO 18012KT 10SM CLR 09/02 A3003 930 63 500 180/12 RMK AO2
14926KSTC STC20041103163009711/03/04 16:30:31  5-MIN KSTC 032230Z AUTO 18012KT 10SM CLR 08/02 A3003 930 65 400 170/12 RMK AO2
14926KSTC STC20041103163509711/03/04 16:35:31  5-MIN KSTC 032235Z AUTO 18010KT 10SM CLR 08/02 A3003 920 63 400 170/10 RMK AO2
14926KSTC STC20041103164009711/03/04 16:40:31  5-MIN KSTC 032240Z AUTO 17011KT 10SM CLR 08/02 A3003 930 63 400 170/11 RMK AO2
14926KSTC STC20041103164509711/03/04 16:45:31  5-MIN KSTC 032245Z AUTO 17008KT 10SM CLR 08/02 A3003 930 63 400 170/08 RMK AO2
14926KSTC STC20041103165011411/03/04 16:50:31  5-MIN KSTC 032250Z AUTO 17009KT 10SM CLR 08/02 A3003 930 65 300 170/09 RMK AO2 SLP185 T00780017
14926KSTC STC20041103165509711/03/04 16:55:31  5-MIN KSTC 032255Z AUTO 17007KT 10SM CLR 08/02 A3003 930 65 300 170/07 RMK AO2
14926KSTC STC20041103170009711/03/04 17:00:31  5-MIN KSTC 032300Z AUTO 17007KT 10SM CLR 07/02 A3003 930 68 300 170/07 RMK AO2
14926KSTC STC20041103170509711/03/04 17:05:31  5-MIN KSTC 032305Z AUTO 17006KT 10SM CLR 07/02 A3003 930 68 300 160/06 RMK AO2
14926KSTC STC20041103171009711/03/04 17:10:31  5-MIN KSTC 032310Z AUTO 16006KT 10SM CLR 07/02 A3003 930 70 200 160/06 RMK AO2
14926KSTC STC20041103171509711/03/04 17:15:31  5-MIN KSTC 032315Z AUTO 17006KT 10SM CLR 07/02 A3002 930 70 200 170/06 RMK AO2
14926KSTC STC20041103172009711/03/04 17:20:31  5-MIN KSTC 032320Z AUTO 17006KT 10SM CLR 07/02 A3002 930 70 200 160/06 RMK AO2
14926KSTC STC20041103172509711/03/04 17:25:31  5-MIN KSTC 032325Z AUTO 17007KT 10SM CLR 06/02 A3002 930 73 100 160/07 RMK AO2
14926KSTC STC20041103173009711/03/04 17:30:31  5-MIN KSTC 032330Z AUTO 16007KT 10SM CLR 06/02 A3002 940 76 100 160/07 RMK AO2
14926KSTC STC20041103173509511/03/04 17:35:31  5-MIN KSTC 032335Z AUTO 16008KT 10SM CLR 05/02 A3002 940 79 0 160/08 RMK AO2
14926KSTC STC20041103174009711/03/04 17:40:31  5-MIN KSTC 032340Z AUTO 16008KT 10SM CLR 06/02 A3002 940 76 100 150/08 RMK AO2
14926KSTC STC20041103174509711/03/04 17:45:31  5-MIN KSTC 032345Z AUTO 16007KT 10SM CLR 06/02 A3002 940 76 100 150/07 RMK AO2
14926KSTC STC20041103175013011/03/04 17:50:31  5-MIN KSTC 032350Z AUTO 15007KT 10SM CLR 05/02 A3002 940 79 0 150/07 RMK AO2 SLP183 T00500017 10106 20050 56028
14926KSTC STC20041103175509511/03/04 17:55:31  5-MIN KSTC 032355Z AUTO 15006KT 10SM CLR 05/02 A3001 940 79 0 150/06 RMK AO2
14926KSTC STC20041103180009511/03/04 18:00:31  5-MIN KSTC 040000Z AUTO 15005KT 10SM CLR 05/02 A3001 940 79 0 140/05 RMK AO2
14926KSTC STC20041103180509511/03/04 18:05:31  5-MIN KSTC 040005Z AUTO 15006KT 10SM CLR 05/01 A3001 940 76 0 150/06 RMK AO2
14926KSTC STC20041103181009511/03/04 18:10:31  5-MIN KSTC 040010Z AUTO 15006KT 10SM CLR 05/01 A3001 940 76 0 150/06 RMK AO2
14926KSTC STC20041103181509511/03/04 18:15:31  5-MIN KSTC 040015Z AUTO 14006KT 10SM CLR 04/01 A3001 940 79 0 140/06 RMK AO2
14926KSTC STC20041103182009811/03/04 18:20:31  5-MIN KSTC 040020Z AUTO 14006KT 10SM CLR 03/01 A3001 940 85 -200 140/06 RMK AO2
14926KSTC STC20041103182509811/03/04 18:25:31  5-MIN KSTC 040025Z AUTO 15007KT 10SM CLR 03/01 A3001 950 85 -200 140/07 RMK AO2
14926KSTC STC20041103183009811/03/04 18:30:31  5-MIN KSTC 040030Z AUTO 15006KT 10SM CLR 03/01 A3001 950 85 -200 150/06 RMK AO2
14926KSTC STC20041103183509811/03/04 18:35:31  5-MIN KSTC 040035Z AUTO 16005KT 10SM CLR 03/01 A3000 950 85 -200 160/05 RMK AO2
14926KSTC STC20041103184009811/03/04 18:40:31  5-MIN KSTC 040040Z AUTO 16005KT 10SM CLR 03/01 A3000 950 85 -200 160/05 RMK AO2
14926KSTC STC20041103184509811/03/04 18:45:31  5-MIN KSTC 040045Z AUTO 16006KT 10SM CLR 03/01 A3000 960 85 -200 160/06 RMK AO2
14926KSTC STC20041103185011511/03/04 18:50:31  5-MIN KSTC 040050Z AUTO 16006KT 10SM CLR 03/01 A3000 960 85 -200 160/06 RMK AO2 SLP178 T00280006
14926KSTC STC20041103185509811/03/04 18:55:31  5-MIN KSTC 040055Z AUTO 15005KT 10SM CLR 03/01 A3000 950 82 -100 150/05 RMK AO2
14926KSTC STC20041103190009811/03/04 19:00:31  5-MIN KSTC 040100Z AUTO 14004KT 10SM CLR 04/01 A3000 960 82 -100 140/04 RMK AO2
14926KSTC STC20041103190509811/03/04 19:05:31  5-MIN KSTC 040105Z AUTO 15005KT 10SM CLR 04/01 A2999 960 82 -100 140/05 RMK AO2
14926KSTC STC20041103191009811/03/04 19:10:31  5-MIN KSTC 040110Z AUTO 15006KT 10SM CLR 03/01 A2999 960 82 -100 150/06 RMK AO2
14926KSTC STC20041103191509811/03/04 19:15:31  5-MIN KSTC 040115Z AUTO 15006KT 10SM CLR 03/01 A2999 960 85 -200 140/06 RMK AO2
14926KSTC STC20041103192009811/03/04 19:20:31  5-MIN KSTC 040120Z AUTO 15006KT 10SM CLR 02/01 A2999 960 89 -300 140/06 RMK AO2
14926KSTC STC20041103192509811/03/04 19:25:31  5-MIN KSTC 040125Z AUTO 14005KT 10SM CLR 03/01 A2999 960 85 -200 140/05 RMK AO2
14926KSTC STC20041103193009811/03/04 19:30:31  5-MIN KSTC 040130Z AUTO 15005KT 10SM CLR 03/01 A2999 960 85 -100 140/05 RMK AO2
14926KSTC STC20041103193509811/03/04 19:35:31  5-MIN KSTC 040135Z AUTO 15005KT 10SM CLR 03/01 A2999 960 82 -100 150/05 RMK AO2
14926KSTC STC20041103194009811/03/04 19:40:31  5-MIN KSTC 040140Z AUTO 16005KT 10SM CLR 03/01 A2999 960 85 -200 160/05 RMK AO2
14926KSTC STC20041103194509811/03/04 19:45:31  5-MIN KSTC 040145Z AUTO 16005KT 10SM CLR 03/01 A2999 960 85 -200 150/05 RMK AO2
14926KSTC STC20041103195011511/03/04 19:50:31  5-MIN KSTC 040150Z AUTO 15006KT 10SM CLR 03/01 A2999 970 89 -200 150/06 RMK AO2 SLP173 T00280011
14926KSTC STC20041103195509811/03/04 19:55:31  5-MIN KSTC 040155Z AUTO 16007KT 10SM CLR 03/01 A2998 970 89 -200 150/07 RMK AO2
14926KSTC STC20041103200009811/03/04 20:00:31  5-MIN KSTC 040200Z AUTO 16006KT 10SM CLR 03/01 A2998 970 85 -200 150/06 RMK AO2
14926KSTC STC20041103200509811/03/04 20:05:31  5-MIN KSTC 040205Z AUTO 16006KT 10SM CLR 02/01 A2998 970 89 -300 160/06 RMK AO2
14926KSTC STC20041103201009711/03/04 20:10:31  5-MIN KSTC 040210Z AUTO 16006KT 9SM CLR 02/01 A2998 970 89 -300 160/06 RMK AO2
14926KSTC STC20041103201509711/03/04 20:15:31  5-MIN KSTC 040215Z AUTO 17006KT 9SM CLR 02/01 A2999 970 89 -300 160/06 RMK AO2
14926KSTC STC20041103202009811/03/04 20:20:31  5-MIN KSTC 040220Z AUTO 16006KT 10SM CLR 02/01 A2999 970 89 -300 160/06 RMK AO2
14926KSTC STC20041103202509811/03/04 20:25:31  5-MIN KSTC 040225Z AUTO 17006KT 10SM CLR 03/01 A2999 970 89 -200 170/06 RMK AO2
14926KSTC STC20041103203009811/03/04 20:30:31  5-MIN KSTC 040230Z AUTO 17005KT 10SM CLR 02/01 A2998 970 89 -300 170/05 RMK AO2
14926KSTC STC20041103203509811/03/04 20:35:31  5-MIN KSTC 040235Z AUTO 17005KT 10SM CLR 02/01 A2999 960 89 -300 170/05 RMK AO2
14926KSTC STC20041103204009811/03/04 20:40:31  5-MIN KSTC 040240Z AUTO 17005KT 10SM CLR 02/01 A2999 960 89 -300 170/05 RMK AO2
14926KSTC STC20041103204509811/03/04 20:45:31  5-MIN KSTC 040245Z AUTO 17005KT 10SM CLR 02/01 A2999 960 92 -300 170/05 RMK AO2
14926KSTC STC20041103205012111/03/04 20:50:31  5-MIN KSTC 040250Z AUTO 18005KT 10SM CLR 02/01 A2999 960 89 -300 170/05 RMK AO2 SLP174 T00220006 56014
14926KSTC STC20041103205509711/03/04 20:55:31  5-MIN KSTC 040255Z AUTO 17005KT 9SM CLR 02/01 A2999 960 92 -300 170/05 RMK AO2
14926KSTC STC20041103210009711/03/04 21:00:31  5-MIN KSTC 040300Z AUTO 17005KT 9SM CLR 02/01 A3000 960 89 -300 170/05 RMK AO2
14926KSTC STC20041103210509711/03/04 21:05:31  5-MIN KSTC 040305Z AUTO 18004KT 9SM CLR 02/01 A3000 950 92 -300 180/04 RMK AO2
14926KSTC STC20041103211009711/03/04 21:10:31  5-MIN KSTC 040310Z AUTO 19003KT 9SM CLR 02/01 A3000 950 92 -300 180/03 RMK AO2
14926KSTC STC20041103211509711/03/04 21:15:31  5-MIN KSTC 040315Z AUTO 18004KT 9SM CLR 02/01 A3000 950 92 -300 170/04 RMK AO2
14926KSTC STC20041103212009711/03/04 21:20:31  5-MIN KSTC 040320Z AUTO 18004KT 9SM CLR 02/01 A3000 960 96 -300 170/04 RMK AO2
14926KSTC STC20041103212509711/03/04 21:25:31  5-MIN KSTC 040325Z AUTO 18005KT 9SM CLR 02/01 A3000 960 92 -300 180/05 RMK AO2
14926KSTC STC20041103213009711/03/04 21:30:31  5-MIN KSTC 040330Z AUTO 19005KT 8SM CLR 02/01 A3000 960 92 -300 180/05 RMK AO2
14926KSTC STC20041103213509711/03/04 21:35:31  5-MIN KSTC 040335Z AUTO 18005KT 8SM CLR 02/01 A3000 960 92 -300 180/05 RMK AO2
14926KSTC STC20041103214009711/03/04 21:40:31  5-MIN KSTC 040340Z AUTO 18006KT 8SM CLR 01/01 A2999 960 96 -400 170/06 RMK AO2
14926KSTC STC20041103214509711/03/04 21:45:31  5-MIN KSTC 040345Z AUTO 18006KT 8SM CLR 02/01 A2999 960 92 -300 180/06 RMK AO2
14926KSTC STC20041103215011411/03/04 21:50:31  5-MIN KSTC 040350Z AUTO 18006KT 8SM CLR 02/01 A2999 960 92 -300 180/06 RMK AO2 SLP172 T00170006
14926KSTC STC20041103215509711/03/04 21:55:31  5-MIN KSTC 040355Z AUTO 18007KT 8SM CLR 02/01 A2999 970 92 -300 180/07 RMK AO2
14926KSTC STC20041103220009711/03/04 22:00:31  5-MIN KSTC 040400Z AUTO 19006KT 8SM CLR 02/01 A2998 970 92 -300 180/06 RMK AO2
14926KSTC STC20041103220509711/03/04 22:05:31  5-MIN KSTC 040405Z AUTO 19005KT 8SM CLR 02/01 A2998 970 92 -300 190/05 RMK AO2
14926KSTC STC20041103221009711/03/04 22:10:31  5-MIN KSTC 040410Z AUTO 19005KT 8SM CLR 02/01 A2998 970 92 -300 180/05 RMK AO2
14926KSTC STC20041103221509711/03/04 22:15:31  5-MIN KSTC 040415Z AUTO 19004KT 8SM CLR 02/01 A2998 970 92 -300 190/04 RMK AO2
14926KSTC STC20041103222009711/03/04 22:20:31  5-MIN KSTC 040420Z AUTO 19005KT 8SM CLR 02/01 A2998 970 92 -300 180/05 RMK AO2
14926KSTC STC20041103222509711/03/04 22:25:31  5-MIN KSTC 040425Z AUTO 19005KT 8SM CLR 02/01 A2998 970 92 -300 180/05 RMK AO2
14926KSTC STC20041103223009711/03/04 22:30:31  5-MIN KSTC 040430Z AUTO 19004KT 8SM CLR 02/01 A2998 970 92 -300 190/04 RMK AO2
14926KSTC STC20041103223509711/03/04 22:35:31  5-MIN KSTC 040435Z AUTO 20004KT 8SM CLR 02/01 A2998 970 96 -300 200/04 RMK AO2
14926KSTC STC20041103224009711/03/04 22:40:31  5-MIN KSTC 040440Z AUTO 20005KT 8SM CLR 02/01 A2998 970 92 -300 200/05 RMK AO2
14926KSTC STC20041103224509711/03/04 22:45:31  5-MIN KSTC 040445Z AUTO 19005KT 7SM CLR 02/01 A2998 980 92 -300 190/05 RMK AO2
14926KSTC STC20041103225011411/03/04 22:50:31  5-MIN KSTC 040450Z AUTO 18006KT 7SM CLR 02/01 A2997 980 92 -300 180/06 RMK AO2 SLP166 T00170006
14926KSTC STC20041103225509711/03/04 22:55:31  5-MIN KSTC 040455Z AUTO 18005KT 7SM CLR 02/01 A2997 980 92 -300 170/05 RMK AO2
14926KSTC STC20041103230009711/03/04 23:00:31  5-MIN KSTC 040500Z AUTO 18004KT 7SM CLR 01/01 A2997 980 96 -400 180/04 RMK AO2
14926KSTC STC20041103230510011/03/04 23:05:31  5-MIN KSTC 040505Z AUTO 00000KT 6SM BR CLR 01/01 A2997 980 96 -400 000/00 RMK AO2
14926KSTC STC20041103231010011/03/04 23:10:31  5-MIN KSTC 040510Z AUTO 00000KT 6SM BR CLR 01/01 A2997 980 96 -400 000/00 RMK AO2
14926KSTC STC20041103231510011/03/04 23:15:31  5-MIN KSTC 040515Z AUTO 20004KT 6SM BR CLR 02/01 A2997 980 96 -300 190/04 RMK AO2
14926KSTC STC20041103232009711/03/04 23:20:31  5-MIN KSTC 040520Z AUTO 19004KT 7SM CLR 02/01 A2997 980 96 -300 190/04 RMK AO2
14926KSTC STC20041103232509711/03/04 23:25:31  5-MIN KSTC 040525Z AUTO 18005KT 7SM CLR 01/01 A2996 990 96 -400 180/05 RMK AO2
14926KSTC STC20041103233009711/03/04 23:30:31  5-MIN KSTC 040530Z AUTO 19005KT 7SM CLR 01/00 A2996 990 96 -400 180/05 RMK AO2
14926KSTC STC20041103233509711/03/04 23:35:31  5-MIN KSTC 040535Z AUTO 19005KT 7SM CLR 01/01 A2996 990 96 -400 190/05 RMK AO2
14926KSTC STC20041103234009711/03/04 23:40:31  5-MIN KSTC 040540Z AUTO 20005KT 7SM CLR 01/00 A2996 990 92 -400 190/05 RMK AO2
14926KSTC STC20041103234509711/03/04 23:45:31  5-MIN KSTC 040545Z AUTO 20005KT 7SM CLR 01/01 A2996 990 96 -400 200/05 RMK AO2
14926KSTC STC20041103235014211/03/04 23:50:31  5-MIN KSTC 040550Z AUTO 21006KT 7SM CLR 01/00 A2996 990 92 -400 200/06 RMK AO2 SLP161 T00110000 10056 20006 401061028 55007
14926KSTC STC20041103235509711/03/04 23:55:31  5-MIN KSTC 040555Z AUTO 20006KT 7SM CLR 01/00 A2996 990 92 -400 200/06 RMK AO2
14926KSTC STC20041104000010111/04/04 00:00:32  5-MIN KSTC 040600Z AUTO 20007KT 6SM BR CLR 01/00 A2995 1000 92 -400 190/07 RMK AO2
14926KSTC STC20041104000509811/04/04 00:05:31  5-MIN KSTC 040605Z AUTO 19007KT 7SM CLR 01/01 A2995 1000 96 -400 190/07 RMK AO2
14926KSTC STC20041104001009811/04/04 00:10:31  5-MIN KSTC 040610Z AUTO 19007KT 7SM CLR 02/01 A2995 1000 92 -300 190/07 RMK AO2
14926KSTC STC20041104001509811/04/04 00:15:31  5-MIN KSTC 040615Z AUTO 19007KT 7SM CLR 02/01 A2995 1000 96 -300 190/07 RMK AO2
14926KSTC STC20041104002009811/04/04 00:20:31  5-MIN KSTC 040620Z AUTO 19007KT 7SM CLR 02/01 A2995 1000 96 -300 190/07 RMK AO2
14926KSTC STC20041104002509811/04/04 00:25:31  5-MIN KSTC 040625Z AUTO 19006KT 7SM CLR 02/01 A2994 1000 92 -300 190/06 RMK AO2
14926KSTC STC20041104003009811/04/04 00:30:31  5-MIN KSTC 040630Z AUTO 19006KT 7SM CLR 02/01 A2995 1000 92 -300 190/06 RMK AO2
14926KSTC STC20041104003509811/04/04 00:35:31  5-MIN KSTC 040635Z AUTO 20005KT 7SM CLR 02/01 A2994 1000 92 -300 190/05 RMK AO2
14926KSTC STC20041104004009811/04/04 00:40:31  5-MIN KSTC 040640Z AUTO 20005KT 7SM CLR 02/01 A2994 1010 92 -300 190/05 RMK AO2
14926KSTC STC20041104004509811/04/04 00:45:31  5-MIN KSTC 040645Z AUTO 21006KT 7SM CLR 01/01 A2994 1010 96 -300 200/06 RMK AO2
14926KSTC STC20041104005011811/04/04 00:50:31  5-MIN KSTC 040650Z AUTO 21006KT 6SM BR CLR 01/01 A2994 1010 96 -300 210/06 RMK AO2 SLP153 T00110006
14926KSTC STC20041104005510111/04/04 00:55:31  5-MIN KSTC 040655Z AUTO 21006KT 6SM BR CLR 01/01 A2994 1010 96 -300 210/06 RMK AO2
14926KSTC STC20041104010009811/04/04 01:00:31  5-MIN KSTC 040700Z AUTO 21007KT 7SM CLR 02/01 A2993 1010 92 -300 210/07 RMK AO2
14926KSTC STC20041104010509811/04/04 01:05:31  5-MIN KSTC 040705Z AUTO 21007KT 7SM CLR 02/01 A2993 1010 92 -300 210/07 RMK AO2
14926KSTC STC20041104011009811/04/04 01:10:31  5-MIN KSTC 040710Z AUTO 21007KT 7SM CLR 02/01 A2993 1020 92 -300 210/07 RMK AO2
14926KSTC STC20041104011509811/04/04 01:15:31  5-MIN KSTC 040715Z AUTO 21007KT 7SM CLR 02/01 A2993 1020 92 -300 200/07 RMK AO2
14926KSTC STC20041104012009811/04/04 01:20:31  5-MIN KSTC 040720Z AUTO 21008KT 7SM CLR 02/01 A2993 1020 92 -300 210/08 RMK AO2
14926KSTC STC20041104012509811/04/04 01:25:31  5-MIN KSTC 040725Z AUTO 21008KT 7SM CLR 02/01 A2993 1020 92 -200 210/08 RMK AO2
14926KSTC STC20041104013009811/04/04 01:30:31  5-MIN KSTC 040730Z AUTO 21007KT 7SM CLR 02/01 A2992 1020 92 -300 210/07 RMK AO2
14926KSTC STC20041104013509811/04/04 01:35:31  5-MIN KSTC 040735Z AUTO 21006KT 7SM CLR 02/01 A2992 1030 92 -300 210/06 RMK AO2
14926KSTC STC20041104014009811/04/04 01:40:31  5-MIN KSTC 040740Z AUTO 21006KT 7SM CLR 02/01 A2992 1030 92 -300 210/06 RMK AO2
14926KSTC STC20041104014509811/04/04 01:45:31  5-MIN KSTC 040745Z AUTO 21006KT 7SM CLR 02/01 A2992 1030 92 -300 210/06 RMK AO2
14926KSTC STC20041104015011511/04/04 01:50:31  5-MIN KSTC 040750Z AUTO 22005KT 7SM CLR 02/01 A2992 1030 92 -300 220/05 RMK AO2 SLP146 T00170006
14926KSTC STC20041104015509811/04/04 01:55:31  5-MIN KSTC 040755Z AUTO 24005KT 7SM CLR 02/01 A2992 1030 92 -300 240/05 RMK AO2
14926KSTC STC20041104020009811/04/04 02:00:31  5-MIN KSTC 040800Z AUTO 25004KT 7SM CLR 02/01 A2991 1030 92 -200 250/04 RMK AO2
14926KSTC STC20041104020509811/04/04 02:05:31  5-MIN KSTC 040805Z AUTO 25004KT 7SM CLR 02/01 A2991 1030 92 -200 250/04 RMK AO2
14926KSTC STC20041104021010111/04/04 02:10:31  5-MIN KSTC 040810Z AUTO 24003KT 6SM BR CLR 02/01 A2991 1030 92 -200 240/03 RMK AO2
14926KSTC STC20041104021510111/04/04 02:15:31  5-MIN KSTC 040815Z AUTO 25003KT 6SM BR CLR 02/01 A2991 1030 92 -200 250/03 RMK AO2
14926KSTC STC20041104022010111/04/04 02:20:31  5-MIN KSTC 040820Z AUTO 27004KT 6SM BR CLR 01/01 A2991 1040 96 -300 260/04 RMK AO2
14926KSTC STC20041104022510111/04/04 02:25:31  5-MIN KSTC 040825Z AUTO 26003KT 6SM BR CLR 01/01 A2990 1040 96 -300 260/03 RMK AO2
14926KSTC STC20041104023010111/04/04 02:30:31  5-MIN KSTC 040830Z AUTO 24004KT 6SM BR CLR 01/01 A2990 1040 96 -300 240/04 RMK AO2
14926KSTC STC20041104023509811/04/04 02:35:31  5-MIN KSTC 040835Z AUTO 24004KT 7SM CLR 02/01 A2990 1040 92 -200 240/04 RMK AO2
14926KSTC STC20041104024009811/04/04 02:40:31  5-MIN KSTC 040840Z AUTO 25005KT 7SM CLR 01/01 A2990 1040 96 -300 240/05 RMK AO2
14926KSTC STC20041104024509811/04/04 02:45:31  5-MIN KSTC 040845Z AUTO 26005KT 7SM CLR 01/00 A2990 1050 92 -300 250/05 RMK AO2
14926KSTC STC20041104025012111/04/04 02:50:31  5-MIN KSTC 040850Z AUTO 26005KT 7SM CLR 01/00 A2990 1050 92 -300 250/05 RMK AO2 SLP139 T00110000 58012
14926KSTC STC20041104025509811/04/04 02:55:31  5-MIN KSTC 040855Z AUTO 26005KT 7SM CLR 01/00 A2989 1050 92 -300 260/05 RMK AO2
14926KSTC STC20041108051511811/08/04 05:15:31  5-MIN KSTC 081115Z AUTO 00000KT 10SM BKN048 BKN070 OVC090 M01/M04 A3043 560 78 -1100 000/00 RMK AO2
14926KSTC STC20041108052011811/08/04 05:20:31  5-MIN KSTC 081120Z AUTO 00000KT 10SM BKN048 BKN070 OVC090 M01/M04 A3042 560 78 -1100 000/00 RMK AO2
14926KSTC STC20041108052511111/08/04 05:25:31  5-MIN KSTC 081125Z AUTO 00000KT 10SM SCT048 OVC085 M01/M04 A3042 570 78 -1100 000/00 RMK AO2
14926KSTC STC20041108053011811/08/04 05:30:31  5-MIN KSTC 081130Z AUTO 00000KT 10SM SCT048 BKN080 OVC090 M01/M03 A3042 570 81 -1100 000/00 RMK AO2
14926KSTC STC20041108053511811/08/04 05:35:31  5-MIN KSTC 081135Z AUTO 00000KT 10SM FEW046 BKN075 OVC090 M01/M04 A3043 560 78 -1100 000/00 RMK AO2
14926KSTC STC20041108054011811/08/04 05:40:31  5-MIN KSTC 081140Z AUTO 00000KT 10SM FEW044 BKN075 OVC090 M01/M04 A3043 560 78 -1100 000/00 RMK AO2
14926KSTC STC20041108054511811/08/04 05:45:31  5-MIN KSTC 081145Z AUTO 00000KT 10SM FEW055 BKN075 OVC090 M01/M03 A3043 560 85 -1100 000/00 RMK AO2
14926KSTC STC20041108055014611/08/04 05:50:31  5-MIN KSTC 081150Z AUTO 00000KT 10SM SCT048 OVC075 M01/M03 A3043 560 85 -1100 000/00 RMK AO2 SLP328 T10061028 11006 21028 52015
14926KSTC STC20041108055511111/08/04 05:55:31  5-MIN KSTC 081155Z AUTO 00000KT 10SM SCT045 OVC070 M01/M03 A3043 550 85 -1100 000/00 RMK AO2
14926KSTC STC20041108060011111/08/04 06:00:31  5-MIN KSTC 081200Z AUTO 34003KT 10SM SCT045 OVC070 M01/M04 A3044 550 78 -1100 330/03 RMK AO2
14926KSTC STC20041108060511811/08/04 06:05:31  5-MIN KSTC 081205Z AUTO 33003KT 10SM SCT045 BKN070 OVC085 M01/M04 A3044 550 78 -1100 320/03 RMK AO2
14926KSTC STC20041108061011811/08/04 06:10:31  5-MIN KSTC 081210Z AUTO 32003KT 10SM FEW045 BKN070 OVC085 M01/M04 A3044 550 78 -1100 320/03 RMK AO2
14926KSTC STC20041108061511811/08/04 06:15:31  5-MIN KSTC 081215Z AUTO 00000KT 10SM SCT047 BKN070 OVC085 M01/M03 A3045 540 81 -1100 000/00 RMK AO2
14926KSTC STC20041108062011811/08/04 06:20:31  5-MIN KSTC 081220Z AUTO 00000KT 10SM FEW050 BKN070 OVC085 M01/M04 A3044 550 78 -1100 000/00 RMK AO2
14926KSTC STC20041108062511111/08/04 06:25:31  5-MIN KSTC 081225Z AUTO 35003KT 10SM BKN070 OVC085 M01/M03 A3044 540 81 -1100 340/03 RMK AO2
14926KSTC STC20041108063011111/08/04 06:30:31  5-MIN KSTC 081230Z AUTO 00000KT 10SM BKN070 OVC080 M01/M04 A3044 550 78 -1100 000/00 RMK AO2
14926KSTC STC20041108063511111/08/04 06:35:31  5-MIN KSTC 081235Z AUTO 35003KT 10SM BKN070 OVC085 M01/M04 A3045 540 78 -1100 350/03 RMK AO2
14926KSTC STC20041108064011011/08/04 06:40:31  5-MIN KSTC 081240Z AUTO 00000KT 10SM BKN070 OVC085 00/M04 A3044 550 75 -1100 000/00 RMK AO2
14926KSTC STC20041108064511011/08/04 06:45:31  5-MIN KSTC 081245Z AUTO 00000KT 10SM BKN065 OVC080 00/M04 A3044 540 75 -1100 000/00 RMK AO2
14926KSTC STC20041108065012811/08/04 06:50:31  5-MIN KSTC 081250Z AUTO 04004KT 10SM BKN065 OVC080 M01/M04 A3045 540 78 -1100 040/04 RMK AO2 SLP333 T10061039
14926KSTC STC20041108065511011/08/04 06:55:31  5-MIN KSTC 081255Z AUTO 00000KT 10SM BKN065 OVC085 00/M04 A3045 540 75 -1100 000/00 RMK AO2
14926KSTC STC20041108070010311/08/04 07:00:31  5-MIN KSTC 081300Z AUTO 00000KT 10SM OVC070 00/M04 A3045 540 72 -1100 000/00 RMK AO2
14926KSTC STC20041108070510311/08/04 07:05:31  5-MIN KSTC 081305Z AUTO 00000KT 10SM OVC070 00/M04 A3045 540 72 -1100 000/00 RMK AO2
14926KSTC STC20041108071010311/08/04 07:10:31  5-MIN KSTC 081310Z AUTO 00000KT 10SM OVC070 00/M04 A3045 540 75 -1100 000/00 RMK AO2
14926KSTC STC20041108071511011/08/04 07:15:31  5-MIN KSTC 081315Z AUTO 00000KT 10SM SCT050 OVC070 00/M03 A3045 540 78 -1100 000/00 RMK AO2
14926KSTC STC20041108072011711/08/04 07:20:31  5-MIN KSTC 081320Z AUTO 36003KT 10SM SCT043 BKN060 OVC070 00/M04 A3046 530 75 -1100 360/03 RMK AO2
14926KSTC STC20041108072511011/08/04 07:25:31  5-MIN KSTC 081325Z AUTO 01003KT 10SM BKN038 OVC070 00/M04 A3046 530 75 -1100 360/03 RMK AO2
14926KSTC STC20041108073011711/08/04 07:30:31  5-MIN KSTC 081330Z AUTO 02004KT 10SM BKN036 BKN046 OVC070 00/M03 A3046 530 78 -1100 020/04 RMK AO2
14926KSTC STC20041108073511611/08/04 07:35:31  5-MIN KSTC 081335Z AUTO 02003KT 9SM BKN036 BKN046 OVC070 00/M04 A3046 530 75 -1100 010/03 RMK AO2
14926KSTC STC20041108074010211/08/04 07:40:31  5-MIN KSTC 081340Z AUTO 00000KT 9SM OVC036 00/M04 A3046 530 75 -1100 000/00 RMK AO2
14926KSTC STC20041108074510911/08/04 07:45:31  5-MIN KSTC 081345Z AUTO 00000KT 9SM BKN036 OVC085 00/M04 A3046 540 75 -1100 000/00 RMK AO2
14926KSTC STC20041108075012711/08/04 07:50:31  5-MIN KSTC 081350Z AUTO 00000KT 10SM BKN034 OVC085 00/M04 A3046 530 75 -1100 000/00 RMK AO2 SLP336 T00001039
14926KSTC STC20041108075511011/08/04 07:55:31  5-MIN KSTC 081355Z AUTO 00000KT 10SM SCT034 OVC085 00/M04 A3046 530 75 -1100 000/00 RMK AO2
14926KSTC STC20041108080011011/08/04 08:00:31  5-MIN KSTC 081400Z AUTO 00000KT 10SM FEW034 OVC080 00/M03 A3046 530 78 -1100 000/00 RMK AO2
14926KSTC STC20041108080511011/08/04 08:05:31  5-MIN KSTC 081405Z AUTO 00000KT 10SM FEW036 OVC080 00/M04 A3046 530 75 -1100 000/00 RMK AO2
14926KSTC STC20041108081010311/08/04 08:10:31  5-MIN KSTC 081410Z AUTO 00000KT 10SM OVC080 00/M04 A3046 530 72 -1100 000/00 RMK AO2
14926KSTC STC20041108081511011/08/04 08:15:31  5-MIN KSTC 081415Z AUTO 00000KT 10SM FEW036 OVC080 00/M04 A3046 530 72 -1100 000/00 RMK AO2
14926KSTC STC20041108082011711/08/04 08:20:31  5-MIN KSTC 081420Z AUTO 00000KT 10SM FEW036 BKN070 OVC085 00/M04 A3046 530 75 -1100 000/00 RMK AO2
14926KSTC STC20041108082511711/08/04 08:25:31  5-MIN KSTC 081425Z AUTO 00000KT 10SM FEW036 BKN070 OVC085 01/M04 A3046 530 72 -1000 000/00 RMK AO2
14926KSTC STC20041108083011711/08/04 08:30:31  5-MIN KSTC 081430Z AUTO 00000KT 10SM FEW036 BKN065 OVC080 01/M04 A3046 530 72 -1000 000/00 RMK AO2
14926KSTC STC20041108083511711/08/04 08:35:31  5-MIN KSTC 081435Z AUTO 00000KT 10SM FEW036 BKN065 OVC080 01/M04 A3046 530 72 -1000 000/00 RMK AO2
14926KSTC STC20041108084011011/08/04 08:40:31  5-MIN KSTC 081440Z AUTO 00000KT 10SM FEW038 OVC065 01/M04 A3046 530 72 -1000 000/00 RMK AO2
14926KSTC STC20041108084511011/08/04 08:45:31  5-MIN KSTC 081445Z AUTO 00000KT 10SM FEW038 OVC065 01/M04 A3046 530 72 -1000 000/00 RMK AO2
14926KSTC STC20041108085012611/08/04 08:50:31  5-MIN KSTC 081450Z AUTO 00000KT 10SM OVC065 01/M04 A3046 530 72 -1000 000/00 RMK AO2 SLP338 T00061039 51004
14926KSTC STC20041108085510311/08/04 08:55:31  5-MIN KSTC 081455Z AUTO 00000KT 10SM OVC065 01/M03 A3047 520 75 -1000 000/00 RMK AO2
14926KSTC STC20041108090010311/08/04 09:00:31  5-MIN KSTC 081500Z AUTO 00000KT 10SM OVC065 01/M03 A3047 520 75 -1000 000/00 RMK AO2
14926KSTC STC20041108090510311/08/04 09:05:31  5-MIN KSTC 081505Z AUTO 00000KT 10SM OVC065 01/M04 A3047 530 72 -1000 000/00 RMK AO2
14926KSTC STC20041108091010311/08/04 09:10:31  5-MIN KSTC 081510Z AUTO 00000KT 10SM OVC065 01/M03 A3047 520 75 -1000 000/00 RMK AO2
14926KSTC STC20041108091510311/08/04 09:15:31  5-MIN KSTC 081515Z AUTO 00000KT 10SM OVC065 01/M04 A3047 520 72 -1000 000/00 RMK AO2
14926KSTC STC20041108092010311/08/04 09:20:31  5-MIN KSTC 081520Z AUTO 00000KT 10SM OVC065 01/M04 A3047 520 72 -1000 000/00 RMK AO2
14926KSTC STC20041108092510311/08/04 09:25:31  5-MIN KSTC 081525Z AUTO 01003KT 10SM OVC065 01/M03 A3048 520 72 -1000 360/03 RMK AO2
14926KSTC STC20041108093010311/08/04 09:30:31  5-MIN KSTC 081530Z AUTO 36003KT 10SM OVC065 01/M04 A3048 510 69 -1000 360/03 RMK AO2
14926KSTC STC20041108093510311/08/04 09:35:31  5-MIN KSTC 081535Z AUTO 36003KT 10SM OVC065 01/M04 A3048 510 69 -1000 360/03 RMK AO2
14926KSTC STC20041108094010311/08/04 09:40:31  5-MIN KSTC 081540Z AUTO 36003KT 10SM OVC065 01/M04 A3048 510 69 -1000 360/03 RMK AO2
14926KSTC STC20041108094510311/08/04 09:45:31  5-MIN KSTC 081545Z AUTO 00000KT 10SM OVC065 01/M04 A3048 510 69 -1000 000/00 RMK AO2
14926KSTC STC20041108095012711/08/04 09:50:31  5-MIN KSTC 081550Z AUTO 01004KT 10SM FEW042 OVC065 01/M04 A3048 510 69 -1000 010/04 RMK AO2 SLP345 T00111039
14926KSTC STC20041108095511011/08/04 09:55:31  5-MIN KSTC 081555Z AUTO 01003KT 10SM SCT042 OVC065 01/M04 A3049 510 69 -1000 360/03 RMK AO2
14926KSTC STC20041108100011011/08/04 10:00:31  5-MIN KSTC 081600Z AUTO 02004KT 10SM BKN042 OVC065 01/M04 A3049 510 66 -1000 010/04 RMK AO2
14926KSTC STC20041108100511011/08/04 10:05:31  5-MIN KSTC 081605Z AUTO 01003KT 10SM BKN042 OVC065 01/M04 A3048 510 66 -1000 010/03 RMK AO2
14926KSTC STC20041108101011011/08/04 10:10:31  5-MIN KSTC 081610Z AUTO 01003KT 10SM BKN042 OVC070 01/M04 A3048 510 66 -1000 010/03 RMK AO2
14926KSTC STC20041108101511011/08/04 10:15:31  5-MIN KSTC 081615Z AUTO 00000KT 10SM SCT042 OVC070 01/M04 A3048 510 66 -1000 000/00 RMK AO2
14926KSTC STC20041108102011011/08/04 10:20:31  5-MIN KSTC 081620Z AUTO 00000KT 10SM SCT042 OVC070 01/M04 A3048 510 66 -1000 000/00 RMK AO2
14926KSTC STC20041108102511011/08/04 10:25:31  5-MIN KSTC 081625Z AUTO 00000KT 10SM FEW042 OVC070 01/M04 A3047 520 66 -1000 000/00 RMK AO2
14926KSTC STC20041108103011011/08/04 10:30:31  5-MIN KSTC 081630Z AUTO 00000KT 10SM FEW042 OVC070 01/M04 A3048 520 66 -1000 000/00 RMK AO2
14926KSTC STC20041108103510311/08/04 10:35:31  5-MIN KSTC 081635Z AUTO 00000KT 10SM OVC070 01/M04 A3048 510 66 -1000 000/00 RMK AO2
14926KSTC STC20041108104010211/08/04 10:40:31  5-MIN KSTC 081640Z AUTO 00000KT 10SM OVC065 02/M04 A3048 520 66 -900 000/00 RMK AO2
14926KSTC STC20041108104510311/08/04 10:45:31  5-MIN KSTC 081645Z AUTO 00000KT 10SM OVC065 01/M04 A3048 520 69 -1000 000/00 RMK AO2
14926KSTC STC20041108105011911/08/04 10:50:31  5-MIN KSTC 081650Z AUTO 00000KT 10SM OVC065 02/M04 A3048 510 66 -900 000/00 RMK AO2 SLP343 T00171039
14926KSTC STC20041108105510211/08/04 10:55:31  5-MIN KSTC 081655Z AUTO 00000KT 10SM OVC070 02/M03 A3048 510 69 -900 000/00 RMK AO2
14926KSTC STC20041108110010211/08/04 11:00:31  5-MIN KSTC 081700Z AUTO 00000KT 10SM OVC070 02/M04 A3048 510 66 -900 000/00 RMK AO2
14926KSTC STC20041108110510211/08/04 11:05:31  5-MIN KSTC 081705Z AUTO 00000KT 10SM OVC070 02/M04 A3048 510 64 -900 000/00 RMK AO2
14926KSTC STC20041108111010211/08/04 11:10:31  5-MIN KSTC 081710Z AUTO 00000KT 10SM OVC070 02/M04 A3048 520 64 -900 000/00 RMK AO2
14926KSTC STC20041108111510211/08/04 11:15:31  5-MIN KSTC 081715Z AUTO 00000KT 10SM OVC070 02/M04 A3047 520 64 -900 000/00 RMK AO2
14926KSTC STC20041108112010211/08/04 11:20:31  5-MIN KSTC 081720Z AUTO 00000KT 10SM OVC070 02/M04 A3047 520 64 -900 000/00 RMK AO2
14926KSTC STC20041108112510211/08/04 11:25:31  5-MIN KSTC 081725Z AUTO 00000KT 10SM OVC070 02/M04 A3047 520 66 -900 000/00 RMK AO2
14926KSTC STC20041108113010211/08/04 11:30:31  5-MIN KSTC 081730Z AUTO 00000KT 10SM OVC070 02/M04 A3047 520 64 -900 000/00 RMK AO2
14926KSTC STC20041108113510211/08/04 11:35:31  5-MIN KSTC 081735Z AUTO 00000KT 10SM OVC065 02/M04 A3047 520 64 -900 000/00 RMK AO2
14926KSTC STC20041108114010211/08/04 11:40:31  5-MIN KSTC 081740Z AUTO 00000KT 10SM OVC065 02/M04 A3047 520 64 -900 000/00 RMK AO2
14926KSTC STC20041108114510211/08/04 11:45:31  5-MIN KSTC 081745Z AUTO 00000KT 10SM OVC065 02/M04 A3047 530 64 -900 000/00 RMK AO2
14926KSTC STC20041108115013711/08/04 11:50:31  5-MIN KSTC 081750Z AUTO 09003KT 10SM OVC065 02/M04 A3046 530 64 -900 090/03 RMK AO2 SLP337 T00171044 10017 21006 51010
14926KSTC STC20041108115510211/08/04 11:55:31  5-MIN KSTC 081755Z AUTO 10003KT 10SM OVC065 02/M04 A3046 530 64 -900 090/03 RMK AO2
14926KSTC STC20041108120010211/08/04 12:00:31  5-MIN KSTC 081800Z AUTO 06003KT 10SM OVC065 02/M04 A3046 530 64 -900 060/03 RMK AO2
14926KSTC STC20041108120510211/08/04 12:05:31  5-MIN KSTC 081805Z AUTO 00000KT 10SM OVC065 02/M04 A3045 540 64 -900 000/00 RMK AO2
14926KSTC STC20041108121010211/08/04 12:10:31  5-MIN KSTC 081810Z AUTO 05003KT 10SM OVC065 02/M05 A3045 540 61 -900 050/03 RMK AO2
14926KSTC STC20041108121510211/08/04 12:15:31  5-MIN KSTC 081815Z AUTO 08003KT 10SM OVC065 02/M04 A3045 540 64 -900 080/03 RMK AO2
14926KSTC STC20041108122010211/08/04 12:20:31  5-MIN KSTC 081820Z AUTO 09004KT 10SM OVC065 02/M05 A3045 540 61 -900 090/04 RMK AO2
14926KSTC STC20041108122510211/08/04 12:25:31  5-MIN KSTC 081825Z AUTO 09003KT 10SM OVC065 02/M05 A3044 550 61 -900 090/03 RMK AO2
14926KSTC STC20041108123010211/08/04 12:30:31  5-MIN KSTC 081830Z AUTO 06004KT 10SM OVC065 02/M05 A3044 550 59 -800 060/04 RMK AO2
14926KSTC STC20041108123510211/08/04 12:35:31  5-MIN KSTC 081835Z AUTO 08004KT 10SM OVC065 02/M04 A3044 550 64 -900 080/04 RMK AO2
14926KSTC STC20041108124010211/08/04 12:40:31  5-MIN KSTC 081840Z AUTO 08003KT 10SM OVC065 02/M04 A3044 550 61 -800 080/03 RMK AO2
14926KSTC STC20041108124510211/08/04 12:45:31  5-MIN KSTC 081845Z AUTO 00000KT 10SM OVC065 02/M04 A3044 550 61 -800 000/00 RMK AO2
14926KSTC STC20041108125011911/08/04 12:50:31  5-MIN KSTC 081850Z AUTO 10003KT 10SM OVC065 02/M04 A3044 550 64 -800 100/03 RMK AO2 SLP327 T00171044
14926KSTC STC20041108125510211/08/04 12:55:31  5-MIN KSTC 081855Z AUTO 12004KT 10SM OVC060 02/M04 A3043 560 61 -800 120/04 RMK AO2
14926KSTC STC20041108130010211/08/04 13:00:31  5-MIN KSTC 081900Z AUTO 12004KT 10SM OVC060 02/M04 A3043 560 64 -800 120/04 RMK AO2
14926KSTC STC20041108130510211/08/04 13:05:31  5-MIN KSTC 081905Z AUTO 11003KT 10SM OVC060 02/M04 A3043 560 64 -800 100/03 RMK AO2
14926KSTC STC20041108131010211/08/04 13:10:31  5-MIN KSTC 081910Z AUTO 09003KT 10SM OVC060 02/M04 A3043 560 64 -800 090/03 RMK AO2
14926KSTC STC20041108131510211/08/04 13:15:31  5-MIN KSTC 081915Z AUTO 10004KT 10SM OVC060 02/M04 A3043 560 61 -800 100/04 RMK AO2
14926KSTC STC20041108132010211/08/04 13:20:31  5-MIN KSTC 081920Z AUTO 11004KT 10SM OVC060 02/M04 A3042 560 61 -800 110/04 RMK AO2
14926KSTC STC20041108132510211/08/04 13:25:31  5-MIN KSTC 081925Z AUTO VRB03KT 10SM OVC060 02/M04 A3042 570 61 -800 VRB/03 RMK AO2
14926KSTC STC20041108133010211/08/04 13:30:31  5-MIN KSTC 081930Z AUTO 14004KT 10SM OVC060 02/M04 A3042 570 61 -800 130/04 RMK AO2
14926KSTC STC20041108133510211/08/04 13:35:31  5-MIN KSTC 081935Z AUTO 11005KT 10SM OVC060 02/M04 A3042 570 61 -800 100/05 RMK AO2
14926KSTC STC20041108134010211/08/04 13:40:31  5-MIN KSTC 081940Z AUTO 10004KT 10SM OVC060 02/M04 A3042 570 61 -800 100/04 RMK AO2
14926KSTC STC20041108134510211/08/04 13:45:31  5-MIN KSTC 081945Z AUTO 09003KT 10SM OVC060 02/M04 A3042 570 61 -800 080/03 RMK AO2
14926KSTC STC20041108135011911/08/04 13:50:31  5-MIN KSTC 081950Z AUTO 13005KT 10SM OVC060 02/M04 A3041 580 61 -700 130/05 RMK AO2 SLP319 T00221044
14926KSTC STC20041108135510211/08/04 13:55:31  5-MIN KSTC 081955Z AUTO 12005KT 10SM OVC060 02/M04 A3041 580 61 -700 110/05 RMK AO2
14926KSTC STC20041108140010211/08/04 14:00:31  5-MIN KSTC 082000Z AUTO VRB03KT 10SM OVC065 02/M04 A3041 580 61 -700 VRB/03 RMK AO2
14926KSTC STC20041108140510211/08/04 14:05:31  5-MIN KSTC 082005Z AUTO VRB05KT 10SM OVC065 03/M04 A3040 580 59 -700 VRB/05 RMK AO2
14926KSTC STC20041108141010211/08/04 14:10:31  5-MIN KSTC 082010Z AUTO 12004KT 10SM OVC065 03/M04 A3040 590 59 -700 110/04 RMK AO2
14926KSTC STC20041108141510211/08/04 14:15:31  5-MIN KSTC 082015Z AUTO 10005KT 10SM OVC065 03/M04 A3040 590 59 -700 100/05 RMK AO2
14926KSTC STC20041108142010211/08/04 14:20:31  5-MIN KSTC 082020Z AUTO 13005KT 10SM OVC065 03/M04 A3040 590 59 -700 120/05 RMK AO2
14926KSTC STC20041108142510211/08/04 14:25:31  5-MIN KSTC 082025Z AUTO 13005KT 10SM OVC065 03/M04 A3040 590 59 -700 130/05 RMK AO2
14926KSTC STC20041108143010211/08/04 14:30:31  5-MIN KSTC 082030Z AUTO 15006KT 10SM OVC065 03/M04 A3040 590 59 -700 150/06 RMK AO2
14926KSTC STC20041108143510211/08/04 14:35:31  5-MIN KSTC 082035Z AUTO 13005KT 10SM OVC065 03/M04 A3039 590 59 -700 130/05 RMK AO2
14926KSTC STC20041108144010211/08/04 14:40:31  5-MIN KSTC 082040Z AUTO 13005KT 10SM OVC065 03/M04 A3040 590 59 -700 130/05 RMK AO2
14926KSTC STC20041108144510211/08/04 14:45:31  5-MIN KSTC 082045Z AUTO 12004KT 10SM OVC065 03/M04 A3040 590 59 -700 110/04 RMK AO2
14926KSTC STC20041108145012511/08/04 14:50:31  5-MIN KSTC 082050Z AUTO 12005KT 10SM OVC065 03/M04 A3040 590 59 -700 110/05 RMK AO2 SLP316 T00281044 58002
14926KSTC STC20041108145510211/08/04 14:55:31  5-MIN KSTC 082055Z AUTO 08005KT 10SM OVC065 03/M04 A3040 580 59 -700 080/05 RMK AO2
14926KSTC STC20041108150010211/08/04 15:00:31  5-MIN KSTC 082100Z AUTO 08005KT 10SM OVC065 03/M04 A3040 590 59 -600 080/05 RMK AO2
14926KSTC STC20041108150510211/08/04 15:05:31  5-MIN KSTC 082105Z AUTO 08005KT 10SM OVC065 03/M04 A3040 590 59 -700 080/05 RMK AO2
14926KSTC STC20041108151010211/08/04 15:10:31  5-MIN KSTC 082110Z AUTO 12005KT 10SM OVC065 03/M04 A3039 590 59 -700 110/05 RMK AO2
14926KSTC STC20041108151510211/08/04 15:15:31  5-MIN KSTC 082115Z AUTO 13006KT 10SM OVC065 03/M04 A3039 600 59 -700 130/06 RMK AO2
14926KSTC STC20041108152010211/08/04 15:20:31  5-MIN KSTC 082120Z AUTO 11005KT 10SM OVC065 03/M04 A3038 600 59 -600 110/05 RMK AO2
14926KSTC STC20041108152510211/08/04 15:25:31  5-MIN KSTC 082125Z AUTO 11005KT 10SM OVC065 03/M04 A3038 600 59 -600 110/05 RMK AO2
14926KSTC STC20041108153010211/08/04 15:30:31  5-MIN KSTC 082130Z AUTO 09005KT 10SM OVC065 03/M04 A3038 600 59 -600 090/05 RMK AO2
14926KSTC STC20041108153510211/08/04 15:35:31  5-MIN KSTC 082135Z AUTO 09006KT 10SM OVC065 03/M04 A3038 600 59 -600 080/06 RMK AO2
14926KSTC STC20041108154010211/08/04 15:40:31  5-MIN KSTC 082140Z AUTO 11007KT 10SM OVC065 03/M04 A3038 610 57 -600 110/07 RMK AO2
14926KSTC STC20041108154510211/08/04 15:45:31  5-MIN KSTC 082145Z AUTO 11007KT 10SM OVC065 03/M04 A3038 610 57 -600 110/07 RMK AO2
14926KSTC STC20041108155011911/08/04 15:50:31  5-MIN KSTC 082150Z AUTO 12007KT 10SM OVC065 03/M04 A3037 610 57 -600 110/07 RMK AO2 SLP307 T00331044
14926KSTC STC20041108155510211/08/04 15:55:31  5-MIN KSTC 082155Z AUTO 10006KT 10SM OVC065 03/M04 A3037 610 57 -600 100/06 RMK AO2
14926KSTC STC20041108160010211/08/04 16:00:31  5-MIN KSTC 082200Z AUTO 11008KT 10SM OVC065 03/M04 A3037 610 59 -600 110/08 RMK AO2
14926KSTC STC20041108160510211/08/04 16:05:31  5-MIN KSTC 082205Z AUTO 11006KT 10SM BKN065 03/M04 A3037 610 59 -600 100/06 RMK AO2
14926KSTC STC20041108161010211/08/04 16:10:31  5-MIN KSTC 082210Z AUTO 10006KT 10SM BKN065 03/M04 A3037 610 59 -600 090/06 RMK AO2
14926KSTC STC20041108161510211/08/04 16:15:31  5-MIN KSTC 082215Z AUTO 10006KT 10SM SCT065 03/M04 A3037 610 59 -600 100/06 RMK AO2
14926KSTC STC20041108162010211/08/04 16:20:31  5-MIN KSTC 082220Z AUTO 12006KT 10SM FEW065 03/M04 A3037 610 59 -600 120/06 RMK AO2
14926KSTC STC20041108162510211/08/04 16:25:31  5-MIN KSTC 082225Z AUTO 11006KT 10SM FEW065 03/M04 A3037 620 59 -600 110/06 RMK AO2
14926KSTC STC20041108163009911/08/04 16:30:31  5-MIN KSTC 082230Z AUTO 11005KT 10SM CLR 02/M04 A3036 620 61 -700 100/05 RMK AO2
14926KSTC STC20041108163509911/08/04 16:35:31  5-MIN KSTC 082235Z AUTO 10006KT 10SM CLR 02/M04 A3036 620 61 -700 100/06 RMK AO2
14926KSTC STC20041108164009911/08/04 16:40:31  5-MIN KSTC 082240Z AUTO 10004KT 10SM CLR 02/M04 A3037 620 61 -700 100/04 RMK AO2
14926KSTC STC20041108164510211/08/04 16:45:31  5-MIN KSTC 082245Z AUTO 10005KT 10SM SCT065 02/M04 A3037 620 61 -700 090/05 RMK AO2
14926KSTC STC20041108165011911/08/04 16:50:31  5-MIN KSTC 082250Z AUTO 11005KT 10SM BKN065 02/M04 A3037 620 61 -700 110/05 RMK AO2 SLP304 T00221044
14926KSTC STC20041108165510211/08/04 16:55:31  5-MIN KSTC 082255Z AUTO 11005KT 10SM BKN065 02/M04 A3037 620 61 -700 100/05 RMK AO2
14926KSTC STC20041108170010211/08/04 17:00:31  5-MIN KSTC 082300Z AUTO 11005KT 10SM BKN065 02/M04 A3037 610 61 -700 110/05 RMK AO2
14926KSTC STC20041108170510211/08/04 17:05:31  5-MIN KSTC 082305Z AUTO 11005KT 10SM OVC065 02/M04 A3037 610 61 -700 100/05 RMK AO2
14926KSTC STC20041108171010211/08/04 17:10:31  5-MIN KSTC 082310Z AUTO 12006KT 10SM OVC065 02/M04 A3037 610 61 -700 110/06 RMK AO2
14926KSTC STC20041108171510211/08/04 17:15:31  5-MIN KSTC 082315Z AUTO 11005KT 10SM OVC065 02/M04 A3037 610 61 -700 110/05 RMK AO2
14926KSTC STC20041108172010211/08/04 17:20:31  5-MIN KSTC 082320Z AUTO 12005KT 10SM OVC065 02/M04 A3037 610 61 -700 120/05 RMK AO2
14926KSTC STC20041108172510211/08/04 17:25:31  5-MIN KSTC 082325Z AUTO 12005KT 10SM OVC065 02/M04 A3037 610 61 -700 120/05 RMK AO2
14926KSTC STC20041108173010211/08/04 17:30:31  5-MIN KSTC 082330Z AUTO 12005KT 10SM OVC065 02/M04 A3037 610 61 -700 120/05 RMK AO2
14926KSTC STC20041108173510211/08/04 17:35:31  5-MIN KSTC 082335Z AUTO 11004KT 10SM OVC065 02/M04 A3037 610 61 -700 110/04 RMK AO2
14926KSTC STC20041108174010211/08/04 17:40:31  5-MIN KSTC 082340Z AUTO 11005KT 10SM OVC065 02/M04 A3038 610 61 -700 100/05 RMK AO2
14926KSTC STC20041108174510211/08/04 17:45:31  5-MIN KSTC 082345Z AUTO 12005KT 10SM OVC065 02/M04 A3037 610 61 -700 110/05 RMK AO2
14926KSTC STC20041108175013711/08/04 17:50:31  5-MIN KSTC 082350Z AUTO 11006KT 10SM OVC065 02/M04 A3038 610 61 -700 110/06 RMK AO2 SLP307 T00221044 10033 20017 56019
14926KSTC STC20041108175510211/08/04 17:55:31  5-MIN KSTC 082355Z AUTO 11005KT 10SM OVC065 02/M04 A3038 610 61 -700 110/05 RMK AO2
14926KSTC STC20041108180010211/08/04 18:00:31  5-MIN KSTC 090000Z AUTO 11005KT 10SM OVC065 02/M04 A3038 600 61 -700 110/05 RMK AO2
14926KSTC STC20041108180510211/08/04 18:05:31  5-MIN KSTC 090005Z AUTO 11005KT 10SM OVC065 02/M04 A3038 600 61 -700 110/05 RMK AO2
14926KSTC STC20041108181010211/08/04 18:10:31  5-MIN KSTC 090010Z AUTO 11004KT 10SM OVC065 02/M04 A3038 600 61 -700 110/04 RMK AO2
14926KSTC STC20041108181510211/08/04 18:15:31  5-MIN KSTC 090015Z AUTO 11006KT 10SM OVC065 02/M04 A3038 600 61 -700 100/06 RMK AO2
14926KSTC STC20041108182010211/08/04 18:20:31  5-MIN KSTC 090020Z AUTO 11005KT 10SM OVC065 02/M04 A3038 600 61 -700 110/05 RMK AO2
14926KSTC STC20041108182510211/08/04 18:25:31  5-MIN KSTC 090025Z AUTO 11006KT 10SM OVC065 02/M04 A3038 610 61 -700 110/06 RMK AO2
14926KSTC STC20041108183010211/08/04 18:30:31  5-MIN KSTC 090030Z AUTO 11007KT 10SM OVC065 02/M04 A3038 610 61 -700 110/07 RMK AO2
14926KSTC STC20041108183510211/08/04 18:35:31  5-MIN KSTC 090035Z AUTO 12006KT 10SM OVC065 02/M05 A3038 600 59 -700 110/06 RMK AO2
14926KSTC STC20041108184010211/08/04 18:40:31  5-MIN KSTC 090040Z AUTO 12006KT 10SM OVC065 02/M05 A3038 610 59 -700 120/06 RMK AO2
14926KSTC STC20041108184510211/08/04 18:45:31  5-MIN KSTC 090045Z AUTO 13005KT 10SM OVC065 02/M05 A3038 610 61 -800 120/05 RMK AO2
14926KSTC STC20041108185011911/08/04 18:50:31  5-MIN KSTC 090050Z AUTO 12005KT 10SM OVC065 02/M05 A3038 610 61 -800 120/05 RMK AO2 SLP307 T00171050
14926KSTC STC20041108185510211/08/04 18:55:31  5-MIN KSTC 090055Z AUTO 13005KT 10SM OVC065 02/M05 A3038 610 61 -800 130/05 RMK AO2
14926KSTC STC20041108190010211/08/04 19:00:31  5-MIN KSTC 090100Z AUTO 13005KT 10SM OVC060 02/M05 A3037 610 61 -800 120/05 RMK AO2
14926KSTC STC20041108190510211/08/04 19:05:31  5-MIN KSTC 090105Z AUTO 12006KT 10SM OVC060 02/M05 A3037 610 61 -800 120/06 RMK AO2
14926KSTC STC20041108191010211/08/04 19:10:31  5-MIN KSTC 090110Z AUTO 11005KT 10SM OVC065 02/M05 A3038 610 61 -800 100/05 RMK AO2
14926KSTC STC20041108191510211/08/04 19:15:31  5-MIN KSTC 090115Z AUTO 12005KT 10SM OVC065 02/M05 A3038 610 61 -800 120/05 RMK AO2
14926KSTC STC20041108192010211/08/04 19:20:31  5-MIN KSTC 090120Z AUTO 11005KT 10SM OVC060 02/M05 A3038 600 61 -800 110/05 RMK AO2
14926KSTC STC20041108192510211/08/04 19:25:31  5-MIN KSTC 090125Z AUTO 12005KT 10SM OVC060 02/M05 A3038 600 61 -800 110/05 RMK AO2
14926KSTC STC20041108193010211/08/04 19:30:31  5-MIN KSTC 090130Z AUTO 12006KT 10SM OVC060 02/M05 A3038 610 61 -800 120/06 RMK AO2
14926KSTC STC20041108193510211/08/04 19:35:31  5-MIN KSTC 090135Z AUTO 13005KT 10SM OVC060 01/M05 A3037 610 64 -800 120/05 RMK AO2
14926KSTC STC20041108194010211/08/04 19:40:31  5-MIN KSTC 090140Z AUTO 12005KT 10SM BKN060 01/M05 A3037 610 64 -800 120/05 RMK AO2
14926KSTC STC20041108194510211/08/04 19:45:31  5-MIN KSTC 090145Z AUTO 11005KT 10SM BKN060 01/M05 A3037 610 64 -800 110/05 RMK AO2
14926KSTC STC20041108195011911/08/04 19:50:31  5-MIN KSTC 090150Z AUTO 10005KT 10SM BKN060 01/M05 A3037 610 64 -800 100/05 RMK AO2 SLP306 T00111050
14926KSTC STC20041108195510211/08/04 19:55:31  5-MIN KSTC 090155Z AUTO 10004KT 10SM BKN060 01/M05 A3037 610 64 -800 090/04 RMK AO2
14926KSTC STC20041108200010211/08/04 20:00:31  5-MIN KSTC 090200Z AUTO 10005KT 10SM SCT060 01/M05 A3037 610 64 -800 090/05 RMK AO2
14926KSTC STC20041108200510211/08/04 20:05:31  5-MIN KSTC 090205Z AUTO 10005KT 10SM FEW060 01/M05 A3037 610 64 -800 090/05 RMK AO2
14926KSTC STC20041108201010211/08/04 20:10:31  5-MIN KSTC 090210Z AUTO 10006KT 10SM FEW060 01/M05 A3037 610 64 -800 090/06 RMK AO2
14926KSTC STC20041108201510211/08/04 20:15:31  5-MIN KSTC 090215Z AUTO 10005KT 10SM FEW060 01/M05 A3037 610 64 -800 090/05 RMK AO2
14926KSTC STC20041108202009911/08/04 20:20:31  5-MIN KSTC 090220Z AUTO 10005KT 10SM CLR 01/M05 A3037 620 66 -900 090/05 RMK AO2
14926KSTC STC20041108202509911/08/04 20:25:31  5-MIN KSTC 090225Z AUTO 10006KT 10SM CLR 01/M05 A3036 620 66 -900 090/06 RMK AO2
14926KSTC STC20041108203009911/08/04 20:30:31  5-MIN KSTC 090230Z AUTO 10005KT 10SM CLR 01/M05 A3036 620 66 -900 100/05 RMK AO2
14926KSTC STC20041108203509911/08/04 20:35:31  5-MIN KSTC 090235Z AUTO 11006KT 10SM CLR 01/M05 A3036 620 66 -900 100/06 RMK AO2
14926KSTC STC20041108204009911/08/04 20:40:31  5-MIN KSTC 090240Z AUTO 10005KT 10SM CLR 01/M05 A3036 630 66 -900 100/05 RMK AO2
14926KSTC STC20041108204509911/08/04 20:45:31  5-MIN KSTC 090245Z AUTO 10005KT 10SM CLR 01/M05 A3036 630 66 -900 100/05 RMK AO2
14926KSTC STC20041108205012211/08/04 20:50:31  5-MIN KSTC 090250Z AUTO 10005KT 10SM CLR 01/M05 A3036 620 66 -900 090/05 RMK AO2 SLP301 T00061050 55008
14926KSTC STC20041108205509911/08/04 20:55:31  5-MIN KSTC 090255Z AUTO 10005KT 10SM CLR 01/M05 A3036 620 66 -900 090/05 RMK AO2
14926KSTC STC20041108210010011/08/04 21:00:31  5-MIN KSTC 090300Z AUTO 09006KT 10SM CLR 00/M05 A3036 620 69 -1000 090/06 RMK AO2
14926KSTC STC20041108210510011/08/04 21:05:31  5-MIN KSTC 090305Z AUTO 09005KT 10SM CLR 00/M05 A3036 620 69 -1000 090/05 RMK AO2
14926KSTC STC20041108211010011/08/04 21:10:31  5-MIN KSTC 090310Z AUTO 09005KT 10SM CLR 00/M05 A3036 620 69 -1000 090/05 RMK AO2
14926KSTC STC20041108211510011/08/04 21:15:31  5-MIN KSTC 090315Z AUTO 09006KT 10SM CLR 00/M05 A3036 620 69 -1000 090/06 RMK AO2
14926KSTC STC20041108212010011/08/04 21:20:31  5-MIN KSTC 090320Z AUTO 09007KT 10SM CLR 00/M05 A3036 620 69 -1000 090/07 RMK AO2
14926KSTC STC20041108212510011/08/04 21:25:31  5-MIN KSTC 090325Z AUTO 10006KT 10SM CLR 00/M05 A3036 620 69 -1000 100/06 RMK AO2
14926KSTC STC20041108213010011/08/04 21:30:31  5-MIN KSTC 090330Z AUTO 09006KT 10SM CLR 00/M05 A3036 620 69 -1000 090/06 RMK AO2
14926KSTC STC20041108213510011/08/04 21:35:31  5-MIN KSTC 090335Z AUTO 09005KT 10SM CLR 00/M05 A3036 620 69 -1000 090/05 RMK AO2
14926KSTC STC20041108214010011/08/04 21:40:31  5-MIN KSTC 090340Z AUTO 10006KT 10SM CLR 00/M05 A3036 620 69 -1000 090/06 RMK AO2
14926KSTC STC20041108214510011/08/04 21:45:31  5-MIN KSTC 090345Z AUTO 10005KT 10SM CLR 00/M05 A3036 630 69 -1000 100/05 RMK AO2
14926KSTC STC20041108215011711/08/04 21:50:31  5-MIN KSTC 090350Z AUTO 10006KT 10SM CLR 00/M05 A3036 620 69 -1000 090/06 RMK AO2 SLP301 T00001050
14926KSTC STC20041108215510011/08/04 21:55:31  5-MIN KSTC 090355Z AUTO 10006KT 10SM CLR 00/M05 A3036 620 69 -1000 100/06 RMK AO2
14926KSTC STC20041108220010011/08/04 22:00:31  5-MIN KSTC 090400Z AUTO 09006KT 10SM CLR 00/M05 A3036 620 69 -1000 090/06 RMK AO2
14926KSTC STC20041108220510011/08/04 22:05:31  5-MIN KSTC 090405Z AUTO 10007KT 10SM CLR 00/M05 A3035 630 69 -1000 100/07 RMK AO2
14926KSTC STC20041108221010011/08/04 22:10:31  5-MIN KSTC 090410Z AUTO 10006KT 10SM CLR 00/M05 A3036 630 69 -1000 100/06 RMK AO2
14926KSTC STC20041108221510011/08/04 22:15:31  5-MIN KSTC 090415Z AUTO 10007KT 10SM CLR 00/M05 A3035 630 69 -1000 100/07 RMK AO2
14926KSTC STC20041108222010011/08/04 22:20:31  5-MIN KSTC 090420Z AUTO 10006KT 10SM CLR 00/M05 A3036 630 69 -1000 100/06 RMK AO2
14926KSTC STC20041108222510011/08/04 22:25:31  5-MIN KSTC 090425Z AUTO 10006KT 10SM CLR 00/M05 A3035 630 69 -1000 100/06 RMK AO2
14926KSTC STC20041108223010011/08/04 22:30:31  5-MIN KSTC 090430Z AUTO 10006KT 10SM CLR 00/M05 A3035 630 69 -1000 100/06 RMK AO2
14926KSTC STC20041108223510111/08/04 22:35:31  5-MIN KSTC 090435Z AUTO 09007KT 10SM CLR M01/M05 A3036 630 72 -1000 090/07 RMK AO2
14926KSTC STC20041108224010011/08/04 22:40:31  5-MIN KSTC 090440Z AUTO 09006KT 10SM CLR 00/M05 A3036 630 69 -1000 090/06 RMK AO2
14926KSTC STC20041108224510011/08/04 22:45:31  5-MIN KSTC 090445Z AUTO 10006KT 10SM CLR 00/M05 A3035 630 69 -1000 090/06 RMK AO2
14926KSTC STC20041108225011811/08/04 22:50:31  5-MIN KSTC 090450Z AUTO 10007KT 10SM CLR M01/M05 A3035 630 72 -1000 100/07 RMK AO2 SLP298 T10061050
14926KSTC STC20041108225510011/08/04 22:55:31  5-MIN KSTC 090455Z AUTO 11006KT 10SM CLR 00/M05 A3035 630 69 -1000 100/06 RMK AO2
14926KSTC STC20041108230010011/08/04 23:00:31  5-MIN KSTC 090500Z AUTO 11006KT 10SM CLR 00/M05 A3035 640 69 -1000 100/06 RMK AO2
14926KSTC STC20041108230509911/08/04 23:05:31  5-MIN KSTC 090505Z AUTO 11007KT 10SM CLR 00/M05 A3034 640 69 -900 110/07 RMK AO2
14926KSTC STC20041108231009911/08/04 23:10:31  5-MIN KSTC 090510Z AUTO 11007KT 10SM CLR 00/M05 A3033 650 69 -900 110/07 RMK AO2
14926KSTC STC20041108231510111/08/04 23:15:31  5-MIN KSTC 090515Z AUTO 11006KT 10SM CLR M01/M05 A3033 650 72 -1000 110/06 RMK AO2
14926KSTC STC20041108232010111/08/04 23:20:31  5-MIN KSTC 090520Z AUTO 11007KT 10SM CLR M01/M05 A3033 650 72 -1000 110/07 RMK AO2
14926KSTC STC20041108232509911/08/04 23:25:31  5-MIN KSTC 090525Z AUTO 12006KT 10SM CLR 00/M05 A3033 650 69 -900 120/06 RMK AO2
14926KSTC STC20041108233009911/08/04 23:30:31  5-MIN KSTC 090530Z AUTO 12005KT 10SM CLR 00/M05 A3033 650 69 -900 120/05 RMK AO2
14926KSTC STC20041108233509911/08/04 23:35:31  5-MIN KSTC 090535Z AUTO 12006KT 10SM CLR 00/M05 A3033 650 69 -900 120/06 RMK AO2
14926KSTC STC20041108234009911/08/04 23:40:31  5-MIN KSTC 090540Z AUTO 12006KT 10SM CLR 00/M05 A3033 650 69 -900 120/06 RMK AO2
14926KSTC STC20041108234510111/08/04 23:45:31  5-MIN KSTC 090545Z AUTO 12006KT 10SM CLR M01/M05 A3032 660 72 -1000 120/06 RMK AO2
14926KSTC STC20041108235014611/08/04 23:50:31  5-MIN KSTC 090550Z AUTO 12005KT 10SM CLR M01/M05 A3032 650 72 -1000 110/05 RMK AO2 SLP289 T10061050 10022 21006 400331028 58006
14926KSTC STC20041108235510111/08/04 23:55:31  5-MIN KSTC 090555Z AUTO 11006KT 10SM CLR M01/M05 A3032 660 72 -1000 110/06 RMK AO2
14926KSTC STC20041109000010111/09/04 00:00:32  5-MIN KSTC 090600Z AUTO 11005KT 10SM CLR M01/M05 A3032 650 72 -1000 110/05 RMK AO2
14926KSTC STC20041109000510111/09/04 00:05:31  5-MIN KSTC 090605Z AUTO 10005KT 10SM CLR M01/M05 A3032 660 72 -1000 100/05 RMK AO2
14926KSTC STC20041109001010111/09/04 00:10:31  5-MIN KSTC 090610Z AUTO 11005KT 10SM CLR M01/M05 A3032 660 72 -1000 110/05 RMK AO2
14926KSTC STC20041109001510111/09/04 00:15:31  5-MIN KSTC 090615Z AUTO 11005KT 10SM CLR M01/M05 A3031 660 72 -1000 110/05 RMK AO2
14926KSTC STC20041109002010111/09/04 00:20:31  5-MIN KSTC 090620Z AUTO 11006KT 10SM CLR M01/M05 A3031 670 72 -1000 110/06 RMK AO2
14926KSTC STC20041109002510111/09/04 00:25:31  5-MIN KSTC 090625Z AUTO 10006KT 10SM CLR M01/M05 A3031 670 75 -1100 100/06 RMK AO2
14926KSTC STC20041109003010111/09/04 00:30:31  5-MIN KSTC 090630Z AUTO 10007KT 10SM CLR M01/M05 A3031 670 72 -1000 100/07 RMK AO2
14926KSTC STC20041109003510111/09/04 00:35:31  5-MIN KSTC 090635Z AUTO 10007KT 10SM CLR M01/M05 A3031 670 72 -1000 100/07 RMK AO2
14926KSTC STC20041109004010111/09/04 00:40:31  5-MIN KSTC 090640Z AUTO 10006KT 10SM CLR M01/M05 A3031 670 72 -1000 100/06 RMK AO2
14926KSTC STC20041109004510111/09/04 00:45:31  5-MIN KSTC 090645Z AUTO 10007KT 10SM CLR M01/M05 A3031 670 72 -1000 090/07 RMK AO2
14926KSTC STC20041109005011811/09/04 00:50:31  5-MIN KSTC 090650Z AUTO 10006KT 10SM CLR M01/M05 A3031 670 72 -1000 100/06 RMK AO2 SLP284 T10061050
14926KSTC STC20041109005510111/09/04 00:55:31  5-MIN KSTC 090655Z AUTO 10007KT 10SM CLR M01/M05 A3030 670 72 -1000 100/07 RMK AO2
14926KSTC STC20041109010010111/09/04 01:00:31  5-MIN KSTC 090700Z AUTO 10007KT 10SM CLR M01/M05 A3030 670 72 -1000 090/07 RMK AO2
14926KSTC STC20041109010510111/09/04 01:05:31  5-MIN KSTC 090705Z AUTO 10007KT 10SM CLR M01/M05 A3030 680 72 -1000 100/07 RMK AO2
14926KSTC STC20041109011010111/09/04 01:10:31  5-MIN KSTC 090710Z AUTO 11006KT 10SM CLR M01/M05 A3030 680 75 -1000 100/06 RMK AO2
14926KSTC STC20041109011510111/09/04 01:15:31  5-MIN KSTC 090715Z AUTO 10005KT 10SM CLR M01/M05 A3030 680 72 -1000 100/05 RMK AO2
14926KSTC STC20041109012010111/09/04 01:20:31  5-MIN KSTC 090720Z AUTO 10006KT 10SM CLR M01/M05 A3030 680 72 -1000 090/06 RMK AO2
14926KSTC STC20041109012510111/09/04 01:25:31  5-MIN KSTC 090725Z AUTO 10006KT 10SM CLR M01/M05 A3030 680 75 -1000 100/06 RMK AO2
14926KSTC STC20041109013010111/09/04 01:30:31  5-MIN KSTC 090730Z AUTO 11006KT 10SM CLR M01/M05 A3029 680 72 -1000 100/06 RMK AO2
14926KSTC STC20041109013510111/09/04 01:35:31  5-MIN KSTC 090735Z AUTO 11006KT 10SM CLR M01/M05 A3030 680 72 -1000 100/06 RMK AO2
14926KSTC STC20041109014010111/09/04 01:40:31  5-MIN KSTC 090740Z AUTO 11007KT 10SM CLR M01/M05 A3029 680 75 -1000 100/07 RMK AO2
14926KSTC STC20041109014510111/09/04 01:45:31  5-MIN KSTC 090745Z AUTO 11007KT 10SM CLR M01/M05 A3029 690 72 -1000 110/07 RMK AO2
14926KSTC STC20041109015011811/09/04 01:50:31  5-MIN KSTC 090750Z AUTO 10006KT 10SM CLR M01/M05 A3029 690 75 -1000 100/06 RMK AO2 SLP277 T10111050
14926KSTC STC20041109015510111/09/04 01:55:31  5-MIN KSTC 090755Z AUTO 11006KT 10SM CLR M01/M05 A3029 690 75 -1000 110/06 RMK AO2
14926KSTC STC20041109020010111/09/04 02:00:31  5-MIN KSTC 090800Z AUTO 11006KT 10SM CLR M01/M05 A3028 690 75 -1000 110/06 RMK AO2
14926KSTC STC20041109020510011/09/04 02:05:31  5-MIN KSTC 090805Z AUTO 11007KT 10SM CLR M01/M05 A3028 700 72 -900 110/07 RMK AO2
14926KSTC STC20041109021010011/09/04 02:10:31  5-MIN KSTC 090810Z AUTO 13007KT 10SM CLR M01/M05 A3027 700 72 -900 120/07 RMK AO2
14926KSTC STC20041109021510011/09/04 02:15:31  5-MIN KSTC 090815Z AUTO 12007KT 10SM CLR M01/M05 A3027 700 72 -900 110/07 RMK AO2
14926KSTC STC20041109022010011/09/04 02:20:31  5-MIN KSTC 090820Z AUTO 11007KT 10SM CLR M01/M05 A3027 700 72 -900 110/07 RMK AO2
14926KSTC STC20041109022510011/09/04 02:25:31  5-MIN KSTC 090825Z AUTO 11007KT 10SM CLR M01/M05 A3027 710 72 -900 110/07 RMK AO2
14926KSTC STC20041109023010111/09/04 02:30:31  5-MIN KSTC 090830Z AUTO 12007KT 10SM CLR M01/M05 A3027 710 75 -1000 120/07 RMK AO2
14926KSTC STC20041109023510111/09/04 02:35:31  5-MIN KSTC 090835Z AUTO 12007KT 10SM CLR M01/M05 A3027 710 75 -1000 110/07 RMK AO2
14926KSTC STC20041109024010011/09/04 02:40:31  5-MIN KSTC 090840Z AUTO 11007KT 10SM CLR M01/M05 A3026 710 72 -900 110/07 RMK AO2
14926KSTC STC20041109024510011/09/04 02:45:31  5-MIN KSTC 090845Z AUTO 11007KT 10SM CLR M01/M05 A3026 710 72 -900 110/07 RMK AO2
14926KSTC STC20041109025012311/09/04 02:50:31  5-MIN KSTC 090850Z AUTO 11006KT 10SM CLR M01/M05 A3026 710 72 -900 110/06 RMK AO2 SLP268 T10061050 58012
14926KSTC STC20041109025510011/09/04 02:55:31  5-MIN KSTC 090855Z AUTO 11006KT 10SM CLR M01/M05 A3026 710 72 -900 110/06 RMK AO2
14926KSTC STC20041109030010011/09/04 03:00:31  5-MIN KSTC 090900Z AUTO 11007KT 10SM CLR M01/M05 A3026 720 72 -900 110/07 RMK AO2
14926KSTC STC20041109030510011/09/04 03:05:31  5-MIN KSTC 090905Z AUTO 12007KT 10SM CLR M01/M05 A3025 720 72 -900 120/07 RMK AO2
14926KSTC STC20041109031010011/09/04 03:10:31  5-MIN KSTC 090910Z AUTO 12008KT 10SM CLR M01/M05 A3025 720 72 -900 120/08 RMK AO2
14926KSTC STC20041109031510011/09/04 03:15:31  5-MIN KSTC 090915Z AUTO 12008KT 10SM CLR M01/M05 A3025 730 72 -900 110/08 RMK AO2
14926KSTC STC20041109032010011/09/04 03:20:31  5-MIN KSTC 090920Z AUTO 12008KT 10SM CLR M01/M05 A3024 730 72 -900 120/08 RMK AO2
14926KSTC STC20041109032510011/09/04 03:25:31  5-MIN KSTC 090925Z AUTO 13009KT 10SM CLR M01/M05 A3024 740 72 -900 130/09 RMK AO2
14926KSTC STC20041109033010011/09/04 03:30:31  5-MIN KSTC 090930Z AUTO 13009KT 10SM CLR M01/M05 A3023 740 72 -900 120/09 RMK AO2
14926KSTC STC20041109033509911/09/04 03:35:31  5-MIN KSTC 090935Z AUTO 13008KT 10SM CLR 00/M05 A3023 740 69 -800 130/08 RMK AO2
14926KSTC STC20041109034010011/09/04 03:40:31  5-MIN KSTC 090940Z AUTO 13007KT 10SM CLR M01/M05 A3023 740 72 -900 130/07 RMK AO2
14926KSTC STC20041109034509911/09/04 03:45:31  5-MIN KSTC 090945Z AUTO 13007KT 10SM CLR 00/M05 A3023 740 69 -800 130/07 RMK AO2
14926KSTC STC20041109035011611/09/04 03:50:31  5-MIN KSTC 090950Z AUTO 13009KT 10SM CLR 00/M05 A3022 750 69 -800 120/09 RMK AO2 SLP255 T00001050
14926KSTC STC20041109035509911/09/04 03:55:31  5-MIN KSTC 090955Z AUTO 13008KT 10SM CLR 00/M05 A3022 750 69 -800 120/08 RMK AO2
14926KSTC STC20041109040009911/09/04 04:00:31  5-MIN KSTC 091000Z AUTO 13009KT 10SM CLR 00/M05 A3022 750 69 -800 130/09 RMK AO2
14926KSTC STC20041109040509911/09/04 04:05:31  5-MIN KSTC 091005Z AUTO 13008KT 10SM CLR 00/M04 A3021 760 72 -800 130/08 RMK AO2
14926KSTC STC20041109041009911/09/04 04:10:31  5-MIN KSTC 091010Z AUTO 13009KT 10SM CLR 00/M04 A3021 760 72 -800 130/09 RMK AO2
14926KSTC STC20041109041509911/09/04 04:15:31  5-MIN KSTC 091015Z AUTO 13010KT 10SM CLR 00/M04 A3021 760 72 -800 130/10 RMK AO2
14926KSTC STC20041109042009911/09/04 04:20:31  5-MIN KSTC 091020Z AUTO 13010KT 10SM CLR 00/M04 A3021 760 72 -800 130/10 RMK AO2
14926KSTC STC20041109042509911/09/04 04:25:31  5-MIN KSTC 091025Z AUTO 13009KT 10SM CLR 00/M04 A3021 760 72 -800 130/09 RMK AO2
14926KSTC STC20041109043009911/09/04 04:30:31  5-MIN KSTC 091030Z AUTO 13009KT 10SM CLR 00/M04 A3021 760 72 -800 130/09 RMK AO2
14926KSTC STC20041109043509911/09/04 04:35:31  5-MIN KSTC 091035Z AUTO 12007KT 10SM CLR 00/M04 A3021 760 72 -800 120/07 RMK AO2
14926KSTC STC20041109044009911/09/04 04:40:31  5-MIN KSTC 091040Z AUTO 13008KT 10SM CLR 00/M04 A3020 770 72 -800 120/08 RMK AO2
14926KSTC STC20041109044509911/09/04 04:45:31  5-MIN KSTC 091045Z AUTO 13007KT 10SM CLR 00/M04 A3020 770 72 -800 120/07 RMK AO2
14926KSTC STC20041109045011611/09/04 04:50:31  5-MIN KSTC 091050Z AUTO 13008KT 10SM CLR 00/M04 A3020 770 72 -800 130/08 RMK AO2 SLP246 T00001044
14926KSTC STC20041109045509911/09/04 04:55:31  5-MIN KSTC 091055Z AUTO 13008KT 10SM CLR 00/M05 A3019 770 69 -800 130/08 RMK AO2
14926KSTC STC20041109050009911/09/04 05:00:31  5-MIN KSTC 091100Z AUTO 13009KT 10SM CLR 00/M05 A3019 780 69 -800 130/09 RMK AO2
14926KSTC STC20041109050509911/09/04 05:05:31  5-MIN KSTC 091105Z AUTO 13008KT 10SM CLR 00/M05 A3019 780 69 -800 130/08 RMK AO2
14926KSTC STC20041109051009911/09/04 05:10:31  5-MIN KSTC 091110Z AUTO 13009KT 10SM CLR 00/M04 A3019 780 72 -800 130/09 RMK AO2
14926KSTC STC20041109051509911/09/04 05:15:31  5-MIN KSTC 091115Z AUTO 13008KT 10SM CLR 00/M04 A3019 780 72 -800 130/08 RMK AO2
14926KSTC STC20041109052009911/09/04 05:20:31  5-MIN KSTC 091120Z AUTO 13008KT 10SM CLR 00/M04 A3018 780 72 -800 120/08 RMK AO2
14926KSTC STC20041109052509911/09/04 05:25:31  5-MIN KSTC 091125Z AUTO 13008KT 10SM CLR 00/M04 A3018 780 72 -800 130/08 RMK AO2
14926KSTC STC20041109053009911/09/04 05:30:31  5-MIN KSTC 091130Z AUTO 12007KT 10SM CLR 00/M04 A3018 790 72 -800 120/07 RMK AO2
14926KSTC STC20041109053509911/09/04 05:35:31  5-MIN KSTC 091135Z AUTO 11007KT 10SM CLR 00/M04 A3018 790 72 -800 110/07 RMK AO2
14926KSTC STC20041109054009911/09/04 05:40:31  5-MIN KSTC 091140Z AUTO 12006KT 10SM CLR 00/M04 A3018 790 72 -800 110/06 RMK AO2
14926KSTC STC20041109054509911/09/04 05:45:31  5-MIN KSTC 091145Z AUTO 12006KT 10SM CLR 00/M04 A3017 790 72 -800 110/06 RMK AO2
14926KSTC STC20041109055013411/09/04 05:50:31  5-MIN KSTC 091150Z AUTO 12006KT 10SM CLR 00/M04 A3017 800 72 -800 120/06 RMK AO2 SLP237 T00001044 10000 21011 58021
14926KSTC STC20041109055509911/09/04 05:55:31  5-MIN KSTC 091155Z AUTO 12007KT 10SM CLR 00/M04 A3017 800 72 -700 120/07 RMK AO2
14926KSTC STC20041109060009911/09/04 06:00:31  5-MIN KSTC 091200Z AUTO 13007KT 10SM CLR 00/M04 A3016 800 72 -700 130/07 RMK AO2
14926KSTC STC20041109060509911/09/04 06:05:31  5-MIN KSTC 091205Z AUTO 13007KT 10SM CLR 00/M04 A3016 800 72 -700 130/07 RMK AO2
14926KSTC STC20041109061009911/09/04 06:10:31  5-MIN KSTC 091210Z AUTO 12007KT 10SM CLR 00/M04 A3016 810 72 -700 120/07 RMK AO2
14926KSTC STC20041109061509911/09/04 06:15:31  5-MIN KSTC 091215Z AUTO 13008KT 10SM CLR 00/M04 A3016 810 72 -700 130/08 RMK AO2
14926KSTC STC20041109062009911/09/04 06:20:31  5-MIN KSTC 091220Z AUTO 13008KT 10SM CLR 00/M04 A3015 810 72 -700 130/08 RMK AO2
14926KSTC STC20041109062509911/09/04 06:25:31  5-MIN KSTC 091225Z AUTO 13008KT 10SM CLR 00/M04 A3015 810 72 -700 120/08 RMK AO2
14926KSTC STC20041109063009911/09/04 06:30:31  5-MIN KSTC 091230Z AUTO 13008KT 10SM CLR 00/M04 A3015 810 72 -700 130/08 RMK AO2
14926KSTC STC20041109063509911/09/04 06:35:31  5-MIN KSTC 091235Z AUTO 13008KT 10SM CLR 00/M04 A3015 820 72 -700 130/08 RMK AO2
14926KSTC STC20041109064009911/09/04 06:40:31  5-MIN KSTC 091240Z AUTO 14007KT 10SM CLR 00/M04 A3015 820 72 -700 130/07 RMK AO2
14926KSTC STC20041109064509911/09/04 06:45:31  5-MIN KSTC 091245Z AUTO 13007KT 10SM CLR 00/M04 A3014 820 72 -700 130/07 RMK AO2
14926KSTC STC20041109065011611/09/04 06:50:31  5-MIN KSTC 091250Z AUTO 13007KT 10SM CLR 00/M04 A3014 820 72 -700 120/07 RMK AO2 SLP227 T00001044
14926KSTC STC20041109065509911/09/04 06:55:31  5-MIN KSTC 091255Z AUTO 12006KT 10SM CLR 00/M04 A3014 820 72 -700 120/06 RMK AO2
14926KSTC STC20041109070009911/09/04 07:00:31  5-MIN KSTC 091300Z AUTO 12006KT 10SM CLR 00/M04 A3014 820 72 -700 110/06 RMK AO2
14926KSTC STC20041109070509911/09/04 07:05:31  5-MIN KSTC 091305Z AUTO 12007KT 10SM CLR 00/M04 A3014 820 72 -700 120/07 RMK AO2
14926KSTC STC20041109071009911/09/04 07:10:31  5-MIN KSTC 091310Z AUTO 12008KT 10SM CLR 00/M04 A3014 830 72 -700 120/08 RMK AO2
14926KSTC STC20041109071509911/09/04 07:15:31  5-MIN KSTC 091315Z AUTO 12007KT 10SM CLR 00/M04 A3014 830 72 -700 120/07 RMK AO2
14926KSTC STC20041109072009911/09/04 07:20:31  5-MIN KSTC 091320Z AUTO 12007KT 10SM CLR 00/M04 A3014 830 72 -700 120/07 RMK AO2
14926KSTC STC20041109072509911/09/04 07:25:31  5-MIN KSTC 091325Z AUTO 13007KT 10SM CLR 00/M04 A3013 830 72 -700 130/07 RMK AO2
14926KSTC STC20041109073009911/09/04 07:30:31  5-MIN KSTC 091330Z AUTO 13008KT 10SM CLR 00/M04 A3013 830 72 -700 130/08 RMK AO2
14926KSTC STC20041109073509911/09/04 07:35:31  5-MIN KSTC 091335Z AUTO 13008KT 10SM CLR 00/M04 A3013 840 72 -700 130/08 RMK AO2
14926KSTC STC20041109074009911/09/04 07:40:31  5-MIN KSTC 091340Z AUTO 13008KT 10SM CLR 01/M04 A3012 840 69 -600 130/08 RMK AO2
14926KSTC STC20041109074509911/09/04 07:45:31  5-MIN KSTC 091345Z AUTO 14008KT 10SM CLR 01/M04 A3012 840 72 -600 130/08 RMK AO2
14926KSTC STC20041109075011611/09/04 07:50:31  5-MIN KSTC 091350Z AUTO 13006KT 10SM CLR 01/M04 A3012 840 72 -600 130/06 RMK AO2 SLP219 T00061039
14926KSTC STC20041109075509911/09/04 07:55:31  5-MIN KSTC 091355Z AUTO 13008KT 10SM CLR 01/M04 A3012 840 72 -600 130/08 RMK AO2
14926KSTC STC20041109080009911/09/04 08:00:31  5-MIN KSTC 091400Z AUTO 14008KT 10SM CLR 01/M04 A3012 850 69 -600 130/08 RMK AO2
14926KSTC STC20041109080509911/09/04 08:05:31  5-MIN KSTC 091405Z AUTO 14009KT 10SM CLR 01/M04 A3012 850 69 -600 130/09 RMK AO2
14926KSTC STC20041109081009911/09/04 08:10:31  5-MIN KSTC 091410Z AUTO 14009KT 10SM CLR 02/M04 A3012 850 66 -500 130/09 RMK AO2
14926KSTC STC20041109081509911/09/04 08:15:31  5-MIN KSTC 091415Z AUTO 14009KT 10SM CLR 02/M04 A3011 850 66 -500 130/09 RMK AO2
14926KSTC STC20041109082009911/09/04 08:20:31  5-MIN KSTC 091420Z AUTO 14008KT 10SM CLR 02/M03 A3011 850 69 -500 140/08 RMK AO2
14926KSTC STC20041109082509911/09/04 08:25:31  5-MIN KSTC 091425Z AUTO 14010KT 10SM CLR 02/M03 A3011 850 67 -400 140/10 RMK AO2
14926KSTC STC20041109083009911/09/04 08:30:31  5-MIN KSTC 091430Z AUTO 14009KT 10SM CLR 02/M03 A3011 850 67 -400 130/09 RMK AO2
14926KSTC STC20041109083509911/09/04 08:35:31  5-MIN KSTC 091435Z AUTO 13008KT 10SM CLR 02/M03 A3011 850 67 -400 130/08 RMK AO2
14926KSTC STC20041109084009911/09/04 08:40:31  5-MIN KSTC 091440Z AUTO 13009KT 10SM CLR 03/M03 A3011 850 64 -300 130/09 RMK AO2
14926KSTC STC20041109084509911/09/04 08:45:31  5-MIN KSTC 091445Z AUTO 14009KT 10SM CLR 03/M03 A3010 860 67 -300 130/09 RMK AO2
14926KSTC STC20041109085012211/09/04 08:50:31  5-MIN KSTC 091450Z AUTO 14009KT 10SM CLR 03/M03 A3010 860 67 -300 130/09 RMK AO2 SLP213 T00281028 56030
14926KSTC STC20041109085509911/09/04 08:55:31  5-MIN KSTC 091455Z AUTO 13009KT 10SM CLR 03/M03 A3010 860 64 -300 130/09 RMK AO2
14926KSTC STC20041109090009911/09/04 09:00:31  5-MIN KSTC 091500Z AUTO 14010KT 10SM CLR 03/M03 A3010 860 64 -300 140/10 RMK AO2
14926KSTC STC20041109090509911/09/04 09:05:31  5-MIN KSTC 091505Z AUTO 13009KT 10SM CLR 04/M02 A3010 860 64 -200 130/09 RMK AO2
14926KSTC STC20041109091009911/09/04 09:10:31  5-MIN KSTC 091510Z AUTO 14010KT 10SM CLR 04/M02 A3009 870 62 -100 140/10 RMK AO2
14926KSTC STC20041109091509911/09/04 09:15:31  5-MIN KSTC 091515Z AUTO 14010KT 10SM CLR 04/M02 A3010 860 62 -100 140/10 RMK AO2
14926KSTC STC20041109092009611/09/04 09:20:31  5-MIN KSTC 091520Z AUTO 15012KT 10SM CLR 05/M02 A3010 870 59 0 140/12 RMK AO2
14926KSTC STC20041109092509611/09/04 09:25:31  5-MIN KSTC 091525Z AUTO 16011KT 10SM CLR 05/M02 A3009 870 62 0 150/11 RMK AO2
14926KSTC STC20041109093009611/09/04 09:30:31  5-MIN KSTC 091530Z AUTO 16010KT 10SM CLR 06/M02 A3009 870 59 0 160/10 RMK AO2
14926KSTC STC20041109093509611/09/04 09:35:31  5-MIN KSTC 091535Z AUTO 16012KT 10SM CLR 06/M02 A3009 870 59 0 160/12 RMK AO2
14926KSTC STC20041109094010411/09/04 09:40:31  5-MIN KSTC 091540Z AUTO 16014G19KT 10SM CLR 06/M02 A3009 870 57 100 160/14G19 RMK AO2
14926KSTC STC20041109094510411/09/04 09:45:31  5-MIN KSTC 091545Z AUTO 16013G19KT 10SM CLR 06/M02 A3008 880 57 100 160/13G19 RMK AO2
14926KSTC STC20041109095011511/09/04 09:50:31  5-MIN KSTC 091550Z AUTO 17012KT 10SM CLR 06/M01 A3008 880 60 100 160/12 RMK AO2 SLP204 T00611011
14926KSTC STC20041109095509811/09/04 09:55:31  5-MIN KSTC 091555Z AUTO 16010KT 10SM CLR 07/M01 A3008 880 57 100 160/10 RMK AO2
14926KSTC STC20041109100009811/09/04 10:00:31  5-MIN KSTC 091600Z AUTO 18013KT 10SM CLR 07/M01 A3008 880 57 100 170/13 RMK AO2
14926KSTC STC20041109100509811/09/04 10:05:31  5-MIN KSTC 091605Z AUTO 16012KT 10SM CLR 07/M01 A3008 880 57 100 160/12 RMK AO2
14926KSTC STC20041109101009811/09/04 10:10:31  5-MIN KSTC 091610Z AUTO 17013KT 10SM CLR 07/M01 A3007 880 60 100 170/13 RMK AO2
14926KSTC STC20041109101509811/09/04 10:15:31  5-MIN KSTC 091615Z AUTO 17013KT 10SM CLR 07/M01 A3007 890 57 200 160/13 RMK AO2
14926KSTC STC20041109102010411/09/04 10:20:31  5-MIN KSTC 091620Z AUTO 17014G18KT 10SM CLR 07/M01 A3007 890 57 200 170/14G18 RMK AO2
14926KSTC STC20041109102509811/09/04 10:25:31  5-MIN KSTC 091625Z AUTO 16011KT 10SM CLR 07/M01 A3006 890 57 200 160/11 RMK AO2
14926KSTC STC20041109103009711/09/04 10:30:31  5-MIN KSTC 091630Z AUTO 18011KT 10SM CLR 08/00 A3006 900 58 300 170/11 RMK AO2
14926KSTC STC20041109103510311/09/04 10:35:31  5-MIN KSTC 091635Z AUTO 17014G18KT 10SM CLR 08/00 A3006 900 58 300 170/14G18 RMK AO2
14926KSTC STC20041109104009711/09/04 10:40:31  5-MIN KSTC 091640Z AUTO 17012KT 10SM CLR 08/00 A3006 900 58 300 160/12 RMK AO2
14926KSTC STC20041109104509711/09/04 10:45:31  5-MIN KSTC 091645Z AUTO 16015KT 10SM CLR 08/00 A3006 900 58 300 160/15 RMK AO2
14926KSTC STC20041109105011411/09/04 10:50:31  5-MIN KSTC 091650Z AUTO 17011KT 10SM CLR 08/00 A3005 900 58 300 170/11 RMK AO2 SLP195 T00780000
14926KSTC STC20041109105509711/09/04 10:55:31  5-MIN KSTC 091655Z AUTO 18013KT 10SM CLR 09/01 A3005 900 56 400 180/13 RMK AO2
14926KSTC STC20041109110009711/09/04 11:00:31  5-MIN KSTC 091700Z AUTO 18014KT 10SM CLR 09/01 A3005 910 56 400 170/14 RMK AO2
14926KSTC STC20041109110509711/09/04 11:05:31  5-MIN KSTC 091705Z AUTO 18010KT 10SM CLR 09/01 A3005 910 56 400 180/10 RMK AO2
14926KSTC STC20041109111009711/09/04 11:10:31  5-MIN KSTC 091710Z AUTO 17010KT 10SM CLR 09/01 A3004 910 56 500 170/10 RMK AO2
14926KSTC STC20041109120509711/09/04 12:05:31  5-MIN KSTC 091805Z AUTO 19013KT 10SM CLR 11/02 A3002 940 56 700 180/13 RMK AO2
14926KSTC STC20041109121009711/09/04 12:10:31  5-MIN KSTC 091810Z AUTO 19011KT 10SM CLR 11/02 A3002 940 56 700 180/11 RMK AO2
14926KSTC STC20041109121509711/09/04 12:15:31  5-MIN KSTC 091815Z AUTO 19013KT 10SM CLR 10/02 A3001 940 58 600 190/13 RMK AO2
14926KSTC STC20041109122009711/09/04 12:20:31  5-MIN KSTC 091820Z AUTO 16012KT 10SM CLR 11/02 A3001 940 56 700 160/12 RMK AO2
14926KSTC STC20041109122509711/09/04 12:25:31  5-MIN KSTC 091825Z AUTO 18011KT 10SM CLR 11/02 A3001 940 54 700 170/11 RMK AO2
14926KSTC STC20041109123009711/09/04 12:30:31  5-MIN KSTC 091830Z AUTO 16014KT 10SM CLR 11/02 A3001 950 56 700 160/14 RMK AO2
14926KSTC STC20041109123509711/09/04 12:35:31  5-MIN KSTC 091835Z AUTO 17012KT 10SM CLR 11/03 A3000 950 56 700 160/12 RMK AO2
14926KSTC STC20041109124009711/09/04 12:40:31  5-MIN KSTC 091840Z AUTO 18012KT 10SM CLR 11/03 A3000 950 56 800 180/12 RMK AO2
14926KSTC STC20041109124509711/09/04 12:45:31  5-MIN KSTC 091845Z AUTO 17011KT 10SM CLR 12/03 A3000 960 54 800 160/11 RMK AO2
14926KSTC STC20041109125011411/09/04 12:50:31  5-MIN KSTC 091850Z AUTO 17012KT 10SM CLR 12/03 A2999 960 54 900 170/12 RMK AO2 SLP173 T01220033
14926KSTC STC20041109125510311/09/04 12:55:31  5-MIN KSTC 091855Z AUTO 18012G18KT 10SM CLR 12/03 A2999 960 54 900 170/12G18 RMK AO2
14926KSTC STC20041109130009711/09/04 13:00:31  5-MIN KSTC 091900Z AUTO 17012KT 10SM CLR 12/03 A2999 960 54 900 170/12 RMK AO2
14926KSTC STC20041109130509711/09/04 13:05:31  5-MIN KSTC 091905Z AUTO 17015KT 10SM CLR 12/03 A2999 960 54 900 170/15 RMK AO2
14926KSTC STC20041109131009711/09/04 13:10:31  5-MIN KSTC 091910Z AUTO 17014KT 10SM CLR 12/03 A2999 970 54 900 170/14 RMK AO2
14926KSTC STC20041109131509711/09/04 13:15:31  5-MIN KSTC 091915Z AUTO 18013KT 10SM CLR 12/03 A2998 970 54 900 170/13 RMK AO2
14926KSTC STC20041109132009711/09/04 13:20:31  5-MIN KSTC 091920Z AUTO 17015KT 10SM CLR 12/03 A2998 970 54 900 160/15 RMK AO2
14926KSTC STC20041109132509711/09/04 13:25:31  5-MIN KSTC 091925Z AUTO 18014KT 10SM CLR 12/03 A2998 970 54 900 170/14 RMK AO2
14926KSTC STC20041109133009711/09/04 13:30:31  5-MIN KSTC 091930Z AUTO 19013KT 10SM CLR 12/03 A2998 980 56 800 180/13 RMK AO2
14926KSTC STC20041109133509711/09/04 13:35:31  5-MIN KSTC 091935Z AUTO 18011KT 10SM CLR 12/03 A2997 980 54 900 180/11 RMK AO2
14926KSTC STC20041109134009711/09/04 13:40:31  5-MIN KSTC 091940Z AUTO 18013KT 10SM CLR 12/03 A2997 980 56 900 180/13 RMK AO2
14926KSTC STC20041109134509711/09/04 13:45:31  5-MIN KSTC 091945Z AUTO 18012KT 10SM CLR 12/04 A2997 980 58 900 180/12 RMK AO2
14926KSTC STC20041109135011411/09/04 13:50:31  5-MIN KSTC 091950Z AUTO 17011KT 10SM CLR 12/04 A2997 980 56 900 170/11 RMK AO2 SLP163 T01220039
14926KSTC STC20041109135509711/09/04 13:55:31  5-MIN KSTC 091955Z AUTO 17013KT 10SM CLR 12/04 A2996 990 56 900 170/13 RMK AO2
14926KSTC STC20041109140009711/09/04 14:00:31  5-MIN KSTC 092000Z AUTO 17014KT 10SM CLR 12/04 A2996 990 56 900 160/14 RMK AO2
14926KSTC STC20041109140510311/09/04 14:05:31  5-MIN KSTC 092005Z AUTO 18010G18KT 10SM CLR 12/04 A2996 990 56 900 170/10G18 RMK AO2
14926KSTC STC20041109141009711/09/04 14:10:31  5-MIN KSTC 092010Z AUTO 16013KT 10SM CLR 12/04 A2995 990 56 900 160/13 RMK AO2
14926KSTC STC20041109141509811/09/04 14:15:31  5-MIN KSTC 092015Z AUTO 16012KT 10SM CLR 12/04 A2995 1000 56 900 160/12 RMK AO2
14926KSTC STC20041109142009811/09/04 14:20:31  5-MIN KSTC 092020Z AUTO 17013KT 10SM CLR 12/04 A2995 1000 56 900 160/13 RMK AO2
14926KSTC STC20041109142509811/09/04 14:25:31  5-MIN KSTC 092025Z AUTO 16012KT 10SM CLR 12/04 A2994 1000 56 900 150/12 RMK AO2
14926KSTC STC20041109143009911/09/04 14:30:31  5-MIN KSTC 092030Z AUTO 16013KT 10SM CLR 12/04 A2994 1010 56 1000 160/13 RMK AO2
14926KSTC STC20041109143509911/09/04 14:35:31  5-MIN KSTC 092035Z AUTO 15012KT 10SM CLR 13/04 A2994 1010 54 1000 150/12 RMK AO2
14926KSTC STC20041109144009911/09/04 14:40:31  5-MIN KSTC 092040Z AUTO 15013KT 10SM CLR 13/04 A2994 1010 54 1000 140/13 RMK AO2
14926KSTC STC20041109144509911/09/04 14:45:31  5-MIN KSTC 092045Z AUTO 15013KT 10SM CLR 12/04 A2993 1010 56 1000 150/13 RMK AO2
14926KSTC STC20041109145012211/09/04 14:50:31  5-MIN KSTC 092050Z AUTO 15011KT 10SM CLR 12/04 A2993 1010 59 1000 140/11 RMK AO2 SLP152 T01220044 58026
14926KSTC STC20041109145509911/09/04 14:55:31  5-MIN KSTC 092055Z AUTO 15010KT 10SM CLR 13/04 A2993 1020 56 1000 150/10 RMK AO2
14926KSTC STC20041109150009911/09/04 15:00:31  5-MIN KSTC 092100Z AUTO 14010KT 10SM CLR 13/04 A2993 1020 56 1000 140/10 RMK AO2
14926KSTC STC20041109150509911/09/04 15:05:31  5-MIN KSTC 092105Z AUTO 14010KT 10SM CLR 13/04 A2993 1020 56 1000 130/10 RMK AO2
14926KSTC STC20041109151009911/09/04 15:10:31  5-MIN KSTC 092110Z AUTO 14009KT 10SM CLR 13/04 A2992 1020 56 1000 130/09 RMK AO2
14926KSTC STC20041109151509911/09/04 15:15:31  5-MIN KSTC 092115Z AUTO 13008KT 10SM CLR 13/04 A2992 1030 56 1000 130/08 RMK AO2
14926KSTC STC20041109152009911/09/04 15:20:31  5-MIN KSTC 092120Z AUTO 14006KT 10SM CLR 13/05 A2992 1030 57 1100 130/06 RMK AO2
14926KSTC STC20041109152509911/09/04 15:25:31  5-MIN KSTC 092125Z AUTO 12008KT 10SM CLR 13/05 A2992 1030 57 1100 120/08 RMK AO2
14926KSTC STC20041109153009911/09/04 15:30:31  5-MIN KSTC 092130Z AUTO 13006KT 10SM CLR 13/05 A2992 1030 57 1100 130/06 RMK AO2
14926KSTC STC20041109153509911/09/04 15:35:31  5-MIN KSTC 092135Z AUTO 14008KT 10SM CLR 13/05 A2991 1030 57 1100 130/08 RMK AO2
14926KSTC STC20041109154009911/09/04 15:40:31  5-MIN KSTC 092140Z AUTO 14007KT 10SM CLR 13/06 A2991 1040 59 1100 130/07 RMK AO2
14926KSTC STC20041109154509911/09/04 15:45:31  5-MIN KSTC 092145Z AUTO 14008KT 10SM CLR 13/06 A2991 1040 59 1100 140/08 RMK AO2
14926KSTC STC20041109155011611/09/04 15:50:31  5-MIN KSTC 092150Z AUTO 14007KT 10SM CLR 14/06 A2991 1040 59 1200 140/07 RMK AO2 SLP143 T01390061
14926KSTC STC20041109155509911/09/04 15:55:31  5-MIN KSTC 092155Z AUTO 14008KT 10SM CLR 14/06 A2991 1040 59 1200 140/08 RMK AO2
14926KSTC STC20041109160009911/09/04 16:00:31  5-MIN KSTC 092200Z AUTO 14009KT 10SM CLR 14/06 A2990 1040 59 1200 130/09 RMK AO2
14926KSTC STC20041109160509911/09/04 16:05:31  5-MIN KSTC 092205Z AUTO 13009KT 10SM CLR 14/06 A2990 1040 59 1200 130/09 RMK AO2
14926KSTC STC20041109161009911/09/04 16:10:31  5-MIN KSTC 092210Z AUTO 14008KT 10SM CLR 14/06 A2990 1040 59 1200 140/08 RMK AO2
14926KSTC STC20041109161509911/09/04 16:15:31  5-MIN KSTC 092215Z AUTO 14008KT 10SM CLR 13/06 A2990 1040 61 1100 140/08 RMK AO2
14926KSTC STC20041109162009911/09/04 16:20:31  5-MIN KSTC 092220Z AUTO 14007KT 10SM CLR 13/07 A2990 1050 64 1100 140/07 RMK AO2
14926KSTC STC20041109162509911/09/04 16:25:31  5-MIN KSTC 092225Z AUTO 14007KT 10SM CLR 13/07 A2990 1050 64 1100 140/07 RMK AO2
14926KSTC STC20041109163009911/09/04 16:30:31  5-MIN KSTC 092230Z AUTO 14008KT 10SM CLR 13/07 A2990 1050 66 1100 140/08 RMK AO2
14926KSTC STC20041109163509911/09/04 16:35:31  5-MIN KSTC 092235Z AUTO 14007KT 10SM CLR 13/07 A2990 1050 66 1100 130/07 RMK AO2
14926KSTC STC20041109164009911/09/04 16:40:31  5-MIN KSTC 092240Z AUTO 14007KT 10SM CLR 13/07 A2989 1050 64 1100 140/07 RMK AO2
14926KSTC STC20041109164509911/09/04 16:45:31  5-MIN KSTC 092245Z AUTO 14008KT 10SM CLR 13/07 A2989 1050 66 1100 130/08 RMK AO2
14926KSTC STC20041109165011611/09/04 16:50:31  5-MIN KSTC 092250Z AUTO 13008KT 10SM CLR 13/07 A2989 1050 66 1100 130/08 RMK AO2 SLP136 T01280067
14926KSTC STC20041109165509911/09/04 16:55:31  5-MIN KSTC 092255Z AUTO 13008KT 10SM CLR 13/07 A2989 1060 64 1100 130/08 RMK AO2
14926KSTC STC20041109170009911/09/04 17:00:31  5-MIN KSTC 092300Z AUTO 13008KT 10SM CLR 13/07 A2988 1060 64 1100 130/08 RMK AO2
14926KSTC STC20041109170509911/09/04 17:05:31  5-MIN KSTC 092305Z AUTO 14007KT 10SM CLR 13/07 A2988 1060 66 1100 130/07 RMK AO2
14926KSTC STC20041109171009911/09/04 17:10:31  5-MIN KSTC 092310Z AUTO 13008KT 10SM CLR 13/07 A2988 1060 66 1100 130/08 RMK AO2
14926KSTC STC20041109171509911/09/04 17:15:31  5-MIN KSTC 092315Z AUTO 14008KT 10SM CLR 13/07 A2988 1060 66 1100 140/08 RMK AO2
14926KSTC STC20041109172009911/09/04 17:20:31  5-MIN KSTC 092320Z AUTO 14008KT 10SM CLR 12/07 A2988 1060 71 1000 140/08 RMK AO2
14926KSTC STC20041109172509811/09/04 17:25:31  5-MIN KSTC 092325Z AUTO 15008KT 10SM CLR 11/06 A2988 1060 74 800 140/08 RMK AO2
14926KSTC STC20041109173009811/09/04 17:30:31  5-MIN KSTC 092330Z AUTO 15008KT 10SM CLR 10/06 A2988 1060 77 800 150/08 RMK AO2
14926KSTC STC20041109173509811/09/04 17:35:31  5-MIN KSTC 092335Z AUTO 15009KT 10SM CLR 10/06 A2988 1060 77 800 140/09 RMK AO2
14926KSTC STC20041109174009811/09/04 17:40:31  5-MIN KSTC 092340Z AUTO 15010KT 10SM CLR 10/06 A2988 1060 77 800 150/10 RMK AO2
14926KSTC STC20041109174509811/09/04 17:45:31  5-MIN KSTC 092345Z AUTO 16010KT 10SM CLR 10/07 A2988 1060 80 800 150/10 RMK AO2
14926KSTC STC20041109175013311/09/04 17:50:31  5-MIN KSTC 092350Z AUTO 16009KT 10SM CLR 10/07 A2988 1060 80 800 160/09 RMK AO2 SLP135 T01000067 10139 20094 58029
14926KSTC STC20041109175509811/09/04 17:55:31  5-MIN KSTC 092355Z AUTO 17010KT 10SM CLR 11/07 A2988 1060 77 900 160/10 RMK AO2
14926KSTC STC20041109180009911/09/04 18:00:31  5-MIN KSTC 100000Z AUTO 17010KT 10SM CLR 12/07 A2988 1060 74 1000 170/10 RMK AO2
14926KSTC STC20041109180509911/09/04 18:05:31  5-MIN KSTC 100005Z AUTO 17010KT 10SM CLR 12/07 A2988 1060 74 1000 170/10 RMK AO2
14926KSTC STC20041109181009911/09/04 18:10:31  5-MIN KSTC 100010Z AUTO 17011KT 10SM CLR 12/07 A2988 1060 74 1000 170/11 RMK AO2
14926KSTC STC20041109181509911/09/04 18:15:31  5-MIN KSTC 100015Z AUTO 17011KT 10SM CLR 12/07 A2988 1060 74 1000 170/11 RMK AO2
14926KSTC STC20041109182009911/09/04 18:20:31  5-MIN KSTC 100020Z AUTO 17011KT 10SM CLR 12/07 A2988 1060 71 1000 170/11 RMK AO2
14926KSTC STC20041109182509911/09/04 18:25:31  5-MIN KSTC 100025Z AUTO 17010KT 10SM CLR 12/08 A2988 1070 74 1000 170/10 RMK AO2
14926KSTC STC20041109183009911/09/04 18:30:31  5-MIN KSTC 100030Z AUTO 18010KT 10SM CLR 12/08 A2988 1070 74 1000 170/10 RMK AO2
14926KSTC STC20041109183509911/09/04 18:35:31  5-MIN KSTC 100035Z AUTO 18010KT 10SM CLR 12/08 A2988 1070 74 1000 180/10 RMK AO2
14926KSTC STC20041109184009911/09/04 18:40:31  5-MIN KSTC 100040Z AUTO 18011KT 10SM CLR 12/08 A2988 1070 74 1000 170/11 RMK AO2
14926KSTC STC20041109184509911/09/04 18:45:31  5-MIN KSTC 100045Z AUTO 18010KT 10SM CLR 12/08 A2988 1070 74 1000 180/10 RMK AO2
14926KSTC STC20041109185011611/09/04 18:50:31  5-MIN KSTC 100050Z AUTO 18010KT 10SM CLR 12/08 A2988 1070 74 1000 170/10 RMK AO2 SLP133 T01220078
14926KSTC STC20041109185509911/09/04 18:55:31  5-MIN KSTC 100055Z AUTO 18009KT 10SM CLR 12/08 A2988 1070 74 1000 170/09 RMK AO2
14926KSTC STC20041109190009911/09/04 19:00:31  5-MIN KSTC 100100Z AUTO 18009KT 10SM CLR 12/08 A2988 1070 74 1000 180/09 RMK AO2
14926KSTC STC20041109190509911/09/04 19:05:31  5-MIN KSTC 100105Z AUTO 18009KT 10SM CLR 12/08 A2988 1070 74 1000 170/09 RMK AO2
14926KSTC STC20041109191009911/09/04 19:10:31  5-MIN KSTC 100110Z AUTO 18009KT 10SM CLR 12/08 A2988 1070 74 1000 170/09 RMK AO2
14926KSTC STC20041109191509911/09/04 19:15:31  5-MIN KSTC 100115Z AUTO 17009KT 10SM CLR 12/08 A2988 1070 74 1000 170/09 RMK AO2
14926KSTC STC20041109192009911/09/04 19:20:31  5-MIN KSTC 100120Z AUTO 17008KT 10SM CLR 12/08 A2987 1070 77 1000 170/08 RMK AO2
14926KSTC STC20041109192509911/09/04 19:25:31  5-MIN KSTC 100125Z AUTO 16007KT 10SM CLR 12/08 A2987 1070 77 1000 160/07 RMK AO2
14926KSTC STC20041109193009811/09/04 19:30:31  5-MIN KSTC 100130Z AUTO 16008KT 10SM CLR 11/08 A2987 1070 80 900 160/08 RMK AO2
14926KSTC STC20041109193509811/09/04 19:35:31  5-MIN KSTC 100135Z AUTO 16008KT 10SM CLR 11/08 A2987 1070 80 900 160/08 RMK AO2
14926KSTC STC20041109194009911/09/04 19:40:31  5-MIN KSTC 100140Z AUTO 16008KT 10SM CLR 12/08 A2987 1070 77 1000 160/08 RMK AO2
14926KSTC STC20041109194509911/09/04 19:45:31  5-MIN KSTC 100145Z AUTO 16008KT 10SM CLR 12/08 A2987 1070 77 1000 150/08 RMK AO2
14926KSTC STC20041109195011511/09/04 19:50:31  5-MIN KSTC 100150Z AUTO 16008KT 10SM CLR 11/08 A2987 1070 80 900 150/08 RMK AO2 SLP130 T01110078
14926KSTC STC20041109195509811/09/04 19:55:31  5-MIN KSTC 100155Z AUTO 16007KT 10SM CLR 11/08 A2987 1080 83 800 150/07 RMK AO2
14926KSTC STC20041109200009811/09/04 20:00:31  5-MIN KSTC 100200Z AUTO 16007KT 10SM CLR 11/08 A2986 1080 80 900 150/07 RMK AO2
14926KSTC STC20041109200509811/09/04 20:05:31  5-MIN KSTC 100205Z AUTO 15007KT 10SM CLR 11/08 A2986 1080 83 800 150/07 RMK AO2
14926KSTC STC20041109201009811/09/04 20:10:31  5-MIN KSTC 100210Z AUTO 15007KT 10SM CLR 11/08 A2986 1080 83 800 150/07 RMK AO2
14926KSTC STC20041109201509811/09/04 20:15:31  5-MIN KSTC 100215Z AUTO 16006KT 10SM CLR 11/08 A2986 1080 83 800 160/06 RMK AO2
14926KSTC STC20041109202009811/09/04 20:20:31  5-MIN KSTC 100220Z AUTO 17007KT 10SM CLR 11/08 A2986 1080 80 900 160/07 RMK AO2
14926KSTC STC20041109202509911/09/04 20:25:31  5-MIN KSTC 100225Z AUTO 17008KT 10SM CLR 12/08 A2986 1080 77 1000 160/08 RMK AO2
14926KSTC STC20041109203009911/09/04 20:30:31  5-MIN KSTC 100230Z AUTO 17007KT 10SM CLR 12/08 A2986 1080 77 1000 170/07 RMK AO2
14926KSTC STC20041109203509911/09/04 20:35:31  5-MIN KSTC 100235Z AUTO 17008KT 10SM CLR 12/08 A2986 1080 77 1000 170/08 RMK AO2
14926KSTC STC20041109204009911/09/04 20:40:31  5-MIN KSTC 100240Z AUTO 17009KT 10SM CLR 12/08 A2986 1090 77 1000 170/09 RMK AO2
14926KSTC STC20041109204509911/09/04 20:45:31  5-MIN KSTC 100245Z AUTO 18008KT 10SM CLR 12/08 A2986 1090 77 1000 170/08 RMK AO2
14926KSTC STC20041109205012211/09/04 20:50:31  5-MIN KSTC 100250Z AUTO 18010KT 10SM CLR 12/08 A2985 1090 77 1000 170/10 RMK AO2 SLP124 T01170078 56017
14926KSTC STC20041109205509911/09/04 20:55:31  5-MIN KSTC 100255Z AUTO 18009KT 10SM CLR 12/08 A2985 1090 74 1100 180/09 RMK AO2
14926KSTC STC20041109210009911/09/04 21:00:31  5-MIN KSTC 100300Z AUTO 18009KT 10SM CLR 12/08 A2985 1090 74 1100 180/09 RMK AO2
14926KSTC STC20041109210509911/09/04 21:05:31  5-MIN KSTC 100305Z AUTO 18011KT 10SM CLR 12/08 A2985 1090 74 1100 170/11 RMK AO2
14926KSTC STC20041109211009911/09/04 21:10:31  5-MIN KSTC 100310Z AUTO 17011KT 10SM CLR 12/08 A2985 1090 74 1100 170/11 RMK AO2
14926KSTC STC20041109211509911/09/04 21:15:31  5-MIN KSTC 100315Z AUTO 18011KT 10SM CLR 12/08 A2985 1090 77 1100 170/11 RMK AO2
14926KSTC STC20041109212009911/09/04 21:20:31  5-MIN KSTC 100320Z AUTO 18011KT 10SM CLR 12/08 A2985 1090 77 1100 180/11 RMK AO2
14926KSTC STC20041109212509911/09/04 21:25:31  5-MIN KSTC 100325Z AUTO 18013KT 10SM CLR 12/07 A2985 1090 71 1100 180/13 RMK AO2
14926KSTC STC20041109213009911/09/04 21:30:31  5-MIN KSTC 100330Z AUTO 18011KT 10SM CLR 12/07 A2985 1090 71 1100 180/11 RMK AO2
14926KSTC STC20041109213509911/09/04 21:35:31  5-MIN KSTC 100335Z AUTO 19010KT 10SM CLR 12/07 A2985 1090 71 1100 190/10 RMK AO2
14926KSTC STC20041109214009911/09/04 21:40:31  5-MIN KSTC 100340Z AUTO 19010KT 10SM CLR 12/07 A2985 1090 71 1100 180/10 RMK AO2
14926KSTC STC20041109214509911/09/04 21:45:31  5-MIN KSTC 100345Z AUTO 18012KT 10SM CLR 12/07 A2985 1090 74 1000 180/12 RMK AO2
14926KSTC STC20041109215011611/09/04 21:50:31  5-MIN KSTC 100350Z AUTO 19012KT 10SM CLR 12/08 A2985 1090 74 1100 190/12 RMK AO2 SLP120 T01220078
14926KSTC STC20041109215509911/09/04 21:55:31  5-MIN KSTC 100355Z AUTO 19011KT 10SM CLR 12/08 A2985 1090 74 1100 180/11 RMK AO2
14926KSTC STC20041109220009911/09/04 22:00:31  5-MIN KSTC 100400Z AUTO 19012KT 10SM CLR 12/07 A2984 1100 71 1100 180/12 RMK AO2
14926KSTC STC20041109220509911/09/04 22:05:31  5-MIN KSTC 100405Z AUTO 19011KT 10SM CLR 12/07 A2984 1100 74 1000 180/11 RMK AO2
14926KSTC STC20041109221009911/09/04 22:10:31  5-MIN KSTC 100410Z AUTO 19010KT 10SM CLR 12/07 A2984 1100 74 1000 180/10 RMK AO2
14926KSTC STC20041109221509911/09/04 22:15:31  5-MIN KSTC 100415Z AUTO 19010KT 10SM CLR 12/08 A2985 1100 74 1100 180/10 RMK AO2
14926KSTC STC20041109222009911/09/04 22:20:31  5-MIN KSTC 100420Z AUTO 19009KT 10SM CLR 12/07 A2984 1100 74 1000 190/09 RMK AO2
14926KSTC STC20041109222509911/09/04 22:25:31  5-MIN KSTC 100425Z AUTO 19011KT 10SM CLR 12/08 A2984 1100 77 1000 180/11 RMK AO2
14926KSTC STC20041109223009911/09/04 22:30:31  5-MIN KSTC 100430Z AUTO 19010KT 10SM CLR 12/08 A2984 1100 74 1100 180/10 RMK AO2
14926KSTC STC20041109223509911/09/04 22:35:31  5-MIN KSTC 100435Z AUTO 19010KT 10SM CLR 12/08 A2984 1100 74 1100 190/10 RMK AO2
14926KSTC STC20041109224009911/09/04 22:40:31  5-MIN KSTC 100440Z AUTO 19012KT 10SM CLR 12/08 A2984 1100 74 1100 190/12 RMK AO2
14926KSTC STC20041109224509911/09/04 22:45:31  5-MIN KSTC 100445Z AUTO 19012KT 10SM CLR 12/08 A2984 1100 74 1100 190/12 RMK AO2
14926KSTC STC20041109225011611/09/04 22:50:31  5-MIN KSTC 100450Z AUTO 19011KT 10SM CLR 12/08 A2984 1100 74 1100 190/11 RMK AO2 SLP118 T01220078
14926KSTC STC20041109225509911/09/04 22:55:31  5-MIN KSTC 100455Z AUTO 19010KT 10SM CLR 12/08 A2984 1100 74 1100 190/10 RMK AO2
14926KSTC STC20041109230009911/09/04 23:00:31  5-MIN KSTC 100500Z AUTO 19011KT 10SM CLR 12/08 A2984 1100 74 1100 190/11 RMK AO2
14926KSTC STC20041109230509911/09/04 23:05:31  5-MIN KSTC 100505Z AUTO 19012KT 10SM CLR 12/08 A2984 1100 74 1100 190/12 RMK AO2
14926KSTC STC20041109231009911/09/04 23:10:31  5-MIN KSTC 100510Z AUTO 19012KT 10SM CLR 12/08 A2984 1100 74 1100 190/12 RMK AO2
14926KSTC STC20041109231509911/09/04 23:15:31  5-MIN KSTC 100515Z AUTO 18012KT 10SM CLR 12/08 A2983 1110 74 1100 180/12 RMK AO2
14926KSTC STC20041109232009911/09/04 23:20:31  5-MIN KSTC 100520Z AUTO 19012KT 10SM CLR 12/08 A2983 1110 74 1100 190/12 RMK AO2
14926KSTC STC20041109232509911/09/04 23:25:31  5-MIN KSTC 100525Z AUTO 19013KT 10SM CLR 12/08 A2983 1110 74 1100 190/13 RMK AO2
14926KSTC STC20041109233009911/09/04 23:30:31  5-MIN KSTC 100530Z AUTO 19011KT 10SM CLR 12/08 A2983 1110 74 1100 190/11 RMK AO2
14926KSTC STC20041109233509911/09/04 23:35:31  5-MIN KSTC 100535Z AUTO 19013KT 10SM CLR 12/08 A2983 1110 74 1100 190/13 RMK AO2
14926KSTC STC20041109234009911/09/04 23:40:31  5-MIN KSTC 100540Z AUTO 19013KT 10SM CLR 12/08 A2983 1110 74 1100 190/13 RMK AO2
14926KSTC STC20041109234509911/09/04 23:45:31  5-MIN KSTC 100545Z AUTO 19011KT 10SM CLR 12/08 A2983 1110 74 1100 190/11 RMK AO2
14926KSTC STC20041109235014411/09/04 23:50:31  5-MIN KSTC 100550Z AUTO 19012KT 10SM CLR 12/08 A2983 1110 74 1100 190/12 RMK AO2 SLP113 T01220078 10122 20106 401391011 58009
14926KSTC STC20041109235509911/09/04 23:55:31  5-MIN KSTC 100555Z AUTO 19011KT 10SM CLR 12/07 A2983 1110 74 1000 190/11 RMK AO2
14926KSTC STC20041110000009911/10/04 00:00:32  5-MIN KSTC 100600Z AUTO 19012KT 10SM CLR 12/07 A2983 1110 74 1000 190/12 RMK AO2
14926KSTC STC20041110000509911/10/04 00:05:31  5-MIN KSTC 100605Z AUTO 19011KT 10SM CLR 12/07 A2983 1110 74 1000 190/11 RMK AO2
14926KSTC STC20041110001009911/10/04 00:10:31  5-MIN KSTC 100610Z AUTO 19010KT 10SM CLR 12/07 A2983 1110 74 1000 180/10 RMK AO2
14926KSTC STC20041110001509911/10/04 00:15:31  5-MIN KSTC 100615Z AUTO 19012KT 10SM CLR 12/08 A2983 1110 77 1000 190/12 RMK AO2
14926KSTC STC20041110002009911/10/04 00:20:31  5-MIN KSTC 100620Z AUTO 19011KT 10SM CLR 12/08 A2983 1110 77 1000 190/11 RMK AO2
14926KSTC STC20041110002509911/10/04 00:25:31  5-MIN KSTC 100625Z AUTO 19010KT 10SM CLR 12/08 A2982 1120 77 1000 190/10 RMK AO2
14926KSTC STC20041110003009911/10/04 00:30:31  5-MIN KSTC 100630Z AUTO 19012KT 10SM CLR 12/08 A2982 1120 77 1000 180/12 RMK AO2
14926KSTC STC20041110003509911/10/04 00:35:31  5-MIN KSTC 100635Z AUTO 19010KT 10SM CLR 12/08 A2982 1120 77 1000 190/10 RMK AO2
14926KSTC STC20041110004009911/10/04 00:40:31  5-MIN KSTC 100640Z AUTO 19010KT 10SM CLR 12/08 A2982 1120 77 1000 190/10 RMK AO2
14926KSTC STC20041110004509911/10/04 00:45:31  5-MIN KSTC 100645Z AUTO 19009KT 10SM CLR 12/08 A2982 1120 77 1000 180/09 RMK AO2
14926KSTC STC20041110005011611/10/04 00:50:31  5-MIN KSTC 100650Z AUTO 18010KT 10SM CLR 12/08 A2982 1120 77 1000 180/10 RMK AO2 SLP109 T01170078
14926KSTC STC20041110005509911/10/04 00:55:31  5-MIN KSTC 100655Z AUTO 19010KT 10SM CLR 12/08 A2982 1120 77 1000 190/10 RMK AO2
14926KSTC STC20041110010009911/10/04 01:00:31  5-MIN KSTC 100700Z AUTO 19011KT 10SM CLR 12/08 A2982 1120 77 1000 190/11 RMK AO2
14926KSTC STC20041110010509911/10/04 01:05:31  5-MIN KSTC 100705Z AUTO 19010KT 10SM CLR 12/08 A2982 1120 77 1000 190/10 RMK AO2
14926KSTC STC20041110011009911/10/04 01:10:31  5-MIN KSTC 100710Z AUTO 19010KT 10SM CLR 12/08 A2982 1120 77 1000 190/10 RMK AO2
14926KSTC STC20041110011509911/10/04 01:15:31  5-MIN KSTC 100715Z AUTO 19011KT 10SM CLR 12/08 A2982 1120 77 1000 190/11 RMK AO2
14926KSTC STC20041110012009911/10/04 01:20:31  5-MIN KSTC 100720Z AUTO 19009KT 10SM CLR 12/08 A2982 1120 77 1000 190/09 RMK AO2
14926KSTC STC20041110012509911/10/04 01:25:31  5-MIN KSTC 100725Z AUTO 19010KT 10SM CLR 12/08 A2982 1120 77 1000 190/10 RMK AO2
14926KSTC STC20041110013009911/10/04 01:30:31  5-MIN KSTC 100730Z AUTO 19010KT 10SM CLR 12/08 A2982 1120 77 1000 190/10 RMK AO2
14926KSTC STC20041110013509911/10/04 01:35:31  5-MIN KSTC 100735Z AUTO 19010KT 10SM CLR 12/08 A2982 1120 77 1000 180/10 RMK AO2
14926KSTC STC20041110014009911/10/04 01:40:31  5-MIN KSTC 100740Z AUTO 19009KT 10SM CLR 12/08 A2982 1120 77 1000 190/09 RMK AO2
14926KSTC STC20041110014509911/10/04 01:45:31  5-MIN KSTC 100745Z AUTO 19009KT 10SM CLR 12/08 A2982 1120 77 1000 190/09 RMK AO2
14926KSTC STC20041110015011611/10/04 01:50:31  5-MIN KSTC 100750Z AUTO 19010KT 10SM CLR 12/08 A2982 1120 77 1000 190/10 RMK AO2 SLP108 T01170078
14926KSTC STC20041110015509911/10/04 01:55:31  5-MIN KSTC 100755Z AUTO 19008KT 10SM CLR 12/08 A2982 1120 77 1000 190/08 RMK AO2
14926KSTC STC20041110020009911/10/04 02:00:31  5-MIN KSTC 100800Z AUTO 19009KT 10SM CLR 12/08 A2982 1120 77 1000 190/09 RMK AO2
14926KSTC STC20041110020509911/10/04 02:05:31  5-MIN KSTC 100805Z AUTO 19010KT 10SM CLR 12/08 A2982 1120 77 1000 190/10 RMK AO2
14926KSTC STC20041110021009911/10/04 02:10:31  5-MIN KSTC 100810Z AUTO 19008KT 10SM CLR 11/08 A2982 1120 80 1000 190/08 RMK AO2
14926KSTC STC20041110021509911/10/04 02:15:31  5-MIN KSTC 100815Z AUTO 19008KT 10SM CLR 12/08 A2982 1120 80 1000 190/08 RMK AO2
14926KSTC STC20041110022009911/10/04 02:20:31  5-MIN KSTC 100820Z AUTO 19008KT 10SM CLR 11/08 A2982 1120 83 1000 190/08 RMK AO2
14926KSTC STC20041110022509911/10/04 02:25:31  5-MIN KSTC 100825Z AUTO 19008KT 10SM CLR 11/08 A2982 1120 83 1000 190/08 RMK AO2
14926KSTC STC20041110023009911/10/04 02:30:31  5-MIN KSTC 100830Z AUTO 19008KT 10SM CLR 11/08 A2982 1120 83 1000 190/08 RMK AO2
14926KSTC STC20041110023509911/10/04 02:35:31  5-MIN KSTC 100835Z AUTO 19008KT 10SM CLR 11/08 A2981 1120 83 1000 190/08 RMK AO2
14926KSTC STC20041110024009911/10/04 02:40:31  5-MIN KSTC 100840Z AUTO 19008KT 10SM CLR 11/08 A2981 1130 83 1000 190/08 RMK AO2
14926KSTC STC20041110024509911/10/04 02:45:31  5-MIN KSTC 100845Z AUTO 19007KT 10SM CLR 11/08 A2981 1130 83 1000 190/07 RMK AO2
14926KSTC STC20041110025012211/10/04 02:50:31  5-MIN KSTC 100850Z AUTO 19008KT 10SM CLR 11/08 A2981 1130 83 1000 190/08 RMK AO2 SLP106 T01110083 58007
14926KSTC STC20041110025509911/10/04 02:55:31  5-MIN KSTC 100855Z AUTO 20007KT 10SM CLR 11/08 A2981 1120 83 1000 190/07 RMK AO2
14926KSTC STC20041110030009911/10/04 03:00:31  5-MIN KSTC 100900Z AUTO 19006KT 10SM CLR 11/08 A2981 1130 83 1000 190/06 RMK AO2
14926KSTC STC20041110030509911/10/04 03:05:31  5-MIN KSTC 100905Z AUTO 19007KT 10SM CLR 11/08 A2981 1130 83 1000 190/07 RMK AO2
14926KSTC STC20041110031009911/10/04 03:10:31  5-MIN KSTC 100910Z AUTO 19006KT 10SM CLR 11/08 A2981 1130 83 1000 190/06 RMK AO2
14926KSTC STC20041110031509911/10/04 03:15:31  5-MIN KSTC 100915Z AUTO 19007KT 10SM CLR 11/08 A2981 1130 83 1000 180/07 RMK AO2
14926KSTC STC20041110032009911/10/04 03:20:31  5-MIN KSTC 100920Z AUTO 19007KT 10SM CLR 11/08 A2980 1130 83 1000 180/07 RMK AO2
14926KSTC STC20041110032509911/10/04 03:25:31  5-MIN KSTC 100925Z AUTO 18009KT 10SM CLR 11/08 A2980 1140 83 1000 180/09 RMK AO2
14926KSTC STC20041110033009911/10/04 03:30:31  5-MIN KSTC 100930Z AUTO 19009KT 10SM CLR 11/08 A2980 1130 83 1000 190/09 RMK AO2
14926KSTC STC20041110033509911/10/04 03:35:31  5-MIN KSTC 100935Z AUTO 20008KT 10SM CLR 12/09 A2980 1130 83 1000 190/08 RMK AO2
14926KSTC STC20041110034009911/10/04 03:40:31  5-MIN KSTC 100940Z AUTO 20008KT 10SM CLR 12/09 A2981 1130 83 1000 200/08 RMK AO2
14926KSTC STC20041110034509911/10/04 03:45:31  5-MIN KSTC 100945Z AUTO 21008KT 10SM CLR 11/09 A2981 1130 86 1000 200/08 RMK AO2
14926KSTC STC20041110035011611/10/04 03:50:31  5-MIN KSTC 100950Z AUTO 20008KT 10SM CLR 11/09 A2981 1130 86 1000 200/08 RMK AO2 SLP104 T01110089
14926KSTC STC20041110035509911/10/04 03:55:31  5-MIN KSTC 100955Z AUTO 20008KT 10SM CLR 11/09 A2981 1130 86 1000 200/08 RMK AO2
14926KSTC STC20041110040009911/10/04 04:00:31  5-MIN KSTC 101000Z AUTO 20007KT 10SM CLR 11/09 A2981 1130 86 1000 190/07 RMK AO2
14926KSTC STC20041110040510111/10/04 04:05:31  5-MIN KSTC 101005Z AUTO 21005KT 10SM FEW037 11/09 A2981 1130 89 900 200/05 RMK AO2
14926KSTC STC20041110041010111/10/04 04:10:31  5-MIN KSTC 101010Z AUTO 19005KT 10SM FEW037 11/08 A2981 1130 86 900 190/05 RMK AO2
14926KSTC STC20041110041510111/10/04 04:15:31  5-MIN KSTC 101015Z AUTO 19006KT 10SM FEW037 11/09 A2981 1130 89 900 190/06 RMK AO2
14926KSTC STC20041110042009811/10/04 04:20:31  5-MIN KSTC 101020Z AUTO 19005KT 10SM CLR 11/09 A2981 1130 89 900 190/05 RMK AO2
14926KSTC STC20041110042509811/10/04 04:25:31  5-MIN KSTC 101025Z AUTO 18004KT 10SM CLR 11/08 A2982 1120 86 900 180/04 RMK AO2
14926KSTC STC20041110043009811/10/04 04:30:31  5-MIN KSTC 101030Z AUTO 19005KT 10SM CLR 11/08 A2982 1120 86 900 180/05 RMK AO2
14926KSTC STC20041110043509911/10/04 04:35:31  5-MIN KSTC 101035Z AUTO 19004KT 10SM CLR 11/09 A2982 1120 86 1000 190/04 RMK AO2
14926KSTC STC20041110044009911/10/04 04:40:31  5-MIN KSTC 101040Z AUTO 00000KT 10SM CLR 11/09 A2982 1120 86 1000 000/00 RMK AO2
14926KSTC STC20041110044509811/10/04 04:45:31  5-MIN KSTC 101045Z AUTO 00000KT 10SM CLR 11/08 A2982 1120 86 900 000/00 RMK AO2
14926KSTC STC20041110045011511/10/04 04:50:31  5-MIN KSTC 101050Z AUTO 00000KT 10SM CLR 11/08 A2982 1120 86 900 000/00 RMK AO2 SLP107 T01060083
14926KSTC STC20041110045509811/10/04 04:55:31  5-MIN KSTC 101055Z AUTO 13003KT 10SM CLR 11/09 A2981 1120 89 900 130/03 RMK AO2
14926KSTC STC20041110050009811/10/04 05:00:31  5-MIN KSTC 101100Z AUTO 15003KT 10SM CLR 11/09 A2982 1120 89 900 150/03 RMK AO2
14926KSTC STC20041110050509811/10/04 05:05:31  5-MIN KSTC 101105Z AUTO 15004KT 10SM CLR 10/08 A2982 1120 89 800 150/04 RMK AO2
14926KSTC STC20041110051009811/10/04 05:10:31  5-MIN KSTC 101110Z AUTO 16003KT 10SM CLR 10/08 A2982 1120 89 800 160/03 RMK AO2
14926KSTC STC20041110051509811/10/04 05:15:31  5-MIN KSTC 101115Z AUTO 17004KT 10SM CLR 09/08 A2982 1120 96 700 170/04 RMK AO2
14926KSTC STC20041110052009811/10/04 05:20:31  5-MIN KSTC 101120Z AUTO 17003KT 10SM CLR 09/08 A2983 1110 93 700 160/03 RMK AO2
14926KSTC STC20041110052509811/10/04 05:25:31  5-MIN KSTC 101125Z AUTO 17004KT 10SM CLR 09/08 A2983 1110 96 700 170/04 RMK AO2
14926KSTC STC20041110053009811/10/04 05:30:31  5-MIN KSTC 101130Z AUTO 16003KT 10SM CLR 09/08 A2983 1110 93 700 160/03 RMK AO2
14926KSTC STC20041110053509811/10/04 05:35:31  5-MIN KSTC 101135Z AUTO 16003KT 10SM CLR 09/08 A2983 1110 93 800 160/03 RMK AO2
14926KSTC STC20041110054009811/10/04 05:40:31  5-MIN KSTC 101140Z AUTO 15003KT 10SM CLR 09/08 A2983 1110 93 800 150/03 RMK AO2
14926KSTC STC20041110054509811/10/04 05:45:31  5-MIN KSTC 101145Z AUTO 00000KT 10SM CLR 09/08 A2983 1110 93 700 000/00 RMK AO2
14926KSTC STC20041110055013311/10/04 05:50:31  5-MIN KSTC 101150Z AUTO 15003KT 10SM CLR 09/08 A2983 1110 93 700 150/03 RMK AO2 SLP115 T00940083 10117 20089 56005
14926KSTC STC20041110055510111/10/04 05:55:31  5-MIN KSTC 101155Z AUTO 00000KT 10SM FEW120 09/08 A2984 1100 93 700 000/00 RMK AO2
14926KSTC STC20041110060010111/10/04 06:00:31  5-MIN KSTC 101200Z AUTO 00000KT 10SM FEW030 09/08 A2984 1100 93 700 000/00 RMK AO2
14926KSTC STC20041110060510711/10/04 06:05:31  5-MIN KSTC 101205Z AUTO 22003KT 9SM SCT030 SCT120 09/08 A2984 1100 93 700 210/03 RMK AO2
14926KSTC STC20041110061010711/10/04 06:10:31  5-MIN KSTC 101210Z AUTO 23003KT 9SM FEW030 SCT110 09/08 A2984 1100 93 700 230/03 RMK AO2
14926KSTC STC20041110061510711/10/04 06:15:31  5-MIN KSTC 101215Z AUTO 23004KT 9SM SCT030 SCT110 09/08 A2984 1100 93 700 230/04 RMK AO2
14926KSTC STC20041110062010011/10/04 06:20:31  5-MIN KSTC 101220Z AUTO 25003KT 9SM BKN028 09/08 A2985 1090 93 700 250/03 RMK AO2
14926KSTC STC20041110062510011/10/04 06:25:31  5-MIN KSTC 101225Z AUTO 24005KT 9SM BKN028 09/08 A2985 1090 93 700 240/05 RMK AO2
14926KSTC STC20041110063010711/10/04 06:30:31  5-MIN KSTC 101230Z AUTO 26005KT 8SM FEW017 BKN028 09/08 A2985 1090 93 700 260/05 RMK AO2
14926KSTC STC20041110063510711/10/04 06:35:31  5-MIN KSTC 101235Z AUTO 29007KT 8SM FEW017 BKN028 10/09 A2986 1080 93 800 280/07 RMK AO2
14926KSTC STC20041110064010711/10/04 06:40:31  5-MIN KSTC 101240Z AUTO 29009KT 8SM FEW017 OVC026 11/09 A2986 1080 93 800 290/09 RMK AO2
14926KSTC STC20041110064510711/10/04 06:45:31  5-MIN KSTC 101245Z AUTO 30007KT 9SM FEW017 OVC026 11/09 A2986 1090 89 900 300/07 RMK AO2
14926KSTC STC20041110065012411/10/04 06:50:31  5-MIN KSTC 101250Z AUTO 33006KT 9SM FEW017 BKN026 11/09 A2986 1080 89 900 330/06 RMK AO2 SLP121 T01110094
14926KSTC STC20041110065510011/10/04 06:55:31  5-MIN KSTC 101255Z AUTO 33006KT 9SM SCT026 11/09 A2986 1090 89 900 330/06 RMK AO2
14926KSTC STC20041110070010011/10/04 07:00:31  5-MIN KSTC 101300Z AUTO 34007KT 8SM SCT026 11/09 A2986 1080 93 800 340/07 RMK AO2
14926KSTC STC20041110070510011/10/04 07:05:31  5-MIN KSTC 101305Z AUTO 34007KT 8SM FEW026 11/09 A2986 1080 89 800 340/07 RMK AO2
14926KSTC STC20041110071010011/10/04 07:10:31  5-MIN KSTC 101310Z AUTO 34007KT 8SM FEW026 11/09 A2987 1080 89 800 340/07 RMK AO2
14926KSTC STC20041110071509711/10/04 07:15:31  5-MIN KSTC 101315Z AUTO 34008KT 7SM CLR 11/09 A2987 1070 89 800 340/08 RMK AO2
14926KSTC STC20041110072010011/10/04 07:20:31  5-MIN KSTC 101320Z AUTO 34008KT 6SM BR CLR 11/09 A2987 1070 89 800 340/08 RMK AO2
14926KSTC STC20041110072510011/10/04 07:25:31  5-MIN KSTC 101325Z AUTO 35006KT 6SM BR CLR 10/09 A2987 1070 93 800 350/06 RMK AO2
14926KSTC STC20041110073010011/10/04 07:30:31  5-MIN KSTC 101330Z AUTO 36005KT 6SM BR CLR 10/09 A2988 1070 93 800 360/05 RMK AO2
14926KSTC STC20041110073510011/10/04 07:35:31  5-MIN KSTC 101335Z AUTO 36007KT 5SM BR CLR 10/09 A2988 1060 93 800 350/07 RMK AO2
14926KSTC STC20041110074010011/10/04 07:40:31  5-MIN KSTC 101340Z AUTO 34007KT 5SM BR CLR 10/09 A2989 1050 93 700 340/07 RMK AO2
14926KSTC STC20041110074511011/10/04 07:45:31  5-MIN KSTC 101345Z AUTO 34006KT 5SM BR SCT036 10/09 A2990 1050 93 700 340/06 RMK AO2 PRESRR
14926KSTC STC20041110075012711/10/04 07:50:31  5-MIN KSTC 101350Z AUTO 34008KT 5SM BR BKN036 11/09 A2990 1040 89 800 330/08 RMK AO2 PRESRR SLP137 T01060089
14926KSTC STC20041110075510311/10/04 07:55:31  5-MIN KSTC 101355Z AUTO 34009KT 5SM BR BKN036 11/09 A2991 1040 89 800 330/09 RMK AO2
14926KSTC STC20041110080011011/10/04 08:00:31  5-MIN KSTC 101400Z AUTO 34007KT 5SM BR BKN034 11/09 A2991 1030 89 800 340/07 RMK AO2 PRESRR
14926KSTC STC20041110080510311/10/04 08:05:31  5-MIN KSTC 101405Z AUTO 34009KT 5SM BR OVC034 11/08 A2992 1030 86 800 330/09 RMK AO2
14926KSTC STC20041110081010311/10/04 08:10:31  5-MIN KSTC 101410Z AUTO 34010KT 6SM BR OVC034 11/08 A2992 1030 86 800 340/10 RMK AO2
14926KSTC STC20041110081511011/10/04 08:15:31  5-MIN KSTC 101415Z AUTO 35011KT 6SM BR OVC034 11/08 A2993 1020 86 800 350/11 RMK AO2 PRESRR
14926KSTC STC20041110082010311/10/04 08:20:31  5-MIN KSTC 101420Z AUTO 35010KT 6SM BR OVC034 10/08 A2993 1010 89 700 340/10 RMK AO2
14926KSTC STC20041110082510311/10/04 08:25:31  5-MIN KSTC 101425Z AUTO 35010KT 6SM BR OVC034 10/08 A2994 1010 86 700 350/10 RMK AO2
14926KSTC STC20041110083010311/10/04 08:30:31  5-MIN KSTC 101430Z AUTO 35010KT 6SM BR OVC034 10/08 A2994 1010 86 700 340/10 RMK AO2
14926KSTC STC20041110083510311/10/04 08:35:31  5-MIN KSTC 101435Z AUTO 34010KT 6SM BR OVC034 10/08 A2994 1000 86 700 340/10 RMK AO2
14926KSTC STC20041110084010011/10/04 08:40:31  5-MIN KSTC 101440Z AUTO 34012KT 7SM OVC034 10/07 A2995 1000 83 700 330/12 RMK AO2
14926KSTC STC20041110084510611/10/04 08:45:31  5-MIN KSTC 101445Z AUTO 35016G20KT 7SM OVC034 09/07 A2995 1000 83 600 340/16G20 RMK AO2
14926KSTC STC20041110085012911/10/04 08:50:31  5-MIN KSTC 101450Z AUTO 35011G20KT 8SM OVC034 09/06 A2995 1000 79 600 350/11G20 RMK AO2 SLP155 T00940061 53007
14926KSTC STC20041110085510511/10/04 08:55:31  5-MIN KSTC 101455Z AUTO 35013G18KT 8SM OVC034 09/06 A2996 990 79 600 350/13G18 RMK AO2
14926KSTC STC20041110105510011/10/04 10:55:31  5-MIN KSTC 101655Z AUTO 34014KT 10SM SCT110 07/02 A3005 910 73 200 340/14 RMK AO2
14926KSTC STC20041110110010011/10/04 11:00:31  5-MIN KSTC 101700Z AUTO 34013KT 10SM FEW110 07/02 A3005 900 73 200 340/13 RMK AO2
14926KSTC STC20041110110510611/10/04 11:05:31  5-MIN KSTC 101705Z AUTO 34013G20KT 10SM FEW110 07/02 A3006 900 73 200 340/13G20 RMK AO2
14926KSTC STC20041110111010611/10/04 11:10:31  5-MIN KSTC 101710Z AUTO 35009G20KT 10SM FEW110 07/02 A3006 900 73 200 350/09G20 RMK AO2
14926KSTC STC20041110111509711/10/04 11:15:31  5-MIN KSTC 101715Z AUTO 35014KT 10SM CLR 07/02 A3006 900 73 100 340/14 RMK AO2
14926KSTC STC20041110112009711/10/04 11:20:31  5-MIN KSTC 101720Z AUTO 35012KT 10SM CLR 07/02 A3007 890 73 100 350/12 RMK AO2
14926KSTC STC20041110112509711/10/04 11:25:31  5-MIN KSTC 101725Z AUTO 35010KT 10SM CLR 07/02 A3007 890 73 100 340/10 RMK AO2
14926KSTC STC20041110113009711/10/04 11:30:31  5-MIN KSTC 101730Z AUTO 34012KT 10SM CLR 07/02 A3007 890 73 100 340/12 RMK AO2
14926KSTC STC20041110113509711/10/04 11:35:31  5-MIN KSTC 101735Z AUTO 34009KT 10SM CLR 07/02 A3007 890 70 200 340/09 RMK AO2
14926KSTC STC20041110114009711/10/04 11:40:31  5-MIN KSTC 101740Z AUTO 34012KT 10SM CLR 07/02 A3008 880 68 200 340/12 RMK AO2
14926KSTC STC20041110114509711/10/04 11:45:31  5-MIN KSTC 101745Z AUTO 35013KT 10SM CLR 07/01 A3008 880 65 200 340/13 RMK AO2
14926KSTC STC20041110115014411/10/04 11:50:31  5-MIN KSTC 101750Z AUTO 36012G18KT 10SM CLR 08/01 A3007 880 60 300 350/12G18 RMK AO2 SLP197 60000 T00780006 10111 20067 53039
14926KSTC STC20041110115510311/10/04 11:55:31  5-MIN KSTC 101755Z AUTO 35014G18KT 10SM CLR 08/00 A3008 880 58 300 350/14G18 RMK AO2
14926KSTC STC20041110120010311/10/04 12:00:31  5-MIN KSTC 101800Z AUTO 36011G18KT 10SM CLR 08/00 A3007 890 58 300 350/11G18 RMK AO2
14926KSTC STC20041110120510411/10/04 12:05:31  5-MIN KSTC 101805Z AUTO 36013G19KT 10SM CLR 07/M02 A3008 880 53 200 350/13G19 RMK AO2
14926KSTC STC20041110121010411/10/04 12:10:31  5-MIN KSTC 101810Z AUTO 35016G19KT 10SM CLR 07/M01 A3008 880 55 200 340/16G19 RMK AO2
14926KSTC STC20041110121510711/10/04 12:15:31  5-MIN KSTC 101815Z AUTO 34015G19KT 10SM FEW100 07/M01 A3007 880 55 200 340/15G19 RMK AO2
14926KSTC STC20041110122010111/10/04 12:20:31  5-MIN KSTC 101820Z AUTO 36013KT 10SM FEW085 07/M02 A3007 890 51 200 350/13 RMK AO2
14926KSTC STC20041110122510111/10/04 12:25:31  5-MIN KSTC 101825Z AUTO 35012KT 10SM SCT080 07/M03 A3008 880 49 200 350/12 RMK AO2
14926KSTC STC20041110123010111/10/04 12:30:31  5-MIN KSTC 101830Z AUTO 35011KT 10SM BKN080 07/M03 A3008 880 49 200 350/11 RMK AO2
14926KSTC STC20041110123510111/10/04 12:35:31  5-MIN KSTC 101835Z AUTO 35008KT 10SM BKN075 07/M03 A3008 880 49 200 350/08 RMK AO2
14926KSTC STC20041110124010811/10/04 12:40:31  5-MIN KSTC 101840Z AUTO 35009KT 10SM BKN070 BKN085 07/M02 A3008 880 51 200 340/09 RMK AO2
14926KSTC STC20041110124510811/10/04 12:45:31  5-MIN KSTC 101845Z AUTO 34009KT 10SM BKN070 BKN085 07/M02 A3008 880 51 200 340/09 RMK AO2
14926KSTC STC20041110125011811/10/04 12:50:31  5-MIN KSTC 101850Z AUTO 34011KT 10SM BKN070 07/M02 A3007 880 51 200 340/11 RMK AO2 SLP197 T00721022
14926KSTC STC20041110125510111/10/04 12:55:31  5-MIN KSTC 101855Z AUTO 34012KT 10SM BKN070 07/M02 A3008 880 53 100 340/12 RMK AO2
14926KSTC STC20041110130010111/10/04 13:00:31  5-MIN KSTC 101900Z AUTO 34008KT 10SM BKN070 07/M02 A3008 880 51 200 330/08 RMK AO2
14926KSTC STC20041110130510111/10/04 13:05:31  5-MIN KSTC 101905Z AUTO 34010KT 10SM SCT070 07/M02 A3008 880 53 100 330/10 RMK AO2
14926KSTC STC20041110131010711/10/04 13:10:31  5-MIN KSTC 101910Z AUTO 34012G17KT 10SM SCT075 07/M03 A3009 870 51 100 340/12G17 RMK AO2
14926KSTC STC20041110131510711/10/04 13:15:31  5-MIN KSTC 101915Z AUTO 34013G18KT 10SM FEW080 07/M03 A3009 870 51 100 330/13G18 RMK AO2
14926KSTC STC20041110132010711/10/04 13:20:31  5-MIN KSTC 101920Z AUTO 34011G18KT 10SM FEW080 07/M04 A3009 870 47 100 340/11G18 RMK AO2
14926KSTC STC20041110132510111/10/04 13:25:31  5-MIN KSTC 101925Z AUTO 34012KT 10SM FEW100 07/M04 A3009 870 45 100 340/12 RMK AO2
14926KSTC STC20041110133010111/10/04 13:30:31  5-MIN KSTC 101930Z AUTO 34010KT 10SM FEW100 07/M04 A3009 870 45 100 340/10 RMK AO2
14926KSTC STC20041110133510711/10/04 13:35:31  5-MIN KSTC 101935Z AUTO 34015G19KT 10SM FEW100 07/M04 A3010 860 45 100 340/15G19 RMK AO2
14926KSTC STC20041110134010711/10/04 13:40:31  5-MIN KSTC 101940Z AUTO 34013G19KT 10SM FEW100 07/M05 A3010 870 43 100 340/13G19 RMK AO2
14926KSTC STC20041110134510111/10/04 13:45:31  5-MIN KSTC 101945Z AUTO 35013KT 10SM FEW100 07/M06 A3010 860 40 200 340/13 RMK AO2
14926KSTC STC20041110135011811/10/04 13:50:31  5-MIN KSTC 101950Z AUTO 34011KT 10SM FEW100 07/M06 A3010 860 40 200 340/11 RMK AO2 SLP207 T00721056
14926KSTC STC20041110135510711/10/04 13:55:31  5-MIN KSTC 101955Z AUTO 35014G17KT 10SM SCT095 07/M06 A3011 850 40 200 350/14G17 RMK AO2
14926KSTC STC20041110140010711/10/04 14:00:31  5-MIN KSTC 102000Z AUTO 34010G17KT 10SM SCT095 07/M06 A3011 850 40 200 340/10G17 RMK AO2
14926KSTC STC20041110140510111/10/04 14:05:31  5-MIN KSTC 102005Z AUTO 33015KT 10SM SCT095 07/M06 A3012 850 38 200 330/15 RMK AO2
14926KSTC STC20041110141010111/10/04 14:10:31  5-MIN KSTC 102010Z AUTO 34012KT 10SM FEW095 07/M06 A3012 840 38 100 340/12 RMK AO2
14926KSTC STC20041110141510111/10/04 14:15:31  5-MIN KSTC 102015Z AUTO 34013KT 10SM FEW095 07/M06 A3012 840 38 200 340/13 RMK AO2
14926KSTC STC20041110142010711/10/04 14:20:31  5-MIN KSTC 102020Z AUTO 34014G21KT 10SM FEW095 07/M07 A3012 840 36 100 340/14G21 RMK AO2
14926KSTC STC20041110142510711/10/04 14:25:31  5-MIN KSTC 102025Z AUTO 35016G21KT 10SM FEW100 07/M07 A3012 840 35 100 350/16G21 RMK AO2
14926KSTC STC20041110143010411/10/04 14:30:31  5-MIN KSTC 102030Z AUTO 35013G20KT 10SM CLR 07/M08 A3012 840 33 100 340/13G20 RMK AO2
14926KSTC STC20041110143510411/10/04 14:35:31  5-MIN KSTC 102035Z AUTO 34020G24KT 10SM CLR 07/M08 A3013 830 35 100 340/20G24 RMK AO2
14926KSTC STC20041110144010411/10/04 14:40:31  5-MIN KSTC 102040Z AUTO 36016G24KT 10SM CLR 07/M08 A3013 830 33 100 360/16G24 RMK AO2
14926KSTC STC20041110144510411/10/04 14:45:31  5-MIN KSTC 102045Z AUTO 36015G22KT 10SM CLR 07/M07 A3013 830 36 100 360/15G22 RMK AO2
14926KSTC STC20041110145012111/10/04 14:50:31  5-MIN KSTC 102050Z AUTO 36014KT 10SM CLR 07/M07 A3013 830 38 100 350/14 RMK AO2 SLP218 T00671067 51040
14926KSTC STC20041110145510411/10/04 14:55:31  5-MIN KSTC 102055Z AUTO 35012G19KT 10SM CLR 07/M06 A3014 830 38 100 350/12G19 RMK AO2
14926KSTC STC20041110150010411/10/04 15:00:31  5-MIN KSTC 102100Z AUTO 36014G18KT 10SM CLR 07/M06 A3014 820 39 100 350/14G18 RMK AO2
14926KSTC STC20041110150510411/10/04 15:05:31  5-MIN KSTC 102105Z AUTO 35014G19KT 10SM CLR 07/M06 A3014 820 39 100 350/14G19 RMK AO2
14926KSTC STC20041110151010211/10/04 15:10:31  5-MIN KSTC 102110Z AUTO 35013G19KT 10SM CLR 07/M06 A3015 820 39 0 350/13G19 RMK AO2
14926KSTC STC20041110151509611/10/04 15:15:31  5-MIN KSTC 102115Z AUTO 35014KT 10SM CLR 07/M07 A3015 810 38 0 340/14 RMK AO2
14926KSTC STC20041110152009611/10/04 15:20:31  5-MIN KSTC 102120Z AUTO 35011KT 10SM CLR 07/M07 A3016 810 38 0 340/11 RMK AO2
14926KSTC STC20041110152509611/10/04 15:25:31  5-MIN KSTC 102125Z AUTO 35013KT 10SM CLR 07/M06 A3016 800 39 0 350/13 RMK AO2
14926KSTC STC20041110153009611/10/04 15:30:31  5-MIN KSTC 102130Z AUTO 34012KT 10SM CLR 06/M06 A3017 800 41 0 330/12 RMK AO2
14926KSTC STC20041110153510211/10/04 15:35:31  5-MIN KSTC 102135Z AUTO 33009G17KT 10SM CLR 06/M06 A3017 800 41 0 330/09G17 RMK AO2
14926KSTC STC20041110154009611/10/04 15:40:31  5-MIN KSTC 102140Z AUTO 33011KT 10SM CLR 06/M06 A3017 790 43 0 330/11 RMK AO2
14926KSTC STC20041110154509611/10/04 15:45:31  5-MIN KSTC 102145Z AUTO 34011KT 10SM CLR 06/M06 A3018 790 43 0 330/11 RMK AO2
14926KSTC STC20041110155011311/10/04 15:50:31  5-MIN KSTC 102150Z AUTO 33010KT 10SM CLR 06/M06 A3018 790 43 0 330/10 RMK AO2 SLP234 T00611056
14926KSTC STC20041110155509911/10/04 15:55:31  5-MIN KSTC 102155Z AUTO 33011KT 10SM CLR 06/M06 A3018 780 44 -100 330/11 RMK AO2
14926KSTC STC20041110160009911/10/04 16:00:31  5-MIN KSTC 102200Z AUTO 33009KT 10SM CLR 06/M06 A3019 780 44 -100 330/09 RMK AO2
14926KSTC STC20041110160510511/10/04 16:05:31  5-MIN KSTC 102205Z AUTO 33013G19KT 10SM CLR 06/M06 A3019 780 43 -100 330/13G19 RMK AO2
14926KSTC STC20041110161010511/10/04 16:10:31  5-MIN KSTC 102210Z AUTO 33012G19KT 10SM CLR 06/M06 A3020 770 43 -100 330/12G19 RMK AO2
14926KSTC STC20041110161510511/10/04 16:15:31  5-MIN KSTC 102215Z AUTO 33011G18KT 10SM CLR 06/M07 A3020 770 41 -100 330/11G18 RMK AO2
14926KSTC STC20041110162010511/10/04 16:20:31  5-MIN KSTC 102220Z AUTO 34011G18KT 10SM CLR 05/M07 A3020 770 42 -200 340/11G18 RMK AO2
14926KSTC STC20041110162510511/10/04 16:25:31  5-MIN KSTC 102225Z AUTO 33016G20KT 10SM CLR 05/M07 A3021 760 41 -200 330/16G20 RMK AO2
14926KSTC STC20041110163010511/10/04 16:30:31  5-MIN KSTC 102230Z AUTO 34011G20KT 10SM CLR 05/M08 A3021 760 39 -200 330/11G20 RMK AO2
14926KSTC STC20041110163509911/10/04 16:35:31  5-MIN KSTC 102235Z AUTO 34011KT 10SM CLR 05/M08 A3021 760 39 -200 340/11 RMK AO2
14926KSTC STC20041110164009911/10/04 16:40:31  5-MIN KSTC 102240Z AUTO 33011KT 10SM CLR 05/M08 A3022 750 39 -200 330/11 RMK AO2
14926KSTC STC20041110164509911/10/04 16:45:31  5-MIN KSTC 102245Z AUTO 33009KT 10SM CLR 04/M07 A3022 750 42 -300 330/09 RMK AO2
14926KSTC STC20041110165011611/10/04 16:50:31  5-MIN KSTC 102250Z AUTO 34015KT 10SM CLR 04/M07 A3022 750 42 -300 330/15 RMK AO2 SLP249 T00441072
14926KSTC STC20041110165509911/10/04 16:55:31  5-MIN KSTC 102255Z AUTO 34009KT 10SM CLR 04/M07 A3022 750 42 -300 340/09 RMK AO2
14926KSTC STC20041110170009911/10/04 17:00:31  5-MIN KSTC 102300Z AUTO 34011KT 10SM CLR 04/M07 A3023 740 42 -300 330/11 RMK AO2
14926KSTC STC20041110170509911/10/04 17:05:31  5-MIN KSTC 102305Z AUTO 34011KT 10SM CLR 04/M07 A3023 740 44 -300 330/11 RMK AO2
14926KSTC STC20041110171009911/10/04 17:10:31  5-MIN KSTC 102310Z AUTO 34011KT 10SM CLR 04/M07 A3023 740 46 -300 330/11 RMK AO2
14926KSTC STC20041110171509911/10/04 17:15:31  5-MIN KSTC 102315Z AUTO 34008KT 10SM CLR 04/M07 A3023 740 46 -300 330/08 RMK AO2
14926KSTC STC20041110172009911/10/04 17:20:31  5-MIN KSTC 102320Z AUTO 34011KT 10SM CLR 04/M07 A3023 740 46 -300 340/11 RMK AO2
14926KSTC STC20041110172509911/10/04 17:25:31  5-MIN KSTC 102325Z AUTO 34011KT 10SM CLR 04/M07 A3024 730 46 -300 330/11 RMK AO2
14926KSTC STC20041110173009911/10/04 17:30:31  5-MIN KSTC 102330Z AUTO 34010KT 10SM CLR 04/M07 A3024 730 46 -400 330/10 RMK AO2
14926KSTC STC20041110173509911/10/04 17:35:31  5-MIN KSTC 102335Z AUTO 33008KT 10SM CLR 03/M07 A3025 720 48 -400 330/08 RMK AO2
14926KSTC STC20041110174009911/10/04 17:40:31  5-MIN KSTC 102340Z AUTO 33008KT 10SM CLR 03/M07 A3025 720 48 -400 330/08 RMK AO2
14926KSTC STC20041110174510511/10/04 17:45:31  5-MIN KSTC 102345Z AUTO 34012G18KT 10SM CLR 04/M07 A3026 720 46 -400 340/12G18 RMK AO2
14926KSTC STC20041110175014011/10/04 17:50:31  5-MIN KSTC 102350Z AUTO 34014G20KT 10SM CLR 04/M07 A3026 710 44 -400 340/14G20 RMK AO2 SLP264 T00391072 10078 20033 53020
14926KSTC STC20041110175510511/10/04 17:55:31  5-MIN KSTC 102355Z AUTO 34012G20KT 10SM CLR 04/M07 A3027 710 44 -400 340/12G20 RMK AO2
14926KSTC STC20041110180009911/10/04 18:00:31  5-MIN KSTC 110000Z AUTO 34013KT 10SM CLR 03/M07 A3027 700 46 -500 340/13 RMK AO2
14926KSTC STC20041110180510511/10/04 18:05:31  5-MIN KSTC 110005Z AUTO 34013G18KT 10SM CLR 03/M07 A3028 700 46 -500 330/13G18 RMK AO2
14926KSTC STC20041110181010511/10/04 18:10:31  5-MIN KSTC 110010Z AUTO 34011G18KT 10SM CLR 03/M07 A3028 700 46 -500 330/11G18 RMK AO2
14926KSTC STC20041110181509911/10/04 18:15:31  5-MIN KSTC 110015Z AUTO 34012KT 10SM CLR 03/M07 A3028 690 48 -500 340/12 RMK AO2
14926KSTC STC20041110182009911/10/04 18:20:31  5-MIN KSTC 110020Z AUTO 34010KT 10SM CLR 03/M07 A3029 690 50 -500 330/10 RMK AO2
14926KSTC STC20041110182509911/10/04 18:25:31  5-MIN KSTC 110025Z AUTO 33009KT 10SM CLR 03/M07 A3029 690 50 -500 330/09 RMK AO2
14926KSTC STC20041110183009911/10/04 18:30:31  5-MIN KSTC 110030Z AUTO 34011KT 10SM CLR 03/M07 A3029 680 50 -500 330/11 RMK AO2
14926KSTC STC20041110183509911/10/04 18:35:31  5-MIN KSTC 110035Z AUTO 34010KT 10SM CLR 03/M07 A3030 680 50 -500 340/10 RMK AO2
14926KSTC STC20041110184009911/10/04 18:40:31  5-MIN KSTC 110040Z AUTO 34013KT 10SM CLR 03/M07 A3030 680 50 -600 340/13 RMK AO2
14926KSTC STC20041110184509911/10/04 18:45:31  5-MIN KSTC 110045Z AUTO 34010KT 10SM CLR 03/M07 A3031 670 50 -600 340/10 RMK AO2
14926KSTC STC20041110185011611/10/04 18:50:31  5-MIN KSTC 110050Z AUTO 34010KT 10SM CLR 03/M07 A3031 670 50 -600 340/10 RMK AO2 SLP279 T00281067
14926KSTC STC20041110185509911/10/04 18:55:31  5-MIN KSTC 110055Z AUTO 34009KT 10SM CLR 03/M06 A3031 670 52 -600 340/09 RMK AO2
14926KSTC STC20041110190009911/10/04 19:00:31  5-MIN KSTC 110100Z AUTO 35010KT 10SM CLR 02/M06 A3031 670 54 -600 340/10 RMK AO2
14926KSTC STC20041110190509911/10/04 19:05:31  5-MIN KSTC 110105Z AUTO 35008KT 10SM CLR 02/M06 A3032 660 54 -600 340/08 RMK AO2
14926KSTC STC20041110191009911/10/04 19:10:31  5-MIN KSTC 110110Z AUTO 35008KT 10SM CLR 02/M06 A3032 660 54 -600 340/08 RMK AO2
14926KSTC STC20041110191509911/10/04 19:15:31  5-MIN KSTC 110115Z AUTO 35007KT 10SM CLR 02/M06 A3032 660 56 -700 350/07 RMK AO2
14926KSTC STC20041110192009911/10/04 19:20:31  5-MIN KSTC 110120Z AUTO 35007KT 10SM CLR 02/M06 A3033 650 56 -700 350/07 RMK AO2
14926KSTC STC20041110192509911/10/04 19:25:31  5-MIN KSTC 110125Z AUTO 35009KT 10SM CLR 02/M06 A3033 650 56 -700 350/09 RMK AO2
14926KSTC STC20041110193010511/10/04 19:30:31  5-MIN KSTC 110130Z AUTO 35012G17KT 10SM CLR 02/M07 A3033 650 54 -700 340/12G17 RMK AO2
14926KSTC STC20041110193510511/10/04 19:35:31  5-MIN KSTC 110135Z AUTO 35011G17KT 10SM CLR 02/M07 A3033 640 54 -700 350/11G17 RMK AO2
14926KSTC STC20041110194009911/10/04 19:40:31  5-MIN KSTC 110140Z AUTO 35011KT 10SM CLR 02/M07 A3034 640 52 -700 350/11 RMK AO2
14926KSTC STC20041110194509911/10/04 19:45:31  5-MIN KSTC 110145Z AUTO 35009KT 10SM CLR 01/M07 A3034 640 54 -800 350/09 RMK AO2
14926KSTC STC20041110195011611/10/04 19:50:31  5-MIN KSTC 110150Z AUTO 35010KT 10SM CLR 01/M07 A3034 640 54 -800 340/10 RMK AO2 SLP292 T00111072
14926KSTC STC20041110195509911/10/04 19:55:31  5-MIN KSTC 110155Z AUTO 35009KT 10SM CLR 01/M07 A3035 630 54 -800 340/09 RMK AO2
14926KSTC STC20041110200009911/10/04 20:00:31  5-MIN KSTC 110200Z AUTO 34010KT 10SM CLR 01/M07 A3035 630 56 -900 340/10 RMK AO2
14926KSTC STC20041110200509911/10/04 20:05:31  5-MIN KSTC 110205Z AUTO 34010KT 10SM CLR 01/M08 A3035 630 51 -800 340/10 RMK AO2
14926KSTC STC20041110201009911/10/04 20:10:31  5-MIN KSTC 110210Z AUTO 34010KT 10SM CLR 01/M08 A3035 630 54 -900 340/10 RMK AO2
14926KSTC STC20041110201509911/10/04 20:15:31  5-MIN KSTC 110215Z AUTO 34010KT 10SM CLR 01/M08 A3036 620 54 -900 340/10 RMK AO2
14926KSTC STC20041110202009911/10/04 20:20:31  5-MIN KSTC 110220Z AUTO 34009KT 10SM CLR 01/M08 A3036 620 54 -900 340/09 RMK AO2
14926KSTC STC20041110202509911/10/04 20:25:31  5-MIN KSTC 110225Z AUTO 34008KT 10SM CLR 01/M08 A3036 620 54 -900 340/08 RMK AO2
14926KSTC STC20041110203009911/10/04 20:30:31  5-MIN KSTC 110230Z AUTO 34008KT 10SM CLR 01/M08 A3037 620 54 -900 340/08 RMK AO2
14926KSTC STC20041110203510011/10/04 20:35:31  5-MIN KSTC 110235Z AUTO 34009KT 10SM CLR 00/M08 A3037 620 56 -1000 340/09 RMK AO2
14926KSTC STC20041110204010011/10/04 20:40:31  5-MIN KSTC 110240Z AUTO 34009KT 10SM CLR 00/M08 A3037 610 56 -1000 340/09 RMK AO2
14926KSTC STC20041110204510011/10/04 20:45:31  5-MIN KSTC 110245Z AUTO 34008KT 10SM CLR 00/M08 A3037 610 56 -1000 330/08 RMK AO2
14926KSTC STC20041110205012311/10/04 20:50:31  5-MIN KSTC 110250Z AUTO 34009KT 10SM CLR 00/M08 A3037 610 56 -1000 340/09 RMK AO2 SLP303 T00001078 51042
14926KSTC STC20041110205510011/10/04 20:55:31  5-MIN KSTC 110255Z AUTO 34008KT 10SM CLR 00/M08 A3037 610 56 -1000 340/08 RMK AO2
14926KSTC STC20041110210010011/10/04 21:00:31  5-MIN KSTC 110300Z AUTO 34008KT 10SM CLR 00/M08 A3038 610 56 -1000 340/08 RMK AO2
14926KSTC STC20041110210510011/10/04 21:05:31  5-MIN KSTC 110305Z AUTO 34008KT 10SM CLR 00/M08 A3038 600 56 -1000 340/08 RMK AO2
14926KSTC STC20041110211010011/10/04 21:10:31  5-MIN KSTC 110310Z AUTO 34010KT 10SM CLR 00/M08 A3038 600 56 -1000 340/10 RMK AO2
14926KSTC STC20041110211510111/10/04 21:15:31  5-MIN KSTC 110315Z AUTO 34008KT 10SM CLR M01/M08 A3038 600 58 -1100 340/08 RMK AO2
14926KSTC STC20041110212010111/10/04 21:20:31  5-MIN KSTC 110320Z AUTO 34009KT 10SM CLR M01/M08 A3039 600 58 -1100 340/09 RMK AO2
14926KSTC STC20041110212510111/10/04 21:25:31  5-MIN KSTC 110325Z AUTO 33007KT 10SM CLR M01/M08 A3039 600 58 -1100 330/07 RMK AO2
14926KSTC STC20041110213010111/10/04 21:30:31  5-MIN KSTC 110330Z AUTO 34007KT 10SM CLR M01/M08 A3039 590 58 -1100 330/07 RMK AO2
14926KSTC STC20041110213510111/10/04 21:35:31  5-MIN KSTC 110335Z AUTO 34007KT 10SM CLR M01/M08 A3040 590 58 -1100 340/07 RMK AO2
14926KSTC STC20041110214010111/10/04 21:40:31  5-MIN KSTC 110340Z AUTO 34008KT 10SM CLR M01/M08 A3040 590 58 -1100 340/08 RMK AO2
14926KSTC STC20041110214510111/10/04 21:45:31  5-MIN KSTC 110345Z AUTO 34008KT 10SM CLR M01/M08 A3040 590 60 -1200 340/08 RMK AO2
14926KSTC STC20041110215011811/10/04 21:50:31  5-MIN KSTC 110350Z AUTO 34010KT 10SM CLR M01/M08 A3040 590 58 -1100 340/10 RMK AO2 SLP313 T10061078
14926KSTC STC20041110215510111/10/04 21:55:31  5-MIN KSTC 110355Z AUTO 34010KT 10SM CLR M01/M08 A3040 580 56 -1100 340/10 RMK AO2
14926KSTC STC20041110220010111/10/04 22:00:31  5-MIN KSTC 110400Z AUTO 34009KT 10SM CLR M01/M08 A3041 580 58 -1200 340/09 RMK AO2
14926KSTC STC20041110220510111/10/04 22:05:31  5-MIN KSTC 110405Z AUTO 34010KT 10SM CLR M01/M08 A3041 580 58 -1200 340/10 RMK AO2
14926KSTC STC20041110221010111/10/04 22:10:31  5-MIN KSTC 110410Z AUTO 34011KT 10SM CLR M01/M08 A3041 570 58 -1200 340/11 RMK AO2
14926KSTC STC20041110221510111/10/04 22:15:31  5-MIN KSTC 110415Z AUTO 34009KT 10SM CLR M01/M08 A3041 570 58 -1200 340/09 RMK AO2
14926KSTC STC20041110222010111/10/04 22:20:31  5-MIN KSTC 110420Z AUTO 34010KT 10SM CLR M01/M08 A3042 570 58 -1200 340/10 RMK AO2
14926KSTC STC20041110222510111/10/04 22:25:31  5-MIN KSTC 110425Z AUTO 34010KT 10SM CLR M01/M08 A3042 570 58 -1200 340/10 RMK AO2
14926KSTC STC20041110223010111/10/04 22:30:31  5-MIN KSTC 110430Z AUTO 34010KT 10SM CLR M01/M08 A3042 570 58 -1200 340/10 RMK AO2
14926KSTC STC20041110223510111/10/04 22:35:31  5-MIN KSTC 110435Z AUTO 34009KT 10SM CLR M02/M08 A3042 570 60 -1200 330/09 RMK AO2
14926KSTC STC20041110224010111/10/04 22:40:31  5-MIN KSTC 110440Z AUTO 34009KT 10SM CLR M02/M08 A3042 570 60 -1200 340/09 RMK AO2
14926KSTC STC20041110224510111/10/04 22:45:31  5-MIN KSTC 110445Z AUTO 34009KT 10SM CLR M02/M08 A3042 570 60 -1200 340/09 RMK AO2
14926KSTC STC20041110225011811/10/04 22:50:31  5-MIN KSTC 110450Z AUTO 34009KT 10SM CLR M02/M08 A3042 570 60 -1200 340/09 RMK AO2 SLP321 T10171083
14926KSTC STC20041110225510111/10/04 22:55:31  5-MIN KSTC 110455Z AUTO 34008KT 10SM CLR M02/M08 A3042 570 60 -1300 330/08 RMK AO2
14926KSTC STC20041110230010111/10/04 23:00:31  5-MIN KSTC 110500Z AUTO 34009KT 10SM CLR M02/M08 A3043 560 60 -1300 340/09 RMK AO2
14926KSTC STC20041110230510111/10/04 23:05:31  5-MIN KSTC 110505Z AUTO 34009KT 10SM CLR M02/M08 A3043 560 60 -1300 340/09 RMK AO2
14926KSTC STC20041110231010111/10/04 23:10:31  5-MIN KSTC 110510Z AUTO 34009KT 10SM CLR M02/M08 A3043 560 63 -1300 340/09 RMK AO2
14926KSTC STC20041110231510111/10/04 23:15:31  5-MIN KSTC 110515Z AUTO 34009KT 10SM CLR M02/M08 A3043 560 63 -1300 340/09 RMK AO2
14926KSTC STC20041110232010111/10/04 23:20:31  5-MIN KSTC 110520Z AUTO 34009KT 10SM CLR M02/M08 A3043 560 63 -1300 340/09 RMK AO2
14926KSTC STC20041110232510111/10/04 23:25:31  5-MIN KSTC 110525Z AUTO 34008KT 10SM CLR M02/M08 A3043 560 63 -1300 340/08 RMK AO2
14926KSTC STC20041110233010111/10/04 23:30:31  5-MIN KSTC 110530Z AUTO 34009KT 10SM CLR M02/M08 A3044 550 63 -1300 340/09 RMK AO2
14926KSTC STC20041110233510111/10/04 23:35:31  5-MIN KSTC 110535Z AUTO 35008KT 10SM CLR M02/M08 A3044 550 63 -1300 350/08 RMK AO2
14926KSTC STC20041110234010111/10/04 23:40:31  5-MIN KSTC 110540Z AUTO 34008KT 10SM CLR M02/M08 A3044 550 63 -1300 340/08 RMK AO2
14926KSTC STC20041110234510111/10/04 23:45:31  5-MIN KSTC 110545Z AUTO 35006KT 10SM CLR M03/M08 A3044 550 66 -1400 350/06 RMK AO2
14926KSTC STC20041110235014611/10/04 23:50:31  5-MIN KSTC 110550Z AUTO 35006KT 10SM CLR M03/M08 A3044 550 66 -1400 350/06 RMK AO2 SLP329 T10281083 10039 21028 401171028 51036
14926KSTC STC20041110235510111/10/04 23:55:31  5-MIN KSTC 110555Z AUTO 36007KT 10SM CLR M03/M08 A3044 550 66 -1400 350/07 RMK AO2
14926KSTC STC20041111000010111/11/04 00:00:32  5-MIN KSTC 110600Z AUTO 36005KT 10SM CLR M03/M08 A3045 540 66 -1400 350/05 RMK AO2
14926KSTC STC20041111000510111/11/04 00:05:31  5-MIN KSTC 110605Z AUTO 36005KT 10SM CLR M03/M08 A3045 540 68 -1500 360/05 RMK AO2
14926KSTC STC20041111001010111/11/04 00:10:31  5-MIN KSTC 110610Z AUTO 36005KT 10SM CLR M03/M08 A3045 540 68 -1500 350/05 RMK AO2
14926KSTC STC20041111001510111/11/04 00:15:31  5-MIN KSTC 110615Z AUTO 36005KT 10SM CLR M03/M08 A3045 540 68 -1500 350/05 RMK AO2
14926KSTC STC20041111002010111/11/04 00:20:31  5-MIN KSTC 110620Z AUTO 36005KT 10SM CLR M03/M08 A3046 530 68 -1500 360/05 RMK AO2
14926KSTC STC20041111002510111/11/04 00:25:31  5-MIN KSTC 110625Z AUTO 36005KT 10SM CLR M03/M08 A3046 530 68 -1500 350/05 RMK AO2
14926KSTC STC20041111003010111/11/04 00:30:31  5-MIN KSTC 110630Z AUTO 36004KT 10SM CLR M03/M08 A3046 530 68 -1500 350/04 RMK AO2
14926KSTC STC20041111003510111/11/04 00:35:31  5-MIN KSTC 110635Z AUTO 36005KT 10SM CLR M04/M09 A3046 530 68 -1600 350/05 RMK AO2
14926KSTC STC20041111004010111/11/04 00:40:31  5-MIN KSTC 110640Z AUTO 35004KT 10SM CLR M04/M09 A3046 530 68 -1600 350/04 RMK AO2
14926KSTC STC20041111004510111/11/04 00:45:31  5-MIN KSTC 110645Z AUTO 35004KT 10SM CLR M04/M09 A3046 530 68 -1600 350/04 RMK AO2
14926KSTC STC20041111005011811/11/04 00:50:31  5-MIN KSTC 110650Z AUTO 34004KT 10SM CLR M04/M09 A3046 530 68 -1600 340/04 RMK AO2 SLP336 T10391089
14926KSTC STC20041111005510111/11/04 00:55:31  5-MIN KSTC 110655Z AUTO 35003KT 10SM CLR M04/M09 A3046 530 68 -1600 340/03 RMK AO2
14926KSTC STC20041111010010111/11/04 01:00:31  5-MIN KSTC 110700Z AUTO 34003KT 10SM CLR M04/M09 A3046 530 68 -1600 340/03 RMK AO2
14926KSTC STC20041111010510111/11/04 01:05:31  5-MIN KSTC 110705Z AUTO 34004KT 10SM CLR M04/M09 A3047 530 68 -1600 330/04 RMK AO2
14926KSTC STC20041111011010111/11/04 01:10:31  5-MIN KSTC 110710Z AUTO 34005KT 10SM CLR M04/M09 A3047 530 71 -1700 340/05 RMK AO2
14926KSTC STC20041111011510111/11/04 01:15:31  5-MIN KSTC 110715Z AUTO 35005KT 10SM CLR M05/M09 A3047 520 71 -1700 340/05 RMK AO2
14926KSTC STC20041111012010111/11/04 01:20:31  5-MIN KSTC 110720Z AUTO 35005KT 10SM CLR M06/M09 A3047 520 74 -1800 350/05 RMK AO2
14926KSTC STC20041111012510111/11/04 01:25:31  5-MIN KSTC 110725Z AUTO 35005KT 10SM CLR M06/M09 A3047 520 74 -1800 350/05 RMK AO2
14926KSTC STC20041111013010111/11/04 01:30:31  5-MIN KSTC 110730Z AUTO 34005KT 10SM CLR M04/M09 A3047 520 71 -1700 340/05 RMK AO2
14926KSTC STC20041111013510111/11/04 01:35:31  5-MIN KSTC 110735Z AUTO 33004KT 10SM CLR M04/M09 A3048 510 68 -1600 320/04 RMK AO2
14926KSTC STC20041111014010111/11/04 01:40:31  5-MIN KSTC 110740Z AUTO 32004KT 10SM CLR M06/M09 A3048 510 74 -1800 310/04 RMK AO2
14926KSTC STC20041111014510111/11/04 01:45:31  5-MIN KSTC 110745Z AUTO 33004KT 10SM CLR M06/M09 A3048 510 77 -1800 320/04 RMK AO2
14926KSTC STC20041111015011811/11/04 01:50:31  5-MIN KSTC 110750Z AUTO 32004KT 10SM CLR M06/M09 A3048 510 77 -1800 320/04 RMK AO2 SLP344 T10561089
14926KSTC STC20041111015510111/11/04 01:55:31  5-MIN KSTC 110755Z AUTO 33004KT 10SM CLR M06/M09 A3048 510 77 -1800 330/04 RMK AO2
14926KSTC STC20041111020010111/11/04 02:00:31  5-MIN KSTC 110800Z AUTO 33004KT 10SM CLR M05/M09 A3049 510 74 -1700 330/04 RMK AO2
14926KSTC STC20041111020510111/11/04 02:05:31  5-MIN KSTC 110805Z AUTO 34004KT 10SM CLR M06/M09 A3049 500 77 -1800 340/04 RMK AO2
14926KSTC STC20041111021010111/11/04 02:10:31  5-MIN KSTC 110810Z AUTO 35004KT 10SM CLR M06/M09 A3049 500 74 -1800 340/04 RMK AO2
14926KSTC STC20041111021510111/11/04 02:15:31  5-MIN KSTC 110815Z AUTO 34005KT 10SM CLR M06/M09 A3049 500 74 -1800 340/05 RMK AO2
14926KSTC STC20041111022010111/11/04 02:20:31  5-MIN KSTC 110820Z AUTO 34005KT 10SM CLR M06/M09 A3049 500 77 -1900 340/05 RMK AO2
14926KSTC STC20041111022510111/11/04 02:25:31  5-MIN KSTC 110825Z AUTO 35005KT 10SM CLR M07/M09 A3049 500 81 -2000 350/05 RMK AO2
14926KSTC STC20041111023010111/11/04 02:30:31  5-MIN KSTC 110830Z AUTO 35005KT 10SM CLR M07/M09 A3049 500 81 -2000 350/05 RMK AO2
14926KSTC STC20041111023510111/11/04 02:35:31  5-MIN KSTC 110835Z AUTO 34005KT 10SM CLR M06/M09 A3049 500 77 -1900 340/05 RMK AO2
14926KSTC STC20041111024010111/11/04 02:40:31  5-MIN KSTC 110840Z AUTO 35005KT 10SM CLR M06/M09 A3049 500 77 -1900 340/05 RMK AO2
14926KSTC STC20041111024510111/11/04 02:45:31  5-MIN KSTC 110845Z AUTO 34004KT 10SM CLR M07/M09 A3049 500 81 -2000 340/04 RMK AO2
14926KSTC STC20041111025012411/11/04 02:50:31  5-MIN KSTC 110850Z AUTO 33004KT 10SM CLR M07/M09 A3050 500 81 -2000 320/04 RMK AO2 SLP350 T10671094 51023
14926KSTC STC20041111025510111/11/04 02:55:31  5-MIN KSTC 110855Z AUTO 32004KT 10SM CLR M06/M09 A3050 490 77 -1900 320/04 RMK AO2
14926KSTC STC20041111030010111/11/04 03:00:31  5-MIN KSTC 110900Z AUTO 31005KT 10SM CLR M07/M09 A3050 490 81 -2000 310/05 RMK AO2
14926KSTC STC20041111030510111/11/04 03:05:31  5-MIN KSTC 110905Z AUTO 32006KT 10SM CLR M07/M09 A3050 490 81 -2000 310/06 RMK AO2
14926KSTC STC20041111031010111/11/04 03:10:31  5-MIN KSTC 110910Z AUTO 32005KT 10SM CLR M07/M09 A3050 490 81 -2000 320/05 RMK AO2
14926KSTC STC20041111031510111/11/04 03:15:31  5-MIN KSTC 110915Z AUTO 32004KT 10SM CLR M06/M09 A3050 490 77 -1900 320/04 RMK AO2
14926KSTC STC20041111032010111/11/04 03:20:31  5-MIN KSTC 110920Z AUTO 32004KT 10SM CLR M06/M09 A3050 490 77 -1900 320/04 RMK AO2
14926KSTC STC20041111032510111/11/04 03:25:31  5-MIN KSTC 110925Z AUTO 33004KT 10SM CLR M07/M09 A3050 490 81 -2000 320/04 RMK AO2
14926KSTC STC20041111033010111/11/04 03:30:31  5-MIN KSTC 110930Z AUTO 33004KT 10SM CLR M07/M09 A3050 490 81 -2000 320/04 RMK AO2
14926KSTC STC20041111033510111/11/04 03:35:31  5-MIN KSTC 110935Z AUTO 32004KT 10SM CLR M07/M09 A3050 490 81 -2000 320/04 RMK AO2
14926KSTC STC20041111034010111/11/04 03:40:31  5-MIN KSTC 110940Z AUTO 32005KT 10SM CLR M07/M09 A3050 490 81 -2000 320/05 RMK AO2
14926KSTC STC20041111034510111/11/04 03:45:31  5-MIN KSTC 110945Z AUTO 32005KT 10SM CLR M07/M09 A3050 490 81 -2000 310/05 RMK AO2
14926KSTC STC20041111035011811/11/04 03:50:31  5-MIN KSTC 110950Z AUTO 33004KT 10SM CLR M07/M09 A3050 490 81 -2000 320/04 RMK AO2 SLP351 T10671094
14926KSTC STC20041111035510111/11/04 03:55:31  5-MIN KSTC 110955Z AUTO 32004KT 10SM CLR M07/M09 A3050 490 81 -2000 320/04 RMK AO2
14926KSTC STC20041111040010111/11/04 04:00:31  5-MIN KSTC 111000Z AUTO 32005KT 10SM CLR M07/M09 A3050 490 81 -2000 320/05 RMK AO2
14926KSTC STC20041111040510111/11/04 04:05:31  5-MIN KSTC 111005Z AUTO 31006KT 10SM CLR M07/M09 A3051 490 81 -2000 310/06 RMK AO2
14926KSTC STC20041111041010111/11/04 04:10:31  5-MIN KSTC 111010Z AUTO 32005KT 10SM CLR M07/M09 A3051 490 84 -2100 310/05 RMK AO2
14926KSTC STC20041111041510111/11/04 04:15:31  5-MIN KSTC 111015Z AUTO 33005KT 10SM CLR M07/M09 A3051 490 81 -2000 320/05 RMK AO2
14926KSTC STC20041111042010111/11/04 04:20:31  5-MIN KSTC 111020Z AUTO 32005KT 10SM CLR M07/M09 A3051 490 84 -2100 320/05 RMK AO2
14926KSTC STC20041111042510111/11/04 04:25:31  5-MIN KSTC 111025Z AUTO 33004KT 10SM CLR M07/M10 A3051 490 81 -2100 320/04 RMK AO2
14926KSTC STC20041111043010111/11/04 04:30:31  5-MIN KSTC 111030Z AUTO 32004KT 10SM CLR M07/M10 A3051 490 81 -2100 320/04 RMK AO2
14926KSTC STC20041111043510111/11/04 04:35:31  5-MIN KSTC 111035Z AUTO 32005KT 10SM CLR M07/M09 A3051 490 84 -2100 320/05 RMK AO2
14926KSTC STC20041111044010111/11/04 04:40:31  5-MIN KSTC 111040Z AUTO 33004KT 10SM CLR M07/M10 A3051 490 81 -2100 320/04 RMK AO2
14926KSTC STC20041111044510111/11/04 04:45:31  5-MIN KSTC 111045Z AUTO 33004KT 10SM CLR M08/M10 A3050 490 84 -2100 320/04 RMK AO2
14926KSTC STC20041111045011811/11/04 04:50:31  5-MIN KSTC 111050Z AUTO 32004KT 10SM CLR M08/M10 A3051 490 84 -2100 320/04 RMK AO2 SLP353 T10781100
14926KSTC STC20041111045510111/11/04 04:55:31  5-MIN KSTC 111055Z AUTO 33003KT 10SM CLR M07/M10 A3050 490 81 -2100 330/03 RMK AO2
14926KSTC STC20041111050010111/11/04 05:00:31  5-MIN KSTC 111100Z AUTO 34004KT 10SM CLR M08/M10 A3050 490 84 -2100 330/04 RMK AO2
14926KSTC STC20041111050510111/11/04 05:05:31  5-MIN KSTC 111105Z AUTO 36003KT 10SM CLR M08/M10 A3050 490 84 -2100 350/03 RMK AO2
14926KSTC STC20041111051010111/11/04 05:10:31  5-MIN KSTC 111110Z AUTO 35004KT 10SM CLR M07/M10 A3050 490 81 -2100 350/04 RMK AO2
14926KSTC STC20041111051510111/11/04 05:15:31  5-MIN KSTC 111115Z AUTO 35005KT 10SM CLR M07/M10 A3050 500 81 -2100 340/05 RMK AO2
14926KSTC STC20041111052010111/11/04 05:20:31  5-MIN KSTC 111120Z AUTO 34005KT 10SM CLR M07/M10 A3050 500 81 -2100 340/05 RMK AO2
14926KSTC STC20041111052510111/11/04 05:25:31  5-MIN KSTC 111125Z AUTO 36004KT 10SM CLR M07/M10 A3050 500 81 -2000 350/04 RMK AO2
14926KSTC STC20041111053010111/11/04 05:30:31  5-MIN KSTC 111130Z AUTO 01004KT 10SM CLR M08/M10 A3050 500 84 -2100 010/04 RMK AO2
14926KSTC STC20041111053510111/11/04 05:35:31  5-MIN KSTC 111135Z AUTO 36005KT 10SM CLR M08/M10 A3050 500 84 -2100 360/05 RMK AO2
14926KSTC STC20041111054010111/11/04 05:40:31  5-MIN KSTC 111140Z AUTO 36004KT 10SM CLR M08/M10 A3050 500 84 -2100 360/04 RMK AO2
14926KSTC STC20041111054510111/11/04 05:45:31  5-MIN KSTC 111145Z AUTO 34003KT 10SM CLR M07/M10 A3050 490 81 -2100 340/03 RMK AO2
14926KSTC STC20041111055013611/11/04 05:50:31  5-MIN KSTC 111150Z AUTO 32004KT 10SM CLR M07/M10 A3050 490 81 -2100 320/04 RMK AO2 SLP352 T10721100 11028 21078 51018
14926KSTC STC20041111055510111/11/04 05:55:31  5-MIN KSTC 111155Z AUTO 30004KT 10SM CLR M08/M10 A3050 490 84 -2100 300/04 RMK AO2
14926KSTC STC20041111060010111/11/04 06:00:31  5-MIN KSTC 111200Z AUTO 30004KT 10SM CLR M08/M11 A3050 490 80 -2100 300/04 RMK AO2
14926KSTC STC20041111060510111/11/04 06:05:31  5-MIN KSTC 111205Z AUTO 31005KT 10SM CLR M08/M11 A3050 490 80 -2100 300/05 RMK AO2
14926KSTC STC20041111061010111/11/04 06:10:31  5-MIN KSTC 111210Z AUTO 31005KT 10SM CLR M08/M11 A3050 490 80 -2100 310/05 RMK AO2
14926KSTC STC20041111061510111/11/04 06:15:31  5-MIN KSTC 111215Z AUTO 30005KT 10SM CLR M08/M11 A3050 490 80 -2100 300/05 RMK AO2
14926KSTC STC20041111062010111/11/04 06:20:31  5-MIN KSTC 111220Z AUTO 29004KT 10SM CLR M08/M11 A3050 490 84 -2200 290/04 RMK AO2
14926KSTC STC20041111062510111/11/04 06:25:31  5-MIN KSTC 111225Z AUTO 31003KT 10SM CLR M08/M10 A3050 490 84 -2100 300/03 RMK AO2
14926KSTC STC20041111063010111/11/04 06:30:31  5-MIN KSTC 111230Z AUTO 32003KT 10SM CLR M08/M11 A3050 490 84 -2200 320/03 RMK AO2
14926KSTC STC20041111063510111/11/04 06:35:31  5-MIN KSTC 111235Z AUTO 33003KT 10SM CLR M08/M11 A3050 490 84 -2200 330/03 RMK AO2
14926KSTC STC20041111064010111/11/04 06:40:31  5-MIN KSTC 111240Z AUTO 33004KT 10SM CLR M08/M10 A3051 490 88 -2200 330/04 RMK AO2
14926KSTC STC20041111064510111/11/04 06:45:31  5-MIN KSTC 111245Z AUTO 33004KT 10SM CLR M08/M11 A3051 490 84 -2200 330/04 RMK AO2
14926KSTC STC20041111065011811/11/04 06:50:31  5-MIN KSTC 111250Z AUTO 33004KT 10SM CLR M08/M10 A3051 490 84 -2100 330/04 RMK AO2 SLP356 T10781100
14926KSTC STC20041111065510111/11/04 06:55:31  5-MIN KSTC 111255Z AUTO 33004KT 10SM CLR M08/M10 A3051 480 84 -2100 330/04 RMK AO2
14926KSTC STC20041111070010111/11/04 07:00:31  5-MIN KSTC 111300Z AUTO 33004KT 10SM CLR M08/M10 A3051 480 88 -2200 320/04 RMK AO2
14926KSTC STC20041111070510111/11/04 07:05:31  5-MIN KSTC 111305Z AUTO 33004KT 10SM CLR M08/M10 A3052 480 84 -2100 320/04 RMK AO2
14926KSTC STC20041111071010111/11/04 07:10:31  5-MIN KSTC 111310Z AUTO 33004KT 10SM CLR M08/M11 A3052 480 80 -2100 330/04 RMK AO2
14926KSTC STC20041111071510111/11/04 07:15:31  5-MIN KSTC 111315Z AUTO 34003KT 10SM CLR M08/M10 A3052 480 84 -2100 330/03 RMK AO2
14926KSTC STC20041111072010111/11/04 07:20:31  5-MIN KSTC 111320Z AUTO 33003KT 10SM CLR M08/M10 A3052 480 84 -2100 330/03 RMK AO2
14926KSTC STC20041111072510111/11/04 07:25:31  5-MIN KSTC 111325Z AUTO 33004KT 10SM CLR M08/M10 A3052 480 84 -2100 330/04 RMK AO2
14926KSTC STC20041111073010111/11/04 07:30:31  5-MIN KSTC 111330Z AUTO 33004KT 10SM CLR M08/M10 A3052 480 84 -2100 320/04 RMK AO2
14926KSTC STC20041111073510111/11/04 07:35:31  5-MIN KSTC 111335Z AUTO 33003KT 10SM CLR M07/M10 A3052 480 81 -2100 320/03 RMK AO2
14926KSTC STC20041111074010111/11/04 07:40:31  5-MIN KSTC 111340Z AUTO 34003KT 10SM CLR M07/M10 A3052 470 81 -2100 340/03 RMK AO2
14926KSTC STC20041111074510111/11/04 07:45:31  5-MIN KSTC 111345Z AUTO 00000KT 10SM CLR M07/M10 A3052 480 81 -2100 000/00 RMK AO2
14926KSTC STC20041111075011811/11/04 07:50:31  5-MIN KSTC 111350Z AUTO 35003KT 10SM CLR M07/M10 A3052 480 81 -2100 350/03 RMK AO2 SLP359 T10721100
14926KSTC STC20041111075510111/11/04 07:55:31  5-MIN KSTC 111355Z AUTO 35003KT 10SM CLR M07/M09 A3052 480 81 -2000 350/03 RMK AO2
14926KSTC STC20041111080010111/11/04 08:00:31  5-MIN KSTC 111400Z AUTO 00000KT 10SM CLR M06/M09 A3052 470 81 -1900 000/00 RMK AO2
14926KSTC STC20041111080510111/11/04 08:05:31  5-MIN KSTC 111405Z AUTO 33003KT 10SM CLR M06/M08 A3053 470 84 -1900 330/03 RMK AO2
14926KSTC STC20041111081010111/11/04 08:10:31  5-MIN KSTC 111410Z AUTO 35003KT 10SM CLR M06/M08 A3052 470 81 -1900 350/03 RMK AO2
14926KSTC STC20041111081510111/11/04 08:15:31  5-MIN KSTC 111415Z AUTO 00000KT 10SM CLR M05/M08 A3052 470 81 -1800 000/00 RMK AO2
14926KSTC STC20041111082010111/11/04 08:20:31  5-MIN KSTC 111420Z AUTO 36003KT 10SM CLR M05/M08 A3052 470 81 -1800 350/03 RMK AO2
14926KSTC STC20041111082510111/11/04 08:25:31  5-MIN KSTC 111425Z AUTO 35005KT 10SM CLR M04/M08 A3053 470 78 -1700 350/05 RMK AO2
14926KSTC STC20041111083010111/11/04 08:30:31  5-MIN KSTC 111430Z AUTO 34004KT 10SM CLR M04/M08 A3053 470 78 -1700 330/04 RMK AO2
14926KSTC STC20041111083510111/11/04 08:35:31  5-MIN KSTC 111435Z AUTO 36003KT 10SM CLR M04/M08 A3053 470 78 -1700 350/03 RMK AO2
14926KSTC STC20041111084010111/11/04 08:40:31  5-MIN KSTC 111440Z AUTO 34004KT 10SM CLR M04/M08 A3053 470 74 -1700 340/04 RMK AO2
14926KSTC STC20041111084510111/11/04 08:45:31  5-MIN KSTC 111445Z AUTO 33003KT 10SM CLR M04/M07 A3053 460 78 -1700 330/03 RMK AO2
14926KSTC STC20041111085012411/11/04 08:50:31  5-MIN KSTC 111450Z AUTO 32003KT 10SM CLR M04/M08 A3053 460 74 -1700 320/03 RMK AO2 SLP363 T10391078 50001
14926KSTC STC20041111085510111/11/04 08:55:31  5-MIN KSTC 111455Z AUTO 31003KT 10SM CLR M03/M07 A3053 460 74 -1600 300/03 RMK AO2
14926KSTC STC20041111090010111/11/04 09:00:31  5-MIN KSTC 111500Z AUTO 31003KT 10SM CLR M04/M08 A3053 460 74 -1700 300/03 RMK AO2
14926KSTC STC20041111090510111/11/04 09:05:31  5-MIN KSTC 111505Z AUTO 00000KT 10SM CLR M03/M07 A3054 460 74 -1600 000/00 RMK AO2
14926KSTC STC20041111091010111/11/04 09:10:31  5-MIN KSTC 111510Z AUTO 00000KT 10SM CLR M03/M07 A3054 460 74 -1600 000/00 RMK AO2
14926KSTC STC20041111091510111/11/04 09:15:31  5-MIN KSTC 111515Z AUTO 32003KT 10SM CLR M03/M08 A3054 460 71 -1600 320/03 RMK AO2
14926KSTC STC20041111092010111/11/04 09:20:31  5-MIN KSTC 111520Z AUTO 00000KT 10SM CLR M03/M07 A3054 460 71 -1500 000/00 RMK AO2
14926KSTC STC20041111092510111/11/04 09:25:31  5-MIN KSTC 111525Z AUTO 36003KT 10SM CLR M02/M07 A3054 460 69 -1500 350/03 RMK AO2
14926KSTC STC20041111093010111/11/04 09:30:31  5-MIN KSTC 111530Z AUTO VRB04KT 10SM CLR M02/M07 A3054 460 69 -1500 VRB/04 RMK AO2
14926KSTC STC20041111093510111/11/04 09:35:31  5-MIN KSTC 111535Z AUTO VRB03KT 10SM CLR M02/M08 A3053 460 66 -1400 VRB/03 RMK AO2
14926KSTC STC20041111094010111/11/04 09:40:31  5-MIN KSTC 111540Z AUTO VRB03KT 10SM CLR M02/M08 A3053 460 63 -1400 VRB/03 RMK AO2
14926KSTC STC20041111094510111/11/04 09:45:31  5-MIN KSTC 111545Z AUTO 36003KT 10SM CLR M02/M08 A3053 460 63 -1400 360/03 RMK AO2
14926KSTC STC20041111095011811/11/04 09:50:31  5-MIN KSTC 111550Z AUTO 35003KT 10SM CLR M02/M08 A3053 460 63 -1400 350/03 RMK AO2 SLP363 T10171078
14926KSTC STC20041111095510111/11/04 09:55:31  5-MIN KSTC 111555Z AUTO 03003KT 10SM CLR M02/M08 A3053 460 63 -1400 020/03 RMK AO2
14926KSTC STC20041111100010111/11/04 10:00:31  5-MIN KSTC 111600Z AUTO 00000KT 10SM CLR M02/M08 A3053 470 60 -1400 000/00 RMK AO2
14926KSTC STC20041111100510111/11/04 10:05:31  5-MIN KSTC 111605Z AUTO 00000KT 10SM CLR M02/M08 A3053 470 63 -1400 000/00 RMK AO2
14926KSTC STC20041111101010111/11/04 10:10:31  5-MIN KSTC 111610Z AUTO 00000KT 10SM CLR M01/M08 A3053 470 58 -1300 000/00 RMK AO2
14926KSTC STC20041111101510111/11/04 10:15:31  5-MIN KSTC 111615Z AUTO 36004KT 10SM CLR M01/M08 A3053 460 60 -1300 360/04 RMK AO2
14926KSTC STC20041111102010111/11/04 10:20:31  5-MIN KSTC 111620Z AUTO 00000KT 10SM CLR M01/M08 A3053 460 58 -1300 000/00 RMK AO2
14926KSTC STC20041111102510111/11/04 10:25:31  5-MIN KSTC 111625Z AUTO 00000KT 10SM CLR M02/M08 A3053 460 60 -1400 000/00 RMK AO2
14926KSTC STC20041111103010111/11/04 10:30:31  5-MIN KSTC 111630Z AUTO 00000KT 10SM CLR M02/M08 A3054 460 60 -1400 000/00 RMK AO2
14926KSTC STC20041111103510111/11/04 10:35:31  5-MIN KSTC 111635Z AUTO 00000KT 10SM CLR M01/M08 A3053 460 58 -1300 000/00 RMK AO2
14926KSTC STC20041111104010111/11/04 10:40:31  5-MIN KSTC 111640Z AUTO 22003KT 10SM CLR M01/M08 A3053 460 58 -1300 220/03 RMK AO2
14926KSTC STC20041111104510111/11/04 10:45:31  5-MIN KSTC 111645Z AUTO 00000KT 10SM CLR M01/M08 A3053 460 58 -1300 000/00 RMK AO2
14926KSTC STC20041111105011811/11/04 10:50:31  5-MIN KSTC 111650Z AUTO VRB03KT 10SM CLR M01/M08 A3053 470 58 -1300 VRB/03 RMK AO2 SLP362 T10111083
14926KSTC STC20041111105510111/11/04 10:55:31  5-MIN KSTC 111655Z AUTO 00000KT 10SM CLR M01/M08 A3053 470 56 -1200 000/00 RMK AO2
14926KSTC STC20041111110010111/11/04 11:00:31  5-MIN KSTC 111700Z AUTO 25003KT 10SM CLR M01/M09 A3053 470 53 -1300 240/03 RMK AO2
14926KSTC STC20041111110510111/11/04 11:05:31  5-MIN KSTC 111705Z AUTO VRB03KT 10SM CLR M01/M10 A3053 470 49 -1200 VRB/03 RMK AO2
14926KSTC STC20041111111010111/11/04 11:10:31  5-MIN KSTC 111710Z AUTO 20003KT 10SM CLR M01/M09 A3052 470 51 -1200 200/03 RMK AO2
14926KSTC STC20041111111510111/11/04 11:15:31  5-MIN KSTC 111715Z AUTO 00000KT 10SM CLR M01/M09 A3052 480 51 -1200 000/00 RMK AO2
14926KSTC STC20041111112010011/11/04 11:20:31  5-MIN KSTC 111720Z AUTO VRB03KT 10SM CLR 00/M09 A3052 480 51 -1100 VRB/03 RMK AO2
14926KSTC STC20041111112510111/11/04 11:25:31  5-MIN KSTC 111725Z AUTO 18003KT 10SM CLR M01/M09 A3051 480 51 -1200 170/03 RMK AO2
14926KSTC STC20041111113010011/11/04 11:30:31  5-MIN KSTC 111730Z AUTO 22004KT 10SM CLR 00/M09 A3051 480 49 -1100 210/04 RMK AO2
14926KSTC STC20041111113510011/11/04 11:35:31  5-MIN KSTC 111735Z AUTO VRB03KT 10SM CLR 00/M11 A3051 480 45 -1100 VRB/03 RMK AO2
14926KSTC STC20041111114010011/11/04 11:40:31  5-MIN KSTC 111740Z AUTO 23003KT 10SM CLR 01/M10 A3051 490 45 -1100 230/03 RMK AO2
14926KSTC STC20041111114510011/11/04 11:45:31  5-MIN KSTC 111745Z AUTO 26005KT 10SM CLR 01/M11 A3051 490 41 -1100 260/05 RMK AO2
14926KSTC STC20041111115013511/11/04 11:50:31  5-MIN KSTC 111750Z AUTO 00000KT 10SM CLR 01/M11 A3051 490 41 -1100 000/00 RMK AO2 SLP355 T00061111 10006 21083 53010
14926KSTC STC20041111115510011/11/04 11:55:31  5-MIN KSTC 111755Z AUTO 23005KT 10SM CLR 01/M11 A3051 490 43 -1100 230/05 RMK AO2
14926KSTC STC20041111120010011/11/04 12:00:31  5-MIN KSTC 111800Z AUTO 20005KT 10SM CLR 01/M09 A3051 490 47 -1100 200/05 RMK AO2
14926KSTC STC20041111120510011/11/04 12:05:31  5-MIN KSTC 111805Z AUTO 22007KT 10SM CLR 01/M10 A3050 490 45 -1100 210/07 RMK AO2
14926KSTC STC20041111121010011/11/04 12:10:31  5-MIN KSTC 111810Z AUTO VRB03KT 10SM CLR 01/M10 A3050 490 43 -1000 VRB/03 RMK AO2
14926KSTC STC20041111121510011/11/04 12:15:31  5-MIN KSTC 111815Z AUTO VRB03KT 10SM CLR 01/M09 A3049 500 45 -1000 VRB/03 RMK AO2
14926KSTC STC20041111122010011/11/04 12:20:31  5-MIN KSTC 111820Z AUTO 22005KT 10SM CLR 01/M09 A3049 500 45 -1000 210/05 RMK AO2
14926KSTC STC20041111122510011/11/04 12:25:31  5-MIN KSTC 111825Z AUTO 23006KT 10SM CLR 01/M11 A3049 510 41 -1000 230/06 RMK AO2
14926KSTC STC20041111123009911/11/04 12:30:31  5-MIN KSTC 111830Z AUTO 23006KT 10SM CLR 02/M11 A3048 510 38 -900 230/06 RMK AO2
14926KSTC STC20041111123509911/11/04 12:35:31  5-MIN KSTC 111835Z AUTO 23006KT 10SM CLR 02/M11 A3048 510 38 -900 220/06 RMK AO2
14926KSTC STC20041111124009911/11/04 12:40:31  5-MIN KSTC 111840Z AUTO 25005KT 10SM CLR 02/M11 A3048 510 38 -900 240/05 RMK AO2
14926KSTC STC20041111124509911/11/04 12:45:31  5-MIN KSTC 111845Z AUTO 23006KT 10SM CLR 02/M11 A3048 510 40 -900 230/06 RMK AO2
14926KSTC STC20041111125011611/11/04 12:50:31  5-MIN KSTC 111850Z AUTO 22008KT 10SM CLR 02/M11 A3048 520 40 -900 220/08 RMK AO2 SLP344 T00171106
14926KSTC STC20041111125509911/11/04 12:55:31  5-MIN KSTC 111855Z AUTO VRB05KT 10SM CLR 02/M11 A3047 520 38 -800 VRB/05 RMK AO2
14926KSTC STC20041111130009911/11/04 13:00:31  5-MIN KSTC 111900Z AUTO 25007KT 10SM CLR 02/M11 A3047 520 38 -800 250/07 RMK AO2
14926KSTC STC20041111130509911/11/04 13:05:31  5-MIN KSTC 111905Z AUTO 25006KT 10SM CLR 02/M11 A3047 520 37 -800 250/06 RMK AO2
14926KSTC STC20041111131009911/11/04 13:10:31  5-MIN KSTC 111910Z AUTO VRB05KT 10SM CLR 02/M11 A3047 520 37 -800 VRB/05 RMK AO2
14926KSTC STC20041111131509911/11/04 13:15:31  5-MIN KSTC 111915Z AUTO 25007KT 10SM CLR 03/M13 A3047 520 31 -700 250/07 RMK AO2
14926KSTC STC20041111132009911/11/04 13:20:31  5-MIN KSTC 111920Z AUTO 24008KT 10SM CLR 02/M14 A3047 520 29 -800 230/08 RMK AO2
14926KSTC STC20041111132509911/11/04 13:25:31  5-MIN KSTC 111925Z AUTO VRB05KT 10SM CLR 02/M13 A3046 530 32 -800 VRB/05 RMK AO2
14926KSTC STC20041111133009911/11/04 13:30:31  5-MIN KSTC 111930Z AUTO 26007KT 10SM CLR 03/M12 A3046 530 32 -700 260/07 RMK AO2
14926KSTC STC20041111133509911/11/04 13:35:31  5-MIN KSTC 111935Z AUTO 27008KT 10SM CLR 03/M12 A3046 530 34 -700 270/08 RMK AO2
14926KSTC STC20041111134009911/11/04 13:40:31  5-MIN KSTC 111940Z AUTO VRB05KT 10SM CLR 02/M12 A3046 530 35 -800 VRB/05 RMK AO2
14926KSTC STC20041111134509911/11/04 13:45:31  5-MIN KSTC 111945Z AUTO 25008KT 10SM CLR 02/M11 A3045 540 37 -800 250/08 RMK AO2
14926KSTC STC20041111135011611/11/04 13:50:31  5-MIN KSTC 111950Z AUTO 29006KT 10SM CLR 03/M12 A3045 540 34 -700 290/06 RMK AO2 SLP335 T00281117
14926KSTC STC20041111135509911/11/04 13:55:31  5-MIN KSTC 111955Z AUTO 26006KT 10SM CLR 03/M12 A3045 540 34 -700 260/06 RMK AO2
14926KSTC STC20041111140009911/11/04 14:00:31  5-MIN KSTC 112000Z AUTO 25009KT 10SM CLR 03/M10 A3045 540 38 -700 240/09 RMK AO2
14926KSTC STC20041111140509911/11/04 14:05:31  5-MIN KSTC 112005Z AUTO VRB05KT 10SM CLR 03/M10 A3044 550 38 -700 VRB/05 RMK AO2
14926KSTC STC20041111141009911/11/04 14:10:31  5-MIN KSTC 112010Z AUTO 24007KT 10SM CLR 03/M10 A3044 550 38 -700 240/07 RMK AO2
14926KSTC STC20041111141509911/11/04 14:15:31  5-MIN KSTC 112015Z AUTO 25008KT 10SM CLR 03/M11 A3044 550 37 -700 250/08 RMK AO2
14926KSTC STC20041111142009911/11/04 14:20:31  5-MIN KSTC 112020Z AUTO 26008KT 10SM CLR 03/M12 A3043 550 32 -600 250/08 RMK AO2
14926KSTC STC20041111142509911/11/04 14:25:31  5-MIN KSTC 112025Z AUTO 27008KT 10SM CLR 03/M12 A3043 560 32 -700 270/08 RMK AO2
14926KSTC STC20041111143009911/11/04 14:30:31  5-MIN KSTC 112030Z AUTO 28007KT 10SM CLR 03/M13 A3043 560 31 -700 280/07 RMK AO2
14926KSTC STC20041111143509911/11/04 14:35:31  5-MIN KSTC 112035Z AUTO 27007KT 10SM CLR 03/M13 A3042 560 31 -700 270/07 RMK AO2
14926KSTC STC20041111144009911/11/04 14:40:31  5-MIN KSTC 112040Z AUTO 25007KT 10SM CLR 03/M13 A3042 570 29 -700 250/07 RMK AO2
14926KSTC STC20041111144509911/11/04 14:45:31  5-MIN KSTC 112045Z AUTO 29008KT 10SM CLR 03/M12 A3042 560 31 -600 280/08 RMK AO2
14926KSTC STC20041111145012211/11/04 14:50:31  5-MIN KSTC 112050Z AUTO VRB04KT 10SM CLR 03/M12 A3042 570 34 -700 VRB/04 RMK AO2 SLP324 T00281117 58008
14926KSTC STC20041111145509911/11/04 14:55:31  5-MIN KSTC 112055Z AUTO 25004KT 10SM CLR 03/M12 A3042 570 32 -700 250/04 RMK AO2
14926KSTC STC20041111150009911/11/04 15:00:31  5-MIN KSTC 112100Z AUTO 26006KT 10SM CLR 03/M12 A3042 570 34 -700 260/06 RMK AO2
14926KSTC STC20041111150509911/11/04 15:05:31  5-MIN KSTC 112105Z AUTO 27005KT 10SM CLR 03/M12 A3042 570 32 -700 270/05 RMK AO2
14926KSTC STC20041111151009911/11/04 15:10:31  5-MIN KSTC 112110Z AUTO 28007KT 10SM CLR 03/M12 A3041 570 32 -700 280/07 RMK AO2
14926KSTC STC20041111151509911/11/04 15:15:31  5-MIN KSTC 112115Z AUTO 27007KT 10SM CLR 03/M12 A3041 570 32 -700 270/07 RMK AO2
14926KSTC STC20041111152009911/11/04 15:20:31  5-MIN KSTC 112120Z AUTO 28005KT 10SM CLR 03/M12 A3041 570 34 -700 270/05 RMK AO2
14926KSTC STC20041111152509911/11/04 15:25:31  5-MIN KSTC 112125Z AUTO 28007KT 10SM CLR 03/M12 A3041 570 34 -700 280/07 RMK AO2
14926KSTC STC20041111153009911/11/04 15:30:31  5-MIN KSTC 112130Z AUTO 28005KT 10SM CLR 03/M12 A3041 570 32 -700 270/05 RMK AO2
14926KSTC STC20041111153509911/11/04 15:35:31  5-MIN KSTC 112135Z AUTO 26006KT 10SM CLR 03/M12 A3041 570 32 -700 260/06 RMK AO2
14926KSTC STC20041111154009911/11/04 15:40:31  5-MIN KSTC 112140Z AUTO 27006KT 10SM CLR 03/M12 A3041 570 32 -700 270/06 RMK AO2
14926KSTC STC20041111154509911/11/04 15:45:31  5-MIN KSTC 112145Z AUTO 27005KT 10SM CLR 03/M12 A3041 570 34 -700 270/05 RMK AO2
14926KSTC STC20041111155011611/11/04 15:50:31  5-MIN KSTC 112150Z AUTO 27005KT 10SM CLR 03/M12 A3041 570 34 -700 270/05 RMK AO2 SLP322 T00281117
14926KSTC STC20041111155509911/11/04 15:55:31  5-MIN KSTC 112155Z AUTO 27004KT 10SM CLR 03/M12 A3042 570 34 -700 270/04 RMK AO2
14926KSTC STC20041111160009911/11/04 16:00:31  5-MIN KSTC 112200Z AUTO 27005KT 10SM CLR 03/M12 A3042 570 34 -700 260/05 RMK AO2
14926KSTC STC20041111160509911/11/04 16:05:31  5-MIN KSTC 112205Z AUTO 25005KT 10SM CLR 02/M12 A3042 570 35 -800 250/05 RMK AO2
14926KSTC STC20041111161009911/11/04 16:10:31  5-MIN KSTC 112210Z AUTO 25005KT 10SM CLR 02/M12 A3042 570 35 -800 250/05 RMK AO2
14926KSTC STC20041111161509911/11/04 16:15:31  5-MIN KSTC 112215Z AUTO 26005KT 10SM CLR 02/M11 A3042 570 37 -800 260/05 RMK AO2
14926KSTC STC20041111162009911/11/04 16:20:31  5-MIN KSTC 112220Z AUTO 26005KT 10SM CLR 02/M11 A3042 570 38 -800 260/05 RMK AO2
14926KSTC STC20041111162509911/11/04 16:25:31  5-MIN KSTC 112225Z AUTO 27005KT 10SM CLR 02/M11 A3042 570 38 -800 270/05 RMK AO2
14926KSTC STC20041111163009911/11/04 16:30:31  5-MIN KSTC 112230Z AUTO 27005KT 10SM CLR 01/M11 A3042 570 41 -900 270/05 RMK AO2
14926KSTC STC20041111163510011/11/04 16:35:31  5-MIN KSTC 112235Z AUTO 28004KT 10SM CLR 01/M11 A3042 570 43 -1000 280/04 RMK AO2
14926KSTC STC20041111164010011/11/04 16:40:31  5-MIN KSTC 112240Z AUTO 31003KT 10SM CLR 01/M11 A3042 570 43 -1000 310/03 RMK AO2
14926KSTC STC20041111164509911/11/04 16:45:31  5-MIN KSTC 112245Z AUTO 31003KT 10SM CLR 01/M11 A3042 570 41 -900 310/03 RMK AO2
14926KSTC STC20041111165011711/11/04 16:50:31  5-MIN KSTC 112250Z AUTO 32004KT 10SM CLR 01/M10 A3042 570 45 -1000 320/04 RMK AO2 SLP327 T00061100
14926KSTC STC20041111165510011/11/04 16:55:31  5-MIN KSTC 112255Z AUTO 31004KT 10SM CLR 00/M11 A3042 560 43 -1000 310/04 RMK AO2
14926KSTC STC20041111170010011/11/04 17:00:31  5-MIN KSTC 112300Z AUTO 32004KT 10SM CLR 00/M11 A3043 560 43 -1000 320/04 RMK AO2
14926KSTC STC20041111170510011/11/04 17:05:31  5-MIN KSTC 112305Z AUTO 32005KT 10SM CLR 00/M11 A3043 560 43 -1000 320/05 RMK AO2
14926KSTC STC20041111171010111/11/04 17:10:31  5-MIN KSTC 112310Z AUTO 32006KT 10SM CLR M01/M11 A3043 560 49 -1200 310/06 RMK AO2
14926KSTC STC20041111171510111/11/04 17:15:31  5-MIN KSTC 112315Z AUTO 31005KT 10SM CLR M01/M11 A3043 560 49 -1200 310/05 RMK AO2
14926KSTC STC20041111172010111/11/04 17:20:31  5-MIN KSTC 112320Z AUTO 30005KT 10SM CLR M02/M10 A3043 560 53 -1300 300/05 RMK AO2
14926KSTC STC20041111172510111/11/04 17:25:31  5-MIN KSTC 112325Z AUTO 29003KT 10SM CLR M02/M11 A3043 560 51 -1300 290/03 RMK AO2
14926KSTC STC20041111173010111/11/04 17:30:31  5-MIN KSTC 112330Z AUTO 30003KT 10SM CLR M01/M11 A3043 560 49 -1200 290/03 RMK AO2
14926KSTC STC20041111173510111/11/04 17:35:31  5-MIN KSTC 112335Z AUTO 00000KT 10SM CLR M02/M11 A3043 560 51 -1300 000/00 RMK AO2
14926KSTC STC20041111174010111/11/04 17:40:31  5-MIN KSTC 112340Z AUTO 00000KT 10SM CLR M02/M11 A3043 560 51 -1300 000/00 RMK AO2
14926KSTC STC20041111174510111/11/04 17:45:31  5-MIN KSTC 112345Z AUTO 00000KT 10SM CLR M02/M11 A3043 560 51 -1300 000/00 RMK AO2
14926KSTC STC20041111175013611/11/04 17:50:31  5-MIN KSTC 112350Z AUTO 00000KT 10SM CLR M02/M11 A3043 560 51 -1300 000/00 RMK AO2 SLP330 T10171106 10033 21022 56030
14926KSTC STC20041111175510111/11/04 17:55:31  5-MIN KSTC 112355Z AUTO 00000KT 10SM CLR M02/M11 A3043 560 51 -1300 000/00 RMK AO2
14926KSTC STC20041111180010111/11/04 18:00:31  5-MIN KSTC 120000Z AUTO 00000KT 10SM CLR M02/M11 A3043 560 53 -1300 000/00 RMK AO2
14926KSTC STC20041111180510111/11/04 18:05:31  5-MIN KSTC 120005Z AUTO 00000KT 10SM CLR M03/M11 A3043 560 53 -1400 000/00 RMK AO2
14926KSTC STC20041111181010111/11/04 18:10:31  5-MIN KSTC 120010Z AUTO 00000KT 10SM CLR M03/M11 A3043 560 53 -1400 000/00 RMK AO2
14926KSTC STC20041111181510111/11/04 18:15:31  5-MIN KSTC 120015Z AUTO 00000KT 10SM CLR M03/M11 A3042 560 57 -1500 000/00 RMK AO2
14926KSTC STC20041111182010111/11/04 18:20:31  5-MIN KSTC 120020Z AUTO 00000KT 10SM CLR M03/M10 A3042 570 60 -1500 000/00 RMK AO2
14926KSTC STC20041111182510111/11/04 18:25:31  5-MIN KSTC 120025Z AUTO 00000KT 10SM CLR M03/M10 A3042 570 60 -1500 000/00 RMK AO2
14926KSTC STC20041111183010111/11/04 18:30:31  5-MIN KSTC 120030Z AUTO 00000KT 10SM CLR M03/M10 A3042 560 60 -1500 000/00 RMK AO2
14926KSTC STC20041111183510111/11/04 18:35:31  5-MIN KSTC 120035Z AUTO 00000KT 10SM CLR M03/M10 A3042 560 60 -1500 000/00 RMK AO2
14926KSTC STC20041111184010111/11/04 18:40:31  5-MIN KSTC 120040Z AUTO 00000KT 10SM CLR M03/M11 A3042 570 57 -1500 000/00 RMK AO2
14926KSTC STC20041111184510111/11/04 18:45:31  5-MIN KSTC 120045Z AUTO 00000KT 10SM CLR M04/M10 A3042 570 63 -1500 000/00 RMK AO2
14926KSTC STC20041111185011811/11/04 18:50:31  5-MIN KSTC 120050Z AUTO 00000KT 10SM CLR M04/M09 A3042 570 65 -1500 000/00 RMK AO2 SLP328 T10391094
14926KSTC STC20041111185510111/11/04 18:55:31  5-MIN KSTC 120055Z AUTO 00000KT 10SM CLR M04/M09 A3042 570 71 -1600 000/00 RMK AO2
14926KSTC STC20041111190010111/11/04 19:00:31  5-MIN KSTC 120100Z AUTO 00000KT 10SM CLR M05/M09 A3042 570 71 -1700 000/00 RMK AO2
14926KSTC STC20041111190510111/11/04 19:05:31  5-MIN KSTC 120105Z AUTO 00000KT 10SM CLR M05/M10 A3042 570 68 -1700 000/00 RMK AO2
14926KSTC STC20041111191010111/11/04 19:10:31  5-MIN KSTC 120110Z AUTO 00000KT 10SM CLR M04/M11 A3042 570 62 -1600 000/00 RMK AO2
14926KSTC STC20041111191510111/11/04 19:15:31  5-MIN KSTC 120115Z AUTO 00000KT 10SM CLR M04/M10 A3042 570 65 -1600 000/00 RMK AO2
14926KSTC STC20041111192010111/11/04 19:20:31  5-MIN KSTC 120120Z AUTO 00000KT 10SM CLR M04/M10 A3042 570 65 -1600 000/00 RMK AO2
14926KSTC STC20041111192510111/11/04 19:25:31  5-MIN KSTC 120125Z AUTO 00000KT 10SM CLR M04/M10 A3042 570 65 -1600 000/00 RMK AO2
14926KSTC STC20041111193010111/11/04 19:30:31  5-MIN KSTC 120130Z AUTO 00000KT 10SM CLR M04/M10 A3042 570 65 -1600 000/00 RMK AO2
14926KSTC STC20041111193510111/11/04 19:35:31  5-MIN KSTC 120135Z AUTO 00000KT 10SM CLR M05/M09 A3042 570 71 -1700 000/00 RMK AO2
14926KSTC STC20041111194010111/11/04 19:40:31  5-MIN KSTC 120140Z AUTO 00000KT 10SM CLR M06/M09 A3042 570 74 -1700 000/00 RMK AO2
14926KSTC STC20041111194510111/11/04 19:45:31  5-MIN KSTC 120145Z AUTO 00000KT 10SM CLR M06/M09 A3042 570 74 -1700 000/00 RMK AO2
14926KSTC STC20041111195011811/11/04 19:50:31  5-MIN KSTC 120150Z AUTO 00000KT 10SM CLR M05/M09 A3042 570 74 -1700 000/00 RMK AO2 SLP328 T10501089
14926KSTC STC20041112070010111/12/04 07:00:31  5-MIN KSTC 121300Z AUTO 00000KT 10SM CLR M08/M09 A3047 520 92 -2200 000/00 RMK AO2
14926KSTC STC20041112070510111/12/04 07:05:31  5-MIN KSTC 121305Z AUTO 00000KT 10SM CLR M08/M09 A3047 520 92 -2200 000/00 RMK AO2
14926KSTC STC20041112071010111/12/04 07:10:31  5-MIN KSTC 121310Z AUTO 00000KT 10SM CLR M08/M09 A3047 520 92 -2200 000/00 RMK AO2
14926KSTC STC20041112071510111/12/04 07:15:31  5-MIN KSTC 121315Z AUTO 00000KT 10SM CLR M09/M09 A3047 520 96 -2200 000/00 RMK AO2
14926KSTC STC20041112072010111/12/04 07:20:31  5-MIN KSTC 121320Z AUTO 00000KT 10SM CLR M09/M10 A3047 520 92 -2200 000/00 RMK AO2
14926KSTC STC20041112072510111/12/04 07:25:31  5-MIN KSTC 121325Z AUTO 00000KT 10SM CLR M09/M10 A3047 520 96 -2300 000/00 RMK AO2
14926KSTC STC20041112073010111/12/04 07:30:31  5-MIN KSTC 121330Z AUTO 00000KT 10SM CLR M09/M10 A3047 520 92 -2200 000/00 RMK AO2
14926KSTC STC20041112073510111/12/04 07:35:31  5-MIN KSTC 121335Z AUTO 00000KT 10SM CLR M09/M10 A3048 520 96 -2300 000/00 RMK AO2
14926KSTC STC20041112074010111/12/04 07:40:31  5-MIN KSTC 121340Z AUTO 00000KT 10SM CLR M09/M10 A3048 520 92 -2200 000/00 RMK AO2
14926KSTC STC20041112074510111/12/04 07:45:31  5-MIN KSTC 121345Z AUTO 00000KT 10SM CLR M09/M10 A3048 520 92 -2200 000/00 RMK AO2
14926KSTC STC20041112075011811/12/04 07:50:31  5-MIN KSTC 121350Z AUTO 00000KT 10SM CLR M09/M10 A3047 520 92 -2200 000/00 RMK AO2 SLP347 T10891100
14926KSTC STC20041112075510011/12/04 07:55:31  5-MIN KSTC 121355Z AUTO 00000KT 9SM CLR M09/M11 A3048 520 92 -2300 000/00 RMK AO2
14926KSTC STC20041112080010011/12/04 08:00:31  5-MIN KSTC 121400Z AUTO 00000KT 9SM CLR M09/M10 A3048 510 92 -2200 000/00 RMK AO2
14926KSTC STC20041112080510111/12/04 08:05:31  5-MIN KSTC 121405Z AUTO 00000KT 10SM CLR M09/M11 A3048 510 88 -2200 000/00 RMK AO2
14926KSTC STC20041112081010111/12/04 08:10:31  5-MIN KSTC 121410Z AUTO 00000KT 10SM CLR M08/M09 A3048 510 96 -2200 000/00 RMK AO2
14926KSTC STC20041112081510111/12/04 08:15:31  5-MIN KSTC 121415Z AUTO 00000KT 10SM CLR M08/M08 A3048 510 96 -2100 000/00 RMK AO2
14926KSTC STC20041112082010111/12/04 08:20:31  5-MIN KSTC 121420Z AUTO 00000KT 10SM CLR M07/M08 A3048 510 96 -2000 000/00 RMK AO2
14926KSTC STC20041112082510111/12/04 08:25:31  5-MIN KSTC 121425Z AUTO 00000KT 10SM CLR M07/M08 A3049 510 92 -2000 000/00 RMK AO2
14926KSTC STC20041112083010111/12/04 08:30:31  5-MIN KSTC 121430Z AUTO 00000KT 10SM CLR M06/M07 A3049 500 92 -1900 000/00 RMK AO2
14926KSTC STC20041112083510111/12/04 08:35:31  5-MIN KSTC 121435Z AUTO 00000KT 10SM CLR M06/M07 A3049 500 88 -1800 000/00 RMK AO2
14926KSTC STC20041112084010111/12/04 08:40:31  5-MIN KSTC 121440Z AUTO 00000KT 10SM CLR M06/M07 A3049 500 92 -1800 000/00 RMK AO2
14926KSTC STC20041112084510111/12/04 08:45:31  5-MIN KSTC 121445Z AUTO 00000KT 10SM CLR M06/M07 A3050 500 92 -1800 000/00 RMK AO2
14926KSTC STC20041112085012411/12/04 08:50:31  5-MIN KSTC 121450Z AUTO 00000KT 10SM CLR M05/M07 A3050 500 88 -1800 000/00 RMK AO2 SLP354 T10501067 53009
14926KSTC STC20041112085510111/12/04 08:55:31  5-MIN KSTC 121455Z AUTO 00000KT 10SM CLR M05/M06 A3050 490 92 -1800 000/00 RMK AO2
14926KSTC STC20041112090010111/12/04 09:00:31  5-MIN KSTC 121500Z AUTO 00000KT 10SM CLR M04/M06 A3050 490 88 -1700 000/00 RMK AO2
14926KSTC STC20041112090510111/12/04 09:05:31  5-MIN KSTC 121505Z AUTO 00000KT 10SM CLR M04/M06 A3050 490 88 -1600 000/00 RMK AO2
14926KSTC STC20041112091010111/12/04 09:10:31  5-MIN KSTC 121510Z AUTO 00000KT 10SM CLR M04/M06 A3050 490 88 -1600 000/00 RMK AO2
14926KSTC STC20041112091510111/12/04 09:15:31  5-MIN KSTC 121515Z AUTO 00000KT 10SM CLR M03/M06 A3050 490 85 -1600 000/00 RMK AO2
14926KSTC STC20041112092010111/12/04 09:20:31  5-MIN KSTC 121520Z AUTO 18003KT 10SM CLR M03/M06 A3050 490 81 -1500 180/03 RMK AO2
14926KSTC STC20041112092510111/12/04 09:25:31  5-MIN KSTC 121525Z AUTO 17003KT 10SM CLR M03/M06 A3050 490 81 -1500 170/03 RMK AO2
14926KSTC STC20041112093010111/12/04 09:30:31  5-MIN KSTC 121530Z AUTO 00000KT 10SM CLR M02/M06 A3051 490 75 -1400 000/00 RMK AO2
14926KSTC STC20041112093510111/12/04 09:35:31  5-MIN KSTC 121535Z AUTO 00000KT 10SM CLR M02/M06 A3051 480 75 -1400 000/00 RMK AO2
14926KSTC STC20041112094010111/12/04 09:40:31  5-MIN KSTC 121540Z AUTO 00000KT 10SM CLR M02/M06 A3051 480 75 -1400 000/00 RMK AO2
14926KSTC STC20041112094510111/12/04 09:45:31  5-MIN KSTC 121545Z AUTO 00000KT 10SM CLR M02/M06 A3051 480 75 -1400 000/00 RMK AO2
14926KSTC STC20041112095011811/12/04 09:50:31  5-MIN KSTC 121550Z AUTO 00000KT 10SM CLR M01/M06 A3051 480 69 -1300 000/00 RMK AO2 SLP358 T10111061
14926KSTC STC20041112095510111/12/04 09:55:31  5-MIN KSTC 121555Z AUTO 00000KT 10SM CLR M01/M06 A3052 480 69 -1300 000/00 RMK AO2
14926KSTC STC20041112100010111/12/04 10:00:31  5-MIN KSTC 121600Z AUTO 00000KT 10SM CLR M01/M06 A3052 480 66 -1200 000/00 RMK AO2
14926KSTC STC20041112100510111/12/04 10:05:31  5-MIN KSTC 121605Z AUTO 19003KT 10SM CLR M01/M07 A3052 480 61 -1200 180/03 RMK AO2
14926KSTC STC20041112101010111/12/04 10:10:31  5-MIN KSTC 121610Z AUTO 19004KT 10SM CLR M01/M07 A3052 480 61 -1200 190/04 RMK AO2
14926KSTC STC20041112101510011/12/04 10:15:31  5-MIN KSTC 121615Z AUTO 21004KT 10SM CLR 00/M07 A3052 480 58 -1100 200/04 RMK AO2
14926KSTC STC20041112102010011/12/04 10:20:31  5-MIN KSTC 121620Z AUTO 19003KT 10SM CLR 00/M07 A3052 480 61 -1100 190/03 RMK AO2
14926KSTC STC20041112102510011/12/04 10:25:31  5-MIN KSTC 121625Z AUTO VRB04KT 10SM CLR 01/M07 A3052 480 58 -1100 VRB/04 RMK AO2
14926KSTC STC20041112103010011/12/04 10:30:31  5-MIN KSTC 121630Z AUTO VRB03KT 10SM CLR 01/M08 A3052 480 54 -1100 VRB/03 RMK AO2
14926KSTC STC20041112103510011/12/04 10:35:31  5-MIN KSTC 121635Z AUTO 22003KT 10SM CLR 01/M08 A3052 470 51 -1100 210/03 RMK AO2
14926KSTC STC20041112104010011/12/04 10:40:31  5-MIN KSTC 121640Z AUTO 20003KT 10SM CLR 01/M08 A3052 470 51 -1100 200/03 RMK AO2
14926KSTC STC20041112104510011/12/04 10:45:31  5-MIN KSTC 121645Z AUTO 00000KT 10SM CLR 01/M08 A3052 470 49 -1000 000/00 RMK AO2
14926KSTC STC20041112105011711/12/04 10:50:31  5-MIN KSTC 121650Z AUTO 21004KT 10SM CLR 01/M08 A3052 480 49 -1000 200/04 RMK AO2 SLP359 T00111083
14926KSTC STC20041112105510011/12/04 10:55:31  5-MIN KSTC 121655Z AUTO 21004KT 10SM CLR 01/M09 A3052 480 47 -1000 210/04 RMK AO2
14926KSTC STC20041112110009911/12/04 11:00:31  5-MIN KSTC 121700Z AUTO 21005KT 10SM CLR 02/M09 A3052 480 45 -900 200/05 RMK AO2
14926KSTC STC20041112110510011/12/04 11:05:31  5-MIN KSTC 121705Z AUTO 22004KT 10SM CLR 01/M09 A3052 480 47 -1000 220/04 RMK AO2
14926KSTC STC20041112111009911/12/04 11:10:31  5-MIN KSTC 121710Z AUTO VRB03KT 10SM CLR 02/M08 A3052 480 47 -900 VRB/03 RMK AO2
14926KSTC STC20041112111509911/12/04 11:15:31  5-MIN KSTC 121715Z AUTO 24005KT 10SM CLR 02/M09 A3052 480 45 -900 240/05 RMK AO2
14926KSTC STC20041112112009911/12/04 11:20:31  5-MIN KSTC 121720Z AUTO 19004KT 10SM CLR 02/M08 A3052 480 47 -900 190/04 RMK AO2
14926KSTC STC20041112112509911/12/04 11:25:31  5-MIN KSTC 121725Z AUTO 18003KT 10SM CLR 02/M09 A3052 480 43 -900 170/03 RMK AO2
14926KSTC STC20041112113009911/12/04 11:30:31  5-MIN KSTC 121730Z AUTO VRB04KT 10SM CLR 02/M09 A3051 480 44 -900 VRB/04 RMK AO2
14926KSTC STC20041112113509911/12/04 11:35:31  5-MIN KSTC 121735Z AUTO 00000KT 10SM CLR 02/M09 A3051 480 45 -900 000/00 RMK AO2
14926KSTC STC20041112114009911/12/04 11:40:31  5-MIN KSTC 121740Z AUTO 00000KT 10SM CLR 02/M09 A3051 480 44 -900 000/00 RMK AO2
14926KSTC STC20041112114509911/12/04 11:45:31  5-MIN KSTC 121745Z AUTO VRB03KT 10SM CLR 03/M08 A3051 490 44 -800 VRB/03 RMK AO2
14926KSTC STC20041112115013411/12/04 11:50:31  5-MIN KSTC 121750Z AUTO 20005KT 10SM CLR 03/M09 A3051 490 42 -800 200/05 RMK AO2 SLP355 T00281089 10028 21094 53016
14926KSTC STC20041112115509911/12/04 11:55:31  5-MIN KSTC 121755Z AUTO 22004KT 10SM CLR 02/M09 A3051 490 44 -900 220/04 RMK AO2
14926KSTC STC20041112120009911/12/04 12:00:31  5-MIN KSTC 121800Z AUTO 21005KT 10SM CLR 03/M09 A3050 490 42 -800 210/05 RMK AO2
14926KSTC STC20041112120509911/12/04 12:05:31  5-MIN KSTC 121805Z AUTO 23004KT 10SM CLR 03/M09 A3050 490 40 -800 230/04 RMK AO2
14926KSTC STC20041112121009911/12/04 12:10:31  5-MIN KSTC 121810Z AUTO 23003KT 10SM CLR 03/M09 A3050 490 40 -800 230/03 RMK AO2
14926KSTC STC20041112121509911/12/04 12:15:31  5-MIN KSTC 121815Z AUTO VRB03KT 10SM CLR 03/M09 A3050 490 40 -700 VRB/03 RMK AO2
14926KSTC STC20041112122009911/12/04 12:20:31  5-MIN KSTC 121820Z AUTO 16006KT 10SM CLR 03/M09 A3050 500 40 -700 160/06 RMK AO2
14926KSTC STC20041112122509911/12/04 12:25:31  5-MIN KSTC 121825Z AUTO VRB04KT 10SM CLR 03/M09 A3050 500 39 -700 VRB/04 RMK AO2
14926KSTC STC20041112123009911/12/04 12:30:31  5-MIN KSTC 121830Z AUTO 00000KT 10SM CLR 03/M09 A3050 500 39 -700 000/00 RMK AO2
14926KSTC STC20041112123509911/12/04 12:35:31  5-MIN KSTC 121835Z AUTO VRB06KT 10SM CLR 03/M09 A3049 500 39 -700 VRB/06 RMK AO2
14926KSTC STC20041112124009911/12/04 12:40:31  5-MIN KSTC 121840Z AUTO 22006KT 10SM CLR 03/M09 A3049 500 39 -700 220/06 RMK AO2
14926KSTC STC20041112124509911/12/04 12:45:31  5-MIN KSTC 121845Z AUTO 20008KT 10SM CLR 04/M09 A3049 500 37 -600 200/08 RMK AO2
14926KSTC STC20041112125011611/12/04 12:50:31  5-MIN KSTC 121850Z AUTO 20007KT 10SM CLR 03/M10 A3049 500 37 -700 200/07 RMK AO2 SLP349 T00331100
14926KSTC STC20041112125509911/12/04 12:55:31  5-MIN KSTC 121855Z AUTO 21006KT 10SM CLR 03/M10 A3049 510 37 -700 200/06 RMK AO2
14926KSTC STC20041112130009911/12/04 13:00:31  5-MIN KSTC 121900Z AUTO 18005KT 10SM CLR 03/M09 A3049 510 39 -700 180/05 RMK AO2
14926KSTC STC20041112130509911/12/04 13:05:31  5-MIN KSTC 121905Z AUTO 18006KT 10SM CLR 04/M09 A3049 510 37 -600 180/06 RMK AO2
14926KSTC STC20041112131009911/12/04 13:10:31  5-MIN KSTC 121910Z AUTO 22006KT 10SM CLR 04/M09 A3049 510 37 -600 210/06 RMK AO2
14926KSTC STC20041112131509911/12/04 13:15:31  5-MIN KSTC 121915Z AUTO 21006KT 10SM CLR 04/M09 A3049 510 39 -600 200/06 RMK AO2
14926KSTC STC20041112132009911/12/04 13:20:31  5-MIN KSTC 121920Z AUTO 19005KT 10SM CLR 04/M09 A3048 510 39 -600 190/05 RMK AO2
14926KSTC STC20041112132509911/12/04 13:25:31  5-MIN KSTC 121925Z AUTO 17005KT 10SM CLR 04/M09 A3048 510 39 -600 170/05 RMK AO2
14926KSTC STC20041112133009911/12/04 13:30:31  5-MIN KSTC 121930Z AUTO 24005KT 10SM CLR 04/M09 A3048 510 39 -600 240/05 RMK AO2
14926KSTC STC20041112133509911/12/04 13:35:31  5-MIN KSTC 121935Z AUTO 19006KT 10SM CLR 04/M09 A3048 510 39 -600 190/06 RMK AO2
14926KSTC STC20041112134009911/12/04 13:40:31  5-MIN KSTC 121940Z AUTO 17005KT 10SM CLR 04/M09 A3048 510 39 -600 170/05 RMK AO2
14926KSTC STC20041112134509911/12/04 13:45:31  5-MIN KSTC 121945Z AUTO 16005KT 10SM CLR 04/M09 A3048 510 39 -600 160/05 RMK AO2
14926KSTC STC20041112135013211/12/04 13:50:31  5-MIN KSTC 121950Z AUTO 18007KT 160V220 10SM CLR 04/M09 A3048 510 37 -500 180/07 160V220 RMK AO2 SLP345 T00441089
14926KSTC STC20041112135509911/12/04 13:55:31  5-MIN KSTC 121955Z AUTO 16007KT 10SM CLR 04/M09 A3048 510 37 -600 160/07 RMK AO2
14926KSTC STC20041112140009911/12/04 14:00:31  5-MIN KSTC 122000Z AUTO 21008KT 10SM CLR 04/M09 A3048 510 36 -600 200/08 RMK AO2
14926KSTC STC20041112140509911/12/04 14:05:31  5-MIN KSTC 122005Z AUTO 21007KT 10SM CLR 04/M09 A3048 510 36 -600 210/07 RMK AO2
14926KSTC STC20041112141009911/12/04 14:10:31  5-MIN KSTC 122010Z AUTO 22004KT 10SM CLR 04/M10 A3048 510 35 -600 210/04 RMK AO2
14926KSTC STC20041112141509911/12/04 14:15:31  5-MIN KSTC 122015Z AUTO 23007KT 10SM CLR 04/M10 A3048 510 34 -500 220/07 RMK AO2
14926KSTC STC20041112142009911/12/04 14:20:31  5-MIN KSTC 122020Z AUTO 21005KT 10SM CLR 04/M10 A3048 510 34 -500 210/05 RMK AO2
14926KSTC STC20041112142509911/12/04 14:25:31  5-MIN KSTC 122025Z AUTO 17004KT 10SM CLR 04/M10 A3048 520 34 -500 160/04 RMK AO2
14926KSTC STC20041112143009911/12/04 14:30:31  5-MIN KSTC 122030Z AUTO 23005KT 10SM CLR 04/M10 A3048 520 34 -500 230/05 RMK AO2
14926KSTC STC20041112143509911/12/04 14:35:31  5-MIN KSTC 122035Z AUTO 19007KT 10SM CLR 04/M10 A3048 520 34 -500 190/07 RMK AO2
14926KSTC STC20041112144009911/12/04 14:40:31  5-MIN KSTC 122040Z AUTO 20003KT 10SM CLR 04/M10 A3048 520 34 -500 200/03 RMK AO2
14926KSTC STC20041112144509911/12/04 14:45:31  5-MIN KSTC 122045Z AUTO 24006KT 10SM CLR 04/M10 A3048 520 34 -500 230/06 RMK AO2
14926KSTC STC20041112145012211/12/04 14:50:31  5-MIN KSTC 122050Z AUTO 20004KT 10SM CLR 04/M09 A3047 520 36 -500 200/04 RMK AO2 SLP344 T00441094 50002
14926KSTC STC20041112145509911/12/04 14:55:31  5-MIN KSTC 122055Z AUTO 22007KT 10SM CLR 04/M09 A3048 520 36 -500 210/07 RMK AO2
14926KSTC STC20041112150009911/12/04 15:00:31  5-MIN KSTC 122100Z AUTO 20006KT 10SM CLR 04/M09 A3047 520 37 -600 200/06 RMK AO2
14926KSTC STC20041112150509911/12/04 15:05:31  5-MIN KSTC 122105Z AUTO 20007KT 10SM CLR 04/M09 A3047 520 37 -600 200/07 RMK AO2
14926KSTC STC20041112151009911/12/04 15:10:31  5-MIN KSTC 122110Z AUTO 22005KT 10SM CLR 04/M09 A3047 520 37 -600 220/05 RMK AO2
14926KSTC STC20041112151509911/12/04 15:15:31  5-MIN KSTC 122115Z AUTO 20007KT 10SM CLR 04/M09 A3047 520 36 -500 190/07 RMK AO2
14926KSTC STC20041112152009911/12/04 15:20:31  5-MIN KSTC 122120Z AUTO 18006KT 10SM CLR 04/M09 A3047 520 39 -600 170/06 RMK AO2
14926KSTC STC20041112152509911/12/04 15:25:31  5-MIN KSTC 122125Z AUTO 18007KT 10SM CLR 04/M09 A3047 520 37 -600 180/07 RMK AO2
14926KSTC STC20041112153009911/12/04 15:30:31  5-MIN KSTC 122130Z AUTO 18007KT 10SM CLR 04/M09 A3047 520 37 -600 170/07 RMK AO2
14926KSTC STC20041112153509911/12/04 15:35:31  5-MIN KSTC 122135Z AUTO 18006KT 10SM CLR 04/M09 A3047 520 37 -600 180/06 RMK AO2
14926KSTC STC20041112154009911/12/04 15:40:31  5-MIN KSTC 122140Z AUTO 20006KT 10SM CLR 04/M09 A3047 520 37 -600 200/06 RMK AO2
14926KSTC STC20041112154509911/12/04 15:45:31  5-MIN KSTC 122145Z AUTO 19006KT 10SM CLR 04/M09 A3047 520 37 -600 190/06 RMK AO2
14926KSTC STC20041112155011611/12/04 15:50:31  5-MIN KSTC 122150Z AUTO 19005KT 10SM CLR 04/M09 A3047 520 37 -600 190/05 RMK AO2 SLP343 T00391094
14926KSTC STC20041112155509911/12/04 15:55:31  5-MIN KSTC 122155Z AUTO 18005KT 10SM CLR 03/M09 A3047 520 40 -700 180/05 RMK AO2
14926KSTC STC20041112160009911/12/04 16:00:31  5-MIN KSTC 122200Z AUTO 19005KT 10SM CLR 03/M09 A3048 520 39 -700 190/05 RMK AO2
14926KSTC STC20041112160509911/12/04 16:05:31  5-MIN KSTC 122205Z AUTO 19005KT 10SM CLR 03/M09 A3048 520 40 -700 190/05 RMK AO2
14926KSTC STC20041112161009911/12/04 16:10:31  5-MIN KSTC 122210Z AUTO 20004KT 10SM CLR 03/M09 A3048 520 42 -800 190/04 RMK AO2
14926KSTC STC20041112161509911/12/04 16:15:31  5-MIN KSTC 122215Z AUTO 19006KT 10SM CLR 03/M08 A3048 520 44 -800 190/06 RMK AO2
14926KSTC STC20041112162009911/12/04 16:20:31  5-MIN KSTC 122220Z AUTO 19005KT 10SM CLR 02/M08 A3048 520 45 -800 190/05 RMK AO2
14926KSTC STC20041112162509911/12/04 16:25:31  5-MIN KSTC 122225Z AUTO 19006KT 10SM CLR 02/M08 A3048 520 45 -800 190/06 RMK AO2
14926KSTC STC20041112163009911/12/04 16:30:31  5-MIN KSTC 122230Z AUTO 19005KT 10SM CLR 02/M08 A3048 520 47 -900 190/05 RMK AO2
14926KSTC STC20041112163509911/12/04 16:35:31  5-MIN KSTC 122235Z AUTO 19005KT 10SM CLR 02/M08 A3047 520 47 -900 190/05 RMK AO2
14926KSTC STC20041112164010011/12/04 16:40:31  5-MIN KSTC 122240Z AUTO 18005KT 10SM CLR 01/M08 A3047 520 49 -1000 170/05 RMK AO2
14926KSTC STC20041112164510011/12/04 16:45:31  5-MIN KSTC 122245Z AUTO 18006KT 10SM CLR 00/M08 A3047 520 53 -1100 180/06 RMK AO2
14926KSTC STC20041112165011711/12/04 16:50:31  5-MIN KSTC 122250Z AUTO 18005KT 10SM CLR 01/M08 A3047 520 51 -1000 180/05 RMK AO2 SLP344 T00061083
14926KSTC STC20041112165510011/12/04 16:55:31  5-MIN KSTC 122255Z AUTO 19005KT 10SM CLR 00/M08 A3047 520 53 -1100 180/05 RMK AO2
14926KSTC STC20041112170010011/12/04 17:00:31  5-MIN KSTC 122300Z AUTO 19004KT 10SM CLR 00/M08 A3047 520 53 -1100 180/04 RMK AO2
14926KSTC STC20041112170510011/12/04 17:05:31  5-MIN KSTC 122305Z AUTO 18003KT 10SM CLR 00/M09 A3047 520 51 -1100 180/03 RMK AO2
14926KSTC STC20041112171010011/12/04 17:10:31  5-MIN KSTC 122310Z AUTO 17003KT 10SM CLR 00/M09 A3048 520 51 -1100 170/03 RMK AO2
14926KSTC STC20041112171510011/12/04 17:15:31  5-MIN KSTC 122315Z AUTO 18003KT 10SM CLR 00/M09 A3048 520 51 -1100 170/03 RMK AO2
14926KSTC STC20041112172010011/12/04 17:20:31  5-MIN KSTC 122320Z AUTO 16003KT 10SM CLR 00/M09 A3048 510 51 -1100 150/03 RMK AO2
14926KSTC STC20041112172510111/12/04 17:25:31  5-MIN KSTC 122325Z AUTO 00000KT 10SM CLR M01/M09 A3048 510 53 -1200 000/00 RMK AO2
14926KSTC STC20041112173010111/12/04 17:30:31  5-MIN KSTC 122330Z AUTO 00000KT 10SM CLR M01/M09 A3048 510 53 -1200 000/00 RMK AO2
14926KSTC STC20041112173510011/12/04 17:35:31  5-MIN KSTC 122335Z AUTO 16003KT 10SM CLR 00/M09 A3048 510 51 -1100 160/03 RMK AO2
14926KSTC STC20041112174010111/12/04 17:40:31  5-MIN KSTC 122340Z AUTO 00000KT 10SM CLR M01/M09 A3049 510 55 -1300 000/00 RMK AO2
14926KSTC STC20041112174510111/12/04 17:45:31  5-MIN KSTC 122345Z AUTO 00000KT 10SM CLR M01/M09 A3049 500 55 -1300 000/00 RMK AO2
14926KSTC STC20041112175013611/12/04 17:50:31  5-MIN KSTC 122350Z AUTO 00000KT 10SM CLR M02/M09 A3049 500 60 -1400 000/00 RMK AO2 SLP352 T10221089 10044 21022 56010
14926KSTC STC20041112175510111/12/04 17:55:31  5-MIN KSTC 122355Z AUTO 00000KT 10SM CLR M02/M08 A3049 500 63 -1400 000/00 RMK AO2
14926KSTC STC20041112180010111/12/04 18:00:31  5-MIN KSTC 130000Z AUTO 00000KT 10SM CLR M02/M08 A3050 500 66 -1400 000/00 RMK AO2
14926KSTC STC20041112180510111/12/04 18:05:31  5-MIN KSTC 130005Z AUTO 00000KT 10SM CLR M02/M08 A3050 500 66 -1400 000/00 RMK AO2
14926KSTC STC20041112181010111/12/04 18:10:31  5-MIN KSTC 130010Z AUTO 00000KT 10SM CLR M03/M08 A3050 500 71 -1500 000/00 RMK AO2
14926KSTC STC20041112181510111/12/04 18:15:31  5-MIN KSTC 130015Z AUTO 00000KT 10SM CLR M02/M08 A3050 500 63 -1400 000/00 RMK AO2
14926KSTC STC20041112182010111/12/04 18:20:31  5-MIN KSTC 130020Z AUTO 00000KT 10SM CLR M03/M08 A3050 500 66 -1500 000/00 RMK AO2
14926KSTC STC20041112182510111/12/04 18:25:31  5-MIN KSTC 130025Z AUTO 15003KT 10SM CLR M03/M08 A3050 500 68 -1500 140/03 RMK AO2
14926KSTC STC20041112183010111/12/04 18:30:31  5-MIN KSTC 130030Z AUTO 14003KT 10SM CLR M04/M08 A3050 500 71 -1600 140/03 RMK AO2
14926KSTC STC20041112183510111/12/04 18:35:31  5-MIN KSTC 130035Z AUTO 14003KT 10SM CLR M04/M08 A3050 500 74 -1600 140/03 RMK AO2
14926KSTC STC20041112184010111/12/04 18:40:31  5-MIN KSTC 130040Z AUTO 15003KT 10SM CLR M04/M08 A3050 500 74 -1600 140/03 RMK AO2
14926KSTC STC20041112184510111/12/04 18:45:31  5-MIN KSTC 130045Z AUTO 00000KT 10SM CLR M04/M08 A3050 490 71 -1600 000/00 RMK AO2
14926KSTC STC20041112185011811/12/04 18:50:31  5-MIN KSTC 130050Z AUTO 00000KT 10SM CLR M04/M08 A3050 490 71 -1600 000/00 RMK AO2 SLP356 T10391083
14926KSTC STC20041112185510111/12/04 18:55:31  5-MIN KSTC 130055Z AUTO 16003KT 10SM CLR M04/M08 A3050 490 71 -1600 150/03 RMK AO2
14926KSTC STC20041112190010111/12/04 19:00:31  5-MIN KSTC 130100Z AUTO 16003KT 10SM CLR M04/M09 A3050 490 68 -1600 160/03 RMK AO2
14926KSTC STC20041112190510111/12/04 19:05:31  5-MIN KSTC 130105Z AUTO 15003KT 10SM CLR M04/M08 A3050 490 71 -1600 150/03 RMK AO2
14926KSTC STC20041112191010111/12/04 19:10:31  5-MIN KSTC 130110Z AUTO 15003KT 10SM CLR M03/M09 A3050 490 65 -1600 140/03 RMK AO2
14926KSTC STC20041112191510111/12/04 19:15:31  5-MIN KSTC 130115Z AUTO 15003KT 10SM CLR M04/M09 A3050 490 68 -1600 150/03 RMK AO2
14926KSTC STC20041112192010111/12/04 19:20:31  5-MIN KSTC 130120Z AUTO 16003KT 10SM CLR M03/M08 A3050 490 68 -1600 160/03 RMK AO2
14926KSTC STC20041112192510111/12/04 19:25:31  5-MIN KSTC 130125Z AUTO 16003KT 10SM CLR M04/M08 A3050 490 71 -1600 160/03 RMK AO2
14926KSTC STC20041112193010111/12/04 19:30:31  5-MIN KSTC 130130Z AUTO 15003KT 10SM CLR M04/M08 A3051 490 74 -1600 150/03 RMK AO2
14926KSTC STC20041112193510111/12/04 19:35:31  5-MIN KSTC 130135Z AUTO 15003KT 10SM CLR M04/M08 A3051 490 78 -1700 140/03 RMK AO2
14926KSTC STC20041112194010111/12/04 19:40:31  5-MIN KSTC 130140Z AUTO 00000KT 10SM CLR M04/M08 A3051 490 78 -1700 000/00 RMK AO2
14926KSTC STC20041112194510111/12/04 19:45:31  5-MIN KSTC 130145Z AUTO 00000KT 10SM CLR M04/M08 A3051 490 78 -1700 000/00 RMK AO2
14926KSTC STC20041112195011811/12/04 19:50:31  5-MIN KSTC 130150Z AUTO 15003KT 10SM CLR M04/M08 A3051 490 78 -1700 140/03 RMK AO2 SLP360 T10441078
14926KSTC STC20041112195510111/12/04 19:55:31  5-MIN KSTC 130155Z AUTO 14003KT 10SM CLR M04/M08 A3051 490 74 -1700 140/03 RMK AO2
14926KSTC STC20041112200010111/12/04 20:00:31  5-MIN KSTC 130200Z AUTO 14003KT 10SM CLR M04/M08 A3051 490 74 -1700 140/03 RMK AO2
14926KSTC STC20041112200510111/12/04 20:05:31  5-MIN KSTC 130205Z AUTO 00000KT 10SM CLR M04/M08 A3051 490 74 -1700 000/00 RMK AO2
14926KSTC STC20041112201010111/12/04 20:10:31  5-MIN KSTC 130210Z AUTO 00000KT 10SM CLR M05/M08 A3051 480 77 -1800 000/00 RMK AO2
14926KSTC STC20041112201510111/12/04 20:15:31  5-MIN KSTC 130215Z AUTO 00000KT 10SM CLR M05/M08 A3051 480 81 -1800 000/00 RMK AO2
14926KSTC STC20041112202010111/12/04 20:20:31  5-MIN KSTC 130220Z AUTO 00000KT 10SM CLR M06/M08 A3051 480 84 -1900 000/00 RMK AO2
14926KSTC STC20041112202510111/12/04 20:25:31  5-MIN KSTC 130225Z AUTO 14003KT 10SM CLR M05/M08 A3051 480 81 -1800 140/03 RMK AO2
14926KSTC STC20041112203010111/12/04 20:30:31  5-MIN KSTC 130230Z AUTO 14003KT 10SM CLR M05/M08 A3051 480 81 -1800 130/03 RMK AO2
14926KSTC STC20041112203510111/12/04 20:35:31  5-MIN KSTC 130235Z AUTO 13003KT 10SM CLR M05/M08 A3051 480 77 -1800 130/03 RMK AO2
14926KSTC STC20041112204010111/12/04 20:40:31  5-MIN KSTC 130240Z AUTO 00000KT 10SM CLR M06/M08 A3051 480 81 -1900 000/00 RMK AO2
14926KSTC STC20041112204510111/12/04 20:45:31  5-MIN KSTC 130245Z AUTO 00000KT 10SM CLR M06/M08 A3051 480 81 -1900 000/00 RMK AO2
14926KSTC STC20041112205012411/12/04 20:50:31  5-MIN KSTC 130250Z AUTO 00000KT 10SM CLR M06/M08 A3051 480 81 -1900 000/00 RMK AO2 SLP359 T10561083 53006
14926KSTC STC20041112205510111/12/04 20:55:31  5-MIN KSTC 130255Z AUTO 00000KT 10SM CLR M06/M08 A3051 480 84 -1900 000/00 RMK AO2
14926KSTC STC20041112210010111/12/04 21:00:31  5-MIN KSTC 130300Z AUTO 00000KT 10SM CLR M06/M08 A3051 480 84 -1900 000/00 RMK AO2
14926KSTC STC20041112210510111/12/04 21:05:31  5-MIN KSTC 130305Z AUTO 14003KT 10SM CLR M06/M08 A3051 480 84 -1900 130/03 RMK AO2
14926KSTC STC20041112211010111/12/04 21:10:31  5-MIN KSTC 130310Z AUTO 14003KT 10SM CLR M06/M08 A3052 480 84 -1900 140/03 RMK AO2
14926KSTC STC20041112211510111/12/04 21:15:31  5-MIN KSTC 130315Z AUTO 13003KT 10SM CLR M06/M08 A3052 480 84 -1900 130/03 RMK AO2
14926KSTC STC20041112212010111/12/04 21:20:31  5-MIN KSTC 130320Z AUTO 14003KT 10SM CLR M06/M08 A3052 480 84 -1900 130/03 RMK AO2
14926KSTC STC20041112212510111/12/04 21:25:31  5-MIN KSTC 130325Z AUTO 13003KT 10SM CLR M06/M09 A3052 480 77 -1900 130/03 RMK AO2
14926KSTC STC20041112213010111/12/04 21:30:31  5-MIN KSTC 130330Z AUTO 14003KT 10SM CLR M06/M09 A3052 480 77 -1900 130/03 RMK AO2
14926KSTC STC20041112213510111/12/04 21:35:31  5-MIN KSTC 130335Z AUTO 14003KT 10SM CLR M06/M09 A3052 480 77 -1900 130/03 RMK AO2
14926KSTC STC20041112214010111/12/04 21:40:31  5-MIN KSTC 130340Z AUTO 14003KT 10SM CLR M06/M09 A3052 480 81 -1900 130/03 RMK AO2
14926KSTC STC20041112214510111/12/04 21:45:31  5-MIN KSTC 130345Z AUTO 14004KT 10SM CLR M07/M09 A3051 480 84 -2000 130/04 RMK AO2
14926KSTC STC20041112215011811/12/04 21:50:31  5-MIN KSTC 130350Z AUTO 13004KT 10SM CLR M06/M09 A3051 480 81 -1900 130/04 RMK AO2 SLP358 T10611089
14926KSTC STC20041112215510111/12/04 21:55:31  5-MIN KSTC 130355Z AUTO 14004KT 10SM CLR M06/M09 A3051 480 74 -1900 130/04 RMK AO2
14926KSTC STC20041112220010111/12/04 22:00:31  5-MIN KSTC 130400Z AUTO 14004KT 10SM CLR M06/M09 A3051 480 74 -1900 140/04 RMK AO2
14926KSTC STC20041112220510111/12/04 22:05:31  5-MIN KSTC 130405Z AUTO 14004KT 10SM CLR M06/M09 A3051 480 74 -1900 140/04 RMK AO2
14926KSTC STC20041112221010111/12/04 22:10:31  5-MIN KSTC 130410Z AUTO 14004KT 10SM CLR M05/M09 A3051 480 71 -1800 140/04 RMK AO2
14926KSTC STC20041112221510111/12/04 22:15:31  5-MIN KSTC 130415Z AUTO 13003KT 10SM CLR M05/M09 A3051 480 71 -1800 130/03 RMK AO2
14926KSTC STC20041112222010111/12/04 22:20:31  5-MIN KSTC 130420Z AUTO 14003KT 10SM CLR M06/M09 A3051 480 74 -1900 130/03 RMK AO2
14926KSTC STC20041112222510111/12/04 22:25:31  5-MIN KSTC 130425Z AUTO 14003KT 10SM CLR M06/M09 A3051 480 74 -1900 130/03 RMK AO2
14926KSTC STC20041112223010111/12/04 22:30:31  5-MIN KSTC 130430Z AUTO 00000KT 10SM CLR M06/M09 A3051 480 77 -1900 000/00 RMK AO2
14926KSTC STC20041112223510111/12/04 22:35:31  5-MIN KSTC 130435Z AUTO 00000KT 10SM CLR M06/M09 A3051 480 77 -1900 000/00 RMK AO2
14926KSTC STC20041112224010111/12/04 22:40:31  5-MIN KSTC 130440Z AUTO 14003KT 10SM CLR M06/M09 A3051 480 77 -1900 140/03 RMK AO2
14926KSTC STC20041112224510111/12/04 22:45:31  5-MIN KSTC 130445Z AUTO 14003KT 10SM CLR M06/M09 A3051 480 74 -1900 140/03 RMK AO2
14926KSTC STC20041112225011811/12/04 22:50:31  5-MIN KSTC 130450Z AUTO 15003KT 10SM CLR M06/M09 A3051 480 77 -1800 140/03 RMK AO2 SLP356 T10561089
14926KSTC STC20041112225510111/12/04 22:55:31  5-MIN KSTC 130455Z AUTO 15003KT 10SM CLR M05/M09 A3051 490 71 -1800 150/03 RMK AO2
14926KSTC STC20041112230010111/12/04 23:00:31  5-MIN KSTC 130500Z AUTO 16003KT 10SM CLR M05/M09 A3051 490 71 -1800 150/03 RMK AO2
14926KSTC STC20041112230510111/12/04 23:05:31  5-MIN KSTC 130505Z AUTO 16003KT 10SM CLR M05/M09 A3051 490 71 -1800 150/03 RMK AO2
14926KSTC STC20041112231010111/12/04 23:10:31  5-MIN KSTC 130510Z AUTO 15003KT 10SM CLR M06/M09 A3051 490 74 -1800 150/03 RMK AO2
14926KSTC STC20041112231510111/12/04 23:15:31  5-MIN KSTC 130515Z AUTO 15003KT 10SM CLR M06/M09 A3051 490 74 -1800 140/03 RMK AO2
14926KSTC STC20041112232010111/12/04 23:20:31  5-MIN KSTC 130520Z AUTO 14003KT 10SM CLR M06/M09 A3051 490 77 -1900 140/03 RMK AO2
14926KSTC STC20041112232510111/12/04 23:25:31  5-MIN KSTC 130525Z AUTO 14003KT 10SM CLR M06/M09 A3051 480 74 -1800 140/03 RMK AO2
14926KSTC STC20041112233010111/12/04 23:30:31  5-MIN KSTC 130530Z AUTO 15003KT 10SM CLR M06/M09 A3051 480 77 -1900 140/03 RMK AO2
14926KSTC STC20041112233510111/12/04 23:35:31  5-MIN KSTC 130535Z AUTO 15003KT 10SM CLR M06/M09 A3051 490 74 -1800 150/03 RMK AO2
14926KSTC STC20041112234010111/12/04 23:40:31  5-MIN KSTC 130540Z AUTO 15004KT 10SM CLR M06/M09 A3051 480 74 -1800 150/04 RMK AO2
14926KSTC STC20041112234510111/12/04 23:45:31  5-MIN KSTC 130545Z AUTO 15004KT 10SM CLR M06/M09 A3051 480 77 -1900 150/04 RMK AO2
14926KSTC STC20041112235014611/12/04 23:50:31  5-MIN KSTC 130550Z AUTO 15004KT 10SM CLR M07/M09 A3051 490 81 -2000 150/04 RMK AO2 SLP355 T10671094 11022 21067 400441094 51006
14926KSTC STC20041112235510111/12/04 23:55:31  5-MIN KSTC 130555Z AUTO 14003KT 10SM CLR M07/M09 A3051 480 81 -2000 140/03 RMK AO2
14926KSTC STC20041113000010111/13/04 00:00:32  5-MIN KSTC 130600Z AUTO 13003KT 10SM CLR M06/M09 A3051 480 77 -1900 130/03 RMK AO2
14926KSTC STC20041113000510111/13/04 00:05:31  5-MIN KSTC 130605Z AUTO 00000KT 10SM CLR M06/M09 A3051 480 77 -1900 000/00 RMK AO2
14926KSTC STC20041113001010111/13/04 00:10:31  5-MIN KSTC 130610Z AUTO 00000KT 10SM CLR M07/M09 A3051 480 81 -2000 000/00 RMK AO2
14926KSTC STC20041113001510111/13/04 00:15:31  5-MIN KSTC 130615Z AUTO 14003KT 10SM CLR M07/M09 A3051 480 81 -2000 130/03 RMK AO2
14926KSTC STC20041113002010111/13/04 00:20:31  5-MIN KSTC 130620Z AUTO 14003KT 10SM CLR M06/M09 A3051 480 81 -1900 130/03 RMK AO2
14926KSTC STC20041113002510111/13/04 00:25:31  5-MIN KSTC 130625Z AUTO 13003KT 10SM CLR M06/M09 A3052 480 81 -1900 130/03 RMK AO2
14926KSTC STC20041113003010111/13/04 00:30:31  5-MIN KSTC 130630Z AUTO 13003KT 10SM CLR M06/M09 A3052 480 77 -1900 130/03 RMK AO2
14926KSTC STC20041113003510111/13/04 00:35:31  5-MIN KSTC 130635Z AUTO 14003KT 10SM CLR M06/M09 A3052 480 81 -1900 140/03 RMK AO2
14926KSTC STC20041113004010111/13/04 00:40:31  5-MIN KSTC 130640Z AUTO 00000KT 10SM CLR M06/M09 A3052 480 81 -1900 000/00 RMK AO2
14926KSTC STC20041113004510111/13/04 00:45:31  5-MIN KSTC 130645Z AUTO 00000KT 10SM CLR M07/M09 A3052 480 84 -2100 000/00 RMK AO2
14926KSTC STC20041113005011811/13/04 00:50:31  5-MIN KSTC 130650Z AUTO 14003KT 10SM CLR M07/M09 A3052 480 88 -2100 140/03 RMK AO2 SLP358 T10721089
14926KSTC STC20041113005510111/13/04 00:55:31  5-MIN KSTC 130655Z AUTO 14003KT 10SM CLR M07/M09 A3052 480 88 -2100 140/03 RMK AO2
14926KSTC STC20041113010010111/13/04 01:00:31  5-MIN KSTC 130700Z AUTO 14003KT 10SM CLR M07/M09 A3052 480 81 -2000 130/03 RMK AO2
14926KSTC STC20041113010510111/13/04 01:05:31  5-MIN KSTC 130705Z AUTO 14003KT 10SM CLR M07/M09 A3052 480 84 -2100 140/03 RMK AO2
14926KSTC STC20041113011010111/13/04 01:10:31  5-MIN KSTC 130710Z AUTO 14004KT 10SM CLR M07/M09 A3052 480 81 -2000 130/04 RMK AO2
14926KSTC STC20041113011510111/13/04 01:15:31  5-MIN KSTC 130715Z AUTO 14003KT 10SM CLR M07/M09 A3052 480 84 -2100 130/03 RMK AO2
14926KSTC STC20041113012010111/13/04 01:20:31  5-MIN KSTC 130720Z AUTO 14004KT 10SM CLR M07/M10 A3052 470 81 -2100 140/04 RMK AO2
14926KSTC STC20041113012510111/13/04 01:25:31  5-MIN KSTC 130725Z AUTO 14004KT 10SM CLR M07/M09 A3052 470 84 -2100 140/04 RMK AO2
14926KSTC STC20041113013010111/13/04 01:30:31  5-MIN KSTC 130730Z AUTO 14004KT 10SM CLR M08/M09 A3052 470 88 -2200 140/04 RMK AO2
14926KSTC STC20041113013510111/13/04 01:35:31  5-MIN KSTC 130735Z AUTO 14004KT 10SM CLR M07/M09 A3053 470 84 -2100 140/04 RMK AO2
14926KSTC STC20041113014010111/13/04 01:40:31  5-MIN KSTC 130740Z AUTO 14003KT 10SM CLR M07/M09 A3053 470 84 -2100 140/03 RMK AO2
14926KSTC STC20041113014510111/13/04 01:45:31  5-MIN KSTC 130745Z AUTO 00000KT 10SM CLR M07/M09 A3053 470 84 -2100 000/00 RMK AO2
14926KSTC STC20041113015011811/13/04 01:50:31  5-MIN KSTC 130750Z AUTO 00000KT 10SM CLR M07/M09 A3053 470 88 -2100 000/00 RMK AO2 SLP361 T10721089
14926KSTC STC20041113015510111/13/04 01:55:31  5-MIN KSTC 130755Z AUTO 00000KT 10SM CLR M07/M09 A3053 470 88 -2100 000/00 RMK AO2
14926KSTC STC20041113020010111/13/04 02:00:31  5-MIN KSTC 130800Z AUTO 00000KT 10SM CLR M07/M09 A3053 460 84 -2000 000/00 RMK AO2
14926KSTC STC20041113020510111/13/04 02:05:31  5-MIN KSTC 130805Z AUTO 00000KT 10SM CLR M07/M09 A3053 460 88 -2100 000/00 RMK AO2
14926KSTC STC20041113021010111/13/04 02:10:31  5-MIN KSTC 130810Z AUTO 00000KT 10SM CLR M07/M08 A3053 460 92 -2100 000/00 RMK AO2
14926KSTC STC20041113021510111/13/04 02:15:31  5-MIN KSTC 130815Z AUTO 00000KT 10SM CLR M07/M08 A3054 460 88 -2000 000/00 RMK AO2
14926KSTC STC20041113022010111/13/04 02:20:31  5-MIN KSTC 130820Z AUTO 14003KT 10SM CLR M07/M09 A3054 460 84 -2000 140/03 RMK AO2
14926KSTC STC20041113022510111/13/04 02:25:31  5-MIN KSTC 130825Z AUTO 14003KT 10SM CLR M07/M09 A3054 460 84 -2000 140/03 RMK AO2
14926KSTC STC20041113023010111/13/04 02:30:31  5-MIN KSTC 130830Z AUTO 13003KT 10SM CLR M07/M09 A3054 460 84 -2000 130/03 RMK AO2
14926KSTC STC20041113023510111/13/04 02:35:31  5-MIN KSTC 130835Z AUTO 14003KT 10SM CLR M07/M09 A3054 460 84 -2000 140/03 RMK AO2
14926KSTC STC20041113024010111/13/04 02:40:31  5-MIN KSTC 130840Z AUTO 14003KT 10SM CLR M07/M09 A3054 460 84 -2000 140/03 RMK AO2
14926KSTC STC20041113024510111/13/04 02:45:31  5-MIN KSTC 130845Z AUTO 14003KT 10SM CLR M07/M09 A3054 460 84 -2000 140/03 RMK AO2
14926KSTC STC20041113025012411/13/04 02:50:31  5-MIN KSTC 130850Z AUTO 14003KT 10SM CLR M07/M09 A3054 460 84 -2000 130/03 RMK AO2 SLP366 T10671089 55001
14926KSTC STC20041113025510111/13/04 02:55:31  5-MIN KSTC 130855Z AUTO 14003KT 10SM CLR M07/M09 A3054 460 88 -2100 130/03 RMK AO2
14926KSTC STC20041113030010111/13/04 03:00:31  5-MIN KSTC 130900Z AUTO 14004KT 10SM CLR M08/M09 A3054 460 88 -2200 130/04 RMK AO2
14926KSTC STC20041113030510111/13/04 03:05:31  5-MIN KSTC 130905Z AUTO 14003KT 10SM CLR M07/M09 A3054 460 88 -2100 140/03 RMK AO2
14926KSTC STC20041113031010111/13/04 03:10:31  5-MIN KSTC 130910Z AUTO 14003KT 10SM CLR M07/M09 A3054 460 88 -2100 130/03 RMK AO2
14926KSTC STC20041113031510111/13/04 03:15:31  5-MIN KSTC 130915Z AUTO 14004KT 10SM CLR M07/M09 A3054 460 84 -2100 140/04 RMK AO2
14926KSTC STC20041113032010111/13/04 03:20:31  5-MIN KSTC 130920Z AUTO 14004KT 10SM CLR M07/M09 A3054 460 84 -2100 140/04 RMK AO2
14926KSTC STC20041113032510111/13/04 03:25:31  5-MIN KSTC 130925Z AUTO 14004KT 10SM CLR M07/M09 A3054 460 84 -2100 140/04 RMK AO2
14926KSTC STC20041113033010111/13/04 03:30:31  5-MIN KSTC 130930Z AUTO 14004KT 10SM CLR M07/M09 A3054 460 88 -2100 140/04 RMK AO2
14926KSTC STC20041113033510111/13/04 03:35:31  5-MIN KSTC 130935Z AUTO 15004KT 10SM CLR M07/M08 A3054 460 88 -2000 140/04 RMK AO2
14926KSTC STC20041113034010111/13/04 03:40:31  5-MIN KSTC 130940Z AUTO 15004KT 10SM CLR M07/M09 A3054 460 88 -2100 150/04 RMK AO2
14926KSTC STC20041113034510111/13/04 03:45:31  5-MIN KSTC 130945Z AUTO 15004KT 10SM CLR M07/M09 A3054 460 84 -2100 140/04 RMK AO2
14926KSTC STC20041113035011811/13/04 03:50:31  5-MIN KSTC 130950Z AUTO 14005KT 10SM CLR M07/M09 A3054 460 84 -2100 140/05 RMK AO2 SLP365 T10721094
14926KSTC STC20041113035510111/13/04 03:55:31  5-MIN KSTC 130955Z AUTO 14004KT 10SM CLR M07/M09 A3054 460 84 -2100 140/04 RMK AO2
14926KSTC STC20041113040010111/13/04 04:00:31  5-MIN KSTC 131000Z AUTO 14004KT 10SM CLR M07/M08 A3054 460 88 -2000 140/04 RMK AO2
14926KSTC STC20041113040510111/13/04 04:05:31  5-MIN KSTC 131005Z AUTO 14005KT 10SM CLR M07/M09 A3054 460 84 -2000 140/05 RMK AO2
14926KSTC STC20041113041010111/13/04 04:10:31  5-MIN KSTC 131010Z AUTO 15005KT 10SM CLR M07/M09 A3054 460 84 -2000 140/05 RMK AO2
14926KSTC STC20041113041510111/13/04 04:15:31  5-MIN KSTC 131015Z AUTO 15005KT 10SM CLR M07/M08 A3054 460 88 -2000 150/05 RMK AO2
14926KSTC STC20041113042010111/13/04 04:20:31  5-MIN KSTC 131020Z AUTO 15005KT 10SM CLR M07/M09 A3054 460 88 -2100 150/05 RMK AO2
14926KSTC STC20041113042510111/13/04 04:25:31  5-MIN KSTC 131025Z AUTO 15005KT 10SM CLR M07/M09 A3054 460 88 -2100 150/05 RMK AO2
14926KSTC STC20041113043010111/13/04 04:30:31  5-MIN KSTC 131030Z AUTO 15005KT 10SM CLR M07/M09 A3054 460 84 -2000 140/05 RMK AO2
14926KSTC STC20041113043510111/13/04 04:35:31  5-MIN KSTC 131035Z AUTO 14005KT 10SM CLR M06/M08 A3054 460 81 -1900 140/05 RMK AO2
14926KSTC STC20041113044010111/13/04 04:40:31  5-MIN KSTC 131040Z AUTO 14004KT 10SM CLR M06/M08 A3054 460 81 -1900 140/04 RMK AO2
14926KSTC STC20041113044510111/13/04 04:45:31  5-MIN KSTC 131045Z AUTO 14004KT 10SM CLR M06/M08 A3054 460 81 -1900 130/04 RMK AO2
14926KSTC STC20041113045011811/13/04 04:50:31  5-MIN KSTC 131050Z AUTO 14004KT 10SM CLR M06/M08 A3054 460 81 -1900 130/04 RMK AO2 SLP366 T10561083
14926KSTC STC20041113045510111/13/04 04:55:31  5-MIN KSTC 131055Z AUTO 14004KT 10SM CLR M06/M08 A3054 460 81 -1900 140/04 RMK AO2
14926KSTC STC20041113050010111/13/04 05:00:31  5-MIN KSTC 131100Z AUTO 14004KT 10SM CLR M06/M08 A3054 460 81 -1900 140/04 RMK AO2
14926KSTC STC20041113050510111/13/04 05:05:31  5-MIN KSTC 131105Z AUTO 14004KT 10SM CLR M06/M08 A3054 460 84 -2000 130/04 RMK AO2
14926KSTC STC20041113051010111/13/04 05:10:31  5-MIN KSTC 131110Z AUTO 13004KT 10SM CLR M06/M08 A3054 460 81 -1900 130/04 RMK AO2
14926KSTC STC20041113051510111/13/04 05:15:31  5-MIN KSTC 131115Z AUTO 14003KT 10SM CLR M06/M08 A3054 460 81 -1900 130/03 RMK AO2
14926KSTC STC20041113052010111/13/04 05:20:31  5-MIN KSTC 131120Z AUTO 13004KT 10SM CLR M07/M09 A3054 460 84 -2100 130/04 RMK AO2
14926KSTC STC20041113052510111/13/04 05:25:31  5-MIN KSTC 131125Z AUTO 14004KT 10SM CLR M07/M09 A3054 450 84 -2100 140/04 RMK AO2
14926KSTC STC20041113053010111/13/04 05:30:31  5-MIN KSTC 131130Z AUTO 14004KT 10SM CLR M07/M09 A3055 450 84 -2100 130/04 RMK AO2
14926KSTC STC20041113053510111/13/04 05:35:31  5-MIN KSTC 131135Z AUTO 14003KT 10SM CLR M07/M09 A3055 450 88 -2100 140/03 RMK AO2
14926KSTC STC20041113054010111/13/04 05:40:31  5-MIN KSTC 131140Z AUTO 14003KT 10SM CLR M07/M09 A3055 450 88 -2100 140/03 RMK AO2
14926KSTC STC20041113054510111/13/04 05:45:31  5-MIN KSTC 131145Z AUTO 14004KT 10SM CLR M08/M09 A3055 450 88 -2200 140/04 RMK AO2
14926KSTC STC20041113055013611/13/04 05:50:31  5-MIN KSTC 131150Z AUTO 14003KT 10SM CLR M08/M09 A3055 450 92 -2300 140/03 RMK AO2 SLP371 T10831094 11050 21083 53010
14926KSTC STC20041113055510111/13/04 05:55:31  5-MIN KSTC 131155Z AUTO 14004KT 10SM CLR M08/M09 A3055 450 92 -2300 140/04 RMK AO2
14926KSTC STC20041113060010111/13/04 06:00:31  5-MIN KSTC 131200Z AUTO 14003KT 10SM CLR M08/M09 A3055 450 88 -2200 130/03 RMK AO2
14926KSTC STC20041113060510111/13/04 06:05:31  5-MIN KSTC 131205Z AUTO 14003KT 10SM CLR M08/M09 A3055 450 92 -2200 130/03 RMK AO2
14926KSTC STC20041113061010111/13/04 06:10:31  5-MIN KSTC 131210Z AUTO 14003KT 10SM CLR M07/M08 A3055 450 92 -2100 130/03 RMK AO2
14926KSTC STC20041113061510111/13/04 06:15:31  5-MIN KSTC 131215Z AUTO 14003KT 10SM CLR M07/M09 A3055 450 88 -2100 140/03 RMK AO2
14926KSTC STC20041113062010111/13/04 06:20:31  5-MIN KSTC 131220Z AUTO 14003KT 10SM CLR M08/M09 A3055 450 88 -2200 130/03 RMK AO2
14926KSTC STC20041113062510111/13/04 06:25:31  5-MIN KSTC 131225Z AUTO 14004KT 10SM CLR M08/M09 A3055 450 88 -2200 140/04 RMK AO2
14926KSTC STC20041113063010111/13/04 06:30:31  5-MIN KSTC 131230Z AUTO 14004KT 10SM CLR M08/M09 A3055 450 92 -2300 140/04 RMK AO2
14926KSTC STC20041113063510111/13/04 06:35:31  5-MIN KSTC 131235Z AUTO 14004KT 10SM CLR M08/M10 A3055 450 88 -2300 140/04 RMK AO2
14926KSTC STC20041113064010111/13/04 06:40:31  5-MIN KSTC 131240Z AUTO 14004KT 10SM CLR M07/M09 A3055 450 84 -2100 140/04 RMK AO2
14926KSTC STC20041113064510111/13/04 06:45:31  5-MIN KSTC 131245Z AUTO 14005KT 10SM CLR M07/M09 A3055 450 84 -2000 140/05 RMK AO2
14926KSTC STC20041113065011811/13/04 06:50:31  5-MIN KSTC 131250Z AUTO 14006KT 10SM CLR M07/M09 A3055 450 84 -2000 140/06 RMK AO2 SLP371 T10671089
14926KSTC STC20041113065510111/13/04 06:55:31  5-MIN KSTC 131255Z AUTO 15006KT 10SM CLR M06/M08 A3055 450 84 -2000 150/06 RMK AO2
14926KSTC STC20041113070010111/13/04 07:00:31  5-MIN KSTC 131300Z AUTO 15006KT 10SM CLR M07/M08 A3055 450 88 -2000 150/06 RMK AO2
14926KSTC STC20041113070510111/13/04 07:05:31  5-MIN KSTC 131305Z AUTO 15006KT 10SM CLR M07/M08 A3055 450 88 -2000 150/06 RMK AO2
14926KSTC STC20041113071010111/13/04 07:10:31  5-MIN KSTC 131310Z AUTO 14006KT 10SM CLR M06/M08 A3055 450 84 -2000 140/06 RMK AO2
14926KSTC STC20041113071510111/13/04 07:15:31  5-MIN KSTC 131315Z AUTO 14006KT 10SM CLR M06/M08 A3055 450 81 -1900 140/06 RMK AO2
14926KSTC STC20041113072010111/13/04 07:20:31  5-MIN KSTC 131320Z AUTO 14006KT 10SM CLR M06/M08 A3055 450 81 -1900 140/06 RMK AO2
14926KSTC STC20041113072510111/13/04 07:25:31  5-MIN KSTC 131325Z AUTO 14005KT 10SM CLR M06/M08 A3055 450 81 -1900 140/05 RMK AO2
14926KSTC STC20041113073010111/13/04 07:30:31  5-MIN KSTC 131330Z AUTO 14005KT 10SM CLR M06/M08 A3055 450 81 -1900 140/05 RMK AO2
14926KSTC STC20041113073510111/13/04 07:35:31  5-MIN KSTC 131335Z AUTO 15006KT 10SM CLR M06/M08 A3056 440 81 -1900 150/06 RMK AO2
14926KSTC STC20041113074010111/13/04 07:40:31  5-MIN KSTC 131340Z AUTO 15006KT 10SM CLR M06/M08 A3056 440 81 -1900 150/06 RMK AO2
14926KSTC STC20041113074510111/13/04 07:45:31  5-MIN KSTC 131345Z AUTO 15006KT 10SM CLR M06/M08 A3056 440 84 -1900 150/06 RMK AO2
14926KSTC STC20041113075011811/13/04 07:50:31  5-MIN KSTC 131350Z AUTO 16006KT 10SM CLR M06/M08 A3056 440 84 -1900 160/06 RMK AO2 SLP374 T10561078
14926KSTC STC20041113075510111/13/04 07:55:31  5-MIN KSTC 131355Z AUTO 16006KT 10SM CLR M05/M08 A3056 440 81 -1800 160/06 RMK AO2
14926KSTC STC20041113080010111/13/04 08:00:31  5-MIN KSTC 131400Z AUTO 17006KT 10SM CLR M05/M07 A3056 440 84 -1800 170/06 RMK AO2
14926KSTC STC20041113080510111/13/04 08:05:31  5-MIN KSTC 131405Z AUTO 18005KT 10SM CLR M05/M07 A3056 440 88 -1800 170/05 RMK AO2
14926KSTC STC20041113081010111/13/04 08:10:31  5-MIN KSTC 131410Z AUTO 18007KT 10SM CLR M04/M07 A3056 440 81 -1700 170/07 RMK AO2
14926KSTC STC20041113081510111/13/04 08:15:31  5-MIN KSTC 131415Z AUTO 18007KT 10SM CLR M03/M07 A3056 440 75 -1500 180/07 RMK AO2
14926KSTC STC20041113082010111/13/04 08:20:31  5-MIN KSTC 131420Z AUTO 18007KT 10SM CLR M03/M06 A3056 440 78 -1600 180/07 RMK AO2
14926KSTC STC20041113082510111/13/04 08:25:31  5-MIN KSTC 131425Z AUTO 18007KT 10SM CLR M03/M06 A3056 440 78 -1600 180/07 RMK AO2
14926KSTC STC20041113083010111/13/04 08:30:31  5-MIN KSTC 131430Z AUTO 18006KT 10SM CLR M02/M06 A3056 440 75 -1500 180/06 RMK AO2
14926KSTC STC20041113083510111/13/04 08:35:31  5-MIN KSTC 131435Z AUTO 19006KT 10SM CLR M02/M06 A3056 440 75 -1500 180/06 RMK AO2
14926KSTC STC20041113084010111/13/04 08:40:31  5-MIN KSTC 131440Z AUTO 19007KT 10SM CLR M02/M06 A3056 440 75 -1400 190/07 RMK AO2
14926KSTC STC20041113084510111/13/04 08:45:31  5-MIN KSTC 131445Z AUTO 20007KT 10SM CLR M01/M05 A3056 440 75 -1300 190/07 RMK AO2
14926KSTC STC20041113085012411/13/04 08:50:31  5-MIN KSTC 131450Z AUTO 20007KT 10SM CLR M01/M05 A3057 430 75 -1300 190/07 RMK AO2 SLP376 T10111050 53002
14926KSTC STC20041113085510111/13/04 08:55:31  5-MIN KSTC 131455Z AUTO 20008KT 10SM CLR M01/M05 A3057 430 75 -1300 200/08 RMK AO2
14926KSTC STC20041113090010111/13/04 09:00:31  5-MIN KSTC 131500Z AUTO 19008KT 10SM CLR M01/M06 A3057 430 69 -1300 190/08 RMK AO2
14926KSTC STC20041113090510111/13/04 09:05:31  5-MIN KSTC 131505Z AUTO 20008KT 10SM CLR M01/M06 A3057 430 69 -1300 190/08 RMK AO2
14926KSTC STC20041113091010011/13/04 09:10:31  5-MIN KSTC 131510Z AUTO 20008KT 10SM CLR 00/M06 A3057 430 66 -1200 200/08 RMK AO2
14926KSTC STC20041113091510011/13/04 09:15:31  5-MIN KSTC 131515Z AUTO 20009KT 10SM CLR 00/M05 A3057 430 69 -1200 190/09 RMK AO2
14926KSTC STC20041113092010011/13/04 09:20:31  5-MIN KSTC 131520Z AUTO 20010KT 10SM CLR 00/M06 A3057 430 66 -1200 200/10 RMK AO2
14926KSTC STC20041113092510011/13/04 09:25:31  5-MIN KSTC 131525Z AUTO 20010KT 10SM CLR 01/M05 A3057 430 66 -1100 200/10 RMK AO2
14926KSTC STC20041113093010011/13/04 09:30:31  5-MIN KSTC 131530Z AUTO 20010KT 10SM CLR 01/M06 A3057 430 61 -1100 200/10 RMK AO2
14926KSTC STC20041113093510011/13/04 09:35:31  5-MIN KSTC 131535Z AUTO 20009KT 10SM CLR 01/M06 A3057 430 61 -1100 200/09 RMK AO2
14926KSTC STC20041113094010011/13/04 09:40:31  5-MIN KSTC 131540Z AUTO 20011KT 10SM CLR 01/M06 A3057 430 61 -1100 200/11 RMK AO2
14926KSTC STC20041113094510011/13/04 09:45:31  5-MIN KSTC 131545Z AUTO 21009KT 10SM CLR 02/M06 A3057 430 56 -1000 210/09 RMK AO2
14926KSTC STC20041113095011611/13/04 09:50:31  5-MIN KSTC 131550Z AUTO 21010KT 10SM CLR 02/M06 A3057 430 54 -900 210/10 RMK AO2 SLP376 T00221061
14926KSTC STC20041113095509911/13/04 09:55:31  5-MIN KSTC 131555Z AUTO 21013KT 10SM CLR 02/M06 A3057 430 54 -900 200/13 RMK AO2
14926KSTC STC20041113100009911/13/04 10:00:31  5-MIN KSTC 131600Z AUTO 22011KT 10SM CLR 03/M07 A3057 430 50 -900 220/11 RMK AO2
14926KSTC STC20041113100509911/13/04 10:05:31  5-MIN KSTC 131605Z AUTO 21013KT 10SM CLR 03/M07 A3057 430 50 -900 210/13 RMK AO2
14926KSTC STC20041113101009911/13/04 10:10:31  5-MIN KSTC 131610Z AUTO 21013KT 10SM CLR 03/M07 A3057 430 48 -900 210/13 RMK AO2
14926KSTC STC20041113101509911/13/04 10:15:31  5-MIN KSTC 131615Z AUTO 21013KT 10SM CLR 03/M07 A3057 430 46 -800 200/13 RMK AO2
14926KSTC STC20041113102009911/13/04 10:20:31  5-MIN KSTC 131620Z AUTO 20014KT 10SM CLR 03/M07 A3057 430 46 -800 200/14 RMK AO2
14926KSTC STC20041113102509911/13/04 10:25:31  5-MIN KSTC 131625Z AUTO 21014KT 10SM CLR 04/M07 A3057 430 46 -700 200/14 RMK AO2
14926KSTC STC20041113103009911/13/04 10:30:31  5-MIN KSTC 131630Z AUTO 20014KT 10SM CLR 04/M07 A3057 430 44 -700 200/14 RMK AO2
14926KSTC STC20041113103509911/13/04 10:35:31  5-MIN KSTC 131635Z AUTO 22012KT 10SM CLR 04/M07 A3057 430 44 -700 210/12 RMK AO2
14926KSTC STC20041113104009911/13/04 10:40:31  5-MIN KSTC 131640Z AUTO 21014KT 10SM CLR 04/M07 A3057 430 44 -700 200/14 RMK AO2
14926KSTC STC20041113104509911/13/04 10:45:31  5-MIN KSTC 131645Z AUTO 21011KT 10SM CLR 04/M07 A3058 430 44 -700 210/11 RMK AO2
14926KSTC STC20041113105011611/13/04 10:50:31  5-MIN KSTC 131650Z AUTO 20012KT 10SM CLR 04/M07 A3057 430 42 -700 190/12 RMK AO2 SLP376 T00441072
14926KSTC STC20041113105509911/13/04 10:55:31  5-MIN KSTC 131655Z AUTO 20013KT 10SM CLR 04/M07 A3057 430 44 -700 190/13 RMK AO2
14926KSTC STC20041113110009911/13/04 11:00:31  5-MIN KSTC 131700Z AUTO 20012KT 10SM CLR 04/M07 A3057 430 44 -700 200/12 RMK AO2
14926KSTC STC20041113110509911/13/04 11:05:31  5-MIN KSTC 131705Z AUTO 21011KT 10SM CLR 05/M07 A3057 430 41 -600 200/11 RMK AO2
14926KSTC STC20041113111009911/13/04 11:10:31  5-MIN KSTC 131710Z AUTO 20011KT 10SM CLR 05/M07 A3057 430 42 -600 190/11 RMK AO2
14926KSTC STC20041113111509911/13/04 11:15:31  5-MIN KSTC 131715Z AUTO 21010KT 10SM CLR 06/M07 A3057 430 39 -500 210/10 RMK AO2
14926KSTC STC20041113112009911/13/04 11:20:31  5-MIN KSTC 131720Z AUTO 22013KT 10SM CLR 06/M07 A3057 430 39 -500 220/13 RMK AO2
14926KSTC STC20041113112509911/13/04 11:25:31  5-MIN KSTC 131725Z AUTO 20012KT 10SM CLR 06/M07 A3057 430 38 -400 200/12 RMK AO2
14926KSTC STC20041113113009911/13/04 11:30:31  5-MIN KSTC 131730Z AUTO 21011KT 10SM CLR 06/M08 A3057 430 37 -500 200/11 RMK AO2
14926KSTC STC20041113113509911/13/04 11:35:31  5-MIN KSTC 131735Z AUTO 20011KT 10SM CLR 06/M07 A3057 430 38 -400 200/11 RMK AO2
14926KSTC STC20041113114009911/13/04 11:40:31  5-MIN KSTC 131740Z AUTO 20014KT 10SM CLR 06/M08 A3057 440 36 -400 200/14 RMK AO2
14926KSTC STC20041113114509911/13/04 11:45:31  5-MIN KSTC 131745Z AUTO 21013KT 10SM CLR 06/M08 A3056 440 36 -400 200/13 RMK AO2
14926KSTC STC20041113115013411/13/04 11:50:31  5-MIN KSTC 131750Z AUTO 20013KT 10SM CLR 06/M08 A3056 440 36 -400 200/13 RMK AO2 SLP372 T00611078 10061 21083 53006
14926KSTC STC20041113115509911/13/04 11:55:31  5-MIN KSTC 131755Z AUTO 21013KT 10SM CLR 07/M08 A3056 440 35 -400 200/13 RMK AO2
14926KSTC STC20041113120009911/13/04 12:00:31  5-MIN KSTC 131800Z AUTO 21014KT 10SM CLR 07/M08 A3056 440 35 -400 200/14 RMK AO2
14926KSTC STC20041113120509911/13/04 12:05:31  5-MIN KSTC 131805Z AUTO 21013KT 10SM CLR 07/M08 A3056 440 33 -400 210/13 RMK AO2
14926KSTC STC20041113121009911/13/04 12:10:31  5-MIN KSTC 131810Z AUTO 21012KT 10SM CLR 07/M08 A3056 440 33 -300 200/12 RMK AO2
14926KSTC STC20041113121509911/13/04 12:15:31  5-MIN KSTC 131815Z AUTO 21012KT 10SM CLR 07/M08 A3056 440 35 -400 210/12 RMK AO2
14926KSTC STC20041113122009911/13/04 12:20:31  5-MIN KSTC 131820Z AUTO 20014KT 10SM CLR 07/M08 A3056 440 33 -300 200/14 RMK AO2
14926KSTC STC20041113122509911/13/04 12:25:31  5-MIN KSTC 131825Z AUTO 21015KT 10SM CLR 07/M08 A3056 440 32 -300 210/15 RMK AO2
14926KSTC STC20041113123009911/13/04 12:30:31  5-MIN KSTC 131830Z AUTO 22013KT 10SM CLR 07/M08 A3055 440 32 -300 210/13 RMK AO2
14926KSTC STC20041113123509911/13/04 12:35:31  5-MIN KSTC 131835Z AUTO 20014KT 10SM CLR 07/M08 A3055 450 32 -300 200/14 RMK AO2
14926KSTC STC20041113124009911/13/04 12:40:31  5-MIN KSTC 131840Z AUTO 20012KT 10SM CLR 07/M08 A3055 440 32 -300 200/12 RMK AO2
14926KSTC STC20041113124509911/13/04 12:45:31  5-MIN KSTC 131845Z AUTO 20015KT 10SM CLR 07/M08 A3055 450 32 -300 200/15 RMK AO2
14926KSTC STC20041113125011611/13/04 12:50:31  5-MIN KSTC 131850Z AUTO 20013KT 10SM CLR 07/M08 A3055 450 32 -300 200/13 RMK AO2 SLP368 T00721083
14926KSTC STC20041113125509911/13/04 12:55:31  5-MIN KSTC 131855Z AUTO 21012KT 10SM CLR 07/M08 A3055 450 32 -300 210/12 RMK AO2
14926KSTC STC20041113130009911/13/04 13:00:31  5-MIN KSTC 131900Z AUTO 21011KT 10SM CLR 07/M08 A3055 450 32 -300 210/11 RMK AO2
14926KSTC STC20041113130509911/13/04 13:05:31  5-MIN KSTC 131905Z AUTO 20012KT 10SM CLR 08/M09 A3055 450 29 -200 190/12 RMK AO2
14926KSTC STC20041113131009911/13/04 13:10:31  5-MIN KSTC 131910Z AUTO 19010KT 10SM CLR 08/M08 A3055 450 31 -200 190/10 RMK AO2
14926KSTC STC20041113131509911/13/04 13:15:31  5-MIN KSTC 131915Z AUTO 21010KT 10SM CLR 08/M08 A3055 450 31 -200 210/10 RMK AO2
14926KSTC STC20041113132009911/13/04 13:20:31  5-MIN KSTC 131920Z AUTO 20012KT 10SM CLR 08/M08 A3054 450 31 -200 200/12 RMK AO2
14926KSTC STC20041113132509911/13/04 13:25:31  5-MIN KSTC 131925Z AUTO 20013KT 10SM CLR 08/M09 A3054 460 29 -200 200/13 RMK AO2
14926KSTC STC20041113133009911/13/04 13:30:31  5-MIN KSTC 131930Z AUTO 19013KT 10SM CLR 08/M09 A3054 460 29 -200 190/13 RMK AO2
14926KSTC STC20041113133509911/13/04 13:35:31  5-MIN KSTC 131935Z AUTO 19014KT 10SM CLR 08/M09 A3054 460 28 -200 190/14 RMK AO2
14926KSTC STC20041113134009911/13/04 13:40:31  5-MIN KSTC 131940Z AUTO 19014KT 10SM CLR 08/M09 A3054 460 28 -200 190/14 RMK AO2
14926KSTC STC20041113134509911/13/04 13:45:31  5-MIN KSTC 131945Z AUTO 21013KT 10SM CLR 08/M10 A3054 460 27 -200 200/13 RMK AO2
14926KSTC STC20041113135011611/13/04 13:50:31  5-MIN KSTC 131950Z AUTO 21012KT 10SM CLR 08/M10 A3054 460 27 -200 210/12 RMK AO2 SLP363 T00781100
14926KSTC STC20041113135509911/13/04 13:55:31  5-MIN KSTC 131955Z AUTO 19013KT 10SM CLR 08/M10 A3054 460 26 -100 190/13 RMK AO2
14926KSTC STC20041113140009911/13/04 14:00:31  5-MIN KSTC 132000Z AUTO 20011KT 10SM CLR 08/M09 A3054 460 28 -200 200/11 RMK AO2
14926KSTC STC20041113140509911/13/04 14:05:31  5-MIN KSTC 132005Z AUTO 19012KT 10SM CLR 08/M09 A3054 460 28 -200 180/12 RMK AO2
14926KSTC STC20041113141009911/13/04 14:10:31  5-MIN KSTC 132010Z AUTO 20013KT 10SM CLR 08/M09 A3054 460 28 -200 200/13 RMK AO2
14926KSTC STC20041113141509911/13/04 14:15:31  5-MIN KSTC 132015Z AUTO 18011KT 10SM CLR 08/M09 A3054 460 27 -100 180/11 RMK AO2
14926KSTC STC20041113142009911/13/04 14:20:31  5-MIN KSTC 132020Z AUTO 19009KT 10SM CLR 08/M09 A3054 460 27 -100 180/09 RMK AO2
14926KSTC STC20041113142509911/13/04 14:25:31  5-MIN KSTC 132025Z AUTO 19012KT 10SM CLR 08/M09 A3053 460 27 -100 180/12 RMK AO2
14926KSTC STC20041113143009911/13/04 14:30:31  5-MIN KSTC 132030Z AUTO 19012KT 10SM CLR 08/M09 A3053 460 28 -200 180/12 RMK AO2
14926KSTC STC20041113143509911/13/04 14:35:31  5-MIN KSTC 132035Z AUTO 19012KT 10SM CLR 08/M10 A3053 460 26 -100 190/12 RMK AO2
14926KSTC STC20041113144009911/13/04 14:40:31  5-MIN KSTC 132040Z AUTO 19012KT 10SM CLR 08/M10 A3053 460 27 -200 180/12 RMK AO2
14926KSTC STC20041113144509911/13/04 14:45:31  5-MIN KSTC 132045Z AUTO 20010KT 10SM CLR 08/M10 A3054 460 27 -200 190/10 RMK AO2
14926KSTC STC20041113145012211/13/04 14:50:31  5-MIN KSTC 132050Z AUTO 19010KT 10SM CLR 08/M09 A3054 460 28 -200 190/10 RMK AO2 SLP362 T00781094 58002
14926KSTC STC20041113145509911/13/04 14:55:31  5-MIN KSTC 132055Z AUTO 20013KT 10SM CLR 08/M10 A3053 460 27 -200 190/13 RMK AO2
14926KSTC STC20041113150009911/13/04 15:00:31  5-MIN KSTC 132100Z AUTO 19011KT 10SM CLR 08/M10 A3053 460 27 -200 180/11 RMK AO2
14926KSTC STC20041113150509911/13/04 15:05:31  5-MIN KSTC 132105Z AUTO 20012KT 10SM CLR 08/M10 A3053 460 27 -200 190/12 RMK AO2
14926KSTC STC20041113151009911/13/04 15:10:31  5-MIN KSTC 132110Z AUTO 20013KT 10SM CLR 08/M10 A3054 460 27 -200 190/13 RMK AO2
14926KSTC STC20041113151509911/13/04 15:15:31  5-MIN KSTC 132115Z AUTO 20010KT 10SM CLR 08/M10 A3054 460 27 -200 200/10 RMK AO2
14926KSTC STC20041113152009911/13/04 15:20:31  5-MIN KSTC 132120Z AUTO 18010KT 10SM CLR 08/M09 A3054 460 28 -200 180/10 RMK AO2
14926KSTC STC20041113152509911/13/04 15:25:31  5-MIN KSTC 132125Z AUTO 18009KT 10SM CLR 08/M09 A3054 460 28 -200 180/09 RMK AO2
14926KSTC STC20041113153009911/13/04 15:30:31  5-MIN KSTC 132130Z AUTO 19008KT 10SM CLR 08/M09 A3054 460 29 -200 190/08 RMK AO2
14926KSTC STC20041113153509911/13/04 15:35:31  5-MIN KSTC 132135Z AUTO 20011KT 10SM CLR 08/M09 A3054 460 28 -200 190/11 RMK AO2
14926KSTC STC20041113154009911/13/04 15:40:31  5-MIN KSTC 132140Z AUTO 19011KT 10SM CLR 07/M09 A3054 460 31 -300 180/11 RMK AO2
14926KSTC STC20041113154509911/13/04 15:45:31  5-MIN KSTC 132145Z AUTO 19009KT 10SM CLR 07/M09 A3054 460 29 -300 180/09 RMK AO2
14926KSTC STC20041113155011611/13/04 15:50:31  5-MIN KSTC 132150Z AUTO 19010KT 10SM CLR 07/M09 A3054 460 31 -300 180/10 RMK AO2 SLP364 T00721089
14926KSTC STC20041113155509911/13/04 15:55:31  5-MIN KSTC 132155Z AUTO 20008KT 10SM CLR 07/M09 A3054 460 31 -300 190/08 RMK AO2
14926KSTC STC20041113160009911/13/04 16:00:31  5-MIN KSTC 132200Z AUTO 19010KT 10SM CLR 07/M09 A3054 460 31 -300 190/10 RMK AO2
14926KSTC STC20041113160509911/13/04 16:05:31  5-MIN KSTC 132205Z AUTO 20009KT 10SM CLR 07/M09 A3054 460 32 -300 190/09 RMK AO2
14926KSTC STC20041113161009911/13/04 16:10:31  5-MIN KSTC 132210Z AUTO 19010KT 10SM CLR 07/M09 A3054 460 32 -300 190/10 RMK AO2
14926KSTC STC20041113161509911/13/04 16:15:31  5-MIN KSTC 132215Z AUTO 18008KT 10SM CLR 07/M09 A3054 460 32 -300 180/08 RMK AO2
14926KSTC STC20041113162009911/13/04 16:20:31  5-MIN KSTC 132220Z AUTO 18007KT 10SM CLR 06/M09 A3054 460 33 -400 180/07 RMK AO2
14926KSTC STC20041113162509911/13/04 16:25:31  5-MIN KSTC 132225Z AUTO 18007KT 10SM CLR 06/M09 A3054 460 33 -400 180/07 RMK AO2
14926KSTC STC20041113163009911/13/04 16:30:31  5-MIN KSTC 132230Z AUTO 17007KT 10SM CLR 06/M09 A3054 460 34 -500 170/07 RMK AO2
14926KSTC STC20041113163509911/13/04 16:35:31  5-MIN KSTC 132235Z AUTO 17007KT 10SM CLR 04/M08 A3054 460 39 -600 170/07 RMK AO2
14926KSTC STC20041113164009911/13/04 16:40:31  5-MIN KSTC 132240Z AUTO 17007KT 10SM CLR 04/M08 A3054 460 40 -700 170/07 RMK AO2
14926KSTC STC20041113164509911/13/04 16:45:31  5-MIN KSTC 132245Z AUTO 17007KT 10SM CLR 03/M09 A3054 460 40 -800 170/07 RMK AO2
14926KSTC STC20041113165011611/13/04 16:50:31  5-MIN KSTC 132250Z AUTO 17007KT 10SM CLR 02/M09 A3054 460 44 -900 160/07 RMK AO2 SLP366 T00221089
14926KSTC STC20041113165510011/13/04 16:55:31  5-MIN KSTC 132255Z AUTO 16006KT 10SM CLR 02/M08 A3054 460 47 -1000 160/06 RMK AO2
14926KSTC STC20041113170009911/13/04 17:00:31  5-MIN KSTC 132300Z AUTO 15006KT 10SM CLR 02/M08 A3054 460 45 -900 150/06 RMK AO2
14926KSTC STC20041113170509911/13/04 17:05:31  5-MIN KSTC 132305Z AUTO 16007KT 10SM CLR 02/M08 A3054 460 45 -900 150/07 RMK AO2
14926KSTC STC20041113171010011/13/04 17:10:31  5-MIN KSTC 132310Z AUTO 16006KT 10SM CLR 02/M08 A3054 460 47 -1000 150/06 RMK AO2
14926KSTC STC20041113171510011/13/04 17:15:31  5-MIN KSTC 132315Z AUTO 16007KT 10SM CLR 01/M08 A3054 450 49 -1000 150/07 RMK AO2
14926KSTC STC20041113172010011/13/04 17:20:31  5-MIN KSTC 132320Z AUTO 16007KT 10SM CLR 01/M08 A3054 450 49 -1000 150/07 RMK AO2
14926KSTC STC20041113172510011/13/04 17:25:31  5-MIN KSTC 132325Z AUTO 15007KT 10SM CLR 01/M08 A3055 450 51 -1100 150/07 RMK AO2
14926KSTC STC20041113173010011/13/04 17:30:31  5-MIN KSTC 132330Z AUTO 15007KT 10SM CLR 01/M08 A3055 450 49 -1000 150/07 RMK AO2
14926KSTC STC20041113173510011/13/04 17:35:31  5-MIN KSTC 132335Z AUTO 15007KT 10SM CLR 01/M08 A3054 450 49 -1000 150/07 RMK AO2
14926KSTC STC20041113174010011/13/04 17:40:31  5-MIN KSTC 132340Z AUTO 15007KT 10SM CLR 01/M08 A3054 460 49 -1000 150/07 RMK AO2
14926KSTC STC20041113174510011/13/04 17:45:31  5-MIN KSTC 132345Z AUTO 15007KT 10SM CLR 01/M08 A3054 460 49 -1000 150/07 RMK AO2
14926KSTC STC20041113175013511/13/04 17:50:31  5-MIN KSTC 132350Z AUTO 15007KT 10SM CLR 01/M08 A3054 450 49 -1000 150/07 RMK AO2 SLP369 T00111083 10083 20006 56009
14926KSTC STC20041113175510011/13/04 17:55:31  5-MIN KSTC 132355Z AUTO 15007KT 10SM CLR 01/M08 A3055 450 49 -1000 150/07 RMK AO2
14926KSTC STC20041113180010011/13/04 18:00:31  5-MIN KSTC 140000Z AUTO 15008KT 10SM CLR 01/M08 A3055 450 49 -1000 150/08 RMK AO2
14926KSTC STC20041113180510011/13/04 18:05:31  5-MIN KSTC 140005Z AUTO 16008KT 10SM CLR 01/M08 A3055 450 51 -1100 150/08 RMK AO2
14926KSTC STC20041113181010011/13/04 18:10:31  5-MIN KSTC 140010Z AUTO 16007KT 10SM CLR 01/M08 A3055 450 51 -1100 150/07 RMK AO2
14926KSTC STC20041113181510011/13/04 18:15:31  5-MIN KSTC 140015Z AUTO 16007KT 10SM CLR 01/M08 A3055 450 54 -1100 160/07 RMK AO2
14926KSTC STC20041113182010011/13/04 18:20:31  5-MIN KSTC 140020Z AUTO 16007KT 10SM CLR 01/M08 A3055 450 54 -1100 160/07 RMK AO2
14926KSTC STC20041113182510011/13/04 18:25:31  5-MIN KSTC 140025Z AUTO 16007KT 10SM CLR 01/M08 A3055 450 51 -1100 150/07 RMK AO2
14926KSTC STC20041113183010011/13/04 18:30:31  5-MIN KSTC 140030Z AUTO 16007KT 10SM CLR 00/M08 A3055 450 56 -1200 160/07 RMK AO2
14926KSTC STC20041113183510011/13/04 18:35:31  5-MIN KSTC 140035Z AUTO 16008KT 10SM CLR 00/M08 A3055 450 56 -1200 160/08 RMK AO2
14926KSTC STC20041113184010011/13/04 18:40:31  5-MIN KSTC 140040Z AUTO 17007KT 10SM CLR 00/M08 A3055 450 56 -1200 160/07 RMK AO2
14926KSTC STC20041113184510111/13/04 18:45:31  5-MIN KSTC 140045Z AUTO 17007KT 10SM CLR M01/M08 A3055 450 58 -1300 160/07 RMK AO2
14926KSTC STC20041113185011711/13/04 18:50:31  5-MIN KSTC 140050Z AUTO 16008KT 10SM CLR 00/M08 A3055 450 56 -1200 160/08 RMK AO2 SLP370 T00001078
14926KSTC STC20041113185510011/13/04 18:55:31  5-MIN KSTC 140055Z AUTO 16008KT 10SM CLR 00/M08 A3055 450 56 -1200 160/08 RMK AO2
14926KSTC STC20041113190010011/13/04 19:00:31  5-MIN KSTC 140100Z AUTO 16008KT 10SM CLR 00/M08 A3055 450 56 -1200 160/08 RMK AO2
14926KSTC STC20041113190510011/13/04 19:05:31  5-MIN KSTC 140105Z AUTO 16008KT 10SM CLR 00/M08 A3055 450 56 -1200 160/08 RMK AO2
14926KSTC STC20041113191010111/13/04 19:10:31  5-MIN KSTC 140110Z AUTO 16008KT 10SM CLR M01/M08 A3055 450 58 -1300 160/08 RMK AO2
14926KSTC STC20041113191510111/13/04 19:15:31  5-MIN KSTC 140115Z AUTO 16008KT 10SM CLR M01/M08 A3055 450 58 -1300 160/08 RMK AO2
14926KSTC STC20041113192010011/13/04 19:20:31  5-MIN KSTC 140120Z AUTO 16008KT 10SM CLR 00/M08 A3055 450 56 -1200 160/08 RMK AO2
14926KSTC STC20041113192510111/13/04 19:25:31  5-MIN KSTC 140125Z AUTO 16008KT 10SM CLR M01/M08 A3055 450 58 -1300 160/08 RMK AO2
14926KSTC STC20041113193010111/13/04 19:30:31  5-MIN KSTC 140130Z AUTO 16008KT 10SM CLR M01/M08 A3055 450 58 -1300 160/08 RMK AO2
14926KSTC STC20041113193510111/13/04 19:35:31  5-MIN KSTC 140135Z AUTO 16008KT 10SM CLR M01/M08 A3055 450 58 -1300 160/08 RMK AO2
14926KSTC STC20041113194010011/13/04 19:40:31  5-MIN KSTC 140140Z AUTO 16008KT 10SM CLR 00/M08 A3055 450 56 -1200 160/08 RMK AO2
14926KSTC STC20041113194510011/13/04 19:45:31  5-MIN KSTC 140145Z AUTO 16008KT 10SM CLR 00/M08 A3055 450 56 -1200 160/08 RMK AO2
14926KSTC STC20041113195011811/13/04 19:50:31  5-MIN KSTC 140150Z AUTO 16008KT 10SM CLR M01/M08 A3055 450 58 -1300 160/08 RMK AO2 SLP368 T10061078
14926KSTC STC20041113195510111/13/04 19:55:31  5-MIN KSTC 140155Z AUTO 16008KT 10SM CLR M01/M08 A3055 450 58 -1300 160/08 RMK AO2
14926KSTC STC20041113200010111/13/04 20:00:31  5-MIN KSTC 140200Z AUTO 16008KT 10SM CLR M01/M08 A3055 450 58 -1300 160/08 RMK AO2
14926KSTC STC20041113200510111/13/04 20:05:31  5-MIN KSTC 140205Z AUTO 16008KT 10SM CLR M01/M08 A3055 450 58 -1300 160/08 RMK AO2
14926KSTC STC20041113201010111/13/04 20:10:31  5-MIN KSTC 140210Z AUTO 16008KT 10SM CLR M01/M08 A3055 450 58 -1300 160/08 RMK AO2
14926KSTC STC20041113201510111/13/04 20:15:31  5-MIN KSTC 140215Z AUTO 16008KT 10SM CLR M01/M08 A3055 450 58 -1300 150/08 RMK AO2
14926KSTC STC20041113202010111/13/04 20:20:31  5-MIN KSTC 140220Z AUTO 16007KT 10SM CLR M01/M08 A3055 450 58 -1300 150/07 RMK AO2
14926KSTC STC20041113202510111/13/04 20:25:31  5-MIN KSTC 140225Z AUTO 16007KT 10SM CLR M01/M08 A3055 450 58 -1300 150/07 RMK AO2
14926KSTC STC20041113203010111/13/04 20:30:31  5-MIN KSTC 140230Z AUTO 16007KT 10SM CLR M01/M08 A3055 450 58 -1300 150/07 RMK AO2
14926KSTC STC20041113203510111/13/04 20:35:31  5-MIN KSTC 140235Z AUTO 16007KT 10SM CLR M01/M08 A3055 450 58 -1300 150/07 RMK AO2
14926KSTC STC20041113204010111/13/04 20:40:31  5-MIN KSTC 140240Z AUTO 16007KT 10SM CLR M01/M08 A3055 450 58 -1300 160/07 RMK AO2
14926KSTC STC20041113204510111/13/04 20:45:31  5-MIN KSTC 140245Z AUTO 16007KT 10SM CLR M01/M08 A3055 450 58 -1300 160/07 RMK AO2
14926KSTC STC20041113205012411/13/04 20:50:31  5-MIN KSTC 140250Z AUTO 16007KT 10SM CLR M01/M08 A3055 450 58 -1300 160/07 RMK AO2 SLP369 T10061078 51004
14926KSTC STC20041113205510111/13/04 20:55:31  5-MIN KSTC 140255Z AUTO 16007KT 10SM CLR M01/M08 A3056 440 60 -1300 160/07 RMK AO2
14926KSTC STC20041113210010111/13/04 21:00:31  5-MIN KSTC 140300Z AUTO 17007KT 10SM CLR M02/M08 A3056 440 63 -1400 160/07 RMK AO2
14926KSTC STC20041113210510111/13/04 21:05:31  5-MIN KSTC 140305Z AUTO 17007KT 10SM CLR M02/M08 A3056 440 63 -1400 170/07 RMK AO2
14926KSTC STC20041113211010111/13/04 21:10:31  5-MIN KSTC 140310Z AUTO 17006KT 10SM CLR M02/M07 A3056 440 66 -1400 170/06 RMK AO2
14926KSTC STC20041113211510111/13/04 21:15:31  5-MIN KSTC 140315Z AUTO 17006KT 10SM CLR M02/M07 A3056 440 66 -1400 170/06 RMK AO2
14926KSTC STC20041113212010111/13/04 21:20:31  5-MIN KSTC 140320Z AUTO 17005KT 10SM CLR M02/M07 A3056 440 66 -1400 170/05 RMK AO2
14926KSTC STC20041113212510111/13/04 21:25:31  5-MIN KSTC 140325Z AUTO 17005KT 10SM CLR M01/M09 A3056 440 55 -1300 170/05 RMK AO2
14926KSTC STC20041113213010111/13/04 21:30:31  5-MIN KSTC 140330Z AUTO 17006KT 10SM CLR M01/M09 A3056 440 55 -1300 160/06 RMK AO2
14926KSTC STC20041113213510111/13/04 21:35:31  5-MIN KSTC 140335Z AUTO 17006KT 10SM CLR M01/M08 A3056 440 58 -1300 170/06 RMK AO2
14926KSTC STC20041113214010111/13/04 21:40:31  5-MIN KSTC 140340Z AUTO 17006KT 10SM CLR M01/M09 A3056 440 55 -1300 170/06 RMK AO2
14926KSTC STC20041113214510111/13/04 21:45:31  5-MIN KSTC 140345Z AUTO 17007KT 10SM CLR M01/M09 A3056 440 55 -1300 170/07 RMK AO2
14926KSTC STC20041113215011811/13/04 21:50:31  5-MIN KSTC 140350Z AUTO 17007KT 10SM CLR M01/M08 A3056 440 58 -1300 170/07 RMK AO2 SLP370 T10111083
14926KSTC STC20041113215510111/13/04 21:55:31  5-MIN KSTC 140355Z AUTO 17008KT 10SM CLR M01/M09 A3056 440 55 -1300 170/08 RMK AO2
14926KSTC STC20041113220010111/13/04 22:00:31  5-MIN KSTC 140400Z AUTO 17008KT 10SM CLR M01/M09 A3056 440 53 -1300 170/08 RMK AO2
14926KSTC STC20041113220510011/13/04 22:05:31  5-MIN KSTC 140405Z AUTO 17008KT 10SM CLR 00/M09 A3056 440 51 -1200 170/08 RMK AO2
14926KSTC STC20041113221010011/13/04 22:10:31  5-MIN KSTC 140410Z AUTO 17009KT 10SM CLR 01/M09 A3056 440 49 -1100 170/09 RMK AO2
14926KSTC STC20041113221510011/13/04 22:15:31  5-MIN KSTC 140415Z AUTO 17009KT 10SM CLR 01/M09 A3056 440 49 -1100 170/09 RMK AO2
14926KSTC STC20041113222010011/13/04 22:20:31  5-MIN KSTC 140420Z AUTO 17008KT 10SM CLR 00/M08 A3056 440 53 -1200 170/08 RMK AO2
14926KSTC STC20041113222510111/13/04 22:25:31  5-MIN KSTC 140425Z AUTO 18008KT 10SM CLR M01/M08 A3056 440 56 -1300 170/08 RMK AO2
14926KSTC STC20041113223010111/13/04 22:30:31  5-MIN KSTC 140430Z AUTO 17007KT 10SM CLR M01/M08 A3056 440 58 -1300 170/07 RMK AO2
14926KSTC STC20041113223510111/13/04 22:35:31  5-MIN KSTC 140435Z AUTO 17007KT 10SM CLR M01/M09 A3056 440 55 -1300 170/07 RMK AO2
14926KSTC STC20041113224010111/13/04 22:40:31  5-MIN KSTC 140440Z AUTO 18007KT 10SM CLR M02/M09 A3057 430 58 -1400 170/07 RMK AO2
14926KSTC STC20041113224510111/13/04 22:45:31  5-MIN KSTC 140445Z AUTO 18007KT 10SM CLR M02/M09 A3057 430 58 -1400 170/07 RMK AO2
14926KSTC STC20041113225011811/13/04 22:50:31  5-MIN KSTC 140450Z AUTO 18008KT 10SM CLR M02/M09 A3057 430 58 -1400 180/08 RMK AO2 SLP373 T10171089
14926KSTC STC20041113225510111/13/04 22:55:31  5-MIN KSTC 140455Z AUTO 18008KT 10SM CLR M02/M09 A3057 430 58 -1400 170/08 RMK AO2
14926KSTC STC20041113230010111/13/04 23:00:31  5-MIN KSTC 140500Z AUTO 18008KT 10SM CLR M01/M09 A3057 430 53 -1300 170/08 RMK AO2
14926KSTC STC20041113230510011/13/04 23:05:31  5-MIN KSTC 140505Z AUTO 18008KT 10SM CLR 00/M09 A3057 430 51 -1200 170/08 RMK AO2
14926KSTC STC20041113231010011/13/04 23:10:31  5-MIN KSTC 140510Z AUTO 18008KT 10SM CLR 00/M09 A3057 430 51 -1200 170/08 RMK AO2
14926KSTC STC20041113231510011/13/04 23:15:31  5-MIN KSTC 140515Z AUTO 18009KT 10SM CLR 01/M09 A3057 430 49 -1100 170/09 RMK AO2
14926KSTC STC20041113232010011/13/04 23:20:31  5-MIN KSTC 140520Z AUTO 18008KT 10SM CLR 01/M09 A3058 420 49 -1100 180/08 RMK AO2
14926KSTC STC20041113232510011/13/04 23:25:31  5-MIN KSTC 140525Z AUTO 18008KT 10SM CLR 01/M09 A3058 420 49 -1100 180/08 RMK AO2
14926KSTC STC20041113233010011/13/04 23:30:31  5-MIN KSTC 140530Z AUTO 18009KT 10SM CLR 01/M09 A3058 420 49 -1200 180/09 RMK AO2
14926KSTC STC20041113233510011/13/04 23:35:31  5-MIN KSTC 140535Z AUTO 18008KT 10SM CLR 01/M09 A3058 420 49 -1200 180/08 RMK AO2
14926KSTC STC20041113234010011/13/04 23:40:31  5-MIN KSTC 140540Z AUTO 18007KT 10SM CLR 00/M08 A3058 420 53 -1200 170/07 RMK AO2
14926KSTC STC20041113234510011/13/04 23:45:31  5-MIN KSTC 140545Z AUTO 18007KT 10SM CLR 00/M08 A3058 420 53 -1200 170/07 RMK AO2
14926KSTC STC20041113235014611/13/04 23:50:31  5-MIN KSTC 140550Z AUTO 17007KT 10SM CLR M01/M08 A3059 420 56 -1300 170/07 RMK AO2 SLP378 T10061083 10011 21017 400831083 53003
14926KSTC STC20041113235510111/13/04 23:55:31  5-MIN KSTC 140555Z AUTO 17006KT 10SM CLR M01/M08 A3059 420 56 -1300 170/06 RMK AO2
14926KSTC STC20041114000010111/14/04 00:00:32  5-MIN KSTC 140600Z AUTO 17006KT 10SM CLR M01/M08 A3059 420 58 -1400 160/06 RMK AO2
14926KSTC STC20041114000510111/14/04 00:05:31  5-MIN KSTC 140605Z AUTO 16005KT 10SM CLR M02/M08 A3059 410 60 -1400 160/05 RMK AO2
14926KSTC STC20041114001010111/14/04 00:10:31  5-MIN KSTC 140610Z AUTO 16005KT 10SM CLR M01/M08 A3059 410 58 -1400 160/05 RMK AO2
14926KSTC STC20041114001510111/14/04 00:15:31  5-MIN KSTC 140615Z AUTO 16006KT 10SM CLR M01/M08 A3059 410 58 -1400 160/06 RMK AO2
14926KSTC STC20041114002010111/14/04 00:20:31  5-MIN KSTC 140620Z AUTO 16006KT 10SM CLR M01/M08 A3059 410 58 -1400 160/06 RMK AO2
14926KSTC STC20041114002510111/14/04 00:25:31  5-MIN KSTC 140625Z AUTO 16005KT 10SM CLR M01/M08 A3059 410 58 -1400 150/05 RMK AO2
14926KSTC STC20041114003010111/14/04 00:30:31  5-MIN KSTC 140630Z AUTO 16005KT 10SM CLR M02/M08 A3059 410 60 -1400 150/05 RMK AO2
14926KSTC STC20041114003510111/14/04 00:35:31  5-MIN KSTC 140635Z AUTO 16005KT 10SM CLR M01/M08 A3059 410 58 -1400 160/05 RMK AO2
14926KSTC STC20041114004010111/14/04 00:40:31  5-MIN KSTC 140640Z AUTO 16005KT 10SM CLR M02/M08 A3059 410 63 -1500 160/05 RMK AO2
14926KSTC STC20041114004510111/14/04 00:45:31  5-MIN KSTC 140645Z AUTO 17005KT 10SM CLR M02/M08 A3059 410 63 -1500 170/05 RMK AO2
14926KSTC STC20041114005011811/14/04 00:50:31  5-MIN KSTC 140650Z AUTO 16005KT 10SM CLR M02/M08 A3059 410 63 -1500 160/05 RMK AO2 SLP379 T10221083
14926KSTC STC20041114005510111/14/04 00:55:31  5-MIN KSTC 140655Z AUTO 16005KT 10SM CLR M02/M08 A3059 410 60 -1400 150/05 RMK AO2
14926KSTC STC20041114010010111/14/04 01:00:31  5-MIN KSTC 140700Z AUTO 16005KT 10SM CLR M02/M08 A3059 410 63 -1500 160/05 RMK AO2
14926KSTC STC20041114010510111/14/04 01:05:31  5-MIN KSTC 140705Z AUTO 17006KT 10SM CLR M03/M08 A3059 410 68 -1600 170/06 RMK AO2
14926KSTC STC20041114011010111/14/04 01:10:31  5-MIN KSTC 140710Z AUTO 17006KT 10SM CLR M03/M08 A3059 410 68 -1600 170/06 RMK AO2
14926KSTC STC20041114011510111/14/04 01:15:31  5-MIN KSTC 140715Z AUTO 18006KT 10SM CLR M03/M08 A3059 410 68 -1600 170/06 RMK AO2
14926KSTC STC20041114012010111/14/04 01:20:31  5-MIN KSTC 140720Z AUTO 18006KT 10SM CLR M03/M08 A3059 410 68 -1600 170/06 RMK AO2
14926KSTC STC20041114012510111/14/04 01:25:31  5-MIN KSTC 140725Z AUTO 17007KT 10SM CLR M03/M08 A3059 410 68 -1600 170/07 RMK AO2
14926KSTC STC20041114013010111/14/04 01:30:31  5-MIN KSTC 140730Z AUTO 17006KT 10SM CLR M03/M08 A3059 410 68 -1600 170/06 RMK AO2
14926KSTC STC20041114013510111/14/04 01:35:31  5-MIN KSTC 140735Z AUTO 17007KT 10SM CLR M03/M08 A3060 410 68 -1600 170/07 RMK AO2
14926KSTC STC20041114014010111/14/04 01:40:31  5-MIN KSTC 140740Z AUTO 17006KT 10SM CLR M03/M08 A3060 410 68 -1600 170/06 RMK AO2
14926KSTC STC20041114014510111/14/04 01:45:31  5-MIN KSTC 140745Z AUTO 17006KT 10SM CLR M03/M08 A3060 410 68 -1600 170/06 RMK AO2
14926KSTC STC20041114015011811/14/04 01:50:31  5-MIN KSTC 140750Z AUTO 18005KT 10SM CLR M02/M08 A3060 400 66 -1500 170/05 RMK AO2 SLP383 T10221078
14926KSTC STC20041114015510111/14/04 01:55:31  5-MIN KSTC 140755Z AUTO 18005KT 10SM CLR M03/M08 A3060 400 68 -1600 180/05 RMK AO2
14926KSTC STC20041114020010111/14/04 02:00:31  5-MIN KSTC 140800Z AUTO 18006KT 10SM CLR M03/M08 A3060 400 68 -1600 180/06 RMK AO2
14926KSTC STC20041114020510111/14/04 02:05:31  5-MIN KSTC 140805Z AUTO 18006KT 10SM CLR M03/M08 A3060 400 68 -1600 180/06 RMK AO2
14926KSTC STC20041114021010111/14/04 02:10:31  5-MIN KSTC 140810Z AUTO 18006KT 10SM CLR M02/M08 A3061 400 63 -1500 180/06 RMK AO2
14926KSTC STC20041114021510111/14/04 02:15:31  5-MIN KSTC 140815Z AUTO 19006KT 10SM CLR M02/M08 A3061 400 63 -1500 180/06 RMK AO2
14926KSTC STC20041114022010111/14/04 02:20:31  5-MIN KSTC 140820Z AUTO 19006KT 10SM CLR M02/M07 A3061 400 66 -1500 180/06 RMK AO2
14926KSTC STC20041114022510111/14/04 02:25:31  5-MIN KSTC 140825Z AUTO 19006KT 10SM CLR M02/M07 A3061 400 69 -1500 190/06 RMK AO2
14926KSTC STC20041114023010111/14/04 02:30:31  5-MIN KSTC 140830Z AUTO 19006KT 10SM CLR M02/M08 A3061 400 66 -1500 190/06 RMK AO2
14926KSTC STC20041114023510111/14/04 02:35:31  5-MIN KSTC 140835Z AUTO 19005KT 10SM CLR M02/M07 A3061 400 69 -1500 190/05 RMK AO2
14926KSTC STC20041114024010111/14/04 02:40:31  5-MIN KSTC 140840Z AUTO 19005KT 10SM CLR M03/M08 A3061 390 68 -1600 190/05 RMK AO2
14926KSTC STC20041114024510111/14/04 02:45:31  5-MIN KSTC 140845Z AUTO 19005KT 10SM CLR M03/M08 A3061 390 68 -1600 190/05 RMK AO2
14926KSTC STC20041114025012411/14/04 02:50:31  5-MIN KSTC 140850Z AUTO 18005KT 10SM CLR M03/M07 A3061 390 71 -1600 180/05 RMK AO2 SLP387 T10281072 53010
14926KSTC STC20041114025510111/14/04 02:55:31  5-MIN KSTC 140855Z AUTO 19006KT 10SM CLR M03/M08 A3061 390 68 -1600 180/06 RMK AO2
14926KSTC STC20041114030010111/14/04 03:00:31  5-MIN KSTC 140900Z AUTO 19006KT 10SM CLR M02/M07 A3061 390 69 -1500 180/06 RMK AO2
14926KSTC STC20041114030510111/14/04 03:05:31  5-MIN KSTC 140905Z AUTO 18006KT 10SM CLR M02/M07 A3061 390 69 -1500 180/06 RMK AO2
14926KSTC STC20041114031010111/14/04 03:10:31  5-MIN KSTC 140910Z AUTO 18007KT 10SM CLR M03/M07 A3061 390 71 -1600 180/07 RMK AO2
14926KSTC STC20041114031510111/14/04 03:15:31  5-MIN KSTC 140915Z AUTO 18007KT 10SM CLR M03/M07 A3061 390 75 -1600 180/07 RMK AO2
14926KSTC STC20041114032010111/14/04 03:20:31  5-MIN KSTC 140920Z AUTO 18007KT 10SM CLR M03/M07 A3061 390 75 -1600 180/07 RMK AO2
14926KSTC STC20041114032510111/14/04 03:25:31  5-MIN KSTC 140925Z AUTO 18007KT 10SM CLR M02/M07 A3061 390 72 -1500 180/07 RMK AO2
14926KSTC STC20041114033010111/14/04 03:30:31  5-MIN KSTC 140930Z AUTO 18007KT 10SM CLR M02/M07 A3061 390 72 -1500 180/07 RMK AO2
14926KSTC STC20041114033510111/14/04 03:35:31  5-MIN KSTC 140935Z AUTO 18007KT 10SM CLR M02/M07 A3061 390 72 -1500 180/07 RMK AO2
14926KSTC STC20041114034010111/14/04 03:40:31  5-MIN KSTC 140940Z AUTO 18007KT 10SM CLR M02/M07 A3061 390 72 -1500 180/07 RMK AO2
14926KSTC STC20041114034510111/14/04 03:45:31  5-MIN KSTC 140945Z AUTO 18006KT 10SM CLR M02/M07 A3061 390 72 -1500 180/06 RMK AO2
14926KSTC STC20041114035011811/14/04 03:50:31  5-MIN KSTC 140950Z AUTO 18006KT 10SM CLR M02/M07 A3061 390 72 -1500 180/06 RMK AO2 SLP387 T10221067
14926KSTC STC20041114035510111/14/04 03:55:31  5-MIN KSTC 140955Z AUTO 18006KT 10SM CLR M03/M07 A3061 390 75 -1600 180/06 RMK AO2
14926KSTC STC20041114040010111/14/04 04:00:31  5-MIN KSTC 141000Z AUTO 18006KT 10SM CLR M03/M07 A3061 390 75 -1600 180/06 RMK AO2
14926KSTC STC20041114040510111/14/04 04:05:31  5-MIN KSTC 141005Z AUTO 18006KT 10SM CLR M02/M07 A3061 390 72 -1500 180/06 RMK AO2
14926KSTC STC20041114041010111/14/04 04:10:31  5-MIN KSTC 141010Z AUTO 18007KT 10SM CLR M02/M06 A3061 390 75 -1500 170/07 RMK AO2
14926KSTC STC20041114041510111/14/04 04:15:31  5-MIN KSTC 141015Z AUTO 17007KT 10SM CLR M03/M07 A3061 390 75 -1600 170/07 RMK AO2
14926KSTC STC20041114042010111/14/04 04:20:31  5-MIN KSTC 141020Z AUTO 17006KT 10SM CLR M03/M07 A3061 390 78 -1700 170/06 RMK AO2
14926KSTC STC20041114042510111/14/04 04:25:31  5-MIN KSTC 141025Z AUTO 17006KT 10SM CLR M04/M07 A3061 390 81 -1800 160/06 RMK AO2
14926KSTC STC20041114043010111/14/04 04:30:31  5-MIN KSTC 141030Z AUTO 17006KT 10SM CLR M04/M07 A3061 390 81 -1800 170/06 RMK AO2
14926KSTC STC20041114043510111/14/04 04:35:31  5-MIN KSTC 141035Z AUTO 16006KT 10SM CLR M03/M07 A3061 390 78 -1700 160/06 RMK AO2
14926KSTC STC20041114044010111/14/04 04:40:31  5-MIN KSTC 141040Z AUTO 16005KT 10SM CLR M03/M07 A3062 390 75 -1600 160/05 RMK AO2
14926KSTC STC20041114044510111/14/04 04:45:31  5-MIN KSTC 141045Z AUTO 16005KT 10SM CLR M03/M07 A3062 390 75 -1600 160/05 RMK AO2
14926KSTC STC20041114045011811/14/04 04:50:31  5-MIN KSTC 141050Z AUTO 16005KT 10SM CLR M03/M07 A3061 390 75 -1600 160/05 RMK AO2 SLP390 T10281067
14926KSTC STC20041114045510111/14/04 04:55:31  5-MIN KSTC 141055Z AUTO 16005KT 10SM CLR M03/M06 A3061 390 78 -1600 150/05 RMK AO2
14926KSTC STC20041114050010111/14/04 05:00:31  5-MIN KSTC 141100Z AUTO 16005KT 10SM CLR M03/M06 A3061 390 78 -1600 150/05 RMK AO2
14926KSTC STC20041114050510111/14/04 05:05:31  5-MIN KSTC 141105Z AUTO 15005KT 10SM CLR M03/M06 A3062 390 78 -1600 150/05 RMK AO2
14926KSTC STC20041114051010111/14/04 05:10:31  5-MIN KSTC 141110Z AUTO 16006KT 10SM CLR M03/M06 A3062 390 78 -1600 150/06 RMK AO2
14926KSTC STC20041114051510111/14/04 05:15:31  5-MIN KSTC 141115Z AUTO 16006KT 10SM CLR M03/M07 A3062 390 78 -1700 150/06 RMK AO2
14926KSTC STC20041114052010111/14/04 05:20:31  5-MIN KSTC 141120Z AUTO 16007KT 10SM CLR M03/M06 A3061 390 81 -1700 150/07 RMK AO2
14926KSTC STC20041114052510111/14/04 05:25:31  5-MIN KSTC 141125Z AUTO 16006KT 10SM CLR M03/M06 A3062 390 81 -1700 150/06 RMK AO2
14926KSTC STC20041114053010111/14/04 05:30:31  5-MIN KSTC 141130Z AUTO 16006KT 10SM CLR M03/M06 A3062 390 81 -1700 150/06 RMK AO2
14926KSTC STC20041114053510111/14/04 05:35:31  5-MIN KSTC 141135Z AUTO 16006KT 10SM CLR M03/M06 A3061 390 81 -1700 150/06 RMK AO2
14926KSTC STC20041114054010111/14/04 05:40:31  5-MIN KSTC 141140Z AUTO 16007KT 10SM CLR M04/M06 A3061 390 85 -1800 150/07 RMK AO2
14926KSTC STC20041114054510111/14/04 05:45:31  5-MIN KSTC 141145Z AUTO 16008KT 10SM CLR M04/M07 A3062 390 81 -1800 160/08 RMK AO2
14926KSTC STC20041114055013611/14/04 05:50:31  5-MIN KSTC 141150Z AUTO 16007KT 10SM CLR M04/M06 A3062 390 85 -1800 160/07 RMK AO2 SLP392 T10391061 11006 21039 53009
14926KSTC STC20041114055510111/14/04 05:55:31  5-MIN KSTC 141155Z AUTO 17007KT 10SM CLR M04/M07 A3062 390 84 -1800 160/07 RMK AO2
14926KSTC STC20041114060010111/14/04 06:00:31  5-MIN KSTC 141200Z AUTO 17006KT 10SM CLR M04/M07 A3062 390 84 -1800 160/06 RMK AO2
14926KSTC STC20041114060510111/14/04 06:05:31  5-MIN KSTC 141205Z AUTO 16006KT 10SM CLR M04/M07 A3062 390 81 -1800 160/06 RMK AO2
14926KSTC STC20041114061010111/14/04 06:10:31  5-MIN KSTC 141210Z AUTO 16006KT 10SM CLR M04/M06 A3062 390 85 -1800 160/06 RMK AO2
14926KSTC STC20041114061510111/14/04 06:15:31  5-MIN KSTC 141215Z AUTO 17006KT 10SM CLR M04/M06 A3062 390 85 -1800 160/06 RMK AO2
14926KSTC STC20041114062010111/14/04 06:20:31  5-MIN KSTC 141220Z AUTO 17005KT 10SM CLR M04/M07 A3061 390 84 -1800 170/05 RMK AO2
14926KSTC STC20041114062510111/14/04 06:25:31  5-MIN KSTC 141225Z AUTO 17005KT 10SM CLR M04/M07 A3062 390 84 -1800 170/05 RMK AO2
14926KSTC STC20041114063010111/14/04 06:30:31  5-MIN KSTC 141230Z AUTO 17005KT 10SM CLR M04/M07 A3062 390 84 -1800 170/05 RMK AO2
14926KSTC STC20041114063510111/14/04 06:35:31  5-MIN KSTC 141235Z AUTO 17006KT 10SM CLR M05/M07 A3061 390 88 -1900 160/06 RMK AO2
14926KSTC STC20041114064010111/14/04 06:40:31  5-MIN KSTC 141240Z AUTO 16006KT 10SM CLR M05/M07 A3061 390 88 -1900 160/06 RMK AO2
14926KSTC STC20041114064510111/14/04 06:45:31  5-MIN KSTC 141245Z AUTO 16006KT 10SM CLR M05/M07 A3061 390 88 -1900 160/06 RMK AO2
14926KSTC STC20041114065011811/14/04 06:50:31  5-MIN KSTC 141250Z AUTO 16005KT 10SM CLR M05/M07 A3062 390 88 -1900 160/05 RMK AO2 SLP392 T10501067
14926KSTC STC20041114065510111/14/04 06:55:31  5-MIN KSTC 141255Z AUTO 16005KT 10SM CLR M04/M07 A3062 390 84 -1800 150/05 RMK AO2
14926KSTC STC20041114070010111/14/04 07:00:31  5-MIN KSTC 141300Z AUTO 15005KT 10SM CLR M04/M06 A3062 390 88 -1800 150/05 RMK AO2
14926KSTC STC20041114070510111/14/04 07:05:31  5-MIN KSTC 141305Z AUTO 15006KT 10SM CLR M04/M06 A3062 390 85 -1800 150/06 RMK AO2
14926KSTC STC20041114071010111/14/04 07:10:31  5-MIN KSTC 141310Z AUTO 15006KT 10SM CLR M04/M06 A3062 390 85 -1800 140/06 RMK AO2
14926KSTC STC20041114071510111/14/04 07:15:31  5-MIN KSTC 141315Z AUTO 15007KT 10SM CLR M04/M06 A3062 390 85 -1800 140/07 RMK AO2
14926KSTC STC20041114072010111/14/04 07:20:31  5-MIN KSTC 141320Z AUTO 15007KT 10SM CLR M04/M06 A3062 390 85 -1800 140/07 RMK AO2
14926KSTC STC20041114072510111/14/04 07:25:31  5-MIN KSTC 141325Z AUTO 14007KT 10SM CLR M04/M06 A3062 380 85 -1800 140/07 RMK AO2
14926KSTC STC20041114073010111/14/04 07:30:31  5-MIN KSTC 141330Z AUTO 14007KT 10SM CLR M04/M06 A3062 380 88 -1800 140/07 RMK AO2
14926KSTC STC20041114073510111/14/04 07:35:31  5-MIN KSTC 141335Z AUTO 15006KT 10SM CLR M04/M06 A3062 380 88 -1800 140/06 RMK AO2
14926KSTC STC20041114074010111/14/04 07:40:31  5-MIN KSTC 141340Z AUTO 15006KT 10SM CLR M04/M06 A3062 380 88 -1800 140/06 RMK AO2
14926KSTC STC20041114074510111/14/04 07:45:31  5-MIN KSTC 141345Z AUTO 14006KT 10SM CLR M04/M06 A3063 380 85 -1800 140/06 RMK AO2
14926KSTC STC20041114075011811/14/04 07:50:31  5-MIN KSTC 141350Z AUTO 15006KT 10SM CLR M04/M06 A3063 380 88 -1800 140/06 RMK AO2 SLP396 T10391056
14926KSTC STC20041114075510111/14/04 07:55:31  5-MIN KSTC 141355Z AUTO 15006KT 10SM CLR M03/M05 A3063 380 85 -1600 150/06 RMK AO2
14926KSTC STC20041114080010111/14/04 08:00:31  5-MIN KSTC 141400Z AUTO 15006KT 10SM CLR M03/M05 A3063 380 85 -1600 140/06 RMK AO2
14926KSTC STC20041114080510111/14/04 08:05:31  5-MIN KSTC 141405Z AUTO 15005KT 10SM CLR M03/M05 A3063 380 85 -1600 140/05 RMK AO2
14926KSTC STC20041114081010111/14/04 08:10:31  5-MIN KSTC 141410Z AUTO 15006KT 10SM CLR M03/M05 A3063 380 85 -1600 140/06 RMK AO2
14926KSTC STC20041114081510111/14/04 08:15:31  5-MIN KSTC 141415Z AUTO 15006KT 10SM CLR M03/M05 A3063 380 85 -1600 150/06 RMK AO2
14926KSTC STC20041114082010111/14/04 08:20:31  5-MIN KSTC 141420Z AUTO 15006KT 10SM CLR M03/M05 A3063 380 85 -1600 150/06 RMK AO2
14926KSTC STC20041114082510111/14/04 08:25:31  5-MIN KSTC 141425Z AUTO 15006KT 10SM CLR M03/M05 A3063 380 85 -1600 150/06 RMK AO2
14926KSTC STC20041114083010111/14/04 08:30:31  5-MIN KSTC 141430Z AUTO 16006KT 10SM CLR M03/M04 A3063 380 88 -1600 150/06 RMK AO2
14926KSTC STC20041114083510111/14/04 08:35:31  5-MIN KSTC 141435Z AUTO 16007KT 10SM CLR M02/M04 A3063 380 85 -1600 150/07 RMK AO2
14926KSTC STC20041114084010111/14/04 08:40:31  5-MIN KSTC 141440Z AUTO 16006KT 10SM CLR M02/M04 A3063 380 85 -1600 150/06 RMK AO2
14926KSTC STC20041114084510111/14/04 08:45:31  5-MIN KSTC 141445Z AUTO 15007KT 10SM CLR M02/M04 A3063 380 85 -1500 150/07 RMK AO2
14926KSTC STC20041114085012411/14/04 08:50:31  5-MIN KSTC 141450Z AUTO 16007KT 10SM CLR M02/M04 A3063 370 85 -1500 150/07 RMK AO2 SLP397 T10171039 53002
14926KSTC STC20041114085510111/14/04 08:55:31  5-MIN KSTC 141455Z AUTO 16006KT 10SM CLR M01/M04 A3063 370 81 -1400 160/06 RMK AO2
14926KSTC STC20041114090010111/14/04 09:00:31  5-MIN KSTC 141500Z AUTO 16006KT 10SM CLR M01/M04 A3063 370 78 -1300 160/06 RMK AO2
14926KSTC STC20041114090510111/14/04 09:05:31  5-MIN KSTC 141505Z AUTO 17007KT 10SM CLR M01/M04 A3063 370 78 -1300 170/07 RMK AO2
14926KSTC STC20041114091010011/14/04 09:10:31  5-MIN KSTC 141510Z AUTO 18006KT 10SM CLR 00/M04 A3063 380 75 -1300 170/06 RMK AO2
14926KSTC STC20041114091510011/14/04 09:15:31  5-MIN KSTC 141515Z AUTO 18007KT 10SM CLR 00/M03 A3063 370 78 -1300 180/07 RMK AO2
14926KSTC STC20041114092010011/14/04 09:20:31  5-MIN KSTC 141520Z AUTO 18008KT 10SM CLR 01/M03 A3063 370 75 -1200 180/08 RMK AO2
14926KSTC STC20041114092510011/14/04 09:25:31  5-MIN KSTC 141525Z AUTO 18008KT 10SM CLR 01/M03 A3063 370 75 -1200 180/08 RMK AO2
14926KSTC STC20041114093010011/14/04 09:30:31  5-MIN KSTC 141530Z AUTO 18007KT 10SM CLR 01/M03 A3063 370 72 -1100 180/07 RMK AO2
14926KSTC STC20041114093510011/14/04 09:35:31  5-MIN KSTC 141535Z AUTO 19008KT 10SM CLR 01/M03 A3063 380 72 -1100 180/08 RMK AO2
14926KSTC STC20041114094010011/14/04 09:40:31  5-MIN KSTC 141540Z AUTO 18007KT 10SM CLR 02/M03 A3063 380 69 -1100 180/07 RMK AO2
14926KSTC STC20041114094510011/14/04 09:45:31  5-MIN KSTC 141545Z AUTO 19009KT 10SM CLR 02/M03 A3063 380 69 -1100 190/09 RMK AO2
14926KSTC STC20041114095011711/14/04 09:50:31  5-MIN KSTC 141550Z AUTO 20008KT 10SM CLR 02/M03 A3063 380 67 -1000 190/08 RMK AO2 SLP393 T00221033
14926KSTC STC20041114095509911/14/04 09:55:31  5-MIN KSTC 141555Z AUTO 19009KT 10SM CLR 03/M03 A3063 380 64 -900 180/09 RMK AO2
14926KSTC STC20041114100009911/14/04 10:00:31  5-MIN KSTC 141600Z AUTO 19010KT 10SM CLR 03/M04 A3062 380 59 -900 190/10 RMK AO2
14926KSTC STC20041114100509911/14/04 10:05:31  5-MIN KSTC 141605Z AUTO 19012KT 10SM CLR 03/M04 A3062 380 59 -900 190/12 RMK AO2
14926KSTC STC20041114101009911/14/04 10:10:31  5-MIN KSTC 141610Z AUTO 20011KT 10SM CLR 03/M04 A3062 380 59 -900 200/11 RMK AO2
14926KSTC STC20041114101509911/14/04 10:15:31  5-MIN KSTC 141615Z AUTO 20010KT 10SM CLR 03/M04 A3062 380 59 -900 190/10 RMK AO2
14926KSTC STC20041114102009911/14/04 10:20:31  5-MIN KSTC 141620Z AUTO 19010KT 10SM CLR 03/M04 A3062 380 59 -900 180/10 RMK AO2
14926KSTC STC20041114102509911/14/04 10:25:31  5-MIN KSTC 141625Z AUTO 19011KT 10SM CLR 03/M04 A3062 380 59 -900 180/11 RMK AO2
14926KSTC STC20041114103009911/14/04 10:30:31  5-MIN KSTC 141630Z AUTO 19012KT 10SM CLR 03/M04 A3062 380 59 -800 190/12 RMK AO2
14926KSTC STC20041114103509911/14/04 10:35:31  5-MIN KSTC 141635Z AUTO 19012KT 10SM CLR 03/M04 A3062 390 59 -800 190/12 RMK AO2
14926KSTC STC20041114104009911/14/04 10:40:31  5-MIN KSTC 141640Z AUTO 19012KT 10SM CLR 03/M04 A3062 390 59 -800 190/12 RMK AO2
14926KSTC STC20041114104509911/14/04 10:45:31  5-MIN KSTC 141645Z AUTO 19010KT 10SM CLR 04/M04 A3062 390 57 -800 180/10 RMK AO2
14926KSTC STC20041114105011611/14/04 10:50:31  5-MIN KSTC 141650Z AUTO 19012KT 10SM CLR 04/M04 A3062 390 57 -800 180/12 RMK AO2 SLP390 T00391039
14926KSTC STC20041114105509911/14/04 10:55:31  5-MIN KSTC 141655Z AUTO 19009KT 10SM CLR 04/M04 A3062 390 57 -800 190/09 RMK AO2
14926KSTC STC20041114110009911/14/04 11:00:31  5-MIN KSTC 141700Z AUTO 19010KT 10SM CLR 04/M04 A3062 390 57 -800 190/10 RMK AO2
14926KSTC STC20041114110509911/14/04 11:05:31  5-MIN KSTC 141705Z AUTO 19010KT 10SM CLR 04/M04 A3061 390 55 -700 190/10 RMK AO2
14926KSTC STC20041114111009911/14/04 11:10:31  5-MIN KSTC 141710Z AUTO 20012KT 10SM CLR 04/M04 A3061 390 55 -700 200/12 RMK AO2
14926KSTC STC20041114111509911/14/04 11:15:31  5-MIN KSTC 141715Z AUTO 19011KT 10SM CLR 04/M04 A3061 390 55 -700 190/11 RMK AO2
14926KSTC STC20041114112009911/14/04 11:20:31  5-MIN KSTC 141720Z AUTO 20009KT 10SM CLR 04/M04 A3061 390 55 -700 200/09 RMK AO2
14926KSTC STC20041114112509911/14/04 11:25:31  5-MIN KSTC 141725Z AUTO 19007KT 10SM CLR 04/M04 A3061 400 55 -700 190/07 RMK AO2
14926KSTC STC20041114113009911/14/04 11:30:31  5-MIN KSTC 141730Z AUTO 19010KT 10SM CLR 04/M03 A3061 400 57 -700 190/10 RMK AO2
14926KSTC STC20041114113509911/14/04 11:35:31  5-MIN KSTC 141735Z AUTO 19010KT 10SM CLR 05/M03 A3060 400 55 -600 190/10 RMK AO2
14926KSTC STC20041114114009911/14/04 11:40:31  5-MIN KSTC 141740Z AUTO 20010KT 10SM CLR 05/M03 A3060 400 55 -600 200/10 RMK AO2
14926KSTC STC20041114114509911/14/04 11:45:31  5-MIN KSTC 141745Z AUTO 20009KT 10SM CLR 05/M03 A3060 400 55 -600 200/09 RMK AO2
14926KSTC STC20041114115013411/14/04 11:50:31  5-MIN KSTC 141750Z AUTO 19009KT 10SM CLR 05/M03 A3060 400 55 -600 190/09 RMK AO2 SLP382 T00501033 10050 21050 53004
14926KSTC STC20041114115509911/14/04 11:55:31  5-MIN KSTC 141755Z AUTO 19009KT 10SM CLR 05/M03 A3060 410 55 -600 180/09 RMK AO2
14926KSTC STC20041114120009911/14/04 12:00:31  5-MIN KSTC 141800Z AUTO 18008KT 10SM CLR 06/M03 A3059 410 53 -500 180/08 RMK AO2
14926KSTC STC20041114120509911/14/04 12:05:31  5-MIN KSTC 141805Z AUTO 17007KT 10SM CLR 06/M03 A3059 410 55 -500 160/07 RMK AO2
14926KSTC STC20041114121009911/14/04 12:10:31  5-MIN KSTC 141810Z AUTO 17007KT 10SM CLR 06/M03 A3059 410 55 -500 170/07 RMK AO2
14926KSTC STC20041114121509911/14/04 12:15:31  5-MIN KSTC 141815Z AUTO 18007KT 10SM CLR 06/M03 A3059 410 55 -500 180/07 RMK AO2
14926KSTC STC20041114122009911/14/04 12:20:31  5-MIN KSTC 141820Z AUTO 18010KT 10SM CLR 06/M03 A3059 420 53 -500 180/10 RMK AO2
14926KSTC STC20041114122509911/14/04 12:25:31  5-MIN KSTC 141825Z AUTO 18007KT 10SM CLR 06/M03 A3058 420 51 -500 180/07 RMK AO2
14926KSTC STC20041114123009911/14/04 12:30:31  5-MIN KSTC 141830Z AUTO 19008KT 10SM CLR 06/M03 A3058 420 53 -500 190/08 RMK AO2
14926KSTC STC20041114123509911/14/04 12:35:31  5-MIN KSTC 141835Z AUTO 17009KT 10SM CLR 06/M03 A3058 420 53 -500 170/09 RMK AO2
14926KSTC STC20041114124009911/14/04 12:40:31  5-MIN KSTC 141840Z AUTO 17008KT 10SM CLR 06/M03 A3058 420 53 -500 170/08 RMK AO2
14926KSTC STC20041114124509911/14/04 12:45:31  5-MIN KSTC 141845Z AUTO 19009KT 10SM CLR 06/M03 A3057 430 51 -500 180/09 RMK AO2
14926KSTC STC20041114125011611/14/04 12:50:31  5-MIN KSTC 141850Z AUTO 19009KT 10SM CLR 06/M03 A3057 430 53 -500 180/09 RMK AO2 SLP374 T00561033
14926KSTC STC20041114125509911/14/04 12:55:31  5-MIN KSTC 141855Z AUTO 17009KT 10SM CLR 06/M03 A3057 430 51 -400 170/09 RMK AO2
14926KSTC STC20041114130009911/14/04 13:00:31  5-MIN KSTC 141900Z AUTO 18009KT 10SM CLR 06/M03 A3057 430 53 -400 180/09 RMK AO2
14926KSTC STC20041114130509911/14/04 13:05:31  5-MIN KSTC 141905Z AUTO 17007KT 10SM CLR 06/M03 A3057 430 53 -400 170/07 RMK AO2
14926KSTC STC20041114131009911/14/04 13:10:31  5-MIN KSTC 141910Z AUTO 18008KT 10SM CLR 06/M03 A3057 430 53 -400 180/08 RMK AO2
14926KSTC STC20041114131509911/14/04 13:15:31  5-MIN KSTC 141915Z AUTO 18007KT 10SM CLR 06/M03 A3057 430 53 -400 170/07 RMK AO2
14926KSTC STC20041114132009911/14/04 13:20:31  5-MIN KSTC 141920Z AUTO 16007KT 10SM CLR 07/M02 A3056 440 53 -400 160/07 RMK AO2
14926KSTC STC20041114132509911/14/04 13:25:31  5-MIN KSTC 141925Z AUTO 14008KT 10SM CLR 07/M02 A3056 440 53 -400 140/08 RMK AO2
14926KSTC STC20041114133009911/14/04 13:30:31  5-MIN KSTC 141930Z AUTO 17007KT 10SM CLR 07/M02 A3056 440 51 -300 170/07 RMK AO2
14926KSTC STC20041114133509911/14/04 13:35:31  5-MIN KSTC 141935Z AUTO 16009KT 10SM CLR 07/M03 A3056 440 49 -300 150/09 RMK AO2
14926KSTC STC20041114134009911/14/04 13:40:31  5-MIN KSTC 141940Z AUTO 16009KT 10SM CLR 07/M03 A3056 440 51 -400 160/09 RMK AO2
14926KSTC STC20041114134509911/14/04 13:45:31  5-MIN KSTC 141945Z AUTO 16007KT 10SM CLR 07/M03 A3056 440 49 -300 160/07 RMK AO2
14926KSTC STC20041114135011611/14/04 13:50:31  5-MIN KSTC 141950Z AUTO 17009KT 10SM CLR 07/M03 A3056 440 51 -400 170/09 RMK AO2 SLP368 T00671028
14926KSTC STC20041114135509911/14/04 13:55:31  5-MIN KSTC 141955Z AUTO 17008KT 10SM CLR 07/M03 A3056 440 51 -400 170/08 RMK AO2
14926KSTC STC20041114140009911/14/04 14:00:31  5-MIN KSTC 142000Z AUTO 15007KT 10SM CLR 07/M03 A3056 440 51 -400 140/07 RMK AO2
14926KSTC STC20041114140509911/14/04 14:05:31  5-MIN KSTC 142005Z AUTO 15008KT 10SM CLR 07/M02 A3055 450 53 -400 150/08 RMK AO2
14926KSTC STC20041114141009911/14/04 14:10:31  5-MIN KSTC 142010Z AUTO 16010KT 10SM CLR 07/M03 A3055 450 51 -400 150/10 RMK AO2
14926KSTC STC20041114141509911/14/04 14:15:31  5-MIN KSTC 142015Z AUTO 17009KT 10SM CLR 07/M03 A3055 450 49 -300 160/09 RMK AO2
14926KSTC STC20041114142009911/14/04 14:20:31  5-MIN KSTC 142020Z AUTO 16008KT 10SM CLR 07/M03 A3054 460 49 -300 160/08 RMK AO2
14926KSTC STC20041114142509911/14/04 14:25:31  5-MIN KSTC 142025Z AUTO 16008KT 10SM CLR 07/M03 A3054 460 49 -300 160/08 RMK AO2
14926KSTC STC20041114143009911/14/04 14:30:31  5-MIN KSTC 142030Z AUTO 15009KT 10SM CLR 07/M03 A3054 460 49 -300 150/09 RMK AO2
14926KSTC STC20041114143509911/14/04 14:35:31  5-MIN KSTC 142035Z AUTO 16009KT 10SM CLR 07/M03 A3054 460 49 -300 160/09 RMK AO2
14926KSTC STC20041114144009911/14/04 14:40:31  5-MIN KSTC 142040Z AUTO 16010KT 10SM CLR 07/M03 A3054 460 49 -300 150/10 RMK AO2
14926KSTC STC20041114144509911/14/04 14:45:31  5-MIN KSTC 142045Z AUTO 16009KT 10SM CLR 07/M03 A3054 460 49 -300 160/09 RMK AO2
14926KSTC STC20041114145012211/14/04 14:50:31  5-MIN KSTC 142050Z AUTO 16009KT 10SM CLR 07/M03 A3053 460 51 -300 160/09 RMK AO2 SLP360 T00671028 58010
14926KSTC STC20041114145509911/14/04 14:55:31  5-MIN KSTC 142055Z AUTO 14009KT 10SM CLR 07/M03 A3053 470 51 -300 140/09 RMK AO2
14926KSTC STC20041114150009911/14/04 15:00:31  5-MIN KSTC 142100Z AUTO 14009KT 10SM CLR 07/M03 A3053 470 51 -300 140/09 RMK AO2
14926KSTC STC20041114150509911/14/04 15:05:31  5-MIN KSTC 142105Z AUTO 16010KT 10SM CLR 07/M03 A3053 470 51 -300 150/10 RMK AO2
14926KSTC STC20041114151009911/14/04 15:10:31  5-MIN KSTC 142110Z AUTO 16009KT 10SM CLR 07/M03 A3053 470 51 -300 160/09 RMK AO2
14926KSTC STC20041114151509911/14/04 15:15:31  5-MIN KSTC 142115Z AUTO 16008KT 10SM CLR 07/M03 A3053 470 51 -300 160/08 RMK AO2
14926KSTC STC20041114152009911/14/04 15:20:31  5-MIN KSTC 142120Z AUTO 16008KT 10SM CLR 07/M03 A3053 470 51 -300 150/08 RMK AO2
14926KSTC STC20041114152509911/14/04 15:25:31  5-MIN KSTC 142125Z AUTO 14009KT 10SM CLR 07/M02 A3053 470 53 -300 140/09 RMK AO2
14926KSTC STC20041114153009911/14/04 15:30:31  5-MIN KSTC 142130Z AUTO 14009KT 10SM CLR 07/M02 A3053 470 53 -300 140/09 RMK AO2
14926KSTC STC20041114153509911/14/04 15:35:31  5-MIN KSTC 142135Z AUTO 15008KT 10SM CLR 06/M02 A3053 470 55 -400 140/08 RMK AO2
14926KSTC STC20041114154009911/14/04 15:40:31  5-MIN KSTC 142140Z AUTO 16010KT 10SM CLR 06/M03 A3052 470 53 -400 160/10 RMK AO2
14926KSTC STC20041114154509911/14/04 15:45:31  5-MIN KSTC 142145Z AUTO 15009KT 10SM CLR 06/M03 A3052 470 53 -400 150/09 RMK AO2
14926KSTC STC20041114155011611/14/04 15:50:31  5-MIN KSTC 142150Z AUTO 16008KT 10SM CLR 06/M03 A3052 470 53 -400 150/08 RMK AO2 SLP357 T00611028
14926KSTC STC20041114155509911/14/04 15:55:31  5-MIN KSTC 142155Z AUTO 15007KT 10SM CLR 06/M03 A3052 470 55 -500 140/07 RMK AO2
14926KSTC STC20041114160009911/14/04 16:00:31  5-MIN KSTC 142200Z AUTO 14007KT 10SM CLR 05/M03 A3052 470 57 -500 140/07 RMK AO2
14926KSTC STC20041114160509911/14/04 16:05:31  5-MIN KSTC 142205Z AUTO 13007KT 10SM CLR 06/M03 A3052 470 55 -500 130/07 RMK AO2
14926KSTC STC20041114161009911/14/04 16:10:31  5-MIN KSTC 142210Z AUTO 13005KT 10SM CLR 06/M02 A3052 470 57 -500 130/05 RMK AO2
14926KSTC STC20041114161509911/14/04 16:15:31  5-MIN KSTC 142215Z AUTO 13006KT 10SM CLR 06/M03 A3052 470 55 -500 130/06 RMK AO2
14926KSTC STC20041114162009911/14/04 16:20:31  5-MIN KSTC 142220Z AUTO 13005KT 10SM CLR 06/M03 A3052 470 55 -500 130/05 RMK AO2
14926KSTC STC20041114162509911/14/04 16:25:31  5-MIN KSTC 142225Z AUTO 14005KT 10SM CLR 05/M03 A3052 470 57 -500 140/05 RMK AO2
14926KSTC STC20041114163009911/14/04 16:30:31  5-MIN KSTC 142230Z AUTO 14005KT 10SM CLR 04/M03 A3052 470 62 -700 140/05 RMK AO2
14926KSTC STC20041114163509911/14/04 16:35:31  5-MIN KSTC 142235Z AUTO 14005KT 10SM CLR 03/M03 A3052 470 64 -700 130/05 RMK AO2
14926KSTC STC20041114164009911/14/04 16:40:31  5-MIN KSTC 142240Z AUTO 14005KT 10SM CLR 03/M03 A3052 480 67 -800 140/05 RMK AO2
14926KSTC STC20041114164509911/14/04 16:45:31  5-MIN KSTC 142245Z AUTO 14005KT 10SM CLR 03/M03 A3052 480 67 -800 140/05 RMK AO2
14926KSTC STC20041114165011611/14/04 16:50:31  5-MIN KSTC 142250Z AUTO 14005KT 10SM CLR 03/M03 A3052 480 67 -800 130/05 RMK AO2 SLP357 T00281028
14926KSTC STC20041114165509911/14/04 16:55:31  5-MIN KSTC 142255Z AUTO 13004KT 10SM CLR 03/M03 A3052 480 61 -700 120/04 RMK AO2
14926KSTC STC20041114170009911/14/04 17:00:31  5-MIN KSTC 142300Z AUTO 12004KT 10SM CLR 04/M03 A3052 480 62 -700 120/04 RMK AO2
14926KSTC STC20041114170509911/14/04 17:05:31  5-MIN KSTC 142305Z AUTO 12003KT 10SM CLR 04/M03 A3052 480 62 -700 120/03 RMK AO2
14926KSTC STC20041114171009911/14/04 17:10:31  5-MIN KSTC 142310Z AUTO 13004KT 10SM CLR 04/M03 A3052 480 59 -700 120/04 RMK AO2
14926KSTC STC20041114171509911/14/04 17:15:31  5-MIN KSTC 142315Z AUTO 13004KT 10SM CLR 03/M03 A3052 480 61 -700 120/04 RMK AO2
14926KSTC STC20041114172009911/14/04 17:20:31  5-MIN KSTC 142320Z AUTO 12004KT 10SM CLR 03/M03 A3052 480 64 -800 110/04 RMK AO2
14926KSTC STC20041114172509911/14/04 17:25:31  5-MIN KSTC 142325Z AUTO 11004KT 10SM CLR 03/M03 A3052 480 61 -700 110/04 RMK AO2
14926KSTC STC20041114173009911/14/04 17:30:31  5-MIN KSTC 142330Z AUTO 11004KT 10SM CLR 03/M03 A3052 480 61 -700 110/04 RMK AO2
14926KSTC STC20041114173509911/14/04 17:35:31  5-MIN KSTC 142335Z AUTO 11004KT 10SM CLR 03/M03 A3052 480 61 -700 110/04 RMK AO2
14926KSTC STC20041114174009911/14/04 17:40:31  5-MIN KSTC 142340Z AUTO 12005KT 10SM CLR 03/M03 A3052 480 64 -800 120/05 RMK AO2
14926KSTC STC20041114174509911/14/04 17:45:31  5-MIN KSTC 142345Z AUTO 12004KT 10SM CLR 03/M03 A3052 470 61 -700 120/04 RMK AO2
14926KSTC STC20041114175013411/14/04 17:50:31  5-MIN KSTC 142350Z AUTO 13003KT 10SM CLR 02/M04 A3052 470 66 -900 130/03 RMK AO2 SLP360 T00171039 10072 20017 56022
14926KSTC STC20041114175509911/14/04 17:55:31  5-MIN KSTC 142355Z AUTO 12004KT 10SM CLR 02/M04 A3052 480 66 -900 110/04 RMK AO2
14926KSTC STC20041114180009911/14/04 18:00:31  5-MIN KSTC 150000Z AUTO 11005KT 10SM CLR 02/M03 A3052 480 67 -900 100/05 RMK AO2
14926KSTC STC20041114180509911/14/04 18:05:31  5-MIN KSTC 150005Z AUTO 12004KT 10SM CLR 03/M03 A3052 470 64 -800 120/04 RMK AO2
14926KSTC STC20041114181010011/14/04 18:10:31  5-MIN KSTC 150010Z AUTO 12004KT 10SM CLR 01/M04 A3052 470 69 -1000 110/04 RMK AO2
14926KSTC STC20041114181510011/14/04 18:15:31  5-MIN KSTC 150015Z AUTO 11004KT 10SM CLR 01/M04 A3052 480 69 -1000 100/04 RMK AO2
14926KSTC STC20041114182009911/14/04 18:20:31  5-MIN KSTC 150020Z AUTO 11004KT 10SM CLR 03/M03 A3052 480 64 -800 110/04 RMK AO2
14926KSTC STC20041114182509911/14/04 18:25:31  5-MIN KSTC 150025Z AUTO 11004KT 10SM CLR 03/M03 A3052 480 64 -800 110/04 RMK AO2
14926KSTC STC20041114183009911/14/04 18:30:31  5-MIN KSTC 150030Z AUTO 10005KT 10SM CLR 02/M04 A3051 480 64 -900 100/05 RMK AO2
14926KSTC STC20041114183509911/14/04 18:35:31  5-MIN KSTC 150035Z AUTO 12004KT 10SM CLR 03/M03 A3052 480 64 -800 120/04 RMK AO2
14926KSTC STC20041114184009911/14/04 18:40:31  5-MIN KSTC 150040Z AUTO 12004KT 10SM CLR 02/M04 A3052 480 66 -900 110/04 RMK AO2
14926KSTC STC20041114184510011/14/04 18:45:31  5-MIN KSTC 150045Z AUTO 11005KT 10SM CLR 01/M04 A3051 480 69 -1000 110/05 RMK AO2
14926KSTC STC20041114185011611/14/04 18:50:31  5-MIN KSTC 150050Z AUTO 11005KT 10SM CLR 02/M04 A3051 490 64 -900 100/05 RMK AO2 SLP355 T00221039
14926KSTC STC20041114185509911/14/04 18:55:31  5-MIN KSTC 150055Z AUTO 12005KT 10SM CLR 02/M03 A3052 480 67 -900 120/05 RMK AO2
14926KSTC STC20041114190010011/14/04 19:00:31  5-MIN KSTC 150100Z AUTO 13004KT 10SM CLR 01/M04 A3052 480 72 -1100 130/04 RMK AO2
14926KSTC STC20041114190510011/14/04 19:05:31  5-MIN KSTC 150105Z AUTO 12004KT 10SM CLR 01/M04 A3052 480 72 -1100 120/04 RMK AO2
14926KSTC STC20041114191010011/14/04 19:10:31  5-MIN KSTC 150110Z AUTO 11003KT 10SM CLR 01/M04 A3052 480 72 -1100 110/03 RMK AO2
14926KSTC STC20041114191510011/14/04 19:15:31  5-MIN KSTC 150115Z AUTO 11003KT 10SM CLR 01/M04 A3052 480 72 -1100 110/03 RMK AO2
14926KSTC STC20041114192010011/14/04 19:20:31  5-MIN KSTC 150120Z AUTO VRB03KT 10SM CLR 01/M04 A3052 480 72 -1100 VRB/03 RMK AO2
14926KSTC STC20041114192510011/14/04 19:25:31  5-MIN KSTC 150125Z AUTO 08003KT 10SM CLR 00/M04 A3051 490 75 -1100 080/03 RMK AO2
14926KSTC STC20041114193010011/14/04 19:30:31  5-MIN KSTC 150130Z AUTO 11004KT 10SM CLR 01/M04 A3051 490 72 -1100 100/04 RMK AO2
14926KSTC STC20041114193510011/14/04 19:35:31  5-MIN KSTC 150135Z AUTO 13005KT 10SM CLR 01/M03 A3051 480 72 -1000 120/05 RMK AO2
14926KSTC STC20041114194010011/14/04 19:40:31  5-MIN KSTC 150140Z AUTO 13004KT 10SM CLR 00/M04 A3051 480 75 -1100 130/04 RMK AO2
14926KSTC STC20041114194510111/14/04 19:45:31  5-MIN KSTC 150145Z AUTO 12004KT 10SM CLR M01/M04 A3051 480 78 -1200 110/04 RMK AO2
14926KSTC STC20041114195011611/14/04 19:50:31  5-MIN KSTC 150150Z AUTO 12004KT 10SM CLR 02/M03 A3051 480 69 -900 120/04 RMK AO2 SLP356 T00171033
14926KSTC STC20041114195510011/14/04 19:55:31  5-MIN KSTC 150155Z AUTO 13003KT 10SM CLR 01/M03 A3051 480 72 -1000 130/03 RMK AO2
14926KSTC STC20041114200010111/14/04 20:00:31  5-MIN KSTC 150200Z AUTO 14004KT 10SM CLR M01/M03 A3051 480 81 -1200 140/04 RMK AO2
14926KSTC STC20041114200510111/14/04 20:05:31  5-MIN KSTC 150205Z AUTO 14005KT 10SM CLR M01/M04 A3051 480 81 -1300 140/05 RMK AO2
14926KSTC STC20041114201010111/14/04 20:10:31  5-MIN KSTC 150210Z AUTO 13005KT 10SM CLR M01/M04 A3051 480 81 -1300 130/05 RMK AO2
14926KSTC STC20041114201510111/14/04 20:15:31  5-MIN KSTC 150215Z AUTO 13005KT 10SM CLR M01/M04 A3051 490 78 -1200 130/05 RMK AO2
14926KSTC STC20041114202010011/14/04 20:20:31  5-MIN KSTC 150220Z AUTO 13005KT 10SM CLR 00/M03 A3051 490 78 -1100 130/05 RMK AO2
14926KSTC STC20041114202510011/14/04 20:25:31  5-MIN KSTC 150225Z AUTO 14006KT 10SM CLR 00/M03 A3051 480 78 -1100 140/06 RMK AO2
14926KSTC STC20041114203010111/14/04 20:30:31  5-MIN KSTC 150230Z AUTO 14005KT 10SM CLR M01/M04 A3051 480 81 -1300 130/05 RMK AO2
14926KSTC STC20041114203510111/14/04 20:35:31  5-MIN KSTC 150235Z AUTO 13005KT 10SM CLR M02/M04 A3051 480 85 -1400 130/05 RMK AO2
14926KSTC STC20041114204010111/14/04 20:40:31  5-MIN KSTC 150240Z AUTO 13004KT 10SM CLR M01/M04 A3051 480 78 -1200 130/04 RMK AO2
14926KSTC STC20041114204510111/14/04 20:45:31  5-MIN KSTC 150245Z AUTO 14004KT 10SM CLR M01/M03 A3051 480 81 -1200 130/04 RMK AO2
14926KSTC STC20041114205012311/14/04 20:50:31  5-MIN KSTC 150250Z AUTO 13003KT 10SM CLR 00/M03 A3051 480 78 -1100 130/03 RMK AO2 SLP355 T00001033 55003
14926KSTC STC20041114205510011/14/04 20:55:31  5-MIN KSTC 150255Z AUTO 00000KT 10SM CLR 00/M03 A3051 480 78 -1100 000/00 RMK AO2
14926KSTC STC20041114210010011/14/04 21:00:31  5-MIN KSTC 150300Z AUTO 13003KT 10SM CLR 00/M03 A3051 490 78 -1100 130/03 RMK AO2
14926KSTC STC20041114210510011/14/04 21:05:31  5-MIN KSTC 150305Z AUTO 00000KT 10SM CLR 00/M03 A3051 490 78 -1100 000/00 RMK AO2
14926KSTC STC20041114211010111/14/04 21:10:31  5-MIN KSTC 150310Z AUTO 00000KT 10SM CLR M01/M03 A3051 490 81 -1200 000/00 RMK AO2
14926KSTC STC20041114211510111/14/04 21:15:31  5-MIN KSTC 150315Z AUTO 10003KT 10SM CLR M01/M03 A3051 490 81 -1200 090/03 RMK AO2
14926KSTC STC20041114212010011/14/04 21:20:31  5-MIN KSTC 150320Z AUTO 10003KT 10SM CLR 00/M03 A3051 490 78 -1100 090/03 RMK AO2
14926KSTC STC20041114212510011/14/04 21:25:31  5-MIN KSTC 150325Z AUTO 11004KT 10SM CLR 00/M03 A3050 490 78 -1100 110/04 RMK AO2
14926KSTC STC20041114213010011/14/04 21:30:31  5-MIN KSTC 150330Z AUTO 12004KT 10SM CLR 00/M03 A3050 490 78 -1100 120/04 RMK AO2
14926KSTC STC20041114213509911/14/04 21:35:31  5-MIN KSTC 150335Z AUTO 12004KT 9SM CLR 00/M03 A3050 490 78 -1100 120/04 RMK AO2
14926KSTC STC20041114214010011/14/04 21:40:31  5-MIN KSTC 150340Z AUTO 12003KT 9SM CLR M01/M03 A3050 500 81 -1200 110/03 RMK AO2
14926KSTC STC20041114214509911/14/04 21:45:31  5-MIN KSTC 150345Z AUTO 00000KT 9SM CLR 00/M03 A3050 500 78 -1100 000/00 RMK AO2
14926KSTC STC20041114215011711/14/04 21:50:31  5-MIN KSTC 150350Z AUTO 12003KT 9SM CLR M01/M03 A3050 500 81 -1200 110/03 RMK AO2 SLP349 T10061033
14926KSTC STC20041114215510011/14/04 21:55:31  5-MIN KSTC 150355Z AUTO 12004KT 9SM CLR M01/M03 A3050 500 81 -1200 120/04 RMK AO2
14926KSTC STC20041114220010011/14/04 22:00:31  5-MIN KSTC 150400Z AUTO 13005KT 9SM CLR M01/M04 A3050 500 78 -1200 130/05 RMK AO2
14926KSTC STC20041114220510011/14/04 22:05:31  5-MIN KSTC 150405Z AUTO 13005KT 9SM CLR M02/M04 A3050 500 85 -1300 130/05 RMK AO2
14926KSTC STC20041114221010011/14/04 22:10:31  5-MIN KSTC 150410Z AUTO 13006KT 9SM CLR M02/M04 A3050 500 85 -1400 130/06 RMK AO2
14926KSTC STC20041114221510011/14/04 22:15:31  5-MIN KSTC 150415Z AUTO 13005KT 9SM CLR M01/M04 A3049 500 81 -1300 130/05 RMK AO2
14926KSTC STC20041114222010011/14/04 22:20:31  5-MIN KSTC 150420Z AUTO 12005KT 9SM CLR M01/M03 A3049 500 85 -1300 120/05 RMK AO2
14926KSTC STC20041114222509911/14/04 22:25:31  5-MIN KSTC 150425Z AUTO 12006KT 9SM CLR 00/M03 A3049 500 81 -1100 120/06 RMK AO2
14926KSTC STC20041114223009911/14/04 22:30:31  5-MIN KSTC 150430Z AUTO 12005KT 9SM CLR 01/M03 A3049 510 78 -1000 120/05 RMK AO2
14926KSTC STC20041114223509911/14/04 22:35:31  5-MIN KSTC 150435Z AUTO 12006KT 9SM CLR 01/M03 A3049 510 78 -1000 120/06 RMK AO2
14926KSTC STC20041114224009911/14/04 22:40:31  5-MIN KSTC 150440Z AUTO 14006KT 9SM CLR 00/M03 A3049 510 81 -1100 130/06 RMK AO2
14926KSTC STC20041114224510011/14/04 22:45:31  5-MIN KSTC 150445Z AUTO 13006KT 9SM CLR M02/M04 A3049 510 85 -1300 130/06 RMK AO2
14926KSTC STC20041114225011711/14/04 22:50:31  5-MIN KSTC 150450Z AUTO 14005KT 9SM CLR M03/M04 A3049 510 88 -1500 140/05 RMK AO2 SLP345 T10281044
14926KSTC STC20041114225510011/14/04 22:55:31  5-MIN KSTC 150455Z AUTO 14006KT 8SM CLR M03/M04 A3049 510 92 -1500 130/06 RMK AO2
14926KSTC STC20041114230010011/14/04 23:00:31  5-MIN KSTC 150500Z AUTO 14006KT 8SM CLR M03/M04 A3049 510 88 -1500 130/06 RMK AO2
14926KSTC STC20041114230510011/14/04 23:05:31  5-MIN KSTC 150505Z AUTO 14006KT 8SM CLR M02/M04 A3049 510 88 -1400 130/06 RMK AO2
14926KSTC STC20041114231010011/14/04 23:10:31  5-MIN KSTC 150510Z AUTO 14006KT 8SM CLR M02/M04 A3049 510 85 -1400 140/06 RMK AO2
14926KSTC STC20041114231510011/14/04 23:15:31  5-MIN KSTC 150515Z AUTO 14007KT 8SM CLR M03/M04 A3048 510 88 -1500 140/07 RMK AO2
14926KSTC STC20041114232010011/14/04 23:20:31  5-MIN KSTC 150520Z AUTO 15007KT 8SM CLR M03/M04 A3048 510 92 -1500 150/07 RMK AO2
14926KSTC STC20041114232510011/14/04 23:25:31  5-MIN KSTC 150525Z AUTO 14007KT 8SM CLR M03/M04 A3048 510 92 -1500 140/07 RMK AO2
14926KSTC STC20041114233010011/14/04 23:30:31  5-MIN KSTC 150530Z AUTO 14007KT 8SM CLR M03/M04 A3048 520 92 -1500 140/07 RMK AO2
14926KSTC STC20041114233510011/14/04 23:35:31  5-MIN KSTC 150535Z AUTO 15007KT 8SM CLR M02/M04 A3048 520 88 -1400 140/07 RMK AO2
14926KSTC STC20041114234010011/14/04 23:40:31  5-MIN KSTC 150540Z AUTO 15007KT 8SM CLR M02/M04 A3048 510 88 -1400 140/07 RMK AO2
14926KSTC STC20041114234510011/14/04 23:45:31  5-MIN KSTC 150545Z AUTO 14006KT 8SM CLR M02/M04 A3048 520 88 -1400 140/06 RMK AO2
14926KSTC STC20041114235014511/14/04 23:50:31  5-MIN KSTC 150550Z AUTO 14006KT 8SM CLR M02/M04 A3047 520 88 -1400 140/06 RMK AO2 SLP341 T10221039 10028 21033 400721050 56003
14926KSTC STC20041114235510011/14/04 23:55:31  5-MIN KSTC 150555Z AUTO 14005KT 8SM CLR M01/M03 A3047 520 85 -1200 140/05 RMK AO2
14926KSTC STC20041115000010011/15/04 00:00:32  5-MIN KSTC 150600Z AUTO 14006KT 8SM CLR M01/M03 A3047 520 88 -1200 140/06 RMK AO2
14926KSTC STC20041115000510011/15/04 00:05:31  5-MIN KSTC 150605Z AUTO 14005KT 8SM CLR M01/M03 A3047 520 88 -1200 140/05 RMK AO2
14926KSTC STC20041115001010011/15/04 00:10:31  5-MIN KSTC 150610Z AUTO 14005KT 8SM CLR M01/M03 A3047 520 85 -1200 130/05 RMK AO2
14926KSTC STC20041115001510011/15/04 00:15:31  5-MIN KSTC 150615Z AUTO 14005KT 8SM CLR M01/M03 A3047 520 85 -1200 140/05 RMK AO2
14926KSTC STC20041115002010011/15/04 00:20:31  5-MIN KSTC 150620Z AUTO 14006KT 8SM CLR M01/M03 A3047 520 85 -1200 140/06 RMK AO2
14926KSTC STC20041115002510011/15/04 00:25:31  5-MIN KSTC 150625Z AUTO 14006KT 8SM CLR M01/M03 A3047 520 88 -1200 140/06 RMK AO2
14926KSTC STC20041115003010011/15/04 00:30:31  5-MIN KSTC 150630Z AUTO 14006KT 8SM CLR M03/M04 A3047 520 88 -1400 140/06 RMK AO2
14926KSTC STC20041115003510011/15/04 00:35:31  5-MIN KSTC 150635Z AUTO 14006KT 8SM CLR M03/M04 A3046 530 92 -1400 140/06 RMK AO2
14926KSTC STC20041115004010011/15/04 00:40:31  5-MIN KSTC 150640Z AUTO 14006KT 8SM CLR M02/M04 A3046 530 88 -1400 140/06 RMK AO2
14926KSTC STC20041115004510011/15/04 00:45:31  5-MIN KSTC 150645Z AUTO 13004KT 8SM CLR M01/M03 A3046 530 85 -1200 130/04 RMK AO2
14926KSTC STC20041115005011711/15/04 00:50:31  5-MIN KSTC 150650Z AUTO 13005KT 8SM CLR M01/M03 A3046 530 88 -1200 130/05 RMK AO2 SLP336 T10111028
14926KSTC STC20041115005510011/15/04 00:55:31  5-MIN KSTC 150655Z AUTO 13004KT 8SM CLR M01/M03 A3046 530 88 -1200 130/04 RMK AO2
14926KSTC STC20041115010010011/15/04 01:00:31  5-MIN KSTC 150700Z AUTO 13004KT 8SM CLR M01/M03 A3046 530 88 -1200 130/04 RMK AO2
14926KSTC STC20041115010510011/15/04 01:05:31  5-MIN KSTC 150705Z AUTO 13004KT 8SM CLR M01/M03 A3045 540 88 -1200 130/04 RMK AO2
14926KSTC STC20041115011010011/15/04 01:10:31  5-MIN KSTC 150710Z AUTO 13004KT 8SM CLR M01/M03 A3045 540 88 -1200 130/04 RMK AO2
14926KSTC STC20041115011510011/15/04 01:15:31  5-MIN KSTC 150715Z AUTO 14004KT 8SM CLR M02/M03 A3045 540 88 -1300 130/04 RMK AO2
14926KSTC STC20041115012010011/15/04 01:20:31  5-MIN KSTC 150720Z AUTO 14005KT 7SM CLR M03/M05 A3045 540 88 -1500 140/05 RMK AO2
14926KSTC STC20041115012510011/15/04 01:25:31  5-MIN KSTC 150725Z AUTO 13005KT 7SM CLR M04/M04 A3045 540 96 -1600 130/05 RMK AO2
14926KSTC STC20041115013010011/15/04 01:30:31  5-MIN KSTC 150730Z AUTO 13004KT 7SM CLR M03/M04 A3045 540 92 -1500 130/04 RMK AO2
14926KSTC STC20041115013510011/15/04 01:35:31  5-MIN KSTC 150735Z AUTO 12003KT 7SM CLR M03/M04 A3045 540 92 -1400 120/03 RMK AO2
14926KSTC STC20041115014010011/15/04 01:40:31  5-MIN KSTC 150740Z AUTO 12003KT 7SM CLR M02/M03 A3045 540 88 -1300 120/03 RMK AO2
14926KSTC STC20041115014510011/15/04 01:45:31  5-MIN KSTC 150745Z AUTO 12003KT 8SM CLR M01/M03 A3045 540 88 -1200 120/03 RMK AO2
14926KSTC STC20041115015011711/15/04 01:50:31  5-MIN KSTC 150750Z AUTO 13003KT 7SM CLR M02/M03 A3045 540 88 -1300 120/03 RMK AO2 SLP330 T10171033
14926KSTC STC20041115015510011/15/04 01:55:31  5-MIN KSTC 150755Z AUTO 13003KT 7SM CLR M01/M03 A3044 550 88 -1200 120/03 RMK AO2
14926KSTC STC20041115020010011/15/04 02:00:31  5-MIN KSTC 150800Z AUTO 13004KT 7SM CLR M03/M04 A3044 550 92 -1400 130/04 RMK AO2
14926KSTC STC20041115020510311/15/04 02:05:31  5-MIN KSTC 150805Z AUTO 13004KT 6SM BR CLR M03/M04 A3045 540 92 -1500 130/04 RMK AO2
14926KSTC STC20041115021010311/15/04 02:10:31  5-MIN KSTC 150810Z AUTO 13005KT 6SM BR CLR M04/M05 A3045 540 92 -1600 130/05 RMK AO2
14926KSTC STC20041115021510311/15/04 02:15:31  5-MIN KSTC 150815Z AUTO 14005KT 6SM BR CLR M04/M05 A3045 540 92 -1600 140/05 RMK AO2
14926KSTC STC20041115022010311/15/04 02:20:31  5-MIN KSTC 150820Z AUTO 14005KT 6SM BR CLR M04/M04 A3044 550 96 -1600 130/05 RMK AO2
14926KSTC STC20041115022510011/15/04 02:25:31  5-MIN KSTC 150825Z AUTO 14004KT 7SM CLR M03/M04 A3044 550 96 -1500 140/04 RMK AO2
14926KSTC STC20041115023010011/15/04 02:30:31  5-MIN KSTC 150830Z AUTO 14004KT 7SM CLR M03/M04 A3044 550 92 -1400 140/04 RMK AO2
14926KSTC STC20041115023510011/15/04 02:35:31  5-MIN KSTC 150835Z AUTO 13003KT 7SM CLR M03/M04 A3044 550 92 -1400 130/03 RMK AO2
14926KSTC STC20041115024010011/15/04 02:40:31  5-MIN KSTC 150840Z AUTO 00000KT 7SM CLR M02/M03 A3044 550 92 -1300 000/00 RMK AO2
14926KSTC STC20041115024510311/15/04 02:45:31  5-MIN KSTC 150845Z AUTO 14003KT 7SM FEW046 M02/M03 A3044 550 88 -1300 130/03 RMK AO2
14926KSTC STC20041115025012611/15/04 02:50:31  5-MIN KSTC 150850Z AUTO 00000KT 7SM BKN046 M02/M03 A3043 560 88 -1300 000/00 RMK AO2 SLP325 T10171033 56013
14926KSTC STC20041115025510311/15/04 02:55:31  5-MIN KSTC 150855Z AUTO 00000KT 7SM BKN048 M02/M03 A3043 560 88 -1300 000/00 RMK AO2
14926KSTC STC20041115030010311/15/04 03:00:31  5-MIN KSTC 150900Z AUTO 14003KT 7SM BKN048 M01/M03 A3043 560 88 -1200 130/03 RMK AO2
14926KSTC STC20041115030510311/15/04 03:05:31  5-MIN KSTC 150905Z AUTO 00000KT 7SM BKN048 M01/M03 A3043 560 88 -1200 000/00 RMK AO2
14926KSTC STC20041115031010311/15/04 03:10:31  5-MIN KSTC 150910Z AUTO 00000KT 7SM BKN048 M02/M03 A3043 560 92 -1300 000/00 RMK AO2
14926KSTC STC20041115031510311/15/04 03:15:31  5-MIN KSTC 150915Z AUTO 13003KT 7SM BKN048 M02/M03 A3043 560 88 -1300 130/03 RMK AO2
14926KSTC STC20041115032011011/15/04 03:20:31  5-MIN KSTC 150920Z AUTO 14003KT 7SM SCT048 BKN080 M02/M03 A3043 550 92 -1300 140/03 RMK AO2
14926KSTC STC20041115032511011/15/04 03:25:31  5-MIN KSTC 150925Z AUTO 14003KT 7SM FEW050 BKN080 M02/M03 A3043 550 92 -1300 140/03 RMK AO2
14926KSTC STC20041115033011311/15/04 03:30:31  5-MIN KSTC 150930Z AUTO 14005KT 6SM BR FEW050 BKN080 M03/M04 A3043 560 92 -1400 140/05 RMK AO2
14926KSTC STC20041115033510611/15/04 03:35:31  5-MIN KSTC 150935Z AUTO 14005KT 6SM BR BKN080 M03/M03 A3043 560 96 -1400 140/05 RMK AO2
14926KSTC STC20041115034010611/15/04 03:40:31  5-MIN KSTC 150940Z AUTO 14005KT 6SM BR OVC080 M02/M03 A3043 560 96 -1300 140/05 RMK AO2
14926KSTC STC20041115034510311/15/04 03:45:31  5-MIN KSTC 150945Z AUTO 14005KT 7SM OVC080 M02/M03 A3043 560 92 -1300 140/05 RMK AO2
14926KSTC STC20041115035012011/15/04 03:50:31  5-MIN KSTC 150950Z AUTO 13004KT 7SM BKN080 M01/M02 A3042 560 92 -1200 130/04 RMK AO2 SLP323 T10111022
14926KSTC STC20041115035510311/15/04 03:55:31  5-MIN KSTC 150955Z AUTO 12003KT 7SM BKN080 M01/M02 A3042 570 88 -1100 120/03 RMK AO2
14926KSTC STC20041115040010311/15/04 04:00:31  5-MIN KSTC 151000Z AUTO 14003KT 7SM SCT080 M01/M03 A3042 570 88 -1200 140/03 RMK AO2
14926KSTC STC20041115040510311/15/04 04:05:31  5-MIN KSTC 151005Z AUTO 14003KT 7SM SCT080 M02/M03 A3042 570 92 -1200 130/03 RMK AO2
14926KSTC STC20041115041010311/15/04 04:10:31  5-MIN KSTC 151010Z AUTO 13004KT 7SM FEW080 M02/M03 A3042 570 92 -1300 130/04 RMK AO2
14926KSTC STC20041115041510611/15/04 04:15:31  5-MIN KSTC 151015Z AUTO 14004KT 6SM BR FEW075 M02/M03 A3042 560 92 -1300 130/04 RMK AO2
14926KSTC STC20041115042010611/15/04 04:20:31  5-MIN KSTC 151020Z AUTO 15004KT 6SM BR FEW075 M03/M04 A3042 560 96 -1500 150/04 RMK AO2
14926KSTC STC20041115042510611/15/04 04:25:31  5-MIN KSTC 151025Z AUTO 14005KT 5SM BR FEW075 M04/M04 A3042 570 96 -1500 140/05 RMK AO2
14926KSTC STC20041115043010611/15/04 04:30:31  5-MIN KSTC 151030Z AUTO 14006KT 5SM BR FEW075 M04/M04 A3042 570 96 -1500 140/06 RMK AO2
14926KSTC STC20041115043510611/15/04 04:35:31  5-MIN KSTC 151035Z AUTO 14006KT 5SM BR FEW075 M03/M04 A3042 570 96 -1500 140/06 RMK AO2
14926KSTC STC20041115044010611/15/04 04:40:31  5-MIN KSTC 151040Z AUTO 14006KT 6SM BR SCT070 M02/M03 A3042 570 96 -1300 140/06 RMK AO2
14926KSTC STC20041115044510611/15/04 04:45:31  5-MIN KSTC 151045Z AUTO 14006KT 6SM BR BKN070 M01/M02 A3042 570 92 -1200 140/06 RMK AO2
14926KSTC STC20041115045012311/15/04 04:50:31  5-MIN KSTC 151050Z AUTO 14007KT 6SM BR BKN070 M02/M03 A3042 570 96 -1300 140/07 RMK AO2 SLP322 T10221028
14926KSTC STC20041115045510611/15/04 04:55:31  5-MIN KSTC 151055Z AUTO 14007KT 6SM BR BKN070 M01/M02 A3042 570 92 -1200 140/07 RMK AO2
14926KSTC STC20041115050010611/15/04 05:00:31  5-MIN KSTC 151100Z AUTO 14007KT 6SM BR OVC070 M01/M02 A3041 570 92 -1200 140/07 RMK AO2
14926KSTC STC20041115050510611/15/04 05:05:31  5-MIN KSTC 151105Z AUTO 14007KT 6SM BR OVC070 M01/M02 A3041 580 92 -1200 140/07 RMK AO2
14926KSTC STC20041115051010611/15/04 05:10:31  5-MIN KSTC 151110Z AUTO 14007KT 6SM BR OVC070 M01/M02 A3041 580 88 -1100 140/07 RMK AO2
14926KSTC STC20041115051510611/15/04 05:15:31  5-MIN KSTC 151115Z AUTO 14007KT 6SM BR BKN070 M01/M02 A3041 570 92 -1100 140/07 RMK AO2
14926KSTC STC20041115052010611/15/04 05:20:31  5-MIN KSTC 151120Z AUTO 14006KT 6SM BR BKN070 M01/M02 A3041 570 92 -1200 140/06 RMK AO2
14926KSTC STC20041115052510611/15/04 05:25:31  5-MIN KSTC 151125Z AUTO 14006KT 5SM BR SCT070 M02/M02 A3041 580 96 -1200 140/06 RMK AO2
14926KSTC STC20041115053010611/15/04 05:30:31  5-MIN KSTC 151130Z AUTO 14006KT 5SM BR SCT070 M02/M03 A3041 580 92 -1200 140/06 RMK AO2
14926KSTC STC20041115053510611/15/04 05:35:31  5-MIN KSTC 151135Z AUTO 15007KT 5SM BR FEW070 M02/M03 A3040 580 96 -1300 140/07 RMK AO2
14926KSTC STC20041115054010711/15/04 05:40:31  5-MIN KSTC 151140Z AUTO 15006KT 5SM BR FEW070 M02/M02 A3041 580 100 -1300 150/06 RMK AO2
14926KSTC STC20041115054510311/15/04 05:45:31  5-MIN KSTC 151145Z AUTO 15005KT 5SM BR CLR M02/M02 A3041 580 96 -1200 150/05 RMK AO2
14926KSTC STC20041115055013811/15/04 05:50:31  5-MIN KSTC 151150Z AUTO 15005KT 5SM BR CLR M02/M02 A3041 580 96 -1200 140/05 RMK AO2 SLP319 T10171022 11006 21039 58015
14926KSTC STC20041115055510311/15/04 05:55:31  5-MIN KSTC 151155Z AUTO 14005KT 5SM BR CLR M02/M02 A3041 580 96 -1200 140/05 RMK AO2
14926KSTC STC20041115060010311/15/04 06:00:31  5-MIN KSTC 151200Z AUTO 15006KT 6SM BR CLR M01/M02 A3041 580 96 -1200 140/06 RMK AO2
14926KSTC STC20041115060510311/15/04 06:05:31  5-MIN KSTC 151205Z AUTO 15005KT 6SM BR CLR M01/M02 A3041 580 92 -1200 150/05 RMK AO2
14926KSTC STC20041115061010311/15/04 06:10:31  5-MIN KSTC 151210Z AUTO 15005KT 5SM BR CLR M01/M02 A3041 580 92 -1200 150/05 RMK AO2
14926KSTC STC20041115061510311/15/04 06:15:31  5-MIN KSTC 151215Z AUTO 15005KT 5SM BR CLR M01/M02 A3041 580 92 -1200 150/05 RMK AO2
14926KSTC STC20041115062010311/15/04 06:20:31  5-MIN KSTC 151220Z AUTO 16005KT 5SM BR CLR M02/M02 A3041 580 96 -1200 150/05 RMK AO2
14926KSTC STC20041115062510311/15/04 06:25:31  5-MIN KSTC 151225Z AUTO 16005KT 5SM BR CLR M02/M02 A3041 580 96 -1200 150/05 RMK AO2
14926KSTC STC20041115063010611/15/04 06:30:31  5-MIN KSTC 151230Z AUTO 14005KT 5SM BR SCT060 M02/M02 A3041 580 96 -1200 140/05 RMK AO2
14926KSTC STC20041115063510611/15/04 06:35:31  5-MIN KSTC 151235Z AUTO 14005KT 6SM BR SCT060 M01/M02 A3041 580 92 -1100 140/05 RMK AO2
14926KSTC STC20041115064010611/15/04 06:40:31  5-MIN KSTC 151240Z AUTO 14006KT 6SM BR BKN060 M01/M02 A3041 580 92 -1100 140/06 RMK AO2
14926KSTC STC20041115064510611/15/04 06:45:31  5-MIN KSTC 151245Z AUTO 14005KT 6SM BR BKN060 M01/M02 A3041 580 96 -1200 140/05 RMK AO2
14926KSTC STC20041115065012311/15/04 06:50:31  5-MIN KSTC 151250Z AUTO 14006KT 5SM BR BKN060 M02/M03 A3041 580 96 -1300 140/06 RMK AO2 SLP319 T10221028
14926KSTC STC20041115065510711/15/04 06:55:31  5-MIN KSTC 151255Z AUTO 14006KT 5SM BR SCT060 M03/M03 A3040 580 100 -1400 140/06 RMK AO2
14926KSTC STC20041115070010611/15/04 07:00:31  5-MIN KSTC 151300Z AUTO 14005KT 5SM BR SCT060 M02/M02 A3040 580 96 -1200 140/05 RMK AO2
14926KSTC STC20041115070510611/15/04 07:05:31  5-MIN KSTC 151305Z AUTO 14006KT 5SM BR FEW060 M02/M02 A3039 590 96 -1200 140/06 RMK AO2
14926KSTC STC20041115071010611/15/04 07:10:31  5-MIN KSTC 151310Z AUTO 14006KT 5SM BR FEW060 M01/M02 A3040 590 92 -1200 140/06 RMK AO2
14926KSTC STC20041115071510311/15/04 07:15:31  5-MIN KSTC 151315Z AUTO 15006KT 5SM BR CLR M02/M02 A3040 580 96 -1200 140/06 RMK AO2
14926KSTC STC20041115072010311/15/04 07:20:31  5-MIN KSTC 151320Z AUTO 16006KT 4SM BR CLR M02/M03 A3040 580 96 -1300 150/06 RMK AO2
14926KSTC STC20041115072510611/15/04 07:25:31  5-MIN KSTC 151325Z AUTO 16004KT 4SM BR FEW050 M02/M02 A3041 580 96 -1200 160/04 RMK AO2
14926KSTC STC20041115073010611/15/04 07:30:31  5-MIN KSTC 151330Z AUTO 00000KT 3SM BR SCT050 M02/M02 A3041 580 96 -1200 000/00 RMK AO2
14926KSTC STC20041115073510611/15/04 07:35:31  5-MIN KSTC 151335Z AUTO 00000KT 4SM BR BKN050 M01/M02 A3041 570 92 -1200 000/00 RMK AO2
14926KSTC STC20041115074010611/15/04 07:40:31  5-MIN KSTC 151340Z AUTO 00000KT 4SM BR BKN050 M01/M02 A3041 570 92 -1200 000/00 RMK AO2
14926KSTC STC20041115074510611/15/04 07:45:31  5-MIN KSTC 151345Z AUTO 14004KT 4SM BR BKN050 M01/M02 A3041 570 96 -1200 140/04 RMK AO2
14926KSTC STC20041115075012311/15/04 07:50:31  5-MIN KSTC 151350Z AUTO 14004KT 4SM BR OVC050 M01/M01 A3042 570 96 -1100 140/04 RMK AO2 SLP322 T10061011
14926KSTC STC20041115075510511/15/04 07:55:31  5-MIN KSTC 151355Z AUTO 14003KT 4SM BR OVC050 00/M01 A3042 570 96 -1000 140/03 RMK AO2
14926KSTC STC20041115080010511/15/04 08:00:31  5-MIN KSTC 151400Z AUTO 00000KT 4SM BR OVC050 01/M01 A3042 560 92 -1000 000/00 RMK AO2
14926KSTC STC20041115080510511/15/04 08:05:31  5-MIN KSTC 151405Z AUTO 15003KT 4SM BR OVC050 01/M01 A3042 560 92 -1000 150/03 RMK AO2
14926KSTC STC20041115081010511/15/04 08:10:31  5-MIN KSTC 151410Z AUTO 00000KT 4SM BR OVC050 01/M01 A3043 560 92 -1000 000/00 RMK AO2
14926KSTC STC20041115081510511/15/04 08:15:31  5-MIN KSTC 151415Z AUTO 00000KT 4SM BR OVC050 01/M01 A3043 560 92 -1000 000/00 RMK AO2
14926KSTC STC20041115082010511/15/04 08:20:31  5-MIN KSTC 151420Z AUTO 14003KT 4SM BR OVC050 01/M01 A3042 570 92 -1000 130/03 RMK AO2
14926KSTC STC20041115082510311/15/04 08:25:31  5-MIN KSTC 151425Z AUTO 15003KT 5SM BR OVC050 01/00 A3042 570 92 -900 150/03 RMK AO2
14926KSTC STC20041115083010311/15/04 08:30:31  5-MIN KSTC 151430Z AUTO 15005KT 5SM BR OVC050 01/00 A3042 570 92 -900 150/05 RMK AO2
14926KSTC STC20041115083510311/15/04 08:35:31  5-MIN KSTC 151435Z AUTO 15004KT 4SM BR OVC048 01/00 A3042 560 92 -900 150/04 RMK AO2
14926KSTC STC20041115084010311/15/04 08:40:31  5-MIN KSTC 151440Z AUTO 00000KT 4SM BR OVC045 01/00 A3042 560 92 -900 000/00 RMK AO2
14926KSTC STC20041115084511011/15/04 08:45:31  5-MIN KSTC 151445Z AUTO 00000KT 4SM BR BKN043 OVC050 01/00 A3042 570 92 -900 000/00 RMK AO2
14926KSTC STC20041115085012611/15/04 08:50:31  5-MIN KSTC 151450Z AUTO 00000KT 5SM BR OVC043 02/01 A3042 570 92 -800 000/00 RMK AO2 SLP321 T00170006 58007
14926KSTC STC20041115085510311/15/04 08:55:31  5-MIN KSTC 151455Z AUTO 00000KT 5SM BR OVC043 02/01 A3042 570 92 -800 000/00 RMK AO2
14926KSTC STC20041115090010311/15/04 09:00:31  5-MIN KSTC 151500Z AUTO 00000KT 4SM BR OVC043 02/01 A3042 570 92 -800 000/00 RMK AO2
14926KSTC STC20041115090510311/15/04 09:05:31  5-MIN KSTC 151505Z AUTO 12003KT 5SM BR OVC043 02/01 A3042 560 89 -800 120/03 RMK AO2
14926KSTC STC20041115091010311/15/04 09:10:31  5-MIN KSTC 151510Z AUTO 00000KT 5SM BR OVC043 02/01 A3043 560 92 -800 000/00 RMK AO2
14926KSTC STC20041115091510311/15/04 09:15:31  5-MIN KSTC 151515Z AUTO 13003KT 5SM BR OVC043 02/01 A3042 560 89 -800 130/03 RMK AO2
14926KSTC STC20041115092010311/15/04 09:20:31  5-MIN KSTC 151520Z AUTO 14004KT 5SM BR OVC045 03/01 A3042 560 89 -700 140/04 RMK AO2
14926KSTC STC20041115092510311/15/04 09:25:31  5-MIN KSTC 151525Z AUTO 16004KT 5SM BR OVC045 03/02 A3043 560 92 -700 150/04 RMK AO2
14926KSTC STC20041115093010311/15/04 09:30:31  5-MIN KSTC 151530Z AUTO 16005KT 5SM BR OVC045 03/02 A3042 560 89 -600 160/05 RMK AO2
14926KSTC STC20041115093510311/15/04 09:35:31  5-MIN KSTC 151535Z AUTO 16005KT 5SM BR OVC047 03/02 A3042 570 89 -600 160/05 RMK AO2
14926KSTC STC20041115094010311/15/04 09:40:31  5-MIN KSTC 151540Z AUTO 16006KT 6SM BR OVC047 03/02 A3042 570 89 -600 150/06 RMK AO2
14926KSTC STC20041115094510311/15/04 09:45:31  5-MIN KSTC 151545Z AUTO 16006KT 6SM BR OVC047 03/02 A3041 570 89 -600 160/06 RMK AO2
14926KSTC STC20041115095012011/15/04 09:50:31  5-MIN KSTC 151550Z AUTO 17005KT 6SM BR OVC045 04/02 A3041 570 85 -500 160/05 RMK AO2 SLP320 T00390017
14926KSTC STC20041115095510311/15/04 09:55:31  5-MIN KSTC 151555Z AUTO 18005KT 6SM BR OVC045 04/02 A3041 570 85 -500 170/05 RMK AO2
14926KSTC STC20041115100010311/15/04 10:00:31  5-MIN KSTC 151600Z AUTO 18006KT 6SM BR OVC043 04/02 A3041 580 85 -500 170/06 RMK AO2
14926KSTC STC20041115100510311/15/04 10:05:31  5-MIN KSTC 151605Z AUTO 17006KT 6SM HZ OVC043 04/02 A3041 580 82 -500 170/06 RMK AO2
14926KSTC STC20041115101010011/15/04 10:10:31  5-MIN KSTC 151610Z AUTO 17006KT 7SM OVC041 04/02 A3041 580 82 -500 160/06 RMK AO2
14926KSTC STC20041115101510011/15/04 10:15:31  5-MIN KSTC 151615Z AUTO 17007KT 7SM OVC041 04/02 A3041 580 82 -500 170/07 RMK AO2
14926KSTC STC20041115102010011/15/04 10:20:31  5-MIN KSTC 151620Z AUTO 17008KT 7SM OVC041 04/02 A3040 590 82 -500 170/08 RMK AO2
14926KSTC STC20041115102510011/15/04 10:25:31  5-MIN KSTC 151625Z AUTO 17008KT 7SM OVC041 05/02 A3040 590 79 -400 170/08 RMK AO2
14926KSTC STC20041115103010011/15/04 10:30:31  5-MIN KSTC 151630Z AUTO 17008KT 7SM OVC041 05/02 A3039 590 79 -400 160/08 RMK AO2
14926KSTC STC20041115103510011/15/04 10:35:31  5-MIN KSTC 151635Z AUTO 18007KT 8SM OVC039 06/02 A3039 590 76 -300 170/07 RMK AO2
14926KSTC STC20041115104010011/15/04 10:40:31  5-MIN KSTC 151640Z AUTO 17007KT 8SM OVC039 06/02 A3039 600 76 -300 170/07 RMK AO2
14926KSTC STC20041115104510011/15/04 10:45:31  5-MIN KSTC 151645Z AUTO 17008KT 8SM OVC039 06/02 A3038 600 76 -300 170/08 RMK AO2
14926KSTC STC20041115105011711/15/04 10:50:31  5-MIN KSTC 151650Z AUTO 17007KT 8SM OVC039 06/02 A3038 600 73 -200 170/07 RMK AO2 SLP309 T00610017
14926KSTC STC20041115105510011/15/04 10:55:31  5-MIN KSTC 151655Z AUTO 19006KT 9SM OVC039 06/02 A3038 610 73 -200 190/06 RMK AO2
14926KSTC STC20041115110010011/15/04 11:00:31  5-MIN KSTC 151700Z AUTO 19006KT 9SM OVC039 06/02 A3038 610 73 -200 190/06 RMK AO2
14926KSTC STC20041115110510011/15/04 11:05:31  5-MIN KSTC 151705Z AUTO 18007KT 9SM OVC039 07/02 A3037 610 70 -200 170/07 RMK AO2
14926KSTC STC20041115111010011/15/04 11:10:31  5-MIN KSTC 151710Z AUTO 18006KT 9SM OVC039 07/02 A3037 610 70 -200 180/06 RMK AO2
14926KSTC STC20041115111510111/15/04 11:15:31  5-MIN KSTC 151715Z AUTO 20008KT 10SM OVC039 07/02 A3038 610 68 -100 200/08 RMK AO2
14926KSTC STC20041115112010111/15/04 11:20:31  5-MIN KSTC 151720Z AUTO 18009KT 10SM OVC039 07/02 A3037 610 68 -100 170/09 RMK AO2
14926KSTC STC20041115112509811/15/04 11:25:31  5-MIN KSTC 151725Z AUTO 19008KT 10SM OVC039 08/02 A3037 610 68 0 180/08 RMK AO2
14926KSTC STC20041115113010111/15/04 11:30:31  5-MIN KSTC 151730Z AUTO 20009KT 10SM OVC039 07/02 A3037 610 68 -100 190/09 RMK AO2
14926KSTC STC20041115113510111/15/04 11:35:31  5-MIN KSTC 151735Z AUTO 18009KT 10SM OVC039 07/02 A3037 610 68 -100 180/09 RMK AO2
14926KSTC STC20041115114010111/15/04 11:40:31  5-MIN KSTC 151740Z AUTO 19007KT 10SM OVC041 07/02 A3037 620 68 -100 190/07 RMK AO2
14926KSTC STC20041115114509811/15/04 11:45:31  5-MIN KSTC 151745Z AUTO 18008KT 10SM OVC041 08/02 A3036 620 68 0 180/08 RMK AO2
14926KSTC STC20041115115013611/15/04 11:50:31  5-MIN KSTC 151750Z AUTO 19008KT 10SM OVC041 07/02 A3036 620 68 -100 180/08 RMK AO2 SLP300 T00720017 10078 21028 53005
14926KSTC STC20041115115509811/15/04 11:55:31  5-MIN KSTC 151755Z AUTO 19008KT 10SM OVC041 08/02 A3036 630 68 0 190/08 RMK AO2
14926KSTC STC20041115120009811/15/04 12:00:31  5-MIN KSTC 151800Z AUTO 17007KT 10SM OVC041 08/02 A3035 630 68 0 170/07 RMK AO2
14926KSTC STC20041115120509811/15/04 12:05:31  5-MIN KSTC 151805Z AUTO 18009KT 10SM OVC041 08/02 A3035 630 68 0 180/09 RMK AO2
14926KSTC STC20041115121009811/15/04 12:10:31  5-MIN KSTC 151810Z AUTO 16008KT 10SM OVC041 08/02 A3034 640 68 0 160/08 RMK AO2
14926KSTC STC20041115121509811/15/04 12:15:31  5-MIN KSTC 151815Z AUTO 16009KT 10SM OVC041 08/02 A3034 640 68 0 160/09 RMK AO2
14926KSTC STC20041115122009811/15/04 12:20:31  5-MIN KSTC 151820Z AUTO 16008KT 10SM OVC041 08/02 A3034 640 68 0 160/08 RMK AO2
14926KSTC STC20041115122509811/15/04 12:25:31  5-MIN KSTC 151825Z AUTO 17008KT 10SM BKN041 08/02 A3034 640 68 0 160/08 RMK AO2
14926KSTC STC20041115123009811/15/04 12:30:31  5-MIN KSTC 151830Z AUTO 14008KT 10SM BKN041 08/02 A3033 650 65 0 140/08 RMK AO2
14926KSTC STC20041115123509811/15/04 12:35:31  5-MIN KSTC 151835Z AUTO 18007KT 10SM BKN041 08/02 A3033 650 65 0 170/07 RMK AO2
14926KSTC STC20041115124009811/15/04 12:40:31  5-MIN KSTC 151840Z AUTO 17006KT 10SM BKN041 08/02 A3033 650 65 0 170/06 RMK AO2
14926KSTC STC20041115124510011/15/04 12:45:31  5-MIN KSTC 151845Z AUTO 15010KT 10SM BKN041 08/02 A3032 660 65 100 150/10 RMK AO2
14926KSTC STC20041115125011711/15/04 12:50:31  5-MIN KSTC 151850Z AUTO 16008KT 10SM BKN041 08/02 A3032 660 65 100 160/08 RMK AO2 SLP286 T00830022
14926KSTC STC20041115125510011/15/04 12:55:31  5-MIN KSTC 151855Z AUTO 15010KT 10SM BKN041 08/02 A3032 660 65 100 150/10 RMK AO2
14926KSTC STC20041115130010011/15/04 13:00:31  5-MIN KSTC 151900Z AUTO 16007KT 10SM BKN039 08/02 A3032 660 65 100 160/07 RMK AO2
14926KSTC STC20041115130510011/15/04 13:05:31  5-MIN KSTC 151905Z AUTO 15007KT 10SM BKN039 09/02 A3031 660 63 100 150/07 RMK AO2
14926KSTC STC20041115131010011/15/04 13:10:31  5-MIN KSTC 151910Z AUTO 16009KT 10SM SCT039 09/02 A3031 660 63 100 160/09 RMK AO2
14926KSTC STC20041115131510011/15/04 13:15:31  5-MIN KSTC 151915Z AUTO 18009KT 10SM FEW039 09/02 A3031 670 63 100 170/09 RMK AO2
14926KSTC STC20041115132010011/15/04 13:20:31  5-MIN KSTC 151920Z AUTO 18009KT 10SM FEW039 09/02 A3031 670 60 200 180/09 RMK AO2
14926KSTC STC20041115132509711/15/04 13:25:31  5-MIN KSTC 151925Z AUTO 18008KT 10SM CLR 09/02 A3031 670 60 200 170/08 RMK AO2
14926KSTC STC20041115133009711/15/04 13:30:31  5-MIN KSTC 151930Z AUTO 21011KT 10SM CLR 09/02 A3030 670 60 200 200/11 RMK AO2
14926KSTC STC20041115133509711/15/04 13:35:31  5-MIN KSTC 151935Z AUTO 17009KT 10SM CLR 09/02 A3030 670 60 200 170/09 RMK AO2
14926KSTC STC20041115134009711/15/04 13:40:31  5-MIN KSTC 151940Z AUTO 19010KT 10SM CLR 09/02 A3030 680 60 200 180/10 RMK AO2
14926KSTC STC20041115134509711/15/04 13:45:31  5-MIN KSTC 151945Z AUTO 19012KT 10SM CLR 09/02 A3030 680 60 200 190/12 RMK AO2
14926KSTC STC20041115135011411/15/04 13:50:31  5-MIN KSTC 151950Z AUTO 19010KT 10SM CLR 09/02 A3030 680 60 200 190/10 RMK AO2 SLP278 T00940022
14926KSTC STC20041115135509711/15/04 13:55:31  5-MIN KSTC 151955Z AUTO 17010KT 10SM CLR 09/02 A3030 680 60 200 170/10 RMK AO2
14926KSTC STC20041115140009711/15/04 14:00:31  5-MIN KSTC 152000Z AUTO 17009KT 10SM CLR 09/02 A3029 680 60 200 170/09 RMK AO2
14926KSTC STC20041115140509711/15/04 14:05:31  5-MIN KSTC 152005Z AUTO 17010KT 10SM CLR 09/02 A3029 690 60 200 170/10 RMK AO2
14926KSTC STC20041115141009711/15/04 14:10:31  5-MIN KSTC 152010Z AUTO 20010KT 10SM CLR 09/02 A3029 690 60 200 200/10 RMK AO2
14926KSTC STC20041115141509711/15/04 14:15:31  5-MIN KSTC 152015Z AUTO 19011KT 10SM CLR 09/02 A3029 690 60 200 180/11 RMK AO2
14926KSTC STC20041115142009711/15/04 14:20:31  5-MIN KSTC 152020Z AUTO 17011KT 10SM CLR 09/02 A3029 690 60 200 170/11 RMK AO2
14926KSTC STC20041115142509711/15/04 14:25:31  5-MIN KSTC 152025Z AUTO 18012KT 10SM CLR 09/02 A3028 690 60 200 170/12 RMK AO2
14926KSTC STC20041115143009711/15/04 14:30:31  5-MIN KSTC 152030Z AUTO 18010KT 10SM CLR 09/02 A3028 690 60 200 180/10 RMK AO2
14926KSTC STC20041115143509711/15/04 14:35:31  5-MIN KSTC 152035Z AUTO 17013KT 10SM CLR 09/02 A3028 700 60 200 170/13 RMK AO2
14926KSTC STC20041115144009711/15/04 14:40:31  5-MIN KSTC 152040Z AUTO 18011KT 10SM CLR 09/02 A3028 700 63 200 180/11 RMK AO2
14926KSTC STC20041115144510011/15/04 14:45:31  5-MIN KSTC 152045Z AUTO 18012KT 10SM FEW032 09/02 A3028 700 63 200 180/12 RMK AO2
14926KSTC STC20041115145012311/15/04 14:50:31  5-MIN KSTC 152050Z AUTO 18012KT 10SM FEW032 09/02 A3027 700 63 200 180/12 RMK AO2 SLP270 T00890022 58021
14926KSTC STC20041115145510011/15/04 14:55:31  5-MIN KSTC 152055Z AUTO 19012KT 10SM SCT032 09/02 A3027 700 63 200 180/12 RMK AO2
14926KSTC STC20041115150010011/15/04 15:00:31  5-MIN KSTC 152100Z AUTO 20012KT 10SM BKN032 09/03 A3027 700 65 200 190/12 RMK AO2
14926KSTC STC20041115150510011/15/04 15:05:31  5-MIN KSTC 152105Z AUTO 19011KT 10SM BKN032 09/03 A3027 700 65 200 180/11 RMK AO2
14926KSTC STC20041115151010011/15/04 15:10:31  5-MIN KSTC 152110Z AUTO 19012KT 10SM BKN032 09/03 A3027 710 65 200 180/12 RMK AO2
14926KSTC STC20041115151510011/15/04 15:15:31  5-MIN KSTC 152115Z AUTO 20014KT 10SM BKN032 09/03 A3027 710 65 200 200/14 RMK AO2
14926KSTC STC20041115152010011/15/04 15:20:31  5-MIN KSTC 152120Z AUTO 20011KT 10SM SCT032 09/03 A3027 710 65 200 200/11 RMK AO2
14926KSTC STC20041115152510011/15/04 15:25:31  5-MIN KSTC 152125Z AUTO 19012KT 10SM SCT032 09/03 A3026 710 65 200 190/12 RMK AO2
14926KSTC STC20041115153010011/15/04 15:30:31  5-MIN KSTC 152130Z AUTO 19011KT 10SM FEW032 09/03 A3026 710 65 200 190/11 RMK AO2
14926KSTC STC20041115153510011/15/04 15:35:31  5-MIN KSTC 152135Z AUTO 19012KT 10SM FEW032 09/03 A3026 720 65 200 190/12 RMK AO2
14926KSTC STC20041115154009711/15/04 15:40:31  5-MIN KSTC 152140Z AUTO 19010KT 10SM CLR 09/03 A3026 720 65 200 190/10 RMK AO2
14926KSTC STC20041115154509711/15/04 15:45:31  5-MIN KSTC 152145Z AUTO 19010KT 10SM CLR 09/03 A3025 720 65 200 190/10 RMK AO2
14926KSTC STC20041115155011411/15/04 15:50:31  5-MIN KSTC 152150Z AUTO 19011KT 10SM CLR 09/03 A3025 720 65 200 190/11 RMK AO2 SLP263 T00890028
14926KSTC STC20041115155509711/15/04 15:55:31  5-MIN KSTC 152155Z AUTO 19009KT 10SM CLR 08/03 A3025 720 68 100 190/09 RMK AO2
14926KSTC STC20041115160009711/15/04 16:00:31  5-MIN KSTC 152200Z AUTO 19008KT 10SM CLR 08/03 A3025 730 68 100 190/08 RMK AO2
14926KSTC STC20041115160509711/15/04 16:05:31  5-MIN KSTC 152205Z AUTO 19008KT 10SM CLR 08/03 A3025 720 68 100 180/08 RMK AO2
14926KSTC STC20041115161009711/15/04 16:10:31  5-MIN KSTC 152210Z AUTO 19007KT 10SM CLR 08/03 A3025 730 70 100 190/07 RMK AO2
14926KSTC STC20041115161509711/15/04 16:15:31  5-MIN KSTC 152215Z AUTO 19006KT 10SM CLR 08/03 A3025 730 70 100 190/06 RMK AO2
14926KSTC STC20041115162009711/15/04 16:20:31  5-MIN KSTC 152220Z AUTO 19005KT 10SM CLR 08/03 A3025 730 70 100 180/05 RMK AO2
14926KSTC STC20041115162509511/15/04 16:25:31  5-MIN KSTC 152225Z AUTO 19004KT 10SM CLR 07/03 A3025 730 73 0 180/04 RMK AO2
14926KSTC STC20041115163009411/15/04 16:30:31  5-MIN KSTC 152230Z AUTO 18004KT 9SM CLR 07/03 A3024 730 73 0 170/04 RMK AO2
14926KSTC STC20041115163509411/15/04 16:35:31  5-MIN KSTC 152235Z AUTO 17003KT 9SM CLR 07/02 A3025 730 73 0 170/03 RMK AO2
14926KSTC STC20041115164009411/15/04 16:40:31  5-MIN KSTC 152240Z AUTO 17003KT 9SM CLR 07/02 A3024 730 73 0 170/03 RMK AO2
14926KSTC STC20041115164509411/15/04 16:45:31  5-MIN KSTC 152245Z AUTO 15003KT 9SM CLR 07/03 A3024 730 76 0 140/03 RMK AO2
14926KSTC STC20041115165011111/15/04 16:50:31  5-MIN KSTC 152250Z AUTO 14003KT 9SM CLR 07/03 A3024 740 76 0 140/03 RMK AO2 SLP258 T00670028
14926KSTC STC20041115165509411/15/04 16:55:31  5-MIN KSTC 152255Z AUTO 14004KT 9SM CLR 07/03 A3023 740 76 0 140/04 RMK AO2
14926KSTC STC20041115170009411/15/04 17:00:31  5-MIN KSTC 152300Z AUTO 13003KT 9SM CLR 07/03 A3023 740 76 0 130/03 RMK AO2
14926KSTC STC20041115170509511/15/04 17:05:31  5-MIN KSTC 152305Z AUTO 13003KT 10SM CLR 07/03 A3024 740 76 0 120/03 RMK AO2
14926KSTC STC20041115171009811/15/04 17:10:31  5-MIN KSTC 152310Z AUTO 12004KT 10SM CLR 06/03 A3024 740 79 -100 120/04 RMK AO2
14926KSTC STC20041115171509811/15/04 17:15:31  5-MIN KSTC 152315Z AUTO 12004KT 10SM CLR 06/02 A3024 730 79 -100 110/04 RMK AO2
14926KSTC STC20041115172009811/15/04 17:20:31  5-MIN KSTC 152320Z AUTO 12004KT 10SM CLR 05/02 A3024 740 82 -200 120/04 RMK AO2
14926KSTC STC20041115172509811/15/04 17:25:31  5-MIN KSTC 152325Z AUTO 12005KT 10SM CLR 05/02 A3023 740 82 -200 120/05 RMK AO2
14926KSTC STC20041115173009811/15/04 17:30:31  5-MIN KSTC 152330Z AUTO 13004KT 10SM CLR 04/02 A3023 740 85 -300 120/04 RMK AO2
14926KSTC STC20041115173509711/15/04 17:35:31  5-MIN KSTC 152335Z AUTO 13004KT 9SM CLR 03/01 A3023 740 89 -500 120/04 RMK AO2
14926KSTC STC20041115174009711/15/04 17:40:31  5-MIN KSTC 152340Z AUTO 12004KT 9SM CLR 04/02 A3023 740 82 -300 120/04 RMK AO2
14926KSTC STC20041115174509711/15/04 17:45:31  5-MIN KSTC 152345Z AUTO 12004KT 9SM CLR 04/02 A3023 740 85 -300 120/04 RMK AO2
14926KSTC STC20041115175013211/15/04 17:50:31  5-MIN KSTC 152350Z AUTO 12004KT 9SM CLR 02/01 A3023 740 89 -500 120/04 RMK AO2 SLP257 T00220006 10094 20022 56028
14926KSTC STC20041115175509711/15/04 17:55:31  5-MIN KSTC 152355Z AUTO 12004KT 9SM CLR 03/02 A3023 740 89 -400 120/04 RMK AO2
14926KSTC STC20041115180009711/15/04 18:00:31  5-MIN KSTC 160000Z AUTO 12005KT 9SM CLR 03/01 A3023 750 85 -400 120/05 RMK AO2
14926KSTC STC20041115180509711/15/04 18:05:31  5-MIN KSTC 160005Z AUTO 12005KT 9SM CLR 05/02 A3022 750 82 -200 110/05 RMK AO2
14926KSTC STC20041115181009711/15/04 18:10:31  5-MIN KSTC 160010Z AUTO 12006KT 9SM CLR 05/02 A3022 750 82 -200 110/06 RMK AO2
14926KSTC STC20041115181509711/15/04 18:15:31  5-MIN KSTC 160015Z AUTO 11005KT 9SM CLR 05/02 A3023 750 82 -200 110/05 RMK AO2
14926KSTC STC20041115182009711/15/04 18:20:31  5-MIN KSTC 160020Z AUTO 12006KT 9SM CLR 05/02 A3022 750 82 -200 120/06 RMK AO2
14926KSTC STC20041115182509711/15/04 18:25:31  5-MIN KSTC 160025Z AUTO 12006KT 9SM CLR 05/03 A3022 750 85 -200 120/06 RMK AO2
14926KSTC STC20041115183009711/15/04 18:30:31  5-MIN KSTC 160030Z AUTO 13007KT 9SM CLR 05/03 A3022 750 85 -200 120/07 RMK AO2
14926KSTC STC20041115183509711/15/04 18:35:31  5-MIN KSTC 160035Z AUTO 13006KT 9SM CLR 06/03 A3022 750 82 -100 120/06 RMK AO2
14926KSTC STC20041115184009711/15/04 18:40:31  5-MIN KSTC 160040Z AUTO 12006KT 9SM CLR 06/03 A3022 750 82 -100 120/06 RMK AO2
14926KSTC STC20041115184509711/15/04 18:45:31  5-MIN KSTC 160045Z AUTO 12006KT 9SM CLR 06/03 A3022 750 82 -100 120/06 RMK AO2
14926KSTC STC20041115185011411/15/04 18:50:31  5-MIN KSTC 160050Z AUTO 12007KT 9SM CLR 06/03 A3022 750 82 -100 120/07 RMK AO2 SLP253 T00560028
14926KSTC STC20041115185509711/15/04 18:55:31  5-MIN KSTC 160055Z AUTO 13007KT 9SM CLR 06/03 A3022 750 82 -100 130/07 RMK AO2
14926KSTC STC20041115190009711/15/04 19:00:31  5-MIN KSTC 160100Z AUTO 13008KT 9SM CLR 05/02 A3022 750 82 -200 130/08 RMK AO2
14926KSTC STC20041115190509711/15/04 19:05:31  5-MIN KSTC 160105Z AUTO 13006KT 9SM CLR 05/02 A3022 750 82 -200 130/06 RMK AO2
14926KSTC STC20041115191009711/15/04 19:10:31  5-MIN KSTC 160110Z AUTO 13006KT 9SM CLR 05/02 A3022 750 82 -200 130/06 RMK AO2
14926KSTC STC20041115191509711/15/04 19:15:31  5-MIN KSTC 160115Z AUTO 13006KT 9SM CLR 05/02 A3022 750 82 -200 120/06 RMK AO2
14926KSTC STC20041115192009711/15/04 19:20:31  5-MIN KSTC 160120Z AUTO 13007KT 9SM CLR 06/02 A3022 750 79 -100 130/07 RMK AO2
14926KSTC STC20041115192509711/15/04 19:25:31  5-MIN KSTC 160125Z AUTO 13007KT 9SM CLR 06/02 A3022 750 79 -100 130/07 RMK AO2
14926KSTC STC20041115193009711/15/04 19:30:31  5-MIN KSTC 160130Z AUTO 13007KT 9SM CLR 06/02 A3021 760 79 -100 130/07 RMK AO2
14926KSTC STC20041115193509711/15/04 19:35:31  5-MIN KSTC 160135Z AUTO 13009KT 9SM CLR 06/02 A3021 760 79 -100 130/09 RMK AO2
14926KSTC STC20041115194009711/15/04 19:40:31  5-MIN KSTC 160140Z AUTO 14008KT 9SM CLR 05/02 A3021 760 82 -200 130/08 RMK AO2
14926KSTC STC20041115194509711/15/04 19:45:31  5-MIN KSTC 160145Z AUTO 13007KT 9SM CLR 05/02 A3021 760 82 -200 130/07 RMK AO2
14926KSTC STC20041115195011411/15/04 19:50:31  5-MIN KSTC 160150Z AUTO 14007KT 9SM CLR 05/02 A3021 760 82 -200 140/07 RMK AO2 SLP251 T00500022
14926KSTC STC20041115195509711/15/04 19:55:31  5-MIN KSTC 160155Z AUTO 14008KT 8SM CLR 05/02 A3021 760 82 -200 130/08 RMK AO2
14926KSTC STC20041115200009711/15/04 20:00:31  5-MIN KSTC 160200Z AUTO 14008KT 8SM CLR 04/02 A3021 760 85 -200 140/08 RMK AO2
14926KSTC STC20041115200509711/15/04 20:05:31  5-MIN KSTC 160205Z AUTO 14007KT 8SM CLR 04/02 A3021 760 89 -300 140/07 RMK AO2
14926KSTC STC20041115201009711/15/04 20:10:31  5-MIN KSTC 160210Z AUTO 14007KT 8SM CLR 04/02 A3021 760 85 -300 140/07 RMK AO2
14926KSTC STC20041115201509711/15/04 20:15:31  5-MIN KSTC 160215Z AUTO 14006KT 7SM CLR 03/02 A3021 760 92 -500 140/06 RMK AO2
14926KSTC STC20041115202009711/15/04 20:20:31  5-MIN KSTC 160220Z AUTO 14007KT 7SM CLR 03/02 A3021 760 92 -500 140/07 RMK AO2
14926KSTC STC20041115202509711/15/04 20:25:31  5-MIN KSTC 160225Z AUTO 14007KT 7SM CLR 03/02 A3021 760 92 -400 140/07 RMK AO2
14926KSTC STC20041115203009711/15/04 20:30:31  5-MIN KSTC 160230Z AUTO 14006KT 7SM CLR 03/02 A3021 760 92 -400 130/06 RMK AO2
14926KSTC STC20041115203509711/15/04 20:35:31  5-MIN KSTC 160235Z AUTO 13006KT 7SM CLR 04/02 A3021 760 89 -300 130/06 RMK AO2
14926KSTC STC20041115204009711/15/04 20:40:31  5-MIN KSTC 160240Z AUTO 13006KT 7SM CLR 04/02 A3021 760 89 -300 130/06 RMK AO2
14926KSTC STC20041115204509711/15/04 20:45:31  5-MIN KSTC 160245Z AUTO 14007KT 7SM CLR 04/02 A3021 760 89 -300 130/07 RMK AO2
14926KSTC STC20041115205012011/15/04 20:50:31  5-MIN KSTC 160250Z AUTO 14007KT 7SM CLR 03/02 A3021 760 92 -400 130/07 RMK AO2 SLP248 T00330022 56015
14926KSTC STC20041115205509711/15/04 20:55:31  5-MIN KSTC 160255Z AUTO 14006KT 7SM CLR 04/02 A3021 760 85 -200 130/06 RMK AO2
14926KSTC STC20041115210009711/15/04 21:00:31  5-MIN KSTC 160300Z AUTO 14006KT 7SM CLR 03/02 A3021 760 92 -400 130/06 RMK AO2
14926KSTC STC20041115210509711/15/04 21:05:31  5-MIN KSTC 160305Z AUTO 14006KT 7SM CLR 03/02 A3020 770 92 -400 140/06 RMK AO2
14926KSTC STC20041115211010011/15/04 21:10:31  5-MIN KSTC 160310Z AUTO 14008KT 6SM BR CLR 03/02 A3020 770 92 -400 130/08 RMK AO2
14926KSTC STC20041115211510011/15/04 21:15:31  5-MIN KSTC 160315Z AUTO 14007KT 6SM BR CLR 02/02 A3020 770 96 -500 130/07 RMK AO2
14926KSTC STC20041115212010011/15/04 21:20:31  5-MIN KSTC 160320Z AUTO 14007KT 6SM BR CLR 02/01 A3020 770 92 -500 130/07 RMK AO2
14926KSTC STC20041115212510011/15/04 21:25:31  5-MIN KSTC 160325Z AUTO 14007KT 6SM BR CLR 03/02 A3020 770 92 -400 140/07 RMK AO2
14926KSTC STC20041115213010011/15/04 21:30:31  5-MIN KSTC 160330Z AUTO 14008KT 6SM BR CLR 03/02 A3020 770 92 -400 140/08 RMK AO2
14926KSTC STC20041115213510011/15/04 21:35:31  5-MIN KSTC 160335Z AUTO 14007KT 5SM BR CLR 02/02 A3019 770 96 -500 140/07 RMK AO2
14926KSTC STC20041115214010011/15/04 21:40:31  5-MIN KSTC 160340Z AUTO 14007KT 5SM BR CLR 02/01 A3019 780 96 -600 140/07 RMK AO2
14926KSTC STC20041115214510011/15/04 21:45:31  5-MIN KSTC 160345Z AUTO 14008KT 5SM BR CLR 02/02 A3019 780 96 -500 140/08 RMK AO2
14926KSTC STC20041115215011811/15/04 21:50:31  5-MIN KSTC 160350Z AUTO 15008KT 5SM BR CLR 02/02 A3019 780 100 -600 140/08 RMK AO2 SLP242 T00170017
14926KSTC STC20041115215510111/15/04 21:55:31  5-MIN KSTC 160355Z AUTO 15007KT 4SM BR CLR 01/01 A3019 780 100 -600 150/07 RMK AO2
14926KSTC STC20041115220010111/15/04 22:00:31  5-MIN KSTC 160400Z AUTO 15007KT 4SM BR CLR 01/01 A3019 780 100 -700 150/07 RMK AO2
14926KSTC STC20041115220510111/15/04 22:05:31  5-MIN KSTC 160405Z AUTO 15007KT 4SM BR CLR 01/01 A3019 780 100 -600 150/07 RMK AO2
14926KSTC STC20041115221010111/15/04 22:10:31  5-MIN KSTC 160410Z AUTO 15007KT 4SM BR CLR 02/02 A3019 780 100 -600 140/07 RMK AO2
14926KSTC STC20041115221510111/15/04 22:15:31  5-MIN KSTC 160415Z AUTO 15007KT 4SM BR CLR 02/02 A3018 780 100 -600 140/07 RMK AO2
14926KSTC STC20041115222010111/15/04 22:20:31  5-MIN KSTC 160420Z AUTO 15007KT 4SM BR CLR 02/02 A3018 780 100 -600 150/07 RMK AO2
14926KSTC STC20041115222510111/15/04 22:25:31  5-MIN KSTC 160425Z AUTO 15007KT 4SM BR CLR 02/02 A3018 790 100 -600 140/07 RMK AO2
14926KSTC STC20041115223010011/15/04 22:30:31  5-MIN KSTC 160430Z AUTO 14007KT 4SM BR CLR 02/02 A3018 790 96 -500 140/07 RMK AO2
14926KSTC STC20041115223510111/15/04 22:35:31  5-MIN KSTC 160435Z AUTO 14007KT 4SM BR CLR 02/02 A3018 790 100 -500 140/07 RMK AO2
14926KSTC STC20041115224010111/15/04 22:40:31  5-MIN KSTC 160440Z AUTO 14007KT 4SM BR CLR 02/02 A3018 790 100 -500 140/07 RMK AO2
14926KSTC STC20041115224510111/15/04 22:45:31  5-MIN KSTC 160445Z AUTO 14006KT 4SM BR CLR 02/02 A3018 790 100 -500 140/06 RMK AO2
14926KSTC STC20041115225011811/15/04 22:50:31  5-MIN KSTC 160450Z AUTO 14006KT 4SM BR CLR 02/02 A3018 790 100 -500 140/06 RMK AO2 SLP237 T00220022
14926KSTC STC20041115225510011/15/04 22:55:31  5-MIN KSTC 160455Z AUTO 15007KT 4SM BR CLR 02/02 A3018 790 96 -500 140/07 RMK AO2
14926KSTC STC20041115230010011/15/04 23:00:31  5-MIN KSTC 160500Z AUTO 15007KT 4SM BR CLR 02/02 A3018 790 96 -500 140/07 RMK AO2
14926KSTC STC20041115230510111/15/04 23:05:31  5-MIN KSTC 160505Z AUTO 15007KT 4SM BR CLR 02/02 A3018 790 100 -600 150/07 RMK AO2
14926KSTC STC20041115231010111/15/04 23:10:31  5-MIN KSTC 160510Z AUTO 16007KT 3SM BR CLR 01/01 A3018 790 100 -600 150/07 RMK AO2
14926KSTC STC20041115231510111/15/04 23:15:31  5-MIN KSTC 160515Z AUTO 16007KT 3SM BR CLR 01/01 A3018 790 100 -600 160/07 RMK AO2
14926KSTC STC20041115232010111/15/04 23:20:31  5-MIN KSTC 160520Z AUTO 16007KT 3SM BR CLR 01/01 A3017 800 100 -600 160/07 RMK AO2
14926KSTC STC20041115232510111/15/04 23:25:31  5-MIN KSTC 160525Z AUTO 17008KT 3SM BR CLR 02/02 A3017 800 100 -500 160/08 RMK AO2
14926KSTC STC20041115233010111/15/04 23:30:31  5-MIN KSTC 160530Z AUTO 17007KT 3SM BR CLR 02/02 A3017 800 100 -500 160/07 RMK AO2
14926KSTC STC20041115233510111/15/04 23:35:31  5-MIN KSTC 160535Z AUTO 17007KT 3SM BR CLR 02/02 A3017 800 100 -500 170/07 RMK AO2
14926KSTC STC20041115234010111/15/04 23:40:31  5-MIN KSTC 160540Z AUTO 17008KT 3SM BR CLR 03/03 A3017 800 100 -400 170/08 RMK AO2
14926KSTC STC20041115234510111/15/04 23:45:31  5-MIN KSTC 160545Z AUTO 18007KT 4SM BR CLR 03/03 A3017 800 100 -300 170/07 RMK AO2
14926KSTC STC20041115235014511/15/04 23:50:31  5-MIN KSTC 160550Z AUTO 18006KT 4SM BR CLR 04/03 A3017 800 96 -300 170/06 RMK AO2 SLP233 T00390033 10056 20006 400941039 56006
14926KSTC STC20041115235510011/15/04 23:55:31  5-MIN KSTC 160555Z AUTO 18008KT 4SM BR CLR 04/03 A3017 800 96 -300 180/08 RMK AO2
14926KSTC STC20041116000010011/16/04 00:00:32  5-MIN KSTC 160600Z AUTO 18007KT 4SM BR CLR 04/03 A3017 800 96 -300 180/07 RMK AO2
14926KSTC STC20041116000510011/16/04 00:05:31  5-MIN KSTC 160605Z AUTO 18007KT 4SM BR CLR 04/03 A3017 800 96 -300 180/07 RMK AO2
14926KSTC STC20041116001010011/16/04 00:10:31  5-MIN KSTC 160610Z AUTO 18007KT 4SM BR CLR 04/03 A3017 800 96 -300 170/07 RMK AO2
14926KSTC STC20041116001510111/16/04 00:15:31  5-MIN KSTC 160615Z AUTO 16005KT 4SM BR CLR 03/03 A3017 800 100 -300 160/05 RMK AO2
14926KSTC STC20041116002010111/16/04 00:20:31  5-MIN KSTC 160620Z AUTO 16004KT 3SM BR CLR 03/03 A3016 800 100 -400 150/04 RMK AO2
14926KSTC STC20041116002510111/16/04 00:25:31  5-MIN KSTC 160625Z AUTO 15005KT 3SM BR CLR 03/03 A3016 800 100 -400 150/05 RMK AO2
14926KSTC STC20041116003010111/16/04 00:30:31  5-MIN KSTC 160630Z AUTO 15006KT 3SM BR CLR 03/03 A3016 810 100 -400 150/06 RMK AO2
14926KSTC STC20041116003510111/16/04 00:35:31  5-MIN KSTC 160635Z AUTO 15007KT 3SM BR CLR 03/03 A3016 810 100 -400 150/07 RMK AO2
14926KSTC STC20041116004010111/16/04 00:40:31  5-MIN KSTC 160640Z AUTO 15008KT 3SM BR CLR 02/02 A3016 810 100 -500 150/08 RMK AO2
14926KSTC STC20041116004510511/16/04 00:45:31  5-MIN KSTC 160645Z AUTO 16008KT 2 1/2SM BR CLR 02/02 A3015 810 100 -500 150/08 RMK AO2
14926KSTC STC20041116005011811/16/04 00:50:31  5-MIN KSTC 160650Z AUTO 16008KT 2SM BR CLR 01/01 A3015 810 100 -600 160/08 RMK AO2 SLP229 T00110011
14926KSTC STC20041116005510511/16/04 00:55:31  5-MIN KSTC 160655Z AUTO 16008KT 1 3/4SM BR CLR 01/01 A3015 810 100 -600 160/08 RMK AO2
14926KSTC STC20041116010010511/16/04 01:00:31  5-MIN KSTC 160700Z AUTO 16007KT 1 3/4SM BR CLR 01/01 A3015 810 100 -600 160/07 RMK AO2
14926KSTC STC20041116010510511/16/04 01:05:31  5-MIN KSTC 160705Z AUTO 16007KT 1 3/4SM BR CLR 02/02 A3015 820 100 -500 150/07 RMK AO2
14926KSTC STC20041116011010111/16/04 01:10:31  5-MIN KSTC 160710Z AUTO 15007KT 2SM BR CLR 02/02 A3015 820 100 -500 150/07 RMK AO2
14926KSTC STC20041116011510111/16/04 01:15:31  5-MIN KSTC 160715Z AUTO 15007KT 2SM BR CLR 02/02 A3015 820 100 -400 150/07 RMK AO2
14926KSTC STC20041116012010511/16/04 01:20:31  5-MIN KSTC 160720Z AUTO 15007KT 1 3/4SM BR CLR 02/02 A3015 820 100 -500 150/07 RMK AO2
14926KSTC STC20041116012510511/16/04 01:25:31  5-MIN KSTC 160725Z AUTO 15007KT 1 3/4SM BR CLR 02/02 A3015 820 100 -500 150/07 RMK AO2
14926KSTC STC20041116013010511/16/04 01:30:31  5-MIN KSTC 160730Z AUTO 15007KT 1 3/4SM BR CLR 02/02 A3014 820 100 -500 150/07 RMK AO2
14926KSTC STC20041116013510511/16/04 01:35:31  5-MIN KSTC 160735Z AUTO 15007KT 1 1/2SM BR CLR 02/02 A3014 820 100 -500 150/07 RMK AO2
14926KSTC STC20041116014010511/16/04 01:40:31  5-MIN KSTC 160740Z AUTO 16007KT 1 1/2SM BR CLR 01/01 A3014 820 100 -600 150/07 RMK AO2
14926KSTC STC20041116014510511/16/04 01:45:31  5-MIN KSTC 160745Z AUTO 16007KT 1 1/4SM BR CLR 01/01 A3014 820 100 -600 150/07 RMK AO2
14926KSTC STC20041116015011811/16/04 01:50:31  5-MIN KSTC 160750Z AUTO 16007KT 1SM BR CLR 01/01 A3014 820 100 -600 150/07 RMK AO2 SLP224 T00060006
14926KSTC STC20041116015510111/16/04 01:55:31  5-MIN KSTC 160755Z AUTO 15008KT 1SM BR CLR 01/01 A3014 820 100 -600 150/08 RMK AO2
14926KSTC STC20041116020010511/16/04 02:00:31  5-MIN KSTC 160800Z AUTO 15007KT 1 1/4SM BR CLR 01/01 A3014 820 100 -600 150/07 RMK AO2
14926KSTC STC20041116020510511/16/04 02:05:31  5-MIN KSTC 160805Z AUTO 15006KT 1 1/4SM BR CLR 01/01 A3014 820 100 -600 150/06 RMK AO2
14926KSTC STC20041116021010511/16/04 02:10:31  5-MIN KSTC 160810Z AUTO 16006KT 1 1/4SM BR CLR 02/02 A3015 820 100 -500 150/06 RMK AO2
14926KSTC STC20041116021510511/16/04 02:15:31  5-MIN KSTC 160815Z AUTO 16006KT 1 1/4SM BR CLR 01/01 A3015 820 100 -600 160/06 RMK AO2
14926KSTC STC20041116022010511/16/04 02:20:31  5-MIN KSTC 160820Z AUTO 16006KT 1 1/4SM BR CLR 01/01 A3015 820 100 -600 150/06 RMK AO2
14926KSTC STC20041116022510511/16/04 02:25:31  5-MIN KSTC 160825Z AUTO 16006KT 1 1/4SM BR CLR 02/02 A3015 820 100 -500 150/06 RMK AO2
14926KSTC STC20041116023010511/16/04 02:30:31  5-MIN KSTC 160830Z AUTO 16006KT 1 1/4SM BR CLR 02/02 A3015 820 100 -500 150/06 RMK AO2
14926KSTC STC20041116023510511/16/04 02:35:31  5-MIN KSTC 160835Z AUTO 16005KT 1 1/2SM BR CLR 02/02 A3015 820 100 -500 150/05 RMK AO2
14926KSTC STC20041116024010511/16/04 02:40:31  5-MIN KSTC 160840Z AUTO 16005KT 1 1/2SM BR CLR 02/02 A3015 820 100 -500 160/05 RMK AO2
14926KSTC STC20041116024510511/16/04 02:45:31  5-MIN KSTC 160845Z AUTO 16005KT 1 1/2SM BR CLR 01/01 A3015 820 100 -600 160/05 RMK AO2
14926KSTC STC20041116025012811/16/04 02:50:31  5-MIN KSTC 160850Z AUTO 16006KT 1 1/2SM BR CLR 01/01 A3015 820 100 -600 160/06 RMK AO2 SLP226 T00110011 56012
14926KSTC STC20041116025510511/16/04 02:55:31  5-MIN KSTC 160855Z AUTO 15006KT 1 1/2SM BR CLR 01/01 A3015 820 100 -600 150/06 RMK AO2
14926KSTC STC20041116030010511/16/04 03:00:31  5-MIN KSTC 160900Z AUTO 15006KT 1 1/2SM BR CLR 02/02 A3015 820 100 -500 150/06 RMK AO2
14926KSTC STC20041116030510511/16/04 03:05:31  5-MIN KSTC 160905Z AUTO 15006KT 1 1/2SM BR CLR 02/02 A3014 820 100 -500 140/06 RMK AO2
14926KSTC STC20041116031010511/16/04 03:10:31  5-MIN KSTC 160910Z AUTO 15006KT 1 1/2SM BR CLR 02/02 A3014 820 100 -400 150/06 RMK AO2
14926KSTC STC20041116031510511/16/04 03:15:31  5-MIN KSTC 160915Z AUTO 15006KT 1 1/2SM BR CLR 02/02 A3014 820 100 -500 140/06 RMK AO2
14926KSTC STC20041116032010511/16/04 03:20:31  5-MIN KSTC 160920Z AUTO 15007KT 1 1/2SM BR CLR 02/02 A3014 820 100 -500 140/07 RMK AO2
14926KSTC STC20041116032510511/16/04 03:25:31  5-MIN KSTC 160925Z AUTO 14007KT 1 1/4SM BR CLR 02/02 A3014 820 100 -500 140/07 RMK AO2
14926KSTC STC20041116033010111/16/04 03:30:31  5-MIN KSTC 160930Z AUTO 15007KT 1SM BR CLR 01/01 A3014 820 100 -600 140/07 RMK AO2
14926KSTC STC20041116033510311/16/04 03:35:31  5-MIN KSTC 160935Z AUTO 15007KT 3/4SM BR CLR 01/01 A3014 830 100 -600 140/07 RMK AO2
14926KSTC STC20041116034010311/16/04 03:40:31  5-MIN KSTC 160940Z AUTO 15007KT 1/2SM FG CLR 01/01 A3014 830 100 -600 140/07 RMK AO2
14926KSTC STC20041116034510311/16/04 03:45:31  5-MIN KSTC 160945Z AUTO 15007KT 1/4SM FG CLR 00/00 A3014 830 100 -700 140/07 RMK AO2
14926KSTC STC20041116035012211/16/04 03:50:31  5-MIN KSTC 160950Z AUTO 15007KT 1/4SM FG VV001 00/00 A3014 830 100 -700 150/07 RMK AO2 SLP222 T00000000
14926KSTC STC20041116035511311/16/04 03:55:31  5-MIN KSTC 160955Z AUTO 15007KT 1/4SM FG SCT001 SCT027 01/01 A3013 830 100 -600 150/07 RMK AO2
14926KSTC STC20041116040010511/16/04 04:00:31  5-MIN KSTC 161000Z AUTO 15007KT 1/4SM FG VV001 01/01 A3013 830 100 -600 150/07 RMK AO2
14926KSTC STC20041116040511311/16/04 04:05:31  5-MIN KSTC 161005Z AUTO 15007KT 1/4SM FG SCT001 BKN026 01/01 A3013 830 100 -600 150/07 RMK AO2
14926KSTC STC20041116041011311/16/04 04:10:31  5-MIN KSTC 161010Z AUTO 15007KT 1/4SM FG BKN001 BKN026 01/01 A3013 830 100 -600 150/07 RMK AO2
14926KSTC STC20041116041511311/16/04 04:15:31  5-MIN KSTC 161015Z AUTO 15007KT 1/4SM FG BKN001 OVC026 01/01 A3013 830 100 -600 150/07 RMK AO2
14926KSTC STC20041116042010511/16/04 04:20:31  5-MIN KSTC 161020Z AUTO 15006KT 1/4SM FG VV001 01/01 A3013 830 100 -600 150/06 RMK AO2
14926KSTC STC20041116042510511/16/04 04:25:31  5-MIN KSTC 161025Z AUTO 15007KT 1/4SM FG VV001 01/01 A3013 830 100 -600 140/07 RMK AO2
14926KSTC STC20041116043010511/16/04 04:30:31  5-MIN KSTC 161030Z AUTO 15007KT 1/4SM FG VV001 01/01 A3013 830 100 -600 140/07 RMK AO2
14926KSTC STC20041116043510511/16/04 04:35:31  5-MIN KSTC 161035Z AUTO 15007KT 1/4SM FG VV001 01/01 A3014 830 100 -600 140/07 RMK AO2
14926KSTC STC20041116044010511/16/04 04:40:31  5-MIN KSTC 161040Z AUTO 15007KT 1/4SM FG VV002 01/01 A3013 830 100 -600 150/07 RMK AO2
14926KSTC STC20041116044510611/16/04 04:45:31  5-MIN KSTC 161045Z AUTO 16007KT 1/4SM FG OVC002 01/01 A3013 830 100 -600 150/07 RMK AO2
14926KSTC STC20041116045012311/16/04 04:50:31  5-MIN KSTC 161050Z AUTO 16007KT 1/4SM FG OVC002 01/01 A3013 830 100 -600 150/07 RMK AO2 SLP222 T00060006
14926KSTC STC20041116045510611/16/04 04:55:31  5-MIN KSTC 161055Z AUTO 15007KT 1/4SM FG OVC002 01/01 A3013 830 100 -600 150/07 RMK AO2
14926KSTC STC20041116050011311/16/04 05:00:31  5-MIN KSTC 161100Z AUTO 15007KT 1/4SM FG BKN002 OVC008 01/01 A3013 830 100 -600 140/07 RMK AO2
14926KSTC STC20041116050510611/16/04 05:05:31  5-MIN KSTC 161105Z AUTO 14007KT 1/4SM FG OVC002 01/01 A3013 830 100 -600 140/07 RMK AO2
14926KSTC STC20041116051010611/16/04 05:10:31  5-MIN KSTC 161110Z AUTO 15007KT 1/4SM FG OVC002 02/02 A3013 830 100 -500 150/07 RMK AO2
14926KSTC STC20041116051510611/16/04 05:15:31  5-MIN KSTC 161115Z AUTO 15008KT 1/4SM FG OVC002 01/01 A3013 840 100 -600 150/08 RMK AO2
14926KSTC STC20041116052010611/16/04 05:20:31  5-MIN KSTC 161120Z AUTO 15007KT 1/4SM FG OVC002 01/01 A3012 840 100 -600 150/07 RMK AO2
14926KSTC STC20041116052510611/16/04 05:25:31  5-MIN KSTC 161125Z AUTO 16008KT 1/4SM FG OVC002 02/02 A3012 840 100 -500 150/08 RMK AO2
14926KSTC STC20041116053010611/16/04 05:30:31  5-MIN KSTC 161130Z AUTO 16007KT 1/2SM FG OVC002 02/02 A3012 840 100 -500 160/07 RMK AO2
14926KSTC STC20041116053510611/16/04 05:35:31  5-MIN KSTC 161135Z AUTO 17008KT 1/2SM FG OVC002 02/02 A3012 840 100 -400 160/08 RMK AO2
14926KSTC STC20041116054011311/16/04 05:40:31  5-MIN KSTC 161140Z AUTO 17009KT 1/2SM FG BKN002 OVC007 03/03 A3012 840 100 -300 170/09 RMK AO2
14926KSTC STC20041116054511311/16/04 05:45:31  5-MIN KSTC 161145Z AUTO 17009KT 1/2SM FG BKN002 OVC007 03/03 A3012 840 100 -300 170/09 RMK AO2
14926KSTC STC20041116055014811/16/04 05:50:31  5-MIN KSTC 161150Z AUTO 17009KT 1/2SM FG BKN002 OVC007 03/03 A3012 840 100 -300 170/09 RMK AO2 SLP219 T00330033 10039 21006 55008
14926KSTC STC20041116055511311/16/04 05:55:31  5-MIN KSTC 161155Z AUTO 18010KT 1/2SM FG BKN002 OVC007 03/03 A3012 840 100 -300 170/10 RMK AO2
14926KSTC STC20041116060011311/16/04 06:00:31  5-MIN KSTC 161200Z AUTO 17010KT 1/2SM FG BKN002 OVC007 03/03 A3012 840 100 -300 170/10 RMK AO2
14926KSTC STC20041116060511311/16/04 06:05:31  5-MIN KSTC 161205Z AUTO 18011KT 3/4SM BR BKN002 OVC007 04/04 A3012 850 100 -200 170/11 RMK AO2
14926KSTC STC20041116061010611/16/04 06:10:31  5-MIN KSTC 161210Z AUTO 17011KT 3/4SM BR OVC002 04/04 A3012 850 100 -200 170/11 RMK AO2
14926KSTC STC20041116061510611/16/04 06:15:31  5-MIN KSTC 161215Z AUTO 18009KT 3/4SM BR OVC002 04/04 A3012 850 100 -200 170/09 RMK AO2
14926KSTC STC20041116062010611/16/04 06:20:31  5-MIN KSTC 161220Z AUTO 18011KT 3/4SM BR OVC002 04/04 A3012 840 100 -200 180/11 RMK AO2
14926KSTC STC20041116062510611/16/04 06:25:31  5-MIN KSTC 161225Z AUTO 18011KT 3/4SM BR OVC002 04/04 A3012 840 100 -200 180/11 RMK AO2
14926KSTC STC20041116063010611/16/04 06:30:31  5-MIN KSTC 161230Z AUTO 18011KT 3/4SM BR OVC002 04/04 A3012 840 100 -200 170/11 RMK AO2
14926KSTC STC20041116063510611/16/04 06:35:31  5-MIN KSTC 161235Z AUTO 18010KT 3/4SM BR OVC002 04/04 A3012 840 100 -200 170/10 RMK AO2
14926KSTC STC20041116064010611/16/04 06:40:31  5-MIN KSTC 161240Z AUTO 18010KT 3/4SM BR OVC002 04/04 A3012 850 100 -200 180/10 RMK AO2
14926KSTC STC20041116064510611/16/04 06:45:31  5-MIN KSTC 161245Z AUTO 18012KT 3/4SM BR OVC002 04/04 A3012 850 100 -100 180/12 RMK AO2
14926KSTC STC20041116065012311/16/04 06:50:31  5-MIN KSTC 161250Z AUTO 18012KT 3/4SM BR OVC002 04/04 A3011 850 100 -100 180/12 RMK AO2 SLP215 T00440044
14926KSTC STC20041116065510611/16/04 06:55:31  5-MIN KSTC 161255Z AUTO 18011KT 3/4SM BR OVC002 04/04 A3011 850 100 -100 180/11 RMK AO2
14926KSTC STC20041116070010611/16/04 07:00:31  5-MIN KSTC 161300Z AUTO 18011KT 1/2SM FG OVC002 04/04 A3011 850 100 -100 180/11 RMK AO2
14926KSTC STC20041116070510611/16/04 07:05:31  5-MIN KSTC 161305Z AUTO 19011KT 1/2SM FG OVC002 04/04 A3011 850 100 -100 180/11 RMK AO2
14926KSTC STC20041116071010611/16/04 07:10:31  5-MIN KSTC 161310Z AUTO 19011KT 1/2SM FG OVC002 04/04 A3011 850 100 -100 180/11 RMK AO2
14926KSTC STC20041116071510611/16/04 07:15:31  5-MIN KSTC 161315Z AUTO 19011KT 1/2SM FG OVC002 04/04 A3012 840 100 -100 180/11 RMK AO2
14926KSTC STC20041116072010611/16/04 07:20:31  5-MIN KSTC 161320Z AUTO 19012KT 1/2SM FG OVC002 04/04 A3012 840 100 -100 180/12 RMK AO2
14926KSTC STC20041116072510611/16/04 07:25:31  5-MIN KSTC 161325Z AUTO 19014KT 1/2SM FG OVC002 04/04 A3012 840 100 -100 180/14 RMK AO2
14926KSTC STC20041116073010611/16/04 07:30:31  5-MIN KSTC 161330Z AUTO 19012KT 1/2SM FG OVC002 04/04 A3012 840 100 -100 180/12 RMK AO2
14926KSTC STC20041116073511211/16/04 07:35:31  5-MIN KSTC 161335Z AUTO 19014G20KT 1/2SM FG OVC002 04/04 A3012 840 100 -100 180/14G20 RMK AO2
14926KSTC STC20041116074011211/16/04 07:40:31  5-MIN KSTC 161340Z AUTO 18012G20KT 1/4SM FG OVC002 04/04 A3012 840 100 -100 180/12G20 RMK AO2
14926KSTC STC20041116074510611/16/04 07:45:31  5-MIN KSTC 161345Z AUTO 19010KT 1/4SM FG OVC002 04/04 A3013 840 100 -100 190/10 RMK AO2
14926KSTC STC20041116075012311/16/04 07:50:31  5-MIN KSTC 161350Z AUTO 19009KT 1/4SM FG OVC002 05/05 A3012 840 100 -100 190/09 RMK AO2 SLP218 T00500050
14926KSTC STC20041116075510611/16/04 07:55:31  5-MIN KSTC 161355Z AUTO 19011KT 1/4SM FG OVC002 05/05 A3012 840 100 -100 180/11 RMK AO2
14926KSTC STC20041116080010611/16/04 08:00:31  5-MIN KSTC 161400Z AUTO 19009KT 1/4SM FG OVC002 05/05 A3012 840 100 -100 190/09 RMK AO2
14926KSTC STC20041116080510611/16/04 08:05:31  5-MIN KSTC 161405Z AUTO 18011KT 1/4SM FG OVC002 05/05 A3012 840 100 -100 180/11 RMK AO2
14926KSTC STC20041116081010611/16/04 08:10:31  5-MIN KSTC 161410Z AUTO 18010KT 1/4SM FG OVC002 05/05 A3012 840 100 -100 180/10 RMK AO2
14926KSTC STC20041116081510611/16/04 08:15:31  5-MIN KSTC 161415Z AUTO 19009KT 1/4SM FG OVC002 05/05 A3012 840 100 -100 180/09 RMK AO2
14926KSTC STC20041116082010311/16/04 08:20:31  5-MIN KSTC 161420Z AUTO 19010KT 1/4SM FG OVC002 06/06 A3012 840 100 0 180/10 RMK AO2
14926KSTC STC20041116082510311/16/04 08:25:31  5-MIN KSTC 161425Z AUTO 18009KT 1/4SM FG OVC002 06/06 A3012 840 100 0 180/09 RMK AO2
14926KSTC STC20041116083010311/16/04 08:30:31  5-MIN KSTC 161430Z AUTO 19010KT 1/4SM FG OVC002 06/06 A3012 840 100 0 180/10 RMK AO2
14926KSTC STC20041116083510311/16/04 08:35:31  5-MIN KSTC 161435Z AUTO 18008KT 1/4SM FG OVC002 06/06 A3012 840 100 0 180/08 RMK AO2
14926KSTC STC20041116084010311/16/04 08:40:31  5-MIN KSTC 161440Z AUTO 17008KT 1/4SM FG OVC002 06/06 A3012 840 100 0 170/08 RMK AO2
14926KSTC STC20041116084510311/16/04 08:45:31  5-MIN KSTC 161445Z AUTO 17008KT 1/4SM FG OVC002 06/06 A3012 840 100 0 170/08 RMK AO2
14926KSTC STC20041116085012611/16/04 08:50:31  5-MIN KSTC 161450Z AUTO 18007KT 1/4SM FG OVC002 06/06 A3012 840 100 0 170/07 RMK AO2 SLP218 T00560056 58008
14926KSTC STC20041116085510311/16/04 08:55:31  5-MIN KSTC 161455Z AUTO 18007KT 1/4SM FG OVC002 06/06 A3012 840 100 0 180/07 RMK AO2
14926KSTC STC20041116090010311/16/04 09:00:31  5-MIN KSTC 161500Z AUTO 18008KT 1/4SM FG OVC002 06/06 A3012 840 100 0 180/08 RMK AO2
14926KSTC STC20041116090510311/16/04 09:05:31  5-MIN KSTC 161505Z AUTO 18007KT 1/4SM FG OVC002 06/06 A3012 840 100 0 180/07 RMK AO2
14926KSTC STC20041116091010311/16/04 09:10:31  5-MIN KSTC 161510Z AUTO 18007KT 1/4SM FG OVC002 06/06 A3012 840 100 0 170/07 RMK AO2
14926KSTC STC20041116091510311/16/04 09:15:31  5-MIN KSTC 161515Z AUTO 18007KT 1/4SM FG OVC002 06/06 A3012 840 100 0 180/07 RMK AO2
14926KSTC STC20041116092010311/16/04 09:20:31  5-MIN KSTC 161520Z AUTO 18007KT 1/4SM FG OVC002 06/06 A3013 840 100 0 180/07 RMK AO2
14926KSTC STC20041116092510311/16/04 09:25:31  5-MIN KSTC 161525Z AUTO 18006KT 1/4SM FG OVC002 06/06 A3013 840 100 0 180/06 RMK AO2
14926KSTC STC20041116093010511/16/04 09:30:31  5-MIN KSTC 161530Z AUTO 18007KT 1/4SM FG OVC002 07/07 A3013 830 100 100 170/07 RMK AO2
14926KSTC STC20041116093510511/16/04 09:35:31  5-MIN KSTC 161535Z AUTO 18006KT 1/4SM FG OVC002 07/07 A3013 830 100 100 180/06 RMK AO2
14926KSTC STC20041116094010511/16/04 09:40:31  5-MIN KSTC 161540Z AUTO 18007KT 1/4SM FG OVC002 07/07 A3013 830 100 100 180/07 RMK AO2
14926KSTC STC20041116094510511/16/04 09:45:31  5-MIN KSTC 161545Z AUTO 18006KT 1/2SM FG OVC002 07/07 A3013 830 100 100 180/06 RMK AO2
14926KSTC STC20041116140511511/16/04 14:05:31  5-MIN KSTC 162005Z AUTO 17006KT 3SM BR OVC006 09/09 A3007 890 100 400 170/06 RMK AO2 CIG 004V008
14926KSTC STC20041116141010311/16/04 14:10:31  5-MIN KSTC 162010Z AUTO 18007KT 3SM BR OVC006 09/09 A3007 890 100 400 180/07 RMK AO2
14926KSTC STC20041116141511511/16/04 14:15:31  5-MIN KSTC 162015Z AUTO 18008KT 3SM BR OVC006 09/09 A3007 890 100 400 180/08 RMK AO2 CIG 004V009
14926KSTC STC20041116142011411/16/04 14:20:31  5-MIN KSTC 162020Z AUTO 18008KT 3SM BR OVC006 09/09 A3006 890 96 500 180/08 RMK AO2 CIG 005V009
14926KSTC STC20041116142510211/16/04 14:25:31  5-MIN KSTC 162025Z AUTO 18008KT 3SM BR OVC006 09/09 A3006 890 96 500 170/08 RMK AO2
14926KSTC STC20041116143010611/16/04 14:30:31  5-MIN KSTC 162030Z AUTO 18008KT 2 1/2SM BR OVC006 09/09 A3006 900 96 500 170/08 RMK AO2
14926KSTC STC20041116143510711/16/04 14:35:31  5-MIN KSTC 162035Z AUTO 17008KT 2 1/2SM BR OVC006 09/09 A3006 900 100 400 170/08 RMK AO2
14926KSTC STC20041116144011911/16/04 14:40:31  5-MIN KSTC 162040Z AUTO 17006KT 2 1/2SM BR OVC006 09/09 A3006 900 100 400 170/06 RMK AO2 CIG 004V009
14926KSTC STC20041116144511911/16/04 14:45:31  5-MIN KSTC 162045Z AUTO 17005KT 2 1/2SM BR OVC006 09/09 A3006 900 100 400 170/05 RMK AO2 CIG 004V009
14926KSTC STC20041116145014211/16/04 14:50:31  5-MIN KSTC 162050Z AUTO 17007KT 2 1/2SM BR OVC006 09/09 A3005 900 100 500 170/07 RMK AO2 CIG 004V008 SLP193 T00940094 58004
14926KSTC STC20041116145511511/16/04 14:55:31  5-MIN KSTC 162055Z AUTO 17006KT 3SM BR OVC006 09/09 A3006 900 100 500 160/06 RMK AO2 CIG 004V008
14926KSTC STC20041116150011011/16/04 15:00:31  5-MIN KSTC 162100Z AUTO 16007KT 3SM BR BKN006 OVC009 09/09 A3006 900 100 500 160/07 RMK AO2
14926KSTC STC20041116150511511/16/04 15:05:31  5-MIN KSTC 162105Z AUTO 17007KT 3SM BR OVC006 09/09 A3006 900 100 500 170/07 RMK AO2 CIG 004V009
14926KSTC STC20041116151011911/16/04 15:10:31  5-MIN KSTC 162110Z AUTO 17008KT 2 1/2SM BR OVC006 09/09 A3006 900 100 500 170/08 RMK AO2 CIG 004V009
14926KSTC STC20041116151511911/16/04 15:15:31  5-MIN KSTC 162115Z AUTO 17006KT 2 1/2SM BR OVC006 09/09 A3006 900 100 500 160/06 RMK AO2 CIG 004V009
14926KSTC STC20041116152011911/16/04 15:20:31  5-MIN KSTC 162120Z AUTO 17006KT 2 1/2SM BR OVC006 09/09 A3006 900 100 400 170/06 RMK AO2 CIG 004V009
14926KSTC STC20041116152511911/16/04 15:25:31  5-MIN KSTC 162125Z AUTO 17006KT 2 1/2SM BR OVC006 09/09 A3005 900 100 500 160/06 RMK AO2 CIG 004V008
14926KSTC STC20041116153011911/16/04 15:30:31  5-MIN KSTC 162130Z AUTO 16006KT 2 1/2SM BR OVC006 09/09 A3006 900 100 500 160/06 RMK AO2 CIG 004V010
14926KSTC STC20041116153511911/16/04 15:35:31  5-MIN KSTC 162135Z AUTO 16005KT 2 1/2SM BR OVC006 09/09 A3006 900 100 400 160/05 RMK AO2 CIG 004V010
14926KSTC STC20041116154011911/16/04 15:40:31  5-MIN KSTC 162140Z AUTO 16006KT 2 1/2SM BR OVC006 09/09 A3006 900 100 400 160/06 RMK AO2 CIG 004V010
14926KSTC STC20041116154512611/16/04 15:45:31  5-MIN KSTC 162145Z AUTO 17005KT 2 1/2SM BR BKN006 OVC011 09/09 A3006 900 100 400 160/05 RMK AO2 CIG 004V009
14926KSTC STC20041116155014311/16/04 15:50:31  5-MIN KSTC 162150Z AUTO 16006KT 2 1/2SM BR BKN006 OVC011 09/09 A3006 900 100 500 160/06 RMK AO2 CIG 004V010 SLP196 T00940094
14926KSTC STC20041116155511511/16/04 15:55:31  5-MIN KSTC 162155Z AUTO 16007KT 3SM BR OVC009 09/09 A3005 900 100 400 150/07 RMK AO2 CIG 004V012
14926KSTC STC20041116160012211/16/04 16:00:31  5-MIN KSTC 162200Z AUTO 15007KT 3SM BR BKN009 OVC014 09/09 A3005 910 100 400 150/07 RMK AO2 CIG 005V012
14926KSTC STC20041116160511411/16/04 16:05:31  5-MIN KSTC 162205Z AUTO 15007KT 2 1/2SM BR FEW007 OVC012 09/09 A3005 910 100 400 150/07 RMK AO2
14926KSTC STC20041116161010311/16/04 16:10:31  5-MIN KSTC 162210Z AUTO 15008KT 3SM BR OVC012 09/09 A3004 910 100 400 150/08 RMK AO2
14926KSTC STC20041116161510311/16/04 16:15:31  5-MIN KSTC 162215Z AUTO 15007KT 3SM BR OVC012 09/09 A3005 910 100 400 140/07 RMK AO2
14926KSTC STC20041116162010311/16/04 16:20:31  5-MIN KSTC 162220Z AUTO 14006KT 3SM BR OVC012 09/09 A3005 910 100 400 140/06 RMK AO2
14926KSTC STC20041116162510311/16/04 16:25:31  5-MIN KSTC 162225Z AUTO 14006KT 3SM BR OVC012 09/09 A3005 910 100 400 130/06 RMK AO2
14926KSTC STC20041116163010311/16/04 16:30:31  5-MIN KSTC 162230Z AUTO 13005KT 3SM BR OVC012 09/09 A3005 910 100 400 130/05 RMK AO2
14926KSTC STC20041116163510311/16/04 16:35:31  5-MIN KSTC 162235Z AUTO 14006KT 3SM BR OVC012 09/09 A3005 910 100 400 140/06 RMK AO2
14926KSTC STC20041116164011011/16/04 16:40:31  5-MIN KSTC 162240Z AUTO 15005KT 3SM BR FEW008 OVC012 09/09 A3006 900 100 400 150/05 RMK AO2
14926KSTC STC20041116164511011/16/04 16:45:31  5-MIN KSTC 162245Z AUTO 16006KT 4SM BR FEW008 OVC012 09/09 A3005 900 100 400 150/06 RMK AO2
14926KSTC STC20041116165012711/16/04 16:50:31  5-MIN KSTC 162250Z AUTO 15006KT 4SM BR FEW007 OVC012 09/09 A3005 900 100 400 150/06 RMK AO2 SLP194 T00890089
14926KSTC STC20041116165511011/16/04 16:55:31  5-MIN KSTC 162255Z AUTO 15006KT 4SM BR FEW007 OVC012 09/09 A3005 910 100 400 150/06 RMK AO2
14926KSTC STC20041116170010311/16/04 17:00:31  5-MIN KSTC 162300Z AUTO 15007KT 4SM BR OVC012 09/09 A3005 900 100 400 140/07 RMK AO2
14926KSTC STC20041116170510311/16/04 17:05:31  5-MIN KSTC 162305Z AUTO 15006KT 4SM BR OVC014 09/09 A3005 900 100 400 140/06 RMK AO2
14926KSTC STC20041116171010311/16/04 17:10:31  5-MIN KSTC 162310Z AUTO 14006KT 4SM BR OVC014 09/09 A3005 910 100 400 140/06 RMK AO2
14926KSTC STC20041116171510311/16/04 17:15:31  5-MIN KSTC 162315Z AUTO 14008KT 4SM BR OVC014 09/09 A3004 910 100 400 130/08 RMK AO2
14926KSTC STC20041116172010311/16/04 17:20:31  5-MIN KSTC 162320Z AUTO 14007KT 5SM BR OVC016 09/09 A3005 910 100 500 140/07 RMK AO2
14926KSTC STC20041116172510311/16/04 17:25:31  5-MIN KSTC 162325Z AUTO 15005KT 5SM BR OVC016 09/09 A3005 900 100 400 150/05 RMK AO2
14926KSTC STC20041116173010311/16/04 17:30:31  5-MIN KSTC 162330Z AUTO 15004KT 5SM BR OVC016 09/09 A3006 900 100 400 150/04 RMK AO2
14926KSTC STC20041116173510311/16/04 17:35:31  5-MIN KSTC 162335Z AUTO 15003KT 4SM BR OVC016 09/09 A3006 900 100 400 150/03 RMK AO2
14926KSTC STC20041116174010311/16/04 17:40:31  5-MIN KSTC 162340Z AUTO 00000KT 4SM BR OVC018 09/09 A3006 900 100 400 000/00 RMK AO2
14926KSTC STC20041116174510311/16/04 17:45:31  5-MIN KSTC 162345Z AUTO 00000KT 4SM BR OVC018 09/09 A3006 900 100 400 000/00 RMK AO2
14926KSTC STC20041116175013811/16/04 17:50:31  5-MIN KSTC 162350Z AUTO 13003KT 4SM BR OVC018 09/09 A3006 900 100 400 130/03 RMK AO2 SLP196 T00890089 10094 20083 56018
14926KSTC STC20041116175510311/16/04 17:55:31  5-MIN KSTC 162355Z AUTO 00000KT 5SM BR OVC018 09/09 A3006 900 100 400 000/00 RMK AO2
14926KSTC STC20041116180010311/16/04 18:00:31  5-MIN KSTC 170000Z AUTO 12003KT 5SM BR OVC020 09/09 A3006 900 100 400 120/03 RMK AO2
14926KSTC STC20041116180510311/16/04 18:05:31  5-MIN KSTC 170005Z AUTO 00000KT 5SM BR OVC020 09/09 A3006 900 100 400 000/00 RMK AO2
14926KSTC STC20041116181010311/16/04 18:10:31  5-MIN KSTC 170010Z AUTO 00000KT 5SM BR OVC020 09/09 A3006 900 100 400 000/00 RMK AO2
14926KSTC STC20041116181510311/16/04 18:15:31  5-MIN KSTC 170015Z AUTO 14003KT 5SM BR OVC020 09/09 A3006 900 100 400 140/03 RMK AO2
14926KSTC STC20041116182010311/16/04 18:20:31  5-MIN KSTC 170020Z AUTO 14003KT 4SM BR OVC020 09/09 A3006 900 100 400 130/03 RMK AO2
14926KSTC STC20041116182510311/16/04 18:25:31  5-MIN KSTC 170025Z AUTO 13003KT 4SM BR OVC022 09/09 A3006 900 100 400 130/03 RMK AO2
14926KSTC STC20041116183010311/16/04 18:30:31  5-MIN KSTC 170030Z AUTO VRB03KT 4SM BR OVC022 09/09 A3006 900 100 400 VRB/03 RMK AO2
14926KSTC STC20041116183510211/16/04 18:35:31  5-MIN KSTC 170035Z AUTO 09003KT 5SM BR OVC024 09/09 A3006 900 96 500 090/03 RMK AO2
14926KSTC STC20041116184010311/16/04 18:40:31  5-MIN KSTC 170040Z AUTO 10004KT 4SM BR OVC024 09/09 A3006 900 100 400 090/04 RMK AO2
14926KSTC STC20041116184510311/16/04 18:45:31  5-MIN KSTC 170045Z AUTO 10003KT 4SM BR OVC026 09/09 A3006 900 100 400 100/03 RMK AO2
14926KSTC STC20041116185012011/16/04 18:50:31  5-MIN KSTC 170050Z AUTO 10003KT 4SM BR OVC026 09/09 A3006 900 100 400 090/03 RMK AO2 SLP194 T00890089
14926KSTC STC20041116185510311/16/04 18:55:31  5-MIN KSTC 170055Z AUTO 08003KT 4SM BR OVC026 09/09 A3006 900 100 400 080/03 RMK AO2
14926KSTC STC20041116190010311/16/04 19:00:31  5-MIN KSTC 170100Z AUTO 09003KT 4SM BR OVC026 09/09 A3006 890 100 400 090/03 RMK AO2
14926KSTC STC20041116190510211/16/04 19:05:31  5-MIN KSTC 170105Z AUTO 10003KT 4SM BR OVC026 09/09 A3006 890 96 500 090/03 RMK AO2
14926KSTC STC20041116191010311/16/04 19:10:31  5-MIN KSTC 170110Z AUTO 00000KT 4SM BR OVC028 09/09 A3007 890 100 400 000/00 RMK AO2
14926KSTC STC20041116191510311/16/04 19:15:31  5-MIN KSTC 170115Z AUTO 11003KT 4SM BR OVC028 09/09 A3006 890 100 400 100/03 RMK AO2
14926KSTC STC20041116192010311/16/04 19:20:31  5-MIN KSTC 170120Z AUTO 00000KT 4SM BR OVC028 09/09 A3006 900 100 400 000/00 RMK AO2
14926KSTC STC20041116192510311/16/04 19:25:31  5-MIN KSTC 170125Z AUTO 11003KT 4SM BR OVC028 09/09 A3006 900 100 400 100/03 RMK AO2
14926KSTC STC20041116193010311/16/04 19:30:31  5-MIN KSTC 170130Z AUTO 11004KT 4SM BR OVC028 09/09 A3006 900 100 400 110/04 RMK AO2
14926KSTC STC20041116193510311/16/04 19:35:31  5-MIN KSTC 170135Z AUTO 11003KT 4SM BR OVC028 09/09 A3006 900 100 400 100/03 RMK AO2
14926KSTC STC20041116194010311/16/04 19:40:31  5-MIN KSTC 170140Z AUTO 11003KT 4SM BR OVC028 09/09 A3006 900 100 400 100/03 RMK AO2
14926KSTC STC20041116194510311/16/04 19:45:31  5-MIN KSTC 170145Z AUTO 00000KT 4SM BR OVC028 09/09 A3006 900 100 400 000/00 RMK AO2
14926KSTC STC20041116195012011/16/04 19:50:31  5-MIN KSTC 170150Z AUTO 00000KT 4SM BR OVC028 09/09 A3006 900 100 400 000/00 RMK AO2 SLP194 T00890089
14926KSTC STC20041116195510311/16/04 19:55:31  5-MIN KSTC 170155Z AUTO 00000KT 4SM BR OVC028 09/09 A3005 900 100 400 000/00 RMK AO2
14926KSTC STC20041116200010311/16/04 20:00:31  5-MIN KSTC 170200Z AUTO 09003KT 4SM BR OVC028 09/09 A3005 900 100 400 090/03 RMK AO2
14926KSTC STC20041116200510311/16/04 20:05:31  5-MIN KSTC 170205Z AUTO 10003KT 3SM BR OVC028 09/09 A3006 900 100 400 090/03 RMK AO2
14926KSTC STC20041116201010311/16/04 20:10:31  5-MIN KSTC 170210Z AUTO 00000KT 3SM BR OVC028 09/09 A3006 900 100 400 000/00 RMK AO2
14926KSTC STC20041116201510311/16/04 20:15:31  5-MIN KSTC 170215Z AUTO 00000KT 4SM BR OVC026 09/09 A3006 900 100 400 000/00 RMK AO2
14926KSTC STC20041116202010311/16/04 20:20:31  5-MIN KSTC 170220Z AUTO 00000KT 4SM BR OVC026 09/09 A3006 900 100 400 000/00 RMK AO2
14926KSTC STC20041116202510311/16/04 20:25:31  5-MIN KSTC 170225Z AUTO 00000KT 4SM BR OVC024 09/09 A3006 900 100 400 000/00 RMK AO2
14926KSTC STC20041116203010311/16/04 20:30:31  5-MIN KSTC 170230Z AUTO 00000KT 3SM BR OVC024 09/09 A3006 900 100 400 000/00 RMK AO2
14926KSTC STC20041116203510311/16/04 20:35:31  5-MIN KSTC 170235Z AUTO 00000KT 3SM BR OVC024 09/09 A3006 900 100 400 000/00 RMK AO2
14926KSTC STC20041116204010311/16/04 20:40:31  5-MIN KSTC 170240Z AUTO 00000KT 3SM BR BKN024 09/09 A3005 900 100 400 000/00 RMK AO2
14926KSTC STC20041116204510711/16/04 20:45:31  5-MIN KSTC 170245Z AUTO 00000KT 2 1/2SM BR BKN024 08/08 A3006 900 100 400 000/00 RMK AO2
14926KSTC STC20041116205012811/16/04 20:50:31  5-MIN KSTC 170250Z AUTO 00000KT 3/4SM BR BKN024 08/08 A3006 900 100 300 000/00 RMK AO2 SLP193 T00780078 53002
14926KSTC STC20041116205510511/16/04 20:55:31  5-MIN KSTC 170255Z AUTO 00000KT 1/4SM FG BKN024 07/07 A3006 900 100 200 000/00 RMK AO2
14926KSTC STC20041116210010511/16/04 21:00:31  5-MIN KSTC 170300Z AUTO 00000KT 1/4SM FG BKN022 07/07 A3006 900 100 200 000/00 RMK AO2
14926KSTC STC20041116210511911/16/04 21:05:31  5-MIN KSTC 170305Z AUTO 00000KT 1/4SM FG FEW001 BKN022 BKN030 07/07 A3006 900 100 200 000/00 RMK AO2
14926KSTC STC20041116211011911/16/04 21:10:31  5-MIN KSTC 170310Z AUTO 00000KT 1/4SM FG SCT001 BKN022 BKN030 07/07 A3006 900 100 200 000/00 RMK AO2
14926KSTC STC20041116211511911/16/04 21:15:31  5-MIN KSTC 170315Z AUTO 00000KT 1/4SM FG SCT001 BKN022 OVC030 07/07 A3005 900 100 200 000/00 RMK AO2
14926KSTC STC20041116212011911/16/04 21:20:31  5-MIN KSTC 170320Z AUTO 00000KT 1/4SM FG BKN001 BKN022 OVC030 06/06 A3005 900 100 100 000/00 RMK AO2
14926KSTC STC20041116212511011/16/04 21:25:31  5-MIN KSTC 170325Z AUTO 00000KT 1/4SM FG BKN001 OVC022 06/06 A3005 910 100 0 000/00 RMK AO2
14926KSTC STC20041116213011011/16/04 21:30:31  5-MIN KSTC 170330Z AUTO 00000KT 1/4SM FG BKN001 OVC020 06/06 A3005 910 100 0 000/00 RMK AO2
14926KSTC STC20041116213510611/16/04 21:35:31  5-MIN KSTC 170335Z AUTO 00000KT M1/4SM FG VV001 04/04 A3005 910 100 -100 000/00 RMK AO2
14926KSTC STC20041116214011111/16/04 21:40:31  5-MIN KSTC 170340Z AUTO 00000KT M1/4SM FG BKN001 OVC009 06/06 A3005 910 100 0 000/00 RMK AO2
14926KSTC STC20041116214511111/16/04 21:45:31  5-MIN KSTC 170345Z AUTO 00000KT M1/4SM FG BKN001 OVC009 05/05 A3005 910 100 0 000/00 RMK AO2
14926KSTC STC20041116215013111/16/04 21:50:31  5-MIN KSTC 170350Z AUTO 00000KT M1/4SM FG BKN001 OVC009 04/04 A3005 910 100 -100 000/00 RMK AO2 SLP192 T00440044
14926KSTC STC20041116215511111/16/04 21:55:31  5-MIN KSTC 170355Z AUTO 09003KT M1/4SM FG BKN001 OVC009 05/05 A3005 910 100 0 090/03 RMK AO2
14926KSTC STC20041116220011411/16/04 22:00:31  5-MIN KSTC 170400Z AUTO 09004KT M1/4SM FG BKN001 OVC009 04/04 A3004 910 100 -100 090/04 RMK AO2
14926KSTC STC20041116220511311/16/04 22:05:31  5-MIN KSTC 170405Z AUTO 10004KT 1/4SM FG BKN001 OVC009 03/03 A3004 920 100 -200 100/04 RMK AO2
14926KSTC STC20041116221011011/16/04 22:10:31  5-MIN KSTC 170410Z AUTO 10005KT 1/4SM FG BKN001 OVC009 04/04 A3004 920 100 0 090/05 RMK AO2
14926KSTC STC20041116221511311/16/04 22:15:31  5-MIN KSTC 170415Z AUTO 10003KT 1/4SM FG BKN001 OVC009 04/04 A3004 920 100 -100 100/03 RMK AO2
14926KSTC STC20041116222011011/16/04 22:20:31  5-MIN KSTC 170420Z AUTO 00000KT 1/4SM FG BKN001 OVC009 04/04 A3004 920 100 0 000/00 RMK AO2
14926KSTC STC20041116222511011/16/04 22:25:31  5-MIN KSTC 170425Z AUTO 09004KT 1/4SM FG SCT001 OVC009 05/05 A3003 920 100 0 090/04 RMK AO2
14926KSTC STC20041116223011011/16/04 22:30:31  5-MIN KSTC 170430Z AUTO 08005KT 1/4SM FG SCT001 OVC009 04/04 A3003 930 100 0 070/05 RMK AO2
14926KSTC STC20041116223511011/16/04 22:35:31  5-MIN KSTC 170435Z AUTO 07004KT 1/4SM FG SCT001 OVC009 04/04 A3003 920 100 0 070/04 RMK AO2
14926KSTC STC20041116224011011/16/04 22:40:31  5-MIN KSTC 170440Z AUTO 00000KT 1/4SM FG SCT001 OVC009 05/05 A3003 920 100 0 000/00 RMK AO2
14926KSTC STC20041116224511011/16/04 22:45:31  5-MIN KSTC 170445Z AUTO 00000KT 1/4SM FG FEW001 OVC009 05/05 A3004 920 100 0 000/00 RMK AO2
14926KSTC STC20041116225012711/16/04 22:50:31  5-MIN KSTC 170450Z AUTO 00000KT 1/4SM FG FEW001 OVC009 05/05 A3004 920 100 0 000/00 RMK AO2 SLP186 T00500050
14926KSTC STC20041116225511411/16/04 22:55:31  5-MIN KSTC 170455Z AUTO 00000KT M1/4SM FG FEW001 OVC009 04/04 A3004 920 100 -100 000/00 RMK AO2
14926KSTC STC20041116230011411/16/04 23:00:31  5-MIN KSTC 170500Z AUTO 00000KT M1/4SM FG FEW001 OVC007 04/04 A3004 920 100 -100 000/00 RMK AO2
14926KSTC STC20041116230511311/16/04 23:05:31  5-MIN KSTC 170505Z AUTO 00000KT 1/4SM FG SCT001 OVC007 04/04 A3004 910 100 -100 000/00 RMK AO2
14926KSTC STC20041116231011311/16/04 23:10:31  5-MIN KSTC 170510Z AUTO 00000KT 1/4SM FG BKN001 OVC007 04/04 A3004 910 100 -100 000/00 RMK AO2
14926KSTC STC20041116231511311/16/04 23:15:31  5-MIN KSTC 170515Z AUTO 00000KT 1/4SM FG BKN001 OVC007 04/04 A3005 910 100 -100 000/00 RMK AO2
14926KSTC STC20041116232011311/16/04 23:20:31  5-MIN KSTC 170520Z AUTO 00000KT 1/4SM FG BKN001 OVC007 04/04 A3005 910 100 -100 000/00 RMK AO2
14926KSTC STC20041116232511311/16/04 23:25:31  5-MIN KSTC 170525Z AUTO 00000KT 1/4SM FG BKN001 OVC007 04/04 A3005 910 100 -100 000/00 RMK AO2
14926KSTC STC20041116233011311/16/04 23:30:31  5-MIN KSTC 170530Z AUTO 00000KT 1/4SM FG BKN001 OVC007 04/04 A3005 910 100 -100 000/00 RMK AO2
14926KSTC STC20041116233511311/16/04 23:35:31  5-MIN KSTC 170535Z AUTO 00000KT 1/4SM FG BKN001 OVC007 04/04 A3005 910 100 -100 000/00 RMK AO2
14926KSTC STC20041116234011311/16/04 23:40:31  5-MIN KSTC 170540Z AUTO 00000KT 1/4SM FG SCT001 OVC007 04/04 A3005 900 100 -100 000/00 RMK AO2
14926KSTC STC20041116234511311/16/04 23:45:31  5-MIN KSTC 170545Z AUTO 00000KT 1/4SM FG FEW001 OVC007 04/04 A3005 900 100 -100 000/00 RMK AO2
14926KSTC STC20041116235015911/16/04 23:50:31  5-MIN KSTC 170550Z AUTO 00000KT M1/4SM FG FEW001 OVC007 04/04 A3005 910 100 -100 000/00 RMK AO2 SLP190 T00440044 10094 20033 400941006 58002
14926KSTC STC20041116235511411/16/04 23:55:31  5-MIN KSTC 170555Z AUTO 00000KT M1/4SM FG FEW001 OVC007 04/04 A3005 910 100 -100 000/00 RMK AO2
14926KSTC STC20041117000011111/17/04 00:00:32  5-MIN KSTC 170600Z AUTO 00000KT M1/4SM FG SCT001 OVC007 05/05 A3005 910 100 0 000/00 RMK AO2
14926KSTC STC20041117000511111/17/04 00:05:31  5-MIN KSTC 170605Z AUTO 00000KT M1/4SM FG SCT001 OVC007 05/05 A3005 910 100 0 000/00 RMK AO2
14926KSTC STC20041117001011111/17/04 00:10:31  5-MIN KSTC 170610Z AUTO 00000KT M1/4SM FG SCT001 OVC007 05/05 A3006 900 100 0 000/00 RMK AO2
14926KSTC STC20041117001511111/17/04 00:15:31  5-MIN KSTC 170615Z AUTO 29003KT M1/4SM FG SCT001 OVC007 05/05 A3006 900 100 0 290/03 RMK AO2
14926KSTC STC20041117002011111/17/04 00:20:31  5-MIN KSTC 170620Z AUTO 34003KT M1/4SM FG SCT001 OVC007 05/05 A3005 910 100 0 340/03 RMK AO2
14926KSTC STC20041117002511111/17/04 00:25:31  5-MIN KSTC 170625Z AUTO 00000KT M1/4SM FG BKN001 OVC007 05/05 A3006 900 100 0 000/00 RMK AO2
14926KSTC STC20041117003011111/17/04 00:30:31  5-MIN KSTC 170630Z AUTO 00000KT M1/4SM FG BKN001 OVC007 05/05 A3005 910 100 0 000/00 RMK AO2
14926KSTC STC20041117003511111/17/04 00:35:31  5-MIN KSTC 170635Z AUTO 04003KT M1/4SM FG BKN001 OVC007 05/05 A3004 910 100 0 040/03 RMK AO2
14926KSTC STC20041117004011111/17/04 00:40:31  5-MIN KSTC 170640Z AUTO 06005KT M1/4SM FG BKN001 OVC007 05/05 A3003 920 100 0 060/05 RMK AO2
14926KSTC STC20041117004511111/17/04 00:45:31  5-MIN KSTC 170645Z AUTO 06004KT M1/4SM FG BKN001 OVC007 05/05 A3003 920 100 0 060/04 RMK AO2
14926KSTC STC20041117005012811/17/04 00:50:31  5-MIN KSTC 170650Z AUTO 00000KT M1/4SM FG BKN001 OVC007 06/06 A3005 910 100 0 000/00 RMK AO2 SLP189 T00560056
14926KSTC STC20041117005511111/17/04 00:55:31  5-MIN KSTC 170655Z AUTO 26004KT M1/4SM FG SCT001 OVC007 06/06 A3006 900 100 0 250/04 RMK AO2
14926KSTC STC20041117010011111/17/04 01:00:31  5-MIN KSTC 170700Z AUTO 25004KT M1/4SM FG SCT001 OVC007 05/05 A3006 900 100 0 250/04 RMK AO2
14926KSTC STC20041117010511111/17/04 01:05:31  5-MIN KSTC 170705Z AUTO 25003KT M1/4SM FG SCT001 OVC007 05/05 A3005 900 100 0 240/03 RMK AO2
14926KSTC STC20041117011011111/17/04 01:10:31  5-MIN KSTC 170710Z AUTO 00000KT M1/4SM FG SCT001 OVC007 05/05 A3006 900 100 0 000/00 RMK AO2
14926KSTC STC20041117011511111/17/04 01:15:31  5-MIN KSTC 170715Z AUTO 00000KT M1/4SM FG FEW001 OVC007 05/05 A3005 900 100 0 000/00 RMK AO2
14926KSTC STC20041117012011111/17/04 01:20:31  5-MIN KSTC 170720Z AUTO 00000KT M1/4SM FG SCT001 OVC007 05/05 A3005 900 100 0 000/00 RMK AO2
14926KSTC STC20041117012511111/17/04 01:25:31  5-MIN KSTC 170725Z AUTO 00000KT M1/4SM FG SCT001 OVC007 05/05 A3005 910 100 0 000/00 RMK AO2
14926KSTC STC20041117013011111/17/04 01:30:31  5-MIN KSTC 170730Z AUTO 00000KT M1/4SM FG SCT001 OVC007 05/05 A3005 910 100 0 000/00 RMK AO2
14926KSTC STC20041117013511111/17/04 01:35:31  5-MIN KSTC 170735Z AUTO 00000KT M1/4SM FG FEW001 OVC007 05/05 A3004 910 100 0 000/00 RMK AO2
14926KSTC STC20041117014011111/17/04 01:40:31  5-MIN KSTC 170740Z AUTO 00000KT M1/4SM FG FEW001 OVC007 05/05 A3005 910 100 0 000/00 RMK AO2
14926KSTC STC20041117014511111/17/04 01:45:31  5-MIN KSTC 170745Z AUTO 00000KT M1/4SM FG SCT001 OVC007 05/05 A3005 910 100 0 000/00 RMK AO2
14926KSTC STC20041117015012811/17/04 01:50:31  5-MIN KSTC 170750Z AUTO 00000KT M1/4SM FG BKN001 OVC007 05/05 A3005 910 100 0 000/00 RMK AO2 SLP191 T00500050
14926KSTC STC20041117015511011/17/04 01:55:31  5-MIN KSTC 170755Z AUTO 00000KT 1/4SM FG BKN001 OVC007 05/05 A3005 900 100 0 000/00 RMK AO2
14926KSTC STC20041117020011011/17/04 02:00:31  5-MIN KSTC 170800Z AUTO 00000KT 1/4SM FG BKN001 OVC007 05/05 A3005 900 100 0 000/00 RMK AO2
14926KSTC STC20041117020511011/17/04 02:05:31  5-MIN KSTC 170805Z AUTO 00000KT 1/4SM FG BKN001 OVC007 05/05 A3006 900 100 0 000/00 RMK AO2
14926KSTC STC20041117021011011/17/04 02:10:31  5-MIN KSTC 170810Z AUTO 00000KT 1/4SM FG BKN001 OVC007 05/05 A3006 900 100 0 000/00 RMK AO2
14926KSTC STC20041117021511011/17/04 02:15:31  5-MIN KSTC 170815Z AUTO 00000KT 1/4SM FG BKN001 OVC007 05/05 A3006 900 100 0 000/00 RMK AO2
14926KSTC STC20041117022011011/17/04 02:20:31  5-MIN KSTC 170820Z AUTO 00000KT 1/4SM FG BKN001 OVC007 05/05 A3006 900 100 0 000/00 RMK AO2
14926KSTC STC20041117022510211/17/04 02:25:31  5-MIN KSTC 170825Z AUTO 00000KT 1/4SM FG VV001 05/05 A3006 900 100 0 000/00 RMK AO2
14926KSTC STC20041117023010211/17/04 02:30:31  5-MIN KSTC 170830Z AUTO 28003KT 1/4SM FG VV001 05/05 A3007 890 100 0 280/03 RMK AO2
14926KSTC STC20041117023511311/17/04 02:35:31  5-MIN KSTC 170835Z AUTO 00000KT 1/4SM FG BKN001 OVC007 04/04 A3007 890 100 -100 000/00 RMK AO2
14926KSTC STC20041117024011311/17/04 02:40:31  5-MIN KSTC 170840Z AUTO 00000KT 1/4SM FG BKN001 OVC007 04/04 A3007 890 100 -100 000/00 RMK AO2
14926KSTC STC20041117024511311/17/04 02:45:31  5-MIN KSTC 170845Z AUTO 00000KT 1/4SM FG BKN001 OVC007 04/04 A3006 890 100 -100 000/00 RMK AO2
14926KSTC STC20041117025013611/17/04 02:50:31  5-MIN KSTC 170850Z AUTO 00000KT 1/4SM FG BKN001 OVC007 04/04 A3007 890 100 -100 000/00 RMK AO2 SLP197 T00440044 55002
14926KSTC STC20041117025511311/17/04 02:55:31  5-MIN KSTC 170855Z AUTO 00000KT 1/4SM FG BKN001 OVC007 04/04 A3007 890 100 -100 000/00 RMK AO2
14926KSTC STC20041117030011311/17/04 03:00:31  5-MIN KSTC 170900Z AUTO 03003KT 1/4SM FG BKN001 OVC007 04/04 A3006 900 100 -100 020/03 RMK AO2
14926KSTC STC20041117030511311/17/04 03:05:31  5-MIN KSTC 170905Z AUTO 00000KT 1/4SM FG BKN001 OVC007 04/04 A3006 900 100 -100 000/00 RMK AO2
14926KSTC STC20041117031010511/17/04 03:10:31  5-MIN KSTC 170910Z AUTO 04004KT 1/4SM FG VV001 04/04 A3005 900 100 -100 040/04 RMK AO2
14926KSTC STC20041117031510511/17/04 03:15:31  5-MIN KSTC 170915Z AUTO 05003KT 1/4SM FG VV001 04/04 A3005 900 100 -100 050/03 RMK AO2
14926KSTC STC20041117032010511/17/04 03:20:31  5-MIN KSTC 170920Z AUTO 00000KT 1/4SM FG VV001 04/04 A3005 900 100 -100 000/00 RMK AO2
14926KSTC STC20041117032510511/17/04 03:25:31  5-MIN KSTC 170925Z AUTO 00000KT 1/4SM FG VV001 04/04 A3005 900 100 -100 000/00 RMK AO2
14926KSTC STC20041117033010511/17/04 03:30:31  5-MIN KSTC 170930Z AUTO 00000KT 1/4SM FG VV001 04/04 A3006 900 100 -100 000/00 RMK AO2
14926KSTC STC20041117033510511/17/04 03:35:31  5-MIN KSTC 170935Z AUTO 00000KT 1/4SM FG VV001 04/04 A3006 900 100 -100 000/00 RMK AO2
14926KSTC STC20041117034010511/17/04 03:40:31  5-MIN KSTC 170940Z AUTO 00000KT 1/4SM FG VV001 04/04 A3006 900 100 -100 000/00 RMK AO2
14926KSTC STC20041117034510511/17/04 03:45:31  5-MIN KSTC 170945Z AUTO 00000KT 1/4SM FG VV001 04/04 A3006 900 100 -100 000/00 RMK AO2
14926KSTC STC20041117035013011/17/04 03:50:31  5-MIN KSTC 170950Z AUTO 00000KT 1/4SM FG BKN001 OVC007 04/04 A3006 890 100 -100 000/00 RMK AO2 SLP195 T00390039
14926KSTC STC20041117035511311/17/04 03:55:31  5-MIN KSTC 170955Z AUTO 00000KT 1/4SM FG BKN001 OVC007 04/04 A3007 890 100 -100 000/00 RMK AO2
14926KSTC STC20041117040011311/17/04 04:00:31  5-MIN KSTC 171000Z AUTO 19003KT 1/4SM FG BKN001 OVC007 04/04 A3007 890 100 -100 190/03 RMK AO2
14926KSTC STC20041117040511311/17/04 04:05:31  5-MIN KSTC 171005Z AUTO 00000KT 1/4SM FG BKN001 OVC007 04/04 A3006 890 100 -100 000/00 RMK AO2
14926KSTC STC20041117041011311/17/04 04:10:31  5-MIN KSTC 171010Z AUTO 00000KT 1/4SM FG SCT001 OVC007 04/04 A3007 890 100 -100 000/00 RMK AO2
14926KSTC STC20041117041511311/17/04 04:15:31  5-MIN KSTC 171015Z AUTO 00000KT 1/4SM FG SCT001 OVC007 04/04 A3007 890 100 -200 000/00 RMK AO2
14926KSTC STC20041117042011311/17/04 04:20:31  5-MIN KSTC 171020Z AUTO 00000KT 1/4SM FG SCT001 OVC007 04/04 A3007 890 100 -200 000/00 RMK AO2
14926KSTC STC20041117042511311/17/04 04:25:31  5-MIN KSTC 171025Z AUTO 00000KT 1/4SM FG FEW001 OVC007 04/04 A3007 880 100 -200 000/00 RMK AO2
14926KSTC STC20041117043011311/17/04 04:30:31  5-MIN KSTC 171030Z AUTO 00000KT 1/4SM FG FEW001 OVC007 03/03 A3008 880 100 -200 000/00 RMK AO2
14926KSTC STC20041117043511311/17/04 04:35:31  5-MIN KSTC 171035Z AUTO 00000KT 1/4SM FG FEW001 OVC007 04/04 A3007 880 100 -200 000/00 RMK AO2
14926KSTC STC20041117044011311/17/04 04:40:31  5-MIN KSTC 171040Z AUTO 00000KT 1/4SM FG FEW001 OVC007 03/03 A3007 890 100 -200 000/00 RMK AO2
14926KSTC STC20041117044511311/17/04 04:45:31  5-MIN KSTC 171045Z AUTO 00000KT 1/4SM FG FEW001 OVC007 03/03 A3007 890 100 -200 000/00 RMK AO2
14926KSTC STC20041117045013011/17/04 04:50:31  5-MIN KSTC 171050Z AUTO 00000KT 1/4SM FG FEW001 OVC007 03/03 A3008 880 100 -200 000/00 RMK AO2 SLP200 T00330033
14926KSTC STC20041117045511311/17/04 04:55:31  5-MIN KSTC 171055Z AUTO 00000KT 1/4SM FG SCT001 OVC007 03/03 A3007 880 100 -200 000/00 RMK AO2
14926KSTC STC20041117050011311/17/04 05:00:31  5-MIN KSTC 171100Z AUTO 00000KT 1/4SM FG SCT001 OVC007 03/03 A3008 880 100 -200 000/00 RMK AO2
14926KSTC STC20041117050511311/17/04 05:05:31  5-MIN KSTC 171105Z AUTO 00000KT 1/4SM FG SCT001 OVC007 03/03 A3007 880 100 -200 000/00 RMK AO2
14926KSTC STC20041117051011311/17/04 05:10:31  5-MIN KSTC 171110Z AUTO 19003KT 1/4SM FG SCT001 OVC007 03/03 A3008 880 100 -200 190/03 RMK AO2
14926KSTC STC20041117051511311/17/04 05:15:31  5-MIN KSTC 171115Z AUTO 18003KT 1/4SM FG SCT001 OVC007 03/03 A3008 880 100 -200 180/03 RMK AO2
14926KSTC STC20041117052011311/17/04 05:20:31  5-MIN KSTC 171120Z AUTO 00000KT 1/4SM FG SCT001 OVC007 03/03 A3008 880 100 -200 000/00 RMK AO2
14926KSTC STC20041117052511311/17/04 05:25:31  5-MIN KSTC 171125Z AUTO 18003KT 1/4SM FG SCT001 OVC007 03/03 A3008 880 100 -300 180/03 RMK AO2
14926KSTC STC20041117053011311/17/04 05:30:31  5-MIN KSTC 171130Z AUTO 00000KT 1/4SM FG SCT001 OVC007 03/03 A3008 870 100 -300 000/00 RMK AO2
14926KSTC STC20041117053511311/17/04 05:35:31  5-MIN KSTC 171135Z AUTO 19003KT 1/4SM FG FEW001 OVC007 03/03 A3008 880 100 -300 190/03 RMK AO2
14926KSTC STC20041117054011311/17/04 05:40:31  5-MIN KSTC 171140Z AUTO 00000KT 1/4SM FG FEW001 OVC007 03/03 A3008 880 100 -300 000/00 RMK AO2
14926KSTC STC20041117054511311/17/04 05:45:31  5-MIN KSTC 171145Z AUTO 00000KT 1/4SM FG FEW001 OVC007 03/03 A3008 880 100 -300 000/00 RMK AO2
14926KSTC STC20041117055014811/17/04 05:50:31  5-MIN KSTC 171150Z AUTO 00000KT 1/4SM FG FEW001 OVC007 03/03 A3008 880 100 -300 000/00 RMK AO2 SLP203 T00280028 10056 20028 53005
14926KSTC STC20041117055511311/17/04 05:55:31  5-MIN KSTC 171155Z AUTO 00000KT 1/4SM FG FEW001 OVC007 03/03 A3009 870 100 -300 000/00 RMK AO2
14926KSTC STC20041117060011311/17/04 06:00:31  5-MIN KSTC 171200Z AUTO 00000KT 1/4SM FG FEW001 OVC007 03/03 A3009 870 100 -300 000/00 RMK AO2
14926KSTC STC20041117060511311/17/04 06:05:31  5-MIN KSTC 171205Z AUTO 00000KT 1/4SM FG SCT001 OVC007 03/03 A3009 870 100 -300 000/00 RMK AO2
14926KSTC STC20041117061011311/17/04 06:10:31  5-MIN KSTC 171210Z AUTO 00000KT 1/4SM FG FEW001 OVC007 03/03 A3009 870 100 -300 000/00 RMK AO2
14926KSTC STC20041117061511311/17/04 06:15:31  5-MIN KSTC 171215Z AUTO 00000KT 1/4SM FG FEW001 OVC007 03/03 A3009 870 100 -300 000/00 RMK AO2
14926KSTC STC20041117062011311/17/04 06:20:31  5-MIN KSTC 171220Z AUTO 00000KT 1/4SM FG FEW001 OVC007 03/03 A3009 870 100 -300 000/00 RMK AO2
14926KSTC STC20041117062511311/17/04 06:25:31  5-MIN KSTC 171225Z AUTO 00000KT 1/4SM FG FEW001 OVC007 03/03 A3009 870 100 -300 000/00 RMK AO2
14926KSTC STC20041117063011311/17/04 06:30:31  5-MIN KSTC 171230Z AUTO 00000KT 1/4SM FG FEW001 OVC007 03/03 A3009 870 100 -300 000/00 RMK AO2
14926KSTC STC20041117063511311/17/04 06:35:31  5-MIN KSTC 171235Z AUTO 00000KT 1/4SM FG FEW001 OVC007 03/03 A3009 870 100 -300 000/00 RMK AO2
14926KSTC STC20041117064011311/17/04 06:40:31  5-MIN KSTC 171240Z AUTO 00000KT 1/4SM FG FEW001 OVC007 03/03 A3009 870 100 -300 000/00 RMK AO2
14926KSTC STC20041117064511311/17/04 06:45:31  5-MIN KSTC 171245Z AUTO 00000KT 1/4SM FG FEW001 OVC007 03/03 A3009 870 100 -300 000/00 RMK AO2
14926KSTC STC20041117065013011/17/04 06:50:31  5-MIN KSTC 171250Z AUTO 00000KT 1/4SM FG FEW001 OVC007 03/03 A3009 870 100 -300 000/00 RMK AO2 SLP205 T00280028
14926KSTC STC20041117065511311/17/04 06:55:31  5-MIN KSTC 171255Z AUTO 00000KT 1/4SM FG FEW001 OVC007 03/03 A3009 870 100 -300 000/00 RMK AO2
14926KSTC STC20041117070011311/17/04 07:00:31  5-MIN KSTC 171300Z AUTO 00000KT 1/4SM FG FEW001 OVC007 03/03 A3009 870 100 -300 000/00 RMK AO2
14926KSTC STC20041117070511311/17/04 07:05:31  5-MIN KSTC 171305Z AUTO 00000KT 1/4SM FG SCT001 OVC007 03/03 A3009 870 100 -300 000/00 RMK AO2
14926KSTC STC20041117071011311/17/04 07:10:31  5-MIN KSTC 171310Z AUTO 00000KT 1/4SM FG SCT001 OVC007 03/03 A3010 860 100 -300 000/00 RMK AO2
14926KSTC STC20041117071511411/17/04 07:15:31  5-MIN KSTC 171315Z AUTO 00000KT M1/4SM FG SCT001 OVC007 03/03 A3010 860 100 -300 000/00 RMK AO2
14926KSTC STC20041117072011411/17/04 07:20:31  5-MIN KSTC 171320Z AUTO 00000KT M1/4SM FG SCT001 OVC007 03/03 A3010 860 100 -300 000/00 RMK AO2
14926KSTC STC20041117072511411/17/04 07:25:31  5-MIN KSTC 171325Z AUTO 00000KT M1/4SM FG BKN001 OVC007 03/03 A3010 860 100 -300 000/00 RMK AO2
14926KSTC STC20041117073011411/17/04 07:30:31  5-MIN KSTC 171330Z AUTO 34003KT M1/4SM FG BKN001 OVC007 03/03 A3010 860 100 -300 340/03 RMK AO2
14926KSTC STC20041117073511411/17/04 07:35:31  5-MIN KSTC 171335Z AUTO 00000KT M1/4SM FG BKN001 OVC007 03/03 A3010 860 100 -300 000/00 RMK AO2
14926KSTC STC20041117074011411/17/04 07:40:31  5-MIN KSTC 171340Z AUTO 00000KT M1/4SM FG BKN001 OVC007 03/03 A3010 860 100 -300 000/00 RMK AO2
14926KSTC STC20041117074510611/17/04 07:45:31  5-MIN KSTC 171345Z AUTO 01003KT M1/4SM FG VV001 03/03 A3010 860 100 -300 010/03 RMK AO2
14926KSTC STC20041117075012311/17/04 07:50:31  5-MIN KSTC 171350Z AUTO 00000KT M1/4SM FG VV001 03/03 A3011 860 100 -300 000/00 RMK AO2 SLP211 T00330033
14926KSTC STC20041117075510611/17/04 07:55:31  5-MIN KSTC 171355Z AUTO 00000KT M1/4SM FG VV001 03/03 A3011 850 100 -300 000/00 RMK AO2
14926KSTC STC20041117080010611/17/04 08:00:31  5-MIN KSTC 171400Z AUTO 00000KT M1/4SM FG VV001 03/03 A3011 850 100 -300 000/00 RMK AO2
14926KSTC STC20041117080510611/17/04 08:05:31  5-MIN KSTC 171405Z AUTO 00000KT M1/4SM FG VV001 03/03 A3011 850 100 -300 000/00 RMK AO2
14926KSTC STC20041117081010611/17/04 08:10:31  5-MIN KSTC 171410Z AUTO 00000KT M1/4SM FG VV001 03/03 A3011 850 100 -300 000/00 RMK AO2
14926KSTC STC20041117081510611/17/04 08:15:31  5-MIN KSTC 171415Z AUTO 00000KT M1/4SM FG VV001 03/03 A3011 850 100 -300 000/00 RMK AO2
14926KSTC STC20041117082010611/17/04 08:20:31  5-MIN KSTC 171420Z AUTO 03003KT M1/4SM FG VV001 03/03 A3011 850 100 -300 030/03 RMK AO2
14926KSTC STC20041117082510611/17/04 08:25:31  5-MIN KSTC 171425Z AUTO 02003KT M1/4SM FG VV001 03/03 A3011 850 100 -300 020/03 RMK AO2
14926KSTC STC20041117083010611/17/04 08:30:31  5-MIN KSTC 171430Z AUTO 03003KT M1/4SM FG VV001 03/03 A3011 850 100 -300 030/03 RMK AO2
14926KSTC STC20041117083510611/17/04 08:35:31  5-MIN KSTC 171435Z AUTO 00000KT M1/4SM FG VV001 03/03 A3010 860 100 -300 000/00 RMK AO2
14926KSTC STC20041117084010611/17/04 08:40:31  5-MIN KSTC 171440Z AUTO 00000KT M1/4SM FG VV001 03/03 A3011 860 100 -300 000/00 RMK AO2
14926KSTC STC20041117084510611/17/04 08:45:31  5-MIN KSTC 171445Z AUTO 00000KT M1/4SM FG VV001 03/03 A3011 850 100 -300 000/00 RMK AO2
14926KSTC STC20041117085012911/17/04 08:50:31  5-MIN KSTC 171450Z AUTO 00000KT M1/4SM FG VV001 03/03 A3010 860 100 -300 000/00 RMK AO2 SLP210 T00330033 53006
14926KSTC STC20041117085510611/17/04 08:55:31  5-MIN KSTC 171455Z AUTO 00000KT M1/4SM FG VV001 04/04 A3010 860 100 -200 000/00 RMK AO2
14926KSTC STC20041117090010511/17/04 09:00:31  5-MIN KSTC 171500Z AUTO 00000KT 1/4SM FG VV001 04/04 A3010 860 100 -200 000/00 RMK AO2
14926KSTC STC20041117090510511/17/04 09:05:31  5-MIN KSTC 171505Z AUTO 00000KT 1/4SM FG VV001 04/04 A3010 860 100 -200 000/00 RMK AO2
14926KSTC STC20041117091010611/17/04 09:10:31  5-MIN KSTC 171510Z AUTO 00000KT 1/4SM FG OVC001 04/04 A3011 850 100 -200 000/00 RMK AO2
14926KSTC STC20041117091510611/17/04 09:15:31  5-MIN KSTC 171515Z AUTO 00000KT 1/4SM FG OVC001 04/04 A3010 860 100 -200 000/00 RMK AO2
14926KSTC STC20041117092010611/17/04 09:20:31  5-MIN KSTC 171520Z AUTO 14003KT 1/4SM FG OVC001 04/04 A3011 850 100 -200 140/03 RMK AO2
14926KSTC STC20041117092510611/17/04 09:25:31  5-MIN KSTC 171525Z AUTO 14003KT 1/4SM FG OVC001 04/04 A3011 860 100 -100 130/03 RMK AO2
14926KSTC STC20041117093010611/17/04 09:30:31  5-MIN KSTC 171530Z AUTO 16005KT 1/4SM FG OVC001 04/04 A3011 850 100 -100 150/05 RMK AO2
14926KSTC STC20041117093510611/17/04 09:35:31  5-MIN KSTC 171535Z AUTO 15005KT 1/4SM FG OVC001 04/04 A3011 850 100 -100 150/05 RMK AO2
14926KSTC STC20041117094010611/17/04 09:40:31  5-MIN KSTC 171540Z AUTO 15006KT 1/4SM FG OVC001 04/04 A3011 850 100 -100 150/06 RMK AO2
14926KSTC STC20041117094510611/17/04 09:45:31  5-MIN KSTC 171545Z AUTO 15006KT 1/4SM FG OVC001 04/04 A3011 850 100 -100 140/06 RMK AO2
14926KSTC STC20041117095012311/17/04 09:50:31  5-MIN KSTC 171550Z AUTO 15006KT 1/4SM FG OVC001 04/04 A3011 850 100 -100 150/06 RMK AO2 SLP214 T00440044
14926KSTC STC20041117095510611/17/04 09:55:31  5-MIN KSTC 171555Z AUTO 14005KT 1/4SM FG OVC001 04/04 A3011 850 100 -100 140/05 RMK AO2
14926KSTC STC20041117100010611/17/04 10:00:31  5-MIN KSTC 171600Z AUTO 15007KT 1/4SM FG OVC001 04/04 A3011 850 100 -100 140/07 RMK AO2
14926KSTC STC20041117100510611/17/04 10:05:31  5-MIN KSTC 171605Z AUTO 15005KT 1/4SM FG OVC001 04/04 A3011 850 100 -100 150/05 RMK AO2
14926KSTC STC20041117101010611/17/04 10:10:31  5-MIN KSTC 171610Z AUTO 18004KT 1/4SM FG OVC001 04/04 A3012 840 100 -100 170/04 RMK AO2
14926KSTC STC20041117101510611/17/04 10:15:31  5-MIN KSTC 171615Z AUTO 16005KT 1/4SM FG OVC001 04/04 A3012 840 100 -100 160/05 RMK AO2
14926KSTC STC20041117102010611/17/04 10:20:31  5-MIN KSTC 171620Z AUTO 17004KT 1/4SM FG OVC001 04/04 A3012 840 100 -100 160/04 RMK AO2
14926KSTC STC20041117102510611/17/04 10:25:31  5-MIN KSTC 171625Z AUTO 15004KT 1/4SM FG OVC001 04/04 A3012 840 100 -100 140/04 RMK AO2
14926KSTC STC20041117103010611/17/04 10:30:31  5-MIN KSTC 171630Z AUTO 17004KT 1/4SM FG OVC001 04/04 A3012 840 100 -100 170/04 RMK AO2
14926KSTC STC20041117103510611/17/04 10:35:31  5-MIN KSTC 171635Z AUTO 15003KT 1/4SM FG OVC001 04/04 A3012 840 100 -100 150/03 RMK AO2
14926KSTC STC20041117104010611/17/04 10:40:31  5-MIN KSTC 171640Z AUTO 15003KT 1/4SM FG OVC001 04/04 A3012 840 100 -100 150/03 RMK AO2
14926KSTC STC20041117104510611/17/04 10:45:31  5-MIN KSTC 171645Z AUTO 18003KT 1/4SM FG OVC001 04/04 A3013 840 100 -100 170/03 RMK AO2
14926KSTC STC20041117105012311/17/04 10:50:31  5-MIN KSTC 171650Z AUTO 00000KT 1/4SM FG OVC001 04/04 A3013 840 100 -200 000/00 RMK AO2 SLP219 T00440044
14926KSTC STC20041117105510611/17/04 10:55:31  5-MIN KSTC 171655Z AUTO 00000KT 1/4SM FG OVC001 04/04 A3013 840 100 -200 000/00 RMK AO2
14926KSTC STC20041117110010511/17/04 11:00:31  5-MIN KSTC 171700Z AUTO 21003KT 1/4SM FG VV001 04/04 A3013 840 100 -200 210/03 RMK AO2
14926KSTC STC20041117110510511/17/04 11:05:31  5-MIN KSTC 171705Z AUTO 22003KT 1/4SM FG VV001 04/04 A3013 840 100 -200 220/03 RMK AO2
14926KSTC STC20041117111010611/17/04 11:10:31  5-MIN KSTC 171710Z AUTO 20003KT M1/4SM FG VV001 04/04 A3013 840 100 -200 200/03 RMK AO2
14926KSTC STC20041117111510611/17/04 11:15:31  5-MIN KSTC 171715Z AUTO 19005KT M1/4SM FG VV001 04/04 A3013 830 100 -200 190/05 RMK AO2
14926KSTC STC20041117112010611/17/04 11:20:31  5-MIN KSTC 171720Z AUTO 22004KT M1/4SM FG VV001 04/04 A3013 830 100 -200 220/04 RMK AO2
14926KSTC STC20041117112510611/17/04 11:25:31  5-MIN KSTC 171725Z AUTO 20004KT M1/4SM FG VV001 04/04 A3013 840 100 -100 200/04 RMK AO2
14926KSTC STC20041117113010611/17/04 11:30:31  5-MIN KSTC 171730Z AUTO 22004KT M1/4SM FG VV001 04/04 A3013 840 100 -100 210/04 RMK AO2
14926KSTC STC20041117113510611/17/04 11:35:31  5-MIN KSTC 171735Z AUTO 00000KT M1/4SM FG VV001 04/04 A3013 840 100 -200 000/00 RMK AO2
14926KSTC STC20041117114010611/17/04 11:40:31  5-MIN KSTC 171740Z AUTO 22003KT M1/4SM FG VV001 04/04 A3013 830 100 -200 220/03 RMK AO2
14926KSTC STC20041117114510611/17/04 11:45:31  5-MIN KSTC 171745Z AUTO 00000KT M1/4SM FG VV001 04/04 A3013 830 100 -200 000/00 RMK AO2
14926KSTC STC20041117115014111/17/04 11:50:31  5-MIN KSTC 171750Z AUTO 22003KT M1/4SM FG VV001 04/04 A3013 830 100 -200 220/03 RMK AO2 SLP220 T00440044 10044 20028 50006
14926KSTC STC20041117115510611/17/04 11:55:31  5-MIN KSTC 171755Z AUTO VRB03KT M1/4SM FG VV001 04/04 A3013 830 100 -200 VRB/03 RMK AO2
14926KSTC STC20041117120010611/17/04 12:00:31  5-MIN KSTC 171800Z AUTO 00000KT M1/4SM FG VV001 05/05 A3013 830 100 -100 000/00 RMK AO2
14926KSTC STC20041117120510611/17/04 12:05:31  5-MIN KSTC 171805Z AUTO 00000KT M1/4SM FG VV001 05/05 A3013 830 100 -100 000/00 RMK AO2
14926KSTC STC20041117121010611/17/04 12:10:31  5-MIN KSTC 171810Z AUTO 00000KT M1/4SM FG VV001 05/05 A3013 830 100 -100 000/00 RMK AO2
14926KSTC STC20041117121510611/17/04 12:15:31  5-MIN KSTC 171815Z AUTO 00000KT M1/4SM FG VV001 05/05 A3013 840 100 -100 000/00 RMK AO2
14926KSTC STC20041117122010611/17/04 12:20:31  5-MIN KSTC 171820Z AUTO 00000KT M1/4SM FG VV001 05/05 A3012 840 100 -100 000/00 RMK AO2
14926KSTC STC20041117122510611/17/04 12:25:31  5-MIN KSTC 171825Z AUTO 12003KT M1/4SM FG VV001 05/05 A3012 840 100 -100 120/03 RMK AO2
14926KSTC STC20041117123010311/17/04 12:30:31  5-MIN KSTC 171830Z AUTO VRB03KT M1/4SM FG VV001 06/06 A3012 850 100 0 VRB/03 RMK AO2
14926KSTC STC20041117123510311/17/04 12:35:31  5-MIN KSTC 171835Z AUTO 16005KT M1/4SM FG VV001 06/06 A3012 840 100 0 160/05 RMK AO2
14926KSTC STC20041117124010611/17/04 12:40:31  5-MIN KSTC 171840Z AUTO 14003KT M1/4SM FG VV001 05/05 A3012 840 100 -100 140/03 RMK AO2
14926KSTC STC20041117124510611/17/04 12:45:31  5-MIN KSTC 171845Z AUTO 15004KT M1/4SM FG VV001 05/05 A3012 840 100 -100 150/04 RMK AO2
14926KSTC STC20041117125011911/17/04 12:50:31  5-MIN KSTC 171850Z AUTO 13004KT 1/4SM FG VV001 06/06 A3012 840 100 0 130/04 RMK AO2 SLP216 T00560056
14926KSTC STC20041117125510211/17/04 12:55:31  5-MIN KSTC 171855Z AUTO 17004KT 1/4SM FG VV001 06/06 A3012 840 100 0 170/04 RMK AO2
14926KSTC STC20041117130010211/17/04 13:00:31  5-MIN KSTC 171900Z AUTO 17005KT 1/4SM FG VV001 06/06 A3012 840 100 0 170/05 RMK AO2
14926KSTC STC20041117130510211/17/04 13:05:31  5-MIN KSTC 171905Z AUTO 14004KT 1/4SM FG VV001 06/06 A3013 840 100 0 140/04 RMK AO2
14926KSTC STC20041117131010211/17/04 13:10:31  5-MIN KSTC 171910Z AUTO 17006KT 1/4SM FG VV001 06/06 A3013 840 100 0 160/06 RMK AO2
14926KSTC STC20041117131510211/17/04 13:15:31  5-MIN KSTC 171915Z AUTO 17005KT 1/4SM FG VV001 06/06 A3012 840 100 0 170/05 RMK AO2
14926KSTC STC20041117132010211/17/04 13:20:31  5-MIN KSTC 171920Z AUTO 14005KT 1/4SM FG VV001 06/06 A3012 840 100 0 130/05 RMK AO2
14926KSTC STC20041117132510211/17/04 13:25:31  5-MIN KSTC 171925Z AUTO 15006KT 1/4SM FG VV001 06/06 A3012 840 100 0 150/06 RMK AO2
14926KSTC STC20041117133010211/17/04 13:30:31  5-MIN KSTC 171930Z AUTO 14005KT 1/4SM FG VV001 06/06 A3011 850 100 0 140/05 RMK AO2
14926KSTC STC20041117133510311/17/04 13:35:31  5-MIN KSTC 171935Z AUTO 14005KT 1/4SM FG OVC001 06/06 A3011 850 100 0 130/05 RMK AO2
14926KSTC STC20041117134010311/17/04 13:40:31  5-MIN KSTC 171940Z AUTO 13005KT 1/4SM FG OVC001 06/06 A3011 860 100 0 130/05 RMK AO2
14926KSTC STC20041117134510311/17/04 13:45:31  5-MIN KSTC 171945Z AUTO 12004KT 1/4SM FG OVC001 06/06 A3011 860 100 0 120/04 RMK AO2
14926KSTC STC20041117135012011/17/04 13:50:31  5-MIN KSTC 171950Z AUTO VRB03KT 1/4SM FG OVC001 06/06 A3010 860 100 0 VRB/03 RMK AO2 SLP210 T00560056
14926KSTC STC20041117135510311/17/04 13:55:31  5-MIN KSTC 171955Z AUTO 08004KT 1/4SM FG OVC001 06/06 A3010 860 100 0 070/04 RMK AO2
14926KSTC STC20041117140010311/17/04 14:00:31  5-MIN KSTC 172000Z AUTO 10005KT 1/4SM FG OVC001 06/06 A3010 860 100 0 100/05 RMK AO2
14926KSTC STC20041117140510311/17/04 14:05:31  5-MIN KSTC 172005Z AUTO 16004KT 1/4SM FG OVC001 06/06 A3011 850 100 0 160/04 RMK AO2
14926KSTC STC20041117141010311/17/04 14:10:31  5-MIN KSTC 172010Z AUTO 00000KT 1/4SM FG OVC001 06/06 A3011 860 100 0 000/00 RMK AO2
14926KSTC STC20041117141510311/17/04 14:15:31  5-MIN KSTC 172015Z AUTO 17003KT 1/4SM FG OVC001 06/06 A3011 850 100 0 170/03 RMK AO2
14926KSTC STC20041117142010311/17/04 14:20:31  5-MIN KSTC 172020Z AUTO 20005KT 1/4SM FG OVC001 06/06 A3012 850 100 0 200/05 RMK AO2
14926KSTC STC20041117142510311/17/04 14:25:31  5-MIN KSTC 172025Z AUTO 22005KT 1/4SM FG OVC001 06/06 A3011 850 100 0 210/05 RMK AO2
14926KSTC STC20041117143010311/17/04 14:30:31  5-MIN KSTC 172030Z AUTO 19004KT 1/4SM FG OVC001 06/06 A3011 850 100 0 190/04 RMK AO2
14926KSTC STC20041117143510311/17/04 14:35:31  5-MIN KSTC 172035Z AUTO 00000KT 1/4SM FG OVC001 06/06 A3011 850 100 0 000/00 RMK AO2
14926KSTC STC20041117144010211/17/04 14:40:31  5-MIN KSTC 172040Z AUTO 00000KT 1/4SM FG VV001 06/06 A3011 850 100 0 000/00 RMK AO2
14926KSTC STC20041117144510211/17/04 14:45:31  5-MIN KSTC 172045Z AUTO 00000KT 1/4SM FG VV001 06/06 A3011 850 100 0 000/00 RMK AO2
14926KSTC STC20041117145012511/17/04 14:50:31  5-MIN KSTC 172050Z AUTO 00000KT 1/4SM FG VV001 06/06 A3011 850 100 0 000/00 RMK AO2 SLP213 T00610061 51009
14926KSTC STC20041117145510211/17/04 14:55:31  5-MIN KSTC 172055Z AUTO 23004KT 1/4SM FG VV001 06/06 A3012 850 100 0 230/04 RMK AO2
14926KSTC STC20041117150010311/17/04 15:00:31  5-MIN KSTC 172100Z AUTO 27004KT M1/4SM FG VV001 06/06 A3011 850 100 0 270/04 RMK AO2
14926KSTC STC20041117150510311/17/04 15:05:31  5-MIN KSTC 172105Z AUTO 27003KT M1/4SM FG VV001 06/06 A3012 850 100 0 270/03 RMK AO2
14926KSTC STC20041117151010311/17/04 15:10:31  5-MIN KSTC 172110Z AUTO 22004KT M1/4SM FG VV001 06/06 A3012 840 100 0 220/04 RMK AO2
14926KSTC STC20041117151510311/17/04 15:15:31  5-MIN KSTC 172115Z AUTO 22004KT M1/4SM FG VV001 06/06 A3012 850 100 0 210/04 RMK AO2
14926KSTC STC20041117152010311/17/04 15:20:31  5-MIN KSTC 172120Z AUTO 23005KT M1/4SM FG VV001 06/06 A3012 840 100 0 230/05 RMK AO2
14926KSTC STC20041117152510311/17/04 15:25:31  5-MIN KSTC 172125Z AUTO 23004KT M1/4SM FG VV001 06/06 A3012 840 100 0 220/04 RMK AO2
14926KSTC STC20041117153010311/17/04 15:30:31  5-MIN KSTC 172130Z AUTO 21005KT M1/4SM FG VV001 06/06 A3013 840 100 0 200/05 RMK AO2
14926KSTC STC20041117153510311/17/04 15:35:31  5-MIN KSTC 172135Z AUTO 22005KT M1/4SM FG VV001 06/06 A3013 830 100 0 220/05 RMK AO2
14926KSTC STC20041117154010211/17/04 15:40:31  5-MIN KSTC 172140Z AUTO 22005KT 1/4SM FG VV001 06/06 A3013 840 100 0 220/05 RMK AO2
14926KSTC STC20041117154510211/17/04 15:45:31  5-MIN KSTC 172145Z AUTO 20004KT 1/4SM FG VV001 06/06 A3013 830 100 0 200/04 RMK AO2
14926KSTC STC20041117155011911/17/04 15:50:31  5-MIN KSTC 172150Z AUTO 18005KT 1/4SM FG VV001 06/06 A3013 840 100 0 180/05 RMK AO2 SLP219 T00560056
14926KSTC STC20041117155511011/17/04 15:55:31  5-MIN KSTC 172155Z AUTO 16004KT 1/4SM FG BKN001 OVC007 06/06 A3012 840 100 0 160/04 RMK AO2
14926KSTC STC20041117160011011/17/04 16:00:31  5-MIN KSTC 172200Z AUTO 15004KT 1/4SM FG BKN001 OVC007 06/06 A3012 840 100 0 150/04 RMK AO2
14926KSTC STC20041117160511011/17/04 16:05:31  5-MIN KSTC 172205Z AUTO 16003KT 1/4SM FG BKN001 OVC007 06/06 A3013 840 100 0 160/03 RMK AO2
14926KSTC STC20041117161011011/17/04 16:10:31  5-MIN KSTC 172210Z AUTO 17005KT 1/4SM FG BKN001 OVC007 06/06 A3013 830 100 0 160/05 RMK AO2
14926KSTC STC20041117161511011/17/04 16:15:31  5-MIN KSTC 172215Z AUTO 17005KT 1/4SM FG BKN001 OVC007 06/06 A3013 830 100 0 170/05 RMK AO2
14926KSTC STC20041117162011011/17/04 16:20:31  5-MIN KSTC 172220Z AUTO 18005KT 1/4SM FG BKN001 OVC007 06/06 A3013 830 100 0 170/05 RMK AO2
14926KSTC STC20041117162511011/17/04 16:25:31  5-MIN KSTC 172225Z AUTO 17004KT 1/4SM FG BKN001 OVC007 06/06 A3013 830 100 0 170/04 RMK AO2
14926KSTC STC20041117163011011/17/04 16:30:31  5-MIN KSTC 172230Z AUTO 18004KT 1/4SM FG BKN001 OVC007 06/06 A3013 830 100 0 170/04 RMK AO2
14926KSTC STC20041117163511011/17/04 16:35:31  5-MIN KSTC 172235Z AUTO 17003KT 1/4SM FG SCT001 OVC007 06/06 A3013 830 100 0 170/03 RMK AO2
14926KSTC STC20041117164011011/17/04 16:40:31  5-MIN KSTC 172240Z AUTO 18003KT 1/4SM FG SCT001 OVC007 06/06 A3013 830 100 0 170/03 RMK AO2
14926KSTC STC20041117164511011/17/04 16:45:31  5-MIN KSTC 172245Z AUTO 00000KT 1/4SM FG SCT001 OVC007 06/06 A3014 830 100 0 000/00 RMK AO2
14926KSTC STC20041117165012711/17/04 16:50:31  5-MIN KSTC 172250Z AUTO 00000KT 1/4SM FG FEW001 OVC007 06/06 A3014 820 100 0 000/00 RMK AO2 SLP224 T00560056
14926KSTC STC20041117165511011/17/04 16:55:31  5-MIN KSTC 172255Z AUTO 00000KT 1/4SM FG FEW001 OVC007 06/06 A3014 820 100 0 000/00 RMK AO2
14926KSTC STC20041117170011011/17/04 17:00:31  5-MIN KSTC 172300Z AUTO 22003KT 1/4SM FG FEW001 OVC007 06/06 A3015 820 100 0 210/03 RMK AO2
14926KSTC STC20041117170511011/17/04 17:05:31  5-MIN KSTC 172305Z AUTO 20003KT 1/4SM FG FEW001 OVC007 06/06 A3014 820 100 0 200/03 RMK AO2
14926KSTC STC20041117171011011/17/04 17:10:31  5-MIN KSTC 172310Z AUTO 20004KT 1/4SM FG FEW001 OVC007 06/06 A3015 820 100 0 190/04 RMK AO2
14926KSTC STC20041117171511011/17/04 17:15:31  5-MIN KSTC 172315Z AUTO 19004KT 1/4SM FG FEW001 OVC007 06/06 A3015 820 100 0 190/04 RMK AO2
14926KSTC STC20041117172011011/17/04 17:20:31  5-MIN KSTC 172320Z AUTO 20003KT 1/4SM FG FEW001 OVC007 06/06 A3015 810 100 0 200/03 RMK AO2
14926KSTC STC20041117172510311/17/04 17:25:31  5-MIN KSTC 172325Z AUTO 19003KT 1/4SM FG OVC007 06/06 A3015 820 100 0 190/03 RMK AO2
14926KSTC STC20041117173010311/17/04 17:30:31  5-MIN KSTC 172330Z AUTO 00000KT 1/4SM FG OVC007 06/06 A3015 820 100 0 000/00 RMK AO2
14926KSTC STC20041117173510311/17/04 17:35:31  5-MIN KSTC 172335Z AUTO 00000KT 1/4SM FG OVC007 06/06 A3015 810 100 0 000/00 RMK AO2
14926KSTC STC20041117174010311/17/04 17:40:31  5-MIN KSTC 172340Z AUTO 00000KT 1/4SM FG OVC007 06/06 A3015 810 100 0 000/00 RMK AO2
14926KSTC STC20041117174510311/17/04 17:45:31  5-MIN KSTC 172345Z AUTO 00000KT 1/4SM FG OVC007 06/06 A3015 810 100 0 000/00 RMK AO2
14926KSTC STC20041117175014511/17/04 17:50:31  5-MIN KSTC 172350Z AUTO 00000KT 1/4SM FG FEW001 OVC007 06/06 A3015 810 100 0 000/00 RMK AO2 SLP228 T00560056 10061 20044 55006
14926KSTC STC20041117175511011/17/04 17:55:31  5-MIN KSTC 172355Z AUTO 00000KT 1/4SM FG FEW001 OVC007 06/06 A3016 810 100 0 000/00 RMK AO2
14926KSTC STC20041117180011311/17/04 18:00:31  5-MIN KSTC 180000Z AUTO 00000KT 1/4SM FG SCT001 OVC007 06/06 A3016 810 100 -100 000/00 RMK AO2
14926KSTC STC20041117180511011/17/04 18:05:31  5-MIN KSTC 180005Z AUTO 00000KT 1/4SM FG SCT001 OVC007 06/06 A3016 810 100 0 000/00 RMK AO2
14926KSTC STC20041117181011311/17/04 18:10:31  5-MIN KSTC 180010Z AUTO 00000KT 1/4SM FG SCT001 OVC007 06/06 A3016 810 100 -100 000/00 RMK AO2
14926KSTC STC20041117181511011/17/04 18:15:31  5-MIN KSTC 180015Z AUTO 00000KT 1/4SM FG SCT001 OVC007 06/06 A3016 810 100 0 000/00 RMK AO2
14926KSTC STC20041117182011311/17/04 18:20:31  5-MIN KSTC 180020Z AUTO 00000KT 1/4SM FG SCT001 OVC007 06/06 A3016 800 100 -100 000/00 RMK AO2
14926KSTC STC20041117182511311/17/04 18:25:31  5-MIN KSTC 180025Z AUTO 00000KT 1/4SM FG FEW001 OVC007 06/06 A3016 800 100 -100 000/00 RMK AO2
14926KSTC STC20041117183011311/17/04 18:30:31  5-MIN KSTC 180030Z AUTO 17004KT 1/4SM FG FEW001 OVC007 06/06 A3016 800 100 -100 170/04 RMK AO2
14926KSTC STC20041117183511311/17/04 18:35:31  5-MIN KSTC 180035Z AUTO 16003KT 1/4SM FG FEW001 OVC007 06/06 A3016 810 100 -100 160/03 RMK AO2
14926KSTC STC20041117184011311/17/04 18:40:31  5-MIN KSTC 180040Z AUTO 00000KT 1/4SM FG FEW001 OVC007 06/06 A3016 800 100 -100 000/00 RMK AO2
14926KSTC STC20041117184511311/17/04 18:45:31  5-MIN KSTC 180045Z AUTO 00000KT 1/4SM FG FEW001 OVC007 06/06 A3016 800 100 -100 000/00 RMK AO2
14926KSTC STC20041117185013011/17/04 18:50:31  5-MIN KSTC 180050Z AUTO 00000KT 1/4SM FG SCT001 OVC007 06/06 A3016 800 100 -100 000/00 RMK AO2 SLP232 T00560056
14926KSTC STC20041117185511311/17/04 18:55:31  5-MIN KSTC 180055Z AUTO 00000KT 1/4SM FG SCT001 OVC007 06/06 A3016 800 100 -100 000/00 RMK AO2
14926KSTC STC20041117190011311/17/04 19:00:31  5-MIN KSTC 180100Z AUTO 00000KT 1/2SM FG BKN001 OVC007 06/06 A3016 800 100 -100 000/00 RMK AO2
14926KSTC STC20041117190511311/17/04 19:05:31  5-MIN KSTC 180105Z AUTO 00000KT 1/2SM FG BKN003 OVC007 06/06 A3017 800 100 -100 000/00 RMK AO2
14926KSTC STC20041117191011311/17/04 19:10:31  5-MIN KSTC 180110Z AUTO 00000KT 1/2SM FG BKN003 OVC007 06/06 A3016 800 100 -100 000/00 RMK AO2
14926KSTC STC20041117191510611/17/04 19:15:31  5-MIN KSTC 180115Z AUTO 00000KT 3/4SM BR OVC003 06/06 A3017 800 100 -100 000/00 RMK AO2
14926KSTC STC20041117192010611/17/04 19:20:31  5-MIN KSTC 180120Z AUTO 00000KT 3/4SM BR OVC003 06/06 A3017 800 100 -100 000/00 RMK AO2
14926KSTC STC20041117192510411/17/04 19:25:31  5-MIN KSTC 180125Z AUTO 00000KT 1SM BR OVC003 06/06 A3017 800 100 -100 000/00 RMK AO2
14926KSTC STC20041117193010411/17/04 19:30:31  5-MIN KSTC 180130Z AUTO 00000KT 1SM BR OVC003 06/06 A3017 790 100 -100 000/00 RMK AO2
14926KSTC STC20041117193510411/17/04 19:35:31  5-MIN KSTC 180135Z AUTO 00000KT 1SM BR OVC003 06/06 A3017 790 100 -100 000/00 RMK AO2
14926KSTC STC20041117194010611/17/04 19:40:31  5-MIN KSTC 180140Z AUTO 00000KT 3/4SM BR OVC003 06/06 A3017 790 100 -100 000/00 RMK AO2
14926KSTC STC20041117194510611/17/04 19:45:31  5-MIN KSTC 180145Z AUTO 00000KT 3/4SM BR OVC001 06/06 A3017 800 100 -100 000/00 RMK AO2
14926KSTC STC20041117195013011/17/04 19:50:31  5-MIN KSTC 180150Z AUTO 00000KT 1/2SM FG BKN001 OVC007 06/06 A3017 800 100 -100 000/00 RMK AO2 SLP233 T00560056
14926KSTC STC20041117195511311/17/04 19:55:31  5-MIN KSTC 180155Z AUTO 00000KT 1/2SM FG BKN001 OVC007 06/06 A3017 800 100 -100 000/00 RMK AO2
14926KSTC STC20041117200011311/17/04 20:00:31  5-MIN KSTC 180200Z AUTO 00000KT 1/2SM FG BKN001 OVC007 06/06 A3017 800 100 -100 000/00 RMK AO2
14926KSTC STC20041117200511311/17/04 20:05:31  5-MIN KSTC 180205Z AUTO 00000KT 3/4SM BR BKN001 OVC007 06/06 A3017 800 100 -100 000/00 RMK AO2
14926KSTC STC20041117201011111/17/04 20:10:31  5-MIN KSTC 180210Z AUTO 00000KT 1SM BR BKN001 OVC007 06/06 A3017 800 100 -100 000/00 RMK AO2
14926KSTC STC20041117201511511/17/04 20:15:31  5-MIN KSTC 180215Z AUTO 00000KT 1 1/4SM BR BKN001 OVC007 06/06 A3016 800 100 -100 000/00 RMK AO2
14926KSTC STC20041117202011111/17/04 20:20:31  5-MIN KSTC 180220Z AUTO 15003KT 1SM BR BKN001 OVC007 06/06 A3016 800 100 -100 150/03 RMK AO2
14926KSTC STC20041117202510611/17/04 20:25:31  5-MIN KSTC 180225Z AUTO 16003KT 3/4SM BR OVC001 06/06 A3016 800 100 -100 150/03 RMK AO2
14926KSTC STC20041117203010611/17/04 20:30:31  5-MIN KSTC 180230Z AUTO 16004KT 1/2SM FG OVC001 06/06 A3016 800 100 -100 150/04 RMK AO2
14926KSTC STC20041117203511811/17/04 20:35:31  5-MIN KSTC 180235Z AUTO 00000KT 3/4SM BR OVC003 06/06 A3016 800 100 -100 000/00 RMK AO2 CIG 001V005
14926KSTC STC20041117204012511/17/04 20:40:31  5-MIN KSTC 180240Z AUTO 00000KT 3/4SM BR BKN001 OVC005 06/06 A3016 800 100 -100 000/00 RMK AO2 CIG 001V004
14926KSTC STC20041117204510411/17/04 20:45:31  5-MIN KSTC 180245Z AUTO 00000KT 1SM BR OVC001 06/06 A3017 800 100 -100 000/00 RMK AO2
14926KSTC STC20041117205012711/17/04 20:50:31  5-MIN KSTC 180250Z AUTO 00000KT 1SM BR OVC001 06/06 A3017 790 100 -100 000/00 RMK AO2 SLP235 T00560056 53014
14926KSTC STC20041117205510611/17/04 20:55:31  5-MIN KSTC 180255Z AUTO 00000KT 3/4SM BR OVC001 06/06 A3017 800 100 -100 000/00 RMK AO2
14926KSTC STC20041117210010611/17/04 21:00:31  5-MIN KSTC 180300Z AUTO 00000KT 3/4SM BR OVC001 06/06 A3017 800 100 -100 000/00 RMK AO2
14926KSTC STC20041117210510611/17/04 21:05:31  5-MIN KSTC 180305Z AUTO 00000KT 1/2SM FG OVC001 06/06 A3017 790 100 -100 000/00 RMK AO2
14926KSTC STC20041117211010611/17/04 21:10:31  5-MIN KSTC 180310Z AUTO 00000KT 1/2SM FG OVC001 06/06 A3018 790 100 -100 000/00 RMK AO2
14926KSTC STC20041117211510611/17/04 21:15:31  5-MIN KSTC 180315Z AUTO 00000KT 1/2SM FG OVC001 06/06 A3018 790 100 -100 000/00 RMK AO2
14926KSTC STC20041117212011311/17/04 21:20:31  5-MIN KSTC 180320Z AUTO 00000KT 1/2SM FG BKN001 OVC007 06/06 A3018 790 100 -100 000/00 RMK AO2
14926KSTC STC20041117212511311/17/04 21:25:31  5-MIN KSTC 180325Z AUTO 00000KT 1/4SM FG BKN001 OVC007 06/06 A3017 790 100 -100 000/00 RMK AO2
14926KSTC STC20041117213011311/17/04 21:30:31  5-MIN KSTC 180330Z AUTO 00000KT 1/4SM FG SCT001 OVC007 06/06 A3017 790 100 -100 000/00 RMK AO2
14926KSTC STC20041117213511311/17/04 21:35:31  5-MIN KSTC 180335Z AUTO 00000KT 1/4SM FG FEW001 OVC007 06/06 A3017 790 100 -100 000/00 RMK AO2
14926KSTC STC20041117214011311/17/04 21:40:31  5-MIN KSTC 180340Z AUTO 00000KT 1/4SM FG FEW001 OVC007 06/06 A3017 790 100 -100 000/00 RMK AO2
14926KSTC STC20041117214510611/17/04 21:45:31  5-MIN KSTC 180345Z AUTO 00000KT 1/4SM FG OVC007 06/06 A3017 790 100 -100 000/00 RMK AO2
14926KSTC STC20041117215012311/17/04 21:50:31  5-MIN KSTC 180350Z AUTO 00000KT 1/4SM FG OVC007 06/06 A3017 790 100 -100 000/00 RMK AO2 SLP235 T00560056
14926KSTC STC20041117215510611/17/04 21:55:31  5-MIN KSTC 180355Z AUTO 00000KT 1/4SM FG OVC007 06/06 A3018 790 100 -100 000/00 RMK AO2
14926KSTC STC20041117220010611/17/04 22:00:31  5-MIN KSTC 180400Z AUTO 00000KT 1/4SM FG OVC007 06/06 A3018 790 100 -100 000/00 RMK AO2
14926KSTC STC20041117220510611/17/04 22:05:31  5-MIN KSTC 180405Z AUTO 29003KT 1/4SM FG OVC007 06/06 A3018 790 100 -100 290/03 RMK AO2
14926KSTC STC20041117221010611/17/04 22:10:31  5-MIN KSTC 180410Z AUTO 28003KT 1/4SM FG OVC007 06/06 A3018 790 100 -100 280/03 RMK AO2
14926KSTC STC20041117221510311/17/04 22:15:31  5-MIN KSTC 180415Z AUTO 29004KT 1/4SM FG OVC007 06/06 A3018 790 100 0 290/04 RMK AO2
14926KSTC STC20041117222011011/17/04 22:20:31  5-MIN KSTC 180420Z AUTO 28004KT 1/4SM FG FEW001 OVC007 06/06 A3018 790 100 0 280/04 RMK AO2
14926KSTC STC20041117222511011/17/04 22:25:31  5-MIN KSTC 180425Z AUTO 27005KT 1/2SM FG SCT001 OVC007 06/06 A3018 790 100 0 270/05 RMK AO2
14926KSTC STC20041117223011011/17/04 22:30:31  5-MIN KSTC 180430Z AUTO 27005KT 1/2SM FG BKN001 OVC007 06/06 A3018 790 100 0 270/05 RMK AO2
14926KSTC STC20041117223511011/17/04 22:35:31  5-MIN KSTC 180435Z AUTO 28005KT 1/2SM FG SCT001 OVC007 06/06 A3018 790 100 0 270/05 RMK AO2
14926KSTC STC20041117224011011/17/04 22:40:31  5-MIN KSTC 180440Z AUTO 30006KT 1/2SM FG SCT001 OVC007 07/07 A3018 790 100 0 290/06 RMK AO2
14926KSTC STC20041117224511011/17/04 22:45:31  5-MIN KSTC 180445Z AUTO 30007KT 1/2SM FG BKN001 OVC007 07/07 A3018 780 100 0 300/07 RMK AO2
14926KSTC STC20041117225012711/17/04 22:50:31  5-MIN KSTC 180450Z AUTO 31007KT 3/4SM BR BKN001 OVC007 07/07 A3019 780 100 0 310/07 RMK AO2 SLP239 T00670067
14926KSTC STC20041117225511011/17/04 22:55:31  5-MIN KSTC 180455Z AUTO 32007KT 3/4SM BR BKN001 OVC007 07/07 A3019 780 100 0 310/07 RMK AO2
14926KSTC STC20041117230011011/17/04 23:00:31  5-MIN KSTC 180500Z AUTO 31007KT 3/4SM BR BKN001 OVC007 06/06 A3019 780 100 0 310/07 RMK AO2
14926KSTC STC20041117230510511/17/04 23:05:31  5-MIN KSTC 180505Z AUTO 32006KT 1 1/4SM BR OVC001 06/06 A3019 780 100 0 310/06 RMK AO2
14926KSTC STC20041117231010111/17/04 23:10:31  5-MIN KSTC 180510Z AUTO 32005KT 2SM BR OVC001 06/06 A3019 780 100 0 320/05 RMK AO2
14926KSTC STC20041117231510111/17/04 23:15:31  5-MIN KSTC 180515Z AUTO 32005KT 2SM BR OVC001 06/06 A3019 770 100 0 310/05 RMK AO2
14926KSTC STC20041117232010111/17/04 23:20:31  5-MIN KSTC 180520Z AUTO 31005KT 2SM BR OVC001 06/06 A3020 770 100 0 310/05 RMK AO2
14926KSTC STC20041117232510511/17/04 23:25:31  5-MIN KSTC 180525Z AUTO 31004KT 1 3/4SM BR OVC001 06/06 A3020 770 100 0 310/04 RMK AO2
14926KSTC STC20041117233010511/17/04 23:30:31  5-MIN KSTC 180530Z AUTO 31004KT 1 1/2SM BR OVC001 06/06 A3020 770 100 0 300/04 RMK AO2
14926KSTC STC20041117233510111/17/04 23:35:31  5-MIN KSTC 180535Z AUTO 31004KT 1SM BR OVC001 06/06 A3020 770 100 0 300/04 RMK AO2
14926KSTC STC20041117234010311/17/04 23:40:31  5-MIN KSTC 180540Z AUTO 32003KT 3/4SM BR OVC001 06/06 A3020 770 100 0 310/03 RMK AO2
14926KSTC STC20041117234510311/17/04 23:45:31  5-MIN KSTC 180545Z AUTO 32003KT 1/2SM FG OVC001 06/06 A3020 770 100 0 310/03 RMK AO2
14926KSTC STC20041117235014811/17/04 23:50:31  5-MIN KSTC 180550Z AUTO 00000KT 3/4SM BR OVC001 06/06 A3020 770 100 0 000/00 RMK AO2 SLP242 T00610061 10067 20056 400670028 51005
14926KSTC STC20041117235510311/17/04 23:55:31  5-MIN KSTC 180555Z AUTO 00000KT 3/4SM BR OVC001 06/06 A3020 770 100 0 000/00 RMK AO2
14926KSTC STC20041118000010311/18/04 00:00:32  5-MIN KSTC 180600Z AUTO 00000KT 3/4SM BR OVC001 06/06 A3020 770 100 0 000/00 RMK AO2
14926KSTC STC20041118000510311/18/04 00:05:31  5-MIN KSTC 180605Z AUTO 00000KT 3/4SM BR OVC001 06/06 A3020 770 100 0 000/00 RMK AO2
14926KSTC STC20041118004012011/18/04 00:40:31  5-MIN KSTC 180640Z AUTO 32005KT 2 1/2SM BR OVC005 06/06 A3020 770 100 -100 320/05 RMK AO2 CIG 003V009
14926KSTC STC20041118004511611/18/04 00:45:31  5-MIN KSTC 180645Z AUTO 32006KT 3SM BR OVC007 06/06 A3020 770 100 -100 320/06 RMK AO2 CIG 003V009
14926KSTC STC20041118005012111/18/04 00:50:31  5-MIN KSTC 180650Z AUTO 33006KT 4SM BR OVC007 06/06 A3020 770 100 -100 320/06 RMK AO2 SLP244 T00560056
14926KSTC STC20041118005510411/18/04 00:55:31  5-MIN KSTC 180655Z AUTO 33005KT 4SM BR OVC007 06/06 A3020 770 100 -100 330/05 RMK AO2
14926KSTC STC20041118010010411/18/04 01:00:31  5-MIN KSTC 180700Z AUTO 32005KT 4SM BR OVC007 06/06 A3020 770 100 -100 320/05 RMK AO2
14926KSTC STC20041118010511611/18/04 01:05:31  5-MIN KSTC 180705Z AUTO 33005KT 4SM BR OVC005 06/06 A3020 770 100 -100 330/05 RMK AO2 CIG 004V007
14926KSTC STC20041118011010411/18/04 01:10:31  5-MIN KSTC 180710Z AUTO 32006KT 4SM BR OVC005 06/06 A3020 760 100 -100 320/06 RMK AO2
14926KSTC STC20041118011510411/18/04 01:15:31  5-MIN KSTC 180715Z AUTO 32006KT 4SM BR OVC005 06/06 A3021 760 100 -100 320/06 RMK AO2
14926KSTC STC20041118012010411/18/04 01:20:31  5-MIN KSTC 180720Z AUTO 32006KT 4SM BR OVC005 06/06 A3021 760 100 -100 320/06 RMK AO2
14926KSTC STC20041118012510411/18/04 01:25:31  5-MIN KSTC 180725Z AUTO 32006KT 4SM BR OVC005 06/06 A3021 760 100 -100 320/06 RMK AO2
14926KSTC STC20041118013010411/18/04 01:30:31  5-MIN KSTC 180730Z AUTO 33005KT 4SM BR OVC005 06/06 A3021 760 100 -100 320/05 RMK AO2
14926KSTC STC20041118013510411/18/04 01:35:31  5-MIN KSTC 180735Z AUTO 33005KT 4SM BR OVC005 06/06 A3021 760 100 -100 330/05 RMK AO2
14926KSTC STC20041118014010311/18/04 01:40:31  5-MIN KSTC 180740Z AUTO 33007KT 4SM BR OVC005 06/05 A3021 760 96 -100 330/07 RMK AO2
14926KSTC STC20041118014510411/18/04 01:45:31  5-MIN KSTC 180745Z AUTO 33005KT 4SM BR OVC005 05/05 A3021 760 100 -200 330/05 RMK AO2
14926KSTC STC20041118015012111/18/04 01:50:31  5-MIN KSTC 180750Z AUTO 32003KT 4SM BR OVC005 05/05 A3021 760 100 -200 320/03 RMK AO2 SLP248 T00500050
14926KSTC STC20041118015510411/18/04 01:55:31  5-MIN KSTC 180755Z AUTO 00000KT 3SM BR OVC005 05/05 A3021 760 100 -200 000/00 RMK AO2
14926KSTC STC20041118020010411/18/04 02:00:31  5-MIN KSTC 180800Z AUTO 00000KT 3SM BR BKN005 05/05 A3022 750 100 -200 000/00 RMK AO2
14926KSTC STC20041118020510811/18/04 02:05:31  5-MIN KSTC 180805Z AUTO 32004KT 2 1/2SM BR BKN005 04/04 A3022 750 100 -300 320/04 RMK AO2
14926KSTC STC20041118021010411/18/04 02:10:31  5-MIN KSTC 180810Z AUTO 32005KT 3SM BR BKN005 04/04 A3023 740 100 -300 320/05 RMK AO2
14926KSTC STC20041118021510411/18/04 02:15:31  5-MIN KSTC 180815Z AUTO 32005KT 3SM BR BKN005 04/04 A3023 740 100 -300 320/05 RMK AO2
14926KSTC STC20041118022010411/18/04 02:20:31  5-MIN KSTC 180820Z AUTO 32004KT 3SM BR SCT005 04/04 A3023 740 100 -300 320/04 RMK AO2
14926KSTC STC20041118022510411/18/04 02:25:31  5-MIN KSTC 180825Z AUTO 33004KT 3SM BR FEW005 04/04 A3023 740 100 -300 330/04 RMK AO2
14926KSTC STC20041118023010411/18/04 02:30:31  5-MIN KSTC 180830Z AUTO 33004KT 3SM BR FEW005 04/04 A3023 740 100 -300 330/04 RMK AO2
14926KSTC STC20041118023510411/18/04 02:35:31  5-MIN KSTC 180835Z AUTO 34005KT 3SM BR FEW005 04/04 A3023 740 100 -300 330/05 RMK AO2
14926KSTC STC20041118024010111/18/04 02:40:31  5-MIN KSTC 180840Z AUTO 33005KT 4SM BR CLR 04/04 A3023 740 100 -300 330/05 RMK AO2
14926KSTC STC20041118024510111/18/04 02:45:31  5-MIN KSTC 180845Z AUTO 33004KT 4SM BR CLR 04/04 A3023 740 100 -300 330/04 RMK AO2
14926KSTC STC20041118025012411/18/04 02:50:31  5-MIN KSTC 180850Z AUTO 33004KT 4SM BR CLR 04/04 A3023 740 100 -300 330/04 RMK AO2 SLP254 T00440044 53008
14926KSTC STC20041118025510111/18/04 02:55:31  5-MIN KSTC 180855Z AUTO 33004KT 3SM BR CLR 04/04 A3023 740 100 -300 330/04 RMK AO2
14926KSTC STC20041118030010011/18/04 03:00:31  5-MIN KSTC 180900Z AUTO 32004KT 3SM BR CLR 04/04 A3023 740 96 -300 320/04 RMK AO2
14926KSTC STC20041118030510111/18/04 03:05:31  5-MIN KSTC 180905Z AUTO 00000KT 3SM BR CLR 04/04 A3023 740 100 -300 000/00 RMK AO2
14926KSTC STC20041118031010111/18/04 03:10:31  5-MIN KSTC 180910Z AUTO 31003KT 3SM BR CLR 04/04 A3024 740 100 -300 300/03 RMK AO2
14926KSTC STC20041118031510111/18/04 03:15:31  5-MIN KSTC 180915Z AUTO 30004KT 3SM BR CLR 03/03 A3024 730 100 -400 300/04 RMK AO2
14926KSTC STC20041118032010111/18/04 03:20:31  5-MIN KSTC 180920Z AUTO 30004KT 3SM BR CLR 03/03 A3024 730 100 -400 300/04 RMK AO2
14926KSTC STC20041118032510111/18/04 03:25:31  5-MIN KSTC 180925Z AUTO 30004KT 3SM BR CLR 03/03 A3024 730 100 -400 300/04 RMK AO2
14926KSTC STC20041118033010111/18/04 03:30:31  5-MIN KSTC 180930Z AUTO 29003KT 3SM BR CLR 04/04 A3024 730 100 -300 280/03 RMK AO2
14926KSTC STC20041118033510111/18/04 03:35:31  5-MIN KSTC 180935Z AUTO 30003KT 3SM BR CLR 04/04 A3024 730 100 -300 300/03 RMK AO2
14926KSTC STC20041118034010111/18/04 03:40:31  5-MIN KSTC 180940Z AUTO 30003KT 3SM BR CLR 03/03 A3024 730 100 -400 300/03 RMK AO2
14926KSTC STC20041118034510511/18/04 03:45:31  5-MIN KSTC 180945Z AUTO 00000KT 2 1/2SM BR CLR 03/03 A3024 730 100 -400 000/00 RMK AO2
14926KSTC STC20041118035012211/18/04 03:50:31  5-MIN KSTC 180950Z AUTO 31003KT 2 1/2SM BR CLR 03/03 A3024 730 100 -400 300/03 RMK AO2 SLP258 T00330033
14926KSTC STC20041118035510111/18/04 03:55:31  5-MIN KSTC 180955Z AUTO 32005KT 2SM BR CLR 03/03 A3024 730 100 -400 310/05 RMK AO2
14926KSTC STC20041118040010511/18/04 04:00:31  5-MIN KSTC 181000Z AUTO 32005KT 2 1/2SM BR CLR 03/03 A3024 730 100 -400 320/05 RMK AO2
14926KSTC STC20041118040510511/18/04 04:05:31  5-MIN KSTC 181005Z AUTO 32005KT 2 1/2SM BR CLR 03/03 A3024 730 100 -400 320/05 RMK AO2
14926KSTC STC20041118041010111/18/04 04:10:31  5-MIN KSTC 181010Z AUTO 31005KT 3SM BR CLR 03/03 A3024 730 100 -400 310/05 RMK AO2
14926KSTC STC20041118041510511/18/04 04:15:31  5-MIN KSTC 181015Z AUTO 31005KT 2 1/2SM BR CLR 03/03 A3024 730 100 -500 310/05 RMK AO2
14926KSTC STC20041118042010511/18/04 04:20:31  5-MIN KSTC 181020Z AUTO 32005KT 2 1/2SM BR CLR 03/03 A3024 730 100 -500 310/05 RMK AO2
14926KSTC STC20041118042510111/18/04 04:25:31  5-MIN KSTC 181025Z AUTO 32004KT 3SM BR CLR 03/03 A3024 730 100 -400 310/04 RMK AO2
14926KSTC STC20041118043010111/18/04 04:30:31  5-MIN KSTC 181030Z AUTO 32004KT 3SM BR CLR 03/03 A3024 730 100 -400 320/04 RMK AO2
14926KSTC STC20041118043510111/18/04 04:35:31  5-MIN KSTC 181035Z AUTO 33004KT 3SM BR CLR 03/03 A3024 730 100 -400 330/04 RMK AO2
14926KSTC STC20041118044010111/18/04 04:40:31  5-MIN KSTC 181040Z AUTO 32004KT 3SM BR CLR 03/03 A3024 730 100 -400 320/04 RMK AO2
14926KSTC STC20041118044510111/18/04 04:45:31  5-MIN KSTC 181045Z AUTO 32003KT 3SM BR CLR 03/03 A3025 730 100 -400 320/03 RMK AO2
14926KSTC STC20041118045011811/18/04 04:50:31  5-MIN KSTC 181050Z AUTO 31003KT 3SM BR CLR 03/03 A3025 720 100 -400 310/03 RMK AO2 SLP261 T00330033
14926KSTC STC20041118045510111/18/04 04:55:31  5-MIN KSTC 181055Z AUTO 30003KT 3SM BR CLR 03/03 A3025 720 100 -500 300/03 RMK AO2
14926KSTC STC20041118050010111/18/04 05:00:31  5-MIN KSTC 181100Z AUTO 31004KT 3SM BR CLR 03/03 A3025 720 100 -400 300/04 RMK AO2
14926KSTC STC20041118050510111/18/04 05:05:31  5-MIN KSTC 181105Z AUTO 30003KT 3SM BR CLR 03/03 A3025 720 100 -500 300/03 RMK AO2
14926KSTC STC20041118051010111/18/04 05:10:31  5-MIN KSTC 181110Z AUTO 29003KT 3SM BR CLR 03/03 A3026 720 100 -500 280/03 RMK AO2
14926KSTC STC20041118051510111/18/04 05:15:31  5-MIN KSTC 181115Z AUTO 27003KT 3SM BR CLR 03/03 A3026 720 100 -500 270/03 RMK AO2
14926KSTC STC20041118052010111/18/04 05:20:31  5-MIN KSTC 181120Z AUTO 28003KT 3SM BR CLR 03/03 A3026 710 100 -500 270/03 RMK AO2
14926KSTC STC20041118052510111/18/04 05:25:31  5-MIN KSTC 181125Z AUTO 27003KT 3SM BR CLR 03/03 A3026 710 100 -500 270/03 RMK AO2
14926KSTC STC20041118053010111/18/04 05:30:31  5-MIN KSTC 181130Z AUTO 27003KT 3SM BR CLR 03/03 A3026 710 100 -500 270/03 RMK AO2
14926KSTC STC20041118053510111/18/04 05:35:31  5-MIN KSTC 181135Z AUTO 29003KT 3SM BR CLR 03/03 A3026 710 100 -500 290/03 RMK AO2
14926KSTC STC20041118054010511/18/04 05:40:31  5-MIN KSTC 181140Z AUTO 30003KT 2 1/2SM BR CLR 03/03 A3026 710 100 -500 300/03 RMK AO2
14926KSTC STC20041118054510511/18/04 05:45:31  5-MIN KSTC 181145Z AUTO 31003KT 2 1/2SM BR CLR 03/03 A3026 710 100 -500 310/03 RMK AO2
14926KSTC STC20041118055013611/18/04 05:50:31  5-MIN KSTC 181150Z AUTO 30003KT 2SM BR CLR 03/03 A3026 710 100 -500 290/03 RMK AO2 SLP265 T00280028 10061 20028 53012
14926KSTC STC20041118055510111/18/04 05:55:31  5-MIN KSTC 181155Z AUTO 00000KT 2SM BR CLR 02/02 A3026 710 100 -600 000/00 RMK AO2
14926KSTC STC20041118060010511/18/04 06:00:31  5-MIN KSTC 181200Z AUTO 00000KT 2 1/2SM BR CLR 03/03 A3026 710 100 -500 000/00 RMK AO2
14926KSTC STC20041118060510511/18/04 06:05:31  5-MIN KSTC 181205Z AUTO 00000KT 2 1/2SM BR CLR 03/03 A3027 710 100 -500 000/00 RMK AO2
14926KSTC STC20041118061010111/18/04 06:10:31  5-MIN KSTC 181210Z AUTO 00000KT 3SM BR CLR 03/03 A3027 710 100 -500 000/00 RMK AO2
14926KSTC STC20041118061510111/18/04 06:15:31  5-MIN KSTC 181215Z AUTO 00000KT 3SM BR CLR 03/03 A3027 710 100 -500 000/00 RMK AO2
14926KSTC STC20041118062010111/18/04 06:20:31  5-MIN KSTC 181220Z AUTO 00000KT 3SM BR CLR 03/03 A3027 710 100 -500 000/00 RMK AO2
14926KSTC STC20041118062510111/18/04 06:25:31  5-MIN KSTC 181225Z AUTO 26003KT 3SM BR CLR 02/02 A3027 700 100 -600 260/03 RMK AO2
14926KSTC STC20041118063010111/18/04 06:30:31  5-MIN KSTC 181230Z AUTO 25003KT 3SM BR CLR 02/02 A3027 700 100 -600 250/03 RMK AO2
14926KSTC STC20041118063510111/18/04 06:35:31  5-MIN KSTC 181235Z AUTO 25003KT 3SM BR CLR 02/02 A3027 700 100 -600 250/03 RMK AO2
14926KSTC STC20041118064010111/18/04 06:40:31  5-MIN KSTC 181240Z AUTO 24003KT 3SM BR CLR 02/02 A3028 700 100 -600 240/03 RMK AO2
14926KSTC STC20041118064510511/18/04 06:45:31  5-MIN KSTC 181245Z AUTO 25003KT 2 1/2SM BR CLR 02/02 A3028 700 100 -700 250/03 RMK AO2
14926KSTC STC20041118065011811/18/04 06:50:31  5-MIN KSTC 181250Z AUTO 26003KT 3SM BR CLR 02/02 A3028 700 100 -700 250/03 RMK AO2 SLP272 T00170017
14926KSTC STC20041118065510111/18/04 06:55:31  5-MIN KSTC 181255Z AUTO 27003KT 3SM BR CLR 02/02 A3028 700 100 -600 270/03 RMK AO2
14926KSTC STC20041118070010111/18/04 07:00:31  5-MIN KSTC 181300Z AUTO 29003KT 3SM BR CLR 02/02 A3028 690 100 -600 290/03 RMK AO2
14926KSTC STC20041118070510111/18/04 07:05:31  5-MIN KSTC 181305Z AUTO 30003KT 3SM BR CLR 02/02 A3028 690 100 -600 300/03 RMK AO2
14926KSTC STC20041118071010111/18/04 07:10:31  5-MIN KSTC 181310Z AUTO 30003KT 3SM BR CLR 02/02 A3028 690 100 -600 300/03 RMK AO2
14926KSTC STC20041118071510111/18/04 07:15:31  5-MIN KSTC 181315Z AUTO 30003KT 3SM BR CLR 02/02 A3028 690 100 -600 300/03 RMK AO2
14926KSTC STC20041118072010111/18/04 07:20:31  5-MIN KSTC 181320Z AUTO 30003KT 3SM BR CLR 02/02 A3029 690 100 -600 300/03 RMK AO2
14926KSTC STC20041118072510411/18/04 07:25:31  5-MIN KSTC 181325Z AUTO 00000KT 2 1/2SM BR CLR 02/02 A3029 690 96 -600 000/00 RMK AO2
14926KSTC STC20041118073010011/18/04 07:30:31  5-MIN KSTC 181330Z AUTO 00000KT 2SM BR CLR 02/02 A3029 690 96 -600 000/00 RMK AO2
14926KSTC STC20041118073510111/18/04 07:35:31  5-MIN KSTC 181335Z AUTO 00000KT 2SM BR CLR 02/02 A3029 690 100 -600 000/00 RMK AO2
14926KSTC STC20041118074010411/18/04 07:40:31  5-MIN KSTC 181340Z AUTO 30003KT 2 1/2SM BR CLR 02/02 A3029 680 96 -600 300/03 RMK AO2
14926KSTC STC20041118074510511/18/04 07:45:31  5-MIN KSTC 181345Z AUTO 33003KT 2 1/2SM BR CLR 02/02 A3029 680 100 -700 320/03 RMK AO2
14926KSTC STC20041118075014511/18/04 07:50:31  5-MIN KSTC 181350Z AUTO 32004KT 3SM BR CLR 02/02 A3029 680 96 -600 320/04 RMK AO2 SLP27017 /02 A3029690 96 -600 330/03 RMK AO2
14926KSTC STC20041118080010011/18/04 08:00:31  5-MIN KSTC 181400Z AUTO 33004KT 3SM BR CLR 02/02 A3029 680 96 -600 330/04 RMK AO2
14926KSTC STC20041118080511611/18/04 08:05:31  5-MIN KSTC 181405Z AUTO 33004KT 3SM BR CLR 02/02 A3029 680 96 -600 330/04 RMK A600 000/00 RMK AO2
14926KSTC STC20041118083010011/18/04 08:30:31  5-MIN KSTC 181430Z AUTO 00000KT 3SM BR CLR 02/02 A3031 670 96 -600 000/00 RMK AO2
14926KSTC STC20041118083510011/18/04 08:35:31  5-MIN KSTC 181435Z AUTO 30003KT 4SM BR CLR 03/02 A3031 670 92 -600 300/03 RMK AO2
14926KSTC STC20041118084017711/18/04 08:40:31  5-MIN KSTC 181440Z AUTO 00000KT 4SM BR CLR 03/02 A3031 670 96 -600 000/00 RMK AO2  KSTC 181510Z AUTO 34003KT 3SM BR CLR 03/03 A3031 670 96 -500 340/03 RMK AO2
14926KSTC STC20041118091510011/18/04 09:15:31  5-MIN KSTC 181515Z AUTO 34003KT 3SM BR CLR 03/03 A3031 670 96 -500 340/03 RMK AO2
14926KSTC STC20041118092005711/18/04 09:20:31  5-MIN KSTC 181520Z AUTO 34004KT 4SM B1
14926KSTC STC20041118094510011/18/04 09:45:31  5-MIN KSTC 181545Z AUTO 34003KT 5SM BR CLR 04/03 A3031 670 89 -400 330/03 RMK AO2
14926KSTC STC20041118095010711/18/04 09:50:31  5-MIN KSTC 181550Z AU1 1610Z AUTO 35004KT 7SM CLR 06/03 A3031 670 85 -200 350/04 RMK AO2
14926KSTC STC20041118101509711/18/04 10:15:31  5-MIN KSTC 181615Z AUTO 34006KT 7SM CLR 06/03 A3031 670 85 -200 340/06 RMK AO2
14926KSTC STC20041118102011211/18/04 10:20:31  5-MIN KSTC 181620Z AUTO 35005KT 8SM CLR 06/03 A3031 6LR 07/04 A3031 67082 -100 340/07 RMK AO2
14926KSTC STC20041118104509711/18/04 10:45:31  5-MIN KSTC 181645Z AUTO 35007KT 9SM CLR 07/03 A3031 670 79 -100 340/07 RMK AO2
14926KSTC STC20041118105009311/18/04 10:50:31  5-MIN KSTC 181650Z AUTO 35007KT 10SM CLR 07/03 A3031 670 79 -100 350/07670
14926KSTC STC20041118111509511/18/04 11:15:31  5-MIN KSTC 181715Z AUTO 36006KT 10SM CLR 07/03 A3030 670 73 0 350/06 RMK AO2
14926KSTC STC20041118112009511/18/04 11:20:31  5-MIN KSTC 181720Z AUTO 35006KT 10SM CLR 07/03 A3030 670 73 0 350/06 RMK AO2
14926KSTC STC20041118112506911/18/04 11:25:31  5-MIN KSTC 181725Z AU670 680 65 100 340/07 RMK AO2
14926KSTC STC20041118115013211/18/04 11:50:31  5-MIN KSTC 181750Z AUTO 35006KT 10SM CLR 08/02 A3030 680 65 100 340/06 RMK AO2 SLP275 T00830022 10083 20017 53016
14926KSTC STC20041118115514111/18/04 11:55:31  5-MIN KSTC 181755Z AUTO 35006KT 10SM CLR 08/02 A3030 6801815Z AUTO 36004KT 10SM CLR 08/02 A3029 680  63 100 360/04 RMK AO2
14926KSTC STC20041118122009711/18/04 12:20:31  5-MIN KSTC 181820Z AUTO 35004KT 10SM CLR 08/02 A3029 680 63 100 350/04 RMK AO2
14926KSTC STC20041118122509711/18/04 12:25:31  5-MIN KSTC 181825Z AUTO 35005KT 10SM CLR 09/02 A3029 690 60 200 340/05 RMK AO2
14926KSTC STC20041118123009711/18/04 12:30:31  5-MIN KSTC 181830Z AUTO 35006KT 10SM CLR 09/02 A3029 690 60 200 350/06 RMK AO2
14926KSTC STC20041118123509711/18/04 12:35:31  5-MIN KSTC 181835Z AUTO 34006KT 10SM CLR 09/01 A3029 690 58 200 340/06 RMK AO2
14926KSTC STC20041118124009711/18/04 12:40:31  5-MIN KSTC 181840Z AUTO 36005KT 10SM CLR 09/01 A3028 690 58 200 350/05 RMK AO2
14926KSTC STC20041118124509711/18/04 12:45:31  5-MIN KSTC 181845Z AUTO 35005KT 10SM CLR 09/01 A3028 690 58 200 340/05 RMK AO2
14926KSTC STC20041118125011411/18/04 12:50:31  5-MIN KSTC 181850Z AUTO 35005KT 10SM CLR 09/01 A3028 690 56 200 350/05 RMK AO2 SLP270 T00890006
14926KSTC STC20041118125509711/18/04 12:55:31  5-MIN KSTC 181855Z AUTO 01004KT 10SM CLR 09/01 A3028 690 53 200 010/04 RMK AO2
14926KSTC STC20041118130009711/18/04 13:00:31  5-MIN KSTC 181900Z AUTO 35005KT 10SM CLR 09/01 A3028 700 53 200 350/05 RMK AO2
14926KSTC STC20041118130509711/18/04 13:05:31  5-MIN KSTC 181905Z AUTO 35005KT 10SM CLR 09/01 A3028 700 53 200 350/05 RMK AO2
14926KSTC STC20041118131009711/18/04 13:10:31  5-MIN KSTC 181910Z AUTO 35005KT 10SM CLR 09/01 A3028 700 53 200 350/05 RMK AO2
14926KSTC STC20041118131509711/18/04 13:15:31  5-MIN KSTC 181915Z AUTO 36005KT 10SM CLR 09/00 A3028 700 51 200 360/05 RMK AO2
14926KSTC STC20041118132009711/18/04 13:20:31  5-MIN KSTC 181920Z AUTO 34004KT 10SM CLR 09/00 A3027 700 51 200 340/04 RMK AO2
14926KSTC STC20041118132509711/18/04 13:25:31  5-MIN KSTC 181925Z AUTO 35004KT 10SM CLR 09/00 A3027 700 51 200 350/04 RMK AO2
14926KSTC STC20041118133009711/18/04 13:30:31  5-MIN KSTC 181930Z AUTO 35004KT 10SM CLR 09/01 A3027 700 53 200 350/04 RMK AO2
14926KSTC STC20041118133509711/18/04 13:35:31  5-MIN KSTC 181935Z AUTO 36004KT 10SM CLR 10/01 A3027 700 52 300 350/04 RMK AO2
14926KSTC STC20041118134009711/18/04 13:40:31  5-MIN KSTC 181940Z AUTO 35003KT 10SM CLR 10/00 A3027 700 49 300 340/03 RMK AO2
14926KSTC STC20041118134509711/18/04 13:45:31  5-MIN KSTC 181945Z AUTO 35005KT 10SM CLR 10/00 A3027 700 49 300 340/05 RMK AO2
14926KSTC STC20041118135011511/18/04 13:50:31  5-MIN KSTC 181950Z AUTO 36006KT 10SM CLR 10/M01 A3027 710 47 300 360/06 RMK AO2 SLP264 T01001006
14926KSTC STC20041118135509811/18/04 13:55:31  5-MIN KSTC 181955Z AUTO 36005KT 10SM CLR 10/M01 A3027 710 46 300 360/05 RMK AO2
14926KSTC STC20041118140009811/18/04 14:00:31  5-MIN KSTC 182000Z AUTO 36006KT 10SM CLR 11/M01 A3026 710 44 400 360/06 RMK AO2
14926KSTC STC20041118140509811/18/04 14:05:31  5-MIN KSTC 182005Z AUTO 36005KT 10SM CLR 11/M01 A3026 710 44 400 360/05 RMK AO2
14926KSTC STC20041118141009811/18/04 14:10:31  5-MIN KSTC 182010Z AUTO 35006KT 10SM CLR 11/M01 A3026 710 44 400 350/06 RMK AO2
14926KSTC STC20041118141509811/18/04 14:15:31  5-MIN KSTC 182015Z AUTO 34006KT 10SM CLR 11/M01 A3026 710 44 400 340/06 RMK AO2
14926KSTC STC20041118142009811/18/04 14:20:31  5-MIN KSTC 182020Z AUTO 36005KT 10SM CLR 11/M02 A3026 710 42 400 360/05 RMK AO2
14926KSTC STC20041118142509811/18/04 14:25:31  5-MIN KSTC 182025Z AUTO 35005KT 10SM CLR 11/M01 A3026 720 44 400 350/05 RMK AO2
14926KSTC STC20041118143009811/18/04 14:30:31  5-MIN KSTC 182030Z AUTO 35005KT 10SM CLR 11/M02 A3026 720 41 500 350/05 RMK AO2
14926KSTC STC20041118143509811/18/04 14:35:31  5-MIN KSTC 182035Z AUTO 34007KT 10SM CLR 11/M02 A3025 720 39 500 340/07 RMK AO2
14926KSTC STC20041118144009811/18/04 14:40:31  5-MIN KSTC 182040Z AUTO 35007KT 10SM CLR 11/M03 A3025 720 37 500 350/07 RMK AO2
14926KSTC STC20041118144509811/18/04 14:45:31  5-MIN KSTC 182045Z AUTO 35007KT 10SM CLR 11/M03 A3025 720 37 500 350/07 RMK AO2
14926KSTC STC20041118145012111/18/04 14:50:31  5-MIN KSTC 182050Z AUTO 34007KT 10SM CLR 11/M02 A3025 720 39 500 340/07 RMK AO2 SLP258 T01111022 58004
14926KSTC STC20041118145509811/18/04 14:55:31  5-MIN KSTC 182055Z AUTO 35007KT 10SM CLR 11/M02 A3025 720 40 400 350/07 RMK AO2
14926KSTC STC20041118150009811/18/04 15:00:31  5-MIN KSTC 182100Z AUTO 35005KT 10SM CLR 11/M02 A3025 720 42 400 350/05 RMK AO2
14926KSTC STC20041118150509811/18/04 15:05:31  5-MIN KSTC 182105Z AUTO 36006KT 10SM CLR 11/M02 A3025 720 42 400 350/06 RMK AO2
14926KSTC STC20041118151009811/18/04 15:10:31  5-MIN KSTC 182110Z AUTO 35006KT 10SM CLR 10/M02 A3025 720 42 300 350/06 RMK AO2
14926KSTC STC20041118151509811/18/04 15:15:31  5-MIN KSTC 182115Z AUTO 35008KT 10SM CLR 10/M02 A3025 720 42 300 340/08 RMK AO2
14926KSTC STC20041118152009811/18/04 15:20:31  5-MIN KSTC 182120Z AUTO 34008KT 10SM CLR 09/M02 A3025 720 44 300 340/08 RMK AO2
14926KSTC STC20041118152509811/18/04 15:25:31  5-MIN KSTC 182125Z AUTO 35007KT 10SM CLR 09/M02 A3026 720 45 200 340/07 RMK AO2
14926KSTC STC20041118153009811/18/04 15:30:31  5-MIN KSTC 182130Z AUTO 35007KT 10SM CLR 09/M02 A3025 720 45 200 340/07 RMK AO2
14926KSTC STC20041118153509811/18/04 15:35:31  5-MIN KSTC 182135Z AUTO 35007KT 10SM CLR 08/M02 A3026 720 47 100 340/07 RMK AO2
14926KSTC STC20041118154009811/18/04 15:40:31  5-MIN KSTC 182140Z AUTO 35006KT 10SM CLR 08/M02 A3026 720 47 100 350/06 RMK AO2
14926KSTC STC20041118154509811/18/04 15:45:31  5-MIN KSTC 182145Z AUTO 35006KT 10SM CLR 08/M02 A3026 720 47 100 350/06 RMK AO2
14926KSTC STC20041118155011511/18/04 15:50:31  5-MIN KSTC 182150Z AUTO 35006KT 10SM CLR 08/M02 A3026 720 49 100 350/06 RMK AO2 SLP263 T00781022
14926KSTC STC20041118155509611/18/04 15:55:31  5-MIN KSTC 182155Z AUTO 35005KT 10SM CLR 07/M02 A3026 720 51 0 350/05 RMK AO2
14926KSTC STC20041118160009611/18/04 16:00:31  5-MIN KSTC 182200Z AUTO 35005KT 10SM CLR 07/M02 A3026 710 53 0 350/05 RMK AO2
14926KSTC STC20041118160509611/18/04 16:05:31  5-MIN KSTC 182205Z AUTO 36005KT 10SM CLR 07/M02 A3026 710 53 0 350/05 RMK AO2
14926KSTC STC20041118161009611/18/04 16:10:31  5-MIN KSTC 182210Z AUTO 35005KT 10SM CLR 07/M02 A3026 710 53 0 350/05 RMK AO2
14926KSTC STC20041118161509611/18/04 16:15:31  5-MIN KSTC 182215Z AUTO 35005KT 10SM CLR 07/M02 A3026 710 53 0 350/05 RMK AO2
14926KSTC STC20041118162009911/18/04 16:20:31  5-MIN KSTC 182220Z AUTO 35005KT 10SM CLR 06/M02 A3026 720 55 -100 350/05 RMK AO2
14926KSTC STC20041118162509911/18/04 16:25:31  5-MIN KSTC 182225Z AUTO 35004KT 10SM CLR 06/M02 A3026 720 55 -100 340/04 RMK AO2
14926KSTC STC20041118163009911/18/04 16:30:31  5-MIN KSTC 182230Z AUTO 35004KT 10SM CLR 06/M02 A3026 720 59 -200 350/04 RMK AO2
14926KSTC STC20041118163509911/18/04 16:35:31  5-MIN KSTC 182235Z AUTO 35004KT 10SM CLR 05/M02 A3026 720 62 -200 350/04 RMK AO2
14926KSTC STC20041118164009911/18/04 16:40:31  5-MIN KSTC 182240Z AUTO 35003KT 10SM CLR 05/M02 A3026 720 62 -200 340/03 RMK AO2
14926KSTC STC20041118164509911/18/04 16:45:31  5-MIN KSTC 182245Z AUTO 35003KT 10SM CLR 05/M02 A3026 720 62 -200 350/03 RMK AO2
14926KSTC STC20041118165011611/18/04 16:50:31  5-MIN KSTC 182250Z AUTO 36003KT 10SM CLR 04/M02 A3026 720 62 -300 350/03 RMK AO2 SLP265 T00441022
14926KSTC STC20041118165509911/18/04 16:55:31  5-MIN KSTC 182255Z AUTO 36003KT 10SM CLR 04/M02 A3026 720 62 -300 350/03 RMK AO2
14926KSTC STC20041118170009911/18/04 17:00:31  5-MIN KSTC 182300Z AUTO 36003KT 10SM CLR 04/M02 A3026 720 62 -300 360/03 RMK AO2
14926KSTC STC20041118170509911/18/04 17:05:31  5-MIN KSTC 182305Z AUTO 01003KT 10SM CLR 04/M02 A3026 720 62 -300 010/03 RMK AO2
14926KSTC STC20041118171009911/18/04 17:10:31  5-MIN KSTC 182310Z AUTO 01003KT 10SM CLR 05/M02 A3026 720 59 -200 360/03 RMK AO2
14926KSTC STC20041118171509911/18/04 17:15:31  5-MIN KSTC 182315Z AUTO 01003KT 10SM CLR 04/M02 A3026 720 62 -300 010/03 RMK AO2
14926KSTC STC20041118172009911/18/04 17:20:31  5-MIN KSTC 182320Z AUTO 00000KT 10SM CLR 04/M02 A3026 720 64 -400 000/00 RMK AO2
14926KSTC STC20041118172509911/18/04 17:25:31  5-MIN KSTC 182325Z AUTO 00000KT 10SM CLR 03/M02 A3026 710 70 -400 000/00 RMK AO2
14926KSTC STC20041118173009911/18/04 17:30:31  5-MIN KSTC 182330Z AUTO 00000KT 10SM CLR 03/M01 A3026 710 72 -400 000/00 RMK AO2
14926KSTC STC20041118173509911/18/04 17:35:31  5-MIN KSTC 182335Z AUTO 00000KT 10SM CLR 03/M02 A3026 710 70 -400 000/00 RMK AO2
14926KSTC STC20041118174009911/18/04 17:40:31  5-MIN KSTC 182340Z AUTO 00000KT 10SM CLR 04/M02 A3026 710 67 -400 000/00 RMK AO2
14926KSTC STC20041118174509911/18/04 17:45:31  5-MIN KSTC 182345Z AUTO 00000KT 10SM CLR 02/M01 A3026 710 78 -600 000/00 RMK AO2
14926KSTC STC20041118175013411/18/04 17:50:31  5-MIN KSTC 182350Z AUTO 33003KT 10SM CLR 03/M01 A3026 710 75 -500 320/03 RMK AO2 SLP266 T00281011 10111 20022 58015
14926KSTC STC20041118175509911/18/04 17:55:31  5-MIN KSTC 182355Z AUTO 00000KT 10SM CLR 03/M02 A3026 710 72 -500 000/00 RMK AO2
14926KSTC STC20041118180009911/18/04 18:00:31  5-MIN KSTC 190000Z AUTO 00000KT 10SM CLR 03/M02 A3026 710 72 -500 000/00 RMK AO2
14926KSTC STC20041118180509911/18/04 18:05:31  5-MIN KSTC 190005Z AUTO 00000KT 10SM CLR 03/M02 A3026 710 67 -400 000/00 RMK AO2
14926KSTC STC20041118181009911/18/04 18:10:31  5-MIN KSTC 190010Z AUTO 00000KT 10SM CLR 03/M02 A3026 710 69 -500 000/00 RMK AO2
14926KSTC STC20041118181509911/18/04 18:15:31  5-MIN KSTC 190015Z AUTO 00000KT 10SM CLR 03/M02 A3026 710 72 -500 000/00 RMK AO2
14926KSTC STC20041118182009911/18/04 18:20:31  5-MIN KSTC 190020Z AUTO 00000KT 10SM CLR 03/M02 A3026 710 69 -500 000/00 RMK AO2
14926KSTC STC20041118182509911/18/04 18:25:31  5-MIN KSTC 190025Z AUTO 00000KT 10SM CLR 03/M02 A3026 710 69 -500 000/00 RMK AO2
14926KSTC STC20041118183009911/18/04 18:30:31  5-MIN KSTC 190030Z AUTO 00000KT 10SM CLR 03/M02 A3026 710 69 -500 000/00 RMK AO2
14926KSTC STC20041118183509911/18/04 18:35:31  5-MIN KSTC 190035Z AUTO 00000KT 10SM CLR 02/M02 A3026 710 72 -600 000/00 RMK AO2
14926KSTC STC20041118184009911/18/04 18:40:31  5-MIN KSTC 190040Z AUTO 00000KT 10SM CLR 02/M02 A3026 710 75 -600 000/00 RMK AO2
14926KSTC STC20041118184509911/18/04 18:45:31  5-MIN KSTC 190045Z AUTO 00000KT 10SM CLR 02/M02 A3026 710 75 -600 000/00 RMK AO2
14926KSTC STC20041118185011611/18/04 18:50:31  5-MIN KSTC 190050Z AUTO 00000KT 10SM CLR 02/M02 A3026 710 75 -600 000/00 RMK AO2 SLP267 T00171022
14926KSTC STC20041118185509911/18/04 18:55:31  5-MIN KSTC 190055Z AUTO 00000KT 10SM CLR 02/M02 A3026 710 72 -600 000/00 RMK AO2
14926KSTC STC20041118190009911/18/04 19:00:31  5-MIN KSTC 190100Z AUTO 36003KT 10SM CLR 02/M02 A3026 710 72 -600 360/03 RMK AO2
14926KSTC STC20041118190509911/18/04 19:05:31  5-MIN KSTC 190105Z AUTO 36003KT 10SM CLR 02/M02 A3026 720 75 -600 360/03 RMK AO2
14926KSTC STC20041118191009911/18/04 19:10:31  5-MIN KSTC 190110Z AUTO 36003KT 10SM CLR 02/M02 A3026 720 75 -600 360/03 RMK AO2
14926KSTC STC20041118191509911/18/04 19:15:31  5-MIN KSTC 190115Z AUTO 01003KT 10SM CLR 02/M02 A3026 720 75 -600 360/03 RMK AO2
14926KSTC STC20041118192009911/18/04 19:20:31  5-MIN KSTC 190120Z AUTO 01003KT 10SM CLR 01/M02 A3026 720 82 -700 010/03 RMK AO2
14926KSTC STC20041118192509911/18/04 19:25:31  5-MIN KSTC 190125Z AUTO 00000KT 10SM CLR 01/M02 A3025 720 78 -700 000/00 RMK AO2
14926KSTC STC20041118193009911/18/04 19:30:31  5-MIN KSTC 190130Z AUTO 01003KT 10SM CLR 01/M02 A3025 720 78 -700 010/03 RMK AO2
14926KSTC STC20041118193509911/18/04 19:35:31  5-MIN KSTC 190135Z AUTO 02003KT 10SM CLR 01/M02 A3025 720 78 -700 020/03 RMK AO2
14926KSTC STC20041118194009911/18/04 19:40:31  5-MIN KSTC 190140Z AUTO 01003KT 10SM CLR 01/M02 A3025 720 82 -700 010/03 RMK AO2
14926KSTC STC20041118194509911/18/04 19:45:31  5-MIN KSTC 190145Z AUTO 01003KT 10SM CLR 01/M02 A3025 720 82 -800 010/03 RMK AO2
14926KSTC STC20041118195011611/18/04 19:50:31  5-MIN KSTC 190150Z AUTO 01003KT 10SM CLR 01/M02 A3025 730 82 -800 010/03 RMK AO2 SLP263 T00061022
14926KSTC STC20041118195509911/18/04 19:55:31  5-MIN KSTC 190155Z AUTO 02003KT 10SM CLR 01/M02 A3025 730 78 -700 010/03 RMK AO2
14926KSTC STC20041118200009911/18/04 20:00:31  5-MIN KSTC 190200Z AUTO 03003KT 10SM CLR 01/M02 A3025 730 78 -700 020/03 RMK AO2
14926KSTC STC20041118200509911/18/04 20:05:31  5-MIN KSTC 190205Z AUTO 00000KT 10SM CLR 01/M02 A3024 730 78 -700 000/00 RMK AO2
14926KSTC STC20041118201009911/18/04 20:10:31  5-MIN KSTC 190210Z AUTO 00000KT 10SM CLR 01/M02 A3024 730 78 -700 000/00 RMK AO2
14926KSTC STC20041118201509911/18/04 20:15:31  5-MIN KSTC 190215Z AUTO 01003KT 10SM CLR 01/M02 A3024 730 78 -700 010/03 RMK AO2
14926KSTC STC20041118202009811/18/04 20:20:31  5-MIN KSTC 190220Z AUTO 02003KT 9SM CLR 01/M02 A3024 730 82 -800 010/03 RMK AO2
14926KSTC STC20041118202509811/18/04 20:25:31  5-MIN KSTC 190225Z AUTO 02003KT 7SM CLR 01/M02 A3024 730 82 -800 020/03 RMK AO2
14926KSTC STC20041118203009811/18/04 20:30:31  5-MIN KSTC 190230Z AUTO 02003KT 8SM CLR 01/M02 A3024 730 82 -800 010/03 RMK AO2
14926KSTC STC20041118203509911/18/04 20:35:31  5-MIN KSTC 190235Z AUTO 01003KT 10SM CLR 01/M02 A3024 730 82 -800 010/03 RMK AO2
14926KSTC STC20041118204009911/18/04 20:40:31  5-MIN KSTC 190240Z AUTO 01003KT 10SM CLR 00/M02 A3024 730 85 -800 360/03 RMK AO2
14926KSTC STC20041118204509911/18/04 20:45:31  5-MIN KSTC 190245Z AUTO 36003KT 10SM CLR 01/M02 A3024 730 82 -800 360/03 RMK AO2
14926KSTC STC20041118205012211/18/04 20:50:31  5-MIN KSTC 190250Z AUTO 36004KT 10SM CLR 01/M02 A3024 730 82 -800 360/04 RMK AO2 SLP260 T00061022 51003
14926KSTC STC20041118205509911/18/04 20:55:31  5-MIN KSTC 190255Z AUTO 01004KT 10SM CLR 01/M02 A3024 740 82 -800 010/04 RMK AO2
14926KSTC STC20041118210009911/18/04 21:00:31  5-MIN KSTC 190300Z AUTO 01003KT 10SM CLR 01/M02 A3024 740 82 -800 010/03 RMK AO2
14926KSTC STC20041118210509911/18/04 21:05:31  5-MIN KSTC 190305Z AUTO 01003KT 10SM CLR 00/M02 A3023 740 85 -800 010/03 RMK AO2
14926KSTC STC20041118211009911/18/04 21:10:31  5-MIN KSTC 190310Z AUTO 01003KT 10SM CLR 01/M03 A3023 740 78 -800 010/03 RMK AO2
14926KSTC STC20041118211509911/18/04 21:15:31  5-MIN KSTC 190315Z AUTO 01003KT 10SM CLR 01/M03 A3023 740 78 -800 010/03 RMK AO2
14926KSTC STC20041118212009911/18/04 21:20:31  5-MIN KSTC 190320Z AUTO 01003KT 10SM CLR 01/M03 A3023 740 78 -800 010/03 RMK AO2
14926KSTC STC20041118212509911/18/04 21:25:31  5-MIN KSTC 190325Z AUTO 01004KT 10SM CLR 00/M03 A3023 740 81 -800 010/04 RMK AO2
14926KSTC STC20041118213009911/18/04 21:30:31  5-MIN KSTC 190330Z AUTO 01004KT 10SM CLR 00/M03 A3023 740 81 -800 010/04 RMK AO2
14926KSTC STC20041118213509911/18/04 21:35:31  5-MIN KSTC 190335Z AUTO 01004KT 10SM CLR 00/M03 A3023 740 81 -800 010/04 RMK AO2
14926KSTC STC20041118214009911/18/04 21:40:31  5-MIN KSTC 190340Z AUTO 01004KT 10SM CLR 00/M03 A3022 750 81 -800 010/04 RMK AO2
14926KSTC STC20041118214509911/18/04 21:45:31  5-MIN KSTC 190345Z AUTO 01004KT 10SM CLR 00/M03 A3022 750 81 -800 010/04 RMK AO2
14926KSTC STC20041118215011611/18/04 21:50:31  5-MIN KSTC 190350Z AUTO 01004KT 10SM CLR 01/M03 A3022 750 78 -700 010/04 RMK AO2 SLP254 T00061028
14926KSTC STC20041118215509911/18/04 21:55:31  5-MIN KSTC 190355Z AUTO 01004KT 10SM CLR 01/M03 A3022 750 75 -700 010/04 RMK AO2
14926KSTC STC20041118220009911/18/04 22:00:31  5-MIN KSTC 190400Z AUTO 02003KT 10SM CLR 01/M03 A3022 750 75 -700 010/03 RMK AO2
14926KSTC STC20041118220509911/18/04 22:05:31  5-MIN KSTC 190405Z AUTO 03003KT 10SM CLR 02/M03 A3022 750 69 -600 020/03 RMK AO2
14926KSTC STC20041118221009911/18/04 22:10:31  5-MIN KSTC 190410Z AUTO 03003KT 10SM CLR 02/M03 A3022 750 69 -600 030/03 RMK AO2
14926KSTC STC20041118221509911/18/04 22:15:31  5-MIN KSTC 190415Z AUTO 03003KT 10SM CLR 02/M03 A3021 760 69 -600 030/03 RMK AO2
14926KSTC STC20041118222009911/18/04 22:20:31  5-MIN KSTC 190420Z AUTO 02003KT 10SM CLR 02/M03 A3021 760 69 -600 020/03 RMK AO2
14926KSTC STC20041118222509911/18/04 22:25:31  5-MIN KSTC 190425Z AUTO 02003KT 10SM CLR 02/M03 A3021 760 72 -600 020/03 RMK AO2
14926KSTC STC20041118223009911/18/04 22:30:31  5-MIN KSTC 190430Z AUTO 00000KT 10SM CLR 01/M03 A3021 760 75 -700 000/00 RMK AO2
14926KSTC STC20041118223509911/18/04 22:35:31  5-MIN KSTC 190435Z AUTO 00000KT 10SM CLR 02/M03 A3021 760 72 -600 000/00 RMK AO2
14926KSTC STC20041118224009911/18/04 22:40:31  5-MIN KSTC 190440Z AUTO 00000KT 10SM CLR 01/M03 A3021 760 75 -700 000/00 RMK AO2
14926KSTC STC20041118224509911/18/04 22:45:31  5-MIN KSTC 190445Z AUTO 03003KT 10SM CLR 01/M03 A3021 760 75 -700 030/03 RMK AO2
14926KSTC STC20041118225011611/18/04 22:50:31  5-MIN KSTC 190450Z AUTO 04003KT 10SM CLR 02/M03 A3020 770 72 -600 040/03 RMK AO2 SLP245 T00171028
14926KSTC STC20041118225509911/18/04 22:55:31  5-MIN KSTC 190455Z AUTO 03003KT 10SM CLR 02/M03 A3020 770 72 -600 030/03 RMK AO2
14926KSTC STC20041118230009911/18/04 23:00:31  5-MIN KSTC 190500Z AUTO 04003KT 10SM CLR 02/M03 A3020 770 69 -600 040/03 RMK AO2
14926KSTC STC20041118230509911/18/04 23:05:31  5-MIN KSTC 190505Z AUTO 05004KT 10SM CLR 02/M03 A3020 770 67 -500 040/04 RMK AO2
14926KSTC STC20041118231009911/18/04 23:10:31  5-MIN KSTC 190510Z AUTO 05004KT 10SM CLR 02/M04 A3020 770 64 -500 050/04 RMK AO2
14926KSTC STC20041118231509911/18/04 23:15:31  5-MIN KSTC 190515Z AUTO 06004KT 10SM CLR 02/M04 A3020 770 64 -500 050/04 RMK AO2
14926KSTC STC20041118232009911/18/04 23:20:31  5-MIN KSTC 190520Z AUTO 05004KT 10SM CLR 03/M04 A3020 770 61 -400 050/04 RMK AO2
14926KSTC STC20041118232509911/18/04 23:25:31  5-MIN KSTC 190525Z AUTO 05004KT 10SM CLR 02/M04 A3020 770 64 -500 050/04 RMK AO2
14926KSTC STC20041118233009911/18/04 23:30:31  5-MIN KSTC 190530Z AUTO 05005KT 10SM CLR 03/M04 A3020 770 61 -400 040/05 RMK AO2
14926KSTC STC20041118233509911/18/04 23:35:31  5-MIN KSTC 190535Z AUTO 05006KT 10SM CLR 03/M04 A3019 770 57 -400 050/06 RMK AO2
14926KSTC STC20041118234009911/18/04 23:40:31  5-MIN KSTC 190540Z AUTO 05005KT 10SM CLR 03/M04 A3019 780 57 -400 050/05 RMK AO2
14926KSTC STC20041118234509911/18/04 23:45:31  5-MIN KSTC 190545Z AUTO 05005KT 10SM CLR 03/M04 A3019 780 57 -400 050/05 RMK AO2
14926KSTC STC20041118235014411/18/04 23:50:31  5-MIN KSTC 190550Z AUTO 05005KT 10SM CLR 03/M04 A3019 780 57 -400 050/05 RMK AO2 SLP240 T00331044 10033 21006 401111006 58007
14926KSTC STC20041118235509911/18/04 23:55:31  5-MIN KSTC 190555Z AUTO 06004KT 10SM CLR 03/M04 A3019 780 57 -400 050/04 RMK AO2
14926KSTC STC20041119000009911/19/04 00:00:32  5-MIN KSTC 190600Z AUTO 06004KT 10SM CLR 03/M05 A3019 780 54 -400 060/04 RMK AO2
14926KSTC STC20041119000509911/19/04 00:05:31  5-MIN KSTC 190605Z AUTO 06004KT 10SM CLR 03/M05 A3019 780 54 -400 060/04 RMK AO2
14926KSTC STC20041119001009911/19/04 00:10:31  5-MIN KSTC 190610Z AUTO 07004KT 10SM CLR 03/M04 A3019 780 57 -400 070/04 RMK AO2
14926KSTC STC20041119001510211/19/04 00:15:31  5-MIN KSTC 190615Z AUTO 00000KT 10SM FEW120 03/M04 A3019 780 57 -400 000/00 RMK AO2
14926KSTC STC20041119002010211/19/04 00:20:31  5-MIN KSTC 190620Z AUTO 07003KT 10SM SCT120 03/M04 A3018 780 57 -400 060/03 RMK AO2
14926KSTC STC20041119002510211/19/04 00:25:31  5-MIN KSTC 190625Z AUTO 07003KT 10SM FEW120 03/M05 A3018 780 54 -400 060/03 RMK AO2
14926KSTC STC20041119003010211/19/04 00:30:31  5-MIN KSTC 190630Z AUTO 06003KT 10SM FEW120 03/M04 A3018 790 57 -300 060/03 RMK AO2
14926KSTC STC20041119003510211/19/04 00:35:31  5-MIN KSTC 190635Z AUTO 06004KT 10SM SCT120 03/M04 A3018 790 57 -300 060/04 RMK AO2
14926KSTC STC20041119004010211/19/04 00:40:31  5-MIN KSTC 190640Z AUTO 07003KT 10SM FEW120 03/M05 A3018 790 54 -300 060/03 RMK AO2
14926KSTC STC20041119004510211/19/04 00:45:31  5-MIN KSTC 190645Z AUTO 07004KT 10SM FEW120 03/M04 A3018 790 57 -300 060/04 RMK AO2
14926KSTC STC20041119005011911/19/04 00:50:31  5-MIN KSTC 190650Z AUTO 07004KT 10SM FEW120 03/M05 A3017 790 54 -300 060/04 RMK AO2 SLP234 T00331050
14926KSTC STC20041119005510211/19/04 00:55:31  5-MIN KSTC 190655Z AUTO 07003KT 10SM FEW120 03/M04 A3017 790 57 -300 070/03 RMK AO2
14926KSTC STC20041119010010211/19/04 01:00:31  5-MIN KSTC 190700Z AUTO 08003KT 10SM FEW120 03/M04 A3017 790 57 -300 070/03 RMK AO2
14926KSTC STC20041119010510211/19/04 01:05:31  5-MIN KSTC 190705Z AUTO 07003KT 10SM SCT120 03/M04 A3017 800 59 -300 070/03 RMK AO2
14926KSTC STC20041119011010211/19/04 01:10:31  5-MIN KSTC 190710Z AUTO 07003KT 10SM SCT120 03/M04 A3017 800 57 -300 070/03 RMK AO2
14926KSTC STC20041119011510211/19/04 01:15:31  5-MIN KSTC 190715Z AUTO 07004KT 10SM BKN120 03/M04 A3017 800 57 -300 070/04 RMK AO2
14926KSTC STC20041119012010211/19/04 01:20:31  5-MIN KSTC 190720Z AUTO 08003KT 10SM BKN120 03/M04 A3017 800 57 -300 080/03 RMK AO2
14926KSTC STC20041119012510211/19/04 01:25:31  5-MIN KSTC 190725Z AUTO 09003KT 10SM BKN120 03/M04 A3016 800 57 -300 080/03 RMK AO2
14926KSTC STC20041119013010211/19/04 01:30:31  5-MIN KSTC 190730Z AUTO 08004KT 10SM OVC120 03/M04 A3016 800 59 -300 080/04 RMK AO2
14926KSTC STC20041119013510211/19/04 01:35:31  5-MIN KSTC 190735Z AUTO 09004KT 10SM OVC120 03/M04 A3016 800 59 -300 080/04 RMK AO2
14926KSTC STC20041119014010211/19/04 01:40:31  5-MIN KSTC 190740Z AUTO 09004KT 10SM OVC110 03/M04 A3016 810 61 -400 090/04 RMK AO2
14926KSTC STC20041119014510211/19/04 01:45:31  5-MIN KSTC 190745Z AUTO 08004KT 10SM BKN110 03/M04 A3016 810 59 -300 080/04 RMK AO2
14926KSTC STC20041119015011911/19/04 01:50:31  5-MIN KSTC 190750Z AUTO 09003KT 10SM BKN110 03/M04 A3016 810 61 -400 080/03 RMK AO2 SLP227 T00281039
14926KSTC STC20041119015510211/19/04 01:55:31  5-MIN KSTC 190755Z AUTO 08004KT 10SM OVC110 03/M04 A3015 810 61 -400 070/04 RMK AO2
14926KSTC STC20041119020010211/19/04 02:00:31  5-MIN KSTC 190800Z AUTO 08004KT 10SM OVC110 03/M04 A3015 810 59 -400 080/04 RMK AO2
14926KSTC STC20041119020510211/19/04 02:05:31  5-MIN KSTC 190805Z AUTO 08005KT 10SM BKN110 03/M04 A3015 810 61 -400 070/05 RMK AO2
14926KSTC STC20041119021010211/19/04 02:10:31  5-MIN KSTC 190810Z AUTO 07005KT 10SM BKN110 03/M04 A3015 810 59 -400 070/05 RMK AO2
14926KSTC STC20041119021510211/19/04 02:15:31  5-MIN KSTC 190815Z AUTO 08004KT 10SM SCT110 03/M04 A3015 810 61 -400 080/04 RMK AO2
14926KSTC STC20041119022010211/19/04 02:20:31  5-MIN KSTC 190820Z AUTO 08005KT 10SM SCT110 03/M04 A3015 820 59 -400 070/05 RMK AO2
14926KSTC STC20041119022510211/19/04 02:25:31  5-MIN KSTC 190825Z AUTO 07004KT 10SM SCT110 03/M04 A3015 820 59 -400 070/04 RMK AO2
14926KSTC STC20041119023010211/19/04 02:30:31  5-MIN KSTC 190830Z AUTO 07004KT 10SM BKN110 03/M04 A3015 820 59 -400 070/04 RMK AO2
14926KSTC STC20041119023510211/19/04 02:35:31  5-MIN KSTC 190835Z AUTO 08004KT 10SM BKN110 03/M04 A3015 820 61 -400 070/04 RMK AO2
14926KSTC STC20041119024010211/19/04 02:40:31  5-MIN KSTC 190840Z AUTO VRB03KT 10SM BKN110 03/M04 A3015 820 61 -400 VRB/03 RMK AO2
14926KSTC STC20041119024510211/19/04 02:45:31  5-MIN KSTC 190845Z AUTO 08004KT 10SM BKN110 03/M04 A3015 820 61 -400 070/04 RMK AO2
14926KSTC STC20041119025012511/19/04 02:50:31  5-MIN KSTC 190850Z AUTO 08004KT 10SM BKN110 03/M04 A3015 820 61 -400 070/04 RMK AO2 SLP224 T00281039 56015
14926KSTC STC20041119025510211/19/04 02:55:31  5-MIN KSTC 190855Z AUTO 06004KT 10SM BKN110 03/M04 A3014 820 61 -400 060/04 RMK AO2
14926KSTC STC20041119030010211/19/04 03:00:31  5-MIN KSTC 190900Z AUTO 08004KT 10SM BKN110 03/M04 A3014 820 61 -400 070/04 RMK AO2
14926KSTC STC20041119030510211/19/04 03:05:31  5-MIN KSTC 190905Z AUTO 07004KT 10SM BKN100 03/M04 A3014 820 61 -400 070/04 RMK AO2
14926KSTC STC20041119031010211/19/04 03:10:31  5-MIN KSTC 190910Z AUTO 07004KT 10SM BKN100 03/M04 A3014 830 61 -400 060/04 RMK AO2
14926KSTC STC20041119031510211/19/04 03:15:31  5-MIN KSTC 190915Z AUTO 08005KT 10SM SCT100 03/M04 A3013 830 61 -400 070/05 RMK AO2
14926KSTC STC20041119032010211/19/04 03:20:31  5-MIN KSTC 190920Z AUTO 08005KT 10SM SCT100 03/M04 A3013 830 61 -400 070/05 RMK AO2
14926KSTC STC20041119032510211/19/04 03:25:31  5-MIN KSTC 190925Z AUTO 07004KT 10SM BKN100 03/M04 A3013 830 61 -400 070/04 RMK AO2
14926KSTC STC20041119033010211/19/04 03:30:31  5-MIN KSTC 190930Z AUTO 07004KT 10SM BKN090 03/M04 A3013 830 61 -400 070/04 RMK AO2
14926KSTC STC20041119033510211/19/04 03:35:31  5-MIN KSTC 190935Z AUTO 06004KT 10SM BKN090 03/M04 A3013 840 61 -400 060/04 RMK AO2
14926KSTC STC20041119034010211/19/04 03:40:31  5-MIN KSTC 190940Z AUTO 07005KT 10SM BKN090 03/M04 A3013 840 61 -400 060/05 RMK AO2
14926KSTC STC20041119034510211/19/04 03:45:31  5-MIN KSTC 190945Z AUTO 07005KT 10SM BKN085 03/M04 A3013 840 61 -400 070/05 RMK AO2
14926KSTC STC20041119035011911/19/04 03:50:31  5-MIN KSTC 190950Z AUTO 07006KT 10SM OVC085 03/M04 A3012 840 61 -400 060/06 RMK AO2 SLP216 T00281039
14926KSTC STC20041119035510211/19/04 03:55:31  5-MIN KSTC 190955Z AUTO 07005KT 10SM OVC085 03/M04 A3012 840 61 -300 070/05 RMK AO2
14926KSTC STC20041119040010211/19/04 04:00:31  5-MIN KSTC 191000Z AUTO 07005KT 10SM OVC085 03/M04 A3012 840 61 -300 070/05 RMK AO2
14926KSTC STC20041119040510211/19/04 04:05:31  5-MIN KSTC 191005Z AUTO 07005KT 10SM OVC085 03/M04 A3012 840 61 -300 070/05 RMK AO2
14926KSTC STC20041119041010211/19/04 04:10:31  5-MIN KSTC 191010Z AUTO 07006KT 10SM OVC080 03/M04 A3012 840 61 -300 070/06 RMK AO2
14926KSTC STC20041119041510211/19/04 04:15:31  5-MIN KSTC 191015Z AUTO 07005KT 10SM OVC080 03/M04 A3012 850 61 -300 070/05 RMK AO2
14926KSTC STC20041119042010211/19/04 04:20:31  5-MIN KSTC 191020Z AUTO 08007KT 10SM OVC080 03/M04 A3012 850 61 -300 070/07 RMK AO2
14926KSTC STC20041119042510211/19/04 04:25:31  5-MIN KSTC 191025Z AUTO 08007KT 10SM OVC080 03/M04 A3011 850 59 -300 080/07 RMK AO2
14926KSTC STC20041119043010211/19/04 04:30:31  5-MIN KSTC 191030Z AUTO 08005KT 10SM OVC080 03/M04 A3011 850 59 -300 070/05 RMK AO2
14926KSTC STC20041119043510211/19/04 04:35:31  5-MIN KSTC 191035Z AUTO 07006KT 10SM OVC075 03/M04 A3011 850 59 -300 070/06 RMK AO2
14926KSTC STC20041119044010211/19/04 04:40:31  5-MIN KSTC 191040Z AUTO 07006KT 10SM OVC075 03/M04 A3011 850 59 -300 070/06 RMK AO2
14926KSTC STC20041119044510211/19/04 04:45:31  5-MIN KSTC 191045Z AUTO 07006KT 10SM OVC070 03/M04 A3011 850 59 -300 070/06 RMK AO2
14926KSTC STC20041119045011911/19/04 04:50:31  5-MIN KSTC 191050Z AUTO 07005KT 10SM OVC070 03/M04 A3011 860 59 -300 060/05 RMK AO2 SLP213 T00331039
14926KSTC STC20041119045510211/19/04 04:55:31  5-MIN KSTC 191055Z AUTO 07005KT 10SM OVC070 03/M04 A3010 860 61 -300 070/05 RMK AO2
14926KSTC STC20041119050010211/19/04 05:00:31  5-MIN KSTC 191100Z AUTO 07006KT 10SM OVC070 03/M04 A3010 860 59 -300 060/06 RMK AO2
14926KSTC STC20041119050510211/19/04 05:05:31  5-MIN KSTC 191105Z AUTO 07006KT 10SM OVC070 03/M04 A3010 860 59 -300 070/06 RMK AO2
14926KSTC STC20041119051010211/19/04 05:10:31  5-MIN KSTC 191110Z AUTO 07006KT 10SM OVC070 03/M04 A3010 860 59 -300 070/06 RMK AO2
14926KSTC STC20041119051510211/19/04 05:15:31  5-MIN KSTC 191115Z AUTO 09008KT 10SM OVC070 03/M04 A3010 860 59 -300 080/08 RMK AO2
14926KSTC STC20041119052010211/19/04 05:20:31  5-MIN KSTC 191120Z AUTO 07007KT 10SM OVC070 03/M04 A3010 860 61 -300 070/07 RMK AO2
14926KSTC STC20041119052510911/19/04 05:25:31  5-MIN KSTC 191125Z AUTO 08008KT 10SM BKN070 OVC085 03/M04 A3009 870 61 -300 080/08 RMK AO2
14926KSTC STC20041119053010211/19/04 05:30:31  5-MIN KSTC 191130Z AUTO 07006KT 10SM OVC075 03/M03 A3009 870 64 -300 070/06 RMK AO2
14926KSTC STC20041119053510211/19/04 05:35:31  5-MIN KSTC 191135Z AUTO 07007KT 10SM OVC075 03/M03 A3009 870 64 -300 070/07 RMK AO2
14926KSTC STC20041119054010211/19/04 05:40:31  5-MIN KSTC 191140Z AUTO 07006KT 10SM OVC075 03/M04 A3009 870 61 -300 070/06 RMK AO2
14926KSTC STC20041119054510211/19/04 05:45:31  5-MIN KSTC 191145Z AUTO 07005KT 10SM OVC080 03/M03 A3009 870 64 -300 070/05 RMK AO2
14926KSTC STC20041119055013711/19/04 05:50:31  5-MIN KSTC 191150Z AUTO 07006KT 10SM OVC075 03/M03 A3009 870 64 -300 070/06 RMK AO2 SLP208 T00281033 10033 20028 56016
14926KSTC STC20041119055510211/19/04 05:55:31  5-MIN KSTC 191155Z AUTO 07007KT 10SM OVC075 03/M03 A3009 870 64 -300 070/07 RMK AO2
14926KSTC STC20041119060010211/19/04 06:00:31  5-MIN KSTC 191200Z AUTO 08005KT 10SM OVC075 03/M03 A3008 880 64 -300 080/05 RMK AO2
14926KSTC STC20041119060510211/19/04 06:05:31  5-MIN KSTC 191205Z AUTO 08006KT 10SM OVC075 03/M03 A3008 880 64 -300 080/06 RMK AO2
14926KSTC STC20041119061010211/19/04 06:10:31  5-MIN KSTC 191210Z AUTO 08006KT 10SM OVC070 03/M03 A3008 880 64 -300 070/06 RMK AO2
14926KSTC STC20041119061510211/19/04 06:15:31  5-MIN KSTC 191215Z AUTO 08006KT 10SM OVC070 03/M03 A3008 880 64 -300 080/06 RMK AO2
14926KSTC STC20041119062010211/19/04 06:20:31  5-MIN KSTC 191220Z AUTO 07005KT 10SM OVC070 03/M03 A3008 880 64 -300 070/05 RMK AO2
14926KSTC STC20041119062510211/19/04 06:25:31  5-MIN KSTC 191225Z AUTO 06006KT 10SM OVC070 03/M03 A3008 880 64 -300 060/06 RMK AO2
14926KSTC STC20041119063010211/19/04 06:30:31  5-MIN KSTC 191230Z AUTO 06005KT 10SM OVC070 03/M03 A3008 880 64 -300 060/05 RMK AO2
14926KSTC STC20041119063510211/19/04 06:35:31  5-MIN KSTC 191235Z AUTO 07005KT 10SM OVC065 03/M03 A3008 880 64 -300 070/05 RMK AO2
14926KSTC STC20041119064010211/19/04 06:40:31  5-MIN KSTC 191240Z AUTO 09005KT 10SM OVC065 03/M03 A3008 880 67 -300 080/05 RMK AO2
14926KSTC STC20041119064510211/19/04 06:45:31  5-MIN KSTC 191245Z AUTO 08004KT 10SM OVC060 03/M03 A3008 880 67 -300 080/04 RMK AO2
14926KSTC STC20041119065011911/19/04 06:50:31  5-MIN KSTC 191250Z AUTO 08005KT 10SM OVC060 03/M03 A3008 880 67 -300 070/05 RMK AO2 SLP204 T00281028
14926KSTC STC20041119065510211/19/04 06:55:31  5-MIN KSTC 191255Z AUTO 07005KT 10SM OVC060 03/M03 A3008 880 67 -300 070/05 RMK AO2
14926KSTC STC20041119070010211/19/04 07:00:31  5-MIN KSTC 191300Z AUTO 08006KT 10SM OVC060 03/M03 A3008 880 67 -300 080/06 RMK AO2
14926KSTC STC20041119070510211/19/04 07:05:31  5-MIN KSTC 191305Z AUTO 09005KT 10SM OVC060 03/M03 A3007 880 67 -300 080/05 RMK AO2
14926KSTC STC20041119071010211/19/04 07:10:31  5-MIN KSTC 191310Z AUTO 08004KT 10SM OVC060 03/M02 A3007 880 69 -300 070/04 RMK AO2
14926KSTC STC20041119071511811/19/04 07:15:31  5-MIN KSTC 191315Z AUTO 08005KT 10SM -RA OVC060 03/M02 A3007 890 69 -300 080/05 RMK AO2 RAB12 P0000
14926KSTC STC20041119072011811/19/04 07:20:31  5-MIN KSTC 191320Z AUTO 08004KT 10SM -RA OVC055 03/M02 A3007 890 69 -300 070/04 RMK AO2 RAB12 P0000
14926KSTC STC20041119072511811/19/04 07:25:31  5-MIN KSTC 191325Z AUTO 07005KT 10SM -RA OVC055 03/M02 A3007 890 69 -300 070/05 RMK AO2 RAB12 P0000
14926KSTC STC20041119073011811/19/04 07:30:31  5-MIN KSTC 191330Z AUTO 07005KT 10SM -RA OVC055 03/M02 A3007 890 69 -300 070/05 RMK AO2 RAB12 P0000
14926KSTC STC20041119073511811/19/04 07:35:31  5-MIN KSTC 191335Z AUTO 07005KT 10SM -RA OVC055 03/M02 A3007 890 69 -300 070/05 RMK AO2 RAB12 P0000
14926KSTC STC20041119074012511/19/04 07:40:31  5-MIN KSTC 191340Z AUTO 08004KT 10SM -RA FEW034 OVC055 03/M01 A3007 890 75 -300 070/04 RMK AO2 RAB12 P0000
14926KSTC STC20041119074512511/19/04 07:45:31  5-MIN KSTC 191345Z AUTO 08006KT 10SM -RA FEW030 OVC055 03/M02 A3007 890 72 -300 070/06 RMK AO2 RAB12 P0000
14926KSTC STC20041119075014211/19/04 07:50:31  5-MIN KSTC 191350Z AUTO 08004KT 10SM -RA FEW030 OVC055 03/M01 A3007 890 75 -300 070/04 RMK AO2 RAB12 SLP204 P0000 T00281011
14926KSTC STC20041119075511211/19/04 07:55:31  5-MIN KSTC 191355Z AUTO 07004KT 10SM -RA OVC055 02/M01 A3007 890 78 -400 070/04 RMK AO2 P0000
14926KSTC STC20041119080011911/19/04 08:00:31  5-MIN KSTC 191400Z AUTO 06005KT 10SM -RA FEW028 OVC050 02/M01 A3007 890 78 -400 060/05 RMK AO2 P0000
14926KSTC STC20041119080511911/19/04 08:05:31  5-MIN KSTC 191405Z AUTO 07004KT 10SM -RA FEW033 OVC050 02/M01 A3007 890 82 -400 070/04 RMK AO2 P0000
14926KSTC STC20041119081011911/19/04 08:10:31  5-MIN KSTC 191410Z AUTO VRB04KT 10SM -RA FEW033 OVC050 02/M01 A3007 890 82 -400 VRB/04 RMK AO2 P0001
14926KSTC STC20041119081511211/19/04 08:15:31  5-MIN KSTC 191415Z AUTO 06004KT 10SM -RA OVC050 02/M01 A3007 890 82 -400 050/04 RMK AO2 P0001
14926KSTC STC20041119082011111/19/04 08:20:31  5-MIN KSTC 191420Z AUTO 05005KT 10SM -RA OVC050 02/00 A3007 890 85 -400 050/05 RMK AO2 P0001
14926KSTC STC20041119082511011/19/04 08:25:31  5-MIN KSTC 191425Z AUTO 05004KT 9SM -RA OVC050 02/00 A3007 890 85 -400 050/04 RMK AO2 P0001
14926KSTC STC20041119083011011/19/04 08:30:31  5-MIN KSTC 191430Z AUTO 06006KT 8SM -RA OVC048 02/00 A3006 890 85 -400 050/06 RMK AO2 P0002
14926KSTC STC20041119083511711/19/04 08:35:31  5-MIN KSTC 191435Z AUTO 07005KT 8SM -RA FEW019 OVC048 02/01 A3007 890 89 -400 070/05 RMK AO2 P0002
14926KSTC STC20041119084011711/19/04 08:40:31  5-MIN KSTC 191440Z AUTO 07004KT 8SM -RA SCT021 OVC048 02/01 A3006 890 89 -400 070/04 RMK AO2 P0002
14926KSTC STC20041119084511711/19/04 08:45:31  5-MIN KSTC 191445Z AUTO 06006KT 8SM -RA BKN019 OVC048 02/01 A3006 900 89 -400 060/06 RMK AO2 P0003
14926KSTC STC20041119085014611/19/04 08:50:31  5-MIN KSTC 191450Z AUTO 05004KT 7SM -RA BKN019 OVC046 02/01 A3006 900 89 -300 050/04 RMK AO2 SLP199 P0003 60003 T00220006 56019
14926KSTC STC20041119085512411/19/04 08:55:31  5-MIN KSTC 191455Z AUTO 07005KT 7SM -RA BKN019 BKN028 OVC046 02/01 A3006 900 89 -300 060/05 RMK AO2 P0000
14926KSTC STC20041119090012411/19/04 09:00:31  5-MIN KSTC 191500Z AUTO 07006KT 7SM -RA BKN019 BKN030 OVC046 02/01 A3006 900 89 -300 060/06 RMK AO2 P0001
14926KSTC STC20041119090512711/19/04 09:05:31  5-MIN KSTC 191505Z AUTO 07005KT 6SM -RA BR BKN019 BKN030 OVC046 02/01 A3006 900 92 -300 070/05 RMK AO2 P0001
14926KSTC STC20041119091012011/19/04 09:10:31  5-MIN KSTC 191510Z AUTO 07005KT 6SM -RA BR SCT019 OVC030 02/01 A3005 900 92 -300 070/05 RMK AO2 P0002
14926KSTC STC20041119091512711/19/04 09:15:31  5-MIN KSTC 191515Z AUTO 07008KT 6SM -RA BR SCT021 BKN030 OVC045 02/01 A3005 900 89 -300 060/08 RMK AO2 P0002
14926KSTC STC20041119092012411/19/04 09:20:31  5-MIN KSTC 191520Z AUTO 07008KT 7SM -RA FEW018 SCT023 OVC030 02/01 A3005 910 89 -300 060/08 RMK AO2 P0003
14926KSTC STC20041119092512411/19/04 09:25:31  5-MIN KSTC 191525Z AUTO 06007KT 7SM -RA FEW018 BKN023 OVC030 02/01 A3005 910 92 -300 060/07 RMK AO2 P0003
14926KSTC STC20041119093012411/19/04 09:30:31  5-MIN KSTC 191530Z AUTO 08007KT 7SM -RA FEW018 BKN023 OVC030 02/01 A3004 910 92 -300 070/07 RMK AO2 P0003
14926KSTC STC20041119093512411/19/04 09:35:31  5-MIN KSTC 191535Z AUTO 07007KT 7SM -RA SCT018 BKN023 OVC030 02/01 A3004 920 89 -300 070/07 RMK AO2 P0003
14926KSTC STC20041119094011711/19/04 09:40:31  5-MIN KSTC 191540Z AUTO 06007KT 7SM -RA BKN018 OVC023 02/01 A3004 920 92 -300 060/07 RMK AO2 P0004
14926KSTC STC20041119094511711/19/04 09:45:31  5-MIN KSTC 191545Z AUTO 06007KT 8SM -RA BKN018 OVC023 02/01 A3004 920 92 -300 060/07 RMK AO2 P0004
14926KSTC STC20041119095013411/19/04 09:50:31  5-MIN KSTC 191550Z AUTO 06006KT 8SM -RA BKN020 OVC026 02/01 A3004 920 92 -300 060/06 RMK AO2 SLP191 P0004 T00220011
14926KSTC STC20041119095511711/19/04 09:55:31  5-MIN KSTC 191555Z AUTO 07007KT 8SM -RA BKN018 OVC025 02/01 A3003 920 92 -300 060/07 RMK AO2 P0000
14926KSTC STC20041119100011711/19/04 10:00:31  5-MIN KSTC 191600Z AUTO 07008KT 8SM -RA BKN018 OVC025 02/01 A3003 920 92 -300 060/08 RMK AO2 P0000
14926KSTC STC20041119100511711/19/04 10:05:31  5-MIN KSTC 191605Z AUTO 06006KT 7SM -RA BKN018 OVC025 02/01 A3003 930 92 -300 060/06 RMK AO2 P0000
14926KSTC STC20041119101011711/19/04 10:10:31  5-MIN KSTC 191610Z AUTO 06006KT 8SM -RA BKN023 OVC027 02/01 A3003 930 92 -300 060/06 RMK AO2 P0000
14926KSTC STC20041119101511711/19/04 10:15:31  5-MIN KSTC 191615Z AUTO 07007KT 7SM -RA BKN025 OVC037 02/02 A3003 930 96 -300 070/07 RMK AO2 P0001
14926KSTC STC20041119102011711/19/04 10:20:31  5-MIN KSTC 191620Z AUTO 07008KT 7SM -RA BKN025 OVC037 02/02 A3002 930 96 -300 060/08 RMK AO2 P0001
14926KSTC STC20041119102512711/19/04 10:25:31  5-MIN KSTC 191625Z AUTO 07008KT 6SM -RA BR FEW022 BKN027 OVC037 03/02 A3002 940 92 -200 060/08 RMK AO2 P0001
14926KSTC STC20041119103012711/19/04 10:30:31  5-MIN KSTC 191630Z AUTO 07007KT 5SM -RA BR FEW022 BKN029 OVC035 03/02 A3001 940 92 -200 060/07 RMK AO2 P0002
14926KSTC STC20041119103512011/19/04 10:35:31  5-MIN KSTC 191635Z AUTO 07008KT 5SM -RA BR BKN027 OVC034 03/02 A3001 940 92 -200 070/08 RMK AO2 P0002
14926KSTC STC20041119104012711/19/04 10:40:31  5-MIN KSTC 191640Z AUTO 06007KT 4SM -RA BR BKN027 BKN034 OVC043 03/02 A3001 950 92 -200 060/07 RMK AO2 P0002
14926KSTC STC20041119104512011/19/04 10:45:31  5-MIN KSTC 191645Z AUTO 07007KT 4SM -RA BR SCT029 OVC039 03/02 A3001 950 96 -200 070/07 RMK AO2 P0003
14926KSTC STC20041119105014411/19/04 10:50:31  5-MIN KSTC 191650Z AUTO 08007KT 4SM -RA BR FEW015 SCT029 OVC039 03/02 A3001 950 96 -200 080/07 RMK AO2 SLP180 P0003 T00280022
14926KSTC STC20041119105512711/19/04 10:55:31  5-MIN KSTC 191655Z AUTO 07008KT 4SM -RA BR SCT015 BKN031 OVC039 03/02 A3000 950 96 -200 070/08 RMK AO2 P0000
14926KSTC STC20041119110012711/19/04 11:00:31  5-MIN KSTC 191700Z AUTO 08009KT 4SM -RA BR BKN015 BKN030 OVC039 03/02 A3000 950 96 -200 070/09 RMK AO2 P0000
14926KSTC STC20041119110512711/19/04 11:05:31  5-MIN KSTC 191705Z AUTO 07007KT 4SM -RA BR BKN017 BKN027 OVC039 03/02 A2999 960 96 -200 070/07 RMK AO2 P0001
14926KSTC STC20041119111012711/19/04 11:10:31  5-MIN KSTC 191710Z AUTO 08009KT 5SM -RA BR SCT017 BKN027 OVC039 03/02 A2999 970 96 -200 070/09 RMK AO2 P0001
14926KSTC STC20041119111512111/19/04 11:15:31  5-MIN KSTC 191715Z AUTO 08008KT 5SM -RA BR SCT017 OVC029 03/03 A2999 970 100 -200 070/08 RMK AO2 P0001
14926KSTC STC20041119112012111/19/04 11:20:31  5-MIN KSTC 191720Z AUTO 08008KT 5SM -RA BR SCT017 OVC029 03/03 A2998 970 100 -200 080/08 RMK AO2 P0002
14926KSTC STC20041119112512711/19/04 11:25:31  5-MIN KSTC 191725Z AUTO 08008KT 5SM -RA BR SCT017 BKN025 OVC029 03/03 A2998 970 96 -100 080/08 RMK AO2 P0002
14926KSTC STC20041119113012711/19/04 11:30:31  5-MIN KSTC 191730Z AUTO 08009KT 5SM -RA BR SCT015 BKN022 OVC029 03/03 A2997 980 96 -100 070/09 RMK AO2 P0002
14926KSTC STC20041119113512811/19/04 11:35:31  5-MIN KSTC 191735Z AUTO 07009KT 5SM -RA BR SCT017 BKN025 OVC029 03/03 A2997 980 100 -100 070/09 RMK AO2 P0002
14926KSTC STC20041119114012711/19/04 11:40:31  5-MIN KSTC 191740Z AUTO 08009KT 5SM -RA BR FEW008 BKN017 OVC029 03/03 A2997 980 96 -100 080/09 RMK AO2 P0003
14926KSTC STC20041119114512811/19/04 11:45:31  5-MIN KSTC 191745Z AUTO 09009KT 5SM -RA BR SCT008 BKN017 OVC024 03/03 A2996 990 100 -100 090/09 RMK AO2 P0003
14926KSTC STC20041119115018111/19/04 11:50:31  5-MIN KSTC 191750Z AUTO 08010KT 5SM -RA BR BKN008 BKN017 OVC024 03/03 A2996 990 100 -100 080/10 RMK AO2 CIG 006V011 SLP163 P0003 60013 T00330033 10033 20022 58009
14926KSTC STC20041119115512911/19/04 11:55:31  5-MIN KSTC 191755Z AUTO 08009KT 5SM -RA BR BKN008 OVC017 04/03 A2996 990 96 0 070/09 RMK AO2 CIG 006V011 P0000
14926KSTC STC20041119120013611/19/04 12:00:31  5-MIN KSTC 191800Z AUTO 08011G16KT 4SM -RA BR BKN008 OVC017 04/03 A2995 1000 96 0 080/11G16 RMK AO2 CIG 006V011 P0000
14926KSTC STC20041119120512311/19/04 12:05:31  5-MIN KSTC 191805Z AUTO 09011KT 4SM -RA BR OVC008 04/03 A2995 1000 96 0 090/11 RMK AO2 CIG 006V011 P0000
14926KSTC STC20041119121012711/19/04 12:10:31  5-MIN KSTC 191810Z AUTO 09011KT 4SM -RA BR OVC008 03/03 A2995 1000 100 -100 090/11 RMK AO2 CIG 005V011 P0001
14926KSTC STC20041119121512311/19/04 12:15:31  5-MIN KSTC 191815Z AUTO 08012KT 4SM -RA BR OVC008 04/03 A2994 1010 96 0 080/12 RMK AO2 CIG 005V011 P0001
14926KSTC STC20041119122012311/19/04 12:20:31  5-MIN KSTC 191820Z AUTO 09011KT 4SM -RA BR OVC008 04/03 A2994 1010 96 0 090/11 RMK AO2 CIG 005V011 P0001
14926KSTC STC20041119122512311/19/04 12:25:31  5-MIN KSTC 191825Z AUTO 09008KT 4SM -RA BR OVC006 04/03 A2994 1010 96 0 080/08 RMK AO2 CIG 005V009 P0001
14926KSTC STC20041119123012311/19/04 12:30:31  5-MIN KSTC 191830Z AUTO 09008KT 5SM -RA BR OVC006 04/03 A2993 1010 96 0 090/08 RMK AO2 CIG 005V009 P0001
14926KSTC STC20041119123512311/19/04 12:35:31  5-MIN KSTC 191835Z AUTO 10008KT 6SM -RA BR OVC006 04/03 A2993 1020 96 0 090/08 RMK AO2 CIG 005V011 P0001
14926KSTC STC20041119124011111/19/04 12:40:31  5-MIN KSTC 191840Z AUTO 09009KT 6SM -RA BR OVC006 04/03 A2993 1020 96 0 090/09 RMK AO2 P0001
14926KSTC STC20041119124512411/19/04 12:45:31  5-MIN KSTC 191845Z AUTO 09009KT 5SM -RA BR OVC006 04/04 A2993 1020 100 0 080/09 RMK AO2 CIG 005V011 P0001
14926KSTC STC20041119125014111/19/04 12:50:31  5-MIN KSTC 191850Z AUTO 09008KT 4SM -RA BR OVC006 04/04 A2992 1020 100 0 080/08 RMK AO2 CIG 005V008 SLP151 P0001 T00390039
14926KSTC STC20041119125512411/19/04 12:55:31  5-MIN KSTC 191855Z AUTO 09008KT 4SM -RA BR OVC006 04/04 A2992 1020 100 0 090/08 RMK AO2 CIG 004V008 P0000
14926KSTC STC20041119130012411/19/04 13:00:31  5-MIN KSTC 191900Z AUTO 09008KT 4SM -RA BR OVC006 04/04 A2992 1030 100 0 080/08 RMK AO2 CIG 004V008 P0000
14926KSTC STC20041119130512411/19/04 13:05:31  5-MIN KSTC 191905Z AUTO 09008KT 3SM -RA BR OVC006 04/04 A2992 1030 100 0 090/08 RMK AO2 CIG 004V010 P0000
14926KSTC STC20041119131012811/19/04 13:10:31  5-MIN KSTC 191910Z AUTO 09008KT 2 1/2SM -RA BR OVC006 04/04 A2991 1030 100 0 090/08 RMK AO2 CIG 004V010 P0000
14926KSTC STC20041119131512411/19/04 13:15:31  5-MIN KSTC 191915Z AUTO 09007KT 3SM -RA BR OVC006 04/04 A2991 1040 100 0 090/07 RMK AO2 CIG 004V010 P0000
14926KSTC STC20041119132012411/19/04 13:20:31  5-MIN KSTC 191920Z AUTO 08007KT 3SM -RA BR OVC006 04/04 A2991 1040 100 0 080/07 RMK AO2 CIG 004V009 P0000
14926KSTC STC20041119132512811/19/04 13:25:31  5-MIN KSTC 191925Z AUTO 09007KT 2 1/2SM -RA BR OVC006 04/04 A2991 1040 100 0 090/07 RMK AO2 CIG 004V009 P0000
14926KSTC STC20041119133012811/19/04 13:30:31  5-MIN KSTC 191930Z AUTO 09007KT 2 1/2SM -RA BR OVC006 04/04 A2990 1040 100 0 090/07 RMK AO2 CIG 004V009 P0000
14926KSTC STC20041119133512411/19/04 13:35:31  5-MIN KSTC 191935Z AUTO 09007KT 2SM -RA BR OVC006 04/04 A2990 1040 100 0 090/07 RMK AO2 CIG 004V009 P0001
14926KSTC STC20041119134012811/19/04 13:40:31  5-MIN KSTC 191940Z AUTO 08007KT 2 1/2SM -RA BR OVC006 04/04 A2990 1040 100 0 080/07 RMK AO2 CIG 004V009 P0001
14926KSTC STC20041119134512811/19/04 13:45:31  5-MIN KSTC 191945Z AUTO 08008KT 2 1/2SM -RA BR OVC006 04/04 A2990 1050 100 0 080/08 RMK AO2 CIG 004V009 P0001
14926KSTC STC20041119135014111/19/04 13:50:31  5-MIN KSTC 191950Z AUTO 09008KT 3SM -RA BR OVC006 04/04 A2990 1050 100 0 080/08 RMK AO2 CIG 004V009 SLP141 P0001 T00390039
14926KSTC STC20041119135512411/19/04 13:55:31  5-MIN KSTC 191955Z AUTO 09007KT 4SM -RA BR OVC006 04/04 A2989 1050 100 0 080/07 RMK AO2 CIG 004V009 P0000
14926KSTC STC20041119140011211/19/04 14:00:31  5-MIN KSTC 192000Z AUTO 09008KT 4SM -RA BR OVC006 04/04 A2989 1050 100 0 080/08 RMK AO2 P0000
14926KSTC STC20041119140511211/19/04 14:05:31  5-MIN KSTC 192005Z AUTO 08008KT 3SM -RA BR OVC006 04/04 A2989 1060 100 0 080/08 RMK AO2 P0000
14926KSTC STC20041119141011211/19/04 14:10:31  5-MIN KSTC 192010Z AUTO 08009KT 3SM -RA BR OVC006 04/04 A2989 1060 100 0 080/09 RMK AO2 P0001
14926KSTC STC20041119141511211/19/04 14:15:31  5-MIN KSTC 192015Z AUTO 09007KT 3SM -RA BR OVC006 04/04 A2988 1060 100 0 080/07 RMK AO2 P0001
14926KSTC STC20041119142011211/19/04 14:20:31  5-MIN KSTC 192020Z AUTO 08006KT 4SM -RA BR OVC006 04/04 A2988 1060 100 0 070/06 RMK AO2 P0001
14926KSTC STC20041119142511211/19/04 14:25:31  5-MIN KSTC 192025Z AUTO 09006KT 4SM -RA BR OVC006 04/04 A2988 1060 100 0 090/06 RMK AO2 P0001
14926KSTC STC20041119143011311/19/04 14:30:31  5-MIN KSTC 192030Z AUTO 08006KT 4SM -RA BR OVC006 04/04 A2988 1070 96 100 080/06 RMK AO2 P0001
14926KSTC STC20041119143511211/19/04 14:35:31  5-MIN KSTC 192035Z AUTO 08006KT 4SM -RA BR OVC006 04/04 A2988 1070 100 0 080/06 RMK AO2 P0002
14926KSTC STC20041119144011211/19/04 14:40:31  5-MIN KSTC 192040Z AUTO 09007KT 4SM -RA BR OVC006 04/04 A2987 1070 100 0 090/07 RMK AO2 P0002
14926KSTC STC20041119144511311/19/04 14:45:31  5-MIN KSTC 192045Z AUTO 08006KT 5SM -RA BR OVC006 04/04 A2987 1070 96 100 070/06 RMK AO2 P0002
14926KSTC STC20041119145014211/19/04 14:50:31  5-MIN KSTC 192050Z AUTO 09008KT 5SM -RA BR OVC006 04/04 A2987 1070 96 100 090/08 RMK AO2 SLP133 P0002 60005 T00440039 58033
14926KSTC STC20041119145511311/19/04 14:55:31  5-MIN KSTC 192055Z AUTO 09007KT 5SM -RA BR OVC006 04/04 A2987 1070 96 100 080/07 RMK AO2 P0000
14926KSTC STC20041119150011411/19/04 15:00:31  5-MIN KSTC 192100Z AUTO 08008KT 4SM -RA BR OVC006 04/04 A2987 1070 100 100 080/08 RMK AO2 P0001
14926KSTC STC20041119150511311/19/04 15:05:31  5-MIN KSTC 192105Z AUTO 09008KT 4SM -RA BR OVC006 04/04 A2987 1070 96 100 080/08 RMK AO2 P0001
14926KSTC STC20041119151011311/19/04 15:10:31  5-MIN KSTC 192110Z AUTO 08006KT 4SM -RA BR OVC006 04/04 A2987 1070 96 100 080/06 RMK AO2 P0001
14926KSTC STC20041119151511411/19/04 15:15:31  5-MIN KSTC 192115Z AUTO 09008KT 4SM -RA BR OVC006 04/04 A2987 1080 100 100 090/08 RMK AO2 P0001
14926KSTC STC20041119152011411/19/04 15:20:31  5-MIN KSTC 192120Z AUTO 08007KT 4SM -RA BR OVC006 04/04 A2986 1080 100 100 080/07 RMK AO2 P0002
14926KSTC STC20041119152512611/19/04 15:25:31  5-MIN KSTC 192125Z AUTO 09007KT 3SM -RA BR OVC006 04/04 A2986 1080 100 100 080/07 RMK AO2 CIG 004V010 P0002
14926KSTC STC20041119153012611/19/04 15:30:31  5-MIN KSTC 192130Z AUTO 08008KT 4SM -RA BR OVC006 04/04 A2986 1080 100 100 080/08 RMK AO2 CIG 004V010 P0003
14926KSTC STC20041119153512611/19/04 15:35:31  5-MIN KSTC 192135Z AUTO 08007KT 4SM -RA BR OVC006 04/04 A2986 1080 100 100 080/07 RMK AO2 CIG 004V010 P0003
14926KSTC STC20041119154012611/19/04 15:40:31  5-MIN KSTC 192140Z AUTO 08007KT 4SM -RA BR OVC006 04/04 A2986 1080 100 100 080/07 RMK AO2 CIG 004V010 P0004
14926KSTC STC20041119154512611/19/04 15:45:31  5-MIN KSTC 192145Z AUTO 08006KT 3SM -RA BR OVC006 04/04 A2986 1080 100 100 080/06 RMK AO2 CIG 004V010 P0004
14926KSTC STC20041119155014311/19/04 15:50:31  5-MIN KSTC 192150Z AUTO 08007KT 4SM -RA BR OVC006 04/04 A2986 1080 100 100 080/07 RMK AO2 CIG 004V010 SLP130 P0004 T00440044
14926KSTC STC20041119155512611/19/04 15:55:31  5-MIN KSTC 192155Z AUTO 08006KT 3SM -RA BR OVC006 04/04 A2986 1080 100 100 080/06 RMK AO2 CIG 005V011 P0000
14926KSTC STC20041119160012611/19/04 16:00:31  5-MIN KSTC 192200Z AUTO 08008KT 3SM -RA BR OVC006 04/04 A2986 1080 100 100 080/08 RMK AO2 CIG 004V009 P0001
14926KSTC STC20041119160512611/19/04 16:05:31  5-MIN KSTC 192205Z AUTO 08005KT 3SM -RA BR OVC006 04/04 A2986 1080 100 100 070/05 RMK AO2 CIG 004V011 P0001
14926KSTC STC20041119161012611/19/04 16:10:31  5-MIN KSTC 192210Z AUTO 08007KT 3SM -RA BR OVC006 04/04 A2986 1080 100 100 070/07 RMK AO2 CIG 004V011 P0001
14926KSTC STC20041119161513011/19/04 16:15:31  5-MIN KSTC 192215Z AUTO 08007KT 2 1/2SM -RA BR OVC006 04/04 A2986 1080 100 100 080/07 RMK AO2 CIG 004V008 P0001
14926KSTC STC20041119162013011/19/04 16:20:31  5-MIN KSTC 192220Z AUTO 07005KT 2 1/2SM -RA BR OVC006 04/04 A2986 1080 100 100 070/05 RMK AO2 CIG 004V008 P0001
14926KSTC STC20041119162513011/19/04 16:25:31  5-MIN KSTC 192225Z AUTO 08005KT 2 1/2SM -RA BR OVC006 04/04 A2986 1080 100 100 080/05 RMK AO2 CIG 004V008 P0001
14926KSTC STC20041119163013011/19/04 16:30:31  5-MIN KSTC 192230Z AUTO 07005KT 2 1/2SM -RA BR OVC006 04/04 A2986 1080 100 100 070/05 RMK AO2 CIG 003V009 P0001
14926KSTC STC20041119163513011/19/04 16:35:31  5-MIN KSTC 192235Z AUTO 08007KT 2 1/2SM -RA BR OVC006 04/04 A2986 1080 100 100 070/07 RMK AO2 CIG 003V007 P0001
14926KSTC STC20041119164011811/19/04 16:40:31  5-MIN KSTC 192240Z AUTO 07005KT 2 1/2SM -RA BR OVC006 04/04 A2986 1080 100 100 060/05 RMK AO2 P0001
14926KSTC STC20041119164512411/19/04 16:45:31  5-MIN KSTC 192245Z AUTO 07005KT 3SM -RA BR OVC006 04/04 A2986 1080 100 0 070/05 RMK AO2 CIG 003V009 P0001
14926KSTC STC20041119165014311/19/04 16:50:31  5-MIN KSTC 192250Z AUTO 08006KT 4SM -RA BR OVC006 04/04 A2986 1090 100 100 070/06 RMK AO2 CIG 003V009 SLP128 P0002 T00440044
14926KSTC STC20041119165512611/19/04 16:55:31  5-MIN KSTC 192255Z AUTO 08005KT 4SM -RA BR OVC006 04/04 A2985 1090 100 100 080/05 RMK AO2 CIG 003V009 P0000
14926KSTC STC20041119170012411/19/04 17:00:31  5-MIN KSTC 192300Z AUTO 08006KT 4SM -RA BR OVC006 04/04 A2985 1090 100 0 080/06 RMK AO2 CIG 003V009 P0000
14926KSTC STC20041119170512611/19/04 17:05:31  5-MIN KSTC 192305Z AUTO VRB06KT 4SM -RA BR OVC006 04/04 A2985 1090 100 100 VRB/06 RMK AO2 CIG 003V008 P0000
14926KSTC STC20041119171012411/19/04 17:10:31  5-MIN KSTC 192310Z AUTO 08006KT 4SM -RA BR OVC004 04/04 A2985 1090 100 0 070/06 RMK AO2 CIG 003V007 P0000
14926KSTC STC20041119171512411/19/04 17:15:31  5-MIN KSTC 192315Z AUTO 08005KT 3SM -RA BR OVC004 04/04 A2985 1090 100 0 080/05 RMK AO2 CIG 003V008 P0000
14926KSTC STC20041119172012811/19/04 17:20:31  5-MIN KSTC 192320Z AUTO 07005KT 2 1/2SM -RA BR OVC004 04/04 A2985 1090 100 0 070/05 RMK AO2 CIG 003V008 P0001
14926KSTC STC20041119172513011/19/04 17:25:31  5-MIN KSTC 192325Z AUTO 07005KT 2 1/2SM -RA BR OVC004 04/04 A2985 1090 100 100 070/05 RMK AO2 CIG 003V008 P0002
14926KSTC STC20041119173011211/19/04 17:30:31  5-MIN KSTC 192330Z AUTO 07005KT 3SM -RA BR OVC004 04/04 A2985 1090 100 0 070/05 RMK AO2 P0003
14926KSTC STC20041119173512411/19/04 17:35:31  5-MIN KSTC 192335Z AUTO 06004KT 3SM -RA BR OVC004 04/04 A2985 1090 100 0 060/04 RMK AO2 CIG 003V008 P0003
14926KSTC STC20041119174012411/19/04 17:40:31  5-MIN KSTC 192340Z AUTO 06004KT 4SM -RA BR OVC004 04/04 A2985 1090 100 0 060/04 RMK AO2 CIG 003V008 P0004
14926KSTC STC20041119174512411/19/04 17:45:31  5-MIN KSTC 192345Z AUTO 06005KT 4SM -RA BR OVC004 04/04 A2985 1090 100 0 060/05 RMK AO2 CIG 003V008 P0004
14926KSTC STC20041119175016711/19/04 17:50:31  5-MIN KSTC 192350Z AUTO 07005KT 4SM -RA BR OVC004 04/04 A2985 1090 100 100 070/05 RMK AO2 CIG 003V008 SLP125 P0005 60016 T00390039 10044 20033 56028
14926KSTC STC20041119175512611/19/04 17:55:31  5-MIN KSTC 192355Z AUTO 06005KT 4SM -RA BR OVC004 04/04 A2985 1090 100 100 060/05 RMK AO2 CIG 003V007 P0000
14926KSTC STC20041119180012611/19/04 18:00:31  5-MIN KSTC 200000Z AUTO 06004KT 4SM -RA BR OVC004 04/04 A2985 1090 100 100 060/04 RMK AO2 CIG 003V007 P0000
14926KSTC STC20041119180512611/19/04 18:05:31  5-MIN KSTC 200005Z AUTO 06005KT 4SM -RA BR OVC004 04/04 A2985 1090 100 100 060/05 RMK AO2 CIG 003V008 P0001
14926KSTC STC20041119181012611/19/04 18:10:31  5-MIN KSTC 200010Z AUTO 05004KT 4SM -RA BR OVC004 04/04 A2985 1090 100 100 050/04 RMK AO2 CIG 003V008 P0001
14926KSTC STC20041119181512611/19/04 18:15:31  5-MIN KSTC 200015Z AUTO 05004KT 5SM -RA BR OVC004 04/04 A2985 1100 100 100 050/04 RMK AO2 CIG 003V008 P0001
14926KSTC STC20041119182012611/19/04 18:20:31  5-MIN KSTC 200020Z AUTO 04005KT 5SM -RA BR OVC004 04/04 A2985 1100 100 100 040/05 RMK AO2 CIG 003V008 P0002
14926KSTC STC20041119182511411/19/04 18:25:31  5-MIN KSTC 200025Z AUTO 04004KT 4SM -RA BR OVC004 04/04 A2985 1100 100 100 040/04 RMK AO2 P0003
14926KSTC STC20041119183011411/19/04 18:30:31  5-MIN KSTC 200030Z AUTO 05004KT 4SM -RA BR OVC004 04/04 A2985 1100 100 100 050/04 RMK AO2 P0003
14926KSTC STC20041119183511411/19/04 18:35:31  5-MIN KSTC 200035Z AUTO 05004KT 4SM -RA BR OVC004 04/04 A2984 1100 100 100 050/04 RMK AO2 P0004
14926KSTC STC20041119184011411/19/04 18:40:31  5-MIN KSTC 200040Z AUTO 04003KT 4SM -RA BR OVC004 04/04 A2984 1100 100 100 030/03 RMK AO2 P0004
14926KSTC STC20041119184511411/19/04 18:45:31  5-MIN KSTC 200045Z AUTO 00000KT 4SM -RA BR OVC004 04/04 A2984 1100 100 100 000/00 RMK AO2 P0004
14926KSTC STC20041119185013111/19/04 18:50:31  5-MIN KSTC 200050Z AUTO 04003KT 4SM -RA BR OVC004 04/04 A2984 1100 100 100 040/03 RMK AO2 SLP122 P0005 T00390039
14926KSTC STC20041119185511411/19/04 18:55:31  5-MIN KSTC 200055Z AUTO 04005KT 5SM -RA BR OVC004 04/04 A2984 1100 100 100 030/05 RMK AO2 P0000
14926KSTC STC20041119190011411/19/04 19:00:31  5-MIN KSTC 200100Z AUTO 03003KT 5SM -RA BR OVC004 04/04 A2984 1100 100 100 030/03 RMK AO2 P0000
14926KSTC STC20041119190511411/19/04 19:05:31  5-MIN KSTC 200105Z AUTO 04003KT 6SM -RA BR OVC004 04/04 A2984 1100 100 100 030/03 RMK AO2 P0000
14926KSTC STC20041119191011411/19/04 19:10:31  5-MIN KSTC 200110Z AUTO 03003KT 5SM -RA BR OVC004 04/04 A2984 1100 100 100 030/03 RMK AO2 P0000
14926KSTC STC20041119191511411/19/04 19:15:31  5-MIN KSTC 200115Z AUTO 03003KT 4SM -RA BR OVC004 04/04 A2984 1100 100 100 020/03 RMK AO2 P0000
14926KSTC STC20041119192011411/19/04 19:20:31  5-MIN KSTC 200120Z AUTO 04004KT 4SM -RA BR OVC004 04/04 A2983 1110 100 100 030/04 RMK AO2 P0001
14926KSTC STC20041119192511411/19/04 19:25:31  5-MIN KSTC 200125Z AUTO 04004KT 4SM -RA BR OVC004 04/04 A2983 1110 100 100 030/04 RMK AO2 P0001
14926KSTC STC20041119193011411/19/04 19:30:31  5-MIN KSTC 200130Z AUTO 04004KT 4SM -RA BR OVC004 04/04 A2983 1110 100 100 040/04 RMK AO2 P0001
14926KSTC STC20041119193511411/19/04 19:35:31  5-MIN KSTC 200135Z AUTO 03004KT 4SM -RA BR OVC004 04/04 A2983 1110 100 100 030/04 RMK AO2 P0001
14926KSTC STC20041119194011411/19/04 19:40:31  5-MIN KSTC 200140Z AUTO 04004KT 4SM -RA BR OVC004 04/04 A2983 1110 100 100 040/04 RMK AO2 P0001
14926KSTC STC20041119194511411/19/04 19:45:31  5-MIN KSTC 200145Z AUTO 03003KT 5SM -RA BR OVC004 04/04 A2983 1110 100 100 030/03 RMK AO2 P0002
14926KSTC STC20041119195013111/19/04 19:50:31  5-MIN KSTC 200150Z AUTO 04004KT 5SM -RA BR OVC004 04/04 A2983 1110 100 100 040/04 RMK AO2 SLP118 P0002 T00390039
14926KSTC STC20041119195511411/19/04 19:55:31  5-MIN KSTC 200155Z AUTO 04003KT 5SM -RA BR OVC004 04/04 A2983 1110 100 100 040/03 RMK AO2 P0000
14926KSTC STC20041119200012111/19/04 20:00:31  5-MIN KSTC 200200Z AUTO 04003KT 5SM -RA BR BKN004 OVC013 04/04 A2983 1110 100 100 040/03 RMK AO2 P0000
14926KSTC STC20041119200512111/19/04 20:05:31  5-MIN KSTC 200205Z AUTO 03004KT 6SM -RA BR BKN004 OVC025 04/04 A2983 1110 100 100 030/04 RMK AO2 P0000
14926KSTC STC20041119201011411/19/04 20:10:31  5-MIN KSTC 200210Z AUTO 04003KT 6SM -RA BR OVC004 04/04 A2982 1110 100 100 030/03 RMK AO2 P0000
14926KSTC STC20041119201511411/19/04 20:15:31  5-MIN KSTC 200215Z AUTO 03003KT 6SM -RA BR OVC004 04/04 A2983 1110 100 100 020/03 RMK AO2 P0000
14926KSTC STC20041119202012611/19/04 20:20:31  5-MIN KSTC 200220Z AUTO 03003KT 6SM -RA BR OVC004 04/04 A2982 1120 100 100 020/03 RMK AO2 CIG 003V007 P0000
14926KSTC STC20041119202511411/19/04 20:25:31  5-MIN KSTC 200225Z AUTO 03003KT 6SM -RA BR OVC004 04/04 A2982 1120 100 100 020/03 RMK AO2 P0000
14926KSTC STC20041119203011111/19/04 20:30:31  5-MIN KSTC 200230Z AUTO 02004KT 7SM -RA OVC004 04/04 A2982 1120 100 100 020/04 RMK AO2 P0000
14926KSTC STC20041119203511311/19/04 20:35:31  5-MIN KSTC 200235Z AUTO 02003KT 7SM OVC004 04/04 A2982 1120 100 100 020/03 RMK AO2 RAE33 P0000
14926KSTC STC20041119204011611/19/04 20:40:31  5-MIN KSTC 200240Z AUTO 00000KT 6SM BR OVC004 04/04 A2982 1120 100 100 000/00 RMK AO2 RAE33 P0000
14926KSTC STC20041119204511611/19/04 20:45:31  5-MIN KSTC 200245Z AUTO 00000KT 6SM BR OVC004 04/04 A2982 1120 100 100 000/00 RMK AO2 RAE33 P0000
14926KSTC STC20041119205014511/19/04 20:50:31  5-MIN KSTC 200250Z AUTO 35003KT 6SM BR OVC004 04/04 A2982 1120 100 100 350/03 RMK AO2 RAE33 SLP115 P0000 60007 T00390039 56007
14926KSTC STC20041119205510411/19/04 20:55:31  5-MIN KSTC 200255Z AUTO 36003KT 6SM BR OVC004 04/04 A2982 1120 100 100 350/03 RMK AO2
14926KSTC STC20041119210010411/19/04 21:00:31  5-MIN KSTC 200300Z AUTO 36003KT 6SM BR OVC004 04/04 A2982 1120 100 100 350/03 RMK AO2
14926KSTC STC20041119210510411/19/04 21:05:31  5-MIN KSTC 200305Z AUTO 00000KT 6SM BR OVC004 04/04 A2982 1120 100 100 000/00 RMK AO2
14926KSTC STC20041119211010411/19/04 21:10:31  5-MIN KSTC 200310Z AUTO 35003KT 6SM BR OVC004 04/04 A2982 1120 100 100 350/03 RMK AO2
14926KSTC STC20041119211510411/19/04 21:15:31  5-MIN KSTC 200315Z AUTO 36003KT 6SM BR OVC004 04/04 A2982 1120 100 100 350/03 RMK AO2
14926KSTC STC20041119212010111/19/04 21:20:31  5-MIN KSTC 200320Z AUTO 34003KT 7SM OVC004 04/04 A2982 1120 100 100 330/03 RMK AO2
14926KSTC STC20041119212510111/19/04 21:25:31  5-MIN KSTC 200325Z AUTO 34003KT 7SM OVC004 04/04 A2982 1120 100 100 330/03 RMK AO2
14926KSTC STC20041119213011311/19/04 21:30:31  5-MIN KSTC 200330Z AUTO 32004KT 7SM OVC004 04/04 A2982 1120 100 100 320/04 RMK AO2 CIG 003V006
14926KSTC STC20041119213511311/19/04 21:35:31  5-MIN KSTC 200335Z AUTO 33004KT 7SM OVC004 04/04 A2982 1120 100 100 330/04 RMK AO2 CIG 003V006
14926KSTC STC20041119214010111/19/04 21:40:31  5-MIN KSTC 200340Z AUTO 33003KT 7SM OVC004 04/04 A2981 1120 100 100 320/03 RMK AO2
14926KSTC STC20041119214510111/19/04 21:45:31  5-MIN KSTC 200345Z AUTO 32003KT 7SM OVC004 04/04 A2981 1120 100 100 320/03 RMK AO2
14926KSTC STC20041119215011811/19/04 21:50:31  5-MIN KSTC 200350Z AUTO 32005KT 7SM OVC004 04/04 A2981 1120 100 100 310/05 RMK AO2 SLP114 T00390039
14926KSTC STC20041119215510411/19/04 21:55:31  5-MIN KSTC 200355Z AUTO 32005KT 6SM BR OVC004 04/04 A2981 1120 100 100 320/05 RMK AO2
14926KSTC STC20041119220010411/19/04 22:00:31  5-MIN KSTC 200400Z AUTO 32005KT 6SM BR OVC004 04/04 A2982 1120 100 100 320/05 RMK AO2
14926KSTC STC20041119220510411/19/04 22:05:31  5-MIN KSTC 200405Z AUTO 33004KT 6SM BR OVC004 04/04 A2981 1130 100 100 320/04 RMK AO2
14926KSTC STC20041119221010111/19/04 22:10:31  5-MIN KSTC 200410Z AUTO 33004KT 7SM OVC004 04/04 A2981 1130 100 100 320/04 RMK AO2
14926KSTC STC20041119221510111/19/04 22:15:31  5-MIN KSTC 200415Z AUTO 33003KT 7SM OVC004 04/04 A2981 1130 100 100 320/03 RMK AO2
14926KSTC STC20041119222010111/19/04 22:20:31  5-MIN KSTC 200420Z AUTO 32004KT 7SM OVC004 04/04 A2981 1120 100 100 320/04 RMK AO2
14926KSTC STC20041119222510111/19/04 22:25:31  5-MIN KSTC 200425Z AUTO 32004KT 7SM OVC004 04/04 A2981 1120 100 100 320/04 RMK AO2
14926KSTC STC20041119223010111/19/04 22:30:31  5-MIN KSTC 200430Z AUTO 31004KT 7SM OVC004 04/04 A2982 1120 100 100 310/04 RMK AO2
14926KSTC STC20041119223510111/19/04 22:35:31  5-MIN KSTC 200435Z AUTO 31005KT 7SM OVC004 04/04 A2982 1120 100 100 310/05 RMK AO2
14926KSTC STC20041119224010111/19/04 22:40:31  5-MIN KSTC 200440Z AUTO 31005KT 7SM OVC004 04/04 A2982 1120 100 100 310/05 RMK AO2
14926KSTC STC20041119224510111/19/04 22:45:31  5-MIN KSTC 200445Z AUTO 32005KT 7SM OVC004 04/04 A2982 1120 100 100 310/05 RMK AO2
14926KSTC STC20041119225011811/19/04 22:50:31  5-MIN KSTC 200450Z AUTO 32005KT 7SM OVC004 04/04 A2982 1120 100 100 310/05 RMK AO2 SLP114 T00390039
14926KSTC STC20041119225510111/19/04 22:55:31  5-MIN KSTC 200455Z AUTO 32005KT 7SM OVC004 04/04 A2982 1120 100 100 310/05 RMK AO2
14926KSTC STC20041119230010411/19/04 23:00:31  5-MIN KSTC 200500Z AUTO 31006KT 6SM BR OVC004 04/04 A2982 1120 100 100 310/06 RMK AO2
14926KSTC STC20041119230510411/19/04 23:05:31  5-MIN KSTC 200505Z AUTO 32006KT 6SM BR OVC004 04/04 A2982 1120 100 100 310/06 RMK AO2
14926KSTC STC20041119231010411/19/04 23:10:31  5-MIN KSTC 200510Z AUTO 32005KT 5SM BR OVC004 04/04 A2982 1120 100 100 320/05 RMK AO2
14926KSTC STC20041119231512011/19/04 23:15:31  5-MIN KSTC 200515Z AUTO 32005KT 5SM -RA BR OVC004 04/04 A2982 1120 100 100 310/05 RMK AO2 RAB13 P0000
14926KSTC STC20041119232012011/19/04 23:20:31  5-MIN KSTC 200520Z AUTO 31005KT 5SM -RA BR OVC004 04/04 A2982 1120 100 100 310/05 RMK AO2 RAB13 P0000
14926KSTC STC20041119232512011/19/04 23:25:31  5-MIN KSTC 200525Z AUTO 31007KT 5SM -RA BR OVC004 04/04 A2982 1120 100 100 300/07 RMK AO2 RAB13 P0000
14926KSTC STC20041119233012011/19/04 23:30:31  5-MIN KSTC 200530Z AUTO 31007KT 5SM -RA BR OVC004 04/04 A2982 1120 100 100 300/07 RMK AO2 RAB13 P0000
14926KSTC STC20041119233512011/19/04 23:35:31  5-MIN KSTC 200535Z AUTO 31006KT 5SM -RA BR OVC004 04/04 A2982 1120 100 100 310/06 RMK AO2 RAB13 P0000
14926KSTC STC20041119234011911/19/04 23:40:31  5-MIN KSTC 200540Z AUTO 31006KT 6SM BR OVC004 04/04 A2982 1120 100 100 310/06 RMK AO2 RAB13E37 P0000
14926KSTC STC20041119234511911/19/04 23:45:31  5-MIN KSTC 200545Z AUTO 31006KT 6SM BR OVC004 04/04 A2982 1110 100 100 300/06 RMK AO2 RAB13E37 P0000
14926KSTC STC20041119235017111/19/04 23:50:31  5-MIN KSTC 200550Z AUTO 31008KT 6SM -RA BR OVC004 04/04 A2983 1110 100 100 300/08 RMK AO2 RAB13 SLP117 P0000 60007 T00390039 10039 20039 400440022 57010
14926KSTC STC20041119235511411/19/04 23:55:31  5-MIN KSTC 200555Z AUTO 31008KT 6SM -RA BR OVC004 04/04 A2983 1110 100 100 310/08 RMK AO2 P0000
14926KSTC STC20041120000011811/20/04 00:00:32  5-MIN KSTC 200600Z AUTO 31007KT 6SM BR OVC004 04/04 A2982 1110 100 100 300/07 RMK AO2 RAE0557 P0000
14926KSTC STC20041120000511811/20/04 00:05:31  5-MIN KSTC 200605Z AUTO 31007KT 6SM BR OVC004 04/04 A2983 1110 100 100 310/07 RMK AO2 RAE0557 P0000
14926KSTC STC20041120001011811/20/04 00:10:31  5-MIN KSTC 200610Z AUTO 30007KT 6SM BR OVC004 04/04 A2983 1110 100 100 300/07 RMK AO2 RAE0557 P0000
14926KSTC STC20041120001511811/20/04 00:15:31  5-MIN KSTC 200615Z AUTO 30006KT 5SM BR OVC004 04/04 A2983 1110 100 100 300/06 RMK AO2 RAE0557 P0000
14926KSTC STC20041120002011811/20/04 00:20:31  5-MIN KSTC 200620Z AUTO 30008KT 5SM BR OVC004 04/04 A2982 1120 100 100 300/08 RMK AO2 RAE0557 P0000
14926KSTC STC20041120002511811/20/04 00:25:31  5-MIN KSTC 200625Z AUTO 30008KT 4SM BR OVC004 04/04 A2983 1110 100 100 290/08 RMK AO2 RAE0557 P0000
14926KSTC STC20041120003011811/20/04 00:30:31  5-MIN KSTC 200630Z AUTO 30009KT 4SM BR OVC004 04/04 A2983 1110 100 100 300/09 RMK AO2 RAE0557 P0000
14926KSTC STC20041120003513011/20/04 00:35:31  5-MIN KSTC 200635Z AUTO 30007KT 5SM BR OVC004 04/04 A2982 1120 100 100 300/07 RMK AO2 RAE0557 CIG 002V007 P0000
14926KSTC STC20041120004012911/20/04 00:40:31  5-MIN KSTC 200640Z AUTO 31008KT 5SM BR OVC004 04/03 A2982 1120 96 100 300/08 RMK AO2 RAE0557 CIG 002V007 P0000
14926KSTC STC20041120004513611/20/04 00:45:31  5-MIN KSTC 200645Z AUTO 31008KT 6SM BR BKN004 OVC011 04/03 A2982 1120 96 100 300/08 RMK AO2 RAE0557 CIG 002V007 P0000
14926KSTC STC20041120005015311/20/04 00:50:31  5-MIN KSTC 200650Z AUTO 30008KT 6SM BR BKN004 OVC011 04/03 A2982 1120 96 100 300/08 RMK AO2 RAE0557 CIG 003V007 SLP117 P0000 T00390033
14926KSTC STC20041120005512211/20/04 00:55:31  5-MIN KSTC 200655Z AUTO 30007KT 6SM BR BKN004 OVC011 04/03 A2982 1120 96 100 300/07 RMK AO2 CIG 003V007
14926KSTC STC20041120010012211/20/04 01:00:31  5-MIN KSTC 200700Z AUTO 31007KT 6SM BR BKN006 OVC011 04/03 A2982 1120 96 100 300/07 RMK AO2 CIG 003V009
14926KSTC STC20041120010511511/20/04 01:05:31  5-MIN KSTC 200705Z AUTO 30007KT 6SM BR OVC006 04/03 A2982 1120 96 100 300/07 RMK AO2 CIG 003V010
14926KSTC STC20041120011011211/20/04 01:10:31  5-MIN KSTC 200710Z AUTO 30011KT 7SM OVC006 04/03 A2982 1120 96 100 300/11 RMK AO2 CIG 004V011
14926KSTC STC20041120011511211/20/04 01:15:31  5-MIN KSTC 200715Z AUTO 31008KT 7SM OVC006 04/03 A2983 1110 96 100 300/08 RMK AO2 CIG 005V009
14926KSTC STC20041120012011211/20/04 01:20:31  5-MIN KSTC 200720Z AUTO 31009KT 7SM OVC008 04/03 A2983 1110 96 100 310/09 RMK AO2 CIG 005V012
14926KSTC STC20041120012511211/20/04 01:25:31  5-MIN KSTC 200725Z AUTO 31012KT 7SM OVC008 04/03 A2983 1110 96 100 300/12 RMK AO2 CIG 005V011
14926KSTC STC20041120013011911/20/04 01:30:31  5-MIN KSTC 200730Z AUTO 31009KT 8SM BKN008 OVC011 04/03 A2983 1110 96 100 310/09 RMK AO2 CIG 005V009
14926KSTC STC20041120013511211/20/04 01:35:31  5-MIN KSTC 200735Z AUTO 31011KT 8SM OVC008 04/03 A2983 1110 96 100 310/11 RMK AO2 CIG 006V011
14926KSTC STC20041120014011811/20/04 01:40:31  5-MIN KSTC 200740Z AUTO 32010KT 9SM BKN008 OVC025 03/03 A2982 1120 100 0 310/10 RMK AO2 CIG 006V011
14926KSTC STC20041120014511811/20/04 01:45:31  5-MIN KSTC 200745Z AUTO 31008KT 10SM BKN008 BKN025 03/03 A2983 1110 96 0 310/08 RMK AO2 CIG 006V013
14926KSTC STC20041120015013511/20/04 01:50:31  5-MIN KSTC 200750Z AUTO 31011KT 10SM BKN008 BKN025 03/03 A2983 1110 96 0 310/11 RMK AO2 CIG 007V013 SLP120 T00330028
14926KSTC STC20041120015510611/20/04 01:55:31  5-MIN KSTC 200755Z AUTO 31011KT 10SM BKN010 OVC025 03/03 A2983 1110 96 0 300/11 RMK AO2
14926KSTC STC20041120020010611/20/04 02:00:31  5-MIN KSTC 200800Z AUTO 30012KT 10SM BKN010 OVC025 03/03 A2984 1100 96 0 300/12 RMK AO2
14926KSTC STC20041120020510611/20/04 02:05:31  5-MIN KSTC 200805Z AUTO 30012KT 10SM BKN010 OVC025 03/03 A2984 1100 96 0 300/12 RMK AO2
14926KSTC STC20041120021011211/20/04 02:10:31  5-MIN KSTC 200810Z AUTO 31012KT 10SM BKN010 OVC025 03/03 A2984 1100 96 0 300/12 RMK AO2 P0001
14926KSTC STC20041120021511211/20/04 02:15:31  5-MIN KSTC 200815Z AUTO 31012KT 10SM BKN010 OVC025 03/03 A2985 1100 96 0 300/12 RMK AO2 P0001
14926KSTC STC20041120022012411/20/04 02:20:31  5-MIN KSTC 200820Z AUTO 31012KT 10SM BKN010 OVC025 03/03 A2985 1090 96 0 310/12 RMK AO2 CIG 008V014 P0001
14926KSTC STC20041120022512411/20/04 02:25:31  5-MIN KSTC 200825Z AUTO 31011KT 10SM BKN010 OVC026 03/03 A2985 1090 96 0 310/11 RMK AO2 CIG 008V013 P0001
14926KSTC STC20041120023011711/20/04 02:30:31  5-MIN KSTC 200830Z AUTO 30010KT 10SM OVC010 03/03 A2985 1090 96 0 300/10 RMK AO2 CIG 007V013 P0001
14926KSTC STC20041120023511711/20/04 02:35:31  5-MIN KSTC 200835Z AUTO 31011KT 10SM OVC010 03/03 A2985 1090 96 0 310/11 RMK AO2 CIG 007V013 P0001
14926KSTC STC20041120024011711/20/04 02:40:31  5-MIN KSTC 200840Z AUTO 31010KT 10SM OVC010 03/03 A2986 1090 96 0 310/10 RMK AO2 CIG 007V013 P0001
14926KSTC STC20041120024511711/20/04 02:45:31  5-MIN KSTC 200845Z AUTO 30010KT 10SM OVC010 03/03 A2986 1090 96 0 300/10 RMK AO2 CIG 007V013 P0001
14926KSTC STC20041120025014611/20/04 02:50:31  5-MIN KSTC 200850Z AUTO 31012KT 10SM OVC010 03/03 A2986 1080 96 0 310/12 RMK AO2 CIG 007V013 SLP128 P0001 60001 T00330028 53002
14926KSTC STC20041120025511111/20/04 02:55:31  5-MIN KSTC 200855Z AUTO 31012KT 10SM OVC010 03/03 A2986 1080 96 0 310/12 RMK AO2 CIG 007V013
14926KSTC STC20041120030011111/20/04 03:00:31  5-MIN KSTC 200900Z AUTO 31013KT 10SM OVC010 03/03 A2986 1080 96 0 310/13 RMK AO2 CIG 007V013
14926KSTC STC20041120030509911/20/04 03:05:31  5-MIN KSTC 200905Z AUTO 32011KT 10SM OVC010 03/03 A2986 1080 96 0 320/11 RMK AO2
14926KSTC STC20041120031009911/20/04 03:10:31  5-MIN KSTC 200910Z AUTO 32012KT 10SM OVC010 03/02 A2986 1080 92 0 310/12 RMK AO2
14926KSTC STC20041120031509911/20/04 03:15:31  5-MIN KSTC 200915Z AUTO 31010KT 10SM OVC010 03/03 A2986 1080 96 0 310/10 RMK AO2
14926KSTC STC20041120032009911/20/04 03:20:31  5-MIN KSTC 200920Z AUTO 31010KT 10SM OVC010 03/03 A2986 1080 96 0 310/10 RMK AO2
14926KSTC STC20041120032509911/20/04 03:25:31  5-MIN KSTC 200925Z AUTO 31010KT 10SM OVC008 03/03 A2987 1080 96 0 310/10 RMK AO2
14926KSTC STC20041120033009811/20/04 03:30:31  5-MIN KSTC 200930Z AUTO 31011KT 9SM OVC008 03/03 A2987 1080 96 0 310/11 RMK AO2
14926KSTC STC20041120033509811/20/04 03:35:31  5-MIN KSTC 200935Z AUTO 31011KT 9SM OVC008 03/03 A2987 1070 96 0 310/11 RMK AO2
14926KSTC STC20041120034009811/20/04 03:40:31  5-MIN KSTC 200940Z AUTO 31011KT 9SM OVC008 03/02 A2987 1070 92 0 310/11 RMK AO2
14926KSTC STC20041120034509811/20/04 03:45:31  5-MIN KSTC 200945Z AUTO 30011KT 9SM OVC008 03/02 A2987 1070 92 0 300/11 RMK AO2
14926KSTC STC20041120035011511/20/04 03:50:31  5-MIN KSTC 200950Z AUTO 31012KT 9SM OVC008 03/02 A2987 1070 92 0 310/12 RMK AO2 SLP133 T00330022
14926KSTC STC20041120035509811/20/04 03:55:31  5-MIN KSTC 200955Z AUTO 31010KT 9SM OVC008 03/02 A2987 1070 92 0 310/10 RMK AO2
14926KSTC STC20041120040010111/20/04 04:00:31  5-MIN KSTC 201000Z AUTO 31010KT 9SM OVC008 03/02 A2987 1070 96 -100 310/10 RMK AO2
14926KSTC STC20041120040510811/20/04 04:05:31  5-MIN KSTC 201005Z AUTO 32011KT 9SM BKN008 OVC013 03/02 A2987 1070 96 -100 310/11 RMK AO2
14926KSTC STC20041120041012111/20/04 04:10:31  5-MIN KSTC 201010Z AUTO 31009KT 9SM BKN010 OVC024 03/03 A2987 1070 100 -100 310/09 RMK AO2 CIG 008V014
14926KSTC STC20041120041510911/20/04 04:15:31  5-MIN KSTC 201015Z AUTO 31008KT 8SM BKN010 OVC024 03/03 A2987 1070 100 -100 300/08 RMK AO2
14926KSTC STC20041120042010911/20/04 04:20:31  5-MIN KSTC 201020Z AUTO 31007KT 8SM BKN010 OVC024 03/03 A2988 1070 100 -100 300/07 RMK AO2
14926KSTC STC20041120042512811/20/04 04:25:31  5-MIN KSTC 201025Z AUTO 31005KT 8SM BKN010 BKN013 OVC024 03/03 A2988 1070 100 -100 300/05 RMK AO2 CIG 007V011
14926KSTC STC20041120043011711/20/04 04:30:31  5-MIN KSTC 201030Z AUTO 31006KT 7SM BKN010 OVC024 03/03 A2988 1070 96 0 300/06 RMK AO2 CIG 007V013
14926KSTC STC20041120043511011/20/04 04:35:31  5-MIN KSTC 201035Z AUTO 30008KT 8SM OVC010 03/03 A2988 1060 96 0 300/08 RMK AO2 CIG 007V013
14926KSTC STC20041120044011011/20/04 04:40:31  5-MIN KSTC 201040Z AUTO 31009KT 9SM OVC010 03/03 A2988 1060 96 0 300/09 RMK AO2 CIG 007V013
14926KSTC STC20041120044509811/20/04 04:45:31  5-MIN KSTC 201045Z AUTO 30008KT 9SM OVC008 03/03 A2988 1060 96 0 300/08 RMK AO2
14926KSTC STC20041120045011511/20/04 04:50:31  5-MIN KSTC 201050Z AUTO 30008KT 9SM OVC008 03/03 A2988 1060 96 0 300/08 RMK AO2 SLP137 T00330028
14926KSTC STC20041120045509811/20/04 04:55:31  5-MIN KSTC 201055Z AUTO 30009KT 8SM OVC008 03/03 A2988 1060 96 0 300/09 RMK AO2
14926KSTC STC20041120050009811/20/04 05:00:31  5-MIN KSTC 201100Z AUTO 30009KT 8SM OVC008 03/03 A2988 1060 96 0 300/09 RMK AO2
14926KSTC STC20041120050511011/20/04 05:05:31  5-MIN KSTC 201105Z AUTO 31009KT 7SM OVC008 03/03 A2988 1060 96 0 300/09 RMK AO2 CIG 006V010
14926KSTC STC20041120051009811/20/04 05:10:31  5-MIN KSTC 201110Z AUTO 31009KT 7SM OVC008 03/03 A2988 1060 96 0 300/09 RMK AO2
14926KSTC STC20041120051509811/20/04 05:15:31  5-MIN KSTC 201115Z AUTO 31008KT 7SM OVC008 03/03 A2989 1060 96 0 310/08 RMK AO2
14926KSTC STC20041120052009811/20/04 05:20:31  5-MIN KSTC 201120Z AUTO 30010KT 7SM OVC008 03/03 A2989 1050 96 0 300/10 RMK AO2
14926KSTC STC20041120052509811/20/04 05:25:31  5-MIN KSTC 201125Z AUTO 30008KT 7SM OVC008 03/03 A2989 1050 96 0 300/08 RMK AO2
14926KSTC STC20041120053009811/20/04 05:30:31  5-MIN KSTC 201130Z AUTO 30009KT 7SM OVC008 03/03 A2989 1050 96 0 300/09 RMK AO2
14926KSTC STC20041120053509811/20/04 05:35:31  5-MIN KSTC 201135Z AUTO 30010KT 7SM OVC008 03/03 A2989 1050 96 0 290/10 RMK AO2
14926KSTC STC20041120054009811/20/04 05:40:31  5-MIN KSTC 201140Z AUTO 30011KT 7SM OVC008 03/03 A2990 1050 96 0 300/11 RMK AO2
14926KSTC STC20041120054509811/20/04 05:45:31  5-MIN KSTC 201145Z AUTO 30010KT 7SM OVC008 03/03 A2990 1050 96 0 290/10 RMK AO2
14926KSTC STC20041120055014511/20/04 05:50:31  5-MIN KSTC 201150Z AUTO 29010KT 7SM OVC008 03/03 A2990 1050 96 0 290/10 RMK AO2 SLP142 60001 70037 T00330028 10039 20028 53010
14926KSTC STC20041120055511011/20/04 05:55:31  5-MIN KSTC 201155Z AUTO 30010KT 7SM OVC008 03/03 A2990 1040 96 0 290/10 RMK AO2 CIG 007V011
14926KSTC STC20041120060009811/20/04 06:00:31  5-MIN KSTC 201200Z AUTO 30012KT 8SM OVC008 03/03 A2990 1040 96 0 300/12 RMK AO2
14926KSTC STC20041120060509811/20/04 06:05:31  5-MIN KSTC 201205Z AUTO 30010KT 8SM OVC008 03/03 A2991 1040 96 0 300/10 RMK AO2
14926KSTC STC20041120061009811/20/04 06:10:31  5-MIN KSTC 201210Z AUTO 30013KT 8SM OVC008 03/03 A2991 1040 96 0 300/13 RMK AO2
14926KSTC STC20041120061509811/20/04 06:15:31  5-MIN KSTC 201215Z AUTO 30012KT 8SM OVC008 03/03 A2991 1030 96 0 290/12 RMK AO2
14926KSTC STC20041120062009811/20/04 06:20:31  5-MIN KSTC 201220Z AUTO 30010KT 8SM OVC008 03/03 A2991 1030 96 0 300/10 RMK AO2
14926KSTC STC20041120062509811/20/04 06:25:31  5-MIN KSTC 201225Z AUTO 30011KT 8SM OVC008 03/03 A2991 1030 96 0 300/11 RMK AO2
14926KSTC STC20041120063009811/20/04 06:30:31  5-MIN KSTC 201230Z AUTO 30013KT 8SM OVC008 03/03 A2992 1030 96 0 300/13 RMK AO2
14926KSTC STC20041120063511311/20/04 06:35:31  5-MIN KSTC 201235Z AUTO 30015KT 8SM OVC008 03/02 A2992 1030 92 -100 300/15 RMK AO2 CIG 008V012
14926KSTC STC20041120064011311/20/04 06:40:31  5-MIN KSTC 201240Z AUTO 30012KT 8SM OVC010 03/02 A2992 1030 92 -100 300/12 RMK AO2 CIG 008V014
14926KSTC STC20041120064511311/20/04 06:45:31  5-MIN KSTC 201245Z AUTO 30013KT 7SM OVC010 03/02 A2992 1020 92 -100 300/13 RMK AO2 CIG 008V016
14926KSTC STC20041120065013711/20/04 06:50:31  5-MIN KSTC 201250Z AUTO 30013KT 7SM BKN010 OVC014 03/02 A2993 1020 92 -100 300/13 RMK AO2 CIG 008V012 SLP151 T00330022
14926KSTC STC20041120065512011/20/04 06:55:31  5-MIN KSTC 201255Z AUTO 31013KT 7SM BKN010 OVC014 03/02 A2993 1020 92 -100 300/13 RMK AO2 CIG 008V012
14926KSTC STC20041120070010711/20/04 07:00:31  5-MIN KSTC 201300Z AUTO 31016G20KT 8SM OVC012 03/02 A2993 1020 89 -100 310/16G20 RMK AO2
14926KSTC STC20041120070512211/20/04 07:05:31  5-MIN KSTC 201305Z AUTO 30014G20KT 10SM SCT010 BKN015 OVC022 03/02 A2993 1010 89 -100 300/14G20 RMK AO2
14926KSTC STC20041120071012211/20/04 07:10:31  5-MIN KSTC 201310Z AUTO 31019G23KT 10SM FEW010 BKN015 OVC022 03/01 A2994 1010 89 -100 310/19G23 RMK AO2
14926KSTC STC20041120071514011/20/04 07:15:31  5-MIN KSTC 201315Z AUTO 31021G26KT 10SM FEW010 SCT015 OVC020 03/01 A2994 1010 85 -100 310/21G26 RMK AO2 PK WND 31026/1315
14926KSTC STC20041120072013311/20/04 07:20:31  5-MIN KSTC 201320Z AUTO 31019G26KT 10SM FEW013 OVC020 03/00 A2995 1000 82 -100 300/19G26 RMK AO2 PK WND 31027/1316
14926KSTC STC20041120072512711/20/04 07:25:31  5-MIN KSTC 201325Z AUTO 30017KT 10SM FEW014 OVC020 03/01 A2995 1000 85 -100 300/17 RMK AO2 PK WND 31027/1316
14926KSTC STC20041120073012611/20/04 07:30:31  5-MIN KSTC 201330Z AUTO 31014G22KT 10SM OVC020 03/01 A2995 1000 85 -200 300/14G22 RMK AO2 PK WND 31027/1316
14926KSTC STC20041120073511911/20/04 07:35:31  5-MIN KSTC 201335Z AUTO 31016KT 10SM OVC020 03/01 A2996 990 85 -200 310/16 RMK AO2 PK WND 31027/1316
14926KSTC STC20041120074011911/20/04 07:40:31  5-MIN KSTC 201340Z AUTO 31014KT 10SM OVC018 03/01 A2996 990 85 -200 310/14 RMK AO2 PK WND 31027/1316
14926KSTC STC20041120074511911/20/04 07:45:31  5-MIN KSTC 201345Z AUTO 31013KT 10SM OVC018 03/01 A2996 990 85 -200 310/13 RMK AO2 PK WND 31027/1316
14926KSTC STC20041120075013611/20/04 07:50:31  5-MIN KSTC 201350Z AUTO 32011KT 10SM OVC018 03/01 A2997 980 85 -200 320/11 RMK AO2 PK WND 31027/1316 SLP165 T00280006
14926KSTC STC20041120075510111/20/04 07:55:31  5-MIN KSTC 201355Z AUTO 32013KT 10SM OVC018 03/01 A2997 980 85 -200 320/13 RMK AO2
14926KSTC STC20041120080010711/20/04 08:00:31  5-MIN KSTC 201400Z AUTO 32013G19KT 10SM OVC018 03/01 A2997 980 85 -200 310/13G19 RMK AO2
14926KSTC STC20041120080510711/20/04 08:05:31  5-MIN KSTC 201405Z AUTO 32011G19KT 10SM OVC018 03/01 A2998 970 85 -200 310/11G19 RMK AO2
14926KSTC STC20041120081010111/20/04 08:10:31  5-MIN KSTC 201410Z AUTO 32013KT 10SM OVC018 03/01 A2998 970 85 -200 310/13 RMK AO2
14926KSTC STC20041120081510111/20/04 08:15:31  5-MIN KSTC 201415Z AUTO 31010KT 10SM OVC018 03/01 A2999 970 85 -200 310/10 RMK AO2
14926KSTC STC20041120082010111/20/04 08:20:31  5-MIN KSTC 201420Z AUTO 31013KT 10SM OVC016 03/01 A2999 960 85 -200 310/13 RMK AO2
14926KSTC STC20041120082510111/20/04 08:25:31  5-MIN KSTC 201425Z AUTO 32012KT 10SM OVC016 03/01 A2999 960 85 -200 310/12 RMK AO2
14926KSTC STC20041120083010111/20/04 08:30:31  5-MIN KSTC 201430Z AUTO 32014KT 10SM OVC016 03/01 A2999 960 85 -200 320/14 RMK AO2
14926KSTC STC20041120083510111/20/04 08:35:31  5-MIN KSTC 201435Z AUTO 31013KT 10SM OVC016 03/01 A3000 960 85 -200 310/13 RMK AO2
14926KSTC STC20041120084010111/20/04 08:40:31  5-MIN KSTC 201440Z AUTO 31011KT 10SM OVC016 03/01 A3000 950 89 -200 310/11 RMK AO2
14926KSTC STC20041120084510111/20/04 08:45:31  5-MIN KSTC 201445Z AUTO 31009KT 10SM OVC016 03/01 A3000 950 89 -200 300/09 RMK AO2
14926KSTC STC20041120085012411/20/04 08:50:31  5-MIN KSTC 201450Z AUTO 31011KT 10SM OVC016 03/01 A3000 950 89 -200 310/11 RMK AO2 SLP178 T00280011 52015
14926KSTC STC20041120085510111/20/04 08:55:31  5-MIN KSTC 201455Z AUTO 30012KT 10SM OVC016 03/01 A3001 950 85 -200 300/12 RMK AO2
14926KSTC STC20041120090010111/20/04 09:00:31  5-MIN KSTC 201500Z AUTO 31011KT 10SM OVC016 03/01 A3001 950 85 -200 300/11 RMK AO2
14926KSTC STC20041120090510711/20/04 09:05:31  5-MIN KSTC 201505Z AUTO 32013G20KT 10SM OVC014 03/01 A3001 940 85 -200 310/13G20 RMK AO2
14926KSTC STC20041120091010711/20/04 09:10:31  5-MIN KSTC 201510Z AUTO 31017G20KT 10SM OVC014 03/01 A3001 940 85 -200 310/17G20 RMK AO2
14926KSTC STC20041120091510111/20/04 09:15:31  5-MIN KSTC 201515Z AUTO 33013KT 10SM OVC014 02/01 A3001 940 89 -300 320/13 RMK AO2
14926KSTC STC20041120092010211/20/04 09:20:31  5-MIN KSTC 201520Z AUTO 32015KT 10SM OVC016 02/M01 A3001 940 82 -300 320/15 RMK AO2
14926KSTC STC20041120092511511/20/04 09:25:31  5-MIN KSTC 201525Z AUTO 31016G20KT 10SM BKN016 OVC023 02/M01 A3002 940 82 -300 310/16G20 RMK AO2
14926KSTC STC20041120093010911/20/04 09:30:31  5-MIN KSTC 201530Z AUTO 31015KT 10SM BKN016 OVC025 02/M01 A3002 940 82 -300 310/15 RMK AO2
14926KSTC STC20041120093510911/20/04 09:35:31  5-MIN KSTC 201535Z AUTO 32014KT 10SM SCT016 OVC027 02/M01 A3002 930 82 -300 310/14 RMK AO2
14926KSTC STC20041120094011511/20/04 09:40:31  5-MIN KSTC 201540Z AUTO 31012G20KT 10SM FEW016 OVC028 03/M01 A3002 930 75 -200 310/12G20 RMK AO2
14926KSTC STC20041120094511511/20/04 09:45:31  5-MIN KSTC 201545Z AUTO 31014G20KT 10SM FEW016 OVC028 03/M01 A3003 930 75 -200 310/14G20 RMK AO2
14926KSTC STC20041120095011911/20/04 09:50:31  5-MIN KSTC 201550Z AUTO 30014KT 10SM OVC028 03/M01 A3003 930 79 -200 300/14 RMK AO2 SLP186 T00281006
14926KSTC STC20041120095510211/20/04 09:55:31  5-MIN KSTC 201555Z AUTO 30017KT 10SM OVC028 03/M01 A3003 930 75 -200 300/17 RMK AO2
14926KSTC STC20041120100010211/20/04 10:00:31  5-MIN KSTC 201600Z AUTO 31015KT 10SM OVC030 03/M02 A3003 930 72 -200 310/15 RMK AO2
14926KSTC STC20041120100510211/20/04 10:05:31  5-MIN KSTC 201605Z AUTO 31015KT 10SM OVC030 03/M01 A3003 930 75 -200 310/15 RMK AO2
14926KSTC STC20041120101010211/20/04 10:10:31  5-MIN KSTC 201610Z AUTO 31017KT 10SM OVC030 03/M01 A3003 920 75 -200 310/17 RMK AO2
14926KSTC STC20041120101510211/20/04 10:15:31  5-MIN KSTC 201615Z AUTO 31015KT 10SM OVC030 03/M01 A3004 920 75 -300 300/15 RMK AO2
14926KSTC STC20041120102010911/20/04 10:20:31  5-MIN KSTC 201620Z AUTO 30016KT 10SM FEW025 OVC030 03/M01 A3004 920 75 -300 300/16 RMK AO2
14926KSTC STC20041120102511511/20/04 10:25:31  5-MIN KSTC 201625Z AUTO 31017G20KT 10SM FEW025 OVC030 03/M01 A3004 920 79 -300 300/17G20 RMK AO2
14926KSTC STC20041120103010811/20/04 10:30:31  5-MIN KSTC 201630Z AUTO 30012G20KT 10SM OVC030 03/M01 A3004 920 79 -300 300/12G20 RMK AO2
14926KSTC STC20041120103510911/20/04 10:35:31  5-MIN KSTC 201635Z AUTO 31015KT 10SM BKN030 OVC035 03/M01 A3004 920 79 -300 310/15 RMK AO2
14926KSTC STC20041120104010911/20/04 10:40:31  5-MIN KSTC 201640Z AUTO 30013KT 10SM SCT027 OVC033 03/M01 A3004 910 75 -300 300/13 RMK AO2
14926KSTC STC20041120104511511/20/04 10:45:31  5-MIN KSTC 201645Z AUTO 29012G21KT 10SM SCT028 OVC035 03/M01 A3004 910 75 -300 290/12G21 RMK AO2
14926KSTC STC20041120105013211/20/04 10:50:31  5-MIN KSTC 201650Z AUTO 30014G21KT 10SM SCT030 BKN035 03/M01 A3004 910 76 -200 290/14G21 RMK AO2 SLP191 T00331006
14926KSTC STC20041120105510911/20/04 10:55:31  5-MIN KSTC 201655Z AUTO 30013KT 10SM SCT030 BKN035 03/M01 A3005 910 72 -200 300/13 RMK AO2
14926KSTC STC20041120110010211/20/04 11:00:31  5-MIN KSTC 201700Z AUTO 31014KT 10SM BKN035 03/M01 A3005 910 72 -200 300/14 RMK AO2
14926KSTC STC20041120110510911/20/04 11:05:31  5-MIN KSTC 201705Z AUTO 30014KT 10SM FEW028 OVC035 03/M01 A3005 910 72 -200 290/14 RMK AO2
14926KSTC STC20041120111010811/20/04 11:10:31  5-MIN KSTC 201710Z AUTO 30012G20KT 10SM BKN033 03/M01 A3005 910 72 -200 300/12G20 RMK AO2
14926KSTC STC20041120111511511/20/04 11:15:31  5-MIN KSTC 201715Z AUTO 31011G20KT 10SM BKN028 OVC035 03/M01 A3005 910 72 -200 300/11G20 RMK AO2
14926KSTC STC20041120112010911/20/04 11:20:31  5-MIN KSTC 201720Z AUTO 30018KT 10SM BKN028 OVC035 03/M02 A3005 910 70 -200 290/18 RMK AO2
14926KSTC STC20041120112510911/20/04 11:25:31  5-MIN KSTC 201725Z AUTO 30015KT 10SM BKN028 OVC035 03/M01 A3005 910 72 -200 300/15 RMK AO2
14926KSTC STC20041120113010911/20/04 11:30:31  5-MIN KSTC 201730Z AUTO 31013KT 10SM SCT028 OVC035 03/M01 A3005 910 72 -200 310/13 RMK AO2
14926KSTC STC20041120113510911/20/04 11:35:31  5-MIN KSTC 201735Z AUTO 30012KT 10SM SCT028 OVC035 03/M01 A3005 900 72 -200 300/12 RMK AO2
14926KSTC STC20041120114011511/20/04 11:40:31  5-MIN KSTC 201740Z AUTO 30013G21KT 10SM BKN028 OVC035 03/M01 A3005 900 72 -200 300/13G21 RMK AO2
14926KSTC STC20041120114511511/20/04 11:45:31  5-MIN KSTC 201745Z AUTO 30014G21KT 10SM BKN028 OVC035 03/M02 A3005 900 70 -200 300/14G21 RMK AO2
14926KSTC STC20041120115013711/20/04 11:50:31  5-MIN KSTC 201750Z AUTO 31012KT 10SM OVC030 03/M01 A3005 900 72 -200 300/12 RMK AO2 SLP195 T00331011 10033 20022 53034
14926KSTC STC20041120115510911/20/04 11:55:31  5-MIN KSTC 201755Z AUTO 31016KT 10SM BKN030 OVC035 03/M01 A3005 900 72 -200 310/16 RMK AO2
14926KSTC STC20041120120010911/20/04 12:00:31  5-MIN KSTC 201800Z AUTO 30014KT 10SM BKN030 OVC034 03/M01 A3006 900 72 -200 300/14 RMK AO2
14926KSTC STC20041120120510811/20/04 12:05:31  5-MIN KSTC 201805Z AUTO 30019G23KT 10SM OVC032 03/M02 A3006 900 70 -200 300/19G23 RMK AO2
14926KSTC STC20041120121010811/20/04 12:10:31  5-MIN KSTC 201810Z AUTO 30014G23KT 10SM OVC032 03/M02 A3006 900 70 -200 300/14G23 RMK AO2
14926KSTC STC20041120121510211/20/04 12:15:31  5-MIN KSTC 201815Z AUTO 30013KT 10SM OVC033 03/M01 A3006 900 72 -200 300/13 RMK AO2
14926KSTC STC20041120122010911/20/04 12:20:31  5-MIN KSTC 201820Z AUTO 30013KT 10SM FEW026 OVC033 03/M01 A3006 900 72 -200 300/13 RMK AO2
14926KSTC STC20041120122510211/20/04 12:25:31  5-MIN KSTC 201825Z AUTO 30014KT 10SM OVC033 03/M01 A3006 900 72 -200 300/14 RMK AO2
14926KSTC STC20041120123010211/20/04 12:30:31  5-MIN KSTC 201830Z AUTO 31013KT 10SM OVC035 03/M01 A3006 900 72 -200 300/13 RMK AO2
14926KSTC STC20041120123510211/20/04 12:35:31  5-MIN KSTC 201835Z AUTO 31014KT 10SM OVC032 03/M02 A3006 890 70 -200 310/14 RMK AO2
14926KSTC STC20041120124010211/20/04 12:40:31  5-MIN KSTC 201840Z AUTO 31016KT 10SM OVC034 03/M02 A3007 890 70 -200 310/16 RMK AO2
14926KSTC STC20041120124510811/20/04 12:45:31  5-MIN KSTC 201845Z AUTO 31018G22KT 10SM OVC034 03/M02 A3007 890 67 -200 310/18G22 RMK AO2
14926KSTC STC20041120125012511/20/04 12:50:31  5-MIN KSTC 201850Z AUTO 31017G22KT 10SM OVC034 03/M02 A3007 890 67 -200 310/17G22 RMK AO2 SLP199 T00331022
14926KSTC STC20041120125510811/20/04 12:55:31  5-MIN KSTC 201855Z AUTO 31016G19KT 10SM OVC034 03/M02 A3007 890 67 -200 310/16G19 RMK AO2
14926KSTC STC20041120130010811/20/04 13:00:31  5-MIN KSTC 201900Z AUTO 31016G19KT 10SM OVC034 03/M02 A3007 890 67 -200 310/16G19 RMK AO2
14926KSTC STC20041120130510211/20/04 13:05:31  5-MIN KSTC 201905Z AUTO 32015KT 10SM OVC034 03/M02 A3007 890 67 -200 310/15 RMK AO2
14926KSTC STC20041120131010211/20/04 13:10:31  5-MIN KSTC 201910Z AUTO 31011KT 10SM OVC036 03/M03 A3007 880 64 -200 310/11 RMK AO2
14926KSTC STC20041120131510211/20/04 13:15:31  5-MIN KSTC 201915Z AUTO 31017KT 10SM OVC036 03/M03 A3008 880 64 -200 310/17 RMK AO2
14926KSTC STC20041120132010211/20/04 13:20:31  5-MIN KSTC 201920Z AUTO 31014KT 10SM OVC036 03/M03 A3008 880 64 -200 300/14 RMK AO2
14926KSTC STC20041120132510211/20/04 13:25:31  5-MIN KSTC 201925Z AUTO 30013KT 10SM OVC036 03/M03 A3008 880 64 -200 300/13 RMK AO2
14926KSTC STC20041120133010211/20/04 13:30:31  5-MIN KSTC 201930Z AUTO 30013KT 10SM OVC036 03/M03 A3008 880 64 -200 290/13 RMK AO2
14926KSTC STC20041120133510211/20/04 13:35:31  5-MIN KSTC 201935Z AUTO 30014KT 10SM OVC036 03/M03 A3008 880 64 -200 300/14 RMK AO2
14926KSTC STC20041120134010211/20/04 13:40:31  5-MIN KSTC 201940Z AUTO 30016KT 10SM OVC036 03/M03 A3008 880 64 -200 300/16 RMK AO2
14926KSTC STC20041120134510211/20/04 13:45:31  5-MIN KSTC 201945Z AUTO 30014KT 10SM OVC036 03/M02 A3008 880 67 -200 290/14 RMK AO2
14926KSTC STC20041120135011911/20/04 13:50:31  5-MIN KSTC 201950Z AUTO 30014KT 10SM OVC036 03/M02 A3008 870 67 -200 290/14 RMK AO2 SLP206 T00331022
14926KSTC STC20041120135510211/20/04 13:55:31  5-MIN KSTC 201955Z AUTO 28013KT 10SM OVC034 03/M02 A3009 870 67 -200 280/13 RMK AO2
14926KSTC STC20041120140010211/20/04 14:00:31  5-MIN KSTC 202000Z AUTO 29012KT 10SM OVC034 03/M02 A3008 870 70 -200 290/12 RMK AO2
14926KSTC STC20041120140510911/20/04 14:05:31  5-MIN KSTC 202005Z AUTO 29012KT 10SM FEW028 OVC034 03/M02 A3009 870 70 -200 290/12 RMK AO2
14926KSTC STC20041120141010811/20/04 14:10:31  5-MIN KSTC 202010Z AUTO 30016G19KT 10SM OVC032 03/M02 A3009 870 70 -200 300/16G19 RMK AO2
14926KSTC STC20041120141510211/20/04 14:15:31  5-MIN KSTC 202015Z AUTO 30011KT 10SM OVC032 03/M02 A3009 870 70 -200 290/11 RMK AO2
14926KSTC STC20041120142010211/20/04 14:20:31  5-MIN KSTC 202020Z AUTO 30011KT 10SM OVC034 03/M02 A3009 870 70 -200 300/11 RMK AO2
14926KSTC STC20041120142511511/20/04 14:25:31  5-MIN KSTC 202025Z AUTO 30012G18KT 10SM FEW029 OVC034 03/M02 A3009 870 67 -200 300/12G18 RMK AO2
14926KSTC STC20041120143010211/20/04 14:30:31  5-MIN KSTC 202030Z AUTO 30013KT 10SM OVC034 03/M02 A3009 870 67 -200 300/13 RMK AO2
14926KSTC STC20041120143510211/20/04 14:35:31  5-MIN KSTC 202035Z AUTO 29013KT 10SM OVC034 03/M02 A3009 870 67 -200 290/13 RMK AO2
14926KSTC STC20041120144010211/20/04 14:40:31  5-MIN KSTC 202040Z AUTO 30012KT 10SM OVC036 03/M02 A3010 860 67 -300 290/12 RMK AO2
14926KSTC STC20041120144510211/20/04 14:45:31  5-MIN KSTC 202045Z AUTO 30011KT 10SM OVC036 03/M02 A3010 860 67 -300 290/11 RMK AO2
14926KSTC STC20041120145012511/20/04 14:50:31  5-MIN KSTC 202050Z AUTO 29012KT 10SM OVC036 03/M02 A3010 860 67 -300 290/12 RMK AO2 SLP211 T00331022 51017
14926KSTC STC20041120145510211/20/04 14:55:31  5-MIN KSTC 202055Z AUTO 29012KT 10SM OVC036 03/M02 A3010 860 67 -300 290/12 RMK AO2
14926KSTC STC20041120150010211/20/04 15:00:31  5-MIN KSTC 202100Z AUTO 28011KT 10SM OVC038 03/M02 A3010 860 67 -300 280/11 RMK AO2
14926KSTC STC20041120150510211/20/04 15:05:31  5-MIN KSTC 202105Z AUTO 28014KT 10SM OVC038 03/M02 A3011 850 67 -300 280/14 RMK AO2
14926KSTC STC20041120151010211/20/04 15:10:31  5-MIN KSTC 202110Z AUTO 29010KT 10SM OVC038 03/M02 A3011 850 67 -300 290/10 RMK AO2
14926KSTC STC20041120151510211/20/04 15:15:31  5-MIN KSTC 202115Z AUTO 28009KT 10SM OVC038 03/M02 A3011 850 67 -300 280/09 RMK AO2
14926KSTC STC20041120152010211/20/04 15:20:31  5-MIN KSTC 202120Z AUTO 29010KT 10SM OVC038 04/M02 A3011 850 67 -200 290/10 RMK AO2
14926KSTC STC20041120152510211/20/04 15:25:31  5-MIN KSTC 202125Z AUTO 28011KT 10SM OVC038 04/M02 A3011 850 64 -200 280/11 RMK AO2
14926KSTC STC20041120153010211/20/04 15:30:31  5-MIN KSTC 202130Z AUTO 30010KT 10SM OVC038 03/M02 A3011 850 70 -300 290/10 RMK AO2
14926KSTC STC20041120153510811/20/04 15:35:31  5-MIN KSTC 202135Z AUTO 29013G18KT 10SM OVC038 03/M02 A3012 850 67 -300 280/13G18 RMK AO2
14926KSTC STC20041120154010811/20/04 15:40:31  5-MIN KSTC 202140Z AUTO 29013G20KT 10SM OVC038 03/M02 A3012 840 67 -300 280/13G20 RMK AO2
14926KSTC STC20041120154510811/20/04 15:45:31  5-MIN KSTC 202145Z AUTO 29015G20KT 10SM OVC038 03/M03 A3012 840 64 -300 290/15G20 RMK AO2
14926KSTC STC20041120155012511/20/04 15:50:31  5-MIN KSTC 202150Z AUTO 29015G20KT 10SM OVC038 03/M03 A3012 840 64 -300 290/15G20 RMK AO2 SLP218 T00331028
14926KSTC STC20041120155510811/20/04 15:55:31  5-MIN KSTC 202155Z AUTO 30013G19KT 10SM OVC038 03/M03 A3012 840 64 -300 300/13G19 RMK AO2
14926KSTC STC20041120160010211/20/04 16:00:31  5-MIN KSTC 202200Z AUTO 29016KT 10SM OVC038 03/M03 A3012 840 64 -300 290/16 RMK AO2
14926KSTC STC20041120160510811/20/04 16:05:31  5-MIN KSTC 202205Z AUTO 30015G18KT 10SM OVC038 03/M03 A3013 830 64 -300 300/15G18 RMK AO2
14926KSTC STC20041120161010211/20/04 16:10:31  5-MIN KSTC 202210Z AUTO 30013KT 10SM OVC038 03/M03 A3013 830 64 -300 290/13 RMK AO2
14926KSTC STC20041120161510211/20/04 16:15:31  5-MIN KSTC 202215Z AUTO 29011KT 10SM OVC038 03/M03 A3013 830 64 -300 290/11 RMK AO2
14926KSTC STC20041120162010211/20/04 16:20:31  5-MIN KSTC 202220Z AUTO 28010KT 10SM OVC038 03/M03 A3013 830 64 -300 280/10 RMK AO2
14926KSTC STC20041120162510211/20/04 16:25:31  5-MIN KSTC 202225Z AUTO 29008KT 10SM OVC038 03/M03 A3013 830 64 -300 290/08 RMK AO2
14926KSTC STC20041120163010811/20/04 16:30:31  5-MIN KSTC 202230Z AUTO 29012G17KT 10SM OVC038 03/M03 A3014 830 61 -300 280/12G17 RMK AO2
14926KSTC STC20041120163510211/20/04 16:35:31  5-MIN KSTC 202235Z AUTO 29012KT 10SM OVC038 03/M03 A3014 830 61 -300 290/12 RMK AO2
14926KSTC STC20041120164010211/20/04 16:40:31  5-MIN KSTC 202240Z AUTO 29011KT 10SM OVC038 03/M03 A3014 820 61 -300 290/11 RMK AO2
14926KSTC STC20041120164510211/20/04 16:45:31  5-MIN KSTC 202245Z AUTO 29011KT 10SM OVC038 03/M03 A3014 820 61 -300 280/11 RMK AO2
14926KSTC STC20041120165011911/20/04 16:50:31  5-MIN KSTC 202250Z AUTO 29011KT 10SM OVC038 03/M03 A3014 820 67 -400 290/11 RMK AO2 SLP225 T00281028
14926KSTC STC20041120165510211/20/04 16:55:31  5-MIN KSTC 202255Z AUTO 29014KT 10SM OVC038 03/M03 A3015 820 61 -300 290/14 RMK AO2
14926KSTC STC20041120170010211/20/04 17:00:31  5-MIN KSTC 202300Z AUTO 30014KT 10SM OVC038 03/M03 A3015 820 64 -400 290/14 RMK AO2
14926KSTC STC20041120170510211/20/04 17:05:31  5-MIN KSTC 202305Z AUTO 30014KT 10SM OVC038 03/M03 A3015 810 64 -400 290/14 RMK AO2
14926KSTC STC20041120171010211/20/04 17:10:31  5-MIN KSTC 202310Z AUTO 30012KT 10SM OVC038 03/M03 A3016 810 64 -400 300/12 RMK AO2
14926KSTC STC20041120171510211/20/04 17:15:31  5-MIN KSTC 202315Z AUTO 30014KT 10SM OVC038 03/M03 A3016 810 64 -400 300/14 RMK AO2
14926KSTC STC20041120172010211/20/04 17:20:31  5-MIN KSTC 202320Z AUTO 30011KT 10SM OVC038 03/M03 A3016 810 64 -400 290/11 RMK AO2
14926KSTC STC20041120172510811/20/04 17:25:31  5-MIN KSTC 202325Z AUTO 30012G18KT 10SM OVC038 03/M03 A3016 810 64 -400 300/12G18 RMK AO2
14926KSTC STC20041120173010811/20/04 17:30:31  5-MIN KSTC 202330Z AUTO 30011G18KT 10SM OVC038 03/M04 A3016 800 61 -400 290/11G18 RMK AO2
14926KSTC STC20041120173510211/20/04 17:35:31  5-MIN KSTC 202335Z AUTO 30013KT 10SM OVC038 03/M04 A3016 800 61 -400 290/13 RMK AO2
14926KSTC STC20041120174010211/20/04 17:40:31  5-MIN KSTC 202340Z AUTO 30014KT 10SM OVC038 03/M04 A3017 800 61 -400 300/14 RMK AO2
14926KSTC STC20041120174510211/20/04 17:45:31  5-MIN KSTC 202345Z AUTO 29015KT 10SM OVC038 03/M04 A3017 800 61 -400 290/15 RMK AO2
14926KSTC STC20041120175013711/20/04 17:50:31  5-MIN KSTC 202350Z AUTO 29011KT 10SM OVC038 03/M04 A3017 800 61 -400 280/11 RMK AO2 SLP235 T00281039 10039 20028 53016
14926KSTC STC20041120175510211/20/04 17:55:31  5-MIN KSTC 202355Z AUTO 28016KT 10SM OVC038 03/M03 A3017 790 64 -400 280/16 RMK AO2
14926KSTC STC20041120180010211/20/04 18:00:31  5-MIN KSTC 210000Z AUTO 28015KT 10SM OVC038 03/M04 A3018 790 61 -400 280/15 RMK AO2
14926KSTC STC20041120180510211/20/04 18:05:31  5-MIN KSTC 210005Z AUTO 28013KT 10SM OVC038 03/M04 A3018 790 61 -400 280/13 RMK AO2
14926KSTC STC20041120181010211/20/04 18:10:31  5-MIN KSTC 210010Z AUTO 27014KT 10SM OVC036 03/M04 A3018 790 61 -400 270/14 RMK AO2
14926KSTC STC20041120181510211/20/04 18:15:31  5-MIN KSTC 210015Z AUTO 28013KT 10SM OVC036 03/M04 A3018 780 61 -400 280/13 RMK AO2
14926KSTC STC20041120182010211/20/04 18:20:31  5-MIN KSTC 210020Z AUTO 28010KT 10SM OVC036 03/M04 A3018 780 61 -400 280/10 RMK AO2
14926KSTC STC20041120182510211/20/04 18:25:31  5-MIN KSTC 210025Z AUTO 29011KT 10SM OVC036 03/M04 A3018 780 61 -400 290/11 RMK AO2
14926KSTC STC20041120183010211/20/04 18:30:31  5-MIN KSTC 210030Z AUTO 29011KT 10SM OVC036 03/M04 A3019 780 61 -400 290/11 RMK AO2
14926KSTC STC20041120183510811/20/04 18:35:31  5-MIN KSTC 210035Z AUTO 30016G22KT 10SM OVC036 03/M04 A3019 780 61 -400 300/16G22 RMK AO2
14926KSTC STC20041120184010811/20/04 18:40:31  5-MIN KSTC 210040Z AUTO 30016G22KT 10SM OVC036 02/M04 A3019 780 64 -500 300/16G22 RMK AO2
14926KSTC STC20041120184510211/20/04 18:45:31  5-MIN KSTC 210045Z AUTO 30013KT 10SM OVC036 02/M04 A3019 780 64 -500 300/13 RMK AO2
14926KSTC STC20041120185012511/20/04 18:50:31  5-MIN KSTC 210050Z AUTO 31015G20KT 10SM OVC036 02/M04 A3019 780 64 -500 310/15G20 RMK AO2 SLP243 T00221039
14926KSTC STC20041120185510811/20/04 18:55:31  5-MIN KSTC 210055Z AUTO 31012G20KT 10SM OVC036 02/M04 A3019 780 64 -500 300/12G20 RMK AO2
14926KSTC STC20041120190010211/20/04 19:00:31  5-MIN KSTC 210100Z AUTO 31011KT 10SM OVC036 02/M03 A3019 770 67 -500 300/11 RMK AO2
14926KSTC STC20041120190510211/20/04 19:05:31  5-MIN KSTC 210105Z AUTO 30011KT 10SM OVC036 02/M04 A3020 770 64 -500 300/11 RMK AO2
14926KSTC STC20041120191010211/20/04 19:10:31  5-MIN KSTC 210110Z AUTO 30008KT 10SM OVC036 02/M04 A3020 770 64 -500 290/08 RMK AO2
14926KSTC STC20041120191510211/20/04 19:15:31  5-MIN KSTC 210115Z AUTO 30008KT 10SM OVC036 02/M04 A3020 770 64 -500 300/08 RMK AO2
14926KSTC STC20041120192010211/20/04 19:20:31  5-MIN KSTC 210120Z AUTO 29009KT 10SM OVC036 02/M03 A3020 770 67 -500 290/09 RMK AO2
14926KSTC STC20041120192510211/20/04 19:25:31  5-MIN KSTC 210125Z AUTO 28012KT 10SM BKN036 02/M04 A3020 770 66 -600 280/12 RMK AO2
14926KSTC STC20041120193010211/20/04 19:30:31  5-MIN KSTC 210130Z AUTO 29011KT 10SM BKN036 02/M04 A3020 760 64 -500 290/11 RMK AO2
14926KSTC STC20041120193510211/20/04 19:35:31  5-MIN KSTC 210135Z AUTO 29011KT 10SM BKN036 02/M04 A3021 760 66 -600 290/11 RMK AO2
14926KSTC STC20041120194010211/20/04 19:40:31  5-MIN KSTC 210140Z AUTO 29009KT 10SM SCT036 01/M04 A3021 760 69 -700 280/09 RMK AO2
14926KSTC STC20041120194510211/20/04 19:45:31  5-MIN KSTC 210145Z AUTO 29008KT 10SM FEW036 01/M04 A3021 760 69 -700 280/08 RMK AO2
14926KSTC STC20041120195011911/20/04 19:50:31  5-MIN KSTC 210150Z AUTO 29009KT 10SM FEW036 01/M04 A3021 760 69 -700 280/09 RMK AO2 SLP251 T00111039
14926KSTC STC20041120195510211/20/04 19:55:31  5-MIN KSTC 210155Z AUTO 29009KT 10SM FEW036 01/M04 A3022 750 66 -700 290/09 RMK AO2
14926KSTC STC20041120200009911/20/04 20:00:31  5-MIN KSTC 210200Z AUTO 29009KT 10SM CLR 01/M04 A3022 750 69 -700 290/09 RMK AO2
14926KSTC STC20041120200509911/20/04 20:05:31  5-MIN KSTC 210205Z AUTO 29010KT 10SM CLR 01/M04 A3022 750 69 -700 290/10 RMK AO2
14926KSTC STC20041120201009911/20/04 20:10:31  5-MIN KSTC 210210Z AUTO 30009KT 10SM CLR 01/M04 A3022 750 69 -700 290/09 RMK AO2
14926KSTC STC20041120201509911/20/04 20:15:31  5-MIN KSTC 210215Z AUTO 30009KT 10SM CLR 01/M04 A3022 750 69 -700 290/09 RMK AO2
14926KSTC STC20041120202009911/20/04 20:20:31  5-MIN KSTC 210220Z AUTO 29007KT 10SM CLR 01/M04 A3023 740 72 -700 290/07 RMK AO2
14926KSTC STC20041120202509911/20/04 20:25:31  5-MIN KSTC 210225Z AUTO 29007KT 10SM CLR 01/M04 A3023 740 72 -800 290/07 RMK AO2
14926KSTC STC20041120203009911/20/04 20:30:31  5-MIN KSTC 210230Z AUTO 29007KT 10SM CLR 01/M04 A3023 740 72 -800 280/07 RMK AO2
14926KSTC STC20041120203509911/20/04 20:35:31  5-MIN KSTC 210235Z AUTO 29008KT 10SM CLR 01/M04 A3023 740 72 -800 290/08 RMK AO2
14926KSTC STC20041120204009911/20/04 20:40:31  5-MIN KSTC 210240Z AUTO 29007KT 10SM CLR 00/M04 A3023 740 75 -800 290/07 RMK AO2
14926KSTC STC20041120204509911/20/04 20:45:31  5-MIN KSTC 210245Z AUTO 28008KT 10SM CLR 00/M04 A3023 740 75 -800 280/08 RMK AO2
14926KSTC STC20041120205012211/20/04 20:50:31  5-MIN KSTC 210250Z AUTO 28007KT 10SM CLR 00/M04 A3023 740 75 -800 280/07 RMK AO2 SLP258 T00001039 53023
14926KSTC STC20041120205510011/20/04 20:55:31  5-MIN KSTC 210255Z AUTO 28006KT 10SM CLR M01/M04 A3023 740 78 -900 270/06 RMK AO2
14926KSTC STC20041120210010011/20/04 21:00:31  5-MIN KSTC 210300Z AUTO 28006KT 10SM CLR M01/M04 A3023 740 78 -900 280/06 RMK AO2
14926KSTC STC20041120210510111/20/04 21:05:31  5-MIN KSTC 210305Z AUTO 28006KT 10SM CLR M01/M04 A3023 740 81 -1000 280/06 RMK AO2
14926KSTC STC20041120211010111/20/04 21:10:31  5-MIN KSTC 210310Z AUTO 28006KT 10SM CLR M01/M03 A3023 740 85 -1000 270/06 RMK AO2
14926KSTC STC20041120211509911/20/04 21:15:31  5-MIN KSTC 210315Z AUTO 27006KT 10SM CLR 00/M03 A3023 740 78 -800 270/06 RMK AO2
14926KSTC STC20041120212010111/20/04 21:20:31  5-MIN KSTC 210320Z AUTO 27006KT 10SM CLR M01/M04 A3024 740 78 -1000 270/06 RMK AO2
14926KSTC STC20041120212510111/20/04 21:25:31  5-MIN KSTC 210325Z AUTO 27006KT 10SM CLR M01/M04 A3024 730 78 -1000 270/06 RMK AO2
14926KSTC STC20041120213007311/20/04 21:30:31  5-MIN KSTC 210330Z AUTO 26006KT 10SM CLR M02/M04 A3024
14926KSTC STC20041120214510111/20/04 21:45:31  5-MIN KSTC 210345Z AUTO 25006KT 10SM CLR M02/M04 A3024 730 81 -1000 250/06 RMK AO2
14926KSTC STC20041120215011111/20/04 21:50:31  5-MIN KSTC 214  KSTC 210410Z AUTO 24005KT 10SM CLR M02/M04 A3025 730 85 -1100 240/05 RMK AO2
14926KSTC STC20041120221510111/20/04 22:15:31  5-MIN KSTC 210415Z AUTO 25005KT 10SM CLR M02/M04 A3025 720 85 -1100 240/05 RMK AO2
14926KSTC STC20041120222015711/20/04 22:20:31  5-MIN KSTC 210420Z AUTO 25006KT 10SM 11/20/04 22:25:31  5-MIN KSTC 210425Z AUTO 25006KT 10SM CLR M02/M04 A3025 720 85 -1100 250/06 RMK AO2
14926KSTC STC20041120223004411/20/04 22:30:31  5-MINAO2 SLP267 T10281044
14926KSTC STC20041120225510111/20/04 22:55:31  5-MIN KSTC 210455Z AUTO 23005KT 10SM CLR M03/M04 A3026 710 88 -1200 230/05 RMK AO2
14926KSTC STC20041120230013811/20/04 23:00:31  5-MIN KSTC 210500Z AUTO 24005KT 10SM CLR M03/M04 A3026 710 88 -1200 230/05 RMK AO2 11/20/046710 88 -1200 230/05 RMK AO2
14926KSTC STC20041120232510111/20/04 23:25:31  5-MIN KSTC 210525Z AUTO 23005KT 10SM CLR M03/M04 A3026 710 88 -1200 230/05 RMK AO2
14926KSTC STC20041120233018411/20/04 23:30:31  5-MIN KSTC 210530Z AUTO 22006KT 10SM CLR M03/M04 A3027 710 92 -1300 220/06 RMK AO2 7M04 A3027710 88 -1200 230/06 RMK AO2 SLP270 T10281044 10028 21033 400391033 51019
14926KSTC STC20041120235510111/20/04 23:55:31  5-MIN KSTC 210555Z AUTO 24006KT 10SM CLR M03/M04 A3027 710 88 -1200 230/06 RMK AO2
14926KSTC STC20041121000007711/21/04 00:00:32  5-MIN KSTC 210600Z AUTO 250067 710 92 -1300 270/06 RMK AO2
14926KSTC STC20041121002010111/21/04 00:20:31  5-MIN KSTC 210620Z AUTO 28006KT 10SM CLR M04/M05 A3027 710 92 -1400 280/06 RMK AO2
14926KSTC STC20041121002513911/21/04 00:25:31  5-MIN KSTC 210625Z AUTO 29005KT 10SM CLR M04/M06 A3026 710 88 -1400 280/05 RMK AO2 6M05 A3026720 88 -1300 260/05 RMK AO2
14926KSTC STC20041121005011811/21/04 00:50:31  5-MIN KSTC 210650Z AUTO 27005KT 10SM CLR M03/M05 A3026 710 88 -1300 260/05 RMK AO2 SLP268 T10331050
14926KSTC STC20041121005512711/21/04 00:55:31  5-MIN KSTC 210655Z AUTO 26006KT 10SM CLR M03/M06 A3026 710 85 -CLR M04/M06 A3027 710 88 -1400 250/06 RMK AO2
14926KSTC STC20041121011510111/21/04 01:15:31  5-MIN KSTC 210715Z AUTO 25006KT 10SM CLR M03/M05 A3027 710 88 -1300 250/06 RMK AO2
14926KSTC STC20041121012016211/21/04 01:20:31  5-MIN KSTC 210720Z AUTO 24006KT 10SM CLR M03/M05 A3027 710 88 -AO2 KSTC 210740Z AUTO 25006KT 10SM CLR M03/M05 A3028 700 88 -1300 250/06 RMK AO2
14926KSTC STC20041121014510111/21/04 01:45:31  5-MIN KSTC 210745Z AUTO 24007KT 10SM CLR M03/M05 A3028 700 88 -1300 240/07 RMK AO2
14926KSTC STC20041121015009311/21/04 01:50:31  5-MIN KSTC 210750Z AUTO 24007KT 10SM M05 A3028 700 88 -1300 240/06 RMK AO2
14926KSTC STC20041121021010111/21/04 02:10:31  5-MIN KSTC 210810Z AUTO 25006KT 10SM CLR M03/M05 A3028 690 88 -1300 250/06 RMK AO2
14926KSTC STC20041121021510111/21/04 02:15:31  5-MIN KSTC 210815Z AUTO 25007KT 10SM CLR M03/M05 A3028 690 88 -1300 250/07 RMK AO2
14926KSTC STC20041121022010111/21/04 02:20:31  5-MIN KSTC 210820Z AUTO 25007KT 10SM CLR M03/M05 A3028 690 88 -1300 250/07 RMK AO2
14926KSTC STC20041121022510111/21/04 02:25:31  5-MIN KSTC 210825Z AUTO 26008KT 10SM CLR M03/M05 A3029 690 88 -1300 260/08 RMK AO2
14926KSTC STC20041121023010111/21/04 02:30:31  5-MIN KSTC 210830Z AUTO 25007KT 10SM CLR M03/M06 A3029 690 85 -1300 250/07 RMK AO2
14926KSTC STC20041121023510111/21/04 02:35:31  5-MIN KSTC 210835Z AUTO 25007KT 10SM CLR M04/M06 A3029 690 88 -1400 250/07 RMK AO2
14926KSTC STC20041121024010111/21/04 02:40:31  5-MIN KSTC 210840Z AUTO 25007KT 10SM CLR M03/M06 A3029 690 85 -1300 250/07 RMK AO2
14926KSTC STC20041121024510111/21/04 02:45:31  5-MIN KSTC 210845Z AUTO 26007KT 10SM CLR M03/M06 A3029 690 85 -1300 250/07 RMK AO2
14926KSTC STC20041121025012411/21/04 02:50:31  5-MIN KSTC 210850Z AUTO 26007KT 10SM CLR M04/M06 A3029 690 88 -1400 260/07 RMK AO2 SLP279 T10391056 51012
14926KSTC STC20041121025510111/21/04 02:55:31  5-MIN KSTC 210855Z AUTO 26007KT 10SM CLR M04/M06 A3029 690 88 -1400 260/07 RMK AO2
14926KSTC STC20041121030010111/21/04 03:00:31  5-MIN KSTC 210900Z AUTO 25007KT 10SM CLR M04/M06 A3029 690 88 -1400 250/07 RMK AO2
14926KSTC STC20041121030510111/21/04 03:05:31  5-MIN KSTC 210905Z AUTO 25008KT 10SM CLR M04/M06 A3029 690 88 -1400 250/08 RMK AO2
14926KSTC STC20041121031010111/21/04 03:10:31  5-MIN KSTC 210910Z AUTO 26006KT 10SM CLR M03/M06 A3029 690 85 -1300 260/06 RMK AO2
14926KSTC STC20041121031510111/21/04 03:15:31  5-MIN KSTC 210915Z AUTO 27006KT 10SM CLR M04/M06 A3028 690 88 -1400 270/06 RMK AO2
14926KSTC STC20041121032010111/21/04 03:20:31  5-MIN KSTC 210920Z AUTO 26006KT 10SM CLR M04/M06 A3029 690 88 -1400 260/06 RMK AO2
14926KSTC STC20041121032510111/21/04 03:25:31  5-MIN KSTC 210925Z AUTO 27005KT 10SM CLR M04/M06 A3028 690 88 -1400 270/05 RMK AO2
14926KSTC STC20041121033010111/21/04 03:30:31  5-MIN KSTC 210930Z AUTO 25003KT 10SM CLR M05/M07 A3028 690 88 -1500 240/03 RMK AO2
14926KSTC STC20041121033510111/21/04 03:35:31  5-MIN KSTC 210935Z AUTO 23005KT 10SM CLR M04/M07 A3029 690 84 -1400 230/05 RMK AO2
14926KSTC STC20041121034010111/21/04 03:40:31  5-MIN KSTC 210940Z AUTO 23005KT 10SM CLR M04/M06 A3029 690 88 -1500 230/05 RMK AO2
14926KSTC STC20041121034510111/21/04 03:45:31  5-MIN KSTC 210945Z AUTO 23006KT 10SM CLR M04/M06 A3029 690 88 -1500 230/06 RMK AO2
14926KSTC STC20041121035011811/21/04 03:50:31  5-MIN KSTC 210950Z AUTO 23005KT 10SM CLR M05/M07 A3029 690 88 -1500 230/05 RMK AO2 SLP278 T10501067
14926KSTC STC20041121035510111/21/04 03:55:31  5-MIN KSTC 210955Z AUTO 23005KT 10SM CLR M05/M07 A3029 690 88 -1500 220/05 RMK AO2
14926KSTC STC20041121040010111/21/04 04:00:31  5-MIN KSTC 211000Z AUTO 23006KT 10SM CLR M05/M07 A3029 690 88 -1500 230/06 RMK AO2
14926KSTC STC20041121040510111/21/04 04:05:31  5-MIN KSTC 211005Z AUTO 23006KT 10SM CLR M04/M07 A3028 690 84 -1400 230/06 RMK AO2
14926KSTC STC20041121041010111/21/04 04:10:31  5-MIN KSTC 211010Z AUTO 24005KT 10SM CLR M05/M07 A3028 690 88 -1500 230/05 RMK AO2
14926KSTC STC20041121041510111/21/04 04:15:31  5-MIN KSTC 211015Z AUTO 24005KT 10SM CLR M04/M07 A3028 690 84 -1400 230/05 RMK AO2
14926KSTC STC20041121042010111/21/04 04:20:31  5-MIN KSTC 211020Z AUTO 24005KT 10SM CLR M05/M07 A3028 700 88 -1500 230/05 RMK AO2
14926KSTC STC20041121042510111/21/04 04:25:31  5-MIN KSTC 211025Z AUTO 24005KT 10SM CLR M05/M07 A3028 690 88 -1500 230/05 RMK AO2
14926KSTC STC20041121043010111/21/04 04:30:31  5-MIN KSTC 211030Z AUTO 23006KT 10SM CLR M06/M07 A3028 690 92 -1600 230/06 RMK AO2
14926KSTC STC20041121043510111/21/04 04:35:31  5-MIN KSTC 211035Z AUTO 23007KT 10SM CLR M05/M07 A3028 690 88 -1500 220/07 RMK AO2
14926KSTC STC20041121044010111/21/04 04:40:31  5-MIN KSTC 211040Z AUTO 23006KT 10SM CLR M05/M07 A3028 690 88 -1500 230/06 RMK AO2
14926KSTC STC20041121044510111/21/04 04:45:31  5-MIN KSTC 211045Z AUTO 23007KT 10SM CLR M05/M07 A3028 690 88 -1500 230/07 RMK AO2
14926KSTC STC20041121045011811/21/04 04:50:31  5-MIN KSTC 211050Z AUTO 23006KT 10SM CLR M04/M06 A3028 690 88 -1400 230/06 RMK AO2 SLP276 T10441061
14926KSTC STC20041121045510111/21/04 04:55:31  5-MIN KSTC 211055Z AUTO 23007KT 10SM CLR M04/M06 A3028 690 88 -1400 230/07 RMK AO2
14926KSTC STC20041121050010111/21/04 05:00:31  5-MIN KSTC 211100Z AUTO 23007KT 10SM CLR M04/M06 A3028 690 88 -1400 230/07 RMK AO2
14926KSTC STC20041121050510111/21/04 05:05:31  5-MIN KSTC 211105Z AUTO 23008KT 10SM CLR M04/M06 A3029 690 85 -1400 220/08 RMK AO2
14926KSTC STC20041121051010111/21/04 05:10:31  5-MIN KSTC 211110Z AUTO 23007KT 10SM CLR M04/M06 A3029 690 88 -1400 220/07 RMK AO2
14926KSTC STC20041121051510111/21/04 05:15:31  5-MIN KSTC 211115Z AUTO 23008KT 10SM CLR M04/M06 A3029 690 85 -1400 230/08 RMK AO2
14926KSTC STC20041121052010111/21/04 05:20:31  5-MIN KSTC 211120Z AUTO 23008KT 10SM CLR M04/M06 A3029 690 88 -1500 230/08 RMK AO2
14926KSTC STC20041121052510111/21/04 05:25:31  5-MIN KSTC 211125Z AUTO 23008KT 10SM CLR M04/M06 A3029 690 85 -1400 230/08 RMK AO2
14926KSTC STC20041121053010111/21/04 05:30:31  5-MIN KSTC 211130Z AUTO 24008KT 10SM CLR M04/M06 A3029 690 85 -1400 240/08 RMK AO2
14926KSTC STC20041121053510111/21/04 05:35:31  5-MIN KSTC 211135Z AUTO 23008KT 10SM CLR M04/M06 A3029 690 85 -1400 230/08 RMK AO2
14926KSTC STC20041121054010111/21/04 05:40:31  5-MIN KSTC 211140Z AUTO 24007KT 10SM CLR M04/M06 A3029 690 85 -1400 230/07 RMK AO2
14926KSTC STC20041121054510111/21/04 05:45:31  5-MIN KSTC 211145Z AUTO 23007KT 10SM CLR M04/M07 A3029 690 81 -1400 230/07 RMK AO2
14926KSTC STC20041121055013611/21/04 05:50:31  5-MIN KSTC 211150Z AUTO 24007KT 10SM CLR M04/M07 A3029 690 81 -1400 230/07 RMK AO2 SLP278 T10391067 11028 21056 53007
14926KSTC STC20041121055510111/21/04 05:55:31  5-MIN KSTC 211155Z AUTO 24006KT 10SM CLR M04/M07 A3029 690 84 -1500 230/06 RMK AO2
14926KSTC STC20041121060010111/21/04 06:00:31  5-MIN KSTC 211200Z AUTO 24006KT 10SM CLR M04/M07 A3029 690 84 -1400 240/06 RMK AO2
14926KSTC STC20041121060510111/21/04 06:05:31  5-MIN KSTC 211205Z AUTO 24006KT 10SM CLR M05/M07 A3029 690 88 -1500 240/06 RMK AO2
14926KSTC STC20041121061010111/21/04 06:10:31  5-MIN KSTC 211210Z AUTO 24006KT 10SM CLR M05/M07 A3029 690 84 -1500 240/06 RMK AO2
14926KSTC STC20041121061510111/21/04 06:15:31  5-MIN KSTC 211215Z AUTO 24005KT 10SM CLR M05/M07 A3028 690 84 -1500 240/05 RMK AO2
14926KSTC STC20041121062010111/21/04 06:20:31  5-MIN KSTC 211220Z AUTO 24006KT 10SM CLR M05/M07 A3028 700 84 -1500 240/06 RMK AO2
14926KSTC STC20041121062510111/21/04 06:25:31  5-MIN KSTC 211225Z AUTO 24006KT 10SM CLR M05/M07 A3028 700 84 -1500 240/06 RMK AO2
14926KSTC STC20041121063010111/21/04 06:30:31  5-MIN KSTC 211230Z AUTO 24006KT 10SM CLR M05/M07 A3028 700 84 -1500 240/06 RMK AO2
14926KSTC STC20041121063510111/21/04 06:35:31  5-MIN KSTC 211235Z AUTO 24006KT 10SM CLR M05/M07 A3028 700 84 -1500 240/06 RMK AO2
14926KSTC STC20041121064010111/21/04 06:40:31  5-MIN KSTC 211240Z AUTO 24006KT 10SM CLR M04/M07 A3028 700 84 -1400 240/06 RMK AO2
14926KSTC STC20041121064510111/21/04 06:45:31  5-MIN KSTC 211245Z AUTO 23005KT 10SM CLR M04/M07 A3028 700 84 -1400 230/05 RMK AO2
14926KSTC STC20041121065011811/21/04 06:50:31  5-MIN KSTC 211250Z AUTO 23006KT 10SM CLR M05/M07 A3028 700 88 -1500 220/06 RMK AO2 SLP276 T10501067
14926KSTC STC20041121065510111/21/04 06:55:31  5-MIN KSTC 211255Z AUTO 22006KT 10SM CLR M05/M07 A3028 700 84 -1500 220/06 RMK AO2
14926KSTC STC20041121070010111/21/04 07:00:31  5-MIN KSTC 211300Z AUTO 21005KT 10SM CLR M05/M07 A3028 690 88 -1500 210/05 RMK AO2
14926KSTC STC20041121070510111/21/04 07:05:31  5-MIN KSTC 211305Z AUTO 21006KT 10SM CLR M05/M07 A3028 690 88 -1500 210/06 RMK AO2
14926KSTC STC20041121071010111/21/04 07:10:31  5-MIN KSTC 211310Z AUTO 20005KT 10SM CLR M05/M07 A3029 690 88 -1500 200/05 RMK AO2
14926KSTC STC20041121071510111/21/04 07:15:31  5-MIN KSTC 211315Z AUTO 21005KT 10SM CLR M05/M07 A3029 690 88 -1500 210/05 RMK AO2
14926KSTC STC20041121072010111/21/04 07:20:31  5-MIN KSTC 211320Z AUTO 21005KT 10SM CLR M05/M07 A3029 690 88 -1500 210/05 RMK AO2
14926KSTC STC20041121072510111/21/04 07:25:31  5-MIN KSTC 211325Z AUTO 21006KT 10SM CLR M05/M07 A3029 690 88 -1500 200/06 RMK AO2
14926KSTC STC20041121073010111/21/04 07:30:31  5-MIN KSTC 211330Z AUTO 21006KT 10SM CLR M04/M06 A3029 680 88 -1500 210/06 RMK AO2
14926KSTC STC20041121073510111/21/04 07:35:31  5-MIN KSTC 211335Z AUTO 21005KT 10SM CLR M04/M07 A3029 680 84 -1500 200/05 RMK AO2
14926KSTC STC20041121074010111/21/04 07:40:31  5-MIN KSTC 211340Z AUTO 21005KT 10SM CLR M04/M06 A3029 680 88 -1500 210/05 RMK AO2
14926KSTC STC20041121074510111/21/04 07:45:31  5-MIN KSTC 211345Z AUTO 21005KT 10SM CLR M04/M06 A3029 680 88 -1500 200/05 RMK AO2
14926KSTC STC20041121075011811/21/04 07:50:31  5-MIN KSTC 211350Z AUTO 20005KT 10SM CLR M04/M06 A3030 680 88 -1500 200/05 RMK AO2 SLP282 T10441061
14926KSTC STC20041121075510111/21/04 07:55:31  5-MIN KSTC 211355Z AUTO 21004KT 10SM CLR M04/M06 A3030 680 88 -1500 210/04 RMK AO2
14926KSTC STC20041121080010111/21/04 08:00:31  5-MIN KSTC 211400Z AUTO 21004KT 10SM CLR M04/M06 A3030 680 88 -1400 210/04 RMK AO2
14926KSTC STC20041121080510111/21/04 08:05:31  5-MIN KSTC 211405Z AUTO 20004KT 10SM CLR M04/M06 A3030 680 88 -1400 200/04 RMK AO2
14926KSTC STC20041121081010111/21/04 08:10:31  5-MIN KSTC 211410Z AUTO 21004KT 10SM CLR M03/M05 A3030 680 88 -1300 200/04 RMK AO2
14926KSTC STC20041121081510111/21/04 08:15:31  5-MIN KSTC 211415Z AUTO 21005KT 10SM CLR M03/M05 A3030 680 88 -1300 200/05 RMK AO2
14926KSTC STC20041121082010111/21/04 08:20:31  5-MIN KSTC 211420Z AUTO 21006KT 10SM CLR M03/M05 A3030 670 88 -1300 210/06 RMK AO2
14926KSTC STC20041121082510111/21/04 08:25:31  5-MIN KSTC 211425Z AUTO 21005KT 10SM CLR M03/M05 A3030 670 85 -1300 210/05 RMK AO2
14926KSTC STC20041121083010111/21/04 08:30:31  5-MIN KSTC 211430Z AUTO 22004KT 10SM CLR M03/M05 A3030 670 85 -1300 220/04 RMK AO2
14926KSTC STC20041121083510111/21/04 08:35:31  5-MIN KSTC 211435Z AUTO 23005KT 10SM CLR M03/M04 A3030 670 88 -1300 230/05 RMK AO2
14926KSTC STC20041121084010111/21/04 08:40:31  5-MIN KSTC 211440Z AUTO 23004KT 10SM CLR M02/M05 A3031 670 81 -1200 220/04 RMK AO2
14926KSTC STC20041121084510111/21/04 08:45:31  5-MIN KSTC 211445Z AUTO 22007KT 10SM CLR M02/M04 A3031 670 85 -1200 220/07 RMK AO2
14926KSTC STC20041121085012411/21/04 08:50:31  5-MIN KSTC 211450Z AUTO 23006KT 10SM CLR M02/M04 A3031 670 85 -1200 230/06 RMK AO2 SLP287 T10221044 55001
14926KSTC STC20041121085510111/21/04 08:55:31  5-MIN KSTC 211455Z AUTO 23007KT 10SM CLR M02/M04 A3031 670 85 -1200 220/07 RMK AO2
14926KSTC STC20041121090010111/21/04 09:00:31  5-MIN KSTC 211500Z AUTO 22006KT 10SM CLR M02/M04 A3031 670 85 -1200 220/06 RMK AO2
14926KSTC STC20041121090510111/21/04 09:05:31  5-MIN KSTC 211505Z AUTO 22006KT 10SM CLR M02/M04 A3031 670 85 -1100 210/06 RMK AO2
14926KSTC STC20041121091010111/21/04 09:10:31  5-MIN KSTC 211510Z AUTO 22006KT 10SM CLR M01/M04 A3031 670 81 -1100 220/06 RMK AO2
14926KSTC STC20041121091510111/21/04 09:15:31  5-MIN KSTC 211515Z AUTO 23007KT 10SM CLR M01/M04 A3031 670 81 -1100 220/07 RMK AO2
14926KSTC STC20041121092010111/21/04 09:20:31  5-MIN KSTC 211520Z AUTO 23007KT 10SM CLR M01/M04 A3031 670 78 -1100 230/07 RMK AO2
14926KSTC STC20041121092510111/21/04 09:25:31  5-MIN KSTC 211525Z AUTO 23006KT 10SM CLR M01/M04 A3031 670 78 -1100 230/06 RMK AO2
14926KSTC STC20041121093010111/21/04 09:30:31  5-MIN KSTC 211530Z AUTO 23007KT 10SM CLR M01/M04 A3031 670 81 -1100 220/07 RMK AO2
14926KSTC STC20041121093510111/21/04 09:35:31  5-MIN KSTC 211535Z AUTO 23006KT 10SM CLR M01/M04 A3031 670 78 -1000 230/06 RMK AO2
14926KSTC STC20041121094010111/21/04 09:40:31  5-MIN KSTC 211540Z AUTO 24007KT 10SM CLR M01/M04 A3031 670 81 -1000 230/07 RMK AO2
14926KSTC STC20041121094510411/21/04 09:45:31  5-MIN KSTC 211545Z AUTO 23006KT 10SM FEW110 M01/M04 A3031 670 78 -1000 230/06 RMK AO2
14926KSTC STC20041121095012111/21/04 09:50:31  5-MIN KSTC 211550Z AUTO 22007KT 10SM SCT110 M01/M04 A3031 670 81 -1000 220/07 RMK AO2 SLP285 T10111039
14926KSTC STC20041121095510411/21/04 09:55:31  5-MIN KSTC 211555Z AUTO 22006KT 10SM SCT110 M01/M04 A3031 670 81 -1000 220/06 RMK AO2
14926KSTC STC20041121100010411/21/04 10:00:31  5-MIN KSTC 211600Z AUTO 22006KT 10SM SCT110 M01/M04 A3030 670 78 -1000 220/06 RMK AO2
14926KSTC STC20041121100510411/21/04 10:05:31  5-MIN KSTC 211605Z AUTO 21006KT 10SM SCT120 M01/M04 A3030 680 78 -1000 200/06 RMK AO2
14926KSTC STC20041121101010411/21/04 10:10:31  5-MIN KSTC 211610Z AUTO 21008KT 10SM BKN120 M01/M03 A3030 680 81 -1000 210/08 RMK AO2
14926KSTC STC20041121101510411/21/04 10:15:31  5-MIN KSTC 211615Z AUTO 21008KT 10SM BKN110 M01/M03 A3030 670 81 -1000 200/08 RMK AO2
14926KSTC STC20041121102010411/21/04 10:20:31  5-MIN KSTC 211620Z AUTO 22007KT 10SM SCT110 M01/M04 A3030 670 78 -1000 220/07 RMK AO2
14926KSTC STC20041121102510411/21/04 10:25:31  5-MIN KSTC 211625Z AUTO 22007KT 10SM SCT110 M01/M04 A3030 670 78 -1000 210/07 RMK AO2
14926KSTC STC20041121103010211/21/04 10:30:31  5-MIN KSTC 211630Z AUTO 22006KT 10SM SCT110 00/M03 A3030 670 78 -900 220/06 RMK AO2
14926KSTC STC20041121103510211/21/04 10:35:31  5-MIN KSTC 211635Z AUTO 23007KT 10SM FEW110 00/M04 A3030 670 75 -900 220/07 RMK AO2
14926KSTC STC20041121104010211/21/04 10:40:31  5-MIN KSTC 211640Z AUTO 23005KT 10SM FEW110 00/M04 A3030 680 75 -900 230/05 RMK AO2
14926KSTC STC20041121104509911/21/04 10:45:31  5-MIN KSTC 211645Z AUTO 24005KT 10SM CLR 00/M04 A3030 680 75 -900 240/05 RMK AO2
14926KSTC STC20041121105011611/21/04 10:50:31  5-MIN KSTC 211650Z AUTO 24006KT 10SM CLR 01/M04 A3030 680 72 -800 230/06 RMK AO2 SLP283 T00061039
14926KSTC STC20041121105509911/21/04 10:55:31  5-MIN KSTC 211655Z AUTO 23007KT 10SM CLR 01/M04 A3030 680 72 -800 230/07 RMK AO2
14926KSTC STC20041121110009911/21/04 11:00:31  5-MIN KSTC 211700Z AUTO 23007KT 10SM CLR 01/M04 A3030 680 72 -800 220/07 RMK AO2
14926KSTC STC20041121110509911/21/04 11:05:31  5-MIN KSTC 211705Z AUTO 24006KT 10SM CLR 01/M03 A3030 680 75 -800 230/06 RMK AO2
14926KSTC STC20041121111009911/21/04 11:10:31  5-MIN KSTC 211710Z AUTO 22006KT 10SM CLR 01/M04 A3030 680 72 -800 210/06 RMK AO2
14926KSTC STC20041121111509911/21/04 11:15:31  5-MIN KSTC 211715Z AUTO 23006KT 10SM CLR 01/M03 A3029 680 75 -800 230/06 RMK AO2
14926KSTC STC20041121112009911/21/04 11:20:31  5-MIN KSTC 211720Z AUTO 23006KT 10SM CLR 01/M04 A3029 680 69 -800 230/06 RMK AO2
14926KSTC STC20041121112509911/21/04 11:25:31  5-MIN KSTC 211725Z AUTO 21005KT 10SM CLR 01/M04 A3029 680 69 -800 210/05 RMK AO2
14926KSTC STC20041121113009911/21/04 11:30:31  5-MIN KSTC 211730Z AUTO 21006KT 10SM CLR 01/M04 A3029 690 69 -700 200/06 RMK AO2
14926KSTC STC20041121113509911/21/04 11:35:31  5-MIN KSTC 211735Z AUTO 20007KT 10SM CLR 01/M03 A3029 690 75 -800 200/07 RMK AO2
14926KSTC STC20041121114009911/21/04 11:40:31  5-MIN KSTC 211740Z AUTO 20007KT 10SM CLR 01/M03 A3028 690 75 -800 190/07 RMK AO2
14926KSTC STC20041121114509911/21/04 11:45:31  5-MIN KSTC 211745Z AUTO 20007KT 10SM CLR 01/M03 A3028 690 75 -800 200/07 RMK AO2
14926KSTC STC20041121115013411/21/04 11:50:31  5-MIN KSTC 211750Z AUTO 20007KT 10SM CLR 01/M03 A3028 690 75 -700 190/07 RMK AO2 SLP276 T00111028 10011 21050 53008
14926KSTC STC20041121115509911/21/04 11:55:31  5-MIN KSTC 211755Z AUTO 20006KT 10SM CLR 01/M03 A3028 700 75 -700 200/06 RMK AO2
14926KSTC STC20041121120009911/21/04 12:00:31  5-MIN KSTC 211800Z AUTO 21008KT 10SM CLR 02/M03 A3027 700 69 -700 200/08 RMK AO2
14926KSTC STC20041121120509911/21/04 12:05:31  5-MIN KSTC 211805Z AUTO 21007KT 10SM CLR 02/M03 A3027 700 69 -700 200/07 RMK AO2
14926KSTC STC20041121121009911/21/04 12:10:31  5-MIN KSTC 211810Z AUTO 22007KT 10SM CLR 02/M03 A3027 700 69 -700 210/07 RMK AO2
14926KSTC STC20041121121509911/21/04 12:15:31  5-MIN KSTC 211815Z AUTO 20008KT 10SM CLR 02/M03 A3027 710 67 -600 200/08 RMK AO2
14926KSTC STC20041121122009911/21/04 12:20:31  5-MIN KSTC 211820Z AUTO 21007KT 10SM CLR 02/M03 A3027 710 67 -600 200/07 RMK AO2
14926KSTC STC20041121122509911/21/04 12:25:31  5-MIN KSTC 211825Z AUTO 21008KT 10SM CLR 02/M03 A3027 710 69 -700 210/08 RMK AO2
14926KSTC STC20041121123009911/21/04 12:30:31  5-MIN KSTC 211830Z AUTO 22007KT 10SM CLR 02/M03 A3027 710 67 -600 220/07 RMK AO2
14926KSTC STC20041121123509911/21/04 12:35:31  5-MIN KSTC 211835Z AUTO 21008KT 10SM CLR 03/M03 A3026 710 64 -500 200/08 RMK AO2
14926KSTC STC20041121124009911/21/04 12:40:31  5-MIN KSTC 211840Z AUTO 21008KT 10SM CLR 03/M03 A3026 710 64 -500 210/08 RMK AO2
14926KSTC STC20041121124509911/21/04 12:45:31  5-MIN KSTC 211845Z AUTO 22008KT 10SM CLR 03/M03 A3026 710 64 -500 220/08 RMK AO2
14926KSTC STC20041121125011611/21/04 12:50:31  5-MIN KSTC 211850Z AUTO 26008KT 10SM CLR 03/M04 A3026 710 59 -400 260/08 RMK AO2 SLP268 T00331039
14926KSTC STC20041121125509911/21/04 12:55:31  5-MIN KSTC 211855Z AUTO 24009KT 10SM CLR 03/M04 A3026 720 59 -400 240/09 RMK AO2
14926KSTC STC20041121130009911/21/04 13:00:31  5-MIN KSTC 211900Z AUTO 24007KT 10SM CLR 03/M04 A3025 720 59 -500 240/07 RMK AO2
14926KSTC STC20041121130509911/21/04 13:05:31  5-MIN KSTC 211905Z AUTO 25009KT 10SM CLR 03/M04 A3025 720 57 -400 240/09 RMK AO2
14926KSTC STC20041121131009911/21/04 13:10:31  5-MIN KSTC 211910Z AUTO 26010KT 10SM CLR 04/M04 A3025 720 54 -400 250/10 RMK AO2
14926KSTC STC20041121131509911/21/04 13:15:31  5-MIN KSTC 211915Z AUTO 25011KT 10SM CLR 04/M04 A3025 720 57 -400 250/11 RMK AO2
14926KSTC STC20041121132009911/21/04 13:20:31  5-MIN KSTC 211920Z AUTO 26009KT 10SM CLR 04/M04 A3025 730 54 -400 260/09 RMK AO2
14926KSTC STC20041121132509911/21/04 13:25:31  5-MIN KSTC 211925Z AUTO 27010KT 10SM CLR 04/M04 A3024 730 54 -400 260/10 RMK AO2
14926KSTC STC20041121133009911/21/04 13:30:31  5-MIN KSTC 211930Z AUTO 27010KT 10SM CLR 04/M04 A3024 730 52 -300 260/10 RMK AO2
14926KSTC STC20041121133509911/21/04 13:35:31  5-MIN KSTC 211935Z AUTO 26013KT 10SM CLR 04/M05 A3024 730 50 -300 260/13 RMK AO2
14926KSTC STC20041121134009911/21/04 13:40:31  5-MIN KSTC 211940Z AUTO 27015KT 10SM CLR 04/M06 A3024 730 48 -300 260/15 RMK AO2
14926KSTC STC20041121134509911/21/04 13:45:31  5-MIN KSTC 211945Z AUTO 27014KT 10SM CLR 04/M06 A3024 740 46 -300 260/14 RMK AO2
14926KSTC STC20041121135011611/21/04 13:50:31  5-MIN KSTC 211950Z AUTO 27013KT 10SM CLR 04/M06 A3023 740 48 -300 260/13 RMK AO2 SLP259 T00441056
14926KSTC STC20041121135509911/21/04 13:55:31  5-MIN KSTC 211955Z AUTO 26010KT 10SM CLR 04/M06 A3023 740 48 -300 260/10 RMK AO2
14926KSTC STC20041121140009911/21/04 14:00:31  5-MIN KSTC 212000Z AUTO 26012KT 10SM CLR 04/M06 A3023 740 48 -300 250/12 RMK AO2
14926KSTC STC20041121140509911/21/04 14:05:31  5-MIN KSTC 212005Z AUTO 26009KT 10SM CLR 05/M06 A3023 740 46 -200 260/09 RMK AO2
14926KSTC STC20041121141010511/21/04 14:10:31  5-MIN KSTC 212010Z AUTO 25011G16KT 10SM CLR 05/M06 A3022 750 44 -200 240/11G16 RMK AO2
14926KSTC STC20041121141509911/21/04 14:15:31  5-MIN KSTC 212015Z AUTO 24010KT 10SM CLR 04/M06 A3022 750 46 -300 240/10 RMK AO2
14926KSTC STC20041121142009911/21/04 14:20:31  5-MIN KSTC 212020Z AUTO 24013KT 10SM CLR 05/M06 A3022 750 44 -200 240/13 RMK AO2
14926KSTC STC20041121142509911/21/04 14:25:31  5-MIN KSTC 212025Z AUTO 23015KT 10SM CLR 05/M06 A3022 750 44 -200 230/15 RMK AO2
14926KSTC STC20041121143009911/21/04 14:30:31  5-MIN KSTC 212030Z AUTO 24014KT 10SM CLR 04/M06 A3022 750 46 -300 240/14 RMK AO2
14926KSTC STC20041121143509911/21/04 14:35:31  5-MIN KSTC 212035Z AUTO 25013KT 10SM CLR 04/M07 A3022 750 44 -300 240/13 RMK AO2
14926KSTC STC20041121144009911/21/04 14:40:31  5-MIN KSTC 212040Z AUTO 26011KT 10SM CLR 04/M06 A3022 750 46 -300 250/11 RMK AO2
14926KSTC STC20041121144509911/21/04 14:45:31  5-MIN KSTC 212045Z AUTO 24013KT 10SM CLR 04/M06 A3021 750 46 -300 240/13 RMK AO2
14926KSTC STC20041121145012211/21/04 14:50:31  5-MIN KSTC 212050Z AUTO 23012KT 10SM CLR 04/M06 A3022 750 46 -300 230/12 RMK AO2 SLP252 T00441061 58010
14926KSTC STC20041121145509911/21/04 14:55:31  5-MIN KSTC 212055Z AUTO 25011KT 10SM CLR 04/M06 A3021 760 46 -300 250/11 RMK AO2
14926KSTC STC20041121150009911/21/04 15:00:31  5-MIN KSTC 212100Z AUTO 25010KT 10SM CLR 04/M06 A3021 760 48 -200 250/10 RMK AO2
14926KSTC STC20041121150509911/21/04 15:05:31  5-MIN KSTC 212105Z AUTO 26011KT 10SM CLR 04/M06 A3021 760 46 -200 260/11 RMK AO2
14926KSTC STC20041121151009911/21/04 15:10:31  5-MIN KSTC 212110Z AUTO 26011KT 10SM CLR 04/M06 A3021 760 46 -200 260/11 RMK AO2
14926KSTC STC20041121151509911/21/04 15:15:31  5-MIN KSTC 212115Z AUTO 26012KT 10SM CLR 04/M06 A3021 760 46 -200 260/12 RMK AO2
14926KSTC STC20041121152009911/21/04 15:20:31  5-MIN KSTC 212120Z AUTO 26012KT 10SM CLR 04/M06 A3021 760 46 -200 250/12 RMK AO2
14926KSTC STC20041121152509911/21/04 15:25:31  5-MIN KSTC 212125Z AUTO 26012KT 10SM CLR 04/M06 A3021 760 46 -200 260/12 RMK AO2
14926KSTC STC20041121153009911/21/04 15:30:31  5-MIN KSTC 212130Z AUTO 25012KT 10SM CLR 04/M06 A3021 760 48 -300 240/12 RMK AO2
14926KSTC STC20041121153509911/21/04 15:35:31  5-MIN KSTC 212135Z AUTO 24012KT 10SM CLR 04/M06 A3021 760 48 -300 240/12 RMK AO2
14926KSTC STC20041121154009911/21/04 15:40:31  5-MIN KSTC 212140Z AUTO 25011KT 10SM CLR 04/M06 A3021 760 48 -300 250/11 RMK AO2
14926KSTC STC20041121154509911/21/04 15:45:31  5-MIN KSTC 212145Z AUTO 25011KT 10SM CLR 04/M06 A3021 760 48 -300 240/11 RMK AO2
14926KSTC STC20041121155011611/21/04 15:50:31  5-MIN KSTC 212150Z AUTO 25011KT 10SM CLR 04/M07 A3021 760 46 -300 250/11 RMK AO2 SLP253 T00391067
14926KSTC STC20041121155509911/21/04 15:55:31  5-MIN KSTC 212155Z AUTO 26009KT 10SM CLR 04/M06 A3021 760 48 -300 250/09 RMK AO2
14926KSTC STC20041121160009911/21/04 16:00:31  5-MIN KSTC 212200Z AUTO 26007KT 10SM CLR 03/M06 A3021 760 50 -400 250/07 RMK AO2
14926KSTC STC20041121160509911/21/04 16:05:31  5-MIN KSTC 212205Z AUTO 26008KT 10SM CLR 03/M06 A3021 760 50 -400 260/08 RMK AO2
14926KSTC STC20041121161009911/21/04 16:10:31  5-MIN KSTC 212210Z AUTO 27006KT 10SM CLR 03/M06 A3021 760 50 -400 260/06 RMK AO2
14926KSTC STC20041121161509911/21/04 16:15:31  5-MIN KSTC 212215Z AUTO 25007KT 10SM CLR 03/M06 A3021 760 52 -400 250/07 RMK AO2
14926KSTC STC20041121162009911/21/04 16:20:31  5-MIN KSTC 212220Z AUTO 24006KT 10SM CLR 03/M06 A3020 760 52 -400 240/06 RMK AO2
14926KSTC STC20041121162509911/21/04 16:25:31  5-MIN KSTC 212225Z AUTO 24006KT 10SM CLR 02/M06 A3020 770 56 -500 240/06 RMK AO2
14926KSTC STC20041121163009911/21/04 16:30:31  5-MIN KSTC 212230Z AUTO 24006KT 10SM CLR 02/M06 A3020 770 56 -600 230/06 RMK AO2
14926KSTC STC20041121163509911/21/04 16:35:31  5-MIN KSTC 212235Z AUTO 24004KT 10SM CLR 02/M06 A3020 770 56 -600 230/04 RMK AO2
14926KSTC STC20041121164009911/21/04 16:40:31  5-MIN KSTC 212240Z AUTO 23005KT 10SM CLR 02/M06 A3020 770 56 -600 230/05 RMK AO2
14926KSTC STC20041121164509911/21/04 16:45:31  5-MIN KSTC 212245Z AUTO 22005KT 10SM CLR 02/M06 A3020 770 56 -600 220/05 RMK AO2
14926KSTC STC20041121165011611/21/04 16:50:31  5-MIN KSTC 212250Z AUTO 22007KT 10SM CLR 01/M06 A3020 770 61 -600 220/07 RMK AO2 SLP248 T00111056
14926KSTC STC20041121165509911/21/04 16:55:31  5-MIN KSTC 212255Z AUTO 22008KT 10SM CLR 02/M06 A3020 770 59 -600 220/08 RMK AO2
14926KSTC STC20041121170009911/21/04 17:00:31  5-MIN KSTC 212300Z AUTO 22007KT 10SM CLR 01/M05 A3020 770 64 -600 220/07 RMK AO2
14926KSTC STC20041121170509911/21/04 17:05:31  5-MIN KSTC 212305Z AUTO 22006KT 10SM CLR 01/M04 A3020 770 69 -700 210/06 RMK AO2
14926KSTC STC20041121171009911/21/04 17:10:31  5-MIN KSTC 212310Z AUTO 22007KT 10SM CLR 00/M04 A3020 770 72 -800 220/07 RMK AO2
14926KSTC STC20041121171509911/21/04 17:15:31  5-MIN KSTC 212315Z AUTO 22007KT 10SM CLR 01/M04 A3020 770 69 -700 220/07 RMK AO2
14926KSTC STC20041121172009911/21/04 17:20:31  5-MIN KSTC 212320Z AUTO 22008KT 10SM CLR 01/M04 A3020 770 69 -700 220/08 RMK AO2
14926KSTC STC20041121172509911/21/04 17:25:31  5-MIN KSTC 212325Z AUTO 22008KT 10SM CLR 01/M04 A3020 770 69 -700 220/08 RMK AO2
14926KSTC STC20041121173009911/21/04 17:30:31  5-MIN KSTC 212330Z AUTO 22007KT 10SM CLR 01/M04 A3020 770 69 -700 220/07 RMK AO2
14926KSTC STC20041121173509911/21/04 17:35:31  5-MIN KSTC 212335Z AUTO 23006KT 10SM CLR 01/M04 A3019 770 69 -700 220/06 RMK AO2
14926KSTC STC20041121174009911/21/04 17:40:31  5-MIN KSTC 212340Z AUTO 23006KT 10SM CLR 01/M04 A3019 770 69 -700 220/06 RMK AO2
14926KSTC STC20041121174509911/21/04 17:45:31  5-MIN KSTC 212345Z AUTO 23006KT 10SM CLR 01/M05 A3019 770 64 -600 230/06 RMK AO2
14926KSTC STC20041121175013411/21/04 17:50:31  5-MIN KSTC 212350Z AUTO 23005KT 10SM CLR 01/M05 A3019 780 66 -700 220/05 RMK AO2 SLP246 T00061050 10050 20000 56021
14926KSTC STC20041121175510211/21/04 17:55:31  5-MIN KSTC 212355Z AUTO 22005KT 10SM FEW120 01/M05 A3019 780 66 -700 220/05 RMK AO2
14926KSTC STC20041121180010211/21/04 18:00:31  5-MIN KSTC 220000Z AUTO 21006KT 10SM SCT120 01/M04 A3019 780 69 -700 210/06 RMK AO2
14926KSTC STC20041121180510211/21/04 18:05:31  5-MIN KSTC 220005Z AUTO 21005KT 10SM SCT120 00/M04 A3019 780 72 -800 210/05 RMK AO2
14926KSTC STC20041121181010211/21/04 18:10:31  5-MIN KSTC 220010Z AUTO 21005KT 10SM BKN120 00/M04 A3018 780 72 -800 210/05 RMK AO2
14926KSTC STC20041121181510211/21/04 18:15:31  5-MIN KSTC 220015Z AUTO 22005KT 10SM BKN120 00/M04 A3018 780 72 -800 210/05 RMK AO2
14926KSTC STC20041121182010211/21/04 18:20:31  5-MIN KSTC 220020Z AUTO 21005KT 10SM BKN120 00/M04 A3018 790 72 -800 210/05 RMK AO2
14926KSTC STC20041121182510311/21/04 18:25:31  5-MIN KSTC 220025Z AUTO 20006KT 10SM BKN120 M01/M04 A3018 790 75 -800 190/06 RMK AO2
14926KSTC STC20041121183010311/21/04 18:30:31  5-MIN KSTC 220030Z AUTO 19005KT 10SM BKN120 M01/M04 A3018 790 75 -800 190/05 RMK AO2
14926KSTC STC20041121183510311/21/04 18:35:31  5-MIN KSTC 220035Z AUTO 20006KT 10SM BKN120 M01/M04 A3018 790 75 -800 200/06 RMK AO2
14926KSTC STC20041121184010311/21/04 18:40:31  5-MIN KSTC 220040Z AUTO 20006KT 10SM SCT120 M01/M04 A3018 790 75 -800 200/06 RMK AO2
14926KSTC STC20041121184510311/21/04 18:45:31  5-MIN KSTC 220045Z AUTO 20006KT 10SM SCT120 M01/M04 A3017 790 75 -800 200/06 RMK AO2
14926KSTC STC20041121185012011/21/04 18:50:31  5-MIN KSTC 220050Z AUTO 20006KT 10SM SCT120 M01/M04 A3017 790 81 -900 200/06 RMK AO2 SLP241 T10111039
14926KSTC STC20041121185510311/21/04 18:55:31  5-MIN KSTC 220055Z AUTO 20005KT 10SM BKN120 M01/M04 A3017 790 78 -800 190/05 RMK AO2
14926KSTC STC20041121190010311/21/04 19:00:31  5-MIN KSTC 220100Z AUTO 20005KT 10SM SCT120 M01/M04 A3017 790 78 -900 190/05 RMK AO2
14926KSTC STC20041121190510311/21/04 19:05:31  5-MIN KSTC 220105Z AUTO 20004KT 10SM SCT120 M01/M04 A3017 800 78 -900 190/04 RMK AO2
14926KSTC STC20041121191010311/21/04 19:10:31  5-MIN KSTC 220110Z AUTO 20005KT 10SM FEW120 M01/M04 A3017 800 78 -900 190/05 RMK AO2
14926KSTC STC20041121191510311/21/04 19:15:31  5-MIN KSTC 220115Z AUTO 20006KT 10SM FEW120 M01/M04 A3017 800 78 -900 190/06 RMK AO2
14926KSTC STC20041121192010311/21/04 19:20:31  5-MIN KSTC 220120Z AUTO 19005KT 10SM FEW120 M01/M04 A3016 800 78 -900 190/05 RMK AO2
14926KSTC STC20041121192510011/21/04 19:25:31  5-MIN KSTC 220125Z AUTO 20006KT 10SM CLR M01/M04 A3016 800 78 -900 190/06 RMK AO2
14926KSTC STC20041121193010111/21/04 19:30:31  5-MIN KSTC 220130Z AUTO 20005KT 10SM CLR M02/M04 A3016 800 81 -1000 190/05 RMK AO2
14926KSTC STC20041121193510011/21/04 19:35:31  5-MIN KSTC 220135Z AUTO 20005KT 10SM CLR M01/M04 A3016 800 81 -900 190/05 RMK AO2
14926KSTC STC20041121194010011/21/04 19:40:31  5-MIN KSTC 220140Z AUTO 20006KT 10SM CLR M01/M04 A3016 800 81 -900 200/06 RMK AO2
14926KSTC STC20041121194510011/21/04 19:45:31  5-MIN KSTC 220145Z AUTO 20006KT 10SM CLR M01/M04 A3016 810 81 -900 200/06 RMK AO2
14926KSTC STC20041121195011711/21/04 19:50:31  5-MIN KSTC 220150Z AUTO 20006KT 10SM CLR M01/M04 A3016 810 81 -900 200/06 RMK AO2 SLP235 T10111039
14926KSTC STC20041121195510011/21/04 19:55:31  5-MIN KSTC 220155Z AUTO 19006KT 10SM CLR M01/M04 A3016 810 81 -900 190/06 RMK AO2
14926KSTC STC20041121200010011/21/04 20:00:31  5-MIN KSTC 220200Z AUTO 19005KT 10SM CLR M02/M04 A3015 810 85 -900 180/05 RMK AO2
14926KSTC STC20041121200510011/21/04 20:05:31  5-MIN KSTC 220205Z AUTO 18004KT 10SM CLR M02/M04 A3015 810 85 -900 170/04 RMK AO2
14926KSTC STC20041121201010111/21/04 20:10:31  5-MIN KSTC 220210Z AUTO 17003KT 10SM CLR M02/M04 A3015 810 85 -1000 160/03 RMK AO2
14926KSTC STC20041121201510011/21/04 20:15:31  5-MIN KSTC 220215Z AUTO 18003KT 10SM CLR M01/M04 A3015 810 78 -900 180/03 RMK AO2
14926KSTC STC20041121202010011/21/04 20:20:31  5-MIN KSTC 220220Z AUTO 18004KT 10SM CLR M01/M04 A3015 820 78 -900 180/04 RMK AO2
14926KSTC STC20041121202510011/21/04 20:25:31  5-MIN KSTC 220225Z AUTO 19004KT 10SM CLR M02/M04 A3015 820 81 -900 180/04 RMK AO2
14926KSTC STC20041121203010011/21/04 20:30:31  5-MIN KSTC 220230Z AUTO 18003KT 10SM CLR M02/M04 A3014 820 81 -900 180/03 RMK AO2
14926KSTC STC20041121203510011/21/04 20:35:31  5-MIN KSTC 220235Z AUTO 17003KT 10SM CLR M02/M04 A3014 820 81 -900 170/03 RMK AO2
14926KSTC STC20041121204010011/21/04 20:40:31  5-MIN KSTC 220240Z AUTO 18003KT 10SM CLR M02/M04 A3014 820 81 -900 170/03 RMK AO2
14926KSTC STC20041121204510011/21/04 20:45:31  5-MIN KSTC 220245Z AUTO 18003KT 10SM CLR M02/M04 A3014 820 85 -900 170/03 RMK AO2
14926KSTC STC20041121205012311/21/04 20:50:31  5-MIN KSTC 220250Z AUTO 17004KT 10SM CLR M02/M04 A3014 820 85 -900 170/04 RMK AO2 SLP229 T10171039 58008
14926KSTC STC20041121205510011/21/04 20:55:31  5-MIN KSTC 220255Z AUTO 17003KT 10SM CLR M02/M04 A3014 820 85 -900 170/03 RMK AO2
14926KSTC STC20041121210010011/21/04 21:00:31  5-MIN KSTC 220300Z AUTO 17004KT 10SM CLR M02/M04 A3014 830 85 -900 160/04 RMK AO2
14926KSTC STC20041121210510011/21/04 21:05:31  5-MIN KSTC 220305Z AUTO 18005KT 10SM CLR M02/M04 A3014 830 85 -900 170/05 RMK AO2
14926KSTC STC20041121211010111/21/04 21:10:31  5-MIN KSTC 220310Z AUTO 18006KT 10SM CLR M02/M04 A3013 830 88 -1000 180/06 RMK AO2
14926KSTC STC20041121211510111/21/04 21:15:31  5-MIN KSTC 220315Z AUTO 18006KT 10SM CLR M02/M04 A3013 830 88 -1000 180/06 RMK AO2
14926KSTC STC20041121212010011/21/04 21:20:31  5-MIN KSTC 220320Z AUTO 19006KT 10SM CLR M02/M04 A3013 830 85 -900 190/06 RMK AO2
14926KSTC STC20041121212510011/21/04 21:25:31  5-MIN KSTC 220325Z AUTO 19006KT 10SM CLR M02/M04 A3013 830 85 -900 190/06 RMK AO2
14926KSTC STC20041121213010011/21/04 21:30:31  5-MIN KSTC 220330Z AUTO 19006KT 10SM CLR M02/M04 A3013 830 85 -900 190/06 RMK AO2
14926KSTC STC20041121213510011/21/04 21:35:31  5-MIN KSTC 220335Z AUTO 19007KT 10SM CLR M01/M04 A3013 840 81 -800 190/07 RMK AO2
14926KSTC STC20041121214010011/21/04 21:40:31  5-MIN KSTC 220340Z AUTO 20007KT 10SM CLR M02/M04 A3013 840 85 -900 190/07 RMK AO2
14926KSTC STC20041121214510011/21/04 21:45:31  5-MIN KSTC 220345Z AUTO 20007KT 10SM CLR M02/M04 A3013 840 85 -900 190/07 RMK AO2
14926KSTC STC20041121215011711/21/04 21:50:31  5-MIN KSTC 220350Z AUTO 20007KT 10SM CLR M02/M04 A3012 840 85 -900 190/07 RMK AO2 SLP223 T10171039
14926KSTC STC20041121215510011/21/04 21:55:31  5-MIN KSTC 220355Z AUTO 19007KT 10SM CLR M02/M04 A3012 840 85 -900 190/07 RMK AO2
14926KSTC STC20041121220010011/21/04 22:00:31  5-MIN KSTC 220400Z AUTO 19007KT 10SM CLR M02/M04 A3012 840 85 -900 190/07 RMK AO2
14926KSTC STC20041121220510011/21/04 22:05:31  5-MIN KSTC 220405Z AUTO 20007KT 10SM CLR M02/M04 A3012 840 85 -900 200/07 RMK AO2
14926KSTC STC20041121221010011/21/04 22:10:31  5-MIN KSTC 220410Z AUTO 20008KT 10SM CLR M02/M04 A3012 840 85 -900 200/08 RMK AO2
14926KSTC STC20041121221510011/21/04 22:15:31  5-MIN KSTC 220415Z AUTO 20008KT 10SM CLR M02/M04 A3012 840 85 -900 200/08 RMK AO2
14926KSTC STC20041121222010011/21/04 22:20:31  5-MIN KSTC 220420Z AUTO 20008KT 10SM CLR M02/M04 A3012 850 85 -900 200/08 RMK AO2
14926KSTC STC20041121222510011/21/04 22:25:31  5-MIN KSTC 220425Z AUTO 20008KT 10SM CLR M02/M04 A3012 850 85 -900 200/08 RMK AO2
14926KSTC STC20041121223010011/21/04 22:30:31  5-MIN KSTC 220430Z AUTO 20007KT 10SM CLR M02/M04 A3011 850 85 -900 200/07 RMK AO2
14926KSTC STC20041121223510111/21/04 22:35:31  5-MIN KSTC 220435Z AUTO 20007KT 10SM CLR M02/M04 A3011 850 88 -1000 200/07 RMK AO2
14926KSTC STC20041121224010011/21/04 22:40:31  5-MIN KSTC 220440Z AUTO 20006KT 10SM CLR M02/M04 A3011 850 85 -900 200/06 RMK AO2
14926KSTC STC20041121224510011/21/04 22:45:31  5-MIN KSTC 220445Z AUTO 19006KT 10SM CLR M02/M04 A3011 850 85 -900 190/06 RMK AO2
14926KSTC STC20041121225011711/21/04 22:50:31  5-MIN KSTC 220450Z AUTO 20005KT 10SM CLR M02/M04 A3011 850 85 -900 190/05 RMK AO2 SLP216 T10171039
14926KSTC STC20041121225510011/21/04 22:55:31  5-MIN KSTC 220455Z AUTO 20005KT 10SM CLR M02/M04 A3011 850 81 -900 190/05 RMK AO2
14926KSTC STC20041121230010011/21/04 23:00:31  5-MIN KSTC 220500Z AUTO 19005KT 10SM CLR M02/M04 A3010 860 85 -900 190/05 RMK AO2
14926KSTC STC20041121230510111/21/04 23:05:31  5-MIN KSTC 220505Z AUTO 19006KT 10SM CLR M02/M04 A3010 860 85 -1000 190/06 RMK AO2
14926KSTC STC20041121231010111/21/04 23:10:31  5-MIN KSTC 220510Z AUTO 19006KT 10SM CLR M02/M04 A3010 860 85 -1000 190/06 RMK AO2
14926KSTC STC20041121231510111/21/04 23:15:31  5-MIN KSTC 220515Z AUTO 19006KT 10SM CLR M02/M04 A3010 860 85 -1000 190/06 RMK AO2
14926KSTC STC20041121232010111/21/04 23:20:31  5-MIN KSTC 220520Z AUTO 20006KT 10SM CLR M02/M04 A3010 860 85 -1000 190/06 RMK AO2
14926KSTC STC20041121232510111/21/04 23:25:31  5-MIN KSTC 220525Z AUTO 20006KT 10SM CLR M03/M04 A3010 860 88 -1000 190/06 RMK AO2
14926KSTC STC20041121233010011/21/04 23:30:31  5-MIN KSTC 220530Z AUTO 20005KT 10SM CLR M02/M04 A3010 860 85 -900 190/05 RMK AO2
14926KSTC STC20041121233510011/21/04 23:35:31  5-MIN KSTC 220535Z AUTO 19005KT 10SM CLR M02/M04 A3010 860 85 -900 190/05 RMK AO2
14926KSTC STC20041121234010011/21/04 23:40:31  5-MIN KSTC 220540Z AUTO 19006KT 10SM CLR M02/M04 A3009 870 85 -900 190/06 RMK AO2
14926KSTC STC20041121234510011/21/04 23:45:31  5-MIN KSTC 220545Z AUTO 20005KT 10SM CLR M02/M04 A3009 870 85 -900 190/05 RMK AO2
14926KSTC STC20041121235014511/21/04 23:50:31  5-MIN KSTC 220550Z AUTO 20005KT 10SM CLR M02/M04 A3009 870 85 -900 190/05 RMK AO2 SLP211 T10221044 10006 21028 400501056 56017
14926KSTC STC20041121235510011/21/04 23:55:31  5-MIN KSTC 220555Z AUTO 19005KT 10SM CLR M02/M04 A3009 870 85 -900 190/05 RMK AO2
14926KSTC STC20041122000010011/22/04 00:00:32  5-MIN KSTC 220600Z AUTO 19005KT 10SM CLR M02/M04 A3009 870 85 -900 190/05 RMK AO2
14926KSTC STC20041122000510011/22/04 00:05:31  5-MIN KSTC 220605Z AUTO 20005KT 10SM CLR M02/M04 A3009 870 85 -900 200/05 RMK AO2
14926KSTC STC20041122001010011/22/04 00:10:31  5-MIN KSTC 220610Z AUTO 19006KT 10SM CLR M02/M04 A3008 870 85 -900 190/06 RMK AO2
14926KSTC STC20041122001510011/22/04 00:15:31  5-MIN KSTC 220615Z AUTO 19007KT 10SM CLR M02/M04 A3008 880 85 -900 190/07 RMK AO2
14926KSTC STC20041122002010011/22/04 00:20:31  5-MIN KSTC 220620Z AUTO 19008KT 10SM CLR M02/M04 A3008 880 85 -900 190/08 RMK AO2
14926KSTC STC20041122002510011/22/04 00:25:31  5-MIN KSTC 220625Z AUTO 19008KT 10SM CLR M02/M04 A3008 880 85 -900 190/08 RMK AO2
14926KSTC STC20041122003010011/22/04 00:30:31  5-MIN KSTC 220630Z AUTO 19008KT 10SM CLR M01/M04 A3007 880 81 -800 180/08 RMK AO2
14926KSTC STC20041122003510011/22/04 00:35:31  5-MIN KSTC 220635Z AUTO 19008KT 10SM CLR M01/M04 A3007 890 81 -800 180/08 RMK AO2
14926KSTC STC20041122004010011/22/04 00:40:31  5-MIN KSTC 220640Z AUTO 19008KT 10SM CLR M02/M04 A3007 890 85 -900 180/08 RMK AO2
14926KSTC STC20041122004510011/22/04 00:45:31  5-MIN KSTC 220645Z AUTO 19008KT 10SM CLR M01/M04 A3007 890 81 -800 190/08 RMK AO2
14926KSTC STC20041122005011711/22/04 00:50:31  5-MIN KSTC 220650Z AUTO 19008KT 10SM CLR M02/M04 A3007 890 85 -800 180/08 RMK AO2 SLP203 T10171039
14926KSTC STC20041122005510011/22/04 00:55:31  5-MIN KSTC 220655Z AUTO 19008KT 10SM CLR M02/M04 A3007 890 85 -800 180/08 RMK AO2
14926KSTC STC20041122010010011/22/04 01:00:31  5-MIN KSTC 220700Z AUTO 19008KT 10SM CLR M02/M04 A3007 890 85 -800 190/08 RMK AO2
14926KSTC STC20041122010510011/22/04 01:05:31  5-MIN KSTC 220705Z AUTO 19008KT 10SM CLR M02/M04 A3007 890 85 -800 180/08 RMK AO2
14926KSTC STC20041122011010011/22/04 01:10:31  5-MIN KSTC 220710Z AUTO 19007KT 10SM CLR M02/M04 A3007 890 85 -900 190/07 RMK AO2
14926KSTC STC20041122011510011/22/04 01:15:31  5-MIN KSTC 220715Z AUTO 20006KT 10SM CLR M02/M04 A3007 890 85 -800 190/06 RMK AO2
14926KSTC STC20041122012010011/22/04 01:20:31  5-MIN KSTC 220720Z AUTO 20005KT 10SM CLR M02/M04 A3007 890 85 -800 190/05 RMK AO2
14926KSTC STC20041122012510011/22/04 01:25:31  5-MIN KSTC 220725Z AUTO 20005KT 10SM CLR M02/M04 A3007 890 85 -800 200/05 RMK AO2
14926KSTC STC20041122013010011/22/04 01:30:31  5-MIN KSTC 220730Z AUTO 21005KT 10SM CLR M02/M04 A3007 890 85 -800 200/05 RMK AO2
14926KSTC STC20041122013510011/22/04 01:35:31  5-MIN KSTC 220735Z AUTO 20005KT 10SM CLR M02/M04 A3006 890 88 -900 200/05 RMK AO2
14926KSTC STC20041122014010011/22/04 01:40:31  5-MIN KSTC 220740Z AUTO 20006KT 10SM CLR M02/M04 A3006 890 88 -900 200/06 RMK AO2
14926KSTC STC20041122014510011/22/04 01:45:31  5-MIN KSTC 220745Z AUTO 20006KT 10SM CLR M02/M04 A3006 900 88 -900 200/06 RMK AO2
14926KSTC STC20041122015011711/22/04 01:50:31  5-MIN KSTC 220750Z AUTO 20006KT 10SM CLR M02/M04 A3006 900 85 -800 200/06 RMK AO2 SLP200 T10171039
14926KSTC STC20041122015510011/22/04 01:55:31  5-MIN KSTC 220755Z AUTO 20006KT 10SM CLR M02/M04 A3006 900 85 -800 200/06 RMK AO2
14926KSTC STC20041122020010011/22/04 02:00:31  5-MIN KSTC 220800Z AUTO 20006KT 10SM CLR M02/M04 A3006 900 85 -800 200/06 RMK AO2
14926KSTC STC20041122020510011/22/04 02:05:31  5-MIN KSTC 220805Z AUTO 21006KT 10SM CLR M02/M04 A3006 900 88 -900 200/06 RMK AO2
14926KSTC STC20041122021010311/22/04 02:10:31  5-MIN KSTC 220810Z AUTO 21007KT 10SM FEW060 M02/M04 A3006 900 85 -800 200/07 RMK AO2
14926KSTC STC20041122021510311/22/04 02:15:31  5-MIN KSTC 220815Z AUTO 20007KT 10SM SCT060 M02/M04 A3006 900 85 -800 200/07 RMK AO2
14926KSTC STC20041122022010311/22/04 02:20:31  5-MIN KSTC 220820Z AUTO 20007KT 10SM BKN060 M01/M03 A3006 900 85 -800 200/07 RMK AO2
14926KSTC STC20041122022510311/22/04 02:25:31  5-MIN KSTC 220825Z AUTO 19007KT 10SM BKN060 M01/M03 A3005 900 85 -800 190/07 RMK AO2
14926KSTC STC20041122023010311/22/04 02:30:31  5-MIN KSTC 220830Z AUTO 19007KT 10SM BKN060 M01/M03 A3005 910 85 -800 190/07 RMK AO2
14926KSTC STC20041122023510311/22/04 02:35:31  5-MIN KSTC 220835Z AUTO 19008KT 10SM BKN060 M01/M03 A3005 910 85 -800 190/08 RMK AO2
14926KSTC STC20041122024010311/22/04 02:40:31  5-MIN KSTC 220840Z AUTO 19008KT 10SM SCT060 M01/M03 A3005 910 85 -800 190/08 RMK AO2
14926KSTC STC20041122024510311/22/04 02:45:31  5-MIN KSTC 220845Z AUTO 19009KT 10SM SCT060 M01/M03 A3005 910 85 -700 190/09 RMK AO2
14926KSTC STC20041122025012611/22/04 02:50:31  5-MIN KSTC 220850Z AUTO 19009KT 10SM FEW055 M01/M03 A3004 910 85 -700 180/09 RMK AO2 SLP194 T10111033 56017
14926KSTC STC20041122025510011/22/04 02:55:31  5-MIN KSTC 220855Z AUTO 19008KT 10SM CLR M01/M03 A3004 910 85 -700 190/08 RMK AO2
14926KSTC STC20041122030010011/22/04 03:00:31  5-MIN KSTC 220900Z AUTO 19008KT 10SM CLR M01/M03 A3004 920 85 -700 190/08 RMK AO2
14926KSTC STC20041122030510011/22/04 03:05:31  5-MIN KSTC 220905Z AUTO 19007KT 10SM CLR M01/M03 A3004 920 85 -700 190/07 RMK AO2
14926KSTC STC20041122031010011/22/04 03:10:31  5-MIN KSTC 220910Z AUTO 19007KT 10SM CLR M01/M03 A3003 920 85 -700 190/07 RMK AO2
14926KSTC STC20041122031510011/22/04 03:15:31  5-MIN KSTC 220915Z AUTO 19007KT 10SM CLR M01/M03 A3003 920 85 -700 190/07 RMK AO2
14926KSTC STC20041122032010011/22/04 03:20:31  5-MIN KSTC 220920Z AUTO 19007KT 10SM CLR M02/M03 A3003 930 88 -800 190/07 RMK AO2
14926KSTC STC20041122032510011/22/04 03:25:31  5-MIN KSTC 220925Z AUTO 19008KT 10SM CLR M01/M03 A3002 930 85 -700 190/08 RMK AO2
14926KSTC STC20041122033010011/22/04 03:30:31  5-MIN KSTC 220930Z AUTO 19008KT 10SM CLR M01/M03 A3002 930 85 -700 190/08 RMK AO2
14926KSTC STC20041122033510011/22/04 03:35:31  5-MIN KSTC 220935Z AUTO 19008KT 10SM CLR M01/M03 A3002 940 88 -700 190/08 RMK AO2
14926KSTC STC20041122034010011/22/04 03:40:31  5-MIN KSTC 220940Z AUTO 19008KT 10SM CLR M01/M03 A3002 940 88 -700 190/08 RMK AO2
14926KSTC STC20041122034510011/22/04 03:45:31  5-MIN KSTC 220945Z AUTO 19008KT 10SM CLR M01/M03 A3002 940 88 -700 190/08 RMK AO2
14926KSTC STC20041122035011711/22/04 03:50:31  5-MIN KSTC 220950Z AUTO 20007KT 10SM CLR M01/M03 A3001 940 88 -700 190/07 RMK AO2 SLP183 T10111028
14926KSTC STC20041122035510311/22/04 03:55:31  5-MIN KSTC 220955Z AUTO 19007KT 10SM FEW080 M01/M03 A3001 940 88 -700 190/07 RMK AO2
14926KSTC STC20041122040010311/22/04 04:00:31  5-MIN KSTC 221000Z AUTO 19007KT 10SM FEW080 M01/M03 A3001 950 88 -700 190/07 RMK AO2
14926KSTC STC20041122040510311/22/04 04:05:31  5-MIN KSTC 221005Z AUTO 19007KT 10SM SCT080 M01/M03 A3000 950 88 -700 180/07 RMK AO2
14926KSTC STC20041122041011011/22/04 04:10:31  5-MIN KSTC 221010Z AUTO 18006KT 10SM FEW060 SCT080 M01/M03 A3000 950 88 -700 180/06 RMK AO2
14926KSTC STC20041122041511011/22/04 04:15:31  5-MIN KSTC 221015Z AUTO 18006KT 10SM SCT060 BKN080 M01/M03 A3000 950 88 -700 180/06 RMK AO2
14926KSTC STC20041122042011011/22/04 04:20:31  5-MIN KSTC 221020Z AUTO 18007KT 10SM SCT065 BKN080 M01/M03 A3000 960 88 -700 180/07 RMK AO2
14926KSTC STC20041122042511011/22/04 04:25:31  5-MIN KSTC 221025Z AUTO 18007KT 10SM BKN065 BKN080 M01/M02 A2999 960 92 -700 180/07 RMK AO2
14926KSTC STC20041122043011011/22/04 04:30:31  5-MIN KSTC 221030Z AUTO 18007KT 10SM BKN065 BKN080 M01/M02 A2999 960 88 -600 180/07 RMK AO2
14926KSTC STC20041122043511011/22/04 04:35:31  5-MIN KSTC 221035Z AUTO 18007KT 10SM SCT065 OVC080 M01/M02 A2999 970 88 -600 180/07 RMK AO2
14926KSTC STC20041122044011011/22/04 04:40:31  5-MIN KSTC 221040Z AUTO 19007KT 10SM SCT065 OVC080 M01/M02 A2998 970 88 -600 180/07 RMK AO2
14926KSTC STC20041122044511011/22/04 04:45:31  5-MIN KSTC 221045Z AUTO 19008KT 10SM FEW065 BKN080 M01/M02 A2998 970 88 -600 180/08 RMK AO2
14926KSTC STC20041122045012711/22/04 04:50:31  5-MIN KSTC 221050Z AUTO 18007KT 10SM FEW065 BKN080 M01/M02 A2998 970 88 -600 180/07 RMK AO2 SLP171 T10061022
14926KSTC STC20041122045510311/22/04 04:55:31  5-MIN KSTC 221055Z AUTO 18008KT 10SM BKN080 M01/M02 A2998 970 88 -600 180/08 RMK AO2
14926KSTC STC20041122050010311/22/04 05:00:31  5-MIN KSTC 221100Z AUTO 18008KT 10SM BKN080 M01/M02 A2997 980 88 -600 180/08 RMK AO2
14926KSTC STC20041122050510311/22/04 05:05:31  5-MIN KSTC 221105Z AUTO 19008KT 10SM BKN080 M01/M02 A2997 980 88 -600 180/08 RMK AO2
14926KSTC STC20041122051010311/22/04 05:10:31  5-MIN KSTC 221110Z AUTO 19008KT 10SM BKN080 M01/M02 A2997 980 88 -600 190/08 RMK AO2
14926KSTC STC20041122051510211/22/04 05:15:31  5-MIN KSTC 221115Z AUTO 19008KT 10SM BKN080 00/M02 A2997 980 85 -500 190/08 RMK AO2
14926KSTC STC20041122052010211/22/04 05:20:31  5-MIN KSTC 221120Z AUTO 20007KT 10SM BKN080 00/M02 A2997 980 85 -500 200/07 RMK AO2
14926KSTC STC20041122052510211/22/04 05:25:31  5-MIN KSTC 221125Z AUTO 20008KT 10SM BKN080 00/M02 A2997 980 88 -500 200/08 RMK AO2
14926KSTC STC20041122053010211/22/04 05:30:31  5-MIN KSTC 221130Z AUTO 20008KT 10SM OVC080 00/M02 A2997 980 88 -500 200/08 RMK AO2
14926KSTC STC20041122053510211/22/04 05:35:31  5-MIN KSTC 221135Z AUTO 20008KT 10SM OVC080 00/M02 A2996 990 88 -500 190/08 RMK AO2
14926KSTC STC20041122054010211/22/04 05:40:31  5-MIN KSTC 221140Z AUTO 20008KT 10SM OVC075 00/M02 A2996 990 88 -500 200/08 RMK AO2
14926KSTC STC20041122054510211/22/04 05:45:31  5-MIN KSTC 221145Z AUTO 20008KT 10SM OVC075 01/M01 A2996 990 89 -400 200/08 RMK AO2
14926KSTC STC20041122055013711/22/04 05:50:31  5-MIN KSTC 221150Z AUTO 20008KT 10SM OVC075 01/M01 A2996 990 89 -400 200/08 RMK AO2 SLP165 T00061011 10006 21022 57016
14926KSTC STC20041122055510211/22/04 05:55:31  5-MIN KSTC 221155Z AUTO 20008KT 10SM OVC070 01/M01 A2996 990 89 -400 200/08 RMK AO2
14926KSTC STC20041122060010211/22/04 06:00:31  5-MIN KSTC 221200Z AUTO 20008KT 10SM OVC070 01/M01 A2996 990 89 -400 200/08 RMK AO2
14926KSTC STC20041122060510311/22/04 06:05:31  5-MIN KSTC 221205Z AUTO 20008KT 10SM OVC070 01/M01 A2995 1000 89 -400 200/08 RMK AO2
14926KSTC STC20041122061010311/22/04 06:10:31  5-MIN KSTC 221210Z AUTO 20009KT 10SM OVC070 01/M01 A2995 1000 89 -400 190/09 RMK AO2
14926KSTC STC20041122061510311/22/04 06:15:31  5-MIN KSTC 221215Z AUTO 20010KT 10SM OVC070 01/M01 A2995 1000 85 -400 200/10 RMK AO2
14926KSTC STC20041122062010311/22/04 06:20:31  5-MIN KSTC 221220Z AUTO 20008KT 10SM OVC070 01/M01 A2995 1000 85 -400 200/08 RMK AO2
14926KSTC STC20041122062510311/22/04 06:25:31  5-MIN KSTC 221225Z AUTO 20009KT 10SM OVC070 01/M01 A2995 1000 85 -400 200/09 RMK AO2
14926KSTC STC20041122063010311/22/04 06:30:31  5-MIN KSTC 221230Z AUTO 20008KT 10SM OVC070 01/M01 A2994 1010 85 -400 200/08 RMK AO2
14926KSTC STC20041122063510311/22/04 06:35:31  5-MIN KSTC 221235Z AUTO 20009KT 10SM OVC070 01/M01 A2994 1010 85 -400 190/09 RMK AO2
14926KSTC STC20041122064010311/22/04 06:40:31  5-MIN KSTC 221240Z AUTO 20010KT 10SM OVC070 01/M01 A2994 1010 85 -300 200/10 RMK AO2
14926KSTC STC20041122064510311/22/04 06:45:31  5-MIN KSTC 221245Z AUTO 20009KT 10SM OVC070 01/M01 A2994 1010 85 -300 190/09 RMK AO2
14926KSTC STC20041122065012011/22/04 06:50:31  5-MIN KSTC 221250Z AUTO 20009KT 10SM OVC070 01/M01 A2994 1010 85 -300 200/09 RMK AO2 SLP158 T00111011
14926KSTC STC20041122065510311/22/04 06:55:31  5-MIN KSTC 221255Z AUTO 20009KT 10SM OVC070 01/M01 A2993 1010 85 -300 200/09 RMK AO2
14926KSTC STC20041122070010311/22/04 07:00:31  5-MIN KSTC 221300Z AUTO 21010KT 10SM BKN070 01/M01 A2993 1010 89 -400 200/10 RMK AO2
14926KSTC STC20041122070510311/22/04 07:05:31  5-MIN KSTC 221305Z AUTO 20009KT 10SM BKN070 01/M01 A2993 1020 89 -400 200/09 RMK AO2
14926KSTC STC20041122071010311/22/04 07:10:31  5-MIN KSTC 221310Z AUTO 20009KT 10SM SCT070 01/M01 A2993 1020 89 -400 200/09 RMK AO2
14926KSTC STC20041122071510311/22/04 07:15:31  5-MIN KSTC 221315Z AUTO 20009KT 10SM SCT070 01/M01 A2993 1020 89 -400 200/09 RMK AO2
14926KSTC STC20041122072010311/22/04 07:20:31  5-MIN KSTC 221320Z AUTO 20009KT 10SM FEW070 01/M01 A2993 1020 89 -400 200/09 RMK AO2
14926KSTC STC20041122072510311/22/04 07:25:31  5-MIN KSTC 221325Z AUTO 20009KT 10SM FEW065 01/M01 A2993 1020 89 -400 200/09 RMK AO2
14926KSTC STC20041122073010011/22/04 07:30:31  5-MIN KSTC 221330Z AUTO 20008KT 10SM CLR 00/M01 A2993 1020 92 -500 200/08 RMK AO2
14926KSTC STC20041122073510011/22/04 07:35:31  5-MIN KSTC 221335Z AUTO 20008KT 10SM CLR 00/M02 A2993 1020 88 -500 200/08 RMK AO2
14926KSTC STC20041122074010011/22/04 07:40:31  5-MIN KSTC 221340Z AUTO 20007KT 10SM CLR 00/M02 A2993 1020 88 -500 200/07 RMK AO2
14926KSTC STC20041122074510011/22/04 07:45:31  5-MIN KSTC 221345Z AUTO 20008KT 10SM CLR 00/M02 A2993 1020 88 -500 200/08 RMK AO2
14926KSTC STC20041122075011711/22/04 07:50:31  5-MIN KSTC 221350Z AUTO 20008KT 10SM CLR 00/M02 A2992 1020 88 -500 190/08 RMK AO2 SLP154 T00001017
14926KSTC STC20041122075510011/22/04 07:55:31  5-MIN KSTC 221355Z AUTO 20007KT 10SM CLR 00/M01 A2992 1020 92 -500 190/07 RMK AO2
14926KSTC STC20041122080009911/22/04 08:00:31  5-MIN KSTC 221400Z AUTO 19008KT 9SM CLR 00/M01 A2992 1030 92 -500 190/08 RMK AO2
14926KSTC STC20041122080510011/22/04 08:05:31  5-MIN KSTC 221405Z AUTO 19010KT 10SM CLR 01/M01 A2992 1030 89 -400 190/10 RMK AO2
14926KSTC STC20041122081010011/22/04 08:10:31  5-MIN KSTC 221410Z AUTO 19010KT 10SM CLR 01/M01 A2992 1030 89 -400 180/10 RMK AO2
14926KSTC STC20041122081510011/22/04 08:15:31  5-MIN KSTC 221415Z AUTO 19009KT 10SM CLR 01/M01 A2991 1030 89 -400 180/09 RMK AO2
14926KSTC STC20041122082010011/22/04 08:20:31  5-MIN KSTC 221420Z AUTO 18010KT 10SM CLR 01/M01 A2991 1030 92 -400 180/10 RMK AO2
14926KSTC STC20041122082510011/22/04 08:25:31  5-MIN KSTC 221425Z AUTO 18009KT 10SM CLR 01/M01 A2991 1040 89 -300 180/09 RMK AO2
14926KSTC STC20041122083010011/22/04 08:30:31  5-MIN KSTC 221430Z AUTO 18009KT 10SM CLR 01/M01 A2991 1030 89 -300 180/09 RMK AO2
14926KSTC STC20041122083510011/22/04 08:35:31  5-MIN KSTC 221435Z AUTO 18008KT 10SM CLR 01/M01 A2991 1030 89 -300 180/08 RMK AO2
14926KSTC STC20041122084010011/22/04 08:40:31  5-MIN KSTC 221440Z AUTO 19007KT 10SM CLR 01/M01 A2991 1030 89 -300 190/07 RMK AO2
14926KSTC STC20041122084510011/22/04 08:45:31  5-MIN KSTC 221445Z AUTO 19008KT 10SM CLR 02/M01 A2991 1040 85 -200 190/08 RMK AO2
14926KSTC STC20041122085012211/22/04 08:50:31  5-MIN KSTC 221450Z AUTO 19008KT 10SM CLR 02/00 A2991 1040 89 -200 190/08 RMK AO2 SLP148 T00170000 56027
14926KSTC STC20041122085509911/22/04 08:55:31  5-MIN KSTC 221455Z AUTO 19010KT 10SM CLR 02/00 A2991 1040 89 -200 190/10 RMK AO2
14926KSTC STC20041122090009911/22/04 09:00:31  5-MIN KSTC 221500Z AUTO 20011KT 10SM CLR 02/00 A2991 1040 89 -200 190/11 RMK AO2
14926KSTC STC20041122090509911/22/04 09:05:31  5-MIN KSTC 221505Z AUTO 20009KT 10SM CLR 02/00 A2991 1040 85 -200 190/09 RMK AO2
14926KSTC STC20041122091009911/22/04 09:10:31  5-MIN KSTC 221510Z AUTO 20010KT 10SM CLR 02/00 A2991 1040 85 -200 190/10 RMK AO2
14926KSTC STC20041122091509911/22/04 09:15:31  5-MIN KSTC 221515Z AUTO 20010KT 10SM CLR 02/00 A2991 1040 85 -200 190/10 RMK AO2
14926KSTC STC20041122092009911/22/04 09:20:31  5-MIN KSTC 221520Z AUTO 20011KT 10SM CLR 02/01 A2991 1040 89 -200 190/11 RMK AO2
14926KSTC STC20041122092509911/22/04 09:25:31  5-MIN KSTC 221525Z AUTO 20011KT 10SM CLR 02/00 A2991 1040 85 -200 200/11 RMK AO2
14926KSTC STC20041122093009911/22/04 09:30:31  5-MIN KSTC 221530Z AUTO 20010KT 10SM CLR 02/01 A2991 1040 89 -200 200/10 RMK AO2
14926KSTC STC20041122093509911/22/04 09:35:31  5-MIN KSTC 221535Z AUTO 20010KT 10SM CLR 03/01 A2990 1040 85 -100 200/10 RMK AO2
14926KSTC STC20041122094009911/22/04 09:40:31  5-MIN KSTC 221540Z AUTO 20010KT 10SM CLR 03/01 A2990 1040 85 -100 200/10 RMK AO2
14926KSTC STC20041122094509811/22/04 09:45:31  5-MIN KSTC 221545Z AUTO 20013KT 9SM CLR 03/01 A2990 1040 85 -100 200/13 RMK AO2
14926KSTC STC20041122095011511/22/04 09:50:31  5-MIN KSTC 221550Z AUTO 20012KT 9SM FEW016 03/01 A2990 1050 85 0 200/12 RMK AO2 SLP144 T00330011
14926KSTC STC20041122095509811/22/04 09:55:31  5-MIN KSTC 221555Z AUTO 21013KT 9SM FEW016 03/01 A2990 1050 85 0 210/13 RMK AO2
14926KSTC STC20041122100009811/22/04 10:00:31  5-MIN KSTC 221600Z AUTO 21012KT 9SM FEW016 03/01 A2990 1050 85 0 200/12 RMK AO2
14926KSTC STC20041122100509811/22/04 10:05:31  5-MIN KSTC 221605Z AUTO 21012KT 9SM FEW016 04/01 A2990 1050 82 0 200/12 RMK AO2
14926KSTC STC20041122101009811/22/04 10:10:31  5-MIN KSTC 221610Z AUTO 21016KT 9SM SCT016 04/01 A2990 1050 82 0 200/16 RMK AO2
14926KSTC STC20041122101509811/22/04 10:15:31  5-MIN KSTC 221615Z AUTO 21013KT 9SM SCT016 04/01 A2990 1050 82 0 210/13 RMK AO2
14926KSTC STC20041122102009811/22/04 10:20:31  5-MIN KSTC 221620Z AUTO 21011KT 9SM SCT016 04/01 A2990 1050 82 0 210/11 RMK AO2
14926KSTC STC20041122102510011/22/04 10:25:31  5-MIN KSTC 221625Z AUTO 21013KT 9SM SCT016 04/01 A2990 1050 79 100 200/13 RMK AO2
14926KSTC STC20041122103010011/22/04 10:30:31  5-MIN KSTC 221630Z AUTO 21010KT 9SM SCT018 04/01 A2990 1050 79 100 210/10 RMK AO2
14926KSTC STC20041122103510611/22/04 10:35:31  5-MIN KSTC 221635Z AUTO 22013G17KT 9SM SCT018 04/02 A2989 1050 82 100 220/13G17 RMK AO2
14926KSTC STC20041122104010711/22/04 10:40:31  5-MIN KSTC 221640Z AUTO 22011G17KT 10SM FEW018 04/01 A2989 1050 79 100 220/11G17 RMK AO2
14926KSTC STC20041122104510111/22/04 10:45:31  5-MIN KSTC 221645Z AUTO 22010KT 10SM SCT018 05/02 A2989 1050 79 100 220/10 RMK AO2
14926KSTC STC20041122105011711/22/04 10:50:31  5-MIN KSTC 221650Z AUTO 22016KT 9SM BKN018 04/01 A2989 1060 79 100 210/16 RMK AO2 SLP140 T00440011
14926KSTC STC20041122105509811/22/04 10:55:31  5-MIN KSTC 221655Z AUTO 22013KT 9SM BKN018 04/01 A2988 1060 82 0 210/13 RMK AO2
14926KSTC STC20041122110009811/22/04 11:00:31  5-MIN KSTC 221700Z AUTO 22012KT 9SM BKN018 04/01 A2988 1060 82 0 220/12 RMK AO2
14926KSTC STC20041122110510011/22/04 11:05:31  5-MIN KSTC 221705Z AUTO 22013KT 9SM BKN018 04/01 A2988 1060 79 100 220/13 RMK AO2
14926KSTC STC20041122111009811/22/04 11:10:31  5-MIN KSTC 221710Z AUTO 22014KT 9SM BKN018 04/01 A2988 1070 82 0 210/14 RMK AO2
14926KSTC STC20041122111509811/22/04 11:15:31  5-MIN KSTC 221715Z AUTO 22016KT 9SM BKN018 04/01 A2987 1070 82 0 210/16 RMK AO2
14926KSTC STC20041122112010011/22/04 11:20:31  5-MIN KSTC 221720Z AUTO 21014KT 8SM BKN018 04/02 A2987 1070 82 100 210/14 RMK AO2
14926KSTC STC20041122112510011/22/04 11:25:31  5-MIN KSTC 221725Z AUTO 21017KT 9SM BKN018 05/01 A2987 1080 76 200 210/17 RMK AO2
14926KSTC STC20041122113010011/22/04 11:30:31  5-MIN KSTC 221730Z AUTO 21014KT 9SM BKN018 05/02 A2986 1080 79 200 210/14 RMK AO2
14926KSTC STC20041122113510011/22/04 11:35:31  5-MIN KSTC 221735Z AUTO 21016KT 9SM SCT018 05/01 A2986 1080 76 200 210/16 RMK AO2
14926KSTC STC20041122114010011/22/04 11:40:31  5-MIN KSTC 221740Z AUTO 21013KT 9SM SCT018 05/02 A2986 1080 79 200 210/13 RMK AO2
14926KSTC STC20041122114510011/22/04 11:45:31  5-MIN KSTC 221745Z AUTO 22015KT 9SM FEW018 06/01 A2985 1090 73 300 220/15 RMK AO2
14926KSTC STC20041122115013511/22/04 11:50:31  5-MIN KSTC 221750Z AUTO 22015KT 9SM FEW018 05/01 A2985 1090 76 200 210/15 RMK AO2 SLP128 T00500011 10056 20000 56017
14926KSTC STC20041122115509811/22/04 11:55:31  5-MIN KSTC 221755Z AUTO 22013KT 10SM CLR 05/01 A2985 1090 76 200 210/13 RMK AO2
14926KSTC STC20041122120009811/22/04 12:00:31  5-MIN KSTC 221800Z AUTO 22014KT 10SM CLR 06/02 A2984 1100 76 300 220/14 RMK AO2
14926KSTC STC20041122120509811/22/04 12:05:31  5-MIN KSTC 221805Z AUTO 23012KT 10SM CLR 06/02 A2984 1100 73 300 220/12 RMK AO2
14926KSTC STC20041122121010111/22/04 12:10:31  5-MIN KSTC 221810Z AUTO 22013KT 10SM FEW022 06/02 A2984 1100 73 300 220/13 RMK AO2
14926KSTC STC20041122121510111/22/04 12:15:31  5-MIN KSTC 221815Z AUTO 23013KT 10SM FEW022 06/02 A2983 1110 73 300 230/13 RMK AO2
14926KSTC STC20041122122010111/22/04 12:20:31  5-MIN KSTC 221820Z AUTO 21014KT 10SM FEW022 06/02 A2983 1110 73 300 210/14 RMK AO2
14926KSTC STC20041122122510711/22/04 12:25:31  5-MIN KSTC 221825Z AUTO 20016G20KT 10SM FEW022 06/02 A2982 1120 73 400 200/16G20 RMK AO2
14926KSTC STC20041122123010111/22/04 12:30:31  5-MIN KSTC 221830Z AUTO 20016KT 10SM FEW022 06/02 A2982 1120 73 400 190/16 RMK AO2
14926KSTC STC20041122123510111/22/04 12:35:31  5-MIN KSTC 221835Z AUTO 20015KT 10SM FEW022 06/02 A2982 1120 73 400 200/15 RMK AO2
14926KSTC STC20041122124010111/22/04 12:40:31  5-MIN KSTC 221840Z AUTO 19016KT 10SM FEW022 07/02 A2982 1120 70 400 190/16 RMK AO2
14926KSTC STC20041122124510111/22/04 12:45:31  5-MIN KSTC 221845Z AUTO 19015KT 10SM FEW024 06/02 A2982 1120 73 400 190/15 RMK AO2
14926KSTC STC20041122125011811/22/04 12:50:31  5-MIN KSTC 221850Z AUTO 20015KT 10SM FEW024 06/01 A2981 1130 70 400 200/15 RMK AO2 SLP114 T00610011
14926KSTC STC20041122125510111/22/04 12:55:31  5-MIN KSTC 221855Z AUTO 20015KT 10SM FEW024 06/02 A2981 1130 73 400 200/15 RMK AO2
14926KSTC STC20041122130010111/22/04 13:00:31  5-MIN KSTC 221900Z AUTO 21016KT 10SM FEW024 07/02 A2981 1130 70 400 200/16 RMK AO2
14926KSTC STC20041122130510111/22/04 13:05:31  5-MIN KSTC 221905Z AUTO 20014KT 10SM FEW024 07/02 A2981 1130 70 400 200/14 RMK AO2
14926KSTC STC20041122131010111/22/04 13:10:31  5-MIN KSTC 221910Z AUTO 20014KT 10SM FEW024 06/02 A2980 1130 73 400 200/14 RMK AO2
14926KSTC STC20041122131510111/22/04 13:15:31  5-MIN KSTC 221915Z AUTO 20013KT 10SM FEW024 06/02 A2980 1140 73 400 200/13 RMK AO2
14926KSTC STC20041122132010111/22/04 13:20:31  5-MIN KSTC 221920Z AUTO 20012KT 10SM FEW024 06/02 A2980 1140 73 400 200/12 RMK AO2
14926KSTC STC20041122132510111/22/04 13:25:31  5-MIN KSTC 221925Z AUTO 20015KT 10SM FEW024 06/02 A2979 1150 73 400 200/15 RMK AO2
14926KSTC STC20041122133010111/22/04 13:30:31  5-MIN KSTC 221930Z AUTO 20014KT 10SM FEW024 07/02 A2979 1150 70 500 190/14 RMK AO2
14926KSTC STC20041122133510111/22/04 13:35:31  5-MIN KSTC 221935Z AUTO 20016KT 10SM FEW024 07/02 A2978 1150 70 500 200/16 RMK AO2
14926KSTC STC20041122134010111/22/04 13:40:31  5-MIN KSTC 221940Z AUTO 20016KT 10SM FEW024 07/02 A2978 1160 70 500 190/16 RMK AO2
14926KSTC STC20041122134510111/22/04 13:45:31  5-MIN KSTC 221945Z AUTO 21014KT 10SM FEW024 07/02 A2978 1150 70 500 210/14 RMK AO2
14926KSTC STC20041122135011511/22/04 13:50:31  5-MIN KSTC 221950Z AUTO 19015KT 10SM CLR 07/02 A2978 1160 70 500 190/15 RMK AO2 SLP102 T00720022
14926KSTC STC20041122135510111/22/04 13:55:31  5-MIN KSTC 221955Z AUTO 21013KT 10SM FEW026 07/02 A2978 1160 70 500 210/13 RMK AO2
14926KSTC STC20041122140010111/22/04 14:00:31  5-MIN KSTC 222000Z AUTO 21015KT 10SM SCT026 07/02 A2978 1160 70 500 210/15 RMK AO2
14926KSTC STC20041122140510111/22/04 14:05:31  5-MIN KSTC 222005Z AUTO 20014KT 10SM BKN026 07/02 A2978 1160 70 500 200/14 RMK AO2
14926KSTC STC20041122141010111/22/04 14:10:31  5-MIN KSTC 222010Z AUTO 21015KT 10SM BKN026 07/02 A2978 1160 70 500 210/15 RMK AO2
14926KSTC STC20041122141510111/22/04 14:15:31  5-MIN KSTC 222015Z AUTO 21013KT 10SM BKN028 07/02 A2977 1160 73 500 210/13 RMK AO2
14926KSTC STC20041122142010111/22/04 14:20:31  5-MIN KSTC 222020Z AUTO 21012KT 10SM OVC028 07/02 A2977 1170 73 500 200/12 RMK AO2
14926KSTC STC20041122142510111/22/04 14:25:31  5-MIN KSTC 222025Z AUTO 20013KT 10SM OVC028 07/02 A2977 1170 73 500 200/13 RMK AO2
14926KSTC STC20041122143010111/22/04 14:30:31  5-MIN KSTC 222030Z AUTO 20016KT 10SM OVC028 07/02 A2977 1170 73 500 200/16 RMK AO2
14926KSTC STC20041122143510111/22/04 14:35:31  5-MIN KSTC 222035Z AUTO 20016KT 10SM OVC028 07/02 A2976 1170 73 500 190/16 RMK AO2
14926KSTC STC20041122144010111/22/04 14:40:31  5-MIN KSTC 222040Z AUTO 20015KT 10SM OVC028 07/02 A2976 1170 73 500 190/15 RMK AO2
14926KSTC STC20041122144510111/22/04 14:45:31  5-MIN KSTC 222045Z AUTO 20014KT 10SM OVC028 07/02 A2976 1170 73 500 200/14 RMK AO2
14926KSTC STC20041122145012411/22/04 14:50:31  5-MIN KSTC 222050Z AUTO 20013KT 10SM OVC028 07/02 A2976 1180 73 500 190/13 RMK AO2 SLP095 T00670022 58019
14926KSTC STC20041122145510111/22/04 14:55:31  5-MIN KSTC 222055Z AUTO 20013KT 10SM OVC028 07/02 A2976 1180 73 500 190/13 RMK AO2
14926KSTC STC20041122150010111/22/04 15:00:31  5-MIN KSTC 222100Z AUTO 20012KT 10SM OVC028 07/02 A2975 1180 73 500 200/12 RMK AO2
14926KSTC STC20041122150510111/22/04 15:05:31  5-MIN KSTC 222105Z AUTO 20013KT 10SM OVC028 07/02 A2975 1180 73 500 200/13 RMK AO2
14926KSTC STC20041122151010111/22/04 15:10:31  5-MIN KSTC 222110Z AUTO 20016KT 10SM OVC028 07/02 A2975 1180 73 500 200/16 RMK AO2
14926KSTC STC20041122151510111/22/04 15:15:31  5-MIN KSTC 222115Z AUTO 20016KT 10SM OVC028 07/02 A2975 1180 73 500 200/16 RMK AO2
14926KSTC STC20041122152010111/22/04 15:20:31  5-MIN KSTC 222120Z AUTO 20014KT 10SM OVC028 07/02 A2976 1180 73 500 200/14 RMK AO2
14926KSTC STC20041122152510111/22/04 15:25:31  5-MIN KSTC 222125Z AUTO 20012KT 10SM OVC028 07/02 A2976 1180 73 500 200/12 RMK AO2
14926KSTC STC20041122153010111/22/04 15:30:31  5-MIN KSTC 222130Z AUTO 20013KT 10SM OVC028 07/02 A2976 1180 73 500 200/13 RMK AO2
14926KSTC STC20041122153510111/22/04 15:35:31  5-MIN KSTC 222135Z AUTO 21016KT 10SM OVC028 07/02 A2975 1180 73 500 200/16 RMK AO2
14926KSTC STC20041122154010111/22/04 15:40:31  5-MIN KSTC 222140Z AUTO 20012KT 10SM OVC030 07/02 A2975 1190 73 500 200/12 RMK AO2
14926KSTC STC20041122154510111/22/04 15:45:31  5-MIN KSTC 222145Z AUTO 20012KT 10SM OVC030 07/02 A2974 1190 73 500 190/12 RMK AO2
14926KSTC STC20041122155012511/22/04 15:50:31  5-MIN KSTC 222150Z AUTO 20016KT 10SM BKN030 OVC034 07/02 A2974 1190 73 500 200/16 RMK AO2 SLP090 T00670022
14926KSTC STC20041122155510111/22/04 15:55:31  5-MIN KSTC 222155Z AUTO 20015KT 10SM OVC030 07/02 A2974 1190 73 500 200/15 RMK AO2
14926KSTC STC20041122160010111/22/04 16:00:31  5-MIN KSTC 222200Z AUTO 20014KT 10SM OVC032 07/02 A2975 1190 73 500 200/14 RMK AO2
14926KSTC STC20041122160510111/22/04 16:05:31  5-MIN KSTC 222205Z AUTO 20013KT 10SM OVC032 07/02 A2974 1190 73 500 200/13 RMK AO2
14926KSTC STC20041122161010811/22/04 16:10:31  5-MIN KSTC 222210Z AUTO 20013KT 10SM FEW026 OVC032 07/02 A2974 1190 73 500 200/13 RMK AO2
14926KSTC STC20041122161510111/22/04 16:15:31  5-MIN KSTC 222215Z AUTO 20011KT 10SM OVC032 07/02 A2974 1190 73 500 190/11 RMK AO2
14926KSTC STC20041122162010111/22/04 16:20:31  5-MIN KSTC 222220Z AUTO 19012KT 10SM OVC032 06/02 A2974 1190 76 400 190/12 RMK AO2
14926KSTC STC20041122162510111/22/04 16:25:31  5-MIN KSTC 222225Z AUTO 19012KT 10SM OVC032 06/02 A2974 1190 76 400 190/12 RMK AO2
14926KSTC STC20041122163010811/22/04 16:30:31  5-MIN KSTC 222230Z AUTO 19013KT 10SM FEW027 OVC032 06/02 A2974 1200 76 500 190/13 RMK AO2
14926KSTC STC20041122163510111/22/04 16:35:31  5-MIN KSTC 222235Z AUTO 19011KT 10SM OVC032 06/02 A2974 1200 76 500 190/11 RMK AO2
14926KSTC STC20041122164010111/22/04 16:40:31  5-MIN KSTC 222240Z AUTO 19011KT 10SM OVC032 06/02 A2973 1200 76 500 180/11 RMK AO2
14926KSTC STC20041122164510111/22/04 16:45:31  5-MIN KSTC 222245Z AUTO 19011KT 10SM OVC032 06/02 A2973 1200 76 500 190/11 RMK AO2
14926KSTC STC20041122165011811/22/04 16:50:31  5-MIN KSTC 222250Z AUTO 18009KT 10SM BKN032 06/02 A2973 1200 76 500 180/09 RMK AO2 SLP086 T00610022
14926KSTC STC20041122165510111/22/04 16:55:31  5-MIN KSTC 222255Z AUTO 18009KT 10SM BKN032 06/02 A2973 1200 76 500 180/09 RMK AO2
14926KSTC STC20041122170010111/22/04 17:00:31  5-MIN KSTC 222300Z AUTO 19009KT 10SM BKN030 06/02 A2974 1200 76 500 180/09 RMK AO2
14926KSTC STC20041122170510111/22/04 17:05:31  5-MIN KSTC 222305Z AUTO 18010KT 10SM BKN030 06/02 A2973 1200 76 500 180/10 RMK AO2
14926KSTC STC20041122171010111/22/04 17:10:31  5-MIN KSTC 222310Z AUTO 19009KT 10SM BKN028 06/02 A2974 1200 76 500 180/09 RMK AO2
14926KSTC STC20041122171510111/22/04 17:15:31  5-MIN KSTC 222315Z AUTO 19010KT 10SM OVC028 06/02 A2974 1200 79 400 180/10 RMK AO2
14926KSTC STC20041122172010111/22/04 17:20:31  5-MIN KSTC 222320Z AUTO 19009KT 10SM OVC028 06/02 A2974 1200 79 400 190/09 RMK AO2
14926KSTC STC20041122172510111/22/04 17:25:31  5-MIN KSTC 222325Z AUTO 19010KT 10SM OVC028 06/02 A2974 1200 79 400 190/10 RMK AO2
14926KSTC STC20041122173010111/22/04 17:30:31  5-MIN KSTC 222330Z AUTO 19009KT 10SM OVC028 05/02 A2974 1200 82 300 190/09 RMK AO2
14926KSTC STC20041122173510111/22/04 17:35:31  5-MIN KSTC 222335Z AUTO 18010KT 10SM BKN028 05/02 A2974 1200 79 300 180/10 RMK AO2
14926KSTC STC20041122174010111/22/04 17:40:31  5-MIN KSTC 222340Z AUTO 18009KT 10SM BKN028 05/02 A2974 1200 79 300 180/09 RMK AO2
14926KSTC STC20041122174510111/22/04 17:45:31  5-MIN KSTC 222345Z AUTO 18010KT 10SM SCT028 04/02 A2973 1200 82 300 180/10 RMK AO2
14926KSTC STC20041122175013611/22/04 17:50:31  5-MIN KSTC 222350Z AUTO 18009KT 10SM FEW028 04/02 A2973 1200 82 300 170/09 RMK AO2 SLP086 T00440017 10072 20044 56031
14926KSTC STC20041122175510111/22/04 17:55:31  5-MIN KSTC 222355Z AUTO 17009KT 10SM FEW028 04/02 A2973 1210 82 300 170/09 RMK AO2
14926KSTC STC20041122180009811/22/04 18:00:31  5-MIN KSTC 230000Z AUTO 17009KT 10SM CLR 04/02 A2972 1210 85 200 160/09 RMK AO2
14926KSTC STC20041122180509811/22/04 18:05:31  5-MIN KSTC 230005Z AUTO 16009KT 10SM CLR 04/02 A2972 1210 85 200 160/09 RMK AO2
14926KSTC STC20041122181009711/22/04 18:10:31  5-MIN KSTC 230010Z AUTO 17008KT 9SM CLR 04/02 A2973 1210 85 200 160/08 RMK AO2
14926KSTC STC20041122181509711/22/04 18:15:31  5-MIN KSTC 230015Z AUTO 17008KT 9SM CLR 04/02 A2973 1200 85 200 170/08 RMK AO2
14926KSTC STC20041122182009711/22/04 18:20:31  5-MIN KSTC 230020Z AUTO 17008KT 9SM CLR 03/02 A2973 1200 89 100 170/08 RMK AO2
14926KSTC STC20041122182509711/22/04 18:25:31  5-MIN KSTC 230025Z AUTO 17009KT 9SM CLR 03/02 A2973 1210 89 100 170/09 RMK AO2
14926KSTC STC20041122183009711/22/04 18:30:31  5-MIN KSTC 230030Z AUTO 17009KT 9SM CLR 04/02 A2973 1210 85 200 170/09 RMK AO2
14926KSTC STC20041122183509711/22/04 18:35:31  5-MIN KSTC 230035Z AUTO 17009KT 9SM CLR 04/02 A2973 1210 85 200 170/09 RMK AO2
14926KSTC STC20041122184009711/22/04 18:40:31  5-MIN KSTC 230040Z AUTO 17010KT 9SM CLR 04/02 A2972 1210 85 200 170/10 RMK AO2
14926KSTC STC20041122184509711/22/04 18:45:31  5-MIN KSTC 230045Z AUTO 17010KT 9SM CLR 04/02 A2972 1210 85 200 170/10 RMK AO2
14926KSTC STC20041122185011411/22/04 18:50:31  5-MIN KSTC 230050Z AUTO 18010KT 9SM CLR 04/02 A2972 1220 85 200 170/10 RMK AO2 SLP081 T00390017
14926KSTC STC20041122185509711/22/04 18:55:31  5-MIN KSTC 230055Z AUTO 18010KT 9SM CLR 04/02 A2972 1220 85 200 170/10 RMK AO2
14926KSTC STC20041122190009711/22/04 19:00:31  5-MIN KSTC 230100Z AUTO 18010KT 9SM CLR 04/02 A2971 1220 85 200 170/10 RMK AO2
14926KSTC STC20041122190509711/22/04 19:05:31  5-MIN KSTC 230105Z AUTO 18009KT 9SM CLR 03/02 A2971 1220 89 100 180/09 RMK AO2
14926KSTC STC20041122191009711/22/04 19:10:31  5-MIN KSTC 230110Z AUTO 18009KT 8SM CLR 03/02 A2971 1220 89 100 170/09 RMK AO2
14926KSTC STC20041122191509711/22/04 19:15:31  5-MIN KSTC 230115Z AUTO 18009KT 8SM CLR 03/02 A2971 1230 89 100 180/09 RMK AO2
14926KSTC STC20041122192009711/22/04 19:20:31  5-MIN KSTC 230120Z AUTO 18009KT 8SM CLR 03/02 A2970 1230 89 200 170/09 RMK AO2
14926KSTC STC20041122192509711/22/04 19:25:31  5-MIN KSTC 230125Z AUTO 18010KT 8SM CLR 03/02 A2970 1230 89 200 170/10 RMK AO2
14926KSTC STC20041122193009711/22/04 19:30:31  5-MIN KSTC 230130Z AUTO 18009KT 8SM CLR 03/02 A2970 1230 89 200 180/09 RMK AO2
14926KSTC STC20041122193509711/22/04 19:35:31  5-MIN KSTC 230135Z AUTO 18009KT 8SM CLR 03/02 A2970 1230 89 200 180/09 RMK AO2
14926KSTC STC20041122194009711/22/04 19:40:31  5-MIN KSTC 230140Z AUTO 19010KT 8SM CLR 03/02 A2970 1230 89 200 180/10 RMK AO2
14926KSTC STC20041122194509711/22/04 19:45:31  5-MIN KSTC 230145Z AUTO 19010KT 8SM CLR 03/02 A2970 1230 89 200 190/10 RMK AO2
14926KSTC STC20041122195011411/22/04 19:50:31  5-MIN KSTC 230150Z AUTO 19010KT 7SM CLR 03/02 A2970 1230 89 200 190/10 RMK AO2 SLP075 T00330017
14926KSTC STC20041122195509711/22/04 19:55:31  5-MIN KSTC 230155Z AUTO 19011KT 7SM CLR 03/02 A2970 1230 89 200 190/11 RMK AO2
14926KSTC STC20041122200009711/22/04 20:00:31  5-MIN KSTC 230200Z AUTO 19010KT 7SM CLR 03/02 A2970 1230 89 200 190/10 RMK AO2
14926KSTC STC20041122200509711/22/04 20:05:31  5-MIN KSTC 230205Z AUTO 20011KT 7SM CLR 03/02 A2970 1230 89 200 200/11 RMK AO2
14926KSTC STC20041122201009711/22/04 20:10:31  5-MIN KSTC 230210Z AUTO 20009KT 7SM CLR 03/02 A2970 1230 92 100 190/09 RMK AO2
14926KSTC STC20041122201509711/22/04 20:15:31  5-MIN KSTC 230215Z AUTO 20009KT 7SM CLR 03/02 A2970 1230 92 100 190/09 RMK AO2
14926KSTC STC20041122202009711/22/04 20:20:31  5-MIN KSTC 230220Z AUTO 20009KT 7SM CLR 03/02 A2969 1240 92 100 190/09 RMK AO2
14926KSTC STC20041122202509711/22/04 20:25:31  5-MIN KSTC 230225Z AUTO 20008KT 7SM CLR 03/02 A2969 1240 92 100 190/08 RMK AO2
14926KSTC STC20041122203009711/22/04 20:30:31  5-MIN KSTC 230230Z AUTO 20008KT 7SM CLR 03/02 A2969 1240 92 100 200/08 RMK AO2
14926KSTC STC20041122203509511/22/04 20:35:31  5-MIN KSTC 230235Z AUTO 20008KT 7SM CLR 02/02 A2969 1240 96 0 190/08 RMK AO2
14926KSTC STC20041122204009511/22/04 20:40:31  5-MIN KSTC 230240Z AUTO 20009KT 7SM CLR 02/01 A2969 1240 92 0 200/09 RMK AO2
14926KSTC STC20041122204509511/22/04 20:45:31  5-MIN KSTC 230245Z AUTO 21009KT 7SM CLR 02/02 A2969 1240 96 0 200/09 RMK AO2
14926KSTC STC20041122205012011/22/04 20:50:31  5-MIN KSTC 230250Z AUTO 20009KT 7SM CLR 03/02 A2969 1240 92 100 200/09 RMK AO2 SLP072 T00280017 56009
14926KSTC STC20041122205509711/22/04 20:55:31  5-MIN KSTC 230255Z AUTO 21009KT 7SM CLR 03/02 A2969 1240 92 100 200/09 RMK AO2
14926KSTC STC20041122210009811/22/04 21:00:31  5-MIN KSTC 230300Z AUTO 21009KT 6SM BR CLR 02/02 A2969 1240 96 0 200/09 RMK AO2
14926KSTC STC20041122210509811/22/04 21:05:31  5-MIN KSTC 230305Z AUTO 21009KT 6SM BR CLR 02/01 A2969 1240 92 0 210/09 RMK AO2
14926KSTC STC20041122211009811/22/04 21:10:31  5-MIN KSTC 230310Z AUTO 21007KT 6SM BR CLR 02/02 A2969 1240 96 0 210/07 RMK AO2
14926KSTC STC20041122211509811/22/04 21:15:31  5-MIN KSTC 230315Z AUTO 22007KT 6SM BR CLR 02/02 A2969 1240 96 0 210/07 RMK AO2
14926KSTC STC20041122212009811/22/04 21:20:31  5-MIN KSTC 230320Z AUTO 21007KT 6SM BR CLR 02/01 A2968 1250 96 0 210/07 RMK AO2
14926KSTC STC20041122212509811/22/04 21:25:31  5-MIN KSTC 230325Z AUTO 21006KT 6SM BR CLR 02/01 A2968 1250 92 0 210/06 RMK AO2
14926KSTC STC20041122213009811/22/04 21:30:31  5-MIN KSTC 230330Z AUTO 22007KT 6SM BR CLR 02/01 A2968 1250 96 0 210/07 RMK AO2
14926KSTC STC20041122213509811/22/04 21:35:31  5-MIN KSTC 230335Z AUTO 22008KT 6SM BR CLR 02/01 A2968 1250 92 0 210/08 RMK AO2
14926KSTC STC20041122214009811/22/04 21:40:31  5-MIN KSTC 230340Z AUTO 22009KT 6SM BR CLR 02/01 A2968 1250 92 0 210/09 RMK AO2
14926KSTC STC20041122214509811/22/04 21:45:31  5-MIN KSTC 230345Z AUTO 22008KT 6SM BR CLR 02/01 A2968 1250 92 0 220/08 RMK AO2
14926KSTC STC20041122215011211/22/04 21:50:31  5-MIN KSTC 230350Z AUTO 22009KT 7SM CLR 02/01 A2968 1250 92 0 220/09 RMK AO2 SLP070 T00220011
14926KSTC STC20041122215509711/22/04 21:55:31  5-MIN KSTC 230355Z AUTO 23009KT 7SM CLR 03/01 A2969 1240 89 100 230/09 RMK AO2
14926KSTC STC20041122220009711/22/04 22:00:31  5-MIN KSTC 230400Z AUTO 24008KT 7SM CLR 03/01 A2968 1250 89 100 230/08 RMK AO2
14926KSTC STC20041122220509711/22/04 22:05:31  5-MIN KSTC 230405Z AUTO 24008KT 7SM CLR 03/01 A2968 1240 89 100 230/08 RMK AO2
14926KSTC STC20041122221009511/22/04 22:10:31  5-MIN KSTC 230410Z AUTO 23007KT 7SM CLR 02/01 A2968 1250 92 0 230/07 RMK AO2
14926KSTC STC20041122221509511/22/04 22:15:31  5-MIN KSTC 230415Z AUTO 24007KT 7SM CLR 02/01 A2968 1250 92 0 240/07 RMK AO2
14926KSTC STC20041122222009511/22/04 22:20:31  5-MIN KSTC 230420Z AUTO 24007KT 7SM CLR 02/01 A2968 1250 92 0 240/07 RMK AO2
14926KSTC STC20041122222509511/22/04 22:25:31  5-MIN KSTC 230425Z AUTO 24008KT 7SM CLR 02/01 A2968 1250 92 0 240/08 RMK AO2
14926KSTC STC20041122223009511/22/04 22:30:31  5-MIN KSTC 230430Z AUTO 25007KT 8SM CLR 02/01 A2968 1250 92 0 240/07 RMK AO2
14926KSTC STC20041122223509511/22/04 22:35:31  5-MIN KSTC 230435Z AUTO 26009KT 8SM CLR 02/01 A2969 1240 92 0 250/09 RMK AO2
14926KSTC STC20041122224009511/22/04 22:40:31  5-MIN KSTC 230440Z AUTO 26009KT 8SM CLR 02/01 A2969 1240 92 0 260/09 RMK AO2
14926KSTC STC20041122224509511/22/04 22:45:31  5-MIN KSTC 230445Z AUTO 26009KT 9SM CLR 02/01 A2969 1240 92 0 260/09 RMK AO2
14926KSTC STC20041122225011211/22/04 22:50:31  5-MIN KSTC 230450Z AUTO 26009KT 9SM CLR 02/01 A2969 1240 92 0 260/09 RMK AO2 SLP071 T00220011
14926KSTC STC20041122225509611/22/04 22:55:31  5-MIN KSTC 230455Z AUTO 27010KT 10SM CLR 02/01 A2969 1240 92 0 260/10 RMK AO2
14926KSTC STC20041122230009811/22/04 23:00:31  5-MIN KSTC 230500Z AUTO 27011KT 10SM CLR 03/01 A2969 1240 85 100 270/11 RMK AO2
14926KSTC STC20041122230509811/22/04 23:05:31  5-MIN KSTC 230505Z AUTO 27012KT 10SM CLR 03/01 A2969 1240 82 200 270/12 RMK AO2
14926KSTC STC20041122231009811/22/04 23:10:31  5-MIN KSTC 230510Z AUTO 28013KT 10SM CLR 03/01 A2969 1240 82 200 280/13 RMK AO2
14926KSTC STC20041122231509811/22/04 23:15:31  5-MIN KSTC 230515Z AUTO 27012KT 10SM CLR 03/01 A2969 1240 82 200 270/12 RMK AO2
14926KSTC STC20041122232009811/22/04 23:20:31  5-MIN KSTC 230520Z AUTO 27011KT 10SM CLR 03/01 A2970 1230 82 200 270/11 RMK AO2
14926KSTC STC20041122232509811/22/04 23:25:31  5-MIN KSTC 230525Z AUTO 27011KT 10SM CLR 03/00 A2970 1230 79 200 270/11 RMK AO2
14926KSTC STC20041122233009811/22/04 23:30:31  5-MIN KSTC 230530Z AUTO 28012KT 10SM CLR 03/00 A2970 1230 79 100 270/12 RMK AO2
14926KSTC STC20041122233509811/22/04 23:35:31  5-MIN KSTC 230535Z AUTO 28012KT 10SM CLR 03/00 A2971 1220 79 100 280/12 RMK AO2
14926KSTC STC20041122234009811/22/04 23:40:31  5-MIN KSTC 230540Z AUTO 28012KT 10SM CLR 03/00 A2971 1220 79 100 280/12 RMK AO2
14926KSTC STC20041122234509811/22/04 23:45:31  5-MIN KSTC 230545Z AUTO 28014KT 10SM CLR 03/00 A2972 1220 79 100 280/14 RMK AO2
14926KSTC STC20041122235014311/22/04 23:50:31  5-MIN KSTC 230550Z AUTO 28013KT 10SM CLR 04/00 A2972 1210 76 200 280/13 RMK AO2 SLP080 T00390000 10044 20017 400721022 56013
14926KSTC STC20041122235509811/22/04 23:55:31  5-MIN KSTC 230555Z AUTO 29014KT 10SM CLR 03/00 A2972 1210 79 100 280/14 RMK AO2
14926KSTC STC20041123000009811/23/04 00:00:32  5-MIN KSTC 230600Z AUTO 29016KT 10SM CLR 03/00 A2973 1200 79 100 280/16 RMK AO2
14926KSTC STC20041123000509811/23/04 00:05:31  5-MIN KSTC 230605Z AUTO 29014KT 10SM CLR 03/00 A2973 1200 79 100 290/14 RMK AO2
14926KSTC STC20041123001009811/23/04 00:10:31  5-MIN KSTC 230610Z AUTO 29013KT 10SM CLR 03/00 A2973 1200 79 100 290/13 RMK AO2
14926KSTC STC20041123001509811/23/04 00:15:31  5-MIN KSTC 230615Z AUTO 29014KT 10SM CLR 03/00 A2973 1200 79 100 290/14 RMK AO2
14926KSTC STC20041123002009811/23/04 00:20:31  5-MIN KSTC 230620Z AUTO 29014KT 10SM CLR 03/00 A2973 1200 82 100 290/14 RMK AO2
14926KSTC STC20041123002509611/23/04 00:25:31  5-MIN KSTC 230625Z AUTO 29014KT 10SM CLR 03/00 A2974 1200 82 0 280/14 RMK AO2
14926KSTC STC20041123003009811/23/04 00:30:31  5-MIN KSTC 230630Z AUTO 29012KT 10SM CLR 03/00 A2974 1190 79 100 280/12 RMK AO2
14926KSTC STC20041123003509611/23/04 00:35:31  5-MIN KSTC 230635Z AUTO 28012KT 10SM CLR 03/00 A2974 1190 82 0 280/12 RMK AO2
14926KSTC STC20041123004009611/23/04 00:40:31  5-MIN KSTC 230640Z AUTO 29013KT 10SM CLR 03/00 A2974 1190 82 0 280/13 RMK AO2
14926KSTC STC20041123004509911/23/04 00:45:31  5-MIN KSTC 230645Z AUTO 29015KT 10SM FEW021 03/00 A2975 1190 82 0 290/15 RMK AO2
14926KSTC STC20041123005012411/23/04 00:50:31  5-MIN KSTC 230650Z AUTO 30013G19KT 10SM BKN021 03/00 A2975 1190 79 100 290/13G19 RMK AO2 SLP090 T00330000
14926KSTC STC20041123005510711/23/04 00:55:31  5-MIN KSTC 230655Z AUTO 30014G21KT 10SM BKN021 03/00 A2975 1180 79 100 290/14G21 RMK AO2
14926KSTC STC20041123010010711/23/04 01:00:31  5-MIN KSTC 230700Z AUTO 30015G21KT 10SM BKN021 03/01 A2975 1180 82 100 300/15G21 RMK AO2
14926KSTC STC20041123010510111/23/04 01:05:31  5-MIN KSTC 230705Z AUTO 30014KT 10SM OVC021 03/01 A2975 1180 82 100 300/14 RMK AO2
14926KSTC STC20041123011010711/23/04 01:10:31  5-MIN KSTC 230710Z AUTO 30012G20KT 10SM OVC023 03/01 A2976 1180 82 100 300/12G20 RMK AO2
14926KSTC STC20041123011510111/23/04 01:15:31  5-MIN KSTC 230715Z AUTO 30014KT 10SM OVC023 03/01 A2976 1180 82 100 300/14 RMK AO2
14926KSTC STC20041123012010111/23/04 01:20:31  5-MIN KSTC 230720Z AUTO 30012KT 10SM OVC023 03/01 A2976 1170 82 100 290/12 RMK AO2
14926KSTC STC20041123012510111/23/04 01:25:31  5-MIN KSTC 230725Z AUTO 30012KT 10SM OVC023 03/01 A2976 1170 82 100 300/12 RMK AO2
14926KSTC STC20041123013010111/23/04 01:30:31  5-MIN KSTC 230730Z AUTO 30011KT 10SM OVC023 03/01 A2977 1170 82 100 300/11 RMK AO2
14926KSTC STC20041123013510111/23/04 01:35:31  5-MIN KSTC 230735Z AUTO 31010KT 10SM OVC025 03/01 A2977 1170 82 100 310/10 RMK AO2
14926KSTC STC20041123014010111/23/04 01:40:31  5-MIN KSTC 230740Z AUTO 31009KT 10SM OVC025 03/01 A2977 1170 82 100 310/09 RMK AO2
14926KSTC STC20041123014510111/23/04 01:45:31  5-MIN KSTC 230745Z AUTO 30009KT 10SM OVC025 03/01 A2977 1160 82 100 300/09 RMK AO2
14926KSTC STC20041123015011811/23/04 01:50:31  5-MIN KSTC 230750Z AUTO 31009KT 10SM OVC025 03/01 A2977 1160 82 100 300/09 RMK AO2 SLP097 T00330006
14926KSTC STC20041123015510111/23/04 01:55:31  5-MIN KSTC 230755Z AUTO 31011KT 10SM OVC025 04/01 A2977 1160 79 100 300/11 RMK AO2
14926KSTC STC20041123020010111/23/04 02:00:31  5-MIN KSTC 230800Z AUTO 31011KT 10SM OVC025 04/01 A2977 1160 79 100 310/11 RMK AO2
14926KSTC STC20041123020510111/23/04 02:05:31  5-MIN KSTC 230805Z AUTO 32014KT 10SM OVC025 04/01 A2978 1160 79 100 320/14 RMK AO2
14926KSTC STC20041123021011411/23/04 02:10:31  5-MIN KSTC 230810Z AUTO 32017G21KT 10SM BKN023 OVC028 04/01 A2978 1160 79 100 320/17G21 RMK AO2
14926KSTC STC20041123021511411/23/04 02:15:31  5-MIN KSTC 230815Z AUTO 32019G22KT 10SM BKN021 OVC028 04/01 A2978 1150 79 100 320/19G22 RMK AO2
14926KSTC STC20041123022013211/23/04 02:20:31  5-MIN KSTC 230820Z AUTO 31022G27KT 10SM BKN021 OVC027 04/01 A2979 1150 79 100 310/22G27 RMK AO2 PK WND 31027/0817
14926KSTC STC20041123022513211/23/04 02:25:31  5-MIN KSTC 230825Z AUTO 31019G27KT 10SM BKN021 OVC029 03/01 A2979 1150 82 100 300/19G27 RMK AO2 PK WND 31027/0817
14926KSTC STC20041123023012411/23/04 02:30:31  5-MIN KSTC 230830Z AUTO 31014KT 10SM BKN021 OVC031 03/01 A2979 1140 82 0 310/14 RMK AO2 PK WND 31027/0817
14926KSTC STC20041123023513711/23/04 02:35:31  5-MIN KSTC 230835Z AUTO 32015G23KT 10SM BKN021 BKN025 OVC034 03/01 A2980 1140 82 0 320/15G23 RMK AO2 PK WND 31027/0817
14926KSTC STC20041123024013011/23/04 02:40:31  5-MIN KSTC 230840Z AUTO 33017G23KT 10SM BKN019 OVC025 03/00 A2980 1140 82 0 320/17G23 RMK AO2 PK WND 31027/0817
14926KSTC STC20041123024513011/23/04 02:45:31  5-MIN KSTC 230845Z AUTO 32014G23KT 10SM BKN019 OVC025 03/00 A2981 1130 82 0 320/14G23 RMK AO2 PK WND 31027/0817
14926KSTC STC20041123025015311/23/04 02:50:31  5-MIN KSTC 230850Z AUTO 32014G23KT 10SM BKN019 OVC025 03/00 A2981 1130 82 0 320/14G23 RMK AO2 PK WND 31027/0817 SLP112 T00280000 53010
14926KSTC STC20041123025511611/23/04 02:55:31  5-MIN KSTC 230855Z AUTO 31021G24KT 10SM BKN017 OVC025 02/M01 A2982 1120 82 -100 310/21G24 RMK AO2
14926KSTC STC20041123030013411/23/04 03:00:31  5-MIN KSTC 230900Z AUTO 31023G28KT 10SM BKN017 OVC025 02/M01 A2982 1120 78 -100 310/23G28 RMK AO2 PK WND 31028/0900
14926KSTC STC20041123030513411/23/04 03:05:31  5-MIN KSTC 230905Z AUTO 31022G31KT 10SM SCT017 OVC025 02/M02 A2982 1120 78 -100 310/22G31 RMK AO2 PK WND 31031/0905
14926KSTC STC20041123031013411/23/04 03:10:31  5-MIN KSTC 230910Z AUTO 31023G31KT 10SM SCT017 BKN025 02/M02 A2982 1120 78 -100 310/23G31 RMK AO2 PK WND 31031/0905
14926KSTC STC20041123031513411/23/04 03:15:31  5-MIN KSTC 230915Z AUTO 31021G29KT 10SM FEW017 BKN025 01/M02 A2983 1110 78 -200 310/21G29 RMK AO2 PK WND 31031/0905
14926KSTC STC20041123032012711/23/04 03:20:31  5-MIN KSTC 230920Z AUTO 31018G27KT 10SM BKN025 01/M02 A2983 1110 82 -200 310/18G27 RMK AO2 PK WND 31031/0905
14926KSTC STC20041123032512111/23/04 03:25:31  5-MIN KSTC 230925Z AUTO 31019KT 10SM BKN023 01/M02 A2983 1110 82 -200 310/19 RMK AO2 PK WND 31031/0905
14926KSTC STC20041123033013411/23/04 03:30:31  5-MIN KSTC 230930Z AUTO 32020G26KT 10SM BKN023 BKN038 01/M02 A2983 1110 82 -200 320/20G26 RMK AO2 PK WND 31031/0905
14926KSTC STC20041123033513411/23/04 03:35:31  5-MIN KSTC 230935Z AUTO 32017G26KT 10SM BKN023 BKN038 01/M02 A2984 1100 78 -200 310/17G26 RMK AO2 PK WND 31031/0905
14926KSTC STC20041123034013411/23/04 03:40:31  5-MIN KSTC 230940Z AUTO 32016G22KT 10SM BKN023 OVC038 01/M02 A2984 1100 78 -200 320/16G22 RMK AO2 PK WND 31031/0905
14926KSTC STC20041123034512811/23/04 03:45:31  5-MIN KSTC 230945Z AUTO 32018KT 10SM SCT021 OVC036 01/M02 A2984 1100 78 -200 310/18 RMK AO2 PK WND 31031/0905
14926KSTC STC20041123035014511/23/04 03:50:31  5-MIN KSTC 230950Z AUTO 32015KT 10SM FEW021 BKN036 01/M02 A2985 1100 78 -200 310/15 RMK AO2 PK WND 31031/0905 SLP124 T00111022
14926KSTC STC20041123035511011/23/04 03:55:31  5-MIN KSTC 230955Z AUTO 32015KT 10SM FEW021 BKN036 01/M02 A2985 1090 78 -200 310/15 RMK AO2
14926KSTC STC20041123040011611/23/04 04:00:31  5-MIN KSTC 231000Z AUTO 32017G21KT 10SM FEW026 OVC036 01/M02 A2985 1090 78 -200 310/17G21 RMK AO2
14926KSTC STC20041123040511611/23/04 04:05:31  5-MIN KSTC 231005Z AUTO 32017G21KT 10SM SCT026 OVC036 01/M03 A2985 1090 75 -200 320/17G21 RMK AO2
14926KSTC STC20041123041011611/23/04 04:10:31  5-MIN KSTC 231010Z AUTO 32017G24KT 10SM BKN024 OVC036 01/M03 A2986 1090 75 -300 320/17G24 RMK AO2
14926KSTC STC20041123041512311/23/04 04:15:31  5-MIN KSTC 231015Z AUTO 32017G25KT 10SM BKN024 BKN029 OVC037 01/M03 A2986 1080 75 -300 320/17G25 RMK AO2
14926KSTC STC20041123042011611/23/04 04:20:31  5-MIN KSTC 231020Z AUTO 31019G25KT 10SM BKN025 OVC033 01/M03 A2986 1080 75 -300 310/19G25 RMK AO2
14926KSTC STC20041123042510911/23/04 04:25:31  5-MIN KSTC 231025Z AUTO 32014G24KT 10SM OVC024 01/M03 A2986 1080 75 -300 310/14G24 RMK AO2
14926KSTC STC20041123043011611/23/04 04:30:31  5-MIN KSTC 231030Z AUTO 32015G22KT 10SM BKN022 OVC027 01/M03 A2986 1080 78 -300 310/15G22 RMK AO2
14926KSTC STC20041123043511611/23/04 04:35:31  5-MIN KSTC 231035Z AUTO 31014G19KT 10SM BKN022 OVC029 01/M03 A2987 1080 78 -300 310/14G19 RMK AO2
14926KSTC STC20041123044011611/23/04 04:40:31  5-MIN KSTC 231040Z AUTO 32015G22KT 10SM BKN022 OVC029 01/M03 A2987 1070 78 -300 320/15G22 RMK AO2
14926KSTC STC20041123044510911/23/04 04:45:31  5-MIN KSTC 231045Z AUTO 32018G24KT 10SM OVC024 01/M03 A2987 1070 78 -300 310/18G24 RMK AO2
14926KSTC STC20041123045013311/23/04 04:50:31  5-MIN KSTC 231050Z AUTO 31017G24KT 10SM BKN022 OVC028 01/M03 A2988 1070 78 -300 300/17G24 RMK AO2 SLP134 T00061028
14926KSTC STC20041123045511711/23/04 04:55:31  5-MIN KSTC 231055Z AUTO 31018KT 10SM SCT022 BKN028 OVC032 01/M03 A2988 1070 78 -300 310/18 RMK AO2
14926KSTC STC20041123050011711/23/04 05:00:31  5-MIN KSTC 231100Z AUTO 32018KT 10SM FEW022 BKN028 OVC032 00/M03 A2988 1070 78 -400 310/18 RMK AO2
14926KSTC STC20041123050512311/23/04 05:05:31  5-MIN KSTC 231105Z AUTO 32017G21KT 10SM SCT022 BKN027 OVC032 00/M04 A2988 1060 75 -400 310/17G21 RMK AO2
14926KSTC STC20041123051011011/23/04 05:10:31  5-MIN KSTC 231110Z AUTO 30020KT 10SM SCT022 OVC032 00/M04 A2989 1060 72 -400 300/20 RMK AO2
14926KSTC STC20041123051511011/23/04 05:15:31  5-MIN KSTC 231115Z AUTO 31020KT 10SM FEW022 OVC032 00/M06 A2989 1060 66 -400 310/20 RMK AO2
14926KSTC STC20041123052011011/23/04 05:20:31  5-MIN KSTC 231120Z AUTO 30019KT 10SM FEW022 OVC032 00/M06 A2989 1050 66 -400 300/19 RMK AO2
14926KSTC STC20041123052513511/23/04 05:25:31  5-MIN KSTC 231125Z AUTO 30019G26KT 10SM FEW022 OVC032 M01/M07 A2989 1050 63 -500 300/19G26 RMK AO2 PK WND 30026/1123
14926KSTC STC20041123053013511/23/04 05:30:31  5-MIN KSTC 231130Z AUTO 31019G26KT 10SM FEW022 OVC032 M01/M07 A2990 1050 63 -500 310/19G26 RMK AO2 PK WND 30026/1123
14926KSTC STC20041123053512811/23/04 05:35:31  5-MIN KSTC 231135Z AUTO 30018G24KT 10SM OVC032 M01/M07 A2990 1050 63 -500 300/18G24 RMK AO2 PK WND 30026/1123
14926KSTC STC20041123054012811/23/04 05:40:31  5-MIN KSTC 231140Z AUTO 31015G24KT 10SM OVC032 M01/M07 A2990 1040 63 -500 310/15G24 RMK AO2 PK WND 30026/1123
14926KSTC STC20041123054512811/23/04 05:45:31  5-MIN KSTC 231145Z AUTO 32019G23KT 10SM OVC030 M01/M07 A2991 1040 66 -600 320/19G23 RMK AO2 PK WND 30026/1123
14926KSTC STC20041123055016311/23/04 05:50:31  5-MIN KSTC 231150Z AUTO 32020G23KT 10SM OVC030 M01/M07 A2991 1040 63 -600 310/20G23 RMK AO2 PK WND 30026/1123 SLP148 T10111072 10039 21011 53030
14926KSTC STC20041123055511011/23/04 05:55:31  5-MIN KSTC 231155Z AUTO 32019G26KT 10SM BKN030 M02/M08 A2991 1030 63 -700 310/19G26 RMK AO2
14926KSTC STC20041123060012811/23/04 06:00:31  5-MIN KSTC 231200Z AUTO 31021G27KT 10SM BKN030 M02/M09 A2991 1030 60 -700 310/21G27 RMK AO2 PK WND 32027/1156
14926KSTC STC20041123060512811/23/04 06:05:31  5-MIN KSTC 231205Z AUTO 31020G27KT 10SM SCT030 M02/M09 A2992 1030 60 -700 300/20G27 RMK AO2 PK WND 32027/1156
14926KSTC STC20041123061012211/23/04 06:10:31  5-MIN KSTC 231210Z AUTO 31021KT 10SM SCT028 M02/M09 A2992 1030 60 -700 310/21 RMK AO2 PK WND 32027/1156
14926KSTC STC20041123061512211/23/04 06:15:31  5-MIN KSTC 231215Z AUTO 31020KT 10SM FEW028 M03/M09 A2993 1020 63 -800 310/20 RMK AO2 PK WND 32027/1156
14926KSTC STC20041123062012211/23/04 06:20:31  5-MIN KSTC 231220Z AUTO 31018KT 10SM FEW028 M03/M09 A2993 1020 60 -800 300/18 RMK AO2 PK WND 32027/1156
14926KSTC STC20041123062512211/23/04 06:25:31  5-MIN KSTC 231225Z AUTO 31017KT 10SM FEW028 M03/M09 A2994 1010 60 -800 310/17 RMK AO2 PK WND 32027/1156
14926KSTC STC20041123063012811/23/04 06:30:31  5-MIN KSTC 231230Z AUTO 32021G25KT 10SM FEW028 M03/M09 A2994 1010 60 -800 310/21G25 RMK AO2 PK WND 32027/1156
14926KSTC STC20041123063512511/23/04 06:35:31  5-MIN KSTC 231235Z AUTO 32019G25KT 10SM CLR M03/M10 A2994 1010 58 -800 310/19G25 RMK AO2 PK WND 32027/1156
14926KSTC STC20041123064012511/23/04 06:40:31  5-MIN KSTC 231240Z AUTO 32018G24KT 10SM CLR M03/M10 A2994 1010 58 -800 320/18G24 RMK AO2 PK WND 32027/1156
14926KSTC STC20041123064512511/23/04 06:45:31  5-MIN KSTC 231245Z AUTO 32016G24KT 10SM CLR M03/M09 A2994 1010 60 -800 320/16G24 RMK AO2 PK WND 32027/1156
14926KSTC STC20041123065013611/23/04 06:50:31  5-MIN KSTC 231250Z AUTO 32016KT 10SM CLR M03/M09 A2994 1010 60 -800 320/16 RMK AO2 PK WND 32027/1156 SLP159 T10281094
14926KSTC STC20041123065510711/23/04 06:55:31  5-MIN KSTC 231255Z AUTO 32018G23KT 10SM CLR M03/M09 A2995 1000 60 -800 310/18G23 RMK AO2
14926KSTC STC20041123070010711/23/04 07:00:31  5-MIN KSTC 231300Z AUTO 31017G23KT 10SM CLR M03/M09 A2995 1000 60 -900 310/17G23 RMK AO2
14926KSTC STC20041123070510611/23/04 07:05:31  5-MIN KSTC 231305Z AUTO 31015G22KT 10SM CLR M03/M09 A2996 990 63 -900 310/15G22 RMK AO2
14926KSTC STC20041123071010011/23/04 07:10:31  5-MIN KSTC 231310Z AUTO 31016KT 10SM CLR M03/M09 A2996 990 63 -900 310/16 RMK AO2
14926KSTC STC20041123071510611/23/04 07:15:31  5-MIN KSTC 231315Z AUTO 31016G20KT 10SM CLR M03/M09 A2996 990 63 -900 310/16G20 RMK AO2
14926KSTC STC20041123072010011/23/04 07:20:31  5-MIN KSTC 231320Z AUTO 31016KT 10SM CLR M03/M09 A2996 990 63 -900 300/16 RMK AO2
14926KSTC STC20041123072510011/23/04 07:25:31  5-MIN KSTC 231325Z AUTO 31015KT 10SM CLR M03/M09 A2997 980 63 -900 310/15 RMK AO2
14926KSTC STC20041123073010011/23/04 07:30:31  5-MIN KSTC 231330Z AUTO 30015KT 10SM CLR M03/M09 A2997 980 63 -900 300/15 RMK AO2
14926KSTC STC20041123073510011/23/04 07:35:31  5-MIN KSTC 231335Z AUTO 31014KT 10SM CLR M03/M09 A2997 980 63 -900 300/14 RMK AO2
14926KSTC STC20041123074010011/23/04 07:40:31  5-MIN KSTC 231340Z AUTO 31013KT 10SM CLR M03/M09 A2997 980 63 -900 310/13 RMK AO2
14926KSTC STC20041123074510011/23/04 07:45:31  5-MIN KSTC 231345Z AUTO 31012KT 10SM CLR M03/M09 A2997 980 63 -900 310/12 RMK AO2
14926KSTC STC20041123075011711/23/04 07:50:31  5-MIN KSTC 231350Z AUTO 31013KT 10SM CLR M03/M09 A2997 980 63 -900 310/13 RMK AO2 SLP170 T10331094
14926KSTC STC20041123075510011/23/04 07:55:31  5-MIN KSTC 231355Z AUTO 30012KT 10SM CLR M03/M09 A2997 980 60 -900 300/12 RMK AO2
14926KSTC STC20041123080010011/23/04 08:00:31  5-MIN KSTC 231400Z AUTO 30011KT 10SM CLR M03/M09 A2997 980 60 -900 300/11 RMK AO2
14926KSTC STC20041123080510011/23/04 08:05:31  5-MIN KSTC 231405Z AUTO 30011KT 10SM CLR M03/M09 A2997 980 60 -900 300/11 RMK AO2
14926KSTC STC20041123081010011/23/04 08:10:31  5-MIN KSTC 231410Z AUTO 31009KT 10SM CLR M03/M09 A2997 980 60 -900 300/09 RMK AO2
14926KSTC STC20041123081510011/23/04 08:15:31  5-MIN KSTC 231415Z AUTO 30013KT 10SM CLR M03/M09 A2997 980 60 -900 300/13 RMK AO2
14926KSTC STC20041123082010011/23/04 08:20:31  5-MIN KSTC 231420Z AUTO 31012KT 10SM CLR M02/M09 A2997 980 58 -800 300/12 RMK AO2
14926KSTC STC20041123082510011/23/04 08:25:31  5-MIN KSTC 231425Z AUTO 31013KT 10SM CLR M02/M09 A2998 970 58 -800 300/13 RMK AO2
14926KSTC STC20041123083010011/23/04 08:30:31  5-MIN KSTC 231430Z AUTO 31012KT 10SM CLR M02/M10 A2998 970 55 -800 310/12 RMK AO2
14926KSTC STC20041123083510011/23/04 08:35:31  5-MIN KSTC 231435Z AUTO 30011KT 10SM CLR M02/M09 A2998 970 58 -800 300/11 RMK AO2
14926KSTC STC20041123084010611/23/04 08:40:31  5-MIN KSTC 231440Z AUTO 31013G19KT 10SM CLR M02/M09 A2998 970 58 -800 310/13G19 RMK AO2
14926KSTC STC20041123084510611/23/04 08:45:31  5-MIN KSTC 231445Z AUTO 31011G19KT 10SM CLR M02/M09 A2998 970 58 -800 310/11G19 RMK AO2
14926KSTC STC20041123085012311/23/04 08:50:31  5-MIN KSTC 231450Z AUTO 31015KT 10SM CLR M02/M09 A2999 970 58 -800 300/15 RMK AO2 SLP174 T10221094 53031
14926KSTC STC20041123085510011/23/04 08:55:31  5-MIN KSTC 231455Z AUTO 31016KT 10SM CLR M02/M10 A2999 960 53 -800 310/16 RMK AO2
14926KSTC STC20041123090010611/23/04 09:00:31  5-MIN KSTC 231500Z AUTO 31015G22KT 10SM CLR M02/M10 A2999 960 53 -800 310/15G22 RMK AO2
14926KSTC STC20041123090510611/23/04 09:05:31  5-MIN KSTC 231505Z AUTO 31015G22KT 10SM CLR M02/M10 A2999 960 53 -800 310/15G22 RMK AO2
14926KSTC STC20041123091010611/23/04 09:10:31  5-MIN KSTC 231510Z AUTO 31017G25KT 10SM CLR M02/M10 A2999 960 53 -800 310/17G25 RMK AO2
14926KSTC STC20041123091510611/23/04 09:15:31  5-MIN KSTC 231515Z AUTO 31017G25KT 10SM CLR M02/M11 A2999 960 51 -800 310/17G25 RMK AO2
14926KSTC STC20041123092010011/23/04 09:20:31  5-MIN KSTC 231520Z AUTO 32017KT 10SM CLR M02/M11 A2999 960 51 -800 310/17 RMK AO2
14926KSTC STC20041123092510011/23/04 09:25:31  5-MIN KSTC 231525Z AUTO 32015KT 10SM CLR M02/M11 A2999 960 49 -800 310/15 RMK AO2
14926KSTC STC20041123093010011/23/04 09:30:31  5-MIN KSTC 231530Z AUTO 31015KT 10SM CLR M02/M11 A2999 960 49 -800 310/15 RMK AO2
14926KSTC STC20041123093510011/23/04 09:35:31  5-MIN KSTC 231535Z AUTO 31018KT 10SM CLR M02/M11 A2999 960 49 -800 300/18 RMK AO2
14926KSTC STC20041123094010011/23/04 09:40:31  5-MIN KSTC 231540Z AUTO 32014KT 10SM CLR M01/M12 A3000 960 45 -700 320/14 RMK AO2
14926KSTC STC20041123094510011/23/04 09:45:31  5-MIN KSTC 231545Z AUTO 31013KT 10SM CLR M02/M12 A3000 960 46 -800 300/13 RMK AO2
14926KSTC STC20041123095011711/23/04 09:50:31  5-MIN KSTC 231550Z AUTO 31013KT 10SM CLR M02/M12 A3000 950 46 -800 300/13 RMK AO2 SLP179 T10171117
14926KSTC STC20041123095510611/23/04 09:55:31  5-MIN KSTC 231555Z AUTO 31017G22KT 10SM CLR M02/M12 A3000 950 46 -800 310/17G22 RMK AO2
14926KSTC STC20041123100010611/23/04 10:00:31  5-MIN KSTC 231600Z AUTO 32016G22KT 10SM CLR M01/M11 A3000 950 47 -700 320/16G22 RMK AO2
14926KSTC STC20041123100510011/23/04 10:05:31  5-MIN KSTC 231605Z AUTO 31017KT 10SM CLR M01/M11 A3000 950 47 -700 310/17 RMK AO2
14926KSTC STC20041123101010011/23/04 10:10:31  5-MIN KSTC 231610Z AUTO 31017KT 10SM CLR M01/M11 A3000 950 47 -700 310/17 RMK AO2
14926KSTC STC20041123101510011/23/04 10:15:31  5-MIN KSTC 231615Z AUTO 31017KT 10SM CLR M01/M11 A3000 950 49 -700 310/17 RMK AO2
14926KSTC STC20041123102010611/23/04 10:20:31  5-MIN KSTC 231620Z AUTO 33016G22KT 10SM CLR M01/M11 A3000 950 47 -700 320/16G22 RMK AO2
14926KSTC STC20041123102510611/23/04 10:25:31  5-MIN KSTC 231625Z AUTO 32016G22KT 10SM CLR M01/M11 A3000 950 49 -700 320/16G22 RMK AO2
14926KSTC STC20041123103010611/23/04 10:30:31  5-MIN KSTC 231630Z AUTO 31020G24KT 10SM CLR M01/M10 A3000 950 49 -600 310/20G24 RMK AO2
14926KSTC STC20041123103510611/23/04 10:35:31  5-MIN KSTC 231635Z AUTO 32015G24KT 10SM CLR M01/M10 A3001 950 51 -700 320/15G24 RMK AO2
14926KSTC STC20041123104010611/23/04 10:40:31  5-MIN KSTC 231640Z AUTO 32017G20KT 10SM CLR M01/M11 A3001 950 49 -700 320/17G20 RMK AO2
14926KSTC STC20041123104510011/23/04 10:45:31  5-MIN KSTC 231645Z AUTO 32018KT 10SM CLR M01/M11 A3001 950 47 -600 320/18 RMK AO2
14926KSTC STC20041123105011711/23/04 10:50:31  5-MIN KSTC 231650Z AUTO 32016KT 10SM CLR M01/M11 A3001 950 47 -600 310/16 RMK AO2 SLP181 T10061106
14926KSTC STC20041123105510011/23/04 10:55:31  5-MIN KSTC 231655Z AUTO 31014KT 10SM CLR M01/M10 A3001 950 49 -600 310/14 RMK AO2
14926KSTC STC20041123110010011/23/04 11:00:31  5-MIN KSTC 231700Z AUTO 31015KT 10SM CLR M01/M10 A3001 950 49 -600 310/15 RMK AO2
14926KSTC STC20041123110510011/23/04 11:05:31  5-MIN KSTC 231705Z AUTO 31015KT 10SM CLR M01/M10 A3001 950 49 -600 310/15 RMK AO2
14926KSTC STC20041123111010011/23/04 11:10:31  5-MIN KSTC 231710Z AUTO 32012KT 10SM CLR M01/M10 A3001 950 49 -600 320/12 RMK AO2
14926KSTC STC20041123111510011/23/04 11:15:31  5-MIN KSTC 231715Z AUTO 32014KT 10SM CLR M01/M10 A3001 950 49 -600 310/14 RMK AO2
14926KSTC STC20041123112009911/23/04 11:20:31  5-MIN KSTC 231720Z AUTO 33011KT 10SM CLR 00/M10 A3000 950 47 -600 320/11 RMK AO2
14926KSTC STC20041123112510511/23/04 11:25:31  5-MIN KSTC 231725Z AUTO 31014G18KT 10SM CLR 00/M10 A3000 950 47 -600 300/14G18 RMK AO2
14926KSTC STC20041123113010511/23/04 11:30:31  5-MIN KSTC 231730Z AUTO 32014G18KT 10SM CLR 00/M10 A3000 950 47 -600 320/14G18 RMK AO2
14926KSTC STC20041123113509911/23/04 11:35:31  5-MIN KSTC 231735Z AUTO 32014KT 10SM CLR 00/M10 A3000 950 47 -600 320/14 RMK AO2
14926KSTC STC20041123114009911/23/04 11:40:31  5-MIN KSTC 231740Z AUTO 32012KT 10SM CLR 00/M10 A3000 950 47 -600 310/12 RMK AO2
14926KSTC STC20041123114509911/23/04 11:45:31  5-MIN KSTC 231745Z AUTO 31012KT 10SM CLR 00/M10 A3000 950 47 -600 310/12 RMK AO2
14926KSTC STC20041123115013411/23/04 11:50:31  5-MIN KSTC 231750Z AUTO 31014KT 10SM CLR 01/M09 A3000 960 47 -500 300/14 RMK AO2 SLP177 T00061094 10006 21033 51025
14926KSTC STC20041123115509911/23/04 11:55:31  5-MIN KSTC 231755Z AUTO 33008KT 10SM CLR 00/M10 A3000 960 47 -600 330/08 RMK AO2
14926KSTC STC20041123120009911/23/04 12:00:31  5-MIN KSTC 231800Z AUTO 32011KT 10SM CLR 01/M10 A3000 950 45 -500 320/11 RMK AO2
14926KSTC STC20041123120509911/23/04 12:05:31  5-MIN KSTC 231805Z AUTO 31014KT 10SM CLR 01/M10 A3000 950 45 -500 300/14 RMK AO2
14926KSTC STC20041123121009911/23/04 12:10:31  5-MIN KSTC 231810Z AUTO 31017KT 10SM CLR 00/M10 A3000 950 47 -600 310/17 RMK AO2
14926KSTC STC20041123121509911/23/04 12:15:31  5-MIN KSTC 231815Z AUTO 31013KT 10SM CLR 00/M10 A3000 960 47 -600 300/13 RMK AO2
14926KSTC STC20041123122009911/23/04 12:20:31  5-MIN KSTC 231820Z AUTO 30010KT 10SM CLR 00/M10 A3000 960 47 -600 290/10 RMK AO2
14926KSTC STC20041123122509911/23/04 12:25:31  5-MIN KSTC 231825Z AUTO 30013KT 10SM CLR 01/M10 A3000 960 45 -500 290/13 RMK AO2
14926KSTC STC20041123123009911/23/04 12:30:31  5-MIN KSTC 231830Z AUTO 30013KT 10SM CLR 01/M10 A3000 960 45 -500 300/13 RMK AO2
14926KSTC STC20041123123509911/23/04 12:35:31  5-MIN KSTC 231835Z AUTO 30011KT 10SM CLR 01/M10 A2999 960 45 -500 300/11 RMK AO2
14926KSTC STC20041123124009911/23/04 12:40:31  5-MIN KSTC 231840Z AUTO 30013KT 10SM CLR 01/M10 A2999 960 45 -500 300/13 RMK AO2
14926KSTC STC20041123124509911/23/04 12:45:31  5-MIN KSTC 231845Z AUTO 30011KT 10SM CLR 01/M10 A2999 960 45 -500 300/11 RMK AO2
14926KSTC STC20041123125012211/23/04 12:50:31  5-MIN KSTC 231850Z AUTO 30014G19KT 10SM CLR 01/M09 A2999 960 45 -400 290/14G19 RMK AO2 SLP175 T00111094
14926KSTC STC20041123125510511/23/04 12:55:31  5-MIN KSTC 231855Z AUTO 30012G19KT 10SM CLR 01/M10 A2999 960 45 -500 290/12G19 RMK AO2
14926KSTC STC20041123130009911/23/04 13:00:31  5-MIN KSTC 231900Z AUTO 30011KT 10SM CLR 01/M09 A2999 970 47 -500 300/11 RMK AO2
14926KSTC STC20041123130509911/23/04 13:05:31  5-MIN KSTC 231905Z AUTO 29009KT 10SM CLR 01/M09 A2999 970 47 -500 290/09 RMK AO2
14926KSTC STC20041123131010511/23/04 13:10:31  5-MIN KSTC 231910Z AUTO 28014G18KT 10SM CLR 01/M09 A2999 960 45 -400 270/14G18 RMK AO2
14926KSTC STC20041123131510511/23/04 13:15:31  5-MIN KSTC 231915Z AUTO 28011G18KT 10SM CLR 01/M09 A2999 970 45 -400 280/11G18 RMK AO2
14926KSTC STC20041123132009911/23/04 13:20:31  5-MIN KSTC 231920Z AUTO 30012KT 10SM CLR 01/M09 A2999 970 47 -500 290/12 RMK AO2
14926KSTC STC20041123132509911/23/04 13:25:31  5-MIN KSTC 231925Z AUTO 30013KT 10SM CLR 01/M09 A2999 960 45 -400 300/13 RMK AO2
14926KSTC STC20041123133009911/23/04 13:30:31  5-MIN KSTC 231930Z AUTO 28013KT 10SM CLR 01/M09 A2999 960 47 -400 270/13 RMK AO2
14926KSTC STC20041123133509911/23/04 13:35:31  5-MIN KSTC 231935Z AUTO 30010KT 10SM CLR 01/M09 A2999 960 47 -400 290/10 RMK AO2
14926KSTC STC20041123134009911/23/04 13:40:31  5-MIN KSTC 231940Z AUTO 28014KT 10SM CLR 01/M09 A2999 960 47 -400 280/14 RMK AO2
14926KSTC STC20041123134509911/23/04 13:45:31  5-MIN KSTC 231945Z AUTO 30011KT 10SM CLR 01/M09 A2999 960 47 -400 290/11 RMK AO2
14926KSTC STC20041123135011611/23/04 13:50:31  5-MIN KSTC 231950Z AUTO 29013KT 10SM CLR 01/M09 A2999 960 47 -400 290/13 RMK AO2 SLP174 T00111089
14926KSTC STC20041123135510511/23/04 13:55:31  5-MIN KSTC 231955Z AUTO 30015G19KT 10SM CLR 01/M09 A2999 960 47 -400 300/15G19 RMK AO2
14926KSTC STC20041123140009911/23/04 14:00:31  5-MIN KSTC 232000Z AUTO 28012KT 10SM CLR 01/M09 A2999 960 47 -400 280/12 RMK AO2
14926KSTC STC20041123140509911/23/04 14:05:31  5-MIN KSTC 232005Z AUTO 29013KT 10SM CLR 01/M09 A2999 960 47 -400 290/13 RMK AO2
14926KSTC STC20041123141009911/23/04 14:10:31  5-MIN KSTC 232010Z AUTO 30014KT 10SM CLR 01/M09 A2999 960 47 -400 290/14 RMK AO2
14926KSTC STC20041123141509911/23/04 14:15:31  5-MIN KSTC 232015Z AUTO 27011KT 10SM CLR 01/M09 A2999 960 45 -400 270/11 RMK AO2
14926KSTC STC20041123142009911/23/04 14:20:31  5-MIN KSTC 232020Z AUTO 28015KT 10SM CLR 01/M09 A2999 960 47 -400 280/15 RMK AO2
14926KSTC STC20041123142509911/23/04 14:25:31  5-MIN KSTC 232025Z AUTO 31015KT 10SM CLR 01/M09 A2999 960 47 -400 310/15 RMK AO2
14926KSTC STC20041123143009911/23/04 14:30:31  5-MIN KSTC 232030Z AUTO 31013KT 10SM CLR 01/M09 A2999 960 47 -400 300/13 RMK AO2
14926KSTC STC20041123143509911/23/04 14:35:31  5-MIN KSTC 232035Z AUTO 27013KT 10SM CLR 01/M09 A2999 960 47 -400 260/13 RMK AO2
14926KSTC STC20041123144009911/23/04 14:40:31  5-MIN KSTC 232040Z AUTO 28014KT 10SM CLR 01/M09 A2999 960 47 -400 280/14 RMK AO2
14926KSTC STC20041123144509911/23/04 14:45:31  5-MIN KSTC 232045Z AUTO 29012KT 10SM CLR 01/M09 A2999 960 47 -400 290/12 RMK AO2
14926KSTC STC20041123145012211/23/04 14:50:31  5-MIN KSTC 232050Z AUTO 32012KT 10SM CLR 01/M09 A2999 960 47 -400 310/12 RMK AO2 SLP174 T00111089 50003
14926KSTC STC20041123145510511/23/04 14:55:31  5-MIN KSTC 232055Z AUTO 29016G20KT 10SM CLR 01/M09 A2999 960 49 -500 290/16G20 RMK AO2
14926KSTC STC20041123150010511/23/04 15:00:31  5-MIN KSTC 232100Z AUTO 30013G20KT 10SM CLR 01/M08 A2999 960 51 -500 300/13G20 RMK AO2
14926KSTC STC20041123150509911/23/04 15:05:31  5-MIN KSTC 232105Z AUTO 31011KT 10SM CLR 01/M09 A2999 970 49 -500 300/11 RMK AO2
14926KSTC STC20041123151009911/23/04 15:10:31  5-MIN KSTC 232110Z AUTO 30012KT 10SM CLR 01/M09 A2999 960 47 -400 290/12 RMK AO2
14926KSTC STC20041123151509911/23/04 15:15:31  5-MIN KSTC 232115Z AUTO 30012KT 10SM CLR 01/M09 A2999 960 49 -500 300/12 RMK AO2
14926KSTC STC20041123152009911/23/04 15:20:31  5-MIN KSTC 232120Z AUTO 30012KT 10SM CLR 01/M09 A2999 960 47 -500 300/12 RMK AO2
14926KSTC STC20041123152509911/23/04 15:25:31  5-MIN KSTC 232125Z AUTO 29012KT 10SM CLR 01/M09 A2999 960 47 -500 290/12 RMK AO2
14926KSTC STC20041123153009911/23/04 15:30:31  5-MIN KSTC 232130Z AUTO 30011KT 10SM CLR 01/M09 A3000 960 47 -500 300/11 RMK AO2
14926KSTC STC20041123153509911/23/04 15:35:31  5-MIN KSTC 232135Z AUTO 29013KT 10SM CLR 01/M09 A3000 960 47 -500 290/13 RMK AO2
14926KSTC STC20041123154009911/23/04 15:40:31  5-MIN KSTC 232140Z AUTO 29009KT 10SM CLR 01/M09 A3000 960 47 -500 290/09 RMK AO2
14926KSTC STC20041123154509911/23/04 15:45:31  5-MIN KSTC 232145Z AUTO 30009KT 10SM CLR 01/M09 A3000 950 49 -500 300/09 RMK AO2
14926KSTC STC20041123155011611/23/04 15:50:31  5-MIN KSTC 232150Z AUTO 29011KT 10SM CLR 01/M09 A3000 950 47 -500 280/11 RMK AO2 SLP179 T00061094
14926KSTC STC20041123155509911/23/04 15:55:31  5-MIN KSTC 232155Z AUTO 29009KT 10SM CLR 00/M09 A3000 950 49 -600 290/09 RMK AO2
14926KSTC STC20041123160009911/23/04 16:00:31  5-MIN KSTC 232200Z AUTO 29012KT 10SM CLR 00/M09 A3001 950 49 -600 290/12 RMK AO2
14926KSTC STC20041123160509911/23/04 16:05:31  5-MIN KSTC 232205Z AUTO 29009KT 10SM CLR 00/M09 A3001 950 51 -600 290/09 RMK AO2
14926KSTC STC20041123161009911/23/04 16:10:31  5-MIN KSTC 232210Z AUTO 29009KT 10SM CLR 00/M09 A3000 950 51 -600 290/09 RMK AO2
14926KSTC STC20041123161509911/23/04 16:15:31  5-MIN KSTC 232215Z AUTO 30009KT 10SM CLR 00/M09 A3000 950 51 -600 300/09 RMK AO2
14926KSTC STC20041123162010011/23/04 16:20:31  5-MIN KSTC 232220Z AUTO 31008KT 10SM CLR M01/M08 A3000 950 56 -600 300/08 RMK AO2
14926KSTC STC20041123162510011/23/04 16:25:31  5-MIN KSTC 232225Z AUTO 31007KT 10SM CLR M01/M08 A3000 950 58 -700 310/07 RMK AO2
14926KSTC STC20041123163010011/23/04 16:30:31  5-MIN KSTC 232230Z AUTO 31008KT 10SM CLR M01/M08 A3001 950 60 -700 300/08 RMK AO2
14926KSTC STC20041123163510011/23/04 16:35:31  5-MIN KSTC 232235Z AUTO 31010KT 10SM CLR M01/M09 A3001 950 55 -700 300/10 RMK AO2
14926KSTC STC20041123164010011/23/04 16:40:31  5-MIN KSTC 232240Z AUTO 31008KT 10SM CLR M02/M08 A3001 950 60 -800 300/08 RMK AO2
14926KSTC STC20041123164510011/23/04 16:45:31  5-MIN KSTC 232245Z AUTO 30008KT 10SM CLR M02/M08 A3001 950 60 -800 300/08 RMK AO2
14926KSTC STC20041123165011711/23/04 16:50:31  5-MIN KSTC 232250Z AUTO 31007KT 10SM CLR M02/M08 A3001 950 60 -800 310/07 RMK AO2 SLP183 T10171083
14926KSTC STC20041123165510011/23/04 16:55:31  5-MIN KSTC 232255Z AUTO 31007KT 10SM CLR M02/M08 A3001 940 66 -800 300/07 RMK AO2
14926KSTC STC20041123170010011/23/04 17:00:31  5-MIN KSTC 232300Z AUTO 31007KT 10SM CLR M03/M08 A3001 940 68 -900 300/07 RMK AO2
14926KSTC STC20041123170510011/23/04 17:05:31  5-MIN KSTC 232305Z AUTO 31006KT 10SM CLR M03/M08 A3001 940 68 -900 310/06 RMK AO2
14926KSTC STC20041123171010011/23/04 17:10:31  5-MIN KSTC 232310Z AUTO 31008KT 10SM CLR M03/M08 A3001 940 66 -900 310/08 RMK AO2
14926KSTC STC20041123171510011/23/04 17:15:31  5-MIN KSTC 232315Z AUTO 32008KT 10SM CLR M03/M08 A3001 940 68 -900 310/08 RMK AO2
14926KSTC STC20041123172010111/23/04 17:20:31  5-MIN KSTC 232320Z AUTO 31007KT 10SM CLR M03/M08 A3001 940 71 -1000 310/07 RMK AO2
14926KSTC STC20041123172510111/23/04 17:25:31  5-MIN KSTC 232325Z AUTO 32007KT 10SM CLR M03/M08 A3001 940 71 -1000 310/07 RMK AO2
14926KSTC STC20041123173010111/23/04 17:30:31  5-MIN KSTC 232330Z AUTO 31007KT 10SM CLR M03/M08 A3001 940 71 -1000 310/07 RMK AO2
14926KSTC STC20041123173510111/23/04 17:35:31  5-MIN KSTC 232335Z AUTO 30007KT 10SM CLR M03/M08 A3001 940 71 -1000 300/07 RMK AO2
14926KSTC STC20041123174010111/23/04 17:40:31  5-MIN KSTC 232340Z AUTO 30007KT 10SM CLR M03/M08 A3002 940 68 -1000 290/07 RMK AO2
14926KSTC STC20041123174510011/23/04 17:45:31  5-MIN KSTC 232345Z AUTO 30006KT 10SM CLR M03/M08 A3002 930 66 -900 290/06 RMK AO2
14926KSTC STC20041123175013511/23/04 17:50:31  5-MIN KSTC 232350Z AUTO 30006KT 10SM CLR M03/M08 A3002 940 66 -900 300/06 RMK AO2 SLP187 T10281083 10011 21033 55002
14926KSTC STC20041123175510111/23/04 17:55:31  5-MIN KSTC 232355Z AUTO 30006KT 10SM CLR M03/M08 A3002 940 68 -1000 300/06 RMK AO2
14926KSTC STC20041123180010111/23/04 18:00:31  5-MIN KSTC 240000Z AUTO 31006KT 10SM CLR M04/M08 A3002 940 71 -1100 300/06 RMK AO2
14926KSTC STC20041123180510111/23/04 18:05:31  5-MIN KSTC 240005Z AUTO 30005KT 10SM CLR M04/M08 A3002 930 71 -1100 300/05 RMK AO2
14926KSTC STC20041123181010111/23/04 18:10:31  5-MIN KSTC 240010Z AUTO 30005KT 10SM CLR M04/M08 A3002 930 74 -1100 290/05 RMK AO2
14926KSTC STC20041123181510111/23/04 18:15:31  5-MIN KSTC 240015Z AUTO 29004KT 10SM CLR M04/M08 A3002 930 74 -1100 290/04 RMK AO2
14926KSTC STC20041123182010111/23/04 18:20:31  5-MIN KSTC 240020Z AUTO 31005KT 10SM CLR M04/M08 A3002 930 71 -1100 300/05 RMK AO2
14926KSTC STC20041123182510111/23/04 18:25:31  5-MIN KSTC 240025Z AUTO 31005KT 10SM CLR M04/M08 A3002 930 71 -1100 310/05 RMK AO2
14926KSTC STC20041123183010111/23/04 18:30:31  5-MIN KSTC 240030Z AUTO 31005KT 10SM CLR M03/M08 A3003 930 68 -1000 310/05 RMK AO2
14926KSTC STC20041123183510111/23/04 18:35:31  5-MIN KSTC 240035Z AUTO 32004KT 10SM CLR M04/M08 A3003 930 71 -1100 320/04 RMK AO2
14926KSTC STC20041123184010111/23/04 18:40:31  5-MIN KSTC 240040Z AUTO 32006KT 10SM CLR M04/M08 A3003 920 71 -1100 310/06 RMK AO2
14926KSTC STC20041123184510111/23/04 18:45:31  5-MIN KSTC 240045Z AUTO 32006KT 10SM CLR M04/M09 A3003 920 68 -1100 320/06 RMK AO2
14926KSTC STC20041123185011811/23/04 18:50:31  5-MIN KSTC 240050Z AUTO 31005KT 10SM CLR M04/M09 A3003 920 68 -1100 310/05 RMK AO2 SLP194 T10391089
14926KSTC STC20041123185510111/23/04 18:55:31  5-MIN KSTC 240055Z AUTO 31005KT 10SM CLR M04/M08 A3003 920 71 -1100 310/05 RMK AO2
14926KSTC STC20041123190010111/23/04 19:00:31  5-MIN KSTC 240100Z AUTO 31005KT 10SM CLR M04/M08 A3003 920 74 -1200 310/05 RMK AO2
14926KSTC STC20041123190510111/23/04 19:05:31  5-MIN KSTC 240105Z AUTO 31005KT 10SM CLR M04/M08 A3004 920 74 -1200 300/05 RMK AO2
14926KSTC STC20041123191010111/23/04 19:10:31  5-MIN KSTC 240110Z AUTO 31005KT 10SM CLR M05/M08 A3004 920 77 -1200 300/05 RMK AO2
14926KSTC STC20041123191510111/23/04 19:15:31  5-MIN KSTC 240115Z AUTO 30005KT 10SM CLR M05/M08 A3004 910 77 -1200 300/05 RMK AO2
14926KSTC STC20041123192010111/23/04 19:20:31  5-MIN KSTC 240120Z AUTO 29005KT 10SM CLR M05/M08 A3005 910 77 -1200 290/05 RMK AO2
14926KSTC STC20041123192510111/23/04 19:25:31  5-MIN KSTC 240125Z AUTO 29004KT 10SM CLR M05/M08 A3004 910 77 -1200 290/04 RMK AO2
14926KSTC STC20041123193010111/23/04 19:30:31  5-MIN KSTC 240130Z AUTO 30004KT 10SM CLR M05/M08 A3004 910 77 -1200 300/04 RMK AO2
14926KSTC STC20041123193510111/23/04 19:35:31  5-MIN KSTC 240135Z AUTO 30004KT 10SM CLR M04/M08 A3005 910 74 -1200 290/04 RMK AO2
14926KSTC STC20041123194010111/23/04 19:40:31  5-MIN KSTC 240140Z AUTO 29004KT 10SM CLR M05/M08 A3005 910 77 -1200 290/04 RMK AO2
14926KSTC STC20041123194510111/23/04 19:45:31  5-MIN KSTC 240145Z AUTO 29004KT 10SM CLR M05/M08 A3005 910 77 -1200 290/04 RMK AO2
14926KSTC STC20041123195011811/23/04 19:50:31  5-MIN KSTC 240150Z AUTO 30004KT 10SM CLR M05/M08 A3005 910 77 -1200 300/04 RMK AO2 SLP199 T10501083
14926KSTC STC20041123195510111/23/04 19:55:31  5-MIN KSTC 240155Z AUTO 31004KT 10SM CLR M04/M09 A3005 910 71 -1200 310/04 RMK AO2
14926KSTC STC20041123200010111/23/04 20:00:31  5-MIN KSTC 240200Z AUTO 32003KT 10SM CLR M04/M08 A3005 910 74 -1200 310/03 RMK AO2
14926KSTC STC20041123200510111/23/04 20:05:31  5-MIN KSTC 240205Z AUTO 31003KT 10SM CLR M04/M08 A3005 900 74 -1200 310/03 RMK AO2
14926KSTC STC20041123201010111/23/04 20:10:31  5-MIN KSTC 240210Z AUTO 31003KT 10SM CLR M04/M08 A3005 900 74 -1200 310/03 RMK AO2
14926KSTC STC20041123201510111/23/04 20:15:31  5-MIN KSTC 240215Z AUTO 00000KT 10SM CLR M04/M08 A3006 900 74 -1200 000/00 RMK AO2
14926KSTC STC20041123202010111/23/04 20:20:31  5-MIN KSTC 240220Z AUTO 00000KT 10SM CLR M05/M08 A3006 900 77 -1300 000/00 RMK AO2
14926KSTC STC20041123202510111/23/04 20:25:31  5-MIN KSTC 240225Z AUTO 00000KT 10SM CLR M05/M08 A3006 900 77 -1300 000/00 RMK AO2
14926KSTC STC20041123203010111/23/04 20:30:31  5-MIN KSTC 240230Z AUTO 00000KT 10SM CLR M04/M08 A3006 900 74 -1200 000/00 RMK AO2
14926KSTC STC20041123203510111/23/04 20:35:31  5-MIN KSTC 240235Z AUTO 00000KT 10SM CLR M05/M08 A3006 890 77 -1300 000/00 RMK AO2
14926KSTC STC20041123204010111/23/04 20:40:31  5-MIN KSTC 240240Z AUTO 00000KT 10SM CLR M06/M09 A3006 900 77 -1300 000/00 RMK AO2
14926KSTC STC20041123204510111/23/04 20:45:31  5-MIN KSTC 240245Z AUTO 00000KT 10SM CLR M06/M08 A3006 890 81 -1300 000/00 RMK AO2
14926KSTC STC20041123205012411/23/04 20:50:31  5-MIN KSTC 240250Z AUTO 00000KT 10SM CLR M06/M08 A3006 890 81 -1300 000/00 RMK AO2 SLP205 T10561083 51010
14926KSTC STC20041123205510111/23/04 20:55:31  5-MIN KSTC 240255Z AUTO 29003KT 10SM CLR M06/M08 A3007 890 81 -1300 290/03 RMK AO2
14926KSTC STC20041123210010111/23/04 21:00:31  5-MIN KSTC 240300Z AUTO 29003KT 10SM CLR M06/M08 A3007 890 84 -1400 290/03 RMK AO2
14926KSTC STC20041123210510111/23/04 21:05:31  5-MIN KSTC 240305Z AUTO 29003KT 10SM CLR M06/M09 A3007 890 81 -1400 290/03 RMK AO2
14926KSTC STC20041123211010111/23/04 21:10:31  5-MIN KSTC 240310Z AUTO 29004KT 10SM CLR M06/M08 A3007 880 84 -1400 290/04 RMK AO2
14926KSTC STC20041123211510111/23/04 21:15:31  5-MIN KSTC 240315Z AUTO 29003KT 10SM CLR M06/M08 A3007 890 84 -1400 290/03 RMK AO2
14926KSTC STC20041123212010111/23/04 21:20:31  5-MIN KSTC 240320Z AUTO 00000KT 10SM CLR M06/M09 A3007 880 77 -1400 000/00 RMK AO2
14926KSTC STC20041123212510111/23/04 21:25:31  5-MIN KSTC 240325Z AUTO 28003KT 10SM CLR M06/M09 A3008 880 74 -1400 280/03 RMK AO2
14926KSTC STC20041123213010111/23/04 21:30:31  5-MIN KSTC 240330Z AUTO 29004KT 10SM CLR M06/M09 A3008 880 74 -1400 290/04 RMK AO2
14926KSTC STC20041123213510111/23/04 21:35:31  5-MIN KSTC 240335Z AUTO 31004KT 10SM CLR M06/M09 A3008 880 77 -1400 300/04 RMK AO2
14926KSTC STC20041123214010111/23/04 21:40:31  5-MIN KSTC 240340Z AUTO 32005KT 10SM CLR M07/M10 A3008 880 77 -1500 310/05 RMK AO2
14926KSTC STC20041123214510111/23/04 21:45:31  5-MIN KSTC 240345Z AUTO 32005KT 10SM CLR M07/M10 A3008 880 77 -1500 310/05 RMK AO2
14926KSTC STC20041123215011811/23/04 21:50:31  5-MIN KSTC 240350Z AUTO 31005KT 10SM CLR M06/M10 A3008 880 74 -1400 310/05 RMK AO2 SLP211 T10611100
14926KSTC STC20041123215510111/23/04 21:55:31  5-MIN KSTC 240355Z AUTO 31005KT 10SM CLR M06/M10 A3008 870 74 -1400 310/05 RMK AO2
14926KSTC STC20041123220010111/23/04 22:00:31  5-MIN KSTC 240400Z AUTO 32006KT 10SM CLR M06/M10 A3008 880 74 -1400 320/06 RMK AO2
14926KSTC STC20041123220510111/23/04 22:05:31  5-MIN KSTC 240405Z AUTO 32005KT 10SM CLR M06/M10 A3008 880 74 -1400 320/05 RMK AO2
14926KSTC STC20041123221010111/23/04 22:10:31  5-MIN KSTC 240410Z AUTO 33004KT 10SM CLR M07/M10 A3008 880 77 -1500 330/04 RMK AO2
14926KSTC STC20041123221510111/23/04 22:15:31  5-MIN KSTC 240415Z AUTO 35004KT 10SM CLR M07/M10 A3007 890 77 -1500 340/04 RMK AO2
14926KSTC STC20041123222010111/23/04 22:20:31  5-MIN KSTC 240420Z AUTO 36003KT 10SM CLR M06/M10 A3007 890 74 -1400 360/03 RMK AO2
14926KSTC STC20041123222510111/23/04 22:25:31  5-MIN KSTC 240425Z AUTO 35003KT 10SM CLR M06/M09 A3006 900 77 -1400 350/03 RMK AO2
14926KSTC STC20041123223010111/23/04 22:30:31  5-MIN KSTC 240430Z AUTO 03003KT 10SM CLR M06/M09 A3006 900 74 -1300 030/03 RMK AO2
14926KSTC STC20041123223510111/23/04 22:35:31  5-MIN KSTC 240435Z AUTO 34003KT 10SM CLR M06/M09 A3007 890 74 -1300 340/03 RMK AO2
14926KSTC STC20041123224010111/23/04 22:40:31  5-MIN KSTC 240440Z AUTO 00000KT 10SM CLR M06/M10 A3007 890 74 -1400 000/00 RMK AO2
14926KSTC STC20041123224510111/23/04 22:45:31  5-MIN KSTC 240445Z AUTO 00000KT 10SM CLR M07/M10 A3007 890 77 -1500 000/00 RMK AO2
14926KSTC STC20041123225011811/23/04 22:50:31  5-MIN KSTC 240450Z AUTO 00000KT 10SM CLR M06/M10 A3007 890 74 -1400 000/00 RMK AO2 SLP206 T10611100
14926KSTC STC20041123225510111/23/04 22:55:31  5-MIN KSTC 240455Z AUTO 31003KT 10SM CLR M06/M09 A3007 890 77 -1400 300/03 RMK AO2
14926KSTC STC20041123230010111/23/04 23:00:31  5-MIN KSTC 240500Z AUTO 29003KT 10SM CLR M06/M09 A3007 890 77 -1400 280/03 RMK AO2
14926KSTC STC20041123230510111/23/04 23:05:31  5-MIN KSTC 240505Z AUTO 00000KT 10SM CLR M06/M09 A3007 890 77 -1400 000/00 RMK AO2
14926KSTC STC20041123231010111/23/04 23:10:31  5-MIN KSTC 240510Z AUTO 00000KT 10SM CLR M06/M09 A3007 890 77 -1400 000/00 RMK AO2
14926KSTC STC20041123231510411/23/04 23:15:31  5-MIN KSTC 240515Z AUTO 00000KT 10SM FEW120 M06/M09 A3007 890 81 -1400 000/00 RMK AO2
14926KSTC STC20041123232010411/23/04 23:20:31  5-MIN KSTC 240520Z AUTO 00000KT 10SM FEW120 M06/M09 A3007 880 77 -1300 000/00 RMK AO2
14926KSTC STC20041123232510411/23/04 23:25:31  5-MIN KSTC 240525Z AUTO 00000KT 10SM FEW120 M06/M09 A3007 890 77 -1300 000/00 RMK AO2
14926KSTC STC20041123233010411/23/04 23:30:31  5-MIN KSTC 240530Z AUTO 00000KT 10SM FEW120 M06/M09 A3007 890 74 -1300 000/00 RMK AO2
14926KSTC STC20041123233510411/23/04 23:35:31  5-MIN KSTC 240535Z AUTO 00000KT 10SM FEW120 M06/M09 A3007 890 77 -1300 000/00 RMK AO2
14926KSTC STC20041123234010411/23/04 23:40:31  5-MIN KSTC 240540Z AUTO 00000KT 10SM FEW120 M06/M09 A3007 890 77 -1300 000/00 RMK AO2
14926KSTC STC20041123234510111/23/04 23:45:31  5-MIN KSTC 240545Z AUTO 00000KT 10SM CLR M06/M08 A3007 890 84 -1400 000/00 RMK AO2
14926KSTC STC20041123235014611/23/04 23:50:31  5-MIN KSTC 240550Z AUTO 00000KT 10SM CLR M06/M09 A3007 890 77 -1300 000/00 RMK AO2 SLP205 T10561089 11033 21067 400391067 53016
14926KSTC STC20041123235510111/23/04 23:55:31  5-MIN KSTC 240555Z AUTO 00000KT 10SM CLR M06/M09 A3007 890 81 -1400 000/00 RMK AO2
14926KSTC STC20041124000010111/24/04 00:00:32  5-MIN KSTC 240600Z AUTO 00000KT 10SM CLR M06/M08 A3007 890 84 -1400 000/00 RMK AO2
14926KSTC STC20041124000510111/24/04 00:05:31  5-MIN KSTC 240605Z AUTO 16003KT 10SM CLR M07/M09 A3007 890 84 -1500 160/03 RMK AO2
14926KSTC STC20041124001010111/24/04 00:10:31  5-MIN KSTC 240610Z AUTO 16004KT 10SM CLR M07/M08 A3007 890 88 -1500 160/04 RMK AO2
14926KSTC STC20041124001510111/24/04 00:15:31  5-MIN KSTC 240615Z AUTO 17003KT 10SM CLR M07/M08 A3007 890 88 -1500 170/03 RMK AO2
14926KSTC STC20041124002010111/24/04 00:20:31  5-MIN KSTC 240620Z AUTO 18003KT 10SM CLR M07/M08 A3007 890 88 -1500 170/03 RMK AO2
14926KSTC STC20041124002510111/24/04 00:25:31  5-MIN KSTC 240625Z AUTO 00000KT 10SM CLR M07/M08 A3007 880 88 -1500 000/00 RMK AO2
14926KSTC STC20041124003010111/24/04 00:30:31  5-MIN KSTC 240630Z AUTO 00000KT 10SM CLR M07/M08 A3008 880 88 -1500 000/00 RMK AO2
14926KSTC STC20041124003510111/24/04 00:35:31  5-MIN KSTC 240635Z AUTO 00000KT 10SM CLR M07/M08 A3008 880 88 -1500 000/00 RMK AO2
14926KSTC STC20041124004010111/24/04 00:40:31  5-MIN KSTC 240640Z AUTO 00000KT 10SM CLR M06/M08 A3008 880 88 -1400 000/00 RMK AO2
14926KSTC STC20041124004510111/24/04 00:45:31  5-MIN KSTC 240645Z AUTO 00000KT 10SM CLR M07/M08 A3007 880 88 -1500 000/00 RMK AO2
14926KSTC STC20041124005011811/24/04 00:50:31  5-MIN KSTC 240650Z AUTO 00000KT 10SM CLR M07/M08 A3007 890 92 -1500 000/00 RMK AO2 SLP206 T10671078
14926KSTC STC20041124005510411/24/04 00:55:31  5-MIN KSTC 240655Z AUTO 00000KT 10SM FEW110 M07/M08 A3007 890 88 -1500 000/00 RMK AO2
14926KSTC STC20041124010010411/24/04 01:00:31  5-MIN KSTC 240700Z AUTO 00000KT 10SM FEW110 M07/M08 A3007 890 88 -1500 000/00 RMK AO2
14926KSTC STC20041124010510411/24/04 01:05:31  5-MIN KSTC 240705Z AUTO 00000KT 10SM FEW110 M06/M08 A3007 890 88 -1400 000/00 RMK AO2
14926KSTC STC20041124011010411/24/04 01:10:31  5-MIN KSTC 240710Z AUTO 00000KT 10SM FEW110 M06/M08 A3007 890 88 -1400 000/00 RMK AO2
14926KSTC STC20041124011510411/24/04 01:15:31  5-MIN KSTC 240715Z AUTO 00000KT 10SM FEW110 M07/M08 A3007 890 88 -1500 000/00 RMK AO2
14926KSTC STC20041124012010411/24/04 01:20:31  5-MIN KSTC 240720Z AUTO 00000KT 10SM FEW110 M07/M08 A3007 890 88 -1500 000/00 RMK AO2
14926KSTC STC20041124012510411/24/04 01:25:31  5-MIN KSTC 240725Z AUTO 00000KT 10SM SCT110 M07/M08 A3007 890 92 -1500 000/00 RMK AO2
14926KSTC STC20041124013010411/24/04 01:30:31  5-MIN KSTC 240730Z AUTO 00000KT 10SM SCT110 M07/M08 A3007 890 92 -1500 000/00 RMK AO2
14926KSTC STC20041124013510411/24/04 01:35:31  5-MIN KSTC 240735Z AUTO 00000KT 10SM SCT110 M07/M08 A3007 890 92 -1500 000/00 RMK AO2
14926KSTC STC20041124014010411/24/04 01:40:31  5-MIN KSTC 240740Z AUTO 00000KT 10SM FEW110 M07/M08 A3007 890 92 -1500 000/00 RMK AO2
14926KSTC STC20041124014510411/24/04 01:45:31  5-MIN KSTC 240745Z AUTO 00000KT 10SM FEW110 M06/M08 A3007 890 88 -1400 000/00 RMK AO2
14926KSTC STC20041124015012111/24/04 01:50:31  5-MIN KSTC 240750Z AUTO 00000KT 10SM FEW110 M07/M08 A3007 890 88 -1500 000/00 RMK AO2 SLP206 T10671083
14926KSTC STC20041124015510411/24/04 01:55:31  5-MIN KSTC 240755Z AUTO 00000KT 10SM FEW110 M07/M08 A3007 890 88 -1500 000/00 RMK AO2
14926KSTC STC20041124020010111/24/04 02:00:31  5-MIN KSTC 240800Z AUTO 00000KT 10SM CLR M07/M08 A3007 890 92 -1500 000/00 RMK AO2
14926KSTC STC20041124020510111/24/04 02:05:31  5-MIN KSTC 240805Z AUTO 00000KT 10SM CLR M07/M08 A3007 890 92 -1500 000/00 RMK AO2
14926KSTC STC20041124021010111/24/04 02:10:31  5-MIN KSTC 240810Z AUTO 00000KT 10SM CLR M07/M08 A3007 890 92 -1500 000/00 RMK AO2
14926KSTC STC20041124021510111/24/04 02:15:31  5-MIN KSTC 240815Z AUTO 00000KT 10SM CLR M07/M08 A3007 890 88 -1500 000/00 RMK AO2
14926KSTC STC20041124022010111/24/04 02:20:31  5-MIN KSTC 240820Z AUTO 00000KT 10SM CLR M07/M08 A3007 890 92 -1500 000/00 RMK AO2
14926KSTC STC20041124022510111/24/04 02:25:31  5-MIN KSTC 240825Z AUTO 00000KT 10SM CLR M07/M08 A3007 880 92 -1500 000/00 RMK AO2
14926KSTC STC20041124023010111/24/04 02:30:31  5-MIN KSTC 240830Z AUTO 00000KT 10SM CLR M07/M08 A3007 880 92 -1500 000/00 RMK AO2
14926KSTC STC20041124023510111/24/04 02:35:31  5-MIN KSTC 240835Z AUTO 00000KT 10SM CLR M07/M08 A3007 880 92 -1500 000/00 RMK AO2
14926KSTC STC20041124024010111/24/04 02:40:31  5-MIN KSTC 240840Z AUTO 00000KT 10SM CLR M07/M08 A3007 890 92 -1500 000/00 RMK AO2
14926KSTC STC20041124024510111/24/04 02:45:31  5-MIN KSTC 240845Z AUTO 00000KT 10SM CLR M07/M08 A3007 890 92 -1500 000/00 RMK AO2
14926KSTC STC20041124025012411/24/04 02:50:31  5-MIN KSTC 240850Z AUTO 00000KT 10SM CLR M07/M08 A3007 890 92 -1500 000/00 RMK AO2 SLP205 T10671078 50000
14926KSTC STC20041124025510111/24/04 02:55:31  5-MIN KSTC 240855Z AUTO 00000KT 10SM CLR M07/M08 A3007 890 92 -1500 000/00 RMK AO2
14926KSTC STC20041124030010111/24/04 03:00:31  5-MIN KSTC 240900Z AUTO 00000KT 10SM CLR M07/M08 A3007 890 92 -1500 000/00 RMK AO2
14926KSTC STC20041124030510111/24/04 03:05:31  5-MIN KSTC 240905Z AUTO 00000KT 10SM CLR M07/M08 A3007 890 92 -1500 000/00 RMK AO2
14926KSTC STC20041124031010111/24/04 03:10:31  5-MIN KSTC 240910Z AUTO 00000KT 10SM CLR M07/M08 A3007 890 92 -1500 000/00 RMK AO2
14926KSTC STC20041124031510111/24/04 03:15:31  5-MIN KSTC 240915Z AUTO 00000KT 10SM CLR M07/M08 A3007 890 92 -1500 000/00 RMK AO2
14926KSTC STC20041124032010111/24/04 03:20:31  5-MIN KSTC 240920Z AUTO 00000KT 10SM CLR M06/M08 A3006 890 88 -1400 000/00 RMK AO2
14926KSTC STC20041124032510111/24/04 03:25:31  5-MIN KSTC 240925Z AUTO 00000KT 10SM CLR M07/M08 A3006 890 92 -1500 000/00 RMK AO2
14926KSTC STC20041124033010111/24/04 03:30:31  5-MIN KSTC 240930Z AUTO 00000KT 10SM CLR M06/M08 A3006 900 88 -1400 000/00 RMK AO2
14926KSTC STC20041124033510111/24/04 03:35:31  5-MIN KSTC 240935Z AUTO 00000KT 10SM CLR M06/M08 A3006 900 88 -1400 000/00 RMK AO2
14926KSTC STC20041124034010111/24/04 03:40:31  5-MIN KSTC 240940Z AUTO 00000KT 10SM CLR M06/M08 A3006 900 88 -1400 000/00 RMK AO2
14926KSTC STC20041124034510111/24/04 03:45:31  5-MIN KSTC 240945Z AUTO 00000KT 10SM CLR M06/M08 A3005 900 88 -1400 000/00 RMK AO2
14926KSTC STC20041124035011811/24/04 03:50:31  5-MIN KSTC 240950Z AUTO 00000KT 10SM CLR M07/M08 A3005 910 92 -1500 000/00 RMK AO2 SLP199 T10671078
14926KSTC STC20041124035510111/24/04 03:55:31  5-MIN KSTC 240955Z AUTO 00000KT 10SM CLR M06/M08 A3005 910 88 -1400 000/00 RMK AO2
14926KSTC STC20041124040010111/24/04 04:00:31  5-MIN KSTC 241000Z AUTO 00000KT 10SM CLR M06/M08 A3005 910 88 -1400 000/00 RMK AO2
14926KSTC STC20041124040510111/24/04 04:05:31  5-MIN KSTC 241005Z AUTO 00000KT 10SM CLR M06/M07 A3005 900 92 -1400 000/00 RMK AO2
14926KSTC STC20041124041010111/24/04 04:10:31  5-MIN KSTC 241010Z AUTO 00000KT 10SM CLR M06/M07 A3005 900 92 -1400 000/00 RMK AO2
14926KSTC STC20041124041510111/24/04 04:15:31  5-MIN KSTC 241015Z AUTO 00000KT 10SM CLR M06/M07 A3005 900 92 -1400 000/00 RMK AO2
14926KSTC STC20041124042010111/24/04 04:20:31  5-MIN KSTC 241020Z AUTO 00000KT 10SM CLR M06/M07 A3005 900 92 -1400 000/00 RMK AO2
14926KSTC STC20041124042510111/24/04 04:25:31  5-MIN KSTC 241025Z AUTO 00000KT 10SM CLR M06/M07 A3005 900 92 -1400 000/00 RMK AO2
14926KSTC STC20041124043010111/24/04 04:30:31  5-MIN KSTC 241030Z AUTO 00000KT 10SM CLR M06/M07 A3006 900 92 -1400 000/00 RMK AO2
14926KSTC STC20041124043510111/24/04 04:35:31  5-MIN KSTC 241035Z AUTO 00000KT 10SM CLR M06/M07 A3006 900 92 -1400 000/00 RMK AO2
14926KSTC STC20041124044010111/24/04 04:40:31  5-MIN KSTC 241040Z AUTO 00000KT 10SM CLR M06/M07 A3006 900 92 -1400 000/00 RMK AO2
14926KSTC STC20041124044510111/24/04 04:45:31  5-MIN KSTC 241045Z AUTO 00000KT 10SM CLR M06/M07 A3006 890 92 -1400 000/00 RMK AO2
14926KSTC STC20041124045011811/24/04 04:50:31  5-MIN KSTC 241050Z AUTO 00000KT 10SM CLR M06/M07 A3007 890 92 -1400 000/00 RMK AO2 SLP205 T10611072
14926KSTC STC20041124045510111/24/04 04:55:31  5-MIN KSTC 241055Z AUTO 00000KT 10SM CLR M06/M07 A3007 890 92 -1400 000/00 RMK AO2
14926KSTC STC20041124050010111/24/04 05:00:31  5-MIN KSTC 241100Z AUTO 00000KT 10SM CLR M06/M07 A3007 890 92 -1400 000/00 RMK AO2
14926KSTC STC20041124050510111/24/04 05:05:31  5-MIN KSTC 241105Z AUTO 00000KT 10SM CLR M06/M07 A3007 890 92 -1400 000/00 RMK AO2
14926KSTC STC20041124051010111/24/04 05:10:31  5-MIN KSTC 241110Z AUTO 00000KT 10SM CLR M06/M07 A3007 890 92 -1400 000/00 RMK AO2
14926KSTC STC20041124051510111/24/04 05:15:31  5-MIN KSTC 241115Z AUTO 00000KT 10SM CLR M06/M07 A3007 890 92 -1400 000/00 RMK AO2
14926KSTC STC20041124054010111/24/04 05:40:31  5-MIN KSTC 241140Z AUTO 00000KT 10SM CLR M06/M07 A3007 890 92 -1400 000/00 RMK AO2
14926KSTC STC20041124054510111/24/04 05:45:31  5-MIN KSTC 241145Z AUTO 00000KT 10SM CLR M06/M07 A3007 890 92 -1400 000/00 RMK AO2
14926KSTC STC20041124055013611/24/04 05:50:31  5-MIN KSTC 241150Z AUTO 00000KT 10SM CLR M06/M07 A3006 890 92 -1300 000/00 RMK AO2 SLP205 T10561067 11056 21067 50000
14926KSTC STC20041124055510111/24/04 05:55:31  5-MIN KSTC 241155Z AUTO 00000KT 10SM CLR M06/M07 A3006 890 92 -1300 000/00 RMK AO2
14926KSTC STC20041124060010111/24/04 06:00:31  5-MIN KSTC 241200Z AUTO 00000KT 10SM CLR M06/M07 A3006 890 92 -1300 000/00 RMK AO2
14926KSTC STC20041124060510111/24/04 06:05:31  5-MIN KSTC 241205Z AUTO 00000KT 10SM CLR M06/M07 A3006 900 92 -1300 000/00 RMK AO2
14926KSTC STC20041124061010111/24/04 06:10:31  5-MIN KSTC 241210Z AUTO 00000KT 10SM CLR M06/M07 A3006 900 92 -1300 000/00 RMK AO2
14926KSTC STC20041124061510111/24/04 06:15:31  5-MIN KSTC 241215Z AUTO 00000KT 10SM CLR M06/M07 A3006 900 92 -1300 000/00 RMK AO2
14926KSTC STC20041124062010111/24/04 06:20:31  5-MIN KSTC 241220Z AUTO 00000KT 10SM CLR M06/M07 A3006 900 92 -1300 000/00 RMK AO2
14926KSTC STC20041124062510111/24/04 06:25:31  5-MIN KSTC 241225Z AUTO 00000KT 10SM CLR M06/M07 A3006 890 92 -1400 000/00 RMK AO2
14926KSTC STC20041124063010111/24/04 06:30:31  5-MIN KSTC 241230Z AUTO 00000KT 10SM CLR M06/M07 A3006 900 92 -1400 000/00 RMK AO2
14926KSTC STC20041124063510111/24/04 06:35:31  5-MIN KSTC 241235Z AUTO 00000KT 10SM CLR M06/M07 A3006 900 92 -1300 000/00 RMK AO2
14926KSTC STC20041124064010111/24/04 06:40:31  5-MIN KSTC 241240Z AUTO 00000KT 10SM CLR M06/M07 A3006 900 92 -1400 000/00 RMK AO2
14926KSTC STC20041124064510111/24/04 06:45:31  5-MIN KSTC 241245Z AUTO 00000KT 10SM CLR M07/M07 A3005 900 96 -1500 000/00 RMK AO2
14926KSTC STC20041124065012111/24/04 06:50:31  5-MIN KSTC 241250Z AUTO 00000KT 10SM FEW120 M06/M07 A3005 900 92 -1400 000/00 RMK AO2 SLP202 T10611072
14926KSTC STC20041124065510111/24/04 06:55:31  5-MIN KSTC 241255Z AUTO 00000KT 10SM CLR M06/M07 A3005 900 92 -1400 000/00 RMK AO2
14926KSTC STC20041124070010111/24/04 07:00:31  5-MIN KSTC 241300Z AUTO 00000KT 10SM CLR M06/M07 A3005 910 92 -1400 000/00 RMK AO2
14926KSTC STC20041124070510111/24/04 07:05:31  5-MIN KSTC 241305Z AUTO 00000KT 10SM CLR M06/M07 A3005 900 92 -1400 000/00 RMK AO2
14926KSTC STC20041124071010111/24/04 07:10:31  5-MIN KSTC 241310Z AUTO 00000KT 10SM CLR M06/M07 A3005 900 92 -1400 000/00 RMK AO2
14926KSTC STC20041124071510111/24/04 07:15:31  5-MIN KSTC 241315Z AUTO 00000KT 10SM CLR M07/M08 A3005 900 92 -1500 000/00 RMK AO2
14926KSTC STC20041124072010111/24/04 07:20:31  5-MIN KSTC 241320Z AUTO 00000KT 10SM CLR M07/M07 A3005 910 96 -1500 000/00 RMK AO2
14926KSTC STC20041124072510111/24/04 07:25:31  5-MIN KSTC 241325Z AUTO 00000KT 10SM CLR M07/M08 A3005 910 92 -1500 000/00 RMK AO2
14926KSTC STC20041124073010111/24/04 07:30:31  5-MIN KSTC 241330Z AUTO 00000KT 10SM CLR M07/M08 A3005 910 92 -1500 000/00 RMK AO2
14926KSTC STC20041124073510111/24/04 07:35:31  5-MIN KSTC 241335Z AUTO 00000KT 10SM CLR M07/M08 A3005 910 92 -1500 000/00 RMK AO2
14926KSTC STC20041124074010011/24/04 07:40:31  5-MIN KSTC 241340Z AUTO 00000KT 9SM CLR M07/M08 A3005 910 92 -1500 000/00 RMK AO2
14926KSTC STC20041124074510011/24/04 07:45:31  5-MIN KSTC 241345Z AUTO 00000KT 8SM CLR M07/M08 A3005 910 96 -1500 000/00 RMK AO2
14926KSTC STC20041124075011711/24/04 07:50:31  5-MIN KSTC 241350Z AUTO 00000KT 7SM CLR M07/M08 A3005 910 96 -1500 000/00 RMK AO2 SLP201 T10721078
14926KSTC STC20041124075510011/24/04 07:55:31  5-MIN KSTC 241355Z AUTO 00000KT 7SM CLR M07/M08 A3005 910 92 -1500 000/00 RMK AO2
14926KSTC STC20041124080010011/24/04 08:00:31  5-MIN KSTC 241400Z AUTO 00000KT 7SM CLR M07/M08 A3004 910 92 -1500 000/00 RMK AO2
14926KSTC STC20041124080510011/24/04 08:05:31  5-MIN KSTC 241405Z AUTO 00000KT 7SM CLR M07/M07 A3004 910 96 -1500 000/00 RMK AO2
14926KSTC STC20041124081010011/24/04 08:10:31  5-MIN KSTC 241410Z AUTO 00000KT 7SM CLR M07/M08 A3004 920 96 -1500 000/00 RMK AO2
14926KSTC STC20041124081510011/24/04 08:15:31  5-MIN KSTC 241415Z AUTO 00000KT 7SM CLR M07/M08 A3004 920 96 -1500 000/00 RMK AO2
14926KSTC STC20041124082010011/24/04 08:20:31  5-MIN KSTC 241420Z AUTO 00000KT 7SM CLR M07/M08 A3004 910 96 -1500 000/00 RMK AO2
14926KSTC STC20041124082510011/24/04 08:25:31  5-MIN KSTC 241425Z AUTO 00000KT 8SM CLR M07/M08 A3004 910 92 -1500 000/00 RMK AO2
14926KSTC STC20041124083010011/24/04 08:30:31  5-MIN KSTC 241430Z AUTO 00000KT 8SM CLR M06/M07 A3004 920 92 -1400 000/00 RMK AO2
14926KSTC STC20041124083510011/24/04 08:35:31  5-MIN KSTC 241435Z AUTO 00000KT 9SM CLR M06/M07 A3004 920 92 -1300 000/00 RMK AO2
14926KSTC STC20041124084010111/24/04 08:40:31  5-MIN KSTC 241440Z AUTO 00000KT 10SM CLR M06/M07 A3004 920 92 -1300 000/00 RMK AO2
14926KSTC STC20041124084510111/24/04 08:45:31  5-MIN KSTC 241445Z AUTO 00000KT 10SM CLR M06/M07 A3004 920 92 -1300 000/00 RMK AO2
14926KSTC STC20041124085012411/24/04 08:50:31  5-MIN KSTC 241450Z AUTO 00000KT 10SM CLR M06/M07 A3004 920 92 -1300 000/00 RMK AO2 SLP198 T10561067 56001
14926KSTC STC20041124085510011/24/04 08:55:31  5-MIN KSTC 241455Z AUTO 00000KT 9SM CLR M06/M07 A3004 920 92 -1300 000/00 RMK AO2
14926KSTC STC20041124090010011/24/04 09:00:31  5-MIN KSTC 241500Z AUTO 00000KT 8SM CLR M05/M06 A3004 920 92 -1200 000/00 RMK AO2
14926KSTC STC20041124090510011/24/04 09:05:31  5-MIN KSTC 241505Z AUTO 00000KT 9SM CLR M05/M06 A3003 920 92 -1200 000/00 RMK AO2
14926KSTC STC20041124091010111/24/04 09:10:31  5-MIN KSTC 241510Z AUTO 00000KT 10SM CLR M04/M06 A3003 920 92 -1200 000/00 RMK AO2
14926KSTC STC20041124091510111/24/04 09:15:31  5-MIN KSTC 241515Z AUTO 00000KT 10SM CLR M04/M05 A3003 920 92 -1100 000/00 RMK AO2
14926KSTC STC20041124092010111/24/04 09:20:31  5-MIN KSTC 241520Z AUTO 00000KT 10SM CLR M03/M06 A3003 930 85 -1000 000/00 RMK AO2
14926KSTC STC20041124092510111/24/04 09:25:31  5-MIN KSTC 241525Z AUTO 30003KT 10SM CLR M03/M06 A3003 930 85 -1000 300/03 RMK AO2
14926KSTC STC20041124093010011/24/04 09:30:31  5-MIN KSTC 241530Z AUTO 30003KT 10SM CLR M03/M06 A3003 930 81 -900 300/03 RMK AO2
14926KSTC STC20041124093510011/24/04 09:35:31  5-MIN KSTC 241535Z AUTO 29003KT 10SM CLR M03/M06 A3003 930 78 -900 280/03 RMK AO2
14926KSTC STC20041124094010011/24/04 09:40:31  5-MIN KSTC 241540Z AUTO 30004KT 10SM CLR M03/M07 A3002 930 75 -900 300/04 RMK AO2
14926KSTC STC20041124094510011/24/04 09:45:31  5-MIN KSTC 241545Z AUTO 30004KT 10SM CLR M02/M07 A3002 930 72 -900 290/04 RMK AO2
14926KSTC STC20041124095011711/24/04 09:50:31  5-MIN KSTC 241550Z AUTO 29004KT 10SM CLR M02/M07 A3002 930 69 -900 290/04 RMK AO2 SLP190 T10221072
14926KSTC STC20041124095510011/24/04 09:55:31  5-MIN KSTC 241555Z AUTO 29004KT 10SM CLR M02/M08 A3002 930 63 -900 290/04 RMK AO2
14926KSTC STC20041124100010011/24/04 10:00:31  5-MIN KSTC 241600Z AUTO 30004KT 10SM CLR M02/M09 A3002 940 60 -900 300/04 RMK AO2
14926KSTC STC20041124100510011/24/04 10:05:31  5-MIN KSTC 241605Z AUTO 32003KT 10SM CLR M02/M07 A3002 940 66 -800 320/03 RMK AO2
14926KSTC STC20041124101010011/24/04 10:10:31  5-MIN KSTC 241610Z AUTO VRB03KT 10SM CLR M02/M07 A3002 940 66 -800 VRB/03 RMK AO2
14926KSTC STC20041124101510011/24/04 10:15:31  5-MIN KSTC 241615Z AUTO 33004KT 10SM CLR M02/M08 A3002 940 63 -800 320/04 RMK AO2
14926KSTC STC20041124102010011/24/04 10:20:31  5-MIN KSTC 241620Z AUTO 31004KT 10SM CLR M02/M08 A3002 940 63 -800 310/04 RMK AO2
14926KSTC STC20041124102510011/24/04 10:25:31  5-MIN KSTC 241625Z AUTO 32004KT 10SM CLR M01/M08 A3002 930 60 -700 320/04 RMK AO2
14926KSTC STC20041124103010011/24/04 10:30:31  5-MIN KSTC 241630Z AUTO VRB03KT 10SM CLR M01/M08 A3002 940 60 -700 VRB/03 RMK AO2
14926KSTC STC20041124103510011/24/04 10:35:31  5-MIN KSTC 241635Z AUTO 28004KT 10SM CLR M01/M08 A3002 940 58 -700 280/04 RMK AO2
14926KSTC STC20041124104010011/24/04 10:40:31  5-MIN KSTC 241640Z AUTO 31003KT 10SM CLR M01/M08 A3002 940 58 -700 300/03 RMK AO2
14926KSTC STC20041124104510011/24/04 10:45:31  5-MIN KSTC 241645Z AUTO VRB03KT 10SM CLR M01/M09 A3001 940 55 -700 VRB/03 RMK AO2
14926KSTC STC20041124105011711/24/04 10:50:31  5-MIN KSTC 241650Z AUTO 00000KT 10SM CLR M01/M09 A3001 940 55 -700 000/00 RMK AO2 SLP186 T10111089
14926KSTC STC20041124105510011/24/04 10:55:31  5-MIN KSTC 241655Z AUTO 00000KT 10SM CLR M01/M09 A3001 950 55 -700 000/00 RMK AO2
14926KSTC STC20041124110010011/24/04 11:00:31  5-MIN KSTC 241700Z AUTO VRB03KT 10SM CLR M01/M08 A3001 950 56 -600 VRB/03 RMK AO2
14926KSTC STC20041124110510011/24/04 11:05:31  5-MIN KSTC 241705Z AUTO VRB03KT 10SM CLR M01/M09 A3000 950 55 -700 VRB/03 RMK AO2
14926KSTC STC20041124111010011/24/04 11:10:31  5-MIN KSTC 241710Z AUTO VRB03KT 10SM CLR M01/M08 A3000 950 56 -600 VRB/03 RMK AO2
14926KSTC STC20041124111510011/24/04 11:15:31  5-MIN KSTC 241715Z AUTO 27003KT 10SM CLR M01/M09 A3000 960 53 -600 260/03 RMK AO2
14926KSTC STC20041124112010011/24/04 11:20:31  5-MIN KSTC 241720Z AUTO 00000KT 10SM CLR M01/M09 A2999 960 53 -600 000/00 RMK AO2
14926KSTC STC20041124112510011/24/04 11:25:31  5-MIN KSTC 241725Z AUTO 00000KT 10SM CLR M01/M09 A2999 970 51 -600 000/00 RMK AO2
14926KSTC STC20041124113009911/24/04 11:30:31  5-MIN KSTC 241730Z AUTO 00000KT 10SM CLR 00/M09 A2998 970 49 -500 000/00 RMK AO2
14926KSTC STC20041124113509911/24/04 11:35:31  5-MIN KSTC 241735Z AUTO VRB03KT 10SM CLR 00/M09 A2998 970 49 -500 VRB/03 RMK AO2
14926KSTC STC20041124114009911/24/04 11:40:31  5-MIN KSTC 241740Z AUTO 31005KT 10SM CLR 00/M09 A2998 970 49 -500 310/05 RMK AO2
14926KSTC STC20041124114509911/24/04 11:45:31  5-MIN KSTC 241745Z AUTO VRB03KT 10SM CLR 00/M09 A2997 980 51 -500 VRB/03 RMK AO2
14926KSTC STC20041124115013411/24/04 11:50:31  5-MIN KSTC 241750Z AUTO 27005KT 10SM CLR 00/M09 A2997 980 49 -500 270/05 RMK AO2 SLP172 T00001094 10000 21072 56008
14926KSTC STC20041124115509911/24/04 11:55:31  5-MIN KSTC 241755Z AUTO 31005KT 10SM CLR 00/M10 A2997 980 47 -500 300/05 RMK AO2
14926KSTC STC20041124120009911/24/04 12:00:31  5-MIN KSTC 241800Z AUTO VRB03KT 10SM CLR 00/M10 A2997 980 47 -500 VRB/03 RMK AO2
14926KSTC STC20041124120509911/24/04 12:05:31  5-MIN KSTC 241805Z AUTO VRB03KT 10SM CLR 01/M09 A2996 990 47 -400 VRB/03 RMK AO2
14926KSTC STC20041124121009911/24/04 12:10:31  5-MIN KSTC 241810Z AUTO 28007KT 10SM CLR 01/M09 A2996 990 47 -400 270/07 RMK AO2
14926KSTC STC20041124121510011/24/04 12:15:31  5-MIN KSTC 241815Z AUTO 00000KT 10SM CLR 01/M10 A2995 1000 45 -400 000/00 RMK AO2
14926KSTC STC20041124122010011/24/04 12:20:31  5-MIN KSTC 241820Z AUTO 31005KT 10SM CLR 01/M09 A2995 1000 47 -400 310/05 RMK AO2
14926KSTC STC20041124122510011/24/04 12:25:31  5-MIN KSTC 241825Z AUTO VRB04KT 10SM CLR 01/M09 A2995 1000 47 -400 VRB/04 RMK AO2
14926KSTC STC20041124123010011/24/04 12:30:31  5-MIN KSTC 241830Z AUTO 00000KT 10SM CLR 00/M11 A2995 1000 45 -500 000/00 RMK AO2
14926KSTC STC20041124123510011/24/04 12:35:31  5-MIN KSTC 241835Z AUTO 30007KT 10SM CLR 01/M10 A2995 1000 43 -400 300/07 RMK AO2
14926KSTC STC20041124124010011/24/04 12:40:31  5-MIN KSTC 241840Z AUTO 31006KT 10SM CLR 01/M09 A2995 1000 47 -400 310/06 RMK AO2
14926KSTC STC20041124124510011/24/04 12:45:31  5-MIN KSTC 241845Z AUTO 32008KT 10SM CLR 01/M09 A2994 1010 47 -400 320/08 RMK AO2
14926KSTC STC20041124125011711/24/04 12:50:31  5-MIN KSTC 241850Z AUTO 34005KT 10SM CLR 01/M10 A2994 1010 43 -300 340/05 RMK AO2 SLP161 T00111100
14926KSTC STC20041124125510011/24/04 12:55:31  5-MIN KSTC 241855Z AUTO 33006KT 10SM CLR 01/M10 A2994 1010 43 -300 330/06 RMK AO2
14926KSTC STC20041124130010011/24/04 13:00:31  5-MIN KSTC 241900Z AUTO 32007KT 10SM CLR 01/M10 A2993 1020 45 -400 310/07 RMK AO2
14926KSTC STC20041124130510011/24/04 13:05:31  5-MIN KSTC 241905Z AUTO 32005KT 10SM CLR 01/M10 A2993 1020 43 -300 320/05 RMK AO2
14926KSTC STC20041124131010011/24/04 13:10:31  5-MIN KSTC 241910Z AUTO 31005KT 10SM CLR 01/M10 A2993 1020 43 -300 310/05 RMK AO2
14926KSTC STC20041124131510011/24/04 13:15:31  5-MIN KSTC 241915Z AUTO 29003KT 10SM CLR 01/M10 A2992 1030 45 -400 290/03 RMK AO2
14926KSTC STC20041124132010011/24/04 13:20:31  5-MIN KSTC 241920Z AUTO 32005KT 10SM CLR 01/M09 A2992 1030 45 -300 320/05 RMK AO2
14926KSTC STC20041124132510011/24/04 13:25:31  5-MIN KSTC 241925Z AUTO 29006KT 10SM CLR 01/M09 A2992 1030 45 -300 290/06 RMK AO2
14926KSTC STC20041124133010011/24/04 13:30:31  5-MIN KSTC 241930Z AUTO 25004KT 10SM CLR 01/M10 A2991 1030 43 -300 250/04 RMK AO2
14926KSTC STC20041124133510011/24/04 13:35:31  5-MIN KSTC 241935Z AUTO 32004KT 10SM CLR 01/M10 A2991 1040 43 -300 320/04 RMK AO2
14926KSTC STC20041124134010011/24/04 13:40:31  5-MIN KSTC 241940Z AUTO 32005KT 10SM CLR 01/M09 A2991 1040 45 -300 320/05 RMK AO2
14926KSTC STC20041124134510011/24/04 13:45:31  5-MIN KSTC 241945Z AUTO 31006KT 10SM CLR 01/M09 A2991 1040 45 -300 300/06 RMK AO2
14926KSTC STC20041124135011711/24/04 13:50:31  5-MIN KSTC 241950Z AUTO 31007KT 10SM CLR 01/M09 A2991 1040 45 -300 310/07 RMK AO2 SLP150 T00111094
14926KSTC STC20041124135510011/24/04 13:55:31  5-MIN KSTC 241955Z AUTO 31006KT 10SM CLR 01/M10 A2991 1040 43 -300 300/06 RMK AO2
14926KSTC STC20041124140010011/24/04 14:00:31  5-MIN KSTC 242000Z AUTO 32006KT 10SM CLR 01/M10 A2991 1040 43 -300 320/06 RMK AO2
14926KSTC STC20041124140510011/24/04 14:05:31  5-MIN KSTC 242005Z AUTO 32005KT 10SM CLR 01/M10 A2991 1040 43 -300 310/05 RMK AO2
14926KSTC STC20041124141010011/24/04 14:10:31  5-MIN KSTC 242010Z AUTO 31005KT 10SM CLR 02/M09 A2990 1040 43 -200 310/05 RMK AO2
14926KSTC STC20041124141510011/24/04 14:15:31  5-MIN KSTC 242015Z AUTO VRB05KT 10SM CLR 02/M09 A2990 1040 43 -200 VRB/05 RMK AO2
14926KSTC STC20041124142010011/24/04 14:20:31  5-MIN KSTC 242020Z AUTO 26004KT 10SM CLR 02/M09 A2990 1050 43 -200 260/04 RMK AO2
14926KSTC STC20041124142510011/24/04 14:25:31  5-MIN KSTC 242025Z AUTO 29004KT 10SM CLR 02/M09 A2989 1050 43 -200 290/04 RMK AO2
14926KSTC STC20041124143010011/24/04 14:30:31  5-MIN KSTC 242030Z AUTO VRB04KT 10SM CLR 02/M10 A2989 1050 42 -200 VRB/04 RMK AO2
14926KSTC STC20041124143510011/24/04 14:35:31  5-MIN KSTC 242035Z AUTO 27004KT 10SM CLR 02/M09 A2989 1060 43 -200 260/04 RMK AO2
14926KSTC STC20041124144010011/24/04 14:40:31  5-MIN KSTC 242040Z AUTO 30005KT 10SM CLR 02/M09 A2989 1060 43 -200 300/05 RMK AO2
14926KSTC STC20041124144510011/24/04 14:45:31  5-MIN KSTC 242045Z AUTO 28006KT 10SM CLR 02/M09 A2989 1060 43 -200 280/06 RMK AO2
14926KSTC STC20041124145012311/24/04 14:50:31  5-MIN KSTC 242050Z AUTO 28005KT 10SM CLR 02/M10 A2989 1060 42 -200 280/05 RMK AO2 SLP143 T00171100 58024
14926KSTC STC20041124145510011/24/04 14:55:31  5-MIN KSTC 242055Z AUTO VRB06KT 10SM CLR 02/M10 A2989 1060 42 -200 VRB/06 RMK AO2
14926KSTC STC20041124150010011/24/04 15:00:31  5-MIN KSTC 242100Z AUTO 27007KT 10SM CLR 02/M10 A2989 1060 42 -200 270/07 RMK AO2
14926KSTC STC20041124150510011/24/04 15:05:31  5-MIN KSTC 242105Z AUTO 27005KT 10SM CLR 01/M11 A2988 1060 41 -300 260/05 RMK AO2
14926KSTC STC20041124151010011/24/04 15:10:31  5-MIN KSTC 242110Z AUTO 30006KT 10SM CLR 02/M10 A2988 1060 42 -200 300/06 RMK AO2
14926KSTC STC20041124151510011/24/04 15:15:31  5-MIN KSTC 242115Z AUTO 31004KT 10SM CLR 01/M10 A2989 1060 43 -300 310/04 RMK AO2
14926KSTC STC20041124152010011/24/04 15:20:31  5-MIN KSTC 242120Z AUTO 29004KT 10SM CLR 02/M09 A2989 1060 43 -200 290/04 RMK AO2
14926KSTC STC20041124152510011/24/04 15:25:31  5-MIN KSTC 242125Z AUTO 29004KT 10SM CLR 01/M10 A2988 1060 43 -300 280/04 RMK AO2
14926KSTC STC20041124153010011/24/04 15:30:31  5-MIN KSTC 242130Z AUTO 31006KT 10SM CLR 01/M09 A2988 1060 45 -300 310/06 RMK AO2
14926KSTC STC20041124153510011/24/04 15:35:31  5-MIN KSTC 242135Z AUTO 30006KT 10SM CLR 01/M09 A2988 1060 47 -300 300/06 RMK AO2
14926KSTC STC20041124154010011/24/04 15:40:31  5-MIN KSTC 242140Z AUTO 30006KT 10SM CLR 01/M09 A2988 1060 45 -300 300/06 RMK AO2
14926KSTC STC20041124154510011/24/04 15:45:31  5-MIN KSTC 242145Z AUTO 30006KT 10SM CLR 01/M09 A2988 1060 45 -300 300/06 RMK AO2
14926KSTC STC20041124155011711/24/04 15:50:31  5-MIN KSTC 242150Z AUTO 29005KT 10SM CLR 01/M09 A2988 1060 45 -300 290/05 RMK AO2 SLP141 T00111094
14926KSTC STC20041124155510011/24/04 15:55:31  5-MIN KSTC 242155Z AUTO 31005KT 10SM CLR 01/M09 A2988 1060 47 -400 300/05 RMK AO2
14926KSTC STC20041124160010011/24/04 16:00:31  5-MIN KSTC 242200Z AUTO 30004KT 10SM CLR 01/M09 A2988 1060 47 -400 300/04 RMK AO2
14926KSTC STC20041124160510011/24/04 16:05:31  5-MIN KSTC 242205Z AUTO 28004KT 10SM CLR 00/M09 A2988 1060 51 -400 280/04 RMK AO2
14926KSTC STC20041124161010011/24/04 16:10:31  5-MIN KSTC 242210Z AUTO 28004KT 10SM CLR 00/M09 A2988 1060 49 -400 270/04 RMK AO2
14926KSTC STC20041124161510011/24/04 16:15:31  5-MIN KSTC 242215Z AUTO 29004KT 10SM CLR 00/M10 A2988 1060 47 -400 290/04 RMK AO2
14926KSTC STC20041124162010111/24/04 16:20:31  5-MIN KSTC 242220Z AUTO 29003KT 10SM CLR M01/M09 A2988 1060 51 -500 290/03 RMK AO2
14926KSTC STC20041124162510111/24/04 16:25:31  5-MIN KSTC 242225Z AUTO 00000KT 10SM CLR M01/M10 A2988 1060 49 -500 000/00 RMK AO2
14926KSTC STC20041124163010111/24/04 16:30:31  5-MIN KSTC 242230Z AUTO 00000KT 10SM CLR M01/M09 A2988 1060 51 -500 000/00 RMK AO2
14926KSTC STC20041124163510111/24/04 16:35:31  5-MIN KSTC 242235Z AUTO 00000KT 10SM CLR M01/M09 A2988 1060 51 -500 000/00 RMK AO2
14926KSTC STC20041124164010111/24/04 16:40:31  5-MIN KSTC 242240Z AUTO 00000KT 10SM CLR M01/M09 A2988 1060 51 -500 000/00 RMK AO2
14926KSTC STC20041124164510111/24/04 16:45:31  5-MIN KSTC 242245Z AUTO 26003KT 10SM CLR M01/M09 A2988 1060 51 -500 260/03 RMK AO2
14926KSTC STC20041124165011811/24/04 16:50:31  5-MIN KSTC 242250Z AUTO 26003KT 10SM CLR M01/M10 A2988 1060 51 -600 250/03 RMK AO2 SLP142 T10111100
14926KSTC STC20041124165510111/24/04 16:55:31  5-MIN KSTC 242255Z AUTO 24003KT 10SM CLR M02/M10 A2988 1060 53 -600 240/03 RMK AO2
14926KSTC STC20041124170010111/24/04 17:00:31  5-MIN KSTC 242300Z AUTO 22003KT 10SM CLR M02/M10 A2988 1060 55 -700 220/03 RMK AO2
14926KSTC STC20041124170510111/24/04 17:05:31  5-MIN KSTC 242305Z AUTO 23003KT 10SM CLR M02/M10 A2988 1060 55 -700 230/03 RMK AO2
14926KSTC STC20041124171010111/24/04 17:10:31  5-MIN KSTC 242310Z AUTO 22003KT 10SM CLR M02/M09 A2988 1060 60 -700 220/03 RMK AO2
14926KSTC STC20041124171510111/24/04 17:15:31  5-MIN KSTC 242315Z AUTO 20003KT 10SM CLR M02/M09 A2988 1060 58 -700 200/03 RMK AO2
14926KSTC STC20041124172010111/24/04 17:20:31  5-MIN KSTC 242320Z AUTO 22004KT 10SM CLR M03/M09 A2988 1060 63 -800 220/04 RMK AO2
14926KSTC STC20041124172510111/24/04 17:25:31  5-MIN KSTC 242325Z AUTO 24004KT 10SM CLR M03/M09 A2988 1060 63 -800 230/04 RMK AO2
14926KSTC STC20041124173010111/24/04 17:30:31  5-MIN KSTC 242330Z AUTO 24005KT 10SM CLR M03/M09 A2989 1060 63 -800 240/05 RMK AO2
14926KSTC STC20041124173510111/24/04 17:35:31  5-MIN KSTC 242335Z AUTO 25004KT 10SM CLR M03/M09 A2989 1060 63 -800 240/04 RMK AO2
14926KSTC STC20041124174010111/24/04 17:40:31  5-MIN KSTC 242340Z AUTO 26004KT 10SM CLR M04/M09 A2989 1060 65 -900 250/04 RMK AO2
14926KSTC STC20041124174510111/24/04 17:45:31  5-MIN KSTC 242345Z AUTO 25004KT 10SM CLR M04/M09 A2989 1060 65 -900 250/04 RMK AO2
14926KSTC STC20041124175013611/24/04 17:50:31  5-MIN KSTC 242350Z AUTO 26004KT 10SM CLR M03/M10 A2989 1060 60 -800 250/04 RMK AO2 SLP145 T10331100 10017 21039 56027
14926KSTC STC20041124175510111/24/04 17:55:31  5-MIN KSTC 242355Z AUTO 25003KT 10SM CLR M03/M10 A2989 1060 60 -800 250/03 RMK AO2
14926KSTC STC20041124180010111/24/04 18:00:31  5-MIN KSTC 250000Z AUTO 26003KT 10SM CLR M03/M10 A2989 1060 60 -800 250/03 RMK AO2
14926KSTC STC20041124180510111/24/04 18:05:31  5-MIN KSTC 250005Z AUTO 26003KT 10SM CLR M03/M10 A2989 1060 60 -800 260/03 RMK AO2
14926KSTC STC20041124181010111/24/04 18:10:31  5-MIN KSTC 250010Z AUTO 26003KT 10SM CLR M03/M10 A2989 1060 60 -800 260/03 RMK AO2
14926KSTC STC20041124181510111/24/04 18:15:31  5-MIN KSTC 250015Z AUTO 26003KT 10SM CLR M03/M10 A2989 1060 60 -800 260/03 RMK AO2
14926KSTC STC20041124182010111/24/04 18:20:31  5-MIN KSTC 250020Z AUTO 26003KT 10SM CLR M03/M10 A2989 1060 60 -800 250/03 RMK AO2
14926KSTC STC20041124182510111/24/04 18:25:31  5-MIN KSTC 250025Z AUTO 26003KT 10SM CLR M03/M10 A2989 1060 60 -800 260/03 RMK AO2
14926KSTC STC20041124183010111/24/04 18:30:31  5-MIN KSTC 250030Z AUTO 26003KT 10SM CLR M03/M10 A2989 1060 60 -800 250/03 RMK AO2
14926KSTC STC20041124183510111/24/04 18:35:31  5-MIN KSTC 250035Z AUTO 25003KT 10SM CLR M03/M10 A2989 1060 60 -800 250/03 RMK AO2
14926KSTC STC20041124184010111/24/04 18:40:31  5-MIN KSTC 250040Z AUTO 26003KT 10SM CLR M03/M10 A2989 1060 60 -800 250/03 RMK AO2
14926KSTC STC20041124184510111/24/04 18:45:31  5-MIN KSTC 250045Z AUTO 00000KT 10SM CLR M04/M10 A2989 1060 63 -900 000/00 RMK AO2
14926KSTC STC20041124185011911/24/04 18:50:31  5-MIN KSTC 250050Z AUTO 00000KT 10SM CLR M04/M10 A2989 1060 65 -1000 000/00 RMK AO2 SLP144 T10441100
14926KSTC STC20041124185510211/24/04 18:55:31  5-MIN KSTC 250055Z AUTO 26003KT 10SM CLR M04/M10 A2989 1060 65 -1000 250/03 RMK AO2
14926KSTC STC20041124190010111/24/04 19:00:31  5-MIN KSTC 250100Z AUTO 26003KT 10SM CLR M04/M10 A2989 1060 63 -900 260/03 RMK AO2
14926KSTC STC20041124190510211/24/04 19:05:31  5-MIN KSTC 250105Z AUTO 25003KT 10SM CLR M04/M10 A2989 1060 65 -1000 240/03 RMK AO2
14926KSTC STC20041124191010211/24/04 19:10:31  5-MIN KSTC 250110Z AUTO 24003KT 10SM CLR M04/M10 A2989 1060 65 -1000 240/03 RMK AO2
14926KSTC STC20041124191510211/24/04 19:15:31  5-MIN KSTC 250115Z AUTO 00000KT 10SM CLR M04/M10 A2989 1060 65 -1000 000/00 RMK AO2
14926KSTC STC20041124192010211/24/04 19:20:31  5-MIN KSTC 250120Z AUTO 00000KT 10SM CLR M04/M10 A2989 1060 65 -1000 000/00 RMK AO2
14926KSTC STC20041124192510211/24/04 19:25:31  5-MIN KSTC 250125Z AUTO 23003KT 10SM CLR M04/M10 A2989 1060 65 -1000 230/03 RMK AO2
14926KSTC STC20041124193010211/24/04 19:30:31  5-MIN KSTC 250130Z AUTO 24003KT 10SM CLR M05/M10 A2988 1060 68 -1100 240/03 RMK AO2
14926KSTC STC20041124193510211/24/04 19:35:31  5-MIN KSTC 250135Z AUTO 23003KT 10SM CLR M05/M09 A2988 1060 71 -1100 230/03 RMK AO2
14926KSTC STC20041124194010211/24/04 19:40:31  5-MIN KSTC 250140Z AUTO 23003KT 10SM CLR M06/M09 A2988 1060 74 -1100 220/03 RMK AO2
14926KSTC STC20041124194510211/24/04 19:45:31  5-MIN KSTC 250145Z AUTO 22003KT 10SM CLR M06/M09 A2988 1060 81 -1200 220/03 RMK AO2
14926KSTC STC20041124195011911/24/04 19:50:31  5-MIN KSTC 250150Z AUTO 22003KT 10SM CLR M05/M09 A2988 1060 74 -1100 220/03 RMK AO2 SLP143 T10501089
14926KSTC STC20041124195510211/24/04 19:55:31  5-MIN KSTC 250155Z AUTO 20003KT 10SM CLR M05/M09 A2988 1060 71 -1100 200/03 RMK AO2
14926KSTC STC20041124200010211/24/04 20:00:31  5-MIN KSTC 250200Z AUTO 19003KT 10SM CLR M06/M09 A2988 1060 74 -1100 190/03 RMK AO2
14926KSTC STC20041124200510211/24/04 20:05:31  5-MIN KSTC 250205Z AUTO 19003KT 10SM CLR M06/M10 A2988 1070 74 -1200 190/03 RMK AO2
14926KSTC STC20041124201010211/24/04 20:10:31  5-MIN KSTC 250210Z AUTO 20004KT 10SM CLR M06/M10 A2988 1060 71 -1100 200/04 RMK AO2
14926KSTC STC20041124201510211/24/04 20:15:31  5-MIN KSTC 250215Z AUTO 21003KT 10SM CLR M05/M10 A2988 1060 68 -1100 210/03 RMK AO2
14926KSTC STC20041124202010211/24/04 20:20:31  5-MIN KSTC 250220Z AUTO 21003KT 10SM CLR M06/M10 A2988 1060 71 -1100 210/03 RMK AO2
14926KSTC STC20041124202510211/24/04 20:25:31  5-MIN KSTC 250225Z AUTO 21003KT 10SM CLR M05/M09 A2988 1060 71 -1100 210/03 RMK AO2
14926KSTC STC20041124203010211/24/04 20:30:31  5-MIN KSTC 250230Z AUTO 00000KT 10SM CLR M06/M10 A2988 1060 71 -1100 000/00 RMK AO2
14926KSTC STC20041124203510211/24/04 20:35:31  5-MIN KSTC 250235Z AUTO 20003KT 10SM CLR M05/M10 A2988 1060 68 -1100 190/03 RMK AO2
14926KSTC STC20041124204010211/24/04 20:40:31  5-MIN KSTC 250240Z AUTO 20003KT 10SM CLR M06/M10 A2988 1060 71 -1100 190/03 RMK AO2
14926KSTC STC20041124204510211/24/04 20:45:31  5-MIN KSTC 250245Z AUTO 21003KT 10SM CLR M06/M10 A2988 1060 71 -1100 210/03 RMK AO2
14926KSTC STC20041124205012511/24/04 20:50:31  5-MIN KSTC 250250Z AUTO 24003KT 10SM CLR M05/M10 A2988 1060 68 -1100 230/03 RMK AO2 SLP143 T10501100 55000
14926KSTC STC20041124205510211/24/04 20:55:31  5-MIN KSTC 250255Z AUTO 25003KT 10SM CLR M05/M10 A2988 1060 68 -1100 250/03 RMK AO2
14926KSTC STC20041124210010211/24/04 21:00:31  5-MIN KSTC 250300Z AUTO 25003KT 10SM CLR M06/M09 A2988 1060 74 -1100 250/03 RMK AO2
14926KSTC STC20041124210510211/24/04 21:05:31  5-MIN KSTC 250305Z AUTO 25003KT 10SM CLR M06/M09 A2988 1070 74 -1100 250/03 RMK AO2
14926KSTC STC20041124211010211/24/04 21:10:31  5-MIN KSTC 250310Z AUTO 26003KT 10SM CLR M06/M08 A2988 1070 81 -1100 250/03 RMK AO2
14926KSTC STC20041124211510211/24/04 21:15:31  5-MIN KSTC 250315Z AUTO 25003KT 10SM CLR M06/M08 A2988 1070 84 -1200 240/03 RMK AO2
14926KSTC STC20041124212010211/24/04 21:20:31  5-MIN KSTC 250320Z AUTO 00000KT 10SM CLR M06/M11 A2987 1070 71 -1200 000/00 RMK AO2
14926KSTC STC20041124212510211/24/04 21:25:31  5-MIN KSTC 250325Z AUTO 00000KT 10SM CLR M06/M11 A2987 1070 68 -1100 000/00 RMK AO2
14926KSTC STC20041124213010211/24/04 21:30:31  5-MIN KSTC 250330Z AUTO 00000KT 10SM CLR M06/M11 A2987 1070 68 -1100 000/00 RMK AO2
14926KSTC STC20041124213510211/24/04 21:35:31  5-MIN KSTC 250335Z AUTO 00000KT 10SM CLR M06/M11 A2987 1070 65 -1100 000/00 RMK AO2
14926KSTC STC20041124214010211/24/04 21:40:31  5-MIN KSTC 250340Z AUTO 00000KT 10SM CLR M06/M11 A2987 1070 68 -1200 000/00 RMK AO2
14926KSTC STC20041124214510211/24/04 21:45:31  5-MIN KSTC 250345Z AUTO 00000KT 10SM CLR M06/M11 A2987 1070 65 -1100 000/00 RMK AO2
14926KSTC STC20041124215011911/24/04 21:50:31  5-MIN KSTC 250350Z AUTO 22003KT 10SM CLR M06/M11 A2987 1070 65 -1100 220/03 RMK AO2 SLP139 T10561111
14926KSTC STC20041124215510211/24/04 21:55:31  5-MIN KSTC 250355Z AUTO 23003KT 10SM CLR M06/M11 A2987 1070 65 -1100 230/03 RMK AO2
14926KSTC STC20041124220010211/24/04 22:00:31  5-MIN KSTC 250400Z AUTO 23003KT 10SM CLR M06/M11 A2987 1070 68 -1200 220/03 RMK AO2
14926KSTC STC20041124220510211/24/04 22:05:31  5-MIN KSTC 250405Z AUTO 21003KT 10SM CLR M06/M11 A2987 1070 68 -1200 210/03 RMK AO2
14926KSTC STC20041124221010211/24/04 22:10:31  5-MIN KSTC 250410Z AUTO 22003KT 10SM CLR M07/M11 A2987 1070 74 -1300 210/03 RMK AO2
14926KSTC STC20041124221510211/24/04 22:15:31  5-MIN KSTC 250415Z AUTO 22003KT 10SM CLR M07/M11 A2987 1070 71 -1300 220/03 RMK AO2
14926KSTC STC20041124222010211/24/04 22:20:31  5-MIN KSTC 250420Z AUTO 00000KT 10SM CLR M07/M11 A2987 1080 74 -1300 000/00 RMK AO2
14926KSTC STC20041124222510211/24/04 22:25:31  5-MIN KSTC 250425Z AUTO 00000KT 10SM CLR M07/M11 A2987 1080 74 -1300 000/00 RMK AO2
14926KSTC STC20041124223010211/24/04 22:30:31  5-MIN KSTC 250430Z AUTO 00000KT 10SM CLR M06/M10 A2986 1080 74 -1200 000/00 RMK AO2
14926KSTC STC20041124223510211/24/04 22:35:31  5-MIN KSTC 250435Z AUTO 00000KT 10SM CLR M06/M10 A2986 1080 74 -1200 000/00 RMK AO2
14926KSTC STC20041124224010211/24/04 22:40:31  5-MIN KSTC 250440Z AUTO 00000KT 10SM CLR M07/M10 A2986 1080 77 -1200 000/00 RMK AO2
14926KSTC STC20041124224510211/24/04 22:45:31  5-MIN KSTC 250445Z AUTO 00000KT 10SM CLR M06/M10 A2986 1080 74 -1200 000/00 RMK AO2
14926KSTC STC20041124225011911/24/04 22:50:31  5-MIN KSTC 250450Z AUTO 24003KT 10SM CLR M06/M10 A2986 1080 74 -1200 240/03 RMK AO2 SLP135 T10611100
14926KSTC STC20041124225510211/24/04 22:55:31  5-MIN KSTC 250455Z AUTO 24004KT 10SM CLR M06/M09 A2986 1080 77 -1200 240/04 RMK AO2
14926KSTC STC20041124230010211/24/04 23:00:31  5-MIN KSTC 250500Z AUTO 25003KT 10SM CLR M06/M09 A2986 1080 77 -1200 250/03 RMK AO2
14926KSTC STC20041124230510211/24/04 23:05:31  5-MIN KSTC 250505Z AUTO 25004KT 10SM CLR M07/M09 A2986 1080 81 -1200 240/04 RMK AO2
14926KSTC STC20041124231010211/24/04 23:10:31  5-MIN KSTC 250510Z AUTO 25003KT 10SM CLR M06/M09 A2986 1090 77 -1200 240/03 RMK AO2
14926KSTC STC20041124231510211/24/04 23:15:31  5-MIN KSTC 250515Z AUTO VRB03KT 10SM CLR M06/M09 A2985 1090 77 -1200 VRB/03 RMK AO2
14926KSTC STC20041124232010211/24/04 23:20:31  5-MIN KSTC 250520Z AUTO 00000KT 10SM CLR M06/M09 A2985 1090 77 -1200 000/00 RMK AO2
14926KSTC STC20041124232510211/24/04 23:25:31  5-MIN KSTC 250525Z AUTO 00000KT 10SM CLR M06/M09 A2985 1090 81 -1200 000/00 RMK AO2
14926KSTC STC20041124233010211/24/04 23:30:31  5-MIN KSTC 250530Z AUTO 00000KT 10SM CLR M06/M09 A2985 1090 81 -1200 000/00 RMK AO2
14926KSTC STC20041124233510211/24/04 23:35:31  5-MIN KSTC 250535Z AUTO 00000KT 10SM CLR M06/M09 A2985 1090 81 -1200 000/00 RMK AO2
14926KSTC STC20041124234010211/24/04 23:40:31  5-MIN KSTC 250540Z AUTO 00000KT 10SM CLR M06/M09 A2985 1090 81 -1200 000/00 RMK AO2
14926KSTC STC20041124234510211/24/04 23:45:31  5-MIN KSTC 250545Z AUTO 00000KT 10SM CLR M07/M09 A2985 1090 84 -1200 000/00 RMK AO2
14926KSTC STC20041124235014711/24/04 23:50:31  5-MIN KSTC 250550Z AUTO 00000KT 10SM CLR M06/M09 A2985 1090 81 -1200 000/00 RMK AO2 SLP131 T10611089 11033 21072 400171072 55002
14926KSTC STC20041124235510211/24/04 23:55:31  5-MIN KSTC 250555Z AUTO 00000KT 10SM CLR M06/M08 A2985 1090 84 -1200 000/00 RMK AO2
14926KSTC STC20041125000010211/25/04 00:00:32  5-MIN KSTC 250600Z AUTO 00000KT 10SM CLR M07/M09 A2985 1090 84 -1200 000/00 RMK AO2
14926KSTC STC20041125000510211/25/04 00:05:31  5-MIN KSTC 250605Z AUTO 00000KT 10SM CLR M07/M09 A2985 1090 84 -1200 000/00 RMK AO2
14926KSTC STC20041125001010211/25/04 00:10:31  5-MIN KSTC 250610Z AUTO 00000KT 10SM CLR M07/M09 A2985 1090 84 -1200 000/00 RMK AO2
14926KSTC STC20041125001510211/25/04 00:15:31  5-MIN KSTC 250615Z AUTO 00000KT 10SM CLR M07/M09 A2985 1090 84 -1200 000/00 RMK AO2
14926KSTC STC20041125002010211/25/04 00:20:31  5-MIN KSTC 250620Z AUTO 00000KT 10SM CLR M07/M09 A2985 1100 84 -1200 000/00 RMK AO2
14926KSTC STC20041125002510211/25/04 00:25:31  5-MIN KSTC 250625Z AUTO 00000KT 10SM CLR M07/M09 A2984 1100 84 -1200 000/00 RMK AO2
14926KSTC STC20041125003010211/25/04 00:30:31  5-MIN KSTC 250630Z AUTO 00000KT 10SM CLR M07/M08 A2984 1100 88 -1200 000/00 RMK AO2
14926KSTC STC20041125003510211/25/04 00:35:31  5-MIN KSTC 250635Z AUTO 27003KT 10SM CLR M07/M08 A2984 1100 88 -1200 270/03 RMK AO2
14926KSTC STC20041125004010211/25/04 00:40:31  5-MIN KSTC 250640Z AUTO 27003KT 10SM CLR M07/M08 A2984 1100 88 -1200 270/03 RMK AO2
14926KSTC STC20041125004510211/25/04 00:45:31  5-MIN KSTC 250645Z AUTO 28003KT 10SM CLR M07/M09 A2984 1100 84 -1200 280/03 RMK AO2
14926KSTC STC20041125005011911/25/04 00:50:31  5-MIN KSTC 250650Z AUTO 00000KT 10SM CLR M07/M09 A2984 1100 84 -1200 000/00 RMK AO2 SLP128 T10671089
14926KSTC STC20041125005510211/25/04 00:55:31  5-MIN KSTC 250655Z AUTO 29003KT 10SM CLR M07/M09 A2984 1100 84 -1200 290/03 RMK AO2
14926KSTC STC20041125010010211/25/04 01:00:31  5-MIN KSTC 250700Z AUTO 30003KT 10SM CLR M07/M08 A2984 1100 88 -1200 300/03 RMK AO2
14926KSTC STC20041125010510211/25/04 01:05:31  5-MIN KSTC 250705Z AUTO 30003KT 10SM CLR M07/M08 A2984 1100 88 -1200 290/03 RMK AO2
14926KSTC STC20041125011010211/25/04 01:10:31  5-MIN KSTC 250710Z AUTO 27003KT 10SM CLR M07/M08 A2984 1100 88 -1200 270/03 RMK AO2
14926KSTC STC20041125011510211/25/04 01:15:31  5-MIN KSTC 250715Z AUTO 28004KT 10SM CLR M07/M09 A2984 1100 88 -1300 270/04 RMK AO2
14926KSTC STC20041125012010211/25/04 01:20:31  5-MIN KSTC 250720Z AUTO 28004KT 10SM CLR M07/M08 A2984 1100 88 -1200 280/04 RMK AO2
14926KSTC STC20041125012510211/25/04 01:25:31  5-MIN KSTC 250725Z AUTO 30004KT 10SM CLR M07/M09 A2984 1100 84 -1200 290/04 RMK AO2
14926KSTC STC20041125013010211/25/04 01:30:31  5-MIN KSTC 250730Z AUTO 29003KT 10SM CLR M07/M09 A2984 1100 84 -1200 290/03 RMK AO2
14926KSTC STC20041125013510211/25/04 01:35:31  5-MIN KSTC 250735Z AUTO 29003KT 10SM CLR M07/M08 A2984 1100 88 -1200 280/03 RMK AO2
14926KSTC STC20041125014010211/25/04 01:40:31  5-MIN KSTC 250740Z AUTO 28003KT 10SM CLR M07/M08 A2984 1100 88 -1200 270/03 RMK AO2
14926KSTC STC20041125014510211/25/04 01:45:31  5-MIN KSTC 250745Z AUTO 28003KT 10SM CLR M07/M08 A2984 1100 88 -1200 270/03 RMK AO2
14926KSTC STC20041125015011911/25/04 01:50:31  5-MIN KSTC 250750Z AUTO 27003KT 10SM CLR M07/M08 A2983 1110 88 -1200 270/03 RMK AO2 SLP125 T10671083
14926KSTC STC20041125015510211/25/04 01:55:31  5-MIN KSTC 250755Z AUTO 00000KT 10SM CLR M07/M08 A2983 1110 88 -1200 000/00 RMK AO2
14926KSTC STC20041125020010211/25/04 02:00:31  5-MIN KSTC 250800Z AUTO 00000KT 10SM CLR M06/M08 A2983 1110 84 -1100 000/00 RMK AO2
14926KSTC STC20041125020510211/25/04 02:05:31  5-MIN KSTC 250805Z AUTO 00000KT 10SM CLR M06/M08 A2983 1110 84 -1100 000/00 RMK AO2
14926KSTC STC20041125021010211/25/04 02:10:31  5-MIN KSTC 250810Z AUTO 00000KT 10SM CLR M06/M08 A2983 1110 84 -1100 000/00 RMK AO2
14926KSTC STC20041125021510211/25/04 02:15:31  5-MIN KSTC 250815Z AUTO 00000KT 10SM CLR M06/M08 A2983 1110 84 -1100 000/00 RMK AO2
14926KSTC STC20041125022010211/25/04 02:20:31  5-MIN KSTC 250820Z AUTO 00000KT 10SM CLR M06/M08 A2983 1110 84 -1100 000/00 RMK AO2
14926KSTC STC20041125022510211/25/04 02:25:31  5-MIN KSTC 250825Z AUTO 00000KT 10SM CLR M06/M08 A2983 1110 84 -1100 000/00 RMK AO2
14926KSTC STC20041125023010211/25/04 02:30:31  5-MIN KSTC 250830Z AUTO 00000KT 10SM CLR M06/M08 A2983 1110 81 -1100 000/00 RMK AO2
14926KSTC STC20041125023510211/25/04 02:35:31  5-MIN KSTC 250835Z AUTO 00000KT 10SM CLR M06/M08 A2983 1110 84 -1100 000/00 RMK AO2
14926KSTC STC20041125024010211/25/04 02:40:31  5-MIN KSTC 250840Z AUTO 00000KT 10SM CLR M06/M08 A2983 1110 88 -1100 000/00 RMK AO2
14926KSTC STC20041125024510211/25/04 02:45:31  5-MIN KSTC 250845Z AUTO 00000KT 10SM CLR M06/M08 A2983 1110 88 -1100 000/00 RMK AO2
14926KSTC STC20041125025012511/25/04 02:50:31  5-MIN KSTC 250850Z AUTO 00000KT 10SM CLR M06/M08 A2983 1110 88 -1100 000/00 RMK AO2 SLP123 T10611078 58010
14926KSTC STC20041125025510211/25/04 02:55:31  5-MIN KSTC 250855Z AUTO 00000KT 10SM CLR M06/M08 A2982 1120 88 -1100 000/00 RMK AO2
14926KSTC STC20041125030010211/25/04 03:00:31  5-MIN KSTC 250900Z AUTO 00000KT 10SM CLR M06/M08 A2983 1110 88 -1100 000/00 RMK AO2
14926KSTC STC20041125030510211/25/04 03:05:31  5-MIN KSTC 250905Z AUTO 00000KT 10SM CLR M06/M08 A2982 1120 88 -1100 000/00 RMK AO2
14926KSTC STC20041125031010211/25/04 03:10:31  5-MIN KSTC 250910Z AUTO 00000KT 10SM CLR M06/M08 A2983 1110 88 -1100 000/00 RMK AO2
14926KSTC STC20041125031510211/25/04 03:15:31  5-MIN KSTC 250915Z AUTO 00000KT 10SM CLR M06/M08 A2982 1110 88 -1100 000/00 RMK AO2
14926KSTC STC20041125032010211/25/04 03:20:31  5-MIN KSTC 250920Z AUTO 00000KT 10SM CLR M06/M08 A2982 1120 88 -1100 000/00 RMK AO2
14926KSTC STC20041125032510211/25/04 03:25:31  5-MIN KSTC 250925Z AUTO 00000KT 10SM CLR M06/M08 A2982 1120 84 -1100 000/00 RMK AO2
14926KSTC STC20041125033010211/25/04 03:30:31  5-MIN KSTC 250930Z AUTO 00000KT 10SM CLR M06/M08 A2982 1120 84 -1100 000/00 RMK AO2
14926KSTC STC20041125033510211/25/04 03:35:31  5-MIN KSTC 250935Z AUTO 00000KT 10SM CLR M06/M08 A2982 1120 84 -1100 000/00 RMK AO2
14926KSTC STC20041125034010211/25/04 03:40:31  5-MIN KSTC 250940Z AUTO 00000KT 10SM CLR M06/M08 A2982 1120 88 -1100 000/00 RMK AO2
14926KSTC STC20041125034510211/25/04 03:45:31  5-MIN KSTC 250945Z AUTO 00000KT 10SM CLR M06/M08 A2982 1110 88 -1100 000/00 RMK AO2
14926KSTC STC20041125035011911/25/04 03:50:31  5-MIN KSTC 250950Z AUTO 00000KT 10SM CLR M06/M08 A2982 1120 88 -1100 000/00 RMK AO2 SLP121 T10611078
14926KSTC STC20041125035510211/25/04 03:55:31  5-MIN KSTC 250955Z AUTO 00000KT 10SM CLR M06/M08 A2982 1120 88 -1100 000/00 RMK AO2
14926KSTC STC20041125040010511/25/04 04:00:31  5-MIN KSTC 251000Z AUTO 00000KT 10SM FEW085 M06/M08 A2983 1110 88 -1100 000/00 RMK AO2
14926KSTC STC20041125040510511/25/04 04:05:31  5-MIN KSTC 251005Z AUTO 00000KT 10SM SCT085 M06/M08 A2982 1120 88 -1100 000/00 RMK AO2
14926KSTC STC20041125041010511/25/04 04:10:31  5-MIN KSTC 251010Z AUTO 00000KT 10SM BKN085 M07/M08 A2982 1120 92 -1200 000/00 RMK AO2
14926KSTC STC20041125041510511/25/04 04:15:31  5-MIN KSTC 251015Z AUTO 00000KT 10SM BKN085 M07/M08 A2982 1120 92 -1200 000/00 RMK AO2
14926KSTC STC20041125042010511/25/04 04:20:31  5-MIN KSTC 251020Z AUTO 00000KT 10SM BKN085 M07/M08 A2982 1120 92 -1200 000/00 RMK AO2
14926KSTC STC20041125042510511/25/04 04:25:31  5-MIN KSTC 251025Z AUTO 00000KT 10SM OVC085 M07/M08 A2982 1120 88 -1200 000/00 RMK AO2
14926KSTC STC20041125043010511/25/04 04:30:31  5-MIN KSTC 251030Z AUTO 00000KT 10SM OVC085 M07/M08 A2982 1120 92 -1200 000/00 RMK AO2
14926KSTC STC20041125043510511/25/04 04:35:31  5-MIN KSTC 251035Z AUTO 00000KT 10SM OVC085 M07/M08 A2982 1120 92 -1200 000/00 RMK AO2
14926KSTC STC20041125044010511/25/04 04:40:31  5-MIN KSTC 251040Z AUTO 00000KT 10SM OVC085 M07/M08 A2982 1120 92 -1200 000/00 RMK AO2
14926KSTC STC20041125044510511/25/04 04:45:31  5-MIN KSTC 251045Z AUTO 00000KT 10SM OVC085 M07/M08 A2982 1120 92 -1200 000/00 RMK AO2
14926KSTC STC20041125045012211/25/04 04:50:31  5-MIN KSTC 251050Z AUTO 00000KT 10SM OVC085 M07/M08 A2982 1120 96 -1300 000/00 RMK AO2 SLP120 T10721078
14926KSTC STC20041125045510511/25/04 04:55:31  5-MIN KSTC 251055Z AUTO 00000KT 10SM OVC085 M07/M08 A2982 1120 92 -1200 000/00 RMK AO2
14926KSTC STC20041125050010511/25/04 05:00:31  5-MIN KSTC 251100Z AUTO 00000KT 10SM OVC085 M07/M08 A2982 1120 92 -1200 000/00 RMK AO2
14926KSTC STC20041125050510511/25/04 05:05:31  5-MIN KSTC 251105Z AUTO 00000KT 10SM OVC085 M07/M08 A2982 1120 92 -1200 000/00 RMK AO2
14926KSTC STC20041125051010511/25/04 05:10:31  5-MIN KSTC 251110Z AUTO 00000KT 10SM OVC085 M07/M08 A2982 1120 92 -1200 000/00 RMK AO2
14926KSTC STC20041125051510511/25/04 05:15:31  5-MIN KSTC 251115Z AUTO 00000KT 10SM OVC085 M07/M08 A2981 1120 96 -1300 000/00 RMK AO2
14926KSTC STC20041125052010511/25/04 05:20:31  5-MIN KSTC 251120Z AUTO 00000KT 10SM BKN085 M07/M08 A2982 1120 92 -1300 000/00 RMK AO2
14926KSTC STC20041125052510511/25/04 05:25:31  5-MIN KSTC 251125Z AUTO 00000KT 10SM BKN085 M07/M08 A2982 1120 92 -1300 000/00 RMK AO2
14926KSTC STC20041125053010511/25/04 05:30:31  5-MIN KSTC 251130Z AUTO 00000KT 10SM OVC085 M07/M08 A2982 1120 96 -1300 000/00 RMK AO2
14926KSTC STC20041125053510411/25/04 05:35:31  5-MIN KSTC 251135Z AUTO 00000KT 9SM OVC085 M07/M08 A2982 1120 96 -1300 000/00 RMK AO2
14926KSTC STC20041125054010411/25/04 05:40:31  5-MIN KSTC 251140Z AUTO 00000KT 9SM OVC085 M08/M08 A2981 1130 96 -1300 000/00 RMK AO2
14926KSTC STC20041125054510411/25/04 05:45:31  5-MIN KSTC 251145Z AUTO 00000KT 8SM OVC085 M08/M08 A2981 1130 96 -1300 000/00 RMK AO2
14926KSTC STC20041125055013911/25/04 05:50:31  5-MIN KSTC 251150Z AUTO 00000KT 9SM OVC085 M08/M08 A2981 1130 96 -1300 000/00 RMK AO2 SLP121 T10781083 11056 21078 56008
14926KSTC STC20041125055510411/25/04 05:55:31  5-MIN KSTC 251155Z AUTO 00000KT 9SM OVC085 M08/M09 A2981 1120 92 -1300 000/00 RMK AO2
14926KSTC STC20041125060010411/25/04 06:00:31  5-MIN KSTC 251200Z AUTO 00000KT 9SM OVC085 M07/M08 A2981 1120 92 -1300 000/00 RMK AO2
14926KSTC STC20041125060510411/25/04 06:05:31  5-MIN KSTC 251205Z AUTO 00000KT 9SM OVC085 M07/M08 A2981 1130 92 -1300 000/00 RMK AO2
14926KSTC STC20041125061010411/25/04 06:10:31  5-MIN KSTC 251210Z AUTO 00000KT 9SM OVC085 M07/M08 A2981 1130 92 -1300 000/00 RMK AO2
14926KSTC STC20041125061510411/25/04 06:15:31  5-MIN KSTC 251215Z AUTO 00000KT 9SM OVC085 M07/M08 A2981 1130 92 -1300 000/00 RMK AO2
14926KSTC STC20041125062010411/25/04 06:20:31  5-MIN KSTC 251220Z AUTO 00000KT 9SM OVC085 M07/M08 A2981 1130 92 -1300 000/00 RMK AO2
14926KSTC STC20041125062510411/25/04 06:25:31  5-MIN KSTC 251225Z AUTO 00000KT 9SM OVC085 M07/M08 A2981 1120 96 -1300 000/00 RMK AO2
14926KSTC STC20041125063010411/25/04 06:30:31  5-MIN KSTC 251230Z AUTO 00000KT 9SM OVC085 M07/M08 A2982 1120 92 -1200 000/00 RMK AO2
14926KSTC STC20041125063510411/25/04 06:35:31  5-MIN KSTC 251235Z AUTO 00000KT 9SM OVC085 M07/M08 A2982 1120 92 -1200 000/00 RMK AO2
14926KSTC STC20041125064010511/25/04 06:40:31  5-MIN KSTC 251240Z AUTO 00000KT 10SM OVC085 M07/M08 A2982 1120 92 -1200 000/00 RMK AO2
14926KSTC STC20041125064510511/25/04 06:45:31  5-MIN KSTC 251245Z AUTO 00000KT 10SM OVC085 M07/M08 A2982 1120 92 -1200 000/00 RMK AO2
14926KSTC STC20041125065012211/25/04 06:50:31  5-MIN KSTC 251250Z AUTO 00000KT 10SM OVC085 M07/M08 A2982 1120 92 -1200 000/00 RMK AO2 SLP122 T10671078
14926KSTC STC20041125065510511/25/04 06:55:31  5-MIN KSTC 251255Z AUTO 00000KT 10SM OVC085 M07/M08 A2982 1120 92 -1200 000/00 RMK AO2
14926KSTC STC20041125070010411/25/04 07:00:31  5-MIN KSTC 251300Z AUTO 00000KT 9SM OVC085 M07/M08 A2982 1120 92 -1200 000/00 RMK AO2
14926KSTC STC20041125070510411/25/04 07:05:31  5-MIN KSTC 251305Z AUTO 00000KT 9SM OVC085 M07/M08 A2982 1120 96 -1300 000/00 RMK AO2
14926KSTC STC20041125071010411/25/04 07:10:31  5-MIN KSTC 251310Z AUTO 00000KT 9SM OVC085 M07/M08 A2982 1120 96 -1300 000/00 RMK AO2
14926KSTC STC20041125071510411/25/04 07:15:31  5-MIN KSTC 251315Z AUTO 00000KT 9SM OVC085 M07/M08 A2982 1120 92 -1200 000/00 RMK AO2
14926KSTC STC20041125072010411/25/04 07:20:31  5-MIN KSTC 251320Z AUTO 00000KT 9SM OVC085 M07/M08 A2982 1120 92 -1200 000/00 RMK AO2
14926KSTC STC20041125072510511/25/04 07:25:31  5-MIN KSTC 251325Z AUTO 00000KT 10SM OVC085 M07/M08 A2982 1120 92 -1200 000/00 RMK AO2
14926KSTC STC20041125073010411/25/04 07:30:31  5-MIN KSTC 251330Z AUTO 15003KT 9SM OVC085 M07/M08 A2982 1120 92 -1200 150/03 RMK AO2
14926KSTC STC20041125073510411/25/04 07:35:31  5-MIN KSTC 251335Z AUTO 15003KT 9SM OVC085 M07/M07 A2982 1120 96 -1200 150/03 RMK AO2
14926KSTC STC20041125074010411/25/04 07:40:31  5-MIN KSTC 251340Z AUTO 00000KT 8SM OVC085 M07/M07 A2982 1120 96 -1200 000/00 RMK AO2
14926KSTC STC20041125074510411/25/04 07:45:31  5-MIN KSTC 251345Z AUTO 00000KT 8SM OVC085 M07/M07 A2982 1120 96 -1200 000/00 RMK AO2
14926KSTC STC20041125075012111/25/04 07:50:31  5-MIN KSTC 251350Z AUTO 00000KT 8SM OVC080 M07/M08 A2982 1120 92 -1200 000/00 RMK AO2 SLP124 T10671078
14926KSTC STC20041125075510411/25/04 07:55:31  5-MIN KSTC 251355Z AUTO 06003KT 8SM OVC080 M07/M07 A2982 1120 96 -1200 060/03 RMK AO2
14926KSTC STC20041125080010411/25/04 08:00:31  5-MIN KSTC 251400Z AUTO 00000KT 8SM OVC080 M07/M07 A2983 1110 96 -1200 000/00 RMK AO2
14926KSTC STC20041125080510411/25/04 08:05:31  5-MIN KSTC 251405Z AUTO 00000KT 8SM BKN080 M06/M07 A2982 1120 96 -1100 000/00 RMK AO2
14926KSTC STC20041125081010411/25/04 08:10:31  5-MIN KSTC 251410Z AUTO 00000KT 8SM BKN080 M06/M07 A2982 1120 92 -1100 000/00 RMK AO2
14926KSTC STC20041125081511111/25/04 08:15:31  5-MIN KSTC 251415Z AUTO 00000KT 8SM BKN080 BKN100 M06/M07 A2982 1120 92 -1100 000/00 RMK AO2
14926KSTC STC20041125082011111/25/04 08:20:31  5-MIN KSTC 251420Z AUTO 10003KT 8SM SCT085 BKN110 M05/M07 A2982 1120 88 -1000 090/03 RMK AO2
14926KSTC STC20041125082511111/25/04 08:25:31  5-MIN KSTC 251425Z AUTO 10003KT 9SM FEW090 BKN110 M05/M07 A2982 1120 88 -1000 100/03 RMK AO2
14926KSTC STC20041125083011211/25/04 08:30:31  5-MIN KSTC 251430Z AUTO 10003KT 10SM FEW090 SCT110 M05/M07 A2982 1120 88 -1000 100/03 RMK AO2
14926KSTC STC20041125083510511/25/04 08:35:31  5-MIN KSTC 251435Z AUTO 11003KT 10SM FEW090 M05/M07 A2982 1120 84 -1000 110/03 RMK AO2
14926KSTC STC20041125084011211/25/04 08:40:31  5-MIN KSTC 251440Z AUTO 11004KT 10SM FEW090 SCT110 M05/M07 A2982 1120 88 -1000 110/04 RMK AO2
14926KSTC STC20041125084511211/25/04 08:45:31  5-MIN KSTC 251445Z AUTO 11005KT 10SM FEW090 SCT110 M05/M07 A2982 1120 88 -1000 110/05 RMK AO2
14926KSTC STC20041125085013411/25/04 08:50:31  5-MIN KSTC 251450Z AUTO 11005KT 10SM FEW090 SCT110 M04/M07 A2982 1120 84 -900 100/05 RMK AO2 SLP122 T10441067 58004
14926KSTC STC20041125085511111/25/04 08:55:31  5-MIN KSTC 251455Z AUTO 11006KT 10SM FEW090 SCT110 M04/M07 A2982 1120 84 -900 110/06 RMK AO2
14926KSTC STC20041125090011111/25/04 09:00:31  5-MIN KSTC 251500Z AUTO 11006KT 10SM FEW085 SCT110 M04/M07 A2982 1120 81 -900 100/06 RMK AO2
14926KSTC STC20041125090510411/25/04 09:05:31  5-MIN KSTC 251505Z AUTO 11007KT 10SM FEW085 M04/M07 A2982 1120 81 -900 110/07 RMK AO2
14926KSTC STC20041125091010411/25/04 09:10:31  5-MIN KSTC 251510Z AUTO 11006KT 10SM FEW085 M04/M07 A2982 1120 84 -900 100/06 RMK AO2
14926KSTC STC20041125091510411/25/04 09:15:31  5-MIN KSTC 251515Z AUTO 11005KT 10SM FEW100 M04/M07 A2982 1120 84 -900 110/05 RMK AO2
14926KSTC STC20041125092010411/25/04 09:20:31  5-MIN KSTC 251520Z AUTO 12007KT 10SM SCT100 M04/M07 A2982 1120 81 -900 110/07 RMK AO2
14926KSTC STC20041125092510411/25/04 09:25:31  5-MIN KSTC 251525Z AUTO 11006KT 10SM SCT100 M04/M07 A2982 1120 84 -900 110/06 RMK AO2
14926KSTC STC20041125093010411/25/04 09:30:31  5-MIN KSTC 251530Z AUTO 12007KT 10SM BKN100 M04/M07 A2982 1120 84 -900 120/07 RMK AO2
14926KSTC STC20041125093510411/25/04 09:35:31  5-MIN KSTC 251535Z AUTO 12006KT 10SM BKN095 M04/M07 A2982 1120 81 -800 120/06 RMK AO2
14926KSTC STC20041125094011111/25/04 09:40:31  5-MIN KSTC 251540Z AUTO 11006KT 10SM FEW080 BKN095 M04/M07 A2982 1120 81 -800 100/06 RMK AO2
14926KSTC STC20041125094511111/25/04 09:45:31  5-MIN KSTC 251545Z AUTO 10005KT 10SM SCT080 BKN095 M04/M06 A2982 1120 85 -800 100/05 RMK AO2
14926KSTC STC20041125095012811/25/04 09:50:31  5-MIN KSTC 251550Z AUTO 11006KT 10SM FEW080 OVC095 M04/M06 A2982 1120 85 -800 110/06 RMK AO2 SLP122 T10391061
14926KSTC STC20041125095510411/25/04 09:55:31  5-MIN KSTC 251555Z AUTO 11006KT 10SM OVC090 M04/M06 A2982 1120 85 -800 110/06 RMK AO2
14926KSTC STC20041125100011111/25/04 10:00:31  5-MIN KSTC 251600Z AUTO 11005KT 10SM SCT080 OVC095 M04/M06 A2982 1120 85 -800 110/05 RMK AO2
14926KSTC STC20041125100511111/25/04 10:05:31  5-MIN KSTC 251605Z AUTO 11005KT 10SM BKN080 OVC090 M04/M06 A2982 1120 85 -800 110/05 RMK AO2
14926KSTC STC20041125101010411/25/04 10:10:31  5-MIN KSTC 251610Z AUTO 11005KT 10SM OVC090 M04/M06 A2982 1120 85 -800 110/05 RMK AO2
14926KSTC STC20041125101510411/25/04 10:15:31  5-MIN KSTC 251615Z AUTO 11006KT 10SM OVC085 M03/M06 A2982 1110 81 -800 110/06 RMK AO2
14926KSTC STC20041125102010411/25/04 10:20:31  5-MIN KSTC 251620Z AUTO 11006KT 10SM OVC080 M03/M06 A2982 1120 81 -800 110/06 RMK AO2
14926KSTC STC20041125102510411/25/04 10:25:31  5-MIN KSTC 251625Z AUTO 12007KT 10SM OVC080 M03/M06 A2982 1120 81 -800 120/07 RMK AO2
14926KSTC STC20041125103010411/25/04 10:30:31  5-MIN KSTC 251630Z AUTO 10006KT 10SM BKN080 M03/M06 A2982 1120 81 -800 090/06 RMK AO2
14926KSTC STC20041125103510411/25/04 10:35:31  5-MIN KSTC 251635Z AUTO 12006KT 10SM BKN080 M03/M06 A2982 1120 78 -700 120/06 RMK AO2
14926KSTC STC20041125104010411/25/04 10:40:31  5-MIN KSTC 251640Z AUTO 13007KT 10SM BKN080 M03/M06 A2982 1120 78 -700 120/07 RMK AO2
14926KSTC STC20041125104510411/25/04 10:45:31  5-MIN KSTC 251645Z AUTO VRB04KT 10SM BKN080 M03/M06 A2982 1120 78 -700 VRB/04 RMK AO2
14926KSTC STC20041125105012111/25/04 10:50:31  5-MIN KSTC 251650Z AUTO 13006KT 10SM BKN080 M03/M06 A2981 1120 78 -700 130/06 RMK AO2 SLP120 T10281061
14926KSTC STC20041125105510411/25/04 10:55:31  5-MIN KSTC 251655Z AUTO VRB06KT 10SM OVC080 M03/M06 A2981 1130 78 -700 VRB/06 RMK AO2
14926KSTC STC20041125110010411/25/04 11:00:31  5-MIN KSTC 251700Z AUTO VRB05KT 10SM OVC080 M03/M06 A2981 1130 78 -700 VRB/05 RMK AO2
14926KSTC STC20041125110510411/25/04 11:05:31  5-MIN KSTC 251705Z AUTO 12006KT 10SM OVC080 M03/M06 A2981 1130 78 -700 120/06 RMK AO2
14926KSTC STC20041125111010411/25/04 11:10:31  5-MIN KSTC 251710Z AUTO 14007KT 10SM OVC080 M02/M06 A2981 1130 75 -600 140/07 RMK AO2
14926KSTC STC20041125111510411/25/04 11:15:31  5-MIN KSTC 251715Z AUTO 13006KT 10SM OVC080 M02/M07 A2981 1130 72 -600 130/06 RMK AO2
14926KSTC STC20041125112010411/25/04 11:20:31  5-MIN KSTC 251720Z AUTO 13006KT 10SM OVC080 M02/M06 A2981 1130 75 -600 120/06 RMK AO2
14926KSTC STC20041125112510411/25/04 11:25:31  5-MIN KSTC 251725Z AUTO 14006KT 10SM BKN080 M02/M06 A2980 1140 75 -600 140/06 RMK AO2
14926KSTC STC20041125113010411/25/04 11:30:31  5-MIN KSTC 251730Z AUTO 14008KT 10SM OVC080 M02/M06 A2980 1140 72 -500 140/08 RMK AO2
14926KSTC STC20041125113510411/25/04 11:35:31  5-MIN KSTC 251735Z AUTO 12007KT 10SM OVC085 M02/M06 A2980 1140 72 -500 110/07 RMK AO2
14926KSTC STC20041125114010411/25/04 11:40:31  5-MIN KSTC 251740Z AUTO 11008KT 10SM OVC080 M02/M07 A2980 1140 69 -500 110/08 RMK AO2
14926KSTC STC20041125114510411/25/04 11:45:31  5-MIN KSTC 251745Z AUTO 13006KT 10SM OVC075 M02/M06 A2980 1140 72 -500 130/06 RMK AO2
14926KSTC STC20041125115013911/25/04 11:50:31  5-MIN KSTC 251750Z AUTO 12008KT 10SM OVC075 M01/M06 A2979 1140 69 -500 110/08 RMK AO2 SLP112 T10111061 11011 21078 50002
14926KSTC STC20041125115511111/25/04 11:55:31  5-MIN KSTC 251755Z AUTO 14006KT 10SM BKN070 OVC085 M02/M06 A2979 1140 72 -500 140/06 RMK AO2
14926KSTC STC20041125120011111/25/04 12:00:31  5-MIN KSTC 251800Z AUTO 12007KT 10SM BKN070 OVC080 M01/M06 A2979 1150 69 -500 120/07 RMK AO2
14926KSTC STC20041125120511111/25/04 12:05:31  5-MIN KSTC 251805Z AUTO 13006KT 10SM BKN070 OVC090 M01/M07 A2979 1150 66 -500 130/06 RMK AO2
14926KSTC STC20041125121011111/25/04 12:10:31  5-MIN KSTC 251810Z AUTO 13007KT 10SM BKN065 BKN085 M01/M07 A2979 1150 66 -400 130/07 RMK AO2
14926KSTC STC20041125121511111/25/04 12:15:31  5-MIN KSTC 251815Z AUTO 15007KT 10SM BKN060 BKN080 M01/M07 A2978 1150 66 -400 140/07 RMK AO2
14926KSTC STC20041125122011111/25/04 12:20:31  5-MIN KSTC 251820Z AUTO 14008KT 10SM BKN060 BKN080 M01/M07 A2978 1160 66 -400 140/08 RMK AO2
14926KSTC STC20041125122511111/25/04 12:25:31  5-MIN KSTC 251825Z AUTO 12007KT 10SM BKN060 BKN080 M01/M07 A2978 1160 66 -400 120/07 RMK AO2
14926KSTC STC20041125123011111/25/04 12:30:31  5-MIN KSTC 251830Z AUTO 14010KT 10SM SCT060 BKN080 M01/M07 A2977 1160 66 -400 140/10 RMK AO2
14926KSTC STC20041125123511111/25/04 12:35:31  5-MIN KSTC 251835Z AUTO 15008KT 10SM FEW055 OVC080 M01/M07 A2977 1160 66 -400 150/08 RMK AO2
14926KSTC STC20041125124011111/25/04 12:40:31  5-MIN KSTC 251840Z AUTO 14008KT 10SM FEW060 BKN075 M01/M07 A2977 1160 66 -400 140/08 RMK AO2
14926KSTC STC20041125124511111/25/04 12:45:31  5-MIN KSTC 251845Z AUTO 15008KT 10SM SCT060 BKN080 M01/M07 A2977 1170 63 -400 150/08 RMK AO2
14926KSTC STC20041125125012811/25/04 12:50:31  5-MIN KSTC 251850Z AUTO 13007KT 10SM BKN050 OVC080 M01/M07 A2977 1170 66 -400 130/07 RMK AO2 SLP103 T10111067
14926KSTC STC20041125125511111/25/04 12:55:31  5-MIN KSTC 251855Z AUTO 13007KT 10SM BKN046 BKN075 M01/M07 A2976 1170 66 -400 130/07 RMK AO2
14926KSTC STC20041125130011111/25/04 13:00:31  5-MIN KSTC 251900Z AUTO 14009KT 10SM BKN044 OVC070 M01/M07 A2976 1170 66 -400 140/09 RMK AO2
14926KSTC STC20041125130511111/25/04 13:05:31  5-MIN KSTC 251905Z AUTO 12007KT 10SM SCT046 OVC060 M01/M07 A2977 1170 66 -400 120/07 RMK AO2
14926KSTC STC20041125131011111/25/04 13:10:31  5-MIN KSTC 251910Z AUTO 12007KT 10SM SCT046 OVC060 M01/M07 A2976 1170 66 -400 120/07 RMK AO2
14926KSTC STC20041125131511111/25/04 13:15:31  5-MIN KSTC 251915Z AUTO 13007KT 10SM FEW042 OVC060 M01/M07 A2976 1180 66 -400 130/07 RMK AO2
14926KSTC STC20041125132011111/25/04 13:20:31  5-MIN KSTC 251920Z AUTO 13007KT 10SM FEW044 OVC060 M01/M07 A2976 1180 66 -400 130/07 RMK AO2
14926KSTC STC20041125132511111/25/04 13:25:31  5-MIN KSTC 251925Z AUTO 13007KT 10SM FEW049 OVC060 M01/M07 A2976 1180 66 -400 130/07 RMK AO2
14926KSTC STC20041125133010411/25/04 13:30:31  5-MIN KSTC 251930Z AUTO 13007KT 10SM OVC055 M01/M07 A2976 1180 66 -400 120/07 RMK AO2
14926KSTC STC20041125133510411/25/04 13:35:31  5-MIN KSTC 251935Z AUTO 12008KT 10SM OVC055 M01/M07 A2976 1180 66 -400 120/08 RMK AO2
14926KSTC STC20041125134010311/25/04 13:40:31  5-MIN KSTC 251940Z AUTO 13007KT 9SM OVC055 M01/M07 A2976 1180 66 -400 130/07 RMK AO2
14926KSTC STC20041125134510411/25/04 13:45:31  5-MIN KSTC 251945Z AUTO 13007KT 10SM OVC055 M01/M07 A2975 1180 66 -400 130/07 RMK AO2
14926KSTC STC20041125135012111/25/04 13:50:31  5-MIN KSTC 251950Z AUTO 11005KT 10SM OVC055 M01/M06 A2975 1180 69 -400 110/05 RMK AO2 SLP098 T10111061
14926KSTC STC20041125135510311/25/04 13:55:31  5-MIN KSTC 251955Z AUTO 12007KT 7SM OVC055 M01/M07 A2975 1180 66 -400 120/07 RMK AO2
14926KSTC STC20041125140012111/25/04 14:00:31  5-MIN KSTC 252000Z AUTO 12007KT 4SM -SN OVC050 M01/M06 A2975 1180 69 -400 110/07 RMK AO2 SNB1956 P0000
14926KSTC STC20041125140512111/25/04 14:05:31  5-MIN KSTC 252005Z AUTO 13006KT 3SM -SN OVC055 M01/M06 A2975 1180 72 -400 130/06 RMK AO2 SNB1956 P0000
14926KSTC STC20041125141012811/25/04 14:10:31  5-MIN KSTC 252010Z AUTO 12006KT 5SM -SN FEW038 OVC055 M01/M06 A2975 1190 72 -400 110/06 RMK AO2 SNB1956 P0000
14926KSTC STC20041125141512711/25/04 14:15:31  5-MIN KSTC 252015Z AUTO 12008KT 8SM SCT034 OVC055 M01/M06 A2975 1190 72 -400 110/08 RMK AO2 SNB1956E15 P0000
14926KSTC STC20041125142012711/25/04 14:20:31  5-MIN KSTC 252020Z AUTO 11005KT 8SM BKN030 OVC055 M01/M06 A2975 1190 72 -400 110/05 RMK AO2 SNB1956E15 P0000
14926KSTC STC20041125142512811/25/04 14:25:31  5-MIN KSTC 252025Z AUTO 11005KT 5SM -SN BKN026 OVC055 M01/M06 A2975 1190 72 -400 110/05 RMK AO2 SNB1956 P0000
14926KSTC STC20041125143012811/25/04 14:30:31  5-MIN KSTC 252030Z AUTO 12005KT 5SM -SN BKN024 OVC060 M01/M06 A2975 1190 72 -400 110/05 RMK AO2 SNB1956 P0000
14926KSTC STC20041125143512111/25/04 14:35:31  5-MIN KSTC 252035Z AUTO VRB06KT 4SM -SN OVC022 M01/M06 A2975 1190 72 -400 VRB/06 RMK AO2 SNB1956 P0000
14926KSTC STC20041125144012111/25/04 14:40:31  5-MIN KSTC 252040Z AUTO 12007KT 3SM -SN OVC022 M01/M05 A2974 1190 75 -400 110/07 RMK AO2 SNB1956 P0000
14926KSTC STC20041125144512111/25/04 14:45:31  5-MIN KSTC 252045Z AUTO 12007KT 4SM -SN OVC020 M01/M05 A2974 1190 75 -400 110/07 RMK AO2 SNB1956 P0000
14926KSTC STC20041125145016611/25/04 14:50:31  5-MIN KSTC 252050Z AUTO 11008KT 080V150 3SM -SN OVC018 M01/M05 A2974 1190 75 -400 110/08 080V150 RMK AO2 SNB1956 SLP094 P0000 60000 T10111050 58008
14926KSTC STC20041125145512011/25/04 14:55:31  5-MIN KSTC 252055Z AUTO 12006KT 2SM -SN BKN018 OVC045 M01/M04 A2974 1200 78 -400 110/06 RMK AO2 P0000
14926KSTC STC20041125150012011/25/04 15:00:31  5-MIN KSTC 252100Z AUTO 12006KT 2SM -SN BKN018 OVC055 M02/M04 A2973 1200 81 -500 120/06 RMK AO2 P0000
14926KSTC STC20041125150513111/25/04 15:05:31  5-MIN KSTC 252105Z AUTO 11008KT 2 1/2SM -SN BKN018 BKN047 OVC055 M02/M04 A2973 1200 81 -500 100/08 RMK AO2 P0000
14926KSTC STC20041125151012011/25/04 15:10:31  5-MIN KSTC 252110Z AUTO 11007KT 3SM -SN BKN018 OVC050 M02/M04 A2973 1200 81 -500 110/07 RMK AO2 P0000
14926KSTC STC20041125151512011/25/04 15:15:31  5-MIN KSTC 252115Z AUTO 11007KT 4SM -SN SCT018 OVC050 M02/M04 A2973 1200 81 -500 110/07 RMK AO2 P0000
14926KSTC STC20041125152012511/25/04 15:20:31  5-MIN KSTC 252120Z AUTO 11007KT 6SM HZ SCT020 OVC050 M01/M04 A2973 1200 78 -400 110/07 RMK AO2 SNE20 P0000
14926KSTC STC20041125152512011/25/04 15:25:31  5-MIN KSTC 252125Z AUTO 12006KT 6SM -SN FEW018 OVC048 M01/M04 A2973 1200 78 -400 110/06 RMK AO2 P0000
14926KSTC STC20041125153012711/25/04 15:30:31  5-MIN KSTC 252130Z AUTO 12007KT 4SM -SN FEW020 BKN048 OVC055 M01/M04 A2973 1210 78 -400 110/07 RMK AO2 P0000
14926KSTC STC20041125153511311/25/04 15:35:31  5-MIN KSTC 252135Z AUTO 12007KT 3SM -SN OVC050 M01/M04 A2973 1210 78 -400 120/07 RMK AO2 P0000
14926KSTC STC20041125154011311/25/04 15:40:31  5-MIN KSTC 252140Z AUTO 11007KT 3SM -SN OVC050 M01/M04 A2972 1210 78 -400 100/07 RMK AO2 P0000
14926KSTC STC20041125154511311/25/04 15:45:31  5-MIN KSTC 252145Z AUTO 11007KT 4SM -SN OVC050 M01/M04 A2972 1210 78 -400 100/07 RMK AO2 P0000
14926KSTC STC20041125155013011/25/04 15:50:31  5-MIN KSTC 252150Z AUTO 11006KT 5SM -SN OVC050 M01/M04 A2972 1210 78 -400 100/06 RMK AO2 SLP087 P0000 T10111044
14926KSTC STC20041125155512011/25/04 15:55:31  5-MIN KSTC 252155Z AUTO 11008KT 5SM -SN FEW023 OVC055 M01/M04 A2972 1220 78 -400 110/08 RMK AO2 P0000
14926KSTC STC20041125160012711/25/04 16:00:31  5-MIN KSTC 252200Z AUTO 10007KT 5SM -SN FEW021 BKN050 OVC065 M01/M04 A2972 1210 78 -400 100/07 RMK AO2 P0000
14926KSTC STC20041125160512711/25/04 16:05:31  5-MIN KSTC 252205Z AUTO 10007KT 3SM -SN FEW024 BKN055 OVC070 M01/M04 A2972 1210 78 -400 100/07 RMK AO2 P0000
14926KSTC STC20041125161012011/25/04 16:10:31  5-MIN KSTC 252210Z AUTO 10006KT 3SM -SN SCT050 OVC070 M01/M04 A2972 1220 78 -400 100/06 RMK AO2 P0000
14926KSTC STC20041125161512711/25/04 16:15:31  5-MIN KSTC 252215Z AUTO 10007KT 4SM -SN FEW017 SCT050 OVC065 M01/M04 A2972 1220 78 -400 100/07 RMK AO2 P0000
14926KSTC STC20041125162012011/25/04 16:20:31  5-MIN KSTC 252220Z AUTO 11007KT 4SM -SN FEW036 OVC065 M02/M04 A2971 1220 81 -400 110/07 RMK AO2 P0000
14926KSTC STC20041125162512711/25/04 16:25:31  5-MIN KSTC 252225Z AUTO 11007KT 5SM -SN FEW048 BKN065 OVC080 M02/M04 A2971 1220 81 -400 110/07 RMK AO2 P0000
14926KSTC STC20041125163013211/25/04 16:30:31  5-MIN KSTC 252230Z AUTO 11007KT 5SM HZ FEW048 BKN065 OVC080 M02/M04 A2971 1220 81 -400 110/07 RMK AO2 SNE27 P0000
14926KSTC STC20041125163512911/25/04 16:35:31  5-MIN KSTC 252235Z AUTO 10006KT 7SM FEW050 BKN065 OVC080 M02/M04 A2971 1220 81 -400 090/06 RMK AO2 SNE27 P0000
14926KSTC STC20041125164012911/25/04 16:40:31  5-MIN KSTC 252240Z AUTO 10006KT 9SM FEW050 BKN065 OVC080 M01/M04 A2971 1220 78 -400 100/06 RMK AO2 SNE27 P0000
14926KSTC STC20041125164512311/25/04 16:45:31  5-MIN KSTC 252245Z AUTO 11005KT 10SM BKN065 OVC080 M01/M04 A2971 1220 78 -400 100/05 RMK AO2 SNE27 P0000
14926KSTC STC20041125165013311/25/04 16:50:31  5-MIN KSTC 252250Z AUTO 09005KT 10SM OVC065 M01/M04 A2972 1220 78 -400 090/05 RMK AO2 SNE27 SLP086 P0000 T10111044
14926KSTC STC20041125165510411/25/04 16:55:31  5-MIN KSTC 252255Z AUTO 10007KT 10SM OVC065 M01/M04 A2972 1220 78 -400 100/07 RMK AO2
14926KSTC STC20041125170010311/25/04 17:00:31  5-MIN KSTC 252300Z AUTO 10006KT 9SM OVC065 M01/M04 A2972 1220 78 -400 100/06 RMK AO2
14926KSTC STC20041125170510311/25/04 17:05:31  5-MIN KSTC 252305Z AUTO 10007KT 9SM OVC065 M01/M04 A2972 1210 78 -400 100/07 RMK AO2
14926KSTC STC20041125171010311/25/04 17:10:31  5-MIN KSTC 252310Z AUTO 11007KT 9SM OVC065 M01/M05 A2972 1210 75 -400 100/07 RMK AO2
14926KSTC STC20041125171510411/25/04 17:15:31  5-MIN KSTC 252315Z AUTO 11006KT 10SM OVC065 M01/M05 A2972 1220 75 -400 110/06 RMK AO2
14926KSTC STC20041125172011911/25/04 17:20:31  5-MIN KSTC 252320Z AUTO 10007KT 9SM -SN OVC065 M01/M05 A2972 1220 75 -400 100/07 RMK AO2 SNB19 P0000
14926KSTC STC20041125172511911/25/04 17:25:31  5-MIN KSTC 252325Z AUTO 11006KT 8SM -SN OVC065 M01/M04 A2971 1220 78 -400 110/06 RMK AO2 SNB19 P0000
14926KSTC STC20041125173011911/25/04 17:30:31  5-MIN KSTC 252330Z AUTO 11006KT 9SM -SN OVC060 M01/M04 A2971 1220 78 -400 100/06 RMK AO2 SNB19 P0000
14926KSTC STC20041125173511811/25/04 17:35:31  5-MIN KSTC 252335Z AUTO 11006KT 9SM OVC065 M01/M04 A2971 1220 78 -400 100/06 RMK AO2 SNB19E31 P0000
14926KSTC STC20041125174012611/25/04 17:40:31  5-MIN KSTC 252340Z AUTO 10006KT 10SM BKN060 OVC070 M01/M04 A2972 1220 78 -400 100/06 RMK AO2 SNB19E31 P0000
14926KSTC STC20041125174512611/25/04 17:45:31  5-MIN KSTC 252345Z AUTO 10004KT 10SM BKN060 OVC070 M01/M04 A2972 1210 78 -400 090/04 RMK AO2 SNB19E31 P0000
14926KSTC STC20041125175016711/25/04 17:50:31  5-MIN KSTC 252350Z AUTO 10005KT 10SM BKN060 OVC070 M01/M04 A2972 1210 78 -400 100/05 RMK AO2 SNB19E31 SLP088 P0000 60000 T10111044 11006 21017 56018
14926KSTC STC20041125175511111/25/04 17:55:31  5-MIN KSTC 252355Z AUTO 09005KT 10SM BKN060 OVC070 M01/M04 A2972 1210 78 -400 090/05 RMK AO2
14926KSTC STC20041125180010411/25/04 18:00:31  5-MIN KSTC 260000Z AUTO 09006KT 10SM OVC060 M01/M04 A2973 1210 78 -400 080/06 RMK AO2
14926KSTC STC20041125180510411/25/04 18:05:31  5-MIN KSTC 260005Z AUTO 08006KT 10SM OVC060 M01/M04 A2973 1200 78 -400 080/06 RMK AO2
14926KSTC STC20041125181010411/25/04 18:10:31  5-MIN KSTC 260010Z AUTO 08004KT 10SM OVC060 M01/M04 A2973 1200 81 -400 080/04 RMK AO2
14926KSTC STC20041125181510411/25/04 18:15:31  5-MIN KSTC 260015Z AUTO 10004KT 10SM OVC060 M01/M04 A2973 1200 81 -400 100/04 RMK AO2
14926KSTC STC20041125182010411/25/04 18:20:31  5-MIN KSTC 260020Z AUTO 10006KT 10SM OVC060 M01/M04 A2973 1200 78 -400 100/06 RMK AO2
14926KSTC STC20041125182510411/25/04 18:25:31  5-MIN KSTC 260025Z AUTO 10006KT 10SM OVC060 M01/M04 A2973 1200 78 -400 100/06 RMK AO2
14926KSTC STC20041125183010411/25/04 18:30:31  5-MIN KSTC 260030Z AUTO 09006KT 10SM OVC060 M01/M04 A2973 1200 78 -400 090/06 RMK AO2
14926KSTC STC20041125183510411/25/04 18:35:31  5-MIN KSTC 260035Z AUTO 09006KT 10SM OVC060 M01/M04 A2973 1200 78 -400 090/06 RMK AO2
14926KSTC STC20041125184010411/25/04 18:40:31  5-MIN KSTC 260040Z AUTO 08006KT 10SM OVC060 M01/M04 A2973 1200 78 -400 080/06 RMK AO2
14926KSTC STC20041125184510411/25/04 18:45:31  5-MIN KSTC 260045Z AUTO 09006KT 10SM OVC060 M01/M04 A2973 1200 78 -400 090/06 RMK AO2
14926KSTC STC20041125185012111/25/04 18:50:31  5-MIN KSTC 260050Z AUTO 09007KT 10SM OVC060 M01/M04 A2973 1200 78 -400 090/07 RMK AO2 SLP092 T10111044
14926KSTC STC20041125185510411/25/04 18:55:31  5-MIN KSTC 260055Z AUTO 08005KT 10SM OVC060 M01/M04 A2974 1200 81 -400 080/05 RMK AO2
14926KSTC STC20041125190010411/25/04 19:00:31  5-MIN KSTC 260100Z AUTO 09005KT 10SM OVC060 M01/M04 A2973 1200 81 -400 090/05 RMK AO2
14926KSTC STC20041125190510411/25/04 19:05:31  5-MIN KSTC 260105Z AUTO 10006KT 10SM OVC055 M01/M04 A2973 1200 81 -400 090/06 RMK AO2
14926KSTC STC20041125191010411/25/04 19:10:31  5-MIN KSTC 260110Z AUTO 09006KT 10SM OVC055 M01/M04 A2973 1200 78 -400 090/06 RMK AO2
14926KSTC STC20041125191510411/25/04 19:15:31  5-MIN KSTC 260115Z AUTO 09005KT 10SM OVC055 M01/M04 A2974 1200 81 -400 080/05 RMK AO2
14926KSTC STC20041125192010411/25/04 19:20:31  5-MIN KSTC 260120Z AUTO 10006KT 10SM OVC055 M01/M04 A2973 1200 81 -400 100/06 RMK AO2
14926KSTC STC20041125192510411/25/04 19:25:31  5-MIN KSTC 260125Z AUTO 10005KT 10SM OVC055 M01/M04 A2973 1200 81 -400 100/05 RMK AO2
14926KSTC STC20041125193010411/25/04 19:30:31  5-MIN KSTC 260130Z AUTO 10005KT 10SM OVC055 M01/M04 A2973 1210 81 -400 090/05 RMK AO2
14926KSTC STC20041125193510411/25/04 19:35:31  5-MIN KSTC 260135Z AUTO 09006KT 10SM OVC050 M02/M04 A2972 1210 85 -400 090/06 RMK AO2
14926KSTC STC20041125194010411/25/04 19:40:31  5-MIN KSTC 260140Z AUTO 09005KT 10SM OVC050 M01/M04 A2973 1210 81 -400 080/05 RMK AO2
14926KSTC STC20041125194510411/25/04 19:45:31  5-MIN KSTC 260145Z AUTO 08005KT 10SM OVC050 M02/M04 A2972 1210 85 -400 080/05 RMK AO2
14926KSTC STC20041125195012111/25/04 19:50:31  5-MIN KSTC 260150Z AUTO 09007KT 10SM OVC050 M02/M04 A2972 1210 85 -400 080/07 RMK AO2 SLP088 T10171039
14926KSTC STC20041125195510411/25/04 19:55:31  5-MIN KSTC 260155Z AUTO 09006KT 10SM OVC050 M02/M04 A2972 1210 85 -400 080/06 RMK AO2
14926KSTC STC20041125200010411/25/04 20:00:31  5-MIN KSTC 260200Z AUTO 09007KT 10SM OVC050 M02/M04 A2972 1210 85 -400 090/07 RMK AO2
14926KSTC STC20041125200510411/25/04 20:05:31  5-MIN KSTC 260205Z AUTO 09007KT 10SM OVC050 M02/M04 A2972 1210 85 -400 090/07 RMK AO2
14926KSTC STC20041125201010411/25/04 20:10:31  5-MIN KSTC 260210Z AUTO 09008KT 10SM OVC050 M02/M04 A2972 1220 85 -400 080/08 RMK AO2
14926KSTC STC20041125201510411/25/04 20:15:31  5-MIN KSTC 260215Z AUTO 09008KT 10SM OVC050 M02/M04 A2971 1220 85 -400 090/08 RMK AO2
14926KSTC STC20041125202010411/25/04 20:20:31  5-MIN KSTC 260220Z AUTO 09006KT 10SM OVC050 M02/M04 A2971 1220 85 -400 090/06 RMK AO2
14926KSTC STC20041125202511111/25/04 20:25:31  5-MIN KSTC 260225Z AUTO 09007KT 10SM BKN050 OVC060 M02/M04 A2971 1220 85 -400 090/07 RMK AO2
14926KSTC STC20041125203011111/25/04 20:30:31  5-MIN KSTC 260230Z AUTO 09007KT 10SM BKN050 OVC060 M02/M04 A2971 1220 85 -400 090/07 RMK AO2
14926KSTC STC20041125203511111/25/04 20:35:31  5-MIN KSTC 260235Z AUTO 09007KT 10SM BKN050 OVC060 M02/M04 A2971 1220 85 -400 090/07 RMK AO2
14926KSTC STC20041125204011111/25/04 20:40:31  5-MIN KSTC 260240Z AUTO 10007KT 10SM BKN048 OVC060 M02/M04 A2971 1220 85 -400 090/07 RMK AO2
14926KSTC STC20041125204511111/25/04 20:45:31  5-MIN KSTC 260245Z AUTO 09005KT 10SM BKN048 OVC060 M02/M04 A2971 1220 85 -400 090/05 RMK AO2
14926KSTC STC20041125205013411/25/04 20:50:31  5-MIN KSTC 260250Z AUTO 09008KT 10SM BKN046 OVC060 M02/M04 A2971 1220 85 -400 080/08 RMK AO2 SLP083 T10171039 55005
14926KSTC STC20041125205510411/25/04 20:55:31  5-MIN KSTC 260255Z AUTO 09005KT 10SM OVC046 M02/M04 A2971 1220 85 -400 080/05 RMK AO2
14926KSTC STC20041125210010411/25/04 21:00:31  5-MIN KSTC 260300Z AUTO 09006KT 10SM OVC046 M02/M04 A2971 1220 85 -400 090/06 RMK AO2
14926KSTC STC20041125210510411/25/04 21:05:31  5-MIN KSTC 260305Z AUTO 09008KT 10SM OVC044 M01/M03 A2971 1220 85 -400 090/08 RMK AO2
14926KSTC STC20041125211011111/25/04 21:10:31  5-MIN KSTC 260310Z AUTO 09007KT 10SM BKN044 OVC055 M01/M04 A2971 1220 81 -400 090/07 RMK AO2
14926KSTC STC20041125211511111/25/04 21:15:31  5-MIN KSTC 260315Z AUTO 09007KT 10SM BKN044 OVC055 M01/M04 A2971 1220 81 -400 090/07 RMK AO2
14926KSTC STC20041125212011111/25/04 21:20:31  5-MIN KSTC 260320Z AUTO 10007KT 10SM BKN044 OVC055 M02/M04 A2971 1220 85 -400 090/07 RMK AO2
14926KSTC STC20041125212511111/25/04 21:25:31  5-MIN KSTC 260325Z AUTO 10006KT 10SM SCT044 OVC055 M02/M04 A2971 1220 85 -400 100/06 RMK AO2
14926KSTC STC20041125213011111/25/04 21:30:31  5-MIN KSTC 260330Z AUTO 10006KT 10SM SCT044 OVC055 M02/M04 A2971 1230 85 -400 090/06 RMK AO2
14926KSTC STC20041125213511111/25/04 21:35:31  5-MIN KSTC 260335Z AUTO 10005KT 10SM FEW044 OVC055 M02/M04 A2970 1230 85 -400 100/05 RMK AO2
14926KSTC STC20041125214011111/25/04 21:40:31  5-MIN KSTC 260340Z AUTO 10007KT 10SM FEW044 OVC050 M02/M04 A2970 1230 85 -400 090/07 RMK AO2
14926KSTC STC20041125214510411/25/04 21:45:31  5-MIN KSTC 260345Z AUTO 10007KT 10SM OVC050 M02/M04 A2970 1230 85 -400 090/07 RMK AO2
14926KSTC STC20041125215012111/25/04 21:50:31  5-MIN KSTC 260350Z AUTO 10007KT 10SM OVC050 M02/M04 A2970 1230 85 -400 090/07 RMK AO2 SLP079 T10171039
14926KSTC STC20041125215510411/25/04 21:55:31  5-MIN KSTC 260355Z AUTO 09006KT 10SM OVC050 M02/M04 A2969 1240 85 -400 090/06 RMK AO2
14926KSTC STC20041125220010411/25/04 22:00:31  5-MIN KSTC 260400Z AUTO 10006KT 10SM OVC050 M02/M04 A2969 1240 85 -400 100/06 RMK AO2
14926KSTC STC20041125220510411/25/04 22:05:31  5-MIN KSTC 260405Z AUTO 11006KT 10SM BKN050 M02/M04 A2969 1240 85 -400 110/06 RMK AO2
14926KSTC STC20041125221010411/25/04 22:10:31  5-MIN KSTC 260410Z AUTO 10005KT 10SM BKN050 M02/M04 A2969 1240 88 -500 100/05 RMK AO2
14926KSTC STC20041125221510411/25/04 22:15:31  5-MIN KSTC 260415Z AUTO 09005KT 10SM BKN050 M02/M04 A2969 1240 85 -400 090/05 RMK AO2
14926KSTC STC20041125222010411/25/04 22:20:31  5-MIN KSTC 260420Z AUTO 09006KT 10SM SCT050 M02/M04 A2969 1240 88 -500 090/06 RMK AO2
14926KSTC STC20041125222510411/25/04 22:25:31  5-MIN KSTC 260425Z AUTO 09006KT 10SM FEW048 M02/M04 A2969 1240 88 -500 090/06 RMK AO2
14926KSTC STC20041125223010411/25/04 22:30:31  5-MIN KSTC 260430Z AUTO 08005KT 10SM FEW048 M02/M04 A2969 1240 88 -500 080/05 RMK AO2
14926KSTC STC20041125223510111/25/04 22:35:31  5-MIN KSTC 260435Z AUTO 08005KT 10SM CLR M02/M04 A2969 1240 85 -500 080/05 RMK AO2
14926KSTC STC20041125224010111/25/04 22:40:31  5-MIN KSTC 260440Z AUTO 09005KT 10SM CLR M02/M04 A2969 1240 85 -500 080/05 RMK AO2
14926KSTC STC20041125224510111/25/04 22:45:31  5-MIN KSTC 260445Z AUTO 08005KT 10SM CLR M03/M04 A2969 1240 88 -500 080/05 RMK AO2
14926KSTC STC20041125225011811/25/04 22:50:31  5-MIN KSTC 260450Z AUTO 08004KT 10SM CLR M03/M04 A2969 1240 88 -500 080/04 RMK AO2 SLP075 T10281044
14926KSTC STC20041125225510111/25/04 22:55:31  5-MIN KSTC 260455Z AUTO 08005KT 10SM CLR M03/M04 A2969 1240 88 -500 080/05 RMK AO2
14926KSTC STC20041125230010111/25/04 23:00:31  5-MIN KSTC 260500Z AUTO 08006KT 10SM CLR M03/M04 A2969 1240 88 -500 070/06 RMK AO2
14926KSTC STC20041125230510111/25/04 23:05:31  5-MIN KSTC 260505Z AUTO 08005KT 10SM CLR M03/M04 A2969 1240 88 -500 080/05 RMK AO2
14926KSTC STC20041125231010111/25/04 23:10:31  5-MIN KSTC 260510Z AUTO 08005KT 10SM CLR M03/M04 A2969 1240 88 -500 080/05 RMK AO2
14926KSTC STC20041125231510011/25/04 23:15:31  5-MIN KSTC 260515Z AUTO 08006KT 9SM CLR M03/M04 A2969 1240 88 -500 080/06 RMK AO2
14926KSTC STC20041125232010011/25/04 23:20:31  5-MIN KSTC 260520Z AUTO 08006KT 9SM CLR M03/M04 A2969 1240 88 -500 080/06 RMK AO2
14926KSTC STC20041125232510011/25/04 23:25:31  5-MIN KSTC 260525Z AUTO 08006KT 9SM CLR M03/M04 A2969 1240 88 -500 070/06 RMK AO2
14926KSTC STC20041125233010011/25/04 23:30:31  5-MIN KSTC 260530Z AUTO 07006KT 9SM CLR M03/M04 A2969 1240 92 -600 060/06 RMK AO2
14926KSTC STC20041125233510011/25/04 23:35:31  5-MIN KSTC 260535Z AUTO 07006KT 9SM CLR M03/M04 A2969 1240 92 -600 070/06 RMK AO2
14926KSTC STC20041125234010011/25/04 23:40:31  5-MIN KSTC 260540Z AUTO 07006KT 9SM CLR M03/M04 A2969 1240 92 -600 060/06 RMK AO2
14926KSTC STC20041125234510011/25/04 23:45:31  5-MIN KSTC 260545Z AUTO 08006KT 8SM CLR M03/M04 A2969 1240 92 -600 070/06 RMK AO2
14926KSTC STC20041125235014511/25/04 23:50:31  5-MIN KSTC 260550Z AUTO 08008KT 8SM CLR M03/M04 A2969 1240 92 -600 080/08 RMK AO2 SLP076 T10331044 11011 21033 410061078 58003
14926KSTC STC20041125235510011/25/04 23:55:31  5-MIN KSTC 260555Z AUTO 08006KT 8SM CLR M03/M04 A2969 1240 92 -600 080/06 RMK AO2
14926KSTC STC20041126000010011/26/04 00:00:32  5-MIN KSTC 260600Z AUTO 09007KT 8SM CLR M03/M04 A2969 1240 92 -600 090/07 RMK AO2
14926KSTC STC20041126000510011/26/04 00:05:31  5-MIN KSTC 260605Z AUTO 09008KT 8SM CLR M03/M04 A2969 1240 92 -600 080/08 RMK AO2
14926KSTC STC20041126001010011/26/04 00:10:31  5-MIN KSTC 260610Z AUTO 08007KT 8SM CLR M03/M04 A2969 1240 92 -600 080/07 RMK AO2
14926KSTC STC20041126001510011/26/04 00:15:31  5-MIN KSTC 260615Z AUTO 08006KT 8SM CLR M03/M04 A2969 1240 92 -600 080/06 RMK AO2
14926KSTC STC20041126002010011/26/04 00:20:31  5-MIN KSTC 260620Z AUTO 08006KT 8SM CLR M03/M04 A2969 1240 92 -600 080/06 RMK AO2
14926KSTC STC20041126002510011/26/04 00:25:31  5-MIN KSTC 260625Z AUTO 08006KT 8SM CLR M03/M04 A2969 1240 92 -600 080/06 RMK AO2
14926KSTC STC20041126003010011/26/04 00:30:31  5-MIN KSTC 260630Z AUTO 09006KT 8SM CLR M03/M04 A2969 1240 92 -600 080/06 RMK AO2
14926KSTC STC20041126003510011/26/04 00:35:31  5-MIN KSTC 260635Z AUTO 08006KT 8SM CLR M03/M04 A2969 1240 92 -600 070/06 RMK AO2
14926KSTC STC20041126004010011/26/04 00:40:31  5-MIN KSTC 260640Z AUTO 07006KT 8SM CLR M03/M04 A2969 1240 92 -600 070/06 RMK AO2
14926KSTC STC20041126004510011/26/04 00:45:31  5-MIN KSTC 260645Z AUTO 07006KT 7SM CLR M03/M04 A2970 1240 92 -600 060/06 RMK AO2
14926KSTC STC20041126005011711/26/04 00:50:31  5-MIN KSTC 260650Z AUTO 08006KT 7SM CLR M03/M04 A2969 1240 92 -600 070/06 RMK AO2 SLP076 T10331044
14926KSTC STC20041126005510011/26/04 00:55:31  5-MIN KSTC 260655Z AUTO 09007KT 7SM CLR M03/M04 A2968 1250 92 -600 090/07 RMK AO2
14926KSTC STC20041126010010311/26/04 01:00:31  5-MIN KSTC 260700Z AUTO 09008KT 8SM FEW065 M03/M04 A2968 1250 92 -600 090/08 RMK AO2
14926KSTC STC20041126010510311/26/04 01:05:31  5-MIN KSTC 260705Z AUTO 08008KT 8SM SCT065 M03/M04 A2969 1240 92 -600 080/08 RMK AO2
14926KSTC STC20041126011010311/26/04 01:10:31  5-MIN KSTC 260710Z AUTO 07008KT 8SM BKN060 M03/M04 A2969 1240 92 -600 070/08 RMK AO2
14926KSTC STC20041126011510311/26/04 01:15:31  5-MIN KSTC 260715Z AUTO 06007KT 8SM BKN060 M03/M04 A2969 1240 92 -600 060/07 RMK AO2
14926KSTC STC20041126012010311/26/04 01:20:31  5-MIN KSTC 260720Z AUTO 08007KT 7SM BKN060 M03/M04 A2969 1240 92 -600 070/07 RMK AO2
14926KSTC STC20041126012510311/26/04 01:25:31  5-MIN KSTC 260725Z AUTO 06008KT 7SM OVC060 M03/M04 A2969 1240 92 -600 050/08 RMK AO2
14926KSTC STC20041126013010311/26/04 01:30:31  5-MIN KSTC 260730Z AUTO 08006KT 7SM BKN060 M03/M04 A2969 1240 92 -600 070/06 RMK AO2
14926KSTC STC20041126013510311/26/04 01:35:31  5-MIN KSTC 260735Z AUTO 09007KT 7SM BKN060 M03/M04 A2969 1240 92 -600 080/07 RMK AO2
14926KSTC STC20041126014010311/26/04 01:40:31  5-MIN KSTC 260740Z AUTO 08007KT 7SM SCT060 M03/M04 A2969 1240 92 -600 080/07 RMK AO2
14926KSTC STC20041126014510311/26/04 01:45:31  5-MIN KSTC 260745Z AUTO 08007KT 7SM FEW060 M03/M04 A2969 1240 92 -600 080/07 RMK AO2
14926KSTC STC20041126015012011/26/04 01:50:31  5-MIN KSTC 260750Z AUTO 09007KT 7SM FEW060 M03/M04 A2969 1240 92 -600 090/07 RMK AO2 SLP074 T10331044
14926KSTC STC20041126015510011/26/04 01:55:31  5-MIN KSTC 260755Z AUTO 08007KT 7SM CLR M03/M04 A2968 1250 92 -600 070/07 RMK AO2
14926KSTC STC20041126020010011/26/04 02:00:31  5-MIN KSTC 260800Z AUTO 08007KT 7SM CLR M03/M04 A2968 1250 92 -600 080/07 RMK AO2
14926KSTC STC20041126020510011/26/04 02:05:31  5-MIN KSTC 260805Z AUTO 08007KT 7SM CLR M03/M04 A2968 1250 92 -600 080/07 RMK AO2
14926KSTC STC20041126021010011/26/04 02:10:31  5-MIN KSTC 260810Z AUTO 08007KT 7SM CLR M03/M04 A2968 1250 92 -600 080/07 RMK AO2
14926KSTC STC20041126021510011/26/04 02:15:31  5-MIN KSTC 260815Z AUTO 09007KT 7SM CLR M03/M04 A2968 1250 92 -600 080/07 RMK AO2
14926KSTC STC20041126022010011/26/04 02:20:31  5-MIN KSTC 260820Z AUTO 08007KT 7SM CLR M04/M04 A2968 1250 96 -700 070/07 RMK AO2
14926KSTC STC20041126022510011/26/04 02:25:31  5-MIN KSTC 260825Z AUTO 09007KT 7SM CLR M04/M04 A2968 1250 96 -700 080/07 RMK AO2
14926KSTC STC20041126023010011/26/04 02:30:31  5-MIN KSTC 260830Z AUTO 09008KT 7SM CLR M03/M04 A2967 1260 92 -600 090/08 RMK AO2
14926KSTC STC20041126023510011/26/04 02:35:31  5-MIN KSTC 260835Z AUTO 09008KT 7SM CLR M03/M04 A2967 1250 92 -600 090/08 RMK AO2
14926KSTC STC20041126024010011/26/04 02:40:31  5-MIN KSTC 260840Z AUTO 10005KT 8SM CLR M03/M04 A2968 1250 92 -600 100/05 RMK AO2
14926KSTC STC20041126024510011/26/04 02:45:31  5-MIN KSTC 260845Z AUTO 10005KT 8SM CLR M03/M04 A2968 1250 92 -600 100/05 RMK AO2
14926KSTC STC20041126025012311/26/04 02:50:31  5-MIN KSTC 260850Z AUTO 09005KT 8SM CLR M03/M04 A2968 1250 92 -600 080/05 RMK AO2 SLP071 T10331044 55007
14926KSTC STC20041126025510011/26/04 02:55:31  5-MIN KSTC 260855Z AUTO 07004KT 7SM CLR M03/M05 A2968 1250 88 -600 070/04 RMK AO2
14926KSTC STC20041126030010011/26/04 03:00:31  5-MIN KSTC 260900Z AUTO 06005KT 7SM CLR M04/M05 A2968 1250 92 -700 050/05 RMK AO2
14926KSTC STC20041126030510011/26/04 03:05:31  5-MIN KSTC 260905Z AUTO 07005KT 7SM CLR M04/M05 A2968 1250 92 -700 070/05 RMK AO2
14926KSTC STC20041126031010011/26/04 03:10:31  5-MIN KSTC 260910Z AUTO 08005KT 7SM CLR M03/M05 A2968 1250 88 -600 080/05 RMK AO2
14926KSTC STC20041126031510011/26/04 03:15:31  5-MIN KSTC 260915Z AUTO 09006KT 7SM CLR M03/M05 A2968 1250 88 -600 090/06 RMK AO2
14926KSTC STC20041126032010011/26/04 03:20:31  5-MIN KSTC 260920Z AUTO 10005KT 8SM CLR M03/M04 A2968 1250 92 -600 100/05 RMK AO2
14926KSTC STC20041126032510011/26/04 03:25:31  5-MIN KSTC 260925Z AUTO 10005KT 8SM CLR M03/M04 A2968 1250 92 -600 090/05 RMK AO2
14926KSTC STC20041126033010011/26/04 03:30:31  5-MIN KSTC 260930Z AUTO 09005KT 8SM CLR M03/M04 A2968 1250 92 -600 090/05 RMK AO2
14926KSTC STC20041126033510011/26/04 03:35:31  5-MIN KSTC 260935Z AUTO 08005KT 8SM CLR M03/M05 A2968 1250 88 -600 080/05 RMK AO2
14926KSTC STC20041126034010011/26/04 03:40:31  5-MIN KSTC 260940Z AUTO 08005KT 8SM CLR M03/M05 A2967 1250 88 -600 070/05 RMK AO2
14926KSTC STC20041126034510011/26/04 03:45:31  5-MIN KSTC 260945Z AUTO 06006KT 8SM CLR M03/M05 A2967 1250 88 -600 060/06 RMK AO2
14926KSTC STC20041126035011711/26/04 03:50:31  5-MIN KSTC 260950Z AUTO 06006KT 7SM CLR M04/M05 A2967 1260 92 -700 060/06 RMK AO2 SLP069 T10391050
14926KSTC STC20041126035510011/26/04 03:55:31  5-MIN KSTC 260955Z AUTO 07007KT 7SM CLR M04/M05 A2967 1260 92 -700 070/07 RMK AO2
14926KSTC STC20041126040010011/26/04 04:00:31  5-MIN KSTC 261000Z AUTO 07006KT 7SM CLR M04/M05 A2967 1260 92 -700 070/06 RMK AO2
14926KSTC STC20041126040510011/26/04 04:05:31  5-MIN KSTC 261005Z AUTO 07006KT 7SM CLR M03/M05 A2967 1260 88 -600 070/06 RMK AO2
14926KSTC STC20041126041010011/26/04 04:10:31  5-MIN KSTC 261010Z AUTO 07006KT 7SM CLR M04/M05 A2967 1260 92 -700 070/06 RMK AO2
14926KSTC STC20041126041510011/26/04 04:15:31  5-MIN KSTC 261015Z AUTO 08006KT 7SM CLR M04/M05 A2967 1260 92 -700 070/06 RMK AO2
14926KSTC STC20041126042010011/26/04 04:20:31  5-MIN KSTC 261020Z AUTO 08006KT 7SM CLR M04/M05 A2967 1260 92 -700 080/06 RMK AO2
14926KSTC STC20041126042510011/26/04 04:25:31  5-MIN KSTC 261025Z AUTO 08006KT 7SM CLR M04/M05 A2967 1260 92 -700 080/06 RMK AO2
14926KSTC STC20041126043010011/26/04 04:30:31  5-MIN KSTC 261030Z AUTO 09008KT 7SM CLR M04/M05 A2966 1270 92 -700 080/08 RMK AO2
14926KSTC STC20041126043510011/26/04 04:35:31  5-MIN KSTC 261035Z AUTO 08007KT 7SM CLR M04/M05 A2966 1270 92 -700 070/07 RMK AO2
14926KSTC STC20041126044010011/26/04 04:40:31  5-MIN KSTC 261040Z AUTO 07007KT 7SM CLR M04/M05 A2966 1270 92 -700 070/07 RMK AO2
14926KSTC STC20041126044510011/26/04 04:45:31  5-MIN KSTC 261045Z AUTO 07007KT 8SM CLR M04/M05 A2966 1270 92 -700 070/07 RMK AO2
14926KSTC STC20041126045011711/26/04 04:50:31  5-MIN KSTC 261050Z AUTO 09008KT 8SM CLR M03/M05 A2966 1270 88 -600 090/08 RMK AO2 SLP066 T10331050
14926KSTC STC20041126045510011/26/04 04:55:31  5-MIN KSTC 261055Z AUTO 09008KT 8SM CLR M03/M05 A2966 1270 88 -600 080/08 RMK AO2
14926KSTC STC20041126050010011/26/04 05:00:31  5-MIN KSTC 261100Z AUTO 09007KT 8SM CLR M03/M05 A2966 1270 88 -600 090/07 RMK AO2
14926KSTC STC20041126050510011/26/04 05:05:31  5-MIN KSTC 261105Z AUTO 09008KT 9SM CLR M03/M05 A2966 1270 88 -600 090/08 RMK AO2
14926KSTC STC20041126051010011/26/04 05:10:31  5-MIN KSTC 261110Z AUTO 09007KT 9SM CLR M03/M05 A2966 1270 88 -600 090/07 RMK AO2
14926KSTC STC20041126051510011/26/04 05:15:31  5-MIN KSTC 261115Z AUTO 10006KT 9SM CLR M03/M05 A2966 1270 88 -600 090/06 RMK AO2
14926KSTC STC20041126052010011/26/04 05:20:31  5-MIN KSTC 261120Z AUTO 10006KT 9SM CLR M03/M05 A2966 1270 88 -600 090/06 RMK AO2
14926KSTC STC20041126052510011/26/04 05:25:31  5-MIN KSTC 261125Z AUTO 12004KT 9SM CLR M03/M05 A2966 1270 88 -600 110/04 RMK AO2
14926KSTC STC20041126053010011/26/04 05:30:31  5-MIN KSTC 261130Z AUTO 12004KT 9SM CLR M03/M05 A2966 1270 88 -600 120/04 RMK AO2
14926KSTC STC20041126053510011/26/04 05:35:31  5-MIN KSTC 261135Z AUTO 11005KT 9SM CLR M03/M05 A2966 1270 88 -600 110/05 RMK AO2
14926KSTC STC20041126054010011/26/04 05:40:31  5-MIN KSTC 261140Z AUTO 11005KT 9SM CLR M03/M05 A2966 1270 88 -600 110/05 RMK AO2
14926KSTC STC20041126054510011/26/04 05:45:31  5-MIN KSTC 261145Z AUTO 10004KT 9SM CLR M03/M05 A2966 1270 88 -600 100/04 RMK AO2
14926KSTC STC20041126055013511/26/04 05:50:31  5-MIN KSTC 261150Z AUTO 10004KT 9SM CLR M03/M05 A2966 1270 88 -600 090/04 RMK AO2 SLP065 T10331050 11033 21039 58004
14926KSTC STC20041126055510011/26/04 05:55:31  5-MIN KSTC 261155Z AUTO 11004KT 9SM CLR M03/M05 A2966 1270 88 -600 110/04 RMK AO2
14926KSTC STC20041126060010011/26/04 06:00:31  5-MIN KSTC 261200Z AUTO 10004KT 9SM CLR M03/M05 A2965 1270 88 -600 100/04 RMK AO2
14926KSTC STC20041126060510011/26/04 06:05:31  5-MIN KSTC 261205Z AUTO 10005KT 9SM CLR M03/M05 A2965 1270 88 -600 100/05 RMK AO2
14926KSTC STC20041126061010011/26/04 06:10:31  5-MIN KSTC 261210Z AUTO 09005KT 9SM CLR M03/M05 A2966 1270 88 -600 090/05 RMK AO2
14926KSTC STC20041126061510011/26/04 06:15:31  5-MIN KSTC 261215Z AUTO 09005KT 9SM CLR M03/M05 A2966 1270 88 -600 090/05 RMK AO2
14926KSTC STC20041126062010011/26/04 06:20:31  5-MIN KSTC 261220Z AUTO 09005KT 9SM CLR M03/M05 A2966 1270 88 -600 090/05 RMK AO2
14926KSTC STC20041126062510011/26/04 06:25:31  5-MIN KSTC 261225Z AUTO 09005KT 9SM CLR M03/M04 A2966 1270 92 -600 080/05 RMK AO2
14926KSTC STC20041126063010011/26/04 06:30:31  5-MIN KSTC 261230Z AUTO 08004KT 9SM CLR M03/M05 A2966 1270 88 -600 080/04 RMK AO2
14926KSTC STC20041126063510011/26/04 06:35:31  5-MIN KSTC 261235Z AUTO 08005KT 9SM CLR M03/M05 A2966 1270 88 -600 080/05 RMK AO2
14926KSTC STC20041126064010011/26/04 06:40:31  5-MIN KSTC 261240Z AUTO 08006KT 8SM CLR M03/M04 A2966 1270 92 -600 080/06 RMK AO2
14926KSTC STC20041126064510011/26/04 06:45:31  5-MIN KSTC 261245Z AUTO 09006KT 8SM CLR M03/M04 A2966 1270 92 -600 080/06 RMK AO2
14926KSTC STC20041126065011711/26/04 06:50:31  5-MIN KSTC 261250Z AUTO 09006KT 9SM CLR M03/M04 A2966 1270 92 -600 080/06 RMK AO2 SLP064 T10331044
14926KSTC STC20041126065510011/26/04 06:55:31  5-MIN KSTC 261255Z AUTO 09006KT 9SM CLR M03/M04 A2966 1270 88 -500 090/06 RMK AO2
14926KSTC STC20041126070010011/26/04 07:00:31  5-MIN KSTC 261300Z AUTO 09005KT 9SM CLR M03/M04 A2966 1270 88 -500 080/05 RMK AO2
14926KSTC STC20041126070510011/26/04 07:05:31  5-MIN KSTC 261305Z AUTO 09005KT 9SM CLR M03/M04 A2966 1270 88 -500 080/05 RMK AO2
14926KSTC STC20041126071010011/26/04 07:10:31  5-MIN KSTC 261310Z AUTO 09005KT 9SM CLR M03/M04 A2966 1270 88 -500 080/05 RMK AO2
14926KSTC STC20041126071510011/26/04 07:15:31  5-MIN KSTC 261315Z AUTO 08005KT 9SM CLR M03/M04 A2967 1260 88 -500 080/05 RMK AO2
14926KSTC STC20041126072010011/26/04 07:20:31  5-MIN KSTC 261320Z AUTO 08006KT 9SM CLR M03/M04 A2967 1260 88 -500 070/06 RMK AO2
14926KSTC STC20041126072510311/26/04 07:25:31  5-MIN KSTC 261325Z AUTO 08005KT 9SM FEW120 M03/M04 A2967 1260 88 -500 070/05 RMK AO2
14926KSTC STC20041126073010311/26/04 07:30:31  5-MIN KSTC 261330Z AUTO 07005KT 9SM SCT120 M03/M04 A2967 1260 88 -500 070/05 RMK AO2
14926KSTC STC20041126073510311/26/04 07:35:31  5-MIN KSTC 261335Z AUTO 08005KT 9SM SCT120 M03/M04 A2967 1260 88 -500 070/05 RMK AO2
14926KSTC STC20041126074010311/26/04 07:40:31  5-MIN KSTC 261340Z AUTO 07006KT 8SM BKN120 M03/M04 A2967 1260 88 -500 070/06 RMK AO2
14926KSTC STC20041126074511011/26/04 07:45:31  5-MIN KSTC 261345Z AUTO 08006KT 8SM FEW055 BKN120 M03/M04 A2967 1260 88 -500 070/06 RMK AO2
14926KSTC STC20041126075012711/26/04 07:50:31  5-MIN KSTC 261350Z AUTO 07006KT 8SM SCT055 BKN120 M03/M04 A2967 1250 88 -500 070/06 RMK AO2 SLP070 T10281044
14926KSTC STC20041126075511011/26/04 07:55:31  5-MIN KSTC 261355Z AUTO 07006KT 8SM BKN055 OVC120 M03/M04 A2967 1260 88 -500 070/06 RMK AO2
14926KSTC STC20041126080011011/26/04 08:00:31  5-MIN KSTC 261400Z AUTO 07006KT 8SM BKN055 OVC120 M03/M04 A2968 1250 88 -500 070/06 RMK AO2
14926KSTC STC20041126080511011/26/04 08:05:31  5-MIN KSTC 261405Z AUTO 07006KT 8SM BKN055 OVC120 M03/M04 A2968 1250 88 -500 070/06 RMK AO2
14926KSTC STC20041126081010311/26/04 08:10:31  5-MIN KSTC 261410Z AUTO 07006KT 8SM OVC055 M03/M04 A2968 1250 88 -500 070/06 RMK AO2
14926KSTC STC20041126081510311/26/04 08:15:31  5-MIN KSTC 261415Z AUTO 08006KT 8SM OVC055 M02/M04 A2967 1250 85 -500 070/06 RMK AO2
14926KSTC STC20041126082010311/26/04 08:20:31  5-MIN KSTC 261420Z AUTO 07007KT 8SM OVC055 M02/M04 A2968 1250 88 -500 070/07 RMK AO2
14926KSTC STC20041126082510311/26/04 08:25:31  5-MIN KSTC 261425Z AUTO 08007KT 8SM OVC055 M02/M04 A2968 1250 88 -500 080/07 RMK AO2
14926KSTC STC20041126083010311/26/04 08:30:31  5-MIN KSTC 261430Z AUTO 08006KT 9SM OVC055 M02/M04 A2968 1250 88 -500 080/06 RMK AO2
14926KSTC STC20041126083510311/26/04 08:35:31  5-MIN KSTC 261435Z AUTO 08005KT 8SM OVC055 M02/M04 A2968 1250 85 -400 080/05 RMK AO2
14926KSTC STC20041126084010311/26/04 08:40:31  5-MIN KSTC 261440Z AUTO 08006KT 8SM OVC055 M02/M04 A2968 1250 85 -400 070/06 RMK AO2
14926KSTC STC20041126084510311/26/04 08:45:31  5-MIN KSTC 261445Z AUTO 08007KT 9SM OVC055 M02/M04 A2968 1250 85 -400 070/07 RMK AO2
14926KSTC STC20041126085012611/26/04 08:50:31  5-MIN KSTC 261450Z AUTO 07005KT 9SM OVC060 M02/M04 A2968 1250 85 -400 070/05 RMK AO2 SLP072 T10171039 56007
14926KSTC STC20041126085510311/26/04 08:55:31  5-MIN KSTC 261455Z AUTO 08006KT 8SM OVC060 M02/M03 A2968 1250 88 -400 080/06 RMK AO2
14926KSTC STC20041126090010311/26/04 09:00:31  5-MIN KSTC 261500Z AUTO 08007KT 9SM OVC060 M02/M03 A2968 1250 88 -400 070/07 RMK AO2
14926KSTC STC20041126090510311/26/04 09:05:31  5-MIN KSTC 261505Z AUTO 07006KT 9SM OVC060 M02/M03 A2968 1250 88 -400 070/06 RMK AO2
14926KSTC STC20041126091010311/26/04 09:10:31  5-MIN KSTC 261510Z AUTO 08007KT 9SM OVC060 M02/M03 A2968 1250 88 -400 080/07 RMK AO2
14926KSTC STC20041126091510311/26/04 09:15:31  5-MIN KSTC 261515Z AUTO 08007KT 8SM OVC060 M02/M03 A2968 1250 88 -400 080/07 RMK AO2
14926KSTC STC20041126092010311/26/04 09:20:31  5-MIN KSTC 261520Z AUTO 08007KT 8SM OVC060 M02/M03 A2968 1250 88 -400 080/07 RMK AO2
14926KSTC STC20041126092510311/26/04 09:25:31  5-MIN KSTC 261525Z AUTO 08008KT 9SM OVC060 M02/M03 A2968 1250 88 -400 080/08 RMK AO2
14926KSTC STC20041126093010311/26/04 09:30:31  5-MIN KSTC 261530Z AUTO 09007KT 9SM OVC060 M02/M03 A2969 1240 88 -400 080/07 RMK AO2
14926KSTC STC20041126093510311/26/04 09:35:31  5-MIN KSTC 261535Z AUTO 08007KT 9SM OVC060 M01/M03 A2969 1240 85 -300 080/07 RMK AO2
14926KSTC STC20041126094010311/26/04 09:40:31  5-MIN KSTC 261540Z AUTO 09008KT 9SM OVC060 M01/M03 A2969 1240 85 -300 090/08 RMK AO2
14926KSTC STC20041126094510311/26/04 09:45:31  5-MIN KSTC 261545Z AUTO 09007KT 9SM OVC055 M01/M03 A2969 1240 85 -300 080/07 RMK AO2
14926KSTC STC20041126095012011/26/04 09:50:31  5-MIN KSTC 261550Z AUTO 08008KT 9SM OVC055 M01/M03 A2969 1240 85 -300 080/08 RMK AO2 SLP074 T10111033
14926KSTC STC20041126095510311/26/04 09:55:31  5-MIN KSTC 261555Z AUTO 08008KT 9SM OVC055 M01/M03 A2969 1240 85 -300 080/08 RMK AO2
14926KSTC STC20041126100010311/26/04 10:00:31  5-MIN KSTC 261600Z AUTO 09007KT 9SM OVC055 M01/M03 A2969 1240 85 -300 090/07 RMK AO2
14926KSTC STC20041126100510311/26/04 10:05:31  5-MIN KSTC 261605Z AUTO 09008KT 9SM OVC055 M01/M03 A2969 1240 88 -300 090/08 RMK AO2
14926KSTC STC20041126101011011/26/04 10:10:31  5-MIN KSTC 261610Z AUTO 08006KT 9SM BKN055 OVC095 M01/M03 A2969 1240 88 -300 080/06 RMK AO2
14926KSTC STC20041126101511011/26/04 10:15:31  5-MIN KSTC 261615Z AUTO 08007KT 9SM BKN055 OVC090 M01/M03 A2969 1240 88 -300 080/07 RMK AO2
14926KSTC STC20041126102011011/26/04 10:20:31  5-MIN KSTC 261620Z AUTO 09007KT 9SM SCT055 OVC090 M01/M03 A2969 1240 88 -300 090/07 RMK AO2
14926KSTC STC20041126102511711/26/04 10:25:31  5-MIN KSTC 261625Z AUTO 09006KT 9SM SCT060 SCT075 OVC090 M01/M03 A2969 1240 85 -300 090/06 RMK AO2
14926KSTC STC20041126103011711/26/04 10:30:31  5-MIN KSTC 261630Z AUTO 09007KT 9SM SCT060 BKN070 OVC090 M01/M03 A2969 1240 85 -300 090/07 RMK AO2
14926KSTC STC20041126103511711/26/04 10:35:31  5-MIN KSTC 261635Z AUTO 08006KT 8SM BKN049 BKN060 OVC090 M01/M03 A2969 1240 85 -300 080/06 RMK AO2
14926KSTC STC20041126104013211/26/04 10:40:31  5-MIN KSTC 261640Z AUTO 08007KT 7SM UP BKN044 BKN060 OVC085 M01/M02 A2969 1240 88 -300 080/07 RMK AO2 UPB36 P0000
14926KSTC STC20041126104512811/26/04 10:45:31  5-MIN KSTC 261645Z AUTO 09008KT 6SM UP BR BKN040 OVC085 M01/M02 A2969 1240 88 -300 090/08 RMK AO2 UPB36 P0000
14926KSTC STC20041126105013811/26/04 10:50:31  5-MIN KSTC 261650Z AUTO 09006KT 6SM UP BR OVC040 M01/M02 A2969 1240 88 -300 090/06 RMK AO2 UPB36 SLP074 P0000 T10061022
14926KSTC STC20041126105511511/26/04 10:55:31  5-MIN KSTC 261655Z AUTO 09005KT 6SM UP BR OVC038 M01/M02 A2969 1240 88 -300 090/05 RMK AO2 P0000
14926KSTC STC20041126110012211/26/04 11:00:31  5-MIN KSTC 261700Z AUTO 10006KT 6SM UP BR BKN034 OVC046 M01/M02 A2969 1240 88 -300 100/06 RMK AO2 P0000
14926KSTC STC20041126110512911/26/04 11:05:31  5-MIN KSTC 261705Z AUTO 09004KT 6SM UP BR BKN034 BKN041 OVC048 M01/M02 A2969 1240 92 -300 090/04 RMK AO2 P0000
14926KSTC STC20041126111011911/26/04 11:10:31  5-MIN KSTC 261710Z AUTO 09005KT 7SM UP BKN032 OVC041 M01/M02 A2969 1240 92 -300 090/05 RMK AO2 P0000
14926KSTC STC20041126111511911/26/04 11:15:31  5-MIN KSTC 261715Z AUTO 11005KT 7SM UP BKN032 OVC040 M01/M02 A2968 1240 92 -300 100/05 RMK AO2 P0000
14926KSTC STC20041126112011911/26/04 11:20:31  5-MIN KSTC 261720Z AUTO 11006KT 7SM UP SCT027 OVC036 M01/M01 A2968 1250 96 -300 110/06 RMK AO2 P0000
14926KSTC STC20041126112512211/26/04 11:25:31  5-MIN KSTC 261725Z AUTO 11006KT 5SM UP BR BKN027 OVC036 M01/M01 A2968 1250 96 -300 100/06 RMK AO2 P0000
14926KSTC STC20041126113013811/26/04 11:30:31  5-MIN KSTC 261730Z AUTO 11005KT 4SM -FZRA BR BKN027 OVC036 M01/M01 A2968 1250 96 -300 100/05 RMK AO2 UPE28FZRAB28 P0000
14926KSTC STC20041126113513811/26/04 11:35:31  5-MIN KSTC 261735Z AUTO 10006KT 4SM -FZRA BR BKN027 OVC036 M01/M01 A2968 1250 96 -300 100/06 RMK AO2 UPE28FZRAB28 P0000
14926KSTC STC20041126114013811/26/04 11:40:31  5-MIN KSTC 261740Z AUTO 10005KT 4SM -FZRA BR BKN027 OVC034 M01/M01 A2968 1250 96 -300 100/05 RMK AO2 UPE28FZRAB28 P0000
14926KSTC STC20041126114514411/26/04 11:45:31  5-MIN KSTC 261745Z AUTO 11004KT 4SM -FZRA BR FEW011 BKN027 OVC034 00/M01 A2968 1250 92 -200 100/04 RMK AO2 UPE28FZRAB28 P0000
14926KSTC STC20041126115018511/26/04 11:50:31  5-MIN KSTC 261750Z AUTO 10004KT 4SM -FZRA BR SCT011 BKN027 OVC034 00/M01 A2968 1250 92 -200 100/04 RMK AO2 UPE28FZRAB28 SLP072 P0000 60000 T00001011 10000 21033 53008
14926KSTC STC20041126115513111/26/04 11:55:31  5-MIN KSTC 261755Z AUTO 10004KT 4SM -FZRA BR BKN011 BKN025 OVC034 00/M01 A2968 1250 92 -200 090/04 RMK AO2 P0000
14926KSTC STC20041126120013111/26/04 12:00:31  5-MIN KSTC 261800Z AUTO 10005KT 3SM -FZRA BR BKN011 BKN025 OVC034 00/M01 A2968 1250 92 -200 100/05 RMK AO2 P0000
14926KSTC STC20041126120512411/26/04 12:05:31  5-MIN KSTC 261805Z AUTO 10006KT 3SM -FZRA BR BKN011 OVC025 00/M01 A2968 1250 96 -200 100/06 RMK AO2 P0000
14926KSTC STC20041126121011711/26/04 12:10:31  5-MIN KSTC 261810Z AUTO 10004KT 3SM -FZRA BR OVC011 00/M01 A2967 1250 96 -200 100/04 RMK AO2 P0001
14926KSTC STC20041126121511711/26/04 12:15:31  5-MIN KSTC 261815Z AUTO 10004KT 3SM -FZRA BR OVC011 00/M01 A2967 1260 96 -200 090/04 RMK AO2 P0001
14926KSTC STC20041126122011711/26/04 12:20:31  5-MIN KSTC 261820Z AUTO 09004KT 3SM -FZRA BR OVC011 00/M01 A2967 1260 96 -200 090/04 RMK AO2 P0001
14926KSTC STC20041126122512911/26/04 12:25:31  5-MIN KSTC 261825Z AUTO 10003KT 3SM -FZRA BR OVC011 00/M01 A2967 1260 96 -200 100/03 RMK AO2 CIG 006V011 P0001
14926KSTC STC20041126123012911/26/04 12:30:31  5-MIN KSTC 261830Z AUTO 11004KT 3SM -FZRA BR OVC011 00/M01 A2967 1260 96 -200 100/04 RMK AO2 CIG 006V011 P0001
14926KSTC STC20041126123512911/26/04 12:35:31  5-MIN KSTC 261835Z AUTO 11005KT 3SM -FZRA BR OVC009 00/M01 A2967 1260 96 -200 110/05 RMK AO2 CIG 006V011 P0001
14926KSTC STC20041126124012911/26/04 12:40:31  5-MIN KSTC 261840Z AUTO 11004KT 3SM -FZRA BR OVC009 00/M01 A2967 1260 96 -200 100/04 RMK AO2 CIG 006V011 P0001
14926KSTC STC20041126124512911/26/04 12:45:31  5-MIN KSTC 261845Z AUTO 10005KT 3SM -FZRA BR OVC009 00/00 A2967 1260 100 -200 100/05 RMK AO2 CIG 006V011 P0001
14926KSTC STC20041126125015011/26/04 12:50:31  5-MIN KSTC 261850Z AUTO 10004KT 2 1/2SM -FZRA BR OVC009 00/00 A2967 1260 100 -200 100/04 RMK AO2 CIG 005V011 SLP066 P0001 T00000000
14926KSTC STC20041126125513311/26/04 12:55:31  5-MIN KSTC 261855Z AUTO 10004KT 2 1/2SM -FZRA BR OVC009 00/00 A2966 1260 100 -200 090/04 RMK AO2 CIG 005V011 P0000
14926KSTC STC20041126130013311/26/04 13:00:31  5-MIN KSTC 261900Z AUTO 08004KT 2 1/2SM -FZRA BR OVC009 00/00 A2966 1270 100 -200 080/04 RMK AO2 CIG 005V013 P0000
14926KSTC STC20041126130512811/26/04 13:05:31  5-MIN KSTC 261905Z AUTO 08005KT 2SM -FZRA BR OVC009 01/00 A2966 1270 96 -100 080/05 RMK AO2 CIG 005V013 P0000
14926KSTC STC20041126131013311/26/04 13:10:31  5-MIN KSTC 261910Z AUTO 09006KT 2 1/2SM -FZRA BR OVC009 00/00 A2966 1270 100 -200 090/06 RMK AO2 CIG 005V013 P0000
14926KSTC STC20041126131514211/26/04 13:15:31  5-MIN KSTC 261915Z AUTO 08006KT 2 1/2SM UP BR OVC009 01/00 A2966 1270 96 -100 080/06 RMK AO2 UPB11FZRAE11 CIG 005V012 P0000
14926KSTC STC20041126132014611/26/04 13:20:31  5-MIN KSTC 261920Z AUTO 09006KT 2 1/2SM UP BR FEW005 OVC009 00/00 A2966 1270 100 -200 090/06 RMK AO2 UPB11RAB18E20FZRAE11 P0000
14926KSTC STC20041126132514711/26/04 13:25:31  5-MIN KSTC 261925Z AUTO 09006KT 2SM -RA BR OVC009 01/00 A2966 1270 96 -100 090/06 RMK AO2 UPB11E25RAB18FZRAE11 CIG 005V012 P0001
14926KSTC STC20041126133014211/26/04 13:30:31  5-MIN KSTC 261930Z AUTO 09005KT 2SM -RA BR SCT005 OVC009 01/00 A2966 1270 96 -100 090/05 RMK AO2 UPB11E25RAB18FZRAE11 P0001
14926KSTC STC20041126133514211/26/04 13:35:31  5-MIN KSTC 261935Z AUTO 10005KT 2SM -RA BR SCT005 OVC009 01/00 A2966 1270 96 -100 100/05 RMK AO2 UPB11E25RAB18FZRAE11 P0001
14926KSTC STC20041126134014711/26/04 13:40:31  5-MIN KSTC 261940Z AUTO 10006KT 2SM -RA BR OVC009 01/00 A2965 1270 96 -100 090/06 RMK AO2 UPB11E25RAB18FZRAE11 CIG 004V010 P0001
14926KSTC STC20041126134514711/26/04 13:45:31  5-MIN KSTC 261945Z AUTO 09006KT 2SM -RA BR OVC009 01/00 A2965 1270 96 -100 090/06 RMK AO2 UPB11E25RAB18FZRAE11 CIG 004V010 P0001
14926KSTC STC20041126135016311/26/04 13:50:31  5-MIN KSTC 261950Z AUTO 09006KT 2SM BR OVC009 01/00 A2965 1280 96 -100 090/06 RMK AO2 UPB11E25RAB18E50FZRAE11 CIG 004V010 SLP061 P0001 T00060000
14926KSTC STC20041126135511611/26/04 13:55:31  5-MIN KSTC 261955Z AUTO 09007KT 2SM BR OVC007 01/00 A2965 1280 96 -100 090/07 RMK AO2 CIG 004V010
14926KSTC STC20041126140011111/26/04 14:00:31  5-MIN KSTC 262000Z AUTO 10006KT 2SM BR BKN005 OVC009 01/00 A2965 1280 96 -100 100/06 RMK AO2
14926KSTC STC20041126140511611/26/04 14:05:31  5-MIN KSTC 262005Z AUTO 09005KT 2SM BR OVC005 01/00 A2965 1280 96 -100 090/05 RMK AO2 CIG 004V009
14926KSTC STC20041126141014411/26/04 14:10:31  5-MIN KSTC 262010Z AUTO 09006KT 1 3/4SM -RA BR OVC005 01/00 A2965 1280 96 -100 090/06 RMK AO2 UPB07E09RAB09 CIG 004V009 P0000
14926KSTC STC20041126141514011/26/04 14:15:31  5-MIN KSTC 262015Z AUTO 09007KT 2SM -RA BR OVC005 01/00 A2965 1280 96 -100 080/07 RMK AO2 UPB07E09RAB09 CIG 004V010 P0000
14926KSTC STC20041126142012811/26/04 14:20:31  5-MIN KSTC 262020Z AUTO 09006KT 2SM -RA BR OVC005 01/00 A2965 1280 96 -100 080/06 RMK AO2 UPB07E09RAB09 P0000
14926KSTC STC20041126142512811/26/04 14:25:31  5-MIN KSTC 262025Z AUTO 09007KT 2SM -RA BR OVC005 01/00 A2965 1280 96 -100 090/07 RMK AO2 UPB07E09RAB09 P0000
14926KSTC STC20041126143014011/26/04 14:30:31  5-MIN KSTC 262030Z AUTO 09006KT 2SM -RA BR OVC005 01/00 A2965 1280 96 -100 090/06 RMK AO2 UPB07E09RAB09 CIG 004V009 P0000
14926KSTC STC20041126143513411/26/04 14:35:31  5-MIN KSTC 262035Z AUTO 09006KT 2SM BR BKN005 OVC009 01/00 A2965 1280 96 -100 080/06 RMK AO2 UPB07E09RAB09E35 P0000
14926KSTC STC20041126144013911/26/04 14:40:31  5-MIN KSTC 262040Z AUTO 09008KT 2SM BR OVC007 01/00 A2965 1280 96 -100 090/08 RMK AO2 UPB07E09RAB09E35 CIG 004V011 P0000
14926KSTC STC20041126144513911/26/04 14:45:31  5-MIN KSTC 262045Z AUTO 09006KT 2SM BR OVC007 01/00 A2965 1280 96 -100 090/06 RMK AO2 UPB07E09RAB09E35 CIG 004V011 P0000
14926KSTC STC20041126145016911/26/04 14:50:31  5-MIN KSTC 262050Z AUTO 09007KT 2SM -RA BR OVC007 01/00 A2965 1280 96 -100 090/07 RMK AO2 UPB07E09RAB09 CIG 004V011 SLP061 P0000 60002 T00060000 58001
14926KSTC STC20041126145512611/26/04 14:55:31  5-MIN KSTC 262055Z AUTO 08005KT 2SM -RA BR OVC005 01/00 A2965 1280 96 -100 080/05 RMK AO2 CIG 004V010 P0000
14926KSTC STC20041126150012611/26/04 15:00:31  5-MIN KSTC 262100Z AUTO 08005KT 2SM -RA BR OVC005 01/00 A2965 1280 96 -100 070/05 RMK AO2 CIG 004V010 P0000
14926KSTC STC20041126150512611/26/04 15:05:31  5-MIN KSTC 262105Z AUTO 08006KT 2SM -RA BR OVC005 01/00 A2965 1270 96 -100 070/06 RMK AO2 CIG 004V009 P0000
14926KSTC STC20041126151012611/26/04 15:10:31  5-MIN KSTC 262110Z AUTO 08005KT 2SM -RA BR OVC005 01/00 A2965 1270 96 -100 080/05 RMK AO2 CIG 004V008 P0000
14926KSTC STC20041126151511411/26/04 15:15:31  5-MIN KSTC 262115Z AUTO 09005KT 2SM -RA BR OVC005 01/00 A2965 1270 96 -100 080/05 RMK AO2 P0000
14926KSTC STC20041126152011411/26/04 15:20:31  5-MIN KSTC 262120Z AUTO 08005KT 2SM -RA BR OVC005 01/00 A2966 1270 96 -100 080/05 RMK AO2 P0000
14926KSTC STC20041126152512711/26/04 15:25:31  5-MIN KSTC 262125Z AUTO 08004KT 2SM -RA BR OVC005 00/00 A2966 1270 100 -200 070/04 RMK AO2 CIG 003V007 P0000
14926KSTC STC20041126153012611/26/04 15:30:31  5-MIN KSTC 262130Z AUTO 08006KT 2SM -RA BR OVC005 01/00 A2966 1270 96 -100 080/06 RMK AO2 CIG 003V008 P0000
14926KSTC STC20041126153513711/26/04 15:35:31  5-MIN KSTC 262135Z AUTO 08005KT 2SM UP BR OVC005 00/00 A2966 1270 100 -200 070/05 RMK AO2 RAE34UPB34 CIG 003V008 P0001
14926KSTC STC20041126154012511/26/04 15:40:31  5-MIN KSTC 262140Z AUTO 07005KT 2SM UP BR OVC005 00/00 A2966 1270 100 -200 070/05 RMK AO2 RAE34UPB34 P0001
14926KSTC STC20041126154513711/26/04 15:45:31  5-MIN KSTC 262145Z AUTO 09006KT 2SM UP BR OVC005 00/00 A2966 1270 100 -200 090/06 RMK AO2 RAE34UPB34 CIG 003V008 P0001
14926KSTC STC20041126155015411/26/04 15:50:31  5-MIN KSTC 262150Z AUTO 09005KT 2SM UP BR OVC005 00/00 A2966 1270 100 -200 080/05 RMK AO2 RAE34UPB34 CIG 003V008 SLP064 P0001 T00000000
14926KSTC STC20041126155511411/26/04 15:55:31  5-MIN KSTC 262155Z AUTO 08006KT 2SM UP BR OVC005 00/00 A2966 1270 100 -200 080/06 RMK AO2 P0000
14926KSTC STC20041126160011411/26/04 16:00:31  5-MIN KSTC 262200Z AUTO 08006KT 2SM UP BR OVC005 00/00 A2966 1270 100 -200 080/06 RMK AO2 P0000
14926KSTC STC20041126160511411/26/04 16:05:31  5-MIN KSTC 262205Z AUTO 09007KT 2SM UP BR OVC005 00/00 A2966 1270 100 -200 090/07 RMK AO2 P0000
14926KSTC STC20041126161011711/26/04 16:10:31  5-MIN KSTC 262210Z AUTO 08005KT 2SM BR OVC005 00/00 A2966 1270 100 -200 080/05 RMK AO2 UPE10 P0000
14926KSTC STC20041126161511711/26/04 16:15:31  5-MIN KSTC 262215Z AUTO 08008KT 2SM BR OVC005 00/00 A2966 1270 100 -200 080/08 RMK AO2 UPE10 P0000
14926KSTC STC20041126162011711/26/04 16:20:31  5-MIN KSTC 262220Z AUTO 08005KT 2SM BR OVC005 00/00 A2966 1260 100 -200 080/05 RMK AO2 UPE10 P0000
14926KSTC STC20041126162511711/26/04 16:25:31  5-MIN KSTC 262225Z AUTO 07006KT 2SM BR OVC005 00/00 A2967 1260 100 -200 070/06 RMK AO2 UPE10 P0000
14926KSTC STC20041126163012111/26/04 16:30:31  5-MIN KSTC 262230Z AUTO 08006KT 2 1/2SM BR OVC005 00/00 A2967 1260 100 -200 070/06 RMK AO2 UPE10 P0000
14926KSTC STC20041126163511711/26/04 16:35:31  5-MIN KSTC 262235Z AUTO 08007KT 3SM BR OVC005 00/00 A2967 1260 100 -200 070/07 RMK AO2 UPE10 P0000
14926KSTC STC20041126164011711/26/04 16:40:31  5-MIN KSTC 262240Z AUTO 07006KT 4SM BR OVC005 00/00 A2967 1260 100 -200 070/06 RMK AO2 UPE10 P0000
14926KSTC STC20041126164511711/26/04 16:45:31  5-MIN KSTC 262245Z AUTO 07005KT 4SM BR OVC005 00/00 A2967 1260 100 -200 070/05 RMK AO2 UPE10 P0000
14926KSTC STC20041126165013411/26/04 16:50:31  5-MIN KSTC 262250Z AUTO 06007KT 4SM BR OVC005 00/00 A2967 1260 100 -200 050/07 RMK AO2 UPE10 SLP068 P0000 T00000000
14926KSTC STC20041126165510511/26/04 16:55:31  5-MIN KSTC 262255Z AUTO 06005KT 3SM BR OVC005 00/00 A2967 1260 100 -200 060/05 RMK AO2
14926KSTC STC20041126170010511/26/04 17:00:31  5-MIN KSTC 262300Z AUTO 07005KT 3SM BR OVC005 00/00 A2968 1250 100 -200 070/05 RMK AO2
14926KSTC STC20041126170510511/26/04 17:05:31  5-MIN KSTC 262305Z AUTO 06005KT 3SM BR OVC005 00/00 A2968 1250 100 -200 060/05 RMK AO2
14926KSTC STC20041126171010511/26/04 17:10:31  5-MIN KSTC 262310Z AUTO 06006KT 4SM BR OVC005 00/00 A2968 1250 100 -200 060/06 RMK AO2
14926KSTC STC20041126171510511/26/04 17:15:31  5-MIN KSTC 262315Z AUTO 04005KT 3SM BR OVC005 00/00 A2968 1250 100 -200 040/05 RMK AO2
14926KSTC STC20041126172010511/26/04 17:20:31  5-MIN KSTC 262320Z AUTO 05005KT 3SM BR OVC005 00/00 A2968 1250 100 -200 050/05 RMK AO2
14926KSTC STC20041126172510511/26/04 17:25:31  5-MIN KSTC 262325Z AUTO 06006KT 3SM BR OVC005 00/00 A2968 1250 100 -200 060/06 RMK AO2
14926KSTC STC20041126173010511/26/04 17:30:31  5-MIN KSTC 262330Z AUTO 05005KT 3SM BR OVC005 00/00 A2968 1250 100 -200 050/05 RMK AO2
14926KSTC STC20041126173510511/26/04 17:35:31  5-MIN KSTC 262335Z AUTO 06005KT 3SM BR OVC005 00/00 A2968 1250 100 -200 050/05 RMK AO2
14926KSTC STC20041126174010511/26/04 17:40:31  5-MIN KSTC 262340Z AUTO 06006KT 3SM BR OVC005 00/00 A2968 1250 100 -200 060/06 RMK AO2
14926KSTC STC20041126174510511/26/04 17:45:31  5-MIN KSTC 262345Z AUTO 06006KT 3SM BR OVC005 00/00 A2968 1250 100 -200 060/06 RMK AO2
14926KSTC STC20041126175014611/26/04 17:50:31  5-MIN KSTC 262350Z AUTO 06007KT 3SM BR OVC005 00/00 A2968 1250 100 -200 060/07 RMK AO2 SLP072 60003 T00000000 10006 20000 55009
14926KSTC STC20041126175510911/26/04 17:55:31  5-MIN KSTC 262355Z AUTO 07005KT 2 1/2SM BR OVC005 00/M01 A2968 1250 96 -200 060/05 RMK AO2
14926KSTC STC20041126180010911/26/04 18:00:31  5-MIN KSTC 270000Z AUTO 06006KT 2 1/2SM BR OVC005 00/00 A2969 1240 100 -200 050/06 RMK AO2
14926KSTC STC20041126180510911/26/04 18:05:31  5-MIN KSTC 270005Z AUTO 06007KT 2 1/2SM BR OVC005 00/00 A2969 1240 100 -200 060/07 RMK AO2
14926KSTC STC20041126181010911/26/04 18:10:31  5-MIN KSTC 270010Z AUTO 05004KT 2 1/2SM BR OVC005 00/00 A2969 1240 100 -200 050/04 RMK AO2
14926KSTC STC20041126181510511/26/04 18:15:31  5-MIN KSTC 270015Z AUTO 07005KT 2SM BR OVC005 00/00 A2969 1240 100 -200 060/05 RMK AO2
14926KSTC STC20041126182010511/26/04 18:20:31  5-MIN KSTC 270020Z AUTO 05006KT 2SM BR OVC005 00/00 A2970 1230 100 -200 050/06 RMK AO2
14926KSTC STC20041126182510911/26/04 18:25:31  5-MIN KSTC 270025Z AUTO 06005KT 1 3/4SM BR OVC005 00/00 A2970 1230 100 -200 050/05 RMK AO2
14926KSTC STC20041126183010911/26/04 18:30:31  5-MIN KSTC 270030Z AUTO 06005KT 1 3/4SM BR OVC005 00/00 A2970 1230 100 -200 060/05 RMK AO2
14926KSTC STC20041126183510911/26/04 18:35:31  5-MIN KSTC 270035Z AUTO 06005KT 1 1/2SM BR OVC005 00/00 A2970 1230 100 -200 060/05 RMK AO2
14926KSTC STC20041126184010911/26/04 18:40:31  5-MIN KSTC 270040Z AUTO 07006KT 1 1/2SM BR OVC005 00/00 A2970 1230 100 -200 070/06 RMK AO2
14926KSTC STC20041126184512111/26/04 18:45:31  5-MIN KSTC 270045Z AUTO 07004KT 1 1/4SM BR OVC005 00/00 A2970 1230 100 -200 070/04 RMK AO2 CIG 003V007
14926KSTC STC20041126185013811/26/04 18:50:31  5-MIN KSTC 270050Z AUTO 07004KT 1 1/4SM BR OVC005 00/00 A2970 1230 100 -200 060/04 RMK AO2 CIG 002V007 SLP078 T00000000
14926KSTC STC20041126185512111/26/04 18:55:31  5-MIN KSTC 270055Z AUTO 07006KT 1 1/4SM BR OVC005 00/00 A2970 1230 100 -200 060/06 RMK AO2 CIG 002V007
14926KSTC STC20041126190012111/26/04 19:00:31  5-MIN KSTC 270100Z AUTO 04005KT 1 1/4SM BR OVC005 00/00 A2970 1230 100 -200 040/05 RMK AO2 CIG 002V007
14926KSTC STC20041126190512711/26/04 19:05:31  5-MIN KSTC 270105Z AUTO 05005KT 1 1/4SM BR OVC005 00/00 A2970 1230 100 -200 050/05 RMK AO2 CIG 002V007 P0001
14926KSTC STC20041126191012711/26/04 19:10:31  5-MIN KSTC 270110Z AUTO 05005KT 1 1/2SM BR OVC005 00/00 A2970 1230 100 -200 040/05 RMK AO2 CIG 002V007 P0001
14926KSTC STC20041126191512711/26/04 19:15:31  5-MIN KSTC 270115Z AUTO 05004KT 1 1/2SM BR OVC005 00/00 A2970 1230 100 -200 050/04 RMK AO2 CIG 002V007 P0001
14926KSTC STC20041126192012711/26/04 19:20:31  5-MIN KSTC 270120Z AUTO 06005KT 1 1/2SM BR OVC005 00/00 A2970 1230 100 -200 050/05 RMK AO2 CIG 002V007 P0001
14926KSTC STC20041126192511511/26/04 19:25:31  5-MIN KSTC 270125Z AUTO 06005KT 1 1/2SM BR OVC005 00/00 A2970 1230 100 -200 060/05 RMK AO2 P0001
14926KSTC STC20041126193011511/26/04 19:30:31  5-MIN KSTC 270130Z AUTO 06006KT 1 3/4SM BR OVC005 00/00 A2970 1230 100 -200 060/06 RMK AO2 P0001
14926KSTC STC20041126193511511/26/04 19:35:31  5-MIN KSTC 270135Z AUTO 07005KT 1 3/4SM BR OVC005 00/00 A2970 1230 100 -200 060/05 RMK AO2 P0001
14926KSTC STC20041126194012711/26/04 19:40:31  5-MIN KSTC 270140Z AUTO 07005KT 1 3/4SM BR OVC005 00/00 A2970 1230 100 -200 070/05 RMK AO2 CIG 003V008 P0001
14926KSTC STC20041126194512311/26/04 19:45:31  5-MIN KSTC 270145Z AUTO 07006KT 2SM BR OVC005 00/00 A2969 1240 100 -200 070/06 RMK AO2 CIG 003V008 P0001
14926KSTC STC20041126195014011/26/04 19:50:31  5-MIN KSTC 270150Z AUTO 06005KT 2SM BR OVC005 00/00 A2970 1230 100 -200 060/05 RMK AO2 CIG 003V008 SLP077 P0001 T00000000
14926KSTC STC20041126195511711/26/04 19:55:31  5-MIN KSTC 270155Z AUTO 06005KT 2SM BR OVC005 00/00 A2970 1230 100 -200 050/05 RMK AO2 CIG 003V008
14926KSTC STC20041126200011711/26/04 20:00:31  5-MIN KSTC 270200Z AUTO 06005KT 2SM BR OVC005 00/00 A2970 1230 100 -200 060/05 RMK AO2 CIG 003V008
14926KSTC STC20041126200512111/26/04 20:05:31  5-MIN KSTC 270205Z AUTO 07004KT 2 1/2SM BR OVC005 00/00 A2970 1230 100 -200 070/04 RMK AO2 CIG 003V008
14926KSTC STC20041126201010911/26/04 20:10:31  5-MIN KSTC 270210Z AUTO 06004KT 2 1/2SM BR OVC005 00/00 A2970 1230 100 -200 060/04 RMK AO2
14926KSTC STC20041126201510911/26/04 20:15:31  5-MIN KSTC 270215Z AUTO 05003KT 2 1/2SM BR OVC005 00/00 A2971 1220 100 -200 050/03 RMK AO2
14926KSTC STC20041126202010911/26/04 20:20:31  5-MIN KSTC 270220Z AUTO 04003KT 2 1/2SM BR OVC005 00/00 A2971 1220 100 -200 040/03 RMK AO2
14926KSTC STC20041126202510911/26/04 20:25:31  5-MIN KSTC 270225Z AUTO 05004KT 2 1/2SM BR OVC005 00/00 A2971 1220 100 -200 040/04 RMK AO2
14926KSTC STC20041126203010511/26/04 20:30:31  5-MIN KSTC 270230Z AUTO 04005KT 3SM BR OVC005 00/00 A2971 1220 100 -200 040/05 RMK AO2
14926KSTC STC20041126203510511/26/04 20:35:31  5-MIN KSTC 270235Z AUTO 04004KT 3SM BR OVC005 00/00 A2971 1220 100 -200 040/04 RMK AO2
14926KSTC STC20041126204010511/26/04 20:40:31  5-MIN KSTC 270240Z AUTO 04003KT 3SM BR OVC005 00/00 A2971 1220 100 -200 040/03 RMK AO2
14926KSTC STC20041126204510511/26/04 20:45:31  5-MIN KSTC 270245Z AUTO 03004KT 3SM BR OVC005 00/00 A2971 1220 100 -200 030/04 RMK AO2
14926KSTC STC20041126205013411/26/04 20:50:31  5-MIN KSTC 270250Z AUTO 03004KT 3SM BR OVC005 00/00 A2971 1220 100 -200 020/04 RMK AO2 SLP082 60001 T00000000 53010
14926KSTC STC20041126205510511/26/04 20:55:31  5-MIN KSTC 270255Z AUTO 03004KT 3SM BR OVC005 00/00 A2971 1220 100 -200 030/04 RMK AO2
14926KSTC STC20041126210010511/26/04 21:00:31  5-MIN KSTC 270300Z AUTO 03005KT 3SM BR OVC005 00/00 A2971 1220 100 -200 020/05 RMK AO2
14926KSTC STC20041126210510511/26/04 21:05:31  5-MIN KSTC 270305Z AUTO 04004KT 3SM BR OVC005 00/00 A2971 1220 100 -200 030/04 RMK AO2
14926KSTC STC20041126211010511/26/04 21:10:31  5-MIN KSTC 270310Z AUTO 03004KT 3SM BR OVC005 00/00 A2971 1220 100 -200 030/04 RMK AO2
14926KSTC STC20041126211510511/26/04 21:15:31  5-MIN KSTC 270315Z AUTO 02004KT 3SM BR OVC005 00/00 A2971 1220 100 -200 020/04 RMK AO2
14926KSTC STC20041126212010511/26/04 21:20:31  5-MIN KSTC 270320Z AUTO 03005KT 3SM BR OVC005 00/M01 A2971 1220 96 -200 030/05 RMK AO2
14926KSTC STC20041126212510511/26/04 21:25:31  5-MIN KSTC 270325Z AUTO 03003KT 3SM BR OVC005 00/00 A2971 1220 100 -200 020/03 RMK AO2
14926KSTC STC20041126213010511/26/04 21:30:31  5-MIN KSTC 270330Z AUTO 03005KT 3SM BR OVC005 00/M01 A2971 1220 96 -200 030/05 RMK AO2
14926KSTC STC20041126213510511/26/04 21:35:31  5-MIN KSTC 270335Z AUTO 03004KT 3SM BR OVC005 00/M01 A2971 1220 96 -200 030/04 RMK AO2
14926KSTC STC20041126214010511/26/04 21:40:31  5-MIN KSTC 270340Z AUTO 03004KT 3SM BR OVC005 00/M01 A2971 1220 96 -200 020/04 RMK AO2
14926KSTC STC20041126214510511/26/04 21:45:31  5-MIN KSTC 270345Z AUTO 03004KT 3SM BR OVC005 00/M01 A2971 1220 96 -200 030/04 RMK AO2
14926KSTC STC20041126215012211/26/04 21:50:31  5-MIN KSTC 270350Z AUTO 03004KT 3SM BR OVC005 00/M01 A2971 1220 96 -200 020/04 RMK AO2 SLP081 T00001006
14926KSTC STC20041126215510511/26/04 21:55:31  5-MIN KSTC 270355Z AUTO 03004KT 3SM BR OVC005 00/M01 A2971 1220 96 -200 020/04 RMK AO2
14926KSTC STC20041126220010511/26/04 22:00:31  5-MIN KSTC 270400Z AUTO 03004KT 3SM BR OVC005 00/M01 A2971 1220 96 -200 020/04 RMK AO2
14926KSTC STC20041126220510911/26/04 22:05:31  5-MIN KSTC 270405Z AUTO 03005KT 2 1/2SM BR OVC005 00/M01 A2971 1220 96 -200 020/05 RMK AO2
14926KSTC STC20041126221010911/26/04 22:10:31  5-MIN KSTC 270410Z AUTO 03005KT 2 1/2SM BR OVC005 00/M01 A2971 1220 96 -200 020/05 RMK AO2
14926KSTC STC20041126221511111/26/04 22:15:31  5-MIN KSTC 270415Z AUTO 02004KT 2 1/2SM BR OVC005 M01/M01 A2971 1220 100 -300 020/04 RMK AO2
14926KSTC STC20041126222010511/26/04 22:20:31  5-MIN KSTC 270420Z AUTO VRB03KT 2SM BR OVC005 00/M01 A2971 1220 96 -200 VRB/03 RMK AO2
14926KSTC STC20041126222510511/26/04 22:25:31  5-MIN KSTC 270425Z AUTO 02005KT 2SM BR OVC005 00/M01 A2971 1220 96 -200 020/05 RMK AO2
14926KSTC STC20041126223010511/26/04 22:30:31  5-MIN KSTC 270430Z AUTO 02004KT 2SM BR OVC005 00/M01 A2971 1220 96 -200 020/04 RMK AO2
14926KSTC STC20041126223510711/26/04 22:35:31  5-MIN KSTC 270435Z AUTO 02005KT 2SM BR OVC005 M01/M01 A2971 1220 100 -300 020/05 RMK AO2
14926KSTC STC20041126224010511/26/04 22:40:31  5-MIN KSTC 270440Z AUTO 02005KT 2SM BR OVC005 00/M01 A2971 1230 96 -200 010/05 RMK AO2
14926KSTC STC20041126224510911/26/04 22:45:31  5-MIN KSTC 270445Z AUTO 01005KT 1 3/4SM BR OVC005 00/M01 A2970 1230 96 -200 010/05 RMK AO2
14926KSTC STC20041126225012611/26/04 22:50:31  5-MIN KSTC 270450Z AUTO 01004KT 1 3/4SM BR OVC005 00/M01 A2970 1230 96 -200 010/04 RMK AO2 SLP078 T00001006
14926KSTC STC20041126225511111/26/04 22:55:31  5-MIN KSTC 270455Z AUTO 01004KT 1 3/4SM BR OVC005 M01/M01 A2970 1230 100 -300 010/04 RMK AO2
14926KSTC STC20041126230010711/26/04 23:00:31  5-MIN KSTC 270500Z AUTO 02005KT 2SM BR OVC005 M01/M01 A2970 1230 100 -300 010/05 RMK AO2
14926KSTC STC20041126230510711/26/04 23:05:31  5-MIN KSTC 270505Z AUTO 01006KT 2SM BR OVC005 M01/M01 A2970 1230 100 -300 010/06 RMK AO2
14926KSTC STC20041126231011911/26/04 23:10:31  5-MIN KSTC 270510Z AUTO 02005KT 2SM BR OVC005 M01/M01 A2970 1230 100 -300 010/05 RMK AO2 CIG 003V007
14926KSTC STC20041126231511911/26/04 23:15:31  5-MIN KSTC 270515Z AUTO 02004KT 2SM BR OVC005 M01/M01 A2970 1230 100 -300 020/04 RMK AO2 CIG 003V007
14926KSTC STC20041126232010711/26/04 23:20:31  5-MIN KSTC 270520Z AUTO 03004KT 2SM BR OVC005 M01/M01 A2970 1230 100 -300 030/04 RMK AO2
14926KSTC STC20041126232511711/26/04 23:25:31  5-MIN KSTC 270525Z AUTO 02003KT 2SM BR OVC005 00/M01 A2970 1230 96 -200 020/03 RMK AO2 CIG 003V007
14926KSTC STC20041126233012111/26/04 23:30:31  5-MIN KSTC 270530Z AUTO 01005KT 2 1/2SM BR OVC005 00/M01 A2970 1230 96 -200 010/05 RMK AO2 CIG 003V007
14926KSTC STC20041126233512111/26/04 23:35:31  5-MIN KSTC 270535Z AUTO 01003KT 2 1/2SM BR OVC005 00/M01 A2970 1230 96 -200 360/03 RMK AO2 CIG 003V007
14926KSTC STC20041126234012111/26/04 23:40:31  5-MIN KSTC 270540Z AUTO 01003KT 2 1/2SM BR OVC005 00/M01 A2970 1230 96 -200 360/03 RMK AO2 CIG 003V007
14926KSTC STC20041126234512111/26/04 23:45:31  5-MIN KSTC 270545Z AUTO 01004KT 2 1/2SM BR OVC005 00/M01 A2970 1230 96 -200 360/04 RMK AO2 CIG 003V007
14926KSTC STC20041126235016011/26/04 23:50:31  5-MIN KSTC 270550Z AUTO 01005KT 2 1/2SM BR OVC005 00/M01 A2970 1230 96 -200 010/05 RMK AO2 SLP078 60001 T00001006 10000 21006 400061039 51010
14926KSTC STC20041126235511711/26/04 23:55:31  5-MIN KSTC 270555Z AUTO 02005KT 3SM BR OVC005 00/M01 A2970 1230 96 -200 010/05 RMK AO2 CIG 003V010
14926KSTC STC20041127000010511/27/04 00:00:32  5-MIN KSTC 270600Z AUTO 01004KT 3SM BR OVC005 00/M01 A2970 1230 96 -200 010/04 RMK AO2
14926KSTC STC20041127000510511/27/04 00:05:31  5-MIN KSTC 270605Z AUTO 01005KT 3SM BR OVC005 00/M01 A2970 1230 96 -200 360/05 RMK AO2
14926KSTC STC20041127001010511/27/04 00:10:31  5-MIN KSTC 270610Z AUTO 01004KT 3SM BR OVC005 00/M01 A2970 1230 96 -200 010/04 RMK AO2
14926KSTC STC20041127001510711/27/04 00:15:31  5-MIN KSTC 270615Z AUTO 36005KT 3SM BR OVC005 M01/M01 A2970 1230 100 -300 360/05 RMK AO2
14926KSTC STC20041127002010711/27/04 00:20:31  5-MIN KSTC 270620Z AUTO 36005KT 3SM BR OVC005 M01/M01 A2970 1230 100 -300 360/05 RMK AO2
14926KSTC STC20041127002510711/27/04 00:25:31  5-MIN KSTC 270625Z AUTO 35005KT 3SM BR OVC007 M01/M01 A2971 1230 100 -300 350/05 RMK AO2
14926KSTC STC20041127003010711/27/04 00:30:31  5-MIN KSTC 270630Z AUTO 35005KT 3SM BR OVC007 M01/M01 A2970 1230 100 -300 350/05 RMK AO2
14926KSTC STC20041127003510711/27/04 00:35:31  5-MIN KSTC 270635Z AUTO 35006KT 3SM BR OVC007 M01/M01 A2970 1230 100 -300 350/06 RMK AO2
14926KSTC STC20041127004010711/27/04 00:40:31  5-MIN KSTC 270640Z AUTO 35006KT 3SM BR OVC007 M01/M01 A2970 1230 100 -300 350/06 RMK AO2
14926KSTC STC20041127004510711/27/04 00:45:31  5-MIN KSTC 270645Z AUTO 36004KT 3SM BR OVC007 M01/M01 A2970 1230 100 -300 350/04 RMK AO2
14926KSTC STC20041127005012411/27/04 00:50:31  5-MIN KSTC 270650Z AUTO 36006KT 3SM BR OVC007 M01/M01 A2970 1230 100 -300 350/06 RMK AO2 SLP079 T10061006
14926KSTC STC20041127005510711/27/04 00:55:31  5-MIN KSTC 270655Z AUTO 35005KT 3SM BR OVC007 M01/M01 A2970 1230 100 -300 350/05 RMK AO2
14926KSTC STC20041127010010711/27/04 01:00:31  5-MIN KSTC 270700Z AUTO 35006KT 3SM BR OVC007 M01/M01 A2970 1230 100 -300 350/06 RMK AO2
14926KSTC STC20041127010510711/27/04 01:05:31  5-MIN KSTC 270705Z AUTO 35004KT 3SM BR OVC007 M01/M01 A2970 1230 100 -300 350/04 RMK AO2
14926KSTC STC20041127011010711/27/04 01:10:31  5-MIN KSTC 270710Z AUTO 35005KT 3SM BR OVC007 M01/M01 A2970 1230 100 -300 350/05 RMK AO2
14926KSTC STC20041127011510711/27/04 01:15:31  5-MIN KSTC 270715Z AUTO 34006KT 3SM BR OVC007 M01/M01 A2970 1230 100 -300 340/06 RMK AO2
14926KSTC STC20041127012010711/27/04 01:20:31  5-MIN KSTC 270720Z AUTO 35006KT 3SM BR OVC007 M01/M01 A2970 1230 100 -300 340/06 RMK AO2
14926KSTC STC20041127012510711/27/04 01:25:31  5-MIN KSTC 270725Z AUTO 36006KT 3SM BR OVC007 M01/M01 A2970 1230 100 -300 350/06 RMK AO2
14926KSTC STC20041127013010711/27/04 01:30:31  5-MIN KSTC 270730Z AUTO 35006KT 3SM BR OVC007 M01/M01 A2970 1230 100 -300 350/06 RMK AO2
14926KSTC STC20041127013510711/27/04 01:35:31  5-MIN KSTC 270735Z AUTO 36007KT 3SM BR OVC007 M01/M01 A2970 1230 100 -300 350/07 RMK AO2
14926KSTC STC20041127014010711/27/04 01:40:31  5-MIN KSTC 270740Z AUTO 36006KT 3SM BR OVC007 M01/M01 A2970 1230 100 -300 350/06 RMK AO2
14926KSTC STC20041127014511411/27/04 01:45:31  5-MIN KSTC 270745Z AUTO 36005KT 3SM BR BKN007 OVC011 M01/M01 A2970 1230 100 -300 360/05 RMK AO2
14926KSTC STC20041127015013111/27/04 01:50:31  5-MIN KSTC 270750Z AUTO 36006KT 4SM BR BKN007 OVC011 M01/M01 A2970 1230 100 -300 360/06 RMK AO2 SLP076 T10061006
14926KSTC STC20041127015511911/27/04 01:55:31  5-MIN KSTC 270755Z AUTO 36005KT 4SM BR OVC007 M01/M01 A2970 1230 100 -300 350/05 RMK AO2 CIG 005V012
14926KSTC STC20041127020012611/27/04 02:00:31  5-MIN KSTC 270800Z AUTO 35005KT 4SM BR BKN007 OVC011 M01/M01 A2970 1230 100 -300 350/05 RMK AO2 CIG 006V009
14926KSTC STC20041127020511911/27/04 02:05:31  5-MIN KSTC 270805Z AUTO 35006KT 4SM BR OVC007 M01/M01 A2970 1230 100 -300 350/06 RMK AO2 CIG 006V012
14926KSTC STC20041127021011911/27/04 02:10:31  5-MIN KSTC 270810Z AUTO 35006KT 4SM BR OVC007 M01/M01 A2970 1230 100 -300 350/06 RMK AO2 CIG 006V012
14926KSTC STC20041127021511911/27/04 02:15:31  5-MIN KSTC 270815Z AUTO 35006KT 4SM BR OVC007 M01/M01 A2970 1230 100 -300 340/06 RMK AO2 CIG 006V011
14926KSTC STC20041127022011911/27/04 02:20:31  5-MIN KSTC 270820Z AUTO 35005KT 4SM BR OVC007 M01/M01 A2970 1230 100 -300 350/05 RMK AO2 CIG 005V010
14926KSTC STC20041127022512611/27/04 02:25:31  5-MIN KSTC 270825Z AUTO 35005KT 4SM BR BKN005 OVC009 M01/M01 A2969 1240 100 -300 350/05 RMK AO2 CIG 004V008
14926KSTC STC20041127023012611/27/04 02:30:31  5-MIN KSTC 270830Z AUTO 36004KT 3SM BR BKN005 OVC009 M01/M01 A2969 1240 100 -300 350/04 RMK AO2 CIG 004V008
14926KSTC STC20041127023511411/27/04 02:35:31  5-MIN KSTC 270835Z AUTO 35006KT 3SM BR BKN005 OVC009 M01/M01 A2969 1240 100 -300 350/06 RMK AO2
14926KSTC STC20041127024011111/27/04 02:40:31  5-MIN KSTC 270840Z AUTO 35007KT 2 1/2SM BR OVC005 M01/M01 A2969 1240 100 -300 350/07 RMK AO2
14926KSTC STC20041127024511111/27/04 02:45:31  5-MIN KSTC 270845Z AUTO 35006KT 2 1/2SM BR OVC005 M01/M01 A2969 1240 100 -300 350/06 RMK AO2
14926KSTC STC20041127025013411/27/04 02:50:31  5-MIN KSTC 270850Z AUTO 35006KT 2 1/2SM BR OVC005 M01/M01 A2969 1240 100 -300 350/06 RMK AO2 SLP075 T10061006 56004
14926KSTC STC20041127025510911/27/04 02:55:31  5-MIN KSTC 270855Z AUTO 35007KT 2 1/2SM BR OVC005 00/M01 A2969 1240 96 -200 350/07 RMK AO2
14926KSTC STC20041127030010911/27/04 03:00:31  5-MIN KSTC 270900Z AUTO 35006KT 2 1/2SM BR OVC005 00/M01 A2969 1240 96 -200 350/06 RMK AO2
14926KSTC STC20041127030510911/27/04 03:05:31  5-MIN KSTC 270905Z AUTO 34007KT 2 1/2SM BR OVC005 00/M01 A2969 1240 96 -200 340/07 RMK AO2
14926KSTC STC20041127031010511/27/04 03:10:31  5-MIN KSTC 270910Z AUTO 35007KT 3SM BR OVC005 00/M01 A2969 1240 96 -200 350/07 RMK AO2
14926KSTC STC20041127031510511/27/04 03:15:31  5-MIN KSTC 270915Z AUTO 35009KT 3SM BR OVC005 00/M01 A2969 1240 96 -200 340/09 RMK AO2
14926KSTC STC20041127032010511/27/04 03:20:31  5-MIN KSTC 270920Z AUTO 35008KT 3SM BR OVC005 00/M01 A2969 1240 96 -200 350/08 RMK AO2
14926KSTC STC20041127032510511/27/04 03:25:31  5-MIN KSTC 270925Z AUTO 35009KT 3SM BR OVC005 00/M01 A2969 1240 96 -200 340/09 RMK AO2
14926KSTC STC20041127033011711/27/04 03:30:31  5-MIN KSTC 270930Z AUTO 35008KT 4SM BR OVC005 00/M01 A2969 1240 96 -200 340/08 RMK AO2 CIG 004V008
14926KSTC STC20041127033510511/27/04 03:35:31  5-MIN KSTC 270935Z AUTO 35008KT 4SM BR OVC005 00/M01 A2969 1240 96 -200 340/08 RMK AO2
14926KSTC STC20041127034010711/27/04 03:40:31  5-MIN KSTC 270940Z AUTO 35008KT 4SM BR OVC005 M01/M01 A2969 1240 100 -300 340/08 RMK AO2
14926KSTC STC20041127034510711/27/04 03:45:31  5-MIN KSTC 270945Z AUTO 35009KT 4SM BR OVC007 M01/M01 A2969 1240 100 -300 340/09 RMK AO2
14926KSTC STC20041127035012411/27/04 03:50:31  5-MIN KSTC 270950Z AUTO 35008KT 4SM BR OVC007 M01/M01 A2969 1240 100 -300 340/08 RMK AO2 SLP073 T10061006
14926KSTC STC20041127035510711/27/04 03:55:31  5-MIN KSTC 270955Z AUTO 35009KT 4SM BR OVC007 M01/M01 A2969 1240 100 -300 340/09 RMK AO2
14926KSTC STC20041127040010711/27/04 04:00:31  5-MIN KSTC 271000Z AUTO 35008KT 4SM BR OVC007 M01/M01 A2969 1240 100 -300 350/08 RMK AO2
14926KSTC STC20041127040510711/27/04 04:05:31  5-MIN KSTC 271005Z AUTO 35008KT 3SM BR OVC007 M01/M01 A2969 1240 100 -300 340/08 RMK AO2
14926KSTC STC20041127041010711/27/04 04:10:31  5-MIN KSTC 271010Z AUTO 35009KT 3SM BR OVC007 M01/M01 A2968 1240 100 -300 350/09 RMK AO2
14926KSTC STC20041127041510711/27/04 04:15:31  5-MIN KSTC 271015Z AUTO 35008KT 3SM BR OVC007 M01/M01 A2968 1250 100 -300 350/08 RMK AO2
14926KSTC STC20041127042010711/27/04 04:20:31  5-MIN KSTC 271020Z AUTO 35008KT 4SM BR OVC007 M01/M01 A2968 1250 100 -300 350/08 RMK AO2
14926KSTC STC20041127042510711/27/04 04:25:31  5-MIN KSTC 271025Z AUTO 35009KT 4SM BR OVC007 M01/M01 A2968 1250 100 -300 350/09 RMK AO2
14926KSTC STC20041127043010711/27/04 04:30:31  5-MIN KSTC 271030Z AUTO 35009KT 4SM BR OVC007 M01/M01 A2968 1250 100 -300 350/09 RMK AO2
14926KSTC STC20041127043509111/27/04 04:35:31  5-MIN KSTC 271035Z AUR OVC007 M01/M01 A2968 1250 100 -300 350/07 RMK AO2
14926KSTC STC20041127044010711/27/04 04:40:31  5-MIN KSTC 271040Z AUTO 36007KT 3SM BR OVC007 M01/M01 A2968 1250 100 -300 350/07 RMK AO2
14926KSTC STC20041127044507711/27/04 04:45:31  5-MIN KSTC 271045Z AUTO 35007KT 3SM BR OVC007 M01/M01 O2O2
14926KSTC STC20041127050010711/27/04 05:00:31  5-MIN KSTC 271100Z AUTO 36008KT 3SM BR OVC007 M01/M01 A2969 1240 100 -300 350/08 RMK AO2
14926KSTC STC20041127050520811/27/04 05:05:31  5-MIN KSTC 271105Z AUTO 36008KT 3SM BR OVC007 M01/M01 A2968 1250 100 -300 360/08 RMK AO2 11/27/04 05:10:3TO 36009KT 4SM BR OVC007 M01/M01 A2968 1250 100 -300 360/09 RMK AO2 11/27/04 05:15:3
14926KSTC STC20041127054010511/27/04 05:40:31  5-MIN KSTC 271140Z AUTO 36007KT 5SM BR OVC007 00/M01 A2968 1250 96 -200 360/07 RMK AO2
14926KSTC STC20041127054510511/27/04 05:45:31  5-MIN KSTC 271145Z AUTO 36008KT 5SM BR OVC007 00/M01 A2968 1250 96 -200 350/08 RMK AO2
14926KSTC STC20041127055004211/27/04 05:50:31  5-MIN 00 340/08 RMK AO2
14926KSTC STC20041127061010511/27/04 06:10:31  5-MIN KSTC 271210Z AUTO 35009KT 5SM BR OVC007 00/M01 A2969 1240 96 -200 350/09 RMK AO2
14926KSTC STC20041127061510511/27/04 06:15:31  5-MIN KSTC 271215Z AUTO 35007KT 5SM BR OVC007 00/M01 A2969 1240 96 -200 340/07 RMK AO2
14926KSTC STC20041127064010511/27/04 06:40:31  5-MIN KSTC 271240Z AUTO 34009KT 5SM BR OVC009 00/M01 A2969 1240 96 -200 340/09 RMK AO2
14926KSTC STC20041127064502411/27/04 06:45:31  5-MIN
14926KSTC STC20041127070012311/27/04 07:00:31  5-MIN KSTC 271300Z AUTO 34008KT 4SM -SN BR OVC009 00/M01 A2969 1240 92 -200 340/08 RMK AO2 SNB1256 P0000
14926KSTC STC20041127070507511/27/04 07:05:31  5-MIN KSTC 271305Z AUTO 34008KT 4SM -SN BR OVC009 00/M01
14926KSTC STC20041127073007511/27/04 07:30:31  5-MIN KSTC 271330Z AUTO 34008KT 4SM -SN BR OVC011 00/M01
14926KSTC STC20041127075513911/27/04 07:55:31  5-MIN KSTC 271355Z AUTO 34009KT 2 1/2SM -SN BR OVC011 00/M01 A2970 1230 96 -200 96 -200 330/09 RMK AO2 CIG 007V012 P0000
14926KSTC STC20041127081513111/27/04 08:15:31  5-MIN KSTC 271415Z AUTO 34009KT 1 1/2SM -SN BR OVC011 00/M01 A2970 1230 96 -200 330/09 RMK AO2 CIG 007V012 P0000
14926KSTC STC20041127082010611/27/04 08:20:31  5-MIN KSTC 271420Z AUTO 33008KT 1 1/2SM -SN B0 96 -200 330/10 RMK AO2 CIG 007V012 P0000
14926KSTC STC20041127084011911/27/04 08:40:31  5-MIN KSTC 271440Z AUTO 34009KT 1 1/4SM -SN BR OVC011 00/M01 A2970 1230 96 -200 330/09 RMK AO2 P0000
14926KSTC STC20041127084514711/27/04 08:45:31  5-MIN KSTC 271445Z AUTO 34008KT 1SM -SN BR OVC011 00/M01SN BR OVC011 00/M01  A2970 1230 96 -200 340/09 RMK AO2 CIG 007V013 P0000
14926KSTC STC20041127090512711/27/04 09:05:31  5-MIN KSTC 271505Z AUTO 34011KT 1SM -SN BR OVC011 00/M01 A2970 1230 96 -200 330/11 RMK AO2 CIG 007V013 P0001
14926KSTC STC20041127091003511/27/04 09:10:31  5-MIN KSTC 27014
14926KSTC STC20041127091513411/27/04 09:15:31  5-MIN KSTC 271515Z AUTO 33011KT 1SM -SN BR BKN009 OVC014 00/M01 A2970 1230 96 -200 330/11 RMK AO2 CIG 007V012 P0001
14926KSTC STC20041127092011911/27/04 09:20:31  5-MIN KSTC 271520Z AUTO 34010KT 1 1/4SM -SN BR OVC011 00/M01 A2970 1230 96 -200 340/10 RMK AO2 P0001
14926KSTC STC20041127092511911/27/04 09:25:31  5-MIN KSTC 271525Z AUTO 34012KT 1 1/4SM -SN BR OVC011 00/M01 A2970 1230 96 -200 330/12 RMK AO2 P0001
14926KSTC STC20041127093012611/27/04 09:30:31  5-MIN KSTC 271530Z AUTO 34010KT 1 1/4SM -SN BR BKN009 OVC014 00/M01 A2969 1240 96 -200 330/10 RMK AO2 P0001
14926KSTC STC20041127093511911/27/04 09:35:31  5-MIN KSTC 271535Z AUTO 34011KT 1 1/4SM -SN BR OVC009 00/M01 A2970 1240 96 -200 340/11 RMK AO2 P0001
14926KSTC STC20041127094011911/27/04 09:40:31  5-MIN KSTC 271540Z AUTO 34011KT 1 1/4SM -SN BR OVC009 00/M01 A2970 1230 96 -200 340/11 RMK AO2 P0001
14926KSTC STC20041127094511511/27/04 09:45:31  5-MIN KSTC 271545Z AUTO 34012KT 1SM -SN BR OVC009 00/M01 A2970 1230 96 -200 340/12 RMK AO2 P0001
14926KSTC STC20041127095013611/27/04 09:50:31  5-MIN KSTC 271550Z AUTO 34011KT 1 1/4SM -SN BR OVC009 00/M01 A2970 1230 96 -200 340/11 RMK AO2 SLP077 P0001 T00001006
14926KSTC STC20041127095511911/27/04 09:55:31  5-MIN KSTC 271555Z AUTO 34010KT 1 1/4SM -SN BR OVC009 00/M01 A2970 1230 96 -200 340/10 RMK AO2 P0000
14926KSTC STC20041127100012511/27/04 10:00:31  5-MIN KSTC 271600Z AUTO 34012G17KT 1 1/2SM -SN BR OVC009 00/M01 A2970 1230 96 -200 340/12G17 RMK AO2 P0000
14926KSTC STC20041127100511911/27/04 10:05:31  5-MIN KSTC 271605Z AUTO 34012KT 1 1/2SM -SN BR OVC009 00/M01 A2970 1230 96 -200 340/12 RMK AO2 P0000
14926KSTC STC20041127101012611/27/04 10:10:31  5-MIN KSTC 271610Z AUTO 34009KT 1 3/4SM -SN BR BKN009 OVC013 00/M01 A2970 1230 96 -200 340/09 RMK AO2 P0000
14926KSTC STC20041127101512611/27/04 10:15:31  5-MIN KSTC 271615Z AUTO 34010KT 1 3/4SM -SN BR BKN009 OVC013 00/M01 A2970 1230 96 -200 340/10 RMK AO2 P0000
14926KSTC STC20041127102012511/27/04 10:20:31  5-MIN KSTC 271620Z AUTO 34012G18KT 1 3/4SM -SN BR OVC009 00/M01 A2971 1230 96 -200 340/12G18 RMK AO2 P0000
14926KSTC STC20041127102512511/27/04 10:25:31  5-MIN KSTC 271625Z AUTO 34012G18KT 1 3/4SM -SN BR OVC011 00/M01 A2971 1220 96 -200 340/12G18 RMK AO2 P0000
14926KSTC STC20041127103012611/27/04 10:30:31  5-MIN KSTC 271630Z AUTO 34011KT 1 1/2SM -SN BR BKN009 OVC013 00/M01 A2971 1230 96 -200 340/11 RMK AO2 P0000
14926KSTC STC20041127103511911/27/04 10:35:31  5-MIN KSTC 271635Z AUTO 34011KT 1 1/2SM -SN BR OVC011 00/M01 A2971 1220 96 -200 340/11 RMK AO2 P0000
14926KSTC STC20041127104011911/27/04 10:40:31  5-MIN KSTC 271640Z AUTO 34012KT 1 1/4SM -SN BR OVC011 00/M01 A2971 1230 96 -200 330/12 RMK AO2 P0000
14926KSTC STC20041127104512511/27/04 10:45:31  5-MIN KSTC 271645Z AUTO 34014G18KT 1 1/4SM -SN BR OVC011 00/M01 A2970 1230 96 -200 340/14G18 RMK AO2 P0000
14926KSTC STC20041127105014211/27/04 10:50:31  5-MIN KSTC 271650Z AUTO 34013G18KT 1 1/4SM -SN BR OVC011 00/M01 A2970 1230 96 -200 340/13G18 RMK AO2 SLP079 P0000 T00001006
14926KSTC STC20041127105512511/27/04 10:55:31  5-MIN KSTC 271655Z AUTO 34013G18KT 1 1/2SM -SN BR OVC011 00/M01 A2970 1230 96 -200 330/13G18 RMK AO2 P0000
14926KSTC STC20041127110011911/27/04 11:00:31  5-MIN KSTC 271700Z AUTO 34012KT 1 3/4SM -SN BR OVC011 00/M01 A2970 1230 96 -200 340/12 RMK AO2 P0000
14926KSTC STC20041127110512611/27/04 11:05:31  5-MIN KSTC 271705Z AUTO 34012KT 1 3/4SM -SN BR BKN011 OVC016 00/M01 A2970 1230 96 -200 340/12 RMK AO2 P0000
14926KSTC STC20041127111011911/27/04 11:10:31  5-MIN KSTC 271710Z AUTO 34013KT 1 1/2SM -SN BR OVC013 00/M01 A2970 1230 96 -200 330/13 RMK AO2 P0000
14926KSTC STC20041127111511911/27/04 11:15:31  5-MIN KSTC 271715Z AUTO 34013KT 1 1/4SM -SN BR OVC013 00/M01 A2970 1230 96 -200 330/13 RMK AO2 P0000
14926KSTC STC20041127112011511/27/04 11:20:31  5-MIN KSTC 271720Z AUTO 34013KT 1SM -SN BR OVC013 00/M01 A2970 1230 96 -200 330/13 RMK AO2 P0000
14926KSTC STC20041127112512511/27/04 11:25:31  5-MIN KSTC 271725Z AUTO 34012G18KT 1 1/4SM -SN BR OVC013 00/M01 A2969 1240 96 -200 330/12G18 RMK AO2 P0000
14926KSTC STC20041127113012611/27/04 11:30:31  5-MIN KSTC 271730Z AUTO 33012KT 1 1/4SM -SN BR SCT009 OVC015 00/M01 A2969 1240 96 -200 330/12 RMK AO2 P0000
14926KSTC STC20041127113512511/27/04 11:35:31  5-MIN KSTC 271735Z AUTO 33012G18KT 1 1/4SM -SN BR OVC012 00/M01 A2969 1240 96 -200 330/12G18 RMK AO2 P0000
14926KSTC STC20041127114012511/27/04 11:40:31  5-MIN KSTC 271740Z AUTO 33013G17KT 1 1/4SM -SN BR OVC012 00/M01 A2969 1240 96 -200 330/13G17 RMK AO2 P0000
14926KSTC STC20041127114512611/27/04 11:45:31  5-MIN KSTC 271745Z AUTO 34013KT 1 1/2SM -SN BR SCT010 OVC015 00/M01 A2969 1240 96 -200 340/13 RMK AO2 P0000
14926KSTC STC20041127115016711/27/04 11:50:31  5-MIN KSTC 271750Z AUTO 34014KT 1 1/2SM -SN BR BKN010 OVC015 00/M01 A2969 1240 96 -200 330/14 RMK AO2 SLP074 P0000 60001 T00001006 10000 21006 51006
14926KSTC STC20041127115511911/27/04 11:55:31  5-MIN KSTC 271755Z AUTO 33011KT 1 3/4SM -SN BR OVC012 00/M01 A2969 1240 96 -200 330/11 RMK AO2 P0000
14926KSTC STC20041127120012111/27/04 12:00:31  5-MIN KSTC 271800Z AUTO 34014G19KT 2SM -SN BR OVC012 00/M01 A2969 1240 96 -200 330/14G19 RMK AO2 P0000
14926KSTC STC20041127120512511/27/04 12:05:31  5-MIN KSTC 271805Z AUTO 34012G19KT 2 1/2SM -SN BR OVC012 00/M01 A2969 1240 96 -200 340/12G19 RMK AO2 P0000
14926KSTC STC20041127121012111/27/04 12:10:31  5-MIN KSTC 271810Z AUTO 34011G18KT 3SM -SN BR OVC012 00/M01 A2969 1240 96 -200 340/11G18 RMK AO2 P0000
14926KSTC STC20041127121512111/27/04 12:15:31  5-MIN KSTC 271815Z AUTO 34014G20KT 3SM -SN BR OVC012 00/M01 A2969 1240 96 -200 330/14G20 RMK AO2 P0000
14926KSTC STC20041127122012111/27/04 12:20:31  5-MIN KSTC 271820Z AUTO 33013G20KT 3SM -SN BR OVC012 00/M01 A2969 1240 96 -200 330/13G20 RMK AO2 P0000
14926KSTC STC20041127122512111/27/04 12:25:31  5-MIN KSTC 271825Z AUTO 34014G20KT 3SM -SN BR OVC014 00/M01 A2969 1240 92 -200 340/14G20 RMK AO2 P0000
14926KSTC STC20041127123012111/27/04 12:30:31  5-MIN KSTC 271830Z AUTO 34014G21KT 3SM -SN BR OVC014 00/M01 A2969 1240 92 -200 340/14G21 RMK AO2 P0000
14926KSTC STC20041127123512311/27/04 12:35:31  5-MIN KSTC 271835Z AUTO 34011G21KT 4SM BR OVC014 00/M01 A2969 1240 96 -200 330/11G21 RMK AO2 SNE31 P0000
14926KSTC STC20041127124011711/27/04 12:40:31  5-MIN KSTC 271840Z AUTO 34014KT 5SM BR OVC014 00/M01 A2969 1240 96 -200 330/14 RMK AO2 SNE31 P0000
14926KSTC STC20041127124511711/27/04 12:45:31  5-MIN KSTC 271845Z AUTO 33012KT 5SM BR OVC014 00/M01 A2969 1240 96 -200 330/12 RMK AO2 SNE31 P0000
14926KSTC STC20041127125013111/27/04 12:50:31  5-MIN KSTC 271850Z AUTO 33010KT 7SM OVC014 01/M01 A2969 1240 92 -100 330/10 RMK AO2 SNE31 SLP074 P0000 T00061006
14926KSTC STC20041127125510211/27/04 12:55:31  5-MIN KSTC 271855Z AUTO 33010KT 7SM OVC014 01/M01 A2969 1240 92 -100 330/10 RMK AO2
14926KSTC STC20041127130010211/27/04 13:00:31  5-MIN KSTC 271900Z AUTO 33010KT 8SM OVC014 01/M01 A2969 1240 92 -100 320/10 RMK AO2
14926KSTC STC20041127130510811/27/04 13:05:31  5-MIN KSTC 271905Z AUTO 33014G19KT 8SM OVC014 01/M01 A2969 1240 92 -100 320/14G19 RMK AO2
14926KSTC STC20041127131010811/27/04 13:10:31  5-MIN KSTC 271910Z AUTO 33012G19KT 8SM OVC014 01/M01 A2969 1240 89 -100 330/12G19 RMK AO2
14926KSTC STC20041127131510811/27/04 13:15:31  5-MIN KSTC 271915Z AUTO 33014G19KT 9SM OVC016 01/M01 A2969 1240 89 -100 320/14G19 RMK AO2
14926KSTC STC20041127132010811/27/04 13:20:31  5-MIN KSTC 271920Z AUTO 33015G19KT 9SM OVC016 01/M01 A2969 1240 89 -100 330/15G19 RMK AO2
14926KSTC STC20041127132510811/27/04 13:25:31  5-MIN KSTC 271925Z AUTO 33011G17KT 9SM OVC016 01/M01 A2969 1240 89 -100 330/11G17 RMK AO2
14926KSTC STC20041127133010211/27/04 13:30:31  5-MIN KSTC 271930Z AUTO 33011KT 9SM BKN016 01/M01 A2969 1240 89 -100 330/11 RMK AO2
14926KSTC STC20041127133510811/27/04 13:35:31  5-MIN KSTC 271935Z AUTO 33014G20KT 9SM BKN016 01/M01 A2969 1240 89 -100 330/14G20 RMK AO2
14926KSTC STC20041127134010911/27/04 13:40:31  5-MIN KSTC 271940Z AUTO 33013G20KT 10SM BKN016 01/M01 A2969 1240 89 -100 330/13G20 RMK AO2
14926KSTC STC20041127134510911/27/04 13:45:31  5-MIN KSTC 271945Z AUTO 33011G20KT 10SM BKN018 01/M01 A2969 1240 89 -100 330/11G20 RMK AO2
14926KSTC STC20041127135012611/27/04 13:50:31  5-MIN KSTC 271950Z AUTO 33016G20KT 10SM BKN018 01/M02 A2969 1240 85 -100 330/16G20 RMK AO2 SLP074 T00061017
14926KSTC STC20041127135510911/27/04 13:55:31  5-MIN KSTC 271955Z AUTO 34012G19KT 10SM BKN018 01/M02 A2969 1240 82 -100 330/12G19 RMK AO2
14926KSTC STC20041127140010911/27/04 14:00:31  5-MIN KSTC 272000Z AUTO 34013G20KT 10SM SCT018 01/M02 A2969 1240 82 -100 330/13G20 RMK AO2
14926KSTC STC20041127140510911/27/04 14:05:31  5-MIN KSTC 272005Z AUTO 34011G20KT 10SM SCT018 01/M02 A2969 1240 78 -100 340/11G20 RMK AO2
14926KSTC STC20041127141011611/27/04 14:10:31  5-MIN KSTC 272010Z AUTO 34014G19KT 10SM FEW018 SCT080 01/M02 A2969 1240 78 -100 340/14G19 RMK AO2
14926KSTC STC20041127141511611/27/04 14:15:31  5-MIN KSTC 272015Z AUTO 34016G22KT 10SM FEW020 SCT075 01/M03 A2970 1230 75 -100 340/16G22 RMK AO2
14926KSTC STC20041127142010911/27/04 14:20:31  5-MIN KSTC 272020Z AUTO 34015G22KT 10SM BKN075 01/M03 A2970 1230 75 -100 330/15G22 RMK AO2
14926KSTC STC20041127142511611/27/04 14:25:31  5-MIN KSTC 272025Z AUTO 34016G22KT 10SM FEW065 BKN080 01/M03 A2970 1230 75 -100 340/16G22 RMK AO2
14926KSTC STC20041127143011611/27/04 14:30:31  5-MIN KSTC 272030Z AUTO 34014G21KT 10SM FEW065 BKN080 01/M03 A2970 1230 75 -100 330/14G21 RMK AO2
14926KSTC STC20041127143511611/27/04 14:35:31  5-MIN KSTC 272035Z AUTO 34014G19KT 10SM FEW070 BKN085 01/M03 A2970 1230 75 -100 330/14G19 RMK AO2
14926KSTC STC20041127144011611/27/04 14:40:31  5-MIN KSTC 272040Z AUTO 34014G20KT 10SM FEW070 OVC090 01/M03 A2970 1230 75 -100 330/14G20 RMK AO2
14926KSTC STC20041127144511611/27/04 14:45:31  5-MIN KSTC 272045Z AUTO 34014G20KT 10SM FEW070 OVC090 01/M03 A2970 1230 75 -100 330/14G20 RMK AO2
14926KSTC STC20041127145013511/27/04 14:50:31  5-MIN KSTC 272050Z AUTO 34014G20KT 10SM OVC090 02/M03 A2970 1230 72 0 330/14G20 RMK AO2 SLP077 60000 T00171028 58004
14926KSTC STC20041127145510611/27/04 14:55:31  5-MIN KSTC 272055Z AUTO 33014G22KT 10SM BKN095 02/M03 A2970 1230 72 0 330/14G22 RMK AO2
14926KSTC STC20041127150010611/27/04 15:00:31  5-MIN KSTC 272100Z AUTO 34019G25KT 10SM BKN100 02/M03 A2970 1230 69 0 340/19G25 RMK AO2
14926KSTC STC20041127150510611/27/04 15:05:31  5-MIN KSTC 272105Z AUTO 34018G25KT 10SM BKN100 02/M03 A2970 1230 69 0 340/18G25 RMK AO2
14926KSTC STC20041127151010611/27/04 15:10:31  5-MIN KSTC 272110Z AUTO 34014G23KT 10SM BKN100 02/M04 A2971 1220 66 0 340/14G23 RMK AO2
14926KSTC STC20041127151510011/27/04 15:15:31  5-MIN KSTC 272115Z AUTO 34015KT 10SM BKN100 02/M03 A2971 1220 67 0 340/15 RMK AO2
14926KSTC STC20041127152010611/27/04 15:20:31  5-MIN KSTC 272120Z AUTO 34011G20KT 10SM BKN110 02/M03 A2971 1220 67 0 330/11G20 RMK AO2
14926KSTC STC20041127152510011/27/04 15:25:31  5-MIN KSTC 272125Z AUTO 33011KT 10SM BKN110 02/M03 A2971 1220 69 0 330/11 RMK AO2
14926KSTC STC20041127153010611/27/04 15:30:31  5-MIN KSTC 272130Z AUTO 33016G21KT 10SM BKN110 02/M03 A2972 1220 67 0 320/16G21 RMK AO2
14926KSTC STC20041127153510611/27/04 15:35:31  5-MIN KSTC 272135Z AUTO 33013G21KT 10SM BKN110 02/M03 A2972 1210 69 0 330/13G21 RMK AO2
14926KSTC STC20041127154010611/27/04 15:40:31  5-MIN KSTC 272140Z AUTO 33012G20KT 10SM BKN110 02/M03 A2972 1210 69 0 330/12G20 RMK AO2
14926KSTC STC20041127154510611/27/04 15:45:31  5-MIN KSTC 272145Z AUTO 33011G18KT 10SM BKN110 02/M03 A2973 1210 69 0 330/11G18 RMK AO2
14926KSTC STC20041127155011711/27/04 15:50:31  5-MIN KSTC 272150Z AUTO 33011KT 10SM BKN110 02/M03 A2973 1210 69 0 330/11 RMK AO2 SLP085 T00171033
14926KSTC STC20041127155510611/27/04 15:55:31  5-MIN KSTC 272155Z AUTO 33013G21KT 10SM BKN110 02/M04 A2973 1200 66 0 330/13G21 RMK AO2
14926KSTC STC20041127160010611/27/04 16:00:31  5-MIN KSTC 272200Z AUTO 33014G21KT 10SM SCT110 02/M04 A2973 1200 66 0 330/14G21 RMK AO2
14926KSTC STC20041127160510911/27/04 16:05:31  5-MIN KSTC 272205Z AUTO 33012G20KT 10SM SCT110 01/M04 A2973 1200 69 -100 330/12G20 RMK AO2
14926KSTC STC20041127161010311/27/04 16:10:31  5-MIN KSTC 272210Z AUTO 33011KT 10SM FEW110 01/M04 A2974 1200 69 -100 320/11 RMK AO2
14926KSTC STC20041127161510911/27/04 16:15:31  5-MIN KSTC 272215Z AUTO 33011G18KT 10SM FEW110 01/M04 A2974 1200 69 -100 330/11G18 RMK AO2
14926KSTC STC20041127162010011/27/04 16:20:31  5-MIN KSTC 272220Z AUTO 32010KT 10SM CLR 01/M04 A2974 1200 69 -100 320/10 RMK AO2
14926KSTC STC20041127162510011/27/04 16:25:31  5-MIN KSTC 272225Z AUTO 32011KT 10SM CLR 01/M04 A2974 1190 69 -100 320/11 RMK AO2
14926KSTC STC20041127163010011/27/04 16:30:31  5-MIN KSTC 272230Z AUTO 32012KT 10SM CLR 01/M03 A2974 1190 75 -200 320/12 RMK AO2
14926KSTC STC20041127163510011/27/04 16:35:31  5-MIN KSTC 272235Z AUTO 33012KT 10SM CLR 01/M04 A2974 1190 72 -200 320/12 RMK AO2
14926KSTC STC20041127164010011/27/04 16:40:31  5-MIN KSTC 272240Z AUTO 32012KT 10SM CLR 01/M04 A2975 1190 72 -200 320/12 RMK AO2
14926KSTC STC20041127164510011/27/04 16:45:31  5-MIN KSTC 272245Z AUTO 32012KT 10SM CLR 00/M04 A2975 1180 75 -300 320/12 RMK AO2
14926KSTC STC20041127165011711/27/04 16:50:31  5-MIN KSTC 272250Z AUTO 33010KT 10SM CLR 00/M04 A2975 1180 75 -300 330/10 RMK AO2 SLP095 T00001039
14926KSTC STC20041127165510011/27/04 16:55:31  5-MIN KSTC 272255Z AUTO 33012KT 10SM CLR 00/M04 A2975 1180 72 -300 320/12 RMK AO2
14926KSTC STC20041127170010011/27/04 17:00:31  5-MIN KSTC 272300Z AUTO 33010KT 10SM CLR 00/M04 A2976 1180 72 -300 320/10 RMK AO2
14926KSTC STC20041127170510611/27/04 17:05:31  5-MIN KSTC 272305Z AUTO 33011G17KT 10SM CLR 00/M04 A2976 1180 72 -300 320/11G17 RMK AO2
14926KSTC STC20041127171010011/27/04 17:10:31  5-MIN KSTC 272310Z AUTO 33010KT 10SM CLR 00/M04 A2976 1170 72 -300 320/10 RMK AO2
14926KSTC STC20041127171510011/27/04 17:15:31  5-MIN KSTC 272315Z AUTO 32011KT 10SM CLR 00/M04 A2976 1170 72 -300 320/11 RMK AO2
14926KSTC STC20041127172010011/27/04 17:20:31  5-MIN KSTC 272320Z AUTO 32011KT 10SM CLR 00/M04 A2976 1170 72 -300 320/11 RMK AO2
14926KSTC STC20041127172510011/27/04 17:25:31  5-MIN KSTC 272325Z AUTO 32010KT 10SM CLR 00/M04 A2977 1170 72 -300 320/10 RMK AO2
14926KSTC STC20041127173010111/27/04 17:30:31  5-MIN KSTC 272330Z AUTO 32010KT 10SM CLR M01/M04 A2977 1170 75 -400 320/10 RMK AO2
14926KSTC STC20041127173510111/27/04 17:35:31  5-MIN KSTC 272335Z AUTO 32010KT 10SM CLR M01/M04 A2977 1170 75 -400 320/10 RMK AO2
14926KSTC STC20041127174010111/27/04 17:40:31  5-MIN KSTC 272340Z AUTO 33009KT 10SM CLR M01/M04 A2977 1170 75 -400 330/09 RMK AO2
14926KSTC STC20041127174510111/27/04 17:45:31  5-MIN KSTC 272345Z AUTO 33009KT 10SM CLR M01/M04 A2977 1170 75 -400 320/09 RMK AO2
14926KSTC STC20041127175014211/27/04 17:50:31  5-MIN KSTC 272350Z AUTO 32011KT 10SM CLR M01/M04 A2977 1160 75 -400 320/11 RMK AO2 SLP102 60000 T10061044 10022 21006 53004
14926KSTC STC20041127175510111/27/04 17:55:31  5-MIN KSTC 272355Z AUTO 32010KT 10SM CLR M01/M04 A2977 1160 75 -400 310/10 RMK AO2
14926KSTC STC20041127180010111/27/04 18:00:31  5-MIN KSTC 280000Z AUTO 31008KT 10SM CLR M01/M04 A2978 1160 78 -400 310/08 RMK AO2
14926KSTC STC20041127180510111/27/04 18:05:31  5-MIN KSTC 280005Z AUTO 31009KT 10SM CLR M02/M04 A2978 1160 81 -500 310/09 RMK AO2
14926KSTC STC20041127181010111/27/04 18:10:31  5-MIN KSTC 280010Z AUTO 31010KT 10SM CLR M02/M04 A2978 1160 81 -500 310/10 RMK AO2
14926KSTC STC20041127181510111/27/04 18:15:31  5-MIN KSTC 280015Z AUTO 31011KT 10SM CLR M02/M04 A2978 1160 85 -500 310/11 RMK AO2
14926KSTC STC20041127182010111/27/04 18:20:31  5-MIN KSTC 280020Z AUTO 31011KT 10SM CLR M02/M04 A2978 1150 85 -500 310/11 RMK AO2
14926KSTC STC20041127182510111/27/04 18:25:31  5-MIN KSTC 280025Z AUTO 31012KT 10SM CLR M02/M04 A2978 1160 85 -500 310/12 RMK AO2
14926KSTC STC20041127183010111/27/04 18:30:31  5-MIN KSTC 280030Z AUTO 31013KT 10SM CLR M02/M04 A2978 1150 85 -500 310/13 RMK AO2
14926KSTC STC20041127183510111/27/04 18:35:31  5-MIN KSTC 280035Z AUTO 31013KT 10SM CLR M02/M04 A2979 1150 85 -500 310/13 RMK AO2
14926KSTC STC20041127184010111/27/04 18:40:31  5-MIN KSTC 280040Z AUTO 31012KT 10SM CLR M02/M04 A2979 1150 85 -500 310/12 RMK AO2
14926KSTC STC20041127184510111/27/04 18:45:31  5-MIN KSTC 280045Z AUTO 31013KT 10SM CLR M02/M04 A2979 1150 85 -500 310/13 RMK AO2
14926KSTC STC20041127185011811/27/04 18:50:31  5-MIN KSTC 280050Z AUTO 31013KT 10SM CLR M02/M04 A2979 1150 85 -500 310/13 RMK AO2 SLP108 T10171039
14926KSTC STC20041127185510111/27/04 18:55:31  5-MIN KSTC 280055Z AUTO 31013KT 10SM CLR M02/M04 A2979 1150 85 -500 310/13 RMK AO2
14926KSTC STC20041127190010111/27/04 19:00:31  5-MIN KSTC 280100Z AUTO 31012KT 10SM CLR M02/M04 A2979 1140 85 -500 310/12 RMK AO2
14926KSTC STC20041127190510111/27/04 19:05:31  5-MIN KSTC 280105Z AUTO 31013KT 10SM CLR M02/M04 A2980 1140 85 -600 310/13 RMK AO2
14926KSTC STC20041127191010111/27/04 19:10:31  5-MIN KSTC 280110Z AUTO 32012KT 10SM CLR M02/M04 A2980 1140 85 -600 310/12 RMK AO2
14926KSTC STC20041127191510111/27/04 19:15:31  5-MIN KSTC 280115Z AUTO 31012KT 10SM CLR M02/M04 A2980 1140 85 -600 310/12 RMK AO2
14926KSTC STC20041127192010111/27/04 19:20:31  5-MIN KSTC 280120Z AUTO 31013KT 10SM CLR M02/M04 A2980 1140 85 -600 310/13 RMK AO2
14926KSTC STC20041127192510111/27/04 19:25:31  5-MIN KSTC 280125Z AUTO 31014KT 10SM CLR M02/M04 A2980 1130 85 -600 310/14 RMK AO2
14926KSTC STC20041127193010111/27/04 19:30:31  5-MIN KSTC 280130Z AUTO 31012KT 10SM CLR M02/M04 A2981 1130 85 -600 310/12 RMK AO2
14926KSTC STC20041127193510111/27/04 19:35:31  5-MIN KSTC 280135Z AUTO 31014KT 10SM CLR M02/M04 A2981 1130 85 -600 310/14 RMK AO2
14926KSTC STC20041127194010111/27/04 19:40:31  5-MIN KSTC 280140Z AUTO 32015KT 10SM CLR M02/M04 A2981 1130 85 -600 310/15 RMK AO2
14926KSTC STC20041127194510111/27/04 19:45:31  5-MIN KSTC 280145Z AUTO 31014KT 10SM CLR M02/M04 A2981 1120 85 -600 310/14 RMK AO2
14926KSTC STC20041127195011811/27/04 19:50:31  5-MIN KSTC 280150Z AUTO 32014KT 10SM CLR M02/M04 A2981 1120 85 -600 320/14 RMK AO2 SLP117 T10221044
14926KSTC STC20041127195510111/27/04 19:55:31  5-MIN KSTC 280155Z AUTO 32014KT 10SM CLR M02/M04 A2981 1130 85 -600 320/14 RMK AO2
14926KSTC STC20041127200010111/27/04 20:00:31  5-MIN KSTC 280200Z AUTO 32015KT 10SM CLR M02/M05 A2982 1120 81 -600 320/15 RMK AO2
14926KSTC STC20041127200510111/27/04 20:05:31  5-MIN KSTC 280205Z AUTO 32013KT 10SM CLR M02/M05 A2982 1120 81 -600 320/13 RMK AO2
14926KSTC STC20041127201010711/27/04 20:10:31  5-MIN KSTC 280210Z AUTO 32014G20KT 10SM CLR M03/M05 A2982 1120 85 -700 320/14G20 RMK AO2
14926KSTC STC20041127201510111/27/04 20:15:31  5-MIN KSTC 280215Z AUTO 32014KT 10SM CLR M03/M05 A2982 1120 85 -700 320/14 RMK AO2
14926KSTC STC20041127202010111/27/04 20:20:31  5-MIN KSTC 280220Z AUTO 32013KT 10SM CLR M03/M05 A2982 1120 85 -700 320/13 RMK AO2
14926KSTC STC20041127202510111/27/04 20:25:31  5-MIN KSTC 280225Z AUTO 32013KT 10SM CLR M03/M05 A2982 1120 85 -700 320/13 RMK AO2
14926KSTC STC20041127203010111/27/04 20:30:31  5-MIN KSTC 280230Z AUTO 32013KT 10SM CLR M03/M05 A2982 1120 85 -700 320/13 RMK AO2
14926KSTC STC20041127203510111/27/04 20:35:31  5-MIN KSTC 280235Z AUTO 32014KT 10SM CLR M03/M06 A2982 1120 85 -800 310/14 RMK AO2
14926KSTC STC20041127204010111/27/04 20:40:31  5-MIN KSTC 280240Z AUTO 32013KT 10SM CLR M03/M06 A2983 1110 81 -700 320/13 RMK AO2
14926KSTC STC20041127204510111/27/04 20:45:31  5-MIN KSTC 280245Z AUTO 32013KT 10SM CLR M03/M06 A2983 1110 85 -800 320/13 RMK AO2
14926KSTC STC20041127205012411/27/04 20:50:31  5-MIN KSTC 280250Z AUTO 32013KT 10SM CLR M03/M06 A2983 1110 85 -800 310/13 RMK AO2 SLP123 T10331056 51023
14926KSTC STC20041127205510111/27/04 20:55:31  5-MIN KSTC 280255Z AUTO 32013KT 10SM CLR M03/M06 A2983 1110 85 -800 320/13 RMK AO2
14926KSTC STC20041127210010111/27/04 21:00:31  5-MIN KSTC 280300Z AUTO 32012KT 10SM CLR M03/M06 A2983 1110 85 -800 320/12 RMK AO2
14926KSTC STC20041127210510711/27/04 21:05:31  5-MIN KSTC 280305Z AUTO 32012G18KT 10SM CLR M03/M06 A2984 1110 85 -800 320/12G18 RMK AO2
14926KSTC STC20041127211010711/27/04 21:10:31  5-MIN KSTC 280310Z AUTO 32011G18KT 10SM CLR M03/M05 A2984 1100 88 -800 320/11G18 RMK AO2
14926KSTC STC20041127211510111/27/04 21:15:31  5-MIN KSTC 280315Z AUTO 32011KT 10SM CLR M03/M05 A2984 1100 88 -800 320/11 RMK AO2
14926KSTC STC20041127212010111/27/04 21:20:31  5-MIN KSTC 280320Z AUTO 32012KT 10SM CLR M03/M06 A2984 1100 85 -800 320/12 RMK AO2
14926KSTC STC20041127212510111/27/04 21:25:31  5-MIN KSTC 280325Z AUTO 32013KT 10SM CLR M03/M06 A2984 1100 85 -800 320/13 RMK AO2
14926KSTC STC20041127213010111/27/04 21:30:31  5-MIN KSTC 280330Z AUTO 32011KT 10SM CLR M03/M06 A2984 1100 85 -800 320/11 RMK AO2
14926KSTC STC20041127213510111/27/04 21:35:31  5-MIN KSTC 280335Z AUTO 33012KT 10SM CLR M03/M06 A2985 1100 85 -800 320/12 RMK AO2
14926KSTC STC20041127214010111/27/04 21:40:31  5-MIN KSTC 280340Z AUTO 32012KT 10SM CLR M03/M06 A2985 1090 85 -800 320/12 RMK AO2
14926KSTC STC20041127214510111/27/04 21:45:31  5-MIN KSTC 280345Z AUTO 32013KT 10SM CLR M03/M06 A2985 1090 85 -800 320/13 RMK AO2
14926KSTC STC20041127215011811/27/04 21:50:31  5-MIN KSTC 280350Z AUTO 32012KT 10SM CLR M03/M06 A2985 1090 85 -800 320/12 RMK AO2 SLP131 T10331056
14926KSTC STC20041127215510111/27/04 21:55:31  5-MIN KSTC 280355Z AUTO 32012KT 10SM CLR M03/M06 A2986 1080 85 -800 320/12 RMK AO2
14926KSTC STC20041127220010111/27/04 22:00:31  5-MIN KSTC 280400Z AUTO 32012KT 10SM CLR M03/M06 A2986 1080 85 -800 320/12 RMK AO2
14926KSTC STC20041127220510111/27/04 22:05:31  5-MIN KSTC 280405Z AUTO 32014KT 10SM CLR M03/M06 A2986 1080 85 -800 320/14 RMK AO2
14926KSTC STC20041127221010111/27/04 22:10:31  5-MIN KSTC 280410Z AUTO 32011KT 10SM CLR M03/M06 A2986 1080 85 -800 320/11 RMK AO2
14926KSTC STC20041127221510111/27/04 22:15:31  5-MIN KSTC 280415Z AUTO 32012KT 10SM CLR M03/M06 A2986 1080 85 -800 320/12 RMK AO2
14926KSTC STC20041127222010111/27/04 22:20:31  5-MIN KSTC 280420Z AUTO 32012KT 10SM CLR M03/M06 A2987 1080 85 -800 320/12 RMK AO2
14926KSTC STC20041127222510111/27/04 22:25:31  5-MIN KSTC 280425Z AUTO 32011KT 10SM CLR M04/M06 A2987 1070 88 -900 320/11 RMK AO2
14926KSTC STC20041127223010111/27/04 22:30:31  5-MIN KSTC 280430Z AUTO 32012KT 10SM CLR M04/M06 A2987 1070 88 -900 320/12 RMK AO2
14926KSTC STC20041127223510111/27/04 22:35:31  5-MIN KSTC 280435Z AUTO 32012KT 10SM CLR M04/M06 A2988 1070 88 -900 310/12 RMK AO2
14926KSTC STC20041127224010111/27/04 22:40:31  5-MIN KSTC 280440Z AUTO 32011KT 10SM CLR M04/M06 A2988 1060 88 -900 310/11 RMK AO2
14926KSTC STC20041127224510111/27/04 22:45:31  5-MIN KSTC 280445Z AUTO 32010KT 10SM CLR M04/M06 A2988 1060 88 -900 310/10 RMK AO2
14926KSTC STC20041127225011911/27/04 22:50:31  5-MIN KSTC 280450Z AUTO 31009KT 10SM CLR M04/M06 A2989 1060 88 -1000 310/09 RMK AO2 SLP144 T10441061
14926KSTC STC20041127225510211/27/04 22:55:31  5-MIN KSTC 280455Z AUTO 31009KT 10SM CLR M04/M06 A2989 1050 88 -1000 310/09 RMK AO2
14926KSTC STC20041127230010211/27/04 23:00:31  5-MIN KSTC 280500Z AUTO 31010KT 10SM CLR M04/M06 A2989 1050 88 -1000 310/10 RMK AO2
14926KSTC STC20041127230510211/27/04 23:05:31  5-MIN KSTC 280505Z AUTO 31009KT 10SM CLR M04/M06 A2990 1050 88 -1000 310/09 RMK AO2
14926KSTC STC20041127231010211/27/04 23:10:31  5-MIN KSTC 280510Z AUTO 31010KT 10SM CLR M04/M06 A2990 1050 88 -1000 310/10 RMK AO2
14926KSTC STC20041127231510211/27/04 23:15:31  5-MIN KSTC 280515Z AUTO 31010KT 10SM CLR M04/M06 A2990 1040 88 -1000 310/10 RMK AO2
14926KSTC STC20041127232010211/27/04 23:20:31  5-MIN KSTC 280520Z AUTO 32009KT 10SM CLR M04/M06 A2990 1040 88 -1000 310/09 RMK AO2
14926KSTC STC20041127232510211/27/04 23:25:31  5-MIN KSTC 280525Z AUTO 31010KT 10SM CLR M04/M06 A2991 1040 88 -1000 310/10 RMK AO2
14926KSTC STC20041127233010211/27/04 23:30:31  5-MIN KSTC 280530Z AUTO 31010KT 10SM CLR M04/M06 A2991 1030 88 -1000 310/10 RMK AO2
14926KSTC STC20041127233510211/27/04 23:35:31  5-MIN KSTC 280535Z AUTO 31010KT 10SM CLR M04/M06 A2992 1030 88 -1000 300/10 RMK AO2
14926KSTC STC20041127234010211/27/04 23:40:31  5-MIN KSTC 280540Z AUTO 31009KT 10SM CLR M04/M06 A2992 1030 88 -1000 300/09 RMK AO2
14926KSTC STC20041127234510211/27/04 23:45:31  5-MIN KSTC 280545Z AUTO 30010KT 10SM CLR M04/M06 A2992 1030 88 -1000 300/10 RMK AO2
14926KSTC STC20041127235014711/27/04 23:50:31  5-MIN KSTC 280550Z AUTO 30010KT 10SM CLR M04/M06 A2992 1020 88 -1000 300/10 RMK AO2 SLP156 T10441061 11006 21044 400221044 52019
14926KSTC STC20041127235510211/27/04 23:55:31  5-MIN KSTC 280555Z AUTO 30010KT 10SM CLR M04/M06 A2993 1020 88 -1000 300/10 RMK AO2
14926KSTC STC20041128000010211/28/04 00:00:32  5-MIN KSTC 280600Z AUTO 30010KT 10SM CLR M04/M06 A2993 1020 88 -1000 300/10 RMK AO2
14926KSTC STC20041128000510211/28/04 00:05:31  5-MIN KSTC 280605Z AUTO 30010KT 10SM CLR M04/M06 A2993 1020 88 -1000 300/10 RMK AO2
14926KSTC STC20041128001010211/28/04 00:10:31  5-MIN KSTC 280610Z AUTO 31008KT 10SM CLR M05/M06 A2993 1020 92 -1100 310/08 RMK AO2
14926KSTC STC20041128001510211/28/04 00:15:31  5-MIN KSTC 280615Z AUTO 31010KT 10SM CLR M05/M06 A2993 1020 92 -1100 310/10 RMK AO2
14926KSTC STC20041128002010211/28/04 00:20:31  5-MIN KSTC 280620Z AUTO 31009KT 10SM CLR M05/M06 A2993 1020 92 -1100 310/09 RMK AO2
14926KSTC STC20041128002510211/28/04 00:25:31  5-MIN KSTC 280625Z AUTO 32008KT 10SM CLR M05/M07 A2993 1020 88 -1100 310/08 RMK AO2
14926KSTC STC20041128003010211/28/04 00:30:31  5-MIN KSTC 280630Z AUTO 32008KT 10SM CLR M05/M07 A2993 1020 88 -1100 320/08 RMK AO2
14926KSTC STC20041128003510211/28/04 00:35:31  5-MIN KSTC 280635Z AUTO 32010KT 10SM CLR M04/M06 A2993 1020 88 -1000 320/10 RMK AO2
14926KSTC STC20041128004010211/28/04 00:40:31  5-MIN KSTC 280640Z AUTO 32010KT 10SM CLR M05/M06 A2993 1020 92 -1100 310/10 RMK AO2
14926KSTC STC20041128004510211/28/04 00:45:31  5-MIN KSTC 280645Z AUTO 31009KT 10SM CLR M05/M07 A2993 1020 88 -1100 310/09 RMK AO2
14926KSTC STC20041128005011911/28/04 00:50:31  5-MIN KSTC 280650Z AUTO 31009KT 10SM CLR M05/M07 A2993 1010 88 -1100 310/09 RMK AO2 SLP159 T10501067
14926KSTC STC20041128005510211/28/04 00:55:31  5-MIN KSTC 280655Z AUTO 30009KT 10SM CLR M06/M07 A2994 1010 92 -1200 300/09 RMK AO2
14926KSTC STC20041128010010211/28/04 01:00:31  5-MIN KSTC 280700Z AUTO 31008KT 10SM CLR M06/M07 A2994 1010 92 -1200 300/08 RMK AO2
14926KSTC STC20041128010510211/28/04 01:05:31  5-MIN KSTC 280705Z AUTO 31008KT 10SM CLR M06/M07 A2994 1010 92 -1200 300/08 RMK AO2
14926KSTC STC20041128011010211/28/04 01:10:31  5-MIN KSTC 280710Z AUTO 31008KT 10SM CLR M06/M07 A2994 1000 92 -1200 300/08 RMK AO2
14926KSTC STC20041128011510211/28/04 01:15:31  5-MIN KSTC 280715Z AUTO 29007KT 10SM CLR M06/M07 A2995 1000 88 -1200 290/07 RMK AO2
14926KSTC STC20041128012010211/28/04 01:20:31  5-MIN KSTC 280720Z AUTO 29008KT 10SM CLR M05/M07 A2995 1000 88 -1100 290/08 RMK AO2
14926KSTC STC20041128012510211/28/04 01:25:31  5-MIN KSTC 280725Z AUTO 30007KT 10SM CLR M05/M07 A2995 1000 88 -1100 290/07 RMK AO2
14926KSTC STC20041128013010211/28/04 01:30:31  5-MIN KSTC 280730Z AUTO 30007KT 10SM CLR M06/M07 A2995 1000 92 -1200 300/07 RMK AO2
14926KSTC STC20041128013510211/28/04 01:35:31  5-MIN KSTC 280735Z AUTO 31006KT 10SM CLR M06/M07 A2995 1000 92 -1200 300/06 RMK AO2
14926KSTC STC20041128014010111/28/04 01:40:31  5-MIN KSTC 280740Z AUTO 31006KT 10SM CLR M06/M07 A2995 990 88 -1200 300/06 RMK AO2
14926KSTC STC20041128014510111/28/04 01:45:31  5-MIN KSTC 280745Z AUTO 31006KT 10SM CLR M06/M07 A2996 990 92 -1300 310/06 RMK AO2
14926KSTC STC20041128015011811/28/04 01:50:31  5-MIN KSTC 280750Z AUTO 31006KT 10SM CLR M06/M07 A2996 990 88 -1200 310/06 RMK AO2 SLP166 T10561072
14926KSTC STC20041128015510111/28/04 01:55:31  5-MIN KSTC 280755Z AUTO 32005KT 10SM CLR M06/M07 A2996 990 88 -1200 320/05 RMK AO2
14926KSTC STC20041128020010111/28/04 02:00:31  5-MIN KSTC 280800Z AUTO 31006KT 10SM CLR M06/M07 A2996 990 88 -1200 310/06 RMK AO2
14926KSTC STC20041128020510111/28/04 02:05:31  5-MIN KSTC 280805Z AUTO 30006KT 10SM CLR M06/M08 A2996 990 88 -1300 300/06 RMK AO2
14926KSTC STC20041128021010111/28/04 02:10:31  5-MIN KSTC 280810Z AUTO 31005KT 10SM CLR M06/M08 A2996 990 88 -1300 300/05 RMK AO2
14926KSTC STC20041128021510111/28/04 02:15:31  5-MIN KSTC 280815Z AUTO 31004KT 10SM CLR M06/M08 A2997 980 88 -1300 310/04 RMK AO2
14926KSTC STC20041128022010111/28/04 02:20:31  5-MIN KSTC 280820Z AUTO 30004KT 10SM CLR M06/M07 A2997 980 92 -1300 300/04 RMK AO2
14926KSTC STC20041128022510111/28/04 02:25:31  5-MIN KSTC 280825Z AUTO 30004KT 10SM CLR M06/M08 A2997 980 88 -1300 300/04 RMK AO2
14926KSTC STC20041128023010111/28/04 02:30:31  5-MIN KSTC 280830Z AUTO 31004KT 10SM CLR M06/M08 A2997 980 88 -1300 310/04 RMK AO2
14926KSTC STC20041128023510111/28/04 02:35:31  5-MIN KSTC 280835Z AUTO 32004KT 10SM CLR M06/M08 A2997 980 88 -1300 310/04 RMK AO2
14926KSTC STC20041128024010011/28/04 02:40:31  5-MIN KSTC 280840Z AUTO 32004KT 9SM CLR M06/M08 A2996 990 88 -1300 320/04 RMK AO2
14926KSTC STC20041128024510011/28/04 02:45:31  5-MIN KSTC 280845Z AUTO 32004KT 9SM CLR M06/M08 A2996 990 88 -1300 320/04 RMK AO2
14926KSTC STC20041128025012311/28/04 02:50:31  5-MIN KSTC 280850Z AUTO 32005KT 9SM CLR M06/M08 A2996 990 88 -1300 320/05 RMK AO2 SLP169 T10611078 53031
14926KSTC STC20041128025510011/28/04 02:55:31  5-MIN KSTC 280855Z AUTO 33003KT 9SM CLR M06/M08 A2996 990 88 -1300 320/03 RMK AO2
14926KSTC STC20041128030010011/28/04 03:00:31  5-MIN KSTC 280900Z AUTO 31004KT 9SM CLR M06/M08 A2996 990 88 -1300 310/04 RMK AO2
14926KSTC STC20041128030510011/28/04 03:05:31  5-MIN KSTC 280905Z AUTO 30004KT 9SM CLR M06/M08 A2996 990 88 -1300 300/04 RMK AO2
14926KSTC STC20041128031010011/28/04 03:10:31  5-MIN KSTC 280910Z AUTO 00000KT 8SM CLR M07/M08 A2997 980 88 -1400 000/00 RMK AO2
14926KSTC STC20041128031510011/28/04 03:15:31  5-MIN KSTC 280915Z AUTO 27003KT 8SM CLR M07/M08 A2997 980 88 -1400 270/03 RMK AO2
14926KSTC STC20041128032010011/28/04 03:20:31  5-MIN KSTC 280920Z AUTO 28004KT 8SM CLR M07/M08 A2997 980 88 -1400 280/04 RMK AO2
14926KSTC STC20041128032510011/28/04 03:25:31  5-MIN KSTC 280925Z AUTO 29004KT 9SM CLR M07/M08 A2997 980 88 -1400 290/04 RMK AO2
14926KSTC STC20041128033010011/28/04 03:30:31  5-MIN KSTC 280930Z AUTO 33003KT 9SM CLR M07/M08 A2996 990 92 -1400 330/03 RMK AO2
14926KSTC STC20041128033510011/28/04 03:35:31  5-MIN KSTC 280935Z AUTO 34004KT 9SM CLR M07/M08 A2996 990 88 -1400 330/04 RMK AO2
14926KSTC STC20041128034010011/28/04 03:40:31  5-MIN KSTC 280940Z AUTO 33004KT 9SM CLR M07/M08 A2996 990 88 -1400 330/04 RMK AO2
14926KSTC STC20041128034510011/28/04 03:45:31  5-MIN KSTC 280945Z AUTO 31003KT 9SM CLR M07/M08 A2997 980 92 -1400 310/03 RMK AO2
14926KSTC STC20041128035011711/28/04 03:50:31  5-MIN KSTC 280950Z AUTO 30004KT 9SM CLR M07/M08 A2997 980 88 -1400 300/04 RMK AO2 SLP172 T10671083
14926KSTC STC20041128035510011/28/04 03:55:31  5-MIN KSTC 280955Z AUTO 27003KT 9SM CLR M07/M08 A2997 980 88 -1400 270/03 RMK AO2
14926KSTC STC20041128040010011/28/04 04:00:31  5-MIN KSTC 281000Z AUTO 28003KT 9SM CLR M07/M09 A2997 980 88 -1400 280/03 RMK AO2
14926KSTC STC20041128040510011/28/04 04:05:31  5-MIN KSTC 281005Z AUTO 27003KT 9SM CLR M07/M08 A2997 980 88 -1400 260/03 RMK AO2
14926KSTC STC20041128041010111/28/04 04:10:31  5-MIN KSTC 281010Z AUTO 23003KT 10SM CLR M07/M08 A2997 980 92 -1400 230/03 RMK AO2
14926KSTC STC20041128041510011/28/04 04:15:31  5-MIN KSTC 281015Z AUTO 00000KT 9SM CLR M07/M09 A2997 980 88 -1400 000/00 RMK AO2
14926KSTC STC20041128042010011/28/04 04:20:31  5-MIN KSTC 281020Z AUTO 00000KT 9SM CLR M07/M08 A2997 980 88 -1400 000/00 RMK AO2
14926KSTC STC20041128042510011/28/04 04:25:31  5-MIN KSTC 281025Z AUTO 00000KT 9SM CLR M07/M09 A2997 980 88 -1400 000/00 RMK AO2
14926KSTC STC20041128043010011/28/04 04:30:31  5-MIN KSTC 281030Z AUTO 00000KT 9SM CLR M07/M08 A2997 980 92 -1400 000/00 RMK AO2
14926KSTC STC20041128043510011/28/04 04:35:31  5-MIN KSTC 281035Z AUTO 00000KT 9SM CLR M07/M09 A2998 970 88 -1500 000/00 RMK AO2
14926KSTC STC20041128044010011/28/04 04:40:31  5-MIN KSTC 281040Z AUTO 29003KT 9SM CLR M07/M08 A2998 970 88 -1400 290/03 RMK AO2
14926KSTC STC20041128044510111/28/04 04:45:31  5-MIN KSTC 281045Z AUTO 29003KT 10SM CLR M07/M08 A2998 970 88 -1400 280/03 RMK AO2
14926KSTC STC20041128045011811/28/04 04:50:31  5-MIN KSTC 281050Z AUTO 27003KT 10SM CLR M07/M08 A2998 970 92 -1400 270/03 RMK AO2 SLP177 T10671078
14926KSTC STC20041128045510111/28/04 04:55:31  5-MIN KSTC 281055Z AUTO 27004KT 10SM CLR M07/M08 A2999 960 92 -1400 260/04 RMK AO2
14926KSTC STC20041128050010011/28/04 05:00:31  5-MIN KSTC 281100Z AUTO 26003KT 9SM CLR M07/M09 A2999 960 88 -1500 260/03 RMK AO2
14926KSTC STC20041128050510011/28/04 05:05:31  5-MIN KSTC 281105Z AUTO 27003KT 8SM CLR M08/M09 A2999 960 92 -1500 270/03 RMK AO2
14926KSTC STC20041128051010011/28/04 05:10:31  5-MIN KSTC 281110Z AUTO 28003KT 8SM CLR M08/M09 A2999 960 88 -1500 270/03 RMK AO2
14926KSTC STC20041128051510011/28/04 05:15:31  5-MIN KSTC 281115Z AUTO 28003KT 8SM CLR M08/M09 A2999 960 92 -1500 270/03 RMK AO2
14926KSTC STC20041128052010011/28/04 05:20:31  5-MIN KSTC 281120Z AUTO 28003KT 8SM CLR M08/M09 A2999 960 92 -1500 280/03 RMK AO2
14926KSTC STC20041128052510011/28/04 05:25:31  5-MIN KSTC 281125Z AUTO 28003KT 8SM CLR M07/M09 A2999 960 88 -1500 280/03 RMK AO2
14926KSTC STC20041128053010011/28/04 05:30:31  5-MIN KSTC 281130Z AUTO 28003KT 8SM CLR M07/M09 A2999 960 88 -1500 280/03 RMK AO2
14926KSTC STC20041128053510011/28/04 05:35:31  5-MIN KSTC 281135Z AUTO 28003KT 9SM CLR M07/M08 A2999 960 92 -1500 270/03 RMK AO2
14926KSTC STC20041128054010011/28/04 05:40:31  5-MIN KSTC 281140Z AUTO 00000KT 9SM CLR M07/M08 A3000 960 92 -1500 000/00 RMK AO2
14926KSTC STC20041128054510011/28/04 05:45:31  5-MIN KSTC 281145Z AUTO 00000KT 8SM CLR M07/M08 A3000 950 92 -1500 000/00 RMK AO2
14926KSTC STC20041128055014111/28/04 05:50:31  5-MIN KSTC 281150Z AUTO 00000KT 8SM CLR M07/M08 A3000 960 92 -1500 000/00 RMK AO2 SLP181 70001 T10721083 11044 21078 51012
14926KSTC STC20041128055510011/28/04 05:55:31  5-MIN KSTC 281155Z AUTO 00000KT 8SM CLR M08/M09 A3000 950 88 -1500 000/00 RMK AO2
14926KSTC STC20041128060010011/28/04 06:00:31  5-MIN KSTC 281200Z AUTO 00000KT 8SM CLR M07/M08 A3000 950 92 -1500 000/00 RMK AO2
14926KSTC STC20041128060510011/28/04 06:05:31  5-MIN KSTC 281205Z AUTO 00000KT 8SM CLR M07/M08 A3001 950 92 -1500 000/00 RMK AO2
14926KSTC STC20041128061010011/28/04 06:10:31  5-MIN KSTC 281210Z AUTO 00000KT 7SM CLR M08/M09 A3001 950 92 -1600 000/00 RMK AO2
14926KSTC STC20041128061510011/28/04 06:15:31  5-MIN KSTC 281215Z AUTO 00000KT 7SM CLR M08/M09 A3001 950 92 -1600 000/00 RMK AO2
14926KSTC STC20041128062010311/28/04 06:20:31  5-MIN KSTC 281220Z AUTO 00000KT 6SM BR CLR M08/M08 A3001 940 96 -1600 000/00 RMK AO2
14926KSTC STC20041128062510311/28/04 06:25:31  5-MIN KSTC 281225Z AUTO 00000KT 6SM BR CLR M08/M09 A3001 940 92 -1600 000/00 RMK AO2
14926KSTC STC20041128063010311/28/04 06:30:31  5-MIN KSTC 281230Z AUTO 00000KT 5SM BR CLR M08/M09 A3001 940 92 -1600 000/00 RMK AO2
14926KSTC STC20041128063510311/28/04 06:35:31  5-MIN KSTC 281235Z AUTO 00000KT 5SM BR CLR M08/M09 A3001 940 96 -1600 000/00 RMK AO2
14926KSTC STC20041128064010311/28/04 06:40:31  5-MIN KSTC 281240Z AUTO 00000KT 5SM BR CLR M08/M09 A3002 940 96 -1600 000/00 RMK AO2
14926KSTC STC20041128064510311/28/04 06:45:31  5-MIN KSTC 281245Z AUTO 00000KT 6SM BR CLR M08/M09 A3002 940 92 -1600 000/00 RMK AO2
14926KSTC STC20041128065011711/28/04 06:50:31  5-MIN KSTC 281250Z AUTO 00000KT 7SM CLR M09/M10 A3002 940 92 -1700 000/00 RMK AO2 SLP189 T10891100
14926KSTC STC20041128065510011/28/04 06:55:31  5-MIN KSTC 281255Z AUTO 00000KT 7SM CLR M08/M09 A3002 940 92 -1600 000/00 RMK AO2
14926KSTC STC20041128070010011/28/04 07:00:31  5-MIN KSTC 281300Z AUTO 00000KT 7SM CLR M09/M09 A3002 940 96 -1700 000/00 RMK AO2
14926KSTC STC20041128070510011/28/04 07:05:31  5-MIN KSTC 281305Z AUTO 00000KT 7SM CLR M08/M09 A3002 940 92 -1600 000/00 RMK AO2
14926KSTC STC20041128071010011/28/04 07:10:31  5-MIN KSTC 281310Z AUTO 00000KT 7SM CLR M08/M09 A3002 940 92 -1600 000/00 RMK AO2
14926KSTC STC20041128071510011/28/04 07:15:31  5-MIN KSTC 281315Z AUTO 00000KT 7SM CLR M09/M10 A3002 940 92 -1700 000/00 RMK AO2
14926KSTC STC20041128072010311/28/04 07:20:31  5-MIN KSTC 281320Z AUTO 00000KT 6SM BR CLR M09/M10 A3002 930 96 -1800 000/00 RMK AO2
14926KSTC STC20041128072510311/28/04 07:25:31  5-MIN KSTC 281325Z AUTO 00000KT 6SM BR CLR M09/M10 A3002 930 96 -1800 000/00 RMK AO2
14926KSTC STC20041128073010011/28/04 07:30:31  5-MIN KSTC 281330Z AUTO 00000KT 7SM CLR M09/M09 A3002 930 96 -1700 000/00 RMK AO2
14926KSTC STC20041128073510311/28/04 07:35:31  5-MIN KSTC 281335Z AUTO 00000KT 6SM BR CLR M09/M09 A3003 930 96 -1700 000/00 RMK AO2
14926KSTC STC20041128074010311/28/04 07:40:31  5-MIN KSTC 281340Z AUTO 00000KT 5SM BR CLR M09/M09 A3003 930 96 -1700 000/00 RMK AO2
14926KSTC STC20041128074510311/28/04 07:45:31  5-MIN KSTC 281345Z AUTO 00000KT 5SM BR CLR M09/M09 A3003 930 96 -1700 000/00 RMK AO2
14926KSTC STC20041128075012011/28/04 07:50:31  5-MIN KSTC 281350Z AUTO 00000KT 4SM BR CLR M09/M09 A3003 920 96 -1700 000/00 RMK AO2 SLP196 T10891094
14926KSTC STC20041128075510311/28/04 07:55:31  5-MIN KSTC 281355Z AUTO 00000KT 5SM BR CLR M08/M09 A3004 920 92 -1700 000/00 RMK AO2
14926KSTC STC20041128080010311/28/04 08:00:31  5-MIN KSTC 281400Z AUTO 00000KT 6SM BR CLR M08/M09 A3004 920 92 -1700 000/00 RMK AO2
14926KSTC STC20041128080510011/28/04 08:05:31  5-MIN KSTC 281405Z AUTO 00000KT 7SM CLR M09/M09 A3004 920 96 -1700 000/00 RMK AO2
14926KSTC STC20041128081010311/28/04 08:10:31  5-MIN KSTC 281410Z AUTO 00000KT 6SM BR CLR M09/M10 A3003 920 92 -1700 000/00 RMK AO2
14926KSTC STC20041128081510311/28/04 08:15:31  5-MIN KSTC 281415Z AUTO 00000KT 6SM BR CLR M08/M09 A3004 920 92 -1700 000/00 RMK AO2
14926KSTC STC20041128082010011/28/04 08:20:31  5-MIN KSTC 281420Z AUTO 00000KT 7SM CLR M08/M09 A3004 920 96 -1700 000/00 RMK AO2
14926KSTC STC20041128082510011/28/04 08:25:31  5-MIN KSTC 281425Z AUTO 00000KT 8SM CLR M08/M09 A3004 920 92 -1600 000/00 RMK AO2
14926KSTC STC20041128083010011/28/04 08:30:31  5-MIN KSTC 281430Z AUTO 00000KT 8SM CLR M08/M08 A3004 920 96 -1600 000/00 RMK AO2
14926KSTC STC20041128083510011/28/04 08:35:31  5-MIN KSTC 281435Z AUTO 00000KT 7SM CLR M07/M08 A3004 910 96 -1500 000/00 RMK AO2
14926KSTC STC20041128084010011/28/04 08:40:31  5-MIN KSTC 281440Z AUTO 00000KT 8SM CLR M07/M08 A3004 910 96 -1500 000/00 RMK AO2
14926KSTC STC20041128084510011/28/04 08:45:31  5-MIN KSTC 281445Z AUTO 00000KT 7SM CLR M07/M08 A3004 910 92 -1500 000/00 RMK AO2
14926KSTC STC20041128085012311/28/04 08:50:31  5-MIN KSTC 281450Z AUTO 00000KT 7SM CLR M06/M07 A3005 910 96 -1400 000/00 RMK AO2 SLP199 T10611067 53011
14926KSTC STC20041128085510011/28/04 08:55:31  5-MIN KSTC 281455Z AUTO 00000KT 7SM CLR M06/M07 A3005 910 96 -1400 000/00 RMK AO2
14926KSTC STC20041128090010011/28/04 09:00:31  5-MIN KSTC 281500Z AUTO 22003KT 7SM CLR M06/M06 A3005 900 96 -1300 220/03 RMK AO2
14926KSTC STC20041128090510011/28/04 09:05:31  5-MIN KSTC 281505Z AUTO 00000KT 7SM CLR M05/M06 A3006 900 96 -1300 000/00 RMK AO2
14926KSTC STC20041128091010011/28/04 09:10:31  5-MIN KSTC 281510Z AUTO 00000KT 8SM CLR M05/M06 A3006 900 96 -1300 000/00 RMK AO2
14926KSTC STC20041128091510011/28/04 09:15:31  5-MIN KSTC 281515Z AUTO 00000KT 8SM CLR M04/M05 A3006 900 92 -1100 000/00 RMK AO2
14926KSTC STC20041128092010011/28/04 09:20:31  5-MIN KSTC 281520Z AUTO 00000KT 9SM CLR M04/M05 A3006 900 92 -1100 000/00 RMK AO2
14926KSTC STC20041128092510011/28/04 09:25:31  5-MIN KSTC 281525Z AUTO 00000KT 9SM CLR M03/M05 A3006 900 88 -1000 000/00 RMK AO2
14926KSTC STC20041128093010111/28/04 09:30:31  5-MIN KSTC 281530Z AUTO 00000KT 10SM CLR M03/M04 A3006 890 92 -1100 000/00 RMK AO2
14926KSTC STC20041128093510111/28/04 09:35:31  5-MIN KSTC 281535Z AUTO 27004KT 10SM CLR M03/M04 A3006 890 92 -1100 260/04 RMK AO2
14926KSTC STC20041128094010111/28/04 09:40:31  5-MIN KSTC 281540Z AUTO 27005KT 10SM CLR M03/M04 A3006 900 88 -1000 270/05 RMK AO2
14926KSTC STC20041128094510111/28/04 09:45:31  5-MIN KSTC 281545Z AUTO 28004KT 10SM CLR M03/M04 A3006 890 88 -1000 280/04 RMK AO2
14926KSTC STC20041128095011811/28/04 09:50:31  5-MIN KSTC 281550Z AUTO 27004KT 10SM CLR M03/M04 A3007 890 88 -1000 270/04 RMK AO2 SLP204 T10281044
14926KSTC STC20041128095510011/28/04 09:55:31  5-MIN KSTC 281555Z AUTO 28005KT 10SM CLR M02/M04 A3007 890 85 -900 270/05 RMK AO2
14926KSTC STC20041128100010011/28/04 10:00:31  5-MIN KSTC 281600Z AUTO 28004KT 10SM CLR M02/M04 A3007 890 85 -900 270/04 RMK AO2
14926KSTC STC20041128100510011/28/04 10:05:31  5-MIN KSTC 281605Z AUTO 29005KT 10SM CLR M02/M04 A3007 890 85 -900 290/05 RMK AO2
14926KSTC STC20041128101010011/28/04 10:10:31  5-MIN KSTC 281610Z AUTO 27005KT 10SM CLR M02/M04 A3007 890 85 -900 270/05 RMK AO2
14926KSTC STC20041128101510011/28/04 10:15:31  5-MIN KSTC 281615Z AUTO 28005KT 10SM CLR M02/M04 A3008 880 85 -900 280/05 RMK AO2
14926KSTC STC20041128102010011/28/04 10:20:31  5-MIN KSTC 281620Z AUTO 26005KT 10SM CLR M02/M04 A3008 880 85 -900 260/05 RMK AO2
14926KSTC STC20041128102510011/28/04 10:25:31  5-MIN KSTC 281625Z AUTO 27006KT 10SM CLR M02/M04 A3008 880 85 -900 270/06 RMK AO2
14926KSTC STC20041128103010011/28/04 10:30:31  5-MIN KSTC 281630Z AUTO 28005KT 10SM CLR M01/M04 A3008 880 81 -800 280/05 RMK AO2
14926KSTC STC20041128103510011/28/04 10:35:31  5-MIN KSTC 281635Z AUTO 27005KT 10SM CLR M01/M04 A3009 870 81 -800 270/05 RMK AO2
14926KSTC STC20041128104010011/28/04 10:40:31  5-MIN KSTC 281640Z AUTO 27004KT 10SM CLR M01/M04 A3009 870 81 -800 260/04 RMK AO2
14926KSTC STC20041128104510011/28/04 10:45:31  5-MIN KSTC 281645Z AUTO 25006KT 10SM CLR M01/M04 A3009 870 78 -700 250/06 RMK AO2
14926KSTC STC20041128105011711/28/04 10:50:31  5-MIN KSTC 281650Z AUTO 24007KT 10SM CLR M01/M03 A3010 860 81 -700 240/07 RMK AO2 SLP215 T10061033
14926KSTC STC20041128105510011/28/04 10:55:31  5-MIN KSTC 281655Z AUTO 25007KT 10SM CLR M01/M04 A3009 870 78 -700 250/07 RMK AO2
14926KSTC STC20041128110010011/28/04 11:00:31  5-MIN KSTC 281700Z AUTO 23007KT 10SM CLR M01/M03 A3009 870 81 -700 230/07 RMK AO2
14926KSTC STC20041128110510011/28/04 11:05:31  5-MIN KSTC 281705Z AUTO 24005KT 10SM CLR M01/M03 A3009 870 81 -700 240/05 RMK AO2
14926KSTC STC20041128111009911/28/04 11:10:31  5-MIN KSTC 281710Z AUTO 25005KT 10SM CLR 00/M04 A3009 870 75 -700 240/05 RMK AO2
14926KSTC STC20041128111509911/28/04 11:15:31  5-MIN KSTC 281715Z AUTO 25006KT 10SM CLR 00/M03 A3009 870 78 -700 240/06 RMK AO2
14926KSTC STC20041128112009911/28/04 11:20:31  5-MIN KSTC 281720Z AUTO 24006KT 10SM CLR 00/M03 A3009 870 78 -700 230/06 RMK AO2
14926KSTC STC20041128112509911/28/04 11:25:31  5-MIN KSTC 281725Z AUTO 23006KT 10SM CLR 01/M03 A3009 870 75 -600 220/06 RMK AO2
14926KSTC STC20041128113009911/28/04 11:30:31  5-MIN KSTC 281730Z AUTO 23005KT 10SM CLR 01/M03 A3009 870 75 -600 230/05 RMK AO2
14926KSTC STC20041128113509911/28/04 11:35:31  5-MIN KSTC 281735Z AUTO 25004KT 10SM CLR 01/M03 A3009 870 72 -500 250/04 RMK AO2
14926KSTC STC20041128114009911/28/04 11:40:31  5-MIN KSTC 281740Z AUTO 28005KT 10SM CLR 01/M03 A3009 870 72 -500 280/05 RMK AO2
14926KSTC STC20041128114509911/28/04 11:45:31  5-MIN KSTC 281745Z AUTO 26006KT 10SM CLR 02/M03 A3009 870 69 -500 260/06 RMK AO2
14926KSTC STC20041128115013411/28/04 11:50:31  5-MIN KSTC 281750Z AUTO 26007KT 10SM CLR 02/M03 A3009 870 69 -500 250/07 RMK AO2 SLP212 T00171033 10017 21094 51017
14926KSTC STC20041128115509911/28/04 11:55:31  5-MIN KSTC 281755Z AUTO 26008KT 10SM CLR 02/M03 A3009 870 69 -500 260/08 RMK AO2
14926KSTC STC20041128120009911/28/04 12:00:31  5-MIN KSTC 281800Z AUTO 25006KT 10SM CLR 02/M03 A3009 870 69 -500 250/06 RMK AO2
14926KSTC STC20041128120509911/28/04 12:05:31  5-MIN KSTC 281805Z AUTO 26007KT 10SM CLR 02/M03 A3009 870 67 -400 260/07 RMK AO2
14926KSTC STC20041128121009911/28/04 12:10:31  5-MIN KSTC 281810Z AUTO 28007KT 10SM CLR 02/M03 A3009 870 67 -400 280/07 RMK AO2
14926KSTC STC20041128121509911/28/04 12:15:31  5-MIN KSTC 281815Z AUTO 26007KT 10SM CLR 02/M03 A3009 870 69 -400 260/07 RMK AO2
14926KSTC STC20041128122009911/28/04 12:20:31  5-MIN KSTC 281820Z AUTO 23007KT 10SM CLR 02/M03 A3009 870 69 -400 230/07 RMK AO2
14926KSTC STC20041128122509911/28/04 12:25:31  5-MIN KSTC 281825Z AUTO 24006KT 10SM CLR 02/M03 A3009 870 69 -400 240/06 RMK AO2
14926KSTC STC20041128123009911/28/04 12:30:31  5-MIN KSTC 281830Z AUTO 26009KT 10SM CLR 03/M03 A3009 870 67 -300 260/09 RMK AO2
14926KSTC STC20041128123509911/28/04 12:35:31  5-MIN KSTC 281835Z AUTO 26007KT 10SM CLR 03/M03 A3009 870 64 -300 250/07 RMK AO2
14926KSTC STC20041128124009911/28/04 12:40:31  5-MIN KSTC 281840Z AUTO 26008KT 10SM CLR 03/M03 A3009 870 67 -300 260/08 RMK AO2
14926KSTC STC20041128124509911/28/04 12:45:31  5-MIN KSTC 281845Z AUTO 25008KT 10SM CLR 03/M03 A3009 870 64 -300 250/08 RMK AO2
14926KSTC STC20041128125011611/28/04 12:50:31  5-MIN KSTC 281850Z AUTO 24008KT 10SM CLR 03/M03 A3010 860 64 -300 240/08 RMK AO2 SLP213 T00281033
14926KSTC STC20041128125509911/28/04 12:55:31  5-MIN KSTC 281855Z AUTO 26008KT 10SM CLR 03/M03 A3010 860 67 -300 250/08 RMK AO2
14926KSTC STC20041128130009911/28/04 13:00:31  5-MIN KSTC 281900Z AUTO 27010KT 10SM CLR 03/M03 A3010 860 64 -300 260/10 RMK AO2
14926KSTC STC20041128130509911/28/04 13:05:31  5-MIN KSTC 281905Z AUTO 27007KT 10SM CLR 03/M03 A3010 860 64 -300 270/07 RMK AO2
14926KSTC STC20041128131009911/28/04 13:10:31  5-MIN KSTC 281910Z AUTO 27009KT 10SM CLR 03/M03 A3010 860 64 -300 270/09 RMK AO2
14926KSTC STC20041128131509911/28/04 13:15:31  5-MIN KSTC 281915Z AUTO 28010KT 10SM CLR 03/M03 A3010 860 64 -300 280/10 RMK AO2
14926KSTC STC20041128132009911/28/04 13:20:31  5-MIN KSTC 281920Z AUTO 28010KT 10SM CLR 03/M03 A3010 860 64 -300 280/10 RMK AO2
14926KSTC STC20041128132509911/28/04 13:25:31  5-MIN KSTC 281925Z AUTO 28008KT 10SM CLR 03/M04 A3010 860 61 -300 270/08 RMK AO2
14926KSTC STC20041128133009911/28/04 13:30:31  5-MIN KSTC 281930Z AUTO 27008KT 10SM CLR 03/M03 A3009 870 64 -300 270/08 RMK AO2
14926KSTC STC20041128133509911/28/04 13:35:31  5-MIN KSTC 281935Z AUTO 27010KT 10SM CLR 03/M03 A3009 870 64 -300 270/10 RMK AO2
14926KSTC STC20041128134009911/28/04 13:40:31  5-MIN KSTC 281940Z AUTO 27009KT 10SM CLR 03/M04 A3009 870 61 -300 270/09 RMK AO2
14926KSTC STC20041128134509911/28/04 13:45:31  5-MIN KSTC 281945Z AUTO 27009KT 10SM CLR 03/M04 A3010 870 61 -300 270/09 RMK AO2
14926KSTC STC20041128135011611/28/04 13:50:31  5-MIN KSTC 281950Z AUTO 27009KT 10SM CLR 03/M03 A3009 870 64 -300 260/09 RMK AO2 SLP213 T00281033
14926KSTC STC20041128135509911/28/04 13:55:31  5-MIN KSTC 281955Z AUTO 27009KT 10SM CLR 03/M03 A3009 870 64 -300 270/09 RMK AO2
14926KSTC STC20041128140009911/28/04 14:00:31  5-MIN KSTC 282000Z AUTO 26008KT 10SM CLR 02/M03 A3009 870 67 -400 260/08 RMK AO2
14926KSTC STC20041128140509911/28/04 14:05:31  5-MIN KSTC 282005Z AUTO 26007KT 10SM CLR 02/M03 A3009 870 69 -400 260/07 RMK AO2
14926KSTC STC20041128141009911/28/04 14:10:31  5-MIN KSTC 282010Z AUTO 26008KT 10SM CLR 02/M03 A3010 860 69 -400 260/08 RMK AO2
14926KSTC STC20041128141509911/28/04 14:15:31  5-MIN KSTC 282015Z AUTO 27008KT 10SM CLR 02/M03 A3010 860 69 -400 260/08 RMK AO2
14926KSTC STC20041128142009911/28/04 14:20:31  5-MIN KSTC 282020Z AUTO 27008KT 10SM CLR 02/M03 A3010 860 69 -400 270/08 RMK AO2
14926KSTC STC20041128142509911/28/04 14:25:31  5-MIN KSTC 282025Z AUTO 26008KT 10SM CLR 02/M03 A3010 860 69 -400 260/08 RMK AO2
14926KSTC STC20041128143009911/28/04 14:30:31  5-MIN KSTC 282030Z AUTO 29008KT 10SM CLR 02/M03 A3010 860 69 -400 290/08 RMK AO2
14926KSTC STC20041128143509911/28/04 14:35:31  5-MIN KSTC 282035Z AUTO 28006KT 10SM CLR 02/M03 A3010 860 67 -400 280/06 RMK AO2
14926KSTC STC20041128144009911/28/04 14:40:31  5-MIN KSTC 282040Z AUTO 27006KT 10SM CLR 02/M03 A3010 860 69 -400 260/06 RMK AO2
14926KSTC STC20041128144509911/28/04 14:45:31  5-MIN KSTC 282045Z AUTO 26005KT 10SM CLR 02/M03 A3010 860 69 -400 250/05 RMK AO2
14926KSTC STC20041128145012211/28/04 14:50:31  5-MIN KSTC 282050Z AUTO 26006KT 10SM CLR 02/M02 A3010 860 75 -500 260/06 RMK AO2 SLP216 T00171022 50015
14926KSTC STC20041128145509911/28/04 14:55:31  5-MIN KSTC 282055Z AUTO 25006KT 10SM CLR 02/M03 A3010 860 72 -500 250/06 RMK AO2
14926KSTC STC20041128150009911/28/04 15:00:31  5-MIN KSTC 282100Z AUTO 25006KT 10SM CLR 02/M02 A3011 860 75 -500 250/06 RMK AO2
14926KSTC STC20041128150509911/28/04 15:05:31  5-MIN KSTC 282105Z AUTO 25007KT 10SM CLR 02/M02 A3011 850 75 -500 250/07 RMK AO2
14926KSTC STC20041128151009911/28/04 15:10:31  5-MIN KSTC 282110Z AUTO 24007KT 10SM CLR 02/M02 A3011 850 75 -500 240/07 RMK AO2
14926KSTC STC20041128151509911/28/04 15:15:31  5-MIN KSTC 282115Z AUTO 24006KT 10SM CLR 02/M03 A3011 850 72 -500 240/06 RMK AO2
14926KSTC STC20041128152009911/28/04 15:20:31  5-MIN KSTC 282120Z AUTO 24006KT 10SM CLR 01/M02 A3011 850 78 -500 240/06 RMK AO2
14926KSTC STC20041128152509911/28/04 15:25:31  5-MIN KSTC 282125Z AUTO 24006KT 10SM CLR 01/M03 A3011 850 75 -500 230/06 RMK AO2
14926KSTC STC20041128153009911/28/04 15:30:31  5-MIN KSTC 282130Z AUTO 24006KT 10SM CLR 01/M03 A3011 850 75 -500 240/06 RMK AO2
14926KSTC STC20041128153509911/28/04 15:35:31  5-MIN KSTC 282135Z AUTO 24006KT 10SM CLR 01/M03 A3011 850 75 -500 240/06 RMK AO2
14926KSTC STC20041128154009911/28/04 15:40:31  5-MIN KSTC 282140Z AUTO 24005KT 10SM CLR 01/M03 A3011 850 75 -500 240/05 RMK AO2
14926KSTC STC20041128154509911/28/04 15:45:31  5-MIN KSTC 282145Z AUTO 23004KT 10SM CLR 01/M03 A3011 850 75 -500 230/04 RMK AO2
14926KSTC STC20041128155011611/28/04 15:50:31  5-MIN KSTC 282150Z AUTO 24005KT 10SM CLR 01/M03 A3011 850 75 -500 230/05 RMK AO2 SLP220 T00111028
14926KSTC STC20041128155509911/28/04 15:55:31  5-MIN KSTC 282155Z AUTO 24005KT 10SM CLR 01/M03 A3011 850 75 -500 240/05 RMK AO2
14926KSTC STC20041128160009911/28/04 16:00:31  5-MIN KSTC 282200Z AUTO 23004KT 10SM CLR 01/M03 A3011 850 78 -600 230/04 RMK AO2
14926KSTC STC20041128160509911/28/04 16:05:31  5-MIN KSTC 282205Z AUTO 23003KT 10SM CLR 01/M03 A3011 850 78 -600 230/03 RMK AO2
14926KSTC STC20041128161009911/28/04 16:10:31  5-MIN KSTC 282210Z AUTO 23004KT 10SM CLR 01/M03 A3011 850 78 -600 230/04 RMK AO2
14926KSTC STC20041128161509911/28/04 16:15:31  5-MIN KSTC 282215Z AUTO 23004KT 10SM CLR 00/M03 A3011 850 81 -700 230/04 RMK AO2
14926KSTC STC20041128162009911/28/04 16:20:31  5-MIN KSTC 282220Z AUTO 24005KT 10SM CLR 01/M03 A3011 850 78 -600 230/05 RMK AO2
14926KSTC STC20041128162509911/28/04 16:25:31  5-MIN KSTC 282225Z AUTO 23005KT 10SM CLR 01/M03 A3012 850 78 -600 230/05 RMK AO2
14926KSTC STC20041128163009911/28/04 16:30:31  5-MIN KSTC 282230Z AUTO 23005KT 10SM CLR 00/M03 A3012 840 81 -700 230/05 RMK AO2
14926KSTC STC20041128163509911/28/04 16:35:31  5-MIN KSTC 282235Z AUTO 23005KT 10SM CLR 00/M03 A3012 840 81 -700 230/05 RMK AO2
14926KSTC STC20041128164009911/28/04 16:40:31  5-MIN KSTC 282240Z AUTO 23005KT 10SM CLR 00/M03 A3012 840 81 -700 220/05 RMK AO2
14926KSTC STC20041128164509911/28/04 16:45:31  5-MIN KSTC 282245Z AUTO 22005KT 10SM CLR 00/M03 A3012 840 81 -700 220/05 RMK AO2
14926KSTC STC20041128165011611/28/04 16:50:31  5-MIN KSTC 282250Z AUTO 22005KT 10SM CLR 00/M03 A3012 840 81 -700 220/05 RMK AO2 SLP224 T00001028
14926KSTC STC20041128165509911/28/04 16:55:31  5-MIN KSTC 282255Z AUTO 23005KT 10SM CLR 00/M03 A3012 840 81 -700 220/05 RMK AO2
14926KSTC STC20041128170009911/28/04 17:00:31  5-MIN KSTC 282300Z AUTO 23005KT 10SM CLR 00/M03 A3012 840 81 -700 220/05 RMK AO2
14926KSTC STC20041128170509911/28/04 17:05:31  5-MIN KSTC 282305Z AUTO 23005KT 10SM CLR 00/M03 A3012 840 81 -700 230/05 RMK AO2
14926KSTC STC20041128171009911/28/04 17:10:31  5-MIN KSTC 282310Z AUTO 23005KT 10SM CLR 00/M03 A3012 840 81 -700 230/05 RMK AO2
14926KSTC STC20041128171509911/28/04 17:15:31  5-MIN KSTC 282315Z AUTO 24005KT 10SM CLR 00/M03 A3013 840 81 -700 230/05 RMK AO2
14926KSTC STC20041128172009911/28/04 17:20:31  5-MIN KSTC 282320Z AUTO 24006KT 10SM CLR 00/M03 A3013 830 81 -700 240/06 RMK AO2
14926KSTC STC20041128172509911/28/04 17:25:31  5-MIN KSTC 282325Z AUTO 24006KT 10SM CLR 00/M03 A3013 830 81 -700 240/06 RMK AO2
14926KSTC STC20041128173009911/28/04 17:30:31  5-MIN KSTC 282330Z AUTO 25006KT 10SM CLR 00/M03 A3013 840 81 -700 240/06 RMK AO2
14926KSTC STC20041128173510011/28/04 17:35:31  5-MIN KSTC 282335Z AUTO 24005KT 10SM CLR M01/M03 A3013 840 85 -800 230/05 RMK AO2
14926KSTC STC20041128174009911/28/04 17:40:31  5-MIN KSTC 282340Z AUTO 23005KT 10SM CLR 00/M03 A3013 830 78 -700 230/05 RMK AO2
14926KSTC STC20041128174510011/28/04 17:45:31  5-MIN KSTC 282345Z AUTO 23005KT 10SM CLR M01/M03 A3013 830 81 -800 230/05 RMK AO2
14926KSTC STC20041128175013511/28/04 17:50:31  5-MIN KSTC 282350Z AUTO 24005KT 10SM CLR M01/M03 A3013 830 81 -800 230/05 RMK AO2 SLP227 T10061033 10028 21006 53003
14926KSTC STC20041128175510011/28/04 17:55:31  5-MIN KSTC 282355Z AUTO 24006KT 10SM CLR M01/M03 A3013 830 81 -800 240/06 RMK AO2
14926KSTC STC20041128180010011/28/04 18:00:31  5-MIN KSTC 290000Z AUTO 24006KT 10SM CLR M01/M03 A3013 830 81 -800 240/06 RMK AO2
14926KSTC STC20041128180510011/28/04 18:05:31  5-MIN KSTC 290005Z AUTO 24006KT 10SM CLR M01/M03 A3013 830 81 -800 230/06 RMK AO2
14926KSTC STC20041128181010011/28/04 18:10:31  5-MIN KSTC 290010Z AUTO 23006KT 10SM CLR M01/M03 A3013 830 81 -800 230/06 RMK AO2
14926KSTC STC20041128181510011/28/04 18:15:31  5-MIN KSTC 290015Z AUTO 24006KT 10SM CLR M01/M03 A3013 830 81 -800 240/06 RMK AO2
14926KSTC STC20041128182010011/28/04 18:20:31  5-MIN KSTC 290020Z AUTO 25005KT 10SM CLR M01/M03 A3013 830 81 -800 240/05 RMK AO2
14926KSTC STC20041128182510011/28/04 18:25:31  5-MIN KSTC 290025Z AUTO 24006KT 10SM CLR M01/M03 A3013 830 81 -800 240/06 RMK AO2
14926KSTC STC20041128183010011/28/04 18:30:31  5-MIN KSTC 290030Z AUTO 25006KT 10SM CLR M01/M03 A3013 830 81 -800 250/06 RMK AO2
14926KSTC STC20041128183510011/28/04 18:35:31  5-MIN KSTC 290035Z AUTO 25006KT 10SM CLR M01/M03 A3013 830 81 -800 240/06 RMK AO2
14926KSTC STC20041128184010011/28/04 18:40:31  5-MIN KSTC 290040Z AUTO 25006KT 10SM CLR M01/M03 A3014 830 85 -900 240/06 RMK AO2
14926KSTC STC20041128184510011/28/04 18:45:31  5-MIN KSTC 290045Z AUTO 24005KT 10SM CLR M01/M03 A3014 830 85 -900 240/05 RMK AO2
14926KSTC STC20041128185011711/28/04 18:50:31  5-MIN KSTC 290050Z AUTO 24005KT 10SM CLR M01/M03 A3014 820 85 -900 240/05 RMK AO2 SLP231 T10111033
14926KSTC STC20041128185510011/28/04 18:55:31  5-MIN KSTC 290055Z AUTO 24006KT 10SM CLR M01/M03 A3014 820 85 -900 240/06 RMK AO2
14926KSTC STC20041128190010011/28/04 19:00:31  5-MIN KSTC 290100Z AUTO 25005KT 10SM CLR M01/M03 A3014 820 85 -900 250/05 RMK AO2
14926KSTC STC20041128190510011/28/04 19:05:31  5-MIN KSTC 290105Z AUTO 25006KT 10SM CLR M01/M03 A3015 820 85 -900 250/06 RMK AO2
14926KSTC STC20041128191010011/28/04 19:10:31  5-MIN KSTC 290110Z AUTO 25006KT 10SM CLR M01/M03 A3015 820 85 -900 250/06 RMK AO2
14926KSTC STC20041128191510011/28/04 19:15:31  5-MIN KSTC 290115Z AUTO 25006KT 10SM CLR M01/M03 A3015 820 85 -900 240/06 RMK AO2
14926KSTC STC20041128192010011/28/04 19:20:31  5-MIN KSTC 290120Z AUTO 25005KT 10SM CLR M01/M03 A3015 820 88 -900 240/05 RMK AO2
14926KSTC STC20041128192510011/28/04 19:25:31  5-MIN KSTC 290125Z AUTO 24006KT 10SM CLR M01/M03 A3015 820 85 -900 240/06 RMK AO2
14926KSTC STC20041128193010011/28/04 19:30:31  5-MIN KSTC 290130Z AUTO 25006KT 10SM CLR M01/M03 A3015 810 88 -900 240/06 RMK AO2
14926KSTC STC20041128193510011/28/04 19:35:31  5-MIN KSTC 290135Z AUTO 25006KT 10SM CLR M01/M03 A3015 810 88 -900 250/06 RMK AO2
14926KSTC STC20041128194010011/28/04 19:40:31  5-MIN KSTC 290140Z AUTO 25006KT 10SM CLR M01/M03 A3015 810 88 -900 250/06 RMK AO2
14926KSTC STC20041128194510011/28/04 19:45:31  5-MIN KSTC 290145Z AUTO 25006KT 10SM CLR M01/M03 A3016 810 88 -900 250/06 RMK AO2
14926KSTC STC20041128195011711/28/04 19:50:31  5-MIN KSTC 290150Z AUTO 25006KT 10SM CLR M01/M03 A3016 810 88 -900 250/06 RMK AO2 SLP237 T10111028
14926KSTC STC20041128195510011/28/04 19:55:31  5-MIN KSTC 290155Z AUTO 26006KT 10SM CLR M01/M03 A3016 810 88 -900 260/06 RMK AO2
14926KSTC STC20041128200010011/28/04 20:00:31  5-MIN KSTC 290200Z AUTO 27006KT 10SM CLR M01/M03 A3016 810 88 -900 260/06 RMK AO2
14926KSTC STC20041128200510011/28/04 20:05:31  5-MIN KSTC 290205Z AUTO 27006KT 10SM CLR M01/M03 A3016 810 88 -900 270/06 RMK AO2
14926KSTC STC20041128201010011/28/04 20:10:31  5-MIN KSTC 290210Z AUTO 27006KT 10SM CLR M01/M03 A3016 810 88 -900 270/06 RMK AO2
14926KSTC STC20041128201510011/28/04 20:15:31  5-MIN KSTC 290215Z AUTO 27006KT 10SM CLR M01/M03 A3016 810 88 -900 270/06 RMK AO2
14926KSTC STC20041128202010011/28/04 20:20:31  5-MIN KSTC 290220Z AUTO 26006KT 10SM CLR M01/M03 A3016 800 88 -900 260/06 RMK AO2
14926KSTC STC20041128202510011/28/04 20:25:31  5-MIN KSTC 290225Z AUTO 26006KT 10SM CLR M01/M03 A3017 800 88 -900 260/06 RMK AO2
14926KSTC STC20041128203010011/28/04 20:30:31  5-MIN KSTC 290230Z AUTO 26006KT 10SM CLR M01/M03 A3017 800 88 -900 260/06 RMK AO2
14926KSTC STC20041128203510011/28/04 20:35:31  5-MIN KSTC 290235Z AUTO 27006KT 10SM CLR M01/M03 A3017 800 88 -900 270/06 RMK AO2
14926KSTC STC20041128204010011/28/04 20:40:31  5-MIN KSTC 290240Z AUTO 28005KT 10SM CLR M01/M03 A3017 790 88 -900 280/05 RMK AO2
14926KSTC STC20041128204510011/28/04 20:45:31  5-MIN KSTC 290245Z AUTO 29005KT 10SM CLR M01/M03 A3017 790 88 -900 280/05 RMK AO2
14926KSTC STC20041128205012311/28/04 20:50:31  5-MIN KSTC 290250Z AUTO 29006KT 10SM CLR M01/M03 A3017 790 88 -900 280/06 RMK AO2 SLP242 T10111028 51009
14926KSTC STC20041128205510011/28/04 20:55:31  5-MIN KSTC 290255Z AUTO 29007KT 10SM CLR M01/M03 A3017 790 88 -900 280/07 RMK AO2
14926KSTC STC20041128210010011/28/04 21:00:31  5-MIN KSTC 290300Z AUTO 29006KT 10SM CLR M01/M03 A3017 790 88 -900 290/06 RMK AO2
14926KSTC STC20041128210510011/28/04 21:05:31  5-MIN KSTC 290305Z AUTO 30007KT 10SM CLR M01/M03 A3017 790 88 -900 290/07 RMK AO2
14926KSTC STC20041128211010011/28/04 21:10:31  5-MIN KSTC 290310Z AUTO 30007KT 10SM CLR M01/M03 A3017 790 88 -900 300/07 RMK AO2
14926KSTC STC20041128211510011/28/04 21:15:31  5-MIN KSTC 290315Z AUTO 30007KT 10SM CLR M01/M03 A3018 790 88 -900 300/07 RMK AO2
14926KSTC STC20041128212010011/28/04 21:20:31  5-MIN KSTC 290320Z AUTO 30009KT 10SM CLR M01/M03 A3018 790 88 -900 300/09 RMK AO2
14926KSTC STC20041128212510311/28/04 21:25:31  5-MIN KSTC 290325Z AUTO 30009KT 10SM FEW017 M01/M03 A3018 780 88 -900 290/09 RMK AO2
14926KSTC STC20041128213010311/28/04 21:30:31  5-MIN KSTC 290330Z AUTO 30008KT 10SM SCT017 M01/M03 A3018 780 88 -900 290/08 RMK AO2
14926KSTC STC20041128213510311/28/04 21:35:31  5-MIN KSTC 290335Z AUTO 31008KT 10SM BKN017 M01/M03 A3018 780 88 -900 300/08 RMK AO2
14926KSTC STC20041128214010311/28/04 21:40:31  5-MIN KSTC 290340Z AUTO 31008KT 10SM BKN017 M01/M03 A3019 780 88 -900 310/08 RMK AO2
14926KSTC STC20041128214510311/28/04 21:45:31  5-MIN KSTC 290345Z AUTO 32010KT 10SM BKN015 M01/M03 A3019 780 85 -900 320/10 RMK AO2
14926KSTC STC20041128215012011/28/04 21:50:31  5-MIN KSTC 290350Z AUTO 32010KT 10SM OVC015 M01/M04 A3019 780 81 -900 320/10 RMK AO2 SLP246 T10111039
14926KSTC STC20041128215510311/28/04 21:55:31  5-MIN KSTC 290355Z AUTO 33009KT 10SM OVC015 M01/M04 A3019 770 81 -900 320/09 RMK AO2
14926KSTC STC20041128220010411/28/04 22:00:31  5-MIN KSTC 290400Z AUTO 32010KT 10SM OVC015 M02/M04 A3019 770 85 -1000 310/10 RMK AO2
14926KSTC STC20041128220510411/28/04 22:05:31  5-MIN KSTC 290405Z AUTO 32009KT 10SM OVC015 M02/M04 A3020 770 81 -1000 320/09 RMK AO2
14926KSTC STC20041128221010411/28/04 22:10:31  5-MIN KSTC 290410Z AUTO 32010KT 10SM OVC015 M02/M04 A3020 770 81 -1000 320/10 RMK AO2
14926KSTC STC20041128221511111/28/04 22:15:31  5-MIN KSTC 290415Z AUTO 32008KT 10SM BKN015 OVC021 M02/M05 A3020 770 78 -1000 320/08 RMK AO2
14926KSTC STC20041128222010411/28/04 22:20:31  5-MIN KSTC 290420Z AUTO 31007KT 10SM OVC019 M02/M04 A3020 770 81 -1000 310/07 RMK AO2
14926KSTC STC20041128222510411/28/04 22:25:31  5-MIN KSTC 290425Z AUTO 31010KT 10SM OVC021 M02/M04 A3021 760 81 -1000 300/10 RMK AO2
14926KSTC STC20041128223010411/28/04 22:30:31  5-MIN KSTC 290430Z AUTO 31010KT 10SM OVC021 M02/M04 A3021 760 85 -1100 310/10 RMK AO2
14926KSTC STC20041128223510411/28/04 22:35:31  5-MIN KSTC 290435Z AUTO 31008KT 10SM OVC021 M02/M04 A3021 760 85 -1100 310/08 RMK AO2
14926KSTC STC20041128224010411/28/04 22:40:31  5-MIN KSTC 290440Z AUTO 31009KT 10SM OVC021 M02/M04 A3021 760 85 -1100 310/09 RMK AO2
14926KSTC STC20041128224510411/28/04 22:45:31  5-MIN KSTC 290445Z AUTO 31007KT 10SM OVC021 M02/M04 A3022 750 85 -1100 300/07 RMK AO2
14926KSTC STC20041128225012111/28/04 22:50:31  5-MIN KSTC 290450Z AUTO 31009KT 10SM OVC021 M02/M04 A3021 760 85 -1100 310/09 RMK AO2 SLP254 T10221044
14926KSTC STC20041128225510411/28/04 22:55:31  5-MIN KSTC 290455Z AUTO 31008KT 10SM OVC021 M02/M05 A3022 750 81 -1100 310/08 RMK AO2
14926KSTC STC20041128230010411/28/04 23:00:31  5-MIN KSTC 290500Z AUTO 31007KT 10SM OVC021 M02/M04 A3022 750 85 -1100 310/07 RMK AO2
14926KSTC STC20041128230510411/28/04 23:05:31  5-MIN KSTC 290505Z AUTO 30007KT 10SM OVC021 M02/M04 A3022 750 85 -1100 300/07 RMK AO2
14926KSTC STC20041128231010411/28/04 23:10:31  5-MIN KSTC 290510Z AUTO 30007KT 10SM OVC023 M02/M05 A3022 750 81 -1100 300/07 RMK AO2
14926KSTC STC20041128231510411/28/04 23:15:31  5-MIN KSTC 290515Z AUTO 30008KT 10SM OVC023 M02/M05 A3022 750 81 -1100 300/08 RMK AO2
14926KSTC STC20041128232010411/28/04 23:20:31  5-MIN KSTC 290520Z AUTO 30006KT 10SM OVC023 M02/M04 A3022 750 85 -1100 300/06 RMK AO2
14926KSTC STC20041128232510411/28/04 23:25:31  5-MIN KSTC 290525Z AUTO 30006KT 10SM OVC023 M02/M04 A3022 750 85 -1100 300/06 RMK AO2
14926KSTC STC20041128233010411/28/04 23:30:31  5-MIN KSTC 290530Z AUTO 31007KT 10SM OVC023 M02/M04 A3022 750 85 -1100 310/07 RMK AO2
14926KSTC STC20041128233510411/28/04 23:35:31  5-MIN KSTC 290535Z AUTO 31007KT 10SM OVC023 M02/M05 A3022 750 81 -1100 300/07 RMK AO2
14926KSTC STC20041128234010411/28/04 23:40:31  5-MIN KSTC 290540Z AUTO 31007KT 10SM OVC023 M02/M05 A3022 750 81 -1100 300/07 RMK AO2
14926KSTC STC20041128234510311/28/04 23:45:31  5-MIN KSTC 290545Z AUTO 31006KT 9SM OVC025 M02/M04 A3022 750 85 -1100 310/06 RMK AO2
14926KSTC STC20041128235014811/28/04 23:50:31  5-MIN KSTC 290550Z AUTO 31008KT 9SM OVC025 M02/M05 A3022 750 81 -1100 310/08 RMK AO2 SLP255 T10221050 11006 21022 400281094 53015
14926KSTC STC20041128235510311/28/04 23:55:31  5-MIN KSTC 290555Z AUTO 31008KT 9SM OVC025 M02/M05 A3022 750 81 -1100 310/08 RMK AO2
14926KSTC STC20041129000010311/29/04 00:00:32  5-MIN KSTC 290600Z AUTO 31009KT 9SM OVC025 M02/M05 A3022 750 81 -1100 310/09 RMK AO2
14926KSTC STC20041129000510411/29/04 00:05:31  5-MIN KSTC 290605Z AUTO 31008KT 10SM OVC025 M02/M05 A3022 750 81 -1100 310/08 RMK AO2
14926KSTC STC20041129001010311/29/04 00:10:31  5-MIN KSTC 290610Z AUTO 31008KT 9SM OVC025 M02/M05 A3023 750 81 -1100 310/08 RMK AO2
14926KSTC STC20041129001510411/29/04 00:15:31  5-MIN KSTC 290615Z AUTO 31010KT 10SM OVC025 M02/M05 A3023 740 81 -1100 310/10 RMK AO2
14926KSTC STC20041129002010411/29/04 00:20:31  5-MIN KSTC 290620Z AUTO 31009KT 10SM OVC025 M02/M05 A3023 750 81 -1100 310/09 RMK AO2
14926KSTC STC20041129002510411/29/04 00:25:31  5-MIN KSTC 290625Z AUTO 31010KT 10SM OVC025 M02/M05 A3022 750 81 -1100 310/10 RMK AO2
14926KSTC STC20041129003010311/29/04 00:30:31  5-MIN KSTC 290630Z AUTO 31008KT 9SM OVC025 M02/M05 A3022 750 81 -1100 310/08 RMK AO2
14926KSTC STC20041129003510311/29/04 00:35:31  5-MIN KSTC 290635Z AUTO 31011KT 9SM OVC025 M02/M05 A3023 750 81 -1100 310/11 RMK AO2
14926KSTC STC20041129004010411/29/04 00:40:31  5-MIN KSTC 290640Z AUTO 31012KT 10SM OVC025 M03/M05 A3023 750 85 -1200 310/12 RMK AO2
14926KSTC STC20041129004511111/29/04 00:45:31  5-MIN KSTC 290645Z AUTO 32010KT 10SM FEW014 OVC025 M03/M06 A3023 740 78 -1200 320/10 RMK AO2
14926KSTC STC20041129005012111/29/04 00:50:31  5-MIN KSTC 290650Z AUTO 32013KT 10SM OVC025 M03/M07 A3023 740 75 -1200 310/13 RMK AO2 SLP257 T10281067
14926KSTC STC20041129005510411/29/04 00:55:31  5-MIN KSTC 290655Z AUTO 32012KT 10SM OVC025 M03/M07 A3023 750 75 -1200 320/12 RMK AO2
14926KSTC STC20041129010010411/29/04 01:00:31  5-MIN KSTC 290700Z AUTO 33009KT 10SM OVC025 M03/M07 A3023 750 75 -1200 320/09 RMK AO2
14926KSTC STC20041129010510411/29/04 01:05:31  5-MIN KSTC 290705Z AUTO 32008KT 10SM OVC025 M03/M07 A3023 740 75 -1200 320/08 RMK AO2
14926KSTC STC20041129011010411/29/04 01:10:31  5-MIN KSTC 290710Z AUTO 32009KT 10SM OVC025 M03/M07 A3023 740 75 -1200 320/09 RMK AO2
14926KSTC STC20041129011510411/29/04 01:15:31  5-MIN KSTC 290715Z AUTO 31012KT 10SM OVC025 M03/M07 A3023 750 78 -1200 310/12 RMK AO2
14926KSTC STC20041129012010411/29/04 01:20:31  5-MIN KSTC 290720Z AUTO 32011KT 10SM OVC025 M03/M07 A3023 740 78 -1200 310/11 RMK AO2
14926KSTC STC20041129012510411/29/04 01:25:31  5-MIN KSTC 290725Z AUTO 32013KT 10SM OVC023 M03/M07 A3023 740 74 -1200 310/13 RMK AO2
14926KSTC STC20041129013010411/29/04 01:30:31  5-MIN KSTC 290730Z AUTO 32012KT 10SM OVC023 M03/M07 A3023 740 74 -1200 310/12 RMK AO2
14926KSTC STC20041129013510411/29/04 01:35:31  5-MIN KSTC 290735Z AUTO 32012KT 10SM OVC023 M03/M08 A3023 740 71 -1200 310/12 RMK AO2
14926KSTC STC20041129014010411/29/04 01:40:31  5-MIN KSTC 290740Z AUTO 32012KT 10SM OVC023 M03/M07 A3023 740 74 -1200 320/12 RMK AO2
14926KSTC STC20041129014510411/29/04 01:45:31  5-MIN KSTC 290745Z AUTO 32012KT 10SM OVC023 M03/M08 A3023 740 71 -1200 310/12 RMK AO2
14926KSTC STC20041129015012111/29/04 01:50:31  5-MIN KSTC 290750Z AUTO 32012KT 10SM OVC023 M03/M08 A3023 740 71 -1200 320/12 RMK AO2 SLP259 T10331078
14926KSTC STC20041129015510411/29/04 01:55:31  5-MIN KSTC 290755Z AUTO 32013KT 10SM OVC023 M03/M07 A3024 740 74 -1300 310/13 RMK AO2
14926KSTC STC20041129020010411/29/04 02:00:31  5-MIN KSTC 290800Z AUTO 31012KT 10SM OVC023 M04/M08 A3024 730 74 -1300 310/12 RMK AO2
14926KSTC STC20041129020510411/29/04 02:05:31  5-MIN KSTC 290805Z AUTO 31011KT 10SM OVC023 M04/M08 A3024 740 74 -1300 310/11 RMK AO2
14926KSTC STC20041129021010411/29/04 02:10:31  5-MIN KSTC 290810Z AUTO 31011KT 10SM OVC023 M04/M08 A3024 730 74 -1300 310/11 RMK AO2
14926KSTC STC20041129021510411/29/04 02:15:31  5-MIN KSTC 290815Z AUTO 31012KT 10SM OVC023 M04/M08 A3024 730 74 -1300 310/12 RMK AO2
14926KSTC STC20041129022010411/29/04 02:20:31  5-MIN KSTC 290820Z AUTO 31013KT 10SM OVC023 M04/M08 A3024 730 74 -1300 310/13 RMK AO2
14926KSTC STC20041129022510411/29/04 02:25:31  5-MIN KSTC 290825Z AUTO 31011KT 10SM OVC023 M04/M09 A3025 720 68 -1300 310/11 RMK AO2
14926KSTC STC20041129023010411/29/04 02:30:31  5-MIN KSTC 290830Z AUTO 31010KT 10SM BKN025 M04/M09 A3025 720 71 -1400 310/10 RMK AO2
14926KSTC STC20041129023510411/29/04 02:35:31  5-MIN KSTC 290835Z AUTO 31008KT 10SM BKN025 M04/M09 A3025 720 71 -1400 310/08 RMK AO2
14926KSTC STC20041129024010411/29/04 02:40:31  5-MIN KSTC 290840Z AUTO 30010KT 10SM BKN025 M04/M09 A3025 720 68 -1300 300/10 RMK AO2
14926KSTC STC20041129024510411/29/04 02:45:31  5-MIN KSTC 290845Z AUTO 32009KT 10SM OVC023 M04/M09 A3025 720 68 -1300 310/09 RMK AO2
14926KSTC STC20041129025012711/29/04 02:50:31  5-MIN KSTC 290850Z AUTO 31011KT 10SM OVC023 M04/M09 A3025 720 68 -1400 300/11 RMK AO2 SLP267 T10441094 51016
14926KSTC STC20041129025510411/29/04 02:55:31  5-MIN KSTC 290855Z AUTO 32011KT 10SM OVC023 M04/M09 A3025 720 68 -1400 320/11 RMK AO2
14926KSTC STC20041129030010411/29/04 03:00:31  5-MIN KSTC 290900Z AUTO 32011KT 10SM BKN023 M04/M10 A3025 720 65 -1400 320/11 RMK AO2
14926KSTC STC20041129030510411/29/04 03:05:31  5-MIN KSTC 290905Z AUTO 33011KT 10SM BKN023 M05/M11 A3025 720 65 -1500 330/11 RMK AO2
14926KSTC STC20041129031010411/29/04 03:10:31  5-MIN KSTC 290910Z AUTO 32010KT 10SM BKN023 M05/M11 A3025 720 62 -1500 320/10 RMK AO2
14926KSTC STC20041129031510411/29/04 03:15:31  5-MIN KSTC 290915Z AUTO 32008KT 10SM BKN023 M05/M12 A3025 720 60 -1500 320/08 RMK AO2
14926KSTC STC20041129032010411/29/04 03:20:31  5-MIN KSTC 290920Z AUTO 32007KT 10SM SCT025 M06/M12 A3025 720 62 -1600 320/07 RMK AO2
14926KSTC STC20041129032510411/29/04 03:25:31  5-MIN KSTC 290925Z AUTO 32009KT 10SM FEW025 M06/M12 A3025 720 62 -1600 320/09 RMK AO2
14926KSTC STC20041129033010411/29/04 03:30:31  5-MIN KSTC 290930Z AUTO 32009KT 10SM FEW025 M06/M12 A3025 720 62 -1600 320/09 RMK AO2
14926KSTC STC20041129033510411/29/04 03:35:31  5-MIN KSTC 290935Z AUTO 32008KT 10SM FEW025 M06/M12 A3025 720 62 -1600 320/08 RMK AO2
14926KSTC STC20041129034010111/29/04 03:40:31  5-MIN KSTC 290940Z AUTO 32007KT 10SM CLR M06/M12 A3025 720 65 -1600 320/07 RMK AO2
14926KSTC STC20041129034510111/29/04 03:45:31  5-MIN KSTC 290945Z AUTO 31007KT 10SM CLR M06/M11 A3025 720 68 -1600 310/07 RMK AO2
14926KSTC STC20041129035011811/29/04 03:50:31  5-MIN KSTC 290950Z AUTO 31007KT 10SM CLR M07/M11 A3025 720 71 -1700 310/07 RMK AO2 SLP268 T10671111
14926KSTC STC20041129035510111/29/04 03:55:31  5-MIN KSTC 290955Z AUTO 31007KT 10SM CLR M07/M11 A3025 720 74 -1800 310/07 RMK AO2
14926KSTC STC20041129040010111/29/04 04:00:31  5-MIN KSTC 291000Z AUTO 31007KT 10SM CLR M07/M11 A3025 720 74 -1800 310/07 RMK AO2
14926KSTC STC20041129040510111/29/04 04:05:31  5-MIN KSTC 291005Z AUTO 31007KT 10SM CLR M07/M11 A3026 720 74 -1800 300/07 RMK AO2
14926KSTC STC20041129041010111/29/04 04:10:31  5-MIN KSTC 291010Z AUTO 31006KT 10SM CLR M07/M11 A3026 720 74 -1800 300/06 RMK AO2
14926KSTC STC20041129041510111/29/04 04:15:31  5-MIN KSTC 291015Z AUTO 30006KT 10SM CLR M07/M11 A3026 710 74 -1800 300/06 RMK AO2
14926KSTC STC20041129042010111/29/04 04:20:31  5-MIN KSTC 291020Z AUTO 31007KT 10SM CLR M08/M11 A3026 720 77 -1800 300/07 RMK AO2
14926KSTC STC20041129042510111/29/04 04:25:31  5-MIN KSTC 291025Z AUTO 31007KT 10SM CLR M08/M11 A3025 720 77 -1800 310/07 RMK AO2
14926KSTC STC20041129043010111/29/04 04:30:31  5-MIN KSTC 291030Z AUTO 31007KT 10SM CLR M08/M11 A3025 720 77 -1800 300/07 RMK AO2
14926KSTC STC20041129043510111/29/04 04:35:31  5-MIN KSTC 291035Z AUTO 31006KT 10SM CLR M08/M11 A3025 720 77 -1800 300/06 RMK AO2
14926KSTC STC20041129044010111/29/04 04:40:31  5-MIN KSTC 291040Z AUTO 30006KT 10SM CLR M08/M11 A3025 720 80 -1800 300/06 RMK AO2
14926KSTC STC20041129044510111/29/04 04:45:31  5-MIN KSTC 291045Z AUTO 30005KT 10SM CLR M08/M11 A3025 720 80 -1900 300/05 RMK AO2
14926KSTC STC20041129045011811/29/04 04:50:31  5-MIN KSTC 291050Z AUTO 30005KT 10SM CLR M08/M11 A3025 720 80 -1900 290/05 RMK AO2 SLP267 T10831111
14926KSTC STC20041129045510111/29/04 04:55:31  5-MIN KSTC 291055Z AUTO 29004KT 10SM CLR M08/M11 A3025 730 80 -1900 290/04 RMK AO2
14926KSTC STC20041129050010111/29/04 05:00:31  5-MIN KSTC 291100Z AUTO 29004KT 10SM CLR M08/M11 A3025 720 80 -1900 280/04 RMK AO2
14926KSTC STC20041129050510111/29/04 05:05:31  5-MIN KSTC 291105Z AUTO 28003KT 10SM CLR M08/M11 A3025 720 80 -1900 280/03 RMK AO2
14926KSTC STC20041129051010111/29/04 05:10:31  5-MIN KSTC 291110Z AUTO 27003KT 10SM CLR M08/M11 A3025 720 77 -1800 270/03 RMK AO2
14926KSTC STC20041129051510111/29/04 05:15:31  5-MIN KSTC 291115Z AUTO 27003KT 10SM CLR M08/M11 A3025 720 80 -1900 270/03 RMK AO2
14926KSTC STC20041129052010111/29/04 05:20:31  5-MIN KSTC 291120Z AUTO 28004KT 10SM CLR M09/M11 A3025 720 84 -2000 270/04 RMK AO2
14926KSTC STC20041129052510111/29/04 05:25:31  5-MIN KSTC 291125Z AUTO 28004KT 10SM CLR M09/M11 A3025 720 84 -2000 270/04 RMK AO2
14926KSTC STC20041129053010111/29/04 05:30:31  5-MIN KSTC 291130Z AUTO 27004KT 10SM CLR M09/M11 A3026 720 84 -2000 270/04 RMK AO2
14926KSTC STC20041129053510111/29/04 05:35:31  5-MIN KSTC 291135Z AUTO 26004KT 10SM CLR M09/M11 A3026 720 84 -2000 250/04 RMK AO2
14926KSTC STC20041129054010111/29/04 05:40:31  5-MIN KSTC 291140Z AUTO 25003KT 10SM CLR M09/M11 A3026 720 84 -2000 250/03 RMK AO2
14926KSTC STC20041129054510111/29/04 05:45:31  5-MIN KSTC 291145Z AUTO 25003KT 10SM CLR M09/M11 A3026 720 84 -2000 250/03 RMK AO2
14926KSTC STC20041129055013611/29/04 05:50:31  5-MIN KSTC 291150Z AUTO 26004KT 10SM CLR M08/M11 A3026 710 80 -1900 260/04 RMK AO2 SLP272 T10831111 11022 21089 53010
14926KSTC STC20041129055510111/29/04 05:55:31  5-MIN KSTC 291155Z AUTO 25004KT 10SM CLR M09/M11 A3026 710 84 -2000 240/04 RMK AO2
14926KSTC STC20041129060010111/29/04 06:00:31  5-MIN KSTC 291200Z AUTO 24004KT 10SM CLR M09/M11 A3026 710 84 -2000 240/04 RMK AO2
14926KSTC STC20041129060510111/29/04 06:05:31  5-MIN KSTC 291205Z AUTO 24005KT 10SM CLR M09/M12 A3026 710 84 -2100 240/05 RMK AO2
14926KSTC STC20041129061010111/29/04 06:10:31  5-MIN KSTC 291210Z AUTO 25005KT 10SM CLR M09/M12 A3026 710 84 -2100 250/05 RMK AO2
14926KSTC STC20041129061510111/29/04 06:15:31  5-MIN KSTC 291215Z AUTO 26004KT 10SM CLR M09/M12 A3026 710 84 -2100 260/04 RMK AO2
14926KSTC STC20041129062010111/29/04 06:20:31  5-MIN KSTC 291220Z AUTO 26004KT 10SM CLR M10/M12 A3026 710 88 -2100 260/04 RMK AO2
14926KSTC STC20041129062510111/29/04 06:25:31  5-MIN KSTC 291225Z AUTO 24004KT 10SM CLR M09/M12 A3026 710 84 -2100 240/04 RMK AO2
14926KSTC STC20041129063010111/29/04 06:30:31  5-MIN KSTC 291230Z AUTO 23004KT 10SM CLR M10/M12 A3027 710 88 -2100 230/04 RMK AO2
14926KSTC STC20041129063510111/29/04 06:35:31  5-MIN KSTC 291235Z AUTO 23004KT 10SM CLR M10/M12 A3027 710 88 -2100 230/04 RMK AO2
14926KSTC STC20041129064010111/29/04 06:40:31  5-MIN KSTC 291240Z AUTO 23004KT 10SM CLR M09/M11 A3027 710 88 -2100 230/04 RMK AO2
14926KSTC STC20041129064510111/29/04 06:45:31  5-MIN KSTC 291245Z AUTO 24004KT 10SM CLR M09/M11 A3027 700 88 -2100 230/04 RMK AO2
14926KSTC STC20041129065011811/29/04 06:50:31  5-MIN KSTC 291250Z AUTO 24004KT 10SM CLR M09/M11 A3027 710 88 -2100 240/04 RMK AO2 SLP275 T10941111
14926KSTC STC20041129065510111/29/04 06:55:31  5-MIN KSTC 291255Z AUTO 25004KT 10SM CLR M10/M12 A3027 710 88 -2100 240/04 RMK AO2
14926KSTC STC20041129070010111/29/04 07:00:31  5-MIN KSTC 291300Z AUTO 25003KT 10SM CLR M10/M12 A3027 710 88 -2100 240/03 RMK AO2
14926KSTC STC20041129070510111/29/04 07:05:31  5-MIN KSTC 291305Z AUTO 24003KT 10SM CLR M10/M12 A3027 710 88 -2100 240/03 RMK AO2
14926KSTC STC20041129071010111/29/04 07:10:31  5-MIN KSTC 291310Z AUTO 25003KT 10SM CLR M10/M12 A3027 710 88 -2100 240/03 RMK AO2
14926KSTC STC20041129071510111/29/04 07:15:31  5-MIN KSTC 291315Z AUTO 24003KT 10SM CLR M09/M11 A3027 710 88 -2100 240/03 RMK AO2
14926KSTC STC20041129072010111/29/04 07:20:31  5-MIN KSTC 291320Z AUTO 24003KT 10SM CLR M09/M11 A3027 710 88 -2100 240/03 RMK AO2
14926KSTC STC20041129072510111/29/04 07:25:31  5-MIN KSTC 291325Z AUTO 25003KT 10SM CLR M09/M11 A3027 710 88 -2100 250/03 RMK AO2
14926KSTC STC20041129073010111/29/04 07:30:31  5-MIN KSTC 291330Z AUTO 26003KT 10SM CLR M10/M11 A3027 700 92 -2200 260/03 RMK AO2
14926KSTC STC20041129073510111/29/04 07:35:31  5-MIN KSTC 291335Z AUTO 26004KT 10SM CLR M10/M11 A3027 700 92 -2200 260/04 RMK AO2
14926KSTC STC20041129074010111/29/04 07:40:31  5-MIN KSTC 291340Z AUTO 26004KT 10SM CLR M10/M11 A3027 700 92 -2200 260/04 RMK AO2
14926KSTC STC20041129074510111/29/04 07:45:31  5-MIN KSTC 291345Z AUTO 27004KT 10SM CLR M10/M11 A3027 700 92 -2200 260/04 RMK AO2
14926KSTC STC20041129075011811/29/04 07:50:31  5-MIN KSTC 291350Z AUTO 27004KT 10SM CLR M10/M11 A3027 700 92 -2200 270/04 RMK AO2 SLP277 T11001111
14926KSTC STC20041129075510111/29/04 07:55:31  5-MIN KSTC 291355Z AUTO 28004KT 10SM CLR M10/M11 A3027 700 92 -2200 280/04 RMK AO2
14926KSTC STC20041129080010111/29/04 08:00:31  5-MIN KSTC 291400Z AUTO 29003KT 10SM CLR M09/M11 A3027 700 88 -2100 290/03 RMK AO2
14926KSTC STC20041129080510111/29/04 08:05:31  5-MIN KSTC 291405Z AUTO 00000KT 10SM CLR M09/M11 A3027 710 88 -2000 000/00 RMK AO2
14926KSTC STC20041129081010111/29/04 08:10:31  5-MIN KSTC 291410Z AUTO 29004KT 10SM CLR M09/M10 A3027 710 92 -2000 290/04 RMK AO2
14926KSTC STC20041129081510111/29/04 08:15:31  5-MIN KSTC 291415Z AUTO 30003KT 10SM CLR M08/M10 A3027 710 88 -1900 300/03 RMK AO2
14926KSTC STC20041129082010111/29/04 08:20:31  5-MIN KSTC 291420Z AUTO 00000KT 10SM CLR M08/M09 A3026 710 88 -1900 000/00 RMK AO2
14926KSTC STC20041129082510111/29/04 08:25:31  5-MIN KSTC 291425Z AUTO 00000KT 10SM CLR M08/M09 A3027 710 88 -1900 000/00 RMK AO2
14926KSTC STC20041129083010111/29/04 08:30:31  5-MIN KSTC 291430Z AUTO 24003KT 10SM CLR M07/M09 A3027 710 88 -1800 240/03 RMK AO2
14926KSTC STC20041129083510111/29/04 08:35:31  5-MIN KSTC 291435Z AUTO 23003KT 10SM CLR M07/M09 A3027 710 88 -1800 230/03 RMK AO2
14926KSTC STC20041129084010111/29/04 08:40:31  5-MIN KSTC 291440Z AUTO 21003KT 10SM CLR M07/M08 A3027 710 92 -1800 210/03 RMK AO2
14926KSTC STC20041129084510111/29/04 08:45:31  5-MIN KSTC 291445Z AUTO 21003KT 10SM CLR M07/M08 A3027 710 88 -1700 210/03 RMK AO2
14926KSTC STC20041129085012411/29/04 08:50:31  5-MIN KSTC 291450Z AUTO 22004KT 10SM CLR M07/M08 A3027 710 88 -1700 220/04 RMK AO2 SLP274 T10671083 53003
14926KSTC STC20041129085510111/29/04 08:55:31  5-MIN KSTC 291455Z AUTO 23004KT 10SM CLR M07/M08 A3027 710 88 -1700 230/04 RMK AO2
14926KSTC STC20041129090010111/29/04 09:00:31  5-MIN KSTC 291500Z AUTO 20004KT 10SM CLR M06/M08 A3027 710 88 -1600 200/04 RMK AO2
14926KSTC STC20041129090510111/29/04 09:05:31  5-MIN KSTC 291505Z AUTO VRB04KT 10SM CLR M06/M08 A3027 700 88 -1600 VRB/04 RMK AO2
14926KSTC STC20041129091010111/29/04 09:10:31  5-MIN KSTC 291510Z AUTO 24005KT 10SM CLR M06/M08 A3027 710 84 -1600 230/05 RMK AO2
14926KSTC STC20041129091510111/29/04 09:15:31  5-MIN KSTC 291515Z AUTO 23005KT 10SM CLR M06/M08 A3027 710 81 -1600 230/05 RMK AO2
14926KSTC STC20041129092010111/29/04 09:20:31  5-MIN KSTC 291520Z AUTO 24005KT 10SM CLR M06/M08 A3027 710 81 -1600 230/05 RMK AO2
14926KSTC STC20041129092510111/29/04 09:25:31  5-MIN KSTC 291525Z AUTO 25006KT 10SM CLR M06/M08 A3027 710 81 -1600 240/06 RMK AO2
14926KSTC STC20041129093010111/29/04 09:30:31  5-MIN KSTC 291530Z AUTO 24006KT 10SM CLR M05/M08 A3027 710 77 -1500 230/06 RMK AO2
14926KSTC STC20041129093510111/29/04 09:35:31  5-MIN KSTC 291535Z AUTO 26008KT 10SM CLR M05/M08 A3027 710 77 -1500 260/08 RMK AO2
14926KSTC STC20041129094010111/29/04 09:40:31  5-MIN KSTC 291540Z AUTO 25009KT 10SM CLR M05/M08 A3027 710 77 -1500 250/09 RMK AO2
14926KSTC STC20041129094510111/29/04 09:45:31  5-MIN KSTC 291545Z AUTO 26008KT 10SM CLR M04/M08 A3027 710 74 -1400 250/08 RMK AO2
14926KSTC STC20041129095011811/29/04 09:50:31  5-MIN KSTC 291550Z AUTO 26007KT 10SM CLR M04/M09 A3027 710 71 -1400 260/07 RMK AO2 SLP273 T10441089
14926KSTC STC20041129095510111/29/04 09:55:31  5-MIN KSTC 291555Z AUTO 25007KT 10SM CLR M04/M08 A3027 710 71 -1400 240/07 RMK AO2
14926KSTC STC20041129100010111/29/04 10:00:31  5-MIN KSTC 291600Z AUTO 26009KT 10SM CLR M04/M08 A3027 700 71 -1400 260/09 RMK AO2
14926KSTC STC20041129100510111/29/04 10:05:31  5-MIN KSTC 291605Z AUTO 26011KT 10SM CLR M04/M09 A3027 700 68 -1400 250/11 RMK AO2
14926KSTC STC20041129101010111/29/04 10:10:31  5-MIN KSTC 291610Z AUTO 26010KT 10SM CLR M04/M09 A3027 700 65 -1400 250/10 RMK AO2
14926KSTC STC20041129101510111/29/04 10:15:31  5-MIN KSTC 291615Z AUTO 25011KT 10SM CLR M04/M09 A3027 700 65 -1400 250/11 RMK AO2
14926KSTC STC20041129102010111/29/04 10:20:31  5-MIN KSTC 291620Z AUTO 26010KT 10SM CLR M03/M10 A3027 700 60 -1300 260/10 RMK AO2
14926KSTC STC20041129102510111/29/04 10:25:31  5-MIN KSTC 291625Z AUTO 25009KT 10SM CLR M03/M09 A3027 700 63 -1300 250/09 RMK AO2
14926KSTC STC20041129103010111/29/04 10:30:31  5-MIN KSTC 291630Z AUTO 25009KT 10SM CLR M03/M09 A3027 700 63 -1300 250/09 RMK AO2
14926KSTC STC20041129103510111/29/04 10:35:31  5-MIN KSTC 291635Z AUTO 25012KT 10SM CLR M03/M09 A3027 700 63 -1300 250/12 RMK AO2
14926KSTC STC20041129104010111/29/04 10:40:31  5-MIN KSTC 291640Z AUTO 25009KT 10SM CLR M03/M09 A3027 700 63 -1300 250/09 RMK AO2
14926KSTC STC20041129104510111/29/04 10:45:31  5-MIN KSTC 291645Z AUTO 25010KT 10SM CLR M03/M09 A3027 700 63 -1300 240/10 RMK AO2
14926KSTC STC20041129105011811/29/04 10:50:31  5-MIN KSTC 291650Z AUTO 24010KT 10SM CLR M03/M09 A3027 710 65 -1300 240/10 RMK AO2 SLP273 T10331089
14926KSTC STC20041129105510111/29/04 10:55:31  5-MIN KSTC 291655Z AUTO 25011KT 10SM CLR M03/M09 A3027 710 65 -1300 250/11 RMK AO2
14926KSTC STC20041129110010111/29/04 11:00:31  5-MIN KSTC 291700Z AUTO 27010KT 10SM CLR M03/M09 A3027 710 63 -1200 260/10 RMK AO2
14926KSTC STC20041129110510111/29/04 11:05:31  5-MIN KSTC 291705Z AUTO 24009KT 10SM CLR M03/M09 A3027 710 63 -1200 240/09 RMK AO2
14926KSTC STC20041129111010111/29/04 11:10:31  5-MIN KSTC 291710Z AUTO 26009KT 10SM CLR M03/M08 A3026 710 66 -1200 260/09 RMK AO2
14926KSTC STC20041129111510111/29/04 11:15:31  5-MIN KSTC 291715Z AUTO 25012KT 10SM CLR M03/M08 A3026 710 66 -1200 240/12 RMK AO2
14926KSTC STC20041129112010111/29/04 11:20:31  5-MIN KSTC 291720Z AUTO 24010KT 10SM CLR M03/M08 A3026 710 66 -1200 230/10 RMK AO2
14926KSTC STC20041129112510111/29/04 11:25:31  5-MIN KSTC 291725Z AUTO 25009KT 10SM CLR M03/M08 A3026 710 66 -1200 250/09 RMK AO2
14926KSTC STC20041129113010111/29/04 11:30:31  5-MIN KSTC 291730Z AUTO 26009KT 10SM CLR M03/M08 A3026 720 66 -1200 250/09 RMK AO2
14926KSTC STC20041129113510111/29/04 11:35:31  5-MIN KSTC 291735Z AUTO 25010KT 10SM CLR M02/M08 A3025 720 66 -1100 250/10 RMK AO2
14926KSTC STC20041129114010111/29/04 11:40:31  5-MIN KSTC 291740Z AUTO 25010KT 10SM CLR M02/M08 A3025 720 63 -1100 250/10 RMK AO2
14926KSTC STC20041129114510111/29/04 11:45:31  5-MIN KSTC 291745Z AUTO 26009KT 10SM CLR M03/M08 A3025 720 66 -1200 250/09 RMK AO2
14926KSTC STC20041129115013611/29/04 11:50:31  5-MIN KSTC 291750Z AUTO 25008KT 10SM CLR M02/M08 A3024 730 66 -1100 250/08 RMK AO2 SLP265 T10221078 11022 21100 50002
14926KSTC STC20041129115510111/29/04 11:55:31  5-MIN KSTC 291755Z AUTO 24012KT 10SM CLR M02/M08 A3024 730 66 -1100 240/12 RMK AO2
14926KSTC STC20041129120010111/29/04 12:00:31  5-MIN KSTC 291800Z AUTO 25008KT 10SM CLR M02/M08 A3024 730 66 -1100 250/08 RMK AO2
14926KSTC STC20041129120510111/29/04 12:05:31  5-MIN KSTC 291805Z AUTO 25007KT 10SM CLR M02/M08 A3024 740 66 -1100 250/07 RMK AO2
14926KSTC STC20041129121010711/29/04 12:10:31  5-MIN KSTC 291810Z AUTO 24008G15KT 10SM CLR M02/M08 A3023 740 63 -1000 230/08G15 RMK AO2
14926KSTC STC20041129121510111/29/04 12:15:31  5-MIN KSTC 291815Z AUTO 23009KT 10SM CLR M02/M08 A3023 740 66 -1100 220/09 RMK AO2
14926KSTC STC20041129122010111/29/04 12:20:31  5-MIN KSTC 291820Z AUTO 23011KT 10SM CLR M02/M08 A3023 750 63 -1000 230/11 RMK AO2
14926KSTC STC20041129122510111/29/04 12:25:31  5-MIN KSTC 291825Z AUTO 24011KT 10SM CLR M02/M08 A3022 750 60 -1000 240/11 RMK AO2
14926KSTC STC20041129123010111/29/04 12:30:31  5-MIN KSTC 291830Z AUTO 25010KT 10SM CLR M02/M08 A3022 750 60 -1000 250/10 RMK AO2
14926KSTC STC20041129123510111/29/04 12:35:31  5-MIN KSTC 291835Z AUTO 23013KT 10SM CLR M02/M08 A3022 750 60 -1000 230/13 RMK AO2
14926KSTC STC20041129124010111/29/04 12:40:31  5-MIN KSTC 291840Z AUTO 24010KT 10SM CLR M02/M08 A3022 750 60 -1000 240/10 RMK AO2
14926KSTC STC20041129124510111/29/04 12:45:31  5-MIN KSTC 291845Z AUTO 23010KT 10SM CLR M02/M08 A3021 760 60 -1000 230/10 RMK AO2
14926KSTC STC20041129125011811/29/04 12:50:31  5-MIN KSTC 291850Z AUTO 23009KT 10SM CLR M02/M08 A3021 760 60 -1000 230/09 RMK AO2 SLP254 T10171083
14926KSTC STC20041129125510011/29/04 12:55:31  5-MIN KSTC 291855Z AUTO 25011KT 10SM CLR M01/M08 A3021 760 58 -900 250/11 RMK AO2
14926KSTC STC20041129130010011/29/04 13:00:31  5-MIN KSTC 291900Z AUTO 24011KT 10SM CLR M01/M08 A3021 760 58 -900 230/11 RMK AO2
14926KSTC STC20041129130510011/29/04 13:05:31  5-MIN KSTC 291905Z AUTO 23011KT 10SM CLR M01/M08 A3021 760 58 -900 220/11 RMK AO2
14926KSTC STC20041129131010011/29/04 13:10:31  5-MIN KSTC 291910Z AUTO 24012KT 10SM CLR M01/M08 A3021 760 58 -900 240/12 RMK AO2
14926KSTC STC20041129131510011/29/04 13:15:31  5-MIN KSTC 291915Z AUTO 23011KT 10SM CLR M01/M09 A3021 760 55 -900 230/11 RMK AO2
14926KSTC STC20041129132010011/29/04 13:20:31  5-MIN KSTC 291920Z AUTO 25010KT 10SM CLR M01/M08 A3021 760 56 -900 240/10 RMK AO2
14926KSTC STC20041129132510011/29/04 13:25:31  5-MIN KSTC 291925Z AUTO 23009KT 10SM CLR M01/M08 A3021 760 56 -900 220/09 RMK AO2
14926KSTC STC20041129133010011/29/04 13:30:31  5-MIN KSTC 291930Z AUTO 21010KT 10SM CLR M01/M08 A3020 760 58 -900 210/10 RMK AO2
14926KSTC STC20041129133510011/29/04 13:35:31  5-MIN KSTC 291935Z AUTO 23011KT 10SM CLR M01/M07 A3020 770 61 -900 230/11 RMK AO2
14926KSTC STC20041129134010011/29/04 13:40:31  5-MIN KSTC 291940Z AUTO 25011KT 10SM CLR M01/M08 A3020 770 58 -900 250/11 RMK AO2
14926KSTC STC20041129134510011/29/04 13:45:31  5-MIN KSTC 291945Z AUTO 25013KT 10SM CLR M01/M08 A3020 770 58 -900 240/13 RMK AO2
14926KSTC STC20041129135011711/29/04 13:50:31  5-MIN KSTC 291950Z AUTO 23012KT 10SM CLR M01/M08 A3019 770 56 -800 230/12 RMK AO2 SLP247 T10061083
14926KSTC STC20041129135510011/29/04 13:55:31  5-MIN KSTC 291955Z AUTO 23013KT 10SM CLR M01/M08 A3019 780 56 -800 230/13 RMK AO2
14926KSTC STC20041129140010011/29/04 14:00:31  5-MIN KSTC 292000Z AUTO 23011KT 10SM CLR M01/M08 A3019 780 56 -800 230/11 RMK AO2
14926KSTC STC20041129140509911/29/04 14:05:31  5-MIN KSTC 292005Z AUTO 23010KT 10SM CLR 00/M08 A3019 780 56 -800 230/10 RMK AO2
14926KSTC STC20041129141010011/29/04 14:10:31  5-MIN KSTC 292010Z AUTO 23010KT 10SM CLR M01/M08 A3019 780 56 -800 230/10 RMK AO2
14926KSTC STC20041129141509911/29/04 14:15:31  5-MIN KSTC 292015Z AUTO 24010KT 10SM CLR 00/M08 A3018 780 56 -800 230/10 RMK AO2
14926KSTC STC20041129142009911/29/04 14:20:31  5-MIN KSTC 292020Z AUTO 24011KT 10SM CLR 00/M08 A3018 780 56 -800 230/11 RMK AO2
14926KSTC STC20041129142509911/29/04 14:25:31  5-MIN KSTC 292025Z AUTO 22013KT 10SM CLR 00/M08 A3018 780 53 -800 220/13 RMK AO2
14926KSTC STC20041129143009911/29/04 14:30:31  5-MIN KSTC 292030Z AUTO 24011KT 10SM CLR 00/M08 A3018 780 56 -800 240/11 RMK AO2
14926KSTC STC20041129143510011/29/04 14:35:31  5-MIN KSTC 292035Z AUTO 23011KT 10SM CLR M01/M08 A3018 790 56 -800 230/11 RMK AO2
14926KSTC STC20041129144009911/29/04 14:40:31  5-MIN KSTC 292040Z AUTO 23011KT 10SM CLR 00/M08 A3018 790 56 -800 220/11 RMK AO2
14926KSTC STC20041129144509911/29/04 14:45:31  5-MIN KSTC 292045Z AUTO 23011KT 10SM CLR 00/M08 A3018 790 56 -800 230/11 RMK AO2
14926KSTC STC20041129145012311/29/04 14:50:31  5-MIN KSTC 292050Z AUTO 23012KT 10SM CLR M01/M08 A3017 790 58 -800 230/12 RMK AO2 SLP241 T10061078 58008
14926KSTC STC20041129145509911/29/04 14:55:31  5-MIN KSTC 292055Z AUTO 24010KT 10SM CLR 00/M08 A3017 790 56 -800 230/10 RMK AO2
14926KSTC STC20041129150010011/29/04 15:00:31  5-MIN KSTC 292100Z AUTO 23013KT 10SM CLR M01/M08 A3017 790 56 -800 230/13 RMK AO2
14926KSTC STC20041129150509911/29/04 15:05:31  5-MIN KSTC 292105Z AUTO 23010KT 10SM CLR 00/M08 A3017 790 53 -800 230/10 RMK AO2
14926KSTC STC20041129151010011/29/04 15:10:31  5-MIN KSTC 292110Z AUTO 24010KT 10SM CLR M01/M08 A3018 790 56 -800 240/10 RMK AO2
14926KSTC STC20041129151510011/29/04 15:15:31  5-MIN KSTC 292115Z AUTO 24011KT 10SM CLR M01/M08 A3018 790 58 -800 240/11 RMK AO2
14926KSTC STC20041129152010011/29/04 15:20:31  5-MIN KSTC 292120Z AUTO 24010KT 10SM CLR M01/M08 A3018 790 58 -800 240/10 RMK AO2
14926KSTC STC20041129152509911/29/04 15:25:31  5-MIN KSTC 292125Z AUTO 25007KT 10SM CLR 00/M08 A3018 790 56 -800 250/07 RMK AO2
14926KSTC STC20041129153009911/29/04 15:30:31  5-MIN KSTC 292130Z AUTO 25009KT 10SM CLR 00/M08 A3018 790 56 -800 250/09 RMK AO2
14926KSTC STC20041129153510011/29/04 15:35:31  5-MIN KSTC 292135Z AUTO 25010KT 10SM CLR M01/M08 A3018 790 56 -800 250/10 RMK AO2
14926KSTC STC20041129154010011/29/04 15:40:31  5-MIN KSTC 292140Z AUTO 25008KT 10SM CLR M01/M08 A3018 790 56 -800 250/08 RMK AO2
14926KSTC STC20041129154510011/29/04 15:45:31  5-MIN KSTC 292145Z AUTO 24007KT 10SM CLR M01/M08 A3018 790 58 -800 230/07 RMK AO2
14926KSTC STC20041129155011711/29/04 15:50:31  5-MIN KSTC 292150Z AUTO 24009KT 10SM CLR M01/M08 A3018 790 56 -800 230/09 RMK AO2 SLP244 T10061083
14926KSTC STC20041129155510011/29/04 15:55:31  5-MIN KSTC 292155Z AUTO 24008KT 10SM CLR M01/M08 A3018 790 56 -800 230/08 RMK AO2
14926KSTC STC20041129160010011/29/04 16:00:31  5-MIN KSTC 292200Z AUTO 23006KT 10SM CLR M01/M08 A3018 790 56 -800 230/06 RMK AO2
14926KSTC STC20041129160510011/29/04 16:05:31  5-MIN KSTC 292205Z AUTO 24007KT 10SM CLR M01/M08 A3018 790 58 -900 240/07 RMK AO2
14926KSTC STC20041129161010011/29/04 16:10:31  5-MIN KSTC 292210Z AUTO 23006KT 10SM CLR M01/M08 A3018 790 58 -900 230/06 RMK AO2
14926KSTC STC20041129161510011/29/04 16:15:31  5-MIN KSTC 292215Z AUTO 23005KT 10SM CLR M01/M08 A3018 790 58 -900 220/05 RMK AO2
14926KSTC STC20041129162010011/29/04 16:20:31  5-MIN KSTC 292220Z AUTO 23006KT 10SM CLR M01/M08 A3018 790 60 -900 220/06 RMK AO2
14926KSTC STC20041129162510111/29/04 16:25:31  5-MIN KSTC 292225Z AUTO 22007KT 10SM CLR M02/M08 A3018 790 63 -1000 220/07 RMK AO2
14926KSTC STC20041129163010111/29/04 16:30:31  5-MIN KSTC 292230Z AUTO 22008KT 10SM CLR M02/M08 A3018 790 63 -1000 220/08 RMK AO2
14926KSTC STC20041129163510111/29/04 16:35:31  5-MIN KSTC 292235Z AUTO 22007KT 10SM CLR M02/M08 A3018 790 63 -1000 220/07 RMK AO2
14926KSTC STC20041129164010111/29/04 16:40:31  5-MIN KSTC 292240Z AUTO 21006KT 10SM CLR M02/M08 A3018 790 66 -1000 210/06 RMK AO2
14926KSTC STC20041129171010111/29/04 17:10:31  5-MIN KSTC 292310Z AUTO 22007KT 10SM CLR M03/M07 A3017 790 71 -1100 210/07 RMK AO2
14926KSTC STC20041129171510111/29/04 17:15:31  5-MIN KSTC 292315Z AUTO 21007KT 10SM CLR M03/M07 A3017 790 74 -1200 210/07 RMK AO2
14926KSTC STC20041129172010111/29/04 17:20:31  5-MIN KSTC 292320Z AUTO 22007KT 10SM CLR M03/M07 A3017 790 78 -1200 220/07 RMK AO2
14926KSTC STC20041129172510111/29/04 17:25:31  5-MIN KSTC 292325Z AUTO 21006KT 10SM CLR M03/M07 A3017 790 78 -1200 210/06 RMK AO2
14926KSTC STC20041129173010111/29/04 17:30:31  5-MIN KSTC 292330Z AUTO 21006KT 10SM CLR M03/M07 A3017 790 78 -1200 210/06 RMK AO2
14926KSTC STC20041129173510111/29/04 17:35:31  5-MIN KSTC 292335Z AUTO 21007KT 10SM CLR M04/M07 A3017 790 81 -1200 210/07 RMK AO2
14926KSTC STC20041129174010111/29/04 17:40:31  5-MIN KSTC 292340Z AUTO 21007KT 10SM CLR M04/M07 A3017 800 81 -1200 200/07 RMK AO2
14926KSTC STC20041129174510111/29/04 17:45:31  5-MIN KSTC 292345Z AUTO 20008KT 10SM CLR M04/M07 A3017 800 81 -1200 200/08 RMK AO2
14926KSTC STC20041129175013611/29/04 17:50:31  5-MIN KSTC 292350Z AUTO 20008KT 10SM CLR M04/M07 A3017 800 81 -1200 200/08 RMK AO2 SLP242 T10391067 10000 21039 56023
14926KSTC STC20041129175510111/29/04 17:55:31  5-MIN KSTC 292355Z AUTO 20008KT 10SM CLR M04/M07 A3017 800 81 -1200 200/08 RMK AO2
14926KSTC STC20041129180010111/29/04 18:00:31  5-MIN KSTC 300000Z AUTO 21008KT 10SM CLR M04/M07 A3017 790 81 -1200 200/08 RMK AO2
14926KSTC STC20041129180510111/29/04 18:05:31  5-MIN KSTC 300005Z AUTO 21007KT 10SM CLR M04/M07 A3017 790 81 -1200 210/07 RMK AO2
14926KSTC STC20041129181010111/29/04 18:10:31  5-MIN KSTC 300010Z AUTO 21008KT 10SM CLR M04/M07 A3017 790 81 -1200 200/08 RMK AO2
14926KSTC STC20041129181510111/29/04 18:15:31  5-MIN KSTC 300015Z AUTO 21007KT 10SM CLR M04/M07 A3017 790 81 -1300 200/07 RMK AO2
14926KSTC STC20041129182010111/29/04 18:20:31  5-MIN KSTC 300020Z AUTO 20007KT 10SM CLR M04/M07 A3017 790 81 -1300 200/07 RMK AO2
14926KSTC STC20041129182510111/29/04 18:25:31  5-MIN KSTC 300025Z AUTO 20007KT 10SM CLR M04/M07 A3017 790 81 -1300 200/07 RMK AO2
14926KSTC STC20041129183010111/29/04 18:30:31  5-MIN KSTC 300030Z AUTO 21007KT 10SM CLR M04/M07 A3017 790 81 -1300 210/07 RMK AO2
14926KSTC STC20041129183510111/29/04 18:35:31  5-MIN KSTC 300035Z AUTO 21006KT 10SM CLR M05/M07 A3017 790 84 -1400 210/06 RMK AO2
14926KSTC STC20041129184010111/29/04 18:40:31  5-MIN KSTC 300040Z AUTO 21006KT 10SM CLR M05/M07 A3017 790 84 -1400 210/06 RMK AO2
14926KSTC STC20041129184510111/29/04 18:45:31  5-MIN KSTC 300045Z AUTO 21006KT 10SM CLR M05/M07 A3017 790 84 -1400 200/06 RMK AO2
14926KSTC STC20041129185011811/29/04 18:50:31  5-MIN KSTC 300050Z AUTO 20006KT 10SM CLR M05/M07 A3017 800 84 -1400 190/06 RMK AO2 SLP244 T10501072
14926KSTC STC20041129185510111/29/04 18:55:31  5-MIN KSTC 300055Z AUTO 20006KT 10SM CLR M05/M07 A3017 800 84 -1400 200/06 RMK AO2
14926KSTC STC20041129190010111/29/04 19:00:31  5-MIN KSTC 300100Z AUTO 20006KT 10SM CLR M05/M07 A3017 800 84 -1400 200/06 RMK AO2
14926KSTC STC20041129190510111/29/04 19:05:31  5-MIN KSTC 300105Z AUTO 20005KT 10SM CLR M05/M07 A3017 800 84 -1400 200/05 RMK AO2
14926KSTC STC20041129191010111/29/04 19:10:31  5-MIN KSTC 300110Z AUTO 19005KT 10SM CLR M05/M07 A3017 800 84 -1400 190/05 RMK AO2
14926KSTC STC20041129191510111/29/04 19:15:31  5-MIN KSTC 300115Z AUTO 19005KT 10SM CLR M05/M08 A3017 800 81 -1400 190/05 RMK AO2
14926KSTC STC20041129192010111/29/04 19:20:31  5-MIN KSTC 300120Z AUTO 19005KT 10SM CLR M06/M08 A3016 800 84 -1500 190/05 RMK AO2
14926KSTC STC20041129192510111/29/04 19:25:31  5-MIN KSTC 300125Z AUTO 20005KT 10SM CLR M06/M08 A3016 800 84 -1400 190/05 RMK AO2
14926KSTC STC20041129193010111/29/04 19:30:31  5-MIN KSTC 300130Z AUTO 20005KT 10SM CLR M05/M07 A3016 810 84 -1400 200/05 RMK AO2
14926KSTC STC20041129193510111/29/04 19:35:31  5-MIN KSTC 300135Z AUTO 20006KT 10SM CLR M05/M07 A3016 810 84 -1400 200/06 RMK AO2
14926KSTC STC20041129194010111/29/04 19:40:31  5-MIN KSTC 300140Z AUTO 19006KT 10SM CLR M06/M08 A3016 810 84 -1400 190/06 RMK AO2
14926KSTC STC20041129194510111/29/04 19:45:31  5-MIN KSTC 300145Z AUTO 19006KT 10SM CLR M06/M08 A3016 810 84 -1400 190/06 RMK AO2
14926KSTC STC20041129195011811/29/04 19:50:31  5-MIN KSTC 300150Z AUTO 20005KT 10SM CLR M06/M07 A3016 810 88 -1400 200/05 RMK AO2 SLP241 T10561072
14926KSTC STC20041129195510111/29/04 19:55:31  5-MIN KSTC 300155Z AUTO 19006KT 10SM CLR M06/M07 A3016 810 88 -1400 190/06 RMK AO2
14926KSTC STC20041129200010111/29/04 20:00:31  5-MIN KSTC 300200Z AUTO 19006KT 10SM CLR M06/M08 A3016 810 84 -1400 190/06 RMK AO2
14926KSTC STC20041129200510111/29/04 20:05:31  5-MIN KSTC 300205Z AUTO 19006KT 10SM CLR M06/M08 A3015 810 84 -1400 190/06 RMK AO2
14926KSTC STC20041129201010111/29/04 20:10:31  5-MIN KSTC 300210Z AUTO 19007KT 10SM CLR M06/M07 A3015 810 88 -1400 190/07 RMK AO2
14926KSTC STC20041129201510111/29/04 20:15:31  5-MIN KSTC 300215Z AUTO 19007KT 10SM CLR M05/M07 A3015 810 84 -1400 190/07 RMK AO2
14926KSTC STC20041129202010111/29/04 20:20:31  5-MIN KSTC 300220Z AUTO 20006KT 10SM CLR M06/M07 A3015 820 88 -1400 190/06 RMK AO2
14926KSTC STC20041129202510111/29/04 20:25:31  5-MIN KSTC 300225Z AUTO 20006KT 10SM CLR M06/M07 A3015 820 88 -1400 190/06 RMK AO2
14926KSTC STC20041129203010111/29/04 20:30:31  5-MIN KSTC 300230Z AUTO 20006KT 10SM CLR M06/M07 A3015 820 88 -1400 190/06 RMK AO2
14926KSTC STC20041129203510111/29/04 20:35:31  5-MIN KSTC 300235Z AUTO 19006KT 10SM CLR M06/M07 A3015 820 88 -1400 190/06 RMK AO2
14926KSTC STC20041129204010111/29/04 20:40:31  5-MIN KSTC 300240Z AUTO 20005KT 10SM CLR M06/M07 A3015 820 88 -1400 190/05 RMK AO2
14926KSTC STC20041129204510111/29/04 20:45:31  5-MIN KSTC 300245Z AUTO 20006KT 10SM CLR M06/M07 A3015 820 88 -1400 200/06 RMK AO2
14926KSTC STC20041129205012411/29/04 20:50:31  5-MIN KSTC 300250Z AUTO 20007KT 10SM CLR M06/M08 A3014 820 88 -1500 200/07 RMK AO2 SLP234 T10611078 58002
14926KSTC STC20041129205510111/29/04 20:55:31  5-MIN KSTC 300255Z AUTO 20007KT 10SM CLR M06/M08 A3014 820 88 -1500 200/07 RMK AO2
14926KSTC STC20041129210010111/29/04 21:00:31  5-MIN KSTC 300300Z AUTO 20008KT 10SM CLR M06/M07 A3014 830 88 -1400 200/08 RMK AO2
14926KSTC STC20041129210510111/29/04 21:05:31  5-MIN KSTC 300305Z AUTO 20008KT 10SM CLR M06/M07 A3014 830 92 -1400 200/08 RMK AO2
14926KSTC STC20041129211010111/29/04 21:10:31  5-MIN KSTC 300310Z AUTO 20008KT 10SM CLR M06/M07 A3013 830 92 -1400 200/08 RMK AO2
14926KSTC STC20041129211510111/29/04 21:15:31  5-MIN KSTC 300315Z AUTO 20007KT 10SM CLR M05/M07 A3013 830 88 -1300 200/07 RMK AO2
14926KSTC STC20041129212010111/29/04 21:20:31  5-MIN KSTC 300320Z AUTO 21007KT 10SM CLR M05/M07 A3013 830 84 -1300 200/07 RMK AO2
14926KSTC STC20041129212510111/29/04 21:25:31  5-MIN KSTC 300325Z AUTO 21007KT 10SM CLR M05/M08 A3013 830 81 -1300 200/07 RMK AO2
14926KSTC STC20041129213010111/29/04 21:30:31  5-MIN KSTC 300330Z AUTO 21007KT 10SM CLR M06/M08 A3013 830 84 -1400 210/07 RMK AO2
14926KSTC STC20041129213510111/29/04 21:35:31  5-MIN KSTC 300335Z AUTO 20007KT 10SM CLR M06/M08 A3013 830 84 -1400 200/07 RMK AO2
14926KSTC STC20041129214010111/29/04 21:40:31  5-MIN KSTC 300340Z AUTO 21006KT 10SM CLR M05/M08 A3013 830 81 -1300 200/06 RMK AO2
14926KSTC STC20041129214510111/29/04 21:45:31  5-MIN KSTC 300345Z AUTO 21007KT 10SM CLR M05/M08 A3013 830 81 -1300 200/07 RMK AO2
14926KSTC STC20041129215011811/29/04 21:50:31  5-MIN KSTC 300350Z AUTO 21007KT 10SM CLR M05/M08 A3013 830 81 -1300 200/07 RMK AO2 SLP228 T10501078
14926KSTC STC20041129215510111/29/04 21:55:31  5-MIN KSTC 300355Z AUTO 21007KT 10SM CLR M05/M08 A3013 830 81 -1300 210/07 RMK AO2
14926KSTC STC20041129220010111/29/04 22:00:31  5-MIN KSTC 300400Z AUTO 21007KT 10SM CLR M05/M08 A3013 830 81 -1300 210/07 RMK AO2
14926KSTC STC20041129220510111/29/04 22:05:31  5-MIN KSTC 300405Z AUTO 21007KT 10SM CLR M05/M08 A3013 840 81 -1300 210/07 RMK AO2
14926KSTC STC20041129221010111/29/04 22:10:31  5-MIN KSTC 300410Z AUTO 21007KT 10SM CLR M05/M08 A3013 840 81 -1300 210/07 RMK AO2
14926KSTC STC20041129221510111/29/04 22:15:31  5-MIN KSTC 300415Z AUTO 21008KT 10SM CLR M05/M07 A3013 830 84 -1300 210/08 RMK AO2
14926KSTC STC20041129222010111/29/04 22:20:31  5-MIN KSTC 300420Z AUTO 22008KT 10SM CLR M05/M07 A3013 840 84 -1300 210/08 RMK AO2
14926KSTC STC20041129222510111/29/04 22:25:31  5-MIN KSTC 300425Z AUTO 22007KT 10SM CLR M05/M07 A3013 840 84 -1300 220/07 RMK AO2
14926KSTC STC20041129223010111/29/04 22:30:31  5-MIN KSTC 300430Z AUTO 22007KT 10SM CLR M05/M07 A3012 840 84 -1300 220/07 RMK AO2
14926KSTC STC20041129223510111/29/04 22:35:31  5-MIN KSTC 300435Z AUTO 22007KT 10SM CLR M04/M07 A3012 840 81 -1300 220/07 RMK AO2
14926KSTC STC20041129224010111/29/04 22:40:31  5-MIN KSTC 300440Z AUTO 22008KT 10SM CLR M04/M07 A3012 840 81 -1300 220/08 RMK AO2
14926KSTC STC20041129224510111/29/04 22:45:31  5-MIN KSTC 300445Z AUTO 22008KT 10SM CLR M04/M07 A3012 840 84 -1300 220/08 RMK AO2
14926KSTC STC20041129225011811/29/04 22:50:31  5-MIN KSTC 300450Z AUTO 22008KT 10SM CLR M04/M07 A3012 840 81 -1200 220/08 RMK AO2 SLP223 T10391067
14926KSTC STC20041129225510111/29/04 22:55:31  5-MIN KSTC 300455Z AUTO 22009KT 10SM CLR M04/M07 A3012 850 81 -1200 220/09 RMK AO2
14926KSTC STC20041129230010111/29/04 23:00:31  5-MIN KSTC 300500Z AUTO 23010KT 10SM CLR M04/M07 A3012 840 81 -1200 230/10 RMK AO2
14926KSTC STC20041129230510111/29/04 23:05:31  5-MIN KSTC 300505Z AUTO 23009KT 10SM CLR M04/M07 A3012 850 81 -1200 230/09 RMK AO2
14926KSTC STC20041129231010111/29/04 23:10:31  5-MIN KSTC 300510Z AUTO 23009KT 10SM CLR M03/M07 A3011 850 78 -1100 220/09 RMK AO2
14926KSTC STC20041129231510111/29/04 23:15:31  5-MIN KSTC 300515Z AUTO 22010KT 10SM CLR M04/M07 A3011 850 81 -1200 220/10 RMK AO2
14926KSTC STC20041129232010111/29/04 23:20:31  5-MIN KSTC 300520Z AUTO 22010KT 10SM CLR M04/M07 A3011 850 81 -1200 220/10 RMK AO2
14926KSTC STC20041129232510111/29/04 23:25:31  5-MIN KSTC 300525Z AUTO 22009KT 10SM CLR M04/M07 A3011 850 81 -1200 220/09 RMK AO2
14926KSTC STC20041129233010111/29/04 23:30:31  5-MIN KSTC 300530Z AUTO 22009KT 10SM CLR M04/M07 A3011 850 81 -1200 220/09 RMK AO2
14926KSTC STC20041129233510111/29/04 23:35:31  5-MIN KSTC 300535Z AUTO 22009KT 10SM CLR M04/M07 A3011 850 81 -1200 220/09 RMK AO2
14926KSTC STC20041129234010111/29/04 23:40:31  5-MIN KSTC 300540Z AUTO 23009KT 10SM CLR M04/M07 A3011 860 78 -1200 220/09 RMK AO2
14926KSTC STC20041129234510111/29/04 23:45:31  5-MIN KSTC 300545Z AUTO 22008KT 10SM CLR M04/M07 A3010 860 78 -1200 220/08 RMK AO2
14926KSTC STC20041129235014611/29/04 23:50:31  5-MIN KSTC 300550Z AUTO 23008KT 10SM CLR M04/M07 A3010 860 78 -1200 220/08 RMK AO2 SLP217 T10391072 11033 21061 400001100 58009
14926KSTC STC20041129235510111/29/04 23:55:31  5-MIN KSTC 300555Z AUTO 23009KT 10SM CLR M04/M07 A3010 860 78 -1200 230/09 RMK AO2
14926KSTC STC20041130000010111/30/04 00:00:32  5-MIN KSTC 300600Z AUTO 23007KT 10SM CLR M04/M07 A3010 860 78 -1200 230/07 RMK AO2
14926KSTC STC20041130000510111/30/04 00:05:31  5-MIN KSTC 300605Z AUTO 23007KT 10SM CLR M04/M07 A3010 860 78 -1200 220/07 RMK AO2
14926KSTC STC20041130001010111/30/04 00:10:31  5-MIN KSTC 300610Z AUTO 23007KT 10SM CLR M04/M07 A3010 860 78 -1200 220/07 RMK AO2
14926KSTC STC20041130001510111/30/04 00:15:31  5-MIN KSTC 300615Z AUTO 23007KT 10SM CLR M04/M07 A3010 860 78 -1200 220/07 RMK AO2
14926KSTC STC20041130002010111/30/04 00:20:31  5-MIN KSTC 300620Z AUTO 23006KT 10SM CLR M04/M08 A3010 860 74 -1200 230/06 RMK AO2
14926KSTC STC20041130002510111/30/04 00:25:31  5-MIN KSTC 300625Z AUTO 24007KT 10SM CLR M04/M08 A3010 860 74 -1200 230/07 RMK AO2
14926KSTC STC20041130003010111/30/04 00:30:31  5-MIN KSTC 300630Z AUTO 24006KT 10SM CLR M04/M08 A3010 870 74 -1200 240/06 RMK AO2
14926KSTC STC20041130003510111/30/04 00:35:31  5-MIN KSTC 300635Z AUTO 24008KT 10SM CLR M04/M08 A3009 870 74 -1200 240/08 RMK AO2
14926KSTC STC20041130004010111/30/04 00:40:31  5-MIN KSTC 300640Z AUTO 25008KT 10SM CLR M04/M08 A3009 870 74 -1200 240/08 RMK AO2
14926KSTC STC20041130004510111/30/04 00:45:31  5-MIN KSTC 300645Z AUTO 24007KT 10SM CLR M04/M08 A3009 870 74 -1200 240/07 RMK AO2
14926KSTC STC20041130005011811/30/04 00:50:31  5-MIN KSTC 300650Z AUTO 25008KT 10SM CLR M04/M08 A3008 870 74 -1100 240/08 RMK AO2 SLP211 T10391078
14926KSTC STC20041130005510111/30/04 00:55:31  5-MIN KSTC 300655Z AUTO 24007KT 10SM CLR M04/M08 A3008 880 74 -1100 240/07 RMK AO2
14926KSTC STC20041130010010111/30/04 01:00:31  5-MIN KSTC 300700Z AUTO 24007KT 10SM CLR M04/M08 A3008 880 78 -1200 230/07 RMK AO2
14926KSTC STC20041130010510111/30/04 01:05:31  5-MIN KSTC 300705Z AUTO 25007KT 10SM CLR M04/M08 A3008 880 78 -1200 240/07 RMK AO2
14926KSTC STC20041130011010111/30/04 01:10:31  5-MIN KSTC 300710Z AUTO 24007KT 10SM CLR M04/M08 A3008 880 78 -1200 240/07 RMK AO2
14926KSTC STC20041130011510111/30/04 01:15:31  5-MIN KSTC 300715Z AUTO 24007KT 10SM CLR M04/M08 A3008 880 78 -1200 230/07 RMK AO2
14926KSTC STC20041130012010111/30/04 01:20:31  5-MIN KSTC 300720Z AUTO 23007KT 10SM CLR M04/M08 A3007 880 74 -1100 230/07 RMK AO2
14926KSTC STC20041130012510111/30/04 01:25:31  5-MIN KSTC 300725Z AUTO 23007KT 10SM CLR M04/M08 A3007 880 78 -1200 230/07 RMK AO2
14926KSTC STC20041130013010111/30/04 01:30:31  5-MIN KSTC 300730Z AUTO 24006KT 10SM CLR M04/M08 A3007 880 74 -1100 240/06 RMK AO2
14926KSTC STC20041130013510111/30/04 01:35:31  5-MIN KSTC 300735Z AUTO 24006KT 10SM CLR M04/M08 A3007 880 78 -1200 240/06 RMK AO2
14926KSTC STC20041130014010111/30/04 01:40:31  5-MIN KSTC 300740Z AUTO 24006KT 10SM CLR M05/M08 A3008 880 81 -1300 240/06 RMK AO2
14926KSTC STC20041130014510111/30/04 01:45:31  5-MIN KSTC 300745Z AUTO 24006KT 10SM CLR M05/M08 A3007 880 81 -1300 230/06 RMK AO2
14926KSTC STC20041130015011811/30/04 01:50:31  5-MIN KSTC 300750Z AUTO 23005KT 10SM CLR M05/M08 A3007 890 81 -1300 230/05 RMK AO2 SLP207 T10501078
14926KSTC STC20041130015510111/30/04 01:55:31  5-MIN KSTC 300755Z AUTO 23005KT 10SM CLR M05/M08 A3007 890 81 -1300 230/05 RMK AO2
14926KSTC STC20041130020010111/30/04 02:00:31  5-MIN KSTC 300800Z AUTO 23005KT 10SM CLR M06/M08 A3007 890 81 -1300 230/05 RMK AO2
14926KSTC STC20041130020510111/30/04 02:05:31  5-MIN KSTC 300805Z AUTO 23005KT 10SM CLR M06/M08 A3007 890 81 -1300 220/05 RMK AO2
14926KSTC STC20041130021010111/30/04 02:10:31  5-MIN KSTC 300810Z AUTO 22005KT 10SM CLR M06/M08 A3007 890 84 -1300 220/05 RMK AO2
14926KSTC STC20041130021510111/30/04 02:15:31  5-MIN KSTC 300815Z AUTO 22005KT 10SM CLR M06/M08 A3007 890 81 -1300 220/05 RMK AO2
14926KSTC STC20041130022010111/30/04 02:20:31  5-MIN KSTC 300820Z AUTO 21006KT 10SM CLR M06/M08 A3007 890 81 -1300 210/06 RMK AO2
14926KSTC STC20041130022510111/30/04 02:25:31  5-MIN KSTC 300825Z AUTO 21007KT 10SM CLR M06/M08 A3007 890 81 -1300 210/07 RMK AO2
14926KSTC STC20041130023010111/30/04 02:30:31  5-MIN KSTC 300830Z AUTO 22007KT 10SM CLR M06/M08 A3007 890 84 -1300 210/07 RMK AO2
14926KSTC STC20041130023510111/30/04 02:35:31  5-MIN KSTC 300835Z AUTO 22008KT 10SM CLR M05/M08 A3007 890 81 -1300 220/08 RMK AO2
14926KSTC STC20041130024010111/30/04 02:40:31  5-MIN KSTC 300840Z AUTO 23008KT 10SM CLR M05/M08 A3006 890 81 -1300 220/08 RMK AO2
14926KSTC STC20041130024510111/30/04 02:45:31  5-MIN KSTC 300845Z AUTO 23007KT 10SM CLR M05/M08 A3006 890 81 -1300 220/07 RMK AO2
14926KSTC STC20041130025012411/30/04 02:50:31  5-MIN KSTC 300850Z AUTO 22007KT 10SM CLR M05/M08 A3006 900 81 -1300 220/07 RMK AO2 SLP203 T10501078 58013
14926KSTC STC20041130025510111/30/04 02:55:31  5-MIN KSTC 300855Z AUTO 22008KT 10SM CLR M05/M08 A3006 900 81 -1300 220/08 RMK AO2
14926KSTC STC20041130030010111/30/04 03:00:31  5-MIN KSTC 300900Z AUTO 22009KT 10SM CLR M05/M08 A3006 900 81 -1300 220/09 RMK AO2
14926KSTC STC20041130030510111/30/04 03:05:31  5-MIN KSTC 300905Z AUTO 22009KT 10SM CLR M05/M08 A3005 900 81 -1300 220/09 RMK AO2
14926KSTC STC20041130031010111/30/04 03:10:31  5-MIN KSTC 300910Z AUTO 23008KT 10SM CLR M04/M08 A3006 900 78 -1200 220/08 RMK AO2
14926KSTC STC20041130031510111/30/04 03:15:31  5-MIN KSTC 300915Z AUTO 23008KT 10SM CLR M04/M08 A3006 900 78 -1200 220/08 RMK AO2
14926KSTC STC20041130032010111/30/04 03:20:31  5-MIN KSTC 300920Z AUTO 23008KT 10SM CLR M04/M08 A3006 900 78 -1200 220/08 RMK AO2
14926KSTC STC20041130032510111/30/04 03:25:31  5-MIN KSTC 300925Z AUTO 23008KT 10SM CLR M04/M08 A3005 900 78 -1200 230/08 RMK AO2
14926KSTC STC20041130033010111/30/04 03:30:31  5-MIN KSTC 300930Z AUTO 23008KT 10SM CLR M04/M08 A3005 910 78 -1200 220/08 RMK AO2
14926KSTC STC20041130033510111/30/04 03:35:31  5-MIN KSTC 300935Z AUTO 22007KT 10SM CLR M05/M08 A3005 910 77 -1200 220/07 RMK AO2
14926KSTC STC20041130034010111/30/04 03:40:31  5-MIN KSTC 300940Z AUTO 22007KT 10SM CLR M05/M08 A3005 910 77 -1200 220/07 RMK AO2
14926KSTC STC20041130034510111/30/04 03:45:31  5-MIN KSTC 300945Z AUTO 22008KT 10SM CLR M05/M08 A3005 910 77 -1200 220/08 RMK AO2
14926KSTC STC20041130035011811/30/04 03:50:31  5-MIN KSTC 300950Z AUTO 22008KT 10SM CLR M05/M08 A3004 910 77 -1200 220/08 RMK AO2 SLP196 T10501083
14926KSTC STC20041130035510111/30/04 03:55:31  5-MIN KSTC 300955Z AUTO 21007KT 10SM CLR M05/M08 A3004 920 77 -1200 210/07 RMK AO2
14926KSTC STC20041130040010111/30/04 04:00:31  5-MIN KSTC 301000Z AUTO 21007KT 10SM CLR M06/M08 A3004 920 81 -1300 200/07 RMK AO2
14926KSTC STC20041130040510111/30/04 04:05:31  5-MIN KSTC 301005Z AUTO 21007KT 10SM CLR M06/M08 A3003 920 81 -1300 210/07 RMK AO2
14926KSTC STC20041130041010111/30/04 04:10:31  5-MIN KSTC 301010Z AUTO 22007KT 10SM CLR M06/M08 A3003 920 81 -1300 220/07 RMK AO2
14926KSTC STC20041130041510111/30/04 04:15:31  5-MIN KSTC 301015Z AUTO 23007KT 10SM CLR M06/M08 A3003 920 81 -1300 220/07 RMK AO2
14926KSTC STC20041130042010111/30/04 04:20:31  5-MIN KSTC 301020Z AUTO 22007KT 10SM CLR M05/M08 A3003 920 77 -1200 220/07 RMK AO2
14926KSTC STC20041130042510111/30/04 04:25:31  5-MIN KSTC 301025Z AUTO 23007KT 10SM CLR M06/M08 A3003 930 81 -1300 220/07 RMK AO2
14926KSTC STC20041130043010111/30/04 04:30:31  5-MIN KSTC 301030Z AUTO 22007KT 10SM CLR M06/M08 A3003 930 81 -1300 220/07 RMK AO2
14926KSTC STC20041130043510111/30/04 04:35:31  5-MIN KSTC 301035Z AUTO 22007KT 10SM CLR M06/M08 A3002 930 81 -1300 210/07 RMK AO2
14926KSTC STC20041130044010111/30/04 04:40:31  5-MIN KSTC 301040Z AUTO 21007KT 10SM CLR M06/M08 A3002 930 81 -1300 210/07 RMK AO2
14926KSTC STC20041130044510111/30/04 04:45:31  5-MIN KSTC 301045Z AUTO 21008KT 10SM CLR M06/M08 A3002 940 81 -1300 210/08 RMK AO2
14926KSTC STC20041130045011811/30/04 04:50:31  5-MIN KSTC 301050Z AUTO 22008KT 10SM CLR M06/M08 A3002 930 81 -1300 220/08 RMK AO2 SLP189 T10561083
14926KSTC STC20041130045510111/30/04 04:55:31  5-MIN KSTC 301055Z AUTO 22007KT 10SM CLR M06/M08 A3002 940 81 -1300 210/07 RMK AO2
14926KSTC STC20041130050010111/30/04 05:00:31  5-MIN KSTC 301100Z AUTO 21007KT 10SM CLR M06/M08 A3002 940 84 -1400 200/07 RMK AO2
14926KSTC STC20041130050510111/30/04 05:05:31  5-MIN KSTC 301105Z AUTO 21006KT 10SM CLR M06/M08 A3002 940 84 -1400 210/06 RMK AO2
14926KSTC STC20041130052010111/30/04 05:20:31  5-MIN KSTC 301120Z AUTO 20008KT 10SM CLR M06/M08 A3001 940 84 -1300 200/08 RMK AO2
14926KSTC STC20041130052510111/30/04 05:25:31  5-MIN KSTC 301125Z AUTO 21007KT 10SM CLR M06/M09 A3001 940 81 -1300 200/07 RMK AO2
14926KSTC STC20041130053010111/30/04 05:30:31  5-MIN KSTC 301130Z AUTO 21006KT 10SM CLR M07/M09 A3001 940 84 -1400 210/06 RMK AO2
14926KSTC STC20041130053510111/30/04 05:35:31  5-MIN KSTC 301135Z AUTO 22006KT 10SM CLR M07/M09 A3001 940 81 -1400 210/06 RMK AO2
14926KSTC STC20041130054010111/30/04 05:40:31  5-MIN KSTC 301140Z AUTO 23005KT 10SM CLR M07/M09 A3001 940 81 -1400 220/05 RMK AO2
14926KSTC STC20041130054510111/30/04 05:45:31  5-MIN KSTC 301145Z AUTO 22006KT 10SM CLR M07/M09 A3001 940 84 -1400 220/06 RMK AO2
14926KSTC STC20041130055013611/30/04 05:50:31  5-MIN KSTC 301150Z AUTO 22006KT 10SM CLR M07/M09 A3001 950 84 -1400 210/06 RMK AO2 SLP186 T10671089 11033 21067 56014
14926KSTC STC20041130055510111/30/04 05:55:31  5-MIN KSTC 301155Z AUTO 21007KT 10SM CLR M07/M09 A3001 950 84 -1400 210/07 RMK AO2
14926KSTC STC20041130060010111/30/04 06:00:31  5-MIN KSTC 301200Z AUTO 21007KT 10SM CLR M07/M09 A3000 950 84 -1400 210/07 RMK AO2
14926KSTC STC20041130060510111/30/04 06:05:31  5-MIN KSTC 301205Z AUTO 21008KT 10SM CLR M06/M08 A3000 950 84 -1300 210/08 RMK AO2
14926KSTC STC20041130061010111/30/04 06:10:31  5-MIN KSTC 301210Z AUTO 21007KT 10SM CLR M07/M08 A3001 950 88 -1400 210/07 RMK AO2
14926KSTC STC20041130061510111/30/04 06:15:31  5-MIN KSTC 301215Z AUTO 21006KT 10SM CLR M07/M09 A3001 950 84 -1400 210/06 RMK AO2
14926KSTC STC20041130062010111/30/04 06:20:31  5-MIN KSTC 301220Z AUTO 21005KT 10SM CLR M07/M09 A3001 950 84 -1400 210/05 RMK AO2
14926KSTC STC20041130062510111/30/04 06:25:31  5-MIN KSTC 301225Z AUTO 21005KT 10SM CLR M07/M09 A3000 950 84 -1500 200/05 RMK AO2
14926KSTC STC20041130063010111/30/04 06:30:31  5-MIN KSTC 301230Z AUTO 20006KT 10SM CLR M07/M09 A3000 950 84 -1500 200/06 RMK AO2
14926KSTC STC20041130063510111/30/04 06:35:31  5-MIN KSTC 301235Z AUTO 20007KT 10SM CLR M07/M09 A3000 950 84 -1400 200/07 RMK AO2
14926KSTC STC20041130064010111/30/04 06:40:31  5-MIN KSTC 301240Z AUTO 21007KT 10SM CLR M07/M09 A3000 950 84 -1400 200/07 RMK AO2
14926KSTC STC20041130064510111/30/04 06:45:31  5-MIN KSTC 301245Z AUTO 21007KT 10SM CLR M07/M09 A3000 950 84 -1400 200/07 RMK AO2
14926KSTC STC20041130065011811/30/04 06:50:31  5-MIN KSTC 301250Z AUTO 21007KT 10SM CLR M07/M09 A3000 950 84 -1400 210/07 RMK AO2 SLP184 T10671089
14926KSTC STC20041130065510111/30/04 06:55:31  5-MIN KSTC 301255Z AUTO 20008KT 10SM CLR M07/M09 A3000 960 84 -1400 200/08 RMK AO2
14926KSTC STC20041130070010111/30/04 07:00:31  5-MIN KSTC 301300Z AUTO 21008KT 10SM CLR M07/M08 A3000 960 88 -1400 210/08 RMK AO2
14926KSTC STC20041130070510111/30/04 07:05:31  5-MIN KSTC 301305Z AUTO 21008KT 10SM CLR M07/M08 A3000 960 88 -1400 210/08 RMK AO2
14926KSTC STC20041130071010111/30/04 07:10:31  5-MIN KSTC 301310Z AUTO 22007KT 10SM CLR M07/M08 A3000 960 88 -1400 210/07 RMK AO2
14926KSTC STC20041130071510111/30/04 07:15:31  5-MIN KSTC 301315Z AUTO 22008KT 10SM CLR M07/M08 A3000 960 88 -1400 210/08 RMK AO2
14926KSTC STC20041130072010111/30/04 07:20:31  5-MIN KSTC 301320Z AUTO 22007KT 10SM CLR M07/M08 A3000 960 88 -1400 210/07 RMK AO2
14926KSTC STC20041130072510111/30/04 07:25:31  5-MIN KSTC 301325Z AUTO 22007KT 10SM CLR M07/M08 A3000 960 88 -1400 220/07 RMK AO2
14926KSTC STC20041130073010111/30/04 07:30:31  5-MIN KSTC 301330Z AUTO 22006KT 10SM CLR M07/M08 A3000 950 88 -1400 220/06 RMK AO2
14926KSTC STC20041130073510111/30/04 07:35:31  5-MIN KSTC 301335Z AUTO 22006KT 10SM CLR M07/M08 A3000 950 88 -1400 220/06 RMK AO2
14926KSTC STC20041130074010111/30/04 07:40:31  5-MIN KSTC 301340Z AUTO 23007KT 10SM CLR M07/M08 A3000 960 88 -1400 230/07 RMK AO2
14926KSTC STC20041130074510111/30/04 07:45:31  5-MIN KSTC 301345Z AUTO 22006KT 10SM CLR M06/M08 A3000 960 84 -1300 220/06 RMK AO2
14926KSTC STC20041130075011811/30/04 07:50:31  5-MIN KSTC 301350Z AUTO 22006KT 10SM CLR M07/M08 A3000 960 88 -1400 220/06 RMK AO2 SLP183 T10671083
14926KSTC STC20041130075510111/30/04 07:55:31  5-MIN KSTC 301355Z AUTO 22006KT 10SM CLR M06/M08 A3000 960 84 -1300 220/06 RMK AO2
14926KSTC STC20041130080010111/30/04 08:00:31  5-MIN KSTC 301400Z AUTO 22006KT 10SM CLR M06/M08 A2999 960 84 -1300 210/06 RMK AO2
14926KSTC STC20041130080510111/30/04 08:05:31  5-MIN KSTC 301405Z AUTO 21006KT 10SM CLR M07/M08 A2999 960 88 -1400 210/06 RMK AO2
14926KSTC STC20041130081010111/30/04 08:10:31  5-MIN KSTC 301410Z AUTO 20006KT 10SM CLR M06/M08 A2999 960 84 -1300 200/06 RMK AO2
14926KSTC STC20041130081510111/30/04 08:15:31  5-MIN KSTC 301415Z AUTO 21006KT 10SM CLR M06/M08 A2999 960 88 -1300 200/06 RMK AO2
14926KSTC STC20041130082010111/30/04 08:20:31  5-MIN KSTC 301420Z AUTO 20006KT 10SM CLR M06/M08 A2999 960 88 -1300 200/06 RMK AO2
14926KSTC STC20041130082510111/30/04 08:25:31  5-MIN KSTC 301425Z AUTO 20006KT 10SM CLR M06/M08 A2999 960 84 -1200 200/06 RMK AO2
14926KSTC STC20041130083010111/30/04 08:30:31  5-MIN KSTC 301430Z AUTO 20007KT 10SM CLR M05/M07 A2999 970 84 -1200 200/07 RMK AO2
14926KSTC STC20041130083510111/30/04 08:35:31  5-MIN KSTC 301435Z AUTO 21008KT 10SM CLR M05/M07 A2998 970 84 -1200 210/08 RMK AO2
14926KSTC STC20041130084010111/30/04 08:40:31  5-MIN KSTC 301440Z AUTO 21007KT 10SM CLR M04/M07 A2998 970 81 -1100 210/07 RMK AO2
14926KSTC STC20041130084510111/30/04 08:45:31  5-MIN KSTC 301445Z AUTO 22008KT 10SM CLR M04/M07 A2998 970 81 -1100 210/08 RMK AO2
14926KSTC STC20041130085012411/30/04 08:50:31  5-MIN KSTC 301450Z AUTO 22007KT 10SM CLR M04/M07 A2998 970 84 -1100 210/07 RMK AO2 SLP177 T10441067 56018
14926KSTC STC20041130085510111/30/04 08:55:31  5-MIN KSTC 301455Z AUTO 22008KT 10SM CLR M04/M07 A2998 970 81 -1000 210/08 RMK AO2
14926KSTC STC20041130090010111/30/04 09:00:31  5-MIN KSTC 301500Z AUTO 22008KT 10SM CLR M04/M07 A2998 970 78 -1000 220/08 RMK AO2
14926KSTC STC20041130090510111/30/04 09:05:31  5-MIN KSTC 301505Z AUTO 23007KT 10SM CLR M03/M07 A2998 970 78 -1000 220/07 RMK AO2
14926KSTC STC20041130091010111/30/04 09:10:31  5-MIN KSTC 301510Z AUTO 22008KT 10SM CLR M03/M07 A2998 970 78 -1000 210/08 RMK AO2
14926KSTC STC20041130091510011/30/04 09:15:31  5-MIN KSTC 301515Z AUTO 22009KT 10SM CLR M03/M07 A2998 970 75 -900 220/09 RMK AO2
14926KSTC STC20041130092010011/30/04 09:20:31  5-MIN KSTC 301520Z AUTO 23009KT 10SM CLR M03/M07 A2998 970 75 -900 220/09 RMK AO2
14926KSTC STC20041130092510011/30/04 09:25:31  5-MIN KSTC 301525Z AUTO 21008KT 10SM CLR M03/M07 A2997 980 75 -900 210/08 RMK AO2
14926KSTC STC20041130093010011/30/04 09:30:31  5-MIN KSTC 301530Z AUTO 21009KT 10SM CLR M02/M07 A2997 980 72 -800 210/09 RMK AO2
14926KSTC STC20041130093510011/30/04 09:35:31  5-MIN KSTC 301535Z AUTO 21009KT 10SM CLR M02/M06 A2997 980 75 -800 210/09 RMK AO2
14926KSTC STC20041130094010011/30/04 09:40:31  5-MIN KSTC 301540Z AUTO 22009KT 10SM CLR M02/M07 A2997 980 72 -800 220/09 RMK AO2
14926KSTC STC20041130094510011/30/04 09:45:31  5-MIN KSTC 301545Z AUTO 21009KT 10SM CLR M02/M06 A2997 980 72 -700 210/09 RMK AO2
14926KSTC STC20041130095011711/30/04 09:50:31  5-MIN KSTC 301550Z AUTO 21009KT 10SM CLR M02/M06 A2997 980 72 -700 210/09 RMK AO2 SLP173 T10171061
14926KSTC STC20041130095510011/30/04 09:55:31  5-MIN KSTC 301555Z AUTO 21009KT 10SM CLR M02/M06 A2997 980 72 -700 210/09 RMK AO2
14926KSTC STC20041130100010011/30/04 10:00:31  5-MIN KSTC 301600Z AUTO 21009KT 10SM CLR M01/M06 A2997 980 69 -700 210/09 RMK AO2
14926KSTC STC20041130100510011/30/04 10:05:31  5-MIN KSTC 301605Z AUTO 22010KT 10SM CLR M01/M06 A2997 980 69 -700 210/10 RMK AO2
14926KSTC STC20041130101010011/30/04 10:10:31  5-MIN KSTC 301610Z AUTO 21011KT 10SM CLR M01/M06 A2997 980 69 -700 210/11 RMK AO2
14926KSTC STC20041130101510011/30/04 10:15:31  5-MIN KSTC 301615Z AUTO 21011KT 10SM CLR M01/M06 A2997 980 66 -600 210/11 RMK AO2
14926KSTC STC20041130102010011/30/04 10:20:31  5-MIN KSTC 301620Z AUTO 21013KT 10SM CLR M01/M06 A2997 980 66 -600 210/13 RMK AO2
14926KSTC STC20041130102510011/30/04 10:25:31  5-MIN KSTC 301625Z AUTO 22011KT 10SM CLR M01/M07 A2997 980 63 -600 220/11 RMK AO2
14926KSTC STC20041130103009911/30/04 10:30:31  5-MIN KSTC 301630Z AUTO 22009KT 10SM CLR 00/M06 A2997 980 66 -500 210/09 RMK AO2
14926KSTC STC20041130103509911/30/04 10:35:31  5-MIN KSTC 301635Z AUTO 22012KT 10SM CLR 00/M06 A2997 980 63 -500 220/12 RMK AO2
14926KSTC STC20041130104009911/30/04 10:40:31  5-MIN KSTC 301640Z AUTO 23010KT 10SM CLR 00/M07 A2997 980 61 -500 230/10 RMK AO2
14926KSTC STC20041130104509911/30/04 10:45:31  5-MIN KSTC 301645Z AUTO 22013KT 10SM CLR 01/M07 A2997 980 58 -500 220/13 RMK AO2
14926KSTC STC20041130105011611/30/04 10:50:31  5-MIN KSTC 301650Z AUTO 23012KT 10SM CLR 01/M07 A2997 980 58 -400 220/12 RMK AO2 SLP169 T00061067
14926KSTC STC20041130105509911/30/04 10:55:31  5-MIN KSTC 301655Z AUTO 23009KT 10SM CLR 01/M07 A2996 990 58 -400 230/09 RMK AO2
14926KSTC STC20041130110009911/30/04 11:00:31  5-MIN KSTC 301700Z AUTO 22009KT 10SM CLR 01/M07 A2996 990 56 -400 220/09 RMK AO2
14926KSTC STC20041130110509911/30/04 11:05:31  5-MIN KSTC 301705Z AUTO 22011KT 10SM CLR 01/M07 A2996 990 56 -400 220/11 RMK AO2
14926KSTC STC20041130111010011/30/04 11:10:31  5-MIN KSTC 301710Z AUTO 21012KT 10SM CLR 01/M07 A2995 1000 56 -400 210/12 RMK AO2
14926KSTC STC20041130111510011/30/04 11:15:31  5-MIN KSTC 301715Z AUTO 22012KT 10SM CLR 02/M07 A2995 1000 54 -300 220/12 RMK AO2
14926KSTC STC20041130112010011/30/04 11:20:31  5-MIN KSTC 301720Z AUTO 22012KT 10SM CLR 02/M07 A2995 1000 54 -300 210/12 RMK AO2
14926KSTC STC20041130112510011/30/04 11:25:31  5-MIN KSTC 301725Z AUTO 22011KT 10SM CLR 02/M07 A2995 1000 54 -300 210/11 RMK AO2
14926KSTC STC20041130113010011/30/04 11:30:31  5-MIN KSTC 301730Z AUTO 21011KT 10SM CLR 02/M07 A2994 1000 52 -200 210/11 RMK AO2
14926KSTC STC20041130113510011/30/04 11:35:31  5-MIN KSTC 301735Z AUTO 23012KT 10SM CLR 02/M07 A2994 1010 50 -200 220/12 RMK AO2
14926KSTC STC20041130114010011/30/04 11:40:31  5-MIN KSTC 301740Z AUTO 21014KT 10SM CLR 02/M07 A2994 1010 52 -200 210/14 RMK AO2
14926KSTC STC20041130114510011/30/04 11:45:31  5-MIN KSTC 301745Z AUTO 21012KT 10SM CLR 02/M07 A2994 1010 50 -200 210/12 RMK AO2
14926KSTC STC20041130115013511/30/04 11:50:31  5-MIN KSTC 301750Z AUTO 22012KT 10SM CLR 03/M07 A2993 1010 50 -100 210/12 RMK AO2 SLP157 T00281067 10028 21072 58008
14926KSTC STC20041130115510011/30/04 11:55:31  5-MIN KSTC 301755Z AUTO 21012KT 10SM CLR 03/M06 A2993 1020 52 -100 200/12 RMK AO2
14926KSTC STC20041130120010011/30/04 12:00:31  5-MIN KSTC 301800Z AUTO 20013KT 10SM CLR 02/M06 A2993 1020 54 -200 200/13 RMK AO2
14926KSTC STC20041130120510011/30/04 12:05:31  5-MIN KSTC 301805Z AUTO 22012KT 10SM CLR 03/M06 A2993 1020 52 -100 210/12 RMK AO2
14926KSTC STC20041130121010011/30/04 12:10:31  5-MIN KSTC 301810Z AUTO 21012KT 10SM CLR 03/M07 A2993 1020 48 -100 210/12 RMK AO2
14926KSTC STC20041130121510011/30/04 12:15:31  5-MIN KSTC 301815Z AUTO 20014KT 10SM CLR 03/M07 A2992 1030 50 -100 200/14 RMK AO2
14926KSTC STC20041130122010011/30/04 12:20:31  5-MIN KSTC 301820Z AUTO 21014KT 10SM CLR 03/M07 A2992 1030 50 -100 200/14 RMK AO2
14926KSTC STC20041130122510011/30/04 12:25:31  5-MIN KSTC 301825Z AUTO 20013KT 10SM CLR 03/M07 A2992 1030 50 -100 200/13 RMK AO2
14926KSTC STC20041130123002411/30/04 12:30:31  5-MIN
14926KSTC STC20041130124009711/30/04 12:40:31  5-MIN KSTC 301840Z AUTO 22014KT 10SM CLR 03/M07 A2991 1040 48 0 210/14 RMK AO2
14926KSTC STC20041130124508011/30/04 12:45:31  5-MIN KSTC 301845Z AUTO 21014KT 10SM 1040 46 0 220/15 RMK AO2
14926KSTC STC20041130130509711/30/04 13:05:31  5-MIN KSTC 301905Z AUTO 21014KT 10SM CLR 03/M07 A2990 1040 46 0 210/14 RMK AO2
14926KSTC STC20041130131013011/30/04 13:10:31  5-MIN KSTC 301910Z AUTO 21012KT 10SM CLR 03/M07 A2990 1040 46 0 210/12 RMK AO2 11/30/041050 46 0 230/13 RMK AO2
14926KSTC STC20041130133509711/30/04 13:35:31  5-MIN KSTC 301935Z AUTO 22013KT 10SM CLR 03/M07 A2989 1050 46 0 220/13 RMK AO2
14926KSTC STC20041130134011411/30/04 13:40:31  5-MIN KSTC 301940Z AUTO 22012KT 10SM CLR 04/M07 A2989 1060 46 0 210/12 RMK AO2 11/30/04 13:45:3
14926KSTC STC20041130135016411/30/04 13:50:31  5-MIN KSTC 301950Z AUTO 22012KT 10SM CLR 04/M07 A2989 1060 46 0 220/12 RMK AO2 SLP141 T00391067 KT 10SM CLR 04/M07 A2987 1070 46 0 200/13 RMK AO2
14926KSTC STC20041130142009711/30/04 14:20:31  5-MIN KSTC 302020Z AUTO 22016KT 10SM CLR 03/M07 A2987 1070 46 0 220/16 RMK AO2
14926KSTC STC20041130142510411/30/04 14:25:31  5-MIN KSTC 302025Z AUTO 21015KT 10SM CLR 03/M07 A2987 1080 461090 44 0 210/13 RMK AO2
14926KSTC STC20041130145012011/30/04 14:50:31  5-MIN KSTC 302050Z AUTO 21013KT 10SM CLR 03/M07 A2985 1090 46 0 210/13 RMK AO2 SLP130 T00331072 58016
14926KSTC STC20041130145507211/30/04 14:55:31  5-MIN KSTC 302055Z AUTO 21012KT 10SM CLR 03/M07 A2985
14926KSTC STC20041130152009711/30/04 15:20:31  5-MIN KSTC 302120Z AUTO 22011KT 10SM CLR 03/M07 A2985 1090 46 0 220/11 RMK AO2
14926KSTC STC20041130152504011/30/04 15:25:31  5-MIN KSTC 302125Z AU
14926KSTC STC20041130155011411/30/04 15:50:31  5-MIN KSTC 302150Z AUTO 22010KT 10SM CLR 03/M07 A2985 1090 50 0 220/10 RMK AO2 SLP130 T00281067
14926KSTC STC20041130155511511/30/04 15:55:31  5-MIN KSTC 301  5-MIN KSTC 302215Z AUTO 21009KT 10SM CLR 02/M07 A29851100 54 -200 210/09 RMK AO2
14926KSTC STC20041130162010011/30/04 16:20:31  5-MIN KSTC 302220Z AUTO 21009KT 10SM CLR 02/M06 A2984 1100 56 -200 210/09 RMK AO2
14926KSTC STC20041130162507611/30/04 16:25:31  5-MIN KSTC 302225Z AUTO 21009 1100 61 -300 220/08 RMK AO2
14926KSTC STC20041130164510011/30/04 16:45:31  5-MIN KSTC 302245Z AUTO 22008KT 10SM CLR 01/M06 A2984 1100 61 -300 210/08 RMK AO2
14926KSTC STC20041130165013811/30/04 16:50:31  5-MIN KSTC 302250Z AUTO 22008KT 10SM CLR 01/M06 A2984 1100 61 -300 220/08 RMK AO2 SLP11061 41100 66 -400 210/07 RMK AO2
14926KSTC STC20041130171510111/30/04 17:15:31  5-MIN KSTC 302315Z AUTO 21006KT 10SM CLR M01/M06 A2984 1100 66 -400 210/06 RMK AO2
14926KSTC STC20041130172010111/30/04 17:20:31  5-MIN KSTC 302320Z AUTO 21006KT 10SM CLR M01/M06 A2984 1100 66 -400 200/06 RMK AO2
14926KSTC STC20041130172510111/30/04 17:25:31  5-MIN KSTC 302325Z AUTO 21006KT 10SM CLR M01/M06 A2984 1100 72 -500 200/06 RMK AO2
14926KSTC STC20041130173010111/30/04 17:30:31  5-MIN KSTC 302330Z AUTO 21005KT 10SM CLR M01/M06 A2984 1100 72 -500 210/05 RMK AO2
14926KSTC STC20041130173510111/30/04 17:35:31  5-MIN KSTC 302335Z AUTO 22005KT 10SM CLR M01/M06 A2984 1100 72 -500 220/05 RMK AO2
14926KSTC STC20041130174010111/30/04 17:40:31  5-MIN KSTC 302340Z AUTO 22005KT 10SM CLR M01/M06 A2984 1100 72 -500 220/05 RMK AO2
14926KSTC STC20041130174510111/30/04 17:45:31  5-MIN KSTC 302345Z AUTO 22005KT 10SM CLR M01/M06 A2984 1100 72 -500 210/05 RMK AO2
14926KSTC STC20041130175013611/30/04 17:50:31  5-MIN KSTC 302350Z AUTO 21005KT 10SM CLR M01/M06 A2984 1110 72 -500 210/05 RMK AO2 SLP126 T10111056 10039 21011 58026
14926KSTC STC20041130175510111/30/04 17:55:31  5-MIN KSTC 302355Z AUTO 20005KT 10SM CLR M01/M06 A2983 1110 69 -500 200/05 RMK AO2
14926KSTC STC20041130180010111/30/04 18:00:31  5-MIN KSTC 010000Z AUTO 21006KT 10SM CLR M01/M06 A2983 1110 72 -500 210/06 RMK AO2
14926KSTC STC20041130180510111/30/04 18:05:31  5-MIN KSTC 010005Z AUTO 21005KT 10SM CLR M01/M06 A2983 1110 69 -500 210/05 RMK AO2
14926KSTC STC20041130181010111/30/04 18:10:31  5-MIN KSTC 010010Z AUTO 20005KT 10SM CLR M02/M06 A2983 1110 75 -600 190/05 RMK AO2
14926KSTC STC20041130181510111/30/04 18:15:31  5-MIN KSTC 010015Z AUTO 19004KT 10SM CLR M02/M06 A2983 1110 75 -600 190/04 RMK AO2
14926KSTC STC20041130182010111/30/04 18:20:31  5-MIN KSTC 010020Z AUTO 18004KT 10SM CLR M02/M06 A2983 1110 75 -600 180/04 RMK AO2
14926KSTC STC20041130182510111/30/04 18:25:31  5-MIN KSTC 010025Z AUTO 18004KT 10SM CLR M02/M06 A2983 1110 75 -600 180/04 RMK AO2
14926KSTC STC20041130183010111/30/04 18:30:31  5-MIN KSTC 010030Z AUTO 18004KT 10SM CLR M02/M06 A2983 1110 72 -600 180/04 RMK AO2
14926KSTC STC20041130183510111/30/04 18:35:31  5-MIN KSTC 010035Z AUTO 18004KT 10SM CLR M02/M06 A2982 1120 72 -600 180/04 RMK AO2
14926KSTC STC20041130184010111/30/04 18:40:31  5-MIN KSTC 010040Z AUTO 18004KT 10SM CLR M02/M06 A2982 1120 72 -600 180/04 RMK AO2
14926KSTC STC20041130184510111/30/04 18:45:31  5-MIN KSTC 010045Z AUTO 18004KT 10SM CLR M02/M06 A2982 1120 75 -600 180/04 RMK AO2
14926KSTC STC20041130185011811/30/04 18:50:31  5-MIN KSTC 010050Z AUTO 18004KT 10SM CLR M02/M06 A2982 1120 75 -600 180/04 RMK AO2 SLP123 T10221061
14926KSTC STC20041130185510111/30/04 18:55:31  5-MIN KSTC 010055Z AUTO 19004KT 10SM CLR M02/M06 A2982 1120 75 -600 180/04 RMK AO2
14926KSTC STC20041130190010111/30/04 19:00:31  5-MIN KSTC 010100Z AUTO 19003KT 10SM CLR M03/M06 A2982 1120 78 -700 180/03 RMK AO2
14926KSTC STC20041130190510111/30/04 19:05:31  5-MIN KSTC 010105Z AUTO 19003KT 10SM CLR M03/M06 A2982 1120 78 -700 190/03 RMK AO2
14926KSTC STC20041130191010111/30/04 19:10:31  5-MIN KSTC 010110Z AUTO 20003KT 10SM CLR M03/M07 A2983 1110 75 -700 190/03 RMK AO2
14926KSTC STC20041130191510111/30/04 19:15:31  5-MIN KSTC 010115Z AUTO 00000KT 10SM CLR M02/M06 A2983 1110 75 -600 000/00 RMK AO2
14926KSTC STC20041130192010111/30/04 19:20:31  5-MIN KSTC 010120Z AUTO 19003KT 10SM CLR M02/M06 A2983 1110 75 -600 180/03 RMK AO2
14926KSTC STC20041130192510111/30/04 19:25:31  5-MIN KSTC 010125Z AUTO 18004KT 10SM CLR M03/M07 A2983 1110 75 -700 180/04 RMK AO2
14926KSTC STC20041130193010111/30/04 19:30:31  5-MIN KSTC 010130Z AUTO 17004KT 10SM CLR M03/M07 A2982 1120 75 -700 170/04 RMK AO2
14926KSTC STC20041130193510111/30/04 19:35:31  5-MIN KSTC 010135Z AUTO 18004KT 10SM CLR M03/M06 A2982 1120 78 -700 180/04 RMK AO2
14926KSTC STC20041130194010111/30/04 19:40:31  5-MIN KSTC 010140Z AUTO 18004KT 10SM CLR M03/M06 A2982 1120 78 -700 180/04 RMK AO2
14926KSTC STC20041130194510111/30/04 19:45:31  5-MIN KSTC 010145Z AUTO 18004KT 10SM CLR M03/M06 A2983 1110 81 -700 180/04 RMK AO2
14926KSTC STC20041130195011811/30/04 19:50:31  5-MIN KSTC 010150Z AUTO 18004KT 10SM CLR M03/M06 A2982 1120 81 -700 180/04 RMK AO2 SLP123 T10281056
14926KSTC STC20041130195510111/30/04 19:55:31  5-MIN KSTC 010155Z AUTO 18005KT 10SM CLR M03/M06 A2982 1120 81 -700 180/05 RMK AO2
14926KSTC STC20041130200010111/30/04 20:00:31  5-MIN KSTC 010200Z AUTO 19005KT 10SM CLR M03/M06 A2982 1120 81 -700 180/05 RMK AO2
14926KSTC STC20041130200510111/30/04 20:05:31  5-MIN KSTC 010205Z AUTO 18005KT 10SM CLR M03/M06 A2982 1120 81 -700 180/05 RMK AO2
14926KSTC STC20041130201010111/30/04 20:10:31  5-MIN KSTC 010210Z AUTO 19005KT 10SM CLR M03/M06 A2982 1120 85 -800 180/05 RMK AO2
14926KSTC STC20041130201510111/30/04 20:15:31  5-MIN KSTC 010215Z AUTO 19005KT 10SM CLR M03/M06 A2982 1120 85 -800 190/05 RMK AO2
14926KSTC STC20041130202010111/30/04 20:20:31  5-MIN KSTC 010220Z AUTO 19005KT 10SM CLR M03/M06 A2982 1120 85 -800 190/05 RMK AO2
14926KSTC STC20041130202510111/30/04 20:25:31  5-MIN KSTC 010225Z AUTO 19006KT 10SM CLR M04/M06 A2981 1120 85 -800 180/06 RMK AO2
14926KSTC STC20041130203010111/30/04 20:30:31  5-MIN KSTC 010230Z AUTO 19005KT 10SM CLR M03/M06 A2981 1130 81 -800 190/05 RMK AO2
14926KSTC STC20041130203510111/30/04 20:35:31  5-MIN KSTC 010235Z AUTO 19006KT 10SM CLR M03/M06 A2981 1130 81 -800 190/06 RMK AO2
14926KSTC STC20041130204010111/30/04 20:40:31  5-MIN KSTC 010240Z AUTO 19006KT 10SM CLR M04/M06 A2981 1130 85 -800 190/06 RMK AO2
14926KSTC STC20041130204510111/30/04 20:45:31  5-MIN KSTC 010245Z AUTO 20006KT 10SM CLR M03/M06 A2981 1130 81 -800 200/06 RMK AO2
14926KSTC STC20041130205012411/30/04 20:50:31  5-MIN KSTC 010250Z AUTO 20006KT 10SM CLR M03/M06 A2981 1130 81 -800 200/06 RMK AO2 SLP117 T10331061 58006
14926KSTC STC20041130205510111/30/04 20:55:31  5-MIN KSTC 010255Z AUTO 20006KT 10SM CLR M04/M06 A2981 1130 85 -800 200/06 RMK AO2
14926KSTC STC20041130210010111/30/04 21:00:31  5-MIN KSTC 010300Z AUTO 21006KT 10SM CLR M03/M06 A2981 1130 81 -800 200/06 RMK AO2
14926KSTC STC20041130210510111/30/04 21:05:31  5-MIN KSTC 010305Z AUTO 20005KT 10SM CLR M03/M06 A2981 1130 81 -800 200/05 RMK AO2
14926KSTC STC20041130211010111/30/04 21:10:31  5-MIN KSTC 010310Z AUTO 21004KT 10SM CLR M03/M06 A2981 1130 81 -800 200/04 RMK AO2
14926KSTC STC20041130211510111/30/04 21:15:31  5-MIN KSTC 010315Z AUTO 20004KT 10SM CLR M03/M06 A2981 1130 81 -800 200/04 RMK AO2
14926KSTC STC20041130212010111/30/04 21:20:31  5-MIN KSTC 010320Z AUTO 20004KT 10SM CLR M03/M06 A2981 1130 81 -800 200/04 RMK AO2
14926KSTC STC20041130212510111/30/04 21:25:31  5-MIN KSTC 010325Z AUTO 20003KT 10SM CLR M03/M06 A2981 1130 81 -800 200/03 RMK AO2
14926KSTC STC20041130213010111/30/04 21:30:31  5-MIN KSTC 010330Z AUTO 00000KT 10SM CLR M03/M06 A2981 1130 81 -800 000/00 RMK AO2
14926KSTC STC20041130213510111/30/04 21:35:31  5-MIN KSTC 010335Z AUTO 21003KT 10SM CLR M03/M06 A2981 1130 78 -700 200/03 RMK AO2
14926KSTC STC20041130214010111/30/04 21:40:31  5-MIN KSTC 010340Z AUTO 21003KT 10SM CLR M03/M06 A2981 1130 81 -800 200/03 RMK AO2
14926KSTC STC20041130214510111/30/04 21:45:31  5-MIN KSTC 010345Z AUTO 21003KT 10SM CLR M03/M06 A2981 1130 81 -800 200/03 RMK AO2
14926KSTC STC20041130215011811/30/04 21:50:31  5-MIN KSTC 010350Z AUTO 20003KT 10SM CLR M03/M06 A2981 1130 81 -800 200/03 RMK AO2 SLP116 T10331061
14926KSTC STC20041130215510111/30/04 21:55:31  5-MIN KSTC 010355Z AUTO 21003KT 10SM CLR M04/M06 A2981 1130 85 -800 210/03 RMK AO2
14926KSTC STC20041130220010111/30/04 22:00:31  5-MIN KSTC 010400Z AUTO 22004KT 10SM CLR M04/M07 A2981 1130 81 -800 210/04 RMK AO2
14926KSTC STC20041130220510111/30/04 22:05:31  5-MIN KSTC 010405Z AUTO 22003KT 10SM CLR M04/M06 A2980 1130 85 -800 210/03 RMK AO2
14926KSTC STC20041130221010111/30/04 22:10:31  5-MIN KSTC 010410Z AUTO 20003KT 10SM CLR M04/M06 A2981 1130 85 -800 200/03 RMK AO2
14926KSTC STC20041130221510111/30/04 22:15:31  5-MIN KSTC 010415Z AUTO 20003KT 10SM CLR M04/M07 A2981 1130 81 -800 200/03 RMK AO2
14926KSTC STC20041130222010111/30/04 22:20:31  5-MIN KSTC 010420Z AUTO 20003KT 10SM CLR M04/M07 A2980 1130 81 -800 200/03 RMK AO2
14926KSTC STC20041130222510111/30/04 22:25:31  5-MIN KSTC 010425Z AUTO 19003KT 10SM CLR M04/M07 A2980 1140 84 -900 190/03 RMK AO2
14926KSTC STC20041130223010211/30/04 22:30:31  5-MIN KSTC 010430Z AUTO 00000KT 10SM CLR M05/M07 A2980 1140 84 -1000 000/00 RMK AO2
14926KSTC STC20041130223510111/30/04 22:35:31  5-MIN KSTC 010435Z AUTO 00000KT 10SM CLR M04/M07 A2980 1130 84 -900 000/00 RMK AO2
14926KSTC STC20041130224010111/30/04 22:40:31  5-MIN KSTC 010440Z AUTO 00000KT 10SM CLR M04/M07 A2980 1130 84 -900 000/00 RMK AO2
14926KSTC STC20041130224510211/30/04 22:45:31  5-MIN KSTC 010445Z AUTO 00000KT 10SM CLR M06/M07 A2980 1130 88 -1000 000/00 RMK AO2
14926KSTC STC20041130225011911/30/04 22:50:31  5-MIN KSTC 010450Z AUTO 00000KT 10SM CLR M05/M07 A2980 1130 88 -1000 000/00 RMK AO2 SLP115 T10501067
14926KSTC STC20041130225510211/30/04 22:55:31  5-MIN KSTC 010455Z AUTO 00000KT 10SM CLR M05/M07 A2980 1130 88 -1000 000/00 RMK AO2
14926KSTC STC20041130230010211/30/04 23:00:31  5-MIN KSTC 010500Z AUTO 00000KT 10SM CLR M06/M07 A2981 1130 88 -1000 000/00 RMK AO2
14926KSTC STC20041130230510211/30/04 23:05:31  5-MIN KSTC 010505Z AUTO 23003KT 10SM CLR M06/M07 A2981 1130 92 -1000 230/03 RMK AO2
14926KSTC STC20041130231010211/30/04 23:10:31  5-MIN KSTC 010510Z AUTO 23003KT 10SM CLR M06/M08 A2981 1130 88 -1100 230/03 RMK AO2
14926KSTC STC20041130231510211/30/04 23:15:31  5-MIN KSTC 010515Z AUTO 24003KT 10SM CLR M07/M09 A2981 1130 84 -1200 230/03 RMK AO2
14926KSTC STC20041130232010211/30/04 23:20:31  5-MIN KSTC 010520Z AUTO 24004KT 10SM CLR M07/M08 A2981 1130 92 -1300 230/04 RMK AO2
14926KSTC STC20041130232510211/30/04 23:25:31  5-MIN KSTC 010525Z AUTO 24003KT 10SM CLR M07/M09 A2980 1130 84 -1200 240/03 RMK AO2
14926KSTC STC20041130233010211/30/04 23:30:31  5-MIN KSTC 010530Z AUTO 25003KT 10SM CLR M06/M08 A2980 1130 84 -1100 240/03 RMK AO2
14926KSTC STC20041130233510211/30/04 23:35:31  5-MIN KSTC 010535Z AUTO 25004KT 10SM CLR M06/M08 A2980 1130 84 -1000 250/04 RMK AO2
14926KSTC STC20041130234010211/30/04 23:40:31  5-MIN KSTC 010540Z AUTO 26003KT 10SM CLR M06/M08 A2980 1130 81 -1000 250/03 RMK AO2
14926KSTC STC20041130234510211/30/04 23:45:31  5-MIN KSTC 010545Z AUTO 26003KT 10SM CLR M06/M08 A2980 1130 81 -1000 250/03 RMK AO2
14926KSTC STC20041130235014711/30/04 23:50:31  5-MIN KSTC 010550Z AUTO 25004KT 10SM CLR M06/M08 A2980 1130 81 -1000 250/04 RMK AO2 SLP114 T10561083 11011 21072 400391072 58008
14926KSTC STC20041130235510211/30/04 23:55:31  5-MIN KSTC 010555Z AUTO 26004KT 10SM CLR M05/M08 A2981 1130 77 -1000 260/04 RMK AO2
