14926KSTC STC20000601000010106/01/00 00:00:32  5-MIN KSTC 010600Z AUTO 04010KT 10SM OVC065 17/06 A2997 990 49 1400 040/10 RMK AO2
14926KSTC STC20000601000510706/01/00 00:05:31  5-MIN KSTC 010605Z AUTO 05013G17KT 10SM OVC065 17/06 A2996 990 49 1500 040/13G17 RMK AO2
14926KSTC STC20000601001010706/01/00 00:10:31  5-MIN KSTC 010610Z AUTO 05012G17KT 10SM OVC065 17/06 A2996 990 49 1500 040/12G17 RMK AO2
14926KSTC STC20000601001511706/01/00 00:15:31  5-MIN KSTC 010615Z AUTO 05010KT 020V080 10SM OVC065 16/06 A2996 990 51 1400 050/10 020V080 RMK AO2
14926KSTC STC20000601002010206/01/00 00:20:31  5-MIN KSTC 010620Z AUTO 05009KT 10SM OVC065 16/06 A2995 1000 51 1400 050/09 RMK AO2
14926KSTC STC20000601002510806/01/00 00:25:31  5-MIN KSTC 010625Z AUTO 06012G17KT 10SM OVC065 16/06 A2995 1000 51 1400 060/12G17 RMK AO2
14926KSTC STC20000601003012306/01/00 00:30:31  5-MIN KSTC 010630Z AUTO 05009G17KT 020V080 10SM OVC065 16/06 A2995 990 51 1400 050/09G17 020V080 RMK AO2
14926KSTC STC20000601003510106/01/00 00:35:31  5-MIN KSTC 010635Z AUTO 04010KT 10SM OVC065 16/06 A2996 990 51 1400 040/10 RMK AO2
14926KSTC STC20000601004010706/01/00 00:40:31  5-MIN KSTC 010640Z AUTO 03010G15KT 10SM OVC065 16/06 A2995 990 51 1400 030/10G15 RMK AO2
14926KSTC STC20000601004510106/01/00 00:45:31  5-MIN KSTC 010645Z AUTO 02009KT 10SM OVC065 16/06 A2996 990 51 1400 020/09 RMK AO2
14926KSTC STC20000601005011806/01/00 00:50:31  5-MIN KSTC 010650Z AUTO 04009KT 10SM OVC065 16/06 A2996 990 51 1400 030/09 RMK AO2 SLP150 T01610061
14926KSTC STC20000601005511006/01/00 00:55:31  5-MIN KSTC 010655Z AUTO 05013G17KT 10SM OVC065 16/06 A2995 1000 53 1300 050/13G17 RMK AO2 $
14926KSTC STC20000601010011006/01/00 01:00:31  5-MIN KSTC 010700Z AUTO 05015G20KT 10SM OVC065 16/03 A2995 1000 43 1300 040/15G20 RMK AO2 $
14926KSTC STC20000601010511006/01/00 01:05:31  5-MIN KSTC 010705Z AUTO 05013G20KT 10SM OVC065 16/03 A2995 1000 43 1300 050/13G20 RMK AO2 $
14926KSTC STC20000601011010906/01/00 01:10:31  5-MIN KSTC 010710Z AUTO 05011G20KT 10SM OVC065 16/04 A2996 990 45 1300 050/11G20 RMK AO2 $
14926KSTC STC20000601011510306/01/00 01:15:31  5-MIN KSTC 010715Z AUTO 05012KT 10SM OVC065 16/07 A2995 990 55 1300 050/12 RMK AO2 $
14926KSTC STC20000601012010406/01/00 01:20:31  5-MIN KSTC 010720Z AUTO 06010KT 10SM OVC065 16/06 A2995 1000 53 1300 060/10 RMK AO2 $
14926KSTC STC20000601012510306/01/00 01:25:31  5-MIN KSTC 010725Z AUTO 04010KT 10SM OVC065 16/06 A2996 990 53 1300 040/10 RMK AO2 $
14926KSTC STC20000601013010406/01/00 01:30:31  5-MIN KSTC 010730Z AUTO 05014KT 10SM OVC065 16/06 A2995 1000 51 1400 050/14 RMK AO2 $
14926KSTC STC20000601013511106/01/00 01:35:31  5-MIN KSTC 010735Z AUTO 05012KT 10SM BKN065 OVC080 16/06 A2995 1000 51 1400 050/12 RMK AO2 $
14926KSTC STC20000601014013206/01/00 01:40:31  5-MIN KSTC 010740Z AUTO 04010G16KT 360V070 10SM BKN065 OVC080 16/06 A2996 990 51 1400 040/10G16 360V070 RMK AO2 $
14926KSTC STC20000601014511006/01/00 01:45:31  5-MIN KSTC 010745Z AUTO 05010G18KT 10SM OVC060 16/06 A2995 1000 51 1400 040/10G18 RMK AO2 $
14926KSTC STC20000601015013406/01/00 01:50:31  5-MIN KSTC 010750Z AUTO 05013G18KT 10SM BKN060 OVC075 16/06 A2994 1010 49 1400 050/13G18 RMK AO2 SLP144 T01610056 $
14926KSTC STC20000601015511706/01/00 01:55:31  5-MIN KSTC 010755Z AUTO 06012G17KT 10SM BKN065 OVC080 16/06 A2994 1010 51 1300 050/12G17 RMK AO2 $
14926KSTC STC20000601020011706/01/00 02:00:31  5-MIN KSTC 010800Z AUTO 05011G19KT 10SM BKN065 OVC080 16/06 A2994 1000 51 1300 050/11G19 RMK AO2 $
14926KSTC STC20000601020513306/01/00 02:05:31  5-MIN KSTC 010805Z AUTO 04007G19KT 020V080 10SM BKN065 OVC080 16/06 A2995 1000 51 1300 040/07G19 020V080 RMK AO2 $
14926KSTC STC20000601021011706/01/00 02:10:31  5-MIN KSTC 010810Z AUTO 04011G16KT 10SM BKN060 OVC075 16/06 A2994 1010 51 1300 040/11G16 RMK AO2 $
14926KSTC STC20000601021511706/01/00 02:15:31  5-MIN KSTC 010815Z AUTO 05011G18KT 10SM BKN060 OVC080 16/06 A2993 1020 51 1400 050/11G18 RMK AO2 $
14926KSTC STC20000601022011706/01/00 02:20:31  5-MIN KSTC 010820Z AUTO 07012G18KT 10SM BKN060 OVC085 16/06 A2993 1020 51 1400 060/12G18 RMK AO2 $
14926KSTC STC20000601022511706/01/00 02:25:31  5-MIN KSTC 010825Z AUTO 07013G19KT 10SM SCT060 OVC080 16/06 A2993 1020 51 1400 070/13G19 RMK AO2 $
14926KSTC STC20000601023012406/01/00 02:30:31  5-MIN KSTC 010830Z AUTO 06011G19KT 10SM SCT060 BKN080 OVC090 16/06 A2993 1020 51 1400 060/11G19 RMK AO2 $
14926KSTC STC20000601023511706/01/00 02:35:31  5-MIN KSTC 010835Z AUTO 07012G17KT 10SM SCT060 OVC080 16/06 A2993 1020 51 1400 070/12G17 RMK AO2 $
14926KSTC STC20000601024011706/01/00 02:40:31  5-MIN KSTC 010840Z AUTO 07009G17KT 10SM SCT065 OVC080 16/06 A2993 1020 51 1400 060/09G17 RMK AO2 $
14926KSTC STC20000601024511706/01/00 02:45:31  5-MIN KSTC 010845Z AUTO 05011G16KT 10SM BKN070 OVC085 16/06 A2993 1020 51 1400 050/11G16 RMK AO2 $
14926KSTC STC20000601025013406/01/00 02:50:31  5-MIN KSTC 010850Z AUTO 05010KT 10SM SCT065 OVC080 16/06 A2993 1020 51 1400 050/10 RMK AO2 SLP139 T01560056 55002 $
14926KSTC STC20000601025511806/01/00 02:55:31  5-MIN KSTC 010855Z AUTO 05010KT 10SM SCT060 BKN080 OVC110 16/06 A2993 1020 51 1400 040/10 RMK AO2 $
14926KSTC STC20000601030011806/01/00 03:00:31  5-MIN KSTC 010900Z AUTO 04011KT 10SM SCT065 BKN080 OVC110 16/06 A2993 1020 51 1400 040/11 RMK AO2 $
14926KSTC STC20000601030511106/01/00 03:05:31  5-MIN KSTC 010905Z AUTO 05010KT 10SM BKN075 OVC110 16/05 A2993 1020 49 1400 050/10 RMK AO2 $
14926KSTC STC20000601031011806/01/00 03:10:31  5-MIN KSTC 010910Z AUTO 05011KT 10SM FEW065 BKN080 OVC110 16/05 A2993 1020 49 1400 050/11 RMK AO2 $
14926KSTC STC20000601031511506/01/00 03:15:31  5-MIN KSTC 010915Z AUTO 05012G18KT 10SM BKN075 OVC110 16/05 A2992 1020 49 1400 050/12G18 RMK AO2
14926KSTC STC20000601032011506/01/00 03:20:31  5-MIN KSTC 010920Z AUTO 06012G18KT 10SM BKN075 OVC110 16/05 A2991 1030 49 1400 050/12G18 RMK AO2
14926KSTC STC20000601032511506/01/00 03:25:31  5-MIN KSTC 010925Z AUTO 06010G16KT 10SM BKN075 OVC110 16/05 A2991 1030 49 1400 060/10G16 RMK AO2
14926KSTC STC20000601033011606/01/00 03:30:31  5-MIN KSTC 010930Z AUTO 06010KT 10SM FEW049 SCT075 OVC110 15/05 A2991 1040 51 1300 050/10 RMK AO2
14926KSTC STC20000601033511606/01/00 03:35:31  5-MIN KSTC 010935Z AUTO 06012KT 10SM FEW049 SCT075 OVC110 15/05 A2990 1050 51 1300 060/12 RMK AO2
14926KSTC STC20000601034012206/01/00 03:40:31  5-MIN KSTC 010940Z AUTO 07012G20KT 10SM FEW049 SCT075 BKN110 15/05 A2989 1050 51 1300 070/12G20 RMK AO2
14926KSTC STC20000601034511506/01/00 03:45:31  5-MIN KSTC 010945Z AUTO 07011G20KT 10SM SCT047 BKN110 15/05 A2990 1050 51 1300 060/11G20 RMK AO2
14926KSTC STC20000601035013206/01/00 03:50:31  5-MIN KSTC 010950Z AUTO 06012G19KT 10SM SCT047 BKN110 15/05 A2990 1050 51 1300 060/12G19 RMK AO2 SLP130 T01500050
14926KSTC STC20000601035511506/01/00 03:55:31  5-MIN KSTC 010955Z AUTO 07012G19KT 10SM BKN047 BKN110 15/05 A2990 1040 51 1300 060/12G19 RMK AO2
14926KSTC STC20000601040011506/01/00 04:00:31  5-MIN KSTC 011000Z AUTO 06008G17KT 10SM BKN047 BKN110 15/04 A2990 1050 49 1300 060/08G17 RMK AO2
14926KSTC STC20000601040511106/01/00 04:05:31  5-MIN KSTC 011005Z AUTO 06009KT 10SM TS BKN045 15/04 A2990 1050 49 1300 060/09 RMK AO2 TSB05
14926KSTC STC20000601041011106/01/00 04:10:31  5-MIN KSTC 011010Z AUTO 06009KT 10SM TS OVC045 15/04 A2990 1050 49 1300 050/09 RMK AO2 TSB05
14926KSTC STC20000601041511806/01/00 04:15:31  5-MIN KSTC 011015Z AUTO 07014KT 10SM TS OVC043 15/04 A2987 1080 49 1400 070/14 RMK AO2 TSB05 PRESFR
14926KSTC STC20000601042013106/01/00 04:20:31  5-MIN KSTC 011020Z AUTO 07012G18KT 10SM TS SCT035 OVC043 15/04 A2985 1090 49 1400 070/12G18 RMK AO2 TSB05 PRESFR
14926KSTC STC20000601042512406/01/00 04:25:31  5-MIN KSTC 011025Z AUTO 07009G18KT 10SM TS BKN031 OVC043 15/04 A2987 1070 49 1400 070/09G18 RMK AO2 TSB05
14926KSTC STC20000601043011806/01/00 04:30:31  5-MIN KSTC 011030Z AUTO 06010KT 10SM BKN029 OVC043 15/04 A2990 1040 49 1300 050/10 RMK AO2 TSB05E29
14926KSTC STC20000601043513206/01/00 04:35:31  5-MIN KSTC 011035Z AUTO 03006KT 10SM BKN027 BKN034 OVC043 15/04 A2994 1010 47 1300 030/06 RMK AO2 TSB05E29 PRESRR
14926KSTC STC20000601044012506/01/00 04:40:31  5-MIN KSTC 011040Z AUTO 03007KT 10SM BKN027 OVC034 16/04 A2994 1010 47 1300 030/07 RMK AO2 TSB05E29 PRESRR
14926KSTC STC20000601044513006/01/00 04:45:31  5-MIN KSTC 011045Z AUTO 02010G15KT 10SM TS BKN027 OVC032 15/04 A2992 1030 49 1300 020/10G15 RMK AO2 TSB05E29B41
14926KSTC STC20000601045014006/01/00 04:50:31  5-MIN KSTC 011050Z AUTO 02012G17KT 10SM TS OVC025 15/04 A2991 1040 49 1300 020/12G17 RMK AO2 TSB05E29B41 SLP133 T01500044
14926KSTC STC20000601045512006/01/00 04:55:31  5-MIN KSTC 011055Z AUTO 02010G17KT 10SM -TSRA OVC025 15/04 A2992 1030 49 1300 020/10G17 RMK AO2 P0000
14926KSTC STC20000601050011406/01/00 05:00:31  5-MIN KSTC 011100Z AUTO 03010KT 10SM -TSRA OVC023 14/05 A2991 1030 53 1200 030/10 RMK AO2 P0000
14926KSTC STC20000601050512506/01/00 05:05:31  5-MIN KSTC 011105Z AUTO 05013KT 10SM -RA OVC023 14/06 A2989 1050 55 1300 040/13 RMK AO2 TSE04 PRESFR P0000
14926KSTC STC20000601051011806/01/00 05:10:31  5-MIN KSTC 011110Z AUTO 05011KT 10SM -RA OVC023 14/06 A2991 1030 55 1200 040/11 RMK AO2 TSE04 P0000
14926KSTC STC20000601051512306/01/00 05:15:31  5-MIN KSTC 011115Z AUTO 06008KT 10SM -TSRA OVC023 14/06 A2993 1020 55 1200 050/08 RMK AO2 TSE04B12 P0000
14926KSTC STC20000601052013006/01/00 05:20:31  5-MIN KSTC 011120Z AUTO 09006KT 10SM -TSRA OVC023 14/06 A2994 1010 59 1200 080/06 RMK AO2 TSE04B12 PRESRR P0000
14926KSTC STC20000601052512906/01/00 05:25:31  5-MIN KSTC 011125Z AUTO 00000KT 10SM -TSRA OVC023 14/07 A2996 990 61 1100 000/00 RMK AO2 TSE04B12 PRESRR P0001
14926KSTC STC20000601053012206/01/00 05:30:31  5-MIN KSTC 011130Z AUTO 35006KT 8SM -TSRA OVC021 13/07 A2995 1000 66 1100 350/06 RMK AO2 TSE04B12 P0002
14926KSTC STC20000601053512106/01/00 05:35:31  5-MIN KSTC 011135Z AUTO 34006KT 7SM TSRA OVC021 13/08 A2995 1000 71 1000 340/06 RMK AO2 TSE04B12 P0004
14926KSTC STC20000601054011906/01/00 05:40:31  5-MIN KSTC 011140Z AUTO 35007KT 7SM TSRA OVC021 12/08 A2996 990 77 900 340/07 RMK AO2 TSE04B12 P0005
14926KSTC STC20000601054512106/01/00 05:45:31  5-MIN KSTC 011145Z AUTO 36007KT 8SM -TSRA OVC021 12/08 A2995 1000 77 900 350/07 RMK AO2 TSE04B12 P0006
14926KSTC STC20000601055016906/01/00 05:50:31  5-MIN KSTC 011150Z AUTO 04007KT 8SM -TSRA OVC021 12/09 A2993 1020 80 1000 040/07 RMK AO2 TSE04B12 SLP140 P0007 60007 70008 T01220089 10167 20122 56011
14926KSTC STC20000601055512006/01/00 05:55:31  5-MIN KSTC 011155Z AUTO 07009KT 8SM -TSRA OVC021 12/08 A2992 1030 77 1000 070/09 RMK AO2 PRESFR P0001
14926KSTC STC20000601060011206/01/00 06:00:31  5-MIN KSTC 011200Z AUTO 08009KT 8SM -TSRA OVC021 12/09 A2991 1030 83 900 080/09 RMK AO2 P0001
14926KSTC STC20000601060511706/01/00 06:05:31  5-MIN KSTC 011205Z AUTO 06008KT 10SM -RA OVC021 12/09 A2992 1030 83 900 050/08 RMK AO2 TSE02 P0002
14926KSTC STC20000601061012206/01/00 06:10:31  5-MIN KSTC 011210Z AUTO 07006KT 10SM -TSRA OVC021 12/09 A2993 1020 83 900 060/06 RMK AO2 TSE02B09 P0002
14926KSTC STC20000601061512906/01/00 06:15:31  5-MIN KSTC 011215Z AUTO VRB04KT 10SM -TSRA OVC021 12/09 A2995 1000 83 900 VRB/04 RMK AO2 TSE02B09 PRESRR P0002
14926KSTC STC20000601062013506/01/00 06:20:31  5-MIN KSTC 011220Z AUTO VRB05KT 10SM -TSRA BKN021 OVC026 12/09 A2996 990 83 900 VRB/05 RMK AO2 TSE02B09 PRESRR P0002
14926KSTC STC20000601062513706/01/00 06:25:31  5-MIN KSTC 011225Z AUTO 30004KT 10SM TS BKN020 OVC026 12/08 A2997 980 77 900 290/04 RMK AO2 TSE02B09RAE21 PRESRR P0002
14926KSTC STC20000601063013206/01/00 06:30:31  5-MIN KSTC 011230Z AUTO 35004KT 10SM TS SCT020 OVC026 12/09 A2994 1010 80 1000 340/04 RMK AO2 TSE02B09RAE21 P0002
14926KSTC STC20000601063513106/01/00 06:35:31  5-MIN KSTC 011235Z AUTO VRB03KT 10SM SCT020 BKN026 12/09 A2995 1000 83 900 VRB/03 RMK AO2 TSE02B09E34RAE21 P0002
14926KSTC STC20000601064014406/01/00 06:40:31  5-MIN KSTC 011240Z AUTO 34004KT 10SM -RA FEW020 BKN028 BKN110 12/09 A2996 990 83 900 330/04 RMK AO2 TSE02B09E34RAE21B39 P0002
14926KSTC STC20000601064514406/01/00 06:45:31  5-MIN KSTC 011245Z AUTO VRB03KT 10SM -RA FEW022 BKN028 BKN110 12/09 A2997 980 80 900 VRB/03 RMK AO2 TSE02B09E34RAE21B39 P0002
14926KSTC STC20000601065016206/01/00 06:50:31  5-MIN KSTC 011250Z AUTO 00000KT 10SM -RA BKN028 BKN055 OVC110 13/09 A2996 990 80 1000 000/00 RMK AO2 TSE02B09E34RAE21B39 SLP153 P0003 T01280094
14926KSTC STC20000601065512606/01/00 06:55:31  5-MIN KSTC 011255Z AUTO 07005KT 10SM -RA SCT028 BKN085 OVC110 13/09 A2995 1000 80 1000 070/05 RMK AO2 P0000
14926KSTC STC20000601070014006/01/00 07:00:31  5-MIN KSTC 011300Z AUTO 05005KT 10SM TS FEW030 SCT080 BKN110 12/09 A2994 1010 83 1000 040/05 RMK AO2 TSB1258RAE1257 P0000
14926KSTC STC20000601070514306/01/00 07:05:31  5-MIN KSTC 011305Z AUTO 06008KT 10SM -TSRA FEW030 SCT060 BKN110 12/09 A2990 1040 80 1000 060/08 RMK AO2 TSB1258 PRESFR P0000
14926KSTC STC20000601071014306/01/00 07:10:31  5-MIN KSTC 011310Z AUTO 06011KT 10SM -TSRA FEW030 SCT046 BKN110 12/09 A2984 1100 83 1000 050/11 RMK AO2 TSB1258 PRESFR P0000
14926KSTC STC20000601071514306/01/00 07:15:31  5-MIN KSTC 011315Z AUTO 07015G21KT 10SM -RA SCT030 BKN110 12/09 A2980 1130 83 1000 060/15G21 RMK AO2 TSB1258E13 PRESFR P0000
14926KSTC STC20000601072014306/01/00 07:20:31  5-MIN KSTC 011320Z AUTO 07016G21KT 10SM -RA SCT026 BKN110 12/09 A2977 1170 83 1100 070/16G21 RMK AO2 TSB1258E13 PRESFR P0001
14926KSTC STC20000601072515406/01/00 07:25:31  5-MIN KSTC 011325Z AUTO 08017G26KT 10SM -RA FEW020 12/08 A2975 1190 80 1100 070/17G26 RMK AO2 PK WND 08026/1322 TSB1258E13 PRESFR P0001
14926KSTC STC20000601073015506/01/00 07:30:31  5-MIN KSTC 011330Z AUTO 09017G26KT 10SM FEW020 12/08 A2974 1200 80 1100 080/17G26 RMK AO2 PK WND 08026/1322 TSB1258E13RAE29 PRESFR P0001
14926KSTC STC20000601073515506/01/00 07:35:31  5-MIN KSTC 011335Z AUTO 09021G29KT 10SM FEW020 12/08 A2973 1200 77 1200 090/21G29 RMK AO2 PK WND 08029/1334 TSB1258E13RAE29 PRESFR P0001
14926KSTC STC20000601074014806/01/00 07:40:31  5-MIN KSTC 011340Z AUTO 09018G29KT 10SM FEW015 12/08 A2974 1190 77 1200 090/18G29 RMK AO2 PK WND 08029/1334 TSB1258E13RAE29 P0001
14926KSTC STC20000601074514506/01/00 07:45:31  5-MIN KSTC 011345Z AUTO 10017G27KT 10SM CLR 12/08 A2975 1190 77 1200 100/17G27 RMK AO2 PK WND 08029/1334 TSB1258E13RAE29 P0001
14926KSTC STC20000601075016906/01/00 07:50:31  5-MIN KSTC 011350Z AUTO 10018G28KT 10SM CLR 12/08 A2978 1160 77 1100 100/18G28 RMK AO2 PK WND 08029/1334 TSB1258E13RAE29 PRESRR SLP091 P0001 T01220083
14926KSTC STC20000601075511206/01/00 07:55:31  5-MIN KSTC 011355Z AUTO 12011G28KT 10SM CLR 12/08 A2980 1140 77 1100 110/11G28 RMK AO2 PRESRR
14926KSTC STC20000601080010506/01/00 08:00:31  5-MIN KSTC 011400Z AUTO 09015G25KT 10SM CLR 13/09 A2980 1140 77 1200 090/15G25 RMK AO2
14926KSTC STC20000601080512806/01/00 08:05:31  5-MIN KSTC 011405Z AUTO 11009G21KT 090V150 10SM CLR 13/09 A2983 1110 77 1100 110/09G21 090V150 RMK AO2 PRESRR
14926KSTC STC20000601081010806/01/00 08:10:31  5-MIN KSTC 011410Z AUTO 10014G19KT 10SM FEW020 13/09 A2983 1110 74 1200 100/14G19 RMK AO2
14926KSTC STC20000601081510806/01/00 08:15:31  5-MIN KSTC 011415Z AUTO 11010G16KT 10SM FEW020 13/09 A2985 1090 77 1200 110/10G16 RMK AO2
14926KSTC STC20000601082010806/01/00 08:20:31  5-MIN KSTC 011420Z AUTO 12011G18KT 10SM FEW020 13/09 A2987 1070 77 1200 110/11G18 RMK AO2
14926KSTC STC20000601082510806/01/00 08:25:31  5-MIN KSTC 011425Z AUTO 10007G18KT 10SM SCT020 14/09 A2987 1070 74 1200 100/07G18 RMK AO2
14926KSTC STC20000601083011806/01/00 08:30:31  5-MIN KSTC 011430Z AUTO 10008KT 070V130 10SM SCT020 14/10 A2987 1070 77 1200 100/08 070V130 RMK AO2
14926KSTC STC20000601083510206/01/00 08:35:31  5-MIN KSTC 011435Z AUTO 10011KT 10SM BKN020 14/10 A2987 1070 77 1200 100/11 RMK AO2
14926KSTC STC20000601084010206/01/00 08:40:31  5-MIN KSTC 011440Z AUTO 10007KT 10SM BKN020 14/10 A2987 1070 77 1200 100/07 RMK AO2
14926KSTC STC20000601084510206/01/00 08:45:31  5-MIN KSTC 011445Z AUTO VRB04KT 10SM BKN018 14/10 A2989 1050 74 1300 VRB/04 RMK AO2
14926KSTC STC20000601085013106/01/00 08:50:31  5-MIN KSTC 011450Z AUTO 35006KT 10SM BKN018 14/10 A2990 1040 74 1300 350/06 RMK AO2 SLP133 60004 T01440100 55004
14926KSTC STC20000601085510206/01/00 08:55:31  5-MIN KSTC 011455Z AUTO 36004KT 10SM BKN018 14/09 A2990 1050 74 1200 350/04 RMK AO2
14926KSTC STC20000601090010206/01/00 09:00:31  5-MIN KSTC 011500Z AUTO 36005KT 10SM OVC018 14/09 A2989 1050 74 1200 360/05 RMK AO2
14926KSTC STC20000601090510206/01/00 09:05:31  5-MIN KSTC 011505Z AUTO 36008KT 10SM OVC018 14/10 A2989 1050 77 1200 360/08 RMK AO2
14926KSTC STC20000601091010206/01/00 09:10:31  5-MIN KSTC 011510Z AUTO 34005KT 10SM OVC018 14/10 A2990 1050 74 1300 340/05 RMK AO2
14926KSTC STC20000601091510206/01/00 09:15:31  5-MIN KSTC 011515Z AUTO 01007KT 10SM OVC018 14/10 A2990 1050 74 1300 010/07 RMK AO2
14926KSTC STC20000601092010206/01/00 09:20:31  5-MIN KSTC 011520Z AUTO 35007KT 10SM OVC018 14/09 A2991 1040 72 1300 350/07 RMK AO2
14926KSTC STC20000601092510906/01/00 09:25:31  5-MIN KSTC 011525Z AUTO 33006KT 10SM OVC018 14/09 A2992 1030 72 1200 330/06 RMK AO2 PRESRR
14926KSTC STC20000601093010206/01/00 09:30:31  5-MIN KSTC 011530Z AUTO 33007KT 10SM OVC018 14/09 A2992 1030 72 1200 330/07 RMK AO2
14926KSTC STC20000601093510906/01/00 09:35:31  5-MIN KSTC 011535Z AUTO 32007KT 10SM OVC018 14/10 A2993 1020 74 1200 320/07 RMK AO2 PRESRR
14926KSTC STC20000601094010206/01/00 09:40:31  5-MIN KSTC 011540Z AUTO 32008KT 10SM OVC018 14/10 A2993 1020 74 1200 320/08 RMK AO2
14926KSTC STC20000601094510206/01/00 09:45:31  5-MIN KSTC 011545Z AUTO 32007KT 10SM OVC018 14/10 A2992 1020 74 1200 320/07 RMK AO2
14926KSTC STC20000601095011906/01/00 09:50:31  5-MIN KSTC 011550Z AUTO 33005KT 10SM OVC018 14/10 A2993 1020 74 1200 320/05 RMK AO2 SLP143 T01440100
14926KSTC STC20000601095510206/01/00 09:55:31  5-MIN KSTC 011555Z AUTO 34008KT 10SM OVC018 14/10 A2992 1020 74 1200 340/08 RMK AO2
14926KSTC STC20000601100010206/01/00 10:00:31  5-MIN KSTC 011600Z AUTO 34007KT 10SM OVC018 14/09 A2993 1020 72 1200 330/07 RMK AO2
14926KSTC STC20000601100510206/01/00 10:05:31  5-MIN KSTC 011605Z AUTO 33008KT 10SM OVC018 14/09 A2993 1020 72 1200 330/08 RMK AO2
14926KSTC STC20000601101010206/01/00 10:10:31  5-MIN KSTC 011610Z AUTO 36008KT 10SM OVC018 15/10 A2993 1020 72 1300 360/08 RMK AO2
14926KSTC STC20000601101510906/01/00 10:15:31  5-MIN KSTC 011615Z AUTO 35009KT 10SM BKN018 OVC075 15/10 A2992 1020 72 1300 350/09 RMK AO2
14926KSTC STC20000601102010906/01/00 10:20:31  5-MIN KSTC 011620Z AUTO 01009KT 10SM BKN018 OVC075 15/10 A2992 1030 72 1300 360/09 RMK AO2
14926KSTC STC20000601102513206/01/00 10:25:31  5-MIN KSTC 011625Z AUTO 01008KT 340V050 10SM SCT018 OVC075 15/09 A2991 1040 69 1300 010/08 340V050 RMK AO2 PRESFR
14926KSTC STC20000601103010906/01/00 10:30:31  5-MIN KSTC 011630Z AUTO 01006KT 10SM SCT018 OVC080 14/09 A2991 1030 72 1200 010/06 RMK AO2
14926KSTC STC20000601103510906/01/00 10:35:31  5-MIN KSTC 011635Z AUTO 36007KT 10SM FEW018 OVC080 15/10 A2992 1020 72 1300 360/07 RMK AO2
14926KSTC STC20000601104010206/01/00 10:40:31  5-MIN KSTC 011640Z AUTO 36006KT 10SM OVC075 14/09 A2992 1030 72 1200 360/06 RMK AO2
14926KSTC STC20000601104510206/01/00 10:45:31  5-MIN KSTC 011645Z AUTO 36007KT 10SM OVC075 14/10 A2992 1030 74 1200 360/07 RMK AO2
14926KSTC STC20000601105011906/01/00 10:50:31  5-MIN KSTC 011650Z AUTO 36006KT 10SM OVC070 14/10 A2993 1020 74 1200 360/06 RMK AO2 SLP142 T01440100
14926KSTC STC20000601105510206/01/00 10:55:31  5-MIN KSTC 011655Z AUTO 36005KT 10SM OVC070 14/10 A2992 1020 74 1200 350/05 RMK AO2
14926KSTC STC20000601110010206/01/00 11:00:31  5-MIN KSTC 011700Z AUTO 36007KT 10SM OVC070 14/10 A2993 1020 74 1200 360/07 RMK AO2
14926KSTC STC20000601110510206/01/00 11:05:31  5-MIN KSTC 011705Z AUTO 01006KT 10SM OVC070 14/10 A2993 1020 74 1200 360/06 RMK AO2
14926KSTC STC20000601111010206/01/00 11:10:31  5-MIN KSTC 011710Z AUTO 02005KT 10SM OVC070 15/10 A2993 1020 72 1300 010/05 RMK AO2
14926KSTC STC20000601111510206/01/00 11:15:31  5-MIN KSTC 011715Z AUTO 02004KT 10SM OVC070 15/10 A2993 1010 72 1300 010/04 RMK AO2
14926KSTC STC20000601112010206/01/00 11:20:31  5-MIN KSTC 011720Z AUTO 36007KT 10SM OVC070 15/10 A2993 1020 72 1300 360/07 RMK AO2
14926KSTC STC20000601112510206/01/00 11:25:31  5-MIN KSTC 011725Z AUTO 36005KT 10SM OVC070 14/10 A2993 1010 74 1200 360/05 RMK AO2
14926KSTC STC20000601113010906/01/00 11:30:31  5-MIN KSTC 011730Z AUTO 04007KT 10SM FEW047 OVC070 14/10 A2993 1020 74 1200 030/07 RMK AO2
14926KSTC STC20000601113511606/01/00 11:35:31  5-MIN KSTC 011735Z AUTO 36005KT 10SM FEW047 SCT060 OVC075 14/10 A2993 1010 74 1200 360/05 RMK AO2
14926KSTC STC20000601114011606/01/00 11:40:31  5-MIN KSTC 011740Z AUTO 01004KT 10SM SCT022 BKN060 OVC075 15/10 A2993 1010 72 1300 010/04 RMK AO2
14926KSTC STC20000601114511606/01/00 11:45:31  5-MIN KSTC 011745Z AUTO 02005KT 10SM BKN022 BKN047 OVC070 15/10 A2993 1020 72 1300 020/05 RMK AO2
14926KSTC STC20000601115015706/01/00 11:50:31  5-MIN KSTC 011750Z AUTO 02006KT 10SM BKN022 BKN047 OVC070 15/10 A2993 1020 72 1300 020/06 RMK AO2 SLP143 60004 T01500100 10150 20117 55005
14926KSTC STC20000601115511606/01/00 11:55:31  5-MIN KSTC 011755Z AUTO 01005KT 10SM BKN022 BKN047 OVC070 15/10 A2993 1020 72 1300 010/05 RMK AO2
14926KSTC STC20000601120010206/01/00 12:00:31  5-MIN KSTC 011800Z AUTO 01007KT 10SM OVC020 15/11 A2993 1020 74 1300 360/07 RMK AO2
14926KSTC STC20000601120510206/01/00 12:05:31  5-MIN KSTC 011805Z AUTO 36006KT 10SM OVC020 15/10 A2993 1020 72 1300 350/06 RMK AO2
14926KSTC STC20000601121010206/01/00 12:10:31  5-MIN KSTC 011810Z AUTO 36007KT 10SM OVC020 15/10 A2993 1020 72 1300 360/07 RMK AO2
14926KSTC STC20000601121510206/01/00 12:15:31  5-MIN KSTC 011815Z AUTO 01006KT 10SM OVC020 16/10 A2992 1020 69 1400 360/06 RMK AO2
14926KSTC STC20000601122010206/01/00 12:20:31  5-MIN KSTC 011820Z AUTO 35008KT 10SM OVC020 16/11 A2992 1020 69 1400 340/08 RMK AO2
14926KSTC STC20000601122510906/01/00 12:25:31  5-MIN KSTC 011825Z AUTO 34007KT 10SM BKN020 BKN090 16/11 A2992 1030 72 1400 340/07 RMK AO2
14926KSTC STC20000601123010906/01/00 12:30:31  5-MIN KSTC 011830Z AUTO 34006KT 10SM BKN020 BKN090 16/11 A2992 1030 72 1400 340/06 RMK AO2
14926KSTC STC20000601123510906/01/00 12:35:31  5-MIN KSTC 011835Z AUTO 02005KT 10SM SCT020 BKN090 16/10 A2991 1040 69 1400 020/05 RMK AO2
14926KSTC STC20000601124010906/01/00 12:40:31  5-MIN KSTC 011840Z AUTO 36006KT 10SM FEW020 BKN090 16/11 A2991 1040 69 1400 360/06 RMK AO2
14926KSTC STC20000601124510906/01/00 12:45:31  5-MIN KSTC 011845Z AUTO 32007KT 10SM FEW020 SCT090 17/11 A2990 1040 69 1500 320/07 RMK AO2
14926KSTC STC20000601125011906/01/00 12:50:31  5-MIN KSTC 011850Z AUTO 34004KT 10SM FEW090 16/11 A2991 1040 69 1500 340/04 RMK AO2 SLP135 T01610106
14926KSTC STC20000601125511806/01/00 12:55:31  5-MIN KSTC 011855Z AUTO 35007KT 300V040 10SM FEW090 17/11 A2991 1030 69 1500 350/07 300V040 RMK AO2
14926KSTC STC20000601130010206/01/00 13:00:31  5-MIN KSTC 011900Z AUTO 32007KT 10SM FEW095 17/11 A2991 1030 69 1500 310/07 RMK AO2
14926KSTC STC20000601130510206/01/00 13:05:31  5-MIN KSTC 011905Z AUTO 32009KT 10SM FEW020 17/12 A2991 1030 69 1600 310/09 RMK AO2
14926KSTC STC20000601131010206/01/00 13:10:31  5-MIN KSTC 011910Z AUTO 32007KT 10SM SCT020 17/11 A2992 1030 69 1500 310/07 RMK AO2
14926KSTC STC20000601131510206/01/00 13:15:31  5-MIN KSTC 011915Z AUTO 30006KT 10SM BKN020 17/11 A2992 1030 69 1500 300/06 RMK AO2
14926KSTC STC20000601132010206/01/00 13:20:31  5-MIN KSTC 011920Z AUTO 33010KT 10SM BKN020 17/11 A2992 1030 69 1500 330/10 RMK AO2
14926KSTC STC20000601132510806/01/00 13:25:31  5-MIN KSTC 011925Z AUTO 30010G16KT 10SM BKN020 17/11 A2992 1030 67 1600 300/10G16 RMK AO2
14926KSTC STC20000601133010806/01/00 13:30:31  5-MIN KSTC 011930Z AUTO 28013G16KT 10SM OVC020 17/11 A2992 1020 67 1600 280/13G16 RMK AO2
14926KSTC STC20000601133510206/01/00 13:35:31  5-MIN KSTC 011935Z AUTO 27012KT 10SM OVC020 18/12 A2993 1020 67 1600 270/12 RMK AO2
14926KSTC STC20000601134010206/01/00 13:40:31  5-MIN KSTC 011940Z AUTO 29010KT 10SM OVC020 17/12 A2992 1020 69 1600 290/10 RMK AO2
14926KSTC STC20000601134510206/01/00 13:45:31  5-MIN KSTC 011945Z AUTO 30011KT 10SM OVC020 17/11 A2993 1020 67 1600 300/11 RMK AO2
14926KSTC STC20000601135011906/01/00 13:50:31  5-MIN KSTC 011950Z AUTO 30011KT 10SM OVC020 17/11 A2992 1020 69 1500 290/11 RMK AO2 SLP140 T01670111
14926KSTC STC20000601135510206/01/00 13:55:31  5-MIN KSTC 011955Z AUTO 28012KT 10SM OVC020 17/11 A2993 1020 69 1500 280/12 RMK AO2
14926KSTC STC20000601140010206/01/00 14:00:31  5-MIN KSTC 012000Z AUTO 31011KT 10SM OVC020 17/12 A2993 1020 72 1500 300/11 RMK AO2
14926KSTC STC20000601140510806/01/00 14:05:31  5-MIN KSTC 012005Z AUTO 29014G18KT 10SM OVC020 17/12 A2993 1020 72 1500 290/14G18 RMK AO2
14926KSTC STC20000601141010206/01/00 14:10:31  5-MIN KSTC 012010Z AUTO 30013KT 10SM OVC020 16/12 A2993 1020 75 1400 300/13 RMK AO2
14926KSTC STC20000601141510206/01/00 14:15:31  5-MIN KSTC 012015Z AUTO 30012KT 10SM OVC020 16/11 A2993 1020 72 1400 300/12 RMK AO2
14926KSTC STC20000601142010206/01/00 14:20:31  5-MIN KSTC 012020Z AUTO 31012KT 10SM OVC018 16/12 A2993 1020 75 1400 300/12 RMK AO2
14926KSTC STC20000601142510206/01/00 14:25:31  5-MIN KSTC 012025Z AUTO 29012KT 10SM OVC018 16/11 A2994 1010 74 1400 290/12 RMK AO2
14926KSTC STC20000601143010206/01/00 14:30:31  5-MIN KSTC 012030Z AUTO 29010KT 10SM OVC018 16/11 A2994 1010 74 1400 290/10 RMK AO2
14926KSTC STC20000601143510206/01/00 14:35:31  5-MIN KSTC 012035Z AUTO 30010KT 10SM OVC018 16/12 A2994 1010 77 1400 300/10 RMK AO2
14926KSTC STC20000601144010206/01/00 14:40:31  5-MIN KSTC 012040Z AUTO 31011KT 10SM OVC018 16/12 A2994 1010 77 1300 300/11 RMK AO2
14926KSTC STC20000601144510206/01/00 14:45:31  5-MIN KSTC 012045Z AUTO 30015KT 10SM OVC018 16/12 A2994 1010 75 1400 300/15 RMK AO2
14926KSTC STC20000601145013106/01/00 14:50:31  5-MIN KSTC 012050Z AUTO 30018G23KT 10SM OVC018 16/12 A2994 1010 75 1400 290/18G23 RMK AO2 SLP147 T01610117 51009
14926KSTC STC20000601145510806/01/00 14:55:31  5-MIN KSTC 012055Z AUTO 30014G23KT 10SM OVC018 16/11 A2994 1010 74 1300 300/14G23 RMK AO2
14926KSTC STC20000601150010206/01/00 15:00:31  5-MIN KSTC 012100Z AUTO 30016KT 10SM OVC018 16/11 A2994 1000 74 1300 290/16 RMK AO2
14926KSTC STC20000601150510206/01/00 15:05:31  5-MIN KSTC 012105Z AUTO 29014KT 10SM OVC018 16/11 A2994 1000 74 1300 280/14 RMK AO2
14926KSTC STC20000601151010206/01/00 15:10:31  5-MIN KSTC 012110Z AUTO 29016KT 10SM OVC018 16/11 A2995 1000 74 1300 280/16 RMK AO2
14926KSTC STC20000601151510206/01/00 15:15:31  5-MIN KSTC 012115Z AUTO 28016KT 10SM OVC018 16/11 A2995 1000 74 1300 280/16 RMK AO2
14926KSTC STC20000601152010206/01/00 15:20:31  5-MIN KSTC 012120Z AUTO 30014KT 10SM OVC018 16/11 A2994 1010 74 1300 300/14 RMK AO2
14926KSTC STC20000601152510206/01/00 15:25:31  5-MIN KSTC 012125Z AUTO 30015KT 10SM OVC018 16/11 A2995 1000 74 1300 300/15 RMK AO2
14926KSTC STC20000601153010206/01/00 15:30:31  5-MIN KSTC 012130Z AUTO 30011KT 10SM OVC018 16/11 A2995 1000 74 1300 290/11 RMK AO2
14926KSTC STC20000601153510206/01/00 15:35:31  5-MIN KSTC 012135Z AUTO 30015KT 10SM OVC018 16/11 A2995 1000 74 1300 290/15 RMK AO2
14926KSTC STC20000601154010206/01/00 15:40:31  5-MIN KSTC 012140Z AUTO 29012KT 10SM OVC018 16/11 A2995 1000 74 1300 290/12 RMK AO2
14926KSTC STC20000601154510806/01/00 15:45:31  5-MIN KSTC 012145Z AUTO 30016G19KT 10SM OVC018 16/11 A2995 1000 74 1300 300/16G19 RMK AO2
14926KSTC STC20000601155012506/01/00 15:50:31  5-MIN KSTC 012150Z AUTO 30015G20KT 10SM OVC018 16/11 A2995 1000 74 1300 300/15G20 RMK AO2 SLP151 T01560111
14926KSTC STC20000601155510206/01/00 15:55:31  5-MIN KSTC 012155Z AUTO 30014KT 10SM OVC018 16/11 A2995 1000 74 1300 300/14 RMK AO2
14926KSTC STC20000601160010806/01/00 16:00:31  5-MIN KSTC 012200Z AUTO 30014G21KT 10SM OVC018 16/11 A2995 1000 74 1300 300/14G21 RMK AO2
14926KSTC STC20000601160510206/01/00 16:05:31  5-MIN KSTC 012205Z AUTO 30015KT 10SM OVC018 16/11 A2995 1000 74 1300 300/15 RMK AO2
14926KSTC STC20000601161010806/01/00 16:10:31  5-MIN KSTC 012210Z AUTO 31013G21KT 10SM OVC018 15/11 A2995 1000 77 1300 300/13G21 RMK AO2
14926KSTC STC20000601161510806/01/00 16:15:31  5-MIN KSTC 012215Z AUTO 30015G21KT 10SM OVC018 15/11 A2995 1000 77 1300 300/15G21 RMK AO2
14926KSTC STC20000601162010806/01/00 16:20:31  5-MIN KSTC 012220Z AUTO 31014G21KT 10SM OVC018 15/11 A2995 1000 77 1300 300/14G21 RMK AO2
14926KSTC STC20000601162510906/01/00 16:25:31  5-MIN KSTC 012225Z AUTO 30014KT 10SM BKN018 OVC024 16/11 A2995 1000 74 1300 290/14 RMK AO2
14926KSTC STC20000601163010706/01/00 16:30:31  5-MIN KSTC 012230Z AUTO 30017G22KT 10SM OVC020 16/11 A2996 990 72 1300 290/17G22 RMK AO2
14926KSTC STC20000601163511406/01/00 16:35:31  5-MIN KSTC 012235Z AUTO 30013G22KT 10SM SCT018 OVC025 16/11 A2995 990 72 1300 300/13G22 RMK AO2
14926KSTC STC20000601164011506/01/00 16:40:31  5-MIN KSTC 012240Z AUTO 31013KT 10SM SCT018 BKN025 OVC029 16/11 A2996 990 72 1300 310/13 RMK AO2
14926KSTC STC20000601164510806/01/00 16:45:31  5-MIN KSTC 012245Z AUTO 32014KT 10SM BKN022 OVC027 16/11 A2996 990 72 1300 320/14 RMK AO2
14926KSTC STC20000601165012506/01/00 16:50:31  5-MIN KSTC 012250Z AUTO 32014KT 10SM BKN024 OVC030 16/11 A2996 990 72 1300 310/14 RMK AO2 SLP152 T01560106
14926KSTC STC20000601165510106/01/00 16:55:31  5-MIN KSTC 012255Z AUTO 31012KT 10SM OVC027 16/11 A2996 990 72 1300 310/12 RMK AO2
14926KSTC STC20000601170011406/01/00 17:00:31  5-MIN KSTC 012300Z AUTO 32014G21KT 10SM FEW022 OVC030 16/11 A2996 990 72 1300 310/14G21 RMK AO2
14926KSTC STC20000601170512106/01/00 17:05:31  5-MIN KSTC 012305Z AUTO 32013G21KT 10SM FEW022 BKN030 OVC039 16/11 A2996 990 72 1400 310/13G21 RMK AO2
14926KSTC STC20000601171012106/01/00 17:10:31  5-MIN KSTC 012310Z AUTO 32016G20KT 10SM FEW022 SCT030 OVC039 17/11 A2996 990 67 1500 320/16G20 RMK AO2
14926KSTC STC20000601171511406/01/00 17:15:31  5-MIN KSTC 012315Z AUTO 31013G20KT 10SM SCT030 OVC039 17/11 A2995 990 67 1500 300/13G20 RMK AO2
14926KSTC STC20000601172011606/01/00 17:20:31  5-MIN KSTC 012320Z AUTO 32012KT 10SM FEW025 SCT030 BKN039 17/11 A2995 1000 69 1500 310/12 RMK AO2
14926KSTC STC20000601172512106/01/00 17:25:31  5-MIN KSTC 012325Z AUTO 31016G21KT 10SM SCT025 SCT030 BKN039 17/11 A2995 990 67 1500 310/16G21 RMK AO2
14926KSTC STC20000601173011406/01/00 17:30:31  5-MIN KSTC 012330Z AUTO 31014G21KT 10SM SCT025 BKN039 16/11 A2996 990 69 1400 310/14G21 RMK AO2
14926KSTC STC20000601173510806/01/00 17:35:31  5-MIN KSTC 012335Z AUTO 31013KT 10SM SCT025 BKN039 17/11 A2996 990 69 1500 310/13 RMK AO2
14926KSTC STC20000601174010806/01/00 17:40:31  5-MIN KSTC 012340Z AUTO 31013KT 10SM SCT025 BKN039 17/11 A2996 990 67 1500 310/13 RMK AO2
14926KSTC STC20000601174511506/01/00 17:45:31  5-MIN KSTC 012345Z AUTO 32013KT 10SM SCT025 SCT031 BKN039 16/11 A2996 990 69 1400 320/13 RMK AO2
14926KSTC STC20000601175014306/01/00 17:50:31  5-MIN KSTC 012350Z AUTO 32012KT 10SM SCT025 BKN036 16/11 A2996 990 72 1400 310/12 RMK AO2 SLP156 T01610111 10178 20150 53004
14926KSTC STC20000601175510806/01/00 17:55:31  5-MIN KSTC 012355Z AUTO 31013KT 10SM FEW025 BKN036 16/11 A2996 990 69 1400 310/13 RMK AO2
14926KSTC STC20000601180010806/01/00 18:00:31  5-MIN KSTC 020000Z AUTO 31011KT 10SM SCT028 BKN036 16/11 A2997 980 69 1400 310/11 RMK AO2
14926KSTC STC20000601180510806/01/00 18:05:31  5-MIN KSTC 020005Z AUTO 31012KT 10SM FEW028 BKN036 17/11 A2997 980 67 1400 300/12 RMK AO2
14926KSTC STC20000601181010806/01/00 18:10:31  5-MIN KSTC 020010Z AUTO 31011KT 10SM BKN034 OVC042 17/11 A2997 980 67 1400 310/11 RMK AO2
14926KSTC STC20000601181511506/01/00 18:15:31  5-MIN KSTC 020015Z AUTO 31013KT 10SM FEW028 BKN034 OVC042 17/11 A2997 980 67 1400 310/13 RMK AO2
14926KSTC STC20000601182010806/01/00 18:20:31  5-MIN KSTC 020020Z AUTO 31013KT 10SM BKN034 BKN044 17/10 A2997 980 62 1500 310/13 RMK AO2
14926KSTC STC20000601182510806/01/00 18:25:31  5-MIN KSTC 020025Z AUTO 30012KT 10SM BKN034 BKN044 17/10 A2997 980 62 1500 300/12 RMK AO2
14926KSTC STC20000601183010806/01/00 18:30:31  5-MIN KSTC 020030Z AUTO 30011KT 10SM SCT033 BKN044 17/10 A2997 980 64 1400 300/11 RMK AO2
14926KSTC STC20000601183510806/01/00 18:35:31  5-MIN KSTC 020035Z AUTO 31013KT 10SM FEW033 SCT044 17/09 A2997 980 62 1400 310/13 RMK AO2
14926KSTC STC20000601184011406/01/00 18:40:31  5-MIN KSTC 020040Z AUTO 30010G17KT 10SM FEW033 SCT044 17/09 A2997 980 62 1400 300/10G17 RMK AO2
14926KSTC STC20000601184510106/01/00 18:45:31  5-MIN KSTC 020045Z AUTO 30010KT 10SM FEW042 17/10 A2997 980 64 1400 300/10 RMK AO2
14926KSTC STC20000601185011806/01/00 18:50:31  5-MIN KSTC 020050Z AUTO 30009KT 10SM FEW040 17/10 A2997 980 64 1400 300/09 RMK AO2 SLP159 T01670100
14926KSTC STC20000602051009906/02/00 05:10:31  5-MIN KSTC 021110Z AUTO 29004KT 10SM CLR 08/07 A3019 780 93 200 290/04 RMK AO2 $
14926KSTC STC20000602051509906/02/00 05:15:31  5-MIN KSTC 021115Z AUTO 30008KT 10SM CLR 08/07 A3020 770 93 200 290/08 RMK AO2 $
14926KSTC STC20000602052009906/02/00 05:20:31  5-MIN KSTC 021120Z AUTO 30007KT 10SM CLR 09/07 A3020 770 89 300 300/07 RMK AO2 $
14926KSTC STC20000602052509906/02/00 05:25:31  5-MIN KSTC 021125Z AUTO 31006KT 10SM CLR 09/08 A3021 760 89 300 310/06 RMK AO2 $
14926KSTC STC20000602053009906/02/00 05:30:31  5-MIN KSTC 021130Z AUTO 30006KT 10SM CLR 09/08 A3020 760 89 300 300/06 RMK AO2 $
14926KSTC STC20000602053510206/02/00 05:35:31  5-MIN KSTC 021135Z AUTO 30006KT 10SM FEW026 09/08 A3021 760 89 300 300/06 RMK AO2 $
14926KSTC STC20000602054010206/02/00 05:40:31  5-MIN KSTC 021140Z AUTO 31008KT 10SM SCT024 10/08 A3021 760 89 400 310/08 RMK AO2 $
14926KSTC STC20000602054510206/02/00 05:45:31  5-MIN KSTC 021145Z AUTO 31007KT 10SM BKN024 10/08 A3021 760 89 400 300/07 RMK AO2 $
14926KSTC STC20000602055014306/02/00 05:50:31  5-MIN KSTC 021150Z AUTO 31006KT 10SM BKN024 10/08 A3021 760 89 400 310/06 RMK AO2 SLP240 70004 T01000083 10111 20083 53017 $
14926KSTC STC20000602055510206/02/00 05:55:31  5-MIN KSTC 021155Z AUTO 31007KT 10SM BKN026 10/08 A3021 760 89 400 310/07 RMK AO2 $
14926KSTC STC20000602060010206/02/00 06:00:31  5-MIN KSTC 021200Z AUTO 32006KT 10SM BKN026 10/08 A3021 760 89 400 310/06 RMK AO2 $
14926KSTC STC20000602060510906/02/00 06:05:31  5-MIN KSTC 021205Z AUTO 32005KT 10SM BKN026 BKN032 10/08 A3021 760 89 400 320/05 RMK AO2 $
14926KSTC STC20000602061010906/02/00 06:10:31  5-MIN KSTC 021210Z AUTO 31007KT 10SM SCT026 BKN036 11/09 A3021 760 89 400 300/07 RMK AO2 $
14926KSTC STC20000602061510906/02/00 06:15:31  5-MIN KSTC 021215Z AUTO 31008KT 10SM SCT026 BKN036 11/09 A3021 760 86 500 310/08 RMK AO2 $
14926KSTC STC20000602062010906/02/00 06:20:31  5-MIN KSTC 021220Z AUTO 31009KT 10SM FEW029 BKN036 11/08 A3021 760 86 400 310/09 RMK AO2 $
14926KSTC STC20000602062510206/02/00 06:25:31  5-MIN KSTC 021225Z AUTO 29010KT 10SM SCT036 11/09 A3021 760 86 500 290/10 RMK AO2 $
14926KSTC STC20000602063010206/02/00 06:30:31  5-MIN KSTC 021230Z AUTO 31009KT 10SM FEW036 11/09 A3021 760 86 500 310/09 RMK AO2 $
14926KSTC STC20000602063510206/02/00 06:35:31  5-MIN KSTC 021235Z AUTO 31010KT 10SM SCT038 12/09 A3021 760 83 600 300/10 RMK AO2 $
14926KSTC STC20000602064010206/02/00 06:40:31  5-MIN KSTC 021240Z AUTO 31009KT 10SM BKN038 12/09 A3022 750 83 600 310/09 RMK AO2 $
14926KSTC STC20000602064510206/02/00 06:45:31  5-MIN KSTC 021245Z AUTO 31008KT 10SM BKN038 12/09 A3022 750 83 600 300/08 RMK AO2 $
14926KSTC STC20000602065011906/02/00 06:50:31  5-MIN KSTC 021250Z AUTO 31010KT 10SM SCT038 12/09 A3022 750 83 600 300/10 RMK AO2 SLP242 T01170089 $
14926KSTC STC20000602065510906/02/00 06:55:31  5-MIN KSTC 021255Z AUTO 32009KT 10SM FEW014 BKN038 12/09 A3022 750 80 600 310/09 RMK AO2 $
14926KSTC STC20000602070010906/02/00 07:00:31  5-MIN KSTC 021300Z AUTO 31014KT 10SM SCT014 BKN038 12/08 A3022 750 80 600 310/14 RMK AO2 $
14926KSTC STC20000602070511506/02/00 07:05:31  5-MIN KSTC 021305Z AUTO 30014G17KT 10SM SCT014 BKN040 12/08 A3022 750 80 600 300/14G17 RMK AO2 $
14926KSTC STC20000602071010906/02/00 07:10:31  5-MIN KSTC 021310Z AUTO 32014KT 10SM SCT014 BKN040 12/08 A3023 740 80 600 320/14 RMK AO2 $
14926KSTC STC20000602071511506/02/00 07:15:31  5-MIN KSTC 021315Z AUTO 32011G18KT 10SM SCT014 BKN040 12/08 A3023 740 77 600 310/11G18 RMK AO2 $
14926KSTC STC20000602072011506/02/00 07:20:31  5-MIN KSTC 021320Z AUTO 32011G18KT 10SM SCT016 OVC040 12/08 A3023 740 80 600 320/11G18 RMK AO2 $
14926KSTC STC20000602072510906/02/00 07:25:31  5-MIN KSTC 021325Z AUTO 31009KT 10SM BKN016 OVC040 12/09 A3023 740 80 600 310/09 RMK AO2 $
14926KSTC STC20000602073011606/02/00 07:30:31  5-MIN KSTC 021330Z AUTO 32010KT 10SM BKN016 BKN024 OVC040 12/08 A3023 740 77 600 320/10 RMK AO2 $
14926KSTC STC20000602073511606/02/00 07:35:31  5-MIN KSTC 021335Z AUTO 30011KT 10SM SCT016 BKN024 OVC040 13/08 A3023 740 71 800 300/11 RMK AO2 $
14926KSTC STC20000602074011606/02/00 07:40:31  5-MIN KSTC 021340Z AUTO 31011KT 10SM SCT018 BKN024 OVC040 12/08 A3023 740 77 600 300/11 RMK AO2 $
14926KSTC STC20000602074511606/02/00 07:45:31  5-MIN KSTC 021345Z AUTO 32013KT 10SM SCT018 BKN024 BKN042 12/08 A3024 740 74 600 320/13 RMK AO2 $
14926KSTC STC20000602075013306/02/00 07:50:31  5-MIN KSTC 021350Z AUTO 32009KT 10SM SCT018 BKN024 BKN045 12/08 A3024 730 74 600 320/09 RMK AO2 SLP250 T01220078 $
14926KSTC STC20000602075511606/02/00 07:55:31  5-MIN KSTC 021355Z AUTO 33010KT 10SM SCT018 BKN024 OVC045 13/08 A3024 730 71 700 320/10 RMK AO2 $
14926KSTC STC20000602080011606/02/00 08:00:31  5-MIN KSTC 021400Z AUTO 33010KT 10SM SCT018 BKN027 BKN047 13/08 A3024 730 71 700 330/10 RMK AO2 $
14926KSTC STC20000602080511606/02/00 08:05:31  5-MIN KSTC 021405Z AUTO 30009KT 10SM BKN020 BKN030 OVC047 12/08 A3024 730 74 600 300/09 RMK AO2 $
14926KSTC STC20000602081011606/02/00 08:10:31  5-MIN KSTC 021410Z AUTO 30011KT 10SM BKN020 BKN026 OVC047 12/08 A3024 730 74 600 290/11 RMK AO2 $
14926KSTC STC20000602081512206/02/00 08:15:31  5-MIN KSTC 021415Z AUTO 31014G17KT 10SM BKN020 BKN030 OVC047 12/08 A3024 730 77 500 310/14G17 RMK AO2 $
14926KSTC STC20000602082012206/02/00 08:20:31  5-MIN KSTC 021420Z AUTO 32009G17KT 10SM BKN020 BKN030 OVC035 12/08 A3025 730 77 500 320/09G17 RMK AO2 $
14926KSTC STC20000602082511606/02/00 08:25:31  5-MIN KSTC 021425Z AUTO 31013KT 10SM BKN020 BKN030 OVC035 12/08 A3025 730 74 600 310/13 RMK AO2 $
14926KSTC STC20000602083011606/02/00 08:30:31  5-MIN KSTC 021430Z AUTO 31013KT 10SM BKN020 BKN035 OVC045 12/08 A3025 720 74 600 310/13 RMK AO2 $
14926KSTC STC20000602083511606/02/00 08:35:31  5-MIN KSTC 021435Z AUTO 33010KT 10SM SCT020 BKN035 OVC045 13/08 A3025 720 69 700 320/10 RMK AO2 $
14926KSTC STC20000602084011606/02/00 08:40:31  5-MIN KSTC 021440Z AUTO 32013KT 10SM FEW020 BKN038 OVC045 13/08 A3025 720 69 700 320/13 RMK AO2 $
14926KSTC STC20000602084511606/02/00 08:45:31  5-MIN KSTC 021445Z AUTO 32012KT 10SM FEW020 BKN034 OVC045 13/07 A3025 720 69 700 320/12 RMK AO2 $
14926KSTC STC20000602085013906/02/00 08:50:31  5-MIN KSTC 021450Z AUTO 33010KT 10SM FEW020 BKN034 OVC045 13/07 A3025 720 66 700 330/10 RMK AO2 SLP256 T01330072 51025 $
14926KSTC STC20000602085512206/02/00 08:55:31  5-MIN KSTC 021455Z AUTO 32012G17KT 10SM FEW020 SCT029 OVC045 13/07 A3025 720 66 700 320/12G17 RMK AO2 $
14926KSTC STC20000602090011606/02/00 09:00:31  5-MIN KSTC 021500Z AUTO 33012KT 10SM FEW020 BKN034 OVC047 13/07 A3025 720 66 700 330/12 RMK AO2 $
14926KSTC STC20000602090511606/02/00 09:05:31  5-MIN KSTC 021505Z AUTO 33011KT 10SM BKN025 BKN034 OVC047 13/07 A3025 720 66 700 330/11 RMK AO2 $
14926KSTC STC20000602091011606/02/00 09:10:31  5-MIN KSTC 021510Z AUTO 32012KT 10SM BKN023 BKN036 OVC047 12/07 A3025 720 68 600 320/12 RMK AO2 $
14926KSTC STC20000602091510906/02/00 09:15:31  5-MIN KSTC 021515Z AUTO 31013KT 10SM SCT025 OVC045 12/07 A3026 720 68 600 310/13 RMK AO2 $
14926KSTC STC20000602092010906/02/00 09:20:31  5-MIN KSTC 021520Z AUTO 33010KT 10SM SCT025 BKN045 13/07 A3025 720 66 700 320/10 RMK AO2 $
14926KSTC STC20000602092510906/02/00 09:25:31  5-MIN KSTC 021525Z AUTO 33008KT 10SM SCT025 BKN045 14/07 A3025 720 64 800 330/08 RMK AO2 $
14926KSTC STC20000602093010906/02/00 09:30:31  5-MIN KSTC 021530Z AUTO 32010KT 10SM FEW023 OVC045 13/07 A3025 720 64 700 320/10 RMK AO2 $
14926KSTC STC20000602093510906/02/00 09:35:31  5-MIN KSTC 021535Z AUTO 32013KT 10SM FEW027 BKN043 14/07 A3026 720 61 900 310/13 RMK AO2 $
14926KSTC STC20000602094010806/02/00 09:40:31  5-MIN KSTC 021540Z AUTO 32015G19KT 10SM SCT045 14/06 A3026 710 57 900 310/15G19 RMK AO2 $
14926KSTC STC20000602094510806/02/00 09:45:31  5-MIN KSTC 021545Z AUTO 33012G19KT 10SM SCT045 15/06 A3026 710 55 900 330/12G19 RMK AO2 $
14926KSTC STC20000602095011906/02/00 09:50:31  5-MIN KSTC 021550Z AUTO 33011KT 10SM BKN045 15/05 A3026 710 51 900 330/11 RMK AO2 SLP257 T01500050 $
14926KSTC STC20000602095510206/02/00 09:55:31  5-MIN KSTC 021555Z AUTO 32013KT 10SM BKN045 14/06 A3026 710 55 900 320/13 RMK AO2 $
14926KSTC STC20000602100010806/02/00 10:00:31  5-MIN KSTC 021600Z AUTO 32011G18KT 10SM BKN043 14/06 A3026 710 57 800 320/11G18 RMK AO2 $
14926KSTC STC20000602100510206/02/00 10:05:31  5-MIN KSTC 021605Z AUTO 31013KT 10SM BKN045 14/06 A3026 710 55 900 300/13 RMK AO2 $
14926KSTC STC20000602101010206/02/00 10:10:31  5-MIN KSTC 021610Z AUTO 32011KT 10SM BKN045 15/07 A3026 720 57 900 320/11 RMK AO2 $
14926KSTC STC20000602101510206/02/00 10:15:31  5-MIN KSTC 021615Z AUTO 34013KT 10SM OVC047 14/06 A3026 710 55 900 330/13 RMK AO2 $
14926KSTC STC20000602102010206/02/00 10:20:31  5-MIN KSTC 021620Z AUTO 33010KT 10SM BKN047 14/06 A3026 710 55 900 330/10 RMK AO2 $
14926KSTC STC20000602102510206/02/00 10:25:31  5-MIN KSTC 021625Z AUTO 35012KT 10SM BKN047 15/06 A3026 710 53 900 340/12 RMK AO2 $
14926KSTC STC20000602103011506/02/00 10:30:31  5-MIN KSTC 021630Z AUTO 29013G17KT 10SM SCT037 BKN047 15/06 A3026 710 55 900 290/13G17 RMK AO2 $
14926KSTC STC20000602103511606/02/00 10:35:31  5-MIN KSTC 021635Z AUTO 33011G17KT 10SM SCT037 BKN047 16/06 A3026 710 53 1000 330/11G17 RMK AO2 $
14926KSTC STC20000602104011006/02/00 10:40:31  5-MIN KSTC 021640Z AUTO 30009KT 10SM FEW037 SCT048 16/06 A3026 720 53 1000 290/09 RMK AO2 $
14926KSTC STC20000602104511506/02/00 10:45:31  5-MIN KSTC 021645Z AUTO 31015G21KT 10SM FEW037 SCT048 15/06 A3026 710 53 900 310/15G21 RMK AO2 $
14926KSTC STC20000602105013306/02/00 10:50:31  5-MIN KSTC 021650Z AUTO 32013G21KT 10SM FEW037 BKN050 16/06 A3026 720 51 1100 320/13G21 RMK AO2 SLP256 T01610061 $
14926KSTC STC20000602105511006/02/00 10:55:31  5-MIN KSTC 021655Z AUTO 34011KT 10SM FEW037 BKN050 16/06 A3026 710 51 1000 330/11 RMK AO2 $
14926KSTC STC20000602110011006/02/00 11:00:31  5-MIN KSTC 021700Z AUTO 31013KT 10SM FEW040 BKN050 16/05 A3026 710 49 1000 310/13 RMK AO2 $
14926KSTC STC20000602110511606/02/00 11:05:31  5-MIN KSTC 021705Z AUTO 31015G20KT 10SM FEW038 BKN050 16/06 A3026 710 51 1000 300/15G20 RMK AO2 $
14926KSTC STC20000602111011606/02/00 11:10:31  5-MIN KSTC 021710Z AUTO 33013G20KT 10SM FEW040 BKN050 16/05 A3026 710 49 1000 330/13G20 RMK AO2 $
14926KSTC STC20000602111511606/02/00 11:15:31  5-MIN KSTC 021715Z AUTO 31011G19KT 10SM SCT041 BKN050 16/05 A3026 710 49 1000 310/11G19 RMK AO2 $
14926KSTC STC20000602112011506/02/00 11:20:31  5-MIN KSTC 021720Z AUTO 33012G17KT 10SM BKN043 BKN050 15/04 A3026 710 49 900 330/12G17 RMK AO2 $
14926KSTC STC20000602112511606/02/00 11:25:31  5-MIN KSTC 021725Z AUTO 31013G21KT 10SM SCT043 BKN050 16/04 A3026 710 45 1000 310/13G21 RMK AO2 $
14926KSTC STC20000602113011606/02/00 11:30:31  5-MIN KSTC 021730Z AUTO 31013G21KT 10SM SCT042 SCT050 16/05 A3027 710 47 1000 310/13G21 RMK AO2 $
14926KSTC STC20000602113511606/02/00 11:35:31  5-MIN KSTC 021735Z AUTO 31013G19KT 10SM SCT042 BKN050 16/05 A3027 710 49 1000 310/13G19 RMK AO2 $
14926KSTC STC20000602114010906/02/00 11:40:31  5-MIN KSTC 021740Z AUTO 33010KT 10SM SCT042 BKN050 15/05 A3027 710 51 900 320/10 RMK AO2 $
14926KSTC STC20000602114511006/02/00 11:45:31  5-MIN KSTC 021745Z AUTO 32013KT 10SM SCT042 BKN050 16/05 A3027 710 47 1000 320/13 RMK AO2 $
14926KSTC STC20000602115014506/02/00 11:50:31  5-MIN KSTC 021750Z AUTO 32012KT 10SM FEW042 SCT050 16/04 A3027 710 45 1000 320/12 RMK AO2 SLP260 T01610044 10161 20100 53014 $
14926KSTC STC20000602115511006/02/00 11:55:31  5-MIN KSTC 021755Z AUTO 31015KT 10SM SCT042 BKN050 16/05 A3027 700 47 1000 310/15 RMK AO2 $
14926KSTC STC20000602120011006/02/00 12:00:31  5-MIN KSTC 021800Z AUTO 32011KT 10SM SCT042 BKN050 17/04 A3027 700 44 1100 320/11 RMK AO2 $
14926KSTC STC20000602120510306/02/00 12:05:31  5-MIN KSTC 021805Z AUTO 31011KT 10SM BKN050 16/03 A3027 700 42 1000 310/11 RMK AO2 $
14926KSTC STC20000602121010906/02/00 12:10:31  5-MIN KSTC 021810Z AUTO 31011G18KT 10SM SCT050 16/03 A3027 710 42 1000 300/11G18 RMK AO2 $
14926KSTC STC20000602121512506/02/00 12:15:31  5-MIN KSTC 021815Z AUTO 31010G18KT 280V360 10SM BKN050 17/04 A3027 700 42 1100 310/10G18 280V360 RMK AO2 $
14926KSTC STC20000602122010906/02/00 12:20:31  5-MIN KSTC 021820Z AUTO 32014G19KT 10SM BKN050 17/04 A3027 700 44 1100 310/14G19 RMK AO2 $
14926KSTC STC20000602122510906/02/00 12:25:31  5-MIN KSTC 021825Z AUTO 34011G19KT 10SM BKN050 16/04 A3027 700 44 1000 340/11G19 RMK AO2 $
14926KSTC STC20000602123010306/02/00 12:30:31  5-MIN KSTC 021830Z AUTO 34011KT 10SM BKN050 16/04 A3027 700 45 1000 340/11 RMK AO2 $
14926KSTC STC20000602123510306/02/00 12:35:31  5-MIN KSTC 021835Z AUTO 32010KT 10SM BKN048 16/04 A3027 700 45 1000 320/10 RMK AO2 $
14926KSTC STC20000602124010306/02/00 12:40:31  5-MIN KSTC 021840Z AUTO 30012KT 10SM OVC048 16/04 A3027 700 45 1000 300/12 RMK AO2 $
14926KSTC STC20000602124510306/02/00 12:45:31  5-MIN KSTC 021845Z AUTO 31010KT 10SM OVC048 16/03 A3028 700 43 1000 310/10 RMK AO2 $
14926KSTC STC20000602125012006/02/00 12:50:31  5-MIN KSTC 021850Z AUTO 34010KT 10SM OVC048 16/04 A3028 700 45 1000 340/10 RMK AO2 SLP264 T01610044 $
14926KSTC STC20000602125510806/02/00 12:55:31  5-MIN KSTC 021855Z AUTO 32014G18KT 10SM OVC048 15/04 A3028 700 49 900 310/14G18 RMK AO2 $
14926KSTC STC20000602130010806/02/00 13:00:31  5-MIN KSTC 021900Z AUTO 32012G18KT 10SM OVC048 15/04 A3028 700 49 900 310/12G18 RMK AO2 $
14926KSTC STC20000602130511006/02/00 13:05:31  5-MIN KSTC 021905Z AUTO 33011KT 10SM BKN045 OVC055 16/05 A3028 700 47 1000 320/11 RMK AO2 $
14926KSTC STC20000602131011006/02/00 13:10:31  5-MIN KSTC 021910Z AUTO 33008KT 10SM BKN045 OVC055 16/04 A3028 700 47 1000 330/08 RMK AO2 $
14926KSTC STC20000602131511006/02/00 13:15:31  5-MIN KSTC 021915Z AUTO 36008KT 10SM BKN045 OVC055 16/04 A3028 700 47 1000 350/08 RMK AO2 $
14926KSTC STC20000602132011006/02/00 13:20:31  5-MIN KSTC 021920Z AUTO 34010KT 10SM BKN045 OVC055 16/04 A3028 700 45 1000 330/10 RMK AO2 $
14926KSTC STC20000602132513106/02/00 13:25:31  5-MIN KSTC 021925Z AUTO 33011G18KT 290V010 10SM BKN047 OVC055 15/04 A3028 700 47 900 330/11G18 290V010 RMK AO2 $
14926KSTC STC20000602133011606/02/00 13:30:31  5-MIN KSTC 021930Z AUTO 32009G18KT 10SM BKN049 OVC055 16/04 A3027 700 45 1000 310/09G18 RMK AO2 $
14926KSTC STC20000602133510306/02/00 13:35:31  5-MIN KSTC 021935Z AUTO 33009KT 10SM OVC049 16/04 A3027 700 45 1000 330/09 RMK AO2 $
14926KSTC STC20000602134011906/02/00 13:40:31  5-MIN KSTC 021940Z AUTO 33010KT 310V010 10SM BKN049 16/04 A3027 700 45 1000 330/10 310V010 RMK AO2 $
14926KSTC STC20000602134510306/02/00 13:45:31  5-MIN KSTC 021945Z AUTO 34010KT 10SM BKN049 16/04 A3027 700 45 1000 340/10 RMK AO2 $
14926KSTC STC20000602135012006/02/00 13:50:31  5-MIN KSTC 021950Z AUTO 33008KT 10SM BKN049 16/04 A3027 700 44 1000 330/08 RMK AO2 SLP261 T01610039 $
14926KSTC STC20000602135510906/02/00 13:55:31  5-MIN KSTC 021955Z AUTO 31010G15KT 10SM BKN049 17/04 A3027 700 44 1100 310/10G15 RMK AO2 $
14926KSTC STC20000602140010906/02/00 14:00:31  5-MIN KSTC 022000Z AUTO 34007G15KT 10SM BKN049 17/04 A3027 710 44 1100 330/07G15 RMK AO2 $
14926KSTC STC20000602140510306/02/00 14:05:31  5-MIN KSTC 022005Z AUTO 34010KT 10SM BKN049 16/04 A3027 710 44 1000 340/10 RMK AO2 $
14926KSTC STC20000602141011906/02/00 14:10:31  5-MIN KSTC 022010Z AUTO 36009KT 330V040 10SM BKN049 17/04 A3027 710 44 1100 360/09 330V040 RMK AO2 $
14926KSTC STC20000602141510306/02/00 14:15:31  5-MIN KSTC 022015Z AUTO 36010KT 10SM BKN049 16/04 A3027 710 45 1000 360/10 RMK AO2 $
14926KSTC STC20000602142011006/02/00 14:20:31  5-MIN KSTC 022020Z AUTO 36008KT 10SM BKN049 BKN055 16/04 A3027 710 44 1000 350/08 RMK AO2 $
14926KSTC STC20000602142510306/02/00 14:25:31  5-MIN KSTC 022025Z AUTO 33010KT 10SM BKN049 16/04 A3027 710 45 1000 320/10 RMK AO2 $
14926KSTC STC20000602143010306/02/00 14:30:31  5-MIN KSTC 022030Z AUTO 34008KT 10SM BKN049 17/05 A3027 710 44 1200 340/08 RMK AO2 $
14926KSTC STC20000602143510906/02/00 14:35:31  5-MIN KSTC 022035Z AUTO 34009G14KT 10SM BKN049 17/04 A3027 700 44 1100 340/09G14 RMK AO2 $
14926KSTC STC20000602144010306/02/00 14:40:31  5-MIN KSTC 022040Z AUTO 36009KT 10SM BKN049 16/04 A3027 700 45 1000 350/09 RMK AO2 $
14926KSTC STC20000602144510306/02/00 14:45:31  5-MIN KSTC 022045Z AUTO 01011KT 10SM BKN049 16/04 A3027 700 44 1000 010/11 RMK AO2 $
14926KSTC STC20000602145012606/02/00 14:50:31  5-MIN KSTC 022050Z AUTO 01007KT 10SM BKN049 16/04 A3027 710 45 1000 360/07 RMK AO2 SLP261 T01610044 53005 $
14926KSTC STC20000602145510306/02/00 14:55:31  5-MIN KSTC 022055Z AUTO 34010KT 10SM BKN049 17/05 A3027 710 44 1200 330/10 RMK AO2 $
14926KSTC STC20000602150011006/02/00 15:00:31  5-MIN KSTC 022100Z AUTO 34009KT 10SM BKN049 BKN060 17/04 A3027 710 42 1200 340/09 RMK AO2 $
14926KSTC STC20000602150510306/02/00 15:05:31  5-MIN KSTC 022105Z AUTO 36008KT 10SM BKN049 16/04 A3027 710 44 1000 360/08 RMK AO2 $
14926KSTC STC20000602151010306/02/00 15:10:31  5-MIN KSTC 022110Z AUTO 33010KT 10SM BKN049 17/04 A3027 710 42 1100 330/10 RMK AO2 $
14926KSTC STC20000602151510306/02/00 15:15:31  5-MIN KSTC 022115Z AUTO 01008KT 10SM BKN049 16/04 A3027 710 44 1000 010/08 RMK AO2 $
14926KSTC STC20000602152011906/02/00 15:20:31  5-MIN KSTC 022120Z AUTO 01008KT 340V040 10SM OVC049 16/04 A3026 710 45 1000 360/08 340V040 RMK AO2 $
14926KSTC STC20000602152510306/02/00 15:25:31  5-MIN KSTC 022125Z AUTO 05009KT 10SM OVC049 17/04 A3027 710 44 1100 050/09 RMK AO2 $
14926KSTC STC20000602153010306/02/00 15:30:31  5-MIN KSTC 022130Z AUTO 03006KT 10SM OVC049 16/04 A3027 710 45 1000 020/06 RMK AO2 $
14926KSTC STC20000602153510306/02/00 15:35:31  5-MIN KSTC 022135Z AUTO 03007KT 10SM OVC049 16/04 A3027 710 47 1000 020/07 RMK AO2 $
14926KSTC STC20000602154010306/02/00 15:40:31  5-MIN KSTC 022140Z AUTO 01007KT 10SM OVC049 16/04 A3027 710 45 1000 360/07 RMK AO2 $
14926KSTC STC20000602154510306/02/00 15:45:31  5-MIN KSTC 022145Z AUTO 33009KT 10SM OVC049 17/05 A3027 710 44 1200 320/09 RMK AO2 $
14926KSTC STC20000602155013606/02/00 15:50:31  5-MIN KSTC 022150Z AUTO 36009KT 320V020 10SM OVC049 16/04 A3027 710 45 1000 350/09 320V020 RMK AO2 SLP260 T01610044 $
14926KSTC STC20000602155511606/02/00 15:55:31  5-MIN KSTC 022155Z AUTO 35011G14KT 10SM BKN049 OVC055 18/05 A3027 710 42 1200 350/11G14 RMK AO2 $
14926KSTC STC20000602160011606/02/00 16:00:31  5-MIN KSTC 022200Z AUTO 36009G14KT 10SM BKN049 OVC055 17/05 A3027 710 44 1200 350/09G14 RMK AO2 $
14926KSTC STC20000602160511006/02/00 16:05:31  5-MIN KSTC 022205Z AUTO 36007KT 10SM BKN049 OVC055 17/04 A3027 710 42 1200 350/07 RMK AO2 $
14926KSTC STC20000602161011006/02/00 16:10:31  5-MIN KSTC 022210Z AUTO 05010KT 10SM BKN049 OVC055 18/05 A3027 710 42 1200 040/10 RMK AO2 $
14926KSTC STC20000602161510306/02/00 16:15:31  5-MIN KSTC 022215Z AUTO 03011KT 10SM BKN049 17/04 A3027 710 44 1100 030/11 RMK AO2 $
14926KSTC STC20000602162010306/02/00 16:20:31  5-MIN KSTC 022220Z AUTO 02010KT 10SM BKN049 16/03 A3027 710 43 1000 020/10 RMK AO2 $
14926KSTC STC20000602162510306/02/00 16:25:31  5-MIN KSTC 022225Z AUTO VRB06KT 10SM SCT049 16/03 A3027 710 42 1000 VRB/06 RMK AO2 $
14926KSTC STC20000602163011906/02/00 16:30:31  5-MIN KSTC 022230Z AUTO 03007KT 330V050 10SM BKN049 16/03 A3027 700 42 1000 030/07 330V050 RMK AO2 $
14926KSTC STC20000602163510306/02/00 16:35:31  5-MIN KSTC 022235Z AUTO 02007KT 10SM BKN049 16/03 A3027 700 42 1000 020/07 RMK AO2 $
14926KSTC STC20000602164010306/02/00 16:40:31  5-MIN KSTC 022240Z AUTO 02009KT 10SM BKN049 17/04 A3028 700 44 1100 010/09 RMK AO2 $
14926KSTC STC20000602164510306/02/00 16:45:31  5-MIN KSTC 022245Z AUTO 34009KT 10SM BKN055 16/03 A3027 700 42 1000 330/09 RMK AO2 $
14926KSTC STC20000602165012006/02/00 16:50:31  5-MIN KSTC 022250Z AUTO 31009KT 10SM BKN055 17/03 A3027 700 40 1100 310/09 RMK AO2 SLP263 T01670033 $
14926KSTC STC20000602165510306/02/00 16:55:31  5-MIN KSTC 022255Z AUTO 36008KT 10SM BKN055 17/03 A3027 700 39 1200 360/08 RMK AO2 $
14926KSTC STC20000602170010306/02/00 17:00:31  5-MIN KSTC 022300Z AUTO 35007KT 10SM BKN055 17/04 A3027 700 41 1200 340/07 RMK AO2 $
14926KSTC STC20000602170510306/02/00 17:05:31  5-MIN KSTC 022305Z AUTO 01007KT 10SM BKN055 17/04 A3027 700 41 1200 360/07 RMK AO2 $
14926KSTC STC20000602171010306/02/00 17:10:31  5-MIN KSTC 022310Z AUTO 36008KT 10SM OVC050 17/04 A3028 700 41 1200 360/08 RMK AO2 $
14926KSTC STC20000602171510306/02/00 17:15:31  5-MIN KSTC 022315Z AUTO 02008KT 10SM BKN055 17/03 A3028 700 40 1100 020/08 RMK AO2 $
14926KSTC STC20000602172010306/02/00 17:20:31  5-MIN KSTC 022320Z AUTO 35007KT 10SM BKN055 17/04 A3028 700 42 1100 350/07 RMK AO2 $
14926KSTC STC20000602172510306/02/00 17:25:31  5-MIN KSTC 022325Z AUTO 02007KT 10SM SCT050 16/03 A3028 700 42 1000 020/07 RMK AO2 $
14926KSTC STC20000602173010306/02/00 17:30:31  5-MIN KSTC 022330Z AUTO 02004KT 10SM SCT055 16/03 A3028 690 43 1000 020/04 RMK AO2 $
14926KSTC STC20000602173510306/02/00 17:35:31  5-MIN KSTC 022335Z AUTO 36006KT 10SM SCT055 16/04 A3028 690 45 1000 360/06 RMK AO2 $
14926KSTC STC20000602174010306/02/00 17:40:31  5-MIN KSTC 022340Z AUTO 36005KT 10SM FEW060 17/04 A3028 690 42 1100 350/05 RMK AO2 $
14926KSTC STC20000602174510306/02/00 17:45:31  5-MIN KSTC 022345Z AUTO 36005KT 10SM FEW060 17/04 A3028 690 42 1100 350/05 RMK AO2 $
14926KSTC STC20000602175013806/02/00 17:50:31  5-MIN KSTC 022350Z AUTO VRB05KT 10SM FEW060 17/03 A3028 690 40 1100 VRB/05 RMK AO2 SLP265 T01670033 10178 20150 58001 $
14926KSTC STC20000602175510306/02/00 17:55:31  5-MIN KSTC 022355Z AUTO 36005KT 10SM FEW060 17/03 A3028 690 40 1100 360/05 RMK AO2 $
14926KSTC STC20000602180010006/02/00 18:00:31  5-MIN KSTC 030000Z AUTO 34006KT 10SM CLR 16/03 A3028 690 42 1000 340/06 RMK AO2 $
14926KSTC STC20000602180510006/02/00 18:05:31  5-MIN KSTC 030005Z AUTO 34007KT 10SM CLR 16/03 A3029 690 43 1000 330/07 RMK AO2 $
14926KSTC STC20000602181010306/02/00 18:10:31  5-MIN KSTC 030010Z AUTO 35006KT 10SM FEW060 16/03 A3029 690 43 1000 340/06 RMK AO2 $
14926KSTC STC20000602181510206/02/00 18:15:31  5-MIN KSTC 030015Z AUTO 34004KT 10SM FEW060 15/04 A3029 690 47 900 340/04 RMK AO2 $
14926KSTC STC20000602182010206/02/00 18:20:31  5-MIN KSTC 030020Z AUTO 33003KT 10SM FEW060 15/04 A3029 690 47 900 330/03 RMK AO2 $
14926KSTC STC20000602182510306/02/00 18:25:31  5-MIN KSTC 030025Z AUTO 32004KT 10SM FEW060 16/04 A3029 690 45 1000 310/04 RMK AO2 $
14926KSTC STC20000602183010306/02/00 18:30:31  5-MIN KSTC 030030Z AUTO 31004KT 10SM FEW060 16/04 A3029 690 44 1000 300/04 RMK AO2 $
14926KSTC STC20000602183510306/02/00 18:35:31  5-MIN KSTC 030035Z AUTO 32005KT 10SM FEW060 16/04 A3029 690 44 1000 320/05 RMK AO2 $
14926KSTC STC20000602184010306/02/00 18:40:31  5-MIN KSTC 030040Z AUTO 34004KT 10SM FEW060 16/03 A3029 690 43 1000 340/04 RMK AO2 $
14926KSTC STC20000602184510006/02/00 18:45:31  5-MIN KSTC 030045Z AUTO 35003KT 10SM CLR 16/04 A3029 690 44 1000 350/03 RMK AO2 $
14926KSTC STC20000602185011706/02/00 18:50:31  5-MIN KSTC 030050Z AUTO 34003KT 10SM CLR 16/04 A3029 690 44 1000 340/03 RMK AO2 SLP267 T01610039 $
14926KSTC STC20000602185510006/02/00 18:55:31  5-MIN KSTC 030055Z AUTO 35004KT 10SM CLR 16/03 A3029 690 43 1000 340/04 RMK AO2 $
14926KSTC STC20000602190010006/02/00 19:00:31  5-MIN KSTC 030100Z AUTO 34004KT 10SM CLR 16/04 A3029 690 45 1000 330/04 RMK AO2 $
14926KSTC STC20000602190509906/02/00 19:05:31  5-MIN KSTC 030105Z AUTO 33004KT 10SM CLR 15/04 A3029 690 47 900 320/04 RMK AO2 $
14926KSTC STC20000602191009906/02/00 19:10:31  5-MIN KSTC 030110Z AUTO 31004KT 10SM CLR 14/04 A3029 690 49 800 310/04 RMK AO2 $
14926KSTC STC20000602191509906/02/00 19:15:31  5-MIN KSTC 030115Z AUTO 31004KT 10SM CLR 14/04 A3029 690 51 800 310/04 RMK AO2 $
14926KSTC STC20000602192009906/02/00 19:20:31  5-MIN KSTC 030120Z AUTO 32004KT 10SM CLR 14/04 A3029 690 52 800 320/04 RMK AO2 $
14926KSTC STC20000602192509906/02/00 19:25:31  5-MIN KSTC 030125Z AUTO 32004KT 10SM CLR 14/04 A3029 680 49 800 320/04 RMK AO2 $
14926KSTC STC20000602193009906/02/00 19:30:31  5-MIN KSTC 030130Z AUTO 32003KT 10SM CLR 14/04 A3029 680 52 800 310/03 RMK AO2 $
14926KSTC STC20000602193509906/02/00 19:35:31  5-MIN KSTC 030135Z AUTO 31005KT 10SM CLR 14/04 A3029 690 52 800 300/05 RMK AO2 $
14926KSTC STC20000602194009906/02/00 19:40:31  5-MIN KSTC 030140Z AUTO 31004KT 10SM CLR 13/05 A3029 690 57 700 310/04 RMK AO2 $
14926KSTC STC20000602194509906/02/00 19:45:31  5-MIN KSTC 030145Z AUTO 31004KT 10SM CLR 13/05 A3029 690 57 700 300/04 RMK AO2 $
14926KSTC STC20000602195011606/02/00 19:50:31  5-MIN KSTC 030150Z AUTO 31004KT 10SM CLR 13/05 A3029 690 59 600 300/04 RMK AO2 SLP268 T01280050 $
14926KSTC STC20000602195509906/02/00 19:55:31  5-MIN KSTC 030155Z AUTO 32003KT 10SM CLR 12/05 A3029 690 61 600 320/03 RMK AO2 $
14926KSTC STC20000602200009906/02/00 20:00:31  5-MIN KSTC 030200Z AUTO 00000KT 10SM CLR 12/05 A3029 690 61 600 000/00 RMK AO2 $
14926KSTC STC20000602200509906/02/00 20:05:31  5-MIN KSTC 030205Z AUTO 00000KT 10SM CLR 12/06 A3029 690 66 500 000/00 RMK AO2 $
14926KSTC STC20000602201009906/02/00 20:10:31  5-MIN KSTC 030210Z AUTO 00000KT 10SM CLR 12/06 A3029 690 68 500 000/00 RMK AO2 $
14926KSTC STC20000602201509906/02/00 20:15:31  5-MIN KSTC 030215Z AUTO 00000KT 10SM CLR 11/06 A3029 690 68 400 000/00 RMK AO2 $
14926KSTC STC20000602202009906/02/00 20:20:31  5-MIN KSTC 030220Z AUTO 00000KT 10SM CLR 11/06 A3029 680 71 400 000/00 RMK AO2 $
14926KSTC STC20000602202509906/02/00 20:25:31  5-MIN KSTC 030225Z AUTO 00000KT 10SM CLR 11/06 A3029 680 74 400 000/00 RMK AO2 $
14926KSTC STC20000602203009906/02/00 20:30:31  5-MIN KSTC 030230Z AUTO 00000KT 10SM CLR 11/06 A3030 680 74 300 000/00 RMK AO2 $
14926KSTC STC20000602203509906/02/00 20:35:31  5-MIN KSTC 030235Z AUTO 00000KT 10SM CLR 10/06 A3030 680 77 300 000/00 RMK AO2 $
14926KSTC STC20000602204009906/02/00 20:40:31  5-MIN KSTC 030240Z AUTO 00000KT 10SM CLR 10/06 A3030 680 74 300 000/00 RMK AO2 $
14926KSTC STC20000602204509906/02/00 20:45:31  5-MIN KSTC 030245Z AUTO 00000KT 10SM CLR 09/06 A3030 680 79 200 000/00 RMK AO2 $
14926KSTC STC20000602205012206/02/00 20:50:31  5-MIN KSTC 030250Z AUTO 00000KT 10SM CLR 09/06 A3030 680 79 200 000/00 RMK AO2 SLP273 T00940061 53005 $
14926KSTC STC20000602205509906/02/00 20:55:31  5-MIN KSTC 030255Z AUTO 00000KT 10SM CLR 09/06 A3030 680 83 100 000/00 RMK AO2 $
14926KSTC STC20000602210009906/02/00 21:00:31  5-MIN KSTC 030300Z AUTO 00000KT 10SM CLR 09/06 A3030 670 83 100 000/00 RMK AO2 $
14926KSTC STC20000602210509906/02/00 21:05:31  5-MIN KSTC 030305Z AUTO 00000KT 10SM CLR 09/06 A3030 680 79 200 000/00 RMK AO2 $
14926KSTC STC20000602211009906/02/00 21:10:31  5-MIN KSTC 030310Z AUTO 00000KT 10SM CLR 09/06 A3030 670 83 100 000/00 RMK AO2 $
14926KSTC STC20000602211509906/02/00 21:15:31  5-MIN KSTC 030315Z AUTO 00000KT 10SM CLR 09/07 A3030 670 86 100 000/00 RMK AO2 $
14926KSTC STC20000602212009906/02/00 21:20:31  5-MIN KSTC 030320Z AUTO 00000KT 10SM CLR 08/06 A3030 680 86 100 000/00 RMK AO2 $
14926KSTC STC20000602212509906/02/00 21:25:31  5-MIN KSTC 030325Z AUTO 00000KT 10SM CLR 08/06 A3030 680 86 100 000/00 RMK AO2 $
14926KSTC STC20000602213009906/02/00 21:30:31  5-MIN KSTC 030330Z AUTO 00000KT 10SM CLR 09/07 A3030 670 86 100 000/00 RMK AO2 $
14926KSTC STC20000602213509906/02/00 21:35:31  5-MIN KSTC 030335Z AUTO 00000KT 10SM CLR 09/07 A3030 670 83 200 000/00 RMK AO2 $
14926KSTC STC20000602214009906/02/00 21:40:31  5-MIN KSTC 030340Z AUTO 00000KT 10SM CLR 09/06 A3030 670 79 100 000/00 RMK AO2 $
14926KSTC STC20000602214509906/02/00 21:45:31  5-MIN KSTC 030345Z AUTO 00000KT 10SM CLR 09/06 A3031 670 83 100 000/00 RMK AO2 $
14926KSTC STC20000602215011606/02/00 21:50:31  5-MIN KSTC 030350Z AUTO 00000KT 10SM CLR 09/06 A3030 670 83 100 000/00 RMK AO2 SLP274 T00890061 $
14926KSTC STC20000602215509906/02/00 21:55:31  5-MIN KSTC 030355Z AUTO 00000KT 10SM CLR 09/06 A3031 670 83 100 000/00 RMK AO2 $
14926KSTC STC20000602220009906/02/00 22:00:31  5-MIN KSTC 030400Z AUTO 00000KT 10SM CLR 08/06 A3030 670 82 100 000/00 RMK AO2 $
14926KSTC STC20000602220509706/02/00 22:05:31  5-MIN KSTC 030405Z AUTO 00000KT 10SM CLR 07/06 A3030 670 89 0 000/00 RMK AO2 $
14926KSTC STC20000602221009706/02/00 22:10:31  5-MIN KSTC 030410Z AUTO 00000KT 10SM CLR 08/06 A3030 670 86 0 000/00 RMK AO2 $
14926KSTC STC20000602221509706/02/00 22:15:31  5-MIN KSTC 030415Z AUTO 00000KT 10SM CLR 08/06 A3030 670 86 0 000/00 RMK AO2 $
14926KSTC STC20000602222009706/02/00 22:20:31  5-MIN KSTC 030420Z AUTO 00000KT 10SM CLR 07/06 A3030 670 89 0 000/00 RMK AO2 $
14926KSTC STC20000602222510006/02/00 22:25:31  5-MIN KSTC 030425Z AUTO 00000KT 10SM CLR 07/06 A3030 670 93 -100 000/00 RMK AO2 $
14926KSTC STC20000602223010006/02/00 22:30:31  5-MIN KSTC 030430Z AUTO 00000KT 10SM CLR 07/06 A3030 680 93 -100 000/00 RMK AO2 $
14926KSTC STC20000602223509706/02/00 22:35:31  5-MIN KSTC 030435Z AUTO 00000KT 10SM CLR 07/06 A3030 680 89 0 000/00 RMK AO2 $
14926KSTC STC20000602224010006/02/00 22:40:31  5-MIN KSTC 030440Z AUTO 00000KT 10SM CLR 07/06 A3030 680 93 -100 000/00 RMK AO2 $
14926KSTC STC20000602224509706/02/00 22:45:31  5-MIN KSTC 030445Z AUTO 00000KT 10SM CLR 07/06 A3030 680 93 0 000/00 RMK AO2 $
14926KSTC STC20000602225011406/02/00 22:50:31  5-MIN KSTC 030450Z AUTO 00000KT 10SM CLR 07/06 A3030 680 89 0 000/00 RMK AO2 SLP273 T00720056 $
14926KSTC STC20000602225510006/02/00 22:55:31  5-MIN KSTC 030455Z AUTO 00000KT 10SM CLR 07/05 A3030 680 89 -100 000/00 RMK AO2 $
14926KSTC STC20000602230010006/02/00 23:00:31  5-MIN KSTC 030500Z AUTO 00000KT 10SM CLR 07/06 A3030 670 93 -100 000/00 RMK AO2 $
14926KSTC STC20000602230510006/02/00 23:05:31  5-MIN KSTC 030505Z AUTO 00000KT 10SM CLR 07/06 A3030 670 93 -100 000/00 RMK AO2 $
14926KSTC STC20000602231010006/02/00 23:10:31  5-MIN KSTC 030510Z AUTO 00000KT 10SM CLR 07/06 A3030 670 93 -100 000/00 RMK AO2 $
14926KSTC STC20000602231510006/02/00 23:15:31  5-MIN KSTC 030515Z AUTO 00000KT 10SM CLR 07/06 A3030 670 93 -100 000/00 RMK AO2 $
14926KSTC STC20000602232010006/02/00 23:20:31  5-MIN KSTC 030520Z AUTO 00000KT 10SM CLR 07/06 A3030 670 93 -100 000/00 RMK AO2 $
14926KSTC STC20000602232510006/02/00 23:25:31  5-MIN KSTC 030525Z AUTO 00000KT 10SM CLR 07/06 A3030 670 93 -100 000/00 RMK AO2 $
14926KSTC STC20000602233010006/02/00 23:30:31  5-MIN KSTC 030530Z AUTO 00000KT 10SM CLR 07/06 A3030 670 93 -100 000/00 RMK AO2 $
14926KSTC STC20000602233510006/02/00 23:35:31  5-MIN KSTC 030535Z AUTO 01003KT 10SM CLR 06/05 A3030 670 93 -100 360/03 RMK AO2 $
14926KSTC STC20000602234010006/02/00 23:40:31  5-MIN KSTC 030540Z AUTO 00000KT 10SM CLR 06/05 A3030 670 93 -100 000/00 RMK AO2 $
14926KSTC STC20000602234510006/02/00 23:45:31  5-MIN KSTC 030545Z AUTO 00000KT 10SM CLR 06/05 A3030 670 93 -100 000/00 RMK AO2 $
14926KSTC STC20000602235014506/02/00 23:50:31  5-MIN KSTC 030550Z AUTO 00000KT 10SM CLR 07/05 A3030 670 89 -100 000/00 RMK AO2 SLP273 T00670050 10167 20061 401780061 53006 $
14926KSTC STC20000602235510006/02/00 23:55:31  5-MIN KSTC 030555Z AUTO 00000KT 10SM CLR 06/05 A3030 670 93 -100 000/00 RMK AO2 $
14926KSTC STC20000603000010006/03/00 00:00:31  5-MIN KSTC 030600Z AUTO 00000KT 10SM CLR 06/04 A3030 670 89 -100 000/00 RMK AO2 $
14926KSTC STC20000603000510006/03/00 00:05:31  5-MIN KSTC 030605Z AUTO 00000KT 10SM CLR 06/06 A3030 670 96 -100 000/00 RMK AO2 $
14926KSTC STC20000603001010006/03/00 00:10:31  5-MIN KSTC 030610Z AUTO 00000KT 10SM CLR 06/06 A3031 670 96 -100 000/00 RMK AO2 $
14926KSTC STC20000603001510006/03/00 00:15:31  5-MIN KSTC 030615Z AUTO 00000KT 10SM CLR 06/05 A3030 670 93 -100 000/00 RMK AO2 $
14926KSTC STC20000603002010006/03/00 00:20:31  5-MIN KSTC 030620Z AUTO 00000KT 10SM CLR 06/05 A3030 670 93 -100 000/00 RMK AO2 $
14926KSTC STC20000603002510006/03/00 00:25:31  5-MIN KSTC 030625Z AUTO 00000KT 10SM CLR 06/05 A3030 670 96 -200 000/00 RMK AO2 $
14926KSTC STC20000603003010006/03/00 00:30:31  5-MIN KSTC 030630Z AUTO 00000KT 10SM CLR 06/05 A3030 670 93 -100 000/00 RMK AO2 $
14926KSTC STC20000603003510006/03/00 00:35:31  5-MIN KSTC 030635Z AUTO 00000KT 10SM CLR 06/05 A3030 680 96 -200 000/00 RMK AO2 $
14926KSTC STC20000603004010006/03/00 00:40:31  5-MIN KSTC 030640Z AUTO 00000KT 10SM CLR 06/04 A3030 680 92 -200 000/00 RMK AO2 $
14926KSTC STC20000603004510006/03/00 00:45:31  5-MIN KSTC 030645Z AUTO 00000KT 10SM CLR 06/05 A3030 680 96 -200 000/00 RMK AO2 $
14926KSTC STC20000603005011706/03/00 00:50:31  5-MIN KSTC 030650Z AUTO 00000KT 10SM CLR 06/05 A3030 680 96 -200 000/00 RMK AO2 SLP273 T00560050 $
14926KSTC STC20000603005510006/03/00 00:55:31  5-MIN KSTC 030655Z AUTO 00000KT 10SM CLR 06/05 A3030 680 96 -200 000/00 RMK AO2 $
14926KSTC STC20000603010010006/03/00 01:00:31  5-MIN KSTC 030700Z AUTO 00000KT 10SM CLR 05/02 A3030 680 82 -300 000/00 RMK AO2 $
14926KSTC STC20000603010510006/03/00 01:05:31  5-MIN KSTC 030705Z AUTO 00000KT 10SM CLR 06/02 A3030 680 76 -200 000/00 RMK AO2 $
14926KSTC STC20000603011010006/03/00 01:10:31  5-MIN KSTC 030710Z AUTO 00000KT 10SM CLR 06/02 A3030 680 79 -200 000/00 RMK AO2 $
14926KSTC STC20000603011510006/03/00 01:15:31  5-MIN KSTC 030715Z AUTO 00000KT 10SM CLR 06/01 A3030 680 70 -200 000/00 RMK AO2 $
14926KSTC STC20000603012010006/03/00 01:20:31  5-MIN KSTC 030720Z AUTO 00000KT 10SM CLR 05/01 A3030 680 76 -300 000/00 RMK AO2 $
14926KSTC STC20000603012510006/03/00 01:25:31  5-MIN KSTC 030725Z AUTO 00000KT 10SM CLR 06/03 A3030 680 82 -200 000/00 RMK AO2 $
14926KSTC STC20000603013010006/03/00 01:30:31  5-MIN KSTC 030730Z AUTO 00000KT 10SM CLR 06/04 A3030 680 89 -200 000/00 RMK AO2 $
14926KSTC STC20000603013510006/03/00 01:35:31  5-MIN KSTC 030735Z AUTO 00000KT 10SM CLR 06/03 A3030 680 85 -200 000/00 RMK AO2 $
14926KSTC STC20000603014010006/03/00 01:40:31  5-MIN KSTC 030740Z AUTO 00000KT 10SM CLR 06/03 A3030 680 82 -200 000/00 RMK AO2 $
14926KSTC STC20000603014510006/03/00 01:45:31  5-MIN KSTC 030745Z AUTO 00000KT 10SM CLR 06/04 A3030 680 89 -200 000/00 RMK AO2 $
14926KSTC STC20000603015011706/03/00 01:50:31  5-MIN KSTC 030750Z AUTO 00000KT 10SM CLR 05/03 A3030 680 89 -300 000/00 RMK AO2 SLP273 T00500033 $
14926KSTC STC20000603015510006/03/00 01:55:31  5-MIN KSTC 030755Z AUTO 00000KT 10SM CLR 05/03 A3030 680 89 -300 000/00 RMK AO2 $
14926KSTC STC20000603020010006/03/00 02:00:31  5-MIN KSTC 030800Z AUTO 00000KT 10SM CLR 04/03 A3030 680 92 -300 000/00 RMK AO2 $
14926KSTC STC20000603020510006/03/00 02:05:31  5-MIN KSTC 030805Z AUTO 00000KT 10SM CLR 04/03 A3030 680 92 -300 000/00 RMK AO2 $
14926KSTC STC20000603021010006/03/00 02:10:31  5-MIN KSTC 030810Z AUTO 00000KT 10SM CLR 05/04 A3030 680 92 -300 000/00 RMK AO2 $
14926KSTC STC20000603021510006/03/00 02:15:31  5-MIN KSTC 030815Z AUTO 00000KT 10SM CLR 04/04 A3030 680 96 -300 000/00 RMK AO2 $
14926KSTC STC20000603022010006/03/00 02:20:31  5-MIN KSTC 030820Z AUTO 00000KT 10SM CLR 04/03 A3030 680 89 -300 000/00 RMK AO2 $
14926KSTC STC20000603022510006/03/00 02:25:31  5-MIN KSTC 030825Z AUTO 00000KT 10SM CLR 05/03 A3030 680 89 -300 000/00 RMK AO2 $
14926KSTC STC20000603023010006/03/00 02:30:31  5-MIN KSTC 030830Z AUTO 00000KT 10SM CLR 05/03 A3029 680 89 -300 000/00 RMK AO2 $
14926KSTC STC20000603023510006/03/00 02:35:31  5-MIN KSTC 030835Z AUTO 00000KT 10SM CLR 04/03 A3029 680 89 -300 000/00 RMK AO2 $
14926KSTC STC20000603024010006/03/00 02:40:31  5-MIN KSTC 030840Z AUTO 00000KT 10SM CLR 04/03 A3029 680 89 -300 000/00 RMK AO2 $
14926KSTC STC20000603024510006/03/00 02:45:31  5-MIN KSTC 030845Z AUTO 00000KT 10SM CLR 04/03 A3029 680 92 -300 000/00 RMK AO2 $
14926KSTC STC20000603025012306/03/00 02:50:31  5-MIN KSTC 030850Z AUTO 00000KT 10SM CLR 04/03 A3029 680 89 -300 000/00 RMK AO2 SLP271 T00440028 51001 $
14926KSTC STC20000603025510006/03/00 02:55:31  5-MIN KSTC 030855Z AUTO 00000KT 10SM CLR 04/03 A3029 680 92 -400 000/00 RMK AO2 $
14926KSTC STC20000603030010006/03/00 03:00:31  5-MIN KSTC 030900Z AUTO 00000KT 10SM CLR 04/03 A3029 680 96 -400 000/00 RMK AO2 $
14926KSTC STC20000603030510006/03/00 03:05:31  5-MIN KSTC 030905Z AUTO 00000KT 10SM CLR 04/04 A3029 680 96 -300 000/00 RMK AO2 $
14926KSTC STC20000603031010006/03/00 03:10:31  5-MIN KSTC 030910Z AUTO 00000KT 10SM CLR 04/03 A3029 680 92 -400 000/00 RMK AO2 $
14926KSTC STC20000603031510006/03/00 03:15:31  5-MIN KSTC 030915Z AUTO 00000KT 10SM CLR 04/03 A3029 680 92 -300 000/00 RMK AO2 $
14926KSTC STC20000603032010006/03/00 03:20:31  5-MIN KSTC 030920Z AUTO 00000KT 10SM CLR 04/03 A3029 690 92 -300 000/00 RMK AO2 $
14926KSTC STC20000603032510006/03/00 03:25:31  5-MIN KSTC 030925Z AUTO 00000KT 10SM CLR 04/03 A3029 690 96 -400 000/00 RMK AO2 $
14926KSTC STC20000603033010006/03/00 03:30:31  5-MIN KSTC 030930Z AUTO 00000KT 10SM CLR 03/03 A3029 690 96 -500 000/00 RMK AO2 $
14926KSTC STC20000603033510006/03/00 03:35:31  5-MIN KSTC 030935Z AUTO 00000KT 10SM CLR 03/02 A3029 690 92 -500 000/00 RMK AO2 $
14926KSTC STC20000603034010006/03/00 03:40:31  5-MIN KSTC 030940Z AUTO 00000KT 10SM CLR 03/03 A3029 690 96 -500 000/00 RMK AO2 $
14926KSTC STC20000603034510006/03/00 03:45:31  5-MIN KSTC 030945Z AUTO 00000KT 10SM CLR 03/03 A3029 690 96 -500 000/00 RMK AO2 $
14926KSTC STC20000603035011706/03/00 03:50:31  5-MIN KSTC 030950Z AUTO 00000KT 10SM CLR 03/02 A3029 690 92 -500 000/00 RMK AO2 SLP270 T00330022 $
14926KSTC STC20000603035510006/03/00 03:55:31  5-MIN KSTC 030955Z AUTO 00000KT 10SM CLR 03/03 A3029 690 96 -500 000/00 RMK AO2 $
14926KSTC STC20000603061509906/03/00 06:15:31  5-MIN KSTC 031215Z AUTO 00000KT 10SM CLR 08/07 A3029 690 89 100 000/00 RMK AO2 $
14926KSTC STC20000603062009906/03/00 06:20:31  5-MIN KSTC 031220Z AUTO 00000KT 10SM CLR 09/07 A3029 690 89 200 000/00 RMK AO2 $
14926KSTC STC20000603062509906/03/00 06:25:31  5-MIN KSTC 031225Z AUTO 00000KT 10SM CLR 09/07 A3029 690 86 200 000/00 RMK AO2 $
14926KSTC STC20000603063009906/03/00 06:30:31  5-MIN KSTC 031230Z AUTO 00000KT 10SM CLR 09/07 A3029 690 86 200 000/00 RMK AO2 $
14926KSTC STC20000603063509906/03/00 06:35:31  5-MIN KSTC 031235Z AUTO 00000KT 10SM CLR 10/08 A3028 690 86 300 000/00 RMK AO2 $
14926KSTC STC20000603064009906/03/00 06:40:31  5-MIN KSTC 031240Z AUTO VRB03KT 10SM CLR 11/08 A3028 690 83 400 VRB/03 RMK AO2 $
14926KSTC STC20000603064509906/03/00 06:45:31  5-MIN KSTC 031245Z AUTO 10003KT 10SM CLR 11/07 A3028 690 80 400 090/03 RMK AO2 $
14926KSTC STC20000603065011606/03/00 06:50:31  5-MIN KSTC 031250Z AUTO 10003KT 10SM CLR 11/07 A3028 690 74 400 100/03 RMK AO2 SLP265 T01110067 $
14926KSTC STC20000603065509906/03/00 06:55:31  5-MIN KSTC 031255Z AUTO 11003KT 10SM CLR 12/07 A3028 700 74 500 100/03 RMK AO2 $
14926KSTC STC20000603070009906/03/00 07:00:31  5-MIN KSTC 031300Z AUTO 12004KT 10SM CLR 12/07 A3028 700 74 500 120/04 RMK AO2 $
14926KSTC STC20000603070509906/03/00 07:05:31  5-MIN KSTC 031305Z AUTO 12004KT 10SM CLR 12/07 A3028 700 71 500 120/04 RMK AO2 $
14926KSTC STC20000603071009906/03/00 07:10:31  5-MIN KSTC 031310Z AUTO 10004KT 10SM CLR 12/07 A3027 700 71 600 100/04 RMK AO2 $
14926KSTC STC20000603071509906/03/00 07:15:31  5-MIN KSTC 031315Z AUTO 12005KT 10SM CLR 12/07 A3027 700 71 600 120/05 RMK AO2 $
14926KSTC STC20000603072009906/03/00 07:20:31  5-MIN KSTC 031320Z AUTO 12005KT 10SM CLR 13/06 A3027 700 63 600 120/05 RMK AO2 $
14926KSTC STC20000603072509906/03/00 07:25:31  5-MIN KSTC 031325Z AUTO 11005KT 10SM CLR 13/07 A3027 710 66 600 110/05 RMK AO2 $
14926KSTC STC20000603073009906/03/00 07:30:31  5-MIN KSTC 031330Z AUTO 10005KT 10SM CLR 13/07 A3027 710 64 700 100/05 RMK AO2 $
14926KSTC STC20000603073509906/03/00 07:35:31  5-MIN KSTC 031335Z AUTO 12005KT 10SM CLR 13/07 A3027 710 66 700 120/05 RMK AO2 $
14926KSTC STC20000603074009906/03/00 07:40:31  5-MIN KSTC 031340Z AUTO 12005KT 10SM CLR 13/07 A3027 710 64 700 120/05 RMK AO2 $
14926KSTC STC20000603074509906/03/00 07:45:31  5-MIN KSTC 031345Z AUTO 14005KT 10SM CLR 13/07 A3027 710 66 700 140/05 RMK AO2 $
14926KSTC STC20000603075011606/03/00 07:50:31  5-MIN KSTC 031350Z AUTO 12004KT 10SM CLR 13/07 A3027 710 64 700 110/04 RMK AO2 SLP260 T01330067 $
14926KSTC STC20000603075509906/03/00 07:55:31  5-MIN KSTC 031355Z AUTO VRB04KT 10SM CLR 14/07 A3027 710 64 800 VRB/04 RMK AO2 $
14926KSTC STC20000603080009906/03/00 08:00:31  5-MIN KSTC 031400Z AUTO 10005KT 10SM CLR 14/07 A3027 710 64 800 100/05 RMK AO2 $
14926KSTC STC20000603080509906/03/00 08:05:31  5-MIN KSTC 031405Z AUTO 12005KT 10SM CLR 14/07 A3026 710 61 800 120/05 RMK AO2 $
14926KSTC STC20000603081009906/03/00 08:10:31  5-MIN KSTC 031410Z AUTO 12005KT 10SM CLR 14/07 A3027 710 59 800 120/05 RMK AO2 $
14926KSTC STC20000603081509906/03/00 08:15:31  5-MIN KSTC 031415Z AUTO 15006KT 10SM CLR 15/07 A3027 710 57 900 150/06 RMK AO2 $
14926KSTC STC20000603082009906/03/00 08:20:31  5-MIN KSTC 031420Z AUTO VRB04KT 10SM CLR 15/07 A3027 710 57 900 VRB/04 RMK AO2 $
14926KSTC STC20000603082510006/03/00 08:25:31  5-MIN KSTC 031425Z AUTO 14006KT 10SM CLR 16/07 A3027 710 55 1000 140/06 RMK AO2 $
14926KSTC STC20000603083010006/03/00 08:30:31  5-MIN KSTC 031430Z AUTO 12005KT 10SM CLR 16/06 A3027 710 53 1000 120/05 RMK AO2 $
14926KSTC STC20000603083510006/03/00 08:35:31  5-MIN KSTC 031435Z AUTO 16008KT 10SM CLR 16/07 A3026 710 53 1000 160/08 RMK AO2 $
14926KSTC STC20000603084010006/03/00 08:40:31  5-MIN KSTC 031440Z AUTO VRB05KT 10SM CLR 16/06 A3026 710 51 1000 VRB/05 RMK AO2 $
14926KSTC STC20000603084510006/03/00 08:45:31  5-MIN KSTC 031445Z AUTO 13006KT 10SM CLR 17/07 A3026 710 51 1100 130/06 RMK AO2 $
14926KSTC STC20000603085012306/03/00 08:50:31  5-MIN KSTC 031450Z AUTO 15007KT 10SM CLR 17/06 A3026 710 47 1100 150/07 RMK AO2 SLP259 T01670056 55001 $
14926KSTC STC20000603085510006/03/00 08:55:31  5-MIN KSTC 031455Z AUTO 15009KT 10SM CLR 16/06 A3026 710 49 1000 150/09 RMK AO2 $
14926KSTC STC20000603090010006/03/00 09:00:31  5-MIN KSTC 031500Z AUTO 16008KT 10SM CLR 17/06 A3026 710 47 1100 160/08 RMK AO2 $
14926KSTC STC20000603090510306/03/00 09:05:31  5-MIN KSTC 031505Z AUTO VRB06KT 10SM FEW043 17/06 A3026 710 47 1100 VRB/06 RMK AO2 $
14926KSTC STC20000603091010306/03/00 09:10:31  5-MIN KSTC 031510Z AUTO 18010KT 10SM FEW043 17/06 A3026 710 46 1200 180/10 RMK AO2 $
14926KSTC STC20000603091510306/03/00 09:15:31  5-MIN KSTC 031515Z AUTO 20009KT 10SM FEW043 17/05 A3026 710 45 1100 200/09 RMK AO2 $
14926KSTC STC20000603092010306/03/00 09:20:31  5-MIN KSTC 031520Z AUTO 17010KT 10SM SCT045 17/05 A3026 710 45 1100 170/10 RMK AO2 $
14926KSTC STC20000603092510306/03/00 09:25:31  5-MIN KSTC 031525Z AUTO 16005KT 10SM SCT045 17/05 A3026 710 44 1200 160/05 RMK AO2 $
14926KSTC STC20000603093011006/03/00 09:30:31  5-MIN KSTC 031530Z AUTO 15007KT 10SM SCT045 SCT080 17/06 A3026 710 46 1200 150/07 RMK AO2 $
14926KSTC STC20000603093511006/03/00 09:35:31  5-MIN KSTC 031535Z AUTO 17007KT 10SM SCT045 BKN080 17/05 A3025 720 44 1200 170/07 RMK AO2 $
14926KSTC STC20000603094011006/03/00 09:40:31  5-MIN KSTC 031540Z AUTO 15007KT 10SM FEW045 BKN080 17/05 A3025 720 44 1200 140/07 RMK AO2 $
14926KSTC STC20000603094511006/03/00 09:45:31  5-MIN KSTC 031545Z AUTO 16006KT 10SM FEW045 BKN085 17/05 A3025 720 44 1200 160/06 RMK AO2 $
14926KSTC STC20000603095012706/03/00 09:50:31  5-MIN KSTC 031550Z AUTO 17009KT 10SM FEW045 BKN085 18/05 A3024 730 42 1300 160/09 RMK AO2 SLP252 T01780050 $
14926KSTC STC20000603095511006/03/00 09:55:31  5-MIN KSTC 031555Z AUTO 15009KT 10SM FEW045 BKN085 18/06 A3024 730 44 1300 150/09 RMK AO2 $
14926KSTC STC20000603100010306/03/00 10:00:31  5-MIN KSTC 031600Z AUTO 13008KT 10SM BKN085 18/05 A3024 730 42 1300 130/08 RMK AO2 $
14926KSTC STC20000603100510306/03/00 10:05:31  5-MIN KSTC 031605Z AUTO 17009KT 10SM BKN090 18/05 A3024 730 42 1300 160/09 RMK AO2 $
14926KSTC STC20000603101010906/03/00 10:10:31  5-MIN KSTC 031610Z AUTO VRB04G15KT 10SM SCT090 18/06 A3024 730 44 1300 VRB/04G15 RMK AO2 $
14926KSTC STC20000603101510906/03/00 10:15:31  5-MIN KSTC 031615Z AUTO 16005G15KT 10SM FEW100 17/06 A3024 730 46 1200 160/05G15 RMK AO2 $
14926KSTC STC20000603102011006/03/00 10:20:31  5-MIN KSTC 031620Z AUTO 18008KT 10SM FEW046 SCT110 18/05 A3024 730 42 1300 180/08 RMK AO2 $
14926KSTC STC20000603102511006/03/00 10:25:31  5-MIN KSTC 031625Z AUTO 17009KT 10SM FEW046 SCT110 17/05 A3024 740 44 1200 160/09 RMK AO2 $
14926KSTC STC20000603103010306/03/00 10:30:31  5-MIN KSTC 031630Z AUTO 17007KT 10SM SCT110 17/05 A3024 740 44 1200 170/07 RMK AO2 $
14926KSTC STC20000603103510306/03/00 10:35:31  5-MIN KSTC 031635Z AUTO 15004KT 10SM FEW110 17/05 A3023 740 44 1200 150/04 RMK AO2 $
14926KSTC STC20000603104010306/03/00 10:40:31  5-MIN KSTC 031640Z AUTO 17006KT 10SM FEW110 18/06 A3023 740 44 1300 160/06 RMK AO2 $
14926KSTC STC20000603104511906/03/00 10:45:31  5-MIN KSTC 031645Z AUTO 18008KT 140V210 10SM FEW110 18/06 A3023 750 46 1300 170/08 140V210 RMK AO2 $
14926KSTC STC20000603105012006/03/00 10:50:31  5-MIN KSTC 031650Z AUTO 16009KT 10SM FEW110 18/06 A3023 750 46 1300 160/09 RMK AO2 SLP246 T01780061 $
14926KSTC STC20000603105510306/03/00 10:55:31  5-MIN KSTC 031655Z AUTO 21007KT 10SM FEW110 18/06 A3022 750 44 1300 210/07 RMK AO2 $
14926KSTC STC20000603110010006/03/00 11:00:31  5-MIN KSTC 031700Z AUTO 16008KT 10SM CLR 18/06 A3022 750 44 1400 160/08 RMK AO2 $
14926KSTC STC20000603110510606/03/00 11:05:31  5-MIN KSTC 031705Z AUTO 15007G14KT 10SM CLR 18/06 A3021 760 44 1300 150/07G14 RMK AO2 $
14926KSTC STC20000603111010306/03/00 11:10:31  5-MIN KSTC 031710Z AUTO VRB04KT 10SM FEW090 18/06 A3021 760 46 1300 VRB/04 RMK AO2 $
14926KSTC STC20000603111510306/03/00 11:15:31  5-MIN KSTC 031715Z AUTO 13007KT 10SM FEW090 18/06 A3021 760 44 1400 130/07 RMK AO2 $
14926KSTC STC20000603112010306/03/00 11:20:31  5-MIN KSTC 031720Z AUTO 14007KT 10SM FEW090 18/06 A3021 760 46 1300 140/07 RMK AO2 $
14926KSTC STC20000603112511006/03/00 11:25:31  5-MIN KSTC 031725Z AUTO 17007KT 10SM SCT080 SCT090 18/06 A3021 760 44 1300 160/07 RMK AO2 $
14926KSTC STC20000603113011706/03/00 11:30:31  5-MIN KSTC 031730Z AUTO 18008KT 10SM FEW048 BKN080 BKN090 18/06 A3021 760 46 1300 170/08 RMK AO2 $
14926KSTC STC20000603113511006/03/00 11:35:31  5-MIN KSTC 031735Z AUTO 17007KT 10SM FEW048 BKN080 17/06 A3021 760 47 1200 170/07 RMK AO2 $
14926KSTC STC20000603114011006/03/00 11:40:31  5-MIN KSTC 031740Z AUTO 17007KT 10SM FEW048 BKN080 17/06 A3021 760 46 1200 160/07 RMK AO2 $
14926KSTC STC20000603114511006/03/00 11:45:31  5-MIN KSTC 031745Z AUTO 19007KT 10SM SCT048 OVC080 17/06 A3022 750 46 1200 190/07 RMK AO2 $
14926KSTC STC20000603115014506/03/00 11:50:31  5-MIN KSTC 031750Z AUTO 22008KT 10SM SCT048 OVC080 17/06 A3023 740 47 1200 220/08 RMK AO2 SLP247 T01720061 10183 20067 56010 $
14926KSTC STC20000603115511006/03/00 11:55:31  5-MIN KSTC 031755Z AUTO 22011KT 10SM BKN048 OVC080 17/06 A3023 740 47 1200 220/11 RMK AO2 $
14926KSTC STC20000603120012806/03/00 12:00:31  5-MIN KSTC 031800Z AUTO 22007KT 10SM -RA SCT048 OVC080 17/07 A3023 740 53 1200 220/07 RMK AO2 RAB1756 P0000 $
14926KSTC STC20000603120513506/03/00 12:05:31  5-MIN KSTC 031805Z AUTO 23005KT 10SM -RA FEW023 SCT048 OVC080 17/07 A3022 750 53 1200 230/05 RMK AO2 RAB1756 P0000 $
14926KSTC STC20000603121012806/03/00 12:10:31  5-MIN KSTC 031810Z AUTO 24005KT 10SM -RA BKN046 OVC080 17/08 A3022 750 55 1200 230/05 RMK AO2 RAB1756 P0000 $
14926KSTC STC20000603121513506/03/00 12:15:31  5-MIN KSTC 031815Z AUTO 23007KT 10SM -RA FEW024 BKN046 OVC080 17/08 A3022 750 55 1200 230/07 RMK AO2 RAB1756 P0000 $
14926KSTC STC20000603122013506/03/00 12:20:31  5-MIN KSTC 031820Z AUTO 23009KT 10SM -RA FEW024 BKN046 OVC075 16/07 A3022 750 55 1100 230/09 RMK AO2 RAB1756 P0000 $
14926KSTC STC20000603122513506/03/00 12:25:31  5-MIN KSTC 031825Z AUTO 23007KT 10SM -RA FEW031 BKN048 BKN075 16/08 A3022 750 59 1100 230/07 RMK AO2 RAB1756 P0000 $
14926KSTC STC20000603123013506/03/00 12:30:31  5-MIN KSTC 031830Z AUTO 23006KT 10SM -RA SCT026 BKN046 BKN075 16/08 A3022 750 59 1000 230/06 RMK AO2 RAB1756 P0000 $
14926KSTC STC20000603123513506/03/00 12:35:31  5-MIN KSTC 031835Z AUTO 23006KT 10SM -RA SCT024 BKN041 OVC075 16/08 A3022 750 62 1000 230/06 RMK AO2 RAB1756 P0000 $
14926KSTC STC20000603124013506/03/00 12:40:31  5-MIN KSTC 031840Z AUTO 23004KT 10SM -RA SCT026 BKN049 BKN075 16/08 A3021 760 62 1000 230/04 RMK AO2 RAB1756 P0000 $
14926KSTC STC20000603124513406/03/00 12:45:31  5-MIN KSTC 031845Z AUTO 24004KT 10SM SCT034 SCT049 BKN075 16/08 A3021 760 62 1000 240/04 RMK AO2 RAB1756E45 P0000 $
14926KSTC STC20000603125015106/03/00 12:50:31  5-MIN KSTC 031850Z AUTO 25004KT 10SM SCT032 SCT055 BKN080 16/08 A3021 750 62 1000 240/04 RMK AO2 RAB1756E45 SLP244 P0000 T01560083 $
14926KSTC STC20000603125512706/03/00 12:55:31  5-MIN KSTC 031855Z AUTO 27004KT 10SM -RA BKN032 BKN050 BKN080 16/08 A3021 760 59 1000 260/04 RMK AO2 P0000 $
14926KSTC STC20000603130012706/03/00 13:00:31  5-MIN KSTC 031900Z AUTO 00000KT 10SM -RA BKN032 BKN039 BKN085 15/08 A3021 760 62 1000 000/00 RMK AO2 P0000 $
14926KSTC STC20000603130512706/03/00 13:05:31  5-MIN KSTC 031905Z AUTO 28003KT 10SM -RA SCT032 BKN042 BKN075 15/08 A3021 760 62 1000 280/03 RMK AO2 P0000 $
14926KSTC STC20000603131012706/03/00 13:10:31  5-MIN KSTC 031910Z AUTO 25003KT 10SM -RA SCT034 BKN044 BKN055 15/08 A3021 760 62 1000 250/03 RMK AO2 P0001 $
14926KSTC STC20000603131512706/03/00 13:15:31  5-MIN KSTC 031915Z AUTO 00000KT 10SM -RA BKN026 BKN042 OVC075 15/08 A3021 760 62 1000 000/00 RMK AO2 P0001 $
14926KSTC STC20000603132012606/03/00 13:20:31  5-MIN KSTC 031920Z AUTO 00000KT 9SM -RA BKN024 BKN042 BKN075 16/09 A3021 760 64 1000 000/00 RMK AO2 P0001 $
14926KSTC STC20000603132512706/03/00 13:25:31  5-MIN KSTC 031925Z AUTO 00000KT 10SM -RA SCT024 SCT042 SCT075 15/08 A3020 770 64 1000 000/00 RMK AO2 P0001 $
14926KSTC STC20000603133012006/03/00 13:30:31  5-MIN KSTC 031930Z AUTO 00000KT 10SM -RA SCT024 SCT070 16/09 A3020 770 64 1100 000/00 RMK AO2 P0001 $
14926KSTC STC20000603133512706/03/00 13:35:31  5-MIN KSTC 031935Z AUTO 00000KT 10SM -RA FEW024 BKN065 BKN095 16/08 A3020 770 62 1100 000/00 RMK AO2 P0001 $
14926KSTC STC20000603134012706/03/00 13:40:31  5-MIN KSTC 031940Z AUTO 03004KT 10SM -RA FEW020 SCT070 SCT090 16/09 A3019 770 64 1100 030/04 RMK AO2 P0001 $
14926KSTC STC20000603134512206/03/00 13:45:31  5-MIN KSTC 031945Z AUTO 03004KT 10SM FEW070 SCT090 16/09 A3019 780 64 1100 020/04 RMK AO2 RAE41 P0001 $
14926KSTC STC20000603135013906/03/00 13:50:31  5-MIN KSTC 031950Z AUTO 03004KT 10SM FEW034 BKN085 16/09 A3019 780 64 1100 030/04 RMK AO2 RAE41 SLP236 P0001 T01560089 $
14926KSTC STC20000603135512706/03/00 13:55:31  5-MIN KSTC 031955Z AUTO 00000KT 10SM -RA FEW034 SCT070 BKN090 16/09 A3019 780 67 1100 000/00 RMK AO2 P0000 $
14926KSTC STC20000603140012006/03/00 14:00:31  5-MIN KSTC 032000Z AUTO VRB03KT 10SM -RA BKN070 BKN090 15/09 A3019 780 69 1000 VRB/03 RMK AO2 P0000 $
14926KSTC STC20000603140512206/03/00 14:05:31  5-MIN KSTC 032005Z AUTO 03003KT 10SM BKN070 BKN090 15/09 A3019 780 69 1000 030/03 RMK AO2 RAE03 P0000 $
14926KSTC STC20000603141012206/03/00 14:10:31  5-MIN KSTC 032010Z AUTO 04004KT 10SM BKN070 OVC085 15/09 A3018 790 66 1000 040/04 RMK AO2 RAE03 P0000 $
14926KSTC STC20000603141512206/03/00 14:15:31  5-MIN KSTC 032015Z AUTO 03004KT 10SM FEW055 OVC070 15/09 A3018 790 69 1000 030/04 RMK AO2 RAE03 P0000 $
14926KSTC STC20000603142011506/03/00 14:20:31  5-MIN KSTC 032020Z AUTO 05004KT 10SM OVC075 15/09 A3017 790 69 1000 050/04 RMK AO2 RAE03 P0000 $
14926KSTC STC20000603142511506/03/00 14:25:31  5-MIN KSTC 032025Z AUTO 05005KT 10SM OVC075 15/09 A3017 800 69 1000 040/05 RMK AO2 RAE03 P0000 $
14926KSTC STC20000603143011506/03/00 14:30:31  5-MIN KSTC 032030Z AUTO 04006KT 10SM OVC075 15/09 A3017 800 69 1000 030/06 RMK AO2 RAE03 P0000 $
14926KSTC STC20000603143511506/03/00 14:35:31  5-MIN KSTC 032035Z AUTO 05006KT 10SM BKN080 15/10 A3016 800 72 1000 050/06 RMK AO2 RAE03 P0000 $
14926KSTC STC20000603144011506/03/00 14:40:31  5-MIN KSTC 032040Z AUTO 04005KT 10SM BKN080 16/09 A3016 800 67 1100 040/05 RMK AO2 RAE03 P0000 $
14926KSTC STC20000603144512206/03/00 14:45:31  5-MIN KSTC 032045Z AUTO 07006KT 10SM SCT080 SCT100 15/09 A3016 800 69 1000 060/06 RMK AO2 RAE03 P0000 $
14926KSTC STC20000603145015106/03/00 14:50:31  5-MIN KSTC 032050Z AUTO 05005KT 10SM FEW055 SCT080 16/09 A3017 800 67 1100 050/05 RMK AO2 RAE03 SLP228 P0000 60001 T01560094 55011 $
14926KSTC STC20000603145511006/03/00 14:55:31  5-MIN KSTC 032055Z AUTO 05006KT 10SM SCT055 BKN085 16/09 A3016 800 67 1100 050/06 RMK AO2 $
14926KSTC STC20000603150011006/03/00 15:00:31  5-MIN KSTC 032100Z AUTO 04006KT 10SM BKN055 BKN090 16/09 A3016 800 67 1100 030/06 RMK AO2 $
14926KSTC STC20000603150510306/03/00 15:05:31  5-MIN KSTC 032105Z AUTO 03005KT 10SM BKN055 16/09 A3016 800 67 1100 030/05 RMK AO2 $
14926KSTC STC20000603151010306/03/00 15:10:31  5-MIN KSTC 032110Z AUTO 03007KT 10SM BKN060 15/09 A3016 800 69 1000 030/07 RMK AO2 $
14926KSTC STC20000603151510306/03/00 15:15:31  5-MIN KSTC 032115Z AUTO 05005KT 10SM OVC060 15/10 A3016 800 72 1000 040/05 RMK AO2 $
14926KSTC STC20000603152010306/03/00 15:20:31  5-MIN KSTC 032120Z AUTO 07006KT 10SM OVC060 15/09 A3016 810 69 1000 070/06 RMK AO2 $
14926KSTC STC20000603152510306/03/00 15:25:31  5-MIN KSTC 032125Z AUTO 07006KT 10SM OVC055 15/09 A3016 810 69 1000 070/06 RMK AO2 $
14926KSTC STC20000603153010306/03/00 15:30:31  5-MIN KSTC 032130Z AUTO 07005KT 10SM OVC055 15/09 A3016 810 69 1000 070/05 RMK AO2 $
14926KSTC STC20000603153510306/03/00 15:35:31  5-MIN KSTC 032135Z AUTO 07005KT 10SM BKN055 15/09 A3015 810 69 1000 070/05 RMK AO2 $
14926KSTC STC20000603154010306/03/00 15:40:31  5-MIN KSTC 032140Z AUTO 07004KT 10SM BKN055 15/09 A3015 810 69 1000 070/04 RMK AO2 $
14926KSTC STC20000603154511006/03/00 15:45:31  5-MIN KSTC 032145Z AUTO 06005KT 10SM SCT055 BKN100 15/09 A3015 820 69 1000 050/05 RMK AO2 $
14926KSTC STC20000603155012706/03/00 15:50:31  5-MIN KSTC 032150Z AUTO 06006KT 10SM SCT055 BKN100 15/09 A3014 820 69 1100 060/06 RMK AO2 SLP221 T01500094 $
14926KSTC STC20000603155511006/03/00 15:55:31  5-MIN KSTC 032155Z AUTO 07005KT 10SM FEW055 BKN100 15/09 A3014 820 69 1100 060/05 RMK AO2 $
14926KSTC STC20000603160011006/03/00 16:00:31  5-MIN KSTC 032200Z AUTO 06006KT 10SM FEW055 BKN100 15/10 A3014 820 72 1100 060/06 RMK AO2 $
14926KSTC STC20000603160510306/03/00 16:05:31  5-MIN KSTC 032205Z AUTO 06004KT 10SM BKN100 15/09 A3015 820 69 1000 060/04 RMK AO2 $
14926KSTC STC20000603161010306/03/00 16:10:31  5-MIN KSTC 032210Z AUTO 07003KT 10SM OVC100 15/10 A3015 820 72 1000 070/03 RMK AO2 $
14926KSTC STC20000603161510306/03/00 16:15:31  5-MIN KSTC 032215Z AUTO 09003KT 10SM OVC095 15/09 A3015 820 69 1000 090/03 RMK AO2 $
14926KSTC STC20000603162011006/03/00 16:20:31  5-MIN KSTC 032220Z AUTO 08004KT 10SM FEW055 OVC095 15/09 A3015 820 69 1000 080/04 RMK AO2 $
14926KSTC STC20000603162511006/03/00 16:25:31  5-MIN KSTC 032225Z AUTO 08003KT 10SM FEW055 OVC095 15/09 A3015 820 69 1000 080/03 RMK AO2 $
14926KSTC STC20000603163011006/03/00 16:30:31  5-MIN KSTC 032230Z AUTO 08003KT 10SM SCT060 OVC090 15/09 A3015 820 69 1000 080/03 RMK AO2 $
14926KSTC STC20000603163511006/03/00 16:35:31  5-MIN KSTC 032235Z AUTO 06004KT 10SM BKN060 OVC095 15/09 A3015 820 69 1000 060/04 RMK AO2 $
14926KSTC STC20000603164011006/03/00 16:40:31  5-MIN KSTC 032240Z AUTO 06005KT 10SM SCT060 OVC095 15/09 A3015 820 69 1000 060/05 RMK AO2 $
14926KSTC STC20000603164511006/03/00 16:45:31  5-MIN KSTC 032245Z AUTO 05006KT 10SM SCT060 BKN100 15/09 A3015 810 69 1000 050/06 RMK AO2 $
14926KSTC STC20000603165012706/03/00 16:50:31  5-MIN KSTC 032250Z AUTO 04007KT 10SM SCT060 OVC100 14/10 A3015 810 74 1000 040/07 RMK AO2 SLP224 T01440100 $
14926KSTC STC20000603165511006/03/00 16:55:31  5-MIN KSTC 032255Z AUTO 07006KT 10SM SCT060 OVC100 14/10 A3014 820 74 1000 060/06 RMK AO2 $
14926KSTC STC20000603170011006/03/00 17:00:31  5-MIN KSTC 032300Z AUTO 07008KT 10SM SCT060 OVC100 14/10 A3013 830 74 1000 060/08 RMK AO2 $
14926KSTC STC20000603170510906/03/00 17:05:31  5-MIN KSTC 032305Z AUTO 07008KT 10SM SCT060 OVC100 14/10 A3014 830 77 900 060/08 RMK AO2 $
14926KSTC STC20000603171010906/03/00 17:10:31  5-MIN KSTC 032310Z AUTO 08007KT 10SM BKN060 OVC110 14/09 A3013 830 74 900 070/07 RMK AO2 $
14926KSTC STC20000603171510906/03/00 17:15:31  5-MIN KSTC 032315Z AUTO 08007KT 10SM BKN060 OVC110 14/09 A3013 830 74 900 070/07 RMK AO2 $
14926KSTC STC20000603172010906/03/00 17:20:31  5-MIN KSTC 032320Z AUTO 07008KT 10SM BKN060 OVC110 14/09 A3014 820 74 900 060/08 RMK AO2 $
14926KSTC STC20000603172510906/03/00 17:25:31  5-MIN KSTC 032325Z AUTO 06006KT 10SM BKN060 OVC110 14/09 A3014 820 74 900 060/06 RMK AO2 $
14926KSTC STC20000603173010906/03/00 17:30:31  5-MIN KSTC 032330Z AUTO 08006KT 10SM BKN060 OVC110 14/09 A3014 820 74 900 080/06 RMK AO2 $
14926KSTC STC20000603173510206/03/00 17:35:31  5-MIN KSTC 032335Z AUTO 07007KT 10SM OVC055 14/10 A3014 820 77 900 060/07 RMK AO2 $
14926KSTC STC20000603174010906/03/00 17:40:31  5-MIN KSTC 032340Z AUTO 08006KT 10SM BKN055 OVC080 14/10 A3013 830 77 900 080/06 RMK AO2 $
14926KSTC STC20000603174510906/03/00 17:45:31  5-MIN KSTC 032345Z AUTO 08006KT 10SM BKN055 OVC080 14/10 A3014 830 77 900 070/06 RMK AO2 $
14926KSTC STC20000603175015006/03/00 17:50:31  5-MIN KSTC 032350Z AUTO 07006KT 10SM BKN050 OVC080 13/10 A3014 820 80 900 060/06 RMK AO2 SLP219 60001 T01330100 10172 20133 58021 $
14926KSTC STC20000603175510906/03/00 17:55:31  5-MIN KSTC 032355Z AUTO 06006KT 10SM BKN050 OVC080 13/10 A3014 820 80 900 060/06 RMK AO2 $
14926KSTC STC20000603180010906/03/00 18:00:31  5-MIN KSTC 040000Z AUTO 07006KT 10SM SCT050 OVC075 13/10 A3014 820 80 900 060/06 RMK AO2 $
14926KSTC STC20000603180510906/03/00 18:05:31  5-MIN KSTC 040005Z AUTO 06007KT 10SM FEW050 OVC075 13/10 A3014 820 80 900 060/07 RMK AO2 $
14926KSTC STC20000603181010906/03/00 18:10:31  5-MIN KSTC 040010Z AUTO 07006KT 10SM FEW050 OVC070 13/10 A3014 820 80 900 070/06 RMK AO2 $
14926KSTC STC20000603181510906/03/00 18:15:31  5-MIN KSTC 040015Z AUTO 08005KT 10SM FEW050 OVC070 13/10 A3014 820 80 900 070/05 RMK AO2 $
14926KSTC STC20000603182010906/03/00 18:20:31  5-MIN KSTC 040020Z AUTO 08005KT 10SM FEW050 OVC070 13/10 A3014 820 80 900 080/05 RMK AO2 $
14926KSTC STC20000603182510206/03/00 18:25:31  5-MIN KSTC 040025Z AUTO 07006KT 10SM OVC070 13/10 A3014 820 80 900 070/06 RMK AO2 $
14926KSTC STC20000603183010206/03/00 18:30:31  5-MIN KSTC 040030Z AUTO 08007KT 10SM OVC070 13/10 A3014 820 80 900 080/07 RMK AO2 $
14926KSTC STC20000603183510206/03/00 18:35:31  5-MIN KSTC 040035Z AUTO 07006KT 10SM OVC065 13/10 A3014 820 80 900 070/06 RMK AO2 $
14926KSTC STC20000603184010206/03/00 18:40:31  5-MIN KSTC 040040Z AUTO 07006KT 10SM OVC065 13/10 A3014 820 80 900 070/06 RMK AO2 $
14926KSTC STC20000603184510206/03/00 18:45:31  5-MIN KSTC 040045Z AUTO 08006KT 10SM OVC060 13/10 A3014 820 80 900 080/06 RMK AO2 $
14926KSTC STC20000603185011906/03/00 18:50:31  5-MIN KSTC 040050Z AUTO 08005KT 10SM OVC060 13/10 A3014 820 80 900 070/05 RMK AO2 SLP218 T01330100 $
14926KSTC STC20000603185510906/03/00 18:55:31  5-MIN KSTC 040055Z AUTO 07005KT 10SM BKN050 OVC065 13/10 A3014 820 83 800 070/05 RMK AO2 $
14926KSTC STC20000603190010206/03/00 19:00:31  5-MIN KSTC 040100Z AUTO 07007KT 10SM OVC055 13/10 A3014 820 83 800 060/07 RMK AO2 $
14926KSTC STC20000603190510206/03/00 19:05:31  5-MIN KSTC 040105Z AUTO 07006KT 10SM OVC055 13/10 A3013 830 83 800 070/06 RMK AO2 $
14926KSTC STC20000603191010206/03/00 19:10:31  5-MIN KSTC 040110Z AUTO 08006KT 10SM OVC055 13/10 A3013 830 83 800 080/06 RMK AO2 $
14926KSTC STC20000603191510206/03/00 19:15:31  5-MIN KSTC 040115Z AUTO 07005KT 10SM OVC060 13/10 A3013 830 83 800 070/05 RMK AO2 $
14926KSTC STC20000603192010206/03/00 19:20:31  5-MIN KSTC 040120Z AUTO 06005KT 10SM OVC060 13/10 A3013 830 83 800 060/05 RMK AO2 $
14926KSTC STC20000603192510906/03/00 19:25:31  5-MIN KSTC 040125Z AUTO 06005KT 10SM BKN060 OVC080 13/10 A3013 830 83 800 060/05 RMK AO2 $
14926KSTC STC20000603193010906/03/00 19:30:31  5-MIN KSTC 040130Z AUTO 07005KT 10SM BKN060 OVC080 13/10 A3013 830 83 800 060/05 RMK AO2 $
14926KSTC STC20000603193510906/03/00 19:35:31  5-MIN KSTC 040135Z AUTO 06007KT 10SM SCT065 OVC080 13/10 A3013 830 83 800 060/07 RMK AO2 $
14926KSTC STC20000603194010906/03/00 19:40:31  5-MIN KSTC 040140Z AUTO 08005KT 10SM SCT065 OVC080 13/10 A3013 840 83 800 080/05 RMK AO2 $
14926KSTC STC20000603194510906/03/00 19:45:31  5-MIN KSTC 040145Z AUTO 08006KT 10SM FEW065 OVC080 13/10 A3012 840 83 800 080/06 RMK AO2 $
14926KSTC STC20000603195011906/03/00 19:50:31  5-MIN KSTC 040150Z AUTO 08005KT 10SM OVC080 13/10 A3012 840 83 800 070/05 RMK AO2 SLP211 T01280100 $
14926KSTC STC20000603195510206/03/00 19:55:31  5-MIN KSTC 040155Z AUTO 07007KT 10SM OVC080 12/10 A3012 840 86 700 070/07 RMK AO2 $
14926KSTC STC20000603200010206/03/00 20:00:31  5-MIN KSTC 040200Z AUTO 07007KT 10SM OVC080 12/10 A3012 840 86 700 070/07 RMK AO2 $
14926KSTC STC20000603200510206/03/00 20:05:31  5-MIN KSTC 040205Z AUTO 07007KT 10SM OVC080 12/10 A3012 840 86 700 070/07 RMK AO2 $
14926KSTC STC20000603201010206/03/00 20:10:31  5-MIN KSTC 040210Z AUTO 06006KT 10SM OVC080 12/10 A3012 840 86 700 060/06 RMK AO2 $
14926KSTC STC20000603201510206/03/00 20:15:31  5-MIN KSTC 040215Z AUTO 08005KT 10SM OVC080 12/10 A3012 840 86 700 080/05 RMK AO2 $
14926KSTC STC20000603202010206/03/00 20:20:31  5-MIN KSTC 040220Z AUTO 08007KT 10SM OVC080 12/10 A3012 840 86 700 070/07 RMK AO2 $
14926KSTC STC20000603202510206/03/00 20:25:31  5-MIN KSTC 040225Z AUTO 07006KT 10SM OVC080 12/10 A3013 840 86 700 060/06 RMK AO2 $
14926KSTC STC20000603203010206/03/00 20:30:31  5-MIN KSTC 040230Z AUTO 07005KT 10SM OVC080 12/1 e3013 840 86 700 070/05 M SO2 $
14926KSTC STC20000603203510206/03/00 20:35:31  5-MIN KSTC 040235Z AUTO 07006KT 10SM OVC080 12/10 A3012 840 86 700 070/06 RMK AO2 $
14926KSTC STC20000603204010206/03/00 20:40:31  5-MIN KSTC 040240Z AUTO 07008KT 10SM OVC080 12/10 A3012 840 86 700 070/08 RMK AO2 $
14926KSTC STC20000603204510206/03/00 20:45:31  5-MIN KSTC 040245Z AUTO 06007KT 10SM OVC080 12/10 A3013 840 86 700 060/07 RMK AO2 $
14926KSTC STC20000603205012506/03/00 20:50:31  5-MIN KSTC 040250Z AUTO 08006KT 10SM OVC075 12/10 A3013 840 86 700 070/06 RMK AO2 SLP211 T01220100 56008 $
14926KSTC STC20000603205510206/03/00 20:55:31  5-MIN KSTC 040255Z AUTO 09005KT 10SM OVC075 12/10 A3012 840 86 700 080/05 RMK AO2 $
14926KSTC STC20000603210010206/03/00 21:00:31  5-MIN KSTC 040300Z AUTO 08006KT 10SM OVC075 12/10 A3013 840 86 700 070/06 RMK AO2 $
14926KSTC STC20000603210510206/03/00 21:05:31  5-MIN KSTC 040305Z AUTO VRB05KT 10SM OVC075 12/10 A3013 840 86 700 VRB/05 RMK AO2 $
14926KSTC STC20000603211010206/03/00 21:10:31  5-MIN KSTC 040310Z AUTO 09005KT 10SM OVC075 12/10 A3013 840 86 700 090/05 RMK AO2 $
14926KSTC STC20000603211510206/03/00 21:15:31  5-MIN KSTC 040315Z AUTO 08006KT 10SM OVC075 12/10 A3013 840 86 700 080/06 RMK AO2 $
14926KSTC STC20000603212010906/03/00 21:20:31  5-MIN KSTC 040320Z AUTO 08006KT 10SM BKN070 OVC080 12/10 A3012 840 86 700 080/06 RMK AO2 $
14926KSTC STC20000603212510206/03/00 21:25:31  5-MIN KSTC 040325Z AUTO 09006KT 10SM OVC070 12/10 A3013 830 86 700 080/06 RMK AO2 $
14926KSTC STC20000603213010206/03/00 21:30:31  5-MIN KSTC 040330Z AUTO 07005KT 10SM OVC070 12/10 A3013 830 86 700 070/05 RMK AO2 $
14926KSTC STC20000603213510206/03/00 21:35:31  5-MIN KSTC 040335Z AUTO 09005KT 10SM OVC070 12/10 A3014 830 86 700 080/05 RMK AO2 $
14926KSTC STC20000603214010206/03/00 21:40:31  5-MIN KSTC 040340Z AUTO 07007KT 10SM OVC070 12/10 A3014 830 86 700 070/07 RMK AO2 $
14926KSTC STC20000603214510206/03/00 21:45:31  5-MIN KSTC 040345Z AUTO 07006KT 10SM OVC070 12/10 A3013 830 89 700 070/06 RMK AO2 $
14926KSTC STC20000603215011906/03/00 21:50:31  5-MIN KSTC 040350Z AUTO 08007KT 10SM OVC065 12/10 A3014 830 86 700 080/07 RMK AO2 SLP214 T01220100 $
14926KSTC STC20000603215510206/03/00 21:55:31  5-MIN KSTC 040355Z AUTO 08006KT 10SM OVC065 12/10 A3014 830 89 700 070/06 RMK AO2 $
14926KSTC STC20000603220010206/03/00 22:00:31  5-MIN KSTC 040400Z AUTO VRB05KT 10SM OVC065 12/10 A3014 830 89 700 VRB/05 RMK AO2 $
14926KSTC STC20000603220510206/03/00 22:05:31  5-MIN KSTC 040405Z AUTO 08006KT 10SM OVC065 12/10 A3014 830 89 700 080/06 RMK AO2 $
14926KSTC STC20000603221010206/03/00 22:10:31  5-MIN KSTC 040410Z AUTO 08007KT 10SM OVC065 12/10 A3014 830 89 700 080/07 RMK AO2 $
14926KSTC STC20000603221510206/03/00 22:15:31  5-MIN KSTC 040415Z AUTO 08006KT 10SM OVC060 12/10 A3014 830 89 700 080/06 RMK AO2 $
14926KSTC STC20000603222010206/03/00 22:20:31  5-MIN KSTC 040420Z AUTO 09006KT 10SM OVC060 12/10 A3014 820 89 700 080/06 RMK AO2 $
14926KSTC STC20000603222510206/03/00 22:25:31  5-MIN KSTC 040425Z AUTO 08005KT 10SM OVC060 12/10 A3014 820 89 700 080/05 RMK AO2 $
14926KSTC STC20000603223010206/03/00 22:30:31  5-MIN KSTC 040430Z AUTO 07006KT 10SM OVC060 12/10 A3015 820 89 700 070/06 RMK AO2 $
14926KSTC STC20000603223510206/03/00 22:35:31  5-MIN KSTC 040435Z AUTO 07006KT 10SM OVC060 12/10 A3014 820 89 700 060/06 RMK AO2 $
14926KSTC STC20000603224010206/03/00 22:40:31  5-MIN KSTC 040440Z AUTO 07008KT 10SM OVC060 12/09 A3014 820 86 700 070/08 RMK AO2 $
14926KSTC STC20000603224522206/03/00 22:45:31  5-MIN KSTC 040445Z AUTO 06007KT 10SM OVC060 12/09 A3014 820 86 700 050/07 RMK AO2 $ 06/03/00 22:50:31  5-Ij KSTC 040450Z AUTO 07007KT 10SM OVC060 12/09 A3014 820 86 700 060/07 RMK AO2 SLP216 T01170094 $
14926KSTC STC20000603225510206/03/00 22:55:31  5-MIN KSTC 040455Z AUTO 07008KT 10SM OVC060 12/09 A3014 820 86 700 070/08 RMK AO2 $
14926KSTC STC20000603230010206/03/00 23:00:31  5-MIN KSTC 040500Z AUTO 08008KT 10SM OVC060 12/09 A3014 820 86 700 080/08 RMK AO2 $
14926KSTC STC20000603230510206/03/00 23:05:31  5-MIN KSTC 040505Z AUTO 08008KT 10SM OVC060 12/09 A3014 830 86 700 080/08 RMK AO2 $
14926KSTC STC20000603231010206/03/00 23:10:31  5-MIN KSTC 040510Z AUTO 08008KT 10SM OVC065 12/09 A3014 830 83 700 080/08 RMK AO2 $
14926KSTC STC20000603231510206/03/00 23:15:31  5-MIN KSTC 040515Z AUTO 07008KT 10SM OVC065 12/09 A3014 830 83 700 070/08 RMK AO2 $
14926KSTC STC20000603232010206/03/00 23:20:31  5-MIN KSTC 040520Z AUTO 06007KT 10SM OVC065 12/09 A3014 830 83 700 060/07 RMK AO2 $
14926KSTC STC20000603232510206/03/00 23:25:31  5-MIN KSTC 040525Z AUTO 06008KT 10SM OVC060 12/09 A3014 830 83 700 060/08 RMK AO2 $
14926KSTC STC20000603233010206/03/00 23:30:31  5-MIN KSTC 040530Z AUTO 06006KT 10SM OVC060 12/09 A3014 830 83 700 060/06 RMK AO2 $
14926KSTC STC20000603233510206/03/00 23:35:31  5-MIN KSTC 040535Z AUTO 07008KT 10SM OVC060 12/09 A3014 830 83 700 060/08 RMK AO2 $
14926KSTC STC20000603234010206/03/00 23:40:31  5-MIN KSTC 040540Z AUTO 07006KT 10SM OVC060 12/09 A3013 830 83 700 070/06 RMK AO2 $
14926KSTC STC20000603234510206/03/00 23:45:31  5-MIN KSTC 040545Z AUTO 07008KT 10SM OVC055 12/09 A3013 830 83 700 070/08 RMK AO2 $
14926KSTC STC20000603235014706/03/00 23:50:31  5-MIN KSTC 040550Z AUTO 08007KT 10SM OVC055 12/09 A3013 830 83 700 080/07 RMK AO2 SLP212 T01170089 10133 20117 401830028 57005 $
14926KSTC STC20000603235510206/03/00 23:55:31  5-MIN KSTC 040555Z AUTO 07007KT 10SM OVC055 11/09 A3013 830 86 600 070/07 RMK AO2 $
14926KSTC STC20000604000010206/04/00 00:00:31  5-MIN KSTC 040600Z AUTO 07007KT 10SM OVC055 11/09 A3013 830 86 600 070/07 RMK AO2 $
14926KSTC STC20000604000510206/04/00 00:05:31  5-MIN KSTC 040605Z AUTO 07006KT 10SM OVC055 11/09 A3013 830 86 600 070/06 RMK AO2 $
14926KSTC STC20000604001010206/04/00 00:10:31  5-MIN KSTC 040610Z AUTO 07009KT 10SM OVC055 11/09 A3012 840 86 600 060/09 RMK AO2 $
14926KSTC STC20000604001510206/04/00 00:15:31  5-MIN KSTC 040615Z AUTO 07007KT 10SM OVC055 11/09 A3013 840 86 600 070/07 RMK AO2 $
14926KSTC STC20000604002010206/04/00 00:20:31  5-MIN KSTC 040620Z AUTO 07007KT 10SM OVC055 11/09 A3012 840 86 600 070/07 RMK AO2 $
14926KSTC STC20000604002510206/04/00 00:25:31  5-MIN KSTC 040625Z AUTO 07005KT 10SM OVC055 11/09 A3012 840 86 600 070/05 RMK AO2 $
14926KSTC STC20000604003010206/04/00 00:30:31  5-MIN KSTC 040630Z AUTO 07006KT 10SM OVC055 11/09 A3012 840 86 600 060/06 RMK AO2 $
14926KSTC STC20000604003510206/04/00 00:35:31  5-MIN KSTC 040635Z AUTO 07007KT 10SM OVC055 11/09 A3012 840 86 600 070/07 RMK AO2 $
14926KSTC STC20000604004010206/04/00 00:40:31  5-MIN KSTC 040640Z AUTO 08007KT 10SM OVC055 11/09 A3012 840 86 600 080/07 RMK AO2 $
14926KSTC STC20000604004510206/04/00 00:45:31  5-MIN KSTC 040645Z AUTO 08007KT 10SM OVC055 11/09 A3012 840 86 600 080/07 RMK AO2 $
14926KSTC STC20000604005011906/04/00 00:50:31  5-MIN KSTC 040650Z AUTO 08006KT 10SM OVC055 11/09 A3011 850 86 600 070/06 RMK AO2 SLP207 T01110089 $
14926KSTC STC20000604005510206/04/00 00:55:31  5-MIN KSTC 81655Z AUTO 08007KT 10SM OVC055 11/09 A3011 850 86 600 080/07 RMK AO2 $
14926KSTC STC20000604010010206/04/00 01:00:31  5-MIN KSTC 040700Z AUTO 08007KT 10SM OVC050 11/06 A3011 850 71 600 070/07 RMK AO2 $
14926KSTC STC20000604010510206/04/00 01:05:31  5-MIN KSTC 040705Z AUTO 07008KT 10SM OVC050 12/06 A3011 850 68 700 070/08 RMK AO2 $
14926KSTC STC20000604011010206/04/00 01:10:31  5-MIN KSTC 040710Z AUTO 07007KT 10SM OVC050 11/06 A3011 850 68 600 070/07 RMK AO2 $
14926KSTC STC20000604011510206/04/00 01:15:31  5-MIN KSTC 040715Z AUTO 08007KT 10SM OVC050 11/08 A3011 850 83 600 080/07 RMK AO2 $
14926KSTC STC20000604012010206/04/00 01:20:31  5-MIN KSTC 040720Z AUTO 09008KT 10SM OVC050 12/07 A3011 860 71 700 090/08 RMK AO2 $
14926KSTC STC20000604012510206/04/00 01:25:31  5-MIN KSTC 040725Z AUTO 09007KT 10SM OVC050 12/05 A3010 860 63 700 080/07 RMK AO2 $
14926KSTC STC20000604013010206/04/00 01:30:31  5-MIN KSTC 040730Z AUTO 09006KT 10SM OVC050 11/11 A3010 860 96 600 090/06 RMK AO2 $
14926KSTC STC20000604013510206/04/00 01:35:31  5-MIN KSTC 040735Z AUTO 09007KT 10SM OVC050 11/09 A3010 860 89 600 080/07 RMK AO2 $
14926KSTC STC20000604014010206/04/00 01:40:31  5-MIN KSTC 040740Z AUTO 08006KT 10SM OVC050 11/09 A3010 860 86 600 080/06 RMK AO2 $
14926KSTC STC20000604014510206/04/00 01:45:31  5-MIN KSTC 040745Z AUTO 08006KT 10SM OVC050 11/09 A3010 860 89 600 080/06 RMK AO2 $
14926KSTC STC20000604015011906/04/00 01:50:31  5-MIN KSTC 040750Z AUTO 07006KT 10SM OVC050 11/09 A3010 860 89 600 070/06 RMK AO2 SLP203 T01110094 $
14926KSTC STC20000604015510206/04/00 01:55:31  5-MIN KSTC 040755Z AUTO 06006KT 10SM OVC050 11/09 A3010 860 89 600 060/06 RMK AO2 $
14926KSTC STC20000604020010206/04/00 02:00:31  5-MIN KSTC 040800Z AUTO 08006KT 10SM OVC050 11/09 A3010 860 89 600 070/06 RMK AO2 $
14926KSTC STC20000604020510206/04/00 02:05:31  5-MIN KSTC 040805Z AUTO 08004KT 10SM OVC050 11/09 A3010 860 89 600 070/04 RMK AO2 $
14926KSTC STC20000604021010206/04/00 02:10:31  5-MIN KSTC 040810Z AUTO 07006KT 10SM OVC050 11/09 A3010 860 89 600 070/06 RMK AO2 $
14926KSTC STC20000604021510206/04/00 02:15:31  5-MIN KSTC 040815Z AUTO 07006KT 10SM OVC050 11/09 A3010 860 89 600 060/06 RMK AO2 $
14926KSTC STC20000604022010206/04/00 02:20:31  5-MIN KSTC 040820Z AUTO 06006KT 10SM OVC050 11/09 A3010 860 89 600 060/06 RMK AO2 $
14926KSTC STC20000604022510206/04/00 02:25:31  5-MIN KSTC 040825Z AUTO 08006KT 10SM OVC050 11/09 A3010 860 89 600 070/06 RMK AO2 $
14926KSTC STC20000604023010206/04/00 02:30:31  5-MIN KSTC 040830Z AUTO 08007KT 10SM OVC050 11/09 A3009 870 89 600 080/07 RMK AO2 $
14926KSTC STC20000604023510206/04/00 02:35:31  5-MIN KSTC 040835Z AUTO 08007KT 10SM OVC050 11/09 A3009 870 89 700 080/07 RMK AO2 $
14926KSTC STC20000604024010206/04/00 02:40:31  5-MIN KSTC 040840Z AUTO 08009KT 10SM OVC050 11/09 A3008 870 89 700 080/09 RMK AO2 $
14926KSTC STC20000604024511806/04/00 02:45:31  5-MIN KSTC 040845Z AUTO 09008KT 050V110 10SM OVC050 11/09 A3008 880 89 700 080/08 050V110 RMK AO2 $
14926KSTC STC20000604025012506/04/00 02:50:31  5-MIN KSTC 040850Z AUTO 09007KT 10SM OVC055 11/09 A3009 870 89 700 080/07 RMK AO2 SLP198 T01110094 50002 $
14926KSTC STC20000604025510906/04/00 02:55:31  5-MIN KSTC 040855Z AUTO 08008KT 10SM FEW045 OVC055 11/09 A3008 870 89 700 080/08 RMK AO2 $
14926KSTC STC20000604030010906/04/00 03:00:31  5-MIN KSTC 040900Z AUTO 08007KT 10SM SCT045 OVC055 11/09 A3008 880 89 700 070/07 RMK AO2 $
14926KSTC STC20000604030510906/04/00 03:05:31  5-MIN KSTC 040905Z AUTO 07007KT 10SM BKN045 OVC055 11/09 A3008 880 89 700 070/07 RMK AO2 $
14926KSTC STC20000604031010906/04/00 03:10:31  5-MIN KSTC 040910Z AUTO 07008KT 10SM BKN043 OVC055 11/09 A3008 880 89 700 060/08 RMK AO2 $
14926KSTC STC20000604031510906/04/00 03:15:31  5-MIN KSTC 040915Z AUTO 2w`ZE)SSCT043 OVC055 11/09 A3008 880 89 700 070/08 RMK AO2 $
14926KSTC STC20000605004010006/05/00 00:40:31  5-MIN KSTC 050640Z AUTO 35004KT 10SM CLR 05/03 A3029 690 85 -300 350/04 RMK AO2 $
14926KSTC STC20000605004510006/05/00 00:45:31  5-MIN KSTC 050645Z AUTO 01004KT 10SM CLR 04/02 A3029 690 85 -300 010/04 RMK AO2 $
14926KSTC STC20000605005011706/05/00 00:50:31  5-MIN KSTC 050650Z AUTO 03004KT 10SM CLR 04/03 A3029 690 89 -300 020/04 RMK AO2 SLP270 T00440028 $
14926KSTC STC20000605005510006/05/00 00:55:31  5-MIN KSTC 050655Z AUTO 00000KT 10SM CLR 05/03 A3029 690 85 -300 000/00 RMK AO2 $
14926KSTC STC20000605010010006/05/00 01:00:31  5-MIN KSTC 050700Z AUTO 02003KT 10SM CLR 04/00 A3029 690 73 -300 010/03 RMK AO2 $
14926KSTC STC20000605010510006/05/00 01:05:31  5-MIN KSTC 050705Z AUTO 36004KT 10SM CLR 04/00 A3029 690 73 -300 360/04 RMK AO2 $
14926KSTC STC20000605011010106/05/00 01:10:31  5-MIN KSTC 050710Z AUTO 36004KT 10SM CLR 04/M01 A3029 690 67 -300 350/04 RMK AO2 $
14926KSTC STC20000605011510106/05/00 01:15:31  5-MIN KSTC 050715Z AUTO 35004KT 10SM CLR 04/M01 A3029 690 67 -300 350/04 RMK AO2 $
14926KSTC STC20000605012010106/05/00 01:20:31  5-MIN KSTC 050720Z AUTO 36003KT 10SM CLR 04/M01 A3029 690 70 -300 350/03 RMK AO2 $
14926KSTC STC20000605012510106/05/00 01:25:31  5-MIN KSTC 050725Z AUTO 36004KT 10SM CLR 04/M01 A3029 690 70 -300 360/04 RMK AO2 $
14926KSTC STC20000605013010006/05/00 01:30:31  5-MIN KSTC 050730Z AUTO 36003KT 10SM CLR 04/01 A3029 690 79 -300 360/03 RMK AO2 $
14926KSTC STC20000605013510106/05/00 01:35:31  5-MIN KSTC 050735Z AUTO 01004KT 10SM CLR 04/M01 A3028 690 70 -300 010/04 RMK AO2 $
14926KSTC STC20000605014010106/05/00 01:40:31  5-MIN KSTC 050740Z AUTO 01003KT 10SM CLR 04/M01 A3028 690 73 -400 010/03 RMK AO2 $
14926KSTC STC20000605014510006/05/00 01:45:31  5-MIN KSTC 050745Z AUTO 35004KT 10SM CLR 04/03 A3029 690 92 -400 340/04 RMK AO2 $
14926KSTC STC20000605015011706/05/00 01:50:31  5-MIN KSTC 050750Z AUTO 34004KT 10SM CLR 04/02 A3029 690 82 -300 330/04 RMK AO2 SLP271 T00440017 $
14926KSTC STC20000605015510006/05/00 01:55:31  5-MIN KSTC 050755Z AUTO 34005KT 10SM CLR 04/02 A3029 690 82 -300 340/05 RMK AO2 $
14926KSTC STC20000605020010006/05/00 02:00:31  5-MIN KSTC 050800Z AUTO 35005KT 10SM CLR 04/02 A3029 690 85 -400 350/05 RMK AO2 $
14926KSTC STC20000605020510006/05/00 02:05:31  5-MIN KSTC 050805Z AUTO 34005KT 10SM CLR 04/02 A3029 690 85 -400 340/05 RMK AO2 $
14926KSTC STC20000605021010006/05/00 02:10:31  5-MIN KSTC 050810Z AUTO 35005KT 10SM CLR 04/02 A3029 690 85 -400 350/05 RMK AO2 $
14926KSTC STC20000605021510006/05/00 02:15:31  5-MIN KSTC 050815Z AUTO 35003KT 10SM CLR 04/02 A3029 690 85 -400 350/03 RMK AO2 $
14926KSTC STC20000605022010006/05/00 02:20:31  5-MIN KSTC 050820Z AUTO 34004KT 10SM CLR 04/02 A3029 680 85 -400 340/04 RMK AO2 $
14926KSTC STC20000605022510006/05/00 02:25:31  5-MIN KSTC 050825Z AUTO 33003KT 10SM CLR 04/02 A3029 680 85 -400 330/03 RMK AO2 $
14926KSTC STC20000605023010006/05/00 02:30:31  5-MIN KSTC 050830Z AUTO 33003KT 10SM CLR 03/02 A3029 680 89 -500 330/03 RMK AO2 $
14926KSTC STC20000605023510006/05/00 02:35:31  5-MIN KSTC 050835Z AUTO 34003KT 10SM CLR 03/01 A3030 680 85 -500 340/03 RMK AO2 $
14926KSTC STC20000605024010006/05/00 02:40:31  5-MIN KSTC 050840Z AUTO 33003KT 10SM CLR 03/02 A3030 680 89 -500 330/03 RMK AO2 $
14926KSTC STC20000605024510006/05/00 02:45:31  5-MIN KSTC 050845Z AUTO 34004KT 10SM CLR 03/02 A3030 680 89 -500 330/04 RMK AO2 $
14926KSTC STC20000605025012306/05/00 02:50:31  5-MIN KSTC 050850Z AUTO 34004KT 10SM CLR 03/02 A3029 680 89 -500 330/04 RMK AO2 SLP274 T00330017 50002 $
14926KSTC STC20000605025510006/05/00 02:55:31  5-MIN KSTC 050855Z AUTO 34003KT 10SM CLR 03/02 A3029 680 89 -500 340/03 RMK AO2 $
14926KSTC STC20000605030010006/05/00 03:00:31  5-MIN KSTC 050900Z AUTO 33003KT 10SM CLR 04/02 A3030 680 85 -400 330/03 RMK AO2 $
14926KSTC STC20000605030510006/05/00 03:05:31  5-MIN KSTC 050905Z AUTO 33003KT 10SM CLR 04/02 A3030 680 85 -400 330/03 RMK AO2 $
14926KSTC STC20000605031010006/05/00 03:10:31  5-MIN KSTC 050910Z AUTO 34003KT 10SM CLR 03/02 A3030 680 89 -500 340/03 RMK AO2 $
14926KSTC STC20000605031510006/05/00 03:15:31  5-MIN KSTC 050915Z AUTO 34004KT 10SM CLR 04/02 A3030 680 85 -400 340/04 RMK AO2 $
14926KSTC STC20000605032010006/05/00 03:20:31  5-MIN KSTC 050920Z AUTO 33004KT 10SM CLR 03/02 A3030 680 89 -500 330/04 RMK AO2 $
14926KSTC STC20000605032510006/05/00 03:25:31  5-MIN KSTC 050925Z AUTO 33004KT 10SM CLR 03/02 A3030 680 89 -500 330/04 RMK AO2 $
14926KSTC STC20000605033010006/05/00 03:30:31  5-MIN KSTC 050930Z AUTO 33004KT 10SM CLR 03/02 A3030 680 89 -500 320/04 RMK AO2 $
14926KSTC STC20000605033510006/05/00 03:35:31  5-MIN KSTC 050935Z AUTO 34004KT 10SM CLR 03/02 A3030 680 89 -500 330/04 RMK AO2 $
14926KSTC STC20000605034010006/05/00 03:40:31  5-MIN KSTC 050940Z AUTO 34004KT 10SM CLR 03/02 A3030 670 89 -500 330/04 RMK AO2 $
14926KSTC STC20000605034510006/05/00 03:45:31  5-MIN KSTC 050945Z AUTO 34003KT 10SM CLR 03/02 A3030 680 89 -500 340/03 RMK AO2 $
14926KSTC STC20000605035011706/05/00 03:50:31  5-MIN KSTC 050950Z AUTO 34004KT 10SM CLR 03/02 A3030 670 89 -500 340/04 RMK AO2 SLP277 T00330017 $
14926KSTC STC20000605035510006/05/00 03:55:31  5-MIN KSTC 050955Z AUTO 34004KT 10SM CLR 03/02 A3030 670 89 -500 340/04 RMK AO2 $
14926KSTC STC20000605040010006/05/00 04:00:31  5-MIN KSTC 051000Z AUTO 34004KT 10SM CLR 03/02 A3030 670 89 -500 340/04 RMK AO2 $
14926KSTC STC20000605040510006/05/00 04:05:31  5-MIN KSTC 051005Z AUTO 36003KT 10SM CLR 03/02 A3030 670 89 -500 360/03 RMK AO2 $
14926KSTC STC20000605041010006/05/00 04:10:31  5-MIN KSTC 051010Z AUTO 35004KT 10SM CLR 03/02 A3030 670 89 -500 350/04 RMK AO2 $
14926KSTC STC20000605041510006/05/00 04:15:31  5-MIN KSTC 051015Z AUTO 34004KT 10SM CLR 03/02 A3031 670 89 -500 340/04 RMK AO2 $
14926KSTC STC20000605042010006/05/00 04:20:31  5-MIN KSTC 051020Z AUTO 35003KT 10SM CLR 03/02 A3031 670 89 -500 340/03 RMK AO2 $
14926KSTC STC20000605042510006/05/00 04:25:31  5-MIN KSTC 051025Z AUTO 34003KT 10SM CLR 03/02 A3031 670 89 -500 340/03 RMK AO2 $
14926KSTC STC20000605043010006/05/00 04:30:31  5-MIN KSTC 051030Z AUTO 33003KT 10SM CLR 03/02 A3031 670 89 -500 330/03 RMK AO2 $
14926KSTC STC20000605043510006/05/00 04:35:31  5-MIN KSTC 051035Z AUTO 33004KT 10SM CLR 02/01 A3031 670 92 -600 330/04 RMK AO2 $
14926KSTC STC20000605044010006/05/00 04:40:31  5-MIN KSTC 051040Z AUTO 34004KT 10SM CLR 03/02 A3031 670 92 -600 330/04 RMK AO2 $
14926KSTC STC20000605044510006/05/00 04:45:31  5-MIN KSTC 051045Z AUTO 34003KT 10SM CLR 03/02 A3031 670 89 -500 330/03 RMK AO2 $
14926KSTC STC20000605045011706/05/00 04:50:31  5-MIN KSTC 051050Z AUTO 35003KT 10SM CLR 03/02 A3031 670 89 -500 350/03 RMK AO2 SLP280 T00330017 $
14926KSTC STC20000605045510006/05/00 04:55:31  5-MIN KSTC 051055Z AUTO 35003KT 10SM CLR 03/02 A3031 670 89 -500 350/03 RMK AO2 $
14926KSTC STC20000605050010006/05/00 05:00:31  5-MIN KSTC 051100Z AUTO 34003KT 10SM CLR 03/02 A3031 670 89 -500 340/03 RMK AO2 $
14926KSTC STC20000605050510006/05/00 05:05:31  5-MIN KSTC 051105Z AUTO 33004KT 10SM CLR 03/02 A3031 660 89 -500 330/04 RMK AO2 $
14926KSTC STC20000605051010006/05/00 05:10:31  5-MIN KSTC 051110Z AUTO 33003KT 10SM CLR 03/02 A3031 660 89 -500 330/03 RMK AO2 $
14926KSTC STC20000605051510006/05/00 05:15:31  5-MIN KSTC 051115Z AUTO 33003KT 10SM CLR 03/02 A3031 660 92 -500 330/03 RMK AO2 $
14926KSTC STC20000605052010006/05/00 05:20:31  5-MIN KSTC 051120Z AUTO 34003KT 10SM CLR 04/02 A3031 660 89 -400 340/03 RMK AO2 $
14926KSTC STC20000605052510006/05/00 05:25:31  5-MIN KSTC 051125Z AUTO 34003KT 10SM CLR 04/02 A3031 660 89 -400 340/03 RMK AO2 $
14926KSTC STC20000605053010006/05/00 05:30:31  5-MIN KSTC 051130Z AUTO 34003KT 10SM CLR 04/02 A3031 660 85 -400 340/03 RMK AO2 $
14926KSTC STC20000605053510006/05/00 05:35:31  5-MIN KSTC 051135Z AUTO 00000KT 10SM CLR 04/02 A3031 660 85 -400 000/00 RMK AO2 $
14926KSTC STC20000605054010006/05/00 05:40:31  5-MIN KSTC 051140Z AUTO 35003KT 10SM CLR 05/03 A3032 660 89 -300 340/03 RMK AO2 $
14926KSTC STC20000605054510006/05/00 05:45:31  5-MIN KSTC 051145Z AUTO 34003KT 10SM CLR 05/03 A3032 660 89 -300 340/03 RMK AO2 $
14926KSTC STC20000605055014106/05/00 05:50:31  5-MIN KSTC 051150Z AUTO 34004KT 10SM CLR 06/03 A3032 660 85 -200 340/04 RMK AO2 SLP281 70043 T00560033 10056 20022 53002 $
14926KSTC STC20000605055510006/05/00 05:55:31  5-MIN KSTC 051155Z AUTO 35003KT 10SM CLR 06/03 A3032 660 85 -200 350/03 RMK AO2 $
14926KSTC STC20000605060010006/05/00 06:00:31  5-MIN KSTC 051200Z AUTO 35003KT 10SM CLR 06/03 A3032 660 82 -200 350/03 RMK AO2 $
14926KSTC STC20000605060510006/05/00 06:05:31  5-MIN KSTC 051205Z AUTO 00000KT 10SM CLR 07/04 A3032 660 82 -100 000/00 RMK AO2 $
14926KSTC STC20000605061010006/05/00 06:10:31  5-MIN KSTC 051210Z AUTO 36003KT 10SM CLR 07/04 A3032 660 82 -100 360/03 RMK AO2 $
14926KSTC STC20000605061509706/05/00 06:15:31  5-MIN KSTC 051215Z AUTO 01003KT 10SM CLR 07/04 A3032 660 79 0 360/03 RMK AO2 $
14926KSTC STC20000605062009506/05/00 06:20:31  5-MIN KSTC 051220Z AUTO VRB03KT 10SM CLR 07/03 A3032 660 76 0 VRB/03 RMK AO2
14926KSTC STC20000605062509506/05/00 06:25:31  5-MIN KSTC 051225Z AUTO 02004KT 10SM CLR 07/03 A3032 660 76 0 020/04 RMK AO2
14926KSTC STC20000605063009506/05/00 06:30:31  5-MIN KSTC 051230Z AUTO 01004KT 10SM CLR 08/03 A3032 660 73 0 360/04 RMK AO2
14926KSTC STC20000605063509506/05/00 06:35:31  5-MIN KSTC 051235Z AUTO 00000KT 10SM CLR 08/03 A3033 650 73 0 000/00 RMK AO2
14926KSTC STC20000605064009506/05/00 06:40:31  5-MIN KSTC 051240Z AUTO 02004KT 10SM CLR 08/04 A3033 650 73 0 020/04 RMK AO2
14926KSTC STC20000605064509506/05/00 06:45:31  5-MIN KSTC 051245Z AUTO 01003KT 10SM CLR 08/03 A3033 650 70 0 010/03 RMK AO2
14926KSTC STC20000605065011406/05/00 06:50:31  5-MIN KSTC 051250Z AUTO 36004KT 10SM CLR 09/04 A3033 650 71 100 360/04 RMK AO2 SLP283 T00890039
14926KSTC STC20000605065509506/05/00 06:55:31  5-MIN KSTC 051255Z AUTO 36004KT 10SM CLR 08/04 A3033 650 73 0 350/04 RMK AO2
14926KSTC STC20000605070009706/05/00 07:00:31  5-MIN KSTC 051300Z AUTO 01004KT 10SM CLR 09/04 A3033 650 71 100 010/04 RMK AO2
14926KSTC STC20000605070509706/05/00 07:05:31  5-MIN KSTC 051305Z AUTO 01004KT 10SM CLR 09/04 A3033 650 71 100 360/04 RMK AO2
14926KSTC STC20000605071009706/05/00 07:10:31  5-MIN KSTC 051310Z AUTO 36004KT 10SM CLR 09/04 A3033 650 71 200 360/04 RMK AO2
14926KSTC STC20000605071509706/05/00 07:15:31  5-MIN KSTC 051315Z AUTO 36003KT 10SM CLR 10/04 A3033 650 68 200 350/03 RMK AO2
14926KSTC STC20000605072009706/05/00 07:20:31  5-MIN KSTC 051320Z AUTO 35003KT 10SM CLR 10/04 A3033 650 68 200 350/03 RMK AO2
14926KSTC STC20000605072509706/05/00 07:25:31  5-MIN KSTC 051325Z AUTO 01003KT 10SM CLR 11/04 A3033 650 66 300 010/03 RMK AO2
14926KSTC STC20000605073009706/05/00 07:30:31  5-MIN KSTC 051330Z AUTO 36003KT 10SM CLR 11/04 A3033 650 66 300 350/03 RMK AO2
14926KSTC STC20000605073509706/05/00 07:35:31  5-MIN KSTC 051335Z AUTO 01003KT 10SM CLR 11/04 A3033 650 63 400 360/03 RMK AO2
14926KSTC STC20000605074009706/05/00 07:40:31  5-MIN KSTC 051340Z AUTO 34003KT 10SM CLR 11/05 A3033 650 66 400 340/03 RMK AO2
14926KSTC STC20000605074509706/05/00 07:45:31  5-MIN KSTC 051345Z AUTO 01003KT 10SM CLR 11/05 A3033 650 66 400 360/03 RMK AO2
14926KSTC STC20000605075011406/05/00 07:50:31  5-MIN KSTC 051350Z AUTO 02003KT 10SM CLR 12/05 A3033 650 63 400 020/03 RMK AO2 SLP285 T01170050
14926KSTC STC20000605075509706/05/00 07:55:31  5-MIN KSTC 051355Z AUTO VRB03KT 10SM CLR 12/05 A3033 650 61 500 VRB/03 RMK AO2
14926KSTC STC20000605080009706/05/00 08:00:31  5-MIN KSTC 051400Z AUTO 00000KT 10SM CLR 12/04 A3033 650 59 500 000/00 RMK AO2
14926KSTC STC20000605080509706/05/00 08:05:31  5-MIN KSTC 051405Z AUTO 00000KT 10SM CLR 13/05 A3034 640 59 600 000/00 RMK AO2
14926KSTC STC20000605081009706/05/00 08:10:31  5-MIN KSTC 051410Z AUTO 00000KT 10SM CLR 13/05 A3034 640 59 600 000/00 RMK AO2
14926KSTC STC20000605081509706/05/00 08:15:31  5-MIN KSTC 051415Z AUTO 36003KT 10SM CLR 13/06 A3034 640 59 600 350/03 RMK AO2
14926KSTC STC20000605082009706/05/00 08:20:31  5-MIN KSTC 051420Z AUTO VRB03KT 10SM CLR 13/05 A3034 640 57 600 VRB/03 RMK AO2
14926KSTC STC20000605082509706/05/00 08:25:31  5-MIN KSTC 051425Z AUTO 36003KT 10SM CLR 14/06 A3034 640 57 700 350/03 RMK AO2
14926KSTC STC20000605083009706/05/00 08:30:31  5-MIN KSTC 051430Z AUTO VRB03KT 10SM CLR 13/05 A3034 640 57 600 VRB/03 RMK AO2
14926KSTC STC20000605083509706/05/00 08:35:31  5-MIN KSTC 051435Z AUTO VRB03KT 10SM CLR 14/04 A3034 640 50 700 VRB/03 RMK AO2
14926KSTC STC20000605084009706/05/00 08:40:31  5-MIN KSTC 051440Z AUTO 00000KT 10SM CLR 14/04 A3033 650 52 700 000/00 RMK AO2
14926KSTC STC20000605084509706/05/00 08:45:31  5-MIN KSTC 051445Z AUTO VRB03KT 10SM CLR 14/04 A3033 650 50 700 VRB/03 RMK AO2
14926KSTC STC20000605085012006/05/00 08:50:31  5-MIN KSTC 051450Z AUTO 09003KT 10SM CLR 14/03 A3033 650 45 800 090/03 RMK AO2 SLP284 T01440028 51007
14926KSTC STC20000605085509706/05/00 08:55:31  5-MIN KSTC 051455Z AUTO 00000KT 10SM CLR 14/02 A3033 650 43 800 000/00 RMK AO2
14926KSTC STC20000605090009706/05/00 09:00:31  5-MIN KSTC 051500Z AUTO 00000KT 10SM CLR 14/02 A3033 650 43 800 000/00 RMK AO2
14926KSTC STC20000605090509706/05/00 09:05:31  5-MIN KSTC 051505Z AUTO 00000KT 10SM CLR 14/02 A3033 650 43 800 000/00 RMK AO2
14926KSTC STC20000605091009706/05/00 09:10:31  5-MIN KSTC 051510Z AUTO VRB05KT 10SM CLR 15/03 A3033 650 43 800 VRB/05 RMK AO2
14926KSTC STC20000605091509706/05/00 09:15:31  5-MIN KSTC 051515Z AUTO 00000KT 10SM CLR 14/01 A3033 650 40 800 000/00 RMK AO2
14926KSTC STC20000605092009706/05/00 09:20:31  5-MIN KSTC 051520Z AUTO 04004KT 10SM CLR 15/01 A3032 650 38 800 040/04 RMK AO2
14926KSTC STC20000605092509706/05/00 09:25:31  5-MIN KSTC 051525Z AUTO VRB03KT 10SM CLR 15/01 A3032 660 38 800 VRB/03 RMK AO2
14926KSTC STC20000605093009706/05/00 09:30:31  5-MIN KSTC 051530Z AUTO VRB03KT 10SM CLR 16/01 A3032 660 37 900 VRB/03 RMK AO2
14926KSTC STC20000605093509706/05/00 09:35:31  5-MIN KSTC 051535Z AUTO 36004KT 10SM CLR 16/01 A3032 650 37 900 360/04 RMK AO2
14926KSTC STC20000605094009906/05/00 09:40:31  5-MIN KSTC 051540Z AUTO VRB03KT 10SM CLR 16/02 A3033 650 39 900 VRB/03 RMK AO2 $
14926KSTC STC20000605094510006/05/00 09:45:31  5-MIN KSTC 051545Z AUTO 34005KT 10SM CLR 16/02 A3032 650 39 1000 330/05 RMK AO2 $
14926KSTC STC20000605095011606/05/00 09:50:31  5-MIN KSTC 051550Z AUTO 31004KT 10SM CLR 16/02 A3032 650 39 900 310/04 RMK AO2 SLP281 T01560017 $
14926KSTC STC20000605095509906/05/00 09:55:31  5-MIN KSTC 051555Z AUTO 00000KT 10SM CLR 15/01 A3032 660 38 800 000/00 RMK AO2 $
14926KSTC STC20000605100009906/05/00 10:00:31  5-MIN KSTC 051600Z AUTO 32003KT 10SM CLR 16/02 A3032 660 40 900 320/03 RMK AO2 $
14926KSTC STC20000605100509906/05/00 10:05:31  5-MIN KSTC 051605Z AUTO 00000KT 10SM CLR 16/02 A3032 660 39 900 000/00 RMK AO2 $
14926KSTC STC20000605101009906/05/00 10:10:31  5-MIN KSTC 051610Z AUTO 00000KT 10SM CLR 16/02 A3032 650 39 900 000/00 RMK AO2 $
14926KSTC STC20000605101509906/05/00 10:15:31  5-MIN KSTC 051615Z AUTO 00000KT 10SM CLR 16/02 A3032 650 40 900 000/00 RMK AO2 $
14926KSTC STC20000605102010006/05/00 10:20:31  5-MIN KSTC 051620Z AUTO 35005KT 10SM CLR 17/03 A3032 660 39 1000 350/05 RMK AO2 $
14926KSTC STC20000605102510006/05/00 10:25:31  5-MIN KSTC 051625Z AUTO 02005KT 10SM CLR 16/02 A3032 660 39 1000 020/05 RMK AO2 $
14926KSTC STC20000605103010006/05/00 10:30:31  5-MIN KSTC 051630Z AUTO 01004KT 10SM CLR 17/03 A3032 660 39 1000 010/04 RMK AO2 $
14926KSTC STC20000605103510006/05/00 10:35:31  5-MIN KSTC 051635Z AUTO VRB03KT 10SM CLR 16/03 A3032 660 40 1000 VRB/03 RMK AO2 $
14926KSTC STC20000605104010006/05/00 10:40:31  5-MIN KSTC 051640Z AUTO 00000KT 10SM CLR 16/02 A3032 660 39 1000 000/00 RMK AO2 $
14926KSTC STC20000605104510006/05/00 10:45:31  5-MIN KSTC 051645Z AUTO 28005KT 10SM CLR 16/03 A3032 660 40 1000 280/05 RMK AO2 $
14926KSTC STC20000605105011706/05/00 10:50:31  5-MIN KSTC 051650Z AUTO 31005KT 10SM CLR 16/02 A3032 660 39 1000 310/05 RMK AO2 SLP280 T01610022 $
14926KSTC STC20000605105510006/05/00 10:55:31  5-MIN KSTC 051655Z AUTO VRB04KT 10SM CLR 17/03 A3032 660 39 1000 VRB/04 RMK AO2 $
14926KSTC STC20000605110010006/05/00 11:00:31  5-MIN KSTC 051700Z AUTO VRB05KT 10SM CLR 17/03 A3032 660 39 1000 VRB/05 RMK AO2 $
14926KSTC STC20000605110510006/05/00 11:05:31  5-MIN KSTC 051705Z AUTO 30007KT 10SM CLR 17/03 A3032 660 40 1000 300/07 RMK AO2 $
14926KSTC STC20000605111010006/05/00 11:10:31  5-MIN KSTC 051710Z AUTO 28004KT 10SM CLR 17/03 A3032 660 39 1000 280/04 RMK AO2 $
14926KSTC STC20000605111510006/05/00 11:15:31  5-MIN KSTC 051715Z AUTO 32004KT 10SM CLR 16/03 A3032 660 42 1000 320/04 RMK AO2 $
14926KSTC STC20000605112010006/05/00 11:20:31  5-MIN KSTC 051720Z AUTO VRB03KT 10SM CLR 17/03 A3032 660 39 1100 VRB/03 RMK AO2 $
14926KSTC STC20000605112510006/05/00 11:25:31  5-MIN KSTC 051725Z AUTO 00000KT 10SM CLR 17/03 A3032 660 39 1100 000/00 RMK AO2 $
14926KSTC STC20000605113010006/05/00 11:30:31  5-MIN KSTC 051730Z AUTO 00000KT 10SM CLR 17/03 A3032 660 39 1100 000/00 RMK AO2 $
14926KSTC STC20000605113510006/05/00 11:35:31  5-MIN KSTC 051735Z AUTO VRB03KT 10SM CLR 17/02 A3031 670 36 1100 VRB/03 RMK AO2 $
14926KSTC STC20000605114010306/05/00 11:40:31  5-MIN KSTC 051740Z AUTO 00000KT 10SM FEW065 17/02 A3031 670 36 1100 000/00 RMK AO2 $
14926KSTC STC20000605114510306/05/00 11:45:31  5-MIN KSTC 051745Z AUTO VRB04KT 10SM FEW065 18/02 A3031 670 35 1200 VRB/04 RMK AO2 $
14926KSTC STC20000605115013806/05/00 11:50:31  5-MIN KSTC 051750Z AUTO 00000KT 10SM FEW060 18/02 A3031 670 35 1200 000/00 RMK AO2 SLP276 T01780022 10178 20056 50005 $
14926KSTC STC20000605115510306/05/00 11:55:31  5-MIN KSTC 051755Z AUTO 33005KT 10SM FEW060 18/02 A3031 670 35 1200 330/05 RMK AO2 $
14926KSTC STC20000605120010306/05/00 12:00:31  5-MIN KSTC 051800Z AUTO VRB04KT 10SM FEW065 18/03 A3031 670 36 1200 VRB/04 RMK AO2 $
14926KSTC STC20000605120510306/05/00 12:05:31  5-MIN KSTC 051805Z AUTO 00000KT 10SM FEW065 18/03 A3030 670 36 1200 000/00 RMK AO2 $
14926KSTC STC20000605121010006/05/00 12:10:31  5-MIN KSTC 051810Z AUTO 01008KT 10SM CLR 18/03 A3030 670 36 1200 010/08 RMK AO2 $
14926KSTC STC20000605121508806/05/00 12:15:31  5-MIN KSTC 051815Z AUTO VRB05KT 10SM CLR A3030 M M M VRB/05 RMK AO2 $
14926KSTC STC20000605122008806/05/00 12:20:31  5-MIN KSTC 051820Z AUTO VRB03KT 10SM CLR A3030 M M M VRB/03 RMK AO2 $
14926KSTC STC20000605122508806/05/00 12:25:31  5-MIN KSTC 051825Z AUTO VRB03KT 10SM CLR A3030 M M M VRB/03 RMK AO2 $
14926KSTC STC20000605123008806/05/00 12:30:31  5-MIN KSTC 051830Z AUTO VRB03KT 10SM CLR A3029 M M M VRB/03 RMK AO2 $
14926KSTC STC20000605123508806/05/00 12:35:31  5-MIN KSTC 051835Z AUTO VRB04KT 10SM CLR A3029 M M M VRB/04 RMK AO2 $
14926KSTC STC20000605124008806/05/00 12:40:31  5-MIN KSTC 051840Z AUTO VRB06KT 10SM CLR A3029 M M M VRB/06 RMK AO2 $
14926KSTC STC20000605124508806/05/00 12:45:31  5-MIN KSTC 051845Z AUTO 36005KT 10SM CLR A3029 M M M 360/05 RMK AO2 $
14926KSTC STC20000605125009406/05/00 12:50:31  5-MIN KSTC 051850Z AUTO VRB05KT 10SM CLR A3029 M M M VRB/05 RMK AO2 SLPNO $
14926KSTC STC20000605125508806/05/00 12:55:31  5-MIN KSTC 051855Z AUTO VRB03KT 10SM CLR A3028 M M M VRB/03 RMK AO2 $
14926KSTC STC20000605130008806/05/00 13:00:31  5-MIN KSTC 051900Z AUTO VRB03KT 10SM CLR A3028 M M M VRB/03 RMK AO2 $
14926KSTC STC20000605130508806/05/00 13:05:31  5-MIN KSTC 051905Z AUTO 04007KT 10SM CLR A3028 M M M 040/07 RMK AO2 $
14926KSTC STC20000605131008806/05/00 13:10:31  5-MIN KSTC 051910Z AUTO VRB05KT 10SM CLR A3028 M M M VRB/05 RMK AO2 $
14926KSTC STC20000605131508806/05/00 13:15:31  5-MIN KSTC 051915Z AUTO VRB04KT 10SM CLR A3028 M M M VRB/04 RMK AO2 $
14926KSTC STC20000605132008806/05/00 13:20:31  5-MIN KSTC 051920Z AUTO 30006KT 10SM CLR A3028 M M M 300/06 RMK AO2 $
14926KSTC STC20000605132508806/05/00 13:25:31  5-MIN KSTC 051925Z AUTO 29005KT 10SM CLR A3028 M M M 280/05 RMK AO2 $
14926KSTC STC20000605133008806/05/00 13:30:31  5-MIN KSTC 051930Z AUTO 31004KT 10SM CLR A3028 M M M 310/04 RMK AO2 $
14926KSTC STC20000605133508806/05/00 13:35:31  5-MIN KSTC 051935Z AUTO VRB03KT 10SM CLR A3028 M M M VRB/03 RMK AO2 $
14926KSTC STC20000605134008806/05/00 13:40:31  5-MIN KSTC 051940Z AUTO VRB03KT 10SM CLR A3028 M M M VRB/03 RMK AO2 $
14926KSTC STC20000605134510406/05/00 13:45:31  5-MIN KSTC 051945Z AUTO 32007KT 280V010 10SM CLR A3028 M M M 320/07 280V010 RMK AO2 $
14926KSTC STC20000605135009406/05/00 13:50:31  5-MIN KSTC 051950Z AUTO 31006KT 10SM CLR A3028 M M M 310/06 RMK AO2 SLPNO $
14926KSTC STC20000605135508806/05/00 13:55:31  5-MIN KSTC 051955Z AUTO VRB05KT 10SM CLR A3028 M M M VRB/05 RMK AO2 $
14926KSTC STC20000605140008806/05/00 14:00:31  5-MIN KSTC 052000Z AUTO 02004KT 10SM CLR A3027 M M M 010/04 RMK AO2 $
14926KSTC STC20000605140508606/05/00 14:05:31  5-MIN KSTC 052005Z AUTO VRB03KT 10SM CLR A3027 M M M VRB/03 RMK AO2
14926KSTC STC20000605141008806/05/00 14:10:31  5-MIN KSTC 052010Z AUTO 10006KT 10SM CLR A3027 M M M 100/06 RMK AO2 $
14926KSTC STC20000605141508806/05/00 14:15:31  5-MIN KSTC 052015Z AUTO 04005KT 10SM CLR A3027 M M M 040/05 RMK AO2 $
14926KSTC STC20000605142008806/05/00 14:20:31  5-MIN KSTC 052020Z AUTO VRB04KT 10SM CLR A3027 M M M VRB/04 RMK AO2 $
14926KSTC STC20000605142508806/05/00 14:25:31  5-MIN KSTC 052025Z AUTO 00000KT 10SM CLR A3027 M M M 000/00 RMK AO2 $
14926KSTC STC20000605143008806/05/00 14:30:31  5-MIN KSTC 052030Z AUTO 01005KT 10SM CLR A3027 M M M 010/05 RMK AO2 $
14926KSTC STC20000605143508806/05/00 14:35:31  5-MIN KSTC 052035Z AUTO 00000KT 10SM CLR A3027 M M M 000/00 RMK AO2 $
14926KSTC STC20000605144008806/05/00 14:40:31  5-MIN KSTC 052040Z AUTO 00000KT 10SM CLR A3027 M M M 000/00 RMK AO2 $
14926KSTC STC20000605144508806/05/00 14:45:31  5-MIN KSTC 052045Z AUTO VRB04KT 10SM CLR A3027 M M M VRB/04 RMK AO2 $
14926KSTC STC20000605145010006/05/00 14:50:31  5-MIN KSTC 052050Z AUTO VRB03KT 10SM CLR A3027 M M M VRB/03 RMK AO2 SLPNO 56007 $
14926KSTC STC20000605145508806/05/00 14:55:31  5-MIN KSTC 052055Z AUTO VRB04KT 10SM CLR A3027 M M M VRB/04 RMK AO2 $
14926KSTC STC20000605150008806/05/00 15:00:31  5-MIN KSTC 052100Z AUTO 14004KT 10SM CLR A3026 M M M 140/04 RMK AO2 $
14926KSTC STC20000605150508806/05/00 15:05:31  5-MIN KSTC 052105Z AUTO VRB03KT 10SM CLR A3026 M M M VRB/03 RMK AO2 $
14926KSTC STC20000605151008806/05/00 15:10:31  5-MIN KSTC 052110Z AUTO VRB04KT 10SM CLR A3026 M M M VRB/04 RMK AO2 $
14926KSTC STC20000605151508806/05/00 15:15:31  5-MIN KSTC 052115Z AUTO VRB03KT 10SM CLR A3026 M M M VRB/03 RMK AO2 $
14926KSTC STC20000605152008806/05/00 15:20:31  5-MIN KSTC 052120Z AUTO 30006KT 10SM CLR A3026 M M M 300/06 RMK AO2 $
14926KSTC STC20000605152508806/05/00 15:25:31  5-MIN KSTC 052125Z AUTO VRB04KT 10SM CLR A3025 M M M VRB/04 RMK AO2 $
14926KSTC STC20000605153008806/05/00 15:30:31  5-MIN KSTC 052130Z AUTO VRB04KT 10SM CLR A3025 M M M VRB/04 RMK AO2 $
14926KSTC STC20000605153508806/05/00 15:35:31  5-MIN KSTC 052135Z AUTO 00000KT 10SM CLR A3025 M M M 000/00 RMK AO2 $
14926KSTC STC20000605154008806/05/00 15:40:31  5-MIN KSTC 052140Z AUTO VRB04KT 10SM CLR A3025 M M M VRB/04 RMK AO2 $
14926KSTC STC20000605154508806/05/00 15:45:31  5-MIN KSTC 052145Z AUTO 32003KT 10SM CLR A3025 M M M 320/03 RMK AO2 $
14926KSTC STC20000605155009406/05/00 15:50:31  5-MIN KSTC 052150Z AUTO 29005KT 10SM CLR A3025 M M M 290/05 RMK AO2 SLPNO $
14926KSTC STC20000605155508806/05/00 15:55:31  5-MIN KSTC 052155Z AUTO 00000KT 10SM CLR A3025 M M M 000/00 RMK AO2 $
14926KSTC STC20000605160008806/05/00 16:00:31  5-MIN KSTC 052200Z AUTO 30005KT 10SM CLR A3025 M M M 290/05 RMK AO2 $
14926KSTC STC20000605160508806/05/00 16:05:31  5-MIN KSTC 052205Z AUTO VRB04KT 10SM CLR A3025 M M M VRB/04 RMK AO2 $
14926KSTC STC20000605161008806/05/00 16:10:31  5-MIN KSTC 052210Z AUTO VRB03KT 10SM CLR A3025 M M M VRB/03 RMK AO2 $
14926KSTC STC20000605161508806/05/00 16:15:31  5-MIN KSTC 052215Z AUTO 05005KT 10SM CLR A3024 M M M 050/05 RMK AO2 $
14926KSTC STC20000605162008806/05/00 16:20:31  5-MIN KSTC 052220Z AUTO 08006KT 10SM CLR A3024 M M M 080/06 RMK AO2 $
14926KSTC STC20000605162508806/05/00 16:25:31  5-MIN KSTC 052225Z AUTO 00000KT 10SM CLR A3024 M M M 000/00 RMK AO2 $
14926KSTC STC20000605163008806/05/00 16:30:31  5-MIN KSTC 052230Z AUTO VRB06KT 10SM CLR A3024 M M M VRB/06 RMK AO2 $
14926KSTC STC20000605163508806/05/00 16:35:31  5-MIN KSTC 052235Z AUTO 35004KT 10SM CLR A3024 M M M 340/04 RMK AO2 $
14926KSTC STC20000605164008806/05/00 16:40:31  5-MIN KSTC 052240Z AUTO 00000KT 10SM CLR A3024 M M M 000/00 RMK AO2 $
14926KSTC STC20000605164508806/05/00 16:45:31  5-MIN KSTC 052245Z AUTO 00000KT 10SM CLR A3023 M M M 000/00 RMK AO2 $
14926KSTC STC20000605165009406/05/00 16:50:31  5-MIN KSTC 052250Z AUTO 00000KT 10SM CLR A3023 M M M 000/00 RMK AO2 SLPNO $
14926KSTC STC20000605165508806/05/00 16:55:31  5-MIN KSTC 052255Z AUTO VRB03KT 10SM CLR A3023 M M M VRB/03 RMK AO2 $
14926KSTC STC20000605170008806/05/00 17:00:31  5-MIN KSTC 052300Z AUTO VRB04KT 10SM CLR A3022 M M M VRB/04 RMK AO2 $
14926KSTC STC20000605170508806/05/00 17:05:31  5-MIN KSTC 052305Z AUTO 12005KT 10SM CLR A3023 M M M 120/05 RMK AO2 $
14926KSTC STC20000605171008806/05/00 17:10:31  5-MIN KSTC 052310Z AUTO 00000KT 10SM CLR A3022 M M M 000/00 RMK AO2 $
14926KSTC STC20000605171508806/05/00 17:15:31  5-MIN KSTC 052315Z AUTO 00000KT 10SM CLR A3022 M M M 000/00 RMK AO2 $
14926KSTC STC20000605172008806/05/00 17:20:31  5-MIN KSTC 052320Z AUTO 13007KT 10SM CLR A3022 M M M 130/07 RMK AO2 $
14926KSTC STC20000605172508806/05/00 17:25:31  5-MIN KSTC 052325Z AUTO 14004KT 10SM CLR A3021 M M M 130/04 RMK AO2 $
14926KSTC STC20000605173008806/05/00 17:30:31  5-MIN KSTC 052330Z AUTO VRB03KT 10SM CLR A3021 M M M VRB/03 RMK AO2 $
14926KSTC STC20000605173508806/05/00 17:35:31  5-MIN KSTC 052335Z AUTO 03003KT 10SM CLR A3020 M M M 030/03 RMK AO2 $
14926KSTC STC20000605174008806/05/00 17:40:31  5-MIN KSTC 052340Z AUTO 07003KT 10SM CLR A3020 M M M 070/03 RMK AO2 $
14926KSTC STC20000605174508806/05/00 17:45:31  5-MIN KSTC 052345Z AUTO VRB03KT 10SM CLR A3020 M M M VRB/03 RMK AO2 $
14926KSTC STC20000605175010006/05/00 17:50:31  5-MIN KSTC 052350Z AUTO 10003KT 10SM CLR A3020 M M M 100/03 RMK AO2 SLPNO 56012 $
14926KSTC STC20000605175508806/05/00 17:55:31  5-MIN KSTC 052355Z AUTO 10003KT 10SM CLR A3020 M M M 090/03 RMK AO2 $
14926KSTC STC20000605180008806/05/00 18:00:31  5-MIN KSTC 060000Z AUTO VRB04KT 10SM CLR A3020 M M M VRB/04 RMK AO2 $
14926KSTC STC20000605180508806/05/00 18:05:31  5-MIN KSTC 060005Z AUTO 00000KT 10SM CLR A3020 M M M 000/00 RMK AO2 $
14926KSTC STC20000605181008806/05/00 18:10:31  5-MIN KSTC 060010Z AUTO 00000KT 10SM CLR A3020 M M M 000/00 RMK AO2 $
14926KSTC STC20000605181508806/05/00 18:15:31  5-MIN KSTC 060015Z AUTO 00000KT 10SM CLR A3020 M M M 000/00 RMK AO2 $
14926KSTC STC20000605182008806/05/00 18:20:31  5-MIN KSTC 060020Z AUTO 00000KT 10SM CLR A3020 M M M 000/00 RMK AO2 $
14926KSTC STC20000605182508806/05/00 18:25:31  5-MIN KSTC 060025Z AUTO 00000KT 10SM CLR A3020 M M M 000/00 RMK AO2 $
14926KSTC STC20000605183008806/05/00 18:30:31  5-MIN KSTC 060030Z AUTO 00000KT 10SM CLR A3020 M M M 000/00 RMK AO2 $
14926KSTC STC20000605183508806/05/00 18:35:31  5-MIN KSTC 060035Z AUTO 00000KT 10SM CLR A3021 M M M 000/00 RMK AO2 $
14926KSTC STC20000605184008806/05/00 18:40:31  5-MIN KSTC 060040Z AUTO 00000KT 10SM CLR A3021 M M M 000/00 RMK AO2 $
14926KSTC STC20000605184508806/05/00 18:45:31  5-MIN KSTC 060045Z AUTO VRB03KT 10SM CLR A3021 M M M VRB/03 RMK AO2 $
14926KSTC STC20000605185009406/05/00 18:50:31  5-MIN KSTC 060050Z AUTO 21004KT 10SM CLR A3021 M M M 210/04 RMK AO2 SLPNO $
14926KSTC STC20000605185508806/05/00 18:55:31  5-MIN KSTC 060055Z AUTO 00000KT 10SM CLR A3021 M M M 000/00 RMK AO2 $
14926KSTC STC20000605190008806/05/00 19:00:31  5-MIN KSTC 060100Z AUTO 00000KT 10SM CLR A3020 M M M 000/00 RMK AO2 $
14926KSTC STC20000605190508806/05/00 19:05:31  5-MIN KSTC 060105Z AUTO 20004KT 10SM CLR A3020 M M M 190/04 RMK AO2 $
14926KSTC STC20000605191010006/05/00 19:10:31  5-MIN KSTC 060110Z AUTO 22003KT 10SM CLR 18/05 A3020 770 42 1300 220/03 RMK AO2 $
14926KSTC STC20000605191510006/05/00 19:15:31  5-MIN KSTC 060115Z AUTO 23003KT 10SM CLR 18/05 A3020 770 42 1300 230/03 RMK AO2 $
14926KSTC STC20000605192010006/05/00 19:20:31  5-MIN KSTC 060120Z AUTO 23004KT 10SM CLR 18/05 A3020 770 42 1300 230/04 RMK AO2 $
14926KSTC STC20000605192510006/05/00 19:25:31  5-MIN KSTC 060125Z AUTO 22004KT 10SM CLR 18/05 A3021 760 42 1300 220/04 RMK AO2 $
14926KSTC STC20000605193010006/05/00 19:30:31  5-MIN KSTC 060130Z AUTO 23004KT 10SM CLR 17/05 A3021 760 44 1200 230/04 RMK AO2 $
14926KSTC STC20000605193510006/05/00 19:35:31  5-MIN KSTC 060135Z AUTO 22004KT 10SM CLR 17/06 A3021 760 46 1200 220/04 RMK AO2 $
14926KSTC STC20000605194010006/05/00 19:40:31  5-MIN KSTC 060140Z AUTO 00000KT 10SM CLR 17/07 A3020 760 51 1200 000/00 RMK AO2 $
14926KSTC STC20000605194510006/05/00 19:45:31  5-MIN KSTC 060145Z AUTO 00000KT 10SM CLR 16/07 A3020 760 53 1100 000/00 RMK AO2 $
14926KSTC STC20000605195011706/05/00 19:50:31  5-MIN KSTC 060150Z AUTO 00000KT 10SM CLR 15/07 A3021 760 59 1000 000/00 RMK AO2 SLP239 T01500072 $
14926KSTC STC20000605195509906/05/00 19:55:31  5-MIN KSTC 060155Z AUTO 00000KT 10SM CLR 14/07 A3021 760 61 900 000/00 RMK AO2 $
14926KSTC STC20000605200009906/05/00 20:00:31  5-MIN KSTC 060200Z AUTO 00000KT 10SM CLR 14/07 A3021 760 59 900 000/00 RMK AO2 $
14926KSTC STC20000605200509906/05/00 20:05:31  5-MIN KSTC 060205Z AUTO 00000KT 10SM CLR 13/07 A3021 760 64 800 000/00 RMK AO2 $
14926KSTC STC20000605201009906/05/00 20:10:31  5-MIN KSTC 060210Z AUTO 00000KT 10SM CLR 14/06 A3021 760 59 800 000/00 RMK AO2 $
14926KSTC STC20000605201509906/05/00 20:15:31  5-MIN KSTC 060215Z AUTO 00000KT 10SM CLR 13/06 A3021 760 59 800 000/00 RMK AO2 $
14926KSTC STC20000605202009906/05/00 20:20:31  5-MIN KSTC 060220Z AUTO 00000KT 10SM CLR 13/04 A3021 760 56 700 000/00 RMK AO2 $
14926KSTC STC20000605202509906/05/00 20:25:31  5-MIN KSTC 060225Z AUTO 00000KT 10SM CLR 13/06 A3021 760 61 700 000/00 RMK AO2 $
14926KSTC STC20000605203009906/05/00 20:30:31  5-MIN KSTC 060230Z AUTO 00000KT 10SM CLR 12/08 A3021 760 74 600 000/00 RMK AO2 $
14926KSTC STC20000605203509906/05/00 20:35:31  5-MIN KSTC 060235Z AUTO 00000KT 10SM CLR 12/08 A3021 760 77 600 000/00 RMK AO2 $
14926KSTC STC20000605204009906/05/00 20:40:31  5-MIN KSTC 060240Z AUTO 00000KT 10SM CLR 12/08 A3021 760 77 600 000/00 RMK AO2 $
14926KSTC STC20000605204509906/05/00 20:45:31  5-MIN KSTC 060245Z AUTO 00000KT 10SM CLR 12/08 A3021 760 77 600 000/00 RMK AO2 $
14926KSTC STC20000605205012206/05/00 20:50:31  5-MIN KSTC 060250Z AUTO 00000KT 10SM CLR 12/08 A3022 750 77 600 000/00 RMK AO2 SLP242 T01170078 58023 $
14926KSTC STC20000605205509906/05/00 20:55:31  5-MIN KSTC 060255Z AUTO 00000KT 10SM CLR 12/07 A3022 750 74 600 000/00 RMK AO2 $
14926KSTC STC20000605210009906/05/00 21:00:31  5-MIN KSTC 060300Z AUTO 00000KT 10SM CLR 11/08 A3022 750 83 400 000/00 RMK AO2 $
14926KSTC STC20000605210509906/05/00 21:05:31  5-MIN KSTC 060305Z AUTO 00000KT 10SM CLR 10/08 A3022 750 86 400 000/00 RMK AO2 $
14926KSTC STC20000605211009906/05/00 21:10:31  5-MIN KSTC 060310Z AUTO 00000KT 10SM CLR 11/08 A3022 750 83 400 000/00 RMK AO2 $
14926KSTC STC20000605211509906/05/00 21:15:31  5-MIN KSTC 060315Z AUTO 00000KT 10SM CLR 11/07 A3022 750 80 400 000/00 RMK AO2 $
14926KSTC STC20000605212009906/05/00 21:20:31  5-MIN KSTC 060320Z AUTO 00000KT 10SM CLR 10/07 A3022 750 83 400 000/00 RMK AO2 $
14926KSTC STC20000605212509906/05/00 21:25:31  5-MIN KSTC 060325Z AUTO 00000KT 10SM CLR 11/07 A3022 750 80 400 000/00 RMK AO2 $
14926KSTC STC20000605213009906/05/00 21:30:31  5-MIN KSTC 060330Z AUTO 00000KT 10SM CLR 10/07 A3022 750 83 400 000/00 RMK AO2 $
14926KSTC STC20000605213509906/05/00 21:35:31  5-MIN KSTC 060335Z AUTO 00000KT 10SM CLR 10/07 A3022 750 83 400 000/00 RMK AO2 $
14926KSTC STC20000605214009906/05/00 21:40:31  5-MIN KSTC 060340Z AUTO 00000KT 10SM CLR 09/07 A3022 750 83 300 000/00 RMK AO2 $
14926KSTC STC20000605214509906/05/00 21:45:31  5-MIN KSTC 060345Z AUTO 00000KT 10SM CLR 09/07 A3022 750 86 300 000/00 RMK AO2 $
14926KSTC STC20000605215011606/05/00 21:50:31  5-MIN KSTC 060350Z AUTO 00000KT 10SM CLR 09/09 A3022 750 96 300 000/00 RMK AO2 SLP243 T00940089 $
14926KSTC STC20000605215509906/05/00 21:55:31  5-MIN KSTC 060355Z AUTO 00000KT 10SM CLR 09/08 A3022 750 89 300 000/00 RMK AO2 $
14926KSTC STC20000605220009906/05/00 22:00:31  5-MIN KSTC 060400Z AUTO 00000KT 10SM CLR 09/08 A3022 750 89 300 000/00 RMK AO2 $
14926KSTC STC20000605220509906/05/00 22:05:31  5-MIN KSTC 060405Z AUTO 00000KT 10SM CLR 10/08 A3022 750 86 400 000/00 RMK AO2 $
14926KSTC STC20000605221009906/05/00 22:10:31  5-MIN KSTC 060410Z AUTO 00000KT 10SM CLR 09/08 A3021 760 89 300 000/00 RMK AO2 $
14926KSTC STC20000605221509906/05/00 22:15:31  5-MIN KSTC 060415Z AUTO 14004KT 10SM CLR 09/07 A3022 750 86 300 140/04 RMK AO2 $
14926KSTC STC20000605222009906/05/00 22:20:31  5-MIN KSTC 060420Z AUTO 15003KT 10SM CLR 09/07 A3022 750 86 300 150/03 RMK AO2 $
14926KSTC STC20000605222509906/05/00 22:25:31  5-MIN KSTC 060425Z AUTO 14003KT 10SM CLR 08/07 A3022 750 89 200 130/03 RMK AO2 $
14926KSTC STC20000605223009906/05/00 22:30:31  5-MIN KSTC 060430Z AUTO 00000KT 10SM CLR 08/07 A3022 750 89 200 000/00 RMK AO2 $
14926KSTC STC20000605223509906/05/00 22:35:31  5-MIN KSTC 060435Z AUTO 00000KT 10SM CLR 09/07 A3022 750 86 200 000/00 RMK AO2 $
14926KSTC STC20000605224009906/05/00 22:40:31  5-MIN KSTC 060440Z AUTO 00000KT 10SM CLR 09/07 A3021 760 89 200 000/00 RMK AO2 $
14926KSTC STC20000606013510006/06/00 01:35:31  5-MIN KSTC 060735Z AUTO 00000KT 10SM CLR 06/06 A3023 740 96 -100 000/00 RMK AO2 $
14926KSTC STC20000606014010006/06/00 01:40:31  5-MIN KSTC 060740Z AUTO 00000KT 10SM CLR 06/06 A3024 740 96 -100 000/00 RMK AO2 $
14926KSTC STC20000606014510006/06/00 01:45:31  5-MIN KSTC 060745Z AUTO 00000KT 10SM CLR 06/06 A3024 730 96 -100 000/00 RMK AO2 $
14926KSTC STC20000606015011606/06/00 01:50:31  5-MIN KSTC 060750Z AUTO 00000KT 10SM CLR 06/05 A3024 730 96 -100 000/00 RMK AO2 SLPNO T00560050 $
14926KSTC STC20000606015510006/06/00 01:55:31  5-MIN KSTC 060755Z AUTO 00000KT 10SM CLR 06/06 A3024 730 96 -100 000/00 RMK AO2 $
14926KSTC STC20000606020010106/06/00 02:00:31  5-MIN KSTC 060800Z AUTO 00000KT 10SM CLR 06/06 A3024 730 100 -100 000/00 RMK AO2 $
14926KSTC STC20000606020510006/06/00 02:05:31  5-MIN KSTC 060805Z AUTO 00000KT 10SM CLR 06/01 A3024 730 73 -100 000/00 RMK AO2 $
14926KSTC STC20000606021010006/06/00 02:10:31  5-MIN KSTC 060810Z AUTO 00000KT 10SM CLR 06/00 A3024 730 67 -100 000/00 RMK AO2 $
14926KSTC STC20000606021510006/06/00 02:15:31  5-MIN KSTC 060815Z AUTO 00000KT 10SM CLR 06/02 A3024 730 76 -100 000/00 RMK AO2 $
14926KSTC STC20000606022010006/06/00 02:20:31  5-MIN KSTC 060820Z AUTO 00000KT 10SM CLR 06/05 A3024 730 93 -100 000/00 RMK AO2 $
14926KSTC STC20000606022510006/06/00 02:25:31  5-MIN KSTC 060825Z AUTO 00000KT 10SM CLR 06/05 A3024 730 93 -100 000/00 RMK AO2 $
14926KSTC STC20000606023010006/06/00 02:30:31  5-MIN KSTC 060830Z AUTO 00000KT 10SM CLR 06/05 A3024 730 93 -100 000/00 RMK AO2 $
14926KSTC STC20000606023510006/06/00 02:35:31  5-MIN KSTC 060835Z AUTO 00000KT 10SM CLR 06/05 A3024 730 96 -100 000/00 RMK AO2 $
14926KSTC STC20000606024010006/06/00 02:40:31  5-MIN KSTC 060840Z AUTO 00000KT 10SM CLR 06/04 A3024 730 92 -100 000/00 RMK AO2 $
14926KSTC STC20000606024510006/06/00 02:45:31  5-MIN KSTC 060845Z AUTO 00000KT 10SM CLR 06/04 A3024 730 92 -100 000/00 RMK AO2 $
14926KSTC STC20000606025012206/06/00 02:50:31  5-MIN KSTC 060850Z AUTO 00000KT 10SM CLR 06/04 A3024 730 92 -100 000/00 RMK AO2 SLPNO T00560044 53002 $
14926KSTC STC20000606025509906/06/00 02:55:31  5-MIN KSTC 060855Z AUTO 00000KT 8SM CLR 05/04 A3024 730 96 -200 000/00 RMK AO2 $
14926KSTC STC20000606030009906/06/00 03:00:31  5-MIN KSTC 060900Z AUTO 00000KT 8SM CLR 05/04 A3024 730 92 -200 000/00 RMK AO2 $
14926KSTC STC20000606030509906/06/00 03:05:31  5-MIN KSTC 060905Z AUTO 00000KT 9SM CLR 06/04 A3024 730 92 -100 000/00 RMK AO2 $
14926KSTC STC20000606031010006/06/00 03:10:31  5-MIN KSTC 060910Z AUTO 00000KT 10SM CLR 05/04 A3024 730 96 -200 000/00 RMK AO2 $
14926KSTC STC20000606031510006/06/00 03:15:31  5-MIN KSTC 060915Z AUTO 00000KT 10SM CLR 05/04 A3024 730 92 -200 000/00 RMK AO2 $
14926KSTC STC20000606032010006/06/00 03:20:31  5-MIN KSTC 060920Z AUTO 00000KT 10SM CLR 05/04 A3024 730 96 -200 000/00 RMK AO2 $
14926KSTC STC20000606032510006/06/00 03:25:31  5-MIN KSTC 060925Z AUTO 14003KT 10SM CLR 05/04 A3024 730 96 -200 140/03 RMK AO2 $
14926KSTC STC20000606033010006/06/00 03:30:31  5-MIN KSTC 060930Z AUTO 14003KT 10SM CLR 06/04 A3024 730 92 -100 140/03 RMK AO2 $
14926KSTC STC20000606033510006/06/00 03:35:31  5-MIN KSTC 060935Z AUTO 00000KT 10SM CLR 05/04 A3024 730 96 -200 000/00 RMK AO2 $
14926KSTC STC20000606034010106/06/00 03:40:31  5-MIN KSTC 060940Z AUTO 00000KT 10SM CLR 04/04 A3024 730 100 -300 000/00 RMK AO2 $
14926KSTC STC20000606034509906/06/00 03:45:31  5-MIN KSTC 060945Z AUTO 00000KT 9SM CLR 04/04 A3024 730 96 -300 000/00 RMK AO2 $
14926KSTC STC20000606035011506/06/00 03:50:31  5-MIN KSTC 060950Z AUTO 00000KT 7SM CLR 04/04 A3024 730 96 -300 000/00 RMK AO2 SLPNO T00440039 $
14926KSTC STC20000606035509906/06/00 03:55:31  5-MIN KSTC 060955Z AUTO 00000KT 7SM CLR 04/04 A3024 730 96 -300 000/00 RMK AO2 $
14926KSTC STC20000606040009906/06/00 04:00:31  5-MIN KSTC 061000Z AUTO 00000KT 7SM CLR 04/04 A3024 730 96 -300 000/00 RMK AO2 $
14926KSTC STC20000606040509906/06/00 04:05:31  5-MIN KSTC 061005Z AUTO 00000KT 7SM CLR 05/04 A3024 730 92 -200 000/00 RMK AO2 $
14926KSTC STC20000606041009906/06/00 04:10:31  5-MIN KSTC 061010Z AUTO 00000KT 7SM CLR 04/04 A3024 730 96 -300 000/00 RMK AO2 $
14926KSTC STC20000606041509906/06/00 04:15:31  5-MIN KSTC 061015Z AUTO 00000KT 8SM CLR 04/04 A3024 730 96 -300 000/00 RMK AO2 $
14926KSTC STC20000606042009906/06/00 04:20:31  5-MIN KSTC 061020Z AUTO 00000KT 8SM CLR 04/04 A3024 730 96 -300 000/00 RMK AO2 $
14926KSTC STC20000606042509906/06/00 04:25:31  5-MIN KSTC 061025Z AUTO 00000KT 8SM CLR 04/03 A3024 730 92 -300 000/00 RMK AO2 $
14926KSTC STC20000606043009906/06/00 04:30:31  5-MIN KSTC 061030Z AUTO 00000KT 8SM CLR 04/04 A3024 730 96 -300 000/00 RMK AO2 $
14926KSTC STC20000606043509906/06/00 04:35:31  5-MIN KSTC 061035Z AUTO 00000KT 8SM CLR 04/04 A3024 730 96 -300 000/00 RMK AO2 $
14926KSTC STC20000606044009906/06/00 04:40:31  5-MIN KSTC 061040Z AUTO 00000KT 8SM CLR 04/04 A3024 730 96 -300 000/00 RMK AO2 $
14926KSTC STC20000606044509906/06/00 04:45:31  5-MIN KSTC 061045Z AUTO 00000KT 8SM CLR 05/04 A3024 730 92 -200 000/00 RMK AO2 $
14926KSTC STC20000606045011506/06/00 04:50:31  5-MIN KSTC 061050Z AUTO 00000KT 8SM CLR 04/04 A3024 730 96 -300 000/00 RMK AO2 SLPNO T00440039 $
14926KSTC STC20000606045509906/06/00 04:55:31  5-MIN KSTC 061055Z AUTO 00000KT 8SM CLR 04/03 A3024 730 92 -300 000/00 RMK AO2 $
14926KSTC STC20000606050009906/06/00 05:00:31  5-MIN KSTC 061100Z AUTO 00000KT 7SM CLR 05/04 A3024 730 92 -200 000/00 RMK AO2 $
14926KSTC STC20000606050509906/06/00 05:05:31  5-MIN KSTC 061105Z AUTO 00000KT 8SM CLR 05/04 A3024 730 92 -200 000/00 RMK AO2 $
14926KSTC STC20000606051009906/06/00 05:10:31  5-MIN KSTC 061110Z AUTO 00000KT 8SM CLR 05/04 A3024 730 92 -200 000/00 RMK AO2 $
14926KSTC STC20000606051509906/06/00 05:15:31  5-MIN KSTC 061115Z AUTO 00000KT 7SM CLR 05/04 A3024 730 92 -200 000/00 RMK AO2 $
14926KSTC STC20000606052010206/06/00 05:20:31  5-MIN KSTC 061120Z AUTO 00000KT 6SM BR CLR 06/04 A3024 730 92 -100 000/00 RMK AO2 $
14926KSTC STC20000606052510206/06/00 05:25:31  5-MIN KSTC 061125Z AUTO 00000KT 6SM BR CLR 06/04 A3024 730 92 -100 000/00 RMK AO2 $
14926KSTC STC20000606053010206/06/00 05:30:31  5-MIN KSTC 061130Z AUTO 00000KT 6SM BR CLR 06/05 A3024 730 93 -100 000/00 RMK AO2 $
14926KSTC STC20000606053510206/06/00 05:35:31  5-MIN KSTC 061135Z AUTO 00000KT 6SM BR CLR 06/05 A3024 730 93 -100 000/00 RMK AO2 $
14926KSTC STC20000606054009606/06/00 05:40:31  5-MIN KSTC 061140Z AUTO 00000KT 7SM CLR 07/06 A3024 730 93 0 000/00 RMK AO2 $
14926KSTC STC20000606054509606/06/00 05:45:31  5-MIN KSTC 061145Z AUTO 00000KT 8SM CLR 07/06 A3024 730 89 0 000/00 RMK AO2 $
14926KSTC STC20000606055013006/06/00 05:50:31  5-MIN KSTC 061150Z AUTO 00000KT 9SM CLR 07/06 A3024 730 89 0 000/00 RMK AO2 SLPNO T00720056 10078 20044 51007 $
14926KSTC STC20000606055509906/06/00 05:55:31  5-MIN KSTC 061155Z AUTO 00000KT 10SM CLR 08/06 A3024 730 89 100 000/00 RMK AO2 $
14926KSTC STC20000606060009906/06/00 06:00:31  5-MIN KSTC 061200Z AUTO 00000KT 10SM CLR 08/07 A3024 730 93 100 000/00 RMK AO2 $
14926KSTC STC20000606060509906/06/00 06:05:31  5-MIN KSTC 061205Z AUTO 00000KT 10SM CLR 08/07 A3024 730 89 100 000/00 RMK AO2 $
14926KSTC STC20000606061009906/06/00 06:10:31  5-MIN KSTC 061210Z AUTO 00000KT 10SM CLR 08/07 A3024 730 89 100 000/00 RMK AO2 $
14926KSTC STC20000606061509706/06/00 06:15:31  5-MIN KSTC 061215Z AUTO 00000KT 10SM CLR 09/07 A3024 730 89 200 000/00 RMK AO2
14926KSTC STC20000606062009706/06/00 06:20:31  5-MIN KSTC 061220Z AUTO 00000KT 10SM CLR 09/07 A3024 730 89 200 000/00 RMK AO2
14926KSTC STC20000606062509706/06/00 06:25:31  5-MIN KSTC 061225Z AUTO 00000KT 10SM CLR 09/07 A3025 730 86 300 000/00 RMK AO2
14926KSTC STC20000606063009706/06/00 06:30:31  5-MIN KSTC 061230Z AUTO 00000KT 10SM CLR 10/08 A3025 730 86 300 000/00 RMK AO2
14926KSTC STC20000606063509706/06/00 06:35:31  5-MIN KSTC 061235Z AUTO 00000KT 10SM CLR 11/08 A3024 730 83 400 000/00 RMK AO2
14926KSTC STC20000606064009706/06/00 06:40:31  5-MIN KSTC 061240Z AUTO 00000KT 10SM CLR 11/08 A3024 730 83 400 000/00 RMK AO2
14926KSTC STC20000606064509706/06/00 06:45:31  5-MIN KSTC 061245Z AUTO 00000KT 10SM CLR 11/08 A3024 730 83 500 000/00 RMK AO2
14926KSTC STC20000606065011306/06/00 06:50:31  5-MIN KSTC 061250Z AUTO 00000KT 10SM CLR 12/08 A3024 730 80 500 000/00 RMK AO2 SLPNO T01170083
14926KSTC STC20000606065509706/06/00 06:55:31  5-MIN KSTC 061255Z AUTO VRB03KT 10SM CLR 12/08 A3024 730 77 500 VRB/03 RMK AO2
14926KSTC STC20000606070009706/06/00 07:00:31  5-MIN KSTC 061300Z AUTO 00000KT 10SM CLR 12/08 A3024 730 74 600 000/00 RMK AO2
14926KSTC STC20000606070509706/06/00 07:05:31  5-MIN KSTC 061305Z AUTO 19003KT 10SM CLR 13/07 A3024 730 69 700 180/03 RMK AO2
14926KSTC STC20000606071009706/06/00 07:10:31  5-MIN KSTC 061310Z AUTO 20004KT 10SM CLR 13/07 A3024 730 64 700 200/04 RMK AO2
14926KSTC STC20000606071509706/06/00 07:15:31  5-MIN KSTC 061315Z AUTO 18003KT 10SM CLR 13/07 A3024 730 64 700 180/03 RMK AO2
14926KSTC STC20000606072009706/06/00 07:20:31  5-MIN KSTC 061320Z AUTO 19004KT 10SM CLR 14/07 A3025 730 64 800 190/04 RMK AO2
14926KSTC STC20000606072509706/06/00 07:25:31  5-MIN KSTC 061325Z AUTO 20005KT 10SM CLR 14/07 A3025 730 61 800 190/05 RMK AO2
14926KSTC STC20000606073009706/06/00 07:30:31  5-MIN KSTC 061330Z AUTO 19006KT 10SM CLR 14/07 A3025 720 59 900 190/06 RMK AO2
14926KSTC STC20000606073509706/06/00 07:35:31  5-MIN KSTC 061335Z AUTO 20006KT 10SM CLR 14/06 A3025 720 57 900 200/06 RMK AO2
14926KSTC STC20000606074009706/06/00 07:40:31  5-MIN KSTC 061340Z AUTO 21006KT 10SM CLR 14/06 A3025 720 57 900 200/06 RMK AO2
14926KSTC STC20000606074509706/06/00 07:45:31  5-MIN KSTC 061345Z AUTO 20007KT 10SM CLR 15/06 A3025 720 55 900 200/07 RMK AO2
14926KSTC STC20000606075011406/06/00 07:50:31  5-MIN KSTC 061350Z AUTO 19006KT 10SM CLR 15/06 A3025 730 55 900 190/06 RMK AO2 SLP252 T01500061
14926KSTC STC20000606075509806/06/00 07:55:31  5-MIN KSTC 061355Z AUTO 20008KT 10SM CLR 16/07 A3025 720 57 1000 190/08 RMK AO2
14926KSTC STC20000606080009806/06/00 08:00:31  5-MIN KSTC 061400Z AUTO 20006KT 10SM CLR 16/07 A3025 720 55 1000 190/06 RMK AO2
14926KSTC STC20000606080509806/06/00 08:05:31  5-MIN KSTC 061405Z AUTO 22006KT 10SM CLR 17/07 A3025 720 53 1100 220/06 RMK AO2
14926KSTC STC20000606081009806/06/00 08:10:31  5-MIN KSTC 061410Z AUTO 21006KT 10SM CLR 16/07 A3025 720 53 1100 210/06 RMK AO2
14926KSTC STC20000606081509806/06/00 08:15:31  5-MIN KSTC 061415Z AUTO 19009KT 10SM CLR 17/07 A3025 720 51 1100 190/09 RMK AO2
14926KSTC STC20000606082010006/06/00 08:20:31  5-MIN KSTC 061420Z AUTO 21009KT 10SM CLR 17/07 A3025 720 49 1200 210/09 RMK AO2 $
14926KSTC STC20000606082510006/06/00 08:25:31  5-MIN KSTC 061425Z AUTO 20009KT 10SM CLR 17/07 A3025 720 49 1200 200/09 RMK AO2 $
14926KSTC STC20000606083010006/06/00 08:30:31  5-MIN KSTC 061430Z AUTO 22008KT 10SM CLR 17/07 A3025 720 49 1200 220/08 RMK AO2 $
14926KSTC STC20000606083510206/06/00 08:35:31  5-MIN KSTC 061435Z AUTO 20011KT 4SM HZ CLR 18/06 A3025 720 44 1300 190/11 RMK AO2 $
14926KSTC STC20000606084011506/06/00 08:40:31  5-MIN KSTC 061440Z AUTO 20010KT 1/2SM HZ CLR 18/06 A3024 730 44 1300 190/10 RMK AO2 VIS M1/4V5 $
14926KSTC STC20000606084510406/06/00 08:45:31  5-MIN KSTC 061445Z AUTO 21011KT 1/2SM HZ CLR 18/06 A3024 730 44 1300 210/11 RMK AO2 $
14926KSTC STC20000606085011906/06/00 08:50:31  5-MIN KSTC 061450Z AUTO 21008KT 10SM 18/06 A3024 730 44 1300 210/08 RMK AO2 SLP251 T01780056 56001 $
14926KSTC STC20000606085509606/06/00 08:55:31  5-MIN KSTC 061455Z AUTO 22010KT 10SM 18/06 A3024 730 42 1300 210/10 RMK AO2 $
14926KSTC STC20000606090009606/06/00 09:00:31  5-MIN KSTC 061500Z AUTO 23010KT 10SM 18/06 A3024 730 42 1300 220/10 RMK AO2 $
14926KSTC STC20000606090509606/06/00 09:05:31  5-MIN KSTC 061505Z AUTO 24009KT 10SM 18/06 A3024 730 44 1300 230/09 RMK AO2 $
14926KSTC STC20000606091009606/06/00 09:10:31  5-MIN KSTC 061510Z AUTO 19009KT 10SM 18/07 A3024 730 46 1300 190/09 RMK AO2 $
14926KSTC STC20000606091509606/06/00 09:15:31  5-MIN KSTC 061515Z AUTO 22010KT 10SM 19/07 A3024 730 44 1500 220/10 RMK AO2 $
14926KSTC STC20000606092009606/06/00 09:20:31  5-MIN KSTC 061520Z AUTO 22010KT 10SM 18/07 A3024 730 46 1300 220/10 RMK AO2 $
14926KSTC STC20000606092509606/06/00 09:25:31  5-MIN KSTC 061525Z AUTO 20007KT 10SM 19/07 A3024 730 44 1400 200/07 RMK AO2 $
14926KSTC STC20000606093009606/06/00 09:30:31  5-MIN KSTC 061530Z AUTO 20009KT 10SM 19/07 A3024 740 44 1400 190/09 RMK AO2 $
14926KSTC STC20000606093511606/06/00 09:35:31  5-MIN KSTC 061535Z AUTO 20009KT 170V240 10SM CLR 19/07 A3024 730 46 1400 190/09 170V240 RMK AO2 $
14926KSTC STC20000606094010006/06/00 09:40:31  5-MIN KSTC 061540Z AUTO 19008KT 10SM CLR 19/07 A3024 730 46 1400 190/08 RMK AO2 $
14926KSTC STC20000606094509806/06/00 09:45:31  5-MIN KSTC 061545Z AUTO 21008KT 10SM CLR 19/07 A3024 740 44 1400 200/08 RMK AO2
14926KSTC STC20000606095011506/06/00 09:50:31  5-MIN KSTC 061550Z AUTO 22007KT 10SM CLR 19/06 A3024 740 43 1400 220/07 RMK AO2 SLP248 T01890061
14926KSTC STC20000606095509806/06/00 09:55:31  5-MIN KSTC 061555Z AUTO 23009KT 10SM CLR 19/07 A3023 740 43 1500 220/09 RMK AO2
14926KSTC STC20000606100009806/06/00 10:00:31  5-MIN KSTC 061600Z AUTO 19008KT 10SM CLR 19/07 A3023 740 43 1500 190/08 RMK AO2
14926KSTC STC20000606100509806/06/00 10:05:31  5-MIN KSTC 061605Z AUTO 20009KT 10SM CLR 19/07 A3023 740 43 1500 200/09 RMK AO2
14926KSTC STC20000606101009806/06/00 10:10:31  5-MIN KSTC 061610Z AUTO 17006KT 10SM CLR 19/06 A3023 740 41 1500 170/06 RMK AO2
14926KSTC STC20000606101509806/06/00 10:15:31  5-MIN KSTC 061615Z AUTO 22008KT 10SM CLR 19/07 A3023 740 43 1500 210/08 RMK AO2
14926KSTC STC20000606102009806/06/00 10:20:31  5-MIN KSTC 061620Z AUTO 24009KT 10SM CLR 19/06 A3023 740 40 1500 240/09 RMK AO2
14926KSTC STC20000606102509806/06/00 10:25:31  5-MIN KSTC 061625Z AUTO 19009KT 10SM CLR 20/07 A3023 740 41 1500 180/09 RMK AO2
14926KSTC STC20000606103009806/06/00 10:30:31  5-MIN KSTC 061630Z AUTO 21008KT 10SM CLR 20/06 A3023 740 40 1500 200/08 RMK AO2
14926KSTC STC20000606103509806/06/00 10:35:31  5-MIN KSTC 061635Z AUTO 19008KT 10SM CLR 20/06 A3023 740 40 1500 190/08 RMK AO2
14926KSTC STC20000606104009806/06/00 10:40:31  5-MIN KSTC 061640Z AUTO 19009KT 10SM CLR 19/06 A3023 740 41 1500 190/09 RMK AO2
14926KSTC STC20000606104509806/06/00 10:45:31  5-MIN KSTC 061645Z AUTO 19010KT 10SM CLR 19/06 A3023 750 41 1500 190/10 RMK AO2
14926KSTC STC20000606105011506/06/00 10:50:31  5-MIN KSTC 061650Z AUTO 18008KT 10SM CLR 20/07 A3022 750 41 1500 180/08 RMK AO2 SLP244 T02000067
14926KSTC STC20000606105509806/06/00 10:55:31  5-MIN KSTC 061655Z AUTO 19007KT 10SM CLR 19/07 A3023 740 43 1500 180/07 RMK AO2
14926KSTC STC20000606110009806/06/00 11:00:31  5-MIN KSTC 061700Z AUTO 22010KT 10SM CLR 21/07 A3023 740 41 1600 220/10 RMK AO2
14926KSTC STC20000606110510106/06/00 11:05:31  5-MIN KSTC 061705Z AUTO 23009KT 10SM FEW050 21/07 A3023 740 41 1600 220/09 RMK AO2
14926KSTC STC20000606111010106/06/00 11:10:31  5-MIN KSTC 061710Z AUTO 19008KT 10SM FEW050 20/07 A3023 740 41 1500 180/08 RMK AO2
14926KSTC STC20000606111510106/06/00 11:15:31  5-MIN KSTC 061715Z AUTO 20008KT 10SM FEW050 20/07 A3022 750 41 1500 200/08 RMK AO2
14926KSTC STC20000606112010106/06/00 11:20:31  5-MIN KSTC 061720Z AUTO 17009KT 10SM FEW050 21/07 A3022 750 41 1600 170/09 RMK AO2
14926KSTC STC20000606112510706/06/00 11:25:31  5-MIN KSTC 061725Z AUTO 19010G18KT 10SM FEW050 21/07 A3022 750 41 1600 190/10G18 RMK AO2
14926KSTC STC20000606113010706/06/00 11:30:31  5-MIN KSTC 061730Z AUTO 22007G18KT 10SM FEW050 21/07 A3022 750 41 1600 220/07G18 RMK AO2
14926KSTC STC20000606113509806/06/00 11:35:31  5-MIN KSTC 061735Z AUTO 20012KT 10SM CLR 21/07 A3022 750 41 1600 190/12 RMK AO2
14926KSTC STC20000606114011406/06/00 11:40:31  5-MIN KSTC 061740Z AUTO 22007KT 190V250 10SM CLR 21/07 A3022 750 41 1600 210/07 190V250 RMK AO2
14926KSTC STC20000606114509806/06/00 11:45:31  5-MIN KSTC 061745Z AUTO VRB06KT 10SM CLR 21/07 A3022 750 41 1600 VRB/06 RMK AO2
14926KSTC STC20000606115014206/06/00 11:50:31  5-MIN KSTC 061750Z AUTO 21010G14KT 10SM FEW050 21/07 A3022 750 41 1600 200/10G14 RMK AO2 SLP243 T02060072 10211 20078 50000
14926KSTC STC20000606115510106/06/00 11:55:31  5-MIN KSTC 061755Z AUTO 23007KT 10SM FEW050 20/07 A3022 750 43 1500 220/07 RMK AO2
14926KSTC STC20000606120010106/06/00 12:00:31  5-MIN KSTC 061800Z AUTO 19010KT 10SM FEW050 20/07 A3022 750 41 1500 190/10 RMK AO2
14926KSTC STC20000606120511706/06/00 12:05:31  5-MIN KSTC 061805Z AUTO 17011KT 150V210 10SM FEW050 21/07 A3022 750 40 1600 170/11 150V210 RMK AO2
14926KSTC STC20000606121010106/06/00 12:10:31  5-MIN KSTC 061810Z AUTO 18010KT 10SM FEW050 21/07 A3022 750 40 1600 170/10 RMK AO2
14926KSTC STC20000606121510106/06/00 12:15:31  5-MIN KSTC 061815Z AUTO 20010KT 10SM FEW050 21/07 A3021 760 38 1700 190/10 RMK AO2
14926KSTC STC20000606122010106/06/00 12:20:31  5-MIN KSTC 061820Z AUTO 17009KT 10SM FEW050 21/07 A3021 760 38 1700 160/09 RMK AO2
14926KSTC STC20000606122510106/06/00 12:25:31  5-MIN KSTC 061825Z AUTO 18009KT 10SM FEW050 21/07 A3021 760 40 1700 180/09 RMK AO2
14926KSTC STC20000606123010106/06/00 12:30:31  5-MIN KSTC 061830Z AUTO 19011KT 10SM FEW050 21/07 A3021 760 40 1700 190/11 RMK AO2
14926KSTC STC20000606123509806/06/00 12:35:31  5-MIN KSTC 061835Z AUTO 20007KT 10SM CLR 21/07 A3021 760 40 1700 200/07 RMK AO2
14926KSTC STC20000606124010406/06/00 12:40:31  5-MIN KSTC 061840Z AUTO 17008G15KT 10SM CLR 21/07 A3020 760 41 1600 170/08G15 RMK AO2
14926KSTC STC20000606124510406/06/00 12:45:31  5-MIN KSTC 061845Z AUTO 22007G15KT 10SM CLR 21/07 A3020 770 41 1600 220/07G15 RMK AO2
14926KSTC STC20000606125011506/06/00 12:50:31  5-MIN KSTC 061850Z AUTO 18008KT 10SM CLR 21/07 A3020 770 40 1700 170/08 RMK AO2 SLP236 T02110072
14926KSTC STC20000606125509806/06/00 12:55:31  5-MIN KSTC 061855Z AUTO 19012KT 10SM CLR 22/07 A3020 770 39 1800 180/12 RMK AO2
14926KSTC STC20000606130009806/06/00 13:00:31  5-MIN KSTC 061900Z AUTO 17013KT 10SM CLR 21/07 A3019 770 40 1700 170/13 RMK AO2
14926KSTC STC20000606130509806/06/00 13:05:31  5-MIN KSTC 061905Z AUTO 19009KT 10SM CLR 22/07 A3019 770 39 1800 190/09 RMK AO2
14926KSTC STC20000606131009806/06/00 13:10:31  5-MIN KSTC 061910Z AUTO 18006KT 10SM CLR 21/07 A3019 780 40 1700 180/06 RMK AO2
14926KSTC STC20000606131510406/06/00 13:15:31  5-MIN KSTC 061915Z AUTO 19012G16KT 10SM CLR 22/07 A3019 780 39 1800 180/12G16 RMK AO2
14926KSTC STC20000606132009806/06/00 13:20:31  5-MIN KSTC 061920Z AUTO 18012KT 10SM CLR 21/07 A3019 780 40 1700 180/12 RMK AO2
14926KSTC STC20000606132509806/06/00 13:25:31  5-MIN KSTC 061925Z AUTO 21010KT 10SM CLR 22/07 A3019 780 37 1800 200/10 RMK AO2
14926KSTC STC20000606133009806/06/00 13:30:31  5-MIN KSTC 061930Z AUTO 16010KT 10SM CLR 21/07 A3018 780 38 1700 160/10 RMK AO2
14926KSTC STC20000606133509806/06/00 13:35:31  5-MIN KSTC 061935Z AUTO 19011KT 10SM CLR 22/07 A3018 780 37 1800 190/11 RMK AO2
14926KSTC STC20000606134009806/06/00 13:40:31  5-MIN KSTC 061940Z AUTO 19012KT 10SM CLR 22/07 A3018 790 37 1800 190/12 RMK AO2
14926KSTC STC20000606134509806/06/00 13:45:31  5-MIN KSTC 061945Z AUTO 22010KT 10SM CLR 22/07 A3018 790 37 1800 220/10 RMK AO2
14926KSTC STC20000606135011506/06/00 13:50:31  5-MIN KSTC 061950Z AUTO 21006KT 10SM CLR 21/07 A3018 790 38 1700 210/06 RMK AO2 SLP229 T02110067
14926KSTC STC20000606135509806/06/00 13:55:31  5-MIN KSTC 061955Z AUTO 19013KT 10SM CLR 22/07 A3018 790 39 1800 180/13 RMK AO2
14926KSTC STC20000606140010406/06/00 14:00:31  5-MIN KSTC 062000Z AUTO 17009G14KT 10SM CLR 21/07 A3017 790 40 1700 170/09G14 RMK AO2
14926KSTC STC20000606140509806/06/00 14:05:31  5-MIN KSTC 062005Z AUTO 16009KT 10SM CLR 22/07 A3017 790 37 1900 160/09 RMK AO2
14926KSTC STC20000606141009806/06/00 14:10:31  5-MIN KSTC 062010Z AUTO 19012KT 10SM CLR 22/07 A3017 790 39 1800 190/12 RMK AO2
14926KSTC STC20000606141509806/06/00 14:15:31  5-MIN KSTC 062015Z AUTO 21009KT 10SM CLR 22/07 A3017 800 39 1800 210/09 RMK AO2
14926KSTC STC20000606142009806/06/00 14:20:31  5-MIN KSTC 062020Z AUTO 18010KT 10SM CLR 22/07 A3016 800 39 1800 180/10 RMK AO2
14926KSTC STC20000606142509806/06/00 14:25:31  5-MIN KSTC 062025Z AUTO 21012KT 10SM CLR 22/07 A3016 800 37 1900 210/12 RMK AO2
14926KSTC STC20000606143009806/06/00 14:30:31  5-MIN KSTC 062030Z AUTO 23010KT 10SM CLR 22/07 A3016 810 36 1900 220/10 RMK AO2
14926KSTC STC20000606143509806/06/00 14:35:31  5-MIN KSTC 062035Z AUTO 21014KT 10SM CLR 22/07 A3016 810 36 1900 200/14 RMK AO2
14926KSTC STC20000606144009806/06/00 14:40:31  5-MIN KSTC 062040Z AUTO 22008KT 10SM CLR 22/07 A3016 810 37 1900 220/08 RMK AO2
14926KSTC STC20000606144509806/06/00 14:45:31  5-MIN KSTC 062045Z AUTO 18009KT 10SM CLR 22/07 A3015 810 37 1900 180/09 RMK AO2
14926KSTC STC20000606145012106/06/00 14:50:31  5-MIN KSTC 062050Z AUTO 19014KT 10SM CLR 23/08 A3015 810 36 2000 190/14 RMK AO2 SLP221 T02330078 56007
14926KSTC STC20000606145509806/06/00 14:55:31  5-MIN KSTC 062055Z AUTO 20012KT 10SM CLR 23/07 A3016 810 35 1900 190/12 RMK AO2
14926KSTC STC20000606150009806/06/00 15:00:31  5-MIN KSTC 062100Z AUTO 18008KT 10SM CLR 22/07 A3015 810 36 1900 170/08 RMK AO2
14926KSTC STC20000606150510406/06/00 15:05:31  5-MIN KSTC 062105Z AUTO 17011G15KT 10SM CLR 22/07 A3015 810 36 1900 170/11G15 RMK AO2
14926KSTC STC20000606151010406/06/00 15:10:31  5-MIN KSTC 062110Z AUTO 16011G15KT 10SM CLR 22/07 A3015 810 36 1900 160/11G15 RMK AO2
14926KSTC STC20000606151509806/06/00 15:15:31  5-MIN KSTC 062115Z AUTO 20012KT 10SM CLR 23/07 A3015 810 36 1900 200/12 RMK AO2
14926KSTC STC20000606152010406/06/00 15:20:31  5-MIN KSTC 062120Z AUTO 18007G15KT 10SM CLR 22/07 A3015 810 37 1900 170/07G15 RMK AO2
14926KSTC STC20000606152509806/06/00 15:25:31  5-MIN KSTC 062125Z AUTO 20010KT 10SM CLR 22/07 A3015 810 37 1900 190/10 RMK AO2
14926KSTC STC20000606153009806/06/00 15:30:31  5-MIN KSTC 062130Z AUTO 20010KT 10SM CLR 23/08 A3015 810 37 1900 200/10 RMK AO2
14926KSTC STC20000606153509806/06/00 15:35:31  5-MIN KSTC 062135Z AUTO 21010KT 10SM CLR 23/07 A3015 820 36 1900 210/10 RMK AO2
14926KSTC STC20000606154009806/06/00 15:40:31  5-MIN KSTC 062140Z AUTO 19009KT 10SM CLR 23/07 A3015 820 35 1900 190/09 RMK AO2
14926KSTC STC20000606154510406/06/00 15:45:31  5-MIN KSTC 062145Z AUTO 19011G15KT 10SM CLR 23/07 A3014 820 36 2000 190/11G15 RMK AO2
14926KSTC STC20000606155012106/06/00 15:50:31  5-MIN KSTC 062150Z AUTO 15009G15KT 10SM CLR 23/07 A3014 820 36 2000 150/09G15 RMK AO2 SLP217 T02280072
14926KSTC STC20000606155510406/06/00 15:55:31  5-MIN KSTC 062155Z AUTO 21010G17KT 10SM CLR 23/08 A3014 820 37 2000 200/10G17 RMK AO2
14926KSTC STC20000606160010406/06/00 16:00:31  5-MIN KSTC 062200Z AUTO 22008G17KT 10SM CLR 23/07 A3014 830 36 2000 220/08G17 RMK AO2
14926KSTC STC20000606160509806/06/00 16:05:31  5-MIN KSTC 062205Z AUTO 19011KT 10SM CLR 23/07 A3014 830 36 2000 190/11 RMK AO2
14926KSTC STC20000606161011406/06/00 16:10:31  5-MIN KSTC 062210Z AUTO 18010KT 150V220 10SM CLR 22/07 A3014 830 36 1900 180/10 150V220 RMK AO2
14926KSTC STC20000606161509806/06/00 16:15:31  5-MIN KSTC 062215Z AUTO 19009KT 10SM CLR 22/07 A3014 830 36 1900 190/09 RMK AO2
14926KSTC STC20000606162009806/06/00 16:20:31  5-MIN KSTC 062220Z AUTO 18011KT 10SM CLR 22/07 A3013 830 37 1900 180/11 RMK AO2
14926KSTC STC20000606162509806/06/00 16:25:31  5-MIN KSTC 062225Z AUTO 16008KT 10SM CLR 23/07 A3013 830 36 2000 160/08 RMK AO2
14926KSTC STC20000606163009806/06/00 16:30:31  5-MIN KSTC 062230Z AUTO 18009KT 10SM CLR 23/07 A3013 840 35 2000 180/09 RMK AO2
14926KSTC STC20000606163509806/06/00 16:35:31  5-MIN KSTC 062235Z AUTO 20010KT 10SM CLR 22/07 A3012 840 36 1900 190/10 RMK AO2
14926KSTC STC20000606164009806/06/00 16:40:31  5-MIN KSTC 062240Z AUTO 18013KT 10SM CLR 22/07 A3012 840 36 1900 170/13 RMK AO2
14926KSTC STC20000606164509806/06/00 16:45:31  5-MIN KSTC 062245Z AUTO 18009KT 10SM CLR 22/07 A3012 840 36 1900 180/09 RMK AO2
14926KSTC STC20000606165011506/06/00 16:50:31  5-MIN KSTC 062250Z AUTO 18012KT 10SM CLR 22/07 A3012 840 36 1900 180/12 RMK AO2 SLP211 T02220067
14926KSTC STC20000606165509806/06/00 16:55:31  5-MIN KSTC 062255Z AUTO 17009KT 10SM CLR 22/07 A3013 840 37 1800 170/09 RMK AO2
14926KSTC STC20000606170009806/06/00 17:00:31  5-MIN KSTC 062300Z AUTO 16009KT 10SM CLR 22/07 A3012 840 39 1800 150/09 RMK AO2
14926KSTC STC20000606170509806/06/00 17:05:31  5-MIN KSTC 062305Z AUTO 17009KT 10SM CLR 22/07 A3012 840 39 1800 170/09 RMK AO2
14926KSTC STC20000606171009806/06/00 17:10:31  5-MIN KSTC 062310Z AUTO 16007KT 10SM CLR 22/07 A3012 840 37 1900 160/07 RMK AO2
14926KSTC STC20000606171509806/06/00 17:15:31  5-MIN KSTC 062315Z AUTO 17010KT 10SM CLR 22/07 A3012 840 39 1900 160/10 RMK AO2
14926KSTC STC20000606172009806/06/00 17:20:31  5-MIN KSTC 062320Z AUTO 17009KT 10SM CLR 22/07 A3012 840 37 1900 160/09 RMK AO2
14926KSTC STC20000606172509806/06/00 17:25:31  5-MIN KSTC 062325Z AUTO 17010KT 10SM CLR 22/07 A3012 850 39 1900 170/10 RMK AO2
14926KSTC STC20000606173009806/06/00 17:30:31  5-MIN KSTC 062330Z AUTO 18008KT 10SM CLR 22/07 A3012 850 39 1900 170/08 RMK AO2
14926KSTC STC20000606173509806/06/00 17:35:31  5-MIN KSTC 062335Z AUTO 17008KT 10SM CLR 22/07 A3012 850 39 1900 170/08 RMK AO2
14926KSTC STC20000606174009806/06/00 17:40:31  5-MIN KSTC 062340Z AUTO 17009KT 10SM CLR 22/08 A3011 850 40 1900 170/09 RMK AO2
14926KSTC STC20000606174509806/06/00 17:45:31  5-MIN KSTC 062345Z AUTO 17009KT 10SM CLR 22/08 A3011 850 39 1900 170/09 RMK AO2
14926KSTC STC20000606175013306/06/00 17:50:31  5-MIN KSTC 062350Z AUTO 18009KT 10SM CLR 22/08 A3011 850 39 1900 170/09 RMK AO2 SLP206 T02220078 10233 20200 57022
14926KSTC STC20000606175509806/06/00 17:55:31  5-MIN KSTC 062355Z AUTO 17009KT 10SM CLR 22/08 A3011 850 39 1900 160/09 RMK AO2
14926KSTC STC20000606180009806/06/00 18:00:31  5-MIN KSTC 070000Z AUTO 16009KT 10SM CLR 22/08 A3011 850 40 1900 160/09 RMK AO2
14926KSTC STC20000606180509806/06/00 18:05:31  5-MIN KSTC 070005Z AUTO 17007KT 10SM CLR 22/08 A3011 850 40 1900 160/07 RMK AO2
14926KSTC STC20000606181009806/06/00 18:10:31  5-MIN KSTC 070010Z AUTO 16008KT 10SM CLR 22/08 A3011 850 40 1900 150/08 RMK AO2
14926KSTC STC20000606181509806/06/00 18:15:31  5-MIN KSTC 070015Z AUTO 16009KT 10SM CLR 22/08 A3011 850 42 1900 160/09 RMK AO2
14926KSTC STC20000606182009806/06/00 18:20:31  5-MIN KSTC 070020Z AUTO 15008KT 10SM CLR 22/08 A3011 860 42 1900 150/08 RMK AO2
14926KSTC STC20000606182509806/06/00 18:25:31  5-MIN KSTC 070025Z AUTO 16009KT 10SM CLR 22/08 A3011 850 42 1900 160/09 RMK AO2
14926KSTC STC20000606183009806/06/00 18:30:31  5-MIN KSTC 070030Z AUTO 15007KT 10SM CLR 22/08 A3011 850 42 1900 150/07 RMK AO2
14926KSTC STC20000606183509806/06/00 18:35:31  5-MIN KSTC 070035Z AUTO 14009KT 10SM CLR 22/08 A3011 850 42 1900 140/09 RMK AO2
14926KSTC STC20000606184009806/06/00 18:40:31  5-MIN KSTC 070040Z AUTO 14011KT 10SM CLR 22/09 A3010 860 43 1900 140/11 RMK AO2
14926KSTC STC20000606184509806/06/00 18:45:31  5-MIN KSTC 070045Z AUTO 16012KT 10SM CLR 21/09 A3010 860 45 1800 150/12 RMK AO2
14926KSTC STC20000606185011506/06/00 18:50:31  5-MIN KSTC 070050Z AUTO 16011KT 10SM CLR 21/09 A3009 870 45 1800 160/11 RMK AO2 SLP198 T02110089
14926KSTC STC20000606185509806/06/00 18:55:31  5-MIN KSTC 070055Z AUTO 15010KT 10SM CLR 21/09 A3009 870 45 1800 150/10 RMK AO2
14926KSTC STC20000606190009806/06/00 19:00:31  5-MIN KSTC 070100Z AUTO 16011KT 10SM CLR 21/09 A3010 860 45 1800 150/11 RMK AO2
14926KSTC STC20000606190509806/06/00 19:05:31  5-MIN KSTC 070105Z AUTO 16010KT 10SM CLR 21/09 A3010 860 45 1800 150/10 RMK AO2
14926KSTC STC20000606191009806/06/00 19:10:31  5-MIN KSTC 070110Z AUTO 15010KT 10SM CLR 21/09 A3010 860 46 1800 150/10 RMK AO2
14926KSTC STC20000606191509806/06/00 19:15:31  5-MIN KSTC 070115Z AUTO 16009KT 10SM CLR 21/09 A3010 860 46 1700 160/09 RMK AO2
14926KSTC STC20000606192009806/06/00 19:20:31  5-MIN KSTC 070120Z AUTO 16008KT 10SM CLR 20/09 A3010 860 48 1700 160/08 RMK AO2
14926KSTC STC20000606192509806/06/00 19:25:31  5-MIN KSTC 070125Z AUTO 16007KT 10SM CLR 20/09 A3011 850 48 1700 150/07 RMK AO2
14926KSTC STC20000606193009806/06/00 19:30:31  5-MIN KSTC 070130Z AUTO 15007KT 10SM CLR 19/09 A3011 850 50 1600 150/07 RMK AO2
14926KSTC STC20000606193509806/06/00 19:35:31  5-MIN KSTC 070135Z AUTO 16007KT 10SM CLR 19/09 A3011 850 50 1600 150/07 RMK AO2
14926KSTC STC20000606194009806/06/00 19:40:31  5-MIN KSTC 070140Z AUTO 15006KT 10SM CLR 19/09 A3011 850 54 1500 150/06 RMK AO2
14926KSTC STC20000606194509806/06/00 19:45:31  5-MIN KSTC 070145Z AUTO 15006KT 10SM CLR 18/09 A3011 850 56 1500 150/06 RMK AO2
14926KSTC STC20000606195011506/06/00 19:50:31  5-MIN KSTC 070150Z AUTO 15005KT 10SM CLR 18/09 A3012 850 56 1500 140/05 RMK AO2 SLP205 T01830094
14926KSTC STC20000606195509806/06/00 19:55:31  5-MIN KSTC 070155Z AUTO 14004KT 10SM CLR 18/09 A3011 850 56 1500 140/04 RMK AO2
14926KSTC STC20000606200009806/06/00 20:00:31  5-MIN KSTC 070200Z AUTO 14005KT 10SM CLR 18/09 A3011 850 56 1500 140/05 RMK AO2
14926KSTC STC20000606200509806/06/00 20:05:31  5-MIN KSTC 070205Z AUTO 14006KT 10SM CLR 18/09 A3011 850 56 1500 140/06 RMK AO2
14926KSTC STC20000606201009806/06/00 20:10:31  5-MIN KSTC 070210Z AUTO 13005KT 10SM CLR 18/09 A3011 850 56 1500 130/05 RMK AO2
14926KSTC STC20000606201509806/06/00 20:15:31  5-MIN KSTC 070215Z AUTO 13005KT 10SM CLR 19/09 A3011 850 54 1500 130/05 RMK AO2
14926KSTC STC20000606202009806/06/00 20:20:31  5-MIN KSTC 070220Z AUTO 13006KT 10SM CLR 18/09 A3011 850 56 1500 130/06 RMK AO2
14926KSTC STC20000606202509806/06/00 20:25:31  5-MIN KSTC 070225Z AUTO 13006KT 10SM CLR 18/09 A3011 850 56 1500 120/06 RMK AO2
14926KSTC STC20000606203009806/06/00 20:30:31  5-MIN KSTC 070230Z AUTO 13006KT 10SM CLR 18/09 A3011 850 56 1500 120/06 RMK AO2
14926KSTC STC20000606203509806/06/00 20:35:31  5-MIN KSTC 070235Z AUTO 13005KT 10SM CLR 18/09 A3011 850 56 1500 130/05 RMK AO2
14926KSTC STC20000606204009806/06/00 20:40:31  5-MIN KSTC 070240Z AUTO 12005KT 10SM CLR 18/09 A3011 850 58 1400 120/05 RMK AO2
14926KSTC STC20000606204509806/06/00 20:45:31  5-MIN KSTC 070245Z AUTO 11005KT 10SM CLR 17/09 A3011 850 60 1400 110/05 RMK AO2
14926KSTC STC20000606205012106/06/00 20:50:31  5-MIN KSTC 070250Z AUTO 12005KT 10SM CLR 17/09 A3011 850 60 1400 110/05 RMK AO2 SLP203 T01720094 58015
14926KSTC STC20000606205509806/06/00 20:55:31  5-MIN KSTC 070255Z AUTO 11005KT 10SM CLR 17/09 A3011 850 60 1300 110/05 RMK AO2
14926KSTC STC20000606210009806/06/00 21:00:31  5-MIN KSTC 070300Z AUTO 12005KT 10SM CLR 17/09 A3011 850 60 1300 110/05 RMK AO2
14926KSTC STC20000606210509806/06/00 21:05:31  5-MIN KSTC 070305Z AUTO 12005KT 10SM CLR 17/09 A3011 850 60 1300 110/05 RMK AO2
14926KSTC STC20000606211009806/06/00 21:10:31  5-MIN KSTC 070310Z AUTO 11004KT 10SM CLR 17/10 A3012 850 62 1300 110/04 RMK AO2
14926KSTC STC20000606211509806/06/00 21:15:31  5-MIN KSTC 070315Z AUTO 11004KT 10SM CLR 17/10 A3012 850 64 1300 110/04 RMK AO2
14926KSTC STC20000606212009806/06/00 21:20:31  5-MIN KSTC 070320Z AUTO 11004KT 10SM CLR 17/10 A3012 850 64 1300 110/04 RMK AO2
14926KSTC STC20000606212509806/06/00 21:25:31  5-MIN KSTC 070325Z AUTO 11006KT 10SM CLR 17/10 A3011 850 64 1300 110/06 RMK AO2
14926KSTC STC20000606213009806/06/00 21:30:31  5-MIN KSTC 070330Z AUTO 11005KT 10SM CLR 17/10 A3011 850 64 1300 110/05 RMK AO2
14926KSTC STC20000606213509806/06/00 21:35:31  5-MIN KSTC 070335Z AUTO 11005KT 10SM CLR 17/10 A3011 850 64 1300 110/05 RMK AO2
14926KSTC STC20000606214009806/06/00 21:40:31  5-MIN KSTC 070340Z AUTO 11004KT 10SM CLR 17/10 A3012 850 64 1300 110/04 RMK AO2
14926KSTC STC20000606214509806/06/00 21:45:31  5-MIN KSTC 070345Z AUTO 11005KT 10SM CLR 17/10 A3011 850 64 1300 110/05 RMK AO2
14926KSTC STC20000606215011506/06/00 21:50:31  5-MIN KSTC 070350Z AUTO 12005KT 10SM CLR 16/10 A3011 850 67 1200 120/05 RMK AO2 SLP204 T01610100
14926KSTC STC20000606215509806/06/00 21:55:31  5-MIN KSTC 070355Z AUTO 12004KT 10SM CLR 17/10 A3011 850 64 1300 120/04 RMK AO2
14926KSTC STC20000606220009806/06/00 22:00:31  5-MIN KSTC 070400Z AUTO 12005KT 10SM CLR 16/10 A3011 850 67 1200 120/05 RMK AO2
14926KSTC STC20000606220509806/06/00 22:05:31  5-MIN KSTC 070405Z AUTO 13005KT 10SM CLR 16/10 A3011 850 67 1200 120/05 RMK AO2
14926KSTC STC20000606221009806/06/00 22:10:31  5-MIN KSTC 070410Z AUTO 13005KT 10SM CLR 16/10 A3011 850 67 1200 120/05 RMK AO2
14926KSTC STC20000606221509806/06/00 22:15:31  5-MIN KSTC 070415Z AUTO 13006KT 10SM CLR 16/10 A3011 850 67 1200 120/06 RMK AO2
14926KSTC STC20000606222009806/06/00 22:20:31  5-MIN KSTC 070420Z AUTO 13006KT 10SM CLR 16/10 A3011 850 67 1200 130/06 RMK AO2
14926KSTC STC20000606222509806/06/00 22:25:31  5-MIN KSTC 070425Z AUTO 13006KT 10SM CLR 16/10 A3011 850 67 1200 130/06 RMK AO2
14926KSTC STC20000606223009806/06/00 22:30:31  5-MIN KSTC 070430Z AUTO 13006KT 10SM CLR 16/10 A3010 860 67 1200 130/06 RMK AO2
14926KSTC STC20000606223509806/06/00 22:35:31  5-MIN KSTC 070435Z AUTO 13007KT 10SM CLR 16/10 A3010 860 67 1200 120/07 RMK AO2
14926KSTC STC20000606224009806/06/00 22:40:31  5-MIN KSTC 070440Z AUTO 13007KT 10SM CLR 16/10 A3010 860 67 1200 130/07 RMK AO2
14926KSTC STC20000606224509806/06/00 22:45:31  5-MIN KSTC 070445Z AUTO 13007KT 10SM CLR 16/10 A3010 860 67 1200 130/07 RMK AO2
14926KSTC STC20000606225011506/06/00 22:50:31  5-MIN KSTC 070450Z AUTO 13006KT 10SM CLR 16/10 A3010 860 67 1200 130/06 RMK AO2 SLP200 T01610100
14926KSTC STC20000606225509806/06/00 22:55:31  5-MIN KSTC 070455Z AUTO 13006KT 10SM CLR 16/10 A3010 860 67 1200 130/06 RMK AO2
14926KSTC STC20000606230009806/06/00 23:00:31  5-MIN KSTC 070500Z AUTO 13007KT 10SM CLR 16/10 A3010 860 67 1200 130/07 RMK AO2
14926KSTC STC20000606230509806/06/00 23:05:31  5-MIN KSTC 070505Z AUTO 13007KT 10SM CLR 16/10 A3010 860 67 1200 130/07 RMK AO2
14926KSTC STC20000606231009806/06/00 23:10:31  5-MIN KSTC 070510Z AUTO 13007KT 10SM CLR 16/10 A3009 870 67 1200 120/07 RMK AO2
14926KSTC STC20000606231509806/06/00 23:15:31  5-MIN KSTC 070515Z AUTO 12007KT 10SM CLR 16/10 A3009 870 67 1200 120/07 RMK AO2
14926KSTC STC20000606232009806/06/00 23:20:31  5-MIN KSTC 070520Z AUTO 13008KT 10SM CLR 16/10 A3008 880 69 1200 120/08 RMK AO2
14926KSTC STC20000606232509806/06/00 23:25:31  5-MIN KSTC 070525Z AUTO 13008KT 10SM CLR 16/10 A3008 880 69 1200 120/08 RMK AO2
14926KSTC STC20000606233009806/06/00 23:30:31  5-MIN KSTC 070530Z AUTO 13007KT 10SM CLR 16/10 A3008 880 69 1200 130/07 RMK AO2
14926KSTC STC20000606233509806/06/00 23:35:31  5-MIN KSTC 070535Z AUTO 13007KT 10SM CLR 16/10 A3008 880 69 1200 130/07 RMK AO2
14926KSTC STC20000606234009806/06/00 23:40:31  5-MIN KSTC 070540Z AUTO 13008KT 10SM CLR 16/10 A3007 890 69 1200 130/08 RMK AO2
14926KSTC STC20000606234509806/06/00 23:45:31  5-MIN KSTC 070545Z AUTO 13008KT 10SM CLR 16/10 A3007 890 69 1200 130/08 RMK AO2
14926KSTC STC20000606235014306/06/00 23:50:31  5-MIN KSTC 070550Z AUTO 13008KT 10SM CLR 16/10 A3007 890 69 1200 130/08 RMK AO2 SLP189 T01560100 10222 20156 402330044 53001
14926KSTC STC20000606235509806/06/00 23:55:31  5-MIN KSTC 070555Z AUTO 14008KT 10SM CLR 16/10 A3007 890 69 1200 130/08 RMK AO2
14926KSTC STC20000607000009806/07/00 00:00:31  5-MIN KSTC 070600Z AUTO 14008KT 10SM CLR 16/10 A3007 890 69 1200 140/08 RMK AO2
14926KSTC STC20000607000509806/07/00 00:05:31  5-MIN KSTC 070605Z AUTO 14007KT 10SM CLR 15/10 A3007 890 72 1100 140/07 RMK AO2
14926KSTC STC20000607001009806/07/00 00:10:31  5-MIN KSTC 070610Z AUTO 15006KT 10SM CLR 15/10 A3007 890 72 1100 150/06 RMK AO2
14926KSTC STC20000607001509806/07/00 00:15:31  5-MIN KSTC 070615Z AUTO 15007KT 10SM CLR 14/10 A3007 890 74 1100 150/07 RMK AO2
14926KSTC STC20000607002009806/07/00 00:20:31  5-MIN KSTC 070620Z AUTO 15007KT 10SM CLR 14/10 A3007 890 74 1100 150/07 RMK AO2
14926KSTC STC20000607002509806/07/00 00:25:31  5-MIN KSTC 070625Z AUTO 15006KT 10SM CLR 14/10 A3007 890 74 1100 150/06 RMK AO2
14926KSTC STC20000607003009806/07/00 00:30:31  5-MIN KSTC 070630Z AUTO 15007KT 10SM CLR 14/10 A3007 890 74 1100 150/07 RMK AO2
14926KSTC STC20000607003509806/07/00 00:35:31  5-MIN KSTC 070635Z AUTO 15006KT 10SM CLR 14/10 A3006 890 74 1100 150/06 RMK AO2
14926KSTC STC20000607004009806/07/00 00:40:31  5-MIN KSTC 070640Z AUTO 15006KT 10SM CLR 14/10 A3006 890 74 1100 140/06 RMK AO2
14926KSTC STC20000607004509806/07/00 00:45:31  5-MIN KSTC 070645Z AUTO 15006KT 10SM CLR 14/10 A3006 900 74 1100 140/06 RMK AO2
14926KSTC STC20000607005011506/07/00 00:50:31  5-MIN KSTC 070650Z AUTO 15006KT 10SM CLR 14/10 A3006 900 74 1100 150/06 RMK AO2 SLP185 T01440100
14926KSTC STC20000607005509806/07/00 00:55:31  5-MIN KSTC 070655Z AUTO 15006KT 10SM CLR 14/11 A3005 900 80 1000 150/06 RMK AO2
14926KSTC STC20000607010009806/07/00 01:00:31  5-MIN KSTC 070700Z AUTO 15005KT 10SM CLR 14/11 A3005 900 80 1000 150/05 RMK AO2
14926KSTC STC20000607010509806/07/00 01:05:31  5-MIN KSTC 070705Z AUTO 15005KT 10SM CLR 14/11 A3005 900 80 1000 140/05 RMK AO2
14926KSTC STC20000607011009806/07/00 01:10:31  5-MIN KSTC 070710Z AUTO 14005KT 10SM CLR 14/11 A3005 910 77 1100 140/05 RMK AO2
14926KSTC STC20000607011509806/07/00 01:15:31  5-MIN KSTC 070715Z AUTO 14006KT 10SM CLR 14/10 A3005 910 74 1100 140/06 RMK AO2
14926KSTC STC20000607012009806/07/00 01:20:31  5-MIN KSTC 070720Z AUTO 15006KT 10SM CLR 14/10 A3005 910 74 1100 140/06 RMK AO2
14926KSTC STC20000607012509806/07/00 01:25:31  5-MIN KSTC 070725Z AUTO 14006KT 10SM CLR 14/10 A3005 910 74 1100 140/06 RMK AO2
14926KSTC STC20000607013009806/07/00 01:30:31  5-MIN KSTC 070730Z AUTO 15005KT 10SM CLR 14/10 A3005 910 77 1000 140/05 RMK AO2
14926KSTC STC20000607013509806/07/00 01:35:31  5-MIN KSTC 070735Z AUTO 14005KT 10SM CLR 14/11 A3005 910 80 1000 140/05 RMK AO2
14926KSTC STC20000607014009806/07/00 01:40:31  5-MIN KSTC 070740Z AUTO 14005KT 10SM CLR 14/11 A3005 910 80 1000 140/05 RMK AO2
14926KSTC STC20000607014509806/07/00 01:45:31  5-MIN KSTC 070745Z AUTO 14005KT 10SM CLR 14/10 A3004 910 77 1000 140/05 RMK AO2
14926KSTC STC20000607015011506/07/00 01:50:31  5-MIN KSTC 070750Z AUTO 14006KT 10SM CLR 14/10 A3004 920 74 1100 140/06 RMK AO2 SLP180 T01440100
14926KSTC STC20000607015509806/07/00 01:55:31  5-MIN KSTC 070755Z AUTO 14005KT 10SM CLR 14/10 A3004 920 74 1100 140/05 RMK AO2
14926KSTC STC20000607020009806/07/00 02:00:31  5-MIN KSTC 070800Z AUTO 15006KT 10SM CLR 14/10 A3004 920 77 1000 140/06 RMK AO2
14926KSTC STC20000607020509806/07/00 02:05:31  5-MIN KSTC 070805Z AUTO 15006KT 10SM CLR 14/10 A3004 920 77 1000 150/06 RMK AO2
14926KSTC STC20000607021009806/07/00 02:10:31  5-MIN KSTC 070810Z AUTO 15007KT 10SM CLR 14/10 A3004 920 77 1000 150/07 RMK AO2
14926KSTC STC20000607021509806/07/00 02:15:31  5-MIN KSTC 070815Z AUTO 15007KT 10SM CLR 14/10 A3003 920 77 1000 150/07 RMK AO2
14926KSTC STC20000607022009806/07/00 02:20:31  5-MIN KSTC 070820Z AUTO 15006KT 10SM CLR 14/10 A3004 920 74 1100 150/06 RMK AO2
14926KSTC STC20000607022509806/07/00 02:25:31  5-MIN KSTC 070825Z AUTO 15005KT 10SM CLR 14/10 A3004 920 77 1000 150/05 RMK AO2
14926KSTC STC20000607023009806/07/00 02:30:31  5-MIN KSTC 070830Z AUTO 15006KT 10SM CLR 14/10 A3004 920 74 1100 150/06 RMK AO2
14926KSTC STC20000607023509806/07/00 02:35:31  5-MIN KSTC 070835Z AUTO 15006KT 10SM CLR 14/10 A3004 920 77 1000 140/06 RMK AO2
14926KSTC STC20000607024009806/07/00 02:40:31  5-MIN KSTC 070840Z AUTO 14005KT 10SM CLR 14/10 A3004 920 74 1100 140/05 RMK AO2
14926KSTC STC20000607024509806/07/00 02:45:31  5-MIN KSTC 070845Z AUTO 14005KT 10SM CLR 14/10 A3004 920 74 1100 140/05 RMK AO2
14926KSTC STC20000607025012106/07/00 02:50:31  5-MIN KSTC 070850Z AUTO 15005KT 10SM CLR 14/10 A3004 920 74 1100 140/05 RMK AO2 SLP178 T01440100 58013
14926KSTC STC20000607025509806/07/00 02:55:31  5-MIN KSTC 070855Z AUTO 14005KT 10SM CLR 14/10 A3004 920 74 1100 140/05 RMK AO2
14926KSTC STC20000607030009806/07/00 03:00:31  5-MIN KSTC 070900Z AUTO 14005KT 10SM CLR 14/10 A3003 920 74 1100 140/05 RMK AO2
14926KSTC STC20000607030509806/07/00 03:05:31  5-MIN KSTC 070905Z AUTO 14005KT 10SM CLR 14/10 A3003 920 74 1100 140/05 RMK AO2
14926KSTC STC20000607031010106/07/00 03:10:31  5-MIN KSTC 070910Z AUTO 15005KT 10SM FEW110 14/10 A3003 930 74 1100 150/05 RMK AO2
14926KSTC STC20000607031510106/07/00 03:15:31  5-MIN KSTC 070915Z AUTO 15006KT 10SM FEW110 14/10 A3003 930 77 1100 150/06 RMK AO2
14926KSTC STC20000607032010106/07/00 03:20:31  5-MIN KSTC 070920Z AUTO 15006KT 10SM FEW110 14/10 A3003 930 77 1100 150/06 RMK AO2
14926KSTC STC20000607032510106/07/00 03:25:31  5-MIN KSTC 070925Z AUTO 15006KT 10SM FEW110 14/11 A3003 930 80 1100 150/06 RMK AO2
14926KSTC STC20000607033010106/07/00 03:30:31  5-MIN KSTC 070930Z AUTO 15006KT 10SM FEW110 14/10 A3003 930 77 1100 150/06 RMK AO2
14926KSTC STC20000607033510106/07/00 03:35:31  5-MIN KSTC 070935Z AUTO 15006KT 10SM FEW110 14/11 A3003 930 80 1100 150/06 RMK AO2
14926KSTC STC20000607034009806/07/00 03:40:31  5-MIN KSTC 070940Z AUTO 15006KT 10SM CLR 14/11 A3003 930 80 1100 150/06 RMK AO2
14926KSTC STC20000607034509806/07/00 03:45:31  5-MIN KSTC 070945Z AUTO 15007KT 10SM CLR 14/11 A3002 930 80 1100 150/07 RMK AO2
14926KSTC STC20000607035011506/07/00 03:50:31  5-MIN KSTC 070950Z AUTO 15006KT 10SM CLR 14/11 A3002 930 80 1100 140/06 RMK AO2 SLP173 T01390106
14926KSTC STC20000607035509806/07/00 03:55:31  5-MIN KSTC 070955Z AUTO 15007KT 10SM CLR 14/11 A3002 930 77 1100 140/07 RMK AO2
14926KSTC STC20000607040009806/07/00 04:00:31  5-MIN KSTC 071000Z AUTO 15007KT 10SM CLR 14/11 A3002 930 77 1100 150/07 RMK AO2
14926KSTC STC20000607040509806/07/00 04:05:31  5-MIN KSTC 071005Z AUTO 15007KT 10SM CLR 14/11 A3002 930 77 1100 140/07 RMK AO2
14926KSTC STC20000607041009806/07/00 04:10:31  5-MIN KSTC 071010Z AUTO 15007KT 10SM CLR 14/11 A3002 940 77 1100 150/07 RMK AO2
14926KSTC STC20000607041509806/07/00 04:15:31  5-MIN KSTC 071015Z AUTO 15008KT 10SM CLR 14/11 A3001 940 80 1100 150/08 RMK AO2
14926KSTC STC20000607042009806/07/00 04:20:31  5-MIN KSTC 071020Z AUTO 15008KT 10SM CLR 14/11 A3001 940 77 1100 150/08 RMK AO2
14926KSTC STC20000607042509806/07/00 04:25:31  5-MIN KSTC 071025Z AUTO 15008KT 10SM CLR 14/11 A3001 940 77 1100 150/08 RMK AO2
14926KSTC STC20000607043009806/07/00 04:30:31  5-MIN KSTC 071030Z AUTO 15007KT 10SM CLR 14/11 A3001 940 77 1100 150/07 RMK AO2
14926KSTC STC20000607043509806/07/00 04:35:31  5-MIN KSTC 071035Z AUTO 16008KT 10SM CLR 14/11 A3001 940 77 1100 150/08 RMK AO2
14926KSTC STC20000607044009806/07/00 04:40:31  5-MIN KSTC 071040Z AUTO 16008KT 10SM CLR 14/10 A3001 940 74 1100 150/08 RMK AO2
14926KSTC STC20000607044509806/07/00 04:45:31  5-MIN KSTC 071045Z AUTO 16007KT 10SM CLR 14/11 A3001 940 77 1100 150/07 RMK AO2
14926KSTC STC20000607045011506/07/00 04:50:31  5-MIN KSTC 071050Z AUTO 16007KT 10SM CLR 14/11 A3001 940 77 1100 150/07 RMK AO2 SLP169 T01440106
14926KSTC STC20000607045509806/07/00 04:55:31  5-MIN KSTC 071055Z AUTO 16007KT 10SM CLR 14/11 A3001 940 77 1100 160/07 RMK AO2
14926KSTC STC20000607050009806/07/00 05:00:31  5-MIN KSTC 071100Z AUTO 16008KT 10SM CLR 14/11 A3001 950 77 1100 160/08 RMK AO2
14926KSTC STC20000607050509806/07/00 05:05:31  5-MIN KSTC 071105Z AUTO 16008KT 10SM CLR 14/11 A3000 950 77 1100 150/08 RMK AO2
14926KSTC STC20000607051009806/07/00 05:10:31  5-MIN KSTC 071110Z AUTO 16007KT 10SM CLR 14/11 A3000 950 77 1100 160/07 RMK AO2
14926KSTC STC20000607051509806/07/00 05:15:31  5-MIN KSTC 071115Z AUTO 16007KT 10SM CLR 14/11 A3000 950 77 1100 160/07 RMK AO2
14926KSTC STC20000607052010106/07/00 05:20:31  5-MIN KSTC 071120Z AUTO 16007KT 10SM FEW075 14/11 A3000 950 77 1100 160/07 RMK AO2
14926KSTC STC20000607052510106/07/00 05:25:31  5-MIN KSTC 071125Z AUTO 16009KT 10SM SCT075 15/11 A3000 950 74 1200 160/09 RMK AO2
14926KSTC STC20000607053010106/07/00 05:30:31  5-MIN KSTC 071130Z AUTO 16008KT 10SM BKN075 15/11 A3000 950 74 1200 160/08 RMK AO2
14926KSTC STC20000607053510106/07/00 05:35:31  5-MIN KSTC 071135Z AUTO 16008KT 10SM BKN075 15/11 A3000 950 74 1200 160/08 RMK AO2
14926KSTC STC20000607054010106/07/00 05:40:31  5-MIN KSTC 071140Z AUTO 16008KT 10SM BKN075 15/11 A3000 960 74 1200 160/08 RMK AO2
14926KSTC STC20000607054510106/07/00 05:45:31  5-MIN KSTC 071145Z AUTO 16007KT 10SM BKN075 16/11 A2999 960 72 1300 160/07 RMK AO2
14926KSTC STC20000607055013606/07/00 05:50:31  5-MIN KSTC 071150Z AUTO 17008KT 10SM OVC075 16/11 A2999 960 72 1300 160/08 RMK AO2 SLP163 T01560106 10156 20139 56010
14926KSTC STC20000607055510106/07/00 05:55:31  5-MIN KSTC 071155Z AUTO 17007KT 10SM OVC075 16/11 A3000 960 72 1300 160/07 RMK AO2
14926KSTC STC20000607060010106/07/00 06:00:31  5-MIN KSTC 071200Z AUTO 16008KT 10SM OVC075 16/11 A2999 960 72 1300 160/08 RMK AO2
14926KSTC STC20000607060510106/07/00 06:05:31  5-MIN KSTC 071205Z AUTO 16009KT 10SM OVC070 16/11 A2999 970 72 1300 150/09 RMK AO2
14926KSTC STC20000607061010106/07/00 06:10:31  5-MIN KSTC 071210Z AUTO 15010KT 10SM OVC075 16/11 A2998 970 72 1300 150/10 RMK AO2
14926KSTC STC20000607061510106/07/00 06:15:31  5-MIN KSTC 071215Z AUTO 16009KT 10SM OVC075 16/11 A2998 970 69 1400 150/09 RMK AO2
14926KSTC STC20000607062010106/07/00 06:20:31  5-MIN KSTC 071220Z AUTO 16008KT 10SM OVC075 16/11 A2999 970 69 1400 160/08 RMK AO2
14926KSTC STC20000607062510106/07/00 06:25:31  5-MIN KSTC 071225Z AUTO 16010KT 10SM OVC075 16/11 A2998 970 72 1400 160/10 RMK AO2
14926KSTC STC20000607063010106/07/00 06:30:31  5-MIN KSTC 071230Z AUTO 17009KT 10SM OVC075 16/11 A2998 970 69 1400 160/09 RMK AO2
14926KSTC STC20000607063510806/07/00 06:35:31  5-MIN KSTC 071235Z AUTO 16010KT 10SM BKN075 OVC110 17/11 A2998 980 67 1400 160/10 RMK AO2
14926KSTC STC20000607064010806/07/00 06:40:31  5-MIN KSTC 071240Z AUTO 16011KT 10SM BKN075 BKN110 17/11 A2997 980 67 1400 160/11 RMK AO2
14926KSTC STC20000607064510806/07/00 06:45:31  5-MIN KSTC 071245Z AUTO 16010KT 10SM SCT075 BKN110 17/11 A2997 980 69 1400 160/10 RMK AO2
14926KSTC STC20000607065012506/07/00 06:50:31  5-MIN KSTC 071250Z AUTO 17011KT 10SM SCT070 BKN100 17/11 A2997 980 67 1400 160/11 RMK AO2 SLP153 T01670106
14926KSTC STC20000607065510806/07/00 06:55:31  5-MIN KSTC 071255Z AUTO 16012KT 10SM FEW070 BKN100 17/11 A2996 990 67 1400 160/12 RMK AO2
14926KSTC STC20000607070010106/07/00 07:00:31  5-MIN KSTC 071300Z AUTO 17011KT 10SM BKN100 17/11 A2996 990 64 1500 160/11 RMK AO2
14926KSTC STC20000607070510106/07/00 07:05:31  5-MIN KSTC 071305Z AUTO 17012KT 10SM BKN100 17/11 A2996 990 67 1500 170/12 RMK AO2
14926KSTC STC20000607071010706/07/00 07:10:31  5-MIN KSTC 071310Z AUTO 17013G17KT 10SM BKN100 17/11 A2996 990 67 1500 170/13G17 RMK AO2
14926KSTC STC20000607071510806/07/00 07:15:31  5-MIN KSTC 071315Z AUTO 17012G17KT 10SM SCT095 17/11 A2995 1000 64 1500 170/12G17 RMK AO2
14926KSTC STC20000607072010806/07/00 07:20:31  5-MIN KSTC 071320Z AUTO 17013G20KT 10SM FEW095 18/11 A2995 1000 64 1600 170/13G20 RMK AO2
14926KSTC STC20000607072510806/07/00 07:25:31  5-MIN KSTC 071325Z AUTO 18011G20KT 10SM FEW100 18/11 A2995 1000 64 1600 170/11G20 RMK AO2
14926KSTC STC20000607073010206/07/00 07:30:31  5-MIN KSTC 071330Z AUTO 17014KT 10SM FEW100 18/11 A2995 1000 62 1600 170/14 RMK AO2
14926KSTC STC20000607073510206/07/00 07:35:31  5-MIN KSTC 071335Z AUTO 18012KT 10SM FEW095 18/11 A2995 1000 62 1600 170/12 RMK AO2
14926KSTC STC20000607074010206/07/00 07:40:31  5-MIN KSTC 071340Z AUTO 18012KT 10SM SCT095 18/11 A2995 1000 60 1700 180/12 RMK AO2
14926KSTC STC20000607074510206/07/00 07:45:31  5-MIN KSTC 071345Z AUTO 17012KT 10SM SCT095 18/11 A2994 1010 62 1700 170/12 RMK AO2
14926KSTC STC20000607075011906/07/00 07:50:31  5-MIN KSTC 071350Z AUTO 17014KT 10SM SCT095 19/11 A2994 1010 60 1700 170/14 RMK AO2 SLP145 T01890111
14926KSTC STC20000607075510206/07/00 07:55:31  5-MIN KSTC 071355Z AUTO 17014KT 10SM BKN090 19/11 A2994 1010 60 1700 170/14 RMK AO2
14926KSTC STC20000607080010806/07/00 08:00:31  5-MIN KSTC 071400Z AUTO 17013G20KT 10SM BKN090 19/11 A2993 1010 58 1700 170/13G20 RMK AO2
14926KSTC STC20000607080510206/07/00 08:05:31  5-MIN KSTC 071405Z AUTO 17012KT 10SM BKN090 19/11 A2993 1010 60 1700 170/12 RMK AO2
14926KSTC STC20000607081010206/07/00 08:10:31  5-MIN KSTC 071410Z AUTO 17015KT 10SM BKN090 19/11 A2993 1010 60 1700 160/15 RMK AO2
14926KSTC STC20000607081510906/07/00 08:15:31  5-MIN KSTC 071415Z AUTO 17013KT 10SM SCT075 BKN090 19/11 A2993 1010 60 1700 170/13 RMK AO2
14926KSTC STC20000607082010906/07/00 08:20:31  5-MIN KSTC 071420Z AUTO 18011KT 10SM BKN075 OVC090 19/11 A2993 1010 60 1700 170/11 RMK AO2
14926KSTC STC20000607082510906/07/00 08:25:31  5-MIN KSTC 071425Z AUTO 17014KT 10SM BKN075 OVC090 19/11 A2994 1010 60 1700 160/14 RMK AO2
14926KSTC STC20000607083010906/07/00 08:30:31  5-MIN KSTC 071430Z AUTO 17011KT 10SM BKN075 OVC090 19/11 A2993 1010 60 1700 160/11 RMK AO2
14926KSTC STC20000607083510206/07/00 08:35:31  5-MIN KSTC 071435Z AUTO 17013KT 10SM OVC075 19/11 A2993 1020 58 1700 170/13 RMK AO2
14926KSTC STC20000607084010206/07/00 08:40:31  5-MIN KSTC 071440Z AUTO 17012KT 10SM OVC075 19/11 A2993 1020 60 1800 170/12 RMK AO2
14926KSTC STC20000607084510206/07/00 08:45:31  5-MIN KSTC 071445Z AUTO 17013KT 10SM OVC075 19/11 A2992 1020 60 1800 170/13 RMK AO2
14926KSTC STC20000607085013206/07/00 08:50:31  5-MIN KSTC 071450Z AUTO 17011KT 10SM FEW055 OVC075 19/11 A2992 1030 58 1800 170/11 RMK AO2 SLP138 T01940111 57014
14926KSTC STC20000607085510906/07/00 08:55:31  5-MIN KSTC 071455Z AUTO 17011KT 10SM SCT055 OVC075 19/11 A2992 1030 58 1800 170/11 RMK AO2
14926KSTC STC20000607090010906/07/00 09:00:31  5-MIN KSTC 071500Z AUTO 17014KT 10SM BKN055 OVC075 19/11 A2991 1030 58 1800 170/14 RMK AO2
14926KSTC STC20000607090510906/07/00 09:05:31  5-MIN KSTC 071505Z AUTO 16013KT 10SM SCT060 BKN075 19/11 A2991 1030 58 1800 160/13 RMK AO2
14926KSTC STC20000607091010906/07/00 09:10:31  5-MIN KSTC 071510Z AUTO 18011KT 10SM SCT060 BKN075 20/11 A2991 1030 56 1900 180/11 RMK AO2
14926KSTC STC20000607091510906/07/00 09:15:31  5-MIN KSTC 071515Z AUTO 17014KT 10SM SCT055 BKN070 21/12 A2991 1040 54 2000 170/14 RMK AO2
14926KSTC STC20000607092010906/07/00 09:20:31  5-MIN KSTC 071520Z AUTO 18012KT 10SM FEW055 SCT075 21/12 A2991 1040 54 2000 180/12 RMK AO2
14926KSTC STC20000607112510506/07/00 11:25:31  5-MIN KSTC 071725Z AUTO 19012G18KT 10SM CLR 23/12 A2987 1080 49 2300 190/12G18 RMK AO2
14926KSTC STC20000607113010506/07/00 11:30:31  5-MIN KSTC 071730Z AUTO 18012G18KT 10SM CLR 24/12 A2987 1080 47 2400 180/12G18 RMK AO2
14926KSTC STC20000607113510506/07/00 11:35:31  5-MIN KSTC 071735Z AUTO 18014G18KT 10SM CLR 24/12 A2986 1080 47 2400 180/14G18 RMK AO2
14926KSTC STC20000607114010506/07/00 11:40:31  5-MIN KSTC 071740Z AUTO 18012G18KT 10SM CLR 24/12 A2986 1080 47 2400 180/12G18 RMK AO2
14926KSTC STC20000607114509906/07/00 11:45:31  5-MIN KSTC 071745Z AUTO 17014KT 10SM CLR 24/13 A2986 1080 47 2500 170/14 RMK AO2
14926KSTC STC20000607115014006/07/00 11:50:31  5-MIN KSTC 071750Z AUTO 18015G21KT 10SM CLR 24/12 A2986 1080 46 2500 180/15G21 RMK AO2 SLP116 T02440122 10250 20156 56024
14926KSTC STC20000607115510506/07/00 11:55:31  5-MIN KSTC 071755Z AUTO 18013G21KT 10SM CLR 24/12 A2986 1080 46 2500 180/13G21 RMK AO2
14926KSTC STC20000607120010206/07/00 12:00:31  5-MIN KSTC 071800Z AUTO 18010KT 10SM FEW043 24/13 A2986 1090 49 2400 180/10 RMK AO2
14926KSTC STC20000607120510206/07/00 12:05:31  5-MIN KSTC 071805Z AUTO 18013KT 10SM FEW043 24/13 A2985 1090 47 2500 180/13 RMK AO2
14926KSTC STC20000607121010206/07/00 12:10:31  5-MIN KSTC 071810Z AUTO 16013KT 10SM FEW043 25/13 A2985 1090 46 2500 160/13 RMK AO2
14926KSTC STC20000607121510806/07/00 12:15:31  5-MIN KSTC 071815Z AUTO 19013G21KT 10SM FEW043 25/13 A2985 1090 46 2500 190/13G21 RMK AO2
14926KSTC STC20000607122010806/07/00 12:20:31  5-MIN KSTC 071820Z AUTO 17014G21KT 10SM FEW043 25/13 A2984 1100 46 2500 160/14G21 RMK AO2
14926KSTC STC20000607122510806/07/00 12:25:31  5-MIN KSTC 071825Z AUTO 17013G20KT 10SM FEW043 26/13 A2984 1100 44 2600 170/13G20 RMK AO2
14926KSTC STC20000607123009906/07/00 12:30:31  5-MIN KSTC 071830Z AUTO 19014KT 10SM CLR 26/13 A2983 1110 44 2600 190/14 RMK AO2
14926KSTC STC20000607123510806/07/00 12:35:31  5-MIN KSTC 071835Z AUTO 18015G20KT 10SM FEW045 26/13 A2983 1110 46 2600 180/15G20 RMK AO2
14926KSTC STC20000607124010506/07/00 12:40:31  5-MIN KSTC 071840Z AUTO 21011G20KT 10SM CLR 26/13 A2983 1110 46 2600 200/11G20 RMK AO2
14926KSTC STC20000607124509906/07/00 12:45:31  5-MIN KSTC 071845Z AUTO 19013KT 10SM CLR 26/13 A2982 1120 46 2600 190/13 RMK AO2
14926KSTC STC20000607125011606/07/00 12:50:31  5-MIN KSTC 071850Z AUTO 18012KT 10SM CLR 26/13 A2982 1120 46 2600 180/12 RMK AO2 SLP103 T02560133
14926KSTC STC20000607125509906/07/00 12:55:31  5-MIN KSTC 071855Z AUTO 17014KT 10SM CLR 26/13 A2982 1120 46 2600 170/14 RMK AO2
14926KSTC STC20000607130010506/07/00 13:00:31  5-MIN KSTC 071900Z AUTO 19015G19KT 10SM CLR 26/13 A2982 1120 44 2700 190/15G19 RMK AO2
14926KSTC STC20000607130510506/07/00 13:05:31  5-MIN KSTC 071905Z AUTO 18014G19KT 10SM CLR 27/13 A2982 1120 43 2800 180/14G19 RMK AO2
14926KSTC STC20000607131009906/07/00 13:10:31  5-MIN KSTC 071910Z AUTO 19013KT 10SM CLR 26/13 A2982 1120 44 2700 180/13 RMK AO2
14926KSTC STC20000607131510506/07/00 13:15:31  5-MIN KSTC 071915Z AUTO 20013G19KT 10SM CLR 27/13 A2982 1120 42 2800 200/13G19 RMK AO2
14926KSTC STC20000607132010506/07/00 13:20:31  5-MIN KSTC 071920Z AUTO 22016G21KT 10SM CLR 27/13 A2982 1120 42 2800 220/16G21 RMK AO2
14926KSTC STC20000607132510506/07/00 13:25:31  5-MIN KSTC 071925Z AUTO 22012G21KT 10SM CLR 27/13 A2982 1120 43 2800 210/12G21 RMK AO2
14926KSTC STC20000607133010506/07/00 13:30:31  5-MIN KSTC 071930Z AUTO 19014G20KT 10SM CLR 26/13 A2982 1120 44 2700 190/14G20 RMK AO2
14926KSTC STC20000607133509906/07/00 13:35:31  5-MIN KSTC 071935Z AUTO 20016KT 10SM CLR 26/13 A2981 1120 44 2700 200/16 RMK AO2
14926KSTC STC20000607134009906/07/00 13:40:31  5-MIN KSTC 071940Z AUTO 19013KT 10SM CLR 27/13 A2981 1130 43 2800 190/13 RMK AO2
14926KSTC STC20000607134510506/07/00 13:45:31  5-MIN KSTC 071945Z AUTO 19012G19KT 10SM CLR 27/13 A2981 1130 42 2800 190/12G19 RMK AO2
14926KSTC STC20000607135012206/07/00 13:50:31  5-MIN KSTC 071950Z AUTO 20013G19KT 10SM CLR 28/14 A2981 1130 42 2900 200/13G19 RMK AO2 SLP098 T02780139
14926KSTC STC20000607135509906/07/00 13:55:31  5-MIN KSTC 071955Z AUTO 19012KT 10SM CLR 27/13 A2981 1130 42 2800 190/12 RMK AO2
14926KSTC STC20000607140010506/07/00 14:00:31  5-MIN KSTC 072000Z AUTO 19014G19KT 10SM CLR 27/13 A2981 1130 42 2800 190/14G19 RMK AO2
14926KSTC STC20000607140510506/07/00 14:05:31  5-MIN KSTC 072005Z AUTO 19012G19KT 10SM CLR 27/13 A2980 1130 42 2800 180/12G19 RMK AO2
14926KSTC STC20000607141009906/07/00 14:10:31  5-MIN KSTC 072010Z AUTO 20012KT 10SM CLR 28/14 A2981 1130 42 2900 190/12 RMK AO2
14926KSTC STC20000607141509906/07/00 14:15:31  5-MIN KSTC 072015Z AUTO 21008KT 10SM CLR 28/14 A2980 1130 42 2900 200/08 RMK AO2
14926KSTC STC20000607142009906/07/00 14:20:31  5-MIN KSTC 072020Z AUTO 22013KT 10SM CLR 28/14 A2980 1130 42 2900 220/13 RMK AO2
14926KSTC STC20000607142509906/07/00 14:25:31  5-MIN KSTC 072025Z AUTO 21013KT 10SM CLR 28/14 A2980 1140 42 3000 210/13 RMK AO2
14926KSTC STC20000607143010506/07/00 14:30:31  5-MIN KSTC 072030Z AUTO 20016G20KT 10SM CLR 28/14 A2980 1140 40 3000 190/16G20 RMK AO2
14926KSTC STC20000607143510506/07/00 14:35:31  5-MIN KSTC 072035Z AUTO 21013G20KT 10SM CLR 28/14 A2980 1140 40 3000 210/13G20 RMK AO2
14926KSTC STC20000607144009906/07/00 14:40:31  5-MIN KSTC 072040Z AUTO 21011KT 10SM CLR 28/14 A2980 1140 40 3000 200/11 RMK AO2
14926KSTC STC20000607144510506/07/00 14:45:31  5-MIN KSTC 072045Z AUTO 23009G16KT 10SM CLR 28/14 A2979 1140 42 3000 230/09G16 RMK AO2
14926KSTC STC20000607145012206/07/00 14:50:31  5-MIN KSTC 072050Z AUTO 22010KT 10SM CLR 28/14 A2979 1140 42 3000 220/10 RMK AO2 SLP093 T02830144 56021
14926KSTC STC20000607145509906/07/00 14:55:31  5-MIN KSTC 072055Z AUTO 24013KT 10SM CLR 29/14 A2979 1140 40 3000 240/13 RMK AO2
14926KSTC STC20000607150009906/07/00 15:00:31  5-MIN KSTC 072100Z AUTO 23014KT 10SM CLR 29/14 A2979 1140 39 3000 230/14 RMK AO2
14926KSTC STC20000607150510506/07/00 15:05:31  5-MIN KSTC 072105Z AUTO 24008G18KT 10SM CLR 28/14 A2979 1150 40 3000 240/08G18 RMK AO2
14926KSTC STC20000607151010506/07/00 15:10:31  5-MIN KSTC 072110Z AUTO 22011G16KT 10SM CLR 29/14 A2979 1150 40 3000 210/11G16 RMK AO2
14926KSTC STC20000607151510506/07/00 15:15:31  5-MIN KSTC 072115Z AUTO 23012G16KT 10SM CLR 29/14 A2979 1150 40 3000 230/12G16 RMK AO2
14926KSTC STC20000607152009906/07/00 15:20:31  5-MIN KSTC 072120Z AUTO 22010KT 10SM CLR 29/14 A2979 1150 40 3000 220/10 RMK AO2
14926KSTC STC20000607152509906/07/00 15:25:31  5-MIN KSTC 072125Z AUTO 24012KT 10SM CLR 29/14 A2979 1150 39 3100 240/12 RMK AO2
14926KSTC STC20000607153009906/07/00 15:30:31  5-MIN KSTC 072130Z AUTO 22009KT 10SM CLR 29/14 A2979 1150 40 3000 210/09 RMK AO2
14926KSTC STC20000607153510506/07/00 15:35:31  5-MIN KSTC 072135Z AUTO 23011G15KT 10SM CLR 29/14 A2979 1150 39 3100 220/11G15 RMK AO2
14926KSTC STC20000607154009906/07/00 15:40:31  5-MIN KSTC 072140Z AUTO 24012KT 10SM CLR 29/14 A2978 1150 39 3100 240/12 RMK AO2
14926KSTC STC20000607154509906/07/00 15:45:31  5-MIN KSTC 072145Z AUTO 22011KT 10SM CLR 29/14 A2978 1150 40 3000 220/11 RMK AO2
14926KSTC STC20000607155011606/07/00 15:50:31  5-MIN KSTC 072150Z AUTO 22011KT 10SM CLR 29/14 A2978 1150 39 3100 220/11 RMK AO2 SLP089 T02940144
14926KSTC STC20000607155509906/07/00 15:55:31  5-MIN KSTC 072155Z AUTO 25011KT 10SM CLR 29/15 A2978 1150 41 3100 250/11 RMK AO2
14926KSTC STC20000607160011506/07/00 16:00:31  5-MIN KSTC 072200Z AUTO 25011KT 210V280 10SM CLR 29/14 A2978 1160 39 3100 250/11 210V280 RMK AO2
14926KSTC STC20000607160509906/07/00 16:05:31  5-MIN KSTC 072205Z AUTO 25011KT 10SM CLR 30/15 A2978 1160 39 3200 250/11 RMK AO2
14926KSTC STC20000607161009906/07/00 16:10:31  5-MIN KSTC 072210Z AUTO 25009KT 10SM CLR 29/14 A2978 1160 39 3100 250/09 RMK AO2
14926KSTC STC20000607161509906/07/00 16:15:31  5-MIN KSTC 072215Z AUTO 25010KT 10SM CLR 29/14 A2978 1160 39 3100 250/10 RMK AO2
14926KSTC STC20000607162009906/07/00 16:20:31  5-MIN KSTC 072220Z AUTO 23010KT 10SM CLR 29/14 A2978 1160 39 3100 220/10 RMK AO2
14926KSTC STC20000607162509906/07/00 16:25:31  5-MIN KSTC 072225Z AUTO 23012KT 10SM CLR 29/14 A2977 1160 39 3100 230/12 RMK AO2
14926KSTC STC20000607163009906/07/00 16:30:31  5-MIN KSTC 072230Z AUTO 24008KT 10SM CLR 29/15 A2977 1160 41 3100 240/08 RMK AO2
14926KSTC STC20000607163509906/07/00 16:35:31  5-MIN KSTC 072235Z AUTO 22008KT 10SM CLR 29/15 A2977 1160 41 3100 220/08 RMK AO2
14926KSTC STC20000607164009906/07/00 16:40:31  5-MIN KSTC 072240Z AUTO 26010KT 10SM CLR 29/15 A2977 1160 41 3100 260/10 RMK AO2
14926KSTC STC20000607164509906/07/00 16:45:31  5-MIN KSTC 072245Z AUTO 26010KT 10SM CLR 29/15 A2977 1160 41 3100 260/10 RMK AO2
14926KSTC STC20000607165011606/07/00 16:50:31  5-MIN KSTC 072250Z AUTO 24010KT 10SM CLR 29/15 A2977 1160 41 3100 240/10 RMK AO2 SLP084 T02940150
14926KSTC STC20000607165509906/07/00 16:55:31  5-MIN KSTC 072255Z AUTO 24010KT 10SM CLR 29/14 A2977 1170 39 3100 240/10 RMK AO2
14926KSTC STC20000607170009906/07/00 17:00:31  5-MIN KSTC 072300Z AUTO 25011KT 10SM CLR 29/15 A2977 1170 41 3100 250/11 RMK AO2
14926KSTC STC20000607170509906/07/00 17:05:31  5-MIN KSTC 072305Z AUTO 25010KT 10SM CLR 29/14 A2977 1170 39 3100 250/10 RMK AO2
14926KSTC STC20000607171009906/07/00 17:10:31  5-MIN KSTC 072310Z AUTO 26008KT 10SM CLR 29/15 A2976 1170 41 3100 260/08 RMK AO2
14926KSTC STC20000607171509906/07/00 17:15:31  5-MIN KSTC 072315Z AUTO 26010KT 10SM CLR 29/15 A2976 1170 41 3100 260/10 RMK AO2
14926KSTC STC20000607172009906/07/00 17:20:31  5-MIN KSTC 072320Z AUTO 26011KT 10SM CLR 29/15 A2976 1170 41 3100 250/11 RMK AO2
14926KSTC STC20000607172509906/07/00 17:25:31  5-MIN KSTC 072325Z AUTO 26010KT 10SM CLR 29/15 A2976 1170 41 3100 250/10 RMK AO2
14926KSTC STC20000607173009906/07/00 17:30:31  5-MIN KSTC 072330Z AUTO 25011KT 10SM CLR 29/15 A2977 1170 41 3100 240/11 RMK AO2
14926KSTC STC20000607173509906/07/00 17:35:31  5-MIN KSTC 072335Z AUTO 25011KT 10SM CLR 29/15 A2977 1170 41 3100 250/11 RMK AO2
14926KSTC STC20000607174009906/07/00 17:40:31  5-MIN KSTC 072340Z AUTO 26008KT 10SM CLR 29/15 A2977 1170 41 3100 250/08 RMK AO2
14926KSTC STC20000607174509906/07/00 17:45:31  5-MIN KSTC 072345Z AUTO 26011KT 10SM CLR 29/15 A2977 1170 41 3100 260/11 RMK AO2
14926KSTC STC20000607175013406/07/00 17:50:31  5-MIN KSTC 072350Z AUTO 26009KT 10SM CLR 29/15 A2976 1170 42 3100 260/09 RMK AO2 SLP082 T02890150 10300 20239 56020
14926KSTC STC20000607175509906/07/00 17:55:31  5-MIN KSTC 072355Z AUTO 26008KT 10SM CLR 29/16 A2976 1170 42 3100 250/08 RMK AO2
14926KSTC STC20000607180009906/07/00 18:00:31  5-MIN KSTC 080000Z AUTO 26009KT 10SM CLR 29/16 A2977 1170 42 3100 260/09 RMK AO2
14926KSTC STC20000607180509906/07/00 18:05:31  5-MIN KSTC 080005Z AUTO 26007KT 10SM CLR 29/16 A2977 1170 42 3100 260/07 RMK AO2
14926KSTC STC20000607181009906/07/00 18:10:31  5-MIN KSTC 080010Z AUTO 25006KT 10SM CLR 29/16 A2977 1170 44 3100 250/06 RMK AO2
14926KSTC STC20000607181509906/07/00 18:15:31  5-MIN KSTC 080015Z AUTO 25007KT 10SM CLR 29/16 A2977 1170 45 3100 250/07 RMK AO2
14926KSTC STC20000607182009906/07/00 18:20:31  5-MIN KSTC 080020Z AUTO 26008KT 10SM CLR 29/16 A2977 1170 44 3100 260/08 RMK AO2
14926KSTC STC20000607182509906/07/00 18:25:31  5-MIN KSTC 080025Z AUTO 26007KT 10SM CLR 29/16 A2977 1170 45 3100 260/07 RMK AO2
14926KSTC STC20000607183009906/07/00 18:30:31  5-MIN KSTC 080030Z AUTO 26007KT 10SM CLR 29/16 A2977 1170 45 3100 260/07 RMK AO2
14926KSTC STC20000607183509906/07/00 18:35:31  5-MIN KSTC 080035Z AUTO 26005KT 10SM CLR 29/16 A2977 1170 45 3100 250/05 RMK AO2
14926KSTC STC20000607184009906/07/00 18:40:31  5-MIN KSTC 080040Z AUTO 25005KT 10SM CLR 29/17 A2977 1170 47 3100 250/05 RMK AO2
14926KSTC STC20000607184509906/07/00 18:45:31  5-MIN KSTC 080045Z AUTO 25005KT 10SM CLR 28/16 A2977 1170 47 3000 250/05 RMK AO2
14926KSTC STC20000607185011606/07/00 18:50:31  5-MIN KSTC 080050Z AUTO 25005KT 10SM CLR 28/16 A2977 1170 47 3000 240/05 RMK AO2 SLP083 T02830161
14926KSTC STC20000607185509906/07/00 18:55:31  5-MIN KSTC 080055Z AUTO 24004KT 10SM CLR 28/17 A2977 1170 48 3000 230/04 RMK AO2
14926KSTC STC20000607190009906/07/00 19:00:31  5-MIN KSTC 080100Z AUTO 23004KT 10SM CLR 28/17 A2977 1170 48 3000 230/04 RMK AO2
14926KSTC STC20000607190509906/07/00 19:05:31  5-MIN KSTC 080105Z AUTO 24004KT 10SM CLR 28/17 A2977 1170 50 2900 240/04 RMK AO2
14926KSTC STC20000607191009906/07/00 19:10:31  5-MIN KSTC 080110Z AUTO 00000KT 10SM CLR 28/17 A2977 1170 52 2900 000/00 RMK AO2
14926KSTC STC20000607191509906/07/00 19:15:31  5-MIN KSTC 080115Z AUTO 24003KT 10SM CLR 28/17 A2977 1170 50 2900 240/03 RMK AO2
14926KSTC STC20000607192009906/07/00 19:20:31  5-MIN KSTC 080120Z AUTO 24003KT 10SM CLR 28/17 A2977 1170 52 2900 240/03 RMK AO2
14926KSTC STC20000607192509906/07/00 19:25:31  5-MIN KSTC 080125Z AUTO 00000KT 10SM CLR 27/17 A2977 1170 54 2900 000/00 RMK AO2
14926KSTC STC20000607193009906/07/00 19:30:31  5-MIN KSTC 080130Z AUTO 00000KT 10SM CLR 27/17 A2977 1170 54 2900 000/00 RMK AO2
14926KSTC STC20000607193509906/07/00 19:35:31  5-MIN KSTC 080135Z AUTO 00000KT 10SM CLR 27/18 A2977 1170 57 2800 000/00 RMK AO2
14926KSTC STC20000607194009906/07/00 19:40:31  5-MIN KSTC 080140Z AUTO 00000KT 10SM CLR 26/18 A2977 1170 59 2800 000/00 RMK AO2
14926KSTC STC20000607194509906/07/00 19:45:31  5-MIN KSTC 080145Z AUTO 00000KT 10SM CLR 25/18 A2977 1170 66 2600 000/00 RMK AO2
14926KSTC STC20000607195011606/07/00 19:50:31  5-MIN KSTC 080150Z AUTO 00000KT 10SM CLR 24/18 A2977 1170 68 2600 000/00 RMK AO2 SLP084 T02440183
14926KSTC STC20000607195509906/07/00 19:55:31  5-MIN KSTC 080155Z AUTO 00000KT 10SM CLR 24/18 A2977 1170 66 2600 000/00 RMK AO2
14926KSTC STC20000607200009906/07/00 20:00:31  5-MIN KSTC 080200Z AUTO 00000KT 10SM CLR 24/18 A2977 1170 68 2500 000/00 RMK AO2
14926KSTC STC20000607200509906/07/00 20:05:31  5-MIN KSTC 080205Z AUTO 00000KT 10SM CLR 23/18 A2977 1160 70 2400 000/00 RMK AO2
14926KSTC STC20000607201009906/07/00 20:10:31  5-MIN KSTC 080210Z AUTO 00000KT 10SM CLR 23/18 A2977 1160 73 2400 000/00 RMK AO2
14926KSTC STC20000607201509906/07/00 20:15:31  5-MIN KSTC 080215Z AUTO 00000KT 10SM CLR 23/18 A2978 1160 76 2400 000/00 RMK AO2
14926KSTC STC20000607202009906/07/00 20:20:31  5-MIN KSTC 080220Z AUTO 32004KT 10SM CLR 23/19 A2978 1160 76 2400 320/04 RMK AO2
14926KSTC STC20000607202509906/07/00 20:25:31  5-MIN KSTC 080225Z AUTO 31003KT 10SM CLR 23/19 A2978 1160 78 2400 310/03 RMK AO2
14926KSTC STC20000607203009906/07/00 20:30:31  5-MIN KSTC 080230Z AUTO 32003KT 10SM CLR 22/17 A2978 1160 73 2300 320/03 RMK AO2
14926KSTC STC20000607203509906/07/00 20:35:31  5-MIN KSTC 080235Z AUTO 00000KT 10SM CLR 23/17 A2978 1160 70 2400 000/00 RMK AO2
14926KSTC STC20000607204009906/07/00 20:40:31  5-MIN KSTC 080240Z AUTO 00000KT 10SM CLR 22/17 A2978 1150 73 2300 000/00 RMK AO2
14926KSTC STC20000607204509906/07/00 20:45:31  5-MIN KSTC 080245Z AUTO 32003KT 10SM CLR 22/18 A2979 1150 75 2300 320/03 RMK AO2
14926KSTC STC20000607205012206/07/00 20:50:31  5-MIN KSTC 080250Z AUTO 33003KT 10SM CLR 22/18 A2979 1150 78 2200 330/03 RMK AO2 SLP091 T02170178 56010
14926KSTC STC20000607205509906/07/00 20:55:31  5-MIN KSTC 080255Z AUTO 34003KT 10SM CLR 21/17 A2979 1150 78 2200 340/03 RMK AO2
14926KSTC STC20000607210009906/07/00 21:00:31  5-MIN KSTC 080300Z AUTO 34003KT 10SM CLR 21/17 A2979 1150 78 2200 330/03 RMK AO2
14926KSTC STC20000607210509906/07/00 21:05:31  5-MIN KSTC 080305Z AUTO 00000KT 10SM CLR 21/18 A2979 1150 81 2200 000/00 RMK AO2
14926KSTC STC20000607211009906/07/00 21:10:31  5-MIN KSTC 080310Z AUTO 00000KT 10SM CLR 21/17 A2979 1140 78 2200 000/00 RMK AO2
14926KSTC STC20000607211509906/07/00 21:15:31  5-MIN KSTC 080315Z AUTO 00000KT 10SM CLR 21/17 A2980 1140 78 2200 000/00 RMK AO2
14926KSTC STC20000607212009906/07/00 21:20:31  5-MIN KSTC 080320Z AUTO 00000KT 10SM CLR 21/17 A2980 1140 81 2100 000/00 RMK AO2
14926KSTC STC20000607212509906/07/00 21:25:31  5-MIN KSTC 080325Z AUTO 00000KT 10SM CLR 21/17 A2980 1140 81 2100 000/00 RMK AO2
14926KSTC STC20000607213009906/07/00 21:30:31  5-MIN KSTC 080330Z AUTO 00000KT 10SM CLR 21/17 A2980 1140 78 2100 000/00 RMK AO2
14926KSTC STC20000607213509906/07/00 21:35:31  5-MIN KSTC 080335Z AUTO 00000KT 10SM CLR 21/17 A2980 1140 78 2100 000/00 RMK AO2
14926KSTC STC20000607214009906/07/00 21:40:31  5-MIN KSTC 080340Z AUTO 00000KT 10SM CLR 21/17 A2980 1140 78 2100 000/00 RMK AO2
14926KSTC STC20000607214509906/07/00 21:45:31  5-MIN KSTC 080345Z AUTO 00000KT 10SM CLR 20/17 A2980 1140 81 2000 000/00 RMK AO2
14926KSTC STC20000607215011606/07/00 21:50:31  5-MIN KSTC 080350Z AUTO 00000KT 10SM CLR 20/17 A2980 1140 81 2000 000/00 RMK AO2 SLP094 T02000167
14926KSTC STC20000607215509906/07/00 21:55:31  5-MIN KSTC 080355Z AUTO 00000KT 10SM CLR 20/17 A2980 1140 81 2000 000/00 RMK AO2
14926KSTC STC20000607220009906/07/00 22:00:31  5-MIN KSTC 080400Z AUTO 00000KT 10SM CLR 19/17 A2980 1140 84 2000 000/00 RMK AO2
14926KSTC STC20000607220509906/07/00 22:05:31  5-MIN KSTC 080405Z AUTO 00000KT 10SM CLR 19/17 A2980 1140 84 2000 000/00 RMK AO2
14926KSTC STC20000607221009906/07/00 22:10:31  5-MIN KSTC 080410Z AUTO 00000KT 10SM CLR 19/17 A2980 1140 87 1900 000/00 RMK AO2
14926KSTC STC20000607221509906/07/00 22:15:31  5-MIN KSTC 080415Z AUTO 00000KT 10SM CLR 19/17 A2979 1140 84 2000 000/00 RMK AO2
14926KSTC STC20000607222009906/07/00 22:20:31  5-MIN KSTC 080420Z AUTO 00000KT 10SM CLR 19/17 A2979 1140 87 1900 000/00 RMK AO2
14926KSTC STC20000607222509906/07/00 22:25:31  5-MIN KSTC 080425Z AUTO 00000KT 10SM CLR 19/16 A2979 1140 84 1900 000/00 RMK AO2
14926KSTC STC20000607223009906/07/00 22:30:31  5-MIN KSTC 080430Z AUTO 00000KT 10SM CLR 19/16 A2979 1140 84 1900 000/00 RMK AO2
14926KSTC STC20000607223509906/07/00 22:35:31  5-MIN KSTC 080435Z AUTO 00000KT 10SM CLR 19/16 A2979 1140 84 1900 000/00 RMK AO2
14926KSTC STC20000607224009906/07/00 22:40:31  5-MIN KSTC 080440Z AUTO 00000KT 10SM CLR 19/17 A2979 1140 87 1900 000/00 RMK AO2
14926KSTC STC20000607224509906/07/00 22:45:31  5-MIN KSTC 080445Z AUTO 00000KT 10SM CLR 19/16 A2979 1140 84 1900 000/00 RMK AO2
14926KSTC STC20000607225011606/07/00 22:50:31  5-MIN KSTC 080450Z AUTO 00000KT 10SM CLR 18/16 A2979 1140 87 1800 000/00 RMK AO2 SLP093 T01830161
14926KSTC STC20000607225509906/07/00 22:55:31  5-MIN KSTC 080455Z AUTO 00000KT 10SM CLR 18/16 A2979 1140 90 1800 000/00 RMK AO2
14926KSTC STC20000607230009906/07/00 23:00:31  5-MIN KSTC 080500Z AUTO 00000KT 10SM CLR 17/16 A2979 1140 93 1700 000/00 RMK AO2
14926KSTC STC20000607230509906/07/00 23:05:31  5-MIN KSTC 080505Z AUTO 00000KT 10SM CLR 18/16 A2979 1140 90 1800 000/00 RMK AO2
14926KSTC STC20000607231009906/07/00 23:10:31  5-MIN KSTC 080510Z AUTO 00000KT 10SM CLR 18/16 A2979 1140 90 1800 000/00 RMK AO2
14926KSTC STC20000607231509906/07/00 23:15:31  5-MIN KSTC 080515Z AUTO 00000KT 10SM CLR 18/16 A2979 1140 87 1800 000/00 RMK AO2
14926KSTC STC20000607232009906/07/00 23:20:31  5-MIN KSTC 080520Z AUTO 00000KT 10SM CLR 18/16 A2979 1140 87 1800 000/00 RMK AO2
14926KSTC STC20000612034009706/12/00 03:40:31  5-MIN KSTC 120940Z AUTO 08006KT 10SM CLR 08/07 A3011 850 89 300 080/06 RMK AO2
14926KSTC STC20000612034509706/12/00 03:45:31  5-MIN KSTC 120945Z AUTO 08006KT 10SM CLR 08/07 A3011 850 89 300 080/06 RMK AO2
14926KSTC STC20000612035011406/12/00 03:50:31  5-MIN KSTC 120950Z AUTO 08008KT 10SM CLR 08/06 A3010 860 86 300 080/08 RMK AO2 SLP202 T00830061
14926KSTC STC20000612035509706/12/00 03:55:31  5-MIN KSTC 120955Z AUTO 08008KT 10SM CLR 08/06 A3010 860 86 300 080/08 RMK AO2
14926KSTC STC20000612040009706/12/00 04:00:31  5-MIN KSTC 121000Z AUTO 08009KT 10SM CLR 08/06 A3011 850 86 300 080/09 RMK AO2
14926KSTC STC20000612040509706/12/00 04:05:31  5-MIN KSTC 121005Z AUTO 08006KT 10SM CLR 08/06 A3011 850 89 200 070/06 RMK AO2
14926KSTC STC20000612041009706/12/00 04:10:31  5-MIN KSTC 121010Z AUTO 07005KT 10SM CLR 08/06 A3011 850 89 200 070/05 RMK AO2
14926KSTC STC20000612041509706/12/00 04:15:31  5-MIN KSTC 121015Z AUTO 08005KT 10SM CLR 08/06 A3011 850 89 200 070/05 RMK AO2
14926KSTC STC20000612042009706/12/00 04:20:31  5-MIN KSTC 121020Z AUTO 07006KT 10SM CLR 08/06 A3011 850 89 200 070/06 RMK AO2
14926KSTC STC20000612042509706/12/00 04:25:31  5-MIN KSTC 121025Z AUTO 07006KT 10SM CLR 08/06 A3011 850 89 200 070/06 RMK AO2
14926KSTC STC20000612043009706/12/00 04:30:31  5-MIN KSTC 121030Z AUTO 08006KT 10SM CLR 08/06 A3011 850 89 200 070/06 RMK AO2
14926KSTC STC20000612043509706/12/00 04:35:31  5-MIN KSTC 121035Z AUTO 07006KT 10SM CLR 08/06 A3011 850 89 200 070/06 RMK AO2
14926KSTC STC20000612044009706/12/00 04:40:31  5-MIN KSTC 121040Z AUTO 08006KT 10SM CLR 07/06 A3011 850 93 200 070/06 RMK AO2
14926KSTC STC20000612044509706/12/00 04:45:31  5-MIN KSTC 121045Z AUTO 08008KT 10SM CLR 07/06 A3011 860 93 200 070/08 RMK AO2
14926KSTC STC20000612045011406/12/00 04:50:31  5-MIN KSTC 121050Z AUTO 08007KT 10SM CLR 07/06 A3011 850 93 200 070/07 RMK AO2 SLP202 T00720061
14926KSTC STC20000612045509706/12/00 04:55:31  5-MIN KSTC 121055Z AUTO 08008KT 10SM CLR 07/06 A3011 860 93 200 080/08 RMK AO2
14926KSTC STC20000612050009706/12/00 05:00:31  5-MIN KSTC 121100Z AUTO 08008KT 10SM CLR 08/06 A3010 860 86 200 080/08 RMK AO2
14926KSTC STC20000612050509706/12/00 05:05:31  5-MIN KSTC 121105Z AUTO 08007KT 10SM CLR 08/06 A3010 860 86 200 080/07 RMK AO2
14926KSTC STC20000612051009706/12/00 05:10:31  5-MIN KSTC 121110Z AUTO 09007KT 10SM CLR 08/06 A3010 860 89 200 080/07 RMK AO2
14926KSTC STC20000612051509706/12/00 05:15:31  5-MIN KSTC 121115Z AUTO 08009KT 10SM CLR 08/06 A3010 860 89 200 080/09 RMK AO2
14926KSTC STC20000612052009706/12/00 05:20:31  5-MIN KSTC 121120Z AUTO VRB06KT 10SM CLR 08/06 A3010 860 89 200 VRB/06 RMK AO2
14926KSTC STC20000612052509706/12/00 05:25:31  5-MIN KSTC 121125Z AUTO 09007KT 10SM CLR 08/06 A3010 860 86 300 080/07 RMK AO2
14926KSTC STC20000612053009706/12/00 05:30:31  5-MIN KSTC 121130Z AUTO 09007KT 10SM CLR 08/06 A3010 860 86 300 080/07 RMK AO2
14926KSTC STC20000612053509706/12/00 05:35:31  5-MIN KSTC 121135Z AUTO 09008KT 10SM CLR 08/06 A3010 860 86 300 080/08 RMK AO2
14926KSTC STC20000612054010006/12/00 05:40:31  5-MIN KSTC 121140Z AUTO 08008KT 10SM SCT007 08/06 A3010 860 86 300 080/08 RMK AO2
14926KSTC STC20000612054510006/12/00 05:45:31  5-MIN KSTC 121145Z AUTO 09008KT 10SM BKN007 08/06 A3010 860 86 300 090/08 RMK AO2
14926KSTC STC20000612055013506/12/00 05:50:31  5-MIN KSTC 121150Z AUTO 10007KT 10SM BKN007 09/07 A3010 860 86 400 090/07 RMK AO2 SLP201 T00890067 10133 20072 55002
14926KSTC STC20000612055510006/12/00 05:55:31  5-MIN KSTC 121155Z AUTO 09006KT 10SM BKN005 09/07 A3010 860 86 400 090/06 RMK AO2
14926KSTC STC20000612060010006/12/00 06:00:31  5-MIN KSTC 121200Z AUTO 11007KT 10SM OVC005 09/07 A3010 860 89 400 100/07 RMK AO2
14926KSTC STC20000612060511206/12/00 06:05:31  5-MIN KSTC 121205Z AUTO 09006KT 10SM OVC005 09/07 A3010 860 86 400 090/06 RMK AO2 CIG 003V007
14926KSTC STC20000612061011106/12/00 06:10:31  5-MIN KSTC 121210Z AUTO 10007KT 7SM OVC005 09/08 A3010 860 89 400 100/07 RMK AO2 CIG 003V006
14926KSTC STC20000612061510206/12/00 06:15:31  5-MIN KSTC 121215Z AUTO 10005KT 6SM BR OVC003 09/08 A3010 860 93 400 100/05 RMK AO2
14926KSTC STC20000612062010206/12/00 06:20:31  5-MIN KSTC 121220Z AUTO 10006KT 3SM BR OVC003 09/08 A3010 860 93 400 100/06 RMK AO2
14926KSTC STC20000612062511806/12/00 06:25:31  5-MIN KSTC 121225Z AUTO 10006KT 1 3/4SM BR OVC003 09/08 A3009 870 93 400 100/06 RMK AO2 VIS 1 1/4V3
14926KSTC STC20000612063010606/12/00 06:30:31  5-MIN KSTC 121230Z AUTO 10005KT 1 3/4SM BR OVC003 09/09 A3009 870 96 400 100/05 RMK AO2
14926KSTC STC20000612063510606/12/00 06:35:31  5-MIN KSTC 121235Z AUTO 10007KT 1 3/4SM BR OVC003 09/09 A3009 870 96 400 100/07 RMK AO2
14926KSTC STC20000612064010606/12/00 06:40:31  5-MIN KSTC 121240Z AUTO 12008KT 1 3/4SM BR OVC003 10/09 A3009 870 93 500 120/08 RMK AO2
14926KSTC STC20000612064511806/12/00 06:45:31  5-MIN KSTC 121245Z AUTO 11008KT 2 1/2SM BR OVC003 10/09 A3009 870 93 500 100/08 RMK AO2 VIS 1 3/4V3
14926KSTC STC20000612065012306/12/00 06:50:31  5-MIN KSTC 121250Z AUTO 11008KT 2 1/2SM BR OVC003 10/09 A3009 870 93 500 100/08 RMK AO2 SLP196 T01000089
14926KSTC STC20000612065510206/12/00 06:55:31  5-MIN KSTC 121255Z AUTO 11009KT 2SM BR OVC003 10/09 A3009 870 93 500 110/09 RMK AO2
14926KSTC STC20000612070012206/12/00 07:00:31  5-MIN KSTC 121300Z AUTO 10008KT 1 3/4SM BR OVC003 10/09 A3008 880 96 500 100/08 RMK AO2 VIS 1 1/4V2 1/2
14926KSTC STC20000612070511806/12/00 07:05:31  5-MIN KSTC 121305Z AUTO 10007KT 2SM BR OVC003 11/09 A3008 880 93 600 100/07 RMK AO2 VIS 1 1/2V2 1/2
14926KSTC STC20000612071010206/12/00 07:10:31  5-MIN KSTC 121310Z AUTO 11008KT 2SM BR OVC003 11/09 A3009 870 93 600 100/08 RMK AO2
14926KSTC STC20000612071511806/12/00 07:15:31  5-MIN KSTC 121315Z AUTO 10008KT 2SM BR OVC003 11/09 A3009 870 93 600 100/08 RMK AO2 VIS 1 1/2V2 1/2
14926KSTC STC20000612072010206/12/00 07:20:31  5-MIN KSTC 121320Z AUTO 11006KT 2SM BR OVC003 11/10 A3009 870 96 600 110/06 RMK AO2
14926KSTC STC20000612072511806/12/00 07:25:31  5-MIN KSTC 121325Z AUTO 10005KT 2 1/2SM BR OVC003 11/10 A3009 870 93 600 100/05 RMK AO2 VIS 1 3/4V4
14926KSTC STC20000612073011806/12/00 07:30:31  5-MIN KSTC 121330Z AUTO 11007KT 2 1/2SM BR OVC003 11/10 A3009 870 93 600 110/07 RMK AO2 VIS 1 3/4V4
14926KSTC STC20000612073510206/12/00 07:35:31  5-MIN KSTC 121335Z AUTO 10008KT 3SM BR OVC003 12/10 A3009 870 89 700 090/08 RMK AO2
14926KSTC STC20000612074010206/12/00 07:40:31  5-MIN KSTC 121340Z AUTO 09007KT 3SM BR OVC003 12/10 A3009 870 89 700 090/07 RMK AO2
14926KSTC STC20000612074510206/12/00 07:45:31  5-MIN KSTC 121345Z AUTO 10009KT 3SM BR OVC003 12/10 A3009 870 89 700 100/09 RMK AO2
14926KSTC STC20000612075011906/12/00 07:50:31  5-MIN KSTC 121350Z AUTO 12008KT 4SM BR OVC003 12/11 A3009 870 93 700 120/08 RMK AO2 SLP198 T01170106
14926KSTC STC20000612075510206/12/00 07:55:31  5-MIN KSTC 121355Z AUTO 13007KT 5SM BR OVC003 12/11 A3010 870 93 700 120/07 RMK AO2
14926KSTC STC20000612080010206/12/00 08:00:31  5-MIN KSTC 121400Z AUTO 12007KT 5SM BR OVC003 12/11 A3009 870 89 800 120/07 RMK AO2
14926KSTC STC20000612080510206/12/00 08:05:31  5-MIN KSTC 121405Z AUTO 12008KT 6SM BR OVC003 12/11 A3009 870 89 800 120/08 RMK AO2
14926KSTC STC20000612081010206/12/00 08:10:31  5-MIN KSTC 121410Z AUTO 12007KT 5SM BR OVC003 12/11 A3010 860 89 800 110/07 RMK AO2
14926KSTC STC20000612081509906/12/00 08:15:31  5-MIN KSTC 121415Z AUTO 12006KT 7SM OVC003 12/11 A3010 860 93 800 110/06 RMK AO2
14926KSTC STC20000612082009906/12/00 08:20:31  5-MIN KSTC 121420Z AUTO 11007KT 8SM OVC003 13/11 A3009 870 89 800 110/07 RMK AO2
14926KSTC STC20000612082509906/12/00 08:25:31  5-MIN KSTC 121425Z AUTO 10008KT 8SM OVC003 13/11 A3009 870 89 900 090/08 RMK AO2
14926KSTC STC20000612083009906/12/00 08:30:31  5-MIN KSTC 121430Z AUTO 13006KT 9SM OVC003 13/11 A3009 870 86 900 120/06 RMK AO2
14926KSTC STC20000612083509906/12/00 08:35:31  5-MIN KSTC 121435Z AUTO 12008KT 9SM OVC003 13/12 A3009 870 89 900 120/08 RMK AO2
14926KSTC STC20000612084009906/12/00 08:40:31  5-MIN KSTC 121440Z AUTO 12006KT 9SM OVC003 13/12 A3009 870 89 900 110/06 RMK AO2
14926KSTC STC20000612084510006/12/00 08:45:31  5-MIN KSTC 121445Z AUTO 13008KT 9SM OVC005 14/12 A3009 870 86 1000 130/08 RMK AO2
14926KSTC STC20000612085012306/12/00 08:50:31  5-MIN KSTC 121450Z AUTO 12006KT 9SM OVC005 14/12 A3008 880 86 1000 120/06 RMK AO2 SLP194 T01390117 58004
14926KSTC STC20000612085510006/12/00 08:55:31  5-MIN KSTC 121455Z AUTO 12008KT 9SM OVC005 14/12 A3008 880 86 1000 120/08 RMK AO2
14926KSTC STC20000612090010006/12/00 09:00:31  5-MIN KSTC 121500Z AUTO 12007KT 9SM OVC005 14/12 A3007 890 86 1000 110/07 RMK AO2
14926KSTC STC20000612090510006/12/00 09:05:31  5-MIN KSTC 121505Z AUTO 12008KT 9SM OVC005 14/12 A3007 890 86 1100 120/08 RMK AO2
14926KSTC STC20000612091010006/12/00 09:10:31  5-MIN KSTC 121510Z AUTO 11009KT 9SM OVC005 14/12 A3008 880 86 1100 100/09 RMK AO2
14926KSTC STC20000612091510006/12/00 09:15:31  5-MIN KSTC 121515Z AUTO 11008KT 9SM OVC005 14/12 A3007 890 86 1100 110/08 RMK AO2
14926KSTC STC20000612092010006/12/00 09:20:31  5-MIN KSTC 121520Z AUTO 10005KT 9SM OVC005 15/12 A3007 890 83 1100 090/05 RMK AO2
14926KSTC STC20000612092510006/12/00 09:25:31  5-MIN KSTC 121525Z AUTO 09008KT 9SM OVC005 15/12 A3007 890 83 1100 090/08 RMK AO2
14926KSTC STC20000612093010006/12/00 09:30:31  5-MIN KSTC 121530Z AUTO 11007KT 9SM OVC005 14/12 A3007 880 86 1100 110/07 RMK AO2
14926KSTC STC20000612093510006/12/00 09:35:31  5-MIN KSTC 121535Z AUTO 11008KT 9SM OVC007 15/12 A3007 890 83 1100 110/08 RMK AO2
14926KSTC STC20000612094010106/12/00 09:40:31  5-MIN KSTC 121540Z AUTO 12008KT 10SM OVC007 15/12 A3008 880 83 1100 120/08 RMK AO2
14926KSTC STC20000612094511706/12/00 09:45:31  5-MIN KSTC 121545Z AUTO 10007KT 070V150 10SM OVC007 16/12 A3007 880 80 1200 100/07 070V150 RMK AO2
14926KSTC STC20000612095011806/12/00 09:50:31  5-MIN KSTC 121550Z AUTO 12007KT 10SM OVC007 16/13 A3007 890 80 1300 120/07 RMK AO2 SLP191 T01610128
14926KSTC STC20000612095512906/12/00 09:55:31  5-MIN KSTC 121555Z AUTO 13007KT 090V150 10SM OVC009 16/13 A3007 890 80 1300 120/07 090V150 RMK AO2 CIG 006V010
14926KSTC STC20000612100011306/12/00 10:00:31  5-MIN KSTC 121600Z AUTO 11008KT 10SM OVC009 16/13 A3007 890 80 1300 110/08 RMK AO2 CIG 007V012
14926KSTC STC20000612100511306/12/00 10:05:31  5-MIN KSTC 121605Z AUTO 11008KT 10SM OVC009 17/13 A3007 890 77 1300 110/08 RMK AO2 CIG 008V012
14926KSTC STC20000612101011306/12/00 10:10:31  5-MIN KSTC 121610Z AUTO 14007KT 10SM OVC009 17/13 A3007 890 77 1300 130/07 RMK AO2 CIG 008V013
14926KSTC STC20000612101511306/12/00 10:15:31  5-MIN KSTC 121615Z AUTO 10008KT 10SM OVC009 17/13 A3007 890 75 1400 100/08 RMK AO2 CIG 009V013
14926KSTC STC20000612102010106/12/00 10:20:31  5-MIN KSTC 121620Z AUTO 10009KT 10SM OVC011 17/13 A3007 890 78 1400 100/09 RMK AO2
14926KSTC STC20000612102510106/12/00 10:25:31  5-MIN KSTC 121625Z AUTO 13008KT 10SM OVC011 17/13 A3007 890 78 1400 130/08 RMK AO2
14926KSTC STC20000612103010106/12/00 10:30:31  5-MIN KSTC 121630Z AUTO VRB05KT 10SM OVC011 18/13 A3006 890 75 1500 VRB/05 RMK AO2
14926KSTC STC20000612103510106/12/00 10:35:31  5-MIN KSTC 121635Z AUTO 09008KT 10SM OVC011 18/13 A3007 890 72 1500 080/08 RMK AO2
14926KSTC STC20000612104010106/12/00 10:40:31  5-MIN KSTC 121640Z AUTO 12008KT 10SM OVC013 19/13 A3007 890 70 1600 120/08 RMK AO2
14926KSTC STC20000612104510106/12/00 10:45:31  5-MIN KSTC 121645Z AUTO 09007KT 10SM BKN013 18/13 A3006 890 72 1500 090/07 RMK AO2
14926KSTC STC20000612105011806/12/00 10:50:31  5-MIN KSTC 121650Z AUTO 08005KT 10SM BKN013 18/13 A3006 890 72 1500 080/05 RMK AO2 SLP188 T01830133
14926KSTC STC20000612105510106/12/00 10:55:31  5-MIN KSTC 121655Z AUTO 11007KT 10SM BKN015 18/13 A3006 900 72 1500 110/07 RMK AO2
14926KSTC STC20000612110010106/12/00 11:00:31  5-MIN KSTC 121700Z AUTO VRB05KT 10SM BKN015 18/13 A3006 900 72 1500 VRB/05 RMK AO2
14926KSTC STC20000612110510106/12/00 11:05:31  5-MIN KSTC 121705Z AUTO 10009KT 10SM BKN015 19/13 A3006 900 70 1600 100/09 RMK AO2
14926KSTC STC20000612111010106/12/00 11:10:31  5-MIN KSTC 121710Z AUTO 12008KT 10SM BKN017 19/14 A3006 900 70 1700 110/08 RMK AO2
14926KSTC STC20000612111510106/12/00 11:15:31  5-MIN KSTC 121715Z AUTO 14010KT 10SM BKN017 20/14 A3005 900 67 1700 140/10 RMK AO2
14926KSTC STC20000612112010106/12/00 11:20:31  5-MIN KSTC 121720Z AUTO 13007KT 10SM BKN017 19/14 A3005 900 72 1600 130/07 RMK AO2
14926KSTC STC20000612112510106/12/00 11:25:31  5-MIN KSTC 121725Z AUTO 11009KT 10SM BKN017 19/14 A3005 910 70 1700 100/09 RMK AO2
14926KSTC STC20000612113010106/12/00 11:30:31  5-MIN KSTC 121730Z AUTO 13008KT 10SM BKN017 20/14 A3005 900 67 1700 130/08 RMK AO2
14926KSTC STC20000612113510706/12/00 11:35:31  5-MIN KSTC 121735Z AUTO 14012G16KT 10SM BKN017 21/14 A3005 900 65 1800 140/12G16 RMK AO2
14926KSTC STC20000612114010706/12/00 11:40:31  5-MIN KSTC 121740Z AUTO 14010G16KT 10SM BKN019 21/14 A3005 910 65 1800 130/10G16 RMK AO2
14926KSTC STC20000612114510106/12/00 11:45:31  5-MIN KSTC 121745Z AUTO 14011KT 10SM OVC019 21/14 A3005 910 65 1800 140/11 RMK AO2
14926KSTC STC20000612115013606/12/00 11:50:31  5-MIN KSTC 121750Z AUTO 14012KT 10SM BKN019 21/14 A3004 910 65 1900 140/12 RMK AO2 SLP181 T02110144 10211 20089 58006
14926KSTC STC20000612115510106/12/00 11:55:31  5-MIN KSTC 121755Z AUTO 14010KT 10SM BKN019 21/14 A3004 920 67 1800 140/10 RMK AO2
14926KSTC STC20000612120010106/12/00 12:00:31  5-MIN KSTC 121800Z AUTO 10008KT 10SM BKN021 21/14 A3004 920 65 1900 100/08 RMK AO2
14926KSTC STC20000612120510106/12/00 12:05:31  5-MIN KSTC 121805Z AUTO 13009KT 10SM BKN021 21/14 A3003 920 67 1800 130/09 RMK AO2
14926KSTC STC20000612121010106/12/00 12:10:31  5-MIN KSTC 121810Z AUTO 11009KT 10SM BKN021 21/14 A3003 920 65 1900 100/09 RMK AO2
14926KSTC STC20000612121510706/12/00 12:15:31  5-MIN KSTC 121815Z AUTO 11008G16KT 10SM BKN021 21/14 A3003 930 65 1900 110/08G16 RMK AO2
14926KSTC STC20000612122010106/12/00 12:20:31  5-MIN KSTC 121820Z AUTO 12009KT 10SM OVC021 21/14 A3003 930 65 1900 110/09 RMK AO2
14926KSTC STC20000612122510106/12/00 12:25:31  5-MIN KSTC 121825Z AUTO 14011KT 10SM OVC021 21/14 A3003 930 65 1900 140/11 RMK AO2
14926KSTC STC20000612123010106/12/00 12:30:31  5-MIN KSTC 121830Z AUTO 14010KT 10SM BKN021 22/15 A3002 930 63 2000 140/10 RMK AO2
14926KSTC STC20000612123512306/12/00 12:35:31  5-MIN KSTC 121835Z AUTO 10009G16KT 070V140 10SM BKN021 22/15 A3002 930 63 2000 100/09G16 070V140 RMK AO2
14926KSTC STC20000612124010106/12/00 12:40:31  5-MIN KSTC 121840Z AUTO 13010KT 10SM BKN021 22/15 A3002 930 63 2000 130/10 RMK AO2
14926KSTC STC20000612124510106/12/00 12:45:31  5-MIN KSTC 121845Z AUTO 11008KT 10SM BKN021 22/15 A3002 930 65 2000 100/08 RMK AO2
14926KSTC STC20000612125012406/12/00 12:50:31  5-MIN KSTC 121850Z AUTO 14009G16KT 10SM BKN023 22/15 A3002 930 65 2000 140/09G16 RMK AO2 SLP174 T02170150
14926KSTC STC20000612125510706/12/00 12:55:31  5-MIN KSTC 121855Z AUTO 13009G16KT 10SM BKN023 22/15 A3002 930 65 2000 130/09G16 RMK AO2
14926KSTC STC20000612130010106/12/00 13:00:31  5-MIN KSTC 121900Z AUTO 13010KT 10SM BKN023 22/15 A3002 930 65 2000 120/10 RMK AO2
14926KSTC STC20000612130510106/12/00 13:05:31  5-MIN KSTC 121905Z AUTO 12009KT 10SM BKN023 22/15 A3002 940 65 2000 120/09 RMK AO2
14926KSTC STC20000612131010106/12/00 13:10:31  5-MIN KSTC 121910Z AUTO 13011KT 10SM BKN023 22/15 A3002 940 63 2000 130/11 RMK AO2
14926KSTC STC20000612131510106/12/00 13:15:31  5-MIN KSTC 121915Z AUTO 14012KT 10SM BKN023 22/16 A3002 940 65 2000 140/12 RMK AO2
14926KSTC STC20000612132010106/12/00 13:20:31  5-MIN KSTC 121920Z AUTO 14011KT 10SM OVC021 22/16 A3002 940 65 2000 140/11 RMK AO2
14926KSTC STC20000612132510106/12/00 13:25:31  5-MIN KSTC 121925Z AUTO 14010KT 10SM OVC021 22/16 A3002 940 68 2000 130/10 RMK AO2
14926KSTC STC20000612133010006/12/00 13:30:31  5-MIN KSTC 121930Z AUTO 14009KT 9SM OVC021 22/16 A3002 940 68 2000 130/09 RMK AO2
14926KSTC STC20000612133510606/12/00 13:35:31  5-MIN KSTC 121935Z AUTO 13010G15KT 9SM OVC021 22/16 A3002 940 68 2000 120/10G15 RMK AO2
14926KSTC STC20000612134010606/12/00 13:40:31  5-MIN KSTC 121940Z AUTO 13010G15KT 9SM OVC019 21/16 A3002 940 70 1900 130/10G15 RMK AO2
14926KSTC STC20000612134510006/12/00 13:45:31  5-MIN KSTC 121945Z AUTO 13009KT 9SM OVC019 22/16 A3001 940 68 2000 130/09 RMK AO2
14926KSTC STC20000612135011706/12/00 13:50:31  5-MIN KSTC 121950Z AUTO 14009KT 9SM OVC019 22/16 A3001 940 68 2000 130/09 RMK AO2 SLP171 T02170156
14926KSTC STC20000612135510006/12/00 13:55:31  5-MIN KSTC 121955Z AUTO 13009KT 9SM OVC019 22/16 A3001 940 68 2000 130/09 RMK AO2
14926KSTC STC20000612140010006/12/00 14:00:31  5-MIN KSTC 122000Z AUTO 15011KT 9SM OVC019 22/16 A3001 940 68 2000 140/11 RMK AO2
14926KSTC STC20000612140510006/12/00 14:05:31  5-MIN KSTC 122005Z AUTO 15011KT 9SM OVC019 22/16 A3001 950 65 2000 150/11 RMK AO2
14926KSTC STC20000612141010006/12/00 14:10:31  5-MIN KSTC 122010Z AUTO 15010KT 9SM OVC021 22/16 A3000 950 65 2000 140/10 RMK AO2
14926KSTC STC20000612141510006/12/00 14:15:31  5-MIN KSTC 122015Z AUTO 14012KT 9SM OVC021 23/16 A3000 950 65 2100 130/12 RMK AO2
14926KSTC STC20000612142010106/12/00 14:20:31  5-MIN KSTC 122020Z AUTO 14012KT 10SM OVC021 22/16 A3000 950 65 2000 140/12 RMK AO2
14926KSTC STC20000612142510106/12/00 14:25:31  5-MIN KSTC 122025Z AUTO 14012KT 10SM OVC021 22/16 A3000 950 68 2000 140/12 RMK AO2
14926KSTC STC20000612143010106/12/00 14:30:31  5-MIN KSTC 122030Z AUTO 14010KT 10SM OVC021 22/16 A3000 950 68 2100 130/10 RMK AO2
14926KSTC STC20000612143510106/12/00 14:35:31  5-MIN KSTC 122035Z AUTO 13008KT 10SM OVC021 22/16 A3000 950 68 2100 130/08 RMK AO2
14926KSTC STC20000612144010106/12/00 14:40:31  5-MIN KSTC 122040Z AUTO 12010KT 10SM OVC021 22/16 A3000 960 68 2100 120/10 RMK AO2
14926KSTC STC20000612144510106/12/00 14:45:31  5-MIN KSTC 122045Z AUTO 13007KT 10SM OVC023 22/16 A3000 960 68 2100 130/07 RMK AO2
14926KSTC STC20000612145012406/12/00 14:50:31  5-MIN KSTC 122050Z AUTO 15011KT 10SM OVC023 23/16 A2999 960 65 2100 150/11 RMK AO2 SLP164 T02280161 58013
14926KSTC STC20000612145510106/12/00 14:55:31  5-MIN KSTC 122055Z AUTO 13009KT 10SM OVC023 23/16 A2999 960 65 2100 120/09 RMK AO2
14926KSTC STC20000612150010106/12/00 15:00:31  5-MIN KSTC 122100Z AUTO 12009KT 10SM OVC023 22/16 A2999 960 68 2100 120/09 RMK AO2
14926KSTC STC20000612150510106/12/00 15:05:31  5-MIN KSTC 122105Z AUTO 13011KT 10SM OVC025 22/16 A2999 970 68 2100 120/11 RMK AO2
14926KSTC STC20000612151010106/12/00 15:10:31  5-MIN KSTC 122110Z AUTO 15009KT 10SM BKN025 23/16 A2998 970 65 2100 150/09 RMK AO2
14926KSTC STC20000612151510106/12/00 15:15:31  5-MIN KSTC 122115Z AUTO 13012KT 10SM BKN025 23/16 A2998 970 65 2100 130/12 RMK AO2
14926KSTC STC20000612152010106/12/00 15:20:31  5-MIN KSTC 122120Z AUTO 13011KT 10SM BKN025 22/16 A2998 970 65 2100 120/11 RMK AO2
14926KSTC STC20000612152510106/12/00 15:25:31  5-MIN KSTC 122125Z AUTO 12010KT 10SM BKN025 23/16 A2998 970 63 2100 120/10 RMK AO2
14926KSTC STC20000612153010106/12/00 15:30:31  5-MIN KSTC 122130Z AUTO 13011KT 10SM SCT025 23/16 A2997 980 63 2100 130/11 RMK AO2
14926KSTC STC20000612153510706/12/00 15:35:31  5-MIN KSTC 122135Z AUTO 13011G17KT 10SM FEW025 23/16 A2997 980 63 2100 130/11G17 RMK AO2
14926KSTC STC20000612154010706/12/00 15:40:31  5-MIN KSTC 122140Z AUTO 13010G17KT 10SM FEW025 23/16 A2997 980 63 2200 130/10G17 RMK AO2
14926KSTC STC20000612154510106/12/00 15:45:31  5-MIN KSTC 122145Z AUTO 13012KT 10SM FEW025 23/16 A2997 990 65 2200 130/12 RMK AO2
14926KSTC STC20000612155011506/12/00 15:50:31  5-MIN KSTC 122150Z AUTO 14010KT 10SM CLR 23/16 A2997 990 65 2200 130/10 RMK AO2 SLP155 T02280161
14926KSTC STC20000612155510106/12/00 15:55:31  5-MIN KSTC 122155Z AUTO 14011KT 10SM FEW028 23/16 A2997 980 63 2200 140/11 RMK AO2
14926KSTC STC20000612160010706/12/00 16:00:31  5-MIN KSTC 122200Z AUTO 14013G16KT 10SM FEW028 23/16 A2997 980 65 2200 140/13G16 RMK AO2
14926KSTC STC20000612160510706/12/00 16:05:31  5-MIN KSTC 122205Z AUTO 13009G16KT 10SM FEW028 23/16 A2997 980 63 2200 130/09G16 RMK AO2
14926KSTC STC20000612161010106/12/00 16:10:31  5-MIN KSTC 122210Z AUTO 12012KT 10SM SCT028 23/16 A2996 990 63 2200 120/12 RMK AO2
14926KSTC STC20000612161510106/12/00 16:15:31  5-MIN KSTC 122215Z AUTO 13009KT 10SM BKN028 23/16 A2996 990 63 2200 120/09 RMK AO2
14926KSTC STC20000612162010106/12/00 16:20:31  5-MIN KSTC 122220Z AUTO 14009KT 10SM BKN028 23/16 A2996 990 63 2200 140/09 RMK AO2
14926KSTC STC20000612162510106/12/00 16:25:31  5-MIN KSTC 122225Z AUTO 13010KT 10SM BKN028 23/16 A2996 990 63 2200 130/10 RMK AO2
14926KSTC STC20000612163010106/12/00 16:30:31  5-MIN KSTC 122230Z AUTO 13008KT 10SM BKN030 23/16 A2995 990 63 2200 130/08 RMK AO2
14926KSTC STC20000612163510206/12/00 16:35:31  5-MIN KSTC 122235Z AUTO 13009KT 10SM BKN030 23/16 A2995 1000 63 2200 120/09 RMK AO2
14926KSTC STC20000612164010206/12/00 16:40:31  5-MIN KSTC 122240Z AUTO 13010KT 10SM SCT030 23/16 A2995 1000 63 2200 130/10 RMK AO2
14926KSTC STC20000612164510206/12/00 16:45:31  5-MIN KSTC 122245Z AUTO 13011KT 10SM FEW030 23/16 A2995 1000 63 2200 130/11 RMK AO2
14926KSTC STC20000612165011906/12/00 16:50:31  5-MIN KSTC 122250Z AUTO 13010KT 10SM FEW030 23/16 A2994 1010 63 2200 130/10 RMK AO2 SLP148 T02280156
14926KSTC STC20000612165510206/12/00 16:55:31  5-MIN KSTC 122255Z AUTO 13012KT 10SM FEW030 23/16 A2994 1010 65 2200 120/12 RMK AO2
14926KSTC STC20000612170010206/12/00 17:00:31  5-MIN KSTC 122300Z AUTO 14012KT 10SM FEW030 23/16 A2994 1010 65 2200 130/12 RMK AO2
14926KSTC STC20000612170510206/12/00 17:05:31  5-MIN KSTC 122305Z AUTO 13009KT 10SM FEW030 23/16 A2994 1010 65 2200 120/09 RMK AO2
14926KSTC STC20000612171010206/12/00 17:10:31  5-MIN KSTC 122310Z AUTO 13006KT 10SM FEW030 23/16 A2993 1010 65 2200 130/06 RMK AO2
14926KSTC STC20000612171510206/12/00 17:15:31  5-MIN KSTC 122315Z AUTO VRB06KT 10SM FEW030 23/16 A2994 1010 65 2200 VRB/06 RMK AO2
14926KSTC STC20000612172010206/12/00 17:20:31  5-MIN KSTC 122320Z AUTO 14008KT 10SM FEW030 23/16 A2994 1010 65 2200 140/08 RMK AO2
14926KSTC STC20000612172510206/12/00 17:25:31  5-MIN KSTC 122325Z AUTO 14007KT 10SM SCT030 23/16 A2994 1010 65 2200 140/07 RMK AO2
14926KSTC STC20000612173010206/12/00 17:30:31  5-MIN KSTC 122330Z AUTO 14007KT 10SM BKN030 23/16 A2993 1010 65 2200 130/07 RMK AO2
14926KSTC STC20000612173510206/12/00 17:35:31  5-MIN KSTC 122335Z AUTO 13007KT 10SM BKN030 23/16 A2993 1020 65 2200 120/07 RMK AO2
14926KSTC STC20000612174010206/12/00 17:40:31  5-MIN KSTC 122340Z AUTO 14009KT 10SM BKN030 23/16 A2993 1020 65 2200 130/09 RMK AO2
14926KSTC STC20000612174510206/12/00 17:45:31  5-MIN KSTC 122345Z AUTO 13008KT 10SM OVC030 23/16 A2993 1020 65 2200 130/08 RMK AO2
14926KSTC STC20000612175013706/12/00 17:50:31  5-MIN KSTC 122350Z AUTO 12007KT 10SM OVC030 23/16 A2992 1020 65 2200 120/07 RMK AO2 SLP141 T02280161 10233 20206 58016
14926KSTC STC20000612175510206/12/00 17:55:31  5-MIN KSTC 122355Z AUTO 14010KT 10SM OVC030 23/16 A2992 1020 65 2200 140/10 RMK AO2
14926KSTC STC20000612180010206/12/00 18:00:31  5-MIN KSTC 130000Z AUTO 14008KT 10SM OVC030 23/16 A2992 1030 65 2200 130/08 RMK AO2
14926KSTC STC20000612180510206/12/00 18:05:31  5-MIN KSTC 130005Z AUTO 14009KT 10SM OVC028 23/16 A2992 1030 65 2200 130/09 RMK AO2
14926KSTC STC20000612181010206/12/00 18:10:31  5-MIN KSTC 130010Z AUTO 14011KT 10SM OVC028 23/16 A2992 1030 65 2200 140/11 RMK AO2
14926KSTC STC20000612181510206/12/00 18:15:31  5-MIN KSTC 130015Z AUTO 15011KT 10SM OVC028 23/16 A2991 1030 65 2200 150/11 RMK AO2
14926KSTC STC20000612182010206/12/00 18:20:31  5-MIN KSTC 130020Z AUTO 16011KT 10SM OVC028 22/16 A2991 1030 68 2100 160/11 RMK AO2
14926KSTC STC20000612182510206/12/00 18:25:31  5-MIN KSTC 130025Z AUTO 16009KT 10SM OVC028 22/16 A2991 1040 68 2200 160/09 RMK AO2
14926KSTC STC20000612183010206/12/00 18:30:31  5-MIN KSTC 130030Z AUTO 16012KT 10SM OVC028 22/16 A2991 1040 68 2200 160/12 RMK AO2
14926KSTC STC20000612183510206/12/00 18:35:31  5-MIN KSTC 130035Z AUTO 16014KT 10SM OVC028 22/16 A2991 1040 68 2200 160/14 RMK AO2
14926KSTC STC20000612184010206/12/00 18:40:31  5-MIN KSTC 130040Z AUTO 17013KT 10SM OVC028 22/16 A2991 1040 68 2200 160/13 RMK AO2
14926KSTC STC20000612184510206/12/00 18:45:31  5-MIN KSTC 130045Z AUTO 16013KT 10SM OVC028 22/16 A2991 1040 68 2200 160/13 RMK AO2
14926KSTC STC20000612185011906/12/00 18:50:31  5-MIN KSTC 130050Z AUTO 16010KT 10SM OVC028 22/16 A2991 1040 68 2200 160/10 RMK AO2 SLP135 T02220161
14926KSTC STC20000612185510206/12/00 18:55:31  5-MIN KSTC 130055Z AUTO 16012KT 10SM OVC030 22/16 A2991 1040 68 2200 150/12 RMK AO2
14926KSTC STC20000612190011506/12/00 19:00:31  5-MIN KSTC 130100Z AUTO 14012G18KT 10SM BKN028 OVC034 22/16 A2990 1040 68 2200 140/12G18 RMK AO2
14926KSTC STC20000612190510806/12/00 19:05:31  5-MIN KSTC 130105Z AUTO 15013G18KT 10SM OVC032 22/16 A2990 1040 68 2200 150/13G18 RMK AO2
14926KSTC STC20000612191010206/12/00 19:10:31  5-MIN KSTC 130110Z AUTO 15012KT 10SM OVC032 22/16 A2990 1040 70 2100 150/12 RMK AO2
14926KSTC STC20000612191510206/12/00 19:15:31  5-MIN KSTC 130115Z AUTO 16012KT 10SM OVC032 22/16 A2991 1040 70 2100 150/12 RMK AO2
14926KSTC STC20000612192010206/12/00 19:20:31  5-MIN KSTC 130120Z AUTO 15013KT 10SM OVC032 22/16 A2991 1040 70 2100 150/13 RMK AO2
14926KSTC STC20000612192510206/12/00 19:25:31  5-MIN KSTC 130125Z AUTO 15008KT 10SM OVC032 22/16 A2990 1040 70 2100 150/08 RMK AO2
14926KSTC STC20000612193010206/12/00 19:30:31  5-MIN KSTC 130130Z AUTO 14011KT 10SM OVC032 22/16 A2990 1040 70 2100 140/11 RMK AO2
14926KSTC STC20000612193510206/12/00 19:35:31  5-MIN KSTC 130135Z AUTO 15011KT 10SM BKN032 21/16 A2990 1040 70 2000 140/11 RMK AO2
14926KSTC STC20000612194010206/12/00 19:40:31  5-MIN KSTC 130140Z AUTO 14009KT 10SM BKN032 21/16 A2990 1040 70 2000 130/09 RMK AO2
14926KSTC STC20000612194510206/12/00 19:45:31  5-MIN KSTC 130145Z AUTO 14009KT 10SM SCT032 21/16 A2990 1040 70 2000 140/09 RMK AO2
14926KSTC STC20000612195011906/12/00 19:50:31  5-MIN KSTC 130150Z AUTO 14010KT 10SM SCT032 21/16 A2990 1050 73 2000 130/10 RMK AO2 SLP133 T02060156
14926KSTC STC20000612195510206/12/00 19:55:31  5-MIN KSTC 130155Z AUTO 13009KT 10SM FEW030 21/16 A2990 1050 73 2000 130/09 RMK AO2
14926KSTC STC20000612200010206/12/00 20:00:31  5-MIN KSTC 130200Z AUTO 13007KT 10SM FEW030 21/16 A2990 1050 73 2000 130/07 RMK AO2
14926KSTC STC20000612200510206/12/00 20:05:31  5-MIN KSTC 130205Z AUTO 13008KT 10SM FEW030 21/16 A2990 1050 73 2000 130/08 RMK AO2
14926KSTC STC20000612201010206/12/00 20:10:31  5-MIN KSTC 130210Z AUTO 14008KT 10SM FEW030 21/16 A2990 1050 73 2000 130/08 RMK AO2
14926KSTC STC20000612201509906/12/00 20:15:31  5-MIN KSTC 130215Z AUTO 13006KT 10SM CLR 20/16 A2990 1040 75 1900 130/06 RMK AO2
14926KSTC STC20000612202009906/12/00 20:20:31  5-MIN KSTC 130220Z AUTO 13007KT 10SM CLR 20/16 A2991 1040 75 1900 130/07 RMK AO2
14926KSTC STC20000612202509906/12/00 20:25:31  5-MIN KSTC 130225Z AUTO 14008KT 10SM CLR 20/15 A2991 1040 72 1900 140/08 RMK AO2
14926KSTC STC20000612203009906/12/00 20:30:31  5-MIN KSTC 130230Z AUTO 13007KT 10SM CLR 20/15 A2990 1040 72 1900 130/07 RMK AO2
14926KSTC STC20000612203509906/12/00 20:35:31  5-MIN KSTC 130235Z AUTO 14009KT 10SM CLR 20/15 A2991 1040 72 1900 130/09 RMK AO2
14926KSTC STC20000612204009906/12/00 20:40:31  5-MIN KSTC 130240Z AUTO 14008KT 10SM CLR 20/15 A2991 1030 72 1900 140/08 RMK AO2
14926KSTC STC20000612204510206/12/00 20:45:31  5-MIN KSTC 130245Z AUTO 14006KT 10SM SCT027 19/15 A2991 1040 75 1800 140/06 RMK AO2
14926KSTC STC20000612205012506/12/00 20:50:31  5-MIN KSTC 130250Z AUTO 13008KT 10SM BKN027 20/15 A2991 1040 72 1900 130/08 RMK AO2 SLP135 T02000150 56023
14926KSTC STC20000612205510206/12/00 20:55:31  5-MIN KSTC 130255Z AUTO 14007KT 10SM BKN027 20/15 A2991 1030 72 1900 130/07 RMK AO2
14926KSTC STC20000612210010206/12/00 21:00:31  5-MIN KSTC 130300Z AUTO 15008KT 10SM BKN027 20/15 A2991 1030 72 1900 140/08 RMK AO2
14926KSTC STC20000612210510206/12/00 21:05:31  5-MIN KSTC 130305Z AUTO 14008KT 10SM OVC027 20/15 A2991 1040 72 1900 130/08 RMK AO2
14926KSTC STC20000612211010206/12/00 21:10:31  5-MIN KSTC 130310Z AUTO 14008KT 10SM OVC027 20/15 A2990 1040 72 1900 130/08 RMK AO2
14926KSTC STC20000612211510206/12/00 21:15:31  5-MIN KSTC 130315Z AUTO 13008KT 10SM OVC027 20/15 A2990 1040 72 1900 130/08 RMK AO2
14926KSTC STC20000612212010206/12/00 21:20:31  5-MIN KSTC 130320Z AUTO 14011KT 10SM OVC027 20/14 A2991 1040 70 1900 130/11 RMK AO2
14926KSTC STC20000612212510206/12/00 21:25:31  5-MIN KSTC 130325Z AUTO 14008KT 10SM OVC027 20/14 A2991 1040 70 1900 140/08 RMK AO2
14926KSTC STC20000612213010206/12/00 21:30:31  5-MIN KSTC 130330Z AUTO 15010KT 10SM OVC027 20/14 A2991 1030 70 1900 150/10 RMK AO2
14926KSTC STC20000612213510206/12/00 21:35:31  5-MIN KSTC 130335Z AUTO 15007KT 10SM OVC027 19/14 A2991 1040 72 1800 150/07 RMK AO2
14926KSTC STC20000612214010206/12/00 21:40:31  5-MIN KSTC 130340Z AUTO 15008KT 10SM OVC027 19/14 A2990 1040 72 1800 140/08 RMK AO2
14926KSTC STC20000612214510206/12/00 21:45:31  5-MIN KSTC 130345Z AUTO 14008KT 10SM OVC029 19/14 A2990 1050 72 1800 140/08 RMK AO2
14926KSTC STC20000612215011906/12/00 21:50:31  5-MIN KSTC 130350Z AUTO 14011KT 10SM OVC029 19/14 A2990 1040 72 1800 140/11 RMK AO2 SLP132 T01940144
14926KSTC STC20000612215510206/12/00 21:55:31  5-MIN KSTC 130355Z AUTO 14009KT 10SM BKN029 19/14 A2990 1050 72 1800 130/09 RMK AO2
14926KSTC STC20000612220010206/12/00 22:00:31  5-MIN KSTC 130400Z AUTO 14009KT 10SM BKN029 19/14 A2990 1050 72 1800 140/09 RMK AO2
14926KSTC STC20000612220510206/12/00 22:05:31  5-MIN KSTC 130405Z AUTO 14008KT 10SM SCT029 19/14 A2990 1050 75 1800 140/08 RMK AO2
14926KSTC STC20000612221010206/12/00 22:10:31  5-MIN KSTC 130410Z AUTO 14008KT 10SM FEW029 19/14 A2989 1050 75 1800 140/08 RMK AO2
14926KSTC STC20000612221510206/12/00 22:15:31  5-MIN KSTC 130415Z AUTO 14008KT 10SM FEW029 19/14 A2989 1050 75 1800 140/08 RMK AO2
14926KSTC STC20000612222009906/12/00 22:20:31  5-MIN KSTC 130420Z AUTO 13006KT 10SM CLR 18/14 A2989 1060 78 1700 130/06 RMK AO2
14926KSTC STC20000612222509906/12/00 22:25:31  5-MIN KSTC 130425Z AUTO 14008KT 10SM CLR 18/14 A2989 1050 78 1700 140/08 RMK AO2
14926KSTC STC20000612223009906/12/00 22:30:31  5-MIN KSTC 130430Z AUTO 13006KT 10SM CLR 18/14 A2989 1050 78 1700 130/06 RMK AO2
14926KSTC STC20000612223509906/12/00 22:35:31  5-MIN KSTC 130435Z AUTO 14007KT 10SM CLR 18/14 A2989 1050 78 1700 140/07 RMK AO2
14926KSTC STC20000612224009906/12/00 22:40:31  5-MIN KSTC 130440Z AUTO 13007KT 10SM CLR 18/14 A2990 1050 81 1700 130/07 RMK AO2
14926KSTC STC20000612224509906/12/00 22:45:31  5-MIN KSTC 130445Z AUTO 13008KT 10SM CLR 18/14 A2990 1050 78 1700 130/08 RMK AO2
14926KSTC STC20000612225011606/12/00 22:50:31  5-MIN KSTC 130450Z AUTO 14008KT 10SM CLR 18/14 A2990 1040 78 1700 130/08 RMK AO2 SLP132 T01830144
14926KSTC STC20000612225509906/12/00 22:55:31  5-MIN KSTC 130455Z AUTO 14008KT 10SM CLR 18/14 A2990 1040 78 1700 140/08 RMK AO2
14926KSTC STC20000612230009906/12/00 23:00:31  5-MIN KSTC 130500Z AUTO 13010KT 10SM CLR 18/14 A2990 1040 81 1700 130/10 RMK AO2
14926KSTC STC20000612230509906/12/00 23:05:31  5-MIN KSTC 130505Z AUTO 13007KT 10SM CLR 18/14 A2990 1050 81 1700 130/07 RMK AO2
14926KSTC STC20000612231009906/12/00 23:10:31  5-MIN KSTC 130510Z AUTO 13008KT 10SM CLR 18/14 A2989 1050 81 1700 130/08 RMK AO2
14926KSTC STC20000612231510606/12/00 23:15:31  5-MIN KSTC 130515Z AUTO 12008KT 10SM CLR 18/14 A2988 1060 81 1700 120/08 RMK AO2 PRESFR
14926KSTC STC20000612232009906/12/00 23:20:31  5-MIN KSTC 130520Z AUTO 13008KT 10SM CLR 18/14 A2988 1060 81 1700 130/08 RMK AO2
14926KSTC STC20000612232509906/12/00 23:25:31  5-MIN KSTC 130525Z AUTO 14008KT 10SM CLR 17/14 A2988 1060 83 1600 130/08 RMK AO2
14926KSTC STC20000612233009906/12/00 23:30:31  5-MIN KSTC 130530Z AUTO 15007KT 10SM CLR 17/14 A2990 1040 83 1600 140/07 RMK AO2
14926KSTC STC20000612233509906/12/00 23:35:31  5-MIN KSTC 130535Z AUTO 15007KT 10SM CLR 17/14 A2990 1040 83 1600 150/07 RMK AO2
14926KSTC STC20000612234009906/12/00 23:40:31  5-MIN KSTC 130540Z AUTO 14007KT 10SM CLR 17/14 A2989 1050 80 1600 140/07 RMK AO2
14926KSTC STC20000612234509906/12/00 23:45:31  5-MIN KSTC 130545Z AUTO 15008KT 10SM CLR 17/14 A2990 1050 80 1600 140/08 RMK AO2
14926KSTC STC20000612235014706/12/00 23:50:31  5-MIN KSTC 130550Z AUTO 13007KT 10SM FEW020 17/14 A2989 1060 80 1600 130/07 RMK AO2 SLP126 T01720139 10228 20167 402330072 55004
14926KSTC STC20000612235510206/12/00 23:55:31  5-MIN KSTC 130555Z AUTO 13008KT 10SM SCT020 17/14 A2988 1060 80 1600 130/08 RMK AO2
14926KSTC STC20000613000010206/13/00 00:00:31  5-MIN KSTC 130600Z AUTO 13009KT 10SM BKN020 17/14 A2988 1060 80 1600 130/09 RMK AO2
14926KSTC STC20000613000510906/13/00 00:05:31  5-MIN KSTC 130605Z AUTO 13007KT 10SM BKN020 BKN026 17/14 A2988 1060 80 1600 130/07 RMK AO2
14926KSTC STC20000613001010906/13/00 00:10:31  5-MIN KSTC 130610Z AUTO 12007KT 10SM BKN020 BKN026 17/14 A2988 1060 80 1600 120/07 RMK AO2
14926KSTC STC20000613001510906/13/00 00:15:31  5-MIN KSTC 130615Z AUTO 14007KT 10SM BKN020 OVC026 17/14 A2988 1070 80 1600 140/07 RMK AO2
14926KSTC STC20000613002010206/13/00 00:20:31  5-MIN KSTC 130620Z AUTO 14009KT 10SM OVC020 17/14 A2988 1070 80 1600 130/09 RMK AO2
14926KSTC STC20000613002510206/13/00 00:25:31  5-MIN KSTC 130625Z AUTO 14009KT 10SM OVC022 17/14 A2987 1070 80 1600 130/09 RMK AO2
14926KSTC STC20000613003010906/13/00 00:30:31  5-MIN KSTC 130630Z AUTO 13009KT 10SM BKN020 OVC025 17/14 A2987 1070 80 1600 130/09 RMK AO2
14926KSTC STC20000613003510906/13/00 00:35:31  5-MIN KSTC 130635Z AUTO 14010KT 10SM BKN020 OVC025 17/14 A2988 1060 80 1600 140/10 RMK AO2
14926KSTC STC20000613004010906/13/00 00:40:31  5-MIN KSTC 130640Z AUTO 14011KT 10SM BKN020 OVC025 17/14 A2988 1060 80 1600 130/11 RMK AO2
14926KSTC STC20000613004510906/13/00 00:45:31  5-MIN KSTC 130645Z AUTO 14011KT 10SM BKN018 OVC025 17/14 A2988 1070 80 1600 140/11 RMK AO2
14926KSTC STC20000613005011906/13/00 00:50:31  5-MIN KSTC 130650Z AUTO 14009KT 10SM OVC018 17/14 A2988 1060 80 1600 130/09 RMK AO2 SLP123 T01720139
14926KSTC STC20000613005510206/13/00 00:55:31  5-MIN KSTC 130655Z AUTO 14010KT 10SM OVC018 17/14 A2988 1070 80 1600 140/10 RMK AO2
14926KSTC STC20000613010010206/13/00 01:00:31  5-MIN KSTC 130700Z AUTO 13009KT 10SM OVC018 17/14 A2988 1070 80 1600 130/09 RMK AO2
14926KSTC STC20000613010510206/13/00 01:05:31  5-MIN KSTC 130705Z AUTO 13008KT 10SM OVC016 17/14 A2987 1070 80 1600 130/08 RMK AO2
14926KSTC STC20000613011010206/13/00 01:10:31  5-MIN KSTC 130710Z AUTO 14009KT 10SM OVC016 17/14 A2987 1080 80 1600 140/09 RMK AO2
14926KSTC STC20000613011510806/13/00 01:15:31  5-MIN KSTC 130715Z AUTO 14008G15KT 10SM OVC016 17/14 A2986 1080 80 1600 140/08G15 RMK AO2
14926KSTC STC20000613012010206/13/00 01:20:31  5-MIN KSTC 130720Z AUTO 14010KT 10SM OVC016 17/14 A2986 1080 80 1600 130/10 RMK AO2
14926KSTC STC20000613012510806/13/00 01:25:31  5-MIN KSTC 130725Z AUTO 13011G16KT 10SM OVC016 17/14 A2986 1090 80 1600 130/11G16 RMK AO2
14926KSTC STC20000613013010806/13/00 01:30:31  5-MIN KSTC 130730Z AUTO 14012G18KT 10SM OVC016 17/13 A2986 1090 80 1600 130/12G18 RMK AO2
14926KSTC STC20000613013510206/13/00 01:35:31  5-MIN KSTC 130735Z AUTO 13012KT 10SM OVC014 17/13 A2985 1090 80 1600 130/12 RMK AO2
14926KSTC STC20000613014010206/13/00 01:40:31  5-MIN KSTC 130740Z AUTO 14014KT 10SM OVC014 17/13 A2985 1090 80 1600 140/14 RMK AO2
14926KSTC STC20000613014510206/13/00 01:45:31  5-MIN KSTC 130745Z AUTO 13010KT 10SM OVC014 17/13 A2985 1090 80 1600 130/10 RMK AO2
14926KSTC STC20000613015011906/13/00 01:50:31  5-MIN KSTC 130750Z AUTO 13011KT 10SM OVC014 17/13 A2984 1100 80 1600 130/11 RMK AO2 SLP110 T01670133
14926KSTC STC20000613015510906/13/00 01:55:31  5-MIN KSTC 130755Z AUTO 14009KT 10SM OVC014 17/13 A2983 1110 80 1600 130/09 RMK AO2 PRESFR
14926KSTC STC20000613020010906/13/00 02:00:31  5-MIN KSTC 130800Z AUTO 13010KT 10SM OVC014 17/13 A2983 1110 80 1600 130/10 RMK AO2 PRESFR
14926KSTC STC20000613020510906/13/00 02:05:31  5-MIN KSTC 130805Z AUTO 12008KT 10SM OVC014 17/13 A2982 1120 80 1600 120/08 RMK AO2 PRESFR
14926KSTC STC20000613021010906/13/00 02:10:31  5-MIN KSTC 130810Z AUTO 10010KT 10SM OVC014 17/13 A2981 1130 80 1600 100/10 RMK AO2 PRESFR
14926KSTC STC20000613021510206/13/00 02:15:31  5-MIN KSTC 130815Z AUTO 13011KT 10SM OVC014 17/13 A2981 1130 80 1600 120/11 RMK AO2
14926KSTC STC20000613022010206/13/00 02:20:31  5-MIN KSTC 130820Z AUTO 13011KT 10SM OVC014 16/13 A2981 1130 83 1600 130/11 RMK AO2
14926KSTC STC20000613022510206/13/00 02:25:31  5-MIN KSTC 130825Z AUTO 14009KT 10SM OVC012 16/13 A2981 1130 83 1600 130/09 RMK AO2
14926KSTC STC20000613023010206/13/00 02:30:31  5-MIN KSTC 130830Z AUTO 12008KT 10SM OVC012 16/13 A2981 1130 83 1600 120/08 RMK AO2
14926KSTC STC20000613023510206/13/00 02:35:31  5-MIN KSTC 130835Z AUTO 14009KT 10SM OVC012 16/13 A2980 1130 83 1600 130/09 RMK AO2
14926KSTC STC20000613024010206/13/00 02:40:31  5-MIN KSTC 130840Z AUTO 13008KT 10SM OVC012 16/13 A2980 1140 83 1600 130/08 RMK AO2
14926KSTC STC20000613024510206/13/00 02:45:31  5-MIN KSTC 130845Z AUTO 12008KT 10SM OVC012 16/13 A2979 1150 83 1600 120/08 RMK AO2
14926KSTC STC20000613025012506/13/00 02:50:31  5-MIN KSTC 130850Z AUTO 12008KT 10SM OVC012 16/13 A2979 1150 83 1600 120/08 RMK AO2 SLP093 T01610133 58008
14926KSTC STC20000613025510206/13/00 02:55:31  5-MIN KSTC 130855Z AUTO 12009KT 10SM OVC012 16/13 A2978 1150 83 1600 120/09 RMK AO2
14926KSTC STC20000613030010206/13/00 03:00:31  5-MIN KSTC 130900Z AUTO 12008KT 10SM OVC012 16/13 A2978 1160 83 1600 120/08 RMK AO2
14926KSTC STC20000613030510206/13/00 03:05:31  5-MIN KSTC 130905Z AUTO 13008KT 10SM OVC012 16/13 A2978 1150 83 1600 130/08 RMK AO2
14926KSTC STC20000613031010206/13/00 03:10:31  5-MIN KSTC 130910Z AUTO 13010KT 10SM OVC012 16/13 A2977 1170 83 1600 120/10 RMK AO2
14926KSTC STC20000613031510206/13/00 03:15:31  5-MIN KSTC 130915Z AUTO 12008KT 10SM OVC012 16/13 A2977 1170 83 1600 120/08 RMK AO2
14926KSTC STC20000613032010206/13/00 03:20:31  5-MIN KSTC 130920Z AUTO 12010KT 10SM OVC012 16/13 A2978 1160 83 1600 120/10 RMK AO2
14926KSTC STC20000613032510206/13/00 03:25:31  5-MIN KSTC 130925Z AUTO 12009KT 10SM OVC012 16/13 A2978 1160 83 1600 120/09 RMK AO2
14926KSTC STC20000613033010206/13/00 03:30:31  5-MIN KSTC 130930Z AUTO 12008KT 10SM OVC012 16/13 A2978 1160 83 1600 120/08 RMK AO2
14926KSTC STC20000613033510206/13/00 03:35:31  5-MIN KSTC 130935Z AUTO 11007KT 10SM OVC012 16/13 A2978 1160 83 1600 100/07 RMK AO2
14926KSTC STC20000613034010206/13/00 03:40:31  5-MIN KSTC 130940Z AUTO 11007KT 10SM OVC012 16/13 A2978 1160 83 1600 100/07 RMK AO2
14926KSTC STC20000613034510206/13/00 03:45:31  5-MIN KSTC 130945Z AUTO 10008KT 10SM OVC010 16/13 A2977 1160 83 1600 100/08 RMK AO2
14926KSTC STC20000613035012406/13/00 03:50:31  5-MIN KSTC 130950Z AUTO 10008G15KT 9SM OVC010 16/13 A2977 1160 86 1500 100/08G15 RMK AO2 SLP086 T01560133
14926KSTC STC20000613035510706/13/00 03:55:31  5-MIN KSTC 130955Z AUTO 11008G15KT 8SM OVC010 16/13 A2977 1160 86 1500 110/08G15 RMK AO2
14926KSTC STC20000613040010106/13/00 04:00:31  5-MIN KSTC 131000Z AUTO 11011KT 8SM OVC010 16/13 A2977 1170 86 1500 110/11 RMK AO2
14926KSTC STC20000613040510106/13/00 04:05:31  5-MIN KSTC 131005Z AUTO 11011KT 8SM OVC010 16/13 A2977 1170 86 1500 110/11 RMK AO2
14926KSTC STC20000613041010106/13/00 04:10:31  5-MIN KSTC 131010Z AUTO 13011KT 8SM OVC010 16/13 A2977 1160 86 1500 130/11 RMK AO2
14926KSTC STC20000613041510106/13/00 04:15:31  5-MIN KSTC 131015Z AUTO 12011KT 7SM OVC008 16/13 A2978 1160 86 1500 120/11 RMK AO2
14926KSTC STC20000613042010106/13/00 04:20:31  5-MIN KSTC 131020Z AUTO 12010KT 7SM OVC008 16/13 A2978 1160 86 1500 120/10 RMK AO2
14926KSTC STC20000613042510406/13/00 04:25:31  5-MIN KSTC 131025Z AUTO 12011KT 6SM BR OVC008 15/13 A2978 1150 86 1500 110/11 RMK AO2
14926KSTC STC20000613043013306/13/00 04:30:31  5-MIN KSTC 131030Z AUTO 16009G15KT 120V190 6SM BR OVC008 15/13 A2984 1100 86 1400 160/09G15 120V190 RMK AO2 PRESRR
14926KSTC STC20000613043511706/13/00 04:35:31  5-MIN KSTC 131035Z AUTO 21012G15KT 6SM BR OVC008 16/13 A2986 1080 86 1400 210/12G15 RMK AO2 PRESRR
14926KSTC STC20000613044011006/13/00 04:40:31  5-MIN KSTC 131040Z AUTO 12006G15KT 6SM BR OVC008 16/13 A2983 1110 86 1500 120/06G15 RMK AO2
14926KSTC STC20000613044510406/13/00 04:45:31  5-MIN KSTC 131045Z AUTO 14006KT 6SM BR OVC008 16/13 A2983 1110 86 1500 140/06 RMK AO2
14926KSTC STC20000613045012106/13/00 04:50:31  5-MIN KSTC 131050Z AUTO 13006KT 6SM BR OVC010 16/13 A2982 1120 86 1500 130/06 RMK AO2 SLP102 T01560133
14926KSTC STC20000613045512006/13/00 04:55:31  5-MIN KSTC 131055Z AUTO 11006KT 6SM -RA BR OVC010 16/13 A2981 1130 86 1500 100/06 RMK AO2 RAB55 P0000
14926KSTC STC20000613050013106/13/00 05:00:31  5-MIN KSTC 131100Z AUTO VRB03KT 6SM -TSRA BR OVC010 16/13 A2983 1110 86 1500 VRB/03 RMK AO2 TSB1059RAB1055 P0000
14926KSTC STC20000613050513106/13/00 05:05:31  5-MIN KSTC 131105Z AUTO 10006KT 6SM TS BR OVC010 16/13 A2982 1120 86 1500 090/06 RMK AO2 TSB1059RAB1055E04 P0000
14926KSTC STC20000613051013106/13/00 05:10:31  5-MIN KSTC 131110Z AUTO 10006KT 5SM TS BR OVC010 15/13 A2983 1110 90 1400 100/06 RMK AO2 TSB1059RAB1055E04 P0000
14926KSTC STC20000613051513806/13/00 05:15:31  5-MIN KSTC 131115Z AUTO 34006KT 5SM TS BR OVC010 15/13 A2984 1100 90 1400 330/06 RMK AO2 TSB1059RAB1055E04 PRESRR P0000
14926KSTC STC20000613052013106/13/00 05:20:31  5-MIN KSTC 131120Z AUTO 35008KT 5SM TS BR OVC010 15/13 A2984 1100 90 1400 350/08 RMK AO2 TSB1059RAB1055E04 P0000
14926KSTC STC20000613052513106/13/00 05:25:31  5-MIN KSTC 131125Z AUTO 01006KT 4SM TS BR OVC010 15/13 A2983 1110 90 1400 360/06 RMK AO2 TSB1059RAB1055E04 P0000
14926KSTC STC20000613053013106/13/00 05:30:31  5-MIN KSTC 131130Z AUTO 02008KT 4SM TS BR OVC010 15/13 A2983 1110 90 1400 010/08 RMK AO2 TSB1059RAB1055E04 P0000
14926KSTC STC20000613053513106/13/00 05:35:31  5-MIN KSTC 131135Z AUTO 05004KT 4SM TS BR OVC010 15/13 A2984 1100 90 1400 050/04 RMK AO2 TSB1059RAB1055E04 P0000
14926KSTC STC20000613054013106/13/00 05:40:31  5-MIN KSTC 131140Z AUTO 04006KT 4SM TS BR OVC010 15/13 A2984 1100 90 1400 040/06 RMK AO2 TSB1059RAB1055E04 P0000
14926KSTC STC20000613054513106/13/00 05:45:31  5-MIN KSTC 131145Z AUTO 06007KT 4SM TS BR OVC010 15/13 A2983 1110 90 1400 060/07 RMK AO2 TSB1059RAB1055E04 P0000
14926KSTC STC20000613055018106/13/00 05:50:31  5-MIN KSTC 131150Z AUTO 08008KT 4SM VCTS BR BKN010 OVC015 15/13 A2983 1110 90 1400 080/08 RMK AO2 TSB1059RAB1055E04 SLP107 P0000 60000 T01500133 10172 20150 58032
14926KSTC STC20000613055511606/13/00 05:55:31  5-MIN KSTC 131155Z AUTO 09009KT 4SM VCTS BR BKN010 OVC015 15/13 A2982 1120 90 1400 090/09 RMK AO2
14926KSTC STC20000613060011906/13/00 06:00:31  5-MIN KSTC 131200Z AUTO 08010KT 5SM BR OVC013 15/13 A2980 1140 90 1400 080/10 RMK AO2 TSE1158 PRESFR
14926KSTC STC20000613060511206/13/00 06:05:31  5-MIN KSTC 131205Z AUTO 10009KT 6SM BR OVC013 15/13 A2982 1120 90 1400 090/09 RMK AO2 TSE1158
14926KSTC STC20000613061013106/13/00 06:10:31  5-MIN KSTC 131210Z AUTO 09009KT 6SM BR BKN010 OVC013 15/13 A2983 1110 90 1400 090/09 RMK AO2 TSE1158 CIG 008V013
14926KSTC STC20000613061513106/13/00 06:15:31  5-MIN KSTC 131215Z AUTO 11011KT 6SM BR BKN010 OVC013 15/13 A2982 1120 90 1400 100/11 RMK AO2 TSE1158 CIG 008V013
14926KSTC STC20000613062013106/13/00 06:20:31  5-MIN KSTC 131220Z AUTO 10010KT 6SM BR BKN010 OVC013 15/13 A2983 1110 90 1400 090/10 RMK AO2 TSE1158 CIG 008V013
14926KSTC STC20000613062511206/13/00 06:25:31  5-MIN KSTC 131225Z AUTO 10010KT 6SM BR OVC013 15/13 A2983 1110 90 1400 100/10 RMK AO2 TSE1158
14926KSTC STC20000613063011206/13/00 06:30:31  5-MIN KSTC 131230Z AUTO 09012KT 6SM BR OVC011 15/13 A2982 1110 86 1400 090/12 RMK AO2 TSE1158
14926KSTC STC20000613063512406/13/00 06:35:31  5-MIN KSTC 131235Z AUTO 09012KT 6SM BR OVC011 14/13 A2982 1120 90 1400 090/12 RMK AO2 TSE1158 CIG 006V013
14926KSTC STC20000613064012606/13/00 06:40:31  5-MIN KSTC 131240Z AUTO 09010KT 5SM BR FEW007 OVC011 14/13 A2980 1130 90 1400 080/10 RMK AO2 TSE1158 PRESFR
14926KSTC STC20000613064511906/13/00 06:45:31  5-MIN KSTC 131245Z AUTO 10011KT 5SM BR SCT005 OVC011 14/13 A2981 1130 90 1400 090/11 RMK AO2 TSE1158
14926KSTC STC20000613065013606/13/00 06:50:31  5-MIN KSTC 131250Z AUTO 09012KT 5SM BR BKN005 OVC011 14/13 A2980 1140 90 1400 090/12 RMK AO2 TSE1158 SLP097 T01440128
14926KSTC STC20000613065511106/13/00 06:55:31  5-MIN KSTC 131255Z AUTO 09010KT 4SM BR BKN005 OVC011 14/13 A2981 1130 90 1400 080/10 RMK AO2
14926KSTC STC20000613070011106/13/00 07:00:31  5-MIN KSTC 131300Z AUTO 09009KT 4SM BR BKN005 OVC011 14/13 A2981 1130 90 1400 090/09 RMK AO2
14926KSTC STC20000613070512306/13/00 07:05:31  5-MIN KSTC 131305Z AUTO 09011KT 5SM BR BKN005 OVC010 14/13 A2980 1130 90 1400 090/11 RMK AO2 CIG 005V008
14926KSTC STC20000613071011606/13/00 07:10:31  5-MIN KSTC 131310Z AUTO 10011KT 6SM BR OVC008 14/13 A2980 1140 90 1400 100/11 RMK AO2 CIG 005V010
14926KSTC STC20000613071511306/13/00 07:15:31  5-MIN KSTC 131315Z AUTO 09010KT 7SM OVC008 14/13 A2979 1150 90 1400 080/10 RMK AO2 CIG 005V010
14926KSTC STC20000613072014506/13/00 07:20:31  5-MIN KSTC 131320Z AUTO 09012G19KT 6SM -RA BR OVC008 14/13 A2978 1150 90 1400 080/12G19 RMK AO2 RAB18 CIG 005V010 PRESFR P0000
14926KSTC STC20000613072513806/13/00 07:25:31  5-MIN KSTC 131325Z AUTO 10009G19KT 6SM -RA BR OVC008 14/13 A2979 1150 90 1400 100/09G19 RMK AO2 RAB18 CIG 006V010 P0000
14926KSTC STC20000613073015106/13/00 07:30:31  5-MIN KSTC 131330Z AUTO 09013G17KT 6SM BR BKN006 OVC010 14/13 A2977 1170 90 1400 090/13G17 RMK AO2 RAB18E30 CIG 005V009 PRESFR P0000
14926KSTC STC20000613073514506/13/00 07:35:31  5-MIN KSTC 131335Z AUTO 10012KT 6SM BR BKN006 OVC010 14/13 A2977 1170 90 1400 100/12 RMK AO2 RAB18E30 CIG 005V009 PRESFR P0000
14926KSTC STC20000613074013706/13/00 07:40:31  5-MIN KSTC 131340Z AUTO 10011G17KT 5SM BR OVC006 14/13 A2977 1170 90 1400 100/11G17 RMK AO2 RAB18E30 CIG 005V010 P0000
14926KSTC STC20000613074512506/13/00 07:45:31  5-MIN KSTC 131345Z AUTO 12011G17KT 5SM BR OVC006 14/13 A2978 1160 90 1400 120/11G17 RMK AO2 RAB18E30 P0000
14926KSTC STC20000613075014206/13/00 07:50:31  5-MIN KSTC 131350Z AUTO 12013G18KT 6SM BR OVC006 14/13 A2977 1160 90 1400 110/13G18 RMK AO2 RAB18E30 SLP089 P0000 T01440128
14926KSTC STC20000613075511006/13/00 07:55:31  5-MIN KSTC 131355Z AUTO 12010G18KT 6SM BR OVC006 15/13 A2978 1160 86 1500 120/10G18 RMK AO2
14926KSTC STC20000613080010406/13/00 08:00:31  5-MIN KSTC 131400Z AUTO 12011KT 6SM BR OVC006 14/13 A2979 1150 90 1400 120/11 RMK AO2
14926KSTC STC20000613080510406/13/00 08:05:31  5-MIN KSTC 131405Z AUTO 12011KT 6SM BR OVC006 15/13 A2979 1150 86 1500 120/11 RMK AO2
14926KSTC STC20000613081011606/13/00 08:10:31  5-MIN KSTC 131410Z AUTO 13010KT 6SM BR OVC006 15/13 A2979 1150 86 1500 120/10 RMK AO2 CIG 005V009
14926KSTC STC20000613081510406/13/00 08:15:31  5-MIN KSTC 131415Z AUTO 12008KT 6SM BR OVC006 15/13 A2978 1150 86 1500 110/08 RMK AO2
14926KSTC STC20000613082010406/13/00 08:20:31  5-MIN KSTC 131420Z AUTO 12011KT 6SM BR OVC006 15/13 A2978 1160 86 1500 120/11 RMK AO2
14926KSTC STC20000613082510106/13/00 08:25:31  5-MIN KSTC 131425Z AUTO 12011KT 7SM OVC006 15/13 A2977 1160 86 1500 110/11 RMK AO2
14926KSTC STC20000613083010806/13/00 08:30:31  5-MIN KSTC 131430Z AUTO 13011KT 7SM BKN006 OVC016 16/13 A2977 1160 86 1500 120/11 RMK AO2
14926KSTC STC20000613083510806/13/00 08:35:31  5-MIN KSTC 131435Z AUTO 13009KT 7SM BKN006 OVC014 16/13 A2979 1150 86 1500 130/09 RMK AO2
14926KSTC STC20000613084010806/13/00 08:40:31  5-MIN KSTC 131440Z AUTO 11007KT 7SM SCT008 OVC014 16/13 A2978 1150 86 1500 110/07 RMK AO2
14926KSTC STC20000613084511406/13/00 08:45:31  5-MIN KSTC 131445Z AUTO 11011G14KT 8SM BKN008 OVC014 15/13 A2978 1160 90 1500 110/11G14 RMK AO2
14926KSTC STC20000613085014306/13/00 08:50:31  5-MIN KSTC 131450Z AUTO 12010G14KT 7SM BKN008 OVC014 15/13 A2978 1160 90 1500 120/10G14 RMK AO2 SLP091 60000 T01500133 53012
14926KSTC STC20000613085510806/13/00 08:55:31  5-MIN KSTC 131455Z AUTO 12011KT 7SM BKN008 OVC014 15/13 A2977 1160 90 1500 120/11 RMK AO2
14926KSTC STC20000613090011106/13/00 09:00:31  5-MIN KSTC 131500Z AUTO 12009KT 6SM BR BKN008 OVC014 15/13 A2977 1170 90 1500 120/09 RMK AO2
14926KSTC STC20000613090510406/13/00 09:05:31  5-MIN KSTC 131505Z AUTO 13009KT 6SM BR OVC008 15/13 A2977 1170 90 1500 120/09 RMK AO2
14926KSTC STC20000613091010406/13/00 09:10:31  5-MIN KSTC 131510Z AUTO 12007KT 6SM BR OVC008 15/13 A2977 1160 90 1500 120/07 RMK AO2
14926KSTC STC20000613091512006/13/00 09:15:31  5-MIN KSTC 131515Z AUTO 12008KT 080V150 6SM BR OVC008 16/13 A2977 1170 86 1500 120/08 080V150 RMK AO2
14926KSTC STC20000613092010406/13/00 09:20:31  5-MIN KSTC 131520Z AUTO 13008KT 6SM BR OVC008 16/13 A2977 1170 86 1500 120/08 RMK AO2
14926KSTC STC20000613092510406/13/00 09:25:31  5-MIN KSTC 131525Z AUTO 12009KT 6SM BR OVC008 15/13 A2977 1170 90 1500 120/09 RMK AO2
14926KSTC STC20000613093010406/13/00 09:30:31  5-MIN KSTC 131530Z AUTO 12009KT 6SM BR OVC008 15/13 A2977 1170 90 1500 120/09 RMK AO2
14926KSTC STC20000613093510406/13/00 09:35:31  5-MIN KSTC 131535Z AUTO 12009KT 6SM BR OVC006 16/13 A2976 1170 86 1600 120/09 RMK AO2
14926KSTC STC20000613094010406/13/00 09:40:31  5-MIN KSTC 131540Z AUTO 12007KT 6SM BR OVC006 16/13 A2976 1170 86 1600 120/07 RMK AO2
14926KSTC STC20000613094510406/13/00 09:45:31  5-MIN KSTC 131545Z AUTO 12007KT 5SM BR OVC006 16/13 A2976 1180 86 1600 120/07 RMK AO2
14926KSTC STC20000613095012106/13/00 09:50:31  5-MIN KSTC 131550Z AUTO 12010KT 5SM BR OVC006 16/14 A2976 1180 90 1600 110/10 RMK AO2 SLP083 T01560139
14926KSTC STC20000613095510406/13/00 09:55:31  5-MIN KSTC 131555Z AUTO 12008KT 5SM BR OVC006 16/14 A2975 1180 86 1600 120/08 RMK AO2
14926KSTC STC20000613100010406/13/00 10:00:31  5-MIN KSTC 131600Z AUTO 13008KT 5SM BR OVC006 16/14 A2974 1190 86 1600 130/08 RMK AO2
14926KSTC STC20000613100510406/13/00 10:05:31  5-MIN KSTC 131605Z AUTO 13008KT 5SM BR OVC006 16/14 A2974 1200 86 1600 120/08 RMK AO2
14926KSTC STC20000613101010406/13/00 10:10:31  5-MIN KSTC 131610Z AUTO 12012KT 5SM BR OVC006 16/14 A2974 1190 86 1600 120/12 RMK AO2
14926KSTC STC20000613101510406/13/00 10:15:31  5-MIN KSTC 131615Z AUTO 13010KT 5SM BR OVC006 16/14 A2974 1200 86 1600 130/10 RMK AO2
14926KSTC STC20000613102011006/13/00 10:20:31  5-MIN KSTC 131620Z AUTO 12012G15KT 5SM BR OVC006 16/14 A2973 1200 86 1700 110/12G15 RMK AO2
14926KSTC STC20000613102511006/13/00 10:25:31  5-MIN KSTC 131625Z AUTO 12011G15KT 5SM BR OVC006 16/14 A2973 1200 86 1600 110/11G15 RMK AO2
14926KSTC STC20000613103010406/13/00 10:30:31  5-MIN KSTC 131630Z AUTO 12011KT 5SM BR OVC006 16/14 A2973 1200 86 1700 120/11 RMK AO2
14926KSTC STC20000613103510406/13/00 10:35:31  5-MIN KSTC 131635Z AUTO 13009KT 5SM HZ OVC006 17/14 A2973 1200 83 1700 120/09 RMK AO2
14926KSTC STC20000613104010406/13/00 10:40:31  5-MIN KSTC 131640Z AUTO 13007KT 5SM BR OVC006 16/14 A2973 1200 86 1600 130/07 RMK AO2
14926KSTC STC20000613104510406/13/00 10:45:31  5-MIN KSTC 131645Z AUTO 13009KT 5SM BR OVC006 16/14 A2973 1200 86 1600 130/09 RMK AO2
14926KSTC STC20000613105012106/13/00 10:50:31  5-MIN KSTC 131650Z AUTO 12010KT 5SM HZ OVC006 17/14 A2974 1200 83 1700 120/10 RMK AO2 SLP076 T01670139
14926KSTC STC20000613105510406/13/00 10:55:31  5-MIN KSTC 131655Z AUTO 12008KT 5SM HZ OVC006 17/14 A2973 1200 83 1700 120/08 RMK AO2
14926KSTC STC20000613110010406/13/00 11:00:31  5-MIN KSTC 131700Z AUTO 12008KT 5SM HZ OVC006 17/14 A2973 1200 83 1800 120/08 RMK AO2
14926KSTC STC20000613110510406/13/00 11:05:31  5-MIN KSTC 131705Z AUTO 13008KT 6SM HZ OVC006 17/14 A2972 1210 83 1800 120/08 RMK AO2
14926KSTC STC20000613111011106/13/00 11:10:31  5-MIN KSTC 131710Z AUTO 12011KT 6SM HZ OVC008 17/14 A2972 1220 83 1800 120/11 RMK AO2 PRESFR
14926KSTC STC20000613111510406/13/00 11:15:31  5-MIN KSTC 131715Z AUTO 13009KT 6SM HZ OVC008 18/14 A2972 1220 81 1900 120/09 RMK AO2
14926KSTC STC20000613112010406/13/00 11:20:31  5-MIN KSTC 131720Z AUTO 12009KT 6SM HZ OVC008 18/14 A2971 1220 81 1900 120/09 RMK AO2
14926KSTC STC20000613112511606/13/00 11:25:31  5-MIN KSTC 131725Z AUTO 13009KT 6SM HZ OVC008 18/14 A2971 1220 78 1900 130/09 RMK AO2 CIG 007V012
14926KSTC STC20000613113012206/13/00 11:30:31  5-MIN KSTC 131730Z AUTO 12009G15KT 6SM HZ OVC008 18/14 A2971 1220 78 1900 110/09G15 RMK AO2 CIG 008V012
14926KSTC STC20000613113511606/13/00 11:35:31  5-MIN KSTC 131735Z AUTO 12009KT 6SM HZ OVC010 18/14 A2971 1220 78 1900 120/09 RMK AO2 CIG 008V013
14926KSTC STC20000613114010406/13/00 11:40:31  5-MIN KSTC 131740Z AUTO 13009KT 6SM HZ OVC010 19/15 A2971 1220 78 2000 130/09 RMK AO2
14926KSTC STC20000613114510406/13/00 11:45:31  5-MIN KSTC 131745Z AUTO 12009KT 6SM HZ OVC010 19/15 A2970 1230 78 2000 120/09 RMK AO2
14926KSTC STC20000613115014506/13/00 11:50:31  5-MIN KSTC 131750Z AUTO 14010KT 6SM HZ OVC012 19/15 A2970 1230 75 2100 140/10 RMK AO2 SLP064 60000 T01940150 10194 20144 55016
14926KSTC STC20000613115510106/13/00 11:55:31  5-MIN KSTC 131755Z AUTO 13008KT 7SM OVC012 20/15 A2970 1230 72 2100 130/08 RMK AO2
14926KSTC STC20000613120010106/13/00 12:00:31  5-MIN KSTC 131800Z AUTO 12009KT 7SM BKN014 21/15 A2970 1230 70 2200 120/09 RMK AO2
14926KSTC STC20000613120510106/13/00 12:05:31  5-MIN KSTC 131805Z AUTO 13008KT 7SM BKN014 21/16 A2970 1230 70 2300 130/08 RMK AO2
14926KSTC STC20000613121010706/13/00 12:10:31  5-MIN KSTC 131810Z AUTO 13010G14KT 7SM BKN014 22/16 A2970 1230 68 2300 130/10G14 RMK AO2
14926KSTC STC20000613121510106/13/00 12:15:31  5-MIN KSTC 131815Z AUTO 15013KT 8SM BKN016 22/16 A2970 1230 70 2300 150/13 RMK AO2
14926KSTC STC20000613122010106/13/00 12:20:31  5-MIN KSTC 131820Z AUTO 16011KT 8SM SCT016 22/16 A2970 1230 70 2300 160/11 RMK AO2
14926KSTC STC20000613122510806/13/00 12:25:31  5-MIN KSTC 131825Z AUTO 15010KT 8SM FEW016 SCT023 22/16 A2969 1240 68 2400 150/10 RMK AO2
14926KSTC STC20000613123010806/13/00 12:30:31  5-MIN KSTC 131830Z AUTO 15012KT 9SM FEW016 SCT023 23/16 A2969 1240 63 2500 150/12 RMK AO2
14926KSTC STC20000613123510806/13/00 12:35:31  5-MIN KSTC 131835Z AUTO 16012G19KT 10SM FEW019 24/17 A2969 1240 63 2600 150/12G19 RMK AO2
14926KSTC STC20000613124010906/13/00 12:40:31  5-MIN KSTC 131840Z AUTO 17015KT 10SM FEW019 SCT025 24/17 A2969 1240 63 2600 170/15 RMK AO2
14926KSTC STC20000613124510206/13/00 12:45:31  5-MIN KSTC 131845Z AUTO 16013KT 10SM SCT025 24/17 A2969 1240 63 2600 160/13 RMK AO2
14926KSTC STC20000613125011906/13/00 12:50:31  5-MIN KSTC 131850Z AUTO 15011KT 10SM SCT025 24/17 A2968 1240 63 2600 150/11 RMK AO2 SLP056 T02390167
14926KSTC STC20000613125510206/13/00 12:55:31  5-MIN KSTC 131855Z AUTO 15013KT 10SM SCT025 24/17 A2968 1250 63 2600 150/13 RMK AO2
14926KSTC STC20000613130010206/13/00 13:00:31  5-MIN KSTC 131900Z AUTO 15015KT 10SM FEW025 23/16 A2968 1250 63 2500 150/15 RMK AO2
14926KSTC STC20000613130510206/13/00 13:05:31  5-MIN KSTC 131905Z AUTO 15015KT 10SM FEW025 23/17 A2968 1250 66 2500 150/15 RMK AO2
14926KSTC STC20000613131010806/13/00 13:10:31  5-MIN KSTC 131910Z AUTO 16013G19KT 10SM FEW027 23/17 A2968 1250 66 2500 160/13G19 RMK AO2
14926KSTC STC20000613131510206/13/00 13:15:31  5-MIN KSTC 131915Z AUTO 15014KT 10SM FEW025 23/17 A2967 1260 66 2600 150/14 RMK AO2
14926KSTC STC20000613132010606/13/00 13:20:31  5-MIN KSTC 131920Z AUTO 16011KT 10SM CLR 23/17 A2966 1270 68 2500 160/11 RMK AO2 PRESFR
14926KSTC STC20000613132509906/13/00 13:25:31  5-MIN KSTC 131925Z AUTO 14013KT 10SM CLR 23/17 A2966 1270 66 2600 140/13 RMK AO2
14926KSTC STC20000613133010606/13/00 13:30:31  5-MIN KSTC 131930Z AUTO 15012KT 10SM CLR 23/17 A2965 1280 66 2600 150/12 RMK AO2 PRESFR
14926KSTC STC20000613133509906/13/00 13:35:31  5-MIN KSTC 131935Z AUTO 14014KT 10SM CLR 23/17 A2965 1280 66 2600 140/14 RMK AO2
14926KSTC STC20000613134010606/13/00 13:40:31  5-MIN KSTC 131940Z AUTO 14010KT 10SM CLR 23/17 A2964 1290 66 2600 140/10 RMK AO2 PRESFR
14926KSTC STC20000613134509906/13/00 13:45:31  5-MIN KSTC 131945Z AUTO 13012KT 10SM CLR 23/17 A2964 1290 66 2600 130/12 RMK AO2
14926KSTC STC20000613135011606/13/00 13:50:31  5-MIN KSTC 131950Z AUTO 14011KT 10SM CLR 23/17 A2963 1290 68 2600 130/11 RMK AO2 SLP039 T02330172
14926KSTC STC20000613135509906/13/00 13:55:31  5-MIN KSTC 131955Z AUTO 13009KT 10SM CLR 23/17 A2963 1300 68 2600 120/09 RMK AO2
14926KSTC STC20000613140009906/13/00 14:00:31  5-MIN KSTC 132000Z AUTO 14012KT 10SM CLR 24/17 A2963 1290 66 2700 140/12 RMK AO2
14926KSTC STC20000613140509906/13/00 14:05:31  5-MIN KSTC 132005Z AUTO 15011KT 10SM CLR 23/17 A2963 1290 68 2600 140/11 RMK AO2
14926KSTC STC20000613141010206/13/00 14:10:31  5-MIN KSTC 132010Z AUTO 13012KT 10SM FEW025 23/17 A2963 1290 68 2600 120/12 RMK AO2
14926KSTC STC20000613141510206/13/00 14:15:31  5-MIN KSTC 132015Z AUTO 13012KT 10SM FEW025 23/17 A2963 1290 68 2600 120/12 RMK AO2
14926KSTC STC20000613142010206/13/00 14:20:31  5-MIN KSTC 132020Z AUTO 14010KT 10SM SCT025 24/17 A2964 1290 66 2600 140/10 RMK AO2
14926KSTC STC20000613142510206/13/00 14:25:31  5-MIN KSTC 132025Z AUTO 14011KT 10SM BKN025 24/18 A2964 1280 68 2600 130/11 RMK AO2
14926KSTC STC20000613143010206/13/00 14:30:31  5-MIN KSTC 132030Z AUTO 14010KT 10SM BKN025 23/17 A2964 1280 68 2600 130/10 RMK AO2
14926KSTC STC20000613143510206/13/00 14:35:31  5-MIN KSTC 132035Z AUTO 15012KT 10SM BKN025 23/17 A2964 1280 68 2600 150/12 RMK AO2
14926KSTC STC20000613144010206/13/00 14:40:31  5-MIN KSTC 132040Z AUTO 14010KT 10SM BKN025 24/18 A2963 1290 68 2700 140/10 RMK AO2
14926KSTC STC20000613144510206/13/00 14:45:31  5-MIN KSTC 132045Z AUTO 13011KT 10SM BKN025 24/18 A2963 1300 68 2700 130/11 RMK AO2
14926KSTC STC20000613145013206/13/00 14:50:31  5-MIN KSTC 132050Z AUTO 14010KT 10SM BKN025 BKN032 24/18 A2963 1300 68 2700 130/10 RMK AO2 SLP036 T02390178 58024
14926KSTC STC20000613145510906/13/00 14:55:31  5-MIN KSTC 132055Z AUTO 13012KT 10SM BKN025 OVC034 24/18 A2962 1310 68 2700 130/12 RMK AO2
14926KSTC STC20000613150011506/13/00 15:00:31  5-MIN KSTC 132100Z AUTO 14011G17KT 10SM BKN025 BKN032 24/18 A2962 1310 68 2700 130/11G17 RMK AO2
14926KSTC STC20000613150511506/13/00 15:05:31  5-MIN KSTC 132105Z AUTO 13010G17KT 10SM BKN025 BKN032 24/18 A2962 1310 71 2700 130/10G17 RMK AO2
14926KSTC STC20000613151011506/13/00 15:10:31  5-MIN KSTC 132110Z AUTO 15013G17KT 10SM BKN025 OVC034 24/18 A2962 1300 68 2700 140/13G17 RMK AO2
14926KSTC STC20000613151511506/13/00 15:15:31  5-MIN KSTC 132115Z AUTO 13009G17KT 10SM BKN025 OVC034 24/18 A2962 1310 68 2700 130/09G17 RMK AO2
14926KSTC STC20000613152010906/13/00 15:20:31  5-MIN KSTC 132120Z AUTO 14013KT 10SM SCT025 OVC034 24/18 A2962 1310 71 2700 130/13 RMK AO2
14926KSTC STC20000613152510906/13/00 15:25:31  5-MIN KSTC 132125Z AUTO 13011KT 10SM BKN027 OVC034 24/18 A2962 1310 71 2700 120/11 RMK AO2
14926KSTC STC20000613153011606/13/00 15:30:31  5-MIN KSTC 132130Z AUTO 13011KT 10SM BKN025 BKN030 OVC036 23/18 A2961 1310 73 2600 130/11 RMK AO2
14926KSTC STC20000613153510906/13/00 15:35:31  5-MIN KSTC 132135Z AUTO 14009KT 10SM BKN025 OVC034 23/18 A2961 1310 73 2600 130/09 RMK AO2
14926KSTC STC20000613154010906/13/00 15:40:31  5-MIN KSTC 132140Z AUTO 13008KT 10SM BKN025 OVC034 23/18 A2961 1310 73 2600 130/08 RMK AO2
14926KSTC STC20000613154511106/13/00 15:45:31  5-MIN KSTC 132145Z AUTO 14009KT 10SM TS OVC025 23/18 A2961 1310 73 2600 130/09 RMK AO2 TSB43
14926KSTC STC20000613155013406/13/00 15:50:31  5-MIN KSTC 132150Z AUTO 15014G17KT 10SM TS OVC025 24/18 A2961 1320 71 2700 150/14G17 RMK AO2 TSB43 SLP030 T02390183
14926KSTC STC20000613155510506/13/00 15:55:31  5-MIN KSTC 132155Z AUTO 15014KT 10SM TS OVC025 24/18 A2960 1320 71 2700 150/14 RMK AO2
14926KSTC STC20000613160010506/13/00 16:00:31  5-MIN KSTC 132200Z AUTO 15015KT 10SM TS OVC025 24/18 A2960 1320 71 2700 150/15 RMK AO2
14926KSTC STC20000613160511406/13/00 16:05:31  5-MIN KSTC 132205Z AUTO 15016G22KT 10SM OVC023 23/19 A2960 1330 76 2600 140/16G22 RMK AO2 TSE03
14926KSTC STC20000613161012106/13/00 16:10:31  5-MIN KSTC 132210Z AUTO 14014G22KT 10SM BKN023 OVC028 24/19 A2960 1330 73 2700 140/14G22 RMK AO2 TSE03
14926KSTC STC20000613161512106/13/00 16:15:31  5-MIN KSTC 132215Z AUTO 14010G20KT 10SM BKN020 OVC025 24/19 A2960 1330 73 2700 130/10G20 RMK AO2 TSE03
14926KSTC STC20000613162010806/13/00 16:20:31  5-MIN KSTC 132220Z AUTO 14012KT 10SM OVC020 24/19 A2959 1330 73 2700 140/12 RMK AO2 TSE03
14926KSTC STC20000613162510806/13/00 16:25:31  5-MIN KSTC 132225Z AUTO 14012KT 10SM OVC020 24/19 A2959 1330 73 2700 130/12 RMK AO2 TSE03
14926KSTC STC20000613163011506/13/00 16:30:31  5-MIN KSTC 132230Z AUTO 14009KT 10SM BKN020 OVC026 23/19 A2959 1330 76 2600 130/09 RMK AO2 TSE03
14926KSTC STC20000613163510806/13/00 16:35:31  5-MIN KSTC 132235Z AUTO 13011KT 10SM OVC020 23/19 A2959 1330 76 2600 130/11 RMK AO2 TSE03
14926KSTC STC20000613164010806/13/00 16:40:31  5-MIN KSTC 132240Z AUTO 12009KT 10SM OVC020 23/19 A2958 1340 76 2700 120/09 RMK AO2 TSE03
14926KSTC STC20000613164510806/13/00 16:45:31  5-MIN KSTC 132245Z AUTO 11009KT 10SM OVC020 23/19 A2958 1340 78 2600 110/09 RMK AO2 TSE03
14926KSTC STC20000613165015206/13/00 16:50:31  5-MIN KSTC 132250Z AUTO 11011G16KT 9SM -RA BKN018 OVC024 22/18 A2958 1340 78 2500 110/11G16 RMK AO2 TSE03RAB50 SLP023 P0000 T02220183
14926KSTC STC20000613165512506/13/00 16:55:31  5-MIN KSTC 132255Z AUTO 11007G16KT 7SM -TSRA OVC018 21/19 A2958 1340 87 2400 110/07G16 RMK AO2 TSB55 P0000
14926KSTC STC20000613170012106/13/00 17:00:31  5-MIN KSTC 132300Z AUTO 10008KT 7SM -TSRA OVC016 21/19 A2958 1340 87 2400 100/08 RMK AO2 TSB2255 P0000
14926KSTC STC20000613170512706/13/00 17:05:31  5-MIN KSTC 132305Z AUTO 09012G15KT 8SM -TSRA OVC016 21/19 A2958 1340 90 2300 090/12G15 RMK AO2 TSB2255 P0000
14926KSTC STC20000613171012406/13/00 17:10:31  5-MIN KSTC 132310Z AUTO 11011KT 4SM -TSRA BR OVC016 21/19 A2958 1340 90 2300 100/11 RMK AO2 TSB2255 P0006
14926KSTC STC20000613171513806/13/00 17:15:31  5-MIN KSTC 132315Z AUTO 10011KT 1 1/2SM VCTS +RA BR BKN016 OVC020 19/19 A2958 1340 97 2200 100/11 RMK AO2 TSB2255 P0013
14926KSTC STC20000613172014306/13/00 17:20:31  5-MIN KSTC 132320Z AUTO VRB04KT 1 3/4SM -RA BR FEW008 BKN014 OVC020 20/19 A2958 1340 93 2300 VRB/04 RMK AO2 TSB2255E17 P0014
14926KSTC STC20000613172513606/13/00 17:25:31  5-MIN KSTC 132325Z AUTO VRB06KT 8SM -RA FEW004 BKN014 OVC020 20/19 A2958 1350 93 2300 VRB/06 RMK AO2 TSB2255E17 P0014
14926KSTC STC20000613173013606/13/00 17:30:31  5-MIN KSTC 132330Z AUTO 11006KT 8SM -RA SCT006 BKN012 OVC020 20/19 A2958 1350 93 2300 110/06 RMK AO2 TSB2255E17 P0014
14926KSTC STC20000613173513606/13/00 17:35:31  5-MIN KSTC 132335Z AUTO 07003KT 7SM -RA FEW004 BKN014 OVC020 20/19 A2957 1350 93 2300 060/03 RMK AO2 TSB2255E17 P0014
14926KSTC STC20000613174013706/13/00 17:40:31  5-MIN KSTC 132340Z AUTO 00000KT 10SM -RA SCT006 BKN014 OVC024 20/19 A2958 1350 93 2300 000/00 RMK AO2 TSB2255E17 P0014
14926KSTC STC20000613174513806/13/00 17:45:31  5-MIN KSTC 132345Z AUTO 10006KT 10SM SCT006 BKN014 OVC021 21/19 A2958 1350 90 2300 100/06 RMK AO2 TSB2255E17RAE45 P0014
14926KSTC STC20000613175018506/13/00 17:50:31  5-MIN KSTC 132350Z AUTO 11006KT 10SM TS SCT006 BKN014 OVC021 21/19 A2957 1350 93 2300 110/06 RMK AO2 TSB2255E17B48RAE45 SLP021 P0014 60014 T02060194 10244 20194 56027
14926KSTC STC20000613175511906/13/00 17:55:31  5-MIN KSTC 132355Z AUTO 11009KT 10SM TS FEW006 BKN016 OVC021 21/19 A2957 1350 90 2300 110/09 RMK AO2
14926KSTC STC20000613180013006/13/00 18:00:31  5-MIN KSTC 140000Z AUTO 15011G14KT 9SM TS SCT008 BKN016 OVC021 21/19 A2958 1340 90 2300 140/11G14 RMK AO2 P0001
14926KSTC STC20000613180514306/13/00 18:05:31  5-MIN KSTC 140005Z AUTO VRB05KT 1 1/4SM +RA BR FEW001 BKN008 OVC021 21/19 A2957 1350 93 2300 VRB/05 RMK AO2 TSE02RAB01 P0018
14926KSTC STC20000613181015106/13/00 18:10:31  5-MIN KSTC 140010Z AUTO 11006KT 1SM -RA BR FEW001 BKN009 OVC021 20/19 A2957 1350 97 2300 110/06 RMK AO2 TSE02RAB01 CIG 007V013 P0019
14926KSTC STC20000613181513906/13/00 18:15:31  5-MIN KSTC 140015Z AUTO 14013KT 4SM -RA BR SCT009 BKN015 OVC025 20/19 A2957 1350 93 2300 140/13 RMK AO2 TSE02RAB01 P0019
14926KSTC STC20000613182014806/13/00 18:20:31  5-MIN KSTC 140020Z AUTO 14013KT 10SM BKN009 BKN017 OVC025 21/19 A2957 1350 93 2300 140/13 RMK AO2 TSE02RAB01E18 CIG 007V015 P0019
14926KSTC STC20000613182513606/13/00 18:25:31  5-MIN KSTC 140025Z AUTO 15013KT 10SM BKN011 BKN019 OVC060 21/19 A2958 1350 93 2300 140/13 RMK AO2 TSE02RAB01E18 P0019
14926KSTC STC20000613183013106/13/00 18:30:31  5-MIN KSTC 140030Z AUTO 15013KT 3SM RA BR BKN011 OVC065 21/19 A2957 1350 93 2300 150/13 RMK AO2 TSE02RAB01 P0027
14926KSTC STC20000613183513906/13/00 18:35:31  5-MIN KSTC 140035Z AUTO 14012KT 2SM +RA BR FEW009 BKN014 OVC034 21/19 A2956 1360 93 2400 130/12 RMK AO2 TSE02RAB01 P0030
14926KSTC STC20000613184014506/13/00 18:40:31  5-MIN KSTC 140040Z AUTO 15015G18KT 4SM -RA BR SCT012 BKN024 OVC060 21/19 A2957 1360 93 2400 150/15G18 RMK AO2 TSE02RAB01 P0030
14926KSTC STC20000613184513606/13/00 18:45:31  5-MIN KSTC 140045Z AUTO 15015KT 10SM SCT014 BKN029 OVC060 21/19 A2957 1350 93 2400 150/15 RMK AO2 TSE02RAB01E45 P0030
14926KSTC STC20000613185015906/13/00 18:50:31  5-MIN KSTC 140050Z AUTO 16013G21KT 10SM FEW014 BKN030 OVC055 21/19 A2957 1350 93 2300 150/13G21 RMK AO2 TSE02RAB01E45 SLP019 P0030 T02060194
14926KSTC STC20000613185512206/13/00 18:55:31  5-MIN KSTC 140055Z AUTO 16015G21KT 10SM FEW014 BKN022 OVC060 21/19 A2957 1350 90 2300 160/15G21 RMK AO2
14926KSTC STC20000613190011606/13/00 19:00:31  5-MIN KSTC 140100Z AUTO 16012KT 10SM FEW015 BKN022 OVC060 21/19 A2957 1350 93 2400 160/12 RMK AO2
14926KSTC STC20000613190513306/13/00 19:05:31  5-MIN KSTC 140105Z AUTO 16010KT 4SM RA BR FEW010 BKN020 OVC060 20/19 A2956 1360 93 2300 150/10 RMK AO2 RAB03 P0003
14926KSTC STC20000613191016806/13/00 19:10:31  5-MIN KSTC 140110Z AUTO 13020G29KT 1SM +RA BR FEW006 BKN017 OVC030 20/19 A2956 1360 93 2300 130/20G29 RMK AO2 PK WND 13029/0109 VIS 1/4V5 RAB03 P0021
14926KSTC STC20000613191516006/13/00 19:15:31  5-MIN KSTC 140115Z AUTO 16013G29KT 3/4SM +RA BR FEW006 SCT011 OVC020 20/19 A2955 1370 93 2300 150/13G29 RMK AO2 PK WND 13029/0109 RAB03 P0025
14926KSTC STC20000613192015806/13/00 19:20:31  5-MIN KSTC 140120Z AUTO 16010G22KT 2SM -RA BR FEW007 BKN017 OVC025 20/19 A2955 1370 93 2300 160/10G22 RMK AO2 PK WND 13029/0109 RAB03 P0025
14926KSTC STC20000613192514906/13/00 19:25:31  5-MIN KSTC 140125Z AUTO 18011KT 9SM -RA SCT009 BKN021 OVC039 20/19 A2956 1360 93 2300 170/11 RMK AO2 PK WND 13029/0109 RAB03 P0025
14926KSTC STC20000613193015506/13/00 19:30:31  5-MIN KSTC 140130Z AUTO 18011G17KT 10SM SCT011 BKN035 OVC045 20/18 A2955 1370 90 2300 170/11G17 RMK AO2 PK WND 13029/0109 RAB03E28 P0025
14926KSTC STC20000613193515006/13/00 19:35:31  5-MIN KSTC 140135Z AUTO 18010KT 10SM -RA SCT011 BKN035 OVC047 20/18 A2955 1370 90 2300 170/10 RMK AO2 PK WND 13029/0109 RAB03 P0025
14926KSTC STC20000613194015006/13/00 19:40:31  5-MIN KSTC 140140Z AUTO 17009KT 10SM -RA FEW011 BKN037 OVC047 20/18 A2954 1380 90 2300 160/09 RMK AO2 PK WND 13029/0109 RAB03 P0025
14926KSTC STC20000613194514906/13/00 19:45:31  5-MIN KSTC 140145Z AUTO 15006KT 10SM FEW011 BKN037 OVC046 20/18 A2953 1390 90 2300 150/06 RMK AO2 PK WND 13029/0109 RAB03E41 P0025
14926KSTC STC20000613195016606/13/00 19:50:31  5-MIN KSTC 140150Z AUTO 15006KT 10SM FEW011 BKN039 BKN050 20/18 A2953 1390 90 2300 140/06 RMK AO2 PK WND 13029/0109 RAB03E41 SLP006 P0025 T02000183
14926KSTC STC20000613195511606/13/00 19:55:31  5-MIN KSTC 140155Z AUTO 13005KT 10SM FEW011 SCT016 BKN036 20/18 A2953 1390 90 2300 120/05 RMK AO2
14926KSTC STC20000613200011606/13/00 20:00:31  5-MIN KSTC 140200Z AUTO 12005KT 10SM FEW011 SCT018 BKN036 20/18 A2954 1380 90 2300 120/05 RMK AO2
14926KSTC STC20000613200511606/13/00 20:05:31  5-MIN KSTC 140205Z AUTO 12006KT 10SM SCT011 BKN016 OVC050 20/18 A2954 1380 90 2300 120/06 RMK AO2
14926KSTC STC20000613201011606/13/00 20:10:31  5-MIN KSTC 140210Z AUTO 12008KT 10SM SCT011 BKN016 OVC050 19/18 A2954 1380 93 2300 120/08 RMK AO2
14926KSTC STC20000613201511606/13/00 20:15:31  5-MIN KSTC 140215Z AUTO 13007KT 10SM SCT011 BKN018 OVC040 19/18 A2955 1370 93 2200 130/07 RMK AO2
14926KSTC STC20000613202011606/13/00 20:20:31  5-MIN KSTC 140220Z AUTO 13006KT 10SM SCT011 BKN018 OVC045 21/18 A2955 1370 87 2400 130/06 RMK AO2
14926KSTC STC20000613202513206/13/00 20:25:31  5-MIN KSTC 140225Z AUTO 10005KT 10SM -RA FEW008 BKN012 OVC045 19/18 A2954 1380 93 2300 090/05 RMK AO2 RAB23 P0000
14926KSTC STC20000613203013206/13/00 20:30:31  5-MIN KSTC 140230Z AUTO 11006KT 10SM -RA SCT008 BKN014 OVC044 19/18 A2955 1370 93 2200 110/06 RMK AO2 RAB23 P0001
14926KSTC STC20000613203513106/13/00 20:35:31  5-MIN KSTC 140235Z AUTO 12006KT 9SM -RA SCT008 BKN030 OVC100 19/18 A2955 1370 93 2200 120/06 RMK AO2 RAB23 P0001
14926KSTC STC20000613204013106/13/00 20:40:31  5-MIN KSTC 140240Z AUTO 15006KT 8SM -RA SCT010 BKN035 OVC100 19/18 A2956 1360 93 2200 140/06 RMK AO2 RAB23 P0001
14926KSTC STC20000613204513106/13/00 20:45:31  5-MIN KSTC 140245Z AUTO 15005KT 9SM -RA SCT010 BKN013 OVC100 19/18 A2956 1360 93 2200 150/05 RMK AO2 RAB23 P0002
14926KSTC STC20000613205016106/13/00 20:50:31  5-MIN KSTC 140250Z AUTO 15007KT 10SM -RA FEW008 BKN013 OVC100 19/18 A2957 1360 93 2200 150/07 RMK AO2 RAB23 SLP018 P0002 60057 T01940183 56015
14926KSTC STC20000613205512606/13/00 20:55:31  5-MIN KSTC 140255Z AUTO 16008KT 10SM -RA SCT010 BKN013 OVC100 19/18 A2957 1350 93 2200 160/08 RMK AO2 P0000
14926KSTC STC20000613210012606/13/00 21:00:31  5-MIN KSTC 140300Z AUTO 16008KT 10SM -RA BKN010 BKN013 OVC100 19/18 A2957 1350 93 2200 160/08 RMK AO2 P0000
14926KSTC STC20000613210512606/13/00 21:05:31  5-MIN KSTC 140305Z AUTO 17007KT 10SM -RA BKN010 BKN013 OVC018 19/18 A2957 1350 93 2200 170/07 RMK AO2 P0001
14926KSTC STC20000613211011806/13/00 21:10:31  5-MIN KSTC 140310Z AUTO 19008KT 9SM -RA SCT007 OVC013 19/18 A2957 1350 93 2200 190/08 RMK AO2 P0001
14926KSTC STC20000613211512606/13/00 21:15:31  5-MIN KSTC 140315Z AUTO 19012KT 10SM -RA FEW005 BKN011 OVC021 19/18 A2957 1350 93 2200 190/12 RMK AO2 P0001
14926KSTC STC20000613212012606/13/00 21:20:31  5-MIN KSTC 140320Z AUTO 19009KT 10SM -RA FEW008 BKN021 OVC026 19/17 A2957 1360 90 2200 180/09 RMK AO2 P0001
14926KSTC STC20000613212512806/13/00 21:25:31  5-MIN KSTC 140325Z AUTO 20009KT 10SM FEW007 SCT012 OVC025 19/17 A2957 1360 90 2200 190/09 RMK AO2 RAE25 P0001
14926KSTC STC20000613213012106/13/00 21:30:31  5-MIN KSTC 140330Z AUTO 20010KT 10SM FEW007 OVC025 19/17 A2956 1360 90 2200 190/10 RMK AO2 RAE25 P0001
14926KSTC STC20000613213512806/13/00 21:35:31  5-MIN KSTC 140335Z AUTO 20011KT 10SM FEW007 BKN025 OVC030 19/17 A2956 1360 90 2200 190/11 RMK AO2 RAE25 P0001
14926KSTC STC20000613214012106/13/00 21:40:31  5-MIN KSTC 140340Z AUTO 20010KT 10SM BKN025 OVC030 19/17 A2956 1360 90 2200 190/10 RMK AO2 RAE25 P0001
14926KSTC STC20000613214512106/13/00 21:45:31  5-MIN KSTC 140345Z AUTO 20009KT 10SM SCT025 OVC032 18/17 A2956 1360 93 2100 190/09 RMK AO2 RAE25 P0001
14926KSTC STC20000613215014506/13/00 21:50:31  5-MIN KSTC 140350Z AUTO 20009KT 10SM SCT025 BKN032 OVC039 18/17 A2955 1370 93 2100 200/09 RMK AO2 RAE25 SLP014 P0001 T01830172
14926KSTC STC20000613215510906/13/00 21:55:31  5-MIN KSTC 140355Z AUTO 20010KT 10SM BKN029 OVC044 18/17 A2955 1370 93 2100 200/10 RMK AO2
14926KSTC STC20000613220011606/13/00 22:00:31  5-MIN KSTC 140400Z AUTO 20009KT 10SM SCT031 BKN044 OVC055 18/17 A2955 1370 93 2100 200/09 RMK AO2
14926KSTC STC20000613220511606/13/00 22:05:31  5-MIN KSTC 140405Z AUTO 21009KT 10SM SCT031 BKN041 OVC055 18/17 A2955 1370 93 2100 200/09 RMK AO2
14926KSTC STC20000613221011606/13/00 22:10:31  5-MIN KSTC 140410Z AUTO 21009KT 10SM SCT033 BKN041 OVC055 18/17 A2955 1370 93 2100 210/09 RMK AO2
14926KSTC STC20000613221511606/13/00 22:15:31  5-MIN KSTC 140415Z AUTO 21009KT 10SM SCT033 BKN044 OVC055 18/17 A2955 1370 90 2100 210/09 RMK AO2
14926KSTC STC20000613222011606/13/00 22:20:31  5-MIN KSTC 140420Z AUTO 21009KT 10SM BKN035 BKN045 OVC055 18/17 A2955 1370 90 2100 200/09 RMK AO2
14926KSTC STC20000613222510906/13/00 22:25:31  5-MIN KSTC 140425Z AUTO 20009KT 10SM BKN035 OVC055 18/17 A2955 1370 90 2100 200/09 RMK AO2
14926KSTC STC20000613223010906/13/00 22:30:31  5-MIN KSTC 140430Z AUTO 20010KT 10SM BKN035 OVC044 18/17 A2955 1370 90 2100 190/10 RMK AO2
14926KSTC STC20000613223510906/13/00 22:35:31  5-MIN KSTC 140435Z AUTO 19009KT 10SM BKN035 OVC044 18/17 A2955 1370 90 2100 180/09 RMK AO2
14926KSTC STC20000613224010906/13/00 22:40:31  5-MIN KSTC 140440Z AUTO 19009KT 10SM SCT035 OVC044 18/17 A2955 1370 90 2100 180/09 RMK AO2
14926KSTC STC20000613224510906/13/00 22:45:31  5-MIN KSTC 140445Z AUTO 19006KT 10SM BKN040 OVC048 18/17 A2955 1370 90 2100 180/06 RMK AO2
14926KSTC STC20000613225011906/13/00 22:50:31  5-MIN KSTC 140450Z AUTO 17006KT 10SM OVC045 18/17 A2955 1370 93 2100 170/06 RMK AO2 SLP012 T01780167
14926KSTC STC20000613225510206/13/00 22:55:31  5-MIN KSTC 140455Z AUTO 17006KT 10SM OVC047 18/16 A2955 1370 87 2100 170/06 RMK AO2
14926KSTC STC20000613230010906/13/00 23:00:31  5-MIN KSTC 140500Z AUTO 18006KT 10SM BKN049 OVC060 18/16 A2955 1370 90 2100 180/06 RMK AO2
14926KSTC STC20000613230510206/13/00 23:05:31  5-MIN KSTC 140505Z AUTO 17006KT 10SM OVC049 18/16 A2955 1380 90 2100 170/06 RMK AO2
14926KSTC STC20000613231010206/13/00 23:10:31  5-MIN KSTC 140510Z AUTO 18006KT 10SM OVC049 18/16 A2955 1370 90 2100 180/06 RMK AO2
14926KSTC STC20000613231510206/13/00 23:15:31  5-MIN KSTC 140515Z AUTO 17006KT 10SM OVC055 18/16 A2954 1380 90 2100 170/06 RMK AO2
14926KSTC STC20000613232010206/13/00 23:20:31  5-MIN KSTC 140520Z AUTO 18006KT 10SM OVC055 18/16 A2954 1380 90 2100 180/06 RMK AO2
14926KSTC STC20000613232510206/13/00 23:25:31  5-MIN KSTC 140525Z AUTO 18008KT 10SM OVC060 18/16 A2954 1380 90 2100 170/08 RMK AO2
14926KSTC STC20000613233010206/13/00 23:30:31  5-MIN KSTC 140530Z AUTO 18006KT 10SM OVC060 18/16 A2953 1380 90 2100 180/06 RMK AO2
14926KSTC STC20000613233510206/13/00 23:35:31  5-MIN KSTC 140535Z AUTO 18008KT 10SM OVC060 18/16 A2953 1390 90 2100 180/08 RMK AO2
14926KSTC STC20000613234010906/13/00 23:40:31  5-MIN KSTC 140540Z AUTO 18007KT 10SM BKN065 OVC080 18/16 A2953 1390 90 2100 180/07 RMK AO2
14926KSTC STC20000613234511606/13/00 23:45:31  5-MIN KSTC 140545Z AUTO 18006KT 10SM BKN065 BKN080 OVC110 18/16 A2952 1400 90 2100 180/06 RMK AO2
14926KSTC STC20000613235016706/13/00 23:50:31  5-MIN KSTC 140550Z AUTO 18005KT 10SM SCT070 BKN080 BKN110 18/16 A2952 1400 90 2100 180/05 RMK AO2 SLP000 60058 T01780161 10206 20178 402440144 55002
14926KSTC STC20000613235510906/13/00 23:55:31  5-MIN KSTC 140555Z AUTO 18005KT 10SM SCT070 SCT110 17/16 A2951 1410 93 2000 180/05 RMK AO2
14926KSTC STC20000614000010906/14/00 00:00:31  5-MIN KSTC 140600Z AUTO 20005KT 10SM SCT075 SCT110 17/16 A2951 1400 93 2000 190/05 RMK AO2
14926KSTC STC20000614000510206/14/00 00:05:31  5-MIN KSTC 140605Z AUTO 20008KT 10SM FEW080 17/16 A2951 1410 93 2000 200/08 RMK AO2
14926KSTC STC20000614001010206/14/00 00:10:31  5-MIN KSTC 140610Z AUTO 20008KT 10SM FEW110 17/16 A2951 1410 93 2000 200/08 RMK AO2
14926KSTC STC20000614001509906/14/00 00:15:31  5-MIN KSTC 140615Z AUTO 19008KT 10SM CLR 17/16 A2951 1410 93 2000 190/08 RMK AO2
14926KSTC STC20000614002009906/14/00 00:20:31  5-MIN KSTC 140620Z AUTO 19007KT 10SM CLR 17/16 A2951 1410 93 2000 180/07 RMK AO2
14926KSTC STC20000614002509906/14/00 00:25:31  5-MIN KSTC 140625Z AUTO 18006KT 10SM CLR 17/16 A2950 1410 93 2000 180/06 RMK AO2
14926KSTC STC20000614003009906/14/00 00:30:31  5-MIN KSTC 140630Z AUTO 18005KT 10SM CLR 17/16 A2951 1410 93 2000 180/05 RMK AO2
14926KSTC STC20000614003510206/14/00 00:35:31  5-MIN KSTC 140635Z AUTO 18006KT 10SM FEW033 17/16 A2951 1410 93 2000 180/06 RMK AO2
14926KSTC STC20000614004010206/14/00 00:40:31  5-MIN KSTC 140640Z AUTO 17006KT 10SM FEW033 17/16 A2950 1420 93 2000 170/06 RMK AO2
14926KSTC STC20000614004510206/14/00 00:45:31  5-MIN KSTC 140645Z AUTO 17006KT 10SM FEW033 17/16 A2950 1420 93 2000 160/06 RMK AO2
14926KSTC STC20000614005012606/14/00 00:50:31  5-MIN KSTC 140650Z AUTO 17006KT 10SM FEW033 SCT110 17/16 A2950 1420 93 2000 160/06 RMK AO2 SLP993 T01720161
14926KSTC STC20000614005510906/14/00 00:55:31  5-MIN KSTC 140655Z AUTO 18006KT 10SM FEW033 BKN110 17/16 A2950 1420 93 2000 170/06 RMK AO2
14926KSTC STC20000614010010906/14/00 01:00:31  5-MIN KSTC 140700Z AUTO 17005KT 10SM FEW033 BKN120 17/16 A2949 1430 93 2100 160/05 RMK AO2
14926KSTC STC20000614010510206/14/00 01:05:31  5-MIN KSTC 140705Z AUTO 16006KT 10SM BKN120 17/16 A2949 1430 93 2100 150/06 RMK AO2
14926KSTC STC20000614011010206/14/00 01:10:31  5-MIN KSTC 140710Z AUTO 16006KT 10SM BKN120 17/16 A2949 1430 93 2100 160/06 RMK AO2
14926KSTC STC20000614011510906/14/00 01:15:31  5-MIN KSTC 140715Z AUTO 18006KT 10SM FEW010 BKN120 17/16 A2949 1430 93 2100 170/06 RMK AO2
14926KSTC STC20000614012010906/14/00 01:20:31  5-MIN KSTC 140720Z AUTO 17005KT 10SM SCT010 BKN120 17/16 A2949 1430 93 2100 170/05 RMK AO2
14926KSTC STC20000614012510906/14/00 01:25:31  5-MIN KSTC 140725Z AUTO 18006KT 10SM BKN010 BKN120 17/16 A2949 1430 93 2100 180/06 RMK AO2
14926KSTC STC20000614013010906/14/00 01:30:31  5-MIN KSTC 140730Z AUTO 17005KT 10SM BKN010 BKN120 17/16 A2949 1430 93 2100 170/05 RMK AO2
14926KSTC STC20000614013510206/14/00 01:35:31  5-MIN KSTC 140735Z AUTO 17006KT 10SM BKN010 17/16 A2949 1430 93 2100 170/06 RMK AO2
14926KSTC STC20000614014011406/14/00 01:40:31  5-MIN KSTC 140740Z AUTO 18007KT 10SM OVC010 17/16 A2949 1430 93 2100 170/07 RMK AO2 CIG 007V012
14926KSTC STC20000614014511406/14/00 01:45:31  5-MIN KSTC 140745Z AUTO 17007KT 10SM OVC010 17/16 A2949 1430 93 2100 170/07 RMK AO2 CIG 007V012
14926KSTC STC20000614015013106/14/00 01:50:31  5-MIN KSTC 140750Z AUTO 17006KT 10SM OVC010 17/16 A2949 1430 93 2100 160/06 RMK AO2 CIG 007V012 SLP988 T01720161
14926KSTC STC20000614015511406/14/00 01:55:31  5-MIN KSTC 140755Z AUTO 17005KT 10SM OVC008 17/16 A2949 1430 93 2100 170/05 RMK AO2 CIG 007V012
14926KSTC STC20000614020011406/14/00 02:00:31  5-MIN KSTC 140800Z AUTO 18006KT 10SM OVC008 17/16 A2949 1430 93 2100 180/06 RMK AO2 CIG 007V012
14926KSTC STC20000614020511406/14/00 02:05:31  5-MIN KSTC 140805Z AUTO 18006KT 10SM OVC008 17/16 A2949 1430 93 2100 180/06 RMK AO2 CIG 006V012
14926KSTC STC20000614021011406/14/00 02:10:31  5-MIN KSTC 140810Z AUTO 19007KT 10SM OVC008 17/16 A2949 1430 93 2100 180/07 RMK AO2 CIG 006V012
14926KSTC STC20000614021511406/14/00 02:15:31  5-MIN KSTC 140815Z AUTO 19007KT 10SM OVC008 17/16 A2948 1440 93 2100 190/07 RMK AO2 CIG 006V011
14926KSTC STC20000614022011406/14/00 02:20:31  5-MIN KSTC 140820Z AUTO 19007KT 10SM OVC008 17/16 A2948 1440 93 2100 180/07 RMK AO2 CIG 006V010
14926KSTC STC20000614022511406/14/00 02:25:31  5-MIN KSTC 140825Z AUTO 19005KT 10SM OVC008 17/16 A2948 1440 93 2100 190/05 RMK AO2 CIG 006V011
14926KSTC STC20000614023011406/14/00 02:30:31  5-MIN KSTC 140830Z AUTO 19005KT 10SM OVC008 17/16 A2947 1450 93 2100 190/05 RMK AO2 CIG 006V011
14926KSTC STC20000614023511406/14/00 02:35:31  5-MIN KSTC 140835Z AUTO 20007KT 10SM OVC008 17/16 A2947 1450 93 2100 190/07 RMK AO2 CIG 006V012
14926KSTC STC20000614024011406/14/00 02:40:31  5-MIN KSTC 140840Z AUTO 21005KT 10SM OVC008 17/16 A2946 1450 93 2100 210/05 RMK AO2 CIG 006V013
14926KSTC STC20000614024511406/14/00 02:45:31  5-MIN KSTC 140845Z AUTO 22006KT 10SM OVC008 17/16 A2946 1450 93 2100 210/06 RMK AO2 CIG 006V014
14926KSTC STC20000614025014406/14/00 02:50:31  5-MIN KSTC 140850Z AUTO 21006KT 10SM BKN008 OVC013 17/16 A2946 1450 93 2100 210/06 RMK AO2 CIG 006V011 SLP980 T01720161 58018
14926KSTC STC20000614025511406/14/00 02:55:31  5-MIN KSTC 140855Z AUTO 21006KT 10SM OVC011 17/16 A2946 1450 93 2100 210/06 RMK AO2 CIG 006V014
14926KSTC STC20000614030011406/14/00 03:00:31  5-MIN KSTC 140900Z AUTO 21007KT 10SM BKN011 17/16 A2946 1450 93 2100 210/07 RMK AO2 CIG 008V014
14926KSTC STC20000614030511406/14/00 03:05:31  5-MIN KSTC 140905Z AUTO 21008KT 10SM BKN011 17/16 A2946 1450 93 2100 210/08 RMK AO2 CIG 008V014
14926KSTC STC20000614031011406/14/00 03:10:31  5-MIN KSTC 140910Z AUTO 20006KT 10SM BKN011 17/16 A2946 1460 93 2100 200/06 RMK AO2 CIG 008V014
14926KSTC STC20000614031512106/14/00 03:15:31  5-MIN KSTC 140915Z AUTO 19005KT 10SM BKN011 BKN055 17/16 A2945 1460 93 2000 190/05 RMK AO2 CIG 008V013
14926KSTC STC20000614032010206/14/00 03:20:31  5-MIN KSTC 140920Z AUTO 20006KT 10SM SCT009 17/16 A2946 1460 93 2000 190/06 RMK AO2
14926KSTC STC20000614032511306/14/00 03:25:31  5-MIN KSTC 140925Z AUTO 19006KT 9SM BKN007 17/16 A2945 1460 96 2000 190/06 RMK AO2 CIG 007V011
14926KSTC STC20000614033011306/14/00 03:30:31  5-MIN KSTC 140930Z AUTO 19006KT 8SM BKN007 17/16 A2946 1460 96 2000 180/06 RMK AO2 CIG 006V011
14926KSTC STC20000614033510106/14/00 03:35:31  5-MIN KSTC 140935Z AUTO 18006KT 8SM BKN007 17/16 A2946 1460 96 2000 180/06 RMK AO2
14926KSTC STC20000614034010106/14/00 03:40:31  5-MIN KSTC 140940Z AUTO 19007KT 8SM BKN007 17/16 A2945 1460 96 2000 190/07 RMK AO2
14926KSTC STC20000614034510106/14/00 03:45:31  5-MIN KSTC 140945Z AUTO 19007KT 8SM OVC007 17/16 A2945 1460 96 2000 190/07 RMK AO2
14926KSTC STC20000614035011806/14/00 03:50:31  5-MIN KSTC 140950Z AUTO 18007KT 8SM OVC007 17/16 A2945 1460 93 2000 180/07 RMK AO2 SLP976 T01670156
14926KSTC STC20000614035510106/14/00 03:55:31  5-MIN KSTC 140955Z AUTO 18006KT 8SM OVC007 17/16 A2944 1470 93 2000 180/06 RMK AO2
14926KSTC STC20000614040010106/14/00 04:00:31  5-MIN KSTC 141000Z AUTO 16005KT 8SM OVC007 17/16 A2944 1470 93 2000 160/05 RMK AO2
14926KSTC STC20000614040510106/14/00 04:05:31  5-MIN KSTC 141005Z AUTO 16005KT 7SM OVC007 17/16 A2945 1470 93 2000 160/05 RMK AO2
14926KSTC STC20000614041010106/14/00 04:10:31  5-MIN KSTC 141010Z AUTO 17006KT 7SM OVC007 17/16 A2945 1470 93 2000 160/06 RMK AO2
14926KSTC STC20000614041510106/14/00 04:15:31  5-MIN KSTC 141015Z AUTO 16006KT 7SM OVC007 17/16 A2945 1470 93 2000 160/06 RMK AO2
14926KSTC STC20000614042010406/14/00 04:20:31  5-MIN KSTC 141020Z AUTO 17006KT 6SM BR BKN007 16/16 A2945 1460 96 2000 170/06 RMK AO2
14926KSTC STC20000614042510406/14/00 04:25:31  5-MIN KSTC 141025Z AUTO 18006KT 6SM BR BKN007 16/16 A2946 1460 96 2000 180/06 RMK AO2
14926KSTC STC20000614043010406/14/00 04:30:31  5-MIN KSTC 141030Z AUTO 18005KT 6SM BR BKN007 16/16 A2946 1450 96 2000 180/05 RMK AO2
14926KSTC STC20000614043511606/14/00 04:35:31  5-MIN KSTC 141035Z AUTO 18004KT 5SM BR BKN007 16/16 A2946 1450 96 2000 180/04 RMK AO2 CIG 005V010
14926KSTC STC20000614044011606/14/00 04:40:31  5-MIN KSTC 141040Z AUTO 18003KT 4SM BR BKN007 16/16 A2946 1450 96 2000 170/03 RMK AO2 CIG 005V010
14926KSTC STC20000614044511606/14/00 04:45:31  5-MIN KSTC 141045Z AUTO 18003KT 4SM BR BKN007 16/16 A2946 1450 96 2000 180/03 RMK AO2 CIG 005V010
14926KSTC STC20000614045013306/14/00 04:50:31  5-MIN KSTC 141050Z AUTO 18004KT 4SM BR OVC007 16/16 A2946 1450 96 2000 180/04 RMK AO2 CIG 005V010 SLP981 T01610156
14926KSTC STC20000614045511606/14/00 04:55:31  5-MIN KSTC 141055Z AUTO 18003KT 4SM BR BKN007 16/16 A2946 1450 96 2000 170/03 RMK AO2 CIG 005V010
14926KSTC STC20000614050011606/14/00 05:00:31  5-MIN KSTC 141100Z AUTO 18004KT 4SM BR BKN007 16/16 A2946 1450 96 2000 180/04 RMK AO2 CIG 005V010
14926KSTC STC20000614050510406/14/00 05:05:31  5-MIN KSTC 141105Z AUTO 18004KT 4SM BR SCT007 16/16 A2947 1450 96 2000 180/04 RMK AO2
14926KSTC STC20000614051010406/14/00 05:10:31  5-MIN KSTC 141110Z AUTO 18004KT 4SM BR SCT007 16/16 A2947 1440 96 1900 180/04 RMK AO2
14926KSTC STC20000614051510406/14/00 05:15:31  5-MIN KSTC 141115Z AUTO 18004KT 4SM BR FEW007 16/16 A2947 1440 96 1900 180/04 RMK AO2
14926KSTC STC20000614052010106/14/00 05:20:31  5-MIN KSTC 141120Z AUTO 17003KT 4SM BR CLR 16/16 A2947 1450 96 2000 170/03 RMK AO2
14926KSTC STC20000614052510106/14/00 05:25:31  5-MIN KSTC 141125Z AUTO 19003KT 4SM BR CLR 16/16 A2947 1440 96 1900 190/03 RMK AO2
14926KSTC STC20000614053010106/14/00 05:30:31  5-MIN KSTC 141130Z AUTO 20004KT 5SM BR CLR 16/16 A2947 1440 96 1900 190/04 RMK AO2
14926KSTC STC20000614053510106/14/00 05:35:31  5-MIN KSTC 141135Z AUTO 20005KT 5SM BR CLR 16/16 A2947 1440 96 1900 190/05 RMK AO2
14926KSTC STC20000614054010106/14/00 05:40:31  5-MIN KSTC 141140Z AUTO 20006KT 6SM BR CLR 16/16 A2947 1440 96 1900 200/06 RMK AO2
14926KSTC STC20000614054510106/14/00 05:45:31  5-MIN KSTC 141145Z AUTO 21005KT 6SM BR CLR 17/16 A2947 1450 93 2000 210/05 RMK AO2
14926KSTC STC20000614055013906/14/00 05:50:31  5-MIN KSTC 141150Z AUTO 21005KT 7SM CLR 17/16 A2947 1440 93 2000 210/05 RMK AO2 SLP985 70072 T01670156 10172 20161 58017
14926KSTC STC20000614055509806/14/00 05:55:31  5-MIN KSTC 141155Z AUTO 22008KT 9SM CLR 17/16 A2947 1440 93 2000 220/08 RMK AO2
14926KSTC STC20000614060009906/14/00 06:00:31  5-MIN KSTC 141200Z AUTO 22007KT 10SM CLR 17/15 A2948 1440 90 2000 210/07 RMK AO2
14926KSTC STC20000614060509906/14/00 06:05:31  5-MIN KSTC 141205Z AUTO 21007KT 10SM CLR 17/15 A2948 1440 90 2000 210/07 RMK AO2
14926KSTC STC20000614061009906/14/00 06:10:31  5-MIN KSTC 141210Z AUTO 21008KT 10SM CLR 17/15 A2948 1440 90 2000 210/08 RMK AO2
14926KSTC STC20000614061509906/14/00 06:15:31  5-MIN KSTC 141215Z AUTO 22008KT 10SM CLR 17/15 A2948 1440 90 2000 210/08 RMK AO2
14926KSTC STC20000614062009906/14/00 06:20:31  5-MIN KSTC 141220Z AUTO 21009KT 10SM CLR 17/15 A2948 1440 90 2000 210/09 RMK AO2
14926KSTC STC20000614062509906/14/00 06:25:31  5-MIN KSTC 141225Z AUTO 22007KT 10SM CLR 17/15 A2948 1440 87 2100 210/07 RMK AO2
14926KSTC STC20000614063009906/14/00 06:30:31  5-MIN KSTC 141230Z AUTO 21008KT 10SM CLR 17/15 A2948 1440 87 2100 210/08 RMK AO2
14926KSTC STC20000614063509906/14/00 06:35:31  5-MIN KSTC 141235Z AUTO 22007KT 10SM CLR 17/15 A2948 1440 87 2100 220/07 RMK AO2
14926KSTC STC20000614064009906/14/00 06:40:31  5-MIN KSTC 141240Z AUTO 23008KT 10SM CLR 17/15 A2948 1440 87 2100 220/08 RMK AO2
14926KSTC STC20000614064509906/14/00 06:45:31  5-MIN KSTC 141245Z AUTO 22008KT 10SM CLR 17/15 A2948 1440 87 2100 210/08 RMK AO2
14926KSTC STC20000614065011606/14/00 06:50:31  5-MIN KSTC 141250Z AUTO 21009KT 10SM CLR 17/15 A2948 1440 87 2100 210/09 RMK AO2 SLP986 T01720150
14926KSTC STC20000614065509906/14/00 06:55:31  5-MIN KSTC 141255Z AUTO 22010KT 10SM CLR 17/14 A2948 1440 83 2100 220/10 RMK AO2
14926KSTC STC20000614070009906/14/00 07:00:31  5-MIN KSTC 141300Z AUTO 22009KT 10SM CLR 18/14 A2948 1440 81 2100 220/09 RMK AO2
14926KSTC STC20000614070510206/14/00 07:05:31  5-MIN KSTC 141305Z AUTO 23008KT 10SM FEW014 18/14 A2948 1440 81 2100 230/08 RMK AO2
14926KSTC STC20000614071009906/14/00 07:10:31  5-MIN KSTC 141310Z AUTO 22008KT 10SM CLR 18/14 A2947 1440 81 2100 210/08 RMK AO2
14926KSTC STC20000614071510206/14/00 07:15:31  5-MIN KSTC 141315Z AUTO 21009KT 10SM FEW014 18/14 A2947 1440 81 2100 210/09 RMK AO2
14926KSTC STC20000614072010206/14/00 07:20:31  5-MIN KSTC 141320Z AUTO 23009KT 10SM FEW014 18/14 A2947 1440 81 2100 230/09 RMK AO2
14926KSTC STC20000614072510206/14/00 07:25:31  5-MIN KSTC 141325Z AUTO 20007KT 10SM FEW014 18/14 A2947 1440 81 2100 200/07 RMK AO2
14926KSTC STC20000614073010206/14/00 07:30:31  5-MIN KSTC 141330Z AUTO 22008KT 10SM SCT014 18/15 A2947 1450 81 2200 220/08 RMK AO2
14926KSTC STC20000614073510206/14/00 07:35:31  5-MIN KSTC 141335Z AUTO 22008KT 10SM SCT014 18/14 A2947 1450 81 2100 210/08 RMK AO2
14926KSTC STC20000614074010206/14/00 07:40:31  5-MIN KSTC 141340Z AUTO 21007KT 10SM BKN016 18/14 A2946 1450 78 2200 210/07 RMK AO2
14926KSTC STC20000614074510206/14/00 07:45:31  5-MIN KSTC 141345Z AUTO 20007KT 10SM BKN016 18/14 A2946 1450 78 2200 200/07 RMK AO2
14926KSTC STC20000614075011906/14/00 07:50:31  5-MIN KSTC 141350Z AUTO 19008KT 10SM BKN016 18/14 A2946 1450 78 2200 190/08 RMK AO2 SLP980 T01830144
14926KSTC STC20000614075510206/14/00 07:55:31  5-MIN KSTC 141355Z AUTO 20007KT 10SM BKN016 18/14 A2946 1450 78 2200 190/07 RMK AO2
14926KSTC STC20000614080010206/14/00 08:00:31  5-MIN KSTC 141400Z AUTO 25006KT 10SM BKN016 18/14 A2946 1450 78 2200 250/06 RMK AO2
14926KSTC STC20000614080510206/14/00 08:05:31  5-MIN KSTC 141405Z AUTO 23007KT 10SM BKN016 18/14 A2946 1450 78 2200 230/07 RMK AO2
14926KSTC STC20000614081010206/14/00 08:10:31  5-MIN KSTC 141410Z AUTO 20008KT 10SM BKN016 18/14 A2946 1450 78 2200 200/08 RMK AO2
14926KSTC STC20000614081510906/14/00 08:15:31  5-MIN KSTC 141415Z AUTO 21008KT 10SM BKN018 BKN024 19/15 A2946 1450 78 2300 210/08 RMK AO2
14926KSTC STC20000614082010906/14/00 08:20:31  5-MIN KSTC 141420Z AUTO 21007KT 10SM BKN018 OVC024 19/15 A2946 1460 78 2300 210/07 RMK AO2
14926KSTC STC20000614082510906/14/00 08:25:31  5-MIN KSTC 141425Z AUTO 23006KT 10SM BKN018 OVC024 19/14 A2946 1460 75 2300 230/06 RMK AO2
14926KSTC STC20000614083010906/14/00 08:30:31  5-MIN KSTC 141430Z AUTO 23007KT 10SM BKN018 OVC024 19/15 A2946 1460 75 2400 230/07 RMK AO2
14926KSTC STC20000614083510206/14/00 08:35:31  5-MIN KSTC 141435Z AUTO 19008KT 10SM BKN021 19/14 A2945 1460 75 2300 180/08 RMK AO2
14926KSTC STC20000614084010906/14/00 08:40:31  5-MIN KSTC 141440Z AUTO 21007KT 10SM SCT019 BKN023 19/14 A2946 1460 75 2300 200/07 RMK AO2
14926KSTC STC20000614084510906/14/00 08:45:31  5-MIN KSTC 141445Z AUTO 23006KT 10SM BKN020 BKN025 19/14 A2946 1460 75 2300 220/06 RMK AO2
14926KSTC STC20000614085012506/14/00 08:50:31  5-MIN KSTC 141450Z AUTO 20007KT 10SM BKN022 18/14 A2946 1460 78 2200 200/07 RMK AO2 SLP979 T01830144 53004
14926KSTC STC20000614085510206/14/00 08:55:31  5-MIN KSTC 141455Z AUTO 23008KT 10SM SCT022 19/14 A2945 1460 75 2300 220/08 RMK AO2
14926KSTC STC20000614090010906/14/00 09:00:31  5-MIN KSTC 141500Z AUTO 20008KT 10SM SCT022 BKN030 19/14 A2945 1460 75 2300 200/08 RMK AO2
14926KSTC STC20000614090510906/14/00 09:05:31  5-MIN KSTC 141505Z AUTO 20009KT 10SM SCT022 BKN030 19/14 A2945 1460 72 2300 200/09 RMK AO2
14926KSTC STC20000614091010906/14/00 09:10:31  5-MIN KSTC 141510Z AUTO 18009KT 10SM SCT022 SCT030 19/14 A2945 1470 72 2300 180/09 RMK AO2
14926KSTC STC20000614091510906/14/00 09:15:31  5-MIN KSTC 141515Z AUTO 18010KT 10SM FEW022 SCT030 20/14 A2945 1470 70 2400 180/10 RMK AO2
14926KSTC STC20000614092010906/14/00 09:20:31  5-MIN KSTC 141520Z AUTO 20010KT 10SM FEW022 SCT030 19/14 A2945 1470 72 2400 200/10 RMK AO2
14926KSTC STC20000614092510906/14/00 09:25:31  5-MIN KSTC 141525Z AUTO 18011KT 10SM FEW022 SCT030 20/14 A2944 1470 70 2400 180/11 RMK AO2
14926KSTC STC20000614093010906/14/00 09:30:31  5-MIN KSTC 141530Z AUTO 19010KT 10SM FEW025 SCT035 20/14 A2944 1480 70 2400 190/10 RMK AO2
14926KSTC STC20000614093510906/14/00 09:35:31  5-MIN KSTC 141535Z AUTO 18010KT 10SM FEW027 SCT035 20/14 A2944 1480 70 2400 170/10 RMK AO2
14926KSTC STC20000614094011506/14/00 09:40:31  5-MIN KSTC 141540Z AUTO 17013G16KT 10SM SCT027 BKN035 21/14 A2944 1480 67 2500 170/13G16 RMK AO2
14926KSTC STC20000614094510906/14/00 09:45:31  5-MIN KSTC 141545Z AUTO 18013KT 10SM SCT027 BKN033 21/14 A2944 1480 67 2500 180/13 RMK AO2
14926KSTC STC20000614095012606/14/00 09:50:31  5-MIN KSTC 141550Z AUTO 18012KT 10SM FEW026 SCT034 20/14 A2944 1470 70 2400 180/12 RMK AO2 SLP973 T02000144
14926KSTC STC20000614095510906/14/00 09:55:31  5-MIN KSTC 141555Z AUTO 18012KT 10SM SCT028 SCT036 21/14 A2944 1470 67 2500 180/12 RMK AO2
14926KSTC STC20000614100010906/14/00 10:00:31  5-MIN KSTC 141600Z AUTO 17014KT 10SM SCT028 SCT045 21/14 A2945 1470 67 2500 170/14 RMK AO2
14926KSTC STC20000614100510906/14/00 10:05:31  5-MIN KSTC 141605Z AUTO 17014KT 10SM FEW026 BKN043 21/14 A2945 1470 65 2600 170/14 RMK AO2
14926KSTC STC20000614101010906/14/00 10:10:31  5-MIN KSTC 141610Z AUTO 19013KT 10SM FEW026 SCT045 21/14 A2945 1470 65 2600 180/13 RMK AO2
14926KSTC STC20000614101510906/14/00 10:15:31  5-MIN KSTC 141615Z AUTO 19012KT 10SM FEW026 SCT047 21/14 A2945 1470 65 2500 190/12 RMK AO2
14926KSTC STC20000614102010906/14/00 10:20:31  5-MIN KSTC 141620Z AUTO 20012KT 10SM FEW026 BKN047 21/14 A2945 1460 65 2500 200/12 RMK AO2
14926KSTC STC20000614102511606/14/00 10:25:31  5-MIN KSTC 141625Z AUTO 20011KT 10SM FEW026 SCT047 BKN055 21/14 A2945 1470 65 2500 200/11 RMK AO2
14926KSTC STC20000614103012206/14/00 10:30:31  5-MIN KSTC 141630Z AUTO 18012G17KT 10SM FEW032 SCT047 BKN055 20/13 A2945 1470 65 2400 180/12G17 RMK AO2
14926KSTC STC20000614103511606/14/00 10:35:31  5-MIN KSTC 141635Z AUTO 20011KT 10SM FEW034 BKN047 BKN055 20/13 A2945 1460 65 2400 200/11 RMK AO2
14926KSTC STC20000614104011606/14/00 10:40:31  5-MIN KSTC 141640Z AUTO 22010KT 10SM FEW034 BKN047 OVC055 20/14 A2945 1460 67 2400 220/10 RMK AO2
14926KSTC STC20000614104511606/14/00 10:45:31  5-MIN KSTC 141645Z AUTO 21011KT 10SM FEW034 SCT047 OVC055 19/13 A2945 1460 67 2400 210/11 RMK AO2
14926KSTC STC20000614105012606/14/00 10:50:31  5-MIN KSTC 141650Z AUTO 21011KT 10SM FEW036 OVC050 19/13 A2945 1460 67 2400 210/11 RMK AO2 SLP979 T01940133
14926KSTC STC20000614105511606/14/00 10:55:31  5-MIN KSTC 141655Z AUTO 21011KT 10SM FEW036 BKN050 OVC060 20/13 A2945 1460 65 2400 210/11 RMK AO2
14926KSTC STC20000614110011606/14/00 11:00:31  5-MIN KSTC 141700Z AUTO 22011KT 10SM FEW036 SCT047 OVC060 20/13 A2945 1460 65 2400 220/11 RMK AO2
14926KSTC STC20000614110511506/14/00 11:05:31  5-MIN KSTC 141705Z AUTO 22009KT 9SM FEW041 SCT050 OVC060 19/13 A2945 1470 67 2400 220/09 RMK AO2
14926KSTC STC20000614111011606/14/00 11:10:31  5-MIN KSTC 141710Z AUTO 22010KT 10SM FEW030 BKN050 OVC060 19/13 A2945 1470 65 2400 220/10 RMK AO2
14926KSTC STC20000614111511606/14/00 11:15:31  5-MIN KSTC 141715Z AUTO 21009KT 10SM SCT037 BKN048 OVC060 19/13 A2945 1470 65 2400 210/09 RMK AO2
14926KSTC STC20000614112011606/14/00 11:20:31  5-MIN KSTC 141720Z AUTO 22009KT 10SM FEW031 SCT039 OVC055 19/13 A2945 1470 67 2400 210/09 RMK AO2
14926KSTC STC20000614112511606/14/00 11:25:31  5-MIN KSTC 141725Z AUTO 21010KT 10SM FEW031 SCT049 OVC055 19/13 A2945 1470 67 2400 210/10 RMK AO2
14926KSTC STC20000614113011606/14/00 11:30:31  5-MIN KSTC 141730Z AUTO 21009KT 10SM FEW031 SCT049 OVC060 19/13 A2945 1470 67 2400 210/09 RMK AO2
14926KSTC STC20000614113511606/14/00 11:35:31  5-MIN KSTC 141735Z AUTO 22010KT 10SM FEW031 SCT049 OVC060 19/13 A2945 1470 67 2400 210/10 RMK AO2
14926KSTC STC20000614114010906/14/00 11:40:31  5-MIN KSTC 141740Z AUTO 22011KT 10SM FEW038 OVC060 19/13 A2945 1470 65 2400 210/11 RMK AO2
14926KSTC STC20000614114510206/14/00 11:45:31  5-MIN KSTC 141745Z AUTO 22010KT 10SM OVC060 19/13 A2945 1470 65 2400 220/10 RMK AO2
14926KSTC STC20000614115014406/14/00 11:50:31  5-MIN KSTC 141750Z AUTO 23009KT 10SM FEW033 OVC060 19/13 A2945 1460 67 2400 230/09 RMK AO2 SLP977 T01940133 10211 20167 58006
14926KSTC STC20000614115510906/14/00 11:55:31  5-MIN KSTC 141755Z AUTO 24007KT 10SM SCT032 OVC060 19/13 A2945 1460 67 2400 240/07 RMK AO2
14926KSTC STC20000614120011606/14/00 12:00:31  5-MIN KSTC 141800Z AUTO 23010KT 10SM SCT030 BKN055 OVC065 19/13 A2945 1460 70 2300 230/10 RMK AO2
14926KSTC STC20000614120511606/14/00 12:05:31  5-MIN KSTC 141805Z AUTO 23011KT 10SM BKN030 BKN043 OVC055 19/13 A2945 1460 70 2300 230/11 RMK AO2
14926KSTC STC20000614121011606/14/00 12:10:31  5-MIN KSTC 141810Z AUTO 25009KT 10SM SCT030 BKN047 OVC060 19/13 A2945 1460 70 2300 240/09 RMK AO2
14926KSTC STC20000614121511606/14/00 12:15:31  5-MIN KSTC 141815Z AUTO 23008KT 10SM FEW030 SCT043 OVC050 19/13 A2945 1460 70 2300 230/08 RMK AO2
14926KSTC STC20000614122011606/14/00 12:20:31  5-MIN KSTC 141820Z AUTO 24009KT 10SM FEW030 SCT043 OVC050 18/13 A2945 1470 72 2200 240/09 RMK AO2
14926KSTC STC20000614122511606/14/00 12:25:31  5-MIN KSTC 141825Z AUTO 25009KT 10SM FEW028 BKN050 OVC065 18/13 A2945 1470 72 2200 250/09 RMK AO2
14926KSTC STC20000614123011606/14/00 12:30:31  5-MIN KSTC 141830Z AUTO 24008KT 10SM FEW028 BKN048 OVC060 19/14 A2945 1460 72 2300 230/08 RMK AO2
14926KSTC STC20000614123511606/14/00 12:35:31  5-MIN KSTC 141835Z AUTO 24009KT 10SM FEW026 BKN048 OVC060 19/13 A2945 1460 70 2300 230/09 RMK AO2
14926KSTC STC20000614124011606/14/00 12:40:31  5-MIN KSTC 141840Z AUTO 24010KT 10SM SCT026 BKN050 OVC065 19/13 A2945 1460 70 2300 240/10 RMK AO2
14926KSTC STC20000614124511606/14/00 12:45:31  5-MIN KSTC 141845Z AUTO 24008KT 10SM SCT026 BKN032 OVC060 19/14 A2945 1470 72 2300 240/08 RMK AO2
14926KSTC STC20000614125013306/14/00 12:50:31  5-MIN KSTC 141850Z AUTO 23010KT 10SM SCT026 BKN032 OVC065 19/13 A2945 1470 70 2300 230/10 RMK AO2 SLP977 T01890133
14926KSTC STC20000614125511606/14/00 12:55:31  5-MIN KSTC 141855Z AUTO 23009KT 10SM BKN026 BKN037 OVC065 19/13 A2945 1470 70 2300 220/09 RMK AO2
14926KSTC STC20000614130011606/14/00 13:00:31  5-MIN KSTC 141900Z AUTO 23009KT 10SM BKN028 BKN037 OVC065 19/14 A2945 1470 72 2300 230/09 RMK AO2
14926KSTC STC20000614130511606/14/00 13:05:31  5-MIN KSTC 141905Z AUTO 24007KT 10SM BKN028 BKN037 OVC065 19/14 A2945 1460 72 2300 230/07 RMK AO2
14926KSTC STC20000614131011606/14/00 13:10:31  5-MIN KSTC 141910Z AUTO 23006KT 10SM BKN028 BKN037 OVC065 19/14 A2945 1460 72 2300 230/06 RMK AO2
14926KSTC STC20000614131511606/14/00 13:15:31  5-MIN KSTC 141915Z AUTO 22007KT 10SM BKN028 BKN037 OVC048 19/14 A2945 1470 72 2300 220/07 RMK AO2
14926KSTC STC20000614132011606/14/00 13:20:31  5-MIN KSTC 141920Z AUTO 22007KT 10SM BKN028 BKN037 OVC048 19/14 A2945 1470 72 2300 220/07 RMK AO2
14926KSTC STC20000614132513006/14/00 13:25:31  5-MIN KSTC 141925Z AUTO 25011G14KT 7SM -RA BKN028 OVC034 18/13 A2945 1470 72 2200 250/11G14 RMK AO2 RAB25 P0001
14926KSTC STC20000614133011706/14/00 13:30:31  5-MIN KSTC 141930Z AUTO 26010KT 6SM -RA OVC028 17/14 A2944 1470 80 2100 260/10 RMK AO2 RAB25 P0001
14926KSTC STC20000614133511706/14/00 13:35:31  5-MIN KSTC 141935Z AUTO 25006KT 9SM -RA OVC028 18/14 A2944 1470 81 2200 250/06 RMK AO2 RAB25 P0001
14926KSTC STC20000614134011706/14/00 13:40:31  5-MIN KSTC 141940Z AUTO 23006KT 10SM OVC028 18/14 A2944 1470 78 2200 230/06 RMK AO2 RAB25E37 P0001
14926KSTC STC20000614134511706/14/00 13:45:31  5-MIN KSTC 141945Z AUTO 24006KT 10SM OVC028 18/14 A2944 1470 78 2200 240/06 RMK AO2 RAB25E37 P0001
14926KSTC STC20000614135014806/14/00 13:50:31  5-MIN KSTC 141950Z AUTO 24009KT 10SM BKN028 BKN032 OVC070 18/14 A2944 1480 75 2200 240/09 RMK AO2 RAB25E37 SLP974 P0001 T01830139
14926KSTC STC20000614135510906/14/00 13:55:31  5-MIN KSTC 141955Z AUTO 24009KT 10SM BKN028 OVC070 18/13 A2944 1480 72 2200 240/09 RMK AO2
14926KSTC STC20000614140010906/14/00 14:00:31  5-MIN KSTC 142000Z AUTO 24010KT 10SM SCT028 OVC070 18/13 A2943 1480 72 2300 240/10 RMK AO2
14926KSTC STC20000614140510906/14/00 14:05:31  5-MIN KSTC 142005Z AUTO 24009KT 10SM SCT026 OVC070 18/13 A2943 1480 72 2300 240/09 RMK AO2
14926KSTC STC20000614141010906/14/00 14:10:31  5-MIN KSTC 142010Z AUTO 24009KT 10SM FEW028 OVC070 18/13 A2943 1480 72 2300 240/09 RMK AO2
14926KSTC STC20000614141510206/14/00 14:15:31  5-MIN KSTC 142015Z AUTO 24007KT 10SM OVC070 19/14 A2943 1480 72 2300 240/07 RMK AO2
14926KSTC STC20000614142010206/14/00 14:20:31  5-MIN KSTC 142020Z AUTO 25009KT 10SM OVC075 19/14 A2943 1480 72 2300 250/09 RMK AO2
14926KSTC STC20000614142510906/14/00 14:25:31  5-MIN KSTC 142025Z AUTO 26010KT 10SM BKN075 BKN085 19/14 A2943 1480 72 2400 250/10 RMK AO2
14926KSTC STC20000614143010906/14/00 14:30:31  5-MIN KSTC 142030Z AUTO 25010KT 10SM SCT075 BKN090 19/14 A2943 1480 70 2400 250/10 RMK AO2
14926KSTC STC20000614143510206/14/00 14:35:31  5-MIN KSTC 142035Z AUTO 24009KT 10SM SCT080 19/13 A2943 1480 67 2400 240/09 RMK AO2
14926KSTC STC20000614144010206/14/00 14:40:31  5-MIN KSTC 142040Z AUTO 24010KT 10SM SCT080 19/13 A2943 1480 67 2400 240/10 RMK AO2
14926KSTC STC20000614144510906/14/00 14:45:31  5-MIN KSTC 142045Z AUTO 25011KT 10SM FEW060 SCT080 19/14 A2943 1490 72 2300 240/11 RMK AO2
14926KSTC STC20000614145013806/14/00 14:50:31  5-MIN KSTC 142050Z AUTO 26010KT 10SM SCT050 BKN060 19/14 A2943 1490 72 2300 260/10 RMK AO2 SLP969 60001 T01890139 56002
14926KSTC STC20000614145511606/14/00 14:55:31  5-MIN KSTC 142055Z AUTO 25008KT 10SM SCT050 SCT060 BKN075 19/14 A2942 1490 72 2400 250/08 RMK AO2
14926KSTC STC20000614150010906/14/00 15:00:31  5-MIN KSTC 142100Z AUTO 26013KT 10SM SCT050 BKN070 20/14 A2942 1490 67 2500 260/13 RMK AO2
14926KSTC STC20000614150510906/14/00 15:05:31  5-MIN KSTC 142105Z AUTO 25011KT 10SM SCT050 OVC070 20/13 A2942 1490 65 2500 250/11 RMK AO2
14926KSTC STC20000614151010906/14/00 15:10:31  5-MIN KSTC 142110Z AUTO 26012KT 10SM SCT050 OVC070 19/14 A2943 1490 70 2400 260/12 RMK AO2
14926KSTC STC20000614151512206/14/00 15:15:31  5-MIN KSTC 142115Z AUTO 26016G21KT 10SM FEW029 SCT050 OVC070 19/13 A2943 1480 70 2300 250/16G21 RMK AO2
14926KSTC STC20000614152013706/14/00 15:20:31  5-MIN KSTC 142120Z AUTO 28019G25KT 6SM -RA FEW022 BKN046 OVC070 18/14 A2944 1470 81 2200 280/19G25 RMK AO2 RAB17 P0001
14926KSTC STC20000614152513906/14/00 15:25:31  5-MIN KSTC 142125Z AUTO 30018G25KT 3SM RA BR FEW013 BKN029 OVC070 17/14 A2944 1470 86 2000 300/18G25 RMK AO2 RAB17 P0002
14926KSTC STC20000614153014006/14/00 15:30:31  5-MIN KSTC 142130Z AUTO 30018G23KT 4SM -RA BR SCT013 BKN019 OVC070 16/14 A2945 1470 90 2000 300/18G23 RMK AO2 RAB17 P0002
14926KSTC STC20000614153514006/14/00 15:35:31  5-MIN KSTC 142135Z AUTO 30017G23KT 5SM -RA BR FEW011 BKN017 OVC065 16/14 A2945 1470 93 1900 300/17G23 RMK AO2 RAB17 P0002
14926KSTC STC20000614154013406/14/00 15:40:31  5-MIN KSTC 142140Z AUTO 31016KT 4SM -RA BR FEW012 BKN017 OVC029 16/14 A2945 1470 93 1900 310/16 RMK AO2 RAB17 P0003
14926KSTC STC20000614154513406/14/00 15:45:31  5-MIN KSTC 142145Z AUTO 30012KT 6SM -RA BR SCT013 BKN026 OVC043 16/14 A2945 1470 90 2000 300/12 RMK AO2 RAB17 P0003
14926KSTC STC20000614155014806/14/00 15:50:31  5-MIN KSTC 142150Z AUTO 30017KT 10SM FEW011 BKN050 OVC070 16/14 A2944 1470 90 2000 300/17 RMK AO2 RAB17E48 SLP976 P0003 T01610144
14926KSTC STC20000614155511606/14/00 15:55:31  5-MIN KSTC 142155Z AUTO 30018KT 10SM FEW013 SCT020 BKN048 17/14 A2945 1470 86 2000 300/18 RMK AO2
14926KSTC STC20000614160012206/14/00 16:00:31  5-MIN KSTC 142200Z AUTO 30017G20KT 10SM FEW014 SCT055 BKN070 17/14 A2945 1470 86 2000 300/17G20 RMK AO2
14926KSTC STC20000614160512206/14/00 16:05:31  5-MIN KSTC 142205Z AUTO 31017G20KT 10SM FEW019 SCT055 OVC075 17/14 A2945 1470 83 2000 310/17G20 RMK AO2
14926KSTC STC20000614161010906/14/00 16:10:31  5-MIN KSTC 142210Z AUTO 30014KT 10SM FEW025 OVC075 17/14 A2945 1470 83 2000 300/14 RMK AO2
14926KSTC STC20000614161511506/14/00 16:15:31  5-MIN KSTC 142215Z AUTO 31017G23KT 10SM SCT023 OVC075 17/14 A2945 1460 83 2000 300/17G23 RMK AO2
14926KSTC STC20000614162011506/14/00 16:20:31  5-MIN KSTC 142220Z AUTO 31017G23KT 10SM BKN022 OVC080 17/14 A2945 1460 83 2000 310/17G23 RMK AO2
14926KSTC STC20000614162515606/14/00 16:25:31  5-MIN KSTC 142225Z AUTO 30018G27KT 10SM -RA SCT020 BKN025 OVC080 17/14 A2945 1460 83 2000 300/18G27 RMK AO2 PK WND 29027/2225 RAB21 P0000
14926KSTC STC20000614163015606/14/00 16:30:31  5-MIN KSTC 142230Z AUTO 31020G27KT 10SM -RA BKN019 BKN025 OVC080 17/13 A2946 1460 80 2000 300/20G27 RMK AO2 PK WND 29027/2225 RAB21 P0000
14926KSTC STC20000614163514906/14/00 16:35:31  5-MIN KSTC 142235Z AUTO 31018G26KT 10SM -RA BKN019 BKN025 17/14 A2946 1450 83 2000 300/18G26 RMK AO2 PK WND 29027/2225 RAB21 P0000
14926KSTC STC20000614164014906/14/00 16:40:31  5-MIN KSTC 142240Z AUTO 31015G22KT 10SM -RA SCT021 BKN027 17/14 A2946 1450 83 2000 310/15G22 RMK AO2 PK WND 29027/2225 RAB21 P0000
14926KSTC STC20000614164514906/14/00 16:45:31  5-MIN KSTC 142245Z AUTO 31018G23KT 10SM -RA SCT019 BKN027 17/14 A2946 1450 80 2100 300/18G23 RMK AO2 PK WND 29027/2225 RAB21 P0000
14926KSTC STC20000614165015806/14/00 16:50:31  5-MIN KSTC 142250Z AUTO 31019G23KT 10SM BKN021 17/13 A2947 1450 80 2000 310/19G23 RMK AO2 PK WND 29027/2225 RAB21E49 SLP984 P0000 T01670133
14926KSTC STC20000614165511506/14/00 16:55:31  5-MIN KSTC 142255Z AUTO 30016G23KT 10SM BKN021 BKN032 17/13 A2947 1450 80 2000 300/16G23 RMK AO2
14926KSTC STC20000614170011606/14/00 17:00:31  5-MIN KSTC 142300Z AUTO 29016KT 10SM SCT018 BKN023 BKN032 16/13 A2947 1450 83 2000 290/16 RMK AO2
14926KSTC STC20000614170512506/14/00 17:05:31  5-MIN KSTC 142305Z AUTO 30012KT 10SM -RA BKN020 BKN030 16/13 A2947 1440 86 1900 290/12 RMK AO2 RAB02 P0000
14926KSTC STC20000614171011806/14/00 17:10:31  5-MIN KSTC 142310Z AUTO 29014KT 10SM -RA OVC020 16/13 A2947 1440 86 1900 290/14 RMK AO2 RAB02 P0000
14926KSTC STC20000614171512406/14/00 17:15:31  5-MIN KSTC 142315Z AUTO 30015KT 10SM BKN020 OVC027 16/13 A2947 1440 86 1900 300/15 RMK AO2 RAB02E12 P0000
14926KSTC STC20000614172013006/14/00 17:20:31  5-MIN KSTC 142320Z AUTO 29014G20KT 10SM BKN020 OVC027 16/13 A2947 1440 83 1900 290/14G20 RMK AO2 RAB02E12 P0000
14926KSTC STC20000614172513006/14/00 17:25:31  5-MIN KSTC 142325Z AUTO 30014G20KT 10SM BKN020 OVC027 16/13 A2948 1440 80 1900 300/14G20 RMK AO2 RAB02E12 P0000
14926KSTC STC20000614173012306/14/00 17:30:31  5-MIN KSTC 142330Z AUTO 30014G21KT 10SM OVC020 16/13 A2948 1440 80 1900 290/14G21 RMK AO2 RAB02E12 P0000
14926KSTC STC20000614173513006/14/00 17:35:31  5-MIN KSTC 142335Z AUTO 30016G21KT 10SM BKN020 OVC026 16/13 A2948 1440 80 1900 290/16G21 RMK AO2 RAB02E12 P0000
14926KSTC STC20000614174013006/14/00 17:40:31  5-MIN KSTC 142340Z AUTO 30019G25KT 10SM BKN020 OVC028 16/13 A2948 1430 80 1900 300/19G25 RMK AO2 RAB02E12 P0000
14926KSTC STC20000614174513006/14/00 17:45:31  5-MIN KSTC 142345Z AUTO 31016G25KT 10SM BKN020 OVC028 16/12 A2948 1430 77 1900 300/16G25 RMK AO2 RAB02E12 P0000
14926KSTC STC20000614175017806/14/00 17:50:31  5-MIN KSTC 142350Z AUTO 30015G22KT 10SM BKN020 BKN025 OVC075 16/12 A2948 1430 77 1900 300/15G22 RMK AO2 RAB02E12 SLP989 P0000 60004 T01610122 10200 20156 58008
14926KSTC STC20000614175512206/14/00 17:55:31  5-MIN KSTC 142355Z AUTO 30019G23KT 10SM BKN023 BKN030 OVC075 16/12 A2948 1430 77 1900 290/19G23 RMK AO2
14926KSTC STC20000614180011506/14/00 18:00:31  5-MIN KSTC 150000Z AUTO 30016G23KT 10SM BKN023 OVC028 16/12 A2948 1430 77 1900 300/16G23 RMK AO2
14926KSTC STC20000614180511506/14/00 18:05:31  5-MIN KSTC 150005Z AUTO 31019G23KT 10SM BKN025 OVC030 16/12 A2949 1430 77 1900 300/19G23 RMK AO2
14926KSTC STC20000614181010906/14/00 18:10:31  5-MIN KSTC 150010Z AUTO 30017KT 10SM BKN025 OVC032 16/12 A2949 1430 77 1900 300/17 RMK AO2
14926KSTC STC20000614181511506/14/00 18:15:31  5-MIN KSTC 150015Z AUTO 31016G24KT 10SM BKN023 OVC032 16/12 A2948 1430 77 1900 310/16G24 RMK AO2
14926KSTC STC20000614182014006/14/00 18:20:31  5-MIN KSTC 150020Z AUTO 31020G26KT 10SM BKN023 BKN031 OVC065 16/12 A2949 1430 77 1900 300/20G26 RMK AO2 PK WND 31026/0020
14926KSTC STC20000614182514006/14/00 18:25:31  5-MIN KSTC 150025Z AUTO 31023G30KT 10SM FEW023 BKN027 OVC065 17/12 A2949 1430 72 2000 310/23G30 RMK AO2 PK WND 31030/0022
14926KSTC STC20000614183014006/14/00 18:30:31  5-MIN KSTC 150030Z AUTO 31017G30KT 10SM SCT023 BKN032 OVC090 16/12 A2950 1420 75 1900 310/17G30 RMK AO2 PK WND 31030/0030
14926KSTC STC20000614183514006/14/00 18:35:31  5-MIN KSTC 150035Z AUTO 31023G30KT 10SM BKN023 BKN032 OVC090 16/12 A2950 1420 75 1900 300/23G30 RMK AO2 PK WND 31030/0030
14926KSTC STC20000614184014006/14/00 18:40:31  5-MIN KSTC 150040Z AUTO 30016G28KT 10SM BKN023 BKN032 OVC090 16/12 A2950 1420 77 1900 300/16G28 RMK AO2 PK WND 31030/0030
14926KSTC STC20000614184514006/14/00 18:45:31  5-MIN KSTC 150045Z AUTO 30018G27KT 10SM SCT023 BKN034 OVC090 16/12 A2950 1420 77 1900 300/18G27 RMK AO2 PK WND 31030/0030
14926KSTC STC20000614185015706/14/00 18:50:31  5-MIN KSTC 150050Z AUTO 30020G27KT 10SM SCT025 BKN034 OVC090 16/12 A2950 1410 75 1900 290/20G27 RMK AO2 PK WND 31030/0030 SLP996 T01610117
14926KSTC STC20000614185514006/14/00 18:55:31  5-MIN KSTC 150055Z AUTO 30021G28KT 10SM SCT023 BKN028 OVC070 16/12 A2951 1410 75 1900 300/21G28 RMK AO2 PK WND 30026/0055
14926KSTC STC20000614190013306/14/00 19:00:31  5-MIN KSTC 150100Z AUTO 30021G28KT 10SM BKN025 OVC033 16/12 A2951 1410 75 1900 300/21G28 RMK AO2 PK WND 30028/0100
14926KSTC STC20000614190514006/14/00 19:05:31  5-MIN KSTC 150105Z AUTO 31019G28KT 10SM BKN027 BKN032 OVC070 16/12 A2950 1410 75 1900 310/19G28 RMK AO2 PK WND 30028/0100
14926KSTC STC20000614191014006/14/00 19:10:31  5-MIN KSTC 150110Z AUTO 31020G27KT 10SM BKN026 BKN032 BKN070 16/12 A2951 1410 77 1800 310/20G27 RMK AO2 PK WND 30028/0100
14926KSTC STC20000614191514006/14/00 19:15:31  5-MIN KSTC 150115Z AUTO 31020G25KT 10SM BKN024 BKN030 BKN045 16/11 A2951 1410 74 1800 310/20G25 RMK AO2 PK WND 30028/0100
14926KSTC STC20000614192014006/14/00 19:20:31  5-MIN KSTC 150120Z AUTO 31021G36KT 10SM BKN027 BKN037 BKN045 16/11 A2951 1410 74 1800 300/21G36 RMK AO2 PK WND 30036/0120
14926KSTC STC20000614192513306/14/00 19:25:31  5-MIN KSTC 150125Z AUTO 31018G36KT 10SM BKN027 BKN037 16/11 A2951 1410 74 1800 310/18G36 RMK AO2 PK WND 30036/0120
14926KSTC STC20000614193013306/14/00 19:30:31  5-MIN KSTC 150130Z AUTO 31016G33KT 10SM BKN027 BKN038 16/11 A2952 1400 74 1800 310/16G33 RMK AO2 PK WND 30036/0120
14926KSTC STC20000614193513306/14/00 19:35:31  5-MIN KSTC 150135Z AUTO 31022G25KT 10SM BKN027 OVC038 16/11 A2952 1400 74 1800 310/22G25 RMK AO2 PK WND 30036/0120
14926KSTC STC20000614194013306/14/00 19:40:31  5-MIN KSTC 150140Z AUTO 30020G25KT 10SM BKN029 OVC040 16/11 A2952 1400 74 1800 300/20G25 RMK AO2 PK WND 30036/0120
14926KSTC STC20000614194513306/14/00 19:45:31  5-MIN KSTC 150145Z AUTO 31016G23KT 10SM SCT029 BKN040 16/11 A2952 1400 74 1800 310/16G23 RMK AO2 PK WND 30036/0120
14926KSTC STC20000614195015006/14/00 19:50:31  5-MIN KSTC 150150Z AUTO 30015G23KT 10SM SCT029 BKN042 16/11 A2952 1400 74 1800 300/15G23 RMK AO2 PK WND 30036/0120 SLP002 T01560111
14926KSTC STC20000614195511506/14/00 19:55:31  5-MIN KSTC 150155Z AUTO 30016G21KT 10SM FEW029 SCT042 16/11 A2952 1400 74 1800 290/16G21 RMK AO2
14926KSTC STC20000614200011506/14/00 20:00:31  5-MIN KSTC 150200Z AUTO 30014G21KT 10SM FEW029 SCT044 16/11 A2953 1390 74 1800 300/14G21 RMK AO2
14926KSTC STC20000614200510806/14/00 20:05:31  5-MIN KSTC 150205Z AUTO 30012G19KT 10SM BKN044 16/11 A2953 1390 74 1800 300/12G19 RMK AO2
14926KSTC STC20000614201010806/14/00 20:10:31  5-MIN KSTC 150210Z AUTO 30012G19KT 10SM BKN046 16/11 A2953 1390 74 1800 290/12G19 RMK AO2
14926KSTC STC20000614201510206/14/00 20:15:31  5-MIN KSTC 150215Z AUTO 30013KT 10SM SCT046 16/11 A2953 1390 74 1800 300/13 RMK AO2
14926KSTC STC20000614202010206/14/00 20:20:31  5-MIN KSTC 150220Z AUTO 29014KT 10SM SCT046 17/11 A2953 1390 69 1900 290/14 RMK AO2
14926KSTC STC20000614202510206/14/00 20:25:31  5-MIN KSTC 150225Z AUTO 30015KT 10SM SCT046 16/11 A2953 1380 72 1800 290/15 RMK AO2
14926KSTC STC20000614203010206/14/00 20:30:31  5-MIN KSTC 150230Z AUTO 30016KT 10SM FEW046 16/11 A2954 1380 72 1800 290/16 RMK AO2
14926KSTC STC20000614203510806/14/00 20:35:31  5-MIN KSTC 150235Z AUTO 30018G22KT 10SM FEW046 16/11 A2954 1380 72 1800 300/18G22 RMK AO2
14926KSTC STC20000614204010506/14/00 20:40:31  5-MIN KSTC 150240Z AUTO 30015G22KT 10SM CLR 16/11 A2954 1380 72 1800 290/15G22 RMK AO2
14926KSTC STC20000614204510506/14/00 20:45:31  5-MIN KSTC 150245Z AUTO 29014G20KT 10SM CLR 16/11 A2954 1380 72 1800 290/14G20 RMK AO2
14926KSTC STC20000614205012806/14/00 20:50:31  5-MIN KSTC 150250Z AUTO 29012G20KT 10SM CLR 16/11 A2955 1370 72 1800 290/12G20 RMK AO2 SLP011 T01560106 51019
14926KSTC STC20000614205509906/14/00 20:55:31  5-MIN KSTC 150255Z AUTO 29012KT 10SM CLR 15/11 A2955 1370 74 1700 290/12 RMK AO2
14926KSTC STC20000614210009906/14/00 21:00:31  5-MIN KSTC 150300Z AUTO 29011KT 10SM CLR 15/11 A2955 1370 74 1700 290/11 RMK AO2
14926KSTC STC20000614210509906/14/00 21:05:31  5-MIN KSTC 150305Z AUTO 29012KT 10SM CLR 15/11 A2955 1370 74 1700 290/12 RMK AO2
14926KSTC STC20000614211009906/14/00 21:10:31  5-MIN KSTC 150310Z AUTO 29011KT 10SM CLR 15/11 A2955 1370 74 1700 290/11 RMK AO2
14926KSTC STC20000614211509906/14/00 21:15:31  5-MIN KSTC 150315Z AUTO 29011KT 10SM CLR 15/11 A2956 1360 74 1700 290/11 RMK AO2
14926KSTC STC20000614212009906/14/00 21:20:31  5-MIN KSTC 150320Z AUTO 30013KT 10SM CLR 15/11 A2956 1360 74 1700 290/13 RMK AO2
14926KSTC STC20000614212510506/14/00 21:25:31  5-MIN KSTC 150325Z AUTO 29015G21KT 10SM CLR 15/11 A2956 1360 74 1700 290/15G21 RMK AO2
14926KSTC STC20000614213010506/14/00 21:30:31  5-MIN KSTC 150330Z AUTO 30016G22KT 10SM CLR 15/11 A2956 1360 74 1700 300/16G22 RMK AO2
14926KSTC STC20000614213510506/14/00 21:35:31  5-MIN KSTC 150335Z AUTO 30015G22KT 10SM CLR 15/10 A2956 1360 72 1700 300/15G22 RMK AO2
14926KSTC STC20000614214009906/14/00 21:40:31  5-MIN KSTC 150340Z AUTO 30014KT 10SM CLR 15/10 A2956 1360 72 1700 290/14 RMK AO2
14926KSTC STC20000614214509906/14/00 21:45:31  5-MIN KSTC 150345Z AUTO 29011KT 10SM CLR 15/10 A2956 1360 72 1700 290/11 RMK AO2
14926KSTC STC20000614215011606/14/00 21:50:31  5-MIN KSTC 150350Z AUTO 29011KT 10SM CLR 15/10 A2956 1360 72 1700 290/11 RMK AO2 SLP015 T01500100
14926KSTC STC20000614215509906/14/00 21:55:31  5-MIN KSTC 150355Z AUTO 29010KT 10SM CLR 14/11 A2956 1360 77 1700 280/10 RMK AO2
14926KSTC STC20000614220009906/14/00 22:00:31  5-MIN KSTC 150400Z AUTO 29010KT 10SM CLR 14/10 A2956 1360 74 1700 280/10 RMK AO2
14926KSTC STC20000614220509906/14/00 22:05:31  5-MIN KSTC 150405Z AUTO 29009KT 10SM CLR 14/10 A2956 1360 74 1600 280/09 RMK AO2
14926KSTC STC20000614221009906/14/00 22:10:31  5-MIN KSTC 150410Z AUTO 29010KT 10SM CLR 14/10 A2956 1360 74 1600 280/10 RMK AO2
14926KSTC STC20000614221509906/14/00 22:15:31  5-MIN KSTC 150415Z AUTO 28010KT 10SM CLR 14/10 A2957 1360 74 1600 280/10 RMK AO2
14926KSTC STC20000614222009906/14/00 22:20:31  5-MIN KSTC 150420Z AUTO 29009KT 10SM CLR 14/10 A2957 1360 74 1600 280/09 RMK AO2
14926KSTC STC20000614222509906/14/00 22:25:31  5-MIN KSTC 150425Z AUTO 29010KT 10SM CLR 14/10 A2957 1360 74 1600 290/10 RMK AO2
14926KSTC STC20000614223009906/14/00 22:30:31  5-MIN KSTC 150430Z AUTO 28012KT 10SM CLR 14/10 A2957 1350 74 1600 280/12 RMK AO2
14926KSTC STC20000614223509906/14/00 22:35:31  5-MIN KSTC 150435Z AUTO 29011KT 10SM CLR 14/10 A2957 1350 74 1600 280/11 RMK AO2
14926KSTC STC20000614224009906/14/00 22:40:31  5-MIN KSTC 150440Z AUTO 29013KT 10SM CLR 14/10 A2957 1350 74 1600 290/13 RMK AO2
14926KSTC STC20000614224509906/14/00 22:45:31  5-MIN KSTC 150445Z AUTO 29012KT 10SM CLR 14/10 A2957 1350 74 1600 290/12 RMK AO2
14926KSTC STC20000614225011606/14/00 22:50:31  5-MIN KSTC 150450Z AUTO 29011KT 10SM CLR 14/10 A2957 1350 74 1600 290/11 RMK AO2 SLP019 T01440100
14926KSTC STC20000614225509906/14/00 22:55:31  5-MIN KSTC 150455Z AUTO 29011KT 10SM CLR 14/10 A2957 1350 74 1600 290/11 RMK AO2
14926KSTC STC20000614230009906/14/00 23:00:31  5-MIN KSTC 150500Z AUTO 29014KT 10SM CLR 14/10 A2957 1360 74 1600 290/14 RMK AO2
14926KSTC STC20000614230509906/14/00 23:05:31  5-MIN KSTC 150505Z AUTO 29013KT 10SM CLR 14/10 A2957 1350 74 1600 280/13 RMK AO2
14926KSTC STC20000614231010506/14/00 23:10:31  5-MIN KSTC 150510Z AUTO 29014G19KT 10SM CLR 14/10 A2957 1350 74 1600 290/14G19 RMK AO2
14926KSTC STC20000614231510506/14/00 23:15:31  5-MIN KSTC 150515Z AUTO 29012G19KT 10SM CLR 14/10 A2957 1350 74 1600 290/12G19 RMK AO2
14926KSTC STC20000614232009906/14/00 23:20:31  5-MIN KSTC 150520Z AUTO 29012KT 10SM CLR 14/10 A2957 1350 74 1600 290/12 RMK AO2
14926KSTC STC20000614232509906/14/00 23:25:31  5-MIN KSTC 150525Z AUTO 29011KT 10SM CLR 14/10 A2957 1350 74 1600 290/11 RMK AO2
14926KSTC STC20000614233009906/14/00 23:30:31  5-MIN KSTC 150530Z AUTO 29014KT 10SM CLR 14/10 A2957 1350 74 1600 290/14 RMK AO2
14926KSTC STC20000614233509906/14/00 23:35:31  5-MIN KSTC 150535Z AUTO 29012KT 10SM CLR 14/10 A2957 1350 74 1600 290/12 RMK AO2
14926KSTC STC20000614234009906/14/00 23:40:31  5-MIN KSTC 150540Z AUTO 29011KT 10SM CLR 14/10 A2957 1350 74 1600 290/11 RMK AO2
14926KSTC STC20000614234509906/14/00 23:45:31  5-MIN KSTC 150545Z AUTO 29012KT 10SM CLR 14/10 A2957 1350 74 1600 290/12 RMK AO2
14926KSTC STC20000614235014406/14/00 23:50:31  5-MIN KSTC 150550Z AUTO 29010KT 10SM CLR 14/10 A2957 1350 74 1600 290/10 RMK AO2 SLP020 T01440100 10167 20144 402110144 53021
14926KSTC STC20000614235509906/14/00 23:55:31  5-MIN KSTC 150555Z AUTO 28011KT 10SM CLR 14/10 A2957 1350 77 1600 280/11 RMK AO2
14926KSTC STC20000615000009906/15/00 00:00:31  5-MIN KSTC 150600Z AUTO 28010KT 10SM CLR 14/10 A2957 1350 77 1600 280/10 RMK AO2
14926KSTC STC20000615000509906/15/00 00:05:31  5-MIN KSTC 150605Z AUTO 29010KT 10SM CLR 14/10 A2957 1350 77 1600 280/10 RMK AO2
14926KSTC STC20000615001009906/15/00 00:10:31  5-MIN KSTC 150610Z AUTO 29011KT 10SM CLR 14/10 A2957 1350 77 1600 280/11 RMK AO2
14926KSTC STC20000615001509906/15/00 00:15:31  5-MIN KSTC 150615Z AUTO 28010KT 10SM CLR 14/10 A2957 1360 77 1600 280/10 RMK AO2
14926KSTC STC20000615002009906/15/00 00:20:31  5-MIN KSTC 150620Z AUTO 28010KT 10SM CLR 14/10 A2957 1350 77 1600 280/10 RMK AO2
14926KSTC STC20000615002509906/15/00 00:25:31  5-MIN KSTC 150625Z AUTO 28009KT 10SM CLR 13/10 A2956 1360 80 1500 280/09 RMK AO2
14926KSTC STC20000615003009906/15/00 00:30:31  5-MIN KSTC 150630Z AUTO 28010KT 10SM CLR 13/10 A2956 1360 80 1500 280/10 RMK AO2
14926KSTC STC20000615003509906/15/00 00:35:31  5-MIN KSTC 150635Z AUTO 28009KT 10SM CLR 13/10 A2956 1360 80 1500 270/09 RMK AO2
14926KSTC STC20000615004009906/15/00 00:40:31  5-MIN KSTC 150640Z AUTO 28009KT 10SM CLR 13/10 A2956 1360 80 1500 280/09 RMK AO2
14926KSTC STC20000615004509906/15/00 00:45:31  5-MIN KSTC 150645Z AUTO 28008KT 10SM CLR 13/10 A2956 1360 80 1500 280/08 RMK AO2
14926KSTC STC20000615005011606/15/00 00:50:31  5-MIN KSTC 150650Z AUTO 28008KT 10SM CLR 13/10 A2956 1360 80 1500 270/08 RMK AO2 SLP017 T01330100
14926KSTC STC20000615005509906/15/00 00:55:31  5-MIN KSTC 150655Z AUTO 27008KT 10SM CLR 13/10 A2956 1360 80 1500 270/08 RMK AO2
14926KSTC STC20000615010009906/15/00 01:00:31  5-MIN KSTC 150700Z AUTO 28008KT 10SM CLR 13/10 A2956 1360 83 1500 270/08 RMK AO2
14926KSTC STC20000615010509906/15/00 01:05:31  5-MIN KSTC 150705Z AUTO 27008KT 10SM CLR 13/10 A2956 1360 83 1500 270/08 RMK AO2
14926KSTC STC20000615011009906/15/00 01:10:31  5-MIN KSTC 150710Z AUTO 27008KT 10SM CLR 13/10 A2956 1360 83 1500 260/08 RMK AO2
14926KSTC STC20000615011509906/15/00 01:15:31  5-MIN KSTC 150715Z AUTO 27008KT 10SM CLR 13/10 A2956 1360 83 1500 260/08 RMK AO2
14926KSTC STC20000615012009906/15/00 01:20:31  5-MIN KSTC 150720Z AUTO 27008KT 10SM CLR 13/10 A2956 1360 83 1500 260/08 RMK AO2
14926KSTC STC20000615012509906/15/00 01:25:31  5-MIN KSTC 150725Z AUTO 26007KT 10SM CLR 13/10 A2956 1360 83 1500 260/07 RMK AO2
14926KSTC STC20000615013009906/15/00 01:30:31  5-MIN KSTC 150730Z AUTO 25006KT 10SM CLR 12/10 A2956 1360 89 1300 250/06 RMK AO2
14926KSTC STC20000615013509906/15/00 01:35:31  5-MIN KSTC 150735Z AUTO 25006KT 10SM CLR 12/10 A2956 1360 89 1300 240/06 RMK AO2
14926KSTC STC20000615014009906/15/00 01:40:31  5-MIN KSTC 150740Z AUTO 25007KT 10SM CLR 12/10 A2956 1360 89 1300 250/07 RMK AO2
14926KSTC STC20000615014509906/15/00 01:45:31  5-MIN KSTC 150745Z AUTO 25007KT 10SM CLR 12/11 A2956 1360 89 1400 240/07 RMK AO2
14926KSTC STC20000615015011606/15/00 01:50:31  5-MIN KSTC 150750Z AUTO 25007KT 10SM CLR 12/11 A2956 1360 89 1400 250/07 RMK AO2 SLP017 T01220106
14926KSTC STC20000615015509906/15/00 01:55:31  5-MIN KSTC 150755Z AUTO 25008KT 10SM CLR 12/11 A2956 1360 89 1400 250/08 RMK AO2
14926KSTC STC20000615020009906/15/00 02:00:31  5-MIN KSTC 150800Z AUTO 26007KT 10SM CLR 12/11 A2956 1360 89 1400 250/07 RMK AO2
14926KSTC STC20000615020509906/15/00 02:05:31  5-MIN KSTC 150805Z AUTO 26007KT 10SM CLR 12/11 A2956 1360 93 1300 260/07 RMK AO2
14926KSTC STC20000615021009906/15/00 02:10:31  5-MIN KSTC 150810Z AUTO 26008KT 10SM CLR 12/11 A2956 1360 89 1400 260/08 RMK AO2
14926KSTC STC20000615021509906/15/00 02:15:31  5-MIN KSTC 150815Z AUTO 26007KT 10SM CLR 12/11 A2956 1360 89 1400 250/07 RMK AO2
14926KSTC STC20000615022009906/15/00 02:20:31  5-MIN KSTC 150820Z AUTO 26007KT 10SM CLR 12/11 A2956 1360 89 1400 250/07 RMK AO2
14926KSTC STC20000615022509906/15/00 02:25:31  5-MIN KSTC 150825Z AUTO 26008KT 10SM CLR 12/11 A2956 1360 89 1400 260/08 RMK AO2
14926KSTC STC20000615023009906/15/00 02:30:31  5-MIN KSTC 150830Z AUTO 26007KT 10SM CLR 12/11 A2956 1360 89 1400 250/07 RMK AO2
14926KSTC STC20000615023509906/15/00 02:35:31  5-MIN KSTC 150835Z AUTO 26008KT 10SM CLR 12/11 A2956 1360 93 1400 260/08 RMK AO2
14926KSTC STC20000615024009906/15/00 02:40:31  5-MIN KSTC 150840Z AUTO 26007KT 10SM CLR 12/11 A2956 1360 93 1400 260/07 RMK AO2
14926KSTC STC20000615024509906/15/00 02:45:31  5-MIN KSTC 150845Z AUTO 26007KT 10SM CLR 12/11 A2956 1360 93 1400 250/07 RMK AO2
14926KSTC STC20000615025012206/15/00 02:50:31  5-MIN KSTC 150850Z AUTO 25008KT 10SM CLR 12/11 A2956 1360 93 1400 250/08 RMK AO2 SLP017 T01220111 51007
14926KSTC STC20000615025509906/15/00 02:55:31  5-MIN KSTC 150855Z AUTO 25008KT 10SM CLR 12/11 A2956 1360 93 1400 250/08 RMK AO2
14926KSTC STC20000615030009906/15/00 03:00:31  5-MIN KSTC 150900Z AUTO 25007KT 10SM CLR 12/11 A2956 1360 93 1400 250/07 RMK AO2
14926KSTC STC20000615030509906/15/00 03:05:31  5-MIN KSTC 150905Z AUTO 26007KT 10SM CLR 12/11 A2956 1360 93 1400 250/07 RMK AO2
14926KSTC STC20000615031009906/15/00 03:10:31  5-MIN KSTC 150910Z AUTO 26007KT 10SM CLR 12/11 A2956 1360 89 1400 250/07 RMK AO2
14926KSTC STC20000615031509906/15/00 03:15:31  5-MIN KSTC 150915Z AUTO 26007KT 10SM CLR 12/11 A2956 1360 89 1400 260/07 RMK AO2
14926KSTC STC20000615032009906/15/00 03:20:31  5-MIN KSTC 150920Z AUTO 26007KT 10SM CLR 12/11 A2956 1360 89 1400 250/07 RMK AO2
14926KSTC STC20000615032509906/15/00 03:25:31  5-MIN KSTC 150925Z AUTO 26006KT 10SM CLR 12/11 A2956 1360 89 1400 260/06 RMK AO2
14926KSTC STC20000615033009906/15/00 03:30:31  5-MIN KSTC 150930Z AUTO 25006KT 10SM CLR 12/11 A2956 1360 89 1400 250/06 RMK AO2
14926KSTC STC20000615033509906/15/00 03:35:31  5-MIN KSTC 150935Z AUTO 25006KT 10SM CLR 12/11 A2956 1370 89 1400 240/06 RMK AO2
14926KSTC STC20000615034009906/15/00 03:40:31  5-MIN KSTC 150940Z AUTO 26006KT 10SM CLR 13/11 A2956 1370 86 1500 250/06 RMK AO2
14926KSTC STC20000615034509906/15/00 03:45:31  5-MIN KSTC 150945Z AUTO 25007KT 10SM CLR 13/11 A2956 1360 86 1500 250/07 RMK AO2
14926KSTC STC20000615035011606/15/00 03:50:31  5-MIN KSTC 150950Z AUTO 25006KT 10SM CLR 13/11 A2956 1360 86 1500 240/06 RMK AO2 SLP018 T01280106
14926KSTC STC20000615035509906/15/00 03:55:31  5-MIN KSTC 150955Z AUTO 25006KT 10SM CLR 12/11 A2956 1360 89 1400 240/06 RMK AO2
14926KSTC STC20000615040009906/15/00 04:00:31  5-MIN KSTC 151000Z AUTO 25006KT 10SM CLR 12/11 A2956 1360 89 1400 240/06 RMK AO2
14926KSTC STC20000615040509906/15/00 04:05:31  5-MIN KSTC 151005Z AUTO 24006KT 10SM CLR 12/11 A2956 1360 89 1400 240/06 RMK AO2
14926KSTC STC20000615041009906/15/00 04:10:31  5-MIN KSTC 151010Z AUTO 24006KT 10SM CLR 12/11 A2956 1360 89 1400 240/06 RMK AO2
14926KSTC STC20000615041510206/15/00 04:15:31  5-MIN KSTC 151015Z AUTO 24005KT 10SM FEW095 12/11 A2957 1360 89 1400 240/05 RMK AO2
14926KSTC STC20000615042010206/15/00 04:20:31  5-MIN KSTC 151020Z AUTO 24004KT 10SM SCT100 12/11 A2957 1360 89 1400 240/04 RMK AO2
14926KSTC STC20000615042510206/15/00 04:25:31  5-MIN KSTC 151025Z AUTO 24005KT 10SM BKN100 12/11 A2957 1350 89 1400 240/05 RMK AO2
14926KSTC STC20000615043010206/15/00 04:30:31  5-MIN KSTC 151030Z AUTO 24005KT 10SM BKN100 12/11 A2957 1360 89 1400 240/05 RMK AO2
14926KSTC STC20000615043510206/15/00 04:35:31  5-MIN KSTC 151035Z AUTO 23004KT 10SM BKN095 12/11 A2957 1360 89 1400 230/04 RMK AO2
14926KSTC STC20000615044010206/15/00 04:40:31  5-MIN KSTC 151040Z AUTO 24004KT 10SM OVC095 12/11 A2957 1350 89 1400 230/04 RMK AO2
14926KSTC STC20000615044510206/15/00 04:45:31  5-MIN KSTC 151045Z AUTO 24004KT 10SM OVC090 12/11 A2957 1350 93 1400 230/04 RMK AO2
14926KSTC STC20000615045011906/15/00 04:50:31  5-MIN KSTC 151050Z AUTO 23004KT 10SM OVC085 12/11 A2957 1350 89 1400 230/04 RMK AO2 SLP022 T01220106
14926KSTC STC20000615045510906/15/00 04:55:31  5-MIN KSTC 151055Z AUTO 24004KT 10SM BKN080 OVC100 12/11 A2958 1350 93 1400 230/04 RMK AO2
14926KSTC STC20000615050010906/15/00 05:00:31  5-MIN KSTC 151100Z AUTO 24004KT 10SM BKN080 OVC100 12/11 A2958 1340 89 1400 230/04 RMK AO2
14926KSTC STC20000615050512506/15/00 05:05:31  5-MIN KSTC 151105Z AUTO 24004KT 10SM -RA BKN075 OVC095 12/11 A2958 1340 93 1400 240/04 RMK AO2 RAB05 P0000
14926KSTC STC20000615051012506/15/00 05:10:31  5-MIN KSTC 151110Z AUTO 24005KT 10SM -RA SCT070 OVC090 12/11 A2958 1340 93 1400 240/05 RMK AO2 RAB05 P0000
14926KSTC STC20000615051512406/15/00 05:15:31  5-MIN KSTC 151115Z AUTO 24004KT 10SM BKN070 OVC090 12/11 A2958 1340 93 1400 240/04 RMK AO2 RAB05E14 P0000
14926KSTC STC20000615052012406/15/00 05:20:31  5-MIN KSTC 151120Z AUTO 24004KT 10SM BKN070 OVC090 13/11 A2958 1340 89 1400 240/04 RMK AO2 RAB05E14 P0000
14926KSTC STC20000615052512406/15/00 05:25:31  5-MIN KSTC 151125Z AUTO 25004KT 10SM SCT070 OVC090 12/11 A2958 1340 93 1400 250/04 RMK AO2 RAB05E14 P0000
14926KSTC STC20000615053012506/15/00 05:30:31  5-MIN KSTC 151130Z AUTO 26003KT 10SM -RA SCT065 OVC085 13/11 A2958 1340 89 1400 250/03 RMK AO2 RAB05 P0000
14926KSTC STC20000615053512506/15/00 05:35:31  5-MIN KSTC 151135Z AUTO 25003KT 10SM -RA SCT065 OVC085 13/11 A2958 1340 89 1400 250/03 RMK AO2 RAB05 P0000
14926KSTC STC20000615054012406/15/00 05:40:31  5-MIN KSTC 151140Z AUTO 25003KT 10SM BKN065 OVC085 13/11 A2958 1340 89 1400 240/03 RMK AO2 RAB05E37 P0000
14926KSTC STC20000615054512406/15/00 05:45:31  5-MIN KSTC 151145Z AUTO 00000KT 10SM BKN070 OVC085 13/11 A2958 1340 89 1400 000/00 RMK AO2 RAB05E37 P0000
14926KSTC STC20000615055017906/15/00 05:50:31  5-MIN KSTC 151150Z AUTO 24003KT 10SM -RA FEW028 BKN070 OVC085 13/11 A2958 1340 89 1400 240/03 RMK AO2 RAB05 SLP025 P0000 60000 70004 T01280111 10139 20117 56003
14926KSTC STC20000615055512606/15/00 05:55:31  5-MIN KSTC 151155Z AUTO 25003KT 10SM -RA FEW028 BKN065 OVC085 13/11 A2958 1340 89 1400 240/03 RMK AO2 P0000
14926KSTC STC20000615060012606/15/00 06:00:31  5-MIN KSTC 151200Z AUTO 23004KT 10SM -RA FEW039 BKN065 OVC085 13/11 A2958 1340 89 1400 230/04 RMK AO2 P0000
14926KSTC STC20000615060512606/15/00 06:05:31  5-MIN KSTC 151205Z AUTO 24005KT 10SM -RA FEW041 SCT060 OVC080 13/11 A2958 1340 89 1400 240/05 RMK AO2 P0000
14926KSTC STC20000615061012806/15/00 06:10:31  5-MIN KSTC 151210Z AUTO 24005KT 10SM FEW036 SCT060 OVC080 13/11 A2958 1340 89 1400 240/05 RMK AO2 RAE07 P0000
14926KSTC STC20000615061512806/15/00 06:15:31  5-MIN KSTC 151215Z AUTO 23004KT 10SM FEW036 BKN060 OVC080 13/11 A2958 1340 89 1400 230/04 RMK AO2 RAE07 P0000
14926KSTC STC20000615062012806/15/00 06:20:31  5-MIN KSTC 151220Z AUTO 23004KT 10SM FEW043 BKN060 OVC080 13/11 A2958 1340 89 1400 230/04 RMK AO2 RAE07 P0000
14926KSTC STC20000615062512106/15/00 06:25:31  5-MIN KSTC 151225Z AUTO 23003KT 10SM BKN060 OVC080 13/11 A2958 1350 89 1400 230/03 RMK AO2 RAE07 P0000
14926KSTC STC20000615063012106/15/00 06:30:31  5-MIN KSTC 151230Z AUTO 25004KT 10SM BKN065 OVC080 13/11 A2958 1350 86 1500 250/04 RMK AO2 RAE07 P0000
14926KSTC STC20000615063511406/15/00 06:35:31  5-MIN KSTC 151235Z AUTO 24004KT 10SM OVC065 13/11 A2957 1350 86 1500 240/04 RMK AO2 RAE07 P0000
14926KSTC STC20000615064011406/15/00 06:40:31  5-MIN KSTC 151240Z AUTO 23004KT 10SM OVC065 13/11 A2957 1350 86 1500 230/04 RMK AO2 RAE07 P0000
14926KSTC STC20000615064511406/15/00 06:45:31  5-MIN KSTC 151245Z AUTO 23003KT 10SM OVC070 13/11 A2957 1350 86 1500 220/03 RMK AO2 RAE07 P0000
14926KSTC STC20000615065013106/15/00 06:50:31  5-MIN KSTC 151250Z AUTO 00000KT 10SM OVC070 13/11 A2956 1360 86 1500 000/00 RMK AO2 RAE07 SLP019 P0000 T01330111
14926KSTC STC20000615065510206/15/00 06:55:31  5-MIN KSTC 151255Z AUTO 00000KT 10SM OVC065 13/11 A2956 1360 86 1500 000/00 RMK AO2
14926KSTC STC20000615070010206/15/00 07:00:31  5-MIN KSTC 151300Z AUTO 17003KT 10SM OVC065 13/11 A2956 1360 86 1500 170/03 RMK AO2
14926KSTC STC20000615070510206/15/00 07:05:31  5-MIN KSTC 151305Z AUTO 14003KT 10SM OVC065 13/12 A2956 1360 89 1500 140/03 RMK AO2
14926KSTC STC20000615071010206/15/00 07:10:31  5-MIN KSTC 151310Z AUTO 14004KT 10SM OVC065 13/12 A2956 1360 89 1500 140/04 RMK AO2
14926KSTC STC20000615071510206/15/00 07:15:31  5-MIN KSTC 151315Z AUTO 17005KT 10SM OVC065 13/12 A2956 1360 89 1500 160/05 RMK AO2
14926KSTC STC20000615072010206/15/00 07:20:31  5-MIN KSTC 151320Z AUTO 17005KT 10SM OVC065 13/12 A2956 1360 89 1500 170/05 RMK AO2
14926KSTC STC20000615072510206/15/00 07:25:31  5-MIN KSTC 151325Z AUTO 17004KT 10SM OVC065 13/12 A2956 1360 93 1500 170/04 RMK AO2
14926KSTC STC20000615073011806/15/00 07:30:31  5-MIN KSTC 151330Z AUTO 15003KT 10SM -RA OVC065 13/12 A2956 1360 89 1500 150/03 RMK AO2 RAB28 P0000
14926KSTC STC20000615073511806/15/00 07:35:31  5-MIN KSTC 151335Z AUTO 16003KT 10SM -RA OVC060 13/12 A2956 1360 89 1500 160/03 RMK AO2 RAB28 P0000
14926KSTC STC20000615074011706/15/00 07:40:31  5-MIN KSTC 151340Z AUTO 15003KT 10SM OVC060 13/12 A2955 1370 89 1500 150/03 RMK AO2 RAB28E37 P0000
14926KSTC STC20000615074511706/15/00 07:45:31  5-MIN KSTC 151345Z AUTO 17003KT 10SM OVC060 13/12 A2956 1360 89 1500 170/03 RMK AO2 RAB28E37 P0000
14926KSTC STC20000615075013406/15/00 07:50:31  5-MIN KSTC 151350Z AUTO 16004KT 10SM OVC060 14/12 A2956 1360 90 1600 160/04 RMK AO2 RAB28E37 SLP017 P0000 T01390122
14926KSTC STC20000615075511206/15/00 07:55:31  5-MIN KSTC 151355Z AUTO 17004KT 10SM -RA OVC060 14/12 A2956 1360 90 1600 160/04 RMK AO2 P0000
14926KSTC STC20000615080011806/15/00 08:00:31  5-MIN KSTC 151400Z AUTO 17005KT 8SM -RA FEW048 OVC060 13/12 A2956 1360 93 1500 170/05 RMK AO2 P0001
14926KSTC STC20000615080511806/15/00 08:05:31  5-MIN KSTC 151405Z AUTO VRB03KT 7SM -RA FEW044 OVC060 13/12 A2956 1360 93 1500 VRB/03 RMK AO2 P0001
14926KSTC STC20000615081011106/15/00 08:10:31  5-MIN KSTC 151410Z AUTO 17004KT 8SM -RA OVC055 13/12 A2956 1360 93 1500 170/04 RMK AO2 P0001
14926KSTC STC20000615081511206/15/00 08:15:31  5-MIN KSTC 151415Z AUTO 18004KT 10SM -RA OVC055 13/12 A2956 1360 93 1500 180/04 RMK AO2 P0001
14926KSTC STC20000615082012106/15/00 08:20:31  5-MIN KSTC 151420Z AUTO 16004KT 10SM FEW041 OVC055 14/12 A2956 1360 90 1600 160/04 RMK AO2 RAE17 P0001
14926KSTC STC20000615082511806/15/00 08:25:31  5-MIN KSTC 151425Z AUTO 15004KT 8SM -RA FEW026 OVC055 14/12 A2956 1360 90 1600 150/04 RMK AO2 P0002
14926KSTC STC20000615083012506/15/00 08:30:31  5-MIN KSTC 151430Z AUTO 15004KT 8SM -RA FEW022 BKN055 OVC070 14/12 A2955 1370 90 1600 140/04 RMK AO2 P0002
14926KSTC STC20000615083512606/15/00 08:35:31  5-MIN KSTC 151435Z AUTO 13003KT 10SM -RA FEW034 BKN055 OVC085 14/12 A2955 1370 90 1600 120/03 RMK AO2 P0002
14926KSTC STC20000615084012806/15/00 08:40:31  5-MIN KSTC 151440Z AUTO 13004KT 10SM FEW036 BKN070 OVC090 14/12 A2955 1370 90 1600 130/04 RMK AO2 RAE38 P0002
14926KSTC STC20000615084512806/15/00 08:45:31  5-MIN KSTC 151445Z AUTO 14004KT 10SM FEW040 BKN075 OVC090 14/13 A2955 1370 90 1700 140/04 RMK AO2 RAE38 P0002
14926KSTC STC20000615085015706/15/00 08:50:31  5-MIN KSTC 151450Z AUTO 13005KT 10SM FEW055 BKN080 OVC090 14/13 A2955 1380 90 1700 120/05 RMK AO2 RAE38 SLP013 P0002 60002 T01440128 53007
14926KSTC STC20000615085510206/15/00 08:55:31  5-MIN KSTC 151455Z AUTO 14006KT 10SM OVC080 14/13 A2954 1380 90 1700 140/06 RMK AO2
14926KSTC STC20000615090010206/15/00 09:00:31  5-MIN KSTC 151500Z AUTO 15006KT 10SM OVC085 14/12 A2954 1380 86 1700 150/06 RMK AO2
14926KSTC STC20000615090510206/15/00 09:05:31  5-MIN KSTC 151505Z AUTO 14006KT 10SM OVC080 15/13 A2954 1380 86 1700 140/06 RMK AO2
14926KSTC STC20000615091010206/15/00 09:10:31  5-MIN KSTC 151510Z AUTO 15006KT 10SM OVC080 15/12 A2954 1380 83 1700 150/06 RMK AO2
14926KSTC STC20000615091510206/15/00 09:15:31  5-MIN KSTC 151515Z AUTO 14006KT 10SM OVC085 15/12 A2953 1380 83 1700 140/06 RMK AO2
14926KSTC STC20000615092010206/15/00 09:20:31  5-MIN KSTC 151520Z AUTO 16005KT 10SM BKN085 16/12 A2953 1390 80 1800 150/05 RMK AO2
14926KSTC STC20000615092510206/15/00 09:25:31  5-MIN KSTC 151525Z AUTO 12004KT 10SM BKN085 16/12 A2953 1390 80 1800 120/04 RMK AO2
14926KSTC STC20000615093010206/15/00 09:30:31  5-MIN KSTC 151530Z AUTO 13005KT 10SM BKN080 15/12 A2953 1390 83 1800 120/05 RMK AO2
14926KSTC STC20000615093510206/15/00 09:35:31  5-MIN KSTC 151535Z AUTO 13004KT 10SM BKN080 15/12 A2953 1390 83 1800 120/04 RMK AO2
14926KSTC STC20000615094010206/15/00 09:40:31  5-MIN KSTC 151540Z AUTO 12003KT 10SM BKN085 15/12 A2953 1390 83 1800 120/03 RMK AO2
14926KSTC STC20000615094510206/15/00 09:45:31  5-MIN KSTC 151545Z AUTO 11004KT 10SM BKN085 15/13 A2953 1390 86 1800 100/04 RMK AO2
14926KSTC STC20000615095011906/15/00 09:50:31  5-MIN KSTC 151550Z AUTO 10005KT 10SM BKN085 15/13 A2953 1390 86 1800 100/05 RMK AO2 SLP006 T01500128
14926KSTC STC20000615095510206/15/00 09:55:31  5-MIN KSTC 151555Z AUTO 11004KT 10SM OVC085 16/13 A2953 1390 83 1800 110/04 RMK AO2
14926KSTC STC20000615100010206/15/00 10:00:31  5-MIN KSTC 151600Z AUTO 13005KT 10SM BKN085 16/13 A2953 1390 83 1800 130/05 RMK AO2
14926KSTC STC20000615100510906/15/00 10:05:31  5-MIN KSTC 151605Z AUTO 11006KT 10SM FEW035 BKN085 16/12 A2952 1400 80 1800 110/06 RMK AO2
14926KSTC STC20000615101012506/15/00 10:10:31  5-MIN KSTC 151610Z AUTO 12006KT 10SM -RA FEW035 BKN085 16/13 A2952 1400 83 1800 120/06 RMK AO2 RAB06 P0000
14926KSTC STC20000615101512506/15/00 10:15:31  5-MIN KSTC 151615Z AUTO 11004KT 10SM -RA FEW035 BKN085 16/13 A2952 1400 86 1800 100/04 RMK AO2 RAB06 P0000
14926KSTC STC20000615102012506/15/00 10:20:31  5-MIN KSTC 151620Z AUTO 12005KT 10SM -RA FEW027 BKN085 16/13 A2952 1400 83 1800 120/05 RMK AO2 RAB06 P0000
14926KSTC STC20000615102512506/15/00 10:25:31  5-MIN KSTC 151625Z AUTO 11005KT 10SM -RA SCT022 BKN085 16/13 A2952 1400 83 1800 110/05 RMK AO2 RAB06 P0000
14926KSTC STC20000615103012506/15/00 10:30:31  5-MIN KSTC 151630Z AUTO 11005KT 10SM -RA SCT022 BKN085 16/13 A2952 1400 83 1800 110/05 RMK AO2 RAB06 P0001
14926KSTC STC20000615103512406/15/00 10:35:31  5-MIN KSTC 151635Z AUTO 11005KT 9SM -RA SCT020 BKN080 15/13 A2952 1400 90 1800 100/05 RMK AO2 RAB06 P0001
14926KSTC STC20000615104012506/15/00 10:40:31  5-MIN KSTC 151640Z AUTO 11005KT 10SM -RA FEW020 OVC075 15/13 A2952 1400 90 1800 110/05 RMK AO2 RAB06 P0001
14926KSTC STC20000615104512506/15/00 10:45:31  5-MIN KSTC 151645Z AUTO 10005KT 10SM -RA FEW020 OVC075 15/13 A2952 1400 90 1800 100/05 RMK AO2 RAB06 P0001
14926KSTC STC20000615105014206/15/00 10:50:31  5-MIN KSTC 151650Z AUTO 10005KT 10SM -RA FEW020 OVC075 15/13 A2951 1400 90 1800 100/05 RMK AO2 RAB06 SLP002 P0001 T01500133
14926KSTC STC20000615105512106/15/00 10:55:31  5-MIN KSTC 151655Z AUTO 09005KT 10SM FEW031 OVC075 15/13 A2951 1410 90 1800 090/05 RMK AO2 RAE55 P0000
14926KSTC STC20000615110011206/15/00 11:00:31  5-MIN KSTC 151700Z AUTO 09006KT 10SM -RA OVC070 16/14 A2951 1410 90 1800 090/06 RMK AO2 P0000
14926KSTC STC20000615110511906/15/00 11:05:31  5-MIN KSTC 151705Z AUTO 09006KT 10SM -RA FEW036 OVC075 16/13 A2951 1410 86 1800 090/06 RMK AO2 P0000
14926KSTC STC20000615111011906/15/00 11:10:31  5-MIN KSTC 151710Z AUTO 10005KT 10SM -RA FEW047 OVC075 16/13 A2951 1410 86 1800 100/05 RMK AO2 P0000
14926KSTC STC20000615111511906/15/00 11:15:31  5-MIN KSTC 151715Z AUTO 10007KT 10SM -RA SCT070 OVC085 16/14 A2951 1410 90 1800 100/07 RMK AO2 P0000
14926KSTC STC20000615112012806/15/00 11:20:31  5-MIN KSTC 151720Z AUTO 11006KT 10SM FEW050 BKN070 OVC085 16/14 A2951 1410 90 1800 110/06 RMK AO2 RAE17 P0000
14926KSTC STC20000615112512806/15/00 11:25:31  5-MIN KSTC 151725Z AUTO 12006KT 10SM FEW043 BKN075 OVC085 16/13 A2950 1420 86 1900 120/06 RMK AO2 RAE17 P0000
14926KSTC STC20000615113011406/15/00 11:30:31  5-MIN KSTC 151730Z AUTO 12009KT 10SM OVC080 16/13 A2950 1420 86 1900 120/09 RMK AO2 RAE17 P0001
14926KSTC STC20000615113511406/15/00 11:35:31  5-MIN KSTC 151735Z AUTO 13006KT 10SM OVC075 16/13 A2951 1410 86 1800 130/06 RMK AO2 RAE17 P0001
14926KSTC STC20000615114011406/15/00 11:40:31  5-MIN KSTC 151740Z AUTO 12007KT 10SM OVC075 16/13 A2950 1410 86 1800 120/07 RMK AO2 RAE17 P0001
14926KSTC STC20000615114512106/15/00 11:45:31  5-MIN KSTC 151745Z AUTO 13007KT 10SM -RA OVC075 16/13 A2950 1420 86 1800 120/07 RMK AO2 RAE17B44 P0001
14926KSTC STC20000615115016206/15/00 11:50:31  5-MIN KSTC 151750Z AUTO 12007KT 10SM -RA OVC070 16/13 A2950 1420 86 1900 120/07 RMK AO2 RAE17B44 SLP996 P0001 60004 T01560133 10161 20128 56013
14926KSTC STC20000615115511906/15/00 11:55:31  5-MIN KSTC 151755Z AUTO 13009KT 10SM -RA BKN070 OVC085 16/13 A2950 1420 86 1900 130/09 RMK AO2 P0000
14926KSTC STC20000615120011906/15/00 12:00:31  5-MIN KSTC 151800Z AUTO 12007KT 10SM -RA BKN070 BKN085 16/13 A2949 1420 86 1900 120/07 RMK AO2 P0000
14926KSTC STC20000615120511906/15/00 12:05:31  5-MIN KSTC 151805Z AUTO 11008KT 10SM -RA SCT070 BKN090 16/14 A2949 1430 90 1900 110/08 RMK AO2 P0000
14926KSTC STC20000615121012506/15/00 12:10:31  5-MIN KSTC 151810Z AUTO 12008KT 9SM -RA SCT024 BKN070 BKN090 16/13 A2948 1430 86 1900 120/08 RMK AO2 P0000
14926KSTC STC20000615121511806/15/00 12:15:31  5-MIN KSTC 151815Z AUTO 12008KT 8SM -RA BKN018 BKN075 16/14 A2948 1440 90 1900 110/08 RMK AO2 P0001
14926KSTC STC20000615122012506/15/00 12:20:31  5-MIN KSTC 151820Z AUTO 12006KT 8SM -RA BKN018 BKN085 16/14 A2947 1440 90 1900 110/06 RMK AO2 PRESFR P0001
14926KSTC STC20000615122511206/15/00 12:25:31  5-MIN KSTC 151825Z AUTO 12009KT 10SM -RA BKN018 16/14 A2947 1450 90 1900 120/09 RMK AO2 P0001
14926KSTC STC20000615123011206/15/00 12:30:31  5-MIN KSTC 151830Z AUTO 13008KT 10SM -RA SCT018 16/14 A2947 1450 90 1900 130/08 RMK AO2 P0001
14926KSTC STC20000615123511206/15/00 12:35:31  5-MIN KSTC 151835Z AUTO 14011KT 10SM -RA SCT018 16/14 A2947 1440 86 1900 130/11 RMK AO2 P0001
14926KSTC STC20000615124011206/15/00 12:40:31  5-MIN KSTC 151840Z AUTO 14011KT 10SM -RA SCT016 16/14 A2947 1450 86 2000 130/11 RMK AO2 P0001
14926KSTC STC20000615124511406/15/00 12:45:31  5-MIN KSTC 151845Z AUTO 13010KT 10SM FEW032 16/13 A2947 1450 83 2000 130/10 RMK AO2 RAE44 P0001
14926KSTC STC20000615125013806/15/00 12:50:31  5-MIN KSTC 151850Z AUTO 13008KT 10SM FEW060 SCT075 17/14 A2946 1450 83 2000 130/08 RMK AO2 RAE44 SLP985 P0001 T01670139
14926KSTC STC20000615125510906/15/00 12:55:31  5-MIN KSTC 151855Z AUTO 13008KT 10SM FEW060 BKN075 17/13 A2946 1450 80 2000 130/08 RMK AO2
14926KSTC STC20000615130010206/15/00 13:00:31  5-MIN KSTC 151900Z AUTO 13009KT 10SM BKN075 17/13 A2946 1460 80 2000 130/09 RMK AO2
14926KSTC STC20000615130510206/15/00 13:05:31  5-MIN KSTC 151905Z AUTO 13009KT 10SM BKN075 17/13 A2946 1460 80 2000 130/09 RMK AO2
14926KSTC STC20000615131010206/15/00 13:10:31  5-MIN KSTC 151910Z AUTO 13008KT 10SM OVC075 17/13 A2945 1460 80 2000 130/08 RMK AO2
14926KSTC STC20000615131510206/15/00 13:15:31  5-MIN KSTC 151915Z AUTO 12008KT 10SM OVC075 17/14 A2945 1460 83 2000 120/08 RMK AO2
14926KSTC STC20000615132012506/15/00 13:20:31  5-MIN KSTC 151920Z AUTO 13009KT 10SM -RA FEW060 BKN075 17/14 A2945 1460 83 2000 120/09 RMK AO2 RAB18 P0000
14926KSTC STC20000615132512506/15/00 13:25:31  5-MIN KSTC 151925Z AUTO 14009KT 10SM -RA SCT060 BKN075 17/14 A2945 1460 83 2000 130/09 RMK AO2 RAB18 P0000
14926KSTC STC20000615133012506/15/00 13:30:31  5-MIN KSTC 151930Z AUTO 13009KT 10SM -RA BKN060 OVC075 17/14 A2945 1470 86 2000 130/09 RMK AO2 RAB18 P0001
14926KSTC STC20000615133512506/15/00 13:35:31  5-MIN KSTC 151935Z AUTO 14008KT 10SM -RA BKN060 OVC075 17/14 A2944 1470 86 2000 130/08 RMK AO2 RAB18 P0001
14926KSTC STC20000615134012506/15/00 13:40:31  5-MIN KSTC 151940Z AUTO 14010KT 10SM -RA BKN060 OVC075 17/14 A2944 1470 86 2000 140/10 RMK AO2 RAB18 P0001
14926KSTC STC20000615134511806/15/00 13:45:31  5-MIN KSTC 151945Z AUTO 14010KT 10SM -RA OVC060 17/14 A2944 1470 86 2100 140/10 RMK AO2 RAB18 P0001
14926KSTC STC20000615135013506/15/00 13:50:31  5-MIN KSTC 151950Z AUTO 14010KT 10SM -RA OVC055 17/14 A2944 1470 86 2100 140/10 RMK AO2 RAB18 SLP977 P0001 T01670144
14926KSTC STC20000615135511206/15/00 13:55:31  5-MIN KSTC 151955Z AUTO 14008KT 10SM -RA OVC055 17/14 A2944 1480 86 2100 130/08 RMK AO2 P0000
14926KSTC STC20000615140011806/15/00 14:00:31  5-MIN KSTC 152000Z AUTO 14007KT 9SM -RA BKN055 OVC080 17/14 A2944 1480 86 2100 140/07 RMK AO2 P0001
14926KSTC STC20000615140511806/15/00 14:05:31  5-MIN KSTC 152005Z AUTO 15010KT 9SM -RA BKN050 OVC080 17/14 A2944 1480 86 2100 140/10 RMK AO2 P0001
14926KSTC STC20000615141011806/15/00 14:10:31  5-MIN KSTC 152010Z AUTO 15007KT 9SM -RA FEW028 OVC050 17/14 A2944 1480 86 2100 150/07 RMK AO2 P0001
14926KSTC STC20000615141512506/15/00 14:15:31  5-MIN KSTC 152015Z AUTO 15008KT 9SM -RA FEW023 BKN047 OVC055 17/14 A2943 1480 86 2100 150/08 RMK AO2 P0001
14926KSTC STC20000615142012506/15/00 14:20:31  5-MIN KSTC 152020Z AUTO 15007KT 7SM -RA SCT020 BKN028 OVC055 17/15 A2943 1480 90 2100 150/07 RMK AO2 P0001
14926KSTC STC20000615142512806/15/00 14:25:31  5-MIN KSTC 152025Z AUTO 15008KT 6SM -RA BR SCT020 BKN028 OVC055 17/15 A2943 1480 90 2100 150/08 RMK AO2 P0001
14926KSTC STC20000615143012806/15/00 14:30:31  5-MIN KSTC 152030Z AUTO 17007KT 6SM -RA BR FEW014 BKN027 OVC050 17/15 A2943 1480 90 2100 170/07 RMK AO2 P0001
14926KSTC STC20000615143512806/15/00 14:35:31  5-MIN KSTC 152035Z AUTO 17006KT 6SM -RA BR SCT014 BKN022 OVC039 17/15 A2942 1490 90 2100 160/06 RMK AO2 P0002
14926KSTC STC20000615144012506/15/00 14:40:31  5-MIN KSTC 152040Z AUTO 17009KT 7SM -RA SCT014 BKN020 OVC030 17/15 A2943 1490 90 2100 160/09 RMK AO2 P0002
14926KSTC STC20000615144512506/15/00 14:45:31  5-MIN KSTC 152045Z AUTO 18008KT 7SM -RA SCT014 BKN022 OVC039 17/15 A2943 1490 90 2100 170/08 RMK AO2 P0002
14926KSTC STC20000615145016006/15/00 14:50:31  5-MIN KSTC 152050Z AUTO 20012G16KT 8SM -RA FEW011 BKN032 OVC055 17/16 A2943 1480 93 2100 190/12G16 RMK AO2 SLP973 P0002 60004 T01670156 56016
14926KSTC STC20000615145513106/15/00 14:55:31  5-MIN KSTC 152055Z AUTO 19010G16KT 9SM -RA SCT014 BKN034 OVC055 17/15 A2942 1490 90 2100 190/10G16 RMK AO2 P0000
14926KSTC STC20000615150012506/15/00 15:00:31  5-MIN KSTC 152100Z AUTO 19010KT 9SM -RA SCT014 BKN039 OVC050 17/15 A2942 1490 90 2100 190/10 RMK AO2 P0001
14926KSTC STC20000615150512606/15/00 15:05:31  5-MIN KSTC 152105Z AUTO 19012KT 10SM -RA FEW014 BKN050 OVC060 17/15 A2942 1490 90 2100 190/12 RMK AO2 P0001
14926KSTC STC20000615151012506/15/00 15:10:31  5-MIN KSTC 152110Z AUTO 20012KT 9SM -RA FEW012 BKN050 OVC060 17/15 A2942 1490 90 2100 190/12 RMK AO2 P0001
14926KSTC STC20000615151512506/15/00 15:15:31  5-MIN KSTC 152115Z AUTO 20012KT 9SM -RA FEW012 SCT042 OVC050 17/15 A2942 1490 90 2100 190/12 RMK AO2 P0001
14926KSTC STC20000615152011906/15/00 15:20:31  5-MIN KSTC 152120Z AUTO 20013KT 10SM -RA FEW012 OVC048 17/15 A2942 1490 90 2100 190/13 RMK AO2 P0001
14926KSTC STC20000615152512606/15/00 15:25:31  5-MIN KSTC 152125Z AUTO 20012KT 10SM -RA SCT012 SCT038 OVC048 17/15 A2942 1490 90 2100 200/12 RMK AO2 P0001
14926KSTC STC20000615153012506/15/00 15:30:31  5-MIN KSTC 152130Z AUTO 20011KT 9SM -RA SCT012 BKN036 OVC048 17/15 A2942 1490 90 2100 190/11 RMK AO2 P0001
14926KSTC STC20000615153512506/15/00 15:35:31  5-MIN KSTC 152135Z AUTO 20013KT 8SM -RA SCT010 BKN036 OVC048 17/15 A2941 1500 90 2100 200/13 RMK AO2 P0002
14926KSTC STC20000615154012506/15/00 15:40:31  5-MIN KSTC 152140Z AUTO 19012KT 9SM -RA BKN010 BKN034 OVC048 17/15 A2941 1510 90 2100 190/12 RMK AO2 P0002
14926KSTC STC20000615154512506/15/00 15:45:31  5-MIN KSTC 152145Z AUTO 19013KT 8SM -RA SCT008 BKN012 OVC048 17/15 A2940 1510 90 2100 180/13 RMK AO2 P0002
14926KSTC STC20000615155014206/15/00 15:50:31  5-MIN KSTC 152150Z AUTO 19011KT 8SM -RA BKN012 BKN026 OVC036 16/15 A2940 1510 93 2000 190/11 RMK AO2 SLP962 P0002 T01610150
14926KSTC STC20000615155512506/15/00 15:55:31  5-MIN KSTC 152155Z AUTO 17010KT 9SM -RA SCT008 BKN012 OVC026 16/15 A2939 1520 93 2000 170/10 RMK AO2 P0000
14926KSTC STC20000615160012306/15/00 16:00:31  5-MIN KSTC 152200Z AUTO 18012KT 10SM OVC012 16/15 A2939 1530 93 2000 180/12 RMK AO2 RAE2159 PRESFR P0000
14926KSTC STC20000615160512806/15/00 16:05:31  5-MIN KSTC 152205Z AUTO 18008KT 10SM OVC009 16/15 A2939 1520 93 2000 180/08 RMK AO2 RAE2159 CIG 006V016 P0000
14926KSTC STC20000615161012806/15/00 16:10:31  5-MIN KSTC 152210Z AUTO 19011KT 10SM OVC009 16/15 A2939 1520 93 2000 180/11 RMK AO2 RAE2159 CIG 006V016 P0000
14926KSTC STC20000615161513506/15/00 16:15:31  5-MIN KSTC 152215Z AUTO 19010KT 10SM BKN009 OVC012 16/15 A2939 1520 93 2000 190/10 RMK AO2 RAE2159 CIG 006V011 P0000
14926KSTC STC20000615162013506/15/00 16:20:31  5-MIN KSTC 152220Z AUTO 20012KT 10SM -RA OVC009 16/15 A2939 1520 93 2000 190/12 RMK AO2 RAE2159B16 CIG 006V014 P0000
14926KSTC STC20000615162514106/15/00 16:25:31  5-MIN KSTC 152225Z AUTO 20011KT 10SM BKN009 OVC012 16/15 A2940 1510 93 2000 190/11 RMK AO2 RAE2159B16E25 CIG 007V010 P0000
14926KSTC STC20000615163014106/15/00 16:30:31  5-MIN KSTC 152230Z AUTO 20011KT 10SM BKN009 OVC012 16/15 A2940 1520 93 2000 190/11 RMK AO2 RAE2159B16E25 CIG 007V010 P0000
14926KSTC STC20000615163514106/15/00 16:35:31  5-MIN KSTC 152235Z AUTO 20013KT 10SM BKN009 OVC012 16/15 A2939 1520 93 2000 200/13 RMK AO2 RAE2159B16E25 CIG 007V010 P0000
14926KSTC STC20000615164013506/15/00 16:40:31  5-MIN KSTC 152240Z AUTO 20013KT 10SM -RA OVC009 16/15 A2939 1520 93 2000 200/13 RMK AO2 RAE2159B16 CIG 007V012 P0000
14926KSTC STC20000615164513406/15/00 16:45:31  5-MIN KSTC 152245Z AUTO 20012KT 9SM -RA OVC009 16/15 A2939 1520 93 2000 200/12 RMK AO2 RAE2159B16 CIG 007V014 P0000
14926KSTC STC20000615165015806/15/00 16:50:31  5-MIN KSTC 152250Z AUTO 20011KT 8SM -RA BKN009 OVC013 16/15 A2939 1520 93 2000 200/11 RMK AO2 RAE2159B16 CIG 007V010 SLP960 P0001 T01610150
14926KSTC STC20000615165513006/15/00 16:55:31  5-MIN KSTC 152255Z AUTO 21012KT 8SM -RA BKN009 OVC015 16/15 A2939 1520 93 2000 200/12 RMK AO2 CIG 007V012 P0000
14926KSTC STC20000615170013006/15/00 17:00:31  5-MIN KSTC 152300Z AUTO 20014KT 8SM -RA BKN009 OVC018 16/15 A2939 1520 93 2000 200/14 RMK AO2 CIG 007V014 P0000
14926KSTC STC20000615170511806/15/00 17:05:31  5-MIN KSTC 152305Z AUTO 21013KT 9SM -RA BKN012 OVC018 16/15 A2939 1520 93 2000 200/13 RMK AO2 P0000
14926KSTC STC20000615171012106/15/00 17:10:31  5-MIN KSTC 152310Z AUTO 20012KT 10SM BKN012 OVC019 16/15 A2939 1520 93 2000 200/12 RMK AO2 RAE10 P0000
14926KSTC STC20000615171512106/15/00 17:15:31  5-MIN KSTC 152315Z AUTO 20013KT 10SM BKN012 OVC019 16/15 A2939 1520 93 2000 200/13 RMK AO2 RAE10 P0000
14926KSTC STC20000615172013006/15/00 17:20:31  5-MIN KSTC 152320Z AUTO 20011KT 9SM -RA BKN010 OVC016 16/15 A2939 1520 93 2000 200/11 RMK AO2 CIG 008V013 P0001
14926KSTC STC20000615172512606/15/00 17:25:31  5-MIN KSTC 152325Z AUTO 20013KT 10SM -RA SCT010 BKN016 OVC021 16/15 A2939 1520 93 2000 200/13 RMK AO2 P0001
14926KSTC STC20000615173011906/15/00 17:30:31  5-MIN KSTC 152330Z AUTO 20012KT 10SM -RA BKN012 OVC020 16/15 A2939 1520 93 2000 200/12 RMK AO2 P0001
14926KSTC STC20000615173511906/15/00 17:35:31  5-MIN KSTC 152335Z AUTO 21013KT 10SM -RA BKN014 OVC020 16/15 A2939 1520 93 2000 210/13 RMK AO2 P0001
14926KSTC STC20000615174012606/15/00 17:40:31  5-MIN KSTC 152340Z AUTO 20013KT 10SM -RA SCT012 BKN016 OVC075 16/15 A2939 1520 93 2000 200/13 RMK AO2 P0001
14926KSTC STC20000615174512806/15/00 17:45:31  5-MIN KSTC 152345Z AUTO 21012KT 10SM BKN012 BKN018 OVC075 16/15 A2939 1520 93 2000 200/12 RMK AO2 RAE44 P0001
14926KSTC STC20000615175016706/15/00 17:50:31  5-MIN KSTC 152350Z AUTO 21013KT 10SM -RA SCT010 BKN014 OVC075 16/14 A2938 1530 90 2000 200/13 RMK AO2 SLP958 P0001 60008 T01610144 10167 20156 56023
14926KSTC STC20000615175512606/15/00 17:55:31  5-MIN KSTC 152355Z AUTO 21012KT 10SM -RA SCT012 BKN016 OVC080 16/14 A2939 1520 90 2000 210/12 RMK AO2 P0000
14926KSTC STC20000615180013006/15/00 18:00:31  5-MIN KSTC 160000Z AUTO 21012KT 10SM BKN012 BKN016 OVC080 16/14 A2938 1530 90 2000 210/12 RMK AO2 RAE2358 P0000
14926KSTC STC20000615180513006/15/00 18:05:31  5-MIN KSTC 160005Z AUTO 21013KT 10SM SCT010 BKN016 OVC080 16/14 A2938 1530 90 2000 200/13 RMK AO2 RAE2358 P0000
14926KSTC STC20000615181012306/15/00 18:10:31  5-MIN KSTC 160010Z AUTO 21010KT 10SM FEW010 OVC014 16/14 A2938 1530 90 2100 210/10 RMK AO2 RAE2358 P0000
14926KSTC STC20000615181512306/15/00 18:15:31  5-MIN KSTC 160015Z AUTO 21009KT 10SM BKN012 OVC017 16/14 A2937 1540 90 2100 210/09 RMK AO2 RAE2358 P0000
14926KSTC STC20000615182011606/15/00 18:20:31  5-MIN KSTC 160020Z AUTO 21008KT 10SM OVC013 16/14 A2937 1540 90 2100 200/08 RMK AO2 RAE2358 P0000
14926KSTC STC20000615182511606/15/00 18:25:31  5-MIN KSTC 160025Z AUTO 21009KT 10SM OVC015 16/14 A2938 1530 90 2100 210/09 RMK AO2 RAE2358 P0000
14926KSTC STC20000615183012306/15/00 18:30:31  5-MIN KSTC 160030Z AUTO 21010KT 10SM BKN012 OVC017 16/14 A2938 1530 90 2100 210/10 RMK AO2 RAE2358 P0000
14926KSTC STC20000615183511606/15/00 18:35:31  5-MIN KSTC 160035Z AUTO 21009KT 10SM OVC014 16/14 A2938 1530 90 2100 210/09 RMK AO2 RAE2358 P0000
14926KSTC STC20000615184011606/15/00 18:40:31  5-MIN KSTC 160040Z AUTO 22012KT 10SM OVC014 16/14 A2938 1530 90 2100 210/12 RMK AO2 RAE2358 P0000
14926KSTC STC20000615184511606/15/00 18:45:31  5-MIN KSTC 160045Z AUTO 21011KT 10SM OVC016 16/14 A2937 1540 90 2100 210/11 RMK AO2 RAE2358 P0000
14926KSTC STC20000615185014006/15/00 18:50:31  5-MIN KSTC 160050Z AUTO 21011KT 10SM BKN014 OVC020 16/14 A2937 1540 90 2100 210/11 RMK AO2 RAE2358 SLP954 P0000 T01610144
14926KSTC STC20000615185512106/15/00 18:55:31  5-MIN KSTC 160055Z AUTO 21011KT 10SM BKN016 OVC060 16/14 A2937 1540 90 2100 200/11 RMK AO2 CIG 009V024
14926KSTC STC20000615190011606/15/00 19:00:31  5-MIN KSTC 160100Z AUTO 21009KT 10SM SCT017 BKN024 OVC060 16/14 A2936 1550 90 2100 210/09 RMK AO2
14926KSTC STC20000615190512306/15/00 19:05:31  5-MIN KSTC 160105Z AUTO 19009KT 10SM BKN019 BKN024 OVC060 16/14 A2935 1560 90 2100 190/09 RMK AO2 PRESFR
14926KSTC STC20000615191011606/15/00 19:10:31  5-MIN KSTC 160110Z AUTO 19008KT 10SM BKN019 BKN024 OVC080 16/14 A2935 1550 90 2100 180/08 RMK AO2
14926KSTC STC20000615191511606/15/00 19:15:31  5-MIN KSTC 160115Z AUTO 20009KT 10SM FEW017 BKN024 OVC080 16/14 A2936 1550 90 2100 200/09 RMK AO2
14926KSTC STC20000615192011606/15/00 19:20:31  5-MIN KSTC 160120Z AUTO 19008KT 10SM SCT021 BKN026 OVC080 16/14 A2935 1550 90 2100 180/08 RMK AO2
14926KSTC STC20000615192511606/15/00 19:25:31  5-MIN KSTC 160125Z AUTO 19009KT 10SM FEW021 SCT026 OVC080 16/14 A2935 1560 90 2100 180/09 RMK AO2
14926KSTC STC20000615193010906/15/00 19:30:31  5-MIN KSTC 160130Z AUTO 19008KT 10SM FEW021 OVC085 16/14 A2936 1550 90 2100 190/08 RMK AO2
14926KSTC STC20000615193511606/15/00 19:35:31  5-MIN KSTC 160135Z AUTO 19008KT 10SM FEW021 BKN080 OVC090 16/14 A2936 1550 90 2100 190/08 RMK AO2
14926KSTC STC20000615194010906/15/00 19:40:31  5-MIN KSTC 160140Z AUTO 19008KT 10SM FEW023 OVC085 16/14 A2936 1550 90 2100 190/08 RMK AO2
14926KSTC STC20000615194510906/15/00 19:45:31  5-MIN KSTC 160145Z AUTO 20008KT 10SM FEW023 OVC080 16/14 A2936 1550 90 2100 190/08 RMK AO2
14926KSTC STC20000615195012606/15/00 19:50:31  5-MIN KSTC 160150Z AUTO 20008KT 10SM SCT023 OVC080 16/14 A2936 1550 90 2100 200/08 RMK AO2 SLP950 T01610144
14926KSTC STC20000615195510906/15/00 19:55:31  5-MIN KSTC 160155Z AUTO 20009KT 10SM SCT023 OVC080 16/14 A2936 1550 90 2100 190/09 RMK AO2
14926KSTC STC20000615200010906/15/00 20:00:31  5-MIN KSTC 160200Z AUTO 20007KT 10SM FEW023 OVC080 16/14 A2936 1550 90 2100 200/07 RMK AO2
14926KSTC STC20000615200510906/15/00 20:05:31  5-MIN KSTC 160205Z AUTO 20009KT 10SM SCT025 OVC080 16/14 A2936 1550 90 2100 190/09 RMK AO2
14926KSTC STC20000615201011606/15/00 20:10:31  5-MIN KSTC 160210Z AUTO 20007KT 10SM FEW019 BKN025 OVC080 16/14 A2936 1550 90 2100 190/07 RMK AO2
14926KSTC STC20000615201511606/15/00 20:15:31  5-MIN KSTC 160215Z AUTO 20006KT 10SM BKN022 BKN027 OVC080 16/15 A2936 1550 93 2100 200/06 RMK AO2
14926KSTC STC20000615202011606/15/00 20:20:31  5-MIN KSTC 160220Z AUTO 19006KT 10SM BKN022 BKN027 OVC080 16/15 A2936 1550 93 2100 190/06 RMK AO2
14926KSTC STC20000615202511606/15/00 20:25:31  5-MIN KSTC 160225Z AUTO 20007KT 10SM BKN022 BKN027 OVC080 16/14 A2936 1550 90 2100 190/07 RMK AO2
14926KSTC STC20000615203010906/15/00 20:30:31  5-MIN KSTC 160230Z AUTO 19005KT 10SM BKN022 OVC027 16/14 A2936 1550 90 2100 190/05 RMK AO2
14926KSTC STC20000615203510206/15/00 20:35:31  5-MIN KSTC 160235Z AUTO 19005KT 10SM OVC022 16/14 A2936 1550 90 2100 190/05 RMK AO2
14926KSTC STC20000615204010206/15/00 20:40:31  5-MIN KSTC 160240Z AUTO 18006KT 10SM OVC020 16/14 A2936 1550 90 2100 180/06 RMK AO2
14926KSTC STC20000615204510906/15/00 20:45:31  5-MIN KSTC 160245Z AUTO 18005KT 10SM FEW010 OVC020 16/14 A2936 1550 90 2100 170/05 RMK AO2
14926KSTC STC20000615205013806/15/00 20:50:31  5-MIN KSTC 160250Z AUTO 16005KT 10SM FEW010 OVC020 16/14 A2935 1560 93 2000 150/05 RMK AO2 SLP946 60000 T01560144 56013
14926KSTC STC20000615205511606/15/00 20:55:31  5-MIN KSTC 160255Z AUTO 17005KT 10SM SCT010 SCT013 OVC020 16/14 A2935 1560 93 2000 170/05 RMK AO2
14926KSTC STC20000615210010906/15/00 21:00:31  5-MIN KSTC 160300Z AUTO 17006KT 10SM SCT010 OVC020 16/14 A2935 1550 93 2000 170/06 RMK AO2
14926KSTC STC20000615210511606/15/00 21:05:31  5-MIN KSTC 160305Z AUTO 19006KT 10SM SCT010 BKN020 OVC027 16/14 A2935 1560 93 2000 180/06 RMK AO2
14926KSTC STC20000615211011606/15/00 21:10:31  5-MIN KSTC 160310Z AUTO 19004KT 10SM SCT010 BKN020 OVC025 16/14 A2935 1560 93 2000 180/04 RMK AO2
14926KSTC STC20000615211512806/15/00 21:15:31  5-MIN KSTC 160315Z AUTO 17006KT 10SM BKN010 BKN020 OVC060 16/14 A2934 1570 93 2000 170/06 RMK AO2 CIG 006V015
14926KSTC STC20000615212012306/15/00 21:20:31  5-MIN KSTC 160320Z AUTO 15007KT 10SM SCT010 BKN022 BKN026 16/14 A2933 1580 93 2000 150/07 RMK AO2 PRESFR
14926KSTC STC20000615212511606/15/00 21:25:31  5-MIN KSTC 160325Z AUTO 16007KT 10SM FEW010 SCT022 BKN060 16/14 A2933 1580 93 2000 150/07 RMK AO2
14926KSTC STC20000615213011606/15/00 21:30:31  5-MIN KSTC 160330Z AUTO 17006KT 10SM FEW008 SCT024 SCT085 16/14 A2935 1560 93 2000 170/06 RMK AO2
14926KSTC STC20000615213510906/15/00 21:35:31  5-MIN KSTC 160335Z AUTO 18006KT 10SM FEW008 BKN085 16/14 A2935 1560 93 2000 180/06 RMK AO2
14926KSTC STC20000615214010906/15/00 21:40:31  5-MIN KSTC 160340Z AUTO 18006KT 10SM FEW008 SCT085 16/14 A2935 1560 93 2000 180/06 RMK AO2
14926KSTC STC20000615214510906/15/00 21:45:31  5-MIN KSTC 160345Z AUTO 18005KT 10SM FEW009 SCT085 16/14 A2935 1560 93 2000 180/05 RMK AO2
14926KSTC STC20000615215012606/15/00 21:50:31  5-MIN KSTC 160350Z AUTO 19006KT 10SM SCT018 BKN085 16/14 A2934 1570 93 2000 190/06 RMK AO2 SLP942 T01560144
14926KSTC STC20000615215510906/15/00 21:55:31  5-MIN KSTC 160355Z AUTO 18007KT 10SM BKN018 BKN085 16/14 A2934 1570 93 2000 180/07 RMK AO2
14926KSTC STC20000615220010906/15/00 22:00:31  5-MIN KSTC 160400Z AUTO 17007KT 10SM BKN016 BKN085 16/14 A2933 1580 93 2000 170/07 RMK AO2
14926KSTC STC20000615220510906/15/00 22:05:31  5-MIN KSTC 160405Z AUTO 16007KT 10SM BKN016 16/14 A2932 1590 93 2100 160/07 RMK AO2 PRESFR
14926KSTC STC20000615221011606/15/00 22:10:31  5-MIN KSTC 160410Z AUTO 17006KT 10SM FEW009 BKN016 16/14 A2931 1590 93 2100 170/06 RMK AO2 PRESFR
14926KSTC STC20000615221510906/15/00 22:15:31  5-MIN KSTC 160415Z AUTO 17006KT 10SM SCT007 BKN016 16/14 A2932 1590 93 2100 170/06 RMK AO2
14926KSTC STC20000615222010906/15/00 22:20:31  5-MIN KSTC 160420Z AUTO 19006KT 10SM SCT007 OVC016 16/14 A2932 1590 93 2100 180/06 RMK AO2
14926KSTC STC20000615222510906/15/00 22:25:31  5-MIN KSTC 160425Z AUTO 19007KT 10SM SCT007 OVC014 16/14 A2932 1590 93 2100 180/07 RMK AO2
14926KSTC STC20000615223010906/15/00 22:30:31  5-MIN KSTC 160430Z AUTO 19007KT 10SM SCT007 OVC014 16/14 A2932 1590 93 2100 180/07 RMK AO2
14926KSTC STC20000615223512106/15/00 22:35:31  5-MIN KSTC 160435Z AUTO 19008KT 10SM BKN007 OVC014 16/14 A2932 1590 93 2100 190/08 RMK AO2 CIG 006V010
14926KSTC STC20000615224012106/15/00 22:40:31  5-MIN KSTC 160440Z AUTO 19007KT 10SM BKN007 OVC014 16/14 A2931 1590 93 2100 190/07 RMK AO2 CIG 006V010
14926KSTC STC20000615224512106/15/00 22:45:31  5-MIN KSTC 160445Z AUTO 19008KT 10SM BKN007 OVC014 16/14 A2931 1590 93 2100 190/08 RMK AO2 CIG 006V011
14926KSTC STC20000615225013806/15/00 22:50:31  5-MIN KSTC 160450Z AUTO 19008KT 10SM BKN009 OVC014 16/14 A2932 1590 93 2100 190/08 RMK AO2 CIG 007V012 SLP934 T01560144
14926KSTC STC20000615225512106/15/00 22:55:31  5-MIN KSTC 160455Z AUTO 20007KT 10SM BKN009 OVC012 16/14 A2932 1590 93 2100 190/07 RMK AO2 CIG 006V011
14926KSTC STC20000615230011406/15/00 23:00:31  5-MIN KSTC 160500Z AUTO 20007KT 10SM BKN007 16/14 A2932 1590 93 2100 190/07 RMK AO2 CIG 006V011
14926KSTC STC20000615230511406/15/00 23:05:31  5-MIN KSTC 160505Z AUTO 21007KT 10SM BKN007 16/14 A2932 1590 93 2100 200/07 RMK AO2 CIG 006V011
14926KSTC STC20000615231010906/15/00 23:10:31  5-MIN KSTC 160510Z AUTO 21007KT 10SM BKN007 OVC013 16/14 A2932 1590 93 2100 210/07 RMK AO2
14926KSTC STC20000615231512806/15/00 23:15:31  5-MIN KSTC 160515Z AUTO 19007KT 10SM BKN007 BKN015 OVC019 16/14 A2932 1590 93 2100 190/07 RMK AO2 CIG 006V011
14926KSTC STC20000615232012806/15/00 23:20:31  5-MIN KSTC 160520Z AUTO 21010KT 10SM BKN007 BKN014 OVC095 16/14 A2931 1590 93 2100 200/10 RMK AO2 CIG 006V011
14926KSTC STC20000615232511606/15/00 23:25:31  5-MIN KSTC 160525Z AUTO 21009KT 10SM SCT009 BKN012 OVC095 16/14 A2932 1590 93 2100 200/09 RMK AO2
14926KSTC STC20000615233011606/15/00 23:30:31  5-MIN KSTC 160530Z AUTO 21008KT 10SM SCT009 BKN015 OVC021 16/14 A2932 1590 93 2100 210/08 RMK AO2
14926KSTC STC20000615233511606/15/00 23:35:31  5-MIN KSTC 160535Z AUTO 22007KT 10SM SCT009 BKN017 OVC070 16/14 A2932 1580 93 2100 220/07 RMK AO2
14926KSTC STC20000615234011606/15/00 23:40:31  5-MIN KSTC 160540Z AUTO 23006KT 10SM FEW009 BKN015 OVC095 16/14 A2932 1590 93 2100 230/06 RMK AO2
14926KSTC STC20000615234511606/15/00 23:45:31  5-MIN KSTC 160545Z AUTO 23008KT 10SM BKN015 BKN023 OVC090 16/14 A2932 1590 93 2100 230/08 RMK AO2
14926KSTC STC20000615235016706/15/00 23:50:31  5-MIN KSTC 160550Z AUTO 23010KT 10SM BKN015 BKN023 OVC090 16/14 A2932 1590 93 2100 230/10 RMK AO2 SLP935 60000 T01560144 10161 20150 401670117 56012
14926KSTC STC20000615235511606/15/00 23:55:31  5-MIN KSTC 160555Z AUTO 23010KT 10SM SCT015 BKN023 OVC070 16/14 A2933 1580 93 2000 230/10 RMK AO2
14926KSTC STC20000616000012806/16/00 00:00:31  5-MIN KSTC 160600Z AUTO 25009KT 10SM SCT013 BKN023 OVC070 16/14 A2933 1580 93 2000 250/09 RMK AO2 CIG 020V042
14926KSTC STC20000616000511606/16/00 00:05:31  5-MIN KSTC 160605Z AUTO 26012KT 10SM BKN013 BKN023 OVC070 16/14 A2932 1590 90 2100 260/12 RMK AO2
14926KSTC STC20000616001012206/16/00 00:10:31  5-MIN KSTC 160610Z AUTO 29011G17KT 10SM SCT013 BKN026 OVC070 16/14 A2932 1590 90 2100 290/11G17 RMK AO2
14926KSTC STC20000616001513306/16/00 00:15:31  5-MIN KSTC 160615Z AUTO 34012G17KT 10SM SCT013 BKN023 OVC070 15/13 A2931 1590 86 2000 340/12G17 RMK AO2 WSHFT 0601
14926KSTC STC20000616002013306/16/00 00:20:31  5-MIN KSTC 160620Z AUTO 01014G18KT 10SM FEW013 BKN041 OVC070 14/12 A2931 1600 90 1900 360/14G18 RMK AO2 WSHFT 0601
14926KSTC STC20000616002513306/16/00 00:25:31  5-MIN KSTC 160625Z AUTO 35010G18KT 10SM FEW013 SCT023 BKN041 13/12 A2931 1590 89 1800 350/10G18 RMK AO2 WSHFT 0608
14926KSTC STC20000616003012006/16/00 00:30:31  5-MIN KSTC 160630Z AUTO 36009KT 10SM FEW013 SCT041 13/12 A2932 1590 89 1800 350/09 RMK AO2 WSHFT 0608
14926KSTC STC20000616003512006/16/00 00:35:31  5-MIN KSTC 160635Z AUTO 33009KT 10SM FEW009 SCT041 13/12 A2933 1580 93 1700 330/09 RMK AO2 WSHFT 0608
14926KSTC STC20000616004013306/16/00 00:40:31  5-MIN KSTC 160640Z AUTO 33015G18KT 10SM SCT007 BKN041 13/11 A2934 1570 89 1700 330/15G18 RMK AO2 WSHFT 0608 PRESRR
14926KSTC STC20000616004513306/16/00 00:45:31  5-MIN KSTC 160645Z AUTO 33012G19KT 10SM BKN007 BKN041 13/11 A2935 1560 89 1700 330/12G19 RMK AO2 WSHFT 0608 PRESRR
14926KSTC STC20000616005014306/16/00 00:50:31  5-MIN KSTC 160650Z AUTO 33012G19KT 10SM BKN007 12/11 A2936 1550 93 1600 330/12G19 RMK AO2 WSHFT 0608 PRESRR SLP949 T01220111
14926KSTC STC20000616005513606/16/00 00:55:31  5-MIN KSTC 160655Z AUTO 34010G21KT 310V010 10SM BKN007 12/11 A2936 1550 93 1600 330/10G21 310V010 RMK AO2 CIG 006V010
14926KSTC STC20000616010012006/16/00 01:00:31  5-MIN KSTC 160700Z AUTO 35012G21KT 10SM OVC007 12/11 A2936 1550 89 1600 350/12G21 RMK AO2 CIG 006V012
14926KSTC STC20000616010512006/16/00 01:05:31  5-MIN KSTC 160705Z AUTO 33014G20KT 10SM OVC009 12/11 A2936 1550 89 1600 330/14G20 RMK AO2 CIG 006V012
14926KSTC STC20000616011012006/16/00 01:10:31  5-MIN KSTC 160710Z AUTO 34011G19KT 10SM OVC009 12/11 A2936 1550 89 1600 330/11G19 RMK AO2 CIG 007V012
14926KSTC STC20000616011511406/16/00 01:15:31  5-MIN KSTC 160715Z AUTO 34012KT 10SM OVC009 12/11 A2936 1550 89 1600 330/12 RMK AO2 CIG 007V013
14926KSTC STC20000616012012706/16/00 01:20:31  5-MIN KSTC 160720Z AUTO 34013G20KT 10SM BKN009 OVC014 12/11 A2936 1550 89 1600 340/13G20 RMK AO2 CIG 008V012
14926KSTC STC20000616012511506/16/00 01:25:31  5-MIN KSTC 160725Z AUTO 33014G20KT 10SM SCT010 OVC014 12/10 A2937 1540 86 1600 330/14G20 RMK AO2
14926KSTC STC20000616013010806/16/00 01:30:31  5-MIN KSTC 160730Z AUTO 32015G19KT 10SM OVC014 12/11 A2937 1530 89 1600 320/15G19 RMK AO2
14926KSTC STC20000616013512206/16/00 01:35:31  5-MIN KSTC 160735Z AUTO 32014G21KT 10SM BKN012 OVC017 12/10 A2938 1530 86 1600 320/14G21 RMK AO2 PRESRR
14926KSTC STC20000616014010806/16/00 01:40:31  5-MIN KSTC 160740Z AUTO 32015G21KT 10SM OVC014 12/10 A2939 1520 86 1600 320/15G21 RMK AO2
14926KSTC STC20000616014511506/16/00 01:45:31  5-MIN KSTC 160745Z AUTO 32015G23KT 10SM OVC014 12/10 A2939 1520 86 1600 320/15G23 RMK AO2 PRESRR
14926KSTC STC20000616015013206/16/00 01:50:31  5-MIN KSTC 160750Z AUTO 32013G23KT 10SM OVC014 12/10 A2940 1510 86 1600 320/13G23 RMK AO2 PRESRR SLP962 T01220100
14926KSTC STC20000616015512206/16/00 01:55:31  5-MIN KSTC 160755Z AUTO 32016G21KT 10SM BKN014 OVC019 12/10 A2940 1510 86 1600 320/16G21 RMK AO2 PRESRR
14926KSTC STC20000616020010806/16/00 02:00:31  5-MIN KSTC 160800Z AUTO 32014G21KT 10SM OVC016 12/10 A2941 1500 86 1600 320/14G21 RMK AO2
14926KSTC STC20000616020510906/16/00 02:05:31  5-MIN KSTC 160805Z AUTO 32014KT 10SM BKN016 OVC060 12/10 A2941 1500 86 1600 320/14 RMK AO2
14926KSTC STC20000616021010906/16/00 02:10:31  5-MIN KSTC 160810Z AUTO 32014KT 10SM BKN016 OVC060 12/10 A2941 1500 86 1600 320/14 RMK AO2
14926KSTC STC20000616021511606/16/00 02:15:31  5-MIN KSTC 160815Z AUTO 32014KT 10SM BKN016 BKN020 OVC060 12/10 A2942 1490 86 1600 320/14 RMK AO2
14926KSTC STC20000616022011606/16/00 02:20:31  5-MIN KSTC 160820Z AUTO 32014KT 10SM BKN016 BKN020 OVC060 12/10 A2942 1490 86 1600 320/14 RMK AO2
14926KSTC STC20000616022511606/16/00 02:25:31  5-MIN KSTC 160825Z AUTO 32015KT 10SM SCT016 BKN025 OVC085 12/10 A2941 1500 86 1600 320/15 RMK AO2
14926KSTC STC20000616023011606/16/00 02:30:31  5-MIN KSTC 160830Z AUTO 32015KT 10SM SCT016 BKN060 OVC080 12/10 A2942 1500 89 1500 310/15 RMK AO2
14926KSTC STC20000616023511606/16/00 02:35:31  5-MIN KSTC 160835Z AUTO 32015KT 10SM FEW016 BKN060 OVC080 12/10 A2942 1490 89 1500 320/15 RMK AO2
14926KSTC STC20000616024011606/16/00 02:40:31  5-MIN KSTC 160840Z AUTO 31017KT 10SM FEW018 BKN055 OVC080 12/10 A2942 1490 89 1500 310/17 RMK AO2
14926KSTC STC20000616024512206/16/00 02:45:31  5-MIN KSTC 160845Z AUTO 32012G20KT 10SM FEW033 BKN055 OVC080 12/10 A2943 1490 89 1500 320/12G20 RMK AO2
14926KSTC STC20000616025014406/16/00 02:50:31  5-MIN KSTC 160850Z AUTO 32013G21KT 7SM FEW035 BKN048 OVC080 12/10 A2943 1480 89 1500 320/13G21 RMK AO2 SLP973 T01170100 55009
14926KSTC STC20000616025513406/16/00 02:55:31  5-MIN KSTC 160855Z AUTO 32014G21KT 5SM -RA BR FEW009 BKN048 OVC075 12/11 A2943 1480 93 1500 320/14G21 RMK AO2 P0000
14926KSTC STC20000616030013406/16/00 03:00:31  5-MIN KSTC 160900Z AUTO 32011G18KT 6SM -RA BR SCT015 BKN033 OVC055 12/11 A2944 1480 93 1500 320/11G18 RMK AO2 P0000
14926KSTC STC20000616030513006/16/00 03:05:31  5-MIN KSTC 160905Z AUTO 32010KT 6SM BR FEW012 BKN018 OVC047 12/11 A2944 1480 93 1500 320/10 RMK AO2 RAE01 P0000
14926KSTC STC20000616031012706/16/00 03:10:31  5-MIN KSTC 160910Z AUTO 32011KT 8SM SCT012 BKN018 OVC047 12/11 A2944 1470 93 1500 320/11 RMK AO2 RAE01 P0001
14926KSTC STC20000616031512806/16/00 03:15:31  5-MIN KSTC 160915Z AUTO 32010KT 10SM SCT012 BKN020 OVC029 12/11 A2944 1470 93 1500 320/10 RMK AO2 RAE01 P0001
14926KSTC STC20000616032012806/16/00 03:20:31  5-MIN KSTC 160920Z AUTO 31011KT 10SM BKN012 BKN018 OVC029 12/11 A2945 1460 93 1500 310/11 RMK AO2 RAE01 P0001
14926KSTC STC20000616032512106/16/00 03:25:31  5-MIN KSTC 160925Z AUTO 31010KT 10SM BKN012 OVC018 12/10 A2945 1460 89 1400 300/10 RMK AO2 RAE01 P0001
14926KSTC STC20000616033012106/16/00 03:30:31  5-MIN KSTC 160930Z AUTO 32011KT 10SM BKN012 OVC020 12/11 A2946 1460 93 1400 310/11 RMK AO2 RAE01 P0001
14926KSTC STC20000616033512106/16/00 03:35:31  5-MIN KSTC 160935Z AUTO 31010KT 10SM BKN012 OVC022 12/11 A2946 1460 93 1400 300/10 RMK AO2 RAE01 P0001
14926KSTC STC20000616034011406/16/00 03:40:31  5-MIN KSTC 160940Z AUTO 30011KT 10SM OVC012 12/11 A2947 1450 93 1400 300/11 RMK AO2 RAE01 P0001
14926KSTC STC20000616034511406/16/00 03:45:31  5-MIN KSTC 160945Z AUTO 30010KT 10SM OVC012 12/10 A2947 1440 89 1400 300/10 RMK AO2 RAE01 P0001
14926KSTC STC20000616035013106/16/00 03:50:31  5-MIN KSTC 160950Z AUTO 30010KT 10SM OVC012 12/10 A2948 1440 89 1400 300/10 RMK AO2 RAE01 SLP991 P0001 T01170100
14926KSTC STC20000616035510206/16/00 03:55:31  5-MIN KSTC 160955Z AUTO 30010KT 10SM OVC012 12/10 A2948 1430 89 1400 300/10 RMK AO2
14926KSTC STC20000616040010206/16/00 04:00:31  5-MIN KSTC 161000Z AUTO 30009KT 10SM OVC012 12/10 A2948 1430 89 1400 300/09 RMK AO2
14926KSTC STC20000616040510206/16/00 04:05:31  5-MIN KSTC 161005Z AUTO 30008KT 10SM OVC012 12/10 A2949 1430 89 1400 300/08 RMK AO2
14926KSTC STC20000616041010206/16/00 04:10:31  5-MIN KSTC 161010Z AUTO 30009KT 10SM OVC014 12/10 A2949 1420 89 1400 300/09 RMK AO2
14926KSTC STC20000616041510206/16/00 04:15:31  5-MIN KSTC 161015Z AUTO 30011KT 10SM OVC014 12/10 A2949 1420 89 1400 290/11 RMK AO2
14926KSTC STC20000616042010206/16/00 04:20:31  5-MIN KSTC 161020Z AUTO 29010KT 10SM OVC014 12/11 A2950 1420 93 1400 290/10 RMK AO2
14926KSTC STC20000616042510206/16/00 04:25:31  5-MIN KSTC 161025Z AUTO 29010KT 10SM OVC014 12/11 A2950 1410 93 1400 290/10 RMK AO2
14926KSTC STC20000616043010206/16/00 04:30:31  5-MIN KSTC 161030Z AUTO 30010KT 10SM OVC016 12/11 A2951 1410 93 1400 300/10 RMK AO2
14926KSTC STC20000616043510206/16/00 04:35:31  5-MIN KSTC 161035Z AUTO 30011KT 10SM OVC016 12/11 A2951 1410 93 1400 300/11 RMK AO2
14926KSTC STC20000616044010906/16/00 04:40:31  5-MIN KSTC 161040Z AUTO 30010KT 10SM BKN016 OVC021 12/11 A2951 1400 93 1400 300/10 RMK AO2
14926KSTC STC20000616044511606/16/00 04:45:31  5-MIN KSTC 161045Z AUTO 30008KT 10SM FEW010 BKN016 OVC021 12/11 A2952 1400 93 1400 300/08 RMK AO2
14926KSTC STC20000616045012606/16/00 04:50:31  5-MIN KSTC 161050Z AUTO 30010KT 10SM SCT012 OVC019 12/11 A2952 1390 89 1400 290/10 RMK AO2 SLP006 T01220106
14926KSTC STC20000616045511906/16/00 04:55:31  5-MIN KSTC 161055Z AUTO 30010KT 10SM -RA BKN014 OVC019 12/11 A2953 1390 89 1400 300/10 RMK AO2 P0000
14926KSTC STC20000617043510106/17/00 04:35:31  5-MIN KSTC 171035Z AUTO 00000KT 10SM BKN038 04/04 A3010 860 96 -100 000/00 RMK AO2
14926KSTC STC20000617044010006/17/00 04:40:31  5-MIN KSTC 171040Z AUTO 00000KT 9SM BKN038 04/03 A3010 860 96 -200 000/00 RMK AO2
14926KSTC STC20000617044510006/17/00 04:45:31  5-MIN KSTC 171045Z AUTO 00000KT 8SM OVC038 04/04 A3011 860 96 -100 000/00 RMK AO2
14926KSTC STC20000617045011706/17/00 04:50:31  5-MIN KSTC 171050Z AUTO 00000KT 9SM OVC040 05/04 A3011 850 96 -100 000/00 RMK AO2 SLP208 T00500044
14926KSTC STC20000617045510106/17/00 04:55:31  5-MIN KSTC 171055Z AUTO 00000KT 10SM OVC040 05/04 A3011 850 96 -100 000/00 RMK AO2
14926KSTC STC20000617050010006/17/00 05:00:31  5-MIN KSTC 171100Z AUTO 00000KT 9SM OVC040 05/04 A3011 850 96 -100 000/00 RMK AO2
14926KSTC STC20000617050509706/17/00 05:05:31  5-MIN KSTC 171105Z AUTO 00000KT 9SM OVC040 06/05 A3011 850 96 0 000/00 RMK AO2
14926KSTC STC20000617051009806/17/00 05:10:31  5-MIN KSTC 171110Z AUTO 00000KT 10SM BKN040 06/04 A3011 850 92 0 000/00 RMK AO2
14926KSTC STC20000617051509806/17/00 05:15:31  5-MIN KSTC 171115Z AUTO 00000KT 10SM BKN040 06/05 A3011 850 96 0 000/00 RMK AO2
14926KSTC STC20000617052009806/17/00 05:20:31  5-MIN KSTC 171120Z AUTO 00000KT 10SM SCT040 06/05 A3011 850 93 0 000/00 RMK AO2
14926KSTC STC20000617052509806/17/00 05:25:31  5-MIN KSTC 171125Z AUTO 00000KT 10SM SCT040 06/05 A3011 850 93 0 000/00 RMK AO2
14926KSTC STC20000617053009706/17/00 05:30:31  5-MIN KSTC 171130Z AUTO 00000KT 9SM FEW038 06/05 A3011 850 93 0 000/00 RMK AO2
14926KSTC STC20000617053509706/17/00 05:35:31  5-MIN KSTC 171135Z AUTO 00000KT 10SM CLR 07/06 A3011 850 93 100 000/00 RMK AO2
14926KSTC STC20000617054009706/17/00 05:40:31  5-MIN KSTC 171140Z AUTO 00000KT 10SM CLR 07/06 A3011 850 93 200 000/00 RMK AO2
14926KSTC STC20000617054509706/17/00 05:45:31  5-MIN KSTC 171145Z AUTO 06003KT 10SM CLR 07/06 A3011 850 93 200 050/03 RMK AO2
14926KSTC STC20000617055013206/17/00 05:50:31  5-MIN KSTC 171150Z AUTO 05003KT 10SM CLR 07/06 A3011 850 93 200 050/03 RMK AO2 SLP209 T00720061 10072 20033 51011
14926KSTC STC20000617055509706/17/00 05:55:31  5-MIN KSTC 171155Z AUTO 04003KT 10SM CLR 07/06 A3011 850 93 200 040/03 RMK AO2
14926KSTC STC20000617060009706/17/00 06:00:31  5-MIN KSTC 171200Z AUTO 02003KT 10SM CLR 08/07 A3011 850 89 300 020/03 RMK AO2
14926KSTC STC20000617060509706/17/00 06:05:31  5-MIN KSTC 171205Z AUTO 00000KT 10SM CLR 08/06 A3011 850 86 300 000/00 RMK AO2
14926KSTC STC20000617061009706/17/00 06:10:31  5-MIN KSTC 171210Z AUTO 36003KT 10SM CLR 09/07 A3012 850 86 400 360/03 RMK AO2
14926KSTC STC20000617061509706/17/00 06:15:31  5-MIN KSTC 171215Z AUTO 01003KT 10SM CLR 09/07 A3012 850 86 400 010/03 RMK AO2
14926KSTC STC20000617062010006/17/00 06:20:31  5-MIN KSTC 171220Z AUTO 01003KT 10SM FEW100 09/07 A3012 840 83 400 360/03 RMK AO2
14926KSTC STC20000617062510006/17/00 06:25:31  5-MIN KSTC 171225Z AUTO 00000KT 10SM SCT100 09/07 A3012 840 86 400 000/00 RMK AO2
14926KSTC STC20000617063010006/17/00 06:30:31  5-MIN KSTC 171230Z AUTO 00000KT 10SM BKN100 10/07 A3013 840 83 500 000/00 RMK AO2
14926KSTC STC20000617063510006/17/00 06:35:31  5-MIN KSTC 171235Z AUTO 35003KT 10SM BKN100 10/07 A3013 830 83 500 340/03 RMK AO2
14926KSTC STC20000617064010006/17/00 06:40:31  5-MIN KSTC 171240Z AUTO 34003KT 10SM BKN100 10/07 A3013 830 83 500 340/03 RMK AO2
14926KSTC STC20000617064510006/17/00 06:45:31  5-MIN KSTC 171245Z AUTO 35003KT 10SM OVC100 10/07 A3013 830 83 500 340/03 RMK AO2
14926KSTC STC20000617065011706/17/00 06:50:31  5-MIN KSTC 171250Z AUTO 34004KT 10SM OVC100 10/07 A3013 830 83 500 340/04 RMK AO2 SLP215 T01000072
14926KSTC STC20000617065510006/17/00 06:55:31  5-MIN KSTC 171255Z AUTO 34003KT 10SM OVC100 10/07 A3013 830 83 500 330/03 RMK AO2
14926KSTC STC20000617070010006/17/00 07:00:31  5-MIN KSTC 171300Z AUTO 00000KT 10SM OVC100 10/07 A3013 830 83 500 000/00 RMK AO2
14926KSTC STC20000617070510006/17/00 07:05:31  5-MIN KSTC 171305Z AUTO 00000KT 10SM OVC100 10/08 A3013 830 86 500 000/00 RMK AO2
14926KSTC STC20000617071010006/17/00 07:10:31  5-MIN KSTC 171310Z AUTO 00000KT 10SM OVC100 11/07 A3013 830 80 500 000/00 RMK AO2
14926KSTC STC20000617071510006/17/00 07:15:31  5-MIN KSTC 171315Z AUTO 00000KT 10SM OVC100 11/07 A3014 830 80 500 000/00 RMK AO2
14926KSTC STC20000617072010006/17/00 07:20:31  5-MIN KSTC 171320Z AUTO 00000KT 10SM OVC100 11/08 A3014 830 80 600 000/00 RMK AO2
14926KSTC STC20000617072510006/17/00 07:25:31  5-MIN KSTC 171325Z AUTO 00000KT 10SM OVC100 11/08 A3014 820 83 500 000/00 RMK AO2
14926KSTC STC20000617073010006/17/00 07:30:31  5-MIN KSTC 171330Z AUTO VRB03KT 10SM OVC100 11/08 A3014 820 80 600 VRB/03 RMK AO2
14926KSTC STC20000617073510006/17/00 07:35:31  5-MIN KSTC 171335Z AUTO 20004KT 10SM OVC100 11/08 A3015 820 80 600 200/04 RMK AO2
14926KSTC STC20000617074010006/17/00 07:40:31  5-MIN KSTC 171340Z AUTO 21005KT 10SM OVC100 11/08 A3015 810 83 500 210/05 RMK AO2
14926KSTC STC20000617074510006/17/00 07:45:31  5-MIN KSTC 171345Z AUTO 19003KT 10SM OVC110 11/08 A3015 810 80 600 180/03 RMK AO2
14926KSTC STC20000617075011706/17/00 07:50:31  5-MIN KSTC 171350Z AUTO 15003KT 10SM OVC110 11/08 A3015 820 80 600 140/03 RMK AO2 SLP222 T01110078
14926KSTC STC20000617075510006/17/00 07:55:31  5-MIN KSTC 171355Z AUTO 00000KT 10SM OVC110 11/08 A3015 820 80 600 000/00 RMK AO2
14926KSTC STC20000617080010006/17/00 08:00:31  5-MIN KSTC 171400Z AUTO 00000KT 10SM OVC110 12/07 A3015 810 74 600 000/00 RMK AO2
14926KSTC STC20000617080510006/17/00 08:05:31  5-MIN KSTC 171405Z AUTO 00000KT 10SM OVC110 12/08 A3015 810 77 600 000/00 RMK AO2
14926KSTC STC20000617081010006/17/00 08:10:31  5-MIN KSTC 171410Z AUTO 00000KT 10SM BKN110 12/08 A3015 810 77 600 000/00 RMK AO2
14926KSTC STC20000617081510006/17/00 08:15:31  5-MIN KSTC 171415Z AUTO 00000KT 10SM BKN110 12/08 A3015 810 77 600 000/00 RMK AO2
14926KSTC STC20000617082010006/17/00 08:20:31  5-MIN KSTC 171420Z AUTO 00000KT 10SM BKN110 12/07 A3016 810 71 700 000/00 RMK AO2
14926KSTC STC20000617082510006/17/00 08:25:31  5-MIN KSTC 171425Z AUTO 00000KT 10SM BKN110 12/06 A3016 810 66 700 000/00 RMK AO2
14926KSTC STC20000617083010006/17/00 08:30:31  5-MIN KSTC 171430Z AUTO 00000KT 10SM BKN110 12/07 A3016 800 68 700 000/00 RMK AO2
14926KSTC STC20000617083510006/17/00 08:35:31  5-MIN KSTC 171435Z AUTO 00000KT 10SM BKN110 12/07 A3016 800 68 700 000/00 RMK AO2
14926KSTC STC20000617084010006/17/00 08:40:31  5-MIN KSTC 171440Z AUTO 00000KT 10SM BKN110 13/06 A3016 800 63 800 000/00 RMK AO2
14926KSTC STC20000617084510006/17/00 08:45:31  5-MIN KSTC 171445Z AUTO 00000KT 10SM BKN110 13/07 A3016 800 66 800 000/00 RMK AO2
14926KSTC STC20000617085012306/17/00 08:50:31  5-MIN KSTC 171450Z AUTO VRB03KT 10SM SCT110 13/06 A3016 810 63 800 VRB/03 RMK AO2 SLP224 T01280061 51017
14926KSTC STC20000617085510006/17/00 08:55:31  5-MIN KSTC 171455Z AUTO VRB05KT 10SM SCT110 13/07 A3016 810 64 800 VRB/05 RMK AO2
14926KSTC STC20000617090010006/17/00 09:00:31  5-MIN KSTC 171500Z AUTO VRB06KT 10SM SCT110 14/07 A3016 810 61 900 VRB/06 RMK AO2
14926KSTC STC20000617090510006/17/00 09:05:31  5-MIN KSTC 171505Z AUTO VRB03KT 10SM SCT110 14/07 A3016 810 61 900 VRB/03 RMK AO2
14926KSTC STC20000617091010006/17/00 09:10:31  5-MIN KSTC 171510Z AUTO VRB05KT 10SM FEW110 14/06 A3015 810 59 900 VRB/05 RMK AO2
14926KSTC STC20000617091510006/17/00 09:15:31  5-MIN KSTC 171515Z AUTO 00000KT 10SM SCT100 14/06 A3016 810 59 900 000/00 RMK AO2
14926KSTC STC20000617092010006/17/00 09:20:31  5-MIN KSTC 171520Z AUTO VRB03KT 10SM SCT100 14/07 A3016 810 61 900 VRB/03 RMK AO2
14926KSTC STC20000617092510806/17/00 09:25:31  5-MIN KSTC 171525Z AUTO 13006KT 10SM FEW100 SCT110 14/07 A3016 810 61 1000 130/06 RMK AO2
14926KSTC STC20000617093010006/17/00 09:30:31  5-MIN KSTC 171530Z AUTO VRB04KT 10SM SCT100 14/07 A3016 810 64 900 VRB/04 RMK AO2
14926KSTC STC20000617093510106/17/00 09:35:31  5-MIN KSTC 171535Z AUTO 18006KT 10SM SCT100 14/07 A3016 810 61 1000 180/06 RMK AO2
14926KSTC STC20000617094010806/17/00 09:40:31  5-MIN KSTC 171540Z AUTO 20007KT 10SM FEW031 SCT100 14/07 A3016 810 61 1000 200/07 RMK AO2
14926KSTC STC20000617094510806/17/00 09:45:31  5-MIN KSTC 171545Z AUTO 20007KT 10SM FEW031 SCT110 14/07 A3016 810 59 1000 200/07 RMK AO2
14926KSTC STC20000617095012506/17/00 09:50:31  5-MIN KSTC 171550Z AUTO 19006KT 10SM FEW031 SCT095 15/07 A3016 810 59 1000 190/06 RMK AO2 SLP224 T01500072
14926KSTC STC20000617095510806/17/00 09:55:31  5-MIN KSTC 171555Z AUTO 22008KT 10SM FEW031 SCT090 14/07 A3016 800 61 1000 220/08 RMK AO2
14926KSTC STC20000617100010806/17/00 10:00:31  5-MIN KSTC 171600Z AUTO 19009KT 10SM FEW031 SCT090 15/07 A3016 810 59 1000 190/09 RMK AO2
14926KSTC STC20000617100511506/17/00 10:05:31  5-MIN KSTC 171605Z AUTO 19008KT 10SM SCT031 SCT090 SCT110 16/08 A3016 800 59 1100 190/08 RMK AO2
14926KSTC STC20000617101011506/17/00 10:10:31  5-MIN KSTC 171610Z AUTO 20009KT 10SM FEW031 SCT090 SCT110 15/08 A3016 800 62 1000 200/09 RMK AO2
14926KSTC STC20000617101511506/17/00 10:15:31  5-MIN KSTC 171615Z AUTO 17009KT 10SM FEW033 SCT043 BKN085 14/07 A3016 810 61 1000 170/09 RMK AO2
14926KSTC STC20000617102010806/17/00 10:20:31  5-MIN KSTC 171620Z AUTO 17008KT 10SM FEW033 BKN043 15/08 A3016 800 62 1000 170/08 RMK AO2
14926KSTC STC20000617102510806/17/00 10:25:31  5-MIN KSTC 171625Z AUTO 18007KT 10SM FEW033 BKN041 15/08 A3016 800 62 1000 170/07 RMK AO2
14926KSTC STC20000617103010806/17/00 10:30:31  5-MIN KSTC 171630Z AUTO 17007KT 10SM FEW031 BKN041 14/07 A3016 800 61 1000 160/07 RMK AO2
14926KSTC STC20000617103510806/17/00 10:35:31  5-MIN KSTC 171635Z AUTO 19007KT 10SM FEW031 OVC043 14/07 A3016 800 61 1000 180/07 RMK AO2
14926KSTC STC20000617104010806/17/00 10:40:31  5-MIN KSTC 171640Z AUTO 18009KT 10SM FEW031 OVC041 14/07 A3016 800 59 1000 180/09 RMK AO2
14926KSTC STC20000617104510806/17/00 10:45:31  5-MIN KSTC 171645Z AUTO 19009KT 10SM FEW031 OVC041 15/08 A3017 800 62 1000 190/09 RMK AO2
14926KSTC STC20000617105013206/17/00 10:50:31  5-MIN KSTC 171650Z AUTO 19009KT 10SM FEW031 BKN043 OVC049 16/08 A3017 800 59 1100 190/09 RMK AO2 SLP227 T01560078
14926KSTC STC20000617105510806/17/00 10:55:31  5-MIN KSTC 171655Z AUTO 19010KT 10SM BKN043 OVC060 15/07 A3017 800 59 1000 190/10 RMK AO2
14926KSTC STC20000617110010806/17/00 11:00:31  5-MIN KSTC 171700Z AUTO 18010KT 10SM BKN041 OVC060 15/07 A3016 800 59 1000 180/10 RMK AO2
14926KSTC STC20000617110510806/17/00 11:05:31  5-MIN KSTC 171705Z AUTO 18010KT 10SM BKN041 OVC055 15/07 A3016 800 59 1000 180/10 RMK AO2
14926KSTC STC20000617111011506/17/00 11:10:31  5-MIN KSTC 171710Z AUTO 18009KT 10SM SCT041 SCT049 OVC055 15/07 A3016 800 59 1000 170/09 RMK AO2
14926KSTC STC20000617111511506/17/00 11:15:31  5-MIN KSTC 171715Z AUTO 19009KT 10SM FEW031 SCT040 OVC055 15/08 A3017 800 62 1000 190/09 RMK AO2
14926KSTC STC20000617112011506/17/00 11:20:31  5-MIN KSTC 171720Z AUTO 20011KT 10SM SCT033 BKN049 OVC055 15/07 A3017 800 59 1000 190/11 RMK AO2
14926KSTC STC20000617112511506/17/00 11:25:31  5-MIN KSTC 171725Z AUTO 20010KT 10SM FEW031 BKN044 OVC055 15/07 A3017 800 59 1000 200/10 RMK AO2
14926KSTC STC20000617113011506/17/00 11:30:31  5-MIN KSTC 171730Z AUTO 20009KT 10SM FEW031 BKN044 OVC055 15/07 A3017 800 59 1000 200/09 RMK AO2
14926KSTC STC20000617113510806/17/00 11:35:31  5-MIN KSTC 171735Z AUTO 21010KT 10SM FEW031 OVC044 15/08 A3017 800 62 1000 210/10 RMK AO2
14926KSTC STC20000617114010806/17/00 11:40:31  5-MIN KSTC 171740Z AUTO 21010KT 10SM FEW033 OVC044 16/08 A3017 800 59 1100 210/10 RMK AO2
14926KSTC STC20000617114510806/17/00 11:45:31  5-MIN KSTC 171745Z AUTO 20009KT 10SM FEW031 OVC044 16/08 A3017 790 62 1100 200/09 RMK AO2
14926KSTC STC20000617115014306/17/00 11:50:31  5-MIN KSTC 171750Z AUTO 19009KT 10SM BKN040 OVC047 15/08 A3017 800 64 1000 190/09 RMK AO2 SLP229 T01500083 10156 20072 51016
14926KSTC STC20000617115510806/17/00 11:55:31  5-MIN KSTC 171755Z AUTO 23009KT 10SM SCT034 BKN044 16/09 A3017 800 64 1100 220/09 RMK AO2
14926KSTC STC20000617120010806/17/00 12:00:31  5-MIN KSTC 171800Z AUTO 22011KT 10SM FEW034 BKN044 16/09 A3017 800 64 1100 210/11 RMK AO2
14926KSTC STC20000617120511506/17/00 12:05:31  5-MIN KSTC 171805Z AUTO 20009KT 10SM FEW034 SCT046 BKN070 16/08 A3016 800 62 1100 190/09 RMK AO2
14926KSTC STC20000617121011506/17/00 12:10:31  5-MIN KSTC 171810Z AUTO 21009KT 10SM FEW034 SCT044 BKN070 16/09 A3016 800 64 1100 200/09 RMK AO2
14926KSTC STC20000617121510806/17/00 12:15:31  5-MIN KSTC 171815Z AUTO 22008KT 10SM FEW034 BKN070 16/08 A3016 800 62 1100 220/08 RMK AO2
14926KSTC STC20000617122010806/17/00 12:20:31  5-MIN KSTC 171820Z AUTO 20008KT 10SM FEW032 BKN070 16/08 A3016 800 62 1100 190/08 RMK AO2
14926KSTC STC20000617122510106/17/00 12:25:31  5-MIN KSTC 171825Z AUTO 20009KT 10SM BKN070 15/08 A3016 800 64 1000 200/09 RMK AO2
14926KSTC STC20000617123010106/17/00 12:30:31  5-MIN KSTC 171830Z AUTO 21006KT 10SM BKN070 16/08 A3016 800 62 1100 210/06 RMK AO2
14926KSTC STC20000617123510106/17/00 12:35:31  5-MIN KSTC 171835Z AUTO 21007KT 10SM BKN070 16/08 A3016 810 59 1200 210/07 RMK AO2
14926KSTC STC20000617124010106/17/00 12:40:31  5-MIN KSTC 171840Z AUTO 17008KT 10SM BKN065 17/08 A3016 810 57 1200 170/08 RMK AO2
14926KSTC STC20000617124510106/17/00 12:45:31  5-MIN KSTC 171845Z AUTO 20008KT 10SM BKN065 17/08 A3016 810 57 1200 200/08 RMK AO2
14926KSTC STC20000617125011806/17/00 12:50:31  5-MIN KSTC 171850Z AUTO 18008KT 10SM BKN070 16/08 A3016 810 57 1200 180/08 RMK AO2 SLP225 T01610078
14926KSTC STC20000617125510106/17/00 12:55:31  5-MIN KSTC 171855Z AUTO 19008KT 10SM SCT070 17/08 A3016 800 57 1200 190/08 RMK AO2
14926KSTC STC20000617130013106/17/00 13:00:31  5-MIN KSTC 171900Z AUTO 15008KT 120V180 10SM FEW030 SCT065 BKN080 16/08 A3016 810 59 1200 140/08 120V180 RMK AO2
14926KSTC STC20000617130510806/17/00 13:05:31  5-MIN KSTC 171905Z AUTO 19007KT 10SM FEW030 SCT085 16/08 A3016 810 57 1200 190/07 RMK AO2
14926KSTC STC20000617131010106/17/00 13:10:31  5-MIN KSTC 171910Z AUTO 16008KT 10SM FEW032 17/08 A3016 810 57 1200 160/08 RMK AO2
14926KSTC STC20000617131510106/17/00 13:15:31  5-MIN KSTC 171915Z AUTO 17010KT 10SM FEW032 17/08 A3016 810 57 1200 170/10 RMK AO2
14926KSTC STC20000617132010806/17/00 13:20:31  5-MIN KSTC 171920Z AUTO 20009KT 10SM FEW032 SCT095 17/08 A3016 810 55 1200 200/09 RMK AO2
14926KSTC STC20000617132510806/17/00 13:25:31  5-MIN KSTC 171925Z AUTO 19009KT 10SM FEW032 SCT095 17/08 A3015 810 57 1200 190/09 RMK AO2
14926KSTC STC20000617133010106/17/00 13:30:31  5-MIN KSTC 171930Z AUTO 21009KT 10SM FEW100 17/08 A3015 810 55 1300 210/09 RMK AO2
14926KSTC STC20000617133510106/17/00 13:35:31  5-MIN KSTC 171935Z AUTO 20008KT 10SM FEW100 17/08 A3015 810 53 1300 200/08 RMK AO2
14926KSTC STC20000617134010106/17/00 13:40:31  5-MIN KSTC 171940Z AUTO 19007KT 10SM FEW100 17/08 A3015 810 53 1300 190/07 RMK AO2
14926KSTC STC20000617134510106/17/00 13:45:31  5-MIN KSTC 171945Z AUTO 20007KT 10SM FEW100 17/08 A3015 810 55 1200 190/07 RMK AO2
14926KSTC STC20000617135011506/17/00 13:50:31  5-MIN KSTC 171950Z AUTO 20009KT 10SM CLR 17/08 A3015 820 53 1300 200/09 RMK AO2 SLP220 T01720078
14926KSTC STC20000617135509806/17/00 13:55:31  5-MIN KSTC 171955Z AUTO 17009KT 10SM CLR 17/08 A3014 820 53 1300 170/09 RMK AO2
14926KSTC STC20000617140009806/17/00 14:00:31  5-MIN KSTC 172000Z AUTO VRB05KT 10SM CLR 17/07 A3014 820 51 1300 VRB/05 RMK AO2
14926KSTC STC20000617140509806/17/00 14:05:31  5-MIN KSTC 172005Z AUTO 19006KT 10SM CLR 17/07 A3014 820 51 1300 190/06 RMK AO2
14926KSTC STC20000617141009806/17/00 14:10:31  5-MIN KSTC 172010Z AUTO 18007KT 10SM CLR 18/08 A3014 830 51 1400 180/07 RMK AO2
14926KSTC STC20000617141509806/17/00 14:15:31  5-MIN KSTC 172015Z AUTO 21009KT 10SM CLR 17/08 A3013 830 53 1300 200/09 RMK AO2
14926KSTC STC20000617142009806/17/00 14:20:31  5-MIN KSTC 172020Z AUTO 21007KT 10SM CLR 18/08 A3013 830 51 1400 210/07 RMK AO2
14926KSTC STC20000617142510106/17/00 14:25:31  5-MIN KSTC 172025Z AUTO 24004KT 10SM FEW041 17/08 A3013 830 55 1300 240/04 RMK AO2
14926KSTC STC20000617143010106/17/00 14:30:31  5-MIN KSTC 172030Z AUTO 19009KT 10SM SCT041 18/08 A3013 830 53 1400 190/09 RMK AO2
14926KSTC STC20000617143510106/17/00 14:35:31  5-MIN KSTC 172035Z AUTO 17008KT 10SM BKN041 18/08 A3013 830 51 1400 170/08 RMK AO2
14926KSTC STC20000617144010106/17/00 14:40:31  5-MIN KSTC 172040Z AUTO 18010KT 10SM BKN043 18/08 A3013 840 51 1400 180/10 RMK AO2
14926KSTC STC20000617144510106/17/00 14:45:31  5-MIN KSTC 172045Z AUTO 15006KT 10SM BKN043 18/08 A3012 840 51 1400 150/06 RMK AO2
14926KSTC STC20000617145012406/17/00 14:50:31  5-MIN KSTC 172050Z AUTO 13005KT 10SM OVC043 18/08 A3012 840 51 1400 130/05 RMK AO2 SLP211 T01780078 52003
14926KSTC STC20000617145510106/17/00 14:55:31  5-MIN KSTC 172055Z AUTO 00000KT 10SM OVC043 18/08 A3012 840 51 1400 000/00 RMK AO2
14926KSTC STC20000617150010106/17/00 15:00:31  5-MIN KSTC 172100Z AUTO 24006KT 10SM OVC043 18/08 A3012 840 51 1400 240/06 RMK AO2
14926KSTC STC20000617150510806/17/00 15:05:31  5-MIN KSTC 172105Z AUTO 21007KT 10SM BKN043 OVC050 18/08 A3011 850 52 1500 210/07 RMK AO2
14926KSTC STC20000617151012406/17/00 15:10:31  5-MIN KSTC 172110Z AUTO 18008KT 150V210 10SM BKN043 OVC050 18/08 A3011 850 52 1500 180/08 150V210 RMK AO2
14926KSTC STC20000617151510806/17/00 15:15:31  5-MIN KSTC 172115Z AUTO 17008KT 10SM BKN045 OVC050 18/08 A3011 860 53 1400 170/08 RMK AO2
14926KSTC STC20000617152010806/17/00 15:20:31  5-MIN KSTC 172120Z AUTO 18005KT 10SM BKN041 OVC049 18/09 A3011 850 54 1500 170/05 RMK AO2
14926KSTC STC20000617152510806/17/00 15:25:31  5-MIN KSTC 172125Z AUTO 14006KT 10SM BKN041 OVC049 18/08 A3011 860 53 1400 140/06 RMK AO2
14926KSTC STC20000617153010806/17/00 15:30:31  5-MIN KSTC 172130Z AUTO 13006KT 10SM BKN041 OVC049 18/08 A3011 860 53 1400 130/06 RMK AO2
14926KSTC STC20000617153511706/17/00 15:35:31  5-MIN KSTC 172135Z AUTO 16008KT 130V190 10SM OVC045 18/08 A3010 860 53 1400 160/08 130V190 RMK AO2
14926KSTC STC20000617154010806/17/00 15:40:31  5-MIN KSTC 172140Z AUTO 19008KT 10SM BKN041 OVC050 18/08 A3010 860 52 1500 190/08 RMK AO2
14926KSTC STC20000617154510806/17/00 15:45:31  5-MIN KSTC 172145Z AUTO 20008KT 10SM BKN041 OVC050 18/08 A3010 860 52 1500 190/08 RMK AO2
14926KSTC STC20000617155012506/17/00 15:50:31  5-MIN KSTC 172150Z AUTO 17009KT 10SM BKN041 OVC050 18/09 A3010 860 55 1400 170/09 RMK AO2 SLP205 T01780089
14926KSTC STC20000617155510806/17/00 15:55:31  5-MIN KSTC 172155Z AUTO 19007KT 10SM BKN041 OVC050 18/09 A3010 860 55 1400 180/07 RMK AO2
14926KSTC STC20000617160010806/17/00 16:00:31  5-MIN KSTC 172200Z AUTO 18007KT 10SM BKN041 OVC050 18/08 A3010 860 53 1400 180/07 RMK AO2
14926KSTC STC20000617160510806/17/00 16:05:31  5-MIN KSTC 172205Z AUTO 21006KT 10SM BKN041 OVC050 18/08 A3010 860 53 1400 210/06 RMK AO2
14926KSTC STC20000617161010806/17/00 16:10:31  5-MIN KSTC 172210Z AUTO VRB05KT 10SM BKN041 OVC050 18/09 A3009 870 55 1400 VRB/05 RMK AO2
14926KSTC STC20000617161511506/17/00 16:15:31  5-MIN KSTC 172215Z AUTO 20009KT 10SM BKN041 BKN050 OVC060 18/09 A3009 870 54 1500 190/09 RMK AO2
14926KSTC STC20000617162010806/17/00 16:20:31  5-MIN KSTC 172220Z AUTO 20008KT 10SM SCT041 OVC055 18/09 A3009 870 54 1500 190/08 RMK AO2
14926KSTC STC20000617162511506/17/00 16:25:31  5-MIN KSTC 172225Z AUTO 20008KT 10SM SCT041 BKN049 OVC060 19/09 A3009 870 52 1600 190/08 RMK AO2
14926KSTC STC20000617163011506/17/00 16:30:31  5-MIN KSTC 172230Z AUTO 18007KT 10SM FEW041 BKN049 BKN060 19/09 A3008 880 52 1600 180/07 RMK AO2
14926KSTC STC20000617163510806/17/00 16:35:31  5-MIN KSTC 172235Z AUTO 17010KT 10SM FEW041 BKN055 19/09 A3008 880 50 1600 170/10 RMK AO2
14926KSTC STC20000617164010806/17/00 16:40:31  5-MIN KSTC 172240Z AUTO 17008KT 10SM BKN055 BKN070 18/09 A3008 880 54 1500 160/08 RMK AO2
14926KSTC STC20000617164510806/17/00 16:45:31  5-MIN KSTC 172245Z AUTO 21007KT 10SM BKN050 BKN060 18/09 A3007 880 54 1500 200/07 RMK AO2
14926KSTC STC20000617165012506/17/00 16:50:31  5-MIN KSTC 172250Z AUTO 20008KT 10SM BKN048 BKN060 18/09 A3007 890 54 1500 200/08 RMK AO2 SLP194 T01830089
14926KSTC STC20000617165510806/17/00 16:55:31  5-MIN KSTC 172255Z AUTO 18009KT 10SM BKN048 BKN060 18/09 A3007 890 54 1500 180/09 RMK AO2
14926KSTC STC20000617170011706/17/00 17:00:31  5-MIN KSTC 172300Z AUTO 19008KT 150V210 10SM BKN048 19/09 A3006 890 52 1600 180/08 150V210 RMK AO2
14926KSTC STC20000617170510806/17/00 17:05:31  5-MIN KSTC 172305Z AUTO 16008KT 10SM SCT047 BKN060 19/09 A3006 890 52 1600 160/08 RMK AO2
14926KSTC STC20000617171010806/17/00 17:10:31  5-MIN KSTC 172310Z AUTO 14009KT 10SM BKN047 BKN060 18/09 A3006 900 54 1500 140/09 RMK AO2
14926KSTC STC20000617171510806/17/00 17:15:31  5-MIN KSTC 172315Z AUTO 16010KT 10SM BKN047 BKN060 18/09 A3006 900 54 1500 160/10 RMK AO2
14926KSTC STC20000617172010806/17/00 17:20:31  5-MIN KSTC 172320Z AUTO 15009KT 10SM BKN047 BKN060 18/09 A3006 900 54 1500 150/09 RMK AO2
14926KSTC STC20000617172510806/17/00 17:25:31  5-MIN KSTC 172325Z AUTO 16010KT 10SM SCT047 BKN065 18/09 A3006 900 54 1500 160/10 RMK AO2
14926KSTC STC20000617173010806/17/00 17:30:31  5-MIN KSTC 172330Z AUTO 15009KT 10SM SCT047 BKN065 18/09 A3006 900 54 1500 150/09 RMK AO2
14926KSTC STC20000617173510806/17/00 17:35:31  5-MIN KSTC 172335Z AUTO 17008KT 10SM SCT047 BKN065 18/09 A3006 900 54 1500 170/08 RMK AO2
14926KSTC STC20000617174011506/17/00 17:40:31  5-MIN KSTC 172340Z AUTO 16007KT 10SM FEW045 BKN060 BKN070 18/09 A3006 900 54 1500 160/07 RMK AO2
14926KSTC STC20000617174511506/17/00 17:45:31  5-MIN KSTC 172345Z AUTO 17006KT 10SM SCT055 BKN070 BKN090 18/09 A3006 900 54 1500 170/06 RMK AO2
14926KSTC STC20000617175015006/17/00 17:50:31  5-MIN KSTC 172350Z AUTO 17008KT 10SM FEW050 SCT065 BKN090 18/09 A3006 900 54 1500 170/08 RMK AO2 SLP188 T01830089 10194 20150 58015
14926KSTC STC20000617175511506/17/00 17:55:31  5-MIN KSTC 172355Z AUTO 16008KT 10SM FEW050 SCT070 OVC090 18/09 A3006 900 54 1500 160/08 RMK AO2
14926KSTC STC20000617180011506/17/00 18:00:31  5-MIN KSTC 180000Z AUTO 15010KT 10SM FEW055 BKN075 OVC090 18/09 A3006 900 54 1500 150/10 RMK AO2
14926KSTC STC20000617180510806/17/00 18:05:31  5-MIN KSTC 180005Z AUTO 15009KT 10SM FEW050 OVC085 18/09 A3006 900 55 1500 150/09 RMK AO2
14926KSTC STC20000617181010806/17/00 18:10:31  5-MIN KSTC 180010Z AUTO 16008KT 10SM FEW050 OVC085 18/09 A3006 900 58 1500 160/08 RMK AO2
14926KSTC STC20000617181510806/17/00 18:15:31  5-MIN KSTC 180015Z AUTO 16007KT 10SM SCT050 OVC085 18/09 A3006 900 55 1500 160/07 RMK AO2
14926KSTC STC20000617182010806/17/00 18:20:31  5-MIN KSTC 180020Z AUTO 15009KT 10SM BKN055 OVC080 18/09 A3006 900 55 1500 150/09 RMK AO2
14926KSTC STC20000617182511506/17/00 18:25:31  5-MIN KSTC 180025Z AUTO 16010KT 10SM BKN050 BKN065 OVC080 18/09 A3006 900 58 1500 160/10 RMK AO2
14926KSTC STC20000617183011506/17/00 18:30:31  5-MIN KSTC 180030Z AUTO 17009KT 10SM FEW043 BKN050 OVC080 18/09 A3005 900 58 1500 170/09 RMK AO2
14926KSTC STC20000617183511506/17/00 18:35:31  5-MIN KSTC 180035Z AUTO 14010KT 10SM SCT041 BKN050 OVC055 18/09 A3005 910 56 1500 140/10 RMK AO2
14926KSTC STC20000617184011506/17/00 18:40:31  5-MIN KSTC 180040Z AUTO 14011KT 10SM SCT043 BKN050 OVC070 18/09 A3005 910 55 1500 140/11 RMK AO2
14926KSTC STC20000617184511506/17/00 18:45:31  5-MIN KSTC 180045Z AUTO 15010KT 10SM SCT040 BKN047 OVC070 18/09 A3005 910 58 1500 150/10 RMK AO2
14926KSTC STC20000617185013206/17/00 18:50:31  5-MIN KSTC 180050Z AUTO 16011KT 10SM SCT040 BKN047 OVC070 18/09 A3005 910 54 1600 160/11 RMK AO2 SLP183 T01830089
14926KSTC STC20000617185511506/17/00 18:55:31  5-MIN KSTC 180055Z AUTO 15012KT 10SM SCT042 BKN055 OVC075 18/09 A3005 910 56 1600 150/12 RMK AO2
14926KSTC STC20000617190011506/17/00 19:00:31  5-MIN KSTC 180100Z AUTO 16011KT 10SM SCT043 SCT055 BKN075 18/09 A3005 910 58 1500 150/11 RMK AO2
14926KSTC STC20000617190511506/17/00 19:05:31  5-MIN KSTC 180105Z AUTO 15010KT 10SM FEW042 SCT060 BKN095 17/09 A3005 910 60 1400 150/10 RMK AO2
14926KSTC STC20000617191011506/17/00 19:10:31  5-MIN KSTC 180110Z AUTO 16010KT 10SM FEW042 SCT075 BKN095 17/09 A3005 910 60 1400 160/10 RMK AO2
14926KSTC STC20000617191510806/17/00 19:15:31  5-MIN KSTC 180115Z AUTO 17008KT 10SM FEW055 SCT095 17/09 A3005 900 60 1400 160/08 RMK AO2
14926KSTC STC20000617192010806/17/00 19:20:31  5-MIN KSTC 180120Z AUTO 16007KT 10SM FEW080 SCT095 17/09 A3005 900 60 1400 160/07 RMK AO2
14926KSTC STC20000617192510106/17/00 19:25:31  5-MIN KSTC 180125Z AUTO 17006KT 10SM BKN095 17/09 A3005 900 62 1300 160/06 RMK AO2
14926KSTC STC20000617193010106/17/00 19:30:31  5-MIN KSTC 180130Z AUTO 16007KT 10SM BKN095 17/09 A3005 900 62 1400 160/07 RMK AO2
14926KSTC STC20000617193510106/17/00 19:35:31  5-MIN KSTC 180135Z AUTO 16009KT 10SM BKN095 17/09 A3005 910 62 1400 160/09 RMK AO2
14926KSTC STC20000617194010106/17/00 19:40:31  5-MIN KSTC 180140Z AUTO 16007KT 10SM BKN095 17/09 A3005 910 62 1400 160/07 RMK AO2
14926KSTC STC20000617194510106/17/00 19:45:31  5-MIN KSTC 180145Z AUTO 16008KT 10SM OVC095 17/09 A3005 910 62 1400 160/08 RMK AO2
14926KSTC STC20000617195011806/17/00 19:50:31  5-MIN KSTC 180150Z AUTO 16008KT 10SM OVC095 17/09 A3005 910 62 1400 160/08 RMK AO2 SLP185 T01670094
14926KSTC STC20000617195510106/17/00 19:55:31  5-MIN KSTC 180155Z AUTO 16009KT 10SM OVC095 17/10 A3005 910 64 1400 160/09 RMK AO2
14926KSTC STC20000617200010106/17/00 20:00:31  5-MIN KSTC 180200Z AUTO 17008KT 10SM OVC100 16/10 A3005 910 67 1300 160/08 RMK AO2
14926KSTC STC20000617200510106/17/00 20:05:31  5-MIN KSTC 180205Z AUTO 17009KT 10SM OVC095 16/10 A3005 910 67 1300 170/09 RMK AO2
14926KSTC STC20000617201010106/17/00 20:10:31  5-MIN KSTC 180210Z AUTO 16008KT 10SM OVC095 16/10 A3005 910 67 1300 160/08 RMK AO2
14926KSTC STC20000617201510106/17/00 20:15:31  5-MIN KSTC 180215Z AUTO 16009KT 10SM BKN095 16/10 A3005 910 67 1300 160/09 RMK AO2
14926KSTC STC20000617202010106/17/00 20:20:31  5-MIN KSTC 180220Z AUTO 17008KT 10SM BKN100 16/10 A3004 910 69 1200 160/08 RMK AO2
14926KSTC STC20000617202510106/17/00 20:25:31  5-MIN KSTC 180225Z AUTO 17008KT 10SM SCT100 16/10 A3005 910 69 1200 160/08 RMK AO2
14926KSTC STC20000617203010106/17/00 20:30:31  5-MIN KSTC 180230Z AUTO 17007KT 10SM FEW100 15/10 A3005 910 72 1200 160/07 RMK AO2
14926KSTC STC20000617203510106/17/00 20:35:31  5-MIN KSTC 180235Z AUTO 17007KT 10SM FEW095 15/10 A3005 910 72 1200 160/07 RMK AO2
14926KSTC STC20000617204009806/17/00 20:40:31  5-MIN KSTC 180240Z AUTO 17007KT 10SM CLR 15/10 A3005 910 72 1200 160/07 RMK AO2
14926KSTC STC20000617204509806/17/00 20:45:31  5-MIN KSTC 180245Z AUTO 17007KT 10SM CLR 15/10 A3005 910 72 1200 170/07 RMK AO2
14926KSTC STC20000617205012106/17/00 20:50:31  5-MIN KSTC 180250Z AUTO 17009KT 10SM CLR 15/10 A3005 910 72 1200 160/09 RMK AO2 SLP186 T01500100 56021
14926KSTC STC20000617205510106/17/00 20:55:31  5-MIN KSTC 180255Z AUTO 17008KT 10SM FEW095 15/10 A3005 910 72 1200 160/08 RMK AO2
14926KSTC STC20000617210010106/17/00 21:00:31  5-MIN KSTC 180300Z AUTO 17008KT 10SM SCT100 15/10 A3005 900 72 1200 160/08 RMK AO2
14926KSTC STC20000617210510106/17/00 21:05:31  5-MIN KSTC 180305Z AUTO 16007KT 10SM BKN100 15/10 A3005 900 72 1200 160/07 RMK AO2
14926KSTC STC20000617211010106/17/00 21:10:31  5-MIN KSTC 180310Z AUTO 16007KT 10SM BKN100 14/10 A3006 900 74 1100 160/07 RMK AO2
14926KSTC STC20000617211510106/17/00 21:15:31  5-MIN KSTC 180315Z AUTO 16007KT 10SM BKN100 14/10 A3006 900 74 1100 160/07 RMK AO2
14926KSTC STC20000617212010106/17/00 21:20:31  5-MIN KSTC 180320Z AUTO 16007KT 10SM SCT100 14/10 A3006 900 74 1100 160/07 RMK AO2
14926KSTC STC20000617212510106/17/00 21:25:31  5-MIN KSTC 180325Z AUTO 16008KT 10SM SCT100 14/10 A3006 900 74 1100 160/08 RMK AO2
14926KSTC STC20000617213010106/17/00 21:30:31  5-MIN KSTC 180330Z AUTO 17008KT 10SM FEW100 14/10 A3006 890 77 1000 160/08 RMK AO2
14926KSTC STC20000617213510106/17/00 21:35:31  5-MIN KSTC 180335Z AUTO 16008KT 10SM FEW100 14/10 A3006 900 77 1000 160/08 RMK AO2
14926KSTC STC20000617214009806/17/00 21:40:31  5-MIN KSTC 180340Z AUTO 16007KT 10SM CLR 14/10 A3006 900 77 1000 160/07 RMK AO2
14926KSTC STC20000617214509806/17/00 21:45:31  5-MIN KSTC 180345Z AUTO 15007KT 10SM CLR 13/11 A3006 900 83 1000 150/07 RMK AO2
14926KSTC STC20000617215011506/17/00 21:50:31  5-MIN KSTC 180350Z AUTO 16007KT 10SM CLR 13/11 A3006 900 83 1000 150/07 RMK AO2 SLP188 T01330106
14926KSTC STC20000617215509806/17/00 21:55:31  5-MIN KSTC 180355Z AUTO 15007KT 10SM CLR 13/11 A3005 900 83 1000 150/07 RMK AO2
14926KSTC STC20000617220009806/17/00 22:00:31  5-MIN KSTC 180400Z AUTO 16007KT 10SM CLR 13/11 A3006 900 83 1000 160/07 RMK AO2
14926KSTC STC20000617220509806/17/00 22:05:31  5-MIN KSTC 180405Z AUTO 16006KT 10SM CLR 13/11 A3005 900 83 1000 160/06 RMK AO2
14926KSTC STC20000617221009706/17/00 22:10:31  5-MIN KSTC 180410Z AUTO 16006KT 10SM CLR 13/11 A3005 900 86 900 160/06 RMK AO2
14926KSTC STC20000617221509706/17/00 22:15:31  5-MIN KSTC 180415Z AUTO 16006KT 10SM CLR 13/11 A3005 900 86 900 160/06 RMK AO2
14926KSTC STC20000617222009706/17/00 22:20:31  5-MIN KSTC 180420Z AUTO 17007KT 10SM CLR 13/11 A3005 900 86 900 160/07 RMK AO2
14926KSTC STC20000617222509706/17/00 22:25:31  5-MIN KSTC 180425Z AUTO 17006KT 10SM CLR 13/11 A3005 900 86 900 160/06 RMK AO2
14926KSTC STC20000617223009706/17/00 22:30:31  5-MIN KSTC 180430Z AUTO 17006KT 10SM CLR 13/11 A3005 900 86 900 160/06 RMK AO2
14926KSTC STC20000617223509706/17/00 22:35:31  5-MIN KSTC 180435Z AUTO 17006KT 10SM CLR 13/11 A3005 900 86 900 160/06 RMK AO2
14926KSTC STC20000617224009706/17/00 22:40:31  5-MIN KSTC 180440Z AUTO 17006KT 10SM CLR 13/11 A3005 910 86 900 160/06 RMK AO2
14926KSTC STC20000617224509706/17/00 22:45:31  5-MIN KSTC 180445Z AUTO 17006KT 10SM CLR 13/11 A3005 910 86 900 170/06 RMK AO2
14926KSTC STC20000617225011406/17/00 22:50:31  5-MIN KSTC 180450Z AUTO 17006KT 10SM CLR 13/11 A3005 910 86 900 160/06 RMK AO2 SLP184 T01280106
14926KSTC STC20000617225509706/17/00 22:55:31  5-MIN KSTC 180455Z AUTO 17006KT 10SM CLR 12/11 A3005 910 89 800 170/06 RMK AO2
14926KSTC STC20000617230009706/17/00 23:00:31  5-MIN KSTC 180500Z AUTO 18006KT 10SM CLR 12/11 A3005 910 89 800 180/06 RMK AO2
14926KSTC STC20000617230509706/17/00 23:05:31  5-MIN KSTC 180505Z AUTO 18007KT 10SM CLR 13/11 A3005 910 86 900 180/07 RMK AO2
14926KSTC STC20000617231009706/17/00 23:10:31  5-MIN KSTC 180510Z AUTO 18007KT 10SM CLR 13/11 A3004 910 86 900 170/07 RMK AO2
14926KSTC STC20000617231509706/17/00 23:15:31  5-MIN KSTC 180515Z AUTO 18007KT 10SM CLR 13/11 A3004 910 86 900 170/07 RMK AO2
14926KSTC STC20000617232009706/17/00 23:20:31  5-MIN KSTC 180520Z AUTO 18008KT 10SM CLR 13/11 A3004 920 86 900 170/08 RMK AO2
14926KSTC STC20000617232509706/17/00 23:25:31  5-MIN KSTC 180525Z AUTO 18008KT 10SM CLR 13/11 A3004 920 86 900 170/08 RMK AO2
14926KSTC STC20000617233009806/17/00 23:30:31  5-MIN KSTC 180530Z AUTO 18008KT 10SM CLR 13/11 A3003 920 86 1000 170/08 RMK AO2
14926KSTC STC20000617233509806/17/00 23:35:31  5-MIN KSTC 180535Z AUTO 18008KT 10SM CLR 13/11 A3003 920 83 1000 180/08 RMK AO2
14926KSTC STC20000617234009706/17/00 23:40:31  5-MIN KSTC 180540Z AUTO 18009KT 10SM CLR 13/11 A3003 920 86 900 170/09 RMK AO2
14926KSTC STC20000617234509806/17/00 23:45:31  5-MIN KSTC 180545Z AUTO 18009KT 10SM CLR 13/11 A3003 930 86 1000 170/09 RMK AO2
14926KSTC STC20000617235014306/17/00 23:50:31  5-MIN KSTC 180550Z AUTO 18008KT 10SM CLR 13/11 A3003 930 86 1000 170/08 RMK AO2 SLP177 T01330111 10183 20122 401940033 55002
14926KSTC STC20000617235509706/17/00 23:55:31  5-MIN KSTC 180555Z AUTO 18007KT 10SM CLR 13/11 A3003 930 89 900 180/07 RMK AO2
14926KSTC STC20000618000010106/18/00 00:00:31  5-MIN KSTC 180600Z AUTO 19009KT 10SM FEW070 13/11 A3003 930 83 1000 180/09 RMK AO2
14926KSTC STC20000618000510306/18/00 00:05:31  5-MIN KSTC 180605Z AUTO 19008KT 10SM FEW065 13/11 A3003 930 86 1000 190/08 RMK AO2 $
14926KSTC STC20000618001010306/18/00 00:10:31  5-MIN KSTC 180610Z AUTO 18008KT 10SM FEW065 13/11 A3002 930 86 1000 180/08 RMK AO2 $
14926KSTC STC20000618001510206/18/00 00:15:31  5-MIN KSTC 180615Z AUTO 18009KT 10SM FEW065 13/11 A3002 940 89 900 170/09 RMK AO2 $
14926KSTC STC20000618002010306/18/00 00:20:31  5-MIN KSTC 180620Z AUTO 18008KT 10SM FEW065 13/11 A3002 940 86 1000 180/08 RMK AO2 $
14926KSTC STC20000618002510306/18/00 00:25:31  5-MIN KSTC 180625Z AUTO 18008KT 10SM FEW065 13/11 A3002 940 86 1000 180/08 RMK AO2 $
14926KSTC STC20000618003010306/18/00 00:30:31  5-MIN KSTC 180630Z AUTO 18008KT 10SM FEW065 13/11 A3002 940 83 1000 180/08 RMK AO2 $
14926KSTC STC20000618003510006/18/00 00:35:31  5-MIN KSTC 180635Z AUTO 18008KT 10SM CLR 13/11 A3002 940 83 1000 180/08 RMK AO2 $
14926KSTC STC20000618004009906/18/00 00:40:31  5-MIN KSTC 180640Z AUTO 18008KT 10SM CLR 13/11 A3002 940 86 900 180/08 RMK AO2 $
14926KSTC STC20000618004510006/18/00 00:45:31  5-MIN KSTC 180645Z AUTO 18008KT 10SM CLR 13/11 A3001 940 86 1000 170/08 RMK AO2 $
14926KSTC STC20000618005012006/18/00 00:50:31  5-MIN KSTC 180650Z AUTO 18007KT 10SM FEW090 13/11 A3002 940 86 1000 180/07 RMK AO2 SLP174 T01330111 $
14926KSTC STC20000618005510306/18/00 00:55:31  5-MIN KSTC 180655Z AUTO 18006KT 10SM FEW090 13/11 A3001 940 86 1000 180/06 RMK AO2 $
14926KSTC STC20000618010010306/18/00 01:00:31  5-MIN KSTC 180700Z AUTO 19006KT 10SM SCT090 13/11 A3001 940 86 1000 180/06 RMK AO2 $
14926KSTC STC20000618010510306/18/00 01:05:31  5-MIN KSTC 180705Z AUTO 18007KT 10SM SCT090 13/11 A3001 940 86 1000 180/07 RMK AO2 $
14926KSTC STC20000618011010306/18/00 01:10:31  5-MIN KSTC 180710Z AUTO 19008KT 10SM SCT090 14/11 A3001 940 83 1100 180/08 RMK AO2 $
14926KSTC STC20000618011510306/18/00 01:15:31  5-MIN KSTC 180715Z AUTO 18007KT 10SM FEW090 14/11 A3001 950 83 1100 180/07 RMK AO2 $
14926KSTC STC20000618012010306/18/00 01:20:31  5-MIN KSTC 180720Z AUTO 18007KT 10SM FEW090 14/11 A3001 950 83 1100 180/07 RMK AO2 $
14926KSTC STC20000618012510106/18/00 01:25:31  5-MIN KSTC 180725Z AUTO 18007KT 10SM SCT100 14/11 A3000 950 83 1100 180/07 RMK AO2
14926KSTC STC20000618013010306/18/00 01:30:31  5-MIN KSTC 180730Z AUTO 18008KT 10SM SCT100 14/11 A3000 950 83 1100 180/08 RMK AO2 $
14926KSTC STC20000618013510306/18/00 01:35:31  5-MIN KSTC 180735Z AUTO 18010KT 10SM BKN100 14/11 A3000 950 83 1100 180/10 RMK AO2 $
14926KSTC STC20000618014010306/18/00 01:40:31  5-MIN KSTC 180740Z AUTO 18009KT 10SM BKN100 14/11 A3000 950 83 1100 180/09 RMK AO2 $
14926KSTC STC20000618014510306/18/00 01:45:31  5-MIN KSTC 180745Z AUTO 18008KT 10SM BKN100 14/11 A3000 950 83 1100 180/08 RMK AO2 $
14926KSTC STC20000618015012006/18/00 01:50:31  5-MIN KSTC 180750Z AUTO 18008KT 10SM BKN100 14/11 A3000 950 83 1100 180/08 RMK AO2 SLP166 T01390111 $
14926KSTC STC20000618015510306/18/00 01:55:31  5-MIN KSTC 180755Z AUTO 18007KT 10SM BKN100 13/11 A3000 960 86 1000 180/07 RMK AO2 $
14926KSTC STC20000618020010306/18/00 02:00:31  5-MIN KSTC 180800Z AUTO 18007KT 10SM BKN100 13/11 A3000 960 86 1000 180/07 RMK AO2 $
14926KSTC STC20000618020510306/18/00 02:05:31  5-MIN KSTC 180805Z AUTO 18006KT 10SM BKN100 13/11 A3000 960 86 1000 180/06 RMK AO2 $
14926KSTC STC20000618021010306/18/00 02:10:31  5-MIN KSTC 180810Z AUTO 18007KT 10SM SCT100 13/11 A3000 960 86 1000 180/07 RMK AO2 $
14926KSTC STC20000618021510306/18/00 02:15:31  5-MIN KSTC 180815Z AUTO 18006KT 10SM FEW090 13/11 A3000 960 86 1000 170/06 RMK AO2 $
14926KSTC STC20000618022011006/18/00 02:20:31  5-MIN KSTC 180820Z AUTO 18007KT 10SM FEW090 SCT110 13/11 A2999 960 86 1000 180/07 RMK AO2 $
14926KSTC STC20000618022511006/18/00 02:25:31  5-MIN KSTC 180825Z AUTO 18006KT 10SM FEW090 SCT110 13/11 A2999 960 86 1000 170/06 RMK AO2 $
14926KSTC STC20000618023011006/18/00 02:30:31  5-MIN KSTC 180830Z AUTO 18006KT 10SM FEW085 BKN100 13/11 A2999 960 86 1000 170/06 RMK AO2 $
14926KSTC STC20000618023511006/18/00 02:35:31  5-MIN KSTC 180835Z AUTO 17005KT 10SM FEW080 BKN100 13/11 A2999 960 86 1000 170/05 RMK AO2 $
14926KSTC STC20000618024011006/18/00 02:40:31  5-MIN KSTC 180840Z AUTO 18006KT 10SM FEW080 BKN100 13/11 A2999 960 86 1000 170/06 RMK AO2 $
14926KSTC STC20000618024511006/18/00 02:45:31  5-MIN KSTC 180845Z AUTO 18006KT 10SM SCT075 OVC100 13/11 A2999 960 86 1000 180/06 RMK AO2 $
14926KSTC STC20000618025013306/18/00 02:50:31  5-MIN KSTC 180850Z AUTO 18006KT 10SM SCT075 OVC100 13/11 A2999 960 86 1000 180/06 RMK AO2 SLP163 T01330111 58008 $
14926KSTC STC20000618025511006/18/00 02:55:31  5-MIN KSTC 180855Z AUTO 19007KT 10SM BKN075 OVC100 13/11 A2999 960 86 1000 180/07 RMK AO2 $
14926KSTC STC20000618030011006/18/00 03:00:31  5-MIN KSTC 180900Z AUTO 19007KT 10SM BKN075 OVC100 13/11 A2999 970 86 1000 190/07 RMK AO2 $
14926KSTC STC20000618030511006/18/00 03:05:31  5-MIN KSTC 180905Z AUTO 19008KT 10SM BKN075 OVC100 13/11 A2998 970 86 1000 190/08 RMK AO2 $
14926KSTC STC20000618031011006/18/00 03:10:31  5-MIN KSTC 180910Z AUTO 19008KT 10SM SCT080 OVC095 13/11 A2998 970 86 1000 190/08 RMK AO2 $
14926KSTC STC20000618031511006/18/00 03:15:31  5-MIN KSTC 180915Z AUTO 20008KT 10SM SCT080 OVC095 13/11 A2999 970 86 1000 190/08 RMK AO2 $
14926KSTC STC20000618032011006/18/00 03:20:31  5-MIN KSTC 180920Z AUTO 20008KT 10SM SCT080 OVC095 13/11 A2999 970 86 1000 190/08 RMK AO2 $
14926KSTC STC20000618032511006/18/00 03:25:31  5-MIN KSTC 180925Z AUTO 20007KT 10SM SCT080 OVC095 13/11 A2999 970 86 1000 200/07 RMK AO2 $
14926KSTC STC20000618033011006/18/00 03:30:31  5-MIN KSTC 180930Z AUTO 21007KT 10SM BKN080 OVC095 13/11 A2998 970 86 1000 210/07 RMK AO2 $
14926KSTC STC20000618033511006/18/00 03:35:31  5-MIN KSTC 180935Z AUTO 21007KT 10SM BKN080 OVC095 13/11 A2999 970 86 1000 200/07 RMK AO2 $
14926KSTC STC20000618034011006/18/00 03:40:31  5-MIN KSTC 180940Z AUTO 20008KT 10SM SCT080 BKN100 13/11 A2999 970 86 1000 200/08 RMK AO2 $
14926KSTC STC20000618034511006/18/00 03:45:31  5-MIN KSTC 180945Z AUTO 21008KT 10SM SCT080 BKN100 13/11 A2999 970 86 1000 200/08 RMK AO2 $
14926KSTC STC20000618035012706/18/00 03:50:31  5-MIN KSTC 180950Z AUTO 21008KT 10SM SCT080 BKN100 13/11 A2999 970 86 1000 200/08 RMK AO2 SLP162 T01330111 $
14926KSTC STC20000618035511006/18/00 03:55:31  5-MIN KSTC 180955Z AUTO 20008KT 10SM FEW080 BKN100 13/11 A2999 970 86 1000 200/08 RMK AO2 $
14926KSTC STC20000618040011006/18/00 04:00:31  5-MIN KSTC 181000Z AUTO 21007KT 10SM FEW080 BKN100 13/11 A2999 970 86 1000 210/07 RMK AO2 $
14926KSTC STC20000618040510306/18/00 04:05:31  5-MIN KSTC 181005Z AUTO 21007KT 10SM BKN100 13/11 A2999 970 86 1000 210/07 RMK AO2 $
14926KSTC STC20000618041010306/18/00 04:10:31  5-MIN KSTC 181010Z AUTO 21006KT 10SM BKN100 13/11 A2999 970 86 1000 210/06 RMK AO2 $
14926KSTC STC20000618041510306/18/00 04:15:31  5-MIN KSTC 181015Z AUTO 22006KT 10SM BKN100 13/11 A2999 970 86 1000 210/06 RMK AO2 $
14926KSTC STC20000618042011006/18/00 04:20:31  5-MIN KSTC 181020Z AUTO 22005KT 10SM BKN100 BKN120 13/11 A2999 960 86 1000 220/05 RMK AO2 $
14926KSTC STC20000618042511006/18/00 04:25:31  5-MIN KSTC 181025Z AUTO 23005KT 10SM SCT100 BKN120 13/11 A2999 970 86 1000 230/05 RMK AO2 $
14926KSTC STC20000618043011706/18/00 04:30:31  5-MIN KSTC 181030Z AUTO 23006KT 10SM FEW075 BKN100 BKN120 13/11 A2999 960 83 1000 230/06 RMK AO2 $
14926KSTC STC20000618043511706/18/00 04:35:31  5-MIN KSTC 181035Z AUTO 25005KT 10SM SCT075 BKN100 BKN120 13/11 A2999 960 83 1000 240/05 RMK AO2 $
14926KSTC STC20000618044011706/18/00 04:40:31  5-MIN KSTC 181040Z AUTO 25005KT 10SM SCT075 BKN095 BKN120 13/11 A2999 960 86 1000 240/05 RMK AO2 $
14926KSTC STC20000618044511706/18/00 04:45:31  5-MIN KSTC 181045Z AUTO 25004KT 10SM BKN070 BKN090 OVC120 13/11 A2999 960 86 1000 240/04 RMK AO2 $
14926KSTC STC20000618045013406/18/00 04:50:31  5-MIN KSTC 181050Z AUTO 25004KT 10SM BKN075 BKN090 OVC120 13/11 A2999 960 86 1000 250/04 RMK AO2 SLP165 T01330111 $
14926KSTC STC20000618045511706/18/00 04:55:31  5-MIN KSTC 181055Z AUTO 28004KT 10SM BKN075 BKN090 BKN120 13/11 A2999 960 86 1000 280/04 RMK AO2 $
14926KSTC STC20000618050012806/18/00 05:00:31  5-MIN KSTC 181100Z AUTO 28004KT 10SM TS SCT070 SCT090 BKN120 13/11 A2999 960 83 1000 280/04 RMK AO2 TSB1057 $
14926KSTC STC20000618050512806/18/00 05:05:31  5-MIN KSTC 181105Z AUTO 25005KT 10SM TS FEW070 SCT090 SCT120 13/11 A3000 950 86 1000 250/05 RMK AO2 TSB1057 $
14926KSTC STC20000618051012006/18/00 05:10:31  5-MIN KSTC 181110Z AUTO 24003KT 10SM TS FEW070 SCT090 12/11 A3000 950 89 900 240/03 RMK AO2 TSB1057 $
14926KSTC STC20000618051512006/18/00 05:15:31  5-MIN KSTC 181115Z AUTO 23003KT 10SM FEW075 SCT095 12/11 A3000 950 89 900 220/03 RMK AO2 TSB1057E11 $
14926KSTC STC20000618052011406/18/00 05:20:31  5-MIN KSTC 181120Z AUTO 23003KT 10SM BKN090 13/11 A3000 950 86 1000 230/03 RMK AO2 TSB1057E11 $
14926KSTC STC20000618052512006/18/00 05:25:31  5-MIN KSTC 181125Z AUTO 23004KT 10SM FEW070 BKN090 13/11 A3000 950 89 900 220/04 RMK AO2 TSB1057E11 $
14926KSTC STC20000618053012106/18/00 05:30:31  5-MIN KSTC 181130Z AUTO 21005KT 10SM SCT075 BKN090 13/11 A3001 950 86 1000 210/05 RMK AO2 TSB1057E11 $
14926KSTC STC20000618053512106/18/00 05:35:31  5-MIN KSTC 181135Z AUTO 20005KT 10SM SCT080 OVC090 14/11 A3001 950 83 1100 200/05 RMK AO2 TSB1057E11 $
14926KSTC STC20000618054012106/18/00 05:40:31  5-MIN KSTC 181140Z AUTO 20006KT 10SM FEW075 OVC090 14/11 A3001 940 83 1100 200/06 RMK AO2 TSB1057E11 $
14926KSTC STC20000618054512806/18/00 05:45:31  5-MIN KSTC 181145Z AUTO 21006KT 10SM SCT075 BKN090 OVC110 14/11 A3001 940 83 1100 210/06 RMK AO2 TSB1057E11 $
14926KSTC STC20000618055016906/18/00 05:50:31  5-MIN KSTC 181150Z AUTO 22007KT 10SM TS FEW041 SCT070 BKN090 14/11 A3002 930 83 1100 220/07 RMK AO2 TSB1057E11B46 SLP174 T01390111 10139 20122 56013 $
14926KSTC STC20000618055512806/18/00 05:55:31  5-MIN KSTC 181155Z AUTO VRB06KT 3SM TS HZ SCT040 BKN070 OVC110 14/11 A3000 950 83 1100 VRB/06 RMK AO2 P0005 $
14926KSTC STC20000618060013906/18/00 06:00:31  5-MIN KSTC 181200Z AUTO 25007KT 2 1/2SM TSRA FEW011 SCT041 BKN075 13/11 A3000 950 83 1000 250/07 RMK AO2 RAB1156 P0006 $
14926KSTC STC20000618060512906/18/00 06:05:31  5-MIN KSTC 181205Z AUTO 21006KT 4SM -TSRA FEW033 BKN080 13/11 A3000 950 83 1000 200/06 RMK AO2 RAB1156 P0006 $
14926KSTC STC20000618061013606/18/00 06:10:31  5-MIN KSTC 181210Z AUTO 21005KT 10SM TS FEW041 SCT075 BKN090 13/10 A3001 950 83 900 210/05 RMK AO2 RAB1156E07 P0006 $
14926KSTC STC20000618061513706/18/00 06:15:31  5-MIN KSTC 181215Z AUTO 22010KT 10SM TS FEW035 BKN075 BKN095 13/11 A3002 930 83 1000 220/10 RMK AO2 RAB1156E07 P0006 $
14926KSTC STC20000618062014406/18/00 06:20:31  5-MIN KSTC 181220Z AUTO 23010KT 10SM TS FEW039 SCT080 BKN100 13/11 A3003 920 83 1000 220/10 RMK AO2 RAB1156E07 PRESRR P0006 $
14926KSTC STC20000618062513906/18/00 06:25:31  5-MIN KSTC 181225Z AUTO 22008KT 10SM FEW065 SCT075 BKN100 13/11 A3002 930 83 1000 220/08 RMK AO2 TSE25RAB1156E07 P0006 $
14926KSTC STC20000618063013206/18/00 06:30:31  5-MIN KSTC 181230Z AUTO 22005KT 10SM FEW065 BKN090 14/11 A3001 940 80 1100 220/05 RMK AO2 TSE25RAB1156E07 P0006 $
14926KSTC STC20000618063513906/18/00 06:35:31  5-MIN KSTC 181235Z AUTO 25004KT 10SM -RA SCT070 BKN100 14/11 A3002 930 80 1100 240/04 RMK AO2 TSE25RAB1156E07B35 P0006 $
14926KSTC STC20000618064014606/18/00 06:40:31  5-MIN KSTC 181240Z AUTO 22005KT 10SM -RA FEW060 SCT080 BKN100 13/11 A3002 940 86 1000 210/05 RMK AO2 TSE25RAB1156E07B35 P0006 $
14926KSTC STC20000618064514506/18/00 06:45:31  5-MIN KSTC 181245Z AUTO 21004KT 10SM FEW060 BKN100 BKN110 13/11 A3002 940 86 1000 210/04 RMK AO2 TSE25RAB1156E07B35E45 P0006 $
14926KSTC STC20000618065015506/18/00 06:50:31  5-MIN KSTC 181250Z AUTO 22006KT 10SM FEW070 BKN100 14/11 A3002 930 83 1100 220/06 RMK AO2 TSE25RAB1156E07B35E45 SLP174 P0006 T01390111 $
14926KSTC STC20000618065511706/18/00 06:55:31  5-MIN KSTC 181255Z AUTO 22008KT 10SM SCT070 SCT080 BKN100 14/12 A3002 930 86 1100 220/08 RMK AO2 $
14926KSTC STC20000618070011006/18/00 07:00:31  5-MIN KSTC 181300Z AUTO 21007KT 10SM BKN070 BKN100 14/11 A3002 930 83 1100 210/07 RMK AO2 $
14926KSTC STC20000618070511706/18/00 07:05:31  5-MIN KSTC 181305Z AUTO 21007KT 10SM FEW070 BKN095 BKN110 14/11 A3002 930 80 1100 210/07 RMK AO2 $
14926KSTC STC20000618071011006/18/00 07:10:31  5-MIN KSTC 181310Z AUTO 22008KT 10SM FEW070 BKN095 14/12 A3002 930 83 1100 220/08 RMK AO2 $
14926KSTC STC20000618071511006/18/00 07:15:31  5-MIN KSTC 181315Z AUTO 21007KT 10SM FEW070 SCT090 14/12 A3002 940 83 1100 210/07 RMK AO2 $
14926KSTC STC20000618072011006/18/00 07:20:31  5-MIN KSTC 181320Z AUTO 22008KT 10SM FEW070 SCT090 15/12 A3002 940 80 1200 220/08 RMK AO2 $
14926KSTC STC20000618072510306/18/00 07:25:31  5-MIN KSTC 181325Z AUTO 23007KT 10SM FEW090 15/12 A3002 940 80 1200 230/07 RMK AO2 $
14926KSTC STC20000618073010306/18/00 07:30:31  5-MIN KSTC 181330Z AUTO 23009KT 10SM FEW090 15/12 A3002 930 80 1200 230/09 RMK AO2 $
14926KSTC STC20000618073510306/18/00 07:35:31  5-MIN KSTC 181335Z AUTO 24008KT 10SM FEW060 15/12 A3002 930 80 1200 240/08 RMK AO2 $
14926KSTC STC20000618074011006/18/00 07:40:31  5-MIN KSTC 181340Z AUTO 23008KT 10SM SCT060 BKN085 15/12 A3002 940 80 1200 230/08 RMK AO2 $
14926KSTC STC20000618074511206/18/00 07:45:31  5-MIN KSTC 181345Z AUTO 22008KT 3SM HZ SCT060 BKN080 15/12 A3001 940 80 1200 220/08 RMK AO2 $
14926KSTC STC20000618075012906/18/00 07:50:31  5-MIN KSTC 181350Z AUTO 24008KT 2SM HZ SCT065 SCT080 16/12 A3001 940 77 1300 240/08 RMK AO2 SLP171 T01560117 $
14926KSTC STC20000618075511206/18/00 07:55:31  5-MIN KSTC 181355Z AUTO 22007KT 5SM HZ SCT060 SCT075 16/12 A3001 950 75 1300 220/07 RMK AO2 $
14926KSTC STC20000618080011706/18/00 08:00:31  5-MIN KSTC 181400Z AUTO 23006KT 10SM SCT060 SCT080 BKN100 16/11 A3000 950 72 1300 230/06 RMK AO2 $
14926KSTC STC20000618080511706/18/00 08:05:31  5-MIN KSTC 181405Z AUTO 24006KT 10SM FEW060 SCT080 BKN100 16/11 A3001 950 72 1300 230/06 RMK AO2 $
14926KSTC STC20000618081011006/18/00 08:10:31  5-MIN KSTC 181410Z AUTO 22005KT 10SM FEW060 SCT080 16/11 A3001 940 72 1300 220/05 RMK AO2 $
14926KSTC STC20000618081510306/18/00 08:15:31  5-MIN KSTC 181415Z AUTO 23007KT 10SM FEW060 17/11 A3001 940 69 1400 230/07 RMK AO2 $
14926KSTC STC20000618082010306/18/00 08:20:31  5-MIN KSTC 181420Z AUTO 22008KT 10SM FEW080 17/11 A3001 940 67 1500 220/08 RMK AO2 $
14926KSTC STC20000618082510306/18/00 08:25:31  5-MIN KSTC 181425Z AUTO 24007KT 10SM FEW085 17/11 A3001 940 67 1500 240/07 RMK AO2 $
14926KSTC STC20000618083010306/18/00 08:30:31  5-MIN KSTC 181430Z AUTO 22010KT 10SM FEW085 18/12 A3001 940 67 1500 220/10 RMK AO2 $
14926KSTC STC20000618083510306/18/00 08:35:31  5-MIN KSTC 181435Z AUTO 22010KT 10SM FEW085 17/11 A3001 940 67 1500 220/10 RMK AO2 $
14926KSTC STC20000618084010306/18/00 08:40:31  5-MIN KSTC 181440Z AUTO 25011KT 10SM FEW090 17/11 A3001 940 64 1500 240/11 RMK AO2 $
14926KSTC STC20000618084510306/18/00 08:45:31  5-MIN KSTC 181445Z AUTO 26010KT 10SM FEW090 18/11 A3001 950 62 1500 250/10 RMK AO2 $
14926KSTC STC20000618085013206/18/00 08:50:31  5-MIN KSTC 181450Z AUTO 25009KT 10SM FEW090 18/11 A3001 940 62 1500 250/09 RMK AO2 SLP169 60006 T01780106 53011 $
14926KSTC STC20000618085510306/18/00 08:55:31  5-MIN KSTC 181455Z AUTO 24009KT 10SM FEW033 18/11 A3001 940 62 1500 230/09 RMK AO2 $
14926KSTC STC20000618090010306/18/00 09:00:31  5-MIN KSTC 181500Z AUTO 26012KT 10SM FEW033 18/11 A3001 940 62 1600 260/12 RMK AO2 $
14926KSTC STC20000618090510306/18/00 09:05:31  5-MIN KSTC 181505Z AUTO 26012KT 10SM FEW033 18/11 A3001 940 62 1600 250/12 RMK AO2 $
14926KSTC STC20000618091010306/18/00 09:10:31  5-MIN KSTC 181510Z AUTO 25012KT 10SM FEW033 18/11 A3001 950 62 1600 240/12 RMK AO2 $
14926KSTC STC20000618091511006/18/00 09:15:31  5-MIN KSTC 181515Z AUTO 25008KT 10SM FEW033 SCT100 18/11 A3001 950 62 1500 250/08 RMK AO2 $
14926KSTC STC20000618092011006/18/00 09:20:31  5-MIN KSTC 181520Z AUTO 25008KT 10SM FEW033 SCT100 18/12 A3001 950 65 1600 250/08 RMK AO2 $
14926KSTC STC20000618092511006/18/00 09:25:31  5-MIN KSTC 181525Z AUTO 26010KT 10SM FEW031 SCT100 18/11 A3001 950 62 1600 260/10 RMK AO2 $
14926KSTC STC20000618093010306/18/00 09:30:31  5-MIN KSTC 181530Z AUTO 25011KT 10SM SCT100 18/11 A3001 940 62 1600 240/11 RMK AO2 $
14926KSTC STC20000618093510306/18/00 09:35:31  5-MIN KSTC 181535Z AUTO 25011KT 10SM SCT100 18/11 A3001 950 64 1500 250/11 RMK AO2 $
14926KSTC STC20000618094011006/18/00 09:40:31  5-MIN KSTC 181540Z AUTO 27008KT 10SM FEW032 BKN100 18/11 A3001 950 64 1500 270/08 RMK AO2 $
14926KSTC STC20000618094511006/18/00 09:45:31  5-MIN KSTC 181545Z AUTO 25008KT 10SM FEW030 BKN095 18/12 A3001 950 65 1600 250/08 RMK AO2 $
14926KSTC STC20000618095012706/18/00 09:50:31  5-MIN KSTC 181550Z AUTO 27010KT 10SM SCT030 BKN100 18/11 A3001 950 62 1600 260/10 RMK AO2 SLP169 T01830111 $
14926KSTC STC20000618095511006/18/00 09:55:31  5-MIN KSTC 181555Z AUTO 25007KT 10SM SCT030 BKN100 18/11 A3000 950 62 1600 240/07 RMK AO2 $
14926KSTC STC20000618100011006/18/00 10:00:31  5-MIN KSTC 181600Z AUTO 25010KT 10SM FEW030 BKN100 18/12 A3000 950 65 1600 250/10 RMK AO2 $
14926KSTC STC20000618100511006/18/00 10:05:31  5-MIN KSTC 181605Z AUTO 26010KT 10SM FEW030 SCT100 18/12 A3000 950 65 1600 250/10 RMK AO2 $
14926KSTC STC20000618101011006/18/00 10:10:31  5-MIN KSTC 181610Z AUTO 24009KT 10SM SCT030 SCT100 18/12 A3000 950 65 1600 240/09 RMK AO2 $
14926KSTC STC20000618101511006/18/00 10:15:31  5-MIN KSTC 181615Z AUTO 26009KT 10SM SCT032 SCT100 19/11 A3000 950 60 1700 260/09 RMK AO2 $
14926KSTC STC20000618102011006/18/00 10:20:31  5-MIN KSTC 181620Z AUTO 25008KT 10SM SCT032 SCT100 19/12 A3000 950 62 1700 240/08 RMK AO2 $
14926KSTC STC20000618102511006/18/00 10:25:31  5-MIN KSTC 181625Z AUTO 25011KT 10SM FEW032 SCT110 19/12 A3001 950 62 1700 250/11 RMK AO2 $
14926KSTC STC20000618103011006/18/00 10:30:31  5-MIN KSTC 181630Z AUTO 25010KT 10SM SCT032 SCT100 19/11 A3001 950 60 1700 240/10 RMK AO2 $
14926KSTC STC20000618103511006/18/00 10:35:31  5-MIN KSTC 181635Z AUTO 26010KT 10SM SCT032 BKN100 19/11 A3001 950 60 1700 260/10 RMK AO2 $
14926KSTC STC20000618104011006/18/00 10:40:31  5-MIN KSTC 181640Z AUTO 25009KT 10SM FEW032 BKN100 19/12 A3001 940 62 1700 250/09 RMK AO2 $
14926KSTC STC20000618104511006/18/00 10:45:31  5-MIN KSTC 181645Z AUTO 24009KT 10SM FEW032 BKN095 18/11 A3001 950 62 1600 240/09 RMK AO2 $
14926KSTC STC20000618105012706/18/00 10:50:31  5-MIN KSTC 181650Z AUTO 26011KT 10SM FEW035 SCT100 18/11 A3001 950 62 1600 250/11 RMK AO2 SLP169 T01830111 $
14926KSTC STC20000618105511006/18/00 10:55:31  5-MIN KSTC 181655Z AUTO 26008KT 10SM FEW035 SCT095 19/12 A3001 950 60 1700 260/08 RMK AO2 $
14926KSTC STC20000618110010306/18/00 11:00:31  5-MIN KSTC 181700Z AUTO 26010KT 10SM FEW034 19/11 A3001 950 58 1700 250/10 RMK AO2 $
14926KSTC STC20000618110511006/18/00 11:05:31  5-MIN KSTC 181705Z AUTO 25010KT 10SM FEW037 SCT095 19/12 A3001 950 60 1700 250/10 RMK AO2 $
14926KSTC STC20000618111011006/18/00 11:10:31  5-MIN KSTC 181710Z AUTO 26010KT 10SM SCT035 SCT100 19/11 A3001 950 60 1700 260/10 RMK AO2 $
14926KSTC STC20000618111511006/18/00 11:15:31  5-MIN KSTC 181715Z AUTO 24009KT 10SM FEW033 SCT043 19/11 A3001 950 58 1700 230/09 RMK AO2 $
14926KSTC STC20000618112011006/18/00 11:20:31  5-MIN KSTC 181720Z AUTO 25011KT 10SM FEW033 SCT043 20/11 A3001 950 56 1800 250/11 RMK AO2 $
14926KSTC STC20000618112511006/18/00 11:25:31  5-MIN KSTC 181725Z AUTO 24008KT 10SM SCT035 BKN044 19/11 A3001 950 58 1700 240/08 RMK AO2 $
14926KSTC STC20000618113012306/18/00 11:30:31  5-MIN KSTC 181730Z AUTO 27011G16KT 10SM BKN035 BKN044 BKN050 20/11 A3001 950 56 1800 270/11G16 RMK AO2 $
14926KSTC STC20000618113511606/18/00 11:35:31  5-MIN KSTC 181735Z AUTO 23010G16KT 10SM BKN038 BKN048 21/11 A3001 950 52 1900 230/10G16 RMK AO2 $
14926KSTC STC20000618114011006/18/00 11:40:31  5-MIN KSTC 181740Z AUTO 26010KT 10SM BKN038 BKN050 20/11 A3000 950 54 1800 250/10 RMK AO2 $
14926KSTC STC20000618114510306/18/00 11:45:31  5-MIN KSTC 181745Z AUTO 24010KT 10SM BKN038 21/11 A3000 950 52 1900 240/10 RMK AO2 $
14926KSTC STC20000618115015806/18/00 11:50:31  5-MIN KSTC 181750Z AUTO 27009KT 10SM SCT038 SCT045 BKN050 21/11 A3001 950 50 1900 270/09 RMK AO2 SLP168 60006 T02110106 10211 20128 58004 $
14926KSTC STC20000618115511006/18/00 11:55:31  5-MIN KSTC 181755Z AUTO 28009KT 10SM BKN040 BKN050 21/11 A3000 950 52 1900 280/09 RMK AO2 $
14926KSTC STC20000618120011706/18/00 12:00:31  5-MIN KSTC 181800Z AUTO 24008KT 10SM SCT040 SCT047 BKN070 21/11 A3000 950 52 1900 240/08 RMK AO2 $
14926KSTC STC20000618120512306/18/00 12:05:31  5-MIN KSTC 181805Z AUTO 25008G16KT 10SM FEW042 SCT049 BKN070 21/10 A3000 950 50 1900 250/08G16 RMK AO2 $
14926KSTC STC20000618121011606/18/00 12:10:31  5-MIN KSTC 181810Z AUTO 27012G16KT 10SM FEW042 BKN070 21/09 A3000 950 47 1900 270/12G16 RMK AO2 $
14926KSTC STC20000618121511006/18/00 12:15:31  5-MIN KSTC 181815Z AUTO 28013KT 10SM FEW044 BKN070 21/09 A3000 950 45 1900 280/13 RMK AO2 $
14926KSTC STC20000618122011706/18/00 12:20:31  5-MIN KSTC 181820Z AUTO 28010KT 10SM FEW042 SCT055 OVC070 21/09 A3000 950 48 1900 280/10 RMK AO2 $
14926KSTC STC20000618122511706/18/00 12:25:31  5-MIN KSTC 181825Z AUTO 26012KT 10SM FEW048 SCT055 BKN070 21/09 A3000 950 48 1900 250/12 RMK AO2 $
14926KSTC STC20000618123011706/18/00 12:30:31  5-MIN KSTC 181830Z AUTO 26008KT 10SM FEW050 SCT060 BKN070 21/10 A3000 950 48 1900 250/08 RMK AO2 $
14926KSTC STC20000618123511606/18/00 12:35:31  5-MIN KSTC 181835Z AUTO 25012G17KT 10SM SCT050 BKN070 22/10 A3000 950 47 2000 240/12G17 RMK AO2 $
14926KSTC STC20000618124011006/18/00 12:40:31  5-MIN KSTC 181840Z AUTO 24012KT 10SM SCT050 BKN070 22/09 A3000 950 45 2000 240/12 RMK AO2 $
14926KSTC STC20000618124512306/18/00 12:45:31  5-MIN KSTC 181845Z AUTO 24010G17KT 10SM SCT050 SCT060 BKN070 22/09 A3000 950 45 2000 230/10G17 RMK AO2 $
14926KSTC STC20000618125012006/18/00 12:50:31  5-MIN KSTC 181850Z AUTO 24010KT 10SM SCT050 22/09 A3000 960 45 2000 230/10 RMK AO2 SLP165 T02170094 $
14926KSTC STC20000618125512506/18/00 12:55:31  5-MIN KSTC 181855Z AUTO 24012G19KT 210V280 10SM FEW050 22/09 A3000 960 43 2000 240/12G19 210V280 RMK AO2 $
14926KSTC STC20000618130012506/18/00 13:00:31  5-MIN KSTC 181900Z AUTO 26009G19KT 200V290 10SM FEW050 22/08 A3000 960 42 2000 260/09G19 200V290 RMK AO2 $
14926KSTC STC20000618130510906/18/00 13:05:31  5-MIN KSTC 181905Z AUTO 25012G17KT 10SM FEW050 22/09 A3000 960 43 2000 240/12G17 RMK AO2 $
14926KSTC STC20000618131010906/18/00 13:10:31  5-MIN KSTC 181910Z AUTO 24014G17KT 10SM FEW050 22/09 A2999 960 43 2100 240/14G17 RMK AO2 $
14926KSTC STC20000618131510006/18/00 13:15:31  5-MIN KSTC 181915Z AUTO 24010KT 10SM CLR 22/08 A2999 960 42 2000 230/10 RMK AO2 $
14926KSTC STC20000618132010906/18/00 13:20:31  5-MIN KSTC 181920Z AUTO 24013G19KT 10SM FEW055 22/09 A2999 960 43 2000 230/13G19 RMK AO2 $
14926KSTC STC20000618132510906/18/00 13:25:31  5-MIN KSTC 181925Z AUTO 27011G20KT 10SM FEW055 23/09 A2999 960 40 2100 260/11G20 RMK AO2 $
14926KSTC STC20000618133010906/18/00 13:30:31  5-MIN KSTC 181930Z AUTO 28011G20KT 10SM FEW060 22/09 A2999 960 43 2000 270/11G20 RMK AO2 $
14926KSTC STC20000618133510306/18/00 13:35:31  5-MIN KSTC 181935Z AUTO 26010KT 10SM SCT060 22/09 A2999 960 42 2100 250/10 RMK AO2 $
14926KSTC STC20000618134010306/18/00 13:40:31  5-MIN KSTC 181940Z AUTO 25011KT 10SM FEW055 22/08 A2999 960 39 2100 250/11 RMK AO2 $
14926KSTC STC20000618134510306/18/00 13:45:31  5-MIN KSTC 181945Z AUTO 27012KT 10SM FEW055 22/08 A2999 960 39 2100 270/12 RMK AO2 $
14926KSTC STC20000618135012006/18/00 13:50:31  5-MIN KSTC 181950Z AUTO 27013KT 10SM FEW060 23/08 A2999 970 39 2100 270/13 RMK AO2 SLP160 T02280083 $
14926KSTC STC20000618135510306/18/00 13:55:31  5-MIN KSTC 181955Z AUTO 26010KT 10SM FEW060 22/08 A2998 970 40 2100 250/10 RMK AO2 $
14926KSTC STC20000618140010306/18/00 14:00:31  5-MIN KSTC 182000Z AUTO 26010KT 10SM FEW060 23/09 A2998 970 40 2100 260/10 RMK AO2 $
14926KSTC STC20000618140510306/18/00 14:05:31  5-MIN KSTC 182005Z AUTO 29009KT 10SM FEW060 22/08 A2998 970 40 2100 280/09 RMK AO2 $
14926KSTC STC20000618141010306/18/00 14:10:31  5-MIN KSTC 182010Z AUTO 24009KT 10SM SCT060 23/08 A2998 970 39 2100 230/09 RMK AO2 $
14926KSTC STC20000618141510306/18/00 14:15:31  5-MIN KSTC 182015Z AUTO 23012KT 10SM FEW060 23/08 A2998 970 37 2100 230/12 RMK AO2 $
14926KSTC STC20000618142010906/18/00 14:20:31  5-MIN KSTC 182020Z AUTO 28011G17KT 10SM FEW060 23/08 A2998 970 37 2100 280/11G17 RMK AO2 $
14926KSTC STC20000618142510306/18/00 14:25:31  5-MIN KSTC 182025Z AUTO 27011KT 10SM FEW060 23/08 A2998 970 39 2100 270/11 RMK AO2 $
14926KSTC STC20000618143010306/18/00 14:30:31  5-MIN KSTC 182030Z AUTO 26012KT 10SM SCT065 23/09 A2998 970 40 2100 250/12 RMK AO2 $
14926KSTC STC20000618143510306/18/00 14:35:31  5-MIN KSTC 182035Z AUTO 26010KT 10SM FEW065 23/08 A2998 970 39 2100 260/10 RMK AO2 $
14926KSTC STC20000618144010306/18/00 14:40:31  5-MIN KSTC 182040Z AUTO 24012KT 10SM FEW070 23/09 A2998 970 40 2100 240/12 RMK AO2 $
14926KSTC STC20000618144510306/18/00 14:45:31  5-MIN KSTC 182045Z AUTO 27008KT 10SM FEW070 23/09 A2998 970 40 2100 270/08 RMK AO2 $
14926KSTC STC20000618145012606/18/00 14:50:31  5-MIN KSTC 182050Z AUTO 26011KT 10SM FEW065 23/09 A2998 970 40 2100 260/11 RMK AO2 SLP158 T02280089 56002 $
14926KSTC STC20000618145510306/18/00 14:55:31  5-MIN KSTC 182055Z AUTO 23009KT 10SM FEW060 22/08 A2998 970 40 2100 230/09 RMK AO2 $
14926KSTC STC20000618150010306/18/00 15:00:31  5-MIN KSTC 182100Z AUTO 26012KT 10SM FEW060 23/09 A2998 970 41 2200 250/12 RMK AO2 $
14926KSTC STC20000618150510306/18/00 15:05:31  5-MIN KSTC 182105Z AUTO 28010KT 10SM FEW060 23/09 A2998 970 39 2200 280/10 RMK AO2 $
14926KSTC STC20000618151010306/18/00 15:10:31  5-MIN KSTC 182110Z AUTO 28011KT 10SM FEW060 23/08 A2998 980 39 2100 280/11 RMK AO2 $
14926KSTC STC20000618151510906/18/00 15:15:31  5-MIN KSTC 182115Z AUTO 24014G18KT 10SM FEW060 23/09 A2998 970 40 2100 240/14G18 RMK AO2 $
14926KSTC STC20000618152011606/18/00 15:20:31  5-MIN KSTC 182120Z AUTO 26012G18KT 10SM SCT060 SCT075 22/08 A2998 970 42 2000 260/12G18 RMK AO2 $
14926KSTC STC20000618152511006/18/00 15:25:31  5-MIN KSTC 182125Z AUTO 25009KT 10SM FEW060 SCT075 22/09 A2998 970 43 2000 250/09 RMK AO2 $
14926KSTC STC20000618153010306/18/00 15:30:31  5-MIN KSTC 182130Z AUTO 23007KT 10SM BKN065 22/08 A2997 980 42 2000 230/07 RMK AO2 $
14926KSTC STC20000618153511006/18/00 15:35:31  5-MIN KSTC 182135Z AUTO 26008KT 10SM SCT060 BKN075 22/08 A2997 980 40 2100 250/08 RMK AO2 $
14926KSTC STC20000618154011606/18/00 15:40:31  5-MIN KSTC 182140Z AUTO 27010G15KT 10SM FEW060 BKN075 23/08 A2997 980 39 2100 270/10G15 RMK AO2 $
14926KSTC STC20000618154510306/18/00 15:45:31  5-MIN KSTC 182145Z AUTO 28011KT 10SM SCT070 23/08 A2997 980 38 2200 270/11 RMK AO2 $
14926KSTC STC20000618155012706/18/00 15:50:31  5-MIN KSTC 182150Z AUTO 27012KT 10SM FEW060 SCT075 23/08 A2997 980 38 2200 270/12 RMK AO2 SLP156 T02330083 $
14926KSTC STC20000618155510306/18/00 15:55:31  5-MIN KSTC 182155Z AUTO 27014KT 10SM SCT065 23/08 A2997 980 38 2200 260/14 RMK AO2 $
14926KSTC STC20000618160010306/18/00 16:00:31  5-MIN KSTC 182200Z AUTO 27010KT 10SM FEW060 22/08 A2997 980 39 2100 260/10 RMK AO2 $
14926KSTC STC20000618160510306/18/00 16:05:31  5-MIN KSTC 182205Z AUTO 26013KT 10SM FEW070 23/08 A2997 980 39 2100 250/13 RMK AO2 $
14926KSTC STC20000618161010306/18/00 16:10:31  5-MIN KSTC 182210Z AUTO 25011KT 10SM SCT070 22/08 A2997 980 40 2100 240/11 RMK AO2 $
14926KSTC STC20000618161510306/18/00 16:15:31  5-MIN KSTC 182215Z AUTO 24010KT 10SM FEW070 23/08 A2997 980 39 2100 240/10 RMK AO2 $
14926KSTC STC20000618162010306/18/00 16:20:31  5-MIN KSTC 182220Z AUTO 26010KT 10SM FEW070 23/08 A2997 980 39 2100 260/10 RMK AO2 $
14926KSTC STC20000618162510306/18/00 16:25:31  5-MIN KSTC 182225Z AUTO 25010KT 10SM FEW070 23/08 A2998 980 39 2100 250/10 RMK AO2 $
14926KSTC STC20000618163010306/18/00 16:30:31  5-MIN KSTC 182230Z AUTO 25013KT 10SM FEW070 22/08 A2997 980 39 2100 240/13 RMK AO2 $
14926KSTC STC20000618163510006/18/00 16:35:31  5-MIN KSTC 182235Z AUTO 24011KT 10SM CLR 23/08 A2997 980 37 2100 240/11 RMK AO2 $
14926KSTC STC20000618164010006/18/00 16:40:31  5-MIN KSTC 182240Z AUTO 23010KT 10SM CLR 23/08 A2997 980 39 2100 230/10 RMK AO2 $
14926KSTC STC20000618164510606/18/00 16:45:31  5-MIN KSTC 182245Z AUTO 26012G17KT 10SM CLR 23/07 A2997 980 36 2100 260/12G17 RMK AO2 $
14926KSTC STC20000618165011706/18/00 16:50:31  5-MIN KSTC 182250Z AUTO 28011KT 10SM CLR 23/07 A2997 980 36 2100 270/11 RMK AO2 SLP155 T02280072 $
14926KSTC STC20000618165510306/18/00 16:55:31  5-MIN KSTC 182255Z AUTO 28011KT 10SM FEW065 23/08 A2997 980 36 2200 280/11 RMK AO2 $
14926KSTC STC20000618170010306/18/00 17:00:31  5-MIN KSTC 182300Z AUTO 26012KT 10SM FEW065 23/08 A2997 980 37 2200 260/12 RMK AO2 $
14926KSTC STC20000618170510006/18/00 17:05:31  5-MIN KSTC 182305Z AUTO 26010KT 10SM CLR 23/07 A2997 980 36 2200 260/10 RMK AO2 $
14926KSTC STC20000618171010006/18/00 17:10:31  5-MIN KSTC 182310Z AUTO 26009KT 10SM CLR 22/08 A2996 990 40 2100 260/09 RMK AO2 $
14926KSTC STC20000618171510006/18/00 17:15:31  5-MIN KSTC 182315Z AUTO 27007KT 10SM CLR 22/08 A2996 990 40 2100 270/07 RMK AO2 $
14926KSTC STC20000618172010006/18/00 17:20:31  5-MIN KSTC 182320Z AUTO 26009KT 10SM CLR 23/08 A2996 990 39 2200 260/09 RMK AO2 $
14926KSTC STC20000618172510006/18/00 17:25:31  5-MIN KSTC 182325Z AUTO 26012KT 10SM CLR 23/08 A2996 990 39 2200 250/12 RMK AO2 $
14926KSTC STC20000618173010006/18/00 17:30:31  5-MIN KSTC 182330Z AUTO 27010KT 10SM CLR 22/08 A2996 990 39 2100 270/10 RMK AO2 $
14926KSTC STC20000618173510006/18/00 17:35:31  5-MIN KSTC 182335Z AUTO 26008KT 10SM CLR 22/08 A2996 990 42 2000 260/08 RMK AO2 $
14926KSTC STC20000618174010106/18/00 17:40:31  5-MIN KSTC 182340Z AUTO 29007KT 10SM CLR 22/08 A2995 1000 42 2000 290/07 RMK AO2 $
14926KSTC STC20000618174510006/18/00 17:45:31  5-MIN KSTC 182345Z AUTO 29005KT 10SM CLR 22/08 A2996 990 42 2000 290/05 RMK AO2 $
14926KSTC STC20000618175013506/18/00 17:50:31  5-MIN KSTC 182350Z AUTO VRB05KT 10SM CLR 22/08 A2996 990 42 2000 VRB/05 RMK AO2 SLP152 T02170083 10233 20206 56009 $
14926KSTC STC20000618175510006/18/00 17:55:31  5-MIN KSTC 182355Z AUTO 25006KT 10SM CLR 22/08 A2996 990 42 2000 250/06 RMK AO2 $
14926KSTC STC20000618180010006/18/00 18:00:31  5-MIN KSTC 190000Z AUTO 26006KT 10SM CLR 22/08 A2996 990 42 2000 260/06 RMK AO2 $
14926KSTC STC20000618180510006/18/00 18:05:31  5-MIN KSTC 190005Z AUTO 26005KT 10SM CLR 22/09 A2996 990 43 2000 260/05 RMK AO2 $
14926KSTC STC20000618181010006/18/00 18:10:31  5-MIN KSTC 190010Z AUTO 25006KT 10SM CLR 21/09 A2996 990 45 2000 250/06 RMK AO2 $
14926KSTC STC20000618181510006/18/00 18:15:31  5-MIN KSTC 190015Z AUTO 27006KT 10SM CLR 21/09 A2996 990 45 2000 270/06 RMK AO2 $
14926KSTC STC20000618182010006/18/00 18:20:31  5-MIN KSTC 190020Z AUTO 31006KT 10SM CLR 21/09 A2996 990 45 2000 310/06 RMK AO2 $
14926KSTC STC20000618182510006/18/00 18:25:31  5-MIN KSTC 190025Z AUTO 31005KT 10SM CLR 21/09 A2995 990 47 2000 310/05 RMK AO2 $
14926KSTC STC20000618183010106/18/00 18:30:31  5-MIN KSTC 190030Z AUTO 31007KT 10SM CLR 21/09 A2995 1000 46 1900 310/07 RMK AO2 $
14926KSTC STC20000618183510106/18/00 18:35:31  5-MIN KSTC 190035Z AUTO 31007KT 10SM CLR 21/09 A2995 1000 46 1900 310/07 RMK AO2 $
14926KSTC STC20000618184010106/18/00 18:40:31  5-MIN KSTC 190040Z AUTO 32005KT 10SM CLR 20/09 A2995 1000 48 1900 320/05 RMK AO2 $
14926KSTC STC20000618184510106/18/00 18:45:31  5-MIN KSTC 190045Z AUTO 32005KT 10SM CLR 20/09 A2995 1000 48 1900 310/05 RMK AO2 $
14926KSTC STC20000618185011806/18/00 18:50:31  5-MIN KSTC 190050Z AUTO 33004KT 10SM CLR 20/09 A2995 1000 48 1900 320/04 RMK AO2 SLP149 T02000089 $
14926KSTC STC20000618185510106/18/00 18:55:31  5-MIN KSTC 190055Z AUTO 34003KT 10SM CLR 21/09 A2995 1000 46 1900 330/03 RMK AO2 $
14926KSTC STC20000618190010106/18/00 19:00:31  5-MIN KSTC 190100Z AUTO 00000KT 10SM CLR 21/09 A2995 1000 46 1900 000/00 RMK AO2 $
14926KSTC STC20000618190510106/18/00 19:05:31  5-MIN KSTC 190105Z AUTO 34003KT 10SM CLR 20/09 A2995 1000 50 1900 340/03 RMK AO2 $
14926KSTC STC20000618191010106/18/00 19:10:31  5-MIN KSTC 190110Z AUTO 35003KT 10SM CLR 20/09 A2995 1000 50 1900 350/03 RMK AO2 $
14926KSTC STC20000618191510106/18/00 19:15:31  5-MIN KSTC 190115Z AUTO 35003KT 10SM CLR 19/09 A2995 1000 52 1800 350/03 RMK AO2 $
14926KSTC STC20000618192010106/18/00 19:20:31  5-MIN KSTC 190120Z AUTO 36003KT 10SM CLR 19/09 A2995 1000 52 1800 360/03 RMK AO2 $
14926KSTC STC20000618192510106/18/00 19:25:31  5-MIN KSTC 190125Z AUTO 00000KT 10SM CLR 19/10 A2995 1000 54 1800 000/00 RMK AO2 $
14926KSTC STC20000618193010106/18/00 19:30:31  5-MIN KSTC 190130Z AUTO 00000KT 10SM CLR 19/10 A2995 1000 56 1700 000/00 RMK AO2 $
14926KSTC STC20000618193510106/18/00 19:35:31  5-MIN KSTC 190135Z AUTO 00000KT 10SM CLR 19/10 A2995 1000 56 1700 000/00 RMK AO2 $
14926KSTC STC20000618194010106/18/00 19:40:31  5-MIN KSTC 190140Z AUTO 00000KT 10SM CLR 18/10 A2995 1000 58 1700 000/00 RMK AO2 $
14926KSTC STC20000618194510106/18/00 19:45:31  5-MIN KSTC 190145Z AUTO 00000KT 10SM CLR 18/12 A2995 1000 67 1600 000/00 RMK AO2 $
14926KSTC STC20000618195011806/18/00 19:50:31  5-MIN KSTC 190150Z AUTO 00000KT 10SM CLR 18/11 A2995 1000 64 1600 000/00 RMK AO2 SLP150 T01780111 $
14926KSTC STC20000618195510406/18/00 19:55:31  5-MIN KSTC 190155Z AUTO 00000KT 10SM FEW100 18/11 A2995 1000 64 1600 000/00 RMK AO2 $
14926KSTC STC20000618200011106/18/00 20:00:31  5-MIN KSTC 190200Z AUTO 00000KT 10SM FEW100 SCT120 17/11 A2995 1000 67 1500 000/00 RMK AO2 $
14926KSTC STC20000618200511106/18/00 20:05:31  5-MIN KSTC 190205Z AUTO 00000KT 10SM SCT100 SCT120 17/12 A2995 1000 69 1500 000/00 RMK AO2 $
14926KSTC STC20000618201011006/18/00 20:10:31  5-MIN KSTC 190210Z AUTO 03003KT 10SM SCT100 BKN120 17/12 A2995 990 72 1500 030/03 RMK AO2 $
14926KSTC STC20000618201510306/18/00 20:15:31  5-MIN KSTC 190215Z AUTO 03003KT 10SM BKN110 18/13 A2996 990 72 1600 030/03 RMK AO2 $
14926KSTC STC20000618202011006/18/00 20:20:31  5-MIN KSTC 190220Z AUTO 02004KT 10SM BKN100 OVC120 17/13 A2996 990 75 1500 010/04 RMK AO2 $
14926KSTC STC20000618202510306/18/00 20:25:31  5-MIN KSTC 190225Z AUTO 01004KT 10SM OVC110 17/12 A2996 990 69 1500 010/04 RMK AO2 $
14926KSTC STC20000618203010306/18/00 20:30:31  5-MIN KSTC 190230Z AUTO 04003KT 10SM OVC110 18/11 A2996 990 64 1600 040/03 RMK AO2 $
14926KSTC STC20000618203511006/18/00 20:35:31  5-MIN KSTC 190235Z AUTO 00000KT 10SM BKN100 OVC120 18/11 A2996 990 60 1600 000/00 RMK AO2 $
14926KSTC STC20000618204010306/18/00 20:40:31  5-MIN KSTC 190240Z AUTO 05003KT 10SM OVC110 18/11 A2996 990 64 1600 050/03 RMK AO2 $
14926KSTC STC20000618204511006/18/00 20:45:31  5-MIN KSTC 190245Z AUTO 05004KT 10SM BKN100 OVC110 17/12 A2996 990 69 1500 050/04 RMK AO2 $
14926KSTC STC20000618205013306/18/00 20:50:31  5-MIN KSTC 190250Z AUTO 06003KT 10SM SCT090 OVC110 18/11 A2997 980 62 1600 060/03 RMK AO2 SLP156 T01780106 58006 $
14926KSTC STC20000618205512606/18/00 20:55:31  5-MIN KSTC 190255Z AUTO 05004KT 10SM -RA SCT085 OVC110 18/11 A2997 980 62 1600 050/04 RMK AO2 RAB54 P0000 $
14926KSTC STC20000618210013706/18/00 21:00:31  5-MIN KSTC 190300Z AUTO 00000KT 10SM -TSRA SCT090 BKN110 17/12 A2997 980 72 1400 000/00 RMK AO2 TSB0256RAB0254 P0000 $
14926KSTC STC20000618210513706/18/00 21:05:31  5-MIN KSTC 190305Z AUTO 06004KT 10SM TS BKN090 BKN110 17/12 A2997 980 75 1400 050/04 RMK AO2 TSB0256RAB0254E05 P0000 $
14926KSTC STC20000618211013706/18/00 21:10:31  5-MIN KSTC 190310Z AUTO 00000KT 10SM -TSRA BKN090 OVC110 16/12 A2997 980 77 1400 000/00 RMK AO2 TSB0256RAB0254 P0001 $
14926KSTC STC20000618211513706/18/00 21:15:31  5-MIN KSTC 190315Z AUTO 00000KT 10SM -TSRA BKN085 OVC110 17/12 A2998 970 75 1400 000/00 RMK AO2 TSB0256RAB0254 P0001 $
14926KSTC STC20000618212014406/18/00 21:20:31  5-MIN KSTC 190320Z AUTO 06004KT 10SM -TSRA BKN080 BKN095 BKN110 17/13 A2997 980 77 1400 060/04 RMK AO2 TSB0256RAB0254 P0001 $
14926KSTC STC20000618212514406/18/00 21:25:31  5-MIN KSTC 190325Z AUTO 11003KT 10SM -TSRA SCT080 BKN095 BKN110 16/13 A2997 980 86 1300 100/03 RMK AO2 TSB0256RAB0254 P0001 $
14926KSTC STC20000618213013706/18/00 21:30:31  5-MIN KSTC 190330Z AUTO 08003KT 10SM TS BKN080 BKN100 16/12 A2998 970 77 1400 070/03 RMK AO2 TSB0256RAB0254E30 P0001 $
14926KSTC STC20000618213513706/18/00 21:35:31  5-MIN KSTC 190335Z AUTO 00000KT 10SM TS BKN075 OVC095 16/13 A2998 970 80 1400 000/00 RMK AO2 TSB0256RAB0254E30 P0001 $
14926KSTC STC20000618214014306/18/00 21:40:31  5-MIN KSTC 190340Z AUTO 08005KT 6SM -TSRA FEW024 BKN075 OVC095 16/13 A2997 980 83 1300 080/05 RMK AO2 TSB0256RAB0254 P0006 $
14926KSTC STC20000618214514606/18/00 21:45:31  5-MIN KSTC 190345Z AUTO 10004KT 6SM -TSRA BR SCT022 BKN075 OVC095 15/13 A2997 980 90 1200 100/04 RMK AO2 TSB0256RAB0254 P0006 $
14926KSTC STC20000618215015406/18/00 21:50:31  5-MIN KSTC 190350Z AUTO 08004KT 10SM -TSRA FEW018 OVC075 15/13 A2997 980 86 1200 070/04 RMK AO2 TSB0256RAB0254 SLP157 P0006 T01500128 $
14926KSTC STC20000618215512806/18/00 21:55:31  5-MIN KSTC 190355Z AUTO 08004KT 10SM -TSRA FEW020 OVC075 16/13 A2997 980 83 1300 080/04 RMK AO2 RAB55 P0000 $
14926KSTC STC20000618220013006/18/00 22:00:31  5-MIN KSTC 190400Z AUTO 08004KT 10SM -TSRA FEW020 OVC075 15/13 A2997 980 90 1200 070/04 RMK AO2 RAB0355 P0001 $
14926KSTC STC20000618220513006/18/00 22:05:31  5-MIN KSTC 190405Z AUTO 00000KT 10SM -TSRA FEW020 OVC075 16/13 A2998 970 86 1300 000/00 RMK AO2 RAB0355 P0001 $
14926KSTC STC20000618221013706/18/00 22:10:31  5-MIN KSTC 190410Z AUTO 13006KT 10SM -TSRA FEW032 BKN070 OVC085 16/13 A2996 990 83 1300 120/06 RMK AO2 RAB0355 P0001 $
14926KSTC STC20000618221513606/18/00 22:15:31  5-MIN KSTC 190415Z AUTO 12006KT 8SM -TSRA FEW031 BKN070 OVC085 16/12 A2997 980 80 1300 110/06 RMK AO2 RAB0355 P0003 $
14926KSTC STC20000618222013606/18/00 22:20:31  5-MIN KSTC 190420Z AUTO 06003KT 8SM -TSRA FEW027 BKN070 OVC090 16/12 A2998 980 80 1300 060/03 RMK AO2 RAB0355 P0003 $
14926KSTC STC20000618222513006/18/00 22:25:31  5-MIN KSTC 190425Z AUTO 35005KT 10SM -TSRA FEW035 OVC070 15/13 A3000 950 86 1200 350/05 RMK AO2 RAB0355 P0003 $
14926KSTC STC20000618223014406/18/00 22:30:31  5-MIN KSTC 190430Z AUTO 34010KT 10SM -TSRA FEW035 BKN070 OVC085 15/13 A3001 940 86 1200 330/10 RMK AO2 RAB0355 PRESRR P0003 $
14926KSTC STC20000618223513706/18/00 22:35:31  5-MIN KSTC 190435Z AUTO 31008KT 10SM -TSRA FEW035 BKN050 OVC070 16/13 A3001 940 83 1300 310/08 RMK AO2 RAB0355 P0004 $
14926KSTC STC20000618224013506/18/00 22:40:31  5-MIN KSTC 190440Z AUTO 08005KT 6SM TSRA FEW019 BKN050 OVC070 16/13 A2998 970 83 1300 080/05 RMK AO2 RAB0355 P0008 $
14926KSTC STC20000618224513906/18/00 22:45:31  5-MIN KSTC 190445Z AUTO 09007KT 5SM -TSRA BR FEW019 BKN065 OVC085 15/13 A2997 980 86 1200 090/07 RMK AO2 RAB0355 P0009 $
14926KSTC STC20000618225015306/18/00 22:50:31  5-MIN KSTC 190450Z AUTO 02006KT 9SM -TSRA FEW026 BKN065 OVC080 15/12 A2998 970 83 1200 020/06 RMK AO2 RAB0355 SLP161 P0009 T01500122 $
14926KSTC STC20000618225512906/18/00 22:55:31  5-MIN KSTC 190455Z AUTO VRB05KT 10SM -TSRA FEW026 SCT050 OVC070 15/12 A2998 970 83 1200 VRB/05 RMK AO2 P0001 $
14926KSTC STC20000618230012906/18/00 23:00:31  5-MIN KSTC 190500Z AUTO 12008KT 10SM -TSRA FEW026 BKN070 OVC080 14/12 A2996 990 86 1200 110/08 RMK AO2 P0001 $
14926KSTC STC20000618230513206/18/00 23:05:31  5-MIN KSTC 190505Z AUTO 11006KT 10SM TS FEW026 BKN070 OVC095 14/12 A2998 970 86 1200 110/06 RMK AO2 RAE04 P0001 $
14926KSTC STC20000618231013206/18/00 23:10:31  5-MIN KSTC 190510Z AUTO 34010KT 10SM TS BKN060 OVC075 14/12 A3001 940 83 1100 340/10 RMK AO2 RAE04 PRESRR P0001 $
14926KSTC STC20000618231512906/18/00 23:15:31  5-MIN KSTC 190515Z AUTO 35006KT 10SM -TSRA BKN065 OVC075 14/12 A3002 930 83 1100 340/06 RMK AO2 PRESRR P0001 $
14926KSTC STC20000618232011506/18/00 23:20:31  5-MIN KSTC 190520Z AUTO 03005KT 10SM -TSRA OVC065 14/12 A3001 950 83 1100 030/05 RMK AO2 P0001 $
14926KSTC STC20000618232512006/18/00 23:25:31  5-MIN KSTC 190525Z AUTO 06006KT 8SM TSRA FEW026 OVC060 14/12 A3000 950 90 1100 060/06 RMK AO2 P0004 $
14926KSTC STC20000618233012306/18/00 23:30:31  5-MIN KSTC 190530Z AUTO 13006KT 5SM TSRA BR SCT024 OVC060 14/12 A2998 970 90 1100 130/06 RMK AO2 P0007 $
14926KSTC STC20000618233512406/18/00 23:35:31  5-MIN KSTC 190535Z AUTO 12007KT 3SM +TSRA BR SCT020 OVC065 14/12 A2998 970 90 1100 120/07 RMK AO2 P0014 $
14926KSTC STC20000618234012406/18/00 23:40:31  5-MIN KSTC 190540Z AUTO 04007KT 3SM +TSRA BR BKN020 OVC060 13/12 A2999 970 89 1000 040/07 RMK AO2 P0016 $
14926KSTC STC20000618234512406/18/00 23:45:31  5-MIN KSTC 190545Z AUTO VRB06KT 5SM -TSRA BR BKN022 OVC065 13/12 A3000 950 89 1000 VRB/06 RMK AO2 P0017 $
14926KSTC STC20000618235017506/18/00 23:50:31  5-MIN KSTC 190550Z AUTO 35009KT 5SM -TSRA BR SCT024 OVC070 13/12 A3003 930 89 1000 350/09 RMK AO2 SLP176 P0020 60036 T01330117 10217 20133 402330122 53003 $
14926KSTC STC20000618235513006/18/00 23:55:31  5-MIN KSTC 190555Z AUTO 02007KT 4SM TSRA BR SCT022 BKN043 OVC070 13/12 A3002 940 89 1000 020/07 RMK AO2 P0001 $
14926KSTC STC20000619000013106/19/00 00:00:31  5-MIN KSTC 190600Z AUTO 36005KT 3SM +TSRA BR SCT020 BKN032 OVC065 13/12 A3001 940 93 1000 350/05 RMK AO2 P0005 $
14926KSTC STC20000619000513406/19/00 00:05:31  5-MIN KSTC 190605Z AUTO 10008KT 4SM RA BR SCT022 BKN032 OVC065 13/12 A2998 970 93 1000 100/08 RMK AO2 TSE01 P0006 $
14926KSTC STC20000619001013406/19/00 00:10:31  5-MIN KSTC 190610Z AUTO 06008KT 4SM RA BR SCT024 BKN046 OVC065 13/12 A2999 970 93 1000 050/08 RMK AO2 TSE01 P0008 $
14926KSTC STC20000619001513406/19/00 00:15:31  5-MIN KSTC 190615Z AUTO 04006KT 5SM -RA BR SCT026 BKN046 OVC065 13/12 A3001 950 93 900 040/06 RMK AO2 TSE01 P0009 $
14926KSTC STC20000619002012806/19/00 00:20:31  5-MIN KSTC 190620Z AUTO 11005KT 6SM -RA BR SCT028 OVC060 13/12 A3001 950 89 1000 110/05 RMK AO2 TSE01 P0010 $
14926KSTC STC20000619002513406/19/00 00:25:31  5-MIN KSTC 190625Z AUTO 10006KT 5SM RA BR BKN025 BKN031 OVC060 13/12 A3000 960 93 1000 100/06 RMK AO2 TSE01 P0012 $
14926KSTC STC20000619003013506/19/00 00:30:31  5-MIN KSTC 190630Z AUTO 09006KT 4SM -RA BR BKN027 BKN031 OVC060 13/12 A3000 960 93 1000 090/06 RMK AO2 TSE01 P0013 $
14926KSTC STC20000619003513406/19/00 00:35:31  5-MIN KSTC 190635Z AUTO 10007KT 5SM RA BR BKN027 OVC055 13/12 A2998 970 93 1000 090/07 RMK AO2 TSE01 PRESFR P0014 $
14926KSTC STC20000619004014606/19/00 00:40:31  5-MIN KSTC 190640Z AUTO 10008KT 5SM TSRA BR BKN027 BKN055 OVC065 13/12 A2998 970 93 1000 090/08 RMK AO2 TSE01B40 PRESFR P0015 $
14926KSTC STC20000619004514006/19/00 00:45:31  5-MIN KSTC 190645Z AUTO 08008KT 6SM -TSRA BR BKN027 BKN050 OVC070 13/12 A2998 970 93 1000 080/08 RMK AO2 TSE01B40 P0016 $
14926KSTC STC20000619005015006/19/00 00:50:31  5-MIN KSTC 190650Z AUTO 09008KT 6SM -TSRA BR BKN027 OVC070 13/12 A2998 970 96 1000 090/08 RMK AO2 TSE01B40 SLP159 P0018 T01280122 $
14926KSTC STC20000619005513106/19/00 00:55:31  5-MIN KSTC 190655Z AUTO 10007KT 6SM -TSRA BR BKN029 BKN060 OVC070 13/12 A2998 970 96 1000 100/07 RMK AO2 P0000 $
14926KSTC STC20000619010013406/19/00 01:00:31  5-MIN KSTC 190700Z AUTO 07004KT 9SM -RA SCT027 BKN055 OVC070 13/12 A2999 970 96 1000 060/04 RMK AO2 TSE0656 P0000 $
14926KSTC STC20000619010513706/19/00 01:05:31  5-MIN KSTC 190705Z AUTO 10008KT 6SM -RA BR SCT025 BKN055 OVC070 13/12 A2997 980 96 1000 100/08 RMK AO2 TSE0656 P0004 $
14926KSTC STC20000619011013706/19/00 01:10:31  5-MIN KSTC 190710Z AUTO VRB03KT 3SM +RA BR SCT021 BKN055 OVC070 13/12 A2999 960 96 1000 VRB/03 RMK AO2 TSE0656 P0008 $
14926KSTC STC20000619011513706/19/00 01:15:31  5-MIN KSTC 190715Z AUTO 00000KT 4SM -RA BR FEW019 BKN055 OVC090 13/12 A2999 960 96 1000 000/00 RMK AO2 TSE0656 P0008 $
14926KSTC STC20000619012013506/19/00 01:20:31  5-MIN KSTC 190720Z AUTO 14006KT 10SM -RA FEW020 BKN055 OVC095 13/12 A2998 970 96 1000 140/06 RMK AO2 TSE0656 P0008 $
14926KSTC STC20000619012513606/19/00 01:25:31  5-MIN KSTC 190725Z AUTO 14007KT 10SM FEW020 BKN080 OVC095 13/12 A2998 970 96 1000 140/07 RMK AO2 TSE0656RAE22 P0008 $
14926KSTC STC20000619013013606/19/00 01:30:31  5-MIN KSTC 190730Z AUTO 12004KT 10SM FEW020 BKN080 OVC095 13/12 A2999 970 96 1000 120/04 RMK AO2 TSE0656RAE22 P0008 $
14926KSTC STC20000619013513606/19/00 01:35:31  5-MIN KSTC 190735Z AUTO 00000KT 10SM FEW055 BKN075 OVC090 13/12 A3000 950 96 1000 000/00 RMK AO2 TSE0656RAE22 P0008 $
14926KSTC STC20000619014014306/19/00 01:40:31  5-MIN KSTC 190740Z AUTO 21003KT 10SM FEW055 BKN075 OVC095 13/12 A3001 940 93 1000 210/03 RMK AO2 TSE0656RAE22 PRESRR P0008 $
14926KSTC STC20000619014513606/19/00 01:45:31  5-MIN KSTC 190745Z AUTO 28003KT 10SM FEW050 BKN075 OVC090 13/12 A3001 950 93 1000 280/03 RMK AO2 TSE0656RAE22 P0008 $
14926KSTC STC20000619015015306/19/00 01:50:31  5-MIN KSTC 190750Z AUTO 12003KT 10SM FEW050 BKN070 OVC090 13/12 A2999 960 93 1000 110/03 RMK AO2 TSE0656RAE22 SLP163 P0008 T01330122 $
14926KSTC STC20000619015513306/19/00 01:55:31  5-MIN KSTC 190755Z AUTO 09003KT 10SM -RA FEW050 BKN075 OVC120 13/12 A2999 960 93 1000 080/03 RMK AO2 RAB54 P0000 $
14926KSTC STC20000619020013506/19/00 02:00:31  5-MIN KSTC 190800Z AUTO 02004KT 10SM -RA FEW050 SCT075 BKN090 13/12 A2999 960 96 1000 020/04 RMK AO2 RAB0754 P0000 $
14926KSTC STC20000619020513406/19/00 02:05:31  5-MIN KSTC 190805Z AUTO 08003KT 10SM FEW050 SCT070 BKN120 13/12 A2999 960 96 1000 080/03 RMK AO2 RAB0754E05 P0000 $
14926KSTC STC20000619021013406/19/00 02:10:31  5-MIN KSTC 190810Z AUTO 08003KT 10SM FEW050 SCT085 SCT120 13/12 A2999 960 96 1000 080/03 RMK AO2 RAB0754E05 P0000 $
14926KSTC STC20000619021513406/19/00 02:15:31  5-MIN KSTC 190815Z AUTO 09004KT 10SM FEW007 SCT085 SCT120 13/12 A2999 960 96 1000 090/04 RMK AO2 RAB0754E05 P0000 $
14926KSTC STC20000619022014206/19/00 02:20:31  5-MIN KSTC 190820Z AUTO 06004KT 10SM TS FEW007 SCT085 SCT120 13/12 A2999 960 96 1000 060/04 RMK AO2 TSB20RAB0754E05 P0000 $
14926KSTC STC20000619022513506/19/00 02:25:31  5-MIN KSTC 190825Z AUTO 06003KT 10SM TS SCT007 SCT085 13/12 A2999 960 93 1000 060/03 RMK AO2 TSB20RAB0754E05 P0000 $
14926KSTC STC20000619023014206/19/00 02:30:31  5-MIN KSTC 190830Z AUTO 00000KT 10SM TS SCT007 BKN085 BKN120 13/12 A2999 960 93 1000 000/00 RMK AO2 TSB20RAB0754E05 P0000 $
14926KSTC STC20000619023514206/19/00 02:35:31  5-MIN KSTC 190835Z AUTO 08004KT 10SM TS SCT007 SCT080 BKN120 13/12 A2999 960 96 1000 070/04 RMK AO2 TSB20RAB0754E05 P0000 $
14926KSTC STC20000619024014206/19/00 02:40:31  5-MIN KSTC 190840Z AUTO 12004KT 10SM TS SCT007 SCT080 BKN120 13/12 A2998 970 93 1000 120/04 RMK AO2 TSB20RAB0754E05 P0000 $
14926KSTC STC20000619024513506/19/00 02:45:31  5-MIN KSTC 190845Z AUTO 12003KT 10SM TS FEW007 SCT120 13/12 A2999 970 93 1000 120/03 RMK AO2 TSB20RAB0754E05 P0000 $
14926KSTC STC20000619025016306/19/00 02:50:31  5-MIN KSTC 190850Z AUTO 00000KT 10SM TS FEW007 SCT120 12/12 A2999 960 96 900 000/00 RMK AO2 TSB20RAB0754E05 SLP164 P0000 60026 T01220117 53016 $
14926KSTC STC20000619025510206/19/00 02:55:31  5-MIN KSTC 190855Z AUTO 04004KT 10SM FEW120 12/12 A3000 960 96 900 040/04 RMK AO2 $
14926KSTC STC20000619030010206/19/00 03:00:31  5-MIN KSTC 190900Z AUTO 04004KT 10SM FEW075 12/12 A3000 950 96 900 040/04 RMK AO2 $
14926KSTC STC20000619030510206/19/00 03:05:31  5-MIN KSTC 190905Z AUTO 04004KT 10SM FEW075 12/12 A3000 950 96 900 040/04 RMK AO2 $
14926KSTC STC20000619031010206/19/00 03:10:31  5-MIN KSTC 190910Z AUTO 03004KT 10SM FEW075 12/12 A3000 950 96 900 030/04 RMK AO2 $
14926KSTC STC20000619031510906/19/00 03:15:31  5-MIN KSTC 190915Z AUTO 02006KT 10SM FEW004 SCT075 12/12 A3000 950 96 900 020/06 RMK AO2 $
14926KSTC STC20000619032010906/19/00 03:20:31  5-MIN KSTC 190920Z AUTO 07005KT 10SM SCT004 SCT075 12/12 A2999 960 96 900 060/05 RMK AO2 $
14926KSTC STC20000619032510906/19/00 03:25:31  5-MIN KSTC 190925Z AUTO 08006KT 10SM FEW004 SCT075 12/12 A2999 960 96 900 080/06 RMK AO2 $
14926KSTC STC20000619033010206/19/00 03:30:31  5-MIN KSTC 190930Z AUTO 09005KT 10SM FEW004 12/12 A2998 970 96 900 090/05 RMK AO2 $
14926KSTC STC20000619033510206/19/00 03:35:31  5-MIN KSTC 190935Z AUTO 10005KT 10SM FEW004 12/12 A2998 970 96 900 100/05 RMK AO2 $
14926KSTC STC20000619034010206/19/00 03:40:31  5-MIN KSTC 190940Z AUTO 09004KT 10SM FEW004 12/12 A2998 970 96 900 090/04 RMK AO2 $
14926KSTC STC20000619034510206/19/00 03:45:31  5-MIN KSTC 190945Z AUTO VRB03KT 10SM FEW004 12/12 A2998 970 96 900 VRB/03 RMK AO2 $
14926KSTC STC20000619035011906/19/00 03:50:31  5-MIN KSTC 190950Z AUTO 11007KT 10SM FEW004 12/12 A2998 970 96 900 110/07 RMK AO2 SLP159 T01220117 $
14926KSTC STC20000619035510206/19/00 03:55:31  5-MIN KSTC 190955Z AUTO 11007KT 10SM FEW004 12/12 A2999 960 96 900 110/07 RMK AO2 $
14926KSTC STC20000619040010206/19/00 04:00:31  5-MIN KSTC 191000Z AUTO VRB03KT 10SM FEW004 12/12 A2999 960 96 900 VRB/03 RMK AO2 $
14926KSTC STC20000619040511006/19/00 04:05:31  5-MIN KSTC 191005Z AUTO 00000KT 10SM FEW004 SCT044 13/12 A2999 960 93 1000 000/00 RMK AO2 $
14926KSTC STC20000619041011006/19/00 04:10:31  5-MIN KSTC 191010Z AUTO VRB03KT 10SM SCT004 BKN044 13/12 A2999 960 93 1000 VRB/03 RMK AO2 $
14926KSTC STC20000619041510306/19/00 04:15:31  5-MIN KSTC 191015Z AUTO 11004KT 10SM BKN004 13/12 A2998 970 93 1000 110/04 RMK AO2 $
14926KSTC STC20000619042010306/19/00 04:20:31  5-MIN KSTC 191020Z AUTO 10005KT 10SM SCT004 13/12 A2999 970 93 1000 100/05 RMK AO2 $
14926KSTC STC20000619042510906/19/00 04:25:31  5-MIN KSTC 191025Z AUTO 13005KT 10SM SCT004 BKN047 12/12 A2999 970 96 900 120/05 RMK AO2 $
14926KSTC STC20000619043011006/19/00 04:30:31  5-MIN KSTC 191030Z AUTO 12008KT 10SM SCT004 SCT047 13/12 A2998 970 93 1000 110/08 RMK AO2 $
14926KSTC STC20000619043511006/19/00 04:35:31  5-MIN KSTC 191035Z AUTO 11007KT 10SM FEW004 SCT047 13/12 A2998 970 93 1000 110/07 RMK AO2 $
14926KSTC STC20000619044010906/19/00 04:40:31  5-MIN KSTC 191040Z AUTO 11006KT 10SM FEW004 SCT047 12/12 A2998 970 96 900 110/06 RMK AO2 $
14926KSTC STC20000619044510206/19/00 04:45:31  5-MIN KSTC 191045Z AUTO 11007KT 10SM FEW004 12/12 A2998 970 96 900 110/07 RMK AO2 $
14926KSTC STC20000619045011606/19/00 04:50:31  5-MIN KSTC 191050Z AUTO 11006KT 10SM CLR 12/12 A2998 970 96 900 110/06 RMK AO2 SLP158 T01220117 $
14926KSTC STC20000619045509906/19/00 04:55:31  5-MIN KSTC 191055Z AUTO 12006KT 10SM CLR 12/12 A2998 970 96 900 110/06 RMK AO2 $
14926KSTC STC20000619050010006/19/00 05:00:31  5-MIN KSTC 191100Z AUTO 12007KT 10SM CLR 13/12 A2998 980 93 1000 110/07 RMK AO2 $
14926KSTC STC20000619050510006/19/00 05:05:31  5-MIN KSTC 191105Z AUTO 11006KT 10SM CLR 13/12 A2997 980 93 1000 100/06 RMK AO2 $
14926KSTC STC20000619051010006/19/00 05:10:31  5-MIN KSTC 191110Z AUTO 11006KT 10SM CLR 13/12 A2997 980 93 1000 110/06 RMK AO2 $
14926KSTC STC20000619051510006/19/00 05:15:31  5-MIN KSTC 191115Z AUTO 11006KT 10SM CLR 13/12 A2997 980 96 1000 110/06 RMK AO2 $
14926KSTC STC20000619052010006/19/00 05:20:31  5-MIN KSTC 191120Z AUTO 11006KT 10SM CLR 13/12 A2997 980 93 1000 110/06 RMK AO2 $
14926KSTC STC20000619052510006/19/00 05:25:31  5-MIN KSTC 191125Z AUTO 12007KT 10SM CLR 13/12 A2997 980 93 1100 120/07 RMK AO2 $
14926KSTC STC20000619053010006/19/00 05:30:31  5-MIN KSTC 191130Z AUTO 12005KT 10SM CLR 13/12 A2997 980 93 1100 110/05 RMK AO2 $
14926KSTC STC20000619053510006/19/00 05:35:31  5-MIN KSTC 191135Z AUTO 12007KT 10SM CLR 13/12 A2997 980 93 1100 120/07 RMK AO2 $
14926KSTC STC20000619054010006/19/00 05:40:31  5-MIN KSTC 191140Z AUTO 11005KT 10SM CLR 13/12 A2997 980 93 1100 110/05 RMK AO2 $
14926KSTC STC20000619054510006/19/00 05:45:31  5-MIN KSTC 191145Z AUTO 12005KT 10SM CLR 14/12 A2997 980 90 1100 120/05 RMK AO2 $
14926KSTC STC20000619055014706/19/00 05:50:31  5-MIN KSTC 191150Z AUTO 11006KT 10SM CLR 14/13 A2997 980 93 1100 110/06 RMK AO2 SLP155 60026 70070 T01390128 10139 20122 55007 $
14926KSTC STC20000619055510006/19/00 05:55:31  5-MIN KSTC 191155Z AUTO 13006KT 10SM CLR 14/13 A2997 980 93 1100 120/06 RMK AO2 $
14926KSTC STC20000619060010006/19/00 06:00:31  5-MIN KSTC 191200Z AUTO 13007KT 10SM CLR 14/13 A2997 980 90 1200 120/07 RMK AO2 $
14926KSTC STC20000619060510006/19/00 06:05:31  5-MIN KSTC 191205Z AUTO 13007KT 10SM CLR 14/13 A2997 980 90 1200 130/07 RMK AO2 $
14926KSTC STC20000619061010006/19/00 06:10:31  5-MIN KSTC 191210Z AUTO 13007KT 10SM CLR 14/13 A2997 980 90 1200 130/07 RMK AO2 $
14926KSTC STC20000619061509806/19/00 06:15:31  5-MIN KSTC 191215Z AUTO 13007KT 10SM CLR 15/13 A2997 980 86 1200 130/07 RMK AO2
14926KSTC STC20000619062009806/19/00 06:20:31  5-MIN KSTC 191220Z AUTO 12005KT 10SM CLR 15/13 A2998 970 90 1200 120/05 RMK AO2
14926KSTC STC20000619062509806/19/00 06:25:31  5-MIN KSTC 191225Z AUTO 13007KT 10SM CLR 15/13 A2997 980 90 1200 120/07 RMK AO2
14926KSTC STC20000619063009806/19/00 06:30:31  5-MIN KSTC 191230Z AUTO 13008KT 10SM CLR 15/13 A2997 980 90 1200 120/08 RMK AO2
14926KSTC STC20000619063509806/19/00 06:35:31  5-MIN KSTC 191235Z AUTO 13008KT 10SM CLR 16/13 A2997 980 86 1300 120/08 RMK AO2
14926KSTC STC20000619064009806/19/00 06:40:31  5-MIN KSTC 191240Z AUTO 13009KT 10SM CLR 16/13 A2997 980 86 1300 130/09 RMK AO2
14926KSTC STC20000619064509806/19/00 06:45:31  5-MIN KSTC 191245Z AUTO 13010KT 10SM CLR 16/13 A2998 970 86 1300 130/10 RMK AO2
14926KSTC STC20000619065011506/19/00 06:50:31  5-MIN KSTC 191250Z AUTO 14011KT 10SM CLR 16/13 A2998 970 86 1300 130/11 RMK AO2 SLP159 T01560133
14926KSTC STC20000619065509806/19/00 06:55:31  5-MIN KSTC 191255Z AUTO 14012KT 10SM CLR 16/14 A2998 970 90 1300 140/12 RMK AO2
14926KSTC STC20000619070009806/19/00 07:00:31  5-MIN KSTC 191300Z AUTO 14011KT 10SM CLR 16/14 A2998 970 90 1300 130/11 RMK AO2
14926KSTC STC20000619070509806/19/00 07:05:31  5-MIN KSTC 191305Z AUTO 14011KT 10SM CLR 16/14 A2998 970 90 1300 140/11 RMK AO2
14926KSTC STC20000619071009806/19/00 07:10:31  5-MIN KSTC 191310Z AUTO 14011KT 10SM CLR 16/14 A2998 970 86 1400 140/11 RMK AO2
14926KSTC STC20000619071509806/19/00 07:15:31  5-MIN KSTC 191315Z AUTO 14011KT 10SM CLR 16/14 A2998 970 86 1400 140/11 RMK AO2
14926KSTC STC20000619072009806/19/00 07:20:31  5-MIN KSTC 191320Z AUTO 14010KT 10SM CLR 17/14 A2998 980 83 1400 140/10 RMK AO2
14926KSTC STC20000619072509806/19/00 07:25:31  5-MIN KSTC 191325Z AUTO 15009KT 10SM CLR 17/14 A2998 980 86 1400 150/09 RMK AO2
14926KSTC STC20000619073009806/19/00 07:30:31  5-MIN KSTC 191330Z AUTO 15010KT 10SM CLR 17/14 A2997 980 83 1500 150/10 RMK AO2
14926KSTC STC20000619073509806/19/00 07:35:31  5-MIN KSTC 191335Z AUTO 15011KT 10SM CLR 17/14 A2997 980 80 1500 140/11 RMK AO2
14926KSTC STC20000619074009806/19/00 07:40:31  5-MIN KSTC 191340Z AUTO 15009KT 10SM CLR 17/14 A2997 980 83 1500 140/09 RMK AO2
14926KSTC STC20000619074509806/19/00 07:45:31  5-MIN KSTC 191345Z AUTO 15009KT 10SM CLR 17/14 A2997 980 83 1500 150/09 RMK AO2
14926KSTC STC20000619075011506/19/00 07:50:31  5-MIN KSTC 191350Z AUTO 15009KT 10SM CLR 18/14 A2997 980 81 1600 150/09 RMK AO2 SLP155 T01780144
14926KSTC STC20000619075509806/19/00 07:55:31  5-MIN KSTC 191355Z AUTO 15009KT 10SM CLR 18/14 A2997 980 78 1600 150/09 RMK AO2
14926KSTC STC20000619080009806/19/00 08:00:31  5-MIN KSTC 191400Z AUTO 14011KT 10SM CLR 18/14 A2997 980 78 1600 140/11 RMK AO2
14926KSTC STC20000619080509806/19/00 08:05:31  5-MIN KSTC 191405Z AUTO 14010KT 10SM CLR 18/14 A2997 980 78 1600 140/10 RMK AO2
14926KSTC STC20000619081009806/19/00 08:10:31  5-MIN KSTC 191410Z AUTO 14010KT 10SM CLR 19/14 A2997 980 75 1700 140/10 RMK AO2
14926KSTC STC20000619081509806/19/00 08:15:31  5-MIN KSTC 191415Z AUTO 15010KT 10SM CLR 19/14 A2996 990 75 1700 150/10 RMK AO2
14926KSTC STC20000619082009806/19/00 08:20:31  5-MIN KSTC 191420Z AUTO 15013KT 10SM CLR 19/14 A2997 990 72 1700 150/13 RMK AO2
14926KSTC STC20000619082509806/19/00 08:25:31  5-MIN KSTC 191425Z AUTO 16012KT 10SM CLR 19/14 A2997 980 75 1700 160/12 RMK AO2
14926KSTC STC20000619083009806/19/00 08:30:31  5-MIN KSTC 191430Z AUTO 15010KT 10SM CLR 19/14 A2996 990 72 1700 150/10 RMK AO2
14926KSTC STC20000619083509806/19/00 08:35:31  5-MIN KSTC 191435Z AUTO 14012KT 10SM CLR 19/14 A2996 990 72 1800 140/12 RMK AO2
14926KSTC STC20000619084009806/19/00 08:40:31  5-MIN KSTC 191440Z AUTO 14012KT 10SM CLR 19/14 A2996 990 72 1800 140/12 RMK AO2
14926KSTC STC20000619084509806/19/00 08:45:31  5-MIN KSTC 191445Z AUTO 15012KT 10SM CLR 19/14 A2996 990 72 1800 150/12 RMK AO2
14926KSTC STC20000619085012106/19/00 08:50:31  5-MIN KSTC 191450Z AUTO 15011KT 10SM CLR 19/14 A2996 990 72 1800 150/11 RMK AO2 SLP150 T01940144 56008
14926KSTC STC20000619085509806/19/00 08:55:31  5-MIN KSTC 191455Z AUTO 15012KT 10SM CLR 20/14 A2996 990 70 1800 150/12 RMK AO2
14926KSTC STC20000619090009806/19/00 09:00:31  5-MIN KSTC 191500Z AUTO 16011KT 10SM CLR 21/14 A2996 990 67 1900 160/11 RMK AO2
14926KSTC STC20000619090509906/19/00 09:05:31  5-MIN KSTC 191505Z AUTO 16010KT 10SM CLR 21/14 A2995 1000 67 1900 160/10 RMK AO2
14926KSTC STC20000619091009906/19/00 09:10:31  5-MIN KSTC 191510Z AUTO 14012KT 10SM CLR 21/14 A2995 1000 67 1900 140/12 RMK AO2
14926KSTC STC20000619091509906/19/00 09:15:31  5-MIN KSTC 191515Z AUTO 16012KT 10SM CLR 21/14 A2995 1000 67 1900 160/12 RMK AO2
14926KSTC STC20000619092009906/19/00 09:20:31  5-MIN KSTC 191520Z AUTO 15011KT 10SM CLR 21/14 A2995 1000 65 1900 150/11 RMK AO2
14926KSTC STC20000619092509906/19/00 09:25:31  5-MIN KSTC 191525Z AUTO 16012KT 10SM CLR 21/14 A2995 1000 67 1900 160/12 RMK AO2
14926KSTC STC20000619093009906/19/00 09:30:31  5-MIN KSTC 191530Z AUTO 15010KT 10SM CLR 21/14 A2995 1000 63 2000 150/10 RMK AO2
14926KSTC STC20000619093509906/19/00 09:35:31  5-MIN KSTC 191535Z AUTO 15010KT 10SM CLR 21/14 A2995 1000 65 2000 150/10 RMK AO2
14926KSTC STC20000619094009906/19/00 09:40:31  5-MIN KSTC 191540Z AUTO 14009KT 10SM CLR 22/14 A2995 1000 63 2000 140/09 RMK AO2
14926KSTC STC20000619094509906/19/00 09:45:31  5-MIN KSTC 191545Z AUTO 15012KT 10SM CLR 21/14 A2995 1000 65 2000 150/12 RMK AO2
14926KSTC STC20000619095011606/19/00 09:50:31  5-MIN KSTC 191550Z AUTO 14012KT 10SM CLR 21/14 A2995 1000 65 2000 140/12 RMK AO2 SLP147 T02110144
14926KSTC STC20000619095509906/19/00 09:55:31  5-MIN KSTC 191555Z AUTO 14010KT 10SM CLR 22/15 A2995 1000 65 2000 140/10 RMK AO2
14926KSTC STC20000619100009906/19/00 10:00:31  5-MIN KSTC 191600Z AUTO 14013KT 10SM CLR 22/14 A2995 1000 63 2000 140/13 RMK AO2
14926KSTC STC20000619100509906/19/00 10:05:31  5-MIN KSTC 191605Z AUTO 15013KT 10SM CLR 22/14 A2995 1000 63 2000 140/13 RMK AO2
14926KSTC STC20000619101009906/19/00 10:10:31  5-MIN KSTC 191610Z AUTO 15014KT 10SM CLR 22/14 A2995 1000 63 2000 140/14 RMK AO2
14926KSTC STC20000619101510506/19/00 10:15:31  5-MIN KSTC 191615Z AUTO 16011G19KT 10SM CLR 22/14 A2995 1000 63 2000 150/11G19 RMK AO2
14926KSTC STC20000619102010506/19/00 10:20:31  5-MIN KSTC 191620Z AUTO 16012G19KT 10SM CLR 22/14 A2995 1000 63 2000 160/12G19 RMK AO2
14926KSTC STC20000619102510506/19/00 10:25:31  5-MIN KSTC 191625Z AUTO 16014G18KT 10SM CLR 22/14 A2995 1000 63 2000 150/14G18 RMK AO2
14926KSTC STC20000619103010506/19/00 10:30:31  5-MIN KSTC 191630Z AUTO 15012G18KT 10SM CLR 22/15 A2994 1000 65 2000 140/12G18 RMK AO2
14926KSTC STC20000619103509906/19/00 10:35:31  5-MIN KSTC 191635Z AUTO 15013KT 10SM CLR 22/15 A2995 1000 65 2000 150/13 RMK AO2
14926KSTC STC20000619104009906/19/00 10:40:31  5-MIN KSTC 191640Z AUTO 14013KT 10SM CLR 22/14 A2994 1000 63 2000 140/13 RMK AO2
14926KSTC STC20000619104509906/19/00 10:45:31  5-MIN KSTC 191645Z AUTO 16013KT 10SM CLR 22/15 A2994 1010 63 2100 150/13 RMK AO2
14926KSTC STC20000619105012206/19/00 10:50:31  5-MIN KSTC 191650Z AUTO 16015G18KT 10SM CLR 22/16 A2994 1010 65 2100 150/15G18 RMK AO2 SLP144 T02220156
14926KSTC STC20000619105510506/19/00 10:55:31  5-MIN KSTC 191655Z AUTO 14013G18KT 10SM CLR 22/15 A2994 1010 63 2100 140/13G18 RMK AO2
14926KSTC STC20000619110009906/19/00 11:00:31  5-MIN KSTC 191700Z AUTO 14014KT 10SM CLR 22/15 A2993 1010 63 2100 130/14 RMK AO2
14926KSTC STC20000619110509906/19/00 11:05:31  5-MIN KSTC 191705Z AUTO 15014KT 10SM CLR 22/15 A2994 1010 63 2100 150/14 RMK AO2
14926KSTC STC20000619111009906/19/00 11:10:31  5-MIN KSTC 191710Z AUTO 16015KT 10SM CLR 22/15 A2994 1010 63 2100 160/15 RMK AO2
14926KSTC STC20000619111510506/19/00 11:15:31  5-MIN KSTC 191715Z AUTO 16014G19KT 10SM CLR 23/15 A2994 1010 61 2200 160/14G19 RMK AO2
14926KSTC STC20000619112010506/19/00 11:20:31  5-MIN KSTC 191720Z AUTO 16013G19KT 10SM CLR 23/15 A2994 1010 61 2200 160/13G19 RMK AO2
14926KSTC STC20000619112509906/19/00 11:25:31  5-MIN KSTC 191725Z AUTO 14013KT 10SM CLR 22/15 A2993 1010 63 2100 140/13 RMK AO2
14926KSTC STC20000619113009906/19/00 11:30:31  5-MIN KSTC 191730Z AUTO 15014KT 10SM CLR 23/16 A2993 1020 63 2200 150/14 RMK AO2
14926KSTC STC20000619113509906/19/00 11:35:31  5-MIN KSTC 191735Z AUTO 15015KT 10SM CLR 23/15 A2993 1020 61 2200 140/15 RMK AO2
14926KSTC STC20000619114009906/19/00 11:40:31  5-MIN KSTC 191740Z AUTO 15015KT 10SM CLR 23/16 A2993 1020 63 2200 140/15 RMK AO2
14926KSTC STC20000619114509906/19/00 11:45:31  5-MIN KSTC 191745Z AUTO 15014KT 10SM CLR 23/16 A2993 1020 63 2300 150/14 RMK AO2
14926KSTC STC20000619115013406/19/00 11:50:31  5-MIN KSTC 191750Z AUTO 15013KT 10SM CLR 23/16 A2993 1020 61 2300 140/13 RMK AO2 SLP140 T02330156 10233 20139 58004
14926KSTC STC20000619115509906/19/00 11:55:31  5-MIN KSTC 191755Z AUTO 14012KT 10SM CLR 23/15 A2992 1020 59 2300 130/12 RMK AO2
14926KSTC STC20000619120010506/19/00 12:00:31  5-MIN KSTC 191800Z AUTO 15015G18KT 10SM CLR 23/16 A2993 1020 61 2300 150/15G18 RMK AO2
14926KSTC STC20000619120509906/19/00 12:05:31  5-MIN KSTC 191805Z AUTO 15015KT 10SM CLR 24/16 A2992 1030 59 2300 150/15 RMK AO2
14926KSTC STC20000619121009906/19/00 12:10:31  5-MIN KSTC 191810Z AUTO 15014KT 10SM CLR 24/16 A2992 1030 59 2300 140/14 RMK AO2
14926KSTC STC20000619121509906/19/00 12:15:31  5-MIN KSTC 191815Z AUTO 14014KT 10SM CLR 24/16 A2992 1030 59 2400 140/14 RMK AO2
14926KSTC STC20000619122009906/19/00 12:20:31  5-MIN KSTC 191820Z AUTO 14012KT 10SM CLR 24/16 A2991 1040 59 2400 130/12 RMK AO2
14926KSTC STC20000619122509906/19/00 12:25:31  5-MIN KSTC 191825Z AUTO 14014KT 10SM CLR 24/16 A2991 1040 59 2300 140/14 RMK AO2
14926KSTC STC20000619123009906/19/00 12:30:31  5-MIN KSTC 191830Z AUTO 14014KT 10SM CLR 24/16 A2991 1040 59 2300 140/14 RMK AO2
14926KSTC STC20000619123509906/19/00 12:35:31  5-MIN KSTC 191835Z AUTO 14015KT 10SM CLR 23/16 A2991 1040 61 2300 130/15 RMK AO2
14926KSTC STC20000619124009906/19/00 12:40:31  5-MIN KSTC 191840Z AUTO 14013KT 10SM CLR 23/16 A2991 1040 61 2300 140/13 RMK AO2
14926KSTC STC20000619124509906/19/00 12:45:31  5-MIN KSTC 191845Z AUTO 14011KT 10SM CLR 23/16 A2991 1040 61 2300 140/11 RMK AO2
14926KSTC STC20000619125012206/19/00 12:50:31  5-MIN KSTC 191850Z AUTO 15014G20KT 10SM CLR 23/16 A2991 1040 61 2300 140/14G20 RMK AO2 SLP134 T02330156
14926KSTC STC20000619125510506/19/00 12:55:31  5-MIN KSTC 191855Z AUTO 15014G20KT 10SM CLR 23/16 A2991 1040 61 2300 140/14G20 RMK AO2
14926KSTC STC20000619130009906/19/00 13:00:31  5-MIN KSTC 191900Z AUTO 15014KT 10SM CLR 24/16 A2990 1040 59 2300 150/14 RMK AO2
14926KSTC STC20000619130509906/19/00 13:05:31  5-MIN KSTC 191905Z AUTO 15018KT 10SM CLR 23/15 A2990 1040 59 2300 150/18 RMK AO2
14926KSTC STC20000619131009906/19/00 13:10:31  5-MIN KSTC 191910Z AUTO 16016KT 10SM CLR 24/15 A2990 1040 57 2400 160/16 RMK AO2
14926KSTC STC20000619131509906/19/00 13:15:31  5-MIN KSTC 191915Z AUTO 16016KT 10SM CLR 24/15 A2990 1050 57 2400 150/16 RMK AO2
14926KSTC STC20000619132009906/19/00 13:20:31  5-MIN KSTC 191920Z AUTO 16015KT 10SM CLR 24/15 A2990 1050 55 2400 160/15 RMK AO2
14926KSTC STC20000619132509906/19/00 13:25:31  5-MIN KSTC 191925Z AUTO 16014KT 10SM CLR 24/16 A2990 1050 57 2400 150/14 RMK AO2
14926KSTC STC20000619133010506/19/00 13:30:31  5-MIN KSTC 191930Z AUTO 15015G24KT 10SM CLR 24/16 A2989 1050 59 2400 150/15G24 RMK AO2
14926KSTC STC20000619133510506/19/00 13:35:31  5-MIN KSTC 191935Z AUTO 15015G24KT 10SM CLR 24/15 A2989 1050 57 2400 150/15G24 RMK AO2
14926KSTC STC20000619134009906/19/00 13:40:31  5-MIN KSTC 191940Z AUTO 15015KT 10SM CLR 24/16 A2989 1050 59 2400 150/15 RMK AO2
14926KSTC STC20000619134509906/19/00 13:45:31  5-MIN KSTC 191945Z AUTO 15019KT 10SM CLR 24/15 A2989 1060 57 2400 150/19 RMK AO2
14926KSTC STC20000619135011606/19/00 13:50:31  5-MIN KSTC 191950Z AUTO 15015KT 10SM CLR 24/15 A2988 1060 57 2400 150/15 RMK AO2 SLP125 T02390150
14926KSTC STC20000619135509906/19/00 13:55:31  5-MIN KSTC 191955Z AUTO 16018KT 10SM CLR 24/16 A2988 1060 57 2400 150/18 RMK AO2
14926KSTC STC20000619140010506/19/00 14:00:31  5-MIN KSTC 192000Z AUTO 15018G23KT 10SM CLR 25/16 A2988 1060 55 2500 140/18G23 RMK AO2
14926KSTC STC20000619140510506/19/00 14:05:31  5-MIN KSTC 192005Z AUTO 16015G23KT 10SM CLR 25/15 A2988 1060 53 2500 160/15G23 RMK AO2
14926KSTC STC20000619141010506/19/00 14:10:31  5-MIN KSTC 192010Z AUTO 16016G21KT 10SM CLR 25/15 A2988 1060 53 2500 150/16G21 RMK AO2
14926KSTC STC20000619141510506/19/00 14:15:31  5-MIN KSTC 192015Z AUTO 15016G21KT 10SM CLR 25/15 A2988 1070 53 2500 150/16G21 RMK AO2
14926KSTC STC20000619142009906/19/00 14:20:31  5-MIN KSTC 192020Z AUTO 15017KT 10SM CLR 24/14 A2987 1070 53 2500 150/17 RMK AO2
14926KSTC STC20000619142509906/19/00 14:25:31  5-MIN KSTC 192025Z AUTO 15017KT 10SM CLR 24/14 A2986 1080 53 2500 140/17 RMK AO2
14926KSTC STC20000619143009906/19/00 14:30:31  5-MIN KSTC 192030Z AUTO 15017KT 10SM CLR 24/14 A2987 1080 53 2500 150/17 RMK AO2
14926KSTC STC20000619143509906/19/00 14:35:31  5-MIN KSTC 192035Z AUTO 15017KT 10SM CLR 24/14 A2986 1080 53 2500 140/17 RMK AO2
14926KSTC STC20000619144009906/19/00 14:40:31  5-MIN KSTC 192040Z AUTO 15018KT 10SM CLR 25/14 A2986 1080 51 2500 150/18 RMK AO2
14926KSTC STC20000619144510506/19/00 14:45:31  5-MIN KSTC 192045Z AUTO 14016G24KT 10SM CLR 24/14 A2986 1080 53 2500 140/16G24 RMK AO2
14926KSTC STC20000619145012806/19/00 14:50:31  5-MIN KSTC 192050Z AUTO 14014G24KT 10SM CLR 24/14 A2986 1080 53 2400 140/14G24 RMK AO2 SLP116 T02390139 58011
14926KSTC STC20000619145510506/19/00 14:55:31  5-MIN KSTC 192055Z AUTO 15015G22KT 10SM CLR 24/13 A2986 1080 51 2400 150/15G22 RMK AO2
14926KSTC STC20000619150010506/19/00 15:00:31  5-MIN KSTC 192100Z AUTO 16012G22KT 10SM CLR 24/14 A2986 1080 53 2400 150/12G22 RMK AO2
14926KSTC STC20000619150509906/19/00 15:05:31  5-MIN KSTC 192105Z AUTO 16015KT 10SM CLR 24/14 A2986 1080 53 2400 150/15 RMK AO2
14926KSTC STC20000619151009906/19/00 15:10:31  5-MIN KSTC 192110Z AUTO 15013KT 10SM CLR 24/14 A2986 1080 53 2400 150/13 RMK AO2
14926KSTC STC20000619151509906/19/00 15:15:31  5-MIN KSTC 192115Z AUTO 14013KT 10SM CLR 24/14 A2986 1090 53 2400 140/13 RMK AO2
14926KSTC STC20000619152009906/19/00 15:20:31  5-MIN KSTC 192120Z AUTO 14014KT 10SM CLR 24/14 A2985 1090 53 2400 140/14 RMK AO2
14926KSTC STC20000619152509906/19/00 15:25:31  5-MIN KSTC 192125Z AUTO 14013KT 10SM CLR 24/14 A2985 1090 53 2400 140/13 RMK AO2
14926KSTC STC20000619153009906/19/00 15:30:31  5-MIN KSTC 192130Z AUTO 14014KT 10SM CLR 24/14 A2984 1100 53 2400 140/14 RMK AO2
14926KSTC STC20000619153509906/19/00 15:35:31  5-MIN KSTC 192135Z AUTO 14014KT 10SM CLR 24/14 A2984 1100 53 2400 140/14 RMK AO2
14926KSTC STC20000619154010506/19/00 15:40:31  5-MIN KSTC 192140Z AUTO 14013G18KT 10SM CLR 24/14 A2984 1100 53 2400 130/13G18 RMK AO2
14926KSTC STC20000619154510506/19/00 15:45:31  5-MIN KSTC 192145Z AUTO 14015G22KT 10SM CLR 24/14 A2984 1100 51 2500 140/15G22 RMK AO2
14926KSTC STC20000619155012206/19/00 15:50:31  5-MIN KSTC 192150Z AUTO 14016G22KT 10SM CLR 24/14 A2984 1100 53 2500 130/16G22 RMK AO2 SLP111 T02440144
14926KSTC STC20000619155510506/19/00 15:55:31  5-MIN KSTC 192155Z AUTO 15015G25KT 10SM CLR 24/14 A2984 1100 51 2500 140/15G25 RMK AO2
14926KSTC STC20000619160010506/19/00 16:00:31  5-MIN KSTC 192200Z AUTO 15015G25KT 10SM CLR 24/14 A2984 1100 51 2500 150/15G25 RMK AO2
14926KSTC STC20000619160510506/19/00 16:05:31  5-MIN KSTC 192205Z AUTO 14016G23KT 10SM CLR 25/14 A2984 1100 51 2500 140/16G23 RMK AO2
14926KSTC STC20000619161010506/19/00 16:10:31  5-MIN KSTC 192210Z AUTO 14015G20KT 10SM CLR 25/14 A2984 1100 49 2500 140/15G20 RMK AO2
14926KSTC STC20000619161512306/19/00 16:15:31  5-MIN KSTC 192215Z AUTO 15019G27KT 10SM CLR 25/14 A2984 1100 51 2500 140/19G27 RMK AO2 PK WND 14027/2215
14926KSTC STC20000619162012306/19/00 16:20:31  5-MIN KSTC 192220Z AUTO 15017G27KT 10SM CLR 25/14 A2983 1110 49 2600 140/17G27 RMK AO2 PK WND 14027/2215
14926KSTC STC20000619162512306/19/00 16:25:31  5-MIN KSTC 192225Z AUTO 15019G25KT 10SM CLR 26/14 A2983 1110 49 2600 140/19G25 RMK AO2 PK WND 14027/2215
14926KSTC STC20000619163012306/19/00 16:30:31  5-MIN KSTC 192230Z AUTO 16017G23KT 10SM CLR 26/15 A2983 1110 50 2700 150/17G23 RMK AO2 PK WND 14027/2215
14926KSTC STC20000619163512306/19/00 16:35:31  5-MIN KSTC 192235Z AUTO 15017G20KT 10SM CLR 26/15 A2983 1110 51 2600 140/17G20 RMK AO2 PK WND 14027/2215
14926KSTC STC20000619164012306/19/00 16:40:31  5-MIN KSTC 192240Z AUTO 16017G24KT 10SM CLR 26/14 A2983 1110 49 2600 150/17G24 RMK AO2 PK WND 14027/2215
14926KSTC STC20000619164512306/19/00 16:45:31  5-MIN KSTC 192245Z AUTO 14017G24KT 10SM CLR 25/14 A2982 1120 51 2600 140/17G24 RMK AO2 PK WND 14027/2215
14926KSTC STC20000619165014006/19/00 16:50:31  5-MIN KSTC 192250Z AUTO 15020G26KT 10SM CLR 25/14 A2982 1120 49 2600 140/20G26 RMK AO2 PK WND 14027/2215 SLP105 T02500139
14926KSTC STC20000619165510506/19/00 16:55:31  5-MIN KSTC 192255Z AUTO 14018G26KT 10SM CLR 25/14 A2982 1120 49 2600 140/18G26 RMK AO2
14926KSTC STC20000619170009906/19/00 17:00:31  5-MIN KSTC 192300Z AUTO 14016KT 10SM CLR 24/14 A2982 1120 51 2500 140/16 RMK AO2
14926KSTC STC20000619170509906/19/00 17:05:31  5-MIN KSTC 192305Z AUTO 15015KT 10SM CLR 24/14 A2981 1120 53 2500 140/15 RMK AO2
14926KSTC STC20000619171010506/19/00 17:10:31  5-MIN KSTC 192310Z AUTO 15016G20KT 10SM CLR 24/14 A2981 1130 53 2500 140/16G20 RMK AO2
14926KSTC STC20000619171510506/19/00 17:15:31  5-MIN KSTC 192315Z AUTO 13012G20KT 10SM CLR 24/14 A2981 1130 51 2500 130/12G20 RMK AO2
14926KSTC STC20000619172009906/19/00 17:20:31  5-MIN KSTC 192320Z AUTO 14013KT 10SM CLR 24/14 A2981 1130 51 2500 130/13 RMK AO2
14926KSTC STC20000619172509906/19/00 17:25:31  5-MIN KSTC 192325Z AUTO 14012KT 10SM CLR 24/14 A2980 1140 51 2500 130/12 RMK AO2
14926KSTC STC20000619173009906/19/00 17:30:31  5-MIN KSTC 192330Z AUTO 14011KT 10SM CLR 24/14 A2980 1140 53 2500 140/11 RMK AO2
14926KSTC STC20000619173510506/19/00 17:35:31  5-MIN KSTC 192335Z AUTO 13012G18KT 10SM CLR 24/14 A2979 1140 53 2500 130/12G18 RMK AO2
14926KSTC STC20000619174010506/19/00 17:40:31  5-MIN KSTC 192340Z AUTO 13011G18KT 10SM CLR 24/14 A2979 1150 53 2500 130/11G18 RMK AO2
14926KSTC STC20000619174509906/19/00 17:45:31  5-MIN KSTC 192345Z AUTO 13012KT 10SM CLR 24/14 A2979 1150 53 2500 130/12 RMK AO2
14926KSTC STC20000619175013406/19/00 17:50:31  5-MIN KSTC 192350Z AUTO 13012KT 10SM CLR 24/14 A2978 1160 53 2500 130/12 RMK AO2 SLP089 T02440144 10261 20228 58022
14926KSTC STC20000619175509906/19/00 17:55:31  5-MIN KSTC 192355Z AUTO 13012KT 10SM CLR 24/14 A2978 1160 53 2600 130/12 RMK AO2
14926KSTC STC20000619180010506/19/00 18:00:31  5-MIN KSTC 200000Z AUTO 13014G18KT 10SM CLR 24/14 A2977 1160 53 2600 130/14G18 RMK AO2
14926KSTC STC20000619180510806/19/00 18:05:31  5-MIN KSTC 200005Z AUTO 14012G18KT 10SM FEW049 24/15 A2977 1170 55 2600 140/12G18 RMK AO2
14926KSTC STC20000619181010806/19/00 18:10:31  5-MIN KSTC 200010Z AUTO 14015G18KT 10SM FEW049 24/15 A2977 1160 55 2600 140/15G18 RMK AO2
14926KSTC STC20000619181510806/19/00 18:15:31  5-MIN KSTC 200015Z AUTO 14013G19KT 10SM FEW049 25/15 A2977 1170 53 2600 130/13G19 RMK AO2
14926KSTC STC20000619182010806/19/00 18:20:31  5-MIN KSTC 200020Z AUTO 14014G19KT 10SM FEW049 25/15 A2976 1170 53 2600 130/14G19 RMK AO2
14926KSTC STC20000619182510206/19/00 18:25:31  5-MIN KSTC 200025Z AUTO 14013KT 10SM FEW049 25/15 A2976 1170 53 2600 140/13 RMK AO2
14926KSTC STC20000619183010806/19/00 18:30:31  5-MIN KSTC 200030Z AUTO 14015G19KT 10SM FEW049 24/15 A2976 1170 55 2600 140/15G19 RMK AO2
14926KSTC STC20000619183510806/19/00 18:35:31  5-MIN KSTC 200035Z AUTO 14012G19KT 10SM FEW049 24/15 A2976 1170 55 2600 140/12G19 RMK AO2
14926KSTC STC20000619184010506/19/00 18:40:31  5-MIN KSTC 200040Z AUTO 14014G19KT 10SM CLR 24/15 A2976 1170 55 2600 130/14G19 RMK AO2
14926KSTC STC20000619184510806/19/00 18:45:31  5-MIN KSTC 200045Z AUTO 14014G19KT 10SM FEW050 24/15 A2977 1170 55 2600 140/14G19 RMK AO2
14926KSTC STC20000619185012506/19/00 18:50:31  5-MIN KSTC 200050Z AUTO 14013G19KT 10SM FEW055 24/15 A2977 1170 55 2600 140/13G19 RMK AO2 SLP085 T02440150
14926KSTC STC20000619185510806/19/00 18:55:31  5-MIN KSTC 200055Z AUTO 14012G19KT 10SM SCT050 24/15 A2977 1160 57 2500 130/12G19 RMK AO2
14926KSTC STC20000619190010206/19/00 19:00:31  5-MIN KSTC 200100Z AUTO 14012KT 10SM BKN050 24/15 A2977 1160 55 2600 140/12 RMK AO2
14926KSTC STC20000619190510206/19/00 19:05:31  5-MIN KSTC 200105Z AUTO 14013KT 10SM BKN050 24/15 A2978 1160 55 2600 140/13 RMK AO2
14926KSTC STC20000619191010206/19/00 19:10:31  5-MIN KSTC 200110Z AUTO 14013KT 10SM BKN050 24/15 A2977 1160 55 2600 130/13 RMK AO2
14926KSTC STC20000619191510806/19/00 19:15:31  5-MIN KSTC 200115Z AUTO 14013G20KT 10SM BKN050 24/15 A2977 1160 55 2600 130/13G20 RMK AO2
14926KSTC STC20000619192010806/19/00 19:20:31  5-MIN KSTC 200120Z AUTO 14013G20KT 10SM OVC050 24/16 A2977 1170 57 2600 140/13G20 RMK AO2
14926KSTC STC20000619192510206/19/00 19:25:31  5-MIN KSTC 200125Z AUTO 14014KT 10SM OVC050 24/16 A2977 1170 57 2600 130/14 RMK AO2
14926KSTC STC20000619193010206/19/00 19:30:31  5-MIN KSTC 200130Z AUTO 14013KT 10SM OVC050 24/16 A2977 1170 57 2600 130/13 RMK AO2
14926KSTC STC20000619193510206/19/00 19:35:31  5-MIN KSTC 200135Z AUTO 14013KT 10SM OVC050 24/16 A2977 1160 59 2500 130/13 RMK AO2
14926KSTC STC20000619194010806/19/00 19:40:31  5-MIN KSTC 200140Z AUTO 14014G18KT 10SM OVC050 24/16 A2977 1160 59 2500 140/14G18 RMK AO2
14926KSTC STC20000619194510806/19/00 19:45:31  5-MIN KSTC 200145Z AUTO 14012G18KT 10SM OVC050 24/16 A2977 1170 59 2500 130/12G18 RMK AO2
14926KSTC STC20000619195011906/19/00 19:50:31  5-MIN KSTC 200150Z AUTO 14013KT 10SM OVC050 24/16 A2977 1170 59 2500 140/13 RMK AO2 SLP084 T02390156
14926KSTC STC20000619195510806/19/00 19:55:31  5-MIN KSTC 200155Z AUTO 14015G20KT 10SM OVC050 24/16 A2977 1170 59 2500 130/15G20 RMK AO2
14926KSTC STC20000619200011506/19/00 20:00:31  5-MIN KSTC 200200Z AUTO 13012G20KT 10SM BKN047 OVC055 24/16 A2977 1170 59 2500 130/12G20 RMK AO2
14926KSTC STC20000619200511606/19/00 20:05:31  5-MIN KSTC 200205Z AUTO 13013KT 10SM BKN047 BKN060 OVC070 24/16 A2977 1170 59 2500 130/13 RMK AO2
14926KSTC STC20000619201012206/19/00 20:10:31  5-MIN KSTC 200210Z AUTO 14014G18KT 10SM BKN047 BKN060 OVC070 24/16 A2977 1170 61 2500 140/14G18 RMK AO2
14926KSTC STC20000619201512206/19/00 20:15:31  5-MIN KSTC 200215Z AUTO 14013G18KT 10SM BKN047 BKN060 OVC070 24/16 A2977 1170 61 2500 140/13G18 RMK AO2
14926KSTC STC20000619202011606/19/00 20:20:31  5-MIN KSTC 200220Z AUTO 14012KT 10SM BKN045 BKN060 OVC075 24/16 A2977 1170 61 2500 140/12 RMK AO2
14926KSTC STC20000619202512206/19/00 20:25:31  5-MIN KSTC 200225Z AUTO 14014G18KT 10SM BKN045 BKN065 OVC080 24/16 A2977 1170 61 2500 140/14G18 RMK AO2
14926KSTC STC20000619203012206/19/00 20:30:31  5-MIN KSTC 200230Z AUTO 14012G18KT 10SM SCT043 BKN055 OVC075 24/16 A2976 1170 61 2500 130/12G18 RMK AO2
14926KSTC STC20000619203512206/19/00 20:35:31  5-MIN KSTC 200235Z AUTO 14015G21KT 10SM SCT043 BKN055 OVC085 24/16 A2976 1170 61 2500 130/15G21 RMK AO2
14926KSTC STC20000619204012206/19/00 20:40:31  5-MIN KSTC 200240Z AUTO 14013G21KT 10SM FEW043 BKN060 OVC090 24/16 A2976 1170 61 2500 140/13G21 RMK AO2
14926KSTC STC20000619204511606/19/00 20:45:31  5-MIN KSTC 200245Z AUTO 14013KT 10SM FEW048 BKN070 OVC085 24/16 A2976 1170 61 2500 140/13 RMK AO2
14926KSTC STC20000619205013906/19/00 20:50:31  5-MIN KSTC 200250Z AUTO 14012KT 10SM FEW042 BKN070 OVC090 23/16 A2976 1180 63 2500 130/12 RMK AO2 SLP080 T02330161 58025
14926KSTC STC20000619205510906/19/00 20:55:31  5-MIN KSTC 200255Z AUTO 14012KT 10SM SCT065 BKN085 23/16 A2976 1180 63 2500 130/12 RMK AO2
14926KSTC STC20000619210011606/19/00 21:00:31  5-MIN KSTC 200300Z AUTO 14012KT 10SM FEW060 SCT070 BKN085 23/16 A2976 1180 63 2500 130/12 RMK AO2
14926KSTC STC20000619210511506/19/00 21:05:31  5-MIN KSTC 200305Z AUTO 14013G18KT 10SM FEW060 BKN085 23/16 A2976 1180 63 2500 140/13G18 RMK AO2
14926KSTC STC20000619211010906/19/00 21:10:31  5-MIN KSTC 200310Z AUTO 14011KT 10SM FEW046 OVC090 23/16 A2976 1180 63 2500 140/11 RMK AO2
14926KSTC STC20000619211511506/19/00 21:15:31  5-MIN KSTC 200315Z AUTO 14013G19KT 10SM FEW044 BKN090 23/16 A2976 1180 63 2500 140/13G19 RMK AO2
14926KSTC STC20000619212011506/19/00 21:20:31  5-MIN KSTC 200320Z AUTO 14013G19KT 10SM SCT044 OVC090 23/17 A2976 1180 66 2500 130/13G19 RMK AO2
14926KSTC STC20000619212510906/19/00 21:25:31  5-MIN KSTC 200325Z AUTO 14013KT 10SM SCT044 BKN090 23/17 A2975 1180 66 2500 140/13 RMK AO2
14926KSTC STC20000619213011506/19/00 21:30:31  5-MIN KSTC 200330Z AUTO 14011G19KT 10SM SCT044 OVC090 23/17 A2975 1190 66 2500 130/11G19 RMK AO2
14926KSTC STC20000619213511506/19/00 21:35:31  5-MIN KSTC 200335Z AUTO 14013G19KT 10SM SCT041 OVC090 23/17 A2975 1190 66 2500 140/13G19 RMK AO2
14926KSTC STC20000619214010906/19/00 21:40:31  5-MIN KSTC 200340Z AUTO 14012KT 10SM BKN041 OVC090 23/17 A2974 1190 66 2500 140/12 RMK AO2
14926KSTC STC20000619214511606/19/00 21:45:31  5-MIN KSTC 200345Z AUTO 14015KT 10SM SCT038 BKN045 OVC090 23/17 A2974 1200 66 2500 140/15 RMK AO2
14926KSTC STC20000619215012606/19/00 21:50:31  5-MIN KSTC 200350Z AUTO 14016KT 10SM BKN041 OVC090 23/17 A2973 1200 66 2500 140/16 RMK AO2 SLP069 T02330167
14926KSTC STC20000619215512206/19/00 21:55:31  5-MIN KSTC 200355Z AUTO 14016G21KT 10SM SCT038 BKN046 OVC090 23/17 A2973 1210 68 2500 140/16G21 RMK AO2
14926KSTC STC20000619220011506/19/00 22:00:31  5-MIN KSTC 200400Z AUTO 15016G21KT 10SM BKN038 OVC046 23/17 A2972 1210 68 2500 140/16G21 RMK AO2
14926KSTC STC20000619220511606/19/00 22:05:31  5-MIN KSTC 200405Z AUTO 14015KT 10SM BKN038 BKN047 OVC065 23/17 A2972 1220 68 2500 140/15 RMK AO2
14926KSTC STC20000619221011606/19/00 22:10:31  5-MIN KSTC 200410Z AUTO 14012KT 10SM SCT038 BKN049 OVC110 23/17 A2971 1220 66 2500 140/12 RMK AO2
14926KSTC STC20000619221511606/19/00 22:15:31  5-MIN KSTC 200415Z AUTO 14015KT 10SM SCT036 BKN049 BKN065 23/17 A2971 1220 66 2500 140/15 RMK AO2
14926KSTC STC20000619222011606/19/00 22:20:31  5-MIN KSTC 200420Z AUTO 14013KT 10SM SCT035 BKN045 BKN120 23/17 A2971 1220 68 2500 140/13 RMK AO2
14926KSTC STC20000619222512206/19/00 22:25:31  5-MIN KSTC 200425Z AUTO 14015G20KT 10SM SCT033 BKN041 OVC120 23/17 A2970 1230 66 2500 140/15G20 RMK AO2
14926KSTC STC20000619223012206/19/00 22:30:31  5-MIN KSTC 200430Z AUTO 14017G21KT 10SM SCT033 BKN041 OVC120 23/17 A2970 1230 68 2500 140/17G21 RMK AO2
14926KSTC STC20000619223512206/19/00 22:35:31  5-MIN KSTC 200435Z AUTO 14015G21KT 10SM SCT033 BKN041 BKN120 23/17 A2969 1240 68 2500 140/15G21 RMK AO2
14926KSTC STC20000619224011506/19/00 22:40:31  5-MIN KSTC 200440Z AUTO 14018G21KT 10SM BKN035 OVC041 23/17 A2969 1240 70 2500 140/18G21 RMK AO2
14926KSTC STC20000619224511506/19/00 22:45:31  5-MIN KSTC 200445Z AUTO 14016G22KT 10SM SCT033 OVC043 23/17 A2969 1240 68 2500 140/16G22 RMK AO2
14926KSTC STC20000619225013206/19/00 22:50:31  5-MIN KSTC 200450Z AUTO 14016G22KT 10SM SCT033 OVC043 23/17 A2968 1240 70 2500 140/16G22 RMK AO2 SLP055 T02280172
14926KSTC STC20000619225512406/19/00 22:55:31  5-MIN KSTC 200455Z AUTO 15017G25KT 10SM TS SCT031 OVC043 23/17 A2968 1250 70 2500 140/17G25 RMK AO2 TSB54
14926KSTC STC20000619230012606/19/00 23:00:31  5-MIN KSTC 200500Z AUTO 15016G25KT 10SM TS SCT031 OVC043 23/17 A2968 1250 70 2500 150/16G25 RMK AO2 TSB0454
14926KSTC STC20000619230512606/19/00 23:05:31  5-MIN KSTC 200505Z AUTO 15016G24KT 10SM TS BKN031 OVC043 23/17 A2968 1250 68 2500 150/16G24 RMK AO2 TSB0454
14926KSTC STC20000619231012606/19/00 23:10:31  5-MIN KSTC 200510Z AUTO 16014KT 10SM TS BKN029 OVC043 23/17 A2968 1250 70 2500 150/14 RMK AO2 TSB0454E08B10
14926KSTC STC20000619231513206/19/00 23:15:31  5-MIN KSTC 200515Z AUTO 16018G24KT 10SM TS BKN029 OVC043 23/17 A2969 1240 70 2500 160/18G24 RMK AO2 TSB0454E08B10
14926KSTC STC20000619232013906/19/00 23:20:31  5-MIN KSTC 200520Z AUTO 16014G24KT 10SM TS BKN029 BKN036 OVC070 23/17 A2969 1240 70 2500 160/14G24 RMK AO2 TSB0454E08B10
14926KSTC STC20000619232514606/19/00 23:25:31  5-MIN KSTC 200525Z AUTO 16017G25KT 10SM -TSRA BKN027 OVC033 23/18 A2968 1250 73 2500 160/17G25 RMK AO2 TSB0454E08B10RAB24 P0000
14926KSTC STC20000619233014606/19/00 23:30:31  5-MIN KSTC 200530Z AUTO 17017G25KT 10SM -TSRA BKN027 OVC033 22/18 A2968 1250 75 2400 170/17G25 RMK AO2 TSB0454E08B10RAB24 P0000
14926KSTC STC20000619233514606/19/00 23:35:31  5-MIN KSTC 200535Z AUTO 17013G21KT 10SM TS BKN027 BKN035 22/18 A2969 1240 78 2300 160/13G21 RMK AO2 TSB0454E08B10RAB24E35 P0000
14926KSTC STC20000619234015306/19/00 23:40:31  5-MIN KSTC 200540Z AUTO 16012G21KT 10SM TS FEW025 BKN030 BKN041 22/18 A2968 1240 78 2300 160/12G21 RMK AO2 TSB0454E08B10RAB24E35 P0000
14926KSTC STC20000619234515306/19/00 23:45:31  5-MIN KSTC 200545Z AUTO 17013G19KT 10SM -TSRA SCT023 BKN030 BKN034 21/18 A2968 1250 84 2300 160/13G19 RMK AO2 TSB0454E08B10RAB24 P0000
14926KSTC STC20000619235019606/19/00 23:50:31  5-MIN KSTC 200550Z AUTO 16012G19KT 9SM -TSRA SCT023 BKN033 21/18 A2969 1240 87 2200 160/12G19 RMK AO2 TSB0454E08B10RAB24 SLP055 P0000 60000 T02060183 10250 20206 402610122 56008
14926KSTC STC20000619235513106/19/00 23:55:31  5-MIN KSTC 200555Z AUTO 17012KT 9SM -RA FEW016 SCT021 BKN030 21/18 A2968 1250 87 2200 160/12 RMK AO2 TSE55 P0000
14926KSTC STC20000620000013406/20/00 00:00:31  5-MIN KSTC 200600Z AUTO 15011KT 10SM -RA BKN016 BKN028 BKN037 21/19 A2968 1250 90 2200 150/11 RMK AO2 TSE0555 P0000
14926KSTC STC20000620000513406/20/00 00:05:31  5-MIN KSTC 200605Z AUTO 15011KT 10SM -RA BKN014 BKN020 OVC035 21/19 A2967 1250 90 2200 150/11 RMK AO2 TSE0555 P0000
14926KSTC STC20000620001013406/20/00 00:10:31  5-MIN KSTC 200610Z AUTO 15010KT 10SM -RA SCT014 BKN020 OVC033 20/19 A2967 1260 93 2200 150/10 RMK AO2 TSE0555 P0000
14926KSTC STC20000620001513306/20/00 00:15:31  5-MIN KSTC 200615Z AUTO 16011KT 9SM -RA BKN014 BKN024 OVC033 20/19 A2967 1260 93 2200 150/11 RMK AO2 TSE0555 P0001
14926KSTC STC20000620002013506/20/00 00:20:31  5-MIN KSTC 200620Z AUTO 15012KT 10SM BKN012 BKN026 OVC044 20/19 A2966 1260 93 2200 150/12 RMK AO2 TSE0555RAE19 P0001
14926KSTC STC20000620002513406/20/00 00:25:31  5-MIN KSTC 200625Z AUTO 15013KT 9SM BKN014 BKN024 OVC050 20/19 A2966 1270 93 2200 150/13 RMK AO2 TSE0555RAE19 P0001
14926KSTC STC20000620003014106/20/00 00:30:31  5-MIN KSTC 200630Z AUTO 15014KT 9SM FEW012 BKN017 OVC050 20/19 A2965 1280 93 2200 140/14 RMK AO2 TSE0555RAE19 PRESFR P0001
14926KSTC STC20000620003514806/20/00 00:35:31  5-MIN KSTC 200635Z AUTO 15014KT 9SM -RA BKN012 BKN019 OVC050 21/18 A2964 1280 87 2300 150/14 RMK AO2 TSE0555RAE19B35 PRESFR P0001
14926KSTC STC20000620004014106/20/00 00:40:31  5-MIN KSTC 200640Z AUTO 16015G21KT 10SM -RA BKN014 OVC025 20/18 A2964 1290 90 2200 160/15G21 RMK AO2 TSE0555RAE19B35 P0001
14926KSTC STC20000620004514206/20/00 00:45:31  5-MIN KSTC 200645Z AUTO 16014KT 10SM -RA BKN015 BKN020 OVC027 20/18 A2964 1290 90 2200 150/14 RMK AO2 TSE0555RAE19B35 P0001
14926KSTC STC20000620005016506/20/00 00:50:31  5-MIN KSTC 200650Z AUTO 16013G21KT 10SM -RA SCT015 BKN022 OVC030 20/18 A2964 1290 90 2200 150/13G21 RMK AO2 TSE0555RAE19B35 SLP039 P0001 T02000183
14926KSTC STC20000620005512606/20/00 00:55:31  5-MIN KSTC 200655Z AUTO 16014KT 10SM -RA SCT015 BKN022 OVC028 20/18 A2964 1290 90 2200 160/14 RMK AO2 P0000
14926KSTC STC20000620010013006/20/00 01:00:31  5-MIN KSTC 200700Z AUTO 16012KT 10SM SCT015 BKN022 OVC028 20/18 A2963 1290 90 2200 150/12 RMK AO2 RAE0658 P0000
14926KSTC STC20000620010513006/20/00 01:05:31  5-MIN KSTC 200705Z AUTO 15014KT 10SM FEW015 BKN022 OVC027 19/18 A2963 1300 93 2200 150/14 RMK AO2 RAE0658 P0000
14926KSTC STC20000620011012306/20/00 01:10:31  5-MIN KSTC 200710Z AUTO 16015KT 10SM BKN022 OVC027 19/18 A2963 1290 93 2200 160/15 RMK AO2 RAE0658 P0000
14926KSTC STC20000620011512306/20/00 01:15:31  5-MIN KSTC 200715Z AUTO 16015KT 10SM BKN022 OVC027 20/18 A2963 1300 87 2200 160/15 RMK AO2 RAE0658 P0000
14926KSTC STC20000620012012906/20/00 01:20:31  5-MIN KSTC 200720Z AUTO 15016G20KT 10SM BKN022 OVC027 20/18 A2962 1310 87 2200 150/16G20 RMK AO2 RAE0658 P0000
14926KSTC STC20000620012512906/20/00 01:25:31  5-MIN KSTC 200725Z AUTO 15014G20KT 10SM BKN020 OVC027 20/18 A2961 1310 90 2200 140/14G20 RMK AO2 RAE0658 P0000
14926KSTC STC20000620013011606/20/00 01:30:31  5-MIN KSTC 200730Z AUTO 15012KT 10SM OVC020 20/18 A2961 1310 90 2200 150/12 RMK AO2 RAE0658 P0000
14926KSTC STC20000620013511606/20/00 01:35:31  5-MIN KSTC 200735Z AUTO 16013KT 10SM OVC020 20/18 A2961 1310 90 2200 150/13 RMK AO2 RAE0658 P0000
14926KSTC STC20000620014011606/20/00 01:40:31  5-MIN KSTC 200740Z AUTO 15013KT 10SM OVC020 20/18 A2960 1320 90 2200 150/13 RMK AO2 RAE0658 P0000
14926KSTC STC20000620014512206/20/00 01:45:31  5-MIN KSTC 200745Z AUTO 15016G21KT 10SM OVC018 20/18 A2960 1320 90 2300 150/16G21 RMK AO2 RAE0658 P0000
14926KSTC STC20000620015013906/20/00 01:50:31  5-MIN KSTC 200750Z AUTO 15014G21KT 10SM OVC018 20/18 A2960 1330 87 2300 150/14G21 RMK AO2 RAE0658 SLP025 P0000 T02000178
14926KSTC STC20000620015510206/20/00 01:55:31  5-MIN KSTC 200755Z AUTO 15013KT 10SM OVC018 20/18 A2959 1330 90 2300 150/13 RMK AO2
14926KSTC STC20000620020010206/20/00 02:00:31  5-MIN KSTC 200800Z AUTO 14014KT 10SM OVC016 20/18 A2959 1330 90 2300 140/14 RMK AO2
14926KSTC STC20000620020511806/20/00 02:05:31  5-MIN KSTC 200805Z AUTO 15011KT 10SM -RA OVC014 20/18 A2959 1340 90 2300 140/11 RMK AO2 RAB05 P0000
14926KSTC STC20000620021011806/20/00 02:10:31  5-MIN KSTC 200810Z AUTO 14012KT 10SM -RA OVC014 20/18 A2958 1340 90 2300 140/12 RMK AO2 RAB05 P0000
14926KSTC STC20000620021512406/20/00 02:15:31  5-MIN KSTC 200815Z AUTO 14012G19KT 10SM -RA OVC012 20/18 A2958 1340 90 2300 140/12G19 RMK AO2 RAB05 P0000
14926KSTC STC20000620022012406/20/00 02:20:31  5-MIN KSTC 200820Z AUTO 15011G19KT 10SM -RA OVC012 20/18 A2958 1350 90 2300 150/11G19 RMK AO2 RAB05 P0000
14926KSTC STC20000620022511706/20/00 02:25:31  5-MIN KSTC 200825Z AUTO 14011KT 10SM OVC012 20/19 A2957 1350 93 2300 140/11 RMK AO2 RAB05E23 P0000
14926KSTC STC20000620023012906/20/00 02:30:31  5-MIN KSTC 200830Z AUTO 15010KT 10SM OVC010 20/19 A2957 1350 93 2300 150/10 RMK AO2 RAB05E23 CIG 008V013 P0000
14926KSTC STC20000620023512906/20/00 02:35:31  5-MIN KSTC 200835Z AUTO 14010KT 10SM OVC010 20/19 A2957 1350 93 2300 140/10 RMK AO2 RAB05E23 CIG 007V013 P0000
14926KSTC STC20000620024012906/20/00 02:40:31  5-MIN KSTC 200840Z AUTO 15012KT 10SM OVC010 20/19 A2957 1350 93 2300 140/12 RMK AO2 RAB05E23 CIG 007V013 P0000
14926KSTC STC20000620024511706/20/00 02:45:31  5-MIN KSTC 200845Z AUTO 15011KT 10SM OVC010 20/19 A2957 1360 93 2300 150/11 RMK AO2 RAB05E23 P0000
14926KSTC STC20000620025015806/20/00 02:50:31  5-MIN KSTC 200850Z AUTO 15010KT 10SM OVC010 20/19 A2956 1360 93 2300 150/10 RMK AO2 RAB05E23 CIG 007V013 SLP013 P0000 60001 T02000189 55023
14926KSTC STC20000620025511406/20/00 02:55:31  5-MIN KSTC 200855Z AUTO 15011KT 10SM OVC010 21/19 A2956 1360 90 2400 150/11 RMK AO2 CIG 007V013
14926KSTC STC20000620030011406/20/00 03:00:31  5-MIN KSTC 200900Z AUTO 16010KT 10SM OVC010 21/19 A2956 1360 90 2400 150/10 RMK AO2 CIG 007V013
14926KSTC STC20000620030511406/20/00 03:05:31  5-MIN KSTC 200905Z AUTO 16009KT 10SM OVC010 21/19 A2956 1360 93 2400 150/09 RMK AO2 CIG 007V013
14926KSTC STC20000620031011406/20/00 03:10:31  5-MIN KSTC 200910Z AUTO 16010KT 10SM OVC010 21/19 A2956 1360 93 2400 160/10 RMK AO2 CIG 007V012
14926KSTC STC20000620031510206/20/00 03:15:31  5-MIN KSTC 200915Z AUTO 16009KT 10SM OVC010 21/19 A2956 1360 93 2400 160/09 RMK AO2
14926KSTC STC20000620032010206/20/00 03:20:31  5-MIN KSTC 200920Z AUTO 16011KT 10SM OVC010 21/19 A2955 1370 93 2400 160/11 RMK AO2
14926KSTC STC20000620032511406/20/00 03:25:31  5-MIN KSTC 200925Z AUTO 17009KT 10SM OVC010 21/19 A2955 1370 93 2400 170/09 RMK AO2 CIG 007V012
14926KSTC STC20000620033011406/20/00 03:30:31  5-MIN KSTC 200930Z AUTO 17009KT 10SM OVC008 21/19 A2955 1370 93 2400 170/09 RMK AO2 CIG 007V012
14926KSTC STC20000620033510206/20/00 03:35:31  5-MIN KSTC 200935Z AUTO 17011KT 10SM OVC008 21/19 A2955 1380 93 2400 170/11 RMK AO2
14926KSTC STC20000620034011406/20/00 03:40:31  5-MIN KSTC 200940Z AUTO 17010KT 10SM OVC008 21/19 A2955 1380 93 2400 170/10 RMK AO2 CIG 007V011
14926KSTC STC20000620034511406/20/00 03:45:31  5-MIN KSTC 200945Z AUTO 17012KT 10SM OVC008 21/19 A2954 1380 90 2400 170/12 RMK AO2 CIG 007V011
14926KSTC STC20000620035013806/20/00 03:50:31  5-MIN KSTC 200950Z AUTO 18012KT 10SM BKN008 OVC014 21/19 A2954 1380 90 2400 170/12 RMK AO2 CIG 007V011 SLP006 T02110194
14926KSTC STC20000620035510906/20/00 03:55:31  5-MIN KSTC 200955Z AUTO 17011KT 10SM BKN011 OVC017 21/19 A2954 1380 90 2400 170/11 RMK AO2
14926KSTC STC20000620040010906/20/00 04:00:31  5-MIN KSTC 201000Z AUTO 18013KT 10SM BKN011 OVC017 21/19 A2954 1380 90 2400 170/13 RMK AO2
14926KSTC STC20000620040510906/20/00 04:05:31  5-MIN KSTC 201005Z AUTO 17010KT 10SM BKN011 OVC016 21/19 A2954 1380 90 2400 170/10 RMK AO2
14926KSTC STC20000620041010806/20/00 04:10:31  5-MIN KSTC 201010Z AUTO 18013G18KT 10SM OVC011 21/19 A2955 1380 90 2400 180/13G18 RMK AO2
14926KSTC STC20000620041510806/20/00 04:15:31  5-MIN KSTC 201015Z AUTO 18015G20KT 10SM OVC013 21/19 A2954 1380 90 2400 180/15G20 RMK AO2
14926KSTC STC20000620042010806/20/00 04:20:31  5-MIN KSTC 201020Z AUTO 18012G20KT 10SM OVC013 21/19 A2954 1380 90 2400 170/12G20 RMK AO2
14926KSTC STC20000620042510806/20/00 04:25:31  5-MIN KSTC 201025Z AUTO 18014G19KT 10SM OVC013 21/19 A2954 1380 90 2400 180/14G19 RMK AO2
14926KSTC STC20000620043010806/20/00 04:30:31  5-MIN KSTC 201030Z AUTO 18013G19KT 10SM OVC013 21/19 A2954 1380 90 2400 180/13G19 RMK AO2
14926KSTC STC20000620043510206/20/00 04:35:31  5-MIN KSTC 201035Z AUTO 18012KT 10SM OVC013 21/19 A2953 1390 90 2500 170/12 RMK AO2
14926KSTC STC20000620044010206/20/00 04:40:31  5-MIN KSTC 201040Z AUTO 18012KT 10SM OVC013 21/19 A2954 1380 90 2500 170/12 RMK AO2
14926KSTC STC20000620044510206/20/00 04:45:31  5-MIN KSTC 201045Z AUTO 18010KT 10SM OVC013 21/19 A2953 1390 90 2500 180/10 RMK AO2
14926KSTC STC20000620045011906/20/00 04:50:31  5-MIN KSTC 201050Z AUTO 18010KT 10SM OVC013 21/19 A2953 1390 90 2500 180/10 RMK AO2 SLP001 T02110194
14926KSTC STC20000620045510206/20/00 04:55:31  5-MIN KSTC 201055Z AUTO 18008KT 10SM OVC013 21/19 A2953 1390 90 2500 180/08 RMK AO2
14926KSTC STC20000620050010906/20/00 05:00:31  5-MIN KSTC 201100Z AUTO 18010KT 10SM BKN013 OVC020 21/19 A2953 1390 90 2500 180/10 RMK AO2
14926KSTC STC20000620050510906/20/00 05:05:31  5-MIN KSTC 201105Z AUTO 19011KT 10SM BKN013 OVC020 21/19 A2953 1390 90 2500 180/11 RMK AO2
14926KSTC STC20000620051010906/20/00 05:10:31  5-MIN KSTC 201110Z AUTO 19012KT 10SM BKN015 OVC020 21/19 A2953 1390 87 2500 180/12 RMK AO2
14926KSTC STC20000620051511606/20/00 05:15:31  5-MIN KSTC 201115Z AUTO 18011KT 10SM BKN015 BKN020 OVC070 21/19 A2952 1390 87 2500 180/11 RMK AO2
14926KSTC STC20000620052011606/20/00 05:20:31  5-MIN KSTC 201120Z AUTO 17010KT 10SM BKN015 BKN020 OVC070 21/19 A2952 1400 87 2500 170/10 RMK AO2
14926KSTC STC20000620052511606/20/00 05:25:31  5-MIN KSTC 201125Z AUTO 17011KT 10SM BKN015 BKN020 OVC070 21/19 A2952 1400 87 2500 170/11 RMK AO2
14926KSTC STC20000620053010906/20/00 05:30:31  5-MIN KSTC 201130Z AUTO 17010KT 10SM BKN013 OVC070 21/19 A2951 1410 87 2500 170/10 RMK AO2
14926KSTC STC20000620053511606/20/00 05:35:31  5-MIN KSTC 201135Z AUTO 17012KT 10SM BKN013 BKN018 OVC070 21/19 A2951 1410 87 2500 170/12 RMK AO2
14926KSTC STC20000620054010906/20/00 05:40:31  5-MIN KSTC 201140Z AUTO 17009KT 10SM BKN013 OVC070 21/19 A2951 1410 90 2500 170/09 RMK AO2
14926KSTC STC20000620054510906/20/00 05:45:31  5-MIN KSTC 201145Z AUTO 17010KT 10SM BKN013 BKN070 21/19 A2951 1410 87 2500 170/10 RMK AO2
14926KSTC STC20000620055015606/20/00 05:50:31  5-MIN KSTC 201150Z AUTO 17012KT 10SM BKN013 BKN075 21/19 A2950 1410 90 2500 170/12 RMK AO2 SLP993 60001 70001 T02110194 10211 20194 56041
14926KSTC STC20000620055510206/20/00 05:55:31  5-MIN KSTC 201155Z AUTO 17010KT 10SM BKN013 21/19 A2950 1420 90 2500 160/10 RMK AO2
14926KSTC STC20000620060010206/20/00 06:00:31  5-MIN KSTC 201200Z AUTO 17012KT 10SM BKN013 21/19 A2950 1420 90 2500 170/12 RMK AO2
14926KSTC STC20000620060510206/20/00 06:05:31  5-MIN KSTC 201205Z AUTO 18011KT 10SM BKN013 21/19 A2950 1420 87 2500 170/11 RMK AO2
14926KSTC STC20000620061010206/20/00 06:10:31  5-MIN KSTC 201210Z AUTO 18013KT 10SM OVC013 21/19 A2950 1420 87 2500 180/13 RMK AO2
14926KSTC STC20000620061510206/20/00 06:15:31  5-MIN KSTC 201215Z AUTO 18010KT 10SM OVC013 21/19 A2950 1420 87 2500 170/10 RMK AO2
14926KSTC STC20000620062010206/20/00 06:20:31  5-MIN KSTC 201220Z AUTO 17012KT 10SM OVC013 21/19 A2949 1430 87 2500 170/12 RMK AO2
14926KSTC STC20000620062510206/20/00 06:25:31  5-MIN KSTC 201225Z AUTO 17012KT 10SM OVC013 21/19 A2949 1430 87 2500 170/12 RMK AO2
14926KSTC STC20000620063010906/20/00 06:30:31  5-MIN KSTC 201230Z AUTO 17012KT 10SM BKN013 OVC060 21/19 A2948 1440 87 2500 160/12 RMK AO2
14926KSTC STC20000620063511606/20/00 06:35:31  5-MIN KSTC 201235Z AUTO 17013KT 10SM BKN013 BKN060 OVC075 21/19 A2948 1440 87 2500 170/13 RMK AO2
14926KSTC STC20000620064011606/20/00 06:40:31  5-MIN KSTC 201240Z AUTO 17013KT 10SM BKN013 BKN060 OVC075 21/19 A2948 1440 87 2500 170/13 RMK AO2
14926KSTC STC20000620064511606/20/00 06:45:31  5-MIN KSTC 201245Z AUTO 17015KT 10SM BKN013 BKN060 OVC100 21/19 A2948 1440 87 2500 170/15 RMK AO2
14926KSTC STC20000620065015606/20/00 06:50:31  5-MIN KSTC 201250Z AUTO 17014KT 10SM -TSRA SCT013 BKN060 OVC110 21/19 A2948 1440 87 2500 160/14 RMK AO2 TSB49RAB47 SLP984 P0000 T02110189
14926KSTC STC20000620065512706/20/00 06:55:31  5-MIN KSTC 201255Z AUTO 17013KT 7SM -TSRA FEW015 BKN026 OVC110 21/19 A2947 1440 87 2500 170/13 RMK AO2 P0000
14926KSTC STC20000620070013006/20/00 07:00:31  5-MIN KSTC 201300Z AUTO 17011KT 5SM -TSRA BR FEW015 BKN026 OVC110 21/19 A2948 1440 90 2500 160/11 RMK AO2 P0001
14926KSTC STC20000620070513006/20/00 07:05:31  5-MIN KSTC 201305Z AUTO 18012KT 6SM -TSRA BR FEW015 BKN047 OVC110 21/19 A2948 1440 90 2500 180/12 RMK AO2 P0001
14926KSTC STC20000620071012706/20/00 07:10:31  5-MIN KSTC 201310Z AUTO 17013KT 9SM -TSRA SCT024 SCT045 OVC065 20/19 A2948 1440 93 2400 170/13 RMK AO2 P0001
14926KSTC STC20000620071512806/20/00 07:15:31  5-MIN KSTC 201315Z AUTO 18012KT 10SM -TSRA FEW024 BKN065 OVC100 20/19 A2948 1440 93 2400 170/12 RMK AO2 P0002
14926KSTC STC20000620072013106/20/00 07:20:31  5-MIN KSTC 201320Z AUTO 18010KT 10SM TS FEW024 BKN065 OVC090 21/19 A2948 1440 90 2500 170/10 RMK AO2 RAE20 P0002
14926KSTC STC20000620072513106/20/00 07:25:31  5-MIN KSTC 201325Z AUTO 17010KT 10SM TS SCT010 BKN065 OVC095 20/19 A2948 1440 93 2400 170/10 RMK AO2 RAE20 P0002
14926KSTC STC20000620073013306/20/00 07:30:31  5-MIN KSTC 201330Z AUTO 17011KT 10SM BKN012 BKN065 OVC095 20/19 A2948 1440 93 2400 170/11 RMK AO2 TSE29RAE20 P0002
14926KSTC STC20000620073514506/20/00 07:35:31  5-MIN KSTC 201335Z AUTO 18009KT 10SM BKN010 BKN065 OVC090 21/19 A2948 1440 90 2500 170/09 RMK AO2 TSE29RAE20 CIG 007V015 P0002
14926KSTC STC20000620074013806/20/00 07:40:31  5-MIN KSTC 201340Z AUTO 18007KT 10SM BKN010 OVC095 21/19 A2948 1440 93 2500 180/07 RMK AO2 TSE29RAE20 CIG 007V015 P0002
14926KSTC STC20000620074513806/20/00 07:45:31  5-MIN KSTC 201345Z AUTO 19011KT 10SM BKN008 OVC021 21/19 A2948 1430 90 2400 180/11 RMK AO2 TSE29RAE20 CIG 006V015 P0002
14926KSTC STC20000620075015506/20/00 07:50:31  5-MIN KSTC 201350Z AUTO 21010KT 10SM BKN008 OVC019 21/19 A2948 1440 90 2500 210/10 RMK AO2 TSE29RAE20 CIG 005V013 SLP984 P0002 T02060189
14926KSTC STC20000620075512106/20/00 07:55:31  5-MIN KSTC 201355Z AUTO 18011KT 10SM BKN008 OVC019 21/19 A2948 1440 93 2500 180/11 RMK AO2 CIG 005V013
14926KSTC STC20000620080012206/20/00 08:00:31  5-MIN KSTC 201400Z AUTO 19011G21KT 10SM SCT008 BKN019 OVC023 21/19 A2948 1440 90 2500 190/11G21 RMK AO2
14926KSTC STC20000620080511506/20/00 08:05:31  5-MIN KSTC 201405Z AUTO 19007G21KT 10SM SCT008 OVC019 21/19 A2947 1440 93 2500 190/07G21 RMK AO2
14926KSTC STC20000620081011606/20/00 08:10:31  5-MIN KSTC 201410Z AUTO 20013KT 10SM FEW006 BKN019 OVC023 21/19 A2947 1440 87 2500 190/13 RMK AO2
14926KSTC STC20000620081510906/20/00 08:15:31  5-MIN KSTC 201415Z AUTO 21009KT 10SM FEW006 OVC017 21/19 A2947 1440 90 2500 210/09 RMK AO2
14926KSTC STC20000620082010206/20/00 08:20:31  5-MIN KSTC 201420Z AUTO 21011KT 10SM OVC017 21/19 A2947 1450 87 2500 210/11 RMK AO2
14926KSTC STC20000620082510206/20/00 08:25:31  5-MIN KSTC 201425Z AUTO 21011KT 10SM OVC017 21/19 A2947 1450 87 2500 210/11 RMK AO2
14926KSTC STC20000620083010206/20/00 08:30:31  5-MIN KSTC 201430Z AUTO 21010KT 10SM OVC017 21/19 A2947 1450 87 2500 200/10 RMK AO2
14926KSTC STC20000620083510906/20/00 08:35:31  5-MIN KSTC 201435Z AUTO 22010KT 10SM BKN017 OVC023 21/19 A2947 1450 87 2500 210/10 RMK AO2
14926KSTC STC20000620084010906/20/00 08:40:31  5-MIN KSTC 201440Z AUTO 21009KT 10SM BKN017 OVC023 21/19 A2947 1450 87 2500 200/09 RMK AO2
14926KSTC STC20000620084510206/20/00 08:45:31  5-MIN KSTC 201445Z AUTO 21010KT 10SM OVC020 21/19 A2947 1450 87 2500 210/10 RMK AO2
14926KSTC STC20000620085013106/20/00 08:50:31  5-MIN KSTC 201450Z AUTO 21012KT 10SM OVC022 22/19 A2946 1450 84 2600 210/12 RMK AO2 SLP979 60003 T02170189 58020
14926KSTC STC20000620085510906/20/00 08:55:31  5-MIN KSTC 201455Z AUTO 22012KT 10SM FEW016 OVC024 22/19 A2947 1450 84 2600 220/12 RMK AO2
14926KSTC STC20000620090011606/20/00 09:00:31  5-MIN KSTC 201500Z AUTO 21010KT 10SM FEW016 BKN024 OVC029 22/19 A2946 1450 81 2700 200/10 RMK AO2
14926KSTC STC20000620090510906/20/00 09:05:31  5-MIN KSTC 201505Z AUTO 21010KT 10SM BKN021 OVC029 22/19 A2947 1450 84 2600 210/10 RMK AO2
14926KSTC STC20000620091010906/20/00 09:10:31  5-MIN KSTC 201510Z AUTO 22012KT 10SM BKN021 OVC029 22/19 A2947 1450 84 2600 220/12 RMK AO2
14926KSTC STC20000620091511506/20/00 09:15:31  5-MIN KSTC 201515Z AUTO 22009G18KT 10SM BKN021 OVC027 22/18 A2946 1450 81 2600 220/09G18 RMK AO2
14926KSTC STC20000620092013106/20/00 09:20:31  5-MIN KSTC 201520Z AUTO 22013G18KT 10SM -RA BKN021 OVC027 22/18 A2947 1450 78 2600 220/13G18 RMK AO2 RAB19 P0000
14926KSTC STC20000620092512406/20/00 09:25:31  5-MIN KSTC 201525Z AUTO 23012G20KT 10SM -RA OVC023 21/18 A2947 1450 81 2500 220/12G20 RMK AO2 RAB19 P0000
14926KSTC STC20000620093012406/20/00 09:30:31  5-MIN KSTC 201530Z AUTO 22010G20KT 10SM -RA OVC023 21/18 A2947 1450 81 2500 220/10G20 RMK AO2 RAB19 P0000
14926KSTC STC20000620093511706/20/00 09:35:31  5-MIN KSTC 201535Z AUTO 22009KT 10SM OVC021 21/18 A2947 1450 84 2500 220/09 RMK AO2 RAB19E33 P0000
14926KSTC STC20000620094011706/20/00 09:40:31  5-MIN KSTC 201540Z AUTO 22012KT 10SM OVC023 21/18 A2947 1450 81 2500 220/12 RMK AO2 RAB19E33 P0000
14926KSTC STC20000620094512306/20/00 09:45:31  5-MIN KSTC 201545Z AUTO 22012G17KT 10SM OVC023 21/18 A2947 1450 81 2500 220/12G17 RMK AO2 RAB19E33 P0000
14926KSTC STC20000620095014806/20/00 09:50:31  5-MIN KSTC 201550Z AUTO 21012KT 10SM SCT018 BKN023 OVC090 21/18 A2947 1450 81 2500 210/12 RMK AO2 RAB19E33 SLP980 P0000 T02110178
14926KSTC STC20000620095511606/20/00 09:55:31  5-MIN KSTC 201555Z AUTO 21013KT 10SM SCT018 BKN023 OVC090 22/18 A2947 1450 78 2600 210/13 RMK AO2
14926KSTC STC20000620100010906/20/00 10:00:31  5-MIN KSTC 201600Z AUTO 23011KT 10SM FEW018 OVC023 22/18 A2947 1450 81 2600 220/11 RMK AO2
14926KSTC STC20000620100510906/20/00 10:05:31  5-MIN KSTC 201605Z AUTO 22012KT 10SM SCT018 OVC023 22/18 A2947 1450 78 2600 220/12 RMK AO2
14926KSTC STC20000620101010806/20/00 10:10:31  5-MIN KSTC 201610Z AUTO 23013G18KT 10SM OVC021 22/18 A2947 1450 78 2600 230/13G18 RMK AO2
14926KSTC STC20000620101510906/20/00 10:15:31  5-MIN KSTC 201615Z AUTO 23015KT 10SM BKN019 OVC024 22/18 A2947 1450 78 2600 230/15 RMK AO2
14926KSTC STC20000620102010206/20/00 10:20:31  5-MIN KSTC 201620Z AUTO 23015KT 10SM OVC021 22/18 A2948 1440 78 2600 220/15 RMK AO2
14926KSTC STC20000620102510206/20/00 10:25:31  5-MIN KSTC 201625Z AUTO 23011KT 10SM OVC021 22/18 A2948 1440 78 2600 230/11 RMK AO2
14926KSTC STC20000620103010806/20/00 10:30:31  5-MIN KSTC 201630Z AUTO 22013G18KT 10SM OVC021 21/18 A2948 1440 81 2500 220/13G18 RMK AO2
14926KSTC STC20000620103511506/20/00 10:35:31  5-MIN KSTC 201635Z AUTO 22012G18KT 10SM BKN019 OVC024 21/18 A2948 1440 81 2500 210/12G18 RMK AO2
14926KSTC STC20000620104010906/20/00 10:40:31  5-MIN KSTC 201640Z AUTO 21013KT 10SM BKN019 OVC026 22/18 A2948 1440 78 2600 210/13 RMK AO2
14926KSTC STC20000620104510906/20/00 10:45:31  5-MIN KSTC 201645Z AUTO 21012KT 10SM BKN021 OVC026 22/18 A2948 1440 78 2600 210/12 RMK AO2
14926KSTC STC20000620105012606/20/00 10:50:31  5-MIN KSTC 201650Z AUTO 22012KT 10SM BKN019 OVC026 21/18 A2948 1430 81 2500 210/12 RMK AO2 SLP985 T02110178
14926KSTC STC20000620105510906/20/00 10:55:31  5-MIN KSTC 201655Z AUTO 22013KT 10SM BKN019 OVC026 21/18 A2948 1440 81 2500 210/13 RMK AO2
14926KSTC STC20000620110010906/20/00 11:00:31  5-MIN KSTC 201700Z AUTO 23012KT 10SM BKN019 OVC026 22/17 A2948 1440 75 2600 220/12 RMK AO2
14926KSTC STC20000620110510906/20/00 11:05:31  5-MIN KSTC 201705Z AUTO 22013KT 10SM BKN019 OVC026 22/18 A2948 1440 75 2600 220/13 RMK AO2
14926KSTC STC20000620111010906/20/00 11:10:31  5-MIN KSTC 201710Z AUTO 23012KT 10SM BKN019 OVC028 22/18 A2948 1440 75 2600 230/12 RMK AO2
14926KSTC STC20000620111511606/20/00 11:15:31  5-MIN KSTC 201715Z AUTO 23013KT 10SM BKN019 BKN026 OVC031 22/18 A2948 1440 75 2600 230/13 RMK AO2
14926KSTC STC20000620112010906/20/00 11:20:31  5-MIN KSTC 201720Z AUTO 23014KT 10SM BKN021 OVC029 22/17 A2948 1440 73 2600 230/14 RMK AO2
14926KSTC STC20000620112510906/20/00 11:25:31  5-MIN KSTC 201725Z AUTO 22015KT 10SM BKN021 OVC029 22/18 A2948 1440 75 2600 220/15 RMK AO2
14926KSTC STC20000620113011606/20/00 11:30:31  5-MIN KSTC 201730Z AUTO 23015KT 10SM BKN021 BKN026 BKN031 22/17 A2948 1440 73 2600 230/15 RMK AO2
14926KSTC STC20000620113511606/20/00 11:35:31  5-MIN KSTC 201735Z AUTO 24013KT 10SM BKN021 BKN029 OVC033 22/17 A2948 1430 73 2600 230/13 RMK AO2
14926KSTC STC20000620114012206/20/00 11:40:31  5-MIN KSTC 201740Z AUTO 25018G21KT 10SM BKN021 BKN029 BKN033 23/17 A2948 1440 70 2700 240/18G21 RMK AO2
14926KSTC STC20000620114511506/20/00 11:45:31  5-MIN KSTC 201745Z AUTO 24018G23KT 10SM SCT024 BKN031 23/17 A2948 1430 68 2800 240/18G23 RMK AO2
14926KSTC STC20000620115015606/20/00 11:50:31  5-MIN KSTC 201750Z AUTO 23017G23KT 10SM BKN024 BKN031 23/17 A2948 1430 70 2700 230/17G23 RMK AO2 SLP987 60003 T02280172 10233 20200 56013
14926KSTC STC20000620115510906/20/00 11:55:31  5-MIN KSTC 201755Z AUTO 24016KT 10SM BKN024 BKN033 23/17 A2949 1430 70 2700 240/16 RMK AO2
14926KSTC STC20000620120012206/20/00 12:00:31  5-MIN KSTC 201800Z AUTO 25021G25KT 10SM SCT024 BKN029 BKN035 23/17 A2949 1420 70 2700 250/21G25 RMK AO2
14926KSTC STC20000620120514006/20/00 12:05:31  5-MIN KSTC 201805Z AUTO 26019G26KT 10SM SCT024 BKN029 BKN037 22/17 A2950 1420 73 2600 260/19G26 RMK AO2 PK WND 25026/1801
14926KSTC STC20000620121014006/20/00 12:10:31  5-MIN KSTC 201810Z AUTO 26017G26KT 10SM SCT024 SCT029 OVC037 22/17 A2950 1420 70 2600 260/17G26 RMK AO2 PK WND 25026/1801
14926KSTC STC20000620121513306/20/00 12:15:31  5-MIN KSTC 201815Z AUTO 26020G29KT 10SM FEW022 BKN037 22/17 A2950 1420 70 2600 260/20G29 RMK AO2 PK WND 26029/1813
14926KSTC STC20000620122013306/20/00 12:20:31  5-MIN KSTC 201820Z AUTO 26022G29KT 10SM FEW022 BKN037 23/16 A2950 1420 65 2700 260/22G29 RMK AO2 PK WND 26029/1813
14926KSTC STC20000620122513306/20/00 12:25:31  5-MIN KSTC 201825Z AUTO 26020G27KT 10SM FEW022 BKN039 22/16 A2950 1420 68 2600 260/20G27 RMK AO2 PK WND 26029/1813
14926KSTC STC20000620123012606/20/00 12:30:31  5-MIN KSTC 201830Z AUTO 26019G27KT 10SM BKN039 22/16 A2951 1410 68 2600 260/19G27 RMK AO2 PK WND 26029/1813
14926KSTC STC20000620123513306/20/00 12:35:31  5-MIN KSTC 201835Z AUTO 27019G25KT 10SM FEW025 BKN039 22/16 A2951 1410 70 2500 260/19G25 RMK AO2 PK WND 26029/1813
14926KSTC STC20000620124013306/20/00 12:40:31  5-MIN KSTC 201840Z AUTO 27020G23KT 10SM FEW025 BKN037 21/16 A2951 1410 70 2500 270/20G23 RMK AO2 PK WND 26029/1813
14926KSTC STC20000620124514006/20/00 12:45:31  5-MIN KSTC 201845Z AUTO 27020G25KT 10SM FEW025 SCT032 OVC039 21/16 A2952 1400 70 2500 260/20G25 RMK AO2 PK WND 26029/1813
14926KSTC STC20000620125015706/20/00 12:50:31  5-MIN KSTC 201850Z AUTO 27020G25KT 10SM FEW025 SCT033 OVC039 21/16 A2952 1400 70 2500 270/20G25 RMK AO2 PK WND 26029/1813 SLP998 T02110156
14926KSTC STC20000620125512206/20/00 12:55:31  5-MIN KSTC 201855Z AUTO 26015G24KT 10SM FEW025 SCT033 OVC039 22/16 A2951 1400 68 2500 260/15G24 RMK AO2
14926KSTC STC20000620130012206/20/00 13:00:31  5-MIN KSTC 201900Z AUTO 26020G25KT 10SM FEW025 SCT033 OVC039 22/15 A2952 1400 65 2500 260/20G25 RMK AO2
14926KSTC STC20000620130511506/20/00 13:05:31  5-MIN KSTC 201905Z AUTO 26015G25KT 10SM FEW025 BKN039 22/15 A2952 1400 65 2500 260/15G25 RMK AO2
14926KSTC STC20000620131011506/20/00 13:10:31  5-MIN KSTC 201910Z AUTO 27019G23KT 10SM SCT025 BKN039 21/15 A2952 1400 68 2500 270/19G23 RMK AO2
14926KSTC STC20000620131512206/20/00 13:15:31  5-MIN KSTC 201915Z AUTO 27014G23KT 10SM FEW025 SCT030 OVC039 22/15 A2952 1400 65 2500 270/14G23 RMK AO2
14926KSTC STC20000620132011506/20/00 13:20:31  5-MIN KSTC 201920Z AUTO 28016G21KT 10SM FEW025 BKN039 22/15 A2952 1390 65 2500 270/16G21 RMK AO2
14926KSTC STC20000620132511506/20/00 13:25:31  5-MIN KSTC 201925Z AUTO 26016G21KT 10SM FEW025 BKN041 22/14 A2952 1400 61 2600 260/16G21 RMK AO2
14926KSTC STC20000620133012206/20/00 13:30:31  5-MIN KSTC 201930Z AUTO 27017G22KT 10SM FEW025 BKN037 OVC044 22/14 A2952 1400 63 2500 260/17G22 RMK AO2
14926KSTC STC20000620133514006/20/00 13:35:31  5-MIN KSTC 201935Z AUTO 27016G26KT 10SM FEW025 BKN037 OVC046 22/14 A2952 1400 61 2500 260/16G26 RMK AO2 PK WND 27026/1931
14926KSTC STC20000620134013306/20/00 13:40:31  5-MIN KSTC 201940Z AUTO 27018G26KT 10SM SCT037 BKN046 22/14 A2952 1400 59 2600 270/18G26 RMK AO2 PK WND 27026/1939
14926KSTC STC20000620134513306/20/00 13:45:31  5-MIN KSTC 201945Z AUTO 26015G26KT 10SM SCT037 BKN046 23/14 A2952 1400 59 2700 260/15G26 RMK AO2 PK WND 27026/1939
14926KSTC STC20000620135014406/20/00 13:50:31  5-MIN KSTC 201950Z AUTO 28016KT 10SM BKN041 OVC049 22/13 A2952 1400 56 2600 280/16 RMK AO2 PK WND 27026/1939 SLP000 T02220133
14926KSTC STC20000620135511506/20/00 13:55:31  5-MIN KSTC 201955Z AUTO 27018G21KT 10SM BKN041 BKN049 23/14 A2952 1400 57 2700 270/18G21 RMK AO2
14926KSTC STC20000620140010906/20/00 14:00:31  5-MIN KSTC 202000Z AUTO 27016KT 10SM BKN041 BKN049 23/14 A2953 1390 57 2600 260/16 RMK AO2
14926KSTC STC20000620140511506/20/00 14:05:31  5-MIN KSTC 202005Z AUTO 27019G24KT 10SM BKN042 BKN049 22/13 A2953 1390 56 2600 270/19G24 RMK AO2
14926KSTC STC20000620141011506/20/00 14:10:31  5-MIN KSTC 202010Z AUTO 28017G24KT 10SM BKN042 OVC049 22/13 A2953 1390 54 2600 280/17G24 RMK AO2
14926KSTC STC20000620141510906/20/00 14:15:31  5-MIN KSTC 202015Z AUTO 27015KT 10SM BKN042 BKN055 22/13 A2953 1390 56 2600 270/15 RMK AO2
14926KSTC STC20000620142011506/20/00 14:20:31  5-MIN KSTC 202020Z AUTO 27020G23KT 10SM SCT042 BKN055 22/13 A2953 1390 54 2600 270/20G23 RMK AO2
14926KSTC STC20000620142511506/20/00 14:25:31  5-MIN KSTC 202025Z AUTO 27016G23KT 10SM SCT045 BKN055 22/13 A2953 1390 56 2600 270/16G23 RMK AO2
14926KSTC STC20000620143011506/20/00 14:30:31  5-MIN KSTC 202030Z AUTO 26016G22KT 10SM BKN045 BKN055 23/13 A2953 1390 55 2600 250/16G22 RMK AO2
14926KSTC STC20000620143510906/20/00 14:35:31  5-MIN KSTC 202035Z AUTO 28016KT 10SM FEW043 BKN060 22/13 A2953 1390 54 2600 270/16 RMK AO2
14926KSTC STC20000620144013306/20/00 14:40:31  5-MIN KSTC 202040Z AUTO 27020G26KT 10SM FEW045 BKN060 23/13 A2953 1380 53 2700 270/20G26 RMK AO2 PK WND 26026/2040
14926KSTC STC20000620144513306/20/00 14:45:31  5-MIN KSTC 202045Z AUTO 27016G26KT 10SM FEW045 BKN060 23/13 A2954 1380 53 2600 270/16G26 RMK AO2 PK WND 26026/2040
14926KSTC STC20000620145015606/20/00 14:50:31  5-MIN KSTC 202050Z AUTO 27016G22KT 10SM SCT043 OVC060 23/13 A2954 1380 53 2600 260/16G22 RMK AO2 PK WND 26026/2040 SLP005 T02280128 53007
14926KSTC STC20000620145513306/20/00 14:55:31  5-MIN KSTC 202055Z AUTO 27022G27KT 10SM SCT043 BKN060 23/13 A2954 1380 53 2600 270/22G27 RMK AO2 PK WND 27027/2055
14926KSTC STC20000620150013306/20/00 15:00:31  5-MIN KSTC 202100Z AUTO 26020G27KT 10SM SCT043 BKN060 23/13 A2954 1380 53 2600 260/20G27 RMK AO2 PK WND 27027/2055
14926KSTC STC20000620150513306/20/00 15:05:31  5-MIN KSTC 202105Z AUTO 29017G23KT 10SM SCT043 OVC060 22/13 A2954 1380 54 2600 280/17G23 RMK AO2 PK WND 27027/2055
14926KSTC STC20000620151013306/20/00 15:10:31  5-MIN KSTC 202110Z AUTO 27016G25KT 10SM SCT043 BKN060 23/13 A2954 1380 53 2700 270/16G25 RMK AO2 PK WND 27027/2055
14926KSTC STC20000620151513306/20/00 15:15:31  5-MIN KSTC 202115Z AUTO 28017G25KT 10SM SCT043 BKN060 23/13 A2955 1370 51 2700 270/17G25 RMK AO2 PK WND 27027/2055
14926KSTC STC20000620152013306/20/00 15:20:31  5-MIN KSTC 202120Z AUTO 27019G26KT 10SM FEW041 BKN060 23/12 A2955 1370 49 2700 270/19G26 RMK AO2 PK WND 27027/2055
14926KSTC STC20000620152513306/20/00 15:25:31  5-MIN KSTC 202125Z AUTO 27019G26KT 10SM FEW049 SCT060 23/12 A2955 1370 47 2700 270/19G26 RMK AO2 PK WND 27027/2055
14926KSTC STC20000620153013306/20/00 15:30:31  5-MIN KSTC 202130Z AUTO 27015G26KT 10SM FEW046 SCT055 23/12 A2955 1370 47 2700 270/15G26 RMK AO2 PK WND 27027/2055
14926KSTC STC20000620153513306/20/00 15:35:31  5-MIN KSTC 202135Z AUTO 28018G25KT 10SM FEW046 SCT060 23/12 A2955 1370 49 2600 280/18G25 RMK AO2 PK WND 27027/2055
14926KSTC STC20000620154013306/20/00 15:40:31  5-MIN KSTC 202140Z AUTO 27017G25KT 10SM FEW048 SCT060 23/12 A2955 1370 49 2600 270/17G25 RMK AO2 PK WND 27027/2055
14926KSTC STC20000620154513306/20/00 15:45:31  5-MIN KSTC 202145Z AUTO 28016G22KT 10SM SCT048 SCT055 23/12 A2955 1370 47 2700 270/16G22 RMK AO2 PK WND 27027/2055
14926KSTC STC20000620155014306/20/00 15:50:31  5-MIN KSTC 202150Z AUTO 27022G26KT 10SM FEW048 23/11 A2955 1370 45 2700 270/22G26 RMK AO2 PK WND 27027/2055 SLP009 T02330111
14926KSTC STC20000620155510806/20/00 15:55:31  5-MIN KSTC 202155Z AUTO 27019G26KT 10SM FEW048 23/11 A2955 1370 45 2700 270/19G26 RMK AO2
14926KSTC STC20000620160010806/20/00 16:00:31  5-MIN KSTC 202200Z AUTO 27017G24KT 10SM FEW050 23/12 A2955 1370 47 2700 270/17G24 RMK AO2
14926KSTC STC20000620160510206/20/00 16:05:31  5-MIN KSTC 202205Z AUTO 26016KT 10SM FEW050 23/12 A2955 1370 47 2700 260/16 RMK AO2
14926KSTC STC20000620161010806/20/00 16:10:31  5-MIN KSTC 202210Z AUTO 26018G21KT 10SM FEW050 23/12 A2955 1370 47 2700 260/18G21 RMK AO2
14926KSTC STC20000620161510806/20/00 16:15:31  5-MIN KSTC 202215Z AUTO 28013G21KT 10SM FEW050 23/12 A2955 1370 47 2700 280/13G21 RMK AO2
14926KSTC STC20000620162010806/20/00 16:20:31  5-MIN KSTC 202220Z AUTO 27017G21KT 10SM FEW050 23/12 A2955 1370 47 2700 270/17G21 RMK AO2
14926KSTC STC20000620162510806/20/00 16:25:31  5-MIN KSTC 202225Z AUTO 26015G21KT 10SM SCT050 24/12 A2955 1370 46 2800 260/15G21 RMK AO2
14926KSTC STC20000620163010806/20/00 16:30:31  5-MIN KSTC 202230Z AUTO 27015G20KT 10SM FEW050 24/12 A2955 1370 46 2700 260/15G20 RMK AO2
14926KSTC STC20000620163510806/20/00 16:35:31  5-MIN KSTC 202235Z AUTO 26017G21KT 10SM FEW050 24/12 A2955 1370 46 2700 260/17G21 RMK AO2
14926KSTC STC20000620164010806/20/00 16:40:31  5-MIN KSTC 202240Z AUTO 27016G21KT 10SM FEW050 24/12 A2955 1370 46 2800 260/16G21 RMK AO2
14926KSTC STC20000620164511506/20/00 16:45:31  5-MIN KSTC 202245Z AUTO 26015G22KT 10SM FEW055 SCT090 23/11 A2955 1380 45 2700 260/15G22 RMK AO2
14926KSTC STC20000620165013206/20/00 16:50:31  5-MIN KSTC 202250Z AUTO 28014G22KT 10SM FEW060 SCT090 23/11 A2955 1370 45 2700 270/14G22 RMK AO2 SLP008 T02330111
14926KSTC STC20000620165511506/20/00 16:55:31  5-MIN KSTC 202255Z AUTO 26015G19KT 10SM FEW060 SCT090 23/12 A2955 1370 49 2600 260/15G19 RMK AO2
14926KSTC STC20000620170011506/20/00 17:00:31  5-MIN KSTC 202300Z AUTO 27010G19KT 10SM SCT060 BKN085 23/12 A2954 1380 47 2700 270/10G19 RMK AO2
14926KSTC STC20000620170511506/20/00 17:05:31  5-MIN KSTC 202305Z AUTO 26015G20KT 10SM SCT060 BKN085 23/12 A2955 1380 49 2600 260/15G20 RMK AO2
14926KSTC STC20000620171011506/20/00 17:10:31  5-MIN KSTC 202310Z AUTO 26016G20KT 10SM BKN060 OVC085 23/11 A2955 1370 47 2600 260/16G20 RMK AO2
14926KSTC STC20000620171510906/20/00 17:15:31  5-MIN KSTC 202315Z AUTO 26014KT 10SM BKN060 BKN090 24/11 A2955 1380 44 2800 260/14 RMK AO2
14926KSTC STC20000620172010906/20/00 17:20:31  5-MIN KSTC 202320Z AUTO 26014KT 10SM SCT060 BKN090 23/11 A2954 1380 45 2700 260/14 RMK AO2
14926KSTC STC20000620172511506/20/00 17:25:31  5-MIN KSTC 202325Z AUTO 26016G21KT 10SM BKN060 BKN090 24/11 A2954 1380 44 2800 260/16G21 RMK AO2
14926KSTC STC20000620173013306/20/00 17:30:31  5-MIN KSTC 202330Z AUTO 26016G28KT 10SM SCT060 BKN090 24/11 A2954 1380 42 2800 260/16G28 RMK AO2 PK WND 25028/2327
14926KSTC STC20000620173513306/20/00 17:35:31  5-MIN KSTC 202335Z AUTO 28018G28KT 10SM SCT060 SCT090 24/11 A2955 1370 42 2800 280/18G28 RMK AO2 PK WND 25028/2327
14926KSTC STC20000620174013306/20/00 17:40:31  5-MIN KSTC 202340Z AUTO 26016G23KT 10SM FEW060 SCT090 24/11 A2955 1370 42 2800 260/16G23 RMK AO2 PK WND 25028/2327
14926KSTC STC20000620174512606/20/00 17:45:31  5-MIN KSTC 202345Z AUTO 27017G23KT 10SM FEW060 23/11 A2955 1370 44 2700 270/17G23 RMK AO2 PK WND 25028/2327
14926KSTC STC20000620175016106/20/00 17:50:31  5-MIN KSTC 202350Z AUTO 27014G23KT 10SM FEW060 23/11 A2955 1370 44 2700 270/14G23 RMK AO2 PK WND 25028/2327 SLP007 T02330106 10239 20211 51017
14926KSTC STC20000620175510506/20/00 17:55:31  5-MIN KSTC 202355Z AUTO 27013G23KT 10SM CLR 23/11 A2955 1370 44 2700 270/13G23 RMK AO2
14926KSTC STC20000620180010506/20/00 18:00:31  5-MIN KSTC 210000Z AUTO 27013G23KT 10SM CLR 23/11 A2955 1370 44 2700 270/13G23 RMK AO2
14926KSTC STC20000620180510506/20/00 18:05:31  5-MIN KSTC 210005Z AUTO 27014G19KT 10SM CLR 23/11 A2955 1370 44 2700 270/14G19 RMK AO2
14926KSTC STC20000620181010506/20/00 18:10:31  5-MIN KSTC 210010Z AUTO 28019G24KT 10SM CLR 23/09 A2955 1370 41 2700 270/19G24 RMK AO2
14926KSTC STC20000620181510506/20/00 18:15:31  5-MIN KSTC 210015Z AUTO 27017G24KT 10SM CLR 23/09 A2955 1370 41 2700 260/17G24 RMK AO2
14926KSTC STC20000620182009906/20/00 18:20:31  5-MIN KSTC 210020Z AUTO 27015KT 10SM CLR 23/09 A2955 1370 42 2600 270/15 RMK AO2
14926KSTC STC20000620182510506/20/00 18:25:31  5-MIN KSTC 210025Z AUTO 27016G24KT 10SM CLR 23/09 A2955 1370 42 2600 270/16G24 RMK AO2
14926KSTC STC20000620183010506/20/00 18:30:31  5-MIN KSTC 210030Z AUTO 27015G24KT 10SM CLR 23/10 A2955 1370 44 2600 270/15G24 RMK AO2
14926KSTC STC20000620183510506/20/00 18:35:31  5-MIN KSTC 210035Z AUTO 26016G22KT 10SM CLR 23/10 A2955 1370 44 2600 260/16G22 RMK AO2
14926KSTC STC20000620184010506/20/00 18:40:31  5-MIN KSTC 210040Z AUTO 26014G22KT 10SM CLR 23/10 A2955 1370 44 2600 260/14G22 RMK AO2
14926KSTC STC20000620184510506/20/00 18:45:31  5-MIN KSTC 210045Z AUTO 27015G21KT 10SM CLR 22/09 A2956 1360 43 2600 260/15G21 RMK AO2
14926KSTC STC20000620185012206/20/00 18:50:31  5-MIN KSTC 210050Z AUTO 27014G21KT 10SM CLR 22/09 A2956 1370 43 2600 270/14G21 RMK AO2 SLP012 T02220094
14926KSTC STC20000620185510506/20/00 18:55:31  5-MIN KSTC 210055Z AUTO 26016G22KT 10SM CLR 22/09 A2956 1360 43 2600 260/16G22 RMK AO2
14926KSTC STC20000620190010506/20/00 19:00:31  5-MIN KSTC 210100Z AUTO 27017G23KT 10SM CLR 22/09 A2956 1370 42 2600 260/17G23 RMK AO2
14926KSTC STC20000620190510506/20/00 19:05:31  5-MIN KSTC 210105Z AUTO 27015G23KT 10SM CLR 22/09 A2956 1370 42 2600 270/15G23 RMK AO2
14926KSTC STC20000620191009906/20/00 19:10:31  5-MIN KSTC 210110Z AUTO 27012KT 10SM CLR 22/09 A2955 1370 43 2500 270/12 RMK AO2
14926KSTC STC20000620191509906/20/00 19:15:31  5-MIN KSTC 210115Z AUTO 27010KT 10SM CLR 22/09 A2956 1370 43 2500 260/10 RMK AO2
14926KSTC STC20000620192009906/20/00 19:20:31  5-MIN KSTC 210120Z AUTO 27010KT 10SM CLR 21/09 A2956 1360 45 2400 260/10 RMK AO2
14926KSTC STC20000620192509906/20/00 19:25:31  5-MIN KSTC 210125Z AUTO 26009KT 10SM CLR 21/09 A2956 1370 45 2400 260/09 RMK AO2
14926KSTC STC20000620193009906/20/00 19:30:31  5-MIN KSTC 210130Z AUTO 26009KT 10SM CLR 21/09 A2955 1370 45 2400 260/09 RMK AO2
14926KSTC STC20000620193509906/20/00 19:35:31  5-MIN KSTC 210135Z AUTO 26009KT 10SM CLR 21/09 A2955 1370 45 2400 260/09 RMK AO2
14926KSTC STC20000620194009906/20/00 19:40:31  5-MIN KSTC 210140Z AUTO 26009KT 10SM CLR 21/09 A2955 1370 48 2400 250/09 RMK AO2
14926KSTC STC20000620194509906/20/00 19:45:31  5-MIN KSTC 210145Z AUTO 26008KT 10SM CLR 20/09 A2956 1370 50 2300 250/08 RMK AO2
14926KSTC STC20000620195011606/20/00 19:50:31  5-MIN KSTC 210150Z AUTO 25007KT 10SM CLR 19/09 A2956 1370 52 2200 250/07 RMK AO2 SLP012 T01940094
14926KSTC STC20000620195509906/20/00 19:55:31  5-MIN KSTC 210155Z AUTO 26007KT 10SM CLR 19/10 A2956 1370 56 2200 250/07 RMK AO2
14926KSTC STC20000620200009906/20/00 20:00:31  5-MIN KSTC 210200Z AUTO 26007KT 10SM CLR 18/10 A2956 1370 58 2100 250/07 RMK AO2
14926KSTC STC20000620200509906/20/00 20:05:31  5-MIN KSTC 210205Z AUTO 25007KT 10SM CLR 18/10 A2956 1370 58 2100 250/07 RMK AO2
14926KSTC STC20000620201009906/20/00 20:10:31  5-MIN KSTC 210210Z AUTO 25006KT 10SM CLR 18/11 A2956 1360 62 2000 240/06 RMK AO2
14926KSTC STC20000620201509906/20/00 20:15:31  5-MIN KSTC 210215Z AUTO 24007KT 10SM CLR 18/11 A2956 1360 62 2000 240/07 RMK AO2
14926KSTC STC20000620202009906/20/00 20:20:31  5-MIN KSTC 210220Z AUTO 25008KT 10SM CLR 18/11 A2956 1360 60 2100 240/08 RMK AO2
14926KSTC STC20000620202509906/20/00 20:25:31  5-MIN KSTC 210225Z AUTO 25008KT 10SM CLR 19/10 A2956 1360 56 2200 250/08 RMK AO2
14926KSTC STC20000620203009906/20/00 20:30:31  5-MIN KSTC 210230Z AUTO 25008KT 10SM CLR 18/10 A2956 1360 58 2100 250/08 RMK AO2
14926KSTC STC20000620203509906/20/00 20:35:31  5-MIN KSTC 210235Z AUTO 25008KT 10SM CLR 18/10 A2956 1360 58 2100 240/08 RMK AO2
14926KSTC STC20000620204010206/20/00 20:40:31  5-MIN KSTC 210240Z AUTO 24007KT 10SM FEW065 18/10 A2957 1350 58 2100 240/07 RMK AO2
14926KSTC STC20000620204510906/20/00 20:45:31  5-MIN KSTC 210245Z AUTO 23007KT 10SM FEW060 SCT090 18/10 A2957 1350 58 2100 230/07 RMK AO2
14926KSTC STC20000620205013206/20/00 20:50:31  5-MIN KSTC 210250Z AUTO 24007KT 10SM FEW060 SCT090 18/10 A2957 1350 58 2100 240/07 RMK AO2 SLP018 T01830100 51003
14926KSTC STC20000620205510206/20/00 20:55:31  5-MIN KSTC 210255Z AUTO 26006KT 10SM FEW060 18/11 A2958 1350 62 2000 260/06 RMK AO2
14926KSTC STC20000620210510206/20/00 21:05:31  5-MIN KSTC 210305Z AUTO 26007KT 10SM FEW060 17/10 A2958 1340 62 2000 250/07 RMK AO2
14926KSTC STC20000620211010206/20/00 21:10:31  5-MIN KSTC 210310Z AUTO 25007KT 10SM FEW060 17/11 A2958 1340 64 2000 250/07 RMK AO2
14926KSTC STC20000620211509906/20/00 21:15:31  5-MIN KSTC 210315Z AUTO 25007KT 10SM CLR 18/10 A2958 1340 60 2000 250/07 RMK AO2
14926KSTC STC20000620212009906/20/00 21:20:31  5-MIN KSTC 210320Z AUTO 25008KT 10SM CLR 18/10 A2958 1340 60 2000 250/08 RMK AO2
14926KSTC STC20000620212509906/20/00 21:25:31  5-MIN KSTC 210325Z AUTO 26008KT 10SM CLR 18/10 A2959 1340 60 2000 250/08 RMK AO2
14926KSTC STC20000620213010206/20/00 21:30:31  5-MIN KSTC 210330Z AUTO 26008KT 10SM FEW065 18/10 A2959 1340 60 2000 260/08 RMK AO2
14926KSTC STC20000620213510206/20/00 21:35:31  5-MIN KSTC 210335Z AUTO 26008KT 10SM FEW065 18/10 A2959 1340 60 2000 250/08 RMK AO2
14926KSTC STC20000620214010206/20/00 21:40:31  5-MIN KSTC 210340Z AUTO 25008KT 10SM FEW070 18/10 A2959 1340 60 2000 250/08 RMK AO2
14926KSTC STC20000620214509906/20/00 21:45:31  5-MIN KSTC 210345Z AUTO 25008KT 10SM CLR 18/10 A2959 1340 60 2000 250/08 RMK AO2
14926KSTC STC20000620215011606/20/00 21:50:31  5-MIN KSTC 210350Z AUTO 25007KT 10SM CLR 18/10 A2959 1340 60 2000 250/07 RMK AO2 SLP023 T01780100
14926KSTC STC20000620215509906/20/00 21:55:31  5-MIN KSTC 210355Z AUTO 25007KT 10SM CLR 17/10 A2959 1340 62 1900 250/07 RMK AO2
14926KSTC STC20000620220009906/20/00 22:00:31  5-MIN KSTC 210400Z AUTO 25007KT 10SM CLR 17/10 A2958 1340 62 1900 240/07 RMK AO2
14926KSTC STC20000620220509906/20/00 22:05:31  5-MIN KSTC 210405Z AUTO 25007KT 10SM CLR 17/10 A2959 1340 62 1900 240/07 RMK AO2
14926KSTC STC20000620221009906/20/00 22:10:31  5-MIN KSTC 210410Z AUTO 24007KT 10SM CLR 17/10 A2959 1340 64 1900 240/07 RMK AO2
14926KSTC STC20000620221510906/20/00 22:15:31  5-MIN KSTC 210415Z AUTO 24007KT 10SM FEW060 SCT075 17/11 A2959 1340 64 1900 240/07 RMK AO2
14926KSTC STC20000620222010906/20/00 22:20:31  5-MIN KSTC 210420Z AUTO 25007KT 10SM SCT060 SCT075 17/11 A2959 1340 64 1900 240/07 RMK AO2
14926KSTC STC20000620222510906/20/00 22:25:31  5-MIN KSTC 210425Z AUTO 24008KT 10SM SCT065 BKN080 17/10 A2959 1340 62 1900 240/08 RMK AO2
14926KSTC STC20000620223010906/20/00 22:30:31  5-MIN KSTC 210430Z AUTO 25007KT 10SM SCT060 BKN080 17/11 A2959 1340 64 1900 240/07 RMK AO2
14926KSTC STC20000620223510906/20/00 22:35:31  5-MIN KSTC 210435Z AUTO 25009KT 10SM SCT060 OVC090 18/10 A2959 1330 60 2000 250/09 RMK AO2
14926KSTC STC20000620224010906/20/00 22:40:31  5-MIN KSTC 210440Z AUTO 25010KT 10SM SCT065 BKN090 18/10 A2959 1330 60 2000 250/10 RMK AO2
14926KSTC STC20000620224510906/20/00 22:45:31  5-MIN KSTC 210445Z AUTO 26009KT 10SM SCT065 BKN090 17/10 A2959 1330 62 1900 250/09 RMK AO2
14926KSTC STC20000620225012606/20/00 22:50:31  5-MIN KSTC 210450Z AUTO 26009KT 10SM FEW065 SCT090 17/10 A2959 1330 62 1900 260/09 RMK AO2 SLP025 T01720100
14926KSTC STC20000620225510906/20/00 22:55:31  5-MIN KSTC 210455Z AUTO 25009KT 10SM FEW060 SCT090 17/10 A2959 1330 62 1900 250/09 RMK AO2
14926KSTC STC20000620230010906/20/00 23:00:31  5-MIN KSTC 210500Z AUTO 25009KT 10SM FEW060 SCT095 17/10 A2959 1330 62 1900 250/09 RMK AO2
14926KSTC STC20000620230510206/20/00 23:05:31  5-MIN KSTC 210505Z AUTO 26011KT 10SM SCT065 17/10 A2959 1330 62 1900 250/11 RMK AO2
14926KSTC STC20000620231010206/20/00 23:10:31  5-MIN KSTC 210510Z AUTO 26012KT 10SM SCT070 17/10 A2960 1330 62 1900 260/12 RMK AO2
14926KSTC STC20000620231510206/20/00 23:15:31  5-MIN KSTC 210515Z AUTO 26012KT 10SM FEW060 17/09 A2960 1330 60 1900 260/12 RMK AO2
14926KSTC STC20000620232010806/20/00 23:20:31  5-MIN KSTC 210520Z AUTO 26013G18KT 10SM FEW060 18/09 A2959 1330 58 2000 260/13G18 RMK AO2
14926KSTC STC20000620232510806/20/00 23:25:31  5-MIN KSTC 210525Z AUTO 26011G18KT 10SM FEW070 17/09 A2960 1330 60 1900 260/11G18 RMK AO2
14926KSTC STC20000620233010206/20/00 23:30:31  5-MIN KSTC 210530Z AUTO 25010KT 10SM FEW070 17/09 A2960 1330 60 1900 250/10 RMK AO2
14926KSTC STC20000620233509906/20/00 23:35:31  5-MIN KSTC 210535Z AUTO 24008KT 10SM CLR 17/09 A2959 1330 62 1900 240/08 RMK AO2
14926KSTC STC20000620234009906/20/00 23:40:31  5-MIN KSTC 210540Z AUTO 24008KT 10SM CLR 17/09 A2959 1330 62 1900 240/08 RMK AO2
14926KSTC STC20000620234509906/20/00 23:45:31  5-MIN KSTC 210545Z AUTO 24010KT 10SM CLR 17/09 A2959 1330 62 1900 240/10 RMK AO2
14926KSTC STC20000620235014406/20/00 23:50:31  5-MIN KSTC 210550Z AUTO 24009KT 10SM CLR 16/10 A2959 1330 67 1800 240/09 RMK AO2 SLP025 T01610100 10233 20161 402390161 53009
14926KSTC STC20000620235509906/20/00 23:55:31  5-MIN KSTC 210555Z AUTO 24008KT 10SM CLR 16/09 A2959 1330 64 1800 240/08 RMK AO2
14926KSTC STC20000621000009906/21/00 00:00:31  5-MIN KSTC 210600Z AUTO 24008KT 10SM CLR 16/09 A2959 1330 64 1800 240/08 RMK AO2
14926KSTC STC20000621000509906/21/00 00:05:31  5-MIN KSTC 210605Z AUTO 23008KT 10SM CLR 16/09 A2959 1330 64 1800 230/08 RMK AO2
14926KSTC STC20000621001009906/21/00 00:10:31  5-MIN KSTC 210610Z AUTO 23008KT 10SM CLR 16/09 A2959 1330 64 1800 230/08 RMK AO2
14926KSTC STC20000621001509906/21/00 00:15:31  5-MIN KSTC 210615Z AUTO 23008KT 10SM CLR 16/09 A2959 1340 64 1800 230/08 RMK AO2
14926KSTC STC20000621002009906/21/00 00:20:31  5-MIN KSTC 210620Z AUTO 23008KT 10SM CLR 16/09 A2959 1340 64 1800 230/08 RMK AO2
14926KSTC STC20000621002509906/21/00 00:25:31  5-MIN KSTC 210625Z AUTO 23008KT 10SM CLR 16/09 A2959 1340 67 1800 230/08 RMK AO2
14926KSTC STC20000621003009906/21/00 00:30:31  5-MIN KSTC 210630Z AUTO 23008KT 10SM CLR 16/09 A2959 1340 67 1800 230/08 RMK AO2
14926KSTC STC20000621003509906/21/00 00:35:31  5-MIN KSTC 210635Z AUTO 23008KT 10SM CLR 16/09 A2959 1340 64 1800 230/08 RMK AO2
14926KSTC STC20000621004009906/21/00 00:40:31  5-MIN KSTC 210640Z AUTO 23008KT 10SM CLR 16/09 A2959 1340 64 1800 230/08 RMK AO2
14926KSTC STC20000621004509906/21/00 00:45:31  5-MIN KSTC 210645Z AUTO 24009KT 10SM CLR 16/09 A2958 1340 64 1800 230/09 RMK AO2
14926KSTC STC20000621005011606/21/00 00:50:31  5-MIN KSTC 210650Z AUTO 24010KT 10SM CLR 16/09 A2958 1340 64 1800 240/10 RMK AO2 SLP023 T01560089
14926KSTC STC20000621005509906/21/00 00:55:31  5-MIN KSTC 210655Z AUTO 24009KT 10SM CLR 16/09 A2958 1340 64 1800 240/09 RMK AO2
14926KSTC STC20000621010009906/21/00 01:00:31  5-MIN KSTC 210700Z AUTO 24009KT 10SM CLR 16/09 A2958 1340 64 1800 240/09 RMK AO2
14926KSTC STC20000621010509906/21/00 01:05:31  5-MIN KSTC 210705Z AUTO 24010KT 10SM CLR 16/09 A2958 1340 64 1800 240/10 RMK AO2
14926KSTC STC20000621011009906/21/00 01:10:31  5-MIN KSTC 210710Z AUTO 24010KT 10SM CLR 16/09 A2958 1340 62 1800 240/10 RMK AO2
14926KSTC STC20000621011509906/21/00 01:15:31  5-MIN KSTC 210715Z AUTO 24012KT 10SM CLR 16/08 A2958 1340 59 1800 240/12 RMK AO2
14926KSTC STC20000621012009906/21/00 01:20:31  5-MIN KSTC 210720Z AUTO 24011KT 10SM CLR 16/08 A2958 1340 59 1800 240/11 RMK AO2
14926KSTC STC20000621012509906/21/00 01:25:31  5-MIN KSTC 210725Z AUTO 24013KT 10SM CLR 16/08 A2958 1340 59 1800 240/13 RMK AO2
14926KSTC STC20000621013009906/21/00 01:30:31  5-MIN KSTC 210730Z AUTO 24012KT 10SM CLR 16/08 A2958 1340 59 1800 240/12 RMK AO2
14926KSTC STC20000621013509906/21/00 01:35:31  5-MIN KSTC 210735Z AUTO 24011KT 10SM CLR 16/08 A2958 1340 59 1800 240/11 RMK AO2
14926KSTC STC20000621014009906/21/00 01:40:31  5-MIN KSTC 210740Z AUTO 24014KT 10SM CLR 16/08 A2958 1340 59 1800 240/14 RMK AO2
14926KSTC STC20000621014509906/21/00 01:45:31  5-MIN KSTC 210745Z AUTO 25012KT 10SM CLR 17/08 A2958 1340 57 1900 240/12 RMK AO2
14926KSTC STC20000621015011606/21/00 01:50:31  5-MIN KSTC 210750Z AUTO 25013KT 10SM CLR 16/08 A2958 1340 59 1800 250/13 RMK AO2 SLP021 T01610083
14926KSTC STC20000621015509906/21/00 01:55:31  5-MIN KSTC 210755Z AUTO 25011KT 10SM CLR 16/08 A2958 1340 59 1800 240/11 RMK AO2
14926KSTC STC20000621020009906/21/00 02:00:31  5-MIN KSTC 210800Z AUTO 25012KT 10SM CLR 16/08 A2958 1350 59 1800 240/12 RMK AO2
14926KSTC STC20000621020509906/21/00 02:05:31  5-MIN KSTC 210805Z AUTO 25013KT 10SM CLR 16/08 A2957 1350 59 1800 240/13 RMK AO2
14926KSTC STC20000621021010506/21/00 02:10:31  5-MIN KSTC 210810Z AUTO 25015G20KT 10SM CLR 16/08 A2957 1350 59 1800 250/15G20 RMK AO2
14926KSTC STC20000621021510506/21/00 02:15:31  5-MIN KSTC 210815Z AUTO 25014G20KT 10SM CLR 16/08 A2957 1350 59 1800 240/14G20 RMK AO2
14926KSTC STC20000621022009906/21/00 02:20:31  5-MIN KSTC 210820Z AUTO 25013KT 10SM CLR 16/08 A2957 1350 59 1800 250/13 RMK AO2
14926KSTC STC20000621022509906/21/00 02:25:31  5-MIN KSTC 210825Z AUTO 25014KT 10SM CLR 16/08 A2957 1350 59 1800 240/14 RMK AO2
14926KSTC STC20000621023009906/21/00 02:30:31  5-MIN KSTC 210830Z AUTO 25013KT 10SM CLR 16/08 A2957 1350 59 1800 250/13 RMK AO2
14926KSTC STC20000621023509906/21/00 02:35:31  5-MIN KSTC 210835Z AUTO 25013KT 10SM CLR 16/08 A2957 1350 59 1800 250/13 RMK AO2
14926KSTC STC20000621024009906/21/00 02:40:31  5-MIN KSTC 210840Z AUTO 25012KT 10SM CLR 16/08 A2957 1350 62 1800 250/12 RMK AO2
14926KSTC STC20000621024509906/21/00 02:45:31  5-MIN KSTC 210845Z AUTO 25013KT 10SM CLR 16/08 A2957 1350 62 1800 250/13 RMK AO2
14926KSTC STC20000621025012206/21/00 02:50:31  5-MIN KSTC 210850Z AUTO 25014KT 10SM CLR 16/08 A2957 1350 62 1800 250/14 RMK AO2 SLP017 T01560083 50005
14926KSTC STC20000621025509906/21/00 02:55:31  5-MIN KSTC 210855Z AUTO 25014KT 10SM CLR 16/08 A2957 1350 62 1800 250/14 RMK AO2
14926KSTC STC20000621030009906/21/00 03:00:31  5-MIN KSTC 210900Z AUTO 25011KT 10SM CLR 16/08 A2957 1350 62 1800 250/11 RMK AO2
14926KSTC STC20000621030510506/21/00 03:05:31  5-MIN KSTC 210905Z AUTO 24013G19KT 10SM CLR 16/08 A2957 1350 59 1800 240/13G19 RMK AO2
14926KSTC STC20000621031010506/21/00 03:10:31  5-MIN KSTC 210910Z AUTO 24013G19KT 10SM CLR 16/08 A2957 1350 62 1800 240/13G19 RMK AO2
14926KSTC STC20000621031509906/21/00 03:15:31  5-MIN KSTC 210915Z AUTO 24014KT 10SM CLR 16/08 A2957 1350 59 1800 240/14 RMK AO2
14926KSTC STC20000621032009906/21/00 03:20:31  5-MIN KSTC 210920Z AUTO 25013KT 10SM CLR 16/08 A2957 1350 62 1800 240/13 RMK AO2
14926KSTC STC20000621032509906/21/00 03:25:31  5-MIN KSTC 210925Z AUTO 24011KT 10SM CLR 16/08 A2957 1360 62 1800 240/11 RMK AO2
14926KSTC STC20000621033009906/21/00 03:30:31  5-MIN KSTC 210930Z AUTO 24011KT 10SM CLR 16/08 A2957 1360 62 1800 230/11 RMK AO2
14926KSTC STC20000621033510506/21/00 03:35:31  5-MIN KSTC 210935Z AUTO 23011G18KT 10SM CLR 16/08 A2956 1360 62 1800 220/11G18 RMK AO2
14926KSTC STC20000621034010506/21/00 03:40:31  5-MIN KSTC 210940Z AUTO 22010G18KT 10SM CLR 15/08 A2956 1360 64 1700 220/10G18 RMK AO2
14926KSTC STC20000621034509906/21/00 03:45:31  5-MIN KSTC 210945Z AUTO 22008KT 10SM CLR 15/08 A2956 1360 64 1700 220/08 RMK AO2
14926KSTC STC20000621035011606/21/00 03:50:31  5-MIN KSTC 210950Z AUTO 20010KT 10SM CLR 14/08 A2956 1360 66 1700 200/10 RMK AO2 SLP015 T01440083
14926KSTC STC20000621035509906/21/00 03:55:31  5-MIN KSTC 210955Z AUTO 21010KT 10SM CLR 14/09 A2956 1360 71 1600 210/10 RMK AO2
14926KSTC STC20000621040009906/21/00 04:00:31  5-MIN KSTC 211000Z AUTO 21011KT 10SM CLR 14/09 A2956 1360 71 1600 210/11 RMK AO2
14926KSTC STC20000621040509906/21/00 04:05:31  5-MIN KSTC 211005Z AUTO 22012KT 10SM CLR 14/09 A2956 1360 71 1600 220/12 RMK AO2
14926KSTC STC20000621041009906/21/00 04:10:31  5-MIN KSTC 211010Z AUTO 22011KT 10SM CLR 14/09 A2956 1360 71 1600 220/11 RMK AO2
14926KSTC STC20000621041509906/21/00 04:15:31  5-MIN KSTC 211015Z AUTO 22010KT 10SM CLR 14/09 A2956 1360 71 1600 210/10 RMK AO2
14926KSTC STC20000621042009906/21/00 04:20:31  5-MIN KSTC 211020Z AUTO 22012KT 10SM CLR 14/09 A2956 1360 71 1600 220/12 RMK AO2
14926KSTC STC20000621042509906/21/00 04:25:31  5-MIN KSTC 211025Z AUTO 22011KT 10SM CLR 14/09 A2956 1360 71 1600 210/11 RMK AO2
14926KSTC STC20000621043009906/21/00 04:30:31  5-MIN KSTC 211030Z AUTO 22012KT 10SM CLR 14/09 A2956 1360 71 1600 220/12 RMK AO2
14926KSTC STC20000621043509906/21/00 04:35:31  5-MIN KSTC 211035Z AUTO 22012KT 10SM CLR 14/09 A2956 1360 71 1600 210/12 RMK AO2
14926KSTC STC20000621044009906/21/00 04:40:31  5-MIN KSTC 211040Z AUTO 22011KT 10SM CLR 14/09 A2956 1360 71 1600 220/11 RMK AO2
14926KSTC STC20000621044509906/21/00 04:45:31  5-MIN KSTC 211045Z AUTO 22012KT 10SM CLR 14/09 A2956 1360 71 1600 220/12 RMK AO2
14926KSTC STC20000621045011606/21/00 04:50:31  5-MIN KSTC 211050Z AUTO 22012KT 10SM CLR 14/08 A2956 1360 69 1600 220/12 RMK AO2 SLP014 T01390083
14926KSTC STC20000621045509906/21/00 04:55:31  5-MIN KSTC 211055Z AUTO 22012KT 10SM CLR 14/08 A2956 1370 69 1600 220/12 RMK AO2
14926KSTC STC20000621050009906/21/00 05:00:31  5-MIN KSTC 211100Z AUTO 22010KT 10SM CLR 14/09 A2956 1370 71 1600 220/10 RMK AO2
14926KSTC STC20000621050509906/21/00 05:05:31  5-MIN KSTC 211105Z AUTO 22011KT 10SM CLR 14/09 A2956 1370 71 1600 210/11 RMK AO2
14926KSTC STC20000621051009906/21/00 05:10:31  5-MIN KSTC 211110Z AUTO 22011KT 10SM CLR 14/09 A2956 1370 71 1600 220/11 RMK AO2
14926KSTC STC20000621051509906/21/00 05:15:31  5-MIN KSTC 211115Z AUTO 22012KT 10SM CLR 14/09 A2956 1370 71 1600 220/12 RMK AO2
14926KSTC STC20000621052009906/21/00 05:20:31  5-MIN KSTC 211120Z AUTO 22010KT 10SM CLR 14/09 A2955 1370 71 1600 220/10 RMK AO2
14926KSTC STC20000621052509906/21/00 05:25:31  5-MIN KSTC 211125Z AUTO 21012KT 10SM CLR 14/09 A2956 1370 69 1700 210/12 RMK AO2
14926KSTC STC20000621053009906/21/00 05:30:31  5-MIN KSTC 211130Z AUTO 22011KT 10SM CLR 14/09 A2955 1370 69 1700 220/11 RMK AO2
14926KSTC STC20000621053509906/21/00 05:35:31  5-MIN KSTC 211135Z AUTO 21012KT 10SM CLR 14/09 A2955 1370 69 1700 210/12 RMK AO2
14926KSTC STC20000621054009906/21/00 05:40:31  5-MIN KSTC 211140Z AUTO 22012KT 10SM CLR 14/09 A2955 1370 69 1700 210/12 RMK AO2
14926KSTC STC20000621054509906/21/00 05:45:31  5-MIN KSTC 211145Z AUTO 22013KT 10SM CLR 14/09 A2955 1370 69 1700 210/13 RMK AO2
14926KSTC STC20000621055014006/21/00 05:50:31  5-MIN KSTC 211150Z AUTO 22011KT 10SM CLR 15/09 A2955 1370 66 1700 220/11 RMK AO2 SLP011 70003 T01500089 10167 20139 56006
14926KSTC STC20000621055509906/21/00 05:55:31  5-MIN KSTC 211155Z AUTO 22011KT 10SM CLR 15/09 A2955 1370 66 1700 220/11 RMK AO2
14926KSTC STC20000621060009906/21/00 06:00:31  5-MIN KSTC 211200Z AUTO 22013KT 10SM CLR 15/08 A2955 1370 64 1700 220/13 RMK AO2
14926KSTC STC20000621060510206/21/00 06:05:31  5-MIN KSTC 211205Z AUTO 22012KT 10SM FEW080 16/08 A2955 1370 62 1800 220/12 RMK AO2
14926KSTC STC20000621061010206/21/00 06:10:31  5-MIN KSTC 211210Z AUTO 22012KT 10SM FEW080 15/08 A2955 1370 64 1700 220/12 RMK AO2
14926KSTC STC20000621061510206/21/00 06:15:31  5-MIN KSTC 211215Z AUTO 22013KT 10SM FEW080 16/08 A2955 1380 62 1800 220/13 RMK AO2
14926KSTC STC20000621062010206/21/00 06:20:31  5-MIN KSTC 211220Z AUTO 22014KT 10SM FEW080 16/08 A2954 1380 62 1800 210/14 RMK AO2
14926KSTC STC20000621062510206/21/00 06:25:31  5-MIN KSTC 211225Z AUTO 22012KT 10SM FEW080 16/08 A2954 1380 59 1900 210/12 RMK AO2
14926KSTC STC20000621063010206/21/00 06:30:31  5-MIN KSTC 211230Z AUTO 22014KT 10SM FEW080 16/08 A2954 1380 59 1900 210/14 RMK AO2
14926KSTC STC20000621063510506/21/00 06:35:31  5-MIN KSTC 211235Z AUTO 22016G21KT 10SM CLR 17/08 A2953 1390 57 1900 210/16G21 RMK AO2
14926KSTC STC20000621064010506/21/00 06:40:31  5-MIN KSTC 211240Z AUTO 22014G21KT 10SM CLR 17/08 A2953 1390 57 1900 220/14G21 RMK AO2
14926KSTC STC20000621064509906/21/00 06:45:31  5-MIN KSTC 211245Z AUTO 21014KT 10SM CLR 17/08 A2953 1390 57 1900 210/14 RMK AO2
14926KSTC STC20000621065011606/21/00 06:50:31  5-MIN KSTC 211250Z AUTO 22014KT 10SM CLR 17/08 A2953 1390 57 1900 220/14 RMK AO2 SLP005 T01670083
14926KSTC STC20000621065510506/21/00 06:55:31  5-MIN KSTC 211255Z AUTO 22013G20KT 10SM CLR 17/09 A2953 1390 57 2000 220/13G20 RMK AO2
14926KSTC STC20000621070010506/21/00 07:00:31  5-MIN KSTC 211300Z AUTO 23018G21KT 10SM CLR 17/08 A2953 1390 55 2000 230/18G21 RMK AO2
14926KSTC STC20000621070510506/21/00 07:05:31  5-MIN KSTC 211305Z AUTO 22019G24KT 10SM CLR 17/08 A2953 1390 55 2000 220/19G24 RMK AO2
14926KSTC STC20000621071010506/21/00 07:10:31  5-MIN KSTC 211310Z AUTO 23018G24KT 10SM CLR 17/08 A2953 1390 55 2000 230/18G24 RMK AO2
14926KSTC STC20000621071510506/21/00 07:15:31  5-MIN KSTC 211315Z AUTO 24018G25KT 10SM CLR 18/08 A2952 1390 53 2100 230/18G25 RMK AO2
14926KSTC STC20000621072010506/21/00 07:20:31  5-MIN KSTC 211320Z AUTO 23019G25KT 10SM CLR 18/08 A2952 1400 53 2100 230/19G25 RMK AO2
14926KSTC STC20000621072509906/21/00 07:25:31  5-MIN KSTC 211325Z AUTO 24019KT 10SM CLR 18/08 A2952 1400 53 2100 230/19 RMK AO2
14926KSTC STC20000621073010506/21/00 07:30:31  5-MIN KSTC 211330Z AUTO 24016G23KT 10SM CLR 18/08 A2952 1400 53 2100 240/16G23 RMK AO2
14926KSTC STC20000621073510506/21/00 07:35:31  5-MIN KSTC 211335Z AUTO 23019G25KT 10SM CLR 17/08 A2952 1400 55 2000 230/19G25 RMK AO2
14926KSTC STC20000621074010506/21/00 07:40:31  5-MIN KSTC 211340Z AUTO 23017G25KT 10SM CLR 18/08 A2952 1400 53 2100 230/17G25 RMK AO2
14926KSTC STC20000621074510506/21/00 07:45:31  5-MIN KSTC 211345Z AUTO 23017G23KT 10SM CLR 18/08 A2952 1400 53 2100 230/17G23 RMK AO2
14926KSTC STC20000621075011606/21/00 07:50:31  5-MIN KSTC 211350Z AUTO 23016KT 10SM CLR 18/08 A2951 1400 52 2200 230/16 RMK AO2 SLP999 T01830083
14926KSTC STC20000621075510806/21/00 07:55:31  5-MIN KSTC 211355Z AUTO 23017G27KT 10SM SCT090 18/08 A2952 1400 52 2200 230/17G27 RMK AO2
14926KSTC STC20000621080010806/21/00 08:00:31  5-MIN KSTC 211400Z AUTO 25019G27KT 10SM BKN090 18/08 A2951 1410 52 2200 240/19G27 RMK AO2
14926KSTC STC20000621080510806/21/00 08:05:31  5-MIN KSTC 211405Z AUTO 24017G25KT 10SM BKN095 18/08 A2952 1400 52 2200 230/17G25 RMK AO2
14926KSTC STC20000621081010806/21/00 08:10:31  5-MIN KSTC 211410Z AUTO 24014G21KT 10SM BKN095 18/09 A2951 1400 54 2200 240/14G21 RMK AO2
14926KSTC STC20000621081510806/21/00 08:15:31  5-MIN KSTC 211415Z AUTO 24016G21KT 10SM BKN095 18/08 A2951 1400 52 2200 230/16G21 RMK AO2
14926KSTC STC20000621082010806/21/00 08:20:31  5-MIN KSTC 211420Z AUTO 24019G25KT 10SM BKN090 18/08 A2951 1400 52 2200 230/19G25 RMK AO2
14926KSTC STC20000621082511506/21/00 08:25:31  5-MIN KSTC 211425Z AUTO 25019G25KT 10SM SCT080 BKN095 18/08 A2951 1410 52 2200 240/19G25 RMK AO2
14926KSTC STC20000621083011506/21/00 08:30:31  5-MIN KSTC 211430Z AUTO 24017G23KT 10SM BKN080 BKN100 18/08 A2951 1410 52 2200 240/17G23 RMK AO2
14926KSTC STC20000621083510806/21/00 08:35:31  5-MIN KSTC 211435Z AUTO 24016G23KT 10SM BKN085 19/08 A2951 1410 50 2200 230/16G23 RMK AO2
14926KSTC STC20000621084010806/21/00 08:40:31  5-MIN KSTC 211440Z AUTO 24018G23KT 10SM BKN080 19/08 A2951 1410 50 2200 240/18G23 RMK AO2
14926KSTC STC20000621084510806/21/00 08:45:31  5-MIN KSTC 211445Z AUTO 24020G23KT 10SM BKN080 19/08 A2950 1410 50 2200 230/20G23 RMK AO2
14926KSTC STC20000621085014906/21/00 08:50:31  5-MIN KSTC 211450Z AUTO 24021G28KT 10SM BKN080 19/08 A2950 1420 46 2300 240/21G28 RMK AO2 PK WND 24028/1450 SLP994 T01940078 56007
14926KSTC STC20000621085510806/21/00 08:55:31  5-MIN KSTC 211455Z AUTO 24020G28KT 10SM BKN080 19/08 A2950 1420 46 2300 240/20G28 RMK AO2
14926KSTC STC20000621090010806/21/00 09:00:31  5-MIN KSTC 211500Z AUTO 25020G26KT 10SM SCT080 20/08 A2950 1420 46 2400 250/20G26 RMK AO2
14926KSTC STC20000621090510806/21/00 09:05:31  5-MIN KSTC 211505Z AUTO 25018G24KT 10SM SCT080 19/08 A2950 1420 48 2300 240/18G24 RMK AO2
14926KSTC STC20000621091010806/21/00 09:10:31  5-MIN KSTC 211510Z AUTO 26021G24KT 10SM SCT085 21/08 A2950 1420 45 2400 250/21G24 RMK AO2
14926KSTC STC20000621091510906/21/00 09:15:31  5-MIN KSTC 211515Z AUTO 24017KT 10SM FEW050 SCT090 20/08 A2950 1420 46 2400 240/17 RMK AO2
14926KSTC STC20000621092011506/21/00 09:20:31  5-MIN KSTC 211520Z AUTO 25021G24KT 10SM SCT050 BKN090 19/08 A2950 1420 48 2300 250/21G24 RMK AO2
14926KSTC STC20000621092513306/21/00 09:25:31  5-MIN KSTC 211525Z AUTO 25023G32KT 10SM SCT050 BKN085 19/08 A2950 1420 48 2200 250/23G32 RMK AO2 PK WND 24032/1522
14926KSTC STC20000621093014006/21/00 09:30:31  5-MIN KSTC 211530Z AUTO 25025G34KT 10SM BKN050 BKN080 BKN090 19/07 A2950 1420 46 2200 250/25G34 RMK AO2 PK WND 24034/1530
14926KSTC STC20000621093514006/21/00 09:35:31  5-MIN KSTC 211535Z AUTO 25024G34KT 10SM BKN050 BKN070 OVC090 19/07 A2950 1420 46 2200 250/24G34 RMK AO2 PK WND 24034/1530
14926KSTC STC20000621094013306/21/00 09:40:31  5-MIN KSTC 211540Z AUTO 26025G33KT 10SM BKN050 OVC070 19/07 A2950 1420 46 2200 260/25G33 RMK AO2 PK WND 24034/1530
14926KSTC STC20000621094512606/21/00 09:45:31  5-MIN KSTC 211545Z AUTO 25020G32KT 10SM OVC050 19/07 A2950 1420 46 2200 250/20G32 RMK AO2 PK WND 24034/1530
14926KSTC STC20000621095015006/21/00 09:50:31  5-MIN KSTC 211550Z AUTO 25020G29KT 10SM BKN050 OVC060 19/08 A2950 1410 48 2200 250/20G29 RMK AO2 PK WND 24034/1530 SLP996 T01890078
14926KSTC STC20000621095513306/21/00 09:55:31  5-MIN KSTC 211555Z AUTO 26024G29KT 10SM BKN050 OVC070 19/08 A2950 1410 48 2200 260/24G29 RMK AO2 PK WND 27028/1555
14926KSTC STC20000621100013306/21/00 10:00:31  5-MIN KSTC 211600Z AUTO 26020G28KT 10SM BKN050 OVC070 19/08 A2951 1410 48 2200 260/20G28 RMK AO2 PK WND 27028/1555
14926KSTC STC20000621100513306/21/00 10:05:31  5-MIN KSTC 211605Z AUTO 26025G33KT 10SM BKN050 OVC070 19/08 A2951 1410 48 2200 250/25G33 RMK AO2 PK WND 25033/1602
14926KSTC STC20000621101013306/21/00 10:10:31  5-MIN KSTC 211610Z AUTO 25023G33KT 10SM BKN050 OVC070 19/08 A2951 1410 50 2200 250/23G33 RMK AO2 PK WND 25033/1602
14926KSTC STC20000621101513306/21/00 10:15:31  5-MIN KSTC 211615Z AUTO 26026G36KT 10SM BKN048 OVC070 18/08 A2952 1400 52 2200 250/26G36 RMK AO2 PK WND 26036/1615
14926KSTC STC20000621102013306/21/00 10:20:31  5-MIN KSTC 211620Z AUTO 26025G36KT 10SM BKN046 OVC070 18/08 A2952 1400 53 2100 260/25G36 RMK AO2 PK WND 26036/1615
14926KSTC STC20000621102514006/21/00 10:25:31  5-MIN KSTC 211625Z AUTO 27019G34KT 10SM BKN043 BKN050 OVC070 17/09 A2952 1400 57 2000 260/19G34 RMK AO2 PK WND 26036/1615
14926KSTC STC20000621103013306/21/00 10:30:31  5-MIN KSTC 211630Z AUTO 27021G34KT 10SM BKN043 OVC050 17/09 A2953 1390 57 2000 260/21G34 RMK AO2 PK WND 26036/1615
14926KSTC STC20000621103514206/21/00 10:35:31  5-MIN KSTC 211635Z AUTO 26016G29KT 10SM -RA OVC043 16/10 A2953 1390 67 1900 260/16G29 RMK AO2 PK WND 26036/1615 RAB31 P0000
14926KSTC STC20000621104014206/21/00 10:40:31  5-MIN KSTC 211640Z AUTO 27024G30KT 10SM -RA OVC043 16/11 A2953 1390 69 1900 260/24G30 RMK AO2 PK WND 26036/1615 RAB31 P0000
14926KSTC STC20000621104514206/21/00 10:45:31  5-MIN KSTC 211645Z AUTO 26019G30KT 10SM -RA OVC043 16/10 A2953 1390 67 1900 260/19G30 RMK AO2 PK WND 26036/1615 RAB31 P0000
14926KSTC STC20000621105015806/21/00 10:50:31  5-MIN KSTC 211650Z AUTO 26020G28KT 10SM OVC043 16/10 A2952 1400 67 1900 250/20G28 RMK AO2 PK WND 26036/1615 RAB31E48 SLP003 P0000 T01610100
14926KSTC STC20000621105511506/21/00 10:55:31  5-MIN KSTC 211655Z AUTO 26020G25KT 10SM BKN043 OVC050 17/10 A2952 1400 64 2000 250/20G25 RMK AO2
14926KSTC STC20000621110012206/21/00 11:00:31  5-MIN KSTC 211700Z AUTO 26019G25KT 10SM BKN043 BKN050 OVC065 17/09 A2952 1400 60 2000 260/19G25 RMK AO2
14926KSTC STC20000621110514006/21/00 11:05:31  5-MIN KSTC 211705Z AUTO 25019G26KT 10SM BKN043 BKN050 OVC080 17/09 A2952 1400 60 2000 250/19G26 RMK AO2 PK WND 25026/1703
14926KSTC STC20000621111014006/21/00 11:10:31  5-MIN KSTC 211710Z AUTO 25018G26KT 10SM BKN043 BKN050 OVC080 17/09 A2952 1400 60 2000 250/18G26 RMK AO2 PK WND 25026/1703
14926KSTC STC20000621111513306/21/00 11:15:31  5-MIN KSTC 211715Z AUTO 25022G28KT 10SM BKN048 OVC075 17/09 A2952 1400 60 2000 250/22G28 RMK AO2 PK WND 24028/1715
14926KSTC STC20000621112015606/21/00 11:20:31  5-MIN KSTC 211720Z AUTO 26016G28KT 10SM -RA BKN045 BKN055 OVC075 17/10 A2952 1400 62 2000 260/16G28 RMK AO2 PK WND 24028/1715 RAB17 P0000
14926KSTC STC20000621112514906/21/00 11:25:31  5-MIN KSTC 211725Z AUTO 26018G26KT 10SM -RA BKN043 OVC050 17/11 A2952 1400 64 2000 250/18G26 RMK AO2 PK WND 24028/1715 RAB17 P0000
14926KSTC STC20000621113014906/21/00 11:30:31  5-MIN KSTC 211730Z AUTO 26018G26KT 10SM -RA BKN043 OVC050 17/11 A2952 1400 64 2000 260/18G26 RMK AO2 PK WND 24028/1715 RAB17 P0000
14926KSTC STC20000621113514906/21/00 11:35:31  5-MIN KSTC 211735Z AUTO 26017G26KT 10SM -RA BKN043 OVC050 17/11 A2952 1400 64 2000 250/17G26 RMK AO2 PK WND 24028/1715 RAB17 P0000
14926KSTC STC20000621114014906/21/00 11:40:31  5-MIN KSTC 211740Z AUTO 26017G24KT 10SM -RA BKN045 OVC055 18/11 A2952 1400 62 2100 260/17G24 RMK AO2 PK WND 24028/1715 RAB17 P0000
14926KSTC STC20000621114514906/21/00 11:45:31  5-MIN KSTC 211745Z AUTO 27016G24KT 10SM -RA BKN043 OVC055 17/11 A2952 1400 67 2000 260/16G24 RMK AO2 PK WND 24028/1715 RAB17 P0000
14926KSTC STC20000621115019006/21/00 11:50:31  5-MIN KSTC 211750Z AUTO 26019G24KT 10SM -RA BKN043 OVC050 17/11 A2952 1390 69 2000 260/19G24 RMK AO2 PK WND 24028/1715 RAB17 SLP004 P0000 60000 T01670111 10206 20150 57017
14926KSTC STC20000621115511806/21/00 11:55:31  5-MIN KSTC 211755Z AUTO 27017G24KT 10SM -RA OVC041 16/11 A2952 1390 72 1900 270/17G24 RMK AO2 P0000
14926KSTC STC20000621120013606/21/00 12:00:31  5-MIN KSTC 211800Z AUTO 27020G27KT 10SM -RA OVC040 16/11 A2952 1390 72 1900 270/20G27 RMK AO2 PK WND 27027/1800 P0000
14926KSTC STC20000621120513606/21/00 12:05:31  5-MIN KSTC 211805Z AUTO 27020G30KT 10SM -RA OVC040 16/11 A2952 1390 72 1900 270/20G30 RMK AO2 PK WND 26030/1802 P0000
14926KSTC STC20000621121013606/21/00 12:10:31  5-MIN KSTC 211810Z AUTO 26018G30KT 10SM -RA OVC040 16/11 A2952 1400 72 1900 260/18G30 RMK AO2 PK WND 26030/1802 P0000
14926KSTC STC20000621121514306/21/00 12:15:31  5-MIN KSTC 211815Z AUTO 25017G23KT 10SM -RA BKN040 OVC047 16/11 A2952 1400 69 1900 250/17G23 RMK AO2 PK WND 26030/1802 P0000
14926KSTC STC20000621122014506/21/00 12:20:31  5-MIN KSTC 211820Z AUTO 25017G22KT 10SM BKN040 OVC055 17/11 A2952 1400 67 2000 250/17G22 RMK AO2 PK WND 26030/1802 RAE20 P0000
14926KSTC STC20000621122514506/21/00 12:25:31  5-MIN KSTC 211825Z AUTO 25017G24KT 10SM BKN042 OVC055 17/11 A2951 1400 67 2000 250/17G24 RMK AO2 PK WND 26030/1802 RAE20 P0000
14926KSTC STC20000621123014306/21/00 12:30:31  5-MIN KSTC 211830Z AUTO 24014G24KT 10SM -RA SCT042 OVC060 17/11 A2951 1410 67 2000 240/14G24 RMK AO2 PK WND 26030/1802 P0000
14926KSTC STC20000621123515006/21/00 12:35:31  5-MIN KSTC 211835Z AUTO 24013G21KT 10SM -RA SCT044 BKN055 BKN070 17/11 A2951 1410 67 2000 240/13G21 RMK AO2 PK WND 26030/1802 P0000
14926KSTC STC20000621124015206/21/00 12:40:31  5-MIN KSTC 211840Z AUTO 25019G25KT 10SM FEW046 BKN055 BKN070 18/11 A2951 1410 62 2100 250/19G25 RMK AO2 PK WND 26030/1802 RAE40 P0000
14926KSTC STC20000621124515206/21/00 12:45:31  5-MIN KSTC 211845Z AUTO 25017G25KT 10SM SCT055 BKN070 BKN090 18/11 A2951 1410 60 2200 240/17G25 RMK AO2 PK WND 26030/1802 RAE40 P0000
14926KSTC STC20000621125016906/21/00 12:50:31  5-MIN KSTC 211850Z AUTO 24014G23KT 10SM SCT055 BKN070 BKN090 18/11 A2951 1410 62 2200 240/14G23 RMK AO2 PK WND 26030/1802 RAE40 SLP998 P0000 T01830111
14926KSTC STC20000621125512206/21/00 12:55:31  5-MIN KSTC 211855Z AUTO 24017G21KT 10SM SCT050 BKN065 BKN090 18/11 A2951 1410 60 2200 240/17G21 RMK AO2
14926KSTC STC20000621130012206/21/00 13:00:31  5-MIN KSTC 211900Z AUTO 25018G23KT 10SM BKN050 BKN070 OVC090 18/11 A2951 1410 60 2200 250/18G23 RMK AO2
14926KSTC STC20000621130512206/21/00 13:05:31  5-MIN KSTC 211905Z AUTO 25017G24KT 10SM BKN050 BKN070 OVC090 18/11 A2951 1410 60 2200 240/17G24 RMK AO2
14926KSTC STC20000621131011506/21/00 13:10:31  5-MIN KSTC 211910Z AUTO 26015G24KT 10SM BKN050 OVC070 18/11 A2951 1410 60 2200 250/15G24 RMK AO2
14926KSTC STC20000621131512606/21/00 13:15:31  5-MIN KSTC 211915Z AUTO 26023G30KT 10SM OVC048 19/10 A2951 1410 56 2200 260/23G30 RMK AO2 PK WND 25030/1914
14926KSTC STC20000621132012606/21/00 13:20:31  5-MIN KSTC 211920Z AUTO 26020G30KT 10SM OVC048 19/10 A2950 1410 56 2200 260/20G30 RMK AO2 PK WND 25030/1914
14926KSTC STC20000621132512606/21/00 13:25:31  5-MIN KSTC 211925Z AUTO 26018G29KT 10SM OVC048 19/10 A2950 1420 56 2200 260/18G29 RMK AO2 PK WND 25030/1914
14926KSTC STC20000621133012606/21/00 13:30:31  5-MIN KSTC 211930Z AUTO 26019G27KT 10SM OVC048 19/10 A2950 1420 56 2200 260/19G27 RMK AO2 PK WND 25030/1914
14926KSTC STC20000621133512606/21/00 13:35:31  5-MIN KSTC 211935Z AUTO 26016G24KT 10SM OVC050 19/10 A2950 1420 56 2200 260/16G24 RMK AO2 PK WND 25030/1914
14926KSTC STC20000621134012606/21/00 13:40:31  5-MIN KSTC 211940Z AUTO 26018G24KT 10SM OVC050 19/10 A2950 1420 56 2200 260/18G24 RMK AO2 PK WND 25030/1914
14926KSTC STC20000621134512606/21/00 13:45:31  5-MIN KSTC 211945Z AUTO 26017G23KT 10SM OVC050 19/10 A2950 1420 54 2300 250/17G23 RMK AO2 PK WND 25030/1914
14926KSTC STC20000621135014306/21/00 13:50:31  5-MIN KSTC 211950Z AUTO 26014G22KT 10SM OVC050 19/10 A2950 1420 54 2300 250/14G22 RMK AO2 PK WND 25030/1914 SLP996 T01940100
14926KSTC STC20000621135510806/21/00 13:55:31  5-MIN KSTC 211955Z AUTO 25020G25KT 10SM OVC050 19/10 A2950 1410 54 2300 250/20G25 RMK AO2
14926KSTC STC20000621140010806/21/00 14:00:31  5-MIN KSTC 212000Z AUTO 26017G25KT 10SM OVC050 19/10 A2951 1410 54 2300 250/17G25 RMK AO2
14926KSTC STC20000621140510806/21/00 14:05:31  5-MIN KSTC 212005Z AUTO 25018G24KT 10SM OVC050 19/10 A2951 1410 54 2300 250/18G24 RMK AO2
14926KSTC STC20000621141010806/21/00 14:10:31  5-MIN KSTC 212010Z AUTO 26017G25KT 10SM OVC048 19/10 A2951 1410 54 2300 250/17G25 RMK AO2
14926KSTC STC20000621141510806/21/00 14:15:31  5-MIN KSTC 212015Z AUTO 27015G25KT 10SM OVC048 19/10 A2951 1410 54 2300 260/15G25 RMK AO2
14926KSTC STC20000621142010206/21/00 14:20:31  5-MIN KSTC 212020Z AUTO 27015KT 10SM OVC048 19/11 A2952 1400 56 2300 270/15 RMK AO2
14926KSTC STC20000621142510206/21/00 14:25:31  5-MIN KSTC 212025Z AUTO 27015KT 10SM OVC048 19/11 A2952 1400 56 2300 270/15 RMK AO2
14926KSTC STC20000621143010206/21/00 14:30:31  5-MIN KSTC 212030Z AUTO 27013KT 10SM OVC048 19/11 A2952 1400 56 2300 270/13 RMK AO2
14926KSTC STC20000621143510806/21/00 14:35:31  5-MIN KSTC 212035Z AUTO 27017G25KT 10SM OVC048 19/11 A2952 1400 56 2300 270/17G25 RMK AO2
14926KSTC STC20000621144010806/21/00 14:40:31  5-MIN KSTC 212040Z AUTO 27021G25KT 10SM OVC048 20/11 A2952 1400 54 2300 260/21G25 RMK AO2
14926KSTC STC20000621144510806/21/00 14:45:31  5-MIN KSTC 212045Z AUTO 27019G25KT 10SM OVC048 20/11 A2953 1390 54 2300 270/19G25 RMK AO2
14926KSTC STC20000621145016206/21/00 14:50:31  5-MIN KSTC 212050Z AUTO 29023G31KT 10SM BKN045 OVC050 19/12 A2953 1390 60 2300 290/23G31 RMK AO2 PK WND 27031/2047 SLP005 60000 T01940117 53009
14926KSTC STC20000621145514806/21/00 14:55:31  5-MIN KSTC 212055Z AUTO 28023G31KT 9SM -RA BKN045 OVC050 19/12 A2953 1390 62 2200 280/23G31 RMK AO2 PK WND 29028/2054 RAB55 P0000
14926KSTC STC20000621150015106/21/00 15:00:31  5-MIN KSTC 212100Z AUTO 30018G29KT 10SM -RA BKN040 OVC050 18/12 A2954 1380 67 2100 300/18G29 RMK AO2 PK WND 29028/2054 RAB2055 P0000
14926KSTC STC20000621150515706/21/00 15:05:31  5-MIN KSTC 212105Z AUTO 29018G25KT 4SM -RA FEW024 BKN038 OVC045 17/13 A2954 1380 78 2000 280/18G25 RMK AO2 PK WND 29028/2054 RAB2055 P0003
14926KSTC STC20000621151015706/21/00 15:10:31  5-MIN KSTC 212110Z AUTO 29014G25KT 3SM -RA FEW024 BKN040 OVC060 17/13 A2954 1380 78 2000 290/14G25 RMK AO2 PK WND 29028/2054 RAB2055 P0003
14926KSTC STC20000621151515106/21/00 15:15:31  5-MIN KSTC 212115Z AUTO 29012KT 10SM FEW030 BKN040 OVC055 17/13 A2954 1380 78 2000 280/12 RMK AO2 PK WND 29028/2054 RAB2055E15 P0003
14926KSTC STC20000621152015306/21/00 15:20:31  5-MIN KSTC 212120Z AUTO 28012KT 5SM HZ FEW026 BKN037 OVC055 17/13 A2955 1370 78 2000 280/12 RMK AO2 PK WND 29028/2054 RAB2055E15 P0004
14926KSTC STC20000621152515506/21/00 15:25:31  5-MIN KSTC 212125Z AUTO 28015KT 2 1/2SM +RA FEW018 BKN037 OVC055 17/14 A2955 1370 83 1900 280/15 RMK AO2 PK WND 29028/2054 RAB2055 P0006
14926KSTC STC20000621153016306/21/00 15:30:31  5-MIN KSTC 212130Z AUTO 27014KT 2 1/2SM -RA FEW018 BKN037 OVC060 17/14 A2955 1370 83 1900 270/14 RMK AO2 PK WND 29028/2054 VIS 1V5 RAB2055 P0007
14926KSTC STC20000621153515106/21/00 15:35:31  5-MIN KSTC 212135Z AUTO 27012KT 7SM -RA FEW025 SCT037 OVC060 17/14 A2954 1380 83 1900 270/12 RMK AO2 PK WND 29028/2054 RAB2055 P0007
14926KSTC STC20000621154015106/21/00 15:40:31  5-MIN KSTC 212140Z AUTO 27013KT 10SM FEW027 SCT039 OVC055 17/14 A2955 1370 80 2000 270/13 RMK AO2 PK WND 29028/2054 RAB2055E38 P0007
14926KSTC STC20000621154515106/21/00 15:45:31  5-MIN KSTC 212145Z AUTO 27012KT 10SM FEW027 SCT042 OVC060 17/14 A2955 1370 80 2000 270/12 RMK AO2 PK WND 29028/2054 RAB2055E38 P0007
14926KSTC STC20000621155016206/21/00 15:50:31  5-MIN KSTC 212150Z AUTO 27009KT 10SM -RA FEW029 OVC060 17/14 A2954 1380 80 2000 260/09 RMK AO2 PK WND 29028/2054 RAB2055 SLP011 P0007 T01720139
14926KSTC STC20000621155511406/21/00 15:55:31  5-MIN KSTC 212155Z AUTO 26010KT 10SM OVC060 17/14 A2955 1370 80 2000 250/10 RMK AO2 RAE55 P0000
14926KSTC STC20000621160011906/21/00 16:00:31  5-MIN KSTC 212200Z AUTO 25012KT 10SM -RA BKN060 OVC075 17/14 A2955 1370 83 2000 250/12 RMK AO2 P0001
14926KSTC STC20000621160511206/21/00 16:05:31  5-MIN KSTC 212205Z AUTO 26010KT 10SM -RA OVC065 17/14 A2955 1380 80 2000 260/10 RMK AO2 P0001
14926KSTC STC20000621161011406/21/00 16:10:31  5-MIN KSTC 212210Z AUTO 26011KT 10SM OVC065 17/14 A2955 1370 80 2000 260/11 RMK AO2 RAE09 P0001
14926KSTC STC20000621161511806/21/00 16:15:31  5-MIN KSTC 212215Z AUTO 27010KT 9SM -RA FEW050 OVC065 17/14 A2955 1370 80 2000 260/10 RMK AO2 P0001
14926KSTC STC20000621162011806/21/00 16:20:31  5-MIN KSTC 212220Z AUTO 26009KT 8SM -RA SCT048 OVC065 17/14 A2955 1370 80 2000 260/09 RMK AO2 P0001
14926KSTC STC20000621162511906/21/00 16:25:31  5-MIN KSTC 212225Z AUTO 25008KT 10SM -RA FEW048 OVC070 18/14 A2955 1370 81 2100 250/08 RMK AO2 P0001
14926KSTC STC20000621163012106/21/00 16:30:31  5-MIN KSTC 212230Z AUTO 25008KT 10SM FEW048 OVC065 18/14 A2955 1380 81 2100 250/08 RMK AO2 RAE27 P0001
14926KSTC STC20000621163512806/21/00 16:35:31  5-MIN KSTC 212235Z AUTO 26011KT 10SM FEW045 BKN060 OVC070 18/14 A2955 1370 75 2100 250/11 RMK AO2 RAE27 P0001
14926KSTC STC20000621164012606/21/00 16:40:31  5-MIN KSTC 212240Z AUTO 26010KT 10SM -RA SCT043 BKN050 OVC070 18/14 A2955 1370 75 2100 260/10 RMK AO2 P0001
14926KSTC STC20000621164512606/21/00 16:45:31  5-MIN KSTC 212245Z AUTO 27012KT 10SM -RA SCT044 BKN050 OVC070 18/14 A2956 1370 75 2100 270/12 RMK AO2 P0001
14926KSTC STC20000621165015506/21/00 16:50:31  5-MIN KSTC 212250Z AUTO 32015G23KT 7SM -RA FEW029 BKN042 OVC070 18/14 A2957 1350 78 2000 310/15G23 RMK AO2 PRESRR SLP020 P0003 T01780139
14926KSTC STC20000621165513006/21/00 16:55:31  5-MIN KSTC 212255Z AUTO 28014G27KT 4SM RA FEW029 BKN048 OVC065 17/14 A2956 1360 80 2000 280/14G27 RMK AO2 P0000
14926KSTC STC20000621170013106/21/00 17:00:31  5-MIN KSTC 212300Z AUTO 28012G27KT 5SM -RA FEW029 SCT043 OVC065 17/14 A2956 1360 83 2000 270/12G27 RMK AO2 P0000
14926KSTC STC20000621170513406/21/00 17:05:31  5-MIN KSTC 212305Z AUTO 27014G18KT 10SM FEW029 BKN060 OVC095 17/14 A2956 1360 80 2000 270/14G18 RMK AO2 RAE03 P0000
14926KSTC STC20000621171012806/21/00 17:10:31  5-MIN KSTC 212310Z AUTO 28013KT 10SM FEW032 BKN060 OVC095 18/14 A2956 1360 78 2000 280/13 RMK AO2 RAE03 P0000
14926KSTC STC20000621171512806/21/00 17:15:31  5-MIN KSTC 212315Z AUTO 27012KT 10SM FEW029 BKN075 OVC095 18/14 A2956 1360 78 2000 270/12 RMK AO2 RAE03 P0000
14926KSTC STC20000621172012806/21/00 17:20:31  5-MIN KSTC 212320Z AUTO 28011KT 10SM FEW049 BKN075 OVC095 18/14 A2956 1360 78 2000 280/11 RMK AO2 RAE03 P0000
14926KSTC STC20000621172512806/21/00 17:25:31  5-MIN KSTC 212325Z AUTO 28010KT 10SM SCT049 BKN060 OVC095 18/14 A2957 1360 78 2000 280/10 RMK AO2 RAE03 P0000
14926KSTC STC20000621173013506/21/00 17:30:31  5-MIN KSTC 212330Z AUTO 26010KT 10SM -RA BKN049 BKN060 OVC095 17/14 A2956 1360 80 2000 260/10 RMK AO2 RAE03B28 P0000
14926KSTC STC20000621173513506/21/00 17:35:31  5-MIN KSTC 212335Z AUTO 29008KT 10SM -RA BKN047 BKN060 OVC095 18/14 A2957 1360 81 2000 290/08 RMK AO2 RAE03B28 P0000
14926KSTC STC20000621174013306/21/00 17:40:31  5-MIN KSTC 212340Z AUTO 31008KT 9SM BKN045 BKN060 OVC075 17/14 A2957 1350 83 2000 310/08 RMK AO2 RAE03B28E37 P0000
14926KSTC STC20000621174513406/21/00 17:45:31  5-MIN KSTC 212345Z AUTO 30006KT 5SM -RA SCT041 BKN048 OVC080 17/14 A2957 1350 83 2000 300/06 RMK AO2 RAE03B28 P0001
14926KSTC STC20000621175019406/21/00 17:50:31  5-MIN KSTC 212350Z AUTO 28009KT 250V320 5SM -RA BR SCT041 BKN048 OVC085 17/15 A2957 1350 87 2000 280/09 250V320 RMK AO2 RAE03B28 SLP019 P0001 60012 T01720150 10200 20161 53001
14926KSTC STC20000621175512206/21/00 17:55:31  5-MIN KSTC 212355Z AUTO 28010KT 10SM FEW041 BKN048 OVC090 18/14 A2957 1350 81 2000 270/10 RMK AO2 RAE54
14926KSTC STC20000621180012406/21/00 18:00:31  5-MIN KSTC 220000Z AUTO 28009KT 10SM SCT043 SCT065 OVC095 18/14 A2957 1350 81 2000 270/09 RMK AO2 RAE2354
14926KSTC STC20000621180512406/21/00 18:05:31  5-MIN KSTC 220005Z AUTO 28011KT 10SM FEW043 SCT065 OVC090 18/14 A2957 1350 78 2000 270/11 RMK AO2 RAE2354
14926KSTC STC20000621181011706/21/00 18:10:31  5-MIN KSTC 220010Z AUTO 27012KT 10SM FEW041 OVC090 18/14 A2957 1350 78 2000 270/12 RMK AO2 RAE2354
14926KSTC STC20000621181511706/21/00 18:15:31  5-MIN KSTC 220015Z AUTO 27011KT 10SM FEW065 OVC090 18/14 A2957 1360 78 2000 270/11 RMK AO2 RAE2354
14926KSTC STC20000621182011006/21/00 18:20:31  5-MIN KSTC 220020Z AUTO 27012KT 10SM OVC090 18/14 A2957 1350 75 2100 270/12 RMK AO2 RAE2354
14926KSTC STC20000621182511706/21/00 18:25:31  5-MIN KSTC 220025Z AUTO 26013KT 10SM FEW065 OVC095 18/14 A2957 1350 75 2100 260/13 RMK AO2 RAE2354
14926KSTC STC20000621183011706/21/00 18:30:31  5-MIN KSTC 220030Z AUTO 27011KT 10SM FEW065 OVC090 18/13 A2957 1350 72 2100 270/11 RMK AO2 RAE2354
14926KSTC STC20000621183511006/21/00 18:35:31  5-MIN KSTC 220035Z AUTO 27012KT 10SM OVC090 18/13 A2957 1350 72 2100 270/12 RMK AO2 RAE2354
14926KSTC STC20000621184011006/21/00 18:40:31  5-MIN KSTC 220040Z AUTO 27012KT 10SM OVC095 19/13 A2957 1350 70 2200 270/12 RMK AO2 RAE2354
14926KSTC STC20000621184511706/21/00 18:45:31  5-MIN KSTC 220045Z AUTO 27013KT 10SM SCT080 OVC100 19/13 A2958 1350 67 2200 270/13 RMK AO2 RAE2354
14926KSTC STC20000621185013406/21/00 18:50:31  5-MIN KSTC 220050Z AUTO 28015KT 10SM SCT075 OVC090 19/13 A2958 1350 67 2200 280/15 RMK AO2 RAE2354 SLP021 T01890128
14926KSTC STC20000621185511506/21/00 18:55:31  5-MIN KSTC 220055Z AUTO 28013G20KT 10SM SCT075 OVC090 19/12 A2958 1340 65 2100 280/13G20 RMK AO2
14926KSTC STC20000621190011506/21/00 19:00:31  5-MIN KSTC 220100Z AUTO 28013G20KT 10SM FEW065 OVC090 19/12 A2958 1350 65 2100 280/13G20 RMK AO2
14926KSTC STC20000621190511506/21/00 19:05:31  5-MIN KSTC 220105Z AUTO 28013G22KT 10SM FEW070 OVC090 19/12 A2958 1340 65 2100 280/13G22 RMK AO2
14926KSTC STC20000621191010806/21/00 19:10:31  5-MIN KSTC 220110Z AUTO 28013G22KT 10SM OVC085 19/12 A2958 1340 65 2100 280/13G22 RMK AO2
14926KSTC STC20000621191511506/21/00 19:15:31  5-MIN KSTC 220115Z AUTO 29016G21KT 10SM FEW070 OVC090 19/12 A2958 1340 62 2200 280/16G21 RMK AO2
14926KSTC STC20000621192012206/21/00 19:20:31  5-MIN KSTC 220120Z AUTO 29011G21KT 10SM FEW050 SCT070 OVC090 19/12 A2958 1340 60 2200 280/11G21 RMK AO2
14926KSTC STC20000621192511606/21/00 19:25:31  5-MIN KSTC 220125Z AUTO 29011KT 10SM SCT046 BKN070 OVC090 19/12 A2959 1340 65 2100 280/11 RMK AO2
14926KSTC STC20000621193012206/21/00 19:30:31  5-MIN KSTC 220130Z AUTO 29016G21KT 10SM BKN046 BKN070 OVC090 19/12 A2959 1340 60 2200 280/16G21 RMK AO2
14926KSTC STC20000621193512206/21/00 19:35:31  5-MIN KSTC 220135Z AUTO 28018G21KT 10SM SCT046 SCT075 OVC090 19/12 A2959 1340 60 2200 280/18G21 RMK AO2
14926KSTC STC20000621194012206/21/00 19:40:31  5-MIN KSTC 220140Z AUTO 28016G25KT 10SM SCT046 SCT070 OVC095 19/12 A2959 1330 60 2200 280/16G25 RMK AO2
14926KSTC STC20000621194512206/21/00 19:45:31  5-MIN KSTC 220145Z AUTO 29013G25KT 10SM SCT046 BKN090 OVC100 19/12 A2959 1330 60 2200 290/13G25 RMK AO2
14926KSTC STC20000621195013906/21/00 19:50:31  5-MIN KSTC 220150Z AUTO 29014G20KT 10SM FEW046 SCT070 OVC100 19/12 A2959 1330 60 2200 290/14G20 RMK AO2 SLP026 T01940117
14926KSTC STC20000621195512206/21/00 19:55:31  5-MIN KSTC 220155Z AUTO 30011G19KT 10SM FEW046 SCT060 OVC100 19/12 A2960 1330 65 2100 300/11G19 RMK AO2
14926KSTC STC20000621200013206/21/00 20:00:31  5-MIN KSTC 220200Z AUTO 31013KT 10SM -RA SCT042 SCT060 OVC100 19/12 A2961 1320 65 2100 310/13 RMK AO2 RAB00 P0000
14926KSTC STC20000621200513806/21/00 20:05:31  5-MIN KSTC 220205Z AUTO 30017G21KT 10SM -RA SCT040 BKN060 OVC100 18/13 A2961 1320 70 2100 300/17G21 RMK AO2 RAB00 P0000
14926KSTC STC20000621201013706/21/00 20:10:31  5-MIN KSTC 220210Z AUTO 30010G21KT 9SM -RA SCT043 BKN050 OVC100 18/13 A2960 1320 75 2000 300/10G21 RMK AO2 RAB00 P0001
14926KSTC STC20000621201513106/21/00 20:15:31  5-MIN KSTC 220215Z AUTO 30011KT 9SM -RA SCT043 BKN055 OVC095 18/14 A2960 1320 78 2000 300/11 RMK AO2 RAB00 P0001
14926KSTC STC20000621202013106/21/00 20:20:31  5-MIN KSTC 220220Z AUTO 29010KT 10SM SCT043 BKN060 OVC095 18/14 A2960 1320 78 2000 290/10 RMK AO2 RAB00E19 P0001
14926KSTC STC20000621202513106/21/00 20:25:31  5-MIN KSTC 220225Z AUTO 29009KT 10SM FEW041 BKN080 OVC095 18/13 A2960 1320 72 2000 290/09 RMK AO2 RAB00E19 P0001
14926KSTC STC20000621203013106/21/00 20:30:31  5-MIN KSTC 220230Z AUTO 29009KT 10SM SCT046 BKN060 OVC090 18/13 A2961 1320 72 2000 280/09 RMK AO2 RAB00E19 P0001
14926KSTC STC20000621203513706/21/00 20:35:31  5-MIN KSTC 220235Z AUTO 31013G18KT 10SM SCT046 BKN055 OVC095 18/13 A2962 1310 70 2000 310/13G18 RMK AO2 RAB00E19 P0001
14926KSTC STC20000621204013706/21/00 20:40:31  5-MIN KSTC 220240Z AUTO 31010G18KT 10SM SCT043 BKN060 OVC095 18/13 A2962 1310 72 2000 310/10G18 RMK AO2 RAB00E19 P0001
14926KSTC STC20000621204513106/21/00 20:45:31  5-MIN KSTC 220245Z AUTO 30009KT 10SM SCT044 SCT060 OVC090 18/13 A2962 1310 72 2000 290/09 RMK AO2 RAB00E19 P0001
14926KSTC STC20000621205016006/21/00 20:50:31  5-MIN KSTC 220250Z AUTO 28010KT 10SM FEW045 SCT060 OVC085 18/13 A2962 1310 72 2000 280/10 RMK AO2 RAB00E19 SLP035 P0001 60001 T01780128 51012
14926KSTC STC20000621205511606/21/00 20:55:31  5-MIN KSTC 220255Z AUTO 29012KT 10SM SCT045 BKN080 OVC090 18/12 A2962 1300 67 2000 290/12 RMK AO2
14926KSTC STC20000621210012206/21/00 21:00:31  5-MIN KSTC 220300Z AUTO 28016G21KT 10SM FEW043 SCT080 OVC090 18/12 A2962 1300 67 2000 280/16G21 RMK AO2
14926KSTC STC20000621210512206/21/00 21:05:31  5-MIN KSTC 220305Z AUTO 29011G21KT 10SM FEW043 SCT080 OVC090 19/12 A2963 1300 65 2100 290/11G21 RMK AO2
14926KSTC STC20000621211010906/21/00 21:10:31  5-MIN KSTC 220310Z AUTO 29011KT 10SM FEW043 OVC085 18/12 A2962 1300 67 2000 290/11 RMK AO2
14926KSTC STC20000621211511506/21/00 21:15:31  5-MIN KSTC 220315Z AUTO 29014G18KT 10SM FEW043 OVC090 19/12 A2962 1300 65 2100 280/14G18 RMK AO2
14926KSTC STC20000621212011506/21/00 21:20:31  5-MIN KSTC 220320Z AUTO 29013G18KT 10SM FEW043 OVC090 19/12 A2963 1300 65 2100 290/13G18 RMK AO2
14926KSTC STC20000621212511506/21/00 21:25:31  5-MIN KSTC 220325Z AUTO 28011G17KT 10SM FEW043 OVC090 19/12 A2963 1300 65 2100 280/11G17 RMK AO2
14926KSTC STC20000621213010806/21/00 21:30:31  5-MIN KSTC 220330Z AUTO 28012G17KT 10SM OVC090 19/12 A2963 1290 65 2100 280/12G17 RMK AO2
14926KSTC STC20000621213510206/21/00 21:35:31  5-MIN KSTC 220335Z AUTO 28012KT 10SM OVC090 19/12 A2963 1290 65 2100 280/12 RMK AO2
14926KSTC STC20000621214010206/21/00 21:40:31  5-MIN KSTC 220340Z AUTO 28012KT 10SM OVC090 19/12 A2963 1290 65 2100 280/12 RMK AO2
14926KSTC STC20000621214510206/21/00 21:45:31  5-MIN KSTC 220345Z AUTO 29016KT 10SM OVC090 19/12 A2964 1290 65 2100 280/16 RMK AO2
14926KSTC STC20000621215011906/21/00 21:50:31  5-MIN KSTC 220350Z AUTO 28014KT 10SM OVC090 19/12 A2964 1290 65 2100 280/14 RMK AO2 SLP041 T01890122
14926KSTC STC20000621215510206/21/00 21:55:31  5-MIN KSTC 220355Z AUTO 28013KT 10SM OVC090 19/12 A2964 1290 65 2100 280/13 RMK AO2
14926KSTC STC20000621220010206/21/00 22:00:31  5-MIN KSTC 220400Z AUTO 28013KT 10SM OVC090 19/12 A2964 1290 65 2100 280/13 RMK AO2
14926KSTC STC20000621220510806/21/00 22:05:31  5-MIN KSTC 220405Z AUTO 28014G19KT 10SM OVC085 19/12 A2964 1290 65 2100 280/14G19 RMK AO2
14926KSTC STC20000621221010206/21/00 22:10:31  5-MIN KSTC 220410Z AUTO 28016KT 10SM OVC085 19/12 A2964 1290 65 2100 270/16 RMK AO2
14926KSTC STC20000621221510206/21/00 22:15:31  5-MIN KSTC 220415Z AUTO 28013KT 10SM OVC085 19/12 A2964 1290 65 2100 280/13 RMK AO2
14926KSTC STC20000621222010206/21/00 22:20:31  5-MIN KSTC 220420Z AUTO 28015KT 10SM OVC085 19/12 A2964 1290 62 2100 280/15 RMK AO2
14926KSTC STC20000621222510806/21/00 22:25:31  5-MIN KSTC 220425Z AUTO 28013G19KT 10SM OVC085 19/12 A2964 1280 65 2100 280/13G19 RMK AO2
14926KSTC STC20000621223010206/21/00 22:30:31  5-MIN KSTC 220430Z AUTO 27012KT 10SM OVC090 19/12 A2964 1280 65 2100 270/12 RMK AO2
14926KSTC STC20000621223510206/21/00 22:35:31  5-MIN KSTC 220435Z AUTO 29016KT 10SM OVC090 19/12 A2964 1280 65 2100 280/16 RMK AO2
14926KSTC STC20000621224010206/21/00 22:40:31  5-MIN KSTC 220440Z AUTO 27012KT 10SM OVC090 19/12 A2964 1280 65 2100 270/12 RMK AO2
14926KSTC STC20000621224510206/21/00 22:45:31  5-MIN KSTC 220445Z AUTO 28011KT 10SM OVC090 19/12 A2964 1280 65 2100 280/11 RMK AO2
14926KSTC STC20000621225011906/21/00 22:50:31  5-MIN KSTC 220450Z AUTO 27013KT 10SM OVC090 19/12 A2964 1280 62 2100 270/13 RMK AO2 SLP045 T01890117
14926KSTC STC20000621225510206/21/00 22:55:31  5-MIN KSTC 220455Z AUTO 28013KT 10SM OVC085 19/12 A2965 1280 65 2100 280/13 RMK AO2
14926KSTC STC20000621230010806/21/00 23:00:31  5-MIN KSTC 220500Z AUTO 28014G18KT 10SM OVC085 19/12 A2965 1280 65 2100 280/14G18 RMK AO2
14926KSTC STC20000621230510806/21/00 23:05:31  5-MIN KSTC 220505Z AUTO 28015G23KT 10SM OVC085 19/12 A2965 1280 62 2100 280/15G23 RMK AO2
14926KSTC STC20000621231010806/21/00 23:10:31  5-MIN KSTC 220510Z AUTO 29015G23KT 10SM OVC085 19/12 A2965 1280 62 2100 280/15G23 RMK AO2
14926KSTC STC20000621231510806/21/00 23:15:31  5-MIN KSTC 220515Z AUTO 29013G20KT 10SM OVC085 19/12 A2965 1280 65 2100 280/13G20 RMK AO2
14926KSTC STC20000621232010806/21/00 23:20:31  5-MIN KSTC 220520Z AUTO 29016G20KT 10SM OVC085 19/12 A2965 1270 65 2100 280/16G20 RMK AO2
14926KSTC STC20000621232510806/21/00 23:25:31  5-MIN KSTC 220525Z AUTO 29014G19KT 10SM OVC085 19/12 A2965 1270 65 2100 290/14G19 RMK AO2
14926KSTC STC20000621233010806/21/00 23:30:31  5-MIN KSTC 220530Z AUTO 28014G19KT 10SM OVC085 19/12 A2965 1270 65 2100 280/14G19 RMK AO2
14926KSTC STC20000621233510206/21/00 23:35:31  5-MIN KSTC 220535Z AUTO 28014KT 10SM OVC085 19/12 A2965 1280 65 2100 280/14 RMK AO2
14926KSTC STC20000621234010206/21/00 23:40:31  5-MIN KSTC 220540Z AUTO 28015KT 10SM OVC085 19/12 A2965 1270 65 2100 270/15 RMK AO2
14926KSTC STC20000621234510806/21/00 23:45:31  5-MIN KSTC 220545Z AUTO 28015G22KT 10SM OVC085 19/12 A2966 1270 62 2100 280/15G22 RMK AO2
14926KSTC STC20000621235015906/21/00 23:50:31  5-MIN KSTC 220550Z AUTO 28014G22KT 10SM OVC080 19/12 A2966 1270 65 2100 280/14G22 RMK AO2 SLP049 60001 T01890122 10194 20178 402060139 53018
14926KSTC STC20000621235510206/21/00 23:55:31  5-MIN KSTC 220555Z AUTO 28014KT 10SM OVC085 19/12 A2966 1270 62 2100 280/14 RMK AO2
14926KSTC STC20000622000010806/22/00 00:00:31  5-MIN KSTC 220600Z AUTO 28012G22KT 10SM OVC080 18/12 A2966 1270 67 2000 280/12G22 RMK AO2
14926KSTC STC20000622000510806/22/00 00:05:31  5-MIN KSTC 220605Z AUTO 29014G22KT 10SM OVC080 18/12 A2966 1270 65 2000 290/14G22 RMK AO2
14926KSTC STC20000622001010206/22/00 00:10:31  5-MIN KSTC 220610Z AUTO 29014KT 10SM OVC080 18/12 A2966 1270 65 2000 290/14 RMK AO2
14926KSTC STC20000622001510206/22/00 00:15:31  5-MIN KSTC 220615Z AUTO 29015KT 10SM OVC080 18/12 A2966 1260 67 2000 280/15 RMK AO2
14926KSTC STC20000622002010806/22/00 00:20:31  5-MIN KSTC 220620Z AUTO 29015G20KT 10SM OVC080 18/12 A2967 1260 67 2000 280/15G20 RMK AO2
14926KSTC STC20000622002510806/22/00 00:25:31  5-MIN KSTC 220625Z AUTO 29017G20KT 10SM BKN080 18/12 A2967 1260 65 2000 290/17G20 RMK AO2
14926KSTC STC20000622003010806/22/00 00:30:31  5-MIN KSTC 220630Z AUTO 29014G20KT 10SM BKN080 18/12 A2967 1260 65 2000 290/14G20 RMK AO2
14926KSTC STC20000622003510806/22/00 00:35:31  5-MIN KSTC 220635Z AUTO 29012G20KT 10SM SCT080 18/12 A2967 1260 69 1900 290/12G20 RMK AO2
14926KSTC STC20000622004010206/22/00 00:40:31  5-MIN KSTC 220640Z AUTO 29013KT 10SM FEW080 18/12 A2967 1260 69 1900 290/13 RMK AO2
14926KSTC STC20000622004510906/22/00 00:45:31  5-MIN KSTC 220645Z AUTO 29011KT 10SM FEW041 SCT080 18/12 A2967 1260 65 2000 280/11 RMK AO2
14926KSTC STC20000622005011906/22/00 00:50:31  5-MIN KSTC 220650Z AUTO 29010KT 10SM FEW041 18/12 A2967 1260 69 1900 290/10 RMK AO2 SLP053 T01780122
14926KSTC STC20000622005510206/22/00 00:55:31  5-MIN KSTC 220655Z AUTO 29010KT 10SM FEW039 18/12 A2967 1260 69 1900 290/10 RMK AO2
14926KSTC STC20000622010010906/22/00 01:00:31  5-MIN KSTC 220700Z AUTO 29010KT 10SM FEW039 SCT046 18/12 A2967 1260 69 1900 290/10 RMK AO2
14926KSTC STC20000622010510906/22/00 01:05:31  5-MIN KSTC 220705Z AUTO 28010KT 10SM FEW039 BKN047 18/12 A2967 1260 69 1900 280/10 RMK AO2
14926KSTC STC20000622011010906/22/00 01:10:31  5-MIN KSTC 220710Z AUTO 28010KT 10SM FEW040 BKN048 18/12 A2967 1250 69 1900 280/10 RMK AO2
14926KSTC STC20000622011511606/22/00 01:15:31  5-MIN KSTC 220715Z AUTO 29011KT 10SM FEW040 BKN048 BKN055 18/12 A2967 1250 69 1900 280/11 RMK AO2
14926KSTC STC20000622012011606/22/00 01:20:31  5-MIN KSTC 220720Z AUTO 29011KT 10SM FEW040 BKN048 BKN060 18/12 A2967 1250 69 1900 290/11 RMK AO2
14926KSTC STC20000622012511606/22/00 01:25:31  5-MIN KSTC 220725Z AUTO 30010KT 10SM FEW040 SCT048 OVC065 18/12 A2968 1250 69 1900 290/10 RMK AO2
14926KSTC STC20000622013011606/22/00 01:30:31  5-MIN KSTC 220730Z AUTO 29009KT 10SM FEW040 SCT048 OVC065 18/12 A2968 1250 69 1900 290/09 RMK AO2
14926KSTC STC20000622013510906/22/00 01:35:31  5-MIN KSTC 220735Z AUTO 29008KT 10SM FEW042 BKN065 17/12 A2968 1250 72 1800 290/08 RMK AO2
14926KSTC STC20000622014010906/22/00 01:40:31  5-MIN KSTC 220740Z AUTO 29011KT 10SM FEW042 BKN065 17/12 A2968 1250 72 1800 290/11 RMK AO2
14926KSTC STC20000622014510206/22/00 01:45:31  5-MIN KSTC 220745Z AUTO 29012KT 10SM BKN065 17/12 A2968 1250 72 1800 290/12 RMK AO2
14926KSTC STC20000622015011906/22/00 01:50:31  5-MIN KSTC 220750Z AUTO 30010KT 10SM SCT065 17/12 A2968 1250 72 1800 290/10 RMK AO2 SLP056 T01720122
14926KSTC STC20000622015510906/22/00 01:55:31  5-MIN KSTC 220755Z AUTO 29011KT 10SM FEW040 SCT065 17/12 A2968 1250 72 1800 280/11 RMK AO2
14926KSTC STC20000622020011606/22/00 02:00:31  5-MIN KSTC 220800Z AUTO 29013KT 10SM FEW036 SCT044 BKN065 18/12 A2969 1240 69 1900 290/13 RMK AO2
14926KSTC STC20000622020511606/22/00 02:05:31  5-MIN KSTC 220805Z AUTO 30012KT 10SM SCT034 BKN044 BKN065 17/12 A2969 1240 72 1800 290/12 RMK AO2
14926KSTC STC20000622021010906/22/00 02:10:31  5-MIN KSTC 220810Z AUTO 29013KT 10SM SCT034 SCT044 17/12 A2969 1240 72 1800 290/13 RMK AO2
14926KSTC STC20000622021510906/22/00 02:15:31  5-MIN KSTC 220815Z AUTO 29012KT 10SM SCT034 BKN044 17/12 A2969 1240 72 1800 290/12 RMK AO2
14926KSTC STC20000622022010906/22/00 02:20:31  5-MIN KSTC 220820Z AUTO 29015KT 10SM SCT034 BKN044 17/12 A2969 1240 72 1800 290/15 RMK AO2
14926KSTC STC20000622022510906/22/00 02:25:31  5-MIN KSTC 220825Z AUTO 29014KT 10SM SCT034 SCT044 17/12 A2970 1230 72 1800 290/14 RMK AO2
14926KSTC STC20000622023010206/22/00 02:30:31  5-MIN KSTC 220830Z AUTO 30013KT 10SM SCT034 17/12 A2970 1230 75 1800 300/13 RMK AO2
14926KSTC STC20000622023510206/22/00 02:35:31  5-MIN KSTC 220835Z AUTO 30013KT 10SM FEW034 17/12 A2970 1230 75 1800 300/13 RMK AO2
14926KSTC STC20000622024010206/22/00 02:40:31  5-MIN KSTC 220840Z AUTO 31013KT 10SM FEW034 17/12 A2970 1230 75 1700 300/13 RMK AO2
14926KSTC STC20000622024510506/22/00 02:45:31  5-MIN KSTC 220845Z AUTO 31010G18KT 10SM CLR 17/12 A2970 1230 75 1700 310/10G18 RMK AO2
14926KSTC STC20000622025012206/22/00 02:50:31  5-MIN KSTC 220850Z AUTO 31011KT 10SM CLR 17/12 A2971 1230 75 1700 310/11 RMK AO2 SLP064 T01670122 51013
14926KSTC STC20000622025509906/22/00 02:55:31  5-MIN KSTC 220855Z AUTO 30010KT 10SM CLR 16/12 A2971 1220 77 1700 300/10 RMK AO2
14926KSTC STC20000622030009906/22/00 03:00:31  5-MIN KSTC 220900Z AUTO 30012KT 10SM CLR 16/12 A2971 1220 77 1700 300/12 RMK AO2
14926KSTC STC20000622030509906/22/00 03:05:31  5-MIN KSTC 220905Z AUTO 30011KT 10SM CLR 16/12 A2971 1220 77 1700 300/11 RMK AO2
14926KSTC STC20000622031009906/22/00 03:10:31  5-MIN KSTC 220910Z AUTO 30010KT 10SM CLR 16/12 A2971 1220 77 1700 300/10 RMK AO2
14926KSTC STC20000622031509906/22/00 03:15:31  5-MIN KSTC 220915Z AUTO 30011KT 10SM CLR 16/12 A2971 1220 77 1700 290/11 RMK AO2
14926KSTC STC20000622032009906/22/00 03:20:31  5-MIN KSTC 220920Z AUTO 30010KT 10SM CLR 16/12 A2971 1220 75 1700 300/10 RMK AO2
14926KSTC STC20000622032509906/22/00 03:25:31  5-MIN KSTC 220925Z AUTO 29009KT 10SM CLR 16/12 A2971 1220 75 1700 290/09 RMK AO2
14926KSTC STC20000622033009906/22/00 03:30:31  5-MIN KSTC 220930Z AUTO 29009KT 10SM CLR 16/12 A2971 1220 77 1600 290/09 RMK AO2
14926KSTC STC20000622033509906/22/00 03:35:31  5-MIN KSTC 220935Z AUTO 28009KT 10SM CLR 16/12 A2972 1210 77 1600 280/09 RMK AO2
14926KSTC STC20000622034009906/22/00 03:40:31  5-MIN KSTC 220940Z AUTO 28008KT 10SM CLR 15/12 A2972 1210 80 1500 270/08 RMK AO2
14926KSTC STC20000622034509906/22/00 03:45:31  5-MIN KSTC 220945Z AUTO 28009KT 10SM CLR 15/12 A2972 1210 80 1500 280/09 RMK AO2
14926KSTC STC20000622035011606/22/00 03:50:31  5-MIN KSTC 220950Z AUTO 28009KT 10SM CLR 15/12 A2972 1210 80 1500 270/09 RMK AO2 SLP073 T01500117
14926KSTC STC20000622035509906/22/00 03:55:31  5-MIN KSTC 220955Z AUTO 28008KT 10SM CLR 15/12 A2973 1210 80 1500 270/08 RMK AO2
14926KSTC STC20000622040009906/22/00 04:00:31  5-MIN KSTC 221000Z AUTO 28009KT 10SM CLR 15/12 A2973 1200 80 1500 270/09 RMK AO2
14926KSTC STC20000622040509906/22/00 04:05:31  5-MIN KSTC 221005Z AUTO 27008KT 10SM CLR 15/12 A2973 1200 80 1500 270/08 RMK AO2
14926KSTC STC20000622041009906/22/00 04:10:31  5-MIN KSTC 221010Z AUTO 27008KT 10SM CLR 15/12 A2973 1200 80 1500 270/08 RMK AO2
14926KSTC STC20000622041509906/22/00 04:15:31  5-MIN KSTC 221015Z AUTO 28010KT 10SM CLR 15/12 A2974 1200 80 1500 270/10 RMK AO2
14926KSTC STC20000622042009906/22/00 04:20:31  5-MIN KSTC 221020Z AUTO 28010KT 10SM CLR 15/12 A2974 1200 80 1500 280/10 RMK AO2
14926KSTC STC20000622042509906/22/00 04:25:31  5-MIN KSTC 221025Z AUTO 28010KT 10SM CLR 16/12 A2974 1190 77 1600 280/10 RMK AO2
14926KSTC STC20000622043009906/22/00 04:30:31  5-MIN KSTC 221030Z AUTO 28009KT 10SM CLR 16/12 A2974 1190 77 1600 280/09 RMK AO2
14926KSTC STC20000622043509906/22/00 04:35:31  5-MIN KSTC 221035Z AUTO 28010KT 10SM CLR 16/12 A2974 1190 77 1600 280/10 RMK AO2
14926KSTC STC20000622044009906/22/00 04:40:31  5-MIN KSTC 221040Z AUTO 28010KT 10SM CLR 15/12 A2974 1190 80 1500 280/10 RMK AO2
14926KSTC STC20000622044509906/22/00 04:45:31  5-MIN KSTC 221045Z AUTO 28010KT 10SM CLR 15/12 A2975 1190 80 1500 280/10 RMK AO2
14926KSTC STC20000622045011606/22/00 04:50:31  5-MIN KSTC 221050Z AUTO 28010KT 10SM CLR 15/12 A2975 1190 80 1500 280/10 RMK AO2 SLP080 T01500117
14926KSTC STC20000622045509906/22/00 04:55:31  5-MIN KSTC 221055Z AUTO 28009KT 10SM CLR 16/12 A2975 1190 77 1600 280/09 RMK AO2
14926KSTC STC20000622050009906/22/00 05:00:31  5-MIN KSTC 221100Z AUTO 28009KT 10SM CLR 16/12 A2975 1190 77 1600 280/09 RMK AO2
14926KSTC STC20000622050509906/22/00 05:05:31  5-MIN KSTC 221105Z AUTO 28009KT 10SM CLR 16/12 A2975 1180 77 1600 280/09 RMK AO2
14926KSTC STC20000622051009906/22/00 05:10:31  5-MIN KSTC 221110Z AUTO 28011KT 10SM CLR 16/12 A2975 1180 77 1600 280/11 RMK AO2
14926KSTC STC20000622051509906/22/00 05:15:31  5-MIN KSTC 221115Z AUTO 28009KT 10SM CLR 16/12 A2975 1180 77 1600 280/09 RMK AO2
14926KSTC STC20000622052009906/22/00 05:20:31  5-MIN KSTC 221120Z AUTO 28010KT 10SM CLR 16/12 A2976 1180 77 1600 280/10 RMK AO2
14926KSTC STC20000622052509906/22/00 05:25:31  5-MIN KSTC 221125Z AUTO 29009KT 10SM CLR 16/12 A2976 1180 77 1600 280/09 RMK AO2
14926KSTC STC20000622053009906/22/00 05:30:31  5-MIN KSTC 221130Z AUTO 28011KT 10SM CLR 16/12 A2976 1170 80 1600 270/11 RMK AO2
14926KSTC STC20000622053509906/22/00 05:35:31  5-MIN KSTC 221135Z AUTO 28010KT 10SM CLR 16/12 A2976 1170 80 1500 280/10 RMK AO2
14926KSTC STC20000622054009906/22/00 05:40:31  5-MIN KSTC 221140Z AUTO 28011KT 10SM CLR 16/12 A2977 1170 77 1600 270/11 RMK AO2
14926KSTC STC20000622054509906/22/00 05:45:31  5-MIN KSTC 221145Z AUTO 28010KT 10SM CLR 16/12 A2977 1170 77 1600 280/10 RMK AO2
14926KSTC STC20000622055014006/22/00 05:50:31  5-MIN KSTC 221150Z AUTO 28011KT 10SM CLR 16/12 A2977 1160 77 1600 280/11 RMK AO2 SLP088 70014 T01610122 10189 20150 53016
14926KSTC STC20000622055509906/22/00 05:55:31  5-MIN KSTC 221155Z AUTO 28011KT 10SM CLR 16/12 A2977 1160 77 1600 280/11 RMK AO2
14926KSTC STC20000622060009906/22/00 06:00:31  5-MIN KSTC 221200Z AUTO 28010KT 10SM CLR 16/12 A2978 1160 77 1600 270/10 RMK AO2
14926KSTC STC20000622060509906/22/00 06:05:31  5-MIN KSTC 221205Z AUTO 28012KT 10SM CLR 16/12 A2978 1160 77 1600 280/12 RMK AO2
14926KSTC STC20000622061009906/22/00 06:10:31  5-MIN KSTC 221210Z AUTO 29009KT 10SM CLR 16/12 A2978 1160 77 1600 290/09 RMK AO2
14926KSTC STC20000622061509906/22/00 06:15:31  5-MIN KSTC 221215Z AUTO 29011KT 10SM CLR 17/12 A2978 1160 75 1700 290/11 RMK AO2
14926KSTC STC20000622062009906/22/00 06:20:31  5-MIN KSTC 221220Z AUTO 29010KT 10SM CLR 17/12 A2979 1150 75 1700 290/10 RMK AO2
14926KSTC STC20000622062509906/22/00 06:25:31  5-MIN KSTC 221225Z AUTO 28013KT 10SM CLR 17/12 A2979 1150 75 1700 280/13 RMK AO2
14926KSTC STC20000622063009906/22/00 06:30:31  5-MIN KSTC 221230Z AUTO 29011KT 10SM CLR 17/12 A2979 1150 75 1600 290/11 RMK AO2
14926KSTC STC20000622063509906/22/00 06:35:31  5-MIN KSTC 221235Z AUTO 29011KT 10SM CLR 17/12 A2979 1150 75 1600 290/11 RMK AO2
14926KSTC STC20000622064009906/22/00 06:40:31  5-MIN KSTC 221240Z AUTO 30013KT 10SM CLR 17/12 A2979 1140 75 1600 290/13 RMK AO2
14926KSTC STC20000622064509906/22/00 06:45:31  5-MIN KSTC 221245Z AUTO 30011KT 10SM CLR 17/12 A2979 1150 72 1700 290/11 RMK AO2
14926KSTC STC20000622065011606/22/00 06:50:31  5-MIN KSTC 221250Z AUTO 29012KT 10SM CLR 17/12 A2980 1140 72 1700 290/12 RMK AO2 SLP095 T01720122
14926KSTC STC20000622065509906/22/00 06:55:31  5-MIN KSTC 221255Z AUTO 30014KT 10SM CLR 17/12 A2980 1140 72 1700 290/14 RMK AO2
14926KSTC STC20000622070010506/22/00 07:00:31  5-MIN KSTC 221300Z AUTO 29014G19KT 10SM CLR 17/13 A2980 1140 75 1700 290/14G19 RMK AO2
14926KSTC STC20000622070510806/22/00 07:05:31  5-MIN KSTC 221305Z AUTO 30011G19KT 10SM FEW023 17/13 A2980 1140 75 1700 290/11G19 RMK AO2
14926KSTC STC20000622071010206/22/00 07:10:31  5-MIN KSTC 221310Z AUTO 29013KT 10SM FEW023 17/13 A2980 1140 75 1700 280/13 RMK AO2
14926KSTC STC20000622071510206/22/00 07:15:31  5-MIN KSTC 221315Z AUTO 30010KT 10SM FEW023 18/13 A2980 1140 72 1800 300/10 RMK AO2
14926KSTC STC20000622072010206/22/00 07:20:31  5-MIN KSTC 221320Z AUTO 30010KT 10SM FEW023 18/13 A2980 1130 72 1800 300/10 RMK AO2
14926KSTC STC20000622072510206/22/00 07:25:31  5-MIN KSTC 221325Z AUTO 29013KT 10SM SCT023 18/13 A2980 1140 72 1800 290/13 RMK AO2
14926KSTC STC20000622073010206/22/00 07:30:31  5-MIN KSTC 221330Z AUTO 31011KT 10SM SCT023 17/13 A2981 1130 75 1700 300/11 RMK AO2
14926KSTC STC20000622073510206/22/00 07:35:31  5-MIN KSTC 221335Z AUTO 30013KT 10SM BKN023 17/13 A2981 1130 75 1700 290/13 RMK AO2
14926KSTC STC20000622074010206/22/00 07:40:31  5-MIN KSTC 221340Z AUTO 31011KT 10SM BKN025 17/13 A2981 1130 75 1700 300/11 RMK AO2
14926KSTC STC20000622074510206/22/00 07:45:31  5-MIN KSTC 221345Z AUTO 31012KT 10SM BKN025 17/12 A2981 1130 72 1700 310/12 RMK AO2
14926KSTC STC20000622075011906/22/00 07:50:31  5-MIN KSTC 221350Z AUTO 32010KT 10SM BKN025 17/12 A2982 1120 72 1700 320/10 RMK AO2 SLP102 T01720122
14926KSTC STC20000622075510806/22/00 07:55:31  5-MIN KSTC 221355Z AUTO 32015G21KT 10SM BKN025 18/12 A2982 1120 67 1800 310/15G21 RMK AO2
14926KSTC STC20000622080011506/22/00 08:00:31  5-MIN KSTC 221400Z AUTO 32014G21KT 10SM BKN023 BKN028 18/12 A2982 1120 67 1800 320/14G21 RMK AO2
14926KSTC STC20000622080510206/22/00 08:05:31  5-MIN KSTC 221405Z AUTO 30011KT 10SM BKN025 19/13 A2982 1120 67 1900 290/11 RMK AO2
14926KSTC STC20000622081011506/22/00 08:10:31  5-MIN KSTC 221410Z AUTO 30014G18KT 10SM BKN023 OVC028 18/13 A2982 1120 70 1800 300/14G18 RMK AO2
14926KSTC STC20000622081510206/22/00 08:15:31  5-MIN KSTC 221415Z AUTO 30014KT 10SM BKN025 18/12 A2983 1110 67 1800 290/14 RMK AO2
14926KSTC STC20000622082010206/22/00 08:20:31  5-MIN KSTC 221420Z AUTO 31012KT 10SM BKN025 17/12 A2983 1110 72 1700 310/12 RMK AO2
14926KSTC STC20000622082510206/22/00 08:25:31  5-MIN KSTC 221425Z AUTO 31012KT 10SM BKN023 18/12 A2983 1110 67 1800 310/12 RMK AO2
14926KSTC STC20000622083010206/22/00 08:30:31  5-MIN KSTC 221430Z AUTO 30015KT 10SM BKN025 19/13 A2983 1110 67 1900 300/15 RMK AO2
14926KSTC STC20000622083510206/22/00 08:35:31  5-MIN KSTC 221435Z AUTO 32012KT 10SM SCT025 18/12 A2983 1110 67 1800 320/12 RMK AO2
14926KSTC STC20000622084010206/22/00 08:40:31  5-MIN KSTC 221440Z AUTO 31014KT 10SM FEW025 18/12 A2983 1110 67 1800 310/14 RMK AO2
14926KSTC STC20000622084510206/22/00 08:45:31  5-MIN KSTC 221445Z AUTO 31013KT 10SM FEW025 19/12 A2984 1100 65 1900 310/13 RMK AO2
14926KSTC STC20000622085012506/22/00 08:50:31  5-MIN KSTC 221450Z AUTO 32013KT 10SM FEW027 19/12 A2984 1100 65 1800 320/13 RMK AO2 SLP111 T01890122 53021
14926KSTC STC20000622085510206/22/00 08:55:31  5-MIN KSTC 221455Z AUTO 33010KT 10SM SCT027 19/13 A2984 1100 65 1900 320/10 RMK AO2
14926KSTC STC20000622090010806/22/00 09:00:31  5-MIN KSTC 221500Z AUTO 30012G16KT 10SM SCT027 20/13 A2985 1090 65 2000 290/12G16 RMK AO2
14926KSTC STC20000622090510806/22/00 09:05:31  5-MIN KSTC 221505Z AUTO 30012G16KT 10SM BKN027 18/13 A2985 1090 70 1800 290/12G16 RMK AO2
14926KSTC STC20000622091010906/22/00 09:10:31  5-MIN KSTC 221510Z AUTO 31012KT 10SM BKN027 BKN034 18/12 A2985 1090 67 1800 310/12 RMK AO2
14926KSTC STC20000622091510906/22/00 09:15:31  5-MIN KSTC 221515Z AUTO 31011KT 10SM BKN027 BKN034 19/13 A2985 1090 67 1800 310/11 RMK AO2
14926KSTC STC20000622092011506/22/00 09:20:31  5-MIN KSTC 221520Z AUTO 30012G18KT 10SM BKN027 OVC034 19/13 A2986 1090 65 1900 290/12G18 RMK AO2
14926KSTC STC20000622092511506/22/00 09:25:31  5-MIN KSTC 221525Z AUTO 29013G18KT 10SM BKN027 OVC034 19/13 A2986 1090 67 1800 290/13G18 RMK AO2
14926KSTC STC20000622093010906/22/00 09:30:31  5-MIN KSTC 221530Z AUTO 31012KT 10SM BKN027 BKN034 19/13 A2985 1090 65 1900 300/12 RMK AO2
14926KSTC STC20000622093510206/22/00 09:35:31  5-MIN KSTC 221535Z AUTO 31013KT 10SM BKN029 20/13 A2985 1090 63 2000 310/13 RMK AO2
14926KSTC STC20000622094010206/22/00 09:40:31  5-MIN KSTC 221540Z AUTO 31012KT 10SM BKN029 21/13 A2985 1090 60 2000 310/12 RMK AO2
14926KSTC STC20000622094510206/22/00 09:45:31  5-MIN KSTC 221545Z AUTO 29014KT 10SM BKN029 19/13 A2986 1090 65 1900 290/14 RMK AO2
14926KSTC STC20000622095011906/22/00 09:50:31  5-MIN KSTC 221550Z AUTO 31012KT 10SM BKN029 19/13 A2985 1090 65 1900 310/12 RMK AO2 SLP114 T01940128
14926KSTC STC20000622095510206/22/00 09:55:31  5-MIN KSTC 221555Z AUTO 30012KT 10SM BKN029 21/13 A2986 1090 60 2000 300/12 RMK AO2
14926KSTC STC20000622100010206/22/00 10:00:31  5-MIN KSTC 221600Z AUTO 30013KT 10SM BKN029 20/13 A2986 1080 63 2000 300/13 RMK AO2
14926KSTC STC20000622100510206/22/00 10:05:31  5-MIN KSTC 221605Z AUTO 31012KT 10SM BKN031 21/13 A2986 1080 63 2000 300/12 RMK AO2
14926KSTC STC20000622101010206/22/00 10:10:31  5-MIN KSTC 221610Z AUTO 31013KT 10SM BKN031 21/13 A2986 1080 60 2000 310/13 RMK AO2
14926KSTC STC20000622101510206/22/00 10:15:31  5-MIN KSTC 221615Z AUTO 30012KT 10SM SCT031 21/13 A2986 1080 60 2000 300/12 RMK AO2
14926KSTC STC20000622102010206/22/00 10:20:31  5-MIN KSTC 221620Z AUTO 32013KT 10SM SCT031 21/13 A2986 1080 58 2100 320/13 RMK AO2
14926KSTC STC20000622102510206/22/00 10:25:31  5-MIN KSTC 221625Z AUTO 32016KT 10SM FEW031 21/13 A2986 1080 58 2100 310/16 RMK AO2
14926KSTC STC20000622103010206/22/00 10:30:31  5-MIN KSTC 221630Z AUTO 30011KT 10SM FEW031 21/13 A2986 1080 58 2100 300/11 RMK AO2
14926KSTC STC20000622103510206/22/00 10:35:31  5-MIN KSTC 221635Z AUTO 32008KT 10SM FEW031 22/13 A2986 1080 58 2100 320/08 RMK AO2
14926KSTC STC20000622104010206/22/00 10:40:31  5-MIN KSTC 221640Z AUTO 30016KT 10SM FEW034 22/13 A2986 1080 58 2100 300/16 RMK AO2
14926KSTC STC20000622104510206/22/00 10:45:31  5-MIN KSTC 221645Z AUTO 30015KT 10SM FEW034 22/13 A2986 1080 56 2100 300/15 RMK AO2
14926KSTC STC20000622105011906/22/00 10:50:31  5-MIN KSTC 221650Z AUTO 31015KT 10SM FEW036 22/13 A2987 1080 56 2100 310/15 RMK AO2 SLP117 T02170128
14926KSTC STC20000622105510206/22/00 10:55:31  5-MIN KSTC 221655Z AUTO 30012KT 10SM FEW036 22/13 A2987 1070 56 2200 300/12 RMK AO2
14926KSTC STC20000622110010806/22/00 11:00:31  5-MIN KSTC 221700Z AUTO 29011G18KT 10SM SCT036 22/13 A2987 1070 58 2100 290/11G18 RMK AO2
14926KSTC STC20000622110510206/22/00 11:05:31  5-MIN KSTC 221705Z AUTO 29016KT 10SM SCT036 22/13 A2987 1070 56 2200 290/16 RMK AO2
14926KSTC STC20000622111010206/22/00 11:10:31  5-MIN KSTC 221710Z AUTO 30013KT 10SM SCT036 22/13 A2987 1070 56 2200 300/13 RMK AO2
14926KSTC STC20000622111510206/22/00 11:15:31  5-MIN KSTC 221715Z AUTO 31014KT 10SM SCT038 23/13 A2987 1070 55 2300 300/14 RMK AO2
14926KSTC STC20000622112010206/22/00 11:20:31  5-MIN KSTC 221720Z AUTO 30012KT 10SM SCT036 22/13 A2987 1070 56 2100 300/12 RMK AO2
14926KSTC STC20000622112510206/22/00 11:25:31  5-MIN KSTC 221725Z AUTO 30013KT 10SM SCT036 22/13 A2987 1070 56 2200 290/13 RMK AO2
14926KSTC STC20000622113010206/22/00 11:30:31  5-MIN KSTC 221730Z AUTO 30010KT 10SM SCT036 23/13 A2987 1070 55 2300 300/10 RMK AO2
14926KSTC STC20000622113510206/22/00 11:35:31  5-MIN KSTC 221735Z AUTO 29015KT 10SM SCT038 23/13 A2987 1070 55 2300 280/15 RMK AO2
14926KSTC STC20000622114010206/22/00 11:40:31  5-MIN KSTC 221740Z AUTO 29015KT 10SM SCT038 23/13 A2987 1070 53 2300 290/15 RMK AO2
14926KSTC STC20000622114510206/22/00 11:45:31  5-MIN KSTC 221745Z AUTO 30013KT 10SM SCT038 23/13 A2987 1070 53 2300 300/13 RMK AO2
14926KSTC STC20000622115014306/22/00 11:50:31  5-MIN KSTC 221750Z AUTO 30014G20KT 10SM SCT038 23/13 A2987 1070 53 2300 300/14G20 RMK AO2 SLP119 T02330133 10233 20161 53023
14926KSTC STC20000622115510806/22/00 11:55:31  5-MIN KSTC 221755Z AUTO 31013G20KT 10SM SCT038 23/13 A2987 1070 55 2300 310/13G20 RMK AO2
14926KSTC STC20000622120010806/22/00 12:00:31  5-MIN KSTC 221800Z AUTO 30016G20KT 10SM FEW038 23/13 A2987 1070 53 2300 300/16G20 RMK AO2
14926KSTC STC20000622120510806/22/00 12:05:31  5-MIN KSTC 221805Z AUTO 30012G20KT 10SM FEW038 23/13 A2987 1070 53 2300 300/12G20 RMK AO2
14926KSTC STC20000622121010806/22/00 12:10:31  5-MIN KSTC 221810Z AUTO 30010G17KT 10SM FEW038 23/14 A2987 1070 55 2300 300/10G17 RMK AO2
14926KSTC STC20000622121510806/22/00 12:15:31  5-MIN KSTC 221815Z AUTO 32013G17KT 10SM SCT040 23/13 A2987 1070 53 2300 310/13G17 RMK AO2
14926KSTC STC20000622122010206/22/00 12:20:31  5-MIN KSTC 221820Z AUTO 32010KT 10SM FEW040 23/13 A2987 1070 53 2300 310/10 RMK AO2
14926KSTC STC20000622122510206/22/00 12:25:31  5-MIN KSTC 221825Z AUTO 31010KT 10SM FEW040 23/13 A2987 1070 53 2300 310/10 RMK AO2
14926KSTC STC20000622123010206/22/00 12:30:31  5-MIN KSTC 221830Z AUTO 31009KT 10SM SCT040 23/13 A2987 1070 53 2300 300/09 RMK AO2
14926KSTC STC20000622123510206/22/00 12:35:31  5-MIN KSTC 221835Z AUTO 32012KT 10SM SCT040 24/14 A2987 1070 53 2400 320/12 RMK AO2
14926KSTC STC20000622124010206/22/00 12:40:31  5-MIN KSTC 221840Z AUTO 31009KT 10SM SCT040 23/13 A2987 1070 53 2300 310/09 RMK AO2
14926KSTC STC20000622124510806/22/00 12:45:31  5-MIN KSTC 221845Z AUTO 30014G18KT 10SM FEW040 24/13 A2988 1070 51 2400 300/14G18 RMK AO2
14926KSTC STC20000622125011906/22/00 12:50:31  5-MIN KSTC 221850Z AUTO 31014KT 10SM FEW040 24/13 A2988 1070 51 2400 310/14 RMK AO2 SLP121 T02390133
14926KSTC STC20000622125510206/22/00 12:55:31  5-MIN KSTC 221855Z AUTO 32010KT 10SM FEW040 24/14 A2988 1070 53 2400 310/10 RMK AO2
14926KSTC STC20000622130010206/22/00 13:00:31  5-MIN KSTC 221900Z AUTO 31013KT 10SM FEW040 24/13 A2988 1060 49 2400 310/13 RMK AO2
14926KSTC STC20000622130510206/22/00 13:05:31  5-MIN KSTC 221905Z AUTO 29013KT 10SM FEW042 24/13 A2988 1060 51 2400 280/13 RMK AO2
14926KSTC STC20000622131010206/22/00 13:10:31  5-MIN KSTC 221910Z AUTO 29014KT 10SM FEW042 24/13 A2988 1070 49 2400 290/14 RMK AO2
14926KSTC STC20000622131510206/22/00 13:15:31  5-MIN KSTC 221915Z AUTO 31015KT 10SM FEW042 24/13 A2988 1070 47 2400 310/15 RMK AO2
14926KSTC STC20000622132010206/22/00 13:20:31  5-MIN KSTC 221920Z AUTO 29014KT 10SM FEW042 24/13 A2988 1070 49 2400 290/14 RMK AO2
14926KSTC STC20000622132510806/22/00 13:25:31  5-MIN KSTC 221925Z AUTO 29015G21KT 10SM FEW042 24/13 A2988 1060 47 2400 290/15G21 RMK AO2
14926KSTC STC20000622133010806/22/00 13:30:31  5-MIN KSTC 221930Z AUTO 29010G21KT 10SM FEW042 25/13 A2988 1070 46 2500 290/10G21 RMK AO2
14926KSTC STC20000622133510806/22/00 13:35:31  5-MIN KSTC 221935Z AUTO 29013G18KT 10SM FEW044 25/13 A2988 1070 46 2500 290/13G18 RMK AO2
14926KSTC STC20000622134010506/22/00 13:40:31  5-MIN KSTC 221940Z AUTO 32011G17KT 10SM CLR 24/13 A2988 1070 47 2400 320/11G17 RMK AO2
14926KSTC STC20000622134510506/22/00 13:45:31  5-MIN KSTC 221945Z AUTO 32011G17KT 10SM CLR 24/13 A2988 1060 47 2400 320/11G17 RMK AO2
14926KSTC STC20000622135012206/22/00 13:50:31  5-MIN KSTC 221950Z AUTO 30013G18KT 10SM CLR 25/13 A2988 1060 46 2500 290/13G18 RMK AO2 SLP122 T02500128
14926KSTC STC20000622135510806/22/00 13:55:31  5-MIN KSTC 221955Z AUTO 28013G18KT 10SM FEW047 25/13 A2988 1070 48 2500 280/13G18 RMK AO2
14926KSTC STC20000622140010206/22/00 14:00:31  5-MIN KSTC 222000Z AUTO 29014KT 10SM FEW047 25/13 A2988 1060 48 2500 280/14 RMK AO2
14926KSTC STC20000622140510806/22/00 14:05:31  5-MIN KSTC 222005Z AUTO 30011G17KT 10SM FEW047 25/13 A2988 1060 48 2500 300/11G17 RMK AO2
14926KSTC STC20000622141010806/22/00 14:10:31  5-MIN KSTC 222010Z AUTO 30012G17KT 10SM FEW047 25/14 A2988 1060 49 2500 300/12G17 RMK AO2
14926KSTC STC20000622141510806/22/00 14:15:31  5-MIN KSTC 222015Z AUTO 29008G17KT 10SM FEW047 25/13 A2988 1070 48 2500 280/08G17 RMK AO2
14926KSTC STC20000622142010206/22/00 14:20:31  5-MIN KSTC 222020Z AUTO 30011KT 10SM FEW047 26/13 A2988 1070 46 2600 290/11 RMK AO2
14926KSTC STC20000622142511506/22/00 14:25:31  5-MIN KSTC 222025Z AUTO 30008KT 270V340 10SM CLR 26/13 A2988 1070 46 2600 300/08 270V340 RMK AO2
14926KSTC STC20000622143009906/22/00 14:30:31  5-MIN KSTC 222030Z AUTO 33009KT 10SM CLR 26/13 A2988 1070 46 2600 330/09 RMK AO2
14926KSTC STC20000622143509906/22/00 14:35:31  5-MIN KSTC 222035Z AUTO 28008KT 10SM CLR 25/13 A2988 1070 46 2500 270/08 RMK AO2
14926KSTC STC20000622144010506/22/00 14:40:31  5-MIN KSTC 222040Z AUTO 32010G18KT 10SM CLR 26/13 A2988 1070 44 2600 320/10G18 RMK AO2
14926KSTC STC20000622144510506/22/00 14:45:31  5-MIN KSTC 222045Z AUTO 32011G18KT 10SM CLR 26/13 A2988 1060 44 2600 320/11G18 RMK AO2
14926KSTC STC20000622145012206/22/00 14:50:31  5-MIN KSTC 222050Z AUTO 28010KT 10SM CLR 25/13 A2988 1060 46 2500 270/10 RMK AO2 SLP122 T02500128 51009
14926KSTC STC20000622145509906/22/00 14:55:31  5-MIN KSTC 222055Z AUTO 28011KT 10SM CLR 26/13 A2988 1060 46 2600 280/11 RMK AO2
14926KSTC STC20000622150009906/22/00 15:00:31  5-MIN KSTC 222100Z AUTO 28007KT 10SM CLR 26/13 A2988 1070 44 2600 270/07 RMK AO2
14926KSTC STC20000622150509906/22/00 15:05:31  5-MIN KSTC 222105Z AUTO 30006KT 10SM CLR 25/13 A2988 1070 48 2500 290/06 RMK AO2
14926KSTC STC20000622151009906/22/00 15:10:31  5-MIN KSTC 222110Z AUTO 29012KT 10SM CLR 26/13 A2988 1070 46 2600 290/12 RMK AO2
14926KSTC STC20000622151509906/22/00 15:15:31  5-MIN KSTC 222115Z AUTO 31007KT 10SM CLR 25/13 A2987 1070 48 2500 310/07 RMK AO2
14926KSTC STC20000622152009906/22/00 15:20:31  5-MIN KSTC 222120Z AUTO 30009KT 10SM CLR 26/13 A2988 1070 46 2600 290/09 RMK AO2
14926KSTC STC20000622152509906/22/00 15:25:31  5-MIN KSTC 222125Z AUTO 28010KT 10SM CLR 26/13 A2988 1070 46 2600 280/10 RMK AO2
14926KSTC STC20000622153009906/22/00 15:30:31  5-MIN KSTC 222130Z AUTO 31006KT 10SM CLR 26/13 A2988 1070 46 2600 310/06 RMK AO2
14926KSTC STC20000622153509906/22/00 15:35:31  5-MIN KSTC 222135Z AUTO 29011KT 10SM CLR 26/13 A2988 1060 44 2600 290/11 RMK AO2
14926KSTC STC20000622154009906/22/00 15:40:31  5-MIN KSTC 222140Z AUTO 30009KT 10SM CLR 26/13 A2988 1070 44 2600 300/09 RMK AO2
14926KSTC STC20000622154510506/22/00 15:45:31  5-MIN KSTC 222145Z AUTO 29010G15KT 10SM CLR 26/12 A2988 1070 43 2600 290/10G15 RMK AO2
14926KSTC STC20000622155012206/22/00 15:50:31  5-MIN KSTC 222150Z AUTO 31010G15KT 10SM CLR 26/12 A2988 1070 41 2600 310/10G15 RMK AO2 SLP120 T02560117
14926KSTC STC20000622155509906/22/00 15:55:31  5-MIN KSTC 222155Z AUTO 31008KT 10SM CLR 26/12 A2988 1070 43 2600 310/08 RMK AO2
14926KSTC STC20000622160009906/22/00 16:00:31  5-MIN KSTC 222200Z AUTO 30008KT 10SM CLR 26/13 A2988 1070 44 2600 290/08 RMK AO2
14926KSTC STC20000622160509906/22/00 16:05:31  5-MIN KSTC 222205Z AUTO 29007KT 10SM CLR 26/12 A2988 1070 43 2600 290/07 RMK AO2
14926KSTC STC20000622161009906/22/00 16:10:31  5-MIN KSTC 222210Z AUTO 32008KT 10SM CLR 26/13 A2988 1070 43 2600 320/08 RMK AO2
14926KSTC STC20000622161509906/22/00 16:15:31  5-MIN KSTC 222215Z AUTO 29007KT 10SM CLR 26/12 A2988 1060 43 2600 290/07 RMK AO2
14926KSTC STC20000622162009906/22/00 16:20:31  5-MIN KSTC 222220Z AUTO 29010KT 10SM CLR 26/13 A2988 1060 43 2600 290/10 RMK AO2
14926KSTC STC20000622162509906/22/00 16:25:31  5-MIN KSTC 222225Z AUTO 30006KT 10SM CLR 26/12 A2988 1060 43 2600 300/06 RMK AO2
14926KSTC STC20000622163009906/22/00 16:30:31  5-MIN KSTC 222230Z AUTO 29007KT 10SM CLR 26/13 A2988 1070 44 2600 290/07 RMK AO2
14926KSTC STC20000622163509906/22/00 16:35:31  5-MIN KSTC 222235Z AUTO 30011KT 10SM CLR 26/12 A2988 1060 41 2600 300/11 RMK AO2
14926KSTC STC20000622164009906/22/00 16:40:31  5-MIN KSTC 222240Z AUTO 29007KT 10SM CLR 26/12 A2988 1070 43 2600 290/07 RMK AO2
14926KSTC STC20000622164509906/22/00 16:45:31  5-MIN KSTC 222245Z AUTO 31006KT 10SM CLR 26/12 A2988 1070 43 2600 300/06 RMK AO2
14926KSTC STC20000622165011606/22/00 16:50:31  5-MIN KSTC 222250Z AUTO 29007KT 10SM CLR 26/12 A2988 1070 43 2600 290/07 RMK AO2 SLP121 T02560122
14926KSTC STC20000622165509906/22/00 16:55:31  5-MIN KSTC 222255Z AUTO 30007KT 10SM CLR 26/12 A2988 1070 43 2600 290/07 RMK AO2
14926KSTC STC20000622170009906/22/00 17:00:31  5-MIN KSTC 222300Z AUTO 29008KT 10SM CLR 26/12 A2988 1070 43 2600 290/08 RMK AO2
14926KSTC STC20000622170509906/22/00 17:05:31  5-MIN KSTC 222305Z AUTO VRB05KT 10SM CLR 26/12 A2988 1070 43 2600 VRB/05 RMK AO2
14926KSTC STC20000622171009906/22/00 17:10:31  5-MIN KSTC 222310Z AUTO 31007KT 10SM CLR 26/12 A2988 1070 43 2600 310/07 RMK AO2
14926KSTC STC20000622171509906/22/00 17:15:31  5-MIN KSTC 222315Z AUTO 29007KT 10SM CLR 26/13 A2988 1070 44 2600 280/07 RMK AO2
14926KSTC STC20000622172009906/22/00 17:20:31  5-MIN KSTC 222320Z AUTO 30004KT 10SM CLR 26/12 A2988 1070 43 2600 290/04 RMK AO2
14926KSTC STC20000622172509906/22/00 17:25:31  5-MIN KSTC 222325Z AUTO 29008KT 10SM CLR 26/12 A2988 1070 43 2600 290/08 RMK AO2
14926KSTC STC20000622173009906/22/00 17:30:31  5-MIN KSTC 222330Z AUTO 30008KT 10SM CLR 25/13 A2988 1070 46 2500 290/08 RMK AO2
14926KSTC STC20000622173509906/22/00 17:35:31  5-MIN KSTC 222335Z AUTO 32006KT 10SM CLR 26/13 A2988 1070 44 2600 310/06 RMK AO2
14926KSTC STC20000622174009906/22/00 17:40:31  5-MIN KSTC 222340Z AUTO 31008KT 10SM CLR 25/13 A2988 1070 46 2500 310/08 RMK AO2
14926KSTC STC20000622174509906/22/00 17:45:31  5-MIN KSTC 222345Z AUTO 31008KT 10SM CLR 25/12 A2988 1070 44 2500 300/08 RMK AO2
14926KSTC STC20000622175013406/22/00 17:50:31  5-MIN KSTC 222350Z AUTO 30007KT 10SM CLR 25/13 A2988 1070 46 2500 300/07 RMK AO2 SLP121 T02500128 10261 20228 50002
14926KSTC STC20000622175509906/22/00 17:55:31  5-MIN KSTC 222355Z AUTO 31008KT 10SM CLR 25/13 A2988 1070 46 2500 310/08 RMK AO2
14926KSTC STC20000622180009906/22/00 18:00:31  5-MIN KSTC 230000Z AUTO 31007KT 10SM CLR 25/12 A2987 1070 44 2500 310/07 RMK AO2
14926KSTC STC20000622180509906/22/00 18:05:31  5-MIN KSTC 230005Z AUTO 32005KT 10SM CLR 25/13 A2987 1070 46 2500 320/05 RMK AO2
14926KSTC STC20000622181009906/22/00 18:10:31  5-MIN KSTC 230010Z AUTO 32005KT 10SM CLR 25/13 A2987 1070 46 2500 310/05 RMK AO2
14926KSTC STC20000622181509906/22/00 18:15:31  5-MIN KSTC 230015Z AUTO 30004KT 10SM CLR 25/12 A2987 1070 44 2500 300/04 RMK AO2
14926KSTC STC20000622182009906/22/00 18:20:31  5-MIN KSTC 230020Z AUTO 29006KT 10SM CLR 25/13 A2987 1070 46 2500 290/06 RMK AO2
14926KSTC STC20000622182509906/22/00 18:25:31  5-MIN KSTC 230025Z AUTO 29005KT 10SM CLR 25/13 A2987 1070 46 2500 290/05 RMK AO2
14926KSTC STC20000622183009906/22/00 18:30:31  5-MIN KSTC 230030Z AUTO 27004KT 10SM CLR 25/13 A2987 1070 46 2500 270/04 RMK AO2
14926KSTC STC20000622183509906/22/00 18:35:31  5-MIN KSTC 230035Z AUTO 29004KT 10SM CLR 25/12 A2987 1080 44 2500 290/04 RMK AO2
14926KSTC STC20000622184009906/22/00 18:40:31  5-MIN KSTC 230040Z AUTO 32003KT 10SM CLR 24/13 A2987 1080 47 2500 320/03 RMK AO2
14926KSTC STC20000622184509906/22/00 18:45:31  5-MIN KSTC 230045Z AUTO 00000KT 10SM CLR 24/13 A2987 1080 47 2500 000/00 RMK AO2
14926KSTC STC20000622185011606/22/00 18:50:31  5-MIN KSTC 230050Z AUTO 30003KT 10SM CLR 24/13 A2987 1070 47 2400 300/03 RMK AO2 SLP119 T02440128
14926KSTC STC20000622185509906/22/00 18:55:31  5-MIN KSTC 230055Z AUTO 30004KT 10SM CLR 24/13 A2987 1070 49 2400 300/04 RMK AO2
14926KSTC STC20000622190009906/22/00 19:00:31  5-MIN KSTC 230100Z AUTO 31004KT 10SM CLR 24/13 A2987 1070 51 2400 310/04 RMK AO2
14926KSTC STC20000622190509906/22/00 19:05:31  5-MIN KSTC 230105Z AUTO 32003KT 10SM CLR 24/14 A2987 1070 53 2400 310/03 RMK AO2
14926KSTC STC20000622191009906/22/00 19:10:31  5-MIN KSTC 230110Z AUTO 00000KT 10SM CLR 24/13 A2987 1070 49 2500 000/00 RMK AO2
14926KSTC STC20000622191509906/22/00 19:15:31  5-MIN KSTC 230115Z AUTO 30003KT 10SM CLR 24/13 A2987 1070 51 2400 300/03 RMK AO2
14926KSTC STC20000622192009906/22/00 19:20:31  5-MIN KSTC 230120Z AUTO 00000KT 10SM CLR 24/14 A2987 1070 53 2400 000/00 RMK AO2
14926KSTC STC20000622192509906/22/00 19:25:31  5-MIN KSTC 230125Z AUTO 00000KT 10SM CLR 23/14 A2987 1070 55 2300 000/00 RMK AO2
14926KSTC STC20000622193009906/22/00 19:30:31  5-MIN KSTC 230130Z AUTO 00000KT 10SM CLR 23/14 A2988 1070 59 2300 000/00 RMK AO2
14926KSTC STC20000622193509906/22/00 19:35:31  5-MIN KSTC 230135Z AUTO 00000KT 10SM CLR 23/14 A2988 1060 59 2200 000/00 RMK AO2
14926KSTC STC20000622194009906/22/00 19:40:31  5-MIN KSTC 230140Z AUTO 30003KT 10SM CLR 22/14 A2988 1060 61 2200 300/03 RMK AO2
14926KSTC STC20000622194509906/22/00 19:45:31  5-MIN KSTC 230145Z AUTO 30003KT 10SM CLR 22/14 A2988 1070 63 2100 300/03 RMK AO2
14926KSTC STC20000622195011606/22/00 19:50:31  5-MIN KSTC 230150Z AUTO 00000KT 10SM CLR 21/14 A2988 1070 65 2100 000/00 RMK AO2 SLP122 T02110144
14926KSTC STC20000622195509906/22/00 19:55:31  5-MIN KSTC 230155Z AUTO 00000KT 10SM CLR 21/14 A2988 1070 65 2000 000/00 RMK AO2
14926KSTC STC20000622200009906/22/00 20:00:31  5-MIN KSTC 230200Z AUTO 00000KT 10SM CLR 20/14 A2988 1070 67 1900 000/00 RMK AO2
14926KSTC STC20000622200509906/22/00 20:05:31  5-MIN KSTC 230205Z AUTO 00000KT 10SM CLR 20/14 A2988 1060 70 1900 000/00 RMK AO2
14926KSTC STC20000622201009906/22/00 20:10:31  5-MIN KSTC 230210Z AUTO 00000KT 10SM CLR 19/15 A2988 1060 78 1800 000/00 RMK AO2
14926KSTC STC20000622201509906/22/00 20:15:31  5-MIN KSTC 230215Z AUTO 00000KT 10SM CLR 18/15 A2988 1070 83 1700 000/00 RMK AO2
14926KSTC STC20000622202009906/22/00 20:20:31  5-MIN KSTC 230220Z AUTO 00000KT 10SM CLR 18/16 A2987 1070 84 1700 000/00 RMK AO2
14926KSTC STC20000622202509906/22/00 20:25:31  5-MIN KSTC 230225Z AUTO 00000KT 10SM CLR 18/14 A2987 1070 78 1700 000/00 RMK AO2
14926KSTC STC20000622203009906/22/00 20:30:31  5-MIN KSTC 230230Z AUTO 00000KT 10SM CLR 18/14 A2987 1070 78 1700 000/00 RMK AO2
14926KSTC STC20000622203509906/22/00 20:35:31  5-MIN KSTC 230235Z AUTO 00000KT 10SM CLR 18/14 A2988 1070 81 1700 000/00 RMK AO2
14926KSTC STC20000622204009906/22/00 20:40:31  5-MIN KSTC 230240Z AUTO 00000KT 10SM CLR 17/14 A2988 1060 83 1600 000/00 RMK AO2
14926KSTC STC20000622204509906/22/00 20:45:31  5-MIN KSTC 230245Z AUTO 00000KT 10SM CLR 17/14 A2988 1070 83 1600 000/00 RMK AO2
14926KSTC STC20000622205012206/22/00 20:50:31  5-MIN KSTC 230250Z AUTO 00000KT 10SM CLR 17/15 A2988 1060 90 1500 000/00 RMK AO2 SLP125 T01670150 56001
14926KSTC STC20000622205509906/22/00 20:55:31  5-MIN KSTC 230255Z AUTO 00000KT 10SM CLR 17/15 A2988 1060 87 1600 000/00 RMK AO2
14926KSTC STC20000622210009906/22/00 21:00:31  5-MIN KSTC 230300Z AUTO 00000KT 10SM CLR 17/14 A2988 1060 83 1600 000/00 RMK AO2
14926KSTC STC20000622210509906/22/00 21:05:31  5-MIN KSTC 230305Z AUTO 00000KT 10SM CLR 17/14 A2989 1060 86 1500 000/00 RMK AO2
14926KSTC STC20000622211009906/22/00 21:10:31  5-MIN KSTC 230310Z AUTO 00000KT 10SM CLR 16/14 A2989 1060 86 1500 000/00 RMK AO2
14926KSTC STC20000622211509906/22/00 21:15:31  5-MIN KSTC 230315Z AUTO 00000KT 10SM CLR 17/14 A2989 1050 86 1500 000/00 RMK AO2
14926KSTC STC20000622212009906/22/00 21:20:31  5-MIN KSTC 230320Z AUTO 00000KT 10SM CLR 16/14 A2989 1050 90 1500 000/00 RMK AO2
14926KSTC STC20000622212509906/22/00 21:25:31  5-MIN KSTC 230325Z AUTO 00000KT 10SM CLR 17/14 A2990 1050 86 1500 000/00 RMK AO2
14926KSTC STC20000622213009906/22/00 21:30:31  5-MIN KSTC 230330Z AUTO 00000KT 10SM CLR 17/14 A2990 1050 86 1500 000/00 RMK AO2
14926KSTC STC20000622213509906/22/00 21:35:31  5-MIN KSTC 230335Z AUTO 00000KT 10SM CLR 17/14 A2990 1050 86 1500 000/00 RMK AO2
14926KSTC STC20000622214009906/22/00 21:40:31  5-MIN KSTC 230340Z AUTO 00000KT 10SM CLR 16/14 A2990 1050 90 1500 000/00 RMK AO2
14926KSTC STC20000622214509906/22/00 21:45:31  5-MIN KSTC 230345Z AUTO 00000KT 10SM CLR 16/14 A2989 1050 90 1500 000/00 RMK AO2
14926KSTC STC20000622215011606/22/00 21:50:31  5-MIN KSTC 230350Z AUTO 00000KT 10SM CLR 16/14 A2989 1050 86 1500 000/00 RMK AO2 SLP130 T01610139
14926KSTC STC20000622215509906/22/00 21:55:31  5-MIN KSTC 230355Z AUTO 00000KT 10SM CLR 16/14 A2989 1050 90 1400 000/00 RMK AO2
14926KSTC STC20000622220009906/22/00 22:00:31  5-MIN KSTC 230400Z AUTO 00000KT 10SM CLR 15/14 A2989 1050 93 1300 000/00 RMK AO2
14926KSTC STC20000622220509906/22/00 22:05:31  5-MIN KSTC 230405Z AUTO 00000KT 10SM CLR 16/14 A2989 1050 93 1400 000/00 RMK AO2
14926KSTC STC20000622221009906/22/00 22:10:31  5-MIN KSTC 230410Z AUTO 00000KT 10SM CLR 16/14 A2989 1050 90 1500 000/00 RMK AO2
14926KSTC STC20000622221509906/22/00 22:15:31  5-MIN KSTC 230415Z AUTO 00000KT 10SM CLR 15/14 A2989 1050 93 1300 000/00 RMK AO2
14926KSTC STC20000622222009906/22/00 22:20:31  5-MIN KSTC 230420Z AUTO 00000KT 10SM CLR 16/14 A2989 1050 90 1400 000/00 RMK AO2
14926KSTC STC20000622222509906/22/00 22:25:31  5-MIN KSTC 230425Z AUTO 00000KT 10SM CLR 16/14 A2989 1050 90 1400 000/00 RMK AO2
14926KSTC STC20000622223009906/22/00 22:30:31  5-MIN KSTC 230430Z AUTO 00000KT 10SM CLR 16/14 A2989 1060 90 1400 000/00 RMK AO2
14926KSTC STC20000622223509906/22/00 22:35:31  5-MIN KSTC 230435Z AUTO 00000KT 10SM CLR 15/14 A2989 1060 93 1300 000/00 RMK AO2
14926KSTC STC20000622224009906/22/00 22:40:31  5-MIN KSTC 230440Z AUTO 08004KT 10SM CLR 15/14 A2989 1060 93 1300 080/04 RMK AO2
14926KSTC STC20000622224509906/22/00 22:45:31  5-MIN KSTC 230445Z AUTO 07003KT 10SM CLR 15/14 A2989 1060 93 1300 060/03 RMK AO2
14926KSTC STC20000622225011606/22/00 22:50:31  5-MIN KSTC 230450Z AUTO 06004KT 10SM CLR 14/13 A2989 1060 96 1200 060/04 RMK AO2 SLP128 T01390133
14926KSTC STC20000622225509906/22/00 22:55:31  5-MIN KSTC 230455Z AUTO 11003KT 10SM CLR 15/14 A2989 1050 93 1300 110/03 RMK AO2
14926KSTC STC20000622230009906/22/00 23:00:31  5-MIN KSTC 230500Z AUTO 00000KT 10SM CLR 15/14 A2989 1060 93 1300 000/00 RMK AO2
14926KSTC STC20000622230509906/22/00 23:05:31  5-MIN KSTC 230505Z AUTO 00000KT 10SM CLR 15/14 A2989 1050 93 1300 000/00 RMK AO2
14926KSTC STC20000622231009906/22/00 23:10:31  5-MIN KSTC 230510Z AUTO 00000KT 10SM CLR 14/13 A2989 1050 93 1300 000/00 RMK AO2
14926KSTC STC20000622231509906/22/00 23:15:31  5-MIN KSTC 230515Z AUTO 00000KT 10SM CLR 14/13 A2989 1050 93 1300 000/00 RMK AO2
14926KSTC STC20000622232009906/22/00 23:20:31  5-MIN KSTC 230520Z AUTO 00000KT 10SM CLR 14/13 A2989 1050 93 1300 000/00 RMK AO2
14926KSTC STC20000622232509906/22/00 23:25:31  5-MIN KSTC 230525Z AUTO 00000KT 10SM CLR 15/13 A2990 1050 90 1300 000/00 RMK AO2
14926KSTC STC20000622233009906/22/00 23:30:31  5-MIN KSTC 230530Z AUTO 00000KT 10SM CLR 14/13 A2990 1050 93 1300 000/00 RMK AO2
14926KSTC STC20000622233509906/22/00 23:35:31  5-MIN KSTC 230535Z AUTO 00000KT 10SM CLR 14/13 A2990 1050 93 1200 000/00 RMK AO2
14926KSTC STC20000622234009906/22/00 23:40:31  5-MIN KSTC 230540Z AUTO 00000KT 10SM CLR 14/13 A2990 1040 96 1200 000/00 RMK AO2
14926KSTC STC20000622234509906/22/00 23:45:31  5-MIN KSTC 230545Z AUTO 00000KT 10SM CLR 14/13 A2990 1050 93 1300 000/00 RMK AO2
14926KSTC STC20000622235014406/22/00 23:50:31  5-MIN KSTC 230550Z AUTO 00000KT 10SM CLR 14/13 A2990 1050 96 1200 000/00 RMK AO2 SLP130 T01390133 10250 20139 402610139 53002
14926KSTC STC20000622235509906/22/00 23:55:31  5-MIN KSTC 230555Z AUTO 00000KT 10SM CLR 13/13 A2990 1050 96 1100 000/00 RMK AO2
14926KSTC STC20000623000009906/23/00 00:00:31  5-MIN KSTC 230600Z AUTO 00000KT 10SM CLR 14/13 A2990 1050 93 1200 000/00 RMK AO2
14926KSTC STC20000623000509906/23/00 00:05:31  5-MIN KSTC 230605Z AUTO 00000KT 10SM CLR 14/13 A2989 1050 93 1200 000/00 RMK AO2
14926KSTC STC20000623001009906/23/00 00:10:31  5-MIN KSTC 230610Z AUTO 00000KT 10SM CLR 13/12 A2989 1050 93 1100 000/00 RMK AO2
14926KSTC STC20000623001509906/23/00 00:15:31  5-MIN KSTC 230615Z AUTO 00000KT 10SM CLR 14/13 A2989 1050 93 1200 000/00 RMK AO2
14926KSTC STC20000623002009906/23/00 00:20:31  5-MIN KSTC 230620Z AUTO 00000KT 10SM CLR 14/13 A2989 1050 93 1200 000/00 RMK AO2
14926KSTC STC20000623002509906/23/00 00:25:31  5-MIN KSTC 230625Z AUTO 00000KT 10SM CLR 14/13 A2989 1060 96 1200 000/00 RMK AO2
14926KSTC STC20000623003009906/23/00 00:30:31  5-MIN KSTC 230630Z AUTO 00000KT 10SM CLR 14/13 A2989 1060 93 1300 000/00 RMK AO2
14926KSTC STC20000623003509906/23/00 00:35:31  5-MIN KSTC 230635Z AUTO 00000KT 10SM CLR 14/13 A2989 1060 93 1300 000/00 RMK AO2
14926KSTC STC20000623004009906/23/00 00:40:31  5-MIN KSTC 230640Z AUTO 00000KT 10SM CLR 14/13 A2989 1050 96 1200 000/00 RMK AO2
14926KSTC STC20000623004509906/23/00 00:45:31  5-MIN KSTC 230645Z AUTO 00000KT 10SM CLR 14/13 A2989 1060 93 1300 000/00 RMK AO2
14926KSTC STC20000623005011606/23/00 00:50:31  5-MIN KSTC 230650Z AUTO 00000KT 10SM CLR 14/13 A2989 1060 93 1200 000/00 RMK AO2 SLP127 T01390128
14926KSTC STC20000623005509906/23/00 00:55:31  5-MIN KSTC 230655Z AUTO 00000KT 10SM CLR 14/13 A2990 1050 93 1200 000/00 RMK AO2
14926KSTC STC20000623010009906/23/00 01:00:31  5-MIN KSTC 230700Z AUTO 00000KT 10SM CLR 13/12 A2989 1050 93 1100 000/00 RMK AO2
14926KSTC STC20000623010509906/23/00 01:05:31  5-MIN KSTC 230705Z AUTO 00000KT 10SM CLR 14/13 A2989 1060 93 1200 000/00 RMK AO2
14926KSTC STC20000623011009906/23/00 01:10:31  5-MIN KSTC 230710Z AUTO 00000KT 10SM CLR 14/13 A2988 1060 93 1200 000/00 RMK AO2
14926KSTC STC20000623011510606/23/00 01:15:31  5-MIN KSTC 230715Z AUTO 00000KT 10SM CLR 13/12 A2987 1070 93 1200 000/00 RMK AO2 PRESFR
14926KSTC STC20000623012010606/23/00 01:20:31  5-MIN KSTC 230720Z AUTO 12003KT 10SM CLR 13/12 A2987 1070 93 1200 120/03 RMK AO2 PRESFR
14926KSTC STC20000623012509906/23/00 01:25:31  5-MIN KSTC 230725Z AUTO 13003KT 10SM CLR 14/13 A2987 1080 93 1200 130/03 RMK AO2
14926KSTC STC20000623013009906/23/00 01:30:31  5-MIN KSTC 230730Z AUTO 14003KT 10SM CLR 14/13 A2987 1070 90 1300 140/03 RMK AO2
14926KSTC STC20000623013509906/23/00 01:35:31  5-MIN KSTC 230735Z AUTO 13003KT 10SM CLR 14/13 A2987 1080 93 1200 130/03 RMK AO2
14926KSTC STC20000623014009906/23/00 01:40:31  5-MIN KSTC 230740Z AUTO 14004KT 10SM CLR 13/12 A2987 1070 93 1200 140/04 RMK AO2
14926KSTC STC20000623014509906/23/00 01:45:31  5-MIN KSTC 230745Z AUTO 13004KT 10SM CLR 14/13 A2987 1070 93 1200 130/04 RMK AO2
14926KSTC STC20000623015011606/23/00 01:50:31  5-MIN KSTC 230750Z AUTO 00000KT 10SM CLR 14/13 A2987 1070 93 1300 000/00 RMK AO2 SLP121 T01440133
14926KSTC STC20000623015509906/23/00 01:55:31  5-MIN KSTC 230755Z AUTO 00000KT 10SM CLR 14/13 A2987 1070 93 1200 000/00 RMK AO2
14926KSTC STC20000623020009906/23/00 02:00:31  5-MIN KSTC 230800Z AUTO 00000KT 10SM CLR 14/13 A2987 1080 93 1300 000/00 RMK AO2
14926KSTC STC20000623020509906/23/00 02:05:31  5-MIN KSTC 230805Z AUTO 16003KT 10SM CLR 14/13 A2987 1070 93 1300 150/03 RMK AO2
14926KSTC STC20000623021009906/23/00 02:10:31  5-MIN KSTC 230810Z AUTO 16003KT 10SM CLR 14/13 A2987 1070 93 1300 160/03 RMK AO2
14926KSTC STC20000623021509906/23/00 02:15:31  5-MIN KSTC 230815Z AUTO 16005KT 10SM CLR 14/13 A2987 1080 93 1300 160/05 RMK AO2
14926KSTC STC20000623022009906/23/00 02:20:31  5-MIN KSTC 230820Z AUTO 16004KT 10SM CLR 14/13 A2987 1080 93 1300 160/04 RMK AO2
14926KSTC STC20000623022509906/23/00 02:25:31  5-MIN KSTC 230825Z AUTO 17003KT 10SM CLR 14/13 A2987 1070 93 1300 170/03 RMK AO2
14926KSTC STC20000623023009906/23/00 02:30:31  5-MIN KSTC 230830Z AUTO 17003KT 10SM CLR 14/13 A2987 1070 93 1300 170/03 RMK AO2
14926KSTC STC20000623023509906/23/00 02:35:31  5-MIN KSTC 230835Z AUTO 16003KT 10SM CLR 15/13 A2986 1080 90 1400 160/03 RMK AO2
14926KSTC STC20000623024009906/23/00 02:40:31  5-MIN KSTC 230840Z AUTO 15003KT 10SM CLR 16/13 A2986 1080 86 1400 150/03 RMK AO2
14926KSTC STC20000623024509906/23/00 02:45:31  5-MIN KSTC 230845Z AUTO 15003KT 10SM CLR 16/13 A2987 1080 86 1400 150/03 RMK AO2
14926KSTC STC20000623025012206/23/00 02:50:31  5-MIN KSTC 230850Z AUTO 15004KT 10SM CLR 16/13 A2987 1080 83 1500 150/04 RMK AO2 SLP118 T01610133 51005
14926KSTC STC20000623025509906/23/00 02:55:31  5-MIN KSTC 230855Z AUTO 15004KT 10SM CLR 16/13 A2986 1080 83 1500 150/04 RMK AO2
14926KSTC STC20000623030009906/23/00 03:00:31  5-MIN KSTC 230900Z AUTO 15004KT 10SM CLR 16/13 A2986 1080 83 1500 150/04 RMK AO2
14926KSTC STC20000623030509906/23/00 03:05:31  5-MIN KSTC 230905Z AUTO 14004KT 10SM CLR 16/13 A2986 1090 83 1500 140/04 RMK AO2
14926KSTC STC20000623031009906/23/00 03:10:31  5-MIN KSTC 230910Z AUTO 15004KT 10SM CLR 16/13 A2986 1090 83 1500 150/04 RMK AO2
14926KSTC STC20000623031509906/23/00 03:15:31  5-MIN KSTC 230915Z AUTO 16005KT 10SM CLR 16/13 A2986 1080 83 1500 160/05 RMK AO2
14926KSTC STC20000623032009906/23/00 03:20:31  5-MIN KSTC 230920Z AUTO 17005KT 10SM CLR 16/13 A2986 1080 83 1500 160/05 RMK AO2
14926KSTC STC20000623032509906/23/00 03:25:31  5-MIN KSTC 230925Z AUTO 15005KT 10SM CLR 16/13 A2986 1080 83 1500 150/05 RMK AO2
14926KSTC STC20000623033009906/23/00 03:30:31  5-MIN KSTC 230930Z AUTO 16004KT 10SM CLR 16/13 A2986 1080 83 1500 160/04 RMK AO2
14926KSTC STC20000623033509906/23/00 03:35:31  5-MIN KSTC 230935Z AUTO 16004KT 10SM CLR 17/13 A2986 1080 80 1600 160/04 RMK AO2
14926KSTC STC20000623034009906/23/00 03:40:31  5-MIN KSTC 230940Z AUTO 00000KT 10SM CLR 17/13 A2986 1080 80 1600 000/00 RMK AO2
14926KSTC STC20000623034509906/23/00 03:45:31  5-MIN KSTC 230945Z AUTO 17003KT 10SM CLR 17/13 A2986 1090 78 1600 170/03 RMK AO2
14926KSTC STC20000623035011606/23/00 03:50:31  5-MIN KSTC 230950Z AUTO 00000KT 10SM CLR 17/13 A2986 1080 78 1600 000/00 RMK AO2 SLP115 T01720133
14926KSTC STC20000623035510206/23/00 03:55:31  5-MIN KSTC 230955Z AUTO 00000KT 10SM FEW110 17/14 A2986 1090 83 1600 000/00 RMK AO2
14926KSTC STC20000623040010206/23/00 04:00:31  5-MIN KSTC 231000Z AUTO 17003KT 10SM SCT110 17/14 A2986 1080 83 1600 170/03 RMK AO2
14926KSTC STC20000623040511806/23/00 04:05:31  5-MIN KSTC 231005Z AUTO 19004KT 10SM -RA BKN110 17/14 A2987 1080 83 1600 190/04 RMK AO2 RAB05 P0000
14926KSTC STC20000623041011806/23/00 04:10:31  5-MIN KSTC 231010Z AUTO 20004KT 10SM -RA BKN100 17/14 A2987 1070 83 1600 200/04 RMK AO2 RAB05 P0000
14926KSTC STC20000623041512506/23/00 04:15:31  5-MIN KSTC 231015Z AUTO 24005KT 10SM -RA BKN100 17/14 A2989 1060 86 1500 240/05 RMK AO2 RAB05 PRESRR P0000
14926KSTC STC20000623042011806/23/00 04:20:31  5-MIN KSTC 231020Z AUTO 26006KT 10SM -RA OVC100 16/14 A2989 1050 86 1500 250/06 RMK AO2 RAB05 P0001
14926KSTC STC20000623042513206/23/00 04:25:31  5-MIN KSTC 231025Z AUTO 30008KT 10SM -RA BKN090 OVC110 16/14 A2990 1050 90 1500 300/08 RMK AO2 RAB05 PRESRR P0001
14926KSTC STC20000623043012506/23/00 04:30:31  5-MIN KSTC 231030Z AUTO 28005KT 10SM -RA BKN070 OVC110 16/14 A2990 1040 86 1500 270/05 RMK AO2 RAB05 P0002
14926KSTC STC20000623043513206/23/00 04:35:31  5-MIN KSTC 231035Z AUTO 28005KT 10SM -TSRA BKN065 OVC100 16/14 A2990 1040 86 1500 270/05 RMK AO2 TSB31RAB05 P0002
14926KSTC STC20000623044013206/23/00 04:40:31  5-MIN KSTC 231040Z AUTO 25003KT 10SM -TSRA BKN060 OVC100 16/14 A2990 1040 86 1500 250/03 RMK AO2 TSB31RAB05 P0002
14926KSTC STC20000623044513106/23/00 04:45:31  5-MIN KSTC 231045Z AUTO 00000KT 9SM -TSRA BKN050 OVC100 16/14 A2991 1040 90 1500 000/00 RMK AO2 TSB31RAB05 P0003
14926KSTC STC20000623045014906/23/00 04:50:31  5-MIN KSTC 231050Z AUTO 00000KT 9SM -RA BKN045 OVC110 16/14 A2991 1040 90 1500 000/00 RMK AO2 TSB31E46RAB05 SLP131 P0003 T01610144
14926KSTC STC20000623045512006/23/00 04:55:31  5-MIN KSTC 231055Z AUTO 00000KT 10SM -TSRA OVC046 16/14 A2990 1040 90 1500 000/00 RMK AO2 TSB54 P0001
14926KSTC STC20000623050012206/23/00 05:00:31  5-MIN KSTC 231100Z AUTO 30003KT 10SM -TSRA OVC055 16/14 A2991 1040 93 1400 290/03 RMK AO2 TSB1054 P0001
14926KSTC STC20000623050512206/23/00 05:05:31  5-MIN KSTC 231105Z AUTO 00000KT 10SM -TSRA OVC060 16/14 A2990 1040 93 1400 000/00 RMK AO2 TSB1054 P0001
14926KSTC STC20000623051012206/23/00 05:10:31  5-MIN KSTC 231110Z AUTO 33003KT 10SM -TSRA OVC055 16/14 A2990 1040 93 1400 330/03 RMK AO2 TSB1054 P0002
14926KSTC STC20000623051512206/23/00 05:15:31  5-MIN KSTC 231115Z AUTO 00000KT 10SM -TSRA OVC060 16/14 A2990 1040 90 1500 000/00 RMK AO2 TSB1054 P0002
14926KSTC STC20000623052012206/23/00 05:20:31  5-MIN KSTC 231120Z AUTO 00000KT 10SM -TSRA OVC070 16/14 A2990 1040 90 1500 000/00 RMK AO2 TSB1054 P0003
14926KSTC STC20000623052512206/23/00 05:25:31  5-MIN KSTC 231125Z AUTO 00000KT 10SM -TSRA OVC070 16/14 A2990 1040 90 1500 000/00 RMK AO2 TSB1054 P0003
14926KSTC STC20000623053012206/23/00 05:30:31  5-MIN KSTC 231130Z AUTO 00000KT 10SM -TSRA OVC060 16/14 A2990 1050 93 1400 000/00 RMK AO2 TSB1054 P0004
14926KSTC STC20000623053512106/23/00 05:35:31  5-MIN KSTC 231135Z AUTO 00000KT 9SM -TSRA OVC050 16/15 A2989 1050 93 1500 000/00 RMK AO2 TSB1054 P0005
14926KSTC STC20000623054012106/23/00 05:40:31  5-MIN KSTC 231140Z AUTO 07003KT 8SM -TSRA OVC048 16/14 A2988 1060 93 1400 070/03 RMK AO2 TSB1054 P0006
14926KSTC STC20000623054512106/23/00 05:45:31  5-MIN KSTC 231145Z AUTO 09003KT 7SM -TSRA OVC041 16/15 A2989 1060 96 1400 090/03 RMK AO2 TSB1054 P0007
14926KSTC STC20000623055016806/23/00 05:50:31  5-MIN KSTC 231150Z AUTO 00000KT 7SM -TSRA OVC036 16/15 A2989 1060 96 1400 000/00 RMK AO2 TSB1054 SLP124 P0008 60011 70011 T01560150 10172 20133 56010
14926KSTC STC20000623055511606/23/00 05:55:31  5-MIN KSTC 231155Z AUTO 15003KT 6SM -TSRA BR OVC034 16/15 A2989 1060 96 1400 150/03 RMK AO2 P0000
14926KSTC STC20000623060011606/23/00 06:00:31  5-MIN KSTC 231200Z AUTO 14006KT 6SM -TSRA BR OVC032 16/15 A2988 1070 96 1400 140/06 RMK AO2 P0001
14926KSTC STC20000623060512306/23/00 06:05:31  5-MIN KSTC 231205Z AUTO 14007KT 6SM -TSRA BR OVC032 16/15 A2986 1080 96 1400 130/07 RMK AO2 PRESFR P0003
14926KSTC STC20000623061012206/23/00 06:10:31  5-MIN KSTC 231210Z AUTO 13006KT 6SM TSRA BR OVC032 16/15 A2986 1090 96 1400 130/06 RMK AO2 PRESFR P0005
14926KSTC STC20000623061512206/23/00 06:15:31  5-MIN KSTC 231215Z AUTO 13007KT 5SM TSRA BR OVC032 16/14 A2984 1100 90 1500 130/07 RMK AO2 PRESFR P0007
14926KSTC STC20000623062012206/23/00 06:20:31  5-MIN KSTC 231220Z AUTO 15010KT 4SM TSRA BR OVC030 16/14 A2984 1100 90 1500 150/10 RMK AO2 PRESFR P0009
14926KSTC STC20000623062512306/23/00 06:25:31  5-MIN KSTC 231225Z AUTO 15017KT 5SM -TSRA BR OVC030 16/14 A2982 1120 93 1500 150/17 RMK AO2 PRESFR P0010
14926KSTC STC20000623063012206/23/00 06:30:31  5-MIN KSTC 231230Z AUTO 16017G23KT 6SM -TSRA BR OVC034 16/14 A2982 1120 90 1600 160/17G23 RMK AO2 P0011
14926KSTC STC20000623063512906/23/00 06:35:31  5-MIN KSTC 231235Z AUTO 15019G23KT 6SM -TSRA BR OVC032 16/14 A2978 1160 90 1600 150/19G23 RMK AO2 PRESFR P0012
14926KSTC STC20000623064012306/23/00 06:40:31  5-MIN KSTC 231240Z AUTO 15018KT 6SM -TSRA BR OVC032 16/14 A2976 1180 90 1600 150/18 RMK AO2 PRESFR P0014
14926KSTC STC20000623064513206/23/00 06:45:31  5-MIN KSTC 231245Z AUTO 14017G23KT 6SM VCTS -RA BR OVC034 16/14 A2972 1210 90 1700 130/17G23 RMK AO2 PRESFR P0014
14926KSTC STC20000623065016406/23/00 06:50:31  5-MIN KSTC 231250Z AUTO 14018G26KT 9SM VCTS -RA BKN034 BKN120 17/14 A2972 1210 83 1700 140/18G26 RMK AO2 PK WND 14026/1248 SLP068 P0015 T01670139
14926KSTC STC20000623065513106/23/00 06:55:31  5-MIN KSTC 231255Z AUTO 16016G26KT 10SM -RA BKN034 BKN120 17/14 A2973 1200 86 1700 160/16G26 RMK AO2 TSE55 P0000
14926KSTC STC20000623070013606/23/00 07:00:31  5-MIN KSTC 231300Z AUTO 16015KT 10SM TS SCT037 BKN120 17/14 A2974 1200 86 1700 160/15 RMK AO2 TSE1255B00RAE1259 P0000
14926KSTC STC20000623070514206/23/00 07:05:31  5-MIN KSTC 231305Z AUTO 17019G23KT 10SM TS BKN042 BKN055 17/14 A2974 1190 83 1800 160/19G23 RMK AO2 TSE1255B00RAE1259 P0000
14926KSTC STC20000623071014506/23/00 07:10:31  5-MIN KSTC 231310Z AUTO 16018G23KT 10SM -TSRA BKN044 BKN055 BKN090 17/14 A2974 1190 83 1800 160/18G23 RMK AO2 TSE1255B00 P0000
14926KSTC STC20000623071514506/23/00 07:15:31  5-MIN KSTC 231315Z AUTO 17017G23KT 10SM -TSRA BKN044 BKN055 BKN120 17/14 A2975 1180 83 1800 170/17G23 RMK AO2 TSE1255B00 P0000
14926KSTC STC20000623072014506/23/00 07:20:31  5-MIN KSTC 231320Z AUTO 17016G23KT 10SM -TSRA BKN038 BKN055 BKN120 17/14 A2975 1180 83 1800 160/16G23 RMK AO2 TSE1255B00 P0000
14926KSTC STC20000623072513806/23/00 07:25:31  5-MIN KSTC 231325Z AUTO 17016KT 9SM -TSRA BKN034 BKN042 BKN055 17/14 A2975 1180 83 1800 160/16 RMK AO2 TSE1255B00 P0002
14926KSTC STC20000623073014006/23/00 07:30:31  5-MIN KSTC 231330Z AUTO 17013KT 10SM -RA BKN028 BKN043 BKN055 17/14 A2975 1180 83 1800 170/13 RMK AO2 TSE1255B00E30 P0002
14926KSTC STC20000623073513306/23/00 07:35:31  5-MIN KSTC 231335Z AUTO 17012KT 10SM -RA BKN028 17/14 A2977 1160 83 1700 170/12 RMK AO2 TSE1255B00E30 PRESRR P0002
14926KSTC STC20000623074013406/23/00 07:40:31  5-MIN KSTC 231340Z AUTO 19008KT 10SM SCT030 17/14 A2978 1150 83 1700 190/08 RMK AO2 TSE1255B00E30RAE39 PRESRR P0002
14926KSTC STC20000623074514106/23/00 07:45:31  5-MIN KSTC 231345Z AUTO 16006KT 10SM SCT032 SCT040 BKN060 17/14 A2978 1150 83 1700 160/06 RMK AO2 TSE1255B00E30RAE39 P0002
14926KSTC STC20000623075015806/23/00 07:50:31  5-MIN KSTC 231350Z AUTO 15005KT 10SM FEW032 SCT040 SCT060 17/14 A2978 1160 80 1700 150/05 RMK AO2 TSE1255B00E30RAE39 SLP089 P0002 T01720139
14926KSTC STC20000623075510206/23/00 07:55:31  5-MIN KSTC 231355Z AUTO 18004KT 10SM FEW047 18/14 A2979 1150 81 1800 180/04 RMK AO2
14926KSTC STC20000623080010206/23/00 08:00:31  5-MIN KSTC 231400Z AUTO 19005KT 10SM FEW075 18/14 A2979 1140 78 1800 180/05 RMK AO2
14926KSTC STC20000623080510206/23/00 08:05:31  5-MIN KSTC 231405Z AUTO 17005KT 10SM FEW070 18/14 A2979 1150 81 1800 160/05 RMK AO2
14926KSTC STC20000623081010206/23/00 08:10:31  5-MIN KSTC 231410Z AUTO 15005KT 10SM FEW065 18/14 A2979 1150 81 1800 150/05 RMK AO2
14926KSTC STC20000623081510206/23/00 08:15:31  5-MIN KSTC 231415Z AUTO 13004KT 10SM FEW110 17/15 A2979 1150 87 1700 130/04 RMK AO2
14926KSTC STC20000623082010206/23/00 08:20:31  5-MIN KSTC 231420Z AUTO 13003KT 10SM SCT120 17/15 A2979 1150 87 1700 130/03 RMK AO2
14926KSTC STC20000623082510206/23/00 08:25:31  5-MIN KSTC 231425Z AUTO 14003KT 10SM FEW120 18/15 A2979 1150 83 1800 130/03 RMK AO2
14926KSTC STC20000623083010206/23/00 08:30:31  5-MIN KSTC 231430Z AUTO 14003KT 10SM FEW120 18/15 A2979 1150 83 1800 130/03 RMK AO2
14926KSTC STC20000623083510206/23/00 08:35:31  5-MIN KSTC 231435Z AUTO 17004KT 10SM FEW120 18/15 A2979 1140 83 1800 160/04 RMK AO2
14926KSTC STC20000623084010206/23/00 08:40:31  5-MIN KSTC 231440Z AUTO 18004KT 10SM SCT120 18/15 A2979 1140 81 1800 180/04 RMK AO2
14926KSTC STC20000623084510206/23/00 08:45:31  5-MIN KSTC 231445Z AUTO 16004KT 10SM FEW120 18/14 A2980 1140 78 1800 160/04 RMK AO2
14926KSTC STC20000623085013106/23/00 08:50:31  5-MIN KSTC 231450Z AUTO 16004KT 10SM FEW120 18/15 A2980 1140 81 1800 160/04 RMK AO2 SLP098 60017 T01830150 50006
14926KSTC STC20000623085510206/23/00 08:55:31  5-MIN KSTC 231455Z AUTO 17003KT 10SM SCT110 19/15 A2980 1140 78 1900 170/03 RMK AO2
14926KSTC STC20000623090010206/23/00 09:00:31  5-MIN KSTC 231500Z AUTO 16005KT 10SM SCT110 19/15 A2981 1130 78 1900 160/05 RMK AO2
14926KSTC STC20000623090510206/23/00 09:05:31  5-MIN KSTC 231505Z AUTO VRB05KT 10SM FEW110 19/15 A2981 1130 75 1900 VRB/05 RMK AO2
14926KSTC STC20000623091010206/23/00 09:10:31  5-MIN KSTC 231510Z AUTO 17005KT 10SM FEW110 20/14 A2981 1130 70 2000 160/05 RMK AO2
14926KSTC STC20000623091510206/23/00 09:15:31  5-MIN KSTC 231515Z AUTO 18004KT 10SM FEW110 20/15 A2981 1130 72 2000 180/04 RMK AO2
14926KSTC STC20000623092010206/23/00 09:20:31  5-MIN KSTC 231520Z AUTO VRB04KT 10SM FEW110 21/15 A2981 1130 70 2100 VRB/04 RMK AO2
14926KSTC STC20000623092509906/23/00 09:25:31  5-MIN KSTC 231525Z AUTO 18005KT 10SM CLR 21/15 A2981 1130 70 2100 180/05 RMK AO2
14926KSTC STC20000623093009906/23/00 09:30:31  5-MIN KSTC 231530Z AUTO 17006KT 10SM CLR 21/16 A2981 1130 73 2100 170/06 RMK AO2
14926KSTC STC20000623093509906/23/00 09:35:31  5-MIN KSTC 231535Z AUTO 17007KT 10SM CLR 21/16 A2981 1130 70 2100 160/07 RMK AO2
14926KSTC STC20000623094009906/23/00 09:40:31  5-MIN KSTC 231540Z AUTO 18009KT 10SM CLR 22/15 A2981 1130 65 2200 180/09 RMK AO2
14926KSTC STC20000623094509906/23/00 09:45:31  5-MIN KSTC 231545Z AUTO 17006KT 10SM CLR 22/15 A2981 1130 65 2200 170/06 RMK AO2
14926KSTC STC20000623095011606/23/00 09:50:31  5-MIN KSTC 231550Z AUTO 18007KT 10SM CLR 23/16 A2981 1130 63 2300 170/07 RMK AO2 SLP098 T02280156
14926KSTC STC20000623095509906/23/00 09:55:31  5-MIN KSTC 231555Z AUTO 19007KT 10SM CLR 22/15 A2981 1130 63 2300 190/07 RMK AO2
14926KSTC STC20000623100010506/23/00 10:00:31  5-MIN KSTC 231600Z AUTO 17011G15KT 10SM CLR 23/16 A2981 1130 63 2300 160/11G15 RMK AO2
14926KSTC STC20000623100510506/23/00 10:05:31  5-MIN KSTC 231605Z AUTO 19009G15KT 10SM CLR 23/15 A2981 1130 61 2300 180/09G15 RMK AO2
14926KSTC STC20000623101009906/23/00 10:10:31  5-MIN KSTC 231610Z AUTO 19008KT 10SM CLR 23/15 A2981 1130 61 2300 190/08 RMK AO2
14926KSTC STC20000623101509906/23/00 10:15:31  5-MIN KSTC 231615Z AUTO 21008KT 10SM CLR 23/16 A2981 1130 63 2300 210/08 RMK AO2
14926KSTC STC20000623102009906/23/00 10:20:31  5-MIN KSTC 231620Z AUTO 20008KT 10SM CLR 23/16 A2981 1130 63 2300 190/08 RMK AO2
14926KSTC STC20000623102509906/23/00 10:25:31  5-MIN KSTC 231625Z AUTO 20008KT 10SM CLR 23/16 A2981 1130 61 2400 200/08 RMK AO2
14926KSTC STC20000623103009906/23/00 10:30:31  5-MIN KSTC 231630Z AUTO 20010KT 10SM CLR 24/16 A2981 1130 59 2500 200/10 RMK AO2
14926KSTC STC20000623103509906/23/00 10:35:31  5-MIN KSTC 231635Z AUTO 20010KT 10SM CLR 24/16 A2981 1130 59 2500 200/10 RMK AO2
14926KSTC STC20000623104009906/23/00 10:40:31  5-MIN KSTC 231640Z AUTO 19009KT 10SM CLR 24/16 A2980 1140 59 2500 180/09 RMK AO2
14926KSTC STC20000623104509906/23/00 10:45:31  5-MIN KSTC 231645Z AUTO 20009KT 10SM CLR 24/16 A2980 1140 61 2500 200/09 RMK AO2
14926KSTC STC20000623105011606/23/00 10:50:31  5-MIN KSTC 231650Z AUTO 20012KT 10SM CLR 24/16 A2980 1130 57 2500 200/12 RMK AO2 SLP097 T02440156
14926KSTC STC20000623105509906/23/00 10:55:31  5-MIN KSTC 231655Z AUTO 21011KT 10SM CLR 25/16 A2980 1130 57 2600 200/11 RMK AO2
14926KSTC STC20000623110009906/23/00 11:00:31  5-MIN KSTC 231700Z AUTO 20012KT 10SM CLR 25/16 A2980 1130 57 2600 190/12 RMK AO2
14926KSTC STC20000623110509906/23/00 11:05:31  5-MIN KSTC 231705Z AUTO 19011KT 10SM CLR 25/16 A2980 1130 57 2600 190/11 RMK AO2
14926KSTC STC20000623111009906/23/00 11:10:31  5-MIN KSTC 231710Z AUTO 18011KT 10SM CLR 26/16 A2980 1140 55 2700 180/11 RMK AO2
14926KSTC STC20000623111509906/23/00 11:15:31  5-MIN KSTC 231715Z AUTO 19012KT 10SM CLR 26/16 A2980 1140 53 2700 180/12 RMK AO2
14926KSTC STC20000623112010206/23/00 11:20:31  5-MIN KSTC 231720Z AUTO 18010KT 10SM FEW045 26/16 A2980 1140 55 2700 180/10 RMK AO2
14926KSTC STC20000623112510206/23/00 11:25:31  5-MIN KSTC 231725Z AUTO 18012KT 10SM FEW045 25/16 A2980 1140 55 2600 180/12 RMK AO2
14926KSTC STC20000623113010206/23/00 11:30:31  5-MIN KSTC 231730Z AUTO 18010KT 10SM FEW045 25/16 A2980 1140 55 2600 170/10 RMK AO2
14926KSTC STC20000623113510206/23/00 11:35:31  5-MIN KSTC 231735Z AUTO 21008KT 10SM FEW045 25/16 A2980 1140 55 2600 200/08 RMK AO2
14926KSTC STC20000623114010206/23/00 11:40:31  5-MIN KSTC 231740Z AUTO 19008KT 10SM FEW045 26/16 A2980 1140 55 2700 180/08 RMK AO2
14926KSTC STC20000623114510206/23/00 11:45:31  5-MIN KSTC 231745Z AUTO 19006KT 10SM SCT047 26/16 A2980 1140 55 2700 190/06 RMK AO2
14926KSTC STC20000623115014306/23/00 11:50:31  5-MIN KSTC 231750Z AUTO 19011KT 10SM FEW049 26/16 A2980 1140 55 2700 190/11 RMK AO2 SLP094 60017 T02560161 10256 20156 55028
14926KSTC STC20000623115510206/23/00 11:55:31  5-MIN KSTC 231755Z AUTO 20010KT 10SM FEW049 26/16 A2980 1140 55 2700 190/10 RMK AO2
14926KSTC STC20000623120010206/23/00 12:00:31  5-MIN KSTC 231800Z AUTO 20008KT 10SM FEW047 26/16 A2979 1140 55 2700 190/08 RMK AO2
14926KSTC STC20000623120510206/23/00 12:05:31  5-MIN KSTC 231805Z AUTO 20010KT 10SM FEW047 26/17 A2979 1150 57 2700 200/10 RMK AO2
14926KSTC STC20000623121010206/23/00 12:10:31  5-MIN KSTC 231810Z AUTO 17008KT 10SM FEW047 26/17 A2979 1150 57 2700 170/08 RMK AO2
14926KSTC STC20000623121510206/23/00 12:15:31  5-MIN KSTC 231815Z AUTO 20009KT 10SM FEW047 26/17 A2979 1150 57 2700 200/09 RMK AO2
14926KSTC STC20000623122010206/23/00 12:20:31  5-MIN KSTC 231820Z AUTO 21010KT 10SM FEW047 26/17 A2979 1150 57 2700 200/10 RMK AO2
14926KSTC STC20000623122510206/23/00 12:25:31  5-MIN KSTC 231825Z AUTO 19008KT 10SM FEW047 26/17 A2979 1150 59 2700 190/08 RMK AO2
14926KSTC STC20000623123010206/23/00 12:30:31  5-MIN KSTC 231830Z AUTO 20009KT 10SM FEW047 26/17 A2979 1150 59 2700 200/09 RMK AO2
14926KSTC STC20000623123509906/23/00 12:35:31  5-MIN KSTC 231835Z AUTO 19009KT 10SM CLR 26/18 A2979 1150 59 2700 190/09 RMK AO2
14926KSTC STC20000623124009906/23/00 12:40:31  5-MIN KSTC 231840Z AUTO 20012KT 10SM CLR 26/18 A2979 1150 59 2700 200/12 RMK AO2
14926KSTC STC20000623124509906/23/00 12:45:31  5-MIN KSTC 231845Z AUTO 21009KT 10SM CLR 25/17 A2979 1150 61 2600 210/09 RMK AO2
14926KSTC STC20000623125011606/23/00 12:50:31  5-MIN KSTC 231850Z AUTO 21012KT 10SM CLR 26/18 A2979 1150 61 2700 210/12 RMK AO2 SLP091 T02560178
14926KSTC STC20000623125509906/23/00 12:55:31  5-MIN KSTC 231855Z AUTO 21011KT 10SM CLR 26/18 A2979 1150 61 2700 210/11 RMK AO2
14926KSTC STC20000623130009906/23/00 13:00:31  5-MIN KSTC 231900Z AUTO 20007KT 10SM CLR 26/17 A2978 1160 59 2700 200/07 RMK AO2
14926KSTC STC20000623130509906/23/00 13:05:31  5-MIN KSTC 231905Z AUTO 24007KT 10SM CLR 26/18 A2978 1160 59 2700 240/07 RMK AO2
14926KSTC STC20000623131010206/23/00 13:10:31  5-MIN KSTC 231910Z AUTO 21006KT 10SM FEW035 26/18 A2978 1160 61 2700 210/06 RMK AO2
14926KSTC STC20000623131510206/23/00 13:15:31  5-MIN KSTC 231915Z AUTO 24006KT 10SM SCT035 26/18 A2978 1160 61 2700 230/06 RMK AO2
14926KSTC STC20000623132010206/23/00 13:20:31  5-MIN KSTC 231920Z AUTO 23006KT 10SM SCT035 26/18 A2978 1160 61 2700 220/06 RMK AO2
14926KSTC STC20000623132510206/23/00 13:25:31  5-MIN KSTC 231925Z AUTO 24009KT 10SM BKN035 26/18 A2978 1160 64 2700 230/09 RMK AO2
14926KSTC STC20000623133010206/23/00 13:30:31  5-MIN KSTC 231930Z AUTO 23010KT 10SM BKN035 26/18 A2978 1160 64 2700 230/10 RMK AO2
14926KSTC STC20000623133510206/23/00 13:35:31  5-MIN KSTC 231935Z AUTO 24005KT 10SM OVC037 26/18 A2977 1160 61 2700 230/05 RMK AO2
14926KSTC STC20000623134010206/23/00 13:40:31  5-MIN KSTC 231940Z AUTO 25007KT 10SM BKN037 27/18 A2977 1160 60 2800 250/07 RMK AO2
14926KSTC STC20000623134510206/23/00 13:45:31  5-MIN KSTC 231945Z AUTO 24007KT 10SM BKN037 26/18 A2977 1160 62 2700 240/07 RMK AO2
14926KSTC STC20000623135012606/23/00 13:50:31  5-MIN KSTC 231950Z AUTO 24006KT 10SM SCT035 BKN044 26/19 A2977 1170 64 2700 240/06 RMK AO2 SLP085 T02610189
14926KSTC STC20000623135510906/23/00 13:55:31  5-MIN KSTC 231955Z AUTO VRB04KT 10SM SCT035 BKN044 26/19 A2977 1170 64 2800 VRB/04 RMK AO2
14926KSTC STC20000623140010906/23/00 14:00:31  5-MIN KSTC 232000Z AUTO 25008KT 10SM SCT035 BKN044 27/19 A2976 1170 62 2800 250/08 RMK AO2
14926KSTC STC20000623140510906/23/00 14:05:31  5-MIN KSTC 232005Z AUTO VRB03KT 10SM FEW035 SCT044 27/18 A2976 1170 60 2800 VRB/03 RMK AO2
14926KSTC STC20000623141010906/23/00 14:10:31  5-MIN KSTC 232010Z AUTO 21005KT 10SM FEW035 SCT044 26/19 A2976 1170 64 2800 200/05 RMK AO2
14926KSTC STC20000623141510906/23/00 14:15:31  5-MIN KSTC 232015Z AUTO 21007KT 10SM SCT035 BKN044 27/19 A2976 1170 62 2800 210/07 RMK AO2
14926KSTC STC20000623142010906/23/00 14:20:31  5-MIN KSTC 232020Z AUTO VRB05KT 10SM SCT035 BKN046 26/19 A2976 1170 64 2800 VRB/05 RMK AO2
14926KSTC STC20000623142510906/23/00 14:25:31  5-MIN KSTC 232025Z AUTO 22006KT 10SM SCT037 BKN046 26/18 A2976 1170 62 2800 210/06 RMK AO2
14926KSTC STC20000623143010906/23/00 14:30:31  5-MIN KSTC 232030Z AUTO 23005KT 10SM BKN037 BKN048 26/18 A2976 1180 62 2800 230/05 RMK AO2
14926KSTC STC20000623143510906/23/00 14:35:31  5-MIN KSTC 232035Z AUTO VRB03KT 10SM SCT037 BKN050 27/19 A2976 1180 62 2800 VRB/03 RMK AO2
14926KSTC STC20000623144010906/23/00 14:40:31  5-MIN KSTC 232040Z AUTO 00000KT 10SM SCT035 BKN048 26/18 A2976 1180 62 2800 000/00 RMK AO2
14926KSTC STC20000623144511606/23/00 14:45:31  5-MIN KSTC 232045Z AUTO 14004KT 10SM SCT035 BKN047 BKN055 27/19 A2976 1180 62 2800 140/04 RMK AO2
14926KSTC STC20000623145013206/23/00 14:50:31  5-MIN KSTC 232050Z AUTO 16004KT 10SM SCT035 BKN050 27/19 A2976 1180 62 2800 160/04 RMK AO2 SLP080 T02670189 58002
14926KSTC STC20000623145510906/23/00 14:55:31  5-MIN KSTC 232055Z AUTO VRB03KT 10SM FEW035 SCT050 27/19 A2975 1180 62 2900 VRB/03 RMK AO2
14926KSTC STC20000623150010906/23/00 15:00:31  5-MIN KSTC 232100Z AUTO VRB03KT 10SM SCT033 SCT050 27/19 A2976 1180 62 2800 VRB/03 RMK AO2
14926KSTC STC20000623150510206/23/00 15:05:31  5-MIN KSTC 232105Z AUTO 26003KT 10SM SCT033 27/19 A2976 1180 62 2800 250/03 RMK AO2
14926KSTC STC20000623151010206/23/00 15:10:31  5-MIN KSTC 232110Z AUTO VRB03KT 10SM FEW033 27/19 A2975 1180 62 2800 VRB/03 RMK AO2
14926KSTC STC20000623151510206/23/00 15:15:31  5-MIN KSTC 232115Z AUTO 23005KT 10SM FEW033 27/19 A2975 1180 60 2900 230/05 RMK AO2
14926KSTC STC20000623152010206/23/00 15:20:31  5-MIN KSTC 232120Z AUTO 19003KT 10SM FEW033 27/19 A2975 1180 62 2800 190/03 RMK AO2
14926KSTC STC20000623152510206/23/00 15:25:31  5-MIN KSTC 232125Z AUTO 25005KT 10SM FEW033 27/19 A2975 1180 60 2900 250/05 RMK AO2
14926KSTC STC20000623153009906/23/00 15:30:31  5-MIN KSTC 232130Z AUTO 26005KT 10SM CLR 27/19 A2975 1180 60 2900 250/05 RMK AO2
14926KSTC STC20000623153510206/23/00 15:35:31  5-MIN KSTC 232135Z AUTO VRB03KT 10SM FEW047 27/18 A2975 1180 60 2800 VRB/03 RMK AO2
14926KSTC STC20000623154010206/23/00 15:40:31  5-MIN KSTC 232140Z AUTO 35003KT 10SM FEW040 28/19 A2975 1180 58 3000 340/03 RMK AO2
14926KSTC STC20000623154510906/23/00 15:45:31  5-MIN KSTC 232145Z AUTO 00000KT 10SM SCT037 SCT046 28/19 A2975 1180 58 3000 000/00 RMK AO2
14926KSTC STC20000623155011906/23/00 15:50:31  5-MIN KSTC 232150Z AUTO 00000KT 10SM SCT039 27/19 A2975 1180 60 2900 000/00 RMK AO2 SLP078 T02720189
14926KSTC STC20000623155510206/23/00 15:55:31  5-MIN KSTC 232155Z AUTO 01003KT 10SM BKN039 27/19 A2975 1180 60 2900 010/03 RMK AO2
14926KSTC STC20000623160010906/23/00 16:00:31  5-MIN KSTC 232200Z AUTO 35003KT 10SM BKN036 BKN047 27/19 A2975 1180 62 2800 340/03 RMK AO2
14926KSTC STC20000623160510906/23/00 16:05:31  5-MIN KSTC 232205Z AUTO 00000KT 10SM BKN038 OVC048 27/19 A2976 1180 62 2800 000/00 RMK AO2
14926KSTC STC20000623161010906/23/00 16:10:31  5-MIN KSTC 232210Z AUTO 00000KT 10SM BKN038 OVC048 27/19 A2976 1180 64 2800 000/00 RMK AO2
14926KSTC STC20000623161510906/23/00 16:15:31  5-MIN KSTC 232215Z AUTO 04004KT 10SM BKN038 OVC047 27/19 A2976 1180 62 2900 040/04 RMK AO2
14926KSTC STC20000623162010906/23/00 16:20:31  5-MIN KSTC 232220Z AUTO 04003KT 10SM BKN038 BKN047 27/19 A2976 1180 62 2800 040/03 RMK AO2
14926KSTC STC20000623162510906/23/00 16:25:31  5-MIN KSTC 232225Z AUTO 00000KT 10SM SCT037 BKN047 27/18 A2976 1180 58 2900 000/00 RMK AO2
14926KSTC STC20000623163010906/23/00 16:30:31  5-MIN KSTC 232230Z AUTO 00000KT 10SM SCT039 BKN047 27/18 A2976 1180 58 2900 000/00 RMK AO2
14926KSTC STC20000623163510906/23/00 16:35:31  5-MIN KSTC 232235Z AUTO 00000KT 10SM BKN039 BKN047 27/19 A2976 1180 60 2900 000/00 RMK AO2
14926KSTC STC20000623164010906/23/00 16:40:31  5-MIN KSTC 232240Z AUTO 00000KT 10SM BKN039 BKN047 27/19 A2976 1180 60 2900 000/00 RMK AO2
14926KSTC STC20000623164510906/23/00 16:45:31  5-MIN KSTC 232245Z AUTO 00000KT 10SM SCT037 BKN047 27/19 A2976 1180 62 2800 000/00 RMK AO2
14926KSTC STC20000623165012606/23/00 16:50:31  5-MIN KSTC 232250Z AUTO 00000KT 10SM SCT040 BKN048 27/19 A2976 1180 62 2800 000/00 RMK AO2 SLP080 T02670189
14926KSTC STC20000623165510906/23/00 16:55:31  5-MIN KSTC 232255Z AUTO 00000KT 10SM BKN040 BKN048 27/19 A2976 1180 64 2800 000/00 RMK AO2
14926KSTC STC20000623170010906/23/00 17:00:31  5-MIN KSTC 232300Z AUTO 00000KT 10SM BKN040 BKN048 27/19 A2975 1180 62 2900 000/00 RMK AO2
14926KSTC STC20000623170510906/23/00 17:05:31  5-MIN KSTC 232305Z AUTO 00000KT 10SM BKN042 BKN050 27/19 A2975 1180 60 2900 000/00 RMK AO2
14926KSTC STC20000623171010906/23/00 17:10:31  5-MIN KSTC 232310Z AUTO 00000KT 10SM BKN042 BKN050 27/19 A2975 1180 60 2900 000/00 RMK AO2
14926KSTC STC20000623171510906/23/00 17:15:31  5-MIN KSTC 232315Z AUTO 00000KT 10SM BKN042 BKN050 27/19 A2976 1180 60 2900 000/00 RMK AO2
14926KSTC STC20000623172010906/23/00 17:20:31  5-MIN KSTC 232320Z AUTO 00000KT 10SM BKN042 OVC050 27/19 A2976 1180 60 2900 000/00 RMK AO2
14926KSTC STC20000623172510906/23/00 17:25:31  5-MIN KSTC 232325Z AUTO 07003KT 10SM BKN042 OVC049 27/19 A2976 1180 60 2900 070/03 RMK AO2
14926KSTC STC20000623173010906/23/00 17:30:31  5-MIN KSTC 232330Z AUTO 00000KT 10SM BKN042 OVC049 27/19 A2976 1180 62 2900 000/00 RMK AO2
14926KSTC STC20000623173510206/23/00 17:35:31  5-MIN KSTC 232335Z AUTO 00000KT 10SM BKN042 27/19 A2976 1180 60 2900 000/00 RMK AO2
14926KSTC STC20000623174010206/23/00 17:40:31  5-MIN KSTC 232340Z AUTO 00000KT 10SM BKN042 27/19 A2976 1180 60 2900 000/00 RMK AO2
14926KSTC STC20000623174510206/23/00 17:45:31  5-MIN KSTC 232345Z AUTO VRB03KT 10SM BKN042 28/19 A2975 1180 58 3000 VRB/03 RMK AO2
14926KSTC STC20000623175013706/23/00 17:50:31  5-MIN KSTC 232350Z AUTO 23004KT 10SM SCT042 27/18 A2975 1180 58 2900 230/04 RMK AO2 SLP079 T02720183 10278 20250 58014
14926KSTC STC20000623175510206/23/00 17:55:31  5-MIN KSTC 232355Z AUTO VRB04KT 10SM FEW040 27/19 A2976 1180 60 2900 VRB/04 RMK AO2
14926KSTC STC20000623180010206/23/00 18:00:31  5-MIN KSTC 240000Z AUTO 00000KT 10SM FEW042 27/19 A2975 1180 60 2900 000/00 RMK AO2
14926KSTC STC20000623180509906/23/00 18:05:31  5-MIN KSTC 240005Z AUTO 27005KT 10SM CLR 27/19 A2976 1180 60 2900 260/05 RMK AO2
14926KSTC STC20000623181010206/23/00 18:10:31  5-MIN KSTC 240010Z AUTO 27004KT 10SM FEW044 27/19 A2975 1180 60 2900 270/04 RMK AO2
14926KSTC STC20000623181510206/23/00 18:15:31  5-MIN KSTC 240015Z AUTO 28004KT 10SM SCT044 26/19 A2975 1180 66 2800 270/04 RMK AO2
14926KSTC STC20000623182010206/23/00 18:20:31  5-MIN KSTC 240020Z AUTO 28004KT 10SM FEW044 26/19 A2975 1180 66 2800 270/04 RMK AO2
14926KSTC STC20000623182510206/23/00 18:25:31  5-MIN KSTC 240025Z AUTO 29003KT 10SM FEW044 26/19 A2975 1180 66 2800 280/03 RMK AO2
14926KSTC STC20000623183010206/23/00 18:30:31  5-MIN KSTC 240030Z AUTO 00000KT 10SM FEW044 26/20 A2975 1180 71 2700 000/00 RMK AO2
14926KSTC STC20000623183510206/23/00 18:35:31  5-MIN KSTC 240035Z AUTO 00000KT 10SM FEW044 26/19 A2975 1180 68 2700 000/00 RMK AO2
14926KSTC STC20000623184010206/23/00 18:40:31  5-MIN KSTC 240040Z AUTO 00000KT 10SM FEW044 26/19 A2975 1180 68 2700 000/00 RMK AO2
14926KSTC STC20000623184510206/23/00 18:45:31  5-MIN KSTC 240045Z AUTO 32003KT 10SM SCT044 26/20 A2975 1190 68 2800 310/03 RMK AO2
14926KSTC STC20000623185011906/23/00 18:50:31  5-MIN KSTC 240050Z AUTO 00000KT 10SM FEW044 27/21 A2975 1190 69 2800 000/00 RMK AO2 SLP077 T02670206
14926KSTC STC20000623185510206/23/00 18:55:31  5-MIN KSTC 240055Z AUTO 33003KT 10SM FEW044 27/20 A2975 1190 66 2800 330/03 RMK AO2
14926KSTC STC20000623190010206/23/00 19:00:31  5-MIN KSTC 240100Z AUTO 35003KT 10SM SCT046 27/19 A2975 1190 64 2800 340/03 RMK AO2
14926KSTC STC20000623190510206/23/00 19:05:31  5-MIN KSTC 240105Z AUTO 35003KT 10SM SCT046 27/20 A2975 1190 66 2800 340/03 RMK AO2
14926KSTC STC20000623191010206/23/00 19:10:31  5-MIN KSTC 240110Z AUTO 34003KT 10SM FEW042 26/20 A2975 1190 68 2800 340/03 RMK AO2
14926KSTC STC20000623191510206/23/00 19:15:31  5-MIN KSTC 240115Z AUTO 00000KT 10SM FEW049 26/20 A2975 1190 68 2800 000/00 RMK AO2
14926KSTC STC20000623192010206/23/00 19:20:31  5-MIN KSTC 240120Z AUTO 00000KT 10SM FEW049 26/20 A2975 1190 68 2800 000/00 RMK AO2
14926KSTC STC20000623192510206/23/00 19:25:31  5-MIN KSTC 240125Z AUTO 00000KT 10SM FEW049 26/20 A2975 1190 68 2800 000/00 RMK AO2
14926KSTC STC20000623193009906/23/00 19:30:31  5-MIN KSTC 240130Z AUTO 00000KT 10SM CLR 26/20 A2975 1190 71 2700 000/00 RMK AO2
14926KSTC STC20000623193509906/23/00 19:35:31  5-MIN KSTC 240135Z AUTO 32003KT 10SM CLR 25/21 A2975 1190 76 2700 310/03 RMK AO2
14926KSTC STC20000623194009906/23/00 19:40:31  5-MIN KSTC 240140Z AUTO 32004KT 10SM CLR 25/20 A2975 1190 73 2700 310/04 RMK AO2
14926KSTC STC20000623194509906/23/00 19:45:31  5-MIN KSTC 240145Z AUTO 31004KT 10SM CLR 24/20 A2975 1190 76 2600 300/04 RMK AO2
14926KSTC STC20000623195011606/23/00 19:50:31  5-MIN KSTC 240150Z AUTO 30005KT 10SM CLR 24/21 A2975 1190 81 2500 300/05 RMK AO2 SLP077 T02390206
14926KSTC STC20000623195509906/23/00 19:55:31  5-MIN KSTC 240155Z AUTO 30005KT 10SM CLR 23/20 A2975 1190 81 2500 300/05 RMK AO2
14926KSTC STC20000623200009906/23/00 20:00:31  5-MIN KSTC 240200Z AUTO 30005KT 10SM CLR 23/20 A2975 1190 84 2400 300/05 RMK AO2
14926KSTC STC20000623200509906/23/00 20:05:31  5-MIN KSTC 240205Z AUTO 31004KT 10SM CLR 23/19 A2975 1190 81 2400 310/04 RMK AO2
14926KSTC STC20000623201009906/23/00 20:10:31  5-MIN KSTC 240210Z AUTO 30003KT 10SM CLR 23/19 A2975 1190 78 2500 300/03 RMK AO2
14926KSTC STC20000623201509906/23/00 20:15:31  5-MIN KSTC 240215Z AUTO 00000KT 10SM CLR 24/19 A2975 1190 73 2600 000/00 RMK AO2
14926KSTC STC20000623202009906/23/00 20:20:31  5-MIN KSTC 240220Z AUTO 00000KT 10SM CLR 23/20 A2975 1180 84 2400 000/00 RMK AO2
14926KSTC STC20000623202509906/23/00 20:25:31  5-MIN KSTC 240225Z AUTO 00000KT 10SM CLR 22/20 A2975 1180 87 2300 000/00 RMK AO2
14926KSTC STC20000623203009906/23/00 20:30:31  5-MIN KSTC 240230Z AUTO 00000KT 10SM CLR 22/20 A2976 1180 90 2300 000/00 RMK AO2
14926KSTC STC20000623203509906/23/00 20:35:31  5-MIN KSTC 240235Z AUTO 00000KT 10SM CLR 22/19 A2976 1180 84 2300 000/00 RMK AO2
14926KSTC STC20000623204009906/23/00 20:40:31  5-MIN KSTC 240240Z AUTO 30003KT 10SM CLR 22/19 A2976 1180 84 2300 290/03 RMK AO2
14926KSTC STC20000623204509906/23/00 20:45:31  5-MIN KSTC 240245Z AUTO 00000KT 10SM CLR 22/19 A2975 1180 81 2300 000/00 RMK AO2
14926KSTC STC20000623205012206/23/00 20:50:31  5-MIN KSTC 240250Z AUTO 00000KT 10SM CLR 22/19 A2975 1180 87 2300 000/00 RMK AO2 SLP079 T02170194 50000
14926KSTC STC20000623205509906/23/00 20:55:31  5-MIN KSTC 240255Z AUTO 00000KT 10SM CLR 21/19 A2975 1180 90 2200 000/00 RMK AO2
14926KSTC STC20000623210009906/23/00 21:00:31  5-MIN KSTC 240300Z AUTO 00000KT 10SM CLR 21/19 A2975 1180 90 2200 000/00 RMK AO2
14926KSTC STC20000623210509906/23/00 21:05:31  5-MIN KSTC 240305Z AUTO 00000KT 10SM CLR 21/19 A2975 1180 87 2200 000/00 RMK AO2
14926KSTC STC20000623211009906/23/00 21:10:31  5-MIN KSTC 240310Z AUTO 00000KT 10SM CLR 21/19 A2976 1170 90 2100 000/00 RMK AO2
14926KSTC STC20000623211509906/23/00 21:15:31  5-MIN KSTC 240315Z AUTO 00000KT 10SM CLR 21/19 A2976 1170 90 2100 000/00 RMK AO2
14926KSTC STC20000623212009906/23/00 21:20:31  5-MIN KSTC 240320Z AUTO 32003KT 10SM CLR 21/19 A2977 1170 90 2100 310/03 RMK AO2
14926KSTC STC20000623212509906/23/00 21:25:31  5-MIN KSTC 240325Z AUTO 31003KT 10SM CLR 21/19 A2977 1170 90 2100 310/03 RMK AO2
14926KSTC STC20000623213009906/23/00 21:30:31  5-MIN KSTC 240330Z AUTO 00000KT 10SM CLR 21/19 A2977 1170 87 2200 000/00 RMK AO2
14926KSTC STC20000623213509906/23/00 21:35:31  5-MIN KSTC 240335Z AUTO 00000KT 10SM CLR 20/19 A2977 1170 93 2100 000/00 RMK AO2
14926KSTC STC20000623214009906/23/00 21:40:31  5-MIN KSTC 240340Z AUTO 00000KT 10SM CLR 21/19 A2977 1170 87 2200 000/00 RMK AO2
14926KSTC STC20000623214509906/23/00 21:45:31  5-MIN KSTC 240345Z AUTO 00000KT 10SM CLR 20/18 A2977 1160 90 2100 000/00 RMK AO2
14926KSTC STC20000623215011606/23/00 21:50:31  5-MIN KSTC 240350Z AUTO 00000KT 10SM CLR 20/19 A2977 1170 93 2100 000/00 RMK AO2 SLP084 T02000189
14926KSTC STC20000623215509906/23/00 21:55:31  5-MIN KSTC 240355Z AUTO 00000KT 10SM CLR 19/18 A2977 1170 93 2000 000/00 RMK AO2
14926KSTC STC20000623220009906/23/00 22:00:31  5-MIN KSTC 240400Z AUTO 33003KT 10SM CLR 19/18 A2977 1160 93 2000 330/03 RMK AO2
14926KSTC STC20000623220509906/23/00 22:05:31  5-MIN KSTC 240405Z AUTO 00000KT 10SM CLR 19/18 A2977 1160 93 2000 000/00 RMK AO2
14926KSTC STC20000623221009906/23/00 22:10:31  5-MIN KSTC 240410Z AUTO 33003KT 10SM CLR 21/18 A2977 1170 87 2100 330/03 RMK AO2
14926KSTC STC20000623221509906/23/00 22:15:31  5-MIN KSTC 240415Z AUTO 33004KT 10SM CLR 19/18 A2977 1170 90 2000 330/04 RMK AO2
14926KSTC STC20000623222009906/23/00 22:20:31  5-MIN KSTC 240420Z AUTO 34003KT 10SM CLR 19/18 A2976 1170 93 2000 330/03 RMK AO2
14926KSTC STC20000623222509906/23/00 22:25:31  5-MIN KSTC 240425Z AUTO 34003KT 10SM CLR 20/18 A2976 1170 90 2100 340/03 RMK AO2
14926KSTC STC20000623223009906/23/00 22:30:31  5-MIN KSTC 240430Z AUTO 00000KT 10SM CLR 20/18 A2976 1180 90 2100 000/00 RMK AO2
14926KSTC STC20000623223509906/23/00 22:35:31  5-MIN KSTC 240435Z AUTO 00000KT 10SM CLR 21/18 A2976 1180 87 2100 000/00 RMK AO2
14926KSTC STC20000623224009906/23/00 22:40:31  5-MIN KSTC 240440Z AUTO 34003KT 10SM CLR 20/18 A2976 1170 87 2100 340/03 RMK AO2
14926KSTC STC20000623224509906/23/00 22:45:31  5-MIN KSTC 240445Z AUTO 34005KT 10SM CLR 19/18 A2976 1170 90 2000 340/05 RMK AO2
14926KSTC STC20000623225011606/23/00 22:50:31  5-MIN KSTC 240450Z AUTO 34004KT 10SM CLR 20/18 A2976 1180 87 2100 340/04 RMK AO2 SLP080 T02000178
14926KSTC STC20000623225509906/23/00 22:55:31  5-MIN KSTC 240455Z AUTO 33005KT 10SM CLR 20/18 A2976 1170 87 2100 330/05 RMK AO2
14926KSTC STC20000623230009906/23/00 23:00:31  5-MIN KSTC 240500Z AUTO 34004KT 10SM CLR 20/18 A2976 1180 87 2100 340/04 RMK AO2
14926KSTC STC20000623230509906/23/00 23:05:31  5-MIN KSTC 240505Z AUTO 35005KT 10SM CLR 19/18 A2975 1180 90 2000 340/05 RMK AO2
14926KSTC STC20000623231009906/23/00 23:10:31  5-MIN KSTC 240510Z AUTO 34004KT 10SM CLR 19/18 A2975 1180 90 2000 340/04 RMK AO2
14926KSTC STC20000623231509906/23/00 23:15:31  5-MIN KSTC 240515Z AUTO 33005KT 10SM CLR 20/18 A2975 1180 87 2100 330/05 RMK AO2
14926KSTC STC20000623232009906/23/00 23:20:31  5-MIN KSTC 240520Z AUTO 33006KT 10SM CLR 20/18 A2976 1180 87 2100 330/06 RMK AO2
14926KSTC STC20000623232509906/23/00 23:25:31  5-MIN KSTC 240525Z AUTO 33006KT 10SM CLR 20/18 A2976 1170 87 2100 330/06 RMK AO2
14926KSTC STC20000623233009906/23/00 23:30:31  5-MIN KSTC 240530Z AUTO 32006KT 10SM CLR 20/18 A2977 1170 87 2100 320/06 RMK AO2
14926KSTC STC20000623233510606/23/00 23:35:31  5-MIN KSTC 240535Z AUTO 30005KT 10SM CLR 19/18 A2978 1160 90 2000 290/05 RMK AO2 PRESRR
14926KSTC STC20000623234009906/23/00 23:40:31  5-MIN KSTC 240540Z AUTO 31005KT 10SM CLR 19/18 A2978 1160 90 2000 310/05 RMK AO2
14926KSTC STC20000623234509906/23/00 23:45:31  5-MIN KSTC 240545Z AUTO 32003KT 10SM CLR 19/17 A2978 1160 87 2000 320/03 RMK AO2
14926KSTC STC20000623235014406/23/00 23:50:31  5-MIN KSTC 240550Z AUTO 32004KT 10SM CLR 19/17 A2978 1160 87 2000 320/04 RMK AO2 SLP087 T01940172 10278 20194 402780133 55001
14926KSTC STC20000623235509906/23/00 23:55:31  5-MIN KSTC 240555Z AUTO 33004KT 10SM CLR 19/17 A2978 1160 87 2000 330/04 RMK AO2
14926KSTC STC20000624000009906/24/00 00:00:31  5-MIN KSTC 240600Z AUTO 34004KT 10SM CLR 19/17 A2977 1160 90 1900 340/04 RMK AO2
14926KSTC STC20000624000509906/24/00 00:05:31  5-MIN KSTC 240605Z AUTO 34004KT 10SM CLR 18/17 A2977 1160 93 1900 340/04 RMK AO2
14926KSTC STC20000624001009906/24/00 00:10:31  5-MIN KSTC 240610Z AUTO 34005KT 10SM CLR 19/17 A2977 1170 90 1900 340/05 RMK AO2
14926KSTC STC20000624001509906/24/00 00:15:31  5-MIN KSTC 240615Z AUTO 33003KT 10SM CLR 19/17 A2977 1160 90 1900 330/03 RMK AO2
14926KSTC STC20000624002009906/24/00 00:20:31  5-MIN KSTC 240620Z AUTO 34003KT 10SM CLR 19/17 A2977 1170 87 2000 340/03 RMK AO2
14926KSTC STC20000624002509906/24/00 00:25:31  5-MIN KSTC 240625Z AUTO 33004KT 10SM CLR 19/17 A2977 1170 87 2000 320/04 RMK AO2
14926KSTC STC20000624003009906/24/00 00:30:31  5-MIN KSTC 240630Z AUTO 31003KT 10SM CLR 19/17 A2977 1160 90 1900 310/03 RMK AO2
14926KSTC STC20000624003509906/24/00 00:35:31  5-MIN KSTC 240635Z AUTO 30005KT 10SM CLR 19/17 A2979 1150 90 1900 300/05 RMK AO2
14926KSTC STC20000624004010606/24/00 00:40:31  5-MIN KSTC 240640Z AUTO 30005KT 10SM CLR 19/17 A2979 1150 90 1900 300/05 RMK AO2 PRESRR
14926KSTC STC20000624004510606/24/00 00:45:31  5-MIN KSTC 240645Z AUTO 30005KT 10SM CLR 19/17 A2980 1140 90 1900 300/05 RMK AO2 PRESRR
14926KSTC STC20000624005011606/24/00 00:50:31  5-MIN KSTC 240650Z AUTO 31005KT 10SM CLR 19/17 A2979 1140 90 1900 300/05 RMK AO2 SLP092 T01890172
14926KSTC STC20000624005509906/24/00 00:55:31  5-MIN KSTC 240655Z AUTO 32004KT 10SM CLR 19/17 A2979 1150 90 1900 320/04 RMK AO2
14926KSTC STC20000624010009906/24/00 01:00:31  5-MIN KSTC 240700Z AUTO 33004KT 10SM CLR 19/17 A2979 1150 90 1900 320/04 RMK AO2
14926KSTC STC20000624010509906/24/00 01:05:31  5-MIN KSTC 240705Z AUTO 32003KT 10SM CLR 19/17 A2979 1150 90 1900 310/03 RMK AO2
14926KSTC STC20000624011009906/24/00 01:10:31  5-MIN KSTC 240710Z AUTO 31003KT 10SM CLR 19/17 A2979 1150 90 1900 310/03 RMK AO2
14926KSTC STC20000624011509906/24/00 01:15:31  5-MIN KSTC 240715Z AUTO 31004KT 10SM CLR 19/17 A2979 1150 90 1900 300/04 RMK AO2
14926KSTC STC20000624012009906/24/00 01:20:31  5-MIN KSTC 240720Z AUTO 32005KT 10SM CLR 18/17 A2978 1150 93 1800 310/05 RMK AO2
14926KSTC STC20000624012509906/24/00 01:25:31  5-MIN KSTC 240725Z AUTO 33005KT 10SM CLR 19/17 A2978 1160 90 1900 330/05 RMK AO2
14926KSTC STC20000624013009906/24/00 01:30:31  5-MIN KSTC 240730Z AUTO 34005KT 10SM CLR 19/17 A2978 1160 90 1900 340/05 RMK AO2
14926KSTC STC20000624013510206/24/00 01:35:31  5-MIN KSTC 240735Z AUTO 34006KT 10SM FEW110 19/17 A2978 1160 90 1900 330/06 RMK AO2
14926KSTC STC20000624014010206/24/00 01:40:31  5-MIN KSTC 240740Z AUTO 32006KT 10SM FEW110 19/17 A2978 1160 90 1900 320/06 RMK AO2
14926KSTC STC20000624014510206/24/00 01:45:31  5-MIN KSTC 240745Z AUTO 32006KT 10SM FEW110 19/17 A2978 1160 90 1900 320/06 RMK AO2
14926KSTC STC20000624015011906/24/00 01:50:31  5-MIN KSTC 240750Z AUTO 32006KT 10SM FEW110 19/17 A2978 1160 90 1900 320/06 RMK AO2 SLP086 T01890172
14926KSTC STC20000624015510206/24/00 01:55:31  5-MIN KSTC 240755Z AUTO 33005KT 10SM SCT110 19/17 A2978 1160 87 1900 320/05 RMK AO2
14926KSTC STC20000624020010206/24/00 02:00:31  5-MIN KSTC 240800Z AUTO 33004KT 10SM SCT100 19/17 A2977 1170 87 1900 330/04 RMK AO2
14926KSTC STC20000624020510206/24/00 02:05:31  5-MIN KSTC 240805Z AUTO 34004KT 10SM SCT100 19/17 A2977 1170 87 1900 340/04 RMK AO2
14926KSTC STC20000624021010206/24/00 02:10:31  5-MIN KSTC 240810Z AUTO 33006KT 10SM FEW100 19/17 A2977 1160 87 1900 330/06 RMK AO2
14926KSTC STC20000624021510206/24/00 02:15:31  5-MIN KSTC 240815Z AUTO 34005KT 10SM FEW100 19/17 A2977 1170 87 1900 330/05 RMK AO2
14926KSTC STC20000624022010206/24/00 02:20:31  5-MIN KSTC 240820Z AUTO 34005KT 10SM FEW100 18/17 A2977 1170 90 1900 340/05 RMK AO2
14926KSTC STC20000624022510206/24/00 02:25:31  5-MIN KSTC 240825Z AUTO 33005KT 10SM FEW085 18/17 A2977 1170 90 1900 330/05 RMK AO2
14926KSTC STC20000624023009906/24/00 02:30:31  5-MIN KSTC 240830Z AUTO 33006KT 10SM CLR 19/17 A2978 1160 87 1900 330/06 RMK AO2
14926KSTC STC20000624023509906/24/00 02:35:31  5-MIN KSTC 240835Z AUTO 33004KT 10SM CLR 18/16 A2979 1150 87 1800 330/04 RMK AO2
14926KSTC STC20000624024010606/24/00 02:40:31  5-MIN KSTC 240840Z AUTO 33007KT 10SM CLR 19/16 A2980 1140 84 1900 320/07 RMK AO2 PRESRR
14926KSTC STC20000624024509906/24/00 02:45:31  5-MIN KSTC 240845Z AUTO 34005KT 10SM CLR 19/16 A2980 1140 84 1900 330/05 RMK AO2
14926KSTC STC20000624025012206/24/00 02:50:31  5-MIN KSTC 240850Z AUTO 33004KT 10SM CLR 18/16 A2980 1130 87 1800 330/04 RMK AO2 SLP095 T01830161 53008
14926KSTC STC20000624025509906/24/00 02:55:31  5-MIN KSTC 240855Z AUTO 35003KT 10SM CLR 18/16 A2979 1150 87 1800 350/03 RMK AO2
14926KSTC STC20000624030009906/24/00 03:00:31  5-MIN KSTC 240900Z AUTO 00000KT 10SM CLR 18/16 A2979 1150 87 1800 000/00 RMK AO2
14926KSTC STC20000624030509906/24/00 03:05:31  5-MIN KSTC 240905Z AUTO 00000KT 10SM CLR 18/16 A2978 1150 87 1800 000/00 RMK AO2
14926KSTC STC20000624031009906/24/00 03:10:31  5-MIN KSTC 240910Z AUTO 00000KT 10SM CLR 18/16 A2978 1150 87 1800 000/00 RMK AO2
14926KSTC STC20000624031509906/24/00 03:15:31  5-MIN KSTC 240915Z AUTO 33003KT 10SM CLR 18/16 A2978 1160 87 1900 330/03 RMK AO2
14926KSTC STC20000624032009906/24/00 03:20:31  5-MIN KSTC 240920Z AUTO 34004KT 10SM CLR 17/16 A2978 1160 93 1700 340/04 RMK AO2
14926KSTC STC20000624032509906/24/00 03:25:31  5-MIN KSTC 240925Z AUTO 33005KT 10SM CLR 18/16 A2978 1150 90 1800 330/05 RMK AO2
14926KSTC STC20000624033009906/24/00 03:30:31  5-MIN KSTC 240930Z AUTO 32006KT 10SM CLR 17/16 A2978 1150 93 1700 320/06 RMK AO2
14926KSTC STC20000624033509906/24/00 03:35:31  5-MIN KSTC 240935Z AUTO 33005KT 10SM CLR 18/16 A2978 1160 90 1800 320/05 RMK AO2
14926KSTC STC20000624034009906/24/00 03:40:31  5-MIN KSTC 240940Z AUTO 33004KT 10SM CLR 18/16 A2978 1150 90 1800 330/04 RMK AO2
14926KSTC STC20000624034509906/24/00 03:45:31  5-MIN KSTC 240945Z AUTO 32006KT 10SM CLR 18/16 A2979 1150 90 1800 320/06 RMK AO2
14926KSTC STC20000624035011606/24/00 03:50:31  5-MIN KSTC 240950Z AUTO 32005KT 10SM CLR 18/16 A2979 1150 90 1800 320/05 RMK AO2 SLP090 T01780161
14926KSTC STC20000624035509906/24/00 03:55:31  5-MIN KSTC 240955Z AUTO 31005KT 10SM CLR 18/16 A2979 1150 90 1800 310/05 RMK AO2
14926KSTC STC20000624040009906/24/00 04:00:31  5-MIN KSTC 241000Z AUTO 32005KT 10SM CLR 17/16 A2978 1150 93 1700 310/05 RMK AO2
14926KSTC STC20000624040509906/24/00 04:05:31  5-MIN KSTC 241005Z AUTO 32006KT 10SM CLR 17/16 A2979 1150 93 1700 310/06 RMK AO2
14926KSTC STC20000624041009906/24/00 04:10:31  5-MIN KSTC 241010Z AUTO 32007KT 10SM CLR 17/16 A2979 1150 93 1700 310/07 RMK AO2
14926KSTC STC20000624041509906/24/00 04:15:31  5-MIN KSTC 241015Z AUTO 32007KT 10SM CLR 18/16 A2979 1150 90 1800 320/07 RMK AO2
14926KSTC STC20000624042009906/24/00 04:20:31  5-MIN KSTC 241020Z AUTO 32006KT 10SM CLR 18/16 A2979 1150 90 1800 320/06 RMK AO2
14926KSTC STC20000624042509906/24/00 04:25:31  5-MIN KSTC 241025Z AUTO 32007KT 10SM CLR 18/16 A2979 1140 90 1800 320/07 RMK AO2
14926KSTC STC20000624043009906/24/00 04:30:31  5-MIN KSTC 241030Z AUTO 32006KT 10SM CLR 18/16 A2980 1140 90 1800 320/06 RMK AO2
14926KSTC STC20000624043509906/24/00 04:35:31  5-MIN KSTC 241035Z AUTO 32007KT 10SM CLR 18/16 A2980 1140 90 1800 320/07 RMK AO2
14926KSTC STC20000624044009906/24/00 04:40:31  5-MIN KSTC 241040Z AUTO 33006KT 10SM CLR 18/16 A2980 1140 90 1800 330/06 RMK AO2
14926KSTC STC20000624044509906/24/00 04:45:31  5-MIN KSTC 241045Z AUTO 33006KT 10SM CLR 18/16 A2980 1140 90 1800 320/06 RMK AO2
14926KSTC STC20000624045011606/24/00 04:50:31  5-MIN KSTC 241050Z AUTO 33005KT 10SM CLR 18/16 A2980 1140 90 1800 320/05 RMK AO2 SLP094 T01780161
14926KSTC STC20000624045509906/24/00 04:55:31  5-MIN KSTC 241055Z AUTO 32007KT 10SM CLR 18/16 A2980 1140 90 1800 320/07 RMK AO2
14926KSTC STC20000624050009906/24/00 05:00:31  5-MIN KSTC 241100Z AUTO 33008KT 10SM CLR 18/16 A2980 1140 90 1800 320/08 RMK AO2
14926KSTC STC20000624050509906/24/00 05:05:31  5-MIN KSTC 241105Z AUTO 33008KT 10SM CLR 18/16 A2980 1140 90 1800 330/08 RMK AO2
14926KSTC STC20000624051010206/24/00 05:10:31  5-MIN KSTC 241110Z AUTO 33006KT 10SM FEW120 18/16 A2980 1140 90 1800 330/06 RMK AO2
14926KSTC STC20000624051510206/24/00 05:15:31  5-MIN KSTC 241115Z AUTO 33007KT 10SM SCT120 18/16 A2980 1130 90 1800 330/07 RMK AO2
14926KSTC STC20000624052010206/24/00 05:20:31  5-MIN KSTC 241120Z AUTO 33005KT 10SM SCT120 18/16 A2980 1130 90 1800 330/05 RMK AO2
14926KSTC STC20000624052510206/24/00 05:25:31  5-MIN KSTC 241125Z AUTO 33006KT 10SM SCT120 18/16 A2981 1130 90 1800 330/06 RMK AO2
14926KSTC STC20000624053010206/24/00 05:30:31  5-MIN KSTC 241130Z AUTO 33005KT 10SM FEW120 18/16 A2981 1130 90 1800 330/05 RMK AO2
14926KSTC STC20000624053510206/24/00 05:35:31  5-MIN KSTC 241135Z AUTO 34007KT 10SM FEW120 18/16 A2981 1130 90 1800 330/07 RMK AO2
14926KSTC STC20000624054010206/24/00 05:40:31  5-MIN KSTC 241140Z AUTO 34006KT 10SM FEW120 18/16 A2981 1130 87 1800 340/06 RMK AO2
14926KSTC STC20000624054510206/24/00 05:45:31  5-MIN KSTC 241145Z AUTO 35005KT 10SM FEW120 18/16 A2981 1130 87 1800 340/05 RMK AO2
14926KSTC STC20000624055014006/24/00 05:50:31  5-MIN KSTC 241150Z AUTO 35006KT 10SM CLR 18/16 A2981 1130 87 1800 340/06 RMK AO2 SLP097 70017 T01830161 10194 20172 53005
14926KSTC STC20000624055509906/24/00 05:55:31  5-MIN KSTC 241155Z AUTO 35005KT 10SM CLR 18/16 A2981 1130 87 1800 350/05 RMK AO2
14926KSTC STC20000624060009906/24/00 06:00:31  5-MIN KSTC 241200Z AUTO 35005KT 10SM CLR 18/16 A2981 1130 87 1800 350/05 RMK AO2
14926KSTC STC20000624060509906/24/00 06:05:31  5-MIN KSTC 241205Z AUTO 34005KT 10SM CLR 18/16 A2981 1120 87 1800 340/05 RMK AO2
14926KSTC STC20000624061009906/24/00 06:10:31  5-MIN KSTC 241210Z AUTO 34004KT 10SM CLR 18/16 A2981 1120 87 1800 340/04 RMK AO2
14926KSTC STC20000624061509906/24/00 06:15:31  5-MIN KSTC 241215Z AUTO 33004KT 10SM CLR 18/17 A2982 1120 90 1800 330/04 RMK AO2
14926KSTC STC20000624062009906/24/00 06:20:31  5-MIN KSTC 241220Z AUTO 33004KT 10SM CLR 18/17 A2982 1120 90 1800 320/04 RMK AO2
14926KSTC STC20000624062509906/24/00 06:25:31  5-MIN KSTC 241225Z AUTO 33004KT 10SM CLR 18/17 A2981 1120 90 1800 320/04 RMK AO2
14926KSTC STC20000624063009906/24/00 06:30:31  5-MIN KSTC 241230Z AUTO 33004KT 10SM CLR 18/17 A2981 1120 90 1800 330/04 RMK AO2
14926KSTC STC20000624063509906/24/00 06:35:31  5-MIN KSTC 241235Z AUTO 33004KT 10SM CLR 18/17 A2982 1120 90 1800 320/04 RMK AO2
14926KSTC STC20000624064009906/24/00 06:40:31  5-MIN KSTC 241240Z AUTO 32005KT 10SM CLR 18/17 A2982 1120 90 1800 320/05 RMK AO2
14926KSTC STC20000624064509906/24/00 06:45:31  5-MIN KSTC 241245Z AUTO 33005KT 10SM CLR 18/17 A2982 1120 90 1800 330/05 RMK AO2
14926KSTC STC20000624065011606/24/00 06:50:31  5-MIN KSTC 241250Z AUTO 33007KT 10SM CLR 18/17 A2982 1120 90 1800 330/07 RMK AO2 SLP101 T01830167
14926KSTC STC20000624065509906/24/00 06:55:31  5-MIN KSTC 241255Z AUTO 33007KT 10SM CLR 18/17 A2982 1120 90 1800 330/07 RMK AO2
14926KSTC STC20000624070009906/24/00 07:00:31  5-MIN KSTC 241300Z AUTO 33006KT 10SM CLR 19/17 A2982 1120 87 1900 330/06 RMK AO2
14926KSTC STC20000624070509906/24/00 07:05:31  5-MIN KSTC 241305Z AUTO 33006KT 10SM CLR 19/17 A2982 1120 87 1900 330/06 RMK AO2
14926KSTC STC20000624071009906/24/00 07:10:31  5-MIN KSTC 241310Z AUTO 34005KT 10SM CLR 19/17 A2982 1120 87 1900 340/05 RMK AO2
14926KSTC STC20000624071509906/24/00 07:15:31  5-MIN KSTC 241315Z AUTO 34004KT 10SM CLR 19/17 A2982 1120 87 1900 340/04 RMK AO2
14926KSTC STC20000624072009906/24/00 07:20:31  5-MIN KSTC 241320Z AUTO 34005KT 10SM CLR 19/17 A2983 1110 87 1900 340/05 RMK AO2
14926KSTC STC20000624072509906/24/00 07:25:31  5-MIN KSTC 241325Z AUTO 34005KT 10SM CLR 19/17 A2983 1110 87 1900 340/05 RMK AO2
14926KSTC STC20000624073009906/24/00 07:30:31  5-MIN KSTC 241330Z AUTO 34006KT 10SM CLR 19/17 A2982 1120 84 1900 340/06 RMK AO2
14926KSTC STC20000624073509906/24/00 07:35:31  5-MIN KSTC 241335Z AUTO 33006KT 10SM CLR 19/17 A2982 1120 84 1900 330/06 RMK AO2
14926KSTC STC20000624074009906/24/00 07:40:31  5-MIN KSTC 241340Z AUTO 34007KT 10SM CLR 19/17 A2982 1120 84 1900 340/07 RMK AO2
14926KSTC STC20000624074509906/24/00 07:45:31  5-MIN KSTC 241345Z AUTO 34007KT 10SM CLR 19/17 A2982 1120 84 1900 340/07 RMK AO2
14926KSTC STC20000624075011606/24/00 07:50:31  5-MIN KSTC 241350Z AUTO 34006KT 10SM CLR 20/17 A2983 1110 81 2000 330/06 RMK AO2 SLP103 T02000167
14926KSTC STC20000624075509906/24/00 07:55:31  5-MIN KSTC 241355Z AUTO 35006KT 10SM CLR 20/17 A2982 1120 81 2000 350/06 RMK AO2
14926KSTC STC20000624080009906/24/00 08:00:31  5-MIN KSTC 241400Z AUTO 35006KT 10SM CLR 21/17 A2982 1120 78 2100 350/06 RMK AO2
14926KSTC STC20000624080509906/24/00 08:05:31  5-MIN KSTC 241405Z AUTO 34008KT 10SM CLR 21/17 A2982 1120 78 2100 340/08 RMK AO2
14926KSTC STC20000624081009906/24/00 08:10:31  5-MIN KSTC 241410Z AUTO 34005KT 10SM CLR 21/17 A2982 1120 78 2100 340/05 RMK AO2
14926KSTC STC20000624081509906/24/00 08:15:31  5-MIN KSTC 241415Z AUTO 32006KT 10SM CLR 21/17 A2982 1120 78 2100 320/06 RMK AO2
14926KSTC STC20000624082009906/24/00 08:20:31  5-MIN KSTC 241420Z AUTO 33006KT 10SM CLR 21/17 A2982 1120 75 2100 320/06 RMK AO2
14926KSTC STC20000624082509906/24/00 08:25:31  5-MIN KSTC 241425Z AUTO 34006KT 10SM CLR 21/17 A2983 1110 75 2100 330/06 RMK AO2
14926KSTC STC20000624083009906/24/00 08:30:31  5-MIN KSTC 241430Z AUTO 33007KT 10SM CLR 21/17 A2983 1110 75 2100 320/07 RMK AO2
14926KSTC STC20000624083509906/24/00 08:35:31  5-MIN KSTC 241435Z AUTO 32007KT 10SM CLR 22/17 A2983 1110 73 2200 310/07 RMK AO2
14926KSTC STC20000624084009906/24/00 08:40:31  5-MIN KSTC 241440Z AUTO 33007KT 10SM CLR 22/17 A2983 1110 73 2200 320/07 RMK AO2
14926KSTC STC20000624084510206/24/00 08:45:31  5-MIN KSTC 241445Z AUTO 33009KT 10SM FEW020 22/17 A2982 1120 73 2200 330/09 RMK AO2
14926KSTC STC20000624085012206/24/00 08:50:31  5-MIN KSTC 241450Z AUTO 35007KT 10SM CLR 22/17 A2982 1120 70 2300 350/07 RMK AO2 SLP101 T02220167 53005
14926KSTC STC20000624085509906/24/00 08:55:31  5-MIN KSTC 241455Z AUTO 36008KT 10SM CLR 22/17 A2982 1120 70 2300 350/08 RMK AO2
14926KSTC STC20000624090009906/24/00 09:00:31  5-MIN KSTC 241500Z AUTO 35008KT 10SM CLR 23/17 A2982 1120 68 2300 350/08 RMK AO2
14926KSTC STC20000624090509906/24/00 09:05:31  5-MIN KSTC 241505Z AUTO 36007KT 10SM CLR 23/17 A2982 1120 68 2300 360/07 RMK AO2
14926KSTC STC20000624091009906/24/00 09:10:31  5-MIN KSTC 241510Z AUTO 32008KT 10SM CLR 23/16 A2982 1120 65 2300 320/08 RMK AO2
14926KSTC STC20000624091509906/24/00 09:15:31  5-MIN KSTC 241515Z AUTO 35009KT 10SM CLR 23/16 A2982 1120 63 2400 350/09 RMK AO2
14926KSTC STC20000624092009906/24/00 09:20:31  5-MIN KSTC 241520Z AUTO 35010KT 10SM CLR 23/16 A2982 1110 63 2300 350/10 RMK AO2
14926KSTC STC20000624092509906/24/00 09:25:31  5-MIN KSTC 241525Z AUTO 36010KT 10SM CLR 23/16 A2982 1120 63 2300 360/10 RMK AO2
14926KSTC STC20000624093009906/24/00 09:30:31  5-MIN KSTC 241530Z AUTO 34010KT 10SM CLR 23/15 A2982 1120 61 2300 330/10 RMK AO2
14926KSTC STC20000624093509906/24/00 09:35:31  5-MIN KSTC 241535Z AUTO 01010KT 10SM CLR 23/15 A2982 1120 59 2400 360/10 RMK AO2
14926KSTC STC20000624094009906/24/00 09:40:31  5-MIN KSTC 241540Z AUTO 02011KT 10SM CLR 23/14 A2982 1120 57 2400 020/11 RMK AO2
14926KSTC STC20000624094509906/24/00 09:45:31  5-MIN KSTC 241545Z AUTO 36009KT 10SM CLR 24/15 A2982 1120 57 2400 350/09 RMK AO2
14926KSTC STC20000624095011606/24/00 09:50:31  5-MIN KSTC 241550Z AUTO 36009KT 10SM CLR 24/14 A2982 1120 55 2400 360/09 RMK AO2 SLP101 T02390144
14926KSTC STC20000624095509906/24/00 09:55:31  5-MIN KSTC 241555Z AUTO 34011KT 10SM CLR 24/15 A2982 1120 57 2400 340/11 RMK AO2
14926KSTC STC20000624100009906/24/00 10:00:31  5-MIN KSTC 241600Z AUTO 35010KT 10SM CLR 23/14 A2982 1120 57 2400 350/10 RMK AO2
14926KSTC STC20000624100509906/24/00 10:05:31  5-MIN KSTC 241605Z AUTO 34012KT 10SM CLR 24/16 A2982 1120 59 2400 340/12 RMK AO2
14926KSTC STC20000624101009906/24/00 10:10:31  5-MIN KSTC 241610Z AUTO 34009KT 10SM CLR 24/16 A2982 1120 61 2400 340/09 RMK AO2
14926KSTC STC20000624101509906/24/00 10:15:31  5-MIN KSTC 241615Z AUTO 32011KT 10SM CLR 24/16 A2982 1120 61 2400 320/11 RMK AO2
14926KSTC STC20000624102010506/24/00 10:20:31  5-MIN KSTC 241620Z AUTO 35009G16KT 10SM CLR 24/16 A2982 1120 59 2400 350/09G16 RMK AO2
14926KSTC STC20000624102510506/24/00 10:25:31  5-MIN KSTC 241625Z AUTO 32011G16KT 10SM CLR 24/16 A2982 1120 59 2500 320/11G16 RMK AO2
14926KSTC STC20000624103009906/24/00 10:30:31  5-MIN KSTC 241630Z AUTO 34010KT 10SM CLR 24/15 A2982 1120 55 2500 340/10 RMK AO2
14926KSTC STC20000624103509906/24/00 10:35:31  5-MIN KSTC 241635Z AUTO 35012KT 10SM CLR 24/16 A2982 1120 59 2400 350/12 RMK AO2
14926KSTC STC20000624104010506/24/00 10:40:31  5-MIN KSTC 241640Z AUTO 34010G15KT 10SM CLR 24/15 A2982 1120 57 2400 340/10G15 RMK AO2
14926KSTC STC20000624104510506/24/00 10:45:31  5-MIN KSTC 241645Z AUTO 34011G15KT 10SM CLR 24/15 A2983 1110 57 2400 340/11G15 RMK AO2
14926KSTC STC20000624105011606/24/00 10:50:31  5-MIN KSTC 241650Z AUTO 33011KT 10SM CLR 24/15 A2982 1120 55 2500 330/11 RMK AO2 SLP102 T02440150
14926KSTC STC20000624105509906/24/00 10:55:31  5-MIN KSTC 241655Z AUTO 35011KT 10SM CLR 24/14 A2982 1120 53 2500 340/11 RMK AO2
14926KSTC STC20000624110009906/24/00 11:00:31  5-MIN KSTC 241700Z AUTO 36011KT 10SM CLR 24/14 A2982 1120 53 2500 350/11 RMK AO2
14926KSTC STC20000624110511506/24/00 11:05:31  5-MIN KSTC 241705Z AUTO 35008KT 320V030 10SM CLR 25/15 A2982 1120 53 2600 350/08 320V030 RMK AO2
14926KSTC STC20000624111009906/24/00 11:10:31  5-MIN KSTC 241710Z AUTO 35010KT 10SM CLR 25/15 A2982 1120 53 2600 350/10 RMK AO2
14926KSTC STC20000624111509906/24/00 11:15:31  5-MIN KSTC 241715Z AUTO 35010KT 10SM CLR 25/15 A2982 1120 53 2600 340/10 RMK AO2
14926KSTC STC20000624112009906/24/00 11:20:31  5-MIN KSTC 241720Z AUTO 35008KT 10SM CLR 25/16 A2982 1110 55 2600 350/08 RMK AO2
14926KSTC STC20000624112509906/24/00 11:25:31  5-MIN KSTC 241725Z AUTO 31008KT 10SM CLR 24/16 A2982 1120 57 2500 310/08 RMK AO2
14926KSTC STC20000624113009906/24/00 11:30:31  5-MIN KSTC 241730Z AUTO 35010KT 10SM CLR 24/16 A2982 1120 57 2500 350/10 RMK AO2
14926KSTC STC20000624113509906/24/00 11:35:31  5-MIN KSTC 241735Z AUTO 33008KT 10SM CLR 24/16 A2982 1120 59 2500 320/08 RMK AO2
14926KSTC STC20000624114009906/24/00 11:40:31  5-MIN KSTC 241740Z AUTO 35008KT 10SM CLR 24/16 A2983 1110 59 2500 350/08 RMK AO2
14926KSTC STC20000624114511506/24/00 11:45:31  5-MIN KSTC 241745Z AUTO 34008KT 300V010 10SM CLR 25/16 A2983 1110 55 2600 330/08 300V010 RMK AO2
14926KSTC STC20000624115013406/24/00 11:50:31  5-MIN KSTC 241750Z AUTO 33006KT 10SM CLR 24/16 A2983 1110 59 2500 330/06 RMK AO2 SLP103 T02440161 10250 20183 50004
14926KSTC STC20000624115509906/24/00 11:55:31  5-MIN KSTC 241755Z AUTO 01006KT 10SM CLR 25/16 A2982 1120 55 2600 010/06 RMK AO2
14926KSTC STC20000624120010206/24/00 12:00:31  5-MIN KSTC 241800Z AUTO 36007KT 10SM FEW036 25/16 A2982 1120 55 2600 350/07 RMK AO2
14926KSTC STC20000624120510206/24/00 12:05:31  5-MIN KSTC 241805Z AUTO VRB05KT 10SM FEW036 25/16 A2982 1120 57 2600 VRB/05 RMK AO2
14926KSTC STC20000624121009906/24/00 12:10:31  5-MIN KSTC 241810Z AUTO 31008KT 10SM CLR 25/16 A2982 1120 55 2600 310/08 RMK AO2
14926KSTC STC20000624121509906/24/00 12:15:31  5-MIN KSTC 241815Z AUTO 36006KT 10SM CLR 25/15 A2982 1120 53 2600 360/06 RMK AO2
14926KSTC STC20000624122009906/24/00 12:20:31  5-MIN KSTC 241820Z AUTO 31009KT 10SM CLR 25/16 A2982 1120 55 2600 310/09 RMK AO2
14926KSTC STC20000624122509906/24/00 12:25:31  5-MIN KSTC 241825Z AUTO 34006KT 10SM CLR 25/15 A2982 1120 53 2600 340/06 RMK AO2
14926KSTC STC20000624123009906/24/00 12:30:31  5-MIN KSTC 241830Z AUTO 33007KT 10SM CLR 26/16 A2982 1120 53 2600 320/07 RMK AO2
14926KSTC STC20000624123509906/24/00 12:35:31  5-MIN KSTC 241835Z AUTO 33008KT 10SM CLR 26/15 A2982 1120 51 2600 330/08 RMK AO2
14926KSTC STC20000624124009906/24/00 12:40:31  5-MIN KSTC 241840Z AUTO 34008KT 10SM CLR 26/15 A2982 1120 51 2600 340/08 RMK AO2
14926KSTC STC20000624124509906/24/00 12:45:31  5-MIN KSTC 241845Z AUTO 31011KT 10SM CLR 26/14 A2982 1120 48 2700 300/11 RMK AO2
14926KSTC STC20000624125011906/24/00 12:50:31  5-MIN KSTC 241850Z AUTO 32008KT 10SM FEW046 26/14 A2982 1120 48 2700 320/08 RMK AO2 SLP101 T02610144
14926KSTC STC20000624125510206/24/00 12:55:31  5-MIN KSTC 241855Z AUTO VRB06KT 10SM FEW046 26/14 A2982 1120 49 2600 VRB/06 RMK AO2
14926KSTC STC20000624130012406/24/00 13:00:31  5-MIN KSTC 241900Z AUTO 31009G15KT 270V350 10SM FEW046 26/14 A2982 1120 48 2700 310/09G15 270V350 RMK AO2
14926KSTC STC20000624130510806/24/00 13:05:31  5-MIN KSTC 241905Z AUTO 33006G15KT 10SM FEW046 26/14 A2982 1120 46 2700 320/06G15 RMK AO2
14926KSTC STC20000624131011806/24/00 13:10:31  5-MIN KSTC 241910Z AUTO 31007KT 260V330 10SM FEW046 26/14 A2982 1110 48 2700 300/07 260V330 RMK AO2
14926KSTC STC20000624141511806/24/00 14:15:31  5-MIN KSTC 242015Z AUTO 33008KT 280V360 10SM FEW060 27/14 A2983 1110 45 2700 330/08 280V360 RMK AO2
14926KSTC STC20000624142010806/24/00 14:20:31  5-MIN KSTC 242020Z AUTO 31012G15KT 10SM FEW060 27/13 A2983 1110 43 2700 310/12G15 RMK AO2
14926KSTC STC20000624142510206/24/00 14:25:31  5-MIN KSTC 242025Z AUTO 30011KT 10SM FEW055 27/13 A2983 1110 43 2700 300/11 RMK AO2
14926KSTC STC20000624143010206/24/00 14:30:31  5-MIN KSTC 242030Z AUTO 33008KT 10SM FEW060 27/13 A2983 1110 41 2700 320/08 RMK AO2
14926KSTC STC20000624143510806/24/00 14:35:31  5-MIN KSTC 242035Z AUTO 33013G17KT 10SM FEW060 27/13 A2983 1110 42 2800 330/13G17 RMK AO2
14926KSTC STC20000624144010806/24/00 14:40:31  5-MIN KSTC 242040Z AUTO 31011G17KT 10SM FEW060 27/13 A2983 1110 41 2700 310/11G17 RMK AO2
14926KSTC STC20000624144510206/24/00 14:45:31  5-MIN KSTC 242045Z AUTO 32013KT 10SM FEW060 27/13 A2984 1100 41 2700 320/13 RMK AO2
14926KSTC STC20000624145012506/24/00 14:50:31  5-MIN KSTC 242050Z AUTO 33011KT 10SM FEW060 27/13 A2984 1110 41 2700 330/11 RMK AO2 SLP106 T02670128 51001
14926KSTC STC20000624145510206/24/00 14:55:31  5-MIN KSTC 242055Z AUTO 32013KT 10SM FEW060 27/13 A2983 1110 43 2700 320/13 RMK AO2
14926KSTC STC20000624150010206/24/00 15:00:31  5-MIN KSTC 242100Z AUTO 34012KT 10SM FEW060 27/13 A2983 1110 41 2700 330/12 RMK AO2
14926KSTC STC20000624150510206/24/00 15:05:31  5-MIN KSTC 242105Z AUTO 32012KT 10SM FEW060 26/13 A2983 1110 43 2700 320/12 RMK AO2
14926KSTC STC20000624151010206/24/00 15:10:31  5-MIN KSTC 242110Z AUTO 31012KT 10SM FEW060 27/13 A2983 1110 41 2700 300/12 RMK AO2
14926KSTC STC20000624151510206/24/00 15:15:31  5-MIN KSTC 242115Z AUTO 33009KT 10SM FEW060 27/13 A2983 1110 42 2800 330/09 RMK AO2
14926KSTC STC20000624152009906/24/00 15:20:31  5-MIN KSTC 242120Z AUTO 32007KT 10SM CLR 27/13 A2983 1110 42 2800 320/07 RMK AO2
14926KSTC STC20000624152509906/24/00 15:25:31  5-MIN KSTC 242125Z AUTO 31009KT 10SM CLR 27/13 A2983 1110 41 2700 310/09 RMK AO2
14926KSTC STC20000624153009906/24/00 15:30:31  5-MIN KSTC 242130Z AUTO 34010KT 10SM CLR 26/13 A2983 1110 43 2700 340/10 RMK AO2
14926KSTC STC20000624153509906/24/00 15:35:31  5-MIN KSTC 242135Z AUTO 31011KT 10SM CLR 27/13 A2983 1110 43 2700 310/11 RMK AO2
14926KSTC STC20000624154009906/24/00 15:40:31  5-MIN KSTC 242140Z AUTO 33012KT 10SM CLR 27/13 A2983 1110 41 2700 320/12 RMK AO2
14926KSTC STC20000624154510506/24/00 15:45:31  5-MIN KSTC 242145Z AUTO 31009G16KT 10SM CLR 26/13 A2983 1110 43 2700 310/09G16 RMK AO2
14926KSTC STC20000624155012206/24/00 15:50:31  5-MIN KSTC 242150Z AUTO 31012G16KT 10SM CLR 27/13 A2983 1110 43 2700 310/12G16 RMK AO2 SLP103 T02670133
14926KSTC STC20000624155509906/24/00 15:55:31  5-MIN KSTC 242155Z AUTO 34007KT 10SM CLR 27/14 A2983 1110 45 2700 340/07 RMK AO2
14926KSTC STC20000624160009906/24/00 16:00:31  5-MIN KSTC 242200Z AUTO 33010KT 10SM CLR 27/13 A2983 1110 43 2700 330/10 RMK AO2
14926KSTC STC20000624160509906/24/00 16:05:31  5-MIN KSTC 242205Z AUTO 32009KT 10SM CLR 26/13 A2983 1110 44 2600 320/09 RMK AO2
14926KSTC STC20000624161009906/24/00 16:10:31  5-MIN KSTC 242210Z AUTO VRB06KT 10SM CLR 26/13 A2983 1110 43 2700 VRB/06 RMK AO2
14926KSTC STC20000624161509906/24/00 16:15:31  5-MIN KSTC 242215Z AUTO 31012KT 10SM CLR 27/13 A2983 1110 43 2700 310/12 RMK AO2
14926KSTC STC20000624162009906/24/00 16:20:31  5-MIN KSTC 242220Z AUTO 33008KT 10SM CLR 27/13 A2983 1110 41 2700 320/08 RMK AO2
14926KSTC STC20000624162509906/24/00 16:25:31  5-MIN KSTC 242225Z AUTO 32012KT 10SM CLR 26/12 A2983 1110 41 2700 310/12 RMK AO2
14926KSTC STC20000624163009906/24/00 16:30:31  5-MIN KSTC 242230Z AUTO 31012KT 10SM CLR 26/12 A2984 1110 41 2700 310/12 RMK AO2
14926KSTC STC20000624163509906/24/00 16:35:31  5-MIN KSTC 242235Z AUTO 32011KT 10SM CLR 26/12 A2984 1100 41 2600 320/11 RMK AO2
14926KSTC STC20000624164009906/24/00 16:40:31  5-MIN KSTC 242240Z AUTO 33011KT 10SM CLR 26/11 A2984 1100 40 2600 330/11 RMK AO2
14926KSTC STC20000624164509906/24/00 16:45:31  5-MIN KSTC 242245Z AUTO 33009KT 10SM CLR 26/12 A2984 1100 40 2700 330/09 RMK AO2
14926KSTC STC20000624165011606/24/00 16:50:31  5-MIN KSTC 242250Z AUTO 33011KT 10SM CLR 26/12 A2984 1100 40 2700 330/11 RMK AO2 SLP106 T02610117
14926KSTC STC20000624165509906/24/00 16:55:31  5-MIN KSTC 242255Z AUTO 33009KT 10SM CLR 26/12 A2984 1100 40 2700 330/09 RMK AO2
14926KSTC STC20000624170009906/24/00 17:00:31  5-MIN KSTC 242300Z AUTO 33008KT 10SM CLR 26/12 A2984 1100 41 2600 330/08 RMK AO2
14926KSTC STC20000624170509906/24/00 17:05:31  5-MIN KSTC 242305Z AUTO 32008KT 10SM CLR 26/12 A2984 1100 41 2700 320/08 RMK AO2
14926KSTC STC20000624171010206/24/00 17:10:31  5-MIN KSTC 242310Z AUTO 32010KT 10SM FEW110 26/12 A2984 1100 43 2600 320/10 RMK AO2
14926KSTC STC20000624171510206/24/00 17:15:31  5-MIN KSTC 242315Z AUTO 31009KT 10SM FEW110 25/12 A2984 1100 43 2500 310/09 RMK AO2
14926KSTC STC20000624172010206/24/00 17:20:31  5-MIN KSTC 242320Z AUTO 33007KT 10SM FEW110 26/12 A2984 1100 43 2600 330/07 RMK AO2
14926KSTC STC20000624172510206/24/00 17:25:31  5-MIN KSTC 242325Z AUTO 33007KT 10SM FEW110 26/12 A2984 1100 41 2600 330/07 RMK AO2
14926KSTC STC20000624173010206/24/00 17:30:31  5-MIN KSTC 242330Z AUTO 33010KT 10SM FEW110 26/11 A2984 1100 40 2600 330/10 RMK AO2
14926KSTC STC20000624173510206/24/00 17:35:31  5-MIN KSTC 242335Z AUTO 33010KT 10SM FEW110 24/10 A2984 1100 39 2500 320/10 RMK AO2
14926KSTC STC20000624174010206/24/00 17:40:31  5-MIN KSTC 242340Z AUTO 32009KT 10SM FEW110 24/10 A2984 1100 39 2500 320/09 RMK AO2
14926KSTC STC20000624174510206/24/00 17:45:31  5-MIN KSTC 242345Z AUTO 33008KT 10SM SCT110 24/10 A2985 1100 39 2500 330/08 RMK AO2
14926KSTC STC20000624175013706/24/00 17:50:31  5-MIN KSTC 242350Z AUTO 32009KT 10SM SCT110 25/10 A2985 1090 38 2500 320/09 RMK AO2 SLP111 T02500100 10272 20244 53003
14926KSTC STC20000624175510206/24/00 17:55:31  5-MIN KSTC 242355Z AUTO 33009KT 10SM FEW110 24/09 A2985 1090 38 2500 320/09 RMK AO2
14926KSTC STC20000624180010206/24/00 18:00:31  5-MIN KSTC 250000Z AUTO 32008KT 10SM SCT110 24/10 A2985 1090 41 2400 320/08 RMK AO2
14926KSTC STC20000624180510206/24/00 18:05:31  5-MIN KSTC 250005Z AUTO 32008KT 10SM BKN120 24/10 A2985 1090 41 2400 320/08 RMK AO2
14926KSTC STC20000624181010206/24/00 18:10:31  5-MIN KSTC 250010Z AUTO 32008KT 10SM BKN120 24/10 A2985 1090 41 2400 320/08 RMK AO2
14926KSTC STC20000624181510206/24/00 18:15:31  5-MIN KSTC 250015Z AUTO 32006KT 10SM BKN120 24/10 A2985 1090 41 2400 310/06 RMK AO2
14926KSTC STC20000624182010206/24/00 18:20:31  5-MIN KSTC 250020Z AUTO 31007KT 10SM BKN120 23/11 A2985 1090 45 2300 310/07 RMK AO2
14926KSTC STC20000624182510206/24/00 18:25:31  5-MIN KSTC 250025Z AUTO 31007KT 10SM BKN120 24/11 A2985 1090 42 2500 310/07 RMK AO2
14926KSTC STC20000624183010206/24/00 18:30:31  5-MIN KSTC 250030Z AUTO 31008KT 10SM BKN120 24/12 A2985 1090 44 2500 310/08 RMK AO2
14926KSTC STC20000624183510206/24/00 18:35:31  5-MIN KSTC 250035Z AUTO 31007KT 10SM BKN120 24/12 A2986 1090 44 2500 310/07 RMK AO2
14926KSTC STC20000624184010206/24/00 18:40:31  5-MIN KSTC 250040Z AUTO 31007KT 10SM BKN120 24/12 A2986 1090 46 2500 310/07 RMK AO2
14926KSTC STC20000624184510206/24/00 18:45:31  5-MIN KSTC 250045Z AUTO 31006KT 10SM BKN120 24/13 A2986 1080 49 2400 310/06 RMK AO2
14926KSTC STC20000624185011906/24/00 18:50:31  5-MIN KSTC 250050Z AUTO 31007KT 10SM BKN120 24/12 A2986 1080 47 2400 310/07 RMK AO2 SLP115 T02390122
14926KSTC STC20000624185510206/24/00 18:55:31  5-MIN KSTC 250055Z AUTO 31008KT 10SM SCT120 23/12 A2986 1080 49 2300 310/08 RMK AO2
14926KSTC STC20000624190010206/24/00 19:00:31  5-MIN KSTC 250100Z AUTO 31007KT 10SM FEW120 23/12 A2986 1080 49 2300 310/07 RMK AO2
14926KSTC STC20000624190510206/24/00 19:05:31  5-MIN KSTC 250105Z AUTO 32006KT 10SM FEW120 23/12 A2986 1080 51 2300 310/06 RMK AO2
14926KSTC STC20000624191010206/24/00 19:10:31  5-MIN KSTC 250110Z AUTO 32006KT 10SM FEW120 23/13 A2986 1080 53 2300 320/06 RMK AO2
14926KSTC STC20000624191509906/24/00 19:15:31  5-MIN KSTC 250115Z AUTO 31006KT 10SM CLR 23/13 A2986 1080 53 2300 310/06 RMK AO2
14926KSTC STC20000624192009906/24/00 19:20:31  5-MIN KSTC 250120Z AUTO 32005KT 10SM CLR 22/13 A2986 1080 54 2200 310/05 RMK AO2
14926KSTC STC20000624192509906/24/00 19:25:31  5-MIN KSTC 250125Z AUTO 32005KT 10SM CLR 22/13 A2986 1080 54 2200 320/05 RMK AO2
14926KSTC STC20000624193009906/24/00 19:30:31  5-MIN KSTC 250130Z AUTO 32005KT 10SM CLR 22/13 A2987 1080 56 2100 320/05 RMK AO2
14926KSTC STC20000624193509906/24/00 19:35:31  5-MIN KSTC 250135Z AUTO 32005KT 10SM CLR 22/13 A2987 1080 56 2100 320/05 RMK AO2
14926KSTC STC20000624194009906/24/00 19:40:31  5-MIN KSTC 250140Z AUTO 32005KT 10SM CLR 22/12 A2987 1080 54 2100 320/05 RMK AO2
14926KSTC STC20000624194509906/24/00 19:45:31  5-MIN KSTC 250145Z AUTO 32004KT 10SM CLR 21/13 A2987 1080 58 2100 310/04 RMK AO2
14926KSTC STC20000624195011606/24/00 19:50:31  5-MIN KSTC 250150Z AUTO 31005KT 10SM CLR 21/13 A2987 1070 63 2000 310/05 RMK AO2 SLP118 T02060133
14926KSTC STC20000624195509906/24/00 19:55:31  5-MIN KSTC 250155Z AUTO 31005KT 10SM CLR 21/13 A2987 1070 60 2000 300/05 RMK AO2
14926KSTC STC20000624200009906/24/00 20:00:31  5-MIN KSTC 250200Z AUTO 31006KT 10SM CLR 20/13 A2987 1070 63 1900 310/06 RMK AO2
14926KSTC STC20000624200509906/24/00 20:05:31  5-MIN KSTC 250205Z AUTO 32005KT 10SM CLR 20/13 A2987 1070 63 1900 310/05 RMK AO2
14926KSTC STC20000624201009906/24/00 20:10:31  5-MIN KSTC 250210Z AUTO 32005KT 10SM CLR 20/13 A2987 1070 63 1900 320/05 RMK AO2
14926KSTC STC20000624201509906/24/00 20:15:31  5-MIN KSTC 250215Z AUTO 32004KT 10SM CLR 21/13 A2987 1070 58 2100 320/04 RMK AO2
14926KSTC STC20000624202009906/24/00 20:20:31  5-MIN KSTC 250220Z AUTO 32004KT 10SM CLR 20/12 A2987 1070 58 1900 320/04 RMK AO2
14926KSTC STC20000624202509906/24/00 20:25:31  5-MIN KSTC 250225Z AUTO 31005KT 10SM CLR 20/12 A2987 1070 58 1900 310/05 RMK AO2
14926KSTC STC20000624203009906/24/00 20:30:31  5-MIN KSTC 250230Z AUTO 31005KT 10SM CLR 19/12 A2987 1070 62 1900 300/05 RMK AO2
14926KSTC STC20000624203509906/24/00 20:35:31  5-MIN KSTC 250235Z AUTO 31005KT 10SM CLR 19/12 A2988 1070 65 1800 310/05 RMK AO2
14926KSTC STC20000624204009906/24/00 20:40:31  5-MIN KSTC 250240Z AUTO 31005KT 10SM CLR 19/12 A2988 1060 62 1800 310/05 RMK AO2
14926KSTC STC20000624204509906/24/00 20:45:31  5-MIN KSTC 250245Z AUTO 31005KT 10SM CLR 18/12 A2988 1060 67 1700 300/05 RMK AO2
14926KSTC STC20000624205012206/24/00 20:50:31  5-MIN KSTC 250250Z AUTO 30005KT 10SM CLR 18/12 A2988 1060 67 1700 300/05 RMK AO2 SLP124 T01780117 53004
14926KSTC STC20000624205509906/24/00 20:55:31  5-MIN KSTC 250255Z AUTO 30004KT 10SM CLR 18/12 A2988 1060 67 1700 300/04 RMK AO2
14926KSTC STC20000624210009906/24/00 21:00:31  5-MIN KSTC 250300Z AUTO 31004KT 10SM CLR 18/12 A2988 1060 67 1700 300/04 RMK AO2
14926KSTC STC20000624210509906/24/00 21:05:31  5-MIN KSTC 250305Z AUTO 30004KT 10SM CLR 18/12 A2988 1060 65 1700 290/04 RMK AO2
14926KSTC STC20000624211009906/24/00 21:10:31  5-MIN KSTC 250310Z AUTO 29003KT 10SM CLR 18/12 A2988 1060 69 1700 290/03 RMK AO2
14926KSTC STC20000624211509906/24/00 21:15:31  5-MIN KSTC 250315Z AUTO 29004KT 10SM CLR 18/12 A2989 1060 67 1700 290/04 RMK AO2
14926KSTC STC20000624212009906/24/00 21:20:31  5-MIN KSTC 250320Z AUTO 29005KT 10SM CLR 17/12 A2989 1060 72 1600 290/05 RMK AO2
14926KSTC STC20000624212509906/24/00 21:25:31  5-MIN KSTC 250325Z AUTO 29006KT 10SM CLR 17/12 A2989 1050 75 1500 290/06 RMK AO2
14926KSTC STC20000624213009906/24/00 21:30:31  5-MIN KSTC 250330Z AUTO 29005KT 10SM CLR 17/13 A2989 1050 77 1500 290/05 RMK AO2
14926KSTC STC20000624213509906/24/00 21:35:31  5-MIN KSTC 250335Z AUTO 30005KT 10SM CLR 16/12 A2990 1050 77 1500 290/05 RMK AO2
14926KSTC STC20000624214009906/24/00 21:40:31  5-MIN KSTC 250340Z AUTO 30007KT 10SM CLR 16/12 A2990 1050 77 1500 300/07 RMK AO2
14926KSTC STC20000624214509906/24/00 21:45:31  5-MIN KSTC 250345Z AUTO 30007KT 10SM CLR 16/12 A2990 1050 77 1500 300/07 RMK AO2
14926KSTC STC20000624215011606/24/00 21:50:31  5-MIN KSTC 250350Z AUTO 30006KT 10SM CLR 17/12 A2990 1050 75 1500 300/06 RMK AO2 SLP128 T01670122
14926KSTC STC20000624215509906/24/00 21:55:31  5-MIN KSTC 250355Z AUTO 31006KT 10SM CLR 16/12 A2990 1050 77 1500 310/06 RMK AO2
14926KSTC STC20000624220009906/24/00 22:00:31  5-MIN KSTC 250400Z AUTO 31006KT 10SM CLR 17/12 A2990 1050 69 1600 310/06 RMK AO2
14926KSTC STC20000624220509906/24/00 22:05:31  5-MIN KSTC 250405Z AUTO 31006KT 10SM CLR 17/12 A2990 1050 69 1600 310/06 RMK AO2
14926KSTC STC20000624221009906/24/00 22:10:31  5-MIN KSTC 250410Z AUTO 32005KT 10SM CLR 17/12 A2989 1050 72 1500 320/05 RMK AO2
14926KSTC STC20000624221509906/24/00 22:15:31  5-MIN KSTC 250415Z AUTO 33004KT 10SM CLR 17/12 A2990 1050 69 1600 320/04 RMK AO2
14926KSTC STC20000624222009906/24/00 22:20:31  5-MIN KSTC 250420Z AUTO 32004KT 10SM CLR 17/12 A2990 1050 72 1600 320/04 RMK AO2
14926KSTC STC20000624222509906/24/00 22:25:31  5-MIN KSTC 250425Z AUTO 32004KT 10SM CLR 17/12 A2990 1050 75 1500 320/04 RMK AO2
14926KSTC STC20000624223009906/24/00 22:30:31  5-MIN KSTC 250430Z AUTO 33004KT 10SM CLR 17/12 A2990 1050 75 1500 320/04 RMK AO2
14926KSTC STC20000624223509906/24/00 22:35:31  5-MIN KSTC 250435Z AUTO 32004KT 10SM CLR 16/12 A2990 1050 77 1500 310/04 RMK AO2
14926KSTC STC20000624224009906/24/00 22:40:31  5-MIN KSTC 250440Z AUTO 31005KT 10SM CLR 16/12 A2990 1040 75 1500 310/05 RMK AO2
14926KSTC STC20000624224509906/24/00 22:45:31  5-MIN KSTC 250445Z AUTO 31006KT 10SM CLR 16/12 A2990 1040 75 1500 310/06 RMK AO2
14926KSTC STC20000624225011606/24/00 22:50:31  5-MIN KSTC 250450Z AUTO 32005KT 10SM CLR 16/12 A2990 1040 77 1400 320/05 RMK AO2 SLP131 T01560117
14926KSTC STC20000624225509906/24/00 22:55:31  5-MIN KSTC 250455Z AUTO 34003KT 10SM CLR 16/12 A2990 1040 75 1500 330/03 RMK AO2
14926KSTC STC20000624230009906/24/00 23:00:31  5-MIN KSTC 250500Z AUTO 33005KT 10SM CLR 16/12 A2990 1040 77 1400 330/05 RMK AO2
14926KSTC STC20000624230509906/24/00 23:05:31  5-MIN KSTC 250505Z AUTO 34004KT 10SM CLR 16/12 A2990 1040 77 1400 340/04 RMK AO2
14926KSTC STC20000624231009906/24/00 23:10:31  5-MIN KSTC 250510Z AUTO 33003KT 10SM CLR 16/12 A2990 1040 77 1400 320/03 RMK AO2
14926KSTC STC20000624231509906/24/00 23:15:31  5-MIN KSTC 250515Z AUTO 32003KT 10SM CLR 16/12 A2990 1040 77 1400 320/03 RMK AO2
14926KSTC STC20000624232009906/24/00 23:20:31  5-MIN KSTC 250520Z AUTO 00000KT 10SM CLR 15/12 A2990 1040 80 1300 000/00 RMK AO2
14926KSTC STC20000624232509906/24/00 23:25:31  5-MIN KSTC 250525Z AUTO 00000KT 10SM CLR 15/11 A2990 1040 77 1300 000/00 RMK AO2
14926KSTC STC20000624233009906/24/00 23:30:31  5-MIN KSTC 250530Z AUTO 00000KT 10SM CLR 16/11 A2990 1040 74 1400 000/00 RMK AO2
14926KSTC STC20000624233509906/24/00 23:35:31  5-MIN KSTC 250535Z AUTO 00000KT 10SM CLR 16/11 A2990 1040 74 1400 000/00 RMK AO2
14926KSTC STC20000624234009906/24/00 23:40:31  5-MIN KSTC 250540Z AUTO 00000KT 10SM CLR 14/12 A2991 1040 83 1300 000/00 RMK AO2
14926KSTC STC20000624234509906/24/00 23:45:31  5-MIN KSTC 250545Z AUTO 00000KT 10SM CLR 15/11 A2991 1040 77 1300 000/00 RMK AO2
14926KSTC STC20000624235014406/24/00 23:50:31  5-MIN KSTC 250550Z AUTO 00000KT 10SM CLR 14/11 A2991 1040 80 1300 000/00 RMK AO2 SLP132 T01440111 10244 20144 402720144 53012
14926KSTC STC20000624235509906/24/00 23:55:31  5-MIN KSTC 250555Z AUTO 00000KT 10SM CLR 14/11 A2991 1040 80 1300 000/00 RMK AO2
14926KSTC STC20000625000009906/25/00 00:00:31  5-MIN KSTC 250600Z AUTO 31003KT 10SM CLR 15/11 A2991 1040 77 1300 310/03 RMK AO2
14926KSTC STC20000625000509906/25/00 00:05:31  5-MIN KSTC 250605Z AUTO 00000KT 10SM CLR 14/11 A2991 1040 83 1200 000/00 RMK AO2
14926KSTC STC20000625001009906/25/00 00:10:31  5-MIN KSTC 250610Z AUTO 00000KT 10SM CLR 14/11 A2991 1040 80 1300 000/00 RMK AO2
14926KSTC STC20000625001509906/25/00 00:15:31  5-MIN KSTC 250615Z AUTO 00000KT 10SM CLR 14/11 A2991 1040 83 1200 000/00 RMK AO2
14926KSTC STC20000625002009906/25/00 00:20:31  5-MIN KSTC 250620Z AUTO 00000KT 10SM CLR 13/11 A2991 1040 86 1100 000/00 RMK AO2
14926KSTC STC20000625002509906/25/00 00:25:31  5-MIN KSTC 250625Z AUTO 00000KT 10SM CLR 13/11 A2991 1040 86 1100 000/00 RMK AO2
14926KSTC STC20000625003009906/25/00 00:30:31  5-MIN KSTC 250630Z AUTO 00000KT 10SM CLR 14/11 A2991 1040 83 1200 000/00 RMK AO2
14926KSTC STC20000625003509906/25/00 00:35:31  5-MIN KSTC 250635Z AUTO 00000KT 10SM CLR 14/11 A2991 1030 80 1200 000/00 RMK AO2
14926KSTC STC20000625004009906/25/00 00:40:31  5-MIN KSTC 250640Z AUTO 00000KT 10SM CLR 14/11 A2991 1030 80 1200 000/00 RMK AO2
14926KSTC STC20000625004509906/25/00 00:45:31  5-MIN KSTC 250645Z AUTO 35003KT 10SM CLR 14/11 A2991 1030 80 1200 350/03 RMK AO2
14926KSTC STC20000625005011606/25/00 00:50:31  5-MIN KSTC 250650Z AUTO 01003KT 10SM CLR 13/11 A2991 1030 86 1100 360/03 RMK AO2 SLP134 T01330111
14926KSTC STC20000625005509906/25/00 00:55:31  5-MIN KSTC 250655Z AUTO 36003KT 10SM CLR 13/11 A2992 1030 89 1000 360/03 RMK AO2
14926KSTC STC20000625010009906/25/00 01:00:31  5-MIN KSTC 250700Z AUTO 36003KT 10SM CLR 13/11 A2991 1030 86 1100 360/03 RMK AO2
14926KSTC STC20000625010509906/25/00 01:05:31  5-MIN KSTC 250705Z AUTO VRB03KT 10SM CLR 13/11 A2991 1030 89 1100 VRB/03 RMK AO2
14926KSTC STC20000625011009906/25/00 01:10:31  5-MIN KSTC 250710Z AUTO 35003KT 10SM CLR 13/11 A2992 1030 86 1100 350/03 RMK AO2
14926KSTC STC20000625011509906/25/00 01:15:31  5-MIN KSTC 250715Z AUTO 00000KT 10SM CLR 13/11 A2992 1030 89 1000 000/00 RMK AO2
14926KSTC STC20000625012009906/25/00 01:20:31  5-MIN KSTC 250720Z AUTO 00000KT 10SM CLR 12/11 A2992 1030 89 1000 000/00 RMK AO2
14926KSTC STC20000625012509806/25/00 01:25:31  5-MIN KSTC 250725Z AUTO 34003KT 10SM CLR 12/11 A2992 1020 93 900 340/03 RMK AO2
14926KSTC STC20000625013009806/25/00 01:30:31  5-MIN KSTC 250730Z AUTO 35003KT 10SM CLR 12/11 A2992 1020 93 900 340/03 RMK AO2
14926KSTC STC20000625013509806/25/00 01:35:31  5-MIN KSTC 250735Z AUTO 35003KT 10SM CLR 12/11 A2992 1030 93 900 350/03 RMK AO2
14926KSTC STC20000625014009806/25/00 01:40:31  5-MIN KSTC 250740Z AUTO 00000KT 10SM CLR 12/11 A2992 1020 93 900 000/00 RMK AO2
14926KSTC STC20000625014509906/25/00 01:45:31  5-MIN KSTC 250745Z AUTO 00000KT 10SM CLR 12/11 A2992 1020 89 1000 000/00 RMK AO2
14926KSTC STC20000625015011606/25/00 01:50:31  5-MIN KSTC 250750Z AUTO 00000KT 10SM CLR 12/11 A2993 1020 93 1000 000/00 RMK AO2 SLP139 T01220111
14926KSTC STC20000625015509906/25/00 01:55:31  5-MIN KSTC 250755Z AUTO 00000KT 10SM CLR 13/11 A2993 1020 89 1000 000/00 RMK AO2
14926KSTC STC20000625020009906/25/00 02:00:31  5-MIN KSTC 250800Z AUTO 00000KT 10SM CLR 12/11 A2993 1020 93 1000 000/00 RMK AO2
14926KSTC STC20000625020509906/25/00 02:05:31  5-MIN KSTC 250805Z AUTO 00000KT 10SM CLR 12/10 A2993 1020 86 1000 000/00 RMK AO2
14926KSTC STC20000625021009806/25/00 02:10:31  5-MIN KSTC 250810Z AUTO 00000KT 10SM CLR 12/10 A2993 1020 89 900 000/00 RMK AO2
14926KSTC STC20000625021509806/25/00 02:15:31  5-MIN KSTC 250815Z AUTO 30003KT 10SM CLR 12/10 A2993 1020 89 900 300/03 RMK AO2
14926KSTC STC20000625022009806/25/00 02:20:31  5-MIN KSTC 250820Z AUTO 00000KT 10SM CLR 12/10 A2993 1020 89 900 000/00 RMK AO2
14926KSTC STC20000625022509806/25/00 02:25:31  5-MIN KSTC 250825Z AUTO 30003KT 10SM CLR 11/10 A2993 1020 93 800 300/03 RMK AO2
14926KSTC STC20000625023009806/25/00 02:30:31  5-MIN KSTC 250830Z AUTO 30003KT 10SM CLR 11/10 A2993 1020 93 800 300/03 RMK AO2
14926KSTC STC20000625023509806/25/00 02:35:31  5-MIN KSTC 250835Z AUTO 00000KT 10SM CLR 11/10 A2993 1020 93 800 000/00 RMK AO2
14926KSTC STC20000625024009806/25/00 02:40:31  5-MIN KSTC 250840Z AUTO 00000KT 10SM CLR 12/10 A2993 1020 89 900 000/00 RMK AO2
14926KSTC STC20000625024509806/25/00 02:45:31  5-MIN KSTC 250845Z AUTO 00000KT 10SM CLR 11/10 A2993 1020 93 800 000/00 RMK AO2
14926KSTC STC20000625025012106/25/00 02:50:31  5-MIN KSTC 250850Z AUTO 00000KT 10SM CLR 12/10 A2993 1020 89 900 000/00 RMK AO2 SLP138 T01170100 51008
14926KSTC STC20000625025509806/25/00 02:55:31  5-MIN KSTC 250855Z AUTO 00000KT 10SM CLR 11/09 A2992 1020 93 800 000/00 RMK AO2
14926KSTC STC20000625030009806/25/00 03:00:31  5-MIN KSTC 250900Z AUTO 00000KT 10SM CLR 11/09 A2993 1020 93 800 000/00 RMK AO2
14926KSTC STC20000625030509806/25/00 03:05:31  5-MIN KSTC 250905Z AUTO 00000KT 10SM CLR 11/10 A2993 1020 96 800 000/00 RMK AO2
14926KSTC STC20000625031009806/25/00 03:10:31  5-MIN KSTC 250910Z AUTO 00000KT 10SM CLR 11/10 A2993 1020 93 800 000/00 RMK AO2
14926KSTC STC20000625031509806/25/00 03:15:31  5-MIN KSTC 250915Z AUTO 00000KT 10SM CLR 11/10 A2993 1020 93 800 000/00 RMK AO2
14926KSTC STC20000625032009806/25/00 03:20:31  5-MIN KSTC 250920Z AUTO 00000KT 10SM CLR 11/10 A2993 1020 93 800 000/00 RMK AO2
14926KSTC STC20000625032509806/25/00 03:25:31  5-MIN KSTC 250925Z AUTO 00000KT 10SM CLR 10/09 A2993 1020 96 700 000/00 RMK AO2
14926KSTC STC20000625033009806/25/00 03:30:31  5-MIN KSTC 250930Z AUTO 00000KT 10SM CLR 10/09 A2993 1020 96 700 000/00 RMK AO2
14926KSTC STC20000625033509806/25/00 03:35:31  5-MIN KSTC 250935Z AUTO 00000KT 10SM CLR 10/09 A2993 1020 96 700 000/00 RMK AO2
14926KSTC STC20000625034009806/25/00 03:40:31  5-MIN KSTC 250940Z AUTO 00000KT 10SM CLR 11/10 A2993 1020 96 800 000/00 RMK AO2
14926KSTC STC20000625034509806/25/00 03:45:31  5-MIN KSTC 250945Z AUTO 00000KT 10SM CLR 11/10 A2993 1020 96 800 000/00 RMK AO2
14926KSTC STC20000625035011506/25/00 03:50:31  5-MIN KSTC 250950Z AUTO 00000KT 10SM CLR 11/10 A2993 1020 96 800 000/00 RMK AO2 SLP142 T01060100
14926KSTC STC20000625035509706/25/00 03:55:31  5-MIN KSTC 250955Z AUTO 00000KT 9SM CLR 11/10 A2993 1020 96 800 000/00 RMK AO2
14926KSTC STC20000625040009706/25/00 04:00:31  5-MIN KSTC 251000Z AUTO 00000KT 9SM CLR 11/10 A2993 1020 96 800 000/00 RMK AO2
14926KSTC STC20000625040509806/25/00 04:05:31  5-MIN KSTC 251005Z AUTO 00000KT 10SM CLR 11/10 A2993 1010 96 800 000/00 RMK AO2
14926KSTC STC20000625041009806/25/00 04:10:31  5-MIN KSTC 251010Z AUTO 00000KT 10SM CLR 11/10 A2993 1010 96 800 000/00 RMK AO2
14926KSTC STC20000625041509806/25/00 04:15:31  5-MIN KSTC 251015Z AUTO 00000KT 10SM CLR 11/09 A2993 1010 93 800 000/00 RMK AO2
14926KSTC STC20000625042009806/25/00 04:20:31  5-MIN KSTC 251020Z AUTO 00000KT 10SM CLR 11/09 A2993 1010 93 800 000/00 RMK AO2
14926KSTC STC20000625042509806/25/00 04:25:31  5-MIN KSTC 251025Z AUTO 00000KT 10SM CLR 11/09 A2993 1010 93 800 000/00 RMK AO2
14926KSTC STC20000625043009806/25/00 04:30:31  5-MIN KSTC 251030Z AUTO 00000KT 10SM CLR 11/09 A2993 1010 93 800 000/00 RMK AO2
14926KSTC STC20000625043509806/25/00 04:35:31  5-MIN KSTC 251035Z AUTO 00000KT 10SM CLR 10/09 A2994 1010 96 700 000/00 RMK AO2
14926KSTC STC20000625044009806/25/00 04:40:31  5-MIN KSTC 251040Z AUTO 00000KT 10SM CLR 10/09 A2993 1010 96 700 000/00 RMK AO2
14926KSTC STC20000625044509806/25/00 04:45:31  5-MIN KSTC 251045Z AUTO 00000KT 10SM CLR 11/09 A2994 1010 93 800 000/00 RMK AO2
14926KSTC STC20000625045011506/25/00 04:50:31  5-MIN KSTC 251050Z AUTO 00000KT 10SM CLR 11/09 A2994 1010 93 800 000/00 RMK AO2 SLP143 T01060094
14926KSTC STC20000625045509806/25/00 04:55:31  5-MIN KSTC 251055Z AUTO 00000KT 10SM CLR 11/09 A2994 1010 93 800 000/00 RMK AO2
14926KSTC STC20000625050009806/25/00 05:00:31  5-MIN KSTC 251100Z AUTO 00000KT 10SM CLR 10/09 A2994 1010 96 700 000/00 RMK AO2
14926KSTC STC20000625050509806/25/00 05:05:31  5-MIN KSTC 251105Z AUTO 00000KT 10SM CLR 11/09 A2994 1010 93 800 000/00 RMK AO2
14926KSTC STC20000625051009706/25/00 05:10:31  5-MIN KSTC 251110Z AUTO 00000KT 9SM CLR 11/10 A2994 1010 96 800 000/00 RMK AO2
14926KSTC STC20000625051509706/25/00 05:15:31  5-MIN KSTC 251115Z AUTO 01003KT 7SM CLR 11/10 A2994 1010 96 800 010/03 RMK AO2
14926KSTC STC20000625052009706/25/00 05:20:31  5-MIN KSTC 251120Z AUTO 01003KT 8SM CLR 11/10 A2993 1010 96 800 010/03 RMK AO2
14926KSTC STC20000625052509706/25/00 05:25:31  5-MIN KSTC 251125Z AUTO 00000KT 9SM CLR 12/11 A2993 1020 93 900 000/00 RMK AO2
14926KSTC STC20000625053009906/25/00 05:30:31  5-MIN KSTC 251130Z AUTO 00000KT 10SM CLR 12/11 A2993 1020 93 1000 000/00 RMK AO2
14926KSTC STC20000625053509906/25/00 05:35:31  5-MIN KSTC 251135Z AUTO 00000KT 10SM CLR 13/11 A2993 1010 89 1000 000/00 RMK AO2
14926KSTC STC20000625054009906/25/00 05:40:31  5-MIN KSTC 251140Z AUTO 00000KT 10SM CLR 13/12 A2993 1020 89 1100 000/00 RMK AO2
14926KSTC STC20000625054509906/25/00 05:45:31  5-MIN KSTC 251145Z AUTO 00000KT 10SM CLR 14/12 A2993 1010 86 1200 000/00 RMK AO2
14926KSTC STC20000625055013406/25/00 05:50:31  5-MIN KSTC 251150Z AUTO 00000KT 10SM CLR 14/12 A2994 1010 86 1200 000/00 RMK AO2 SLP142 T01440122 10150 20100 50005
14926KSTC STC20000625055509906/25/00 05:55:31  5-MIN KSTC 251155Z AUTO 00000KT 10SM CLR 14/12 A2994 1010 86 1200 000/00 RMK AO2
14926KSTC STC20000625060009906/25/00 06:00:31  5-MIN KSTC 251200Z AUTO 00000KT 10SM CLR 14/12 A2993 1010 83 1200 000/00 RMK AO2
14926KSTC STC20000625060509906/25/00 06:05:31  5-MIN KSTC 251205Z AUTO 00000KT 10SM CLR 14/12 A2994 1010 86 1200 000/00 RMK AO2
14926KSTC STC20000625061009906/25/00 06:10:31  5-MIN KSTC 251210Z AUTO 00000KT 10SM CLR 15/13 A2993 1020 86 1300 000/00 RMK AO2
14926KSTC STC20000625061509906/25/00 06:15:31  5-MIN KSTC 251215Z AUTO 00000KT 10SM CLR 15/13 A2993 1020 86 1300 000/00 RMK AO2
14926KSTC STC20000625062009906/25/00 06:20:31  5-MIN KSTC 251220Z AUTO 16003KT 10SM CLR 15/13 A2993 1020 90 1300 150/03 RMK AO2
14926KSTC STC20000625062509906/25/00 06:25:31  5-MIN KSTC 251225Z AUTO 00000KT 10SM CLR 15/13 A2993 1020 86 1300 000/00 RMK AO2
14926KSTC STC20000625063009906/25/00 06:30:31  5-MIN KSTC 251230Z AUTO 00000KT 10SM CLR 15/13 A2993 1020 86 1300 000/00 RMK AO2
14926KSTC STC20000625063509906/25/00 06:35:31  5-MIN KSTC 251235Z AUTO 15003KT 10SM CLR 16/13 A2993 1020 83 1400 150/03 RMK AO2
14926KSTC STC20000625064009906/25/00 06:40:31  5-MIN KSTC 251240Z AUTO 17003KT 10SM CLR 16/13 A2993 1020 86 1400 170/03 RMK AO2
14926KSTC STC20000625064510206/25/00 06:45:31  5-MIN KSTC 251245Z AUTO 00000KT 10SM FEW120 16/13 A2993 1020 86 1400 000/00 RMK AO2
14926KSTC STC20000625065011906/25/00 06:50:31  5-MIN KSTC 251250Z AUTO 16003KT 10SM SCT120 16/13 A2993 1020 83 1400 160/03 RMK AO2 SLP141 T01560128
14926KSTC STC20000625065510206/25/00 06:55:31  5-MIN KSTC 251255Z AUTO 17003KT 10SM BKN120 16/13 A2993 1010 83 1400 170/03 RMK AO2
14926KSTC STC20000625070010206/25/00 07:00:31  5-MIN KSTC 251300Z AUTO 17003KT 10SM BKN120 16/13 A2993 1020 80 1400 160/03 RMK AO2
14926KSTC STC20000625070510206/25/00 07:05:31  5-MIN KSTC 251305Z AUTO 14004KT 10SM SCT120 17/13 A2993 1020 77 1500 140/04 RMK AO2
14926KSTC STC20000625071010206/25/00 07:10:31  5-MIN KSTC 251310Z AUTO 15005KT 10SM SCT120 17/12 A2993 1020 69 1600 150/05 RMK AO2
14926KSTC STC20000625071510206/25/00 07:15:31  5-MIN KSTC 251315Z AUTO 14004KT 10SM SCT120 17/12 A2993 1020 72 1600 140/04 RMK AO2
14926KSTC STC20000625072010206/25/00 07:20:31  5-MIN KSTC 251320Z AUTO 14005KT 10SM FEW120 18/12 A2992 1020 69 1600 140/05 RMK AO2
14926KSTC STC20000625072509906/25/00 07:25:31  5-MIN KSTC 251325Z AUTO 14004KT 10SM CLR 18/12 A2992 1030 67 1700 140/04 RMK AO2
14926KSTC STC20000625073009906/25/00 07:30:31  5-MIN KSTC 251330Z AUTO VRB03KT 10SM CLR 18/12 A2992 1030 67 1700 VRB/03 RMK AO2
14926KSTC STC20000625073509906/25/00 07:35:31  5-MIN KSTC 251335Z AUTO 10004KT 10SM CLR 19/12 A2992 1030 65 1800 090/04 RMK AO2
14926KSTC STC20000625074009906/25/00 07:40:31  5-MIN KSTC 251340Z AUTO 11004KT 10SM CLR 19/12 A2991 1030 62 1800 110/04 RMK AO2
14926KSTC STC20000625074509906/25/00 07:45:31  5-MIN KSTC 251345Z AUTO 14005KT 10SM CLR 20/12 A2991 1030 58 1900 140/05 RMK AO2
14926KSTC STC20000625075011606/25/00 07:50:31  5-MIN KSTC 251350Z AUTO 14006KT 10SM CLR 20/11 A2991 1030 56 1900 130/06 RMK AO2 SLP134 T02000111
14926KSTC STC20000625075509906/25/00 07:55:31  5-MIN KSTC 251355Z AUTO 13006KT 10SM CLR 20/11 A2991 1030 56 1900 130/06 RMK AO2
14926KSTC STC20000625080009906/25/00 08:00:31  5-MIN KSTC 251400Z AUTO 14007KT 10SM CLR 20/11 A2991 1040 56 1900 140/07 RMK AO2
14926KSTC STC20000625080509906/25/00 08:05:31  5-MIN KSTC 251405Z AUTO 14007KT 10SM CLR 21/12 A2992 1030 56 2000 140/07 RMK AO2
14926KSTC STC20000625081010206/25/00 08:10:31  5-MIN KSTC 251410Z AUTO 15008KT 10SM FEW110 21/12 A2992 1020 54 2000 150/08 RMK AO2
14926KSTC STC20000625081510206/25/00 08:15:31  5-MIN KSTC 251415Z AUTO 15006KT 10SM FEW110 21/12 A2992 1030 54 2000 150/06 RMK AO2
14926KSTC STC20000625082009906/25/00 08:20:31  5-MIN KSTC 251420Z AUTO 16010KT 10SM CLR 21/12 A2992 1030 54 2000 150/10 RMK AO2
14926KSTC STC20000625082509906/25/00 08:25:31  5-MIN KSTC 251425Z AUTO 15009KT 10SM CLR 22/12 A2992 1030 52 2100 140/09 RMK AO2
14926KSTC STC20000625083009906/25/00 08:30:31  5-MIN KSTC 251430Z AUTO 13008KT 10SM CLR 22/12 A2992 1030 52 2100 130/08 RMK AO2
14926KSTC STC20000625083510206/25/00 08:35:31  5-MIN KSTC 251435Z AUTO 15008KT 10SM FEW110 22/12 A2992 1030 52 2100 140/08 RMK AO2
14926KSTC STC20000625084009906/25/00 08:40:31  5-MIN KSTC 251440Z AUTO 15008KT 10SM CLR 22/12 A2991 1030 51 2100 150/08 RMK AO2
14926KSTC STC20000625084509906/25/00 08:45:31  5-MIN KSTC 251445Z AUTO 13007KT 10SM CLR 22/12 A2991 1040 51 2200 130/07 RMK AO2
14926KSTC STC20000625085012206/25/00 08:50:31  5-MIN KSTC 251450Z AUTO 14007KT 10SM CLR 22/12 A2991 1040 52 2100 140/07 RMK AO2 SLP132 T02170117 51005
14926KSTC STC20000625085509906/25/00 08:55:31  5-MIN KSTC 251455Z AUTO 14007KT 10SM CLR 22/12 A2990 1040 51 2200 140/07 RMK AO2
14926KSTC STC20000625090009906/25/00 09:00:31  5-MIN KSTC 251500Z AUTO 14007KT 10SM CLR 23/12 A2990 1040 49 2200 140/07 RMK AO2
14926KSTC STC20000625090509906/25/00 09:05:31  5-MIN KSTC 251505Z AUTO 14007KT 10SM CLR 22/11 A2990 1050 49 2200 140/07 RMK AO2
14926KSTC STC20000625091009906/25/00 09:10:31  5-MIN KSTC 251510Z AUTO 16007KT 10SM CLR 23/12 A2990 1040 49 2200 150/07 RMK AO2
14926KSTC STC20000625091509906/25/00 09:15:31  5-MIN KSTC 251515Z AUTO 15007KT 10SM CLR 23/12 A2991 1040 49 2200 150/07 RMK AO2
14926KSTC STC20000625092009906/25/00 09:20:31  5-MIN KSTC 251520Z AUTO 17006KT 10SM CLR 23/11 A2991 1040 47 2200 160/06 RMK AO2
14926KSTC STC20000625092509906/25/00 09:25:31  5-MIN KSTC 251525Z AUTO 17007KT 10SM CLR 23/12 A2992 1030 47 2300 160/07 RMK AO2
14926KSTC STC20000625093009906/25/00 09:30:31  5-MIN KSTC 251530Z AUTO 15009KT 10SM CLR 23/11 A2992 1030 47 2200 140/09 RMK AO2
14926KSTC STC20000625093510606/25/00 09:35:31  5-MIN KSTC 251535Z AUTO 16006KT 10SM CLR 23/11 A2993 1020 45 2300 160/06 RMK AO2 PRESRR
14926KSTC STC20000625094010606/25/00 09:40:31  5-MIN KSTC 251540Z AUTO 17008KT 10SM CLR 23/11 A2994 1010 45 2200 170/08 RMK AO2 PRESRR
14926KSTC STC20000625094509906/25/00 09:45:31  5-MIN KSTC 251545Z AUTO 17006KT 10SM CLR 23/11 A2994 1000 47 2200 170/06 RMK AO2
14926KSTC STC20000625095011906/25/00 09:50:31  5-MIN KSTC 251550Z AUTO 15007KT 10SM FEW060 23/11 A2995 1000 47 2200 140/07 RMK AO2 SLP147 T02280111
14926KSTC STC20000625095510106/25/00 09:55:31  5-MIN KSTC 251555Z AUTO 15006KT 10SM FEW060 23/11 A2996 990 47 2200 140/06 RMK AO2
14926KSTC STC20000625100010106/25/00 10:00:31  5-MIN KSTC 251600Z AUTO 16006KT 10SM SCT065 23/12 A2996 990 51 2200 160/06 RMK AO2
14926KSTC STC20000625100510106/25/00 10:05:31  5-MIN KSTC 251605Z AUTO 17005KT 10SM FEW065 23/12 A2996 990 49 2200 170/05 RMK AO2
14926KSTC STC20000625101010806/25/00 10:10:31  5-MIN KSTC 251610Z AUTO 18005KT 10SM FEW065 SCT100 22/12 A2996 990 51 2100 170/05 RMK AO2
14926KSTC STC20000625101511506/25/00 10:15:31  5-MIN KSTC 251615Z AUTO 17005KT 10SM FEW046 SCT055 SCT070 22/12 A2996 990 52 2100 170/05 RMK AO2
14926KSTC STC20000625102011506/25/00 10:20:31  5-MIN KSTC 251620Z AUTO 16005KT 10SM SCT046 BKN055 BKN070 22/12 A2996 990 52 2100 160/05 RMK AO2
14926KSTC STC20000625102511606/25/00 10:25:31  5-MIN KSTC 251625Z AUTO 16005KT 10SM SCT046 BKN055 BKN065 22/12 A2995 1000 52 2100 160/05 RMK AO2
14926KSTC STC20000625103010906/25/00 10:30:31  5-MIN KSTC 251630Z AUTO 16005KT 10SM BKN046 BKN060 22/13 A2995 1000 54 2100 160/05 RMK AO2
14926KSTC STC20000625103511606/25/00 10:35:31  5-MIN KSTC 251635Z AUTO 15005KT 10SM BKN046 BKN060 BKN080 22/13 A2995 1000 56 2000 150/05 RMK AO2
14926KSTC STC20000625104011606/25/00 10:40:31  5-MIN KSTC 251640Z AUTO 16005KT 10SM SCT046 BKN060 BKN080 22/13 A2995 1000 54 2100 160/05 RMK AO2
14926KSTC STC20000625104511606/25/00 10:45:31  5-MIN KSTC 251645Z AUTO 17005KT 10SM SCT046 SCT060 BKN095 22/13 A2994 1000 54 2100 170/05 RMK AO2
14926KSTC STC20000625105012606/25/00 10:50:31  5-MIN KSTC 251650Z AUTO 16005KT 10SM FEW048 BKN095 22/13 A2994 1010 58 2100 160/05 RMK AO2 SLP145 T02170133
14926KSTC STC20000625105510906/25/00 10:55:31  5-MIN KSTC 251655Z AUTO 16005KT 10SM FEW048 BKN095 22/13 A2994 1010 58 2100 160/05 RMK AO2
14926KSTC STC20000625110010206/25/00 11:00:31  5-MIN KSTC 251700Z AUTO 17005KT 10SM SCT095 22/13 A2994 1010 56 2100 170/05 RMK AO2
14926KSTC STC20000625110510206/25/00 11:05:31  5-MIN KSTC 251705Z AUTO 17007KT 10SM SCT095 22/13 A2994 1010 56 2100 170/07 RMK AO2
14926KSTC STC20000625111010206/25/00 11:10:31  5-MIN KSTC 251710Z AUTO 17006KT 10SM SCT095 22/13 A2994 1010 56 2100 160/06 RMK AO2
14926KSTC STC20000625111510206/25/00 11:15:31  5-MIN KSTC 251715Z AUTO 18007KT 10SM FEW095 22/13 A2994 1010 58 2100 170/07 RMK AO2
14926KSTC STC20000625112010206/25/00 11:20:31  5-MIN KSTC 251720Z AUTO 18006KT 10SM SCT090 22/14 A2994 1010 61 2100 180/06 RMK AO2
14926KSTC STC20000625112510906/25/00 11:25:31  5-MIN KSTC 251725Z AUTO 18008KT 10SM FEW048 BKN090 22/14 A2994 1010 61 2100 180/08 RMK AO2
14926KSTC STC20000625113010906/25/00 11:30:31  5-MIN KSTC 251730Z AUTO 18006KT 10SM SCT048 BKN090 22/14 A2994 1010 61 2100 180/06 RMK AO2
14926KSTC STC20000625113512506/25/00 11:35:31  5-MIN KSTC 251735Z AUTO 18006KT 10SM -RA BKN048 BKN090 21/14 A2993 1010 65 2000 180/06 RMK AO2 RAB34 P0000
14926KSTC STC20000625114012506/25/00 11:40:31  5-MIN KSTC 251740Z AUTO 18006KT 10SM -RA BKN048 BKN090 21/15 A2993 1020 68 2000 170/06 RMK AO2 RAB34 P0000
14926KSTC STC20000625114513906/25/00 11:45:31  5-MIN KSTC 251745Z AUTO 17006KT 10SM -RA FEW026 BKN048 BKN090 22/15 A2992 1030 65 2100 170/06 RMK AO2 RAB34 PRESFR P0000
14926KSTC STC20000625115017306/25/00 11:50:31  5-MIN KSTC 251750Z AUTO 17006KT 10SM -RA FEW015 BKN048 22/16 A2990 1040 68 2100 170/06 RMK AO2 RAB34 PRESFR SLP132 P0000 60000 T02170156 10233 20144 58012
14926KSTC STC20000625115512606/25/00 11:55:31  5-MIN KSTC 251755Z AUTO 17007KT 10SM -RA FEW015 SCT048 22/16 A2989 1050 68 2100 160/07 RMK AO2 PRESFR P0000
14926KSTC STC20000625120012806/25/00 12:00:31  5-MIN KSTC 251800Z AUTO 16008KT 10SM FEW015 SCT048 22/16 A2988 1060 65 2200 150/08 RMK AO2 RAE00 PRESFR P0000
14926KSTC STC20000625120511406/25/00 12:05:31  5-MIN KSTC 251805Z AUTO 15007KT 10SM FEW015 22/15 A2988 1060 63 2200 140/07 RMK AO2 RAE00 P0000
14926KSTC STC20000625121011406/25/00 12:10:31  5-MIN KSTC 251810Z AUTO 16006KT 10SM FEW015 22/14 A2988 1060 63 2100 160/06 RMK AO2 RAE00 P0000
14926KSTC STC20000625121511106/25/00 12:15:31  5-MIN KSTC 251815Z AUTO 19006KT 10SM CLR 22/14 A2990 1040 61 2100 190/06 RMK AO2 RAE00 P0000
14926KSTC STC20000625122011106/25/00 12:20:31  5-MIN KSTC 251820Z AUTO 18006KT 10SM CLR 22/14 A2990 1040 61 2100 170/06 RMK AO2 RAE00 P0000
14926KSTC STC20000625122511106/25/00 12:25:31  5-MIN KSTC 251825Z AUTO 18005KT 10SM CLR 22/14 A2991 1040 61 2100 180/05 RMK AO2 RAE00 P0000
14926KSTC STC20000625123011406/25/00 12:30:31  5-MIN KSTC 251830Z AUTO 21004KT 10SM FEW120 21/13 A2991 1040 61 2000 210/04 RMK AO2 RAE00 P0000
14926KSTC STC20000625123511406/25/00 12:35:31  5-MIN KSTC 251835Z AUTO 20004KT 10SM FEW120 21/13 A2992 1030 61 2000 200/04 RMK AO2 RAE00 P0000
14926KSTC STC20000625124012106/25/00 12:40:31  5-MIN KSTC 251840Z AUTO 21005KT 10SM FEW100 21/14 A2993 1020 63 2000 210/05 RMK AO2 RAE00 PRESRR P0000
14926KSTC STC20000625124512806/25/00 12:45:31  5-MIN KSTC 251845Z AUTO 22004KT 10SM FEW085 SCT100 21/14 A2994 1010 63 2000 220/04 RMK AO2 RAE00 PRESRR P0000
14926KSTC STC20000625125015906/25/00 12:50:31  5-MIN KSTC 251850Z AUTO 25005KT 10SM -RA FEW035 SCT050 SCT100 21/14 A2994 1000 65 2000 240/05 RMK AO2 RAE00B48 PRESRR SLP147 P0000 T02110144
14926KSTC STC20000625125513206/25/00 12:55:31  5-MIN KSTC 251855Z AUTO 25005KT 9SM -RA SCT035 BKN050 BKN100 21/15 A2995 1000 70 1900 240/05 RMK AO2 PRESRR P0000
14926KSTC STC20000625130012506/25/00 13:00:31  5-MIN KSTC 251900Z AUTO 25007KT 8SM -RA BKN035 BKN041 BKN100 21/16 A2995 1000 73 1900 250/07 RMK AO2 P0001
14926KSTC STC20000625130512506/25/00 13:05:31  5-MIN KSTC 251905Z AUTO 25005KT 8SM -RA BKN035 BKN041 BKN100 20/16 A2995 1000 75 1800 250/05 RMK AO2 P0001
14926KSTC STC20000625131011706/25/00 13:10:31  5-MIN KSTC 251910Z AUTO 27007KT 9SM -RA BKN035 OVC041 20/16 A2996 990 78 1800 270/07 RMK AO2 P0002
14926KSTC STC20000625131511006/25/00 13:15:31  5-MIN KSTC 251915Z AUTO 27008KT 6SM -RA OVC035 19/16 A2997 980 81 1800 270/08 RMK AO2 P0002
14926KSTC STC20000625132010906/25/00 13:20:31  5-MIN KSTC 251920Z AUTO 29009KT 4SM RA OVC035 19/16 A2997 990 84 1700 290/09 RMK AO2 P0004
14926KSTC STC20000625132511306/25/00 13:25:31  5-MIN KSTC 251925Z AUTO 30007KT 3SM -RA BR OVC035 18/16 A2996 990 87 1600 300/07 RMK AO2 P0005
14926KSTC STC20000625133011006/25/00 13:30:31  5-MIN KSTC 251930Z AUTO 31006KT 5SM -RA OVC035 18/16 A2996 990 84 1700 310/06 RMK AO2 P0005
14926KSTC STC20000625133511206/25/00 13:35:31  5-MIN KSTC 251935Z AUTO 32006KT 10SM -RA OVC035 18/16 A2995 1000 87 1700 320/06 RMK AO2 P0006
14926KSTC STC20000625134011206/25/00 13:40:31  5-MIN KSTC 251940Z AUTO 36007KT 10SM -RA OVC035 18/16 A2995 1000 87 1700 360/07 RMK AO2 P0006
14926KSTC STC20000625134511106/25/00 13:45:31  5-MIN KSTC 251945Z AUTO 36009KT 9SM -RA OVC035 18/17 A2995 1000 90 1700 360/09 RMK AO2 P0006
14926KSTC STC20000625135012906/25/00 13:50:31  5-MIN KSTC 251950Z AUTO 01008KT 10SM -RA OVC033 18/16 A2994 1010 87 1700 010/08 RMK AO2 SLP146 P0006 T01830161
14926KSTC STC20000625135511206/25/00 13:55:31  5-MIN KSTC 251955Z AUTO 03007KT 10SM -RA OVC033 18/16 A2994 1010 87 1700 020/07 RMK AO2 P0000
14926KSTC STC20000625140011206/25/00 14:00:31  5-MIN KSTC 252000Z AUTO 02009KT 10SM -RA BKN033 18/17 A2993 1020 90 1700 020/09 RMK AO2 P0000
14926KSTC STC20000625140512606/25/00 14:05:31  5-MIN KSTC 252005Z AUTO 04009KT 10SM -RA BKN033 BKN055 18/16 A2992 1030 87 1700 030/09 RMK AO2 PRESFR P0000
14926KSTC STC20000625141011906/25/00 14:10:31  5-MIN KSTC 252010Z AUTO 04007KT 10SM -RA BKN033 BKN055 18/16 A2992 1030 87 1700 030/07 RMK AO2 P0000
14926KSTC STC20000625141511906/25/00 14:15:31  5-MIN KSTC 252015Z AUTO 03007KT 10SM -RA BKN033 BKN060 18/16 A2992 1030 87 1700 030/07 RMK AO2 P0000
14926KSTC STC20000625142011406/25/00 14:20:31  5-MIN KSTC 252020Z AUTO 04008KT 10SM BKN033 18/16 A2992 1020 87 1700 030/08 RMK AO2 RAE18 P0000
14926KSTC STC20000625142511406/25/00 14:25:31  5-MIN KSTC 252025Z AUTO 05007KT 10SM BKN033 18/17 A2993 1020 90 1700 040/07 RMK AO2 RAE18 P0000
14926KSTC STC20000625143011406/25/00 14:30:31  5-MIN KSTC 252030Z AUTO 05009KT 10SM BKN033 19/16 A2992 1020 84 1800 050/09 RMK AO2 RAE18 P0000
14926KSTC STC20000625143512106/25/00 14:35:31  5-MIN KSTC 252035Z AUTO 04007KT 10SM BKN033 BKN110 19/16 A2993 1020 84 1700 040/07 RMK AO2 RAE18 P0000
14926KSTC STC20000625144012806/25/00 14:40:31  5-MIN KSTC 252040Z AUTO 04008KT 10SM BKN033 BKN041 BKN110 19/16 A2993 1020 84 1700 040/08 RMK AO2 RAE18 P0000
14926KSTC STC20000625144512806/25/00 14:45:31  5-MIN KSTC 252045Z AUTO 04007KT 10SM BKN033 BKN041 BKN100 19/16 A2993 1010 84 1700 040/07 RMK AO2 RAE18 P0000
14926KSTC STC20000625145015706/25/00 14:50:31  5-MIN KSTC 252050Z AUTO 04009KT 10SM FEW032 SCT039 BKN100 19/16 A2993 1010 84 1700 040/09 RMK AO2 RAE18 SLP144 P0000 60006 T01890161 58002
14926KSTC STC20000625145511606/25/00 14:55:31  5-MIN KSTC 252055Z AUTO 05008KT 10SM SCT034 BKN041 BKN100 19/16 A2993 1020 81 1800 050/08 RMK AO2
14926KSTC STC20000625150011606/25/00 15:00:31  5-MIN KSTC 252100Z AUTO 05009KT 10SM BKN034 BKN041 BKN100 19/16 A2993 1020 81 1800 050/09 RMK AO2
14926KSTC STC20000625150511606/25/00 15:05:31  5-MIN KSTC 252105Z AUTO 06010KT 10SM BKN032 BKN043 BKN100 19/16 A2992 1030 81 1800 060/10 RMK AO2
14926KSTC STC20000625151010906/25/00 15:10:31  5-MIN KSTC 252110Z AUTO 07009KT 10SM BKN030 BKN039 19/17 A2992 1030 84 1800 060/09 RMK AO2
14926KSTC STC20000625151510906/25/00 15:15:31  5-MIN KSTC 252115Z AUTO 07008KT 10SM BKN032 BKN041 20/17 A2992 1030 81 1900 060/08 RMK AO2
14926KSTC STC20000625152010206/25/00 15:20:31  5-MIN KSTC 252120Z AUTO 06008KT 10SM OVC032 19/16 A2992 1030 81 1800 060/08 RMK AO2
14926KSTC STC20000625152510206/25/00 15:25:31  5-MIN KSTC 252125Z AUTO VRB06KT 10SM OVC032 20/16 A2992 1030 78 1900 VRB/06 RMK AO2
14926KSTC STC20000625153010206/25/00 15:30:31  5-MIN KSTC 252130Z AUTO 07008KT 10SM OVC032 20/16 A2992 1030 78 1900 060/08 RMK AO2
14926KSTC STC20000625153510906/25/00 15:35:31  5-MIN KSTC 252135Z AUTO 07008KT 10SM BKN032 OVC039 20/16 A2992 1030 78 1900 060/08 RMK AO2
14926KSTC STC20000625154010906/25/00 15:40:31  5-MIN KSTC 252140Z AUTO 06007KT 10SM BKN032 BKN095 20/16 A2991 1030 78 1900 060/07 RMK AO2
14926KSTC STC20000625154510906/25/00 15:45:31  5-MIN KSTC 252145Z AUTO 07007KT 10SM BKN032 OVC095 20/16 A2991 1030 78 1900 070/07 RMK AO2
14926KSTC STC20000625155012606/25/00 15:50:31  5-MIN KSTC 252150Z AUTO 06008KT 10SM SCT032 BKN095 20/16 A2991 1040 78 1900 060/08 RMK AO2 SLP136 T02000161
14926KSTC STC20000625155510906/25/00 15:55:31  5-MIN KSTC 252155Z AUTO 06007KT 10SM SCT032 BKN095 21/16 A2991 1040 75 2000 060/07 RMK AO2
14926KSTC STC20000625160010906/25/00 16:00:31  5-MIN KSTC 252200Z AUTO 06007KT 10SM FEW034 OVC095 21/16 A2991 1040 75 2000 060/07 RMK AO2
14926KSTC STC20000625160510906/25/00 16:05:31  5-MIN KSTC 252205Z AUTO 06006KT 10SM FEW032 OVC095 21/16 A2991 1040 75 2000 050/06 RMK AO2
14926KSTC STC20000625161010906/25/00 16:10:31  5-MIN KSTC 252210Z AUTO 09006KT 10SM SCT032 OVC095 21/16 A2990 1040 75 2000 080/06 RMK AO2
14926KSTC STC20000625161510906/25/00 16:15:31  5-MIN KSTC 252215Z AUTO 08006KT 10SM FEW032 BKN090 21/16 A2990 1040 75 2000 070/06 RMK AO2
14926KSTC STC20000625162010906/25/00 16:20:31  5-MIN KSTC 252220Z AUTO 07005KT 10SM FEW032 OVC090 21/16 A2990 1040 75 2000 070/05 RMK AO2
14926KSTC STC20000625162510906/25/00 16:25:31  5-MIN KSTC 252225Z AUTO 07006KT 10SM SCT032 OVC090 20/16 A2991 1040 75 1900 060/06 RMK AO2
14926KSTC STC20000625163010906/25/00 16:30:31  5-MIN KSTC 252230Z AUTO 06006KT 10SM BKN032 OVC090 20/16 A2991 1040 75 1900 060/06 RMK AO2
14926KSTC STC20000625163510906/25/00 16:35:31  5-MIN KSTC 252235Z AUTO 06007KT 10SM BKN032 OVC090 20/16 A2991 1040 75 1900 060/07 RMK AO2
14926KSTC STC20000625164011606/25/00 16:40:31  5-MIN KSTC 252240Z AUTO 07005KT 10SM BKN030 BKN035 OVC090 21/16 A2991 1040 75 2000 060/05 RMK AO2
14926KSTC STC20000625164510906/25/00 16:45:31  5-MIN KSTC 252245Z AUTO 10005KT 10SM BKN030 OVC034 21/16 A2991 1030 75 2000 090/05 RMK AO2
14926KSTC STC20000625165011906/25/00 16:50:31  5-MIN KSTC 252250Z AUTO VRB04KT 10SM OVC030 20/16 A2991 1030 75 1900 VRB/04 RMK AO2 SLP137 T02000156
14926KSTC STC20000625165510206/25/00 16:55:31  5-MIN KSTC 252255Z AUTO 10004KT 10SM OVC030 20/16 A2991 1030 75 1900 100/04 RMK AO2
14926KSTC STC20000625170010906/25/00 17:00:31  5-MIN KSTC 252300Z AUTO 07004KT 10SM BKN028 OVC034 20/16 A2991 1030 75 1900 070/04 RMK AO2
14926KSTC STC20000625170510906/25/00 17:05:31  5-MIN KSTC 252305Z AUTO 07003KT 10SM BKN028 OVC035 20/16 A2991 1040 75 1900 070/03 RMK AO2
14926KSTC STC20000625171011606/25/00 17:10:31  5-MIN KSTC 252310Z AUTO 07004KT 10SM BKN028 BKN035 OVC095 20/16 A2991 1040 75 1900 070/04 RMK AO2
14926KSTC STC20000625171511606/25/00 17:15:31  5-MIN KSTC 252315Z AUTO 06005KT 10SM SCT028 BKN035 OVC100 20/16 A2991 1030 75 1900 060/05 RMK AO2
14926KSTC STC20000625172011606/25/00 17:20:31  5-MIN KSTC 252320Z AUTO 06004KT 10SM SCT028 BKN080 OVC095 20/16 A2991 1030 75 1900 060/04 RMK AO2
14926KSTC STC20000625172511606/25/00 17:25:31  5-MIN KSTC 252325Z AUTO 06005KT 10SM FEW028 BKN080 OVC095 20/16 A2991 1040 75 1900 060/05 RMK AO2
14926KSTC STC20000625173011606/25/00 17:30:31  5-MIN KSTC 252330Z AUTO 06005KT 10SM FEW028 BKN080 OVC100 20/16 A2991 1040 75 1900 060/05 RMK AO2
14926KSTC STC20000625173510906/25/00 17:35:31  5-MIN KSTC 252335Z AUTO 06003KT 10SM BKN080 OVC100 20/16 A2991 1040 75 1900 060/03 RMK AO2
14926KSTC STC20000625174010206/25/00 17:40:31  5-MIN KSTC 252340Z AUTO 06005KT 10SM OVC075 20/16 A2991 1040 75 1900 060/05 RMK AO2
14926KSTC STC20000625174510906/25/00 17:45:31  5-MIN KSTC 252345Z AUTO 07004KT 10SM BKN065 OVC085 19/16 A2991 1040 78 1800 060/04 RMK AO2
14926KSTC STC20000625175015006/25/00 17:50:31  5-MIN KSTC 252350Z AUTO 06004KT 10SM BKN065 OVC085 19/16 A2991 1040 78 1800 060/04 RMK AO2 SLP135 60006 T01940156 10222 20183 50012
14926KSTC STC20000625175510906/25/00 17:55:31  5-MIN KSTC 252355Z AUTO 06004KT 10SM BKN065 OVC090 19/16 A2991 1040 78 1800 060/04 RMK AO2
14926KSTC STC20000625180010206/25/00 18:00:31  5-MIN KSTC 260000Z AUTO 05004KT 10SM OVC060 19/16 A2991 1040 78 1800 050/04 RMK AO2
14926KSTC STC20000625180510206/25/00 18:05:31  5-MIN KSTC 260005Z AUTO 06004KT 10SM OVC060 19/16 A2991 1040 78 1800 060/04 RMK AO2
14926KSTC STC20000625181010206/25/00 18:10:31  5-MIN KSTC 260010Z AUTO 04003KT 10SM OVC060 19/16 A2991 1040 78 1800 040/03 RMK AO2
14926KSTC STC20000625181510206/25/00 18:15:31  5-MIN KSTC 260015Z AUTO 04004KT 10SM OVC060 19/16 A2990 1040 78 1800 040/04 RMK AO2
14926KSTC STC20000625182010206/25/00 18:20:31  5-MIN KSTC 260020Z AUTO 04004KT 10SM OVC055 19/16 A2990 1040 78 1800 040/04 RMK AO2
14926KSTC STC20000625182510206/25/00 18:25:31  5-MIN KSTC 260025Z AUTO 05004KT 10SM OVC055 19/16 A2990 1040 78 1800 050/04 RMK AO2
14926KSTC STC20000625183010206/25/00 18:30:31  5-MIN KSTC 260030Z AUTO 06003KT 10SM OVC055 19/16 A2990 1040 78 1800 060/03 RMK AO2
14926KSTC STC20000625183510206/25/00 18:35:31  5-MIN KSTC 260035Z AUTO 06004KT 10SM OVC050 19/16 A2990 1050 78 1800 050/04 RMK AO2
14926KSTC STC20000625184010206/25/00 18:40:31  5-MIN KSTC 260040Z AUTO 04004KT 10SM OVC055 19/16 A2990 1050 78 1800 040/04 RMK AO2
14926KSTC STC20000625184510206/25/00 18:45:31  5-MIN KSTC 260045Z AUTO 05005KT 10SM OVC050 19/16 A2990 1050 78 1900 050/05 RMK AO2
14926KSTC STC20000625185011906/25/00 18:50:31  5-MIN KSTC 260050Z AUTO 06004KT 10SM OVC050 19/16 A2990 1050 78 1800 060/04 RMK AO2 SLP131 T01940156
14926KSTC STC20000625185510206/25/00 18:55:31  5-MIN KSTC 260055Z AUTO 06003KT 10SM OVC050 19/16 A2990 1050 78 1800 060/03 RMK AO2
14926KSTC STC20000625190010206/25/00 19:00:31  5-MIN KSTC 260100Z AUTO 00000KT 10SM OVC050 19/16 A2990 1040 78 1800 000/00 RMK AO2
14926KSTC STC20000625190510206/25/00 19:05:31  5-MIN KSTC 260105Z AUTO 11003KT 10SM OVC050 19/16 A2991 1040 78 1800 110/03 RMK AO2
14926KSTC STC20000625191010906/25/00 19:10:31  5-MIN KSTC 260110Z AUTO 09003KT 10SM BKN050 OVC075 19/16 A2991 1040 78 1800 090/03 RMK AO2
14926KSTC STC20000625191510906/25/00 19:15:31  5-MIN KSTC 260115Z AUTO 07003KT 10SM BKN050 OVC075 19/16 A2991 1040 81 1800 070/03 RMK AO2
14926KSTC STC20000625192010206/25/00 19:20:31  5-MIN KSTC 260120Z AUTO 07004KT 10SM OVC048 19/16 A2991 1040 81 1800 060/04 RMK AO2
14926KSTC STC20000625192510206/25/00 19:25:31  5-MIN KSTC 260125Z AUTO 08004KT 10SM OVC048 19/16 A2991 1040 81 1800 070/04 RMK AO2
14926KSTC STC20000625193010906/25/00 19:30:31  5-MIN KSTC 260130Z AUTO 07004KT 10SM BKN048 OVC075 19/16 A2991 1040 81 1800 070/04 RMK AO2
14926KSTC STC20000625193511606/25/00 19:35:31  5-MIN KSTC 260135Z AUTO VRB04KT 10SM BKN045 BKN050 OVC075 19/16 A2991 1040 81 1800 VRB/04 RMK AO2
14926KSTC STC20000625194010906/25/00 19:40:31  5-MIN KSTC 260140Z AUTO 07003KT 10SM BKN043 OVC050 19/16 A2991 1040 81 1800 070/03 RMK AO2
14926KSTC STC20000625194510906/25/00 19:45:31  5-MIN KSTC 260145Z AUTO 06004KT 10SM BKN043 OVC055 18/16 A2991 1040 84 1700 060/04 RMK AO2
14926KSTC STC20000625195012606/25/00 19:50:31  5-MIN KSTC 260150Z AUTO 06003KT 10SM BKN043 OVC055 18/15 A2991 1040 81 1700 060/03 RMK AO2 SLP133 T01830150
14926KSTC STC20000625195510206/25/00 19:55:31  5-MIN KSTC 260155Z AUTO 06003KT 10SM OVC041 18/15 A2991 1040 81 1700 060/03 RMK AO2
14926KSTC STC20000625200010906/25/00 20:00:31  5-MIN KSTC 260200Z AUTO 06003KT 10SM BKN041 OVC055 18/15 A2991 1040 81 1700 060/03 RMK AO2
14926KSTC STC20000625200510906/25/00 20:05:31  5-MIN KSTC 260205Z AUTO 00000KT 10SM BKN041 OVC055 18/15 A2991 1040 81 1700 000/00 RMK AO2
14926KSTC STC20000625201010906/25/00 20:10:31  5-MIN KSTC 260210Z AUTO 00000KT 10SM BKN041 OVC055 18/16 A2991 1040 84 1700 000/00 RMK AO2
14926KSTC STC20000625201510906/25/00 20:15:31  5-MIN KSTC 260215Z AUTO 00000KT 10SM BKN041 OVC055 18/16 A2991 1030 84 1700 000/00 RMK AO2
14926KSTC STC20000625202010906/25/00 20:20:31  5-MIN KSTC 260220Z AUTO 00000KT 10SM SCT041 OVC055 18/15 A2991 1030 81 1700 000/00 RMK AO2
14926KSTC STC20000625202510906/25/00 20:25:31  5-MIN KSTC 260225Z AUTO 00000KT 10SM FEW041 OVC060 18/15 A2991 1030 81 1700 000/00 RMK AO2
14926KSTC STC20000625203010906/25/00 20:30:31  5-MIN KSTC 260230Z AUTO 00000KT 10SM FEW041 OVC060 18/15 A2992 1030 81 1700 000/00 RMK AO2
14926KSTC STC20000625203510906/25/00 20:35:31  5-MIN KSTC 260235Z AUTO 00000KT 10SM SCT041 OVC060 18/16 A2992 1030 84 1700 000/00 RMK AO2
14926KSTC STC20000625204011606/25/00 20:40:31  5-MIN KSTC 260240Z AUTO 00000KT 10SM SCT034 BKN041 OVC060 18/16 A2992 1030 87 1600 000/00 RMK AO2
14926KSTC STC20000625204511606/25/00 20:45:31  5-MIN KSTC 260245Z AUTO 35004KT 10SM SCT034 BKN041 OVC060 18/16 A2992 1030 87 1600 350/04 RMK AO2
14926KSTC STC20000625205013906/25/00 20:50:31  5-MIN KSTC 260250Z AUTO 36004KT 10SM SCT035 SCT045 OVC065 18/16 A2992 1030 87 1600 360/04 RMK AO2 SLP136 T01780156 56008
14926KSTC STC20000625205511606/25/00 20:55:31  5-MIN KSTC 260255Z AUTO 00000KT 10SM FEW032 BKN042 OVC065 18/15 A2992 1030 83 1600 000/00 RMK AO2
14926KSTC STC20000625210011606/25/00 21:00:31  5-MIN KSTC 260300Z AUTO 00000KT 10SM SCT033 BKN043 OVC065 18/15 A2992 1030 83 1600 000/00 RMK AO2
14926KSTC STC20000625210511606/25/00 21:05:31  5-MIN KSTC 260305Z AUTO 00000KT 10SM SCT033 BKN042 OVC065 18/15 A2992 1030 81 1700 000/00 RMK AO2
14926KSTC STC20000625211011606/25/00 21:10:31  5-MIN KSTC 260310Z AUTO 01003KT 10SM FEW017 BKN034 OVC065 18/16 A2992 1030 87 1600 360/03 RMK AO2
14926KSTC STC20000625211511606/25/00 21:15:31  5-MIN KSTC 260315Z AUTO 35003KT 10SM SCT017 BKN032 OVC047 18/16 A2992 1030 87 1600 350/03 RMK AO2
14926KSTC STC20000625212011606/25/00 21:20:31  5-MIN KSTC 260320Z AUTO 36004KT 10SM SCT017 BKN032 OVC040 18/16 A2992 1030 87 1600 360/04 RMK AO2
14926KSTC STC20000625212511606/25/00 21:25:31  5-MIN KSTC 260325Z AUTO 03004KT 10SM SCT017 BKN032 OVC039 18/16 A2992 1030 87 1600 020/04 RMK AO2
14926KSTC STC20000625213010906/25/00 21:30:31  5-MIN KSTC 260330Z AUTO 02003KT 10SM FEW017 OVC034 18/15 A2992 1030 83 1600 020/03 RMK AO2
14926KSTC STC20000625213511606/25/00 21:35:31  5-MIN KSTC 260335Z AUTO 00000KT 10SM FEW017 BKN030 OVC034 18/15 A2992 1030 83 1600 000/00 RMK AO2
14926KSTC STC20000625214010906/25/00 21:40:31  5-MIN KSTC 260340Z AUTO 05003KT 10SM FEW017 OVC032 18/15 A2992 1030 83 1600 050/03 RMK AO2
14926KSTC STC20000625214510906/25/00 21:45:31  5-MIN KSTC 260345Z AUTO 00000KT 10SM FEW017 OVC032 18/15 A2992 1030 83 1600 000/00 RMK AO2
14926KSTC STC20000625215012606/25/00 21:50:31  5-MIN KSTC 260350Z AUTO 03003KT 10SM BKN034 OVC040 18/15 A2992 1030 83 1600 030/03 RMK AO2 SLP136 T01780150
14926KSTC STC20000625215510906/25/00 21:55:31  5-MIN KSTC 260355Z AUTO 00000KT 10SM BKN032 OVC043 18/15 A2992 1030 83 1600 000/00 RMK AO2
14926KSTC STC20000625220010906/25/00 22:00:31  5-MIN KSTC 260400Z AUTO 02003KT 10SM SCT032 OVC045 17/15 A2992 1030 87 1600 010/03 RMK AO2
14926KSTC STC20000625220511606/25/00 22:05:31  5-MIN KSTC 260405Z AUTO 04003KT 10SM SCT032 BKN045 OVC080 17/15 A2992 1030 87 1600 030/03 RMK AO2
14926KSTC STC20000625221011606/25/00 22:10:31  5-MIN KSTC 260410Z AUTO 04003KT 10SM FEW029 BKN041 OVC080 17/15 A2992 1030 87 1600 030/03 RMK AO2
14926KSTC STC20000625221511606/25/00 22:15:31  5-MIN KSTC 260415Z AUTO 04003KT 10SM FEW029 SCT041 OVC048 17/15 A2992 1030 87 1600 040/03 RMK AO2
14926KSTC STC20000625222011606/25/00 22:20:31  5-MIN KSTC 260420Z AUTO 02003KT 10SM FEW029 BKN048 OVC080 17/15 A2992 1030 87 1600 020/03 RMK AO2
14926KSTC STC20000625222511606/25/00 22:25:31  5-MIN KSTC 260425Z AUTO 00000KT 10SM FEW029 BKN048 OVC080 17/15 A2992 1030 87 1600 000/00 RMK AO2
14926KSTC STC20000625223011606/25/00 22:30:31  5-MIN KSTC 260430Z AUTO 00000KT 10SM FEW029 BKN050 OVC060 17/15 A2991 1030 87 1600 000/00 RMK AO2
14926KSTC STC20000625223511606/25/00 22:35:31  5-MIN KSTC 260435Z AUTO 00000KT 10SM FEW029 BKN050 OVC085 17/15 A2991 1030 87 1600 000/00 RMK AO2
14926KSTC STC20000625224011606/25/00 22:40:31  5-MIN KSTC 260440Z AUTO 00000KT 10SM SCT050 BKN060 OVC090 17/16 A2991 1030 90 1600 000/00 RMK AO2
14926KSTC STC20000625224511606/25/00 22:45:31  5-MIN KSTC 260445Z AUTO 00000KT 10SM FEW050 BKN060 OVC095 17/16 A2991 1030 90 1600 000/00 RMK AO2
14926KSTC STC20000625225013306/25/00 22:50:31  5-MIN KSTC 260450Z AUTO 00000KT 10SM FEW050 BKN060 OVC095 17/16 A2991 1030 90 1600 000/00 RMK AO2 SLP135 T01720156
14926KSTC STC20000625225511606/25/00 22:55:31  5-MIN KSTC 260455Z AUTO 00000KT 10SM SCT048 BKN060 OVC095 17/16 A2991 1030 93 1500 000/00 RMK AO2
14926KSTC STC20000625230011606/25/00 23:00:31  5-MIN KSTC 260500Z AUTO 33003KT 10SM SCT048 BKN060 OVC100 17/16 A2991 1040 93 1500 330/03 RMK AO2
14926KSTC STC20000625230511606/25/00 23:05:31  5-MIN KSTC 260505Z AUTO 32003KT 10SM FEW026 BKN046 OVC100 17/16 A2991 1030 93 1500 320/03 RMK AO2
14926KSTC STC20000625231011606/25/00 23:10:31  5-MIN KSTC 260510Z AUTO 33003KT 10SM SCT023 BKN046 OVC100 17/16 A2991 1030 93 1500 330/03 RMK AO2
14926KSTC STC20000625231511606/25/00 23:15:31  5-MIN KSTC 260515Z AUTO 34003KT 10SM SCT025 BKN046 OVC095 17/16 A2991 1030 93 1500 330/03 RMK AO2
14926KSTC STC20000625232011606/25/00 23:20:31  5-MIN KSTC 260520Z AUTO 33003KT 10SM SCT025 BKN035 OVC049 17/16 A2991 1030 93 1500 330/03 RMK AO2
14926KSTC STC20000625232511606/25/00 23:25:31  5-MIN KSTC 260525Z AUTO 33004KT 10SM FEW022 BKN028 OVC042 17/16 A2991 1040 93 1500 320/04 RMK AO2
14926KSTC STC20000625233011506/25/00 23:30:31  5-MIN KSTC 260530Z AUTO 33004KT 9SM FEW022 BKN028 OVC042 17/16 A2991 1040 93 1500 330/04 RMK AO2
14926KSTC STC20000625233511506/25/00 23:35:31  5-MIN KSTC 260535Z AUTO 32005KT 9SM FEW022 SCT029 OVC040 17/16 A2991 1040 93 1500 320/05 RMK AO2
14926KSTC STC20000625234010906/25/00 23:40:31  5-MIN KSTC 260540Z AUTO 32006KT 10SM FEW025 OVC039 17/16 A2991 1030 93 1500 310/06 RMK AO2
14926KSTC STC20000625234513106/25/00 23:45:31  5-MIN KSTC 260545Z AUTO 31008KT 7SM -RA FEW011 BKN034 OVC042 17/16 A2992 1030 93 1500 310/08 RMK AO2 RAB45 P0001
14926KSTC STC20000625235018906/25/00 23:50:31  5-MIN KSTC 260550Z AUTO 33008KT 2 1/2SM +RA BR SCT009 BKN034 OVC042 17/16 A2992 1030 93 1500 320/08 RMK AO2 RAB45 SLP135 P0005 60005 T01670156 10194 20167 402330100 53004
14926KSTC STC20000625235513806/25/00 23:55:31  5-MIN KSTC 260555Z AUTO 32011G17KT 2 1/2SM -RA BR SCT008 BKN016 OVC042 17/16 A2992 1030 93 1500 320/11G17 RMK AO2 P0000
14926KSTC STC20000626000013406/26/00 00:00:31  5-MIN KSTC 260600Z AUTO 33010G17KT 6SM -RA BR SCT008 BKN018 OVC036 17/16 A2992 1030 93 1500 330/10G17 RMK AO2 P0000
14926KSTC STC20000626000513306/26/00 00:05:31  5-MIN KSTC 260605Z AUTO 34010G18KT 6SM RA BR SCT008 BKN021 OVC060 16/15 A2992 1030 93 1400 340/10G18 RMK AO2 P0002
14926KSTC STC20000626001013306/26/00 00:10:31  5-MIN KSTC 260610Z AUTO 34013G18KT 4SM RA BR FEW008 BKN018 OVC060 16/14 A2992 1030 93 1400 340/13G18 RMK AO2 P0004
14926KSTC STC20000626001513306/26/00 00:15:31  5-MIN KSTC 260615Z AUTO 34011G18KT 4SM RA BR FEW008 BKN020 OVC050 16/14 A2992 1030 93 1400 340/11G18 RMK AO2 P0005
14926KSTC STC20000626002012806/26/00 00:20:31  5-MIN KSTC 260620Z AUTO 34011KT 5SM -RA BR FEW008 BKN042 OVC065 16/14 A2992 1030 93 1400 340/11 RMK AO2 P0006
14926KSTC STC20000626002512806/26/00 00:25:31  5-MIN KSTC 260625Z AUTO 35009KT 5SM -RA BR FEW027 SCT046 OVC065 16/14 A2992 1030 93 1400 340/09 RMK AO2 P0007
14926KSTC STC20000626003012506/26/00 00:30:31  5-MIN KSTC 260630Z AUTO 34009KT 7SM -RA FEW027 SCT046 OVC070 16/14 A2992 1030 93 1400 340/09 RMK AO2 P0007
14926KSTC STC20000626003512506/26/00 00:35:31  5-MIN KSTC 260635Z AUTO 34011KT 8SM -RA FEW007 SCT042 OVC070 16/14 A2992 1030 93 1400 330/11 RMK AO2 P0007
14926KSTC STC20000626004012506/26/00 00:40:31  5-MIN KSTC 260640Z AUTO 34009KT 8SM -RA SCT007 SCT039 OVC075 16/14 A2992 1030 93 1400 340/09 RMK AO2 P0008
14926KSTC STC20000626004511806/26/00 00:45:31  5-MIN KSTC 260645Z AUTO 34009KT 9SM -RA FEW007 OVC075 16/14 A2992 1030 93 1400 340/09 RMK AO2 P0008
14926KSTC STC20000626005014306/26/00 00:50:31  5-MIN KSTC 260650Z AUTO 34009KT 10SM -RA FEW007 SCT011 OVC075 16/14 A2992 1030 93 1400 330/09 RMK AO2 SLP138 P0008 T01560144
14926KSTC STC20000626005511906/26/00 00:55:31  5-MIN KSTC 260655Z AUTO 33007KT 10SM -RA SCT007 OVC080 16/14 A2993 1020 93 1400 330/07 RMK AO2 P0000
14926KSTC STC20000626010012306/26/00 01:00:31  5-MIN KSTC 260700Z AUTO 33007KT 10SM SCT007 OVC080 16/14 A2993 1020 93 1400 330/07 RMK AO2 RAE0659 P0000
14926KSTC STC20000626010512306/26/00 01:05:31  5-MIN KSTC 260705Z AUTO 33007KT 10SM SCT009 OVC080 16/14 A2992 1020 93 1400 330/07 RMK AO2 RAE0659 P0000
14926KSTC STC20000626011011906/26/00 01:10:31  5-MIN KSTC 260710Z AUTO 33007KT 10SM -RA SCT009 OVC085 15/14 A2992 1020 96 1300 330/07 RMK AO2 P0000
14926KSTC STC20000626011512606/26/00 01:15:31  5-MIN KSTC 260715Z AUTO 34011KT 10SM -RA SCT009 SCT012 OVC090 15/14 A2992 1020 93 1300 330/11 RMK AO2 P0000
14926KSTC STC20000626012012506/26/00 01:20:31  5-MIN KSTC 260720Z AUTO 33011KT 8SM -RA SCT009 SCT033 OVC090 15/14 A2993 1020 93 1300 330/11 RMK AO2 P0001
14926KSTC STC20000626012512506/26/00 01:25:31  5-MIN KSTC 260725Z AUTO 34009KT 8SM -RA FEW009 BKN090 OVC100 15/14 A2993 1020 93 1300 330/09 RMK AO2 P0001
14926KSTC STC20000626013012806/26/00 01:30:31  5-MIN KSTC 260730Z AUTO 33006KT 10SM FEW009 SCT031 OVC100 15/14 A2993 1020 93 1300 330/06 RMK AO2 RAE29 P0001
14926KSTC STC20000626013512106/26/00 01:35:31  5-MIN KSTC 260735Z AUTO 34006KT 10SM FEW009 OVC100 15/14 A2993 1020 93 1300 330/06 RMK AO2 RAE29 P0001
14926KSTC STC20000626014012806/26/00 01:40:31  5-MIN KSTC 260740Z AUTO 33007KT 10SM FEW011 SCT100 BKN120 15/14 A2993 1020 93 1300 330/07 RMK AO2 RAE29 P0001
14926KSTC STC20000626014512106/26/00 01:45:31  5-MIN KSTC 260745Z AUTO 33007KT 10SM FEW032 BKN110 15/14 A2993 1020 93 1300 330/07 RMK AO2 RAE29 P0001
14926KSTC STC20000626015013106/26/00 01:50:31  5-MIN KSTC 260750Z AUTO 33007KT 10SM SCT110 15/14 A2993 1020 93 1300 330/07 RMK AO2 RAE29 SLP142 P0001 T01500139
14926KSTC STC20000626015510906/26/00 01:55:31  5-MIN KSTC 260755Z AUTO 33007KT 10SM FEW010 SCT110 15/14 A2993 1020 93 1300 320/07 RMK AO2
14926KSTC STC20000626020010206/26/00 02:00:31  5-MIN KSTC 260800Z AUTO 33007KT 10SM FEW110 15/14 A2993 1020 93 1300 320/07 RMK AO2
14926KSTC STC20000626020510206/26/00 02:05:31  5-MIN KSTC 260805Z AUTO 32007KT 10SM FEW120 15/14 A2993 1020 93 1300 320/07 RMK AO2
14926KSTC STC20000626021009906/26/00 02:10:31  5-MIN KSTC 260810Z AUTO 33006KT 10SM CLR 14/14 A2993 1010 96 1200 320/06 RMK AO2
14926KSTC STC20000626021509906/26/00 02:15:31  5-MIN KSTC 260815Z AUTO 32007KT 10SM CLR 14/14 A2994 1010 96 1200 320/07 RMK AO2
14926KSTC STC20000626022009906/26/00 02:20:31  5-MIN KSTC 260820Z AUTO 32008KT 10SM CLR 14/14 A2994 1010 96 1200 320/08 RMK AO2
14926KSTC STC20000626022509906/26/00 02:25:31  5-MIN KSTC 260825Z AUTO 32009KT 10SM CLR 14/14 A2994 1010 96 1200 320/09 RMK AO2
14926KSTC STC20000626023009906/26/00 02:30:31  5-MIN KSTC 260830Z AUTO 32009KT 10SM CLR 14/13 A2994 1010 93 1200 310/09 RMK AO2
14926KSTC STC20000626023509906/26/00 02:35:31  5-MIN KSTC 260835Z AUTO 32009KT 10SM CLR 14/13 A2994 1010 93 1200 310/09 RMK AO2
14926KSTC STC20000626024009906/26/00 02:40:31  5-MIN KSTC 260840Z AUTO 31007KT 10SM CLR 14/13 A2994 1010 93 1200 310/07 RMK AO2
14926KSTC STC20000626024509906/26/00 02:45:31  5-MIN KSTC 260845Z AUTO 31008KT 10SM CLR 14/13 A2994 1010 93 1200 310/08 RMK AO2
14926KSTC STC20000626025012806/26/00 02:50:31  5-MIN KSTC 260850Z AUTO 31009KT 10SM CLR 14/13 A2994 1010 96 1200 310/09 RMK AO2 SLP146 60009 T01390133 57001
14926KSTC STC20000626025509906/26/00 02:55:31  5-MIN KSTC 260855Z AUTO 31008KT 10SM CLR 14/13 A2994 1010 96 1200 310/08 RMK AO2
14926KSTC STC20000626030009906/26/00 03:00:31  5-MIN KSTC 260900Z AUTO 31008KT 10SM CLR 14/13 A2994 1010 96 1100 310/08 RMK AO2
14926KSTC STC20000626030509906/26/00 03:05:31  5-MIN KSTC 260905Z AUTO 31008KT 10SM CLR 14/13 A2994 1000 96 1100 310/08 RMK AO2
14926KSTC STC20000626031009906/26/00 03:10:31  5-MIN KSTC 260910Z AUTO 31008KT 10SM CLR 14/13 A2994 1010 96 1100 310/08 RMK AO2
14926KSTC STC20000626031509906/26/00 03:15:31  5-MIN KSTC 260915Z AUTO 31008KT 10SM CLR 14/13 A2994 1000 96 1100 310/08 RMK AO2
14926KSTC STC20000626032009906/26/00 03:20:31  5-MIN KSTC 260920Z AUTO 31008KT 10SM CLR 14/13 A2995 1000 96 1100 310/08 RMK AO2
14926KSTC STC20000626032509906/26/00 03:25:31  5-MIN KSTC 260925Z AUTO 31008KT 10SM CLR 14/13 A2995 1000 93 1100 310/08 RMK AO2
14926KSTC STC20000626033009906/26/00 03:30:31  5-MIN KSTC 260930Z AUTO 31007KT 10SM CLR 14/13 A2995 1000 93 1100 310/07 RMK AO2
14926KSTC STC20000626033509906/26/00 03:35:31  5-MIN KSTC 260935Z AUTO 31007KT 10SM CLR 14/13 A2995 1000 93 1100 310/07 RMK AO2
14926KSTC STC20000626034009906/26/00 03:40:31  5-MIN KSTC 260940Z AUTO 31006KT 10SM CLR 14/13 A2995 1000 93 1100 310/06 RMK AO2
14926KSTC STC20000626034509906/26/00 03:45:31  5-MIN KSTC 260945Z AUTO 31006KT 10SM CLR 14/13 A2995 1000 93 1100 310/06 RMK AO2
14926KSTC STC20000626035011606/26/00 03:50:31  5-MIN KSTC 260950Z AUTO 31006KT 10SM CLR 13/13 A2995 1000 96 1100 310/06 RMK AO2 SLP150 T01330128
14926KSTC STC20000626035509906/26/00 03:55:31  5-MIN KSTC 260955Z AUTO 31006KT 10SM CLR 13/13 A2995 1000 96 1100 300/06 RMK AO2
14926KSTC STC20000626040009806/26/00 04:00:31  5-MIN KSTC 261000Z AUTO 30006KT 10SM CLR 13/12 A2995 990 93 1100 300/06 RMK AO2
14926KSTC STC20000626040509806/26/00 04:05:31  5-MIN KSTC 261005Z AUTO 30006KT 10SM CLR 13/12 A2996 990 96 1000 300/06 RMK AO2
14926KSTC STC20000626041009906/26/00 04:10:31  5-MIN KSTC 261010Z AUTO 30005KT 10SM CLR 13/12 A2995 1000 93 1100 300/05 RMK AO2
14926KSTC STC20000626041509806/26/00 04:15:31  5-MIN KSTC 261015Z AUTO 30005KT 10SM CLR 13/12 A2996 990 96 1000 300/05 RMK AO2
14926KSTC STC20000626042009706/26/00 04:20:31  5-MIN KSTC 261020Z AUTO 30005KT 10SM CLR 12/12 A2995 990 96 900 300/05 RMK AO2
14926KSTC STC20000626042509706/26/00 04:25:31  5-MIN KSTC 261025Z AUTO 30005KT 10SM CLR 12/12 A2996 990 96 900 300/05 RMK AO2
14926KSTC STC20000626043009606/26/00 04:30:31  5-MIN KSTC 261030Z AUTO 30005KT 9SM CLR 12/12 A2996 990 96 900 300/05 RMK AO2
14926KSTC STC20000626043509706/26/00 04:35:31  5-MIN KSTC 261035Z AUTO 31005KT 10SM CLR 12/12 A2996 990 96 900 300/05 RMK AO2
14926KSTC STC20000626044009606/26/00 04:40:31  5-MIN KSTC 261040Z AUTO 29004KT 9SM CLR 12/12 A2996 990 96 900 290/04 RMK AO2
14926KSTC STC20000626044509606/26/00 04:45:31  5-MIN KSTC 261045Z AUTO 29003KT 9SM CLR 12/12 A2996 990 96 900 290/03 RMK AO2
14926KSTC STC20000626045011306/26/00 04:50:31  5-MIN KSTC 261050Z AUTO 30003KT 8SM CLR 12/12 A2996 990 96 900 290/03 RMK AO2 SLP155 T01220117
14926KSTC STC20000626045509706/26/00 04:55:31  5-MIN KSTC 261055Z AUTO 30003KT 8SM CLR 13/12 A2996 990 93 1000 290/03 RMK AO2
14926KSTC STC20000626050009706/26/00 05:00:31  5-MIN KSTC 261100Z AUTO 30005KT 8SM CLR 13/12 A2997 980 96 1000 290/05 RMK AO2
14926KSTC STC20000626050509706/26/00 05:05:31  5-MIN KSTC 261105Z AUTO 30005KT 8SM CLR 13/12 A2997 980 93 1100 300/05 RMK AO2
14926KSTC STC20000626051009806/26/00 05:10:31  5-MIN KSTC 261110Z AUTO 30006KT 10SM CLR 13/13 A2997 980 96 1100 290/06 RMK AO2
14926KSTC STC20000626051509806/26/00 05:15:31  5-MIN KSTC 261115Z AUTO 30006KT 10SM CLR 13/13 A2997 980 96 1100 300/06 RMK AO2
14926KSTC STC20000626052009806/26/00 05:20:31  5-MIN KSTC 261120Z AUTO 30006KT 10SM CLR 13/13 A2997 980 96 1100 300/06 RMK AO2
14926KSTC STC20000626052509806/26/00 05:25:31  5-MIN KSTC 261125Z AUTO 30005KT 10SM CLR 14/13 A2997 980 93 1100 300/05 RMK AO2
14926KSTC STC20000626053009806/26/00 05:30:31  5-MIN KSTC 261130Z AUTO 30005KT 10SM CLR 14/13 A2997 980 93 1100 290/05 RMK AO2
14926KSTC STC20000626053509806/26/00 05:35:31  5-MIN KSTC 261135Z AUTO 30005KT 10SM CLR 14/13 A2997 980 93 1100 300/05 RMK AO2
14926KSTC STC20000626054009806/26/00 05:40:31  5-MIN KSTC 261140Z AUTO 30006KT 10SM CLR 14/13 A2997 980 93 1100 300/06 RMK AO2
14926KSTC STC20000626054509806/26/00 05:45:31  5-MIN KSTC 261145Z AUTO 30006KT 10SM CLR 14/13 A2997 980 93 1100 290/06 RMK AO2
14926KSTC STC20000626055014506/26/00 05:50:31  5-MIN KSTC 261150Z AUTO 30008KT 10SM CLR 14/13 A2998 980 90 1200 300/08 RMK AO2 SLP158 60009 70021 T01440128 10167 20122 53008
14926KSTC STC20000626055509806/26/00 05:55:31  5-MIN KSTC 261155Z AUTO 30008KT 10SM CLR 14/13 A2997 980 90 1200 300/08 RMK AO2
14926KSTC STC20000626060009806/26/00 06:00:31  5-MIN KSTC 261200Z AUTO 30007KT 10SM CLR 14/13 A2997 980 90 1200 300/07 RMK AO2
14926KSTC STC20000626060509806/26/00 06:05:31  5-MIN KSTC 261205Z AUTO 30007KT 10SM CLR 14/13 A2998 980 90 1200 290/07 RMK AO2
14926KSTC STC20000626061009806/26/00 06:10:31  5-MIN KSTC 261210Z AUTO 29007KT 10SM CLR 15/13 A2998 970 86 1200 290/07 RMK AO2
14926KSTC STC20000626061509806/26/00 06:15:31  5-MIN KSTC 261215Z AUTO 30008KT 10SM CLR 15/13 A2998 980 86 1200 290/08 RMK AO2
14926KSTC STC20000626062009806/26/00 06:20:31  5-MIN KSTC 261220Z AUTO 29007KT 10SM CLR 15/13 A2998 980 86 1200 290/07 RMK AO2
14926KSTC STC20000626062509806/26/00 06:25:31  5-MIN KSTC 261225Z AUTO 30007KT 10SM CLR 15/13 A2998 970 86 1200 290/07 RMK AO2
14926KSTC STC20000626063009806/26/00 06:30:31  5-MIN KSTC 261230Z AUTO 29007KT 10SM CLR 16/13 A2998 970 86 1300 290/07 RMK AO2
14926KSTC STC20000626063509806/26/00 06:35:31  5-MIN KSTC 261235Z AUTO 29006KT 10SM CLR 16/13 A2998 970 83 1300 280/06 RMK AO2
14926KSTC STC20000626064009806/26/00 06:40:31  5-MIN KSTC 261240Z AUTO 29005KT 10SM CLR 16/13 A2998 970 86 1300 280/05 RMK AO2
14926KSTC STC20000626064509806/26/00 06:45:31  5-MIN KSTC 261245Z AUTO 28006KT 10SM CLR 16/13 A2998 970 83 1400 280/06 RMK AO2
14926KSTC STC20000626065011506/26/00 06:50:31  5-MIN KSTC 261250Z AUTO 28006KT 10SM CLR 16/13 A2998 970 83 1400 280/06 RMK AO2 SLP159 T01610133
14926KSTC STC20000626065509806/26/00 06:55:31  5-MIN KSTC 261255Z AUTO 28006KT 10SM CLR 16/13 A2998 970 83 1400 280/06 RMK AO2
14926KSTC STC20000626070009806/26/00 07:00:31  5-MIN KSTC 261300Z AUTO 29007KT 10SM CLR 16/13 A2998 970 83 1400 280/07 RMK AO2
14926KSTC STC20000626070509806/26/00 07:05:31  5-MIN KSTC 261305Z AUTO 30007KT 10SM CLR 17/13 A2998 970 80 1400 290/07 RMK AO2
14926KSTC STC20000626071009806/26/00 07:10:31  5-MIN KSTC 261310Z AUTO 28007KT 10SM CLR 17/13 A2999 970 80 1400 280/07 RMK AO2
14926KSTC STC20000626071509806/26/00 07:15:31  5-MIN KSTC 261315Z AUTO 29007KT 10SM CLR 17/13 A2999 960 80 1400 280/07 RMK AO2
14926KSTC STC20000626072009806/26/00 07:20:31  5-MIN KSTC 261320Z AUTO 29009KT 10SM CLR 17/13 A2999 960 78 1500 290/09 RMK AO2
14926KSTC STC20000626072509806/26/00 07:25:31  5-MIN KSTC 261325Z AUTO 29008KT 10SM CLR 17/13 A2999 960 78 1500 290/08 RMK AO2
14926KSTC STC20000626073009806/26/00 07:30:31  5-MIN KSTC 261330Z AUTO 29009KT 10SM CLR 17/13 A2999 960 78 1500 290/09 RMK AO2
14926KSTC STC20000626073509806/26/00 07:35:31  5-MIN KSTC 261335Z AUTO 29009KT 10SM CLR 17/13 A2998 970 78 1500 290/09 RMK AO2
14926KSTC STC20000626074009806/26/00 07:40:31  5-MIN KSTC 261340Z AUTO 30009KT 10SM CLR 18/13 A2998 970 75 1600 300/09 RMK AO2
14926KSTC STC20000626074509806/26/00 07:45:31  5-MIN KSTC 261345Z AUTO 30008KT 10SM CLR 18/13 A2998 970 75 1600 300/08 RMK AO2
14926KSTC STC20000626075011506/26/00 07:50:31  5-MIN KSTC 261350Z AUTO 30007KT 10SM CLR 18/13 A2999 960 72 1600 300/07 RMK AO2 SLP160 T01830133
14926KSTC STC20000626075509806/26/00 07:55:31  5-MIN KSTC 261355Z AUTO 30008KT 10SM CLR 18/13 A2999 970 70 1600 300/08 RMK AO2
14926KSTC STC20000626080009806/26/00 08:00:31  5-MIN KSTC 261400Z AUTO 30009KT 10SM CLR 18/13 A2998 970 72 1600 300/09 RMK AO2
14926KSTC STC20000626080509806/26/00 08:05:31  5-MIN KSTC 261405Z AUTO 31009KT 10SM CLR 18/13 A2998 970 70 1600 310/09 RMK AO2
14926KSTC STC20000626081009806/26/00 08:10:31  5-MIN KSTC 261410Z AUTO 29010KT 10SM CLR 19/13 A2998 970 67 1700 290/10 RMK AO2
14926KSTC STC20000626081509806/26/00 08:15:31  5-MIN KSTC 261415Z AUTO 29009KT 10SM CLR 19/12 A2998 970 65 1700 290/09 RMK AO2
14926KSTC STC20000626082009806/26/00 08:20:31  5-MIN KSTC 261420Z AUTO 30009KT 10SM CLR 19/13 A2998 970 67 1700 300/09 RMK AO2
14926KSTC STC20000626082509806/26/00 08:25:31  5-MIN KSTC 261425Z AUTO 30009KT 10SM CLR 19/12 A2998 970 65 1700 300/09 RMK AO2
14926KSTC STC20000626083009806/26/00 08:30:31  5-MIN KSTC 261430Z AUTO 30009KT 10SM CLR 19/12 A2999 970 62 1700 300/09 RMK AO2
14926KSTC STC20000626083509806/26/00 08:35:31  5-MIN KSTC 261435Z AUTO 30012KT 10SM CLR 19/12 A2999 960 62 1700 300/12 RMK AO2
14926KSTC STC20000626084009806/26/00 08:40:31  5-MIN KSTC 261440Z AUTO 30010KT 10SM CLR 19/12 A2999 960 62 1700 290/10 RMK AO2
14926KSTC STC20000626084509806/26/00 08:45:31  5-MIN KSTC 261445Z AUTO 31010KT 10SM CLR 19/12 A2999 960 62 1700 310/10 RMK AO2
14926KSTC STC20000626085012106/26/00 08:50:31  5-MIN KSTC 261450Z AUTO 30012KT 10SM CLR 19/12 A2999 970 62 1700 300/12 RMK AO2 SLP160 T01940122 51011
14926KSTC STC20000626085509806/26/00 08:55:31  5-MIN KSTC 261455Z AUTO 30014KT 10SM CLR 20/12 A2999 970 58 1800 300/14 RMK AO2
14926KSTC STC20000626090009806/26/00 09:00:31  5-MIN KSTC 261500Z AUTO 32012KT 10SM CLR 20/12 A2999 960 58 1800 310/12 RMK AO2
14926KSTC STC20000626090509806/26/00 09:05:31  5-MIN KSTC 261505Z AUTO 29011KT 10SM CLR 20/12 A2999 970 60 1800 290/11 RMK AO2
14926KSTC STC20000626091009806/26/00 09:10:31  5-MIN KSTC 261510Z AUTO 30014KT 10SM CLR 21/12 A2999 970 56 1900 290/14 RMK AO2
14926KSTC STC20000626091509806/26/00 09:15:31  5-MIN KSTC 261515Z AUTO 31012KT 10SM CLR 20/12 A2998 970 58 1800 310/12 RMK AO2
14926KSTC STC20000626092009806/26/00 09:20:31  5-MIN KSTC 261520Z AUTO 31016KT 10SM CLR 20/12 A2998 970 58 1800 310/16 RMK AO2
14926KSTC STC20000626092510406/26/00 09:25:31  5-MIN KSTC 261525Z AUTO 28012G18KT 10SM CLR 20/12 A2999 970 58 1800 280/12G18 RMK AO2
14926KSTC STC20000626093010406/26/00 09:30:31  5-MIN KSTC 261530Z AUTO 29015G20KT 10SM CLR 21/11 A2999 970 54 1900 290/15G20 RMK AO2
14926KSTC STC20000626093510406/26/00 09:35:31  5-MIN KSTC 261535Z AUTO 31012G20KT 10SM CLR 21/12 A2998 970 56 1900 300/12G20 RMK AO2
14926KSTC STC20000626094009806/26/00 09:40:31  5-MIN KSTC 261540Z AUTO 30015KT 10SM CLR 21/12 A2998 970 56 1900 290/15 RMK AO2
14926KSTC STC20000626094509806/26/00 09:45:31  5-MIN KSTC 261545Z AUTO 30015KT 10SM CLR 21/11 A2998 970 54 1900 290/15 RMK AO2
14926KSTC STC20000626095012406/26/00 09:50:31  5-MIN KSTC 261550Z AUTO 30015G20KT 10SM FEW044 21/11 A2998 970 54 1900 300/15G20 RMK AO2 SLP158 T02060111
14926KSTC STC20000626095510706/26/00 09:55:31  5-MIN KSTC 261555Z AUTO 29011G20KT 10SM FEW045 21/12 A2998 970 58 1900 280/11G20 RMK AO2
14926KSTC STC20000626100010806/26/00 10:00:31  5-MIN KSTC 261600Z AUTO 29013KT 10SM FEW040 SCT047 21/12 A2999 970 56 1900 280/13 RMK AO2
14926KSTC STC20000626100510706/26/00 10:05:31  5-MIN KSTC 261605Z AUTO 28016G20KT 10SM FEW043 21/11 A2999 960 52 1900 280/16G20 RMK AO2
14926KSTC STC20000626101010106/26/00 10:10:31  5-MIN KSTC 261610Z AUTO 30015KT 10SM FEW043 21/11 A2999 960 52 1900 290/15 RMK AO2
14926KSTC STC20000626101510106/26/00 10:15:31  5-MIN KSTC 261615Z AUTO 31013KT 10SM SCT045 21/11 A2999 970 52 1900 300/13 RMK AO2
14926KSTC STC20000626102010806/26/00 10:20:31  5-MIN KSTC 261620Z AUTO 29011KT 10SM SCT044 SCT050 21/12 A2999 960 54 1900 290/11 RMK AO2
14926KSTC STC20000626102510806/26/00 10:25:31  5-MIN KSTC 261625Z AUTO 30016KT 10SM SCT044 SCT050 21/11 A2999 960 52 1900 290/16 RMK AO2
14926KSTC STC20000626103010806/26/00 10:30:31  5-MIN KSTC 261630Z AUTO 29019KT 10SM FEW042 SCT050 22/11 A2999 960 50 2000 290/19 RMK AO2
14926KSTC STC20000626103510706/26/00 10:35:31  5-MIN KSTC 261635Z AUTO 29017G21KT 10SM FEW042 21/11 A2999 960 50 1900 290/17G21 RMK AO2
14926KSTC STC20000626104010706/26/00 10:40:31  5-MIN KSTC 261640Z AUTO 29014G21KT 10SM FEW042 21/11 A2999 970 50 1900 290/14G21 RMK AO2
14926KSTC STC20000626104510106/26/00 10:45:31  5-MIN KSTC 261645Z AUTO 29010KT 10SM FEW045 22/11 A2998 970 50 2000 280/10 RMK AO2
14926KSTC STC20000626105012406/26/00 10:50:31  5-MIN KSTC 261650Z AUTO 27016G20KT 10SM SCT046 22/11 A2999 970 49 2000 270/16G20 RMK AO2 SLP159 T02170106
14926KSTC STC20000626105510706/26/00 10:55:31  5-MIN KSTC 261655Z AUTO 29015G21KT 10SM SCT049 22/11 A2999 960 47 2100 290/15G21 RMK AO2
14926KSTC STC20000626110011406/26/00 11:00:31  5-MIN KSTC 261700Z AUTO 28015G21KT 10SM FEW049 SCT055 22/10 A2999 960 47 2000 280/15G21 RMK AO2
14926KSTC STC20000626110511406/26/00 11:05:31  5-MIN KSTC 261705Z AUTO 28017G22KT 10SM FEW049 SCT055 22/09 A2999 960 45 2000 280/17G22 RMK AO2
14926KSTC STC20000626111010106/26/00 11:10:31  5-MIN KSTC 261710Z AUTO 28018KT 10SM FEW049 22/09 A2999 960 43 2000 280/18 RMK AO2
14926KSTC STC20000626111510706/26/00 11:15:31  5-MIN KSTC 261715Z AUTO 30015G23KT 10SM FEW049 22/09 A2999 960 43 2000 300/15G23 RMK AO2
14926KSTC STC20000626112010706/26/00 11:20:31  5-MIN KSTC 261720Z AUTO 29016G23KT 10SM FEW049 22/09 A2999 960 43 2100 280/16G23 RMK AO2
14926KSTC STC20000626112510406/26/00 11:25:31  5-MIN KSTC 261725Z AUTO 30015G23KT 10SM CLR 22/09 A2999 960 42 2100 300/15G23 RMK AO2
14926KSTC STC20000626113010406/26/00 11:30:31  5-MIN KSTC 261730Z AUTO 29016G23KT 10SM CLR 22/09 A3000 960 43 2100 290/16G23 RMK AO2
14926KSTC STC20000626113510406/26/00 11:35:31  5-MIN KSTC 261735Z AUTO 28018G24KT 10SM CLR 22/08 A3000 960 39 2100 280/18G24 RMK AO2
14926KSTC STC20000626114010406/26/00 11:40:31  5-MIN KSTC 261740Z AUTO 29015G24KT 10SM CLR 22/08 A3000 960 39 2100 280/15G24 RMK AO2
14926KSTC STC20000626114512206/26/00 11:45:31  5-MIN KSTC 261745Z AUTO 30018G26KT 10SM CLR 22/08 A3000 960 39 2100 300/18G26 RMK AO2 PK WND 30026/1743
14926KSTC STC20000626115015706/26/00 11:50:31  5-MIN KSTC 261750Z AUTO 29016G26KT 10SM CLR 22/08 A3000 960 39 2100 290/16G26 RMK AO2 PK WND 30026/1743 SLP162 T02220078 10222 20144 50004
14926KSTC STC20000626115510406/26/00 11:55:31  5-MIN KSTC 261755Z AUTO 29020G24KT 10SM CLR 22/07 A2999 960 37 2100 290/20G24 RMK AO2
14926KSTC STC20000626120010406/26/00 12:00:31  5-MIN KSTC 261800Z AUTO 29020G24KT 10SM CLR 22/07 A3000 960 37 2100 290/20G24 RMK AO2
14926KSTC STC20000626120510406/26/00 12:05:31  5-MIN KSTC 261805Z AUTO 29015G24KT 10SM CLR 22/08 A3000 950 39 2100 290/15G24 RMK AO2
14926KSTC STC20000626121010406/26/00 12:10:31  5-MIN KSTC 261810Z AUTO 29015G21KT 10SM CLR 23/08 A2999 960 39 2100 290/15G21 RMK AO2
14926KSTC STC20000626121510406/26/00 12:15:31  5-MIN KSTC 261815Z AUTO 29020G24KT 10SM CLR 23/07 A3000 950 36 2100 290/20G24 RMK AO2
14926KSTC STC20000626122010406/26/00 12:20:31  5-MIN KSTC 261820Z AUTO 31017G24KT 10SM CLR 22/07 A2999 960 37 2100 300/17G24 RMK AO2
14926KSTC STC20000626122510406/26/00 12:25:31  5-MIN KSTC 261825Z AUTO 30017G24KT 10SM CLR 22/08 A3000 960 40 2100 300/17G24 RMK AO2
14926KSTC STC20000626123009806/26/00 12:30:31  5-MIN KSTC 261830Z AUTO 29018KT 10SM CLR 23/08 A3000 960 39 2100 280/18 RMK AO2
14926KSTC STC20000626123509806/26/00 12:35:31  5-MIN KSTC 261835Z AUTO 29018KT 10SM CLR 22/07 A2999 960 37 2100 280/18 RMK AO2
14926KSTC STC20000626124010406/26/00 12:40:31  5-MIN KSTC 261840Z AUTO 29017G24KT 10SM CLR 22/08 A2999 960 39 2100 280/17G24 RMK AO2
14926KSTC STC20000626124510406/26/00 12:45:31  5-MIN KSTC 261845Z AUTO 28017G24KT 10SM CLR 22/08 A2999 960 39 2100 280/17G24 RMK AO2
14926KSTC STC20000626125012106/26/00 12:50:31  5-MIN KSTC 261850Z AUTO 30017G24KT 10SM CLR 23/07 A2999 960 36 2100 300/17G24 RMK AO2 SLP161 T02280072
14926KSTC STC20000626125510406/26/00 12:55:31  5-MIN KSTC 261855Z AUTO 30020G24KT 10SM CLR 23/07 A2999 960 36 2100 300/20G24 RMK AO2
14926KSTC STC20000626130012206/26/00 13:00:31  5-MIN KSTC 261900Z AUTO 29020G26KT 10SM CLR 22/07 A2999 960 37 2100 290/20G26 RMK AO2 PK WND 28026/1900
14926KSTC STC20000626130512206/26/00 13:05:31  5-MIN KSTC 261905Z AUTO 30018G26KT 10SM CLR 23/08 A2999 960 37 2100 300/18G26 RMK AO2 PK WND 28026/1900
14926KSTC STC20000626131012206/26/00 13:10:31  5-MIN KSTC 261910Z AUTO 29019G25KT 10SM CLR 22/07 A2999 960 37 2100 290/19G25 RMK AO2 PK WND 28026/1900
14926KSTC STC20000626131512206/26/00 13:15:31  5-MIN KSTC 261915Z AUTO 29021G27KT 10SM CLR 22/07 A2999 960 36 2100 290/21G27 RMK AO2 PK WND 29027/1912
14926KSTC STC20000626132012206/26/00 13:20:31  5-MIN KSTC 261920Z AUTO 30020G27KT 10SM CLR 22/07 A2999 960 36 2100 300/20G27 RMK AO2 PK WND 29027/1912
14926KSTC STC20000626132512206/26/00 13:25:31  5-MIN KSTC 261925Z AUTO 32020G26KT 10SM CLR 22/08 A2999 960 39 2100 310/20G26 RMK AO2 PK WND 29027/1912
14926KSTC STC20000626133012206/26/00 13:30:31  5-MIN KSTC 261930Z AUTO 30017G26KT 10SM CLR 22/08 A2999 960 40 2000 300/17G26 RMK AO2 PK WND 29027/1912
14926KSTC STC20000626133512506/26/00 13:35:31  5-MIN KSTC 261935Z AUTO 29019G25KT 10SM FEW055 23/09 A2999 960 40 2100 290/19G25 RMK AO2 PK WND 29027/1912
14926KSTC STC20000626134012506/26/00 13:40:31  5-MIN KSTC 261940Z AUTO 30014G23KT 10SM FEW055 23/09 A2999 960 40 2100 300/14G23 RMK AO2 PK WND 29027/1912
14926KSTC STC20000626134512506/26/00 13:45:31  5-MIN KSTC 261945Z AUTO 31019G24KT 10SM FEW055 22/08 A2999 960 40 2100 300/19G24 RMK AO2 PK WND 29027/1912
14926KSTC STC20000626135014206/26/00 13:50:31  5-MIN KSTC 261950Z AUTO 30017G24KT 10SM FEW055 22/09 A2999 960 42 2100 300/17G24 RMK AO2 PK WND 29027/1912 SLP162 T02220089
14926KSTC STC20000626135510706/26/00 13:55:31  5-MIN KSTC 261955Z AUTO 30019G22KT 10SM FEW055 22/08 A2999 960 39 2100 300/19G22 RMK AO2
14926KSTC STC20000626140010706/26/00 14:00:31  5-MIN KSTC 262000Z AUTO 30020G25KT 10SM FEW055 22/08 A2999 960 39 2100 300/20G25 RMK AO2
14926KSTC STC20000626140510706/26/00 14:05:31  5-MIN KSTC 262005Z AUTO 29019G25KT 10SM FEW055 22/07 A2999 960 37 2100 280/19G25 RMK AO2
14926KSTC STC20000626141010706/26/00 14:10:31  5-MIN KSTC 262010Z AUTO 30019G24KT 10SM FEW055 22/08 A2999 960 39 2100 290/19G24 RMK AO2
14926KSTC STC20000626141510706/26/00 14:15:31  5-MIN KSTC 262015Z AUTO 29017G24KT 10SM FEW055 23/08 A3000 960 37 2100 290/17G24 RMK AO2
14926KSTC STC20000626142010706/26/00 14:20:31  5-MIN KSTC 262020Z AUTO 29014G22KT 10SM FEW060 22/08 A3000 960 39 2100 290/14G22 RMK AO2
14926KSTC STC20000626142510706/26/00 14:25:31  5-MIN KSTC 262025Z AUTO 28018G23KT 10SM SCT055 23/08 A3000 960 39 2100 280/18G23 RMK AO2
14926KSTC STC20000626143010706/26/00 14:30:31  5-MIN KSTC 262030Z AUTO 28017G23KT 10SM SCT055 23/08 A2999 960 39 2100 280/17G23 RMK AO2
14926KSTC STC20000626143510706/26/00 14:35:31  5-MIN KSTC 262035Z AUTO 29020G24KT 10SM SCT060 22/08 A3000 960 40 2100 290/20G24 RMK AO2
14926KSTC STC20000626144010706/26/00 14:40:31  5-MIN KSTC 262040Z AUTO 30019G24KT 10SM SCT055 22/08 A3000 950 39 2100 290/19G24 RMK AO2
14926KSTC STC20000626144510706/26/00 14:45:31  5-MIN KSTC 262045Z AUTO 29018G24KT 10SM SCT060 23/08 A3000 950 37 2100 290/18G24 RMK AO2
14926KSTC STC20000626145013006/26/00 14:50:31  5-MIN KSTC 262050Z AUTO 28020G25KT 10SM SCT060 23/07 A3000 960 36 2100 280/20G25 RMK AO2 SLP164 T02280072 53003
14926KSTC STC20000626145510706/26/00 14:55:31  5-MIN KSTC 262055Z AUTO 29021G25KT 10SM SCT060 22/06 A3000 960 35 2100 290/21G25 RMK AO2
14926KSTC STC20000626150010706/26/00 15:00:31  5-MIN KSTC 262100Z AUTO 28018G25KT 10SM SCT060 23/07 A3000 950 35 2100 280/18G25 RMK AO2
14926KSTC STC20000626150510706/26/00 15:05:31  5-MIN KSTC 262105Z AUTO 30019G24KT 10SM SCT060 22/07 A2999 960 37 2100 290/19G24 RMK AO2
14926KSTC STC20000626151012506/26/00 15:10:31  5-MIN KSTC 262110Z AUTO 30020G27KT 10SM BKN060 22/07 A3000 960 37 2100 300/20G27 RMK AO2 PK WND 30027/2109
14926KSTC STC20000626151512506/26/00 15:15:31  5-MIN KSTC 262115Z AUTO 29016G27KT 10SM SCT060 22/08 A3000 950 39 2100 290/16G27 RMK AO2 PK WND 30027/2109
14926KSTC STC20000626152012506/26/00 15:20:31  5-MIN KSTC 262120Z AUTO 30013G24KT 10SM SCT060 23/08 A3000 950 37 2100 300/13G24 RMK AO2 PK WND 30027/2109
14926KSTC STC20000626152512506/26/00 15:25:31  5-MIN KSTC 262125Z AUTO 30019G23KT 10SM FEW060 22/07 A3000 950 39 2000 290/19G23 RMK AO2 PK WND 30027/2109
14926KSTC STC20000626153012506/26/00 15:30:31  5-MIN KSTC 262130Z AUTO 30016G23KT 10SM FEW060 22/08 A3000 950 40 2000 300/16G23 RMK AO2 PK WND 30027/2109
14926KSTC STC20000626153512506/26/00 15:35:31  5-MIN KSTC 262135Z AUTO 31017G21KT 10SM FEW060 21/08 A3000 950 42 1900 300/17G21 RMK AO2 PK WND 30027/2109
14926KSTC STC20000626154012506/26/00 15:40:31  5-MIN KSTC 262140Z AUTO 31012G21KT 10SM FEW060 22/09 A3000 950 42 2100 310/12G21 RMK AO2 PK WND 30027/2109
14926KSTC STC20000626154512506/26/00 15:45:31  5-MIN KSTC 262145Z AUTO 31016G20KT 10SM SCT060 22/08 A3000 950 40 2100 310/16G20 RMK AO2 PK WND 30027/2109
14926KSTC STC20000626155013606/26/00 15:50:31  5-MIN KSTC 262150Z AUTO 29014KT 10SM SCT060 22/08 A3000 950 40 2000 290/14 RMK AO2 PK WND 30027/2109 SLP166 T02170078
14926KSTC STC20000626155510706/26/00 15:55:31  5-MIN KSTC 262155Z AUTO 31016G21KT 10SM SCT060 21/07 A3000 960 41 1900 300/16G21 RMK AO2
14926KSTC STC20000626160010706/26/00 16:00:31  5-MIN KSTC 262200Z AUTO 30019G23KT 10SM SCT060 22/08 A3000 960 40 2000 300/19G23 RMK AO2
14926KSTC STC20000626160510706/26/00 16:05:31  5-MIN KSTC 262205Z AUTO 30017G23KT 10SM FEW060 22/07 A3000 960 39 2000 300/17G23 RMK AO2
14926KSTC STC20000626161010706/26/00 16:10:31  5-MIN KSTC 262210Z AUTO 30016G23KT 10SM FEW060 22/08 A3000 960 40 2000 290/16G23 RMK AO2
14926KSTC STC20000626161510706/26/00 16:15:31  5-MIN KSTC 262215Z AUTO 31015G20KT 10SM FEW060 21/08 A3000 960 42 1900 310/15G20 RMK AO2
14926KSTC STC20000626162010406/26/00 16:20:31  5-MIN KSTC 262220Z AUTO 30014G20KT 10SM CLR 22/08 A3000 960 40 2000 290/14G20 RMK AO2
14926KSTC STC20000626162510406/26/00 16:25:31  5-MIN KSTC 262225Z AUTO 29016G22KT 10SM CLR 22/07 A3000 960 37 2100 290/16G22 RMK AO2
14926KSTC STC20000626163012506/26/00 16:30:31  5-MIN KSTC 262230Z AUTO 30018G26KT 10SM FEW065 22/07 A3000 960 37 2100 290/18G26 RMK AO2 PK WND 31026/2226
14926KSTC STC20000626163512506/26/00 16:35:31  5-MIN KSTC 262235Z AUTO 30016G26KT 10SM SCT065 21/07 A3000 960 40 1900 300/16G26 RMK AO2 PK WND 31026/2226
14926KSTC STC20000626164012506/26/00 16:40:31  5-MIN KSTC 262240Z AUTO 31017G23KT 10SM SCT065 21/07 A3000 950 40 1900 300/17G23 RMK AO2 PK WND 31026/2226
14926KSTC STC20000626164511906/26/00 16:45:31  5-MIN KSTC 262245Z AUTO 30018KT 10SM FEW065 21/07 A3000 950 40 1900 300/18 RMK AO2 PK WND 31026/2226
14926KSTC STC20000626165014206/26/00 16:50:31  5-MIN KSTC 262250Z AUTO 30016G22KT 10SM SCT065 22/07 A3000 950 39 2000 300/16G22 RMK AO2 PK WND 31026/2226 SLP166 T02170072
14926KSTC STC20000626165510706/26/00 16:55:31  5-MIN KSTC 262255Z AUTO 31018G23KT 10SM SCT060 21/07 A3000 950 40 1900 300/18G23 RMK AO2
14926KSTC STC20000626170010706/26/00 17:00:31  5-MIN KSTC 262300Z AUTO 30015G23KT 10SM SCT060 21/08 A3000 950 42 1900 300/15G23 RMK AO2
14926KSTC STC20000626170510706/26/00 17:05:31  5-MIN KSTC 262305Z AUTO 31016G21KT 10SM FEW060 21/08 A3000 950 42 1900 310/16G21 RMK AO2
14926KSTC STC20000626171010706/26/00 17:10:31  5-MIN KSTC 262310Z AUTO 30015G21KT 10SM FEW060 22/07 A3000 950 39 2000 300/15G21 RMK AO2
14926KSTC STC20000626171510106/26/00 17:15:31  5-MIN KSTC 262315Z AUTO 31012KT 10SM FEW060 22/08 A3001 950 40 2000 310/12 RMK AO2
14926KSTC STC20000626172010706/26/00 17:20:31  5-MIN KSTC 262320Z AUTO 30017G23KT 10SM FEW060 22/08 A3001 950 40 2000 300/17G23 RMK AO2
14926KSTC STC20000626172510706/26/00 17:25:31  5-MIN KSTC 262325Z AUTO 29017G23KT 10SM FEW060 21/07 A3001 950 38 1900 290/17G23 RMK AO2
14926KSTC STC20000626173010706/26/00 17:30:31  5-MIN KSTC 262330Z AUTO 29016G22KT 10SM FEW060 22/07 A3001 950 39 2000 290/16G22 RMK AO2
14926KSTC STC20000626173510106/26/00 17:35:31  5-MIN KSTC 262335Z AUTO 29020KT 10SM FEW060 21/07 A3001 940 38 1900 290/20 RMK AO2
14926KSTC STC20000626174009806/26/00 17:40:31  5-MIN KSTC 262340Z AUTO 30016KT 10SM CLR 21/07 A3001 940 40 1900 300/16 RMK AO2
14926KSTC STC20000626174510106/26/00 17:45:31  5-MIN KSTC 262345Z AUTO 31015KT 10SM FEW060 21/07 A3001 940 41 1800 300/15 RMK AO2
14926KSTC STC20000626175014206/26/00 17:50:31  5-MIN KSTC 262350Z AUTO 31018G23KT 10SM SCT060 21/07 A3001 940 41 1800 310/18G23 RMK AO2 SLP170 T02060072 10228 20206 53000
14926KSTC STC20000626175510706/26/00 17:55:31  5-MIN KSTC 262355Z AUTO 31016G23KT 10SM SCT060 21/07 A3001 940 40 1900 300/16G23 RMK AO2
14926KSTC STC20000626180010706/26/00 18:00:31  5-MIN KSTC 270000Z AUTO 30017G21KT 10SM SCT060 21/07 A3001 940 41 1800 300/17G21 RMK AO2
14926KSTC STC20000626180510706/26/00 18:05:31  5-MIN KSTC 270005Z AUTO 30012G21KT 10SM FEW060 21/07 A3001 940 41 1800 290/12G21 RMK AO2
14926KSTC STC20000626181010706/26/00 18:10:31  5-MIN KSTC 270010Z AUTO 30015G20KT 10SM FEW060 21/07 A3001 940 41 1800 300/15G20 RMK AO2
14926KSTC STC20000626181510706/26/00 18:15:31  5-MIN KSTC 270015Z AUTO 29016G22KT 10SM FEW060 21/07 A3001 940 41 1800 290/16G22 RMK AO2
14926KSTC STC20000626182010706/26/00 18:20:31  5-MIN KSTC 270020Z AUTO 30014G22KT 10SM FEW060 21/08 A3001 940 43 1800 300/14G22 RMK AO2
14926KSTC STC20000626182510406/26/00 18:25:31  5-MIN KSTC 270025Z AUTO 31014G21KT 10SM CLR 19/08 A3002 940 46 1700 300/14G21 RMK AO2
14926KSTC STC20000626183010706/26/00 18:30:31  5-MIN KSTC 270030Z AUTO 30014G20KT 10SM FEW060 20/08 A3002 940 45 1800 300/14G20 RMK AO2
14926KSTC STC20000626183510706/26/00 18:35:31  5-MIN KSTC 270035Z AUTO 31013G20KT 10SM FEW060 20/08 A3002 940 45 1800 300/13G20 RMK AO2
14926KSTC STC20000626184010106/26/00 18:40:31  5-MIN KSTC 270040Z AUTO 30010KT 10SM FEW060 20/08 A3002 930 45 1800 300/10 RMK AO2
14926KSTC STC20000626184510106/26/00 18:45:31  5-MIN KSTC 270045Z AUTO 30013KT 10SM FEW060 20/08 A3002 930 45 1800 300/13 RMK AO2
14926KSTC STC20000626185011806/26/00 18:50:31  5-MIN KSTC 270050Z AUTO 31010KT 10SM SCT055 20/08 A3002 930 46 1800 310/10 RMK AO2 SLP173 T02000083
14926KSTC STC20000626185510106/26/00 18:55:31  5-MIN KSTC 270055Z AUTO 32010KT 10SM SCT055 19/08 A3003 930 46 1700 310/10 RMK AO2
14926KSTC STC20000626190010106/26/00 19:00:31  5-MIN KSTC 270100Z AUTO 32011KT 10SM FEW055 19/08 A3003 930 46 1700 320/11 RMK AO2
14926KSTC STC20000626190510106/26/00 19:05:31  5-MIN KSTC 270105Z AUTO 31011KT 10SM FEW055 19/07 A3003 930 46 1600 310/11 RMK AO2
14926KSTC STC20000626191010106/26/00 19:10:31  5-MIN KSTC 270110Z AUTO 31010KT 10SM FEW055 19/08 A3003 930 48 1600 310/10 RMK AO2
14926KSTC STC20000626191510106/26/00 19:15:31  5-MIN KSTC 270115Z AUTO 31009KT 10SM FEW055 19/08 A3003 930 48 1600 310/09 RMK AO2
14926KSTC STC20000626192009806/26/00 19:20:31  5-MIN KSTC 270120Z AUTO 30008KT 10SM CLR 18/08 A3003 920 50 1600 300/08 RMK AO2
14926KSTC STC20000626192509806/26/00 19:25:31  5-MIN KSTC 270125Z AUTO 30012KT 10SM CLR 18/08 A3003 920 50 1600 300/12 RMK AO2
14926KSTC STC20000626193009806/26/00 19:30:31  5-MIN KSTC 270130Z AUTO 30010KT 10SM CLR 18/07 A3003 920 48 1600 290/10 RMK AO2
14926KSTC STC20000626193509806/26/00 19:35:31  5-MIN KSTC 270135Z AUTO 31009KT 10SM CLR 18/07 A3003 920 48 1600 300/09 RMK AO2
14926KSTC STC20000626194009806/26/00 19:40:31  5-MIN KSTC 270140Z AUTO 30008KT 10SM CLR 18/07 A3003 920 48 1600 300/08 RMK AO2
14926KSTC STC20000626194509806/26/00 19:45:31  5-MIN KSTC 270145Z AUTO 30008KT 10SM CLR 18/08 A3004 920 51 1500 300/08 RMK AO2
14926KSTC STC20000626195011506/26/00 19:50:31  5-MIN KSTC 270150Z AUTO 30006KT 10SM CLR 17/08 A3004 920 53 1400 300/06 RMK AO2 SLP178 T01720078
14926KSTC STC20000626195509806/26/00 19:55:31  5-MIN KSTC 270155Z AUTO 31006KT 10SM CLR 17/08 A3004 920 53 1400 300/06 RMK AO2
14926KSTC STC20000626200009806/26/00 20:00:31  5-MIN KSTC 270200Z AUTO 30007KT 10SM CLR 17/08 A3004 920 53 1400 300/07 RMK AO2
14926KSTC STC20000626200509806/26/00 20:05:31  5-MIN KSTC 270205Z AUTO 30006KT 10SM CLR 17/08 A3004 910 55 1400 290/06 RMK AO2
14926KSTC STC20000626201009806/26/00 20:10:31  5-MIN KSTC 270210Z AUTO 29006KT 10SM CLR 17/08 A3004 910 57 1400 290/06 RMK AO2
14926KSTC STC20000626201509806/26/00 20:15:31  5-MIN KSTC 270215Z AUTO 28006KT 10SM CLR 16/08 A3004 910 59 1300 270/06 RMK AO2
14926KSTC STC20000626202009806/26/00 20:20:31  5-MIN KSTC 270220Z AUTO 28006KT 10SM CLR 16/08 A3005 910 59 1300 280/06 RMK AO2
14926KSTC STC20000626202509806/26/00 20:25:31  5-MIN KSTC 270225Z AUTO 28007KT 10SM CLR 16/08 A3005 910 59 1300 280/07 RMK AO2
14926KSTC STC20000626203009806/26/00 20:30:31  5-MIN KSTC 270230Z AUTO 28007KT 10SM CLR 16/08 A3005 910 59 1300 280/07 RMK AO2
14926KSTC STC20000626203509806/26/00 20:35:31  5-MIN KSTC 270235Z AUTO 29006KT 10SM CLR 16/08 A3005 910 59 1300 280/06 RMK AO2
14926KSTC STC20000626204009806/26/00 20:40:31  5-MIN KSTC 270240Z AUTO 29006KT 10SM CLR 16/08 A3005 910 62 1200 280/06 RMK AO2
14926KSTC STC20000626204509806/26/00 20:45:31  5-MIN KSTC 270245Z AUTO 29006KT 10SM CLR 16/08 A3005 900 62 1200 290/06 RMK AO2
14926KSTC STC20000626205012106/26/00 20:50:31  5-MIN KSTC 270250Z AUTO 30005KT 10SM CLR 15/09 A3005 900 66 1200 290/05 RMK AO2 SLP184 T01500089 53005
14926KSTC STC20000626205509806/26/00 20:55:31  5-MIN KSTC 270255Z AUTO 29005KT 10SM CLR 14/08 A3005 900 66 1100 290/05 RMK AO2
14926KSTC STC20000626210009806/26/00 21:00:31  5-MIN KSTC 270300Z AUTO 28005KT 10SM CLR 14/09 A3006 900 69 1100 280/05 RMK AO2
14926KSTC STC20000626210509806/26/00 21:05:31  5-MIN KSTC 270305Z AUTO 28006KT 10SM CLR 14/09 A3006 900 71 1000 280/06 RMK AO2
14926KSTC STC20000626211009806/26/00 21:10:31  5-MIN KSTC 270310Z AUTO 28006KT 10SM CLR 14/08 A3006 900 66 1100 280/06 RMK AO2
14926KSTC STC20000626211509806/26/00 21:15:31  5-MIN KSTC 270315Z AUTO 28006KT 10SM CLR 14/09 A3006 900 69 1100 280/06 RMK AO2
14926KSTC STC20000626212009806/26/00 21:20:31  5-MIN KSTC 270320Z AUTO 28007KT 10SM CLR 15/08 A3006 900 64 1100 280/07 RMK AO2
14926KSTC STC20000626212509806/26/00 21:25:31  5-MIN KSTC 270325Z AUTO 28007KT 10SM CLR 15/08 A3006 900 64 1100 270/07 RMK AO2
14926KSTC STC20000626213009806/26/00 21:30:31  5-MIN KSTC 270330Z AUTO 27007KT 10SM CLR 15/08 A3006 900 64 1100 270/07 RMK AO2
14926KSTC STC20000626213509806/26/00 21:35:31  5-MIN KSTC 270335Z AUTO 28008KT 10SM CLR 15/08 A3006 900 64 1100 280/08 RMK AO2
14926KSTC STC20000626214009806/26/00 21:40:31  5-MIN KSTC 270340Z AUTO 28007KT 10SM CLR 15/08 A3006 890 64 1100 280/07 RMK AO2
14926KSTC STC20000626214509806/26/00 21:45:31  5-MIN KSTC 270345Z AUTO 28007KT 10SM CLR 15/08 A3006 900 64 1100 280/07 RMK AO2
14926KSTC STC20000626215011506/26/00 21:50:31  5-MIN KSTC 270350Z AUTO 28007KT 10SM CLR 15/08 A3006 900 64 1100 280/07 RMK AO2 SLP187 T01500083
14926KSTC STC20000626215509806/26/00 21:55:31  5-MIN KSTC 270355Z AUTO 28007KT 10SM CLR 15/08 A3006 890 64 1100 280/07 RMK AO2
14926KSTC STC20000626220009806/26/00 22:00:31  5-MIN KSTC 270400Z AUTO 29006KT 10SM CLR 15/08 A3006 890 64 1100 290/06 RMK AO2
14926KSTC STC20000626220509806/26/00 22:05:31  5-MIN KSTC 270405Z AUTO 31007KT 10SM CLR 15/08 A3007 890 64 1100 310/07 RMK AO2
14926KSTC STC20000626221010106/26/00 22:10:31  5-MIN KSTC 270410Z AUTO 34008KT 10SM FEW060 15/08 A3007 890 64 1100 340/08 RMK AO2
14926KSTC STC20000626221510106/26/00 22:15:31  5-MIN KSTC 270415Z AUTO 33007KT 10SM FEW060 15/08 A3007 880 64 1100 320/07 RMK AO2
14926KSTC STC20000626222009806/26/00 22:20:31  5-MIN KSTC 270420Z AUTO 32007KT 10SM CLR 14/08 A3008 880 66 1100 320/07 RMK AO2
14926KSTC STC20000626222509806/26/00 22:25:31  5-MIN KSTC 270425Z AUTO 34005KT 10SM CLR 14/08 A3008 880 66 1100 340/05 RMK AO2
14926KSTC STC20000626223009806/26/00 22:30:31  5-MIN KSTC 270430Z AUTO 33005KT 10SM CLR 14/09 A3008 880 71 1000 330/05 RMK AO2
14926KSTC STC20000626223509806/26/00 22:35:31  5-MIN KSTC 270435Z AUTO 32006KT 10SM CLR 14/09 A3008 880 71 1000 320/06 RMK AO2
14926KSTC STC20000626224009706/26/00 22:40:31  5-MIN KSTC 270440Z AUTO 32005KT 10SM CLR 13/09 A3008 880 74 900 320/05 RMK AO2
14926KSTC STC20000626224509706/26/00 22:45:31  5-MIN KSTC 270445Z AUTO 32004KT 10SM CLR 13/09 A3008 880 77 900 320/04 RMK AO2
14926KSTC STC20000626225011406/26/00 22:50:31  5-MIN KSTC 270450Z AUTO 31004KT 10SM CLR 13/09 A3008 880 77 900 310/04 RMK AO2 SLP193 T01280089
14926KSTC STC20000626225509706/26/00 22:55:31  5-MIN KSTC 270455Z AUTO 31005KT 10SM CLR 13/09 A3008 880 77 900 300/05 RMK AO2
14926KSTC STC20000626230009706/26/00 23:00:31  5-MIN KSTC 270500Z AUTO 29005KT 10SM CLR 12/09 A3008 880 80 800 290/05 RMK AO2
14926KSTC STC20000626230509706/26/00 23:05:31  5-MIN KSTC 270505Z AUTO 28004KT 10SM CLR 12/09 A3008 880 80 800 280/04 RMK AO2
14926KSTC STC20000626231009706/26/00 23:10:31  5-MIN KSTC 270510Z AUTO 28004KT 10SM CLR 12/09 A3008 880 80 800 270/04 RMK AO2
14926KSTC STC20000626231509706/26/00 23:15:31  5-MIN KSTC 270515Z AUTO 28005KT 10SM CLR 12/08 A3009 870 80 700 270/05 RMK AO2
14926KSTC STC20000626232009706/26/00 23:20:31  5-MIN KSTC 270520Z AUTO 28005KT 10SM CLR 12/09 A3009 870 83 700 280/05 RMK AO2
14926KSTC STC20000626232509706/26/00 23:25:31  5-MIN KSTC 270525Z AUTO 28006KT 10SM CLR 12/08 A3009 870 80 700 280/06 RMK AO2
14926KSTC STC20000626233009706/26/00 23:30:31  5-MIN KSTC 270530Z AUTO 29006KT 10SM CLR 12/08 A3008 870 80 700 280/06 RMK AO2
14926KSTC STC20000626233509706/26/00 23:35:31  5-MIN KSTC 270535Z AUTO 28006KT 10SM CLR 12/08 A3008 870 80 700 280/06 RMK AO2
14926KSTC STC20000626234009706/26/00 23:40:31  5-MIN KSTC 270540Z AUTO 29005KT 10SM CLR 11/08 A3008 880 83 700 290/05 RMK AO2
14926KSTC STC20000626234509706/26/00 23:45:31  5-MIN KSTC 270545Z AUTO 29005KT 10SM CLR 11/08 A3009 870 83 700 290/05 RMK AO2
14926KSTC STC20000626235014206/26/00 23:50:31  5-MIN KSTC 270550Z AUTO 29005KT 10SM CLR 12/08 A3009 870 80 700 290/05 RMK AO2 SLP195 T01170083 10211 20111 402280111 53014
14926KSTC STC20000626235509706/26/00 23:55:31  5-MIN KSTC 270555Z AUTO 30007KT 10SM CLR 11/08 A3008 880 86 600 300/07 RMK AO2
14926KSTC STC20000627000009706/27/00 00:00:31  5-MIN KSTC 270600Z AUTO 30007KT 10SM CLR 11/08 A3008 880 86 600 300/07 RMK AO2
14926KSTC STC20000627000509706/27/00 00:05:31  5-MIN KSTC 270605Z AUTO 30007KT 10SM CLR 11/08 A3008 880 83 700 300/07 RMK AO2
14926KSTC STC20000627001009706/27/00 00:10:31  5-MIN KSTC 270610Z AUTO 30007KT 10SM CLR 11/08 A3008 880 83 700 300/07 RMK AO2
14926KSTC STC20000627001509706/27/00 00:15:31  5-MIN KSTC 270615Z AUTO 30006KT 10SM CLR 11/08 A3008 880 86 600 300/06 RMK AO2
14926KSTC STC20000627002009706/27/00 00:20:31  5-MIN KSTC 270620Z AUTO 30006KT 10SM CLR 11/08 A3008 880 86 600 290/06 RMK AO2
14926KSTC STC20000627002509706/27/00 00:25:31  5-MIN KSTC 270625Z AUTO 30006KT 10SM CLR 11/08 A3008 880 83 700 290/06 RMK AO2
14926KSTC STC20000627003009706/27/00 00:30:31  5-MIN KSTC 270630Z AUTO 30006KT 10SM CLR 11/08 A3008 880 83 700 290/06 RMK AO2
14926KSTC STC20000627003509706/27/00 00:35:31  5-MIN KSTC 270635Z AUTO 30006KT 10SM CLR 11/08 A3008 880 86 600 290/06 RMK AO2
14926KSTC STC20000627004009706/27/00 00:40:31  5-MIN KSTC 270640Z AUTO 30006KT 10SM CLR 11/08 A3008 880 86 600 290/06 RMK AO2
14926KSTC STC20000627004509706/27/00 00:45:31  5-MIN KSTC 270645Z AUTO 29006KT 10SM CLR 11/08 A3008 880 83 700 290/06 RMK AO2
14926KSTC STC20000627005011406/27/00 00:50:31  5-MIN KSTC 270650Z AUTO 29005KT 10SM CLR 11/08 A3009 870 83 700 290/05 RMK AO2 SLP195 T01110083
14926KSTC STC20000627005509706/27/00 00:55:31  5-MIN KSTC 270655Z AUTO 29005KT 10SM CLR 11/08 A3008 870 83 700 290/05 RMK AO2
14926KSTC STC20000627010009706/27/00 01:00:31  5-MIN KSTC 270700Z AUTO 30006KT 10SM CLR 11/08 A3009 870 86 600 290/06 RMK AO2
14926KSTC STC20000627010509706/27/00 01:05:31  5-MIN KSTC 270705Z AUTO 30006KT 10SM CLR 11/08 A3009 870 86 600 290/06 RMK AO2
14926KSTC STC20000627011009706/27/00 01:10:31  5-MIN KSTC 270710Z AUTO 30006KT 10SM CLR 11/08 A3009 870 86 600 300/06 RMK AO2
14926KSTC STC20000627011509706/27/00 01:15:31  5-MIN KSTC 270715Z AUTO 30007KT 10SM CLR 11/08 A3009 870 86 600 300/07 RMK AO2
14926KSTC STC20000627012009706/27/00 01:20:31  5-MIN KSTC 270720Z AUTO 30007KT 10SM CLR 11/08 A3009 870 83 600 300/07 RMK AO2
14926KSTC STC20000627012509706/27/00 01:25:31  5-MIN KSTC 270725Z AUTO 30007KT 10SM CLR 11/08 A3009 870 83 600 290/07 RMK AO2
14926KSTC STC20000627013009706/27/00 01:30:31  5-MIN KSTC 270730Z AUTO 30007KT 10SM CLR 11/08 A3010 860 83 600 300/07 RMK AO2
14926KSTC STC20000627013509706/27/00 01:35:31  5-MIN KSTC 270735Z AUTO 30007KT 10SM CLR 11/08 A3010 870 83 600 300/07 RMK AO2
14926KSTC STC20000627014009706/27/00 01:40:31  5-MIN KSTC 270740Z AUTO 30007KT 10SM CLR 11/08 A3010 860 83 600 300/07 RMK AO2
14926KSTC STC20000627014509706/27/00 01:45:31  5-MIN KSTC 270745Z AUTO 30006KT 10SM CLR 11/08 A3010 860 83 600 300/06 RMK AO2
14926KSTC STC20000627015011406/27/00 01:50:31  5-MIN KSTC 270750Z AUTO 30007KT 10SM CLR 11/08 A3010 860 86 600 290/07 RMK AO2 SLP200 T01060083
14926KSTC STC20000627015509706/27/00 01:55:31  5-MIN KSTC 270755Z AUTO 30007KT 10SM CLR 11/08 A3010 860 83 600 290/07 RMK AO2
14926KSTC STC20000627020009706/27/00 02:00:31  5-MIN KSTC 270800Z AUTO 30007KT 10SM CLR 11/08 A3010 860 86 600 290/07 RMK AO2
14926KSTC STC20000627020509706/27/00 02:05:31  5-MIN KSTC 270805Z AUTO 29006KT 10SM CLR 11/08 A3010 860 86 600 290/06 RMK AO2
14926KSTC STC20000627021009706/27/00 02:10:31  5-MIN KSTC 270810Z AUTO 29006KT 10SM CLR 11/08 A3011 860 86 600 290/06 RMK AO2
14926KSTC STC20000627021509706/27/00 02:15:31  5-MIN KSTC 270815Z AUTO 29005KT 10SM CLR 11/08 A3011 850 83 600 290/05 RMK AO2
14926KSTC STC20000627022009706/27/00 02:20:31  5-MIN KSTC 270820Z AUTO 30005KT 10SM CLR 10/08 A3011 850 89 500 290/05 RMK AO2
14926KSTC STC20000627022509706/27/00 02:25:31  5-MIN KSTC 270825Z AUTO 29006KT 10SM CLR 10/08 A3011 850 89 500 290/06 RMK AO2
14926KSTC STC20000627023009706/27/00 02:30:31  5-MIN KSTC 270830Z AUTO 29005KT 10SM CLR 10/08 A3011 850 86 500 290/05 RMK AO2
14926KSTC STC20000627023509706/27/00 02:35:31  5-MIN KSTC 270835Z AUTO 29005KT 10SM CLR 10/08 A3011 850 86 500 290/05 RMK AO2
14926KSTC STC20000627024009706/27/00 02:40:31  5-MIN KSTC 270840Z AUTO 30005KT 10SM CLR 09/08 A3011 850 89 400 290/05 RMK AO2
14926KSTC STC20000627024509706/27/00 02:45:31  5-MIN KSTC 270845Z AUTO 30006KT 10SM CLR 09/08 A3011 850 89 400 300/06 RMK AO2
14926KSTC STC20000627025012006/27/00 02:50:31  5-MIN KSTC 270850Z AUTO 29006KT 10SM CLR 09/08 A3011 850 89 400 290/06 RMK AO2 SLP205 T00940078 51010
14926KSTC STC20000627025509706/27/00 02:55:31  5-MIN KSTC 270855Z AUTO 29005KT 10SM CLR 09/08 A3011 850 89 400 290/05 RMK AO2
14926KSTC STC20000627030009706/27/00 03:00:31  5-MIN KSTC 270900Z AUTO 29005KT 10SM CLR 09/08 A3012 850 89 400 290/05 RMK AO2
14926KSTC STC20000627030509706/27/00 03:05:31  5-MIN KSTC 270905Z AUTO 28004KT 10SM CLR 09/08 A3012 840 89 400 280/04 RMK AO2
14926KSTC STC20000627031009706/27/00 03:10:31  5-MIN KSTC 270910Z AUTO 28004KT 10SM CLR 09/08 A3012 840 89 400 280/04 RMK AO2
14926KSTC STC20000627031509706/27/00 03:15:31  5-MIN KSTC 270915Z AUTO 28005KT 10SM CLR 09/08 A3012 840 89 400 280/05 RMK AO2
14926KSTC STC20000627032009706/27/00 03:20:31  5-MIN KSTC 270920Z AUTO 28005KT 10SM CLR 09/08 A3012 840 89 400 280/05 RMK AO2
14926KSTC STC20000627032509706/27/00 03:25:31  5-MIN KSTC 270925Z AUTO 28003KT 10SM CLR 09/08 A3012 840 89 400 280/03 RMK AO2
14926KSTC STC20000627033009706/27/00 03:30:31  5-MIN KSTC 270930Z AUTO 00000KT 10SM CLR 09/08 A3013 840 89 400 000/00 RMK AO2
14926KSTC STC20000627033509706/27/00 03:35:31  5-MIN KSTC 270935Z AUTO 00000KT 10SM CLR 09/08 A3013 840 93 300 000/00 RMK AO2
14926KSTC STC20000627034009706/27/00 03:40:31  5-MIN KSTC 270940Z AUTO 00000KT 10SM CLR 09/08 A3013 830 89 400 000/00 RMK AO2
14926KSTC STC20000627034509706/27/00 03:45:31  5-MIN KSTC 270945Z AUTO 00000KT 10SM CLR 09/08 A3013 830 89 400 000/00 RMK AO2
14926KSTC STC20000627035011406/27/00 03:50:31  5-MIN KSTC 270950Z AUTO 00000KT 10SM CLR 09/08 A3013 830 93 300 000/00 RMK AO2 SLP213 T00890078
14926KSTC STC20000627035509706/27/00 03:55:31  5-MIN KSTC 270955Z AUTO 00000KT 10SM CLR 08/07 A3014 830 93 300 000/00 RMK AO2
14926KSTC STC20000627040009706/27/00 04:00:31  5-MIN KSTC 271000Z AUTO 00000KT 10SM CLR 08/07 A3014 830 93 300 000/00 RMK AO2
14926KSTC STC20000627040509706/27/00 04:05:31  5-MIN KSTC 271005Z AUTO 00000KT 10SM CLR 08/07 A3014 820 93 300 000/00 RMK AO2
14926KSTC STC20000627041009706/27/00 04:10:31  5-MIN KSTC 271010Z AUTO 00000KT 10SM CLR 09/08 A3014 820 93 300 000/00 RMK AO2
14926KSTC STC20000627041509706/27/00 04:15:31  5-MIN KSTC 271015Z AUTO 22003KT 10SM CLR 08/07 A3014 820 93 300 220/03 RMK AO2
14926KSTC STC20000627042009706/27/00 04:20:31  5-MIN KSTC 271020Z AUTO 00000KT 10SM CLR 08/07 A3014 820 93 300 000/00 RMK AO2
14926KSTC STC20000627042509706/27/00 04:25:31  5-MIN KSTC 271025Z AUTO 00000KT 10SM CLR 08/07 A3014 820 93 300 000/00 RMK AO2
14926KSTC STC20000627043009706/27/00 04:30:31  5-MIN KSTC 271030Z AUTO 00000KT 10SM CLR 08/07 A3014 820 96 200 000/00 RMK AO2
14926KSTC STC20000627043509706/27/00 04:35:31  5-MIN KSTC 271035Z AUTO 00000KT 10SM CLR 08/07 A3015 820 96 200 000/00 RMK AO2
14926KSTC STC20000627044009706/27/00 04:40:31  5-MIN KSTC 271040Z AUTO 00000KT 10SM CLR 08/07 A3015 820 93 300 000/00 RMK AO2
14926KSTC STC20000627044509706/27/00 04:45:31  5-MIN KSTC 271045Z AUTO 00000KT 10SM CLR 08/07 A3015 820 96 200 000/00 RMK AO2
14926KSTC STC20000627045011406/27/00 04:50:31  5-MIN KSTC 271050Z AUTO 00000KT 10SM CLR 08/07 A3015 820 96 200 000/00 RMK AO2 SLP219 T00780072
14926KSTC STC20000627045509706/27/00 04:55:31  5-MIN KSTC 271055Z AUTO 00000KT 10SM CLR 08/07 A3015 810 96 200 000/00 RMK AO2
14926KSTC STC20000627050009706/27/00 05:00:31  5-MIN KSTC 271100Z AUTO 00000KT 10SM CLR 08/08 A3015 810 96 200 000/00 RMK AO2
14926KSTC STC20000627050509706/27/00 05:05:31  5-MIN KSTC 271105Z AUTO 00000KT 10SM CLR 08/08 A3015 810 96 200 000/00 RMK AO2
14926KSTC STC20000627051009706/27/00 05:10:31  5-MIN KSTC 271110Z AUTO 00000KT 10SM CLR 09/08 A3015 810 93 300 000/00 RMK AO2
14926KSTC STC20000627051509706/27/00 05:15:31  5-MIN KSTC 271115Z AUTO 00000KT 10SM CLR 09/08 A3015 810 93 300 000/00 RMK AO2
14926KSTC STC20000627052009706/27/00 05:20:31  5-MIN KSTC 271120Z AUTO 22003KT 10SM CLR 09/08 A3015 810 93 400 210/03 RMK AO2
14926KSTC STC20000627052509706/27/00 05:25:31  5-MIN KSTC 271125Z AUTO 00000KT 10SM CLR 10/09 A3016 810 93 400 000/00 RMK AO2
14926KSTC STC20000627053009706/27/00 05:30:31  5-MIN KSTC 271130Z AUTO 00000KT 10SM CLR 10/09 A3016 810 93 400 000/00 RMK AO2
14926KSTC STC20000627053509706/27/00 05:35:31  5-MIN KSTC 271135Z AUTO 00000KT 10SM CLR 11/09 A3016 800 89 500 000/00 RMK AO2
14926KSTC STC20000627054009706/27/00 05:40:31  5-MIN KSTC 271140Z AUTO 00000KT 10SM CLR 11/09 A3016 800 89 500 000/00 RMK AO2
14926KSTC STC20000627054509706/27/00 05:45:31  5-MIN KSTC 271145Z AUTO 00000KT 10SM CLR 11/09 A3016 800 89 600 000/00 RMK AO2
14926KSTC STC20000627055013206/27/00 05:50:31  5-MIN KSTC 271150Z AUTO 00000KT 10SM CLR 12/09 A3016 800 86 600 000/00 RMK AO2 SLP223 T01170094 10117 20078 53009
14926KSTC STC20000627055509706/27/00 05:55:31  5-MIN KSTC 271155Z AUTO 00000KT 10SM CLR 12/09 A3016 800 86 600 000/00 RMK AO2
14926KSTC STC20000627060009706/27/00 06:00:31  5-MIN KSTC 271200Z AUTO 00000KT 10SM CLR 12/09 A3016 800 86 600 000/00 RMK AO2
14926KSTC STC20000627060509706/27/00 06:05:31  5-MIN KSTC 271205Z AUTO VRB03KT 10SM CLR 12/10 A3016 800 86 700 VRB/03 RMK AO2
14926KSTC STC20000627061009706/27/00 06:10:31  5-MIN KSTC 271210Z AUTO 00000KT 10SM CLR 13/09 A3017 800 80 800 000/00 RMK AO2
14926KSTC STC20000627061509706/27/00 06:15:31  5-MIN KSTC 271215Z AUTO VRB03KT 10SM CLR 13/10 A3017 800 83 800 VRB/03 RMK AO2
14926KSTC STC20000627062009706/27/00 06:20:31  5-MIN KSTC 271220Z AUTO VRB03KT 10SM CLR 13/10 A3017 800 80 800 VRB/03 RMK AO2
14926KSTC STC20000627062509706/27/00 06:25:31  5-MIN KSTC 271225Z AUTO 28005KT 10SM CLR 14/11 A3017 800 80 900 270/05 RMK AO2
14926KSTC STC20000627063009806/27/00 06:30:31  5-MIN KSTC 271230Z AUTO 26004KT 10SM CLR 14/11 A3017 800 77 1000 260/04 RMK AO2
14926KSTC STC20000627063509806/27/00 06:35:31  5-MIN KSTC 271235Z AUTO 27004KT 10SM CLR 14/11 A3017 790 77 1000 270/04 RMK AO2
14926KSTC STC20000627064009806/27/00 06:40:31  5-MIN KSTC 271240Z AUTO 29005KT 10SM CLR 14/11 A3017 800 77 1000 290/05 RMK AO2
14926KSTC STC20000627064509806/27/00 06:45:31  5-MIN KSTC 271245Z AUTO 32006KT 10SM CLR 15/10 A3017 800 72 1000 310/06 RMK AO2
14926KSTC STC20000627065011506/27/00 06:50:31  5-MIN KSTC 271250Z AUTO 32006KT 10SM CLR 15/10 A3017 800 72 1000 310/06 RMK AO2 SLP224 T01500100
14926KSTC STC20000627065509806/27/00 06:55:31  5-MIN KSTC 271255Z AUTO 33006KT 10SM CLR 15/10 A3017 800 72 1000 330/06 RMK AO2
14926KSTC STC20000627070009806/27/00 07:00:31  5-MIN KSTC 271300Z AUTO 32005KT 10SM CLR 15/10 A3017 800 72 1000 320/05 RMK AO2
14926KSTC STC20000627070509806/27/00 07:05:31  5-MIN KSTC 271305Z AUTO 33005KT 10SM CLR 15/10 A3017 800 72 1000 330/05 RMK AO2
14926KSTC STC20000627071009806/27/00 07:10:31  5-MIN KSTC 271310Z AUTO 34005KT 10SM CLR 16/11 A3017 800 72 1100 330/05 RMK AO2
14926KSTC STC20000627071509806/27/00 07:15:31  5-MIN KSTC 271315Z AUTO 32007KT 10SM CLR 16/11 A3017 790 72 1100 310/07 RMK AO2
14926KSTC STC20000627072009806/27/00 07:20:31  5-MIN KSTC 271320Z AUTO 34005KT 10SM CLR 16/10 A3017 800 69 1100 330/05 RMK AO2
14926KSTC STC20000627072509806/27/00 07:25:31  5-MIN KSTC 271325Z AUTO 33007KT 10SM CLR 16/10 A3017 800 69 1100 320/07 RMK AO2
14926KSTC STC20000627073009806/27/00 07:30:31  5-MIN KSTC 271330Z AUTO 32005KT 10SM CLR 16/10 A3017 800 69 1100 320/05 RMK AO2
14926KSTC STC20000627073509806/27/00 07:35:31  5-MIN KSTC 271335Z AUTO 32005KT 10SM CLR 16/10 A3017 800 67 1200 320/05 RMK AO2
14926KSTC STC20000627074009806/27/00 07:40:31  5-MIN KSTC 271340Z AUTO 34004KT 10SM CLR 16/10 A3017 790 67 1100 340/04 RMK AO2
14926KSTC STC20000627074509806/27/00 07:45:31  5-MIN KSTC 271345Z AUTO 34006KT 10SM CLR 16/10 A3017 790 67 1100 340/06 RMK AO2
14926KSTC STC20000627075011506/27/00 07:50:31  5-MIN KSTC 271350Z AUTO 34005KT 10SM CLR 16/10 A3017 790 67 1100 340/05 RMK AO2 SLP225 T01610100
14926KSTC STC20000627075509806/27/00 07:55:31  5-MIN KSTC 271355Z AUTO 36004KT 10SM CLR 17/10 A3018 790 64 1200 350/04 RMK AO2
14926KSTC STC20000627080009806/27/00 08:00:31  5-MIN KSTC 271400Z AUTO 32004KT 10SM CLR 17/10 A3018 790 64 1200 320/04 RMK AO2
14926KSTC STC20000627080509806/27/00 08:05:31  5-MIN KSTC 271405Z AUTO VRB05KT 10SM CLR 17/11 A3017 790 67 1200 VRB/05 RMK AO2
14926KSTC STC20000627081009806/27/00 08:10:31  5-MIN KSTC 271410Z AUTO VRB03KT 10SM CLR 17/10 A3017 790 64 1200 VRB/03 RMK AO2
14926KSTC STC20000627081509806/27/00 08:15:31  5-MIN KSTC 271415Z AUTO 35005KT 10SM CLR 17/10 A3017 790 64 1200 340/05 RMK AO2
14926KSTC STC20000627082009806/27/00 08:20:31  5-MIN KSTC 271420Z AUTO 33005KT 10SM CLR 17/10 A3017 790 64 1200 330/05 RMK AO2
14926KSTC STC20000627082509806/27/00 08:25:31  5-MIN KSTC 271425Z AUTO 00000KT 10SM CLR 17/10 A3017 790 64 1200 000/00 RMK AO2
14926KSTC STC20000627083010106/27/00 08:30:31  5-MIN KSTC 271430Z AUTO VRB04KT 10SM FEW025 17/11 A3017 800 64 1300 VRB/04 RMK AO2
14926KSTC STC20000627083510106/27/00 08:35:31  5-MIN KSTC 271435Z AUTO VRB03KT 10SM FEW025 17/10 A3017 800 64 1200 VRB/03 RMK AO2
14926KSTC STC20000627084010106/27/00 08:40:31  5-MIN KSTC 271440Z AUTO 30007KT 10SM FEW025 17/11 A3017 800 64 1300 290/07 RMK AO2
14926KSTC STC20000627084510106/27/00 08:45:31  5-MIN KSTC 271445Z AUTO VRB05KT 10SM FEW025 17/11 A3017 800 64 1300 VRB/05 RMK AO2
14926KSTC STC20000627085012406/27/00 08:50:31  5-MIN KSTC 271450Z AUTO 30008KT 10SM FEW025 18/11 A3017 800 62 1400 300/08 RMK AO2 SLP223 T01780106 51018
14926KSTC STC20000627085510106/27/00 08:55:31  5-MIN KSTC 271455Z AUTO 31010KT 10SM FEW025 18/11 A3017 800 62 1400 310/10 RMK AO2
14926KSTC STC20000627090009806/27/00 09:00:31  5-MIN KSTC 271500Z AUTO 31008KT 10SM CLR 18/10 A3017 800 60 1400 310/08 RMK AO2
14926KSTC STC20000627090509806/27/00 09:05:31  5-MIN KSTC 271505Z AUTO VRB06KT 10SM CLR 18/11 A3017 800 60 1400 VRB/06 RMK AO2
14926KSTC STC20000627091009806/27/00 09:10:31  5-MIN KSTC 271510Z AUTO 31007KT 10SM CLR 18/11 A3017 800 60 1400 310/07 RMK AO2
14926KSTC STC20000627091509806/27/00 09:15:31  5-MIN KSTC 271515Z AUTO 30007KT 10SM CLR 18/09 A3017 800 56 1400 300/07 RMK AO2
14926KSTC STC20000627092009806/27/00 09:20:31  5-MIN KSTC 271520Z AUTO 32007KT 10SM CLR 18/09 A3017 800 56 1400 320/07 RMK AO2
14926KSTC STC20000627092509806/27/00 09:25:31  5-MIN KSTC 271525Z AUTO 33008KT 10SM CLR 18/09 A3017 800 56 1400 320/08 RMK AO2
14926KSTC STC20000627093009806/27/00 09:30:31  5-MIN KSTC 271530Z AUTO 29009KT 10SM CLR 18/09 A3017 800 56 1400 290/09 RMK AO2
14926KSTC STC20000627093509806/27/00 09:35:31  5-MIN KSTC 271535Z AUTO 30009KT 10SM CLR 19/09 A3017 800 54 1500 290/09 RMK AO2
14926KSTC STC20000627094009806/27/00 09:40:31  5-MIN KSTC 271540Z AUTO 30011KT 10SM CLR 19/09 A3017 800 54 1500 290/11 RMK AO2
14926KSTC STC20000627094510106/27/00 09:45:31  5-MIN KSTC 271545Z AUTO 34007KT 10SM FEW034 19/10 A3016 800 56 1500 340/07 RMK AO2
14926KSTC STC20000627095011806/27/00 09:50:31  5-MIN KSTC 271550Z AUTO 33006KT 10SM FEW036 19/10 A3016 800 56 1500 330/06 RMK AO2 SLP222 T01890100
14926KSTC STC20000627095510106/27/00 09:55:31  5-MIN KSTC 271555Z AUTO 32008KT 10SM FEW040 20/11 A3016 800 54 1600 320/08 RMK AO2
14926KSTC STC20000627100010806/27/00 10:00:31  5-MIN KSTC 271600Z AUTO 31008KT 10SM FEW037 SCT044 19/10 A3016 810 56 1500 310/08 RMK AO2
14926KSTC STC20000627100510806/27/00 10:05:31  5-MIN KSTC 271605Z AUTO 33006KT 10SM SCT037 BKN044 19/10 A3016 810 54 1600 330/06 RMK AO2
14926KSTC STC20000627101010106/27/00 10:10:31  5-MIN KSTC 271610Z AUTO 30007KT 10SM BKN037 19/09 A3015 810 54 1500 300/07 RMK AO2
14926KSTC STC20000627101510106/27/00 10:15:31  5-MIN KSTC 271615Z AUTO 34007KT 10SM SCT039 19/10 A3015 810 56 1500 340/07 RMK AO2
14926KSTC STC20000627102010806/27/00 10:20:31  5-MIN KSTC 271620Z AUTO 30007KT 10SM SCT037 BKN046 20/10 A3015 810 52 1600 290/07 RMK AO2
14926KSTC STC20000627102510806/27/00 10:25:31  5-MIN KSTC 271625Z AUTO 32008KT 10SM BKN037 BKN055 19/09 A3015 810 54 1500 320/08 RMK AO2
14926KSTC STC20000627103011506/27/00 10:30:31  5-MIN KSTC 271630Z AUTO 36006KT 10SM BKN037 BKN044 BKN055 18/10 A3015 810 58 1400 360/06 RMK AO2
14926KSTC STC20000627103510806/27/00 10:35:31  5-MIN KSTC 271635Z AUTO 32010KT 10SM BKN037 BKN060 18/10 A3015 810 58 1400 320/10 RMK AO2
14926KSTC STC20000627104010806/27/00 10:40:31  5-MIN KSTC 271640Z AUTO 30008KT 10SM SCT037 BKN060 19/11 A3015 810 56 1600 290/08 RMK AO2
14926KSTC STC20000627104510806/27/00 10:45:31  5-MIN KSTC 271645Z AUTO 31009KT 10SM SCT037 BKN060 20/10 A3015 810 52 1600 310/09 RMK AO2
14926KSTC STC20000627105012506/27/00 10:50:31  5-MIN KSTC 271650Z AUTO 30009KT 10SM SCT039 BKN060 20/09 A3015 820 50 1600 300/09 RMK AO2 SLP217 T02000094
14926KSTC STC20000627105510806/27/00 10:55:31  5-MIN KSTC 271655Z AUTO 29011KT 10SM SCT039 SCT050 21/09 A3015 820 48 1700 280/11 RMK AO2
14926KSTC STC20000627110011406/27/00 11:00:31  5-MIN KSTC 271700Z AUTO 30013G17KT 10SM FEW041 SCT050 21/09 A3015 820 46 1700 300/13G17 RMK AO2
14926KSTC STC20000627110510106/27/00 11:05:31  5-MIN KSTC 271705Z AUTO 31012KT 10SM FEW043 21/09 A3015 820 46 1700 310/12 RMK AO2
14926KSTC STC20000627111010806/27/00 11:10:31  5-MIN KSTC 271710Z AUTO 29010KT 10SM FEW043 SCT055 21/09 A3015 820 45 1800 290/10 RMK AO2
14926KSTC STC20000627111510806/27/00 11:15:31  5-MIN KSTC 271715Z AUTO 31007KT 10SM FEW043 SCT055 21/09 A3015 820 46 1700 300/07 RMK AO2
14926KSTC STC20000627112010806/27/00 11:20:31  5-MIN KSTC 271720Z AUTO 31008KT 10SM FEW043 SCT050 21/10 A3015 820 48 1800 300/08 RMK AO2
14926KSTC STC20000627112510806/27/00 11:25:31  5-MIN KSTC 271725Z AUTO 28009KT 10SM SCT046 SCT065 21/09 A3015 820 46 1700 280/09 RMK AO2
14926KSTC STC20000627113010106/27/00 11:30:31  5-MIN KSTC 271730Z AUTO 29008KT 10SM SCT046 21/09 A3015 820 48 1700 290/08 RMK AO2
14926KSTC STC20000627113510106/27/00 11:35:31  5-MIN KSTC 271735Z AUTO 29012KT 10SM FEW046 21/09 A3015 820 45 1800 290/12 RMK AO2
14926KSTC STC20000627114010806/27/00 11:40:31  5-MIN KSTC 271740Z AUTO 30010KT 10SM FEW046 SCT065 20/08 A3015 820 45 1600 300/10 RMK AO2
14926KSTC STC20000627114510806/27/00 11:45:31  5-MIN KSTC 271745Z AUTO 27010KT 10SM SCT048 SCT060 20/08 A3015 820 46 1600 270/10 RMK AO2
14926KSTC STC20000627115014306/27/00 11:50:31  5-MIN KSTC 271750Z AUTO 30011KT 10SM BKN050 BKN065 19/08 A3015 820 48 1600 290/11 RMK AO2 SLP218 T01940083 10211 20117 50000
14926KSTC STC20000627115510106/27/00 11:55:31  5-MIN KSTC 271755Z AUTO 30011KT 10SM BKN055 20/08 A3015 820 46 1600 290/11 RMK AO2
14926KSTC STC20000627120010806/27/00 12:00:31  5-MIN KSTC 271800Z AUTO 30010KT 10SM FEW050 SCT060 21/08 A3014 820 45 1700 290/10 RMK AO2
14926KSTC STC20000627120511406/27/00 12:05:31  5-MIN KSTC 271805Z AUTO 31012G15KT 10SM SCT050 BKN060 21/08 A3014 820 45 1700 310/12G15 RMK AO2
14926KSTC STC20000627121011406/27/00 12:10:31  5-MIN KSTC 271810Z AUTO 32009G15KT 10SM BKN050 BKN065 19/08 A3014 830 48 1600 310/09G15 RMK AO2
14926KSTC STC20000627121510806/27/00 12:15:31  5-MIN KSTC 271815Z AUTO 32010KT 10SM SCT050 BKN070 21/09 A3013 830 46 1700 320/10 RMK AO2
14926KSTC STC20000627122010106/27/00 12:20:31  5-MIN KSTC 271820Z AUTO 32010KT 10SM FEW050 21/09 A3013 830 45 1800 320/10 RMK AO2
14926KSTC STC20000627122512406/27/00 12:25:31  5-MIN KSTC 271825Z AUTO 33011KT 300V010 10SM FEW048 SCT070 21/09 A3013 830 45 1800 330/11 300V010 RMK AO2
14926KSTC STC20000627123011406/27/00 12:30:31  5-MIN KSTC 271830Z AUTO 31012G17KT 10SM FEW048 BKN070 21/08 A3013 830 43 1800 300/12G17 RMK AO2
14926KSTC STC20000627123510806/27/00 12:35:31  5-MIN KSTC 271835Z AUTO 31012KT 10SM FEW048 SCT070 21/08 A3013 830 42 1800 310/12 RMK AO2
14926KSTC STC20000627124010106/27/00 12:40:31  5-MIN KSTC 271840Z AUTO 33010KT 10SM FEW075 22/08 A3013 840 42 1800 330/10 RMK AO2
14926KSTC STC20000627124510106/27/00 12:45:31  5-MIN KSTC 271845Z AUTO 33009KT 10SM FEW070 22/08 A3013 840 42 1800 330/09 RMK AO2
14926KSTC STC20000627125011806/27/00 12:50:31  5-MIN KSTC 271850Z AUTO 31012KT 10SM FEW075 21/08 A3012 840 43 1800 310/12 RMK AO2 SLP209 T02110083
14926KSTC STC20000627125510106/27/00 12:55:31  5-MIN KSTC 271855Z AUTO 30012KT 10SM FEW075 22/08 A3012 840 42 1800 300/12 RMK AO2
14926KSTC STC20000627130010106/27/00 13:00:31  5-MIN KSTC 271900Z AUTO 32010KT 10SM FEW075 22/08 A3012 840 42 1800 320/10 RMK AO2
14926KSTC STC20000627130510106/27/00 13:05:31  5-MIN KSTC 271905Z AUTO 31008KT 10SM FEW050 22/09 A3012 840 43 1900 310/08 RMK AO2
14926KSTC STC20000627131010106/27/00 13:10:31  5-MIN KSTC 271910Z AUTO 32009KT 10SM FEW050 21/08 A3012 840 43 1800 320/09 RMK AO2
14926KSTC STC20000627131510806/27/00 13:15:31  5-MIN KSTC 271915Z AUTO 34011KT 10SM FEW050 SCT075 20/08 A3012 840 46 1700 330/11 RMK AO2
14926KSTC STC20000627132010806/27/00 13:20:31  5-MIN KSTC 271920Z AUTO 31010KT 10SM FEW050 SCT080 20/08 A3012 840 45 1700 310/10 RMK AO2
14926KSTC STC20000627132511406/27/00 13:25:31  5-MIN KSTC 271925Z AUTO 30011G16KT 10SM FEW050 SCT080 22/08 A3012 850 40 1900 300/11G16 RMK AO2
14926KSTC STC20000627133012106/27/00 13:30:31  5-MIN KSTC 271930Z AUTO 31009G16KT 10SM FEW050 SCT065 BKN080 21/08 A3012 850 43 1800 310/09G16 RMK AO2
14926KSTC STC20000627133511506/27/00 13:35:31  5-MIN KSTC 271935Z AUTO 32010KT 10SM SCT050 SCT065 BKN080 21/09 A3012 850 45 1800 320/10 RMK AO2
14926KSTC STC20000627134011506/27/00 13:40:31  5-MIN KSTC 271940Z AUTO 31009KT 10SM SCT050 BKN065 BKN080 20/09 A3012 850 48 1700 300/09 RMK AO2
14926KSTC STC20000627134511406/27/00 13:45:31  5-MIN KSTC 271945Z AUTO 30009G15KT 10SM SCT055 BKN075 20/09 A3012 850 48 1700 300/09G15 RMK AO2
14926KSTC STC20000627135013806/27/00 13:50:31  5-MIN KSTC 271950Z AUTO 30008G15KT 10SM FEW050 BKN075 BKN090 20/08 A3011 850 46 1700 290/08G15 RMK AO2 SLP206 T02000083
14926KSTC STC20000627135511506/27/00 13:55:31  5-MIN KSTC 271955Z AUTO VRB05KT 10SM FEW055 BKN075 BKN085 21/09 A3011 850 46 1700 VRB/05 RMK AO2
14926KSTC STC20000627140011506/27/00 14:00:31  5-MIN KSTC 272000Z AUTO 29009KT 10SM FEW060 SCT075 BKN085 22/09 A3011 850 43 1900 290/09 RMK AO2
14926KSTC STC20000627140511506/27/00 14:05:31  5-MIN KSTC 272005Z AUTO 32009KT 10SM SCT055 BKN075 BKN090 22/09 A3011 850 43 1900 320/09 RMK AO2
14926KSTC STC20000627141013106/27/00 14:10:31  5-MIN KSTC 272010Z AUTO 30007KT 270V330 10SM SCT055 BKN075 BKN090 22/09 A3011 850 43 1900 300/07 270V330 RMK AO2
14926KSTC STC20000627141510806/27/00 14:15:31  5-MIN KSTC 272015Z AUTO 30011KT 10SM FEW050 BKN090 22/09 A3011 850 42 1900 290/11 RMK AO2
14926KSTC STC20000627142010806/27/00 14:20:31  5-MIN KSTC 272020Z AUTO 30011KT 10SM FEW050 SCT090 21/08 A3011 850 45 1700 300/11 RMK AO2
14926KSTC STC20000627142511506/27/00 14:25:31  5-MIN KSTC 272025Z AUTO 30009KT 10SM FEW050 SCT065 BKN090 21/08 A3011 850 43 1800 300/09 RMK AO2
14926KSTC STC20000627143011506/27/00 14:30:31  5-MIN KSTC 272030Z AUTO 31008KT 10SM SCT050 SCT065 BKN090 21/09 A3011 850 45 1800 310/08 RMK AO2
14926KSTC STC20000627143511506/27/00 14:35:31  5-MIN KSTC 272035Z AUTO 30011KT 10SM FEW050 SCT065 BKN090 21/09 A3011 850 47 1800 300/11 RMK AO2
14926KSTC STC20000627144010806/27/00 14:40:31  5-MIN KSTC 272040Z AUTO 29011KT 10SM FEW050 BKN090 21/08 A3011 850 43 1800 290/11 RMK AO2
14926KSTC STC20000627144510806/27/00 14:45:31  5-MIN KSTC 272045Z AUTO 30009KT 10SM FEW050 BKN090 21/08 A3011 850 43 1800 290/09 RMK AO2
14926KSTC STC20000627145013106/27/00 14:50:31  5-MIN KSTC 272050Z AUTO 30011KT 10SM FEW050 BKN090 22/09 A3010 860 42 1900 290/11 RMK AO2 SLP203 T02220089 56006
14926KSTC STC20000627145510806/27/00 14:55:31  5-MIN KSTC 272055Z AUTO 31007KT 10SM FEW050 BKN090 22/08 A3010 860 42 1900 310/07 RMK AO2
14926KSTC STC20000627150010806/27/00 15:00:31  5-MIN KSTC 272100Z AUTO 28012KT 10SM FEW075 BKN095 22/09 A3010 860 43 1900 280/12 RMK AO2
14926KSTC STC20000627150511406/27/00 15:05:31  5-MIN KSTC 272105Z AUTO 29010G14KT 10SM FEW075 BKN095 22/09 A3010 860 43 1900 290/10G14 RMK AO2
14926KSTC STC20000627151010106/27/00 15:10:31  5-MIN KSTC 272110Z AUTO 29010KT 10SM SCT095 21/09 A3010 860 45 1800 290/10 RMK AO2
14926KSTC STC20000627151510106/27/00 15:15:31  5-MIN KSTC 272115Z AUTO 28008KT 10SM FEW095 23/09 A3010 860 40 2000 270/08 RMK AO2
14926KSTC STC20000627152010706/27/00 15:20:31  5-MIN KSTC 272120Z AUTO 30012G15KT 10SM FEW100 23/08 A3010 860 39 2000 300/12G15 RMK AO2
14926KSTC STC20000627152510706/27/00 15:25:31  5-MIN KSTC 272125Z AUTO 32009G15KT 10SM SCT100 22/08 A3010 860 42 1900 310/09G15 RMK AO2
14926KSTC STC20000627153010806/27/00 15:30:31  5-MIN KSTC 272130Z AUTO 33009KT 10SM FEW060 SCT095 21/09 A3010 860 45 1800 330/09 RMK AO2
14926KSTC STC20000627153510806/27/00 15:35:31  5-MIN KSTC 272135Z AUTO 32010KT 10SM FEW060 SCT095 22/09 A3010 860 43 1900 320/10 RMK AO2
14926KSTC STC20000627154010106/27/00 15:40:31  5-MIN KSTC 272140Z AUTO 32011KT 10SM FEW060 22/08 A3009 870 42 1900 320/11 RMK AO2
14926KSTC STC20000627154510106/27/00 15:45:31  5-MIN KSTC 272145Z AUTO 31011KT 10SM FEW060 22/09 A3009 870 43 1900 300/11 RMK AO2
14926KSTC STC20000627155011806/27/00 15:50:31  5-MIN KSTC 272150Z AUTO 33009KT 10SM FEW060 22/08 A3009 870 42 1900 330/09 RMK AO2 SLP199 T02170083
14926KSTC STC20000627155509806/27/00 15:55:31  5-MIN KSTC 272155Z AUTO 32010KT 10SM CLR 22/08 A3009 870 42 1900 310/10 RMK AO2
14926KSTC STC20000627160010106/27/00 16:00:31  5-MIN KSTC 272200Z AUTO 31008KT 10SM FEW055 22/09 A3009 870 42 1900 310/08 RMK AO2
14926KSTC STC20000627160510106/27/00 16:05:31  5-MIN KSTC 272205Z AUTO 27010KT 10SM FEW055 22/08 A3009 870 39 1900 270/10 RMK AO2
14926KSTC STC20000627161009806/27/00 16:10:31  5-MIN KSTC 272210Z AUTO 31007KT 10SM CLR 22/08 A3009 870 40 1900 300/07 RMK AO2
14926KSTC STC20000627161510106/27/00 16:15:31  5-MIN KSTC 272215Z AUTO 34008KT 10SM FEW055 22/09 A3009 870 42 1900 330/08 RMK AO2
14926KSTC STC20000627162010106/27/00 16:20:31  5-MIN KSTC 272220Z AUTO 29009KT 10SM FEW055 22/08 A3009 870 40 2000 290/09 RMK AO2
14926KSTC STC20000627162511406/27/00 16:25:31  5-MIN KSTC 272225Z AUTO 32009KT 290V360 10SM CLR 22/08 A3009 870 40 1900 310/09 290V360 RMK AO2
14926KSTC STC20000627163010406/27/00 16:30:31  5-MIN KSTC 272230Z AUTO 31010G15KT 10SM CLR 22/08 A3009 870 39 2000 300/10G15 RMK AO2
14926KSTC STC20000627163509806/27/00 16:35:31  5-MIN KSTC 272235Z AUTO 30010KT 10SM CLR 22/08 A3009 870 39 2000 300/10 RMK AO2
14926KSTC STC20000627164010106/27/00 16:40:31  5-MIN KSTC 272240Z AUTO 31009KT 10SM FEW060 22/08 A3008 870 40 2000 310/09 RMK AO2
14926KSTC STC20000627164509806/27/00 16:45:31  5-MIN KSTC 272245Z AUTO 30009KT 10SM CLR 22/08 A3008 880 40 1900 300/09 RMK AO2
14926KSTC STC20000627165011806/27/00 16:50:31  5-MIN KSTC 272250Z AUTO 32008KT 10SM FEW065 21/08 A3008 880 43 1800 320/08 RMK AO2 SLP196 T02110083
14926KSTC STC20000627165510106/27/00 16:55:31  5-MIN KSTC 272255Z AUTO 30009KT 10SM FEW065 21/08 A3008 880 45 1800 300/09 RMK AO2
14926KSTC STC20000627170010106/27/00 17:00:31  5-MIN KSTC 272300Z AUTO 33005KT 10SM FEW065 21/08 A3008 880 42 1800 330/05 RMK AO2
14926KSTC STC20000627170510806/27/00 17:05:31  5-MIN KSTC 272305Z AUTO 32010KT 10SM FEW065 SCT090 21/08 A3008 880 45 1800 320/10 RMK AO2
14926KSTC STC20000627171010806/27/00 17:10:31  5-MIN KSTC 272310Z AUTO 30011KT 10SM FEW070 BKN090 21/08 A3008 880 43 1800 300/11 RMK AO2
14926KSTC STC20000627171510806/27/00 17:15:31  5-MIN KSTC 272315Z AUTO 30007KT 10SM FEW070 BKN085 21/08 A3008 880 43 1800 300/07 RMK AO2
14926KSTC STC20000627172010106/27/00 17:20:31  5-MIN KSTC 272320Z AUTO 31007KT 10SM BKN090 21/08 A3008 880 43 1800 300/07 RMK AO2
14926KSTC STC20000627172510106/27/00 17:25:31  5-MIN KSTC 272325Z AUTO 32007KT 10SM BKN090 21/08 A3008 880 43 1800 320/07 RMK AO2
14926KSTC STC20000627173010106/27/00 17:30:31  5-MIN KSTC 272330Z AUTO 29008KT 10SM BKN090 22/09 A3008 880 43 1900 280/08 RMK AO2
14926KSTC STC20000627173510106/27/00 17:35:31  5-MIN KSTC 272335Z AUTO 30009KT 10SM BKN090 22/08 A3007 880 42 1900 300/09 RMK AO2
14926KSTC STC20000627174010106/27/00 17:40:31  5-MIN KSTC 272340Z AUTO 29009KT 10SM BKN090 22/08 A3007 890 40 1900 290/09 RMK AO2
14926KSTC STC20000627174510106/27/00 17:45:31  5-MIN KSTC 272345Z AUTO 32008KT 10SM BKN090 21/08 A3007 890 42 1800 320/08 RMK AO2
14926KSTC STC20000627175013606/27/00 17:50:31  5-MIN KSTC 272350Z AUTO 30008KT 10SM BKN095 22/08 A3007 890 42 1900 290/08 RMK AO2 SLP191 T02170083 10228 20194 56014
14926KSTC STC20000627175510806/27/00 17:55:31  5-MIN KSTC 272355Z AUTO 31009KT 10SM FEW065 BKN095 22/08 A3007 890 40 1900 300/09 RMK AO2
14926KSTC STC20000627180010806/27/00 18:00:31  5-MIN KSTC 280000Z AUTO 30007KT 10SM FEW065 BKN090 22/08 A3007 890 40 1900 290/07 RMK AO2
14926KSTC STC20000627180510806/27/00 18:05:31  5-MIN KSTC 280005Z AUTO 32009KT 10SM FEW065 SCT090 22/08 A3007 890 42 1900 320/09 RMK AO2
14926KSTC STC20000627181010106/27/00 18:10:31  5-MIN KSTC 280010Z AUTO 31009KT 10SM FEW065 21/08 A3007 890 42 1800 310/09 RMK AO2
14926KSTC STC20000627181510106/27/00 18:15:31  5-MIN KSTC 280015Z AUTO 33008KT 10SM FEW065 21/08 A3007 890 45 1800 320/08 RMK AO2
14926KSTC STC20000627182010106/27/00 18:20:31  5-MIN KSTC 280020Z AUTO 31006KT 10SM FEW065 20/09 A3007 880 48 1700 300/06 RMK AO2
14926KSTC STC20000627182509806/27/00 18:25:31  5-MIN KSTC 280025Z AUTO 30008KT 10SM CLR 20/09 A3007 890 48 1700 300/08 RMK AO2
14926KSTC STC20000627183009806/27/00 18:30:31  5-MIN KSTC 280030Z AUTO 31006KT 10SM CLR 20/09 A3007 890 48 1700 310/06 RMK AO2
14926KSTC STC20000627183509806/27/00 18:35:31  5-MIN KSTC 280035Z AUTO 31007KT 10SM CLR 20/08 A3007 890 46 1700 310/07 RMK AO2
14926KSTC STC20000627184009806/27/00 18:40:31  5-MIN KSTC 280040Z AUTO 32007KT 10SM CLR 20/09 A3007 890 48 1700 320/07 RMK AO2
14926KSTC STC20000627184509806/27/00 18:45:31  5-MIN KSTC 280045Z AUTO 32008KT 10SM CLR 19/09 A3007 890 50 1600 310/08 RMK AO2
14926KSTC STC20000627185011506/27/00 18:50:31  5-MIN KSTC 280050Z AUTO 31008KT 10SM CLR 19/08 A3007 890 48 1600 310/08 RMK AO2 SLP191 T01940083
14926KSTC STC20000627185509806/27/00 18:55:31  5-MIN KSTC 280055Z AUTO 31008KT 10SM CLR 19/08 A3007 890 50 1600 310/08 RMK AO2
14926KSTC STC20000627190009806/27/00 19:00:31  5-MIN KSTC 280100Z AUTO 31007KT 10SM CLR 19/08 A3007 890 50 1600 310/07 RMK AO2
14926KSTC STC20000627190509806/27/00 19:05:31  5-MIN KSTC 280105Z AUTO 31005KT 10SM CLR 19/08 A3007 890 50 1600 310/05 RMK AO2
14926KSTC STC20000627191009806/27/00 19:10:31  5-MIN KSTC 280110Z AUTO 31005KT 10SM CLR 18/09 A3007 890 54 1500 310/05 RMK AO2
14926KSTC STC20000627191509806/27/00 19:15:31  5-MIN KSTC 280115Z AUTO 32006KT 10SM CLR 18/08 A3007 890 52 1500 310/06 RMK AO2
14926KSTC STC20000627192009806/27/00 19:20:31  5-MIN KSTC 280120Z AUTO 31005KT 10SM CLR 18/09 A3006 900 54 1500 310/05 RMK AO2
14926KSTC STC20000627192509806/27/00 19:25:31  5-MIN KSTC 280125Z AUTO 31005KT 10SM CLR 18/09 A3006 900 55 1500 310/05 RMK AO2
14926KSTC STC20000627193009806/27/00 19:30:31  5-MIN KSTC 280130Z AUTO 31004KT 10SM CLR 18/09 A3006 900 55 1500 300/04 RMK AO2
14926KSTC STC20000627193509806/27/00 19:35:31  5-MIN KSTC 280135Z AUTO 29004KT 10SM CLR 18/09 A3006 900 55 1500 290/04 RMK AO2
14926KSTC STC20000627194009806/27/00 19:40:31  5-MIN KSTC 280140Z AUTO 29004KT 10SM CLR 18/09 A3006 900 54 1500 290/04 RMK AO2
14926KSTC STC20000627194509806/27/00 19:45:31  5-MIN KSTC 280145Z AUTO 00000KT 10SM CLR 18/09 A3005 900 54 1500 000/00 RMK AO2
14926KSTC STC20000627195011506/27/00 19:50:31  5-MIN KSTC 280150Z AUTO 30004KT 10SM CLR 18/09 A3005 900 58 1500 300/04 RMK AO2 SLP184 T01780094
14926KSTC STC20000627195509806/27/00 19:55:31  5-MIN KSTC 280155Z AUTO 29004KT 10SM CLR 18/09 A3005 900 58 1500 290/04 RMK AO2
14926KSTC STC20000627200009806/27/00 20:00:31  5-MIN KSTC 280200Z AUTO 29003KT 10SM CLR 17/09 A3005 900 60 1400 290/03 RMK AO2
14926KSTC STC20000627200509806/27/00 20:05:31  5-MIN KSTC 280205Z AUTO 28003KT 10SM CLR 17/10 A3005 900 62 1400 280/03 RMK AO2
14926KSTC STC20000627201009806/27/00 20:10:31  5-MIN KSTC 280210Z AUTO 28004KT 10SM CLR 17/11 A3005 910 67 1400 270/04 RMK AO2
14926KSTC STC20000627201509806/27/00 20:15:31  5-MIN KSTC 280215Z AUTO 28003KT 10SM CLR 17/11 A3005 910 69 1400 280/03 RMK AO2
14926KSTC STC20000627202009806/27/00 20:20:31  5-MIN KSTC 280220Z AUTO 28003KT 10SM CLR 17/09 A3005 910 62 1400 280/03 RMK AO2
14926KSTC STC20000627202509806/27/00 20:25:31  5-MIN KSTC 280225Z AUTO 30003KT 10SM CLR 17/10 A3005 900 64 1300 300/03 RMK AO2
14926KSTC STC20000627203009806/27/00 20:30:31  5-MIN KSTC 280230Z AUTO 00000KT 10SM CLR 16/11 A3005 900 72 1200 000/00 RMK AO2
14926KSTC STC20000627203509806/27/00 20:35:31  5-MIN KSTC 280235Z AUTO 00000KT 10SM CLR 16/11 A3006 900 74 1200 000/00 RMK AO2
14926KSTC STC20000627204009806/27/00 20:40:31  5-MIN KSTC 280240Z AUTO 00000KT 10SM CLR 16/11 A3006 900 72 1200 000/00 RMK AO2
14926KSTC STC20000627204509806/27/00 20:45:31  5-MIN KSTC 280245Z AUTO 00000KT 10SM CLR 16/11 A3006 900 72 1200 000/00 RMK AO2
14926KSTC STC20000627205012106/27/00 20:50:31  5-MIN KSTC 280250Z AUTO 25003KT 10SM CLR 16/11 A3006 890 69 1300 250/03 RMK AO2 SLP187 T01610106 56010
14926KSTC STC20000627205509806/27/00 20:55:31  5-MIN KSTC 280255Z AUTO 25003KT 10SM CLR 16/11 A3006 890 69 1300 250/03 RMK AO2
14926KSTC STC20000627210009806/27/00 21:00:31  5-MIN KSTC 280300Z AUTO 25003KT 10SM CLR 16/11 A3007 890 74 1200 240/03 RMK AO2
14926KSTC STC20000627210509806/27/00 21:05:31  5-MIN KSTC 280305Z AUTO 25003KT 10SM CLR 16/11 A3007 890 72 1200 250/03 RMK AO2
14926KSTC STC20000627211009806/27/00 21:10:31  5-MIN KSTC 280310Z AUTO 00000KT 10SM CLR 16/11 A3007 890 74 1200 000/00 RMK AO2
14926KSTC STC20000627211510106/27/00 21:15:31  5-MIN KSTC 280315Z AUTO 00000KT 10SM FEW100 16/12 A3007 890 77 1200 000/00 RMK AO2
14926KSTC STC20000627212010106/27/00 21:20:31  5-MIN KSTC 280320Z AUTO 00000KT 10SM SCT100 15/11 A3007 890 77 1100 000/00 RMK AO2
14926KSTC STC20000627212510106/27/00 21:25:31  5-MIN KSTC 280325Z AUTO 00000KT 10SM SCT095 16/11 A3007 890 72 1200 000/00 RMK AO2
14926KSTC STC20000627213010106/27/00 21:30:31  5-MIN KSTC 280330Z AUTO 00000KT 10SM FEW100 14/11 A3007 890 77 1100 000/00 RMK AO2
14926KSTC STC20000627213510106/27/00 21:35:31  5-MIN KSTC 280335Z AUTO 00000KT 10SM FEW100 14/11 A3007 890 80 1000 000/00 RMK AO2
14926KSTC STC20000627214010106/27/00 21:40:31  5-MIN KSTC 280340Z AUTO 00000KT 10SM FEW100 14/11 A3007 890 80 1000 000/00 RMK AO2
14926KSTC STC20000627214510106/27/00 21:45:31  5-MIN KSTC 280345Z AUTO 00000KT 10SM FEW095 14/11 A3007 890 80 1000 000/00 RMK AO2
14926KSTC STC20000627215011506/27/00 21:50:31  5-MIN KSTC 280350Z AUTO 00000KT 10SM CLR 14/11 A3007 890 80 1100 000/00 RMK AO2 SLP191 T01440111
14926KSTC STC20000627215509806/27/00 21:55:31  5-MIN KSTC 280355Z AUTO 00000KT 10SM CLR 14/11 A3007 890 83 1000 000/00 RMK AO2
14926KSTC STC20000627220009806/27/00 22:00:31  5-MIN KSTC 280400Z AUTO 00000KT 10SM CLR 14/11 A3007 890 83 1000 000/00 RMK AO2
14926KSTC STC20000627220509806/27/00 22:05:31  5-MIN KSTC 280405Z AUTO 00000KT 10SM CLR 14/11 A3007 890 83 1000 000/00 RMK AO2
14926KSTC STC20000627221009806/27/00 22:10:31  5-MIN KSTC 280410Z AUTO 00000KT 10SM CLR 14/11 A3007 890 83 1000 000/00 RMK AO2
14926KSTC STC20000627221509806/27/00 22:15:31  5-MIN KSTC 280415Z AUTO 00000KT 10SM CLR 14/11 A3007 890 83 1000 000/00 RMK AO2
14926KSTC STC20000627222009806/27/00 22:20:31  5-MIN KSTC 280420Z AUTO 00000KT 10SM CLR 14/12 A3007 890 83 1100 000/00 RMK AO2
14926KSTC STC20000627222509806/27/00 22:25:31  5-MIN KSTC 280425Z AUTO 00000KT 10SM CLR 14/12 A3007 890 86 1000 000/00 RMK AO2
14926KSTC STC20000627223009806/27/00 22:30:31  5-MIN KSTC 280430Z AUTO 00000KT 10SM CLR 14/11 A3007 890 83 1000 000/00 RMK AO2
14926KSTC STC20000627223509706/27/00 22:35:31  5-MIN KSTC 280435Z AUTO 00000KT 10SM CLR 13/11 A3007 890 86 900 000/00 RMK AO2
14926KSTC STC20000627224009706/27/00 22:40:31  5-MIN KSTC 280440Z AUTO 00000KT 10SM CLR 13/11 A3007 890 83 900 000/00 RMK AO2
14926KSTC STC20000627224509706/27/00 22:45:31  5-MIN KSTC 280445Z AUTO 00000KT 10SM CLR 13/11 A3007 890 83 900 000/00 RMK AO2
14926KSTC STC20000627225011406/27/00 22:50:31  5-MIN KSTC 280450Z AUTO 00000KT 10SM CLR 13/11 A3007 890 83 900 000/00 RMK AO2 SLP189 T01330106
14926KSTC STC20000627225509706/27/00 22:55:31  5-MIN KSTC 280455Z AUTO 00000KT 10SM CLR 13/11 A3007 890 86 900 000/00 RMK AO2
14926KSTC STC20000627230009706/27/00 23:00:31  5-MIN KSTC 280500Z AUTO 00000KT 10SM CLR 13/11 A3007 890 89 900 000/00 RMK AO2
14926KSTC STC20000627230509706/27/00 23:05:31  5-MIN KSTC 280505Z AUTO 00000KT 10SM CLR 13/11 A3007 890 89 900 000/00 RMK AO2
14926KSTC STC20000627231009706/27/00 23:10:31  5-MIN KSTC 280510Z AUTO 00000KT 10SM CLR 13/11 A3007 890 89 900 000/00 RMK AO2
14926KSTC STC20000627231509706/27/00 23:15:31  5-MIN KSTC 280515Z AUTO 00000KT 10SM CLR 13/11 A3007 890 86 900 000/00 RMK AO2
14926KSTC STC20000627232009706/27/00 23:20:31  5-MIN KSTC 280520Z AUTO 00000KT 10SM CLR 13/11 A3007 890 89 900 000/00 RMK AO2
14926KSTC STC20000627232509706/27/00 23:25:31  5-MIN KSTC 280525Z AUTO 00000KT 10SM CLR 13/11 A3007 890 89 900 000/00 RMK AO2
14926KSTC STC20000627233009706/27/00 23:30:31  5-MIN KSTC 280530Z AUTO 00000KT 10SM CLR 13/11 A3007 890 86 900 000/00 RMK AO2
14926KSTC STC20000627233509706/27/00 23:35:31  5-MIN KSTC 280535Z AUTO 00000KT 10SM CLR 13/11 A3007 890 86 900 000/00 RMK AO2
14926KSTC STC20000627234009706/27/00 23:40:31  5-MIN KSTC 280540Z AUTO 00000KT 10SM CLR 12/10 A3007 890 86 800 000/00 RMK AO2
14926KSTC STC20000627234509706/27/00 23:45:31  5-MIN KSTC 280545Z AUTO 00000KT 10SM CLR 12/10 A3007 890 86 800 000/00 RMK AO2
14926KSTC STC20000627235014206/27/00 23:50:31  5-MIN KSTC 280550Z AUTO 00000KT 10SM CLR 12/10 A3007 890 86 800 000/00 RMK AO2 SLP189 T01220100 10217 20122 402280078 55003
14926KSTC STC20000627235509706/27/00 23:55:31  5-MIN KSTC 280555Z AUTO 00000KT 10SM CLR 12/10 A3007 890 86 800 000/00 RMK AO2
14926KSTC STC20000628000009706/28/00 00:00:31  5-MIN KSTC 280600Z AUTO 00000KT 10SM CLR 12/10 A3006 890 89 700 000/00 RMK AO2
14926KSTC STC20000628000509706/28/00 00:05:31  5-MIN KSTC 280605Z AUTO 00000KT 10SM CLR 12/10 A3006 890 89 700 000/00 RMK AO2
14926KSTC STC20000628001009706/28/00 00:10:31  5-MIN KSTC 280610Z AUTO 00000KT 10SM CLR 12/10 A3006 890 89 700 000/00 RMK AO2
14926KSTC STC20000628001509706/28/00 00:15:31  5-MIN KSTC 280615Z AUTO 00000KT 10SM CLR 11/10 A3006 890 93 700 000/00 RMK AO2
14926KSTC STC20000628002009706/28/00 00:20:31  5-MIN KSTC 280620Z AUTO 00000KT 10SM CLR 11/10 A3007 890 93 700 000/00 RMK AO2
14926KSTC STC20000628002509706/28/00 00:25:31  5-MIN KSTC 280625Z AUTO 00000KT 10SM CLR 11/09 A3006 890 89 700 000/00 RMK AO2
14926KSTC STC20000628003009706/28/00 00:30:31  5-MIN KSTC 280630Z AUTO 00000KT 10SM CLR 11/10 A3006 890 93 700 000/00 RMK AO2
14926KSTC STC20000628003509706/28/00 00:35:31  5-MIN KSTC 280635Z AUTO 00000KT 10SM CLR 11/09 A3006 890 93 600 000/00 RMK AO2
14926KSTC STC20000628004009706/28/00 00:40:31  5-MIN KSTC 280640Z AUTO 00000KT 10SM CLR 10/09 A3006 900 96 600 000/00 RMK AO2
14926KSTC STC20000628004509706/28/00 00:45:31  5-MIN KSTC 280645Z AUTO 00000KT 10SM CLR 11/09 A3006 900 93 600 000/00 RMK AO2
14926KSTC STC20000628005011406/28/00 00:50:31  5-MIN KSTC 280650Z AUTO 00000KT 10SM CLR 10/09 A3006 900 96 600 000/00 RMK AO2 SLP187 T01000094
14926KSTC STC20000628005509706/28/00 00:55:31  5-MIN KSTC 280655Z AUTO 00000KT 10SM CLR 10/09 A3006 900 96 600 000/00 RMK AO2
14926KSTC STC20000628010009706/28/00 01:00:31  5-MIN KSTC 280700Z AUTO 00000KT 10SM CLR 10/09 A3006 900 96 600 000/00 RMK AO2
14926KSTC STC20000628010509706/28/00 01:05:31  5-MIN KSTC 280705Z AUTO 00000KT 10SM CLR 11/09 A3005 900 93 600 000/00 RMK AO2
14926KSTC STC20000628011009706/28/00 01:10:31  5-MIN KSTC 280710Z AUTO 00000KT 10SM CLR 11/09 A3005 900 93 600 000/00 RMK AO2
14926KSTC STC20000628011509706/28/00 01:15:31  5-MIN KSTC 280715Z AUTO 00000KT 10SM CLR 11/09 A3005 910 93 600 000/00 RMK AO2
14926KSTC STC20000628012009706/28/00 01:20:31  5-MIN KSTC 280720Z AUTO 00000KT 10SM CLR 11/09 A3005 910 93 600 000/00 RMK AO2
14926KSTC STC20000628012509706/28/00 01:25:31  5-MIN KSTC 280725Z AUTO 00000KT 10SM CLR 11/09 A3005 910 93 600 000/00 RMK AO2
14926KSTC STC20000628013009706/28/00 01:30:31  5-MIN KSTC 280730Z AUTO 00000KT 10SM CLR 10/09 A3005 910 96 600 000/00 RMK AO2
14926KSTC STC20000628013509606/28/00 01:35:31  5-MIN KSTC 280735Z AUTO 00000KT 8SM CLR 11/10 A3005 910 96 600 000/00 RMK AO2
14926KSTC STC20000628014009606/28/00 01:40:31  5-MIN KSTC 280740Z AUTO 00000KT 8SM CLR 10/09 A3005 910 96 600 000/00 RMK AO2
14926KSTC STC20000628014509606/28/00 01:45:31  5-MIN KSTC 280745Z AUTO 21003KT 9SM CLR 10/09 A3005 910 93 600 210/03 RMK AO2
14926KSTC STC20000628015011406/28/00 01:50:31  5-MIN KSTC 280750Z AUTO 00000KT 10SM CLR 10/09 A3004 910 93 600 000/00 RMK AO2 SLP182 T01000089
14926KSTC STC20000628015509706/28/00 01:55:31  5-MIN KSTC 280755Z AUTO 00000KT 10SM CLR 09/09 A3004 920 96 500 000/00 RMK AO2
14926KSTC STC20000628020009706/28/00 02:00:31  5-MIN KSTC 280800Z AUTO 00000KT 10SM CLR 09/08 A3004 920 93 500 000/00 RMK AO2
14926KSTC STC20000628020509706/28/00 02:05:31  5-MIN KSTC 280805Z AUTO 00000KT 10SM CLR 09/08 A3004 920 93 500 000/00 RMK AO2
14926KSTC STC20000628021009706/28/00 02:10:31  5-MIN KSTC 280810Z AUTO 00000KT 10SM CLR 09/09 A3004 920 96 500 000/00 RMK AO2
14926KSTC STC20000628021509706/28/00 02:15:31  5-MIN KSTC 280815Z AUTO 23003KT 10SM CLR 09/09 A3004 920 96 500 230/03 RMK AO2
14926KSTC STC20000628022009706/28/00 02:20:31  5-MIN KSTC 280820Z AUTO 00000KT 10SM CLR 09/08 A3004 920 93 500 000/00 RMK AO2
14926KSTC STC20000628022509706/28/00 02:25:31  5-MIN KSTC 280825Z AUTO 00000KT 10SM CLR 09/08 A3004 920 93 500 000/00 RMK AO2
14926KSTC STC20000628023009706/28/00 02:30:31  5-MIN KSTC 280830Z AUTO 00000KT 10SM CLR 09/08 A3004 920 93 500 000/00 RMK AO2
14926KSTC STC20000628023510706/28/00 02:35:31  5-MIN KSTC 280835Z AUTO 00000KT 10SM FEW070 SCT120 09/08 A3004 920 93 500 000/00 RMK AO2
14926KSTC STC20000628024010706/28/00 02:40:31  5-MIN KSTC 280840Z AUTO 30003KT 10SM FEW070 BKN120 09/08 A3005 910 96 400 290/03 RMK AO2
14926KSTC STC20000628024510706/28/00 02:45:31  5-MIN KSTC 280845Z AUTO 30004KT 10SM FEW070 BKN120 09/08 A3004 910 93 500 300/04 RMK AO2
14926KSTC STC20000628025013006/28/00 02:50:31  5-MIN KSTC 280850Z AUTO 30005KT 10SM FEW070 BKN120 10/09 A3004 910 96 600 290/05 RMK AO2 SLP182 T01000094 50001
14926KSTC STC20000628025510706/28/00 02:55:31  5-MIN KSTC 280855Z AUTO 32003KT 10SM FEW070 OVC110 11/09 A3004 920 93 600 320/03 RMK AO2
14926KSTC STC20000628030011406/28/00 03:00:31  5-MIN KSTC 280900Z AUTO 00000KT 10SM FEW070 BKN100 OVC120 11/10 A3004 920 93 700 000/00 RMK AO2
14926KSTC STC20000628030511406/28/00 03:05:31  5-MIN KSTC 280905Z AUTO 00000KT 10SM FEW070 BKN100 OVC120 11/10 A3004 920 93 700 000/00 RMK AO2
14926KSTC STC20000628031011406/28/00 03:10:31  5-MIN KSTC 280910Z AUTO 00000KT 10SM FEW070 BKN100 OVC120 11/10 A3004 920 93 700 000/00 RMK AO2
14926KSTC STC20000628031510706/28/00 03:15:31  5-MIN KSTC 280915Z AUTO 00000KT 10SM SCT080 OVC100 12/11 A3003 920 93 800 000/00 RMK AO2
14926KSTC STC20000628032010706/28/00 03:20:31  5-MIN KSTC 280920Z AUTO 00000KT 10SM BKN080 OVC100 12/11 A3004 920 93 800 000/00 RMK AO2
14926KSTC STC20000628032510006/28/00 03:25:31  5-MIN KSTC 280925Z AUTO 19008KT 10SM OVC085 12/11 A3004 920 93 800 190/08 RMK AO2
14926KSTC STC20000628033010006/28/00 03:30:31  5-MIN KSTC 280930Z AUTO 21006KT 10SM OVC085 12/11 A3004 920 89 800 210/06 RMK AO2
14926KSTC STC20000628033510006/28/00 03:35:31  5-MIN KSTC 280935Z AUTO 26003KT 10SM OVC080 12/11 A3004 920 89 800 260/03 RMK AO2
14926KSTC STC20000628034010006/28/00 03:40:31  5-MIN KSTC 280940Z AUTO 25004KT 10SM OVC080 12/11 A3004 920 89 800 250/04 RMK AO2
14926KSTC STC20000628034510006/28/00 03:45:31  5-MIN KSTC 280945Z AUTO 21004KT 10SM OVC080 12/11 A3003 920 93 800 210/04 RMK AO2
14926KSTC STC20000628035011706/28/00 03:50:31  5-MIN KSTC 280950Z AUTO 00000KT 10SM OVC085 13/11 A3003 920 89 900 000/00 RMK AO2 SLP177 T01280111
14926KSTC STC20000628035510006/28/00 03:55:31  5-MIN KSTC 280955Z AUTO 20004KT 10SM OVC085 12/11 A3004 920 93 800 200/04 RMK AO2
14926KSTC STC20000628040010006/28/00 04:00:31  5-MIN KSTC 281000Z AUTO 22004KT 10SM BKN085 12/11 A3004 920 93 800 220/04 RMK AO2
14926KSTC STC20000628040510006/28/00 04:05:31  5-MIN KSTC 281005Z AUTO 22004KT 10SM BKN085 12/11 A3003 920 89 800 220/04 RMK AO2
14926KSTC STC20000628041010006/28/00 04:10:31  5-MIN KSTC 281010Z AUTO 22005KT 10SM BKN085 12/11 A3003 920 89 800 220/05 RMK AO2
14926KSTC STC20000628041510006/28/00 04:15:31  5-MIN KSTC 281015Z AUTO 21004KT 10SM BKN085 12/11 A3003 920 89 800 210/04 RMK AO2
14926KSTC STC20000628042010006/28/00 04:20:31  5-MIN KSTC 281020Z AUTO 22006KT 10SM BKN080 12/11 A3004 920 93 800 220/06 RMK AO2
14926KSTC STC20000628042510006/28/00 04:25:31  5-MIN KSTC 281025Z AUTO 23006KT 10SM BKN085 13/11 A3004 920 89 900 230/06 RMK AO2
14926KSTC STC20000628043010006/28/00 04:30:31  5-MIN KSTC 281030Z AUTO 23006KT 10SM OVC085 13/11 A3004 920 89 900 230/06 RMK AO2
14926KSTC STC20000628043510006/28/00 04:35:31  5-MIN KSTC 281035Z AUTO 23006KT 10SM BKN085 13/11 A3004 920 86 900 230/06 RMK AO2
14926KSTC STC20000628044010006/28/00 04:40:31  5-MIN KSTC 281040Z AUTO 23007KT 10SM BKN085 12/11 A3004 920 89 800 230/07 RMK AO2
14926KSTC STC20000628044510006/28/00 04:45:31  5-MIN KSTC 281045Z AUTO 23006KT 10SM SCT085 12/11 A3004 920 89 800 220/06 RMK AO2
14926KSTC STC20000628045011706/28/00 04:50:31  5-MIN KSTC 281050Z AUTO 23007KT 10SM SCT085 12/11 A3004 920 89 800 230/07 RMK AO2 SLP179 T01220106
14926KSTC STC20000628045510006/28/00 04:55:31  5-MIN KSTC 281055Z AUTO 24006KT 10SM FEW080 12/11 A3004 920 89 800 230/06 RMK AO2
14926KSTC STC20000628050010006/28/00 05:00:31  5-MIN KSTC 281100Z AUTO 24006KT 10SM FEW080 12/11 A3004 920 89 800 240/06 RMK AO2
14926KSTC STC20000628050509706/28/00 05:05:31  5-MIN KSTC 281105Z AUTO 24005KT 10SM CLR 12/11 A3004 920 89 800 240/05 RMK AO2
14926KSTC STC20000628051009706/28/00 05:10:31  5-MIN KSTC 281110Z AUTO 24005KT 10SM CLR 12/11 A3003 920 89 800 230/05 RMK AO2
14926KSTC STC20000628051509706/28/00 05:15:31  5-MIN KSTC 281115Z AUTO 24005KT 10SM CLR 12/11 A3003 920 89 800 240/05 RMK AO2
14926KSTC STC20000628052009706/28/00 05:20:31  5-MIN KSTC 281120Z AUTO 24006KT 10SM CLR 12/11 A3004 920 93 800 240/06 RMK AO2
14926KSTC STC20000628052509706/28/00 05:25:31  5-MIN KSTC 281125Z AUTO 25006KT 10SM CLR 13/11 A3004 920 89 900 240/06 RMK AO2
14926KSTC STC20000628053009706/28/00 05:30:31  5-MIN KSTC 281130Z AUTO 25005KT 10SM CLR 13/11 A3004 920 89 900 250/05 RMK AO2
14926KSTC STC20000628053509706/28/00 05:35:31  5-MIN KSTC 281135Z AUTO 25006KT 10SM CLR 13/11 A3004 920 89 900 250/06 RMK AO2
14926KSTC STC20000628054009806/28/00 05:40:31  5-MIN KSTC 281140Z AUTO 25006KT 10SM CLR 13/12 A3004 920 89 1000 250/06 RMK AO2
14926KSTC STC20000628054510106/28/00 05:45:31  5-MIN KSTC 281145Z AUTO 26006KT 10SM FEW090 13/12 A3004 920 89 1000 250/06 RMK AO2
14926KSTC STC20000628055013606/28/00 05:50:31  5-MIN KSTC 281150Z AUTO 26006KT 10SM SCT090 14/12 A3004 920 86 1000 250/06 RMK AO2 SLP179 T01390117 10139 20089 55007
14926KSTC STC20000628055510106/28/00 05:55:31  5-MIN KSTC 281155Z AUTO 25008KT 10SM SCT090 14/12 A3004 920 86 1000 250/08 RMK AO2
14926KSTC STC20000628060010106/28/00 06:00:31  5-MIN KSTC 281200Z AUTO 25007KT 10SM FEW090 14/12 A3004 920 90 1000 250/07 RMK AO2
14926KSTC STC20000628060510106/28/00 06:05:31  5-MIN KSTC 281205Z AUTO 25007KT 10SM FEW090 14/12 A3004 920 86 1100 250/07 RMK AO2
14926KSTC STC20000628061010106/28/00 06:10:31  5-MIN KSTC 281210Z AUTO 25007KT 10SM FEW090 14/12 A3004 910 86 1100 250/07 RMK AO2
14926KSTC STC20000628061510106/28/00 06:15:31  5-MIN KSTC 281215Z AUTO 25007KT 10SM FEW090 14/12 A3004 910 86 1100 250/07 RMK AO2
14926KSTC STC20000628062009806/28/00 06:20:31  5-MIN KSTC 281220Z AUTO 25007KT 10SM CLR 14/12 A3004 920 86 1100 250/07 RMK AO2
14926KSTC STC20000628062509806/28/00 06:25:31  5-MIN KSTC 281225Z AUTO 26009KT 10SM CLR 15/12 A3004 920 83 1200 250/09 RMK AO2
14926KSTC STC20000628063009806/28/00 06:30:31  5-MIN KSTC 281230Z AUTO 25006KT 10SM CLR 15/12 A3004 920 83 1200 250/06 RMK AO2
14926KSTC STC20000628063509806/28/00 06:35:31  5-MIN KSTC 281235Z AUTO 26006KT 10SM CLR 16/12 A3004 920 80 1200 260/06 RMK AO2
14926KSTC STC20000628064009806/28/00 06:40:31  5-MIN KSTC 281240Z AUTO 26007KT 10SM CLR 16/12 A3004 920 80 1200 250/07 RMK AO2
14926KSTC STC20000628064509806/28/00 06:45:31  5-MIN KSTC 281245Z AUTO 26005KT 10SM CLR 16/12 A3004 920 80 1200 260/05 RMK AO2
14926KSTC STC20000628065011506/28/00 06:50:31  5-MIN KSTC 281250Z AUTO 25007KT 10SM CLR 16/12 A3004 920 80 1200 250/07 RMK AO2 SLP179 T01560122
14926KSTC STC20000628065509806/28/00 06:55:31  5-MIN KSTC 281255Z AUTO 25007KT 10SM CLR 16/12 A3004 920 80 1200 250/07 RMK AO2
14926KSTC STC20000628070009806/28/00 07:00:31  5-MIN KSTC 281300Z AUTO 26006KT 10SM CLR 16/12 A3004 910 77 1300 250/06 RMK AO2
14926KSTC STC20000628070509806/28/00 07:05:31  5-MIN KSTC 281305Z AUTO 25006KT 10SM CLR 16/12 A3004 910 77 1300 250/06 RMK AO2
14926KSTC STC20000628071009806/28/00 07:10:31  5-MIN KSTC 281310Z AUTO 26007KT 10SM CLR 16/12 A3004 920 77 1300 260/07 RMK AO2
14926KSTC STC20000628071509806/28/00 07:15:31  5-MIN KSTC 281315Z AUTO 25007KT 10SM CLR 17/12 A3004 920 72 1400 250/07 RMK AO2
14926KSTC STC20000628072009806/28/00 07:20:31  5-MIN KSTC 281320Z AUTO 26007KT 10SM CLR 17/12 A3004 920 72 1400 260/07 RMK AO2
14926KSTC STC20000628072509806/28/00 07:25:31  5-MIN KSTC 281325Z AUTO 26010KT 10SM CLR 17/12 A3004 920 72 1400 250/10 RMK AO2
14926KSTC STC20000628073009806/28/00 07:30:31  5-MIN KSTC 281330Z AUTO 27010KT 10SM CLR 17/12 A3004 920 69 1400 260/10 RMK AO2
14926KSTC STC20000628073509806/28/00 07:35:31  5-MIN KSTC 281335Z AUTO 27009KT 10SM CLR 17/12 A3004 920 69 1400 270/09 RMK AO2
14926KSTC STC20000628074009806/28/00 07:40:31  5-MIN KSTC 281340Z AUTO 27008KT 10SM CLR 17/12 A3004 920 69 1400 270/08 RMK AO2
14926KSTC STC20000628074509806/28/00 07:45:31  5-MIN KSTC 281345Z AUTO 28008KT 10SM CLR 18/12 A3004 920 67 1500 280/08 RMK AO2
14926KSTC STC20000628075011506/28/00 07:50:31  5-MIN KSTC 281350Z AUTO 27008KT 10SM CLR 18/12 A3004 920 67 1500 270/08 RMK AO2 SLP179 T01780117
14926KSTC STC20000628075509806/28/00 07:55:31  5-MIN KSTC 281355Z AUTO 29009KT 10SM CLR 18/12 A3004 920 67 1500 290/09 RMK AO2
14926KSTC STC20000628080009806/28/00 08:00:31  5-MIN KSTC 281400Z AUTO 29008KT 10SM CLR 18/12 A3004 920 65 1600 290/08 RMK AO2
14926KSTC STC20000628080509806/28/00 08:05:31  5-MIN KSTC 281405Z AUTO 27007KT 10SM CLR 18/12 A3004 920 65 1600 270/07 RMK AO2
14926KSTC STC20000628081009806/28/00 08:10:31  5-MIN KSTC 281410Z AUTO 29007KT 10SM CLR 18/12 A3004 920 65 1600 290/07 RMK AO2
14926KSTC STC20000628081509806/28/00 08:15:31  5-MIN KSTC 281415Z AUTO 29010KT 10SM CLR 19/11 A3004 920 60 1600 290/10 RMK AO2
14926KSTC STC20000628082009806/28/00 08:20:31  5-MIN KSTC 281420Z AUTO 28007KT 10SM CLR 18/11 A3003 920 62 1600 270/07 RMK AO2
14926KSTC STC20000628082511406/28/00 08:25:31  5-MIN KSTC 281425Z AUTO 29007KT 260V320 10SM CLR 19/12 A3003 920 62 1600 290/07 260V320 RMK AO2
14926KSTC STC20000628083009806/28/00 08:30:31  5-MIN KSTC 281430Z AUTO 31007KT 10SM CLR 19/11 A3004 920 60 1600 310/07 RMK AO2
14926KSTC STC20000628083510106/28/00 08:35:31  5-MIN KSTC 281435Z AUTO 27009KT 10SM FEW075 19/11 A3003 920 60 1600 260/09 RMK AO2
14926KSTC STC20000628084010106/28/00 08:40:31  5-MIN KSTC 281440Z AUTO 29009KT 10SM FEW070 19/11 A3003 920 60 1600 290/09 RMK AO2
14926KSTC STC20000628084510106/28/00 08:45:31  5-MIN KSTC 281445Z AUTO 31007KT 10SM SCT070 19/11 A3003 920 60 1600 310/07 RMK AO2
14926KSTC STC20000628085012406/28/00 08:50:31  5-MIN KSTC 281450Z AUTO 30007KT 10SM SCT070 19/11 A3003 920 58 1700 300/07 RMK AO2 SLP176 T01940111 55001
14926KSTC STC20000628085510106/28/00 08:55:31  5-MIN KSTC 281455Z AUTO 31010KT 10SM SCT075 19/12 A3003 920 60 1700 300/10 RMK AO2
14926KSTC STC20000628090010806/28/00 09:00:31  5-MIN KSTC 281500Z AUTO 30010KT 10SM SCT070 BKN095 18/11 A3003 920 60 1600 300/10 RMK AO2
14926KSTC STC20000628090510806/28/00 09:05:31  5-MIN KSTC 281505Z AUTO 32010KT 10SM FEW070 SCT095 19/11 A3003 930 58 1600 310/10 RMK AO2
14926KSTC STC20000628091010806/28/00 09:10:31  5-MIN KSTC 281510Z AUTO 29009KT 10SM FEW070 BKN100 19/11 A3003 930 58 1700 290/09 RMK AO2
14926KSTC STC20000628091510106/28/00 09:15:31  5-MIN KSTC 281515Z AUTO 29009KT 10SM SCT100 19/11 A3003 930 58 1700 290/09 RMK AO2
14926KSTC STC20000628092010106/28/00 09:20:31  5-MIN KSTC 281520Z AUTO 31007KT 10SM FEW100 20/12 A3003 930 58 1800 310/07 RMK AO2
14926KSTC STC20000628092510106/28/00 09:25:31  5-MIN KSTC 281525Z AUTO 28010KT 10SM FEW100 20/11 A3002 930 56 1800 270/10 RMK AO2
14926KSTC STC20000628093010106/28/00 09:30:31  5-MIN KSTC 281530Z AUTO 30007KT 10SM FEW100 19/11 A3002 930 58 1700 300/07 RMK AO2
14926KSTC STC20000628093510106/28/00 09:35:31  5-MIN KSTC 281535Z AUTO 27010KT 10SM FEW110 20/11 A3002 930 56 1800 260/10 RMK AO2
14926KSTC STC20000628094009806/28/00 09:40:31  5-MIN KSTC 281540Z AUTO 28010KT 10SM CLR 21/11 A3002 930 52 1800 280/10 RMK AO2
14926KSTC STC20000628094509806/28/00 09:45:31  5-MIN KSTC 281545Z AUTO 28008KT 10SM CLR 21/11 A3002 930 54 1800 280/08 RMK AO2
14926KSTC STC20000628095011506/28/00 09:50:31  5-MIN KSTC 281550Z AUTO 30008KT 10SM CLR 21/11 A3002 930 52 1800 300/08 RMK AO2 SLP174 T02060106
14926KSTC STC20000628095509806/28/00 09:55:31  5-MIN KSTC 281555Z AUTO 28008KT 10SM CLR 21/11 A3002 930 52 1900 280/08 RMK AO2
14926KSTC STC20000628100009806/28/00 10:00:31  5-MIN KSTC 281600Z AUTO 27009KT 10SM CLR 21/11 A3002 930 50 1900 260/09 RMK AO2
14926KSTC STC20000628100509806/28/00 10:05:31  5-MIN KSTC 281605Z AUTO 27009KT 10SM CLR 21/11 A3002 940 50 1900 260/09 RMK AO2
14926KSTC STC20000628101010106/28/00 10:10:31  5-MIN KSTC 281610Z AUTO 30011KT 10SM FEW046 21/11 A3002 940 50 1900 300/11 RMK AO2
14926KSTC STC20000628101510706/28/00 10:15:31  5-MIN KSTC 281615Z AUTO 29012G15KT 10SM FEW046 21/11 A3002 940 50 1900 290/12G15 RMK AO2
14926KSTC STC20000628102010706/28/00 10:20:31  5-MIN KSTC 281620Z AUTO 32010G15KT 10SM FEW046 22/10 A3002 940 47 2000 320/10G15 RMK AO2
14926KSTC STC20000628102510106/28/00 10:25:31  5-MIN KSTC 281625Z AUTO 28008KT 10SM FEW046 22/11 A3001 940 49 2000 280/08 RMK AO2
14926KSTC STC20000628103011706/28/00 10:30:31  5-MIN KSTC 281630Z AUTO 30010KT 270V330 10SM FEW048 22/11 A3001 940 49 2000 300/10 270V330 RMK AO2
14926KSTC STC20000628103510806/28/00 10:35:31  5-MIN KSTC 281635Z AUTO 29011KT 10SM SCT043 SCT050 21/09 A3001 940 48 1800 290/11 RMK AO2
14926KSTC STC20000628104010806/28/00 10:40:31  5-MIN KSTC 281640Z AUTO 27013KT 10SM FEW043 SCT050 22/09 A3001 940 45 2000 270/13 RMK AO2
14926KSTC STC20000628104510106/28/00 10:45:31  5-MIN KSTC 281645Z AUTO 32012KT 10SM FEW043 21/09 A3001 940 47 1900 320/12 RMK AO2
14926KSTC STC20000628105011806/28/00 10:50:31  5-MIN KSTC 281650Z AUTO 29013KT 10SM FEW043 22/09 A3001 940 43 2000 280/13 RMK AO2 SLP169 T02220094
14926KSTC STC20000628105510106/28/00 10:55:31  5-MIN KSTC 281655Z AUTO 31014KT 10SM FEW043 22/08 A3001 950 40 2000 310/14 RMK AO2
14926KSTC STC20000628110010106/28/00 11:00:31  5-MIN KSTC 281700Z AUTO 30013KT 10SM FEW043 22/09 A3001 950 42 2000 290/13 RMK AO2
14926KSTC STC20000628110510706/28/00 11:05:31  5-MIN KSTC 281705Z AUTO 29012G18KT 10SM FEW050 23/09 A3001 950 40 2100 290/12G18 RMK AO2
14926KSTC STC20000628111010106/28/00 11:10:31  5-MIN KSTC 281710Z AUTO 31013KT 10SM FEW050 23/09 A3001 950 40 2100 300/13 RMK AO2
14926KSTC STC20000628111510806/28/00 11:15:31  5-MIN KSTC 281715Z AUTO 30014KT 10SM FEW050 SCT090 22/09 A3001 950 42 2000 300/14 RMK AO2
14926KSTC STC20000628112010106/28/00 11:20:31  5-MIN KSTC 281720Z AUTO 31010KT 10SM FEW050 22/09 A3001 950 43 2000 310/10 RMK AO2
14926KSTC STC20000628112510106/28/00 11:25:31  5-MIN KSTC 281725Z AUTO 30013KT 10SM FEW050 22/09 A3000 950 42 2000 300/13 RMK AO2
14926KSTC STC20000628113010106/28/00 11:30:31  5-MIN KSTC 281730Z AUTO 30012KT 10SM FEW050 21/07 A3001 950 40 1900 300/12 RMK AO2
14926KSTC STC20000628113510106/28/00 11:35:31  5-MIN KSTC 281735Z AUTO 28010KT 10SM FEW090 22/08 A3000 950 39 2000 270/10 RMK AO2
14926KSTC STC20000628114010806/28/00 11:40:31  5-MIN KSTC 281740Z AUTO 28008KT 10SM FEW055 SCT090 22/08 A3000 950 42 2000 270/08 RMK AO2
14926KSTC STC20000628114510106/28/00 11:45:31  5-MIN KSTC 281745Z AUTO 30014KT 10SM FEW050 22/09 A3000 950 43 2000 300/14 RMK AO2
14926KSTC STC20000628115013606/28/00 11:50:31  5-MIN KSTC 281750Z AUTO 30012KT 10SM FEW050 22/09 A3000 950 43 2000 300/12 RMK AO2 SLP167 T02220094 10228 20139 58003
14926KSTC STC20000628115510706/28/00 11:55:31  5-MIN KSTC 281755Z AUTO 31014G19KT 10SM FEW050 23/08 A3000 950 39 2100 300/14G19 RMK AO2
14926KSTC STC20000628120012306/28/00 12:00:31  5-MIN KSTC 281800Z AUTO 30011G19KT 260V330 10SM FEW050 23/09 A3000 960 40 2100 300/11G19 260V330 RMK AO2
14926KSTC STC20000628120510106/28/00 12:05:31  5-MIN KSTC 281805Z AUTO 31013KT 10SM SCT055 23/09 A3000 960 40 2100 310/13 RMK AO2
14926KSTC STC20000628121010706/28/00 12:10:31  5-MIN KSTC 281810Z AUTO 31015G19KT 10SM SCT055 22/08 A2999 960 39 2100 310/15G19 RMK AO2
14926KSTC STC20000628121510706/28/00 12:15:31  5-MIN KSTC 281815Z AUTO 31011G19KT 10SM FEW055 22/08 A2999 960 39 2100 310/11G19 RMK AO2
14926KSTC STC20000628122010106/28/00 12:20:31  5-MIN KSTC 281820Z AUTO 30014KT 10SM FEW055 23/08 A2999 960 39 2100 300/14 RMK AO2
14926KSTC STC20000628122510106/28/00 12:25:31  5-MIN KSTC 281825Z AUTO 27013KT 10SM FEW055 23/07 A2999 960 36 2100 260/13 RMK AO2
14926KSTC STC20000628123011706/28/00 12:30:31  5-MIN KSTC 281830Z AUTO 30011KT 250V330 10SM FEW055 23/07 A2999 960 35 2200 290/11 250V330 RMK AO2
14926KSTC STC20000628123510406/28/00 12:35:31  5-MIN KSTC 281835Z AUTO 30014G18KT 10SM CLR 23/08 A2998 970 37 2100 300/14G18 RMK AO2
14926KSTC STC20000628124010406/28/00 12:40:31  5-MIN KSTC 281840Z AUTO 30013G18KT 10SM CLR 23/08 A2998 970 39 2100 290/13G18 RMK AO2
14926KSTC STC20000628124510106/28/00 12:45:31  5-MIN KSTC 281845Z AUTO 32012KT 10SM FEW090 22/07 A2998 970 39 2000 320/12 RMK AO2
14926KSTC STC20000628125011806/28/00 12:50:31  5-MIN KSTC 281850Z AUTO 30013KT 10SM FEW080 23/08 A2998 970 37 2100 300/13 RMK AO2 SLP159 T02280078
14926KSTC STC20000628125511506/28/00 12:55:31  5-MIN KSTC 281855Z AUTO 32013KT 10SM FEW060 SCT080 SCT090 23/08 A2998 970 39 2100 310/13 RMK AO2
14926KSTC STC20000628130012106/28/00 13:00:31  5-MIN KSTC 281900Z AUTO 33014G19KT 10SM FEW060 SCT075 BKN090 22/08 A2998 970 40 2100 320/14G19 RMK AO2
14926KSTC STC20000628130512106/28/00 13:05:31  5-MIN KSTC 281905Z AUTO 31011G19KT 10SM FEW060 SCT080 SCT090 23/08 A2997 980 39 2100 310/11G19 RMK AO2
14926KSTC STC20000628131011406/28/00 13:10:31  5-MIN KSTC 281910Z AUTO 31014G20KT 10SM FEW060 SCT090 23/08 A2997 980 38 2200 300/14G20 RMK AO2
14926KSTC STC20000628131510706/28/00 13:15:31  5-MIN KSTC 281915Z AUTO 30011G20KT 10SM FEW060 23/08 A2997 980 36 2200 290/11G20 RMK AO2
14926KSTC STC20000628132010706/28/00 13:20:31  5-MIN KSTC 281920Z AUTO 32015G19KT 10SM FEW060 23/08 A2997 980 38 2200 310/15G19 RMK AO2
14926KSTC STC20000628132510406/28/00 13:25:31  5-MIN KSTC 281925Z AUTO 29014G19KT 10SM CLR 23/08 A2997 980 39 2100 290/14G19 RMK AO2
14926KSTC STC20000628133010706/28/00 13:30:31  5-MIN KSTC 281930Z AUTO 29011G19KT 10SM FEW055 23/08 A2996 990 38 2200 290/11G19 RMK AO2
14926KSTC STC20000628133512306/28/00 13:35:31  5-MIN KSTC 281935Z AUTO 31012G17KT 290V350 10SM FEW055 23/08 A2996 990 38 2200 310/12G17 290V350 RMK AO2
14926KSTC STC20000628134010406/28/00 13:40:31  5-MIN KSTC 281940Z AUTO 32013G18KT 10SM CLR 23/08 A2996 990 37 2200 320/13G18 RMK AO2
14926KSTC STC20000628134510706/28/00 13:45:31  5-MIN KSTC 281945Z AUTO 28013G18KT 10SM FEW060 23/08 A2996 990 36 2200 280/13G18 RMK AO2
14926KSTC STC20000628135011806/28/00 13:50:31  5-MIN KSTC 281950Z AUTO 31016KT 10SM FEW060 24/08 A2996 990 35 2300 300/16 RMK AO2 SLP151 T02390078
14926KSTC STC20000628135510106/28/00 13:55:31  5-MIN KSTC 281955Z AUTO 30015KT 10SM FEW060 24/07 A2996 990 34 2300 300/15 RMK AO2
14926KSTC STC20000628140010706/28/00 14:00:31  5-MIN KSTC 282000Z AUTO 30014G21KT 10SM FEW060 23/07 A2996 990 35 2200 300/14G21 RMK AO2
14926KSTC STC20000628140510806/28/00 14:05:31  5-MIN KSTC 282005Z AUTO 31014G21KT 10SM FEW060 23/07 A2995 1000 35 2200 310/14G21 RMK AO2
14926KSTC STC20000628141010806/28/00 14:10:31  5-MIN KSTC 282010Z AUTO 30013G19KT 10SM FEW060 23/07 A2995 1000 36 2200 300/13G19 RMK AO2
14926KSTC STC20000628141510206/28/00 14:15:31  5-MIN KSTC 282015Z AUTO 31011KT 10SM FEW060 24/07 A2995 1000 32 2300 300/11 RMK AO2
14926KSTC STC20000628142010406/28/00 14:20:31  5-MIN KSTC 282020Z AUTO 31013G18KT 10SM CLR 23/07 A2996 990 35 2200 310/13G18 RMK AO2
14926KSTC STC20000628142510406/28/00 14:25:31  5-MIN KSTC 282025Z AUTO 29015G18KT 10SM CLR 24/08 A2996 990 36 2300 290/15G18 RMK AO2
14926KSTC STC20000628143009806/28/00 14:30:31  5-MIN KSTC 282030Z AUTO 29011KT 10SM CLR 24/08 A2996 990 35 2300 290/11 RMK AO2
14926KSTC STC20000628143510706/28/00 14:35:31  5-MIN KSTC 282035Z AUTO 29014G20KT 10SM FEW060 23/08 A2996 990 36 2200 290/14G20 RMK AO2
14926KSTC STC20000628144010806/28/00 14:40:31  5-MIN KSTC 282040Z AUTO 30013G20KT 10SM FEW060 23/08 A2995 1000 36 2200 300/13G20 RMK AO2
14926KSTC STC20000628144510806/28/00 14:45:31  5-MIN KSTC 282045Z AUTO 30014G19KT 10SM FEW065 24/07 A2995 1000 34 2300 290/14G19 RMK AO2
14926KSTC STC20000628145013106/28/00 14:50:31  5-MIN KSTC 282050Z AUTO 30014G20KT 10SM FEW065 23/07 A2995 1000 33 2200 290/14G20 RMK AO2 SLP150 T02330067 58011
14926KSTC STC20000628145510806/28/00 14:55:31  5-MIN KSTC 282055Z AUTO 30014G20KT 10SM FEW060 24/07 A2995 1000 34 2300 300/14G20 RMK AO2
14926KSTC STC20000628150010206/28/00 15:00:31  5-MIN KSTC 282100Z AUTO 29013KT 10SM FEW065 23/07 A2995 1000 35 2200 280/13 RMK AO2
14926KSTC STC20000628150510206/28/00 15:05:31  5-MIN KSTC 282105Z AUTO 29014KT 10SM FEW065 23/07 A2995 1000 35 2200 290/14 RMK AO2
14926KSTC STC20000628151010806/28/00 15:10:31  5-MIN KSTC 282110Z AUTO 30015G21KT 10SM FEW065 24/07 A2995 1000 34 2300 300/15G21 RMK AO2
14926KSTC STC20000628151510806/28/00 15:15:31  5-MIN KSTC 282115Z AUTO 31012G21KT 10SM FEW070 23/07 A2995 1000 36 2200 300/12G21 RMK AO2
14926KSTC STC20000628152010806/28/00 15:20:31  5-MIN KSTC 282120Z AUTO 29014G23KT 10SM FEW070 22/07 A2995 1000 36 2100 290/14G23 RMK AO2
14926KSTC STC20000628152511506/28/00 15:25:31  5-MIN KSTC 282125Z AUTO 29013G23KT 10SM FEW070 SCT100 22/07 A2995 1000 37 2100 280/13G23 RMK AO2
14926KSTC STC20000628153011706/28/00 15:30:31  5-MIN KSTC 282130Z AUTO 31010KT 10SM TS FEW065 SCT100 22/07 A2996 990 37 2100 310/10 RMK AO2 TSB27
14926KSTC STC20000628153514106/28/00 15:35:31  5-MIN KSTC 282135Z AUTO 30031G39KT 10SM TS SCT065 BKN100 21/07 A2997 980 41 1900 300/31G39 RMK AO2 PK WND 30039/2133 TSB27
14926KSTC STC20000628154016006/28/00 15:40:31  5-MIN KSTC 282140Z AUTO 31017G39KT 4SM TSRA FEW037 BKN065 BKN100 17/08 A2997 980 57 1400 300/17G39 RMK AO2 PK WND 30039/2137 TSB27RAB37 P0005
14926KSTC STC20000628154516206/28/00 15:45:31  5-MIN KSTC 282145Z AUTO 28012G39KT 3SM -RA SCT029 BKN065 BKN100 16/09 A2997 980 62 1400 270/12G39 RMK AO2 PK WND 30039/2137 TSB27E42RAB37 P0006
14926KSTC STC20000628155017306/28/00 15:50:31  5-MIN KSTC 282150Z AUTO 28010KT 6SM -RA FEW017 BKN065 BKN100 17/11 A2997 980 64 1500 280/10 RMK AO2 PK WND 30039/2137 TSB27E42RAB37 SLP156 P0006 T01720106
14926KSTC STC20000628155510806/28/00 15:55:31  5-MIN KSTC 282155Z AUTO 28008KT 10SM FEW019 SCT065 18/12 A2996 990 65 1600 280/08 RMK AO2
14926KSTC STC20000628160010806/28/00 16:00:31  5-MIN KSTC 282200Z AUTO 29007KT 10SM FEW019 SCT065 19/12 A2997 990 62 1700 290/07 RMK AO2
14926KSTC STC20000628160510106/28/00 16:05:31  5-MIN KSTC 282205Z AUTO 35007KT 10SM FEW019 18/12 A2997 980 65 1600 350/07 RMK AO2
14926KSTC STC20000628161009806/28/00 16:10:31  5-MIN KSTC 282210Z AUTO 36009KT 10SM CLR 19/11 A2997 980 58 1700 360/09 RMK AO2
14926KSTC STC20000628161509806/28/00 16:15:31  5-MIN KSTC 282215Z AUTO 01007KT 10SM CLR 19/11 A2997 980 58 1700 360/07 RMK AO2
14926KSTC STC20000628162009806/28/00 16:20:31  5-MIN KSTC 282220Z AUTO 35007KT 10SM CLR 19/11 A2997 980 60 1700 340/07 RMK AO2
14926KSTC STC20000628162509806/28/00 16:25:31  5-MIN KSTC 282225Z AUTO 35005KT 10SM CLR 19/11 A2997 980 58 1700 350/05 RMK AO2
14926KSTC STC20000628163009806/28/00 16:30:31  5-MIN KSTC 282230Z AUTO 34006KT 10SM CLR 18/10 A2997 980 58 1600 340/06 RMK AO2
14926KSTC STC20000628163510106/28/00 16:35:31  5-MIN KSTC 282235Z AUTO 34005KT 10SM FEW095 18/10 A2997 980 58 1600 330/05 RMK AO2
14926KSTC STC20000628164010106/28/00 16:40:31  5-MIN KSTC 282240Z AUTO 34004KT 10SM FEW085 18/11 A2997 980 60 1600 340/04 RMK AO2
14926KSTC STC20000628164510106/28/00 16:45:31  5-MIN KSTC 282245Z AUTO 35005KT 10SM FEW085 18/11 A2997 980 60 1600 350/05 RMK AO2
14926KSTC STC20000628165011806/28/00 16:50:31  5-MIN KSTC 282250Z AUTO 34005KT 10SM FEW085 19/11 A2997 980 58 1700 340/05 RMK AO2 SLP155 T01890106
14926KSTC STC20000628165510106/28/00 16:55:31  5-MIN KSTC 282255Z AUTO 01004KT 10SM FEW085 19/11 A2996 990 58 1700 360/04 RMK AO2
14926KSTC STC20000628170010106/28/00 17:00:31  5-MIN KSTC 282300Z AUTO 35003KT 10SM FEW090 19/11 A2996 990 60 1700 350/03 RMK AO2
14926KSTC STC20000628170509806/28/00 17:05:31  5-MIN KSTC 282305Z AUTO 31005KT 10SM CLR 20/11 A2996 990 56 1800 310/05 RMK AO2
14926KSTC STC20000628171009806/28/00 17:10:31  5-MIN KSTC 282310Z AUTO 33004KT 10SM CLR 20/11 A2996 990 54 1800 330/04 RMK AO2
14926KSTC STC20000628171509906/28/00 17:15:31  5-MIN KSTC 282315Z AUTO VRB03KT 10SM CLR 20/11 A2995 1000 56 1800 VRB/03 RMK AO2
14926KSTC STC20000628172009906/28/00 17:20:31  5-MIN KSTC 282320Z AUTO 31004KT 10SM CLR 20/11 A2995 1000 54 1900 310/04 RMK AO2
14926KSTC STC20000628172509906/28/00 17:25:31  5-MIN KSTC 282325Z AUTO VRB03KT 10SM CLR 20/11 A2995 1000 54 1900 VRB/03 RMK AO2
14926KSTC STC20000628173009906/28/00 17:30:31  5-MIN KSTC 282330Z AUTO VRB03KT 10SM CLR 20/11 A2995 1000 56 1900 VRB/03 RMK AO2
14926KSTC STC20000628173509906/28/00 17:35:31  5-MIN KSTC 282335Z AUTO 29003KT 10SM CLR 20/11 A2995 1000 56 1900 290/03 RMK AO2
14926KSTC STC20000628174009906/28/00 17:40:31  5-MIN KSTC 282340Z AUTO 31005KT 10SM CLR 21/11 A2995 1000 54 1900 310/05 RMK AO2
14926KSTC STC20000628174509906/28/00 17:45:31  5-MIN KSTC 282345Z AUTO VRB04KT 10SM CLR 21/11 A2995 1000 54 1900 VRB/04 RMK AO2
14926KSTC STC20000628175014006/28/00 17:50:31  5-MIN KSTC 282350Z AUTO 29006KT 10SM CLR 21/11 A2995 1000 52 1900 280/06 RMK AO2 SLP147 60006 T02060106 10239 20161 56015
14926KSTC STC20000628175509906/28/00 17:55:31  5-MIN KSTC 282355Z AUTO 29006KT 10SM CLR 21/11 A2994 1000 54 1900 280/06 RMK AO2
14926KSTC STC20000628180009906/28/00 18:00:31  5-MIN KSTC 290000Z AUTO VRB04KT 10SM CLR 21/11 A2994 1010 52 1900 VRB/04 RMK AO2
14926KSTC STC20000628180509906/28/00 18:05:31  5-MIN KSTC 290005Z AUTO VRB06KT 10SM CLR 21/11 A2994 1010 54 1900 VRB/06 RMK AO2
14926KSTC STC20000628181009906/28/00 18:10:31  5-MIN KSTC 290010Z AUTO 29008KT 10SM CLR 20/11 A2994 1010 54 1900 280/08 RMK AO2
14926KSTC STC20000628181509906/28/00 18:15:31  5-MIN KSTC 290015Z AUTO 29010KT 10SM CLR 20/09 A2994 1010 50 1900 290/10 RMK AO2
14926KSTC STC20000628182009906/28/00 18:20:31  5-MIN KSTC 290020Z AUTO 28009KT 10SM CLR 19/10 A2994 1010 54 1800 280/09 RMK AO2
14926KSTC STC20000628182509906/28/00 18:25:31  5-MIN KSTC 290025Z AUTO 29009KT 10SM CLR 19/09 A2994 1010 54 1700 290/09 RMK AO2
14926KSTC STC20000628183009906/28/00 18:30:31  5-MIN KSTC 290030Z AUTO 30009KT 10SM CLR 19/09 A2994 1010 52 1700 290/09 RMK AO2
14926KSTC STC20000628183509906/28/00 18:35:31  5-MIN KSTC 290035Z AUTO 30009KT 10SM CLR 19/09 A2995 1000 52 1700 300/09 RMK AO2
14926KSTC STC20000628184009906/28/00 18:40:31  5-MIN KSTC 290040Z AUTO 30008KT 10SM CLR 18/10 A2995 1000 58 1700 300/08 RMK AO2
14926KSTC STC20000628184509906/28/00 18:45:31  5-MIN KSTC 290045Z AUTO 30007KT 10SM CLR 18/10 A2995 1000 58 1700 300/07 RMK AO2
14926KSTC STC20000628185011606/28/00 18:50:31  5-MIN KSTC 290050Z AUTO 30007KT 10SM CLR 18/10 A2995 1000 58 1700 290/07 RMK AO2 SLP148 T01830100
14926KSTC STC20000628185510206/28/00 18:55:31  5-MIN KSTC 290055Z AUTO 29006KT 10SM FEW120 18/10 A2995 1000 58 1700 290/06 RMK AO2
14926KSTC STC20000628190010206/28/00 19:00:31  5-MIN KSTC 290100Z AUTO 28007KT 10SM SCT110 18/10 A2995 1000 58 1700 280/07 RMK AO2
14926KSTC STC20000628190510106/28/00 19:05:31  5-MIN KSTC 290105Z AUTO 29009KT 10SM BKN110 19/10 A2996 990 56 1700 280/09 RMK AO2
14926KSTC STC20000628191012106/28/00 19:10:31  5-MIN KSTC 290110Z AUTO 29013G16KT 10SM FEW047 SCT060 BKN110 19/10 A2996 990 56 1700 280/13G16 RMK AO2
14926KSTC STC20000628191512806/28/00 19:15:31  5-MIN KSTC 290115Z AUTO 33017G24KT 10SM SCT049 SCT060 BKN110 18/09 A2997 980 56 1600 320/17G24 RMK AO2 PRESRR
14926KSTC STC20000628192013706/28/00 19:20:31  5-MIN KSTC 290120Z AUTO 31012G24KT 10SM -RA FEW044 BKN090 OVC110 16/09 A2997 980 64 1400 310/12G24 RMK AO2 RAB18 P0000
14926KSTC STC20000628192513106/28/00 19:25:31  5-MIN KSTC 290125Z AUTO 30009KT 10SM -RA FEW048 BKN090 OVC110 16/09 A2997 980 64 1400 300/09 RMK AO2 RAB18 P0000
14926KSTC STC20000628193013006/28/00 19:30:31  5-MIN KSTC 290130Z AUTO 29008KT 10SM FEW050 SCT060 BKN110 17/09 A2997 980 60 1400 290/08 RMK AO2 RAB18E27 P0000
14926KSTC STC20000628193513006/28/00 19:35:31  5-MIN KSTC 290135Z AUTO 29008KT 10SM FEW050 SCT090 BKN110 16/08 A2997 990 59 1400 290/08 RMK AO2 RAB18E27 P0000
14926KSTC STC20000628194012306/28/00 19:40:31  5-MIN KSTC 290140Z AUTO 29007KT 10SM FEW050 BKN110 16/08 A2996 990 57 1400 290/07 RMK AO2 RAB18E27 P0000
14926KSTC STC20000628194512306/28/00 19:45:31  5-MIN KSTC 290145Z AUTO 29007KT 10SM FEW060 BKN110 16/08 A2996 990 59 1400 290/07 RMK AO2 RAB18E27 P0000
14926KSTC STC20000628195013306/28/00 19:50:31  5-MIN KSTC 290150Z AUTO 30006KT 10SM SCT110 16/08 A2996 990 59 1400 300/06 RMK AO2 RAB18E27 SLP153 P0000 T01610083
14926KSTC STC20000628195510106/28/00 19:55:31  5-MIN KSTC 290155Z AUTO 31006KT 10SM SCT110 16/08 A2996 990 62 1300 310/06 RMK AO2
14926KSTC STC20000628200010806/28/00 20:00:31  5-MIN KSTC 290200Z AUTO 32007KT 10SM SCT090 BKN110 15/08 A2997 980 64 1300 310/07 RMK AO2
14926KSTC STC20000628200510806/28/00 20:05:31  5-MIN KSTC 290205Z AUTO 32006KT 10SM SCT090 BKN110 16/08 A2997 980 62 1300 320/06 RMK AO2
14926KSTC STC20000628201010106/28/00 20:10:31  5-MIN KSTC 290210Z AUTO 32006KT 10SM SCT090 16/08 A2997 980 62 1300 320/06 RMK AO2
14926KSTC STC20000628201510106/28/00 20:15:31  5-MIN KSTC 290215Z AUTO 34006KT 10SM SCT090 16/08 A2997 980 62 1300 340/06 RMK AO2
14926KSTC STC20000628202010106/28/00 20:20:31  5-MIN KSTC 290220Z AUTO 34006KT 10SM BKN090 16/08 A2997 980 62 1300 340/06 RMK AO2
14926KSTC STC20000628202510106/28/00 20:25:31  5-MIN KSTC 290225Z AUTO 32005KT 10SM BKN090 16/09 A2997 980 64 1300 320/05 RMK AO2
14926KSTC STC20000628203010106/28/00 20:30:31  5-MIN KSTC 290230Z AUTO 34005KT 10SM SCT090 15/09 A2997 980 66 1200 330/05 RMK AO2
14926KSTC STC20000628203510106/28/00 20:35:31  5-MIN KSTC 290235Z AUTO 36005KT 10SM SCT090 14/09 A2997 980 69 1200 360/05 RMK AO2
14926KSTC STC20000628204010106/28/00 20:40:31  5-MIN KSTC 290240Z AUTO 35004KT 10SM FEW090 14/09 A2998 970 69 1200 350/04 RMK AO2
14926KSTC STC20000628204510106/28/00 20:45:31  5-MIN KSTC 290245Z AUTO 34004KT 10SM FEW090 14/09 A2998 970 71 1100 340/04 RMK AO2
14926KSTC STC20000628205012706/28/00 20:50:31  5-MIN KSTC 290250Z AUTO 33005KT 10SM CLR 14/09 A2998 970 74 1100 320/05 RMK AO2 SLP158 60000 T01390094 58002
14926KSTC STC20000628205509806/28/00 20:55:31  5-MIN KSTC 290255Z AUTO 34004KT 10SM CLR 14/09 A2998 980 74 1100 330/04 RMK AO2
14926KSTC STC20000628210009806/28/00 21:00:31  5-MIN KSTC 290300Z AUTO 34003KT 10SM CLR 14/09 A2997 980 74 1100 340/03 RMK AO2
14926KSTC STC20000628210509806/28/00 21:05:31  5-MIN KSTC 290305Z AUTO 00000KT 10SM CLR 13/09 A2997 980 77 1000 000/00 RMK AO2
14926KSTC STC20000628211009806/28/00 21:10:31  5-MIN KSTC 290310Z AUTO 00000KT 10SM CLR 13/10 A2997 980 80 1000 000/00 RMK AO2
14926KSTC STC20000628211509806/28/00 21:15:31  5-MIN KSTC 290315Z AUTO 32003KT 10SM CLR 13/10 A2997 980 80 1000 320/03 RMK AO2
14926KSTC STC20000628212009706/28/00 21:20:31  5-MIN KSTC 290320Z AUTO 00000KT 10SM CLR 12/09 A2997 980 83 900 000/00 RMK AO2
14926KSTC STC20000628212509806/28/00 21:25:31  5-MIN KSTC 290325Z AUTO 00000KT 10SM CLR 13/09 A2997 980 77 1000 000/00 RMK AO2
14926KSTC STC20000628213009806/28/00 21:30:31  5-MIN KSTC 290330Z AUTO 00000KT 10SM CLR 13/10 A2997 980 83 1000 000/00 RMK AO2
14926KSTC STC20000628213509706/28/00 21:35:31  5-MIN KSTC 290335Z AUTO 00000KT 10SM CLR 12/10 A2997 980 86 900 000/00 RMK AO2
14926KSTC STC20000628214009706/28/00 21:40:31  5-MIN KSTC 290340Z AUTO 00000KT 10SM CLR 12/10 A2998 980 86 900 000/00 RMK AO2
14926KSTC STC20000628214509706/28/00 21:45:31  5-MIN KSTC 290345Z AUTO 30003KT 10SM CLR 12/10 A2998 970 86 900 300/03 RMK AO2
14926KSTC STC20000628215011406/28/00 21:50:31  5-MIN KSTC 290350Z AUTO 00000KT 10SM CLR 12/09 A2998 970 83 900 000/00 RMK AO2 SLP158 T01220094
14926KSTC STC20000628215509706/28/00 21:55:31  5-MIN KSTC 290355Z AUTO 25003KT 10SM CLR 12/09 A2998 970 86 800 250/03 RMK AO2
14926KSTC STC20000628220009706/28/00 22:00:31  5-MIN KSTC 290400Z AUTO 27003KT 10SM CLR 11/09 A2998 970 89 800 270/03 RMK AO2
14926KSTC STC20000628220509706/28/00 22:05:31  5-MIN KSTC 290405Z AUTO 00000KT 10SM CLR 11/09 A2998 970 89 800 000/00 RMK AO2
14926KSTC STC20000628221009706/28/00 22:10:31  5-MIN KSTC 290410Z AUTO 00000KT 10SM CLR 11/09 A2998 970 89 800 000/00 RMK AO2
14926KSTC STC20000628221509706/28/00 22:15:31  5-MIN KSTC 290415Z AUTO 28003KT 10SM CLR 11/09 A2998 970 89 800 270/03 RMK AO2
14926KSTC STC20000628222009706/28/00 22:20:31  5-MIN KSTC 290420Z AUTO 00000KT 10SM CLR 11/09 A2998 970 89 800 000/00 RMK AO2
14926KSTC STC20000628222509706/28/00 22:25:31  5-MIN KSTC 290425Z AUTO 00000KT 10SM CLR 11/09 A2998 970 93 700 000/00 RMK AO2
14926KSTC STC20000628223009706/28/00 22:30:31  5-MIN KSTC 290430Z AUTO 00000KT 10SM CLR 11/09 A2998 970 93 700 000/00 RMK AO2
14926KSTC STC20000628223509706/28/00 22:35:31  5-MIN KSTC 290435Z AUTO 00000KT 10SM CLR 11/09 A2998 970 86 800 000/00 RMK AO2
14926KSTC STC20000628224009706/28/00 22:40:31  5-MIN KSTC 290440Z AUTO 27003KT 10SM CLR 11/09 A2998 970 86 800 270/03 RMK AO2
14926KSTC STC20000628224509706/28/00 22:45:31  5-MIN KSTC 290445Z AUTO 00000KT 10SM CLR 11/08 A2998 970 86 700 000/00 RMK AO2
14926KSTC STC20000628225011406/28/00 22:50:31  5-MIN KSTC 290450Z AUTO 30003KT 10SM CLR 11/09 A2998 970 89 700 300/03 RMK AO2 SLP159 T01060089
14926KSTC STC20000628225509706/28/00 22:55:31  5-MIN KSTC 290455Z AUTO 30003KT 10SM CLR 10/08 A2998 970 89 600 290/03 RMK AO2
14926KSTC STC20000628230009706/28/00 23:00:31  5-MIN KSTC 290500Z AUTO 29004KT 10SM CLR 11/08 A2998 970 86 700 280/04 RMK AO2
14926KSTC STC20000628230509706/28/00 23:05:31  5-MIN KSTC 290505Z AUTO 30004KT 10SM CLR 11/08 A2998 970 86 700 290/04 RMK AO2
14926KSTC STC20000628231009706/28/00 23:10:31  5-MIN KSTC 290510Z AUTO 30006KT 10SM CLR 10/08 A2998 970 89 600 290/06 RMK AO2
14926KSTC STC20000628231509706/28/00 23:15:31  5-MIN KSTC 290515Z AUTO 29006KT 10SM CLR 11/08 A2998 970 86 700 290/06 RMK AO2
14926KSTC STC20000628232009706/28/00 23:20:31  5-MIN KSTC 290520Z AUTO 28006KT 10SM CLR 11/09 A2998 970 89 700 280/06 RMK AO2
14926KSTC STC20000628232509706/28/00 23:25:31  5-MIN KSTC 290525Z AUTO 28007KT 10SM CLR 11/09 A2998 970 86 800 280/07 RMK AO2
14926KSTC STC20000628233009706/28/00 23:30:31  5-MIN KSTC 290530Z AUTO 29005KT 10SM CLR 11/09 A2998 970 86 800 290/05 RMK AO2
14926KSTC STC20000628233509706/28/00 23:35:31  5-MIN KSTC 290535Z AUTO 29005KT 10SM CLR 11/08 A2998 970 86 700 290/05 RMK AO2
14926KSTC STC20000628234009706/28/00 23:40:31  5-MIN KSTC 290540Z AUTO 29005KT 10SM CLR 11/08 A2998 970 86 700 290/05 RMK AO2
14926KSTC STC20000628234509706/28/00 23:45:31  5-MIN KSTC 290545Z AUTO 29005KT 10SM CLR 11/08 A2998 970 86 700 290/05 RMK AO2
14926KSTC STC20000628235014806/28/00 23:50:31  5-MIN KSTC 290550Z AUTO 30005KT 10SM CLR 11/08 A2998 970 86 700 300/05 RMK AO2 SLP160 60000 T01060083 10206 20100 402390089 53010
14926KSTC STC20000628235509706/28/00 23:55:31  5-MIN KSTC 290555Z AUTO 30004KT 10SM CLR 11/08 A2998 970 86 700 300/04 RMK AO2
14926KSTC STC20000629000009706/29/00 00:00:31  5-MIN KSTC 290600Z AUTO 30004KT 10SM CLR 11/08 A2998 970 86 700 290/04 RMK AO2
14926KSTC STC20000629000509706/29/00 00:05:31  5-MIN KSTC 290605Z AUTO 29005KT 10SM CLR 10/08 A2998 970 89 600 290/05 RMK AO2
14926KSTC STC20000629001009706/29/00 00:10:31  5-MIN KSTC 290610Z AUTO 30006KT 10SM CLR 10/08 A2998 970 89 600 300/06 RMK AO2
14926KSTC STC20000629001509706/29/00 00:15:31  5-MIN KSTC 290615Z AUTO 31005KT 10SM CLR 10/08 A2998 970 89 600 310/05 RMK AO2
14926KSTC STC20000629002009706/29/00 00:20:31  5-MIN KSTC 290620Z AUTO 31005KT 10SM CLR 11/08 A2999 970 86 700 310/05 RMK AO2
14926KSTC STC20000629002509706/29/00 00:25:31  5-MIN KSTC 290625Z AUTO 30006KT 10SM CLR 11/08 A2999 960 86 700 290/06 RMK AO2
14926KSTC STC20000629003009706/29/00 00:30:31  5-MIN KSTC 290630Z AUTO 30007KT 10SM CLR 11/09 A2999 960 89 700 290/07 RMK AO2
14926KSTC STC20000629003509706/29/00 00:35:31  5-MIN KSTC 290635Z AUTO 30006KT 10SM CLR 11/09 A2999 960 89 700 300/06 RMK AO2
14926KSTC STC20000629004009706/29/00 00:40:31  5-MIN KSTC 290640Z AUTO 31006KT 10SM CLR 10/08 A2999 970 89 600 310/06 RMK AO2
14926KSTC STC20000629004509706/29/00 00:45:31  5-MIN KSTC 290645Z AUTO 32005KT 10SM CLR 10/08 A2999 970 89 600 310/05 RMK AO2
14926KSTC STC20000629005011406/29/00 00:50:31  5-MIN KSTC 290650Z AUTO 32004KT 10SM CLR 11/08 A2999 970 86 700 310/04 RMK AO2 SLP161 T01060083
14926KSTC STC20000629005509706/29/00 00:55:31  5-MIN KSTC 290655Z AUTO 31004KT 10SM CLR 11/08 A2999 960 86 700 310/04 RMK AO2
14926KSTC STC20000629010009706/29/00 01:00:31  5-MIN KSTC 290700Z AUTO 30004KT 10SM CLR 10/08 A2999 960 89 600 300/04 RMK AO2
14926KSTC STC20000629010509706/29/00 01:05:31  5-MIN KSTC 290705Z AUTO 29004KT 10SM CLR 10/08 A2999 960 89 600 290/04 RMK AO2
14926KSTC STC20000629011009706/29/00 01:10:31  5-MIN KSTC 290710Z AUTO 31004KT 10SM CLR 10/08 A2999 960 89 600 300/04 RMK AO2
14926KSTC STC20000629011509706/29/00 01:15:31  5-MIN KSTC 290715Z AUTO 34003KT 10SM CLR 10/08 A2999 960 89 600 330/03 RMK AO2
14926KSTC STC20000629012009706/29/00 01:20:31  5-MIN KSTC 290720Z AUTO 33003KT 10SM CLR 10/08 A2999 960 89 600 330/03 RMK AO2
14926KSTC STC20000629012509706/29/00 01:25:31  5-MIN KSTC 290725Z AUTO 34003KT 10SM CLR 10/08 A2999 960 89 600 340/03 RMK AO2
14926KSTC STC20000629013009706/29/00 01:30:31  5-MIN KSTC 290730Z AUTO 00000KT 10SM CLR 09/08 A2999 960 96 500 000/00 RMK AO2
14926KSTC STC20000629013509706/29/00 01:35:31  5-MIN KSTC 290735Z AUTO 35003KT 10SM CLR 09/08 A2999 960 93 600 350/03 RMK AO2
14926KSTC STC20000629014009706/29/00 01:40:31  5-MIN KSTC 290740Z AUTO 33003KT 10SM CLR 10/08 A2999 960 89 600 330/03 RMK AO2
14926KSTC STC20000629014509706/29/00 01:45:31  5-MIN KSTC 290745Z AUTO 34003KT 10SM CLR 10/08 A2999 960 89 600 340/03 RMK AO2
14926KSTC STC20000629015011406/29/00 01:50:31  5-MIN KSTC 290750Z AUTO 33003KT 10SM CLR 09/08 A2999 960 93 600 330/03 RMK AO2 SLP162 T00940083
14926KSTC STC20000629015509706/29/00 01:55:31  5-MIN KSTC 290755Z AUTO 33003KT 10SM CLR 10/08 A2999 960 89 600 320/03 RMK AO2
14926KSTC STC20000629020009706/29/00 02:00:31  5-MIN KSTC 290800Z AUTO 00000KT 10SM CLR 09/08 A2999 960 93 600 000/00 RMK AO2
14926KSTC STC20000629020509706/29/00 02:05:31  5-MIN KSTC 290805Z AUTO 00000KT 10SM CLR 09/08 A2999 960 96 500 000/00 RMK AO2
14926KSTC STC20000629021009706/29/00 02:10:31  5-MIN KSTC 290810Z AUTO 00000KT 10SM CLR 09/08 A2999 960 93 500 000/00 RMK AO2
14926KSTC STC20000629021509706/29/00 02:15:31  5-MIN KSTC 290815Z AUTO 00000KT 10SM CLR 09/08 A2999 960 93 500 000/00 RMK AO2
14926KSTC STC20000629022009706/29/00 02:20:31  5-MIN KSTC 290820Z AUTO 31003KT 10SM CLR 09/08 A2999 960 93 600 310/03 RMK AO2
14926KSTC STC20000629022509706/29/00 02:25:31  5-MIN KSTC 290825Z AUTO 31003KT 10SM CLR 09/08 A2999 960 93 500 310/03 RMK AO2
14926KSTC STC20000629023009706/29/00 02:30:31  5-MIN KSTC 290830Z AUTO 30003KT 10SM CLR 09/08 A2999 960 93 600 300/03 RMK AO2
14926KSTC STC20000629023509706/29/00 02:35:31  5-MIN KSTC 290835Z AUTO 00000KT 10SM CLR 09/08 A2999 960 93 600 000/00 RMK AO2
14926KSTC STC20000629024009706/29/00 02:40:31  5-MIN KSTC 290840Z AUTO 00000KT 10SM CLR 09/08 A2999 960 93 500 000/00 RMK AO2
14926KSTC STC20000629024509706/29/00 02:45:31  5-MIN KSTC 290845Z AUTO 00000KT 10SM CLR 09/08 A2999 960 93 500 000/00 RMK AO2
14926KSTC STC20000629025012006/29/00 02:50:31  5-MIN KSTC 290850Z AUTO 00000KT 10SM CLR 09/08 A2999 960 96 500 000/00 RMK AO2 SLP165 T00890083 53002
14926KSTC STC20000629025509706/29/00 02:55:31  5-MIN KSTC 290855Z AUTO 00000KT 10SM CLR 09/08 A2999 960 96 500 000/00 RMK AO2
14926KSTC STC20000629030009706/29/00 03:00:31  5-MIN KSTC 290900Z AUTO 26003KT 10SM CLR 09/08 A2999 960 96 500 260/03 RMK AO2
14926KSTC STC20000629030509706/29/00 03:05:31  5-MIN KSTC 290905Z AUTO 27003KT 10SM CLR 09/08 A3000 960 93 500 270/03 RMK AO2
14926KSTC STC20000629031009706/29/00 03:10:31  5-MIN KSTC 290910Z AUTO 29003KT 10SM CLR 08/07 A3000 960 93 400 290/03 RMK AO2
14926KSTC STC20000629031509706/29/00 03:15:31  5-MIN KSTC 290915Z AUTO 00000KT 10SM CLR 08/07 A3000 960 93 400 000/00 RMK AO2
14926KSTC STC20000629032009706/29/00 03:20:31  5-MIN KSTC 290920Z AUTO 00000KT 10SM CLR 08/07 A2999 960 96 400 000/00 RMK AO2
14926KSTC STC20000629032509706/29/00 03:25:31  5-MIN KSTC 290925Z AUTO 36003KT 10SM CLR 08/07 A2999 960 96 400 360/03 RMK AO2
14926KSTC STC20000629033009706/29/00 03:30:31  5-MIN KSTC 290930Z AUTO 34003KT 10SM CLR 07/07 A3000 960 96 300 340/03 RMK AO2
14926KSTC STC20000629033509706/29/00 03:35:31  5-MIN KSTC 290935Z AUTO 33003KT 10SM CLR 08/07 A2999 960 93 400 330/03 RMK AO2
14926KSTC STC20000629034009706/29/00 03:40:31  5-MIN KSTC 290940Z AUTO 32003KT 10SM CLR 08/08 A3000 960 96 400 310/03 RMK AO2
14926KSTC STC20000629034510306/29/00 03:45:31  5-MIN KSTC 290945Z AUTO 31004KT 10SM CLR 08/08 A3000 950 96 400 300/04 RMK AO2 P0001
14926KSTC STC20000629035012006/29/00 03:50:31  5-MIN KSTC 290950Z AUTO 30004KT 10SM CLR 08/07 A3000 960 96 400 290/04 RMK AO2 SLP167 P0001 T00780072
14926KSTC STC20000629035509706/29/00 03:55:31  5-MIN KSTC 290955Z AUTO 00000KT 10SM CLR 08/07 A3000 950 96 400 000/00 RMK AO2
14926KSTC STC20000629040009706/29/00 04:00:31  5-MIN KSTC 291000Z AUTO 31004KT 10SM CLR 08/07 A3000 950 93 400 300/04 RMK AO2
14926KSTC STC20000629040509706/29/00 04:05:31  5-MIN KSTC 291005Z AUTO 33003KT 10SM CLR 08/07 A3000 960 96 400 330/03 RMK AO2
14926KSTC STC20000629041009706/29/00 04:10:31  5-MIN KSTC 291010Z AUTO 32003KT 10SM CLR 08/07 A2999 960 96 400 320/03 RMK AO2
14926KSTC STC20000629041509706/29/00 04:15:31  5-MIN KSTC 291015Z AUTO 00000KT 10SM CLR 08/07 A3000 960 96 400 000/00 RMK AO2
14926KSTC STC20000629042009706/29/00 04:20:31  5-MIN KSTC 291020Z AUTO 27004KT 10SM CLR 08/07 A3000 960 93 400 270/04 RMK AO2
14926KSTC STC20000629042509706/29/00 04:25:31  5-MIN KSTC 291025Z AUTO 00000KT 10SM CLR 08/07 A3000 960 93 400 000/00 RMK AO2
14926KSTC STC20000629043009706/29/00 04:30:31  5-MIN KSTC 291030Z AUTO 00000KT 10SM CLR 08/07 A3000 950 93 400 000/00 RMK AO2
14926KSTC STC20000629043509706/29/00 04:35:31  5-MIN KSTC 291035Z AUTO 00000KT 10SM CLR 08/07 A3000 950 93 400 000/00 RMK AO2
14926KSTC STC20000629044009706/29/00 04:40:31  5-MIN KSTC 291040Z AUTO 29003KT 10SM CLR 08/08 A3000 950 96 400 280/03 RMK AO2
14926KSTC STC20000629044509706/29/00 04:45:31  5-MIN KSTC 291045Z AUTO 00000KT 10SM CLR 08/07 A3000 950 96 300 000/00 RMK AO2
14926KSTC STC20000629045011406/29/00 04:50:31  5-MIN KSTC 291050Z AUTO 00000KT 10SM CLR 08/07 A3000 950 96 300 000/00 RMK AO2 SLP170 T00780072
14926KSTC STC20000629045509706/29/00 04:55:31  5-MIN KSTC 291055Z AUTO 00000KT 10SM CLR 08/08 A3000 950 96 400 000/00 RMK AO2
14926KSTC STC20000629050009706/29/00 05:00:31  5-MIN KSTC 291100Z AUTO 00000KT 10SM CLR 08/08 A3000 950 96 400 000/00 RMK AO2
14926KSTC STC20000629050509706/29/00 05:05:31  5-MIN KSTC 291105Z AUTO 00000KT 10SM CLR 08/08 A3000 950 96 400 000/00 RMK AO2
14926KSTC STC20000629051009706/29/00 05:10:31  5-MIN KSTC 291110Z AUTO 00000KT 10SM CLR 08/08 A3001 950 96 400 000/00 RMK AO2
14926KSTC STC20000629051509706/29/00 05:15:31  5-MIN KSTC 291115Z AUTO 00000KT 10SM CLR 09/08 A3001 950 96 500 000/00 RMK AO2
14926KSTC STC20000629052009706/29/00 05:20:31  5-MIN KSTC 291120Z AUTO 00000KT 10SM CLR 09/08 A3001 950 96 500 000/00 RMK AO2
14926KSTC STC20000629052509706/29/00 05:25:31  5-MIN KSTC 291125Z AUTO 00000KT 10SM CLR 09/09 A3001 950 96 500 000/00 RMK AO2
14926KSTC STC20000629053009706/29/00 05:30:31  5-MIN KSTC 291130Z AUTO 00000KT 10SM CLR 09/09 A3001 950 96 500 000/00 RMK AO2
14926KSTC STC20000629053509706/29/00 05:35:31  5-MIN KSTC 291135Z AUTO 00000KT 10SM CLR 10/09 A3001 940 93 600 000/00 RMK AO2
14926KSTC STC20000629054009706/29/00 05:40:31  5-MIN KSTC 291140Z AUTO 00000KT 10SM CLR 10/09 A3001 940 93 600 000/00 RMK AO2
14926KSTC STC20000629054509706/29/00 05:45:31  5-MIN KSTC 291145Z AUTO 00000KT 10SM CLR 11/09 A3001 940 93 700 000/00 RMK AO2
14926KSTC STC20000629055014406/29/00 05:50:31  5-MIN KSTC 291150Z AUTO 00000KT 10SM CLR 11/09 A3001 940 93 700 000/00 RMK AO2 SLP171 60001 70007 T01060094 10106 20072 53003
14926KSTC STC20000629055509706/29/00 05:55:31  5-MIN KSTC 291155Z AUTO 00000KT 10SM CLR 11/10 A3001 940 93 700 000/00 RMK AO2
14926KSTC STC20000629060009706/29/00 06:00:31  5-MIN KSTC 291200Z AUTO VRB03KT 10SM CLR 12/10 A3001 940 89 800 VRB/03 RMK AO2
14926KSTC STC20000629060509706/29/00 06:05:31  5-MIN KSTC 291205Z AUTO 31004KT 10SM CLR 12/11 A3001 940 89 900 310/04 RMK AO2
14926KSTC STC20000629061009706/29/00 06:10:31  5-MIN KSTC 291210Z AUTO 31004KT 10SM CLR 12/11 A3001 940 89 900 310/04 RMK AO2
14926KSTC STC20000629061509706/29/00 06:15:31  5-MIN KSTC 291215Z AUTO 00000KT 10SM CLR 13/11 A3001 940 86 900 000/00 RMK AO2
14926KSTC STC20000629062009706/29/00 06:20:31  5-MIN KSTC 291220Z AUTO 31003KT 10SM CLR 13/11 A3001 940 86 900 310/03 RMK AO2
14926KSTC STC20000629062509706/29/00 06:25:31  5-MIN KSTC 291225Z AUTO 31005KT 10SM CLR 13/11 A3001 940 86 900 310/05 RMK AO2
14926KSTC STC20000629063009706/29/00 06:30:31  5-MIN KSTC 291230Z AUTO VRB03KT 10SM CLR 13/11 A3001 940 86 900 VRB/03 RMK AO2
14926KSTC STC20000629063509806/29/00 06:35:31  5-MIN KSTC 291235Z AUTO 33003KT 10SM CLR 13/11 A3001 940 83 1000 320/03 RMK AO2
14926KSTC STC20000629064009806/29/00 06:40:31  5-MIN KSTC 291240Z AUTO VRB03KT 10SM CLR 13/11 A3002 940 86 1000 VRB/03 RMK AO2
14926KSTC STC20000629064509806/29/00 06:45:31  5-MIN KSTC 291245Z AUTO 32004KT 10SM CLR 14/12 A3002 940 86 1100 310/04 RMK AO2
14926KSTC STC20000629065011506/29/00 06:50:31  5-MIN KSTC 291250Z AUTO VRB04KT 10SM CLR 14/12 A3002 940 86 1100 VRB/04 RMK AO2 SLP173 T01390117
14926KSTC STC20000629065509806/29/00 06:55:31  5-MIN KSTC 291255Z AUTO 33005KT 10SM CLR 14/11 A3002 940 83 1100 330/05 RMK AO2
14926KSTC STC20000629070009806/29/00 07:00:31  5-MIN KSTC 291300Z AUTO 32004KT 10SM CLR 14/11 A3002 940 80 1100 320/04 RMK AO2
14926KSTC STC20000629070509806/29/00 07:05:31  5-MIN KSTC 291305Z AUTO 34005KT 10SM CLR 15/12 A3002 940 80 1200 330/05 RMK AO2
14926KSTC STC20000629071009806/29/00 07:10:31  5-MIN KSTC 291310Z AUTO 33004KT 10SM CLR 15/12 A3001 940 80 1200 330/04 RMK AO2
14926KSTC STC20000629071509806/29/00 07:15:31  5-MIN KSTC 291315Z AUTO 32005KT 10SM CLR 15/11 A3001 940 77 1200 310/05 RMK AO2
14926KSTC STC20000629072009806/29/00 07:20:31  5-MIN KSTC 291320Z AUTO 33005KT 10SM CLR 16/11 A3001 940 74 1300 330/05 RMK AO2
14926KSTC STC20000629072509806/29/00 07:25:31  5-MIN KSTC 291325Z AUTO 34005KT 10SM CLR 16/11 A3001 940 74 1300 340/05 RMK AO2
14926KSTC STC20000629073009806/29/00 07:30:31  5-MIN KSTC 291330Z AUTO VRB04KT 10SM CLR 16/11 A3001 940 74 1300 VRB/04 RMK AO2
14926KSTC STC20000629073509806/29/00 07:35:31  5-MIN KSTC 291335Z AUTO 30005KT 10SM CLR 16/12 A3001 940 77 1300 300/05 RMK AO2
14926KSTC STC20000629074009806/29/00 07:40:31  5-MIN KSTC 291340Z AUTO 31005KT 10SM CLR 16/12 A3001 940 75 1300 310/05 RMK AO2
14926KSTC STC20000629074509806/29/00 07:45:31  5-MIN KSTC 291345Z AUTO 32004KT 10SM CLR 16/12 A3001 940 75 1300 310/04 RMK AO2
14926KSTC STC20000629075011506/29/00 07:50:31  5-MIN KSTC 291350Z AUTO 33004KT 10SM CLR 17/12 A3001 940 72 1400 330/04 RMK AO2 SLP171 T01670117
14926KSTC STC20000629075509806/29/00 07:55:31  5-MIN KSTC 291355Z AUTO 31005KT 10SM CLR 17/12 A3001 940 72 1400 310/05 RMK AO2
14926KSTC STC20000629080009806/29/00 08:00:31  5-MIN KSTC 291400Z AUTO VRB04KT 10SM CLR 17/12 A3001 940 72 1400 VRB/04 RMK AO2
14926KSTC STC20000629080509806/29/00 08:05:31  5-MIN KSTC 291405Z AUTO 30004KT 10SM CLR 17/12 A3001 940 69 1500 300/04 RMK AO2
14926KSTC STC20000629081009806/29/00 08:10:31  5-MIN KSTC 291410Z AUTO 33004KT 10SM CLR 17/12 A3001 940 69 1500 320/04 RMK AO2
14926KSTC STC20000629081509806/29/00 08:15:31  5-MIN KSTC 291415Z AUTO VRB03KT 10SM CLR 18/12 A3001 940 67 1500 VRB/03 RMK AO2
14926KSTC STC20000629082009806/29/00 08:20:31  5-MIN KSTC 291420Z AUTO 27005KT 10SM CLR 18/12 A3001 940 67 1500 270/05 RMK AO2
14926KSTC STC20000629082509806/29/00 08:25:31  5-MIN KSTC 291425Z AUTO 27004KT 10SM CLR 18/12 A3001 940 67 1500 270/04 RMK AO2
14926KSTC STC20000629083009806/29/00 08:30:31  5-MIN KSTC 291430Z AUTO 31005KT 10SM CLR 18/12 A3001 940 65 1600 310/05 RMK AO2
14926KSTC STC20000629083509806/29/00 08:35:31  5-MIN KSTC 291435Z AUTO 30005KT 10SM CLR 18/11 A3001 940 62 1600 300/05 RMK AO2
14926KSTC STC20000629084009806/29/00 08:40:31  5-MIN KSTC 291440Z AUTO 28005KT 10SM CLR 19/11 A3001 940 60 1700 280/05 RMK AO2
14926KSTC STC20000629084509806/29/00 08:45:31  5-MIN KSTC 291445Z AUTO 29005KT 10SM CLR 19/11 A3001 940 60 1700 280/05 RMK AO2
14926KSTC STC20000629085012106/29/00 08:50:31  5-MIN KSTC 291450Z AUTO 31005KT 10SM CLR 19/11 A3001 950 58 1700 310/05 RMK AO2 SLP169 T01890106 53006
14926KSTC STC20000629085509806/29/00 08:55:31  5-MIN KSTC 291455Z AUTO 31004KT 10SM CLR 19/11 A3001 950 58 1700 310/04 RMK AO2
14926KSTC STC20000629090009806/29/00 09:00:31  5-MIN KSTC 291500Z AUTO VRB05KT 10SM CLR 19/11 A3000 950 58 1700 VRB/05 RMK AO2
14926KSTC STC20000629090509806/29/00 09:05:31  5-MIN KSTC 291505Z AUTO 27005KT 10SM CLR 19/11 A3000 950 56 1700 260/05 RMK AO2
14926KSTC STC20000629091009806/29/00 09:10:31  5-MIN KSTC 291510Z AUTO 27006KT 10SM CLR 19/10 A3001 950 54 1700 270/06 RMK AO2
14926KSTC STC20000629091509806/29/00 09:15:31  5-MIN KSTC 291515Z AUTO 25005KT 10SM CLR 20/11 A3001 950 54 1800 240/05 RMK AO2
14926KSTC STC20000629092009806/29/00 09:20:31  5-MIN KSTC 291520Z AUTO 27005KT 10SM CLR 20/11 A3001 950 54 1800 270/05 RMK AO2
14926KSTC STC20000629092509806/29/00 09:25:31  5-MIN KSTC 291525Z AUTO 27005KT 10SM CLR 21/10 A3001 950 50 1900 270/05 RMK AO2
14926KSTC STC20000629093009806/29/00 09:30:31  5-MIN KSTC 291530Z AUTO VRB04KT 10SM CLR 21/11 A3001 950 52 1900 VRB/04 RMK AO2
14926KSTC STC20000629093509806/29/00 09:35:31  5-MIN KSTC 291535Z AUTO 26004KT 10SM CLR 20/09 A3001 950 50 1800 260/04 RMK AO2
14926KSTC STC20000629094009806/29/00 09:40:31  5-MIN KSTC 291540Z AUTO 32006KT 10SM CLR 21/10 A3001 950 50 1900 310/06 RMK AO2
14926KSTC STC20000629094509806/29/00 09:45:31  5-MIN KSTC 291545Z AUTO VRB05KT 10SM CLR 21/10 A3001 950 50 1900 VRB/05 RMK AO2
14926KSTC STC20000629095011506/29/00 09:50:31  5-MIN KSTC 291550Z AUTO 31006KT 10SM CLR 21/10 A3001 950 48 1900 310/06 RMK AO2 SLP168 T02110100
14926KSTC STC20000629095509806/29/00 09:55:31  5-MIN KSTC 291555Z AUTO VRB04KT 10SM CLR 21/10 A3001 950 50 1900 VRB/04 RMK AO2
14926KSTC STC20000629100009806/29/00 10:00:31  5-MIN KSTC 291600Z AUTO VRB05KT 10SM CLR 21/11 A3001 950 50 1900 VRB/05 RMK AO2
14926KSTC STC20000629100509806/29/00 10:05:31  5-MIN KSTC 291605Z AUTO VRB03KT 10SM CLR 21/10 A3001 950 48 1900 VRB/03 RMK AO2
14926KSTC STC20000629101009806/29/00 10:10:31  5-MIN KSTC 291610Z AUTO 28008KT 10SM CLR 21/09 A3001 950 47 1900 280/08 RMK AO2
14926KSTC STC20000629101511406/29/00 10:15:31  5-MIN KSTC 291615Z AUTO 30007KT 280V350 10SM CLR 21/09 A3001 950 47 1900 300/07 280V350 RMK AO2
14926KSTC STC20000629102009806/29/00 10:20:31  5-MIN KSTC 291620Z AUTO 30008KT 10SM CLR 22/10 A3001 950 47 2000 300/08 RMK AO2
14926KSTC STC20000629102511406/29/00 10:25:31  5-MIN KSTC 291625Z AUTO 30007KT 260V320 10SM CLR 22/09 A3001 950 45 2000 290/07 260V320 RMK AO2
14926KSTC STC20000629103009806/29/00 10:30:31  5-MIN KSTC 291630Z AUTO 28007KT 10SM CLR 22/10 A3001 950 47 2000 280/07 RMK AO2
14926KSTC STC20000629103509806/29/00 10:35:31  5-MIN KSTC 291635Z AUTO 34005KT 10SM CLR 22/09 A3001 950 43 2000 340/05 RMK AO2
14926KSTC STC20000629104009806/29/00 10:40:31  5-MIN KSTC 291640Z AUTO 31006KT 10SM CLR 22/10 A3000 950 47 2000 300/06 RMK AO2
14926KSTC STC20000629104509806/29/00 10:45:31  5-MIN KSTC 291645Z AUTO 32008KT 10SM CLR 22/10 A3000 950 45 2000 320/08 RMK AO2
14926KSTC STC20000629105011506/29/00 10:50:31  5-MIN KSTC 291650Z AUTO VRB06KT 10SM CLR 22/09 A3000 950 43 2000 VRB/06 RMK AO2 SLP167 T02220094
14926KSTC STC20000629105511406/29/00 10:55:31  5-MIN KSTC 291655Z AUTO 29007KT 250V320 10SM CLR 23/10 A3000 950 44 2100 280/07 250V320 RMK AO2
14926KSTC STC20000629110009806/29/00 11:00:31  5-MIN KSTC 291700Z AUTO 32009KT 10SM CLR 23/10 A3000 950 44 2100 320/09 RMK AO2
14926KSTC STC20000629110509806/29/00 11:05:31  5-MIN KSTC 291705Z AUTO 29008KT 10SM CLR 22/09 A3000 950 43 2100 290/08 RMK AO2
14926KSTC STC20000629111009806/29/00 11:10:31  5-MIN KSTC 291710Z AUTO 30007KT 10SM CLR 23/10 A3000 960 44 2100 290/07 RMK AO2
14926KSTC STC20000629111509806/29/00 11:15:31  5-MIN KSTC 291715Z AUTO 30009KT 10SM CLR 23/10 A3000 960 44 2100 300/09 RMK AO2
14926KSTC STC20000629112009806/29/00 11:20:31  5-MIN KSTC 291720Z AUTO 33008KT 10SM CLR 23/09 A2999 960 42 2100 330/08 RMK AO2
14926KSTC STC20000629112509806/29/00 11:25:31  5-MIN KSTC 291725Z AUTO 33007KT 10SM CLR 23/10 A2999 960 44 2100 330/07 RMK AO2
14926KSTC STC20000629113009806/29/00 11:30:31  5-MIN KSTC 291730Z AUTO 29009KT 10SM CLR 23/10 A2999 960 42 2200 280/09 RMK AO2
14926KSTC STC20000629113509806/29/00 11:35:31  5-MIN KSTC 291735Z AUTO 30007KT 10SM CLR 23/09 A2999 960 42 2100 300/07 RMK AO2
14926KSTC STC20000629114011406/29/00 11:40:31  5-MIN KSTC 291740Z AUTO 27007KT 240V300 10SM CLR 23/09 A2999 960 41 2200 270/07 240V300 RMK AO2
14926KSTC STC20000629114509806/29/00 11:45:31  5-MIN KSTC 291745Z AUTO VRB06KT 10SM CLR 23/09 A2999 970 42 2100 VRB/06 RMK AO2
14926KSTC STC20000629115013306/29/00 11:50:31  5-MIN KSTC 291750Z AUTO 31010KT 10SM CLR 23/09 A2999 970 41 2200 310/10 RMK AO2 SLP161 T02330094 10233 20111 58002
14926KSTC STC20000629115510406/29/00 11:55:31  5-MIN KSTC 291755Z AUTO 32011G15KT 10SM CLR 24/09 A2999 970 39 2300 310/11G15 RMK AO2
14926KSTC STC20000629120010406/29/00 12:00:31  5-MIN KSTC 291800Z AUTO 30008G15KT 10SM CLR 24/09 A2998 970 39 2300 300/08G15 RMK AO2
14926KSTC STC20000629120509806/29/00 12:05:31  5-MIN KSTC 291805Z AUTO VRB06KT 10SM CLR 23/09 A2998 970 41 2200 VRB/06 RMK AO2
14926KSTC STC20000629121009806/29/00 12:10:31  5-MIN KSTC 291810Z AUTO 27008KT 10SM CLR 24/09 A2998 970 38 2300 270/08 RMK AO2
14926KSTC STC20000629121509806/29/00 12:15:31  5-MIN KSTC 291815Z AUTO 30009KT 10SM CLR 23/09 A2998 970 41 2200 290/09 RMK AO2
14926KSTC STC20000629122009806/29/00 12:20:31  5-MIN KSTC 291820Z AUTO 31006KT 10SM CLR 24/09 A2998 970 38 2300 310/06 RMK AO2
14926KSTC STC20000629122509806/29/00 12:25:31  5-MIN KSTC 291825Z AUTO 29008KT 10SM CLR 24/09 A2998 980 39 2300 290/08 RMK AO2
14926KSTC STC20000629123009806/29/00 12:30:31  5-MIN KSTC 291830Z AUTO 28007KT 10SM CLR 24/09 A2998 970 39 2300 270/07 RMK AO2
14926KSTC STC20000629123509806/29/00 12:35:31  5-MIN KSTC 291835Z AUTO 30008KT 10SM CLR 24/09 A2997 980 38 2300 300/08 RMK AO2
14926KSTC STC20000629124009806/29/00 12:40:31  5-MIN KSTC 291840Z AUTO 26008KT 10SM CLR 24/09 A2997 980 38 2300 260/08 RMK AO2
14926KSTC STC20000629124509806/29/00 12:45:31  5-MIN KSTC 291845Z AUTO 26009KT 10SM CLR 24/09 A2997 980 36 2300 260/09 RMK AO2
14926KSTC STC20000629125011506/29/00 12:50:31  5-MIN KSTC 291850Z AUTO 30008KT 10SM CLR 24/09 A2997 980 36 2300 300/08 RMK AO2 SLP156 T02440089
14926KSTC STC20000629125509806/29/00 12:55:31  5-MIN KSTC 291855Z AUTO 31009KT 10SM CLR 24/09 A2997 980 36 2300 310/09 RMK AO2
14926KSTC STC20000629130010406/29/00 13:00:31  5-MIN KSTC 291900Z AUTO 32009G15KT 10SM CLR 24/08 A2997 980 35 2300 310/09G15 RMK AO2
14926KSTC STC20000629130510406/29/00 13:05:31  5-MIN KSTC 291905Z AUTO 31008G15KT 10SM CLR 24/08 A2997 980 35 2300 310/08G15 RMK AO2
14926KSTC STC20000629131009806/29/00 13:10:31  5-MIN KSTC 291910Z AUTO VRB05KT 10SM CLR 24/08 A2997 980 35 2300 VRB/05 RMK AO2
14926KSTC STC20000629131511406/29/00 13:15:31  5-MIN KSTC 291915Z AUTO 31008KT 250V360 10SM CLR 24/08 A2997 980 35 2300 310/08 250V360 RMK AO2
14926KSTC STC20000629132009806/29/00 13:20:31  5-MIN KSTC 291920Z AUTO 28006KT 10SM CLR 25/08 A2997 980 34 2400 280/06 RMK AO2
14926KSTC STC20000629132509806/29/00 13:25:31  5-MIN KSTC 291925Z AUTO 34006KT 10SM CLR 24/08 A2997 980 35 2300 330/06 RMK AO2
14926KSTC STC20000629133011406/29/00 13:30:31  5-MIN KSTC 291930Z AUTO 30008KT 280V350 10SM CLR 24/08 A2996 990 35 2300 300/08 280V350 RMK AO2
14926KSTC STC20000629133511406/29/00 13:35:31  5-MIN KSTC 291935Z AUTO 27009KT 240V320 10SM CLR 25/08 A2996 990 34 2400 270/09 240V320 RMK AO2
14926KSTC STC20000629134009806/29/00 13:40:31  5-MIN KSTC 291940Z AUTO VRB06KT 10SM CLR 25/08 A2996 990 33 2400 VRB/06 RMK AO2
14926KSTC STC20000629134509806/29/00 13:45:31  5-MIN KSTC 291945Z AUTO VRB06KT 10SM CLR 25/08 A2996 990 33 2400 VRB/06 RMK AO2
14926KSTC STC20000629135011506/29/00 13:50:31  5-MIN KSTC 291950Z AUTO VRB05KT 10SM CLR 24/08 A2996 990 34 2300 VRB/05 RMK AO2 SLP152 T02440078
14926KSTC STC20000629135509806/29/00 13:55:31  5-MIN KSTC 291955Z AUTO 30006KT 10SM CLR 25/08 A2996 990 34 2400 300/06 RMK AO2
14926KSTC STC20000629140009806/29/00 14:00:31  5-MIN KSTC 292000Z AUTO 29006KT 10SM CLR 24/07 A2996 990 33 2300 290/06 RMK AO2
14926KSTC STC20000629140509806/29/00 14:05:31  5-MIN KSTC 292005Z AUTO 30009KT 10SM CLR 26/08 A2996 990 32 2500 300/09 RMK AO2
14926KSTC STC20000629141009806/29/00 14:10:31  5-MIN KSTC 292010Z AUTO 31009KT 10SM CLR 24/07 A2996 990 31 2400 310/09 RMK AO2
14926KSTC STC20000629141509806/29/00 14:15:31  5-MIN KSTC 292015Z AUTO 30008KT 10SM CLR 25/06 A2996 990 29 2400 300/08 RMK AO2
14926KSTC STC20000629142009806/29/00 14:20:31  5-MIN KSTC 292020Z AUTO 29009KT 10SM CLR 25/07 A2995 990 30 2400 290/09 RMK AO2
14926KSTC STC20000629142509906/29/00 14:25:31  5-MIN KSTC 292025Z AUTO 34005KT 10SM CLR 26/08 A2995 1000 32 2500 340/05 RMK AO2
14926KSTC STC20000629143009906/29/00 14:30:31  5-MIN KSTC 292030Z AUTO 32009KT 10SM CLR 26/07 A2995 1000 30 2500 310/09 RMK AO2
14926KSTC STC20000629143509906/29/00 14:35:31  5-MIN KSTC 292035Z AUTO 32006KT 10SM CLR 26/07 A2995 1000 29 2500 320/06 RMK AO2
14926KSTC STC20000629144011506/29/00 14:40:31  5-MIN KSTC 292040Z AUTO 30008KT 260V330 10SM CLR 26/07 A2995 1000 29 2500 290/08 260V330 RMK AO2
14926KSTC STC20000629144509906/29/00 14:45:31  5-MIN KSTC 292045Z AUTO 33008KT 10SM CLR 25/06 A2995 1000 29 2400 330/08 RMK AO2
14926KSTC STC20000629145012206/29/00 14:50:31  5-MIN KSTC 292050Z AUTO VRB05KT 10SM CLR 26/07 A2995 1000 29 2500 VRB/05 RMK AO2 SLP148 T02560067 58007
14926KSTC STC20000629145509906/29/00 14:55:31  5-MIN KSTC 292055Z AUTO 31007KT 10SM CLR 26/07 A2995 1000 30 2500 310/07 RMK AO2
14926KSTC STC20000629150009906/29/00 15:00:31  5-MIN KSTC 292100Z AUTO 31006KT 10SM CLR 26/07 A2995 1000 30 2500 300/06 RMK AO2
14926KSTC STC20000629150509906/29/00 15:05:31  5-MIN KSTC 292105Z AUTO 29008KT 10SM CLR 26/08 A2995 1000 32 2500 290/08 RMK AO2
14926KSTC STC20000629151011506/29/00 15:10:31  5-MIN KSTC 292110Z AUTO 32007KT 280V350 10SM CLR 25/07 A2994 1000 31 2400 320/07 280V350 RMK AO2
14926KSTC STC20000629151509906/29/00 15:15:31  5-MIN KSTC 292115Z AUTO 33008KT 10SM CLR 26/07 A2995 1000 30 2500 330/08 RMK AO2
14926KSTC STC20000629152011506/29/00 15:20:31  5-MIN KSTC 292120Z AUTO 30007KT 270V330 10SM CLR 26/07 A2994 1010 30 2500 300/07 270V330 RMK AO2
14926KSTC STC20000629152509906/29/00 15:25:31  5-MIN KSTC 292125Z AUTO 33007KT 10SM CLR 26/07 A2994 1010 29 2500 320/07 RMK AO2
14926KSTC STC20000629153009906/29/00 15:30:31  5-MIN KSTC 292130Z AUTO VRB06KT 10SM CLR 26/07 A2994 1010 29 2500 VRB/06 RMK AO2
14926KSTC STC20000629153509906/29/00 15:35:31  5-MIN KSTC 292135Z AUTO VRB04KT 10SM CLR 26/07 A2994 1010 30 2500 VRB/04 RMK AO2
14926KSTC STC20000629154009906/29/00 15:40:31  5-MIN KSTC 292140Z AUTO 29007KT 10SM CLR 26/07 A2994 1010 30 2500 290/07 RMK AO2
14926KSTC STC20000629154509906/29/00 15:45:31  5-MIN KSTC 292145Z AUTO 35007KT 10SM CLR 26/07 A2993 1010 30 2500 350/07 RMK AO2
14926KSTC STC20000629155011606/29/00 15:50:31  5-MIN KSTC 292150Z AUTO 35006KT 10SM CLR 26/07 A2993 1020 30 2500 350/06 RMK AO2 SLP143 T02560072
14926KSTC STC20000629155509906/29/00 15:55:31  5-MIN KSTC 292155Z AUTO 35005KT 10SM CLR 26/08 A2993 1020 32 2500 350/05 RMK AO2
14926KSTC STC20000629160009906/29/00 16:00:31  5-MIN KSTC 292200Z AUTO 33007KT 10SM CLR 26/07 A2993 1020 30 2500 320/07 RMK AO2
14926KSTC STC20000629160509906/29/00 16:05:31  5-MIN KSTC 292205Z AUTO 35009KT 10SM CLR 26/07 A2993 1020 29 2500 350/09 RMK AO2
14926KSTC STC20000629161009906/29/00 16:10:31  5-MIN KSTC 292210Z AUTO 31007KT 10SM CLR 26/06 A2993 1020 27 2600 310/07 RMK AO2
14926KSTC STC20000629161509906/29/00 16:15:31  5-MIN KSTC 292215Z AUTO 32009KT 10SM CLR 26/06 A2993 1020 28 2500 320/09 RMK AO2
14926KSTC STC20000629162009906/29/00 16:20:31  5-MIN KSTC 292220Z AUTO 30007KT 10SM CLR 26/06 A2992 1020 28 2500 300/07 RMK AO2
14926KSTC STC20000629162509906/29/00 16:25:31  5-MIN KSTC 292225Z AUTO 35004KT 10SM CLR 26/06 A2992 1030 27 2500 350/04 RMK AO2
14926KSTC STC20000629163009906/29/00 16:30:31  5-MIN KSTC 292230Z AUTO 34005KT 10SM CLR 26/07 A2992 1030 30 2500 340/05 RMK AO2
14926KSTC STC20000629163509906/29/00 16:35:31  5-MIN KSTC 292235Z AUTO VRB03KT 10SM CLR 26/07 A2992 1030 29 2500 VRB/03 RMK AO2
14926KSTC STC20000629164009906/29/00 16:40:31  5-MIN KSTC 292240Z AUTO 32005KT 10SM CLR 26/07 A2992 1030 30 2500 320/05 RMK AO2
14926KSTC STC20000629164509906/29/00 16:45:31  5-MIN KSTC 292245Z AUTO VRB03KT 10SM CLR 25/07 A2992 1030 30 2500 VRB/03 RMK AO2
14926KSTC STC20000629165011606/29/00 16:50:31  5-MIN KSTC 292250Z AUTO VRB03KT 10SM CLR 26/06 A2992 1030 28 2500 VRB/03 RMK AO2 SLP138 T02560061
14926KSTC STC20000629165509906/29/00 16:55:31  5-MIN KSTC 292255Z AUTO 36005KT 10SM CLR 26/07 A2992 1030 29 2500 360/05 RMK AO2
14926KSTC STC20000629170009906/29/00 17:00:31  5-MIN KSTC 292300Z AUTO 32007KT 10SM CLR 26/07 A2991 1030 30 2500 310/07 RMK AO2
14926KSTC STC20000629170509906/29/00 17:05:31  5-MIN KSTC 292305Z AUTO 32006KT 10SM CLR 26/07 A2991 1030 29 2500 320/06 RMK AO2
14926KSTC STC20000629171009906/29/00 17:10:31  5-MIN KSTC 292310Z AUTO VRB03KT 10SM CLR 26/07 A2991 1030 29 2500 VRB/03 RMK AO2
14926KSTC STC20000629171509906/29/00 17:15:31  5-MIN KSTC 292315Z AUTO VRB04KT 10SM CLR 26/07 A2991 1040 30 2500 VRB/04 RMK AO2
14926KSTC STC20000629172009906/29/00 17:20:31  5-MIN KSTC 292320Z AUTO VRB05KT 10SM CLR 26/08 A2991 1040 32 2500 VRB/05 RMK AO2
14926KSTC STC20000629172509906/29/00 17:25:31  5-MIN KSTC 292325Z AUTO VRB04KT 10SM CLR 26/08 A2991 1040 32 2500 VRB/04 RMK AO2
14926KSTC STC20000629173011506/29/00 17:30:31  5-MIN KSTC 292330Z AUTO 30007KT 260V330 10SM CLR 26/08 A2991 1040 32 2500 300/07 260V330 RMK AO2
14926KSTC STC20000629173509906/29/00 17:35:31  5-MIN KSTC 292335Z AUTO 29008KT 10SM CLR 25/07 A2991 1040 31 2500 290/08 RMK AO2
14926KSTC STC20000629174009906/29/00 17:40:31  5-MIN KSTC 292340Z AUTO 31006KT 10SM CLR 25/07 A2991 1040 31 2500 310/06 RMK AO2
14926KSTC STC20000629174509906/29/00 17:45:31  5-MIN KSTC 292345Z AUTO 31006KT 10SM CLR 25/08 A2991 1040 33 2500 300/06 RMK AO2
14926KSTC STC20000629175013406/29/00 17:50:31  5-MIN KSTC 292350Z AUTO VRB04KT 10SM CLR 25/07 A2990 1040 30 2500 VRB/04 RMK AO2 SLP133 T02500067 10261 20233 56012
14926KSTC STC20000629175509906/29/00 17:55:31  5-MIN KSTC 292355Z AUTO VRB03KT 10SM CLR 25/07 A2990 1040 31 2500 VRB/03 RMK AO2
14926KSTC STC20000629180009906/29/00 18:00:31  5-MIN KSTC 300000Z AUTO VRB05KT 10SM CLR 25/07 A2990 1040 31 2500 VRB/05 RMK AO2
14926KSTC STC20000629180509906/29/00 18:05:31  5-MIN KSTC 300005Z AUTO 31005KT 10SM CLR 25/07 A2990 1040 31 2500 300/05 RMK AO2
14926KSTC STC20000629181009906/29/00 18:10:31  5-MIN KSTC 300010Z AUTO 30004KT 10SM CLR 25/07 A2990 1040 31 2500 290/04 RMK AO2
14926KSTC STC20000629181509906/29/00 18:15:31  5-MIN KSTC 300015Z AUTO 29004KT 10SM CLR 25/07 A2990 1040 30 2500 290/04 RMK AO2
14926KSTC STC20000629182009906/29/00 18:20:31  5-MIN KSTC 300020Z AUTO 00000KT 10SM CLR 25/07 A2990 1040 30 2500 000/00 RMK AO2
14926KSTC STC20000629182509906/29/00 18:25:31  5-MIN KSTC 300025Z AUTO 28003KT 10SM CLR 25/08 A2990 1040 33 2500 280/03 RMK AO2
14926KSTC STC20000629183009906/29/00 18:30:31  5-MIN KSTC 300030Z AUTO 26003KT 10SM CLR 25/07 A2990 1040 31 2500 260/03 RMK AO2
14926KSTC STC20000629183509906/29/00 18:35:31  5-MIN KSTC 300035Z AUTO VRB03KT 10SM CLR 24/08 A2990 1040 34 2400 VRB/03 RMK AO2
14926KSTC STC20000629184009906/29/00 18:40:31  5-MIN KSTC 300040Z AUTO 30003KT 10SM CLR 24/08 A2990 1050 34 2400 300/03 RMK AO2
14926KSTC STC20000629184509906/29/00 18:45:31  5-MIN KSTC 300045Z AUTO 31004KT 10SM CLR 24/09 A2990 1050 38 2400 310/04 RMK AO2
14926KSTC STC20000629185011606/29/00 18:50:31  5-MIN KSTC 300050Z AUTO 31003KT 10SM CLR 24/09 A2990 1050 38 2400 310/03 RMK AO2 SLP131 T02390089
14926KSTC STC20000629185509906/29/00 18:55:31  5-MIN KSTC 300055Z AUTO 33003KT 10SM CLR 24/09 A2990 1050 38 2400 330/03 RMK AO2
14926KSTC STC20000629190009906/29/00 19:00:31  5-MIN KSTC 300100Z AUTO 00000KT 10SM CLR 24/10 A2990 1050 41 2400 000/00 RMK AO2
14926KSTC STC20000629190509906/29/00 19:05:31  5-MIN KSTC 300105Z AUTO 00000KT 10SM CLR 24/09 A2990 1050 39 2400 000/00 RMK AO2
14926KSTC STC20000629191009906/29/00 19:10:31  5-MIN KSTC 300110Z AUTO 26003KT 10SM CLR 23/09 A2990 1050 41 2300 260/03 RMK AO2
14926KSTC STC20000629191509906/29/00 19:15:31  5-MIN KSTC 300115Z AUTO 00000KT 10SM CLR 23/09 A2990 1040 41 2300 000/00 RMK AO2
14926KSTC STC20000629192009906/29/00 19:20:31  5-MIN KSTC 300120Z AUTO 00000KT 10SM CLR 23/11 A2990 1040 44 2300 000/00 RMK AO2
14926KSTC STC20000629192509906/29/00 19:25:31  5-MIN KSTC 300125Z AUTO 00000KT 10SM CLR 23/12 A2990 1040 49 2200 000/00 RMK AO2
14926KSTC STC20000629193009906/29/00 19:30:31  5-MIN KSTC 300130Z AUTO 00000KT 10SM CLR 22/11 A2990 1040 49 2200 000/00 RMK AO2
14926KSTC STC20000629193509906/29/00 19:35:31  5-MIN KSTC 300135Z AUTO 00000KT 10SM CLR 22/12 A2990 1040 54 2100 000/00 RMK AO2
14926KSTC STC20000629194009906/29/00 19:40:31  5-MIN KSTC 300140Z AUTO 00000KT 10SM CLR 21/12 A2990 1040 54 2000 000/00 RMK AO2
14926KSTC STC20000629194509906/29/00 19:45:31  5-MIN KSTC 300145Z AUTO 00000KT 10SM CLR 20/12 A2991 1040 60 1900 000/00 RMK AO2
14926KSTC STC20000629195011606/29/00 19:50:31  5-MIN KSTC 300150Z AUTO 00000KT 10SM CLR 20/13 A2991 1040 63 1900 000/00 RMK AO2 SLP133 T02000128
14926KSTC STC20000629195509906/29/00 19:55:31  5-MIN KSTC 300155Z AUTO 00000KT 10SM CLR 19/13 A2991 1040 67 1800 000/00 RMK AO2
14926KSTC STC20000629200009906/29/00 20:00:31  5-MIN KSTC 300200Z AUTO 00000KT 10SM CLR 19/12 A2991 1040 62 1800 000/00 RMK AO2
14926KSTC STC20000629200509906/29/00 20:05:31  5-MIN KSTC 300205Z AUTO 00000KT 10SM CLR 19/12 A2991 1040 62 1800 000/00 RMK AO2
14926KSTC STC20000629201009906/29/00 20:10:31  5-MIN KSTC 300210Z AUTO 00000KT 10SM CLR 18/12 A2991 1040 69 1600 000/00 RMK AO2
14926KSTC STC20000629201509906/29/00 20:15:31  5-MIN KSTC 300215Z AUTO 00000KT 10SM CLR 17/12 A2991 1040 72 1600 000/00 RMK AO2
14926KSTC STC20000629202009906/29/00 20:20:31  5-MIN KSTC 300220Z AUTO 00000KT 10SM CLR 17/12 A2991 1040 69 1600 000/00 RMK AO2
14926KSTC STC20000629202509906/29/00 20:25:31  5-MIN KSTC 300225Z AUTO 00000KT 10SM CLR 16/12 A2991 1040 80 1400 000/00 RMK AO2
14926KSTC STC20000629203009906/29/00 20:30:31  5-MIN KSTC 300230Z AUTO 00000KT 10SM CLR 17/12 A2991 1040 75 1500 000/00 RMK AO2
14926KSTC STC20000629203510206/29/00 20:35:31  5-MIN KSTC 300235Z AUTO 00000KT 10SM FEW110 16/12 A2991 1040 77 1400 000/00 RMK AO2
14926KSTC STC20000629204010206/29/00 20:40:31  5-MIN KSTC 300240Z AUTO 00000KT 10SM FEW110 16/12 A2991 1040 80 1400 000/00 RMK AO2
14926KSTC STC20000629204510206/29/00 20:45:31  5-MIN KSTC 300245Z AUTO 00000KT 10SM FEW110 16/12 A2991 1030 80 1400 000/00 RMK AO2
14926KSTC STC20000629205012506/29/00 20:50:31  5-MIN KSTC 300250Z AUTO 00000KT 10SM FEW110 16/12 A2991 1030 80 1400 000/00 RMK AO2 SLP136 T01560122 56015
14926KSTC STC20000629205510206/29/00 20:55:31  5-MIN KSTC 300255Z AUTO 00000KT 10SM FEW110 16/12 A2991 1030 77 1400 000/00 RMK AO2
14926KSTC STC20000629210010206/29/00 21:00:31  5-MIN KSTC 300300Z AUTO 00000KT 10SM FEW110 15/12 A2991 1030 80 1300 000/00 RMK AO2
14926KSTC STC20000629210510206/29/00 21:05:31  5-MIN KSTC 300305Z AUTO 00000KT 10SM FEW110 15/12 A2991 1030 83 1300 000/00 RMK AO2
14926KSTC STC20000629211009906/29/00 21:10:31  5-MIN KSTC 300310Z AUTO 00000KT 10SM CLR 14/12 A2991 1030 86 1200 000/00 RMK AO2
14926KSTC STC20000629211509906/29/00 21:15:31  5-MIN KSTC 300315Z AUTO 00000KT 10SM CLR 14/12 A2991 1030 83 1200 000/00 RMK AO2
14926KSTC STC20000629212010206/29/00 21:20:31  5-MIN KSTC 300320Z AUTO 00000KT 10SM FEW100 15/12 A2991 1030 80 1300 000/00 RMK AO2
14926KSTC STC20000629212510206/29/00 21:25:31  5-MIN KSTC 300325Z AUTO 00000KT 10SM SCT100 14/12 A2991 1030 83 1200 000/00 RMK AO2
14926KSTC STC20000629213010206/29/00 21:30:31  5-MIN KSTC 300330Z AUTO 00000KT 10SM SCT100 14/12 A2991 1030 86 1200 000/00 RMK AO2
14926KSTC STC20000629213510206/29/00 21:35:31  5-MIN KSTC 300335Z AUTO 00000KT 10SM SCT100 14/12 A2991 1030 86 1200 000/00 RMK AO2
14926KSTC STC20000629214010206/29/00 21:40:31  5-MIN KSTC 300340Z AUTO 00000KT 10SM SCT100 13/12 A2991 1030 89 1100 000/00 RMK AO2
14926KSTC STC20000629214510206/29/00 21:45:31  5-MIN KSTC 300345Z AUTO 00000KT 10SM SCT100 13/12 A2991 1030 89 1100 000/00 RMK AO2
14926KSTC STC20000629215011906/29/00 21:50:31  5-MIN KSTC 300350Z AUTO 00000KT 10SM FEW100 13/12 A2992 1030 89 1100 000/00 RMK AO2 SLP137 T01330117
14926KSTC STC20000629215510206/29/00 21:55:31  5-MIN KSTC 300355Z AUTO 00000KT 10SM FEW100 13/12 A2991 1030 89 1100 000/00 RMK AO2
14926KSTC STC20000629220009906/29/00 22:00:31  5-MIN KSTC 300400Z AUTO 00000KT 10SM CLR 13/12 A2991 1030 89 1100 000/00 RMK AO2
14926KSTC STC20000629220509906/29/00 22:05:31  5-MIN KSTC 300405Z AUTO 00000KT 10SM CLR 13/12 A2991 1030 89 1100 000/00 RMK AO2
14926KSTC STC20000629221009906/29/00 22:10:31  5-MIN KSTC 300410Z AUTO 00000KT 10SM CLR 14/12 A2991 1030 90 1200 000/00 RMK AO2
14926KSTC STC20000629221509906/29/00 22:15:31  5-MIN KSTC 300415Z AUTO 00000KT 10SM CLR 13/12 A2991 1030 93 1100 000/00 RMK AO2
14926KSTC STC20000629222009906/29/00 22:20:31  5-MIN KSTC 300420Z AUTO 00000KT 10SM CLR 14/12 A2991 1030 86 1200 000/00 RMK AO2
14926KSTC STC20000629222509906/29/00 22:25:31  5-MIN KSTC 300425Z AUTO 00000KT 10SM CLR 13/12 A2991 1030 89 1100 000/00 RMK AO2
14926KSTC STC20000629223009906/29/00 22:30:31  5-MIN KSTC 300430Z AUTO 00000KT 10SM CLR 13/11 A2991 1030 89 1100 000/00 RMK AO2
14926KSTC STC20000629223509906/29/00 22:35:31  5-MIN KSTC 300435Z AUTO 00000KT 10SM CLR 13/11 A2991 1030 89 1100 000/00 RMK AO2
14926KSTC STC20000629224009906/29/00 22:40:31  5-MIN KSTC 300440Z AUTO 00000KT 10SM CLR 13/11 A2991 1030 89 1100 000/00 RMK AO2
14926KSTC STC20000629224509906/29/00 22:45:31  5-MIN KSTC 300445Z AUTO 00000KT 10SM CLR 13/11 A2991 1030 89 1100 000/00 RMK AO2
14926KSTC STC20000629225011606/29/00 22:50:31  5-MIN KSTC 300450Z AUTO 00000KT 10SM CLR 12/11 A2991 1040 93 1000 000/00 RMK AO2 SLP135 T01220111
14926KSTC STC20000629225509906/29/00 22:55:31  5-MIN KSTC 300455Z AUTO 00000KT 10SM CLR 13/11 A2991 1040 89 1100 000/00 RMK AO2
14926KSTC STC20000629230009906/29/00 23:00:31  5-MIN KSTC 300500Z AUTO 00000KT 10SM CLR 12/11 A2991 1040 93 1000 000/00 RMK AO2
14926KSTC STC20000629230509906/29/00 23:05:31  5-MIN KSTC 300505Z AUTO 00000KT 10SM CLR 13/11 A2991 1030 89 1100 000/00 RMK AO2
14926KSTC STC20000629231009906/29/00 23:10:31  5-MIN KSTC 300510Z AUTO 00000KT 10SM CLR 13/11 A2991 1030 89 1100 000/00 RMK AO2
14926KSTC STC20000629231509906/29/00 23:15:31  5-MIN KSTC 300515Z AUTO 00000KT 10SM CLR 12/11 A2991 1030 93 1000 000/00 RMK AO2
14926KSTC STC20000629232009906/29/00 23:20:31  5-MIN KSTC 300520Z AUTO 00000KT 10SM CLR 12/11 A2991 1030 93 1000 000/00 RMK AO2
14926KSTC STC20000629232509806/29/00 23:25:31  5-MIN KSTC 300525Z AUTO 00000KT 10SM CLR 12/11 A2991 1030 96 900 000/00 RMK AO2
14926KSTC STC20000629233009906/29/00 23:30:31  5-MIN KSTC 300530Z AUTO 00000KT 10SM CLR 12/11 A2991 1030 89 1000 000/00 RMK AO2
14926KSTC STC20000629233509806/29/00 23:35:31  5-MIN KSTC 300535Z AUTO 00000KT 10SM CLR 12/11 A2992 1030 93 900 000/00 RMK AO2
14926KSTC STC20000629234009806/29/00 23:40:31  5-MIN KSTC 300540Z AUTO 00000KT 10SM CLR 12/10 A2991 1030 89 900 000/00 RMK AO2
14926KSTC STC20000629234509806/29/00 23:45:31  5-MIN KSTC 300545Z AUTO 00000KT 10SM CLR 12/11 A2991 1030 93 900 000/00 RMK AO2
14926KSTC STC20000629235014606/29/00 23:50:31  5-MIN KSTC 300550Z AUTO 00000KT 10SM FEW090 12/10 A2991 1030 89 900 000/00 RMK AO2 SLP136 T01170100 10250 20117 402610072 53003
14926KSTC STC20000629235510106/29/00 23:55:31  5-MIN KSTC 300555Z AUTO 00000KT 10SM FEW095 11/10 A2991 1040 93 900 000/00 RMK AO2
14926KSTC STC20000630000010106/30/00 00:00:31  5-MIN KSTC 300600Z AUTO 00000KT 10SM FEW095 12/11 A2991 1040 93 900 000/00 RMK AO2
14926KSTC STC20000630000510106/30/00 00:05:31  5-MIN KSTC 300605Z AUTO 00000KT 10SM FEW095 11/10 A2991 1040 93 900 000/00 RMK AO2
14926KSTC STC20000630001010106/30/00 00:10:31  5-MIN KSTC 300610Z AUTO 16003KT 10SM FEW095 12/10 A2991 1040 89 900 160/03 RMK AO2
14926KSTC STC20000630001510106/30/00 00:15:31  5-MIN KSTC 300615Z AUTO 14003KT 10SM FEW095 12/10 A2991 1040 89 900 130/03 RMK AO2
14926KSTC STC20000630002009806/30/00 00:20:31  5-MIN KSTC 300620Z AUTO 00000KT 10SM CLR 11/10 A2991 1040 93 900 000/00 RMK AO2
14926KSTC STC20000630002509806/30/00 00:25:31  5-MIN KSTC 300625Z AUTO 00000KT 10SM CLR 12/11 A2991 1040 93 900 000/00 RMK AO2
14926KSTC STC20000630003009806/30/00 00:30:31  5-MIN KSTC 300630Z AUTO 00000KT 10SM CLR 12/10 A2991 1040 89 900 000/00 RMK AO2
14926KSTC STC20000630003510106/30/00 00:35:31  5-MIN KSTC 300635Z AUTO 00000KT 10SM FEW100 11/09 A2991 1040 89 900 000/00 RMK AO2
14926KSTC STC20000630004010106/30/00 00:40:31  5-MIN KSTC 300640Z AUTO 00000KT 10SM SCT100 11/10 A2991 1040 93 900 000/00 RMK AO2
14926KSTC STC20000630004510106/30/00 00:45:31  5-MIN KSTC 300645Z AUTO 00000KT 10SM FEW100 11/10 A2991 1040 93 900 000/00 RMK AO2
14926KSTC STC20000630005011806/30/00 00:50:31  5-MIN KSTC 300650Z AUTO 00000KT 10SM FEW100 11/10 A2991 1040 93 900 000/00 RMK AO2 SLP135 T01110100
14926KSTC STC20000630005510106/30/00 00:55:31  5-MIN KSTC 300655Z AUTO 00000KT 10SM FEW100 11/10 A2991 1040 93 900 000/00 RMK AO2
14926KSTC STC20000630010010106/30/00 01:00:31  5-MIN KSTC 300700Z AUTO 00000KT 10SM FEW100 11/11 A2991 1040 96 900 000/00 RMK AO2
14926KSTC STC20000630010510106/30/00 01:05:31  5-MIN KSTC 300705Z AUTO 00000KT 10SM SCT100 12/11 A2991 1040 93 900 000/00 RMK AO2
14926KSTC STC20000630011010106/30/00 01:10:31  5-MIN KSTC 300710Z AUTO 00000KT 10SM BKN095 12/11 A2991 1040 93 900 000/00 RMK AO2
14926KSTC STC20000630011510106/30/00 01:15:31  5-MIN KSTC 300715Z AUTO 00000KT 10SM BKN095 12/11 A2991 1040 93 900 000/00 RMK AO2
14926KSTC STC20000630012010806/30/00 01:20:31  5-MIN KSTC 300720Z AUTO 00000KT 10SM BKN095 BKN110 12/11 A2991 1040 93 900 000/00 RMK AO2
14926KSTC STC20000630012510906/30/00 01:25:31  5-MIN KSTC 300725Z AUTO 00000KT 10SM BKN095 BKN110 12/11 A2991 1040 89 1000 000/00 RMK AO2
14926KSTC STC20000630013010906/30/00 01:30:31  5-MIN KSTC 300730Z AUTO 00000KT 10SM SCT095 BKN110 12/11 A2991 1040 93 1000 000/00 RMK AO2
14926KSTC STC20000630013510906/30/00 01:35:31  5-MIN KSTC 300735Z AUTO 00000KT 10SM SCT095 BKN110 12/11 A2991 1040 93 1000 000/00 RMK AO2
14926KSTC STC20000630014010906/30/00 01:40:31  5-MIN KSTC 300740Z AUTO 00000KT 10SM FEW095 SCT110 12/11 A2991 1040 89 1000 000/00 RMK AO2
14926KSTC STC20000630014510206/30/00 01:45:31  5-MIN KSTC 300745Z AUTO 00000KT 10SM FEW110 12/11 A2991 1040 89 1000 000/00 RMK AO2
14926KSTC STC20000630015011806/30/00 01:50:31  5-MIN KSTC 300750Z AUTO 00000KT 10SM FEW110 12/11 A2991 1040 93 900 000/00 RMK AO2 SLP133 T01170106
14926KSTC STC20000630015509806/30/00 01:55:31  5-MIN KSTC 300755Z AUTO 00000KT 10SM CLR 12/11 A2991 1040 93 900 000/00 RMK AO2
14926KSTC STC20000630020009806/30/00 02:00:31  5-MIN KSTC 300800Z AUTO 00000KT 10SM CLR 12/11 A2991 1040 93 900 000/00 RMK AO2
14926KSTC STC20000630020509806/30/00 02:05:31  5-MIN KSTC 300805Z AUTO 00000KT 10SM CLR 12/11 A2990 1040 93 900 000/00 RMK AO2
14926KSTC STC20000630021009806/30/00 02:10:31  5-MIN KSTC 300810Z AUTO 00000KT 10SM CLR 12/11 A2990 1040 93 900 000/00 RMK AO2
14926KSTC STC20000630021509806/30/00 02:15:31  5-MIN KSTC 300815Z AUTO 00000KT 10SM CLR 11/11 A2990 1040 96 900 000/00 RMK AO2
14926KSTC STC20000630022010106/30/00 02:20:31  5-MIN KSTC 300820Z AUTO 00000KT 10SM SCT110 11/11 A2990 1040 96 900 000/00 RMK AO2
14926KSTC STC20000630022510106/30/00 02:25:31  5-MIN KSTC 300825Z AUTO 00000KT 10SM SCT110 12/11 A2990 1040 93 900 000/00 RMK AO2
14926KSTC STC20000630023010106/30/00 02:30:31  5-MIN KSTC 300830Z AUTO 00000KT 10SM FEW110 12/11 A2990 1050 93 900 000/00 RMK AO2
14926KSTC STC20000630023510106/30/00 02:35:31  5-MIN KSTC 300835Z AUTO 00000KT 10SM FEW110 12/11 A2990 1050 93 900 000/00 RMK AO2
14926KSTC STC20000630024010106/30/00 02:40:31  5-MIN KSTC 300840Z AUTO 00000KT 10SM FEW110 12/11 A2990 1050 93 900 000/00 RMK AO2
14926KSTC STC20000630024510106/30/00 02:45:31  5-MIN KSTC 300845Z AUTO 00000KT 10SM FEW110 11/10 A2990 1050 93 900 000/00 RMK AO2
14926KSTC STC20000630025012106/30/00 02:50:31  5-MIN KSTC 300850Z AUTO 00000KT 10SM CLR 11/11 A2990 1050 96 900 000/00 RMK AO2 SLP131 T01110106 54000
14926KSTC STC20000630025509806/30/00 02:55:31  5-MIN KSTC 300855Z AUTO 00000KT 10SM CLR 11/10 A2990 1050 93 900 000/00 RMK AO2
14926KSTC STC20000630030009806/30/00 03:00:31  5-MIN KSTC 300900Z AUTO 00000KT 10SM CLR 11/10 A2990 1050 93 900 000/00 RMK AO2
14926KSTC STC20000630030509806/30/00 03:05:31  5-MIN KSTC 300905Z AUTO 00000KT 10SM CLR 11/10 A2990 1040 93 900 000/00 RMK AO2
14926KSTC STC20000630031009806/30/00 03:10:31  5-MIN KSTC 300910Z AUTO 00000KT 10SM CLR 11/10 A2990 1040 96 800 000/00 RMK AO2
14926KSTC STC20000630031509806/30/00 03:15:31  5-MIN KSTC 300915Z AUTO 00000KT 10SM CLR 11/10 A2990 1040 96 800 000/00 RMK AO2
14926KSTC STC20000630032009806/30/00 03:20:31  5-MIN KSTC 300920Z AUTO 00000KT 10SM CLR 11/10 A2990 1040 93 900 000/00 RMK AO2
14926KSTC STC20000630032509806/30/00 03:25:31  5-MIN KSTC 300925Z AUTO 00000KT 10SM CLR 11/10 A2990 1040 93 900 000/00 RMK AO2
14926KSTC STC20000630033009806/30/00 03:30:31  5-MIN KSTC 300930Z AUTO 00000KT 10SM CLR 11/10 A2990 1050 93 900 000/00 RMK AO2
14926KSTC STC20000630033509806/30/00 03:35:31  5-MIN KSTC 300935Z AUTO 00000KT 10SM CLR 11/10 A2990 1050 93 900 000/00 RMK AO2
14926KSTC STC20000630034009806/30/00 03:40:31  5-MIN KSTC 300940Z AUTO 00000KT 10SM CLR 11/10 A2990 1050 93 900 000/00 RMK AO2
14926KSTC STC20000630034509806/30/00 03:45:31  5-MIN KSTC 300945Z AUTO 00000KT 10SM CLR 11/10 A2990 1050 96 800 000/00 RMK AO2
14926KSTC STC20000630035011506/30/00 03:50:31  5-MIN KSTC 300950Z AUTO 00000KT 10SM CLR 11/10 A2990 1050 96 800 000/00 RMK AO2 SLP130 T01060100
14926KSTC STC20000630035509806/30/00 03:55:31  5-MIN KSTC 300955Z AUTO 00000KT 10SM CLR 11/10 A2990 1050 96 800 000/00 RMK AO2
14926KSTC STC20000630040009806/30/00 04:00:31  5-MIN KSTC 301000Z AUTO 00000KT 10SM CLR 11/10 A2990 1040 96 800 000/00 RMK AO2
14926KSTC STC20000630040509806/30/00 04:05:31  5-MIN KSTC 301005Z AUTO 00000KT 10SM CLR 11/09 A2990 1040 93 800 000/00 RMK AO2
14926KSTC STC20000630041010106/30/00 04:10:31  5-MIN KSTC 301010Z AUTO 00000KT 10SM FEW110 11/10 A2990 1040 96 800 000/00 RMK AO2
14926KSTC STC20000630041510106/30/00 04:15:31  5-MIN KSTC 301015Z AUTO 00000KT 10SM SCT110 11/10 A2990 1040 96 800 000/00 RMK AO2
14926KSTC STC20000630042010106/30/00 04:20:31  5-MIN KSTC 301020Z AUTO 00000KT 10SM SCT110 11/10 A2990 1040 96 800 000/00 RMK AO2
14926KSTC STC20000630042510106/30/00 04:25:31  5-MIN KSTC 301025Z AUTO 00000KT 10SM SCT100 11/10 A2991 1040 96 800 000/00 RMK AO2
14926KSTC STC20000630043010106/30/00 04:30:31  5-MIN KSTC 301030Z AUTO 00000KT 10SM BKN110 11/10 A2991 1040 96 800 000/00 RMK AO2
14926KSTC STC20000630043510106/30/00 04:35:31  5-MIN KSTC 301035Z AUTO 00000KT 10SM BKN110 11/10 A2991 1040 96 800 000/00 RMK AO2
14926KSTC STC20000630044010106/30/00 04:40:31  5-MIN KSTC 301040Z AUTO 00000KT 10SM BKN100 11/10 A2991 1040 93 900 000/00 RMK AO2
14926KSTC STC20000630044510106/30/00 04:45:31  5-MIN KSTC 301045Z AUTO 00000KT 10SM SCT100 11/10 A2991 1030 93 900 000/00 RMK AO2
14926KSTC STC20000630045011806/30/00 04:50:31  5-MIN KSTC 301050Z AUTO 00000KT 10SM BKN100 11/10 A2992 1030 96 800 000/00 RMK AO2 SLP136 T01060100
14926KSTC STC20000630045510106/30/00 04:55:31  5-MIN KSTC 301055Z AUTO 20003KT 10SM SCT100 11/10 A2992 1030 93 900 190/03 RMK AO2
14926KSTC STC20000630050010106/30/00 05:00:31  5-MIN KSTC 301100Z AUTO 00000KT 10SM FEW100 12/10 A2992 1030 89 900 000/00 RMK AO2
14926KSTC STC20000630050510106/30/00 05:05:31  5-MIN KSTC 301105Z AUTO 00000KT 10SM FEW100 11/10 A2992 1030 93 800 000/00 RMK AO2
14926KSTC STC20000630051010806/30/00 05:10:31  5-MIN KSTC 301110Z AUTO 00000KT 10SM FEW100 SCT120 11/10 A2992 1030 93 800 000/00 RMK AO2
14926KSTC STC20000630051510106/30/00 05:15:31  5-MIN KSTC 301115Z AUTO 00000KT 10SM FEW110 11/10 A2992 1030 93 800 000/00 RMK AO2
14926KSTC STC20000630052010106/30/00 05:20:31  5-MIN KSTC 301120Z AUTO 00000KT 10SM FEW110 12/11 A2992 1030 93 900 000/00 RMK AO2
14926KSTC STC20000630052510106/30/00 05:25:31  5-MIN KSTC 301125Z AUTO 00000KT 10SM FEW110 12/11 A2992 1030 93 900 000/00 RMK AO2
14926KSTC STC20000630053010106/30/00 05:30:31  5-MIN KSTC 301130Z AUTO 00000KT 10SM FEW110 12/11 A2992 1030 93 900 000/00 RMK AO2
14926KSTC STC20000630053510106/30/00 05:35:31  5-MIN KSTC 301135Z AUTO 00000KT 10SM FEW110 12/11 A2992 1030 93 900 000/00 RMK AO2
14926KSTC STC20000630054009906/30/00 05:40:31  5-MIN KSTC 301140Z AUTO 18003KT 10SM CLR 12/11 A2992 1020 93 1000 180/03 RMK AO2
14926KSTC STC20000630054510206/30/00 05:45:31  5-MIN KSTC 301145Z AUTO 00000KT 10SM FEW110 12/11 A2992 1020 93 1000 000/00 RMK AO2
14926KSTC STC20000630055013706/30/00 05:50:31  5-MIN KSTC 301150Z AUTO 00000KT 10SM FEW110 13/12 A2992 1020 93 1000 000/00 RMK AO2 SLP139 T01280117 10128 20106 58004
14926KSTC STC20000630055510206/30/00 05:55:31  5-MIN KSTC 301155Z AUTO 00000KT 10SM FEW110 13/12 A2993 1020 89 1100 000/00 RMK AO2
14926KSTC STC20000630060010206/30/00 06:00:31  5-MIN KSTC 301200Z AUTO 00000KT 10SM FEW110 14/12 A2992 1020 90 1200 000/00 RMK AO2
14926KSTC STC20000630060510206/30/00 06:05:31  5-MIN KSTC 301205Z AUTO 00000KT 10SM FEW110 14/12 A2993 1020 86 1200 000/00 RMK AO2
14926KSTC STC20000630061010206/30/00 06:10:31  5-MIN KSTC 301210Z AUTO 00000KT 10SM FEW110 15/12 A2992 1020 83 1300 000/00 RMK AO2
14926KSTC STC20000630061510206/30/00 06:15:31  5-MIN KSTC 301215Z AUTO 21003KT 10SM FEW110 15/13 A2992 1020 86 1300 210/03 RMK AO2
14926KSTC STC20000630062009906/30/00 06:20:31  5-MIN KSTC 301220Z AUTO 00000KT 10SM CLR 16/13 A2993 1020 83 1400 000/00 RMK AO2
14926KSTC STC20000630062509906/30/00 06:25:31  5-MIN KSTC 301225Z AUTO 00000KT 10SM CLR 16/13 A2993 1020 80 1400 000/00 RMK AO2
14926KSTC STC20000630063009906/30/00 06:30:31  5-MIN KSTC 301230Z AUTO 19003KT 10SM CLR 16/13 A2993 1020 80 1400 190/03 RMK AO2
14926KSTC STC20000630063509906/30/00 06:35:31  5-MIN KSTC 301235Z AUTO 00000KT 10SM CLR 16/13 A2993 1020 80 1400 000/00 RMK AO2
14926KSTC STC20000630064009906/30/00 06:40:31  5-MIN KSTC 301240Z AUTO 18003KT 10SM CLR 17/13 A2993 1020 80 1500 180/03 RMK AO2
14926KSTC STC20000630064509906/30/00 06:45:31  5-MIN KSTC 301245Z AUTO 19003KT 10SM CLR 17/13 A2992 1020 78 1600 180/03 RMK AO2
14926KSTC STC20000630065011606/30/00 06:50:31  5-MIN KSTC 301250Z AUTO 20003KT 10SM CLR 17/13 A2992 1020 78 1600 200/03 RMK AO2 SLP137 T01720133
14926KSTC STC20000630065509906/30/00 06:55:31  5-MIN KSTC 301255Z AUTO 20004KT 10SM CLR 18/13 A2992 1020 75 1600 200/04 RMK AO2
14926KSTC STC20000630070009906/30/00 07:00:31  5-MIN KSTC 301300Z AUTO 22003KT 10SM CLR 18/13 A2992 1020 70 1700 220/03 RMK AO2
14926KSTC STC20000630070509906/30/00 07:05:31  5-MIN KSTC 301305Z AUTO 26004KT 10SM CLR 19/13 A2992 1020 67 1800 260/04 RMK AO2
14926KSTC STC20000630071009906/30/00 07:10:31  5-MIN KSTC 301310Z AUTO 24004KT 10SM CLR 19/13 A2992 1020 67 1800 240/04 RMK AO2
14926KSTC STC20000630071509906/30/00 07:15:31  5-MIN KSTC 301315Z AUTO 26004KT 10SM CLR 19/13 A2992 1020 65 1800 260/04 RMK AO2
14926KSTC STC20000630072009906/30/00 07:20:31  5-MIN KSTC 301320Z AUTO 24004KT 10SM CLR 19/13 A2992 1020 65 1800 240/04 RMK AO2
14926KSTC STC20000630072509906/30/00 07:25:31  5-MIN KSTC 301325Z AUTO 24004KT 10SM CLR 20/13 A2992 1020 63 1900 240/04 RMK AO2
14926KSTC STC20000630073009906/30/00 07:30:31  5-MIN KSTC 301330Z AUTO 24005KT 10SM CLR 20/13 A2993 1020 63 1900 240/05 RMK AO2
14926KSTC STC20000630073509906/30/00 07:35:31  5-MIN KSTC 301335Z AUTO 23005KT 10SM CLR 21/13 A2992 1020 60 1900 230/05 RMK AO2
14926KSTC STC20000630074009906/30/00 07:40:31  5-MIN KSTC 301340Z AUTO 23005KT 10SM CLR 21/13 A2992 1020 61 2000 220/05 RMK AO2
14926KSTC STC20000630074509906/30/00 07:45:31  5-MIN KSTC 301345Z AUTO 25005KT 10SM CLR 21/13 A2992 1020 61 2000 250/05 RMK AO2
14926KSTC STC20000630075011606/30/00 07:50:31  5-MIN KSTC 301350Z AUTO 24004KT 10SM CLR 21/13 A2993 1020 58 2000 230/04 RMK AO2 SLP138 T02110128
14926KSTC STC20000630075509906/30/00 07:55:31  5-MIN KSTC 301355Z AUTO 24005KT 10SM CLR 22/13 A2993 1020 56 2100 240/05 RMK AO2
14926KSTC STC20000630080009906/30/00 08:00:31  5-MIN KSTC 301400Z AUTO 23004KT 10SM CLR 22/13 A2993 1020 58 2100 230/04 RMK AO2
14926KSTC STC20000630080509906/30/00 08:05:31  5-MIN KSTC 301405Z AUTO 25006KT 10SM CLR 22/13 A2993 1020 58 2100 240/06 RMK AO2
14926KSTC STC20000630081009906/30/00 08:10:31  5-MIN KSTC 301410Z AUTO 24004KT 10SM CLR 22/13 A2993 1020 56 2100 240/04 RMK AO2
14926KSTC STC20000630081509906/30/00 08:15:31  5-MIN KSTC 301415Z AUTO 26006KT 10SM CLR 23/13 A2993 1020 55 2200 250/06 RMK AO2
14926KSTC STC20000630082009906/30/00 08:20:31  5-MIN KSTC 301420Z AUTO 23006KT 10SM CLR 23/13 A2993 1020 55 2200 230/06 RMK AO2
14926KSTC STC20000630082509906/30/00 08:25:31  5-MIN KSTC 301425Z AUTO 23005KT 10SM CLR 23/13 A2993 1020 55 2200 230/05 RMK AO2
14926KSTC STC20000630083009906/30/00 08:30:31  5-MIN KSTC 301430Z AUTO 25006KT 10SM CLR 23/13 A2992 1020 53 2300 250/06 RMK AO2
14926KSTC STC20000630083509906/30/00 08:35:31  5-MIN KSTC 301435Z AUTO 24006KT 10SM CLR 23/13 A2992 1020 51 2300 230/06 RMK AO2
14926KSTC STC20000630084009906/30/00 08:40:31  5-MIN KSTC 301440Z AUTO 25007KT 10SM CLR 23/13 A2993 1020 51 2300 250/07 RMK AO2
14926KSTC STC20000630084509906/30/00 08:45:31  5-MIN KSTC 301445Z AUTO 24006KT 10SM CLR 23/13 A2993 1020 53 2300 240/06 RMK AO2
14926KSTC STC20000630085012206/30/00 08:50:31  5-MIN KSTC 301450Z AUTO 24006KT 10SM CLR 24/13 A2993 1020 49 2300 240/06 RMK AO2 SLP138 T02390128 53008
14926KSTC STC20000630085509906/30/00 08:55:31  5-MIN KSTC 301455Z AUTO 27006KT 10SM CLR 24/13 A2992 1020 47 2400 270/06 RMK AO2
14926KSTC STC20000630090009906/30/00 09:00:31  5-MIN KSTC 301500Z AUTO 25007KT 10SM CLR 24/12 A2993 1020 46 2400 240/07 RMK AO2
14926KSTC STC20000630090509906/30/00 09:05:31  5-MIN KSTC 301505Z AUTO 26008KT 10SM CLR 25/13 A2993 1020 46 2400 250/08 RMK AO2
14926KSTC STC20000630091009906/30/00 09:10:31  5-MIN KSTC 301510Z AUTO 25010KT 10SM CLR 25/12 A2993 1020 43 2400 250/10 RMK AO2
14926KSTC STC20000630091509906/30/00 09:15:31  5-MIN KSTC 301515Z AUTO 26010KT 10SM CLR 26/12 A2993 1020 41 2500 260/10 RMK AO2
14926KSTC STC20000630092009906/30/00 09:20:31  5-MIN KSTC 301520Z AUTO 25009KT 10SM CLR 26/12 A2993 1020 43 2500 240/09 RMK AO2
14926KSTC STC20000630092509906/30/00 09:25:31  5-MIN KSTC 301525Z AUTO 25011KT 10SM CLR 26/11 A2993 1020 40 2500 250/11 RMK AO2
14926KSTC STC20000630093009906/30/00 09:30:31  5-MIN KSTC 301530Z AUTO 26011KT 10SM CLR 26/11 A2993 1020 40 2500 250/11 RMK AO2
14926KSTC STC20000630093509906/30/00 09:35:31  5-MIN KSTC 301535Z AUTO 25009KT 10SM CLR 26/11 A2993 1020 40 2500 250/09 RMK AO2
14926KSTC STC20000630094009906/30/00 09:40:31  5-MIN KSTC 301540Z AUTO 24010KT 10SM CLR 26/12 A2992 1020 41 2500 240/10 RMK AO2
14926KSTC STC20000630094509906/30/00 09:45:31  5-MIN KSTC 301545Z AUTO 24010KT 10SM CLR 26/11 A2992 1020 40 2500 240/10 RMK AO2
14926KSTC STC20000630095011606/30/00 09:50:31  5-MIN KSTC 301550Z AUTO 24008KT 10SM CLR 26/12 A2992 1020 40 2600 240/08 RMK AO2 SLP138 T02610117
14926KSTC STC20000630095509906/30/00 09:55:31  5-MIN KSTC 301555Z AUTO 24011KT 10SM CLR 27/11 A2992 1020 37 2600 240/11 RMK AO2
14926KSTC STC20000630100009906/30/00 10:00:31  5-MIN KSTC 301600Z AUTO 25011KT 10SM CLR 27/11 A2993 1020 36 2600 250/11 RMK AO2
14926KSTC STC20000630100509906/30/00 10:05:31  5-MIN KSTC 301605Z AUTO 25012KT 10SM CLR 26/10 A2992 1020 36 2600 250/12 RMK AO2
14926KSTC STC20000630101009906/30/00 10:10:31  5-MIN KSTC 301610Z AUTO 24010KT 10SM CLR 26/10 A2992 1020 36 2600 240/10 RMK AO2
14926KSTC STC20000630101509906/30/00 10:15:31  5-MIN KSTC 301615Z AUTO 26012KT 10SM CLR 27/10 A2992 1030 34 2600 260/12 RMK AO2
14926KSTC STC20000630102009906/30/00 10:20:31  5-MIN KSTC 301620Z AUTO 26011KT 10SM CLR 27/09 A2992 1030 33 2600 250/11 RMK AO2
14926KSTC STC20000630102509906/30/00 10:25:31  5-MIN KSTC 301625Z AUTO 26011KT 10SM CLR 27/10 A2992 1030 34 2600 260/11 RMK AO2
14926KSTC STC20000630103009906/30/00 10:30:31  5-MIN KSTC 301630Z AUTO 27010KT 10SM CLR 27/09 A2992 1030 33 2600 270/10 RMK AO2
14926KSTC STC20000630103509906/30/00 10:35:31  5-MIN KSTC 301635Z AUTO 25009KT 10SM CLR 27/11 A2992 1030 34 2700 240/09 RMK AO2
14926KSTC STC20000630104009906/30/00 10:40:31  5-MIN KSTC 301640Z AUTO 25010KT 10SM CLR 27/11 A2992 1030 36 2600 250/10 RMK AO2
14926KSTC STC20000630104509906/30/00 10:45:31  5-MIN KSTC 301645Z AUTO 25011KT 10SM CLR 27/11 A2992 1030 36 2600 240/11 RMK AO2
14926KSTC STC20000630105012206/30/00 10:50:31  5-MIN KSTC 301650Z AUTO 22011G16KT 10SM CLR 27/10 A2992 1030 33 2700 220/11G16 RMK AO2 SLP137 T02720100
14926KSTC STC20000630105510506/30/00 10:55:31  5-MIN KSTC 301655Z AUTO 24011G16KT 10SM CLR 27/10 A2992 1030 33 2700 240/11G16 RMK AO2
14926KSTC STC20000630110009906/30/00 11:00:31  5-MIN KSTC 301700Z AUTO 25011KT 10SM CLR 27/09 A2992 1030 32 2700 240/11 RMK AO2
14926KSTC STC20000630110509906/30/00 11:05:31  5-MIN KSTC 301705Z AUTO 26012KT 10SM CLR 27/10 A2992 1030 33 2700 260/12 RMK AO2
14926KSTC STC20000630111009906/30/00 11:10:31  5-MIN KSTC 301710Z AUTO 24012KT 10SM CLR 27/10 A2992 1030 33 2700 230/12 RMK AO2
14926KSTC STC20000630111509906/30/00 11:15:31  5-MIN KSTC 301715Z AUTO 26013KT 10SM CLR 27/09 A2992 1030 32 2700 250/13 RMK AO2
14926KSTC STC20000630112009906/30/00 11:20:31  5-MIN KSTC 301720Z AUTO 21013KT 10SM CLR 28/11 A2991 1030 33 2800 210/13 RMK AO2
14926KSTC STC20000630112510506/30/00 11:25:31  5-MIN KSTC 301725Z AUTO 24013G18KT 10SM CLR 28/10 A2991 1030 32 2800 230/13G18 RMK AO2
14926KSTC STC20000630113010506/30/00 11:30:31  5-MIN KSTC 301730Z AUTO 24010G18KT 10SM CLR 28/10 A2991 1030 32 2800 240/10G18 RMK AO2
14926KSTC STC20000630113510506/30/00 11:35:31  5-MIN KSTC 301735Z AUTO 23011G18KT 10SM CLR 28/10 A2991 1030 32 2800 230/11G18 RMK AO2
14926KSTC STC20000630114010506/30/00 11:40:31  5-MIN KSTC 301740Z AUTO 25011G18KT 10SM CLR 27/10 A2991 1030 33 2700 250/11G18 RMK AO2
14926KSTC STC20000630114509906/30/00 11:45:31  5-MIN KSTC 301745Z AUTO 22012KT 10SM CLR 28/10 A2991 1040 32 2800 210/12 RMK AO2
14926KSTC STC20000630115013406/30/00 11:50:31  5-MIN KSTC 301750Z AUTO 21015KT 10SM CLR 28/10 A2991 1030 32 2800 210/15 RMK AO2 SLP134 T02780100 10278 20133 50000
14926KSTC STC20000630115509906/30/00 11:55:31  5-MIN KSTC 301755Z AUTO 21013KT 10SM CLR 28/11 A2991 1030 33 2800 210/13 RMK AO2
14926KSTC STC20000630120009906/30/00 12:00:31  5-MIN KSTC 301800Z AUTO 23013KT 10SM CLR 28/11 A2991 1040 33 2800 220/13 RMK AO2
14926KSTC STC20000630120509906/30/00 12:05:31  5-MIN KSTC 301805Z AUTO 23013KT 10SM CLR 28/11 A2991 1030 32 2800 230/13 RMK AO2
14926KSTC STC20000630121009906/30/00 12:10:31  5-MIN KSTC 301810Z AUTO 27012KT 10SM CLR 28/09 A2991 1040 30 2800 270/12 RMK AO2
14926KSTC STC20000630121510506/30/00 12:15:31  5-MIN KSTC 301815Z AUTO 25014G19KT 10SM CLR 28/10 A2991 1040 31 2800 240/14G19 RMK AO2
14926KSTC STC20000630122010506/30/00 12:20:31  5-MIN KSTC 301820Z AUTO 26012G20KT 10SM CLR 28/10 A2991 1040 31 2800 250/12G20 RMK AO2
14926KSTC STC20000630122510506/30/00 12:25:31  5-MIN KSTC 301825Z AUTO 26013G20KT 10SM CLR 28/10 A2991 1040 31 2800 260/13G20 RMK AO2
14926KSTC STC20000630123010506/30/00 12:30:31  5-MIN KSTC 301830Z AUTO 24013G18KT 10SM CLR 28/10 A2991 1040 31 2800 230/13G18 RMK AO2
14926KSTC STC20000630123510506/30/00 12:35:31  5-MIN KSTC 301835Z AUTO 24011G18KT 10SM CLR 28/09 A2991 1040 31 2800 230/11G18 RMK AO2
14926KSTC STC20000630124010506/30/00 12:40:31  5-MIN KSTC 301840Z AUTO 27014G20KT 10SM CLR 28/10 A2991 1040 31 2800 260/14G20 RMK AO2
14926KSTC STC20000630124510506/30/00 12:45:31  5-MIN KSTC 301845Z AUTO 25010G20KT 10SM CLR 28/09 A2990 1040 31 2800 240/10G20 RMK AO2
14926KSTC STC20000630125012206/30/00 12:50:31  5-MIN KSTC 301850Z AUTO 26014G18KT 10SM CLR 28/10 A2990 1040 32 2800 250/14G18 RMK AO2 SLP131 T02780100
14926KSTC STC20000630125510506/30/00 12:55:31  5-MIN KSTC 301855Z AUTO 25011G18KT 10SM CLR 28/10 A2991 1040 31 2800 240/11G18 RMK AO2
14926KSTC STC20000630130009906/30/00 13:00:31  5-MIN KSTC 301900Z AUTO 24011KT 10SM CLR 28/10 A2990 1040 31 2800 240/11 RMK AO2
14926KSTC STC20000630130509906/30/00 13:05:31  5-MIN KSTC 301905Z AUTO 24012KT 10SM CLR 28/09 A2990 1040 30 2800 230/12 RMK AO2
14926KSTC STC20000630131009906/30/00 13:10:31  5-MIN KSTC 301910Z AUTO 25012KT 10SM CLR 28/10 A2990 1040 31 2800 240/12 RMK AO2
14926KSTC STC20000630131509906/30/00 13:15:31  5-MIN KSTC 301915Z AUTO 25012KT 10SM CLR 28/10 A2990 1040 31 2800 250/12 RMK AO2
14926KSTC STC20000630132009906/30/00 13:20:31  5-MIN KSTC 301920Z AUTO 24013KT 10SM CLR 28/09 A2990 1050 30 2900 240/13 RMK AO2
14926KSTC STC20000630132509906/30/00 13:25:31  5-MIN KSTC 301925Z AUTO 25012KT 10SM CLR 28/10 A2990 1050 31 2900 250/12 RMK AO2
14926KSTC STC20000630133009906/30/00 13:30:31  5-MIN KSTC 301930Z AUTO 23013KT 10SM CLR 29/10 A2990 1050 30 2900 220/13 RMK AO2
14926KSTC STC20000630133510506/30/00 13:35:31  5-MIN KSTC 301935Z AUTO 25013G17KT 10SM CLR 29/09 A2990 1050 29 2900 250/13G17 RMK AO2
14926KSTC STC20000630134010506/30/00 13:40:31  5-MIN KSTC 301940Z AUTO 24013G18KT 10SM CLR 29/09 A2990 1050 28 2900 240/13G18 RMK AO2
14926KSTC STC20000630134510506/30/00 13:45:31  5-MIN KSTC 301945Z AUTO 23009G18KT 10SM CLR 28/09 A2990 1050 29 2900 220/09G18 RMK AO2
14926KSTC STC20000630135011606/30/00 13:50:31  5-MIN KSTC 301950Z AUTO 25010KT 10SM CLR 29/09 A2989 1050 28 2900 250/10 RMK AO2 SLP126 T02890089
14926KSTC STC20000630135509906/30/00 13:55:31  5-MIN KSTC 301955Z AUTO 25011KT 10SM CLR 29/09 A2989 1050 29 2900 250/11 RMK AO2
14926KSTC STC20000630140010506/30/00 14:00:31  5-MIN KSTC 302000Z AUTO 26011G15KT 10SM CLR 29/09 A2989 1060 29 2900 260/11G15 RMK AO2
14926KSTC STC20000630140510506/30/00 14:05:31  5-MIN KSTC 302005Z AUTO 23009G15KT 10SM CLR 29/09 A2989 1050 28 2900 220/09G15 RMK AO2
14926KSTC STC20000630141009906/30/00 14:10:31  5-MIN KSTC 302010Z AUTO 24013KT 10SM CLR 29/09 A2989 1050 28 2900 230/13 RMK AO2
14926KSTC STC20000630141509906/30/00 14:15:31  5-MIN KSTC 302015Z AUTO 23009KT 10SM CLR 29/09 A2989 1060 29 2900 230/09 RMK AO2
14926KSTC STC20000630142010506/30/00 14:20:31  5-MIN KSTC 302020Z AUTO 24011G16KT 10SM CLR 29/09 A2989 1060 29 2900 240/11G16 RMK AO2
14926KSTC STC20000630142510506/30/00 14:25:31  5-MIN KSTC 302025Z AUTO 23010G16KT 10SM CLR 29/09 A2989 1060 28 3000 230/10G16 RMK AO2
14926KSTC STC20000630143009906/30/00 14:30:31  5-MIN KSTC 302030Z AUTO 20010KT 10SM CLR 29/09 A2988 1060 29 2900 200/10 RMK AO2
14926KSTC STC20000630143509906/30/00 14:35:31  5-MIN KSTC 302035Z AUTO 21012KT 10SM CLR 29/10 A2988 1060 29 3000 200/12 RMK AO2
14926KSTC STC20000630144009906/30/00 14:40:31  5-MIN KSTC 302040Z AUTO 23010KT 10SM CLR 29/10 A2988 1060 29 3000 230/10 RMK AO2
14926KSTC STC20000630144509906/30/00 14:45:31  5-MIN KSTC 302045Z AUTO 22013KT 10SM CLR 29/10 A2988 1060 29 3000 210/13 RMK AO2
14926KSTC STC20000630145012206/30/00 14:50:31  5-MIN KSTC 302050Z AUTO 22009KT 10SM CLR 29/09 A2988 1060 29 2900 220/09 RMK AO2 SLP123 T02890094 58004
14926KSTC STC20000630145509906/30/00 14:55:31  5-MIN KSTC 302055Z AUTO 22014KT 10SM CLR 29/09 A2988 1060 28 2900 220/14 RMK AO2
14926KSTC STC20000630150009906/30/00 15:00:31  5-MIN KSTC 302100Z AUTO 25007KT 10SM CLR 29/09 A2988 1070 28 3000 250/07 RMK AO2
14926KSTC STC20000630150511506/30/00 15:05:31  5-MIN KSTC 302105Z AUTO 24012KT 200V260 10SM CLR 29/10 A2988 1070 29 3000 230/12 200V260 RMK AO2
14926KSTC STC20000630151009906/30/00 15:10:31  5-MIN KSTC 302110Z AUTO 22011KT 10SM CLR 29/10 A2988 1070 29 3000 220/11 RMK AO2
14926KSTC STC20000630151509906/30/00 15:15:31  5-MIN KSTC 302115Z AUTO 23009KT 10SM CLR 29/09 A2988 1070 29 2900 230/09 RMK AO2
14926KSTC STC20000630152009906/30/00 15:20:31  5-MIN KSTC 302120Z AUTO 22007KT 10SM CLR 29/09 A2988 1070 29 2900 220/07 RMK AO2
14926KSTC STC20000630152509906/30/00 15:25:31  5-MIN KSTC 302125Z AUTO 23010KT 10SM CLR 29/10 A2987 1070 29 3000 220/10 RMK AO2
14926KSTC STC20000630153009906/30/00 15:30:31  5-MIN KSTC 302130Z AUTO 23010KT 10SM CLR 29/09 A2987 1070 28 3000 230/10 RMK AO2
14926KSTC STC20000630153509906/30/00 15:35:31  5-MIN KSTC 302135Z AUTO 25012KT 10SM CLR 29/09 A2987 1070 28 3000 240/12 RMK AO2
14926KSTC STC20000630154009906/30/00 15:40:31  5-MIN KSTC 302140Z AUTO 22011KT 10SM CLR 29/09 A2987 1070 27 3000 210/11 RMK AO2
14926KSTC STC20000630154509906/30/00 15:45:31  5-MIN KSTC 302145Z AUTO 24012KT 10SM CLR 29/09 A2987 1070 28 2900 230/12 RMK AO2
14926KSTC STC20000630155011606/30/00 15:50:31  5-MIN KSTC 302150Z AUTO 22010KT 10SM CLR 29/10 A2987 1070 29 3000 210/10 RMK AO2 SLP119 T02940100
14926KSTC STC20000630155509906/30/00 15:55:31  5-MIN KSTC 302155Z AUTO 24007KT 10SM CLR 29/09 A2987 1080 28 3000 240/07 RMK AO2
14926KSTC STC20000630160009906/30/00 16:00:31  5-MIN KSTC 302200Z AUTO 22007KT 10SM CLR 29/09 A2986 1080 28 3000 210/07 RMK AO2
14926KSTC STC20000630160509906/30/00 16:05:31  5-MIN KSTC 302205Z AUTO 22013KT 10SM CLR 29/10 A2987 1080 29 3000 220/13 RMK AO2
14926KSTC STC20000630161009906/30/00 16:10:31  5-MIN KSTC 302210Z AUTO 23011KT 10SM CLR 29/09 A2987 1080 28 3000 230/11 RMK AO2
14926KSTC STC20000630161509906/30/00 16:15:31  5-MIN KSTC 302215Z AUTO 23010KT 10SM CLR 29/09 A2986 1080 28 3000 220/10 RMK AO2
14926KSTC STC20000630162009906/30/00 16:20:31  5-MIN KSTC 302220Z AUTO 22011KT 10SM CLR 29/09 A2986 1080 29 3000 210/11 RMK AO2
14926KSTC STC20000630162509906/30/00 16:25:31  5-MIN KSTC 302225Z AUTO 22012KT 10SM CLR 29/09 A2986 1080 29 3000 220/12 RMK AO2
14926KSTC STC20000630163009906/30/00 16:30:31  5-MIN KSTC 302230Z AUTO 24012KT 10SM CLR 29/09 A2986 1080 29 3000 230/12 RMK AO2
14926KSTC STC20000630163509906/30/00 16:35:31  5-MIN KSTC 302235Z AUTO 24011KT 10SM CLR 29/09 A2986 1080 29 3000 240/11 RMK AO2
14926KSTC STC20000630164009906/30/00 16:40:31  5-MIN KSTC 302240Z AUTO 22013KT 10SM CLR 29/09 A2986 1080 29 3000 220/13 RMK AO2
14926KSTC STC20000630164509906/30/00 16:45:31  5-MIN KSTC 302245Z AUTO 21011KT 10SM CLR 29/09 A2986 1090 29 3000 210/11 RMK AO2
14926KSTC STC20000630165011606/30/00 16:50:31  5-MIN KSTC 302250Z AUTO 21011KT 10SM CLR 29/09 A2985 1090 29 3000 210/11 RMK AO2 SLP114 T02890094
14926KSTC STC20000630165509906/30/00 16:55:31  5-MIN KSTC 302255Z AUTO 20012KT 10SM CLR 29/10 A2985 1090 30 3000 200/12 RMK AO2
14926KSTC STC20000630170009906/30/00 17:00:31  5-MIN KSTC 302300Z AUTO 21009KT 10SM CLR 28/11 A2985 1090 32 2900 200/09 RMK AO2
14926KSTC STC20000630170510506/30/00 17:05:31  5-MIN KSTC 302305Z AUTO 21011G17KT 10SM CLR 28/10 A2985 1090 31 2900 210/11G17 RMK AO2
14926KSTC STC20000630171009906/30/00 17:10:31  5-MIN KSTC 302310Z AUTO 23011KT 10SM CLR 28/11 A2986 1090 32 2900 230/11 RMK AO2
14926KSTC STC20000630171510206/30/00 17:15:31  5-MIN KSTC 302315Z AUTO 21009KT 10SM FEW080 28/11 A2986 1090 32 2900 210/09 RMK AO2
14926KSTC STC20000630172010206/30/00 17:20:31  5-MIN KSTC 302320Z AUTO 21011KT 10SM FEW080 28/11 A2986 1090 32 2900 200/11 RMK AO2
14926KSTC STC20000630172509906/30/00 17:25:31  5-MIN KSTC 302325Z AUTO 23011KT 10SM CLR 28/11 A2986 1090 32 2900 230/11 RMK AO2
14926KSTC STC20000630173009906/30/00 17:30:31  5-MIN KSTC 302330Z AUTO 23010KT 10SM CLR 28/10 A2986 1090 31 2900 220/10 RMK AO2
14926KSTC STC20000630173509906/30/00 17:35:31  5-MIN KSTC 302335Z AUTO 22010KT 10SM CLR 29/09 A2985 1090 29 3000 220/10 RMK AO2
14926KSTC STC20000630174009906/30/00 17:40:31  5-MIN KSTC 302340Z AUTO 22010KT 10SM CLR 28/09 A2985 1090 30 2900 220/10 RMK AO2
14926KSTC STC20000630174509906/30/00 17:45:31  5-MIN KSTC 302345Z AUTO 24009KT 10SM CLR 28/10 A2985 1090 31 2900 230/09 RMK AO2
14926KSTC STC20000630175013406/30/00 17:50:31  5-MIN KSTC 302350Z AUTO 23010KT 10SM CLR 28/11 A2985 1090 32 2900 230/10 RMK AO2 SLP113 T02830106 10294 20278 58010
14926KSTC STC20000630175509906/30/00 17:55:31  5-MIN KSTC 302355Z AUTO 22010KT 10SM CLR 28/11 A2985 1090 32 2900 220/10 RMK AO2
14926KSTC STC20000630180009906/30/00 18:00:31  5-MIN KSTC 010000Z AUTO 22008KT 10SM CLR 28/11 A2985 1090 32 2900 220/08 RMK AO2
14926KSTC STC20000630180509906/30/00 18:05:31  5-MIN KSTC 010005Z AUTO 21009KT 10SM CLR 28/11 A2985 1090 32 2900 210/09 RMK AO2
14926KSTC STC20000630181009906/30/00 18:10:31  5-MIN KSTC 010010Z AUTO 21009KT 10SM CLR 28/10 A2985 1100 32 2800 210/09 RMK AO2
14926KSTC STC20000630181509906/30/00 18:15:31  5-MIN KSTC 010015Z AUTO 21010KT 10SM CLR 28/11 A2985 1100 33 2800 210/10 RMK AO2
14926KSTC STC20000630182009906/30/00 18:20:31  5-MIN KSTC 010020Z AUTO 22010KT 10SM CLR 28/11 A2984 1100 35 2900 210/10 RMK AO2
14926KSTC STC20000630182509906/30/00 18:25:31  5-MIN KSTC 010025Z AUTO 22009KT 10SM CLR 28/11 A2984 1100 35 2900 220/09 RMK AO2
14926KSTC STC20000630183009906/30/00 18:30:31  5-MIN KSTC 010030Z AUTO 22011KT 10SM CLR 28/11 A2984 1100 33 2900 220/11 RMK AO2
14926KSTC STC20000630183509906/30/00 18:35:31  5-MIN KSTC 010035Z AUTO 22010KT 10SM CLR 28/11 A2984 1100 33 2900 210/10 RMK AO2
14926KSTC STC20000630184009906/30/00 18:40:31  5-MIN KSTC 010040Z AUTO 22010KT 10SM CLR 27/11 A2984 1100 34 2800 220/10 RMK AO2
14926KSTC STC20000630184509906/30/00 18:45:31  5-MIN KSTC 010045Z AUTO 21008KT 10SM CLR 27/11 A2984 1100 36 2800 210/08 RMK AO2
14926KSTC STC20000630185011606/30/00 18:50:31  5-MIN KSTC 010050Z AUTO 22008KT 10SM CLR 27/12 A2984 1100 38 2700 220/08 RMK AO2 SLP107 T02670117
14926KSTC STC20000630185509906/30/00 18:55:31  5-MIN KSTC 010055Z AUTO 22008KT 10SM CLR 27/11 A2984 1100 37 2700 220/08 RMK AO2
14926KSTC STC20000630190009906/30/00 19:00:31  5-MIN KSTC 010100Z AUTO 21006KT 10SM CLR 27/11 A2984 1100 37 2700 210/06 RMK AO2
14926KSTC STC20000630190509906/30/00 19:05:31  5-MIN KSTC 010105Z AUTO 20006KT 10SM CLR 26/12 A2984 1100 41 2700 200/06 RMK AO2
14926KSTC STC20000630191009906/30/00 19:10:31  5-MIN KSTC 010110Z AUTO 20007KT 10SM CLR 26/13 A2984 1100 44 2600 200/07 RMK AO2
14926KSTC STC20000630191509906/30/00 19:15:31  5-MIN KSTC 010115Z AUTO 20007KT 10SM CLR 26/13 A2984 1110 44 2600 190/07 RMK AO2
14926KSTC STC20000630192009906/30/00 19:20:31  5-MIN KSTC 010120Z AUTO 20007KT 10SM CLR 25/13 A2983 1110 48 2600 190/07 RMK AO2
14926KSTC STC20000630192509906/30/00 19:25:31  5-MIN KSTC 010125Z AUTO 20007KT 10SM CLR 25/13 A2983 1110 48 2600 190/07 RMK AO2
14926KSTC STC20000630193009906/30/00 19:30:31  5-MIN KSTC 010130Z AUTO 20006KT 10SM CLR 24/13 A2983 1110 49 2500 190/06 RMK AO2
14926KSTC STC20000630193509906/30/00 19:35:31  5-MIN KSTC 010135Z AUTO 20006KT 10SM CLR 24/13 A2983 1110 51 2400 190/06 RMK AO2
14926KSTC STC20000630194009906/30/00 19:40:31  5-MIN KSTC 010140Z AUTO 19006KT 10SM CLR 24/13 A2983 1110 51 2400 190/06 RMK AO2
14926KSTC STC20000630194509906/30/00 19:45:31  5-MIN KSTC 010145Z AUTO 20006KT 10SM CLR 23/13 A2983 1110 53 2400 190/06 RMK AO2
14926KSTC STC20000630195011606/30/00 19:50:31  5-MIN KSTC 010150Z AUTO 19005KT 10SM CLR 23/13 A2983 1110 55 2300 190/05 RMK AO2 SLP104 T02280133
14926KSTC STC20000630195509906/30/00 19:55:31  5-MIN KSTC 010155Z AUTO 19005KT 10SM CLR 23/13 A2983 1110 55 2300 190/05 RMK AO2
14926KSTC STC20000630200009906/30/00 20:00:31  5-MIN KSTC 010200Z AUTO 20004KT 10SM CLR 23/13 A2983 1110 55 2300 190/04 RMK AO2
14926KSTC STC20000630200509906/30/00 20:05:31  5-MIN KSTC 010205Z AUTO 19005KT 10SM CLR 22/13 A2983 1110 56 2200 190/05 RMK AO2
14926KSTC STC20000630201009906/30/00 20:10:31  5-MIN KSTC 010210Z AUTO 19005KT 10SM CLR 22/14 A2983 1110 63 2200 180/05 RMK AO2
14926KSTC STC20000630201509906/30/00 20:15:31  5-MIN KSTC 010215Z AUTO 18004KT 10SM CLR 22/14 A2983 1110 63 2200 180/04 RMK AO2
14926KSTC STC20000630202009906/30/00 20:20:31  5-MIN KSTC 010220Z AUTO 18004KT 10SM CLR 21/13 A2983 1110 58 2100 170/04 RMK AO2
14926KSTC STC20000630202509906/30/00 20:25:31  5-MIN KSTC 010225Z AUTO 17005KT 10SM CLR 21/13 A2983 1110 63 2000 170/05 RMK AO2
14926KSTC STC20000630203009906/30/00 20:30:31  5-MIN KSTC 010230Z AUTO 17005KT 10SM CLR 21/13 A2984 1100 60 2000 170/05 RMK AO2
14926KSTC STC20000630203509906/30/00 20:35:31  5-MIN KSTC 010235Z AUTO 17005KT 10SM CLR 21/13 A2984 1100 60 2000 170/05 RMK AO2
14926KSTC STC20000630204009906/30/00 20:40:31  5-MIN KSTC 010240Z AUTO 17006KT 10SM CLR 21/13 A2984 1100 60 2000 170/06 RMK AO2
14926KSTC STC20000630204509906/30/00 20:45:31  5-MIN KSTC 010245Z AUTO 16006KT 10SM CLR 21/13 A2984 1100 60 2000 160/06 RMK AO2
14926KSTC STC20000630205012206/30/00 20:50:31  5-MIN KSTC 010250Z AUTO 17006KT 10SM CLR 21/13 A2984 1100 63 2000 160/06 RMK AO2 SLP108 T02060133 56009
14926KSTC STC20000630205509906/30/00 20:55:31  5-MIN KSTC 010255Z AUTO 16006KT 10SM CLR 21/13 A2984 1100 63 2000 160/06 RMK AO2
14926KSTC STC20000630210009906/30/00 21:00:31  5-MIN KSTC 010300Z AUTO 16006KT 10SM CLR 21/13 A2984 1100 63 2000 160/06 RMK AO2
14926KSTC STC20000630210509906/30/00 21:05:31  5-MIN KSTC 010305Z AUTO 16006KT 10SM CLR 21/13 A2984 1100 63 2000 160/06 RMK AO2
14926KSTC STC20000630211009906/30/00 21:10:31  5-MIN KSTC 010310Z AUTO 16006KT 10SM CLR 21/13 A2984 1100 63 2000 160/06 RMK AO2
14926KSTC STC20000630211509906/30/00 21:15:31  5-MIN KSTC 010315Z AUTO 16007KT 10SM CLR 21/13 A2984 1100 63 2000 160/07 RMK AO2
14926KSTC STC20000630212009906/30/00 21:20:31  5-MIN KSTC 010320Z AUTO 16007KT 10SM CLR 20/13 A2984 1100 65 2000 160/07 RMK AO2
14926KSTC STC20000630212509906/30/00 21:25:31  5-MIN KSTC 010325Z AUTO 16007KT 10SM CLR 20/13 A2984 1100 65 2000 160/07 RMK AO2
14926KSTC STC20000630213009906/30/00 21:30:31  5-MIN KSTC 010330Z AUTO 17007KT 10SM CLR 20/13 A2984 1100 63 2000 160/07 RMK AO2
14926KSTC STC20000630213509906/30/00 21:35:31  5-MIN KSTC 010335Z AUTO 17007KT 10SM CLR 20/13 A2984 1100 63 2000 170/07 RMK AO2
14926KSTC STC20000630214009906/30/00 21:40:31  5-MIN KSTC 010340Z AUTO 18007KT 10SM CLR 21/13 A2984 1100 60 2000 170/07 RMK AO2
14926KSTC STC20000630214509906/30/00 21:45:31  5-MIN KSTC 010345Z AUTO 18007KT 10SM CLR 21/13 A2984 1100 58 2100 180/07 RMK AO2
14926KSTC STC20000630215011606/30/00 21:50:31  5-MIN KSTC 010350Z AUTO 18007KT 10SM CLR 21/13 A2984 1100 58 2100 180/07 RMK AO2 SLP106 T02110128
14926KSTC STC20000630215509906/30/00 21:55:31  5-MIN KSTC 010355Z AUTO 18008KT 10SM CLR 21/13 A2984 1100 58 2100 180/08 RMK AO2
14926KSTC STC20000630220009906/30/00 22:00:31  5-MIN KSTC 010400Z AUTO 18007KT 10SM CLR 21/13 A2984 1100 58 2100 180/07 RMK AO2
14926KSTC STC20000630220509906/30/00 22:05:31  5-MIN KSTC 010405Z AUTO 19007KT 10SM CLR 21/13 A2984 1100 60 2000 180/07 RMK AO2
14926KSTC STC20000630221009906/30/00 22:10:31  5-MIN KSTC 010410Z AUTO 19007KT 10SM CLR 20/13 A2984 1100 65 2000 180/07 RMK AO2
14926KSTC STC20000630221509906/30/00 22:15:31  5-MIN KSTC 010415Z AUTO 19006KT 10SM CLR 20/13 A2984 1100 65 2000 180/06 RMK AO2
14926KSTC STC20000630222009906/30/00 22:20:31  5-MIN KSTC 010420Z AUTO 19007KT 10SM CLR 20/13 A2984 1100 65 2000 190/07 RMK AO2
14926KSTC STC20000630222509906/30/00 22:25:31  5-MIN KSTC 010425Z AUTO 20007KT 10SM CLR 20/13 A2984 1100 65 2000 190/07 RMK AO2
14926KSTC STC20000630223009906/30/00 22:30:31  5-MIN KSTC 010430Z AUTO 20006KT 10SM CLR 19/13 A2984 1100 67 1900 190/06 RMK AO2
14926KSTC STC20000630223509906/30/00 22:35:31  5-MIN KSTC 010435Z AUTO 20006KT 10SM CLR 19/13 A2984 1100 70 1900 200/06 RMK AO2
14926KSTC STC20000630224009906/30/00 22:40:31  5-MIN KSTC 010440Z AUTO 20006KT 10SM CLR 19/13 A2984 1100 70 1900 200/06 RMK AO2
14926KSTC STC20000630224509906/30/00 22:45:31  5-MIN KSTC 010445Z AUTO 20007KT 10SM CLR 19/13 A2984 1100 70 1900 200/07 RMK AO2
14926KSTC STC20000630225011606/30/00 22:50:31  5-MIN KSTC 010450Z AUTO 20006KT 10SM CLR 19/13 A2984 1100 70 1900 190/06 RMK AO2 SLP106 T01890133
14926KSTC STC20000630225509906/30/00 22:55:31  5-MIN KSTC 010455Z AUTO 20006KT 10SM CLR 19/13 A2984 1100 70 1900 190/06 RMK AO2
14926KSTC STC20000630230009906/30/00 23:00:31  5-MIN KSTC 010500Z AUTO 20007KT 10SM CLR 19/13 A2984 1100 70 1900 200/07 RMK AO2
14926KSTC STC20000630230509906/30/00 23:05:31  5-MIN KSTC 010505Z AUTO 20007KT 10SM CLR 19/14 A2984 1110 72 1900 190/07 RMK AO2
14926KSTC STC20000630231009906/30/00 23:10:31  5-MIN KSTC 010510Z AUTO 19006KT 10SM CLR 18/14 A2983 1110 75 1800 190/06 RMK AO2
14926KSTC STC20000630231509906/30/00 23:15:31  5-MIN KSTC 010515Z AUTO 19007KT 10SM CLR 18/13 A2983 1110 72 1800 190/07 RMK AO2
14926KSTC STC20000630232009906/30/00 23:20:31  5-MIN KSTC 010520Z AUTO 19006KT 10SM CLR 18/13 A2983 1110 72 1800 190/06 RMK AO2
14926KSTC STC20000630232509906/30/00 23:25:31  5-MIN KSTC 010525Z AUTO 19007KT 10SM CLR 19/13 A2983 1110 70 1900 190/07 RMK AO2
14926KSTC STC20000630233009906/30/00 23:30:31  5-MIN KSTC 010530Z AUTO 19006KT 10SM CLR 19/13 A2983 1110 70 1900 180/06 RMK AO2
14926KSTC STC20000630233509906/30/00 23:35:31  5-MIN KSTC 010535Z AUTO 19006KT 10SM CLR 19/13 A2983 1110 70 1900 190/06 RMK AO2
14926KSTC STC20000630234009906/30/00 23:40:31  5-MIN KSTC 010540Z AUTO 19005KT 10SM CLR 18/13 A2983 1110 72 1800 190/05 RMK AO2
14926KSTC STC20000630234509906/30/00 23:45:31  5-MIN KSTC 010545Z AUTO 20005KT 10SM CLR 18/13 A2983 1110 75 1700 200/05 RMK AO2
14926KSTC STC20000630235014406/30/00 23:50:31  5-MIN KSTC 010550Z AUTO 20005KT 10SM CLR 18/13 A2983 1110 75 1700 200/05 RMK AO2 SLP105 T01780133 10283 20178 402940106 55003
14926KSTC STC20000630235509906/30/00 23:55:31  5-MIN KSTC 010555Z AUTO 20005KT 10SM CLR 18/14 A2984 1110 78 1700 200/05 RMK AO2
