14926KSTC STC20060201000012502/01/06 00:00:35  5-MIN KSTC 010600Z AUTO 33003KT 3/4SM -SN BR FEW004 OVC011 M01/M02 A2954 1380 92 -100 320/03 RMK AO2 P0001
14926KSTC STC20060201000512502/01/06 00:05:31  5-MIN KSTC 010605Z AUTO 34004KT 3/4SM -SN BR FEW004 OVC011 M01/M02 A2954 1380 92 -100 340/04 RMK AO2 P0002
14926KSTC STC20060201001012302/01/06 00:10:31  5-MIN KSTC 010610Z AUTO 34004KT 1SM -SN BR SCT006 OVC011 M01/M02 A2954 1380 92 -100 340/04 RMK AO2 P0002
14926KSTC STC20060201001512302/01/06 00:15:31  5-MIN KSTC 010615Z AUTO 34004KT 1SM -SN BR BKN006 OVC011 M01/M02 A2953 1390 96 -200 340/04 RMK AO2 P0002
14926KSTC STC20060201002012302/01/06 00:20:31  5-MIN KSTC 010620Z AUTO 34004KT 1SM -SN BR BKN006 OVC011 M01/M02 A2953 1390 92 -100 340/04 RMK AO2 P0003
14926KSTC STC20060201002512302/01/06 00:25:31  5-MIN KSTC 010625Z AUTO 32004KT 1SM -SN BR BKN006 OVC011 M01/M02 A2953 1390 96 -200 320/04 RMK AO2 P0003
14926KSTC STC20060201003011502/01/06 00:30:31  5-MIN KSTC 010630Z AUTO 32004KT 1SM -SN BR VV005 M01/M02 A2953 1390 96 -200 320/04 RMK AO2 P0003
14926KSTC STC20060201003511502/01/06 00:35:31  5-MIN KSTC 010635Z AUTO 32004KT 1SM -SN BR VV005 M01/M02 A2953 1390 96 -200 320/04 RMK AO2 P0003
14926KSTC STC20060201004011502/01/06 00:40:31  5-MIN KSTC 010640Z AUTO 32005KT 1SM -SN BR VV005 M01/M02 A2953 1390 96 -200 320/05 RMK AO2 P0003
14926KSTC STC20060201004511702/01/06 00:45:31  5-MIN KSTC 010645Z AUTO 32005KT 3/4SM -SN BR VV004 M01/M02 A2953 1390 96 -100 320/05 RMK AO2 P0004
14926KSTC STC20060201005013402/01/06 00:50:31  5-MIN KSTC 010650Z AUTO 33006KT 3/4SM -SN BR VV004 M01/M02 A2953 1390 96 -100 320/06 RMK AO2 SLP018 P0004 T10111017
14926KSTC STC20060201005511502/01/06 00:55:31  5-MIN KSTC 010655Z AUTO 32006KT 1SM -SN BR VV004 M01/M02 A2953 1390 96 -100 320/06 RMK AO2 P0000
14926KSTC STC20060201010011702/01/06 01:00:31  5-MIN KSTC 010700Z AUTO 33005KT 3/4SM -SN BR VV003 M01/M02 A2952 1400 96 -100 320/05 RMK AO2 P0000
14926KSTC STC20060201010511702/01/06 01:05:31  5-MIN KSTC 010705Z AUTO 32005KT 3/4SM -SN BR VV003 M01/M02 A2952 1400 96 -100 320/05 RMK AO2 P0001
14926KSTC STC20060201011011802/01/06 01:10:31  5-MIN KSTC 010710Z AUTO 32005KT 1/2SM SN FZFG VV003 M01/M02 A2952 1400 96 -100 320/05 RMK AO2 P0002
14926KSTC STC20060201011511702/01/06 01:15:31  5-MIN KSTC 010715Z AUTO 31006KT 3/4SM -SN BR VV003 M01/M02 A2953 1390 96 -100 310/06 RMK AO2 P0002
14926KSTC STC20060201012011702/01/06 01:20:31  5-MIN KSTC 010720Z AUTO 32005KT 3/4SM -SN BR VV004 M01/M02 A2953 1390 96 -100 310/05 RMK AO2 P0003
14926KSTC STC20060201012511502/01/06 01:25:31  5-MIN KSTC 010725Z AUTO 32006KT 1SM -SN BR VV004 M01/M02 A2953 1390 96 -100 320/06 RMK AO2 P0003
14926KSTC STC20060201013011502/01/06 01:30:31  5-MIN KSTC 010730Z AUTO 33005KT 1SM -SN BR VV005 M01/M02 A2952 1390 96 -100 320/05 RMK AO2 P0003
14926KSTC STC20060201013511502/01/06 01:35:31  5-MIN KSTC 010735Z AUTO 32006KT 1SM -SN BR VV005 M01/M02 A2953 1390 92 -100 320/06 RMK AO2 P0004
14926KSTC STC20060201014011502/01/06 01:40:31  5-MIN KSTC 010740Z AUTO 32006KT 1SM -SN BR VV005 M01/M02 A2953 1390 92 -100 320/06 RMK AO2 P0004
14926KSTC STC20060201014511502/01/06 01:45:31  5-MIN KSTC 010745Z AUTO 32005KT 1SM -SN BR VV006 M01/M02 A2953 1390 92 -100 310/05 RMK AO2 P0004
14926KSTC STC20060201015013202/01/06 01:50:31  5-MIN KSTC 010750Z AUTO 32006KT 1SM -SN BR VV005 M01/M02 A2953 1390 96 -100 310/06 RMK AO2 SLP018 P0005 T10111017
14926KSTC STC20060201015511502/01/06 01:55:31  5-MIN KSTC 010755Z AUTO 31006KT 1SM -SN BR VV005 M01/M02 A2953 1390 96 -200 310/06 RMK AO2 P0000
14926KSTC STC20060201020011502/01/06 02:00:31  5-MIN KSTC 010800Z AUTO 31006KT 1SM -SN BR VV005 M01/M02 A2953 1390 96 -200 310/06 RMK AO2 P0000
14926KSTC STC20060201020511502/01/06 02:05:31  5-MIN KSTC 010805Z AUTO 31006KT 1SM -SN BR VV005 M01/M02 A2953 1390 96 -200 310/06 RMK AO2 P0001
14926KSTC STC20060201021011502/01/06 02:10:31  5-MIN KSTC 010810Z AUTO 31006KT 1SM -SN BR VV005 M01/M02 A2953 1390 92 -100 310/06 RMK AO2 P0001
14926KSTC STC20060201021511502/01/06 02:15:31  5-MIN KSTC 010815Z AUTO 31007KT 1SM -SN BR VV005 M01/M02 A2953 1390 92 -100 310/07 RMK AO2 P0001
14926KSTC STC20060201022012002/01/06 02:20:31  5-MIN KSTC 010820Z AUTO 31007KT 1 1/4SM -SN BR OVC005 M01/M02 A2953 1390 92 -100 310/07 RMK AO2 P0001
14926KSTC STC20060201022513402/01/06 02:25:31  5-MIN KSTC 010825Z AUTO 31008KT 1 1/4SM -SN BR BKN005 BKN013 OVC021 M01/M02 A2953 1390 92 -100 310/08 RMK AO2 P0001
14926KSTC STC20060201023013402/01/06 02:30:31  5-MIN KSTC 010830Z AUTO 31008KT 1 1/4SM -SN BR BKN005 BKN013 OVC019 M01/M02 A2953 1390 92 -100 310/08 RMK AO2 P0002
14926KSTC STC20060201023513402/01/06 02:35:31  5-MIN KSTC 010835Z AUTO 32007KT 1 1/4SM -SN BR SCT005 BKN015 OVC019 M01/M02 A2953 1390 92 -100 310/07 RMK AO2 P0002
14926KSTC STC20060201024013402/01/06 02:40:31  5-MIN KSTC 010840Z AUTO 31007KT 1 1/4SM -SN BR SCT005 BKN015 OVC019 M01/M02 A2953 1390 92 -100 310/07 RMK AO2 P0002
14926KSTC STC20060201024513402/01/06 02:45:31  5-MIN KSTC 010845Z AUTO 31008KT 1 1/2SM -SN BR FEW005 BKN015 OVC019 M01/M02 A2953 1390 92 -100 310/08 RMK AO2 P0002
14926KSTC STC20060201025016302/01/06 02:50:31  5-MIN KSTC 010850Z AUTO 31009KT 1 1/2SM -SN BR FEW007 BKN013 OVC019 M01/M02 A2953 1390 92 -100 310/09 RMK AO2 SLP018 P0002 60012 T10061017 55022
14926KSTC STC20060201025513402/01/06 02:55:31  5-MIN KSTC 010855Z AUTO 30009KT 1 1/2SM -SN BR SCT007 BKN013 OVC019 M01/M02 A2953 1390 92 -100 300/09 RMK AO2 P0000
14926KSTC STC20060201030013402/01/06 03:00:31  5-MIN KSTC 010900Z AUTO 30007KT 1 3/4SM -SN BR SCT007 BKN013 OVC018 M01/M02 A2953 1390 92 -100 300/07 RMK AO2 P0000
14926KSTC STC20060201030512302/01/06 03:05:31  5-MIN KSTC 010905Z AUTO 30010KT 2SM -SN BR SCT007 OVC015 M01/M02 A2953 1390 92 -100 300/10 RMK AO2 P0000
14926KSTC STC20060201031013102/01/06 03:10:31  5-MIN KSTC 010910Z AUTO 30009KT 2SM -SN BR BKN009 OVC015 00/M02 A2953 1390 88 0 300/09 RMK AO2 CIG 005V012 P0000
14926KSTC STC20060201031513502/01/06 03:15:31  5-MIN KSTC 010915Z AUTO 31010KT 2 1/2SM -SN BR BKN009 OVC013 00/M02 A2953 1390 88 0 300/10 RMK AO2 CIG 005V011 P0000
14926KSTC STC20060201032011902/01/06 03:20:31  5-MIN KSTC 010920Z AUTO 31012KT 3SM -SN BR SCT009 OVC013 00/M02 A2953 1390 88 0 310/12 RMK AO2 P0000
14926KSTC STC20060201032512102/01/06 03:25:31  5-MIN KSTC 010925Z AUTO 31014KT 4SM BR BKN011 OVC017 00/M02 A2953 1390 88 0 310/14 RMK AO2 SNE21 P0000
14926KSTC STC20060201033012102/01/06 03:30:31  5-MIN KSTC 010930Z AUTO 31014KT 5SM BR BKN011 OVC017 00/M02 A2953 1390 88 0 310/14 RMK AO2 SNE21 P0000
14926KSTC STC20060201033511402/01/06 03:35:31  5-MIN KSTC 010935Z AUTO 31013KT 5SM BR OVC014 00/M02 A2953 1390 88 0 310/13 RMK AO2 SNE21 P0000
14926KSTC STC20060201034011402/01/06 03:40:31  5-MIN KSTC 010940Z AUTO 31015KT 6SM BR OVC014 00/M02 A2953 1390 88 0 310/15 RMK AO2 SNE21 P0000
14926KSTC STC20060201034512702/01/06 03:45:31  5-MIN KSTC 010945Z AUTO 31012G19KT 6SM BR BKN012 OVC017 00/M02 A2953 1390 88 0 310/12G19 RMK AO2 SNE21 P0000
14926KSTC STC20060201035013502/01/06 03:50:31  5-MIN KSTC 010950Z AUTO 31012KT 7SM BKN012 OVC017 00/M02 A2953 1390 88 0 310/12 RMK AO2 SNE21 SLP017 P0000 T00001017
14926KSTC STC20060201035509902/01/06 03:55:31  5-MIN KSTC 010955Z AUTO 32011KT 7SM OVC012 00/M02 A2953 1390 88 0 310/11 RMK AO2
14926KSTC STC20060201040009902/01/06 04:00:31  5-MIN KSTC 011000Z AUTO 31013KT 7SM OVC010 00/M02 A2953 1390 88 0 310/13 RMK AO2
14926KSTC STC20060201040509902/01/06 04:05:31  5-MIN KSTC 011005Z AUTO 31012KT 7SM OVC010 00/M02 A2953 1390 88 0 310/12 RMK AO2
14926KSTC STC20060201041009902/01/06 04:10:31  5-MIN KSTC 011010Z AUTO 32012KT 7SM OVC010 00/M02 A2953 1390 88 0 310/12 RMK AO2
14926KSTC STC20060201041509902/01/06 04:15:31  5-MIN KSTC 011015Z AUTO 32011KT 8SM OVC010 00/M02 A2952 1400 88 0 310/11 RMK AO2
14926KSTC STC20060201042009902/01/06 04:20:31  5-MIN KSTC 011020Z AUTO 32013KT 8SM OVC010 00/M02 A2952 1400 88 0 310/13 RMK AO2
14926KSTC STC20060201042509902/01/06 04:25:31  5-MIN KSTC 011025Z AUTO 31012KT 8SM OVC010 00/M02 A2952 1400 88 0 310/12 RMK AO2
14926KSTC STC20060201043009902/01/06 04:30:31  5-MIN KSTC 011030Z AUTO 32013KT 9SM OVC010 00/M02 A2952 1400 88 0 320/13 RMK AO2
14926KSTC STC20060201043509902/01/06 04:35:31  5-MIN KSTC 011035Z AUTO 32012KT 9SM OVC008 00/M02 A2952 1400 88 0 310/12 RMK AO2
14926KSTC STC20060201044010002/01/06 04:40:31  5-MIN KSTC 011040Z AUTO 31015KT 10SM OVC008 00/M02 A2953 1390 88 0 310/15 RMK AO2
14926KSTC STC20060201044510002/01/06 04:45:31  5-MIN KSTC 011045Z AUTO 31013KT 10SM OVC008 00/M02 A2954 1380 85 0 300/13 RMK AO2
14926KSTC STC20060201045011702/01/06 04:50:31  5-MIN KSTC 011050Z AUTO 30013KT 10SM OVC008 00/M02 A2954 1380 85 0 300/13 RMK AO2 SLP021 T00001022
14926KSTC STC20060201045511202/01/06 04:55:31  5-MIN KSTC 011055Z AUTO 29012KT 10SM OVC008 00/M02 A2954 1380 85 0 290/12 RMK AO2 CIG 008V012
14926KSTC STC20060201050010002/01/06 05:00:31  5-MIN KSTC 011100Z AUTO 30011KT 10SM OVC008 00/M02 A2954 1380 85 0 300/11 RMK AO2
14926KSTC STC20060201050510002/01/06 05:05:31  5-MIN KSTC 011105Z AUTO 29013KT 10SM OVC010 00/M02 A2955 1370 85 0 290/13 RMK AO2
14926KSTC STC20060201051010402/01/06 05:10:31  5-MIN KSTC 011110Z AUTO 30013KT 10SM OVC010 M01/M02 A2955 1370 88 -100 290/13 RMK AO2
14926KSTC STC20060201051512302/01/06 05:15:31  5-MIN KSTC 011115Z AUTO 30011KT 10SM BKN010 OVC014 M01/M02 A2955 1370 88 -100 300/11 RMK AO2 CIG 009V012
14926KSTC STC20060201052011102/01/06 05:20:31  5-MIN KSTC 011120Z AUTO 30011KT 10SM BKN012 OVC017 M01/M02 A2955 1370 88 -100 290/11 RMK AO2
14926KSTC STC20060201052511102/01/06 05:25:31  5-MIN KSTC 011125Z AUTO 30012KT 10SM BKN012 OVC017 M01/M02 A2955 1370 88 -100 300/12 RMK AO2
14926KSTC STC20060201053011102/01/06 05:30:31  5-MIN KSTC 011130Z AUTO 30012KT 10SM SCT012 OVC017 M01/M03 A2955 1370 85 -100 300/12 RMK AO2
14926KSTC STC20060201053510402/01/06 05:35:31  5-MIN KSTC 011135Z AUTO 29012KT 10SM OVC017 M01/M03 A2955 1370 85 -100 290/12 RMK AO2
14926KSTC STC20060201054010402/01/06 05:40:31  5-MIN KSTC 011140Z AUTO 30011KT 10SM OVC017 M01/M03 A2956 1360 85 -100 300/11 RMK AO2
14926KSTC STC20060201054510402/01/06 05:45:31  5-MIN KSTC 011145Z AUTO 29011KT 10SM OVC017 M01/M03 A2956 1360 85 -100 290/11 RMK AO2
14926KSTC STC20060201055015102/01/06 05:50:31  5-MIN KSTC 011150Z AUTO 30011KT 10SM OVC017 M01/M03 A2957 1350 85 -100 290/11 RMK AO2 SLP031 60012 70026 T10061028 10000 21011 55004
14926KSTC STC20060201055510402/01/06 05:55:31  5-MIN KSTC 011155Z AUTO 30010KT 10SM OVC017 M01/M03 A2957 1350 85 -100 290/10 RMK AO2
14926KSTC STC20060201060010402/01/06 06:00:31  5-MIN KSTC 011200Z AUTO 30012KT 10SM OVC017 M01/M03 A2957 1350 85 -100 290/12 RMK AO2
14926KSTC STC20060201060510402/01/06 06:05:31  5-MIN KSTC 011205Z AUTO 30013KT 10SM OVC017 M01/M03 A2958 1340 81 -100 300/13 RMK AO2
14926KSTC STC20060201061010402/01/06 06:10:31  5-MIN KSTC 011210Z AUTO 29011KT 10SM OVC019 M01/M03 A2958 1340 81 -100 290/11 RMK AO2
14926KSTC STC20060201061510402/01/06 06:15:31  5-MIN KSTC 011215Z AUTO 29013KT 10SM OVC019 M01/M03 A2958 1340 81 -100 290/13 RMK AO2
14926KSTC STC20060201062010402/01/06 06:20:31  5-MIN KSTC 011220Z AUTO 30012KT 10SM OVC021 M01/M03 A2958 1340 81 -100 300/12 RMK AO2
14926KSTC STC20060201062510402/01/06 06:25:31  5-MIN KSTC 011225Z AUTO 30011KT 10SM OVC021 M01/M03 A2959 1340 85 -200 290/11 RMK AO2
14926KSTC STC20060201063011102/01/06 06:30:31  5-MIN KSTC 011230Z AUTO 29013KT 10SM SCT016 OVC021 M01/M03 A2959 1340 85 -200 290/13 RMK AO2
14926KSTC STC20060201063511102/01/06 06:35:31  5-MIN KSTC 011235Z AUTO 29014KT 10SM SCT016 OVC021 M01/M03 A2959 1340 85 -200 290/14 RMK AO2
14926KSTC STC20060201064011102/01/06 06:40:31  5-MIN KSTC 011240Z AUTO 30015KT 10SM FEW017 OVC023 M01/M03 A2959 1330 85 -200 300/15 RMK AO2
14926KSTC STC20060201064510402/01/06 06:45:31  5-MIN KSTC 011245Z AUTO 30013KT 10SM OVC023 M01/M04 A2959 1340 81 -200 300/13 RMK AO2
14926KSTC STC20060201065012802/01/06 06:50:31  5-MIN KSTC 011250Z AUTO 30013KT 10SM FEW018 OVC025 M01/M04 A2959 1340 81 -200 300/13 RMK AO2 SLP038 T10111039
14926KSTC STC20060201065511102/01/06 06:55:31  5-MIN KSTC 011255Z AUTO 30012KT 10SM FEW018 OVC025 M01/M04 A2959 1340 81 -200 300/12 RMK AO2
14926KSTC STC20060201070011102/01/06 07:00:31  5-MIN KSTC 011300Z AUTO 30013KT 10SM FEW019 OVC025 M01/M04 A2959 1330 81 -200 290/13 RMK AO2
14926KSTC STC20060201070511002/01/06 07:05:31  5-MIN KSTC 011305Z AUTO 29011G18KT 10SM OVC025 M01/M04 A2959 1330 81 -200 290/11G18 RMK AO2
14926KSTC STC20060201071009902/01/06 07:10:31  5-MIN KSTC 011310Z 29010KT 10SM OVC025 M01/M04 A2959 1330 81 -200 290/10 RMK AO2
14926KSTC STC20060201071509902/01/06 07:15:31  5-MIN KSTC 011315Z 29010KT 10SM OVC025 M02/M04 A2959 1330 85 -300 290/10 RMK AO2
14926KSTC STC20060201072009902/01/06 07:20:31  5-MIN KSTC 011320Z 30011KT 10SM OVC025 M01/M04 A2959 1330 81 -200 290/11 RMK AO2
14926KSTC STC20060201072509902/01/06 07:25:31  5-MIN KSTC 011325Z 30011KT 10SM OVC025 M02/M04 A2959 1330 85 -300 290/11 RMK AO2
14926KSTC STC20060201073009902/01/06 07:30:31  5-MIN KSTC 011330Z 30012KT 10SM OVC025 M02/M04 A2960 1330 85 -300 300/12 RMK AO2
14926KSTC STC20060201073509902/01/06 07:35:31  5-MIN KSTC 011335Z 29011KT 10SM OVC023 M02/M04 A2960 1330 85 -300 290/11 RMK AO2
14926KSTC STC20060201074009902/01/06 07:40:31  5-MIN KSTC 011340Z 30011KT 10SM OVC023 M02/M04 A2960 1330 81 -300 300/11 RMK AO2
14926KSTC STC20060201074509902/01/06 07:45:31  5-MIN KSTC 011345Z 29011KT 10SM OVC023 M02/M04 A2960 1320 81 -300 290/11 RMK AO2
14926KSTC STC20060201075011602/01/06 07:50:31  5-MIN KSTC 011350Z 29011KT 10SM OVC023 M02/M04 A2961 1320 81 -300 290/11 RMK AO2 SLP046 T10171044
14926KSTC STC20060201075509902/01/06 07:55:31  5-MIN KSTC 011355Z 28012KT 10SM OVC023 M02/M04 A2961 1320 81 -300 280/12 RMK AO2
14926KSTC STC20060201080009902/01/06 08:00:31  5-MIN KSTC 011400Z 29010KT 10SM OVC023 M02/M04 A2961 1310 81 -300 290/10 RMK AO2
14926KSTC STC20060201080509902/01/06 08:05:31  5-MIN KSTC 011405Z 29011KT 10SM OVC023 M02/M04 A2961 1310 81 -300 290/11 RMK AO2
14926KSTC STC20060201081009902/01/06 08:10:31  5-MIN KSTC 011410Z 29012KT 10SM OVC023 M02/M04 A2962 1310 81 -300 290/12 RMK AO2
14926KSTC STC20060201081509902/01/06 08:15:31  5-MIN KSTC 011415Z 30012KT 10SM OVC023 M02/M05 A2962 1310 78 -300 290/12 RMK AO2
14926KSTC STC20060201082009902/01/06 08:20:31  5-MIN KSTC 011420Z 29012KT 10SM OVC023 M02/M05 A2962 1310 78 -300 290/12 RMK AO2
14926KSTC STC20060201082509902/01/06 08:25:31  5-MIN KSTC 011425Z 30012KT 10SM OVC021 M02/M05 A2962 1310 78 -300 300/12 RMK AO2
14926KSTC STC20060201083009902/01/06 08:30:31  5-MIN KSTC 011430Z 30013KT 10SM OVC021 M02/M05 A2962 1310 78 -300 300/13 RMK AO2
14926KSTC STC20060201083509902/01/06 08:35:31  5-MIN KSTC 011435Z 30015KT 10SM OVC021 M02/M06 A2962 1300 75 -300 300/15 RMK AO2
14926KSTC STC20060201084009902/01/06 08:40:31  5-MIN KSTC 011440Z 30013KT 10SM OVC021 M02/M06 A2962 1300 78 -400 290/13 RMK AO2
14926KSTC STC20060201084509902/01/06 08:45:31  5-MIN KSTC 011445Z 31016KT 10SM OVC021 M02/M06 A2962 1300 78 -400 310/16 RMK AO2
14926KSTC STC20060201085012202/01/06 08:50:31  5-MIN KSTC 011450Z 31011KT 10SM OVC019 M02/M06 A2963 1300 78 -400 300/11 RMK AO2 SLP052 T10221056 53012
14926KSTC STC20060201085509902/01/06 08:55:31  5-MIN KSTC 011455Z 30012KT 10SM OVC019 M02/M06 A2963 1300 78 -400 300/12 RMK AO2
14926KSTC STC20060201090009902/01/06 09:00:31  5-MIN KSTC 011500Z 31013KT 10SM OVC019 M02/M06 A2963 1300 78 -400 310/13 RMK AO2
14926KSTC STC20060201090509902/01/06 09:05:31  5-MIN KSTC 011505Z 31011KT 10SM OVC017 M02/M06 A2963 1300 78 -400 310/11 RMK AO2
14926KSTC STC20060201091009902/01/06 09:10:31  5-MIN KSTC 011510Z 31010KT 10SM OVC017 M02/M06 A2962 1300 78 -400 300/10 RMK AO2
14926KSTC STC20060201091509902/01/06 09:15:31  5-MIN KSTC 011515Z 31011KT 10SM OVC017 M02/M06 A2963 1300 78 -400 310/11 RMK AO2
14926KSTC STC20060201092009902/01/06 09:20:31  5-MIN KSTC 011520Z 30007KT 10SM OVC017 M02/M06 A2963 1300 78 -400 290/07 RMK AO2
14926KSTC STC20060201092509902/01/06 09:25:31  5-MIN KSTC 011525Z 29009KT 10SM OVC017 M02/M06 A2963 1290 78 -400 280/09 RMK AO2
14926KSTC STC20060201093009902/01/06 09:30:31  5-MIN KSTC 011530Z 30009KT 10SM OVC017 M02/M06 A2964 1290 78 -400 300/09 RMK AO2
14926KSTC STC20060201093509902/01/06 09:35:31  5-MIN KSTC 011535Z 27012KT 10SM OVC015 M02/M06 A2964 1290 78 -400 270/12 RMK AO2
14926KSTC STC20060201094009902/01/06 09:40:31  5-MIN KSTC 011540Z 28012KT 10SM OVC015 M02/M06 A2964 1280 78 -400 270/12 RMK AO2
14926KSTC STC20060201094509902/01/06 09:45:31  5-MIN KSTC 011545Z 29011KT 10SM OVC015 M02/M06 A2964 1280 78 -400 280/11 RMK AO2
14926KSTC STC20060201095011602/01/06 09:50:31  5-MIN KSTC 011550Z 29012KT 10SM OVC015 M02/M06 A2965 1280 78 -400 290/12 RMK AO2 SLP060 T10221056
14926KSTC STC20060201095509902/01/06 09:55:31  5-MIN KSTC 011555Z 30012KT 10SM OVC015 M02/M06 A2965 1280 75 -400 300/12 RMK AO2
14926KSTC STC20060201100009902/01/06 10:00:31  5-MIN KSTC 011600Z 31013KT 10SM OVC015 M02/M06 A2965 1280 78 -400 310/13 RMK AO2
14926KSTC STC20060201100509902/01/06 10:05:31  5-MIN KSTC 011605Z 30013KT 10SM OVC015 M02/M06 A2965 1280 78 -400 300/13 RMK AO2
14926KSTC STC20060201101009902/01/06 10:10:31  5-MIN KSTC 011610Z 29011KT 10SM OVC015 M02/M06 A2965 1280 75 -400 290/11 RMK AO2
14926KSTC STC20060201101509902/01/06 10:15:31  5-MIN KSTC 011615Z 30011KT 10SM OVC015 M03/M06 A2965 1280 78 -500 300/11 RMK AO2
14926KSTC STC20060201102009902/01/06 10:20:31  5-MIN KSTC 011620Z 30012KT 10SM OVC015 M03/M06 A2965 1280 78 -500 290/12 RMK AO2
14926KSTC STC20060201102509902/01/06 10:25:31  5-MIN KSTC 011625Z 30009KT 10SM OVC015 M03/M06 A2965 1280 78 -500 300/09 RMK AO2
14926KSTC STC20060201103009902/01/06 10:30:31  5-MIN KSTC 011630Z 31011KT 10SM OVC015 M03/M06 A2965 1280 81 -500 310/11 RMK AO2
14926KSTC STC20060201103509902/01/06 10:35:31  5-MIN KSTC 011635Z 30011KT 10SM OVC015 M03/M06 A2965 1280 78 -500 300/11 RMK AO2
14926KSTC STC20060201104009902/01/06 10:40:31  5-MIN KSTC 011640Z 28011KT 10SM OVC015 M03/M06 A2965 1280 78 -500 280/11 RMK AO2
14926KSTC STC20060201104509902/01/06 10:45:31  5-MIN KSTC 011645Z 28011KT 10SM OVC015 M03/M06 A2965 1280 78 -500 280/11 RMK AO2
14926KSTC STC20060201105011602/01/06 10:50:31  5-MIN KSTC 011650Z 28012KT 10SM OVC015 M03/M06 A2965 1280 78 -500 280/12 RMK AO2 SLP061 T10281061
14926KSTC STC20060201105509902/01/06 10:55:31  5-MIN KSTC 011655Z 28011KT 10SM OVC015 M03/M06 A2965 1280 78 -500 280/11 RMK AO2
14926KSTC STC20060201110009902/01/06 11:00:31  5-MIN KSTC 011700Z 28010KT 10SM OVC015 M03/M06 A2965 1270 78 -500 280/10 RMK AO2
14926KSTC STC20060201110509902/01/06 11:05:31  5-MIN KSTC 011705Z 27010KT 10SM OVC015 M03/M06 A2966 1270 78 -500 260/10 RMK AO2
14926KSTC STC20060201111009902/01/06 11:10:31  5-MIN KSTC 011710Z 28011KT 10SM OVC015 M03/M06 A2965 1270 78 -500 280/11 RMK AO2
14926KSTC STC20060201111509902/01/06 11:15:31  5-MIN KSTC 011715Z 28010KT 10SM OVC015 M03/M06 A2966 1270 78 -500 270/10 RMK AO2
14926KSTC STC20060201112009902/01/06 11:20:31  5-MIN KSTC 011720Z 28009KT 10SM OVC015 M03/M06 A2966 1270 78 -500 280/09 RMK AO2
14926KSTC STC20060201112509902/01/06 11:25:31  5-MIN KSTC 011725Z 28011KT 10SM OVC015 M03/M06 A2966 1270 78 -500 270/11 RMK AO2
14926KSTC STC20060201113009902/01/06 11:30:31  5-MIN KSTC 011730Z 28012KT 10SM OVC015 M03/M06 A2966 1270 81 -600 280/12 RMK AO2
14926KSTC STC20060201113509902/01/06 11:35:31  5-MIN KSTC 011735Z 30012KT 10SM OVC015 M03/M07 A2966 1270 78 -600 300/12 RMK AO2
14926KSTC STC20060201114009902/01/06 11:40:31  5-MIN KSTC 011740Z 30011KT 10SM OVC015 M03/M07 A2966 1270 78 -600 300/11 RMK AO2
14926KSTC STC20060201114509902/01/06 11:45:31  5-MIN KSTC 011745Z 29010KT 10SM OVC015 M03/M07 A2966 1270 78 -600 290/10 RMK AO2
14926KSTC STC20060201115013402/01/06 11:50:31  5-MIN KSTC 011750Z 28011KT 10SM OVC015 M03/M07 A2966 1270 78 -600 280/11 RMK AO2 SLP063 T10331067 11006 21033 53019
14926KSTC STC20060201115509902/01/06 11:55:31  5-MIN KSTC 011755Z 29013KT 10SM OVC015 M03/M07 A2966 1270 78 -600 280/13 RMK AO2
14926KSTC STC20060201120009902/01/06 12:00:31  5-MIN KSTC 011800Z 30010KT 10SM OVC015 M03/M07 A2965 1270 78 -600 290/10 RMK AO2
14926KSTC STC20060201120509902/01/06 12:05:31  5-MIN KSTC 011805Z 28010KT 10SM OVC015 M03/M07 A2965 1280 78 -600 280/10 RMK AO2
14926KSTC STC20060201121009802/01/06 12:10:31  5-MIN KSTC 011810Z 29010KT 9SM OVC015 M03/M06 A2965 1280 81 -600 280/10 RMK AO2
14926KSTC STC20060201121509802/01/06 12:15:31  5-MIN KSTC 011815Z 28012KT 9SM OVC015 M03/M07 A2965 1270 78 -600 280/12 RMK AO2
14926KSTC STC20060201122009902/01/06 12:20:31  5-MIN KSTC 011820Z 28011KT 10SM OVC015 M03/M07 A2965 1270 78 -600 270/11 RMK AO2
14926KSTC STC20060201122509902/01/06 12:25:31  5-MIN KSTC 011825Z 27010KT 10SM OVC015 M03/M07 A2965 1270 78 -600 270/10 RMK AO2
14926KSTC STC20060201123009902/01/06 12:30:31  5-MIN KSTC 011830Z 28009KT 10SM OVC015 M03/M07 A2965 1280 78 -600 280/09 RMK AO2
14926KSTC STC20060201123509902/01/06 12:35:31  5-MIN KSTC 011835Z 28011KT 10SM OVC015 M03/M07 A2965 1270 78 -600 270/11 RMK AO2
14926KSTC STC20060201124009902/01/06 12:40:31  5-MIN KSTC 011840Z 29009KT 10SM OVC015 M03/M07 A2965 1270 78 -600 280/09 RMK AO2
14926KSTC STC20060201124509902/01/06 12:45:31  5-MIN KSTC 011845Z 28008KT 10SM OVC015 M03/M07 A2965 1280 78 -600 280/08 RMK AO2
14926KSTC STC20060201125011602/01/06 12:50:31  5-MIN KSTC 011850Z 29011KT 10SM OVC015 M03/M07 A2965 1280 78 -600 280/11 RMK AO2 SLP062 T10331067
14926KSTC STC20060201125509902/01/06 12:55:31  5-MIN KSTC 011855Z 27012KT 10SM OVC015 M04/M07 A2965 1280 81 -600 270/12 RMK AO2
14926KSTC STC20060201130009902/01/06 13:00:31  5-MIN KSTC 011900Z 27012KT 10SM OVC015 M04/M07 A2965 1280 78 -600 270/12 RMK AO2
14926KSTC STC20060201130509902/01/06 13:05:31  5-MIN KSTC 011905Z 28012KT 10SM OVC015 M04/M07 A2964 1280 78 -600 280/12 RMK AO2
14926KSTC STC20060201131009902/01/06 13:10:31  5-MIN KSTC 011910Z 29011KT 10SM OVC015 M04/M07 A2965 1280 78 -600 290/11 RMK AO2
14926KSTC STC20060201131509902/01/06 13:15:31  5-MIN KSTC 011915Z 29013KT 10SM OVC015 M04/M07 A2965 1280 78 -600 290/13 RMK AO2
14926KSTC STC20060201132009902/01/06 13:20:31  5-MIN KSTC 011920Z 28011KT 10SM OVC015 M04/M07 A2965 1280 78 -600 270/11 RMK AO2
14926KSTC STC20060201132509902/01/06 13:25:31  5-MIN KSTC 011925Z 28012KT 10SM OVC015 M04/M07 A2965 1280 78 -600 280/12 RMK AO2
14926KSTC STC20060201133009902/01/06 13:30:31  5-MIN KSTC 011930Z 29012KT 10SM OVC015 M04/M07 A2965 1280 78 -600 290/12 RMK AO2
14926KSTC STC20060201133509902/01/06 13:35:31  5-MIN KSTC 011935Z 30012KT 10SM OVC015 M04/M07 A2964 1280 78 -600 300/12 RMK AO2
14926KSTC STC20060201134009902/01/06 13:40:31  5-MIN KSTC 011940Z 29013KT 10SM OVC015 M04/M07 A2964 1290 78 -600 290/13 RMK AO2
14926KSTC STC20060201134509902/01/06 13:45:31  5-MIN KSTC 011945Z 29009KT 10SM OVC015 M04/M07 A2964 1280 78 -600 290/09 RMK AO2
14926KSTC STC20060201135011602/01/06 13:50:31  5-MIN KSTC 011950Z 29012KT 10SM OVC015 M04/M07 A2964 1280 78 -600 290/12 RMK AO2 SLP060 T10391072
14926KSTC STC20060201135509902/01/06 13:55:31  5-MIN KSTC 011955Z 29012KT 10SM OVC015 M04/M07 A2964 1280 78 -600 290/12 RMK AO2
14926KSTC STC20060201140009902/01/06 14:00:31  5-MIN KSTC 012000Z 29011KT 10SM OVC015 M04/M07 A2964 1280 78 -600 290/11 RMK AO2
14926KSTC STC20060201140509902/01/06 14:05:31  5-MIN KSTC 012005Z 29011KT 10SM OVC015 M04/M07 A2964 1280 78 -600 290/11 RMK AO2
14926KSTC STC20060201141009902/01/06 14:10:31  5-MIN KSTC 012010Z 31011KT 10SM OVC015 M04/M07 A2964 1290 78 -600 310/11 RMK AO2
14926KSTC STC20060201141509902/01/06 14:15:31  5-MIN KSTC 012015Z 30011KT 10SM OVC015 M04/M07 A2964 1290 78 -600 300/11 RMK AO2
14926KSTC STC20060201142009902/01/06 14:20:31  5-MIN KSTC 012020Z 30011KT 10SM OVC015 M04/M07 A2964 1290 78 -600 300/11 RMK AO2
14926KSTC STC20060201142509902/01/06 14:25:31  5-MIN KSTC 012025Z 30010KT 10SM OVC015 M04/M07 A2964 1290 78 -600 290/10 RMK AO2
14926KSTC STC20060201143009902/01/06 14:30:31  5-MIN KSTC 012030Z 30010KT 10SM OVC015 M04/M07 A2964 1290 78 -600 290/10 RMK AO2
14926KSTC STC20060201143509802/01/06 14:35:31  5-MIN KSTC 012035Z 30009KT 9SM OVC015 M04/M07 A2964 1280 78 -600 290/09 RMK AO2
14926KSTC STC20060201144009802/01/06 14:40:31  5-MIN KSTC 012040Z 30010KT 9SM OVC015 M04/M07 A2964 1290 81 -600 300/10 RMK AO2
14926KSTC STC20060201144509802/01/06 14:45:31  5-MIN KSTC 012045Z 28011KT 9SM OVC015 M03/M07 A2964 1280 74 -600 270/11 RMK AO2
14926KSTC STC20060201145012202/01/06 14:50:31  5-MIN KSTC 012050Z 27011KT 10SM OVC015 M04/M07 A2965 1280 78 -600 270/11 RMK AO2 SLP062 T10391072 51010
14926KSTC STC20060201145509902/01/06 14:55:31  5-MIN KSTC 012055Z 27010KT 10SM OVC015 M04/M07 A2965 1280 78 -600 270/10 RMK AO2
14926KSTC STC20060201150009902/01/06 15:00:31  5-MIN KSTC 012100Z 27010KT 10SM OVC015 M04/M07 A2964 1280 78 -600 260/10 RMK AO2
14926KSTC STC20060201150509902/01/06 15:05:31  5-MIN KSTC 012105Z 28010KT 10SM OVC015 M04/M07 A2965 1280 78 -600 280/10 RMK AO2
14926KSTC STC20060201151009902/01/06 15:10:31  5-MIN KSTC 012110Z 29009KT 10SM OVC015 M04/M07 A2964 1280 78 -600 290/09 RMK AO2
14926KSTC STC20060201151509902/01/06 15:15:31  5-MIN KSTC 012115Z 30009KT 10SM OVC015 M04/M07 A2965 1280 78 -600 300/09 RMK AO2
14926KSTC STC20060201152009902/01/06 15:20:31  5-MIN KSTC 012120Z 31009KT 10SM OVC015 M04/M07 A2965 1280 78 -600 310/09 RMK AO2
14926KSTC STC20060201152509802/01/06 15:25:31  5-MIN KSTC 012125Z 29009KT 9SM OVC015 M04/M07 A2965 1280 78 -600 290/09 RMK AO2
14926KSTC STC20060201153009802/01/06 15:30:31  5-MIN KSTC 012130Z 28008KT 9SM OVC015 M04/M07 A2965 1270 78 -600 280/08 RMK AO2
14926KSTC STC20060201153509802/01/06 15:35:31  5-MIN KSTC 012135Z 27005KT 9SM OVC015 M04/M07 A2965 1280 78 -600 260/05 RMK AO2
14926KSTC STC20060201154009802/01/06 15:40:31  5-MIN KSTC 012140Z 26007KT 9SM OVC015 M04/M07 A2965 1270 78 -600 250/07 RMK AO2
14926KSTC STC20060201154509802/01/06 15:45:31  5-MIN KSTC 012145Z 30005KT 9SM OVC015 M03/M07 A2965 1280 74 -600 300/05 RMK AO2
14926KSTC STC20060201155011502/01/06 15:50:31  5-MIN KSTC 012150Z 31007KT 9SM OVC015 M04/M07 A2965 1270 81 -600 300/07 RMK AO2 SLP062 T10391067
14926KSTC STC20060201155509802/01/06 15:55:31  5-MIN KSTC 012155Z 28007KT 9SM OVC015 M03/M07 A2965 1270 78 -600 270/07 RMK AO2
14926KSTC STC20060201160009802/01/06 16:00:31  5-MIN KSTC 012200Z 28006KT 9SM OVC015 M03/M07 A2966 1270 74 -600 280/06 RMK AO2
14926KSTC STC20060201160509802/01/06 16:05:31  5-MIN KSTC 012205Z 29006KT 9SM OVC015 M03/M07 A2966 1270 78 -600 290/06 RMK AO2
14926KSTC STC20060201161010302/01/06 16:10:31  5-MIN KSTC 012210Z AUTO 30006KT 9SM OVC015 M04/M07 A2966 1270 78 -700 300/06 RMK AO2
14926KSTC STC20060201161510302/01/06 16:15:31  5-MIN KSTC 012215Z AUTO 29006KT 9SM OVC015 M04/M07 A2966 1260 81 -700 290/06 RMK AO2
14926KSTC STC20060201162010302/01/06 16:20:31  5-MIN KSTC 012220Z AUTO 29006KT 8SM OVC015 M04/M07 A2966 1260 78 -700 290/06 RMK AO2
14926KSTC STC20060201162510302/01/06 16:25:31  5-MIN KSTC 012225Z AUTO 29008KT 9SM OVC015 M04/M07 A2967 1260 78 -700 280/08 RMK AO2
14926KSTC STC20060201163010302/01/06 16:30:31  5-MIN KSTC 012230Z AUTO 29006KT 9SM OVC015 M04/M07 A2967 1260 78 -700 290/06 RMK AO2
14926KSTC STC20060201163510302/01/06 16:35:31  5-MIN KSTC 012235Z AUTO 28006KT 9SM OVC015 M04/M07 A2967 1260 78 -700 280/06 RMK AO2
14926KSTC STC20060201164010302/01/06 16:40:31  5-MIN KSTC 012240Z AUTO 29006KT 9SM OVC015 M04/M07 A2967 1260 78 -700 290/06 RMK AO2
14926KSTC STC20060201164510302/01/06 16:45:31  5-MIN KSTC 012245Z AUTO 26007KT 9SM OVC015 M04/M07 A2966 1260 78 -700 260/07 RMK AO2
14926KSTC STC20060201165012002/01/06 16:50:31  5-MIN KSTC 012250Z AUTO 25007KT 9SM OVC015 M04/M07 A2966 1260 78 -700 240/07 RMK AO2 SLP066 T10391072
14926KSTC STC20060201165510302/01/06 16:55:31  5-MIN KSTC 012255Z AUTO 25008KT 9SM OVC015 M04/M07 A2967 1260 78 -700 250/08 RMK AO2
14926KSTC STC20060201170010302/01/06 17:00:31  5-MIN KSTC 012300Z AUTO 25008KT 9SM OVC015 M04/M07 A2967 1260 78 -700 240/08 RMK AO2
14926KSTC STC20060201170510302/01/06 17:05:31  5-MIN KSTC 012305Z AUTO 25008KT 9SM OVC015 M04/M07 A2967 1260 78 -700 250/08 RMK AO2
14926KSTC STC20060201171010302/01/06 17:10:31  5-MIN KSTC 012310Z AUTO 26006KT 9SM OVC015 M04/M07 A2967 1260 78 -700 250/06 RMK AO2
14926KSTC STC20060201171510302/01/06 17:15:31  5-MIN KSTC 012315Z AUTO 25007KT 9SM OVC015 M04/M07 A2967 1260 78 -700 240/07 RMK AO2
14926KSTC STC20060201172010302/01/06 17:20:31  5-MIN KSTC 012320Z AUTO 24007KT 9SM OVC015 M04/M07 A2967 1260 78 -700 240/07 RMK AO2
14926KSTC STC20060201172510302/01/06 17:25:31  5-MIN KSTC 012325Z AUTO 25007KT 9SM OVC015 M04/M07 A2967 1260 78 -700 240/07 RMK AO2
14926KSTC STC20060201173010302/01/06 17:30:31  5-MIN KSTC 012330Z AUTO 25007KT 8SM OVC015 M04/M07 A2967 1260 81 -700 250/07 RMK AO2
14926KSTC STC20060201173510302/01/06 17:35:31  5-MIN KSTC 012335Z AUTO 26006KT 9SM OVC015 M04/M07 A2967 1260 81 -700 260/06 RMK AO2
14926KSTC STC20060201174010302/01/06 17:40:31  5-MIN KSTC 012340Z AUTO 25005KT 9SM OVC015 M04/M07 A2968 1250 81 -700 250/05 RMK AO2
14926KSTC STC20060201174510302/01/06 17:45:31  5-MIN KSTC 012345Z AUTO 24006KT 9SM OVC013 M04/M07 A2967 1250 81 -700 240/06 RMK AO2
14926KSTC STC20060201175013802/01/06 17:50:31  5-MIN KSTC 012350Z AUTO 25004KT 9SM OVC013 M04/M07 A2967 1260 81 -700 250/04 RMK AO2 SLP069 T10441072 11033 21044 55003
14926KSTC STC20060201175510302/01/06 17:55:31  5-MIN KSTC 012355Z AUTO 27003KT 9SM OVC013 M04/M07 A2966 1260 81 -700 260/03 RMK AO2
14926KSTC STC20060201180010302/01/06 18:00:31  5-MIN KSTC 020000Z AUTO 00000KT 9SM OVC013 M04/M07 A2966 1270 81 -700 000/00 RMK AO2
14926KSTC STC20060201180510302/01/06 18:05:31  5-MIN KSTC 020005Z AUTO 00000KT 8SM OVC013 M04/M07 A2966 1270 81 -700 000/00 RMK AO2
14926KSTC STC20060201181010302/01/06 18:10:31  5-MIN KSTC 020010Z AUTO 00000KT 8SM OVC013 M04/M07 A2966 1270 81 -700 000/00 RMK AO2
14926KSTC STC20060201181510302/01/06 18:15:31  5-MIN KSTC 020015Z AUTO 24006KT 8SM OVC013 M04/M07 A2967 1260 81 -700 240/06 RMK AO2
14926KSTC STC20060201182010302/01/06 18:20:31  5-MIN KSTC 020020Z AUTO 24003KT 8SM OVC013 M04/M07 A2967 1260 81 -700 240/03 RMK AO2
14926KSTC STC20060201182510302/01/06 18:25:31  5-MIN KSTC 020025Z AUTO 22003KT 8SM OVC013 M04/M07 A2967 1260 81 -700 220/03 RMK AO2
14926KSTC STC20060201183010302/01/06 18:30:31  5-MIN KSTC 020030Z AUTO 23003KT 8SM OVC013 M04/M07 A2967 1260 81 -700 220/03 RMK AO2
14926KSTC STC20060201183510302/01/06 18:35:31  5-MIN KSTC 020035Z AUTO 21003KT 7SM OVC013 M04/M07 A2967 1260 81 -700 210/03 RMK AO2
14926KSTC STC20060201184010302/01/06 18:40:31  5-MIN KSTC 020040Z AUTO 24003KT 7SM OVC013 M04/M07 A2967 1260 81 -700 230/03 RMK AO2
14926KSTC STC20060201184510302/01/06 18:45:31  5-MIN KSTC 020045Z AUTO 00000KT 7SM OVC013 M04/M07 A2967 1260 81 -700 000/00 RMK AO2
14926KSTC STC20060201185012002/01/06 18:50:31  5-MIN KSTC 020050Z AUTO 00000KT 7SM OVC013 M04/M07 A2966 1270 81 -700 000/00 RMK AO2 SLP066 T10441072
14926KSTC STC20060201185510302/01/06 18:55:31  5-MIN KSTC 020055Z AUTO 19004KT 7SM OVC013 M04/M07 A2966 1270 81 -700 190/04 RMK AO2
14926KSTC STC20060201190010302/01/06 19:00:31  5-MIN KSTC 020100Z AUTO 20003KT 7SM OVC013 M04/M07 A2966 1270 81 -700 190/03 RMK AO2
14926KSTC STC20060201190510302/01/06 19:05:31  5-MIN KSTC 020105Z AUTO 17003KT 7SM OVC013 M04/M07 A2966 1270 81 -700 170/03 RMK AO2
14926KSTC STC20060201191010302/01/06 19:10:31  5-MIN KSTC 020110Z AUTO 00000KT 7SM OVC013 M05/M08 A2966 1270 81 -800 000/00 RMK AO2
14926KSTC STC20060201191510302/01/06 19:15:31  5-MIN KSTC 020115Z AUTO 18004KT 7SM OVC013 M05/M07 A2966 1270 84 -800 180/04 RMK AO2
14926KSTC STC20060201192010302/01/06 19:20:31  5-MIN KSTC 020120Z AUTO 18004KT 7SM OVC013 M05/M07 A2966 1260 84 -800 180/04 RMK AO2
14926KSTC STC20060201192510302/01/06 19:25:31  5-MIN KSTC 020125Z AUTO 19005KT 7SM OVC013 M04/M07 A2966 1270 81 -700 180/05 RMK AO2
14926KSTC STC20060201193010302/01/06 19:30:31  5-MIN KSTC 020130Z AUTO 17005KT 7SM OVC013 M04/M07 A2966 1270 81 -700 170/05 RMK AO2
14926KSTC STC20060201193510302/01/06 19:35:31  5-MIN KSTC 020135Z AUTO 18005KT 7SM OVC013 M04/M07 A2967 1260 84 -700 180/05 RMK AO2
14926KSTC STC20060201194010302/01/06 19:40:31  5-MIN KSTC 020140Z AUTO 18005KT 7SM OVC013 M04/M07 A2966 1270 84 -700 180/05 RMK AO2
14926KSTC STC20060201194510302/01/06 19:45:31  5-MIN KSTC 020145Z AUTO 19004KT 7SM OVC013 M04/M07 A2966 1260 84 -700 180/04 RMK AO2
14926KSTC STC20060201195012002/01/06 19:50:31  5-MIN KSTC 020150Z AUTO 19004KT 7SM OVC013 M04/M07 A2967 1260 84 -700 190/04 RMK AO2 SLP067 T10441067
14926KSTC STC20060201195510302/01/06 19:55:31  5-MIN KSTC 020155Z AUTO 18003KT 7SM OVC013 M04/M07 A2966 1270 84 -700 170/03 RMK AO2
14926KSTC STC20060201200010302/01/06 20:00:31  5-MIN KSTC 020200Z AUTO 18004KT 7SM OVC013 M04/M07 A2966 1260 84 -700 180/04 RMK AO2
14926KSTC STC20060201200510302/01/06 20:05:31  5-MIN KSTC 020205Z AUTO 18004KT 7SM OVC013 M04/M07 A2966 1270 84 -700 170/04 RMK AO2
14926KSTC STC20060201201010602/01/06 20:10:31  5-MIN KSTC 020210Z AUTO 17004KT 6SM BR OVC013 M04/M07 A2965 1270 84 -700 170/04 RMK AO2
14926KSTC STC20060201201510602/01/06 20:15:31  5-MIN KSTC 020215Z AUTO 17005KT 6SM BR OVC013 M04/M07 A2966 1270 84 -700 170/05 RMK AO2
14926KSTC STC20060201202010602/01/06 20:20:31  5-MIN KSTC 020220Z AUTO 17006KT 6SM BR OVC013 M04/M07 A2965 1280 84 -700 160/06 RMK AO2
14926KSTC STC20060201202510602/01/06 20:25:31  5-MIN KSTC 020225Z AUTO 16006KT 6SM BR OVC013 M04/M07 A2965 1280 84 -700 160/06 RMK AO2
14926KSTC STC20060201203010602/01/06 20:30:31  5-MIN KSTC 020230Z AUTO 19006KT 6SM BR OVC013 M04/M07 A2966 1270 84 -700 190/06 RMK AO2
14926KSTC STC20060201203510602/01/06 20:35:31  5-MIN KSTC 020235Z AUTO 20006KT 6SM BR OVC013 M04/M07 A2966 1270 84 -700 190/06 RMK AO2
14926KSTC STC20060201204010602/01/06 20:40:31  5-MIN KSTC 020240Z AUTO 19005KT 6SM BR OVC013 M04/M07 A2965 1270 84 -700 190/05 RMK AO2
14926KSTC STC20060201204510602/01/06 20:45:31  5-MIN KSTC 020245Z AUTO 18005KT 6SM BR OVC011 M04/M07 A2965 1280 84 -700 180/05 RMK AO2
14926KSTC STC20060201205012902/01/06 20:50:31  5-MIN KSTC 020250Z AUTO 17005KT 6SM BR OVC011 M04/M07 A2965 1280 84 -700 170/05 RMK AO2 SLP062 T10441067 51007
14926KSTC STC20060201205510602/01/06 20:55:31  5-MIN KSTC 020255Z AUTO 17007KT 6SM BR OVC011 M04/M07 A2965 1280 84 -700 160/07 RMK AO2
14926KSTC STC20060201210010602/01/06 21:00:31  5-MIN KSTC 020300Z AUTO 19007KT 6SM BR OVC011 M04/M07 A2965 1280 84 -700 180/07 RMK AO2
14926KSTC STC20060201210510602/01/06 21:05:31  5-MIN KSTC 020305Z AUTO 17007KT 6SM BR OVC011 M04/M07 A2964 1290 84 -700 170/07 RMK AO2
14926KSTC STC20060201211010602/01/06 21:10:31  5-MIN KSTC 020310Z AUTO 17008KT 6SM BR OVC011 M04/M07 A2964 1290 84 -700 170/08 RMK AO2
14926KSTC STC20060201211510602/01/06 21:15:31  5-MIN KSTC 020315Z AUTO 18006KT 6SM BR OVC011 M04/M07 A2964 1290 84 -700 180/06 RMK AO2
14926KSTC STC20060201212011302/01/06 21:20:31  5-MIN KSTC 020320Z AUTO 17006KT 6SM BR BKN011 OVC085 M04/M07 A2964 1290 84 -700 170/06 RMK AO2
14926KSTC STC20060201212511302/01/06 21:25:31  5-MIN KSTC 020325Z AUTO 17008KT 6SM BR SCT011 OVC080 M04/M07 A2964 1280 84 -700 170/08 RMK AO2
14926KSTC STC20060201213011302/01/06 21:30:31  5-MIN KSTC 020330Z AUTO 18006KT 6SM BR SCT011 OVC085 M04/M07 A2964 1280 84 -700 170/06 RMK AO2
14926KSTC STC20060201213511302/01/06 21:35:31  5-MIN KSTC 020335Z AUTO 17005KT 6SM BR FEW011 OVC085 M04/M07 A2964 1290 84 -700 170/05 RMK AO2
14926KSTC STC20060201214011302/01/06 21:40:31  5-MIN KSTC 020340Z AUTO 16005KT 6SM BR FEW011 OVC090 M04/M07 A2964 1290 84 -700 160/05 RMK AO2
14926KSTC STC20060201214510602/01/06 21:45:31  5-MIN KSTC 020345Z AUTO 16005KT 6SM BR OVC090 M04/M07 A2965 1280 84 -700 160/05 RMK AO2
14926KSTC STC20060201215013002/01/06 21:50:31  5-MIN KSTC 020350Z AUTO 17004KT 6SM BR FEW015 OVC090 M04/M07 A2965 1280 84 -700 160/04 RMK AO2 SLP063 T10441067
14926KSTC STC20060201215511302/01/06 21:55:31  5-MIN KSTC 020355Z AUTO 18006KT 6SM BR FEW015 OVC090 M04/M07 A2965 1280 84 -700 180/06 RMK AO2
14926KSTC STC20060201220011302/01/06 22:00:31  5-MIN KSTC 020400Z AUTO 18006KT 6SM BR FEW015 OVC090 M04/M07 A2965 1280 84 -700 170/06 RMK AO2
14926KSTC STC20060201220510602/01/06 22:05:31  5-MIN KSTC 020405Z AUTO 16005KT 6SM BR OVC090 M04/M07 A2965 1280 84 -700 160/05 RMK AO2
14926KSTC STC20060201221010602/01/06 22:10:31  5-MIN KSTC 020410Z AUTO 15006KT 6SM BR OVC090 M05/M07 A2964 1280 88 -800 140/06 RMK AO2
14926KSTC STC20060201221510602/01/06 22:15:31  5-MIN KSTC 020415Z AUTO 15005KT 6SM BR OVC085 M05/M07 A2964 1290 88 -800 140/05 RMK AO2
14926KSTC STC20060201222011302/01/06 22:20:31  5-MIN KSTC 020420Z AUTO 14007KT 5SM BR BKN085 OVC110 M05/M07 A2964 1290 88 -800 130/07 RMK AO2
14926KSTC STC20060201222511302/01/06 22:25:31  5-MIN KSTC 020425Z AUTO 15006KT 5SM BR BKN090 OVC110 M05/M07 A2963 1290 88 -800 140/06 RMK AO2
14926KSTC STC20060201223011302/01/06 22:30:31  5-MIN KSTC 020430Z AUTO 15008KT 5SM BR SCT090 OVC110 M05/M07 A2963 1290 84 -800 140/08 RMK AO2
14926KSTC STC20060201223511302/01/06 22:35:31  5-MIN KSTC 020435Z AUTO 14006KT 5SM BR FEW090 BKN110 M05/M07 A2962 1300 88 -800 130/06 RMK AO2
14926KSTC STC20060201224011302/01/06 22:40:31  5-MIN KSTC 020440Z AUTO 13007KT 5SM BR FEW085 BKN110 M05/M07 A2962 1310 88 -700 130/07 RMK AO2
14926KSTC STC20060201224510602/01/06 22:45:31  5-MIN KSTC 020445Z AUTO 14006KT 5SM BR BKN110 M05/M07 A2962 1310 88 -700 130/06 RMK AO2
14926KSTC STC20060201225012302/01/06 22:50:31  5-MIN KSTC 020450Z AUTO 13007KT 5SM BR BKN110 M05/M07 A2962 1310 88 -700 130/07 RMK AO2 SLP052 T10501067
14926KSTC STC20060201225510602/01/06 22:55:31  5-MIN KSTC 020455Z AUTO 14007KT 5SM BR BKN110 M05/M07 A2962 1310 88 -700 130/07 RMK AO2
14926KSTC STC20060201230010602/01/06 23:00:31  5-MIN KSTC 020500Z AUTO 14007KT 5SM BR BKN110 M05/M07 A2962 1310 88 -700 130/07 RMK AO2
14926KSTC STC20060201230510602/01/06 23:05:31  5-MIN KSTC 020505Z AUTO 13007KT 5SM BR BKN110 M05/M07 A2961 1310 88 -700 130/07 RMK AO2
14926KSTC STC20060201231010602/01/06 23:10:31  5-MIN KSTC 020510Z AUTO 14008KT 5SM BR BKN100 M04/M07 A2961 1320 84 -700 130/08 RMK AO2
14926KSTC STC20060201231510602/01/06 23:15:31  5-MIN KSTC 020515Z AUTO 14007KT 5SM BR OVC100 M05/M07 A2961 1310 88 -700 130/07 RMK AO2
14926KSTC STC20060201232010602/01/06 23:20:31  5-MIN KSTC 020520Z AUTO 14007KT 6SM BR OVC100 M04/M07 A2961 1320 84 -700 130/07 RMK AO2
14926KSTC STC20060201232510602/01/06 23:25:31  5-MIN KSTC 020525Z AUTO 13007KT 6SM BR OVC100 M04/M07 A2961 1320 84 -700 130/07 RMK AO2
14926KSTC STC20060201233011302/01/06 23:30:31  5-MIN KSTC 020530Z AUTO 13006KT 6SM BR BKN090 OVC110 M04/M07 A2961 1320 84 -700 130/06 RMK AO2
14926KSTC STC20060201233510602/01/06 23:35:31  5-MIN KSTC 020535Z AUTO 13005KT 5SM BR OVC095 M04/M07 A2961 1310 84 -700 130/05 RMK AO2
14926KSTC STC20060201234010602/01/06 23:40:31  5-MIN KSTC 020540Z AUTO VRB03KT 5SM BR OVC095 M04/M06 A2961 1310 88 -700 VRB/03 RMK AO2
14926KSTC STC20060201234510602/01/06 23:45:31  5-MIN KSTC 020545Z AUTO 13004KT 5SM BR OVC095 M04/M06 A2961 1310 88 -700 120/04 RMK AO2
14926KSTC STC20060201235015102/01/06 23:50:31  5-MIN KSTC 020550Z AUTO 12004KT 5SM BR BKN100 M05/M06 A2961 1310 92 -700 110/04 RMK AO2 SLP050 T10501061 11044 21050 400001050 58007
14926KSTC STC20060201235510602/01/06 23:55:31  5-MIN KSTC 020555Z AUTO 11003KT 5SM BR BKN100 M05/M06 A2961 1310 92 -700 100/03 RMK AO2
14926KSTC STC20060202000010602/02/06 00:00:32  5-MIN KSTC 020600Z AUTO 00000KT 5SM BR BKN100 M05/M07 A2961 1310 88 -700 000/00 RMK AO2
14926KSTC STC20060202000510602/02/06 00:05:31  5-MIN KSTC 020605Z AUTO 11003KT 5SM BR BKN100 M05/M07 A2961 1320 88 -700 110/03 RMK AO2
14926KSTC STC20060202001010602/02/06 00:10:31  5-MIN KSTC 020610Z AUTO 12004KT 5SM BR BKN100 M05/M07 A2961 1320 88 -700 120/04 RMK AO2
14926KSTC STC20060202001510602/02/06 00:15:31  5-MIN KSTC 020615Z AUTO 13004KT 5SM BR OVC100 M05/M07 A2961 1320 88 -700 130/04 RMK AO2
14926KSTC STC20060202002010602/02/06 00:20:31  5-MIN KSTC 020620Z AUTO 13005KT 5SM BR OVC100 M05/M07 A2960 1320 88 -700 130/05 RMK AO2
14926KSTC STC20060202002510602/02/06 00:25:31  5-MIN KSTC 020625Z AUTO 13006KT 5SM BR OVC100 M05/M07 A2960 1320 88 -700 130/06 RMK AO2
14926KSTC STC20060202003010602/02/06 00:30:31  5-MIN KSTC 020630Z AUTO 13006KT 5SM BR OVC100 M05/M07 A2959 1330 88 -700 130/06 RMK AO2
14926KSTC STC20060202003510602/02/06 00:35:31  5-MIN KSTC 020635Z AUTO 13006KT 5SM BR OVC095 M05/M07 A2959 1330 88 -700 130/06 RMK AO2
14926KSTC STC20060202004010602/02/06 00:40:31  5-MIN KSTC 020640Z AUTO 12006KT 5SM BR OVC095 M04/M07 A2959 1330 84 -600 120/06 RMK AO2
14926KSTC STC20060202004510602/02/06 00:45:31  5-MIN KSTC 020645Z AUTO 12006KT 5SM BR OVC095 M05/M07 A2959 1340 88 -700 120/06 RMK AO2
14926KSTC STC20060202005012302/02/06 00:50:31  5-MIN KSTC 020650Z AUTO 12006KT 5SM BR OVC095 M05/M07 A2958 1340 88 -700 120/06 RMK AO2 SLP041 T10501067
14926KSTC STC20060202005510602/02/06 00:55:31  5-MIN KSTC 020655Z AUTO 12005KT 5SM BR OVC095 M05/M07 A2958 1340 88 -700 120/05 RMK AO2
14926KSTC STC20060202010010602/02/06 01:00:31  5-MIN KSTC 020700Z AUTO 12005KT 5SM BR OVC095 M05/M06 A2958 1340 92 -700 110/05 RMK AO2
14926KSTC STC20060202010510602/02/06 01:05:31  5-MIN KSTC 020705Z AUTO 12006KT 5SM BR OVC095 M04/M06 A2958 1340 88 -600 120/06 RMK AO2
14926KSTC STC20060202011010602/02/06 01:10:31  5-MIN KSTC 020710Z AUTO 13007KT 5SM BR OVC095 M04/M06 A2957 1350 88 -600 130/07 RMK AO2
14926KSTC STC20060202011510602/02/06 01:15:31  5-MIN KSTC 020715Z AUTO 14008KT 5SM BR OVC095 M04/M06 A2957 1350 88 -600 140/08 RMK AO2
14926KSTC STC20060202012010602/02/06 01:20:31  5-MIN KSTC 020720Z AUTO 13006KT 5SM BR OVC090 M04/M06 A2957 1350 88 -600 130/06 RMK AO2
14926KSTC STC20060202012510602/02/06 01:25:31  5-MIN KSTC 020725Z AUTO 13006KT 5SM BR OVC090 M04/M06 A2957 1350 88 -600 130/06 RMK AO2
14926KSTC STC20060202013010602/02/06 01:30:31  5-MIN KSTC 020730Z AUTO VRB03KT 5SM BR OVC090 M04/M06 A2958 1340 88 -600 VRB/03 RMK AO2
14926KSTC STC20060202013510602/02/06 01:35:31  5-MIN KSTC 020735Z AUTO 00000KT 5SM BR OVC090 M04/M06 A2958 1340 92 -600 000/00 RMK AO2
14926KSTC STC20060202014011302/02/06 01:40:31  5-MIN KSTC 020740Z AUTO 00000KT 5SM BR FEW007 OVC090 M04/M06 A2958 1340 88 -600 000/00 RMK AO2
14926KSTC STC20060202014511302/02/06 01:45:31  5-MIN KSTC 020745Z AUTO 00000KT 5SM BR FEW007 OVC090 M04/M06 A2958 1340 85 -600 000/00 RMK AO2
14926KSTC STC20060202015013002/02/06 01:50:31  5-MIN KSTC 020750Z AUTO VRB03KT 5SM BR SCT007 OVC090 M04/M06 A2958 1340 85 -600 VRB/03 RMK AO2 SLP038 T10391061
14926KSTC STC20060202015511302/02/06 01:55:31  5-MIN KSTC 020755Z AUTO 00000KT 5SM BR SCT007 OVC090 M04/M06 A2958 1340 85 -600 000/00 RMK AO2
14926KSTC STC20060202020011302/02/06 02:00:31  5-MIN KSTC 020800Z AUTO 00000KT 5SM BR SCT007 OVC090 M04/M06 A2958 1350 92 -600 000/00 RMK AO2
14926KSTC STC20060202020511302/02/06 02:05:31  5-MIN KSTC 020805Z AUTO 00000KT 5SM BR SCT007 OVC095 M04/M06 A2957 1350 88 -600 000/00 RMK AO2
14926KSTC STC20060202021011302/02/06 02:10:31  5-MIN KSTC 020810Z AUTO 08004KT 5SM BR SCT007 OVC095 M04/M06 A2958 1350 88 -600 080/04 RMK AO2
14926KSTC STC20060202021511302/02/06 02:15:31  5-MIN KSTC 020815Z AUTO 00000KT 5SM BR SCT007 OVC095 M04/M06 A2958 1350 92 -600 000/00 RMK AO2
14926KSTC STC20060202022011302/02/06 02:20:31  5-MIN KSTC 020820Z AUTO 08003KT 5SM BR SCT007 OVC100 M04/M06 A2957 1350 88 -600 080/03 RMK AO2
14926KSTC STC20060202022511302/02/06 02:25:31  5-MIN KSTC 020825Z AUTO 11005KT 5SM BR SCT007 OVC100 M04/M06 A2957 1360 88 -500 110/05 RMK AO2
14926KSTC STC20060202023011302/02/06 02:30:31  5-MIN KSTC 020830Z AUTO 11007KT 5SM BR FEW007 OVC100 M04/M06 A2956 1360 88 -500 110/07 RMK AO2
14926KSTC STC20060202023511302/02/06 02:35:31  5-MIN KSTC 020835Z AUTO 09005KT 5SM BR FEW007 OVC100 M04/M06 A2956 1360 88 -500 080/05 RMK AO2
14926KSTC STC20060202024011302/02/06 02:40:31  5-MIN KSTC 020840Z AUTO 08005KT 5SM BR FEW007 OVC100 M04/M06 A2956 1360 88 -500 080/05 RMK AO2
14926KSTC STC20060202024510602/02/06 02:45:31  5-MIN KSTC 020845Z AUTO 10006KT 5SM BR OVC100 M04/M06 A2955 1370 88 -500 100/06 RMK AO2
14926KSTC STC20060202025012902/02/06 02:50:31  5-MIN KSTC 020850Z AUTO 12006KT 4SM BR OVC100 M04/M06 A2955 1370 88 -500 120/06 RMK AO2 SLP028 T10391056 58011
14926KSTC STC20060202025510602/02/06 02:55:31  5-MIN KSTC 020855Z AUTO 13007KT 4SM BR OVC100 M04/M06 A2955 1380 88 -500 120/07 RMK AO2
14926KSTC STC20060202030010602/02/06 03:00:31  5-MIN KSTC 020900Z AUTO 12007KT 4SM BR OVC100 M04/M06 A2954 1380 88 -500 120/07 RMK AO2
14926KSTC STC20060202030510602/02/06 03:05:31  5-MIN KSTC 020905Z AUTO 12006KT 4SM BR OVC100 M04/M06 A2954 1380 88 -500 120/06 RMK AO2
14926KSTC STC20060202031010602/02/06 03:10:31  5-MIN KSTC 020910Z AUTO 11006KT 4SM BR OVC100 M04/M06 A2954 1380 88 -500 110/06 RMK AO2
14926KSTC STC20060202031510602/02/06 03:15:31  5-MIN KSTC 020915Z AUTO 12007KT 4SM BR OVC100 M04/M06 A2953 1390 88 -500 120/07 RMK AO2
14926KSTC STC20060202032010602/02/06 03:20:31  5-MIN KSTC 020920Z AUTO 12006KT 4SM BR OVC100 M04/M06 A2953 1380 88 -500 120/06 RMK AO2
14926KSTC STC20060202032510602/02/06 03:25:31  5-MIN KSTC 020925Z AUTO 13006KT 4SM BR OVC100 M04/M06 A2953 1390 88 -500 130/06 RMK AO2
14926KSTC STC20060202033010602/02/06 03:30:31  5-MIN KSTC 020930Z AUTO 13006KT 4SM BR BKN095 M04/M06 A2953 1390 88 -500 130/06 RMK AO2
14926KSTC STC20060202033510602/02/06 03:35:31  5-MIN KSTC 020935Z AUTO 13005KT 4SM BR BKN095 M04/M06 A2953 1390 92 -600 120/05 RMK AO2
14926KSTC STC20060202034010602/02/06 03:40:31  5-MIN KSTC 020940Z AUTO 13005KT 4SM BR SCT095 M04/M06 A2952 1390 92 -600 130/05 RMK AO2
14926KSTC STC20060202034510602/02/06 03:45:31  5-MIN KSTC 020945Z AUTO 12005KT 4SM BR SCT095 M04/M06 A2952 1400 92 -600 120/05 RMK AO2
14926KSTC STC20060202035012302/02/06 03:50:31  5-MIN KSTC 020950Z AUTO 13004KT 4SM BR FEW095 M04/M06 A2952 1400 92 -600 130/04 RMK AO2 SLP020 T10441056
14926KSTC STC20060202035510302/02/06 03:55:31  5-MIN KSTC 020955Z AUTO 13003KT 4SM BR CLR M04/M06 A2953 1390 92 -600 130/03 RMK AO2
14926KSTC STC20060202040010302/02/06 04:00:31  5-MIN KSTC 021000Z AUTO 00000KT 4SM BR CLR M06/M06 A2953 1390 96 -700 000/00 RMK AO2
14926KSTC STC20060202040510302/02/06 04:05:31  5-MIN KSTC 021005Z AUTO 08003KT 4SM BR CLR M05/M06 A2953 1390 92 -600 070/03 RMK AO2
14926KSTC STC20060202041010302/02/06 04:10:31  5-MIN KSTC 021010Z AUTO 00000KT 4SM BR CLR M05/M06 A2953 1390 92 -600 000/00 RMK AO2
14926KSTC STC20060202041510302/02/06 04:15:31  5-MIN KSTC 021015Z AUTO 00000KT 3SM BR CLR M06/M07 A2953 1390 92 -700 000/00 RMK AO2
14926KSTC STC20060202042010302/02/06 04:20:31  5-MIN KSTC 021020Z AUTO 09003KT 3SM BR CLR M05/M07 A2952 1400 88 -600 090/03 RMK AO2
14926KSTC STC20060202042510302/02/06 04:25:31  5-MIN KSTC 021025Z AUTO 11004KT 3SM BR CLR M05/M06 A2952 1400 92 -600 110/04 RMK AO2
14926KSTC STC20060202043010302/02/06 04:30:31  5-MIN KSTC 021030Z AUTO 10004KT 3SM BR CLR M05/M06 A2952 1400 92 -600 090/04 RMK AO2
14926KSTC STC20060202043510302/02/06 04:35:31  5-MIN KSTC 021035Z AUTO 09005KT 3SM BR CLR M06/M06 A2952 1400 96 -700 090/05 RMK AO2
14926KSTC STC20060202044010302/02/06 04:40:31  5-MIN KSTC 021040Z AUTO 09004KT 3SM BR CLR M06/M07 A2951 1400 92 -700 090/04 RMK AO2
14926KSTC STC20060202044510302/02/06 04:45:31  5-MIN KSTC 021045Z AUTO 11004KT 3SM BR CLR M06/M06 A2951 1410 96 -700 110/04 RMK AO2
14926KSTC STC20060202045012002/02/06 04:50:31  5-MIN KSTC 021050Z AUTO 11004KT 3SM BR CLR M06/M06 A2951 1410 96 -700 110/04 RMK AO2 SLP015 T10561061
14926KSTC STC20060202045510302/02/06 04:55:31  5-MIN KSTC 021055Z AUTO 11005KT 3SM BR CLR M05/M06 A2950 1410 92 -600 100/05 RMK AO2
14926KSTC STC20060202050010302/02/06 05:00:31  5-MIN KSTC 021100Z AUTO 11006KT 3SM BR CLR M05/M06 A2950 1420 92 -600 110/06 RMK AO2
14926KSTC STC20060202050510302/02/06 05:05:31  5-MIN KSTC 021105Z AUTO 11006KT 3SM BR CLR M05/M06 A2949 1420 92 -600 110/06 RMK AO2
14926KSTC STC20060202051010302/02/06 05:10:31  5-MIN KSTC 021110Z AUTO 11007KT 3SM BR CLR M05/M06 A2949 1420 92 -600 100/07 RMK AO2
14926KSTC STC20060202051510302/02/06 05:15:31  5-MIN KSTC 021115Z AUTO 11006KT 3SM BR CLR M05/M06 A2949 1420 92 -600 100/06 RMK AO2
14926KSTC STC20060202052010302/02/06 05:20:31  5-MIN KSTC 021120Z AUTO 10004KT 3SM BR CLR M05/M06 A2950 1420 92 -600 100/04 RMK AO2
14926KSTC STC20060202052510302/02/06 05:25:31  5-MIN KSTC 021125Z AUTO 10006KT 3SM BR CLR M05/M06 A2949 1430 92 -600 100/06 RMK AO2
14926KSTC STC20060202053010302/02/06 05:30:31  5-MIN KSTC 021130Z AUTO 11007KT 3SM BR CLR M06/M06 A2948 1430 96 -700 100/07 RMK AO2
14926KSTC STC20060202053510302/02/06 05:35:31  5-MIN KSTC 021135Z AUTO 11006KT 3SM BR CLR M06/M06 A2949 1430 96 -700 100/06 RMK AO2
14926KSTC STC20060202054010302/02/06 05:40:31  5-MIN KSTC 021140Z AUTO 11005KT 3SM BR CLR M06/M06 A2948 1430 96 -700 110/05 RMK AO2
14926KSTC STC20060202054510302/02/06 05:45:31  5-MIN KSTC 021145Z AUTO 11006KT 3SM BR CLR M05/M06 A2948 1440 92 -600 100/06 RMK AO2
14926KSTC STC20060202055013802/02/06 05:50:31  5-MIN KSTC 021150Z AUTO 12005KT 3SM BR CLR M06/M06 A2948 1440 96 -700 110/05 RMK AO2 SLP005 T10561061 11039 21056 58022
14926KSTC STC20060202055510302/02/06 05:55:31  5-MIN KSTC 021155Z AUTO 12005KT 3SM BR CLR M05/M06 A2948 1440 92 -600 120/05 RMK AO2
14926KSTC STC20060202060010302/02/06 06:00:31  5-MIN KSTC 021200Z AUTO 12006KT 3SM BR CLR M06/M06 A2948 1440 96 -700 120/06 RMK AO2
14926KSTC STC20060202060510302/02/06 06:05:31  5-MIN KSTC 021205Z AUTO 12006KT 3SM BR CLR M05/M06 A2948 1440 92 -600 110/06 RMK AO2
14926KSTC STC20060202061010302/02/06 06:10:31  5-MIN KSTC 021210Z AUTO 10004KT 3SM BR CLR M05/M06 A2948 1440 92 -600 100/04 RMK AO2
14926KSTC STC20060202061510302/02/06 06:15:31  5-MIN KSTC 021215Z AUTO 11003KT 3SM BR CLR M06/M06 A2948 1430 96 -700 110/03 RMK AO2
14926KSTC STC20060202062010302/02/06 06:20:31  5-MIN KSTC 021220Z AUTO 00000KT 3SM BR CLR M06/M07 A2949 1430 92 -700 000/00 RMK AO2
14926KSTC STC20060202062510302/02/06 06:25:31  5-MIN KSTC 021225Z AUTO 00000KT 3SM BR CLR M06/M07 A2949 1430 92 -700 000/00 RMK AO2
14926KSTC STC20060202063010602/02/06 06:30:31  5-MIN KSTC 021230Z AUTO 00000KT 3SM BR FEW004 M06/M07 A2949 1430 92 -700 000/00 RMK AO2
14926KSTC STC20060202063511002/02/06 06:35:31  5-MIN KSTC 021235Z AUTO 00000KT 2 1/2SM BR FEW004 M06/M07 A2949 1430 88 -700 000/00 RMK AO2
14926KSTC STC20060202064011002/02/06 06:40:31  5-MIN KSTC 021240Z AUTO 00000KT 2 1/2SM BR FEW004 M06/M07 A2948 1430 92 -700 000/00 RMK AO2
14926KSTC STC20060202064510502/02/06 06:45:31  5-MIN KSTC 021245Z 00000KT 2 1/2SM BR SCT004 M07/M08 A2948 1430 92 -800 000/00 RMK AO2
14926KSTC STC20060202065012202/02/06 06:50:31  5-MIN KSTC 021250Z 00000KT 2 1/2SM BR BKN004 M07/M08 A2948 1430 92 -800 000/00 RMK AO2 SLP007 T10671078
14926KSTC STC20060202065510502/02/06 06:55:31  5-MIN KSTC 021255Z 00000KT 2 1/2SM BR BKN004 M07/M08 A2948 1440 92 -800 000/00 RMK AO2
14926KSTC STC20060202070011202/02/06 07:00:31  5-MIN KSTC 021300Z 08005KT 2 1/2SM BR BKN004 BKN110 M07/M08 A2948 1440 92 -800 080/05 RMK AO2
14926KSTC STC20060202070511202/02/06 07:05:31  5-MIN KSTC 021305Z 09004KT 2 1/2SM BR BKN004 BKN120 M07/M08 A2948 1440 92 -800 090/04 RMK AO2
14926KSTC STC20060202071010802/02/06 07:10:31  5-MIN KSTC 021310Z 10003KT 3SM BR BKN004 OVC120 M07/M08 A2948 1440 92 -800 100/03 RMK AO2
14926KSTC STC20060202071510802/02/06 07:15:31  5-MIN KSTC 021315Z 00000KT 3SM BR BKN004 OVC120 M07/M07 A2948 1440 96 -800 000/00 RMK AO2
14926KSTC STC20060202072011202/02/06 07:20:31  5-MIN KSTC 021320Z 00000KT 2 1/2SM BR SCT004 OVC110 M07/M08 A2948 1440 92 -800 000/00 RMK AO2
14926KSTC STC20060202072511202/02/06 07:25:31  5-MIN KSTC 021325Z 00000KT 2 1/2SM BR SCT004 OVC110 M07/M08 A2948 1440 92 -900 000/00 RMK AO2
14926KSTC STC20060202073010802/02/06 07:30:31  5-MIN KSTC 021330Z 00000KT 2SM BR FEW004 OVC110 M07/M09 A2948 1440 88 -900 000/00 RMK AO2
14926KSTC STC20060202073511202/02/06 07:35:31  5-MIN KSTC 021335Z 00000KT 1 1/4SM BR FEW004 OVC110 M08/M09 A2948 1440 92 -900 000/00 RMK AO2
14926KSTC STC20060202074010802/02/06 07:40:31  5-MIN KSTC 021340Z 00000KT 1SM BR FEW004 BKN110 M08/M09 A2948 1440 92 -900 000/00 RMK AO2
14926KSTC STC20060202074511202/02/06 07:45:31  5-MIN KSTC 021345Z 00000KT 1 1/4SM BR FEW004 SCT110 M07/M08 A2948 1440 92 -900 000/00 RMK AO2
14926KSTC STC20060202075012902/02/06 07:50:31  5-MIN KSTC 021350Z 00000KT 1 1/2SM BR FEW004 SCT110 M08/M09 A2948 1440 92 -900 000/00 RMK AO2 SLP007 T10781089
14926KSTC STC20060202075511302/02/06 07:55:31  5-MIN KSTC 021355Z 00000KT 1 1/2SM BR SCT004 BKN110 M09/M11 A2948 1430 92 -1200 000/00 RMK AO2
14926KSTC STC20060202080010602/02/06 08:00:31  5-MIN KSTC 021400Z 00000KT 1 1/2SM BR BKN004 M08/M10 A2948 1430 88 -1000 000/00 RMK AO2
14926KSTC STC20060202080510602/02/06 08:05:31  5-MIN KSTC 021405Z 00000KT 1 1/2SM BR BKN004 M09/M10 A2948 1430 92 -1100 000/00 RMK AO2
14926KSTC STC20060202081011802/02/06 08:10:31  5-MIN KSTC 021410Z 00000KT 1 1/2SM BR BKN004 M08/M09 A2948 1440 92 -1000 000/00 RMK AO2 CIG 003V006
14926KSTC STC20060202081511702/02/06 08:15:31  5-MIN KSTC 021415Z 07003KT 1 3/4SM BR OVC004 M08/M09 A2948 1430 92 -900 070/03 RMK AO2 CIG 002V006
14926KSTC STC20060202082010502/02/06 08:20:31  5-MIN KSTC 021420Z 06003KT 1 3/4SM BR OVC002 M07/M09 A2948 1430 88 -900 060/03 RMK AO2
14926KSTC STC20060202082510102/02/06 08:25:31  5-MIN KSTC 021425Z 00000KT 2SM BR OVC002 M07/M08 A2949 1430 92 -900 000/00 RMK AO2
14926KSTC STC20060202083010202/02/06 08:30:31  5-MIN KSTC 021430Z 00000KT 2SM BR OVC002 M08/M08 A2949 1430 96 -1000 000/00 RMK AO2
14926KSTC STC20060202083510202/02/06 08:35:31  5-MIN KSTC 021435Z 00000KT 2SM BR OVC002 M08/M09 A2949 1430 96 -1000 000/00 RMK AO2
14926KSTC STC20060202084011402/02/06 08:40:31  5-MIN KSTC 021440Z 00000KT 2SM BR OVC002 M08/M09 A2949 1430 92 -1000 000/00 RMK AO2 CIG 002V005
14926KSTC STC20060202084511302/02/06 08:45:31  5-MIN KSTC 021445Z 00000KT 2SM BR OVC002 M07/M08 A2949 1430 92 -900 000/00 RMK AO2 CIG 002V006
14926KSTC STC20060202085014002/02/06 08:50:31  5-MIN KSTC 021450Z 00000KT 2 1/2SM BR OVC002 M06/M08 A2948 1430 88 -700 000/00 RMK AO2 CIG 001V006 SLP007 T10611078 58023
14926KSTC STC20060202085511302/02/06 08:55:31  5-MIN KSTC 021455Z 08003KT 2SM BR OVC002 M06/M07 A2948 1430 92 -700 080/03 RMK AO2 CIG 001V005
14926KSTC STC20060202090011302/02/06 09:00:31  5-MIN KSTC 021500Z 08004KT 2SM BR OVC002 M05/M07 A2948 1440 88 -600 070/04 RMK AO2 CIG 001V005
14926KSTC STC20060202090511302/02/06 09:05:31  5-MIN KSTC 021505Z 08004KT 2SM BR OVC002 M05/M06 A2947 1440 92 -600 080/04 RMK AO2 CIG 001V005
14926KSTC STC20060202091010102/02/06 09:10:31  5-MIN KSTC 021510Z 08004KT 2SM BR OVC002 M05/M06 A2947 1440 92 -600 080/04 RMK AO2
14926KSTC STC20060202091510102/02/06 09:15:31  5-MIN KSTC 021515Z 08004KT 2SM BR OVC002 M04/M06 A2947 1440 92 -500 080/04 RMK AO2
14926KSTC STC20060202092010102/02/06 09:20:31  5-MIN KSTC 021520Z 10003KT 2SM BR OVC002 M04/M06 A2947 1440 92 -500 100/03 RMK AO2
14926KSTC STC20060202092510102/02/06 09:25:31  5-MIN KSTC 021525Z 10003KT 2SM BR OVC002 M04/M05 A2948 1440 92 -400 100/03 RMK AO2
14926KSTC STC20060202093010102/02/06 09:30:31  5-MIN KSTC 021530Z 12003KT 2SM BR OVC002 M04/M05 A2948 1440 92 -400 120/03 RMK AO2
14926KSTC STC20060202093511202/02/06 09:35:31  5-MIN KSTC 021535Z 13003KT 2 1/2SM BR BKN002 OVC006 M04/M04 A2948 1440 96 -400 120/03 RMK AO2
14926KSTC STC20060202094010502/02/06 09:40:31  5-MIN KSTC 021540Z 11004KT 2 1/2SM BR OVC002 M03/M04 A2948 1440 92 -400 110/04 RMK AO2
14926KSTC STC20060202094511702/02/06 09:45:31  5-MIN KSTC 021545Z 11004KT 2 1/2SM BR OVC004 M03/M04 A2947 1440 92 -400 110/04 RMK AO2 CIG 001V007
14926KSTC STC20060202095013402/02/06 09:50:31  5-MIN KSTC 021550Z 12004KT 2 1/2SM BR OVC004 M03/M04 A2947 1440 92 -400 120/04 RMK AO2 CIG 002V007 SLP003 T10331044
14926KSTC STC20060202095511702/02/06 09:55:31  5-MIN KSTC 021555Z 13003KT 2 1/2SM BR OVC004 M03/M04 A2947 1440 92 -300 120/03 RMK AO2 CIG 002V007
14926KSTC STC20060202100011302/02/06 10:00:31  5-MIN KSTC 021600Z VRB03KT 3SM BR OVC004 M03/M03 A2947 1440 96 -300 VRB/03 RMK AO2 CIG 002V007
14926KSTC STC20060202100511302/02/06 10:05:31  5-MIN KSTC 021605Z 15004KT 3SM BR OVC004 M03/M04 A2947 1440 96 -400 150/04 RMK AO2 CIG 003V008
14926KSTC STC20060202101010502/02/06 10:10:31  5-MIN KSTC 021610Z 16004KT 2 1/2SM BR OVC004 M03/M04 A2947 1450 96 -400 150/04 RMK AO2
14926KSTC STC20060202101510502/02/06 10:15:31  5-MIN KSTC 021615Z 14005KT 2 1/2SM BR OVC004 M03/M04 A2947 1450 92 -400 130/05 RMK AO2
14926KSTC STC20060202102010102/02/06 10:20:31  5-MIN KSTC 021620Z 16005KT 3SM BR OVC004 M03/M04 A2947 1450 92 -400 150/05 RMK AO2
14926KSTC STC20060202102510102/02/06 10:25:31  5-MIN KSTC 021625Z 16004KT 3SM BR OVC004 M03/M04 A2946 1450 96 -400 150/04 RMK AO2
14926KSTC STC20060202103010502/02/06 10:30:31  5-MIN KSTC 021630Z 15004KT 2 1/2SM BR OVC004 M03/M04 A2946 1450 96 -400 150/04 RMK AO2
14926KSTC STC20060202103510102/02/06 10:35:31  5-MIN KSTC 021635Z 15004KT 3SM BR OVC004 M03/M04 A2946 1450 92 -300 140/04 RMK AO2
14926KSTC STC20060202104010102/02/06 10:40:31  5-MIN KSTC 021640Z 15005KT 3SM BR OVC004 M02/M04 A2946 1450 88 -200 150/05 RMK AO2
14926KSTC STC20060202104510102/02/06 10:45:31  5-MIN KSTC 021645Z 16004KT 3SM BR OVC004 M02/M03 A2946 1450 92 -200 150/04 RMK AO2
14926KSTC STC20060202105011802/02/06 10:50:31  5-MIN KSTC 021650Z 19006KT 4SM BR OVC004 M01/M03 A2946 1460 88 -100 190/06 RMK AO2 SLP996 T10111028
14926KSTC STC20060202105510102/02/06 10:55:31  5-MIN KSTC 021655Z 20006KT 4SM BR BKN006 M01/M03 A2946 1460 88 -100 190/06 RMK AO2
14926KSTC STC20060202110010102/02/06 11:00:31  5-MIN KSTC 021700Z 21006KT 4SM BR BKN006 M01/M03 A2946 1460 88 -100 200/06 RMK AO2
14926KSTC STC20060202110510102/02/06 11:05:31  5-MIN KSTC 021705Z 21006KT 4SM BR BKN006 M01/M03 A2946 1450 88 -100 210/06 RMK AO2
14926KSTC STC20060202111010102/02/06 11:10:31  5-MIN KSTC 021710Z 22007KT 4SM BR BKN006 M01/M03 A2946 1450 88 -100 220/07 RMK AO2
14926KSTC STC20060202111510102/02/06 11:15:31  5-MIN KSTC 021715Z 21006KT 4SM BR BKN006 M02/M03 A2946 1460 92 -100 210/06 RMK AO2
14926KSTC STC20060202112010102/02/06 11:20:31  5-MIN KSTC 021720Z 21007KT 4SM BR BKN006 M01/M03 A2946 1450 88 -100 210/07 RMK AO2
14926KSTC STC20060202112510102/02/06 11:25:31  5-MIN KSTC 021725Z 22007KT 4SM BR BKN006 M01/M03 A2946 1450 88 -100 210/07 RMK AO2
14926KSTC STC20060202113010102/02/06 11:30:31  5-MIN KSTC 021730Z 22006KT 4SM BR OVC006 M01/M03 A2946 1450 88 -100 210/06 RMK AO2
14926KSTC STC20060202113510102/02/06 11:35:31  5-MIN KSTC 021735Z 21005KT 4SM BR OVC006 M01/M03 A2946 1450 88 -100 210/05 RMK AO2
14926KSTC STC20060202114010102/02/06 11:40:31  5-MIN KSTC 021740Z 22005KT 4SM BR OVC006 M01/M03 A2946 1450 88 -100 220/05 RMK AO2
14926KSTC STC20060202114510102/02/06 11:45:31  5-MIN KSTC 021745Z 21004KT 4SM BR BKN006 M01/M03 A2946 1450 88 -100 210/04 RMK AO2
14926KSTC STC20060202115013602/02/06 11:50:31  5-MIN KSTC 021750Z 21004KT 4SM BR BKN006 M01/M03 A2946 1450 88 -100 210/04 RMK AO2 SLP997 T10111028 11011 21094 51002
14926KSTC STC20060202115510102/02/06 11:55:31  5-MIN KSTC 021755Z 22004KT 4SM BR SCT006 M01/M03 A2946 1450 88 -100 220/04 RMK AO2
14926KSTC STC20060202120010102/02/06 12:00:31  5-MIN KSTC 021800Z 22005KT 4SM BR FEW006 M01/M03 A2946 1450 88 -100 210/05 RMK AO2
14926KSTC STC20060202120509802/02/06 12:05:31  5-MIN KSTC 021805Z 24004KT 5SM BR FEW008 M01/M03 A2946 1460 85 0 240/04 RMK AO2
14926KSTC STC20060202121009502/02/06 12:10:31  5-MIN KSTC 021810Z 23004KT 5SM BR CLR M01/M03 A2946 1460 85 0 230/04 RMK AO2
14926KSTC STC20060202121509502/02/06 12:15:31  5-MIN KSTC 021815Z 25005KT 5SM BR CLR M01/M03 A2946 1460 85 0 240/05 RMK AO2
14926KSTC STC20060202122009402/02/06 12:20:31  5-MIN KSTC 021820Z 26006KT 5SM HZ CLR 00/M03 A2945 1460 81 0 250/06 RMK AO2
14926KSTC STC20060202122509402/02/06 12:25:31  5-MIN KSTC 021825Z 27005KT 5SM HZ CLR 00/M03 A2945 1460 81 0 270/05 RMK AO2
14926KSTC STC20060202123009402/02/06 12:30:31  5-MIN KSTC 021830Z 27005KT 5SM HZ CLR 00/M03 A2945 1470 81 0 270/05 RMK AO2
14926KSTC STC20060202123509402/02/06 12:35:31  5-MIN KSTC 021835Z 26006KT 5SM HZ CLR 00/M03 A2945 1470 81 0 260/06 RMK AO2
14926KSTC STC20060202124009402/02/06 12:40:31  5-MIN KSTC 021840Z 24004KT 5SM HZ CLR 00/M03 A2945 1470 81 0 240/04 RMK AO2
14926KSTC STC20060202124509402/02/06 12:45:31  5-MIN KSTC 021845Z 25005KT 5SM BR CLR 00/M02 A2945 1470 85 0 250/05 RMK AO2
14926KSTC STC20060202125011102/02/06 12:50:31  5-MIN KSTC 021850Z 26005KT 5SM BR CLR 00/M02 A2944 1470 85 0 260/05 RMK AO2 SLP992 T00001022
14926KSTC STC20060202125509402/02/06 12:55:31  5-MIN KSTC 021855Z 25004KT 5SM BR CLR 00/M02 A2944 1470 85 0 250/04 RMK AO2
14926KSTC STC20060202130009402/02/06 13:00:31  5-MIN KSTC 021900Z 00000KT 5SM BR CLR 00/M02 A2944 1470 85 0 000/00 RMK AO2
14926KSTC STC20060202130509502/02/06 13:05:31  5-MIN KSTC 021905Z 24003KT 5SM BR CLR M01/M02 A2944 1480 88 0 230/03 RMK AO2
14926KSTC STC20060202131009402/02/06 13:10:31  5-MIN KSTC 021910Z 24003KT 5SM BR CLR 00/M02 A2944 1480 85 0 230/03 RMK AO2
14926KSTC STC20060202131509402/02/06 13:15:31  5-MIN KSTC 021915Z 23004KT 5SM BR CLR 00/M02 A2944 1480 85 0 220/04 RMK AO2
14926KSTC STC20060202132009402/02/06 13:20:31  5-MIN KSTC 021920Z 23003KT 6SM BR CLR 00/M02 A2943 1480 85 0 220/03 RMK AO2
14926KSTC STC20060202132509402/02/06 13:25:31  5-MIN KSTC 021925Z 00000KT 6SM BR CLR 00/M02 A2944 1480 85 0 000/00 RMK AO2
14926KSTC STC20060202133009402/02/06 13:30:31  5-MIN KSTC 021930Z 17005KT 6SM BR CLR 00/M02 A2944 1470 85 0 170/05 RMK AO2
14926KSTC STC20060202133509602/02/06 13:35:31  5-MIN KSTC 021935Z 16005KT 6SM HZ CLR 01/M02 A2944 1470 82 100 150/05 RMK AO2
14926KSTC STC20060202134009602/02/06 13:40:31  5-MIN KSTC 021940Z 19003KT 6SM HZ CLR 01/M02 A2944 1470 82 100 190/03 RMK AO2
14926KSTC STC20060202134509602/02/06 13:45:31  5-MIN KSTC 021945Z 19004KT 6SM HZ CLR 01/M02 A2943 1480 82 100 180/04 RMK AO2
14926KSTC STC20060202135011302/02/06 13:50:31  5-MIN KSTC 021950Z 00000KT 6SM HZ CLR 01/M02 A2944 1480 82 100 000/00 RMK AO2 SLP988 T00061022
14926KSTC STC20060202135509602/02/06 13:55:31  5-MIN KSTC 021955Z 00000KT 6SM BR CLR 01/M02 A2943 1480 85 100 000/00 RMK AO2
14926KSTC STC20060202140009602/02/06 14:00:31  5-MIN KSTC 022000Z 00000KT 6SM HZ CLR 01/M02 A2943 1480 82 200 000/00 RMK AO2
14926KSTC STC20060202140509602/02/06 14:05:31  5-MIN KSTC 022005Z 00000KT 6SM HZ CLR 02/M02 A2943 1480 75 300 000/00 RMK AO2
14926KSTC STC20060202141009602/02/06 14:10:31  5-MIN KSTC 022010Z 00000KT 6SM HZ CLR 02/M02 A2943 1480 72 300 000/00 RMK AO2
14926KSTC STC20060202141509602/02/06 14:15:31  5-MIN KSTC 022015Z 00000KT 6SM HZ CLR 02/M02 A2943 1480 75 300 000/00 RMK AO2
14926KSTC STC20060202142009602/02/06 14:20:31  5-MIN KSTC 022020Z 00000KT 6SM HZ CLR 02/M02 A2943 1480 72 300 000/00 RMK AO2
14926KSTC STC20060202142509302/02/06 14:25:31  5-MIN KSTC 022025Z 29003KT 7SM CLR 02/M02 A2943 1480 75 300 290/03 RMK AO2
14926KSTC STC20060202143009302/02/06 14:30:31  5-MIN KSTC 022030Z 00000KT 7SM CLR 02/M02 A2943 1480 72 300 000/00 RMK AO2
14926KSTC STC20060202143509302/02/06 14:35:31  5-MIN KSTC 022035Z 00000KT 7SM CLR 02/M02 A2943 1480 75 300 000/00 RMK AO2
14926KSTC STC20060202144009302/02/06 14:40:31  5-MIN KSTC 022040Z 23003KT 7SM CLR 02/M02 A2943 1480 78 300 220/03 RMK AO2
14926KSTC STC20060202144509302/02/06 14:45:31  5-MIN KSTC 022045Z 00000KT 8SM CLR 02/M02 A2944 1480 78 300 000/00 RMK AO2
14926KSTC STC20060202145011602/02/06 14:50:31  5-MIN KSTC 022050Z 00000KT 8SM CLR 02/M02 A2944 1480 75 300 000/00 RMK AO2 SLP988 T00171022 55007
14926KSTC STC20060202145509302/02/06 14:55:31  5-MIN KSTC 022055Z 00000KT 8SM CLR 02/M02 A2944 1480 75 300 000/00 RMK AO2
14926KSTC STC20060202150009302/02/06 15:00:31  5-MIN KSTC 022100Z 00000KT 8SM CLR 02/M02 A2944 1480 75 300 000/00 RMK AO2
14926KSTC STC20060202150509302/02/06 15:05:31  5-MIN KSTC 022105Z 00000KT 7SM CLR 03/M02 A2944 1480 72 400 000/00 RMK AO2
14926KSTC STC20060202151009602/02/06 15:10:31  5-MIN KSTC 022110Z 00000KT 7SM FEW110 03/M02 A2944 1480 72 400 000/00 RMK AO2
14926KSTC STC20060202151509602/02/06 15:15:31  5-MIN KSTC 022115Z 00000KT 7SM SCT110 03/M02 A2943 1480 72 400 000/00 RMK AO2
14926KSTC STC20060202152009602/02/06 15:20:31  5-MIN KSTC 022120Z 00000KT 7SM SCT110 03/M02 A2943 1480 69 400 000/00 RMK AO2
14926KSTC STC20060202152509602/02/06 15:25:31  5-MIN KSTC 022125Z 00000KT 7SM SCT110 02/M02 A2943 1480 75 300 000/00 RMK AO2
14926KSTC STC20060202153009602/02/06 15:30:31  5-MIN KSTC 022130Z 00000KT 7SM SCT110 03/M02 A2944 1480 72 400 000/00 RMK AO2
14926KSTC STC20060202153509602/02/06 15:35:31  5-MIN KSTC 022135Z 00000KT 7SM BKN120 03/M02 A2944 1480 72 400 000/00 RMK AO2
14926KSTC STC20060202154009602/02/06 15:40:31  5-MIN KSTC 022140Z 00000KT 7SM BKN120 03/M02 A2944 1480 70 500 000/00 RMK AO2
14926KSTC STC20060202154510102/02/06 15:45:31  5-MIN KSTC 022145Z AUTO 00000KT 7SM BKN120 03/M02 A2944 1470 72 400 000/00 RMK AO2
14926KSTC STC20060202155011802/02/06 15:50:31  5-MIN KSTC 022150Z AUTO 00000KT 7SM BKN110 02/M02 A2944 1470 75 300 000/00 RMK AO2 SLP990 T00221017
14926KSTC STC20060202155510102/02/06 15:55:31  5-MIN KSTC 022155Z AUTO 00000KT 7SM BKN120 03/M02 A2944 1470 72 400 000/00 RMK AO2
14926KSTC STC20060202160010102/02/06 16:00:31  5-MIN KSTC 022200Z AUTO 00000KT 7SM SCT120 03/M02 A2944 1470 67 500 000/00 RMK AO2
14926KSTC STC20060202160510102/02/06 16:05:31  5-MIN KSTC 022205Z AUTO 00000KT 7SM SCT110 02/M02 A2945 1470 72 300 000/00 RMK AO2
14926KSTC STC20060202161010102/02/06 16:10:31  5-MIN KSTC 022210Z AUTO 00000KT 7SM FEW110 02/M02 A2945 1470 72 300 000/00 RMK AO2
14926KSTC STC20060202161510102/02/06 16:15:31  5-MIN KSTC 022215Z AUTO 00000KT 7SM FEW110 03/M02 A2945 1470 69 400 000/00 RMK AO2
14926KSTC STC20060202162009802/02/06 16:20:31  5-MIN KSTC 022220Z AUTO 00000KT 7SM CLR 03/M02 A2945 1470 72 400 000/00 RMK AO2
14926KSTC STC20060202162509802/02/06 16:25:31  5-MIN KSTC 022225Z AUTO 00000KT 7SM CLR 03/M02 A2945 1470 72 400 000/00 RMK AO2
14926KSTC STC20060202163009802/02/06 16:30:31  5-MIN KSTC 022230Z AUTO 00000KT 7SM CLR 03/M02 A2945 1470 69 400 000/00 RMK AO2
14926KSTC STC20060202163509802/02/06 16:35:31  5-MIN KSTC 022235Z AUTO 00000KT 7SM CLR 03/M02 A2945 1460 69 400 000/00 RMK AO2
14926KSTC STC20060202164009802/02/06 16:40:31  5-MIN KSTC 022240Z AUTO 00000KT 7SM CLR 03/M02 A2945 1460 69 400 000/00 RMK AO2
14926KSTC STC20060202164509802/02/06 16:45:31  5-MIN KSTC 022245Z AUTO 00000KT 7SM CLR 03/M02 A2945 1460 69 400 000/00 RMK AO2
14926KSTC STC20060202165011502/02/06 16:50:31  5-MIN KSTC 022250Z AUTO 00000KT 7SM CLR 02/M02 A2945 1460 75 200 000/00 RMK AO2 SLP993 T00171022
14926KSTC STC20060202165509802/02/06 16:55:31  5-MIN KSTC 022255Z AUTO 00000KT 7SM CLR 02/M02 A2945 1460 75 200 000/00 RMK AO2
14926KSTC STC20060202170010102/02/06 17:00:31  5-MIN KSTC 022300Z AUTO 00000KT 6SM HZ CLR 02/M02 A2945 1460 75 200 000/00 RMK AO2
14926KSTC STC20060202170510102/02/06 17:05:31  5-MIN KSTC 022305Z AUTO 00000KT 6SM HZ CLR 02/M02 A2946 1460 75 200 000/00 RMK AO2
14926KSTC STC20060202171010102/02/06 17:10:31  5-MIN KSTC 022310Z AUTO 00000KT 6SM HZ CLR 01/M02 A2946 1460 78 200 000/00 RMK AO2
14926KSTC STC20060202171510102/02/06 17:15:31  5-MIN KSTC 022315Z AUTO 00000KT 6SM HZ CLR 01/M02 A2946 1460 78 200 000/00 RMK AO2
14926KSTC STC20060202172010102/02/06 17:20:31  5-MIN KSTC 022320Z AUTO 00000KT 6SM HZ CLR 01/M02 A2946 1450 82 100 000/00 RMK AO2
14926KSTC STC20060202172510102/02/06 17:25:31  5-MIN KSTC 022325Z AUTO 00000KT 6SM HZ CLR 01/M03 A2946 1450 78 100 000/00 RMK AO2
14926KSTC STC20060202173010102/02/06 17:30:31  5-MIN KSTC 022330Z AUTO 00000KT 6SM HZ CLR 01/M03 A2946 1450 78 100 000/00 RMK AO2
14926KSTC STC20060202173510002/02/06 17:35:31  5-MIN KSTC 022335Z AUTO 03004KT 6SM HZ CLR M01/M03 A2947 1450 81 0 030/04 RMK AO2
14926KSTC STC20060202174010302/02/06 17:40:31  5-MIN KSTC 022340Z AUTO 03003KT 6SM BR CLR M02/M04 A2947 1450 85 -200 020/03 RMK AO2
14926KSTC STC20060202174510302/02/06 17:45:31  5-MIN KSTC 022345Z AUTO 03003KT 6SM BR CLR M02/M04 A2947 1440 85 -200 020/03 RMK AO2
14926KSTC STC20060202175013802/02/06 17:50:31  5-MIN KSTC 022350Z AUTO 03003KT 6SM BR CLR M02/M04 A2947 1440 88 -200 030/03 RMK AO2 SLP003 T10221039 10033 21022 55008
14926KSTC STC20060202175510302/02/06 17:55:31  5-MIN KSTC 022355Z AUTO 03004KT 6SM BR CLR M02/M04 A2948 1440 85 -200 030/04 RMK AO2
14926KSTC STC20060202180010302/02/06 18:00:31  5-MIN KSTC 030000Z AUTO 03004KT 6SM BR CLR M02/M03 A2948 1440 88 -200 030/04 RMK AO2
14926KSTC STC20060202180510302/02/06 18:05:31  5-MIN KSTC 030005Z AUTO 03004KT 5SM BR CLR M02/M03 A2948 1440 88 -200 020/04 RMK AO2
14926KSTC STC20060202181010302/02/06 18:10:31  5-MIN KSTC 030010Z AUTO 02004KT 5SM BR CLR M02/M03 A2948 1430 88 -200 020/04 RMK AO2
14926KSTC STC20060202181510302/02/06 18:15:31  5-MIN KSTC 030015Z AUTO 02004KT 5SM BR CLR M02/M03 A2948 1430 88 -200 020/04 RMK AO2
14926KSTC STC20060202182010302/02/06 18:20:31  5-MIN KSTC 030020Z AUTO 01004KT 5SM BR CLR M03/M04 A2949 1430 92 -300 010/04 RMK AO2
14926KSTC STC20060202182510302/02/06 18:25:31  5-MIN KSTC 030025Z AUTO 02004KT 4SM BR CLR M03/M04 A2949 1430 92 -400 020/04 RMK AO2
14926KSTC STC20060202183010602/02/06 18:30:31  5-MIN KSTC 030030Z AUTO 03003KT 4SM BR FEW021 M03/M04 A2949 1430 88 -300 030/03 RMK AO2
14926KSTC STC20060202183510602/02/06 18:35:31  5-MIN KSTC 030035Z AUTO 00000KT 4SM BR SCT021 M03/M04 A2949 1420 92 -300 000/00 RMK AO2
14926KSTC STC20060202184010602/02/06 18:40:31  5-MIN KSTC 030040Z AUTO 35003KT 4SM BR BKN021 M02/M04 A2950 1420 88 -300 350/03 RMK AO2
14926KSTC STC20060202184510602/02/06 18:45:31  5-MIN KSTC 030045Z AUTO 00000KT 4SM BR BKN021 M03/M04 A2950 1420 92 -300 000/00 RMK AO2
14926KSTC STC20060202185012302/02/06 18:50:31  5-MIN KSTC 030050Z AUTO 01004KT 4SM BR BKN021 M02/M03 A2950 1420 88 -200 010/04 RMK AO2 SLP012 T10171033
14926KSTC STC20060202185510602/02/06 18:55:31  5-MIN KSTC 030055Z AUTO 01005KT 4SM BR OVC021 M01/M03 A2950 1410 88 -100 010/05 RMK AO2
14926KSTC STC20060202190010602/02/06 19:00:31  5-MIN KSTC 030100Z AUTO 01004KT 4SM BR OVC021 M01/M03 A2950 1410 88 -100 010/04 RMK AO2
14926KSTC STC20060202190510602/02/06 19:05:31  5-MIN KSTC 030105Z AUTO 02005KT 4SM BR OVC021 M01/M03 A2951 1410 88 -100 010/05 RMK AO2
14926KSTC STC20060202191010602/02/06 19:10:31  5-MIN KSTC 030110Z AUTO 03005KT 4SM BR OVC021 M01/M03 A2951 1410 88 -100 020/05 RMK AO2
14926KSTC STC20060202191510602/02/06 19:15:31  5-MIN KSTC 030115Z AUTO 03005KT 4SM BR OVC021 M01/M03 A2951 1410 88 -100 020/05 RMK AO2
14926KSTC STC20060202192010602/02/06 19:20:31  5-MIN KSTC 030120Z AUTO 03006KT 4SM BR OVC019 M01/M03 A2951 1410 88 -100 020/06 RMK AO2
14926KSTC STC20060202192510602/02/06 19:25:31  5-MIN KSTC 030125Z AUTO 03004KT 4SM BR OVC019 M01/M03 A2951 1410 88 -100 030/04 RMK AO2
14926KSTC STC20060202193010602/02/06 19:30:31  5-MIN KSTC 030130Z AUTO 02004KT 4SM BR OVC019 M02/M03 A2951 1410 92 -200 020/04 RMK AO2
14926KSTC STC20060202193510602/02/06 19:35:31  5-MIN KSTC 030135Z AUTO 02005KT 4SM BR OVC019 M02/M03 A2951 1400 92 -200 020/05 RMK AO2
14926KSTC STC20060202194010602/02/06 19:40:31  5-MIN KSTC 030140Z AUTO 03004KT 3SM BR OVC019 M02/M03 A2951 1400 92 -200 020/04 RMK AO2
14926KSTC STC20060202194510602/02/06 19:45:31  5-MIN KSTC 030145Z AUTO 03004KT 3SM BR OVC019 M02/M03 A2952 1400 92 -200 020/04 RMK AO2
14926KSTC STC20060202195012302/02/06 19:50:31  5-MIN KSTC 030150Z AUTO 02005KT 3SM BR OVC019 M02/M03 A2952 1400 92 -200 020/05 RMK AO2 SLP018 T10171028
14926KSTC STC20060202195510602/02/06 19:55:31  5-MIN KSTC 030155Z AUTO 01004KT 3SM BR OVC019 M02/M03 A2951 1400 92 -200 010/04 RMK AO2
14926KSTC STC20060202200010602/02/06 20:00:31  5-MIN KSTC 030200Z AUTO 02003KT 3SM BR OVC019 M01/M02 A2952 1400 92 -100 020/03 RMK AO2
14926KSTC STC20060202200510602/02/06 20:05:31  5-MIN KSTC 030205Z AUTO 00000KT 3SM BR OVC019 M01/M02 A2952 1400 92 -100 000/00 RMK AO2
14926KSTC STC20060202201010602/02/06 20:10:31  5-MIN KSTC 030210Z AUTO 00000KT 3SM BR OVC019 M01/M02 A2952 1400 92 -100 000/00 RMK AO2
14926KSTC STC20060202201510602/02/06 20:15:31  5-MIN KSTC 030215Z AUTO 00000KT 3SM BR OVC019 M01/M02 A2952 1400 92 -100 000/00 RMK AO2
14926KSTC STC20060202202010602/02/06 20:20:31  5-MIN KSTC 030220Z AUTO 00000KT 3SM BR OVC019 M01/M02 A2951 1400 92 -100 000/00 RMK AO2
14926KSTC STC20060202202510602/02/06 20:25:31  5-MIN KSTC 030225Z AUTO 02003KT 3SM BR OVC019 M01/M02 A2951 1410 92 -100 010/03 RMK AO2
14926KSTC STC20060202203010602/02/06 20:30:31  5-MIN KSTC 030230Z AUTO 04003KT 3SM BR OVC017 M01/M02 A2951 1410 92 -100 040/03 RMK AO2
14926KSTC STC20060202203510602/02/06 20:35:31  5-MIN KSTC 030235Z AUTO 06003KT 3SM BR OVC017 M01/M02 A2951 1410 92 -100 050/03 RMK AO2
14926KSTC STC20060202204010602/02/06 20:40:31  5-MIN KSTC 030240Z AUTO 00000KT 4SM BR OVC017 M01/M02 A2951 1400 92 -100 000/00 RMK AO2
14926KSTC STC20060202204510602/02/06 20:45:31  5-MIN KSTC 030245Z AUTO 00000KT 3SM BR OVC017 M01/M02 A2952 1400 92 -100 000/00 RMK AO2
14926KSTC STC20060202205013602/02/06 20:50:31  5-MIN KSTC 030250Z AUTO 28003KT 3SM BR BKN017 OVC022 M01/M02 A2952 1400 92 -100 270/03 RMK AO2 SLP018 T10111022 53013
14926KSTC STC20060202205511302/02/06 20:55:31  5-MIN KSTC 030255Z AUTO 28003KT 3SM BR BKN017 OVC022 M01/M02 A2952 1400 92 -100 280/03 RMK AO2
14926KSTC STC20060202210011302/02/06 21:00:31  5-MIN KSTC 030300Z AUTO 00000KT 3SM BR BKN017 OVC022 M01/M02 A2952 1400 92 -100 000/00 RMK AO2
14926KSTC STC20060202210511302/02/06 21:05:31  5-MIN KSTC 030305Z AUTO 28003KT 4SM BR BKN017 OVC022 M01/M02 A2952 1400 92 -100 270/03 RMK AO2
14926KSTC STC20060202211011302/02/06 21:10:31  5-MIN KSTC 030310Z AUTO 27004KT 4SM BR BKN017 OVC022 M01/M02 A2952 1400 92 -100 270/04 RMK AO2
14926KSTC STC20060202211510602/02/06 21:15:31  5-MIN KSTC 030315Z AUTO 28003KT 4SM BR OVC019 M01/M02 A2952 1400 92 -100 280/03 RMK AO2
14926KSTC STC20060202212010602/02/06 21:20:31  5-MIN KSTC 030320Z AUTO 29004KT 3SM BR OVC019 M01/M02 A2952 1400 92 -100 290/04 RMK AO2
14926KSTC STC20060202212510602/02/06 21:25:31  5-MIN KSTC 030325Z AUTO 30003KT 4SM BR OVC019 M01/M02 A2951 1400 92 -100 290/03 RMK AO2
14926KSTC STC20060202213010602/02/06 21:30:31  5-MIN KSTC 030330Z AUTO 30003KT 4SM BR OVC017 M01/M02 A2951 1400 92 -100 300/03 RMK AO2
14926KSTC STC20060202213510602/02/06 21:35:31  5-MIN KSTC 030335Z AUTO 29003KT 4SM BR OVC019 M01/M02 A2952 1400 92 -100 290/03 RMK AO2
14926KSTC STC20060202214010602/02/06 21:40:31  5-MIN KSTC 030340Z AUTO 30004KT 4SM BR OVC017 M01/M02 A2952 1400 92 -100 300/04 RMK AO2
14926KSTC STC20060202214510602/02/06 21:45:31  5-MIN KSTC 030345Z AUTO 00000KT 3SM BR OVC017 M01/M02 A2951 1400 92 -100 000/00 RMK AO2
14926KSTC STC20060202215012302/02/06 21:50:31  5-MIN KSTC 030350Z AUTO 00000KT 3SM BR OVC017 M01/M02 A2951 1400 88 -100 000/00 RMK AO2 SLP015 T10061022
14926KSTC STC20060203080510602/03/06 08:05:31  5-MIN KSTC 031405Z 32015KT 7SM SCT015 OVC048 M07/M09 A2973 1200 84 -1100 310/15 RMK AO2
14926KSTC STC20060203081010902/03/06 08:10:31  5-MIN KSTC 031410Z 31015KT 6SM HZ SCT015 OVC055 M07/M09 A2973 1200 81 -1100 310/15 RMK AO2
14926KSTC STC20060203081511302/03/06 08:15:31  5-MIN KSTC 031415Z 32015KT 7SM SCT015 BKN055 OVC070 M07/M10 A2974 1200 81 -1200 310/15 RMK AO2
14926KSTC STC20060203082011902/03/06 08:20:31  5-MIN KSTC 031420Z 32014G19KT 7SM SCT015 BKN050 OVC070 M07/M10 A2974 1190 81 -1200 320/14G19 RMK AO2
14926KSTC STC20060203082513502/03/06 08:25:31  5-MIN KSTC 031425Z 32016G19KT 5SM -SN FEW015 BKN055 OVC070 M08/M11 A2974 1190 80 -1200 320/16G19 RMK AO2 SNB23 P0000
14926KSTC STC20060203083012202/03/06 08:30:31  5-MIN KSTC 031430Z 32013KT 5SM -SN FEW015 OVC065 M08/M11 A2974 1190 77 -1200 320/13 RMK AO2 SNB23 P0000
14926KSTC STC20060203083513402/03/06 08:35:31  5-MIN KSTC 031435Z 32016G20KT 7SM FEW015 BKN065 OVC080 M08/M11 A2974 1190 80 -1300 320/16G20 RMK AO2 SNB23E33 P0000
14926KSTC STC20060203084012802/03/06 08:40:31  5-MIN KSTC 031440Z 32015G20KT 10SM BKN070 OVC085 M08/M12 A2975 1190 77 -1300 320/15G20 RMK AO2 SNB23E33 P0000
14926KSTC STC20060203084512202/03/06 08:45:31  5-MIN KSTC 031445Z 32013KT 10SM BKN070 OVC085 M08/M12 A2975 1190 77 -1300 320/13 RMK AO2 SNB23E33 P0000
14926KSTC STC20060203085014402/03/06 08:50:31  5-MIN KSTC 031450Z 32011KT 10SM OVC080 M09/M12 A2975 1190 80 -1400 320/11 RMK AO2 SNB23E33 SLP098 P0000 60000 T10891117 53027
14926KSTC STC20060203085510002/03/06 08:55:31  5-MIN KSTC 031455Z 32011KT 10SM OVC080 M09/M12 A2975 1180 80 -1400 320/11 RMK AO2
14926KSTC STC20060203090010602/03/06 09:00:31  5-MIN KSTC 031500Z 33011G16KT 10SM OVC080 M09/M12 A2975 1180 77 -1400 330/11G16 RMK AO2
14926KSTC STC20060203090510602/03/06 09:05:31  5-MIN KSTC 031505Z 33013G16KT 10SM OVC080 M09/M12 A2975 1180 77 -1400 320/13G16 RMK AO2
14926KSTC STC20060203091010702/03/06 09:10:31  5-MIN KSTC 031510Z 32012KT 10SM BKN080 BKN120 M09/M12 A2976 1180 77 -1400 320/12 RMK AO2
14926KSTC STC20060203091510702/03/06 09:15:31  5-MIN KSTC 031515Z 32013KT 10SM BKN080 BKN120 M09/M12 A2976 1180 77 -1400 320/13 RMK AO2
14926KSTC STC20060203092010602/03/06 09:20:31  5-MIN KSTC 031520Z 32014G20KT 10SM SCT080 M09/M12 A2976 1180 77 -1400 320/14G20 RMK AO2
14926KSTC STC20060203092510602/03/06 09:25:31  5-MIN KSTC 031525Z 32015G21KT 10SM FEW080 M09/M13 A2976 1170 74 -1400 320/15G21 RMK AO2
14926KSTC STC20060203093010602/03/06 09:30:31  5-MIN KSTC 031530Z 33014G21KT 10SM FEW080 M09/M13 A2976 1170 77 -1500 320/14G21 RMK AO2
14926KSTC STC20060203093510302/03/06 09:35:31  5-MIN KSTC 031535Z 33012G19KT 10SM CLR M09/M13 A2976 1170 77 -1500 320/12G19 RMK AO2
14926KSTC STC20060203094010302/03/06 09:40:31  5-MIN KSTC 031540Z 32014G18KT 10SM CLR M09/M13 A2977 1170 77 -1500 320/14G18 RMK AO2
14926KSTC STC20060203094509702/03/06 09:45:31  5-MIN KSTC 031545Z 32012KT 10SM CLR M09/M13 A2977 1170 77 -1500 320/12 RMK AO2
14926KSTC STC20060203095012002/03/06 09:50:31  5-MIN KSTC 031550Z 32016G20KT 10SM CLR M09/M13 A2977 1160 77 -1500 320/16G20 RMK AO2 SLP106 T10941128
14926KSTC STC20060203095510302/03/06 09:55:31  5-MIN KSTC 031555Z 32011G20KT 10SM CLR M09/M13 A2977 1160 73 -1500 320/11G20 RMK AO2
14926KSTC STC20060203100010302/03/06 10:00:31  5-MIN KSTC 031600Z 33015G18KT 10SM CLR M09/M13 A2978 1160 77 -1500 320/15G18 RMK AO2
14926KSTC STC20060203100510302/03/06 10:05:31  5-MIN KSTC 031605Z 32015G18KT 10SM CLR M09/M13 A2978 1160 73 -1500 320/15G18 RMK AO2
14926KSTC STC20060203101010302/03/06 10:10:31  5-MIN KSTC 031610Z 33014G18KT 10SM CLR M09/M13 A2978 1160 73 -1500 330/14G18 RMK AO2
14926KSTC STC20060203101509702/03/06 10:15:31  5-MIN KSTC 031615Z 33011KT 10SM CLR M09/M13 A2978 1160 70 -1400 330/11 RMK AO2
14926KSTC STC20060203102009702/03/06 10:20:31  5-MIN KSTC 031620Z 33012KT 10SM CLR M09/M13 A2978 1150 70 -1400 320/12 RMK AO2
14926KSTC STC20060203102510302/03/06 10:25:31  5-MIN KSTC 031625Z 32014G18KT 10SM CLR M09/M13 A2979 1150 70 -1400 320/14G18 RMK AO2
14926KSTC STC20060203103009702/03/06 10:30:31  5-MIN KSTC 031630Z 32017KT 10SM CLR M09/M13 A2979 1150 70 -1500 310/17 RMK AO2
14926KSTC STC20060203103510302/03/06 10:35:31  5-MIN KSTC 031635Z 32013G19KT 10SM CLR M09/M13 A2979 1140 70 -1500 320/13G19 RMK AO2
14926KSTC STC20060203104010302/03/06 10:40:31  5-MIN KSTC 031640Z 32012G19KT 10SM CLR M09/M13 A2979 1140 70 -1500 320/12G19 RMK AO2
14926KSTC STC20060203104510302/03/06 10:45:31  5-MIN KSTC 031645Z 32015G19KT 10SM CLR M09/M13 A2980 1140 70 -1500 320/15G19 RMK AO2
14926KSTC STC20060203105011402/03/06 10:50:31  5-MIN KSTC 031650Z 33013KT 10SM CLR M09/M13 A2980 1140 70 -1500 320/13 RMK AO2 SLP114 T10891133
14926KSTC STC20060203105509702/03/06 10:55:31  5-MIN KSTC 031655Z 32016KT 10SM CLR M09/M13 A2980 1140 70 -1500 310/16 RMK AO2
14926KSTC STC20060203110010302/03/06 11:00:31  5-MIN KSTC 031700Z 32014G18KT 10SM CLR M09/M13 A2980 1140 70 -1500 320/14G18 RMK AO2
14926KSTC STC20060203110509702/03/06 11:05:31  5-MIN KSTC 031705Z 32014KT 10SM CLR M09/M13 A2980 1140 70 -1500 320/14 RMK AO2
14926KSTC STC20060203111009702/03/06 11:10:31  5-MIN KSTC 031710Z 32015KT 10SM CLR M09/M13 A2980 1140 70 -1500 320/15 RMK AO2
14926KSTC STC20060203111509702/03/06 11:15:31  5-MIN KSTC 031715Z 32012KT 10SM CLR M09/M13 A2980 1140 70 -1500 320/12 RMK AO2
14926KSTC STC20060203112009702/03/06 11:20:31  5-MIN KSTC 031720Z 32013KT 10SM CLR M09/M13 A2980 1140 70 -1500 320/13 RMK AO2
14926KSTC STC20060203112509702/03/06 11:25:31  5-MIN KSTC 031725Z 32016KT 10SM CLR M09/M13 A2980 1130 70 -1500 310/16 RMK AO2
14926KSTC STC20060203113009702/03/06 11:30:31  5-MIN KSTC 031730Z 32015KT 10SM CLR M09/M13 A2981 1130 70 -1500 310/15 RMK AO2
14926KSTC STC20060203113509702/03/06 11:35:31  5-MIN KSTC 031735Z 32014KT 10SM CLR M09/M13 A2981 1130 70 -1500 310/14 RMK AO2
14926KSTC STC20060203114009702/03/06 11:40:31  5-MIN KSTC 031740Z 33010KT 10SM CLR M09/M13 A2981 1130 70 -1500 330/10 RMK AO2
14926KSTC STC20060203114509702/03/06 11:45:31  5-MIN KSTC 031745Z 33013KT 10SM CLR M09/M13 A2981 1130 70 -1500 320/13 RMK AO2
14926KSTC STC20060203115013802/03/06 11:50:31  5-MIN KSTC 031750Z 32012KT 10SM CLR M09/M13 A2981 1130 70 -1500 320/12 RMK AO2 SLP119 60000 T10891133 11033 21094 51033
14926KSTC STC20060203115510302/03/06 11:55:31  5-MIN KSTC 031755Z 32014G20KT 10SM CLR M09/M13 A2981 1130 70 -1500 310/14G20 RMK AO2
14926KSTC STC20060203120009702/03/06 12:00:31  5-MIN KSTC 031800Z 31015KT 10SM CLR M09/M13 A2981 1130 70 -1500 310/15 RMK AO2
14926KSTC STC20060203120509702/03/06 12:05:31  5-MIN KSTC 031805Z 32016KT 10SM CLR M09/M13 A2981 1130 70 -1500 320/16 RMK AO2
14926KSTC STC20060203121009702/03/06 12:10:31  5-MIN KSTC 031810Z 32014KT 10SM CLR M09/M14 A2981 1130 67 -1500 320/14 RMK AO2
14926KSTC STC20060203121509702/03/06 12:15:31  5-MIN KSTC 031815Z 31018KT 10SM CLR M09/M14 A2981 1130 67 -1500 300/18 RMK AO2
14926KSTC STC20060203122009702/03/06 12:20:31  5-MIN KSTC 031820Z 31017KT 10SM CLR M09/M14 A2981 1130 67 -1500 310/17 RMK AO2
14926KSTC STC20060203122509702/03/06 12:25:31  5-MIN KSTC 031825Z 31015KT 10SM CLR M09/M14 A2981 1130 67 -1500 310/15 RMK AO2
14926KSTC STC20060203123009702/03/06 12:30:31  5-MIN KSTC 031830Z 31015KT 10SM CLR M09/M14 A2982 1120 67 -1500 310/15 RMK AO2
14926KSTC STC20060203123509702/03/06 12:35:31  5-MIN KSTC 031835Z 31016KT 10SM CLR M09/M14 A2982 1120 70 -1600 310/16 RMK AO2
14926KSTC STC20060203124009702/03/06 12:40:31  5-MIN KSTC 031840Z 31017KT 10SM CLR M09/M14 A2982 1120 67 -1500 310/17 RMK AO2
14926KSTC STC20060203124509702/03/06 12:45:31  5-MIN KSTC 031845Z 31015KT 10SM CLR M09/M14 A2982 1120 70 -1600 310/15 RMK AO2
14926KSTC STC20060203125011402/03/06 12:50:31  5-MIN KSTC 031850Z 32017KT 10SM CLR M09/M14 A2982 1120 67 -1500 320/17 RMK AO2 SLP122 T10891139
14926KSTC STC20060203125509702/03/06 12:55:31  5-MIN KSTC 031855Z 32015KT 10SM CLR M09/M14 A2982 1120 64 -1500 320/15 RMK AO2
14926KSTC STC20060203130009702/03/06 13:00:31  5-MIN KSTC 031900Z 31015KT 10SM CLR M09/M14 A2982 1120 64 -1500 310/15 RMK AO2
14926KSTC STC20060203130509702/03/06 13:05:31  5-MIN KSTC 031905Z 31016KT 10SM CLR M09/M14 A2982 1120 64 -1500 300/16 RMK AO2
14926KSTC STC20060203131009702/03/06 13:10:31  5-MIN KSTC 031910Z 30016KT 10SM CLR M09/M14 A2982 1120 67 -1600 300/16 RMK AO2
14926KSTC STC20060203131509702/03/06 13:15:31  5-MIN KSTC 031915Z 32013KT 10SM CLR M09/M14 A2983 1110 67 -1600 320/13 RMK AO2
14926KSTC STC20060203132009702/03/06 13:20:31  5-MIN KSTC 031920Z 31017KT 10SM CLR M09/M14 A2982 1120 67 -1600 310/17 RMK AO2
14926KSTC STC20060203132509702/03/06 13:25:31  5-MIN KSTC 031925Z 31016KT 10SM CLR M09/M14 A2983 1110 67 -1600 310/16 RMK AO2
14926KSTC STC20060203133009702/03/06 13:30:31  5-MIN KSTC 031930Z 31015KT 10SM CLR M09/M14 A2983 1110 67 -1600 310/15 RMK AO2
14926KSTC STC20060203133509702/03/06 13:35:31  5-MIN KSTC 031935Z 32014KT 10SM CLR M09/M14 A2983 1110 67 -1600 320/14 RMK AO2
14926KSTC STC20060203134009702/03/06 13:40:31  5-MIN KSTC 031940Z 31017KT 10SM CLR M09/M14 A2983 1110 67 -1600 310/17 RMK AO2
14926KSTC STC20060203134509702/03/06 13:45:31  5-MIN KSTC 031945Z 32013KT 10SM CLR M09/M14 A2983 1110 67 -1600 310/13 RMK AO2
14926KSTC STC20060203135011402/03/06 13:50:31  5-MIN KSTC 031950Z 31015KT 10SM CLR M09/M14 A2983 1110 67 -1600 310/15 RMK AO2 SLP126 T10941144
14926KSTC STC20060203135509702/03/06 13:55:31  5-MIN KSTC 031955Z 31015KT 10SM CLR M09/M14 A2984 1100 67 -1600 300/15 RMK AO2
14926KSTC STC20060203140009702/03/06 14:00:31  5-MIN KSTC 032000Z 31013KT 10SM CLR M09/M14 A2984 1100 67 -1600 310/13 RMK AO2
14926KSTC STC20060203140509702/03/06 14:05:31  5-MIN KSTC 032005Z 31015KT 10SM CLR M09/M14 A2984 1100 67 -1600 300/15 RMK AO2
14926KSTC STC20060203141009702/03/06 14:10:31  5-MIN KSTC 032010Z 31015KT 10SM CLR M09/M14 A2984 1100 67 -1600 310/15 RMK AO2
14926KSTC STC20060203141509702/03/06 14:15:31  5-MIN KSTC 032015Z 31017KT 10SM CLR M09/M14 A2984 1100 67 -1600 310/17 RMK AO2
14926KSTC STC20060203142009702/03/06 14:20:31  5-MIN KSTC 032020Z 31015KT 10SM CLR M09/M14 A2984 1100 67 -1600 310/15 RMK AO2
14926KSTC STC20060203142509702/03/06 14:25:31  5-MIN KSTC 032025Z 31017KT 10SM CLR M09/M15 A2984 1100 64 -1600 300/17 RMK AO2
14926KSTC STC20060203143009702/03/06 14:30:31  5-MIN KSTC 032030Z 31016KT 10SM CLR M09/M15 A2985 1100 64 -1600 310/16 RMK AO2
14926KSTC STC20060203143509702/03/06 14:35:31  5-MIN KSTC 032035Z 31017KT 10SM CLR M09/M15 A2985 1090 64 -1600 300/17 RMK AO2
14926KSTC STC20060203144009702/03/06 14:40:31  5-MIN KSTC 032040Z 32016KT 10SM CLR M09/M15 A2985 1090 64 -1600 320/16 RMK AO2
14926KSTC STC20060203144509702/03/06 14:45:31  5-MIN KSTC 032045Z 32015KT 10SM CLR M09/M15 A2985 1090 64 -1600 310/15 RMK AO2
14926KSTC STC20060203145012002/03/06 14:50:31  5-MIN KSTC 032050Z 32016KT 10SM CLR M09/M15 A2986 1090 64 -1600 310/16 RMK AO2 SLP134 T10941150 51020
14926KSTC STC20060203145509702/03/06 14:55:31  5-MIN KSTC 032055Z 32018KT 10SM CLR M09/M15 A2986 1090 64 -1600 310/18 RMK AO2
14926KSTC STC20060203150009702/03/06 15:00:31  5-MIN KSTC 032100Z 31013KT 10SM CLR M09/M14 A2986 1080 67 -1600 300/13 RMK AO2
14926KSTC STC20060203150509702/03/06 15:05:31  5-MIN KSTC 032105Z 31016KT 10SM CLR M09/M15 A2986 1080 64 -1600 300/16 RMK AO2
14926KSTC STC20060203151009702/03/06 15:10:31  5-MIN KSTC 032110Z 31016KT 10SM CLR M09/M15 A2986 1080 64 -1600 300/16 RMK AO2
14926KSTC STC20060203151509702/03/06 15:15:31  5-MIN KSTC 032115Z 30017KT 10SM CLR M09/M15 A2986 1080 64 -1600 300/17 RMK AO2
14926KSTC STC20060203152009702/03/06 15:20:31  5-MIN KSTC 032120Z 31014KT 10SM CLR M09/M15 A2986 1080 64 -1600 310/14 RMK AO2
14926KSTC STC20060203152509702/03/06 15:25:31  5-MIN KSTC 032125Z 31014KT 10SM CLR M09/M15 A2987 1070 64 -1600 300/14 RMK AO2
14926KSTC STC20060203153009702/03/06 15:30:31  5-MIN KSTC 032130Z 31015KT 10SM CLR M09/M15 A2987 1070 64 -1600 310/15 RMK AO2
14926KSTC STC20060203153509702/03/06 15:35:31  5-MIN KSTC 032135Z 31016KT 10SM CLR M09/M15 A2987 1070 64 -1600 310/16 RMK AO2
14926KSTC STC20060203154009702/03/06 15:40:31  5-MIN KSTC 032140Z 32015KT 10SM CLR M09/M15 A2987 1070 64 -1600 320/15 RMK AO2
14926KSTC STC20060203154509702/03/06 15:45:31  5-MIN KSTC 032145Z 32014KT 10SM CLR M09/M15 A2987 1070 64 -1600 310/14 RMK AO2
14926KSTC STC20060203155011402/03/06 15:50:31  5-MIN KSTC 032150Z 31015KT 10SM CLR M09/M15 A2988 1070 64 -1600 310/15 RMK AO2 SLP141 T10941150
14926KSTC STC20060203155509702/03/06 15:55:31  5-MIN KSTC 032155Z 31015KT 10SM CLR M10/M15 A2988 1070 67 -1700 310/15 RMK AO2
14926KSTC STC20060203160009702/03/06 16:00:31  5-MIN KSTC 032200Z 31016KT 10SM CLR M10/M15 A2988 1070 67 -1700 310/16 RMK AO2
14926KSTC STC20060203160509702/03/06 16:05:31  5-MIN KSTC 032205Z 31015KT 10SM CLR M10/M15 A2988 1060 67 -1700 310/15 RMK AO2
14926KSTC STC20060203161009702/03/06 16:10:31  5-MIN KSTC 032210Z 31014KT 10SM CLR M10/M15 A2988 1060 67 -1700 310/14 RMK AO2
14926KSTC STC20060203161509702/03/06 16:15:31  5-MIN KSTC 032215Z 31012KT 10SM CLR M10/M15 A2988 1060 67 -1700 310/12 RMK AO2
14926KSTC STC20060203162009702/03/06 16:20:31  5-MIN KSTC 032220Z 31016KT 10SM CLR M10/M15 A2989 1060 67 -1700 310/16 RMK AO2
14926KSTC STC20060203162509702/03/06 16:25:31  5-MIN KSTC 032225Z 31014KT 10SM CLR M10/M16 A2989 1060 64 -1700 310/14 RMK AO2
14926KSTC STC20060203163009702/03/06 16:30:31  5-MIN KSTC 032230Z 31015KT 10SM CLR M10/M16 A2989 1050 64 -1700 310/15 RMK AO2
14926KSTC STC20060203163509702/03/06 16:35:31  5-MIN KSTC 032235Z 31012KT 10SM CLR M10/M16 A2989 1050 64 -1700 310/12 RMK AO2
14926KSTC STC20060203164009702/03/06 16:40:31  5-MIN KSTC 032240Z 32014KT 10SM CLR M10/M16 A2990 1050 64 -1700 310/14 RMK AO2
14926KSTC STC20060203164509702/03/06 16:45:31  5-MIN KSTC 032245Z 31011KT 10SM CLR M10/M16 A2990 1050 64 -1700 310/11 RMK AO2
14926KSTC STC20060203165011402/03/06 16:50:31  5-MIN KSTC 032250Z 31010KT 10SM CLR M11/M16 A2990 1040 67 -1800 310/10 RMK AO2 SLP151 T11061156
14926KSTC STC20060203165509702/03/06 16:55:31  5-MIN KSTC 032255Z 31014KT 10SM CLR M11/M16 A2990 1040 67 -1800 310/14 RMK AO2
14926KSTC STC20060203170009702/03/06 17:00:31  5-MIN KSTC 032300Z 31013KT 10SM CLR M11/M16 A2991 1040 67 -1800 310/13 RMK AO2
14926KSTC STC20060203170509702/03/06 17:05:31  5-MIN KSTC 032305Z 31011KT 10SM CLR M11/M16 A2991 1040 67 -1800 310/11 RMK AO2
14926KSTC STC20060203171009702/03/06 17:10:31  5-MIN KSTC 032310Z 31012KT 10SM CLR M11/M16 A2991 1030 70 -1900 310/12 RMK AO2
14926KSTC STC20060203171509702/03/06 17:15:31  5-MIN KSTC 032315Z 31013KT 10SM CLR M11/M16 A2991 1030 67 -1900 310/13 RMK AO2
14926KSTC STC20060203172009702/03/06 17:20:31  5-MIN KSTC 032320Z 31013KT 10SM CLR M11/M16 A2992 1030 67 -1900 310/13 RMK AO2
14926KSTC STC20060203172509702/03/06 17:25:31  5-MIN KSTC 032325Z 31013KT 10SM CLR M11/M16 A2992 1030 67 -1900 310/13 RMK AO2
14926KSTC STC20060203173009702/03/06 17:30:31  5-MIN KSTC 032330Z 31013KT 10SM CLR M11/M16 A2992 1030 67 -1900 310/13 RMK AO2
14926KSTC STC20060203173509702/03/06 17:35:31  5-MIN KSTC 032335Z 31014KT 10SM CLR M12/M16 A2992 1020 70 -2000 310/14 RMK AO2
14926KSTC STC20060203174009702/03/06 17:40:31  5-MIN KSTC 032340Z 31013KT 10SM CLR M11/M16 A2993 1020 67 -1900 310/13 RMK AO2
14926KSTC STC20060203174509702/03/06 17:45:31  5-MIN KSTC 032345Z 32013KT 10SM CLR M12/M16 A2993 1020 70 -2000 310/13 RMK AO2
14926KSTC STC20060203175013202/03/06 17:50:31  5-MIN KSTC 032350Z 31012KT 10SM CLR M11/M16 A2993 1010 67 -1900 310/12 RMK AO2 SLP163 T11111161 11089 21117 53016
14926KSTC STC20060203175509702/03/06 17:55:31  5-MIN KSTC 032355Z 31013KT 10SM CLR M12/M16 A2994 1010 70 -2000 310/13 RMK AO2
14926KSTC STC20060203180009702/03/06 18:00:31  5-MIN KSTC 040000Z 31013KT 10SM CLR M12/M17 A2994 1010 67 -2000 310/13 RMK AO2
14926KSTC STC20060203180509702/03/06 18:05:31  5-MIN KSTC 040005Z 32014KT 10SM CLR M12/M17 A2994 1010 67 -2000 320/14 RMK AO2
14926KSTC STC20060203181009702/03/06 18:10:31  5-MIN KSTC 040010Z 32013KT 10SM CLR M12/M17 A2995 1000 67 -2000 320/13 RMK AO2
14926KSTC STC20060203181509702/03/06 18:15:31  5-MIN KSTC 040015Z 32012KT 10SM CLR M12/M17 A2995 1000 67 -2000 320/12 RMK AO2
14926KSTC STC20060203182009702/03/06 18:20:31  5-MIN KSTC 040020Z 32010KT 10SM CLR M12/M17 A2995 1000 67 -2000 320/10 RMK AO2
14926KSTC STC20060203182509702/03/06 18:25:31  5-MIN KSTC 040025Z 32011KT 10SM CLR M12/M17 A2995 1000 70 -2100 310/11 RMK AO2
14926KSTC STC20060203183009702/03/06 18:30:31  5-MIN KSTC 040030Z 32012KT 10SM CLR M12/M17 A2995 1000 67 -2000 310/12 RMK AO2
14926KSTC STC20060203183509602/03/06 18:35:31  5-MIN KSTC 040035Z 32012KT 10SM CLR M12/M17 A2995 990 70 -2100 320/12 RMK AO2
14926KSTC STC20060203184009602/03/06 18:40:31  5-MIN KSTC 040040Z 31010KT 10SM CLR M12/M17 A2996 990 70 -2100 310/10 RMK AO2
14926KSTC STC20060203184509602/03/06 18:45:31  5-MIN KSTC 040045Z 32012KT 10SM CLR M13/M17 A2996 990 70 -2200 310/12 RMK AO2
14926KSTC STC20060203185011302/03/06 18:50:31  5-MIN KSTC 040050Z 31011KT 10SM CLR M13/M17 A2996 990 70 -2200 310/11 RMK AO2 SLP174 T11281172
14926KSTC STC20060203185509602/03/06 18:55:31  5-MIN KSTC 040055Z 31013KT 10SM CLR M13/M17 A2997 980 70 -2200 310/13 RMK AO2
14926KSTC STC20060203190009602/03/06 19:00:31  5-MIN KSTC 040100Z 32011KT 10SM CLR M13/M17 A2997 980 70 -2200 310/11 RMK AO2
14926KSTC STC20060203190509602/03/06 19:05:31  5-MIN KSTC 040105Z 31012KT 10SM CLR M13/M17 A2997 980 70 -2200 310/12 RMK AO2
14926KSTC STC20060203191009602/03/06 19:10:31  5-MIN KSTC 040110Z 31011KT 10SM CLR M13/M17 A2997 980 70 -2200 310/11 RMK AO2
14926KSTC STC20060203191509602/03/06 19:15:31  5-MIN KSTC 040115Z 32011KT 10SM CLR M13/M17 A2997 980 70 -2200 320/11 RMK AO2
14926KSTC STC20060203192009602/03/06 19:20:31  5-MIN KSTC 040120Z 32012KT 10SM CLR M13/M17 A2997 980 70 -2200 310/12 RMK AO2
14926KSTC STC20060203192509602/03/06 19:25:31  5-MIN KSTC 040125Z 32013KT 10SM CLR M13/M17 A2998 980 70 -2200 310/13 RMK AO2
14926KSTC STC20060203193009602/03/06 19:30:31  5-MIN KSTC 040130Z 32011KT 10SM CLR M13/M17 A2998 970 70 -2200 320/11 RMK AO2
14926KSTC STC20060203193509602/03/06 19:35:31  5-MIN KSTC 040135Z 32012KT 10SM CLR M13/M17 A2998 970 70 -2200 310/12 RMK AO2
14926KSTC STC20060203194009602/03/06 19:40:31  5-MIN KSTC 040140Z 32010KT 10SM CLR M13/M17 A2998 970 70 -2200 310/10 RMK AO2
14926KSTC STC20060203194509602/03/06 19:45:31  5-MIN KSTC 040145Z 32009KT 10SM CLR M13/M17 A2999 970 73 -2300 320/09 RMK AO2
14926KSTC STC20060203195011302/03/06 19:50:31  5-MIN KSTC 040150Z 32009KT 10SM CLR M13/M17 A2999 960 73 -2300 310/09 RMK AO2 SLP185 T11331172
14926KSTC STC20060203195509602/03/06 19:55:31  5-MIN KSTC 040155Z 32010KT 10SM CLR M13/M17 A2999 960 73 -2300 320/10 RMK AO2
14926KSTC STC20060203200009602/03/06 20:00:31  5-MIN KSTC 040200Z 32009KT 10SM CLR M13/M17 A2999 960 70 -2200 320/09 RMK AO2
14926KSTC STC20060203214009602/03/06 21:40:31  5-MIN KSTC 040340Z 32009KT 10SM CLR M14/M18 A3003 920 76 -2500 320/09 RMK AO2
14926KSTC STC20060203214509602/03/06 21:45:31  5-MIN KSTC 040345Z 33008KT 10SM CLR M14/M18 A3003 920 73 -2400 320/08 RMK AO2
14926KSTC STC20060203215011302/03/06 21:50:31  5-MIN KSTC 040350Z 33008KT 10SM CLR M14/M18 A3003 920 76 -2500 330/08 RMK AO2 SLP201 T11441178
14926KSTC STC20060203215509602/03/06 21:55:31  5-MIN KSTC 040355Z 33009KT 10SM CLR M14/M18 A3003 920 76 -2500 320/09 RMK AO2
14926KSTC STC20060203220009602/03/06 22:00:31  5-MIN KSTC 040400Z 33009KT 10SM CLR M14/M18 A3003 920 76 -2500 330/09 RMK AO2
14926KSTC STC20060203220509602/03/06 22:05:31  5-MIN KSTC 040405Z 33009KT 10SM CLR M14/M18 A3004 920 73 -2500 330/09 RMK AO2
14926KSTC STC20060203221009602/03/06 22:10:31  5-MIN KSTC 040410Z 33008KT 10SM CLR M14/M18 A3004 920 73 -2500 330/08 RMK AO2
14926KSTC STC20060203221509602/03/06 22:15:31  5-MIN KSTC 040415Z 33007KT 10SM CLR M14/M18 A3004 920 73 -2500 330/07 RMK AO2
14926KSTC STC20060203222009602/03/06 22:20:31  5-MIN KSTC 040420Z 33008KT 10SM CLR M14/M18 A3004 920 73 -2500 330/08 RMK AO2
14926KSTC STC20060203222509602/03/06 22:25:31  5-MIN KSTC 040425Z 33007KT 10SM CLR M14/M18 A3004 920 73 -2500 330/07 RMK AO2
14926KSTC STC20060203223009602/03/06 22:30:31  5-MIN KSTC 040430Z 33008KT 10SM CLR M14/M18 A3004 920 73 -2500 330/08 RMK AO2
14926KSTC STC20060203223509602/03/06 22:35:31  5-MIN KSTC 040435Z 33008KT 10SM CLR M15/M18 A3004 920 76 -2600 330/08 RMK AO2
14926KSTC STC20060203224009602/03/06 22:40:31  5-MIN KSTC 040440Z 33008KT 10SM CLR M15/M18 A3004 910 76 -2600 320/08 RMK AO2
14926KSTC STC20060203224509602/03/06 22:45:31  5-MIN KSTC 040445Z 33007KT 10SM CLR M15/M18 A3004 910 76 -2600 330/07 RMK AO2
14926KSTC STC20060203225011302/03/06 22:50:31  5-MIN KSTC 040450Z 32006KT 10SM CLR M15/M18 A3005 910 76 -2600 320/06 RMK AO2 SLP207 T11501183
14926KSTC STC20060203225509602/03/06 22:55:31  5-MIN KSTC 040455Z 32006KT 10SM CLR M15/M18 A3005 910 76 -2600 320/06 RMK AO2
14926KSTC STC20060203230009602/03/06 23:00:31  5-MIN KSTC 040500Z 32007KT 10SM CLR M15/M18 A3005 910 76 -2600 320/07 RMK AO2
14926KSTC STC20060203230509602/03/06 23:05:31  5-MIN KSTC 040505Z 32007KT 10SM CLR M15/M18 A3005 910 76 -2600 320/07 RMK AO2
14926KSTC STC20060203231009602/03/06 23:10:31  5-MIN KSTC 040510Z 32008KT 10SM CLR M15/M18 A3006 900 76 -2600 320/08 RMK AO2
14926KSTC STC20060203231509602/03/06 23:15:31  5-MIN KSTC 040515Z 32009KT 10SM CLR M15/M18 A3006 900 76 -2600 320/09 RMK AO2
14926KSTC STC20060203232009602/03/06 23:20:31  5-MIN KSTC 040520Z 32009KT 10SM CLR M15/M18 A3006 900 76 -2600 320/09 RMK AO2
14926KSTC STC20060203232509602/03/06 23:25:31  5-MIN KSTC 040525Z 32011KT 10SM CLR M15/M18 A3006 900 76 -2600 310/11 RMK AO2
14926KSTC STC20060203233009602/03/06 23:30:31  5-MIN KSTC 040530Z 33009KT 10SM CLR M15/M18 A3006 900 76 -2600 320/09 RMK AO2
14926KSTC STC20060203233509602/03/06 23:35:31  5-MIN KSTC 040535Z 33008KT 10SM CLR M15/M18 A3006 900 76 -2600 320/08 RMK AO2
14926KSTC STC20060203234009602/03/06 23:40:31  5-MIN KSTC 040540Z 33008KT 10SM CLR M15/M18 A3006 900 76 -2600 320/08 RMK AO2
14926KSTC STC20060203234509602/03/06 23:45:31  5-MIN KSTC 040545Z 33007KT 10SM CLR M15/M18 A3006 900 76 -2600 320/07 RMK AO2
14926KSTC STC20060203235014102/03/06 23:50:31  5-MIN KSTC 040550Z 33007KT 10SM CLR M15/M18 A3006 890 76 -2600 330/07 RMK AO2 SLP212 T11501183 11117 21150 400061150 52027
14926KSTC STC20060203235509602/03/06 23:55:31  5-MIN KSTC 040555Z 32008KT 10SM CLR M15/M18 A3006 890 76 -2600 320/08 RMK AO2
14926KSTC STC20060204000009602/04/06 00:00:32  5-MIN KSTC 040600Z 33008KT 10SM CLR M15/M18 A3006 890 76 -2600 330/08 RMK AO2
14926KSTC STC20060204000509602/04/06 00:05:31  5-MIN KSTC 040605Z 33007KT 10SM CLR M15/M19 A3007 890 72 -2600 330/07 RMK AO2
14926KSTC STC20060204001009602/04/06 00:10:31  5-MIN KSTC 040610Z 33009KT 10SM CLR M15/M19 A3007 890 72 -2600 330/09 RMK AO2
14926KSTC STC20060204001509602/04/06 00:15:31  5-MIN KSTC 040615Z 33008KT 10SM CLR M15/M19 A3007 890 72 -2600 320/08 RMK AO2
14926KSTC STC20060204002009902/04/06 00:20:31  5-MIN KSTC 040620Z 33006KT 10SM FEW019 M16/M19 A3007 890 76 -2700 320/06 RMK AO2
14926KSTC STC20060204002509902/04/06 00:25:31  5-MIN KSTC 040625Z 33008KT 10SM SCT019 M16/M19 A3007 890 76 -2700 330/08 RMK AO2
14926KSTC STC20060204003009902/04/06 00:30:31  5-MIN KSTC 040630Z 33009KT 10SM SCT019 M16/M19 A3007 890 76 -2700 330/09 RMK AO2
14926KSTC STC20060204003509902/04/06 00:35:31  5-MIN KSTC 040635Z 33008KT 10SM BKN019 M16/M19 A3007 880 76 -2700 330/08 RMK AO2
14926KSTC STC20060204004009902/04/06 00:40:31  5-MIN KSTC 040640Z 33007KT 10SM BKN019 M16/M19 A3008 880 76 -2700 330/07 RMK AO2
14926KSTC STC20060204004509902/04/06 00:45:31  5-MIN KSTC 040645Z 32008KT 10SM BKN019 M16/M19 A3008 880 76 -2700 320/08 RMK AO2
14926KSTC STC20060204005011602/04/06 00:50:31  5-MIN KSTC 040650Z 33012KT 10SM BKN019 M16/M19 A3008 880 76 -2700 320/12 RMK AO2 SLP217 T11561189
14926KSTC STC20060204005509902/04/06 00:55:31  5-MIN KSTC 040655Z 33011KT 10SM OVC017 M15/M19 A3008 880 72 -2600 330/11 RMK AO2
14926KSTC STC20060204010009902/04/06 01:00:31  5-MIN KSTC 040700Z 33009KT 10SM OVC017 M16/M19 A3008 880 76 -2700 330/09 RMK AO2
14926KSTC STC20060204010509902/04/06 01:05:31  5-MIN KSTC 040705Z 33008KT 10SM BKN017 M16/M19 A3008 880 76 -2700 330/08 RMK AO2
14926KSTC STC20060204011009902/04/06 01:10:31  5-MIN KSTC 040710Z 33009KT 10SM BKN017 M16/M19 A3008 880 76 -2700 330/09 RMK AO2
14926KSTC STC20060204011509902/04/06 01:15:31  5-MIN KSTC 040715Z 33008KT 10SM OVC017 M16/M19 A3008 880 76 -2700 330/08 RMK AO2
14926KSTC STC20060204012009902/04/06 01:20:31  5-MIN KSTC 040720Z 33007KT 10SM OVC017 M16/M19 A3008 880 76 -2700 330/07 RMK AO2
14926KSTC STC20060204012509902/04/06 01:25:31  5-MIN KSTC 040725Z 33009KT 10SM OVC017 M16/M19 A3008 880 76 -2700 330/09 RMK AO2
14926KSTC STC20060204013009902/04/06 01:30:31  5-MIN KSTC 040730Z 33009KT 10SM BKN017 M16/M19 A3008 880 76 -2700 330/09 RMK AO2
14926KSTC STC20060204013509902/04/06 01:35:31  5-MIN KSTC 040735Z 33008KT 10SM BKN017 M16/M19 A3008 880 76 -2700 330/08 RMK AO2
14926KSTC STC20060204014009902/04/06 01:40:31  5-MIN KSTC 040740Z 33007KT 10SM SCT017 M16/M19 A3008 880 76 -2700 330/07 RMK AO2
14926KSTC STC20060204014509902/04/06 01:45:31  5-MIN KSTC 040745Z 33007KT 10SM FEW017 M16/M19 A3008 880 76 -2800 330/07 RMK AO2
14926KSTC STC20060204015011602/04/06 01:50:31  5-MIN KSTC 040750Z 33007KT 10SM FEW017 M16/M19 A3008 880 76 -2800 330/07 RMK AO2 SLP220 T11611194
14926KSTC STC20060204015509602/04/06 01:55:31  5-MIN KSTC 040755Z 34007KT 10SM CLR M16/M19 A3009 870 76 -2800 330/07 RMK AO2
14926KSTC STC20060204020009602/04/06 02:00:31  5-MIN KSTC 040800Z 34006KT 10SM CLR M16/M19 A3008 880 76 -2800 330/06 RMK AO2
14926KSTC STC20060204020509602/04/06 02:05:31  5-MIN KSTC 040805Z 34007KT 10SM CLR M16/M19 A3008 880 76 -2800 330/07 RMK AO2
14926KSTC STC20060204021009602/04/06 02:10:31  5-MIN KSTC 040810Z 33007KT 10SM CLR M16/M19 A3009 870 76 -2800 330/07 RMK AO2
14926KSTC STC20060204021509602/04/06 02:15:31  5-MIN KSTC 040815Z 34007KT 10SM CLR M16/M19 A3009 870 76 -2800 330/07 RMK AO2
14926KSTC STC20060204022009602/04/06 02:20:31  5-MIN KSTC 040820Z 33006KT 10SM CLR M16/M19 A3009 870 76 -2800 330/06 RMK AO2
14926KSTC STC20060204022509902/04/06 02:25:31  5-MIN KSTC 040825Z 33007KT 10SM FEW015 M17/M19 A3009 870 79 -2800 330/07 RMK AO2
14926KSTC STC20060204023009902/04/06 02:30:31  5-MIN KSTC 040830Z 33007KT 10SM FEW015 M17/M19 A3009 870 79 -2800 330/07 RMK AO2
14926KSTC STC20060204023509602/04/06 02:35:31  5-MIN KSTC 040835Z 33007KT 10SM CLR M17/M19 A3009 870 79 -2800 330/07 RMK AO2
14926KSTC STC20060204024009602/04/06 02:40:31  5-MIN KSTC 040840Z 33006KT 10SM CLR M17/M19 A3009 870 79 -2800 330/06 RMK AO2
14926KSTC STC20060204024509602/04/06 02:45:31  5-MIN KSTC 040845Z 33006KT 10SM CLR M17/M19 A3009 870 79 -2800 330/06 RMK AO2
14926KSTC STC20060204025011902/04/06 02:50:31  5-MIN KSTC 040850Z 33006KT 10SM CLR M17/M19 A3010 860 79 -2800 330/06 RMK AO2 SLP224 T11671194 51015
14926KSTC STC20060204025509602/04/06 02:55:31  5-MIN KSTC 040855Z 33006KT 10SM CLR M17/M19 A3010 860 79 -2800 320/06 RMK AO2
14926KSTC STC20060204030009602/04/06 03:00:31  5-MIN KSTC 040900Z 33006KT 10SM CLR M17/M19 A3010 860 79 -2800 330/06 RMK AO2
14926KSTC STC20060204030509602/04/06 03:05:31  5-MIN KSTC 040905Z 33006KT 10SM CLR M17/M19 A3010 860 79 -2800 330/06 RMK AO2
14926KSTC STC20060204031009602/04/06 03:10:31  5-MIN KSTC 040910Z 33005KT 10SM CLR M17/M20 A3010 860 76 -2800 330/05 RMK AO2
14926KSTC STC20060204031509602/04/06 03:15:31  5-MIN KSTC 040915Z 33005KT 10SM CLR M17/M20 A3010 860 76 -2800 330/05 RMK AO2
14926KSTC STC20060204032009602/04/06 03:20:31  5-MIN KSTC 040920Z 33005KT 10SM CLR M17/M20 A3010 860 76 -2900 330/05 RMK AO2
14926KSTC STC20060204032509602/04/06 03:25:31  5-MIN KSTC 040925Z 34006KT 10SM CLR M17/M20 A3010 860 76 -2900 340/06 RMK AO2
14926KSTC STC20060204033009602/04/06 03:30:31  5-MIN KSTC 040930Z 34006KT 10SM CLR M17/M20 A3010 860 76 -2900 340/06 RMK AO2
14926KSTC STC20060204033509602/04/06 03:35:31  5-MIN KSTC 040935Z 34006KT 10SM CLR M17/M20 A3011 860 76 -2900 330/06 RMK AO2
14926KSTC STC20060204034009602/04/06 03:40:31  5-MIN KSTC 040940Z 35006KT 10SM CLR M17/M20 A3010 860 76 -2900 340/06 RMK AO2
14926KSTC STC20060204034509602/04/06 03:45:31  5-MIN KSTC 040945Z 35006KT 10SM CLR M17/M20 A3011 860 76 -2900 340/06 RMK AO2
14926KSTC STC20060204035011302/04/06 03:50:31  5-MIN KSTC 040950Z 35006KT 10SM CLR M17/M20 A3011 860 76 -2900 340/06 RMK AO2 SLP228 T11671200
14926KSTC STC20060204035509602/04/06 03:55:31  5-MIN KSTC 040955Z 34005KT 10SM CLR M17/M20 A3011 850 76 -2900 340/05 RMK AO2
14926KSTC STC20060204040009602/04/06 04:00:31  5-MIN KSTC 041000Z 34006KT 10SM CLR M17/M20 A3011 850 76 -2900 330/06 RMK AO2
14926KSTC STC20060204040509602/04/06 04:05:31  5-MIN KSTC 041005Z 33005KT 10SM CLR M17/M20 A3011 850 76 -2900 330/05 RMK AO2
14926KSTC STC20060204041009602/04/06 04:10:31  5-MIN KSTC 041010Z 33005KT 10SM CLR M17/M20 A3011 850 76 -2900 330/05 RMK AO2
14926KSTC STC20060204041509602/04/06 04:15:31  5-MIN KSTC 041015Z 33006KT 10SM CLR M17/M20 A3011 850 76 -2900 330/06 RMK AO2
14926KSTC STC20060204042009602/04/06 04:20:31  5-MIN KSTC 041020Z 33005KT 10SM CLR M17/M20 A3011 850 76 -2900 330/05 RMK AO2
14926KSTC STC20060204042509602/04/06 04:25:31  5-MIN KSTC 041025Z 33006KT 10SM CLR M17/M20 A3011 850 79 -2900 330/06 RMK AO2
14926KSTC STC20060204043009602/04/06 04:30:31  5-MIN KSTC 041030Z 34005KT 10SM CLR M17/M20 A3011 850 79 -2900 330/05 RMK AO2
14926KSTC STC20060204043509602/04/06 04:35:31  5-MIN KSTC 041035Z 34006KT 10SM CLR M17/M20 A3012 850 79 -2900 330/06 RMK AO2
14926KSTC STC20060204044009602/04/06 04:40:31  5-MIN KSTC 041040Z 34006KT 10SM CLR M17/M20 A3011 850 79 -2900 330/06 RMK AO2
14926KSTC STC20060204044509602/04/06 04:45:31  5-MIN KSTC 041045Z 34006KT 10SM CLR M17/M20 A3011 850 79 -2900 330/06 RMK AO2
14926KSTC STC20060204045011302/04/06 04:50:31  5-MIN KSTC 041050Z 33006KT 10SM CLR M17/M20 A3011 850 79 -2900 330/06 RMK AO2 SLP232 T11721200
14926KSTC STC20060204045509602/04/06 04:55:31  5-MIN KSTC 041055Z 33005KT 10SM CLR M17/M20 A3012 840 79 -2900 320/05 RMK AO2
14926KSTC STC20060204050009602/04/06 05:00:31  5-MIN KSTC 041100Z 33006KT 10SM CLR M17/M20 A3012 840 79 -2900 330/06 RMK AO2
14926KSTC STC20060204050509602/04/06 05:05:31  5-MIN KSTC 041105Z 32006KT 10SM CLR M17/M20 A3012 840 79 -2900 320/06 RMK AO2
14926KSTC STC20060204051009602/04/06 05:10:31  5-MIN KSTC 041110Z 32006KT 10SM CLR M17/M20 A3012 840 79 -2900 320/06 RMK AO2
14926KSTC STC20060204051509602/04/06 05:15:31  5-MIN KSTC 041115Z 32006KT 10SM CLR M17/M20 A3012 840 79 -2900 320/06 RMK AO2
14926KSTC STC20060204052009602/04/06 05:20:31  5-MIN KSTC 041120Z 32007KT 10SM CLR M17/M20 A3012 840 79 -2900 320/07 RMK AO2
14926KSTC STC20060204052509602/04/06 05:25:31  5-MIN KSTC 041125Z 32006KT 10SM CLR M17/M20 A3012 840 79 -2900 320/06 RMK AO2
14926KSTC STC20060204053009602/04/06 05:30:31  5-MIN KSTC 041130Z 33006KT 10SM CLR M17/M20 A3012 840 79 -2900 330/06 RMK AO2
14926KSTC STC20060204053509602/04/06 05:35:31  5-MIN KSTC 041135Z 33007KT 10SM CLR M17/M20 A3012 840 79 -2900 330/07 RMK AO2
14926KSTC STC20060204054009602/04/06 05:40:31  5-MIN KSTC 041140Z 33006KT 10SM CLR M17/M20 A3012 840 79 -2900 330/06 RMK AO2
14926KSTC STC20060204054509602/04/06 05:45:31  5-MIN KSTC 041145Z 33006KT 10SM CLR M17/M20 A3012 840 79 -3000 320/06 RMK AO2
14926KSTC STC20060204055013102/04/06 05:50:31  5-MIN KSTC 041150Z 33006KT 10SM CLR M17/M20 A3012 840 79 -3000 330/06 RMK AO2 SLP235 T11721200 11150 21172 53012
14926KSTC STC20060204055509602/04/06 05:55:31  5-MIN KSTC 041155Z 33007KT 10SM CLR M17/M20 A3012 840 79 -3000 330/07 RMK AO2
14926KSTC STC20060204060009602/04/06 06:00:31  5-MIN KSTC 041200Z 34008KT 10SM CLR M17/M20 A3012 840 76 -2900 330/08 RMK AO2
14926KSTC STC20060204060509602/04/06 06:05:31  5-MIN KSTC 041205Z 34007KT 10SM CLR M17/M20 A3012 840 76 -2900 330/07 RMK AO2
14926KSTC STC20060204061009602/04/06 06:10:31  5-MIN KSTC 041210Z 33007KT 10SM CLR M17/M20 A3012 840 79 -3000 330/07 RMK AO2
14926KSTC STC20060204061509602/04/06 06:15:31  5-MIN KSTC 041215Z 32008KT 10SM CLR M17/M20 A3013 840 79 -3000 320/08 RMK AO2
14926KSTC STC20060204062009602/04/06 06:20:31  5-MIN KSTC 041220Z 32007KT 10SM CLR M17/M20 A3013 840 79 -3000 320/07 RMK AO2
14926KSTC STC20060204062509602/04/06 06:25:31  5-MIN KSTC 041225Z 32008KT 10SM CLR M17/M20 A3013 840 79 -3000 320/08 RMK AO2
14926KSTC STC20060204063009602/04/06 06:30:31  5-MIN KSTC 041230Z 32007KT 10SM CLR M17/M20 A3013 840 79 -3000 320/07 RMK AO2
14926KSTC STC20060204063509602/04/06 06:35:31  5-MIN KSTC 041235Z 33007KT 10SM CLR M17/M20 A3013 840 79 -3000 320/07 RMK AO2
14926KSTC STC20060204064009602/04/06 06:40:31  5-MIN KSTC 041240Z 33008KT 10SM CLR M17/M20 A3013 840 79 -3000 330/08 RMK AO2
14926KSTC STC20060204064509602/04/06 06:45:31  5-MIN KSTC 041245Z 32008KT 10SM CLR M17/M20 A3013 830 79 -3000 320/08 RMK AO2
14926KSTC STC20060204065011302/04/06 06:50:31  5-MIN KSTC 041250Z 33008KT 10SM CLR M17/M20 A3013 830 79 -3000 330/08 RMK AO2 SLP237 T11721200
14926KSTC STC20060204065509602/04/06 06:55:31  5-MIN KSTC 041255Z 33008KT 10SM CLR M17/M20 A3013 830 79 -3000 320/08 RMK AO2
14926KSTC STC20060204070009602/04/06 07:00:31  5-MIN KSTC 041300Z 33008KT 10SM CLR M17/M20 A3013 830 79 -3000 320/08 RMK AO2
14926KSTC STC20060204070509602/04/06 07:05:31  5-MIN KSTC 041305Z 33008KT 10SM CLR M17/M20 A3013 840 79 -3000 330/08 RMK AO2
14926KSTC STC20060204071009602/04/06 07:10:31  5-MIN KSTC 041310Z 33008KT 10SM CLR M17/M20 A3013 830 79 -3000 320/08 RMK AO2
14926KSTC STC20060204071509602/04/06 07:15:31  5-MIN KSTC 041315Z 33009KT 10SM CLR M17/M20 A3013 830 79 -3000 330/09 RMK AO2
14926KSTC STC20060204072009602/04/06 07:20:31  5-MIN KSTC 041320Z 33008KT 10SM CLR M17/M20 A3013 830 79 -3000 320/08 RMK AO2
14926KSTC STC20060204072509602/04/06 07:25:31  5-MIN KSTC 041325Z 33009KT 10SM CLR M17/M21 A3013 830 76 -3000 330/09 RMK AO2
14926KSTC STC20060204073009602/04/06 07:30:31  5-MIN KSTC 041330Z 33009KT 10SM CLR M17/M21 A3013 830 76 -3000 320/09 RMK AO2
14926KSTC STC20060204073509602/04/06 07:35:31  5-MIN KSTC 041335Z 33008KT 10SM CLR M17/M21 A3013 830 76 -3000 330/08 RMK AO2
14926KSTC STC20060204074009602/04/06 07:40:31  5-MIN KSTC 041340Z 33008KT 10SM CLR M17/M21 A3013 830 76 -3000 330/08 RMK AO2
14926KSTC STC20060204074509602/04/06 07:45:31  5-MIN KSTC 041345Z 33009KT 10SM CLR M17/M21 A3013 830 76 -3000 330/09 RMK AO2
14926KSTC STC20060204075011302/04/06 07:50:31  5-MIN KSTC 041350Z 33008KT 10SM CLR M17/M21 A3014 830 76 -3000 330/08 RMK AO2 SLP240 T11721206
14926KSTC STC20060204075509602/04/06 07:55:31  5-MIN KSTC 041355Z 33009KT 10SM CLR M17/M21 A3014 830 76 -3000 330/09 RMK AO2
14926KSTC STC20060204080009602/04/06 08:00:31  5-MIN KSTC 041400Z 33009KT 10SM CLR M17/M20 A3014 830 79 -3000 320/09 RMK AO2
14926KSTC STC20060204080509602/04/06 08:05:31  5-MIN KSTC 041405Z 33008KT 10SM CLR M17/M20 A3014 820 79 -3000 320/08 RMK AO2
14926KSTC STC20060204081009602/04/06 08:10:31  5-MIN KSTC 041410Z 33009KT 10SM CLR M17/M20 A3014 820 79 -3000 320/09 RMK AO2
14926KSTC STC20060204081509602/04/06 08:15:31  5-MIN KSTC 041415Z 33010KT 10SM CLR M17/M20 A3014 820 79 -3000 330/10 RMK AO2
14926KSTC STC20060204082009602/04/06 08:20:31  5-MIN KSTC 041420Z 33009KT 10SM CLR M17/M20 A3014 820 76 -2900 330/09 RMK AO2
14926KSTC STC20060204082509602/04/06 08:25:31  5-MIN KSTC 041425Z 33008KT 10SM CLR M17/M20 A3014 820 76 -2900 330/08 RMK AO2
14926KSTC STC20060204083009602/04/06 08:30:31  5-MIN KSTC 041430Z 33010KT 10SM CLR M17/M20 A3014 820 76 -2900 320/10 RMK AO2
14926KSTC STC20060204083509602/04/06 08:35:31  5-MIN KSTC 041435Z 33011KT 10SM CLR M17/M20 A3014 820 76 -2900 330/11 RMK AO2
14926KSTC STC20060204084010202/04/06 08:40:31  5-MIN KSTC 041440Z 33009G16KT 10SM CLR M17/M20 A3014 830 76 -2900 330/09G16 RMK AO2
14926KSTC STC20060204084509602/04/06 08:45:31  5-MIN KSTC 041445Z 34010KT 10SM CLR M17/M20 A3014 830 76 -2900 340/10 RMK AO2
14926KSTC STC20060204085011902/04/06 08:50:31  5-MIN KSTC 041450Z 33009KT 10SM CLR M16/M20 A3014 830 72 -2800 330/09 RMK AO2 SLP240 T11611200 53008
14926KSTC STC20060204085509602/04/06 08:55:31  5-MIN KSTC 041455Z 33010KT 10SM CLR M16/M20 A3014 830 72 -2800 330/10 RMK AO2
14926KSTC STC20060204090009602/04/06 09:00:31  5-MIN KSTC 041500Z 33010KT 10SM CLR M16/M20 A3014 830 72 -2800 330/10 RMK AO2
14926KSTC STC20060204090509602/04/06 09:05:31  5-MIN KSTC 041505Z 33008KT 10SM CLR M16/M19 A3014 830 76 -2800 330/08 RMK AO2
14926KSTC STC20060204091009602/04/06 09:10:31  5-MIN KSTC 041510Z 33011KT 10SM CLR M16/M19 A3014 830 72 -2700 330/11 RMK AO2
14926KSTC STC20060204091509602/04/06 09:15:31  5-MIN KSTC 041515Z 33010KT 10SM CLR M16/M19 A3014 830 72 -2700 330/10 RMK AO2
14926KSTC STC20060204092009602/04/06 09:20:31  5-MIN KSTC 041520Z 33009KT 10SM CLR M16/M19 A3014 830 72 -2700 330/09 RMK AO2
14926KSTC STC20060204092509602/04/06 09:25:31  5-MIN KSTC 041525Z 33008KT 10SM CLR M16/M19 A3014 830 72 -2700 330/08 RMK AO2
14926KSTC STC20060204093009602/04/06 09:30:31  5-MIN KSTC 041530Z 33009KT 10SM CLR M16/M19 A3014 830 72 -2700 330/09 RMK AO2
14926KSTC STC20060204093509602/04/06 09:35:31  5-MIN KSTC 041535Z 33009KT 10SM CLR M15/M19 A3014 830 69 -2700 330/09 RMK AO2
14926KSTC STC20060204094009602/04/06 09:40:31  5-MIN KSTC 041540Z 33009KT 10SM CLR M15/M19 A3014 830 72 -2700 330/09 RMK AO2
14926KSTC STC20060204094509602/04/06 09:45:31  5-MIN KSTC 041545Z 33009KT 10SM CLR M15/M19 A3014 830 72 -2700 330/09 RMK AO2
14926KSTC STC20060204095011302/04/06 09:50:31  5-MIN KSTC 041550Z 34010KT 10SM CLR M14/M19 A3014 830 69 -2600 330/10 RMK AO2 SLP239 T11441189
14926KSTC STC20060204095509602/04/06 09:55:31  5-MIN KSTC 041555Z 33010KT 10SM CLR M14/M19 A3014 830 69 -2600 330/10 RMK AO2
14926KSTC STC20060204100009602/04/06 10:00:31  5-MIN KSTC 041600Z 33009KT 10SM CLR M14/M18 A3014 830 69 -2500 330/09 RMK AO2
14926KSTC STC20060204100509602/04/06 10:05:31  5-MIN KSTC 041605Z 33010KT 10SM CLR M14/M18 A3014 830 69 -2500 330/10 RMK AO2
14926KSTC STC20060204101009602/04/06 10:10:31  5-MIN KSTC 041610Z 33009KT 10SM CLR M14/M18 A3014 830 69 -2500 330/09 RMK AO2
14926KSTC STC20060204101509602/04/06 10:15:31  5-MIN KSTC 041615Z 33009KT 10SM CLR M14/M18 A3014 820 69 -2500 330/09 RMK AO2
14926KSTC STC20060204102009602/04/06 10:20:31  5-MIN KSTC 041620Z 33009KT 10SM CLR M13/M18 A3014 820 69 -2400 330/09 RMK AO2
14926KSTC STC20060204102509602/04/06 10:25:31  5-MIN KSTC 041625Z 33008KT 10SM CLR M13/M18 A3014 820 69 -2400 330/08 RMK AO2
14926KSTC STC20060204103009602/04/06 10:30:31  5-MIN KSTC 041630Z 31013KT 10SM CLR M13/M18 A3014 820 69 -2500 310/13 RMK AO2
14926KSTC STC20060204103509602/04/06 10:35:31  5-MIN KSTC 041635Z 32011KT 10SM CLR M13/M18 A3015 820 69 -2500 310/11 RMK AO2
14926KSTC STC20060204104009602/04/06 10:40:31  5-MIN KSTC 041640Z 32012KT 10SM CLR M13/M18 A3015 820 66 -2500 320/12 RMK AO2
14926KSTC STC20060204104509602/04/06 10:45:31  5-MIN KSTC 041645Z 32013KT 10SM CLR M13/M18 A3015 820 66 -2500 310/13 RMK AO2
14926KSTC STC20060204105011302/04/06 10:50:31  5-MIN KSTC 041650Z 32012KT 10SM CLR M13/M18 A3015 820 66 -2400 320/12 RMK AO2 SLP243 T11281178
14926KSTC STC20060204105509602/04/06 10:55:31  5-MIN KSTC 041655Z 33010KT 10SM CLR M13/M18 A3015 820 69 -2500 320/10 RMK AO2
14926KSTC STC20060204110009602/04/06 11:00:31  5-MIN KSTC 041700Z 33011KT 10SM CLR M13/M18 A3015 820 66 -2400 320/11 RMK AO2
14926KSTC STC20060204110509602/04/06 11:05:31  5-MIN KSTC 041705Z 33011KT 10SM CLR M12/M18 A3015 820 64 -2300 320/11 RMK AO2
14926KSTC STC20060204111009602/04/06 11:10:31  5-MIN KSTC 041710Z 33010KT 10SM CLR M12/M17 A3014 820 67 -2300 330/10 RMK AO2
14926KSTC STC20060204111509602/04/06 11:15:31  5-MIN KSTC 041715Z 34011KT 10SM CLR M12/M17 A3014 820 67 -2300 330/11 RMK AO2
14926KSTC STC20060204112009602/04/06 11:20:31  5-MIN KSTC 041720Z 34010KT 10SM CLR M12/M17 A3014 830 67 -2300 330/10 RMK AO2
14926KSTC STC20060204112509602/04/06 11:25:31  5-MIN KSTC 041725Z 34007KT 10SM CLR M12/M17 A3013 830 67 -2300 340/07 RMK AO2
14926KSTC STC20060204113009602/04/06 11:30:31  5-MIN KSTC 041730Z 34010KT 10SM CLR M12/M17 A3014 830 64 -2200 330/10 RMK AO2
14926KSTC STC20060204113509602/04/06 11:35:31  5-MIN KSTC 041735Z 34009KT 10SM CLR M12/M17 A3013 830 67 -2200 330/09 RMK AO2
14926KSTC STC20060204114009602/04/06 11:40:31  5-MIN KSTC 041740Z 33010KT 10SM CLR M12/M17 A3013 830 67 -2200 320/10 RMK AO2
14926KSTC STC20060204114509602/04/06 11:45:31  5-MIN KSTC 041745Z 33010KT 10SM CLR M12/M17 A3013 830 67 -2200 330/10 RMK AO2
14926KSTC STC20060204115013102/04/06 11:50:31  5-MIN KSTC 041750Z 33011KT 10SM CLR M11/M17 A3013 830 64 -2100 330/11 RMK AO2 SLP235 T11111167 11111 21172 51004
14926KSTC STC20060204115509602/04/06 11:55:31  5-MIN KSTC 041755Z 33010KT 10SM CLR M11/M17 A3012 840 64 -2100 320/10 RMK AO2
14926KSTC STC20060204120009602/04/06 12:00:31  5-MIN KSTC 041800Z 34009KT 10SM CLR M11/M17 A3012 840 64 -2100 330/09 RMK AO2
14926KSTC STC20060204120509602/04/06 12:05:31  5-MIN KSTC 041805Z 33009KT 10SM CLR M11/M17 A3012 840 64 -2100 330/09 RMK AO2
14926KSTC STC20060204121009602/04/06 12:10:31  5-MIN KSTC 041810Z 33010KT 10SM CLR M11/M16 A3011 850 64 -2000 320/10 RMK AO2
14926KSTC STC20060204121509602/04/06 12:15:31  5-MIN KSTC 041815Z 33010KT 10SM CLR M11/M16 A3011 850 64 -2000 320/10 RMK AO2
14926KSTC STC20060204122009602/04/06 12:20:31  5-MIN KSTC 041820Z 33010KT 10SM CLR M11/M16 A3011 850 64 -2000 330/10 RMK AO2
14926KSTC STC20060204122509602/04/06 12:25:31  5-MIN KSTC 041825Z 32010KT 10SM CLR M11/M16 A3011 860 67 -2000 320/10 RMK AO2
14926KSTC STC20060204123009602/04/06 12:30:31  5-MIN KSTC 041830Z 33009KT 10SM CLR M10/M16 A3010 860 64 -2000 320/09 RMK AO2
14926KSTC STC20060204123509602/04/06 12:35:31  5-MIN KSTC 041835Z 33010KT 10SM CLR M10/M16 A3010 860 61 -2000 330/10 RMK AO2
14926KSTC STC20060204124009602/04/06 12:40:31  5-MIN KSTC 041840Z 33010KT 10SM CLR M10/M16 A3009 870 61 -1900 330/10 RMK AO2
14926KSTC STC20060204124509602/04/06 12:45:31  5-MIN KSTC 041845Z 34010KT 10SM CLR M10/M16 A3009 870 64 -1900 330/10 RMK AO2
14926KSTC STC20060204125011302/04/06 12:50:31  5-MIN KSTC 041850Z 34011KT 10SM CLR M09/M16 A3009 870 61 -1900 330/11 RMK AO2 SLP220 T10941156
14926KSTC STC20060204125509602/04/06 12:55:31  5-MIN KSTC 041855Z 35011KT 10SM CLR M09/M16 A3008 880 61 -1900 340/11 RMK AO2
14926KSTC STC20060204130009602/04/06 13:00:31  5-MIN KSTC 041900Z 34010KT 10SM CLR M09/M16 A3008 880 61 -1900 340/10 RMK AO2
14926KSTC STC20060204130509602/04/06 13:05:31  5-MIN KSTC 041905Z 33010KT 10SM CLR M09/M15 A3008 880 61 -1800 330/10 RMK AO2
14926KSTC STC20060204131009602/04/06 13:10:31  5-MIN KSTC 041910Z 33010KT 10SM CLR M09/M15 A3007 890 61 -1800 330/10 RMK AO2
14926KSTC STC20060204131509602/04/06 13:15:31  5-MIN KSTC 041915Z 34011KT 10SM CLR M09/M15 A3007 890 61 -1800 330/11 RMK AO2
14926KSTC STC20060204132009602/04/06 13:20:31  5-MIN KSTC 041920Z 33009KT 10SM CLR M09/M15 A3007 890 61 -1800 330/09 RMK AO2
14926KSTC STC20060204132510202/04/06 13:25:31  5-MIN KSTC 041925Z 34013G16KT 10SM CLR M08/M14 A3007 890 62 -1700 340/13G16 RMK AO2
14926KSTC STC20060204133010202/04/06 13:30:31  5-MIN KSTC 041930Z 34009G16KT 10SM CLR M08/M15 A3007 890 59 -1700 340/09G16 RMK AO2
14926KSTC STC20060204133509602/04/06 13:35:31  5-MIN KSTC 041935Z 34009KT 10SM CLR M08/M14 A3007 890 62 -1700 330/09 RMK AO2
14926KSTC STC20060204134009602/04/06 13:40:31  5-MIN KSTC 041940Z 34010KT 10SM CLR M08/M14 A3006 890 59 -1600 340/10 RMK AO2
14926KSTC STC20060204134509602/04/06 13:45:31  5-MIN KSTC 041945Z 33008KT 10SM CLR M08/M14 A3006 890 62 -1700 330/08 RMK AO2
14926KSTC STC20060204135011302/04/06 13:50:31  5-MIN KSTC 041950Z 33011KT 10SM CLR M08/M14 A3006 900 62 -1700 330/11 RMK AO2 SLP211 T10831144
14926KSTC STC20060204135509602/04/06 13:55:31  5-MIN KSTC 041955Z 35010KT 10SM CLR M08/M14 A3006 900 62 -1700 340/10 RMK AO2
14926KSTC STC20060204140009602/04/06 14:00:31  5-MIN KSTC 042000Z 34008KT 10SM CLR M08/M14 A3006 900 59 -1600 340/08 RMK AO2
14926KSTC STC20060204140509602/04/06 14:05:31  5-MIN KSTC 042005Z 34011KT 10SM CLR M08/M14 A3006 900 59 -1600 340/11 RMK AO2
14926KSTC STC20060204141009602/04/06 14:10:31  5-MIN KSTC 042010Z 35009KT 10SM CLR M08/M14 A3006 900 59 -1600 350/09 RMK AO2
14926KSTC STC20060204141509602/04/06 14:15:31  5-MIN KSTC 042015Z 35011KT 10SM CLR M08/M14 A3006 900 59 -1600 340/11 RMK AO2
14926KSTC STC20060204142009602/04/06 14:20:31  5-MIN KSTC 042020Z 33008KT 10SM CLR M08/M14 A3006 900 59 -1600 330/08 RMK AO2
14926KSTC STC20060204142509602/04/06 14:25:31  5-MIN KSTC 042025Z 33010KT 10SM CLR M08/M14 A3006 900 59 -1600 330/10 RMK AO2
14926KSTC STC20060204143009602/04/06 14:30:31  5-MIN KSTC 042030Z 34011KT 10SM CLR M08/M14 A3006 900 59 -1600 330/11 RMK AO2
14926KSTC STC20060204143509602/04/06 14:35:31  5-MIN KSTC 042035Z 34011KT 10SM CLR M08/M14 A3006 900 59 -1600 330/11 RMK AO2
14926KSTC STC20060204144009602/04/06 14:40:31  5-MIN KSTC 042040Z 33010KT 10SM CLR M08/M14 A3006 900 59 -1600 330/10 RMK AO2
14926KSTC STC20060204144509602/04/06 14:45:31  5-MIN KSTC 042045Z 34009KT 10SM CLR M07/M14 A3006 900 56 -1500 330/09 RMK AO2
14926KSTC STC20060204145011902/04/06 14:50:31  5-MIN KSTC 042050Z 34009KT 10SM CLR M07/M14 A3006 900 56 -1500 340/09 RMK AO2 SLP210 T10721144 58003
14926KSTC STC20060204145509602/04/06 14:55:31  5-MIN KSTC 042055Z 33011KT 10SM CLR M07/M14 A3006 900 56 -1500 320/11 RMK AO2
14926KSTC STC20060204150009602/04/06 15:00:31  5-MIN KSTC 042100Z 34011KT 10SM CLR M07/M14 A3006 900 56 -1500 340/11 RMK AO2
14926KSTC STC20060204150509602/04/06 15:05:31  5-MIN KSTC 042105Z 35010KT 10SM CLR M07/M14 A3006 900 56 -1500 340/10 RMK AO2
14926KSTC STC20060204151009602/04/06 15:10:31  5-MIN KSTC 042110Z 35009KT 10SM CLR M07/M14 A3006 900 56 -1500 340/09 RMK AO2
14926KSTC STC20060204151509602/04/06 15:15:31  5-MIN KSTC 042115Z 35008KT 10SM CLR M07/M14 A3006 900 59 -1500 350/08 RMK AO2
14926KSTC STC20060204152009602/04/06 15:20:31  5-MIN KSTC 042120Z 35010KT 10SM CLR M07/M14 A3006 900 56 -1500 340/10 RMK AO2
14926KSTC STC20060204152509602/04/06 15:25:31  5-MIN KSTC 042125Z 35010KT 10SM CLR M07/M14 A3006 900 56 -1500 340/10 RMK AO2
14926KSTC STC20060204153009602/04/06 15:30:31  5-MIN KSTC 042130Z 34010KT 10SM CLR M07/M14 A3006 900 56 -1500 340/10 RMK AO2
14926KSTC STC20060204153509602/04/06 15:35:31  5-MIN KSTC 042135Z 34008KT 10SM CLR M07/M14 A3006 900 59 -1500 330/08 RMK AO2
14926KSTC STC20060204154009602/04/06 15:40:31  5-MIN KSTC 042140Z 34008KT 10SM CLR M07/M14 A3005 900 59 -1500 340/08 RMK AO2
14926KSTC STC20060204154509602/04/06 15:45:31  5-MIN KSTC 042145Z 35007KT 10SM CLR M07/M14 A3005 900 59 -1500 350/07 RMK AO2
14926KSTC STC20060204155011302/04/06 15:50:31  5-MIN KSTC 042150Z 36009KT 10SM CLR M07/M14 A3005 900 59 -1500 350/09 RMK AO2 SLP209 T10721139
14926KSTC STC20060204155509602/04/06 15:55:31  5-MIN KSTC 042155Z 36007KT 10SM CLR M07/M14 A3005 910 59 -1500 360/07 RMK AO2
14926KSTC STC20060204160009602/04/06 16:00:31  5-MIN KSTC 042200Z 36009KT 10SM CLR M07/M14 A3005 910 59 -1500 360/09 RMK AO2
14926KSTC STC20060204160509602/04/06 16:05:31  5-MIN KSTC 042205Z 35010KT 10SM CLR M07/M14 A3005 910 59 -1500 340/10 RMK AO2
14926KSTC STC20060204161009602/04/06 16:10:31  5-MIN KSTC 042210Z 35007KT 10SM CLR M07/M14 A3005 900 59 -1500 350/07 RMK AO2
14926KSTC STC20060204161509602/04/06 16:15:31  5-MIN KSTC 042215Z 34008KT 10SM CLR M07/M14 A3005 900 59 -1500 340/08 RMK AO2
14926KSTC STC20060204162009602/04/06 16:20:31  5-MIN KSTC 042220Z 35006KT 10SM CLR M07/M14 A3005 900 59 -1500 340/06 RMK AO2
14926KSTC STC20060204162509602/04/06 16:25:31  5-MIN KSTC 042225Z 35007KT 10SM CLR M07/M14 A3005 900 59 -1500 350/07 RMK AO2
14926KSTC STC20060204163009602/04/06 16:30:31  5-MIN KSTC 042230Z 35009KT 10SM CLR M07/M14 A3005 900 59 -1500 350/09 RMK AO2
14926KSTC STC20060204163509602/04/06 16:35:31  5-MIN KSTC 042235Z 35007KT 10SM CLR M07/M14 A3005 900 59 -1500 350/07 RMK AO2
14926KSTC STC20060204164009602/04/06 16:40:31  5-MIN KSTC 042240Z 35008KT 10SM CLR M08/M14 A3005 910 62 -1600 350/08 RMK AO2
14926KSTC STC20060204164509602/04/06 16:45:31  5-MIN KSTC 042245Z 35007KT 10SM CLR M08/M14 A3005 910 59 -1600 340/07 RMK AO2
14926KSTC STC20060204165011302/04/06 16:50:31  5-MIN KSTC 042250Z 34007KT 10SM CLR M08/M14 A3005 910 59 -1600 340/07 RMK AO2 SLP208 T10781144
14926KSTC STC20060204165509602/04/06 16:55:31  5-MIN KSTC 042255Z 34007KT 10SM CLR M08/M14 A3005 910 59 -1600 330/07 RMK AO2
14926KSTC STC20060204170009602/04/06 17:00:31  5-MIN KSTC 042300Z 34007KT 10SM CLR M08/M14 A3005 910 59 -1600 340/07 RMK AO2
14926KSTC STC20060204170509602/04/06 17:05:31  5-MIN KSTC 042305Z 34008KT 10SM CLR M08/M14 A3005 910 59 -1600 330/08 RMK AO2
14926KSTC STC20060204171009602/04/06 17:10:31  5-MIN KSTC 042310Z 34008KT 10SM CLR M08/M14 A3005 910 59 -1600 330/08 RMK AO2
14926KSTC STC20060204171509602/04/06 17:15:31  5-MIN KSTC 042315Z 34008KT 10SM CLR M08/M14 A3005 910 59 -1600 330/08 RMK AO2
14926KSTC STC20060204172009602/04/06 17:20:31  5-MIN KSTC 042320Z 34008KT 10SM CLR M08/M14 A3004 910 62 -1700 330/08 RMK AO2
14926KSTC STC20060204172509602/04/06 17:25:31  5-MIN KSTC 042325Z 33007KT 10SM CLR M08/M14 A3004 910 62 -1700 330/07 RMK AO2
14926KSTC STC20060204173009602/04/06 17:30:31  5-MIN KSTC 042330Z 33007KT 10SM CLR M08/M14 A3004 920 62 -1700 320/07 RMK AO2
14926KSTC STC20060204173509602/04/06 17:35:31  5-MIN KSTC 042335Z 33007KT 10SM CLR M09/M14 A3004 920 64 -1700 320/07 RMK AO2
14926KSTC STC20060204174009602/04/06 17:40:31  5-MIN KSTC 042340Z 33008KT 10SM CLR M09/M14 A3004 920 64 -1700 330/08 RMK AO2
14926KSTC STC20060204174509602/04/06 17:45:31  5-MIN KSTC 042345Z 33007KT 10SM CLR M09/M14 A3004 920 64 -1700 320/07 RMK AO2
14926KSTC STC20060204175013102/04/06 17:50:31  5-MIN KSTC 042350Z 33007KT 10SM CLR M09/M14 A3004 920 64 -1700 320/07 RMK AO2 SLP205 T10891144 11067 21111 56022
14926KSTC STC20060204175509602/04/06 17:55:31  5-MIN KSTC 042355Z 32007KT 10SM CLR M09/M14 A3004 920 64 -1700 320/07 RMK AO2
14926KSTC STC20060204180009602/04/06 18:00:31  5-MIN KSTC 050000Z 32006KT 10SM CLR M09/M14 A3004 910 67 -1800 320/06 RMK AO2
14926KSTC STC20060204180509602/04/06 18:05:31  5-MIN KSTC 050005Z 32007KT 10SM CLR M09/M14 A3004 910 67 -1800 320/07 RMK AO2
14926KSTC STC20060204181009602/04/06 18:10:31  5-MIN KSTC 050010Z 32005KT 10SM CLR M09/M14 A3004 910 67 -1800 320/05 RMK AO2
14926KSTC STC20060204181509602/04/06 18:15:31  5-MIN KSTC 050015Z 32006KT 10SM CLR M11/M15 A3004 910 70 -2000 320/06 RMK AO2
14926KSTC STC20060204182009602/04/06 18:20:31  5-MIN KSTC 050020Z 33005KT 10SM CLR M11/M16 A3004 910 70 -2000 320/05 RMK AO2
14926KSTC STC20060204182509602/04/06 18:25:31  5-MIN KSTC 050025Z 33004KT 10SM CLR M11/M16 A3004 910 67 -2000 330/04 RMK AO2
14926KSTC STC20060204183009602/04/06 18:30:31  5-MIN KSTC 050030Z 33005KT 10SM CLR M11/M16 A3004 910 70 -2000 320/05 RMK AO2
14926KSTC STC20060204183509602/04/06 18:35:31  5-MIN KSTC 050035Z 33005KT 10SM CLR M11/M16 A3004 920 70 -2000 330/05 RMK AO2
14926KSTC STC20060204184009602/04/06 18:40:31  5-MIN KSTC 050040Z 33005KT 10SM CLR M11/M16 A3004 910 70 -2000 320/05 RMK AO2
14926KSTC STC20060204184509602/04/06 18:45:31  5-MIN KSTC 050045Z 33005KT 10SM CLR M11/M16 A3004 910 70 -2000 330/05 RMK AO2
14926KSTC STC20060204185011302/04/06 18:50:31  5-MIN KSTC 050050Z 33006KT 10SM CLR M11/M16 A3004 910 70 -2000 330/06 RMK AO2 SLP207 T11111156
14926KSTC STC20060204185509602/04/06 18:55:31  5-MIN KSTC 050055Z 33005KT 10SM CLR M11/M16 A3004 910 70 -2000 320/05 RMK AO2
14926KSTC STC20060204190009602/04/06 19:00:31  5-MIN KSTC 050100Z 33005KT 10SM CLR M11/M16 A3004 910 70 -2000 330/05 RMK AO2
14926KSTC STC20060204190509602/04/06 19:05:31  5-MIN KSTC 050105Z 33005KT 10SM CLR M11/M16 A3004 920 70 -2000 330/05 RMK AO2
14926KSTC STC20060204191009602/04/06 19:10:31  5-MIN KSTC 050110Z 34006KT 10SM CLR M11/M16 A3004 920 70 -2000 330/06 RMK AO2
14926KSTC STC20060204191509602/04/06 19:15:31  5-MIN KSTC 050115Z 34006KT 10SM CLR M11/M16 A3004 920 70 -2000 330/06 RMK AO2
14926KSTC STC20060204192009602/04/06 19:20:31  5-MIN KSTC 050120Z 33006KT 10SM CLR M11/M16 A3004 920 70 -2000 330/06 RMK AO2
14926KSTC STC20060204192509602/04/06 19:25:31  5-MIN KSTC 050125Z 34005KT 10SM CLR M11/M16 A3004 920 70 -2000 340/05 RMK AO2
14926KSTC STC20060204193009602/04/06 19:30:31  5-MIN KSTC 050130Z 34006KT 10SM CLR M12/M16 A3004 920 73 -2100 340/06 RMK AO2
14926KSTC STC20060204193509602/04/06 19:35:31  5-MIN KSTC 050135Z 34006KT 10SM CLR M11/M16 A3004 920 70 -2000 340/06 RMK AO2
14926KSTC STC20060204194009602/04/06 19:40:31  5-MIN KSTC 050140Z 35008KT 10SM CLR M11/M16 A3004 920 70 -2000 340/08 RMK AO2
14926KSTC STC20060204194509602/04/06 19:45:31  5-MIN KSTC 050145Z 35007KT 10SM CLR M11/M16 A3003 920 67 -2000 340/07 RMK AO2
14926KSTC STC20060204195011302/04/06 19:50:31  5-MIN KSTC 050150Z 35009KT 10SM CLR M10/M15 A3003 920 67 -1900 350/09 RMK AO2 SLP202 T11001150
14926KSTC STC20060204195509602/04/06 19:55:31  5-MIN KSTC 050155Z 35008KT 10SM CLR M10/M15 A3003 920 67 -1900 350/08 RMK AO2
14926KSTC STC20060204200009602/04/06 20:00:31  5-MIN KSTC 050200Z 35008KT 10SM CLR M10/M15 A3003 920 67 -1900 340/08 RMK AO2
14926KSTC STC20060204200509602/04/06 20:05:31  5-MIN KSTC 050205Z 34009KT 10SM CLR M11/M15 A3003 930 70 -1900 340/09 RMK AO2
14926KSTC STC20060204201009602/04/06 20:10:31  5-MIN KSTC 050210Z 35009KT 10SM CLR M11/M15 A3003 930 70 -1900 350/09 RMK AO2
14926KSTC STC20060204201509602/04/06 20:15:31  5-MIN KSTC 050215Z 35009KT 10SM CLR M10/M15 A3003 930 67 -1900 350/09 RMK AO2
14926KSTC STC20060204202009602/04/06 20:20:31  5-MIN KSTC 050220Z 36008KT 10SM CLR M11/M15 A3002 930 70 -1900 350/08 RMK AO2
14926KSTC STC20060204202509602/04/06 20:25:31  5-MIN KSTC 050225Z 36008KT 10SM CLR M11/M15 A3002 930 70 -1900 360/08 RMK AO2
14926KSTC STC20060204203009602/04/06 20:30:31  5-MIN KSTC 050230Z 36010KT 10SM CLR M11/M15 A3003 930 70 -1900 360/10 RMK AO2
14926KSTC STC20060204203509602/04/06 20:35:31  5-MIN KSTC 050235Z 01008KT 10SM CLR M11/M15 A3003 930 70 -1900 360/08 RMK AO2
14926KSTC STC20060204204009602/04/06 20:40:31  5-MIN KSTC 050240Z 01008KT 10SM CLR M11/M16 A3003 930 67 -1900 010/08 RMK AO2
14926KSTC STC20060204204509602/04/06 20:45:31  5-MIN KSTC 050245Z 01008KT 10SM CLR M11/M16 A3003 930 70 -2000 010/08 RMK AO2
14926KSTC STC20060204205011902/04/06 20:50:31  5-MIN KSTC 050250Z 01006KT 10SM CLR M11/M16 A3003 930 70 -2000 010/06 RMK AO2 SLP201 T11111156 58005
14926KSTC STC20060204205509602/04/06 20:55:31  5-MIN KSTC 050255Z 36005KT 10SM CLR M11/M16 A3003 930 70 -2000 360/05 RMK AO2
14926KSTC STC20060204210009602/04/06 21:00:31  5-MIN KSTC 050300Z 36006KT 10SM CLR M12/M16 A3003 930 70 -2100 360/06 RMK AO2
14926KSTC STC20060204210509602/04/06 21:05:31  5-MIN KSTC 050305Z 01006KT 10SM CLR M12/M16 A3003 930 70 -2100 010/06 RMK AO2
14926KSTC STC20060204211009602/04/06 21:10:31  5-MIN KSTC 050310Z 01006KT 10SM CLR M12/M16 A3002 930 70 -2100 360/06 RMK AO2
14926KSTC STC20060204211509602/04/06 21:15:31  5-MIN KSTC 050315Z 36004KT 10SM CLR M12/M16 A3002 930 73 -2200 360/04 RMK AO2
14926KSTC STC20060204212009602/04/06 21:20:31  5-MIN KSTC 050320Z 36004KT 10SM CLR M12/M16 A3002 930 73 -2200 350/04 RMK AO2
14926KSTC STC20060204212509602/04/06 21:25:31  5-MIN KSTC 050325Z 35004KT 10SM CLR M13/M16 A3002 930 76 -2200 350/04 RMK AO2
14926KSTC STC20060204213009602/04/06 21:30:31  5-MIN KSTC 050330Z 35003KT 10SM CLR M13/M16 A3002 930 76 -2200 350/03 RMK AO2
14926KSTC STC20060204213509602/04/06 21:35:31  5-MIN KSTC 050335Z 34004KT 10SM CLR M13/M16 A3002 930 76 -2200 340/04 RMK AO2
14926KSTC STC20060204214009602/04/06 21:40:31  5-MIN KSTC 050340Z 33004KT 10SM CLR M13/M16 A3002 930 76 -2200 330/04 RMK AO2
14926KSTC STC20060204214509602/04/06 21:45:31  5-MIN KSTC 050345Z 33004KT 10SM CLR M13/M17 A3002 930 76 -2300 320/04 RMK AO2
14926KSTC STC20060204215011302/04/06 21:50:31  5-MIN KSTC 050350Z 33005KT 10SM CLR M14/M17 A3002 940 76 -2400 320/05 RMK AO2 SLP199 T11391172
14926KSTC STC20060204215509602/04/06 21:55:31  5-MIN KSTC 050355Z 32005KT 10SM CLR M15/M18 A3002 940 80 -2500 320/05 RMK AO2
14926KSTC STC20060204220009602/04/06 22:00:31  5-MIN KSTC 050400Z 32006KT 10SM CLR M14/M17 A3002 940 80 -2400 320/06 RMK AO2
14926KSTC STC20060204220509602/04/06 22:05:31  5-MIN KSTC 050405Z 31007KT 10SM CLR M16/M18 A3002 940 83 -2600 310/07 RMK AO2
14926KSTC STC20060204221009602/04/06 22:10:31  5-MIN KSTC 050410Z 31007KT 10SM CLR M16/M18 A3002 940 83 -2600 310/07 RMK AO2
14926KSTC STC20060204221509602/04/06 22:15:31  5-MIN KSTC 050415Z 31007KT 10SM CLR M15/M17 A3002 940 83 -2500 310/07 RMK AO2
14926KSTC STC20060204222009602/04/06 22:20:31  5-MIN KSTC 050420Z 31007KT 10SM CLR M14/M17 A3002 940 80 -2500 310/07 RMK AO2
14926KSTC STC20060204222509602/04/06 22:25:31  5-MIN KSTC 050425Z 32007KT 10SM CLR M15/M17 A3002 940 83 -2500 310/07 RMK AO2
14926KSTC STC20060204223009602/04/06 22:30:31  5-MIN KSTC 050430Z 32007KT 10SM CLR M14/M17 A3002 940 80 -2500 320/07 RMK AO2
14926KSTC STC20060204223509602/04/06 22:35:31  5-MIN KSTC 050435Z 32007KT 10SM CLR M14/M17 A3002 940 80 -2400 320/07 RMK AO2
14926KSTC STC20060204224009602/04/06 22:40:31  5-MIN KSTC 050440Z 33006KT 10SM CLR M14/M17 A3002 940 80 -2400 320/06 RMK AO2
14926KSTC STC20060204224509602/04/06 22:45:31  5-MIN KSTC 050445Z 33005KT 10SM CLR M14/M17 A3002 940 80 -2400 320/05 RMK AO2
14926KSTC STC20060204225011302/04/06 22:50:31  5-MIN KSTC 050450Z 33005KT 10SM CLR M14/M17 A3002 930 80 -2400 320/05 RMK AO2 SLP198 T11391167
14926KSTC STC20060204225510102/04/06 22:55:31  5-MIN KSTC 050455Z AUTO 32007KT 10SM CLR M14/M17 A3002 930 80 -2400 310/07 RMK AO2
14926KSTC STC20060204230010102/04/06 23:00:31  5-MIN KSTC 050500Z AUTO 33005KT 10SM CLR M14/M17 A3002 930 80 -2400 330/05 RMK AO2
14926KSTC STC20060204230510102/04/06 23:05:31  5-MIN KSTC 050505Z AUTO 33005KT 10SM CLR M14/M17 A3002 930 80 -2400 330/05 RMK AO2
14926KSTC STC20060204231010102/04/06 23:10:31  5-MIN KSTC 050510Z AUTO 33005KT 10SM CLR M14/M17 A3002 930 80 -2400 320/05 RMK AO2
14926KSTC STC20060204231510102/04/06 23:15:31  5-MIN KSTC 050515Z AUTO 33006KT 10SM CLR M14/M17 A3002 930 80 -2400 330/06 RMK AO2
14926KSTC STC20060204232010102/04/06 23:20:31  5-MIN KSTC 050520Z AUTO 34006KT 10SM CLR M14/M17 A3002 940 80 -2400 330/06 RMK AO2
14926KSTC STC20060204232510102/04/06 23:25:31  5-MIN KSTC 050525Z AUTO 34006KT 10SM CLR M14/M17 A3001 940 83 -2400 340/06 RMK AO2
14926KSTC STC20060204233010102/04/06 23:30:31  5-MIN KSTC 050530Z AUTO 35005KT 10SM CLR M14/M17 A3002 940 83 -2500 350/05 RMK AO2
14926KSTC STC20060204233510102/04/06 23:35:31  5-MIN KSTC 050535Z AUTO 35005KT 10SM CLR M14/M17 A3002 940 80 -2500 340/05 RMK AO2
14926KSTC STC20060204234010102/04/06 23:40:31  5-MIN KSTC 050540Z AUTO 36006KT 10SM CLR M14/M17 A3001 940 83 -2400 360/06 RMK AO2
14926KSTC STC20060204234510102/04/06 23:45:31  5-MIN KSTC 050545Z AUTO 01006KT 10SM CLR M14/M17 A3001 940 80 -2400 010/06 RMK AO2
14926KSTC STC20060204235014602/04/06 23:50:31  5-MIN KSTC 050550Z AUTO 36006KT 10SM CLR M14/M17 A3001 940 83 -2400 360/06 RMK AO2 SLP196 T11441167 11089 21156 410671172 58004
14926KSTC STC20060204235510102/04/06 23:55:31  5-MIN KSTC 050555Z AUTO 36006KT 10SM CLR M14/M17 A3001 940 83 -2400 350/06 RMK AO2
14926KSTC STC20060205000010102/05/06 00:00:32  5-MIN KSTC 050600Z AUTO 35007KT 10SM CLR M14/M17 A3001 940 80 -2400 350/07 RMK AO2
14926KSTC STC20060205000510102/05/06 00:05:31  5-MIN KSTC 050605Z AUTO 35007KT 10SM CLR M14/M17 A3001 950 83 -2400 350/07 RMK AO2
14926KSTC STC20060205001010102/05/06 00:10:31  5-MIN KSTC 050610Z AUTO 36007KT 10SM CLR M14/M17 A3001 950 83 -2400 360/07 RMK AO2
14926KSTC STC20060205001510102/05/06 00:15:31  5-MIN KSTC 050615Z AUTO 36008KT 10SM CLR M14/M17 A3000 950 80 -2400 360/08 RMK AO2
14926KSTC STC20060205002010102/05/06 00:20:31  5-MIN KSTC 050620Z AUTO 36008KT 10SM CLR M14/M17 A3000 950 83 -2400 360/08 RMK AO2
14926KSTC STC20060205002510102/05/06 00:25:31  5-MIN KSTC 050625Z AUTO 36008KT 10SM CLR M14/M17 A3000 960 80 -2400 360/08 RMK AO2
14926KSTC STC20060205003010102/05/06 00:30:31  5-MIN KSTC 050630Z AUTO 36009KT 10SM CLR M14/M17 A3000 960 80 -2400 360/09 RMK AO2
14926KSTC STC20060205003510102/05/06 00:35:31  5-MIN KSTC 050635Z AUTO 36009KT 10SM CLR M14/M17 A3000 960 80 -2400 360/09 RMK AO2
14926KSTC STC20060205004010102/05/06 00:40:31  5-MIN KSTC 050640Z AUTO 36008KT 10SM CLR M14/M17 A3000 950 80 -2400 350/08 RMK AO2
14926KSTC STC20060205004510102/05/06 00:45:31  5-MIN KSTC 050645Z AUTO 36007KT 10SM CLR M13/M17 A3000 950 76 -2300 350/07 RMK AO2
14926KSTC STC20060205005011802/05/06 00:50:31  5-MIN KSTC 050650Z AUTO 35007KT 10SM CLR M14/M17 A3000 950 80 -2400 350/07 RMK AO2 SLP190 T11391167
14926KSTC STC20060205005510102/05/06 00:55:31  5-MIN KSTC 050655Z AUTO 35007KT 10SM CLR M14/M17 A3000 950 80 -2400 350/07 RMK AO2
14926KSTC STC20060205010010102/05/06 01:00:31  5-MIN KSTC 050700Z AUTO 35007KT 10SM CLR M14/M17 A3000 950 80 -2400 340/07 RMK AO2
14926KSTC STC20060205010510102/05/06 01:05:31  5-MIN KSTC 050705Z AUTO 34007KT 10SM CLR M14/M17 A3000 950 80 -2400 340/07 RMK AO2
14926KSTC STC20060205011010102/05/06 01:10:31  5-MIN KSTC 050710Z AUTO 34007KT 10SM CLR M14/M17 A3000 950 80 -2400 340/07 RMK AO2
14926KSTC STC20060205011510102/05/06 01:15:31  5-MIN KSTC 050715Z AUTO 33006KT 10SM CLR M14/M17 A3000 950 83 -2400 330/06 RMK AO2
14926KSTC STC20060205012010102/05/06 01:20:31  5-MIN KSTC 050720Z AUTO 33006KT 10SM CLR M14/M17 A3000 950 83 -2400 330/06 RMK AO2
14926KSTC STC20060205012510102/05/06 01:25:31  5-MIN KSTC 050725Z AUTO 33005KT 10SM CLR M15/M17 A3000 950 83 -2500 330/05 RMK AO2
14926KSTC STC20060205013010102/05/06 01:30:31  5-MIN KSTC 050730Z AUTO 33006KT 10SM CLR M15/M17 A3000 950 83 -2500 330/06 RMK AO2
14926KSTC STC20060205013510102/05/06 01:35:31  5-MIN KSTC 050735Z AUTO 33007KT 10SM CLR M15/M17 A3000 950 83 -2500 330/07 RMK AO2
14926KSTC STC20060205014010102/05/06 01:40:31  5-MIN KSTC 050740Z AUTO 33008KT 10SM CLR M15/M17 A3000 950 83 -2500 330/08 RMK AO2
14926KSTC STC20060205014510102/05/06 01:45:31  5-MIN KSTC 050745Z AUTO 34006KT 10SM CLR M15/M17 A3000 950 83 -2500 340/06 RMK AO2
14926KSTC STC20060205015011802/05/06 01:50:31  5-MIN KSTC 050750Z AUTO 34005KT 10SM CLR M15/M17 A3000 950 83 -2500 340/05 RMK AO2 SLP191 T11501172
14926KSTC STC20060205015510102/05/06 01:55:31  5-MIN KSTC 050755Z AUTO 35005KT 10SM CLR M15/M17 A3000 950 83 -2500 340/05 RMK AO2
14926KSTC STC20060205020010102/05/06 02:00:31  5-MIN KSTC 050800Z AUTO 35006KT 10SM CLR M15/M17 A3000 950 83 -2500 350/06 RMK AO2
14926KSTC STC20060205020510102/05/06 02:05:31  5-MIN KSTC 050805Z AUTO 35006KT 10SM CLR M15/M17 A3000 950 83 -2500 340/06 RMK AO2
14926KSTC STC20060205021010102/05/06 02:10:31  5-MIN KSTC 050810Z AUTO 33005KT 10SM CLR M15/M17 A3001 950 83 -2500 330/05 RMK AO2
14926KSTC STC20060205021510102/05/06 02:15:31  5-MIN KSTC 050815Z AUTO 33006KT 10SM CLR M15/M17 A3000 950 83 -2500 330/06 RMK AO2
14926KSTC STC20060205022010102/05/06 02:20:31  5-MIN KSTC 050820Z AUTO 33006KT 10SM CLR M16/M17 A3000 950 87 -2600 330/06 RMK AO2
14926KSTC STC20060205022510102/05/06 02:25:31  5-MIN KSTC 050825Z AUTO 33006KT 10SM CLR M16/M18 A3000 950 83 -2600 330/06 RMK AO2
14926KSTC STC20060205023010102/05/06 02:30:31  5-MIN KSTC 050830Z AUTO 33005KT 10SM CLR M16/M18 A3000 950 83 -2600 330/05 RMK AO2
14926KSTC STC20060205023510102/05/06 02:35:31  5-MIN KSTC 050835Z AUTO 33006KT 10SM CLR M16/M18 A3000 950 83 -2600 330/06 RMK AO2
14926KSTC STC20060205024010102/05/06 02:40:31  5-MIN KSTC 050840Z AUTO 33006KT 10SM CLR M16/M18 A3000 950 83 -2600 330/06 RMK AO2
14926KSTC STC20060205024510102/05/06 02:45:31  5-MIN KSTC 050845Z AUTO 34006KT 10SM CLR M16/M18 A3000 950 83 -2600 330/06 RMK AO2
14926KSTC STC20060205025012402/05/06 02:50:31  5-MIN KSTC 050850Z AUTO 33006KT 10SM CLR M16/M18 A3000 950 83 -2600 320/06 RMK AO2 SLP189 T11561178 57006
14926KSTC STC20060205025510102/05/06 02:55:31  5-MIN KSTC 050855Z AUTO 33007KT 10SM CLR M16/M18 A3000 950 83 -2600 320/07 RMK AO2
14926KSTC STC20060205030010102/05/06 03:00:31  5-MIN KSTC 050900Z AUTO 33007KT 10SM CLR M16/M18 A3000 960 83 -2600 320/07 RMK AO2
14926KSTC STC20060205030510102/05/06 03:05:31  5-MIN KSTC 050905Z AUTO 33005KT 10SM CLR M16/M18 A2999 960 83 -2600 330/05 RMK AO2
14926KSTC STC20060205031010102/05/06 03:10:31  5-MIN KSTC 050910Z AUTO 33005KT 10SM CLR M16/M18 A2999 960 83 -2600 330/05 RMK AO2
14926KSTC STC20060205031510102/05/06 03:15:31  5-MIN KSTC 050915Z AUTO 34005KT 10SM CLR M16/M18 A2999 960 83 -2600 330/05 RMK AO2
14926KSTC STC20060205032010102/05/06 03:20:31  5-MIN KSTC 050920Z AUTO 33006KT 10SM CLR M16/M18 A2999 960 87 -2600 330/06 RMK AO2
14926KSTC STC20060205032510102/05/06 03:25:31  5-MIN KSTC 050925Z AUTO 33005KT 10SM CLR M16/M18 A2999 970 87 -2600 330/05 RMK AO2
14926KSTC STC20060205033010102/05/06 03:30:31  5-MIN KSTC 050930Z AUTO 35005KT 10SM CLR M16/M18 A2999 970 83 -2600 340/05 RMK AO2
14926KSTC STC20060205033510102/05/06 03:35:31  5-MIN KSTC 050935Z AUTO 34006KT 10SM CLR M16/M18 A2999 960 83 -2600 340/06 RMK AO2
14926KSTC STC20060205034010102/05/06 03:40:31  5-MIN KSTC 050940Z AUTO 35006KT 10SM CLR M16/M18 A2999 970 83 -2600 350/06 RMK AO2
14926KSTC STC20060205034510102/05/06 03:45:31  5-MIN KSTC 050945Z AUTO 35007KT 10SM CLR M16/M18 A2998 970 83 -2600 340/07 RMK AO2
14926KSTC STC20060205035011802/05/06 03:50:31  5-MIN KSTC 050950Z AUTO 35006KT 10SM CLR M16/M18 A2998 970 83 -2600 350/06 RMK AO2 SLP184 T11611183
14926KSTC STC20060205035510102/05/06 03:55:31  5-MIN KSTC 050955Z AUTO 35006KT 10SM CLR M16/M18 A2998 970 79 -2600 350/06 RMK AO2
14926KSTC STC20060205040010102/05/06 04:00:31  5-MIN KSTC 051000Z AUTO 36007KT 10SM CLR M16/M18 A2998 970 83 -2600 350/07 RMK AO2
14926KSTC STC20060205040510102/05/06 04:05:31  5-MIN KSTC 051005Z AUTO 36008KT 10SM CLR M16/M18 A2998 970 83 -2600 360/08 RMK AO2
14926KSTC STC20060205041010102/05/06 04:10:31  5-MIN KSTC 051010Z AUTO 35008KT 10SM CLR M16/M18 A2998 970 83 -2600 350/08 RMK AO2
14926KSTC STC20060205041510102/05/06 04:15:31  5-MIN KSTC 051015Z AUTO 35008KT 10SM CLR M16/M18 A2998 970 83 -2600 350/08 RMK AO2
14926KSTC STC20060205042010102/05/06 04:20:31  5-MIN KSTC 051020Z AUTO 36007KT 10SM CLR M16/M18 A2998 970 79 -2600 360/07 RMK AO2
14926KSTC STC20060205042510102/05/06 04:25:31  5-MIN KSTC 051025Z AUTO 36006KT 10SM CLR M16/M18 A2998 970 79 -2600 360/06 RMK AO2
14926KSTC STC20060205043010102/05/06 04:30:31  5-MIN KSTC 051030Z AUTO 36005KT 10SM CLR M16/M18 A2998 970 83 -2600 360/05 RMK AO2
14926KSTC STC20060205043510102/05/06 04:35:31  5-MIN KSTC 051035Z AUTO 35006KT 10SM CLR M16/M18 A2998 970 83 -2600 350/06 RMK AO2
14926KSTC STC20060205044010102/05/06 04:40:31  5-MIN KSTC 051040Z AUTO 36006KT 10SM CLR M16/M18 A2998 970 83 -2600 350/06 RMK AO2
14926KSTC STC20060205044510102/05/06 04:45:31  5-MIN KSTC 051045Z AUTO 36006KT 10SM CLR M16/M18 A2998 970 83 -2600 350/06 RMK AO2
14926KSTC STC20060205045011802/05/06 04:50:31  5-MIN KSTC 051050Z AUTO 36006KT 10SM CLR M16/M18 A2998 970 83 -2600 350/06 RMK AO2 SLP182 T11611183
14926KSTC STC20060205045510102/05/06 04:55:31  5-MIN KSTC 051055Z AUTO 36006KT 10SM CLR M16/M18 A2998 970 83 -2600 350/06 RMK AO2
14926KSTC STC20060205050010102/05/06 05:00:31  5-MIN KSTC 051100Z AUTO 36004KT 10SM CLR M16/M18 A2998 970 83 -2600 350/04 RMK AO2
14926KSTC STC20060205050510102/05/06 05:05:31  5-MIN KSTC 051105Z AUTO 35004KT 10SM CLR M17/M19 A2998 970 83 -2700 350/04 RMK AO2
14926KSTC STC20060205051010102/05/06 05:10:31  5-MIN KSTC 051110Z AUTO 36004KT 10SM CLR M17/M19 A2999 970 83 -2700 350/04 RMK AO2
14926KSTC STC20060205051510102/05/06 05:15:31  5-MIN KSTC 051115Z AUTO 34004KT 10SM CLR M17/M19 A2999 960 83 -2700 340/04 RMK AO2
14926KSTC STC20060205052010102/05/06 05:20:31  5-MIN KSTC 051120Z AUTO 33005KT 10SM CLR M17/M19 A2999 970 83 -2700 330/05 RMK AO2
14926KSTC STC20060205052510102/05/06 05:25:31  5-MIN KSTC 051125Z AUTO 34005KT 10SM CLR M17/M19 A2999 970 83 -2700 340/05 RMK AO2
14926KSTC STC20060205053010102/05/06 05:30:31  5-MIN KSTC 051130Z AUTO 35004KT 10SM CLR M17/M19 A2999 970 83 -2700 350/04 RMK AO2
14926KSTC STC20060205053510102/05/06 05:35:31  5-MIN KSTC 051135Z AUTO 36004KT 10SM CLR M17/M19 A2999 970 83 -2800 360/04 RMK AO2
14926KSTC STC20060205054010102/05/06 05:40:31  5-MIN KSTC 051140Z AUTO 36004KT 10SM CLR M17/M19 A2999 970 83 -2800 360/04 RMK AO2
14926KSTC STC20060205054510102/05/06 05:45:31  5-MIN KSTC 051145Z AUTO 35005KT 10SM CLR M17/M19 A2999 960 83 -2800 350/05 RMK AO2
14926KSTC STC20060205055013602/05/06 05:50:31  5-MIN KSTC 051150Z AUTO 35005KT 10SM CLR M17/M19 A2999 960 83 -2800 350/05 RMK AO2 SLP188 T11721194 11133 21172 56004
14926KSTC STC20060205055510102/05/06 05:55:31  5-MIN KSTC 051155Z AUTO 34005KT 10SM CLR M17/M19 A2999 960 83 -2800 340/05 RMK AO2
14926KSTC STC20060205060010102/05/06 06:00:31  5-MIN KSTC 051200Z AUTO 34005KT 10SM CLR M17/M19 A2999 960 83 -2800 330/05 RMK AO2
14926KSTC STC20060205060510102/05/06 06:05:31  5-MIN KSTC 051205Z AUTO 34004KT 10SM CLR M17/M19 A2999 960 83 -2700 330/04 RMK AO2
14926KSTC STC20060205061010102/05/06 06:10:31  5-MIN KSTC 051210Z AUTO 34006KT 10SM CLR M17/M19 A2999 960 83 -2700 340/06 RMK AO2
14926KSTC STC20060205061510102/05/06 06:15:31  5-MIN KSTC 051215Z AUTO 36006KT 10SM CLR M17/M19 A2999 960 83 -2700 350/06 RMK AO2
14926KSTC STC20060205062010102/05/06 06:20:31  5-MIN KSTC 051220Z AUTO 01005KT 10SM CLR M17/M19 A2999 960 79 -2700 010/05 RMK AO2
14926KSTC STC20060205062510102/05/06 06:25:31  5-MIN KSTC 051225Z AUTO 36005KT 10SM CLR M17/M19 A2999 960 79 -2700 360/05 RMK AO2
14926KSTC STC20060205063010102/05/06 06:30:31  5-MIN KSTC 051230Z AUTO 35005KT 10SM CLR M17/M19 A3000 960 83 -2800 350/05 RMK AO2
14926KSTC STC20060205063510102/05/06 06:35:31  5-MIN KSTC 051235Z AUTO 34006KT 10SM CLR M17/M20 A3000 950 79 -2800 340/06 RMK AO2
14926KSTC STC20060205064010102/05/06 06:40:31  5-MIN KSTC 051240Z AUTO 34006KT 10SM CLR M17/M19 A3000 950 83 -2800 340/06 RMK AO2
14926KSTC STC20060205064510102/05/06 06:45:31  5-MIN KSTC 051245Z AUTO 34005KT 10SM CLR M17/M19 A3000 950 83 -2800 340/05 RMK AO2
14926KSTC STC20060205065011802/05/06 06:50:31  5-MIN KSTC 051250Z AUTO 34006KT 10SM CLR M17/M19 A3000 950 83 -2800 340/06 RMK AO2 SLP193 T11721194
14926KSTC STC20060205065509602/05/06 06:55:31  5-MIN KSTC 051255Z 33004KT 10SM CLR M17/M19 A3000 950 83 -2800 330/04 RMK AO2
14926KSTC STC20060205070009602/05/06 07:00:31  5-MIN KSTC 051300Z 34005KT 10SM CLR M17/M19 A3000 950 83 -2800 340/05 RMK AO2
14926KSTC STC20060205070509602/05/06 07:05:31  5-MIN KSTC 051305Z 33005KT 10SM CLR M17/M19 A3000 950 83 -2800 330/05 RMK AO2
14926KSTC STC20060205071009602/05/06 07:10:31  5-MIN KSTC 051310Z 33005KT 10SM CLR M17/M19 A3000 950 83 -2800 330/05 RMK AO2
14926KSTC STC20060205071509602/05/06 07:15:31  5-MIN KSTC 051315Z 34005KT 10SM CLR M17/M19 A3000 950 83 -2800 330/05 RMK AO2
14926KSTC STC20060205072009602/05/06 07:20:31  5-MIN KSTC 051320Z 33006KT 10SM CLR M17/M20 A3000 950 79 -2800 330/06 RMK AO2
14926KSTC STC20060205072509602/05/06 07:25:31  5-MIN KSTC 051325Z 33005KT 10SM CLR M17/M19 A3000 950 83 -2800 330/05 RMK AO2
14926KSTC STC20060205073009602/05/06 07:30:31  5-MIN KSTC 051330Z 33005KT 10SM CLR M17/M19 A3000 950 83 -2800 330/05 RMK AO2
14926KSTC STC20060205073509602/05/06 07:35:31  5-MIN KSTC 051335Z 33005KT 10SM CLR M17/M19 A3000 950 83 -2800 330/05 RMK AO2
14926KSTC STC20060205074009602/05/06 07:40:31  5-MIN KSTC 051340Z 33005KT 10SM CLR M17/M19 A3000 950 83 -2800 330/05 RMK AO2
14926KSTC STC20060205074509602/05/06 07:45:31  5-MIN KSTC 051345Z 34005KT 10SM CLR M17/M19 A3001 950 83 -2800 330/05 RMK AO2
14926KSTC STC20060205075011302/05/06 07:50:31  5-MIN KSTC 051350Z 35004KT 10SM CLR M17/M19 A3001 950 83 -2800 350/04 RMK AO2 SLP194 T11721194
14926KSTC STC20060205075509602/05/06 07:55:31  5-MIN KSTC 051355Z 36004KT 10SM CLR M17/M19 A3001 940 83 -2800 360/04 RMK AO2
14926KSTC STC20060205080009602/05/06 08:00:31  5-MIN KSTC 051400Z 36004KT 10SM CLR M17/M19 A3001 940 83 -2800 350/04 RMK AO2
14926KSTC STC20060205080509602/05/06 08:05:31  5-MIN KSTC 051405Z 36004KT 10SM CLR M17/M19 A3001 940 83 -2800 350/04 RMK AO2
14926KSTC STC20060205081009602/05/06 08:10:31  5-MIN KSTC 051410Z 36004KT 10SM CLR M17/M19 A3001 940 79 -2700 360/04 RMK AO2
14926KSTC STC20060205081509602/05/06 08:15:31  5-MIN KSTC 051415Z 35005KT 10SM CLR M17/M19 A3001 940 79 -2700 350/05 RMK AO2
14926KSTC STC20060205082009602/05/06 08:20:31  5-MIN KSTC 051420Z 35006KT 10SM CLR M17/M19 A3002 940 79 -2700 340/06 RMK AO2
14926KSTC STC20060205082509602/05/06 08:25:31  5-MIN KSTC 051425Z 34004KT 10SM CLR M17/M19 A3002 930 83 -2800 340/04 RMK AO2
14926KSTC STC20060205083009602/05/06 08:30:31  5-MIN KSTC 051430Z 34004KT 10SM CLR M16/M19 A3002 930 79 -2700 340/04 RMK AO2
14926KSTC STC20060205083509602/05/06 08:35:31  5-MIN KSTC 051435Z 33005KT 10SM CLR M16/M19 A3002 930 79 -2700 330/05 RMK AO2
14926KSTC STC20060205084009602/05/06 08:40:31  5-MIN KSTC 051440Z 33004KT 10SM CLR M16/M19 A3003 930 79 -2700 330/04 RMK AO2
14926KSTC STC20060205084509602/05/06 08:45:31  5-MIN KSTC 051445Z 33005KT 10SM CLR M16/M19 A3002 930 76 -2600 330/05 RMK AO2
14926KSTC STC20060205085011902/05/06 08:50:31  5-MIN KSTC 051450Z 33006KT 10SM CLR M16/M18 A3002 930 79 -2600 320/06 RMK AO2 SLP200 T11561183 55003
14926KSTC STC20060205085509602/05/06 08:55:31  5-MIN KSTC 051455Z 32006KT 10SM CLR M16/M18 A3002 930 79 -2600 320/06 RMK AO2
14926KSTC STC20060205090009602/05/06 09:00:31  5-MIN KSTC 051500Z 32007KT 10SM CLR M16/M18 A3003 930 79 -2600 320/07 RMK AO2
14926KSTC STC20060205090509602/05/06 09:05:31  5-MIN KSTC 051505Z 32007KT 10SM CLR M16/M18 A3003 930 79 -2600 310/07 RMK AO2
14926KSTC STC20060205091009602/05/06 09:10:31  5-MIN KSTC 051510Z 32008KT 10SM CLR M16/M18 A3003 930 79 -2600 320/08 RMK AO2
14926KSTC STC20060205091509602/05/06 09:15:31  5-MIN KSTC 051515Z 32009KT 10SM CLR M15/M18 A3003 930 76 -2500 320/09 RMK AO2
14926KSTC STC20060205092009602/05/06 09:20:31  5-MIN KSTC 051520Z 33009KT 10SM CLR M15/M18 A3003 930 76 -2500 330/09 RMK AO2
14926KSTC STC20060205092509602/05/06 09:25:31  5-MIN KSTC 051525Z 33008KT 10SM CLR M14/M18 A3003 930 76 -2500 320/08 RMK AO2
14926KSTC STC20060205093009602/05/06 09:30:31  5-MIN KSTC 051530Z 33006KT 10SM CLR M14/M18 A3003 930 76 -2500 330/06 RMK AO2
14926KSTC STC20060205093509602/05/06 09:35:31  5-MIN KSTC 051535Z 33007KT 10SM CLR M14/M18 A3003 930 76 -2500 330/07 RMK AO2
14926KSTC STC20060205094009602/05/06 09:40:31  5-MIN KSTC 051540Z 33007KT 10SM CLR M14/M18 A3003 930 76 -2500 330/07 RMK AO2
14926KSTC STC20060205094509602/05/06 09:45:31  5-MIN KSTC 051545Z 33007KT 10SM CLR M14/M17 A3003 920 76 -2400 330/07 RMK AO2
14926KSTC STC20060205095011302/05/06 09:50:31  5-MIN KSTC 051550Z 32007KT 10SM CLR M14/M17 A3003 930 76 -2400 320/07 RMK AO2 SLP202 T11391172
14926KSTC STC20060205095509602/05/06 09:55:31  5-MIN KSTC 051555Z 33007KT 10SM CLR M13/M17 A3003 930 73 -2300 330/07 RMK AO2
14926KSTC STC20060205100009602/05/06 10:00:31  5-MIN KSTC 051600Z 33007KT 10SM CLR M13/M17 A3003 930 73 -2300 330/07 RMK AO2
14926KSTC STC20060205100509602/05/06 10:05:31  5-MIN KSTC 051605Z 34005KT 10SM CLR M13/M17 A3003 930 76 -2300 340/05 RMK AO2
14926KSTC STC20060205101009602/05/06 10:10:31  5-MIN KSTC 051610Z 34007KT 10SM CLR M13/M17 A3003 930 73 -2200 340/07 RMK AO2
14926KSTC STC20060205101509602/05/06 10:15:31  5-MIN KSTC 051615Z 34007KT 10SM CLR M13/M17 A3003 930 73 -2200 340/07 RMK AO2
14926KSTC STC20060205102009602/05/06 10:20:31  5-MIN KSTC 051620Z 36006KT 10SM CLR M12/M17 A3003 920 70 -2200 350/06 RMK AO2
14926KSTC STC20060205102509602/05/06 10:25:31  5-MIN KSTC 051625Z 36006KT 10SM CLR M12/M17 A3003 920 70 -2200 350/06 RMK AO2
14926KSTC STC20060205103009602/05/06 10:30:31  5-MIN KSTC 051630Z 35006KT 10SM CLR M12/M17 A3004 920 70 -2200 350/06 RMK AO2
14926KSTC STC20060205103509602/05/06 10:35:31  5-MIN KSTC 051635Z 35007KT 10SM CLR M12/M16 A3003 920 73 -2200 350/07 RMK AO2
14926KSTC STC20060205104009602/05/06 10:40:31  5-MIN KSTC 051640Z 35007KT 10SM CLR M12/M16 A3003 920 70 -2100 350/07 RMK AO2
14926KSTC STC20060205104509602/05/06 10:45:31  5-MIN KSTC 051645Z 35007KT 10SM CLR M12/M16 A3003 920 73 -2200 350/07 RMK AO2
14926KSTC STC20060205105011302/05/06 10:50:31  5-MIN KSTC 051650Z 35006KT 10SM CLR M12/M16 A3003 920 70 -2100 350/06 RMK AO2 SLP203 T11171161
14926KSTC STC20060205105509602/05/06 10:55:31  5-MIN KSTC 051655Z 35006KT 10SM CLR M12/M16 A3004 920 70 -2100 350/06 RMK AO2
14926KSTC STC20060205110009602/05/06 11:00:31  5-MIN KSTC 051700Z 34006KT 10SM CLR M12/M16 A3004 920 70 -2100 340/06 RMK AO2
14926KSTC STC20060205110509602/05/06 11:05:31  5-MIN KSTC 051705Z 34006KT 10SM CLR M12/M16 A3004 920 70 -2100 330/06 RMK AO2
14926KSTC STC20060205111009602/05/06 11:10:31  5-MIN KSTC 051710Z 35007KT 10SM CLR M11/M16 A3004 920 67 -2000 340/07 RMK AO2
14926KSTC STC20060205111509602/05/06 11:15:31  5-MIN KSTC 051715Z 34006KT 10SM CLR M11/M16 A3004 920 70 -2000 340/06 RMK AO2
14926KSTC STC20060205112009602/05/06 11:20:31  5-MIN KSTC 051720Z 34006KT 10SM CLR M11/M16 A3004 920 70 -2000 340/06 RMK AO2
14926KSTC STC20060205112509602/05/06 11:25:31  5-MIN KSTC 051725Z 33006KT 10SM CLR M11/M16 A3004 920 67 -2000 330/06 RMK AO2
14926KSTC STC20060205113009602/05/06 11:30:31  5-MIN KSTC 051730Z 34006KT 10SM CLR M11/M15 A3004 920 70 -2000 340/06 RMK AO2
14926KSTC STC20060205113509602/05/06 11:35:31  5-MIN KSTC 051735Z 33006KT 10SM CLR M11/M15 A3004 920 70 -2000 330/06 RMK AO2
14926KSTC STC20060205114009602/05/06 11:40:31  5-MIN KSTC 051740Z 33006KT 10SM CLR M10/M15 A3004 920 67 -1900 330/06 RMK AO2
14926KSTC STC20060205114509602/05/06 11:45:31  5-MIN KSTC 051745Z 34007KT 10SM CLR M10/M15 A3003 920 67 -1900 340/07 RMK AO2
14926KSTC STC20060205115013102/05/06 11:50:31  5-MIN KSTC 051750Z 34006KT 10SM CLR M09/M14 A3003 920 67 -1800 340/06 RMK AO2 SLP201 T10941144 11094 21172 52012
14926KSTC STC20060205115509602/05/06 11:55:31  5-MIN KSTC 051755Z 34006KT 10SM CLR M09/M14 A3003 920 67 -1800 330/06 RMK AO2
14926KSTC STC20060205120009602/05/06 12:00:31  5-MIN KSTC 051800Z 35007KT 10SM CLR M09/M14 A3003 920 67 -1800 350/07 RMK AO2
14926KSTC STC20060205120509602/05/06 12:05:31  5-MIN KSTC 051805Z 34009KT 10SM CLR M09/M14 A3003 920 64 -1700 340/09 RMK AO2
14926KSTC STC20060205121009602/05/06 12:10:31  5-MIN KSTC 051810Z 35008KT 10SM CLR M09/M14 A3003 930 64 -1700 350/08 RMK AO2
14926KSTC STC20060205121509602/05/06 12:15:31  5-MIN KSTC 051815Z 35008KT 10SM CLR M08/M14 A3003 930 64 -1700 340/08 RMK AO2
14926KSTC STC20060205122009602/05/06 12:20:31  5-MIN KSTC 051820Z 34008KT 10SM CLR M08/M14 A3003 930 64 -1700 340/08 RMK AO2
14926KSTC STC20060205122509602/05/06 12:25:31  5-MIN KSTC 051825Z 35006KT 10SM CLR M08/M14 A3003 930 62 -1600 340/06 RMK AO2
14926KSTC STC20060205123009602/05/06 12:30:31  5-MIN KSTC 051830Z 36008KT 10SM CLR M08/M14 A3003 930 62 -1600 350/08 RMK AO2
14926KSTC STC20060205123509602/05/06 12:35:31  5-MIN KSTC 051835Z 35007KT 10SM CLR M08/M14 A3003 930 62 -1600 350/07 RMK AO2
14926KSTC STC20060205124009602/05/06 12:40:31  5-MIN KSTC 051840Z 35007KT 10SM CLR M08/M14 A3003 920 62 -1600 340/07 RMK AO2
14926KSTC STC20060205124509602/05/06 12:45:31  5-MIN KSTC 051845Z 34006KT 10SM CLR M08/M14 A3003 930 62 -1600 340/06 RMK AO2
14926KSTC STC20060205125011302/05/06 12:50:31  5-MIN KSTC 051850Z 35006KT 10SM CLR M07/M13 A3003 930 62 -1500 350/06 RMK AO2 SLP199 T10721133
14926KSTC STC20060205125509602/05/06 12:55:31  5-MIN KSTC 051855Z 35007KT 10SM CLR M07/M13 A3003 930 62 -1500 350/07 RMK AO2
14926KSTC STC20060205130009602/05/06 13:00:31  5-MIN KSTC 051900Z 35006KT 10SM CLR M07/M13 A3003 930 62 -1500 340/06 RMK AO2
14926KSTC STC20060205130509602/05/06 13:05:31  5-MIN KSTC 051905Z 34006KT 10SM CLR M07/M13 A3003 930 62 -1500 340/06 RMK AO2
14926KSTC STC20060205131009602/05/06 13:10:31  5-MIN KSTC 051910Z 34007KT 10SM CLR M07/M13 A3002 930 59 -1400 340/07 RMK AO2
14926KSTC STC20060205131509602/05/06 13:15:31  5-MIN KSTC 051915Z 34007KT 10SM CLR M07/M13 A3002 930 59 -1400 340/07 RMK AO2
14926KSTC STC20060205132009602/05/06 13:20:31  5-MIN KSTC 051920Z 35007KT 10SM CLR M07/M13 A3002 930 59 -1400 340/07 RMK AO2
14926KSTC STC20060205132509602/05/06 13:25:31  5-MIN KSTC 051925Z 35007KT 10SM CLR M07/M13 A3002 930 59 -1400 340/07 RMK AO2
14926KSTC STC20060205133009602/05/06 13:30:31  5-MIN KSTC 051930Z 34006KT 10SM CLR M07/M13 A3002 930 59 -1400 340/06 RMK AO2
14926KSTC STC20060205133509602/05/06 13:35:31  5-MIN KSTC 051935Z 35007KT 10SM CLR M06/M13 A3002 930 57 -1400 340/07 RMK AO2
14926KSTC STC20060205134009602/05/06 13:40:31  5-MIN KSTC 051940Z 34007KT 10SM CLR M06/M13 A3002 940 57 -1400 340/07 RMK AO2
14926KSTC STC20060205134509602/05/06 13:45:31  5-MIN KSTC 051945Z 34006KT 10SM CLR M06/M13 A3002 940 54 -1300 340/06 RMK AO2
14926KSTC STC20060205135011302/05/06 13:50:31  5-MIN KSTC 051950Z 34006KT 10SM CLR M06/M13 A3002 940 54 -1300 330/06 RMK AO2 SLP194 T10561133
14926KSTC STC20060205135509602/05/06 13:55:31  5-MIN KSTC 051955Z 35007KT 10SM CLR M06/M14 A3002 940 52 -1300 340/07 RMK AO2
14926KSTC STC20060205140009602/05/06 14:00:31  5-MIN KSTC 052000Z 34008KT 10SM CLR M06/M13 A3002 940 54 -1300 330/08 RMK AO2
14926KSTC STC20060205140509602/05/06 14:05:31  5-MIN KSTC 052005Z 34007KT 10SM CLR M05/M13 A3002 940 52 -1200 340/07 RMK AO2
14926KSTC STC20060205141009602/05/06 14:10:31  5-MIN KSTC 052010Z 35008KT 10SM CLR M05/M13 A3002 940 52 -1200 350/08 RMK AO2
14926KSTC STC20060205141509602/05/06 14:15:31  5-MIN KSTC 052015Z 35006KT 10SM CLR M05/M13 A3001 940 52 -1200 340/06 RMK AO2
14926KSTC STC20060205142009602/05/06 14:20:31  5-MIN KSTC 052020Z 34007KT 10SM CLR M05/M14 A3001 940 50 -1200 340/07 RMK AO2
14926KSTC STC20060205142509602/05/06 14:25:31  5-MIN KSTC 052025Z 34009KT 10SM CLR M05/M13 A3001 940 52 -1200 340/09 RMK AO2
14926KSTC STC20060205143009602/05/06 14:30:31  5-MIN KSTC 052030Z 34007KT 10SM CLR M05/M14 A3002 940 50 -1200 340/07 RMK AO2
14926KSTC STC20060205143509602/05/06 14:35:31  5-MIN KSTC 052035Z 35007KT 10SM CLR M05/M14 A3002 940 50 -1200 350/07 RMK AO2
14926KSTC STC20060205144009602/05/06 14:40:31  5-MIN KSTC 052040Z 34007KT 10SM CLR M05/M14 A3002 940 50 -1200 340/07 RMK AO2
14926KSTC STC20060205144509602/05/06 14:45:31  5-MIN KSTC 052045Z 34007KT 10SM CLR M04/M14 A3002 940 48 -1100 340/07 RMK AO2
14926KSTC STC20060205145011902/05/06 14:50:31  5-MIN KSTC 052050Z 34007KT 10SM CLR M04/M14 A3002 940 48 -1100 340/07 RMK AO2 SLP195 T10441139 50002
14926KSTC STC20060205145509602/05/06 14:55:31  5-MIN KSTC 052055Z 33007KT 10SM CLR M04/M14 A3002 930 48 -1100 330/07 RMK AO2
14926KSTC STC20060205150009602/05/06 15:00:31  5-MIN KSTC 052100Z 33008KT 10SM CLR M05/M14 A3002 930 50 -1200 330/08 RMK AO2
14926KSTC STC20060205150509602/05/06 15:05:31  5-MIN KSTC 052105Z 34007KT 10SM CLR M04/M13 A3002 930 50 -1100 330/07 RMK AO2
14926KSTC STC20060205151009602/05/06 15:10:31  5-MIN KSTC 052110Z 34007KT 10SM CLR M04/M14 A3002 930 48 -1100 330/07 RMK AO2
14926KSTC STC20060205151509602/05/06 15:15:31  5-MIN KSTC 052115Z 34007KT 10SM CLR M04/M14 A3002 930 48 -1100 340/07 RMK AO2
14926KSTC STC20060205152009602/05/06 15:20:31  5-MIN KSTC 052120Z 33008KT 10SM CLR M04/M14 A3002 930 48 -1100 330/08 RMK AO2
14926KSTC STC20060205152509602/05/06 15:25:31  5-MIN KSTC 052125Z 34007KT 10SM CLR M04/M14 A3002 930 48 -1100 340/07 RMK AO2
14926KSTC STC20060205153009602/05/06 15:30:31  5-MIN KSTC 052130Z 34006KT 10SM CLR M04/M14 A3002 930 48 -1100 330/06 RMK AO2
14926KSTC STC20060205153509602/05/06 15:35:31  5-MIN KSTC 052135Z 34007KT 10SM CLR M04/M14 A3002 930 46 -1100 340/07 RMK AO2
14926KSTC STC20060205154009602/05/06 15:40:31  5-MIN KSTC 052140Z 34008KT 10SM CLR M04/M14 A3002 930 48 -1100 340/08 RMK AO2
14926KSTC STC20060205154509602/05/06 15:45:31  5-MIN KSTC 052145Z 33006KT 10SM CLR M04/M14 A3003 930 46 -1200 330/06 RMK AO2
14926KSTC STC20060205155011302/05/06 15:50:31  5-MIN KSTC 052150Z 33007KT 10SM CLR M04/M14 A3003 930 46 -1200 320/07 RMK AO2 SLP199 T10441144
14926KSTC STC20060205155509602/05/06 15:55:31  5-MIN KSTC 052155Z 32008KT 10SM CLR M04/M15 A3003 920 44 -1200 320/08 RMK AO2
14926KSTC STC20060205160009602/05/06 16:00:31  5-MIN KSTC 052200Z 34009KT 10SM CLR M04/M14 A3003 920 46 -1200 330/09 RMK AO2
14926KSTC STC20060205160509602/05/06 16:05:31  5-MIN KSTC 052205Z 33008KT 10SM CLR M04/M15 A3004 920 44 -1200 330/08 RMK AO2
14926KSTC STC20060205161009602/05/06 16:10:31  5-MIN KSTC 052210Z 33007KT 10SM CLR M04/M15 A3004 920 44 -1200 320/07 RMK AO2
14926KSTC STC20060205161509602/05/06 16:15:31  5-MIN KSTC 052215Z 32009KT 10SM CLR M05/M14 A3004 920 48 -1200 320/09 RMK AO2
14926KSTC STC20060205162009602/05/06 16:20:31  5-MIN KSTC 052220Z 33006KT 10SM CLR M04/M14 A3004 920 46 -1200 330/06 RMK AO2
14926KSTC STC20060205162509602/05/06 16:25:31  5-MIN KSTC 052225Z 32006KT 10SM CLR M04/M15 A3004 910 44 -1200 320/06 RMK AO2
14926KSTC STC20060205163009602/05/06 16:30:31  5-MIN KSTC 052230Z 32007KT 10SM CLR M05/M14 A3004 910 48 -1200 320/07 RMK AO2
14926KSTC STC20060205163509602/05/06 16:35:31  5-MIN KSTC 052235Z 32008KT 10SM CLR M06/M14 A3005 910 50 -1300 310/08 RMK AO2
14926KSTC STC20060205164009602/05/06 16:40:31  5-MIN KSTC 052240Z 32008KT 10SM CLR M06/M14 A3005 910 52 -1400 310/08 RMK AO2
14926KSTC STC20060205164509602/05/06 16:45:31  5-MIN KSTC 052245Z 32007KT 10SM CLR M06/M14 A3005 910 50 -1300 310/07 RMK AO2
14926KSTC STC20060205165011302/05/06 16:50:31  5-MIN KSTC 052250Z 32008KT 10SM CLR M06/M14 A3005 910 52 -1400 320/08 RMK AO2 SLP205 T10611144
14926KSTC STC20060205165509602/05/06 16:55:31  5-MIN KSTC 052255Z 32007KT 10SM CLR M05/M15 A3005 910 46 -1200 320/07 RMK AO2
14926KSTC STC20060205170009602/05/06 17:00:31  5-MIN KSTC 052300Z 32007KT 10SM CLR M05/M15 A3004 910 46 -1200 320/07 RMK AO2
14926KSTC STC20060205170509602/05/06 17:05:31  5-MIN KSTC 052305Z 33006KT 10SM CLR M06/M15 A3005 910 48 -1300 320/06 RMK AO2
14926KSTC STC20060205171009602/05/06 17:10:31  5-MIN KSTC 052310Z 32007KT 10SM CLR M06/M16 A3005 910 45 -1300 320/07 RMK AO2
14926KSTC STC20060205171509602/05/06 17:15:31  5-MIN KSTC 052315Z 32007KT 10SM CLR M06/M15 A3005 910 48 -1300 320/07 RMK AO2
14926KSTC STC20060205172009602/05/06 17:20:31  5-MIN KSTC 052320Z 32005KT 10SM CLR M06/M15 A3005 910 48 -1300 320/05 RMK AO2
14926KSTC STC20060205172509602/05/06 17:25:31  5-MIN KSTC 052325Z 32005KT 10SM CLR M08/M15 A3005 900 56 -1600 310/05 RMK AO2
14926KSTC STC20060205173009602/05/06 17:30:31  5-MIN KSTC 052330Z 32006KT 10SM CLR M08/M15 A3005 900 59 -1700 320/06 RMK AO2
14926KSTC STC20060205173509602/05/06 17:35:31  5-MIN KSTC 052335Z 32006KT 10SM CLR M07/M16 A3006 900 52 -1500 320/06 RMK AO2
14926KSTC STC20060205174009602/05/06 17:40:31  5-MIN KSTC 052340Z 32007KT 10SM CLR M09/M16 A3006 900 56 -1800 320/07 RMK AO2
14926KSTC STC20060205174509602/05/06 17:45:31  5-MIN KSTC 052345Z 32007KT 10SM CLR M09/M16 A3006 900 59 -1800 310/07 RMK AO2
14926KSTC STC20060205175013102/05/06 17:50:31  5-MIN KSTC 052350Z 31007KT 10SM CLR M10/M16 A3006 900 61 -1900 310/07 RMK AO2 SLP213 T11001161 11044 21100 55004
14926KSTC STC20060205175509602/05/06 17:55:31  5-MIN KSTC 052355Z 32006KT 10SM CLR M09/M16 A3007 890 59 -1800 320/06 RMK AO2
14926KSTC STC20060205180009602/05/06 18:00:31  5-MIN KSTC 060000Z 32006KT 10SM CLR M08/M16 A3007 890 51 -1600 310/06 RMK AO2
14926KSTC STC20060205180509602/05/06 18:05:31  5-MIN KSTC 060005Z 32006KT 10SM CLR M08/M16 A3007 890 54 -1700 320/06 RMK AO2
14926KSTC STC20060205181009602/05/06 18:10:31  5-MIN KSTC 060010Z 32006KT 10SM CLR M10/M17 A3007 890 58 -1900 310/06 RMK AO2
14926KSTC STC20060205181509602/05/06 18:15:31  5-MIN KSTC 060015Z 32006KT 10SM CLR M10/M17 A3007 890 58 -1900 320/06 RMK AO2
14926KSTC STC20060205182009602/05/06 18:20:31  5-MIN KSTC 060020Z 32006KT 10SM CLR M09/M17 A3007 890 56 -1900 320/06 RMK AO2
14926KSTC STC20060205182509602/05/06 18:25:31  5-MIN KSTC 060025Z 32006KT 10SM CLR M09/M17 A3007 890 56 -1900 310/06 RMK AO2
14926KSTC STC20060205183009602/05/06 18:30:31  5-MIN KSTC 060030Z 31007KT 10SM CLR M09/M17 A3007 890 56 -1900 310/07 RMK AO2
14926KSTC STC20060205183509602/05/06 18:35:31  5-MIN KSTC 060035Z 31007KT 10SM CLR M09/M17 A3007 890 56 -1900 300/07 RMK AO2
14926KSTC STC20060205184009602/05/06 18:40:31  5-MIN KSTC 060040Z 31007KT 10SM CLR M09/M17 A3007 880 56 -1900 310/07 RMK AO2
14926KSTC STC20060205184509602/05/06 18:45:31  5-MIN KSTC 060045Z 31007KT 10SM CLR M09/M17 A3008 880 54 -1800 310/07 RMK AO2
14926KSTC STC20060205185011302/05/06 18:50:31  5-MIN KSTC 060050Z 32006KT 10SM CLR M08/M17 A3008 880 51 -1700 310/06 RMK AO2 SLP218 T10831167
14926KSTC STC20060205185509602/05/06 18:55:31  5-MIN KSTC 060055Z 32007KT 10SM CLR M09/M17 A3008 880 54 -1800 310/07 RMK AO2
14926KSTC STC20060205190009602/05/06 19:00:31  5-MIN KSTC 060100Z 32005KT 10SM CLR M09/M17 A3008 880 54 -1800 320/05 RMK AO2
14926KSTC STC20060205190509602/05/06 19:05:31  5-MIN KSTC 060105Z 32006KT 10SM CLR M09/M17 A3009 870 56 -1900 320/06 RMK AO2
14926KSTC STC20060205191009602/05/06 19:10:31  5-MIN KSTC 060110Z 32005KT 10SM CLR M09/M17 A3009 870 56 -1900 320/05 RMK AO2
14926KSTC STC20060205191509602/05/06 19:15:31  5-MIN KSTC 060115Z 32005KT 10SM CLR M11/M17 A3009 870 61 -2000 320/05 RMK AO2
14926KSTC STC20060205192009602/05/06 19:20:31  5-MIN KSTC 060120Z 33004KT 10SM CLR M11/M17 A3009 870 61 -2100 320/04 RMK AO2
14926KSTC STC20060205192509602/05/06 19:25:31  5-MIN KSTC 060125Z 32004KT 10SM CLR M11/M17 A3009 870 58 -2000 320/04 RMK AO2
14926KSTC STC20060205193009602/05/06 19:30:31  5-MIN KSTC 060130Z 33005KT 10SM CLR M10/M17 A3009 870 56 -1900 330/05 RMK AO2
14926KSTC STC20060205193509602/05/06 19:35:31  5-MIN KSTC 060135Z 33005KT 10SM CLR M09/M17 A3009 870 56 -1900 330/05 RMK AO2
14926KSTC STC20060205194009602/05/06 19:40:31  5-MIN KSTC 060140Z 33006KT 10SM CLR M09/M17 A3009 870 54 -1800 330/06 RMK AO2
14926KSTC STC20060205194509602/05/06 19:45:31  5-MIN KSTC 060145Z 33005KT 10SM CLR M09/M17 A3009 870 54 -1800 330/05 RMK AO2
14926KSTC STC20060205195011302/05/06 19:50:31  5-MIN KSTC 060150Z 33005KT 10SM CLR M09/M17 A3009 870 56 -1900 330/05 RMK AO2 SLP223 T10941167
14926KSTC STC20060205195509602/05/06 19:55:31  5-MIN KSTC 060155Z 33006KT 10SM CLR M09/M17 A3009 870 51 -1800 330/06 RMK AO2
14926KSTC STC20060205200009602/05/06 20:00:31  5-MIN KSTC 060200Z 34007KT 10SM CLR M09/M17 A3009 870 53 -1900 330/07 RMK AO2
14926KSTC STC20060205200509602/05/06 20:05:31  5-MIN KSTC 060205Z 33007KT 10SM CLR M09/M18 A3010 860 51 -1900 330/07 RMK AO2
14926KSTC STC20060205201009602/05/06 20:10:31  5-MIN KSTC 060210Z 34006KT 10SM CLR M09/M18 A3010 860 51 -1900 330/06 RMK AO2
14926KSTC STC20060205201509602/05/06 20:15:31  5-MIN KSTC 060215Z 33005KT 10SM CLR M09/M18 A3010 860 51 -1900 320/05 RMK AO2
14926KSTC STC20060205202009602/05/06 20:20:31  5-MIN KSTC 060220Z 33005KT 10SM CLR M10/M18 A3010 860 53 -2000 330/05 RMK AO2
14926KSTC STC20060205202509602/05/06 20:25:31  5-MIN KSTC 060225Z 33006KT 10SM CLR M11/M18 A3010 860 56 -2000 330/06 RMK AO2
14926KSTC STC20060205203009602/05/06 20:30:31  5-MIN KSTC 060230Z 33006KT 10SM CLR M11/M18 A3010 860 55 -2100 320/06 RMK AO2
14926KSTC STC20060205203509602/05/06 20:35:31  5-MIN KSTC 060235Z 33006KT 10SM CLR M11/M18 A3010 860 55 -2100 320/06 RMK AO2
14926KSTC STC20060205204009602/05/06 20:40:31  5-MIN KSTC 060240Z 33006KT 10SM CLR M11/M18 A3010 860 56 -2000 330/06 RMK AO2
14926KSTC STC20060205204509602/05/06 20:45:31  5-MIN KSTC 060245Z 34006KT 10SM CLR M10/M18 A3009 870 53 -1900 340/06 RMK AO2
14926KSTC STC20060205205011902/05/06 20:50:31  5-MIN KSTC 060250Z 34006KT 10SM CLR M11/M18 A3009 870 58 -2100 330/06 RMK AO2 SLP224 T11111178 53015
14926KSTC STC20060205205509602/05/06 20:55:31  5-MIN KSTC 060255Z 33005KT 10SM CLR M10/M18 A3009 870 53 -1900 330/05 RMK AO2
14926KSTC STC20060205210009602/05/06 21:00:31  5-MIN KSTC 060300Z 33006KT 10SM CLR M10/M18 A3009 870 53 -1900 330/06 RMK AO2
14926KSTC STC20060205210509602/05/06 21:05:31  5-MIN KSTC 060305Z 33005KT 10SM CLR M12/M18 A3010 870 58 -2200 320/05 RMK AO2
14926KSTC STC20060205211009602/05/06 21:10:31  5-MIN KSTC 060310Z 33005KT 10SM CLR M13/M19 A3010 860 60 -2300 320/05 RMK AO2
14926KSTC STC20060205211509602/05/06 21:15:31  5-MIN KSTC 060315Z 32005KT 10SM CLR M12/M18 A3010 860 61 -2200 320/05 RMK AO2
14926KSTC STC20060205212009602/05/06 21:20:31  5-MIN KSTC 060320Z 31005KT 10SM CLR M12/M18 A3010 860 61 -2200 310/05 RMK AO2
14926KSTC STC20060205212509602/05/06 21:25:31  5-MIN KSTC 060325Z 31005KT 10SM CLR M13/M19 A3010 860 63 -2400 310/05 RMK AO2
14926KSTC STC20060205213009602/05/06 21:30:31  5-MIN KSTC 060330Z 31005KT 10SM CLR M13/M19 A3010 860 60 -2300 310/05 RMK AO2
14926KSTC STC20060205213509602/05/06 21:35:31  5-MIN KSTC 060335Z 31005KT 10SM CLR M12/M18 A3010 860 61 -2200 300/05 RMK AO2
14926KSTC STC20060205214009602/05/06 21:40:31  5-MIN KSTC 060340Z 30006KT 10SM CLR M12/M18 A3010 860 61 -2200 300/06 RMK AO2
14926KSTC STC20060205214509602/05/06 21:45:31  5-MIN KSTC 060345Z 31006KT 10SM CLR M12/M18 A3010 860 64 -2200 300/06 RMK AO2
14926KSTC STC20060205215011302/05/06 21:50:31  5-MIN KSTC 060350Z 31006KT 10SM CLR M12/M18 A3010 860 64 -2200 300/06 RMK AO2 SLP225 T11221178
14926KSTC STC20060205215509602/05/06 21:55:31  5-MIN KSTC 060355Z 31006KT 10SM CLR M12/M18 A3010 860 64 -2300 310/06 RMK AO2
14926KSTC STC20060205220009602/05/06 22:00:31  5-MIN KSTC 060400Z 31006KT 10SM CLR M12/M18 A3010 860 61 -2200 310/06 RMK AO2
14926KSTC STC20060205220509602/05/06 22:05:31  5-MIN KSTC 060405Z 32005KT 10SM CLR M12/M18 A3010 860 64 -2300 320/05 RMK AO2
14926KSTC STC20060205221009602/05/06 22:10:31  5-MIN KSTC 060410Z 31006KT 10SM CLR M12/M18 A3010 860 64 -2300 310/06 RMK AO2
14926KSTC STC20060205221509602/05/06 22:15:31  5-MIN KSTC 060415Z 31007KT 10SM CLR M12/M18 A3010 860 64 -2200 310/07 RMK AO2
14926KSTC STC20060205222009602/05/06 22:20:31  5-MIN KSTC 060420Z 32006KT 10SM CLR M12/M18 A3010 860 61 -2200 310/06 RMK AO2
14926KSTC STC20060205222509602/05/06 22:25:31  5-MIN KSTC 060425Z 32004KT 10SM CLR M12/M18 A3010 860 64 -2200 320/04 RMK AO2
14926KSTC STC20060205223009602/05/06 22:30:31  5-MIN KSTC 060430Z 33004KT 10SM CLR M13/M18 A3010 860 66 -2400 320/04 RMK AO2
14926KSTC STC20060205223509602/05/06 22:35:31  5-MIN KSTC 060435Z 33004KT 10SM CLR M13/M18 A3010 860 63 -2300 320/04 RMK AO2
14926KSTC STC20060205224009602/05/06 22:40:31  5-MIN KSTC 060440Z 33004KT 10SM CLR M13/M18 A3010 860 63 -2300 330/04 RMK AO2
14926KSTC STC20060205224509602/05/06 22:45:31  5-MIN KSTC 060445Z 33004KT 10SM CLR M12/M18 A3010 860 61 -2300 320/04 RMK AO2
14926KSTC STC20060205225011802/05/06 22:50:31  5-MIN KSTC 060450Z AUTO 33004KT 10SM CLR M12/M18 A3010 860 61 -2300 320/04 RMK AO2 SLP226 T11221183
14926KSTC STC20060205225510102/05/06 22:55:31  5-MIN KSTC 060455Z AUTO 32006KT 10SM CLR M12/M18 A3010 860 58 -2200 320/06 RMK AO2
14926KSTC STC20060205230010102/05/06 23:00:31  5-MIN KSTC 060500Z AUTO 33005KT 10SM CLR M13/M18 A3010 860 63 -2300 320/05 RMK AO2
14926KSTC STC20060205230510102/05/06 23:05:31  5-MIN KSTC 060505Z AUTO 33005KT 10SM CLR M12/M19 A3010 860 58 -2200 320/05 RMK AO2
14926KSTC STC20060205231010102/05/06 23:10:31  5-MIN KSTC 060510Z AUTO 32006KT 10SM CLR M12/M19 A3010 860 58 -2300 320/06 RMK AO2
14926KSTC STC20060205231510102/05/06 23:15:31  5-MIN KSTC 060515Z AUTO 32007KT 10SM CLR M13/M19 A3010 860 58 -2300 320/07 RMK AO2
14926KSTC STC20060205232010102/05/06 23:20:31  5-MIN KSTC 060520Z AUTO 32006KT 10SM CLR M13/M20 A3010 860 58 -2400 320/06 RMK AO2
14926KSTC STC20060205232510102/05/06 23:25:31  5-MIN KSTC 060525Z AUTO 32006KT 10SM CLR M14/M20 A3010 860 60 -2500 320/06 RMK AO2
14926KSTC STC20060205233010102/05/06 23:30:31  5-MIN KSTC 060530Z AUTO 32006KT 10SM CLR M13/M20 A3010 860 55 -2300 320/06 RMK AO2
14926KSTC STC20060205233510102/05/06 23:35:31  5-MIN KSTC 060535Z AUTO 32006KT 10SM CLR M12/M20 A3010 860 53 -2300 320/06 RMK AO2
14926KSTC STC20060205234010102/05/06 23:40:31  5-MIN KSTC 060540Z AUTO 33005KT 10SM CLR M13/M20 A3011 850 55 -2300 320/05 RMK AO2
14926KSTC STC20060205234510102/05/06 23:45:31  5-MIN KSTC 060545Z AUTO 32005KT 10SM CLR M13/M20 A3011 850 55 -2300 320/05 RMK AO2
14926KSTC STC20060205235014602/05/06 23:50:31  5-MIN KSTC 060550Z AUTO VRB04KT 10SM CLR M13/M20 A3011 850 55 -2300 VRB/04 RMK AO2 SLP226 T11281200 11078 21139 410441172 50009
14926KSTC STC20060205235510102/05/06 23:55:31  5-MIN KSTC 060555Z AUTO 32005KT 10SM CLR M13/M20 A3011 850 58 -2400 320/05 RMK AO2
14926KSTC STC20060206000010102/06/06 00:00:32  5-MIN KSTC 060600Z AUTO 32005KT 10SM CLR M13/M20 A3011 850 55 -2300 320/05 RMK AO2
14926KSTC STC20060206000510102/06/06 00:05:31  5-MIN KSTC 060605Z AUTO 32006KT 10SM CLR M13/M19 A3011 850 60 -2400 320/06 RMK AO2
14926KSTC STC20060206001010102/06/06 00:10:31  5-MIN KSTC 060610Z AUTO 33004KT 10SM CLR M13/M20 A3011 850 58 -2400 330/04 RMK AO2
14926KSTC STC20060206001510102/06/06 00:15:31  5-MIN KSTC 060615Z AUTO 32005KT 10SM CLR M13/M20 A3011 850 55 -2300 320/05 RMK AO2
14926KSTC STC20060206002010102/06/06 00:20:31  5-MIN KSTC 060620Z AUTO 32005KT 10SM CLR M13/M21 A3011 850 53 -2300 320/05 RMK AO2
14926KSTC STC20060206002510102/06/06 00:25:31  5-MIN KSTC 060625Z AUTO 32006KT 10SM CLR M13/M21 A3011 850 55 -2400 320/06 RMK AO2
14926KSTC STC20060206003010102/06/06 00:30:31  5-MIN KSTC 060630Z AUTO 32006KT 10SM CLR M13/M21 A3011 850 53 -2300 320/06 RMK AO2
14926KSTC STC20060206003510102/06/06 00:35:31  5-MIN KSTC 060635Z AUTO 32007KT 10SM CLR M12/M21 A3011 850 50 -2300 320/07 RMK AO2
14926KSTC STC20060206004010102/06/06 00:40:31  5-MIN KSTC 060640Z AUTO 32008KT 10SM CLR M13/M21 A3011 850 52 -2400 310/08 RMK AO2
14926KSTC STC20060206004510102/06/06 00:45:31  5-MIN KSTC 060645Z AUTO 32006KT 10SM CLR M14/M21 A3011 850 55 -2500 320/06 RMK AO2
14926KSTC STC20060206005011802/06/06 00:50:31  5-MIN KSTC 060650Z AUTO 32007KT 10SM CLR M13/M21 A3011 850 50 -2300 320/07 RMK AO2 SLP227 T11281211
14926KSTC STC20060206005510102/06/06 00:55:31  5-MIN KSTC 060655Z AUTO 33007KT 10SM CLR M13/M21 A3011 850 50 -2300 320/07 RMK AO2
14926KSTC STC20060206010010102/06/06 01:00:31  5-MIN KSTC 060700Z AUTO 32007KT 10SM CLR M13/M21 A3011 850 50 -2300 320/07 RMK AO2
14926KSTC STC20060206010510102/06/06 01:05:31  5-MIN KSTC 060705Z AUTO 32008KT 10SM CLR M14/M21 A3011 850 55 -2500 310/08 RMK AO2
14926KSTC STC20060206011010102/06/06 01:10:31  5-MIN KSTC 060710Z AUTO 33006KT 10SM CLR M13/M21 A3011 850 50 -2300 330/06 RMK AO2
14926KSTC STC20060206011510102/06/06 01:15:31  5-MIN KSTC 060715Z AUTO 33006KT 10SM CLR M12/M21 A3011 850 48 -2300 330/06 RMK AO2
14926KSTC STC20060206012010102/06/06 01:20:31  5-MIN KSTC 060720Z AUTO 33006KT 10SM CLR M12/M21 A3011 850 48 -2300 330/06 RMK AO2
14926KSTC STC20060206012510102/06/06 01:25:31  5-MIN KSTC 060725Z AUTO 33006KT 10SM CLR M12/M21 A3012 850 48 -2300 330/06 RMK AO2
14926KSTC STC20060206013010102/06/06 01:30:31  5-MIN KSTC 060730Z AUTO 34006KT 10SM CLR M12/M21 A3012 850 48 -2300 330/06 RMK AO2
14926KSTC STC20060206013510102/06/06 01:35:31  5-MIN KSTC 060735Z AUTO 34006KT 10SM CLR M12/M21 A3012 840 48 -2300 330/06 RMK AO2
14926KSTC STC20060206014010102/06/06 01:40:31  5-MIN KSTC 060740Z AUTO 33006KT 10SM CLR M12/M21 A3012 840 48 -2300 330/06 RMK AO2
14926KSTC STC20060206014510102/06/06 01:45:31  5-MIN KSTC 060745Z AUTO 34005KT 10SM CLR M12/M21 A3012 840 48 -2300 340/05 RMK AO2
14926KSTC STC20060206015011802/06/06 01:50:31  5-MIN KSTC 060750Z AUTO 35006KT 10SM CLR M12/M21 A3012 840 48 -2300 340/06 RMK AO2 SLP229 T11221211
14926KSTC STC20060206015510102/06/06 01:55:31  5-MIN KSTC 060755Z AUTO 34005KT 10SM CLR M13/M21 A3012 840 50 -2300 340/05 RMK AO2
14926KSTC STC20060206020010102/06/06 02:00:31  5-MIN KSTC 060800Z AUTO 34005KT 10SM CLR M13/M21 A3012 840 50 -2300 330/05 RMK AO2
14926KSTC STC20060206020510102/06/06 02:05:31  5-MIN KSTC 060805Z AUTO 34004KT 10SM CLR M13/M21 A3012 840 50 -2400 340/04 RMK AO2
14926KSTC STC20060206021010102/06/06 02:10:31  5-MIN KSTC 060810Z AUTO 33004KT 10SM CLR M13/M21 A3012 840 50 -2400 330/04 RMK AO2
14926KSTC STC20060206021510102/06/06 02:15:31  5-MIN KSTC 060815Z AUTO 32004KT 10SM CLR M13/M21 A3012 840 50 -2400 320/04 RMK AO2
14926KSTC STC20060206022010102/06/06 02:20:31  5-MIN KSTC 060820Z AUTO 33004KT 10SM CLR M13/M21 A3012 840 52 -2400 330/04 RMK AO2
14926KSTC STC20060206022510102/06/06 02:25:31  5-MIN KSTC 060825Z AUTO 33004KT 10SM CLR M13/M21 A3012 840 50 -2400 330/04 RMK AO2
14926KSTC STC20060206023010102/06/06 02:30:31  5-MIN KSTC 060830Z AUTO 33003KT 10SM CLR M13/M21 A3012 840 50 -2300 330/03 RMK AO2
14926KSTC STC20060206023510102/06/06 02:35:31  5-MIN KSTC 060835Z AUTO 33003KT 10SM CLR M13/M21 A3012 840 52 -2400 330/03 RMK AO2
14926KSTC STC20060206024010102/06/06 02:40:31  5-MIN KSTC 060840Z AUTO 32003KT 10SM CLR M13/M21 A3012 840 52 -2400 320/03 RMK AO2
14926KSTC STC20060206024510102/06/06 02:45:31  5-MIN KSTC 060845Z AUTO 31003KT 10SM CLR M13/M21 A3012 840 52 -2400 310/03 RMK AO2
14926KSTC STC20060206025012402/06/06 02:50:31  5-MIN KSTC 060850Z AUTO 31003KT 10SM CLR M13/M21 A3013 840 55 -2400 300/03 RMK AO2 SLP231 T11331206 53005
14926KSTC STC20060206025510102/06/06 02:55:31  5-MIN KSTC 060855Z AUTO 30004KT 10SM CLR M13/M21 A3013 840 55 -2400 300/04 RMK AO2
14926KSTC STC20060206032010102/06/06 03:20:31  5-MIN KSTC 060920Z AUTO 32003KT 10SM CLR M13/M21 A3013 830 52 -2400 310/03 RMK AO2
14926KSTC STC20060206032510102/06/06 03:25:31  5-MIN KSTC 060925Z AUTO 30004KT 10SM CLR M14/M21 A3013 830 55 -2500 300/04 RMK AO2
14926KSTC STC20060206033010102/06/06 03:30:31  5-MIN KSTC 060930Z AUTO 31005KT 10SM CLR M14/M21 A3013 830 57 -2600 310/05 RMK AO2
14926KSTC STC20060206033510102/06/06 03:35:31  5-MIN KSTC 060935Z AUTO 30005KT 10SM CLR M14/M21 A3013 830 57 -2600 300/05 RMK AO2
14926KSTC STC20060206034010102/06/06 03:40:31  5-MIN KSTC 060940Z AUTO 30005KT 10SM CLR M14/M21 A3013 830 57 -2600 300/05 RMK AO2
14926KSTC STC20060206034510102/06/06 03:45:31  5-MIN KSTC 060945Z AUTO 30006KT 10SM CLR M15/M21 A3013 830 60 -2700 300/06 RMK AO2
14926KSTC STC20060206035011802/06/06 03:50:31  5-MIN KSTC 060950Z AUTO 30006KT 10SM CLR M16/M21 A3013 830 63 -2700 300/06 RMK AO2 SLP234 T11561211
14926KSTC STC20060206035510102/06/06 03:55:31  5-MIN KSTC 060955Z AUTO 31006KT 10SM CLR M15/M21 A3013 830 60 -2700 310/06 RMK AO2
14926KSTC STC20060206040010102/06/06 04:00:31  5-MIN KSTC 061000Z AUTO 32004KT 10SM CLR M14/M21 A3014 830 55 -2500 320/04 RMK AO2
14926KSTC STC20060206040510102/06/06 04:05:31  5-MIN KSTC 061005Z AUTO 32005KT 10SM CLR M14/M21 A3014 830 55 -2500 310/05 RMK AO2
14926KSTC STC20060206041010102/06/06 04:10:31  5-MIN KSTC 061010Z AUTO 31005KT 10SM CLR M13/M21 A3014 820 52 -2400 310/05 RMK AO2
14926KSTC STC20060206041510102/06/06 04:15:31  5-MIN KSTC 061015Z AUTO 31006KT 10SM CLR M14/M21 A3014 820 57 -2600 300/06 RMK AO2
14926KSTC STC20060206042010102/06/06 04:20:31  5-MIN KSTC 061020Z AUTO 29004KT 10SM CLR M14/M21 A3014 820 55 -2500 290/04 RMK AO2
14926KSTC STC20060206042510102/06/06 04:25:31  5-MIN KSTC 061025Z AUTO 29003KT 10SM CLR M14/M21 A3014 820 55 -2500 290/03 RMK AO2
14926KSTC STC20060206043010102/06/06 04:30:31  5-MIN KSTC 061030Z AUTO 30004KT 10SM CLR M14/M21 A3014 820 55 -2500 290/04 RMK AO2
14926KSTC STC20060206043510102/06/06 04:35:31  5-MIN KSTC 061035Z AUTO 30004KT 10SM CLR M14/M21 A3014 820 55 -2500 300/04 RMK AO2
14926KSTC STC20060206044010102/06/06 04:40:31  5-MIN KSTC 061040Z AUTO 29004KT 10SM CLR M14/M21 A3014 820 57 -2600 290/04 RMK AO2
14926KSTC STC20060206044510102/06/06 04:45:31  5-MIN KSTC 061045Z AUTO 30004KT 10SM CLR M14/M21 A3014 820 57 -2600 290/04 RMK AO2
14926KSTC STC20060206045011802/06/06 04:50:31  5-MIN KSTC 061050Z AUTO 29004KT 10SM CLR M14/M21 A3014 820 57 -2600 290/04 RMK AO2 SLP237 T11441211
14926KSTC STC20060206045510102/06/06 04:55:31  5-MIN KSTC 061055Z AUTO 29004KT 10SM CLR M15/M21 A3014 820 60 -2700 290/04 RMK AO2
14926KSTC STC20060206050010102/06/06 05:00:31  5-MIN KSTC 061100Z AUTO 30005KT 10SM CLR M14/M21 A3015 820 57 -2600 290/05 RMK AO2
14926KSTC STC20060206050510102/06/06 05:05:31  5-MIN KSTC 061105Z AUTO 30004KT 10SM CLR M14/M21 A3015 820 60 -2600 290/04 RMK AO2
14926KSTC STC20060206051010102/06/06 05:10:31  5-MIN KSTC 061110Z AUTO 30004KT 10SM CLR M14/M21 A3015 820 57 -2600 290/04 RMK AO2
14926KSTC STC20060206051510102/06/06 05:15:31  5-MIN KSTC 061115Z AUTO 30004KT 10SM CLR M14/M21 A3015 820 60 -2600 290/04 RMK AO2
14926KSTC STC20060206052010102/06/06 05:20:31  5-MIN KSTC 061120Z AUTO 30004KT 10SM CLR M14/M21 A3015 820 60 -2600 300/04 RMK AO2
14926KSTC STC20060206052510102/06/06 05:25:31  5-MIN KSTC 061125Z AUTO 30003KT 10SM CLR M15/M21 A3015 820 60 -2700 290/03 RMK AO2
14926KSTC STC20060206053010102/06/06 05:30:31  5-MIN KSTC 061130Z AUTO 00000KT 10SM CLR M14/M21 A3015 820 60 -2600 000/00 RMK AO2
14926KSTC STC20060206053510102/06/06 05:35:31  5-MIN KSTC 061135Z AUTO 00000KT 10SM CLR M14/M21 A3015 810 60 -2600 000/00 RMK AO2
14926KSTC STC20060206054010102/06/06 05:40:31  5-MIN KSTC 061140Z AUTO 00000KT 10SM CLR M14/M21 A3015 810 57 -2500 000/00 RMK AO2
14926KSTC STC20060206054510102/06/06 05:45:31  5-MIN KSTC 061145Z AUTO 00000KT 10SM CLR M15/M21 A3016 810 63 -2700 000/00 RMK AO2
14926KSTC STC20060206055013602/06/06 05:50:31  5-MIN KSTC 061150Z AUTO 00000KT 10SM CLR M14/M21 A3016 810 60 -2600 000/00 RMK AO2 SLP245 T11441206 11122 21156 53006
14926KSTC STC20060206055510102/06/06 05:55:31  5-MIN KSTC 061155Z AUTO 30003KT 10SM CLR M14/M21 A3016 810 60 -2600 300/03 RMK AO2
14926KSTC STC20060206060010102/06/06 06:00:31  5-MIN KSTC 061200Z AUTO 29003KT 10SM CLR M14/M21 A3016 810 60 -2600 290/03 RMK AO2
14926KSTC STC20060206060510102/06/06 06:05:31  5-MIN KSTC 061205Z AUTO 00000KT 10SM CLR M15/M21 A3016 810 63 -2700 000/00 RMK AO2
14926KSTC STC20060206061010102/06/06 06:10:31  5-MIN KSTC 061210Z AUTO 28004KT 10SM CLR M16/M21 A3016 810 66 -2800 280/04 RMK AO2
14926KSTC STC20060206061510102/06/06 06:15:31  5-MIN KSTC 061215Z AUTO 29004KT 10SM CLR M16/M21 A3016 800 66 -2800 290/04 RMK AO2
14926KSTC STC20060206062010102/06/06 06:20:31  5-MIN KSTC 061220Z AUTO 29003KT 10SM CLR M16/M21 A3016 800 66 -2800 290/03 RMK AO2
14926KSTC STC20060206062510102/06/06 06:25:31  5-MIN KSTC 061225Z AUTO 29004KT 10SM CLR M16/M21 A3016 810 66 -2800 290/04 RMK AO2
14926KSTC STC20060206063010102/06/06 06:30:31  5-MIN KSTC 061230Z AUTO 29005KT 10SM CLR M17/M21 A3016 810 69 -2900 290/05 RMK AO2
14926KSTC STC20060206063510102/06/06 06:35:31  5-MIN KSTC 061235Z AUTO 29005KT 10SM CLR M17/M21 A3016 810 69 -2900 290/05 RMK AO2
14926KSTC STC20060206064010102/06/06 06:40:31  5-MIN KSTC 061240Z AUTO 29005KT 10SM CLR M16/M21 A3016 810 66 -2800 290/05 RMK AO2
14926KSTC STC20060206064510102/06/06 06:45:31  5-MIN KSTC 061245Z AUTO 29005KT 10SM CLR M16/M21 A3016 810 66 -2800 280/05 RMK AO2
14926KSTC STC20060206065011802/06/06 06:50:31  5-MIN KSTC 061250Z AUTO 28005KT 10SM CLR M16/M21 A3016 800 66 -2800 280/05 RMK AO2 SLP245 T11611211
14926KSTC STC20060206065509602/06/06 06:55:31  5-MIN KSTC 061255Z 30005KT 10SM CLR M17/M21 A3016 800 69 -2900 300/05 RMK AO2
14926KSTC STC20060206070009602/06/06 07:00:31  5-MIN KSTC 061300Z 31004KT 10SM CLR M16/M21 A3016 800 66 -2800 310/04 RMK AO2
14926KSTC STC20060206070509602/06/06 07:05:31  5-MIN KSTC 061305Z 31003KT 10SM CLR M16/M21 A3016 800 66 -2800 310/03 RMK AO2
14926KSTC STC20060206071009602/06/06 07:10:31  5-MIN KSTC 061310Z 32004KT 10SM CLR M16/M21 A3016 800 63 -2800 310/04 RMK AO2
14926KSTC STC20060206071509602/06/06 07:15:31  5-MIN KSTC 061315Z 33003KT 10SM CLR M16/M21 A3016 800 66 -2800 330/03 RMK AO2
14926KSTC STC20060206072009602/06/06 07:20:31  5-MIN KSTC 061320Z 32004KT 10SM CLR M16/M21 A3016 800 66 -2800 320/04 RMK AO2
14926KSTC STC20060206072509602/06/06 07:25:31  5-MIN KSTC 061325Z 32004KT 10SM CLR M16/M21 A3017 800 66 -2800 320/04 RMK AO2
14926KSTC STC20060206073009602/06/06 07:30:31  5-MIN KSTC 061330Z 32005KT 10SM CLR M16/M21 A3017 800 66 -2800 310/05 RMK AO2
14926KSTC STC20060206073509602/06/06 07:35:31  5-MIN KSTC 061335Z 32005KT 10SM CLR M16/M21 A3017 800 66 -2900 310/05 RMK AO2
14926KSTC STC20060206074009602/06/06 07:40:31  5-MIN KSTC 061340Z 32004KT 10SM CLR M16/M21 A3017 800 66 -2800 320/04 RMK AO2
14926KSTC STC20060206074509602/06/06 07:45:31  5-MIN KSTC 061345Z 32005KT 10SM CLR M16/M21 A3017 800 66 -2800 320/05 RMK AO2
14926KSTC STC20060206075011302/06/06 07:50:31  5-MIN KSTC 061350Z 32005KT 10SM CLR M16/M21 A3017 800 66 -2800 320/05 RMK AO2 SLP248 T11561206
14926KSTC STC20060206075509602/06/06 07:55:31  5-MIN KSTC 061355Z 32004KT 10SM CLR M15/M21 A3017 800 63 -2700 320/04 RMK AO2
14926KSTC STC20060206080009602/06/06 08:00:31  5-MIN KSTC 061400Z 31005KT 10SM CLR M15/M20 A3017 790 66 -2700 310/05 RMK AO2
14926KSTC STC20060206080509602/06/06 08:05:31  5-MIN KSTC 061405Z 32004KT 10SM CLR M15/M21 A3018 790 63 -2700 310/04 RMK AO2
14926KSTC STC20060206081009602/06/06 08:10:31  5-MIN KSTC 061410Z VRB03KT 10SM CLR M15/M20 A3018 790 66 -2700 VRB/03 RMK AO2
14926KSTC STC20060206081509602/06/06 08:15:31  5-MIN KSTC 061415Z 31005KT 10SM CLR M15/M20 A3018 790 66 -2700 300/05 RMK AO2
14926KSTC STC20060206082009602/06/06 08:20:31  5-MIN KSTC 061420Z 30006KT 10SM CLR M15/M20 A3018 790 66 -2700 300/06 RMK AO2
14926KSTC STC20060206082509602/06/06 08:25:31  5-MIN KSTC 061425Z 31006KT 10SM CLR M15/M21 A3018 790 63 -2700 300/06 RMK AO2
14926KSTC STC20060206083009602/06/06 08:30:31  5-MIN KSTC 061430Z 31006KT 10SM CLR M15/M20 A3019 780 66 -2700 310/06 RMK AO2
14926KSTC STC20060206083509602/06/06 08:35:31  5-MIN KSTC 061435Z 31006KT 10SM CLR M14/M20 A3019 780 63 -2600 310/06 RMK AO2
14926KSTC STC20060206084009602/06/06 08:40:31  5-MIN KSTC 061440Z 31007KT 10SM CLR M14/M20 A3019 780 60 -2600 310/07 RMK AO2
14926KSTC STC20060206084509602/06/06 08:45:31  5-MIN KSTC 061445Z 31007KT 10SM CLR M14/M19 A3019 780 63 -2600 310/07 RMK AO2
14926KSTC STC20060206085011902/06/06 08:50:31  5-MIN KSTC 061450Z 32007KT 10SM CLR M13/M19 A3019 780 60 -2500 320/07 RMK AO2 SLP255 T11331194 53011
14926KSTC STC20060206085509602/06/06 08:55:31  5-MIN KSTC 061455Z 32006KT 10SM CLR M13/M19 A3019 780 58 -2400 320/06 RMK AO2
14926KSTC STC20060206090009602/06/06 09:00:31  5-MIN KSTC 061500Z 33005KT 10SM CLR M12/M19 A3020 770 55 -2400 330/05 RMK AO2
14926KSTC STC20060206090509602/06/06 09:05:31  5-MIN KSTC 061505Z 35004KT 10SM CLR M12/M19 A3020 770 55 -2300 340/04 RMK AO2
14926KSTC STC20060206091009602/06/06 09:10:31  5-MIN KSTC 061510Z 34004KT 10SM CLR M12/M19 A3020 770 55 -2300 340/04 RMK AO2
14926KSTC STC20060206091509602/06/06 09:15:31  5-MIN KSTC 061515Z 33005KT 10SM CLR M12/M19 A3020 770 55 -2300 330/05 RMK AO2
14926KSTC STC20060206092009602/06/06 09:20:31  5-MIN KSTC 061520Z 33005KT 10SM CLR M12/M19 A3020 770 55 -2300 320/05 RMK AO2
14926KSTC STC20060206092509602/06/06 09:25:31  5-MIN KSTC 061525Z 33005KT 10SM CLR M11/M19 A3020 770 53 -2200 330/05 RMK AO2
14926KSTC STC20060206093009602/06/06 09:30:31  5-MIN KSTC 061530Z 33005KT 10SM CLR M11/M19 A3020 770 53 -2200 330/05 RMK AO2
14926KSTC STC20060206093509602/06/06 09:35:31  5-MIN KSTC 061535Z 33006KT 10SM CLR M11/M18 A3020 770 53 -2100 330/06 RMK AO2
14926KSTC STC20060206094009602/06/06 09:40:31  5-MIN KSTC 061540Z 33005KT 10SM CLR M11/M18 A3020 770 53 -2100 330/05 RMK AO2
14926KSTC STC20060206094509602/06/06 09:45:31  5-MIN KSTC 061545Z 33005KT 10SM CLR M11/M18 A3020 770 53 -2100 320/05 RMK AO2
14926KSTC STC20060206095011302/06/06 09:50:31  5-MIN KSTC 061550Z 32006KT 10SM CLR M11/M18 A3020 770 56 -2100 320/06 RMK AO2 SLP258 T11061178
14926KSTC STC20060206095509602/06/06 09:55:31  5-MIN KSTC 061555Z 32006KT 10SM CLR M11/M18 A3020 770 56 -2100 320/06 RMK AO2
14926KSTC STC20060206100009602/06/06 10:00:31  5-MIN KSTC 061600Z 31007KT 10SM CLR M10/M18 A3020 770 53 -2100 310/07 RMK AO2
14926KSTC STC20060206100509602/06/06 10:05:31  5-MIN KSTC 061605Z 32006KT 10SM CLR M10/M17 A3020 770 56 -2100 320/06 RMK AO2
14926KSTC STC20060206101009602/06/06 10:10:31  5-MIN KSTC 061610Z 33005KT 10SM CLR M09/M17 A3021 760 53 -2000 330/05 RMK AO2
14926KSTC STC20060206101509602/06/06 10:15:31  5-MIN KSTC 061615Z 33006KT 10SM CLR M09/M17 A3021 760 53 -2000 330/06 RMK AO2
14926KSTC STC20060206102009602/06/06 10:20:31  5-MIN KSTC 061620Z 34005KT 10SM CLR M09/M17 A3021 760 51 -1900 340/05 RMK AO2
14926KSTC STC20060206102509602/06/06 10:25:31  5-MIN KSTC 061625Z 34006KT 10SM CLR M08/M17 A3021 760 51 -1900 340/06 RMK AO2
14926KSTC STC20060206103009602/06/06 10:30:31  5-MIN KSTC 061630Z 33007KT 10SM CLR M08/M17 A3021 760 51 -1900 330/07 RMK AO2
14926KSTC STC20060206103509602/06/06 10:35:31  5-MIN KSTC 061635Z 33006KT 10SM CLR M08/M17 A3021 760 51 -1900 320/06 RMK AO2
14926KSTC STC20060206104009602/06/06 10:40:31  5-MIN KSTC 061640Z 32006KT 10SM CLR M08/M17 A3021 760 51 -1900 320/06 RMK AO2
14926KSTC STC20060206104509602/06/06 10:45:31  5-MIN KSTC 061645Z 33008KT 10SM CLR M08/M17 A3021 760 51 -1900 320/08 RMK AO2
14926KSTC STC20060206105011302/06/06 10:50:31  5-MIN KSTC 061650Z 32007KT 10SM CLR M08/M16 A3021 760 54 -1900 320/07 RMK AO2 SLP261 T10831161
14926KSTC STC20060206105509602/06/06 10:55:31  5-MIN KSTC 061655Z 33006KT 10SM CLR M08/M16 A3021 760 51 -1800 320/06 RMK AO2
14926KSTC STC20060206110009602/06/06 11:00:31  5-MIN KSTC 061700Z 33006KT 10SM CLR M08/M16 A3021 760 51 -1800 330/06 RMK AO2
14926KSTC STC20060206110509602/06/06 11:05:31  5-MIN KSTC 061705Z 34007KT 10SM CLR M07/M16 A3021 760 49 -1700 340/07 RMK AO2
14926KSTC STC20060206111009602/06/06 11:10:31  5-MIN KSTC 061710Z 34005KT 10SM CLR M07/M16 A3022 750 49 -1700 330/05 RMK AO2
14926KSTC STC20060206111509602/06/06 11:15:31  5-MIN KSTC 061715Z 33007KT 10SM CLR M07/M16 A3022 750 47 -1700 330/07 RMK AO2
14926KSTC STC20060206112009602/06/06 11:20:31  5-MIN KSTC 061720Z 32007KT 10SM CLR M07/M16 A3022 750 47 -1700 320/07 RMK AO2
14926KSTC STC20060206112509602/06/06 11:25:31  5-MIN KSTC 061725Z 33008KT 10SM CLR M07/M17 A3022 750 45 -1700 320/08 RMK AO2
14926KSTC STC20060206113009602/06/06 11:30:31  5-MIN KSTC 061730Z 33006KT 10SM CLR M07/M17 A3021 760 43 -1700 330/06 RMK AO2
14926KSTC STC20060206113509602/06/06 11:35:31  5-MIN KSTC 061735Z 33007KT 10SM CLR M07/M17 A3021 760 43 -1700 330/07 RMK AO2
14926KSTC STC20060206114009602/06/06 11:40:31  5-MIN KSTC 061740Z 33006KT 10SM CLR M07/M17 A3021 760 43 -1700 320/06 RMK AO2
14926KSTC STC20060206114509602/06/06 11:45:31  5-MIN KSTC 061745Z 33005KT 10SM CLR M07/M17 A3022 750 45 -1700 320/05 RMK AO2
14926KSTC STC20060206115013102/06/06 11:50:31  5-MIN KSTC 061750Z 33007KT 10SM CLR M06/M17 A3022 750 43 -1600 330/07 RMK AO2 SLP262 T10611167 11061 21167 53010
14926KSTC STC20060206115509602/06/06 11:55:31  5-MIN KSTC 061755Z 33007KT 10SM CLR M06/M18 A3022 750 39 -1600 330/07 RMK AO2
14926KSTC STC20060206120009602/06/06 12:00:31  5-MIN KSTC 061800Z 34007KT 10SM CLR M06/M18 A3022 750 38 -1500 330/07 RMK AO2
14926KSTC STC20060206120509602/06/06 12:05:31  5-MIN KSTC 061805Z 35005KT 10SM CLR M06/M18 A3022 750 38 -1500 350/05 RMK AO2
14926KSTC STC20060206121009602/06/06 12:10:31  5-MIN KSTC 061810Z 01007KT 10SM CLR M06/M18 A3022 750 38 -1500 010/07 RMK AO2
14926KSTC STC20060206121509602/06/06 12:15:31  5-MIN KSTC 061815Z 01007KT 10SM CLR M06/M18 A3022 750 36 -1500 010/07 RMK AO2
14926KSTC STC20060206122009602/06/06 12:20:31  5-MIN KSTC 061820Z 36007KT 10SM CLR M06/M18 A3022 750 36 -1500 360/07 RMK AO2
14926KSTC STC20060206122509602/06/06 12:25:31  5-MIN KSTC 061825Z 36008KT 10SM CLR M06/M19 A3021 760 34 -1500 350/08 RMK AO2
14926KSTC STC20060206123009602/06/06 12:30:31  5-MIN KSTC 061830Z 35008KT 10SM CLR M06/M19 A3021 760 34 -1500 350/08 RMK AO2
14926KSTC STC20060206123509602/06/06 12:35:31  5-MIN KSTC 061835Z 36007KT 10SM CLR M06/M19 A3021 760 33 -1500 360/07 RMK AO2
14926KSTC STC20060206124009602/06/06 12:40:31  5-MIN KSTC 061840Z 35006KT 10SM CLR M06/M19 A3021 760 34 -1500 340/06 RMK AO2
14926KSTC STC20060206124509602/06/06 12:45:31  5-MIN KSTC 061845Z 35006KT 10SM CLR M06/M19 A3021 760 34 -1500 340/06 RMK AO2
14926KSTC STC20060206125011302/06/06 12:50:31  5-MIN KSTC 061850Z 36006KT 10SM CLR M05/M18 A3021 760 35 -1400 360/06 RMK AO2 SLP259 T10501183
14926KSTC STC20060206125509602/06/06 12:55:31  5-MIN KSTC 061855Z 35007KT 10SM CLR M05/M18 A3021 760 35 -1400 350/07 RMK AO2
14926KSTC STC20060206130009602/06/06 13:00:31  5-MIN KSTC 061900Z 35006KT 10SM CLR M05/M19 A3021 760 33 -1400 340/06 RMK AO2
14926KSTC STC20060206130509602/06/06 13:05:31  5-MIN KSTC 061905Z 34004KT 10SM CLR M04/M18 A3021 760 35 -1400 340/04 RMK AO2
14926KSTC STC20060206131009602/06/06 13:10:31  5-MIN KSTC 061910Z 34007KT 10SM CLR M04/M18 A3021 760 33 -1400 340/07 RMK AO2
14926KSTC STC20060206131509602/06/06 13:15:31  5-MIN KSTC 061915Z 33007KT 10SM CLR M04/M18 A3021 760 33 -1400 320/07 RMK AO2
14926KSTC STC20060206132009602/06/06 13:20:31  5-MIN KSTC 061920Z 34007KT 10SM CLR M04/M19 A3021 760 32 -1400 330/07 RMK AO2
14926KSTC STC20060206132509602/06/06 13:25:31  5-MIN KSTC 061925Z 33006KT 10SM CLR M04/M19 A3020 760 30 -1400 330/06 RMK AO2
14926KSTC STC20060206133009602/06/06 13:30:31  5-MIN KSTC 061930Z 35007KT 10SM CLR M04/M19 A3020 770 30 -1400 340/07 RMK AO2
14926KSTC STC20060206133509602/06/06 13:35:31  5-MIN KSTC 061935Z 35006KT 10SM CLR M04/M19 A3020 770 30 -1400 350/06 RMK AO2
14926KSTC STC20060206134009602/06/06 13:40:31  5-MIN KSTC 061940Z 35006KT 10SM CLR M04/M19 A3020 770 29 -1300 350/06 RMK AO2
14926KSTC STC20060206134509602/06/06 13:45:31  5-MIN KSTC 061945Z 36004KT 10SM CLR M04/M19 A3020 770 29 -1300 360/04 RMK AO2
14926KSTC STC20060206135011302/06/06 13:50:31  5-MIN KSTC 061950Z 35004KT 10SM CLR M04/M19 A3020 770 30 -1300 350/04 RMK AO2 SLP255 T10391189
14926KSTC STC20060206135509602/06/06 13:55:31  5-MIN KSTC 061955Z 33005KT 10SM CLR M04/M18 A3020 770 32 -1300 330/05 RMK AO2
14926KSTC STC20060206140009602/06/06 14:00:31  5-MIN KSTC 062000Z 34005KT 10SM CLR M04/M19 A3020 770 30 -1300 340/05 RMK AO2
14926KSTC STC20060206140509602/06/06 14:05:31  5-MIN KSTC 062005Z 33005KT 10SM CLR M04/M19 A3020 770 30 -1300 330/05 RMK AO2
14926KSTC STC20060206141009602/06/06 14:10:31  5-MIN KSTC 062010Z 30006KT 10SM CLR M04/M17 A3020 770 36 -1400 300/06 RMK AO2
14926KSTC STC20060206141509602/06/06 14:15:31  5-MIN KSTC 062015Z 30007KT 10SM CLR M04/M18 A3020 770 35 -1400 300/07 RMK AO2
14926KSTC STC20060206142009602/06/06 14:20:31  5-MIN KSTC 062020Z 30005KT 10SM CLR M04/M18 A3020 770 35 -1400 300/05 RMK AO2
14926KSTC STC20060206142509602/06/06 14:25:31  5-MIN KSTC 062025Z 30006KT 10SM CLR M04/M17 A3020 770 36 -1400 300/06 RMK AO2
14926KSTC STC20060206143009602/06/06 14:30:31  5-MIN KSTC 062030Z 30007KT 10SM CLR M04/M17 A3020 770 36 -1400 300/07 RMK AO2
14926KSTC STC20060206143509602/06/06 14:35:31  5-MIN KSTC 062035Z 31008KT 10SM CLR M04/M17 A3020 770 36 -1400 310/08 RMK AO2
14926KSTC STC20060206144009602/06/06 14:40:31  5-MIN KSTC 062040Z 31008KT 10SM CLR M04/M17 A3020 770 38 -1400 310/08 RMK AO2
14926KSTC STC20060206144509602/06/06 14:45:31  5-MIN KSTC 062045Z 31008KT 10SM CLR M04/M18 A3020 770 35 -1400 310/08 RMK AO2
14926KSTC STC20060206145011902/06/06 14:50:31  5-MIN KSTC 062050Z 31009KT 10SM CLR M04/M18 A3020 770 35 -1400 310/09 RMK AO2 SLP257 T10441178 51008
14926KSTC STC20060206145509602/06/06 14:55:31  5-MIN KSTC 062055Z 31008KT 10SM CLR M04/M18 A3020 770 35 -1400 310/08 RMK AO2
14926KSTC STC20060206150009602/06/06 15:00:31  5-MIN KSTC 062100Z 32006KT 10SM CLR M04/M18 A3020 770 33 -1300 310/06 RMK AO2
14926KSTC STC20060206150509602/06/06 15:05:31  5-MIN KSTC 062105Z 31007KT 10SM CLR M04/M18 A3020 770 32 -1300 310/07 RMK AO2
14926KSTC STC20060206151009602/06/06 15:10:31  5-MIN KSTC 062110Z 31009KT 10SM CLR M04/M17 A3021 760 37 -1300 310/09 RMK AO2
14926KSTC STC20060206151509602/06/06 15:15:31  5-MIN KSTC 062115Z 30008KT 10SM CLR M04/M16 A3021 760 38 -1300 300/08 RMK AO2
14926KSTC STC20060206152009602/06/06 15:20:31  5-MIN KSTC 062120Z 30009KT 10SM CLR M04/M17 A3021 760 37 -1300 300/09 RMK AO2
14926KSTC STC20060206152509602/06/06 15:25:31  5-MIN KSTC 062125Z 29009KT 10SM CLR M04/M17 A3021 760 37 -1300 290/09 RMK AO2
14926KSTC STC20060206153009602/06/06 15:30:31  5-MIN KSTC 062130Z 31006KT 10SM CLR M04/M16 A3021 760 42 -1400 300/06 RMK AO2
14926KSTC STC20060206153509602/06/06 15:35:31  5-MIN KSTC 062135Z 31006KT 10SM CLR M04/M16 A3021 760 42 -1400 310/06 RMK AO2
14926KSTC STC20060206154009602/06/06 15:40:31  5-MIN KSTC 062140Z 31008KT 10SM CLR M04/M16 A3021 760 40 -1400 310/08 RMK AO2
14926KSTC STC20060206154509602/06/06 15:45:31  5-MIN KSTC 062145Z 31008KT 10SM CLR M04/M16 A3021 760 40 -1400 310/08 RMK AO2
14926KSTC STC20060206155011302/06/06 15:50:31  5-MIN KSTC 062150Z 31009KT 10SM CLR M05/M16 A3021 760 44 -1400 310/09 RMK AO2 SLP259 T10501156
14926KSTC STC20060206155509602/06/06 15:55:31  5-MIN KSTC 062155Z 32006KT 10SM CLR M04/M17 A3021 760 38 -1400 320/06 RMK AO2
14926KSTC STC20060206160009602/06/06 16:00:31  5-MIN KSTC 062200Z 32005KT 10SM CLR M04/M17 A3021 760 38 -1400 320/05 RMK AO2
14926KSTC STC20060206160509602/06/06 16:05:31  5-MIN KSTC 062205Z 33005KT 10SM CLR M04/M17 A3021 760 35 -1300 320/05 RMK AO2
14926KSTC STC20060206161009602/06/06 16:10:31  5-MIN KSTC 062210Z 32005KT 10SM CLR M04/M17 A3021 760 36 -1400 320/05 RMK AO2
14926KSTC STC20060206161509602/06/06 16:15:31  5-MIN KSTC 062215Z 33006KT 10SM CLR M04/M17 A3021 760 36 -1400 320/06 RMK AO2
14926KSTC STC20060206162009602/06/06 16:20:31  5-MIN KSTC 062220Z 33005KT 10SM CLR M04/M18 A3021 760 33 -1300 320/05 RMK AO2
14926KSTC STC20060206162509602/06/06 16:25:31  5-MIN KSTC 062225Z 32006KT 10SM CLR M04/M18 A3021 760 35 -1400 320/06 RMK AO2
14926KSTC STC20060206163009602/06/06 16:30:31  5-MIN KSTC 062230Z 32006KT 10SM CLR M04/M18 A3021 760 35 -1400 320/06 RMK AO2
14926KSTC STC20060206163509602/06/06 16:35:31  5-MIN KSTC 062235Z 32006KT 10SM CLR M05/M18 A3021 760 36 -1400 320/06 RMK AO2
14926KSTC STC20060206164009602/06/06 16:40:31  5-MIN KSTC 062240Z 32005KT 10SM CLR M06/M17 A3021 760 43 -1600 320/05 RMK AO2
14926KSTC STC20060206164509602/06/06 16:45:31  5-MIN KSTC 062245Z 31006KT 10SM CLR M06/M17 A3021 760 43 -1600 310/06 RMK AO2
14926KSTC STC20060206165011302/06/06 16:50:31  5-MIN KSTC 062250Z 30007KT 10SM CLR M07/M16 A3021 760 47 -1700 300/07 RMK AO2 SLP262 T10671161
14926KSTC STC20060206165509602/06/06 16:55:31  5-MIN KSTC 062255Z 30005KT 10SM CLR M07/M16 A3021 760 49 -1700 290/05 RMK AO2
14926KSTC STC20060206170009602/06/06 17:00:31  5-MIN KSTC 062300Z 30007KT 10SM CLR M07/M16 A3021 760 47 -1700 300/07 RMK AO2
14926KSTC STC20060206170509602/06/06 17:05:31  5-MIN KSTC 062305Z 30008KT 10SM CLR M07/M16 A3021 760 47 -1700 300/08 RMK AO2
14926KSTC STC20060206171009602/06/06 17:10:31  5-MIN KSTC 062310Z 30008KT 10SM CLR M06/M16 A3022 750 45 -1600 290/08 RMK AO2
14926KSTC STC20060206171509602/06/06 17:15:31  5-MIN KSTC 062315Z 30007KT 10SM CLR M06/M16 A3022 750 47 -1600 300/07 RMK AO2
14926KSTC STC20060206172009602/06/06 17:20:31  5-MIN KSTC 062320Z 30008KT 10SM CLR M07/M16 A3022 750 49 -1700 300/08 RMK AO2
14926KSTC STC20060206172509602/06/06 17:25:31  5-MIN KSTC 062325Z 30006KT 10SM CLR M07/M16 A3022 750 52 -1700 300/06 RMK AO2
14926KSTC STC20060206173009602/06/06 17:30:31  5-MIN KSTC 062330Z 31006KT 10SM CLR M07/M16 A3022 750 52 -1700 300/06 RMK AO2
14926KSTC STC20060206173509602/06/06 17:35:31  5-MIN KSTC 062335Z 31006KT 10SM CLR M07/M16 A3022 750 49 -1700 310/06 RMK AO2
14926KSTC STC20060206174009602/06/06 17:40:31  5-MIN KSTC 062340Z 31006KT 10SM CLR M07/M16 A3022 750 47 -1700 310/06 RMK AO2
14926KSTC STC20060206174509602/06/06 17:45:31  5-MIN KSTC 062345Z 31006KT 10SM CLR M07/M16 A3022 750 47 -1700 310/06 RMK AO2
14926KSTC STC20060206175013102/06/06 17:50:31  5-MIN KSTC 062350Z 30006KT 10SM CLR M08/M16 A3022 750 51 -1800 300/06 RMK AO2 SLP263 T10781161 11039 21078 55004
14926KSTC STC20060206175509602/06/06 17:55:31  5-MIN KSTC 062355Z 30006KT 10SM CLR M08/M16 A3022 750 51 -1800 300/06 RMK AO2
14926KSTC STC20060206180009602/06/06 18:00:31  5-MIN KSTC 070000Z 30006KT 10SM CLR M08/M16 A3022 750 51 -1800 300/06 RMK AO2
14926KSTC STC20060206180509602/06/06 18:05:31  5-MIN KSTC 070005Z 30006KT 10SM CLR M08/M16 A3022 750 51 -1800 300/06 RMK AO2
14926KSTC STC20060206181009602/06/06 18:10:31  5-MIN KSTC 070010Z 30005KT 10SM CLR M08/M16 A3022 750 54 -1800 300/05 RMK AO2
14926KSTC STC20060206181509602/06/06 18:15:31  5-MIN KSTC 070015Z 30006KT 10SM CLR M08/M16 A3022 750 54 -1800 290/06 RMK AO2
14926KSTC STC20060206182009602/06/06 18:20:31  5-MIN KSTC 070020Z 29006KT 10SM CLR M08/M16 A3022 750 56 -1900 290/06 RMK AO2
14926KSTC STC20060206182509602/06/06 18:25:31  5-MIN KSTC 070025Z 29006KT 10SM CLR M08/M16 A3022 750 56 -1900 290/06 RMK AO2
14926KSTC STC20060206183009602/06/06 18:30:31  5-MIN KSTC 070030Z 30006KT 10SM CLR M08/M16 A3022 750 56 -1900 290/06 RMK AO2
14926KSTC STC20060206183509902/06/06 18:35:31  5-MIN KSTC 070035Z 30006KT 10SM SCT095 M08/M16 A3022 750 56 -1900 300/06 RMK AO2
14926KSTC STC20060206184009902/06/06 18:40:31  5-MIN KSTC 070040Z 30006KT 10SM SCT095 M08/M15 A3022 750 59 -1900 300/06 RMK AO2
14926KSTC STC20060206184509902/06/06 18:45:31  5-MIN KSTC 070045Z 30006KT 10SM SCT095 M08/M15 A3022 750 59 -1900 300/06 RMK AO2
14926KSTC STC20060206185011602/06/06 18:50:31  5-MIN KSTC 070050Z 30006KT 10SM SCT090 M08/M15 A3022 750 59 -1900 290/06 RMK AO2 SLP266 T10831150
14926KSTC STC20060206185509902/06/06 18:55:31  5-MIN KSTC 070055Z 30006KT 10SM SCT090 M08/M15 A3022 750 59 -1900 290/06 RMK AO2
14926KSTC STC20060206190009902/06/06 19:00:31  5-MIN KSTC 070100Z 30006KT 10SM SCT100 M08/M15 A3022 750 59 -1900 300/06 RMK AO2
14926KSTC STC20060206190509902/06/06 19:05:31  5-MIN KSTC 070105Z 31006KT 10SM BKN100 M08/M15 A3022 750 56 -1800 300/06 RMK AO2
14926KSTC STC20060206191009902/06/06 19:10:31  5-MIN KSTC 070110Z 31005KT 10SM BKN100 M08/M15 A3022 750 56 -1800 300/05 RMK AO2
14926KSTC STC20060206191509902/06/06 19:15:31  5-MIN KSTC 070115Z 31005KT 10SM BKN100 M08/M15 A3022 750 56 -1800 310/05 RMK AO2
14926KSTC STC20060206192009902/06/06 19:20:31  5-MIN KSTC 070120Z 31004KT 10SM BKN100 M08/M15 A3022 750 56 -1800 310/04 RMK AO2
14926KSTC STC20060206192509902/06/06 19:25:31  5-MIN KSTC 070125Z 30005KT 10SM OVC100 M08/M15 A3022 750 56 -1800 300/05 RMK AO2
14926KSTC STC20060206193009902/06/06 19:30:31  5-MIN KSTC 070130Z 30005KT 10SM OVC100 M08/M15 A3022 750 59 -1900 290/05 RMK AO2
14926KSTC STC20060206193509902/06/06 19:35:31  5-MIN KSTC 070135Z 31004KT 10SM OVC100 M08/M15 A3022 750 59 -1900 300/04 RMK AO2
14926KSTC STC20060206194009902/06/06 19:40:31  5-MIN KSTC 070140Z 31005KT 10SM OVC100 M08/M15 A3022 750 59 -1900 310/05 RMK AO2
14926KSTC STC20060206194509902/06/06 19:45:31  5-MIN KSTC 070145Z 31005KT 10SM OVC100 M08/M15 A3022 750 56 -1800 310/05 RMK AO2
14926KSTC STC20060206195011602/06/06 19:50:31  5-MIN KSTC 070150Z 31006KT 10SM OVC100 M08/M15 A3022 750 59 -1900 310/06 RMK AO2 SLP266 T10831150
14926KSTC STC20060206195509902/06/06 19:55:31  5-MIN KSTC 070155Z 31005KT 10SM OVC100 M08/M15 A3022 750 56 -1800 310/05 RMK AO2
14926KSTC STC20060206200009902/06/06 20:00:31  5-MIN KSTC 070200Z 33004KT 10SM OVC100 M07/M15 A3022 750 54 -1700 320/04 RMK AO2
14926KSTC STC20060206200509902/06/06 20:05:31  5-MIN KSTC 070205Z 32004KT 10SM OVC100 M07/M14 A3022 750 56 -1700 320/04 RMK AO2
14926KSTC STC20060206201009902/06/06 20:10:31  5-MIN KSTC 070210Z 32004KT 10SM OVC100 M07/M14 A3021 760 56 -1700 320/04 RMK AO2
14926KSTC STC20060206201509902/06/06 20:15:31  5-MIN KSTC 070215Z 32005KT 10SM OVC100 M07/M15 A3021 760 54 -1700 320/05 RMK AO2
14926KSTC STC20060206202009902/06/06 20:20:31  5-MIN KSTC 070220Z 32005KT 10SM OVC100 M07/M15 A3021 760 54 -1700 320/05 RMK AO2
14926KSTC STC20060206202509902/06/06 20:25:31  5-MIN KSTC 070225Z 32005KT 10SM OVC100 M07/M14 A3021 760 56 -1700 320/05 RMK AO2
14926KSTC STC20060206203009902/06/06 20:30:31  5-MIN KSTC 070230Z 32004KT 10SM OVC110 M07/M15 A3021 760 52 -1600 320/04 RMK AO2
14926KSTC STC20060206203509902/06/06 20:35:31  5-MIN KSTC 070235Z 32004KT 10SM OVC110 M07/M15 A3021 760 52 -1600 320/04 RMK AO2
14926KSTC STC20060206204009902/06/06 20:40:31  5-MIN KSTC 070240Z 33004KT 10SM OVC110 M07/M15 A3021 760 52 -1600 330/04 RMK AO2
14926KSTC STC20060206204509902/06/06 20:45:31  5-MIN KSTC 070245Z 33004KT 10SM OVC110 M07/M15 A3021 760 52 -1700 330/04 RMK AO2
14926KSTC STC20060206205012202/06/06 20:50:31  5-MIN KSTC 070250Z 33004KT 10SM OVC120 M07/M15 A3021 760 52 -1600 330/04 RMK AO2 SLP260 T10671150 53004
14926KSTC STC20060206205511302/06/06 20:55:31  5-MIN KSTC 070255Z 33004KT 10SM FEW075 SCT095 OVC120 M07/M15 A3021 760 52 -1600 330/04 RMK AO2
14926KSTC STC20060206210011302/06/06 21:00:31  5-MIN KSTC 070300Z 33003KT 10SM SCT075 BKN095 OVC120 M07/M15 A3021 760 52 -1600 320/03 RMK AO2
14926KSTC STC20060206210511302/06/06 21:05:31  5-MIN KSTC 070305Z 33004KT 10SM FEW080 BKN090 OVC120 M07/M15 A3021 760 52 -1600 330/04 RMK AO2
14926KSTC STC20060206211011302/06/06 21:10:31  5-MIN KSTC 070310Z 32004KT 10SM SCT075 BKN090 OVC120 M07/M15 A3021 760 52 -1600 320/04 RMK AO2
14926KSTC STC20060206211510602/06/06 21:15:31  5-MIN KSTC 070315Z 32004KT 10SM BKN075 OVC095 M07/M14 A3021 760 56 -1700 320/04 RMK AO2
14926KSTC STC20060206212010602/06/06 21:20:31  5-MIN KSTC 070320Z 32004KT 10SM BKN075 OVC095 M07/M14 A3021 760 59 -1700 320/04 RMK AO2
14926KSTC STC20060206212510602/06/06 21:25:31  5-MIN KSTC 070325Z 31005KT 10SM BKN075 OVC095 M07/M14 A3021 760 59 -1700 310/05 RMK AO2
14926KSTC STC20060206213010602/06/06 21:30:31  5-MIN KSTC 070330Z 32005KT 10SM BKN075 OVC095 M08/M14 A3021 760 62 -1800 310/05 RMK AO2
14926KSTC STC20060206213510602/06/06 21:35:31  5-MIN KSTC 070335Z 32004KT 10SM BKN075 OVC100 M07/M14 A3021 760 54 -1600 320/04 RMK AO2
14926KSTC STC20060206214010602/06/06 21:40:31  5-MIN KSTC 070340Z 32005KT 10SM BKN080 OVC100 M07/M14 A3021 760 56 -1700 320/05 RMK AO2
14926KSTC STC20060206214510602/06/06 21:45:31  5-MIN KSTC 070345Z 32004KT 10SM BKN080 OVC100 M07/M14 A3021 760 56 -1700 320/04 RMK AO2
14926KSTC STC20060206215012302/06/06 21:50:31  5-MIN KSTC 070350Z 33004KT 10SM BKN080 OVC100 M07/M15 A3021 760 52 -1600 320/04 RMK AO2 SLP260 T10671150
14926KSTC STC20060206215510602/06/06 21:55:31  5-MIN KSTC 070355Z 31004KT 10SM BKN080 OVC100 M07/M15 A3021 760 54 -1700 310/04 RMK AO2
14926KSTC STC20060206220010602/06/06 22:00:31  5-MIN KSTC 070400Z 32004KT 10SM SCT080 OVC100 M07/M14 A3021 760 56 -1700 320/04 RMK AO2
14926KSTC STC20060206220509902/06/06 22:05:31  5-MIN KSTC 070405Z 33004KT 10SM OVC095 M07/M15 A3021 760 54 -1700 320/04 RMK AO2
14926KSTC STC20060206221009902/06/06 22:10:31  5-MIN KSTC 070410Z 33004KT 10SM OVC095 M07/M15 A3021 760 54 -1700 330/04 RMK AO2
14926KSTC STC20060206221509902/06/06 22:15:31  5-MIN KSTC 070415Z 34003KT 10SM OVC095 M07/M15 A3021 760 54 -1700 340/03 RMK AO2
14926KSTC STC20060206222009902/06/06 22:20:31  5-MIN KSTC 070420Z 00000KT 10SM OVC100 M07/M15 A3021 760 54 -1700 000/00 RMK AO2
14926KSTC STC20060206222509902/06/06 22:25:31  5-MIN KSTC 070425Z 34003KT 10SM OVC100 M07/M15 A3021 760 54 -1700 340/03 RMK AO2
14926KSTC STC20060206223009902/06/06 22:30:31  5-MIN KSTC 070430Z 34003KT 10SM OVC095 M07/M15 A3021 760 54 -1700 330/03 RMK AO2
14926KSTC STC20060206223509902/06/06 22:35:31  5-MIN KSTC 070435Z 33003KT 10SM OVC095 M07/M15 A3021 760 54 -1700 330/03 RMK AO2
14926KSTC STC20060206224009902/06/06 22:40:31  5-MIN KSTC 070440Z 33003KT 10SM OVC095 M07/M15 A3021 760 54 -1700 330/03 RMK AO2
14926KSTC STC20060206224509902/06/06 22:45:31  5-MIN KSTC 070445Z 32003KT 10SM OVC095 M08/M14 A3021 760 59 -1800 320/03 RMK AO2
14926KSTC STC20060206225012102/06/06 22:50:31  5-MIN KSTC 070450Z AUTO 00000KT 10SM OVC095 M08/M14 A3021 760 59 -1800 000/00 RMK AO2 SLP258 T10781144
14926KSTC STC20060206225510402/06/06 22:55:31  5-MIN KSTC 070455Z AUTO 00000KT 10SM OVC100 M07/M14 A3021 760 56 -1700 000/00 RMK AO2
14926KSTC STC20060206230010402/06/06 23:00:31  5-MIN KSTC 070500Z AUTO 00000KT 10SM OVC100 M07/M14 A3021 760 56 -1700 000/00 RMK AO2
14926KSTC STC20060206230510402/06/06 23:05:31  5-MIN KSTC 070505Z AUTO 00000KT 10SM OVC100 M07/M15 A3021 760 54 -1700 000/00 RMK AO2
14926KSTC STC20060206231010402/06/06 23:10:31  5-MIN KSTC 070510Z AUTO 00000KT 10SM OVC100 M07/M14 A3021 760 56 -1700 000/00 RMK AO2
14926KSTC STC20060206231510402/06/06 23:15:31  5-MIN KSTC 070515Z AUTO 00000KT 10SM OVC100 M07/M14 A3021 760 56 -1700 000/00 RMK AO2
14926KSTC STC20060206232010402/06/06 23:20:31  5-MIN KSTC 070520Z AUTO 31004KT 10SM OVC100 M07/M14 A3021 760 56 -1700 310/04 RMK AO2
14926KSTC STC20060206232510402/06/06 23:25:31  5-MIN KSTC 070525Z AUTO 31005KT 10SM OVC100 M07/M13 A3021 760 62 -1700 300/05 RMK AO2
14926KSTC STC20060206233010402/06/06 23:30:31  5-MIN KSTC 070530Z AUTO 31005KT 10SM OVC100 M08/M13 A3021 760 64 -1800 310/05 RMK AO2
14926KSTC STC20060206233511102/06/06 23:35:31  5-MIN KSTC 070535Z AUTO 31004KT 10SM SCT090 OVC110 M07/M13 A3021 760 62 -1700 310/04 RMK AO2
14926KSTC STC20060206234011102/06/06 23:40:31  5-MIN KSTC 070540Z AUTO 32003KT 10SM FEW085 OVC110 M07/M13 A3021 760 62 -1700 320/03 RMK AO2
14926KSTC STC20060206234511102/06/06 23:45:31  5-MIN KSTC 070545Z AUTO 00000KT 10SM FEW085 OVC110 M07/M14 A3021 760 57 -1600 000/00 RMK AO2
14926KSTC STC20060206235015602/06/06 23:50:31  5-MIN KSTC 070550Z AUTO 34003KT 10SM FEW085 OVC110 M07/M14 A3021 760 57 -1600 340/03 RMK AO2 SLP256 T10671139 11067 21089 410391167 58002
14926KSTC STC20060206235510402/06/06 23:55:31  5-MIN KSTC 070555Z AUTO 34003KT 10SM OVC110 M07/M14 A3021 760 57 -1600 330/03 RMK AO2
14926KSTC STC20060207000010402/07/06 00:00:32  5-MIN KSTC 070600Z AUTO 33003KT 10SM OVC100 M07/M14 A3021 760 57 -1600 330/03 RMK AO2
14926KSTC STC20060207000510402/07/06 00:05:31  5-MIN KSTC 070605Z AUTO 32004KT 10SM OVC100 M07/M14 A3021 760 57 -1600 320/04 RMK AO2
14926KSTC STC20060207001010402/07/06 00:10:31  5-MIN KSTC 070610Z AUTO 32004KT 10SM OVC100 M07/M14 A3021 760 59 -1700 310/04 RMK AO2
14926KSTC STC20060207001510402/07/06 00:15:31  5-MIN KSTC 070615Z AUTO 32003KT 10SM OVC100 M07/M13 A3021 760 62 -1700 320/03 RMK AO2
14926KSTC STC20060207002010402/07/06 00:20:31  5-MIN KSTC 070620Z AUTO 33004KT 10SM OVC100 M07/M14 A3020 760 57 -1600 320/04 RMK AO2
14926KSTC STC20060207002510402/07/06 00:25:31  5-MIN KSTC 070625Z AUTO 33004KT 10SM OVC100 M07/M14 A3020 770 57 -1600 330/04 RMK AO2
14926KSTC STC20060207003010402/07/06 00:30:31  5-MIN KSTC 070630Z AUTO 33003KT 10SM OVC100 M07/M14 A3020 770 57 -1600 330/03 RMK AO2
14926KSTC STC20060207003510402/07/06 00:35:31  5-MIN KSTC 070635Z AUTO 33003KT 10SM OVC100 M07/M14 A3020 770 59 -1700 320/03 RMK AO2
14926KSTC STC20060207004010402/07/06 00:40:31  5-MIN KSTC 070640Z AUTO 33004KT 10SM OVC100 M07/M14 A3020 770 59 -1700 320/04 RMK AO2
14926KSTC STC20060207004510402/07/06 00:45:31  5-MIN KSTC 070645Z AUTO 32004KT 10SM OVC100 M07/M14 A3020 770 59 -1700 320/04 RMK AO2
14926KSTC STC20060207005012102/07/06 00:50:31  5-MIN KSTC 070650Z AUTO 31004KT 10SM OVC100 M08/M14 A3020 770 62 -1800 310/04 RMK AO2 SLP254 T10781139
14926KSTC STC20060207005510402/07/06 00:55:31  5-MIN KSTC 070655Z AUTO 32005KT 10SM OVC100 M08/M13 A3020 770 67 -1900 310/05 RMK AO2
14926KSTC STC20060207010010402/07/06 01:00:31  5-MIN KSTC 070700Z AUTO 32005KT 10SM OVC100 M08/M13 A3020 770 67 -1900 310/05 RMK AO2
14926KSTC STC20060207010510402/07/06 01:05:31  5-MIN KSTC 070705Z AUTO 33003KT 10SM OVC100 M08/M14 A3020 770 62 -1800 330/03 RMK AO2
14926KSTC STC20060207011011102/07/06 01:10:31  5-MIN KSTC 070710Z AUTO 33003KT 10SM FEW080 OVC100 M08/M14 A3020 770 62 -1800 330/03 RMK AO2
14926KSTC STC20060207011511102/07/06 01:15:31  5-MIN KSTC 070715Z AUTO 33003KT 10SM SCT080 OVC100 M08/M14 A3020 770 62 -1800 330/03 RMK AO2
14926KSTC STC20060207012011102/07/06 01:20:31  5-MIN KSTC 070720Z AUTO 33003KT 10SM BKN075 OVC100 M07/M14 A3020 760 56 -1700 320/03 RMK AO2
14926KSTC STC20060207012511102/07/06 01:25:31  5-MIN KSTC 070725Z AUTO 00000KT 10SM BKN075 OVC100 M08/M14 A3020 760 59 -1800 000/00 RMK AO2
14926KSTC STC20060207013011102/07/06 01:30:31  5-MIN KSTC 070730Z AUTO 00000KT 10SM BKN075 OVC100 M08/M14 A3021 760 62 -1800 000/00 RMK AO2
14926KSTC STC20060207013510402/07/06 01:35:31  5-MIN KSTC 070735Z AUTO 31003KT 10SM OVC075 M08/M14 A3021 760 62 -1800 310/03 RMK AO2
14926KSTC STC20060207014010402/07/06 01:40:31  5-MIN KSTC 070740Z AUTO 32003KT 10SM OVC075 M08/M14 A3021 760 62 -1800 320/03 RMK AO2
14926KSTC STC20060207014510402/07/06 01:45:31  5-MIN KSTC 070745Z AUTO 33003KT 10SM OVC075 M07/M14 A3021 760 59 -1700 320/03 RMK AO2
14926KSTC STC20060207015012102/07/06 01:50:31  5-MIN KSTC 070750Z AUTO 00000KT 10SM OVC075 M07/M14 A3021 760 59 -1700 000/00 RMK AO2 SLP255 T10721139
14926KSTC STC20060207015510402/07/06 01:55:31  5-MIN KSTC 070755Z AUTO 00000KT 10SM OVC075 M07/M14 A3021 760 59 -1700 000/00 RMK AO2
14926KSTC STC20060207020010402/07/06 02:00:31  5-MIN KSTC 070800Z AUTO 00000KT 10SM OVC080 M07/M13 A3020 760 62 -1700 000/00 RMK AO2
14926KSTC STC20060207020510402/07/06 02:05:31  5-MIN KSTC 070805Z AUTO 00000KT 10SM OVC080 M08/M13 A3020 760 64 -1800 000/00 RMK AO2
14926KSTC STC20060207021010402/07/06 02:10:31  5-MIN KSTC 070810Z AUTO 00000KT 10SM OVC080 M07/M13 A3021 760 62 -1700 000/00 RMK AO2
14926KSTC STC20060207021510402/07/06 02:15:31  5-MIN KSTC 070815Z AUTO 29004KT 10SM OVC080 M08/M13 A3021 760 64 -1800 290/04 RMK AO2
14926KSTC STC20060207022010402/07/06 02:20:31  5-MIN KSTC 070820Z AUTO 29004KT 10SM OVC080 M07/M13 A3021 760 65 -1700 280/04 RMK AO2
14926KSTC STC20060207022510402/07/06 02:25:31  5-MIN KSTC 070825Z AUTO 29003KT 10SM OVC080 M07/M12 A3021 760 68 -1700 280/03 RMK AO2
14926KSTC STC20060207023010402/07/06 02:30:31  5-MIN KSTC 070830Z AUTO 00000KT 10SM OVC080 M07/M12 A3021 760 68 -1700 000/00 RMK AO2
14926KSTC STC20060207023510402/07/06 02:35:31  5-MIN KSTC 070835Z AUTO 30003KT 10SM OVC080 M07/M13 A3021 760 65 -1700 290/03 RMK AO2
14926KSTC STC20060207024010402/07/06 02:40:31  5-MIN KSTC 070840Z AUTO 29003KT 10SM OVC080 M07/M13 A3021 760 65 -1700 290/03 RMK AO2
14926KSTC STC20060207024510402/07/06 02:45:31  5-MIN KSTC 070845Z AUTO 28003KT 10SM OVC080 M07/M12 A3021 760 68 -1700 270/03 RMK AO2
14926KSTC STC20060207025012702/07/06 02:50:31  5-MIN KSTC 070850Z AUTO 00000KT 10SM OVC080 M07/M13 A3021 760 65 -1700 000/00 RMK AO2 SLP256 T10721128 58000
14926KSTC STC20060207025510402/07/06 02:55:31  5-MIN KSTC 070855Z AUTO 29003KT 10SM OVC085 M07/M13 A3021 760 65 -1700 290/03 RMK AO2
14926KSTC STC20060207030010402/07/06 03:00:31  5-MIN KSTC 070900Z AUTO 00000KT 10SM OVC085 M07/M13 A3021 760 65 -1700 000/00 RMK AO2
14926KSTC STC20060207030510402/07/06 03:05:31  5-MIN KSTC 070905Z AUTO 29003KT 10SM OVC085 M07/M13 A3021 760 65 -1700 290/03 RMK AO2
14926KSTC STC20060207031010402/07/06 03:10:31  5-MIN KSTC 070910Z AUTO 30003KT 10SM OVC080 M07/M13 A3021 760 65 -1700 300/03 RMK AO2
14926KSTC STC20060207031510402/07/06 03:15:31  5-MIN KSTC 070915Z AUTO 29003KT 10SM OVC080 M07/M13 A3020 760 65 -1700 290/03 RMK AO2
14926KSTC STC20060207032010402/07/06 03:20:31  5-MIN KSTC 070920Z AUTO 00000KT 10SM OVC080 M07/M13 A3020 770 65 -1700 000/00 RMK AO2
14926KSTC STC20060207032510402/07/06 03:25:31  5-MIN KSTC 070925Z AUTO 00000KT 10SM OVC080 M07/M13 A3020 760 59 -1600 000/00 RMK AO2
14926KSTC STC20060207033010402/07/06 03:30:31  5-MIN KSTC 070930Z AUTO 00000KT 10SM OVC080 M07/M13 A3020 770 65 -1700 000/00 RMK AO2
14926KSTC STC20060207033510402/07/06 03:35:31  5-MIN KSTC 070935Z AUTO 31003KT 10SM OVC080 M07/M13 A3020 770 59 -1600 310/03 RMK AO2
14926KSTC STC20060207034010402/07/06 03:40:31  5-MIN KSTC 070940Z AUTO 00000KT 10SM OVC080 M07/M13 A3020 770 59 -1600 000/00 RMK AO2
14926KSTC STC20060207034511102/07/06 03:45:31  5-MIN KSTC 070945Z AUTO 00000KT 10SM BKN080 OVC095 M07/M13 A3020 770 59 -1600 000/00 RMK AO2
14926KSTC STC20060207035012802/07/06 03:50:31  5-MIN KSTC 070950Z AUTO 00000KT 10SM BKN080 OVC095 M07/M13 A3020 770 59 -1600 000/00 RMK AO2 SLP253 T10671133
14926KSTC STC20060207035511102/07/06 03:55:31  5-MIN KSTC 070955Z AUTO 32003KT 10SM BKN080 OVC095 M07/M13 A3020 770 65 -1700 310/03 RMK AO2
14926KSTC STC20060207040011102/07/06 04:00:31  5-MIN KSTC 071000Z AUTO 30004KT 10SM SCT080 OVC095 M07/M13 A3020 770 65 -1700 300/04 RMK AO2
14926KSTC STC20060207040511102/07/06 04:05:31  5-MIN KSTC 071005Z AUTO 30003KT 10SM SCT080 OVC095 M07/M12 A3020 770 68 -1700 300/03 RMK AO2
14926KSTC STC20060207041011102/07/06 04:10:31  5-MIN KSTC 071010Z AUTO 30003KT 10SM SCT080 OVC095 M07/M12 A3021 760 68 -1700 300/03 RMK AO2
14926KSTC STC20060207041511102/07/06 04:15:31  5-MIN KSTC 071015Z AUTO 30003KT 10SM SCT080 OVC095 M07/M13 A3021 760 65 -1700 300/03 RMK AO2
14926KSTC STC20060207042011102/07/06 04:20:31  5-MIN KSTC 071020Z AUTO 30004KT 10SM BKN080 OVC095 M08/M12 A3021 760 71 -1800 300/04 RMK AO2
14926KSTC STC20060207042511102/07/06 04:25:31  5-MIN KSTC 071025Z AUTO 30004KT 10SM BKN080 OVC095 M08/M13 A3021 760 67 -1800 300/04 RMK AO2
14926KSTC STC20060207043011102/07/06 04:30:31  5-MIN KSTC 071030Z AUTO 31004KT 10SM BKN080 OVC095 M08/M13 A3021 760 67 -1900 300/04 RMK AO2
14926KSTC STC20060207043510402/07/06 04:35:31  5-MIN KSTC 071035Z AUTO 32003KT 10SM OVC080 M08/M14 A3021 760 62 -1800 320/03 RMK AO2
14926KSTC STC20060207044010402/07/06 04:40:31  5-MIN KSTC 071040Z AUTO 00000KT 10SM OVC075 M08/M13 A3021 760 67 -1900 000/00 RMK AO2
14926KSTC STC20060207044510402/07/06 04:45:31  5-MIN KSTC 071045Z AUTO 32003KT 10SM OVC075 M08/M14 A3021 760 64 -1900 310/03 RMK AO2
14926KSTC STC20060207045012102/07/06 04:50:31  5-MIN KSTC 071050Z AUTO 31003KT 10SM OVC075 M08/M14 A3020 760 62 -1800 310/03 RMK AO2 SLP255 T10781139
14926KSTC STC20060207045510402/07/06 04:55:31  5-MIN KSTC 071055Z AUTO 00000KT 10SM OVC075 M08/M14 A3020 760 64 -1900 000/00 RMK AO2
14926KSTC STC20060207050010402/07/06 05:00:31  5-MIN KSTC 071100Z AUTO 00000KT 10SM OVC080 M08/M14 A3020 760 64 -1900 000/00 RMK AO2
14926KSTC STC20060207050510402/07/06 05:05:31  5-MIN KSTC 071105Z AUTO 00000KT 10SM OVC080 M08/M14 A3020 760 64 -1900 000/00 RMK AO2
14926KSTC STC20060207051010402/07/06 05:10:31  5-MIN KSTC 071110Z AUTO 00000KT 10SM OVC080 M08/M14 A3021 760 64 -1900 000/00 RMK AO2
14926KSTC STC20060207051510402/07/06 05:15:31  5-MIN KSTC 071115Z AUTO 00000KT 10SM OVC080 M08/M14 A3021 760 64 -1900 000/00 RMK AO2
14926KSTC STC20060207052010402/07/06 05:20:31  5-MIN KSTC 071120Z AUTO 00000KT 10SM OVC080 M09/M14 A3021 760 67 -1900 000/00 RMK AO2
14926KSTC STC20060207052510402/07/06 05:25:31  5-MIN KSTC 071125Z AUTO 32003KT 10SM OVC080 M08/M14 A3021 760 64 -1900 320/03 RMK AO2
14926KSTC STC20060207053010402/07/06 05:30:31  5-MIN KSTC 071130Z AUTO 33003KT 10SM OVC075 M08/M14 A3021 760 64 -1900 330/03 RMK AO2
14926KSTC STC20060207053510402/07/06 05:35:31  5-MIN KSTC 071135Z AUTO 00000KT 10SM OVC075 M08/M13 A3021 760 67 -1900 000/00 RMK AO2
14926KSTC STC20060207054010402/07/06 05:40:31  5-MIN KSTC 071140Z AUTO 32003KT 10SM OVC075 M08/M13 A3021 760 67 -1900 310/03 RMK AO2
14926KSTC STC20060207054510402/07/06 05:45:31  5-MIN KSTC 071145Z AUTO 31004KT 10SM OVC075 M08/M13 A3021 760 67 -1900 310/04 RMK AO2
14926KSTC STC20060207055013902/07/06 05:50:31  5-MIN KSTC 071150Z AUTO 31005KT 10SM OVC075 M09/M13 A3021 760 74 -1900 310/05 RMK AO2 SLP259 T10891128 11067 21089 55000
14926KSTC STC20060207055510402/07/06 05:55:31  5-MIN KSTC 071155Z AUTO 31004KT 10SM OVC075 M08/M13 A3021 760 70 -1900 310/04 RMK AO2
14926KSTC STC20060207060010402/07/06 06:00:31  5-MIN KSTC 071200Z AUTO 33003KT 10SM OVC075 M08/M13 A3021 760 67 -1800 320/03 RMK AO2
14926KSTC STC20060207060510402/07/06 06:05:31  5-MIN KSTC 071205Z AUTO 00000KT 10SM OVC075 M08/M13 A3020 770 67 -1800 000/00 RMK AO2
14926KSTC STC20060207061010402/07/06 06:10:31  5-MIN KSTC 071210Z AUTO 00000KT 10SM OVC075 M08/M13 A3020 770 70 -1900 000/00 RMK AO2
14926KSTC STC20060207061510402/07/06 06:15:31  5-MIN KSTC 071215Z AUTO 00000KT 10SM OVC075 M08/M13 A3020 770 67 -1800 000/00 RMK AO2
14926KSTC STC20060207062010402/07/06 06:20:31  5-MIN KSTC 071220Z AUTO 00000KT 10SM OVC070 M08/M13 A3020 770 64 -1800 000/00 RMK AO2
14926KSTC STC20060207062510402/07/06 06:25:31  5-MIN KSTC 071225Z AUTO 00000KT 10SM OVC070 M08/M13 A3020 770 70 -1900 000/00 RMK AO2
14926KSTC STC20060207063010402/07/06 06:30:31  5-MIN KSTC 071230Z AUTO 00000KT 10SM OVC070 M08/M13 A3020 770 64 -1800 000/00 RMK AO2
14926KSTC STC20060207063510402/07/06 06:35:31  5-MIN KSTC 071235Z AUTO 00000KT 10SM OVC070 M08/M13 A3020 770 64 -1800 000/00 RMK AO2
14926KSTC STC20060207064010402/07/06 06:40:31  5-MIN KSTC 071240Z AUTO 00000KT 10SM OVC070 M08/M13 A3020 770 64 -1800 000/00 RMK AO2
14926KSTC STC20060207064510402/07/06 06:45:31  5-MIN KSTC 071245Z AUTO 03003KT 10SM OVC070 M08/M13 A3020 770 70 -1900 030/03 RMK AO2
14926KSTC STC20060207065012102/07/06 06:50:31  5-MIN KSTC 071250Z AUTO 00000KT 10SM OVC070 M08/M13 A3020 770 70 -1900 000/00 RMK AO2 SLP257 T10831128
14926KSTC STC20060207065510402/07/06 06:55:31  5-MIN KSTC 071255Z AUTO 31004KT 10SM OVC070 M08/M13 A3020 770 70 -1900 310/04 RMK AO2
14926KSTC STC20060207070010402/07/06 07:00:31  5-MIN KSTC 071300Z AUTO 32004KT 10SM OVC075 M08/M12 A3020 770 74 -1900 320/04 RMK AO2
14926KSTC STC20060207070510402/07/06 07:05:31  5-MIN KSTC 071305Z AUTO 00000KT 10SM OVC075 M08/M13 A3020 770 67 -1800 000/00 RMK AO2
14926KSTC STC20060207071010402/07/06 07:10:31  5-MIN KSTC 071310Z AUTO 00000KT 10SM OVC075 M08/M13 A3021 760 67 -1800 000/00 RMK AO2
14926KSTC STC20060207071509902/07/06 07:15:31  5-MIN KSTC 071315Z 00000KT 10SM OVC075 M08/M13 A3021 760 70 -1900 000/00 RMK AO2
14926KSTC STC20060207072009902/07/06 07:20:31  5-MIN KSTC 071320Z 00000KT 10SM OVC075 M08/M13 A3021 760 67 -1800 000/00 RMK AO2
14926KSTC STC20060207072509902/07/06 07:25:31  5-MIN KSTC 071325Z 00000KT 10SM OVC075 M08/M13 A3021 760 70 -1900 000/00 RMK AO2
14926KSTC STC20060207073009902/07/06 07:30:31  5-MIN KSTC 071330Z 00000KT 10SM OVC075 M08/M13 A3021 760 67 -1800 000/00 RMK AO2
14926KSTC STC20060207073509902/07/06 07:35:31  5-MIN KSTC 071335Z 31003KT 10SM OVC075 M08/M13 A3021 760 67 -1800 310/03 RMK AO2
14926KSTC STC20060207074009902/07/06 07:40:31  5-MIN KSTC 071340Z 30004KT 10SM OVC075 M08/M13 A3021 760 70 -1900 300/04 RMK AO2
14926KSTC STC20060207074509902/07/06 07:45:31  5-MIN KSTC 071345Z 00000KT 10SM OVC075 M08/M13 A3021 760 70 -1900 000/00 RMK AO2
14926KSTC STC20060207075011602/07/06 07:50:31  5-MIN KSTC 071350Z 01003KT 10SM OVC075 M08/M13 A3021 760 70 -1900 010/03 RMK AO2 SLP260 T10831128
14926KSTC STC20060207075509902/07/06 07:55:31  5-MIN KSTC 071355Z 05003KT 10SM OVC075 M08/M13 A3021 760 70 -1900 050/03 RMK AO2
14926KSTC STC20060207080009902/07/06 08:00:31  5-MIN KSTC 071400Z 06003KT 10SM OVC075 M08/M13 A3021 760 67 -1800 060/03 RMK AO2
14926KSTC STC20060207080509902/07/06 08:05:31  5-MIN KSTC 071405Z 07003KT 10SM OVC075 M08/M13 A3021 760 64 -1800 070/03 RMK AO2
14926KSTC STC20060207081009902/07/06 08:10:31  5-MIN KSTC 071410Z 07003KT 10SM OVC075 M08/M13 A3021 760 64 -1800 060/03 RMK AO2
14926KSTC STC20060207081509902/07/06 08:15:31  5-MIN KSTC 071415Z 00000KT 10SM OVC075 M08/M13 A3022 750 64 -1800 000/00 RMK AO2
14926KSTC STC20060207082009902/07/06 08:20:31  5-MIN KSTC 071420Z 00000KT 10SM OVC075 M07/M13 A3021 760 65 -1700 000/00 RMK AO2
14926KSTC STC20060207082509902/07/06 08:25:31  5-MIN KSTC 071425Z 00000KT 10SM OVC070 M07/M13 A3022 750 65 -1700 000/00 RMK AO2
14926KSTC STC20060207083009902/07/06 08:30:31  5-MIN KSTC 071430Z 00000KT 10SM OVC070 M07/M13 A3022 750 62 -1700 000/00 RMK AO2
14926KSTC STC20060207083509902/07/06 08:35:31  5-MIN KSTC 071435Z 00000KT 10SM OVC070 M08/M13 A3022 750 67 -1800 000/00 RMK AO2
14926KSTC STC20060207084009902/07/06 08:40:31  5-MIN KSTC 071440Z 00000KT 10SM OVC070 M08/M13 A3022 750 67 -1800 000/00 RMK AO2
14926KSTC STC20060207084509902/07/06 08:45:31  5-MIN KSTC 071445Z 32003KT 10SM OVC070 M08/M13 A3022 750 67 -1800 320/03 RMK AO2
14926KSTC STC20060207085012202/07/06 08:50:31  5-MIN KSTC 071450Z 00000KT 10SM OVC070 M08/M13 A3022 750 67 -1800 000/00 RMK AO2 SLP262 T10781128 55000
14926KSTC STC20060207085509902/07/06 08:55:31  5-MIN KSTC 071455Z 00000KT 10SM OVC070 M07/M13 A3022 750 65 -1700 000/00 RMK AO2
14926KSTC STC20060207090009902/07/06 09:00:31  5-MIN KSTC 071500Z 00000KT 10SM OVC070 M07/M13 A3022 750 62 -1700 000/00 RMK AO2
14926KSTC STC20060207090509902/07/06 09:05:31  5-MIN KSTC 071505Z 00000KT 10SM OVC070 M07/M13 A3022 750 62 -1700 000/00 RMK AO2
14926KSTC STC20060207091009902/07/06 09:10:31  5-MIN KSTC 071510Z 00000KT 10SM OVC070 M07/M14 A3022 750 59 -1700 000/00 RMK AO2
14926KSTC STC20060207091509902/07/06 09:15:31  5-MIN KSTC 071515Z 00000KT 10SM OVC070 M07/M14 A3022 750 57 -1700 000/00 RMK AO2
14926KSTC STC20060207092009802/07/06 09:20:31  5-MIN KSTC 071520Z 00000KT 8SM OVC070 M07/M14 A3022 750 57 -1700 000/00 RMK AO2
14926KSTC STC20060207092510502/07/06 09:25:31  5-MIN KSTC 071525Z 00000KT 9SM BKN070 OVC090 M07/M14 A3022 750 57 -1700 000/00 RMK AO2
14926KSTC STC20060207093009902/07/06 09:30:31  5-MIN KSTC 071530Z 00000KT 10SM OVC070 M07/M14 A3022 750 57 -1700 000/00 RMK AO2
14926KSTC STC20060207093509902/07/06 09:35:31  5-MIN KSTC 071535Z 00000KT 10SM OVC070 M07/M14 A3022 750 57 -1700 000/00 RMK AO2
14926KSTC STC20060207094009902/07/06 09:40:31  5-MIN KSTC 071540Z 00000KT 10SM BKN070 M06/M14 A3022 750 54 -1600 000/00 RMK AO2
14926KSTC STC20060207094509902/07/06 09:45:31  5-MIN KSTC 071545Z 00000KT 10SM BKN065 M07/M14 A3022 750 57 -1700 000/00 RMK AO2
14926KSTC STC20060207095011602/07/06 09:50:31  5-MIN KSTC 071550Z 31003KT 10SM OVC065 M07/M13 A3022 750 59 -1700 310/03 RMK AO2 SLP261 T10671133
14926KSTC STC20060207095509902/07/06 09:55:31  5-MIN KSTC 071555Z 31003KT 10SM OVC070 M07/M13 A3022 750 59 -1700 310/03 RMK AO2
14926KSTC STC20060207100009902/07/06 10:00:31  5-MIN KSTC 071600Z 31003KT 10SM OVC070 M07/M13 A3022 750 59 -1700 310/03 RMK AO2
14926KSTC STC20060207100509902/07/06 10:05:31  5-MIN KSTC 071605Z 00000KT 10SM OVC065 M06/M14 A3022 750 54 -1600 000/00 RMK AO2
14926KSTC STC20060207101009902/07/06 10:10:31  5-MIN KSTC 071610Z 00000KT 10SM OVC065 M06/M13 A3022 750 57 -1600 000/00 RMK AO2
14926KSTC STC20060207101509902/07/06 10:15:31  5-MIN KSTC 071615Z 00000KT 10SM OVC070 M06/M13 A3022 750 57 -1600 000/00 RMK AO2
14926KSTC STC20060207102009902/07/06 10:20:31  5-MIN KSTC 071620Z 00000KT 10SM OVC070 M06/M14 A3022 750 52 -1500 000/00 RMK AO2
14926KSTC STC20060207102509902/07/06 10:25:31  5-MIN KSTC 071625Z 00000KT 10SM OVC070 M06/M14 A3022 750 50 -1500 000/00 RMK AO2
14926KSTC STC20060207103009902/07/06 10:30:31  5-MIN KSTC 071630Z 00000KT 10SM OVC070 M06/M14 A3022 750 50 -1500 000/00 RMK AO2
14926KSTC STC20060207103509902/07/06 10:35:31  5-MIN KSTC 071635Z 00000KT 10SM OVC070 M06/M14 A3022 750 50 -1500 000/00 RMK AO2
14926KSTC STC20060207104009902/07/06 10:40:31  5-MIN KSTC 071640Z 00000KT 10SM OVC070 M06/M14 A3022 750 50 -1500 000/00 RMK AO2
14926KSTC STC20060207104509902/07/06 10:45:31  5-MIN KSTC 071645Z 00000KT 10SM OVC070 M06/M14 A3022 750 50 -1500 000/00 RMK AO2
14926KSTC STC20060207105011602/07/06 10:50:31  5-MIN KSTC 071650Z 00000KT 10SM OVC070 M06/M16 A3022 750 45 -1500 000/00 RMK AO2 SLP261 T10561156
14926KSTC STC20060207105509902/07/06 10:55:31  5-MIN KSTC 071655Z 00000KT 10SM OVC070 M05/M17 A3022 750 40 -1400 000/00 RMK AO2
14926KSTC STC20060207110009902/07/06 11:00:31  5-MIN KSTC 071700Z 00000KT 10SM OVC075 M04/M18 A3022 750 35 -1400 000/00 RMK AO2
14926KSTC STC20060207110509902/07/06 11:05:31  5-MIN KSTC 071705Z 00000KT 10SM OVC070 M04/M17 A3022 750 38 -1400 000/00 RMK AO2
14926KSTC STC20060207111009902/07/06 11:10:31  5-MIN KSTC 071710Z 00000KT 10SM BKN070 M04/M17 A3022 750 36 -1400 000/00 RMK AO2
14926KSTC STC20060207111509902/07/06 11:15:31  5-MIN KSTC 071715Z 00000KT 10SM BKN070 M04/M17 A3022 750 38 -1400 000/00 RMK AO2
14926KSTC STC20060207112009902/07/06 11:20:31  5-MIN KSTC 071720Z 32003KT 10SM BKN070 M05/M17 A3022 750 40 -1400 310/03 RMK AO2
14926KSTC STC20060207112509902/07/06 11:25:31  5-MIN KSTC 071725Z 33003KT 10SM BKN065 M05/M16 A3022 750 42 -1400 330/03 RMK AO2
14926KSTC STC20060207113009902/07/06 11:30:31  5-MIN KSTC 071730Z 35003KT 10SM BKN065 M04/M16 A3022 750 40 -1400 350/03 RMK AO2
14926KSTC STC20060207113509902/07/06 11:35:31  5-MIN KSTC 071735Z 36003KT 10SM BKN065 M04/M16 A3022 750 42 -1400 360/03 RMK AO2
14926KSTC STC20060207114009902/07/06 11:40:31  5-MIN KSTC 071740Z 00000KT 10SM OVC065 M04/M16 A3022 750 40 -1300 000/00 RMK AO2
14926KSTC STC20060207114509902/07/06 11:45:31  5-MIN KSTC 071745Z VRB03KT 10SM OVC065 M04/M16 A3022 750 40 -1300 VRB/03 RMK AO2
14926KSTC STC20060207115013402/07/06 11:50:31  5-MIN KSTC 071750Z 32003KT 10SM OVC065 M04/M15 A3022 750 44 -1400 320/03 RMK AO2 SLP259 T10441150 11039 21083 53005
14926KSTC STC20060207115509902/07/06 11:55:31  5-MIN KSTC 071755Z 00000KT 10SM OVC065 M04/M16 A3022 750 38 -1300 000/00 RMK AO2
14926KSTC STC20060207120009902/07/06 12:00:31  5-MIN KSTC 071800Z 00000KT 10SM OVC065 M04/M16 A3022 750 38 -1300 000/00 RMK AO2
14926KSTC STC20060207120509902/07/06 12:05:31  5-MIN KSTC 071805Z 00000KT 10SM BKN065 M04/M16 A3021 760 38 -1300 000/00 RMK AO2
14926KSTC STC20060207121009902/07/06 12:10:31  5-MIN KSTC 071810Z 34003KT 10SM BKN060 M04/M16 A3021 760 38 -1300 340/03 RMK AO2
14926KSTC STC20060207121509902/07/06 12:15:31  5-MIN KSTC 071815Z 00000KT 10SM BKN060 M04/M16 A3021 760 38 -1300 000/00 RMK AO2
14926KSTC STC20060207122009902/07/06 12:20:31  5-MIN KSTC 071820Z 34003KT 10SM BKN060 M04/M16 A3021 760 40 -1300 330/03 RMK AO2
14926KSTC STC20060207122509902/07/06 12:25:31  5-MIN KSTC 071825Z 00000KT 10SM BKN060 M04/M16 A3021 760 40 -1400 000/00 RMK AO2
14926KSTC STC20060207123009902/07/06 12:30:31  5-MIN KSTC 071830Z 00000KT 10SM BKN060 M04/M16 A3021 760 40 -1300 000/00 RMK AO2
14926KSTC STC20060207123509902/07/06 12:35:31  5-MIN KSTC 071835Z 00000KT 10SM OVC060 M04/M16 A3020 760 42 -1400 000/00 RMK AO2
14926KSTC STC20060207124009902/07/06 12:40:31  5-MIN KSTC 071840Z 00000KT 10SM OVC060 M04/M15 A3020 770 44 -1400 000/00 RMK AO2
14926KSTC STC20060207124509902/07/06 12:45:31  5-MIN KSTC 071845Z 00000KT 10SM OVC060 M04/M15 A3020 770 42 -1300 000/00 RMK AO2
14926KSTC STC20060207125011602/07/06 12:50:31  5-MIN KSTC 071850Z 32003KT 10SM OVC060 M04/M16 A3020 770 42 -1400 320/03 RMK AO2 SLP253 T10441156
14926KSTC STC20060207125509902/07/06 12:55:31  5-MIN KSTC 071855Z 31003KT 10SM OVC060 M04/M16 A3020 770 40 -1300 310/03 RMK AO2
14926KSTC STC20060207130009902/07/06 13:00:31  5-MIN KSTC 071900Z 30003KT 10SM OVC060 M04/M15 A3020 770 44 -1400 300/03 RMK AO2
14926KSTC STC20060207130509902/07/06 13:05:31  5-MIN KSTC 071905Z 33003KT 10SM OVC060 M04/M15 A3020 770 42 -1300 330/03 RMK AO2
14926KSTC STC20060207131009902/07/06 13:10:31  5-MIN KSTC 071910Z 34003KT 10SM OVC060 M04/M16 A3020 770 40 -1300 330/03 RMK AO2
14926KSTC STC20060207131509902/07/06 13:15:31  5-MIN KSTC 071915Z 32003KT 10SM OVC060 M04/M15 A3020 770 42 -1300 320/03 RMK AO2
14926KSTC STC20060207132009902/07/06 13:20:31  5-MIN KSTC 071920Z 35003KT 10SM OVC060 M04/M16 A3020 770 40 -1300 340/03 RMK AO2
14926KSTC STC20060207132509902/07/06 13:25:31  5-MIN KSTC 071925Z 33004KT 10SM OVC060 M04/M16 A3020 770 40 -1300 330/04 RMK AO2
14926KSTC STC20060207133009902/07/06 13:30:31  5-MIN KSTC 071930Z 33005KT 10SM OVC065 M04/M14 A3020 770 44 -1300 320/05 RMK AO2
14926KSTC STC20060207133509902/07/06 13:35:31  5-MIN KSTC 071935Z 33004KT 10SM OVC065 M04/M16 A3020 770 40 -1300 330/04 RMK AO2
14926KSTC STC20060207134009902/07/06 13:40:31  5-MIN KSTC 071940Z 32004KT 10SM OVC065 M04/M16 A3020 770 38 -1300 320/04 RMK AO2
14926KSTC STC20060207134509902/07/06 13:45:31  5-MIN KSTC 071945Z 33003KT 10SM OVC060 M04/M16 A3020 770 38 -1300 330/03 RMK AO2
14926KSTC STC20060207135011602/07/06 13:50:31  5-MIN KSTC 071950Z 33004KT 10SM OVC060 M04/M16 A3020 770 40 -1300 320/04 RMK AO2 SLP252 T10391156
14926KSTC STC20060207135509902/07/06 13:55:31  5-MIN KSTC 071955Z 33005KT 10SM OVC060 M04/M16 A3020 770 40 -1300 330/05 RMK AO2
14926KSTC STC20060207140009902/07/06 14:00:31  5-MIN KSTC 072000Z 32005KT 10SM OVC060 M04/M16 A3020 770 40 -1300 320/05 RMK AO2
14926KSTC STC20060207140509902/07/06 14:05:31  5-MIN KSTC 072005Z 33005KT 10SM OVC055 M04/M16 A3019 770 40 -1300 320/05 RMK AO2
14926KSTC STC20060207141009902/07/06 14:10:31  5-MIN KSTC 072010Z 32004KT 10SM OVC055 M04/M16 A3019 770 40 -1300 310/04 RMK AO2
14926KSTC STC20060207141509902/07/06 14:15:31  5-MIN KSTC 072015Z 31005KT 10SM OVC060 M04/M15 A3019 780 42 -1300 310/05 RMK AO2
14926KSTC STC20060207142009902/07/06 14:20:31  5-MIN KSTC 072020Z 32005KT 10SM OVC060 M04/M15 A3019 780 42 -1300 320/05 RMK AO2
14926KSTC STC20060207142509902/07/06 14:25:31  5-MIN KSTC 072025Z 33005KT 10SM BKN055 M03/M15 A3019 780 40 -1200 330/05 RMK AO2
14926KSTC STC20060207143009902/07/06 14:30:31  5-MIN KSTC 072030Z 31005KT 10SM BKN055 M03/M15 A3019 770 40 -1200 310/05 RMK AO2
14926KSTC STC20060207143509902/07/06 14:35:31  5-MIN KSTC 072035Z 30005KT 10SM BKN060 M03/M15 A3019 770 40 -1200 300/05 RMK AO2
14926KSTC STC20060207144009902/07/06 14:40:31  5-MIN KSTC 072040Z 31004KT 10SM BKN060 M03/M15 A3019 770 40 -1200 310/04 RMK AO2
14926KSTC STC20060207144509902/07/06 14:45:31  5-MIN KSTC 072045Z 31003KT 10SM SCT055 M03/M15 A3019 770 40 -1200 310/03 RMK AO2
14926KSTC STC20060207145012202/07/06 14:50:31  5-MIN KSTC 072050Z 31003KT 10SM SCT055 M03/M16 A3019 780 37 -1100 310/03 RMK AO2 SLP249 T10281156 57002
14926KSTC STC20060207145509902/07/06 14:55:31  5-MIN KSTC 072055Z 32004KT 10SM FEW055 M03/M16 A3019 780 37 -1100 320/04 RMK AO2
14926KSTC STC20060207150009902/07/06 15:00:31  5-MIN KSTC 072100Z 32005KT 10SM FEW055 M03/M16 A3019 780 35 -1100 320/05 RMK AO2
14926KSTC STC20060207150509602/07/06 15:05:31  5-MIN KSTC 072105Z 35006KT 10SM CLR M02/M16 A3019 770 34 -1100 340/06 RMK AO2
14926KSTC STC20060207151009602/07/06 15:10:31  5-MIN KSTC 072110Z VRB05KT 10SM CLR M02/M16 A3020 770 34 -1100 VRB/05 RMK AO2
14926KSTC STC20060207151509602/07/06 15:15:31  5-MIN KSTC 072115Z VRB04KT 10SM CLR M02/M18 A3020 770 28 -1000 VRB/04 RMK AO2
14926KSTC STC20060207152009602/07/06 15:20:31  5-MIN KSTC 072120Z VRB04KT 10SM CLR M02/M17 A3020 770 30 -1000 VRB/04 RMK AO2
14926KSTC STC20060207152509902/07/06 15:25:31  5-MIN KSTC 072125Z 04005KT 10SM FEW095 M02/M18 A3020 770 29 -1100 030/05 RMK AO2
14926KSTC STC20060207153009602/07/06 15:30:31  5-MIN KSTC 072130Z VRB03KT 10SM CLR M02/M17 A3020 770 31 -1100 VRB/03 RMK AO2
14926KSTC STC20060207153509902/07/06 15:35:31  5-MIN KSTC 072135Z 06004KT 10SM FEW075 M02/M17 A3020 770 31 -1100 060/04 RMK AO2
14926KSTC STC20060207154009902/07/06 15:40:31  5-MIN KSTC 072140Z 00000KT 10SM FEW080 M03/M17 A3020 770 34 -1100 000/00 RMK AO2
14926KSTC STC20060207154509902/07/06 15:45:31  5-MIN KSTC 072145Z 05005KT 10SM SCT080 M03/M16 A3020 770 35 -1100 050/05 RMK AO2
14926KSTC STC20060207155011602/07/06 15:50:31  5-MIN KSTC 072150Z 05005KT 10SM BKN070 M03/M17 A3020 770 34 -1100 050/05 RMK AO2 SLP252 T10281167
14926KSTC STC20060207155509902/07/06 15:55:31  5-MIN KSTC 072155Z 05003KT 10SM BKN070 M03/M16 A3020 770 35 -1100 050/03 RMK AO2
14926KSTC STC20060207160009902/07/06 16:00:31  5-MIN KSTC 072200Z 02005KT 10SM BKN065 M03/M16 A3020 770 35 -1100 020/05 RMK AO2
14926KSTC STC20060207160510602/07/06 16:05:31  5-MIN KSTC 072205Z 02007KT 10SM SCT055 OVC065 M03/M17 A3020 770 34 -1100 020/07 RMK AO2
14926KSTC STC20060207161010502/07/06 16:10:31  5-MIN KSTC 072210Z 03006KT 9SM SCT050 OVC065 M03/M17 A3020 770 34 -1100 030/06 RMK AO2
14926KSTC STC20060207161510302/07/06 16:15:31  5-MIN KSTC 072215Z AUTO 04005KT 9SM OVC060 M03/M17 A3021 760 34 -1100 040/05 RMK AO2
14926KSTC STC20060207162010402/07/06 16:20:31  5-MIN KSTC 072220Z AUTO 05007KT 10SM OVC055 M03/M17 A3021 760 34 -1100 040/07 RMK AO2
14926KSTC STC20060207162510402/07/06 16:25:31  5-MIN KSTC 072225Z AUTO 04006KT 10SM OVC055 M03/M17 A3021 760 35 -1200 030/06 RMK AO2
14926KSTC STC20060207163010402/07/06 16:30:31  5-MIN KSTC 072230Z AUTO 05006KT 10SM OVC055 M03/M17 A3021 760 33 -1200 050/06 RMK AO2
14926KSTC STC20060207163511102/07/06 16:35:31  5-MIN KSTC 072235Z AUTO 04006KT 10SM BKN060 BKN080 M03/M17 A3021 760 35 -1200 030/06 RMK AO2
14926KSTC STC20060207164011102/07/06 16:40:31  5-MIN KSTC 072240Z AUTO 05004KT 10SM SCT060 BKN075 M04/M17 A3021 760 37 -1300 050/04 RMK AO2
14926KSTC STC20060207164510402/07/06 16:45:31  5-MIN KSTC 072245Z AUTO 05005KT 10SM SCT060 M04/M17 A3021 760 37 -1300 040/05 RMK AO2
14926KSTC STC20060207165012102/07/06 16:50:31  5-MIN KSTC 072250Z AUTO 05005KT 10SM FEW060 M04/M17 A3021 760 37 -1300 050/05 RMK AO2 SLP257 T10391167
14926KSTC STC20060207165510402/07/06 16:55:31  5-MIN KSTC 072255Z AUTO 05004KT 10SM FEW060 M04/M16 A3021 760 38 -1300 050/04 RMK AO2
14926KSTC STC20060207170010402/07/06 17:00:31  5-MIN KSTC 072300Z AUTO 05003KT 10SM SCT065 M04/M16 A3021 760 40 -1400 050/03 RMK AO2
14926KSTC STC20060207170510402/07/06 17:05:31  5-MIN KSTC 072305Z AUTO 05004KT 10SM BKN065 M04/M16 A3021 760 40 -1400 050/04 RMK AO2
14926KSTC STC20060207171010402/07/06 17:10:31  5-MIN KSTC 072310Z AUTO 05003KT 10SM BKN065 M04/M16 A3021 760 40 -1400 050/03 RMK AO2
14926KSTC STC20060207171510402/07/06 17:15:31  5-MIN KSTC 072315Z AUTO 05003KT 10SM BKN060 M04/M16 A3021 760 40 -1400 050/03 RMK AO2
14926KSTC STC20060207172010402/07/06 17:20:31  5-MIN KSTC 072320Z AUTO 05003KT 10SM OVC060 M04/M16 A3021 760 40 -1400 050/03 RMK AO2
14926KSTC STC20060207172510402/07/06 17:25:31  5-MIN KSTC 072325Z AUTO 05003KT 10SM BKN060 M04/M16 A3021 760 40 -1400 050/03 RMK AO2
14926KSTC STC20060207173011102/07/06 17:30:31  5-MIN KSTC 072330Z AUTO 00000KT 10SM BKN060 BKN075 M05/M16 A3022 750 44 -1400 000/00 RMK AO2
14926KSTC STC20060207173511102/07/06 17:35:31  5-MIN KSTC 072335Z AUTO 00000KT 10SM SCT060 BKN075 M05/M16 A3022 750 42 -1400 000/00 RMK AO2
14926KSTC STC20060207174010402/07/06 17:40:31  5-MIN KSTC 072340Z AUTO 00000KT 10SM BKN065 M05/M16 A3022 750 42 -1400 000/00 RMK AO2
14926KSTC STC20060207174510402/07/06 17:45:31  5-MIN KSTC 072345Z AUTO 36003KT 10SM BKN065 M06/M16 A3022 750 47 -1600 360/03 RMK AO2
14926KSTC STC20060207175013902/07/06 17:50:31  5-MIN KSTC 072350Z AUTO 35003KT 10SM OVC070 M07/M16 A3022 750 49 -1700 350/03 RMK AO2 SLP262 T10671156 11017 21067 56008
14926KSTC STC20060207175510402/07/06 17:55:31  5-MIN KSTC 072355Z AUTO 01003KT 10SM OVC070 M06/M16 A3022 750 47 -1600 360/03 RMK AO2
14926KSTC STC20060207180010402/07/06 18:00:31  5-MIN KSTC 080000Z AUTO 02004KT 10SM OVC065 M06/M16 A3022 750 47 -1600 010/04 RMK AO2
14926KSTC STC20060207180510402/07/06 18:05:31  5-MIN KSTC 080005Z AUTO 02003KT 10SM OVC065 M07/M16 A3022 750 49 -1700 020/03 RMK AO2
14926KSTC STC20060207181010402/07/06 18:10:31  5-MIN KSTC 080010Z AUTO 05003KT 10SM OVC065 M07/M16 A3022 750 52 -1700 040/03 RMK AO2
14926KSTC STC20060207181511102/07/06 18:15:31  5-MIN KSTC 080015Z AUTO 02004KT 10SM BKN065 OVC085 M07/M16 A3022 750 49 -1700 010/04 RMK AO2
14926KSTC STC20060207182011102/07/06 18:20:31  5-MIN KSTC 080020Z AUTO 02004KT 10SM BKN060 OVC085 M07/M16 A3023 740 49 -1700 020/04 RMK AO2
14926KSTC STC20060207182511102/07/06 18:25:31  5-MIN KSTC 080025Z AUTO 03004KT 10SM BKN060 OVC080 M07/M16 A3023 740 52 -1700 020/04 RMK AO2
14926KSTC STC20060207183011102/07/06 18:30:31  5-MIN KSTC 080030Z AUTO 03004KT 10SM BKN065 OVC085 M07/M16 A3023 740 47 -1700 020/04 RMK AO2
14926KSTC STC20060207183510402/07/06 18:35:31  5-MIN KSTC 080035Z AUTO 03004KT 10SM OVC070 M06/M16 A3023 740 45 -1600 030/04 RMK AO2
14926KSTC STC20060207184011102/07/06 18:40:31  5-MIN KSTC 080040Z AUTO 02003KT 10SM BKN070 OVC085 M06/M15 A3023 740 50 -1600 020/03 RMK AO2
14926KSTC STC20060207184511802/07/06 18:45:31  5-MIN KSTC 080045Z AUTO 00000KT 10SM FEW028 BKN070 OVC080 M07/M15 A3023 740 52 -1700 000/00 RMK AO2
14926KSTC STC20060207185012802/07/06 18:50:31  5-MIN KSTC 080050Z AUTO 00000KT 10SM FEW046 OVC070 M08/M16 A3023 740 54 -1800 000/00 RMK AO2 SLP264 T10781156
14926KSTC STC20060207185511802/07/06 18:55:31  5-MIN KSTC 080055Z AUTO 00000KT 10SM SCT046 BKN065 OVC080 M07/M16 A3023 740 52 -1700 000/00 RMK AO2
14926KSTC STC20060207190011802/07/06 19:00:31  5-MIN KSTC 080100Z AUTO 00000KT 10SM SCT046 BKN060 BKN075 M07/M16 A3023 740 52 -1700 000/00 RMK AO2
14926KSTC STC20060207190511802/07/06 19:05:31  5-MIN KSTC 080105Z AUTO 00000KT 10SM FEW046 SCT060 SCT080 M08/M16 A3023 740 54 -1800 000/00 RMK AO2
14926KSTC STC20060207191011802/07/06 19:10:31  5-MIN KSTC 080110Z AUTO 00000KT 10SM FEW046 SCT055 SCT080 M07/M15 A3023 740 52 -1700 000/00 RMK AO2
14926KSTC STC20060207191510402/07/06 19:15:31  5-MIN KSTC 080115Z AUTO 00000KT 10SM FEW048 M08/M16 A3023 740 56 -1900 000/00 RMK AO2
14926KSTC STC20060207192010402/07/06 19:20:31  5-MIN KSTC 080120Z AUTO 00000KT 10SM FEW048 M08/M16 A3023 740 56 -1900 000/00 RMK AO2
14926KSTC STC20060207192510102/07/06 19:25:31  5-MIN KSTC 080125Z AUTO 00000KT 10SM CLR M08/M15 A3023 740 59 -1900 000/00 RMK AO2
14926KSTC STC20060207193010102/07/06 19:30:31  5-MIN KSTC 080130Z AUTO 00000KT 10SM CLR M08/M15 A3023 740 59 -1900 000/00 RMK AO2
14926KSTC STC20060207193510102/07/06 19:35:31  5-MIN KSTC 080135Z AUTO 00000KT 10SM CLR M08/M14 A3024 740 62 -1900 000/00 RMK AO2
14926KSTC STC20060207194010102/07/06 19:40:31  5-MIN KSTC 080140Z AUTO 00000KT 10SM CLR M09/M15 A3024 740 61 -2000 000/00 RMK AO2
14926KSTC STC20060207194510102/07/06 19:45:31  5-MIN KSTC 080145Z AUTO 36003KT 10SM CLR M10/M16 A3024 740 64 -2100 350/03 RMK AO2
14926KSTC STC20060207195012102/07/06 19:50:31  5-MIN KSTC 080150Z AUTO 01004KT 10SM FEW055 M10/M16 A3024 730 64 -2100 360/04 RMK AO2 SLP269 T11001156
14926KSTC STC20060207195510402/07/06 19:55:31  5-MIN KSTC 080155Z AUTO 01004KT 10SM SCT055 M10/M16 A3024 730 64 -2100 360/04 RMK AO2
14926KSTC STC20060207200010402/07/06 20:00:31  5-MIN KSTC 080200Z AUTO 36003KT 10SM SCT055 M09/M15 A3024 730 64 -2000 360/03 RMK AO2
14926KSTC STC20060207200510402/07/06 20:05:31  5-MIN KSTC 080205Z AUTO 02004KT 10SM SCT055 M10/M15 A3024 730 67 -2100 010/04 RMK AO2
14926KSTC STC20060207201010402/07/06 20:10:31  5-MIN KSTC 080210Z AUTO 00000KT 10SM BKN055 M11/M16 A3024 730 67 -2300 000/00 RMK AO2
14926KSTC STC20060207201510402/07/06 20:15:31  5-MIN KSTC 080215Z AUTO 00000KT 10SM BKN055 M10/M15 A3024 730 67 -2100 000/00 RMK AO2
14926KSTC STC20060207202011102/07/06 20:20:31  5-MIN KSTC 080220Z AUTO 00000KT 10SM FEW043 OVC055 M10/M15 A3024 730 67 -2100 000/00 RMK AO2
14926KSTC STC20060207202511102/07/06 20:25:31  5-MIN KSTC 080225Z AUTO 00000KT 10SM FEW043 BKN055 M09/M14 A3024 730 67 -2000 000/00 RMK AO2
14926KSTC STC20060207203010402/07/06 20:30:31  5-MIN KSTC 080230Z AUTO 00000KT 10SM BKN055 M11/M14 A3024 730 73 -2200 000/00 RMK AO2
14926KSTC STC20060207203510402/07/06 20:35:31  5-MIN KSTC 080235Z AUTO 35003KT 10SM BKN055 M11/M16 A3025 730 67 -2200 350/03 RMK AO2
14926KSTC STC20060207204010402/07/06 20:40:31  5-MIN KSTC 080240Z AUTO 35003KT 10SM SCT055 M12/M16 A3025 720 73 -2300 350/03 RMK AO2
14926KSTC STC20060207204510402/07/06 20:45:31  5-MIN KSTC 080245Z AUTO 35003KT 10SM SCT055 M11/M15 A3025 730 70 -2200 340/03 RMK AO2
14926KSTC STC20060207205012702/07/06 20:50:31  5-MIN KSTC 080250Z AUTO 36004KT 10SM FEW055 M10/M15 A3025 730 67 -2100 360/04 RMK AO2 SLP272 T11001150 52009
14926KSTC STC20060207205510402/07/06 20:55:31  5-MIN KSTC 080255Z AUTO 36005KT 10SM FEW055 M11/M15 A3025 730 73 -2300 360/05 RMK AO2
14926KSTC STC20060207210010102/07/06 21:00:31  5-MIN KSTC 080300Z AUTO 01004KT 10SM CLR M11/M14 A3025 730 77 -2300 360/04 RMK AO2
14926KSTC STC20060207210510102/07/06 21:05:31  5-MIN KSTC 080305Z AUTO 01004KT 10SM CLR M13/M16 A3025 730 80 -2500 360/04 RMK AO2
14926KSTC STC20060207211010102/07/06 21:10:31  5-MIN KSTC 080310Z AUTO 36004KT 10SM CLR M13/M16 A3025 730 80 -2500 360/04 RMK AO2
14926KSTC STC20060207211510102/07/06 21:15:31  5-MIN KSTC 080315Z AUTO 35003KT 10SM CLR M14/M16 A3025 720 83 -2600 350/03 RMK AO2
14926KSTC STC20060207212010102/07/06 21:20:31  5-MIN KSTC 080320Z AUTO 34003KT 10SM CLR M12/M16 A3025 720 76 -2400 340/03 RMK AO2
14926KSTC STC20060207212510102/07/06 21:25:31  5-MIN KSTC 080325Z AUTO 35003KT 10SM CLR M12/M15 A3025 720 80 -2400 350/03 RMK AO2
14926KSTC STC20060207213010102/07/06 21:30:31  5-MIN KSTC 080330Z AUTO 36003KT 10SM CLR M12/M14 A3025 720 80 -2400 360/03 RMK AO2
14926KSTC STC20060207213510102/07/06 21:35:31  5-MIN KSTC 080335Z AUTO 36003KT 10SM CLR M12/M15 A3025 720 80 -2400 360/03 RMK AO2
14926KSTC STC20060207214010102/07/06 21:40:31  5-MIN KSTC 080340Z AUTO 01003KT 10SM CLR M13/M16 A3026 720 80 -2500 360/03 RMK AO2
14926KSTC STC20060207214510102/07/06 21:45:31  5-MIN KSTC 080345Z AUTO 36004KT 10SM CLR M13/M16 A3026 720 83 -2600 350/04 RMK AO2
14926KSTC STC20060207215011802/07/06 21:50:31  5-MIN KSTC 080350Z AUTO 36005KT 10SM CLR M12/M15 A3026 720 80 -2400 360/05 RMK AO2 SLP277 T11221150
14926KSTC STC20060207215510102/07/06 21:55:31  5-MIN KSTC 080355Z AUTO 01005KT 10SM CLR M13/M15 A3026 710 84 -2500 360/05 RMK AO2
14926KSTC STC20060207220010102/07/06 22:00:31  5-MIN KSTC 080400Z AUTO 01005KT 10SM CLR M13/M15 A3026 710 84 -2500 360/05 RMK AO2
14926KSTC STC20060207220510102/07/06 22:05:31  5-MIN KSTC 080405Z AUTO 01005KT 10SM CLR M13/M16 A3026 710 80 -2500 360/05 RMK AO2
14926KSTC STC20060207221010102/07/06 22:10:31  5-MIN KSTC 080410Z AUTO 02005KT 10SM CLR M14/M17 A3026 710 80 -2700 010/05 RMK AO2
14926KSTC STC20060207221510102/07/06 22:15:31  5-MIN KSTC 080415Z AUTO 03005KT 10SM CLR M13/M17 A3026 710 76 -2600 020/05 RMK AO2
14926KSTC STC20060207222010102/07/06 22:20:31  5-MIN KSTC 080420Z AUTO 03003KT 10SM CLR M13/M17 A3026 710 73 -2500 030/03 RMK AO2
14926KSTC STC20060207222510102/07/06 22:25:31  5-MIN KSTC 080425Z AUTO 03004KT 10SM CLR M12/M16 A3027 710 70 -2400 030/04 RMK AO2
14926KSTC STC20060207223010102/07/06 22:30:31  5-MIN KSTC 080430Z AUTO 03005KT 10SM CLR M11/M16 A3027 710 67 -2300 020/05 RMK AO2
14926KSTC STC20060207223510102/07/06 22:35:31  5-MIN KSTC 080435Z AUTO 03005KT 10SM CLR M11/M16 A3027 710 67 -2300 020/05 RMK AO2
14926KSTC STC20060207224010102/07/06 22:40:31  5-MIN KSTC 080440Z AUTO 02004KT 10SM CLR M12/M16 A3027 700 70 -2400 020/04 RMK AO2
14926KSTC STC20060207224510102/07/06 22:45:31  5-MIN KSTC 080445Z AUTO 02004KT 10SM CLR M12/M17 A3027 700 70 -2400 010/04 RMK AO2
14926KSTC STC20060207225011802/07/06 22:50:31  5-MIN KSTC 080450Z AUTO 01005KT 10SM CLR M13/M17 A3027 700 73 -2500 010/05 RMK AO2 SLP281 T11281167
14926KSTC STC20060207225510102/07/06 22:55:31  5-MIN KSTC 080455Z AUTO 02003KT 10SM CLR M13/M17 A3027 700 73 -2600 010/03 RMK AO2
14926KSTC STC20060207230010102/07/06 23:00:31  5-MIN KSTC 080500Z AUTO 01004KT 10SM CLR M13/M18 A3027 700 69 -2600 010/04 RMK AO2
14926KSTC STC20060207230510102/07/06 23:05:31  5-MIN KSTC 080505Z AUTO 01004KT 10SM CLR M13/M17 A3028 700 70 -2500 360/04 RMK AO2
14926KSTC STC20060207231010102/07/06 23:10:31  5-MIN KSTC 080510Z AUTO 01007KT 10SM CLR M13/M18 A3028 700 69 -2600 010/07 RMK AO2
14926KSTC STC20060207231510102/07/06 23:15:31  5-MIN KSTC 080515Z AUTO 01006KT 10SM CLR M12/M18 A3028 700 64 -2500 010/06 RMK AO2
14926KSTC STC20060207232010102/07/06 23:20:31  5-MIN KSTC 080520Z AUTO 01004KT 10SM CLR M13/M18 A3028 690 66 -2600 010/04 RMK AO2
14926KSTC STC20060207232510102/07/06 23:25:31  5-MIN KSTC 080525Z AUTO 01005KT 10SM CLR M14/M18 A3028 690 69 -2700 010/05 RMK AO2
14926KSTC STC20060207233010102/07/06 23:30:31  5-MIN KSTC 080530Z AUTO 01006KT 10SM CLR M13/M18 A3028 690 66 -2600 010/06 RMK AO2
14926KSTC STC20060207233510102/07/06 23:35:31  5-MIN KSTC 080535Z AUTO 01005KT 10SM CLR M13/M18 A3029 690 63 -2500 010/05 RMK AO2
14926KSTC STC20060207234010102/07/06 23:40:31  5-MIN KSTC 080540Z AUTO 01006KT 10SM CLR M13/M18 A3029 690 63 -2500 010/06 RMK AO2
14926KSTC STC20060207234510102/07/06 23:45:31  5-MIN KSTC 080545Z AUTO 01006KT 10SM CLR M13/M18 A3029 680 63 -2500 360/06 RMK AO2
14926KSTC STC20060207235014602/07/06 23:50:31  5-MIN KSTC 080550Z AUTO 01005KT 10SM CLR M13/M18 A3029 680 63 -2500 010/05 RMK AO2 SLP288 T11281183 11061 21139 410171139 53009
14926KSTC STC20060207235510102/07/06 23:55:31  5-MIN KSTC 080555Z AUTO 02006KT 10SM CLR M12/M18 A3030 680 61 -2500 020/06 RMK AO2
14926KSTC STC20060208000010102/08/06 00:00:32  5-MIN KSTC 080600Z AUTO 02006KT 10SM CLR M12/M18 A3030 680 58 -2400 010/06 RMK AO2
14926KSTC STC20060208000510102/08/06 00:05:31  5-MIN KSTC 080605Z AUTO 02005KT 10SM CLR M12/M18 A3030 680 61 -2500 020/05 RMK AO2
14926KSTC STC20060208001010102/08/06 00:10:31  5-MIN KSTC 080610Z AUTO 03005KT 10SM CLR M12/M18 A3030 680 58 -2400 030/05 RMK AO2
14926KSTC STC20060208001510102/08/06 00:15:31  5-MIN KSTC 080615Z AUTO 04005KT 10SM CLR M11/M18 A3030 680 58 -2300 040/05 RMK AO2
14926KSTC STC20060208002010102/08/06 00:20:31  5-MIN KSTC 080620Z AUTO 04007KT 10SM CLR M11/M17 A3030 680 61 -2300 040/07 RMK AO2
14926KSTC STC20060208002510102/08/06 00:25:31  5-MIN KSTC 080625Z AUTO 04006KT 10SM CLR M11/M17 A3030 680 61 -2300 040/06 RMK AO2
14926KSTC STC20060208003010102/08/06 00:30:31  5-MIN KSTC 080630Z AUTO 04006KT 10SM CLR M11/M17 A3030 670 61 -2300 040/06 RMK AO2
14926KSTC STC20060208003510102/08/06 00:35:31  5-MIN KSTC 080635Z AUTO 05006KT 10SM CLR M11/M17 A3030 670 61 -2300 040/06 RMK AO2
14926KSTC STC20060208004010102/08/06 00:40:31  5-MIN KSTC 080640Z AUTO 05005KT 10SM CLR M11/M17 A3030 670 61 -2300 040/05 RMK AO2
14926KSTC STC20060208004510102/08/06 00:45:31  5-MIN KSTC 080645Z AUTO 05006KT 10SM CLR M11/M16 A3031 670 64 -2300 040/06 RMK AO2
14926KSTC STC20060208005011802/08/06 00:50:31  5-MIN KSTC 080650Z AUTO 04005KT 10SM CLR M11/M16 A3031 670 64 -2300 040/05 RMK AO2 SLP290 T11061161
14926KSTC STC20060208005510102/08/06 00:55:31  5-MIN KSTC 080655Z AUTO 04005KT 10SM CLR M11/M16 A3031 670 64 -2300 040/05 RMK AO2
14926KSTC STC20060208010010102/08/06 01:00:31  5-MIN KSTC 080700Z AUTO 04004KT 10SM CLR M11/M16 A3031 670 64 -2300 030/04 RMK AO2
14926KSTC STC20060208010510102/08/06 01:05:31  5-MIN KSTC 080705Z AUTO 03003KT 10SM CLR M11/M16 A3031 670 67 -2300 030/03 RMK AO2
14926KSTC STC20060208011010102/08/06 01:10:31  5-MIN KSTC 080710Z AUTO 03004KT 10SM CLR M11/M17 A3031 670 64 -2300 030/04 RMK AO2
14926KSTC STC20060208011510102/08/06 01:15:31  5-MIN KSTC 080715Z AUTO 02004KT 10SM CLR M12/M17 A3031 670 67 -2400 020/04 RMK AO2
14926KSTC STC20060208012010102/08/06 01:20:31  5-MIN KSTC 080720Z AUTO 02005KT 10SM CLR M12/M17 A3031 660 70 -2500 020/05 RMK AO2
14926KSTC STC20060208012510102/08/06 01:25:31  5-MIN KSTC 080725Z AUTO 02004KT 10SM CLR M13/M17 A3031 660 70 -2600 010/04 RMK AO2
14926KSTC STC20060208013010102/08/06 01:30:31  5-MIN KSTC 080730Z AUTO 02004KT 10SM CLR M13/M17 A3032 660 70 -2600 020/04 RMK AO2
14926KSTC STC20060208013510102/08/06 01:35:31  5-MIN KSTC 080735Z AUTO 03005KT 10SM CLR M13/M17 A3032 660 70 -2600 020/05 RMK AO2
14926KSTC STC20060208014010102/08/06 01:40:31  5-MIN KSTC 080740Z AUTO 03005KT 10SM CLR M12/M17 A3032 660 70 -2500 020/05 RMK AO2
14926KSTC STC20060208014510102/08/06 01:45:31  5-MIN KSTC 080745Z AUTO 03004KT 10SM CLR M12/M17 A3032 660 70 -2500 030/04 RMK AO2
14926KSTC STC20060208015011802/08/06 01:50:31  5-MIN KSTC 080750Z AUTO 02004KT 10SM CLR M12/M17 A3032 660 70 -2500 020/04 RMK AO2 SLP296 T11221167
14926KSTC STC20060208015510102/08/06 01:55:31  5-MIN KSTC 080755Z AUTO 02004KT 10SM CLR M12/M17 A3032 660 70 -2500 020/04 RMK AO2
14926KSTC STC20060208020010102/08/06 02:00:31  5-MIN KSTC 080800Z AUTO 02004KT 10SM CLR M12/M17 A3032 660 70 -2500 020/04 RMK AO2
14926KSTC STC20060208020510102/08/06 02:05:31  5-MIN KSTC 080805Z AUTO 01004KT 10SM CLR M13/M17 A3032 650 73 -2600 010/04 RMK AO2
14926KSTC STC20060208021010102/08/06 02:10:31  5-MIN KSTC 080810Z AUTO 01004KT 10SM CLR M13/M17 A3033 650 70 -2600 010/04 RMK AO2
14926KSTC STC20060208021510102/08/06 02:15:31  5-MIN KSTC 080815Z AUTO 01003KT 10SM CLR M13/M17 A3033 650 73 -2700 360/03 RMK AO2
14926KSTC STC20060208022010102/08/06 02:20:31  5-MIN KSTC 080820Z AUTO 36004KT 10SM CLR M14/M17 A3033 650 76 -2700 360/04 RMK AO2
14926KSTC STC20060208022510102/08/06 02:25:31  5-MIN KSTC 080825Z AUTO 36004KT 10SM CLR M14/M17 A3033 650 76 -2700 360/04 RMK AO2
14926KSTC STC20060208023010102/08/06 02:30:31  5-MIN KSTC 080830Z AUTO 36003KT 10SM CLR M15/M17 A3033 650 83 -2900 350/03 RMK AO2
14926KSTC STC20060208023510102/08/06 02:35:31  5-MIN KSTC 080835Z AUTO 35003KT 10SM CLR M15/M18 A3033 650 80 -2900 340/03 RMK AO2
14926KSTC STC20060208024010102/08/06 02:40:31  5-MIN KSTC 080840Z AUTO 01003KT 10SM CLR M15/M18 A3033 650 80 -2900 360/03 RMK AO2
14926KSTC STC20060208024510102/08/06 02:45:31  5-MIN KSTC 080845Z AUTO 36003KT 10SM CLR M14/M17 A3033 650 80 -2800 360/03 RMK AO2
14926KSTC STC20060208025012402/08/06 02:50:31  5-MIN KSTC 080850Z AUTO 35004KT 10SM CLR M16/M18 A3034 640 83 -3000 350/04 RMK AO2 SLP302 T11561178 53016
14926KSTC STC20060208025510102/08/06 02:55:31  5-MIN KSTC 080855Z AUTO 35004KT 10SM CLR M16/M18 A3034 640 83 -3000 350/04 RMK AO2
14926KSTC STC20060208030010102/08/06 03:00:31  5-MIN KSTC 080900Z AUTO 35003KT 10SM CLR M16/M19 A3034 640 79 -3000 340/03 RMK AO2
14926KSTC STC20060208030510102/08/06 03:05:31  5-MIN KSTC 080905Z AUTO 35003KT 10SM CLR M16/M19 A3033 650 79 -3000 350/03 RMK AO2
14926KSTC STC20060208031010102/08/06 03:10:31  5-MIN KSTC 080910Z AUTO 35003KT 10SM CLR M16/M18 A3034 640 79 -3000 350/03 RMK AO2
14926KSTC STC20060208031510102/08/06 03:15:31  5-MIN KSTC 080915Z AUTO 34004KT 10SM CLR M16/M18 A3034 640 79 -3000 340/04 RMK AO2
14926KSTC STC20060208032010102/08/06 03:20:31  5-MIN KSTC 080920Z AUTO 34005KT 10SM CLR M17/M19 A3034 640 83 -3100 340/05 RMK AO2
14926KSTC STC20060208032510102/08/06 03:25:31  5-MIN KSTC 080925Z AUTO 34005KT 10SM CLR M16/M19 A3034 640 79 -3100 330/05 RMK AO2
14926KSTC STC20060208033010102/08/06 03:30:31  5-MIN KSTC 080930Z AUTO 34005KT 10SM CLR M16/M18 A3034 640 79 -3000 340/05 RMK AO2
14926KSTC STC20060208033510102/08/06 03:35:31  5-MIN KSTC 080935Z AUTO 35006KT 10SM CLR M15/M18 A3034 640 80 -2900 340/06 RMK AO2
14926KSTC STC20060208034010102/08/06 03:40:31  5-MIN KSTC 080940Z AUTO 35005KT 10SM CLR M16/M19 A3034 640 76 -3000 350/05 RMK AO2
14926KSTC STC20060208034510102/08/06 03:45:31  5-MIN KSTC 080945Z AUTO 35005KT 10SM CLR M16/M19 A3034 640 76 -3000 350/05 RMK AO2
14926KSTC STC20060208035011802/08/06 03:50:31  5-MIN KSTC 080950Z AUTO 36004KT 10SM CLR M16/M19 A3035 630 76 -3000 360/04 RMK AO2 SLP306 T11561189
14926KSTC STC20060208035510102/08/06 03:55:31  5-MIN KSTC 080955Z AUTO 36005KT 10SM CLR M16/M19 A3035 630 76 -3000 360/05 RMK AO2
14926KSTC STC20060208040010102/08/06 04:00:31  5-MIN KSTC 081000Z AUTO 36005KT 10SM CLR M16/M19 A3035 630 76 -3000 360/05 RMK AO2
14926KSTC STC20060208040510102/08/06 04:05:31  5-MIN KSTC 081005Z AUTO 36005KT 10SM CLR M16/M19 A3035 630 76 -3100 360/05 RMK AO2
14926KSTC STC20060208041010102/08/06 04:10:31  5-MIN KSTC 081010Z AUTO 01005KT 10SM CLR M16/M19 A3035 630 76 -3000 010/05 RMK AO2
14926KSTC STC20060208041510102/08/06 04:15:31  5-MIN KSTC 081015Z AUTO 01005KT 10SM CLR M15/M19 A3035 630 72 -2900 010/05 RMK AO2
14926KSTC STC20060208042010102/08/06 04:20:31  5-MIN KSTC 081020Z AUTO 01005KT 10SM CLR M16/M19 A3035 630 76 -3000 360/05 RMK AO2
14926KSTC STC20060208042510102/08/06 04:25:31  5-MIN KSTC 081025Z AUTO 01005KT 10SM CLR M16/M19 A3035 630 76 -3000 360/05 RMK AO2
14926KSTC STC20060208043010102/08/06 04:30:31  5-MIN KSTC 081030Z AUTO 36005KT 10SM CLR M16/M19 A3036 630 76 -3000 360/05 RMK AO2
14926KSTC STC20060208043510102/08/06 04:35:31  5-MIN KSTC 081035Z AUTO 34004KT 10SM CLR M16/M19 A3036 620 76 -3100 340/04 RMK AO2
14926KSTC STC20060208044010102/08/06 04:40:31  5-MIN KSTC 081040Z AUTO 33003KT 10SM CLR M16/M19 A3036 620 76 -3100 330/03 RMK AO2
14926KSTC STC20060208044510102/08/06 04:45:31  5-MIN KSTC 081045Z AUTO 33004KT 10SM CLR M17/M21 A3036 620 76 -3200 320/04 RMK AO2
14926KSTC STC20060208045011802/08/06 04:50:31  5-MIN KSTC 081050Z AUTO 33004KT 10SM CLR M17/M21 A3036 620 76 -3200 330/04 RMK AO2 SLP314 T11721206
14926KSTC STC20060208045510102/08/06 04:55:31  5-MIN KSTC 081055Z AUTO 33004KT 10SM CLR M17/M20 A3036 620 76 -3200 330/04 RMK AO2
14926KSTC STC20060208050010102/08/06 05:00:31  5-MIN KSTC 081100Z AUTO 34004KT 10SM CLR M16/M19 A3036 620 76 -3100 340/04 RMK AO2
14926KSTC STC20060208050510102/08/06 05:05:31  5-MIN KSTC 081105Z AUTO 33004KT 10SM CLR M16/M20 A3037 610 72 -3100 330/04 RMK AO2
14926KSTC STC20060208051010102/08/06 05:10:31  5-MIN KSTC 081110Z AUTO 33004KT 10SM CLR M17/M20 A3037 610 76 -3200 330/04 RMK AO2
14926KSTC STC20060208051510102/08/06 05:15:31  5-MIN KSTC 081115Z AUTO 33004KT 10SM CLR M17/M21 A3037 610 76 -3200 330/04 RMK AO2
14926KSTC STC20060208052010102/08/06 05:20:31  5-MIN KSTC 081120Z AUTO 33004KT 10SM CLR M17/M21 A3037 610 76 -3200 330/04 RMK AO2
14926KSTC STC20060208052510102/08/06 05:25:31  5-MIN KSTC 081125Z AUTO 34004KT 10SM CLR M17/M20 A3037 610 76 -3200 330/04 RMK AO2
14926KSTC STC20060208053010102/08/06 05:30:31  5-MIN KSTC 081130Z AUTO 34004KT 10SM CLR M16/M20 A3037 610 72 -3100 330/04 RMK AO2
14926KSTC STC20060208053510102/08/06 05:35:31  5-MIN KSTC 081135Z AUTO 34004KT 10SM CLR M16/M20 A3037 610 72 -3100 330/04 RMK AO2
14926KSTC STC20060208054010102/08/06 05:40:31  5-MIN KSTC 081140Z AUTO 33005KT 10SM CLR M17/M21 A3038 610 72 -3200 330/05 RMK AO2
14926KSTC STC20060208054510102/08/06 05:45:31  5-MIN KSTC 081145Z AUTO 33004KT 10SM CLR M16/M21 A3038 610 69 -3100 330/04 RMK AO2
14926KSTC STC20060208055013602/08/06 05:50:31  5-MIN KSTC 081150Z AUTO 34005KT 10SM CLR M17/M21 A3038 610 72 -3200 330/05 RMK AO2 SLP319 T11671206 11106 21172 53013
14926KSTC STC20060208055510102/08/06 05:55:31  5-MIN KSTC 081155Z AUTO 33004KT 10SM CLR M17/M21 A3038 610 72 -3200 320/04 RMK AO2
14926KSTC STC20060208060010102/08/06 06:00:31  5-MIN KSTC 081200Z AUTO 32005KT 10SM CLR M17/M21 A3038 600 72 -3200 320/05 RMK AO2
14926KSTC STC20060208060510102/08/06 06:05:31  5-MIN KSTC 081205Z AUTO 32005KT 10SM CLR M17/M21 A3038 600 69 -3200 320/05 RMK AO2
14926KSTC STC20060208061010102/08/06 06:10:31  5-MIN KSTC 081210Z AUTO 33004KT 10SM CLR M17/M21 A3038 600 72 -3300 330/04 RMK AO2
14926KSTC STC20060208061510102/08/06 06:15:31  5-MIN KSTC 081215Z AUTO 32004KT 10SM CLR M17/M21 A3038 600 69 -3200 320/04 RMK AO2
14926KSTC STC20060208062010102/08/06 06:20:31  5-MIN KSTC 081220Z AUTO 33004KT 10SM CLR M17/M21 A3038 600 72 -3300 330/04 RMK AO2
14926KSTC STC20060208062510102/08/06 06:25:31  5-MIN KSTC 081225Z AUTO 32005KT 10SM CLR M17/M21 A3038 600 69 -3200 320/05 RMK AO2
14926KSTC STC20060208063010102/08/06 06:30:31  5-MIN KSTC 081230Z AUTO 33004KT 10SM CLR M17/M21 A3038 600 72 -3300 330/04 RMK AO2
14926KSTC STC20060208063510102/08/06 06:35:31  5-MIN KSTC 081235Z AUTO 34004KT 10SM CLR M17/M21 A3038 600 69 -3200 330/04 RMK AO2
14926KSTC STC20060208064010102/08/06 06:40:31  5-MIN KSTC 081240Z AUTO 35003KT 10SM CLR M17/M21 A3038 600 72 -3300 350/03 RMK AO2
14926KSTC STC20060208064510102/08/06 06:45:31  5-MIN KSTC 081245Z AUTO 32005KT 10SM CLR M17/M22 A3039 600 69 -3300 320/05 RMK AO2
14926KSTC STC20060208065011802/08/06 06:50:31  5-MIN KSTC 081250Z AUTO 33004KT 10SM CLR M18/M22 A3039 600 72 -3300 330/04 RMK AO2 SLP324 T11781217
14926KSTC STC20060208065510102/08/06 06:55:31  5-MIN KSTC 081255Z AUTO 32004KT 10SM CLR M17/M21 A3039 600 72 -3300 320/04 RMK AO2
14926KSTC STC20060208070009602/08/06 07:00:31  5-MIN KSTC 081300Z 32005KT 10SM CLR M17/M21 A3039 600 72 -3300 320/05 RMK AO2
14926KSTC STC20060208070509602/08/06 07:05:31  5-MIN KSTC 081305Z 35004KT 10SM CLR M18/M22 A3039 600 72 -3300 340/04 RMK AO2
14926KSTC STC20060208071009602/08/06 07:10:31  5-MIN KSTC 081310Z 33004KT 10SM CLR M18/M22 A3039 590 72 -3300 330/04 RMK AO2
14926KSTC STC20060208071509602/08/06 07:15:31  5-MIN KSTC 081315Z 32004KT 10SM CLR M18/M22 A3039 590 72 -3300 320/04 RMK AO2
14926KSTC STC20060208072009602/08/06 07:20:31  5-MIN KSTC 081320Z 32006KT 10SM CLR M18/M22 A3039 590 72 -3300 310/06 RMK AO2
14926KSTC STC20060208072509602/08/06 07:25:31  5-MIN KSTC 081325Z 33006KT 10SM CLR M17/M21 A3039 590 72 -3300 330/06 RMK AO2
14926KSTC STC20060208073009602/08/06 07:30:31  5-MIN KSTC 081330Z 33006KT 10SM CLR M17/M21 A3040 590 69 -3200 330/06 RMK AO2
14926KSTC STC20060208073509602/08/06 07:35:31  5-MIN KSTC 081335Z 33006KT 10SM CLR M17/M21 A3040 590 69 -3200 320/06 RMK AO2
14926KSTC STC20060208074009602/08/06 07:40:31  5-MIN KSTC 081340Z 33005KT 10SM CLR M17/M21 A3040 590 69 -3200 320/05 RMK AO2
14926KSTC STC20060208074509602/08/06 07:45:31  5-MIN KSTC 081345Z 34005KT 10SM CLR M17/M21 A3040 590 69 -3200 340/05 RMK AO2
14926KSTC STC20060208075011302/08/06 07:50:31  5-MIN KSTC 081350Z 35003KT 10SM CLR M17/M21 A3040 580 72 -3300 350/03 RMK AO2 SLP329 T11721211
14926KSTC STC20060208075509602/08/06 07:55:31  5-MIN KSTC 081355Z 34004KT 10SM CLR M17/M21 A3041 580 69 -3200 340/04 RMK AO2
14926KSTC STC20060208080009602/08/06 08:00:31  5-MIN KSTC 081400Z 34004KT 10SM CLR M17/M21 A3041 580 69 -3200 340/04 RMK AO2
14926KSTC STC20060208080509602/08/06 08:05:31  5-MIN KSTC 081405Z 34004KT 10SM CLR M17/M21 A3041 580 69 -3200 330/04 RMK AO2
14926KSTC STC20060208081009602/08/06 08:10:31  5-MIN KSTC 081410Z 35004KT 10SM CLR M17/M21 A3041 580 69 -3200 340/04 RMK AO2
14926KSTC STC20060208081509602/08/06 08:15:31  5-MIN KSTC 081415Z 35004KT 10SM CLR M17/M21 A3041 580 72 -3200 340/04 RMK AO2
14926KSTC STC20060208082009602/08/06 08:20:31  5-MIN KSTC 081420Z 34004KT 10SM CLR M16/M21 A3040 580 69 -3100 340/04 RMK AO2
14926KSTC STC20060208082509602/08/06 08:25:31  5-MIN KSTC 081425Z 35004KT 10SM CLR M16/M21 A3041 580 69 -3100 340/04 RMK AO2
14926KSTC STC20060208083009602/08/06 08:30:31  5-MIN KSTC 081430Z 35004KT 10SM CLR M16/M21 A3041 580 66 -3100 350/04 RMK AO2
14926KSTC STC20060208083509602/08/06 08:35:31  5-MIN KSTC 081435Z 35004KT 10SM CLR M16/M21 A3041 570 66 -3100 340/04 RMK AO2
14926KSTC STC20060208084009602/08/06 08:40:31  5-MIN KSTC 081440Z 34005KT 10SM CLR M15/M21 A3041 570 63 -3000 340/05 RMK AO2
14926KSTC STC20060208084509602/08/06 08:45:31  5-MIN KSTC 081445Z 34005KT 10SM CLR M15/M21 A3041 570 63 -3000 340/05 RMK AO2
14926KSTC STC20060208085011902/08/06 08:50:31  5-MIN KSTC 081450Z 34003KT 10SM CLR M15/M20 A3041 570 66 -3000 340/03 RMK AO2 SLP331 T11501200 53014
14926KSTC STC20060208085509602/08/06 08:55:31  5-MIN KSTC 081455Z 33003KT 10SM CLR M14/M20 A3042 570 63 -2900 320/03 RMK AO2
14926KSTC STC20060208090009602/08/06 09:00:31  5-MIN KSTC 081500Z 33005KT 10SM CLR M14/M20 A3042 570 63 -2900 320/05 RMK AO2
14926KSTC STC20060208090509602/08/06 09:05:31  5-MIN KSTC 081505Z 32005KT 10SM CLR M15/M19 A3042 570 69 -3000 310/05 RMK AO2
14926KSTC STC20060208091009602/08/06 09:10:31  5-MIN KSTC 081510Z 32006KT 10SM CLR M15/M19 A3042 570 69 -3000 310/06 RMK AO2
14926KSTC STC20060208091509602/08/06 09:15:31  5-MIN KSTC 081515Z 33004KT 10SM CLR M14/M19 A3042 570 66 -2900 320/04 RMK AO2
14926KSTC STC20060208092009602/08/06 09:20:31  5-MIN KSTC 081520Z 32005KT 10SM CLR M14/M19 A3042 570 66 -2900 320/05 RMK AO2
14926KSTC STC20060208092509602/08/06 09:25:31  5-MIN KSTC 081525Z 32007KT 10SM CLR M14/M19 A3042 570 63 -2800 310/07 RMK AO2
14926KSTC STC20060208093009602/08/06 09:30:31  5-MIN KSTC 081530Z 33006KT 10SM CLR M14/M19 A3042 570 63 -2800 330/06 RMK AO2
14926KSTC STC20060208093509602/08/06 09:35:31  5-MIN KSTC 081535Z 33007KT 10SM CLR M13/M19 A3042 570 60 -2800 330/07 RMK AO2
14926KSTC STC20060208094009602/08/06 09:40:31  5-MIN KSTC 081540Z 33006KT 10SM CLR M13/M19 A3042 570 60 -2800 330/06 RMK AO2
14926KSTC STC20060208094509602/08/06 09:45:31  5-MIN KSTC 081545Z 33006KT 10SM CLR M13/M19 A3042 570 60 -2800 330/06 RMK AO2
14926KSTC STC20060208095011302/08/06 09:50:31  5-MIN KSTC 081550Z 33006KT 10SM CLR M13/M19 A3042 560 58 -2700 330/06 RMK AO2 SLP335 T11281194
14926KSTC STC20060208095509602/08/06 09:55:31  5-MIN KSTC 081555Z 34004KT 10SM CLR M13/M19 A3043 560 60 -2700 330/04 RMK AO2
14926KSTC STC20060208100009602/08/06 10:00:31  5-MIN KSTC 081600Z 33006KT 10SM CLR M13/M19 A3043 560 60 -2700 320/06 RMK AO2
14926KSTC STC20060208100509602/08/06 10:05:31  5-MIN KSTC 081605Z 33005KT 10SM CLR M12/M19 A3043 560 58 -2600 330/05 RMK AO2
14926KSTC STC20060208101009602/08/06 10:10:31  5-MIN KSTC 081610Z 33005KT 10SM CLR M12/M19 A3043 560 58 -2600 330/05 RMK AO2
14926KSTC STC20060208101509602/08/06 10:15:31  5-MIN KSTC 081615Z 33004KT 10SM CLR M12/M18 A3043 560 58 -2600 330/04 RMK AO2
14926KSTC STC20060208102009602/08/06 10:20:31  5-MIN KSTC 081620Z 32005KT 10SM CLR M12/M18 A3043 560 61 -2600 320/05 RMK AO2
14926KSTC STC20060208102509602/08/06 10:25:31  5-MIN KSTC 081625Z 32004KT 10SM CLR M12/M18 A3043 560 58 -2600 320/04 RMK AO2
14926KSTC STC20060208103009602/08/06 10:30:31  5-MIN KSTC 081630Z 31005KT 10SM CLR M12/M18 A3043 560 61 -2600 310/05 RMK AO2
14926KSTC STC20060208103509602/08/06 10:35:31  5-MIN KSTC 081635Z 31005KT 10SM CLR M12/M18 A3043 560 61 -2600 310/05 RMK AO2
14926KSTC STC20060208104009602/08/06 10:40:31  5-MIN KSTC 081640Z 31006KT 10SM CLR M12/M18 A3043 550 61 -2600 310/06 RMK AO2
14926KSTC STC20060208104509602/08/06 10:45:31  5-MIN KSTC 081645Z 31006KT 10SM CLR M11/M17 A3043 550 61 -2500 310/06 RMK AO2
14926KSTC STC20060208105011302/08/06 10:50:31  5-MIN KSTC 081650Z 31005KT 10SM CLR M11/M17 A3043 560 58 -2400 310/05 RMK AO2 SLP339 T11061172
14926KSTC STC20060208105509602/08/06 10:55:31  5-MIN KSTC 081655Z 32004KT 10SM CLR M11/M17 A3044 550 58 -2400 320/04 RMK AO2
14926KSTC STC20060208110009602/08/06 11:00:31  5-MIN KSTC 081700Z 33004KT 10SM CLR M10/M17 A3043 550 56 -2300 330/04 RMK AO2
14926KSTC STC20060208110509602/08/06 11:05:31  5-MIN KSTC 081705Z 34003KT 10SM CLR M09/M17 A3043 560 53 -2300 340/03 RMK AO2
14926KSTC STC20060208111009602/08/06 11:10:31  5-MIN KSTC 081710Z 32004KT 10SM CLR M10/M17 A3043 560 58 -2300 320/04 RMK AO2
14926KSTC STC20060208111509602/08/06 11:15:31  5-MIN KSTC 081715Z 34004KT 10SM CLR M09/M17 A3043 560 56 -2300 340/04 RMK AO2
14926KSTC STC20060208112009602/08/06 11:20:31  5-MIN KSTC 081720Z 33005KT 10SM CLR M09/M17 A3043 550 54 -2200 330/05 RMK AO2
14926KSTC STC20060208112509602/08/06 11:25:31  5-MIN KSTC 081725Z 34005KT 10SM CLR M09/M17 A3043 550 54 -2200 340/05 RMK AO2
14926KSTC STC20060208113009602/08/06 11:30:31  5-MIN KSTC 081730Z 34005KT 10SM CLR M09/M17 A3043 560 54 -2200 340/05 RMK AO2
14926KSTC STC20060208113509602/08/06 11:35:31  5-MIN KSTC 081735Z 33005KT 10SM CLR M09/M17 A3043 560 54 -2200 330/05 RMK AO2
14926KSTC STC20060208114009602/08/06 11:40:31  5-MIN KSTC 081740Z 33005KT 10SM CLR M09/M17 A3043 560 54 -2200 330/05 RMK AO2
14926KSTC STC20060208114509602/08/06 11:45:31  5-MIN KSTC 081745Z 34004KT 10SM CLR M08/M16 A3043 560 54 -2100 340/04 RMK AO2
14926KSTC STC20060208115013102/08/06 11:50:31  5-MIN KSTC 081750Z 34003KT 10SM CLR M08/M16 A3043 560 54 -2100 340/03 RMK AO2 SLP336 T10831161 11083 21183 51012
14926KSTC STC20060208115509602/08/06 11:55:31  5-MIN KSTC 081755Z 34003KT 10SM CLR M08/M16 A3043 560 51 -2000 340/03 RMK AO2
14926KSTC STC20060208120009602/08/06 12:00:31  5-MIN KSTC 081800Z 34004KT 10SM CLR M08/M16 A3043 560 51 -2000 330/04 RMK AO2
14926KSTC STC20060208120509602/08/06 12:05:31  5-MIN KSTC 081805Z 00000KT 10SM CLR M08/M16 A3042 560 51 -2000 000/00 RMK AO2
14926KSTC STC20060208121009602/08/06 12:10:31  5-MIN KSTC 081810Z 00000KT 10SM CLR M08/M16 A3042 560 54 -2000 000/00 RMK AO2
14926KSTC STC20060208121509602/08/06 12:15:31  5-MIN KSTC 081815Z 31004KT 10SM CLR M08/M16 A3042 560 54 -2000 310/04 RMK AO2
14926KSTC STC20060208122009602/08/06 12:20:31  5-MIN KSTC 081820Z 35005KT 10SM CLR M07/M16 A3042 560 52 -2000 340/05 RMK AO2
14926KSTC STC20060208122509602/08/06 12:25:31  5-MIN KSTC 081825Z 34005KT 10SM CLR M07/M16 A3042 560 52 -2000 340/05 RMK AO2
14926KSTC STC20060208123009602/08/06 12:30:31  5-MIN KSTC 081830Z 33005KT 10SM CLR M07/M16 A3042 560 52 -2000 330/05 RMK AO2
14926KSTC STC20060208123509602/08/06 12:35:31  5-MIN KSTC 081835Z 33004KT 10SM CLR M07/M16 A3042 560 49 -1900 320/04 RMK AO2
14926KSTC STC20060208124009602/08/06 12:40:31  5-MIN KSTC 081840Z 33003KT 10SM CLR M07/M16 A3042 570 49 -1900 330/03 RMK AO2
14926KSTC STC20060208124509602/08/06 12:45:31  5-MIN KSTC 081845Z VRB03KT 10SM CLR M07/M15 A3042 570 52 -1900 VRB/03 RMK AO2
14926KSTC STC20060208125011302/08/06 12:50:31  5-MIN KSTC 081850Z 33003KT 10SM CLR M07/M15 A3042 570 52 -1900 320/03 RMK AO2 SLP331 T10671150
14926KSTC STC20060208125509602/08/06 12:55:31  5-MIN KSTC 081855Z 33003KT 10SM CLR M06/M15 A3042 570 50 -1800 330/03 RMK AO2
14926KSTC STC20060208130009602/08/06 13:00:31  5-MIN KSTC 081900Z 34004KT 10SM CLR M06/M15 A3042 570 50 -1800 330/04 RMK AO2
14926KSTC STC20060208130509602/08/06 13:05:31  5-MIN KSTC 081905Z 33003KT 10SM CLR M06/M15 A3042 570 50 -1800 330/03 RMK AO2
14926KSTC STC20060208131009602/08/06 13:10:31  5-MIN KSTC 081910Z 32004KT 10SM CLR M06/M16 A3041 570 47 -1800 310/04 RMK AO2
14926KSTC STC20060208131509602/08/06 13:15:31  5-MIN KSTC 081915Z 33003KT 10SM CLR M06/M16 A3041 570 47 -1800 330/03 RMK AO2
14926KSTC STC20060208132009602/08/06 13:20:31  5-MIN KSTC 081920Z 31005KT 10SM CLR M06/M15 A3041 570 48 -1700 310/05 RMK AO2
14926KSTC STC20060208132509602/08/06 13:25:31  5-MIN KSTC 081925Z 31006KT 10SM CLR M06/M15 A3041 570 50 -1800 310/06 RMK AO2
14926KSTC STC20060208133009602/08/06 13:30:31  5-MIN KSTC 081930Z 32005KT 10SM CLR M06/M16 A3041 570 47 -1800 320/05 RMK AO2
14926KSTC STC20060208133509602/08/06 13:35:31  5-MIN KSTC 081935Z VRB04KT 10SM CLR M06/M15 A3041 580 48 -1700 VRB/04 RMK AO2
14926KSTC STC20060208134009602/08/06 13:40:31  5-MIN KSTC 081940Z 33005KT 10SM CLR M06/M15 A3041 580 48 -1700 330/05 RMK AO2
14926KSTC STC20060208134509602/08/06 13:45:31  5-MIN KSTC 081945Z 35006KT 10SM CLR M06/M15 A3041 580 48 -1700 340/06 RMK AO2
14926KSTC STC20060208135011302/08/06 13:50:31  5-MIN KSTC 081950Z 33005KT 10SM CLR M06/M16 A3041 580 45 -1700 330/05 RMK AO2 SLP326 T10561156
14926KSTC STC20060208135509602/08/06 13:55:31  5-MIN KSTC 081955Z 35005KT 10SM CLR M06/M16 A3041 580 45 -1700 340/05 RMK AO2
14926KSTC STC20060208140009602/08/06 14:00:31  5-MIN KSTC 082000Z 35006KT 10SM CLR M05/M16 A3041 580 44 -1700 340/06 RMK AO2
14926KSTC STC20060208140509602/08/06 14:05:31  5-MIN KSTC 082005Z 34005KT 10SM CLR M05/M16 A3040 580 44 -1700 340/05 RMK AO2
14926KSTC STC20060208141009602/08/06 14:10:31  5-MIN KSTC 082010Z 32005KT 10SM CLR M05/M16 A3040 580 44 -1700 320/05 RMK AO2
14926KSTC STC20060208141509602/08/06 14:15:31  5-MIN KSTC 082015Z 31006KT 10SM CLR M06/M16 A3040 580 45 -1700 310/06 RMK AO2
14926KSTC STC20060208142009602/08/06 14:20:31  5-MIN KSTC 082020Z 31006KT 10SM CLR M06/M16 A3040 590 45 -1700 310/06 RMK AO2
14926KSTC STC20060208142509602/08/06 14:25:31  5-MIN KSTC 082025Z 31006KT 10SM CLR M06/M16 A3040 590 45 -1700 310/06 RMK AO2
14926KSTC STC20060208143009602/08/06 14:30:31  5-MIN KSTC 082030Z 32006KT 10SM CLR M06/M16 A3039 590 45 -1700 310/06 RMK AO2
14926KSTC STC20060208143509602/08/06 14:35:31  5-MIN KSTC 082035Z 31007KT 10SM CLR M06/M16 A3039 590 43 -1700 310/07 RMK AO2
14926KSTC STC20060208144009602/08/06 14:40:31  5-MIN KSTC 082040Z 31007KT 10SM CLR M06/M16 A3039 590 43 -1700 310/07 RMK AO2
14926KSTC STC20060208144509602/08/06 14:45:31  5-MIN KSTC 082045Z 31005KT 10SM CLR M06/M17 A3039 590 41 -1700 310/05 RMK AO2
14926KSTC STC20060208145011902/08/06 14:50:31  5-MIN KSTC 082050Z 32007KT 10SM CLR M05/M17 A3039 590 40 -1600 320/07 RMK AO2 SLP323 T10501167 50005
14926KSTC STC20060208145509602/08/06 14:55:31  5-MIN KSTC 082055Z 34005KT 10SM CLR M05/M17 A3039 590 38 -1600 330/05 RMK AO2
14926KSTC STC20060208150009602/08/06 15:00:31  5-MIN KSTC 082100Z 33006KT 10SM CLR M05/M18 A3039 590 36 -1600 320/06 RMK AO2
14926KSTC STC20060208150509602/08/06 15:05:31  5-MIN KSTC 082105Z 32006KT 10SM CLR M05/M18 A3039 590 36 -1600 320/06 RMK AO2
14926KSTC STC20060208151009602/08/06 15:10:31  5-MIN KSTC 082110Z 32005KT 10SM CLR M06/M17 A3039 600 40 -1700 320/05 RMK AO2
14926KSTC STC20060208151509602/08/06 15:15:31  5-MIN KSTC 082115Z 33006KT 10SM CLR M06/M18 A3039 600 36 -1700 330/06 RMK AO2
14926KSTC STC20060208152009602/08/06 15:20:31  5-MIN KSTC 082120Z 31007KT 10SM CLR M06/M18 A3039 600 36 -1700 310/07 RMK AO2
14926KSTC STC20060208152509602/08/06 15:25:31  5-MIN KSTC 082125Z 33006KT 10SM CLR M06/M18 A3039 600 36 -1700 330/06 RMK AO2
14926KSTC STC20060208153009602/08/06 15:30:31  5-MIN KSTC 082130Z 33006KT 10SM CLR M05/M19 A3039 590 33 -1600 330/06 RMK AO2
14926KSTC STC20060208153509602/08/06 15:35:31  5-MIN KSTC 082135Z 34006KT 10SM CLR M05/M19 A3039 600 33 -1600 330/06 RMK AO2
14926KSTC STC20060208154009602/08/06 15:40:31  5-MIN KSTC 082140Z 35006KT 10SM CLR M05/M19 A3039 600 33 -1600 340/06 RMK AO2
14926KSTC STC20060208154509602/08/06 15:45:31  5-MIN KSTC 082145Z 34004KT 10SM CLR M05/M18 A3038 600 35 -1600 330/04 RMK AO2
14926KSTC STC20060208155011302/08/06 15:50:31  5-MIN KSTC 082150Z 35006KT 10SM CLR M05/M18 A3038 600 35 -1600 340/06 RMK AO2 SLP319 T10501183
14926KSTC STC20060208155509602/08/06 15:55:31  5-MIN KSTC 082155Z 35005KT 10SM CLR M05/M18 A3038 600 35 -1600 350/05 RMK AO2
14926KSTC STC20060208160010102/08/06 16:00:31  5-MIN KSTC 082200Z AUTO 34005KT 10SM CLR M05/M18 A3038 600 35 -1600 340/05 RMK AO2
14926KSTC STC20060208160510102/08/06 16:05:31  5-MIN KSTC 082205Z AUTO 33005KT 10SM CLR M05/M18 A3038 600 35 -1600 330/05 RMK AO2
14926KSTC STC20060208161010102/08/06 16:10:31  5-MIN KSTC 082210Z AUTO 34005KT 10SM CLR M05/M18 A3038 600 35 -1600 340/05 RMK AO2
14926KSTC STC20060208161510102/08/06 16:15:31  5-MIN KSTC 082215Z AUTO 32005KT 10SM CLR M05/M18 A3038 600 35 -1600 320/05 RMK AO2
14926KSTC STC20060208162010102/08/06 16:20:31  5-MIN KSTC 082220Z AUTO 33005KT 10SM CLR M06/M18 A3038 600 36 -1700 320/05 RMK AO2
14926KSTC STC20060208162510102/08/06 16:25:31  5-MIN KSTC 082225Z AUTO 32006KT 10SM CLR M06/M18 A3038 610 36 -1700 320/06 RMK AO2
14926KSTC STC20060208163010102/08/06 16:30:31  5-MIN KSTC 082230Z AUTO 32005KT 10SM CLR M06/M19 A3038 610 34 -1700 320/05 RMK AO2
14926KSTC STC20060208163510102/08/06 16:35:31  5-MIN KSTC 082235Z AUTO 32006KT 10SM CLR M06/M19 A3038 600 34 -1700 320/06 RMK AO2
14926KSTC STC20060208164010102/08/06 16:40:31  5-MIN KSTC 082240Z AUTO 32005KT 10SM CLR M06/M19 A3038 600 36 -1800 320/05 RMK AO2
14926KSTC STC20060208164510102/08/06 16:45:31  5-MIN KSTC 082245Z AUTO 32004KT 10SM CLR M07/M18 A3038 610 39 -1800 320/04 RMK AO2
14926KSTC STC20060208165011802/08/06 16:50:31  5-MIN KSTC 082250Z AUTO 33004KT 10SM CLR M07/M18 A3038 600 39 -1800 330/04 RMK AO2 SLP321 T10671183
14926KSTC STC20060208165510102/08/06 16:55:31  5-MIN KSTC 082255Z AUTO 33004KT 10SM CLR M06/M19 A3038 600 36 -1800 320/04 RMK AO2
14926KSTC STC20060208170010102/08/06 17:00:31  5-MIN KSTC 082300Z AUTO 33004KT 10SM CLR M06/M19 A3038 610 34 -1800 320/04 RMK AO2
14926KSTC STC20060208170510102/08/06 17:05:31  5-MIN KSTC 082305Z AUTO 33003KT 10SM CLR M07/M19 A3037 610 36 -1800 330/03 RMK AO2
14926KSTC STC20060208171010102/08/06 17:10:31  5-MIN KSTC 082310Z AUTO 33003KT 10SM CLR M06/M19 A3037 610 34 -1800 330/03 RMK AO2
14926KSTC STC20060208171510102/08/06 17:15:31  5-MIN KSTC 082315Z AUTO 33004KT 10SM CLR M06/M20 A3037 610 33 -1800 330/04 RMK AO2
14926KSTC STC20060208172010102/08/06 17:20:31  5-MIN KSTC 082320Z AUTO 32005KT 10SM CLR M07/M21 A3037 610 33 -1800 310/05 RMK AO2
14926KSTC STC20060208172510102/08/06 17:25:31  5-MIN KSTC 082325Z AUTO 32004KT 10SM CLR M08/M21 A3036 620 35 -2000 310/04 RMK AO2
14926KSTC STC20060208173010102/08/06 17:30:31  5-MIN KSTC 082330Z AUTO 32004KT 10SM CLR M07/M21 A3037 620 34 -1900 320/04 RMK AO2
14926KSTC STC20060208173510102/08/06 17:35:31  5-MIN KSTC 082335Z AUTO 31004KT 10SM CLR M08/M20 A3036 620 39 -2000 300/04 RMK AO2
14926KSTC STC20060208174010102/08/06 17:40:31  5-MIN KSTC 082340Z AUTO 31005KT 10SM CLR M09/M20 A3036 620 40 -2100 310/05 RMK AO2
14926KSTC STC20060208174510102/08/06 17:45:31  5-MIN KSTC 082345Z AUTO 30004KT 10SM CLR M08/M21 A3036 620 37 -2000 290/04 RMK AO2
14926KSTC STC20060208175013602/08/06 17:50:31  5-MIN KSTC 082350Z AUTO 28004KT 10SM CLR M08/M20 A3036 620 39 -2000 270/04 RMK AO2 SLP313 T10831200 11050 21089 58012
14926KSTC STC20060208175510102/08/06 17:55:31  5-MIN KSTC 082355Z AUTO 28003KT 10SM CLR M08/M20 A3036 630 39 -2000 280/03 RMK AO2
14926KSTC STC20060208180010102/08/06 18:00:31  5-MIN KSTC 090000Z AUTO 28004KT 10SM CLR M09/M20 A3036 620 42 -2200 270/04 RMK AO2
14926KSTC STC20060208180510102/08/06 18:05:31  5-MIN KSTC 090005Z AUTO 28005KT 10SM CLR M10/M20 A3036 620 44 -2300 280/05 RMK AO2
14926KSTC STC20060208181010102/08/06 18:10:31  5-MIN KSTC 090010Z AUTO 30005KT 10SM CLR M10/M20 A3036 620 44 -2300 300/05 RMK AO2
14926KSTC STC20060208181510102/08/06 18:15:31  5-MIN KSTC 090015Z AUTO 31005KT 10SM CLR M09/M20 A3037 610 42 -2200 310/05 RMK AO2
14926KSTC STC20060208182010102/08/06 18:20:31  5-MIN KSTC 090020Z AUTO 31005KT 10SM CLR M09/M21 A3037 610 40 -2200 310/05 RMK AO2
14926KSTC STC20060208182510102/08/06 18:25:31  5-MIN KSTC 090025Z AUTO 31006KT 10SM CLR M09/M21 A3037 610 40 -2200 310/06 RMK AO2
14926KSTC STC20060208183010102/08/06 18:30:31  5-MIN KSTC 090030Z AUTO 31006KT 10SM CLR M10/M21 A3037 610 42 -2300 300/06 RMK AO2
14926KSTC STC20060208183510102/08/06 18:35:31  5-MIN KSTC 090035Z AUTO 30004KT 10SM CLR M09/M21 A3037 610 40 -2200 300/04 RMK AO2
14926KSTC STC20060208184010102/08/06 18:40:31  5-MIN KSTC 090040Z AUTO 29003KT 10SM CLR M10/M20 A3037 620 44 -2300 280/03 RMK AO2
14926KSTC STC20060208184510102/08/06 18:45:31  5-MIN KSTC 090045Z AUTO 29003KT 10SM CLR M11/M20 A3037 610 46 -2300 290/03 RMK AO2
14926KSTC STC20060208185011802/08/06 18:50:31  5-MIN KSTC 090050Z AUTO 30003KT 10SM CLR M10/M20 A3037 620 44 -2300 300/03 RMK AO2 SLP318 T11001200
14926KSTC STC20060208185510102/08/06 18:55:31  5-MIN KSTC 090055Z AUTO 31003KT 10SM CLR M10/M20 A3037 620 44 -2300 300/03 RMK AO2
14926KSTC STC20060208190010102/08/06 19:00:31  5-MIN KSTC 090100Z AUTO 00000KT 10SM CLR M10/M20 A3037 620 44 -2300 000/00 RMK AO2
14926KSTC STC20060208190510102/08/06 19:05:31  5-MIN KSTC 090105Z AUTO 00000KT 10SM CLR M11/M19 A3037 620 51 -2400 000/00 RMK AO2
14926KSTC STC20060208191010102/08/06 19:10:31  5-MIN KSTC 090110Z AUTO 00000KT 10SM CLR M10/M19 A3037 610 46 -2300 000/00 RMK AO2
14926KSTC STC20060208191510102/08/06 19:15:31  5-MIN KSTC 090115Z AUTO 28003KT 10SM CLR M10/M20 A3037 610 44 -2300 280/03 RMK AO2
14926KSTC STC20060208192010102/08/06 19:20:31  5-MIN KSTC 090120Z AUTO 29003KT 10SM CLR M11/M19 A3037 610 48 -2300 290/03 RMK AO2
14926KSTC STC20060208192510102/08/06 19:25:31  5-MIN KSTC 090125Z AUTO 00000KT 10SM CLR M11/M19 A3037 610 51 -2400 000/00 RMK AO2
14926KSTC STC20060208193010102/08/06 19:30:31  5-MIN KSTC 090130Z AUTO 29003KT 10SM CLR M11/M19 A3037 610 51 -2400 280/03 RMK AO2
14926KSTC STC20060208193510102/08/06 19:35:31  5-MIN KSTC 090135Z AUTO 28003KT 10SM CLR M11/M19 A3037 610 51 -2400 280/03 RMK AO2
14926KSTC STC20060208194010102/08/06 19:40:31  5-MIN KSTC 090140Z AUTO 00000KT 10SM CLR M12/M19 A3037 610 53 -2500 000/00 RMK AO2
14926KSTC STC20060208194510102/08/06 19:45:31  5-MIN KSTC 090145Z AUTO 00000KT 10SM CLR M12/M19 A3037 610 53 -2500 000/00 RMK AO2
14926KSTC STC20060208195011802/08/06 19:50:31  5-MIN KSTC 090150Z AUTO 00000KT 10SM CLR M12/M19 A3037 610 55 -2600 000/00 RMK AO2 SLP320 T11221194
14926KSTC STC20060208195510102/08/06 19:55:31  5-MIN KSTC 090155Z AUTO 00000KT 10SM CLR M12/M19 A3037 610 55 -2600 000/00 RMK AO2
14926KSTC STC20060208200010102/08/06 20:00:31  5-MIN KSTC 090200Z AUTO 27003KT 10SM CLR M12/M19 A3037 610 55 -2600 270/03 RMK AO2
14926KSTC STC20060208200510102/08/06 20:05:31  5-MIN KSTC 090205Z AUTO 28003KT 10SM CLR M13/M19 A3037 610 58 -2600 280/03 RMK AO2
14926KSTC STC20060208201010102/08/06 20:10:31  5-MIN KSTC 090210Z AUTO 00000KT 10SM CLR M13/M19 A3037 610 58 -2600 000/00 RMK AO2
14926KSTC STC20060208201510102/08/06 20:15:31  5-MIN KSTC 090215Z AUTO 00000KT 10SM CLR M13/M19 A3037 610 58 -2600 000/00 RMK AO2
14926KSTC STC20060208202010102/08/06 20:20:31  5-MIN KSTC 090220Z AUTO 00000KT 10SM CLR M12/M19 A3038 610 55 -2600 000/00 RMK AO2
14926KSTC STC20060208202510102/08/06 20:25:31  5-MIN KSTC 090225Z AUTO 00000KT 10SM CLR M12/M19 A3037 610 55 -2600 000/00 RMK AO2
14926KSTC STC20060208203010102/08/06 20:30:31  5-MIN KSTC 090230Z AUTO 00000KT 10SM CLR M12/M19 A3037 610 53 -2500 000/00 RMK AO2
14926KSTC STC20060208203510102/08/06 20:35:31  5-MIN KSTC 090235Z AUTO 00000KT 10SM CLR M12/M19 A3037 610 55 -2500 000/00 RMK AO2
14926KSTC STC20060208204010102/08/06 20:40:31  5-MIN KSTC 090240Z AUTO 00000KT 10SM CLR M12/M19 A3037 610 58 -2600 000/00 RMK AO2
14926KSTC STC20060208204510102/08/06 20:45:31  5-MIN KSTC 090245Z AUTO 00000KT 10SM CLR M12/M19 A3037 610 55 -2600 000/00 RMK AO2
14926KSTC STC20060208205012402/08/06 20:50:31  5-MIN KSTC 090250Z AUTO 00000KT 10SM CLR M13/M19 A3037 610 60 -2600 000/00 RMK AO2 SLP320 T11281189 58012
14926KSTC STC20060208205510102/08/06 20:55:31  5-MIN KSTC 090255Z AUTO 00000KT 10SM CLR M13/M19 A3037 610 60 -2600 000/00 RMK AO2
14926KSTC STC20060208210010102/08/06 21:00:31  5-MIN KSTC 090300Z AUTO 00000KT 10SM CLR M14/M19 A3037 620 63 -2800 000/00 RMK AO2
14926KSTC STC20060208210510102/08/06 21:05:31  5-MIN KSTC 090305Z AUTO 00000KT 10SM CLR M14/M19 A3037 620 63 -2800 000/00 RMK AO2
14926KSTC STC20060208211010102/08/06 21:10:31  5-MIN KSTC 090310Z AUTO 00000KT 10SM CLR M14/M19 A3036 620 63 -2800 000/00 RMK AO2
14926KSTC STC20060208211510102/08/06 21:15:31  5-MIN KSTC 090315Z AUTO 00000KT 10SM CLR M16/M18 A3035 630 79 -3000 000/00 RMK AO2
14926KSTC STC20060208212010102/08/06 21:20:31  5-MIN KSTC 090320Z AUTO 00000KT 10SM CLR M14/M18 A3035 630 73 -2800 000/00 RMK AO2
14926KSTC STC20060208212510102/08/06 21:25:31  5-MIN KSTC 090325Z AUTO 00000KT 10SM CLR M14/M19 A3035 630 66 -2800 000/00 RMK AO2
14926KSTC STC20060208213010102/08/06 21:30:31  5-MIN KSTC 090330Z AUTO 00000KT 10SM CLR M15/M20 A3035 630 66 -2900 000/00 RMK AO2
14926KSTC STC20060208213510102/08/06 21:35:31  5-MIN KSTC 090335Z AUTO 00000KT 10SM CLR M15/M20 A3035 630 66 -2900 000/00 RMK AO2
14926KSTC STC20060208214010102/08/06 21:40:31  5-MIN KSTC 090340Z AUTO 00000KT 10SM CLR M16/M20 A3035 630 69 -3000 000/00 RMK AO2
14926KSTC STC20060208214510102/08/06 21:45:31  5-MIN KSTC 090345Z AUTO 00000KT 10SM CLR M15/M20 A3035 640 66 -2900 000/00 RMK AO2
14926KSTC STC20060208215011802/08/06 21:50:31  5-MIN KSTC 090350Z AUTO 00000KT 10SM CLR M16/M20 A3035 630 69 -3000 000/00 RMK AO2 SLP311 T11561200
14926KSTC STC20060208215510102/08/06 21:55:31  5-MIN KSTC 090355Z AUTO 00000KT 10SM CLR M16/M19 A3035 630 72 -3000 000/00 RMK AO2
14926KSTC STC20060208220010102/08/06 22:00:31  5-MIN KSTC 090400Z AUTO 00000KT 10SM CLR M16/M19 A3035 640 72 -3000 000/00 RMK AO2
14926KSTC STC20060208220510102/08/06 22:05:31  5-MIN KSTC 090405Z AUTO 00000KT 10SM CLR M16/M19 A3034 640 72 -3000 000/00 RMK AO2
14926KSTC STC20060208221010102/08/06 22:10:31  5-MIN KSTC 090410Z AUTO 00000KT 10SM CLR M16/M19 A3034 640 72 -3000 000/00 RMK AO2
14926KSTC STC20060208221510102/08/06 22:15:31  5-MIN KSTC 090415Z AUTO 00000KT 10SM CLR M16/M19 A3034 640 72 -3000 000/00 RMK AO2
14926KSTC STC20060208222010102/08/06 22:20:31  5-MIN KSTC 090420Z AUTO 00000KT 10SM CLR M16/M19 A3034 640 72 -3000 000/00 RMK AO2
14926KSTC STC20060208222510102/08/06 22:25:31  5-MIN KSTC 090425Z AUTO 00000KT 10SM CLR M16/M19 A3033 650 72 -3000 000/00 RMK AO2
14926KSTC STC20060208223010102/08/06 22:30:31  5-MIN KSTC 090430Z AUTO 20003KT 10SM CLR M16/M20 A3033 650 69 -3000 190/03 RMK AO2
14926KSTC STC20060208223510102/08/06 22:35:31  5-MIN KSTC 090435Z AUTO 18003KT 10SM CLR M16/M21 A3032 660 69 -3000 180/03 RMK AO2
14926KSTC STC20060208224010102/08/06 22:40:31  5-MIN KSTC 090440Z AUTO 19003KT 10SM CLR M16/M20 A3032 660 72 -3000 190/03 RMK AO2
14926KSTC STC20060208224510102/08/06 22:45:31  5-MIN KSTC 090445Z AUTO 19003KT 10SM CLR M16/M19 A3032 660 76 -3000 190/03 RMK AO2
14926KSTC STC20060208225011802/08/06 22:50:31  5-MIN KSTC 090450Z AUTO 17003KT 10SM CLR M16/M19 A3031 660 76 -3000 170/03 RMK AO2 SLP299 T11611194
14926KSTC STC20060208225510102/08/06 22:55:31  5-MIN KSTC 090455Z AUTO 18003KT 10SM CLR M16/M19 A3032 660 72 -2900 180/03 RMK AO2
14926KSTC STC20060208230010102/08/06 23:00:31  5-MIN KSTC 090500Z AUTO 17003KT 10SM CLR M16/M20 A3031 670 69 -2900 170/03 RMK AO2
14926KSTC STC20060208230510102/08/06 23:05:31  5-MIN KSTC 090505Z AUTO 18003KT 10SM CLR M15/M20 A3031 670 66 -2900 170/03 RMK AO2
14926KSTC STC20060208231010102/08/06 23:10:31  5-MIN KSTC 090510Z AUTO 18003KT 10SM CLR M16/M20 A3030 670 69 -2900 170/03 RMK AO2
14926KSTC STC20060208231510102/08/06 23:15:31  5-MIN KSTC 090515Z AUTO 17003KT 10SM CLR M14/M19 A3030 670 66 -2800 170/03 RMK AO2
14926KSTC STC20060208232010102/08/06 23:20:31  5-MIN KSTC 090520Z AUTO 18003KT 10SM CLR M16/M20 A3030 670 72 -3000 170/03 RMK AO2
14926KSTC STC20060208232510102/08/06 23:25:31  5-MIN KSTC 090525Z AUTO 00000KT 10SM CLR M16/M21 A3030 680 69 -3000 000/00 RMK AO2
14926KSTC STC20060208233010102/08/06 23:30:31  5-MIN KSTC 090530Z AUTO 00000KT 10SM CLR M16/M20 A3030 680 72 -3000 000/00 RMK AO2
14926KSTC STC20060208233510102/08/06 23:35:31  5-MIN KSTC 090535Z AUTO 00000KT 10SM CLR M17/M20 A3031 670 76 -3100 000/00 RMK AO2
14926KSTC STC20060208234010102/08/06 23:40:31  5-MIN KSTC 090540Z AUTO 26003KT 10SM CLR M17/M21 A3031 670 72 -3100 260/03 RMK AO2
14926KSTC STC20060208234510102/08/06 23:45:31  5-MIN KSTC 090545Z AUTO 24003KT 10SM CLR M17/M21 A3031 670 72 -3100 240/03 RMK AO2
14926KSTC STC20060208235014602/08/06 23:50:31  5-MIN KSTC 090550Z AUTO 00000KT 10SM CLR M16/M20 A3031 670 69 -2900 000/00 RMK AO2 SLP295 T11561200 11083 21167 410501183 51005
14926KSTC STC20060208235510102/08/06 23:55:31  5-MIN KSTC 090555Z AUTO 00000KT 10SM CLR M16/M20 A3031 670 72 -3000 000/00 RMK AO2
14926KSTC STC20060209000010102/09/06 00:00:32  5-MIN KSTC 090600Z AUTO 00000KT 10SM CLR M17/M21 A3031 670 72 -3100 000/00 RMK AO2
14926KSTC STC20060209000510102/09/06 00:05:31  5-MIN KSTC 090605Z AUTO 00000KT 10SM CLR M16/M21 A3030 670 69 -3000 000/00 RMK AO2
14926KSTC STC20060209001010102/09/06 00:10:31  5-MIN KSTC 090610Z AUTO 00000KT 10SM CLR M16/M21 A3030 680 69 -3000 000/00 RMK AO2
14926KSTC STC20060209001510102/09/06 00:15:31  5-MIN KSTC 090615Z AUTO 00000KT 10SM CLR M17/M21 A3030 680 72 -3100 000/00 RMK AO2
14926KSTC STC20060209002010102/09/06 00:20:31  5-MIN KSTC 090620Z AUTO 00000KT 10SM CLR M16/M21 A3030 680 66 -3000 000/00 RMK AO2
14926KSTC STC20060209002510102/09/06 00:25:31  5-MIN KSTC 090625Z AUTO 00000KT 10SM CLR M17/M21 A3030 680 69 -3100 000/00 RMK AO2
14926KSTC STC20060209003010102/09/06 00:30:31  5-MIN KSTC 090630Z AUTO 00000KT 10SM CLR M17/M21 A3029 690 72 -3100 000/00 RMK AO2
14926KSTC STC20060209003510102/09/06 00:35:31  5-MIN KSTC 090635Z AUTO 00000KT 10SM CLR M17/M21 A3029 690 76 -3100 000/00 RMK AO2
14926KSTC STC20060209004010102/09/06 00:40:31  5-MIN KSTC 090640Z AUTO 00000KT 10SM CLR M17/M19 A3029 680 79 -3100 000/00 RMK AO2
14926KSTC STC20060209004510102/09/06 00:45:31  5-MIN KSTC 090645Z AUTO 00000KT 10SM CLR M17/M19 A3029 680 79 -3100 000/00 RMK AO2
14926KSTC STC20060209005011802/09/06 00:50:31  5-MIN KSTC 090650Z AUTO 00000KT 10SM CLR M17/M20 A3029 680 76 -3100 000/00 RMK AO2 SLP291 T11671200
14926KSTC STC20060209005510102/09/06 00:55:31  5-MIN KSTC 090655Z AUTO 00000KT 10SM CLR M16/M20 A3030 680 72 -3000 000/00 RMK AO2
14926KSTC STC20060209010010102/09/06 01:00:31  5-MIN KSTC 090700Z AUTO 00000KT 10SM CLR M17/M19 A3030 680 79 -3100 000/00 RMK AO2
14926KSTC STC20060209010510102/09/06 01:05:31  5-MIN KSTC 090705Z AUTO 00000KT 10SM CLR M17/M19 A3030 680 83 -3200 000/00 RMK AO2
14926KSTC STC20060209011010102/09/06 01:10:31  5-MIN KSTC 090710Z AUTO 00000KT 10SM CLR M17/M20 A3029 680 79 -3100 000/00 RMK AO2
14926KSTC STC20060209011510102/09/06 01:15:31  5-MIN KSTC 090715Z AUTO 00000KT 10SM CLR M17/M19 A3029 690 83 -3100 000/00 RMK AO2
14926KSTC STC20060209012010102/09/06 01:20:31  5-MIN KSTC 090720Z AUTO 00000KT 10SM CLR M17/M19 A3029 690 79 -3100 000/00 RMK AO2
14926KSTC STC20060209012510102/09/06 01:25:31  5-MIN KSTC 090725Z AUTO 00000KT 10SM CLR M17/M19 A3028 690 79 -3100 000/00 RMK AO2
14926KSTC STC20060209013010102/09/06 01:30:31  5-MIN KSTC 090730Z AUTO 00000KT 10SM CLR M18/M20 A3028 690 83 -3200 000/00 RMK AO2
14926KSTC STC20060209013510102/09/06 01:35:31  5-MIN KSTC 090735Z AUTO 00000KT 10SM CLR M18/M20 A3027 700 87 -3300 000/00 RMK AO2
14926KSTC STC20060209014010102/09/06 01:40:31  5-MIN KSTC 090740Z AUTO 00000KT 10SM CLR M18/M20 A3027 700 87 -3300 000/00 RMK AO2
14926KSTC STC20060209014510102/09/06 01:45:31  5-MIN KSTC 090745Z AUTO 00000KT 10SM CLR M18/M21 A3027 700 83 -3300 000/00 RMK AO2
14926KSTC STC20060209015011802/09/06 01:50:31  5-MIN KSTC 090750Z AUTO 00000KT 10SM CLR M18/M21 A3027 700 79 -3200 000/00 RMK AO2 SLP283 T11781206
14926KSTC STC20060209015510102/09/06 01:55:31  5-MIN KSTC 090755Z AUTO 17003KT 10SM CLR M18/M20 A3027 700 83 -3200 170/03 RMK AO2
14926KSTC STC20060209020010102/09/06 02:00:31  5-MIN KSTC 090800Z AUTO 00000KT 10SM CLR M18/M20 A3027 700 83 -3200 000/00 RMK AO2
14926KSTC STC20060209020510102/09/06 02:05:31  5-MIN KSTC 090805Z AUTO 00000KT 10SM CLR M18/M20 A3027 700 87 -3300 000/00 RMK AO2
14926KSTC STC20060209021010102/09/06 02:10:31  5-MIN KSTC 090810Z AUTO 00000KT 10SM CLR M18/M20 A3027 710 83 -3200 000/00 RMK AO2
14926KSTC STC20060209021510102/09/06 02:15:31  5-MIN KSTC 090815Z AUTO 00000KT 10SM CLR M18/M20 A3026 710 83 -3200 000/00 RMK AO2
14926KSTC STC20060209022010102/09/06 02:20:31  5-MIN KSTC 090820Z AUTO 00000KT 10SM CLR M18/M20 A3027 710 83 -3200 000/00 RMK AO2
14926KSTC STC20060209022510102/09/06 02:25:31  5-MIN KSTC 090825Z AUTO 00000KT 10SM CLR M18/M20 A3027 710 83 -3200 000/00 RMK AO2
14926KSTC STC20060209023010102/09/06 02:30:31  5-MIN KSTC 090830Z AUTO 00000KT 10SM CLR M18/M20 A3026 710 83 -3200 000/00 RMK AO2
14926KSTC STC20060209023510102/09/06 02:35:31  5-MIN KSTC 090835Z AUTO 00000KT 10SM CLR M18/M20 A3026 720 83 -3200 000/00 RMK AO2
14926KSTC STC20060209024010102/09/06 02:40:31  5-MIN KSTC 090840Z AUTO 00000KT 10SM CLR M18/M20 A3025 720 83 -3200 000/00 RMK AO2
14926KSTC STC20060209024510102/09/06 02:45:31  5-MIN KSTC 090845Z AUTO 14003KT 10SM CLR M17/M20 A3025 720 79 -3100 140/03 RMK AO2
14926KSTC STC20060209025012402/09/06 02:50:31  5-MIN KSTC 090850Z AUTO 15003KT 10SM CLR M17/M19 A3025 720 79 -3000 140/03 RMK AO2 SLP275 T11671194 56021
14926KSTC STC20060209025510102/09/06 02:55:31  5-MIN KSTC 090855Z AUTO 15003KT 10SM CLR M17/M19 A3025 720 79 -3000 150/03 RMK AO2
14926KSTC STC20060209030010102/09/06 03:00:31  5-MIN KSTC 090900Z AUTO 15004KT 10SM CLR M17/M19 A3024 730 79 -3000 150/04 RMK AO2
14926KSTC STC20060209030510102/09/06 03:05:31  5-MIN KSTC 090905Z AUTO 14004KT 10SM CLR M17/M19 A3024 740 83 -3100 140/04 RMK AO2
14926KSTC STC20060209031010102/09/06 03:10:31  5-MIN KSTC 090910Z AUTO 14003KT 10SM CLR M17/M20 A3023 740 79 -3100 140/03 RMK AO2
14926KSTC STC20060209031510102/09/06 03:15:31  5-MIN KSTC 090915Z AUTO 14004KT 10SM CLR M17/M19 A3023 740 79 -3000 140/04 RMK AO2
14926KSTC STC20060209032010102/09/06 03:20:31  5-MIN KSTC 090920Z AUTO 15003KT 10SM CLR M16/M19 A3023 740 79 -2900 150/03 RMK AO2
14926KSTC STC20060209032510102/09/06 03:25:31  5-MIN KSTC 090925Z AUTO 14004KT 10SM CLR M16/M19 A3023 740 79 -2900 140/04 RMK AO2
14926KSTC STC20060209033010102/09/06 03:30:31  5-MIN KSTC 090930Z AUTO 14005KT 10SM CLR M17/M19 A3022 750 79 -3000 140/05 RMK AO2
14926KSTC STC20060209033510102/09/06 03:35:31  5-MIN KSTC 090935Z AUTO 14004KT 10SM CLR M17/M19 A3022 750 79 -3000 140/04 RMK AO2
14926KSTC STC20060209034010102/09/06 03:40:31  5-MIN KSTC 090940Z AUTO 14004KT 10SM CLR M17/M19 A3022 750 83 -3000 140/04 RMK AO2
14926KSTC STC20060209034510102/09/06 03:45:31  5-MIN KSTC 090945Z AUTO 15003KT 10SM CLR M17/M19 A3022 750 83 -3000 150/03 RMK AO2
14926KSTC STC20060209035011802/09/06 03:50:31  5-MIN KSTC 090950Z AUTO 15003KT 10SM CLR M17/M19 A3022 750 83 -3000 150/03 RMK AO2 SLP264 T11671189
14926KSTC STC20060209035510102/09/06 03:55:31  5-MIN KSTC 090955Z AUTO 16004KT 10SM CLR M17/M19 A3021 760 83 -3000 160/04 RMK AO2
14926KSTC STC20060209040010102/09/06 04:00:31  5-MIN KSTC 091000Z AUTO 16003KT 10SM CLR M17/M19 A3021 760 79 -3000 160/03 RMK AO2
14926KSTC STC20060209040510102/09/06 04:05:31  5-MIN KSTC 091005Z AUTO 16003KT 10SM CLR M17/M19 A3021 760 83 -3000 160/03 RMK AO2
14926KSTC STC20060209041010102/09/06 04:10:31  5-MIN KSTC 091010Z AUTO 00000KT 10SM CLR M17/M19 A3022 750 83 -3000 000/00 RMK AO2
14926KSTC STC20060209041510102/09/06 04:15:31  5-MIN KSTC 091015Z AUTO 00000KT 10SM CLR M17/M19 A3022 750 83 -3000 000/00 RMK AO2
14926KSTC STC20060209042010102/09/06 04:20:31  5-MIN KSTC 091020Z AUTO 00000KT 10SM CLR M16/M19 A3022 750 79 -2900 000/00 RMK AO2
14926KSTC STC20060209042510102/09/06 04:25:31  5-MIN KSTC 091025Z AUTO 00000KT 10SM CLR M16/M19 A3022 750 79 -2900 000/00 RMK AO2
14926KSTC STC20060209043010102/09/06 04:30:31  5-MIN KSTC 091030Z AUTO 17003KT 10SM CLR M16/M19 A3021 760 79 -2900 160/03 RMK AO2
14926KSTC STC20060209043510102/09/06 04:35:31  5-MIN KSTC 091035Z AUTO 17003KT 10SM CLR M16/M19 A3021 760 79 -2900 160/03 RMK AO2
14926KSTC STC20060209044010102/09/06 04:40:31  5-MIN KSTC 091040Z AUTO 17003KT 10SM CLR M16/M18 A3021 760 79 -2800 160/03 RMK AO2
14926KSTC STC20060209044510102/09/06 04:45:31  5-MIN KSTC 091045Z AUTO 17004KT 10SM CLR M16/M18 A3020 770 79 -2800 170/04 RMK AO2
14926KSTC STC20060209045011802/09/06 04:50:31  5-MIN KSTC 091050Z AUTO 16004KT 10SM CLR M16/M18 A3019 770 79 -2800 160/04 RMK AO2 SLP256 T11561183
14926KSTC STC20060209045510102/09/06 04:55:31  5-MIN KSTC 091055Z AUTO 15004KT 10SM CLR M16/M18 A3019 770 79 -2800 150/04 RMK AO2
14926KSTC STC20060209050010102/09/06 05:00:31  5-MIN KSTC 091100Z AUTO 15004KT 10SM CLR M15/M18 A3019 780 80 -2700 140/04 RMK AO2
14926KSTC STC20060209050510102/09/06 05:05:31  5-MIN KSTC 091105Z AUTO 14005KT 10SM CLR M15/M18 A3019 780 80 -2700 140/05 RMK AO2
14926KSTC STC20060209051010102/09/06 05:10:31  5-MIN KSTC 091110Z AUTO 14005KT 10SM CLR M15/M18 A3019 780 80 -2700 130/05 RMK AO2
14926KSTC STC20060209051510102/09/06 05:15:31  5-MIN KSTC 091115Z AUTO 13005KT 10SM CLR M14/M18 A3018 790 76 -2600 130/05 RMK AO2
14926KSTC STC20060209052010102/09/06 05:20:31  5-MIN KSTC 091120Z AUTO 14006KT 10SM CLR M14/M17 A3018 790 80 -2600 140/06 RMK AO2
14926KSTC STC20060209052510102/09/06 05:25:31  5-MIN KSTC 091125Z AUTO 16005KT 10SM CLR M14/M18 A3018 790 76 -2600 150/05 RMK AO2
14926KSTC STC20060209053010102/09/06 05:30:31  5-MIN KSTC 091130Z AUTO 16006KT 10SM CLR M15/M18 A3017 800 80 -2700 150/06 RMK AO2
14926KSTC STC20060209053510102/09/06 05:35:31  5-MIN KSTC 091135Z AUTO 17006KT 10SM CLR M15/M18 A3017 800 80 -2700 170/06 RMK AO2
14926KSTC STC20060209054010102/09/06 05:40:31  5-MIN KSTC 091140Z AUTO 16006KT 10SM CLR M15/M18 A3016 800 80 -2700 160/06 RMK AO2
14926KSTC STC20060209054510802/09/06 05:45:31  5-MIN KSTC 091145Z AUTO 16006KT 10SM CLR M14/M17 A3015 810 80 -2600 160/06 RMK AO2 PRESFR
14926KSTC STC20060209055013602/09/06 05:50:31  5-MIN KSTC 091150Z AUTO 18006KT 10SM CLR M14/M17 A3016 800 80 -2500 180/06 RMK AO2 SLP244 T11391167 11139 21183 58018
14926KSTC STC20060209055510102/09/06 05:55:31  5-MIN KSTC 091155Z AUTO 18006KT 10SM CLR M13/M17 A3016 810 76 -2500 180/06 RMK AO2
14926KSTC STC20060209060010102/09/06 06:00:31  5-MIN KSTC 091200Z AUTO 17006KT 10SM CLR M13/M17 A3015 810 76 -2500 170/06 RMK AO2
14926KSTC STC20060209060510102/09/06 06:05:31  5-MIN KSTC 091205Z AUTO 14006KT 10SM CLR M14/M17 A3015 820 80 -2500 140/06 RMK AO2
14926KSTC STC20060209061010802/09/06 06:10:31  5-MIN KSTC 091210Z AUTO 13007KT 10SM CLR M14/M17 A3014 830 80 -2500 130/07 RMK AO2 PRESFR
14926KSTC STC20060209061510102/09/06 06:15:31  5-MIN KSTC 091215Z AUTO 14007KT 10SM CLR M14/M17 A3013 830 80 -2500 130/07 RMK AO2
14926KSTC STC20060209062010102/09/06 06:20:31  5-MIN KSTC 091220Z AUTO 15007KT 10SM CLR M14/M17 A3013 830 80 -2500 140/07 RMK AO2
14926KSTC STC20060209062510102/09/06 06:25:31  5-MIN KSTC 091225Z AUTO 16006KT 10SM CLR M14/M17 A3014 820 76 -2500 160/06 RMK AO2
14926KSTC STC20060209063010102/09/06 06:30:31  5-MIN KSTC 091230Z AUTO 15006KT 10SM CLR M14/M17 A3013 830 80 -2600 150/06 RMK AO2
14926KSTC STC20060209063510102/09/06 06:35:31  5-MIN KSTC 091235Z AUTO 15006KT 10SM CLR M14/M17 A3013 840 80 -2600 140/06 RMK AO2
14926KSTC STC20060209064010102/09/06 06:40:31  5-MIN KSTC 091240Z AUTO 14007KT 10SM CLR M14/M17 A3011 850 80 -2600 140/07 RMK AO2
14926KSTC STC20060209064509602/09/06 06:45:31  5-MIN KSTC 091245Z 14007KT 10SM CLR M14/M17 A3011 850 80 -2500 140/07 RMK AO2
14926KSTC STC20060209065011302/09/06 06:50:31  5-MIN KSTC 091250Z 15007KT 10SM CLR M14/M17 A3011 850 80 -2500 150/07 RMK AO2 SLP229 T11391167
14926KSTC STC20060209065509602/09/06 06:55:31  5-MIN KSTC 091255Z 16006KT 10SM CLR M14/M17 A3011 850 80 -2500 160/06 RMK AO2
14926KSTC STC20060209070009602/09/06 07:00:31  5-MIN KSTC 091300Z 15006KT 10SM CLR M14/M16 A3011 850 83 -2500 140/06 RMK AO2
14926KSTC STC20060209070509602/09/06 07:05:31  5-MIN KSTC 091305Z 14005KT 10SM CLR M13/M16 A3011 850 80 -2400 140/05 RMK AO2
14926KSTC STC20060209071009602/09/06 07:10:31  5-MIN KSTC 091310Z 14007KT 10SM CLR M13/M16 A3010 860 80 -2400 140/07 RMK AO2
14926KSTC STC20060209071509602/09/06 07:15:31  5-MIN KSTC 091315Z 15006KT 10SM CLR M13/M16 A3011 850 80 -2400 150/06 RMK AO2
14926KSTC STC20060209072009602/09/06 07:20:31  5-MIN KSTC 091320Z 16006KT 10SM CLR M13/M16 A3011 850 80 -2400 160/06 RMK AO2
14926KSTC STC20060209072509602/09/06 07:25:31  5-MIN KSTC 091325Z 15007KT 10SM CLR M13/M16 A3010 860 80 -2400 150/07 RMK AO2
14926KSTC STC20060209073009602/09/06 07:30:31  5-MIN KSTC 091330Z 15007KT 10SM CLR M13/M16 A3010 860 80 -2400 150/07 RMK AO2
14926KSTC STC20060209073509602/09/06 07:35:31  5-MIN KSTC 091335Z 15008KT 10SM CLR M13/M16 A3009 870 80 -2400 150/08 RMK AO2
14926KSTC STC20060209074010302/09/06 07:40:31  5-MIN KSTC 091340Z 14008KT 10SM CLR M13/M16 A3008 880 83 -2400 140/08 RMK AO2 PRESFR
14926KSTC STC20060209074509602/09/06 07:45:31  5-MIN KSTC 091345Z 15008KT 10SM CLR M13/M16 A3009 870 80 -2300 140/08 RMK AO2
14926KSTC STC20060209075011302/09/06 07:50:31  5-MIN KSTC 091350Z 15007KT 10SM CLR M13/M16 A3009 870 80 -2300 150/07 RMK AO2 SLP221 T11281156
14926KSTC STC20060209075509602/09/06 07:55:31  5-MIN KSTC 091355Z 16006KT 10SM CLR M13/M16 A3010 860 80 -2300 150/06 RMK AO2
14926KSTC STC20060209080009602/09/06 08:00:31  5-MIN KSTC 091400Z 18005KT 10SM CLR M13/M15 A3010 860 84 -2300 180/05 RMK AO2
14926KSTC STC20060209080509602/09/06 08:05:31  5-MIN KSTC 091405Z 17006KT 10SM CLR M12/M15 A3010 860 80 -2200 170/06 RMK AO2
14926KSTC STC20060209081009602/09/06 08:10:31  5-MIN KSTC 091410Z 17006KT 10SM CLR M12/M15 A3010 860 76 -2200 170/06 RMK AO2
14926KSTC STC20060209081509602/09/06 08:15:31  5-MIN KSTC 091415Z 16006KT 10SM CLR M12/M15 A3009 870 76 -2200 160/06 RMK AO2
14926KSTC STC20060209082009602/09/06 08:20:31  5-MIN KSTC 091420Z 15007KT 10SM CLR M12/M15 A3009 870 76 -2200 150/07 RMK AO2
14926KSTC STC20060209082509602/09/06 08:25:31  5-MIN KSTC 091425Z 13008KT 10SM CLR M12/M14 A3008 880 80 -2200 130/08 RMK AO2
14926KSTC STC20060209083009602/09/06 08:30:31  5-MIN KSTC 091430Z 13008KT 10SM CLR M12/M15 A3008 880 76 -2200 130/08 RMK AO2
14926KSTC STC20060209083509602/09/06 08:35:31  5-MIN KSTC 091435Z 13009KT 10SM CLR M12/M15 A3007 880 76 -2100 130/09 RMK AO2
14926KSTC STC20060209084009602/09/06 08:40:31  5-MIN KSTC 091440Z 14009KT 10SM CLR M12/M15 A3007 890 76 -2100 130/09 RMK AO2
14926KSTC STC20060209084509602/09/06 08:45:31  5-MIN KSTC 091445Z 14010KT 10SM CLR M12/M14 A3007 890 80 -2100 130/10 RMK AO2
14926KSTC STC20060209085011902/09/06 08:50:31  5-MIN KSTC 091450Z 15011KT 10SM CLR M12/M14 A3007 890 80 -2100 150/11 RMK AO2 SLP213 T11171144 56030
14926KSTC STC20060209085509602/09/06 08:55:31  5-MIN KSTC 091455Z 16010KT 10SM CLR M12/M14 A3006 890 80 -2100 150/10 RMK AO2
14926KSTC STC20060209090009602/09/06 09:00:31  5-MIN KSTC 091500Z 15010KT 10SM CLR M11/M14 A3006 900 77 -2100 150/10 RMK AO2
14926KSTC STC20060209090509602/09/06 09:05:31  5-MIN KSTC 091505Z 16009KT 10SM CLR M11/M14 A3007 890 80 -2100 160/09 RMK AO2
14926KSTC STC20060209091009602/09/06 09:10:31  5-MIN KSTC 091510Z 17010KT 10SM CLR M11/M14 A3007 890 80 -2100 170/10 RMK AO2
14926KSTC STC20060209091509602/09/06 09:15:31  5-MIN KSTC 091515Z 17009KT 10SM CLR M11/M14 A3007 890 77 -2000 170/09 RMK AO2
14926KSTC STC20060209092009602/09/06 09:20:31  5-MIN KSTC 091520Z 17008KT 10SM CLR M11/M14 A3006 900 77 -2000 170/08 RMK AO2
14926KSTC STC20060209092509602/09/06 09:25:31  5-MIN KSTC 091525Z 17010KT 10SM CLR M11/M14 A3006 900 77 -2000 170/10 RMK AO2
14926KSTC STC20060209093009902/09/06 09:30:31  5-MIN KSTC 091530Z 17009KT 10SM FEW100 M11/M14 A3006 900 77 -2000 170/09 RMK AO2
14926KSTC STC20060209093509902/09/06 09:35:31  5-MIN KSTC 091535Z 16008KT 10SM SCT100 M10/M14 A3006 900 73 -1900 160/08 RMK AO2
14926KSTC STC20060209094009902/09/06 09:40:31  5-MIN KSTC 091540Z 19010KT 10SM SCT100 M10/M14 A3006 890 73 -1900 190/10 RMK AO2
14926KSTC STC20060209094509902/09/06 09:45:31  5-MIN KSTC 091545Z 19010KT 10SM SCT090 M10/M13 A3006 890 77 -1900 190/10 RMK AO2
14926KSTC STC20060209095012302/09/06 09:50:31  5-MIN KSTC 091550Z 19012KT 10SM SCT070 SCT100 M09/M13 A3006 890 73 -1800 190/12 RMK AO2 SLP213 T10941133
14926KSTC STC20060209095510602/09/06 09:55:31  5-MIN KSTC 091555Z 18010KT 10SM BKN065 BKN100 M09/M13 A3006 890 73 -1800 180/10 RMK AO2
14926KSTC STC20060209100010602/09/06 10:00:31  5-MIN KSTC 091600Z 19010KT 10SM BKN065 BKN100 M09/M13 A3007 890 73 -1800 180/10 RMK AO2
14926KSTC STC20060209100509902/09/06 10:05:31  5-MIN KSTC 091605Z 18010KT 10SM BKN065 M09/M13 A3006 900 73 -1800 180/10 RMK AO2
14926KSTC STC20060209101009902/09/06 10:10:31  5-MIN KSTC 091610Z 17009KT 10SM BKN065 M09/M13 A3005 900 73 -1800 170/09 RMK AO2
14926KSTC STC20060209101510602/09/06 10:15:31  5-MIN KSTC 091615Z 16011KT 10SM BKN065 M09/M13 A3004 910 74 -1700 160/11 RMK AO2 PRESFR
14926KSTC STC20060209102010602/09/06 10:20:31  5-MIN KSTC 091620Z 16011KT 10SM BKN065 M09/M13 A3003 920 70 -1700 150/11 RMK AO2 PRESFR
14926KSTC STC20060209102509902/09/06 10:25:31  5-MIN KSTC 091625Z 16011KT 10SM BKN070 M09/M13 A3003 920 70 -1700 160/11 RMK AO2
14926KSTC STC20060209103009902/09/06 10:30:31  5-MIN KSTC 091630Z 17011KT 10SM SCT070 M09/M13 A3003 930 74 -1700 170/11 RMK AO2
14926KSTC STC20060209103509902/09/06 10:35:31  5-MIN KSTC 091635Z 16013KT 10SM FEW070 M09/M13 A3002 940 74 -1700 160/13 RMK AO2
14926KSTC STC20060209104009902/09/06 10:40:31  5-MIN KSTC 091640Z 16011KT 10SM SCT065 M08/M13 A3001 940 70 -1600 160/11 RMK AO2
14926KSTC STC20060209104509902/09/06 10:45:31  5-MIN KSTC 091645Z 17012KT 10SM SCT060 M08/M13 A3001 940 70 -1600 170/12 RMK AO2
14926KSTC STC20060209105012302/09/06 10:50:31  5-MIN KSTC 091650Z 17011KT 10SM FEW029 BKN060 M08/M13 A3002 940 70 -1600 170/11 RMK AO2 SLP196 T10831128
14926KSTC STC20060209105510502/09/06 10:55:31  5-MIN KSTC 091655Z 17012KT 9SM BKN029 BKN060 M08/M13 A3001 940 70 -1600 170/12 RMK AO2
14926KSTC STC20060209110011602/09/06 11:00:31  5-MIN KSTC 091700Z 16012KT 4SM -SN BKN031 M08/M13 A3001 950 70 -1600 160/12 RMK AO2 SNB1658 P0000
14926KSTC STC20060209110512702/09/06 11:05:31  5-MIN KSTC 091705Z 17013KT 1 1/2SM -SN BKN024 OVC030 M08/M12 A3000 950 74 -1600 160/13 RMK AO2 SNB1658 P0000
14926KSTC STC20060209111012302/09/06 11:10:31  5-MIN KSTC 091710Z 17012KT 1SM -SN BKN019 OVC030 M08/M12 A3000 950 74 -1600 170/12 RMK AO2 SNB1658 P0000
14926KSTC STC20060209111513202/09/06 11:15:31  5-MIN KSTC 091715Z 17012KT 3/4SM -SN BKN008 BKN017 OVC030 M08/M12 A3000 960 77 -1600 160/12 RMK AO2 SNB1658 P0000
14926KSTC STC20060209112012502/09/06 11:20:31  5-MIN KSTC 091720Z 17013KT 3/4SM -SN BKN008 OVC030 M08/M11 A2999 960 80 -1600 170/13 RMK AO2 SNB1658 P0000
14926KSTC STC20060209112511702/09/06 11:25:31  5-MIN KSTC 091725Z 16013KT 3/4SM -SN VV008 M08/M11 A2999 970 80 -1600 160/13 RMK AO2 SNB1658 P0000
14926KSTC STC20060209113011502/09/06 11:30:31  5-MIN KSTC 091730Z 17014KT 1SM -SN VV009 M08/M11 A2998 970 80 -1600 170/14 RMK AO2 SNB1658 P0000
14926KSTC STC20060209113511602/09/06 11:35:31  5-MIN KSTC 091735Z 17013KT 2SM -SN OVC010 M08/M11 A2998 970 77 -1500 170/13 RMK AO2 SNB1658 P0000
14926KSTC STC20060209114012002/09/06 11:40:31  5-MIN KSTC 091740Z 17013KT 2 1/2SM -SN OVC012 M08/M11 A2999 970 77 -1500 170/13 RMK AO2 SNB1658 P0000
14926KSTC STC20060209114511602/09/06 11:45:31  5-MIN KSTC 091745Z 17012KT 2SM -SN OVC014 M08/M11 A2999 960 80 -1500 170/12 RMK AO2 SNB1658 P0000
14926KSTC STC20060209115016802/09/06 11:50:31  5-MIN KSTC 091750Z 18011KT 1 1/2SM -SN BKN016 OVC029 M08/M11 A2999 960 80 -1500 180/11 RMK AO2 SNB1658 SLP186 P0000 60000 T10781106 11078 21144 56032
14926KSTC STC20060209115511502/09/06 11:55:31  5-MIN KSTC 091755Z 18012KT 1SM -SN BKN016 OVC031 M08/M11 A2999 960 80 -1500 180/12 RMK AO2 P0000
14926KSTC STC20060209120012402/09/06 12:00:31  5-MIN KSTC 091800Z 18012KT 3/4SM -SN BKN018 BKN026 OVC033 M08/M11 A2999 960 80 -1500 180/12 RMK AO2 P0000
14926KSTC STC20060209120512702/09/06 12:05:31  5-MIN KSTC 091805Z 19012KT 3/4SM -SN BR BKN014 BKN026 OVC033 M08/M10 A2998 970 84 -1500 180/12 RMK AO2 P0000
14926KSTC STC20060209121012702/09/06 12:10:31  5-MIN KSTC 091810Z 18012KT 3/4SM -SN BR BKN010 BKN018 OVC027 M08/M10 A2998 970 84 -1500 180/12 RMK AO2 P0000
14926KSTC STC20060209121512702/09/06 12:15:31  5-MIN KSTC 091815Z 18011KT 3/4SM -SN BR BKN008 BKN027 OVC033 M08/M10 A2997 980 84 -1500 170/11 RMK AO2 P0001
14926KSTC STC20060209122012502/09/06 12:20:31  5-MIN KSTC 091820Z 18010KT 1SM -SN BR BKN012 BKN027 OVC033 M08/M10 A2997 980 84 -1500 170/10 RMK AO2 P0001
14926KSTC STC20060209122511902/09/06 12:25:31  5-MIN KSTC 091825Z 17012KT 1 1/4SM -SN BKN016 OVC027 M07/M10 A2996 990 81 -1400 170/12 RMK AO2 P0001
14926KSTC STC20060209123011202/09/06 12:30:31  5-MIN KSTC 091830Z 18013KT 1 1/4SM -SN OVC014 M07/M10 A2996 990 81 -1400 170/13 RMK AO2 P0001
14926KSTC STC20060209123511502/09/06 12:35:31  5-MIN KSTC 091835Z 17012KT 1SM -SN VV012 M07/M10 A2995 1000 81 -1400 160/12 RMK AO2 PRESFR P0001
14926KSTC STC20060209124011302/09/06 12:40:31  5-MIN KSTC 091840Z 18013KT 3/4SM -SN BR VV011 M07/M09 A2994 1010 84 -1400 170/13 RMK AO2 P0001
14926KSTC STC20060209124511402/09/06 12:45:31  5-MIN KSTC 091845Z 17014KT 1/2SM SN FZFG VV010 M07/M09 A2994 1010 84 -1400 170/14 RMK AO2 P0001
14926KSTC STC20060209125013102/09/06 12:50:31  5-MIN KSTC 091850Z 18011KT 1/2SM SN FZFG VV008 M07/M09 A2993 1010 84 -1400 170/11 RMK AO2 SLP168 P0001 T10721094
14926KSTC STC20060209125511402/09/06 12:55:31  5-MIN KSTC 091855Z 17011KT 1/2SM SN FZFG VV006 M07/M09 A2993 1020 88 -1400 170/11 RMK AO2 P0000
14926KSTC STC20060209130012002/09/06 13:00:31  5-MIN KSTC 091900Z 18010G18KT 1/4SM SN FZFG VV004 M07/M09 A2993 1020 88 -1400 170/10G18 RMK AO2 P0000
14926KSTC STC20060209130511502/09/06 13:05:31  5-MIN KSTC 091905Z 18011KT 1/4SM +SN FZFG VV003 M07/M09 A2993 1020 88 -1400 180/11 RMK AO2 P0000
14926KSTC STC20060209131011402/09/06 13:10:31  5-MIN KSTC 091910Z 18012KT 1/4SM SN FZFG VV003 M07/M09 A2993 1010 88 -1400 180/12 RMK AO2 P0000
14926KSTC STC20060209131511402/09/06 13:15:31  5-MIN KSTC 091915Z 18012KT 1/2SM SN FZFG VV004 M07/M09 A2993 1020 88 -1400 180/12 RMK AO2 P0002
14926KSTC STC20060209132011502/09/06 13:20:31  5-MIN KSTC 091920Z 18010KT 1/2SM -SN FZFG VV004 M07/M09 A2993 1020 88 -1400 180/10 RMK AO2 P0002
14926KSTC STC20060209132512102/09/06 13:25:31  5-MIN KSTC 091925Z 18012KT 3/4SM -SN BR FEW002 OVC008 M07/M09 A2993 1020 88 -1400 170/12 RMK AO2 P0002
14926KSTC STC20060209133011102/09/06 13:30:31  5-MIN KSTC 091930Z 18010KT 1SM -SN BR VV013 M07/M09 A2992 1020 84 -1400 170/10 RMK AO2 P0002
14926KSTC STC20060209133511602/09/06 13:35:31  5-MIN KSTC 091935Z 17012KT 1 1/4SM -SN BR OVC017 M07/M09 A2992 1030 84 -1400 170/12 RMK AO2 P0002
14926KSTC STC20060209134011302/09/06 13:40:31  5-MIN KSTC 091940Z 17012KT 1 1/2SM -SN OVC017 M07/M09 A2991 1030 81 -1300 170/12 RMK AO2 P0002
14926KSTC STC20060209134511302/09/06 13:45:31  5-MIN KSTC 091945Z 17011KT 2 1/2SM -SN OVC019 M07/M09 A2991 1040 81 -1300 170/11 RMK AO2 P0002
14926KSTC STC20060209135014302/09/06 13:50:31  5-MIN KSTC 091950Z 17011KT 3SM -SN BR FEW016 BKN021 OVC028 M07/M09 A2990 1040 84 -1300 170/11 RMK AO2 SLP158 P0002 T10671089
14926KSTC STC20060209135511902/09/06 13:55:31  5-MIN KSTC 091955Z 17012KT 3SM -SN BR SCT016 OVC021 M07/M09 A2990 1050 84 -1300 170/12 RMK AO2 P0000
14926KSTC STC20060209140011902/09/06 14:00:31  5-MIN KSTC 092000Z 18010KT 4SM -SN BR BKN014 OVC021 M07/M09 A2989 1050 84 -1300 180/10 RMK AO2 P0000
14926KSTC STC20060209140511902/09/06 14:05:31  5-MIN KSTC 092005Z 17013KT 3SM -SN BR BKN014 OVC019 M07/M09 A2989 1050 84 -1300 170/13 RMK AO2 P0000
14926KSTC STC20060209141011602/09/06 14:10:31  5-MIN KSTC 092010Z 17013KT 2 1/2SM -SN BR OVC014 M07/M09 A2989 1050 84 -1300 170/13 RMK AO2 P0000
14926KSTC STC20060209141511202/09/06 14:15:31  5-MIN KSTC 092015Z 18012KT 2SM -SN BR OVC014 M07/M09 A2989 1060 84 -1300 180/12 RMK AO2 P0000
14926KSTC STC20060209142011302/09/06 14:20:31  5-MIN KSTC 092020Z 18011KT 1 3/4SM -SN OVC014 M06/M09 A2989 1060 81 -1200 180/11 RMK AO2 P0000
14926KSTC STC20060209142511602/09/06 14:25:31  5-MIN KSTC 092025Z 18011KT 1 1/2SM -SN BR OVC014 M06/M08 A2988 1060 84 -1200 180/11 RMK AO2 P0000
14926KSTC STC20060209143011602/09/06 14:30:31  5-MIN KSTC 092030Z 18012KT 1 3/4SM -SN BR OVC014 M06/M08 A2988 1070 84 -1200 180/12 RMK AO2 P0000
14926KSTC STC20060209143511202/09/06 14:35:31  5-MIN KSTC 092035Z 19010KT 2SM -SN BR OVC014 M06/M08 A2988 1070 84 -1200 180/10 RMK AO2 P0000
14926KSTC STC20060209144011602/09/06 14:40:31  5-MIN KSTC 092040Z 19011KT 2 1/2SM -SN BR OVC014 M06/M08 A2988 1070 84 -1200 190/11 RMK AO2 P0000
14926KSTC STC20060209144511602/09/06 14:45:31  5-MIN KSTC 092045Z 19013KT 2 1/2SM -SN BR OVC014 M06/M08 A2988 1070 84 -1200 180/13 RMK AO2 P0000
14926KSTC STC20060209145014102/09/06 14:50:31  5-MIN KSTC 092050Z 18009KT 4SM -SN BR OVC014 M06/M08 A2988 1070 84 -1200 180/09 RMK AO2 SLP147 P0000 60003 T10611083 58026
14926KSTC STC20060209145510902/09/06 14:55:31  5-MIN KSTC 092055Z 19010KT 5SM -SN OVC014 M06/M08 A2987 1070 81 -1100 180/10 RMK AO2 P0000
14926KSTC STC20060209150010902/09/06 15:00:31  5-MIN KSTC 092100Z 19011KT 4SM -SN OVC014 M06/M08 A2987 1070 81 -1100 190/11 RMK AO2 P0000
14926KSTC STC20060209150511302/09/06 15:05:31  5-MIN KSTC 092105Z 19013KT 2 1/2SM -SN OVC014 M06/M08 A2987 1070 81 -1100 190/13 RMK AO2 P0000
14926KSTC STC20060209151011302/09/06 15:10:31  5-MIN KSTC 092110Z 19013KT 1 1/2SM -SN OVC014 M06/M08 A2987 1070 81 -1100 180/13 RMK AO2 P0000
14926KSTC STC20060209151512002/09/06 15:15:31  5-MIN KSTC 092115Z 19011KT 1 1/4SM -SN BKN014 OVC021 M06/M08 A2987 1070 81 -1100 190/11 RMK AO2 P0000
14926KSTC STC20060209152011602/09/06 15:20:31  5-MIN KSTC 092120Z 19013KT 1SM -SN BKN014 OVC021 M06/M08 A2987 1070 81 -1100 190/13 RMK AO2 P0000
14926KSTC STC20060209152512602/09/06 15:25:31  5-MIN KSTC 092125Z 19011KT 1SM -SN BR BKN014 BKN021 OVC027 M06/M08 A2987 1070 84 -1100 190/11 RMK AO2 P0000
14926KSTC STC20060209153012302/09/06 15:30:31  5-MIN KSTC 092130Z 18011KT 1 1/2SM -SN BR SCT014 OVC024 M06/M08 A2987 1080 84 -1100 180/11 RMK AO2 P0000
14926KSTC STC20060209153511902/09/06 15:35:31  5-MIN KSTC 092135Z 19010KT 2SM -SN BR FEW014 OVC024 M06/M08 A2987 1070 84 -1100 190/10 RMK AO2 P0000
14926KSTC STC20060209154012802/09/06 15:40:31  5-MIN KSTC 092140Z 18010KT 3SM HZ FEW012 BKN019 OVC024 M06/M08 A2987 1070 81 -1100 180/10 RMK AO2 SNE40 P0000
14926KSTC STC20060209154512602/09/06 15:45:31  5-MIN KSTC 092145Z AUTO 19011KT 5SM HZ BKN017 OVC024 M06/M08 A2987 1070 81 -1100 190/11 RMK AO2 SNE40 P0000
14926KSTC STC20060209155014002/09/06 15:50:31  5-MIN KSTC 092150Z AUTO 19012KT 7SM BKN015 OVC024 M06/M08 A2987 1070 81 -1100 190/12 RMK AO2 SNE40 SLP145 P0000 T10561083
14926KSTC STC20060209155511102/09/06 15:55:31  5-MIN KSTC 092155Z AUTO 19011KT 8SM BKN015 OVC024 M06/M08 A2987 1070 81 -1100 190/11 RMK AO2
14926KSTC STC20060209160010402/09/06 16:00:31  5-MIN KSTC 092200Z AUTO 19010KT 7SM OVC015 M06/M08 A2987 1070 81 -1100 190/10 RMK AO2
14926KSTC STC20060209160510702/09/06 16:05:31  5-MIN KSTC 092205Z AUTO 18010KT 6SM HZ OVC015 M06/M08 A2987 1070 81 -1100 180/10 RMK AO2
14926KSTC STC20060209161010402/09/06 16:10:31  5-MIN KSTC 092210Z AUTO 19010KT 7SM OVC013 M06/M08 A2987 1080 81 -1100 190/10 RMK AO2
14926KSTC STC20060209161510402/09/06 16:15:31  5-MIN KSTC 092215Z AUTO 19010KT 7SM OVC013 M06/M08 A2987 1080 81 -1100 190/10 RMK AO2
14926KSTC STC20060209162010702/09/06 16:20:31  5-MIN KSTC 092220Z AUTO 19009KT 6SM HZ OVC013 M06/M08 A2986 1080 81 -1100 190/09 RMK AO2
14926KSTC STC20060209162510402/09/06 16:25:31  5-MIN KSTC 092225Z AUTO 19010KT 7SM OVC013 M06/M08 A2986 1080 81 -1100 190/10 RMK AO2
14926KSTC STC20060209163010402/09/06 16:30:31  5-MIN KSTC 092230Z AUTO 18010KT 8SM OVC013 M06/M08 A2986 1080 81 -1100 180/10 RMK AO2
14926KSTC STC20060209163510402/09/06 16:35:31  5-MIN KSTC 092235Z AUTO 19011KT 8SM OVC013 M06/M08 A2986 1080 81 -1100 190/11 RMK AO2
14926KSTC STC20060209164010402/09/06 16:40:31  5-MIN KSTC 092240Z AUTO 19009KT 8SM OVC013 M06/M08 A2986 1080 84 -1100 180/09 RMK AO2
14926KSTC STC20060209164510402/09/06 16:45:31  5-MIN KSTC 092245Z AUTO 18010KT 8SM OVC011 M06/M08 A2986 1090 84 -1100 180/10 RMK AO2
14926KSTC STC20060209165012402/09/06 16:50:31  5-MIN KSTC 092250Z AUTO 18008KT 4SM BR OVC011 M06/M08 A2985 1090 84 -1100 180/08 RMK AO2 SLP139 T10561078
14926KSTC STC20060209165510702/09/06 16:55:31  5-MIN KSTC 092255Z AUTO 18008KT 4SM BR OVC011 M06/M08 A2985 1090 84 -1100 180/08 RMK AO2
14926KSTC STC20060209170010402/09/06 17:00:31  5-MIN KSTC 092300Z AUTO 19008KT 8SM OVC011 M06/M08 A2985 1090 84 -1100 190/08 RMK AO2
14926KSTC STC20060209170510402/09/06 17:05:31  5-MIN KSTC 092305Z AUTO 19008KT 8SM OVC011 M06/M08 A2986 1090 84 -1100 180/08 RMK AO2
14926KSTC STC20060209171010402/09/06 17:10:31  5-MIN KSTC 092310Z AUTO 18009KT 8SM OVC011 M06/M08 A2986 1080 84 -1100 180/09 RMK AO2
14926KSTC STC20060209171510402/09/06 17:15:31  5-MIN KSTC 092315Z AUTO 19008KT 8SM OVC011 M06/M08 A2986 1090 84 -1100 180/08 RMK AO2
14926KSTC STC20060209172010402/09/06 17:20:31  5-MIN KSTC 092320Z AUTO 19008KT 8SM OVC011 M06/M08 A2986 1090 84 -1100 190/08 RMK AO2
14926KSTC STC20060209172510402/09/06 17:25:31  5-MIN KSTC 092325Z AUTO 19007KT 7SM OVC011 M06/M08 A2985 1090 84 -1100 190/07 RMK AO2
14926KSTC STC20060209173010402/09/06 17:30:31  5-MIN KSTC 092330Z AUTO 19007KT 7SM OVC011 M05/M08 A2985 1090 81 -1000 190/07 RMK AO2
14926KSTC STC20060209173510402/09/06 17:35:31  5-MIN KSTC 092335Z AUTO 19006KT 7SM OVC011 M05/M07 A2985 1090 84 -1000 190/06 RMK AO2
14926KSTC STC20060209174010702/09/06 17:40:31  5-MIN KSTC 092340Z AUTO 20006KT 6SM BR OVC011 M05/M07 A2985 1090 84 -1000 200/06 RMK AO2
14926KSTC STC20060209174510402/09/06 17:45:31  5-MIN KSTC 092345Z AUTO 20006KT 7SM OVC011 M05/M07 A2985 1090 84 -1000 200/06 RMK AO2
14926KSTC STC20060209175014502/09/06 17:50:31  5-MIN KSTC 092350Z AUTO 21006KT 7SM OVC011 M05/M07 A2985 1090 84 -1000 210/06 RMK AO2 SLP137 60003 T10501072 11050 21078 56036
14926KSTC STC20060209175510402/09/06 17:55:31  5-MIN KSTC 092355Z AUTO 21006KT 7SM OVC011 M05/M07 A2985 1090 84 -1000 200/06 RMK AO2
14926KSTC STC20060209180010402/09/06 18:00:31  5-MIN KSTC 100000Z AUTO 21007KT 7SM OVC009 M05/M07 A2985 1090 88 -1000 210/07 RMK AO2
14926KSTC STC20060209180510702/09/06 18:05:31  5-MIN KSTC 100005Z AUTO 21007KT 6SM BR OVC009 M05/M07 A2985 1090 88 -1000 210/07 RMK AO2
14926KSTC STC20060209181010602/09/06 18:10:31  5-MIN KSTC 100010Z AUTO 21007KT 6SM BR OVC009 M04/M07 A2985 1090 84 -900 210/07 RMK AO2
14926KSTC STC20060209181510602/09/06 18:15:31  5-MIN KSTC 100015Z AUTO 22007KT 6SM BR OVC009 M04/M07 A2985 1090 84 -900 210/07 RMK AO2
14926KSTC STC20060209182010602/09/06 18:20:31  5-MIN KSTC 100020Z AUTO 22007KT 6SM BR OVC009 M04/M07 A2985 1090 84 -900 210/07 RMK AO2
14926KSTC STC20060209182510602/09/06 18:25:31  5-MIN KSTC 100025Z AUTO 21007KT 6SM BR OVC009 M04/M07 A2985 1090 84 -900 210/07 RMK AO2
14926KSTC STC20060209183010602/09/06 18:30:31  5-MIN KSTC 100030Z AUTO 21007KT 6SM BR OVC009 M04/M07 A2985 1090 84 -900 200/07 RMK AO2
14926KSTC STC20060209183510602/09/06 18:35:31  5-MIN KSTC 100035Z AUTO 21006KT 6SM BR OVC009 M04/M07 A2985 1090 84 -900 210/06 RMK AO2
14926KSTC STC20060209184010602/09/06 18:40:31  5-MIN KSTC 100040Z AUTO 21007KT 6SM BR OVC009 M04/M07 A2985 1090 84 -900 200/07 RMK AO2
14926KSTC STC20060209184510602/09/06 18:45:31  5-MIN KSTC 100045Z AUTO 21006KT 6SM BR OVC009 M04/M06 A2985 1100 88 -900 210/06 RMK AO2
14926KSTC STC20060209185012302/09/06 18:50:31  5-MIN KSTC 100050Z AUTO 21006KT 6SM BR OVC009 M04/M06 A2985 1100 88 -900 210/06 RMK AO2 SLP135 T10441061
14926KSTC STC20060209185510602/09/06 18:55:31  5-MIN KSTC 100055Z AUTO 21006KT 6SM BR OVC009 M04/M06 A2985 1100 88 -900 210/06 RMK AO2
14926KSTC STC20060209190010602/09/06 19:00:31  5-MIN KSTC 100100Z AUTO 21005KT 6SM BR OVC009 M04/M06 A2985 1100 88 -900 210/05 RMK AO2
14926KSTC STC20060209190510602/09/06 19:05:31  5-MIN KSTC 100105Z AUTO 21006KT 6SM BR OVC009 M04/M06 A2985 1090 88 -900 210/06 RMK AO2
14926KSTC STC20060209191010602/09/06 19:10:31  5-MIN KSTC 100110Z AUTO 21006KT 6SM BR OVC009 M04/M06 A2984 1100 88 -900 210/06 RMK AO2
14926KSTC STC20060209191511302/09/06 19:15:31  5-MIN KSTC 100115Z AUTO 21006KT 6SM BR BKN009 OVC022 M04/M06 A2984 1100 88 -900 210/06 RMK AO2
14926KSTC STC20060209192011302/09/06 19:20:31  5-MIN KSTC 100120Z AUTO 21005KT 6SM BR BKN009 OVC020 M04/M06 A2984 1100 88 -900 210/05 RMK AO2
14926KSTC STC20060209192511302/09/06 19:25:31  5-MIN KSTC 100125Z AUTO 21006KT 6SM BR SCT009 OVC020 M04/M06 A2984 1100 88 -900 210/06 RMK AO2
14926KSTC STC20060209193011302/09/06 19:30:31  5-MIN KSTC 100130Z AUTO 22006KT 6SM BR FEW009 OVC018 M04/M06 A2984 1100 85 -900 210/06 RMK AO2
14926KSTC STC20060209193511302/09/06 19:35:31  5-MIN KSTC 100135Z AUTO 21005KT 6SM BR FEW009 OVC018 M04/M06 A2984 1100 85 -900 210/05 RMK AO2
14926KSTC STC20060209194010602/09/06 19:40:31  5-MIN KSTC 100140Z AUTO 21005KT 6SM BR OVC016 M04/M06 A2983 1110 85 -900 210/05 RMK AO2
14926KSTC STC20060209194510602/09/06 19:45:31  5-MIN KSTC 100145Z AUTO 21005KT 6SM BR OVC016 M04/M06 A2983 1110 88 -900 210/05 RMK AO2
14926KSTC STC20060209195012302/09/06 19:50:31  5-MIN KSTC 100150Z AUTO 21005KT 6SM BR OVC016 M04/M06 A2983 1110 88 -900 210/05 RMK AO2 SLP129 T10391056
14926KSTC STC20060209195510602/09/06 19:55:31  5-MIN KSTC 100155Z AUTO 20005KT 6SM BR OVC016 M04/M06 A2982 1120 88 -800 190/05 RMK AO2
14926KSTC STC20060209200010602/09/06 20:00:31  5-MIN KSTC 100200Z AUTO 21006KT 6SM BR OVC014 M04/M06 A2983 1110 88 -800 210/06 RMK AO2
14926KSTC STC20060209200510602/09/06 20:05:31  5-MIN KSTC 100205Z AUTO 21005KT 6SM BR OVC014 M04/M06 A2983 1110 88 -800 210/05 RMK AO2
14926KSTC STC20060209201010602/09/06 20:10:31  5-MIN KSTC 100210Z AUTO 21005KT 6SM BR OVC014 M04/M06 A2982 1120 88 -800 210/05 RMK AO2
14926KSTC STC20060209201511302/09/06 20:15:31  5-MIN KSTC 100215Z AUTO 20005KT 6SM BR BKN014 OVC043 M04/M06 A2982 1120 88 -800 200/05 RMK AO2
14926KSTC STC20060209202011302/09/06 20:20:31  5-MIN KSTC 100220Z AUTO 19005KT 6SM BR BKN012 OVC043 M04/M06 A2982 1120 88 -800 180/05 RMK AO2
14926KSTC STC20060209202511302/09/06 20:25:31  5-MIN KSTC 100225Z AUTO 20005KT 6SM BR SCT012 OVC045 M04/M06 A2982 1120 88 -800 200/05 RMK AO2
14926KSTC STC20060209203011302/09/06 20:30:31  5-MIN KSTC 100230Z AUTO 20004KT 6SM BR SCT012 OVC045 M04/M06 A2982 1120 88 -800 190/04 RMK AO2
14926KSTC STC20060209203511302/09/06 20:35:31  5-MIN KSTC 100235Z AUTO 20004KT 6SM BR FEW012 OVC045 M04/M06 A2982 1120 88 -800 200/04 RMK AO2
14926KSTC STC20060209204011302/09/06 20:40:31  5-MIN KSTC 100240Z AUTO 20003KT 6SM BR FEW012 OVC045 M04/M06 A2982 1120 88 -800 200/03 RMK AO2
14926KSTC STC20060209204510602/09/06 20:45:31  5-MIN KSTC 100245Z AUTO 00000KT 6SM BR OVC045 M04/M06 A2982 1120 88 -800 000/00 RMK AO2
14926KSTC STC20060209205013602/09/06 20:50:31  5-MIN KSTC 100250Z AUTO 20003KT 5SM BR FEW034 OVC043 M04/M06 A2981 1130 88 -800 200/03 RMK AO2 SLP123 T10391056 56009
14926KSTC STC20060209205511302/09/06 20:55:31  5-MIN KSTC 100255Z AUTO VRB03KT 6SM BR SCT034 OVC043 M04/M06 A2981 1130 88 -800 VRB/03 RMK AO2
14926KSTC STC20060209210011302/09/06 21:00:31  5-MIN KSTC 100300Z AUTO 00000KT 6SM BR BKN031 OVC043 M04/M06 A2981 1130 88 -800 000/00 RMK AO2
14926KSTC STC20060209210511302/09/06 21:05:31  5-MIN KSTC 100305Z AUTO 21003KT 6SM BR BKN031 OVC041 M04/M06 A2981 1130 88 -800 210/03 RMK AO2
14926KSTC STC20060209211011302/09/06 21:10:31  5-MIN KSTC 100310Z AUTO 23003KT 6SM BR BKN031 OVC041 M04/M06 A2981 1130 88 -800 220/03 RMK AO2
14926KSTC STC20060209211512002/09/06 21:15:31  5-MIN KSTC 100315Z AUTO 22004KT 6SM BR BKN027 BKN033 OVC043 M03/M05 A2980 1130 88 -800 220/04 RMK AO2
14926KSTC STC20060209212011302/09/06 21:20:31  5-MIN KSTC 100320Z AUTO 22005KT 6SM BR BKN027 OVC033 M03/M05 A2980 1140 88 -700 220/05 RMK AO2
14926KSTC STC20060209212511302/09/06 21:25:31  5-MIN KSTC 100325Z AUTO 22005KT 6SM BR BKN025 OVC030 M03/M05 A2980 1140 88 -700 220/05 RMK AO2
14926KSTC STC20060209213010602/09/06 21:30:31  5-MIN KSTC 100330Z AUTO 23005KT 6SM BR OVC025 M03/M05 A2980 1140 88 -700 230/05 RMK AO2
14926KSTC STC20060209213511302/09/06 21:35:31  5-MIN KSTC 100335Z AUTO 22005KT 6SM BR BKN025 OVC032 M03/M05 A2980 1140 88 -700 220/05 RMK AO2
14926KSTC STC20060209214010602/09/06 21:40:31  5-MIN KSTC 100340Z AUTO 22005KT 6SM BR OVC027 M03/M05 A2980 1140 88 -700 220/05 RMK AO2
14926KSTC STC20060209214511302/09/06 21:45:31  5-MIN KSTC 100345Z AUTO 22005KT 6SM BR BKN025 OVC030 M03/M05 A2980 1140 88 -700 220/05 RMK AO2
14926KSTC STC20060209215013702/09/06 21:50:31  5-MIN KSTC 100350Z AUTO 22005KT 6SM BR BKN025 BKN030 OVC038 M03/M05 A2980 1140 85 -700 220/05 RMK AO2 SLP116 T10281050
14926KSTC STC20060209215511302/09/06 21:55:31  5-MIN KSTC 100355Z AUTO 23005KT 6SM BR BKN027 OVC038 M03/M05 A2980 1140 88 -700 230/05 RMK AO2
14926KSTC STC20060209220011702/09/06 22:00:31  5-MIN KSTC 100400Z AUTO 23006KT 7SM SCT027 BKN040 OVC046 M03/M05 A2980 1140 85 -700 230/06 RMK AO2
14926KSTC STC20060209220511702/09/06 22:05:31  5-MIN KSTC 100405Z AUTO 23006KT 7SM SCT027 BKN038 OVC046 M03/M05 A2980 1140 85 -700 230/06 RMK AO2
14926KSTC STC20060209221011702/09/06 22:10:31  5-MIN KSTC 100410Z AUTO 24006KT 7SM FEW025 BKN038 OVC045 M03/M05 A2980 1140 85 -700 230/06 RMK AO2
14926KSTC STC20060209221511702/09/06 22:15:31  5-MIN KSTC 100415Z AUTO 24006KT 7SM FEW023 BKN038 OVC045 M03/M05 A2980 1140 85 -700 240/06 RMK AO2
14926KSTC STC20060209222011702/09/06 22:20:31  5-MIN KSTC 100420Z AUTO 24006KT 7SM SCT021 BKN027 OVC045 M03/M05 A2980 1140 85 -700 230/06 RMK AO2
14926KSTC STC20060209222511702/09/06 22:25:31  5-MIN KSTC 100425Z AUTO 24006KT 7SM SCT021 BKN027 OVC045 M03/M05 A2980 1140 85 -700 240/06 RMK AO2
14926KSTC STC20060209223011702/09/06 22:30:31  5-MIN KSTC 100430Z AUTO 25006KT 7SM BKN023 BKN028 OVC040 M03/M05 A2980 1140 85 -700 240/06 RMK AO2
14926KSTC STC20060209223511702/09/06 22:35:31  5-MIN KSTC 100435Z AUTO 25007KT 7SM BKN023 BKN037 OVC044 M03/M04 A2980 1140 88 -700 250/07 RMK AO2
14926KSTC STC20060209224011702/09/06 22:40:31  5-MIN KSTC 100440Z AUTO 25006KT 8SM FEW015 BKN023 OVC044 M02/M04 A2980 1140 85 -600 250/06 RMK AO2
14926KSTC STC20060209224511702/09/06 22:45:31  5-MIN KSTC 100445Z AUTO 25006KT 8SM BKN018 BKN023 OVC044 M02/M04 A2980 1140 85 -600 250/06 RMK AO2
14926KSTC STC20060209225013402/09/06 22:50:31  5-MIN KSTC 100450Z AUTO 26006KT 8SM BKN018 BKN023 OVC044 M02/M04 A2980 1140 85 -600 260/06 RMK AO2 SLP114 T10221044
14926KSTC STC20060209225511702/09/06 22:55:31  5-MIN KSTC 100455Z AUTO 27008KT 8SM BKN018 BKN023 OVC046 M02/M04 A2979 1140 81 -500 270/08 RMK AO2
14926KSTC STC20060209230011702/09/06 23:00:31  5-MIN KSTC 100500Z AUTO 27008KT 9SM BKN018 BKN022 OVC046 M02/M04 A2979 1140 85 -500 270/08 RMK AO2
14926KSTC STC20060209230511802/09/06 23:05:31  5-MIN KSTC 100505Z AUTO 27009KT 10SM BKN018 BKN022 OVC049 M02/M04 A2979 1150 85 -500 270/09 RMK AO2
14926KSTC STC20060209231011802/09/06 23:10:31  5-MIN KSTC 100510Z AUTO 27008KT 10SM BKN018 BKN022 BKN049 M02/M04 A2979 1150 81 -500 260/08 RMK AO2
14926KSTC STC20060209231511102/09/06 23:15:31  5-MIN KSTC 100515Z AUTO 26008KT 10SM SCT018 BKN049 M02/M04 A2979 1150 85 -600 260/08 RMK AO2
14926KSTC STC20060209232011102/09/06 23:20:31  5-MIN KSTC 100520Z AUTO 26008KT 10SM SCT018 SCT049 M02/M04 A2979 1150 85 -600 260/08 RMK AO2
14926KSTC STC20060209232511802/09/06 23:25:31  5-MIN KSTC 100525Z AUTO 26008KT 10SM FEW018 SCT032 BKN049 M02/M04 A2979 1150 85 -600 260/08 RMK AO2
14926KSTC STC20060209233011102/09/06 23:30:31  5-MIN KSTC 100530Z AUTO 26008KT 10SM SCT032 BKN049 M02/M04 A2979 1150 81 -500 260/08 RMK AO2
14926KSTC STC20060209233510402/09/06 23:35:31  5-MIN KSTC 100535Z AUTO 26007KT 10SM BKN034 M02/M04 A2979 1150 85 -500 260/07 RMK AO2
14926KSTC STC20060209234010402/09/06 23:40:31  5-MIN KSTC 100540Z AUTO 26008KT 10SM BKN034 M02/M04 A2979 1150 85 -500 250/08 RMK AO2
14926KSTC STC20060209234510402/09/06 23:45:31  5-MIN KSTC 100545Z AUTO 26007KT 10SM BKN034 M01/M04 A2979 1150 81 -500 260/07 RMK AO2
14926KSTC STC20060209235014902/09/06 23:50:31  5-MIN KSTC 100550Z AUTO 26007KT 10SM OVC034 M01/M04 A2979 1150 81 -500 250/07 RMK AO2 SLP111 T10111039 11011 21050 410111183 58012
14926KSTC STC20060209235511102/09/06 23:55:31  5-MIN KSTC 100555Z AUTO 25007KT 10SM FEW022 OVC034 M01/M04 A2979 1150 81 -400 250/07 RMK AO2
14926KSTC STC20060210000011102/10/06 00:00:32  5-MIN KSTC 100600Z AUTO 25007KT 10SM FEW022 OVC034 M01/M03 A2979 1150 85 -400 250/07 RMK AO2
14926KSTC STC20060210000510402/10/06 00:05:31  5-MIN KSTC 100605Z AUTO 25006KT 10SM OVC036 M01/M04 A2979 1150 81 -400 240/06 RMK AO2
14926KSTC STC20060210001010402/10/06 00:10:31  5-MIN KSTC 100610Z AUTO 25006KT 10SM OVC036 M01/M03 A2979 1150 85 -400 250/06 RMK AO2
14926KSTC STC20060210001510402/10/06 00:15:31  5-MIN KSTC 100615Z AUTO 25007KT 10SM OVC036 M01/M03 A2978 1150 85 -400 250/07 RMK AO2
14926KSTC STC20060210002011102/10/06 00:20:31  5-MIN KSTC 100620Z AUTO 26007KT 10SM SCT030 OVC036 M01/M03 A2978 1150 85 -400 250/07 RMK AO2
14926KSTC STC20060210002511102/10/06 00:25:31  5-MIN KSTC 100625Z AUTO 25008KT 10SM BKN030 OVC036 M01/M03 A2978 1150 81 -400 250/08 RMK AO2
14926KSTC STC20060210003011102/10/06 00:30:31  5-MIN KSTC 100630Z AUTO 25009KT 10SM BKN030 OVC036 M01/M03 A2978 1160 81 -400 250/09 RMK AO2
14926KSTC STC20060210003511102/10/06 00:35:31  5-MIN KSTC 100635Z AUTO 26009KT 10SM BKN030 OVC036 M01/M03 A2978 1160 81 -400 250/09 RMK AO2
14926KSTC STC20060210004011102/10/06 00:40:31  5-MIN KSTC 100640Z AUTO 26009KT 10SM BKN030 OVC036 M01/M03 A2978 1160 81 -400 250/09 RMK AO2
14926KSTC STC20060210004511102/10/06 00:45:31  5-MIN KSTC 100645Z AUTO 25009KT 10SM BKN030 OVC050 M01/M03 A2978 1160 81 -400 250/09 RMK AO2
14926KSTC STC20060210005012802/10/06 00:50:31  5-MIN KSTC 100650Z AUTO 25009KT 10SM BKN030 OVC050 M01/M03 A2978 1160 81 -400 250/09 RMK AO2 SLP108 T10061033
14926KSTC STC20060210005511802/10/06 00:55:31  5-MIN KSTC 100655Z AUTO 25011KT 10SM FEW020 SCT030 OVC050 M01/M03 A2978 1150 81 -400 250/11 RMK AO2
14926KSTC STC20060210010011802/10/06 01:00:31  5-MIN KSTC 100700Z AUTO 25010KT 10SM SCT018 BKN030 OVC050 M01/M03 A2978 1150 85 -400 250/10 RMK AO2
14926KSTC STC20060210010511702/10/06 01:05:31  5-MIN KSTC 100705Z AUTO 26012KT 10SM BKN018 BKN026 OVC050 00/M03 A2978 1150 81 -300 260/12 RMK AO2
14926KSTC STC20060210011011702/10/06 01:10:31  5-MIN KSTC 100710Z AUTO 27012KT 10SM BKN016 BKN022 OVC050 00/M03 A2978 1150 81 -300 260/12 RMK AO2
14926KSTC STC20060210011512302/10/06 01:15:31  5-MIN KSTC 100715Z AUTO 28013G20KT 10SM SCT016 BKN022 OVC050 00/M03 A2979 1150 78 -300 280/13G20 RMK AO2
14926KSTC STC20060210012012302/10/06 01:20:31  5-MIN KSTC 100720Z AUTO 30015G20KT 10SM SCT018 BKN027 OVC035 00/M03 A2979 1150 78 -300 290/15G20 RMK AO2
14926KSTC STC20060210012512402/10/06 01:25:31  5-MIN KSTC 100725Z AUTO 30018G24KT 10SM SCT018 SCT026 OVC039 M01/M03 A2979 1150 81 -400 300/18G24 RMK AO2
14926KSTC STC20060210013012402/10/06 01:30:31  5-MIN KSTC 100730Z AUTO 29016G24KT 10SM FEW015 SCT023 OVC040 M01/M04 A2979 1150 75 -400 290/16G24 RMK AO2
14926KSTC STC20060210013512402/10/06 01:35:31  5-MIN KSTC 100735Z AUTO 29017G22KT 10SM FEW016 BKN036 OVC050 M01/M05 A2979 1150 72 -400 280/17G22 RMK AO2
14926KSTC STC20060210014012402/10/06 01:40:31  5-MIN KSTC 100740Z AUTO 29019G24KT 10SM SCT035 BKN043 OVC050 M01/M06 A2979 1150 72 -500 290/19G24 RMK AO2
14926KSTC STC20060210014511702/10/06 01:45:31  5-MIN KSTC 100745Z AUTO 29016G24KT 10SM SCT038 BKN048 M02/M06 A2979 1150 75 -500 290/16G24 RMK AO2
14926KSTC STC20060210015012102/10/06 01:50:31  5-MIN KSTC 100750Z AUTO 29017KT 10SM BKN046 M02/M06 A2979 1140 72 -500 280/17 RMK AO2 SLP112 T10171061
14926KSTC STC20060210015511002/10/06 01:55:31  5-MIN KSTC 100755Z AUTO 28014G21KT 10SM SCT048 M02/M06 A2979 1140 72 -500 280/14G21 RMK AO2
14926KSTC STC20060210020010402/10/06 02:00:31  5-MIN KSTC 100800Z AUTO 29014KT 10SM SCT048 M02/M07 A2979 1140 72 -600 290/14 RMK AO2
14926KSTC STC20060210020510402/10/06 02:05:31  5-MIN KSTC 100805Z AUTO 28011KT 10SM FEW048 M02/M07 A2979 1140 72 -600 280/11 RMK AO2
14926KSTC STC20060210021010402/10/06 02:10:31  5-MIN KSTC 100810Z AUTO 28015KT 10SM FEW048 M03/M07 A2979 1140 75 -700 270/15 RMK AO2
14926KSTC STC20060210021510102/10/06 02:15:31  5-MIN KSTC 100815Z AUTO 29016KT 10SM CLR M03/M07 A2979 1140 71 -700 290/16 RMK AO2
14926KSTC STC20060210022010402/10/06 02:20:31  5-MIN KSTC 100820Z AUTO 29016KT 10SM FEW025 M03/M07 A2980 1140 71 -700 290/16 RMK AO2
14926KSTC STC20060210022510402/10/06 02:25:31  5-MIN KSTC 100825Z AUTO 29015KT 10SM SCT023 M03/M07 A2980 1140 71 -700 290/15 RMK AO2
14926KSTC STC20060210023010402/10/06 02:30:31  5-MIN KSTC 100830Z AUTO 30017KT 10SM BKN023 M03/M07 A2980 1140 71 -700 290/17 RMK AO2
14926KSTC STC20060210023510402/10/06 02:35:31  5-MIN KSTC 100835Z AUTO 29015KT 10SM BKN025 M03/M07 A2980 1140 71 -700 280/15 RMK AO2
14926KSTC STC20060210024010402/10/06 02:40:31  5-MIN KSTC 100840Z AUTO 28013KT 10SM BKN025 M03/M07 A2980 1140 74 -700 280/13 RMK AO2
14926KSTC STC20060210024510402/10/06 02:45:31  5-MIN KSTC 100845Z AUTO 29015KT 10SM OVC027 M03/M08 A2980 1140 71 -700 280/15 RMK AO2
14926KSTC STC20060210025012702/10/06 02:50:31  5-MIN KSTC 100850Z AUTO 29015KT 10SM OVC027 M03/M08 A2980 1140 71 -700 290/15 RMK AO2 SLP115 T10331078 56008
14926KSTC STC20060210025510402/10/06 02:55:31  5-MIN KSTC 100855Z AUTO 28015KT 10SM OVC027 M03/M08 A2980 1140 71 -700 280/15 RMK AO2
14926KSTC STC20060210030011102/10/06 03:00:31  5-MIN KSTC 100900Z AUTO 29014KT 10SM BKN027 BKN034 M04/M08 A2980 1140 74 -800 290/14 RMK AO2
14926KSTC STC20060210030511102/10/06 03:05:31  5-MIN KSTC 100905Z AUTO 29014KT 10SM BKN027 BKN036 M04/M08 A2980 1140 71 -800 280/14 RMK AO2
14926KSTC STC20060210031011102/10/06 03:10:31  5-MIN KSTC 100910Z AUTO 28013KT 10SM SCT027 OVC036 M04/M08 A2980 1140 74 -900 280/13 RMK AO2
14926KSTC STC20060210031511702/10/06 03:15:31  5-MIN KSTC 100915Z AUTO 28014G19KT 10SM SCT027 OVC036 M04/M08 A2980 1140 74 -900 270/14G19 RMK AO2
14926KSTC STC20060210032011102/10/06 03:20:31  5-MIN KSTC 100920Z AUTO 28015KT 10SM FEW025 OVC036 M04/M08 A2980 1140 74 -900 280/15 RMK AO2
14926KSTC STC20060210032510402/10/06 03:25:31  5-MIN KSTC 100925Z AUTO 28015KT 10SM BKN036 M04/M08 A2980 1140 74 -900 280/15 RMK AO2
14926KSTC STC20060210033010402/10/06 03:30:31  5-MIN KSTC 100930Z AUTO 28013KT 10SM OVC040 M04/M08 A2980 1140 74 -900 280/13 RMK AO2
14926KSTC STC20060210033510402/10/06 03:35:31  5-MIN KSTC 100935Z AUTO 28012KT 10SM OVC040 M04/M08 A2980 1140 74 -900 280/12 RMK AO2
14926KSTC STC20060210034010502/10/06 03:40:31  5-MIN KSTC 100940Z AUTO 28014KT 10SM OVC042 M05/M08 A2980 1140 77 -1000 280/14 RMK AO2
14926KSTC STC20060210034511202/10/06 03:45:31  5-MIN KSTC 100945Z AUTO 29012KT 10SM FEW023 OVC042 M05/M08 A2980 1140 77 -1000 290/12 RMK AO2
14926KSTC STC20060210035014402/10/06 03:50:31  5-MIN KSTC 100950Z AUTO 29013KT 9SM -SN FEW023 OVC044 M05/M08 A2980 1140 77 -1000 290/13 RMK AO2 SNB47 SLP114 P0000 T10501083
14926KSTC STC20060210035512102/10/06 03:55:31  5-MIN KSTC 100955Z AUTO 29012KT 8SM -SN FEW023 OVC044 M05/M08 A2980 1140 77 -1000 280/12 RMK AO2 P0000
14926KSTC STC20060210040012802/10/06 04:00:31  5-MIN KSTC 101000Z AUTO 29011KT 8SM -SN FEW023 BKN038 OVC044 M05/M09 A2980 1140 74 -1000 280/11 RMK AO2 P0000
14926KSTC STC20060210040512302/10/06 04:05:31  5-MIN KSTC 101005Z AUTO 29010KT 8SM FEW023 OVC041 M06/M09 A2980 1140 77 -1000 290/10 RMK AO2 SNE02 P0000
14926KSTC STC20060210041013002/10/06 04:10:31  5-MIN KSTC 101010Z AUTO 29012KT 9SM SCT021 BKN038 OVC045 M06/M09 A2980 1140 77 -1000 290/12 RMK AO2 SNE02 P0000
14926KSTC STC20060210041512102/10/06 04:15:31  5-MIN KSTC 101015Z AUTO 28010KT 8SM -SN BKN019 OVC039 M06/M08 A2980 1140 81 -1000 280/10 RMK AO2 P0000
14926KSTC STC20060210042012102/10/06 04:20:31  5-MIN KSTC 101020Z AUTO 28010KT 8SM -SN BKN019 OVC037 M06/M08 A2980 1130 81 -1000 270/10 RMK AO2 P0000
14926KSTC STC20060210042512302/10/06 04:25:31  5-MIN KSTC 101025Z AUTO 28010KT 9SM BKN019 OVC037 M06/M08 A2981 1130 81 -1000 270/10 RMK AO2 SNE22 P0000
14926KSTC STC20060210043012102/10/06 04:30:31  5-MIN KSTC 101030Z AUTO 28010KT 8SM -SN BKN019 OVC037 M06/M08 A2981 1130 81 -1000 270/10 RMK AO2 P0000
14926KSTC STC20060210043512102/10/06 04:35:31  5-MIN KSTC 101035Z AUTO 27011KT 8SM -SN BKN019 OVC049 M06/M08 A2981 1130 81 -1000 270/11 RMK AO2 P0000
14926KSTC STC20060210044012802/10/06 04:40:31  5-MIN KSTC 101040Z AUTO 28011KT 7SM -SN BKN019 BKN023 OVC047 M06/M08 A2981 1130 81 -1000 270/11 RMK AO2 P0000
14926KSTC STC20060210044512102/10/06 04:45:31  5-MIN KSTC 101045Z AUTO 28011KT 6SM -SN SCT019 OVC047 M06/M08 A2981 1130 81 -1000 270/11 RMK AO2 P0000
14926KSTC STC20060210045013802/10/06 04:50:31  5-MIN KSTC 101050Z AUTO 28011KT 6SM -SN SCT019 OVC049 M06/M08 A2981 1130 81 -1000 280/11 RMK AO2 SLP120 P0000 T10561083
14926KSTC STC20060210045512102/10/06 04:55:31  5-MIN KSTC 101055Z AUTO 28011KT 6SM -SN FEW019 OVC049 M06/M08 A2981 1130 81 -1000 280/11 RMK AO2 P0000
14926KSTC STC20060210050012102/10/06 05:00:31  5-MIN KSTC 101100Z AUTO 28011KT 8SM -SN FEW025 OVC049 M06/M08 A2981 1120 81 -1000 270/11 RMK AO2 P0000
14926KSTC STC20060210050511402/10/06 05:05:31  5-MIN KSTC 101105Z AUTO 28012KT 8SM -SN OVC049 M06/M08 A2982 1120 81 -1000 280/12 RMK AO2 P0000
14926KSTC STC20060210051011402/10/06 05:10:31  5-MIN KSTC 101110Z AUTO 28011KT 7SM -SN OVC049 M06/M08 A2982 1120 81 -1100 280/11 RMK AO2 P0000
14926KSTC STC20060210051511402/10/06 05:15:31  5-MIN KSTC 101115Z AUTO 28010KT 4SM -SN OVC049 M06/M08 A2982 1120 81 -1100 280/10 RMK AO2 P0000
14926KSTC STC20060210052012102/10/06 05:20:31  5-MIN KSTC 101120Z AUTO 29010KT 3SM -SN FEW025 OVC049 M06/M08 A2982 1120 81 -1100 280/10 RMK AO2 P0000
14926KSTC STC20060210052512102/10/06 05:25:31  5-MIN KSTC 101125Z AUTO 29009KT 3SM -SN FEW025 OVC049 M06/M08 A2982 1120 81 -1100 280/09 RMK AO2 P0000
14926KSTC STC20060210053012502/10/06 05:30:31  5-MIN KSTC 101130Z AUTO 29009KT 2 1/2SM -SN FEW025 OVC049 M06/M08 A2982 1120 81 -1100 290/09 RMK AO2 P0000
14926KSTC STC20060210053512802/10/06 05:35:31  5-MIN KSTC 101135Z AUTO 29009KT 2 1/2SM -SN BR FEW025 OVC049 M06/M08 A2982 1120 84 -1100 290/09 RMK AO2 P0000
14926KSTC STC20060210054012402/10/06 05:40:31  5-MIN KSTC 101140Z AUTO 29009KT 3SM -SN BR FEW025 OVC049 M06/M08 A2983 1110 84 -1100 290/09 RMK AO2 P0000
14926KSTC STC20060210054512402/10/06 05:45:31  5-MIN KSTC 101145Z AUTO 29008KT 4SM -SN BR FEW018 OVC049 M06/M08 A2983 1110 84 -1100 290/08 RMK AO2 P0000
14926KSTC STC20060210055017102/10/06 05:50:31  5-MIN KSTC 101150Z AUTO 29008KT 4SM -SN BR FEW018 OVC049 M06/M08 A2983 1110 84 -1100 290/08 RMK AO2 SLP126 P0000 60000 70003 T10611083 10000 21061 53004
14926KSTC STC20060210055511702/10/06 05:55:31  5-MIN KSTC 101155Z AUTO 29007KT 4SM -SN BR OVC049 M06/M08 A2983 1110 84 -1100 290/07 RMK AO2 P0000
14926KSTC STC20060210060012402/10/06 06:00:31  5-MIN KSTC 101200Z AUTO 29006KT 4SM -SN BR FEW017 OVC049 M06/M08 A2983 1110 84 -1100 280/06 RMK AO2 P0000
14926KSTC STC20060210060512402/10/06 06:05:31  5-MIN KSTC 101205Z AUTO 28007KT 5SM -SN BR FEW017 OVC049 M06/M08 A2983 1110 84 -1100 280/07 RMK AO2 P0000
14926KSTC STC20060210061012402/10/06 06:10:31  5-MIN KSTC 101210Z AUTO 29007KT 6SM -SN BR FEW017 OVC049 M06/M08 A2983 1110 84 -1100 280/07 RMK AO2 P0000
14926KSTC STC20060210061512602/10/06 06:15:31  5-MIN KSTC 101215Z AUTO 29008KT 6SM BR SCT017 OVC049 M06/M08 A2984 1100 84 -1100 290/08 RMK AO2 SNE14 P0000
14926KSTC STC20060210062012302/10/06 06:20:31  5-MIN KSTC 101220Z AUTO 31009KT 7SM FEW015 OVC049 M06/M08 A2984 1100 84 -1100 310/09 RMK AO2 SNE14 P0000
14926KSTC STC20060210062512302/10/06 06:25:31  5-MIN KSTC 101225Z AUTO 31009KT 9SM FEW015 OVC049 M06/M09 A2984 1100 81 -1100 310/09 RMK AO2 SNE14 P0000
14926KSTC STC20060210063012402/10/06 06:30:31  5-MIN KSTC 101230Z AUTO 31009KT 10SM FEW015 OVC049 M06/M09 A2984 1100 77 -1100 310/09 RMK AO2 SNE14 P0000
14926KSTC STC20060210063512302/10/06 06:35:31  5-MIN KSTC 101235Z AUTO 31010KT 9SM FEW015 OVC049 M06/M09 A2984 1100 77 -1100 300/10 RMK AO2 SNE14 P0000
14926KSTC STC20060210064012302/10/06 06:40:31  5-MIN KSTC 101240Z AUTO 31014KT 9SM FEW026 OVC049 M06/M09 A2984 1100 77 -1200 300/14 RMK AO2 SNE14 P0000
14926KSTC STC20060210064513002/10/06 06:45:31  5-MIN KSTC 101245Z AUTO 31011KT 8SM FEW019 SCT026 OVC049 M06/M09 A2984 1100 77 -1200 310/11 RMK AO2 SNE14 P0000
14926KSTC STC20060210065014202/10/06 06:50:31  5-MIN KSTC 101250Z 32010KT 8SM SCT019 BKN026 OVC049 M06/M09 A2985 1100 77 -1200 310/10 RMK AO2 SNE14 SLP131 P0000 T10611094
14926KSTC STC20060210065511302/10/06 06:55:31  5-MIN KSTC 101255Z 32011KT 7SM BKN019 BKN026 OVC049 M06/M09 A2985 1090 77 -1200 320/11 RMK AO2
14926KSTC STC20060210070011302/10/06 07:00:31  5-MIN KSTC 101300Z 32010KT 7SM BKN019 BKN026 OVC049 M06/M09 A2985 1090 77 -1200 320/10 RMK AO2
14926KSTC STC20060210070512202/10/06 07:05:31  5-MIN KSTC 101305Z 31009KT 6SM -SN BKN019 OVC026 M06/M09 A2985 1090 77 -1200 310/09 RMK AO2 SNB03 P0000
14926KSTC STC20060210071012902/10/06 07:10:31  5-MIN KSTC 101310Z 32008KT 5SM -SN BKN019 BKN026 OVC050 M06/M09 A2985 1090 77 -1200 310/08 RMK AO2 SNB03 P0000
14926KSTC STC20060210071512902/10/06 07:15:31  5-MIN KSTC 101315Z 32008KT 7SM -SN BKN019 BKN024 OVC050 M06/M09 A2985 1090 77 -1200 320/08 RMK AO2 SNB03 P0000
14926KSTC STC20060210072012802/10/06 07:20:31  5-MIN KSTC 101320Z 32011KT 9SM SCT019 SCT024 OVC050 M06/M10 A2985 1090 74 -1200 320/11 RMK AO2 SNB03E16 P0000
14926KSTC STC20060210072512902/10/06 07:25:31  5-MIN KSTC 101325Z 33009KT 10SM FEW019 SCT024 OVC050 M07/M10 A2986 1090 77 -1200 330/09 RMK AO2 SNB03E16 P0000
14926KSTC STC20060210073012202/10/06 07:30:31  5-MIN KSTC 101330Z 32009KT 10SM FEW021 OVC050 M07/M11 A2986 1080 74 -1200 310/09 RMK AO2 SNB03E16 P0000
14926KSTC STC20060210073512202/10/06 07:35:31  5-MIN KSTC 101335Z 32008KT 10SM FEW021 OVC050 M07/M11 A2986 1080 74 -1200 320/08 RMK AO2 SNB03E16 P0000
14926KSTC STC20060210074011502/10/06 07:40:31  5-MIN KSTC 101340Z 31008KT 10SM OVC050 M07/M11 A2986 1080 77 -1300 310/08 RMK AO2 SNB03E16 P0000
14926KSTC STC20060210074511502/10/06 07:45:31  5-MIN KSTC 101345Z 31009KT 10SM OVC050 M07/M11 A2986 1080 77 -1300 310/09 RMK AO2 SNB03E16 P0000
14926KSTC STC20060210075013202/10/06 07:50:31  5-MIN KSTC 101350Z 32011KT 10SM OVC050 M07/M11 A2987 1080 74 -1300 320/11 RMK AO2 SNB03E16 SLP139 P0000 T10721111
14926KSTC STC20060210075510002/10/06 07:55:31  5-MIN KSTC 101355Z 32012KT 10SM OVC048 M07/M11 A2987 1070 74 -1300 310/12 RMK AO2
14926KSTC STC20060210080010702/10/06 08:00:31  5-MIN KSTC 101400Z 31011KT 10SM SCT042 OVC050 M07/M11 A2987 1070 74 -1300 310/11 RMK AO2
14926KSTC STC20060210080510702/10/06 08:05:31  5-MIN KSTC 101405Z 31012KT 10SM BKN042 OVC050 M08/M12 A2987 1070 74 -1400 310/12 RMK AO2
14926KSTC STC20060210081010702/10/06 08:10:31  5-MIN KSTC 101410Z 31010KT 10SM BKN040 OVC050 M08/M12 A2988 1070 77 -1500 310/10 RMK AO2
14926KSTC STC20060210081511402/10/06 08:15:31  5-MIN KSTC 101415Z 31011KT 10SM FEW030 SCT036 OVC044 M08/M12 A2988 1070 77 -1500 310/11 RMK AO2
14926KSTC STC20060210082011402/10/06 08:20:31  5-MIN KSTC 101420Z 31010KT 10SM FEW019 BKN036 OVC043 M08/M12 A2988 1060 77 -1500 310/10 RMK AO2
14926KSTC STC20060210082511402/10/06 08:25:31  5-MIN KSTC 101425Z 31010KT 10SM FEW019 SCT031 OVC041 M08/M12 A2988 1060 77 -1500 310/10 RMK AO2
14926KSTC STC20060210083011402/10/06 08:30:31  5-MIN KSTC 101430Z 31009KT 10SM SCT017 BKN031 OVC039 M08/M12 A2988 1060 77 -1500 310/09 RMK AO2
14926KSTC STC20060210083511402/10/06 08:35:31  5-MIN KSTC 101435Z 32009KT 10SM SCT017 BKN029 BKN039 M08/M12 A2988 1060 77 -1500 310/09 RMK AO2
14926KSTC STC20060210084011402/10/06 08:40:31  5-MIN KSTC 101440Z 32008KT 10SM SCT017 BKN029 BKN037 M08/M12 A2989 1060 77 -1500 320/08 RMK AO2
14926KSTC STC20060210084511402/10/06 08:45:31  5-MIN KSTC 101445Z 32009KT 10SM SCT017 SCT031 SCT037 M08/M12 A2989 1060 74 -1400 320/09 RMK AO2
14926KSTC STC20060210085013602/10/06 08:50:31  5-MIN KSTC 101450Z 32008KT 10SM FEW015 SCT037 M08/M12 A2989 1050 74 -1400 320/08 RMK AO2 SLP147 60000 T10781117 53010
14926KSTC STC20060210085510002/10/06 08:55:31  5-MIN KSTC 101455Z 32007KT 10SM FEW015 M08/M12 A2989 1050 74 -1400 320/07 RMK AO2
14926KSTC STC20060210090009702/10/06 09:00:31  5-MIN KSTC 101500Z 32009KT 10SM CLR M08/M12 A2990 1050 74 -1400 320/09 RMK AO2
14926KSTC STC20060210090509702/10/06 09:05:31  5-MIN KSTC 101505Z 32007KT 10SM CLR M08/M12 A2990 1050 74 -1400 320/07 RMK AO2
14926KSTC STC20060210091009702/10/06 09:10:31  5-MIN KSTC 101510Z 32006KT 10SM CLR M08/M12 A2990 1040 74 -1400 320/06 RMK AO2
14926KSTC STC20060210091509702/10/06 09:15:31  5-MIN KSTC 101515Z 33007KT 10SM CLR M07/M12 A2990 1040 71 -1400 330/07 RMK AO2
14926KSTC STC20060210092009702/10/06 09:20:31  5-MIN KSTC 101520Z 33006KT 10SM CLR M07/M12 A2991 1040 71 -1400 330/06 RMK AO2
14926KSTC STC20060210092509702/10/06 09:25:31  5-MIN KSTC 101525Z 34007KT 10SM CLR M07/M12 A2991 1040 71 -1400 330/07 RMK AO2
14926KSTC STC20060210093009702/10/06 09:30:31  5-MIN KSTC 101530Z 34009KT 10SM CLR M07/M12 A2991 1040 71 -1400 330/09 RMK AO2
14926KSTC STC20060210093509702/10/06 09:35:31  5-MIN KSTC 101535Z 33008KT 10SM CLR M07/M12 A2991 1040 71 -1400 330/08 RMK AO2
14926KSTC STC20060210094009702/10/06 09:40:31  5-MIN KSTC 101540Z 34009KT 10SM CLR M07/M12 A2991 1040 71 -1400 330/09 RMK AO2
14926KSTC STC20060210094509702/10/06 09:45:31  5-MIN KSTC 101545Z 33006KT 10SM CLR M07/M12 A2991 1030 71 -1400 330/06 RMK AO2
14926KSTC STC20060210095011402/10/06 09:50:31  5-MIN KSTC 101550Z 34007KT 10SM CLR M07/M12 A2992 1030 71 -1400 340/07 RMK AO2 SLP155 T10721117
14926KSTC STC20060210095509702/10/06 09:55:31  5-MIN KSTC 101555Z 34007KT 10SM CLR M07/M12 A2992 1030 71 -1400 340/07 RMK AO2
14926KSTC STC20060210100009702/10/06 10:00:31  5-MIN KSTC 101600Z 34007KT 10SM CLR M07/M12 A2992 1030 71 -1400 330/07 RMK AO2
14926KSTC STC20060210100509702/10/06 10:05:31  5-MIN KSTC 101605Z 33008KT 10SM CLR M07/M12 A2992 1030 71 -1400 330/08 RMK AO2
14926KSTC STC20060210101009702/10/06 10:10:31  5-MIN KSTC 101610Z 33008KT 10SM CLR M07/M12 A2992 1030 71 -1400 330/08 RMK AO2
14926KSTC STC20060210101509702/10/06 10:15:31  5-MIN KSTC 101615Z 33007KT 10SM CLR M07/M12 A2992 1030 71 -1400 330/07 RMK AO2
14926KSTC STC20060210102009702/10/06 10:20:31  5-MIN KSTC 101620Z 33007KT 10SM CLR M07/M12 A2992 1030 68 -1300 320/07 RMK AO2
14926KSTC STC20060210102509702/10/06 10:25:31  5-MIN KSTC 101625Z 31008KT 10SM CLR M07/M11 A2992 1030 74 -1400 310/08 RMK AO2
14926KSTC STC20060210103009702/10/06 10:30:31  5-MIN KSTC 101630Z 31007KT 10SM CLR M07/M11 A2992 1030 74 -1400 310/07 RMK AO2
14926KSTC STC20060210103509702/10/06 10:35:31  5-MIN KSTC 101635Z 31008KT 10SM CLR M07/M11 A2992 1020 74 -1400 310/08 RMK AO2
14926KSTC STC20060210104009702/10/06 10:40:31  5-MIN KSTC 101640Z 31007KT 10SM CLR M07/M11 A2992 1020 74 -1400 310/07 RMK AO2
14926KSTC STC20060210104509702/10/06 10:45:31  5-MIN KSTC 101645Z 31008KT 10SM CLR M07/M11 A2993 1020 71 -1300 310/08 RMK AO2
14926KSTC STC20060210105011702/10/06 10:50:31  5-MIN KSTC 101650Z 30008KT 10SM FEW060 M07/M11 A2993 1020 71 -1300 300/08 RMK AO2 SLP158 T10671111
14926KSTC STC20060210105510002/10/06 10:55:31  5-MIN KSTC 101655Z 31008KT 10SM SCT060 M07/M11 A2993 1020 71 -1300 310/08 RMK AO2
14926KSTC STC20060210110010002/10/06 11:00:31  5-MIN KSTC 101700Z 30008KT 10SM BKN060 M07/M11 A2993 1020 71 -1300 300/08 RMK AO2
14926KSTC STC20060210110510002/10/06 11:05:31  5-MIN KSTC 101705Z 30008KT 10SM BKN060 M07/M11 A2993 1020 71 -1300 300/08 RMK AO2
14926KSTC STC20060210111010002/10/06 11:10:31  5-MIN KSTC 101710Z 31008KT 10SM BKN060 M07/M11 A2993 1020 71 -1300 310/08 RMK AO2
14926KSTC STC20060210111510002/10/06 11:15:31  5-MIN KSTC 101715Z 31008KT 10SM OVC060 M07/M11 A2993 1020 71 -1300 310/08 RMK AO2
14926KSTC STC20060210112010002/10/06 11:20:31  5-MIN KSTC 101720Z 31008KT 10SM OVC060 M06/M11 A2993 1020 68 -1300 310/08 RMK AO2
14926KSTC STC20060210112510002/10/06 11:25:31  5-MIN KSTC 101725Z 32008KT 10SM OVC060 M06/M11 A2993 1020 68 -1300 320/08 RMK AO2
14926KSTC STC20060210113010002/10/06 11:30:31  5-MIN KSTC 101730Z 31008KT 10SM OVC065 M06/M11 A2993 1010 68 -1300 300/08 RMK AO2
14926KSTC STC20060210113510002/10/06 11:35:31  5-MIN KSTC 101735Z 33007KT 10SM OVC065 M06/M11 A2994 1010 68 -1300 320/07 RMK AO2
14926KSTC STC20060210114010002/10/06 11:40:31  5-MIN KSTC 101740Z 33007KT 10SM OVC065 M06/M11 A2994 1010 65 -1200 330/07 RMK AO2
14926KSTC STC20060210114510002/10/06 11:45:31  5-MIN KSTC 101745Z 33008KT 10SM OVC065 M06/M11 A2994 1010 65 -1200 330/08 RMK AO2
14926KSTC STC20060210115014102/10/06 11:50:31  5-MIN KSTC 101750Z 33007KT 10SM OVC065 M06/M11 A2994 1010 68 -1200 330/07 RMK AO2 SLP161 60000 T10561106 11056 21083 53020
14926KSTC STC20060210115510002/10/06 11:55:31  5-MIN KSTC 101755Z 34007KT 10SM OVC065 M06/M11 A2994 1010 65 -1200 330/07 RMK AO2
14926KSTC STC20060210120010002/10/06 12:00:31  5-MIN KSTC 101800Z 33007KT 10SM OVC065 M06/M11 A2994 1010 68 -1200 330/07 RMK AO2
14926KSTC STC20060210120510002/10/06 12:05:31  5-MIN KSTC 101805Z 32007KT 10SM OVC065 M06/M11 A2994 1010 65 -1200 320/07 RMK AO2
14926KSTC STC20060210121010002/10/06 12:10:31  5-MIN KSTC 101810Z 33006KT 10SM OVC065 M06/M11 A2994 1010 65 -1200 330/06 RMK AO2
14926KSTC STC20060210121510002/10/06 12:15:31  5-MIN KSTC 101815Z 33007KT 10SM OVC065 M06/M11 A2994 1000 68 -1200 330/07 RMK AO2
14926KSTC STC20060210122010002/10/06 12:20:31  5-MIN KSTC 101820Z 33005KT 10SM OVC060 M06/M11 A2994 1000 65 -1200 330/05 RMK AO2
14926KSTC STC20060210122510002/10/06 12:25:31  5-MIN KSTC 101825Z 33007KT 10SM OVC060 M06/M11 A2995 1000 65 -1200 330/07 RMK AO2
14926KSTC STC20060210123010702/10/06 12:30:31  5-MIN KSTC 101830Z 33006KT 10SM BKN055 OVC065 M06/M11 A2995 1000 65 -1200 330/06 RMK AO2
14926KSTC STC20060210123510002/10/06 12:35:31  5-MIN KSTC 101835Z 34006KT 10SM OVC055 M06/M11 A2995 1000 68 -1200 340/06 RMK AO2
14926KSTC STC20060210124010002/10/06 12:40:31  5-MIN KSTC 101840Z 34007KT 10SM OVC055 M06/M11 A2995 1000 68 -1200 340/07 RMK AO2
14926KSTC STC20060210124510002/10/06 12:45:31  5-MIN KSTC 101845Z 33007KT 10SM OVC055 M06/M11 A2995 1000 68 -1200 330/07 RMK AO2
14926KSTC STC20060210125011702/10/06 12:50:31  5-MIN KSTC 101850Z 34007KT 10SM OVC055 M06/M11 A2995 1000 68 -1200 340/07 RMK AO2 SLP165 T10561106
14926KSTC STC20060210125510002/10/06 12:55:31  5-MIN KSTC 101855Z 33008KT 10SM OVC055 M06/M11 A2995 1000 65 -1200 320/08 RMK AO2
14926KSTC STC20060210130009902/10/06 13:00:31  5-MIN KSTC 101900Z 33009KT 10SM OVC050 M06/M11 A2996 990 68 -1200 330/09 RMK AO2
14926KSTC STC20060210130509902/10/06 13:05:31  5-MIN KSTC 101905Z 33007KT 10SM OVC050 M06/M11 A2996 990 68 -1200 330/07 RMK AO2
14926KSTC STC20060210131009902/10/06 13:10:31  5-MIN KSTC 101910Z 33007KT 10SM OVC050 M06/M11 A2996 990 68 -1200 320/07 RMK AO2
14926KSTC STC20060210131510502/10/06 13:15:31  5-MIN KSTC 101915Z 33009KT 9SM SCT045 OVC055 M06/M11 A2996 990 68 -1200 320/09 RMK AO2
14926KSTC STC20060210132010502/10/06 13:20:31  5-MIN KSTC 101920Z 32009KT 7SM BKN043 OVC055 M06/M11 A2997 990 68 -1200 320/09 RMK AO2
14926KSTC STC20060210132512102/10/06 13:25:31  5-MIN KSTC 101925Z 32007KT 6SM -SN BKN041 OVC055 M06/M10 A2996 990 71 -1200 320/07 RMK AO2 SNB22 P0000
14926KSTC STC20060210133012802/10/06 13:30:31  5-MIN KSTC 101930Z 31009KT 6SM -SN FEW020 BKN039 OVC055 M06/M10 A2996 990 71 -1200 310/09 RMK AO2 SNB22 P0000
14926KSTC STC20060210133512802/10/06 13:35:31  5-MIN KSTC 101935Z 33009KT 5SM -SN SCT020 BKN039 OVC055 M06/M10 A2996 990 71 -1200 330/09 RMK AO2 SNB22 P0000
14926KSTC STC20060210134012802/10/06 13:40:31  5-MIN KSTC 101940Z 33009KT 5SM -SN FEW020 BKN039 OVC050 M06/M10 A2997 980 71 -1200 330/09 RMK AO2 SNB22 P0000
14926KSTC STC20060210134512802/10/06 13:45:31  5-MIN KSTC 101945Z 32007KT 5SM -SN SCT020 BKN039 OVC050 M06/M10 A2997 980 71 -1200 320/07 RMK AO2 SNB22 P0000
14926KSTC STC20060210135014502/10/06 13:50:31  5-MIN KSTC 101950Z 31010KT 4SM -SN SCT020 BKN037 OVC050 M06/M10 A2997 980 71 -1200 310/10 RMK AO2 SNB22 SLP171 P0000 T10561100
14926KSTC STC20060210135512202/10/06 13:55:31  5-MIN KSTC 101955Z 31009KT 3SM -SN SCT020 BKN035 OVC050 M06/M10 A2997 980 71 -1200 310/09 RMK AO2 P0000
14926KSTC STC20060210140012202/10/06 14:00:31  5-MIN KSTC 102000Z 31010KT 3SM -SN FEW020 SCT035 OVC048 M06/M09 A2997 980 77 -1300 310/10 RMK AO2 P0000
14926KSTC STC20060210140512202/10/06 14:05:31  5-MIN KSTC 102005Z 32009KT 3SM -SN FEW018 SCT031 OVC048 M06/M09 A2997 980 74 -1200 310/09 RMK AO2 P0000
14926KSTC STC20060210141012202/10/06 14:10:31  5-MIN KSTC 102010Z 32008KT 3SM -SN FEW018 SCT029 OVC048 M06/M09 A2997 980 74 -1200 320/08 RMK AO2 P0000
14926KSTC STC20060210141512202/10/06 14:15:31  5-MIN KSTC 102015Z 32008KT 3SM -SN FEW018 BKN029 OVC046 M06/M09 A2997 980 74 -1200 320/08 RMK AO2 P0000
14926KSTC STC20060210142012202/10/06 14:20:31  5-MIN KSTC 102020Z 32009KT 3SM -SN FEW018 SCT029 OVC044 M06/M09 A2997 980 74 -1200 320/09 RMK AO2 P0000
14926KSTC STC20060210142512202/10/06 14:25:31  5-MIN KSTC 102025Z 32010KT 3SM -SN FEW018 SCT027 OVC042 M06/M09 A2997 980 74 -1200 320/10 RMK AO2 P0000
14926KSTC STC20060210143012602/10/06 14:30:31  5-MIN KSTC 102030Z 34008KT 2 1/2SM -SN FEW018 BKN027 OVC042 M06/M09 A2998 980 74 -1200 330/08 RMK AO2 P0000
14926KSTC STC20060210143512202/10/06 14:35:31  5-MIN KSTC 102035Z 33007KT 3SM -SN FEW018 BKN027 OVC042 M06/M09 A2998 970 74 -1200 330/07 RMK AO2 P0000
14926KSTC STC20060210144012202/10/06 14:40:31  5-MIN KSTC 102040Z 33007KT 3SM -SN FEW018 BKN025 OVC040 M06/M09 A2998 970 77 -1200 330/07 RMK AO2 P0000
14926KSTC STC20060210144512602/10/06 14:45:31  5-MIN KSTC 102045Z 33008KT 2 1/2SM -SN FEW018 BKN025 OVC038 M06/M09 A2998 970 77 -1200 330/08 RMK AO2 P0000
14926KSTC STC20060210145015102/10/06 14:50:31  5-MIN KSTC 102050Z 34008KT 2SM -SN FEW016 BKN023 OVC030 M06/M09 A2998 970 77 -1200 340/08 RMK AO2 SLP178 P0000 60000 T10561089 51015
14926KSTC STC20060210145512602/10/06 14:55:31  5-MIN KSTC 102055Z 34007KT 1 1/2SM -SN FEW016 BKN023 OVC030 M06/M09 A2998 970 77 -1200 340/07 RMK AO2 P0000
14926KSTC STC20060210150012602/10/06 15:00:31  5-MIN KSTC 102100Z 35008KT 1 3/4SM -SN FEW016 BKN023 OVC030 M06/M09 A2999 970 77 -1200 340/08 RMK AO2 P0000
14926KSTC STC20060210150512202/10/06 15:05:31  5-MIN KSTC 102105Z 34007KT 2SM -SN FEW016 BKN023 OVC034 M06/M09 A2999 960 77 -1200 340/07 RMK AO2 P0000
14926KSTC STC20060210151012202/10/06 15:10:31  5-MIN KSTC 102110Z 34007KT 2SM -SN FEW016 BKN023 OVC034 M06/M09 A2999 960 77 -1300 340/07 RMK AO2 P0000
14926KSTC STC20060210151512202/10/06 15:15:31  5-MIN KSTC 102115Z 34007KT 2SM -SN FEW016 BKN023 OVC027 M06/M09 A2999 960 77 -1300 330/07 RMK AO2 P0000
14926KSTC STC20060210152011202/10/06 15:20:31  5-MIN KSTC 102120Z 34008KT 2 1/2SM -SN OVC023 M06/M09 A3000 960 77 -1300 340/08 RMK AO2 P0000
14926KSTC STC20060210152510802/10/06 15:25:31  5-MIN KSTC 102125Z 35008KT 3SM -SN OVC023 M06/M09 A3000 960 77 -1300 340/08 RMK AO2 P0000
14926KSTC STC20060210153010802/10/06 15:30:31  5-MIN KSTC 102130Z 34009KT 4SM -SN OVC025 M06/M09 A3000 950 77 -1300 330/09 RMK AO2 P0000
14926KSTC STC20060210153510802/10/06 15:35:31  5-MIN KSTC 102135Z 33006KT 4SM -SN OVC025 M06/M09 A3000 950 77 -1300 330/06 RMK AO2 P0000
14926KSTC STC20060210154010802/10/06 15:40:31  5-MIN KSTC 102140Z 34007KT 4SM -SN OVC025 M06/M09 A3000 950 77 -1300 330/07 RMK AO2 P0000
14926KSTC STC20060210154510802/10/06 15:45:31  5-MIN KSTC 102145Z 34006KT 5SM -SN OVC025 M06/M09 A3000 950 77 -1300 340/06 RMK AO2 P0000
14926KSTC STC20060210155013002/10/06 15:50:31  5-MIN KSTC 102150Z AUTO 34007KT 6SM -SN OVC025 M06/M09 A3001 950 77 -1300 340/07 RMK AO2 SLP186 P0000 T10561089
14926KSTC STC20060210155511302/10/06 15:55:31  5-MIN KSTC 102155Z AUTO 34007KT 5SM -SN OVC025 M06/M09 A3001 940 77 -1300 330/07 RMK AO2 P0000
14926KSTC STC20060210160011302/10/06 16:00:31  5-MIN KSTC 102200Z AUTO 33007KT 3SM -SN OVC027 M06/M09 A3001 940 77 -1300 330/07 RMK AO2 P0000
14926KSTC STC20060210160511302/10/06 16:05:31  5-MIN KSTC 102205Z AUTO 33006KT 3SM -SN OVC027 M06/M09 A3001 940 77 -1300 330/06 RMK AO2 P0000
14926KSTC STC20060210161011302/10/06 16:10:31  5-MIN KSTC 102210Z AUTO 33008KT 4SM -SN OVC027 M06/M09 A3001 940 77 -1300 330/08 RMK AO2 P0000
14926KSTC STC20060210161511302/10/06 16:15:31  5-MIN KSTC 102215Z AUTO 33007KT 4SM -SN OVC027 M06/M09 A3002 940 77 -1300 330/07 RMK AO2 P0000
14926KSTC STC20060210162011302/10/06 16:20:31  5-MIN KSTC 102220Z AUTO 34008KT 5SM -SN OVC027 M06/M08 A3002 940 81 -1300 330/08 RMK AO2 P0000
14926KSTC STC20060210162511302/10/06 16:25:31  5-MIN KSTC 102225Z AUTO 33007KT 5SM -SN OVC027 M06/M08 A3002 940 81 -1300 330/07 RMK AO2 P0000
14926KSTC STC20060210163011302/10/06 16:30:31  5-MIN KSTC 102230Z AUTO 33006KT 5SM -SN OVC029 M06/M08 A3002 930 81 -1300 330/06 RMK AO2 P0000
14926KSTC STC20060210163511302/10/06 16:35:31  5-MIN KSTC 102235Z AUTO 33007KT 4SM -SN OVC029 M06/M08 A3002 930 81 -1300 330/07 RMK AO2 P0000
14926KSTC STC20060210164011302/10/06 16:40:31  5-MIN KSTC 102240Z AUTO 33008KT 5SM -SN OVC029 M06/M08 A3002 930 81 -1300 330/08 RMK AO2 P0000
14926KSTC STC20060210164512502/10/06 16:45:31  5-MIN KSTC 102245Z AUTO 33007KT 5SM HZ FEW024 OVC029 M06/M08 A3003 930 81 -1300 330/07 RMK AO2 SNE44 P0000
14926KSTC STC20060210165013502/10/06 16:50:31  5-MIN KSTC 102250Z AUTO 33008KT 6SM HZ OVC029 M06/M08 A3003 930 81 -1300 330/08 RMK AO2 SNE44 SLP194 P0000 T10561083
14926KSTC STC20060210165510602/10/06 16:55:31  5-MIN KSTC 102255Z AUTO 33009KT 6SM HZ OVC031 M06/M08 A3003 930 81 -1300 330/09 RMK AO2
14926KSTC STC20060210170012102/10/06 17:00:31  5-MIN KSTC 102300Z AUTO 33007KT 5SM -SN OVC031 M06/M08 A3003 920 81 -1300 330/07 RMK AO2 SNB2257 P0000
14926KSTC STC20060210170512102/10/06 17:05:31  5-MIN KSTC 102305Z AUTO 33006KT 4SM -SN OVC031 M06/M08 A3003 920 81 -1300 330/06 RMK AO2 SNB2257 P0000
14926KSTC STC20060210171012102/10/06 17:10:31  5-MIN KSTC 102310Z AUTO 34007KT 4SM -SN OVC031 M06/M08 A3003 920 81 -1300 330/07 RMK AO2 SNB2257 P0000
14926KSTC STC20060210171512102/10/06 17:15:31  5-MIN KSTC 102315Z AUTO 33006KT 4SM -SN OVC031 M06/M08 A3004 920 81 -1300 330/06 RMK AO2 SNB2257 P0000
14926KSTC STC20060210172012402/10/06 17:20:31  5-MIN KSTC 102320Z AUTO 34006KT 4SM -SN BR OVC033 M06/M08 A3004 920 84 -1300 330/06 RMK AO2 SNB2257 P0000
14926KSTC STC20060210172512402/10/06 17:25:31  5-MIN KSTC 102325Z AUTO 34006KT 4SM -SN BR OVC033 M06/M08 A3004 910 84 -1300 330/06 RMK AO2 SNB2257 P0000
14926KSTC STC20060210173012402/10/06 17:30:31  5-MIN KSTC 102330Z AUTO 33006KT 3SM -SN BR OVC033 M06/M08 A3004 910 84 -1300 330/06 RMK AO2 SNB2257 P0000
14926KSTC STC20060210173512802/10/06 17:35:31  5-MIN KSTC 102335Z AUTO 33005KT 2 1/2SM -SN BR OVC033 M06/M08 A3005 910 84 -1300 330/05 RMK AO2 SNB2257 P0000
14926KSTC STC20060210174012802/10/06 17:40:31  5-MIN KSTC 102340Z AUTO 33006KT 2 1/2SM -SN BR OVC033 M06/M08 A3005 910 84 -1300 330/06 RMK AO2 SNB2257 P0000
14926KSTC STC20060210174512102/10/06 17:45:31  5-MIN KSTC 102345Z AUTO 33007KT 3SM -SN OVC033 M05/M08 A3005 910 81 -1300 330/07 RMK AO2 SNB2257 P0000
14926KSTC STC20060210175016202/10/06 17:50:31  5-MIN KSTC 102350Z AUTO 34006KT 4SM -SN OVC033 M05/M08 A3005 900 81 -1300 330/06 RMK AO2 SNB2257 SLP203 P0000 60000 T10501078 11050 21061 53015
14926KSTC STC20060210175511302/10/06 17:55:31  5-MIN KSTC 102355Z AUTO 34006KT 4SM -SN OVC033 M05/M08 A3005 900 81 -1300 330/06 RMK AO2 P0000
14926KSTC STC20060210180011602/10/06 18:00:31  5-MIN KSTC 110000Z AUTO 34007KT 4SM -SN BR OVC033 M05/M07 A3006 900 84 -1300 340/07 RMK AO2 P0000
14926KSTC STC20060210180512302/10/06 18:05:31  5-MIN KSTC 110005Z AUTO 34006KT 4SM -SN BR FEW027 OVC033 M05/M07 A3006 900 84 -1300 330/06 RMK AO2 P0000
14926KSTC STC20060210181011602/10/06 18:10:31  5-MIN KSTC 110010Z AUTO 33007KT 4SM -SN BR OVC033 M05/M07 A3006 900 84 -1300 330/07 RMK AO2 P0000
14926KSTC STC20060210181511602/10/06 18:15:31  5-MIN KSTC 110015Z AUTO 34007KT 4SM -SN BR OVC033 M05/M07 A3006 890 84 -1300 330/07 RMK AO2 P0000
14926KSTC STC20060210182011602/10/06 18:20:31  5-MIN KSTC 110020Z AUTO 34005KT 4SM -SN BR OVC033 M05/M07 A3007 890 84 -1300 340/05 RMK AO2 P0000
14926KSTC STC20060210182511602/10/06 18:25:31  5-MIN KSTC 110025Z AUTO 35006KT 4SM -SN BR OVC033 M05/M07 A3007 890 84 -1300 350/06 RMK AO2 P0000
14926KSTC STC20060210183011602/10/06 18:30:31  5-MIN KSTC 110030Z AUTO 34005KT 4SM -SN BR OVC033 M05/M07 A3007 890 84 -1300 340/05 RMK AO2 P0000
14926KSTC STC20060210183511602/10/06 18:35:31  5-MIN KSTC 110035Z AUTO 34006KT 4SM -SN BR OVC033 M05/M07 A3007 890 84 -1300 340/06 RMK AO2 P0000
14926KSTC STC20060210184011602/10/06 18:40:31  5-MIN KSTC 110040Z AUTO 34005KT 4SM -SN BR OVC033 M05/M07 A3008 880 84 -1300 340/05 RMK AO2 P0000
14926KSTC STC20060210184511602/10/06 18:45:31  5-MIN KSTC 110045Z AUTO 35005KT 5SM -SN BR OVC033 M04/M07 A3008 880 84 -1200 350/05 RMK AO2 P0000
14926KSTC STC20060210185013502/10/06 18:50:31  5-MIN KSTC 110050Z AUTO 35005KT 5SM BR OVC033 M04/M07 A3008 880 84 -1200 350/05 RMK AO2 SNE49 SLP211 P0000 T10441067
14926KSTC STC20060210185510602/10/06 18:55:31  5-MIN KSTC 110055Z AUTO 35005KT 6SM BR OVC033 M04/M07 A3008 880 84 -1200 350/05 RMK AO2
14926KSTC STC20060210190010602/10/06 19:00:31  5-MIN KSTC 110100Z AUTO 35006KT 6SM BR OVC033 M04/M07 A3008 880 84 -1200 350/06 RMK AO2
14926KSTC STC20060210190510302/10/06 19:05:31  5-MIN KSTC 110105Z AUTO 35006KT 7SM OVC033 M04/M07 A3008 880 84 -1200 350/06 RMK AO2
14926KSTC STC20060210191010602/10/06 19:10:31  5-MIN KSTC 110110Z AUTO 35006KT 6SM BR OVC033 M04/M07 A3008 880 84 -1200 350/06 RMK AO2
14926KSTC STC20060210191510602/10/06 19:15:31  5-MIN KSTC 110115Z AUTO 36006KT 6SM BR OVC033 M04/M07 A3008 880 84 -1200 350/06 RMK AO2
14926KSTC STC20060210192010302/10/06 19:20:31  5-MIN KSTC 110120Z AUTO 36007KT 7SM OVC033 M04/M07 A3009 870 84 -1200 360/07 RMK AO2
14926KSTC STC20060210192510302/10/06 19:25:31  5-MIN KSTC 110125Z AUTO 36008KT 7SM OVC033 M04/M07 A3009 870 81 -1100 360/08 RMK AO2
14926KSTC STC20060210193010302/10/06 19:30:31  5-MIN KSTC 110130Z AUTO 36006KT 7SM OVC031 M04/M07 A3009 870 81 -1200 360/06 RMK AO2
14926KSTC STC20060210193510302/10/06 19:35:31  5-MIN KSTC 110135Z AUTO 36007KT 7SM OVC031 M04/M07 A3009 870 81 -1200 360/07 RMK AO2
14926KSTC STC20060210194010302/10/06 19:40:31  5-MIN KSTC 110140Z AUTO 36007KT 7SM OVC031 M04/M07 A3009 870 81 -1200 360/07 RMK AO2
14926KSTC STC20060210194510302/10/06 19:45:31  5-MIN KSTC 110145Z AUTO 36007KT 7SM OVC031 M04/M07 A3010 860 81 -1200 360/07 RMK AO2
14926KSTC STC20060210195012002/10/06 19:50:31  5-MIN KSTC 110150Z AUTO 36007KT 7SM OVC031 M04/M07 A3010 860 81 -1200 350/07 RMK AO2 SLP217 T10391067
14926KSTC STC20060210195510302/10/06 19:55:31  5-MIN KSTC 110155Z AUTO 36007KT 7SM OVC031 M04/M07 A3010 860 81 -1200 360/07 RMK AO2
14926KSTC STC20060210200010302/10/06 20:00:31  5-MIN KSTC 110200Z AUTO 36008KT 7SM OVC031 M04/M07 A3010 860 81 -1200 360/08 RMK AO2
14926KSTC STC20060210200510302/10/06 20:05:31  5-MIN KSTC 110205Z AUTO 01008KT 7SM OVC031 M04/M07 A3010 860 81 -1200 360/08 RMK AO2
14926KSTC STC20060210201010302/10/06 20:10:31  5-MIN KSTC 110210Z AUTO 01008KT 7SM OVC033 M04/M06 A3010 860 85 -1200 360/08 RMK AO2
14926KSTC STC20060210201510302/10/06 20:15:31  5-MIN KSTC 110215Z AUTO 01007KT 8SM OVC033 M04/M06 A3010 860 85 -1200 360/07 RMK AO2
14926KSTC STC20060210202010302/10/06 20:20:31  5-MIN KSTC 110220Z AUTO 01007KT 7SM OVC033 M04/M06 A3010 860 85 -1200 010/07 RMK AO2
14926KSTC STC20060210202512202/10/06 20:25:31  5-MIN KSTC 110225Z AUTO 01007KT 6SM -SN BR OVC033 M04/M06 A3010 860 85 -1200 010/07 RMK AO2 SNB25 P0000
14926KSTC STC20060210203012202/10/06 20:30:31  5-MIN KSTC 110230Z AUTO 36009KT 6SM -SN BR OVC035 M04/M06 A3011 860 85 -1200 360/09 RMK AO2 SNB25 P0000
14926KSTC STC20060210203511802/10/06 20:35:31  5-MIN KSTC 110235Z AUTO 36008KT 7SM OVC035 M03/M06 A3011 850 81 -1100 360/08 RMK AO2 SNB25E35 P0000
14926KSTC STC20060210204011802/10/06 20:40:31  5-MIN KSTC 110240Z AUTO 01009KT 7SM OVC033 M03/M06 A3011 850 81 -1100 010/09 RMK AO2 SNB25E35 P0000
14926KSTC STC20060210204511802/10/06 20:45:31  5-MIN KSTC 110245Z AUTO 01007KT 8SM OVC033 M03/M06 A3011 850 81 -1100 360/07 RMK AO2 SNB25E35 P0000
14926KSTC STC20060210205015402/10/06 20:50:31  5-MIN KSTC 110250Z AUTO 36008KT 8SM BKN030 OVC036 M03/M06 A3011 850 81 -1100 360/08 RMK AO2 SNB25E35 SLP223 P0000 60000 T10331061 53024
14926KSTC STC20060210205510302/10/06 20:55:31  5-MIN KSTC 110255Z AUTO 36009KT 8SM OVC032 M03/M06 A3011 850 81 -1100 360/09 RMK AO2
14926KSTC STC20060210210010302/10/06 21:00:31  5-MIN KSTC 110300Z AUTO 36007KT 9SM OVC032 M03/M06 A3012 850 81 -1100 360/07 RMK AO2
14926KSTC STC20060210210510302/10/06 21:05:31  5-MIN KSTC 110305Z AUTO 36008KT 9SM OVC032 M03/M06 A3012 840 81 -1100 360/08 RMK AO2
14926KSTC STC20060210211010302/10/06 21:10:31  5-MIN KSTC 110310Z AUTO 01009KT 9SM OVC032 M03/M06 A3012 840 81 -1100 010/09 RMK AO2
14926KSTC STC20060210211510302/10/06 21:15:31  5-MIN KSTC 110315Z AUTO 01008KT 9SM OVC032 M03/M06 A3012 840 81 -1100 360/08 RMK AO2
14926KSTC STC20060210212010302/10/06 21:20:31  5-MIN KSTC 110320Z AUTO 01007KT 9SM OVC032 M03/M06 A3013 840 81 -1100 360/07 RMK AO2
14926KSTC STC20060210212510302/10/06 21:25:31  5-MIN KSTC 110325Z AUTO 01008KT 9SM OVC032 M03/M06 A3013 830 81 -1100 360/08 RMK AO2
14926KSTC STC20060210213010302/10/06 21:30:31  5-MIN KSTC 110330Z AUTO 01008KT 9SM OVC032 M03/M06 A3013 830 81 -1100 010/08 RMK AO2
14926KSTC STC20060210213510302/10/06 21:35:31  5-MIN KSTC 110335Z AUTO 01007KT 9SM OVC032 M03/M07 A3013 830 78 -1100 010/07 RMK AO2
14926KSTC STC20060210214010302/10/06 21:40:31  5-MIN KSTC 110340Z AUTO 01007KT 9SM OVC032 M03/M07 A3014 830 78 -1100 010/07 RMK AO2
14926KSTC STC20060210214510302/10/06 21:45:31  5-MIN KSTC 110345Z AUTO 01007KT 9SM OVC032 M03/M07 A3014 830 78 -1100 010/07 RMK AO2
14926KSTC STC20060210215012102/10/06 21:50:31  5-MIN KSTC 110350Z AUTO 01007KT 10SM OVC034 M03/M07 A3014 820 78 -1100 010/07 RMK AO2 SLP232 T10331067
14926KSTC STC20060210215510402/10/06 21:55:31  5-MIN KSTC 110355Z AUTO 01008KT 10SM OVC036 M03/M07 A3014 820 78 -1100 010/08 RMK AO2
14926KSTC STC20060210220010402/10/06 22:00:31  5-MIN KSTC 110400Z AUTO 01009KT 10SM OVC036 M03/M07 A3015 820 78 -1100 010/09 RMK AO2
14926KSTC STC20060210220510402/10/06 22:05:31  5-MIN KSTC 110405Z AUTO 01008KT 10SM OVC038 M03/M07 A3015 820 78 -1100 010/08 RMK AO2
14926KSTC STC20060210221010402/10/06 22:10:31  5-MIN KSTC 110410Z AUTO 01008KT 10SM OVC038 M03/M07 A3015 810 78 -1200 010/08 RMK AO2
14926KSTC STC20060210221510402/10/06 22:15:31  5-MIN KSTC 110415Z AUTO 01009KT 10SM OVC040 M03/M07 A3015 810 78 -1200 010/09 RMK AO2
14926KSTC STC20060210222010402/10/06 22:20:31  5-MIN KSTC 110420Z AUTO 01007KT 10SM OVC042 M03/M07 A3016 810 78 -1200 010/07 RMK AO2
14926KSTC STC20060210222510402/10/06 22:25:31  5-MIN KSTC 110425Z AUTO 01009KT 10SM OVC042 M03/M07 A3016 810 78 -1200 010/09 RMK AO2
14926KSTC STC20060210223010402/10/06 22:30:31  5-MIN KSTC 110430Z AUTO 02009KT 10SM OVC042 M03/M07 A3016 810 74 -1200 010/09 RMK AO2
14926KSTC STC20060210223510402/10/06 22:35:31  5-MIN KSTC 110435Z AUTO 02009KT 10SM OVC044 M03/M07 A3016 810 74 -1200 020/09 RMK AO2
14926KSTC STC20060210224010402/10/06 22:40:31  5-MIN KSTC 110440Z AUTO 02008KT 10SM OVC046 M03/M07 A3016 800 74 -1200 010/08 RMK AO2
14926KSTC STC20060210224510402/10/06 22:45:31  5-MIN KSTC 110445Z AUTO 01009KT 10SM OVC046 M03/M07 A3016 800 74 -1200 010/09 RMK AO2
14926KSTC STC20060210225012102/10/06 22:50:31  5-MIN KSTC 110450Z AUTO 01008KT 10SM OVC048 M03/M07 A3017 800 74 -1200 010/08 RMK AO2 SLP240 T10331072
14926KSTC STC20060210225510402/10/06 22:55:31  5-MIN KSTC 110455Z AUTO 01008KT 10SM OVC048 M03/M07 A3017 800 74 -1200 010/08 RMK AO2
14926KSTC STC20060210230009902/10/06 23:00:31  5-MIN KSTC 110500Z 01009KT 10SM OVC048 M04/M07 A3017 800 78 -1200 010/09 RMK AO2
14926KSTC STC20060210230509902/10/06 23:05:31  5-MIN KSTC 110505Z 01007KT 10SM OVC050 M04/M07 A3017 800 78 -1200 010/07 RMK AO2
14926KSTC STC20060210231010602/10/06 23:10:31  5-MIN KSTC 110510Z 36008KT 10SM FEW037 OVC050 M04/M07 A3017 800 78 -1200 360/08 RMK AO2
14926KSTC STC20060210231510602/10/06 23:15:31  5-MIN KSTC 110515Z 01007KT 10SM FEW037 OVC050 M04/M07 A3017 790 78 -1200 360/07 RMK AO2
14926KSTC STC20060210232010602/10/06 23:20:31  5-MIN KSTC 110520Z 36006KT 10SM FEW037 OVC050 M04/M07 A3017 790 81 -1300 360/06 RMK AO2
14926KSTC STC20060210232510602/10/06 23:25:31  5-MIN KSTC 110525Z 35006KT 10SM FEW037 OVC050 M04/M07 A3017 790 81 -1300 350/06 RMK AO2
14926KSTC STC20060210233010602/10/06 23:30:31  5-MIN KSTC 110530Z 35007KT 10SM FEW037 OVC050 M05/M07 A3018 790 84 -1400 350/07 RMK AO2
14926KSTC STC20060210233509802/10/06 23:35:31  5-MIN KSTC 110535Z 35006KT 9SM OVC050 M05/M07 A3018 790 84 -1400 350/06 RMK AO2
14926KSTC STC20060210234009802/10/06 23:40:31  5-MIN KSTC 110540Z 35005KT 9SM OVC050 M05/M08 A3018 790 81 -1400 350/05 RMK AO2
14926KSTC STC20060210234509802/10/06 23:45:31  5-MIN KSTC 110545Z 35006KT 9SM OVC050 M06/M08 A3018 790 84 -1500 350/06 RMK AO2
14926KSTC STC20060210235014902/10/06 23:50:31  5-MIN KSTC 110550Z 35006KT 8SM OVC050 M06/M08 A3018 780 88 -1500 350/06 RMK AO2 SLP247 60000 T10611078 11033 21061 400001083 51019
14926KSTC STC20060210235509802/10/06 23:55:31  5-MIN KSTC 110555Z 35006KT 8SM OVC050 M06/M08 A3019 780 84 -1500 350/06 RMK AO2
14926KSTC STC20060211000009802/11/06 00:00:32  5-MIN KSTC 110600Z 35005KT 8SM OVC050 M06/M08 A3019 780 88 -1600 350/05 RMK AO2
14926KSTC STC20060211000511202/11/06 00:05:31  5-MIN KSTC 110605Z 35006KT 7SM FEW032 SCT040 OVC050 M06/M08 A3019 780 84 -1500 350/06 RMK AO2
14926KSTC STC20060211001011502/11/06 00:10:31  5-MIN KSTC 110610Z 35006KT 6SM BR FEW023 SCT032 OVC050 M06/M07 A3019 770 88 -1500 350/06 RMK AO2
14926KSTC STC20060211001511502/11/06 00:15:31  5-MIN KSTC 110615Z 35005KT 5SM BR SCT023 BKN033 OVC050 M06/M07 A3019 770 88 -1500 350/05 RMK AO2
14926KSTC STC20060211002011502/11/06 00:20:31  5-MIN KSTC 110620Z 35005KT 6SM BR SCT025 BKN033 OVC050 M05/M07 A3020 770 84 -1400 350/05 RMK AO2
14926KSTC STC20060211002511502/11/06 00:25:31  5-MIN KSTC 110625Z 35005KT 6SM BR SCT025 BKN033 OVC050 M05/M07 A3020 770 84 -1400 340/05 RMK AO2
14926KSTC STC20060211003011202/11/06 00:30:31  5-MIN KSTC 110630Z 35006KT 7SM SCT025 SCT033 OVC041 M05/M07 A3020 770 84 -1400 340/06 RMK AO2
14926KSTC STC20060211003511202/11/06 00:35:31  5-MIN KSTC 110635Z 35006KT 8SM SCT025 SCT031 OVC043 M05/M07 A3020 770 84 -1400 350/06 RMK AO2
14926KSTC STC20060211004011202/11/06 00:40:31  5-MIN KSTC 110640Z 35006KT 8SM FEW025 SCT031 OVC043 M05/M07 A3020 770 84 -1400 350/06 RMK AO2
14926KSTC STC20060211004510502/11/06 00:45:31  5-MIN KSTC 110645Z 36005KT 9SM SCT031 OVC043 M05/M07 A3021 760 84 -1400 350/05 RMK AO2
14926KSTC STC20060211005012202/11/06 00:50:31  5-MIN KSTC 110650Z 35005KT 9SM BKN031 OVC043 M05/M07 A3021 760 88 -1400 350/05 RMK AO2 SLP254 T10501067
14926KSTC STC20060211005510502/11/06 00:55:31  5-MIN KSTC 110655Z 35005KT 9SM BKN031 OVC043 M05/M07 A3021 760 88 -1400 350/05 RMK AO2
14926KSTC STC20060211010010502/11/06 01:00:31  5-MIN KSTC 110700Z 35004KT 9SM BKN031 OVC043 M05/M07 A3020 760 88 -1400 350/04 RMK AO2
14926KSTC STC20060211010510502/11/06 01:05:31  5-MIN KSTC 110705Z 36004KT 9SM SCT031 OVC043 M05/M07 A3020 760 88 -1400 360/04 RMK AO2
14926KSTC STC20060211011010602/11/06 01:10:31  5-MIN KSTC 110710Z 36005KT 10SM SCT031 OVC045 M04/M07 A3021 760 81 -1400 360/05 RMK AO2
14926KSTC STC20060211011510602/11/06 01:15:31  5-MIN KSTC 110715Z 01005KT 10SM BKN031 OVC045 M04/M07 A3021 760 81 -1400 360/05 RMK AO2
14926KSTC STC20060211012010602/11/06 01:20:31  5-MIN KSTC 110720Z 01005KT 10SM SCT031 OVC045 M04/M08 A3021 760 78 -1400 010/05 RMK AO2
14926KSTC STC20060211012510602/11/06 01:25:31  5-MIN KSTC 110725Z 36005KT 10SM SCT033 OVC045 M04/M08 A3021 760 78 -1400 360/05 RMK AO2
14926KSTC STC20060211013010602/11/06 01:30:31  5-MIN KSTC 110730Z 01004KT 10SM SCT035 OVC045 M04/M08 A3021 760 78 -1400 360/04 RMK AO2
14926KSTC STC20060211013510602/11/06 01:35:31  5-MIN KSTC 110735Z 36004KT 10SM BKN038 OVC045 M04/M08 A3021 760 78 -1400 350/04 RMK AO2
14926KSTC STC20060211014010602/11/06 01:40:31  5-MIN KSTC 110740Z 36004KT 10SM SCT038 OVC045 M04/M08 A3021 760 78 -1400 360/04 RMK AO2
14926KSTC STC20060211014509902/11/06 01:45:31  5-MIN KSTC 110745Z 35005KT 10SM OVC043 M04/M08 A3021 760 74 -1300 340/05 RMK AO2
14926KSTC STC20060211015011602/11/06 01:50:31  5-MIN KSTC 110750Z 35005KT 10SM OVC043 M04/M08 A3021 760 74 -1300 340/05 RMK AO2 SLP256 T10391078
14926KSTC STC20060211015509902/11/06 01:55:31  5-MIN KSTC 110755Z 35005KT 10SM OVC043 M04/M07 A3021 760 78 -1300 340/05 RMK AO2
14926KSTC STC20060211020009902/11/06 02:00:31  5-MIN KSTC 110800Z 35005KT 10SM OVC045 M04/M07 A3022 750 78 -1300 340/05 RMK AO2
14926KSTC STC20060211020509902/11/06 02:05:31  5-MIN KSTC 110805Z 35006KT 10SM OVC045 M04/M07 A3022 750 78 -1300 340/06 RMK AO2
14926KSTC STC20060211021009902/11/06 02:10:31  5-MIN KSTC 110810Z 35006KT 10SM OVC045 M04/M07 A3022 750 78 -1300 340/06 RMK AO2
14926KSTC STC20060211021509902/11/06 02:15:31  5-MIN KSTC 110815Z 36006KT 10SM OVC045 M04/M08 A3022 750 74 -1300 350/06 RMK AO2
14926KSTC STC20060211022009902/11/06 02:20:31  5-MIN KSTC 110820Z 36005KT 10SM OVC045 M04/M08 A3022 750 74 -1300 350/05 RMK AO2
14926KSTC STC20060211022509902/11/06 02:25:31  5-MIN KSTC 110825Z 36008KT 10SM OVC045 M04/M08 A3022 750 74 -1300 350/08 RMK AO2
14926KSTC STC20060211023009902/11/06 02:30:31  5-MIN KSTC 110830Z 36008KT 10SM OVC045 M04/M08 A3023 750 74 -1300 350/08 RMK AO2
14926KSTC STC20060211023509902/11/06 02:35:31  5-MIN KSTC 110835Z 35008KT 10SM OVC045 M04/M08 A3023 750 74 -1300 350/08 RMK AO2
14926KSTC STC20060211024009902/11/06 02:40:31  5-MIN KSTC 110840Z 36009KT 10SM OVC047 M04/M08 A3023 750 74 -1300 350/09 RMK AO2
14926KSTC STC20060211024509902/11/06 02:45:31  5-MIN KSTC 110845Z 36010KT 10SM OVC047 M04/M08 A3022 750 71 -1300 360/10 RMK AO2
14926KSTC STC20060211025012202/11/06 02:50:31  5-MIN KSTC 110850Z 36008KT 10SM OVC047 M04/M08 A3022 750 74 -1400 350/08 RMK AO2 SLP260 T10441083 51024
14926KSTC STC20060211025509902/11/06 02:55:31  5-MIN KSTC 110855Z 36009KT 10SM OVC047 M04/M08 A3022 750 74 -1400 360/09 RMK AO2
14926KSTC STC20060211030009902/11/06 03:00:31  5-MIN KSTC 110900Z 36010KT 10SM OVC047 M04/M08 A3022 750 74 -1400 360/10 RMK AO2
14926KSTC STC20060211030509902/11/06 03:05:31  5-MIN KSTC 110905Z 36010KT 10SM OVC047 M04/M08 A3022 750 74 -1400 360/10 RMK AO2
14926KSTC STC20060211031009902/11/06 03:10:31  5-MIN KSTC 110910Z 36008KT 10SM OVC047 M04/M08 A3022 750 74 -1400 350/08 RMK AO2
14926KSTC STC20060211031509902/11/06 03:15:31  5-MIN KSTC 110915Z 36008KT 10SM OVC045 M04/M08 A3022 750 74 -1400 360/08 RMK AO2
14926KSTC STC20060211032009902/11/06 03:20:31  5-MIN KSTC 110920Z 01008KT 10SM OVC045 M04/M08 A3022 750 74 -1400 360/08 RMK AO2
14926KSTC STC20060211032509902/11/06 03:25:31  5-MIN KSTC 110925Z 01008KT 10SM OVC045 M04/M08 A3022 750 74 -1400 010/08 RMK AO2
14926KSTC STC20060211033009902/11/06 03:30:31  5-MIN KSTC 110930Z 36010KT 10SM OVC045 M04/M08 A3022 750 74 -1400 350/10 RMK AO2
14926KSTC STC20060211033509902/11/06 03:35:31  5-MIN KSTC 110935Z 36009KT 10SM OVC045 M04/M08 A3022 750 74 -1400 360/09 RMK AO2
14926KSTC STC20060211034009902/11/06 03:40:31  5-MIN KSTC 110940Z 36009KT 10SM OVC045 M04/M09 A3022 750 71 -1400 360/09 RMK AO2
14926KSTC STC20060211034509902/11/06 03:45:31  5-MIN KSTC 110945Z 36008KT 10SM OVC045 M04/M09 A3022 750 71 -1400 360/08 RMK AO2
14926KSTC STC20060211035011602/11/06 03:50:31  5-MIN KSTC 110950Z 36011KT 10SM OVC045 M04/M09 A3022 750 71 -1400 360/11 RMK AO2 SLP259 T10441089
14926KSTC STC20060211035509902/11/06 03:55:31  5-MIN KSTC 110955Z 36010KT 10SM OVC045 M05/M09 A3022 750 74 -1400 360/10 RMK AO2
14926KSTC STC20060211040009902/11/06 04:00:31  5-MIN KSTC 111000Z 36010KT 10SM OVC045 M05/M09 A3022 750 74 -1400 360/10 RMK AO2
14926KSTC STC20060211040509902/11/06 04:05:31  5-MIN KSTC 111005Z 35011KT 10SM OVC045 M05/M09 A3022 750 74 -1400 350/11 RMK AO2
14926KSTC STC20060211041009902/11/06 04:10:31  5-MIN KSTC 111010Z 35011KT 10SM OVC045 M05/M09 A3022 750 74 -1400 350/11 RMK AO2
14926KSTC STC20060211041509902/11/06 04:15:31  5-MIN KSTC 111015Z 35013KT 10SM OVC045 M05/M09 A3022 750 74 -1400 350/13 RMK AO2
14926KSTC STC20060211042009902/11/06 04:20:31  5-MIN KSTC 111020Z 35012KT 10SM OVC045 M06/M09 A3022 750 77 -1500 350/12 RMK AO2
14926KSTC STC20060211042509902/11/06 04:25:31  5-MIN KSTC 111025Z 35011KT 10SM OVC045 M06/M09 A3023 750 74 -1500 340/11 RMK AO2
14926KSTC STC20060211043009902/11/06 04:30:31  5-MIN KSTC 111030Z 34011KT 10SM OVC045 M06/M09 A3023 740 74 -1500 340/11 RMK AO2
14926KSTC STC20060211043509902/11/06 04:35:31  5-MIN KSTC 111035Z 34010KT 10SM OVC047 M06/M09 A3023 740 74 -1500 340/10 RMK AO2
14926KSTC STC20060211044009902/11/06 04:40:31  5-MIN KSTC 111040Z 34010KT 10SM OVC047 M06/M09 A3023 740 74 -1500 340/10 RMK AO2
14926KSTC STC20060211044509902/11/06 04:45:31  5-MIN KSTC 111045Z 34010KT 10SM OVC047 M06/M09 A3023 740 74 -1500 340/10 RMK AO2
14926KSTC STC20060211045011602/11/06 04:50:31  5-MIN KSTC 111050Z 35010KT 10SM OVC049 M06/M09 A3023 740 74 -1500 340/10 RMK AO2 SLP264 T10561094
14926KSTC STC20060211045509902/11/06 04:55:31  5-MIN KSTC 111055Z 34009KT 10SM OVC049 M06/M09 A3023 740 77 -1600 340/09 RMK AO2
14926KSTC STC20060211050009902/11/06 05:00:31  5-MIN KSTC 111100Z 34009KT 10SM OVC049 M06/M09 A3024 740 77 -1600 340/09 RMK AO2
14926KSTC STC20060211050509902/11/06 05:05:31  5-MIN KSTC 111105Z 34010KT 10SM OVC049 M06/M10 A3024 730 74 -1600 340/10 RMK AO2
14926KSTC STC20060211051009902/11/06 05:10:31  5-MIN KSTC 111110Z 34008KT 10SM OVC049 M06/M10 A3024 730 74 -1600 340/08 RMK AO2
14926KSTC STC20060211051509902/11/06 05:15:31  5-MIN KSTC 111115Z 34008KT 10SM OVC049 M07/M10 A3024 730 77 -1700 340/08 RMK AO2
14926KSTC STC20060211052009902/11/06 05:20:31  5-MIN KSTC 111120Z 34008KT 10SM BKN049 M07/M10 A3024 730 77 -1700 340/08 RMK AO2
14926KSTC STC20060211052509902/11/06 05:25:31  5-MIN KSTC 111125Z 34010KT 10SM BKN049 M07/M10 A3024 730 77 -1700 340/10 RMK AO2
14926KSTC STC20060211053009902/11/06 05:30:31  5-MIN KSTC 111130Z 34010KT 10SM BKN049 M06/M10 A3025 730 74 -1600 340/10 RMK AO2
14926KSTC STC20060211053509902/11/06 05:35:31  5-MIN KSTC 111135Z 34009KT 10SM BKN049 M06/M10 A3024 730 74 -1600 340/09 RMK AO2
14926KSTC STC20060211054009902/11/06 05:40:31  5-MIN KSTC 111140Z 34009KT 10SM SCT049 M07/M10 A3025 730 77 -1700 340/09 RMK AO2
14926KSTC STC20060211054509902/11/06 05:45:31  5-MIN KSTC 111145Z 34008KT 10SM SCT049 M07/M11 A3025 730 74 -1700 340/08 RMK AO2
14926KSTC STC20060211055013402/11/06 05:50:31  5-MIN KSTC 111150Z 34007KT 10SM SCT049 M07/M11 A3024 730 74 -1700 340/07 RMK AO2 SLP268 T10671106 11039 21067 51012
14926KSTC STC20060211055509902/11/06 05:55:31  5-MIN KSTC 111155Z 35007KT 10SM FEW049 M07/M11 A3024 730 74 -1700 340/07 RMK AO2
14926KSTC STC20060211060009902/11/06 06:00:31  5-MIN KSTC 111200Z 35007KT 10SM FEW049 M07/M11 A3024 730 77 -1800 340/07 RMK AO2
14926KSTC STC20060211060509902/11/06 06:05:31  5-MIN KSTC 111205Z 34007KT 10SM FEW049 M07/M11 A3024 730 77 -1800 340/07 RMK AO2
14926KSTC STC20060211061009902/11/06 06:10:31  5-MIN KSTC 111210Z 35007KT 10SM FEW049 M07/M11 A3025 730 77 -1800 340/07 RMK AO2
14926KSTC STC20060211061509602/11/06 06:15:31  5-MIN KSTC 111215Z 34006KT 10SM CLR M08/M11 A3025 730 77 -1800 340/06 RMK AO2
14926KSTC STC20060211062009602/11/06 06:20:31  5-MIN KSTC 111220Z 34006KT 10SM CLR M08/M11 A3025 730 77 -1800 340/06 RMK AO2
14926KSTC STC20060211062509602/11/06 06:25:31  5-MIN KSTC 111225Z 34006KT 10SM CLR M08/M11 A3025 730 77 -1800 340/06 RMK AO2
14926KSTC STC20060211063009602/11/06 06:30:31  5-MIN KSTC 111230Z 34006KT 10SM CLR M08/M11 A3025 730 77 -1800 340/06 RMK AO2
14926KSTC STC20060211063509602/11/06 06:35:31  5-MIN KSTC 111235Z 34006KT 10SM CLR M08/M11 A3025 720 77 -1800 340/06 RMK AO2
14926KSTC STC20060211064009602/11/06 06:40:31  5-MIN KSTC 111240Z 34007KT 10SM CLR M08/M11 A3025 720 77 -1800 330/07 RMK AO2
14926KSTC STC20060211064509602/11/06 06:45:31  5-MIN KSTC 111245Z 34008KT 10SM CLR M07/M11 A3025 720 77 -1800 330/08 RMK AO2
14926KSTC STC20060211065011302/11/06 06:50:31  5-MIN KSTC 111250Z 34007KT 10SM CLR M07/M11 A3025 720 77 -1800 340/07 RMK AO2 SLP270 T10721106
14926KSTC STC20060211065509602/11/06 06:55:31  5-MIN KSTC 111255Z 34007KT 10SM CLR M07/M11 A3025 720 77 -1800 340/07 RMK AO2
14926KSTC STC20060211070009602/11/06 07:00:31  5-MIN KSTC 111300Z 34007KT 10SM CLR M07/M11 A3025 720 77 -1800 340/07 RMK AO2
14926KSTC STC20060211070509602/11/06 07:05:31  5-MIN KSTC 111305Z 34007KT 10SM CLR M07/M11 A3025 720 77 -1800 330/07 RMK AO2
14926KSTC STC20060211071009602/11/06 07:10:31  5-MIN KSTC 111310Z 33006KT 10SM CLR M08/M11 A3025 720 80 -1800 330/06 RMK AO2
14926KSTC STC20060211071509602/11/06 07:15:31  5-MIN KSTC 111315Z 33006KT 10SM CLR M08/M11 A3025 720 77 -1800 330/06 RMK AO2
14926KSTC STC20060211072009602/11/06 07:20:31  5-MIN KSTC 111320Z 33005KT 10SM CLR M08/M11 A3025 720 80 -1900 320/05 RMK AO2
14926KSTC STC20060211072509602/11/06 07:25:31  5-MIN KSTC 111325Z 33005KT 10SM CLR M08/M11 A3025 720 80 -1900 320/05 RMK AO2
14926KSTC STC20060211073009602/11/06 07:30:31  5-MIN KSTC 111330Z 33006KT 10SM CLR M08/M11 A3026 720 80 -1900 330/06 RMK AO2
14926KSTC STC20060211073509602/11/06 07:35:31  5-MIN KSTC 111335Z 33006KT 10SM CLR M09/M12 A3026 720 80 -2000 330/06 RMK AO2
14926KSTC STC20060211074009602/11/06 07:40:31  5-MIN KSTC 111340Z 33008KT 10SM CLR M08/M11 A3027 710 80 -1900 320/08 RMK AO2
14926KSTC STC20060211074509602/11/06 07:45:31  5-MIN KSTC 111345Z 33008KT 10SM CLR M08/M12 A3027 700 77 -1900 320/08 RMK AO2
14926KSTC STC20060211075011302/11/06 07:50:31  5-MIN KSTC 111350Z 33010KT 10SM CLR M08/M12 A3027 700 77 -1900 330/10 RMK AO2 SLP278 T10831117
14926KSTC STC20060211075509502/11/06 07:55:31  5-MIN KSTC 111355Z 33011KT 9SM CLR M08/M12 A3027 700 77 -1900 330/11 RMK AO2
14926KSTC STC20060211080009502/11/06 08:00:31  5-MIN KSTC 111400Z 33010KT 9SM CLR M08/M12 A3027 700 77 -1900 330/10 RMK AO2
14926KSTC STC20060211080509602/11/06 08:05:31  5-MIN KSTC 111405Z 33010KT 10SM CLR M08/M12 A3027 700 77 -1900 330/10 RMK AO2
14926KSTC STC20060211081009902/11/06 08:10:31  5-MIN KSTC 111410Z 33009KT 10SM FEW044 M08/M12 A3027 700 77 -1900 330/09 RMK AO2
14926KSTC STC20060211081510602/11/06 08:15:31  5-MIN KSTC 111415Z 33011KT 10SM FEW034 SCT044 M08/M12 A3027 700 77 -1900 330/11 RMK AO2
14926KSTC STC20060211082010602/11/06 08:20:31  5-MIN KSTC 111420Z 33009KT 10SM FEW034 SCT044 M09/M12 A3027 700 77 -2000 330/09 RMK AO2
14926KSTC STC20060211082509902/11/06 08:25:31  5-MIN KSTC 111425Z 33008KT 10SM SCT044 M09/M12 A3027 700 77 -2000 330/08 RMK AO2
14926KSTC STC20060211083009902/11/06 08:30:31  5-MIN KSTC 111430Z 33009KT 10SM SCT044 M09/M12 A3028 700 77 -2000 330/09 RMK AO2
14926KSTC STC20060211083509902/11/06 08:35:31  5-MIN KSTC 111435Z 33008KT 10SM SCT044 M09/M12 A3027 700 77 -2000 330/08 RMK AO2
14926KSTC STC20060211084009902/11/06 08:40:31  5-MIN KSTC 111440Z 33008KT 10SM FEW044 M09/M12 A3028 700 77 -2000 330/08 RMK AO2
14926KSTC STC20060211084509902/11/06 08:45:31  5-MIN KSTC 111445Z 33009KT 10SM FEW044 M09/M12 A3028 700 80 -2100 330/09 RMK AO2
14926KSTC STC20060211085012202/11/06 08:50:31  5-MIN KSTC 111450Z 33010KT 10SM FEW044 M09/M12 A3028 700 77 -2000 330/10 RMK AO2 SLP280 T10891122 53007
14926KSTC STC20060211085509902/11/06 08:55:31  5-MIN KSTC 111455Z 33011KT 10SM FEW044 M09/M12 A3028 700 77 -2000 330/11 RMK AO2
14926KSTC STC20060211090009602/11/06 09:00:31  5-MIN KSTC 111500Z 33010KT 10SM CLR M09/M12 A3028 700 77 -2000 330/10 RMK AO2
14926KSTC STC20060211090509602/11/06 09:05:31  5-MIN KSTC 111505Z 33011KT 10SM CLR M09/M12 A3028 700 77 -2000 320/11 RMK AO2
14926KSTC STC20060211091009602/11/06 09:10:31  5-MIN KSTC 111510Z 33009KT 10SM CLR M09/M12 A3028 700 77 -2000 330/09 RMK AO2
14926KSTC STC20060211091509602/11/06 09:15:31  5-MIN KSTC 111515Z 33010KT 10SM CLR M09/M12 A3028 700 77 -2000 320/10 RMK AO2
14926KSTC STC20060211092009902/11/06 09:20:31  5-MIN KSTC 111520Z 33010KT 10SM FEW046 M09/M12 A3028 700 77 -2000 330/10 RMK AO2
14926KSTC STC20060211092509902/11/06 09:25:31  5-MIN KSTC 111525Z 33008KT 10SM FEW046 M09/M12 A3027 700 77 -2000 330/08 RMK AO2
14926KSTC STC20060211093009902/11/06 09:30:31  5-MIN KSTC 111530Z 33009KT 10SM SCT046 M08/M12 A3027 700 74 -1900 330/09 RMK AO2
14926KSTC STC20060211093509902/11/06 09:35:31  5-MIN KSTC 111535Z 32009KT 10SM SCT046 M09/M12 A3027 700 77 -2000 320/09 RMK AO2
14926KSTC STC20060211094009902/11/06 09:40:31  5-MIN KSTC 111540Z 33008KT 10SM SCT046 M08/M12 A3028 700 74 -1900 320/08 RMK AO2
14926KSTC STC20060211094509902/11/06 09:45:31  5-MIN KSTC 111545Z 33009KT 10SM FEW046 M08/M12 A3028 700 74 -1900 320/09 RMK AO2
14926KSTC STC20060211095011602/11/06 09:50:31  5-MIN KSTC 111550Z 33009KT 10SM FEW046 M08/M12 A3028 700 74 -1900 330/09 RMK AO2 SLP280 T10831122
14926KSTC STC20060211095509902/11/06 09:55:31  5-MIN KSTC 111555Z 32009KT 10SM FEW046 M08/M12 A3028 700 74 -1900 320/09 RMK AO2
14926KSTC STC20060211100009902/11/06 10:00:31  5-MIN KSTC 111600Z 32010KT 10SM FEW046 M08/M12 A3028 700 74 -1900 320/10 RMK AO2
14926KSTC STC20060211100509902/11/06 10:05:31  5-MIN KSTC 111605Z 32012KT 10SM FEW046 M08/M12 A3028 700 74 -1900 320/12 RMK AO2
14926KSTC STC20060211101009902/11/06 10:10:31  5-MIN KSTC 111610Z 33008KT 10SM SCT046 M08/M12 A3027 700 71 -1900 330/08 RMK AO2
14926KSTC STC20060211101509902/11/06 10:15:31  5-MIN KSTC 111615Z 31008KT 10SM SCT046 M08/M12 A3027 700 71 -1900 310/08 RMK AO2
14926KSTC STC20060211102009902/11/06 10:20:31  5-MIN KSTC 111620Z 31010KT 10SM BKN046 M08/M12 A3027 700 74 -1900 310/10 RMK AO2
14926KSTC STC20060211102509902/11/06 10:25:31  5-MIN KSTC 111625Z 32010KT 10SM BKN046 M08/M12 A3027 700 74 -1900 310/10 RMK AO2
14926KSTC STC20060211103009902/11/06 10:30:31  5-MIN KSTC 111630Z 31010KT 10SM BKN046 M08/M12 A3027 700 74 -1900 310/10 RMK AO2
14926KSTC STC20060211103509902/11/06 10:35:31  5-MIN KSTC 111635Z 31009KT 10SM OVC046 M08/M12 A3027 700 74 -1900 310/09 RMK AO2
14926KSTC STC20060211104009902/11/06 10:40:31  5-MIN KSTC 111640Z 32009KT 10SM OVC048 M08/M12 A3027 700 77 -1900 310/09 RMK AO2
14926KSTC STC20060211104509902/11/06 10:45:31  5-MIN KSTC 111645Z 31011KT 10SM OVC048 M08/M12 A3027 700 71 -1900 310/11 RMK AO2
14926KSTC STC20060211105011602/11/06 10:50:31  5-MIN KSTC 111650Z 33007KT 10SM OVC048 M08/M12 A3027 710 71 -1900 330/07 RMK AO2 SLP276 T10781122
14926KSTC STC20060211105509902/11/06 10:55:31  5-MIN KSTC 111655Z 33009KT 10SM BKN048 M08/M12 A3027 710 71 -1900 320/09 RMK AO2
14926KSTC STC20060211110009902/11/06 11:00:31  5-MIN KSTC 111700Z 33009KT 10SM BKN048 M08/M12 A3027 710 74 -1900 330/09 RMK AO2
14926KSTC STC20060211110509902/11/06 11:05:31  5-MIN KSTC 111705Z 34007KT 10SM SCT048 M07/M12 A3026 710 71 -1800 340/07 RMK AO2
14926KSTC STC20060211111009902/11/06 11:10:31  5-MIN KSTC 111710Z 32008KT 10SM FEW048 M07/M12 A3026 710 71 -1800 320/08 RMK AO2
14926KSTC STC20060211111509902/11/06 11:15:31  5-MIN KSTC 111715Z 32009KT 10SM FEW048 M07/M12 A3026 710 71 -1800 310/09 RMK AO2
14926KSTC STC20060211112009602/11/06 11:20:31  5-MIN KSTC 111720Z 32009KT 10SM CLR M07/M12 A3026 710 71 -1800 320/09 RMK AO2
14926KSTC STC20060211112509602/11/06 11:25:31  5-MIN KSTC 111725Z 32010KT 10SM CLR M07/M12 A3026 710 68 -1700 320/10 RMK AO2
14926KSTC STC20060211113009602/11/06 11:30:31  5-MIN KSTC 111730Z 32008KT 10SM CLR M07/M12 A3026 710 68 -1700 310/08 RMK AO2
14926KSTC STC20060211113509602/11/06 11:35:31  5-MIN KSTC 111735Z 32009KT 10SM CLR M07/M12 A3026 710 68 -1700 310/09 RMK AO2
14926KSTC STC20060211114009602/11/06 11:40:31  5-MIN KSTC 111740Z 32006KT 10SM CLR M07/M11 A3026 720 71 -1700 320/06 RMK AO2
14926KSTC STC20060211114509602/11/06 11:45:31  5-MIN KSTC 111745Z 31007KT 10SM CLR M07/M11 A3026 720 71 -1700 310/07 RMK AO2
14926KSTC STC20060211115013102/11/06 11:50:31  5-MIN KSTC 111750Z 32009KT 10SM CLR M07/M11 A3026 720 71 -1700 310/09 RMK AO2 SLP272 T10671111 11067 21094 52012
14926KSTC STC20060211115509902/11/06 11:55:31  5-MIN KSTC 111755Z 30009KT 10SM FEW050 M07/M11 A3025 720 71 -1700 300/09 RMK AO2
14926KSTC STC20060211120009902/11/06 12:00:31  5-MIN KSTC 111800Z 31008KT 10SM FEW050 M07/M11 A3025 720 71 -1700 310/08 RMK AO2
14926KSTC STC20060211120509902/11/06 12:05:31  5-MIN KSTC 111805Z 31010KT 10SM FEW055 M07/M11 A3025 720 71 -1700 310/10 RMK AO2
14926KSTC STC20060211121009902/11/06 12:10:31  5-MIN KSTC 111810Z 31010KT 10SM FEW055 M07/M11 A3025 720 71 -1700 300/10 RMK AO2
14926KSTC STC20060211121509902/11/06 12:15:31  5-MIN KSTC 111815Z 30011KT 10SM FEW055 M07/M11 A3025 720 71 -1700 300/11 RMK AO2
14926KSTC STC20060211122009902/11/06 12:20:31  5-MIN KSTC 111820Z 31010KT 10SM FEW055 M06/M11 A3025 720 71 -1600 310/10 RMK AO2
14926KSTC STC20060211122509602/11/06 12:25:31  5-MIN KSTC 111825Z 32010KT 10SM CLR M07/M11 A3024 730 71 -1700 320/10 RMK AO2
14926KSTC STC20060211123009602/11/06 12:30:31  5-MIN KSTC 111830Z 32009KT 10SM CLR M06/M11 A3024 730 68 -1600 320/09 RMK AO2
14926KSTC STC20060211123509602/11/06 12:35:31  5-MIN KSTC 111835Z 32008KT 10SM CLR M06/M11 A3024 730 65 -1500 320/08 RMK AO2
14926KSTC STC20060211124009602/11/06 12:40:31  5-MIN KSTC 111840Z 33007KT 10SM CLR M06/M11 A3024 740 65 -1500 320/07 RMK AO2
14926KSTC STC20060211124509602/11/06 12:45:31  5-MIN KSTC 111845Z 30010KT 10SM CLR M06/M11 A3023 740 68 -1600 300/10 RMK AO2
14926KSTC STC20060211125011302/11/06 12:50:31  5-MIN KSTC 111850Z 31010KT 10SM CLR M06/M11 A3023 740 71 -1600 310/10 RMK AO2 SLP263 T10611106
14926KSTC STC20060211125509602/11/06 12:55:31  5-MIN KSTC 111855Z 30010KT 10SM CLR M06/M11 A3023 740 68 -1600 300/10 RMK AO2
14926KSTC STC20060211130009602/11/06 13:00:31  5-MIN KSTC 111900Z 31011KT 10SM CLR M06/M11 A3022 750 71 -1600 300/11 RMK AO2
14926KSTC STC20060211130509602/11/06 13:05:31  5-MIN KSTC 111905Z 31010KT 10SM CLR M06/M11 A3022 750 71 -1600 310/10 RMK AO2
14926KSTC STC20060211131009602/11/06 13:10:31  5-MIN KSTC 111910Z 32010KT 10SM CLR M06/M11 A3022 750 71 -1600 310/10 RMK AO2
14926KSTC STC20060211131509902/11/06 13:15:31  5-MIN KSTC 111915Z 32011KT 10SM FEW060 M06/M11 A3022 750 68 -1500 310/11 RMK AO2
14926KSTC STC20060211132009902/11/06 13:20:31  5-MIN KSTC 111920Z 31013KT 10SM SCT060 M06/M11 A3022 750 68 -1500 310/13 RMK AO2
14926KSTC STC20060211132509902/11/06 13:25:31  5-MIN KSTC 111925Z 31013KT 10SM BKN060 M06/M11 A3022 750 68 -1500 310/13 RMK AO2
14926KSTC STC20060211133010602/11/06 13:30:31  5-MIN KSTC 111930Z 32013KT 10SM FEW021 BKN060 M06/M11 A3021 760 68 -1500 310/13 RMK AO2
14926KSTC STC20060211133510602/11/06 13:35:31  5-MIN KSTC 111935Z 32011KT 10SM SCT021 BKN060 M06/M11 A3021 760 68 -1500 320/11 RMK AO2
14926KSTC STC20060211134010602/11/06 13:40:31  5-MIN KSTC 111940Z 31012KT 10SM BKN021 OVC060 M06/M11 A3021 760 68 -1500 310/12 RMK AO2
14926KSTC STC20060211134510602/11/06 13:45:31  5-MIN KSTC 111945Z 33009KT 10SM BKN021 OVC060 M06/M11 A3021 760 68 -1500 320/09 RMK AO2
14926KSTC STC20060211135012302/11/06 13:50:31  5-MIN KSTC 111950Z 33009KT 10SM BKN021 OVC060 M06/M11 A3021 760 68 -1500 330/09 RMK AO2 SLP254 T10561106
14926KSTC STC20060211135509902/11/06 13:55:31  5-MIN KSTC 111955Z 31012KT 10SM OVC021 M06/M10 A3021 760 71 -1500 300/12 RMK AO2
14926KSTC STC20060211140009902/11/06 14:00:31  5-MIN KSTC 112000Z 31013KT 10SM OVC021 M06/M10 A3020 760 71 -1500 310/13 RMK AO2
14926KSTC STC20060211140509902/11/06 14:05:31  5-MIN KSTC 112005Z 31012KT 10SM OVC021 M06/M10 A3020 770 71 -1500 300/12 RMK AO2
14926KSTC STC20060211141009902/11/06 14:10:31  5-MIN KSTC 112010Z 32009KT 10SM OVC021 M06/M10 A3020 770 71 -1500 320/09 RMK AO2
14926KSTC STC20060211141509902/11/06 14:15:31  5-MIN KSTC 112015Z 33010KT 10SM OVC021 M05/M10 A3020 770 68 -1400 330/10 RMK AO2
14926KSTC STC20060211142009902/11/06 14:20:31  5-MIN KSTC 112020Z 33010KT 10SM OVC021 M06/M11 A3020 770 68 -1500 330/10 RMK AO2
14926KSTC STC20060211142509902/11/06 14:25:31  5-MIN KSTC 112025Z 32009KT 10SM OVC021 M06/M11 A3019 770 68 -1500 320/09 RMK AO2
14926KSTC STC20060211143010602/11/06 14:30:31  5-MIN KSTC 112030Z 32011KT 10SM BKN021 OVC047 M05/M10 A3019 780 68 -1400 320/11 RMK AO2
14926KSTC STC20060211143510602/11/06 14:35:31  5-MIN KSTC 112035Z 32011KT 10SM BKN023 OVC047 M05/M10 A3019 780 68 -1400 320/11 RMK AO2
14926KSTC STC20060211144010602/11/06 14:40:31  5-MIN KSTC 112040Z 32011KT 10SM BKN023 OVC047 M05/M11 A3019 780 65 -1400 320/11 RMK AO2
14926KSTC STC20060211144510502/11/06 14:45:31  5-MIN KSTC 112045Z 32012G17KT 10SM OVC023 M05/M10 A3019 780 68 -1400 320/12G17 RMK AO2
14926KSTC STC20060211145012102/11/06 14:50:31  5-MIN KSTC 112050Z 33009KT 9SM OVC023 M05/M10 A3019 780 68 -1400 320/09 RMK AO2 SLP248 T10501100 58008
14926KSTC STC20060211145509802/11/06 14:55:31  5-MIN KSTC 112055Z 32012KT 9SM OVC023 M05/M10 A3019 780 68 -1400 310/12 RMK AO2
14926KSTC STC20060211150009802/11/06 15:00:31  5-MIN KSTC 112100Z 32011KT 9SM OVC025 M05/M10 A3018 780 68 -1400 310/11 RMK AO2
14926KSTC STC20060211150510502/11/06 15:05:31  5-MIN KSTC 112105Z 32013KT 9SM BKN025 OVC042 M05/M10 A3018 790 68 -1400 310/13 RMK AO2
14926KSTC STC20060211151012102/11/06 15:10:31  5-MIN KSTC 112110Z 31012KT 8SM -SN BKN025 OVC038 M05/M10 A3018 790 68 -1400 310/12 RMK AO2 SNB06 P0000
14926KSTC STC20060211151512102/11/06 15:15:31  5-MIN KSTC 112115Z 31012KT 7SM -SN SCT025 OVC038 M05/M10 A3018 790 68 -1400 310/12 RMK AO2 SNB06 P0000
14926KSTC STC20060211152012702/11/06 15:20:31  5-MIN KSTC 112120Z 33009KT 7SM SCT025 BKN038 OVC060 M05/M10 A3018 790 68 -1400 330/09 RMK AO2 SNB06E19 P0000
14926KSTC STC20060211152512702/11/06 15:25:31  5-MIN KSTC 112125Z 32010KT 9SM SCT025 BKN038 OVC060 M05/M10 A3017 790 68 -1400 320/10 RMK AO2 SNB06E19 P0000
14926KSTC STC20060211153012802/11/06 15:30:31  5-MIN KSTC 112130Z 33009KT 10SM FEW025 BKN038 OVC060 M05/M10 A3017 790 68 -1400 320/09 RMK AO2 SNB06E19 P0000
14926KSTC STC20060211153512802/11/06 15:35:31  5-MIN KSTC 112135Z 31013KT 10SM FEW027 SCT038 OVC060 M05/M11 A3017 790 65 -1400 310/13 RMK AO2 SNB06E19 P0000
14926KSTC STC20060211154012802/11/06 15:40:31  5-MIN KSTC 112140Z 31013KT 10SM FEW025 SCT032 OVC060 M06/M10 A3017 790 71 -1500 310/13 RMK AO2 SNB06E19 P0000
14926KSTC STC20060211154512802/11/06 15:45:31  5-MIN KSTC 112145Z 32013KT 10SM FEW026 BKN032 OVC060 M05/M11 A3017 790 65 -1400 310/13 RMK AO2 SNB06E19 P0000
14926KSTC STC20060211155014302/11/06 15:50:31  5-MIN KSTC 112150Z AUTO 32013KT 10SM BKN030 OVC060 M05/M11 A3017 800 65 -1400 310/13 RMK AO2 SNB06E19 SLP242 P0000 T10501106
14926KSTC STC20060211155511102/11/06 15:55:31  5-MIN KSTC 112155Z AUTO 31015KT 10SM BKN030 OVC060 M05/M11 A3017 800 65 -1400 300/15 RMK AO2
14926KSTC STC20060211160011102/11/06 16:00:31  5-MIN KSTC 112200Z AUTO 30014KT 10SM BKN030 OVC060 M06/M11 A3017 800 68 -1500 290/14 RMK AO2
14926KSTC STC20060211160511102/11/06 16:05:31  5-MIN KSTC 112205Z AUTO 31012KT 10SM BKN030 OVC047 M06/M11 A3017 800 65 -1500 310/12 RMK AO2
14926KSTC STC20060211161010402/11/06 16:10:31  5-MIN KSTC 112210Z AUTO 32012KT 10SM OVC030 M06/M11 A3017 800 65 -1500 310/12 RMK AO2
14926KSTC STC20060211161510402/11/06 16:15:31  5-MIN KSTC 112215Z AUTO 32011KT 10SM OVC030 M06/M11 A3017 800 65 -1500 310/11 RMK AO2
14926KSTC STC20060211162010402/11/06 16:20:31  5-MIN KSTC 112220Z AUTO 32012KT 10SM OVC030 M06/M11 A3017 800 65 -1500 310/12 RMK AO2
14926KSTC STC20060211162510402/11/06 16:25:31  5-MIN KSTC 112225Z AUTO 31010KT 10SM OVC028 M06/M11 A3017 800 68 -1500 310/10 RMK AO2
14926KSTC STC20060211163010402/11/06 16:30:31  5-MIN KSTC 112230Z AUTO 32013KT 10SM OVC028 M06/M11 A3017 800 68 -1500 310/13 RMK AO2
14926KSTC STC20060211163511102/11/06 16:35:31  5-MIN KSTC 112235Z AUTO 31014KT 10SM BKN028 OVC034 M06/M11 A3017 800 68 -1500 310/14 RMK AO2
14926KSTC STC20060211164011102/11/06 16:40:31  5-MIN KSTC 112240Z AUTO 31012KT 10SM BKN028 OVC034 M06/M11 A3017 800 68 -1500 300/12 RMK AO2
14926KSTC STC20060211164511102/11/06 16:45:31  5-MIN KSTC 112245Z AUTO 30014KT 10SM BKN028 OVC036 M06/M11 A3016 800 68 -1500 300/14 RMK AO2
14926KSTC STC20060211165012802/11/06 16:50:31  5-MIN KSTC 112250Z AUTO 30014KT 10SM SCT028 OVC036 M06/M11 A3016 800 68 -1500 300/14 RMK AO2 SLP241 T10611111
14926KSTC STC20060211165511802/11/06 16:55:31  5-MIN KSTC 112255Z AUTO 30014KT 10SM SCT026 BKN036 OVC042 M06/M11 A3016 800 68 -1500 300/14 RMK AO2
14926KSTC STC20060211170011802/11/06 17:00:31  5-MIN KSTC 112300Z AUTO 31013KT 10SM SCT030 BKN035 OVC042 M06/M12 A3016 810 65 -1500 300/13 RMK AO2
14926KSTC STC20060211170511102/11/06 17:05:31  5-MIN KSTC 112305Z AUTO 31012KT 10SM SCT030 OVC039 M06/M12 A3016 810 65 -1500 310/12 RMK AO2
14926KSTC STC20060211171011102/11/06 17:10:31  5-MIN KSTC 112310Z AUTO 30016KT 10SM FEW030 OVC039 M06/M12 A3016 810 65 -1500 300/16 RMK AO2
14926KSTC STC20060211171511102/11/06 17:15:31  5-MIN KSTC 112315Z AUTO 30014KT 10SM FEW030 OVC041 M06/M12 A3015 810 62 -1500 300/14 RMK AO2
14926KSTC STC20060211172011102/11/06 17:20:31  5-MIN KSTC 112320Z AUTO 31013KT 10SM FEW030 OVC041 M07/M12 A3015 810 65 -1600 310/13 RMK AO2
14926KSTC STC20060211172511102/11/06 17:25:31  5-MIN KSTC 112325Z AUTO 31011KT 10SM SCT030 OVC041 M07/M12 A3015 810 68 -1600 310/11 RMK AO2
14926KSTC STC20060211173011102/11/06 17:30:31  5-MIN KSTC 112330Z AUTO 30010KT 10SM BKN030 OVC041 M07/M12 A3015 810 68 -1600 300/10 RMK AO2
14926KSTC STC20060211173511102/11/06 17:35:31  5-MIN KSTC 112335Z AUTO 30016KT 10SM BKN030 OVC041 M07/M12 A3015 810 68 -1600 300/16 RMK AO2
14926KSTC STC20060211174011102/11/06 17:40:31  5-MIN KSTC 112340Z AUTO 30015KT 10SM SCT030 OVC041 M07/M12 A3015 810 68 -1600 290/15 RMK AO2
14926KSTC STC20060211174511102/11/06 17:45:31  5-MIN KSTC 112345Z AUTO 31014KT 10SM SCT030 OVC041 M07/M12 A3015 810 68 -1600 300/14 RMK AO2
14926KSTC STC20060211175015202/11/06 17:50:31  5-MIN KSTC 112350Z AUTO 29014KT 10SM SCT030 OVC041 M07/M12 A3016 810 65 -1600 290/14 RMK AO2 SLP239 60000 T10671122 11050 21067 56022
14926KSTC STC20060211175511102/11/06 17:55:31  5-MIN KSTC 112355Z AUTO 30012KT 10SM FEW028 OVC039 M07/M12 A3015 810 65 -1600 290/12 RMK AO2
14926KSTC STC20060211180010402/11/06 18:00:31  5-MIN KSTC 120000Z AUTO 29012KT 10SM OVC039 M07/M12 A3015 810 65 -1600 290/12 RMK AO2
14926KSTC STC20060211180510402/11/06 18:05:31  5-MIN KSTC 120005Z AUTO 30011KT 10SM OVC039 M07/M12 A3015 810 65 -1600 300/11 RMK AO2
14926KSTC STC20060211181010402/11/06 18:10:31  5-MIN KSTC 120010Z AUTO 30011KT 10SM OVC037 M07/M12 A3015 810 65 -1600 300/11 RMK AO2
14926KSTC STC20060211181510402/11/06 18:15:31  5-MIN KSTC 120015Z AUTO 30010KT 10SM OVC037 M07/M12 A3015 810 65 -1600 300/10 RMK AO2
14926KSTC STC20060211182010402/11/06 18:20:31  5-MIN KSTC 120020Z AUTO 30009KT 10SM OVC037 M07/M12 A3015 810 65 -1600 300/09 RMK AO2
14926KSTC STC20060211182510402/11/06 18:25:31  5-MIN KSTC 120025Z AUTO 30013KT 10SM OVC037 M07/M13 A3015 810 62 -1600 290/13 RMK AO2
14926KSTC STC20060211183010402/11/06 18:30:31  5-MIN KSTC 120030Z AUTO 29011KT 10SM OVC037 M07/M13 A3015 810 65 -1700 290/11 RMK AO2
14926KSTC STC20060211183510402/11/06 18:35:31  5-MIN KSTC 120035Z AUTO 29011KT 10SM OVC037 M07/M13 A3015 810 65 -1700 290/11 RMK AO2
14926KSTC STC20060211184012002/11/06 18:40:31  5-MIN KSTC 120040Z AUTO 29012KT 10SM -SN OVC037 M07/M13 A3015 820 65 -1700 290/12 RMK AO2 SNB40 P0000
14926KSTC STC20060211184511902/11/06 18:45:31  5-MIN KSTC 120045Z AUTO 29012KT 9SM -SN OVC037 M07/M13 A3015 820 65 -1600 290/12 RMK AO2 SNB40 P0000
14926KSTC STC20060211185013902/11/06 18:50:31  5-MIN KSTC 120050Z AUTO 30011KT 9SM OVC037 M07/M13 A3014 820 65 -1600 290/11 RMK AO2 SNB40SNEMM SLP235 P0000 T10721128 $
14926KSTC STC20060211185511502/11/06 18:55:31  5-MIN KSTC 120055Z AUTO 29009KT 9SM -SN OVC037 M07/M13 A3014 820 65 -1600 290/09 RMK AO2 P0000 $
14926KSTC STC20060211190011702/11/06 19:00:31  5-MIN KSTC 120100Z AUTO 29010KT 9SM OVC037 M07/M12 A3014 820 68 -1600 290/10 RMK AO2 SNE00 P0000 $
14926KSTC STC20060211190511702/11/06 19:05:31  5-MIN KSTC 120105Z AUTO 29009KT 9SM OVC037 M07/M12 A3014 820 68 -1600 280/09 RMK AO2 SNE00 P0000 $
14926KSTC STC20060211191011802/11/06 19:10:31  5-MIN KSTC 120110Z AUTO 29008KT 10SM OVC037 M07/M12 A3014 830 68 -1600 290/08 RMK AO2 SNE00 P0000 $
14926KSTC STC20060211191511802/11/06 19:15:31  5-MIN KSTC 120115Z AUTO 29008KT 10SM OVC037 M07/M12 A3014 830 68 -1600 290/08 RMK AO2 SNE00 P0000 $
14926KSTC STC20060211192011802/11/06 19:20:31  5-MIN KSTC 120120Z AUTO 28007KT 10SM OVC037 M07/M12 A3013 830 71 -1600 280/07 RMK AO2 SNE00 P0000 $
14926KSTC STC20060211192511802/11/06 19:25:31  5-MIN KSTC 120125Z AUTO 28008KT 10SM OVC037 M07/M12 A3013 830 71 -1600 280/08 RMK AO2 SNE00 P0000 $
14926KSTC STC20060211193011802/11/06 19:30:31  5-MIN KSTC 120130Z AUTO 27009KT 10SM OVC037 M08/M12 A3013 830 74 -1700 270/09 RMK AO2 SNE00 P0000 $
14926KSTC STC20060211193512402/11/06 19:35:31  5-MIN KSTC 120135Z AUTO 28008KT 8SM -SN OVC035 M08/M12 A3013 830 74 -1700 280/08 RMK AO2 SNE00B34 P0000 $
14926KSTC STC20060211194012402/11/06 19:40:31  5-MIN KSTC 120140Z AUTO 28008KT 7SM -SN OVC035 M08/M12 A3013 830 74 -1700 280/08 RMK AO2 SNE00B34 P0000 $
14926KSTC STC20060211194512402/11/06 19:45:31  5-MIN KSTC 120145Z AUTO 28008KT 6SM -SN OVC035 M08/M11 A3013 840 77 -1700 280/08 RMK AO2 SNE00B34 P0000 $
14926KSTC STC20060211195014102/11/06 19:50:31  5-MIN KSTC 120150Z AUTO 28008KT 5SM -SN OVC035 M08/M11 A3013 840 77 -1700 280/08 RMK AO2 SNE00B34 SLP229 P0000 T10781111 $
14926KSTC STC20060211195511502/11/06 19:55:31  5-MIN KSTC 120155Z AUTO 28007KT 5SM -SN OVC037 M08/M11 A3012 840 77 -1700 280/07 RMK AO2 P0000 $
14926KSTC STC20060211200012202/11/06 20:00:31  5-MIN KSTC 120200Z AUTO 29006KT 6SM -SN FEW030 OVC037 M08/M11 A3012 840 77 -1700 290/06 RMK AO2 P0000 $
14926KSTC STC20060211200512402/11/06 20:05:31  5-MIN KSTC 120205Z AUTO 28007KT 8SM FEW030 OVC037 M08/M12 A3012 840 77 -1800 280/07 RMK AO2 SNE01 P0000 $
14926KSTC STC20060211201011802/11/06 20:10:31  5-MIN KSTC 120210Z AUTO 29008KT 10SM OVC037 M08/M12 A3012 840 77 -1800 290/08 RMK AO2 SNE01 P0000 $
14926KSTC STC20060211201513202/11/06 20:15:31  5-MIN KSTC 120215Z AUTO 29008KT 10SM FEW026 BKN032 OVC039 M08/M12 A3012 840 77 -1800 290/08 RMK AO2 SNE01 P0000 $
14926KSTC STC20060211202013202/11/06 20:20:31  5-MIN KSTC 120220Z AUTO 29008KT 10SM FEW026 BKN032 OVC039 M08/M12 A3012 840 77 -1800 280/08 RMK AO2 SNE01 P0000 $
14926KSTC STC20060211202512502/11/06 20:25:31  5-MIN KSTC 120225Z AUTO 29009KT 10SM BKN033 OVC039 M08/M12 A3012 840 77 -1800 290/09 RMK AO2 SNE01 P0000 $
14926KSTC STC20060211203012502/11/06 20:30:31  5-MIN KSTC 120230Z AUTO 30010KT 10SM FEW026 OVC035 M08/M12 A3012 840 74 -1800 300/10 RMK AO2 SNE01 P0000 $
14926KSTC STC20060211203512502/11/06 20:35:31  5-MIN KSTC 120235Z AUTO 30011KT 10SM FEW026 OVC035 M08/M12 A3012 850 74 -1800 290/11 RMK AO2 SNE01 P0000 $
14926KSTC STC20060211204012502/11/06 20:40:31  5-MIN KSTC 120240Z AUTO 30012KT 10SM FEW026 OVC035 M08/M12 A3012 850 74 -1800 300/12 RMK AO2 SNE01 P0000 $
14926KSTC STC20060211204511802/11/06 20:45:31  5-MIN KSTC 120245Z AUTO 30011KT 10SM OVC035 M08/M12 A3012 840 74 -1800 300/11 RMK AO2 SNE01 P0000 $
14926KSTC STC20060211205014702/11/06 20:50:31  5-MIN KSTC 120250Z AUTO 30011KT 10SM OVC035 M08/M12 A3012 850 74 -1800 290/11 RMK AO2 SNE01 SLP227 P0000 60000 T10831122 56010 $
14926KSTC STC20060211205510602/11/06 20:55:31  5-MIN KSTC 120255Z AUTO 30011KT 10SM OVC035 M08/M12 A3012 850 74 -1800 290/11 RMK AO2 $
14926KSTC STC20060211210010602/11/06 21:00:31  5-MIN KSTC 120300Z AUTO 30010KT 10SM OVC035 M08/M12 A3011 850 74 -1800 300/10 RMK AO2 $
14926KSTC STC20060211210510602/11/06 21:05:31  5-MIN KSTC 120305Z AUTO 30009KT 10SM OVC033 M08/M12 A3011 850 74 -1800 290/09 RMK AO2 $
14926KSTC STC20060211211010602/11/06 21:10:31  5-MIN KSTC 120310Z AUTO 30012KT 10SM OVC033 M09/M12 A3011 850 77 -1800 290/12 RMK AO2 $
14926KSTC STC20060211211511302/11/06 21:15:31  5-MIN KSTC 120315Z AUTO 30011KT 10SM FEW025 OVC033 M09/M13 A3011 850 74 -1800 290/11 RMK AO2 $
14926KSTC STC20060211212011302/11/06 21:20:31  5-MIN KSTC 120320Z AUTO 30011KT 10SM FEW025 BKN031 M09/M13 A3011 850 77 -1900 290/11 RMK AO2 $
14926KSTC STC20060211212511302/11/06 21:25:31  5-MIN KSTC 120325Z AUTO 30010KT 10SM FEW025 BKN031 M09/M13 A3011 850 73 -1900 290/10 RMK AO2 $
14926KSTC STC20060211213011302/11/06 21:30:31  5-MIN KSTC 120330Z AUTO 29009KT 10SM FEW023 SCT031 M09/M13 A3011 850 73 -1900 290/09 RMK AO2 $
14926KSTC STC20060211213510602/11/06 21:35:31  5-MIN KSTC 120335Z AUTO 29008KT 10SM FEW023 M10/M13 A3011 850 77 -2000 290/08 RMK AO2 $
14926KSTC STC20060211214010602/11/06 21:40:31  5-MIN KSTC 120340Z AUTO 29010KT 10SM FEW023 M10/M13 A3011 850 77 -2000 290/10 RMK AO2 $
14926KSTC STC20060211214510302/11/06 21:45:31  5-MIN KSTC 120345Z AUTO 29009KT 10SM CLR M10/M13 A3011 850 77 -2000 290/09 RMK AO2 $
14926KSTC STC20060211215012002/11/06 21:50:31  5-MIN KSTC 120350Z AUTO 30009KT 10SM CLR M11/M14 A3011 850 77 -2000 290/09 RMK AO2 SLP226 T11061139 $
14926KSTC STC20060211215510302/11/06 21:55:31  5-MIN KSTC 120355Z AUTO 30008KT 10SM CLR M11/M14 A3011 850 77 -2000 290/08 RMK AO2 $
14926KSTC STC20060211220010302/11/06 22:00:31  5-MIN KSTC 120400Z AUTO 30008KT 10SM CLR M11/M14 A3011 850 77 -2000 290/08 RMK AO2 $
14926KSTC STC20060211220510302/11/06 22:05:31  5-MIN KSTC 120405Z AUTO 30008KT 10SM CLR M11/M14 A3011 850 77 -2000 290/08 RMK AO2 $
14926KSTC STC20060211221010302/11/06 22:10:31  5-MIN KSTC 120410Z AUTO 29008KT 10SM CLR M11/M14 A3011 850 80 -2100 290/08 RMK AO2 $
14926KSTC STC20060211221510302/11/06 22:15:31  5-MIN KSTC 120415Z AUTO 30008KT 10SM CLR M11/M14 A3011 850 80 -2100 290/08 RMK AO2 $
14926KSTC STC20060211222010302/11/06 22:20:31  5-MIN KSTC 120420Z AUTO 30007KT 10SM CLR M11/M14 A3011 850 77 -2100 290/07 RMK AO2 $
14926KSTC STC20060211222510302/11/06 22:25:31  5-MIN KSTC 120425Z AUTO 30007KT 10SM CLR M12/M14 A3011 860 80 -2200 290/07 RMK AO2 $
14926KSTC STC20060211223010302/11/06 22:30:31  5-MIN KSTC 120430Z AUTO 30007KT 10SM CLR M12/M15 A3010 860 80 -2300 290/07 RMK AO2 $
14926KSTC STC20060211223510302/11/06 22:35:31  5-MIN KSTC 120435Z AUTO 29007KT 10SM CLR M13/M16 A3010 860 80 -2300 290/07 RMK AO2 $
14926KSTC STC20060211224010302/11/06 22:40:31  5-MIN KSTC 120440Z AUTO 29005KT 10SM CLR M13/M15 A3010 860 84 -2300 290/05 RMK AO2 $
14926KSTC STC20060211224510302/11/06 22:45:31  5-MIN KSTC 120445Z AUTO 29005KT 10SM CLR M13/M15 A3010 860 87 -2400 290/05 RMK AO2 $
14926KSTC STC20060211225012002/11/06 22:50:31  5-MIN KSTC 120450Z AUTO 29004KT 10SM CLR M13/M16 A3010 860 83 -2400 280/04 RMK AO2 SLP223 T11331156 $
14926KSTC STC20060211225510302/11/06 22:55:31  5-MIN KSTC 120455Z AUTO 29004KT 10SM CLR M13/M15 A3010 860 84 -2300 290/04 RMK AO2 $
14926KSTC STC20060211230010302/11/06 23:00:31  5-MIN KSTC 120500Z AUTO 29005KT 10SM CLR M13/M15 A3010 860 84 -2300 290/05 RMK AO2 $
14926KSTC STC20060211230510302/11/06 23:05:31  5-MIN KSTC 120505Z AUTO 30004KT 10SM CLR M13/M15 A3009 870 84 -2300 290/04 RMK AO2 $
14926KSTC STC20060211231010302/11/06 23:10:31  5-MIN KSTC 120510Z AUTO 30005KT 10SM CLR M13/M15 A3009 870 84 -2300 300/05 RMK AO2 $
14926KSTC STC20060211231510302/11/06 23:15:31  5-MIN KSTC 120515Z AUTO 30004KT 10SM CLR M13/M15 A3009 870 84 -2300 300/04 RMK AO2 $
14926KSTC STC20060211232010302/11/06 23:20:31  5-MIN KSTC 120520Z AUTO 30005KT 10SM CLR M13/M15 A3009 870 87 -2400 300/05 RMK AO2 $
14926KSTC STC20060211232510302/11/06 23:25:31  5-MIN KSTC 120525Z AUTO 30005KT 10SM CLR M13/M15 A3009 870 87 -2400 300/05 RMK AO2 $
14926KSTC STC20060211233010302/11/06 23:30:31  5-MIN KSTC 120530Z AUTO 30006KT 10SM CLR M14/M16 A3009 870 87 -2500 300/06 RMK AO2 $
14926KSTC STC20060211233510602/11/06 23:35:31  5-MIN KSTC 120535Z AUTO 30006KT 10SM FEW021 M14/M16 A3009 870 87 -2500 300/06 RMK AO2 $
14926KSTC STC20060211234010602/11/06 23:40:31  5-MIN KSTC 120540Z AUTO 29006KT 10SM SCT021 M14/M16 A3009 870 87 -2500 290/06 RMK AO2 $
14926KSTC STC20060211234511302/11/06 23:45:31  5-MIN KSTC 120545Z AUTO 30006KT 10SM FEW015 BKN023 M15/M17 A3009 870 87 -2600 300/06 RMK AO2 $
14926KSTC STC20060211235016402/11/06 23:50:31  5-MIN KSTC 120550Z AUTO 30006KT 10SM FEW015 BKN023 M16/M17 A3009 870 91 -2700 290/06 RMK AO2 SLP219 60000 T11561167 11067 21156 410391156 56013 $
14926KSTC STC20060211235511302/11/06 23:55:31  5-MIN KSTC 120555Z AUTO 30006KT 10SM SCT015 BKN023 M15/M17 A3009 870 87 -2600 300/06 RMK AO2 $
14926KSTC STC20060212000011302/12/06 00:00:32  5-MIN KSTC 120600Z AUTO 30006KT 10SM BKN019 OVC023 M14/M16 A3009 870 87 -2500 290/06 RMK AO2 $
14926KSTC STC20060212000511302/12/06 00:05:31  5-MIN KSTC 120605Z AUTO 30006KT 10SM SCT017 OVC023 M16/M17 A3009 870 91 -2700 290/06 RMK AO2 $
14926KSTC STC20060212001011302/12/06 00:10:31  5-MIN KSTC 120610Z AUTO 30006KT 10SM BKN017 OVC023 M16/M17 A3008 880 91 -2700 300/06 RMK AO2 $
14926KSTC STC20060212001511302/12/06 00:15:31  5-MIN KSTC 120615Z AUTO 30006KT 10SM SCT017 OVC023 M15/M16 A3008 880 91 -2600 300/06 RMK AO2 $
14926KSTC STC20060212002011302/12/06 00:20:31  5-MIN KSTC 120620Z AUTO 31005KT 10SM BKN017 BKN023 M14/M16 A3008 870 87 -2500 300/05 RMK AO2 $
14926KSTC STC20060212002512002/12/06 00:25:31  5-MIN KSTC 120625Z AUTO 32005KT 10SM FEW007 BKN017 BKN023 M14/M16 A3009 870 87 -2500 310/05 RMK AO2 $
14926KSTC STC20060212003012002/12/06 00:30:31  5-MIN KSTC 120630Z AUTO 31005KT 10SM SCT007 BKN017 BKN023 M14/M16 A3009 870 87 -2500 310/05 RMK AO2 $
14926KSTC STC20060212003512002/12/06 00:35:31  5-MIN KSTC 120635Z AUTO 32005KT 10SM SCT007 BKN017 BKN023 M14/M16 A3009 870 87 -2500 310/05 RMK AO2 $
14926KSTC STC20060212004012002/12/06 00:40:31  5-MIN KSTC 120640Z AUTO 32006KT 10SM SCT007 BKN020 BKN025 M14/M16 A3009 870 87 -2500 310/06 RMK AO2 $
14926KSTC STC20060212004512002/12/06 00:45:31  5-MIN KSTC 120645Z AUTO 32005KT 10SM FEW007 BKN021 BKN026 M14/M16 A3009 870 87 -2500 310/05 RMK AO2 $
14926KSTC STC20060212005012902/12/06 00:50:31  5-MIN KSTC 120650Z AUTO 32005KT 8SM FEW007 OVC023 M14/M16 A3009 870 87 -2500 320/05 RMK AO2 SLP218 T11441161 $
14926KSTC STC20060212005511202/12/06 00:55:31  5-MIN KSTC 120655Z AUTO 33004KT 7SM FEW007 OVC023 M14/M16 A3009 870 87 -2500 330/04 RMK AO2 $
14926KSTC STC20060212010011202/12/06 01:00:31  5-MIN KSTC 120700Z AUTO 33003KT 8SM FEW007 OVC021 M14/M16 A3009 870 87 -2500 330/03 RMK AO2 $
14926KSTC STC20060212010510502/12/06 01:05:31  5-MIN KSTC 120705Z AUTO 33003KT 8SM OVC021 M14/M17 A3009 870 83 -2500 330/03 RMK AO2 $
14926KSTC STC20060212011013102/12/06 01:10:31  5-MIN KSTC 120710Z AUTO 33004KT 5SM -SN BR BKN021 OVC027 M14/M17 A3008 870 83 -2500 330/04 RMK AO2 SNB06 P0000 $
14926KSTC STC20060212011513802/12/06 01:15:31  5-MIN KSTC 120715Z AUTO 33004KT 6SM -SN BR FEW015 BKN021 OVC027 M14/M16 A3008 880 87 -2500 320/04 RMK AO2 SNB06 P0000 $
14926KSTC STC20060212012012702/12/06 01:20:31  5-MIN KSTC 120720Z AUTO 33004KT 9SM FEW015 OVC024 M14/M16 A3008 880 87 -2500 330/04 RMK AO2 SNB06E19 P0000 $
14926KSTC STC20060212012513502/12/06 01:25:31  5-MIN KSTC 120725Z AUTO 33004KT 10SM FEW013 BKN021 OVC026 M14/M16 A3008 880 87 -2500 330/04 RMK AO2 SNB06E19 P0000 $
14926KSTC STC20060212013013502/12/06 01:30:31  5-MIN KSTC 120730Z AUTO 33004KT 10SM SCT013 BKN021 OVC026 M14/M16 A3008 880 87 -2500 330/04 RMK AO2 SNB06E19 P0000 $
14926KSTC STC20060212013513502/12/06 01:35:31  5-MIN KSTC 120735Z AUTO 34004KT 10SM BKN013 BKN018 OVC026 M14/M16 A3008 880 83 -2500 330/04 RMK AO2 SNB06E19 P0000 $
14926KSTC STC20060212014013502/12/06 01:40:31  5-MIN KSTC 120740Z AUTO 34004KT 10SM FEW007 SCT011 BKN017 M14/M17 A3008 880 83 -2500 340/04 RMK AO2 SNB06E19 P0000 $
14926KSTC STC20060212014514702/12/06 01:45:31  5-MIN KSTC 120745Z AUTO 34004KT 10SM BKN009 BKN017 BKN023 M14/M16 A3008 870 87 -2500 340/04 RMK AO2 SNB06E19 CIG 007V014 P0000 $
14926KSTC STC20060212015016402/12/06 01:50:31  5-MIN KSTC 120750Z AUTO 35003KT 10SM BKN009 BKN017 BKN023 M14/M16 A3008 880 87 -2500 340/03 RMK AO2 SNB06E19 CIG 005V014 SLP217 P0000 T11441161 $
14926KSTC STC20060212015512002/12/06 01:55:31  5-MIN KSTC 120755Z AUTO 35003KT 10SM SCT007 BKN012 BKN017 M14/M17 A3008 880 83 -2500 350/03 RMK AO2 $
14926KSTC STC20060212020012502/12/06 02:00:31  5-MIN KSTC 120800Z AUTO 35004KT 10SM BKN009 BKN017 M14/M17 A3008 880 83 -2500 350/04 RMK AO2 CIG 005V011 $
14926KSTC STC20060212023510302/12/06 02:35:31  5-MIN KSTC 120835Z AUTO 35003KT 10SM CLR M14/M17 A3008 880 83 -2500 340/03 RMK AO2 $
14926KSTC STC20060212024010602/12/06 02:40:31  5-MIN KSTC 120840Z AUTO 35003KT 10SM SCT007 M15/M17 A3008 880 87 -2600 340/03 RMK AO2 $
14926KSTC STC20060212024511302/12/06 02:45:31  5-MIN KSTC 120845Z AUTO 34003KT 10SM SCT007 BKN013 M15/M17 A3008 880 83 -2600 340/03 RMK AO2 $
14926KSTC STC20060212025014902/12/06 02:50:31  5-MIN KSTC 120850Z AUTO 00000KT 10SM SCT007 BKN013 BKN018 M15/M17 A3008 880 83 -2600 000/00 RMK AO2 SLP217 60000 T11501172 58010 $
14926KSTC STC20060212025512002/12/06 02:55:31  5-MIN KSTC 120855Z AUTO 33003KT 10SM FEW007 SCT013 BKN018 M16/M17 A3008 880 87 -2700 330/03 RMK AO2 $
14926KSTC STC20060212030011302/12/06 03:00:31  5-MIN KSTC 120900Z AUTO 34003KT 10SM FEW007 SCT012 M15/M17 A3008 880 83 -2600 330/03 RMK AO2 $
14926KSTC STC20060212030511302/12/06 03:05:31  5-MIN KSTC 120905Z AUTO 34003KT 10SM FEW007 SCT012 M15/M17 A3008 880 83 -2600 340/03 RMK AO2 $
14926KSTC STC20060212031010602/12/06 03:10:31  5-MIN KSTC 120910Z AUTO 33003KT 10SM FEW009 M16/M17 A3008 880 87 -2700 330/03 RMK AO2 $
14926KSTC STC20060212031510602/12/06 03:15:31  5-MIN KSTC 120915Z AUTO 00000KT 10SM FEW014 M16/M17 A3008 880 87 -2700 000/00 RMK AO2 $
14926KSTC STC20060212032010302/12/06 03:20:31  5-MIN KSTC 120920Z AUTO 00000KT 10SM CLR M16/M18 A3007 880 87 -2700 000/00 RMK AO2 $
14926KSTC STC20060212032510302/12/06 03:25:31  5-MIN KSTC 120925Z AUTO 00000KT 10SM CLR M16/M18 A3007 890 87 -2700 000/00 RMK AO2 $
14926KSTC STC20060212033010302/12/06 03:30:31  5-MIN KSTC 120930Z AUTO 00000KT 10SM CLR M16/M18 A3007 890 83 -2700 000/00 RMK AO2 $
14926KSTC STC20060212033510302/12/06 03:35:31  5-MIN KSTC 120935Z AUTO 00000KT 10SM CLR M16/M18 A3007 890 83 -2700 000/00 RMK AO2 $
14926KSTC STC20060212034010302/12/06 03:40:31  5-MIN KSTC 120940Z AUTO 00000KT 10SM CLR M16/M18 A3007 890 83 -2700 000/00 RMK AO2 $
14926KSTC STC20060212034510302/12/06 03:45:31  5-MIN KSTC 120945Z AUTO 00000KT 10SM CLR M16/M18 A3007 880 83 -2700 000/00 RMK AO2 $
14926KSTC STC20060212035012302/12/06 03:50:31  5-MIN KSTC 120950Z AUTO 32003KT 10SM FEW120 M16/M18 A3008 880 83 -2700 320/03 RMK AO2 SLP215 T11561178 $
14926KSTC STC20060212035510602/12/06 03:55:31  5-MIN KSTC 120955Z AUTO 33004KT 10SM FEW120 M16/M17 A3008 880 87 -2700 320/04 RMK AO2 $
14926KSTC STC20060212040010302/12/06 04:00:31  5-MIN KSTC 121000Z AUTO 34003KT 10SM CLR M15/M17 A3008 880 83 -2600 330/03 RMK AO2 $
14926KSTC STC20060212040510302/12/06 04:05:31  5-MIN KSTC 121005Z AUTO 32004KT 10SM CLR M15/M17 A3008 880 83 -2600 320/04 RMK AO2 $
14926KSTC STC20060212041010302/12/06 04:10:31  5-MIN KSTC 121010Z AUTO 33004KT 10SM CLR M16/M17 A3008 880 87 -2700 330/04 RMK AO2 $
14926KSTC STC20060212041510302/12/06 04:15:31  5-MIN KSTC 121015Z AUTO 33004KT 10SM CLR M15/M18 A3008 870 80 -2600 330/04 RMK AO2 $
14926KSTC STC20060212042010302/12/06 04:20:31  5-MIN KSTC 121020Z AUTO 33003KT 10SM CLR M15/M17 A3008 870 83 -2600 330/03 RMK AO2 $
14926KSTC STC20060212042510302/12/06 04:25:31  5-MIN KSTC 121025Z AUTO 33004KT 10SM CLR M15/M17 A3009 870 87 -2600 330/04 RMK AO2 $
14926KSTC STC20060212043010302/12/06 04:30:31  5-MIN KSTC 121030Z AUTO 33004KT 10SM CLR M15/M17 A3009 870 83 -2600 330/04 RMK AO2 $
14926KSTC STC20060212043510602/12/06 04:35:31  5-MIN KSTC 121035Z AUTO 33003KT 10SM SCT026 M16/M18 A3009 870 87 -2800 330/03 RMK AO2 $
14926KSTC STC20060212044010602/12/06 04:40:31  5-MIN KSTC 121040Z AUTO 33003KT 10SM BKN026 M16/M18 A3009 870 83 -2800 330/03 RMK AO2 $
14926KSTC STC20060212044510602/12/06 04:45:31  5-MIN KSTC 121045Z AUTO 00000KT 10SM BKN026 M16/M18 A3009 870 83 -2800 000/00 RMK AO2 $
14926KSTC STC20060212045012302/12/06 04:50:31  5-MIN KSTC 121050Z AUTO 34003KT 10SM BKN024 M16/M18 A3008 870 83 -2800 330/03 RMK AO2 SLP219 T11611183 $
14926KSTC STC20060212045511302/12/06 04:55:31  5-MIN KSTC 121055Z AUTO 34004KT 10SM SCT021 OVC027 M16/M18 A3009 870 83 -2700 340/04 RMK AO2 $
14926KSTC STC20060212050011202/12/06 05:00:31  5-MIN KSTC 121100Z AUTO 34004KT 9SM BKN021 OVC027 M16/M18 A3009 870 83 -2700 330/04 RMK AO2 $
14926KSTC STC20060212050511202/12/06 05:05:31  5-MIN KSTC 121105Z AUTO 33003KT 9SM BKN021 OVC027 M15/M17 A3009 870 83 -2600 320/03 RMK AO2 $
14926KSTC STC20060212051011202/12/06 05:10:31  5-MIN KSTC 121110Z AUTO 33003KT 8SM BKN018 OVC025 M16/M18 A3009 870 87 -2800 320/03 RMK AO2 $
14926KSTC STC20060212051511202/12/06 05:15:31  5-MIN KSTC 121115Z AUTO 33003KT 7SM BKN020 OVC027 M16/M18 A3009 870 87 -2800 330/03 RMK AO2 $
14926KSTC STC20060212052011202/12/06 05:20:31  5-MIN KSTC 121120Z AUTO 32005KT 7SM BKN020 OVC025 M16/M18 A3009 870 83 -2700 320/05 RMK AO2 $
14926KSTC STC20060212052511202/12/06 05:25:31  5-MIN KSTC 121125Z AUTO 34004KT 9SM FEW016 OVC025 M16/M18 A3009 870 83 -2700 330/04 RMK AO2 $
14926KSTC STC20060212053011202/12/06 05:30:31  5-MIN KSTC 121130Z AUTO 34004KT 9SM SCT018 OVC025 M16/M18 A3009 870 83 -2700 330/04 RMK AO2 $
14926KSTC STC20060212053511202/12/06 05:35:31  5-MIN KSTC 121135Z AUTO 34003KT 7SM BKN019 OVC023 M16/M18 A3009 870 83 -2700 340/03 RMK AO2 $
14926KSTC STC20060212054011502/12/06 05:40:31  5-MIN KSTC 121140Z AUTO 34004KT 6SM BR BKN019 OVC025 M16/M18 A3009 870 83 -2700 340/04 RMK AO2 $
14926KSTC STC20060212054510502/12/06 05:45:31  5-MIN KSTC 121145Z AUTO 00000KT 7SM OVC022 M15/M17 A3009 870 83 -2600 000/00 RMK AO2 $
14926KSTC STC20060212055014602/12/06 05:50:31  5-MIN KSTC 121150Z AUTO 35003KT 7SM OVC020 M15/M17 A3009 870 83 -2600 350/03 RMK AO2 SLP221 60000 T11501172 11139 21161 55001 $
14926KSTC STC20060212055510502/12/06 05:55:31  5-MIN KSTC 121155Z AUTO 36003KT 7SM OVC020 M16/M17 A3009 870 87 -2700 350/03 RMK AO2 $
14926KSTC STC20060212060010502/12/06 06:00:31  5-MIN KSTC 121200Z AUTO 35003KT 7SM OVC020 M16/M18 A3009 870 83 -2800 350/03 RMK AO2 $
14926KSTC STC20060212060511902/12/06 06:05:31  5-MIN KSTC 121205Z AUTO 36004KT 8SM FEW010 BKN017 OVC022 M16/M18 A3009 870 83 -2700 350/04 RMK AO2 $
14926KSTC STC20060212061012002/12/06 06:10:31  5-MIN KSTC 121210Z AUTO 35004KT 10SM FEW010 BKN017 BKN022 M16/M18 A3010 860 83 -2800 340/04 RMK AO2 $
14926KSTC STC20060212061511302/12/06 06:15:31  5-MIN KSTC 121215Z AUTO 35004KT 10SM FEW010 SCT017 M16/M18 A3010 860 83 -2700 350/04 RMK AO2 $
14926KSTC STC20060212062011302/12/06 06:20:31  5-MIN KSTC 121220Z AUTO 34004KT 10SM FEW010 SCT017 M16/M18 A3010 860 87 -2800 340/04 RMK AO2 $
14926KSTC STC20060212062510602/12/06 06:25:31  5-MIN KSTC 121225Z AUTO 35004KT 10SM FEW010 M16/M18 A3011 850 83 -2700 350/04 RMK AO2 $
14926KSTC STC20060212063010302/12/06 06:30:31  5-MIN KSTC 121230Z AUTO 34004KT 10SM CLR M16/M18 A3011 850 83 -2700 340/04 RMK AO2 $
14926KSTC STC20060212063510602/12/06 06:35:31  5-MIN KSTC 121235Z AUTO 34004KT 10SM FEW011 M16/M17 A3011 850 87 -2700 330/04 RMK AO2 $
14926KSTC STC20060212064011302/12/06 06:40:31  5-MIN KSTC 121240Z AUTO 35004KT 10SM SCT013 SCT019 M16/M17 A3012 850 87 -2700 340/04 RMK AO2 $
14926KSTC STC20060212064511302/12/06 06:45:31  5-MIN KSTC 121245Z AUTO 34005KT 10SM FEW013 BKN021 M16/M18 A3012 840 83 -2700 340/05 RMK AO2 $
14926KSTC STC20060212065013702/12/06 06:50:31  5-MIN KSTC 121250Z AUTO 34004KT 10SM FEW013 SCT018 BKN023 M16/M18 A3012 840 83 -2700 340/04 RMK AO2 SLP230 T11561178 $
14926KSTC STC20060212065511302/12/06 06:55:31  5-MIN KSTC 121255Z AUTO 35004KT 10SM FEW013 BKN020 M16/M18 A3012 840 83 -2700 350/04 RMK AO2 $
14926KSTC STC20060212070010802/12/06 07:00:31  5-MIN KSTC 121300Z 35005KT 10SM SCT013 OVC023 M16/M18 A3012 840 83 -2700 340/05 RMK AO2 $
14926KSTC STC20060212070510802/12/06 07:05:31  5-MIN KSTC 121305Z 34005KT 10SM SCT016 OVC023 M16/M18 A3013 840 83 -2700 330/05 RMK AO2 $
14926KSTC STC20060212071010102/12/06 07:10:31  5-MIN KSTC 121310Z 34005KT 10SM OVC021 M16/M18 A3013 830 83 -2700 340/05 RMK AO2 $
14926KSTC STC20060212071510102/12/06 07:15:31  5-MIN KSTC 121315Z 36004KT 10SM OVC021 M16/M18 A3013 830 87 -2800 360/04 RMK AO2 $
14926KSTC STC20060212072010802/12/06 07:20:31  5-MIN KSTC 121320Z 35004KT 10SM BKN018 OVC023 M16/M18 A3014 830 83 -2700 350/04 RMK AO2 $
14926KSTC STC20060212072510002/12/06 07:25:31  5-MIN KSTC 121325Z 35004KT 8SM OVC020 M16/M17 A3014 820 87 -2700 340/04 RMK AO2 $
14926KSTC STC20060212073010002/12/06 07:30:31  5-MIN KSTC 121330Z 36003KT 7SM OVC020 M16/M17 A3014 820 87 -2700 360/03 RMK AO2 $
14926KSTC STC20060212073510302/12/06 07:35:31  5-MIN KSTC 121335Z 35004KT 5SM BR OVC020 M16/M17 A3014 820 87 -2700 350/04 RMK AO2 $
14926KSTC STC20060212074010302/12/06 07:40:31  5-MIN KSTC 121340Z 36004KT 4SM BR OVC020 M15/M17 A3015 820 87 -2700 360/04 RMK AO2 $
14926KSTC STC20060212074510302/12/06 07:45:31  5-MIN KSTC 121345Z 36004KT 6SM BR OVC020 M14/M17 A3015 820 83 -2600 360/04 RMK AO2 $
14926KSTC STC20060212075011702/12/06 07:50:31  5-MIN KSTC 121350Z 01004KT 7SM OVC020 M14/M16 A3015 820 83 -2500 360/04 RMK AO2 SLP241 T11391161 $
14926KSTC STC20060212075510002/12/06 07:55:31  5-MIN KSTC 121355Z 01003KT 7SM OVC020 M14/M16 A3015 820 83 -2500 010/03 RMK AO2 $
14926KSTC STC20060212080010002/12/06 08:00:31  5-MIN KSTC 121400Z 01003KT 7SM OVC020 M13/M16 A3015 820 83 -2500 010/03 RMK AO2 $
14926KSTC STC20060212080510002/12/06 08:05:31  5-MIN KSTC 121405Z 36003KT 7SM OVC020 M13/M16 A3015 820 83 -2500 360/03 RMK AO2 $
14926KSTC STC20060212081010002/12/06 08:10:31  5-MIN KSTC 121410Z 00000KT 7SM OVC020 M13/M16 A3015 820 80 -2400 000/00 RMK AO2 $
14926KSTC STC20060212081510302/12/06 08:15:31  5-MIN KSTC 121415Z 00000KT 6SM HZ OVC020 M13/M16 A3015 820 80 -2400 000/00 RMK AO2 $
14926KSTC STC20060212082010302/12/06 08:20:31  5-MIN KSTC 121420Z 36003KT 6SM BR OVC020 M13/M15 A3015 820 84 -2400 360/03 RMK AO2 $
14926KSTC STC20060212082510302/12/06 08:25:31  5-MIN KSTC 121425Z 35004KT 6SM BR OVC020 M13/M15 A3015 810 84 -2400 340/04 RMK AO2 $
14926KSTC STC20060212083010302/12/06 08:30:31  5-MIN KSTC 121430Z 35004KT 6SM HZ OVC020 M12/M15 A3015 820 80 -2300 350/04 RMK AO2 $
14926KSTC STC20060212083510302/12/06 08:35:31  5-MIN KSTC 121435Z 36005KT 6SM BR OVC020 M12/M14 A3015 820 84 -2300 360/05 RMK AO2 $
14926KSTC STC20060212084010002/12/06 08:40:31  5-MIN KSTC 121440Z 35005KT 7SM OVC020 M12/M14 A3015 810 84 -2300 350/05 RMK AO2 $
14926KSTC STC20060212084510302/12/06 08:45:31  5-MIN KSTC 121445Z 35005KT 6SM HZ OVC020 M12/M14 A3015 810 80 -2200 350/05 RMK AO2 $
14926KSTC STC20060212085012602/12/06 08:50:31  5-MIN KSTC 121450Z 34005KT 6SM HZ OVC020 M12/M14 A3015 810 80 -2200 340/05 RMK AO2 SLP240 T11171144 53002 $
14926KSTC STC20060212085510302/12/06 08:55:31  5-MIN KSTC 121455Z 35004KT 6SM HZ OVC020 M12/M14 A3015 810 80 -2200 340/04 RMK AO2 $
14926KSTC STC20060212090010002/12/06 09:00:31  5-MIN KSTC 121500Z 35004KT 7SM OVC020 M12/M14 A3016 810 84 -2200 350/04 RMK AO2 $
14926KSTC STC20060212090510302/12/06 09:05:31  5-MIN KSTC 121505Z 35005KT 5SM BR OVC020 M12/M14 A3016 810 84 -2200 350/05 RMK AO2 $
14926KSTC STC20060212091010302/12/06 09:10:31  5-MIN KSTC 121510Z 36005KT 5SM BR OVC020 M12/M14 A3016 810 84 -2200 350/05 RMK AO2 $
14926KSTC STC20060212091510002/12/06 09:15:31  5-MIN KSTC 121515Z 36005KT 7SM OVC020 M11/M14 A3016 800 80 -2200 350/05 RMK AO2 $
14926KSTC STC20060212092010002/12/06 09:20:31  5-MIN KSTC 121520Z 35005KT 7SM OVC020 M11/M13 A3017 800 84 -2200 350/05 RMK AO2 $
14926KSTC STC20060212092510002/12/06 09:25:31  5-MIN KSTC 121525Z 36006KT 7SM OVC020 M11/M13 A3017 800 84 -2200 360/06 RMK AO2 $
14926KSTC STC20060212093010002/12/06 09:30:31  5-MIN KSTC 121530Z 36007KT 7SM OVC020 M11/M13 A3017 800 80 -2100 360/07 RMK AO2 $
14926KSTC STC20060212093510002/12/06 09:35:31  5-MIN KSTC 121535Z 35007KT 7SM OVC020 M11/M14 A3017 790 77 -2100 350/07 RMK AO2 $
14926KSTC STC20060212094010002/12/06 09:40:31  5-MIN KSTC 121540Z 35007KT 7SM OVC020 M11/M14 A3017 790 77 -2100 350/07 RMK AO2 $
14926KSTC STC20060212094510002/12/06 09:45:31  5-MIN KSTC 121545Z 35007KT 7SM OVC020 M11/M13 A3018 790 80 -2100 350/07 RMK AO2 $
14926KSTC STC20060212095011702/12/06 09:50:31  5-MIN KSTC 121550Z 35009KT 7SM OVC020 M11/M14 A3017 790 77 -2100 350/09 RMK AO2 SLP249 T11061139 $
14926KSTC STC20060212095510002/12/06 09:55:31  5-MIN KSTC 121555Z 36009KT 8SM OVC020 M11/M14 A3018 790 77 -2100 350/09 RMK AO2 $
14926KSTC STC20060212100010002/12/06 10:00:31  5-MIN KSTC 121600Z 35009KT 7SM OVC020 M10/M14 A3018 790 73 -2000 350/09 RMK AO2 $
14926KSTC STC20060212100510302/12/06 10:05:31  5-MIN KSTC 121605Z 35009KT 6SM HZ OVC020 M10/M13 A3018 790 77 -2000 350/09 RMK AO2 $
14926KSTC STC20060212101010002/12/06 10:10:31  5-MIN KSTC 121610Z 35006KT 7SM OVC020 M10/M13 A3018 790 77 -2000 350/06 RMK AO2 $
14926KSTC STC20060212101510302/12/06 10:15:31  5-MIN KSTC 121615Z 35007KT 6SM HZ OVC020 M10/M14 A3018 790 73 -2000 350/07 RMK AO2 $
14926KSTC STC20060212102010302/12/06 10:20:31  5-MIN KSTC 121620Z 36006KT 6SM HZ OVC020 M09/M13 A3018 790 73 -2000 360/06 RMK AO2 $
14926KSTC STC20060212102510002/12/06 10:25:31  5-MIN KSTC 121625Z 35008KT 7SM OVC020 M09/M13 A3018 790 73 -2000 350/08 RMK AO2 $
14926KSTC STC20060212103010002/12/06 10:30:31  5-MIN KSTC 121630Z 36008KT 7SM OVC020 M09/M13 A3018 780 73 -2000 350/08 RMK AO2 $
14926KSTC STC20060212103510302/12/06 10:35:31  5-MIN KSTC 121635Z 35009KT 6SM HZ OVC020 M09/M14 A3018 780 70 -2000 350/09 RMK AO2 $
14926KSTC STC20060212104010002/12/06 10:40:31  5-MIN KSTC 121640Z 33012KT 8SM OVC018 M09/M14 A3018 780 70 -2000 330/12 RMK AO2 $
14926KSTC STC20060212104510102/12/06 10:45:31  5-MIN KSTC 121645Z 34011KT 10SM OVC018 M09/M14 A3018 780 70 -2000 340/11 RMK AO2 $
14926KSTC STC20060212105011702/12/06 10:50:31  5-MIN KSTC 121650Z 34011KT 8SM OVC018 M09/M14 A3019 780 70 -2000 340/11 RMK AO2 SLP254 T10941139 $
14926KSTC STC20060212105510002/12/06 10:55:31  5-MIN KSTC 121655Z 34009KT 7SM OVC018 M09/M14 A3019 780 70 -2000 340/09 RMK AO2 $
14926KSTC STC20060212110010302/12/06 11:00:31  5-MIN KSTC 121700Z 35009KT 6SM HZ OVC018 M09/M14 A3019 780 70 -2000 340/09 RMK AO2 $
14926KSTC STC20060212110510302/12/06 11:05:31  5-MIN KSTC 121705Z 34010KT 6SM HZ OVC020 M09/M14 A3019 780 70 -2000 340/10 RMK AO2 $
14926KSTC STC20060212111010002/12/06 11:10:31  5-MIN KSTC 121710Z 34008KT 7SM OVC020 M09/M13 A3019 780 73 -2000 340/08 RMK AO2 $
14926KSTC STC20060212111510002/12/06 11:15:31  5-MIN KSTC 121715Z 35009KT 8SM OVC020 M09/M13 A3018 780 70 -1900 350/09 RMK AO2 $
14926KSTC STC20060212112010002/12/06 11:20:31  5-MIN KSTC 121720Z 35008KT 7SM OVC020 M09/M14 A3018 780 67 -1900 340/08 RMK AO2 $
14926KSTC STC20060212112510002/12/06 11:25:31  5-MIN KSTC 121725Z 34010KT 7SM OVC020 M09/M13 A3018 780 70 -1900 340/10 RMK AO2 $
14926KSTC STC20060212113010002/12/06 11:30:31  5-MIN KSTC 121730Z 34010KT 9SM OVC020 M09/M14 A3019 780 67 -1900 340/10 RMK AO2 $
14926KSTC STC20060212113510002/12/06 11:35:31  5-MIN KSTC 121735Z 34010KT 9SM OVC020 M09/M14 A3019 780 67 -1900 330/10 RMK AO2 $
14926KSTC STC20060212114010102/12/06 11:40:31  5-MIN KSTC 121740Z 35010KT 10SM OVC020 M09/M14 A3019 780 67 -1900 350/10 RMK AO2 $
14926KSTC STC20060212114510102/12/06 11:45:31  5-MIN KSTC 121745Z 34011KT 10SM OVC020 M09/M14 A3019 780 67 -1900 330/11 RMK AO2 $
14926KSTC STC20060212115013602/12/06 11:50:31  5-MIN KSTC 121750Z 34008KT 10SM OVC020 M08/M14 A3019 780 64 -1800 340/08 RMK AO2 SLP255 T10831139 11083 21161 51020 $
14926KSTC STC20060212115510102/12/06 11:55:31  5-MIN KSTC 121755Z 34008KT 10SM OVC020 M08/M13 A3019 780 67 -1800 340/08 RMK AO2 $
14926KSTC STC20060212120010102/12/06 12:00:31  5-MIN KSTC 121800Z 35010KT 10SM OVC020 M08/M13 A3019 780 67 -1800 340/10 RMK AO2 $
14926KSTC STC20060212120510102/12/06 12:05:31  5-MIN KSTC 121805Z 35009KT 10SM OVC020 M08/M13 A3019 780 67 -1800 350/09 RMK AO2 $
14926KSTC STC20060212121010102/12/06 12:10:31  5-MIN KSTC 121810Z 35010KT 10SM OVC020 M08/M13 A3018 780 67 -1800 340/10 RMK AO2 $
14926KSTC STC20060212121510102/12/06 12:15:31  5-MIN KSTC 121815Z 35010KT 10SM OVC020 M09/M13 A3018 780 70 -1900 350/10 RMK AO2 $
14926KSTC STC20060212122010102/12/06 12:20:31  5-MIN KSTC 121820Z 34008KT 10SM OVC020 M09/M14 A3018 780 67 -1900 340/08 RMK AO2 $
14926KSTC STC20060212122510102/12/06 12:25:31  5-MIN KSTC 121825Z VRB06KT 10SM BKN020 M08/M14 A3018 780 64 -1800 VRB/06 RMK AO2 $
14926KSTC STC20060212123010102/12/06 12:30:31  5-MIN KSTC 121830Z 33009KT 10SM OVC020 M08/M13 A3018 790 67 -1800 330/09 RMK AO2 $
14926KSTC STC20060212123510102/12/06 12:35:31  5-MIN KSTC 121835Z 33011KT 10SM BKN020 M08/M14 A3018 780 64 -1800 330/11 RMK AO2 $
14926KSTC STC20060212124010102/12/06 12:40:31  5-MIN KSTC 121840Z 33011KT 10SM BKN020 M08/M14 A3018 790 64 -1800 330/11 RMK AO2 $
14926KSTC STC20060212124510102/12/06 12:45:31  5-MIN KSTC 121845Z 34010KT 10SM SCT020 M08/M14 A3018 790 62 -1800 340/10 RMK AO2 $
14926KSTC STC20060212125011802/12/06 12:50:31  5-MIN KSTC 121850Z 32010KT 10SM BKN020 M08/M14 A3018 790 64 -1800 310/10 RMK AO2 SLP251 T10831139 $
14926KSTC STC20060212125510102/12/06 12:55:31  5-MIN KSTC 121855Z 34010KT 10SM BKN020 M09/M14 A3019 780 67 -1900 330/10 RMK AO2 $
14926KSTC STC20060212130010102/12/06 13:00:31  5-MIN KSTC 121900Z 32010KT 10SM BKN020 M08/M13 A3018 780 67 -1800 320/10 RMK AO2 $
14926KSTC STC20060212130510102/12/06 13:05:31  5-MIN KSTC 121905Z 33008KT 10SM SCT020 M08/M14 A3018 780 64 -1800 330/08 RMK AO2 $
14926KSTC STC20060212131010102/12/06 13:10:31  5-MIN KSTC 121910Z 32010KT 10SM BKN022 M08/M14 A3018 780 64 -1800 310/10 RMK AO2 $
14926KSTC STC20060212131510102/12/06 13:15:31  5-MIN KSTC 121915Z 31010KT 10SM BKN022 M08/M13 A3018 790 67 -1800 300/10 RMK AO2 $
14926KSTC STC20060212132010102/12/06 13:20:31  5-MIN KSTC 121920Z 32011KT 10SM BKN022 M08/M14 A3017 790 64 -1800 320/11 RMK AO2 $
14926KSTC STC20060212132510102/12/06 13:25:31  5-MIN KSTC 121925Z 32013KT 10SM BKN022 M08/M13 A3017 790 67 -1800 310/13 RMK AO2 $
14926KSTC STC20060212133010102/12/06 13:30:31  5-MIN KSTC 121930Z 32011KT 10SM BKN022 M08/M13 A3017 800 67 -1800 320/11 RMK AO2 $
14926KSTC STC20060212133510102/12/06 13:35:31  5-MIN KSTC 121935Z 31009KT 10SM BKN022 M08/M14 A3016 800 62 -1700 310/09 RMK AO2 $
14926KSTC STC20060212134010102/12/06 13:40:31  5-MIN KSTC 121940Z 32008KT 10SM SCT022 M08/M13 A3016 810 67 -1800 310/08 RMK AO2 $
14926KSTC STC20060212134510102/12/06 13:45:31  5-MIN KSTC 121945Z 32009KT 10SM FEW022 M08/M14 A3016 810 62 -1700 310/09 RMK AO2 $
14926KSTC STC20060212135011802/12/06 13:50:31  5-MIN KSTC 121950Z 32006KT 10SM FEW022 M08/M14 A3016 810 62 -1700 320/06 RMK AO2 SLP244 T10781139 $
14926KSTC STC20060212135510102/12/06 13:55:31  5-MIN KSTC 121955Z 31011KT 10SM FEW022 M08/M13 A3016 800 64 -1700 300/11 RMK AO2 $
14926KSTC STC20060212140009802/12/06 14:00:31  5-MIN KSTC 122000Z 30012KT 10SM CLR M08/M14 A3016 800 64 -1800 300/12 RMK AO2 $
14926KSTC STC20060212140510102/12/06 14:05:31  5-MIN KSTC 122005Z 29011KT 10SM FEW023 M08/M14 A3017 800 64 -1800 290/11 RMK AO2 $
14926KSTC STC20060212141010102/12/06 14:10:31  5-MIN KSTC 122010Z 31013KT 10SM SCT023 M08/M14 A3017 800 64 -1800 310/13 RMK AO2 $
14926KSTC STC20060212141510102/12/06 14:15:31  5-MIN KSTC 122015Z 31012KT 10SM SCT023 M08/M14 A3017 800 64 -1800 310/12 RMK AO2 $
14926KSTC STC20060212142010102/12/06 14:20:31  5-MIN KSTC 122020Z 30014KT 10SM BKN023 M08/M13 A3017 800 67 -1800 300/14 RMK AO2 $
14926KSTC STC20060212142510102/12/06 14:25:31  5-MIN KSTC 122025Z 31013KT 10SM BKN023 M08/M13 A3017 790 67 -1800 310/13 RMK AO2 $
14926KSTC STC20060212143010102/12/06 14:30:31  5-MIN KSTC 122030Z 30010KT 10SM OVC025 M08/M13 A3017 800 67 -1800 300/10 RMK AO2 $
14926KSTC STC20060212143510102/12/06 14:35:31  5-MIN KSTC 122035Z 30013KT 10SM OVC025 M08/M13 A3017 800 67 -1800 300/13 RMK AO2 $
14926KSTC STC20060212144010102/12/06 14:40:31  5-MIN KSTC 122040Z 30014KT 10SM OVC025 M09/M14 A3017 790 67 -1900 300/14 RMK AO2 $
14926KSTC STC20060212144510102/12/06 14:45:31  5-MIN KSTC 122045Z 31013KT 10SM BKN025 M08/M14 A3017 800 64 -1800 300/13 RMK AO2 $
14926KSTC STC20060212145012402/12/06 14:50:31  5-MIN KSTC 122050Z 31012KT 10SM BKN025 M08/M14 A3017 800 64 -1800 300/12 RMK AO2 SLP248 T10831139 51012 $
14926KSTC STC20060212145510102/12/06 14:55:31  5-MIN KSTC 122055Z 31010KT 10SM SCT025 M08/M14 A3017 800 64 -1800 310/10 RMK AO2 $
14926KSTC STC20060212150010802/12/06 15:00:31  5-MIN KSTC 122100Z 32010KT 10SM FEW019 SCT025 M08/M14 A3017 800 64 -1800 310/10 RMK AO2 $
14926KSTC STC20060212150510102/12/06 15:05:31  5-MIN KSTC 122105Z 31013KT 10SM FEW023 M08/M14 A3017 790 64 -1800 310/13 RMK AO2 $
14926KSTC STC20060212151010102/12/06 15:10:31  5-MIN KSTC 122110Z 32012KT 10SM FEW021 M08/M14 A3017 790 64 -1800 310/12 RMK AO2 $
14926KSTC STC20060212151509802/12/06 15:15:31  5-MIN KSTC 122115Z 32010KT 10SM CLR M08/M14 A3017 790 62 -1700 310/10 RMK AO2 $
14926KSTC STC20060212152009802/12/06 15:20:31  5-MIN KSTC 122120Z 32013KT 10SM CLR M08/M14 A3017 790 62 -1700 310/13 RMK AO2 $
14926KSTC STC20060212152509802/12/06 15:25:31  5-MIN KSTC 122125Z 31014KT 10SM CLR M08/M14 A3017 790 62 -1800 310/14 RMK AO2 $
14926KSTC STC20060212153009802/12/06 15:30:31  5-MIN KSTC 122130Z 32012KT 10SM CLR M08/M14 A3017 790 62 -1800 310/12 RMK AO2 $
14926KSTC STC20060212153509802/12/06 15:35:31  5-MIN KSTC 122135Z 32010KT 10SM CLR M08/M14 A3017 800 62 -1700 320/10 RMK AO2 $
14926KSTC STC20060212154009802/12/06 15:40:31  5-MIN KSTC 122140Z 33010KT 10SM CLR M08/M14 A3017 800 62 -1700 330/10 RMK AO2 $
14926KSTC STC20060212154509802/12/06 15:45:31  5-MIN KSTC 122145Z 31012KT 10SM CLR M08/M14 A3017 800 62 -1700 310/12 RMK AO2 $
14926KSTC STC20060212155011502/12/06 15:50:31  5-MIN KSTC 122150Z 30012KT 10SM CLR M08/M14 A3017 800 64 -1800 300/12 RMK AO2 SLP248 T10831139 $
14926KSTC STC20060212155509802/12/06 15:55:31  5-MIN KSTC 122155Z 31011KT 10SM CLR M08/M14 A3016 800 64 -1800 310/11 RMK AO2 $
14926KSTC STC20060212160009802/12/06 16:00:31  5-MIN KSTC 122200Z 31012KT 10SM CLR M08/M14 A3016 800 64 -1800 310/12 RMK AO2 $
14926KSTC STC20060212160509802/12/06 16:05:31  5-MIN KSTC 122205Z 31012KT 10SM CLR M08/M14 A3016 800 64 -1800 310/12 RMK AO2 $
14926KSTC STC20060212161009802/12/06 16:10:31  5-MIN KSTC 122210Z 31010KT 10SM CLR M08/M14 A3016 810 64 -1800 310/10 RMK AO2 $
14926KSTC STC20060212161509802/12/06 16:15:31  5-MIN KSTC 122215Z 30011KT 10SM CLR M08/M14 A3016 810 64 -1800 300/11 RMK AO2 $
14926KSTC STC20060212162009802/12/06 16:20:31  5-MIN KSTC 122220Z 31012KT 10SM CLR M08/M14 A3016 810 64 -1800 300/12 RMK AO2 $
14926KSTC STC20060212162509802/12/06 16:25:31  5-MIN KSTC 122225Z 30011KT 10SM CLR M08/M14 A3016 810 62 -1800 300/11 RMK AO2 $
14926KSTC STC20060212163009802/12/06 16:30:31  5-MIN KSTC 122230Z 31010KT 10SM CLR M08/M14 A3015 810 64 -1800 300/10 RMK AO2 $
14926KSTC STC20060212163509802/12/06 16:35:31  5-MIN KSTC 122235Z 31009KT 10SM CLR M08/M14 A3015 810 64 -1800 310/09 RMK AO2 $
14926KSTC STC20060212164009802/12/06 16:40:31  5-MIN KSTC 122240Z 30011KT 10SM CLR M08/M14 A3015 810 64 -1800 300/11 RMK AO2 $
14926KSTC STC20060212164509802/12/06 16:45:31  5-MIN KSTC 122245Z 30010KT 10SM CLR M08/M14 A3015 810 62 -1800 300/10 RMK AO2 $
14926KSTC STC20060212165011502/12/06 16:50:31  5-MIN KSTC 122250Z 31011KT 10SM CLR M08/M14 A3015 810 64 -1800 300/11 RMK AO2 SLP242 T10831139 $
14926KSTC STC20060212165509802/12/06 16:55:31  5-MIN KSTC 122255Z 29010KT 10SM CLR M08/M14 A3015 810 64 -1800 280/10 RMK AO2 $
14926KSTC STC20060212170009802/12/06 17:00:31  5-MIN KSTC 122300Z 28010KT 10SM CLR M08/M14 A3015 810 64 -1800 280/10 RMK AO2 $
14926KSTC STC20060212170509802/12/06 17:05:31  5-MIN KSTC 122305Z 28011KT 10SM CLR M08/M14 A3015 810 62 -1800 280/11 RMK AO2 $
14926KSTC STC20060212171009802/12/06 17:10:31  5-MIN KSTC 122310Z 29010KT 10SM CLR M08/M14 A3015 820 62 -1800 290/10 RMK AO2 $
14926KSTC STC20060212171509802/12/06 17:15:31  5-MIN KSTC 122315Z 29012KT 10SM CLR M09/M14 A3014 820 64 -1900 290/12 RMK AO2 $
14926KSTC STC20060212172009802/12/06 17:20:31  5-MIN KSTC 122320Z 29008KT 10SM CLR M09/M14 A3015 820 64 -1900 280/08 RMK AO2 $
14926KSTC STC20060212172509802/12/06 17:25:31  5-MIN KSTC 122325Z 29010KT 10SM CLR M09/M14 A3015 820 67 -1900 290/10 RMK AO2 $
14926KSTC STC20060212173009802/12/06 17:30:31  5-MIN KSTC 122330Z 29009KT 10SM CLR M09/M14 A3015 820 67 -1900 290/09 RMK AO2 $
14926KSTC STC20060212173509802/12/06 17:35:31  5-MIN KSTC 122335Z 28009KT 10SM CLR M09/M14 A3015 820 67 -1900 280/09 RMK AO2 $
14926KSTC STC20060212174009802/12/06 17:40:31  5-MIN KSTC 122340Z 29010KT 10SM CLR M09/M15 A3015 820 64 -1900 280/10 RMK AO2 $
14926KSTC STC20060212174509802/12/06 17:45:31  5-MIN KSTC 122345Z 29009KT 10SM CLR M09/M15 A3015 820 64 -1900 280/09 RMK AO2 $
14926KSTC STC20060212175013302/12/06 17:50:31  5-MIN KSTC 122350Z 30009KT 10SM CLR M09/M15 A3015 810 64 -1900 290/09 RMK AO2 SLP242 T10941150 11078 21094 55006 $
14926KSTC STC20060212175509802/12/06 17:55:31  5-MIN KSTC 122355Z 29009KT 10SM CLR M10/M15 A3016 810 67 -2000 290/09 RMK AO2 $
14926KSTC STC20060212180009802/12/06 18:00:31  5-MIN KSTC 130000Z 29008KT 10SM CLR M10/M15 A3015 810 67 -2000 280/08 RMK AO2 $
14926KSTC STC20060212180509802/12/06 18:05:31  5-MIN KSTC 130005Z 28008KT 10SM CLR M10/M15 A3015 820 67 -2000 270/08 RMK AO2 $
14926KSTC STC20060212181009802/12/06 18:10:31  5-MIN KSTC 130010Z 28008KT 10SM CLR M10/M15 A3014 820 67 -2000 280/08 RMK AO2 $
14926KSTC STC20060212181509802/12/06 18:15:31  5-MIN KSTC 130015Z 28008KT 10SM CLR M10/M15 A3014 820 67 -2000 280/08 RMK AO2 $
14926KSTC STC20060212182009802/12/06 18:20:31  5-MIN KSTC 130020Z 29008KT 10SM CLR M10/M15 A3014 820 67 -2000 280/08 RMK AO2 $
14926KSTC STC20060212182509802/12/06 18:25:31  5-MIN KSTC 130025Z 29010KT 10SM CLR M10/M15 A3015 820 67 -2000 280/10 RMK AO2 $
14926KSTC STC20060212183009802/12/06 18:30:31  5-MIN KSTC 130030Z 29009KT 10SM CLR M10/M15 A3014 820 67 -2000 290/09 RMK AO2 $
14926KSTC STC20060212183509802/12/06 18:35:31  5-MIN KSTC 130035Z 29010KT 10SM CLR M10/M15 A3014 820 67 -2000 290/10 RMK AO2 $
14926KSTC STC20060212184009802/12/06 18:40:31  5-MIN KSTC 130040Z 29009KT 10SM CLR M10/M15 A3014 830 67 -2000 290/09 RMK AO2 $
14926KSTC STC20060212184509802/12/06 18:45:31  5-MIN KSTC 130045Z 28008KT 10SM CLR M10/M15 A3013 830 67 -2000 280/08 RMK AO2 $
14926KSTC STC20060212185011502/12/06 18:50:31  5-MIN KSTC 130050Z 28007KT 10SM CLR M11/M15 A3013 830 70 -2100 280/07 RMK AO2 SLP237 T11061150 $
14926KSTC STC20060212185509802/12/06 18:55:31  5-MIN KSTC 130055Z 28008KT 10SM CLR M11/M16 A3013 830 67 -2100 280/08 RMK AO2 $
14926KSTC STC20060212190009802/12/06 19:00:31  5-MIN KSTC 130100Z 28008KT 10SM CLR M11/M16 A3013 830 67 -2100 280/08 RMK AO2 $
14926KSTC STC20060212190509802/12/06 19:05:31  5-MIN KSTC 130105Z 28008KT 10SM CLR M11/M16 A3013 830 67 -2100 270/08 RMK AO2 $
14926KSTC STC20060212191009802/12/06 19:10:31  5-MIN KSTC 130110Z 28008KT 10SM CLR M11/M16 A3013 840 70 -2100 280/08 RMK AO2 $
14926KSTC STC20060212191509802/12/06 19:15:31  5-MIN KSTC 130115Z 28007KT 10SM CLR M11/M16 A3013 840 67 -2100 280/07 RMK AO2 $
14926KSTC STC20060212192009802/12/06 19:20:31  5-MIN KSTC 130120Z 29008KT 10SM CLR M11/M16 A3012 840 70 -2100 280/08 RMK AO2 $
14926KSTC STC20060212192509802/12/06 19:25:31  5-MIN KSTC 130125Z 29008KT 10SM CLR M11/M16 A3012 840 67 -2100 290/08 RMK AO2 $
14926KSTC STC20060212193009802/12/06 19:30:31  5-MIN KSTC 130130Z 30007KT 10SM CLR M11/M16 A3012 840 70 -2100 290/07 RMK AO2 $
14926KSTC STC20060212193509802/12/06 19:35:31  5-MIN KSTC 130135Z 30010KT 10SM CLR M11/M16 A3012 840 70 -2100 290/10 RMK AO2 $
14926KSTC STC20060212194009802/12/06 19:40:31  5-MIN KSTC 130140Z 29008KT 10SM CLR M11/M16 A3012 840 70 -2100 290/08 RMK AO2 $
14926KSTC STC20060212194509802/12/06 19:45:31  5-MIN KSTC 130145Z 29010KT 10SM CLR M11/M16 A3012 840 70 -2100 290/10 RMK AO2 $
14926KSTC STC20060212195011502/12/06 19:50:31  5-MIN KSTC 130150Z 29010KT 10SM CLR M11/M16 A3012 840 70 -2100 290/10 RMK AO2 SLP231 T11111156 $
14926KSTC STC20060212195509802/12/06 19:55:31  5-MIN KSTC 130155Z 28008KT 10SM CLR M11/M16 A3011 850 70 -2100 280/08 RMK AO2 $
14926KSTC STC20060212200009802/12/06 20:00:31  5-MIN KSTC 130200Z 28009KT 10SM CLR M12/M16 A3011 850 73 -2200 270/09 RMK AO2 $
14926KSTC STC20060212200509802/12/06 20:05:31  5-MIN KSTC 130205Z 28008KT 10SM CLR M12/M16 A3011 850 73 -2200 280/08 RMK AO2 $
14926KSTC STC20060212201009802/12/06 20:10:31  5-MIN KSTC 130210Z 29009KT 10SM CLR M11/M16 A3010 860 70 -2100 280/09 RMK AO2 $
14926KSTC STC20060212201509802/12/06 20:15:31  5-MIN KSTC 130215Z 29008KT 10SM CLR M12/M16 A3010 860 73 -2200 280/08 RMK AO2 $
14926KSTC STC20060212202009802/12/06 20:20:31  5-MIN KSTC 130220Z 29009KT 10SM CLR M12/M16 A3010 860 73 -2200 290/09 RMK AO2 $
14926KSTC STC20060212202509802/12/06 20:25:31  5-MIN KSTC 130225Z 29009KT 10SM CLR M12/M16 A3010 860 73 -2200 280/09 RMK AO2 $
14926KSTC STC20060212203009802/12/06 20:30:31  5-MIN KSTC 130230Z 29009KT 10SM CLR M12/M16 A3010 860 73 -2200 290/09 RMK AO2 $
14926KSTC STC20060212203509802/12/06 20:35:31  5-MIN KSTC 130235Z 28009KT 10SM CLR M12/M16 A3010 860 73 -2200 280/09 RMK AO2 $
14926KSTC STC20060212204009802/12/06 20:40:31  5-MIN KSTC 130240Z 28009KT 10SM CLR M12/M16 A3009 870 73 -2200 280/09 RMK AO2 $
14926KSTC STC20060212204509802/12/06 20:45:31  5-MIN KSTC 130245Z 28010KT 10SM CLR M12/M16 A3010 860 76 -2200 280/10 RMK AO2 $
14926KSTC STC20060212205012102/12/06 20:50:31  5-MIN KSTC 130250Z 27008KT 10SM CLR M12/M16 A3009 870 76 -2200 270/08 RMK AO2 SLP223 T11221156 55005 $
14926KSTC STC20060212205509802/12/06 20:55:31  5-MIN KSTC 130255Z 27007KT 10SM CLR M12/M16 A3009 870 76 -2200 270/07 RMK AO2 $
14926KSTC STC20060212210009802/12/06 21:00:31  5-MIN KSTC 130300Z 28009KT 10SM CLR M12/M16 A3009 870 76 -2200 280/09 RMK AO2 $
14926KSTC STC20060212210509802/12/06 21:05:31  5-MIN KSTC 130305Z 28009KT 10SM CLR M12/M16 A3009 870 73 -2200 270/09 RMK AO2 $
14926KSTC STC20060212211009802/12/06 21:10:31  5-MIN KSTC 130310Z 28009KT 10SM CLR M12/M16 A3009 870 76 -2200 280/09 RMK AO2 $
14926KSTC STC20060212211509802/12/06 21:15:31  5-MIN KSTC 130315Z 28010KT 10SM CLR M12/M16 A3009 870 76 -2200 280/10 RMK AO2 $
14926KSTC STC20060212212009802/12/06 21:20:31  5-MIN KSTC 130320Z 28010KT 10SM CLR M12/M16 A3008 880 76 -2200 270/10 RMK AO2 $
14926KSTC STC20060212212509802/12/06 21:25:31  5-MIN KSTC 130325Z 28009KT 10SM CLR M12/M16 A3008 880 76 -2200 280/09 RMK AO2 $
14926KSTC STC20060212213009802/12/06 21:30:31  5-MIN KSTC 130330Z 28008KT 10SM CLR M12/M16 A3008 880 76 -2200 280/08 RMK AO2 $
14926KSTC STC20060212213509802/12/06 21:35:31  5-MIN KSTC 130335Z 28009KT 10SM CLR M12/M16 A3007 890 76 -2200 280/09 RMK AO2 $
14926KSTC STC20060212214009802/12/06 21:40:31  5-MIN KSTC 130340Z 28009KT 10SM CLR M12/M16 A3007 890 76 -2200 280/09 RMK AO2 $
14926KSTC STC20060212214509802/12/06 21:45:31  5-MIN KSTC 130345Z 28009KT 10SM CLR M12/M16 A3007 890 76 -2200 280/09 RMK AO2 $
14926KSTC STC20060212215011502/12/06 21:50:31  5-MIN KSTC 130350Z 28009KT 10SM CLR M12/M16 A3007 890 76 -2200 280/09 RMK AO2 SLP212 T11221156 $
14926KSTC STC20060212215509802/12/06 21:55:31  5-MIN KSTC 130355Z 29008KT 10SM CLR M12/M16 A3006 900 76 -2200 280/08 RMK AO2 $
14926KSTC STC20060212220009802/12/06 22:00:31  5-MIN KSTC 130400Z 29009KT 10SM CLR M12/M16 A3006 900 76 -2200 290/09 RMK AO2 $
14926KSTC STC20060212220509802/12/06 22:05:31  5-MIN KSTC 130405Z 28011KT 10SM CLR M12/M16 A3006 900 76 -2200 280/11 RMK AO2 $
14926KSTC STC20060212221009802/12/06 22:10:31  5-MIN KSTC 130410Z 28009KT 10SM CLR M12/M16 A3005 910 76 -2200 280/09 RMK AO2 $
14926KSTC STC20060212221510102/12/06 22:15:31  5-MIN KSTC 130415Z 27007KT 10SM FEW110 M12/M16 A3004 910 76 -2200 270/07 RMK AO2 $
14926KSTC STC20060212222010102/12/06 22:20:31  5-MIN KSTC 130420Z 28007KT 10SM SCT110 M12/M16 A3004 910 73 -2100 280/07 RMK AO2 $
14926KSTC STC20060212222510102/12/06 22:25:31  5-MIN KSTC 130425Z 27006KT 10SM BKN110 M12/M16 A3004 920 73 -2100 270/06 RMK AO2 $
14926KSTC STC20060212223010102/12/06 22:30:31  5-MIN KSTC 130430Z 27006KT 10SM BKN110 M12/M16 A3003 920 73 -2100 260/06 RMK AO2 $
14926KSTC STC20060212223510102/12/06 22:35:31  5-MIN KSTC 130435Z 26005KT 10SM BKN100 M12/M16 A3003 930 73 -2100 260/05 RMK AO2 $
14926KSTC STC20060212224010102/12/06 22:40:31  5-MIN KSTC 130440Z 25005KT 10SM OVC100 M12/M15 A3003 930 76 -2100 250/05 RMK AO2 $
14926KSTC STC20060212224510102/12/06 22:45:31  5-MIN KSTC 130445Z 25005KT 10SM OVC100 M12/M15 A3003 930 76 -2100 240/05 RMK AO2 $
14926KSTC STC20060212225012302/12/06 22:50:31  5-MIN KSTC 130450Z AUTO 24005KT 10SM OVC110 M12/M15 A3003 930 76 -2100 240/05 RMK AO2 SLP198 T11171150 $
14926KSTC STC20060212225510602/12/06 22:55:31  5-MIN KSTC 130455Z AUTO 23005KT 10SM OVC100 M12/M15 A3002 940 80 -2200 230/05 RMK AO2 $
14926KSTC STC20060212230010602/12/06 23:00:31  5-MIN KSTC 130500Z AUTO 24005KT 10SM OVC110 M12/M16 A3002 940 76 -2200 240/05 RMK AO2 $
14926KSTC STC20060212230510602/12/06 23:05:31  5-MIN KSTC 130505Z AUTO 24006KT 10SM BKN110 M12/M16 A3001 940 76 -2200 230/06 RMK AO2 $
14926KSTC STC20060212231010602/12/06 23:10:31  5-MIN KSTC 130510Z AUTO 23005KT 10SM BKN110 M12/M16 A3001 940 76 -2100 230/05 RMK AO2 $
14926KSTC STC20060212231510602/12/06 23:15:31  5-MIN KSTC 130515Z AUTO 24005KT 10SM BKN110 M12/M16 A3001 950 76 -2100 230/05 RMK AO2 $
14926KSTC STC20060212232010602/12/06 23:20:31  5-MIN KSTC 130520Z AUTO 23006KT 10SM SCT110 M12/M16 A3000 950 76 -2100 230/06 RMK AO2 $
14926KSTC STC20060212232510602/12/06 23:25:31  5-MIN KSTC 130525Z AUTO 23005KT 10SM FEW110 M12/M16 A3000 950 76 -2100 230/05 RMK AO2 $
14926KSTC STC20060212233010602/12/06 23:30:31  5-MIN KSTC 130530Z AUTO 24006KT 10SM SCT110 M12/M15 A3000 950 80 -2100 240/06 RMK AO2 $
14926KSTC STC20060212233510602/12/06 23:35:31  5-MIN KSTC 130535Z AUTO 24006KT 10SM BKN110 M12/M15 A3000 950 80 -2100 240/06 RMK AO2 $
14926KSTC STC20060212234010602/12/06 23:40:31  5-MIN KSTC 130540Z AUTO 25006KT 10SM BKN110 M12/M15 A3000 950 80 -2100 250/06 RMK AO2 $
14926KSTC STC20060212234510602/12/06 23:45:31  5-MIN KSTC 130545Z AUTO 25007KT 10SM BKN110 M12/M15 A3000 960 80 -2100 240/07 RMK AO2 $
14926KSTC STC20060212235015102/12/06 23:50:31  5-MIN KSTC 130550Z AUTO 24007KT 10SM BKN110 M12/M15 A2999 960 80 -2100 240/07 RMK AO2 SLP185 T11221150 11094 21122 410781161 56019 $
14926KSTC STC20060214000511202/14/06 00:05:31  5-MIN KSTC 140605Z AUTO 20005KT 10SM FEW070 OVC100 M08/M11 A2968 1250 80 -1300 200/05 RMK AO2
14926KSTC STC20060214001010502/14/06 00:10:31  5-MIN KSTC 140610Z AUTO 21007KT 10SM BKN100 M08/M11 A2969 1240 80 -1300 210/07 RMK AO2
14926KSTC STC20060214001510502/14/06 00:15:31  5-MIN KSTC 140615Z AUTO 21009KT 10SM BKN100 M08/M12 A2969 1240 77 -1300 200/09 RMK AO2
14926KSTC STC20060214002010502/14/06 00:20:31  5-MIN KSTC 140620Z AUTO 20008KT 10SM BKN100 M08/M12 A2969 1240 77 -1300 200/08 RMK AO2
14926KSTC STC20060214002510502/14/06 00:25:31  5-MIN KSTC 140625Z AUTO 19008KT 10SM BKN100 M08/M12 A2968 1250 77 -1300 190/08 RMK AO2
14926KSTC STC20060214003010502/14/06 00:30:31  5-MIN KSTC 140630Z AUTO 20007KT 10SM BKN110 M08/M12 A2968 1250 77 -1200 190/07 RMK AO2
14926KSTC STC20060214003510502/14/06 00:35:31  5-MIN KSTC 140635Z AUTO 20007KT 10SM BKN110 M08/M11 A2968 1250 80 -1200 190/07 RMK AO2
14926KSTC STC20060214004010502/14/06 00:40:31  5-MIN KSTC 140640Z AUTO 19005KT 10SM OVC110 M08/M12 A2968 1250 77 -1200 190/05 RMK AO2
14926KSTC STC20060214004510502/14/06 00:45:31  5-MIN KSTC 140645Z AUTO 20007KT 10SM OVC110 M08/M11 A2968 1250 80 -1200 190/07 RMK AO2
14926KSTC STC20060214005012202/14/06 00:50:31  5-MIN KSTC 140650Z AUTO 18007KT 10SM OVC110 M08/M11 A2967 1250 80 -1200 180/07 RMK AO2 SLP073 T10831111
14926KSTC STC20060214005510502/14/06 00:55:31  5-MIN KSTC 140655Z AUTO 19006KT 10SM OVC110 M08/M11 A2967 1260 80 -1200 180/06 RMK AO2
14926KSTC STC20060214010010502/14/06 01:00:31  5-MIN KSTC 140700Z AUTO 20006KT 10SM OVC120 M08/M11 A2967 1250 80 -1200 190/06 RMK AO2
14926KSTC STC20060214010510502/14/06 01:05:31  5-MIN KSTC 140705Z AUTO 20006KT 10SM OVC120 M08/M11 A2967 1260 80 -1200 200/06 RMK AO2
14926KSTC STC20060214011010502/14/06 01:10:31  5-MIN KSTC 140710Z AUTO 20006KT 10SM OVC110 M08/M11 A2968 1250 80 -1200 200/06 RMK AO2
14926KSTC STC20060214011510502/14/06 01:15:31  5-MIN KSTC 140715Z AUTO 20008KT 10SM OVC120 M08/M11 A2968 1250 80 -1200 200/08 RMK AO2
14926KSTC STC20060214012010502/14/06 01:20:31  5-MIN KSTC 140720Z AUTO 20007KT 10SM OVC120 M08/M11 A2968 1250 80 -1200 200/07 RMK AO2
14926KSTC STC20060214012510502/14/06 01:25:31  5-MIN KSTC 140725Z AUTO 21006KT 10SM OVC120 M08/M11 A2967 1250 80 -1200 200/06 RMK AO2
14926KSTC STC20060214013010502/14/06 01:30:31  5-MIN KSTC 140730Z AUTO 20007KT 10SM OVC110 M08/M11 A2967 1260 80 -1200 190/07 RMK AO2
14926KSTC STC20060214013510502/14/06 01:35:31  5-MIN KSTC 140735Z AUTO 20007KT 10SM OVC110 M08/M11 A2967 1260 80 -1200 190/07 RMK AO2
14926KSTC STC20060214014010502/14/06 01:40:31  5-MIN KSTC 140740Z AUTO 19006KT 10SM OVC110 M08/M11 A2967 1260 80 -1200 180/06 RMK AO2
14926KSTC STC20060214014510502/14/06 01:45:31  5-MIN KSTC 140745Z AUTO 19007KT 10SM OVC110 M08/M11 A2966 1270 80 -1200 180/07 RMK AO2
14926KSTC STC20060214015012202/14/06 01:50:31  5-MIN KSTC 140750Z AUTO 18008KT 10SM OVC100 M08/M11 A2966 1270 80 -1200 180/08 RMK AO2 SLP068 T10831111
14926KSTC STC20060214015510502/14/06 01:55:31  5-MIN KSTC 140755Z AUTO 18007KT 10SM OVC100 M08/M11 A2966 1270 80 -1200 170/07 RMK AO2
14926KSTC STC20060214020010502/14/06 02:00:31  5-MIN KSTC 140800Z AUTO 18006KT 10SM OVC100 M08/M11 A2966 1270 77 -1100 180/06 RMK AO2
14926KSTC STC20060214020511202/14/06 02:05:31  5-MIN KSTC 140805Z AUTO 18007KT 10SM BKN090 OVC110 M08/M11 A2965 1280 80 -1100 180/07 RMK AO2
14926KSTC STC20060214021011202/14/06 02:10:31  5-MIN KSTC 140810Z AUTO 18006KT 10SM BKN090 OVC110 M08/M11 A2965 1280 80 -1100 180/06 RMK AO2
14926KSTC STC20060214021510502/14/06 02:15:31  5-MIN KSTC 140815Z AUTO 18008KT 10SM OVC095 M08/M11 A2965 1280 80 -1100 180/08 RMK AO2
14926KSTC STC20060214022010502/14/06 02:20:31  5-MIN KSTC 140820Z AUTO 19006KT 10SM OVC090 M08/M11 A2965 1280 80 -1100 190/06 RMK AO2
14926KSTC STC20060214022510502/14/06 02:25:31  5-MIN KSTC 140825Z AUTO 20006KT 10SM OVC085 M08/M11 A2965 1280 80 -1100 200/06 RMK AO2
14926KSTC STC20060214023011202/14/06 02:30:31  5-MIN KSTC 140830Z AUTO 21006KT 10SM BKN080 OVC100 M07/M10 A2965 1280 81 -1100 210/06 RMK AO2
14926KSTC STC20060214023511202/14/06 02:35:31  5-MIN KSTC 140835Z AUTO 20008KT 10SM BKN075 OVC100 M07/M10 A2965 1280 81 -1100 200/08 RMK AO2
14926KSTC STC20060214024010502/14/06 02:40:31  5-MIN KSTC 140840Z AUTO 20007KT 10SM OVC070 M07/M10 A2965 1280 81 -1100 200/07 RMK AO2
14926KSTC STC20060214024510502/14/06 02:45:31  5-MIN KSTC 140845Z AUTO 20006KT 10SM OVC065 M07/M10 A2965 1280 81 -1100 190/06 RMK AO2
14926KSTC STC20060214025012802/14/06 02:50:31  5-MIN KSTC 140850Z AUTO 19006KT 10SM OVC065 M07/M10 A2964 1280 81 -1100 190/06 RMK AO2 SLP062 T10721100 58021
14926KSTC STC20060214025511202/14/06 02:55:31  5-MIN KSTC 140855Z AUTO 19006KT 10SM SCT045 OVC070 M07/M10 A2964 1290 81 -1100 180/06 RMK AO2
14926KSTC STC20060214030011202/14/06 03:00:31  5-MIN KSTC 140900Z AUTO 18005KT 10SM SCT038 OVC070 M07/M10 A2964 1290 81 -1100 180/05 RMK AO2
14926KSTC STC20060214030511802/14/06 03:05:31  5-MIN KSTC 140905Z AUTO 18005KT 9SM SCT036 BKN050 OVC065 M07/M09 A2964 1290 84 -1100 180/05 RMK AO2
14926KSTC STC20060214031013402/14/06 03:10:31  5-MIN KSTC 140910Z AUTO 19004KT 7SM -SN SCT038 BKN048 OVC065 M07/M09 A2964 1290 81 -1000 190/04 RMK AO2 SNB07 P0000
14926KSTC STC20060214031513402/14/06 03:15:31  5-MIN KSTC 140915Z AUTO 18006KT 7SM -SN BKN038 BKN048 OVC065 M07/M09 A2963 1290 81 -1000 180/06 RMK AO2 SNB07 P0000
14926KSTC STC20060214032013302/14/06 03:20:31  5-MIN KSTC 140920Z AUTO 18005KT 7SM BKN034 BKN048 OVC065 M07/M09 A2963 1300 81 -1000 180/05 RMK AO2 SNB07E17 P0000
14926KSTC STC20060214032513402/14/06 03:25:31  5-MIN KSTC 140925Z AUTO 18005KT 6SM -SN BKN034 BKN050 OVC070 M07/M09 A2963 1300 81 -1000 170/05 RMK AO2 SNB07 P0000
14926KSTC STC20060214033013402/14/06 03:30:31  5-MIN KSTC 140930Z AUTO 18005KT 5SM -SN SCT034 BKN050 OVC075 M07/M09 A2962 1300 81 -1000 170/05 RMK AO2 SNB07 P0000
14926KSTC STC20060214033513602/14/06 03:35:31  5-MIN KSTC 140935Z AUTO 18007KT 6SM HZ SCT034 BKN060 OVC075 M07/M09 A2962 1310 81 -1000 170/07 RMK AO2 SNB07E35 P0000
14926KSTC STC20060214034013702/14/06 03:40:31  5-MIN KSTC 140940Z AUTO 18007KT 6SM -SN BR BKN029 BKN060 OVC075 M07/M09 A2962 1310 84 -1000 180/07 RMK AO2 SNB07 P0000
14926KSTC STC20060214034513702/14/06 03:45:31  5-MIN KSTC 140945Z AUTO 17007KT 5SM -SN BR BKN039 BKN060 OVC080 M07/M09 A2961 1310 84 -1000 170/07 RMK AO2 SNB07 P0000
14926KSTC STC20060214035014702/14/06 03:50:31  5-MIN KSTC 140950Z AUTO 17008KT 6SM -SN BR BKN055 OVC075 M07/M09 A2961 1310 84 -1000 170/08 RMK AO2 SNB07 SLP050 P0000 T10671089
14926KSTC STC20060214035511702/14/06 03:55:31  5-MIN KSTC 140955Z AUTO 17007KT 8SM BKN060 BKN070 OVC095 M07/M09 A2960 1320 84 -900 170/07 RMK AO2
14926KSTC STC20060214040011002/14/06 04:00:31  5-MIN KSTC 141000Z AUTO 17007KT 9SM BKN060 BKN090 M07/M09 A2960 1320 84 -900 170/07 RMK AO2
14926KSTC STC20060214040511802/14/06 04:05:31  5-MIN KSTC 141005Z AUTO 17008KT 10SM SCT050 BKN060 OVC090 M06/M09 A2960 1330 81 -900 170/08 RMK AO2
14926KSTC STC20060214041011102/14/06 04:10:31  5-MIN KSTC 141010Z AUTO 18006KT 10SM BKN050 OVC085 M06/M09 A2960 1330 81 -900 180/06 RMK AO2
14926KSTC STC20060214041511102/14/06 04:15:31  5-MIN KSTC 141015Z AUTO 19005KT 10SM BKN050 OVC090 M06/M08 A2960 1320 84 -900 190/05 RMK AO2
14926KSTC STC20060214042011102/14/06 04:20:31  5-MIN KSTC 141020Z AUTO 21004KT 10SM BKN050 OVC100 M06/M08 A2960 1320 81 -800 210/04 RMK AO2
14926KSTC STC20060214042510402/14/06 04:25:31  5-MIN KSTC 141025Z AUTO 22004KT 10SM OVC050 M06/M08 A2961 1320 81 -800 220/04 RMK AO2
14926KSTC STC20060214043010402/14/06 04:30:31  5-MIN KSTC 141030Z AUTO 22003KT 10SM OVC050 M06/M08 A2961 1320 84 -800 210/03 RMK AO2
14926KSTC STC20060214043511102/14/06 04:35:31  5-MIN KSTC 141035Z AUTO 23003KT 10SM FEW037 OVC055 M06/M08 A2961 1310 84 -800 220/03 RMK AO2
14926KSTC STC20060214044011102/14/06 04:40:31  5-MIN KSTC 141040Z AUTO 23003KT 10SM SCT037 OVC055 M06/M08 A2961 1310 84 -800 230/03 RMK AO2
14926KSTC STC20060214044511102/14/06 04:45:31  5-MIN KSTC 141045Z AUTO 22004KT 10SM SCT037 OVC055 M06/M08 A2961 1310 84 -800 210/04 RMK AO2
14926KSTC STC20060214045013502/14/06 04:50:31  5-MIN KSTC 141050Z AUTO 22003KT 10SM SCT037 BKN055 OVC070 M05/M08 A2961 1310 81 -700 220/03 RMK AO2 SLP051 T10501078
14926KSTC STC20060214045511802/14/06 04:55:31  5-MIN KSTC 141055Z AUTO 22003KT 10SM SCT037 BKN055 OVC070 M05/M08 A2962 1310 81 -700 220/03 RMK AO2
14926KSTC STC20060214050011802/14/06 05:00:31  5-MIN KSTC 141100Z AUTO 21003KT 10SM SCT037 SCT046 OVC070 M05/M08 A2962 1310 81 -700 200/03 RMK AO2
14926KSTC STC20060214050511802/14/06 05:05:31  5-MIN KSTC 141105Z AUTO 19004KT 10SM SCT038 SCT046 OVC070 M05/M08 A2961 1310 81 -700 190/04 RMK AO2
14926KSTC STC20060214051011102/14/06 05:10:31  5-MIN KSTC 141110Z AUTO 19003KT 10SM SCT040 OVC070 M05/M07 A2961 1310 84 -700 180/03 RMK AO2
14926KSTC STC20060214051511102/14/06 05:15:31  5-MIN KSTC 141115Z AUTO 19003KT 10SM FEW042 OVC070 M05/M07 A2961 1310 84 -700 190/03 RMK AO2
14926KSTC STC20060214052011102/14/06 05:20:31  5-MIN KSTC 141120Z AUTO 19003KT 10SM FEW042 OVC070 M05/M08 A2961 1310 81 -700 190/03 RMK AO2
14926KSTC STC20060214052511002/14/06 05:25:31  5-MIN KSTC 141125Z AUTO 20004KT 9SM FEW042 OVC070 M05/M07 A2962 1310 84 -700 200/04 RMK AO2
14926KSTC STC20060214053010302/14/06 05:30:31  5-MIN KSTC 141130Z AUTO 20004KT 9SM OVC070 M05/M07 A2962 1310 84 -700 200/04 RMK AO2
14926KSTC STC20060214053510302/14/06 05:35:31  5-MIN KSTC 141135Z AUTO 21004KT 9SM OVC070 M05/M07 A2962 1310 84 -700 210/04 RMK AO2
14926KSTC STC20060214054010302/14/06 05:40:31  5-MIN KSTC 141140Z AUTO 22003KT 9SM OVC070 M04/M07 A2962 1310 81 -700 210/03 RMK AO2
14926KSTC STC20060214054510302/14/06 05:45:31  5-MIN KSTC 141145Z AUTO 21003KT 9SM OVC070 M04/M07 A2961 1310 84 -700 200/03 RMK AO2
14926KSTC STC20060214055015002/14/06 05:50:31  5-MIN KSTC 141150Z AUTO 20003KT 9SM OVC070 M04/M07 A2961 1310 84 -700 200/03 RMK AO2 SLP052 60000 70001 T10441067 11044 21083 58014
14926KSTC STC20060214055510302/14/06 05:55:31  5-MIN KSTC 141155Z AUTO 22003KT 9SM OVC070 M04/M06 A2961 1310 88 -700 220/03 RMK AO2
14926KSTC STC20060214060010302/14/06 06:00:31  5-MIN KSTC 141200Z AUTO 00000KT 9SM OVC070 M04/M06 A2961 1310 85 -600 000/00 RMK AO2
14926KSTC STC20060214060511102/14/06 06:05:31  5-MIN KSTC 141205Z AUTO 00000KT 10SM BKN070 OVC095 M03/M06 A2961 1310 81 -500 000/00 RMK AO2
14926KSTC STC20060214061011102/14/06 06:10:31  5-MIN KSTC 141210Z AUTO 00000KT 10SM BKN075 OVC095 M04/M06 A2962 1310 85 -600 000/00 RMK AO2
14926KSTC STC20060214061511802/14/06 06:15:31  5-MIN KSTC 141215Z AUTO 00000KT 10SM SCT080 BKN090 OVC110 M04/M07 A2962 1310 84 -700 000/00 RMK AO2
14926KSTC STC20060214062011102/14/06 06:20:31  5-MIN KSTC 141220Z AUTO 19003KT 10SM BKN090 OVC110 M04/M07 A2961 1310 84 -700 190/03 RMK AO2
14926KSTC STC20060214062510402/14/06 06:25:31  5-MIN KSTC 141225Z AUTO 22003KT 10SM OVC100 M04/M07 A2962 1310 84 -700 220/03 RMK AO2
14926KSTC STC20060214063010402/14/06 06:30:31  5-MIN KSTC 141230Z AUTO 24005KT 10SM BKN100 M04/M06 A2962 1310 85 -600 230/05 RMK AO2
14926KSTC STC20060214063510402/14/06 06:35:31  5-MIN KSTC 141235Z AUTO 25007KT 10SM OVC100 M03/M06 A2962 1310 81 -500 250/07 RMK AO2
14926KSTC STC20060214064010402/14/06 06:40:31  5-MIN KSTC 141240Z AUTO 24007KT 10SM OVC100 M02/M04 A2962 1310 81 -300 240/07 RMK AO2
14926KSTC STC20060214064510402/14/06 06:45:31  5-MIN KSTC 141245Z AUTO 25008KT 10SM OVC100 M01/M04 A2962 1310 81 -300 240/08 RMK AO2
14926KSTC STC20060214065012102/14/06 06:50:31  5-MIN KSTC 141250Z AUTO 25008KT 10SM OVC100 M01/M04 A2962 1310 81 -300 240/08 RMK AO2 SLP053 T10111039
14926KSTC STC20060214065510402/14/06 06:55:31  5-MIN KSTC 141255Z AUTO 24008KT 10SM OVC100 M01/M04 A2962 1310 81 -300 240/08 RMK AO2
14926KSTC STC20060214070010402/14/06 07:00:31  5-MIN KSTC 141300Z AUTO 25007KT 10SM OVC100 M01/M04 A2962 1300 81 -300 240/07 RMK AO2
14926KSTC STC20060214070510402/14/06 07:05:31  5-MIN KSTC 141305Z AUTO 25007KT 10SM OVC100 M01/M03 A2962 1300 85 -300 250/07 RMK AO2
14926KSTC STC20060214071010402/14/06 07:10:31  5-MIN KSTC 141310Z AUTO 24006KT 10SM OVC095 M01/M03 A2962 1300 85 -300 240/06 RMK AO2
14926KSTC STC20060214071510402/14/06 07:15:31  5-MIN KSTC 141315Z AUTO 24006KT 10SM OVC090 M01/M03 A2962 1300 85 -300 230/06 RMK AO2
14926KSTC STC20060214072010402/14/06 07:20:31  5-MIN KSTC 141320Z AUTO 24006KT 10SM OVC090 M01/M03 A2962 1300 85 -300 230/06 RMK AO2
14926KSTC STC20060214072510402/14/06 07:25:31  5-MIN KSTC 141325Z AUTO 24006KT 10SM OVC090 M01/M03 A2962 1300 81 -200 240/06 RMK AO2
14926KSTC STC20060214073010402/14/06 07:30:31  5-MIN KSTC 141330Z AUTO 24006KT 10SM OVC090 M01/M03 A2962 1300 81 -200 240/06 RMK AO2
14926KSTC STC20060214073510402/14/06 07:35:31  5-MIN KSTC 141335Z AUTO 24006KT 10SM OVC090 M01/M03 A2963 1300 85 -300 240/06 RMK AO2
14926KSTC STC20060214074010402/14/06 07:40:31  5-MIN KSTC 141340Z AUTO 24006KT 10SM OVC090 M01/M03 A2963 1300 85 -300 230/06 RMK AO2
14926KSTC STC20060214074510402/14/06 07:45:31  5-MIN KSTC 141345Z AUTO 24005KT 10SM OVC090 M01/M03 A2963 1300 81 -200 230/05 RMK AO2
14926KSTC STC20060214075012102/14/06 07:50:31  5-MIN KSTC 141350Z AUTO 24005KT 10SM OVC090 M01/M03 A2963 1300 81 -200 240/05 RMK AO2 SLP055 T10061033
14926KSTC STC20060214075510402/14/06 07:55:31  5-MIN KSTC 141355Z AUTO 24006KT 10SM OVC090 M01/M03 A2963 1300 81 -200 240/06 RMK AO2
14926KSTC STC20060214080010402/14/06 08:00:31  5-MIN KSTC 141400Z AUTO 25005KT 10SM OVC090 M01/M03 A2963 1290 81 -200 250/05 RMK AO2
14926KSTC STC20060214080510402/14/06 08:05:31  5-MIN KSTC 141405Z AUTO 26005KT 10SM OVC090 M01/M03 A2964 1290 88 -300 260/05 RMK AO2
14926KSTC STC20060214081010402/14/06 08:10:31  5-MIN KSTC 141410Z AUTO 27004KT 10SM OVC090 M01/M03 A2963 1290 88 -300 270/04 RMK AO2
14926KSTC STC20060214081510402/14/06 08:15:31  5-MIN KSTC 141415Z AUTO 27005KT 10SM BKN090 M01/M03 A2963 1290 85 -200 270/05 RMK AO2
14926KSTC STC20060214082010302/14/06 08:20:31  5-MIN KSTC 141420Z AUTO 27005KT 10SM BKN090 00/M03 A2964 1290 81 -100 270/05 RMK AO2
14926KSTC STC20060214082510302/14/06 08:25:31  5-MIN KSTC 141425Z AUTO 27005KT 10SM BKN090 00/M03 A2964 1290 81 -100 260/05 RMK AO2
14926KSTC STC20060214083010302/14/06 08:30:31  5-MIN KSTC 141430Z AUTO 27006KT 10SM BKN090 00/M03 A2964 1280 81 -100 270/06 RMK AO2
14926KSTC STC20060214083510002/14/06 08:35:31  5-MIN KSTC 141435Z AUTO 27007KT 10SM SCT090 01/M03 A2964 1280 75 0 270/07 RMK AO2
14926KSTC STC20060214084010002/14/06 08:40:31  5-MIN KSTC 141440Z AUTO 28008KT 10SM BKN085 01/M02 A2964 1280 78 0 270/08 RMK AO2
14926KSTC STC20060214084510002/14/06 08:45:31  5-MIN KSTC 141445Z AUTO 29007KT 10SM BKN085 01/M02 A2964 1290 78 0 280/07 RMK AO2
14926KSTC STC20060214085012302/14/06 08:50:31  5-MIN KSTC 141450Z AUTO 28007KT 10SM SCT085 01/M02 A2964 1290 78 0 280/07 RMK AO2 SLP059 T00111022 56008
14926KSTC STC20060214085510002/14/06 08:55:31  5-MIN KSTC 141455Z AUTO 28008KT 10SM FEW085 02/M02 A2964 1290 75 0 280/08 RMK AO2
14926KSTC STC20060214090010002/14/06 09:00:31  5-MIN KSTC 141500Z AUTO 28007KT 10SM FEW085 02/M02 A2964 1290 75 0 280/07 RMK AO2
14926KSTC STC20060214090510002/14/06 09:05:31  5-MIN KSTC 141505Z AUTO 28009KT 10SM FEW085 02/M02 A2964 1290 75 0 270/09 RMK AO2
14926KSTC STC20060214091009702/14/06 09:10:31  5-MIN KSTC 141510Z AUTO 28010KT 10SM CLR 02/M02 A2964 1290 75 0 280/10 RMK AO2
14926KSTC STC20060214091509702/14/06 09:15:31  5-MIN KSTC 141515Z AUTO 28011KT 10SM CLR 02/M02 A2964 1290 75 0 280/11 RMK AO2
14926KSTC STC20060214092010002/14/06 09:20:31  5-MIN KSTC 141520Z AUTO 28010KT 10SM FEW075 02/M02 A2964 1290 75 0 270/10 RMK AO2
14926KSTC STC20060214092510002/14/06 09:25:31  5-MIN KSTC 141525Z AUTO 27010KT 10SM FEW075 02/M02 A2964 1290 75 0 270/10 RMK AO2
14926KSTC STC20060214093009702/14/06 09:30:31  5-MIN KSTC 141530Z AUTO 27010KT 10SM CLR 02/M03 A2964 1290 72 0 270/10 RMK AO2
14926KSTC STC20060214093509702/14/06 09:35:31  5-MIN KSTC 141535Z AUTO 28010KT 10SM CLR 02/M02 A2964 1280 75 0 280/10 RMK AO2
14926KSTC STC20060214094009702/14/06 09:40:31  5-MIN KSTC 141540Z AUTO 27011KT 10SM CLR 02/M02 A2964 1290 75 0 270/11 RMK AO2
14926KSTC STC20060214094509702/14/06 09:45:31  5-MIN KSTC 141545Z AUTO 28008KT 10SM CLR 02/M02 A2964 1290 75 0 270/08 RMK AO2
14926KSTC STC20060214095011402/14/06 09:50:31  5-MIN KSTC 141550Z AUTO 28009KT 10SM CLR 02/M03 A2964 1290 72 0 270/09 RMK AO2 SLP058 T00171028
14926KSTC STC20060214095509902/14/06 09:55:31  5-MIN KSTC 141555Z AUTO 27010KT 10SM CLR 02/M03 A2964 1280 69 100 270/10 RMK AO2
14926KSTC STC20060214100009902/14/06 10:00:31  5-MIN KSTC 141600Z AUTO 27009KT 10SM CLR 02/M03 A2964 1280 69 100 270/09 RMK AO2
14926KSTC STC20060214100509902/14/06 10:05:31  5-MIN KSTC 141605Z AUTO 27012KT 10SM CLR 02/M03 A2964 1280 69 100 260/12 RMK AO2
14926KSTC STC20060214101009902/14/06 10:10:31  5-MIN KSTC 141610Z AUTO 26010KT 10SM CLR 02/M03 A2965 1280 69 100 260/10 RMK AO2
14926KSTC STC20060214101509902/14/06 10:15:31  5-MIN KSTC 141615Z AUTO 26009KT 10SM CLR 02/M03 A2965 1280 69 100 260/09 RMK AO2
14926KSTC STC20060214102009902/14/06 10:20:31  5-MIN KSTC 141620Z AUTO 27011KT 10SM CLR 02/M03 A2965 1280 69 100 270/11 RMK AO2
14926KSTC STC20060214102509902/14/06 10:25:31  5-MIN KSTC 141625Z AUTO 27010KT 10SM CLR 02/M03 A2965 1280 69 100 270/10 RMK AO2
14926KSTC STC20060214103009902/14/06 10:30:31  5-MIN KSTC 141630Z AUTO 29008KT 10SM CLR 02/M03 A2965 1280 69 100 280/08 RMK AO2
14926KSTC STC20060214103509902/14/06 10:35:31  5-MIN KSTC 141635Z AUTO 29011KT 10SM CLR 02/M03 A2965 1280 69 100 290/11 RMK AO2
14926KSTC STC20060214104009902/14/06 10:40:31  5-MIN KSTC 141640Z AUTO 29009KT 10SM CLR 02/M03 A2965 1280 69 100 280/09 RMK AO2
14926KSTC STC20060214104509902/14/06 10:45:31  5-MIN KSTC 141645Z AUTO 28012KT 10SM CLR 02/M03 A2965 1280 67 100 280/12 RMK AO2
14926KSTC STC20060214105011602/14/06 10:50:31  5-MIN KSTC 141650Z AUTO 29011KT 10SM CLR 02/M03 A2965 1280 67 100 290/11 RMK AO2 SLP061 T00221033
14926KSTC STC20060214105509902/14/06 10:55:31  5-MIN KSTC 141655Z AUTO 28012KT 10SM CLR 03/M03 A2965 1280 64 100 280/12 RMK AO2
14926KSTC STC20060214110009902/14/06 11:00:31  5-MIN KSTC 141700Z AUTO 28011KT 10SM CLR 02/M03 A2965 1280 67 100 280/11 RMK AO2
14926KSTC STC20060214110509902/14/06 11:05:31  5-MIN KSTC 141705Z AUTO 28012KT 10SM CLR 03/M03 A2965 1280 64 100 280/12 RMK AO2
14926KSTC STC20060214111009902/14/06 11:10:31  5-MIN KSTC 141710Z AUTO 29011KT 10SM CLR 03/M03 A2965 1280 64 100 290/11 RMK AO2
14926KSTC STC20060214111509902/14/06 11:15:31  5-MIN KSTC 141715Z AUTO 28012KT 10SM CLR 03/M03 A2966 1270 64 100 280/12 RMK AO2
14926KSTC STC20060214112009902/14/06 11:20:31  5-MIN KSTC 141720Z AUTO 29010KT 10SM CLR 03/M03 A2966 1270 64 100 280/10 RMK AO2
14926KSTC STC20060214112509902/14/06 11:25:31  5-MIN KSTC 141725Z AUTO 29012KT 10SM CLR 03/M03 A2966 1270 64 100 290/12 RMK AO2
14926KSTC STC20060214113009902/14/06 11:30:31  5-MIN KSTC 141730Z AUTO 29010KT 10SM CLR 03/M03 A2966 1270 64 100 290/10 RMK AO2
14926KSTC STC20060214113509902/14/06 11:35:31  5-MIN KSTC 141735Z AUTO 29009KT 10SM CLR 03/M03 A2966 1270 64 100 290/09 RMK AO2
14926KSTC STC20060214114009902/14/06 11:40:31  5-MIN KSTC 141740Z AUTO 30010KT 10SM CLR 03/M03 A2966 1270 64 100 290/10 RMK AO2
14926KSTC STC20060214114509902/14/06 11:45:31  5-MIN KSTC 141745Z AUTO 29011KT 10SM CLR 03/M03 A2966 1260 64 100 290/11 RMK AO2
14926KSTC STC20060214115013402/14/06 11:50:31  5-MIN KSTC 141750Z AUTO 29013KT 10SM CLR 03/M04 A2967 1260 61 100 280/13 RMK AO2 SLP068 T00281039 10028 21044 53007
14926KSTC STC20060214115509902/14/06 11:55:31  5-MIN KSTC 141755Z AUTO 29011KT 10SM CLR 03/M04 A2967 1260 61 100 290/11 RMK AO2
14926KSTC STC20060214120009902/14/06 12:00:31  5-MIN KSTC 141800Z AUTO 29011KT 10SM CLR 03/M04 A2967 1260 61 100 290/11 RMK AO2
14926KSTC STC20060214120509902/14/06 12:05:31  5-MIN KSTC 141805Z AUTO 30011KT 10SM CLR 03/M04 A2967 1260 61 100 300/11 RMK AO2
14926KSTC STC20060214121009902/14/06 12:10:31  5-MIN KSTC 141810Z AUTO 30011KT 10SM CLR 03/M04 A2967 1260 61 100 300/11 RMK AO2
14926KSTC STC20060214121509902/14/06 12:15:31  5-MIN KSTC 141815Z AUTO 30009KT 10SM CLR 03/M04 A2967 1260 61 100 300/09 RMK AO2
14926KSTC STC20060214122009902/14/06 12:20:31  5-MIN KSTC 141820Z AUTO 28012KT 10SM CLR 03/M03 A2967 1260 64 100 280/12 RMK AO2
14926KSTC STC20060214122509902/14/06 12:25:31  5-MIN KSTC 141825Z AUTO 29009KT 10SM CLR 03/M04 A2967 1260 61 100 290/09 RMK AO2
14926KSTC STC20060214123009902/14/06 12:30:31  5-MIN KSTC 141830Z AUTO 30011KT 10SM CLR 03/M04 A2967 1260 61 100 300/11 RMK AO2
14926KSTC STC20060214123509902/14/06 12:35:31  5-MIN KSTC 141835Z AUTO 29010KT 10SM CLR 03/M04 A2967 1260 61 100 280/10 RMK AO2
14926KSTC STC20060214124010202/14/06 12:40:31  5-MIN KSTC 141840Z AUTO 30011KT 10SM FEW110 03/M04 A2967 1260 61 100 290/11 RMK AO2
14926KSTC STC20060214124510202/14/06 12:45:31  5-MIN KSTC 141845Z AUTO 30011KT 10SM FEW110 03/M04 A2967 1260 61 100 300/11 RMK AO2
14926KSTC STC20060214125011902/14/06 12:50:31  5-MIN KSTC 141850Z AUTO 31009KT 10SM FEW110 03/M04 A2967 1260 61 100 300/09 RMK AO2 SLP070 T00281039
14926KSTC STC20060214125510202/14/06 12:55:31  5-MIN KSTC 141855Z AUTO 30010KT 10SM FEW100 03/M04 A2967 1260 61 100 300/10 RMK AO2
14926KSTC STC20060214130010202/14/06 13:00:31  5-MIN KSTC 141900Z AUTO 30009KT 10SM FEW100 03/M04 A2967 1260 61 100 300/09 RMK AO2
14926KSTC STC20060214130510202/14/06 13:05:31  5-MIN KSTC 141905Z AUTO 30007KT 10SM FEW100 03/M03 A2967 1260 64 100 290/07 RMK AO2
14926KSTC STC20060214131010202/14/06 13:10:31  5-MIN KSTC 141910Z AUTO 30008KT 10SM FEW075 03/M04 A2967 1260 61 100 300/08 RMK AO2
14926KSTC STC20060214131510202/14/06 13:15:31  5-MIN KSTC 141915Z AUTO 29010KT 10SM FEW080 03/M04 A2967 1260 61 100 280/10 RMK AO2
14926KSTC STC20060214132010202/14/06 13:20:31  5-MIN KSTC 141920Z AUTO 28010KT 10SM FEW075 03/M04 A2967 1260 61 100 280/10 RMK AO2
14926KSTC STC20060214132510202/14/06 13:25:31  5-MIN KSTC 141925Z AUTO 28010KT 10SM SCT075 03/M04 A2967 1260 61 100 270/10 RMK AO2
14926KSTC STC20060214133010202/14/06 13:30:31  5-MIN KSTC 141930Z AUTO 28010KT 10SM BKN075 03/M04 A2967 1260 61 100 280/10 RMK AO2
14926KSTC STC20060214133510202/14/06 13:35:31  5-MIN KSTC 141935Z AUTO 28009KT 10SM BKN075 03/M04 A2967 1260 61 100 270/09 RMK AO2
14926KSTC STC20060214134010202/14/06 13:40:31  5-MIN KSTC 141940Z AUTO 26006KT 10SM BKN075 03/M04 A2967 1260 61 100 260/06 RMK AO2
14926KSTC STC20060214134510202/14/06 13:45:31  5-MIN KSTC 141945Z AUTO 27009KT 10SM BKN080 03/M04 A2967 1260 61 100 270/09 RMK AO2
14926KSTC STC20060214135011902/14/06 13:50:31  5-MIN KSTC 141950Z AUTO 28010KT 10SM BKN080 03/M04 A2967 1260 61 100 270/10 RMK AO2 SLP069 T00281039
14926KSTC STC20060214135510202/14/06 13:55:31  5-MIN KSTC 141955Z AUTO 27009KT 10SM BKN080 03/M04 A2967 1260 59 100 260/09 RMK AO2
14926KSTC STC20060214140010202/14/06 14:00:31  5-MIN KSTC 142000Z AUTO 28008KT 10SM BKN085 03/M04 A2967 1260 59 100 280/08 RMK AO2
14926KSTC STC20060214140510202/14/06 14:05:31  5-MIN KSTC 142005Z AUTO 27009KT 10SM BKN085 03/M04 A2967 1260 59 100 270/09 RMK AO2
14926KSTC STC20060214141010202/14/06 14:10:31  5-MIN KSTC 142010Z AUTO 28008KT 10SM OVC085 03/M04 A2967 1250 59 100 270/08 RMK AO2
14926KSTC STC20060214141510202/14/06 14:15:31  5-MIN KSTC 142015Z AUTO 27010KT 10SM OVC090 03/M04 A2968 1250 59 100 270/10 RMK AO2
14926KSTC STC20060214142010202/14/06 14:20:31  5-MIN KSTC 142020Z AUTO 28009KT 10SM OVC090 03/M04 A2968 1250 59 100 280/09 RMK AO2
14926KSTC STC20060214142510202/14/06 14:25:31  5-MIN KSTC 142025Z AUTO 28012KT 10SM OVC090 03/M04 A2968 1250 59 100 280/12 RMK AO2
14926KSTC STC20060214143010202/14/06 14:30:31  5-MIN KSTC 142030Z AUTO 29013KT 10SM OVC090 03/M05 A2968 1250 56 100 290/13 RMK AO2
14926KSTC STC20060214143510202/14/06 14:35:31  5-MIN KSTC 142035Z AUTO 29012KT 10SM OVC090 03/M05 A2969 1240 56 100 290/12 RMK AO2
14926KSTC STC20060214144010202/14/06 14:40:31  5-MIN KSTC 142040Z AUTO 29010KT 10SM OVC090 03/M04 A2969 1240 59 100 280/10 RMK AO2
14926KSTC STC20060214144510202/14/06 14:45:31  5-MIN KSTC 142045Z AUTO 30011KT 10SM BKN090 03/M04 A2969 1240 59 100 300/11 RMK AO2
14926KSTC STC20060214145012502/14/06 14:50:31  5-MIN KSTC 142050Z AUTO 29012KT 10SM BKN090 03/M04 A2969 1240 59 100 290/12 RMK AO2 SLP074 T00281044 53010
14926KSTC STC20060214145510202/14/06 14:55:31  5-MIN KSTC 142055Z AUTO 29010KT 10SM BKN090 03/M05 A2969 1240 56 100 290/10 RMK AO2
14926KSTC STC20060214150010202/14/06 15:00:31  5-MIN KSTC 142100Z AUTO 28014KT 10SM BKN095 03/M05 A2969 1240 56 100 280/14 RMK AO2
14926KSTC STC20060214150510202/14/06 15:05:31  5-MIN KSTC 142105Z AUTO 29012KT 10SM BKN095 03/M05 A2969 1240 56 100 280/12 RMK AO2
14926KSTC STC20060214151010202/14/06 15:10:31  5-MIN KSTC 142110Z AUTO 29012KT 10SM BKN095 03/M04 A2969 1240 59 100 290/12 RMK AO2
14926KSTC STC20060214151510202/14/06 15:15:31  5-MIN KSTC 142115Z AUTO 29010KT 10SM OVC095 03/M04 A2969 1240 59 100 290/10 RMK AO2
14926KSTC STC20060214152010202/14/06 15:20:31  5-MIN KSTC 142120Z AUTO 29010KT 10SM OVC095 03/M04 A2969 1240 59 100 290/10 RMK AO2
14926KSTC STC20060214152510202/14/06 15:25:31  5-MIN KSTC 142125Z AUTO 29010KT 10SM OVC095 03/M04 A2969 1240 59 100 280/10 RMK AO2
14926KSTC STC20060214153010202/14/06 15:30:31  5-MIN KSTC 142130Z AUTO 29012KT 10SM BKN095 03/M05 A2969 1240 56 100 280/12 RMK AO2
14926KSTC STC20060214153510002/14/06 15:35:31  5-MIN KSTC 142135Z AUTO 29013KT 10SM BKN095 02/M05 A2969 1240 59 0 290/13 RMK AO2
14926KSTC STC20060214154010002/14/06 15:40:31  5-MIN KSTC 142140Z AUTO 28013KT 10SM SCT095 02/M05 A2970 1230 59 0 280/13 RMK AO2
14926KSTC STC20060214154510002/14/06 15:45:31  5-MIN KSTC 142145Z AUTO 30012KT 10SM SCT095 02/M05 A2970 1230 59 0 290/12 RMK AO2
14926KSTC STC20060214155011702/14/06 15:50:31  5-MIN KSTC 142150Z AUTO 29013KT 10SM FEW095 02/M04 A2970 1230 61 0 290/13 RMK AO2 SLP080 T00221044
14926KSTC STC20060214155509702/14/06 15:55:31  5-MIN KSTC 142155Z AUTO 29014KT 10SM CLR 02/M05 A2971 1220 59 0 290/14 RMK AO2
14926KSTC STC20060214160009702/14/06 16:00:31  5-MIN KSTC 142200Z AUTO 30017KT 10SM CLR 02/M05 A2971 1220 59 0 300/17 RMK AO2
14926KSTC STC20060214160509702/14/06 16:05:31  5-MIN KSTC 142205Z AUTO 29012KT 10SM CLR 02/M05 A2971 1220 59 0 290/12 RMK AO2
14926KSTC STC20060214161009702/14/06 16:10:31  5-MIN KSTC 142210Z AUTO 29014KT 10SM CLR 02/M04 A2971 1220 61 0 290/14 RMK AO2
14926KSTC STC20060214161509702/14/06 16:15:31  5-MIN KSTC 142215Z AUTO 29012KT 10SM CLR 02/M04 A2972 1220 61 0 290/12 RMK AO2
14926KSTC STC20060214162009702/14/06 16:20:31  5-MIN KSTC 142220Z AUTO 30011KT 10SM CLR 02/M04 A2972 1210 61 0 290/11 RMK AO2
14926KSTC STC20060214162509702/14/06 16:25:31  5-MIN KSTC 142225Z AUTO 29012KT 10SM CLR 02/M04 A2972 1210 61 0 290/12 RMK AO2
14926KSTC STC20060214163009702/14/06 16:30:31  5-MIN KSTC 142230Z AUTO 30013KT 10SM CLR 02/M04 A2972 1210 61 0 290/13 RMK AO2
14926KSTC STC20060214163509702/14/06 16:35:31  5-MIN KSTC 142235Z AUTO 31012KT 10SM CLR 02/M04 A2973 1210 64 0 300/12 RMK AO2
14926KSTC STC20060214164009702/14/06 16:40:31  5-MIN KSTC 142240Z AUTO 30012KT 10SM CLR 02/M04 A2973 1200 64 0 300/12 RMK AO2
14926KSTC STC20060214164509702/14/06 16:45:31  5-MIN KSTC 142245Z AUTO 32016KT 10SM CLR 02/M05 A2974 1200 61 0 310/16 RMK AO2
14926KSTC STC20060214165011402/14/06 16:50:31  5-MIN KSTC 142250Z AUTO 31016KT 10SM CLR 02/M06 A2974 1190 59 0 310/16 RMK AO2 SLP092 T00171056
14926KSTC STC20060214165510002/14/06 16:55:31  5-MIN KSTC 142255Z AUTO 32014KT 10SM CLR 02/M06 A2974 1190 56 -100 320/14 RMK AO2
14926KSTC STC20060214170010002/14/06 17:00:31  5-MIN KSTC 142300Z AUTO 32015KT 10SM CLR 01/M06 A2974 1190 58 -100 310/15 RMK AO2
14926KSTC STC20060214170510002/14/06 17:05:31  5-MIN KSTC 142305Z AUTO 31014KT 10SM CLR 01/M06 A2974 1190 58 -100 310/14 RMK AO2
14926KSTC STC20060214171010002/14/06 17:10:31  5-MIN KSTC 142310Z AUTO 32013KT 10SM CLR 01/M06 A2975 1190 58 -100 310/13 RMK AO2
14926KSTC STC20060214171510002/14/06 17:15:31  5-MIN KSTC 142315Z AUTO 31017KT 10SM CLR 01/M06 A2975 1180 61 -200 310/17 RMK AO2
14926KSTC STC20060214172010002/14/06 17:20:31  5-MIN KSTC 142320Z AUTO 32015KT 10SM CLR 01/M07 A2976 1180 58 -200 310/15 RMK AO2
14926KSTC STC20060214172510002/14/06 17:25:31  5-MIN KSTC 142325Z AUTO 31016KT 10SM CLR 01/M07 A2976 1180 58 -200 310/16 RMK AO2
14926KSTC STC20060214173010002/14/06 17:30:31  5-MIN KSTC 142330Z AUTO 31017KT 10SM CLR 01/M07 A2976 1170 58 -200 300/17 RMK AO2
14926KSTC STC20060214173510002/14/06 17:35:31  5-MIN KSTC 142335Z AUTO 31018KT 10SM CLR 00/M07 A2976 1170 61 -300 310/18 RMK AO2
14926KSTC STC20060214174010002/14/06 17:40:31  5-MIN KSTC 142340Z AUTO 31015KT 10SM CLR 00/M07 A2977 1170 61 -300 310/15 RMK AO2
14926KSTC STC20060214174510102/14/06 17:45:31  5-MIN KSTC 142345Z AUTO 31017KT 10SM CLR M01/M07 A2977 1170 63 -400 310/17 RMK AO2
14926KSTC STC20060214175014202/14/06 17:50:31  5-MIN KSTC 142350Z AUTO 31019G22KT 10SM CLR M01/M07 A2977 1160 61 -400 310/19G22 RMK AO2 SLP104 T10061072 10033 21006 53005
14926KSTC STC20060214175510702/14/06 17:55:31  5-MIN KSTC 142355Z AUTO 31013G22KT 10SM CLR M01/M07 A2978 1160 61 -400 310/13G22 RMK AO2
14926KSTC STC20060214180010102/14/06 18:00:31  5-MIN KSTC 150000Z AUTO 30015KT 10SM CLR M01/M07 A2978 1150 61 -400 300/15 RMK AO2
14926KSTC STC20060214180510102/14/06 18:05:31  5-MIN KSTC 150005Z AUTO 31015KT 10SM CLR M01/M07 A2979 1150 63 -400 310/15 RMK AO2
14926KSTC STC20060214181010102/14/06 18:10:31  5-MIN KSTC 150010Z AUTO 30011KT 10SM CLR M01/M07 A2979 1150 63 -500 300/11 RMK AO2
14926KSTC STC20060214181510102/14/06 18:15:31  5-MIN KSTC 150015Z AUTO 31014KT 10SM CLR M01/M08 A2980 1140 60 -500 300/14 RMK AO2
14926KSTC STC20060214182010802/14/06 18:20:31  5-MIN KSTC 150020Z AUTO 30013KT 10SM CLR M01/M08 A2980 1130 60 -500 290/13 RMK AO2 PRESRR
14926KSTC STC20060214182510102/14/06 18:25:31  5-MIN KSTC 150025Z AUTO 30014KT 10SM CLR M02/M08 A2981 1130 63 -500 300/14 RMK AO2
14926KSTC STC20060214183010102/14/06 18:30:31  5-MIN KSTC 150030Z AUTO 30015KT 10SM CLR M02/M08 A2981 1130 60 -500 300/15 RMK AO2
14926KSTC STC20060214183510102/14/06 18:35:31  5-MIN KSTC 150035Z AUTO 31015KT 10SM CLR M02/M08 A2981 1130 60 -500 300/15 RMK AO2
14926KSTC STC20060214184010102/14/06 18:40:31  5-MIN KSTC 150040Z AUTO 30013KT 10SM CLR M02/M08 A2981 1130 63 -600 300/13 RMK AO2
14926KSTC STC20060214184510102/14/06 18:45:31  5-MIN KSTC 150045Z AUTO 31015KT 10SM CLR M02/M08 A2982 1120 63 -600 310/15 RMK AO2
14926KSTC STC20060214185011802/14/06 18:50:31  5-MIN KSTC 150050Z AUTO 31015KT 10SM CLR M02/M08 A2982 1120 63 -600 310/15 RMK AO2 SLP120 T10221083
14926KSTC STC20060214185510102/14/06 18:55:31  5-MIN KSTC 150055Z AUTO 31015KT 10SM CLR M02/M08 A2982 1120 63 -600 310/15 RMK AO2
14926KSTC STC20060214190010102/14/06 19:00:31  5-MIN KSTC 150100Z AUTO 31015KT 10SM CLR M02/M08 A2983 1110 63 -600 310/15 RMK AO2
14926KSTC STC20060214190510102/14/06 19:05:31  5-MIN KSTC 150105Z AUTO 31017KT 10SM CLR M03/M08 A2983 1110 66 -700 310/17 RMK AO2
14926KSTC STC20060214191010102/14/06 19:10:31  5-MIN KSTC 150110Z AUTO 31017KT 10SM CLR M03/M08 A2984 1100 66 -700 310/17 RMK AO2
14926KSTC STC20060214191510102/14/06 19:15:31  5-MIN KSTC 150115Z AUTO 32015KT 10SM CLR M03/M08 A2984 1100 66 -700 310/15 RMK AO2
14926KSTC STC20060214192010102/14/06 19:20:31  5-MIN KSTC 150120Z AUTO 32015KT 10SM CLR M03/M08 A2984 1100 68 -800 320/15 RMK AO2
14926KSTC STC20060214192510702/14/06 19:25:31  5-MIN KSTC 150125Z AUTO 31012G20KT 10SM CLR M03/M08 A2984 1100 68 -800 310/12G20 RMK AO2
14926KSTC STC20060214193010102/14/06 19:30:31  5-MIN KSTC 150130Z AUTO 31014KT 10SM CLR M04/M09 A2985 1100 68 -900 310/14 RMK AO2
14926KSTC STC20060214193510102/14/06 19:35:31  5-MIN KSTC 150135Z AUTO 31013KT 10SM CLR M04/M09 A2985 1090 68 -900 310/13 RMK AO2
14926KSTC STC20060214194010102/14/06 19:40:31  5-MIN KSTC 150140Z AUTO 30014KT 10SM CLR M04/M09 A2985 1090 71 -900 300/14 RMK AO2
14926KSTC STC20060214194510702/14/06 19:45:31  5-MIN KSTC 150145Z AUTO 30017G21KT 10SM CLR M04/M09 A2986 1080 68 -900 300/17G21 RMK AO2
14926KSTC STC20060214195014202/14/06 19:50:31  5-MIN KSTC 150150Z AUTO 30022G26KT 10SM CLR M04/M09 A2986 1080 65 -900 300/22G26 RMK AO2 PK WND 30026/0149 SLP134 T10391094
14926KSTC STC20060214195510802/14/06 19:55:31  5-MIN KSTC 150155Z AUTO 30020G26KT 10SM CLR M04/M11 A2986 1080 62 -1000 300/20G26 RMK AO2
14926KSTC STC20060214200010202/14/06 20:00:31  5-MIN KSTC 150200Z AUTO 29018KT 10SM CLR M04/M11 A2987 1080 62 -1000 290/18 RMK AO2
14926KSTC STC20060214200510802/14/06 20:05:31  5-MIN KSTC 150205Z AUTO 30016G24KT 10SM CLR M04/M11 A2987 1070 62 -1000 290/16G24 RMK AO2
14926KSTC STC20060214201010202/14/06 20:10:31  5-MIN KSTC 150210Z AUTO 30016KT 10SM CLR M04/M11 A2988 1060 62 -1000 290/16 RMK AO2
14926KSTC STC20060214201510202/14/06 20:15:31  5-MIN KSTC 150215Z AUTO 29014KT 10SM CLR M05/M11 A2988 1060 65 -1100 290/14 RMK AO2
14926KSTC STC20060214202010802/14/06 20:20:31  5-MIN KSTC 150220Z AUTO 30016G21KT 10SM CLR M05/M11 A2988 1070 65 -1100 300/16G21 RMK AO2
14926KSTC STC20060214202510802/14/06 20:25:31  5-MIN KSTC 150225Z AUTO 30015G21KT 10SM CLR M05/M11 A2988 1060 62 -1100 300/15G21 RMK AO2
14926KSTC STC20060214203010202/14/06 20:30:31  5-MIN KSTC 150230Z AUTO 30014KT 10SM CLR M05/M11 A2988 1060 62 -1100 300/14 RMK AO2
14926KSTC STC20060214203510202/14/06 20:35:31  5-MIN KSTC 150235Z AUTO 31016KT 10SM CLR M06/M11 A2988 1060 65 -1100 310/16 RMK AO2
14926KSTC STC20060214204010202/14/06 20:40:31  5-MIN KSTC 150240Z AUTO 31018KT 10SM CLR M06/M12 A2988 1060 59 -1100 310/18 RMK AO2
14926KSTC STC20060214204510502/14/06 20:45:31  5-MIN KSTC 150245Z AUTO 32018KT 10SM SCT110 M06/M13 A2989 1060 59 -1200 310/18 RMK AO2
14926KSTC STC20060214205012802/14/06 20:50:31  5-MIN KSTC 150250Z AUTO 31018KT 10SM SCT110 M07/M13 A2989 1060 59 -1300 310/18 RMK AO2 SLP143 T10671133 53029
14926KSTC STC20060214205510502/14/06 20:55:31  5-MIN KSTC 150255Z AUTO 31018KT 10SM BKN110 M07/M13 A2989 1060 59 -1300 310/18 RMK AO2
14926KSTC STC20060214210010502/14/06 21:00:31  5-MIN KSTC 150300Z AUTO 31018KT 10SM BKN110 M07/M13 A2990 1050 62 -1400 310/18 RMK AO2
14926KSTC STC20060214210510502/14/06 21:05:31  5-MIN KSTC 150305Z AUTO 31017KT 10SM BKN110 M07/M13 A2990 1050 62 -1400 300/17 RMK AO2
14926KSTC STC20060214211010502/14/06 21:10:31  5-MIN KSTC 150310Z AUTO 30017KT 10SM OVC110 M07/M13 A2990 1040 62 -1400 300/17 RMK AO2
14926KSTC STC20060214211510502/14/06 21:15:31  5-MIN KSTC 150315Z AUTO 30017KT 10SM OVC110 M07/M14 A2991 1040 59 -1400 300/17 RMK AO2
14926KSTC STC20060214212010502/14/06 21:20:31  5-MIN KSTC 150320Z AUTO 31016KT 10SM OVC110 M08/M14 A2991 1030 62 -1400 310/16 RMK AO2
14926KSTC STC20060214212510502/14/06 21:25:31  5-MIN KSTC 150325Z AUTO 31020KT 10SM OVC110 M08/M14 A2992 1030 62 -1500 310/20 RMK AO2
14926KSTC STC20060214213010502/14/06 21:30:31  5-MIN KSTC 150330Z AUTO 31017KT 10SM OVC110 M08/M14 A2992 1030 64 -1500 310/17 RMK AO2
14926KSTC STC20060214213510502/14/06 21:35:31  5-MIN KSTC 150335Z AUTO 32015KT 10SM OVC110 M08/M14 A2992 1030 64 -1500 310/15 RMK AO2
14926KSTC STC20060214214010502/14/06 21:40:31  5-MIN KSTC 150340Z AUTO 32016KT 10SM BKN110 M08/M14 A2992 1020 64 -1500 310/16 RMK AO2
14926KSTC STC20060214214511102/14/06 21:45:31  5-MIN KSTC 150345Z AUTO 32012G19KT 10SM SCT110 M08/M14 A2993 1020 64 -1500 320/12G19 RMK AO2
14926KSTC STC20060214215012202/14/06 21:50:31  5-MIN KSTC 150350Z AUTO 32012KT 10SM SCT100 M08/M14 A2993 1020 64 -1500 320/12 RMK AO2 SLP157 T10831139
14926KSTC STC20060214215510502/14/06 21:55:31  5-MIN KSTC 150355Z AUTO 32017KT 10SM FEW110 M09/M14 A2993 1020 67 -1600 320/17 RMK AO2
14926KSTC STC20060214220010502/14/06 22:00:31  5-MIN KSTC 150400Z AUTO 32013KT 10SM FEW110 M09/M14 A2993 1020 64 -1600 320/13 RMK AO2
14926KSTC STC20060214220510502/14/06 22:05:31  5-MIN KSTC 150405Z AUTO 32013KT 10SM FEW120 M09/M14 A2993 1010 64 -1600 320/13 RMK AO2
14926KSTC STC20060214221011102/14/06 22:10:31  5-MIN KSTC 150410Z AUTO 32014G18KT 10SM FEW120 M09/M14 A2993 1010 64 -1600 320/14G18 RMK AO2
14926KSTC STC20060214221511102/14/06 22:15:31  5-MIN KSTC 150415Z AUTO 32014G18KT 10SM FEW110 M09/M14 A2994 1010 64 -1600 320/14G18 RMK AO2
14926KSTC STC20060214222010502/14/06 22:20:31  5-MIN KSTC 150420Z AUTO 32011KT 10SM FEW110 M09/M14 A2994 1010 67 -1700 320/11 RMK AO2
14926KSTC STC20060214222510502/14/06 22:25:31  5-MIN KSTC 150425Z AUTO 32011KT 10SM FEW110 M09/M14 A2994 1000 67 -1700 320/11 RMK AO2
14926KSTC STC20060214223010502/14/06 22:30:31  5-MIN KSTC 150430Z AUTO 32012KT 10SM FEW110 M09/M15 A2995 1000 64 -1700 320/12 RMK AO2
14926KSTC STC20060214223510402/14/06 22:35:31  5-MIN KSTC 150435Z AUTO 32011KT 10SM FEW110 M10/M15 A2996 990 67 -1800 320/11 RMK AO2
14926KSTC STC20060214224010102/14/06 22:40:31  5-MIN KSTC 150440Z AUTO 32010KT 10SM CLR M10/M15 A2996 990 67 -1800 320/10 RMK AO2
14926KSTC STC20060214224510102/14/06 22:45:31  5-MIN KSTC 150445Z AUTO 32009KT 10SM CLR M10/M15 A2996 990 67 -1800 320/09 RMK AO2
14926KSTC STC20060214225011302/14/06 22:50:31  5-MIN KSTC 150450Z 32009KT 10SM CLR M10/M15 A2996 990 67 -1800 320/09 RMK AO2 SLP170 T11001150
14926KSTC STC20060214225510102/14/06 22:55:31  5-MIN KSTC 150455Z AUTO 31009KT 10SM CLR M11/M15 A2997 980 70 -1900 310/09 RMK AO2
14926KSTC STC20060214230010102/14/06 23:00:31  5-MIN KSTC 150500Z AUTO 31010KT 10SM CLR M11/M15 A2997 980 70 -1900 310/10 RMK AO2
14926KSTC STC20060214231010102/14/06 23:10:31  5-MIN KSTC 150510Z AUTO 32008KT 10SM CLR M11/M16 A2998 970 70 -2000 320/08 RMK AO2
14926KSTC STC20060214231510102/14/06 23:15:31  5-MIN KSTC 150515Z AUTO 32008KT 10SM CLR M11/M16 A2998 970 70 -2000 320/08 RMK AO2
14926KSTC STC20060214232010102/14/06 23:20:31  5-MIN KSTC 150520Z AUTO 32007KT 10SM CLR M11/M16 A2998 970 70 -2000 320/07 RMK AO2
14926KSTC STC20060214232510102/14/06 23:25:31  5-MIN KSTC 150525Z AUTO 33008KT 10SM CLR M11/M16 A2999 960 70 -2000 320/08 RMK AO2
14926KSTC STC20060214233010102/14/06 23:30:31  5-MIN KSTC 150530Z AUTO 32005KT 10SM CLR M11/M16 A2999 960 70 -2000 320/05 RMK AO2
14926KSTC STC20060214233510102/14/06 23:35:31  5-MIN KSTC 150535Z AUTO 31007KT 10SM CLR M12/M16 A3000 960 73 -2100 310/07 RMK AO2
14926KSTC STC20060214234010102/14/06 23:40:31  5-MIN KSTC 150540Z AUTO 32007KT 10SM CLR M12/M16 A3000 950 73 -2100 310/07 RMK AO2
14926KSTC STC20060214234510102/14/06 23:45:31  5-MIN KSTC 150545Z AUTO 32008KT 10SM CLR M12/M16 A3000 950 70 -2100 320/08 RMK AO2
14926KSTC STC20060214235014602/14/06 23:50:31  5-MIN KSTC 150550Z AUTO 32011KT 10SM CLR M12/M16 A3000 950 70 -2100 320/11 RMK AO2 SLP184 T11171161 11006 21122 400331122 51037
14926KSTC STC20060214235510102/14/06 23:55:31  5-MIN KSTC 150555Z AUTO 33012KT 10SM CLR M12/M16 A3000 950 70 -2100 320/12 RMK AO2
14926KSTC STC20060215000010102/15/06 00:00:32  5-MIN KSTC 150600Z AUTO 33011KT 10SM CLR M12/M17 A3000 950 67 -2100 330/11 RMK AO2
14926KSTC STC20060215000510102/15/06 00:05:31  5-MIN KSTC 150605Z AUTO 34010KT 10SM CLR M12/M17 A3000 950 67 -2100 340/10 RMK AO2
14926KSTC STC20060215001010102/15/06 00:10:31  5-MIN KSTC 150610Z AUTO 34009KT 10SM CLR M12/M17 A3001 940 70 -2100 330/09 RMK AO2
14926KSTC STC20060215001510102/15/06 00:15:31  5-MIN KSTC 150615Z AUTO 34009KT 10SM CLR M12/M17 A3001 940 70 -2200 330/09 RMK AO2
14926KSTC STC20060215002010102/15/06 00:20:31  5-MIN KSTC 150620Z AUTO 33007KT 10SM CLR M13/M17 A3001 940 73 -2200 330/07 RMK AO2
14926KSTC STC20060215002510102/15/06 00:25:31  5-MIN KSTC 150625Z AUTO 32007KT 10SM CLR M13/M17 A3001 940 70 -2200 320/07 RMK AO2
14926KSTC STC20060215003010102/15/06 00:30:31  5-MIN KSTC 150630Z AUTO 32006KT 10SM CLR M13/M17 A3002 940 73 -2200 320/06 RMK AO2
14926KSTC STC20060215003510102/15/06 00:35:31  5-MIN KSTC 150635Z AUTO 32006KT 10SM CLR M13/M17 A3002 930 70 -2200 320/06 RMK AO2
14926KSTC STC20060215004010102/15/06 00:40:31  5-MIN KSTC 150640Z AUTO 32007KT 10SM CLR M13/M17 A3003 930 73 -2300 320/07 RMK AO2
14926KSTC STC20060215004510102/15/06 00:45:31  5-MIN KSTC 150645Z AUTO 32007KT 10SM CLR M13/M17 A3003 920 70 -2200 320/07 RMK AO2
14926KSTC STC20060215005011802/15/06 00:50:31  5-MIN KSTC 150650Z AUTO 32008KT 10SM CLR M13/M17 A3003 920 73 -2300 320/08 RMK AO2 SLP194 T11331172
14926KSTC STC20060215005510102/15/06 00:55:31  5-MIN KSTC 150655Z AUTO 32009KT 10SM CLR M13/M17 A3003 920 73 -2300 320/09 RMK AO2
14926KSTC STC20060215010010102/15/06 01:00:31  5-MIN KSTC 150700Z AUTO 32009KT 10SM CLR M13/M18 A3003 920 69 -2300 320/09 RMK AO2
14926KSTC STC20060215010510102/15/06 01:05:31  5-MIN KSTC 150705Z AUTO 32007KT 10SM CLR M13/M18 A3004 920 69 -2300 320/07 RMK AO2
14926KSTC STC20060215011010102/15/06 01:10:31  5-MIN KSTC 150710Z AUTO 32007KT 10SM CLR M13/M18 A3004 920 69 -2300 320/07 RMK AO2
14926KSTC STC20060215011510102/15/06 01:15:31  5-MIN KSTC 150715Z AUTO 33008KT 10SM CLR M14/M18 A3004 920 73 -2400 330/08 RMK AO2
14926KSTC STC20060215012010102/15/06 01:20:31  5-MIN KSTC 150720Z AUTO 32008KT 10SM CLR M14/M18 A3004 910 73 -2400 320/08 RMK AO2
14926KSTC STC20060215012510102/15/06 01:25:31  5-MIN KSTC 150725Z AUTO 32008KT 10SM CLR M14/M18 A3005 910 69 -2400 320/08 RMK AO2
14926KSTC STC20060215013010102/15/06 01:30:31  5-MIN KSTC 150730Z AUTO 32007KT 10SM CLR M14/M18 A3005 900 69 -2400 320/07 RMK AO2
14926KSTC STC20060215013510102/15/06 01:35:31  5-MIN KSTC 150735Z AUTO 32007KT 10SM CLR M14/M18 A3006 900 73 -2500 320/07 RMK AO2
14926KSTC STC20060215014010102/15/06 01:40:31  5-MIN KSTC 150740Z AUTO 32006KT 10SM CLR M14/M18 A3006 900 69 -2400 320/06 RMK AO2
14926KSTC STC20060215014510102/15/06 01:45:31  5-MIN KSTC 150745Z AUTO 32006KT 10SM CLR M14/M18 A3006 890 73 -2500 320/06 RMK AO2
14926KSTC STC20060215015011802/15/06 01:50:31  5-MIN KSTC 150750Z AUTO 32007KT 10SM CLR M14/M19 A3007 890 69 -2500 320/07 RMK AO2 SLP207 T11441189
14926KSTC STC20060215015510102/15/06 01:55:31  5-MIN KSTC 150755Z AUTO 32006KT 10SM CLR M14/M19 A3007 890 69 -2500 310/06 RMK AO2
14926KSTC STC20060215020010102/15/06 02:00:31  5-MIN KSTC 150800Z AUTO 31008KT 10SM CLR M16/M19 A3007 890 72 -2700 310/08 RMK AO2
14926KSTC STC20060215020510102/15/06 02:05:31  5-MIN KSTC 150805Z AUTO 32007KT 10SM CLR M16/M19 A3007 890 72 -2700 310/07 RMK AO2
14926KSTC STC20060215021010102/15/06 02:10:31  5-MIN KSTC 150810Z AUTO 31006KT 10SM CLR M16/M19 A3008 880 72 -2700 310/06 RMK AO2
14926KSTC STC20060215021510102/15/06 02:15:31  5-MIN KSTC 150815Z AUTO 31008KT 10SM CLR M16/M19 A3008 880 72 -2700 300/08 RMK AO2
14926KSTC STC20060215022010102/15/06 02:20:31  5-MIN KSTC 150820Z AUTO 31008KT 10SM CLR M16/M19 A3008 880 72 -2700 310/08 RMK AO2
14926KSTC STC20060215022510102/15/06 02:25:31  5-MIN KSTC 150825Z AUTO 31009KT 10SM CLR M16/M19 A3007 880 72 -2700 310/09 RMK AO2
14926KSTC STC20060215023010102/15/06 02:30:31  5-MIN KSTC 150830Z AUTO 32007KT 10SM CLR M15/M19 A3007 890 69 -2600 320/07 RMK AO2
14926KSTC STC20060215023510102/15/06 02:35:31  5-MIN KSTC 150835Z AUTO 32007KT 10SM CLR M15/M19 A3007 880 72 -2600 320/07 RMK AO2
14926KSTC STC20060215024010102/15/06 02:40:31  5-MIN KSTC 150840Z AUTO 31008KT 10SM CLR M16/M19 A3008 880 72 -2700 310/08 RMK AO2
14926KSTC STC20060215024510102/15/06 02:45:31  5-MIN KSTC 150845Z AUTO 31010KT 10SM CLR M16/M19 A3009 870 72 -2700 300/10 RMK AO2
14926KSTC STC20060215025013102/15/06 02:50:31  5-MIN KSTC 150850Z AUTO 30012KT 10SM CLR M15/M19 A3009 870 69 -2600 300/12 RMK AO2 PRESRR SLP216 T11501194 51037
14926KSTC STC20060215025510102/15/06 02:55:31  5-MIN KSTC 150855Z AUTO 31010KT 10SM CLR M15/M19 A3009 870 69 -2600 300/10 RMK AO2
14926KSTC STC20060215030010102/15/06 03:00:31  5-MIN KSTC 150900Z AUTO 31010KT 10SM CLR M16/M19 A3009 870 72 -2700 310/10 RMK AO2
14926KSTC STC20060215030510102/15/06 03:05:31  5-MIN KSTC 150905Z AUTO 31009KT 10SM CLR M16/M19 A3009 870 72 -2700 300/09 RMK AO2
14926KSTC STC20060215031010102/15/06 03:10:31  5-MIN KSTC 150910Z AUTO 31010KT 10SM CLR M16/M19 A3009 870 72 -2700 310/10 RMK AO2
14926KSTC STC20060215031510102/15/06 03:15:31  5-MIN KSTC 150915Z AUTO 32008KT 10SM CLR M16/M19 A3009 870 72 -2700 310/08 RMK AO2
14926KSTC STC20060215032010102/15/06 03:20:31  5-MIN KSTC 150920Z AUTO 31011KT 10SM CLR M16/M19 A3009 870 72 -2700 310/11 RMK AO2
14926KSTC STC20060215032510102/15/06 03:25:31  5-MIN KSTC 150925Z AUTO 32010KT 10SM CLR M16/M20 A3009 870 69 -2700 320/10 RMK AO2
14926KSTC STC20060215033010102/15/06 03:30:31  5-MIN KSTC 150930Z AUTO 31009KT 10SM CLR M16/M20 A3010 860 69 -2700 310/09 RMK AO2
14926KSTC STC20060215033510102/15/06 03:35:31  5-MIN KSTC 150935Z AUTO 31010KT 10SM CLR M16/M20 A3010 860 72 -2800 310/10 RMK AO2
14926KSTC STC20060215034010102/15/06 03:40:31  5-MIN KSTC 150940Z AUTO 32009KT 10SM CLR M16/M20 A3010 860 72 -2800 320/09 RMK AO2
14926KSTC STC20060215034510102/15/06 03:45:31  5-MIN KSTC 150945Z AUTO 32010KT 10SM CLR M16/M20 A3009 870 72 -2800 310/10 RMK AO2
14926KSTC STC20060215035011802/15/06 03:50:31  5-MIN KSTC 150950Z AUTO 32009KT 10SM CLR M16/M21 A3009 870 69 -2800 320/09 RMK AO2 SLP218 T11611206
14926KSTC STC20060215035510102/15/06 03:55:31  5-MIN KSTC 150955Z AUTO 32010KT 10SM CLR M16/M21 A3010 860 69 -2800 320/10 RMK AO2
14926KSTC STC20060215040010102/15/06 04:00:31  5-MIN KSTC 151000Z AUTO 32010KT 10SM CLR M16/M21 A3010 860 69 -2800 320/10 RMK AO2
14926KSTC STC20060215040510102/15/06 04:05:31  5-MIN KSTC 151005Z AUTO 32011KT 10SM CLR M16/M21 A3010 860 66 -2800 320/11 RMK AO2
14926KSTC STC20060215041010102/15/06 04:10:31  5-MIN KSTC 151010Z AUTO 32013KT 10SM CLR M16/M21 A3010 860 66 -2800 310/13 RMK AO2
14926KSTC STC20060215041510102/15/06 04:15:31  5-MIN KSTC 151015Z AUTO 32011KT 10SM CLR M17/M21 A3010 860 69 -2900 320/11 RMK AO2
14926KSTC STC20060215042010102/15/06 04:20:31  5-MIN KSTC 151020Z AUTO 32011KT 10SM CLR M17/M21 A3010 860 69 -2800 320/11 RMK AO2
14926KSTC STC20060215042510102/15/06 04:25:31  5-MIN KSTC 151025Z AUTO 33010KT 10SM CLR M17/M22 A3010 860 66 -2800 320/10 RMK AO2
14926KSTC STC20060215043010102/15/06 04:30:31  5-MIN KSTC 151030Z AUTO 33009KT 10SM CLR M17/M22 A3010 860 66 -2900 320/09 RMK AO2
14926KSTC STC20060215043510102/15/06 04:35:31  5-MIN KSTC 151035Z AUTO 32010KT 10SM CLR M17/M22 A3011 850 66 -2900 320/10 RMK AO2
14926KSTC STC20060215044010102/15/06 04:40:31  5-MIN KSTC 151040Z AUTO 32010KT 10SM CLR M17/M22 A3011 850 66 -2900 320/10 RMK AO2
14926KSTC STC20060215044510102/15/06 04:45:31  5-MIN KSTC 151045Z AUTO 32008KT 10SM CLR M17/M22 A3012 850 69 -2900 320/08 RMK AO2
14926KSTC STC20060215045011802/15/06 04:50:31  5-MIN KSTC 151050Z AUTO 32008KT 10SM CLR M17/M22 A3012 840 65 -3000 320/08 RMK AO2 SLP229 T11721222
14926KSTC STC20060215045510102/15/06 04:55:31  5-MIN KSTC 151055Z AUTO 32008KT 10SM CLR M17/M22 A3013 840 65 -3000 320/08 RMK AO2
14926KSTC STC20060215050010102/15/06 05:00:31  5-MIN KSTC 151100Z AUTO 32008KT 10SM CLR M17/M22 A3013 830 65 -3000 320/08 RMK AO2
14926KSTC STC20060215050510102/15/06 05:05:31  5-MIN KSTC 151105Z AUTO 32007KT 10SM CLR M17/M23 A3013 830 62 -3000 320/07 RMK AO2
14926KSTC STC20060215051010102/15/06 05:10:31  5-MIN KSTC 151110Z AUTO 32006KT 10SM CLR M17/M23 A3013 830 62 -3000 320/06 RMK AO2
14926KSTC STC20060215051510102/15/06 05:15:31  5-MIN KSTC 151115Z AUTO 32007KT 10SM CLR M17/M23 A3013 830 62 -3000 320/07 RMK AO2
14926KSTC STC20060215052010102/15/06 05:20:31  5-MIN KSTC 151120Z AUTO 32008KT 10SM CLR M18/M23 A3014 820 65 -3000 320/08 RMK AO2
14926KSTC STC20060215052510102/15/06 05:25:31  5-MIN KSTC 151125Z AUTO 32008KT 10SM CLR M18/M23 A3015 820 65 -3100 310/08 RMK AO2
14926KSTC STC20060215053010102/15/06 05:30:31  5-MIN KSTC 151130Z AUTO 31008KT 10SM CLR M18/M23 A3015 820 65 -3100 310/08 RMK AO2
14926KSTC STC20060215053510102/15/06 05:35:31  5-MIN KSTC 151135Z AUTO 32008KT 10SM CLR M18/M23 A3015 810 65 -3100 310/08 RMK AO2
14926KSTC STC20060215054010102/15/06 05:40:31  5-MIN KSTC 151140Z AUTO 32008KT 10SM CLR M18/M23 A3015 810 62 -3100 320/08 RMK AO2
14926KSTC STC20060215054510102/15/06 05:45:31  5-MIN KSTC 151145Z AUTO 32007KT 10SM CLR M18/M23 A3015 810 62 -3100 320/07 RMK AO2
14926KSTC STC20060215055013602/15/06 05:50:31  5-MIN KSTC 151150Z AUTO 32007KT 10SM CLR M18/M23 A3016 810 65 -3100 320/07 RMK AO2 SLP242 T11831233 11117 21183 51029
14926KSTC STC20060215055510102/15/06 05:55:31  5-MIN KSTC 151155Z AUTO 32006KT 10SM CLR M18/M23 A3015 810 62 -3100 320/06 RMK AO2
14926KSTC STC20060215060010102/15/06 06:00:31  5-MIN KSTC 151200Z AUTO 32006KT 10SM CLR M18/M23 A3016 810 62 -3100 320/06 RMK AO2
14926KSTC STC20060215060510102/15/06 06:05:31  5-MIN KSTC 151205Z AUTO 33006KT 10SM CLR M18/M24 A3015 810 62 -3100 330/06 RMK AO2
14926KSTC STC20060215061010102/15/06 06:10:31  5-MIN KSTC 151210Z AUTO 33005KT 10SM CLR M18/M24 A3016 810 62 -3100 320/05 RMK AO2
14926KSTC STC20060215061510102/15/06 06:15:31  5-MIN KSTC 151215Z AUTO 33005KT 10SM CLR M18/M24 A3015 810 62 -3100 330/05 RMK AO2
14926KSTC STC20060215062010102/15/06 06:20:31  5-MIN KSTC 151220Z AUTO 32004KT 10SM CLR M18/M24 A3015 810 62 -3100 320/04 RMK AO2
14926KSTC STC20060215062510102/15/06 06:25:31  5-MIN KSTC 151225Z AUTO 33003KT 10SM CLR M18/M24 A3015 810 62 -3100 330/03 RMK AO2
14926KSTC STC20060215063010102/15/06 06:30:31  5-MIN KSTC 151230Z AUTO 33005KT 10SM CLR M19/M24 A3015 810 65 -3200 330/05 RMK AO2
14926KSTC STC20060215063510102/15/06 06:35:31  5-MIN KSTC 151235Z AUTO 33004KT 10SM CLR M19/M24 A3016 810 65 -3200 330/04 RMK AO2
14926KSTC STC20060215064010102/15/06 06:40:31  5-MIN KSTC 151240Z AUTO 34005KT 10SM CLR M19/M24 A3015 810 65 -3200 330/05 RMK AO2
14926KSTC STC20060215064510102/15/06 06:45:31  5-MIN KSTC 151245Z AUTO 33006KT 10SM CLR M19/M24 A3016 810 62 -3200 330/06 RMK AO2
14926KSTC STC20060215065011802/15/06 06:50:31  5-MIN KSTC 151250Z AUTO 32007KT 10SM CLR M19/M24 A3016 800 62 -3200 320/07 RMK AO2 SLP245 T11891244
14926KSTC STC20060215065510102/15/06 06:55:31  5-MIN KSTC 151255Z AUTO 32007KT 10SM CLR M19/M24 A3016 810 62 -3200 320/07 RMK AO2
14926KSTC STC20060215070010102/15/06 07:00:31  5-MIN KSTC 151300Z AUTO 32007KT 10SM CLR M19/M24 A3016 810 62 -3200 320/07 RMK AO2
14926KSTC STC20060215070510102/15/06 07:05:31  5-MIN KSTC 151305Z AUTO 33006KT 10SM CLR M19/M24 A3016 810 62 -3200 320/06 RMK AO2
14926KSTC STC20060215071009602/15/06 07:10:31  5-MIN KSTC 151310Z 33006KT 10SM CLR M19/M24 A3016 810 62 -3200 330/06 RMK AO2
14926KSTC STC20060215071509602/15/06 07:15:31  5-MIN KSTC 151315Z 33006KT 10SM CLR M19/M24 A3016 800 62 -3200 320/06 RMK AO2
14926KSTC STC20060215072009602/15/06 07:20:31  5-MIN KSTC 151320Z 33006KT 10SM CLR M19/M24 A3016 800 62 -3200 330/06 RMK AO2
14926KSTC STC20060215072509602/15/06 07:25:31  5-MIN KSTC 151325Z 33007KT 10SM CLR M19/M24 A3017 800 62 -3200 320/07 RMK AO2
14926KSTC STC20060215073009602/15/06 07:30:31  5-MIN KSTC 151330Z 32006KT 10SM CLR M19/M24 A3017 790 62 -3200 320/06 RMK AO2
14926KSTC STC20060215073509602/15/06 07:35:31  5-MIN KSTC 151335Z 32006KT 10SM CLR M19/M24 A3018 790 62 -3200 320/06 RMK AO2
14926KSTC STC20060215074009602/15/06 07:40:31  5-MIN KSTC 151340Z 32006KT 10SM CLR M19/M24 A3018 780 62 -3200 310/06 RMK AO2
14926KSTC STC20060215074509602/15/06 07:45:31  5-MIN KSTC 151345Z 32006KT 10SM CLR M19/M24 A3018 780 65 -3200 310/06 RMK AO2
14926KSTC STC20060215075011302/15/06 07:50:31  5-MIN KSTC 151350Z 32006KT 10SM CLR M18/M24 A3018 780 62 -3200 320/06 RMK AO2 SLP252 T11831239
14926KSTC STC20060215075509602/15/06 07:55:31  5-MIN KSTC 151355Z 33005KT 10SM CLR M18/M24 A3019 780 59 -3200 320/05 RMK AO2
14926KSTC STC20060215080009602/15/06 08:00:31  5-MIN KSTC 151400Z 32007KT 10SM CLR M18/M24 A3019 780 59 -3200 320/07 RMK AO2
14926KSTC STC20060215080509602/15/06 08:05:31  5-MIN KSTC 151405Z 32005KT 10SM CLR M18/M24 A3019 770 59 -3200 320/05 RMK AO2
14926KSTC STC20060215081009602/15/06 08:10:31  5-MIN KSTC 151410Z 31006KT 10SM CLR M18/M24 A3020 770 56 -3100 310/06 RMK AO2
14926KSTC STC20060215081509602/15/06 08:15:31  5-MIN KSTC 151415Z 32006KT 10SM CLR M18/M24 A3020 770 59 -3200 320/06 RMK AO2
14926KSTC STC20060215082009602/15/06 08:20:31  5-MIN KSTC 151420Z 34006KT 10SM CLR M18/M24 A3020 770 56 -3100 330/06 RMK AO2
14926KSTC STC20060215082509602/15/06 08:25:31  5-MIN KSTC 151425Z 34007KT 10SM CLR M17/M24 A3019 780 54 -3000 340/07 RMK AO2
14926KSTC STC20060215083009602/15/06 08:30:31  5-MIN KSTC 151430Z 34008KT 10SM CLR M17/M24 A3019 770 54 -3000 330/08 RMK AO2
14926KSTC STC20060215083509602/15/06 08:35:31  5-MIN KSTC 151435Z 33006KT 10SM CLR M17/M25 A3020 770 51 -3000 330/06 RMK AO2
14926KSTC STC20060215084009602/15/06 08:40:31  5-MIN KSTC 151440Z 32007KT 10SM CLR M17/M25 A3021 760 51 -3000 320/07 RMK AO2
14926KSTC STC20060215084509602/15/06 08:45:31  5-MIN KSTC 151445Z 33007KT 10SM CLR M17/M25 A3021 760 51 -3000 330/07 RMK AO2
14926KSTC STC20060215085011902/15/06 08:50:31  5-MIN KSTC 151450Z 33005KT 10SM CLR M17/M25 A3021 760 49 -3000 330/05 RMK AO2 SLP262 T11671250 53021
14926KSTC STC20060215085509602/15/06 08:55:31  5-MIN KSTC 151455Z 31006KT 10SM CLR M17/M24 A3021 760 51 -3000 310/06 RMK AO2
14926KSTC STC20060215090009602/15/06 09:00:31  5-MIN KSTC 151500Z 32006KT 10SM CLR M17/M24 A3021 760 51 -3000 310/06 RMK AO2
14926KSTC STC20060215090509602/15/06 09:05:31  5-MIN KSTC 151505Z 32005KT 10SM CLR M17/M25 A3021 760 49 -3000 310/05 RMK AO2
14926KSTC STC20060215091009602/15/06 09:10:31  5-MIN KSTC 151510Z 33004KT 10SM CLR M17/M24 A3021 760 51 -3000 330/04 RMK AO2
14926KSTC STC20060215091509602/15/06 09:15:31  5-MIN KSTC 151515Z 32004KT 10SM CLR M17/M24 A3021 760 51 -3000 320/04 RMK AO2
14926KSTC STC20060215092009602/15/06 09:20:31  5-MIN KSTC 151520Z 33004KT 10SM CLR M17/M24 A3021 760 54 -3000 320/04 RMK AO2
14926KSTC STC20060215092509602/15/06 09:25:31  5-MIN KSTC 151525Z 34004KT 10SM CLR M16/M24 A3021 760 49 -2900 330/04 RMK AO2
14926KSTC STC20060215093009602/15/06 09:30:31  5-MIN KSTC 151530Z 33005KT 10SM CLR M16/M24 A3021 760 49 -2900 330/05 RMK AO2
14926KSTC STC20060215093509602/15/06 09:35:31  5-MIN KSTC 151535Z 33005KT 10SM CLR M16/M24 A3021 760 49 -2800 330/05 RMK AO2
14926KSTC STC20060215094009602/15/06 09:40:31  5-MIN KSTC 151540Z 33006KT 10SM CLR M16/M24 A3021 760 49 -2800 320/06 RMK AO2
14926KSTC STC20060215094509602/15/06 09:45:31  5-MIN KSTC 151545Z 34006KT 10SM CLR M16/M24 A3021 760 49 -2800 330/06 RMK AO2
14926KSTC STC20060215095011302/15/06 09:50:31  5-MIN KSTC 151550Z 33005KT 10SM CLR M16/M23 A3020 760 52 -2800 330/05 RMK AO2 SLP260 T11561233
14926KSTC STC20060215095509602/15/06 09:55:31  5-MIN KSTC 151555Z 34005KT 10SM CLR M15/M23 A3020 760 49 -2700 340/05 RMK AO2
14926KSTC STC20060215100009602/15/06 10:00:31  5-MIN KSTC 151600Z 34005KT 10SM CLR M15/M23 A3020 770 49 -2700 340/05 RMK AO2
14926KSTC STC20060215100509602/15/06 10:05:31  5-MIN KSTC 151605Z 34006KT 10SM CLR M15/M23 A3020 770 52 -2700 340/06 RMK AO2
14926KSTC STC20060215101009602/15/06 10:10:31  5-MIN KSTC 151610Z 35006KT 10SM CLR M14/M23 A3020 770 50 -2700 340/06 RMK AO2
14926KSTC STC20060215101509602/15/06 10:15:31  5-MIN KSTC 151615Z 35006KT 10SM CLR M14/M23 A3020 770 50 -2700 340/06 RMK AO2
14926KSTC STC20060215102009602/15/06 10:20:31  5-MIN KSTC 151620Z 34006KT 10SM CLR M14/M23 A3020 760 47 -2600 340/06 RMK AO2
14926KSTC STC20060215102509602/15/06 10:25:31  5-MIN KSTC 151625Z 34007KT 10SM CLR M14/M23 A3020 770 47 -2600 340/07 RMK AO2
14926KSTC STC20060215103009602/15/06 10:30:31  5-MIN KSTC 151630Z 32006KT 10SM CLR M14/M23 A3021 760 47 -2600 320/06 RMK AO2
14926KSTC STC20060215103509602/15/06 10:35:31  5-MIN KSTC 151635Z 35004KT 10SM CLR M14/M23 A3021 760 50 -2700 350/04 RMK AO2
14926KSTC STC20060215104009602/15/06 10:40:31  5-MIN KSTC 151640Z 35005KT 10SM CLR M14/M23 A3021 760 47 -2600 340/05 RMK AO2
14926KSTC STC20060215104509602/15/06 10:45:31  5-MIN KSTC 151645Z 30005KT 10SM CLR M14/M22 A3021 760 50 -2600 300/05 RMK AO2
14926KSTC STC20060215105011302/15/06 10:50:31  5-MIN KSTC 151650Z 33004KT 10SM CLR M14/M23 A3021 760 50 -2700 330/04 RMK AO2 SLP261 T11441228
14926KSTC STC20060215105509602/15/06 10:55:31  5-MIN KSTC 151655Z 00000KT 10SM CLR M14/M23 A3020 760 50 -2700 000/00 RMK AO2
14926KSTC STC20060215110009602/15/06 11:00:31  5-MIN KSTC 151700Z 32005KT 10SM CLR M13/M22 A3020 770 48 -2500 320/05 RMK AO2
14926KSTC STC20060215110509602/15/06 11:05:31  5-MIN KSTC 151705Z 31004KT 10SM CLR M13/M22 A3021 760 48 -2500 300/04 RMK AO2
14926KSTC STC20060215111009602/15/06 11:10:31  5-MIN KSTC 151710Z VRB03KT 10SM CLR M14/M22 A3021 760 50 -2600 VRB/03 RMK AO2
14926KSTC STC20060215111509602/15/06 11:15:31  5-MIN KSTC 151715Z 00000KT 10SM CLR M13/M22 A3022 750 48 -2500 000/00 RMK AO2
14926KSTC STC20060215112009602/15/06 11:20:31  5-MIN KSTC 151720Z 33006KT 10SM CLR M13/M22 A3021 760 50 -2500 320/06 RMK AO2
14926KSTC STC20060215112509602/15/06 11:25:31  5-MIN KSTC 151725Z 30007KT 10SM CLR M13/M22 A3021 760 50 -2500 300/07 RMK AO2
14926KSTC STC20060215113009602/15/06 11:30:31  5-MIN KSTC 151730Z 31007KT 10SM CLR M13/M22 A3021 760 48 -2500 310/07 RMK AO2
14926KSTC STC20060215113509602/15/06 11:35:31  5-MIN KSTC 151735Z 33006KT 10SM CLR M13/M22 A3021 760 50 -2500 330/06 RMK AO2
14926KSTC STC20060215114009602/15/06 11:40:31  5-MIN KSTC 151740Z 35005KT 10SM CLR M13/M21 A3022 750 50 -2500 350/05 RMK AO2
14926KSTC STC20060215114509602/15/06 11:45:31  5-MIN KSTC 151745Z 32005KT 10SM CLR M13/M21 A3021 760 50 -2500 310/05 RMK AO2
14926KSTC STC20060215115013102/15/06 11:50:31  5-MIN KSTC 151750Z 35005KT 10SM CLR M12/M21 A3021 760 48 -2400 350/05 RMK AO2 SLP264 T11221211 11122 21189 53017
14926KSTC STC20060215115509602/15/06 11:55:31  5-MIN KSTC 151755Z 34004KT 10SM CLR M12/M21 A3021 760 48 -2400 330/04 RMK AO2
14926KSTC STC20060215120009602/15/06 12:00:31  5-MIN KSTC 151800Z 33005KT 10SM CLR M12/M21 A3021 760 50 -2400 330/05 RMK AO2
14926KSTC STC20060215120509602/15/06 12:05:31  5-MIN KSTC 151805Z 31005KT 10SM CLR M12/M21 A3021 760 48 -2400 310/05 RMK AO2
14926KSTC STC20060215121009602/15/06 12:10:31  5-MIN KSTC 151810Z 00000KT 10SM CLR M12/M21 A3021 760 48 -2400 000/00 RMK AO2
14926KSTC STC20060215121509602/15/06 12:15:31  5-MIN KSTC 151815Z 00000KT 10SM CLR M12/M21 A3021 760 46 -2300 000/00 RMK AO2
14926KSTC STC20060215122009602/15/06 12:20:31  5-MIN KSTC 151820Z 36003KT 10SM CLR M12/M21 A3021 760 48 -2300 350/03 RMK AO2
14926KSTC STC20060215122509602/15/06 12:25:31  5-MIN KSTC 151825Z 00000KT 10SM CLR M12/M21 A3021 760 48 -2300 000/00 RMK AO2
14926KSTC STC20060215123009602/15/06 12:30:31  5-MIN KSTC 151830Z 33005KT 10SM CLR M11/M21 A3021 760 46 -2200 330/05 RMK AO2
14926KSTC STC20060215123509602/15/06 12:35:31  5-MIN KSTC 151835Z 36004KT 10SM CLR M11/M21 A3021 760 46 -2200 350/04 RMK AO2
14926KSTC STC20060215124009602/15/06 12:40:31  5-MIN KSTC 151840Z 33005KT 10SM CLR M11/M21 A3021 760 46 -2200 330/05 RMK AO2
14926KSTC STC20060215124509602/15/06 12:45:31  5-MIN KSTC 151845Z 00000KT 10SM CLR M12/M21 A3020 770 48 -2300 000/00 RMK AO2
14926KSTC STC20060215125011302/15/06 12:50:31  5-MIN KSTC 151850Z 00000KT 10SM CLR M11/M20 A3020 770 48 -2200 000/00 RMK AO2 SLP260 T11111200
14926KSTC STC20060215125509602/15/06 12:55:31  5-MIN KSTC 151855Z VRB03KT 10SM CLR M11/M20 A3020 770 48 -2200 VRB/03 RMK AO2
14926KSTC STC20060215130009602/15/06 13:00:31  5-MIN KSTC 151900Z 00000KT 10SM CLR M12/M21 A3020 770 48 -2300 000/00 RMK AO2
14926KSTC STC20060215130509602/15/06 13:05:31  5-MIN KSTC 151905Z 31006KT 10SM CLR M11/M20 A3020 770 48 -2200 300/06 RMK AO2
14926KSTC STC20060215131009602/15/06 13:10:31  5-MIN KSTC 151910Z 32005KT 10SM CLR M11/M20 A3020 770 48 -2200 320/05 RMK AO2
14926KSTC STC20060215131509602/15/06 13:15:31  5-MIN KSTC 151915Z 30003KT 10SM CLR M11/M20 A3020 770 48 -2200 300/03 RMK AO2
14926KSTC STC20060215132009602/15/06 13:20:31  5-MIN KSTC 151920Z 31006KT 10SM CLR M11/M20 A3020 770 46 -2100 310/06 RMK AO2
14926KSTC STC20060215132509602/15/06 13:25:31  5-MIN KSTC 151925Z VRB05KT 10SM CLR M11/M21 A3020 770 46 -2200 VRB/05 RMK AO2
14926KSTC STC20060215133009602/15/06 13:30:31  5-MIN KSTC 151930Z 33005KT 10SM CLR M11/M20 A3020 770 46 -2100 330/05 RMK AO2
14926KSTC STC20060215133509602/15/06 13:35:31  5-MIN KSTC 151935Z 32003KT 10SM CLR M11/M20 A3020 770 46 -2100 310/03 RMK AO2
14926KSTC STC20060215134009602/15/06 13:40:31  5-MIN KSTC 151940Z 33005KT 10SM CLR M11/M21 A3020 770 44 -2100 330/05 RMK AO2
14926KSTC STC20060215134509602/15/06 13:45:31  5-MIN KSTC 151945Z 28006KT 10SM CLR M11/M21 A3019 770 44 -2100 280/06 RMK AO2
14926KSTC STC20060215135011302/15/06 13:50:31  5-MIN KSTC 151950Z 31004KT 10SM CLR M11/M21 A3019 780 42 -2100 300/04 RMK AO2 SLP256 T11061211
14926KSTC STC20060215135509602/15/06 13:55:31  5-MIN KSTC 151955Z 26008KT 10SM CLR M11/M21 A3019 780 42 -2100 260/08 RMK AO2
14926KSTC STC20060215140009602/15/06 14:00:31  5-MIN KSTC 152000Z 29007KT 10SM CLR M11/M22 A3019 780 42 -2200 290/07 RMK AO2
14926KSTC STC20060215140509602/15/06 14:05:31  5-MIN KSTC 152005Z 28007KT 10SM CLR M11/M21 A3020 770 42 -2100 280/07 RMK AO2
14926KSTC STC20060215141009602/15/06 14:10:31  5-MIN KSTC 152010Z 30007KT 10SM CLR M11/M22 A3020 770 40 -2100 300/07 RMK AO2
14926KSTC STC20060215141509602/15/06 14:15:31  5-MIN KSTC 152015Z 31008KT 10SM CLR M11/M22 A3020 770 40 -2100 310/08 RMK AO2
14926KSTC STC20060215142009602/15/06 14:20:31  5-MIN KSTC 152020Z 31006KT 10SM CLR M11/M21 A3020 770 42 -2100 310/06 RMK AO2
14926KSTC STC20060215142509602/15/06 14:25:31  5-MIN KSTC 152025Z 32007KT 10SM CLR M11/M22 A3020 770 40 -2100 320/07 RMK AO2
14926KSTC STC20060215143009602/15/06 14:30:31  5-MIN KSTC 152030Z 32010KT 10SM CLR M11/M21 A3019 770 42 -2100 320/10 RMK AO2
14926KSTC STC20060215143509602/15/06 14:35:31  5-MIN KSTC 152035Z 33007KT 10SM CLR M11/M21 A3019 780 42 -2100 320/07 RMK AO2
14926KSTC STC20060215144009602/15/06 14:40:31  5-MIN KSTC 152040Z 34006KT 10SM CLR M11/M21 A3018 780 42 -2100 340/06 RMK AO2
14926KSTC STC20060215144509602/15/06 14:45:31  5-MIN KSTC 152045Z 31008KT 10SM CLR M11/M21 A3019 780 42 -2100 310/08 RMK AO2
14926KSTC STC20060215145011902/15/06 14:50:31  5-MIN KSTC 152050Z 34005KT 10SM CLR M11/M21 A3018 790 44 -2100 330/05 RMK AO2 SLP253 T11061206 53003
14926KSTC STC20060215145509602/15/06 14:55:31  5-MIN KSTC 152055Z 34006KT 10SM CLR M11/M20 A3018 790 46 -2100 340/06 RMK AO2
14926KSTC STC20060215150009602/15/06 15:00:31  5-MIN KSTC 152100Z 33006KT 10SM CLR M11/M21 A3018 790 44 -2100 330/06 RMK AO2
14926KSTC STC20060215150509602/15/06 15:05:31  5-MIN KSTC 152105Z 34006KT 10SM CLR M11/M21 A3018 790 42 -2100 340/06 RMK AO2
14926KSTC STC20060215151009602/15/06 15:10:31  5-MIN KSTC 152110Z 36005KT 10SM CLR M11/M21 A3018 790 42 -2100 360/05 RMK AO2
14926KSTC STC20060215151509602/15/06 15:15:31  5-MIN KSTC 152115Z 32005KT 10SM CLR M10/M21 A3018 790 42 -2000 320/05 RMK AO2
14926KSTC STC20060215152009602/15/06 15:20:31  5-MIN KSTC 152120Z 32006KT 10SM CLR M10/M21 A3017 790 42 -2000 320/06 RMK AO2
14926KSTC STC20060215152509602/15/06 15:25:31  5-MIN KSTC 152125Z 31007KT 10SM CLR M11/M21 A3018 790 44 -2100 310/07 RMK AO2
14926KSTC STC20060215153009602/15/06 15:30:31  5-MIN KSTC 152130Z 34006KT 10SM CLR M10/M21 A3017 790 42 -2000 340/06 RMK AO2
14926KSTC STC20060215153509602/15/06 15:35:31  5-MIN KSTC 152135Z 33006KT 10SM CLR M10/M21 A3017 790 42 -2000 320/06 RMK AO2
14926KSTC STC20060215154009602/15/06 15:40:31  5-MIN KSTC 152140Z 30007KT 10SM CLR M11/M21 A3017 790 44 -2100 290/07 RMK AO2
14926KSTC STC20060215154509602/15/06 15:45:31  5-MIN KSTC 152145Z 32006KT 10SM CLR M11/M20 A3018 790 46 -2100 320/06 RMK AO2
14926KSTC STC20060215155011302/15/06 15:50:31  5-MIN KSTC 152150Z 32005KT 10SM CLR M10/M20 A3018 790 44 -2000 320/05 RMK AO2 SLP252 T11001200
14926KSTC STC20060215155509602/15/06 15:55:31  5-MIN KSTC 152155Z 32007KT 10SM CLR M11/M21 A3017 790 44 -2100 310/07 RMK AO2
14926KSTC STC20060215160009602/15/06 16:00:31  5-MIN KSTC 152200Z 33004KT 10SM CLR M10/M21 A3017 790 42 -2000 330/04 RMK AO2
14926KSTC STC20060215160510102/15/06 16:05:31  5-MIN KSTC 152205Z AUTO 35006KT 10SM CLR M11/M20 A3017 790 46 -2100 340/06 RMK AO2
14926KSTC STC20060215161010102/15/06 16:10:31  5-MIN KSTC 152210Z AUTO 34007KT 10SM CLR M11/M21 A3017 800 44 -2100 330/07 RMK AO2
14926KSTC STC20060215161510102/15/06 16:15:31  5-MIN KSTC 152215Z AUTO 33007KT 10SM CLR M11/M21 A3017 790 44 -2100 330/07 RMK AO2
14926KSTC STC20060215162010102/15/06 16:20:31  5-MIN KSTC 152220Z AUTO 34006KT 10SM CLR M11/M21 A3017 790 46 -2200 330/06 RMK AO2
14926KSTC STC20060215162510102/15/06 16:25:31  5-MIN KSTC 152225Z AUTO 34005KT 10SM CLR M11/M20 A3017 800 48 -2200 340/05 RMK AO2
14926KSTC STC20060215163010102/15/06 16:30:31  5-MIN KSTC 152230Z AUTO 33005KT 10SM CLR M11/M20 A3017 790 48 -2200 330/05 RMK AO2
14926KSTC STC20060215163510102/15/06 16:35:31  5-MIN KSTC 152235Z AUTO 32004KT 10SM CLR M11/M20 A3017 790 48 -2200 320/04 RMK AO2
14926KSTC STC20060215164010102/15/06 16:40:31  5-MIN KSTC 152240Z AUTO 33005KT 10SM CLR M11/M19 A3017 800 51 -2200 330/05 RMK AO2
14926KSTC STC20060215164510102/15/06 16:45:31  5-MIN KSTC 152245Z AUTO 33004KT 10SM CLR M11/M19 A3017 800 51 -2200 320/04 RMK AO2
14926KSTC STC20060215165011802/15/06 16:50:31  5-MIN KSTC 152250Z AUTO 33005KT 10SM CLR M11/M19 A3017 800 51 -2200 320/05 RMK AO2 SLP250 T11111194
14926KSTC STC20060215165510102/15/06 16:55:31  5-MIN KSTC 152255Z AUTO 32006KT 10SM CLR M11/M20 A3017 800 48 -2200 320/06 RMK AO2
14926KSTC STC20060215170010102/15/06 17:00:31  5-MIN KSTC 152300Z AUTO 33004KT 10SM CLR M11/M19 A3017 800 51 -2200 320/04 RMK AO2
14926KSTC STC20060215170510102/15/06 17:05:31  5-MIN KSTC 152305Z AUTO 33005KT 10SM CLR M11/M20 A3017 800 48 -2200 330/05 RMK AO2
14926KSTC STC20060215171010102/15/06 17:10:31  5-MIN KSTC 152310Z AUTO 32005KT 10SM CLR M11/M20 A3017 800 48 -2200 320/05 RMK AO2
14926KSTC STC20060215171510102/15/06 17:15:31  5-MIN KSTC 152315Z AUTO 34005KT 10SM CLR M11/M20 A3017 790 48 -2200 330/05 RMK AO2
14926KSTC STC20060215172010102/15/06 17:20:31  5-MIN KSTC 152320Z AUTO 34005KT 10SM CLR M12/M20 A3017 790 50 -2300 330/05 RMK AO2
14926KSTC STC20060215172510102/15/06 17:25:31  5-MIN KSTC 152325Z AUTO 33005KT 10SM CLR M12/M20 A3018 790 50 -2300 320/05 RMK AO2
14926KSTC STC20060215173010102/15/06 17:30:31  5-MIN KSTC 152330Z AUTO 33005KT 10SM CLR M12/M21 A3018 790 48 -2300 320/05 RMK AO2
14926KSTC STC20060215173510102/15/06 17:35:31  5-MIN KSTC 152335Z AUTO 33005KT 10SM CLR M12/M20 A3018 790 50 -2300 330/05 RMK AO2
14926KSTC STC20060215174010102/15/06 17:40:31  5-MIN KSTC 152340Z AUTO 34004KT 10SM CLR M12/M20 A3018 790 50 -2300 340/04 RMK AO2
14926KSTC STC20060215174510102/15/06 17:45:31  5-MIN KSTC 152345Z AUTO 34005KT 10SM CLR M12/M20 A3018 790 50 -2300 340/05 RMK AO2
14926KSTC STC20060215175013602/15/06 17:50:31  5-MIN KSTC 152350Z AUTO 33005KT 10SM CLR M12/M20 A3018 790 50 -2300 330/05 RMK AO2 SLP254 T11171200 11100 21122 58012
14926KSTC STC20060215175510102/15/06 17:55:31  5-MIN KSTC 152355Z AUTO 33004KT 10SM CLR M12/M20 A3018 790 50 -2300 330/04 RMK AO2
14926KSTC STC20060215180010102/15/06 18:00:31  5-MIN KSTC 160000Z AUTO 35005KT 10SM CLR M12/M20 A3018 790 50 -2300 340/05 RMK AO2
14926KSTC STC20060215180510402/15/06 18:05:31  5-MIN KSTC 160005Z AUTO 34006KT 10SM FEW110 M12/M20 A3018 790 50 -2300 340/06 RMK AO2
14926KSTC STC20060215181010402/15/06 18:10:31  5-MIN KSTC 160010Z AUTO 34007KT 10SM SCT110 M12/M20 A3018 780 50 -2300 340/07 RMK AO2
14926KSTC STC20060215181510402/15/06 18:15:31  5-MIN KSTC 160015Z AUTO 35007KT 10SM SCT110 M12/M20 A3018 790 50 -2300 350/07 RMK AO2
14926KSTC STC20060215182010402/15/06 18:20:31  5-MIN KSTC 160020Z AUTO 35006KT 10SM BKN110 M12/M21 A3018 780 48 -2300 340/06 RMK AO2
14926KSTC STC20060215182510402/15/06 18:25:31  5-MIN KSTC 160025Z AUTO 35006KT 10SM BKN110 M12/M21 A3018 780 48 -2300 340/06 RMK AO2
14926KSTC STC20060215183010402/15/06 18:30:31  5-MIN KSTC 160030Z AUTO 34006KT 10SM SCT110 M12/M21 A3019 780 48 -2300 340/06 RMK AO2
14926KSTC STC20060215183510402/15/06 18:35:31  5-MIN KSTC 160035Z AUTO 34006KT 10SM SCT110 M12/M21 A3019 780 48 -2300 330/06 RMK AO2
14926KSTC STC20060215184010402/15/06 18:40:31  5-MIN KSTC 160040Z AUTO 34004KT 10SM SCT110 M12/M21 A3020 770 48 -2300 340/04 RMK AO2
14926KSTC STC20060215184510402/15/06 18:45:31  5-MIN KSTC 160045Z AUTO 34004KT 10SM SCT100 M12/M20 A3020 770 50 -2300 340/04 RMK AO2
14926KSTC STC20060215185012102/15/06 18:50:31  5-MIN KSTC 160050Z AUTO 34006KT 10SM SCT100 M12/M20 A3020 770 50 -2300 340/06 RMK AO2 SLP261 T11171200
14926KSTC STC20060215185510402/15/06 18:55:31  5-MIN KSTC 160055Z AUTO 34006KT 10SM FEW100 M12/M21 A3020 770 48 -2300 340/06 RMK AO2
14926KSTC STC20060215190010402/15/06 19:00:31  5-MIN KSTC 160100Z AUTO 34004KT 10SM FEW100 M12/M20 A3021 760 50 -2300 340/04 RMK AO2
14926KSTC STC20060215190510402/15/06 19:05:31  5-MIN KSTC 160105Z AUTO 34005KT 10SM FEW100 M12/M21 A3021 760 48 -2300 340/05 RMK AO2
14926KSTC STC20060215191010402/15/06 19:10:31  5-MIN KSTC 160110Z AUTO 35005KT 10SM FEW100 M12/M21 A3020 760 48 -2300 340/05 RMK AO2
14926KSTC STC20060215191510402/15/06 19:15:31  5-MIN KSTC 160115Z AUTO 35005KT 10SM SCT095 M12/M21 A3020 760 48 -2300 350/05 RMK AO2
14926KSTC STC20060215192010402/15/06 19:20:31  5-MIN KSTC 160120Z AUTO 35004KT 10SM FEW095 M12/M20 A3021 760 50 -2300 340/04 RMK AO2
14926KSTC STC20060215192510402/15/06 19:25:31  5-MIN KSTC 160125Z AUTO 36003KT 10SM FEW095 M12/M21 A3020 770 48 -2300 350/03 RMK AO2
14926KSTC STC20060215193010402/15/06 19:30:31  5-MIN KSTC 160130Z AUTO 35003KT 10SM FEW095 M12/M20 A3020 770 50 -2300 340/03 RMK AO2
14926KSTC STC20060215193510402/15/06 19:35:31  5-MIN KSTC 160135Z AUTO 34003KT 10SM FEW095 M12/M21 A3021 760 48 -2300 340/03 RMK AO2
14926KSTC STC20060215194010402/15/06 19:40:31  5-MIN KSTC 160140Z AUTO 00000KT 10SM FEW095 M12/M20 A3021 760 50 -2300 000/00 RMK AO2
14926KSTC STC20060215194510102/15/06 19:45:31  5-MIN KSTC 160145Z AUTO 34004KT 10SM CLR M12/M20 A3021 760 50 -2300 340/04 RMK AO2
14926KSTC STC20060215195011802/15/06 19:50:31  5-MIN KSTC 160150Z AUTO 34005KT 10SM CLR M12/M21 A3021 760 50 -2400 330/05 RMK AO2 SLP264 T11221206
14926KSTC STC20060215195510102/15/06 19:55:31  5-MIN KSTC 160155Z AUTO 33004KT 10SM CLR M12/M21 A3021 760 48 -2400 330/04 RMK AO2
14926KSTC STC20060215200010102/15/06 20:00:31  5-MIN KSTC 160200Z AUTO 33003KT 10SM CLR M12/M21 A3021 760 48 -2400 320/03 RMK AO2
14926KSTC STC20060215200510102/15/06 20:05:31  5-MIN KSTC 160205Z AUTO 00000KT 10SM CLR M12/M21 A3021 760 48 -2400 000/00 RMK AO2
14926KSTC STC20060215201010102/15/06 20:10:31  5-MIN KSTC 160210Z AUTO 33003KT 10SM CLR M12/M21 A3021 760 48 -2400 330/03 RMK AO2
14926KSTC STC20060215201510402/15/06 20:15:31  5-MIN KSTC 160215Z AUTO 32004KT 10SM SCT090 M12/M21 A3021 760 50 -2400 320/04 RMK AO2
14926KSTC STC20060215202010402/15/06 20:20:31  5-MIN KSTC 160220Z AUTO 33004KT 10SM BKN090 M12/M20 A3021 760 53 -2400 320/04 RMK AO2
14926KSTC STC20060215202510402/15/06 20:25:31  5-MIN KSTC 160225Z AUTO 33003KT 10SM BKN085 M12/M20 A3021 760 53 -2400 330/03 RMK AO2
14926KSTC STC20060215203010402/15/06 20:30:31  5-MIN KSTC 160230Z AUTO 32003KT 10SM BKN090 M12/M20 A3021 760 53 -2400 320/03 RMK AO2
14926KSTC STC20060215203510402/15/06 20:35:31  5-MIN KSTC 160235Z AUTO 34004KT 10SM BKN090 M12/M21 A3021 760 48 -2400 340/04 RMK AO2
14926KSTC STC20060215204010402/15/06 20:40:31  5-MIN KSTC 160240Z AUTO 34004KT 10SM BKN090 M12/M21 A3021 760 50 -2400 340/04 RMK AO2
14926KSTC STC20060215204510402/15/06 20:45:31  5-MIN KSTC 160245Z AUTO 34004KT 10SM SCT090 M12/M21 A3021 760 50 -2400 340/04 RMK AO2
14926KSTC STC20060215205012702/15/06 20:50:31  5-MIN KSTC 160250Z AUTO 34004KT 10SM SCT090 M12/M21 A3021 760 50 -2400 340/04 RMK AO2 SLP265 T11221206 55001
14926KSTC STC20060215205510402/15/06 20:55:31  5-MIN KSTC 160255Z AUTO 34004KT 10SM FEW090 M12/M21 A3022 750 50 -2400 340/04 RMK AO2
14926KSTC STC20060215210010402/15/06 21:00:31  5-MIN KSTC 160300Z AUTO 34003KT 10SM FEW090 M12/M20 A3022 750 53 -2400 330/03 RMK AO2
14926KSTC STC20060215210510402/15/06 21:05:31  5-MIN KSTC 160305Z AUTO 33003KT 10SM FEW090 M12/M20 A3022 750 53 -2400 330/03 RMK AO2
14926KSTC STC20060215211010402/15/06 21:10:31  5-MIN KSTC 160310Z AUTO 35003KT 10SM FEW095 M12/M21 A3022 750 50 -2400 350/03 RMK AO2
14926KSTC STC20060215211510402/15/06 21:15:31  5-MIN KSTC 160315Z AUTO 35004KT 10SM FEW095 M12/M21 A3022 750 50 -2400 350/04 RMK AO2
14926KSTC STC20060215212010402/15/06 21:20:31  5-MIN KSTC 160320Z AUTO 34004KT 10SM FEW095 M12/M20 A3022 750 53 -2400 340/04 RMK AO2
14926KSTC STC20060215212510402/15/06 21:25:31  5-MIN KSTC 160325Z AUTO 34004KT 10SM FEW095 M12/M21 A3022 750 50 -2400 340/04 RMK AO2
14926KSTC STC20060215213010402/15/06 21:30:31  5-MIN KSTC 160330Z AUTO 36004KT 10SM FEW095 M12/M21 A3022 750 50 -2400 350/04 RMK AO2
14926KSTC STC20060215213510402/15/06 21:35:31  5-MIN KSTC 160335Z AUTO 36005KT 10SM SCT095 M12/M21 A3022 750 48 -2400 360/05 RMK AO2
14926KSTC STC20060215214010402/15/06 21:40:31  5-MIN KSTC 160340Z AUTO 36006KT 10SM SCT095 M12/M21 A3023 740 48 -2400 360/06 RMK AO2
14926KSTC STC20060215214510402/15/06 21:45:31  5-MIN KSTC 160345Z AUTO 36005KT 10SM BKN095 M12/M21 A3023 740 48 -2400 360/05 RMK AO2
14926KSTC STC20060215215012102/15/06 21:50:31  5-MIN KSTC 160350Z AUTO 36004KT 10SM SCT095 M12/M21 A3023 740 48 -2400 360/04 RMK AO2 SLP272 T11221211
14926KSTC STC20060215215510402/15/06 21:55:31  5-MIN KSTC 160355Z AUTO 36004KT 10SM SCT095 M12/M21 A3024 740 48 -2400 360/04 RMK AO2
14926KSTC STC20060215220010402/15/06 22:00:31  5-MIN KSTC 160400Z AUTO 36005KT 10SM FEW095 M13/M21 A3024 730 53 -2500 360/05 RMK AO2
14926KSTC STC20060215220510402/15/06 22:05:31  5-MIN KSTC 160405Z AUTO 35005KT 10SM FEW095 M13/M21 A3024 730 50 -2500 350/05 RMK AO2
14926KSTC STC20060215221010402/15/06 22:10:31  5-MIN KSTC 160410Z AUTO 35005KT 10SM FEW095 M13/M21 A3023 740 50 -2500 350/05 RMK AO2
14926KSTC STC20060215221510102/15/06 22:15:31  5-MIN KSTC 160415Z AUTO 35006KT 10SM CLR M13/M21 A3023 740 50 -2500 350/06 RMK AO2
14926KSTC STC20060215222010402/15/06 22:20:31  5-MIN KSTC 160420Z AUTO 35006KT 10SM SCT120 M13/M21 A3023 740 50 -2500 350/06 RMK AO2
14926KSTC STC20060215222510402/15/06 22:25:31  5-MIN KSTC 160425Z AUTO 36004KT 10SM BKN110 M13/M21 A3023 740 52 -2600 350/04 RMK AO2
14926KSTC STC20060215223010402/15/06 22:30:31  5-MIN KSTC 160430Z AUTO 36003KT 10SM BKN110 M13/M21 A3023 740 52 -2600 360/03 RMK AO2
14926KSTC STC20060215223510402/15/06 22:35:31  5-MIN KSTC 160435Z AUTO 35004KT 10SM BKN110 M13/M21 A3023 740 55 -2600 350/04 RMK AO2
14926KSTC STC20060215224010402/15/06 22:40:31  5-MIN KSTC 160440Z AUTO 35004KT 10SM BKN110 M14/M21 A3023 740 57 -2600 350/04 RMK AO2
14926KSTC STC20060215224510402/15/06 22:45:31  5-MIN KSTC 160445Z AUTO 36003KT 10SM OVC100 M14/M21 A3023 740 55 -2600 360/03 RMK AO2
14926KSTC STC20060215225012102/15/06 22:50:31  5-MIN KSTC 160450Z AUTO 01004KT 10SM OVC100 M14/M21 A3023 740 60 -2700 010/04 RMK AO2 SLP271 T11441206
14926KSTC STC20060215225510402/15/06 22:55:31  5-MIN KSTC 160455Z AUTO 01004KT 10SM OVC100 M14/M21 A3023 740 55 -2600 360/04 RMK AO2
14926KSTC STC20060215230010402/15/06 23:00:31  5-MIN KSTC 160500Z AUTO 36004KT 10SM OVC095 M14/M21 A3023 740 57 -2700 360/04 RMK AO2
14926KSTC STC20060215230510402/15/06 23:05:31  5-MIN KSTC 160505Z AUTO 35005KT 10SM OVC090 M15/M21 A3023 740 60 -2800 350/05 RMK AO2
14926KSTC STC20060215231010402/15/06 23:10:31  5-MIN KSTC 160510Z AUTO 36004KT 10SM BKN090 M16/M21 A3023 740 63 -2800 360/04 RMK AO2
14926KSTC STC20060215231510402/15/06 23:15:31  5-MIN KSTC 160515Z AUTO 01005KT 10SM BKN090 M15/M21 A3023 740 60 -2800 010/05 RMK AO2
14926KSTC STC20060215232010402/15/06 23:20:31  5-MIN KSTC 160520Z AUTO 01005KT 10SM SCT090 M15/M21 A3022 750 60 -2800 360/05 RMK AO2
14926KSTC STC20060215232510402/15/06 23:25:31  5-MIN KSTC 160525Z AUTO 36005KT 10SM BKN090 M15/M21 A3022 750 60 -2800 360/05 RMK AO2
14926KSTC STC20060215233010402/15/06 23:30:31  5-MIN KSTC 160530Z AUTO 36004KT 10SM BKN095 M15/M21 A3022 750 60 -2800 360/04 RMK AO2
14926KSTC STC20060215233510402/15/06 23:35:31  5-MIN KSTC 160535Z AUTO 35004KT 10SM BKN100 M15/M21 A3023 740 60 -2800 350/04 RMK AO2
14926KSTC STC20060215234010402/15/06 23:40:31  5-MIN KSTC 160540Z AUTO 01003KT 10SM BKN095 M15/M21 A3022 750 60 -2800 360/03 RMK AO2
14926KSTC STC20060215234510402/15/06 23:45:31  5-MIN KSTC 160545Z AUTO 36003KT 10SM SCT095 M15/M21 A3022 750 60 -2800 360/03 RMK AO2
14926KSTC STC20060215235014902/15/06 23:50:31  5-MIN KSTC 160550Z AUTO 01003KT 10SM SCT095 M15/M21 A3022 750 60 -2800 010/03 RMK AO2 SLP268 T11501211 11117 21156 411001189 51013
14926KSTC STC20060215235510402/15/06 23:55:31  5-MIN KSTC 160555Z AUTO 01003KT 10SM FEW100 M15/M21 A3022 750 60 -2800 010/03 RMK AO2
14926KSTC STC20060216000010402/16/06 00:00:32  5-MIN KSTC 160600Z AUTO 36004KT 10SM FEW100 M16/M21 A3022 750 63 -2800 360/04 RMK AO2
14926KSTC STC20060216000510102/16/06 00:05:31  5-MIN KSTC 160605Z AUTO 01004KT 10SM CLR M16/M22 A3022 750 60 -2800 010/04 RMK AO2
14926KSTC STC20060216001010102/16/06 00:10:31  5-MIN KSTC 160610Z AUTO 01004KT 10SM CLR M16/M21 A3022 750 63 -2800 010/04 RMK AO2
14926KSTC STC20060216001510102/16/06 00:15:31  5-MIN KSTC 160615Z AUTO 01004KT 10SM CLR M16/M21 A3022 750 63 -2800 010/04 RMK AO2
14926KSTC STC20060216002010102/16/06 00:20:31  5-MIN KSTC 160620Z AUTO 36005KT 10SM CLR M16/M22 A3022 750 60 -2800 350/05 RMK AO2
14926KSTC STC20060216002510102/16/06 00:25:31  5-MIN KSTC 160625Z AUTO 35005KT 10SM CLR M16/M22 A3023 740 63 -2900 340/05 RMK AO2
14926KSTC STC20060216003010102/16/06 00:30:31  5-MIN KSTC 160630Z AUTO 34005KT 10SM CLR M16/M22 A3024 740 60 -2900 330/05 RMK AO2
14926KSTC STC20060216003510102/16/06 00:35:31  5-MIN KSTC 160635Z AUTO 35004KT 10SM CLR M16/M22 A3024 740 60 -2900 340/04 RMK AO2
14926KSTC STC20060216004010102/16/06 00:40:31  5-MIN KSTC 160640Z AUTO 35004KT 10SM CLR M16/M22 A3024 740 63 -2900 350/04 RMK AO2
14926KSTC STC20060216004510102/16/06 00:45:31  5-MIN KSTC 160645Z AUTO 36005KT 10SM CLR M16/M22 A3022 750 63 -2900 360/05 RMK AO2
14926KSTC STC20060216005011802/16/06 00:50:31  5-MIN KSTC 160650Z AUTO 01005KT 10SM CLR M16/M22 A3022 750 63 -2900 010/05 RMK AO2 SLP267 T11611217
14926KSTC STC20060216005510102/16/06 00:55:31  5-MIN KSTC 160655Z AUTO 01006KT 10SM CLR M16/M22 A3022 750 63 -2900 010/06 RMK AO2
14926KSTC STC20060216010010102/16/06 01:00:31  5-MIN KSTC 160700Z AUTO 01006KT 10SM CLR M16/M22 A3022 750 63 -2900 360/06 RMK AO2
14926KSTC STC20060216010510102/16/06 01:05:31  5-MIN KSTC 160705Z AUTO 36007KT 10SM CLR M17/M22 A3022 750 66 -3000 360/07 RMK AO2
14926KSTC STC20060216011010102/16/06 01:10:31  5-MIN KSTC 160710Z AUTO 01005KT 10SM CLR M17/M22 A3022 750 66 -3000 010/05 RMK AO2
14926KSTC STC20060216011510102/16/06 01:15:31  5-MIN KSTC 160715Z AUTO 01006KT 10SM CLR M16/M22 A3022 750 60 -2900 010/06 RMK AO2
14926KSTC STC20060216012010102/16/06 01:20:31  5-MIN KSTC 160720Z AUTO 02006KT 10SM CLR M16/M22 A3022 750 60 -2900 010/06 RMK AO2
14926KSTC STC20060216012510402/16/06 01:25:31  5-MIN KSTC 160725Z AUTO 36004KT 10SM FEW110 M16/M22 A3023 740 60 -2900 360/04 RMK AO2
14926KSTC STC20060216013010402/16/06 01:30:31  5-MIN KSTC 160730Z AUTO 36006KT 10SM SCT110 M17/M22 A3022 750 63 -3000 360/06 RMK AO2
14926KSTC STC20060216013510402/16/06 01:35:31  5-MIN KSTC 160735Z AUTO 36005KT 10SM SCT110 M17/M22 A3023 740 63 -3000 360/05 RMK AO2
14926KSTC STC20060216014010402/16/06 01:40:31  5-MIN KSTC 160740Z AUTO 36006KT 10SM BKN110 M17/M22 A3023 740 63 -3000 360/06 RMK AO2
14926KSTC STC20060216014510402/16/06 01:45:31  5-MIN KSTC 160745Z AUTO 36006KT 10SM BKN110 M17/M22 A3022 750 66 -3000 360/06 RMK AO2
14926KSTC STC20060216015012102/16/06 01:50:31  5-MIN KSTC 160750Z AUTO 01006KT 10SM BKN110 M17/M22 A3022 750 66 -3000 360/06 RMK AO2 SLP268 T11671217
14926KSTC STC20060216015510402/16/06 01:55:31  5-MIN KSTC 160755Z AUTO 01005KT 10SM BKN100 M16/M22 A3023 750 63 -2900 360/05 RMK AO2
14926KSTC STC20060216020010402/16/06 02:00:31  5-MIN KSTC 160800Z AUTO 35005KT 10SM BKN100 M16/M22 A3024 740 63 -2900 350/05 RMK AO2
14926KSTC STC20060216020510402/16/06 02:05:31  5-MIN KSTC 160805Z AUTO 35004KT 10SM BKN100 M16/M22 A3024 740 63 -2900 350/04 RMK AO2
14926KSTC STC20060216021010402/16/06 02:10:31  5-MIN KSTC 160810Z AUTO 35003KT 10SM BKN100 M16/M22 A3024 730 63 -2900 350/03 RMK AO2
14926KSTC STC20060216021510402/16/06 02:15:31  5-MIN KSTC 160815Z AUTO 35004KT 10SM BKN100 M17/M22 A3024 740 63 -3000 350/04 RMK AO2
14926KSTC STC20060216022010402/16/06 02:20:31  5-MIN KSTC 160820Z AUTO 36004KT 10SM BKN095 M17/M22 A3023 740 63 -3000 360/04 RMK AO2
14926KSTC STC20060216022510402/16/06 02:25:31  5-MIN KSTC 160825Z AUTO 36005KT 10SM BKN095 M17/M22 A3022 750 63 -3000 360/05 RMK AO2
14926KSTC STC20060216023011102/16/06 02:30:31  5-MIN KSTC 160830Z AUTO 01005KT 10SM BKN095 M17/M22 A3022 750 63 -3000 010/05 RMK AO2 PRESFR
14926KSTC STC20060216023510402/16/06 02:35:31  5-MIN KSTC 160835Z AUTO 01005KT 10SM SCT095 M17/M22 A3022 750 63 -3000 010/05 RMK AO2
14926KSTC STC20060216024010402/16/06 02:40:31  5-MIN KSTC 160840Z AUTO 01005KT 10SM SCT090 M17/M22 A3021 760 63 -3000 010/05 RMK AO2
14926KSTC STC20060216024510402/16/06 02:45:31  5-MIN KSTC 160845Z AUTO 01005KT 10SM FEW090 M17/M23 A3021 760 60 -3000 010/05 RMK AO2
14926KSTC STC20060216025012702/16/06 02:50:31  5-MIN KSTC 160850Z AUTO 01005KT 10SM FEW090 M17/M23 A3021 760 60 -3000 010/05 RMK AO2 SLP263 T11671228 50003
14926KSTC STC20060216025510102/16/06 02:55:31  5-MIN KSTC 160855Z AUTO 01004KT 10SM CLR M17/M23 A3021 760 60 -3000 360/04 RMK AO2
14926KSTC STC20060216030010102/16/06 03:00:31  5-MIN KSTC 160900Z AUTO 36006KT 10SM CLR M17/M23 A3021 760 62 -3100 360/06 RMK AO2
14926KSTC STC20060216030510102/16/06 03:05:31  5-MIN KSTC 160905Z AUTO 36006KT 10SM CLR M17/M22 A3021 760 65 -3100 360/06 RMK AO2
14926KSTC STC20060216031010402/16/06 03:10:31  5-MIN KSTC 160910Z AUTO 36006KT 10SM FEW100 M17/M22 A3021 760 65 -3100 360/06 RMK AO2
14926KSTC STC20060216031510402/16/06 03:15:31  5-MIN KSTC 160915Z AUTO 01007KT 10SM SCT100 M17/M22 A3021 760 63 -3000 360/07 RMK AO2
14926KSTC STC20060216032010402/16/06 03:20:31  5-MIN KSTC 160920Z AUTO 01007KT 10SM BKN100 M17/M22 A3021 760 63 -3000 360/07 RMK AO2
14926KSTC STC20060216032510402/16/06 03:25:31  5-MIN KSTC 160925Z AUTO 36007KT 10SM BKN100 M17/M22 A3021 760 63 -3000 360/07 RMK AO2
14926KSTC STC20060216033010402/16/06 03:30:31  5-MIN KSTC 160930Z AUTO 01007KT 10SM BKN100 M16/M22 A3021 760 60 -2900 010/07 RMK AO2
14926KSTC STC20060216033510402/16/06 03:35:31  5-MIN KSTC 160935Z AUTO 36006KT 10SM OVC100 M16/M22 A3021 760 60 -2900 360/06 RMK AO2
14926KSTC STC20060216034010402/16/06 03:40:31  5-MIN KSTC 160940Z AUTO 36007KT 10SM OVC100 M16/M22 A3022 750 60 -2900 360/07 RMK AO2
14926KSTC STC20060216034510402/16/06 03:45:31  5-MIN KSTC 160945Z AUTO 36007KT 10SM OVC110 M16/M22 A3022 750 60 -2900 360/07 RMK AO2
14926KSTC STC20060216035012102/16/06 03:50:31  5-MIN KSTC 160950Z AUTO 01007KT 10SM OVC110 M16/M22 A3022 750 60 -2800 360/07 RMK AO2 SLP266 T11561217
14926KSTC STC20060216035510402/16/06 03:55:31  5-MIN KSTC 160955Z AUTO 36006KT 10SM OVC110 M16/M22 A3022 750 60 -2800 360/06 RMK AO2
14926KSTC STC20060216040010402/16/06 04:00:31  5-MIN KSTC 161000Z AUTO 01006KT 10SM OVC110 M16/M22 A3022 750 60 -2800 010/06 RMK AO2
14926KSTC STC20060216040510402/16/06 04:05:31  5-MIN KSTC 161005Z AUTO 02007KT 10SM OVC110 M16/M22 A3022 750 60 -2800 010/07 RMK AO2
14926KSTC STC20060216041010402/16/06 04:10:31  5-MIN KSTC 161010Z AUTO 01006KT 10SM OVC110 M16/M22 A3022 750 60 -2800 010/06 RMK AO2
14926KSTC STC20060216041510402/16/06 04:15:31  5-MIN KSTC 161015Z AUTO 01006KT 10SM OVC110 M16/M22 A3021 760 60 -2800 010/06 RMK AO2
14926KSTC STC20060216042010402/16/06 04:20:31  5-MIN KSTC 161020Z AUTO 01006KT 10SM OVC100 M16/M22 A3021 760 60 -2800 010/06 RMK AO2
14926KSTC STC20060216042510402/16/06 04:25:31  5-MIN KSTC 161025Z AUTO 01006KT 10SM OVC100 M15/M22 A3021 760 57 -2800 360/06 RMK AO2
14926KSTC STC20060216043011102/16/06 04:30:31  5-MIN KSTC 161030Z AUTO 01005KT 10SM BKN090 OVC110 M15/M22 A3022 750 57 -2800 010/05 RMK AO2
14926KSTC STC20060216043510402/16/06 04:35:31  5-MIN KSTC 161035Z AUTO 01005KT 10SM OVC100 M15/M22 A3022 750 57 -2800 360/05 RMK AO2
14926KSTC STC20060216044010402/16/06 04:40:31  5-MIN KSTC 161040Z AUTO 01005KT 10SM OVC100 M15/M21 A3022 750 60 -2800 360/05 RMK AO2
14926KSTC STC20060216044510402/16/06 04:45:31  5-MIN KSTC 161045Z AUTO 02005KT 10SM OVC095 M15/M21 A3022 750 60 -2800 020/05 RMK AO2
14926KSTC STC20060216045012102/16/06 04:50:31  5-MIN KSTC 161050Z AUTO 02004KT 10SM OVC095 M15/M21 A3021 760 60 -2800 020/04 RMK AO2 SLP264 T11501211
14926KSTC STC20060216045510402/16/06 04:55:31  5-MIN KSTC 161055Z AUTO 02004KT 10SM OVC095 M15/M22 A3022 750 57 -2800 020/04 RMK AO2
14926KSTC STC20060216050010402/16/06 05:00:31  5-MIN KSTC 161100Z AUTO 01004KT 10SM OVC095 M14/M21 A3022 750 57 -2700 010/04 RMK AO2
14926KSTC STC20060216050510402/16/06 05:05:31  5-MIN KSTC 161105Z AUTO 02005KT 10SM OVC090 M14/M21 A3022 750 57 -2700 010/05 RMK AO2
14926KSTC STC20060216051010402/16/06 05:10:31  5-MIN KSTC 161110Z AUTO 02005KT 10SM OVC090 M14/M21 A3021 760 57 -2700 020/05 RMK AO2
14926KSTC STC20060216051510402/16/06 05:15:31  5-MIN KSTC 161115Z AUTO 02006KT 10SM OVC090 M14/M22 A3021 760 55 -2700 020/06 RMK AO2
14926KSTC STC20060216052010402/16/06 05:20:31  5-MIN KSTC 161120Z AUTO 04005KT 10SM OVC090 M14/M22 A3021 760 55 -2700 030/05 RMK AO2
14926KSTC STC20060216052510402/16/06 05:25:31  5-MIN KSTC 161125Z AUTO 03007KT 10SM OVC090 M14/M22 A3021 760 55 -2700 030/07 RMK AO2
14926KSTC STC20060216053010402/16/06 05:30:31  5-MIN KSTC 161130Z AUTO 03006KT 10SM OVC090 M14/M22 A3022 750 55 -2700 020/06 RMK AO2
14926KSTC STC20060216053510402/16/06 05:35:31  5-MIN KSTC 161135Z AUTO 03006KT 10SM OVC090 M14/M22 A3021 760 55 -2700 020/06 RMK AO2
14926KSTC STC20060216054010402/16/06 05:40:31  5-MIN KSTC 161140Z AUTO 04006KT 10SM OVC095 M14/M22 A3022 750 55 -2700 040/06 RMK AO2
14926KSTC STC20060216054510402/16/06 05:45:31  5-MIN KSTC 161145Z AUTO 04006KT 10SM OVC100 M14/M22 A3021 760 55 -2700 040/06 RMK AO2
14926KSTC STC20060216055014602/16/06 05:50:31  5-MIN KSTC 161150Z AUTO 04007KT 10SM BKN100 OVC120 M14/M22 A3021 760 55 -2700 030/07 RMK AO2 SLP264 T11441217 11144 21172 58004
14926KSTC STC20060216055510402/16/06 05:55:31  5-MIN KSTC 161155Z AUTO 02006KT 10SM OVC100 M14/M22 A3022 750 55 -2700 020/06 RMK AO2
14926KSTC STC20060216060010402/16/06 06:00:31  5-MIN KSTC 161200Z AUTO 03006KT 10SM OVC100 M14/M22 A3021 760 55 -2700 020/06 RMK AO2
14926KSTC STC20060216060510402/16/06 06:05:31  5-MIN KSTC 161205Z AUTO 03006KT 10SM OVC110 M14/M22 A3021 760 55 -2700 030/06 RMK AO2
14926KSTC STC20060216061010402/16/06 06:10:31  5-MIN KSTC 161210Z AUTO 04006KT 10SM OVC100 M14/M22 A3022 750 52 -2600 040/06 RMK AO2
14926KSTC STC20060216061510402/16/06 06:15:31  5-MIN KSTC 161215Z AUTO 01006KT 10SM OVC100 M14/M22 A3022 750 52 -2600 010/06 RMK AO2
14926KSTC STC20060216062010402/16/06 06:20:31  5-MIN KSTC 161220Z AUTO 03007KT 10SM OVC100 M14/M22 A3022 750 52 -2600 030/07 RMK AO2
14926KSTC STC20060216062510402/16/06 06:25:31  5-MIN KSTC 161225Z AUTO 01007KT 10SM OVC100 M14/M22 A3022 750 52 -2600 010/07 RMK AO2
14926KSTC STC20060216063011102/16/06 06:30:31  5-MIN KSTC 161230Z AUTO 04006KT 10SM BKN090 OVC100 M14/M22 A3021 760 52 -2600 040/06 RMK AO2
14926KSTC STC20060216063510402/16/06 06:35:31  5-MIN KSTC 161235Z AUTO 02008KT 10SM OVC085 M14/M22 A3021 760 52 -2600 020/08 RMK AO2
14926KSTC STC20060216064010402/16/06 06:40:31  5-MIN KSTC 161240Z AUTO 03005KT 10SM OVC085 M14/M22 A3021 760 52 -2600 030/05 RMK AO2
14926KSTC STC20060216064510402/16/06 06:45:31  5-MIN KSTC 161245Z AUTO 02007KT 10SM OVC080 M14/M22 A3020 770 52 -2600 010/07 RMK AO2
14926KSTC STC20060216065012102/16/06 06:50:31  5-MIN KSTC 161250Z AUTO 03009KT 10SM OVC080 M14/M22 A3019 770 52 -2600 020/09 RMK AO2 SLP258 T11391217
14926KSTC STC20060216065510402/16/06 06:55:31  5-MIN KSTC 161255Z AUTO 02009KT 10SM OVC075 M14/M22 A3019 770 52 -2600 020/09 RMK AO2
14926KSTC STC20060216070010402/16/06 07:00:31  5-MIN KSTC 161300Z AUTO 02007KT 10SM OVC075 M14/M22 A3019 770 52 -2600 020/07 RMK AO2
14926KSTC STC20060216070510402/16/06 07:05:31  5-MIN KSTC 161305Z AUTO 02007KT 10SM OVC075 M14/M22 A3019 770 52 -2600 020/07 RMK AO2
14926KSTC STC20060216071010402/16/06 07:10:31  5-MIN KSTC 161310Z AUTO 04008KT 10SM OVC075 M14/M22 A3019 780 52 -2600 040/08 RMK AO2
14926KSTC STC20060216071510402/16/06 07:15:31  5-MIN KSTC 161315Z AUTO 03009KT 10SM OVC080 M14/M22 A3019 780 50 -2600 030/09 RMK AO2
14926KSTC STC20060216072010402/16/06 07:20:31  5-MIN KSTC 161320Z AUTO 04010KT 10SM OVC080 M14/M22 A3020 770 52 -2600 030/10 RMK AO2
14926KSTC STC20060216072510402/16/06 07:25:31  5-MIN KSTC 161325Z AUTO 03008KT 10SM OVC075 M14/M22 A3019 770 50 -2600 030/08 RMK AO2
14926KSTC STC20060216073010402/16/06 07:30:31  5-MIN KSTC 161330Z AUTO 04009KT 10SM OVC075 M14/M22 A3019 780 50 -2600 040/09 RMK AO2
14926KSTC STC20060216073510402/16/06 07:35:31  5-MIN KSTC 161335Z AUTO 04007KT 10SM OVC075 M13/M22 A3019 780 50 -2500 030/07 RMK AO2
14926KSTC STC20060216074010402/16/06 07:40:31  5-MIN KSTC 161340Z AUTO 05011KT 10SM OVC070 M13/M22 A3018 780 50 -2500 040/11 RMK AO2
14926KSTC STC20060216074510402/16/06 07:45:31  5-MIN KSTC 161345Z AUTO 06008KT 10SM OVC070 M13/M22 A3018 790 50 -2500 060/08 RMK AO2
14926KSTC STC20060216075012102/16/06 07:50:31  5-MIN KSTC 161350Z AUTO 06008KT 10SM OVC070 M14/M22 A3018 780 52 -2600 050/08 RMK AO2 SLP254 T11391217
14926KSTC STC20060216075510402/16/06 07:55:31  5-MIN KSTC 161355Z AUTO 03009KT 10SM OVC065 M14/M22 A3020 770 52 -2600 030/09 RMK AO2
14926KSTC STC20060216080011102/16/06 08:00:31  5-MIN KSTC 161400Z AUTO 01008KT 10SM OVC065 M14/M22 A3021 760 52 -2600 010/08 RMK AO2 PRESRR
14926KSTC STC20060216081010402/16/06 08:10:31  5-MIN KSTC 161410Z AUTO 03009KT 10SM OVC065 M13/M22 A3020 770 50 -2500 030/09 RMK AO2
14926KSTC STC20060216081510402/16/06 08:15:31  5-MIN KSTC 161415Z AUTO 05008KT 10SM OVC065 M13/M22 A3020 770 50 -2500 050/08 RMK AO2
14926KSTC STC20060216082010402/16/06 08:20:31  5-MIN KSTC 161420Z AUTO 06008KT 10SM OVC060 M13/M22 A3020 770 50 -2500 050/08 RMK AO2
14926KSTC STC20060216082510402/16/06 08:25:31  5-MIN KSTC 161425Z AUTO 04007KT 10SM BKN060 M13/M22 A3020 770 50 -2500 040/07 RMK AO2
14926KSTC STC20060216083010402/16/06 08:30:31  5-MIN KSTC 161430Z AUTO 05007KT 10SM OVC060 M13/M22 A3020 770 50 -2500 050/07 RMK AO2
14926KSTC STC20060216083510402/16/06 08:35:31  5-MIN KSTC 161435Z AUTO 04008KT 10SM OVC060 M13/M22 A3020 770 50 -2500 040/08 RMK AO2
14926KSTC STC20060216084010402/16/06 08:40:31  5-MIN KSTC 161440Z AUTO 04007KT 10SM OVC060 M13/M22 A3020 770 50 -2500 040/07 RMK AO2
14926KSTC STC20060216084510402/16/06 08:45:31  5-MIN KSTC 161445Z AUTO 02005KT 10SM OVC060 M13/M22 A3021 760 50 -2500 010/05 RMK AO2
14926KSTC STC20060216085012702/16/06 08:50:31  5-MIN KSTC 161450Z AUTO 02008KT 10SM BKN060 M13/M22 A3021 760 50 -2500 020/08 RMK AO2 SLP262 T11331217 51002
14926KSTC STC20060216085510402/16/06 08:55:31  5-MIN KSTC 161455Z AUTO 02007KT 10SM BKN060 M13/M22 A3021 760 50 -2500 020/07 RMK AO2
14926KSTC STC20060216090009902/16/06 09:00:31  5-MIN KSTC 161500Z 01007KT 10SM BKN060 M13/M22 A3021 760 50 -2500 010/07 RMK AO2
14926KSTC STC20060216090509902/16/06 09:05:31  5-MIN KSTC 161505Z 02010KT 10SM BKN060 M13/M22 A3021 760 50 -2500 020/10 RMK AO2
14926KSTC STC20060216091009902/16/06 09:10:31  5-MIN KSTC 161510Z 01007KT 10SM BKN060 M13/M21 A3021 760 52 -2500 360/07 RMK AO2
14926KSTC STC20060216091509902/16/06 09:15:31  5-MIN KSTC 161515Z 36008KT 10SM BKN060 M13/M21 A3021 760 52 -2500 360/08 RMK AO2
14926KSTC STC20060216092009902/16/06 09:20:31  5-MIN KSTC 161520Z 01008KT 10SM SCT060 M13/M21 A3021 760 52 -2500 010/08 RMK AO2
14926KSTC STC20060216092509902/16/06 09:25:31  5-MIN KSTC 161525Z 01006KT 10SM SCT060 M13/M21 A3021 760 50 -2500 010/06 RMK AO2
14926KSTC STC20060216093009902/16/06 09:30:31  5-MIN KSTC 161530Z 36007KT 10SM SCT060 M13/M21 A3022 750 50 -2500 360/07 RMK AO2
14926KSTC STC20060216093509902/16/06 09:35:31  5-MIN KSTC 161535Z 01007KT 10SM FEW070 M13/M21 A3021 760 53 -2500 010/07 RMK AO2
14926KSTC STC20060216094009902/16/06 09:40:31  5-MIN KSTC 161540Z 35007KT 10SM FEW075 M13/M21 A3022 750 53 -2500 350/07 RMK AO2
14926KSTC STC20060216094509902/16/06 09:45:31  5-MIN KSTC 161545Z 36006KT 10SM FEW070 M13/M21 A3022 750 53 -2500 360/06 RMK AO2
14926KSTC STC20060216095011602/16/06 09:50:31  5-MIN KSTC 161550Z 35008KT 10SM FEW070 M13/M21 A3022 750 53 -2500 350/08 RMK AO2 SLP266 T11281206
14926KSTC STC20060216095509902/16/06 09:55:31  5-MIN KSTC 161555Z 36008KT 10SM FEW070 M13/M21 A3022 750 53 -2500 350/08 RMK AO2
14926KSTC STC20060216100010602/16/06 10:00:31  5-MIN KSTC 161600Z 36009KT 10SM FEW075 SCT090 M13/M21 A3022 750 53 -2500 350/09 RMK AO2
14926KSTC STC20060216100510602/16/06 10:05:31  5-MIN KSTC 161605Z 36009KT 10SM SCT075 BKN090 M12/M21 A3022 750 50 -2400 360/09 RMK AO2
14926KSTC STC20060216101010602/16/06 10:10:31  5-MIN KSTC 161610Z 36008KT 10SM BKN075 BKN090 M12/M20 A3021 760 53 -2400 350/08 RMK AO2
14926KSTC STC20060216101510602/16/06 10:15:31  5-MIN KSTC 161615Z 36007KT 10SM SCT070 BKN090 M12/M20 A3021 760 53 -2400 350/07 RMK AO2
14926KSTC STC20060216102010602/16/06 10:20:31  5-MIN KSTC 161620Z 01009KT 10SM SCT075 SCT090 M12/M20 A3021 760 53 -2400 360/09 RMK AO2
14926KSTC STC20060216102510602/16/06 10:25:31  5-MIN KSTC 161625Z 36009KT 10SM SCT075 SCT090 M12/M20 A3021 760 53 -2400 360/09 RMK AO2
14926KSTC STC20060216103009902/16/06 10:30:31  5-MIN KSTC 161630Z 36010KT 10SM FEW075 M12/M20 A3020 770 53 -2400 360/10 RMK AO2
14926KSTC STC20060216103509902/16/06 10:35:31  5-MIN KSTC 161635Z 36009KT 10SM FEW070 M12/M21 A3020 770 50 -2400 350/09 RMK AO2
14926KSTC STC20060216104009602/16/06 10:40:31  5-MIN KSTC 161640Z 36011KT 10SM CLR M12/M20 A3020 770 53 -2400 360/11 RMK AO2
14926KSTC STC20060216104509602/16/06 10:45:31  5-MIN KSTC 161645Z 36013KT 10SM CLR M12/M20 A3020 770 53 -2400 350/13 RMK AO2
14926KSTC STC20060216105011302/16/06 10:50:31  5-MIN KSTC 161650Z 36012KT 10SM CLR M12/M20 A3019 770 53 -2400 360/12 RMK AO2 SLP258 T11221200
14926KSTC STC20060216105509602/16/06 10:55:31  5-MIN KSTC 161655Z 36012KT 10SM CLR M12/M20 A3019 780 50 -2300 360/12 RMK AO2
14926KSTC STC20060216110009602/16/06 11:00:31  5-MIN KSTC 161700Z 36011KT 10SM CLR M12/M20 A3019 770 50 -2300 360/11 RMK AO2
14926KSTC STC20060216110509602/16/06 11:05:31  5-MIN KSTC 161705Z 01011KT 10SM CLR M12/M19 A3020 770 53 -2300 360/11 RMK AO2
14926KSTC STC20060216111009602/16/06 11:10:31  5-MIN KSTC 161710Z 36010KT 10SM CLR M11/M19 A3019 770 51 -2200 350/10 RMK AO2
14926KSTC STC20060216111509602/16/06 11:15:31  5-MIN KSTC 161715Z 34010KT 10SM CLR M12/M19 A3019 770 53 -2300 340/10 RMK AO2
14926KSTC STC20060216112009602/16/06 11:20:31  5-MIN KSTC 161720Z 34012KT 10SM CLR M12/M19 A3020 770 53 -2300 340/12 RMK AO2
14926KSTC STC20060216112509602/16/06 11:25:31  5-MIN KSTC 161725Z 35012KT 10SM CLR M12/M19 A3020 770 53 -2300 340/12 RMK AO2
14926KSTC STC20060216113009602/16/06 11:30:31  5-MIN KSTC 161730Z 35011KT 10SM CLR M12/M19 A3020 770 53 -2300 340/11 RMK AO2
14926KSTC STC20060216113509602/16/06 11:35:31  5-MIN KSTC 161735Z 36013KT 10SM CLR M12/M19 A3020 770 53 -2300 350/13 RMK AO2
14926KSTC STC20060216114009602/16/06 11:40:31  5-MIN KSTC 161740Z 35010KT 10SM CLR M12/M19 A3020 770 53 -2300 350/10 RMK AO2
14926KSTC STC20060216114509602/16/06 11:45:31  5-MIN KSTC 161745Z 35013KT 10SM CLR M12/M19 A3020 770 53 -2300 340/13 RMK AO2
14926KSTC STC20060216115013102/16/06 11:50:31  5-MIN KSTC 161750Z 35010KT 10SM CLR M12/M19 A3020 770 55 -2300 350/10 RMK AO2 SLP258 T11171189 11111 21144 55003
14926KSTC STC20060216115509602/16/06 11:55:31  5-MIN KSTC 161755Z 35011KT 10SM CLR M12/M19 A3019 780 55 -2300 350/11 RMK AO2
14926KSTC STC20060216120009602/16/06 12:00:31  5-MIN KSTC 161800Z 36012KT 10SM CLR M11/M19 A3019 780 53 -2200 350/12 RMK AO2
14926KSTC STC20060216120509602/16/06 12:05:31  5-MIN KSTC 161805Z 35010KT 10SM CLR M11/M19 A3019 780 53 -2200 340/10 RMK AO2
14926KSTC STC20060216121009602/16/06 12:10:31  5-MIN KSTC 161810Z 35010KT 10SM CLR M11/M19 A3019 780 53 -2200 350/10 RMK AO2
14926KSTC STC20060216121509602/16/06 12:15:31  5-MIN KSTC 161815Z 35009KT 10SM CLR M11/M18 A3019 780 55 -2200 350/09 RMK AO2
14926KSTC STC20060216122009602/16/06 12:20:31  5-MIN KSTC 161820Z 35011KT 10SM CLR M11/M18 A3019 780 55 -2200 350/11 RMK AO2
14926KSTC STC20060216122509602/16/06 12:25:31  5-MIN KSTC 161825Z 35012KT 10SM CLR M11/M19 A3019 780 53 -2200 350/12 RMK AO2
14926KSTC STC20060216123009602/16/06 12:30:31  5-MIN KSTC 161830Z 35011KT 10SM CLR M11/M19 A3019 780 53 -2200 350/11 RMK AO2
14926KSTC STC20060216123509602/16/06 12:35:31  5-MIN KSTC 161835Z 35011KT 10SM CLR M11/M19 A3018 780 53 -2200 340/11 RMK AO2
14926KSTC STC20060216124009602/16/06 12:40:31  5-MIN KSTC 161840Z 35012KT 10SM CLR M11/M19 A3018 790 53 -2200 340/12 RMK AO2
14926KSTC STC20060216124510202/16/06 12:45:31  5-MIN KSTC 161845Z 36013G18KT 10SM CLR M11/M19 A3018 790 53 -2200 350/13G18 RMK AO2
14926KSTC STC20060216125011302/16/06 12:50:31  5-MIN KSTC 161850Z 36013KT 10SM CLR M11/M19 A3018 790 51 -2100 360/13 RMK AO2 SLP252 T11061189
14926KSTC STC20060216125509602/16/06 12:55:31  5-MIN KSTC 161855Z 36011KT 10SM CLR M11/M18 A3018 790 53 -2100 360/11 RMK AO2
14926KSTC STC20060216130009602/16/06 13:00:31  5-MIN KSTC 161900Z 36012KT 10SM CLR M11/M18 A3018 790 53 -2100 350/12 RMK AO2
14926KSTC STC20060216130509602/16/06 13:05:31  5-MIN KSTC 161905Z 35012KT 10SM CLR M11/M18 A3017 790 53 -2100 350/12 RMK AO2
14926KSTC STC20060216131009602/16/06 13:10:31  5-MIN KSTC 161910Z 35010KT 10SM CLR M10/M18 A3017 790 51 -2000 350/10 RMK AO2
14926KSTC STC20060216131509602/16/06 13:15:31  5-MIN KSTC 161915Z 36011KT 10SM CLR M10/M18 A3017 790 51 -2000 350/11 RMK AO2
14926KSTC STC20060216132009602/16/06 13:20:31  5-MIN KSTC 161920Z 35013KT 10SM CLR M10/M18 A3017 790 51 -2000 350/13 RMK AO2
14926KSTC STC20060216132509602/16/06 13:25:31  5-MIN KSTC 161925Z 35012KT 10SM CLR M11/M18 A3017 790 53 -2100 340/12 RMK AO2
14926KSTC STC20060216133010202/16/06 13:30:31  5-MIN KSTC 161930Z 35010G16KT 10SM CLR M11/M18 A3017 790 53 -2100 350/10G16 RMK AO2
14926KSTC STC20060216133510202/16/06 13:35:31  5-MIN KSTC 161935Z 35012G16KT 10SM CLR M11/M18 A3018 790 53 -2100 350/12G16 RMK AO2
14926KSTC STC20060216134009602/16/06 13:40:31  5-MIN KSTC 161940Z 34012KT 10SM CLR M11/M18 A3018 790 53 -2100 340/12 RMK AO2
14926KSTC STC20060216134509602/16/06 13:45:31  5-MIN KSTC 161945Z 34013KT 10SM CLR M11/M18 A3018 790 53 -2100 340/13 RMK AO2
14926KSTC STC20060216135011302/16/06 13:50:31  5-MIN KSTC 161950Z 35011KT 10SM CLR M11/M18 A3018 790 53 -2100 350/11 RMK AO2 SLP252 T11061183
14926KSTC STC20060216135509602/16/06 13:55:31  5-MIN KSTC 161955Z 36012KT 10SM CLR M11/M18 A3018 790 53 -2100 350/12 RMK AO2
14926KSTC STC20060216140009602/16/06 14:00:31  5-MIN KSTC 162000Z 35012KT 10SM CLR M11/M18 A3018 790 53 -2100 350/12 RMK AO2
14926KSTC STC20060216140510202/16/06 14:05:31  5-MIN KSTC 162005Z 35014G18KT 10SM CLR M11/M18 A3018 790 53 -2100 350/14G18 RMK AO2
14926KSTC STC20060216141009602/16/06 14:10:31  5-MIN KSTC 162010Z 35014KT 10SM CLR M11/M19 A3018 790 51 -2100 340/14 RMK AO2
14926KSTC STC20060216141509602/16/06 14:15:31  5-MIN KSTC 162015Z 35012KT 10SM CLR M11/M18 A3018 790 53 -2100 340/12 RMK AO2
14926KSTC STC20060216142009602/16/06 14:20:31  5-MIN KSTC 162020Z 35012KT 10SM CLR M11/M18 A3018 790 53 -2100 340/12 RMK AO2
14926KSTC STC20060216142509602/16/06 14:25:31  5-MIN KSTC 162025Z 35012KT 10SM CLR M11/M18 A3018 790 53 -2100 340/12 RMK AO2
14926KSTC STC20060216143010202/16/06 14:30:31  5-MIN KSTC 162030Z 34012G18KT 10SM CLR M11/M18 A3018 790 53 -2100 340/12G18 RMK AO2
14926KSTC STC20060216143509602/16/06 14:35:31  5-MIN KSTC 162035Z 35012KT 10SM CLR M11/M18 A3018 780 53 -2100 340/12 RMK AO2
14926KSTC STC20060216144009602/16/06 14:40:31  5-MIN KSTC 162040Z 35013KT 10SM CLR M11/M18 A3019 780 53 -2100 340/13 RMK AO2
14926KSTC STC20060216144509602/16/06 14:45:31  5-MIN KSTC 162045Z 35013KT 10SM CLR M11/M18 A3019 780 53 -2100 350/13 RMK AO2
14926KSTC STC20060216145012502/16/06 14:50:31  5-MIN KSTC 162050Z 34013G20KT 10SM CLR M11/M18 A3019 780 53 -2100 340/13G20 RMK AO2 SLP255 T11061183 58004
14926KSTC STC20060216145510202/16/06 14:55:31  5-MIN KSTC 162055Z 34012G21KT 10SM CLR M11/M19 A3019 780 51 -2100 340/12G21 RMK AO2
14926KSTC STC20060216150010202/16/06 15:00:31  5-MIN KSTC 162100Z 35015G21KT 10SM CLR M11/M18 A3019 770 53 -2100 340/15G21 RMK AO2
14926KSTC STC20060216150510202/16/06 15:05:31  5-MIN KSTC 162105Z 34013G20KT 10SM CLR M11/M19 A3020 770 51 -2100 340/13G20 RMK AO2
14926KSTC STC20060216151010202/16/06 15:10:31  5-MIN KSTC 162110Z 34016G20KT 10SM CLR M11/M19 A3020 770 51 -2100 330/16G20 RMK AO2
14926KSTC STC20060216151510202/16/06 15:15:31  5-MIN KSTC 162115Z 35016G20KT 10SM CLR M11/M19 A3020 770 48 -2100 340/16G20 RMK AO2
14926KSTC STC20060216152010202/16/06 15:20:31  5-MIN KSTC 162120Z 35014G20KT 10SM CLR M11/M19 A3020 770 48 -2100 340/14G20 RMK AO2
14926KSTC STC20060216152510202/16/06 15:25:31  5-MIN KSTC 162125Z 35017G21KT 10SM CLR M11/M20 A3020 770 46 -2100 340/17G21 RMK AO2
14926KSTC STC20060216153010202/16/06 15:30:31  5-MIN KSTC 162130Z 35015G21KT 10SM CLR M11/M20 A3020 770 46 -2100 350/15G21 RMK AO2
14926KSTC STC20060216153510202/16/06 15:35:31  5-MIN KSTC 162135Z 35013G20KT 10SM CLR M11/M19 A3021 760 48 -2200 350/13G20 RMK AO2
14926KSTC STC20060216154009602/16/06 15:40:31  5-MIN KSTC 162140Z 35014KT 10SM CLR M11/M20 A3021 760 46 -2200 350/14 RMK AO2
14926KSTC STC20060216154510202/16/06 15:45:31  5-MIN KSTC 162145Z 35012G18KT 10SM CLR M11/M19 A3021 760 48 -2200 350/12G18 RMK AO2
14926KSTC STC20060216155011902/16/06 15:50:31  5-MIN KSTC 162150Z 34014G19KT 10SM CLR M11/M19 A3021 760 48 -2200 340/14G19 RMK AO2 SLP264 T11061194
14926KSTC STC20060216155510202/16/06 15:55:31  5-MIN KSTC 162155Z 35011G19KT 10SM CLR M11/M19 A3021 760 48 -2200 350/11G19 RMK AO2
14926KSTC STC20060216160009602/16/06 16:00:31  5-MIN KSTC 162200Z 35014KT 10SM CLR M11/M19 A3022 750 48 -2200 340/14 RMK AO2
14926KSTC STC20060216160509602/16/06 16:05:31  5-MIN KSTC 162205Z 35011KT 10SM CLR M11/M20 A3022 750 46 -2200 350/11 RMK AO2
14926KSTC STC20060216161010202/16/06 16:10:31  5-MIN KSTC 162210Z 35014G18KT 10SM CLR M11/M19 A3022 750 48 -2200 350/14G18 RMK AO2
14926KSTC STC20060216161509602/16/06 16:15:31  5-MIN KSTC 162215Z 35013KT 10SM CLR M11/M19 A3022 750 48 -2200 350/13 RMK AO2
14926KSTC STC20060216162009602/16/06 16:20:31  5-MIN KSTC 162220Z 35013KT 10SM CLR M11/M19 A3023 740 48 -2200 340/13 RMK AO2
14926KSTC STC20060216162510202/16/06 16:25:31  5-MIN KSTC 162225Z 35013G21KT 10SM CLR M11/M19 A3023 740 48 -2200 350/13G21 RMK AO2
14926KSTC STC20060216163010202/16/06 16:30:31  5-MIN KSTC 162230Z 34011G21KT 10SM CLR M11/M19 A3023 740 48 -2200 340/11G21 RMK AO2
14926KSTC STC20060216163510202/16/06 16:35:31  5-MIN KSTC 162235Z 34013G18KT 10SM CLR M11/M19 A3024 740 48 -2200 340/13G18 RMK AO2
14926KSTC STC20060216164009602/16/06 16:40:31  5-MIN KSTC 162240Z 34012KT 10SM CLR M11/M20 A3024 740 46 -2200 340/12 RMK AO2
14926KSTC STC20060216164509602/16/06 16:45:31  5-MIN KSTC 162245Z 35012KT 10SM CLR M11/M19 A3024 730 48 -2200 340/12 RMK AO2
14926KSTC STC20060216165011902/16/06 16:50:31  5-MIN KSTC 162250Z 34013G18KT 10SM CLR M11/M20 A3024 730 46 -2200 340/13G18 RMK AO2 SLP275 T11061200
14926KSTC STC20060216165509602/16/06 16:55:31  5-MIN KSTC 162255Z 34013KT 10SM CLR M11/M20 A3024 730 46 -2200 340/13 RMK AO2
14926KSTC STC20060216170009602/16/06 17:00:31  5-MIN KSTC 162300Z 34012KT 10SM CLR M11/M20 A3024 730 46 -2200 340/12 RMK AO2
14926KSTC STC20060216170509602/16/06 17:05:31  5-MIN KSTC 162305Z 35012KT 10SM CLR M11/M19 A3025 730 48 -2200 340/12 RMK AO2
14926KSTC STC20060216171009602/16/06 17:10:31  5-MIN KSTC 162310Z 35012KT 10SM CLR M11/M19 A3025 720 48 -2200 340/12 RMK AO2
14926KSTC STC20060216171509602/16/06 17:15:31  5-MIN KSTC 162315Z 34014KT 10SM CLR M11/M19 A3025 720 48 -2200 330/14 RMK AO2
14926KSTC STC20060216172009602/16/06 17:20:31  5-MIN KSTC 162320Z 34013KT 10SM CLR M11/M20 A3025 720 46 -2200 340/13 RMK AO2
14926KSTC STC20060216172510202/16/06 17:25:31  5-MIN KSTC 162325Z 34011G18KT 10SM CLR M11/M19 A3026 710 51 -2300 340/11G18 RMK AO2
14926KSTC STC20060216173010202/16/06 17:30:31  5-MIN KSTC 162330Z 34014G18KT 10SM CLR M11/M20 A3026 710 48 -2300 340/14G18 RMK AO2
14926KSTC STC20060216173509602/16/06 17:35:31  5-MIN KSTC 162335Z 34015KT 10SM CLR M11/M20 A3026 710 48 -2300 340/15 RMK AO2
14926KSTC STC20060216174009602/16/06 17:40:31  5-MIN KSTC 162340Z 34013KT 10SM CLR M11/M20 A3026 710 48 -2300 340/13 RMK AO2
14926KSTC STC20060216174509602/16/06 17:45:31  5-MIN KSTC 162345Z 34013KT 10SM CLR M11/M20 A3026 710 48 -2300 340/13 RMK AO2
14926KSTC STC20060216175013102/16/06 17:50:31  5-MIN KSTC 162350Z 35012KT 10SM CLR M11/M20 A3027 710 48 -2300 340/12 RMK AO2 SLP283 T11111200 11100 21117 55002
14926KSTC STC20060216175509602/16/06 17:55:31  5-MIN KSTC 162355Z 35013KT 10SM CLR M11/M20 A3027 700 48 -2300 340/13 RMK AO2
14926KSTC STC20060216180010702/16/06 18:00:31  5-MIN KSTC 170000Z AUTO 34010G18KT 10SM CLR M11/M20 A3028 700 48 -2300 340/10G18 RMK AO2
14926KSTC STC20060216180510102/16/06 18:05:31  5-MIN KSTC 170005Z AUTO 33009KT 10SM CLR M11/M20 A3028 700 48 -2300 330/09 RMK AO2
14926KSTC STC20060216181010102/16/06 18:10:31  5-MIN KSTC 170010Z AUTO 33012KT 10SM CLR M11/M19 A3028 690 51 -2300 330/12 RMK AO2
14926KSTC STC20060216181510102/16/06 18:15:31  5-MIN KSTC 170015Z AUTO 33011KT 10SM CLR M12/M19 A3029 690 53 -2400 330/11 RMK AO2
14926KSTC STC20060216182010102/16/06 18:20:31  5-MIN KSTC 170020Z AUTO 33010KT 10SM CLR M12/M19 A3029 690 53 -2400 330/10 RMK AO2
14926KSTC STC20060216182510102/16/06 18:25:31  5-MIN KSTC 170025Z AUTO 33011KT 10SM CLR M12/M19 A3029 680 53 -2400 330/11 RMK AO2
14926KSTC STC20060216183010102/16/06 18:30:31  5-MIN KSTC 170030Z AUTO 33011KT 10SM CLR M12/M19 A3030 680 53 -2400 330/11 RMK AO2
14926KSTC STC20060216183510702/16/06 18:35:31  5-MIN KSTC 170035Z AUTO 33010G17KT 10SM CLR M12/M19 A3030 680 53 -2400 330/10G17 RMK AO2
14926KSTC STC20060216184010702/16/06 18:40:31  5-MIN KSTC 170040Z AUTO 33009G17KT 10SM CLR M12/M19 A3030 670 53 -2400 330/09G17 RMK AO2
14926KSTC STC20060216184510702/16/06 18:45:31  5-MIN KSTC 170045Z AUTO 33012G17KT 10SM CLR M12/M20 A3031 670 50 -2400 330/12G17 RMK AO2
14926KSTC STC20060216185012402/16/06 18:50:31  5-MIN KSTC 170050Z AUTO 33013G19KT 10SM CLR M12/M20 A3031 670 50 -2400 330/13G19 RMK AO2 SLP298 T11171200
14926KSTC STC20060216185510702/16/06 18:55:31  5-MIN KSTC 170055Z AUTO 33012G19KT 10SM CLR M12/M20 A3031 660 53 -2500 330/12G19 RMK AO2
14926KSTC STC20060216190010102/16/06 19:00:31  5-MIN KSTC 170100Z AUTO 33012KT 10SM CLR M12/M20 A3032 660 53 -2500 330/12 RMK AO2
14926KSTC STC20060216190510102/16/06 19:05:31  5-MIN KSTC 170105Z AUTO 33014KT 10SM CLR M12/M20 A3032 660 53 -2500 330/14 RMK AO2
14926KSTC STC20060216191010702/16/06 19:10:31  5-MIN KSTC 170110Z AUTO 33013G19KT 10SM CLR M12/M20 A3031 660 53 -2500 330/13G19 RMK AO2
14926KSTC STC20060216191510702/16/06 19:15:31  5-MIN KSTC 170115Z AUTO 33013G21KT 10SM CLR M12/M20 A3032 660 53 -2500 330/13G21 RMK AO2
14926KSTC STC20060216192010702/16/06 19:20:31  5-MIN KSTC 170120Z AUTO 34011G21KT 10SM CLR M12/M20 A3032 660 53 -2500 330/11G21 RMK AO2
14926KSTC STC20060216192510102/16/06 19:25:31  5-MIN KSTC 170125Z AUTO 34012KT 10SM CLR M12/M20 A3032 660 53 -2500 330/12 RMK AO2
14926KSTC STC20060216193010702/16/06 19:30:31  5-MIN KSTC 170130Z AUTO 33015G19KT 10SM CLR M12/M20 A3032 650 53 -2500 330/15G19 RMK AO2
14926KSTC STC20060216193510702/16/06 19:35:31  5-MIN KSTC 170135Z AUTO 33012G19KT 10SM CLR M12/M20 A3033 650 53 -2500 330/12G19 RMK AO2
14926KSTC STC20060216194010102/16/06 19:40:31  5-MIN KSTC 170140Z AUTO 33013KT 10SM CLR M13/M20 A3033 650 55 -2600 330/13 RMK AO2
14926KSTC STC20060216194510102/16/06 19:45:31  5-MIN KSTC 170145Z AUTO 33012KT 10SM CLR M13/M20 A3033 650 55 -2600 330/12 RMK AO2
14926KSTC STC20060216195011802/16/06 19:50:31  5-MIN KSTC 170150Z AUTO 33014KT 10SM CLR M13/M20 A3034 640 55 -2600 330/14 RMK AO2 SLP306 T11281200
14926KSTC STC20060216195510102/16/06 19:55:31  5-MIN KSTC 170155Z AUTO 33012KT 10SM CLR M13/M20 A3034 640 55 -2600 330/12 RMK AO2
14926KSTC STC20060216200010102/16/06 20:00:31  5-MIN KSTC 170200Z AUTO 33011KT 10SM CLR M13/M20 A3034 640 55 -2600 330/11 RMK AO2
14926KSTC STC20060216200510102/16/06 20:05:31  5-MIN KSTC 170205Z AUTO 33011KT 10SM CLR M13/M20 A3034 640 55 -2600 330/11 RMK AO2
14926KSTC STC20060216201010102/16/06 20:10:31  5-MIN KSTC 170210Z AUTO 33012KT 10SM CLR M13/M21 A3034 640 53 -2600 330/12 RMK AO2
14926KSTC STC20060216201510102/16/06 20:15:31  5-MIN KSTC 170215Z AUTO 33010KT 10SM CLR M13/M21 A3035 640 53 -2600 330/10 RMK AO2
14926KSTC STC20060216202010102/16/06 20:20:31  5-MIN KSTC 170220Z AUTO 33011KT 10SM CLR M13/M21 A3035 630 55 -2700 330/11 RMK AO2
14926KSTC STC20060216202510702/16/06 20:25:31  5-MIN KSTC 170225Z AUTO 33011G17KT 10SM CLR M13/M21 A3035 630 55 -2700 330/11G17 RMK AO2
14926KSTC STC20060216203010102/16/06 20:30:31  5-MIN KSTC 170230Z AUTO 33010KT 10SM CLR M13/M21 A3035 630 55 -2700 320/10 RMK AO2
14926KSTC STC20060216203510102/16/06 20:35:31  5-MIN KSTC 170235Z AUTO 33010KT 10SM CLR M13/M21 A3036 620 55 -2700 320/10 RMK AO2
14926KSTC STC20060216204010102/16/06 20:40:31  5-MIN KSTC 170240Z AUTO 33010KT 10SM CLR M13/M21 A3036 620 55 -2700 330/10 RMK AO2
14926KSTC STC20060216204510102/16/06 20:45:31  5-MIN KSTC 170245Z AUTO 33008KT 10SM CLR M13/M21 A3036 620 55 -2700 330/08 RMK AO2
14926KSTC STC20060216205012402/16/06 20:50:31  5-MIN KSTC 170250Z AUTO 33008KT 10SM CLR M14/M21 A3036 620 57 -2800 320/08 RMK AO2 SLP315 T11391206 53027
14926KSTC STC20060216205510102/16/06 20:55:31  5-MIN KSTC 170255Z AUTO 33007KT 10SM CLR M14/M21 A3036 620 57 -2800 320/07 RMK AO2
14926KSTC STC20060216210010102/16/06 21:00:31  5-MIN KSTC 170300Z AUTO 33009KT 10SM CLR M14/M21 A3037 620 57 -2800 330/09 RMK AO2
14926KSTC STC20060216210510102/16/06 21:05:31  5-MIN KSTC 170305Z AUTO 32008KT 10SM CLR M14/M21 A3037 610 57 -2800 320/08 RMK AO2
14926KSTC STC20060216211010102/16/06 21:10:31  5-MIN KSTC 170310Z AUTO 33008KT 10SM CLR M14/M21 A3037 610 57 -2800 320/08 RMK AO2
14926KSTC STC20060216211510102/16/06 21:15:31  5-MIN KSTC 170315Z AUTO 33008KT 10SM CLR M14/M21 A3037 610 57 -2800 330/08 RMK AO2
14926KSTC STC20060216212010102/16/06 21:20:31  5-MIN KSTC 170320Z AUTO 33010KT 10SM CLR M14/M21 A3037 610 57 -2800 330/10 RMK AO2
14926KSTC STC20060216212510102/16/06 21:25:31  5-MIN KSTC 170325Z AUTO 33007KT 10SM CLR M14/M21 A3038 610 57 -2800 330/07 RMK AO2
14926KSTC STC20060216213010102/16/06 21:30:31  5-MIN KSTC 170330Z AUTO 33008KT 10SM CLR M14/M21 A3038 610 57 -2800 330/08 RMK AO2
14926KSTC STC20060216213510102/16/06 21:35:31  5-MIN KSTC 170335Z AUTO 33007KT 10SM CLR M14/M21 A3038 600 60 -2900 330/07 RMK AO2
14926KSTC STC20060216214010102/16/06 21:40:31  5-MIN KSTC 170340Z AUTO 33007KT 10SM CLR M14/M21 A3038 600 60 -2900 330/07 RMK AO2
14926KSTC STC20060216214510102/16/06 21:45:31  5-MIN KSTC 170345Z AUTO 33007KT 10SM CLR M14/M21 A3039 600 60 -2900 330/07 RMK AO2
14926KSTC STC20060216215011802/16/06 21:50:31  5-MIN KSTC 170350Z AUTO 33007KT 10SM CLR M14/M21 A3039 600 57 -2900 330/07 RMK AO2 SLP325 T11441211
14926KSTC STC20060216215510102/16/06 21:55:31  5-MIN KSTC 170355Z AUTO 33009KT 10SM CLR M14/M21 A3039 590 57 -2900 330/09 RMK AO2
14926KSTC STC20060216220010102/16/06 22:00:31  5-MIN KSTC 170400Z AUTO 33008KT 10SM CLR M14/M21 A3040 590 57 -2900 330/08 RMK AO2
14926KSTC STC20060216220510102/16/06 22:05:31  5-MIN KSTC 170405Z AUTO 33009KT 10SM CLR M14/M21 A3040 590 57 -2900 330/09 RMK AO2
14926KSTC STC20060216221010102/16/06 22:10:31  5-MIN KSTC 170410Z AUTO 34008KT 10SM CLR M14/M21 A3040 580 57 -2900 330/08 RMK AO2
14926KSTC STC20060216221510102/16/06 22:15:31  5-MIN KSTC 170415Z AUTO 33008KT 10SM CLR M15/M21 A3040 580 60 -3000 330/08 RMK AO2
14926KSTC STC20060216222010102/16/06 22:20:31  5-MIN KSTC 170420Z AUTO 33007KT 10SM CLR M14/M21 A3040 580 57 -2900 330/07 RMK AO2
14926KSTC STC20060216222510102/16/06 22:25:31  5-MIN KSTC 170425Z AUTO 33007KT 10SM CLR M15/M21 A3041 580 60 -3000 320/07 RMK AO2
14926KSTC STC20060216223010102/16/06 22:30:31  5-MIN KSTC 170430Z AUTO 33006KT 10SM CLR M15/M21 A3041 580 60 -3000 320/06 RMK AO2
14926KSTC STC20060216223510102/16/06 22:35:31  5-MIN KSTC 170435Z AUTO 33007KT 10SM CLR M15/M21 A3041 580 60 -3000 320/07 RMK AO2
14926KSTC STC20060216224010102/16/06 22:40:31  5-MIN KSTC 170440Z AUTO 33006KT 10SM CLR M15/M21 A3041 570 60 -3000 330/06 RMK AO2
14926KSTC STC20060216224510102/16/06 22:45:31  5-MIN KSTC 170445Z AUTO 33008KT 10SM CLR M16/M21 A3041 580 63 -3100 330/08 RMK AO2
14926KSTC STC20060216225011802/16/06 22:50:31  5-MIN KSTC 170450Z AUTO 33007KT 10SM CLR M16/M22 A3041 570 60 -3100 320/07 RMK AO2 SLP334 T11561217
14926KSTC STC20060216225510102/16/06 22:55:31  5-MIN KSTC 170455Z AUTO 33007KT 10SM CLR M16/M21 A3042 570 63 -3100 320/07 RMK AO2
14926KSTC STC20060216230009602/16/06 23:00:31  5-MIN KSTC 170500Z 33008KT 10SM CLR M16/M21 A3042 570 63 -3100 320/08 RMK AO2
14926KSTC STC20060216230509602/16/06 23:05:31  5-MIN KSTC 170505Z 33008KT 10SM CLR M16/M22 A3042 570 60 -3100 320/08 RMK AO2
14926KSTC STC20060216231009602/16/06 23:10:31  5-MIN KSTC 170510Z 33008KT 10SM CLR M16/M22 A3042 570 60 -3100 330/08 RMK AO2
14926KSTC STC20060216231509602/16/06 23:15:31  5-MIN KSTC 170515Z 33008KT 10SM CLR M16/M22 A3042 560 60 -3100 320/08 RMK AO2
14926KSTC STC20060216232009602/16/06 23:20:31  5-MIN KSTC 170520Z 33008KT 10SM CLR M16/M22 A3043 560 60 -3100 320/08 RMK AO2
14926KSTC STC20060216232509602/16/06 23:25:31  5-MIN KSTC 170525Z 33008KT 10SM CLR M16/M22 A3043 560 60 -3100 320/08 RMK AO2
14926KSTC STC20060216233009602/16/06 23:30:31  5-MIN KSTC 170530Z 32008KT 10SM CLR M16/M22 A3043 560 60 -3100 320/08 RMK AO2
14926KSTC STC20060216233509602/16/06 23:35:31  5-MIN KSTC 170535Z 32009KT 10SM CLR M16/M22 A3043 550 60 -3100 320/09 RMK AO2
14926KSTC STC20060216234009602/16/06 23:40:31  5-MIN KSTC 170540Z 33009KT 10SM CLR M16/M22 A3044 550 60 -3100 320/09 RMK AO2
14926KSTC STC20060216234509602/16/06 23:45:31  5-MIN KSTC 170545Z 33008KT 10SM CLR M16/M22 A3044 550 60 -3100 320/08 RMK AO2
14926KSTC STC20060216235014102/16/06 23:50:31  5-MIN KSTC 170550Z 33010KT 10SM CLR M16/M22 A3044 550 60 -3100 330/10 RMK AO2 SLP342 T11561217 11111 21156 411001172 51031
14926KSTC STC20060216235509602/16/06 23:55:31  5-MIN KSTC 170555Z 33008KT 10SM CLR M16/M22 A3044 550 60 -3100 330/08 RMK AO2
14926KSTC STC20060217000009602/17/06 00:00:32  5-MIN KSTC 170600Z 33008KT 10SM CLR M16/M22 A3044 550 63 -3200 330/08 RMK AO2
14926KSTC STC20060217000509602/17/06 00:05:31  5-MIN KSTC 170605Z 33009KT 10SM CLR M16/M22 A3045 540 63 -3200 320/09 RMK AO2
14926KSTC STC20060217001009602/17/06 00:10:31  5-MIN KSTC 170610Z 32009KT 10SM CLR M16/M22 A3045 540 60 -3200 320/09 RMK AO2
14926KSTC STC20060217001509602/17/06 00:15:31  5-MIN KSTC 170615Z 32010KT 10SM CLR M16/M22 A3045 540 60 -3200 320/10 RMK AO2
14926KSTC STC20060217002009602/17/06 00:20:31  5-MIN KSTC 170620Z 33009KT 10SM CLR M16/M22 A3046 530 57 -3100 320/09 RMK AO2
14926KSTC STC20060217002509602/17/06 00:25:31  5-MIN KSTC 170625Z 33010KT 10SM CLR M16/M22 A3046 530 60 -3200 320/10 RMK AO2
14926KSTC STC20060217003009602/17/06 00:30:31  5-MIN KSTC 170630Z 33009KT 10SM CLR M16/M22 A3046 530 60 -3200 330/09 RMK AO2
14926KSTC STC20060217003509602/17/06 00:35:31  5-MIN KSTC 170635Z 33009KT 10SM CLR M16/M22 A3046 530 60 -3200 330/09 RMK AO2
14926KSTC STC20060217004009602/17/06 00:40:31  5-MIN KSTC 170640Z 32011KT 10SM CLR M16/M22 A3047 520 60 -3200 320/11 RMK AO2
14926KSTC STC20060217004509602/17/06 00:45:31  5-MIN KSTC 170645Z 32012KT 10SM CLR M16/M22 A3047 520 60 -3200 320/12 RMK AO2
14926KSTC STC20060217005011302/17/06 00:50:31  5-MIN KSTC 170650Z 32012KT 10SM CLR M16/M22 A3047 520 60 -3200 320/12 RMK AO2 SLP353 T11611222
14926KSTC STC20060217005509602/17/06 00:55:31  5-MIN KSTC 170655Z 32011KT 10SM CLR M16/M22 A3047 520 60 -3200 320/11 RMK AO2
14926KSTC STC20060217010009602/17/06 01:00:31  5-MIN KSTC 170700Z 32012KT 10SM CLR M16/M22 A3048 510 60 -3200 320/12 RMK AO2
14926KSTC STC20060217010509602/17/06 01:05:31  5-MIN KSTC 170705Z 32011KT 10SM CLR M17/M22 A3048 510 63 -3300 310/11 RMK AO2
14926KSTC STC20060217011009602/17/06 01:10:31  5-MIN KSTC 170710Z 32012KT 10SM CLR M17/M22 A3048 510 63 -3300 320/12 RMK AO2
14926KSTC STC20060217011509602/17/06 01:15:31  5-MIN KSTC 170715Z 32012KT 10SM CLR M17/M22 A3049 500 63 -3300 310/12 RMK AO2
14926KSTC STC20060217012009602/17/06 01:20:31  5-MIN KSTC 170720Z 31012KT 10SM CLR M17/M22 A3050 500 63 -3300 310/12 RMK AO2
14926KSTC STC20060217012509602/17/06 01:25:31  5-MIN KSTC 170725Z 32012KT 10SM CLR M17/M23 A3050 490 60 -3300 320/12 RMK AO2
14926KSTC STC20060217013009602/17/06 01:30:31  5-MIN KSTC 170730Z 32012KT 10SM CLR M17/M23 A3050 490 60 -3300 310/12 RMK AO2
14926KSTC STC20060217013509602/17/06 01:35:31  5-MIN KSTC 170735Z 31012KT 10SM CLR M17/M23 A3051 490 60 -3300 310/12 RMK AO2
14926KSTC STC20060217014009602/17/06 01:40:31  5-MIN KSTC 170740Z 32013KT 10SM CLR M17/M23 A3051 490 60 -3300 320/13 RMK AO2
14926KSTC STC20060217014509602/17/06 01:45:31  5-MIN KSTC 170745Z 32012KT 10SM CLR M17/M23 A3051 490 60 -3300 320/12 RMK AO2
14926KSTC STC20060217015011302/17/06 01:50:31  5-MIN KSTC 170750Z 32013KT 10SM CLR M17/M23 A3051 480 60 -3300 320/13 RMK AO2 SLP367 T11671228
14926KSTC STC20060217015509602/17/06 01:55:31  5-MIN KSTC 170755Z 32012KT 10SM CLR M17/M23 A3052 480 57 -3300 320/12 RMK AO2
14926KSTC STC20060217020009902/17/06 02:00:31  5-MIN KSTC 170800Z 32012KT 10SM FEW047 M17/M23 A3052 480 57 -3300 320/12 RMK AO2
14926KSTC STC20060217020509902/17/06 02:05:31  5-MIN KSTC 170805Z 32011KT 10SM SCT047 M17/M23 A3052 470 57 -3300 320/11 RMK AO2
14926KSTC STC20060217021010502/17/06 02:10:31  5-MIN KSTC 170810Z 31017G20KT 10SM BKN047 M17/M23 A3053 470 62 -3400 310/17G20 RMK AO2
14926KSTC STC20060217021510502/17/06 02:15:31  5-MIN KSTC 170815Z 31016G20KT 10SM BKN049 M18/M23 A3053 470 65 -3500 310/16G20 RMK AO2
14926KSTC STC20060217022009902/17/06 02:20:31  5-MIN KSTC 170820Z 32013KT 10SM BKN049 M18/M23 A3053 470 65 -3500 310/13 RMK AO2
14926KSTC STC20060217022509902/17/06 02:25:31  5-MIN KSTC 170825Z 32014KT 10SM OVC049 M18/M23 A3053 460 65 -3500 310/14 RMK AO2
14926KSTC STC20060217023010602/17/06 02:30:31  5-MIN KSTC 170830Z 31019KT 10SM FEW035 OVC047 M18/M23 A3054 460 68 -3600 310/19 RMK AO2
14926KSTC STC20060217023510602/17/06 02:35:31  5-MIN KSTC 170835Z 32016KT 10SM SCT035 OVC047 M19/M23 A3054 460 68 -3700 320/16 RMK AO2
14926KSTC STC20060217024010602/17/06 02:40:31  5-MIN KSTC 170840Z 31014KT 10SM BKN033 OVC047 M19/M23 A3054 460 68 -3700 310/14 RMK AO2
14926KSTC STC20060217024510502/17/06 02:45:31  5-MIN KSTC 170845Z 31015KT 9SM BKN033 BKN047 M19/M23 A3055 450 72 -3700 300/15 RMK AO2
14926KSTC STC20060217025012802/17/06 02:50:31  5-MIN KSTC 170850Z 30017KT 9SM SCT033 BKN045 M19/M23 A3055 450 72 -3800 300/17 RMK AO2 SLP383 T11941233 51025
14926KSTC STC20060217025511102/17/06 02:55:31  5-MIN KSTC 170855Z 31017G22KT 9SM SCT033 SCT045 M19/M24 A3056 440 68 -3800 310/17G22 RMK AO2
14926KSTC STC20060217030010502/17/06 03:00:31  5-MIN KSTC 170900Z 30015G22KT 10SM SCT033 M20/M24 A3056 440 71 -3800 300/15G22 RMK AO2
14926KSTC STC20060217030509902/17/06 03:05:31  5-MIN KSTC 170905Z 31015KT 10SM FEW033 M20/M24 A3055 450 71 -3800 300/15 RMK AO2
14926KSTC STC20060217031009602/17/06 03:10:31  5-MIN KSTC 170910Z 31016KT 10SM CLR M20/M24 A3056 440 68 -3800 310/16 RMK AO2
14926KSTC STC20060217031509602/17/06 03:15:31  5-MIN KSTC 170915Z 31017KT 10SM CLR M20/M24 A3056 440 68 -3800 310/17 RMK AO2
14926KSTC STC20060217032009602/17/06 03:20:31  5-MIN KSTC 170920Z 31016KT 10SM CLR M21/M25 A3056 440 68 -3900 310/16 RMK AO2
14926KSTC STC20060217032509602/17/06 03:25:31  5-MIN KSTC 170925Z 31016KT 10SM CLR M21/M25 A3056 440 68 -3900 300/16 RMK AO2
14926KSTC STC20060217033009602/17/06 03:30:31  5-MIN KSTC 170930Z 31019KT 10SM CLR M21/M25 A3057 430 68 -3900 310/19 RMK AO2
14926KSTC STC20060217033509602/17/06 03:35:31  5-MIN KSTC 170935Z 31019KT 10SM CLR M21/M25 A3057 430 68 -3900 310/19 RMK AO2
14926KSTC STC20060217034009902/17/06 03:40:31  5-MIN KSTC 170940Z 31018KT 10SM FEW033 M21/M26 A3057 430 68 -4000 310/18 RMK AO2
14926KSTC STC20060217034510202/17/06 03:45:31  5-MIN KSTC 170945Z 31016G24KT 10SM CLR M21/M26 A3058 420 68 -4000 300/16G24 RMK AO2
14926KSTC STC20060217035011902/17/06 03:50:31  5-MIN KSTC 170950Z 30018G24KT 10SM CLR M21/M26 A3058 420 68 -4000 300/18G24 RMK AO2 SLP393 T12111256
14926KSTC STC20060217035510202/17/06 03:55:31  5-MIN KSTC 170955Z 30016G24KT 10SM CLR M22/M26 A3058 420 68 -4100 300/16G24 RMK AO2
14926KSTC STC20060217040010202/17/06 04:00:31  5-MIN KSTC 171000Z 30019G23KT 10SM CLR M22/M26 A3058 420 68 -4100 300/19G23 RMK AO2
14926KSTC STC20060217040509602/17/06 04:05:31  5-MIN KSTC 171005Z 30019KT 10SM CLR M22/M27 A3059 420 68 -4200 300/19 RMK AO2
14926KSTC STC20060217041009602/17/06 04:10:31  5-MIN KSTC 171010Z 31019KT 10SM CLR M22/M27 A3059 410 68 -4200 310/19 RMK AO2
14926KSTC STC20060217041509602/17/06 04:15:31  5-MIN KSTC 171015Z 31018KT 10SM CLR M22/M27 A3059 410 68 -4200 300/18 RMK AO2
14926KSTC STC20060217042009602/17/06 04:20:31  5-MIN KSTC 171020Z 31018KT 10SM CLR M22/M27 A3060 410 68 -4200 300/18 RMK AO2
14926KSTC STC20060217042509602/17/06 04:25:31  5-MIN KSTC 171025Z 32018KT 10SM CLR M22/M27 A3059 410 64 -4200 320/18 RMK AO2
14926KSTC STC20060217043009602/17/06 04:30:31  5-MIN KSTC 171030Z 32018KT 10SM CLR M23/M27 A3060 410 68 -4300 310/18 RMK AO2
14926KSTC STC20060217043509602/17/06 04:35:31  5-MIN KSTC 171035Z 31013KT 10SM CLR M23/M27 A3060 400 68 -4300 310/13 RMK AO2
14926KSTC STC20060217044009602/17/06 04:40:31  5-MIN KSTC 171040Z 32015KT 10SM CLR M23/M27 A3060 400 68 -4300 310/15 RMK AO2
14926KSTC STC20060217044509602/17/06 04:45:31  5-MIN KSTC 171045Z 32015KT 10SM CLR M23/M27 A3060 400 68 -4300 320/15 RMK AO2
14926KSTC STC20060217045011302/17/06 04:50:31  5-MIN KSTC 171050Z 31016KT 10SM CLR M23/M28 A3061 390 64 -4300 310/16 RMK AO2 SLP405 T12281278
14926KSTC STC20060217045509602/17/06 04:55:31  5-MIN KSTC 171055Z 31014KT 10SM CLR M23/M28 A3061 390 64 -4300 310/14 RMK AO2
14926KSTC STC20060217050009602/17/06 05:00:31  5-MIN KSTC 171100Z 31014KT 10SM CLR M23/M28 A3061 390 64 -4300 310/14 RMK AO2
14926KSTC STC20060217050509602/17/06 05:05:31  5-MIN KSTC 171105Z 31015KT 10SM CLR M23/M28 A3062 390 64 -4300 310/15 RMK AO2
14926KSTC STC20060217051009602/17/06 05:10:31  5-MIN KSTC 171110Z 31016KT 10SM CLR M23/M28 A3062 380 64 -4300 300/16 RMK AO2
14926KSTC STC20060217051509602/17/06 05:15:31  5-MIN KSTC 171115Z 31015KT 10SM CLR M23/M28 A3063 380 64 -4400 310/15 RMK AO2
14926KSTC STC20060217052009602/17/06 05:20:31  5-MIN KSTC 171120Z 32017KT 10SM CLR M23/M28 A3063 380 64 -4400 310/17 RMK AO2
14926KSTC STC20060217052509602/17/06 05:25:31  5-MIN KSTC 171125Z 31014KT 10SM CLR M23/M28 A3064 370 64 -4400 310/14 RMK AO2
14926KSTC STC20060217053009602/17/06 05:30:31  5-MIN KSTC 171130Z 30017KT 10SM CLR M23/M28 A3064 370 64 -4400 300/17 RMK AO2
14926KSTC STC20060217053509602/17/06 05:35:31  5-MIN KSTC 171135Z 31018KT 10SM CLR M23/M29 A3064 360 61 -4400 310/18 RMK AO2
14926KSTC STC20060217054009602/17/06 05:40:31  5-MIN KSTC 171140Z 31015KT 10SM CLR M23/M29 A3065 360 61 -4400 310/15 RMK AO2
14926KSTC STC20060217054509602/17/06 05:45:31  5-MIN KSTC 171145Z 31014KT 10SM CLR M23/M29 A3065 360 61 -4400 300/14 RMK AO2
14926KSTC STC20060217055013702/17/06 05:50:31  5-MIN KSTC 171150Z 31017G21KT 10SM CLR M23/M29 A3065 360 61 -4400 300/17G21 RMK AO2 SLP418 T12331289 11156 21233 53038
14926KSTC STC20060217055510202/17/06 05:55:31  5-MIN KSTC 171155Z 32017G21KT 10SM CLR M24/M29 A3066 350 61 -4500 310/17G21 RMK AO2
14926KSTC STC20060217060009602/17/06 06:00:31  5-MIN KSTC 171200Z 31015KT 10SM CLR M24/M30 A3066 350 58 -4500 310/15 RMK AO2
14926KSTC STC20060217060510202/17/06 06:05:31  5-MIN KSTC 171205Z 31020G24KT 10SM CLR M24/M30 A3066 350 58 -4500 310/20G24 RMK AO2
14926KSTC STC20060217061010202/17/06 06:10:31  5-MIN KSTC 171210Z 31016G24KT 10SM CLR M24/M30 A3067 340 58 -4500 310/16G24 RMK AO2
14926KSTC STC20060217061509602/17/06 06:15:31  5-MIN KSTC 171215Z 30014KT 10SM CLR M24/M30 A3067 340 58 -4500 300/14 RMK AO2
14926KSTC STC20060217062010202/17/06 06:20:31  5-MIN KSTC 171220Z 31020G25KT 10SM CLR M24/M31 A3066 340 58 -4600 300/20G25 RMK AO2
14926KSTC STC20060217062510202/17/06 06:25:31  5-MIN KSTC 171225Z 31019G25KT 10SM CLR M24/M31 A3067 340 55 -4600 310/19G25 RMK AO2
14926KSTC STC20060217063009602/17/06 06:30:31  5-MIN KSTC 171230Z 32014KT 10SM CLR M24/M31 A3067 340 55 -4600 310/14 RMK AO2
14926KSTC STC20060217063509602/17/06 06:35:31  5-MIN KSTC 171235Z 31011KT 10SM CLR M24/M31 A3067 340 55 -4600 310/11 RMK AO2
14926KSTC STC20060217064012002/17/06 06:40:31  5-MIN KSTC 171240Z 31021G26KT 10SM CLR M24/M31 A3067 340 55 -4600 310/21G26 RMK AO2 PK WND 31026/1239
14926KSTC STC20060217064512002/17/06 06:45:31  5-MIN KSTC 171245Z 32018G26KT 10SM CLR M25/M31 A3067 340 57 -4700 320/18G26 RMK AO2 PK WND 31026/1239
14926KSTC STC20060217065013102/17/06 06:50:31  5-MIN KSTC 171250Z 32014KT 10SM CLR M25/M31 A3068 330 57 -4700 310/14 RMK AO2 PK WND 31026/1239 SLP428 T12501311
14926KSTC STC20060217065510202/17/06 06:55:31  5-MIN KSTC 171255Z 32015G21KT 10SM CLR M25/M31 A3068 330 57 -4700 320/15G21 RMK AO2
14926KSTC STC20060217070010202/17/06 07:00:31  5-MIN KSTC 171300Z 31016G21KT 10SM CLR M25/M32 A3068 330 55 -4700 310/16G21 RMK AO2
14926KSTC STC20060217070509602/17/06 07:05:31  5-MIN KSTC 171305Z 30021KT 10SM CLR M25/M32 A3068 330 55 -4700 300/21 RMK AO2
14926KSTC STC20060217071010202/17/06 07:10:31  5-MIN KSTC 171310Z 31019G25KT 10SM CLR M25/M32 A3068 330 55 -4700 310/19G25 RMK AO2
14926KSTC STC20060217071510202/17/06 07:15:31  5-MIN KSTC 171315Z 32019G25KT 10SM CLR M26/M32 A3068 330 57 -4800 310/19G25 RMK AO2
14926KSTC STC20060217072009602/17/06 07:20:31  5-MIN KSTC 171320Z 32017KT 10SM CLR M26/M32 A3069 320 54 -4800 320/17 RMK AO2
14926KSTC STC20060217072509602/17/06 07:25:31  5-MIN KSTC 171325Z 32015KT 10SM CLR M26/M32 A3069 320 54 -4800 310/15 RMK AO2
14926KSTC STC20060217073009602/17/06 07:30:31  5-MIN KSTC 171330Z 30021KT 10SM CLR M26/M32 A3069 320 57 -4800 300/21 RMK AO2
14926KSTC STC20060217073509602/17/06 07:35:31  5-MIN KSTC 171335Z 31018KT 10SM CLR M26/M32 A3069 320 57 -4800 310/18 RMK AO2
14926KSTC STC20060217074009602/17/06 07:40:31  5-MIN KSTC 171340Z 31016KT 10SM CLR M26/M32 A3069 320 57 -4800 310/16 RMK AO2
14926KSTC STC20060217074509602/17/06 07:45:31  5-MIN KSTC 171345Z 31021KT 10SM CLR M26/M32 A3069 320 60 -4900 310/21 RMK AO2
14926KSTC STC20060217075013702/17/06 07:50:31  5-MIN KSTC 171350Z 32018G26KT 10SM CLR M26/M32 A3070 310 60 -4900 310/18G26 RMK AO2 PK WND 31026/1347 SLP437 T12611317
14926KSTC STC20060217075510202/17/06 07:55:31  5-MIN KSTC 171355Z 32018G26KT 10SM CLR M26/M32 A3070 310 60 -4900 310/18G26 RMK AO2
14926KSTC STC20060217080010202/17/06 08:00:31  5-MIN KSTC 171400Z 31020G25KT 10SM CLR M26/M32 A3071 310 60 -4900 310/20G25 RMK AO2
14926KSTC STC20060217080509602/17/06 08:05:31  5-MIN KSTC 171405Z 32019KT 10SM CLR M26/M32 A3070 310 60 -4900 320/19 RMK AO2
14926KSTC STC20060217081010202/17/06 08:10:31  5-MIN KSTC 171410Z 31016G24KT 10SM CLR M26/M32 A3071 300 60 -4900 310/16G24 RMK AO2
14926KSTC STC20060217081509602/17/06 08:15:31  5-MIN KSTC 171415Z 31020KT 10SM CLR M26/M32 A3071 300 60 -4900 310/20 RMK AO2
14926KSTC STC20060217082010202/17/06 08:20:31  5-MIN KSTC 171420Z 32018G25KT 10SM CLR M26/M32 A3072 300 60 -4900 320/18G25 RMK AO2
14926KSTC STC20060217082510202/17/06 08:25:31  5-MIN KSTC 171425Z 32017G25KT 10SM CLR M26/M32 A3072 300 57 -4900 320/17G25 RMK AO2
14926KSTC STC20060217083009602/17/06 08:30:31  5-MIN KSTC 171430Z 32016KT 10SM CLR M26/M32 A3072 290 60 -4900 310/16 RMK AO2
14926KSTC STC20060217083509602/17/06 08:35:31  5-MIN KSTC 171435Z 31015KT 10SM CLR M26/M32 A3072 290 60 -4900 310/15 RMK AO2
14926KSTC STC20060217084009602/17/06 08:40:31  5-MIN KSTC 171440Z 31016KT 10SM CLR M26/M32 A3073 290 57 -4800 310/16 RMK AO2
14926KSTC STC20060217084510202/17/06 08:45:31  5-MIN KSTC 171445Z 32017G22KT 10SM CLR M26/M32 A3073 280 57 -4800 320/17G22 RMK AO2
14926KSTC STC20060217085012502/17/06 08:50:31  5-MIN KSTC 171450Z 31016G22KT 10SM CLR M26/M32 A3073 290 57 -4800 310/16G22 RMK AO2 SLP448 T12561317 53033
14926KSTC STC20060217085510202/17/06 08:55:31  5-MIN KSTC 171455Z 32018G23KT 10SM CLR M26/M32 A3073 290 57 -4800 310/18G23 RMK AO2
14926KSTC STC20060217090010202/17/06 09:00:31  5-MIN KSTC 171500Z 31020G23KT 10SM CLR M26/M31 A3073 290 60 -4800 310/20G23 RMK AO2
14926KSTC STC20060217090509602/17/06 09:05:31  5-MIN KSTC 171505Z 31019KT 10SM CLR M26/M32 A3073 290 57 -4800 310/19 RMK AO2
14926KSTC STC20060217091009602/17/06 09:10:31  5-MIN KSTC 171510Z 32020KT 10SM CLR M26/M32 A3073 290 57 -4800 310/20 RMK AO2
14926KSTC STC20060217091509602/17/06 09:15:31  5-MIN KSTC 171515Z 31020KT 10SM CLR M26/M32 A3072 290 57 -4800 310/20 RMK AO2
14926KSTC STC20060217092009602/17/06 09:20:31  5-MIN KSTC 171520Z 31020KT 10SM CLR M26/M32 A3073 290 57 -4800 310/20 RMK AO2
14926KSTC STC20060217092509602/17/06 09:25:31  5-MIN KSTC 171525Z 31020KT 10SM CLR M26/M32 A3073 290 57 -4800 310/20 RMK AO2
14926KSTC STC20060217093009602/17/06 09:30:31  5-MIN KSTC 171530Z 31017KT 10SM CLR M26/M31 A3073 290 60 -4800 310/17 RMK AO2
14926KSTC STC20060217093509602/17/06 09:35:31  5-MIN KSTC 171535Z 32017KT 10SM CLR M26/M32 A3073 280 57 -4800 310/17 RMK AO2
14926KSTC STC20060217094010202/17/06 09:40:31  5-MIN KSTC 171540Z 31016G22KT 10SM CLR M25/M31 A3073 280 57 -4700 310/16G22 RMK AO2
14926KSTC STC20060217094510202/17/06 09:45:31  5-MIN KSTC 171545Z 31015G23KT 10SM CLR M25/M31 A3073 280 57 -4700 300/15G23 RMK AO2
14926KSTC STC20060217095011902/17/06 09:50:31  5-MIN KSTC 171550Z 31016G23KT 10SM CLR M25/M32 A3073 280 55 -4700 300/16G23 RMK AO2 SLP449 T12501317
14926KSTC STC20060217095509602/17/06 09:55:31  5-MIN KSTC 171555Z 31017KT 10SM CLR M25/M32 A3073 280 55 -4700 310/17 RMK AO2
14926KSTC STC20060217100009602/17/06 10:00:31  5-MIN KSTC 171600Z 30019KT 10SM CLR M25/M32 A3073 280 55 -4700 300/19 RMK AO2
14926KSTC STC20060217100509602/17/06 10:05:31  5-MIN KSTC 171605Z 31017KT 10SM CLR M25/M31 A3074 280 57 -4700 310/17 RMK AO2
14926KSTC STC20060217101009602/17/06 10:10:31  5-MIN KSTC 171610Z 31017KT 10SM CLR M25/M31 A3074 280 57 -4700 310/17 RMK AO2
14926KSTC STC20060217101509602/17/06 10:15:31  5-MIN KSTC 171615Z 32020KT 10SM CLR M25/M32 A3074 280 55 -4700 310/20 RMK AO2
14926KSTC STC20060217102009602/17/06 10:20:31  5-MIN KSTC 171620Z 31020KT 10SM CLR M25/M32 A3074 280 55 -4700 310/20 RMK AO2
14926KSTC STC20060217102509602/17/06 10:25:31  5-MIN KSTC 171625Z 31019KT 10SM CLR M25/M32 A3074 280 55 -4700 300/19 RMK AO2
14926KSTC STC20060217103009602/17/06 10:30:31  5-MIN KSTC 171630Z 31016KT 10SM CLR M25/M32 A3074 280 55 -4700 300/16 RMK AO2
14926KSTC STC20060217103509602/17/06 10:35:31  5-MIN KSTC 171635Z 30017KT 10SM CLR M24/M32 A3074 280 52 -4700 300/17 RMK AO2
14926KSTC STC20060217104009602/17/06 10:40:31  5-MIN KSTC 171640Z 31019KT 10SM CLR M24/M32 A3074 280 52 -4700 300/19 RMK AO2
14926KSTC STC20060217104509602/17/06 10:45:31  5-MIN KSTC 171645Z 32019KT 10SM CLR M24/M32 A3074 270 52 -4700 310/19 RMK AO2
14926KSTC STC20060217105011902/17/06 10:50:31  5-MIN KSTC 171650Z 32015G23KT 10SM CLR M24/M32 A3074 280 52 -4700 320/15G23 RMK AO2 SLP452 T12441317
14926KSTC STC20060217105509602/17/06 10:55:31  5-MIN KSTC 171655Z 31015KT 10SM CLR M24/M32 A3074 280 52 -4700 300/15 RMK AO2
14926KSTC STC20060217110009602/17/06 11:00:31  5-MIN KSTC 171700Z 31017KT 10SM CLR M24/M31 A3074 280 55 -4700 300/17 RMK AO2
14926KSTC STC20060217110510202/17/06 11:05:31  5-MIN KSTC 171705Z 31017G23KT 10SM CLR M24/M31 A3074 280 55 -4700 300/17G23 RMK AO2
14926KSTC STC20060217111010202/17/06 11:10:31  5-MIN KSTC 171710Z 31015G23KT 10SM CLR M24/M31 A3074 280 55 -4700 310/15G23 RMK AO2
14926KSTC STC20060217111509602/17/06 11:15:31  5-MIN KSTC 171715Z 30016KT 10SM CLR M24/M31 A3075 270 55 -4700 290/16 RMK AO2
14926KSTC STC20060217112009602/17/06 11:20:31  5-MIN KSTC 171720Z 30017KT 10SM CLR M24/M31 A3075 270 55 -4700 300/17 RMK AO2
14926KSTC STC20060217112509602/17/06 11:25:31  5-MIN KSTC 171725Z 30016KT 10SM CLR M24/M31 A3075 270 55 -4700 290/16 RMK AO2
14926KSTC STC20060217113010202/17/06 11:30:31  5-MIN KSTC 171730Z 31017G20KT 10SM CLR M24/M31 A3075 270 52 -4600 310/17G20 RMK AO2
14926KSTC STC20060217113510202/17/06 11:35:31  5-MIN KSTC 171735Z 31014G20KT 10SM CLR M24/M31 A3075 270 55 -4700 310/14G20 RMK AO2
14926KSTC STC20060217114010202/17/06 11:40:31  5-MIN KSTC 171740Z 30018G21KT 10SM CLR M24/M31 A3075 270 55 -4700 290/18G21 RMK AO2
14926KSTC STC20060217114510202/17/06 11:45:31  5-MIN KSTC 171745Z 30017G21KT 10SM CLR M24/M31 A3075 270 55 -4700 290/17G21 RMK AO2
14926KSTC STC20060217115013102/17/06 11:50:31  5-MIN KSTC 171750Z 30015KT 10SM CLR M24/M31 A3075 260 52 -4600 290/15 RMK AO2 SLP457 T12391311 11233 21261 53024
14926KSTC STC20060217115509602/17/06 11:55:31  5-MIN KSTC 171755Z 30017KT 10SM CLR M24/M31 A3075 260 52 -4600 290/17 RMK AO2
14926KSTC STC20060217120009602/17/06 12:00:31  5-MIN KSTC 171800Z 31016KT 10SM CLR M24/M31 A3076 260 52 -4600 310/16 RMK AO2
14926KSTC STC20060217120509602/17/06 12:05:31  5-MIN KSTC 171805Z 30015KT 10SM CLR M24/M31 A3076 260 52 -4600 300/15 RMK AO2
14926KSTC STC20060217121009602/17/06 12:10:31  5-MIN KSTC 171810Z 29015KT 10SM CLR M24/M31 A3075 260 52 -4600 290/15 RMK AO2
14926KSTC STC20060217121509602/17/06 12:15:31  5-MIN KSTC 171815Z 31016KT 10SM CLR M24/M31 A3075 270 55 -4600 300/16 RMK AO2
14926KSTC STC20060217122009602/17/06 12:20:31  5-MIN KSTC 171820Z 29017KT 10SM CLR M24/M31 A3075 260 52 -4600 290/17 RMK AO2
14926KSTC STC20060217122509602/17/06 12:25:31  5-MIN KSTC 171825Z 29016KT 10SM CLR M24/M31 A3075 270 52 -4600 290/16 RMK AO2
14926KSTC STC20060217123009602/17/06 12:30:31  5-MIN KSTC 171830Z 30017KT 10SM CLR M24/M31 A3075 270 52 -4600 300/17 RMK AO2
14926KSTC STC20060217123510202/17/06 12:35:31  5-MIN KSTC 171835Z 30018G23KT 10SM CLR M24/M31 A3075 270 55 -4600 290/18G23 RMK AO2
14926KSTC STC20060217124010202/17/06 12:40:31  5-MIN KSTC 171840Z 30016G23KT 10SM CLR M24/M31 A3075 270 52 -4600 300/16G23 RMK AO2
14926KSTC STC20060217124509602/17/06 12:45:31  5-MIN KSTC 171845Z 30013KT 10SM CLR M24/M31 A3075 270 55 -4600 300/13 RMK AO2
14926KSTC STC20060217125011902/17/06 12:50:31  5-MIN KSTC 171850Z 30018G22KT 10SM CLR M23/M31 A3075 270 52 -4500 300/18G22 RMK AO2 SLP453 T12331306
14926KSTC STC20060217125510202/17/06 12:55:31  5-MIN KSTC 171855Z 31018G24KT 10SM CLR M23/M31 A3074 270 52 -4500 300/18G24 RMK AO2
14926KSTC STC20060217130010202/17/06 13:00:31  5-MIN KSTC 171900Z 31015G24KT 10SM CLR M24/M31 A3074 270 55 -4600 300/15G24 RMK AO2
14926KSTC STC20060217130510202/17/06 13:05:31  5-MIN KSTC 171905Z 29018G23KT 10SM CLR M24/M31 A3074 280 52 -4600 290/18G23 RMK AO2
14926KSTC STC20060217131010202/17/06 13:10:31  5-MIN KSTC 171910Z 28015G23KT 10SM CLR M23/M31 A3074 280 52 -4500 280/15G23 RMK AO2
14926KSTC STC20060217131509602/17/06 13:15:31  5-MIN KSTC 171915Z 30014KT 10SM CLR M23/M31 A3074 280 52 -4500 300/14 RMK AO2
14926KSTC STC20060217132009602/17/06 13:20:31  5-MIN KSTC 171920Z 29016KT 10SM CLR M23/M31 A3074 280 52 -4500 290/16 RMK AO2
14926KSTC STC20060217132510202/17/06 13:25:31  5-MIN KSTC 171925Z 29016G21KT 10SM CLR M23/M31 A3074 280 52 -4500 290/16G21 RMK AO2
14926KSTC STC20060217133009602/17/06 13:30:31  5-MIN KSTC 171930Z 29017KT 10SM CLR M23/M31 A3074 280 52 -4500 290/17 RMK AO2
14926KSTC STC20060217133509602/17/06 13:35:31  5-MIN KSTC 171935Z 30014KT 10SM CLR M23/M31 A3074 280 52 -4500 300/14 RMK AO2
14926KSTC STC20060217134009602/17/06 13:40:31  5-MIN KSTC 171940Z 29014KT 10SM CLR M23/M31 A3074 280 52 -4500 280/14 RMK AO2
14926KSTC STC20060217134509602/17/06 13:45:31  5-MIN KSTC 171945Z 28016KT 10SM CLR M23/M31 A3074 280 52 -4500 280/16 RMK AO2
14926KSTC STC20060217135011902/17/06 13:50:31  5-MIN KSTC 171950Z 31016G22KT 10SM CLR M23/M31 A3074 280 52 -4500 300/16G22 RMK AO2 SLP452 T12331306
14926KSTC STC20060217135510202/17/06 13:55:31  5-MIN KSTC 171955Z 30015G22KT 10SM CLR M23/M31 A3074 280 52 -4500 300/15G22 RMK AO2
14926KSTC STC20060217140009602/17/06 14:00:31  5-MIN KSTC 172000Z 29014KT 10SM CLR M23/M31 A3073 280 52 -4500 280/14 RMK AO2
14926KSTC STC20060217140510202/17/06 14:05:31  5-MIN KSTC 172005Z 29016G22KT 10SM CLR M23/M31 A3073 280 52 -4500 290/16G22 RMK AO2
14926KSTC STC20060217141010202/17/06 14:10:31  5-MIN KSTC 172010Z 31015G22KT 10SM CLR M23/M31 A3073 280 52 -4500 310/15G22 RMK AO2
14926KSTC STC20060217141510202/17/06 14:15:31  5-MIN KSTC 172015Z 28019G24KT 10SM CLR M23/M31 A3073 280 52 -4500 280/19G24 RMK AO2
14926KSTC STC20060217142010202/17/06 14:20:31  5-MIN KSTC 172020Z 29019G24KT 10SM CLR M23/M31 A3073 280 50 -4500 290/19G24 RMK AO2
14926KSTC STC20060217142510202/17/06 14:25:31  5-MIN KSTC 172025Z 31016G22KT 10SM CLR M23/M31 A3073 290 50 -4500 310/16G22 RMK AO2
14926KSTC STC20060217143010202/17/06 14:30:31  5-MIN KSTC 172030Z 29014G22KT 10SM CLR M23/M31 A3073 290 52 -4500 290/14G22 RMK AO2
14926KSTC STC20060217143509602/17/06 14:35:31  5-MIN KSTC 172035Z 30015KT 10SM CLR M23/M31 A3073 290 52 -4500 300/15 RMK AO2
14926KSTC STC20060217144010502/17/06 14:40:31  5-MIN KSTC 172040Z 30018G22KT 10SM FEW026 M23/M31 A3073 290 52 -4500 300/18G22 RMK AO2
14926KSTC STC20060217144509902/17/06 14:45:31  5-MIN KSTC 172045Z 31017KT 10SM FEW026 M23/M31 A3072 290 52 -4500 310/17 RMK AO2
14926KSTC STC20060217145012802/17/06 14:50:31  5-MIN KSTC 172050Z 30014G21KT 10SM FEW026 M23/M31 A3072 290 50 -4500 300/14G21 RMK AO2 SLP448 T12331311 53010
14926KSTC STC20060217145510502/17/06 14:55:31  5-MIN KSTC 172055Z 29017G21KT 10SM FEW026 M23/M31 A3072 290 52 -4500 280/17G21 RMK AO2
14926KSTC STC20060217150009902/17/06 15:00:31  5-MIN KSTC 172100Z 29014KT 10SM FEW026 M23/M31 A3072 290 50 -4500 290/14 RMK AO2
14926KSTC STC20060217150509902/17/06 15:05:31  5-MIN KSTC 172105Z 30016KT 10SM FEW026 M23/M31 A3072 290 50 -4500 300/16 RMK AO2
14926KSTC STC20060217151009602/17/06 15:10:31  5-MIN KSTC 172110Z 28015KT 10SM CLR M23/M31 A3072 290 52 -4500 280/15 RMK AO2
14926KSTC STC20060217151509602/17/06 15:15:31  5-MIN KSTC 172115Z 29015KT 10SM CLR M23/M31 A3072 290 50 -4500 290/15 RMK AO2
14926KSTC STC20060217152010202/17/06 15:20:31  5-MIN KSTC 172120Z 29019G23KT 10SM CLR M23/M31 A3072 290 50 -4500 290/19G23 RMK AO2
14926KSTC STC20060217152510202/17/06 15:25:31  5-MIN KSTC 172125Z 30016G23KT 10SM CLR M23/M31 A3072 290 50 -4500 290/16G23 RMK AO2
14926KSTC STC20060217153009602/17/06 15:30:31  5-MIN KSTC 172130Z 30017KT 10SM CLR M23/M31 A3072 290 50 -4500 300/17 RMK AO2
14926KSTC STC20060217153510202/17/06 15:35:31  5-MIN KSTC 172135Z 28016G21KT 10SM CLR M23/M31 A3072 290 50 -4500 270/16G21 RMK AO2
14926KSTC STC20060217154010202/17/06 15:40:31  5-MIN KSTC 172140Z 28015G21KT 10SM CLR M23/M31 A3072 290 52 -4500 280/15G21 RMK AO2
14926KSTC STC20060217154509602/17/06 15:45:31  5-MIN KSTC 172145Z 30016KT 10SM CLR M23/M31 A3072 300 50 -4500 290/16 RMK AO2
14926KSTC STC20060217155011802/17/06 15:50:31  5-MIN KSTC 172150Z AUTO 30017KT 10SM CLR M23/M31 A3072 290 50 -4500 300/17 RMK AO2 SLP447 T12331311
14926KSTC STC20060217155510702/17/06 15:55:31  5-MIN KSTC 172155Z AUTO 29016G21KT 10SM CLR M23/M31 A3072 290 50 -4500 280/16G21 RMK AO2
14926KSTC STC20060217160010702/17/06 16:00:31  5-MIN KSTC 172200Z AUTO 28017G22KT 10SM CLR M23/M31 A3072 290 50 -4500 280/17G22 RMK AO2
14926KSTC STC20060217160510702/17/06 16:05:31  5-MIN KSTC 172205Z AUTO 29013G22KT 10SM CLR M23/M31 A3072 290 50 -4500 290/13G22 RMK AO2
14926KSTC STC20060217161010102/17/06 16:10:31  5-MIN KSTC 172210Z AUTO 29016KT 10SM CLR M24/M31 A3072 290 52 -4600 280/16 RMK AO2
14926KSTC STC20060217161510102/17/06 16:15:31  5-MIN KSTC 172215Z AUTO 29017KT 10SM CLR M24/M31 A3072 290 52 -4600 290/17 RMK AO2
14926KSTC STC20060217162010702/17/06 16:20:31  5-MIN KSTC 172220Z AUTO 29016G22KT 10SM CLR M24/M31 A3072 290 52 -4600 280/16G22 RMK AO2
14926KSTC STC20060217162510702/17/06 16:25:31  5-MIN KSTC 172225Z AUTO 30015G22KT 10SM CLR M24/M31 A3073 290 52 -4600 290/15G22 RMK AO2
14926KSTC STC20060217163010102/17/06 16:30:31  5-MIN KSTC 172230Z AUTO 28014KT 10SM CLR M24/M31 A3073 290 52 -4600 280/14 RMK AO2
14926KSTC STC20060217163510102/17/06 16:35:31  5-MIN KSTC 172235Z AUTO 28016KT 10SM CLR M24/M31 A3073 290 52 -4600 280/16 RMK AO2
14926KSTC STC20060217164010102/17/06 16:40:31  5-MIN KSTC 172240Z AUTO 29014KT 10SM CLR M24/M31 A3073 290 52 -4600 290/14 RMK AO2
14926KSTC STC20060217164510702/17/06 16:45:31  5-MIN KSTC 172245Z AUTO 30017G21KT 10SM CLR M24/M31 A3073 290 52 -4600 290/17G21 RMK AO2
14926KSTC STC20060217165012402/17/06 16:50:31  5-MIN KSTC 172250Z AUTO 30018G21KT 10SM CLR M24/M31 A3073 290 52 -4600 300/18G21 RMK AO2 SLP451 T12391311
14926KSTC STC20060217165510102/17/06 16:55:31  5-MIN KSTC 172255Z AUTO 29015KT 10SM CLR M24/M31 A3073 290 55 -4700 290/15 RMK AO2
14926KSTC STC20060217170010102/17/06 17:00:31  5-MIN KSTC 172300Z AUTO 28015KT 10SM CLR M24/M31 A3073 290 55 -4700 280/15 RMK AO2
14926KSTC STC20060217170510102/17/06 17:05:31  5-MIN KSTC 172305Z AUTO 28015KT 10SM CLR M24/M31 A3072 290 55 -4600 280/15 RMK AO2
14926KSTC STC20060217171010102/17/06 17:10:31  5-MIN KSTC 172310Z AUTO 29014KT 10SM CLR M24/M31 A3072 290 55 -4600 290/14 RMK AO2
14926KSTC STC20060217171510102/17/06 17:15:31  5-MIN KSTC 172315Z AUTO 28013KT 10SM CLR M24/M31 A3072 290 55 -4600 280/13 RMK AO2
14926KSTC STC20060217172010102/17/06 17:20:31  5-MIN KSTC 172320Z AUTO 28014KT 10SM CLR M24/M32 A3072 300 52 -4600 280/14 RMK AO2
14926KSTC STC20060217172510702/17/06 17:25:31  5-MIN KSTC 172325Z AUTO 29016G21KT 10SM CLR M24/M32 A3072 290 52 -4600 290/16G21 RMK AO2
14926KSTC STC20060217173010702/17/06 17:30:31  5-MIN KSTC 172330Z AUTO 30013G21KT 10SM CLR M24/M32 A3072 290 52 -4600 300/13G21 RMK AO2
14926KSTC STC20060217173510702/17/06 17:35:31  5-MIN KSTC 172335Z AUTO 29015G21KT 10SM CLR M24/M32 A3072 300 52 -4600 290/15G21 RMK AO2
14926KSTC STC20060217174010702/17/06 17:40:31  5-MIN KSTC 172340Z AUTO 28016G22KT 10SM CLR M24/M32 A3072 300 52 -4600 280/16G22 RMK AO2
14926KSTC STC20060217174510702/17/06 17:45:31  5-MIN KSTC 172345Z AUTO 28015G22KT 10SM CLR M25/M32 A3072 290 55 -4700 280/15G22 RMK AO2
14926KSTC STC20060217175013602/17/06 17:50:31  5-MIN KSTC 172350Z AUTO 29018KT 10SM CLR M25/M32 A3072 290 55 -4700 280/18 RMK AO2 SLP450 T12501317 11233 21250 58010
14926KSTC STC20060217175510102/17/06 17:55:31  5-MIN KSTC 172355Z AUTO 30015KT 10SM CLR M25/M32 A3072 290 55 -4700 300/15 RMK AO2
14926KSTC STC20060217180010102/17/06 18:00:31  5-MIN KSTC 180000Z AUTO 30016KT 10SM CLR M25/M32 A3073 290 55 -4700 300/16 RMK AO2
14926KSTC STC20060217180510102/17/06 18:05:31  5-MIN KSTC 180005Z AUTO 30015KT 10SM CLR M25/M32 A3073 290 55 -4700 290/15 RMK AO2
14926KSTC STC20060217181010102/17/06 18:10:31  5-MIN KSTC 180010Z AUTO 30016KT 10SM CLR M25/M32 A3073 280 52 -4700 300/16 RMK AO2
14926KSTC STC20060217181510102/17/06 18:15:31  5-MIN KSTC 180015Z AUTO 30016KT 10SM CLR M25/M32 A3073 280 52 -4700 290/16 RMK AO2
14926KSTC STC20060217182010102/17/06 18:20:31  5-MIN KSTC 180020Z AUTO 29015KT 10SM CLR M25/M32 A3074 280 52 -4700 290/15 RMK AO2
14926KSTC STC20060217182510702/17/06 18:25:31  5-MIN KSTC 180025Z AUTO 30015G21KT 10SM CLR M25/M32 A3074 280 55 -4700 290/15G21 RMK AO2
14926KSTC STC20060217183010102/17/06 18:30:31  5-MIN KSTC 180030Z AUTO 29013KT 10SM CLR M26/M32 A3074 280 57 -4800 280/13 RMK AO2
14926KSTC STC20060217183510102/17/06 18:35:31  5-MIN KSTC 180035Z AUTO 29015KT 10SM CLR M26/M32 A3074 280 57 -4800 280/15 RMK AO2
14926KSTC STC20060217184010102/17/06 18:40:31  5-MIN KSTC 180040Z AUTO 29016KT 10SM CLR M25/M32 A3074 270 55 -4800 290/16 RMK AO2
14926KSTC STC20060217184510102/17/06 18:45:31  5-MIN KSTC 180045Z AUTO 29015KT 10SM CLR M26/M32 A3074 270 57 -4800 290/15 RMK AO2
14926KSTC STC20060217185011802/17/06 18:50:31  5-MIN KSTC 180050Z AUTO 29015KT 10SM CLR M26/M32 A3075 270 57 -4800 290/15 RMK AO2 SLP460 T12561317
14926KSTC STC20060217185510702/17/06 18:55:31  5-MIN KSTC 180055Z AUTO 28011G18KT 10SM CLR M26/M32 A3075 270 57 -4800 280/11G18 RMK AO2
14926KSTC STC20060217190010102/17/06 19:00:31  5-MIN KSTC 180100Z AUTO 29011KT 10SM CLR M26/M32 A3075 270 57 -4800 290/11 RMK AO2
14926KSTC STC20060217190510102/17/06 19:05:31  5-MIN KSTC 180105Z AUTO 29011KT 10SM CLR M26/M32 A3075 270 57 -4800 290/11 RMK AO2
14926KSTC STC20060217191010102/17/06 19:10:31  5-MIN KSTC 180110Z AUTO 29009KT 10SM CLR M26/M32 A3075 270 57 -4800 290/09 RMK AO2
14926KSTC STC20060217191510702/17/06 19:15:31  5-MIN KSTC 180115Z AUTO 30013G18KT 10SM CLR M26/M32 A3075 270 57 -4800 290/13G18 RMK AO2
14926KSTC STC20060217192010702/17/06 19:20:31  5-MIN KSTC 180120Z AUTO 30013G18KT 10SM CLR M26/M32 A3075 270 57 -4800 290/13G18 RMK AO2
14926KSTC STC20060217192510102/17/06 19:25:31  5-MIN KSTC 180125Z AUTO 29012KT 10SM CLR M26/M32 A3075 270 57 -4800 290/12 RMK AO2
14926KSTC STC20060217193010102/17/06 19:30:31  5-MIN KSTC 180130Z AUTO 29012KT 10SM CLR M26/M32 A3075 270 57 -4800 290/12 RMK AO2
14926KSTC STC20060217193510102/17/06 19:35:31  5-MIN KSTC 180135Z AUTO 29013KT 10SM CLR M26/M32 A3075 270 57 -4800 290/13 RMK AO2
14926KSTC STC20060217194010102/17/06 19:40:31  5-MIN KSTC 180140Z AUTO 30011KT 10SM CLR M26/M32 A3075 270 57 -4800 300/11 RMK AO2
14926KSTC STC20060217194510102/17/06 19:45:31  5-MIN KSTC 180145Z AUTO 29010KT 10SM CLR M26/M32 A3075 270 57 -4800 290/10 RMK AO2
14926KSTC STC20060217195011802/17/06 19:50:31  5-MIN KSTC 180150Z AUTO 29011KT 10SM CLR M26/M32 A3074 270 57 -4800 290/11 RMK AO2 SLP460 T12561317
14926KSTC STC20060217195510102/17/06 19:55:31  5-MIN KSTC 180155Z AUTO 30012KT 10SM CLR M26/M32 A3074 270 57 -4800 290/12 RMK AO2
14926KSTC STC20060217200010102/17/06 20:00:31  5-MIN KSTC 180200Z AUTO 30010KT 10SM CLR M26/M32 A3074 270 57 -4800 300/10 RMK AO2
14926KSTC STC20060217200510102/17/06 20:05:31  5-MIN KSTC 180205Z AUTO 30011KT 10SM CLR M26/M32 A3074 280 57 -4800 290/11 RMK AO2
14926KSTC STC20060217201010102/17/06 20:10:31  5-MIN KSTC 180210Z AUTO 29011KT 10SM CLR M26/M32 A3074 280 57 -4800 290/11 RMK AO2
14926KSTC STC20060217201510102/17/06 20:15:31  5-MIN KSTC 180215Z AUTO 30011KT 10SM CLR M26/M32 A3074 280 57 -4800 290/11 RMK AO2
14926KSTC STC20060217202010102/17/06 20:20:31  5-MIN KSTC 180220Z AUTO 30010KT 10SM CLR M26/M32 A3074 280 60 -4900 290/10 RMK AO2
14926KSTC STC20060217202510102/17/06 20:25:31  5-MIN KSTC 180225Z AUTO 29009KT 10SM CLR M26/M32 A3074 280 60 -4900 290/09 RMK AO2
14926KSTC STC20060217203010102/17/06 20:30:31  5-MIN KSTC 180230Z AUTO 30009KT 10SM CLR M26/M32 A3074 280 60 -4900 290/09 RMK AO2
14926KSTC STC20060217203510102/17/06 20:35:31  5-MIN KSTC 180235Z AUTO 29009KT 10SM CLR M26/M32 A3074 280 60 -4900 290/09 RMK AO2
14926KSTC STC20060217204010102/17/06 20:40:31  5-MIN KSTC 180240Z AUTO 30008KT 10SM CLR M26/M32 A3074 280 60 -4900 300/08 RMK AO2
14926KSTC STC20060217204510102/17/06 20:45:31  5-MIN KSTC 180245Z AUTO 29008KT 10SM CLR M26/M32 A3074 280 60 -4900 290/08 RMK AO2
14926KSTC STC20060217205012402/17/06 20:50:31  5-MIN KSTC 180250Z AUTO 28007KT 10SM CLR M26/M32 A3074 280 60 -4900 280/07 RMK AO2 SLP458 T12611317 58001
14926KSTC STC20060217205510102/17/06 20:55:31  5-MIN KSTC 180255Z AUTO 29008KT 10SM CLR M26/M32 A3074 280 60 -4900 280/08 RMK AO2
14926KSTC STC20060217210010102/17/06 21:00:31  5-MIN KSTC 180300Z AUTO 29008KT 10SM CLR M26/M32 A3074 280 60 -4900 290/08 RMK AO2
14926KSTC STC20060217210510102/17/06 21:05:31  5-MIN KSTC 180305Z AUTO 28007KT 10SM CLR M26/M32 A3074 280 60 -4900 280/07 RMK AO2
14926KSTC STC20060217211010102/17/06 21:10:31  5-MIN KSTC 180310Z AUTO 29008KT 10SM CLR M26/M32 A3074 280 60 -4900 280/08 RMK AO2
14926KSTC STC20060217211510102/17/06 21:15:31  5-MIN KSTC 180315Z AUTO 29008KT 10SM CLR M26/M31 A3074 280 63 -4900 280/08 RMK AO2
14926KSTC STC20060217212010102/17/06 21:20:31  5-MIN KSTC 180320Z AUTO 28007KT 10SM CLR M26/M31 A3074 280 63 -4900 280/07 RMK AO2
14926KSTC STC20060217212510102/17/06 21:25:31  5-MIN KSTC 180325Z AUTO 27008KT 10SM CLR M26/M31 A3074 280 63 -4900 270/08 RMK AO2
14926KSTC STC20060217213010102/17/06 21:30:31  5-MIN KSTC 180330Z AUTO 27007KT 10SM CLR M26/M31 A3074 280 63 -4900 270/07 RMK AO2
14926KSTC STC20060217213510102/17/06 21:35:31  5-MIN KSTC 180335Z AUTO 28008KT 10SM CLR M26/M31 A3074 280 63 -4900 270/08 RMK AO2
14926KSTC STC20060217214010102/17/06 21:40:31  5-MIN KSTC 180340Z AUTO 28007KT 10SM CLR M26/M31 A3074 280 63 -4900 270/07 RMK AO2
14926KSTC STC20060217214510102/17/06 21:45:31  5-MIN KSTC 180345Z AUTO 26008KT 10SM CLR M26/M31 A3074 280 63 -4900 260/08 RMK AO2
14926KSTC STC20060217215011802/17/06 21:50:31  5-MIN KSTC 180350Z AUTO 24006KT 10SM CLR M26/M31 A3074 270 63 -4900 240/06 RMK AO2 SLP458 T12611311
14926KSTC STC20060217215510102/17/06 21:55:31  5-MIN KSTC 180355Z AUTO 25006KT 10SM CLR M27/M32 A3074 280 63 -5000 250/06 RMK AO2
14926KSTC STC20060217220010102/17/06 22:00:31  5-MIN KSTC 180400Z AUTO 25006KT 10SM CLR M27/M32 A3074 280 63 -5000 250/06 RMK AO2
14926KSTC STC20060217220510102/17/06 22:05:31  5-MIN KSTC 180405Z AUTO 26006KT 10SM CLR M27/M31 A3074 280 67 -5000 260/06 RMK AO2
14926KSTC STC20060217221010102/17/06 22:10:31  5-MIN KSTC 180410Z AUTO 26006KT 10SM CLR M27/M31 A3074 280 67 -5000 250/06 RMK AO2
14926KSTC STC20060217221510102/17/06 22:15:31  5-MIN KSTC 180415Z AUTO 26006KT 10SM CLR M27/M31 A3074 280 67 -5000 250/06 RMK AO2
14926KSTC STC20060217222010102/17/06 22:20:31  5-MIN KSTC 180420Z AUTO 26007KT 10SM CLR M27/M31 A3074 280 67 -5000 260/07 RMK AO2
14926KSTC STC20060217222510102/17/06 22:25:31  5-MIN KSTC 180425Z AUTO 26007KT 10SM CLR M27/M31 A3074 280 67 -5000 260/07 RMK AO2
14926KSTC STC20060217223010102/17/06 22:30:31  5-MIN KSTC 180430Z AUTO 26008KT 10SM CLR M27/M31 A3073 280 67 -5000 260/08 RMK AO2
14926KSTC STC20060217223510102/17/06 22:35:31  5-MIN KSTC 180435Z AUTO 26007KT 10SM CLR M27/M31 A3074 280 67 -5000 260/07 RMK AO2
14926KSTC STC20060217224010102/17/06 22:40:31  5-MIN KSTC 180440Z AUTO 26007KT 10SM CLR M27/M31 A3073 280 67 -5000 260/07 RMK AO2
14926KSTC STC20060217224510102/17/06 22:45:31  5-MIN KSTC 180445Z AUTO 26006KT 10SM CLR M27/M31 A3073 280 67 -5000 260/06 RMK AO2
14926KSTC STC20060217225011802/17/06 22:50:31  5-MIN KSTC 180450Z AUTO 26006KT 10SM CLR M27/M31 A3073 290 67 -5000 260/06 RMK AO2 SLP454 T12671311
14926KSTC STC20060217225510102/17/06 22:55:31  5-MIN KSTC 180455Z AUTO 25005KT 10SM CLR M27/M31 A3073 290 67 -5000 250/05 RMK AO2
14926KSTC STC20060217230010102/17/06 23:00:31  5-MIN KSTC 180500Z AUTO 25005KT 10SM CLR M27/M31 A3073 290 67 -5000 250/05 RMK AO2
14926KSTC STC20060217230510102/17/06 23:05:31  5-MIN KSTC 180505Z AUTO 25005KT 10SM CLR M27/M31 A3072 290 67 -5000 250/05 RMK AO2
14926KSTC STC20060217231010102/17/06 23:10:31  5-MIN KSTC 180510Z AUTO 25005KT 10SM CLR M27/M31 A3072 290 67 -5000 250/05 RMK AO2
14926KSTC STC20060217231510102/17/06 23:15:31  5-MIN KSTC 180515Z AUTO 25005KT 10SM CLR M27/M31 A3072 290 67 -5000 240/05 RMK AO2
14926KSTC STC20060217232010102/17/06 23:20:31  5-MIN KSTC 180520Z AUTO 24005KT 10SM CLR M27/M31 A3072 290 67 -5000 240/05 RMK AO2
14926KSTC STC20060217232510102/17/06 23:25:31  5-MIN KSTC 180525Z AUTO 25005KT 10SM CLR M27/M31 A3072 290 67 -5000 250/05 RMK AO2
14926KSTC STC20060217233010102/17/06 23:30:31  5-MIN KSTC 180530Z AUTO 25005KT 10SM CLR M27/M31 A3072 300 70 -5000 240/05 RMK AO2
14926KSTC STC20060217233510102/17/06 23:35:31  5-MIN KSTC 180535Z AUTO 23005KT 10SM CLR M27/M31 A3072 300 70 -5000 230/05 RMK AO2
14926KSTC STC20060217234010102/17/06 23:40:31  5-MIN KSTC 180540Z AUTO 24005KT 10SM CLR M27/M31 A3072 300 67 -5000 230/05 RMK AO2
14926KSTC STC20060217234510102/17/06 23:45:31  5-MIN KSTC 180545Z AUTO 24006KT 10SM CLR M27/M31 A3071 300 67 -5000 240/06 RMK AO2
14926KSTC STC20060217235014602/17/06 23:50:31  5-MIN KSTC 180550Z AUTO 24007KT 10SM CLR M27/M31 A3071 300 70 -5000 240/07 RMK AO2 SLP449 T12721311 11250 21272 411561272 50005
14926KSTC STC20060217235510102/17/06 23:55:31  5-MIN KSTC 180555Z AUTO 24007KT 10SM CLR M27/M31 A3071 300 70 -5000 240/07 RMK AO2
14926KSTC STC20060218000010102/18/06 00:00:32  5-MIN KSTC 180600Z AUTO 25006KT 10SM CLR M27/M31 A3071 300 67 -5000 250/06 RMK AO2
14926KSTC STC20060218000510102/18/06 00:05:31  5-MIN KSTC 180605Z AUTO 25006KT 10SM CLR M27/M31 A3071 300 67 -5000 250/06 RMK AO2
14926KSTC STC20060218001010102/18/06 00:10:31  5-MIN KSTC 180610Z AUTO 25006KT 10SM CLR M27/M31 A3071 300 70 -5000 250/06 RMK AO2
14926KSTC STC20060218001510102/18/06 00:15:31  5-MIN KSTC 180615Z AUTO 25006KT 10SM CLR M27/M31 A3071 300 70 -4900 250/06 RMK AO2
14926KSTC STC20060218002010102/18/06 00:20:31  5-MIN KSTC 180620Z AUTO 25007KT 10SM CLR M27/M31 A3071 310 70 -4900 250/07 RMK AO2
14926KSTC STC20060218002510102/18/06 00:25:31  5-MIN KSTC 180625Z AUTO 25005KT 10SM CLR M27/M31 A3071 310 70 -4900 240/05 RMK AO2
14926KSTC STC20060218003010102/18/06 00:30:31  5-MIN KSTC 180630Z AUTO 25006KT 10SM CLR M27/M31 A3071 310 70 -4900 250/06 RMK AO2
14926KSTC STC20060218003510102/18/06 00:35:31  5-MIN KSTC 180635Z AUTO 25005KT 10SM CLR M27/M31 A3070 310 70 -4900 250/05 RMK AO2
14926KSTC STC20060218004010102/18/06 00:40:31  5-MIN KSTC 180640Z AUTO 25005KT 10SM CLR M27/M31 A3070 310 70 -4900 250/05 RMK AO2
14926KSTC STC20060218004510102/18/06 00:45:31  5-MIN KSTC 180645Z AUTO 25004KT 10SM CLR M27/M31 A3070 310 70 -4900 250/04 RMK AO2
14926KSTC STC20060218005011802/18/06 00:50:31  5-MIN KSTC 180650Z AUTO 25004KT 10SM CLR M27/M31 A3070 310 70 -4900 250/04 RMK AO2 SLP445 T12671306
14926KSTC STC20060218005510102/18/06 00:55:31  5-MIN KSTC 180655Z AUTO 25004KT 10SM CLR M27/M31 A3070 310 70 -4900 250/04 RMK AO2
14926KSTC STC20060218010010102/18/06 01:00:31  5-MIN KSTC 180700Z AUTO 25005KT 10SM CLR M27/M31 A3070 310 70 -4900 240/05 RMK AO2
14926KSTC STC20060218010510102/18/06 01:05:31  5-MIN KSTC 180705Z AUTO 24006KT 10SM CLR M27/M31 A3070 310 70 -4900 240/06 RMK AO2
14926KSTC STC20060218011010102/18/06 01:10:31  5-MIN KSTC 180710Z AUTO 24005KT 10SM CLR M27/M31 A3070 310 70 -4900 240/05 RMK AO2
14926KSTC STC20060218011510102/18/06 01:15:31  5-MIN KSTC 180715Z AUTO 24005KT 10SM CLR M27/M31 A3070 320 70 -4900 240/05 RMK AO2
14926KSTC STC20060218012010102/18/06 01:20:31  5-MIN KSTC 180720Z AUTO 24006KT 10SM CLR M27/M31 A3070 320 70 -4900 240/06 RMK AO2
14926KSTC STC20060218012510102/18/06 01:25:31  5-MIN KSTC 180725Z AUTO 24005KT 10SM CLR M27/M31 A3070 320 70 -4900 230/05 RMK AO2
14926KSTC STC20060218013010102/18/06 01:30:31  5-MIN KSTC 180730Z AUTO 24005KT 10SM CLR M27/M30 A3069 320 74 -4900 230/05 RMK AO2
14926KSTC STC20060218013510102/18/06 01:35:31  5-MIN KSTC 180735Z AUTO 24005KT 10SM CLR M27/M30 A3069 320 74 -4900 240/05 RMK AO2
14926KSTC STC20060218014010102/18/06 01:40:31  5-MIN KSTC 180740Z AUTO 23006KT 10SM CLR M27/M30 A3069 320 74 -4900 230/06 RMK AO2
14926KSTC STC20060218014510102/18/06 01:45:31  5-MIN KSTC 180745Z AUTO 23005KT 10SM CLR M26/M30 A3069 320 70 -4800 230/05 RMK AO2
14926KSTC STC20060218015011802/18/06 01:50:31  5-MIN KSTC 180750Z AUTO 24005KT 10SM CLR M26/M30 A3069 320 70 -4800 230/05 RMK AO2 SLP441 T12611300
14926KSTC STC20060218015510102/18/06 01:55:31  5-MIN KSTC 180755Z AUTO 24006KT 10SM CLR M26/M30 A3069 320 70 -4800 240/06 RMK AO2
14926KSTC STC20060218020010102/18/06 02:00:31  5-MIN KSTC 180800Z AUTO 24005KT 10SM CLR M26/M30 A3069 320 70 -4800 240/05 RMK AO2
14926KSTC STC20060218020510102/18/06 02:05:31  5-MIN KSTC 180805Z AUTO 24005KT 10SM CLR M26/M29 A3069 320 74 -4800 230/05 RMK AO2
14926KSTC STC20060218021010102/18/06 02:10:31  5-MIN KSTC 180810Z AUTO 24005KT 10SM CLR M26/M29 A3069 320 74 -4800 240/05 RMK AO2
14926KSTC STC20060218021510102/18/06 02:15:31  5-MIN KSTC 180815Z AUTO 24005KT 10SM CLR M26/M29 A3068 330 74 -4800 230/05 RMK AO2
14926KSTC STC20060218022010102/18/06 02:20:31  5-MIN KSTC 180820Z AUTO 23005KT 10SM CLR M26/M29 A3068 330 74 -4800 230/05 RMK AO2
14926KSTC STC20060218022510102/18/06 02:25:31  5-MIN KSTC 180825Z AUTO 24005KT 10SM CLR M26/M29 A3068 330 74 -4800 230/05 RMK AO2
14926KSTC STC20060218023010102/18/06 02:30:31  5-MIN KSTC 180830Z AUTO 24005KT 10SM CLR M26/M29 A3068 330 70 -4800 230/05 RMK AO2
14926KSTC STC20060218023510102/18/06 02:35:31  5-MIN KSTC 180835Z AUTO 24006KT 10SM CLR M26/M29 A3068 330 70 -4800 240/06 RMK AO2
14926KSTC STC20060218024010102/18/06 02:40:31  5-MIN KSTC 180840Z AUTO 24005KT 10SM CLR M26/M29 A3068 330 70 -4800 240/05 RMK AO2
14926KSTC STC20060218024510102/18/06 02:45:31  5-MIN KSTC 180845Z AUTO 24005KT 10SM CLR M26/M29 A3068 330 74 -4800 230/05 RMK AO2
14926KSTC STC20060218025012402/18/06 02:50:31  5-MIN KSTC 180850Z AUTO 23004KT 10SM CLR M26/M29 A3067 340 74 -4800 230/04 RMK AO2 SLP434 T12561289 58008
14926KSTC STC20060218025510102/18/06 02:55:31  5-MIN KSTC 180855Z AUTO 22004KT 10SM CLR M26/M29 A3067 340 74 -4700 220/04 RMK AO2
14926KSTC STC20060218030010102/18/06 03:00:31  5-MIN KSTC 180900Z AUTO 23004KT 10SM CLR M26/M29 A3067 340 74 -4700 230/04 RMK AO2
14926KSTC STC20060218030510102/18/06 03:05:31  5-MIN KSTC 180905Z AUTO 24004KT 10SM CLR M26/M29 A3067 340 74 -4700 240/04 RMK AO2
14926KSTC STC20060218031010102/18/06 03:10:31  5-MIN KSTC 180910Z AUTO 25004KT 10SM CLR M26/M29 A3066 340 74 -4700 250/04 RMK AO2
14926KSTC STC20060218031510102/18/06 03:15:31  5-MIN KSTC 180915Z AUTO 26003KT 10SM CLR M26/M29 A3066 350 74 -4700 250/03 RMK AO2
14926KSTC STC20060218032010102/18/06 03:20:31  5-MIN KSTC 180920Z AUTO 26004KT 10SM CLR M26/M29 A3066 350 70 -4700 250/04 RMK AO2
14926KSTC STC20060218032510102/18/06 03:25:31  5-MIN KSTC 180925Z AUTO 25004KT 10SM CLR M26/M29 A3066 350 70 -4700 250/04 RMK AO2
14926KSTC STC20060218033010102/18/06 03:30:31  5-MIN KSTC 180930Z AUTO 26006KT 10SM CLR M25/M29 A3066 350 71 -4700 260/06 RMK AO2
14926KSTC STC20060218033510102/18/06 03:35:31  5-MIN KSTC 180935Z AUTO 26006KT 10SM CLR M25/M29 A3065 350 71 -4600 260/06 RMK AO2
14926KSTC STC20060218034010102/18/06 03:40:31  5-MIN KSTC 180940Z AUTO 26006KT 10SM CLR M25/M29 A3065 350 71 -4600 260/06 RMK AO2
14926KSTC STC20060218034510102/18/06 03:45:31  5-MIN KSTC 180945Z AUTO 26007KT 10SM CLR M25/M29 A3065 350 71 -4600 260/07 RMK AO2
14926KSTC STC20060218035011802/18/06 03:50:31  5-MIN KSTC 180950Z AUTO 26007KT 10SM CLR M25/M29 A3065 360 71 -4600 260/07 RMK AO2 SLP426 T12501289
14926KSTC STC20060218035510102/18/06 03:55:31  5-MIN KSTC 180955Z AUTO 26007KT 10SM CLR M24/M29 A3065 360 67 -4600 260/07 RMK AO2
14926KSTC STC20060218040010102/18/06 04:00:31  5-MIN KSTC 181000Z AUTO 26007KT 10SM CLR M24/M29 A3065 360 67 -4600 260/07 RMK AO2
14926KSTC STC20060218040510102/18/06 04:05:31  5-MIN KSTC 181005Z AUTO 26007KT 10SM CLR M24/M29 A3065 360 67 -4600 260/07 RMK AO2
14926KSTC STC20060218041010102/18/06 04:10:31  5-MIN KSTC 181010Z AUTO 26007KT 10SM CLR M24/M29 A3064 360 67 -4600 260/07 RMK AO2
14926KSTC STC20060218041510102/18/06 04:15:31  5-MIN KSTC 181015Z AUTO 25006KT 10SM CLR M24/M29 A3064 360 67 -4600 250/06 RMK AO2
14926KSTC STC20060218042010102/18/06 04:20:31  5-MIN KSTC 181020Z AUTO 26007KT 10SM CLR M24/M29 A3064 370 67 -4600 260/07 RMK AO2
14926KSTC STC20060218042510102/18/06 04:25:31  5-MIN KSTC 181025Z AUTO 26007KT 10SM CLR M24/M29 A3064 370 67 -4600 260/07 RMK AO2
14926KSTC STC20060218043010102/18/06 04:30:31  5-MIN KSTC 181030Z AUTO 26007KT 10SM CLR M25/M29 A3064 370 71 -4600 260/07 RMK AO2
14926KSTC STC20060218043510102/18/06 04:35:31  5-MIN KSTC 181035Z AUTO 27007KT 10SM CLR M25/M29 A3064 370 71 -4600 260/07 RMK AO2
14926KSTC STC20060218044010102/18/06 04:40:31  5-MIN KSTC 181040Z AUTO 26006KT 10SM CLR M25/M29 A3064 370 71 -4600 260/06 RMK AO2
14926KSTC STC20060218044510102/18/06 04:45:31  5-MIN KSTC 181045Z AUTO 26006KT 10SM CLR M25/M29 A3064 370 71 -4600 260/06 RMK AO2
14926KSTC STC20060218045011802/18/06 04:50:31  5-MIN KSTC 181050Z AUTO 26006KT 10SM CLR M25/M29 A3064 370 71 -4600 260/06 RMK AO2 SLP422 T12501289
14926KSTC STC20060218045510102/18/06 04:55:31  5-MIN KSTC 181055Z AUTO 26006KT 10SM CLR M25/M29 A3064 370 71 -4600 260/06 RMK AO2
14926KSTC STC20060218050010102/18/06 05:00:31  5-MIN KSTC 181100Z AUTO 26006KT 10SM CLR M25/M29 A3064 370 71 -4600 260/06 RMK AO2
14926KSTC STC20060218050510102/18/06 05:05:31  5-MIN KSTC 181105Z AUTO 26007KT 10SM CLR M25/M29 A3064 370 71 -4600 260/07 RMK AO2
14926KSTC STC20060218051010102/18/06 05:10:31  5-MIN KSTC 181110Z AUTO 26006KT 10SM CLR M25/M29 A3064 370 71 -4600 260/06 RMK AO2
14926KSTC STC20060218051510102/18/06 05:15:31  5-MIN KSTC 181115Z AUTO 26006KT 10SM CLR M25/M29 A3064 370 71 -4600 260/06 RMK AO2
14926KSTC STC20060218052010102/18/06 05:20:31  5-MIN KSTC 181120Z AUTO 26006KT 10SM CLR M24/M29 A3064 370 67 -4600 250/06 RMK AO2
14926KSTC STC20060218052510102/18/06 05:25:31  5-MIN KSTC 181125Z AUTO 25006KT 10SM CLR M25/M29 A3064 370 71 -4600 250/06 RMK AO2
14926KSTC STC20060218053010102/18/06 05:30:31  5-MIN KSTC 181130Z AUTO 25006KT 10SM CLR M24/M29 A3064 370 67 -4500 250/06 RMK AO2
14926KSTC STC20060218053510102/18/06 05:35:31  5-MIN KSTC 181135Z AUTO 25007KT 10SM CLR M24/M29 A3064 370 67 -4500 250/07 RMK AO2
14926KSTC STC20060218054010102/18/06 05:40:31  5-MIN KSTC 181140Z AUTO 25007KT 10SM CLR M24/M29 A3064 370 67 -4600 250/07 RMK AO2
14926KSTC STC20060218054510102/18/06 05:45:31  5-MIN KSTC 181145Z AUTO 25007KT 10SM CLR M24/M29 A3064 370 67 -4600 250/07 RMK AO2
14926KSTC STC20060218055013602/18/06 05:50:31  5-MIN KSTC 181150Z AUTO 25007KT 10SM CLR M24/M29 A3064 370 67 -4600 250/07 RMK AO2 SLP423 T12441289 11244 21272 58013
14926KSTC STC20060218055510102/18/06 05:55:31  5-MIN KSTC 181155Z AUTO 25007KT 10SM CLR M25/M29 A3064 370 71 -4600 250/07 RMK AO2
14926KSTC STC20060218060010102/18/06 06:00:31  5-MIN KSTC 181200Z AUTO 25007KT 10SM CLR M25/M29 A3064 370 71 -4600 250/07 RMK AO2
14926KSTC STC20060218060510102/18/06 06:05:31  5-MIN KSTC 181205Z AUTO 25006KT 10SM CLR M25/M29 A3064 370 71 -4600 250/06 RMK AO2
14926KSTC STC20060218061010102/18/06 06:10:31  5-MIN KSTC 181210Z AUTO 25006KT 10SM CLR M25/M29 A3064 370 71 -4600 250/06 RMK AO2
14926KSTC STC20060218061510102/18/06 06:15:31  5-MIN KSTC 181215Z AUTO 25005KT 10SM CLR M25/M29 A3064 370 71 -4600 240/05 RMK AO2
14926KSTC STC20060218062010102/18/06 06:20:31  5-MIN KSTC 181220Z AUTO 25005KT 10SM CLR M25/M29 A3063 370 71 -4600 250/05 RMK AO2
14926KSTC STC20060218062510102/18/06 06:25:31  5-MIN KSTC 181225Z AUTO 25005KT 10SM CLR M25/M29 A3063 370 71 -4600 250/05 RMK AO2
14926KSTC STC20060218063010102/18/06 06:30:31  5-MIN KSTC 181230Z AUTO 25006KT 10SM CLR M25/M29 A3063 370 71 -4600 250/06 RMK AO2
14926KSTC STC20060218063510102/18/06 06:35:31  5-MIN KSTC 181235Z AUTO 25006KT 10SM CLR M25/M29 A3063 370 71 -4600 240/06 RMK AO2
14926KSTC STC20060218064010102/18/06 06:40:31  5-MIN KSTC 181240Z AUTO 25006KT 10SM CLR M25/M29 A3063 370 71 -4600 240/06 RMK AO2
14926KSTC STC20060218064510102/18/06 06:45:31  5-MIN KSTC 181245Z AUTO 24006KT 10SM CLR M25/M29 A3063 380 71 -4600 240/06 RMK AO2
14926KSTC STC20060218065011302/18/06 06:50:31  5-MIN KSTC 181250Z 24006KT 10SM CLR M25/M29 A3063 380 71 -4600 230/06 RMK AO2 SLP420 T12501289
14926KSTC STC20060218065509602/18/06 06:55:31  5-MIN KSTC 181255Z 23006KT 10SM CLR M24/M29 A3063 380 67 -4500 230/06 RMK AO2
14926KSTC STC20060218070009602/18/06 07:00:31  5-MIN KSTC 181300Z 23005KT 10SM CLR M24/M29 A3063 380 67 -4500 230/05 RMK AO2
14926KSTC STC20060218070509602/18/06 07:05:31  5-MIN KSTC 181305Z 22005KT 10SM CLR M24/M29 A3063 380 67 -4500 220/05 RMK AO2
14926KSTC STC20060218071009602/18/06 07:10:31  5-MIN KSTC 181310Z 22006KT 10SM CLR M25/M29 A3063 380 71 -4600 220/06 RMK AO2
14926KSTC STC20060218071509602/18/06 07:15:31  5-MIN KSTC 181315Z 22005KT 10SM CLR M26/M29 A3063 380 74 -4800 220/05 RMK AO2
14926KSTC STC20060218072009602/18/06 07:20:31  5-MIN KSTC 181320Z 22004KT 10SM CLR M26/M29 A3063 380 74 -4800 220/04 RMK AO2
14926KSTC STC20060218072509602/18/06 07:25:31  5-MIN KSTC 181325Z 23005KT 10SM CLR M26/M29 A3063 380 70 -4700 230/05 RMK AO2
14926KSTC STC20060218073009602/18/06 07:30:31  5-MIN KSTC 181330Z 23006KT 10SM CLR M24/M29 A3063 380 67 -4500 230/06 RMK AO2
14926KSTC STC20060218073509602/18/06 07:35:31  5-MIN KSTC 181335Z 24007KT 10SM CLR M24/M29 A3063 380 67 -4500 240/07 RMK AO2
14926KSTC STC20060218074009602/18/06 07:40:31  5-MIN KSTC 181340Z 24007KT 10SM CLR M24/M29 A3063 380 67 -4500 240/07 RMK AO2
14926KSTC STC20060218074509602/18/06 07:45:31  5-MIN KSTC 181345Z 24007KT 10SM CLR M24/M28 A3063 380 71 -4500 240/07 RMK AO2
14926KSTC STC20060218075011302/18/06 07:50:31  5-MIN KSTC 181350Z 25008KT 10SM CLR M24/M28 A3063 370 71 -4500 240/08 RMK AO2 SLP420 T12441283
14926KSTC STC20060218075509602/18/06 07:55:31  5-MIN KSTC 181355Z 25007KT 10SM CLR M24/M28 A3063 370 71 -4500 240/07 RMK AO2
14926KSTC STC20060218080009602/18/06 08:00:31  5-MIN KSTC 181400Z 24006KT 10SM CLR M24/M28 A3064 370 67 -4500 230/06 RMK AO2
14926KSTC STC20060218080509602/18/06 08:05:31  5-MIN KSTC 181405Z 24006KT 10SM CLR M24/M28 A3064 370 67 -4500 230/06 RMK AO2
14926KSTC STC20060218081009602/18/06 08:10:31  5-MIN KSTC 181410Z 23006KT 10SM CLR M24/M28 A3064 370 67 -4500 230/06 RMK AO2
14926KSTC STC20060218081509602/18/06 08:15:31  5-MIN KSTC 181415Z 22006KT 10SM CLR M23/M28 A3064 370 67 -4400 220/06 RMK AO2
14926KSTC STC20060218082009602/18/06 08:20:31  5-MIN KSTC 181420Z 22007KT 10SM CLR M23/M28 A3064 370 67 -4400 220/07 RMK AO2
14926KSTC STC20060218082509602/18/06 08:25:31  5-MIN KSTC 181425Z 22005KT 10SM CLR M23/M28 A3064 370 67 -4400 210/05 RMK AO2
14926KSTC STC20060218083009602/18/06 08:30:31  5-MIN KSTC 181430Z 23007KT 10SM CLR M23/M28 A3064 370 67 -4400 230/07 RMK AO2
14926KSTC STC20060218083509602/18/06 08:35:31  5-MIN KSTC 181435Z 23006KT 10SM CLR M23/M28 A3064 370 64 -4300 230/06 RMK AO2
14926KSTC STC20060218084009602/18/06 08:40:31  5-MIN KSTC 181440Z 23006KT 10SM CLR M23/M28 A3064 370 64 -4300 230/06 RMK AO2
14926KSTC STC20060218084509602/18/06 08:45:31  5-MIN KSTC 181445Z 23005KT 10SM CLR M23/M27 A3064 370 68 -4300 230/05 RMK AO2
14926KSTC STC20060218085011902/18/06 08:50:31  5-MIN KSTC 181450Z 23005KT 10SM CLR M22/M27 A3064 370 64 -4200 230/05 RMK AO2 SLP422 T12221272 56012
14926KSTC STC20060218085509602/18/06 08:55:31  5-MIN KSTC 181455Z 25005KT 10SM CLR M22/M27 A3064 370 68 -4200 240/05 RMK AO2
14926KSTC STC20060218090009602/18/06 09:00:31  5-MIN KSTC 181500Z 25006KT 10SM CLR M22/M27 A3064 370 64 -4200 250/06 RMK AO2
14926KSTC STC20060218090509602/18/06 09:05:31  5-MIN KSTC 181505Z 25006KT 10SM CLR M21/M27 A3064 370 61 -4100 250/06 RMK AO2
14926KSTC STC20060218091009602/18/06 09:10:31  5-MIN KSTC 181510Z 25008KT 10SM CLR M21/M27 A3064 370 61 -4100 250/08 RMK AO2
14926KSTC STC20060218091509602/18/06 09:15:31  5-MIN KSTC 181515Z 27008KT 10SM CLR M21/M27 A3064 370 61 -4100 260/08 RMK AO2
14926KSTC STC20060218092009602/18/06 09:20:31  5-MIN KSTC 181520Z 26008KT 10SM CLR M21/M27 A3064 370 59 -4000 250/08 RMK AO2
14926KSTC STC20060218092509602/18/06 09:25:31  5-MIN KSTC 181525Z 26011KT 10SM CLR M21/M26 A3064 370 62 -4000 260/11 RMK AO2
14926KSTC STC20060218093009602/18/06 09:30:31  5-MIN KSTC 181530Z 26009KT 10SM CLR M21/M26 A3063 370 62 -4000 260/09 RMK AO2
14926KSTC STC20060218093509602/18/06 09:35:31  5-MIN KSTC 181535Z 27008KT 10SM CLR M20/M26 A3063 370 59 -3900 260/08 RMK AO2
14926KSTC STC20060218094009602/18/06 09:40:31  5-MIN KSTC 181540Z 26008KT 10SM CLR M20/M26 A3063 370 59 -3900 260/08 RMK AO2
14926KSTC STC20060218094509602/18/06 09:45:31  5-MIN KSTC 181545Z 25009KT 10SM CLR M20/M26 A3063 380 59 -3900 250/09 RMK AO2
14926KSTC STC20060218095011302/18/06 09:50:31  5-MIN KSTC 181550Z 26008KT 10SM CLR M20/M26 A3063 380 59 -3900 250/08 RMK AO2 SLP417 T12001261
14926KSTC STC20060218095509602/18/06 09:55:31  5-MIN KSTC 181555Z 26007KT 10SM CLR M19/M26 A3063 380 56 -3800 250/07 RMK AO2
14926KSTC STC20060218100009602/18/06 10:00:31  5-MIN KSTC 181600Z 26008KT 10SM CLR M19/M26 A3063 380 56 -3800 260/08 RMK AO2
14926KSTC STC20060218100509602/18/06 10:05:31  5-MIN KSTC 181605Z 26009KT 10SM CLR M19/M26 A3063 380 56 -3800 260/09 RMK AO2
14926KSTC STC20060218101009602/18/06 10:10:31  5-MIN KSTC 181610Z 28010KT 10SM CLR M19/M26 A3062 380 56 -3800 270/10 RMK AO2
14926KSTC STC20060218101509602/18/06 10:15:31  5-MIN KSTC 181615Z 27007KT 10SM CLR M18/M26 A3062 380 54 -3700 270/07 RMK AO2
14926KSTC STC20060218102009602/18/06 10:20:31  5-MIN KSTC 181620Z 27010KT 10SM CLR M18/M25 A3062 380 56 -3700 270/10 RMK AO2
14926KSTC STC20060218102509602/18/06 10:25:31  5-MIN KSTC 181625Z 27009KT 10SM CLR M18/M25 A3063 380 56 -3700 260/09 RMK AO2
14926KSTC STC20060218103009602/18/06 10:30:31  5-MIN KSTC 181630Z 26008KT 10SM CLR M18/M26 A3062 380 54 -3700 260/08 RMK AO2
14926KSTC STC20060218103509602/18/06 10:35:31  5-MIN KSTC 181635Z 27009KT 10SM CLR M18/M26 A3062 380 54 -3700 260/09 RMK AO2
14926KSTC STC20060218104009602/18/06 10:40:31  5-MIN KSTC 181640Z 27009KT 10SM CLR M18/M25 A3062 380 54 -3600 260/09 RMK AO2
14926KSTC STC20060218104509602/18/06 10:45:31  5-MIN KSTC 181645Z 24008KT 10SM CLR M18/M25 A3062 380 54 -3600 230/08 RMK AO2
14926KSTC STC20060218105011302/18/06 10:50:31  5-MIN KSTC 181650Z 25009KT 10SM CLR M18/M25 A3062 380 54 -3600 250/09 RMK AO2 SLP414 T11781250
14926KSTC STC20060218105509602/18/06 10:55:31  5-MIN KSTC 181655Z 27011KT 10SM CLR M17/M25 A3062 380 51 -3500 260/11 RMK AO2
14926KSTC STC20060218110009602/18/06 11:00:31  5-MIN KSTC 181700Z 26010KT 10SM CLR M17/M25 A3063 380 51 -3500 260/10 RMK AO2
14926KSTC STC20060218110509602/18/06 11:05:31  5-MIN KSTC 181705Z 25006KT 10SM CLR M17/M25 A3062 380 51 -3500 250/06 RMK AO2
14926KSTC STC20060218111009602/18/06 11:10:31  5-MIN KSTC 181710Z 23008KT 10SM CLR M17/M24 A3062 380 54 -3500 230/08 RMK AO2
14926KSTC STC20060218111509602/18/06 11:15:31  5-MIN KSTC 181715Z 24010KT 10SM CLR M17/M24 A3062 380 54 -3500 230/10 RMK AO2
14926KSTC STC20060218112009602/18/06 11:20:31  5-MIN KSTC 181720Z 23010KT 10SM CLR M17/M24 A3062 380 54 -3500 230/10 RMK AO2
14926KSTC STC20060218112509602/18/06 11:25:31  5-MIN KSTC 181725Z 25010KT 10SM CLR M17/M24 A3062 380 51 -3500 240/10 RMK AO2
14926KSTC STC20060218113009602/18/06 11:30:31  5-MIN KSTC 181730Z 24013KT 10SM CLR M17/M24 A3062 390 51 -3400 240/13 RMK AO2
14926KSTC STC20060218113509602/18/06 11:35:31  5-MIN KSTC 181735Z 25011KT 10SM CLR M16/M24 A3062 390 49 -3400 240/11 RMK AO2
14926KSTC STC20060218114009602/18/06 11:40:31  5-MIN KSTC 181740Z 25013KT 10SM CLR M16/M24 A3062 390 49 -3400 250/13 RMK AO2
14926KSTC STC20060218114509602/18/06 11:45:31  5-MIN KSTC 181745Z 25015KT 10SM CLR M16/M24 A3062 390 49 -3400 250/15 RMK AO2
14926KSTC STC20060218115013102/18/06 11:50:31  5-MIN KSTC 181750Z 25015KT 10SM CLR M16/M24 A3062 390 52 -3400 250/15 RMK AO2 SLP411 T11611239 11161 21261 53000
14926KSTC STC20060218115509602/18/06 11:55:31  5-MIN KSTC 181755Z 26013KT 10SM CLR M16/M24 A3061 390 49 -3400 250/13 RMK AO2
14926KSTC STC20060218120009602/18/06 12:00:31  5-MIN KSTC 181800Z 24011KT 10SM CLR M16/M23 A3061 390 54 -3400 240/11 RMK AO2
14926KSTC STC20060218120509602/18/06 12:05:31  5-MIN KSTC 181805Z 24012KT 10SM CLR M16/M24 A3061 390 52 -3400 240/12 RMK AO2
14926KSTC STC20060218121009602/18/06 12:10:31  5-MIN KSTC 181810Z 24013KT 10SM CLR M16/M23 A3061 400 52 -3300 240/13 RMK AO2
14926KSTC STC20060218121509602/18/06 12:15:31  5-MIN KSTC 181815Z 25014KT 10SM CLR M16/M24 A3061 400 49 -3300 250/14 RMK AO2
14926KSTC STC20060218122009602/18/06 12:20:31  5-MIN KSTC 181820Z 25012KT 10SM CLR M16/M23 A3060 400 52 -3300 250/12 RMK AO2
14926KSTC STC20060218122509602/18/06 12:25:31  5-MIN KSTC 181825Z 25013KT 10SM CLR M16/M23 A3060 400 52 -3300 250/13 RMK AO2
14926KSTC STC20060218123009602/18/06 12:30:31  5-MIN KSTC 181830Z 25015KT 10SM CLR M16/M24 A3060 400 49 -3300 240/15 RMK AO2
14926KSTC STC20060218123509602/18/06 12:35:31  5-MIN KSTC 181835Z 24014KT 10SM CLR M16/M24 A3060 410 49 -3300 230/14 RMK AO2
14926KSTC STC20060218124009602/18/06 12:40:31  5-MIN KSTC 181840Z 24013KT 10SM CLR M16/M23 A3059 410 52 -3300 240/13 RMK AO2
14926KSTC STC20060218124509602/18/06 12:45:31  5-MIN KSTC 181845Z 25014KT 10SM CLR M15/M23 A3059 410 52 -3200 250/14 RMK AO2
14926KSTC STC20060218125011302/18/06 12:50:31  5-MIN KSTC 181850Z 25013KT 10SM CLR M15/M23 A3059 410 49 -3200 240/13 RMK AO2 SLP402 T11501233
14926KSTC STC20060218125509602/18/06 12:55:31  5-MIN KSTC 181855Z 24013KT 10SM CLR M15/M23 A3059 410 49 -3200 240/13 RMK AO2
14926KSTC STC20060218130009602/18/06 13:00:31  5-MIN KSTC 181900Z 24015KT 10SM CLR M15/M23 A3059 420 49 -3200 230/15 RMK AO2
14926KSTC STC20060218130509602/18/06 13:05:31  5-MIN KSTC 181905Z 25013KT 10SM CLR M15/M23 A3058 420 52 -3200 240/13 RMK AO2
14926KSTC STC20060218131009602/18/06 13:10:31  5-MIN KSTC 181910Z 25011KT 10SM CLR M14/M23 A3058 420 50 -3100 250/11 RMK AO2
14926KSTC STC20060218131509602/18/06 13:15:31  5-MIN KSTC 181915Z 23013KT 10SM CLR M15/M23 A3058 420 52 -3200 230/13 RMK AO2
14926KSTC STC20060218132009602/18/06 13:20:31  5-MIN KSTC 181920Z 24014KT 10SM CLR M15/M23 A3057 430 49 -3200 240/14 RMK AO2
14926KSTC STC20060218132509602/18/06 13:25:31  5-MIN KSTC 181925Z 25013KT 10SM CLR M14/M23 A3057 430 50 -3100 250/13 RMK AO2
14926KSTC STC20060218133009602/18/06 13:30:31  5-MIN KSTC 181930Z 26014KT 10SM CLR M14/M23 A3057 430 50 -3100 260/14 RMK AO2
14926KSTC STC20060218133509602/18/06 13:35:31  5-MIN KSTC 181935Z 26013KT 10SM CLR M14/M23 A3057 430 50 -3100 260/13 RMK AO2
14926KSTC STC20060218134009602/18/06 13:40:31  5-MIN KSTC 181940Z 24013KT 10SM CLR M14/M23 A3057 430 50 -3100 240/13 RMK AO2
14926KSTC STC20060218134509602/18/06 13:45:31  5-MIN KSTC 181945Z 25013KT 10SM CLR M14/M23 A3056 440 50 -3100 240/13 RMK AO2
14926KSTC STC20060218135011302/18/06 13:50:31  5-MIN KSTC 181950Z 25012KT 10SM CLR M14/M23 A3056 440 50 -3100 240/12 RMK AO2 SLP392 T11441228
14926KSTC STC20060218135509602/18/06 13:55:31  5-MIN KSTC 181955Z 26012KT 10SM CLR M14/M22 A3056 440 52 -3100 260/12 RMK AO2
14926KSTC STC20060218140009602/18/06 14:00:31  5-MIN KSTC 182000Z 24014KT 10SM CLR M14/M23 A3056 440 47 -3000 240/14 RMK AO2
14926KSTC STC20060218140509602/18/06 14:05:31  5-MIN KSTC 182005Z 24015KT 10SM CLR M14/M22 A3055 440 50 -3000 240/15 RMK AO2
14926KSTC STC20060218141009602/18/06 14:10:31  5-MIN KSTC 182010Z 25013KT 10SM CLR M14/M23 A3055 450 47 -3000 240/13 RMK AO2
14926KSTC STC20060218141509602/18/06 14:15:31  5-MIN KSTC 182015Z 26014KT 10SM CLR M14/M23 A3055 450 47 -3000 250/14 RMK AO2
14926KSTC STC20060218142009602/18/06 14:20:31  5-MIN KSTC 182020Z 25013KT 10SM CLR M14/M22 A3055 450 50 -3000 250/13 RMK AO2
14926KSTC STC20060218142509602/18/06 14:25:31  5-MIN KSTC 182025Z 24013KT 10SM CLR M14/M22 A3055 450 50 -3000 240/13 RMK AO2
14926KSTC STC20060218143009602/18/06 14:30:31  5-MIN KSTC 182030Z 24014KT 10SM CLR M14/M22 A3055 450 50 -3000 240/14 RMK AO2
14926KSTC STC20060218143509602/18/06 14:35:31  5-MIN KSTC 182035Z 25013KT 10SM CLR M14/M22 A3054 450 50 -3000 250/13 RMK AO2
14926KSTC STC20060218144009602/18/06 14:40:31  5-MIN KSTC 182040Z 24015KT 10SM CLR M14/M22 A3054 460 50 -3000 240/15 RMK AO2
14926KSTC STC20060218144509602/18/06 14:45:31  5-MIN KSTC 182045Z 24013KT 10SM CLR M14/M22 A3054 460 50 -3000 240/13 RMK AO2
14926KSTC STC20060218145011902/18/06 14:50:31  5-MIN KSTC 182050Z 24014KT 10SM CLR M14/M22 A3054 460 50 -3000 230/14 RMK AO2 SLP383 T11391222 56008
14926KSTC STC20060218145509602/18/06 14:55:31  5-MIN KSTC 182055Z 25012KT 10SM CLR M14/M22 A3054 460 52 -3000 250/12 RMK AO2
14926KSTC STC20060218150009602/18/06 15:00:31  5-MIN KSTC 182100Z 24013KT 10SM CLR M14/M22 A3054 460 52 -3000 240/13 RMK AO2
14926KSTC STC20060218150509602/18/06 15:05:31  5-MIN KSTC 182105Z 25013KT 10SM CLR M14/M22 A3053 460 52 -3000 240/13 RMK AO2
14926KSTC STC20060218151009602/18/06 15:10:31  5-MIN KSTC 182110Z 24012KT 10SM CLR M14/M22 A3053 470 52 -3000 240/12 RMK AO2
14926KSTC STC20060218151509602/18/06 15:15:31  5-MIN KSTC 182115Z 25012KT 10SM CLR M14/M22 A3053 470 52 -3000 250/12 RMK AO2
14926KSTC STC20060218152009602/18/06 15:20:31  5-MIN KSTC 182120Z 25014KT 10SM CLR M14/M22 A3053 470 52 -3000 240/14 RMK AO2
14926KSTC STC20060218152509602/18/06 15:25:31  5-MIN KSTC 182125Z 24011KT 10SM CLR M14/M22 A3053 470 52 -3000 240/11 RMK AO2
14926KSTC STC20060218153009602/18/06 15:30:31  5-MIN KSTC 182130Z 25013KT 10SM CLR M14/M22 A3052 470 52 -3000 250/13 RMK AO2
14926KSTC STC20060218153509602/18/06 15:35:31  5-MIN KSTC 182135Z 25011KT 10SM CLR M14/M22 A3052 470 50 -3000 250/11 RMK AO2
14926KSTC STC20060218154009602/18/06 15:40:31  5-MIN KSTC 182140Z 24012KT 10SM CLR M14/M22 A3052 470 52 -3000 240/12 RMK AO2
14926KSTC STC20060218154509602/18/06 15:45:31  5-MIN KSTC 182145Z 26013KT 10SM CLR M14/M22 A3052 480 52 -3000 260/13 RMK AO2
14926KSTC STC20060218155011302/18/06 15:50:31  5-MIN KSTC 182150Z 26011KT 10SM CLR M14/M22 A3052 480 52 -3000 250/11 RMK AO2 SLP376 T11391217
14926KSTC STC20060218155509602/18/06 15:55:31  5-MIN KSTC 182155Z 25012KT 10SM CLR M14/M22 A3052 480 52 -3000 240/12 RMK AO2
14926KSTC STC20060218160009602/18/06 16:00:31  5-MIN KSTC 182200Z 24014KT 10SM CLR M14/M22 A3052 480 52 -3000 240/14 RMK AO2
14926KSTC STC20060218160509602/18/06 16:05:31  5-MIN KSTC 182205Z 25013KT 10SM CLR M14/M22 A3051 480 52 -3000 250/13 RMK AO2
14926KSTC STC20060218161009602/18/06 16:10:31  5-MIN KSTC 182210Z 24010KT 10SM CLR M14/M22 A3051 480 52 -2900 230/10 RMK AO2
14926KSTC STC20060218161509602/18/06 16:15:31  5-MIN KSTC 182215Z 26014KT 10SM CLR M14/M22 A3051 480 52 -2900 260/14 RMK AO2
14926KSTC STC20060218162009602/18/06 16:20:31  5-MIN KSTC 182220Z 25012KT 10SM CLR M14/M22 A3051 480 52 -2900 250/12 RMK AO2
14926KSTC STC20060218162509602/18/06 16:25:31  5-MIN KSTC 182225Z 24013KT 10SM CLR M14/M22 A3051 490 52 -2900 240/13 RMK AO2
14926KSTC STC20060218163009602/18/06 16:30:31  5-MIN KSTC 182230Z 24013KT 10SM CLR M14/M22 A3051 490 52 -2900 240/13 RMK AO2
14926KSTC STC20060218163509602/18/06 16:35:31  5-MIN KSTC 182235Z 24012KT 10SM CLR M14/M22 A3051 490 52 -2900 240/12 RMK AO2
14926KSTC STC20060218164009602/18/06 16:40:31  5-MIN KSTC 182240Z 25012KT 10SM CLR M14/M22 A3050 490 52 -2900 240/12 RMK AO2
14926KSTC STC20060218164509602/18/06 16:45:31  5-MIN KSTC 182245Z 25011KT 10SM CLR M14/M22 A3050 490 52 -2900 250/11 RMK AO2
14926KSTC STC20060218165011302/18/06 16:50:31  5-MIN KSTC 182250Z 25011KT 10SM CLR M14/M22 A3050 490 52 -2900 250/11 RMK AO2 SLP369 T11391217
14926KSTC STC20060218165509602/18/06 16:55:31  5-MIN KSTC 182255Z 26012KT 10SM CLR M14/M22 A3050 500 50 -2900 250/12 RMK AO2
14926KSTC STC20060218170009602/18/06 17:00:31  5-MIN KSTC 182300Z 27012KT 10SM CLR M14/M23 A3049 500 47 -2900 260/12 RMK AO2
14926KSTC STC20060218170509602/18/06 17:05:31  5-MIN KSTC 182305Z 25009KT 10SM CLR M14/M23 A3049 500 47 -2900 250/09 RMK AO2
14926KSTC STC20060218171009602/18/06 17:10:31  5-MIN KSTC 182310Z 25009KT 10SM CLR M14/M22 A3049 500 50 -2900 250/09 RMK AO2
14926KSTC STC20060218171509602/18/06 17:15:31  5-MIN KSTC 182315Z 24008KT 10SM CLR M14/M22 A3049 500 52 -3000 240/08 RMK AO2
14926KSTC STC20060218172009602/18/06 17:20:31  5-MIN KSTC 182320Z 23009KT 10SM CLR M14/M22 A3049 500 52 -3000 230/09 RMK AO2
14926KSTC STC20060218172509602/18/06 17:25:31  5-MIN KSTC 182325Z 24011KT 10SM CLR M14/M22 A3049 510 55 -3000 240/11 RMK AO2
14926KSTC STC20060218173009602/18/06 17:30:31  5-MIN KSTC 182330Z 24010KT 10SM CLR M14/M22 A3049 510 52 -3000 230/10 RMK AO2
14926KSTC STC20060218173509602/18/06 17:35:31  5-MIN KSTC 182335Z 24010KT 10SM CLR M14/M22 A3049 510 52 -3000 240/10 RMK AO2
14926KSTC STC20060218174009602/18/06 17:40:31  5-MIN KSTC 182340Z 24008KT 10SM CLR M15/M22 A3048 510 54 -3100 240/08 RMK AO2
14926KSTC STC20060218174509602/18/06 17:45:31  5-MIN KSTC 182345Z 25009KT 10SM CLR M15/M22 A3048 510 54 -3100 240/09 RMK AO2
14926KSTC STC20060218175013102/18/06 17:50:31  5-MIN KSTC 182350Z 25009KT 10SM CLR M15/M22 A3048 510 54 -3100 240/09 RMK AO2 SLP364 T11501222 11139 21161 56025
14926KSTC STC20060218175509602/18/06 17:55:31  5-MIN KSTC 182355Z 24008KT 10SM CLR M15/M22 A3048 510 54 -3100 240/08 RMK AO2
14926KSTC STC20060218180009602/18/06 18:00:31  5-MIN KSTC 190000Z 23007KT 10SM CLR M16/M22 A3048 510 57 -3100 230/07 RMK AO2
14926KSTC STC20060218180509602/18/06 18:05:31  5-MIN KSTC 190005Z 23006KT 10SM CLR M16/M22 A3048 510 57 -3100 230/06 RMK AO2
14926KSTC STC20060218181009602/18/06 18:10:31  5-MIN KSTC 190010Z 22006KT 10SM CLR M16/M23 A3048 510 54 -3100 220/06 RMK AO2
14926KSTC STC20060218181509602/18/06 18:15:31  5-MIN KSTC 190015Z 22006KT 10SM CLR M17/M23 A3048 510 60 -3300 220/06 RMK AO2
14926KSTC STC20060218182009602/18/06 18:20:31  5-MIN KSTC 190020Z 23007KT 10SM CLR M17/M23 A3048 510 60 -3300 220/07 RMK AO2
14926KSTC STC20060218182509602/18/06 18:25:31  5-MIN KSTC 190025Z 23007KT 10SM CLR M17/M23 A3048 520 60 -3300 230/07 RMK AO2
14926KSTC STC20060218183009602/18/06 18:30:31  5-MIN KSTC 190030Z 23007KT 10SM CLR M17/M23 A3048 520 60 -3300 230/07 RMK AO2
14926KSTC STC20060218183509602/18/06 18:35:31  5-MIN KSTC 190035Z 23005KT 10SM CLR M17/M22 A3048 520 63 -3300 230/05 RMK AO2
14926KSTC STC20060218184009602/18/06 18:40:31  5-MIN KSTC 190040Z 23005KT 10SM CLR M17/M22 A3048 520 63 -3300 230/05 RMK AO2
14926KSTC STC20060218184509602/18/06 18:45:31  5-MIN KSTC 190045Z 23006KT 10SM CLR M17/M22 A3048 520 63 -3300 230/06 RMK AO2
14926KSTC STC20060218185011302/18/06 18:50:31  5-MIN KSTC 190050Z 23007KT 10SM CLR M16/M22 A3048 520 60 -3200 230/07 RMK AO2 SLP362 T11611222
14926KSTC STC20060218185509602/18/06 18:55:31  5-MIN KSTC 190055Z 23006KT 10SM CLR M16/M22 A3047 520 60 -3200 220/06 RMK AO2
14926KSTC STC20060218190009602/18/06 19:00:31  5-MIN KSTC 190100Z 22007KT 10SM CLR M17/M22 A3047 520 63 -3300 220/07 RMK AO2
14926KSTC STC20060218190509602/18/06 19:05:31  5-MIN KSTC 190105Z 22007KT 10SM CLR M17/M22 A3047 520 65 -3400 220/07 RMK AO2
14926KSTC STC20060218191009602/18/06 19:10:31  5-MIN KSTC 190110Z 23006KT 10SM CLR M17/M22 A3047 520 65 -3400 220/06 RMK AO2
14926KSTC STC20060218191509602/18/06 19:15:31  5-MIN KSTC 190115Z 23006KT 10SM CLR M17/M22 A3047 520 63 -3300 230/06 RMK AO2
14926KSTC STC20060218192009602/18/06 19:20:31  5-MIN KSTC 190120Z 22006KT 10SM CLR M17/M22 A3047 520 63 -3300 220/06 RMK AO2
14926KSTC STC20060218192509602/18/06 19:25:31  5-MIN KSTC 190125Z 22006KT 10SM CLR M17/M22 A3047 520 65 -3400 220/06 RMK AO2
14926KSTC STC20060218193009602/18/06 19:30:31  5-MIN KSTC 190130Z 22006KT 10SM CLR M17/M22 A3047 520 65 -3400 220/06 RMK AO2
14926KSTC STC20060218193509602/18/06 19:35:31  5-MIN KSTC 190135Z 22007KT 10SM CLR M17/M22 A3047 520 65 -3300 220/07 RMK AO2
14926KSTC STC20060218194009602/18/06 19:40:31  5-MIN KSTC 190140Z 22008KT 10SM CLR M17/M22 A3047 530 65 -3300 210/08 RMK AO2
14926KSTC STC20060218194509602/18/06 19:45:31  5-MIN KSTC 190145Z 22007KT 10SM CLR M17/M22 A3046 530 65 -3300 220/07 RMK AO2
14926KSTC STC20060218195011302/18/06 19:50:31  5-MIN KSTC 190150Z 22007KT 10SM CLR M18/M23 A3046 530 65 -3400 220/07 RMK AO2 SLP357 T11781228
14926KSTC STC20060218195509602/18/06 19:55:31  5-MIN KSTC 190155Z 23007KT 10SM CLR M17/M22 A3046 530 65 -3300 220/07 RMK AO2
14926KSTC STC20060218200009602/18/06 20:00:31  5-MIN KSTC 190200Z 22006KT 10SM CLR M17/M22 A3046 530 65 -3300 220/06 RMK AO2
14926KSTC STC20060218200509602/18/06 20:05:31  5-MIN KSTC 190205Z 22006KT 10SM CLR M18/M22 A3046 530 69 -3400 220/06 RMK AO2
14926KSTC STC20060218201009602/18/06 20:10:31  5-MIN KSTC 190210Z 23005KT 10SM CLR M17/M22 A3046 540 65 -3300 230/05 RMK AO2
14926KSTC STC20060218201509602/18/06 20:15:31  5-MIN KSTC 190215Z 22004KT 10SM CLR M17/M22 A3045 540 65 -3300 220/04 RMK AO2
14926KSTC STC20060218202009602/18/06 20:20:31  5-MIN KSTC 190220Z 22005KT 10SM CLR M17/M22 A3045 540 65 -3300 210/05 RMK AO2
14926KSTC STC20060218202509602/18/06 20:25:31  5-MIN KSTC 190225Z 21004KT 10SM CLR M17/M22 A3045 540 65 -3300 210/04 RMK AO2
14926KSTC STC20060218203009602/18/06 20:30:31  5-MIN KSTC 190230Z 21003KT 10SM CLR M18/M22 A3045 540 69 -3400 200/03 RMK AO2
14926KSTC STC20060218203509602/18/06 20:35:31  5-MIN KSTC 190235Z 00000KT 10SM CLR M18/M22 A3045 540 72 -3500 000/00 RMK AO2
14926KSTC STC20060218204009602/18/06 20:40:31  5-MIN KSTC 190240Z 00000KT 10SM CLR M18/M22 A3045 540 69 -3400 000/00 RMK AO2
14926KSTC STC20060218204509602/18/06 20:45:31  5-MIN KSTC 190245Z 00000KT 10SM CLR M18/M22 A3044 550 69 -3400 000/00 RMK AO2
14926KSTC STC20060218205011902/18/06 20:50:31  5-MIN KSTC 190250Z 23004KT 10SM CLR M18/M22 A3044 550 69 -3400 220/04 RMK AO2 SLP349 T11781222 56019
14926KSTC STC20060218205509602/18/06 20:55:31  5-MIN KSTC 190255Z 22005KT 10SM CLR M18/M22 A3044 550 69 -3400 220/05 RMK AO2
14926KSTC STC20060218210009602/18/06 21:00:31  5-MIN KSTC 190300Z 22006KT 10SM CLR M18/M23 A3044 550 65 -3400 210/06 RMK AO2
14926KSTC STC20060218210509602/18/06 21:05:31  5-MIN KSTC 190305Z 21006KT 10SM CLR M18/M23 A3044 550 68 -3500 210/06 RMK AO2
14926KSTC STC20060218211009602/18/06 21:10:31  5-MIN KSTC 190310Z 21006KT 10SM CLR M19/M23 A3044 550 68 -3500 210/06 RMK AO2
14926KSTC STC20060218211509602/18/06 21:15:31  5-MIN KSTC 190315Z 22006KT 10SM CLR M19/M23 A3044 550 68 -3500 210/06 RMK AO2
14926KSTC STC20060218212009602/18/06 21:20:31  5-MIN KSTC 190320Z 21006KT 10SM CLR M19/M23 A3043 550 68 -3500 210/06 RMK AO2
14926KSTC STC20060218212509602/18/06 21:25:31  5-MIN KSTC 190325Z 21007KT 10SM CLR M19/M23 A3043 560 68 -3500 200/07 RMK AO2
14926KSTC STC20060218213009602/18/06 21:30:31  5-MIN KSTC 190330Z 20006KT 10SM CLR M19/M23 A3043 560 68 -3500 200/06 RMK AO2
14926KSTC STC20060218213509602/18/06 21:35:31  5-MIN KSTC 190335Z 21007KT 10SM CLR M19/M23 A3043 560 68 -3500 200/07 RMK AO2
14926KSTC STC20060218214009602/18/06 21:40:31  5-MIN KSTC 190340Z 20007KT 10SM CLR M19/M23 A3043 560 68 -3500 200/07 RMK AO2
14926KSTC STC20060218214509602/18/06 21:45:31  5-MIN KSTC 190345Z 20007KT 10SM CLR M19/M23 A3043 560 68 -3500 200/07 RMK AO2
14926KSTC STC20060218215011302/18/06 21:50:31  5-MIN KSTC 190350Z 20006KT 10SM CLR M19/M23 A3043 560 68 -3500 200/06 RMK AO2 SLP344 T11891233
14926KSTC STC20060218215509602/18/06 21:55:31  5-MIN KSTC 190355Z 20006KT 10SM CLR M19/M23 A3043 560 68 -3500 200/06 RMK AO2
14926KSTC STC20060218220009602/18/06 22:00:31  5-MIN KSTC 190400Z 21005KT 10SM CLR M19/M23 A3042 560 72 -3500 210/05 RMK AO2
14926KSTC STC20060218220509602/18/06 22:05:31  5-MIN KSTC 190405Z 21005KT 10SM CLR M19/M23 A3042 570 68 -3500 210/05 RMK AO2
14926KSTC STC20060218221009602/18/06 22:10:31  5-MIN KSTC 190410Z 20005KT 10SM CLR M18/M23 A3042 570 68 -3400 200/05 RMK AO2
14926KSTC STC20060218221509602/18/06 22:15:31  5-MIN KSTC 190415Z 20006KT 10SM CLR M18/M23 A3042 570 68 -3400 200/06 RMK AO2
14926KSTC STC20060218222009602/18/06 22:20:31  5-MIN KSTC 190420Z 20006KT 10SM CLR M19/M23 A3041 570 72 -3500 200/06 RMK AO2
14926KSTC STC20060218222509602/18/06 22:25:31  5-MIN KSTC 190425Z 20006KT 10SM CLR M19/M23 A3041 570 72 -3600 200/06 RMK AO2
14926KSTC STC20060218223009602/18/06 22:30:31  5-MIN KSTC 190430Z 20006KT 10SM CLR M19/M23 A3041 580 72 -3600 190/06 RMK AO2
14926KSTC STC20060218223509602/18/06 22:35:31  5-MIN KSTC 190435Z 20005KT 10SM CLR M19/M23 A3041 580 72 -3600 200/05 RMK AO2
14926KSTC STC20060218224009602/18/06 22:40:31  5-MIN KSTC 190440Z 20006KT 10SM CLR M19/M23 A3041 580 72 -3600 190/06 RMK AO2
14926KSTC STC20060218224509602/18/06 22:45:31  5-MIN KSTC 190445Z 20006KT 10SM CLR M19/M23 A3041 580 72 -3500 200/06 RMK AO2
14926KSTC STC20060218225011302/18/06 22:50:31  5-MIN KSTC 190450Z 20005KT 10SM CLR M19/M23 A3040 580 72 -3500 200/05 RMK AO2 SLP334 T11891228
14926KSTC STC20060218225510102/18/06 22:55:31  5-MIN KSTC 190455Z AUTO 20004KT 10SM CLR M19/M23 A3040 580 72 -3600 200/04 RMK AO2
14926KSTC STC20060218230010102/18/06 23:00:31  5-MIN KSTC 190500Z AUTO 19004KT 10SM CLR M19/M23 A3040 580 75 -3600 190/04 RMK AO2
14926KSTC STC20060218230510102/18/06 23:05:31  5-MIN KSTC 190505Z AUTO 19004KT 10SM CLR M19/M23 A3040 590 72 -3600 190/04 RMK AO2
14926KSTC STC20060218231010102/18/06 23:10:31  5-MIN KSTC 190510Z AUTO 20005KT 10SM CLR M19/M23 A3040 590 72 -3600 190/05 RMK AO2
14926KSTC STC20060218231510102/18/06 23:15:31  5-MIN KSTC 190515Z AUTO 20006KT 10SM CLR M19/M23 A3040 590 72 -3600 200/06 RMK AO2
14926KSTC STC20060218232010102/18/06 23:20:31  5-MIN KSTC 190520Z AUTO 21006KT 10SM CLR M19/M23 A3039 590 72 -3600 200/06 RMK AO2
14926KSTC STC20060218232510102/18/06 23:25:31  5-MIN KSTC 190525Z AUTO 21006KT 10SM CLR M19/M23 A3039 590 72 -3600 200/06 RMK AO2
14926KSTC STC20060218233010102/18/06 23:30:31  5-MIN KSTC 190530Z AUTO 21005KT 10SM CLR M19/M23 A3039 590 72 -3600 210/05 RMK AO2
14926KSTC STC20060218233510102/18/06 23:35:31  5-MIN KSTC 190535Z AUTO 22006KT 10SM CLR M19/M23 A3039 590 68 -3500 210/06 RMK AO2
14926KSTC STC20060218234010102/18/06 23:40:31  5-MIN KSTC 190540Z AUTO 22006KT 10SM CLR M19/M23 A3039 590 72 -3500 220/06 RMK AO2
14926KSTC STC20060218234510102/18/06 23:45:31  5-MIN KSTC 190545Z AUTO 22006KT 10SM CLR M19/M23 A3039 600 72 -3500 220/06 RMK AO2
14926KSTC STC20060218235014602/18/06 23:50:31  5-MIN KSTC 190550Z AUTO 20006KT 10SM CLR M18/M23 A3039 600 68 -3400 200/06 RMK AO2 SLP328 T11831228 11150 21200 411391267 58014
14926KSTC STC20060218235510102/18/06 23:55:31  5-MIN KSTC 190555Z AUTO 20006KT 10SM CLR M19/M23 A3039 600 68 -3500 190/06 RMK AO2
14926KSTC STC20060219000010102/19/06 00:00:32  5-MIN KSTC 190600Z AUTO 20006KT 10SM CLR M19/M23 A3038 600 68 -3500 200/06 RMK AO2
14926KSTC STC20060219000510102/19/06 00:05:31  5-MIN KSTC 190605Z AUTO 20006KT 10SM CLR M19/M23 A3038 600 68 -3500 200/06 RMK AO2
14926KSTC STC20060219001010102/19/06 00:10:31  5-MIN KSTC 190610Z AUTO 20006KT 10SM CLR M19/M23 A3038 600 68 -3500 200/06 RMK AO2
14926KSTC STC20060219001510102/19/06 00:15:31  5-MIN KSTC 190615Z AUTO 21006KT 10SM CLR M19/M23 A3038 600 68 -3500 200/06 RMK AO2
14926KSTC STC20060219002010102/19/06 00:20:31  5-MIN KSTC 190620Z AUTO 21007KT 10SM CLR M19/M23 A3038 600 68 -3500 210/07 RMK AO2
14926KSTC STC20060219002510102/19/06 00:25:31  5-MIN KSTC 190625Z AUTO 21007KT 10SM CLR M19/M23 A3038 600 68 -3500 210/07 RMK AO2
14926KSTC STC20060219003010102/19/06 00:30:31  5-MIN KSTC 190630Z AUTO 22006KT 10SM CLR M19/M23 A3038 600 68 -3500 220/06 RMK AO2
14926KSTC STC20060219003510102/19/06 00:35:31  5-MIN KSTC 190635Z AUTO 22007KT 10SM CLR M18/M23 A3038 600 68 -3400 220/07 RMK AO2
14926KSTC STC20060219004010102/19/06 00:40:31  5-MIN KSTC 190640Z AUTO 22008KT 10SM CLR M18/M23 A3038 600 65 -3300 220/08 RMK AO2
14926KSTC STC20060219004510102/19/06 00:45:31  5-MIN KSTC 190645Z AUTO 22008KT 10SM CLR M17/M23 A3038 600 62 -3200 220/08 RMK AO2
14926KSTC STC20060219005011802/19/06 00:50:31  5-MIN KSTC 190650Z AUTO 23008KT 10SM CLR M17/M23 A3038 600 62 -3200 230/08 RMK AO2 SLP324 T11721228
14926KSTC STC20060219005510102/19/06 00:55:31  5-MIN KSTC 190655Z AUTO 23008KT 10SM CLR M17/M23 A3038 610 62 -3200 220/08 RMK AO2
14926KSTC STC20060219010010102/19/06 01:00:31  5-MIN KSTC 190700Z AUTO 23007KT 10SM CLR M17/M23 A3038 610 62 -3200 220/07 RMK AO2
14926KSTC STC20060219010510102/19/06 01:05:31  5-MIN KSTC 190705Z AUTO 22008KT 10SM CLR M17/M23 A3038 610 62 -3200 220/08 RMK AO2
14926KSTC STC20060219011010102/19/06 01:10:31  5-MIN KSTC 190710Z AUTO 23008KT 10SM CLR M17/M23 A3038 610 62 -3200 230/08 RMK AO2
14926KSTC STC20060219011510102/19/06 01:15:31  5-MIN KSTC 190715Z AUTO 23008KT 10SM CLR M17/M23 A3037 610 60 -3200 230/08 RMK AO2
14926KSTC STC20060219012010102/19/06 01:20:31  5-MIN KSTC 190720Z AUTO 23007KT 10SM CLR M17/M23 A3037 610 62 -3200 220/07 RMK AO2
14926KSTC STC20060219012510102/19/06 01:25:31  5-MIN KSTC 190725Z AUTO 23008KT 10SM CLR M17/M23 A3037 610 62 -3200 220/08 RMK AO2
14926KSTC STC20060219013010102/19/06 01:30:31  5-MIN KSTC 190730Z AUTO 23008KT 10SM CLR M17/M23 A3037 610 62 -3200 230/08 RMK AO2
14926KSTC STC20060219013510102/19/06 01:35:31  5-MIN KSTC 190735Z AUTO 22008KT 10SM CLR M17/M22 A3037 610 63 -3200 220/08 RMK AO2
14926KSTC STC20060219014010102/19/06 01:40:31  5-MIN KSTC 190740Z AUTO 22008KT 10SM CLR M17/M23 A3037 620 62 -3200 220/08 RMK AO2
14926KSTC STC20060219014510102/19/06 01:45:31  5-MIN KSTC 190745Z AUTO 23008KT 10SM CLR M17/M23 A3036 620 62 -3200 220/08 RMK AO2
14926KSTC STC20060219015011802/19/06 01:50:31  5-MIN KSTC 190750Z AUTO 23008KT 10SM CLR M17/M22 A3036 620 63 -3100 220/08 RMK AO2 SLP317 T11671222
14926KSTC STC20060219015510102/19/06 01:55:31  5-MIN KSTC 190755Z AUTO 23008KT 10SM CLR M17/M22 A3036 630 63 -3100 220/08 RMK AO2
14926KSTC STC20060219020010102/19/06 02:00:31  5-MIN KSTC 190800Z AUTO 23007KT 10SM CLR M17/M23 A3035 630 62 -3200 230/07 RMK AO2
14926KSTC STC20060219022010102/19/06 02:20:31  5-MIN KSTC 190820Z AUTO 22008KT 10SM CLR M18/M23 A3035 630 65 -3300 220/08 RMK AO2
14926KSTC STC20060219022510102/19/06 02:25:31  5-MIN KSTC 190825Z AUTO 22007KT 10SM CLR M18/M23 A3035 630 65 -3300 220/07 RMK AO2
14926KSTC STC20060219023010102/19/06 02:30:31  5-MIN KSTC 190830Z AUTO 22007KT 10SM CLR M18/M23 A3035 640 65 -3300 220/07 RMK AO2
14926KSTC STC20060219023510102/19/06 02:35:31  5-MIN KSTC 190835Z AUTO 22008KT 10SM CLR M18/M23 A3034 640 65 -3300 220/08 RMK AO2
14926KSTC STC20060219024010102/19/06 02:40:31  5-MIN KSTC 190840Z AUTO 22007KT 10SM CLR M17/M23 A3034 640 62 -3200 220/07 RMK AO2
14926KSTC STC20060219024510102/19/06 02:45:31  5-MIN KSTC 190845Z AUTO 22008KT 10SM CLR M18/M23 A3034 640 65 -3300 220/08 RMK AO2
14926KSTC STC20060219025012402/19/06 02:50:31  5-MIN KSTC 190850Z AUTO 22008KT 10SM CLR M18/M23 A3034 640 65 -3300 210/08 RMK AO2 SLP309 T11781228 58018
14926KSTC STC20060219025510102/19/06 02:55:31  5-MIN KSTC 190855Z AUTO 22008KT 10SM CLR M18/M23 A3033 650 65 -3300 210/08 RMK AO2
14926KSTC STC20060219030010102/19/06 03:00:31  5-MIN KSTC 190900Z AUTO 22009KT 10SM CLR M18/M23 A3033 650 65 -3300 220/09 RMK AO2
14926KSTC STC20060219030510102/19/06 03:05:31  5-MIN KSTC 190905Z AUTO 22007KT 10SM CLR M18/M23 A3033 650 65 -3300 210/07 RMK AO2
14926KSTC STC20060219031010102/19/06 03:10:31  5-MIN KSTC 190910Z AUTO 22008KT 10SM CLR M18/M23 A3033 650 68 -3300 220/08 RMK AO2
14926KSTC STC20060219031510102/19/06 03:15:31  5-MIN KSTC 190915Z AUTO 22007KT 10SM CLR M18/M23 A3032 650 65 -3300 210/07 RMK AO2
14926KSTC STC20060219032010102/19/06 03:20:31  5-MIN KSTC 190920Z AUTO 20006KT 10SM CLR M18/M23 A3032 660 68 -3300 200/06 RMK AO2
14926KSTC STC20060219032510102/19/06 03:25:31  5-MIN KSTC 190925Z AUTO 20007KT 10SM CLR M19/M23 A3032 660 68 -3400 200/07 RMK AO2
14926KSTC STC20060219033010102/19/06 03:30:31  5-MIN KSTC 190930Z AUTO 21007KT 10SM CLR M19/M23 A3032 660 68 -3400 200/07 RMK AO2
14926KSTC STC20060219033510102/19/06 03:35:31  5-MIN KSTC 190935Z AUTO 21006KT 10SM CLR M19/M23 A3031 670 68 -3400 200/06 RMK AO2
14926KSTC STC20060219034010102/19/06 03:40:31  5-MIN KSTC 190940Z AUTO 21005KT 10SM CLR M19/M23 A3031 670 68 -3400 210/05 RMK AO2
14926KSTC STC20060219034510102/19/06 03:45:31  5-MIN KSTC 190945Z AUTO 22006KT 10SM CLR M19/M23 A3031 670 68 -3400 210/06 RMK AO2
14926KSTC STC20060219035011802/19/06 03:50:31  5-MIN KSTC 190950Z AUTO 21007KT 10SM CLR M19/M23 A3031 670 68 -3400 210/07 RMK AO2 SLP300 T11891233
14926KSTC STC20060219035510102/19/06 03:55:31  5-MIN KSTC 190955Z AUTO 22007KT 10SM CLR M19/M23 A3031 670 68 -3400 210/07 RMK AO2
14926KSTC STC20060219040010102/19/06 04:00:31  5-MIN KSTC 191000Z AUTO 22008KT 10SM CLR M18/M23 A3031 670 65 -3300 220/08 RMK AO2
14926KSTC STC20060219040510102/19/06 04:05:31  5-MIN KSTC 191005Z AUTO 22009KT 10SM CLR M18/M23 A3030 670 65 -3200 220/09 RMK AO2
14926KSTC STC20060219041010102/19/06 04:10:31  5-MIN KSTC 191010Z AUTO 22009KT 10SM CLR M18/M23 A3030 680 65 -3200 220/09 RMK AO2
14926KSTC STC20060219041510102/19/06 04:15:31  5-MIN KSTC 191015Z AUTO 22009KT 10SM CLR M18/M23 A3030 680 65 -3200 220/09 RMK AO2
14926KSTC STC20060219042010102/19/06 04:20:31  5-MIN KSTC 191020Z AUTO 22009KT 10SM CLR M18/M23 A3030 680 65 -3200 210/09 RMK AO2
14926KSTC STC20060219042510102/19/06 04:25:31  5-MIN KSTC 191025Z AUTO 22008KT 10SM CLR M18/M23 A3030 680 65 -3200 210/08 RMK AO2
14926KSTC STC20060219043010102/19/06 04:30:31  5-MIN KSTC 191030Z AUTO 22008KT 10SM CLR M18/M23 A3029 680 68 -3300 210/08 RMK AO2
14926KSTC STC20060219043510102/19/06 04:35:31  5-MIN KSTC 191035Z AUTO 20008KT 10SM CLR M19/M23 A3029 680 68 -3400 200/08 RMK AO2
14926KSTC STC20060219044010102/19/06 04:40:31  5-MIN KSTC 191040Z AUTO 20008KT 10SM CLR M19/M23 A3029 690 68 -3400 190/08 RMK AO2
14926KSTC STC20060219044510102/19/06 04:45:31  5-MIN KSTC 191045Z AUTO 20008KT 10SM CLR M19/M23 A3029 690 68 -3400 200/08 RMK AO2
14926KSTC STC20060219045011802/19/06 04:50:31  5-MIN KSTC 191050Z AUTO 20009KT 10SM CLR M19/M23 A3029 690 72 -3400 200/09 RMK AO2 SLP293 T11941233
14926KSTC STC20060219045510102/19/06 04:55:31  5-MIN KSTC 191055Z AUTO 21009KT 10SM CLR M19/M23 A3028 690 72 -3400 200/09 RMK AO2
14926KSTC STC20060219050010102/19/06 05:00:31  5-MIN KSTC 191100Z AUTO 21009KT 10SM CLR M19/M23 A3028 690 68 -3400 210/09 RMK AO2
14926KSTC STC20060219050510102/19/06 05:05:31  5-MIN KSTC 191105Z AUTO 22009KT 10SM CLR M19/M23 A3028 690 68 -3400 210/09 RMK AO2
14926KSTC STC20060219051010102/19/06 05:10:31  5-MIN KSTC 191110Z AUTO 22010KT 10SM CLR M18/M23 A3028 700 68 -3300 210/10 RMK AO2
14926KSTC STC20060219051510102/19/06 05:15:31  5-MIN KSTC 191115Z AUTO 22009KT 10SM CLR M18/M23 A3028 700 68 -3300 210/09 RMK AO2
14926KSTC STC20060219052010102/19/06 05:20:31  5-MIN KSTC 191120Z AUTO 22008KT 10SM CLR M18/M23 A3028 700 68 -3300 220/08 RMK AO2
14926KSTC STC20060219052510102/19/06 05:25:31  5-MIN KSTC 191125Z AUTO 22009KT 10SM CLR M18/M23 A3028 700 68 -3300 220/09 RMK AO2
14926KSTC STC20060219053010102/19/06 05:30:31  5-MIN KSTC 191130Z AUTO 22008KT 10SM CLR M18/M23 A3027 700 68 -3300 220/08 RMK AO2
14926KSTC STC20060219053510102/19/06 05:35:31  5-MIN KSTC 191135Z AUTO 22008KT 10SM CLR M18/M23 A3027 700 68 -3300 220/08 RMK AO2
14926KSTC STC20060219054010102/19/06 05:40:31  5-MIN KSTC 191140Z AUTO 22008KT 10SM CLR M18/M23 A3027 700 68 -3300 220/08 RMK AO2
14926KSTC STC20060219054510102/19/06 05:45:31  5-MIN KSTC 191145Z AUTO 22007KT 10SM CLR M19/M23 A3027 710 68 -3300 220/07 RMK AO2
14926KSTC STC20060219055013602/19/06 05:50:31  5-MIN KSTC 191150Z AUTO 22006KT 10SM CLR M19/M23 A3027 710 68 -3300 220/06 RMK AO2 SLP287 T11891233 11167 21194 58017
14926KSTC STC20060219055510102/19/06 05:55:31  5-MIN KSTC 191155Z AUTO 22006KT 10SM CLR M19/M23 A3027 710 68 -3300 220/06 RMK AO2
14926KSTC STC20060219060010102/19/06 06:00:31  5-MIN KSTC 191200Z AUTO 22006KT 10SM CLR M19/M23 A3026 710 68 -3300 220/06 RMK AO2
14926KSTC STC20060219060510102/19/06 06:05:31  5-MIN KSTC 191205Z AUTO 23005KT 10SM CLR M19/M23 A3026 710 68 -3300 220/05 RMK AO2
14926KSTC STC20060219061010102/19/06 06:10:31  5-MIN KSTC 191210Z AUTO 22006KT 10SM CLR M19/M23 A3026 720 68 -3300 220/06 RMK AO2
14926KSTC STC20060219061510102/19/06 06:15:31  5-MIN KSTC 191215Z AUTO 22006KT 10SM CLR M19/M23 A3025 720 68 -3300 220/06 RMK AO2
14926KSTC STC20060219062010102/19/06 06:20:31  5-MIN KSTC 191220Z AUTO 23004KT 10SM CLR M19/M23 A3025 730 68 -3300 220/04 RMK AO2
14926KSTC STC20060219062510102/19/06 06:25:31  5-MIN KSTC 191225Z AUTO 22004KT 10SM CLR M19/M23 A3025 730 72 -3400 220/04 RMK AO2
14926KSTC STC20060219063010102/19/06 06:30:31  5-MIN KSTC 191230Z AUTO 22005KT 10SM CLR M19/M23 A3025 730 72 -3400 210/05 RMK AO2
14926KSTC STC20060219063510102/19/06 06:35:31  5-MIN KSTC 191235Z AUTO 22005KT 10SM CLR M19/M23 A3025 730 72 -3400 210/05 RMK AO2
14926KSTC STC20060219064010102/19/06 06:40:31  5-MIN KSTC 191240Z AUTO 22005KT 10SM CLR M19/M23 A3024 730 72 -3400 220/05 RMK AO2
14926KSTC STC20060219064510102/19/06 06:45:31  5-MIN KSTC 191245Z AUTO 22006KT 10SM CLR M19/M23 A3024 730 72 -3400 220/06 RMK AO2
14926KSTC STC20060219065011802/19/06 06:50:31  5-MIN KSTC 191250Z AUTO 22007KT 10SM CLR M19/M23 A3024 730 72 -3400 220/07 RMK AO2 SLP280 T11941233
14926KSTC STC20060219065510102/19/06 06:55:31  5-MIN KSTC 191255Z AUTO 22008KT 10SM CLR M19/M23 A3025 730 72 -3400 220/08 RMK AO2
14926KSTC STC20060219070009602/19/06 07:00:31  5-MIN KSTC 191300Z 22009KT 10SM CLR M19/M23 A3025 730 68 -3300 220/09 RMK AO2
14926KSTC STC20060219070509602/19/06 07:05:31  5-MIN KSTC 191305Z 22009KT 10SM CLR M19/M23 A3024 730 68 -3300 220/09 RMK AO2
14926KSTC STC20060219071009602/19/06 07:10:31  5-MIN KSTC 191310Z 22009KT 10SM CLR M19/M23 A3024 730 68 -3300 220/09 RMK AO2
14926KSTC STC20060219071509602/19/06 07:15:31  5-MIN KSTC 191315Z 23009KT 10SM CLR M18/M23 A3024 730 68 -3200 220/09 RMK AO2
14926KSTC STC20060219072009602/19/06 07:20:31  5-MIN KSTC 191320Z 23009KT 10SM CLR M18/M23 A3024 730 68 -3200 220/09 RMK AO2
14926KSTC STC20060219072509602/19/06 07:25:31  5-MIN KSTC 191325Z 23009KT 10SM CLR M18/M23 A3023 740 68 -3200 220/09 RMK AO2
14926KSTC STC20060219073009602/19/06 07:30:31  5-MIN KSTC 191330Z 23009KT 10SM CLR M18/M23 A3023 740 65 -3200 230/09 RMK AO2
14926KSTC STC20060219073509602/19/06 07:35:31  5-MIN KSTC 191335Z 23010KT 10SM CLR M18/M23 A3023 740 65 -3200 230/10 RMK AO2
14926KSTC STC20060219074009602/19/06 07:40:31  5-MIN KSTC 191340Z 23011KT 10SM CLR M17/M22 A3023 740 65 -3100 230/11 RMK AO2
14926KSTC STC20060219074509602/19/06 07:45:31  5-MIN KSTC 191345Z 24010KT 10SM CLR M17/M22 A3023 740 65 -3100 230/10 RMK AO2
14926KSTC STC20060219075011302/19/06 07:50:31  5-MIN KSTC 191350Z 24009KT 10SM CLR M17/M22 A3023 740 65 -3100 240/09 RMK AO2 SLP275 T11721222
14926KSTC STC20060219075509602/19/06 07:55:31  5-MIN KSTC 191355Z 23009KT 10SM CLR M17/M22 A3023 740 65 -3100 230/09 RMK AO2
14926KSTC STC20060219080009602/19/06 08:00:31  5-MIN KSTC 191400Z 24009KT 10SM CLR M17/M22 A3023 740 65 -3100 240/09 RMK AO2
14926KSTC STC20060219080509602/19/06 08:05:31  5-MIN KSTC 191405Z 24009KT 10SM CLR M17/M22 A3023 740 65 -3100 240/09 RMK AO2
14926KSTC STC20060219081009602/19/06 08:10:31  5-MIN KSTC 191410Z 24010KT 10SM CLR M17/M22 A3023 740 65 -3100 240/10 RMK AO2
14926KSTC STC20060219081509602/19/06 08:15:31  5-MIN KSTC 191415Z 24009KT 10SM CLR M17/M22 A3023 740 63 -3000 240/09 RMK AO2
14926KSTC STC20060219082009602/19/06 08:20:31  5-MIN KSTC 191420Z 25009KT 10SM CLR M16/M22 A3023 740 60 -2900 250/09 RMK AO2
14926KSTC STC20060219082509602/19/06 08:25:31  5-MIN KSTC 191425Z 25009KT 10SM CLR M16/M22 A3023 740 63 -2900 250/09 RMK AO2
14926KSTC STC20060219083009602/19/06 08:30:31  5-MIN KSTC 191430Z 25012KT 10SM CLR M16/M22 A3023 740 60 -2800 240/12 RMK AO2
14926KSTC STC20060219083509602/19/06 08:35:31  5-MIN KSTC 191435Z 24011KT 10SM CLR M15/M22 A3023 750 57 -2800 240/11 RMK AO2
14926KSTC STC20060219084009602/19/06 08:40:31  5-MIN KSTC 191440Z 24011KT 10SM CLR M15/M22 A3023 750 57 -2800 230/11 RMK AO2
14926KSTC STC20060219084509602/19/06 08:45:31  5-MIN KSTC 191445Z 24010KT 10SM CLR M15/M22 A3022 750 57 -2800 240/10 RMK AO2
14926KSTC STC20060219085011902/19/06 08:50:31  5-MIN KSTC 191450Z 24009KT 10SM CLR M14/M22 A3022 750 55 -2700 230/09 RMK AO2 SLP271 T11441217 56022
14926KSTC STC20060219085509602/19/06 08:55:31  5-MIN KSTC 191455Z 22007KT 10SM CLR M14/M21 A3022 750 57 -2700 220/07 RMK AO2
14926KSTC STC20060219090009602/19/06 09:00:31  5-MIN KSTC 191500Z 22010KT 10SM CLR M14/M21 A3022 750 57 -2700 220/10 RMK AO2
14926KSTC STC20060219090509602/19/06 09:05:31  5-MIN KSTC 191505Z 22009KT 10SM CLR M14/M21 A3022 750 57 -2700 210/09 RMK AO2
14926KSTC STC20060219091009602/19/06 09:10:31  5-MIN KSTC 191510Z 22011KT 10SM CLR M14/M21 A3022 750 57 -2700 210/11 RMK AO2
14926KSTC STC20060219091509602/19/06 09:15:31  5-MIN KSTC 191515Z 21010KT 10SM CLR M14/M21 A3022 750 60 -2700 200/10 RMK AO2
14926KSTC STC20060219092009602/19/06 09:20:31  5-MIN KSTC 191520Z 22010KT 10SM CLR M14/M21 A3022 750 60 -2700 220/10 RMK AO2
14926KSTC STC20060219092509602/19/06 09:25:31  5-MIN KSTC 191525Z 22011KT 10SM CLR M14/M21 A3022 750 55 -2600 220/11 RMK AO2
14926KSTC STC20060219093009602/19/06 09:30:31  5-MIN KSTC 191530Z 22010KT 10SM CLR M14/M21 A3022 750 57 -2600 220/10 RMK AO2
14926KSTC STC20060219093509602/19/06 09:35:31  5-MIN KSTC 191535Z 21012KT 10SM CLR M14/M21 A3022 750 57 -2600 210/12 RMK AO2
14926KSTC STC20060219094009602/19/06 09:40:31  5-MIN KSTC 191540Z 22014KT 10SM CLR M14/M21 A3022 750 57 -2600 220/14 RMK AO2
14926KSTC STC20060219094509602/19/06 09:45:31  5-MIN KSTC 191545Z 21010KT 10SM CLR M14/M20 A3021 760 63 -2700 210/10 RMK AO2
14926KSTC STC20060219095011302/19/06 09:50:31  5-MIN KSTC 191550Z 20012KT 10SM CLR M14/M20 A3021 760 63 -2700 200/12 RMK AO2 SLP269 T11441200
14926KSTC STC20060219095509602/19/06 09:55:31  5-MIN KSTC 191555Z 20013KT 10SM CLR M14/M20 A3021 760 63 -2700 200/13 RMK AO2
14926KSTC STC20060219100009602/19/06 10:00:31  5-MIN KSTC 191600Z 20012KT 10SM CLR M14/M20 A3021 760 60 -2600 200/12 RMK AO2
14926KSTC STC20060219100509602/19/06 10:05:31  5-MIN KSTC 191605Z 22013KT 10SM CLR M14/M20 A3021 760 60 -2600 210/13 RMK AO2
14926KSTC STC20060219101009602/19/06 10:10:31  5-MIN KSTC 191610Z 22014KT 10SM CLR M14/M20 A3021 760 60 -2600 210/14 RMK AO2
14926KSTC STC20060219101509602/19/06 10:15:31  5-MIN KSTC 191615Z 22015KT 10SM CLR M14/M20 A3021 760 60 -2600 210/15 RMK AO2
14926KSTC STC20060219102009602/19/06 10:20:31  5-MIN KSTC 191620Z 22014KT 10SM CLR M14/M20 A3021 760 60 -2600 220/14 RMK AO2
14926KSTC STC20060219102509602/19/06 10:25:31  5-MIN KSTC 191625Z 22014KT 10SM CLR M14/M20 A3021 760 60 -2600 220/14 RMK AO2
14926KSTC STC20060219103009602/19/06 10:30:31  5-MIN KSTC 191630Z 23015KT 10SM CLR M13/M20 A3021 760 58 -2500 220/15 RMK AO2
14926KSTC STC20060219103509602/19/06 10:35:31  5-MIN KSTC 191635Z 23015KT 10SM CLR M13/M20 A3021 760 58 -2500 220/15 RMK AO2
14926KSTC STC20060219104009602/19/06 10:40:31  5-MIN KSTC 191640Z 22016KT 10SM CLR M13/M20 A3020 760 58 -2500 220/16 RMK AO2
14926KSTC STC20060219104509602/19/06 10:45:31  5-MIN KSTC 191645Z 23015KT 10SM CLR M13/M20 A3020 770 55 -2400 220/15 RMK AO2
14926KSTC STC20060219105011302/19/06 10:50:31  5-MIN KSTC 191650Z 22014KT 10SM CLR M13/M19 A3020 770 58 -2400 220/14 RMK AO2 SLP263 T11281194
14926KSTC STC20060219105509602/19/06 10:55:31  5-MIN KSTC 191655Z 22014KT 10SM CLR M13/M19 A3020 770 58 -2400 210/14 RMK AO2
14926KSTC STC20060219110009602/19/06 11:00:31  5-MIN KSTC 191700Z 22014KT 10SM CLR M13/M19 A3020 770 58 -2400 220/14 RMK AO2
14926KSTC STC20060219110509602/19/06 11:05:31  5-MIN KSTC 191705Z 23013KT 10SM CLR M12/M19 A3020 760 55 -2400 230/13 RMK AO2
14926KSTC STC20060219111009602/19/06 11:10:31  5-MIN KSTC 191710Z 22013KT 10SM CLR M12/M19 A3020 760 58 -2400 220/13 RMK AO2
14926KSTC STC20060219111509602/19/06 11:15:31  5-MIN KSTC 191715Z 22013KT 10SM CLR M12/M19 A3020 770 58 -2400 220/13 RMK AO2
14926KSTC STC20060219112009602/19/06 11:20:31  5-MIN KSTC 191720Z 22016KT 10SM CLR M12/M19 A3020 770 55 -2400 220/16 RMK AO2
14926KSTC STC20060219112509602/19/06 11:25:31  5-MIN KSTC 191725Z 22015KT 10SM CLR M12/M19 A3020 770 55 -2400 220/15 RMK AO2
14926KSTC STC20060219113009602/19/06 11:30:31  5-MIN KSTC 191730Z 22016KT 10SM CLR M12/M19 A3020 770 55 -2300 220/16 RMK AO2
14926KSTC STC20060219113509602/19/06 11:35:31  5-MIN KSTC 191735Z 22014KT 10SM CLR M12/M19 A3019 770 55 -2300 210/14 RMK AO2
14926KSTC STC20060219114009602/19/06 11:40:31  5-MIN KSTC 191740Z 22014KT 10SM CLR M12/M19 A3019 780 55 -2300 220/14 RMK AO2
14926KSTC STC20060219114509602/19/06 11:45:31  5-MIN KSTC 191745Z 23014KT 10SM CLR M12/M18 A3019 780 58 -2300 220/14 RMK AO2
14926KSTC STC20060219115013102/19/06 11:50:31  5-MIN KSTC 191750Z 22015KT 10SM CLR M12/M18 A3019 780 58 -2300 220/15 RMK AO2 SLP258 T11171183 11117 21194 56015
14926KSTC STC20060219115509602/19/06 11:55:31  5-MIN KSTC 191755Z 21014KT 10SM CLR M12/M18 A3019 780 58 -2300 210/14 RMK AO2
14926KSTC STC20060219120009602/19/06 12:00:31  5-MIN KSTC 191800Z 23012KT 10SM CLR M11/M18 A3019 780 55 -2200 220/12 RMK AO2
14926KSTC STC20060219120509602/19/06 12:05:31  5-MIN KSTC 191805Z 23013KT 10SM CLR M11/M18 A3018 780 55 -2200 220/13 RMK AO2
14926KSTC STC20060219121009602/19/06 12:10:31  5-MIN KSTC 191810Z 22014KT 10SM CLR M11/M18 A3018 790 55 -2200 220/14 RMK AO2
14926KSTC STC20060219121509602/19/06 12:15:31  5-MIN KSTC 191815Z 22015KT 10SM CLR M11/M18 A3018 790 55 -2200 220/15 RMK AO2
14926KSTC STC20060219122009602/19/06 12:20:31  5-MIN KSTC 191820Z 22016KT 10SM CLR M11/M18 A3018 790 55 -2200 220/16 RMK AO2
14926KSTC STC20060219122509602/19/06 12:25:31  5-MIN KSTC 191825Z 22014KT 10SM CLR M11/M18 A3017 790 53 -2100 210/14 RMK AO2
14926KSTC STC20060219123009602/19/06 12:30:31  5-MIN KSTC 191830Z 22015KT 10SM CLR M11/M18 A3017 800 53 -2100 220/15 RMK AO2
14926KSTC STC20060219123509602/19/06 12:35:31  5-MIN KSTC 191835Z 22016KT 10SM CLR M11/M18 A3017 800 53 -2100 210/16 RMK AO2
14926KSTC STC20060219124009602/19/06 12:40:31  5-MIN KSTC 191840Z 22015KT 10SM CLR M11/M18 A3016 800 56 -2100 220/15 RMK AO2
14926KSTC STC20060219124509602/19/06 12:45:31  5-MIN KSTC 191845Z 22015KT 10SM CLR M10/M18 A3016 800 53 -2000 220/15 RMK AO2
14926KSTC STC20060219125011302/19/06 12:50:31  5-MIN KSTC 191850Z 23014KT 10SM CLR M10/M18 A3016 810 53 -2000 230/14 RMK AO2 SLP246 T11001178
14926KSTC STC20060219125509602/19/06 12:55:31  5-MIN KSTC 191855Z 24011KT 10SM CLR M10/M18 A3016 810 51 -2000 240/11 RMK AO2
14926KSTC STC20060219130009602/19/06 13:00:31  5-MIN KSTC 191900Z 25012KT 10SM CLR M10/M18 A3016 810 53 -2000 250/12 RMK AO2
14926KSTC STC20060219130509602/19/06 13:05:31  5-MIN KSTC 191905Z 24014KT 10SM CLR M09/M18 A3016 810 49 -1900 240/14 RMK AO2
14926KSTC STC20060219131010202/19/06 13:10:31  5-MIN KSTC 191910Z 24013G20KT 10SM CLR M09/M18 A3015 810 51 -1900 240/13G20 RMK AO2
14926KSTC STC20060219131510202/19/06 13:15:31  5-MIN KSTC 191915Z 23014G20KT 10SM CLR M09/M18 A3015 810 51 -1900 230/14G20 RMK AO2
14926KSTC STC20060219132009602/19/06 13:20:31  5-MIN KSTC 191920Z 23013KT 10SM CLR M10/M18 A3015 820 51 -2000 230/13 RMK AO2
14926KSTC STC20060219132509602/19/06 13:25:31  5-MIN KSTC 191925Z 24014KT 10SM CLR M09/M18 A3014 820 51 -1900 230/14 RMK AO2
14926KSTC STC20060219133009602/19/06 13:30:31  5-MIN KSTC 191930Z 24015KT 10SM CLR M09/M18 A3014 820 51 -1900 230/15 RMK AO2
14926KSTC STC20060219133509602/19/06 13:35:31  5-MIN KSTC 191935Z 25014KT 10SM CLR M09/M18 A3014 830 49 -1900 250/14 RMK AO2
14926KSTC STC20060219134009602/19/06 13:40:31  5-MIN KSTC 191940Z 23013KT 10SM CLR M09/M18 A3013 830 49 -1800 230/13 RMK AO2
14926KSTC STC20060219134509602/19/06 13:45:31  5-MIN KSTC 191945Z 24015KT 10SM CLR M09/M18 A3013 830 49 -1800 240/15 RMK AO2
14926KSTC STC20060219135011302/19/06 13:50:31  5-MIN KSTC 191950Z 24015KT 10SM CLR M09/M18 A3013 830 49 -1800 240/15 RMK AO2 SLP236 T10891178
14926KSTC STC20060219135509602/19/06 13:55:31  5-MIN KSTC 191955Z 24013KT 10SM CLR M09/M17 A3013 830 51 -1800 240/13 RMK AO2
14926KSTC STC20060219140009602/19/06 14:00:31  5-MIN KSTC 192000Z 26015KT 10SM CLR M08/M18 A3012 840 47 -1800 260/15 RMK AO2
14926KSTC STC20060219140509602/19/06 14:05:31  5-MIN KSTC 192005Z 24015KT 10SM CLR M08/M17 A3012 840 49 -1800 230/15 RMK AO2
14926KSTC STC20060219141009602/19/06 14:10:31  5-MIN KSTC 192010Z 24015KT 10SM CLR M08/M18 A3012 840 47 -1800 230/15 RMK AO2
14926KSTC STC20060219141509602/19/06 14:15:31  5-MIN KSTC 192015Z 24013KT 10SM CLR M08/M18 A3012 840 47 -1800 240/13 RMK AO2
14926KSTC STC20060219230010102/19/06 23:00:31  5-MIN KSTC 200500Z AUTO 21008KT 10SM CLR M14/M18 A3001 950 73 -2400 210/08 RMK AO2
14926KSTC STC20060219230510102/19/06 23:05:31  5-MIN KSTC 200505Z AUTO 21008KT 10SM CLR M14/M18 A3001 950 73 -2400 210/08 RMK AO2
14926KSTC STC20060219231010102/19/06 23:10:31  5-MIN KSTC 200510Z AUTO 22007KT 10SM CLR M14/M18 A3000 950 73 -2400 210/07 RMK AO2
14926KSTC STC20060219231510102/19/06 23:15:31  5-MIN KSTC 200515Z AUTO 22007KT 10SM CLR M14/M18 A3000 950 73 -2400 220/07 RMK AO2
14926KSTC STC20060219232010102/19/06 23:20:31  5-MIN KSTC 200520Z AUTO 22006KT 10SM CLR M14/M18 A3000 950 73 -2400 220/06 RMK AO2
14926KSTC STC20060219232510102/19/06 23:25:31  5-MIN KSTC 200525Z AUTO 23006KT 10SM CLR M14/M18 A3000 950 73 -2400 230/06 RMK AO2
14926KSTC STC20060219233010102/19/06 23:30:31  5-MIN KSTC 200530Z AUTO 23005KT 10SM CLR M13/M18 A3000 950 69 -2300 230/05 RMK AO2
14926KSTC STC20060219233510102/19/06 23:35:31  5-MIN KSTC 200535Z AUTO 22005KT 10SM CLR M13/M18 A3000 950 69 -2300 220/05 RMK AO2
14926KSTC STC20060219234010102/19/06 23:40:31  5-MIN KSTC 200540Z AUTO 22006KT 10SM CLR M14/M18 A3000 950 73 -2400 210/06 RMK AO2
14926KSTC STC20060219234510102/19/06 23:45:31  5-MIN KSTC 200545Z AUTO 21006KT 10SM CLR M14/M18 A3000 960 69 -2400 210/06 RMK AO2
14926KSTC STC20060219235014602/19/06 23:50:31  5-MIN KSTC 200550Z AUTO 21006KT 10SM CLR M14/M18 A3000 960 73 -2400 210/06 RMK AO2 SLP190 T11391178 11094 21144 410721194 58012
14926KSTC STC20060219235510102/19/06 23:55:31  5-MIN KSTC 200555Z AUTO 22006KT 10SM CLR M14/M18 A2999 960 69 -2300 210/06 RMK AO2
14926KSTC STC20060220000010102/20/06 00:00:32  5-MIN KSTC 200600Z AUTO 22006KT 10SM CLR M14/M18 A2999 960 73 -2400 210/06 RMK AO2
14926KSTC STC20060220000510102/20/06 00:05:31  5-MIN KSTC 200605Z AUTO 22006KT 10SM CLR M14/M18 A2999 960 69 -2300 220/06 RMK AO2
14926KSTC STC20060220001010102/20/06 00:10:31  5-MIN KSTC 200610Z AUTO 23007KT 10SM CLR M14/M18 A2999 960 69 -2300 220/07 RMK AO2
14926KSTC STC20060220001510102/20/06 00:15:31  5-MIN KSTC 200615Z AUTO 23007KT 10SM CLR M14/M18 A2999 960 69 -2300 230/07 RMK AO2
14926KSTC STC20060220002010102/20/06 00:20:31  5-MIN KSTC 200620Z AUTO 23007KT 10SM CLR M13/M18 A2999 970 66 -2300 230/07 RMK AO2
14926KSTC STC20060220002510102/20/06 00:25:31  5-MIN KSTC 200625Z AUTO 23007KT 10SM CLR M13/M18 A2999 970 66 -2200 230/07 RMK AO2
14926KSTC STC20060220003010102/20/06 00:30:31  5-MIN KSTC 200630Z AUTO 24007KT 10SM CLR M12/M18 A2998 970 64 -2100 230/07 RMK AO2
14926KSTC STC20060220003510102/20/06 00:35:31  5-MIN KSTC 200635Z AUTO 23007KT 10SM CLR M12/M18 A2998 970 64 -2100 230/07 RMK AO2
14926KSTC STC20060220004010102/20/06 00:40:31  5-MIN KSTC 200640Z AUTO 23007KT 10SM CLR M12/M18 A2998 970 64 -2100 230/07 RMK AO2
14926KSTC STC20060220004510102/20/06 00:45:31  5-MIN KSTC 200645Z AUTO 23007KT 10SM CLR M12/M17 A2998 970 67 -2100 230/07 RMK AO2
14926KSTC STC20060220005011802/20/06 00:50:31  5-MIN KSTC 200650Z AUTO 23007KT 10SM CLR M12/M17 A2998 970 64 -2000 230/07 RMK AO2 SLP182 T11171172
14926KSTC STC20060220005510102/20/06 00:55:31  5-MIN KSTC 200655Z AUTO 23007KT 10SM CLR M12/M17 A2998 970 64 -2000 220/07 RMK AO2
14926KSTC STC20060220010010102/20/06 01:00:31  5-MIN KSTC 200700Z AUTO 23007KT 10SM CLR M12/M17 A2997 980 67 -2100 230/07 RMK AO2
14926KSTC STC20060220010510102/20/06 01:05:31  5-MIN KSTC 200705Z AUTO 24007KT 10SM CLR M12/M17 A2997 980 67 -2100 230/07 RMK AO2
14926KSTC STC20060220011010102/20/06 01:10:31  5-MIN KSTC 200710Z AUTO 24007KT 10SM CLR M12/M17 A2997 980 67 -2100 230/07 RMK AO2
14926KSTC STC20060220011510102/20/06 01:15:31  5-MIN KSTC 200715Z AUTO 23007KT 10SM CLR M12/M17 A2997 980 67 -2100 230/07 RMK AO2
14926KSTC STC20060220012010102/20/06 01:20:31  5-MIN KSTC 200720Z AUTO 23007KT 10SM CLR M13/M18 A2997 980 66 -2200 230/07 RMK AO2
14926KSTC STC20060220012510102/20/06 01:25:31  5-MIN KSTC 200725Z AUTO 23007KT 10SM CLR M12/M17 A2997 980 67 -2100 230/07 RMK AO2
14926KSTC STC20060220013010102/20/06 01:30:31  5-MIN KSTC 200730Z AUTO 22007KT 10SM CLR M13/M18 A2997 980 66 -2200 220/07 RMK AO2
14926KSTC STC20060220013510102/20/06 01:35:31  5-MIN KSTC 200735Z AUTO 22007KT 10SM CLR M14/M18 A2996 990 69 -2300 210/07 RMK AO2
14926KSTC STC20060220014010102/20/06 01:40:31  5-MIN KSTC 200740Z AUTO 22006KT 10SM CLR M13/M18 A2996 990 69 -2200 220/06 RMK AO2
14926KSTC STC20060220014510102/20/06 01:45:31  5-MIN KSTC 200745Z AUTO 22007KT 10SM CLR M14/M18 A2996 990 69 -2300 220/07 RMK AO2
14926KSTC STC20060220015011802/20/06 01:50:31  5-MIN KSTC 200750Z AUTO 22007KT 10SM CLR M14/M18 A2996 990 69 -2300 220/07 RMK AO2 SLP176 T11391183
14926KSTC STC20060220015510102/20/06 01:55:31  5-MIN KSTC 200755Z AUTO 22007KT 10SM CLR M14/M18 A2996 990 69 -2300 220/07 RMK AO2
14926KSTC STC20060220020010102/20/06 02:00:31  5-MIN KSTC 200800Z AUTO 22008KT 10SM CLR M13/M18 A2996 990 69 -2200 220/08 RMK AO2
14926KSTC STC20060220020510102/20/06 02:05:31  5-MIN KSTC 200805Z AUTO 23008KT 10SM CLR M13/M18 A2996 990 69 -2200 220/08 RMK AO2
14926KSTC STC20060220021010202/20/06 02:10:31  5-MIN KSTC 200810Z AUTO 23007KT 10SM CLR M13/M18 A2995 1000 69 -2200 220/07 RMK AO2
14926KSTC STC20060220021510202/20/06 02:15:31  5-MIN KSTC 200815Z AUTO 23007KT 10SM CLR M13/M17 A2995 1000 70 -2200 220/07 RMK AO2
14926KSTC STC20060220022010202/20/06 02:20:31  5-MIN KSTC 200820Z AUTO 22007KT 10SM CLR M13/M18 A2995 1000 69 -2200 220/07 RMK AO2
14926KSTC STC20060220022510202/20/06 02:25:31  5-MIN KSTC 200825Z AUTO 22007KT 10SM CLR M13/M18 A2995 1000 69 -2200 210/07 RMK AO2
14926KSTC STC20060220023010202/20/06 02:30:31  5-MIN KSTC 200830Z AUTO 21007KT 10SM CLR M14/M18 A2995 1000 73 -2300 210/07 RMK AO2
14926KSTC STC20060220023510202/20/06 02:35:31  5-MIN KSTC 200835Z AUTO 21006KT 10SM CLR M14/M18 A2994 1000 73 -2400 200/06 RMK AO2
14926KSTC STC20060220024010202/20/06 02:40:31  5-MIN KSTC 200840Z AUTO 20006KT 10SM CLR M14/M18 A2994 1010 73 -2400 200/06 RMK AO2
14926KSTC STC20060220024510202/20/06 02:45:31  5-MIN KSTC 200845Z AUTO 21007KT 10SM CLR M14/M18 A2994 1010 73 -2400 210/07 RMK AO2
14926KSTC STC20060220025012502/20/06 02:50:31  5-MIN KSTC 200850Z AUTO 21007KT 10SM CLR M14/M18 A2993 1010 73 -2400 210/07 RMK AO2 SLP167 T11441183 58012
14926KSTC STC20060220025510202/20/06 02:55:31  5-MIN KSTC 200855Z AUTO 21007KT 10SM CLR M15/M18 A2993 1010 76 -2400 210/07 RMK AO2
14926KSTC STC20060220030010202/20/06 03:00:31  5-MIN KSTC 200900Z AUTO 21008KT 10SM CLR M15/M19 A2993 1020 72 -2400 210/08 RMK AO2
14926KSTC STC20060220030510202/20/06 03:05:31  5-MIN KSTC 200905Z AUTO 21007KT 10SM CLR M15/M19 A2993 1020 72 -2400 210/07 RMK AO2
14926KSTC STC20060220031010202/20/06 03:10:31  5-MIN KSTC 200910Z AUTO 22007KT 10SM CLR M15/M18 A2992 1020 76 -2400 210/07 RMK AO2
14926KSTC STC20060220031510202/20/06 03:15:31  5-MIN KSTC 200915Z AUTO 21007KT 10SM CLR M14/M18 A2992 1030 73 -2300 210/07 RMK AO2
14926KSTC STC20060220032010202/20/06 03:20:31  5-MIN KSTC 200920Z AUTO 21007KT 10SM CLR M14/M18 A2992 1030 73 -2300 210/07 RMK AO2
14926KSTC STC20060220032510202/20/06 03:25:31  5-MIN KSTC 200925Z AUTO 22008KT 10SM CLR M14/M18 A2991 1030 73 -2300 210/08 RMK AO2
14926KSTC STC20060220033010202/20/06 03:30:31  5-MIN KSTC 200930Z AUTO 22007KT 10SM CLR M14/M18 A2991 1030 73 -2300 220/07 RMK AO2
14926KSTC STC20060220033510202/20/06 03:35:31  5-MIN KSTC 200935Z AUTO 22008KT 10SM CLR M14/M18 A2991 1030 73 -2300 210/08 RMK AO2
14926KSTC STC20060220034010202/20/06 03:40:31  5-MIN KSTC 200940Z AUTO 22008KT 10SM CLR M14/M18 A2991 1040 69 -2300 210/08 RMK AO2
14926KSTC STC20060220034510202/20/06 03:45:31  5-MIN KSTC 200945Z AUTO 22007KT 10SM CLR M14/M18 A2991 1040 69 -2200 210/07 RMK AO2
14926KSTC STC20060220035011902/20/06 03:50:31  5-MIN KSTC 200950Z AUTO 21007KT 10SM CLR M14/M18 A2990 1040 73 -2300 210/07 RMK AO2 SLP156 T11441183
14926KSTC STC20060220035510202/20/06 03:55:31  5-MIN KSTC 200955Z AUTO 21007KT 10SM CLR M14/M18 A2990 1040 73 -2300 210/07 RMK AO2
14926KSTC STC20060220040010202/20/06 04:00:31  5-MIN KSTC 201000Z AUTO 21007KT 10SM CLR M14/M18 A2990 1050 73 -2300 210/07 RMK AO2
14926KSTC STC20060220040510202/20/06 04:05:31  5-MIN KSTC 201005Z AUTO 21008KT 10SM CLR M14/M18 A2990 1050 73 -2300 210/08 RMK AO2
14926KSTC STC20060220041010202/20/06 04:10:31  5-MIN KSTC 201010Z AUTO 21008KT 10SM CLR M14/M18 A2990 1050 73 -2300 210/08 RMK AO2
14926KSTC STC20060220041510202/20/06 04:15:31  5-MIN KSTC 201015Z AUTO 22007KT 10SM CLR M14/M18 A2990 1050 73 -2300 210/07 RMK AO2
14926KSTC STC20060220042010202/20/06 04:20:31  5-MIN KSTC 201020Z AUTO 21007KT 10SM CLR M14/M18 A2989 1050 73 -2300 210/07 RMK AO2
14926KSTC STC20060220042510202/20/06 04:25:31  5-MIN KSTC 201025Z AUTO 22006KT 10SM CLR M14/M18 A2989 1050 73 -2300 220/06 RMK AO2
14926KSTC STC20060220043010202/20/06 04:30:31  5-MIN KSTC 201030Z AUTO 22006KT 10SM CLR M14/M18 A2989 1060 73 -2300 220/06 RMK AO2
14926KSTC STC20060220043510202/20/06 04:35:31  5-MIN KSTC 201035Z AUTO 22006KT 10SM CLR M14/M18 A2989 1060 73 -2200 220/06 RMK AO2
14926KSTC STC20060220044010202/20/06 04:40:31  5-MIN KSTC 201040Z AUTO 22006KT 10SM CLR M14/M18 A2988 1060 73 -2200 220/06 RMK AO2
14926KSTC STC20060220044510202/20/06 04:45:31  5-MIN KSTC 201045Z AUTO 22007KT 10SM CLR M14/M18 A2988 1060 69 -2200 220/07 RMK AO2
14926KSTC STC20060220045011902/20/06 04:50:31  5-MIN KSTC 201050Z AUTO 22007KT 10SM CLR M14/M18 A2988 1070 73 -2300 220/07 RMK AO2 SLP148 T11441183
14926KSTC STC20060220045510202/20/06 04:55:31  5-MIN KSTC 201055Z AUTO 22007KT 10SM CLR M14/M18 A2988 1070 73 -2300 220/07 RMK AO2
14926KSTC STC20060220050010202/20/06 05:00:31  5-MIN KSTC 201100Z AUTO 22007KT 10SM CLR M15/M18 A2987 1070 76 -2400 210/07 RMK AO2
14926KSTC STC20060220050510202/20/06 05:05:31  5-MIN KSTC 201105Z AUTO 22007KT 10SM CLR M16/M19 A2987 1070 76 -2400 210/07 RMK AO2
14926KSTC STC20060220051010202/20/06 05:10:31  5-MIN KSTC 201110Z AUTO 22007KT 10SM CLR M16/M19 A2987 1080 76 -2400 210/07 RMK AO2
14926KSTC STC20060220051510202/20/06 05:15:31  5-MIN KSTC 201115Z AUTO 22006KT 10SM CLR M16/M19 A2987 1080 76 -2400 220/06 RMK AO2
14926KSTC STC20060220052010202/20/06 05:20:31  5-MIN KSTC 201120Z AUTO 22007KT 10SM CLR M14/M18 A2986 1080 73 -2300 220/07 RMK AO2
14926KSTC STC20060220052510202/20/06 05:25:31  5-MIN KSTC 201125Z AUTO 23006KT 10SM CLR M15/M18 A2986 1080 76 -2300 220/06 RMK AO2
14926KSTC STC20060220053010202/20/06 05:30:31  5-MIN KSTC 201130Z AUTO 23005KT 10SM CLR M15/M18 A2986 1080 76 -2300 230/05 RMK AO2
14926KSTC STC20060220053510202/20/06 05:35:31  5-MIN KSTC 201135Z AUTO 22005KT 10SM CLR M15/M18 A2986 1080 76 -2300 220/05 RMK AO2
14926KSTC STC20060220054010202/20/06 05:40:31  5-MIN KSTC 201140Z AUTO 22005KT 10SM CLR M16/M19 A2986 1080 76 -2400 220/05 RMK AO2
14926KSTC STC20060220054510202/20/06 05:45:31  5-MIN KSTC 201145Z AUTO 22005KT 10SM CLR M15/M19 A2986 1090 72 -2300 220/05 RMK AO2
14926KSTC STC20060220055013702/20/06 05:50:31  5-MIN KSTC 201150Z AUTO 21005KT 10SM CLR M15/M19 A2986 1090 72 -2300 210/05 RMK AO2 SLP141 T11501189 11117 21156 58020
14926KSTC STC20060220055510202/20/06 05:55:31  5-MIN KSTC 201155Z AUTO 20006KT 10SM CLR M16/M19 A2985 1090 76 -2400 200/06 RMK AO2
14926KSTC STC20060220060010202/20/06 06:00:31  5-MIN KSTC 201200Z AUTO 20006KT 10SM CLR M15/M19 A2985 1090 72 -2300 200/06 RMK AO2
14926KSTC STC20060220060510202/20/06 06:05:31  5-MIN KSTC 201205Z AUTO 20006KT 10SM CLR M15/M18 A2985 1090 76 -2300 200/06 RMK AO2
14926KSTC STC20060220061010202/20/06 06:10:31  5-MIN KSTC 201210Z AUTO 20006KT 10SM CLR M16/M19 A2985 1090 76 -2400 200/06 RMK AO2
14926KSTC STC20060220061510202/20/06 06:15:31  5-MIN KSTC 201215Z AUTO 19006KT 10SM CLR M16/M19 A2985 1090 79 -2500 190/06 RMK AO2
14926KSTC STC20060220062010202/20/06 06:20:31  5-MIN KSTC 201220Z AUTO 18006KT 10SM CLR M16/M19 A2985 1090 76 -2500 180/06 RMK AO2
14926KSTC STC20060220062510202/20/06 06:25:31  5-MIN KSTC 201225Z AUTO 19006KT 10SM CLR M16/M19 A2985 1100 76 -2500 190/06 RMK AO2
14926KSTC STC20060220063010202/20/06 06:30:31  5-MIN KSTC 201230Z AUTO 19006KT 10SM CLR M15/M18 A2984 1100 76 -2300 190/06 RMK AO2
14926KSTC STC20060220063510202/20/06 06:35:31  5-MIN KSTC 201235Z AUTO 19006KT 10SM CLR M16/M18 A2984 1100 79 -2400 190/06 RMK AO2
14926KSTC STC20060220064010202/20/06 06:40:31  5-MIN KSTC 201240Z AUTO 19006KT 10SM CLR M16/M19 A2984 1100 76 -2400 190/06 RMK AO2
14926KSTC STC20060220064510202/20/06 06:45:31  5-MIN KSTC 201245Z AUTO 19006KT 10SM CLR M16/M19 A2984 1100 76 -2400 190/06 RMK AO2
14926KSTC STC20060220065011902/20/06 06:50:31  5-MIN KSTC 201250Z AUTO 20007KT 10SM CLR M16/M19 A2984 1110 76 -2400 190/07 RMK AO2 SLP136 T11561189
14926KSTC STC20060220065510202/20/06 06:55:31  5-MIN KSTC 201255Z AUTO 20007KT 10SM CLR M16/M19 A2983 1110 76 -2400 200/07 RMK AO2
14926KSTC STC20060220070009702/20/06 07:00:31  5-MIN KSTC 201300Z 21007KT 10SM CLR M16/M19 A2983 1110 76 -2400 210/07 RMK AO2
14926KSTC STC20060220070509702/20/06 07:05:31  5-MIN KSTC 201305Z 20007KT 10SM CLR M16/M19 A2983 1110 76 -2400 200/07 RMK AO2
14926KSTC STC20060220071009702/20/06 07:10:31  5-MIN KSTC 201310Z 21006KT 10SM CLR M16/M19 A2983 1110 76 -2400 200/06 RMK AO2
14926KSTC STC20060220071509702/20/06 07:15:31  5-MIN KSTC 201315Z 19006KT 10SM CLR M16/M19 A2983 1110 76 -2400 190/06 RMK AO2
14926KSTC STC20060220072009702/20/06 07:20:31  5-MIN KSTC 201320Z 19007KT 10SM CLR M16/M19 A2982 1120 76 -2400 190/07 RMK AO2
14926KSTC STC20060220072509702/20/06 07:25:31  5-MIN KSTC 201325Z 19006KT 10SM CLR M15/M19 A2982 1120 72 -2300 190/06 RMK AO2
14926KSTC STC20060220073009702/20/06 07:30:31  5-MIN KSTC 201330Z 20006KT 10SM CLR M16/M19 A2982 1120 76 -2400 190/06 RMK AO2
14926KSTC STC20060220073509702/20/06 07:35:31  5-MIN KSTC 201335Z 20007KT 10SM CLR M16/M19 A2982 1120 76 -2400 200/07 RMK AO2
14926KSTC STC20060220074009702/20/06 07:40:31  5-MIN KSTC 201340Z 20007KT 10SM CLR M16/M19 A2982 1120 76 -2400 200/07 RMK AO2
14926KSTC STC20060220074509702/20/06 07:45:31  5-MIN KSTC 201345Z 20008KT 10SM CLR M16/M19 A2982 1120 76 -2400 190/08 RMK AO2
14926KSTC STC20060220075011402/20/06 07:50:31  5-MIN KSTC 201350Z 20009KT 10SM CLR M15/M19 A2981 1120 72 -2300 190/09 RMK AO2 SLP129 T11501189
14926KSTC STC20060220075509702/20/06 07:55:31  5-MIN KSTC 201355Z 19009KT 10SM CLR M15/M19 A2981 1120 72 -2300 190/09 RMK AO2
14926KSTC STC20060220080009702/20/06 08:00:31  5-MIN KSTC 201400Z 20008KT 10SM CLR M14/M18 A2982 1120 73 -2200 190/08 RMK AO2
14926KSTC STC20060220080509702/20/06 08:05:31  5-MIN KSTC 201405Z 20008KT 10SM CLR M14/M18 A2981 1120 76 -2200 200/08 RMK AO2
14926KSTC STC20060220081009702/20/06 08:10:31  5-MIN KSTC 201410Z 20009KT 10SM CLR M14/M18 A2981 1130 76 -2200 200/09 RMK AO2
14926KSTC STC20060220081509702/20/06 08:15:31  5-MIN KSTC 201415Z 20009KT 10SM CLR M14/M18 A2981 1130 73 -2100 200/09 RMK AO2
14926KSTC STC20060220082009702/20/06 08:20:31  5-MIN KSTC 201420Z 20010KT 10SM CLR M14/M18 A2981 1130 73 -2100 190/10 RMK AO2
14926KSTC STC20060220082509702/20/06 08:25:31  5-MIN KSTC 201425Z 20009KT 10SM CLR M13/M17 A2981 1130 73 -2100 200/09 RMK AO2
14926KSTC STC20060220083009702/20/06 08:30:31  5-MIN KSTC 201430Z 21008KT 10SM CLR M13/M17 A2981 1120 73 -2100 200/08 RMK AO2
14926KSTC STC20060220083509702/20/06 08:35:31  5-MIN KSTC 201435Z 20007KT 10SM CLR M13/M17 A2982 1120 73 -2100 200/07 RMK AO2
14926KSTC STC20060220084009702/20/06 08:40:31  5-MIN KSTC 201440Z 20007KT 10SM CLR M13/M17 A2982 1120 70 -2000 190/07 RMK AO2
14926KSTC STC20060220084509702/20/06 08:45:31  5-MIN KSTC 201445Z 20008KT 10SM CLR M13/M17 A2981 1130 70 -2000 200/08 RMK AO2
14926KSTC STC20060220085012002/20/06 08:50:31  5-MIN KSTC 201450Z 20008KT 10SM CLR M13/M17 A2981 1130 73 -2000 190/08 RMK AO2 SLP127 T11281167 56026
14926KSTC STC20060220085509702/20/06 08:55:31  5-MIN KSTC 201455Z 20007KT 10SM CLR M13/M17 A2981 1130 73 -2000 200/07 RMK AO2
14926KSTC STC20060220090009702/20/06 09:00:31  5-MIN KSTC 201500Z 21009KT 10SM CLR M12/M17 A2982 1120 70 -1900 210/09 RMK AO2
14926KSTC STC20060220090509702/20/06 09:05:31  5-MIN KSTC 201505Z 21008KT 10SM CLR M12/M17 A2981 1130 67 -1800 210/08 RMK AO2
14926KSTC STC20060220091009702/20/06 09:10:31  5-MIN KSTC 201510Z 22007KT 10SM CLR M12/M17 A2981 1130 67 -1800 220/07 RMK AO2
14926KSTC STC20060220091509702/20/06 09:15:31  5-MIN KSTC 201515Z 21008KT 10SM CLR M12/M16 A2981 1130 70 -1800 210/08 RMK AO2
14926KSTC STC20060220092009702/20/06 09:20:31  5-MIN KSTC 201520Z 21008KT 10SM CLR M11/M16 A2981 1130 67 -1800 210/08 RMK AO2
14926KSTC STC20060220092509702/20/06 09:25:31  5-MIN KSTC 201525Z 21007KT 10SM CLR M11/M16 A2981 1130 70 -1800 200/07 RMK AO2
14926KSTC STC20060220093009702/20/06 09:30:31  5-MIN KSTC 201530Z 21007KT 10SM CLR M11/M16 A2981 1130 67 -1800 210/07 RMK AO2
14926KSTC STC20060220093509702/20/06 09:35:31  5-MIN KSTC 201535Z 21008KT 10SM CLR M11/M16 A2981 1130 64 -1700 210/08 RMK AO2
14926KSTC STC20060220094009702/20/06 09:40:31  5-MIN KSTC 201540Z 21010KT 10SM CLR M11/M16 A2981 1130 67 -1700 210/10 RMK AO2
14926KSTC STC20060220094509702/20/06 09:45:31  5-MIN KSTC 201545Z 22008KT 10SM CLR M10/M16 A2981 1130 64 -1600 220/08 RMK AO2
14926KSTC STC20060220095011402/20/06 09:50:31  5-MIN KSTC 201550Z 21008KT 10SM CLR M10/M16 A2980 1130 64 -1600 210/08 RMK AO2 SLP123 T11001156
14926KSTC STC20060220095509702/20/06 09:55:31  5-MIN KSTC 201555Z 21009KT 10SM CLR M10/M15 A2980 1130 67 -1600 210/09 RMK AO2
14926KSTC STC20060220100009702/20/06 10:00:31  5-MIN KSTC 201600Z 22009KT 10SM CLR M09/M15 A2980 1140 64 -1500 210/09 RMK AO2
14926KSTC STC20060220100509702/20/06 10:05:31  5-MIN KSTC 201605Z 22010KT 10SM CLR M09/M15 A2980 1140 64 -1500 210/10 RMK AO2
14926KSTC STC20060220101009702/20/06 10:10:31  5-MIN KSTC 201610Z 22010KT 10SM CLR M09/M15 A2980 1140 64 -1500 220/10 RMK AO2
14926KSTC STC20060220101509702/20/06 10:15:31  5-MIN KSTC 201615Z 23010KT 10SM CLR M09/M15 A2979 1140 61 -1500 230/10 RMK AO2
14926KSTC STC20060220102009702/20/06 10:20:31  5-MIN KSTC 201620Z 22010KT 10SM CLR M09/M15 A2979 1150 61 -1500 220/10 RMK AO2
14926KSTC STC20060220102509702/20/06 10:25:31  5-MIN KSTC 201625Z 21009KT 10SM CLR M09/M14 A2979 1150 64 -1400 200/09 RMK AO2
14926KSTC STC20060220103009702/20/06 10:30:31  5-MIN KSTC 201630Z 20009KT 10SM CLR M09/M14 A2979 1150 64 -1400 190/09 RMK AO2
14926KSTC STC20060220103509702/20/06 10:35:31  5-MIN KSTC 201635Z 20010KT 10SM CLR M09/M14 A2979 1150 64 -1400 190/10 RMK AO2
14926KSTC STC20060220104009702/20/06 10:40:31  5-MIN KSTC 201640Z 20011KT 10SM CLR M09/M14 A2978 1150 64 -1400 200/11 RMK AO2
14926KSTC STC20060220104509702/20/06 10:45:31  5-MIN KSTC 201645Z 20011KT 10SM CLR M09/M14 A2978 1150 67 -1400 190/11 RMK AO2
14926KSTC STC20060220105011402/20/06 10:50:31  5-MIN KSTC 201650Z 20011KT 10SM CLR M08/M14 A2978 1160 64 -1400 190/11 RMK AO2 SLP114 T10831139
14926KSTC STC20060220105509702/20/06 10:55:31  5-MIN KSTC 201655Z 20011KT 10SM CLR M08/M14 A2978 1160 64 -1400 190/11 RMK AO2
14926KSTC STC20060220220010002/20/06 22:00:31  5-MIN KSTC 210400Z 30011KT 10SM FEW025 M09/M13 A2988 1060 74 -1600 300/11 RMK AO2
14926KSTC STC20060220220509702/20/06 22:05:31  5-MIN KSTC 210405Z 29010KT 10SM CLR M09/M13 A2988 1060 74 -1600 290/10 RMK AO2
14926KSTC STC20060220221009702/20/06 22:10:31  5-MIN KSTC 210410Z 30009KT 10SM CLR M09/M13 A2988 1060 70 -1600 300/09 RMK AO2
14926KSTC STC20060220221509702/20/06 22:15:31  5-MIN KSTC 210415Z 31010KT 10SM CLR M09/M13 A2989 1060 73 -1600 300/10 RMK AO2
14926KSTC STC20060220222009702/20/06 22:20:31  5-MIN KSTC 210420Z 31011KT 10SM CLR M09/M13 A2989 1060 73 -1600 300/11 RMK AO2
14926KSTC STC20060220222509702/20/06 22:25:31  5-MIN KSTC 210425Z 32010KT 10SM CLR M10/M13 A2988 1060 77 -1700 310/10 RMK AO2
14926KSTC STC20060220223009702/20/06 22:30:31  5-MIN KSTC 210430Z 32009KT 10SM CLR M10/M13 A2989 1060 77 -1700 310/09 RMK AO2
14926KSTC STC20060220223509702/20/06 22:35:31  5-MIN KSTC 210435Z 32010KT 10SM CLR M10/M13 A2989 1060 77 -1700 310/10 RMK AO2
14926KSTC STC20060220224009702/20/06 22:40:31  5-MIN KSTC 210440Z 31009KT 10SM CLR M10/M13 A2989 1060 77 -1700 310/09 RMK AO2
14926KSTC STC20060220224509702/20/06 22:45:31  5-MIN KSTC 210445Z 31008KT 10SM CLR M11/M14 A2989 1060 77 -1800 310/08 RMK AO2
14926KSTC STC20060220225011902/20/06 22:50:31  5-MIN KSTC 210450Z AUTO 31008KT 10SM CLR M11/M14 A2989 1060 80 -1900 310/08 RMK AO2 SLP150 T11111139
14926KSTC STC20060220225510202/20/06 22:55:31  5-MIN KSTC 210455Z AUTO 31008KT 10SM CLR M11/M14 A2989 1050 77 -1900 300/08 RMK AO2
14926KSTC STC20060220230010202/20/06 23:00:31  5-MIN KSTC 210500Z AUTO 31009KT 10SM CLR M11/M14 A2989 1050 77 -1900 300/09 RMK AO2
14926KSTC STC20060220230510202/20/06 23:05:31  5-MIN KSTC 210505Z AUTO 31008KT 10SM CLR M12/M14 A2989 1050 80 -1900 310/08 RMK AO2
14926KSTC STC20060220231010202/20/06 23:10:31  5-MIN KSTC 210510Z AUTO 31008KT 10SM CLR M12/M14 A2990 1050 80 -1900 310/08 RMK AO2
14926KSTC STC20060220231510202/20/06 23:15:31  5-MIN KSTC 210515Z AUTO 31008KT 10SM CLR M12/M14 A2990 1050 80 -1900 310/08 RMK AO2
14926KSTC STC20060220232010202/20/06 23:20:31  5-MIN KSTC 210520Z AUTO 31009KT 10SM CLR M12/M14 A2990 1050 80 -1900 310/09 RMK AO2
14926KSTC STC20060220232510202/20/06 23:25:31  5-MIN KSTC 210525Z AUTO 32009KT 10SM CLR M11/M14 A2990 1040 80 -1900 310/09 RMK AO2
14926KSTC STC20060220233010202/20/06 23:30:31  5-MIN KSTC 210530Z AUTO 31010KT 10SM CLR M11/M14 A2990 1040 77 -1900 310/10 RMK AO2
14926KSTC STC20060220233510202/20/06 23:35:31  5-MIN KSTC 210535Z AUTO 31010KT 10SM CLR M12/M14 A2990 1040 80 -1900 310/10 RMK AO2
14926KSTC STC20060220234010202/20/06 23:40:31  5-MIN KSTC 210540Z AUTO 31010KT 10SM CLR M12/M15 A2990 1040 76 -1900 310/10 RMK AO2
14926KSTC STC20060220234510202/20/06 23:45:31  5-MIN KSTC 210545Z AUTO 31011KT 10SM CLR M12/M14 A2990 1040 80 -1900 310/11 RMK AO2
14926KSTC STC20060220235014702/20/06 23:50:31  5-MIN KSTC 210550Z AUTO 31010KT 10SM CLR M12/M14 A2990 1040 80 -1900 310/10 RMK AO2 SLP155 T11171144 11050 21117 410111167 51028
14926KSTC STC20060220235510202/20/06 23:55:31  5-MIN KSTC 210555Z AUTO 31009KT 10SM CLR M12/M14 A2991 1040 80 -2000 310/09 RMK AO2
14926KSTC STC20060221000010202/21/06 00:00:32  5-MIN KSTC 210600Z AUTO 31009KT 10SM CLR M12/M15 A2991 1040 76 -2000 300/09 RMK AO2
14926KSTC STC20060221000510202/21/06 00:05:31  5-MIN KSTC 210605Z AUTO 31009KT 10SM CLR M12/M15 A2991 1040 76 -2000 300/09 RMK AO2
14926KSTC STC20060221001010202/21/06 00:10:31  5-MIN KSTC 210610Z AUTO 31009KT 10SM CLR M12/M15 A2991 1040 80 -2000 300/09 RMK AO2
14926KSTC STC20060221001510202/21/06 00:15:31  5-MIN KSTC 210615Z AUTO 31009KT 10SM CLR M12/M16 A2991 1040 73 -2000 310/09 RMK AO2
14926KSTC STC20060221002010202/21/06 00:20:31  5-MIN KSTC 210620Z AUTO 32008KT 10SM CLR M12/M16 A2991 1040 76 -2000 310/08 RMK AO2
14926KSTC STC20060221002510202/21/06 00:25:31  5-MIN KSTC 210625Z AUTO 31009KT 10SM CLR M13/M16 A2991 1040 80 -2100 310/09 RMK AO2
14926KSTC STC20060221003010202/21/06 00:30:31  5-MIN KSTC 210630Z AUTO 31009KT 10SM CLR M13/M16 A2991 1040 80 -2100 310/09 RMK AO2
14926KSTC STC20060221003510202/21/06 00:35:31  5-MIN KSTC 210635Z AUTO 31009KT 10SM CLR M13/M16 A2991 1040 80 -2200 310/09 RMK AO2
14926KSTC STC20060221004010202/21/06 00:40:31  5-MIN KSTC 210640Z AUTO 32008KT 10SM CLR M13/M16 A2991 1040 80 -2200 310/08 RMK AO2
14926KSTC STC20060221004510202/21/06 00:45:31  5-MIN KSTC 210645Z AUTO 32007KT 10SM CLR M13/M16 A2991 1040 80 -2100 320/07 RMK AO2
14926KSTC STC20060221005011902/21/06 00:50:31  5-MIN KSTC 210650Z AUTO 32006KT 10SM CLR M12/M15 A2991 1030 76 -2000 320/06 RMK AO2 SLP157 T11171150
14926KSTC STC20060221005510202/21/06 00:55:31  5-MIN KSTC 210655Z AUTO 33004KT 10SM CLR M12/M15 A2991 1030 80 -2000 330/04 RMK AO2
14926KSTC STC20060221010010202/21/06 01:00:31  5-MIN KSTC 210700Z AUTO 32005KT 10SM CLR M12/M15 A2991 1030 80 -2000 320/05 RMK AO2
14926KSTC STC20060221010510202/21/06 01:05:31  5-MIN KSTC 210705Z AUTO 33004KT 10SM CLR M13/M16 A2991 1040 80 -2100 330/04 RMK AO2
14926KSTC STC20060221011010202/21/06 01:10:31  5-MIN KSTC 210710Z AUTO 33004KT 10SM CLR M13/M16 A2991 1040 80 -2100 330/04 RMK AO2
14926KSTC STC20060221011510202/21/06 01:15:31  5-MIN KSTC 210715Z AUTO 30004KT 10SM CLR M13/M16 A2992 1030 80 -2100 300/04 RMK AO2
14926KSTC STC20060221012010202/21/06 01:20:31  5-MIN KSTC 210720Z AUTO 29005KT 10SM CLR M13/M16 A2992 1030 83 -2200 290/05 RMK AO2
14926KSTC STC20060221012510202/21/06 01:25:31  5-MIN KSTC 210725Z AUTO 30006KT 10SM CLR M13/M16 A2992 1030 80 -2200 300/06 RMK AO2
14926KSTC STC20060221013010202/21/06 01:30:31  5-MIN KSTC 210730Z AUTO 30006KT 10SM CLR M14/M17 A2992 1030 80 -2300 300/06 RMK AO2
14926KSTC STC20060221013510202/21/06 01:35:31  5-MIN KSTC 210735Z AUTO 30006KT 10SM CLR M14/M16 A2992 1030 83 -2300 300/06 RMK AO2
14926KSTC STC20060221014010202/21/06 01:40:31  5-MIN KSTC 210740Z AUTO 29005KT 10SM CLR M14/M16 A2992 1030 83 -2300 290/05 RMK AO2
14926KSTC STC20060221014510202/21/06 01:45:31  5-MIN KSTC 210745Z AUTO 28004KT 10SM CLR M13/M16 A2992 1020 80 -2200 280/04 RMK AO2
14926KSTC STC20060221015011902/21/06 01:50:31  5-MIN KSTC 210750Z AUTO 28004KT 10SM CLR M13/M16 A2993 1020 80 -2200 270/04 RMK AO2 SLP161 T11331161
14926KSTC STC20060221015510202/21/06 01:55:31  5-MIN KSTC 210755Z AUTO 27006KT 10SM CLR M14/M17 A2992 1020 80 -2300 260/06 RMK AO2
14926KSTC STC20060221020010202/21/06 02:00:31  5-MIN KSTC 210800Z AUTO 28006KT 10SM CLR M14/M17 A2992 1020 80 -2300 270/06 RMK AO2
14926KSTC STC20060221020510202/21/06 02:05:31  5-MIN KSTC 210805Z AUTO 27006KT 10SM CLR M14/M17 A2993 1020 83 -2300 260/06 RMK AO2
14926KSTC STC20060221021010202/21/06 02:10:31  5-MIN KSTC 210810Z AUTO 27005KT 10SM CLR M15/M17 A2993 1020 83 -2400 270/05 RMK AO2
14926KSTC STC20060221021510202/21/06 02:15:31  5-MIN KSTC 210815Z AUTO 29003KT 10SM CLR M15/M17 A2993 1020 83 -2400 280/03 RMK AO2
14926KSTC STC20060221022010202/21/06 02:20:31  5-MIN KSTC 210820Z AUTO 00000KT 10SM CLR M14/M17 A2993 1020 80 -2300 000/00 RMK AO2
14926KSTC STC20060221022510202/21/06 02:25:31  5-MIN KSTC 210825Z AUTO 32003KT 10SM CLR M14/M16 A2993 1020 83 -2300 310/03 RMK AO2
14926KSTC STC20060221023010202/21/06 02:30:31  5-MIN KSTC 210830Z AUTO 31004KT 10SM CLR M14/M16 A2993 1020 83 -2300 300/04 RMK AO2
14926KSTC STC20060221023510202/21/06 02:35:31  5-MIN KSTC 210835Z AUTO 32003KT 10SM CLR M14/M16 A2993 1020 83 -2300 310/03 RMK AO2
14926KSTC STC20060221024010202/21/06 02:40:31  5-MIN KSTC 210840Z AUTO 32003KT 10SM CLR M14/M17 A2992 1020 80 -2300 320/03 RMK AO2
14926KSTC STC20060221024510202/21/06 02:45:31  5-MIN KSTC 210845Z AUTO 32004KT 10SM CLR M14/M17 A2992 1030 80 -2300 320/04 RMK AO2
14926KSTC STC20060221025012502/21/06 02:50:31  5-MIN KSTC 210850Z AUTO 31004KT 10SM CLR M14/M16 A2992 1020 83 -2300 310/04 RMK AO2 SLP159 T11391161 51023
14926KSTC STC20060221025510202/21/06 02:55:31  5-MIN KSTC 210855Z AUTO 31003KT 10SM CLR M13/M16 A2992 1030 80 -2200 310/03 RMK AO2
14926KSTC STC20060221030010202/21/06 03:00:31  5-MIN KSTC 210900Z AUTO 30003KT 10SM CLR M14/M16 A2992 1020 83 -2300 300/03 RMK AO2
14926KSTC STC20060221030510202/21/06 03:05:31  5-MIN KSTC 210905Z AUTO 31003KT 10SM CLR M14/M17 A2992 1030 80 -2300 310/03 RMK AO2
14926KSTC STC20060221031010202/21/06 03:10:31  5-MIN KSTC 210910Z AUTO 31003KT 10SM CLR M14/M17 A2992 1030 80 -2300 300/03 RMK AO2
14926KSTC STC20060221031510202/21/06 03:15:31  5-MIN KSTC 210915Z AUTO 00000KT 10SM CLR M14/M17 A2992 1030 80 -2300 000/00 RMK AO2
14926KSTC STC20060221032010202/21/06 03:20:31  5-MIN KSTC 210920Z AUTO 00000KT 10SM CLR M14/M17 A2992 1030 80 -2300 000/00 RMK AO2
14926KSTC STC20060221032510202/21/06 03:25:31  5-MIN KSTC 210925Z AUTO 30003KT 10SM CLR M14/M17 A2992 1030 80 -2300 300/03 RMK AO2
14926KSTC STC20060221033010202/21/06 03:30:31  5-MIN KSTC 210930Z AUTO 30004KT 10SM CLR M15/M17 A2992 1030 87 -2400 300/04 RMK AO2
14926KSTC STC20060221033510202/21/06 03:35:31  5-MIN KSTC 210935Z AUTO 28004KT 10SM CLR M16/M17 A2992 1030 87 -2500 280/04 RMK AO2
14926KSTC STC20060221034010202/21/06 03:40:31  5-MIN KSTC 210940Z AUTO 29003KT 10SM CLR M16/M18 A2992 1030 83 -2600 280/03 RMK AO2
14926KSTC STC20060221034510202/21/06 03:45:31  5-MIN KSTC 210945Z AUTO 26004KT 10SM CLR M16/M18 A2992 1020 87 -2600 260/04 RMK AO2
14926KSTC STC20060221035011902/21/06 03:50:31  5-MIN KSTC 210950Z AUTO 25006KT 10SM CLR M17/M19 A2992 1020 87 -2700 240/06 RMK AO2 SLP163 T11721189
14926KSTC STC20060221035510202/21/06 03:55:31  5-MIN KSTC 210955Z AUTO 25005KT 10SM CLR M17/M19 A2992 1020 79 -2600 250/05 RMK AO2
14926KSTC STC20060221040010202/21/06 04:00:31  5-MIN KSTC 211000Z AUTO 24003KT 10SM CLR M17/M19 A2993 1020 83 -2700 230/03 RMK AO2
14926KSTC STC20060221040510202/21/06 04:05:31  5-MIN KSTC 211005Z AUTO 00000KT 10SM CLR M16/M18 A2993 1020 83 -2600 000/00 RMK AO2
14926KSTC STC20060221041010202/21/06 04:10:31  5-MIN KSTC 211010Z AUTO 00000KT 10SM CLR M16/M18 A2992 1020 79 -2500 000/00 RMK AO2
14926KSTC STC20060221041510202/21/06 04:15:31  5-MIN KSTC 211015Z AUTO 00000KT 10SM CLR M16/M19 A2993 1020 76 -2500 000/00 RMK AO2
14926KSTC STC20060221042010202/21/06 04:20:31  5-MIN KSTC 211020Z AUTO 00000KT 10SM CLR M16/M18 A2993 1020 79 -2500 000/00 RMK AO2
14926KSTC STC20060221042510202/21/06 04:25:31  5-MIN KSTC 211025Z AUTO 00000KT 10SM CLR M16/M18 A2993 1020 83 -2500 000/00 RMK AO2
14926KSTC STC20060221043010202/21/06 04:30:31  5-MIN KSTC 211030Z AUTO 00000KT 10SM CLR M16/M18 A2993 1020 83 -2500 000/00 RMK AO2
14926KSTC STC20060221043510202/21/06 04:35:31  5-MIN KSTC 211035Z AUTO 00000KT 10SM CLR M16/M18 A2993 1020 83 -2600 000/00 RMK AO2
14926KSTC STC20060221044010202/21/06 04:40:31  5-MIN KSTC 211040Z AUTO 00000KT 10SM CLR M17/M19 A2993 1020 83 -2600 000/00 RMK AO2
14926KSTC STC20060221044510202/21/06 04:45:31  5-MIN KSTC 211045Z AUTO 00000KT 10SM CLR M17/M19 A2993 1020 83 -2600 000/00 RMK AO2
14926KSTC STC20060221045011902/21/06 04:50:31  5-MIN KSTC 211050Z AUTO 00000KT 10SM CLR M17/M19 A2993 1020 87 -2700 000/00 RMK AO2 SLP165 T11721189
14926KSTC STC20060221045510202/21/06 04:55:31  5-MIN KSTC 211055Z AUTO 00000KT 10SM CLR M17/M19 A2993 1020 83 -2700 000/00 RMK AO2
14926KSTC STC20060221050010202/21/06 05:00:31  5-MIN KSTC 211100Z AUTO 00000KT 10SM CLR M17/M19 A2993 1020 83 -2700 000/00 RMK AO2
14926KSTC STC20060221050510202/21/06 05:05:31  5-MIN KSTC 211105Z AUTO 00000KT 10SM CLR M17/M19 A2993 1010 83 -2700 000/00 RMK AO2
14926KSTC STC20060221051010202/21/06 05:10:31  5-MIN KSTC 211110Z AUTO 00000KT 10SM CLR M17/M19 A2993 1010 87 -2700 000/00 RMK AO2
14926KSTC STC20060221051510202/21/06 05:15:31  5-MIN KSTC 211115Z AUTO 00000KT 10SM CLR M17/M19 A2993 1020 83 -2700 000/00 RMK AO2
14926KSTC STC20060221052010202/21/06 05:20:31  5-MIN KSTC 211120Z AUTO 23003KT 10SM CLR M18/M20 A2994 1010 83 -2800 230/03 RMK AO2
14926KSTC STC20060221052510202/21/06 05:25:31  5-MIN KSTC 211125Z AUTO 00000KT 10SM CLR M18/M21 A2994 1010 75 -2800 000/00 RMK AO2
14926KSTC STC20060221053010202/21/06 05:30:31  5-MIN KSTC 211130Z AUTO 25004KT 10SM CLR M18/M21 A2994 1010 79 -2800 240/04 RMK AO2
14926KSTC STC20060221053510202/21/06 05:35:31  5-MIN KSTC 211135Z AUTO 25004KT 10SM CLR M18/M21 A2994 1010 83 -2900 250/04 RMK AO2
14926KSTC STC20060221054010202/21/06 05:40:31  5-MIN KSTC 211140Z AUTO 00000KT 10SM CLR M18/M21 A2993 1020 83 -2900 000/00 RMK AO2
14926KSTC STC20060221054510202/21/06 05:45:31  5-MIN KSTC 211145Z AUTO 00000KT 10SM CLR M18/M20 A2993 1020 83 -2800 000/00 RMK AO2
14926KSTC STC20060221055013702/21/06 05:50:31  5-MIN KSTC 211150Z AUTO 00000KT 10SM CLR M18/M19 A2993 1020 87 -2800 000/00 RMK AO2 SLP166 T11781194 11117 21183 50006
14926KSTC STC20060221055510202/21/06 05:55:31  5-MIN KSTC 211155Z AUTO 00000KT 10SM CLR M18/M21 A2993 1020 83 -2900 000/00 RMK AO2
14926KSTC STC20060221060010202/21/06 06:00:31  5-MIN KSTC 211200Z AUTO 00000KT 10SM CLR M18/M20 A2993 1020 83 -2800 000/00 RMK AO2
14926KSTC STC20060221060510202/21/06 06:05:31  5-MIN KSTC 211205Z AUTO 00000KT 10SM CLR M17/M19 A2992 1020 79 -2600 000/00 RMK AO2
14926KSTC STC20060221061010202/21/06 06:10:31  5-MIN KSTC 211210Z AUTO 00000KT 10SM CLR M17/M19 A2993 1020 83 -2700 000/00 RMK AO2
14926KSTC STC20060221061510202/21/06 06:15:31  5-MIN KSTC 211215Z AUTO 00000KT 10SM CLR M18/M20 A2994 1010 87 -2900 000/00 RMK AO2
14926KSTC STC20060221062010202/21/06 06:20:31  5-MIN KSTC 211220Z AUTO 00000KT 10SM CLR M19/M21 A2994 1010 87 -3000 000/00 RMK AO2
14926KSTC STC20060221062510202/21/06 06:25:31  5-MIN KSTC 211225Z AUTO 00000KT 10SM CLR M19/M22 A2994 1010 83 -3000 000/00 RMK AO2
14926KSTC STC20060221063010202/21/06 06:30:31  5-MIN KSTC 211230Z AUTO 00000KT 10SM CLR M19/M22 A2994 1010 83 -3000 000/00 RMK AO2
14926KSTC STC20060221063510202/21/06 06:35:31  5-MIN KSTC 211235Z AUTO 00000KT 10SM CLR M18/M21 A2994 1010 83 -2900 000/00 RMK AO2
14926KSTC STC20060221064010202/21/06 06:40:31  5-MIN KSTC 211240Z AUTO 00000KT 10SM CLR M18/M21 A2994 1010 83 -2900 000/00 RMK AO2
14926KSTC STC20060221064510202/21/06 06:45:31  5-MIN KSTC 211245Z AUTO 00000KT 10SM CLR M18/M20 A2994 1010 87 -2900 000/00 RMK AO2
14926KSTC STC20060221065011902/21/06 06:50:31  5-MIN KSTC 211250Z AUTO 16003KT 10SM CLR M19/M21 A2994 1010 83 -3000 160/03 RMK AO2 SLP170 T11891211
14926KSTC STC20060221065510202/21/06 06:55:31  5-MIN KSTC 211255Z AUTO 00000KT 10SM CLR M19/M21 A2994 1010 87 -3000 000/00 RMK AO2
14926KSTC STC20060221070010202/21/06 07:00:31  5-MIN KSTC 211300Z AUTO 00000KT 10SM CLR M18/M20 A2994 1010 87 -2900 000/00 RMK AO2
14926KSTC STC20060221070510202/21/06 07:05:31  5-MIN KSTC 211305Z AUTO 00000KT 10SM CLR M18/M20 A2994 1010 87 -2900 000/00 RMK AO2
14926KSTC STC20060221071009702/21/06 07:10:31  5-MIN KSTC 211310Z 15003KT 10SM CLR M18/M20 A2994 1010 83 -2800 150/03 RMK AO2
14926KSTC STC20060221071509702/21/06 07:15:31  5-MIN KSTC 211315Z 19004KT 10SM CLR M18/M20 A2994 1010 87 -2900 190/04 RMK AO2
14926KSTC STC20060221072009702/21/06 07:20:31  5-MIN KSTC 211320Z 21005KT 10SM CLR M18/M20 A2994 1000 83 -2800 210/05 RMK AO2
14926KSTC STC20060221072509702/21/06 07:25:31  5-MIN KSTC 211325Z 20004KT 10SM CLR M19/M21 A2995 1000 87 -3000 200/04 RMK AO2
14926KSTC STC20060221073009702/21/06 07:30:31  5-MIN KSTC 211330Z 22003KT 10SM CLR M19/M21 A2995 1000 83 -3000 210/03 RMK AO2
14926KSTC STC20060221073509702/21/06 07:35:31  5-MIN KSTC 211335Z 21003KT 10SM CLR M19/M21 A2995 1000 83 -3000 210/03 RMK AO2
14926KSTC STC20060221074009702/21/06 07:40:31  5-MIN KSTC 211340Z 00000KT 10SM CLR M19/M21 A2995 1000 83 -3000 000/00 RMK AO2
14926KSTC STC20060221074509702/21/06 07:45:31  5-MIN KSTC 211345Z 00000KT 10SM CLR M19/M21 A2995 1000 83 -3000 000/00 RMK AO2
14926KSTC STC20060221075011402/21/06 07:50:31  5-MIN KSTC 211350Z 00000KT 10SM CLR M18/M20 A2995 1000 83 -2800 000/00 RMK AO2 SLP172 T11781200
14926KSTC STC20060221075509702/21/06 07:55:31  5-MIN KSTC 211355Z 00000KT 10SM CLR M18/M19 A2995 1000 87 -2800 000/00 RMK AO2
14926KSTC STC20060221080009702/21/06 08:00:31  5-MIN KSTC 211400Z 20003KT 10SM CLR M17/M19 A2995 1000 87 -2800 200/03 RMK AO2
14926KSTC STC20060221080509702/21/06 08:05:31  5-MIN KSTC 211405Z 00000KT 10SM CLR M17/M19 A2995 1000 87 -2700 000/00 RMK AO2
14926KSTC STC20060221081009702/21/06 08:10:31  5-MIN KSTC 211410Z 00000KT 10SM CLR M17/M18 A2995 1000 91 -2700 000/00 RMK AO2
14926KSTC STC20060221081509702/21/06 08:15:31  5-MIN KSTC 211415Z 00000KT 10SM CLR M17/M18 A2995 1000 87 -2700 000/00 RMK AO2
14926KSTC STC20060221082009702/21/06 08:20:31  5-MIN KSTC 211420Z 00000KT 10SM CLR M16/M18 A2995 1000 87 -2600 000/00 RMK AO2
14926KSTC STC20060221082509702/21/06 08:25:31  5-MIN KSTC 211425Z 00000KT 10SM CLR M16/M18 A2995 1000 87 -2600 000/00 RMK AO2
14926KSTC STC20060221083009702/21/06 08:30:31  5-MIN KSTC 211430Z 00000KT 10SM CLR M16/M18 A2995 1000 83 -2500 000/00 RMK AO2
14926KSTC STC20060221083509702/21/06 08:35:31  5-MIN KSTC 211435Z 00000KT 10SM CLR M16/M17 A2995 1000 87 -2500 000/00 RMK AO2
14926KSTC STC20060221084009702/21/06 08:40:31  5-MIN KSTC 211440Z 00000KT 10SM CLR M15/M17 A2995 1000 83 -2400 000/00 RMK AO2
14926KSTC STC20060221084509702/21/06 08:45:31  5-MIN KSTC 211445Z 00000KT 10SM CLR M15/M17 A2995 1000 87 -2400 000/00 RMK AO2
14926KSTC STC20060221085012002/21/06 08:50:31  5-MIN KSTC 211450Z 00000KT 10SM CLR M14/M16 A2995 1000 87 -2400 000/00 RMK AO2 SLP171 T11441161 51003
14926KSTC STC20060221085509702/21/06 08:55:31  5-MIN KSTC 211455Z 00000KT 10SM CLR M14/M16 A2994 1010 83 -2300 000/00 RMK AO2
14926KSTC STC20060221090009702/21/06 09:00:31  5-MIN KSTC 211500Z 00000KT 10SM CLR M14/M16 A2994 1010 87 -2400 000/00 RMK AO2
14926KSTC STC20060221090509702/21/06 09:05:31  5-MIN KSTC 211505Z 00000KT 10SM CLR M14/M16 A2994 1010 87 -2300 000/00 RMK AO2
14926KSTC STC20060221091009702/21/06 09:10:31  5-MIN KSTC 211510Z 00000KT 10SM CLR M14/M15 A2994 1010 91 -2300 000/00 RMK AO2
14926KSTC STC20060221091509702/21/06 09:15:31  5-MIN KSTC 211515Z 14004KT 10SM CLR M14/M15 A2994 1010 91 -2300 130/04 RMK AO2
14926KSTC STC20060221092010002/21/06 09:20:31  5-MIN KSTC 211520Z 13004KT 10SM FEW065 M13/M16 A2993 1010 83 -2200 130/04 RMK AO2
14926KSTC STC20060221092510002/21/06 09:25:31  5-MIN KSTC 211525Z 16003KT 10SM SCT065 M13/M16 A2994 1010 80 -2100 150/03 RMK AO2
14926KSTC STC20060221093010002/21/06 09:30:31  5-MIN KSTC 211530Z 00000KT 10SM BKN065 M13/M15 A2994 1010 84 -2100 000/00 RMK AO2
14926KSTC STC20060221093510002/21/06 09:35:31  5-MIN KSTC 211535Z 17004KT 10SM BKN065 M13/M15 A2995 1000 84 -2100 170/04 RMK AO2
14926KSTC STC20060221094010002/21/06 09:40:31  5-MIN KSTC 211540Z 17003KT 10SM BKN065 M13/M15 A2995 1000 84 -2100 160/03 RMK AO2
14926KSTC STC20060221094510002/21/06 09:45:31  5-MIN KSTC 211545Z 00000KT 10SM OVC065 M12/M14 A2995 1000 84 -2100 000/00 RMK AO2
14926KSTC STC20060221095011702/21/06 09:50:31  5-MIN KSTC 211550Z 00000KT 10SM OVC065 M12/M14 A2995 1000 84 -2100 000/00 RMK AO2 SLP170 T11221144
14926KSTC STC20060221095510002/21/06 09:55:31  5-MIN KSTC 211555Z 20006KT 10SM OVC060 M12/M14 A2994 1010 80 -2000 190/06 RMK AO2
14926KSTC STC20060221180011102/21/06 18:00:31  5-MIN KSTC 220000Z AUTO 16008KT 10SM BKN038 OVC060 M04/M10 A2971 1220 65 -800 150/08 RMK AO2
14926KSTC STC20060221180511802/21/06 18:05:31  5-MIN KSTC 220005Z AUTO 16010KT 10SM BKN040 BKN050 OVC070 M04/M10 A2970 1230 65 -800 160/10 RMK AO2
14926KSTC STC20060221181011102/21/06 18:10:31  5-MIN KSTC 220010Z AUTO 16010KT 10SM BKN042 OVC050 M04/M10 A2970 1230 65 -800 160/10 RMK AO2
14926KSTC STC20060221181510402/21/06 18:15:31  5-MIN KSTC 220015Z AUTO 16010KT 10SM OVC044 M04/M10 A2970 1230 65 -800 160/10 RMK AO2
14926KSTC STC20060221182011102/21/06 18:20:31  5-MIN KSTC 220020Z AUTO 16008KT 10SM BKN046 OVC060 M04/M10 A2970 1230 65 -800 160/08 RMK AO2
14926KSTC STC20060221182511102/21/06 18:25:31  5-MIN KSTC 220025Z AUTO 17010KT 10SM BKN048 OVC060 M04/M10 A2970 1230 65 -800 160/10 RMK AO2
14926KSTC STC20060221183010402/21/06 18:30:31  5-MIN KSTC 220030Z AUTO 16008KT 10SM OVC044 M04/M10 A2970 1230 65 -800 160/08 RMK AO2
14926KSTC STC20060221183511102/21/06 18:35:31  5-MIN KSTC 220035Z AUTO 16009KT 10SM BKN044 OVC060 M04/M09 A2970 1230 68 -800 160/09 RMK AO2
14926KSTC STC20060221184011102/21/06 18:40:31  5-MIN KSTC 220040Z AUTO 16008KT 10SM BKN044 OVC060 M04/M09 A2970 1230 68 -800 160/08 RMK AO2
14926KSTC STC20060221184511102/21/06 18:45:31  5-MIN KSTC 220045Z AUTO 16008KT 10SM BKN042 OVC060 M04/M09 A2970 1230 68 -800 160/08 RMK AO2
14926KSTC STC20060221185012102/21/06 18:50:31  5-MIN KSTC 220050Z AUTO 16008KT 10SM OVC038 M04/M09 A2970 1230 68 -800 160/08 RMK AO2 SLP088 T10441094
14926KSTC STC20060221185510402/21/06 18:55:31  5-MIN KSTC 220055Z AUTO 16008KT 10SM OVC034 M04/M09 A2970 1230 68 -800 160/08 RMK AO2
14926KSTC STC20060221190010302/21/06 19:00:31  5-MIN KSTC 220100Z AUTO 16008KT 8SM OVC032 M04/M09 A2970 1230 68 -800 160/08 RMK AO2
14926KSTC STC20060221190511002/21/06 19:05:31  5-MIN KSTC 220105Z AUTO 17007KT 7SM BKN030 OVC041 M04/M09 A2970 1230 71 -800 160/07 RMK AO2
14926KSTC STC20060221191011002/21/06 19:10:31  5-MIN KSTC 220110Z AUTO 17006KT 7SM BKN028 OVC043 M04/M09 A2970 1230 71 -800 160/06 RMK AO2
14926KSTC STC20060221191511002/21/06 19:15:31  5-MIN KSTC 220115Z AUTO 17006KT 7SM BKN026 OVC039 M04/M09 A2970 1230 71 -800 160/06 RMK AO2
14926KSTC STC20060221192011002/21/06 19:20:31  5-MIN KSTC 220120Z AUTO 17007KT 7SM BKN024 OVC039 M04/M09 A2970 1230 71 -800 170/07 RMK AO2
14926KSTC STC20060221192512002/21/06 19:25:31  5-MIN KSTC 220125Z AUTO 17008KT 6SM HZ SCT024 BKN036 OVC045 M04/M08 A2970 1230 74 -800 170/08 RMK AO2
14926KSTC STC20060221193013302/21/06 19:30:31  5-MIN KSTC 220130Z AUTO 17008KT 4SM -SN SCT021 BKN027 OVC045 M04/M08 A2970 1230 74 -800 170/08 RMK AO2 SNB28 P0000
14926KSTC STC20060221193513302/21/06 19:35:31  5-MIN KSTC 220135Z AUTO 18006KT 3SM -SN SCT021 BKN036 OVC044 M04/M08 A2970 1230 74 -800 180/06 RMK AO2 SNB28 P0000
14926KSTC STC20060221194012602/21/06 19:40:31  5-MIN KSTC 220140Z AUTO 18008KT 3SM -SN FEW021 OVC036 M04/M08 A2970 1230 74 -800 170/08 RMK AO2 SNB28 P0000
14926KSTC STC20060221194513502/21/06 19:45:31  5-MIN KSTC 220145Z AUTO 19007KT 3SM HZ FEW019 BKN029 OVC036 M04/M08 A2970 1230 78 -800 180/07 RMK AO2 SNB28E44 P0000
14926KSTC STC20060221195015402/21/06 19:50:31  5-MIN KSTC 220150Z AUTO 18007KT 2 1/2SM -SN FEW017 BKN029 OVC036 M04/M08 A2970 1230 78 -800 180/07 RMK AO2 SNB28 SLP086 P0000 T10441078
14926KSTC STC20060221195513102/21/06 19:55:31  5-MIN KSTC 220155Z AUTO 18005KT 2 1/2SM -SN FEW017 BKN030 OVC037 M05/M08 A2970 1230 81 -800 180/05 RMK AO2 P0000
14926KSTC STC20060221200013202/21/06 20:00:31  5-MIN KSTC 220200Z AUTO 18006KT 3SM HZ FEW015 BKN032 OVC040 M05/M08 A2970 1230 81 -800 180/06 RMK AO2 SNE00 P0000
14926KSTC STC20060221200513202/21/06 20:05:31  5-MIN KSTC 220205Z AUTO 18006KT 4SM HZ FEW017 BKN032 OVC040 M05/M08 A2970 1230 81 -800 180/06 RMK AO2 SNE00 P0000
14926KSTC STC20060221201011802/21/06 20:10:31  5-MIN KSTC 220210Z AUTO 18007KT 5SM HZ OVC034 M05/M08 A2969 1240 81 -800 170/07 RMK AO2 SNE00 P0000
14926KSTC STC20060221201511802/21/06 20:15:31  5-MIN KSTC 220215Z AUTO 18006KT 6SM HZ OVC032 M05/M08 A2969 1240 81 -800 180/06 RMK AO2 SNE00 P0000
14926KSTC STC20060221202012202/21/06 20:20:31  5-MIN KSTC 220220Z AUTO 19005KT 8SM BKN032 OVC040 M04/M08 A2969 1240 78 -800 190/05 RMK AO2 SNE00 P0000
14926KSTC STC20060221202512202/21/06 20:25:31  5-MIN KSTC 220225Z AUTO 18005KT 9SM BKN027 OVC035 M04/M08 A2969 1240 78 -800 180/05 RMK AO2 SNE00 P0000
14926KSTC STC20060221203012302/21/06 20:30:31  5-MIN KSTC 220230Z AUTO 18005KT 10SM BKN028 OVC036 M04/M08 A2968 1240 78 -800 180/05 RMK AO2 SNE00 P0000
14926KSTC STC20060221203513002/21/06 20:35:31  5-MIN KSTC 220235Z AUTO 18006KT 10SM BKN028 BKN034 OVC075 M04/M08 A2968 1250 78 -800 170/06 RMK AO2 SNE00 P0000
14926KSTC STC20060221204013002/21/06 20:40:31  5-MIN KSTC 220240Z AUTO 19005KT 10SM SCT028 BKN032 OVC075 M04/M08 A2968 1250 78 -800 180/05 RMK AO2 SNE00 P0000
14926KSTC STC20060221204512302/21/06 20:45:31  5-MIN KSTC 220245Z AUTO 19005KT 10SM SCT028 OVC075 M04/M08 A2969 1240 78 -800 190/05 RMK AO2 SNE00 P0000
14926KSTC STC20060221205015202/21/06 20:50:31  5-MIN KSTC 220250Z AUTO 22004KT 10SM SCT028 OVC075 M05/M08 A2969 1240 81 -800 210/04 RMK AO2 SNE00 SLP081 P0000 60000 T10501078 58020
14926KSTC STC20060221205511102/21/06 20:55:31  5-MIN KSTC 220255Z AUTO 22004KT 10SM BKN026 OVC075 M05/M08 A2969 1240 81 -800 210/04 RMK AO2
14926KSTC STC20060221210011102/21/06 21:00:31  5-MIN KSTC 220300Z AUTO 21006KT 10SM BKN024 OVC075 M05/M08 A2969 1240 81 -800 210/06 RMK AO2
14926KSTC STC20060221210511102/21/06 21:05:31  5-MIN KSTC 220305Z AUTO 21004KT 10SM BKN024 OVC075 M05/M08 A2969 1240 81 -800 210/04 RMK AO2
14926KSTC STC20060221211011102/21/06 21:10:31  5-MIN KSTC 220310Z AUTO 22004KT 10SM BKN024 OVC075 M04/M08 A2969 1240 78 -800 210/04 RMK AO2
14926KSTC STC20060221211510402/21/06 21:15:31  5-MIN KSTC 220315Z AUTO 21004KT 10SM OVC024 M04/M08 A2969 1240 78 -800 210/04 RMK AO2
14926KSTC STC20060221212010402/21/06 21:20:31  5-MIN KSTC 220320Z AUTO 23004KT 10SM OVC024 M05/M08 A2969 1240 81 -800 220/04 RMK AO2
14926KSTC STC20060221212510402/21/06 21:25:31  5-MIN KSTC 220325Z AUTO 20004KT 10SM OVC024 M05/M08 A2969 1240 81 -800 200/04 RMK AO2
14926KSTC STC20060221213010402/21/06 21:30:31  5-MIN KSTC 220330Z AUTO 00000KT 10SM BKN024 M05/M08 A2969 1240 81 -800 000/00 RMK AO2
14926KSTC STC20060221213510402/21/06 21:35:31  5-MIN KSTC 220335Z AUTO 22004KT 10SM BKN024 M05/M08 A2969 1240 81 -800 220/04 RMK AO2
14926KSTC STC20060221214010402/21/06 21:40:31  5-MIN KSTC 220340Z AUTO 22004KT 10SM SCT024 M05/M08 A2969 1240 77 -800 210/04 RMK AO2
14926KSTC STC20060221214511102/21/06 21:45:31  5-MIN KSTC 220345Z AUTO 22004KT 10SM SCT026 SCT080 M06/M08 A2969 1240 81 -900 220/04 RMK AO2
14926KSTC STC20060221215012202/21/06 21:50:31  5-MIN KSTC 220350Z AUTO 22004KT 10SM FEW026 M06/M08 A2969 1240 84 -1000 220/04 RMK AO2 SLP080 T10611083
14926KSTC STC20060221215510502/21/06 21:55:31  5-MIN KSTC 220355Z AUTO 22004KT 10SM FEW024 M07/M09 A2969 1240 84 -1000 210/04 RMK AO2
14926KSTC STC20060221220010202/21/06 22:00:31  5-MIN KSTC 220400Z AUTO 22004KT 10SM CLR M07/M09 A2969 1240 84 -1000 220/04 RMK AO2
14926KSTC STC20060221220510202/21/06 22:05:31  5-MIN KSTC 220405Z AUTO 23004KT 10SM CLR M07/M09 A2969 1240 84 -1000 230/04 RMK AO2
14926KSTC STC20060221221010202/21/06 22:10:31  5-MIN KSTC 220410Z AUTO 23004KT 10SM CLR M07/M09 A2969 1240 84 -1000 230/04 RMK AO2
14926KSTC STC20060221221510202/21/06 22:15:31  5-MIN KSTC 220415Z AUTO 23003KT 10SM CLR M07/M09 A2969 1240 88 -1100 230/03 RMK AO2
14926KSTC STC20060221222010502/21/06 22:20:31  5-MIN KSTC 220420Z AUTO 23003KT 10SM FEW019 M07/M09 A2969 1240 84 -1000 230/03 RMK AO2
14926KSTC STC20060221222511102/21/06 22:25:31  5-MIN KSTC 220425Z AUTO 22003KT 9SM FEW021 SCT029 M07/M09 A2969 1240 88 -1100 220/03 RMK AO2
14926KSTC STC20060221223011102/21/06 22:30:31  5-MIN KSTC 220430Z AUTO 22003KT 9SM FEW021 SCT029 M07/M09 A2969 1240 88 -1100 220/03 RMK AO2
14926KSTC STC20060221223510402/21/06 22:35:31  5-MIN KSTC 220435Z AUTO 22003KT 9SM FEW021 M07/M09 A2969 1240 84 -1000 220/03 RMK AO2
14926KSTC STC20060221224011102/21/06 22:40:31  5-MIN KSTC 220440Z AUTO 23003KT 9SM FEW021 SCT029 M06/M08 A2969 1240 88 -1000 220/03 RMK AO2
14926KSTC STC20060221224511002/21/06 22:45:31  5-MIN KSTC 220445Z AUTO 23005KT 9SM FEW021 SCT029 M06/M07 A2969 1240 88 -900 230/05 RMK AO2
14926KSTC STC20060221225012102/21/06 22:50:31  5-MIN KSTC 220450Z AUTO 24006KT 8SM FEW029 M06/M08 A2969 1240 88 -1000 230/06 RMK AO2 SLP080 T10611078
14926KSTC STC20060221225510402/21/06 22:55:31  5-MIN KSTC 220455Z AUTO 23006KT 8SM FEW029 M07/M08 A2969 1240 92 -1000 230/06 RMK AO2
14926KSTC STC20060221230010402/21/06 23:00:31  5-MIN KSTC 220500Z AUTO 23006KT 8SM FEW029 M07/M08 A2969 1240 88 -1000 230/06 RMK AO2
14926KSTC STC20060221230510402/21/06 23:05:31  5-MIN KSTC 220505Z AUTO 24007KT 7SM FEW029 M07/M08 A2969 1240 88 -1100 230/07 RMK AO2
14926KSTC STC20060221231010102/21/06 23:10:31  5-MIN KSTC 220510Z AUTO 24007KT 8SM CLR M06/M08 A2969 1240 88 -1000 230/07 RMK AO2
14926KSTC STC20060221231510102/21/06 23:15:31  5-MIN KSTC 220515Z AUTO 24007KT 8SM CLR M06/M07 A2969 1240 92 -1000 240/07 RMK AO2
14926KSTC STC20060221232010002/21/06 23:20:31  5-MIN KSTC 220520Z AUTO 24007KT 8SM CLR M06/M07 A2969 1240 88 -900 240/07 RMK AO2
14926KSTC STC20060221232510102/21/06 23:25:31  5-MIN KSTC 220525Z AUTO 24007KT 8SM CLR M06/M07 A2970 1230 92 -1000 240/07 RMK AO2
14926KSTC STC20060221233010102/21/06 23:30:31  5-MIN KSTC 220530Z AUTO 25007KT 7SM CLR M07/M08 A2969 1240 92 -1100 240/07 RMK AO2
14926KSTC STC20060221233510102/21/06 23:35:31  5-MIN KSTC 220535Z AUTO 25007KT 7SM CLR M07/M08 A2969 1240 92 -1000 240/07 RMK AO2
14926KSTC STC20060221234010102/21/06 23:40:31  5-MIN KSTC 220540Z AUTO 25008KT 7SM CLR M06/M08 A2969 1240 88 -1000 250/08 RMK AO2
14926KSTC STC20060221234510102/21/06 23:45:31  5-MIN KSTC 220545Z AUTO 26008KT 8SM CLR M06/M08 A2969 1240 88 -1000 250/08 RMK AO2
14926KSTC STC20060221235015202/21/06 23:50:31  5-MIN KSTC 220550Z AUTO 25008KT 8SM CLR M06/M07 A2969 1240 92 -1000 250/08 RMK AO2 SLP081 60000 T10611072 11044 21072 410441194 57007
14926KSTC STC20060221235510102/21/06 23:55:31  5-MIN KSTC 220555Z AUTO 24007KT 9SM CLR M06/M07 A2969 1240 92 -1000 240/07 RMK AO2
14926KSTC STC20060222000010102/22/06 00:00:32  5-MIN KSTC 220600Z AUTO 24009KT 9SM CLR M06/M07 A2970 1230 92 -1000 240/09 RMK AO2
14926KSTC STC20060222000510002/22/06 00:05:31  5-MIN KSTC 220605Z AUTO 24008KT 9SM CLR M06/M07 A2970 1230 88 -900 240/08 RMK AO2
14926KSTC STC20060222001010102/22/06 00:10:31  5-MIN KSTC 220610Z AUTO 25008KT 9SM CLR M06/M07 A2970 1230 92 -1000 240/08 RMK AO2
14926KSTC STC20060222001510102/22/06 00:15:31  5-MIN KSTC 220615Z AUTO 24008KT 9SM CLR M06/M08 A2970 1230 88 -1000 240/08 RMK AO2
14926KSTC STC20060222002010102/22/06 00:20:31  5-MIN KSTC 220620Z AUTO 25009KT 9SM CLR M06/M07 A2971 1220 92 -1000 240/09 RMK AO2
14926KSTC STC20060222002510002/22/06 00:25:31  5-MIN KSTC 220625Z AUTO 25009KT 9SM CLR M06/M07 A2971 1220 88 -900 250/09 RMK AO2
14926KSTC STC20060222003010002/22/06 00:30:31  5-MIN KSTC 220630Z AUTO 25008KT 9SM CLR M06/M07 A2971 1220 88 -900 250/08 RMK AO2
14926KSTC STC20060222003510102/22/06 00:35:31  5-MIN KSTC 220635Z AUTO 25009KT 9SM CLR M06/M08 A2971 1220 88 -1000 250/09 RMK AO2
14926KSTC STC20060222004010102/22/06 00:40:31  5-MIN KSTC 220640Z AUTO 25009KT 9SM CLR M06/M07 A2971 1220 92 -1000 250/09 RMK AO2
14926KSTC STC20060222004510102/22/06 00:45:31  5-MIN KSTC 220645Z AUTO 25008KT 9SM CLR M06/M07 A2971 1220 92 -1000 250/08 RMK AO2
14926KSTC STC20060222005011802/22/06 00:50:31  5-MIN KSTC 220650Z AUTO 25009KT 9SM CLR M06/M07 A2972 1220 92 -1000 250/09 RMK AO2 SLP088 T10611072
14926KSTC STC20060222005510102/22/06 00:55:31  5-MIN KSTC 220655Z AUTO 25009KT 9SM CLR M06/M07 A2972 1210 92 -1000 250/09 RMK AO2
14926KSTC STC20060222010010202/22/06 01:00:31  5-MIN KSTC 220700Z AUTO 25008KT 10SM CLR M06/M08 A2972 1210 88 -1000 250/08 RMK AO2
14926KSTC STC20060222010510202/22/06 01:05:31  5-MIN KSTC 220705Z AUTO 25007KT 10SM CLR M06/M08 A2972 1210 88 -1000 250/07 RMK AO2
14926KSTC STC20060222011010202/22/06 01:10:31  5-MIN KSTC 220710Z AUTO 25008KT 10SM CLR M07/M08 A2972 1210 88 -1100 250/08 RMK AO2
14926KSTC STC20060222011510202/22/06 01:15:31  5-MIN KSTC 220715Z AUTO 25008KT 10SM CLR M07/M08 A2973 1210 88 -1100 250/08 RMK AO2
14926KSTC STC20060222012010202/22/06 01:20:31  5-MIN KSTC 220720Z AUTO 25007KT 10SM CLR M07/M08 A2973 1210 92 -1100 250/07 RMK AO2
14926KSTC STC20060222012510202/22/06 01:25:31  5-MIN KSTC 220725Z AUTO 25006KT 10SM CLR M07/M08 A2973 1210 88 -1100 250/06 RMK AO2
14926KSTC STC20060222013010202/22/06 01:30:31  5-MIN KSTC 220730Z AUTO 25006KT 10SM CLR M07/M08 A2973 1210 88 -1100 240/06 RMK AO2
14926KSTC STC20060222013510202/22/06 01:35:31  5-MIN KSTC 220735Z AUTO 24007KT 10SM CLR M07/M08 A2973 1200 88 -1100 240/07 RMK AO2
14926KSTC STC20060222014010202/22/06 01:40:31  5-MIN KSTC 220740Z AUTO 24006KT 10SM CLR M07/M08 A2973 1200 92 -1100 240/06 RMK AO2
14926KSTC STC20060222014510202/22/06 01:45:31  5-MIN KSTC 220745Z AUTO 24006KT 10SM CLR M07/M08 A2973 1200 92 -1100 240/06 RMK AO2
14926KSTC STC20060222015011902/22/06 01:50:31  5-MIN KSTC 220750Z AUTO 24006KT 10SM CLR M06/M08 A2973 1200 88 -1000 230/06 RMK AO2 SLP093 T10611078
14926KSTC STC20060222015510202/22/06 01:55:31  5-MIN KSTC 220755Z AUTO 23006KT 10SM CLR M07/M08 A2973 1200 88 -1100 230/06 RMK AO2
14926KSTC STC20060222020010202/22/06 02:00:31  5-MIN KSTC 220800Z AUTO 23006KT 10SM CLR M07/M08 A2974 1200 92 -1200 230/06 RMK AO2
14926KSTC STC20060222020510202/22/06 02:05:31  5-MIN KSTC 220805Z AUTO 23006KT 10SM CLR M07/M09 A2974 1190 88 -1200 230/06 RMK AO2
14926KSTC STC20060222021010202/22/06 02:10:31  5-MIN KSTC 220810Z AUTO 24006KT 10SM CLR M07/M08 A2974 1190 92 -1200 240/06 RMK AO2
14926KSTC STC20060222021510202/22/06 02:15:31  5-MIN KSTC 220815Z AUTO 24006KT 10SM CLR M07/M09 A2974 1190 88 -1200 240/06 RMK AO2
14926KSTC STC20060222022010202/22/06 02:20:31  5-MIN KSTC 220820Z AUTO 24006KT 10SM CLR M08/M09 A2974 1190 92 -1200 240/06 RMK AO2
14926KSTC STC20060222022510202/22/06 02:25:31  5-MIN KSTC 220825Z AUTO 26006KT 10SM CLR M08/M09 A2974 1200 92 -1200 250/06 RMK AO2
14926KSTC STC20060222023010202/22/06 02:30:31  5-MIN KSTC 220830Z AUTO 27006KT 10SM CLR M08/M09 A2974 1200 88 -1200 260/06 RMK AO2
14926KSTC STC20060222023510202/22/06 02:35:31  5-MIN KSTC 220835Z AUTO 27007KT 10SM CLR M08/M09 A2974 1200 92 -1300 270/07 RMK AO2
14926KSTC STC20060222024010202/22/06 02:40:31  5-MIN KSTC 220840Z AUTO 27008KT 10SM CLR M08/M09 A2974 1200 92 -1300 270/08 RMK AO2
14926KSTC STC20060222024510202/22/06 02:45:31  5-MIN KSTC 220845Z AUTO 27009KT 10SM CLR M08/M09 A2974 1200 88 -1200 270/09 RMK AO2
14926KSTC STC20060222025012502/22/06 02:50:31  5-MIN KSTC 220850Z AUTO 28009KT 10SM CLR M08/M09 A2973 1200 88 -1200 270/09 RMK AO2 SLP095 T10781094 53002
14926KSTC STC20060222025510202/22/06 02:55:31  5-MIN KSTC 220855Z AUTO 28010KT 10SM CLR M07/M09 A2973 1200 84 -1200 280/10 RMK AO2
14926KSTC STC20060222030010202/22/06 03:00:31  5-MIN KSTC 220900Z AUTO 29010KT 10SM CLR M07/M09 A2973 1200 84 -1100 280/10 RMK AO2
14926KSTC STC20060222030510202/22/06 03:05:31  5-MIN KSTC 220905Z AUTO 29010KT 10SM CLR M07/M09 A2973 1200 84 -1100 280/10 RMK AO2
14926KSTC STC20060222031010202/22/06 03:10:31  5-MIN KSTC 220910Z AUTO 29009KT 10SM CLR M07/M09 A2972 1210 84 -1100 290/09 RMK AO2
14926KSTC STC20060222031510202/22/06 03:15:31  5-MIN KSTC 220915Z AUTO 29010KT 10SM CLR M07/M09 A2972 1210 84 -1100 290/10 RMK AO2
14926KSTC STC20060222032010202/22/06 03:20:31  5-MIN KSTC 220920Z AUTO 29010KT 10SM CLR M07/M09 A2972 1210 84 -1100 290/10 RMK AO2
14926KSTC STC20060222032510202/22/06 03:25:31  5-MIN KSTC 220925Z AUTO 29010KT 10SM CLR M07/M09 A2972 1210 84 -1100 290/10 RMK AO2
14926KSTC STC20060222033010202/22/06 03:30:31  5-MIN KSTC 220930Z AUTO 29009KT 10SM CLR M07/M09 A2972 1210 84 -1100 290/09 RMK AO2
14926KSTC STC20060222033510202/22/06 03:35:31  5-MIN KSTC 220935Z AUTO 29010KT 10SM CLR M07/M09 A2972 1210 84 -1100 290/10 RMK AO2
14926KSTC STC20060222034010202/22/06 03:40:31  5-MIN KSTC 220940Z AUTO 29009KT 10SM CLR M07/M09 A2972 1210 81 -1100 290/09 RMK AO2
14926KSTC STC20060222034510202/22/06 03:45:31  5-MIN KSTC 220945Z AUTO 29009KT 10SM CLR M07/M09 A2972 1210 84 -1200 290/09 RMK AO2
14926KSTC STC20060222035011902/22/06 03:50:31  5-MIN KSTC 220950Z AUTO 29008KT 10SM CLR M07/M09 A2972 1210 84 -1200 290/08 RMK AO2 SLP089 T10721094
14926KSTC STC20060222035510202/22/06 03:55:31  5-MIN KSTC 220955Z AUTO 29008KT 10SM CLR M07/M09 A2972 1210 84 -1200 290/08 RMK AO2
14926KSTC STC20060222040010202/22/06 04:00:31  5-MIN KSTC 221000Z AUTO 29008KT 10SM CLR M07/M09 A2972 1210 84 -1200 280/08 RMK AO2
14926KSTC STC20060222040510202/22/06 04:05:31  5-MIN KSTC 221005Z AUTO 28008KT 10SM CLR M07/M09 A2972 1210 84 -1200 280/08 RMK AO2
14926KSTC STC20060222041010202/22/06 04:10:31  5-MIN KSTC 221010Z AUTO 28007KT 10SM CLR M08/M10 A2972 1210 84 -1200 280/07 RMK AO2
14926KSTC STC20060222041510202/22/06 04:15:31  5-MIN KSTC 221015Z AUTO 29007KT 10SM CLR M08/M10 A2972 1210 84 -1200 280/07 RMK AO2
14926KSTC STC20060222042010202/22/06 04:20:31  5-MIN KSTC 221020Z AUTO 29008KT 10SM CLR M08/M10 A2972 1210 84 -1200 290/08 RMK AO2
14926KSTC STC20060222042510202/22/06 04:25:31  5-MIN KSTC 221025Z AUTO 30008KT 10SM CLR M08/M10 A2972 1210 88 -1300 290/08 RMK AO2
14926KSTC STC20060222043010202/22/06 04:30:31  5-MIN KSTC 221030Z AUTO 30008KT 10SM CLR M08/M11 A2972 1210 84 -1300 300/08 RMK AO2
14926KSTC STC20060222043510202/22/06 04:35:31  5-MIN KSTC 221035Z AUTO 29009KT 10SM CLR M09/M11 A2972 1210 84 -1400 290/09 RMK AO2
14926KSTC STC20060222044010202/22/06 04:40:31  5-MIN KSTC 221040Z AUTO 29008KT 10SM CLR M08/M11 A2972 1210 84 -1300 290/08 RMK AO2
14926KSTC STC20060222044510202/22/06 04:45:31  5-MIN KSTC 221045Z AUTO 29009KT 10SM CLR M08/M11 A2973 1210 80 -1200 290/09 RMK AO2
14926KSTC STC20060222045011902/22/06 04:50:31  5-MIN KSTC 221050Z AUTO 30009KT 10SM CLR M08/M11 A2972 1210 80 -1200 290/09 RMK AO2 SLP090 T10781106
14926KSTC STC20060222045510202/22/06 04:55:31  5-MIN KSTC 221055Z AUTO 31008KT 10SM CLR M08/M11 A2972 1210 84 -1300 300/08 RMK AO2
14926KSTC STC20060222050010202/22/06 05:00:31  5-MIN KSTC 221100Z AUTO 30007KT 10SM CLR M09/M11 A2972 1210 88 -1400 300/07 RMK AO2
14926KSTC STC20060222050510202/22/06 05:05:31  5-MIN KSTC 221105Z AUTO 30007KT 10SM CLR M09/M11 A2973 1200 88 -1500 290/07 RMK AO2
14926KSTC STC20060222051010202/22/06 05:10:31  5-MIN KSTC 221110Z AUTO 29008KT 10SM CLR M09/M12 A2973 1200 84 -1500 280/08 RMK AO2
14926KSTC STC20060222051510202/22/06 05:15:31  5-MIN KSTC 221115Z AUTO 28008KT 10SM CLR M09/M11 A2974 1200 84 -1400 280/08 RMK AO2
14926KSTC STC20060222052010202/22/06 05:20:31  5-MIN KSTC 221120Z AUTO 28009KT 10SM CLR M08/M11 A2974 1190 84 -1300 270/09 RMK AO2
14926KSTC STC20060222052510202/22/06 05:25:31  5-MIN KSTC 221125Z AUTO 28009KT 10SM CLR M08/M11 A2974 1190 84 -1300 280/09 RMK AO2
14926KSTC STC20060222053010202/22/06 05:30:31  5-MIN KSTC 221130Z AUTO 28009KT 10SM CLR M08/M11 A2974 1190 84 -1300 280/09 RMK AO2
14926KSTC STC20060222053510202/22/06 05:35:31  5-MIN KSTC 221135Z AUTO 28008KT 10SM CLR M08/M11 A2975 1190 84 -1300 280/08 RMK AO2
14926KSTC STC20060222054010202/22/06 05:40:31  5-MIN KSTC 221140Z AUTO 28010KT 10SM CLR M08/M11 A2975 1190 84 -1300 280/10 RMK AO2
14926KSTC STC20060222054510202/22/06 05:45:31  5-MIN KSTC 221145Z AUTO 28011KT 10SM CLR M08/M11 A2975 1180 84 -1300 280/11 RMK AO2
14926KSTC STC20060222055013702/22/06 05:50:31  5-MIN KSTC 221150Z AUTO 29010KT 10SM CLR M08/M11 A2975 1190 84 -1300 290/10 RMK AO2 SLP099 T10831106 11056 21100 51013
14926KSTC STC20060222055510202/22/06 05:55:31  5-MIN KSTC 221155Z AUTO 30010KT 10SM CLR M08/M11 A2975 1190 84 -1300 300/10 RMK AO2
14926KSTC STC20060222060010202/22/06 06:00:31  5-MIN KSTC 221200Z AUTO 30010KT 10SM CLR M08/M11 A2975 1190 84 -1300 300/10 RMK AO2
14926KSTC STC20060222060510202/22/06 06:05:31  5-MIN KSTC 221205Z AUTO 30008KT 10SM CLR M09/M11 A2975 1190 84 -1400 300/08 RMK AO2
14926KSTC STC20060222061010202/22/06 06:10:31  5-MIN KSTC 221210Z AUTO 30007KT 10SM CLR M09/M11 A2975 1190 88 -1500 300/07 RMK AO2
14926KSTC STC20060222061510202/22/06 06:15:31  5-MIN KSTC 221215Z AUTO 30008KT 10SM CLR M09/M12 A2975 1180 84 -1500 290/08 RMK AO2
14926KSTC STC20060222062010202/22/06 06:20:31  5-MIN KSTC 221220Z AUTO 30007KT 10SM CLR M09/M12 A2975 1180 84 -1500 300/07 RMK AO2
14926KSTC STC20060222062510202/22/06 06:25:31  5-MIN KSTC 221225Z AUTO 30007KT 10SM CLR M09/M12 A2975 1180 84 -1500 290/07 RMK AO2
14926KSTC STC20060222063010202/22/06 06:30:31  5-MIN KSTC 221230Z AUTO 28007KT 10SM CLR M10/M12 A2976 1180 88 -1600 280/07 RMK AO2
14926KSTC STC20060222063510202/22/06 06:35:31  5-MIN KSTC 221235Z AUTO 26007KT 10SM CLR M10/M12 A2976 1170 88 -1600 260/07 RMK AO2
14926KSTC STC20060222064010202/22/06 06:40:31  5-MIN KSTC 221240Z AUTO 26006KT 10SM CLR M11/M12 A2976 1170 88 -1600 250/06 RMK AO2
14926KSTC STC20060222064510202/22/06 06:45:31  5-MIN KSTC 221245Z AUTO 27006KT 10SM CLR M11/M12 A2976 1170 88 -1600 260/06 RMK AO2
14926KSTC STC20060222065011902/22/06 06:50:31  5-MIN KSTC 221250Z AUTO 27005KT 10SM CLR M11/M12 A2976 1180 88 -1600 260/05 RMK AO2 SLP103 T11061122
14926KSTC STC20060222065510202/22/06 06:55:31  5-MIN KSTC 221255Z AUTO 26005KT 10SM CLR M11/M12 A2976 1170 88 -1600 260/05 RMK AO2
14926KSTC STC20060222070009702/22/06 07:00:31  5-MIN KSTC 221300Z 27005KT 10SM CLR M11/M13 A2976 1170 84 -1600 270/05 RMK AO2
14926KSTC STC20060222070509702/22/06 07:05:31  5-MIN KSTC 221305Z 25004KT 10SM CLR M11/M12 A2976 1170 88 -1600 250/04 RMK AO2
14926KSTC STC20060222071009602/22/06 07:10:31  5-MIN KSTC 221310Z 23003KT 9SM CLR M11/M13 A2976 1170 88 -1700 230/03 RMK AO2
14926KSTC STC20060222071509602/22/06 07:15:31  5-MIN KSTC 221315Z 25003KT 8SM CLR M11/M13 A2976 1180 88 -1700 240/03 RMK AO2
14926KSTC STC20060222072009602/22/06 07:20:31  5-MIN KSTC 221320Z 26003KT 7SM CLR M11/M13 A2976 1170 88 -1700 260/03 RMK AO2
14926KSTC STC20060222072509902/22/06 07:25:31  5-MIN KSTC 221325Z 24004KT 6SM BR CLR M11/M13 A2976 1170 88 -1700 240/04 RMK AO2
14926KSTC STC20060222073009902/22/06 07:30:31  5-MIN KSTC 221330Z 21003KT 5SM BR CLR M12/M13 A2976 1170 91 -1800 210/03 RMK AO2
14926KSTC STC20060222073509902/22/06 07:35:31  5-MIN KSTC 221335Z 00000KT 5SM BR CLR M12/M13 A2976 1170 91 -1800 000/00 RMK AO2
14926KSTC STC20060222074010302/22/06 07:40:31  5-MIN KSTC 221340Z 00000KT 1 3/4SM BR CLR M11/M12 A2976 1170 92 -1600 000/00 RMK AO2
14926KSTC STC20060222074509602/22/06 07:45:31  5-MIN KSTC 221345Z 00000KT 8SM CLR M11/M12 A2976 1170 92 -1700 000/00 RMK AO2
14926KSTC STC20060222075013002/22/06 07:50:31  5-MIN KSTC 221350Z 00000KT 2 1/2SM BR CLR M11/M12 A2976 1170 92 -1600 000/00 RMK AO2 VIS 3/4V5 SLP104 T11061117
14926KSTC STC20060222075509902/22/06 07:55:31  5-MIN KSTC 221355Z 00000KT 5SM BR CLR M11/M12 A2976 1180 92 -1600 000/00 RMK AO2
14926KSTC STC20060222080009902/22/06 08:00:31  5-MIN KSTC 221400Z 00000KT 6SM BR CLR M11/M12 A2976 1170 92 -1600 000/00 RMK AO2
14926KSTC STC20060222080509902/22/06 08:05:31  5-MIN KSTC 221405Z 00000KT 5SM BR CLR M11/M12 A2976 1170 96 -1700 000/00 RMK AO2
14926KSTC STC20060222081009902/22/06 08:10:31  5-MIN KSTC 221410Z 00000KT 5SM BR CLR M11/M12 A2977 1170 92 -1700 000/00 RMK AO2
14926KSTC STC20060222081509902/22/06 08:15:31  5-MIN KSTC 221415Z 00000KT 5SM BR CLR M11/M12 A2976 1170 88 -1600 000/00 RMK AO2
14926KSTC STC20060222082009902/22/06 08:20:31  5-MIN KSTC 221420Z 00000KT 6SM BR CLR M10/M11 A2977 1170 92 -1600 000/00 RMK AO2
14926KSTC STC20060222082509902/22/06 08:25:31  5-MIN KSTC 221425Z 00000KT 6SM BR CLR M11/M12 A2977 1170 92 -1700 000/00 RMK AO2
14926KSTC STC20060222083009602/22/06 08:30:31  5-MIN KSTC 221430Z 00000KT 7SM CLR M11/M12 A2977 1170 92 -1600 000/00 RMK AO2
14926KSTC STC20060222083509602/22/06 08:35:31  5-MIN KSTC 221435Z 00000KT 7SM CLR M10/M11 A2977 1160 92 -1600 000/00 RMK AO2
14926KSTC STC20060222084009602/22/06 08:40:31  5-MIN KSTC 221440Z 00000KT 7SM CLR M11/M11 A2978 1160 96 -1700 000/00 RMK AO2
14926KSTC STC20060222084509602/22/06 08:45:31  5-MIN KSTC 221445Z 19003KT 7SM CLR M11/M12 A2978 1150 92 -1700 190/03 RMK AO2
14926KSTC STC20060222085011902/22/06 08:50:31  5-MIN KSTC 221450Z 19004KT 7SM CLR M11/M12 A2979 1150 92 -1700 190/04 RMK AO2 SLP113 T11061117 53005
14926KSTC STC20060222085509602/22/06 08:55:31  5-MIN KSTC 221455Z 19006KT 8SM CLR M10/M12 A2979 1150 88 -1600 180/06 RMK AO2
14926KSTC STC20060222090009602/22/06 09:00:31  5-MIN KSTC 221500Z 19006KT 8SM CLR M09/M11 A2979 1150 88 -1500 180/06 RMK AO2
14926KSTC STC20060222090509602/22/06 09:05:31  5-MIN KSTC 221505Z 19008KT 9SM CLR M09/M11 A2979 1150 88 -1500 190/08 RMK AO2
14926KSTC STC20060222091009602/22/06 09:10:31  5-MIN KSTC 221510Z 19006KT 9SM CLR M09/M11 A2979 1150 88 -1500 190/06 RMK AO2
14926KSTC STC20060222091509602/22/06 09:15:31  5-MIN KSTC 221515Z 19005KT 9SM CLR M09/M11 A2979 1150 88 -1400 190/05 RMK AO2
14926KSTC STC20060222092009602/22/06 09:20:31  5-MIN KSTC 221520Z 19006KT 9SM CLR M09/M11 A2979 1150 88 -1400 180/06 RMK AO2
14926KSTC STC20060222092509702/22/06 09:25:31  5-MIN KSTC 221525Z 19006KT 10SM CLR M09/M11 A2979 1150 84 -1400 180/06 RMK AO2
14926KSTC STC20060222093009702/22/06 09:30:31  5-MIN KSTC 221530Z 19006KT 10SM CLR M08/M11 A2979 1150 84 -1400 190/06 RMK AO2
14926KSTC STC20060222093509702/22/06 09:35:31  5-MIN KSTC 221535Z 19005KT 10SM CLR M08/M10 A2979 1150 88 -1400 180/05 RMK AO2
14926KSTC STC20060222094009702/22/06 09:40:31  5-MIN KSTC 221540Z 18004KT 10SM CLR M08/M11 A2979 1150 84 -1400 170/04 RMK AO2
14926KSTC STC20060222094509702/22/06 09:45:31  5-MIN KSTC 221545Z 17004KT 10SM CLR M08/M11 A2978 1150 84 -1400 170/04 RMK AO2
14926KSTC STC20060222095011402/22/06 09:50:31  5-MIN KSTC 221550Z 18003KT 10SM CLR M08/M11 A2979 1150 80 -1300 180/03 RMK AO2 SLP112 T10781106
14926KSTC STC20060222095509702/22/06 09:55:31  5-MIN KSTC 221555Z 20004KT 10SM CLR M08/M10 A2979 1150 84 -1300 200/04 RMK AO2
14926KSTC STC20060222100009702/22/06 10:00:31  5-MIN KSTC 221600Z 20004KT 10SM CLR M08/M10 A2979 1150 84 -1300 200/04 RMK AO2
14926KSTC STC20060222100509702/22/06 10:05:31  5-MIN KSTC 221605Z 20004KT 10SM CLR M08/M10 A2979 1150 84 -1300 200/04 RMK AO2
14926KSTC STC20060222101009702/22/06 10:10:31  5-MIN KSTC 221610Z 18004KT 10SM CLR M07/M10 A2978 1150 81 -1200 180/04 RMK AO2
14926KSTC STC20060222101509702/22/06 10:15:31  5-MIN KSTC 221615Z 17003KT 10SM CLR M07/M10 A2978 1160 81 -1200 170/03 RMK AO2
14926KSTC STC20060222102009702/22/06 10:20:31  5-MIN KSTC 221620Z 00000KT 10SM CLR M07/M10 A2978 1160 81 -1200 000/00 RMK AO2
14926KSTC STC20060222102509702/22/06 10:25:31  5-MIN KSTC 221625Z 16003KT 10SM CLR M07/M10 A2977 1160 77 -1100 160/03 RMK AO2
14926KSTC STC20060222103009702/22/06 10:30:31  5-MIN KSTC 221630Z 14003KT 10SM CLR M07/M09 A2978 1160 81 -1100 140/03 RMK AO2
14926KSTC STC20060222103509702/22/06 10:35:31  5-MIN KSTC 221635Z 21006KT 10SM CLR M07/M09 A2978 1160 81 -1100 210/06 RMK AO2
14926KSTC STC20060222104009702/22/06 10:40:31  5-MIN KSTC 221640Z 19006KT 10SM CLR M07/M09 A2978 1160 81 -1200 190/06 RMK AO2
14926KSTC STC20060222104509702/22/06 10:45:31  5-MIN KSTC 221645Z 20007KT 10SM CLR M06/M09 A2978 1160 77 -1100 190/07 RMK AO2
14926KSTC STC20060222105011402/22/06 10:50:31  5-MIN KSTC 221650Z 19008KT 10SM CLR M06/M09 A2978 1160 81 -1100 190/08 RMK AO2 SLP109 T10611089
14926KSTC STC20060222105509702/22/06 10:55:31  5-MIN KSTC 221655Z 19008KT 10SM CLR M06/M09 A2978 1160 77 -1100 190/08 RMK AO2
14926KSTC STC20060222110009702/22/06 11:00:31  5-MIN KSTC 221700Z 19006KT 10SM CLR M06/M09 A2978 1160 81 -1100 190/06 RMK AO2
14926KSTC STC20060222110509702/22/06 11:05:31  5-MIN KSTC 221705Z 19007KT 10SM CLR M06/M09 A2977 1160 77 -1100 190/07 RMK AO2
14926KSTC STC20060222111009702/22/06 11:10:31  5-MIN KSTC 221710Z 19007KT 10SM CLR M06/M09 A2978 1160 77 -1100 190/07 RMK AO2
14926KSTC STC20060222111509702/22/06 11:15:31  5-MIN KSTC 221715Z 19007KT 10SM CLR M06/M09 A2977 1160 74 -1000 190/07 RMK AO2
14926KSTC STC20060222112009702/22/06 11:20:31  5-MIN KSTC 221720Z 19006KT 10SM CLR M06/M09 A2977 1160 74 -1000 190/06 RMK AO2
14926KSTC STC20060222112509702/22/06 11:25:31  5-MIN KSTC 221725Z 19007KT 10SM CLR M06/M09 A2977 1170 74 -1000 190/07 RMK AO2
14926KSTC STC20060222113009602/22/06 11:30:31  5-MIN KSTC 221730Z 19007KT 10SM CLR M05/M09 A2977 1170 74 -900 190/07 RMK AO2
14926KSTC STC20060222113509602/22/06 11:35:31  5-MIN KSTC 221735Z 19008KT 10SM CLR M05/M09 A2977 1160 74 -900 190/08 RMK AO2
14926KSTC STC20060222114009602/22/06 11:40:31  5-MIN KSTC 221740Z 20008KT 10SM CLR M04/M08 A2977 1170 74 -900 190/08 RMK AO2
14926KSTC STC20060222114509602/22/06 11:45:31  5-MIN KSTC 221745Z 20009KT 10SM CLR M04/M08 A2977 1170 74 -900 200/09 RMK AO2
14926KSTC STC20060222115013102/22/06 11:50:31  5-MIN KSTC 221750Z 21007KT 10SM CLR M04/M08 A2976 1170 74 -800 200/07 RMK AO2 SLP103 T10441083 11044 21117 53013
14926KSTC STC20060222115509602/22/06 11:55:31  5-MIN KSTC 221755Z 20008KT 10SM CLR M04/M08 A2976 1170 74 -800 200/08 RMK AO2
14926KSTC STC20060222120009602/22/06 12:00:31  5-MIN KSTC 221800Z 20008KT 10SM CLR M04/M08 A2976 1180 71 -800 200/08 RMK AO2
14926KSTC STC20060222120509602/22/06 12:05:31  5-MIN KSTC 221805Z 19007KT 10SM CLR M04/M08 A2976 1180 71 -800 190/07 RMK AO2
14926KSTC STC20060222121009602/22/06 12:10:31  5-MIN KSTC 221810Z 20007KT 10SM CLR M04/M08 A2975 1180 74 -800 200/07 RMK AO2
14926KSTC STC20060222121509602/22/06 12:15:31  5-MIN KSTC 221815Z 19006KT 10SM CLR M03/M08 A2975 1190 71 -700 190/06 RMK AO2
14926KSTC STC20060222122009602/22/06 12:20:31  5-MIN KSTC 221820Z 19005KT 10SM CLR M03/M08 A2974 1190 71 -700 180/05 RMK AO2
14926KSTC STC20060222122509602/22/06 12:25:31  5-MIN KSTC 221825Z 18006KT 10SM CLR M03/M08 A2974 1190 71 -700 180/06 RMK AO2
14926KSTC STC20060222123009602/22/06 12:30:31  5-MIN KSTC 221830Z 19008KT 10SM CLR M03/M08 A2974 1190 68 -600 190/08 RMK AO2
14926KSTC STC20060222123509602/22/06 12:35:31  5-MIN KSTC 221835Z 19008KT 10SM CLR M03/M08 A2974 1200 68 -600 180/08 RMK AO2
14926KSTC STC20060222124009602/22/06 12:40:31  5-MIN KSTC 221840Z 20007KT 10SM CLR M03/M08 A2973 1200 68 -600 190/07 RMK AO2
14926KSTC STC20060222124509602/22/06 12:45:31  5-MIN KSTC 221845Z 20009KT 10SM CLR M02/M07 A2973 1200 69 -500 200/09 RMK AO2
14926KSTC STC20060222125011302/22/06 12:50:31  5-MIN KSTC 221850Z 21010KT 10SM CLR M02/M07 A2973 1200 69 -500 210/10 RMK AO2 SLP090 T10221072
14926KSTC STC20060222125509602/22/06 12:55:31  5-MIN KSTC 221855Z 21009KT 10SM CLR M02/M07 A2973 1200 69 -500 210/09 RMK AO2
14926KSTC STC20060222130009602/22/06 13:00:31  5-MIN KSTC 221900Z 20007KT 10SM CLR M02/M07 A2972 1210 69 -500 200/07 RMK AO2
14926KSTC STC20060222130509602/22/06 13:05:31  5-MIN KSTC 221905Z 20007KT 10SM CLR M02/M07 A2972 1210 69 -500 200/07 RMK AO2
14926KSTC STC20060222131009602/22/06 13:10:31  5-MIN KSTC 221910Z 21008KT 10SM CLR M02/M07 A2973 1210 66 -500 210/08 RMK AO2
14926KSTC STC20060222131509902/22/06 13:15:31  5-MIN KSTC 221915Z 21009KT 10SM FEW048 M02/M07 A2973 1210 66 -500 200/09 RMK AO2
14926KSTC STC20060222132010602/22/06 13:20:31  5-MIN KSTC 221920Z 20011KT 10SM FEW048 SCT060 M02/M07 A2972 1210 66 -400 200/11 RMK AO2
14926KSTC STC20060222132510602/22/06 13:25:31  5-MIN KSTC 221925Z 21009KT 10SM FEW048 BKN060 M02/M07 A2972 1210 66 -400 210/09 RMK AO2
14926KSTC STC20060222133010602/22/06 13:30:31  5-MIN KSTC 221930Z 21011KT 10SM FEW048 BKN060 M01/M07 A2972 1210 66 -400 210/11 RMK AO2
14926KSTC STC20060222133509902/22/06 13:35:31  5-MIN KSTC 221935Z 21009KT 10SM BKN060 M02/M08 A2972 1210 63 -400 210/09 RMK AO2
14926KSTC STC20060222134009902/22/06 13:40:31  5-MIN KSTC 221940Z 20008KT 10SM BKN060 M02/M08 A2972 1210 63 -400 190/08 RMK AO2
14926KSTC STC20060222134509902/22/06 13:45:31  5-MIN KSTC 221945Z 21009KT 10SM BKN060 M02/M07 A2972 1220 66 -400 200/09 RMK AO2
14926KSTC STC20060222135011602/22/06 13:50:31  5-MIN KSTC 221950Z 22008KT 10SM BKN060 M01/M07 A2971 1220 63 -400 220/08 RMK AO2 SLP085 T10111072
14926KSTC STC20060222135509902/22/06 13:55:31  5-MIN KSTC 221955Z 21009KT 10SM BKN065 M01/M07 A2971 1220 66 -400 200/09 RMK AO2
14926KSTC STC20060222140009902/22/06 14:00:31  5-MIN KSTC 222000Z 20008KT 10SM BKN060 M01/M07 A2971 1220 63 -400 200/08 RMK AO2
14926KSTC STC20060222140509902/22/06 14:05:31  5-MIN KSTC 222005Z 22007KT 10SM SCT060 M01/M07 A2971 1220 66 -400 210/07 RMK AO2
14926KSTC STC20060222141009902/22/06 14:10:31  5-MIN KSTC 222010Z 20006KT 10SM SCT060 M01/M07 A2970 1230 63 -400 200/06 RMK AO2
14926KSTC STC20060222141509902/22/06 14:15:31  5-MIN KSTC 222015Z 20007KT 10SM SCT065 M01/M07 A2970 1230 66 -400 190/07 RMK AO2
14926KSTC STC20060222142009902/22/06 14:20:31  5-MIN KSTC 222020Z 19008KT 10SM SCT060 M01/M07 A2970 1230 66 -400 190/08 RMK AO2
14926KSTC STC20060222142509902/22/06 14:25:31  5-MIN KSTC 222025Z 20006KT 10SM BKN055 M01/M07 A2970 1230 66 -400 200/06 RMK AO2
14926KSTC STC20060222143010602/22/06 14:30:31  5-MIN KSTC 222030Z 20007KT 10SM BKN050 BKN060 M01/M07 A2970 1230 66 -300 200/07 RMK AO2
14926KSTC STC20060222143510602/22/06 14:35:31  5-MIN KSTC 222035Z 20008KT 10SM BKN034 BKN050 M01/M06 A2970 1230 69 -400 200/08 RMK AO2
14926KSTC STC20060222144010502/22/06 14:40:31  5-MIN KSTC 222040Z 21008KT 8SM BKN028 BKN050 M01/M06 A2970 1230 69 -400 200/08 RMK AO2
14926KSTC STC20060222144512102/22/06 14:45:31  5-MIN KSTC 222045Z 20008KT 4SM -SN BKN026 OVC050 M01/M06 A2970 1230 69 -400 190/08 RMK AO2 SNB42 P0000
14926KSTC STC20060222145014302/22/06 14:50:31  5-MIN KSTC 222050Z 22011KT 2SM -SN OVC022 M01/M06 A2970 1230 69 -400 220/11 RMK AO2 SNB42 SLP082 P0000 60000 T10111061 58008
14926KSTC STC20060222145511502/22/06 14:55:31  5-MIN KSTC 222055Z 23010KT 1SM -SN BKN016 OVC020 M01/M05 A2970 1230 75 -400 230/10 RMK AO2 P0000
14926KSTC STC20060222150010702/22/06 15:00:31  5-MIN KSTC 222100Z 22011KT 1SM -SN VV012 M02/M04 A2970 1230 81 -400 220/11 RMK AO2 P0000
14926KSTC STC20060222150510702/22/06 15:05:31  5-MIN KSTC 222105Z 22011KT 1SM -SN VV010 M02/M04 A2970 1230 81 -400 210/11 RMK AO2 P0000
14926KSTC STC20060222151011202/22/06 15:10:31  5-MIN KSTC 222110Z 22009KT 3/4SM -SN BR VV009 M02/M04 A2970 1230 85 -500 220/09 RMK AO2 P0000
14926KSTC STC20060222151512002/22/06 15:15:31  5-MIN KSTC 222115Z 22009KT 3/4SM -SN BR BKN008 OVC044 M02/M04 A2970 1230 85 -500 220/09 RMK AO2 P0000
14926KSTC STC20060222152011802/22/06 15:20:31  5-MIN KSTC 222120Z 21009KT 1SM -SN BR BKN008 OVC042 M02/M04 A2970 1230 85 -500 210/09 RMK AO2 P0000
14926KSTC STC20060222152511802/22/06 15:25:31  5-MIN KSTC 222125Z 20009KT 3SM -SN BR SCT008 OVC040 M02/M04 A2970 1230 85 -500 200/09 RMK AO2 P0000
14926KSTC STC20060222153012002/22/06 15:30:31  5-MIN KSTC 222130Z 20010KT 3SM BR FEW008 OVC042 M02/M04 A2970 1230 88 -500 190/10 RMK AO2 SNE30 P0000
14926KSTC STC20060222153511702/22/06 15:35:31  5-MIN KSTC 222135Z 20009KT 8SM FEW008 OVC040 M02/M04 A2970 1230 88 -500 190/09 RMK AO2 SNE30 P0000
14926KSTC STC20060222154011102/22/06 15:40:31  5-MIN KSTC 222140Z 20010KT 10SM OVC040 M02/M04 A2970 1230 85 -400 200/10 RMK AO2 SNE30 P0000
14926KSTC STC20060222154511702/22/06 15:45:31  5-MIN KSTC 222145Z 20008KT 9SM BKN037 OVC044 M02/M04 A2970 1230 85 -400 200/08 RMK AO2 SNE30 P0000
14926KSTC STC20060222155013402/22/06 15:50:31  5-MIN KSTC 222150Z 20009KT 8SM BKN037 OVC044 M02/M04 A2970 1230 85 -400 200/09 RMK AO2 SNE30 SLP082 P0000 T10171039
14926KSTC STC20060222155510502/22/06 15:55:31  5-MIN KSTC 222155Z 20006KT 8SM BKN035 OVC044 M02/M04 A2970 1230 85 -400 200/06 RMK AO2
14926KSTC STC20060222160010302/22/06 16:00:31  5-MIN KSTC 222200Z AUTO 20007KT 9SM OVC035 M02/M04 A2970 1230 85 -400 200/07 RMK AO2
14926KSTC STC20060222160510302/22/06 16:05:31  5-MIN KSTC 222205Z AUTO 19006KT 9SM OVC035 M02/M04 A2971 1230 85 -400 190/06 RMK AO2
14926KSTC STC20060222161010302/22/06 16:10:31  5-MIN KSTC 222210Z AUTO 19007KT 9SM OVC035 M02/M04 A2970 1230 85 -400 190/07 RMK AO2
14926KSTC STC20060222161510302/22/06 16:15:31  5-MIN KSTC 222215Z AUTO 20007KT 8SM BKN035 M01/M04 A2970 1230 81 -400 200/07 RMK AO2
14926KSTC STC20060222162011002/22/06 16:20:31  5-MIN KSTC 222220Z AUTO 19007KT 7SM BKN035 OVC047 M01/M04 A2971 1230 81 -400 190/07 RMK AO2
14926KSTC STC20060222162511002/22/06 16:25:31  5-MIN KSTC 222225Z AUTO 19007KT 8SM BKN035 OVC047 M01/M04 A2970 1230 81 -400 190/07 RMK AO2
14926KSTC STC20060222163011702/22/06 16:30:31  5-MIN KSTC 222230Z AUTO 19007KT 8SM BKN035 BKN047 OVC070 M01/M04 A2971 1230 81 -400 190/07 RMK AO2
14926KSTC STC20060222163511702/22/06 16:35:31  5-MIN KSTC 222235Z AUTO 19006KT 9SM BKN037 BKN047 OVC070 M01/M04 A2971 1230 81 -400 190/06 RMK AO2
14926KSTC STC20060222164011802/22/06 16:40:31  5-MIN KSTC 222240Z AUTO 19007KT 10SM BKN039 BKN047 OVC065 M01/M04 A2971 1230 81 -400 190/07 RMK AO2
14926KSTC STC20060222164511802/22/06 16:45:31  5-MIN KSTC 222245Z AUTO 20006KT 10SM BKN037 BKN047 OVC070 M01/M04 A2971 1220 81 -400 190/06 RMK AO2
14926KSTC STC20060222165012802/22/06 16:50:31  5-MIN KSTC 222250Z AUTO 20006KT 10SM BKN037 OVC070 M01/M04 A2971 1220 81 -400 200/06 RMK AO2 SLP084 T10111039
14926KSTC STC20060222165511102/22/06 16:55:31  5-MIN KSTC 222255Z AUTO 19005KT 10SM BKN037 OVC070 M01/M04 A2971 1220 81 -400 190/05 RMK AO2
14926KSTC STC20060222170011102/22/06 17:00:31  5-MIN KSTC 222300Z AUTO 19005KT 10SM BKN037 OVC055 M01/M03 A2971 1220 85 -400 190/05 RMK AO2
14926KSTC STC20060222170511102/22/06 17:05:31  5-MIN KSTC 222305Z AUTO 19005KT 10SM BKN037 BKN050 M01/M03 A2971 1220 85 -400 180/05 RMK AO2
14926KSTC STC20060222171011102/22/06 17:10:31  5-MIN KSTC 222310Z AUTO 19006KT 10SM BKN037 BKN048 M02/M04 A2971 1220 85 -400 190/06 RMK AO2
14926KSTC STC20060222171511102/22/06 17:15:31  5-MIN KSTC 222315Z AUTO 19006KT 10SM SCT037 BKN048 M02/M04 A2971 1220 85 -400 190/06 RMK AO2
14926KSTC STC20060222172011102/22/06 17:20:31  5-MIN KSTC 222320Z AUTO 20005KT 10SM SCT037 SCT048 M02/M04 A2971 1220 85 -400 190/05 RMK AO2
14926KSTC STC20060222172510402/22/06 17:25:31  5-MIN KSTC 222325Z AUTO 19005KT 10SM FEW037 M02/M04 A2971 1220 85 -500 180/05 RMK AO2
14926KSTC STC20060222173010402/22/06 17:30:31  5-MIN KSTC 222330Z AUTO 19006KT 10SM FEW047 M03/M04 A2971 1230 88 -600 180/06 RMK AO2
14926KSTC STC20060222173510102/22/06 17:35:31  5-MIN KSTC 222335Z AUTO 19005KT 10SM CLR M02/M04 A2971 1230 85 -500 180/05 RMK AO2
14926KSTC STC20060222174010402/22/06 17:40:31  5-MIN KSTC 222340Z AUTO 19004KT 10SM FEW030 M03/M05 A2971 1220 85 -600 190/04 RMK AO2
14926KSTC STC20060222174510402/22/06 17:45:31  5-MIN KSTC 222345Z AUTO 19004KT 10SM FEW030 M03/M05 A2971 1220 88 -600 180/04 RMK AO2
14926KSTC STC20060222175014502/22/06 17:50:31  5-MIN KSTC 222350Z AUTO 00000KT 10SM SCT030 M03/M06 A2971 1220 85 -600 000/00 RMK AO2 SLP085 60000 T10331056 11011 21044 56020
14926KSTC STC20060222175510402/22/06 17:55:31  5-MIN KSTC 222355Z AUTO 19003KT 10SM BKN030 M03/M05 A2971 1220 85 -600 190/03 RMK AO2
14926KSTC STC20060222180010402/22/06 18:00:31  5-MIN KSTC 230000Z AUTO 25003KT 10SM BKN030 M03/M04 A2972 1210 92 -700 250/03 RMK AO2
14926KSTC STC20060222180510402/22/06 18:05:31  5-MIN KSTC 230005Z AUTO 00000KT 10SM BKN030 M03/M05 A2972 1210 88 -700 000/00 RMK AO2
14926KSTC STC20060222181010402/22/06 18:10:31  5-MIN KSTC 230010Z AUTO 00000KT 10SM OVC028 M03/M04 A2972 1210 88 -600 000/00 RMK AO2
14926KSTC STC20060222181510402/22/06 18:15:31  5-MIN KSTC 230015Z AUTO 00000KT 10SM OVC028 M03/M04 A2972 1210 88 -600 000/00 RMK AO2
14926KSTC STC20060222182010402/22/06 18:20:31  5-MIN KSTC 230020Z AUTO 00000KT 10SM OVC028 M02/M04 A2973 1200 85 -500 000/00 RMK AO2
14926KSTC STC20060222182510402/22/06 18:25:31  5-MIN KSTC 230025Z AUTO 00000KT 10SM OVC028 M03/M04 A2973 1210 88 -600 000/00 RMK AO2
14926KSTC STC20060222183010402/22/06 18:30:31  5-MIN KSTC 230030Z AUTO 22003KT 10SM OVC028 M03/M04 A2973 1200 88 -600 220/03 RMK AO2
14926KSTC STC20060222183510402/22/06 18:35:31  5-MIN KSTC 230035Z AUTO 23004KT 10SM OVC028 M03/M04 A2974 1200 88 -600 230/04 RMK AO2
14926KSTC STC20060222184010402/22/06 18:40:31  5-MIN KSTC 230040Z AUTO 26004KT 10SM OVC026 M02/M04 A2974 1200 85 -500 260/04 RMK AO2
14926KSTC STC20060222184510402/22/06 18:45:31  5-MIN KSTC 230045Z AUTO 25003KT 10SM OVC026 M02/M04 A2974 1200 85 -500 250/03 RMK AO2
14926KSTC STC20060222185012102/22/06 18:50:31  5-MIN KSTC 230050Z AUTO 25004KT 10SM OVC026 M02/M04 A2974 1190 85 -500 240/04 RMK AO2 SLP095 T10221044
14926KSTC STC20060222185510402/22/06 18:55:31  5-MIN KSTC 230055Z AUTO 25004KT 10SM OVC026 M02/M04 A2974 1190 81 -500 240/04 RMK AO2
14926KSTC STC20060222190010402/22/06 19:00:31  5-MIN KSTC 230100Z AUTO 25005KT 10SM OVC024 M01/M04 A2975 1190 78 -400 240/05 RMK AO2
14926KSTC STC20060222190510402/22/06 19:05:31  5-MIN KSTC 230105Z AUTO 27010KT 10SM OVC024 M01/M04 A2975 1190 78 -300 270/10 RMK AO2
14926KSTC STC20060222191010302/22/06 19:10:31  5-MIN KSTC 230110Z AUTO 28008KT 10SM BKN024 00/M04 A2974 1190 75 -300 280/08 RMK AO2
14926KSTC STC20060222191510302/22/06 19:15:31  5-MIN KSTC 230115Z AUTO 28010KT 10SM BKN024 00/M04 A2975 1190 72 -300 280/10 RMK AO2
14926KSTC STC20060222192011102/22/06 19:20:31  5-MIN KSTC 230120Z AUTO 28008KT 10SM SCT024 BKN033 M01/M04 A2975 1190 75 -300 280/08 RMK AO2
14926KSTC STC20060222192511102/22/06 19:25:31  5-MIN KSTC 230125Z AUTO 30009KT 10SM SCT024 BKN033 M01/M04 A2975 1190 75 -300 290/09 RMK AO2
14926KSTC STC20060222193011102/22/06 19:30:31  5-MIN KSTC 230130Z AUTO 29010KT 10SM FEW024 SCT033 M01/M05 A2975 1190 72 -300 290/10 RMK AO2
14926KSTC STC20060222193510402/22/06 19:35:31  5-MIN KSTC 230135Z AUTO 28009KT 10SM FEW032 M01/M05 A2975 1180 72 -300 280/09 RMK AO2
14926KSTC STC20060222194010402/22/06 19:40:31  5-MIN KSTC 230140Z AUTO 28008KT 10SM FEW032 M01/M05 A2975 1180 75 -400 280/08 RMK AO2
14926KSTC STC20060222194510402/22/06 19:45:31  5-MIN KSTC 230145Z AUTO 28010KT 10SM FEW032 M01/M05 A2975 1180 75 -400 280/10 RMK AO2
14926KSTC STC20060222195011802/22/06 19:50:31  5-MIN KSTC 230150Z AUTO 29012KT 10SM CLR M01/M05 A2975 1180 72 -300 290/12 RMK AO2 SLP100 T10061050
14926KSTC STC20060222195510102/22/06 19:55:31  5-MIN KSTC 230155Z AUTO 29010KT 10SM CLR M01/M05 A2975 1180 72 -300 290/10 RMK AO2
14926KSTC STC20060222200010102/22/06 20:00:31  5-MIN KSTC 230200Z AUTO 30011KT 10SM CLR M01/M05 A2975 1180 75 -400 300/11 RMK AO2
14926KSTC STC20060222200510102/22/06 20:05:31  5-MIN KSTC 230205Z AUTO 30010KT 10SM CLR M01/M05 A2975 1180 75 -400 300/10 RMK AO2
14926KSTC STC20060222201010402/22/06 20:10:31  5-MIN KSTC 230210Z AUTO 30009KT 10SM FEW042 M02/M06 A2976 1180 75 -500 300/09 RMK AO2
14926KSTC STC20060222201510402/22/06 20:15:31  5-MIN KSTC 230215Z AUTO 30009KT 10SM SCT042 M02/M06 A2976 1180 75 -500 300/09 RMK AO2
14926KSTC STC20060222202010402/22/06 20:20:31  5-MIN KSTC 230220Z AUTO 29009KT 10SM BKN042 M01/M05 A2976 1180 75 -400 290/09 RMK AO2
14926KSTC STC20060222202510402/22/06 20:25:31  5-MIN KSTC 230225Z AUTO 29010KT 10SM BKN042 M01/M05 A2976 1170 75 -400 290/10 RMK AO2
14926KSTC STC20060222203010402/22/06 20:30:31  5-MIN KSTC 230230Z AUTO 29010KT 10SM BKN040 M01/M05 A2976 1170 75 -400 290/10 RMK AO2
14926KSTC STC20060222203510402/22/06 20:35:31  5-MIN KSTC 230235Z AUTO 29010KT 10SM OVC040 M01/M05 A2976 1180 75 -400 290/10 RMK AO2
14926KSTC STC20060222204010402/22/06 20:40:31  5-MIN KSTC 230240Z AUTO 29010KT 10SM OVC040 M01/M05 A2976 1170 75 -400 280/10 RMK AO2
14926KSTC STC20060222204510402/22/06 20:45:31  5-MIN KSTC 230245Z AUTO 29010KT 10SM OVC040 M01/M05 A2976 1170 75 -400 290/10 RMK AO2
14926KSTC STC20060222205012702/22/06 20:50:31  5-MIN KSTC 230250Z AUTO 29011KT 10SM OVC040 M01/M05 A2977 1170 75 -400 290/11 RMK AO2 SLP105 T10111050 52003
14926KSTC STC20060222205510402/22/06 20:55:31  5-MIN KSTC 230255Z AUTO 29011KT 10SM OVC038 M01/M05 A2977 1170 75 -400 290/11 RMK AO2
14926KSTC STC20060222210010402/22/06 21:00:31  5-MIN KSTC 230300Z AUTO 29010KT 10SM OVC038 M01/M05 A2977 1170 75 -400 290/10 RMK AO2
14926KSTC STC20060222210510402/22/06 21:05:31  5-MIN KSTC 230305Z AUTO 30010KT 10SM OVC038 M01/M05 A2977 1170 75 -400 290/10 RMK AO2
14926KSTC STC20060222211010402/22/06 21:10:31  5-MIN KSTC 230310Z AUTO 30011KT 10SM OVC038 M01/M05 A2977 1160 75 -400 300/11 RMK AO2
14926KSTC STC20060222211510402/22/06 21:15:31  5-MIN KSTC 230315Z AUTO 30012KT 10SM OVC038 M01/M05 A2977 1160 75 -400 290/12 RMK AO2
14926KSTC STC20060222212011102/22/06 21:20:31  5-MIN KSTC 230320Z AUTO 29012KT 10SM FEW029 OVC038 M01/M05 A2977 1160 75 -400 290/12 RMK AO2
14926KSTC STC20060222212511102/22/06 21:25:31  5-MIN KSTC 230325Z AUTO 30011KT 10SM BKN030 OVC038 M01/M05 A2978 1160 75 -400 290/11 RMK AO2
14926KSTC STC20060222213011802/22/06 21:30:31  5-MIN KSTC 230330Z AUTO 30013KT 10SM FEW024 BKN031 OVC040 M01/M05 A2978 1160 75 -400 290/13 RMK AO2
14926KSTC STC20060222213511802/22/06 21:35:31  5-MIN KSTC 230335Z AUTO 30013KT 10SM SCT022 BKN031 OVC038 M01/M05 A2978 1160 75 -400 300/13 RMK AO2
14926KSTC STC20060222214011802/22/06 21:40:31  5-MIN KSTC 230340Z AUTO 30012KT 10SM SCT020 BKN026 OVC031 M01/M05 A2978 1150 75 -400 300/12 RMK AO2
14926KSTC STC20060222214511802/22/06 21:45:31  5-MIN KSTC 230345Z AUTO 31013KT 10SM BKN020 BKN026 OVC031 M01/M05 A2979 1150 75 -400 310/13 RMK AO2
14926KSTC STC20060222215012802/22/06 21:50:31  5-MIN KSTC 230350Z AUTO 32012KT 10SM SCT020 BKN031 M02/M05 A2979 1150 78 -500 320/12 RMK AO2 SLP111 T10171050
14926KSTC STC20060222215511102/22/06 21:55:31  5-MIN KSTC 230355Z AUTO 32014KT 10SM SCT020 BKN031 M02/M06 A2979 1150 78 -600 320/14 RMK AO2
14926KSTC STC20060222220010402/22/06 22:00:31  5-MIN KSTC 230400Z AUTO 31014KT 10SM SCT020 M03/M06 A2979 1150 78 -700 310/14 RMK AO2
14926KSTC STC20060222220510402/22/06 22:05:31  5-MIN KSTC 230405Z AUTO 32012KT 10SM FEW020 M03/M07 A2979 1140 78 -700 310/12 RMK AO2
14926KSTC STC20060222221010402/22/06 22:10:31  5-MIN KSTC 230410Z AUTO 32012KT 10SM FEW018 M03/M07 A2980 1140 75 -700 320/12 RMK AO2
14926KSTC STC20060222221510102/22/06 22:15:31  5-MIN KSTC 230415Z AUTO 31011KT 10SM CLR M03/M07 A2980 1140 78 -700 310/11 RMK AO2
14926KSTC STC20060222222010102/22/06 22:20:31  5-MIN KSTC 230420Z AUTO 32012KT 10SM CLR M04/M07 A2980 1140 78 -800 310/12 RMK AO2
14926KSTC STC20060222222510102/22/06 22:25:31  5-MIN KSTC 230425Z AUTO 32014KT 10SM CLR M03/M07 A2981 1130 74 -800 320/14 RMK AO2
14926KSTC STC20060222223010102/22/06 22:30:31  5-MIN KSTC 230430Z AUTO 32015KT 10SM CLR M04/M07 A2981 1130 78 -800 320/15 RMK AO2
14926KSTC STC20060222223510102/22/06 22:35:31  5-MIN KSTC 230435Z AUTO 32014KT 10SM CLR M04/M08 A2981 1130 74 -800 320/14 RMK AO2
14926KSTC STC20060222224010102/22/06 22:40:31  5-MIN KSTC 230440Z AUTO 32013KT 10SM CLR M04/M08 A2981 1130 78 -900 320/13 RMK AO2
14926KSTC STC20060222224510102/22/06 22:45:31  5-MIN KSTC 230445Z AUTO 32013KT 10SM CLR M04/M08 A2981 1130 74 -900 320/13 RMK AO2
14926KSTC STC20060222225011902/22/06 22:50:31  5-MIN KSTC 230450Z AUTO 32013KT 10SM CLR M06/M08 A2982 1120 81 -1100 320/13 RMK AO2 SLP123 T10561083
14926KSTC STC20060222225510202/22/06 22:55:31  5-MIN KSTC 230455Z AUTO 33014KT 10SM CLR M06/M09 A2983 1110 77 -1100 320/14 RMK AO2
14926KSTC STC20060222230011202/22/06 23:00:31  5-MIN KSTC 230500Z AUTO 32013KT 10SM FEW012 M06/M09 A2983 1110 81 -1100 310/13 RMK AO2 PRESRR
14926KSTC STC20060222230510502/22/06 23:05:31  5-MIN KSTC 230505Z AUTO 31013KT 10SM SCT012 M06/M09 A2983 1110 81 -1100 310/13 RMK AO2
14926KSTC STC20060222231010402/22/06 23:10:31  5-MIN KSTC 230510Z AUTO 31015KT 9SM SCT012 M07/M09 A2983 1110 84 -1200 310/15 RMK AO2
14926KSTC STC20060222231510402/22/06 23:15:31  5-MIN KSTC 230515Z AUTO 31015KT 9SM SCT012 M07/M09 A2984 1100 81 -1200 310/15 RMK AO2
14926KSTC STC20060222232010402/22/06 23:20:31  5-MIN KSTC 230520Z AUTO 32015KT 9SM SCT012 M07/M09 A2984 1100 81 -1200 310/15 RMK AO2
14926KSTC STC20060222232510502/22/06 23:25:31  5-MIN KSTC 230525Z AUTO 31014KT 10SM FEW012 M07/M09 A2984 1100 81 -1200 310/14 RMK AO2
14926KSTC STC20060222233010502/22/06 23:30:31  5-MIN KSTC 230530Z AUTO 31013KT 10SM FEW012 M07/M09 A2984 1100 84 -1300 310/13 RMK AO2
14926KSTC STC20060222233510502/22/06 23:35:31  5-MIN KSTC 230535Z AUTO 32014KT 10SM SCT014 M07/M09 A2984 1100 84 -1300 310/14 RMK AO2
14926KSTC STC20060222234010502/22/06 23:40:31  5-MIN KSTC 230540Z AUTO 32011KT 10SM SCT014 M07/M09 A2984 1100 81 -1200 320/11 RMK AO2
14926KSTC STC20060222234510502/22/06 23:45:31  5-MIN KSTC 230545Z AUTO 31014KT 10SM BKN014 M07/M09 A2985 1090 81 -1200 310/14 RMK AO2
14926KSTC STC20060222235015002/22/06 23:50:31  5-MIN KSTC 230550Z AUTO 32012KT 10SM BKN014 M07/M09 A2985 1090 81 -1200 310/12 RMK AO2 SLP133 T10671094 10000 21072 400001117 51018
14926KSTC STC20060222235510502/22/06 23:55:31  5-MIN KSTC 230555Z AUTO 32012KT 10SM BKN014 M07/M09 A2985 1090 81 -1200 310/12 RMK AO2
14926KSTC STC20060223000010502/23/06 00:00:32  5-MIN KSTC 230600Z AUTO 32013KT 10SM OVC014 M07/M09 A2986 1090 81 -1200 310/13 RMK AO2
14926KSTC STC20060223000510502/23/06 00:05:31  5-MIN KSTC 230605Z AUTO 31012KT 10SM OVC014 M07/M10 A2986 1080 77 -1200 310/12 RMK AO2
14926KSTC STC20060223001010502/23/06 00:10:31  5-MIN KSTC 230610Z AUTO 31012KT 10SM OVC014 M07/M10 A2987 1080 77 -1300 310/12 RMK AO2
14926KSTC STC20060223001510502/23/06 00:15:31  5-MIN KSTC 230615Z AUTO 32010KT 10SM OVC014 M07/M10 A2987 1070 77 -1300 310/10 RMK AO2
14926KSTC STC20060223002010502/23/06 00:20:31  5-MIN KSTC 230620Z AUTO 32010KT 10SM OVC014 M07/M10 A2987 1070 77 -1300 310/10 RMK AO2
14926KSTC STC20060223002510502/23/06 00:25:31  5-MIN KSTC 230625Z AUTO 32010KT 10SM OVC014 M07/M10 A2988 1070 77 -1300 320/10 RMK AO2
14926KSTC STC20060223003010502/23/06 00:30:31  5-MIN KSTC 230630Z AUTO 32011KT 10SM OVC016 M07/M10 A2988 1070 77 -1300 320/11 RMK AO2
14926KSTC STC20060223003510502/23/06 00:35:31  5-MIN KSTC 230635Z AUTO 32011KT 10SM OVC016 M07/M10 A2988 1060 77 -1300 320/11 RMK AO2
14926KSTC STC20060223004010502/23/06 00:40:31  5-MIN KSTC 230640Z AUTO 33010KT 10SM OVC016 M07/M10 A2988 1060 77 -1300 330/10 RMK AO2
14926KSTC STC20060223004510502/23/06 00:45:31  5-MIN KSTC 230645Z AUTO 33010KT 10SM OVC016 M07/M11 A2989 1060 74 -1300 330/10 RMK AO2
14926KSTC STC20060223005012202/23/06 00:50:31  5-MIN KSTC 230650Z AUTO 33011KT 10SM OVC016 M07/M11 A2989 1050 77 -1400 320/11 RMK AO2 SLP148 T10721106
14926KSTC STC20060223005510502/23/06 00:55:31  5-MIN KSTC 230655Z AUTO 32011KT 10SM OVC016 M07/M11 A2990 1050 74 -1400 320/11 RMK AO2
14926KSTC STC20060223010010502/23/06 01:00:31  5-MIN KSTC 230700Z AUTO 32010KT 10SM OVC018 M07/M11 A2990 1040 74 -1400 320/10 RMK AO2
14926KSTC STC20060223010510502/23/06 01:05:31  5-MIN KSTC 230705Z AUTO 33011KT 10SM OVC018 M07/M11 A2991 1040 74 -1400 320/11 RMK AO2
14926KSTC STC20060223011010502/23/06 01:10:31  5-MIN KSTC 230710Z AUTO 34013KT 10SM OVC018 M07/M11 A2991 1040 74 -1400 340/13 RMK AO2
14926KSTC STC20060223011510502/23/06 01:15:31  5-MIN KSTC 230715Z AUTO 33011KT 10SM BKN018 M07/M11 A2991 1030 74 -1400 330/11 RMK AO2
14926KSTC STC20060223012010502/23/06 01:20:31  5-MIN KSTC 230720Z AUTO 32011KT 10SM BKN018 M07/M12 A2991 1030 71 -1400 320/11 RMK AO2
14926KSTC STC20060223012510502/23/06 01:25:31  5-MIN KSTC 230725Z AUTO 32011KT 10SM BKN018 M07/M12 A2992 1030 71 -1400 310/11 RMK AO2
14926KSTC STC20060223013010502/23/06 01:30:31  5-MIN KSTC 230730Z AUTO 32010KT 10SM SCT018 M08/M12 A2992 1030 74 -1500 320/10 RMK AO2
14926KSTC STC20060223013510502/23/06 01:35:31  5-MIN KSTC 230735Z AUTO 32011KT 10SM FEW018 M08/M12 A2992 1030 74 -1500 310/11 RMK AO2
14926KSTC STC20060223014010502/23/06 01:40:31  5-MIN KSTC 230740Z AUTO 32009KT 10SM FEW018 M08/M12 A2992 1030 74 -1500 320/09 RMK AO2
14926KSTC STC20060223014510202/23/06 01:45:31  5-MIN KSTC 230745Z AUTO 32010KT 10SM CLR M08/M12 A2992 1020 74 -1500 320/10 RMK AO2
14926KSTC STC20060223015011902/23/06 01:50:31  5-MIN KSTC 230750Z AUTO 32010KT 10SM CLR M08/M12 A2993 1020 74 -1500 320/10 RMK AO2 SLP158 T10781117
14926KSTC STC20060223015510202/23/06 01:55:31  5-MIN KSTC 230755Z AUTO 32008KT 10SM CLR M08/M12 A2993 1020 77 -1500 310/08 RMK AO2
14926KSTC STC20060223020010202/23/06 02:00:31  5-MIN KSTC 230800Z AUTO 32008KT 10SM CLR M08/M12 A2993 1020 74 -1500 320/08 RMK AO2
14926KSTC STC20060223020510202/23/06 02:05:31  5-MIN KSTC 230805Z AUTO 32009KT 10SM CLR M08/M12 A2993 1020 74 -1500 310/09 RMK AO2
14926KSTC STC20060223021010202/23/06 02:10:31  5-MIN KSTC 230810Z AUTO 32008KT 10SM CLR M08/M12 A2993 1020 74 -1500 320/08 RMK AO2
14926KSTC STC20060223021510202/23/06 02:15:31  5-MIN KSTC 230815Z AUTO 32009KT 10SM CLR M08/M12 A2993 1010 74 -1500 320/09 RMK AO2
14926KSTC STC20060223022010202/23/06 02:20:31  5-MIN KSTC 230820Z AUTO 32010KT 10SM CLR M08/M12 A2994 1010 74 -1500 320/10 RMK AO2
14926KSTC STC20060223022510202/23/06 02:25:31  5-MIN KSTC 230825Z AUTO 33009KT 10SM CLR M09/M13 A2994 1010 74 -1600 330/09 RMK AO2
14926KSTC STC20060223023010202/23/06 02:30:31  5-MIN KSTC 230830Z AUTO 33009KT 10SM CLR M09/M13 A2994 1010 74 -1600 330/09 RMK AO2
14926KSTC STC20060223023510202/23/06 02:35:31  5-MIN KSTC 230835Z AUTO 33009KT 10SM CLR M09/M13 A2994 1010 74 -1600 330/09 RMK AO2
14926KSTC STC20060223024010202/23/06 02:40:31  5-MIN KSTC 230840Z AUTO 33009KT 10SM CLR M09/M13 A2994 1000 74 -1600 320/09 RMK AO2
14926KSTC STC20060223024510202/23/06 02:45:31  5-MIN KSTC 230845Z AUTO 33009KT 10SM CLR M09/M13 A2994 1010 70 -1600 330/09 RMK AO2
14926KSTC STC20060223025012502/23/06 02:50:31  5-MIN KSTC 230850Z AUTO 33011KT 10SM CLR M09/M13 A2994 1000 73 -1700 330/11 RMK AO2 SLP164 T10941133 53027
14926KSTC STC20060223025510202/23/06 02:55:31  5-MIN KSTC 230855Z AUTO 33009KT 10SM CLR M09/M13 A2995 1000 73 -1700 330/09 RMK AO2
14926KSTC STC20060223030010202/23/06 03:00:31  5-MIN KSTC 230900Z AUTO 32008KT 10SM CLR M09/M13 A2995 1000 73 -1700 320/08 RMK AO2
14926KSTC STC20060223030510202/23/06 03:05:31  5-MIN KSTC 230905Z AUTO 33008KT 10SM CLR M10/M14 A2995 1000 73 -1800 330/08 RMK AO2
14926KSTC STC20060223031010202/23/06 03:10:31  5-MIN KSTC 230910Z AUTO 33007KT 10SM CLR M10/M14 A2995 1000 73 -1800 330/07 RMK AO2
14926KSTC STC20060223031510102/23/06 03:15:31  5-MIN KSTC 230915Z AUTO 32008KT 10SM CLR M10/M14 A2995 990 73 -1800 320/08 RMK AO2
14926KSTC STC20060223032010102/23/06 03:20:31  5-MIN KSTC 230920Z AUTO 33008KT 10SM CLR M10/M14 A2996 990 73 -1800 320/08 RMK AO2
14926KSTC STC20060223032510102/23/06 03:25:31  5-MIN KSTC 230925Z AUTO 32008KT 10SM CLR M11/M14 A2996 990 77 -1900 320/08 RMK AO2
14926KSTC STC20060223033010102/23/06 03:30:31  5-MIN KSTC 230930Z AUTO 32008KT 10SM CLR M11/M14 A2996 990 77 -1900 310/08 RMK AO2
14926KSTC STC20060223033510102/23/06 03:35:31  5-MIN KSTC 230935Z AUTO 32008KT 10SM CLR M11/M14 A2996 990 77 -1900 320/08 RMK AO2
14926KSTC STC20060223034010102/23/06 03:40:31  5-MIN KSTC 230940Z AUTO 32008KT 10SM CLR M11/M14 A2997 980 73 -1900 310/08 RMK AO2
14926KSTC STC20060223034510102/23/06 03:45:31  5-MIN KSTC 230945Z AUTO 31008KT 10SM CLR M12/M15 A2997 980 76 -2000 310/08 RMK AO2
14926KSTC STC20060223035011802/23/06 03:50:31  5-MIN KSTC 230950Z AUTO 31007KT 10SM CLR M12/M15 A2997 980 80 -2100 300/07 RMK AO2 SLP176 T11221150
14926KSTC STC20060223035510102/23/06 03:55:31  5-MIN KSTC 230955Z AUTO 31008KT 10SM CLR M13/M16 A2998 980 80 -2200 310/08 RMK AO2
14926KSTC STC20060223040010102/23/06 04:00:31  5-MIN KSTC 231000Z AUTO 31007KT 10SM CLR M13/M16 A2998 970 80 -2200 310/07 RMK AO2
14926KSTC STC20060223064510102/23/06 06:45:31  5-MIN KSTC 231245Z AUTO 28008KT 10SM CLR M14/M17 A3007 880 80 -2400 280/08 RMK AO2
14926KSTC STC20060223065011802/23/06 06:50:31  5-MIN KSTC 231250Z AUTO 28007KT 10SM CLR M14/M17 A3007 880 80 -2400 280/07 RMK AO2 SLP212 T11391167
14926KSTC STC20060223065509602/23/06 06:55:31  5-MIN KSTC 231255Z 29009KT 10SM CLR M13/M16 A3008 880 80 -2400 280/09 RMK AO2
14926KSTC STC20060223070009602/23/06 07:00:31  5-MIN KSTC 231300Z 30008KT 10SM CLR M13/M16 A3008 880 80 -2400 290/08 RMK AO2
14926KSTC STC20060223070509602/23/06 07:05:31  5-MIN KSTC 231305Z 31008KT 10SM CLR M13/M16 A3008 880 80 -2400 300/08 RMK AO2
14926KSTC STC20060223071009602/23/06 07:10:31  5-MIN KSTC 231310Z 30008KT 10SM CLR M14/M17 A3008 880 80 -2400 290/08 RMK AO2
14926KSTC STC20060223071509602/23/06 07:15:31  5-MIN KSTC 231315Z 29009KT 10SM CLR M13/M16 A3008 880 80 -2400 290/09 RMK AO2
14926KSTC STC20060223072009602/23/06 07:20:31  5-MIN KSTC 231320Z 30008KT 10SM CLR M13/M16 A3008 880 80 -2400 290/08 RMK AO2
14926KSTC STC20060223072509602/23/06 07:25:31  5-MIN KSTC 231325Z 30008KT 10SM CLR M13/M16 A3009 870 80 -2400 300/08 RMK AO2
14926KSTC STC20060223073009602/23/06 07:30:31  5-MIN KSTC 231330Z 30008KT 10SM CLR M13/M16 A3010 860 80 -2400 300/08 RMK AO2
14926KSTC STC20060223073509602/23/06 07:35:31  5-MIN KSTC 231335Z 32007KT 10SM CLR M13/M16 A3010 860 80 -2400 310/07 RMK AO2
14926KSTC STC20060223074009602/23/06 07:40:31  5-MIN KSTC 231340Z 34005KT 10SM CLR M13/M16 A3010 860 80 -2400 340/05 RMK AO2
14926KSTC STC20060223074509602/23/06 07:45:31  5-MIN KSTC 231345Z 34004KT 10SM CLR M13/M16 A3010 860 80 -2400 340/04 RMK AO2
14926KSTC STC20060223075011302/23/06 07:50:31  5-MIN KSTC 231350Z 34005KT 10SM CLR M13/M17 A3010 860 76 -2400 340/05 RMK AO2 SLP221 T11331167
14926KSTC STC20060223075509602/23/06 07:55:31  5-MIN KSTC 231355Z 33003KT 10SM CLR M13/M17 A3011 850 76 -2400 330/03 RMK AO2
14926KSTC STC20060223080009602/23/06 08:00:31  5-MIN KSTC 231400Z 32003KT 10SM CLR M13/M17 A3011 850 76 -2400 310/03 RMK AO2
14926KSTC STC20060223080509602/23/06 08:05:31  5-MIN KSTC 231405Z 30004KT 10SM CLR M14/M17 A3012 840 80 -2500 300/04 RMK AO2
14926KSTC STC20060223081009602/23/06 08:10:31  5-MIN KSTC 231410Z 31005KT 10SM CLR M14/M17 A3012 840 80 -2500 310/05 RMK AO2
14926KSTC STC20060223081509602/23/06 08:15:31  5-MIN KSTC 231415Z 33004KT 10SM CLR M13/M16 A3012 840 80 -2400 330/04 RMK AO2
14926KSTC STC20060223082009602/23/06 08:20:31  5-MIN KSTC 231420Z 31004KT 10SM CLR M13/M16 A3012 840 80 -2400 310/04 RMK AO2
14926KSTC STC20060223082509602/23/06 08:25:31  5-MIN KSTC 231425Z 31004KT 10SM CLR M13/M16 A3013 840 80 -2400 310/04 RMK AO2
14926KSTC STC20060223083009602/23/06 08:30:31  5-MIN KSTC 231430Z 32004KT 10SM CLR M13/M16 A3012 840 80 -2400 310/04 RMK AO2
14926KSTC STC20060223083509602/23/06 08:35:31  5-MIN KSTC 231435Z 33003KT 10SM CLR M13/M16 A3012 840 80 -2400 330/03 RMK AO2
14926KSTC STC20060223084009602/23/06 08:40:31  5-MIN KSTC 231440Z 32003KT 10SM CLR M13/M16 A3013 840 76 -2400 320/03 RMK AO2
14926KSTC STC20060223084509602/23/06 08:45:31  5-MIN KSTC 231445Z 32004KT 10SM CLR M13/M16 A3012 840 80 -2400 310/04 RMK AO2
14926KSTC STC20060223085011902/23/06 08:50:31  5-MIN KSTC 231450Z 33004KT 10SM CLR M13/M16 A3012 840 76 -2400 320/04 RMK AO2 SLP228 T11281161 51029
14926KSTC STC20060223085509602/23/06 08:55:31  5-MIN KSTC 231455Z 32004KT 10SM CLR M13/M16 A3013 840 76 -2400 320/04 RMK AO2
14926KSTC STC20060223090009602/23/06 09:00:31  5-MIN KSTC 231500Z 32004KT 10SM CLR M13/M16 A3013 830 76 -2400 310/04 RMK AO2
14926KSTC STC20060223090509602/23/06 09:05:31  5-MIN KSTC 231505Z 31005KT 10SM CLR M13/M16 A3013 830 80 -2400 310/05 RMK AO2
14926KSTC STC20060223091009602/23/06 09:10:31  5-MIN KSTC 231510Z 32005KT 10SM CLR M12/M16 A3013 830 76 -2300 320/05 RMK AO2
14926KSTC STC20060223091509602/23/06 09:15:31  5-MIN KSTC 231515Z 31004KT 10SM CLR M12/M16 A3013 830 76 -2300 310/04 RMK AO2
14926KSTC STC20060223092009602/23/06 09:20:31  5-MIN KSTC 231520Z 31005KT 10SM CLR M12/M16 A3013 830 73 -2200 310/05 RMK AO2
14926KSTC STC20060223092509602/23/06 09:25:31  5-MIN KSTC 231525Z 33005KT 10SM CLR M12/M15 A3013 830 76 -2200 330/05 RMK AO2
14926KSTC STC20060223093009602/23/06 09:30:31  5-MIN KSTC 231530Z 34005KT 10SM CLR M11/M15 A3013 830 73 -2100 330/05 RMK AO2
14926KSTC STC20060223093509602/23/06 09:35:31  5-MIN KSTC 231535Z 33005KT 10SM CLR M11/M15 A3014 830 73 -2100 330/05 RMK AO2
14926KSTC STC20060223094009602/23/06 09:40:31  5-MIN KSTC 231540Z 33005KT 10SM CLR M11/M15 A3014 830 70 -2100 330/05 RMK AO2
14926KSTC STC20060223094509602/23/06 09:45:31  5-MIN KSTC 231545Z 33004KT 10SM CLR M11/M15 A3014 820 70 -2100 330/04 RMK AO2
14926KSTC STC20060223095011302/23/06 09:50:31  5-MIN KSTC 231550Z 33005KT 10SM CLR M11/M14 A3015 820 73 -2100 320/05 RMK AO2 SLP235 T11061144
14926KSTC STC20060223095509602/23/06 09:55:31  5-MIN KSTC 231555Z 32007KT 10SM CLR M11/M14 A3015 810 73 -2100 320/07 RMK AO2
14926KSTC STC20060223100009602/23/06 10:00:31  5-MIN KSTC 231600Z 33007KT 10SM CLR M11/M15 A3015 810 70 -2100 330/07 RMK AO2
14926KSTC STC20060223100509602/23/06 10:05:31  5-MIN KSTC 231605Z 31009KT 10SM CLR M10/M14 A3016 810 70 -2000 310/09 RMK AO2
14926KSTC STC20060223101009602/23/06 10:10:31  5-MIN KSTC 231610Z 32009KT 10SM CLR M10/M14 A3015 810 70 -2000 310/09 RMK AO2
14926KSTC STC20060223101509602/23/06 10:15:31  5-MIN KSTC 231615Z 32008KT 10SM CLR M09/M14 A3016 810 67 -2000 320/08 RMK AO2
14926KSTC STC20060223102009602/23/06 10:20:31  5-MIN KSTC 231620Z 30007KT 10SM CLR M09/M14 A3017 800 70 -2000 300/07 RMK AO2
14926KSTC STC20060223102509602/23/06 10:25:31  5-MIN KSTC 231625Z 31009KT 10SM CLR M09/M14 A3016 800 70 -2000 310/09 RMK AO2
14926KSTC STC20060223103009602/23/06 10:30:31  5-MIN KSTC 231630Z 31010KT 10SM CLR M09/M14 A3016 800 67 -2000 310/10 RMK AO2
14926KSTC STC20060223103509602/23/06 10:35:31  5-MIN KSTC 231635Z 31007KT 10SM CLR M09/M14 A3017 800 67 -2000 310/07 RMK AO2
14926KSTC STC20060223104009602/23/06 10:40:31  5-MIN KSTC 231640Z 31007KT 10SM CLR M09/M14 A3017 800 64 -1900 310/07 RMK AO2
14926KSTC STC20060223104509602/23/06 10:45:31  5-MIN KSTC 231645Z 32008KT 10SM CLR M09/M14 A3016 800 64 -1900 320/08 RMK AO2
14926KSTC STC20060223105011302/23/06 10:50:31  5-MIN KSTC 231650Z 31009KT 10SM CLR M09/M14 A3017 800 64 -1900 300/09 RMK AO2 SLP243 T10891144
14926KSTC STC20060223105509602/23/06 10:55:31  5-MIN KSTC 231655Z 32007KT 10SM CLR M09/M14 A3017 800 64 -1900 320/07 RMK AO2
14926KSTC STC20060223110009602/23/06 11:00:31  5-MIN KSTC 231700Z 34006KT 10SM CLR M08/M15 A3017 790 59 -1800 330/06 RMK AO2
14926KSTC STC20060223110509602/23/06 11:05:31  5-MIN KSTC 231705Z 31008KT 10SM CLR M08/M14 A3017 800 59 -1700 310/08 RMK AO2
14926KSTC STC20060223111009602/23/06 11:10:31  5-MIN KSTC 231710Z 33007KT 10SM CLR M08/M15 A3017 800 56 -1700 320/07 RMK AO2
14926KSTC STC20060223111509602/23/06 11:15:31  5-MIN KSTC 231715Z 31009KT 10SM CLR M08/M14 A3017 800 59 -1700 310/09 RMK AO2
14926KSTC STC20060223112009602/23/06 11:20:31  5-MIN KSTC 231720Z 33006KT 10SM CLR M08/M15 A3017 790 56 -1700 330/06 RMK AO2
14926KSTC STC20060223112509602/23/06 11:25:31  5-MIN KSTC 231725Z 32009KT 10SM CLR M08/M15 A3017 790 56 -1700 310/09 RMK AO2
14926KSTC STC20060223113009602/23/06 11:30:31  5-MIN KSTC 231730Z 31011KT 10SM CLR M08/M15 A3017 790 56 -1800 310/11 RMK AO2
14926KSTC STC20060223113509602/23/06 11:35:31  5-MIN KSTC 231735Z 34009KT 10SM CLR M08/M16 A3018 790 54 -1800 330/09 RMK AO2
14926KSTC STC20060223114009602/23/06 11:40:31  5-MIN KSTC 231740Z 33008KT 10SM CLR M07/M15 A3018 790 54 -1700 320/08 RMK AO2
14926KSTC STC20060223114509602/23/06 11:45:31  5-MIN KSTC 231745Z 32009KT 10SM CLR M07/M15 A3018 790 54 -1700 310/09 RMK AO2
14926KSTC STC20060223115013102/23/06 11:50:31  5-MIN KSTC 231750Z 31010KT 10SM CLR M07/M14 A3018 790 56 -1700 300/10 RMK AO2 SLP246 T10721144 11072 21156 51030
14926KSTC STC20060223115509602/23/06 11:55:31  5-MIN KSTC 231755Z 31009KT 10SM CLR M07/M15 A3018 790 54 -1700 310/09 RMK AO2
14926KSTC STC20060223120009602/23/06 12:00:31  5-MIN KSTC 231800Z 32008KT 10SM CLR M07/M15 A3017 790 54 -1700 310/08 RMK AO2
14926KSTC STC20060223120509602/23/06 12:05:31  5-MIN KSTC 231805Z 34007KT 10SM CLR M07/M14 A3017 790 54 -1600 340/07 RMK AO2
14926KSTC STC20060223121009602/23/06 12:10:31  5-MIN KSTC 231810Z 33008KT 10SM CLR M07/M14 A3017 790 54 -1600 330/08 RMK AO2
14926KSTC STC20060223121509602/23/06 12:15:31  5-MIN KSTC 231815Z 33008KT 10SM CLR M07/M15 A3017 790 52 -1600 330/08 RMK AO2
14926KSTC STC20060223122009602/23/06 12:20:31  5-MIN KSTC 231820Z 32008KT 10SM CLR M07/M14 A3018 790 54 -1600 320/08 RMK AO2
14926KSTC STC20060223122509602/23/06 12:25:31  5-MIN KSTC 231825Z 33007KT 10SM CLR M07/M14 A3018 790 57 -1600 320/07 RMK AO2
14926KSTC STC20060223123009602/23/06 12:30:31  5-MIN KSTC 231830Z 32007KT 10SM CLR M07/M15 A3018 790 52 -1600 320/07 RMK AO2
14926KSTC STC20060223123509602/23/06 12:35:31  5-MIN KSTC 231835Z 33007KT 10SM CLR M07/M14 A3017 790 54 -1600 330/07 RMK AO2
14926KSTC STC20060223124009602/23/06 12:40:31  5-MIN KSTC 231840Z 32011KT 10SM CLR M07/M14 A3017 800 54 -1600 310/11 RMK AO2
14926KSTC STC20060223124509602/23/06 12:45:31  5-MIN KSTC 231845Z 32009KT 10SM CLR M07/M15 A3017 800 52 -1600 320/09 RMK AO2
14926KSTC STC20060223125011302/23/06 12:50:31  5-MIN KSTC 231850Z 31009KT 10SM CLR M07/M15 A3017 790 52 -1600 310/09 RMK AO2 SLP245 T10671150
14926KSTC STC20060223125509602/23/06 12:55:31  5-MIN KSTC 231855Z 34008KT 10SM CLR M07/M14 A3017 790 54 -1600 340/08 RMK AO2
14926KSTC STC20060223130009602/23/06 13:00:31  5-MIN KSTC 231900Z 32008KT 10SM CLR M07/M14 A3017 790 54 -1600 310/08 RMK AO2
14926KSTC STC20060223130509602/23/06 13:05:31  5-MIN KSTC 231905Z 33008KT 10SM CLR M07/M14 A3018 790 54 -1600 330/08 RMK AO2
14926KSTC STC20060223131009602/23/06 13:10:31  5-MIN KSTC 231910Z 32009KT 10SM CLR M07/M14 A3017 790 54 -1600 310/09 RMK AO2
14926KSTC STC20060223131509602/23/06 13:15:31  5-MIN KSTC 231915Z 32010KT 10SM CLR M06/M14 A3017 790 52 -1500 310/10 RMK AO2
14926KSTC STC20060223132009602/23/06 13:20:31  5-MIN KSTC 231920Z 34007KT 10SM CLR M06/M14 A3018 790 52 -1500 340/07 RMK AO2
14926KSTC STC20060223132509602/23/06 13:25:31  5-MIN KSTC 231925Z 31010KT 10SM CLR M06/M14 A3018 790 52 -1500 310/10 RMK AO2
14926KSTC STC20060223133009602/23/06 13:30:31  5-MIN KSTC 231930Z 31010KT 10SM CLR M06/M14 A3017 790 52 -1500 310/10 RMK AO2
14926KSTC STC20060223133509602/23/06 13:35:31  5-MIN KSTC 231935Z 33008KT 10SM CLR M06/M14 A3017 790 52 -1500 330/08 RMK AO2
14926KSTC STC20060223134009602/23/06 13:40:31  5-MIN KSTC 231940Z 33009KT 10SM CLR M06/M15 A3017 790 50 -1500 330/09 RMK AO2
14926KSTC STC20060223134509602/23/06 13:45:31  5-MIN KSTC 231945Z 30009KT 10SM CLR M06/M14 A3018 790 52 -1500 300/09 RMK AO2
14926KSTC STC20060223135011302/23/06 13:50:31  5-MIN KSTC 231950Z 30011KT 10SM CLR M06/M14 A3018 790 54 -1500 290/11 RMK AO2 SLP246 T10611139
14926KSTC STC20060223135509602/23/06 13:55:31  5-MIN KSTC 231955Z 31013KT 10SM CLR M06/M14 A3017 790 52 -1500 310/13 RMK AO2
14926KSTC STC20060223140009602/23/06 14:00:31  5-MIN KSTC 232000Z 32011KT 10SM CLR M06/M14 A3017 790 50 -1500 320/11 RMK AO2
14926KSTC STC20060223140509602/23/06 14:05:31  5-MIN KSTC 232005Z 32010KT 10SM CLR M06/M14 A3017 790 50 -1500 310/10 RMK AO2
14926KSTC STC20060223141009602/23/06 14:10:31  5-MIN KSTC 232010Z 31014KT 10SM CLR M06/M14 A3017 800 52 -1500 310/14 RMK AO2
14926KSTC STC20060223141509602/23/06 14:15:31  5-MIN KSTC 232015Z 30011KT 10SM CLR M06/M14 A3017 800 52 -1500 300/11 RMK AO2
14926KSTC STC20060223142009902/23/06 14:20:31  5-MIN KSTC 232020Z 32008KT 10SM FEW110 M06/M14 A3017 800 52 -1500 310/08 RMK AO2
14926KSTC STC20060223142509902/23/06 14:25:31  5-MIN KSTC 232025Z 33007KT 10SM FEW110 M06/M14 A3017 800 52 -1500 330/07 RMK AO2
14926KSTC STC20060223143009902/23/06 14:30:31  5-MIN KSTC 232030Z 31008KT 10SM FEW110 M06/M14 A3018 790 52 -1500 300/08 RMK AO2
14926KSTC STC20060223143509902/23/06 14:35:31  5-MIN KSTC 232035Z 31013KT 10SM FEW110 M06/M14 A3018 790 54 -1500 310/13 RMK AO2
14926KSTC STC20060223144009902/23/06 14:40:31  5-MIN KSTC 232040Z 32012KT 10SM FEW110 M06/M14 A3018 790 54 -1500 320/12 RMK AO2
14926KSTC STC20060223144509902/23/06 14:45:31  5-MIN KSTC 232045Z 31009KT 10SM FEW110 M06/M14 A3018 790 52 -1500 310/09 RMK AO2
14926KSTC STC20060223145011902/23/06 14:50:31  5-MIN KSTC 232050Z 32008KT 10SM CLR M06/M14 A3017 790 52 -1500 320/08 RMK AO2 SLP246 T10611144 51018
14926KSTC STC20060223145509602/23/06 14:55:31  5-MIN KSTC 232055Z 29011KT 10SM CLR M06/M14 A3017 790 50 -1500 290/11 RMK AO2
14926KSTC STC20060223150009602/23/06 15:00:31  5-MIN KSTC 232100Z 30010KT 10SM CLR M06/M14 A3017 790 52 -1500 300/10 RMK AO2
14926KSTC STC20060223150510202/23/06 15:05:31  5-MIN KSTC 232105Z 29014G17KT 10SM CLR M06/M14 A3018 790 52 -1500 280/14G17 RMK AO2
14926KSTC STC20060223151010202/23/06 15:10:31  5-MIN KSTC 232110Z 30011G17KT 10SM CLR M06/M14 A3018 790 52 -1500 300/11G17 RMK AO2
14926KSTC STC20060223151509602/23/06 15:15:31  5-MIN KSTC 232115Z 31010KT 10SM CLR M06/M14 A3018 790 50 -1500 310/10 RMK AO2
14926KSTC STC20060223152011202/23/06 15:20:31  5-MIN KSTC 232120Z 28010KT 260V330 10SM CLR M06/M14 A3018 780 50 -1500 280/10 260V330 RMK AO2
14926KSTC STC20060223152509602/23/06 15:25:31  5-MIN KSTC 232125Z 28010KT 10SM CLR M06/M14 A3019 780 52 -1600 280/10 RMK AO2
14926KSTC STC20060223153009602/23/06 15:30:31  5-MIN KSTC 232130Z 30013KT 10SM CLR M06/M14 A3019 780 50 -1500 300/13 RMK AO2
14926KSTC STC20060223153509602/23/06 15:35:31  5-MIN KSTC 232135Z 30011KT 10SM CLR M06/M14 A3019 780 52 -1600 290/11 RMK AO2
14926KSTC STC20060223154009602/23/06 15:40:31  5-MIN KSTC 232140Z 28010KT 10SM CLR M06/M14 A3019 780 50 -1500 280/10 RMK AO2
14926KSTC STC20060223154509602/23/06 15:45:31  5-MIN KSTC 232145Z 28011KT 10SM CLR M06/M14 A3019 770 50 -1500 280/11 RMK AO2
14926KSTC STC20060223155011302/23/06 15:50:31  5-MIN KSTC 232150Z 32011KT 10SM CLR M06/M14 A3019 780 52 -1600 310/11 RMK AO2 SLP253 T10611144
14926KSTC STC20060223155510402/23/06 15:55:31  5-MIN KSTC 232155Z AUTO 30010KT 10SM FEW110 M06/M14 A3019 780 52 -1600 300/10 RMK AO2
14926KSTC STC20060223160010402/23/06 16:00:31  5-MIN KSTC 232200Z AUTO 31010KT 10SM FEW110 M06/M14 A3019 770 52 -1600 310/10 RMK AO2
14926KSTC STC20060223160510102/23/06 16:05:31  5-MIN KSTC 232205Z AUTO 31012KT 10SM CLR M06/M14 A3020 770 52 -1600 310/12 RMK AO2
14926KSTC STC20060223161010102/23/06 16:10:31  5-MIN KSTC 232210Z AUTO 31010KT 10SM CLR M06/M15 A3020 770 50 -1600 310/10 RMK AO2
14926KSTC STC20060223161510102/23/06 16:15:31  5-MIN KSTC 232215Z AUTO 31008KT 10SM CLR M06/M14 A3019 770 52 -1600 300/08 RMK AO2
14926KSTC STC20060223162010102/23/06 16:20:31  5-MIN KSTC 232220Z AUTO 31010KT 10SM CLR M06/M14 A3020 770 52 -1600 300/10 RMK AO2
14926KSTC STC20060223162510102/23/06 16:25:31  5-MIN KSTC 232225Z AUTO 30008KT 10SM CLR M06/M14 A3020 770 52 -1600 300/08 RMK AO2
14926KSTC STC20060223163010102/23/06 16:30:31  5-MIN KSTC 232230Z AUTO 28010KT 10SM CLR M06/M14 A3020 770 52 -1600 280/10 RMK AO2
14926KSTC STC20060223163510102/23/06 16:35:31  5-MIN KSTC 232235Z AUTO 28009KT 10SM CLR M07/M15 A3020 770 52 -1600 270/09 RMK AO2
14926KSTC STC20060223164010102/23/06 16:40:31  5-MIN KSTC 232240Z AUTO 30011KT 10SM CLR M07/M15 A3020 770 52 -1600 290/11 RMK AO2
14926KSTC STC20060223164510102/23/06 16:45:31  5-MIN KSTC 232245Z AUTO 30010KT 10SM CLR M07/M15 A3020 770 52 -1600 290/10 RMK AO2
14926KSTC STC20060223165011302/23/06 16:50:31  5-MIN KSTC 232250Z 30012KT 10SM CLR M07/M15 A3020 770 52 -1600 300/12 RMK AO2 SLP257 T10671150
14926KSTC STC20060223165509602/23/06 16:55:31  5-MIN KSTC 232255Z 31008KT 10SM CLR M07/M15 A3020 770 54 -1700 310/08 RMK AO2
14926KSTC STC20060223170009602/23/06 17:00:31  5-MIN KSTC 232300Z 31009KT 10SM CLR M07/M15 A3020 770 54 -1700 310/09 RMK AO2
14926KSTC STC20060223170509602/23/06 17:05:31  5-MIN KSTC 232305Z 32006KT 10SM CLR M07/M15 A3020 770 54 -1700 320/06 RMK AO2
14926KSTC STC20060223171009602/23/06 17:10:31  5-MIN KSTC 232310Z 32008KT 10SM CLR M07/M15 A3021 760 52 -1600 310/08 RMK AO2
14926KSTC STC20060223171509602/23/06 17:15:31  5-MIN KSTC 232315Z 32007KT 10SM CLR M07/M15 A3020 770 54 -1700 310/07 RMK AO2
14926KSTC STC20060223172009602/23/06 17:20:31  5-MIN KSTC 232320Z 31007KT 10SM CLR M07/M15 A3021 760 54 -1700 310/07 RMK AO2
14926KSTC STC20060223172509602/23/06 17:25:31  5-MIN KSTC 232325Z 31008KT 10SM CLR M08/M15 A3020 760 56 -1800 310/08 RMK AO2
14926KSTC STC20060223173009602/23/06 17:30:31  5-MIN KSTC 232330Z 30008KT 10SM CLR M08/M15 A3020 770 56 -1800 300/08 RMK AO2
14926KSTC STC20060223173509602/23/06 17:35:31  5-MIN KSTC 232335Z 31008KT 10SM CLR M08/M15 A3020 770 56 -1800 310/08 RMK AO2
14926KSTC STC20060223174009602/23/06 17:40:31  5-MIN KSTC 232340Z 32007KT 10SM CLR M08/M15 A3020 770 59 -1900 320/07 RMK AO2
14926KSTC STC20060223174509602/23/06 17:45:31  5-MIN KSTC 232345Z 31008KT 10SM CLR M08/M15 A3020 770 59 -1900 310/08 RMK AO2
14926KSTC STC20060223175013102/23/06 17:50:31  5-MIN KSTC 232350Z 31007KT 10SM CLR M09/M15 A3020 770 64 -2000 300/07 RMK AO2 SLP259 T10941150 11056 21094 56002
14926KSTC STC20060223175509602/23/06 17:55:31  5-MIN KSTC 232355Z 30007KT 10SM CLR M09/M16 A3021 760 61 -2000 300/07 RMK AO2
14926KSTC STC20060223180009602/23/06 18:00:31  5-MIN KSTC 240000Z 30005KT 10SM CLR M09/M15 A3021 760 64 -2000 300/05 RMK AO2
14926KSTC STC20060223180509602/23/06 18:05:31  5-MIN KSTC 240005Z 30006KT 10SM CLR M09/M15 A3021 760 64 -2000 290/06 RMK AO2
14926KSTC STC20060223181009602/23/06 18:10:31  5-MIN KSTC 240010Z 29005KT 10SM CLR M09/M16 A3021 760 61 -2000 290/05 RMK AO2
14926KSTC STC20060223181509602/23/06 18:15:31  5-MIN KSTC 240015Z 28005KT 10SM CLR M09/M16 A3021 760 61 -2000 280/05 RMK AO2
14926KSTC STC20060223182009602/23/06 18:20:31  5-MIN KSTC 240020Z 29005KT 10SM CLR M09/M16 A3021 760 61 -2000 280/05 RMK AO2
14926KSTC STC20060223182509602/23/06 18:25:31  5-MIN KSTC 240025Z 29005KT 10SM CLR M09/M16 A3022 750 61 -2000 290/05 RMK AO2
14926KSTC STC20060223183009602/23/06 18:30:31  5-MIN KSTC 240030Z 29005KT 10SM CLR M10/M16 A3022 750 61 -2100 290/05 RMK AO2
14926KSTC STC20060223183509602/23/06 18:35:31  5-MIN KSTC 240035Z 28006KT 10SM CLR M10/M16 A3022 750 61 -2100 280/06 RMK AO2
14926KSTC STC20060223184009602/23/06 18:40:31  5-MIN KSTC 240040Z 28005KT 10SM CLR M10/M16 A3022 750 61 -2100 270/05 RMK AO2
14926KSTC STC20060223184509602/23/06 18:45:31  5-MIN KSTC 240045Z 27004KT 10SM CLR M11/M17 A3022 750 64 -2200 260/04 RMK AO2
14926KSTC STC20060223185011302/23/06 18:50:31  5-MIN KSTC 240050Z 26004KT 10SM CLR M11/M17 A3023 740 61 -2200 260/04 RMK AO2 SLP268 T11061167
14926KSTC STC20060223185509602/23/06 18:55:31  5-MIN KSTC 240055Z 27004KT 10SM CLR M11/M16 A3023 740 64 -2200 260/04 RMK AO2
14926KSTC STC20060223190009602/23/06 19:00:31  5-MIN KSTC 240100Z 27004KT 10SM CLR M11/M17 A3023 740 64 -2300 260/04 RMK AO2
14926KSTC STC20060223190509602/23/06 19:05:31  5-MIN KSTC 240105Z 26005KT 10SM CLR M11/M17 A3023 740 64 -2300 260/05 RMK AO2
14926KSTC STC20060223191009602/23/06 19:10:31  5-MIN KSTC 240110Z 25004KT 10SM CLR M11/M16 A3023 740 67 -2300 250/04 RMK AO2
14926KSTC STC20060223191509602/23/06 19:15:31  5-MIN KSTC 240115Z 26004KT 10SM CLR M11/M16 A3023 740 67 -2300 260/04 RMK AO2
14926KSTC STC20060223192009602/23/06 19:20:31  5-MIN KSTC 240120Z 25003KT 10SM CLR M12/M17 A3023 740 67 -2300 250/03 RMK AO2
14926KSTC STC20060223192509602/23/06 19:25:31  5-MIN KSTC 240125Z 00000KT 10SM CLR M11/M17 A3023 740 64 -2300 000/00 RMK AO2
14926KSTC STC20060223193009602/23/06 19:30:31  5-MIN KSTC 240130Z 00000KT 10SM CLR M11/M17 A3023 740 64 -2200 000/00 RMK AO2
14926KSTC STC20060223193509602/23/06 19:35:31  5-MIN KSTC 240135Z 00000KT 10SM CLR M11/M17 A3023 740 64 -2300 000/00 RMK AO2
14926KSTC STC20060223194009602/23/06 19:40:31  5-MIN KSTC 240140Z 00000KT 10SM CLR M11/M16 A3023 750 67 -2200 000/00 RMK AO2
14926KSTC STC20060223194509602/23/06 19:45:31  5-MIN KSTC 240145Z 00000KT 10SM CLR M11/M16 A3022 750 64 -2200 000/00 RMK AO2
14926KSTC STC20060223195011302/23/06 19:50:31  5-MIN KSTC 240150Z 00000KT 10SM CLR M11/M16 A3023 750 67 -2200 000/00 RMK AO2 SLP267 T11111161
14926KSTC STC20060223195509602/23/06 19:55:31  5-MIN KSTC 240155Z 00000KT 10SM CLR M11/M16 A3022 750 67 -2200 000/00 RMK AO2
14926KSTC STC20060223200009602/23/06 20:00:31  5-MIN KSTC 240200Z 00000KT 10SM CLR M11/M16 A3022 750 67 -2200 000/00 RMK AO2
14926KSTC STC20060223200509602/23/06 20:05:31  5-MIN KSTC 240205Z 00000KT 10SM CLR M11/M16 A3022 750 67 -2200 000/00 RMK AO2
14926KSTC STC20060223201009602/23/06 20:10:31  5-MIN KSTC 240210Z 00000KT 10SM CLR M12/M16 A3022 750 70 -2300 000/00 RMK AO2
14926KSTC STC20060223201509602/23/06 20:15:31  5-MIN KSTC 240215Z 00000KT 10SM CLR M12/M17 A3022 750 70 -2400 000/00 RMK AO2
14926KSTC STC20060223202009602/23/06 20:20:31  5-MIN KSTC 240220Z 00000KT 10SM CLR M13/M17 A3022 750 73 -2500 000/00 RMK AO2
14926KSTC STC20060223202509602/23/06 20:25:31  5-MIN KSTC 240225Z 00000KT 10SM CLR M12/M17 A3022 750 70 -2400 000/00 RMK AO2
14926KSTC STC20060223203009602/23/06 20:30:31  5-MIN KSTC 240230Z 00000KT 10SM CLR M13/M16 A3021 750 76 -2500 000/00 RMK AO2
14926KSTC STC20060223203509602/23/06 20:35:31  5-MIN KSTC 240235Z 00000KT 10SM CLR M13/M16 A3022 750 76 -2500 000/00 RMK AO2
14926KSTC STC20060223204009602/23/06 20:40:31  5-MIN KSTC 240240Z 00000KT 10SM CLR M13/M16 A3022 750 76 -2500 000/00 RMK AO2
14926KSTC STC20060223204509602/23/06 20:45:31  5-MIN KSTC 240245Z 00000KT 10SM CLR M13/M16 A3022 750 76 -2500 000/00 RMK AO2
14926KSTC STC20060223205011902/23/06 20:50:31  5-MIN KSTC 240250Z 00000KT 10SM CLR M14/M17 A3022 750 80 -2600 000/00 RMK AO2 SLP267 T11391167 51010
14926KSTC STC20060223205509602/23/06 20:55:31  5-MIN KSTC 240255Z 00000KT 10SM CLR M13/M17 A3022 750 76 -2500 000/00 RMK AO2
14926KSTC STC20060223210009602/23/06 21:00:31  5-MIN KSTC 240300Z 00000KT 10SM CLR M13/M17 A3022 750 73 -2500 000/00 RMK AO2
14926KSTC STC20060223210509602/23/06 21:05:31  5-MIN KSTC 240305Z 00000KT 10SM CLR M13/M17 A3022 750 73 -2500 000/00 RMK AO2
14926KSTC STC20060223211009602/23/06 21:10:31  5-MIN KSTC 240310Z 00000KT 10SM CLR M14/M18 A3022 750 73 -2600 000/00 RMK AO2
14926KSTC STC20060223211509602/23/06 21:15:31  5-MIN KSTC 240315Z 00000KT 10SM CLR M14/M17 A3022 750 83 -2700 000/00 RMK AO2
14926KSTC STC20060223212009602/23/06 21:20:31  5-MIN KSTC 240320Z 00000KT 10SM CLR M14/M17 A3022 750 80 -2600 000/00 RMK AO2
14926KSTC STC20060223212509602/23/06 21:25:31  5-MIN KSTC 240325Z 00000KT 10SM CLR M14/M17 A3023 740 80 -2600 000/00 RMK AO2
14926KSTC STC20060223213009602/23/06 21:30:31  5-MIN KSTC 240330Z 00000KT 10SM CLR M14/M17 A3023 750 80 -2600 000/00 RMK AO2
14926KSTC STC20060223213509602/23/06 21:35:31  5-MIN KSTC 240335Z 00000KT 10SM CLR M14/M17 A3022 750 80 -2700 000/00 RMK AO2
14926KSTC STC20060223214009602/23/06 21:40:31  5-MIN KSTC 240340Z 00000KT 10SM CLR M14/M17 A3022 750 80 -2700 000/00 RMK AO2
14926KSTC STC20060223214509602/23/06 21:45:31  5-MIN KSTC 240345Z 00000KT 10SM CLR M14/M17 A3023 750 80 -2700 000/00 RMK AO2
14926KSTC STC20060223215011302/23/06 21:50:31  5-MIN KSTC 240350Z 00000KT 10SM CLR M14/M17 A3023 740 80 -2700 000/00 RMK AO2 SLP268 T11441172
14926KSTC STC20060223215509602/23/06 21:55:31  5-MIN KSTC 240355Z 18004KT 10SM CLR M15/M18 A3023 740 80 -2800 180/04 RMK AO2
14926KSTC STC20060223220009602/23/06 22:00:31  5-MIN KSTC 240400Z 19003KT 10SM CLR M16/M18 A3023 740 83 -2800 180/03 RMK AO2
14926KSTC STC20060223220509602/23/06 22:05:31  5-MIN KSTC 240405Z 00000KT 10SM CLR M14/M18 A3023 740 76 -2700 000/00 RMK AO2
14926KSTC STC20060223221009602/23/06 22:10:31  5-MIN KSTC 240410Z 20003KT 10SM CLR M14/M17 A3023 740 76 -2600 200/03 RMK AO2
14926KSTC STC20060223221509602/23/06 22:15:31  5-MIN KSTC 240415Z 00000KT 10SM CLR M16/M18 A3023 740 83 -2900 000/00 RMK AO2
14926KSTC STC20060223222009602/23/06 22:20:31  5-MIN KSTC 240420Z 00000KT 10SM CLR M14/M18 A3023 740 76 -2700 000/00 RMK AO2
14926KSTC STC20060223222509602/23/06 22:25:31  5-MIN KSTC 240425Z 22003KT 10SM CLR M14/M17 A3024 730 80 -2700 220/03 RMK AO2
14926KSTC STC20060223223009602/23/06 22:30:31  5-MIN KSTC 240430Z 00000KT 10SM CLR M15/M18 A3023 740 80 -2800 000/00 RMK AO2
14926KSTC STC20060223223509602/23/06 22:35:31  5-MIN KSTC 240435Z 00000KT 10SM CLR M16/M18 A3023 740 79 -2800 000/00 RMK AO2
14926KSTC STC20060223224009602/23/06 22:40:31  5-MIN KSTC 240440Z 00000KT 10SM CLR M15/M18 A3022 750 80 -2800 000/00 RMK AO2
14926KSTC STC20060223224509602/23/06 22:45:31  5-MIN KSTC 240445Z 00000KT 10SM CLR M15/M18 A3023 740 80 -2800 000/00 RMK AO2
14926KSTC STC20060223225011302/23/06 22:50:31  5-MIN KSTC 240450Z 00000KT 10SM CLR M16/M18 A3023 740 83 -2800 000/00 RMK AO2 SLP268 T11561178
14926KSTC STC20060223225509602/23/06 22:55:31  5-MIN KSTC 240455Z 00000KT 10SM CLR M15/M17 A3023 740 83 -2800 000/00 RMK AO2
14926KSTC STC20060223230009602/23/06 23:00:31  5-MIN KSTC 240500Z 00000KT 10SM CLR M15/M17 A3023 740 83 -2800 000/00 RMK AO2
14926KSTC STC20060223230509602/23/06 23:05:31  5-MIN KSTC 240505Z 00000KT 10SM CLR M17/M18 A3023 750 87 -3000 000/00 RMK AO2
14926KSTC STC20060223231009602/23/06 23:10:31  5-MIN KSTC 240510Z 00000KT 10SM CLR M16/M18 A3022 750 83 -2900 000/00 RMK AO2
14926KSTC STC20060223231509602/23/06 23:15:31  5-MIN KSTC 240515Z 00000KT 10SM CLR M16/M18 A3022 750 83 -2900 000/00 RMK AO2
14926KSTC STC20060223232009602/23/06 23:20:31  5-MIN KSTC 240520Z 00000KT 10SM CLR M16/M18 A3022 750 83 -2900 000/00 RMK AO2
14926KSTC STC20060223232510102/23/06 23:25:31  5-MIN KSTC 240525Z AUTO 00000KT 10SM CLR M16/M18 A3022 750 83 -2900 000/00 RMK AO2
14926KSTC STC20060223233010102/23/06 23:30:31  5-MIN KSTC 240530Z AUTO 00000KT 10SM CLR M16/M18 A3022 750 87 -2900 000/00 RMK AO2
14926KSTC STC20060223233510102/23/06 23:35:31  5-MIN KSTC 240535Z AUTO 00000KT 10SM CLR M17/M18 A3022 750 87 -3000 000/00 RMK AO2
14926KSTC STC20060223234010102/23/06 23:40:31  5-MIN KSTC 240540Z AUTO 00000KT 10SM CLR M17/M19 A3022 750 83 -3000 000/00 RMK AO2
14926KSTC STC20060223234510102/23/06 23:45:31  5-MIN KSTC 240545Z AUTO 00000KT 10SM CLR M17/M19 A3022 750 79 -3000 000/00 RMK AO2
14926KSTC STC20060223235014602/23/06 23:50:31  5-MIN KSTC 240550Z AUTO 00000KT 10SM CLR M17/M19 A3022 750 83 -3100 000/00 RMK AO2 SLP265 T11721194 11094 21172 410561172 50006
14926KSTC STC20060223235510102/23/06 23:55:31  5-MIN KSTC 240555Z AUTO 00000KT 10SM CLR M17/M19 A3022 750 87 -3100 000/00 RMK AO2
14926KSTC STC20060224000010102/24/06 00:00:32  5-MIN KSTC 240600Z AUTO 00000KT 10SM CLR M17/M19 A3022 750 83 -3000 000/00 RMK AO2
14926KSTC STC20060224000510102/24/06 00:05:31  5-MIN KSTC 240605Z AUTO 00000KT 10SM CLR M17/M19 A3022 750 83 -3000 000/00 RMK AO2
14926KSTC STC20060224001010102/24/06 00:10:31  5-MIN KSTC 240610Z AUTO 00000KT 10SM CLR M17/M19 A3021 760 83 -3000 000/00 RMK AO2
14926KSTC STC20060224001510102/24/06 00:15:31  5-MIN KSTC 240615Z AUTO 00000KT 10SM CLR M17/M19 A3021 760 87 -3100 000/00 RMK AO2
14926KSTC STC20060224002010102/24/06 00:20:31  5-MIN KSTC 240620Z AUTO 07003KT 10SM CLR M17/M19 A3021 760 83 -3000 070/03 RMK AO2
14926KSTC STC20060224002510102/24/06 00:25:31  5-MIN KSTC 240625Z AUTO 08003KT 10SM CLR M17/M19 A3021 760 83 -3000 070/03 RMK AO2
14926KSTC STC20060224003010102/24/06 00:30:31  5-MIN KSTC 240630Z AUTO 08003KT 10SM CLR M17/M19 A3021 760 83 -3000 070/03 RMK AO2
14926KSTC STC20060224003510402/24/06 00:35:31  5-MIN KSTC 240635Z AUTO 07003KT 10SM FEW120 M17/M19 A3021 760 83 -3000 070/03 RMK AO2
14926KSTC STC20060224004010402/24/06 00:40:31  5-MIN KSTC 240640Z AUTO 07004KT 10SM SCT120 M17/M19 A3021 760 83 -3000 060/04 RMK AO2
14926KSTC STC20060224004510402/24/06 00:45:31  5-MIN KSTC 240645Z AUTO 07004KT 10SM BKN120 M17/M19 A3021 760 83 -3000 070/04 RMK AO2
14926KSTC STC20060224005012102/24/06 00:50:31  5-MIN KSTC 240650Z AUTO 08004KT 10SM BKN120 M16/M18 A3020 770 83 -2900 070/04 RMK AO2 SLP258 T11611183
14926KSTC STC20060224005510402/24/06 00:55:31  5-MIN KSTC 240655Z AUTO 07003KT 10SM BKN120 M16/M18 A3020 770 83 -2900 070/03 RMK AO2
14926KSTC STC20060224010010402/24/06 01:00:31  5-MIN KSTC 240700Z AUTO 08003KT 10SM SCT120 M16/M18 A3020 760 83 -2900 080/03 RMK AO2
14926KSTC STC20060224010510402/24/06 01:05:31  5-MIN KSTC 240705Z AUTO 09003KT 10SM SCT120 M16/M18 A3021 760 83 -2900 080/03 RMK AO2
14926KSTC STC20060224011010402/24/06 01:10:31  5-MIN KSTC 240710Z AUTO 00000KT 10SM FEW120 M17/M18 A3022 750 87 -3000 000/00 RMK AO2
14926KSTC STC20060224011510402/24/06 01:15:31  5-MIN KSTC 240715Z AUTO 00000KT 10SM FEW110 M17/M19 A3022 750 79 -3000 000/00 RMK AO2
14926KSTC STC20060224012010402/24/06 01:20:31  5-MIN KSTC 240720Z AUTO 00000KT 10SM SCT110 M17/M19 A3022 750 79 -3000 000/00 RMK AO2
14926KSTC STC20060224012510402/24/06 01:25:31  5-MIN KSTC 240725Z AUTO 00000KT 10SM BKN110 M17/M19 A3022 750 79 -3000 000/00 RMK AO2
14926KSTC STC20060224013010402/24/06 01:30:31  5-MIN KSTC 240730Z AUTO 00000KT 10SM BKN110 M17/M19 A3021 760 83 -3100 000/00 RMK AO2
14926KSTC STC20060224013510402/24/06 01:35:31  5-MIN KSTC 240735Z AUTO 00000KT 10SM BKN110 M17/M19 A3021 760 79 -3000 000/00 RMK AO2
14926KSTC STC20060224014010402/24/06 01:40:31  5-MIN KSTC 240740Z AUTO 00000KT 10SM OVC110 M16/M18 A3021 760 83 -2900 000/00 RMK AO2
14926KSTC STC20060224014510402/24/06 01:45:31  5-MIN KSTC 240745Z AUTO 00000KT 10SM OVC110 M16/M18 A3020 770 79 -2800 000/00 RMK AO2
14926KSTC STC20060224015012102/24/06 01:50:31  5-MIN KSTC 240750Z AUTO 13003KT 10SM OVC110 M16/M18 A3020 770 83 -2900 130/03 RMK AO2 SLP258 T11611183
14926KSTC STC20060224015510402/24/06 01:55:31  5-MIN KSTC 240755Z AUTO 10004KT 10SM OVC110 M16/M18 A3019 770 83 -2900 100/04 RMK AO2
14926KSTC STC20060224020010402/24/06 02:00:31  5-MIN KSTC 240800Z AUTO 00000KT 10SM OVC110 M16/M18 A3020 770 79 -2800 000/00 RMK AO2
14926KSTC STC20060224020510402/24/06 02:05:31  5-MIN KSTC 240805Z AUTO 00000KT 10SM OVC110 M15/M18 A3020 770 80 -2700 000/00 RMK AO2
14926KSTC STC20060224021010402/24/06 02:10:31  5-MIN KSTC 240810Z AUTO 00000KT 10SM OVC110 M14/M17 A3020 770 83 -2700 000/00 RMK AO2
14926KSTC STC20060224021510402/24/06 02:15:31  5-MIN KSTC 240815Z AUTO 00000KT 10SM OVC100 M14/M17 A3020 770 83 -2700 000/00 RMK AO2
14926KSTC STC20060224022010402/24/06 02:20:31  5-MIN KSTC 240820Z AUTO 00000KT 10SM OVC100 M14/M17 A3020 770 83 -2700 000/00 RMK AO2
14926KSTC STC20060224022510402/24/06 02:25:31  5-MIN KSTC 240825Z AUTO 00000KT 10SM OVC100 M14/M17 A3020 770 83 -2700 000/00 RMK AO2
14926KSTC STC20060224023010402/24/06 02:30:31  5-MIN KSTC 240830Z AUTO 08005KT 10SM OVC100 M14/M17 A3019 780 80 -2600 070/05 RMK AO2
14926KSTC STC20060224023510402/24/06 02:35:31  5-MIN KSTC 240835Z AUTO 09005KT 10SM OVC100 M13/M16 A3019 780 80 -2500 090/05 RMK AO2
14926KSTC STC20060224024010402/24/06 02:40:31  5-MIN KSTC 240840Z AUTO 09004KT 10SM OVC100 M13/M16 A3018 780 76 -2400 090/04 RMK AO2
14926KSTC STC20060224024510402/24/06 02:45:31  5-MIN KSTC 240845Z AUTO 00000KT 10SM OVC100 M13/M16 A3018 790 80 -2400 000/00 RMK AO2
14926KSTC STC20060224025012702/24/06 02:50:31  5-MIN KSTC 240850Z AUTO 11003KT 10SM OVC100 M13/M16 A3018 790 80 -2400 100/03 RMK AO2 SLP250 T11281156 58001
14926KSTC STC20060224025510402/24/06 02:55:31  5-MIN KSTC 240855Z AUTO 09003KT 10SM OVC100 M13/M16 A3018 790 80 -2400 090/03 RMK AO2
14926KSTC STC20060224030010402/24/06 03:00:31  5-MIN KSTC 240900Z AUTO 09004KT 10SM OVC095 M12/M16 A3018 790 76 -2300 090/04 RMK AO2
14926KSTC STC20060224030510402/24/06 03:05:31  5-MIN KSTC 240905Z AUTO 09004KT 10SM OVC095 M12/M16 A3017 790 76 -2300 090/04 RMK AO2
14926KSTC STC20060224031010402/24/06 03:10:31  5-MIN KSTC 240910Z AUTO 09005KT 10SM OVC095 M12/M16 A3017 800 76 -2300 090/05 RMK AO2
14926KSTC STC20060224031510402/24/06 03:15:31  5-MIN KSTC 240915Z AUTO 10005KT 10SM OVC090 M12/M16 A3017 800 73 -2300 100/05 RMK AO2
14926KSTC STC20060224032010402/24/06 03:20:31  5-MIN KSTC 240920Z AUTO 10006KT 10SM OVC090 M12/M16 A3017 790 73 -2300 100/06 RMK AO2
14926KSTC STC20060224032510402/24/06 03:25:31  5-MIN KSTC 240925Z AUTO 11004KT 10SM OVC085 M12/M16 A3017 790 73 -2300 110/04 RMK AO2
14926KSTC STC20060224033010402/24/06 03:30:31  5-MIN KSTC 240930Z AUTO 12004KT 10SM OVC085 M12/M16 A3017 800 73 -2300 110/04 RMK AO2
14926KSTC STC20060224033510402/24/06 03:35:31  5-MIN KSTC 240935Z AUTO 09004KT 10SM OVC085 M12/M15 A3017 800 76 -2300 090/04 RMK AO2
14926KSTC STC20060224034010402/24/06 03:40:31  5-MIN KSTC 240940Z AUTO 09005KT 10SM OVC085 M11/M15 A3016 800 73 -2200 090/05 RMK AO2
14926KSTC STC20060224034510402/24/06 03:45:31  5-MIN KSTC 240945Z AUTO 09006KT 10SM OVC090 M11/M15 A3015 810 73 -2200 090/06 RMK AO2
14926KSTC STC20060224035012802/24/06 03:50:31  5-MIN KSTC 240950Z AUTO 09008KT 10SM BKN090 OVC100 M11/M16 A3015 820 70 -2200 090/08 RMK AO2 SLP238 T11111156
14926KSTC STC20060224035511102/24/06 03:55:31  5-MIN KSTC 240955Z AUTO 07006KT 10SM BKN085 OVC100 M11/M16 A3015 820 70 -2200 060/06 RMK AO2
14926KSTC STC20060224040010402/24/06 04:00:31  5-MIN KSTC 241000Z AUTO 08007KT 10SM OVC085 M11/M15 A3014 820 73 -2200 070/07 RMK AO2
14926KSTC STC20060224040510402/24/06 04:05:31  5-MIN KSTC 241005Z AUTO 08006KT 10SM OVC080 M11/M15 A3014 820 73 -2200 080/06 RMK AO2
14926KSTC STC20060224041010402/24/06 04:10:31  5-MIN KSTC 241010Z AUTO 08007KT 10SM OVC080 M11/M15 A3014 820 73 -2200 080/07 RMK AO2
14926KSTC STC20060224041510402/24/06 04:15:31  5-MIN KSTC 241015Z AUTO 07005KT 10SM OVC080 M11/M15 A3014 820 73 -2200 070/05 RMK AO2
14926KSTC STC20060224042010402/24/06 04:20:31  5-MIN KSTC 241020Z AUTO 07007KT 10SM OVC080 M11/M15 A3014 820 73 -2200 070/07 RMK AO2
14926KSTC STC20060224042510402/24/06 04:25:31  5-MIN KSTC 241025Z AUTO 08006KT 10SM OVC080 M11/M15 A3015 820 70 -2100 080/06 RMK AO2
14926KSTC STC20060224043010402/24/06 04:30:31  5-MIN KSTC 241030Z AUTO 09006KT 10SM OVC075 M11/M15 A3014 820 70 -2100 080/06 RMK AO2
14926KSTC STC20060224043510402/24/06 04:35:31  5-MIN KSTC 241035Z AUTO 09006KT 10SM OVC080 M11/M15 A3014 820 70 -2100 090/06 RMK AO2
14926KSTC STC20060224044010402/24/06 04:40:31  5-MIN KSTC 241040Z AUTO 09006KT 10SM OVC080 M11/M15 A3014 820 70 -2100 090/06 RMK AO2
14926KSTC STC20060224044510402/24/06 04:45:31  5-MIN KSTC 241045Z AUTO 09008KT 10SM OVC075 M11/M15 A3014 830 70 -2100 090/08 RMK AO2
14926KSTC STC20060224045012102/24/06 04:50:31  5-MIN KSTC 241050Z AUTO 09007KT 10SM OVC075 M11/M15 A3014 820 70 -2100 090/07 RMK AO2 SLP235 T11061150
14926KSTC STC20060224045510402/24/06 04:55:31  5-MIN KSTC 241055Z AUTO 10007KT 10SM OVC075 M11/M15 A3013 830 70 -2100 090/07 RMK AO2
14926KSTC STC20060224050010402/24/06 05:00:31  5-MIN KSTC 241100Z AUTO 10006KT 10SM OVC070 M10/M15 A3013 830 67 -2000 090/06 RMK AO2
14926KSTC STC20060224050510402/24/06 05:05:31  5-MIN KSTC 241105Z AUTO 10007KT 10SM OVC070 M10/M15 A3014 830 67 -2000 100/07 RMK AO2
14926KSTC STC20060224051010402/24/06 05:10:31  5-MIN KSTC 241110Z AUTO 10005KT 10SM OVC070 M10/M15 A3014 820 67 -2000 100/05 RMK AO2
14926KSTC STC20060224051510402/24/06 05:15:31  5-MIN KSTC 241115Z AUTO 10004KT 10SM OVC070 M10/M15 A3014 820 67 -2000 100/04 RMK AO2
14926KSTC STC20060224052010402/24/06 05:20:31  5-MIN KSTC 241120Z AUTO 11006KT 10SM OVC065 M10/M15 A3014 830 67 -2000 110/06 RMK AO2
14926KSTC STC20060224052510402/24/06 05:25:31  5-MIN KSTC 241125Z AUTO 10005KT 10SM OVC065 M10/M15 A3013 830 67 -2000 100/05 RMK AO2
14926KSTC STC20060224053010402/24/06 05:30:31  5-MIN KSTC 241130Z AUTO 11006KT 10SM OVC065 M10/M15 A3013 830 67 -2000 110/06 RMK AO2
14926KSTC STC20060224053510402/24/06 05:35:31  5-MIN KSTC 241135Z AUTO 10005KT 10SM OVC065 M10/M15 A3012 840 67 -2000 100/05 RMK AO2
14926KSTC STC20060224054010402/24/06 05:40:31  5-MIN KSTC 241140Z AUTO 11006KT 10SM OVC065 M10/M15 A3012 840 67 -2000 100/06 RMK AO2
14926KSTC STC20060224054511102/24/06 05:45:31  5-MIN KSTC 241145Z AUTO 10007KT 10SM OVC065 M10/M15 A3011 850 67 -2000 100/07 RMK AO2 PRESFR
14926KSTC STC20060224055013902/24/06 05:50:31  5-MIN KSTC 241150Z AUTO 10007KT 10SM OVC070 M10/M15 A3011 850 67 -2000 100/07 RMK AO2 SLP225 T11001150 11100 21172 56013
14926KSTC STC20060224055511102/24/06 05:55:31  5-MIN KSTC 241155Z AUTO VRB06KT 10SM BKN070 OVC090 M10/M14 A3011 850 70 -2000 VRB/06 RMK AO2
14926KSTC STC20060224060011102/24/06 06:00:31  5-MIN KSTC 241200Z AUTO 11008KT 10SM BKN070 OVC090 M10/M14 A3010 860 70 -2000 100/08 RMK AO2
14926KSTC STC20060224060511102/24/06 06:05:31  5-MIN KSTC 241205Z AUTO 10007KT 10SM BKN070 OVC085 M10/M14 A3009 870 70 -1900 100/07 RMK AO2
14926KSTC STC20060224061010402/24/06 06:10:31  5-MIN KSTC 241210Z AUTO 10008KT 10SM OVC080 M10/M14 A3009 870 70 -1900 100/08 RMK AO2
14926KSTC STC20060224061510402/24/06 06:15:31  5-MIN KSTC 241215Z AUTO 11008KT 10SM OVC085 M10/M14 A3009 870 70 -1900 110/08 RMK AO2
14926KSTC STC20060224062010402/24/06 06:20:31  5-MIN KSTC 241220Z AUTO 11008KT 10SM OVC085 M09/M14 A3008 880 67 -1900 110/08 RMK AO2
14926KSTC STC20060224062510402/24/06 06:25:31  5-MIN KSTC 241225Z AUTO 10009KT 10SM OVC090 M09/M14 A3008 880 67 -1900 100/09 RMK AO2
14926KSTC STC20060224063010402/24/06 06:30:31  5-MIN KSTC 241230Z AUTO 11008KT 10SM OVC090 M09/M14 A3008 880 67 -1900 110/08 RMK AO2
14926KSTC STC20060224063510402/24/06 06:35:31  5-MIN KSTC 241235Z AUTO 11008KT 10SM OVC090 M09/M14 A3007 880 67 -1900 110/08 RMK AO2
14926KSTC STC20060224064009902/24/06 06:40:31  5-MIN KSTC 241240Z 11008KT 10SM OVC090 M09/M14 A3007 890 67 -1900 110/08 RMK AO2
14926KSTC STC20060224064509902/24/06 06:45:31  5-MIN KSTC 241245Z 11008KT 10SM OVC095 M09/M14 A3007 890 67 -1800 110/08 RMK AO2
14926KSTC STC20060224065011602/24/06 06:50:31  5-MIN KSTC 241250Z 11007KT 10SM OVC100 M09/M14 A3007 890 67 -1800 110/07 RMK AO2 SLP212 T10941144
14926KSTC STC20060224065509902/24/06 06:55:31  5-MIN KSTC 241255Z 11008KT 10SM OVC100 M09/M14 A3006 900 64 -1800 110/08 RMK AO2
14926KSTC STC20060224070009902/24/06 07:00:31  5-MIN KSTC 241300Z 11008KT 10SM OVC100 M09/M14 A3006 900 64 -1800 110/08 RMK AO2
14926KSTC STC20060224070509902/24/06 07:05:31  5-MIN KSTC 241305Z 11008KT 10SM OVC100 M09/M14 A3005 900 64 -1800 110/08 RMK AO2
14926KSTC STC20060224071010602/24/06 07:10:31  5-MIN KSTC 241310Z 12009KT 10SM BKN100 M09/M14 A3004 910 67 -1800 110/09 RMK AO2 PRESFR
14926KSTC STC20060224071510602/24/06 07:15:31  5-MIN KSTC 241315Z 11010KT 10SM BKN100 BKN120 M09/M14 A3004 910 67 -1800 110/10 RMK AO2
14926KSTC STC20060224072010602/24/06 07:20:31  5-MIN KSTC 241320Z 11008KT 10SM SCT100 BKN120 M09/M14 A3004 910 67 -1800 100/08 RMK AO2
14926KSTC STC20060224072509902/24/06 07:25:31  5-MIN KSTC 241325Z 11009KT 10SM SCT100 M09/M14 A3004 920 67 -1800 110/09 RMK AO2
14926KSTC STC20060224073009902/24/06 07:30:31  5-MIN KSTC 241330Z 10008KT 10SM FEW100 M09/M14 A3003 930 67 -1800 100/08 RMK AO2
14926KSTC STC20060224073509602/24/06 07:35:31  5-MIN KSTC 241335Z 10009KT 10SM CLR M09/M14 A3002 930 64 -1700 100/09 RMK AO2
14926KSTC STC20060224074009602/24/06 07:40:31  5-MIN KSTC 241340Z 10009KT 10SM CLR M09/M14 A3002 930 64 -1700 100/09 RMK AO2
14926KSTC STC20060224074509602/24/06 07:45:31  5-MIN KSTC 241345Z 11010KT 10SM CLR M09/M14 A3002 930 64 -1700 100/10 RMK AO2
14926KSTC STC20060224075011302/24/06 07:50:31  5-MIN KSTC 241350Z 11008KT 10SM CLR M09/M14 A3002 940 64 -1700 110/08 RMK AO2 SLP194 T10891144
14926KSTC STC20060224075509602/24/06 07:55:31  5-MIN KSTC 241355Z 11009KT 10SM CLR M09/M14 A3002 940 64 -1700 100/09 RMK AO2
14926KSTC STC20060224080009602/24/06 08:00:31  5-MIN KSTC 241400Z 11010KT 10SM CLR M09/M14 A3001 940 64 -1700 100/10 RMK AO2
14926KSTC STC20060224080509602/24/06 08:05:31  5-MIN KSTC 241405Z 10010KT 10SM CLR M08/M14 A3001 940 64 -1600 100/10 RMK AO2
14926KSTC STC20060224081009602/24/06 08:10:31  5-MIN KSTC 241410Z 11009KT 10SM CLR M08/M14 A3001 950 64 -1600 100/09 RMK AO2
14926KSTC STC20060224081509602/24/06 08:15:31  5-MIN KSTC 241415Z 11009KT 10SM CLR M08/M14 A3000 950 64 -1600 100/09 RMK AO2
14926KSTC STC20060224082009602/24/06 08:20:31  5-MIN KSTC 241420Z 11010KT 10SM CLR M08/M14 A3000 950 64 -1600 110/10 RMK AO2
14926KSTC STC20060224082510202/24/06 08:25:31  5-MIN KSTC 241425Z 11010G16KT 10SM CLR M08/M14 A3000 950 64 -1600 110/10G16 RMK AO2
14926KSTC STC20060224083009602/24/06 08:30:31  5-MIN KSTC 241430Z 11009KT 10SM CLR M08/M14 A3000 950 64 -1600 110/09 RMK AO2
14926KSTC STC20060224083510202/24/06 08:35:31  5-MIN KSTC 241435Z 11011G18KT 10SM CLR M08/M14 A2999 960 64 -1600 110/11G18 RMK AO2
14926KSTC STC20060224084010202/24/06 08:40:31  5-MIN KSTC 241440Z 11010G18KT 10SM CLR M08/M14 A2999 960 62 -1500 100/10G18 RMK AO2
14926KSTC STC20060224084509602/24/06 08:45:31  5-MIN KSTC 241445Z 11011KT 10SM CLR M08/M13 A2999 960 64 -1500 110/11 RMK AO2
14926KSTC STC20060224085011902/24/06 08:50:31  5-MIN KSTC 241450Z 12010KT 10SM CLR M08/M13 A2999 970 64 -1500 120/10 RMK AO2 SLP184 T10781133 56023
14926KSTC STC20060224085510202/24/06 08:55:31  5-MIN KSTC 241455Z 12012G16KT 10SM CLR M08/M13 A2998 970 64 -1500 120/12G16 RMK AO2
14926KSTC STC20060224090009602/24/06 09:00:31  5-MIN KSTC 241500Z 12011KT 10SM CLR M08/M13 A2997 980 64 -1500 120/11 RMK AO2
14926KSTC STC20060224090510902/24/06 09:05:31  5-MIN KSTC 241505Z 12013G19KT 10SM CLR M07/M13 A2996 990 62 -1400 110/13G19 RMK AO2 PRESFR
14926KSTC STC20060224091010902/24/06 09:10:31  5-MIN KSTC 241510Z 11014G20KT 10SM CLR M07/M13 A2996 990 62 -1400 110/14G20 RMK AO2 PRESFR
14926KSTC STC20060224091511002/24/06 09:15:31  5-MIN KSTC 241515Z 11012G20KT 10SM CLR M07/M13 A2995 1000 62 -1400 110/12G20 RMK AO2 PRESFR
14926KSTC STC20060224092009702/24/06 09:20:31  5-MIN KSTC 241520Z 12011KT 10SM CLR M07/M13 A2994 1000 62 -1400 110/11 RMK AO2
14926KSTC STC20060224092509702/24/06 09:25:31  5-MIN KSTC 241525Z 12015KT 10SM CLR M07/M13 A2994 1010 59 -1300 120/15 RMK AO2
14926KSTC STC20060224093010302/24/06 09:30:31  5-MIN KSTC 241530Z 13014G21KT 10SM CLR M07/M13 A2994 1010 59 -1300 120/14G21 RMK AO2
14926KSTC STC20060224093510302/24/06 09:35:31  5-MIN KSTC 241535Z 11010G21KT 10SM CLR M07/M13 A2994 1010 59 -1300 110/10G21 RMK AO2
14926KSTC STC20060224094010302/24/06 09:40:31  5-MIN KSTC 241540Z 12013G18KT 10SM CLR M07/M13 A2994 1000 62 -1300 110/13G18 RMK AO2
14926KSTC STC20060224094510302/24/06 09:45:31  5-MIN KSTC 241545Z 12013G18KT 10SM CLR M07/M13 A2994 1010 62 -1300 110/13G18 RMK AO2
14926KSTC STC20060224095011402/24/06 09:50:31  5-MIN KSTC 241550Z 13011KT 10SM CLR M07/M13 A2993 1010 59 -1300 120/11 RMK AO2 SLP167 T10671133
14926KSTC STC20060224095510302/24/06 09:55:31  5-MIN KSTC 241555Z 11009G17KT 10SM CLR M06/M13 A2993 1020 59 -1300 110/09G17 RMK AO2
14926KSTC STC20060224100010302/24/06 10:00:31  5-MIN KSTC 241600Z 12012G17KT 10SM CLR M06/M13 A2993 1020 59 -1200 120/12G17 RMK AO2
14926KSTC STC20060224100509702/24/06 10:05:31  5-MIN KSTC 241605Z 14014KT 10SM CLR M06/M13 A2992 1030 59 -1200 140/14 RMK AO2
14926KSTC STC20060224101009702/24/06 10:10:31  5-MIN KSTC 241610Z 13012KT 10SM CLR M06/M12 A2992 1030 59 -1200 130/12 RMK AO2
14926KSTC STC20060224101509702/24/06 10:15:31  5-MIN KSTC 241615Z 13011KT 10SM CLR M06/M12 A2991 1030 59 -1200 130/11 RMK AO2
14926KSTC STC20060224102010302/24/06 10:20:31  5-MIN KSTC 241620Z 12013G19KT 10SM CLR M06/M13 A2991 1040 57 -1200 120/13G19 RMK AO2
14926KSTC STC20060224102510302/24/06 10:25:31  5-MIN KSTC 241625Z 13014G19KT 10SM CLR M06/M13 A2990 1040 57 -1100 130/14G19 RMK AO2
14926KSTC STC20060224103010402/24/06 10:30:31  5-MIN KSTC 241630Z 13011KT 10SM CLR M05/M12 A2989 1060 57 -1100 120/11 RMK AO2 PRESFR
14926KSTC STC20060224103511002/24/06 10:35:31  5-MIN KSTC 241635Z 14016G19KT 10SM CLR M05/M12 A2988 1060 57 -1100 140/16G19 RMK AO2 PRESFR
14926KSTC STC20060224104010302/24/06 10:40:31  5-MIN KSTC 241640Z 14013G19KT 10SM CLR M05/M12 A2988 1060 57 -1100 130/13G19 RMK AO2
14926KSTC STC20060224104509702/24/06 10:45:31  5-MIN KSTC 241645Z 14012KT 10SM CLR M05/M12 A2990 1050 60 -1100 140/12 RMK AO2
14926KSTC STC20060224105011402/24/06 10:50:31  5-MIN KSTC 241650Z 13015KT 10SM CLR M04/M12 A2989 1060 57 -1000 130/15 RMK AO2 SLP150 T10441117
14926KSTC STC20060224105509702/24/06 10:55:31  5-MIN KSTC 241655Z 14015KT 10SM CLR M04/M11 A2989 1050 60 -1000 130/15 RMK AO2
14926KSTC STC20060224110009702/24/06 11:00:31  5-MIN KSTC 241700Z 14017KT 10SM CLR M04/M11 A2989 1050 60 -1000 140/17 RMK AO2
14926KSTC STC20060224110509702/24/06 11:05:31  5-MIN KSTC 241705Z 14014KT 10SM CLR M04/M11 A2989 1050 60 -1000 140/14 RMK AO2
14926KSTC STC20060224111009702/24/06 11:10:31  5-MIN KSTC 241710Z 15016KT 10SM CLR M04/M11 A2989 1060 60 -1000 140/16 RMK AO2
14926KSTC STC20060224111509702/24/06 11:15:31  5-MIN KSTC 241715Z 14014KT 10SM CLR M04/M11 A2988 1070 62 -1000 140/14 RMK AO2
14926KSTC STC20060224112010302/24/06 11:20:31  5-MIN KSTC 241720Z 14013KT 10SM CLR M04/M11 A2987 1070 60 -900 130/13 RMK AO2 PRESFR
14926KSTC STC20060224112509902/24/06 11:25:31  5-MIN KSTC 241725Z 14014KT 10SM FEW110 M04/M11 A2987 1070 60 -900 130/14 RMK AO2
14926KSTC STC20060224113010502/24/06 11:30:31  5-MIN KSTC 241730Z 14011G19KT 10SM FEW110 M04/M11 A2987 1080 60 -900 130/11G19 RMK AO2
14926KSTC STC20060224113509902/24/06 11:35:31  5-MIN KSTC 241735Z 14010KT 10SM FEW110 M03/M11 A2987 1070 57 -800 140/10 RMK AO2
14926KSTC STC20060224114009902/24/06 11:40:31  5-MIN KSTC 241740Z 14013KT 10SM FEW110 M03/M11 A2987 1070 57 -800 140/13 RMK AO2
14926KSTC STC20060224114509902/24/06 11:45:31  5-MIN KSTC 241745Z 14011KT 10SM FEW110 M03/M10 A2987 1080 60 -800 130/11 RMK AO2
14926KSTC STC20060224115013402/24/06 11:50:31  5-MIN KSTC 241750Z 15011KT 10SM FEW110 M03/M10 A2988 1070 58 -800 140/11 RMK AO2 SLP147 T10281100 11028 21100 56042
14926KSTC STC20060224115509602/24/06 11:55:31  5-MIN KSTC 241755Z 14011KT 10SM CLR M03/M10 A2988 1060 58 -800 140/11 RMK AO2
14926KSTC STC20060224120009602/24/06 12:00:31  5-MIN KSTC 241800Z 15011KT 10SM CLR M03/M10 A2988 1070 58 -800 140/11 RMK AO2
14926KSTC STC20060224120509602/24/06 12:05:31  5-MIN KSTC 241805Z 14011KT 10SM CLR M03/M09 A2987 1070 60 -800 140/11 RMK AO2
14926KSTC STC20060224121009602/24/06 12:10:31  5-MIN KSTC 241810Z 14013KT 10SM CLR M03/M09 A2986 1080 60 -700 140/13 RMK AO2
14926KSTC STC20060224121510302/24/06 12:15:31  5-MIN KSTC 241815Z 14011KT 10SM CLR M02/M09 A2985 1090 58 -700 130/11 RMK AO2 PRESFR
14926KSTC STC20060224122010302/24/06 12:20:31  5-MIN KSTC 241820Z 13012KT 10SM CLR M02/M09 A2985 1090 58 -700 130/12 RMK AO2 PRESFR
14926KSTC STC20060224122509602/24/06 12:25:31  5-MIN KSTC 241825Z 14011KT 10SM CLR M02/M09 A2984 1100 60 -700 140/11 RMK AO2
14926KSTC STC20060224123009602/24/06 12:30:31  5-MIN KSTC 241830Z 14011KT 10SM CLR M02/M09 A2984 1100 58 -700 130/11 RMK AO2
14926KSTC STC20060224123509602/24/06 12:35:31  5-MIN KSTC 241835Z 15010KT 10SM CLR M02/M09 A2984 1100 60 -700 140/10 RMK AO2
14926KSTC STC20060224124009602/24/06 12:40:31  5-MIN KSTC 241840Z 14011KT 10SM CLR M02/M09 A2983 1110 58 -600 130/11 RMK AO2
14926KSTC STC20060224124509602/24/06 12:45:31  5-MIN KSTC 241845Z 15012KT 10SM CLR M02/M09 A2983 1110 58 -600 140/12 RMK AO2
14926KSTC STC20060224125011302/24/06 12:50:31  5-MIN KSTC 241850Z 14010KT 10SM CLR M02/M09 A2983 1110 58 -600 140/10 RMK AO2 SLP128 T10171089
14926KSTC STC20060224125510302/24/06 12:55:31  5-MIN KSTC 241855Z 14012KT 10SM CLR M02/M09 A2981 1120 58 -600 140/12 RMK AO2 PRESFR
14926KSTC STC20060224130009602/24/06 13:00:31  5-MIN KSTC 241900Z 15011KT 10SM CLR M02/M08 A2983 1110 60 -600 140/11 RMK AO2
14926KSTC STC20060224130509602/24/06 13:05:31  5-MIN KSTC 241905Z 15012KT 10SM CLR M02/M08 A2982 1120 60 -600 140/12 RMK AO2
14926KSTC STC20060224131009602/24/06 13:10:31  5-MIN KSTC 241910Z 16008KT 10SM CLR M02/M08 A2981 1130 60 -600 150/08 RMK AO2
14926KSTC STC20060224131509602/24/06 13:15:31  5-MIN KSTC 241915Z 15009KT 10SM CLR M01/M08 A2981 1120 58 -500 150/09 RMK AO2
14926KSTC STC20060224132009602/24/06 13:20:31  5-MIN KSTC 241920Z 15010KT 10SM CLR M01/M08 A2981 1130 60 -500 150/10 RMK AO2
14926KSTC STC20060224132509602/24/06 13:25:31  5-MIN KSTC 241925Z 14010KT 10SM CLR M01/M08 A2981 1130 58 -500 130/10 RMK AO2
14926KSTC STC20060224133009602/24/06 13:30:31  5-MIN KSTC 241930Z 15012KT 10SM CLR M01/M08 A2981 1130 58 -500 140/12 RMK AO2
14926KSTC STC20060224133509602/24/06 13:35:31  5-MIN KSTC 241935Z 14006KT 10SM CLR M01/M08 A2983 1110 56 -400 130/06 RMK AO2
14926KSTC STC20060224134009602/24/06 13:40:31  5-MIN KSTC 241940Z 14007KT 10SM CLR M01/M08 A2982 1120 58 -400 140/07 RMK AO2
14926KSTC STC20060224134509602/24/06 13:45:31  5-MIN KSTC 241945Z 14007KT 10SM CLR M01/M08 A2982 1120 56 -400 140/07 RMK AO2
14926KSTC STC20060224135011302/24/06 13:50:31  5-MIN KSTC 241950Z 14006KT 10SM CLR M01/M08 A2982 1120 56 -400 140/06 RMK AO2 SLP125 T10061083
14926KSTC STC20060224135509902/24/06 13:55:31  5-MIN KSTC 241955Z 14006KT 10SM FEW035 M01/M08 A2981 1120 58 -400 140/06 RMK AO2
14926KSTC STC20060224140009902/24/06 14:00:31  5-MIN KSTC 242000Z 16004KT 10SM SCT035 M01/M08 A2981 1130 58 -400 160/04 RMK AO2
14926KSTC STC20060224140509802/24/06 14:05:31  5-MIN KSTC 242005Z 14008KT 10SM SCT035 00/M08 A2980 1130 56 -300 130/08 RMK AO2
14926KSTC STC20060224141009802/24/06 14:10:31  5-MIN KSTC 242010Z 14004KT 10SM SCT035 00/M08 A2980 1130 56 -300 140/04 RMK AO2
14926KSTC STC20060224141509802/24/06 14:15:31  5-MIN KSTC 242015Z 17007KT 10SM BKN035 00/M07 A2980 1140 58 -300 170/07 RMK AO2
14926KSTC STC20060224142009802/24/06 14:20:31  5-MIN KSTC 242020Z 15005KT 10SM BKN035 00/M08 A2980 1140 56 -300 150/05 RMK AO2
14926KSTC STC20060224142509802/24/06 14:25:31  5-MIN KSTC 242025Z 14004KT 10SM SCT035 00/M08 A2979 1140 56 -300 130/04 RMK AO2
14926KSTC STC20060224143009802/24/06 14:30:31  5-MIN KSTC 242030Z VRB04KT 10SM SCT035 01/M07 A2980 1140 56 -300 VRB/04 RMK AO2
14926KSTC STC20060224143509802/24/06 14:35:31  5-MIN KSTC 242035Z VRB03KT 10SM FEW035 01/M07 A2980 1140 56 -300 VRB/03 RMK AO2
14926KSTC STC20060224144009802/24/06 14:40:31  5-MIN KSTC 242040Z VRB03KT 10SM FEW035 01/M07 A2981 1130 56 -300 VRB/03 RMK AO2
14926KSTC STC20060224144509802/24/06 14:45:31  5-MIN KSTC 242045Z 00000KT 10SM SCT037 01/M07 A2979 1140 56 -200 000/00 RMK AO2
14926KSTC STC20060224145012102/24/06 14:50:31  5-MIN KSTC 242050Z 00000KT 10SM BKN037 01/M07 A2980 1140 58 -300 000/00 RMK AO2 SLP117 T00061067 56034
14926KSTC STC20060224145509802/24/06 14:55:31  5-MIN KSTC 242055Z VRB03KT 10SM BKN037 01/M07 A2981 1130 58 -300 VRB/03 RMK AO2
14926KSTC STC20060224150009802/24/06 15:00:31  5-MIN KSTC 242100Z 00000KT 10SM BKN037 01/M07 A2980 1140 56 -200 000/00 RMK AO2
14926KSTC STC20060224150509802/24/06 15:05:31  5-MIN KSTC 242105Z VRB03KT 10SM OVC037 01/M07 A2981 1130 56 -200 VRB/03 RMK AO2
14926KSTC STC20060224151009802/24/06 15:10:31  5-MIN KSTC 242110Z 33005KT 10SM OVC037 01/M07 A2981 1130 58 -300 320/05 RMK AO2
14926KSTC STC20060224151509802/24/06 15:15:31  5-MIN KSTC 242115Z 35005KT 10SM OVC035 01/M07 A2981 1130 56 -200 350/05 RMK AO2
14926KSTC STC20060224152009802/24/06 15:20:31  5-MIN KSTC 242120Z 35004KT 10SM OVC035 01/M07 A2981 1130 56 -200 350/04 RMK AO2
14926KSTC STC20060224152509802/24/06 15:25:31  5-MIN KSTC 242125Z 35004KT 10SM OVC035 01/M07 A2981 1130 56 -200 350/04 RMK AO2
14926KSTC STC20060224153009802/24/06 15:30:31  5-MIN KSTC 242130Z 34004KT 10SM OVC035 01/M07 A2982 1120 58 -300 340/04 RMK AO2
14926KSTC STC20060224153509802/24/06 15:35:31  5-MIN KSTC 242135Z 35005KT 10SM OVC035 01/M07 A2982 1120 58 -300 340/05 RMK AO2
14926KSTC STC20060224154010302/24/06 15:40:31  5-MIN KSTC 242140Z AUTO 35004KT 10SM OVC035 01/M07 A2982 1120 58 -300 350/04 RMK AO2
14926KSTC STC20060224154509802/24/06 15:45:31  5-MIN KSTC 242145Z 36006KT 10SM OVC035 01/M07 A2982 1120 58 -300 360/06 RMK AO2
14926KSTC STC20060224155011502/24/06 15:50:31  5-MIN KSTC 242150Z 01006KT 10SM OVC035 01/M07 A2982 1120 58 -300 360/06 RMK AO2 SLP123 T00061067
14926KSTC STC20060224155509802/24/06 15:55:31  5-MIN KSTC 242155Z 01008KT 10SM OVC035 01/M07 A2983 1110 58 -300 360/08 RMK AO2
14926KSTC STC20060224160009802/24/06 16:00:31  5-MIN KSTC 242200Z 36007KT 10SM OVC035 00/M07 A2983 1110 61 -400 360/07 RMK AO2
14926KSTC STC20060224160509802/24/06 16:05:31  5-MIN KSTC 242205Z 02010KT 10SM OVC035 00/M07 A2983 1110 61 -400 020/10 RMK AO2
14926KSTC STC20060224161009902/24/06 16:10:31  5-MIN KSTC 242210Z 02012KT 10SM OVC035 M01/M08 A2982 1120 58 -400 020/12 RMK AO2
14926KSTC STC20060224161509902/24/06 16:15:31  5-MIN KSTC 242215Z 02011KT 10SM OVC035 M01/M08 A2983 1110 58 -500 020/11 RMK AO2
14926KSTC STC20060224162009902/24/06 16:20:31  5-MIN KSTC 242220Z 02010KT 10SM OVC035 M01/M08 A2983 1110 58 -500 020/10 RMK AO2
14926KSTC STC20060224162509902/24/06 16:25:31  5-MIN KSTC 242225Z 02010KT 10SM OVC035 M01/M08 A2984 1100 58 -500 020/10 RMK AO2
14926KSTC STC20060224163009902/24/06 16:30:31  5-MIN KSTC 242230Z 01009KT 10SM OVC035 M01/M08 A2984 1100 58 -500 010/09 RMK AO2
14926KSTC STC20060224163509902/24/06 16:35:31  5-MIN KSTC 242235Z 01009KT 10SM OVC035 M01/M08 A2985 1090 58 -500 010/09 RMK AO2
14926KSTC STC20060224164009902/24/06 16:40:31  5-MIN KSTC 242240Z 01009KT 10SM OVC035 M01/M09 A2985 1090 55 -500 010/09 RMK AO2
14926KSTC STC20060224164510602/24/06 16:45:31  5-MIN KSTC 242245Z 01009KT 10SM OVC035 M01/M09 A2986 1080 55 -500 010/09 RMK AO2 PRESRR
14926KSTC STC20060224165011602/24/06 16:50:31  5-MIN KSTC 242250Z 01011KT 10SM OVC035 M02/M09 A2986 1080 58 -600 010/11 RMK AO2 SLP138 T10171089
14926KSTC STC20060224165509902/24/06 16:55:31  5-MIN KSTC 242255Z 01011KT 10SM OVC035 M02/M09 A2986 1080 58 -600 360/11 RMK AO2
14926KSTC STC20060224170009902/24/06 17:00:31  5-MIN KSTC 242300Z 01008KT 10SM OVC035 M02/M09 A2987 1070 58 -600 010/08 RMK AO2
14926KSTC STC20060224170509902/24/06 17:05:31  5-MIN KSTC 242305Z 01011KT 10SM OVC035 M02/M09 A2987 1070 58 -600 010/11 RMK AO2
14926KSTC STC20060224171009902/24/06 17:10:31  5-MIN KSTC 242310Z 36013KT 10SM OVC035 M02/M09 A2988 1070 55 -600 350/13 RMK AO2
14926KSTC STC20060224171509902/24/06 17:15:31  5-MIN KSTC 242315Z 36013KT 10SM OVC035 M03/M09 A2988 1060 60 -800 360/13 RMK AO2
14926KSTC STC20060224172010602/24/06 17:20:31  5-MIN KSTC 242320Z 36012KT 10SM OVC035 M03/M10 A2989 1050 60 -900 360/12 RMK AO2 PRESRR
14926KSTC STC20060224172509902/24/06 17:25:31  5-MIN KSTC 242325Z 36012KT 10SM OVC035 M03/M10 A2989 1050 60 -900 360/12 RMK AO2
14926KSTC STC20060224173010602/24/06 17:30:31  5-MIN KSTC 242330Z 01012KT 10SM OVC035 M04/M11 A2990 1040 57 -900 010/12 RMK AO2 PRESRR
14926KSTC STC20060224173510602/24/06 17:35:31  5-MIN KSTC 242335Z 35010KT 10SM OVC035 M04/M11 A2991 1030 60 -900 350/10 RMK AO2 PRESRR
14926KSTC STC20060224174010002/24/06 17:40:31  5-MIN KSTC 242340Z 36011KT 10SM OVC035 M04/M11 A2991 1030 60 -1000 350/11 RMK AO2
14926KSTC STC20060224174510002/24/06 17:45:31  5-MIN KSTC 242345Z 36012KT 10SM OVC035 M04/M11 A2992 1030 60 -1000 360/12 RMK AO2
14926KSTC STC20060224175013502/24/06 17:50:31  5-MIN KSTC 242350Z 35012KT 10SM OVC035 M04/M11 A2992 1020 60 -1000 350/12 RMK AO2 SLP160 T10441111 10011 21044 56027
14926KSTC STC20060224175510002/24/06 17:55:31  5-MIN KSTC 242355Z 35012KT 10SM OVC035 M05/M12 A2993 1020 60 -1100 350/12 RMK AO2
14926KSTC STC20060224180010702/24/06 18:00:31  5-MIN KSTC 250000Z 35013KT 10SM OVC035 M05/M12 A2994 1010 60 -1100 350/13 RMK AO2 PRESRR
14926KSTC STC20060224180511302/24/06 18:05:31  5-MIN KSTC 250005Z 34014G18KT 10SM OVC035 M05/M12 A2995 1000 60 -1100 340/14G18 RMK AO2 PRESRR
14926KSTC STC20060224181011202/24/06 18:10:31  5-MIN KSTC 250010Z 35012G18KT 10SM OVC035 M06/M12 A2996 990 62 -1200 340/12G18 RMK AO2 PRESRR
14926KSTC STC20060224181511202/24/06 18:15:31  5-MIN KSTC 250015Z 34013G19KT 10SM OVC035 M06/M11 A2996 990 65 -1200 340/13G19 RMK AO2 PRESRR
14926KSTC STC20060224182010502/24/06 18:20:31  5-MIN KSTC 250020Z 35016G20KT 10SM OVC035 M06/M12 A2997 980 65 -1300 340/16G20 RMK AO2
14926KSTC STC20060224182510502/24/06 18:25:31  5-MIN KSTC 250025Z 35013G20KT 10SM OVC035 M06/M12 A2997 980 65 -1300 340/13G20 RMK AO2
14926KSTC STC20060224183010502/24/06 18:30:31  5-MIN KSTC 250030Z 35013G21KT 10SM OVC035 M07/M12 A2997 980 68 -1400 350/13G21 RMK AO2
14926KSTC STC20060224183511202/24/06 18:35:31  5-MIN KSTC 250035Z 35016G21KT 10SM OVC035 M07/M11 A2998 970 71 -1400 340/16G21 RMK AO2 PRESRR
14926KSTC STC20060224184011202/24/06 18:40:31  5-MIN KSTC 250040Z 35016G22KT 10SM OVC035 M07/M11 A2999 960 71 -1400 350/16G22 RMK AO2 PRESRR
14926KSTC STC20060224184511202/24/06 18:45:31  5-MIN KSTC 250045Z 35013G22KT 10SM OVC035 M07/M11 A3000 950 71 -1400 350/13G22 RMK AO2 PRESRR
14926KSTC STC20060224185011602/24/06 18:50:31  5-MIN KSTC 250050Z 35016KT 10SM OVC035 M07/M11 A3000 950 71 -1400 340/16 RMK AO2 SLP188 T10671111
14926KSTC STC20060224185510602/24/06 18:55:31  5-MIN KSTC 250055Z 35014KT 10SM OVC038 M07/M11 A3001 940 71 -1400 350/14 RMK AO2 PRESRR
14926KSTC STC20060224190011202/24/06 19:00:31  5-MIN KSTC 250100Z 35013G21KT 10SM OVC040 M07/M11 A3002 940 71 -1400 350/13G21 RMK AO2 PRESRR
14926KSTC STC20060224190511202/24/06 19:05:31  5-MIN KSTC 250105Z 35014G21KT 10SM OVC042 M07/M11 A3002 930 71 -1400 350/14G21 RMK AO2 PRESRR
14926KSTC STC20060224191010502/24/06 19:10:31  5-MIN KSTC 250110Z 35011G18KT 10SM OVC043 M07/M11 A3003 930 71 -1400 340/11G18 RMK AO2
14926KSTC STC20060224191509902/24/06 19:15:31  5-MIN KSTC 250115Z 35014KT 10SM OVC043 M07/M11 A3003 920 71 -1400 350/14 RMK AO2
14926KSTC STC20060224192009902/24/06 19:20:31  5-MIN KSTC 250120Z 35009KT 10SM OVC045 M07/M11 A3004 920 71 -1400 340/09 RMK AO2
14926KSTC STC20060224192509902/24/06 19:25:31  5-MIN KSTC 250125Z 35011KT 10SM OVC047 M07/M11 A3004 920 74 -1500 350/11 RMK AO2
14926KSTC STC20060224193009902/24/06 19:30:31  5-MIN KSTC 250130Z 35012KT 10SM OVC047 M07/M11 A3004 910 74 -1500 340/12 RMK AO2
14926KSTC STC20060224193509902/24/06 19:35:31  5-MIN KSTC 250135Z 35010KT 10SM OVC049 M07/M11 A3005 910 74 -1500 350/10 RMK AO2
14926KSTC STC20060224194009902/24/06 19:40:31  5-MIN KSTC 250140Z 35009KT 10SM OVC049 M07/M11 A3005 910 74 -1500 350/09 RMK AO2
14926KSTC STC20060224194509902/24/06 19:45:31  5-MIN KSTC 250145Z 34009KT 10SM OVC049 M07/M11 A3006 900 74 -1500 340/09 RMK AO2
14926KSTC STC20060224195011602/24/06 19:50:31  5-MIN KSTC 250150Z 35011KT 10SM OVC049 M07/M11 A3006 900 74 -1500 340/11 RMK AO2 SLP207 T10671106
14926KSTC STC20060224195509902/24/06 19:55:31  5-MIN KSTC 250155Z 35011KT 10SM OVC049 M07/M11 A3006 900 74 -1500 350/11 RMK AO2
14926KSTC STC20060224200009902/24/06 20:00:31  5-MIN KSTC 250200Z 35010KT 10SM OVC049 M07/M11 A3006 890 74 -1500 340/10 RMK AO2
14926KSTC STC20060224200509902/24/06 20:05:31  5-MIN KSTC 250205Z 34010KT 10SM OVC055 M07/M11 A3006 890 74 -1500 340/10 RMK AO2
14926KSTC STC20060224201009902/24/06 20:10:31  5-MIN KSTC 250210Z 34010KT 10SM OVC055 M07/M11 A3007 890 74 -1500 340/10 RMK AO2
14926KSTC STC20060224201509902/24/06 20:15:31  5-MIN KSTC 250215Z 34011KT 10SM OVC055 M07/M11 A3007 880 74 -1500 340/11 RMK AO2
14926KSTC STC20060224202009902/24/06 20:20:31  5-MIN KSTC 250220Z 33013KT 10SM OVC055 M07/M11 A3008 880 74 -1500 330/13 RMK AO2
14926KSTC STC20060224202509902/24/06 20:25:31  5-MIN KSTC 250225Z 33010KT 10SM OVC055 M07/M11 A3008 870 74 -1500 330/10 RMK AO2
14926KSTC STC20060224203010502/24/06 20:30:31  5-MIN KSTC 250230Z 34011G17KT 10SM OVC055 M07/M11 A3009 870 74 -1500 330/11G17 RMK AO2
14926KSTC STC20060224203510502/24/06 20:35:31  5-MIN KSTC 250235Z 33012G17KT 10SM OVC055 M07/M11 A3009 870 74 -1500 330/12G17 RMK AO2
14926KSTC STC20060224204010602/24/06 20:40:31  5-MIN KSTC 250240Z 33011KT 10SM FEW020 BKN055 M07/M11 A3010 860 77 -1600 330/11 RMK AO2
14926KSTC STC20060224204510602/24/06 20:45:31  5-MIN KSTC 250245Z 34011KT 10SM FEW020 BKN055 M07/M11 A3010 860 77 -1600 330/11 RMK AO2
14926KSTC STC20060224205012902/24/06 20:50:31  5-MIN KSTC 250250Z 34011KT 10SM FEW020 BKN055 M07/M11 A3010 860 77 -1600 340/11 RMK AO2 SLP221 T10721106 53043
14926KSTC STC20060224205510602/24/06 20:55:31  5-MIN KSTC 250255Z 34011KT 10SM FEW020 SCT055 M07/M11 A3011 850 74 -1600 340/11 RMK AO2
14926KSTC STC20060224210011202/24/06 21:00:31  5-MIN KSTC 250300Z 34014G18KT 10SM SCT020 BKN055 M07/M11 A3011 850 77 -1600 330/14G18 RMK AO2
14926KSTC STC20060224210509902/24/06 21:05:31  5-MIN KSTC 250305Z 34014KT 10SM BKN020 M07/M11 A3012 840 74 -1600 340/14 RMK AO2
14926KSTC STC20060224211009902/24/06 21:10:31  5-MIN KSTC 250310Z 34013KT 10SM BKN020 M07/M11 A3012 840 74 -1600 340/13 RMK AO2
14926KSTC STC20060224211509902/24/06 21:15:31  5-MIN KSTC 250315Z 34014KT 10SM BKN018 M07/M11 A3013 840 74 -1600 340/14 RMK AO2
14926KSTC STC20060224212009902/24/06 21:20:31  5-MIN KSTC 250320Z 34012KT 10SM OVC018 M07/M11 A3013 830 74 -1600 340/12 RMK AO2
14926KSTC STC20060224212509902/24/06 21:25:31  5-MIN KSTC 250325Z 34015KT 10SM OVC018 M08/M11 A3014 830 77 -1700 340/15 RMK AO2
14926KSTC STC20060224213010502/24/06 21:30:31  5-MIN KSTC 250330Z 34012G18KT 10SM OVC018 M08/M12 A3014 820 74 -1700 340/12G18 RMK AO2
14926KSTC STC20060224213510502/24/06 21:35:31  5-MIN KSTC 250335Z 34014G19KT 10SM BKN018 M08/M12 A3015 820 74 -1700 340/14G19 RMK AO2
14926KSTC STC20060224214010502/24/06 21:40:31  5-MIN KSTC 250340Z 34013G19KT 10SM BKN018 M08/M12 A3015 810 77 -1800 330/13G19 RMK AO2
14926KSTC STC20060224214510502/24/06 21:45:31  5-MIN KSTC 250345Z 34015G19KT 10SM SCT018 M08/M12 A3016 810 77 -1800 340/15G19 RMK AO2
14926KSTC STC20060224215011602/24/06 21:50:31  5-MIN KSTC 250350Z 34013KT 10SM FEW018 M08/M12 A3016 810 74 -1800 340/13 RMK AO2 SLP240 T10831122
14926KSTC STC20060224215510502/24/06 21:55:31  5-MIN KSTC 250355Z 34014G21KT 10SM FEW018 M08/M12 A3016 800 74 -1800 340/14G21 RMK AO2
14926KSTC STC20060224220010502/24/06 22:00:31  5-MIN KSTC 250400Z 34015G21KT 10SM FEW018 M08/M12 A3017 800 74 -1800 330/15G21 RMK AO2
14926KSTC STC20060224220509902/24/06 22:05:31  5-MIN KSTC 250405Z 34015KT 10SM FEW018 M08/M12 A3017 790 74 -1800 330/15 RMK AO2
14926KSTC STC20060224221010502/24/06 22:10:31  5-MIN KSTC 250410Z 34014G20KT 10SM FEW018 M09/M12 A3018 790 77 -1900 340/14G20 RMK AO2
14926KSTC STC20060224221510502/24/06 22:15:31  5-MIN KSTC 250415Z 34013G20KT 10SM FEW018 M09/M12 A3018 780 77 -1900 340/13G20 RMK AO2
14926KSTC STC20060224222009902/24/06 22:20:31  5-MIN KSTC 250420Z 34015KT 10SM FEW018 M09/M12 A3019 780 77 -1900 340/15 RMK AO2
14926KSTC STC20060224222510502/24/06 22:25:31  5-MIN KSTC 250425Z 34012G19KT 10SM FEW018 M09/M12 A3019 780 77 -1900 340/12G19 RMK AO2
14926KSTC STC20060224223009602/24/06 22:30:31  5-MIN KSTC 250430Z 34014KT 10SM CLR M09/M12 A3020 770 77 -1900 340/14 RMK AO2
14926KSTC STC20060224223509602/24/06 22:35:31  5-MIN KSTC 250435Z 34014KT 10SM CLR M09/M12 A3020 770 77 -1900 340/14 RMK AO2
14926KSTC STC20060224224009602/24/06 22:40:31  5-MIN KSTC 250440Z 35013KT 10SM CLR M09/M12 A3021 760 77 -1900 340/13 RMK AO2
14926KSTC STC20060224224510102/24/06 22:45:31  5-MIN KSTC 250445Z AUTO 35013KT 10SM CLR M09/M12 A3021 760 77 -1900 340/13 RMK AO2
14926KSTC STC20060224225011802/24/06 22:50:31  5-MIN KSTC 250450Z AUTO 35012KT 10SM CLR M09/M12 A3021 760 77 -1900 340/12 RMK AO2 SLP258 T10891122
14926KSTC STC20060224225510102/24/06 22:55:31  5-MIN KSTC 250455Z AUTO 35010KT 10SM CLR M09/M12 A3022 750 80 -2000 340/10 RMK AO2
14926KSTC STC20060224230010102/24/06 23:00:31  5-MIN KSTC 250500Z AUTO 35011KT 10SM CLR M09/M13 A3022 750 77 -2000 340/11 RMK AO2
14926KSTC STC20060224230510102/24/06 23:05:31  5-MIN KSTC 250505Z AUTO 35013KT 10SM CLR M09/M13 A3022 750 77 -2000 340/13 RMK AO2
14926KSTC STC20060224231010102/24/06 23:10:31  5-MIN KSTC 250510Z AUTO 35011KT 10SM CLR M09/M13 A3023 740 77 -2000 340/11 RMK AO2
14926KSTC STC20060224231510102/24/06 23:15:31  5-MIN KSTC 250515Z AUTO 35012KT 10SM CLR M09/M13 A3023 740 77 -2000 340/12 RMK AO2
14926KSTC STC20060224232010102/24/06 23:20:31  5-MIN KSTC 250520Z AUTO 35010KT 10SM CLR M09/M13 A3023 740 77 -2000 340/10 RMK AO2
14926KSTC STC20060224232510102/24/06 23:25:31  5-MIN KSTC 250525Z AUTO 35010KT 10SM CLR M09/M13 A3024 730 77 -2000 340/10 RMK AO2
14926KSTC STC20060224233010102/24/06 23:30:31  5-MIN KSTC 250530Z AUTO 34009KT 10SM CLR M09/M13 A3024 730 77 -2100 340/09 RMK AO2
14926KSTC STC20060224233510102/24/06 23:35:31  5-MIN KSTC 250535Z AUTO 34010KT 10SM CLR M09/M13 A3025 720 77 -2100 340/10 RMK AO2
14926KSTC STC20060224234010102/24/06 23:40:31  5-MIN KSTC 250540Z AUTO 34011KT 10SM CLR M09/M13 A3025 720 77 -2100 340/11 RMK AO2
14926KSTC STC20060224234510102/24/06 23:45:31  5-MIN KSTC 250545Z AUTO 34010KT 10SM CLR M09/M13 A3025 720 77 -2100 340/10 RMK AO2
14926KSTC STC20060224235014602/24/06 23:50:31  5-MIN KSTC 250550Z AUTO 34009KT 10SM CLR M09/M13 A3026 710 77 -2100 330/09 RMK AO2 SLP273 T10941128 11050 21094 400111172 51059
14926KSTC STC20060224235510102/24/06 23:55:31  5-MIN KSTC 250555Z AUTO 34009KT 10SM CLR M09/M13 A3026 710 77 -2100 340/09 RMK AO2
14926KSTC STC20060225000010102/25/06 00:00:32  5-MIN KSTC 250600Z AUTO 34010KT 10SM CLR M09/M13 A3027 710 77 -2100 340/10 RMK AO2
14926KSTC STC20060225001510102/25/06 00:15:31  5-MIN KSTC 250615Z AUTO 34010KT 10SM CLR M09/M13 A3028 700 77 -2100 330/10 RMK AO2
14926KSTC STC20060225002010102/25/06 00:20:31  5-MIN KSTC 250620Z AUTO 34011KT 10SM CLR M09/M13 A3028 690 77 -2100 340/11 RMK AO2
14926KSTC STC20060225002510702/25/06 00:25:31  5-MIN KSTC 250625Z AUTO 34010G17KT 10SM CLR M09/M13 A3028 690 77 -2100 340/10G17 RMK AO2
14926KSTC STC20060225003010702/25/06 00:30:31  5-MIN KSTC 250630Z AUTO 34010G17KT 10SM CLR M09/M13 A3029 690 77 -2100 330/10G17 RMK AO2
14926KSTC STC20060225003510102/25/06 00:35:31  5-MIN KSTC 250635Z AUTO 34010KT 10SM CLR M09/M13 A3029 690 77 -2100 330/10 RMK AO2
14926KSTC STC20060225004010102/25/06 00:40:31  5-MIN KSTC 250640Z AUTO 34011KT 10SM CLR M09/M13 A3029 680 77 -2100 340/11 RMK AO2
14926KSTC STC20060225004510102/25/06 00:45:31  5-MIN KSTC 250645Z AUTO 34011KT 10SM CLR M09/M13 A3030 680 77 -2100 330/11 RMK AO2
14926KSTC STC20060225005011802/25/06 00:50:31  5-MIN KSTC 250650Z AUTO 34012KT 10SM CLR M09/M13 A3030 680 77 -2100 340/12 RMK AO2 SLP287 T10941128
14926KSTC STC20060225005510102/25/06 00:55:31  5-MIN KSTC 250655Z AUTO 34010KT 10SM CLR M09/M13 A3030 670 77 -2100 340/10 RMK AO2
14926KSTC STC20060225010010102/25/06 01:00:31  5-MIN KSTC 250700Z AUTO 34011KT 10SM CLR M10/M13 A3031 670 80 -2200 340/11 RMK AO2
14926KSTC STC20060225010510102/25/06 01:05:31  5-MIN KSTC 250705Z AUTO 34012KT 10SM CLR M10/M13 A3031 670 77 -2200 340/12 RMK AO2
14926KSTC STC20060225011010102/25/06 01:10:31  5-MIN KSTC 250710Z AUTO 34011KT 10SM CLR M10/M13 A3031 670 77 -2200 340/11 RMK AO2
14926KSTC STC20060225011510102/25/06 01:15:31  5-MIN KSTC 250715Z AUTO 34012KT 10SM CLR M10/M13 A3032 660 77 -2200 340/12 RMK AO2
14926KSTC STC20060225012010102/25/06 01:20:31  5-MIN KSTC 250720Z AUTO 34010KT 10SM CLR M10/M13 A3032 660 77 -2200 340/10 RMK AO2
14926KSTC STC20060225012510102/25/06 01:25:31  5-MIN KSTC 250725Z AUTO 34010KT 10SM CLR M10/M13 A3032 660 77 -2200 340/10 RMK AO2
14926KSTC STC20060225013010102/25/06 01:30:31  5-MIN KSTC 250730Z AUTO 34011KT 10SM CLR M10/M13 A3033 650 77 -2200 340/11 RMK AO2
14926KSTC STC20060225013510102/25/06 01:35:31  5-MIN KSTC 250735Z AUTO 34010KT 10SM CLR M10/M13 A3033 650 77 -2200 340/10 RMK AO2
14926KSTC STC20060225014010102/25/06 01:40:31  5-MIN KSTC 250740Z AUTO 34010KT 10SM CLR M11/M14 A3033 650 77 -2300 340/10 RMK AO2
14926KSTC STC20060225014510102/25/06 01:45:31  5-MIN KSTC 250745Z AUTO 35011KT 10SM CLR M11/M14 A3034 640 77 -2300 340/11 RMK AO2
14926KSTC STC20060225015011802/25/06 01:50:31  5-MIN KSTC 250750Z AUTO 34010KT 10SM CLR M11/M14 A3034 640 77 -2300 340/10 RMK AO2 SLP301 T11061139
14926KSTC STC20060225015510102/25/06 01:55:31  5-MIN KSTC 250755Z AUTO 34009KT 10SM CLR M11/M14 A3034 640 77 -2300 340/09 RMK AO2
14926KSTC STC20060225020010102/25/06 02:00:31  5-MIN KSTC 250800Z AUTO 34009KT 10SM CLR M11/M14 A3035 630 77 -2300 340/09 RMK AO2
14926KSTC STC20060225020510102/25/06 02:05:31  5-MIN KSTC 250805Z AUTO 34008KT 10SM CLR M11/M14 A3035 630 77 -2300 340/08 RMK AO2
14926KSTC STC20060225021010102/25/06 02:10:31  5-MIN KSTC 250810Z AUTO 34009KT 10SM CLR M11/M14 A3036 630 77 -2300 340/09 RMK AO2
14926KSTC STC20060225021510102/25/06 02:15:31  5-MIN KSTC 250815Z AUTO 34008KT 10SM CLR M11/M14 A3036 620 77 -2300 340/08 RMK AO2
14926KSTC STC20060225022010102/25/06 02:20:31  5-MIN KSTC 250820Z AUTO 34008KT 10SM CLR M11/M14 A3036 620 77 -2400 340/08 RMK AO2
14926KSTC STC20060225022510102/25/06 02:25:31  5-MIN KSTC 250825Z AUTO 34007KT 10SM CLR M11/M14 A3036 620 77 -2400 340/07 RMK AO2
14926KSTC STC20060225023010102/25/06 02:30:31  5-MIN KSTC 250830Z AUTO 34007KT 10SM CLR M11/M14 A3037 610 77 -2400 330/07 RMK AO2
14926KSTC STC20060225023510102/25/06 02:35:31  5-MIN KSTC 250835Z AUTO 33008KT 10SM CLR M11/M14 A3037 610 77 -2400 330/08 RMK AO2
14926KSTC STC20060225024010102/25/06 02:40:31  5-MIN KSTC 250840Z AUTO 33007KT 10SM CLR M11/M14 A3037 610 77 -2400 330/07 RMK AO2
14926KSTC STC20060225024510102/25/06 02:45:31  5-MIN KSTC 250845Z AUTO 33007KT 10SM CLR M11/M14 A3037 610 77 -2400 330/07 RMK AO2
14926KSTC STC20060225025012402/25/06 02:50:31  5-MIN KSTC 250850Z AUTO 33007KT 10SM CLR M11/M15 A3038 610 73 -2400 330/07 RMK AO2 SLP312 T11111150 51051
14926KSTC STC20060225025510102/25/06 02:55:31  5-MIN KSTC 250855Z AUTO 33009KT 10SM CLR M12/M15 A3038 610 76 -2500 330/09 RMK AO2
14926KSTC STC20060225030010102/25/06 03:00:31  5-MIN KSTC 250900Z AUTO 33009KT 10SM CLR M12/M15 A3038 600 76 -2500 330/09 RMK AO2
14926KSTC STC20060225030510102/25/06 03:05:31  5-MIN KSTC 250905Z AUTO 34008KT 10SM CLR M12/M15 A3038 600 76 -2500 330/08 RMK AO2
14926KSTC STC20060225031010102/25/06 03:10:31  5-MIN KSTC 250910Z AUTO 34008KT 10SM CLR M12/M15 A3038 600 76 -2500 330/08 RMK AO2
14926KSTC STC20060225031510102/25/06 03:15:31  5-MIN KSTC 250915Z AUTO 34009KT 10SM CLR M11/M15 A3038 610 73 -2400 340/09 RMK AO2
14926KSTC STC20060225032010102/25/06 03:20:31  5-MIN KSTC 250920Z AUTO 35008KT 10SM CLR M12/M15 A3038 610 76 -2500 340/08 RMK AO2
14926KSTC STC20060225032510102/25/06 03:25:31  5-MIN KSTC 250925Z AUTO 34008KT 10SM CLR M12/M15 A3038 600 76 -2500 340/08 RMK AO2
14926KSTC STC20060225033010102/25/06 03:30:31  5-MIN KSTC 250930Z AUTO 34007KT 10SM CLR M12/M15 A3038 600 76 -2500 340/07 RMK AO2
14926KSTC STC20060225033510102/25/06 03:35:31  5-MIN KSTC 250935Z AUTO 34007KT 10SM CLR M12/M16 A3038 600 73 -2500 330/07 RMK AO2
14926KSTC STC20060225034010102/25/06 03:40:31  5-MIN KSTC 250940Z AUTO 34007KT 10SM CLR M12/M16 A3038 600 76 -2600 340/07 RMK AO2
14926KSTC STC20060225034510102/25/06 03:45:31  5-MIN KSTC 250945Z AUTO 34007KT 10SM CLR M12/M16 A3038 600 76 -2600 330/07 RMK AO2
14926KSTC STC20060225035011802/25/06 03:50:31  5-MIN KSTC 250950Z AUTO 34006KT 10SM CLR M12/M16 A3038 600 76 -2600 330/06 RMK AO2 SLP316 T11221156
14926KSTC STC20060225035510102/25/06 03:55:31  5-MIN KSTC 250955Z AUTO 33007KT 10SM CLR M12/M16 A3039 600 76 -2600 330/07 RMK AO2
14926KSTC STC20060225040010102/25/06 04:00:31  5-MIN KSTC 251000Z AUTO 34006KT 10SM CLR M13/M16 A3039 600 80 -2700 340/06 RMK AO2
14926KSTC STC20060225040510102/25/06 04:05:31  5-MIN KSTC 251005Z AUTO 34007KT 10SM CLR M13/M16 A3039 600 80 -2700 340/07 RMK AO2
14926KSTC STC20060225041010102/25/06 04:10:31  5-MIN KSTC 251010Z AUTO 34007KT 10SM CLR M13/M16 A3039 600 80 -2700 340/07 RMK AO2
14926KSTC STC20060225041510102/25/06 04:15:31  5-MIN KSTC 251015Z AUTO 34008KT 10SM CLR M13/M16 A3039 600 80 -2700 340/08 RMK AO2
14926KSTC STC20060225042010102/25/06 04:20:31  5-MIN KSTC 251020Z AUTO 34008KT 10SM CLR M13/M16 A3039 590 80 -2700 330/08 RMK AO2
14926KSTC STC20060225042510102/25/06 04:25:31  5-MIN KSTC 251025Z AUTO 33007KT 10SM CLR M13/M16 A3039 590 80 -2700 330/07 RMK AO2
14926KSTC STC20060225043010102/25/06 04:30:31  5-MIN KSTC 251030Z AUTO 33007KT 10SM CLR M13/M16 A3040 590 80 -2700 330/07 RMK AO2
14926KSTC STC20060225043510102/25/06 04:35:31  5-MIN KSTC 251035Z AUTO 33006KT 10SM CLR M13/M16 A3040 580 80 -2700 330/06 RMK AO2
14926KSTC STC20060225044010102/25/06 04:40:31  5-MIN KSTC 251040Z AUTO 33007KT 10SM CLR M13/M16 A3041 580 80 -2700 320/07 RMK AO2
14926KSTC STC20060225044510102/25/06 04:45:31  5-MIN KSTC 251045Z AUTO 32007KT 10SM CLR M13/M16 A3041 570 80 -2700 320/07 RMK AO2
14926KSTC STC20060225045011802/25/06 04:50:31  5-MIN KSTC 251050Z AUTO 32007KT 10SM CLR M13/M16 A3041 570 76 -2700 320/07 RMK AO2 SLP327 T11281161
14926KSTC STC20060225045510102/25/06 04:55:31  5-MIN KSTC 251055Z AUTO 32009KT 10SM CLR M13/M16 A3042 570 76 -2700 320/09 RMK AO2
14926KSTC STC20060225050010102/25/06 05:00:31  5-MIN KSTC 251100Z AUTO 32008KT 10SM CLR M13/M16 A3042 570 76 -2700 320/08 RMK AO2
14926KSTC STC20060225050510102/25/06 05:05:31  5-MIN KSTC 251105Z AUTO 33010KT 10SM CLR M13/M16 A3042 570 76 -2700 330/10 RMK AO2
14926KSTC STC20060225051010102/25/06 05:10:31  5-MIN KSTC 251110Z AUTO 33009KT 10SM CLR M13/M16 A3042 560 76 -2700 320/09 RMK AO2
14926KSTC STC20060225051510102/25/06 05:15:31  5-MIN KSTC 251115Z AUTO 33010KT 10SM CLR M13/M16 A3042 560 76 -2700 330/10 RMK AO2
14926KSTC STC20060225052010102/25/06 05:20:31  5-MIN KSTC 251120Z AUTO 33010KT 10SM CLR M13/M16 A3043 560 76 -2700 330/10 RMK AO2
14926KSTC STC20060225052510102/25/06 05:25:31  5-MIN KSTC 251125Z AUTO 33010KT 10SM CLR M13/M16 A3043 560 76 -2700 330/10 RMK AO2
14926KSTC STC20060225053010102/25/06 05:30:31  5-MIN KSTC 251130Z AUTO 34012KT 10SM CLR M13/M16 A3043 560 76 -2700 330/12 RMK AO2
14926KSTC STC20060225053510102/25/06 05:35:31  5-MIN KSTC 251135Z AUTO 34011KT 10SM CLR M13/M16 A3043 560 76 -2700 340/11 RMK AO2
14926KSTC STC20060225054010102/25/06 05:40:31  5-MIN KSTC 251140Z AUTO 34011KT 10SM CLR M13/M16 A3043 550 76 -2700 330/11 RMK AO2
14926KSTC STC20060225054510102/25/06 05:45:31  5-MIN KSTC 251145Z AUTO 34011KT 10SM CLR M13/M17 A3044 550 76 -2800 340/11 RMK AO2
14926KSTC STC20060225055013602/25/06 05:50:31  5-MIN KSTC 251150Z AUTO 34011KT 10SM CLR M13/M17 A3044 550 76 -2800 340/11 RMK AO2 SLP338 T11331167 11094 21133 51038
14926KSTC STC20060225055510102/25/06 05:55:31  5-MIN KSTC 251155Z AUTO 34011KT 10SM CLR M13/M17 A3044 550 76 -2800 340/11 RMK AO2
14926KSTC STC20060225060010102/25/06 06:00:31  5-MIN KSTC 251200Z AUTO 34011KT 10SM CLR M13/M17 A3044 540 76 -2800 340/11 RMK AO2
14926KSTC STC20060225060510102/25/06 06:05:31  5-MIN KSTC 251205Z AUTO 34011KT 10SM CLR M13/M17 A3045 540 76 -2800 340/11 RMK AO2
14926KSTC STC20060225061010102/25/06 06:10:31  5-MIN KSTC 251210Z AUTO 34011KT 10SM CLR M13/M17 A3045 540 76 -2800 330/11 RMK AO2
14926KSTC STC20060225061510102/25/06 06:15:31  5-MIN KSTC 251215Z AUTO 34013KT 10SM CLR M13/M17 A3046 530 76 -2800 340/13 RMK AO2
14926KSTC STC20060225062010102/25/06 06:20:31  5-MIN KSTC 251220Z AUTO 34011KT 10SM CLR M13/M17 A3046 530 73 -2800 340/11 RMK AO2
14926KSTC STC20060225062510702/25/06 06:25:31  5-MIN KSTC 251225Z AUTO 34010G17KT 10SM CLR M14/M17 A3046 530 76 -2900 330/10G17 RMK AO2
14926KSTC STC20060225063010702/25/06 06:30:31  5-MIN KSTC 251230Z AUTO 34010G17KT 10SM CLR M14/M17 A3046 530 76 -2900 330/10G17 RMK AO2
14926KSTC STC20060225063510102/25/06 06:35:31  5-MIN KSTC 251235Z AUTO 34010KT 10SM CLR M14/M17 A3047 520 76 -2900 330/10 RMK AO2
14926KSTC STC20060225064010102/25/06 06:40:31  5-MIN KSTC 251240Z AUTO 33009KT 10SM CLR M14/M18 A3047 520 73 -2900 330/09 RMK AO2
14926KSTC STC20060225064510102/25/06 06:45:31  5-MIN KSTC 251245Z AUTO 33008KT 10SM CLR M14/M18 A3048 520 73 -2900 330/08 RMK AO2
14926KSTC STC20060225065011802/25/06 06:50:31  5-MIN KSTC 251250Z AUTO 33009KT 10SM CLR M14/M18 A3048 510 76 -3000 320/09 RMK AO2 SLP354 T11441178
14926KSTC STC20060225065509602/25/06 06:55:31  5-MIN KSTC 251255Z 33007KT 10SM CLR M14/M18 A3048 510 76 -3000 330/07 RMK AO2
14926KSTC STC20060225070009602/25/06 07:00:31  5-MIN KSTC 251300Z 33007KT 10SM CLR M14/M18 A3048 510 76 -3000 330/07 RMK AO2
14926KSTC STC20060225070509602/25/06 07:05:31  5-MIN KSTC 251305Z 33008KT 10SM CLR M15/M18 A3048 510 80 -3100 320/08 RMK AO2
14926KSTC STC20060225071009602/25/06 07:10:31  5-MIN KSTC 251310Z 33007KT 10SM CLR M14/M18 A3049 510 73 -3000 320/07 RMK AO2
14926KSTC STC20060225071509602/25/06 07:15:31  5-MIN KSTC 251315Z 33007KT 10SM CLR M15/M18 A3049 500 76 -3100 330/07 RMK AO2
14926KSTC STC20060225072009602/25/06 07:20:31  5-MIN KSTC 251320Z 33007KT 10SM CLR M15/M18 A3049 500 76 -3100 320/07 RMK AO2
14926KSTC STC20060225072509602/25/06 07:25:31  5-MIN KSTC 251325Z 33007KT 10SM CLR M15/M18 A3050 500 76 -3100 320/07 RMK AO2
14926KSTC STC20060225073009602/25/06 07:30:31  5-MIN KSTC 251330Z 33006KT 10SM CLR M15/M18 A3050 490 76 -3100 330/06 RMK AO2
14926KSTC STC20060225073509602/25/06 07:35:31  5-MIN KSTC 251335Z 33006KT 10SM CLR M15/M19 A3050 490 72 -3100 330/06 RMK AO2
14926KSTC STC20060225074009602/25/06 07:40:31  5-MIN KSTC 251340Z 33005KT 10SM CLR M15/M19 A3050 490 72 -3100 320/05 RMK AO2
14926KSTC STC20060225074509602/25/06 07:45:31  5-MIN KSTC 251345Z 33006KT 10SM CLR M15/M19 A3051 490 72 -3100 330/06 RMK AO2
14926KSTC STC20060225075011302/25/06 07:50:31  5-MIN KSTC 251350Z 33007KT 10SM CLR M15/M19 A3051 490 72 -3100 330/07 RMK AO2 SLP364 T11501189
14926KSTC STC20060225075509602/25/06 07:55:31  5-MIN KSTC 251355Z 33006KT 10SM CLR M14/M19 A3051 480 69 -3000 330/06 RMK AO2
14926KSTC STC20060225080009602/25/06 08:00:31  5-MIN KSTC 251400Z 33006KT 10SM CLR M14/M19 A3052 480 69 -3000 320/06 RMK AO2
14926KSTC STC20060225080509602/25/06 08:05:31  5-MIN KSTC 251405Z 33008KT 10SM CLR M14/M19 A3052 480 66 -3000 330/08 RMK AO2
14926KSTC STC20060225081009602/25/06 08:10:31  5-MIN KSTC 251410Z 33008KT 10SM CLR M14/M19 A3052 470 66 -3000 330/08 RMK AO2
14926KSTC STC20060225081509602/25/06 08:15:31  5-MIN KSTC 251415Z 33007KT 10SM CLR M14/M19 A3052 470 66 -3000 330/07 RMK AO2
14926KSTC STC20060225082009602/25/06 08:20:31  5-MIN KSTC 251420Z 34008KT 10SM CLR M14/M19 A3053 470 66 -3000 330/08 RMK AO2
14926KSTC STC20060225082509602/25/06 08:25:31  5-MIN KSTC 251425Z 33008KT 10SM CLR M14/M19 A3053 470 66 -3000 330/08 RMK AO2
14926KSTC STC20060225083009602/25/06 08:30:31  5-MIN KSTC 251430Z 33008KT 10SM CLR M14/M19 A3053 470 63 -3000 330/08 RMK AO2
14926KSTC STC20060225083509602/25/06 08:35:31  5-MIN KSTC 251435Z 34007KT 10SM CLR M14/M19 A3053 460 63 -3000 330/07 RMK AO2
14926KSTC STC20060225084009602/25/06 08:40:31  5-MIN KSTC 251440Z 34009KT 10SM CLR M14/M19 A3054 460 63 -3000 340/09 RMK AO2
14926KSTC STC20060225084509602/25/06 08:45:31  5-MIN KSTC 251445Z 34008KT 10SM CLR M14/M19 A3054 460 63 -3000 330/08 RMK AO2
14926KSTC STC20060225085011902/25/06 08:50:31  5-MIN KSTC 251450Z 34009KT 10SM CLR M14/M19 A3054 460 63 -3000 340/09 RMK AO2 SLP375 T11391194 53021
14926KSTC STC20060225085509602/25/06 08:55:31  5-MIN KSTC 251455Z 33009KT 10SM CLR M14/M19 A3054 460 63 -3000 330/09 RMK AO2
14926KSTC STC20060225090009602/25/06 09:00:31  5-MIN KSTC 251500Z 34008KT 10SM CLR M13/M19 A3054 450 60 -2900 340/08 RMK AO2
14926KSTC STC20060225090509602/25/06 09:05:31  5-MIN KSTC 251505Z 34010KT 10SM CLR M13/M19 A3054 450 63 -2900 340/10 RMK AO2
14926KSTC STC20060225091009602/25/06 09:10:31  5-MIN KSTC 251510Z 35009KT 10SM CLR M13/M19 A3055 450 60 -2900 350/09 RMK AO2
14926KSTC STC20060225091509602/25/06 09:15:31  5-MIN KSTC 251515Z 36008KT 10SM CLR M13/M19 A3055 450 60 -2900 350/08 RMK AO2
14926KSTC STC20060225092009602/25/06 09:20:31  5-MIN KSTC 251520Z 36007KT 10SM CLR M13/M19 A3055 450 60 -2900 350/07 RMK AO2
14926KSTC STC20060225092509602/25/06 09:25:31  5-MIN KSTC 251525Z 36010KT 10SM CLR M13/M19 A3055 450 63 -2900 350/10 RMK AO2
14926KSTC STC20060225093009602/25/06 09:30:31  5-MIN KSTC 251530Z 36010KT 10SM CLR M13/M19 A3055 450 60 -2900 350/10 RMK AO2
14926KSTC STC20060225093509602/25/06 09:35:31  5-MIN KSTC 251535Z 36009KT 10SM CLR M13/M19 A3055 450 60 -2900 350/09 RMK AO2
14926KSTC STC20060225094009602/25/06 09:40:31  5-MIN KSTC 251540Z 36009KT 10SM CLR M13/M19 A3055 450 60 -2900 360/09 RMK AO2
14926KSTC STC20060225094509602/25/06 09:45:31  5-MIN KSTC 251545Z 36010KT 10SM CLR M13/M19 A3055 450 60 -2900 360/10 RMK AO2
14926KSTC STC20060225095011302/25/06 09:50:31  5-MIN KSTC 251550Z 34009KT 10SM CLR M13/M19 A3055 450 60 -2800 340/09 RMK AO2 SLP379 T11281189
14926KSTC STC20060225095509602/25/06 09:55:31  5-MIN KSTC 251555Z 35008KT 10SM CLR M13/M19 A3056 440 60 -2900 340/08 RMK AO2
14926KSTC STC20060225100009602/25/06 10:00:31  5-MIN KSTC 251600Z 34007KT 10SM CLR M13/M19 A3056 440 60 -2900 330/07 RMK AO2
14926KSTC STC20060225100509602/25/06 10:05:31  5-MIN KSTC 251605Z 34008KT 10SM CLR M13/M19 A3056 440 60 -2900 340/08 RMK AO2
14926KSTC STC20060225101009602/25/06 10:10:31  5-MIN KSTC 251610Z 35009KT 10SM CLR M13/M19 A3056 440 60 -2900 350/09 RMK AO2
14926KSTC STC20060225101509602/25/06 10:15:31  5-MIN KSTC 251615Z 36009KT 10SM CLR M12/M19 A3056 440 55 -2800 360/09 RMK AO2
14926KSTC STC20060225102009602/25/06 10:20:31  5-MIN KSTC 251620Z 35007KT 10SM CLR M12/M19 A3056 440 58 -2800 350/07 RMK AO2
14926KSTC STC20060225102509602/25/06 10:25:31  5-MIN KSTC 251625Z 36009KT 10SM CLR M12/M19 A3056 440 58 -2800 360/09 RMK AO2
14926KSTC STC20060225103009602/25/06 10:30:31  5-MIN KSTC 251630Z 36007KT 10SM CLR M12/M19 A3056 440 55 -2800 360/07 RMK AO2
14926KSTC STC20060225103509602/25/06 10:35:31  5-MIN KSTC 251635Z 36008KT 10SM CLR M12/M19 A3057 430 53 -2700 360/08 RMK AO2
14926KSTC STC20060225104009602/25/06 10:40:31  5-MIN KSTC 251640Z 36008KT 10SM CLR M12/M19 A3057 430 53 -2700 350/08 RMK AO2
14926KSTC STC20060225104509602/25/06 10:45:31  5-MIN KSTC 251645Z 35006KT 10SM CLR M12/M19 A3057 430 55 -2700 350/06 RMK AO2
14926KSTC STC20060225105011302/25/06 10:50:31  5-MIN KSTC 251650Z 34007KT 10SM CLR M11/M19 A3057 430 53 -2600 340/07 RMK AO2 SLP385 T11111189
14926KSTC STC20060225105509602/25/06 10:55:31  5-MIN KSTC 251655Z 34007KT 10SM CLR M11/M19 A3058 430 53 -2700 330/07 RMK AO2
14926KSTC STC20060225110009602/25/06 11:00:31  5-MIN KSTC 251700Z 34008KT 10SM CLR M12/M19 A3058 430 55 -2700 330/08 RMK AO2
14926KSTC STC20060225110509602/25/06 11:05:31  5-MIN KSTC 251705Z 35008KT 10SM CLR M11/M19 A3058 430 53 -2700 350/08 RMK AO2
14926KSTC STC20060225111009602/25/06 11:10:31  5-MIN KSTC 251710Z 35007KT 10SM CLR M11/M19 A3058 420 53 -2700 350/07 RMK AO2
14926KSTC STC20060225111509602/25/06 11:15:31  5-MIN KSTC 251715Z 35007KT 10SM CLR M11/M19 A3058 420 53 -2700 340/07 RMK AO2
14926KSTC STC20060225112009602/25/06 11:20:31  5-MIN KSTC 251720Z 35007KT 10SM CLR M11/M19 A3058 420 53 -2700 350/07 RMK AO2
14926KSTC STC20060225112509602/25/06 11:25:31  5-MIN KSTC 251725Z 35007KT 10SM CLR M11/M19 A3058 420 53 -2700 340/07 RMK AO2
14926KSTC STC20060225113009602/25/06 11:30:31  5-MIN KSTC 251730Z 34008KT 10SM CLR M11/M19 A3058 420 53 -2700 340/08 RMK AO2
14926KSTC STC20060225113509602/25/06 11:35:31  5-MIN KSTC 251735Z 34009KT 10SM CLR M11/M19 A3058 420 51 -2700 340/09 RMK AO2
14926KSTC STC20060225114009602/25/06 11:40:31  5-MIN KSTC 251740Z 35008KT 10SM CLR M11/M19 A3058 420 51 -2600 340/08 RMK AO2
14926KSTC STC20060225114509602/25/06 11:45:31  5-MIN KSTC 251745Z 35007KT 10SM CLR M11/M19 A3058 420 51 -2600 340/07 RMK AO2
14926KSTC STC20060225115013102/25/06 11:50:31  5-MIN KSTC 251750Z 34008KT 10SM CLR M10/M19 A3058 420 46 -2500 340/08 RMK AO2 SLP388 T11001194 11100 21150 51033
14926KSTC STC20060225115509602/25/06 11:55:31  5-MIN KSTC 251755Z 35009KT 10SM CLR M10/M19 A3059 420 46 -2500 350/09 RMK AO2
14926KSTC STC20060225120009602/25/06 12:00:31  5-MIN KSTC 251800Z 34007KT 10SM CLR M10/M19 A3059 420 49 -2500 340/07 RMK AO2
14926KSTC STC20060225120509602/25/06 12:05:31  5-MIN KSTC 251805Z 35008KT 10SM CLR M10/M19 A3059 420 46 -2500 350/08 RMK AO2
14926KSTC STC20060225121009602/25/06 12:10:31  5-MIN KSTC 251810Z 35008KT 10SM CLR M09/M19 A3059 420 44 -2400 350/08 RMK AO2
14926KSTC STC20060225121509602/25/06 12:15:31  5-MIN KSTC 251815Z 36008KT 10SM CLR M09/M19 A3058 420 44 -2400 350/08 RMK AO2
14926KSTC STC20060225122009602/25/06 12:20:31  5-MIN KSTC 251820Z 35007KT 10SM CLR M09/M19 A3058 420 44 -2400 340/07 RMK AO2
14926KSTC STC20060225122509602/25/06 12:25:31  5-MIN KSTC 251825Z 36008KT 10SM CLR M09/M19 A3058 420 44 -2400 360/08 RMK AO2
14926KSTC STC20060225123009602/25/06 12:30:31  5-MIN KSTC 251830Z 36008KT 10SM CLR M09/M20 A3058 420 42 -2400 360/08 RMK AO2
14926KSTC STC20060225123509602/25/06 12:35:31  5-MIN KSTC 251835Z 35008KT 10SM CLR M09/M19 A3058 420 42 -2400 350/08 RMK AO2
14926KSTC STC20060225124009602/25/06 12:40:31  5-MIN KSTC 251840Z 36008KT 10SM CLR M09/M19 A3058 420 42 -2400 350/08 RMK AO2
14926KSTC STC20060225124509602/25/06 12:45:31  5-MIN KSTC 251845Z 34006KT 10SM CLR M08/M19 A3058 420 41 -2300 340/06 RMK AO2
14926KSTC STC20060225125011302/25/06 12:50:31  5-MIN KSTC 251850Z 33009KT 10SM CLR M09/M19 A3059 420 44 -2400 330/09 RMK AO2 SLP388 T10891189
14926KSTC STC20060225125509602/25/06 12:55:31  5-MIN KSTC 251855Z 33008KT 10SM CLR M09/M19 A3059 420 42 -2400 330/08 RMK AO2
14926KSTC STC20060225130009602/25/06 13:00:31  5-MIN KSTC 251900Z 36008KT 10SM CLR M09/M19 A3059 410 42 -2400 350/08 RMK AO2
14926KSTC STC20060225130509602/25/06 13:05:31  5-MIN KSTC 251905Z 35006KT 10SM CLR M08/M19 A3059 410 41 -2300 350/06 RMK AO2
14926KSTC STC20060225131009602/25/06 13:10:31  5-MIN KSTC 251910Z 34006KT 10SM CLR M08/M19 A3059 410 43 -2300 340/06 RMK AO2
14926KSTC STC20060225131509602/25/06 13:15:31  5-MIN KSTC 251915Z 33005KT 10SM CLR M08/M19 A3059 410 43 -2300 330/05 RMK AO2
14926KSTC STC20060225132009602/25/06 13:20:31  5-MIN KSTC 251920Z 31004KT 10SM CLR M08/M18 A3059 420 45 -2300 310/04 RMK AO2
14926KSTC STC20060225132509602/25/06 13:25:31  5-MIN KSTC 251925Z 32005KT 10SM CLR M08/M18 A3059 420 43 -2200 320/05 RMK AO2
14926KSTC STC20060225133009602/25/06 13:30:31  5-MIN KSTC 251930Z 30007KT 10SM CLR M08/M18 A3059 420 45 -2300 300/07 RMK AO2
14926KSTC STC20060225133509602/25/06 13:35:31  5-MIN KSTC 251935Z VRB06KT 10SM CLR M08/M18 A3059 420 45 -2300 VRB/06 RMK AO2
14926KSTC STC20060225134009602/25/06 13:40:31  5-MIN KSTC 251940Z 33005KT 10SM CLR M08/M19 A3059 420 43 -2300 320/05 RMK AO2
14926KSTC STC20060225134509602/25/06 13:45:31  5-MIN KSTC 251945Z 33007KT 10SM CLR M08/M19 A3059 420 43 -2300 330/07 RMK AO2
14926KSTC STC20060225135011302/25/06 13:50:31  5-MIN KSTC 251950Z 32005KT 10SM CLR M08/M19 A3059 420 41 -2300 320/05 RMK AO2 SLP389 T10831194
14926KSTC STC20060225135509602/25/06 13:55:31  5-MIN KSTC 251955Z 30006KT 10SM CLR M08/M18 A3059 420 45 -2300 300/06 RMK AO2
14926KSTC STC20060225140011202/25/06 14:00:31  5-MIN KSTC 252000Z 31007KT 280V010 10SM CLR M08/M19 A3059 420 41 -2300 310/07 280V010 RMK AO2
14926KSTC STC20060225140509602/25/06 14:05:31  5-MIN KSTC 252005Z 31006KT 10SM CLR M08/M19 A3059 420 41 -2200 310/06 RMK AO2
14926KSTC STC20060225141009602/25/06 14:10:31  5-MIN KSTC 252010Z 30006KT 10SM CLR M08/M19 A3058 420 43 -2300 290/06 RMK AO2
14926KSTC STC20060225141509602/25/06 14:15:31  5-MIN KSTC 252015Z 32007KT 10SM CLR M08/M19 A3058 420 41 -2200 310/07 RMK AO2
14926KSTC STC20060225142009602/25/06 14:20:31  5-MIN KSTC 252020Z 31007KT 10SM CLR M08/M19 A3058 420 41 -2200 300/07 RMK AO2
14926KSTC STC20060225142509602/25/06 14:25:31  5-MIN KSTC 252025Z 35006KT 10SM CLR M07/M19 A3058 420 39 -2100 350/06 RMK AO2
14926KSTC STC20060225143009602/25/06 14:30:31  5-MIN KSTC 252030Z 34005KT 10SM CLR M07/M19 A3058 420 37 -2100 330/05 RMK AO2
14926KSTC STC20060225143509602/25/06 14:35:31  5-MIN KSTC 252035Z 30007KT 10SM CLR M07/M19 A3058 420 39 -2100 300/07 RMK AO2
14926KSTC STC20060225144009602/25/06 14:40:31  5-MIN KSTC 252040Z 33006KT 10SM CLR M08/M19 A3058 420 39 -2200 330/06 RMK AO2
14926KSTC STC20060225144509602/25/06 14:45:31  5-MIN KSTC 252045Z 31007KT 10SM CLR M08/M19 A3058 420 39 -2200 310/07 RMK AO2
14926KSTC STC20060225145011902/25/06 14:50:31  5-MIN KSTC 252050Z 31009KT 10SM CLR M08/M19 A3058 420 39 -2200 300/09 RMK AO2 SLP388 T10781194 51014
14926KSTC STC20060225145509602/25/06 14:55:31  5-MIN KSTC 252055Z 32005KT 10SM CLR M08/M19 A3058 420 39 -2200 310/05 RMK AO2
14926KSTC STC20060225150009602/25/06 15:00:31  5-MIN KSTC 252100Z 33007KT 10SM CLR M07/M20 A3058 420 36 -2100 330/07 RMK AO2
14926KSTC STC20060225150509602/25/06 15:05:31  5-MIN KSTC 252105Z 34006KT 10SM CLR M07/M21 A3058 420 34 -2100 340/06 RMK AO2
14926KSTC STC20060225151009602/25/06 15:10:31  5-MIN KSTC 252110Z 33007KT 10SM CLR M07/M21 A3058 420 34 -2100 330/07 RMK AO2
14926KSTC STC20060225151509602/25/06 15:15:31  5-MIN KSTC 252115Z 34005KT 10SM CLR M07/M20 A3058 420 36 -2100 340/05 RMK AO2
14926KSTC STC20060225152009602/25/06 15:20:31  5-MIN KSTC 252120Z 33005KT 10SM CLR M07/M21 A3058 420 33 -2100 330/05 RMK AO2
14926KSTC STC20060225152509602/25/06 15:25:31  5-MIN KSTC 252125Z 32005KT 10SM CLR M07/M20 A3058 420 36 -2100 320/05 RMK AO2
14926KSTC STC20060225153009602/25/06 15:30:31  5-MIN KSTC 252130Z 34006KT 10SM CLR M07/M19 A3058 420 36 -2100 340/06 RMK AO2
14926KSTC STC20060225153509602/25/06 15:35:31  5-MIN KSTC 252135Z 34005KT 10SM CLR M07/M19 A3058 420 36 -2100 340/05 RMK AO2
14926KSTC STC20060225154009602/25/06 15:40:31  5-MIN KSTC 252140Z 30006KT 10SM CLR M07/M19 A3058 420 36 -2100 300/06 RMK AO2
14926KSTC STC20060225154509602/25/06 15:45:31  5-MIN KSTC 252145Z 31007KT 10SM CLR M07/M19 A3058 420 39 -2100 300/07 RMK AO2
14926KSTC STC20060225155011302/25/06 15:50:31  5-MIN KSTC 252150Z 33006KT 10SM CLR M07/M19 A3058 420 37 -2100 330/06 RMK AO2 SLP386 T10721194
14926KSTC STC20060225155509602/25/06 15:55:31  5-MIN KSTC 252155Z 33006KT 10SM CLR M07/M19 A3058 420 36 -2100 330/06 RMK AO2
14926KSTC STC20060225160009602/25/06 16:00:31  5-MIN KSTC 252200Z 33005KT 10SM CLR M07/M19 A3058 420 37 -2100 320/05 RMK AO2
14926KSTC STC20060225160509602/25/06 16:05:31  5-MIN KSTC 252205Z 32006KT 10SM CLR M07/M20 A3058 420 36 -2100 320/06 RMK AO2
14926KSTC STC20060225161009602/25/06 16:10:31  5-MIN KSTC 252210Z 32007KT 10SM CLR M07/M19 A3058 420 37 -2100 310/07 RMK AO2
14926KSTC STC20060225161509602/25/06 16:15:31  5-MIN KSTC 252215Z 31007KT 10SM CLR M08/M19 A3058 420 43 -2300 310/07 RMK AO2
14926KSTC STC20060225162009602/25/06 16:20:31  5-MIN KSTC 252220Z 33005KT 10SM CLR M08/M19 A3058 420 39 -2200 320/05 RMK AO2
14926KSTC STC20060225162509902/25/06 16:25:31  5-MIN KSTC 252225Z 31007KT 10SM FEW110 M08/M19 A3058 420 41 -2300 310/07 RMK AO2
14926KSTC STC20060225163009902/25/06 16:30:31  5-MIN KSTC 252230Z 31006KT 10SM SCT110 M08/M19 A3058 420 43 -2300 310/06 RMK AO2
14926KSTC STC20060225163509902/25/06 16:35:31  5-MIN KSTC 252235Z 31006KT 10SM BKN110 M08/M19 A3058 420 43 -2300 310/06 RMK AO2
14926KSTC STC20060225164009902/25/06 16:40:31  5-MIN KSTC 252240Z 31007KT 10SM BKN110 M08/M18 A3058 420 45 -2300 310/07 RMK AO2
14926KSTC STC20060225164509902/25/06 16:45:31  5-MIN KSTC 252245Z 31007KT 10SM BKN110 M08/M19 A3058 420 43 -2300 310/07 RMK AO2
14926KSTC STC20060225165011602/25/06 16:50:31  5-MIN KSTC 252250Z 31007KT 10SM BKN110 M09/M18 A3058 420 47 -2400 310/07 RMK AO2 SLP389 T10891183
14926KSTC STC20060225165509902/25/06 16:55:31  5-MIN KSTC 252255Z 31007KT 10SM BKN110 M09/M18 A3058 420 47 -2400 310/07 RMK AO2
14926KSTC STC20060225170009902/25/06 17:00:31  5-MIN KSTC 252300Z 31006KT 10SM BKN110 M09/M18 A3058 420 47 -2400 310/06 RMK AO2
14926KSTC STC20060225170509902/25/06 17:05:31  5-MIN KSTC 252305Z 32006KT 10SM BKN110 M09/M18 A3059 420 49 -2400 310/06 RMK AO2
14926KSTC STC20060225171009902/25/06 17:10:31  5-MIN KSTC 252310Z 32006KT 10SM BKN110 M09/M19 A3058 420 44 -2400 310/06 RMK AO2
14926KSTC STC20060225171509902/25/06 17:15:31  5-MIN KSTC 252315Z 33004KT 10SM BKN110 M08/M19 A3059 420 41 -2300 330/04 RMK AO2
14926KSTC STC20060225172009902/25/06 17:20:31  5-MIN KSTC 252320Z 33005KT 10SM BKN110 M08/M20 A3058 420 39 -2300 330/05 RMK AO2
14926KSTC STC20060225172509902/25/06 17:25:31  5-MIN KSTC 252325Z 33004KT 10SM BKN110 M08/M20 A3058 420 39 -2300 330/04 RMK AO2
14926KSTC STC20060225173009902/25/06 17:30:31  5-MIN KSTC 252330Z 33004KT 10SM OVC110 M08/M21 A3058 420 37 -2300 330/04 RMK AO2
14926KSTC STC20060225173509902/25/06 17:35:31  5-MIN KSTC 252335Z 34004KT 10SM OVC110 M08/M21 A3058 420 37 -2300 340/04 RMK AO2
14926KSTC STC20060225174009902/25/06 17:40:31  5-MIN KSTC 252340Z 34004KT 10SM OVC110 M09/M21 A3058 420 39 -2400 340/04 RMK AO2
14926KSTC STC20060225174509902/25/06 17:45:31  5-MIN KSTC 252345Z 34004KT 10SM OVC110 M09/M21 A3058 420 39 -2400 340/04 RMK AO2
14926KSTC STC20060225175013402/25/06 17:50:31  5-MIN KSTC 252350Z 34004KT 10SM OVC110 M09/M21 A3058 420 39 -2400 340/04 RMK AO2 SLP388 T10891206 11067 21100 58001
14926KSTC STC20060225175509902/25/06 17:55:31  5-MIN KSTC 252355Z 34004KT 10SM OVC110 M09/M21 A3058 420 40 -2400 340/04 RMK AO2
14926KSTC STC20060225180009902/25/06 18:00:31  5-MIN KSTC 260000Z 34004KT 10SM OVC110 M09/M21 A3058 420 40 -2400 330/04 RMK AO2
14926KSTC STC20060225180509902/25/06 18:05:31  5-MIN KSTC 260005Z 33003KT 10SM OVC110 M09/M21 A3058 420 40 -2400 330/03 RMK AO2
14926KSTC STC20060225181009902/25/06 18:10:31  5-MIN KSTC 260010Z 30003KT 10SM OVC110 M10/M21 A3058 420 42 -2500 290/03 RMK AO2
14926KSTC STC20060225181509902/25/06 18:15:31  5-MIN KSTC 260015Z 30004KT 10SM OVC110 M10/M20 A3058 420 44 -2500 300/04 RMK AO2
14926KSTC STC20060225182009902/25/06 18:20:31  5-MIN KSTC 260020Z 32003KT 10SM OVC110 M09/M21 A3058 420 40 -2400 320/03 RMK AO2
14926KSTC STC20060225182509902/25/06 18:25:31  5-MIN KSTC 260025Z 32003KT 10SM OVC110 M10/M20 A3058 420 44 -2500 310/03 RMK AO2
14926KSTC STC20060225183009902/25/06 18:30:31  5-MIN KSTC 260030Z 32003KT 10SM OVC110 M10/M20 A3058 420 44 -2500 320/03 RMK AO2
14926KSTC STC20060225183509902/25/06 18:35:31  5-MIN KSTC 260035Z 00000KT 10SM OVC110 M11/M20 A3058 420 46 -2600 000/00 RMK AO2
14926KSTC STC20060225184009902/25/06 18:40:31  5-MIN KSTC 260040Z 00000KT 10SM OVC110 M11/M20 A3058 420 46 -2600 000/00 RMK AO2
14926KSTC STC20060225184509902/25/06 18:45:31  5-MIN KSTC 260045Z 00000KT 10SM OVC110 M10/M21 A3058 430 42 -2500 000/00 RMK AO2
14926KSTC STC20060225185011602/25/06 18:50:31  5-MIN KSTC 260050Z 00000KT 10SM OVC110 M10/M21 A3058 430 42 -2500 000/00 RMK AO2 SLP387 T11001206
14926KSTC STC20060225185509902/25/06 18:55:31  5-MIN KSTC 260055Z 00000KT 10SM OVC110 M11/M21 A3058 420 44 -2600 000/00 RMK AO2
14926KSTC STC20060225190009902/25/06 19:00:31  5-MIN KSTC 260100Z 00000KT 10SM OVC110 M11/M20 A3058 430 48 -2700 000/00 RMK AO2
14926KSTC STC20060225190509902/25/06 19:05:31  5-MIN KSTC 260105Z 00000KT 10SM OVC110 M11/M20 A3058 430 48 -2700 000/00 RMK AO2
14926KSTC STC20060225191009902/25/06 19:10:31  5-MIN KSTC 260110Z 00000KT 10SM BKN110 M11/M20 A3058 420 48 -2700 000/00 RMK AO2
14926KSTC STC20060225191509902/25/06 19:15:31  5-MIN KSTC 260115Z 00000KT 10SM BKN110 M12/M19 A3058 420 53 -2700 000/00 RMK AO2
14926KSTC STC20060225192009902/25/06 19:20:31  5-MIN KSTC 260120Z 00000KT 10SM BKN110 M12/M20 A3058 420 50 -2700 000/00 RMK AO2
14926KSTC STC20060225192509902/25/06 19:25:31  5-MIN KSTC 260125Z 00000KT 10SM BKN110 M12/M19 A3058 420 53 -2700 000/00 RMK AO2
14926KSTC STC20060225193009902/25/06 19:30:31  5-MIN KSTC 260130Z 00000KT 10SM BKN110 M12/M18 A3058 420 61 -2800 000/00 RMK AO2
14926KSTC STC20060225193509902/25/06 19:35:31  5-MIN KSTC 260135Z 00000KT 10SM BKN100 M12/M19 A3058 420 53 -2700 000/00 RMK AO2
14926KSTC STC20060225194009902/25/06 19:40:31  5-MIN KSTC 260140Z 00000KT 10SM BKN100 M12/M19 A3058 420 53 -2700 000/00 RMK AO2
14926KSTC STC20060225194509902/25/06 19:45:31  5-MIN KSTC 260145Z 00000KT 10SM BKN100 M12/M20 A3058 420 53 -2800 000/00 RMK AO2
14926KSTC STC20060225195011602/25/06 19:50:31  5-MIN KSTC 260150Z 00000KT 10SM BKN100 M13/M20 A3058 420 55 -2900 000/00 RMK AO2 SLP392 T11281200
14926KSTC STC20060225195509902/25/06 19:55:31  5-MIN KSTC 260155Z 00000KT 10SM BKN100 M13/M19 A3058 420 58 -2900 000/00 RMK AO2
14926KSTC STC20060225200009902/25/06 20:00:31  5-MIN KSTC 260200Z 00000KT 10SM BKN100 M13/M19 A3058 420 58 -2900 000/00 RMK AO2
14926KSTC STC20060225200509902/25/06 20:05:31  5-MIN KSTC 260205Z 00000KT 10SM BKN100 M13/M19 A3058 420 58 -2900 000/00 RMK AO2
14926KSTC STC20060225201009902/25/06 20:10:31  5-MIN KSTC 260210Z 00000KT 10SM BKN100 M13/M19 A3058 420 60 -3000 000/00 RMK AO2
14926KSTC STC20060225201509902/25/06 20:15:31  5-MIN KSTC 260215Z 00000KT 10SM BKN100 M13/M19 A3058 420 60 -3000 000/00 RMK AO2
14926KSTC STC20060225202009902/25/06 20:20:31  5-MIN KSTC 260220Z 00000KT 10SM SCT100 M13/M19 A3058 420 60 -3000 000/00 RMK AO2
14926KSTC STC20060225202509902/25/06 20:25:31  5-MIN KSTC 260225Z 00000KT 10SM FEW100 M13/M19 A3058 420 60 -3000 000/00 RMK AO2
14926KSTC STC20060225203009902/25/06 20:30:31  5-MIN KSTC 260230Z 00000KT 10SM FEW100 M14/M19 A3058 420 63 -3000 000/00 RMK AO2
14926KSTC STC20060225203509902/25/06 20:35:31  5-MIN KSTC 260235Z 00000KT 10SM FEW100 M14/M19 A3058 420 63 -3000 000/00 RMK AO2
14926KSTC STC20060225204009602/25/06 20:40:31  5-MIN KSTC 260240Z 00000KT 10SM CLR M14/M19 A3058 420 63 -3000 000/00 RMK AO2
14926KSTC STC20060225204509602/25/06 20:45:31  5-MIN KSTC 260245Z 00000KT 10SM CLR M15/M19 A3058 420 69 -3200 000/00 RMK AO2
14926KSTC STC20060225205011902/25/06 20:50:31  5-MIN KSTC 260250Z 00000KT 10SM CLR M14/M19 A3058 420 66 -3100 000/00 RMK AO2 SLP390 T11441194 58001
14926KSTC STC20060225205509902/25/06 20:55:31  5-MIN KSTC 260255Z 00000KT 10SM FEW090 M15/M20 A3058 420 66 -3200 000/00 RMK AO2
14926KSTC STC20060225210009902/25/06 21:00:31  5-MIN KSTC 260300Z 00000KT 10SM SCT090 M15/M20 A3058 430 66 -3200 000/00 RMK AO2
14926KSTC STC20060225210509902/25/06 21:05:31  5-MIN KSTC 260305Z 00000KT 10SM BKN090 M15/M20 A3057 430 66 -3200 000/00 RMK AO2
14926KSTC STC20060225211009902/25/06 21:10:31  5-MIN KSTC 260310Z 00000KT 10SM BKN090 M14/M19 A3057 430 66 -3100 000/00 RMK AO2
14926KSTC STC20060225211509902/25/06 21:15:31  5-MIN KSTC 260315Z 00000KT 10SM BKN090 M14/M19 A3057 430 63 -3000 000/00 RMK AO2
14926KSTC STC20060225212009902/25/06 21:20:31  5-MIN KSTC 260320Z 00000KT 10SM OVC090 M15/M19 A3057 430 69 -3200 000/00 RMK AO2
14926KSTC STC20060225212509902/25/06 21:25:31  5-MIN KSTC 260325Z 23003KT 10SM OVC090 M14/M20 A3058 420 63 -3100 230/03 RMK AO2
14926KSTC STC20060225213009902/25/06 21:30:31  5-MIN KSTC 260330Z 00000KT 10SM OVC090 M14/M20 A3058 420 60 -3000 000/00 RMK AO2
14926KSTC STC20060225213509902/25/06 21:35:31  5-MIN KSTC 260335Z 00000KT 10SM OVC090 M15/M19 A3057 430 69 -3200 000/00 RMK AO2
14926KSTC STC20060225214009902/25/06 21:40:31  5-MIN KSTC 260340Z 00000KT 10SM OVC090 M14/M19 A3057 430 69 -3100 000/00 RMK AO2
14926KSTC STC20060225214509902/25/06 21:45:31  5-MIN KSTC 260345Z 00000KT 10SM OVC090 M14/M19 A3057 430 66 -3000 000/00 RMK AO2
14926KSTC STC20060225215011602/25/06 21:50:31  5-MIN KSTC 260350Z 00000KT 10SM OVC090 M14/M19 A3057 430 66 -3000 000/00 RMK AO2 SLP387 T11391189
14926KSTC STC20060225215509902/25/06 21:55:31  5-MIN KSTC 260355Z 00000KT 10SM OVC090 M14/M19 A3057 430 66 -3000 000/00 RMK AO2
14926KSTC STC20060225220009902/25/06 22:00:31  5-MIN KSTC 260400Z 00000KT 10SM OVC090 M14/M19 A3057 430 66 -3100 000/00 RMK AO2
14926KSTC STC20060225222509902/25/06 22:25:31  5-MIN KSTC 260425Z 00000KT 10SM OVC090 M14/M19 A3057 430 66 -3100 000/00 RMK AO2
14926KSTC STC20060225223009902/25/06 22:30:31  5-MIN KSTC 260430Z 00000KT 10SM BKN090 M14/M19 A3057 430 66 -3100 000/00 RMK AO2
14926KSTC STC20060225223509902/25/06 22:35:31  5-MIN KSTC 260435Z 00000KT 10SM BKN090 M14/M19 A3057 430 66 -3100 000/00 RMK AO2
14926KSTC STC20060225224009902/25/06 22:40:31  5-MIN KSTC 260440Z 00000KT 10SM BKN090 M14/M19 A3057 430 66 -3100 000/00 RMK AO2
14926KSTC STC20060225224509902/25/06 22:45:31  5-MIN KSTC 260445Z 00000KT 10SM BKN090 M15/M19 A3057 430 72 -3200 000/00 RMK AO2
14926KSTC STC20060225225011602/25/06 22:50:31  5-MIN KSTC 260450Z 00000KT 10SM BKN090 M16/M20 A3057 430 72 -3300 000/00 RMK AO2 SLP387 T11611200
14926KSTC STC20060225225509902/25/06 22:55:31  5-MIN KSTC 260455Z 00000KT 10SM BKN090 M16/M20 A3057 430 72 -3300 000/00 RMK AO2
14926KSTC STC20060225230010402/25/06 23:00:31  5-MIN KSTC 260500Z AUTO 00000KT 10SM BKN090 M16/M19 A3057 430 72 -3200 000/00 RMK AO2
14926KSTC STC20060225230510402/25/06 23:05:31  5-MIN KSTC 260505Z AUTO 00000KT 10SM SCT090 M16/M19 A3057 430 72 -3200 000/00 RMK AO2
14926KSTC STC20060225231010402/25/06 23:10:31  5-MIN KSTC 260510Z AUTO 00000KT 10SM FEW090 M16/M19 A3057 430 79 -3300 000/00 RMK AO2
14926KSTC STC20060225231510402/25/06 23:15:31  5-MIN KSTC 260515Z AUTO 00000KT 10SM FEW090 M16/M19 A3057 430 76 -3200 000/00 RMK AO2
14926KSTC STC20060225232010402/25/06 23:20:31  5-MIN KSTC 260520Z AUTO 00000KT 10SM FEW085 M16/M19 A3057 430 76 -3200 000/00 RMK AO2
14926KSTC STC20060225232510102/25/06 23:25:31  5-MIN KSTC 260525Z AUTO 00000KT 10SM CLR M17/M19 A3057 430 79 -3400 000/00 RMK AO2
14926KSTC STC20060225233010102/25/06 23:30:31  5-MIN KSTC 260530Z AUTO 00000KT 10SM CLR M16/M19 A3057 430 76 -3300 000/00 RMK AO2
14926KSTC STC20060225233510002/25/06 23:35:31  5-MIN KSTC 260535Z AUTO 00000KT 9SM CLR M16/M19 A3056 440 79 -3300 000/00 RMK AO2
14926KSTC STC20060225234010002/25/06 23:40:31  5-MIN KSTC 260540Z AUTO 00000KT 9SM CLR M17/M19 A3056 440 79 -3400 000/00 RMK AO2
14926KSTC STC20060225234510102/25/06 23:45:31  5-MIN KSTC 260545Z AUTO 00000KT 10SM CLR M17/M19 A3056 440 79 -3400 000/00 RMK AO2
14926KSTC STC20060225235014602/25/06 23:50:31  5-MIN KSTC 260550Z AUTO 00000KT 10SM CLR M17/M19 A3056 440 79 -3400 000/00 RMK AO2 SLP382 T11671194 11094 21167 410671167 57001
14926KSTC STC20060225235510102/25/06 23:55:31  5-MIN KSTC 260555Z AUTO 00000KT 10SM CLR M17/M19 A3056 440 79 -3400 000/00 RMK AO2
14926KSTC STC20060226000010102/26/06 00:00:32  5-MIN KSTC 260600Z AUTO 00000KT 10SM CLR M16/M19 A3056 440 76 -3300 000/00 RMK AO2
14926KSTC STC20060226000510102/26/06 00:05:31  5-MIN KSTC 260605Z AUTO 00000KT 10SM CLR M17/M20 A3055 440 76 -3400 000/00 RMK AO2
14926KSTC STC20060226001010102/26/06 00:10:31  5-MIN KSTC 260610Z AUTO 00000KT 10SM CLR M17/M19 A3055 450 79 -3400 000/00 RMK AO2
14926KSTC STC20060226001510102/26/06 00:15:31  5-MIN KSTC 260615Z AUTO 00000KT 10SM CLR M17/M20 A3055 450 79 -3400 000/00 RMK AO2
14926KSTC STC20060226002010102/26/06 00:20:31  5-MIN KSTC 260620Z AUTO 00000KT 10SM CLR M17/M20 A3055 450 79 -3400 000/00 RMK AO2
14926KSTC STC20060226002510102/26/06 00:25:31  5-MIN KSTC 260625Z AUTO 00000KT 10SM CLR M17/M20 A3055 450 79 -3400 000/00 RMK AO2
14926KSTC STC20060226003010102/26/06 00:30:31  5-MIN KSTC 260630Z AUTO 00000KT 10SM CLR M17/M21 A3055 450 76 -3400 000/00 RMK AO2
14926KSTC STC20060226003510102/26/06 00:35:31  5-MIN KSTC 260635Z AUTO 00000KT 10SM CLR M17/M20 A3054 450 79 -3400 000/00 RMK AO2
14926KSTC STC20060226004010102/26/06 00:40:31  5-MIN KSTC 260640Z AUTO 00000KT 10SM CLR M18/M21 A3054 450 79 -3500 000/00 RMK AO2
14926KSTC STC20060226004510102/26/06 00:45:31  5-MIN KSTC 260645Z AUTO 00000KT 10SM CLR M18/M21 A3054 460 79 -3500 000/00 RMK AO2
14926KSTC STC20060226005011802/26/06 00:50:31  5-MIN KSTC 260650Z AUTO 00000KT 10SM CLR M18/M20 A3054 460 83 -3500 000/00 RMK AO2 SLP376 T11781200
14926KSTC STC20060226005510102/26/06 00:55:31  5-MIN KSTC 260655Z AUTO 00000KT 10SM CLR M18/M20 A3054 460 83 -3500 000/00 RMK AO2
14926KSTC STC20060226010010102/26/06 01:00:31  5-MIN KSTC 260700Z AUTO 00000KT 10SM CLR M18/M20 A3054 460 83 -3500 000/00 RMK AO2
14926KSTC STC20060226010510102/26/06 01:05:31  5-MIN KSTC 260705Z AUTO 00000KT 10SM CLR M19/M21 A3054 460 87 -3700 000/00 RMK AO2
14926KSTC STC20060226011010102/26/06 01:10:31  5-MIN KSTC 260710Z AUTO 00000KT 10SM CLR M18/M21 A3054 460 79 -3600 000/00 RMK AO2
14926KSTC STC20060226011510102/26/06 01:15:31  5-MIN KSTC 260715Z AUTO 00000KT 10SM CLR M18/M21 A3054 460 79 -3600 000/00 RMK AO2
14926KSTC STC20060226012010102/26/06 01:20:31  5-MIN KSTC 260720Z AUTO 00000KT 10SM CLR M18/M21 A3053 460 79 -3600 000/00 RMK AO2
14926KSTC STC20060226012510102/26/06 01:25:31  5-MIN KSTC 260725Z AUTO 00000KT 10SM CLR M18/M21 A3053 460 79 -3600 000/00 RMK AO2
14926KSTC STC20060226013010102/26/06 01:30:31  5-MIN KSTC 260730Z AUTO 00000KT 10SM CLR M18/M21 A3053 460 83 -3600 000/00 RMK AO2
14926KSTC STC20060226013510102/26/06 01:35:31  5-MIN KSTC 260735Z AUTO 00000KT 10SM CLR M19/M21 A3053 460 83 -3700 000/00 RMK AO2
14926KSTC STC20060226014010102/26/06 01:40:31  5-MIN KSTC 260740Z AUTO 00000KT 10SM CLR M18/M21 A3053 470 83 -3600 000/00 RMK AO2
14926KSTC STC20060226014510102/26/06 01:45:31  5-MIN KSTC 260745Z AUTO 00000KT 10SM CLR M18/M21 A3053 470 83 -3600 000/00 RMK AO2
14926KSTC STC20060226015011802/26/06 01:50:31  5-MIN KSTC 260750Z AUTO 00000KT 10SM CLR M19/M21 A3053 470 83 -3600 000/00 RMK AO2 SLP372 T11891211
14926KSTC STC20060226015510102/26/06 01:55:31  5-MIN KSTC 260755Z AUTO 00000KT 10SM CLR M19/M22 A3052 470 83 -3700 000/00 RMK AO2
14926KSTC STC20060226020010102/26/06 02:00:31  5-MIN KSTC 260800Z AUTO 00000KT 10SM CLR M19/M22 A3052 470 79 -3600 000/00 RMK AO2
14926KSTC STC20060226020510102/26/06 02:05:31  5-MIN KSTC 260805Z AUTO 00000KT 10SM CLR M19/M21 A3052 470 83 -3600 000/00 RMK AO2
14926KSTC STC20060226021010102/26/06 02:10:31  5-MIN KSTC 260810Z AUTO 00000KT 10SM CLR M18/M21 A3052 470 79 -3600 000/00 RMK AO2
14926KSTC STC20060226021510102/26/06 02:15:31  5-MIN KSTC 260815Z AUTO 00000KT 10SM CLR M19/M21 A3053 470 83 -3600 000/00 RMK AO2
14926KSTC STC20060226022010102/26/06 02:20:31  5-MIN KSTC 260820Z AUTO 00000KT 10SM CLR M19/M22 A3053 470 79 -3600 000/00 RMK AO2
14926KSTC STC20060226022510102/26/06 02:25:31  5-MIN KSTC 260825Z AUTO 00000KT 10SM CLR M19/M22 A3052 470 79 -3600 000/00 RMK AO2
14926KSTC STC20060226023010102/26/06 02:30:31  5-MIN KSTC 260830Z AUTO 15003KT 10SM CLR M19/M22 A3052 470 79 -3700 140/03 RMK AO2
14926KSTC STC20060226023510102/26/06 02:35:31  5-MIN KSTC 260835Z AUTO 14003KT 10SM CLR M20/M22 A3052 480 83 -3800 140/03 RMK AO2
14926KSTC STC20060226024010402/26/06 02:40:31  5-MIN KSTC 260840Z AUTO 00000KT 10SM FEW055 M19/M22 A3052 480 83 -3700 000/00 RMK AO2
14926KSTC STC20060226024510402/26/06 02:45:31  5-MIN KSTC 260845Z AUTO 00000KT 10SM SCT055 M19/M22 A3052 480 83 -3700 000/00 RMK AO2
14926KSTC STC20060226025012702/26/06 02:50:31  5-MIN KSTC 260850Z AUTO 00000KT 10SM BKN055 M19/M22 A3052 480 83 -3700 000/00 RMK AO2 SLP368 T11941217 58007
14926KSTC STC20060226025510402/26/06 02:55:31  5-MIN KSTC 260855Z AUTO 00000KT 10SM BKN055 M19/M22 A3052 480 79 -3600 000/00 RMK AO2
14926KSTC STC20060226030010402/26/06 03:00:31  5-MIN KSTC 260900Z AUTO 00000KT 10SM BKN050 M19/M21 A3052 480 83 -3600 000/00 RMK AO2
14926KSTC STC20060226030510402/26/06 03:05:31  5-MIN KSTC 260905Z AUTO 00000KT 10SM OVC050 M18/M21 A3051 480 83 -3600 000/00 RMK AO2
14926KSTC STC20060226031010402/26/06 03:10:31  5-MIN KSTC 260910Z AUTO 00000KT 10SM OVC050 M18/M21 A3052 480 79 -3500 000/00 RMK AO2
14926KSTC STC20060226031510402/26/06 03:15:31  5-MIN KSTC 260915Z AUTO 00000KT 10SM OVC050 M18/M20 A3052 480 83 -3500 000/00 RMK AO2
14926KSTC STC20060226032010402/26/06 03:20:31  5-MIN KSTC 260920Z AUTO 00000KT 10SM OVC050 M18/M20 A3052 480 83 -3500 000/00 RMK AO2
14926KSTC STC20060226032510402/26/06 03:25:31  5-MIN KSTC 260925Z AUTO 00000KT 10SM OVC050 M17/M20 A3051 480 79 -3400 000/00 RMK AO2
14926KSTC STC20060226033010402/26/06 03:30:31  5-MIN KSTC 260930Z AUTO 00000KT 10SM OVC050 M17/M20 A3051 490 79 -3400 000/00 RMK AO2
14926KSTC STC20060226033510402/26/06 03:35:31  5-MIN KSTC 260935Z AUTO 15003KT 10SM OVC050 M17/M19 A3051 490 83 -3400 150/03 RMK AO2
14926KSTC STC20060226034010402/26/06 03:40:31  5-MIN KSTC 260940Z AUTO 17003KT 10SM OVC050 M17/M19 A3050 490 79 -3300 170/03 RMK AO2
14926KSTC STC20060226034510402/26/06 03:45:31  5-MIN KSTC 260945Z AUTO 17003KT 10SM OVC055 M17/M19 A3050 490 79 -3300 170/03 RMK AO2
14926KSTC STC20060226035012102/26/06 03:50:31  5-MIN KSTC 260950Z AUTO 17003KT 10SM OVC055 M17/M19 A3050 500 83 -3300 160/03 RMK AO2 SLP361 T11671189
14926KSTC STC20060226035510402/26/06 03:55:31  5-MIN KSTC 260955Z AUTO 16003KT 10SM OVC055 M17/M19 A3050 500 83 -3300 160/03 RMK AO2
14926KSTC STC20060226040010402/26/06 04:00:31  5-MIN KSTC 261000Z AUTO 17003KT 10SM OVC055 M17/M19 A3050 500 83 -3300 160/03 RMK AO2
14926KSTC STC20060226040510402/26/06 04:05:31  5-MIN KSTC 261005Z AUTO 16003KT 10SM OVC055 M16/M19 A3050 500 79 -3200 160/03 RMK AO2
14926KSTC STC20060226041010402/26/06 04:10:31  5-MIN KSTC 261010Z AUTO 15003KT 10SM OVC055 M16/M18 A3049 500 83 -3200 150/03 RMK AO2
14926KSTC STC20060226041510402/26/06 04:15:31  5-MIN KSTC 261015Z AUTO 16003KT 10SM OVC055 M16/M18 A3049 500 83 -3200 160/03 RMK AO2
14926KSTC STC20060226042010402/26/06 04:20:31  5-MIN KSTC 261020Z AUTO 16003KT 10SM OVC055 M16/M18 A3049 510 79 -3100 150/03 RMK AO2
14926KSTC STC20060226042510402/26/06 04:25:31  5-MIN KSTC 261025Z AUTO 00000KT 10SM OVC055 M16/M18 A3049 510 79 -3100 000/00 RMK AO2
14926KSTC STC20060226043010402/26/06 04:30:31  5-MIN KSTC 261030Z AUTO 00000KT 10SM OVC055 M16/M18 A3049 510 79 -3100 000/00 RMK AO2
14926KSTC STC20060226043510402/26/06 04:35:31  5-MIN KSTC 261035Z AUTO 00000KT 10SM OVC055 M16/M18 A3049 510 83 -3100 000/00 RMK AO2
14926KSTC STC20060226044010402/26/06 04:40:31  5-MIN KSTC 261040Z AUTO 00000KT 10SM OVC055 M16/M18 A3048 510 83 -3100 000/00 RMK AO2
14926KSTC STC20060226044510402/26/06 04:45:31  5-MIN KSTC 261045Z AUTO 00000KT 10SM OVC055 M16/M18 A3048 510 83 -3100 000/00 RMK AO2
14926KSTC STC20060226045012102/26/06 04:50:31  5-MIN KSTC 261050Z AUTO 00000KT 10SM OVC055 M15/M18 A3048 510 80 -3100 000/00 RMK AO2 SLP355 T11501178
14926KSTC STC20060226045510402/26/06 04:55:31  5-MIN KSTC 261055Z AUTO 00000KT 10SM OVC055 M15/M18 A3048 510 80 -3100 000/00 RMK AO2
14926KSTC STC20060226050010402/26/06 05:00:31  5-MIN KSTC 261100Z AUTO 00000KT 10SM OVC055 M15/M18 A3048 510 80 -3100 000/00 RMK AO2
14926KSTC STC20060226050510402/26/06 05:05:31  5-MIN KSTC 261105Z AUTO 18003KT 10SM OVC055 M15/M18 A3048 520 80 -3100 170/03 RMK AO2
14926KSTC STC20060226051010402/26/06 05:10:31  5-MIN KSTC 261110Z AUTO 16003KT 10SM OVC055 M15/M18 A3048 520 80 -3100 160/03 RMK AO2
14926KSTC STC20060226051510402/26/06 05:15:31  5-MIN KSTC 261115Z AUTO 16003KT 10SM OVC055 M15/M17 A3048 520 83 -3100 150/03 RMK AO2
14926KSTC STC20060226052010402/26/06 05:20:31  5-MIN KSTC 261120Z AUTO 17004KT 10SM OVC055 M15/M17 A3047 520 83 -3100 160/04 RMK AO2
14926KSTC STC20060226052510402/26/06 05:25:31  5-MIN KSTC 261125Z AUTO 16003KT 10SM OVC055 M15/M17 A3047 520 83 -3100 160/03 RMK AO2
14926KSTC STC20060226053010402/26/06 05:30:31  5-MIN KSTC 261130Z AUTO 15003KT 10SM OVC055 M15/M17 A3047 520 83 -3100 150/03 RMK AO2
14926KSTC STC20060226053510402/26/06 05:35:31  5-MIN KSTC 261135Z AUTO 15004KT 10SM OVC055 M15/M18 A3047 520 80 -3100 140/04 RMK AO2
14926KSTC STC20060226054010402/26/06 05:40:31  5-MIN KSTC 261140Z AUTO 15004KT 10SM OVC055 M15/M18 A3047 520 80 -3100 140/04 RMK AO2
14926KSTC STC20060226054510402/26/06 05:45:31  5-MIN KSTC 261145Z AUTO 16005KT 10SM BKN055 M15/M18 A3047 520 80 -3100 160/05 RMK AO2
14926KSTC STC20060226055013902/26/06 05:50:31  5-MIN KSTC 261150Z AUTO 16005KT 10SM BKN055 M16/M18 A3047 520 83 -3100 160/05 RMK AO2 SLP352 T11561178 11150 21200 56013
14926KSTC STC20060226055510402/26/06 05:55:31  5-MIN KSTC 261155Z AUTO 15004KT 10SM SCT055 M16/M18 A3047 520 83 -3100 150/04 RMK AO2
14926KSTC STC20060226060010402/26/06 06:00:31  5-MIN KSTC 261200Z AUTO 15004KT 10SM FEW055 M15/M18 A3047 520 80 -3100 140/04 RMK AO2
14926KSTC STC20060226060510402/26/06 06:05:31  5-MIN KSTC 261205Z AUTO 14004KT 10SM FEW055 M15/M18 A3047 520 80 -3000 140/04 RMK AO2
14926KSTC STC20060226061010102/26/06 06:10:31  5-MIN KSTC 261210Z AUTO 14005KT 10SM CLR M15/M18 A3047 520 80 -3000 140/05 RMK AO2
14926KSTC STC20060226061510402/26/06 06:15:31  5-MIN KSTC 261215Z AUTO 14005KT 10SM FEW090 M15/M18 A3047 520 80 -3000 140/05 RMK AO2
14926KSTC STC20060226062010402/26/06 06:20:31  5-MIN KSTC 261220Z AUTO 14004KT 10SM SCT090 M16/M18 A3046 530 83 -3200 130/04 RMK AO2
14926KSTC STC20060226062510402/26/06 06:25:31  5-MIN KSTC 261225Z AUTO 14004KT 10SM BKN090 M16/M18 A3046 530 83 -3200 130/04 RMK AO2
14926KSTC STC20060226063010402/26/06 06:30:31  5-MIN KSTC 261230Z AUTO 14004KT 10SM BKN085 M16/M18 A3046 530 83 -3200 140/04 RMK AO2
14926KSTC STC20060226063510402/26/06 06:35:31  5-MIN KSTC 261235Z AUTO 14004KT 10SM BKN085 M16/M18 A3046 530 83 -3200 140/04 RMK AO2
14926KSTC STC20060226064010402/26/06 06:40:31  5-MIN KSTC 261240Z AUTO 14004KT 10SM BKN085 M16/M18 A3046 540 83 -3200 130/04 RMK AO2
14926KSTC STC20060226064510402/26/06 06:45:31  5-MIN KSTC 261245Z AUTO 13004KT 10SM BKN085 M16/M18 A3045 540 83 -3100 130/04 RMK AO2
14926KSTC STC20060226065012102/26/06 06:50:31  5-MIN KSTC 261250Z AUTO 14004KT 10SM SCT085 M15/M18 A3045 540 80 -3000 130/04 RMK AO2 SLP344 T11501178
14926KSTC STC20060226065510402/26/06 06:55:31  5-MIN KSTC 261255Z AUTO 14004KT 10SM FEW085 M15/M18 A3045 540 80 -3000 140/04 RMK AO2
14926KSTC STC20060226070009902/26/06 07:00:31  5-MIN KSTC 261300Z 15004KT 10SM FEW085 M16/M18 A3045 540 83 -3100 150/04 RMK AO2
14926KSTC STC20060226070509602/26/06 07:05:31  5-MIN KSTC 261305Z 15005KT 10SM CLR M16/M18 A3044 550 83 -3200 150/05 RMK AO2
14926KSTC STC20060226071009602/26/06 07:10:31  5-MIN KSTC 261310Z 16005KT 10SM CLR M17/M19 A3044 550 83 -3200 150/05 RMK AO2
14926KSTC STC20060226071509602/26/06 07:15:31  5-MIN KSTC 261315Z 16005KT 10SM CLR M16/M19 A3044 550 79 -3200 150/05 RMK AO2
14926KSTC STC20060226072009602/26/06 07:20:31  5-MIN KSTC 261320Z 16005KT 10SM CLR M16/M18 A3043 550 83 -3200 160/05 RMK AO2
14926KSTC STC20060226072509602/26/06 07:25:31  5-MIN KSTC 261325Z 16005KT 10SM CLR M16/M18 A3043 560 79 -3100 160/05 RMK AO2
14926KSTC STC20060226073009602/26/06 07:30:31  5-MIN KSTC 261330Z 16005KT 10SM CLR M16/M18 A3043 560 83 -3100 160/05 RMK AO2
14926KSTC STC20060226073509602/26/06 07:35:31  5-MIN KSTC 261335Z 15005KT 10SM CLR M15/M18 A3043 560 80 -3000 150/05 RMK AO2
14926KSTC STC20060226074009602/26/06 07:40:31  5-MIN KSTC 261340Z 15005KT 10SM CLR M15/M18 A3043 560 80 -3000 150/05 RMK AO2
14926KSTC STC20060226074509602/26/06 07:45:31  5-MIN KSTC 261345Z 15005KT 10SM CLR M15/M18 A3043 560 80 -3000 140/05 RMK AO2
14926KSTC STC20060226075011302/26/06 07:50:31  5-MIN KSTC 261350Z 15005KT 10SM CLR M14/M18 A3042 560 76 -2900 150/05 RMK AO2 SLP336 T11441178
14926KSTC STC20060226075509602/26/06 07:55:31  5-MIN KSTC 261355Z 15005KT 10SM CLR M14/M18 A3042 570 76 -2900 140/05 RMK AO2
14926KSTC STC20060226080009602/26/06 08:00:31  5-MIN KSTC 261400Z 15005KT 10SM CLR M14/M17 A3042 570 80 -2900 150/05 RMK AO2
14926KSTC STC20060226080509602/26/06 08:05:31  5-MIN KSTC 261405Z 15005KT 10SM CLR M14/M17 A3042 570 80 -2900 150/05 RMK AO2
14926KSTC STC20060226081009602/26/06 08:10:31  5-MIN KSTC 261410Z 16004KT 10SM CLR M14/M17 A3041 570 80 -2900 150/04 RMK AO2
14926KSTC STC20060226081509602/26/06 08:15:31  5-MIN KSTC 261415Z 17004KT 10SM CLR M14/M17 A3041 580 76 -2800 160/04 RMK AO2
14926KSTC STC20060226082009602/26/06 08:20:31  5-MIN KSTC 261420Z 18004KT 10SM CLR M14/M17 A3041 580 76 -2800 180/04 RMK AO2
14926KSTC STC20060226082509902/26/06 08:25:31  5-MIN KSTC 261425Z 19005KT 10SM FEW080 M14/M17 A3041 580 80 -2800 190/05 RMK AO2
14926KSTC STC20060226083009902/26/06 08:30:31  5-MIN KSTC 261430Z 19007KT 10SM SCT080 M13/M16 A3041 580 76 -2700 190/07 RMK AO2
14926KSTC STC20060226083509902/26/06 08:35:31  5-MIN KSTC 261435Z 19007KT 10SM BKN080 M12/M16 A3041 580 73 -2600 190/07 RMK AO2
14926KSTC STC20060226084009902/26/06 08:40:31  5-MIN KSTC 261440Z 19007KT 10SM BKN080 M12/M16 A3041 580 73 -2500 190/07 RMK AO2
14926KSTC STC20060226084509902/26/06 08:45:31  5-MIN KSTC 261445Z 20006KT 10SM OVC080 M12/M16 A3040 580 73 -2500 190/06 RMK AO2
14926KSTC STC20060226085012202/26/06 08:50:31  5-MIN KSTC 261450Z 20006KT 10SM OVC080 M11/M16 A3041 580 70 -2500 190/06 RMK AO2 SLP330 T11111156 56015
14926KSTC STC20060226085509902/26/06 08:55:31  5-MIN KSTC 261455Z 20005KT 10SM OVC080 M11/M15 A3040 580 73 -2500 200/05 RMK AO2
14926KSTC STC20060226090009902/26/06 09:00:31  5-MIN KSTC 261500Z 19006KT 10SM OVC080 M11/M15 A3040 580 73 -2500 190/06 RMK AO2
14926KSTC STC20060226090509902/26/06 09:05:31  5-MIN KSTC 261505Z 19005KT 10SM OVC080 M11/M15 A3040 590 70 -2400 190/05 RMK AO2
14926KSTC STC20060226091009902/26/06 09:10:31  5-MIN KSTC 261510Z 20006KT 10SM OVC080 M11/M14 A3040 590 73 -2400 190/06 RMK AO2
14926KSTC STC20060226091509902/26/06 09:15:31  5-MIN KSTC 261515Z 20007KT 10SM OVC080 M10/M14 A3040 590 70 -2300 190/07 RMK AO2
14926KSTC STC20060226092009902/26/06 09:20:31  5-MIN KSTC 261520Z 20008KT 10SM OVC080 M10/M14 A3040 590 70 -2300 200/08 RMK AO2
14926KSTC STC20060226092509902/26/06 09:25:31  5-MIN KSTC 261525Z 20008KT 10SM OVC080 M09/M14 A3039 590 67 -2200 200/08 RMK AO2
14926KSTC STC20060226093009902/26/06 09:30:31  5-MIN KSTC 261530Z 20008KT 10SM OVC080 M09/M14 A3039 590 70 -2200 190/08 RMK AO2
14926KSTC STC20060226093509902/26/06 09:35:31  5-MIN KSTC 261535Z 20008KT 10SM OVC080 M09/M14 A3039 590 70 -2200 190/08 RMK AO2
14926KSTC STC20060226094009902/26/06 09:40:31  5-MIN KSTC 261540Z 20007KT 10SM OVC080 M09/M14 A3039 600 67 -2100 200/07 RMK AO2
14926KSTC STC20060226094509902/26/06 09:45:31  5-MIN KSTC 261545Z 20007KT 10SM OVC080 M09/M13 A3039 600 70 -2100 190/07 RMK AO2
14926KSTC STC20060226095011602/26/06 09:50:31  5-MIN KSTC 261550Z 20007KT 10SM OVC080 M09/M14 A3038 600 67 -2100 200/07 RMK AO2 SLP321 T10891139
14926KSTC STC20060226095509902/26/06 09:55:31  5-MIN KSTC 261555Z 19007KT 10SM OVC080 M08/M13 A3038 600 67 -2100 190/07 RMK AO2
14926KSTC STC20060226100009902/26/06 10:00:31  5-MIN KSTC 261600Z 19007KT 10SM OVC080 M08/M13 A3038 610 67 -2100 190/07 RMK AO2
14926KSTC STC20060226100509902/26/06 10:05:31  5-MIN KSTC 261605Z 20008KT 10SM OVC080 M08/M13 A3038 610 67 -2000 200/08 RMK AO2
14926KSTC STC20060226101009902/26/06 10:10:31  5-MIN KSTC 261610Z 21008KT 10SM OVC080 M07/M13 A3037 610 65 -1900 200/08 RMK AO2
14926KSTC STC20060226101509902/26/06 10:15:31  5-MIN KSTC 261615Z 22009KT 10SM OVC080 M07/M13 A3037 610 65 -1900 220/09 RMK AO2
14926KSTC STC20060226102009902/26/06 10:20:31  5-MIN KSTC 261620Z 23013KT 10SM OVC080 M07/M13 A3037 620 62 -1800 220/13 RMK AO2
14926KSTC STC20060226102509902/26/06 10:25:31  5-MIN KSTC 261625Z 23014KT 10SM OVC080 M07/M13 A3036 620 62 -1800 220/14 RMK AO2
14926KSTC STC20060226103009902/26/06 10:30:31  5-MIN KSTC 261630Z 23013KT 10SM OVC080 M07/M12 A3036 620 65 -1800 220/13 RMK AO2
14926KSTC STC20060226103509902/26/06 10:35:31  5-MIN KSTC 261635Z 23013KT 10SM OVC080 M07/M13 A3036 620 62 -1800 230/13 RMK AO2
14926KSTC STC20060226104009902/26/06 10:40:31  5-MIN KSTC 261640Z 23012KT 10SM OVC080 M07/M12 A3036 630 65 -1800 230/12 RMK AO2
14926KSTC STC20060226104509902/26/06 10:45:31  5-MIN KSTC 261645Z 23013KT 10SM OVC080 M07/M12 A3035 630 65 -1800 230/13 RMK AO2
14926KSTC STC20060226105011602/26/06 10:50:31  5-MIN KSTC 261650Z 22011KT 10SM OVC080 M06/M12 A3035 630 62 -1700 220/11 RMK AO2 SLP309 T10611122
14926KSTC STC20060226105509902/26/06 10:55:31  5-MIN KSTC 261655Z 23013KT 10SM OVC080 M06/M12 A3035 630 65 -1700 220/13 RMK AO2
14926KSTC STC20060226110009902/26/06 11:00:31  5-MIN KSTC 261700Z 22012KT 10SM OVC080 M06/M12 A3035 640 65 -1700 220/12 RMK AO2
14926KSTC STC20060226110509902/26/06 11:05:31  5-MIN KSTC 261705Z 22012KT 10SM OVC075 M06/M12 A3034 640 65 -1700 220/12 RMK AO2
14926KSTC STC20060226111009902/26/06 11:10:31  5-MIN KSTC 261710Z 22012KT 10SM OVC075 M06/M11 A3034 640 65 -1700 220/12 RMK AO2
14926KSTC STC20060226111509902/26/06 11:15:31  5-MIN KSTC 261715Z 23011KT 10SM OVC075 M06/M11 A3034 640 65 -1700 220/11 RMK AO2
14926KSTC STC20060226112009902/26/06 11:20:31  5-MIN KSTC 261720Z 22012KT 10SM OVC075 M06/M11 A3034 640 65 -1700 220/12 RMK AO2
14926KSTC STC20060226112509902/26/06 11:25:31  5-MIN KSTC 261725Z 22011KT 10SM OVC075 M05/M11 A3034 640 65 -1600 220/11 RMK AO2
14926KSTC STC20060226113009902/26/06 11:30:31  5-MIN KSTC 261730Z 22010KT 10SM OVC075 M05/M11 A3033 650 62 -1600 210/10 RMK AO2
14926KSTC STC20060226113509902/26/06 11:35:31  5-MIN KSTC 261735Z 21010KT 10SM OVC075 M05/M11 A3033 650 65 -1600 210/10 RMK AO2
14926KSTC STC20060226114009902/26/06 11:40:31  5-MIN KSTC 261740Z 22008KT 10SM OVC075 M05/M11 A3033 650 65 -1600 220/08 RMK AO2
14926KSTC STC20060226114509902/26/06 11:45:31  5-MIN KSTC 261745Z 21009KT 10SM OVC075 M05/M11 A3032 650 65 -1600 210/09 RMK AO2
14926KSTC STC20060226115013402/26/06 11:50:31  5-MIN KSTC 261750Z 23007KT 10SM OVC075 M04/M11 A3032 660 62 -1500 230/07 RMK AO2 SLP300 T10441106 11044 21167 56022
14926KSTC STC20060226115509902/26/06 11:55:31  5-MIN KSTC 261755Z 22008KT 10SM BKN075 M04/M10 A3032 660 65 -1500 210/08 RMK AO2
14926KSTC STC20060226120009902/26/06 12:00:31  5-MIN KSTC 261800Z 22008KT 10SM BKN075 M04/M11 A3032 660 62 -1500 210/08 RMK AO2
14926KSTC STC20060226120509902/26/06 12:05:31  5-MIN KSTC 261805Z 22009KT 10SM BKN070 M04/M10 A3032 660 63 -1400 210/09 RMK AO2
14926KSTC STC20060226121009902/26/06 12:10:31  5-MIN KSTC 261810Z 23008KT 10SM BKN070 M04/M10 A3032 660 63 -1400 220/08 RMK AO2
14926KSTC STC20060226121509902/26/06 12:15:31  5-MIN KSTC 261815Z 22007KT 10SM BKN070 M03/M10 A3032 660 60 -1300 210/07 RMK AO2
14926KSTC STC20060226122009902/26/06 12:20:31  5-MIN KSTC 261820Z 21007KT 10SM SCT070 M03/M09 A3031 660 63 -1300 210/07 RMK AO2
14926KSTC STC20060226122509902/26/06 12:25:31  5-MIN KSTC 261825Z 21006KT 10SM FEW070 M03/M09 A3031 670 63 -1300 210/06 RMK AO2
14926KSTC STC20060226123009902/26/06 12:30:31  5-MIN KSTC 261830Z 23006KT 10SM FEW070 M03/M09 A3031 670 60 -1300 230/06 RMK AO2
14926KSTC STC20060226123509602/26/06 12:35:31  5-MIN KSTC 261835Z 25007KT 10SM CLR M03/M09 A3030 670 60 -1300 250/07 RMK AO2
14926KSTC STC20060226124009602/26/06 12:40:31  5-MIN KSTC 261840Z 23006KT 10SM CLR M03/M09 A3030 680 60 -1300 230/06 RMK AO2
14926KSTC STC20060226124509602/26/06 12:45:31  5-MIN KSTC 261845Z 21007KT 10SM CLR M03/M09 A3030 680 60 -1200 210/07 RMK AO2
14926KSTC STC20060226125011302/26/06 12:50:31  5-MIN KSTC 261850Z 23005KT 10SM CLR M02/M09 A3029 680 58 -1200 230/05 RMK AO2 SLP289 T10221094
14926KSTC STC20060226125509602/26/06 12:55:31  5-MIN KSTC 261855Z 26006KT 10SM CLR M02/M10 A3029 690 55 -1200 260/06 RMK AO2
14926KSTC STC20060226130009602/26/06 13:00:31  5-MIN KSTC 261900Z VRB03KT 10SM CLR M02/M09 A3029 690 58 -1200 VRB/03 RMK AO2
14926KSTC STC20060226130509602/26/06 13:05:31  5-MIN KSTC 261905Z 25007KT 10SM CLR M02/M09 A3028 690 58 -1200 250/07 RMK AO2
14926KSTC STC20060226131009602/26/06 13:10:31  5-MIN KSTC 261910Z 23007KT 10SM CLR M02/M10 A3028 690 55 -1200 230/07 RMK AO2
14926KSTC STC20060226131509602/26/06 13:15:31  5-MIN KSTC 261915Z 23006KT 10SM CLR M02/M10 A3028 690 55 -1200 230/06 RMK AO2
14926KSTC STC20060226132009602/26/06 13:20:31  5-MIN KSTC 261920Z 23008KT 10SM CLR M02/M09 A3028 700 55 -1100 220/08 RMK AO2
14926KSTC STC20060226132509602/26/06 13:25:31  5-MIN KSTC 261925Z 22005KT 10SM CLR M02/M09 A3028 700 58 -1200 220/05 RMK AO2
14926KSTC STC20060226133009602/26/06 13:30:31  5-MIN KSTC 261930Z 22007KT 10SM CLR M02/M09 A3027 700 55 -1100 220/07 RMK AO2
14926KSTC STC20060226133509602/26/06 13:35:31  5-MIN KSTC 261935Z 23007KT 10SM CLR M02/M09 A3027 710 55 -1100 230/07 RMK AO2
14926KSTC STC20060226134009602/26/06 13:40:31  5-MIN KSTC 261940Z 21005KT 10SM CLR M02/M09 A3027 710 55 -1100 210/05 RMK AO2
14926KSTC STC20060226134509602/26/06 13:45:31  5-MIN KSTC 261945Z 21005KT 10SM CLR M02/M09 A3026 710 58 -1100 200/05 RMK AO2
14926KSTC STC20060226135011302/26/06 13:50:31  5-MIN KSTC 261950Z VRB04KT 10SM CLR M02/M09 A3026 710 55 -1100 VRB/04 RMK AO2 SLP277 T10171094
14926KSTC STC20060226135509602/26/06 13:55:31  5-MIN KSTC 261955Z 22004KT 10SM CLR M02/M09 A3026 720 58 -1100 220/04 RMK AO2
14926KSTC STC20060226140009602/26/06 14:00:31  5-MIN KSTC 262000Z 23006KT 10SM CLR M02/M09 A3025 720 58 -1100 230/06 RMK AO2
14926KSTC STC20060226140509602/26/06 14:05:31  5-MIN KSTC 262005Z 24003KT 10SM CLR M02/M09 A3025 720 55 -1100 230/03 RMK AO2
14926KSTC STC20060226141009602/26/06 14:10:31  5-MIN KSTC 262010Z 21006KT 10SM CLR M02/M09 A3024 730 58 -1000 210/06 RMK AO2
14926KSTC STC20060226141509602/26/06 14:15:31  5-MIN KSTC 262015Z 22003KT 10SM CLR M01/M08 A3024 730 58 -1000 220/03 RMK AO2
14926KSTC STC20060226142009502/26/06 14:20:31  5-MIN KSTC 262020Z 29006KT 10SM CLR M01/M09 A3024 730 53 -900 290/06 RMK AO2
14926KSTC STC20060226142509502/26/06 14:25:31  5-MIN KSTC 262025Z 28004KT 10SM CLR M01/M10 A3024 730 49 -900 280/04 RMK AO2
14926KSTC STC20060226143009502/26/06 14:30:31  5-MIN KSTC 262030Z 00000KT 10SM CLR M01/M10 A3024 730 49 -900 000/00 RMK AO2
14926KSTC STC20060226143509502/26/06 14:35:31  5-MIN KSTC 262035Z 31004KT 10SM CLR M01/M10 A3024 730 49 -900 310/04 RMK AO2
14926KSTC STC20060226144009502/26/06 14:40:31  5-MIN KSTC 262040Z 29003KT 10SM CLR M01/M10 A3024 730 49 -900 290/03 RMK AO2
14926KSTC STC20060226144509502/26/06 14:45:31  5-MIN KSTC 262045Z 31004KT 10SM CLR M01/M10 A3024 730 49 -900 310/04 RMK AO2
14926KSTC STC20060226145011702/26/06 14:50:31  5-MIN KSTC 262050Z 00000KT 10SM CLR 00/M09 A3024 740 49 -800 000/00 RMK AO2 SLP269 T00001094 58027
14926KSTC STC20060226145509402/26/06 14:55:31  5-MIN KSTC 262055Z 00000KT 10SM CLR 00/M10 A3024 740 47 -800 000/00 RMK AO2
14926KSTC STC20060226150009402/26/06 15:00:31  5-MIN KSTC 262100Z 00000KT 10SM CLR 00/M10 A3024 730 47 -800 000/00 RMK AO2
14926KSTC STC20060226150509502/26/06 15:05:31  5-MIN KSTC 262105Z 32004KT 10SM CLR M01/M09 A3024 730 51 -900 320/04 RMK AO2
14926KSTC STC20060226151009502/26/06 15:10:31  5-MIN KSTC 262110Z 33003KT 10SM CLR M01/M09 A3023 740 51 -900 330/03 RMK AO2
14926KSTC STC20060226151509402/26/06 15:15:31  5-MIN KSTC 262115Z 33005KT 10SM CLR 00/M09 A3023 740 49 -800 320/05 RMK AO2
14926KSTC STC20060226152009502/26/06 15:20:31  5-MIN KSTC 262120Z 33005KT 10SM CLR M01/M09 A3023 740 51 -900 330/05 RMK AO2
14926KSTC STC20060226152509502/26/06 15:25:31  5-MIN KSTC 262125Z 34004KT 10SM CLR M01/M09 A3022 750 51 -900 340/04 RMK AO2
14926KSTC STC20060226153009802/26/06 15:30:31  5-MIN KSTC 262130Z 36004KT 10SM FEW100 M01/M09 A3022 750 51 -900 360/04 RMK AO2
14926KSTC STC20060226153509502/26/06 15:35:31  5-MIN KSTC 262135Z 35004KT 10SM CLR M01/M09 A3022 750 51 -900 350/04 RMK AO2
14926KSTC STC20060226154009502/26/06 15:40:31  5-MIN KSTC 262140Z 35004KT 10SM CLR M01/M09 A3022 750 51 -900 350/04 RMK AO2
14926KSTC STC20060226154509802/26/06 15:45:31  5-MIN KSTC 262145Z 35004KT 10SM FEW095 M01/M09 A3022 750 51 -900 350/04 RMK AO2
14926KSTC STC20060226155011502/26/06 15:50:31  5-MIN KSTC 262150Z 00000KT 10SM SCT095 M01/M09 A3021 760 51 -900 000/00 RMK AO2 SLP261 T10061094
14926KSTC STC20060226155509802/26/06 15:55:31  5-MIN KSTC 262155Z 36004KT 10SM BKN095 M01/M09 A3021 760 51 -900 360/04 RMK AO2
14926KSTC STC20060226160009802/26/06 16:00:31  5-MIN KSTC 262200Z 01004KT 10SM BKN095 M01/M09 A3021 760 51 -900 360/04 RMK AO2
14926KSTC STC20060226160509802/26/06 16:05:31  5-MIN KSTC 262205Z 36004KT 10SM BKN095 M01/M09 A3021 760 51 -900 360/04 RMK AO2
14926KSTC STC20060226161009802/26/06 16:10:31  5-MIN KSTC 262210Z 35004KT 10SM OVC095 M01/M09 A3021 760 51 -900 350/04 RMK AO2
14926KSTC STC20060226161509802/26/06 16:15:31  5-MIN KSTC 262215Z 35003KT 10SM OVC095 M01/M09 A3021 760 53 -900 350/03 RMK AO2
14926KSTC STC20060226162009802/26/06 16:20:31  5-MIN KSTC 262220Z 35003KT 10SM OVC095 M01/M09 A3021 760 53 -900 350/03 RMK AO2
14926KSTC STC20060226162509802/26/06 16:25:31  5-MIN KSTC 262225Z 00000KT 10SM OVC090 M01/M09 A3021 760 53 -900 000/00 RMK AO2
14926KSTC STC20060226163009802/26/06 16:30:31  5-MIN KSTC 262230Z 00000KT 10SM OVC090 M01/M09 A3021 760 53 -900 000/00 RMK AO2
14926KSTC STC20060226163509802/26/06 16:35:31  5-MIN KSTC 262235Z 36006KT 10SM OVC090 M01/M09 A3021 760 55 -900 360/06 RMK AO2
14926KSTC STC20060226164009902/26/06 16:40:31  5-MIN KSTC 262240Z 36006KT 10SM OVC090 M02/M09 A3021 760 58 -1000 360/06 RMK AO2
14926KSTC STC20060226164509902/26/06 16:45:31  5-MIN KSTC 262245Z 36005KT 10SM OVC090 M02/M09 A3021 760 58 -1000 360/05 RMK AO2
14926KSTC STC20060226165011602/26/06 16:50:31  5-MIN KSTC 262250Z 01004KT 10SM OVC090 M02/M09 A3020 770 58 -1000 360/04 RMK AO2 SLP256 T10171089
14926KSTC STC20060226165509902/26/06 16:55:31  5-MIN KSTC 262255Z 01004KT 10SM OVC090 M02/M09 A3020 770 58 -1000 010/04 RMK AO2
14926KSTC STC20060226170009902/26/06 17:00:31  5-MIN KSTC 262300Z 02004KT 10SM OVC090 M02/M09 A3020 770 58 -1000 020/04 RMK AO2
14926KSTC STC20060226170509902/26/06 17:05:31  5-MIN KSTC 262305Z 00000KT 10SM OVC095 M02/M09 A3020 770 55 -1000 000/00 RMK AO2
14926KSTC STC20060226171009902/26/06 17:10:31  5-MIN KSTC 262310Z 00000KT 10SM OVC095 M02/M09 A3020 770 58 -1000 000/00 RMK AO2
14926KSTC STC20060226171509902/26/06 17:15:31  5-MIN KSTC 262315Z 03003KT 10SM OVC095 M02/M09 A3019 770 55 -1000 030/03 RMK AO2
14926KSTC STC20060226172009902/26/06 17:20:31  5-MIN KSTC 262320Z 03003KT 10SM OVC095 M02/M09 A3019 780 55 -1000 030/03 RMK AO2
14926KSTC STC20060226172509902/26/06 17:25:31  5-MIN KSTC 262325Z 02003KT 10SM OVC095 M02/M09 A3019 780 58 -1000 020/03 RMK AO2
14926KSTC STC20060226173009902/26/06 17:30:31  5-MIN KSTC 262330Z 04004KT 10SM OVC095 M02/M09 A3019 780 55 -1000 040/04 RMK AO2
14926KSTC STC20060226173509902/26/06 17:35:31  5-MIN KSTC 262335Z 03003KT 10SM OVC090 M02/M09 A3019 770 55 -1000 030/03 RMK AO2
14926KSTC STC20060226174009902/26/06 17:40:31  5-MIN KSTC 262340Z 00000KT 10SM OVC085 M02/M09 A3019 780 58 -1100 000/00 RMK AO2
14926KSTC STC20060226174509902/26/06 17:45:31  5-MIN KSTC 262345Z 00000KT 10SM OVC080 M02/M09 A3019 780 58 -1100 000/00 RMK AO2
14926KSTC STC20060226175013402/26/06 17:50:31  5-MIN KSTC 262350Z 00000KT 10SM OVC080 M02/M09 A3018 780 58 -1000 000/00 RMK AO2 SLP250 T10221094 10000 21044 56028
14926KSTC STC20060226175509902/26/06 17:55:31  5-MIN KSTC 262355Z 00000KT 10SM OVC080 M02/M09 A3018 790 58 -1000 000/00 RMK AO2
14926KSTC STC20060226180009902/26/06 18:00:31  5-MIN KSTC 270000Z 00000KT 10SM OVC080 M02/M09 A3018 790 58 -1000 000/00 RMK AO2
14926KSTC STC20060226180509902/26/06 18:05:31  5-MIN KSTC 270005Z 00000KT 10SM OVC085 M02/M09 A3018 790 58 -1000 000/00 RMK AO2
14926KSTC STC20060226181009902/26/06 18:10:31  5-MIN KSTC 270010Z 00000KT 10SM OVC090 M02/M09 A3018 780 58 -1000 000/00 RMK AO2
14926KSTC STC20060226181509902/26/06 18:15:31  5-MIN KSTC 270015Z 00000KT 10SM OVC090 M02/M09 A3018 790 58 -1000 000/00 RMK AO2
14926KSTC STC20060226182009902/26/06 18:20:31  5-MIN KSTC 270020Z 01003KT 10SM OVC090 M02/M09 A3018 790 58 -1000 010/03 RMK AO2
14926KSTC STC20060226182509902/26/06 18:25:31  5-MIN KSTC 270025Z 04003KT 10SM OVC090 M03/M09 A3018 790 63 -1100 030/03 RMK AO2
14926KSTC STC20060226183009902/26/06 18:30:31  5-MIN KSTC 270030Z 04004KT 10SM OVC090 M02/M09 A3017 790 60 -1000 040/04 RMK AO2
14926KSTC STC20060226183509902/26/06 18:35:31  5-MIN KSTC 270035Z 04004KT 10SM OVC090 M02/M09 A3017 800 60 -1000 040/04 RMK AO2
14926KSTC STC20060226184009902/26/06 18:40:31  5-MIN KSTC 270040Z 04004KT 10SM OVC090 M02/M09 A3017 800 60 -1000 040/04 RMK AO2
14926KSTC STC20060226184509902/26/06 18:45:31  5-MIN KSTC 270045Z 03004KT 10SM OVC090 M02/M09 A3017 800 58 -1000 030/04 RMK AO2
14926KSTC STC20060226185011602/26/06 18:50:31  5-MIN KSTC 270050Z 04004KT 10SM OVC085 M03/M09 A3017 800 60 -1100 040/04 RMK AO2 SLP245 T10281094
14926KSTC STC20060226185510602/26/06 18:55:31  5-MIN KSTC 270055Z 04004KT 10SM BKN075 OVC090 M03/M09 A3017 790 60 -1100 040/04 RMK AO2
14926KSTC STC20060226190010602/26/06 19:00:31  5-MIN KSTC 270100Z 00000KT 10SM BKN070 OVC095 M03/M09 A3017 790 60 -1100 000/00 RMK AO2
14926KSTC STC20060226190510602/26/06 19:05:31  5-MIN KSTC 270105Z 00000KT 10SM BKN065 OVC090 M03/M09 A3017 790 60 -1100 000/00 RMK AO2
14926KSTC STC20060226191009902/26/06 19:10:31  5-MIN KSTC 270110Z 00000KT 10SM OVC060 M03/M09 A3017 790 60 -1100 000/00 RMK AO2
14926KSTC STC20060226191509902/26/06 19:15:31  5-MIN KSTC 270115Z 00000KT 10SM OVC060 M03/M09 A3018 790 60 -1100 000/00 RMK AO2
14926KSTC STC20060226192009902/26/06 19:20:31  5-MIN KSTC 270120Z 03003KT 10SM OVC060 M03/M09 A3017 790 60 -1100 030/03 RMK AO2
14926KSTC STC20060226192509902/26/06 19:25:31  5-MIN KSTC 270125Z 00000KT 10SM OVC055 M03/M09 A3017 790 60 -1100 000/00 RMK AO2
14926KSTC STC20060226193009902/26/06 19:30:31  5-MIN KSTC 270130Z 03003KT 10SM OVC055 M03/M09 A3018 790 60 -1100 020/03 RMK AO2
14926KSTC STC20060226193509902/26/06 19:35:31  5-MIN KSTC 270135Z 00000KT 10SM OVC055 M03/M09 A3017 790 60 -1100 000/00 RMK AO2
14926KSTC STC20060226194009902/26/06 19:40:31  5-MIN KSTC 270140Z 03003KT 10SM OVC055 M03/M09 A3017 800 60 -1100 030/03 RMK AO2
14926KSTC STC20060226194510602/26/06 19:45:31  5-MIN KSTC 270145Z 03003KT 10SM BKN060 OVC100 M03/M09 A3017 800 60 -1100 020/03 RMK AO2
14926KSTC STC20060226195012302/26/06 19:50:31  5-MIN KSTC 270150Z 04003KT 10SM BKN060 OVC100 M03/M09 A3016 800 60 -1100 030/03 RMK AO2 SLP244 T10281094
14926KSTC STC20060226195510602/26/06 19:55:31  5-MIN KSTC 270155Z 03003KT 10SM BKN060 OVC100 M03/M09 A3016 800 60 -1100 030/03 RMK AO2
14926KSTC STC20060226200010602/26/06 20:00:31  5-MIN KSTC 270200Z 03003KT 10SM BKN060 OVC100 M03/M09 A3016 800 60 -1100 030/03 RMK AO2
14926KSTC STC20060226200510602/26/06 20:05:31  5-MIN KSTC 270205Z 00000KT 10SM BKN070 OVC100 M03/M09 A3016 800 60 -1100 000/00 RMK AO2
14926KSTC STC20060226201010602/26/06 20:10:31  5-MIN KSTC 270210Z 00000KT 10SM BKN070 OVC100 M03/M09 A3016 810 60 -1100 000/00 RMK AO2
14926KSTC STC20060226201510602/26/06 20:15:31  5-MIN KSTC 270215Z 00000KT 10SM BKN070 OVC095 M03/M09 A3016 810 60 -1100 000/00 RMK AO2
14926KSTC STC20060226202010602/26/06 20:20:31  5-MIN KSTC 270220Z 00000KT 10SM BKN070 OVC095 M03/M09 A3016 810 60 -1100 000/00 RMK AO2
14926KSTC STC20060226202510602/26/06 20:25:31  5-MIN KSTC 270225Z 00000KT 10SM BKN065 OVC095 M03/M09 A3015 810 60 -1100 000/00 RMK AO2
14926KSTC STC20060226203010602/26/06 20:30:31  5-MIN KSTC 270230Z 00000KT 10SM BKN060 OVC075 M03/M09 A3015 810 60 -1100 000/00 RMK AO2
14926KSTC STC20060226203510602/26/06 20:35:31  5-MIN KSTC 270235Z 03003KT 10SM BKN055 OVC075 M03/M09 A3015 820 60 -1100 030/03 RMK AO2
14926KSTC STC20060226204009902/26/06 20:40:31  5-MIN KSTC 270240Z 03003KT 10SM OVC048 M03/M09 A3015 820 60 -1100 030/03 RMK AO2
14926KSTC STC20060226204509902/26/06 20:45:31  5-MIN KSTC 270245Z 05003KT 10SM OVC043 M03/M09 A3014 820 60 -1100 040/03 RMK AO2
14926KSTC STC20060226205012202/26/06 20:50:31  5-MIN KSTC 270250Z 05003KT 10SM OVC037 M03/M09 A3015 820 60 -1100 050/03 RMK AO2 SLP235 T10281094 56018
14926KSTC STC20060226205509902/26/06 20:55:31  5-MIN KSTC 270255Z 06003KT 10SM OVC033 M03/M09 A3015 820 60 -1100 060/03 RMK AO2
14926KSTC STC20060226210009902/26/06 21:00:31  5-MIN KSTC 270300Z 06003KT 10SM OVC033 M03/M09 A3015 820 60 -1100 050/03 RMK AO2
14926KSTC STC20060226210510602/26/06 21:05:31  5-MIN KSTC 270305Z 06003KT 10SM BKN039 OVC075 M03/M09 A3014 820 60 -1100 050/03 RMK AO2
14926KSTC STC20060226211010602/26/06 21:10:31  5-MIN KSTC 270310Z 06003KT 10SM BKN048 OVC075 M03/M09 A3014 820 60 -1100 050/03 RMK AO2
14926KSTC STC20060226211509902/26/06 21:15:31  5-MIN KSTC 270315Z 05006KT 10SM OVC055 M03/M10 A3014 820 58 -1100 050/06 RMK AO2
14926KSTC STC20060226212009902/26/06 21:20:31  5-MIN KSTC 270320Z 06006KT 10SM OVC060 M03/M10 A3014 820 60 -1100 050/06 RMK AO2
14926KSTC STC20060226212509902/26/06 21:25:31  5-MIN KSTC 270325Z 07007KT 10SM OVC065 M03/M09 A3014 820 63 -1100 060/07 RMK AO2
14926KSTC STC20060226213010602/26/06 21:30:31  5-MIN KSTC 270330Z 06005KT 10SM BKN065 OVC080 M03/M09 A3014 820 63 -1100 060/05 RMK AO2
14926KSTC STC20060226213510602/26/06 21:35:31  5-MIN KSTC 270335Z 07006KT 10SM BKN065 OVC080 M03/M09 A3014 820 63 -1100 070/06 RMK AO2
14926KSTC STC20060226214010602/26/06 21:40:31  5-MIN KSTC 270340Z 06006KT 10SM BKN065 OVC080 M03/M09 A3014 820 63 -1100 060/06 RMK AO2
14926KSTC STC20060226214510602/26/06 21:45:31  5-MIN KSTC 270345Z 06006KT 10SM BKN065 OVC080 M03/M09 A3014 820 63 -1100 060/06 RMK AO2
14926KSTC STC20060226215012302/26/06 21:50:31  5-MIN KSTC 270350Z 06007KT 10SM BKN060 OVC080 M03/M09 A3014 820 63 -1100 060/07 RMK AO2 SLP234 T10331094
14926KSTC STC20060226215510602/26/06 21:55:31  5-MIN KSTC 270355Z 07006KT 10SM BKN060 OVC080 M03/M09 A3014 820 63 -1100 060/06 RMK AO2
14926KSTC STC20060226220010602/26/06 22:00:31  5-MIN KSTC 270400Z 06008KT 10SM BKN065 OVC080 M03/M09 A3014 820 63 -1100 060/08 RMK AO2
14926KSTC STC20060226220510602/26/06 22:05:31  5-MIN KSTC 270405Z 06007KT 10SM BKN065 OVC080 M04/M10 A3015 820 63 -1200 060/07 RMK AO2
14926KSTC STC20060226221010602/26/06 22:10:31  5-MIN KSTC 270410Z 06009KT 10SM BKN070 OVC085 M04/M10 A3014 820 63 -1200 060/09 RMK AO2
14926KSTC STC20060226221510602/26/06 22:15:31  5-MIN KSTC 270415Z 07009KT 10SM BKN075 OVC090 M04/M10 A3014 820 63 -1200 070/09 RMK AO2
14926KSTC STC20060226222009902/26/06 22:20:31  5-MIN KSTC 270420Z 06009KT 10SM OVC080 M04/M10 A3014 830 63 -1200 060/09 RMK AO2
14926KSTC STC20060226222509902/26/06 22:25:31  5-MIN KSTC 270425Z 06007KT 10SM OVC080 M04/M10 A3014 820 63 -1200 050/07 RMK AO2
14926KSTC STC20060226223009902/26/06 22:30:31  5-MIN KSTC 270430Z 06008KT 10SM OVC080 M04/M10 A3014 820 63 -1200 060/08 RMK AO2
14926KSTC STC20060226223509902/26/06 22:35:31  5-MIN KSTC 270435Z 06007KT 10SM OVC080 M04/M09 A3014 820 65 -1200 050/07 RMK AO2
14926KSTC STC20060226224009902/26/06 22:40:31  5-MIN KSTC 270440Z 05007KT 10SM OVC080 M04/M09 A3014 830 68 -1300 050/07 RMK AO2
14926KSTC STC20060226224509902/26/06 22:45:31  5-MIN KSTC 270445Z 05007KT 10SM OVC080 M04/M09 A3013 830 68 -1300 050/07 RMK AO2
14926KSTC STC20060226225012102/26/06 22:50:31  5-MIN KSTC 270450Z AUTO 06007KT 10SM OVC080 M04/M09 A3013 830 71 -1300 050/07 RMK AO2 SLP229 T10441089
14926KSTC STC20060226225510402/26/06 22:55:31  5-MIN KSTC 270455Z AUTO 06007KT 10SM OVC080 M04/M09 A3013 830 71 -1300 060/07 RMK AO2
14926KSTC STC20060226230010302/26/06 23:00:31  5-MIN KSTC 270500Z AUTO 07007KT 9SM OVC080 M04/M09 A3013 830 71 -1300 060/07 RMK AO2
14926KSTC STC20060226230510302/26/06 23:05:31  5-MIN KSTC 270505Z AUTO 07008KT 9SM OVC080 M04/M09 A3012 840 71 -1300 060/08 RMK AO2
14926KSTC STC20060226231010402/26/06 23:10:31  5-MIN KSTC 270510Z AUTO 05011KT 10SM OVC080 M04/M09 A3012 840 71 -1300 050/11 RMK AO2
14926KSTC STC20060226231510402/26/06 23:15:31  5-MIN KSTC 270515Z AUTO 06010KT 10SM OVC080 M04/M09 A3012 840 71 -1300 060/10 RMK AO2
14926KSTC STC20060226232011102/26/06 23:20:31  5-MIN KSTC 270520Z AUTO 06008KT 10SM BKN085 OVC100 M04/M09 A3012 840 68 -1300 060/08 RMK AO2
14926KSTC STC20060226232510402/26/06 23:25:31  5-MIN KSTC 270525Z AUTO 06007KT 10SM OVC090 M04/M09 A3012 850 68 -1300 060/07 RMK AO2
14926KSTC STC20060226233010402/26/06 23:30:31  5-MIN KSTC 270530Z AUTO 07007KT 10SM OVC090 M04/M09 A3011 850 68 -1300 060/07 RMK AO2
14926KSTC STC20060226233510402/26/06 23:35:31  5-MIN KSTC 270535Z AUTO 06008KT 10SM OVC090 M04/M09 A3011 850 68 -1200 050/08 RMK AO2
14926KSTC STC20060226234010402/26/06 23:40:31  5-MIN KSTC 270540Z AUTO 06007KT 10SM OVC090 M04/M09 A3011 850 68 -1200 060/07 RMK AO2
14926KSTC STC20060226234510402/26/06 23:45:31  5-MIN KSTC 270545Z AUTO 06007KT 10SM OVC090 M04/M10 A3011 850 65 -1200 060/07 RMK AO2
14926KSTC STC20060226235014902/26/06 23:50:31  5-MIN KSTC 270550Z AUTO 06008KT 10SM OVC085 M04/M10 A3010 860 65 -1200 060/08 RMK AO2 SLP219 T10441100 11022 21044 400001200 58012
14926KSTC STC20060226235510402/26/06 23:55:31  5-MIN KSTC 270555Z AUTO 07009KT 10SM OVC085 M04/M10 A3010 860 65 -1200 070/09 RMK AO2
14926KSTC STC20060227000010402/27/06 00:00:32  5-MIN KSTC 270600Z AUTO 06007KT 10SM OVC085 M04/M10 A3010 860 65 -1200 060/07 RMK AO2
14926KSTC STC20060227000510402/27/06 00:05:31  5-MIN KSTC 270605Z AUTO 07008KT 10SM OVC085 M04/M10 A3010 860 65 -1200 060/08 RMK AO2
14926KSTC STC20060227001010402/27/06 00:10:31  5-MIN KSTC 270610Z AUTO 07007KT 10SM OVC080 M04/M10 A3010 860 65 -1200 070/07 RMK AO2
14926KSTC STC20060227001510402/27/06 00:15:31  5-MIN KSTC 270615Z AUTO 07008KT 10SM OVC080 M04/M10 A3009 870 65 -1200 070/08 RMK AO2
14926KSTC STC20060227002010402/27/06 00:20:31  5-MIN KSTC 270620Z AUTO 07007KT 10SM OVC080 M04/M10 A3009 870 65 -1200 060/07 RMK AO2
14926KSTC STC20060227002510402/27/06 00:25:31  5-MIN KSTC 270625Z AUTO 06009KT 10SM OVC080 M04/M10 A3009 870 65 -1200 060/09 RMK AO2
14926KSTC STC20060227003011102/27/06 00:30:31  5-MIN KSTC 270630Z AUTO 07007KT 10SM BKN080 OVC095 M04/M10 A3009 870 65 -1200 060/07 RMK AO2
14926KSTC STC20060227003510402/27/06 00:35:31  5-MIN KSTC 270635Z AUTO 06008KT 10SM OVC080 M05/M10 A3009 870 68 -1300 060/08 RMK AO2
14926KSTC STC20060227004010402/27/06 00:40:31  5-MIN KSTC 270640Z AUTO 06009KT 10SM OVC080 M05/M11 A3009 870 65 -1300 060/09 RMK AO2
14926KSTC STC20060227004510402/27/06 00:45:31  5-MIN KSTC 270645Z AUTO 06009KT 10SM OVC080 M05/M11 A3008 870 65 -1300 060/09 RMK AO2
14926KSTC STC20060227005012102/27/06 00:50:31  5-MIN KSTC 270650Z AUTO 06008KT 10SM OVC080 M05/M11 A3008 880 65 -1300 050/08 RMK AO2 SLP211 T10501106
14926KSTC STC20060227005510402/27/06 00:55:31  5-MIN KSTC 270655Z AUTO 07008KT 10SM OVC080 M05/M11 A3009 870 62 -1300 060/08 RMK AO2
14926KSTC STC20060227010010402/27/06 01:00:31  5-MIN KSTC 270700Z AUTO 07008KT 10SM OVC080 M05/M12 A3008 870 60 -1300 060/08 RMK AO2
14926KSTC STC20060227010510402/27/06 01:05:31  5-MIN KSTC 270705Z AUTO 07008KT 10SM OVC080 M05/M12 A3009 870 60 -1300 060/08 RMK AO2
14926KSTC STC20060227011011002/27/06 01:10:31  5-MIN KSTC 270710Z AUTO 07013G16KT 10SM OVC080 M05/M12 A3008 880 60 -1300 070/13G16 RMK AO2
14926KSTC STC20060227011511702/27/06 01:15:31  5-MIN KSTC 270715Z AUTO 07008G16KT 10SM BKN080 OVC110 M06/M12 A3008 880 62 -1400 060/08G16 RMK AO2
14926KSTC STC20060227012011102/27/06 01:20:31  5-MIN KSTC 270720Z AUTO 07007KT 10SM BKN080 OVC110 M06/M11 A3008 880 65 -1400 070/07 RMK AO2
14926KSTC STC20060227012511702/27/06 01:25:31  5-MIN KSTC 270725Z AUTO 06009G14KT 10SM BKN080 OVC100 M06/M12 A3008 880 62 -1400 060/09G14 RMK AO2
14926KSTC STC20060227013011702/27/06 01:30:31  5-MIN KSTC 270730Z AUTO 07009G14KT 10SM BKN090 OVC100 M06/M11 A3008 880 65 -1400 070/09G14 RMK AO2
14926KSTC STC20060227013510402/27/06 01:35:31  5-MIN KSTC 270735Z AUTO 07008KT 10SM OVC100 M06/M11 A3008 880 65 -1400 070/08 RMK AO2
14926KSTC STC20060227014010402/27/06 01:40:31  5-MIN KSTC 270740Z AUTO 08007KT 10SM OVC100 M06/M11 A3008 880 65 -1400 070/07 RMK AO2
14926KSTC STC20060227014510402/27/06 01:45:31  5-MIN KSTC 270745Z AUTO 08010KT 10SM OVC100 M06/M11 A3008 880 65 -1400 070/10 RMK AO2
14926KSTC STC20060227015012102/27/06 01:50:31  5-MIN KSTC 270750Z AUTO 07009KT 10SM OVC100 M06/M12 A3008 880 65 -1400 070/09 RMK AO2 SLP211 T10611117
14926KSTC STC20060227015510402/27/06 01:55:31  5-MIN KSTC 270755Z AUTO 07010KT 10SM OVC100 M06/M12 A3008 880 65 -1400 070/10 RMK AO2
14926KSTC STC20060227020010402/27/06 02:00:31  5-MIN KSTC 270800Z AUTO 08010KT 10SM OVC095 M06/M12 A3008 880 65 -1400 070/10 RMK AO2
14926KSTC STC20060227020510402/27/06 02:05:31  5-MIN KSTC 270805Z AUTO 07008KT 10SM OVC090 M06/M12 A3008 880 65 -1400 070/08 RMK AO2
14926KSTC STC20060227021010402/27/06 02:10:31  5-MIN KSTC 270810Z AUTO 07008KT 10SM OVC090 M06/M12 A3008 880 62 -1400 070/08 RMK AO2
14926KSTC STC20060227021510402/27/06 02:15:31  5-MIN KSTC 270815Z AUTO 09008KT 10SM OVC090 M06/M12 A3008 880 65 -1400 080/08 RMK AO2
14926KSTC STC20060227022010402/27/06 02:20:31  5-MIN KSTC 270820Z AUTO 09010KT 10SM OVC090 M06/M12 A3008 880 62 -1400 080/10 RMK AO2
14926KSTC STC20060227022510402/27/06 02:25:31  5-MIN KSTC 270825Z AUTO 07009KT 10SM OVC090 M06/M12 A3008 880 62 -1400 070/09 RMK AO2
14926KSTC STC20060227023010402/27/06 02:30:31  5-MIN KSTC 270830Z AUTO 07010KT 10SM OVC090 M06/M12 A3007 890 62 -1400 070/10 RMK AO2
14926KSTC STC20060227023510402/27/06 02:35:31  5-MIN KSTC 270835Z AUTO 06010KT 10SM OVC095 M07/M12 A3007 890 65 -1500 060/10 RMK AO2
14926KSTC STC20060227024011102/27/06 02:40:31  5-MIN KSTC 270840Z AUTO 06009KT 10SM BKN090 OVC100 M07/M13 A3007 890 62 -1500 060/09 RMK AO2
14926KSTC STC20060227024510402/27/06 02:45:31  5-MIN KSTC 270845Z AUTO 07009KT 10SM OVC085 M07/M12 A3007 890 65 -1500 070/09 RMK AO2
14926KSTC STC20060227025012702/27/06 02:50:31  5-MIN KSTC 270850Z AUTO 07008KT 10SM OVC090 M07/M12 A3007 890 65 -1500 070/08 RMK AO2 SLP206 T10671122 58013
14926KSTC STC20060227025510402/27/06 02:55:31  5-MIN KSTC 270855Z AUTO 07007KT 10SM OVC090 M07/M13 A3007 890 62 -1500 060/07 RMK AO2
14926KSTC STC20060227030010402/27/06 03:00:31  5-MIN KSTC 270900Z AUTO 07007KT 10SM OVC090 M07/M12 A3007 890 65 -1500 070/07 RMK AO2
14926KSTC STC20060227030511102/27/06 03:05:31  5-MIN KSTC 270905Z AUTO 08008KT 10SM SCT080 OVC100 M07/M12 A3006 890 65 -1500 070/08 RMK AO2
14926KSTC STC20060227031010402/27/06 03:10:31  5-MIN KSTC 270910Z AUTO 08008KT 10SM OVC095 M07/M12 A3006 900 65 -1500 080/08 RMK AO2
14926KSTC STC20060227031510402/27/06 03:15:31  5-MIN KSTC 270915Z AUTO 08007KT 10SM OVC095 M07/M13 A3006 900 62 -1500 080/07 RMK AO2
14926KSTC STC20060227032010402/27/06 03:20:31  5-MIN KSTC 270920Z AUTO 07009KT 10SM OVC095 M07/M13 A3006 900 62 -1500 070/09 RMK AO2
14926KSTC STC20060227032510402/27/06 03:25:31  5-MIN KSTC 270925Z AUTO 07008KT 10SM OVC095 M07/M13 A3006 900 62 -1500 070/08 RMK AO2
14926KSTC STC20060227033010402/27/06 03:30:31  5-MIN KSTC 270930Z AUTO 08008KT 10SM OVC095 M07/M13 A3005 900 62 -1500 080/08 RMK AO2
14926KSTC STC20060227033510402/27/06 03:35:31  5-MIN KSTC 270935Z AUTO 07005KT 10SM OVC090 M07/M13 A3005 910 62 -1500 070/05 RMK AO2
14926KSTC STC20060227034010402/27/06 03:40:31  5-MIN KSTC 270940Z AUTO 08009KT 10SM OVC090 M07/M13 A3005 910 62 -1500 080/09 RMK AO2
14926KSTC STC20060227034511102/27/06 03:45:31  5-MIN KSTC 270945Z AUTO 07006KT 10SM FEW080 OVC095 M07/M13 A3005 910 62 -1500 070/06 RMK AO2
14926KSTC STC20060227035012102/27/06 03:50:31  5-MIN KSTC 270950Z AUTO 07007KT 10SM OVC100 M07/M13 A3004 910 59 -1500 070/07 RMK AO2 SLP198 T10671133
14926KSTC STC20060227035510402/27/06 03:55:31  5-MIN KSTC 270955Z AUTO 06007KT 10SM OVC100 M07/M13 A3005 910 59 -1500 060/07 RMK AO2
14926KSTC STC20060227040011102/27/06 04:00:31  5-MIN KSTC 271000Z AUTO 07007KT 10SM BKN090 OVC110 M07/M13 A3005 910 59 -1500 060/07 RMK AO2
14926KSTC STC20060227040511102/27/06 04:05:31  5-MIN KSTC 271005Z AUTO 06008KT 10SM BKN090 OVC110 M07/M13 A3005 910 59 -1500 060/08 RMK AO2
14926KSTC STC20060227041010402/27/06 04:10:31  5-MIN KSTC 271010Z AUTO 06009KT 10SM OVC100 M07/M13 A3004 910 59 -1500 060/09 RMK AO2
14926KSTC STC20060227041510402/27/06 04:15:31  5-MIN KSTC 271015Z AUTO 07007KT 10SM OVC100 M07/M13 A3004 910 59 -1500 070/07 RMK AO2
14926KSTC STC20060227042010402/27/06 04:20:31  5-MIN KSTC 271020Z AUTO 07009KT 10SM OVC100 M07/M13 A3004 920 59 -1500 070/09 RMK AO2
14926KSTC STC20060227042510402/27/06 04:25:31  5-MIN KSTC 271025Z AUTO 07007KT 10SM OVC100 M07/M13 A3004 920 59 -1500 070/07 RMK AO2
14926KSTC STC20060227043010402/27/06 04:30:31  5-MIN KSTC 271030Z AUTO 07008KT 10SM OVC100 M07/M13 A3004 920 59 -1500 070/08 RMK AO2
14926KSTC STC20060227043510402/27/06 04:35:31  5-MIN KSTC 271035Z AUTO 07008KT 10SM OVC100 M07/M13 A3004 920 59 -1400 070/08 RMK AO2
14926KSTC STC20060227044010402/27/06 04:40:31  5-MIN KSTC 271040Z AUTO 07008KT 10SM OVC100 M07/M13 A3004 920 59 -1500 070/08 RMK AO2
14926KSTC STC20060227044510402/27/06 04:45:31  5-MIN KSTC 271045Z AUTO 07009KT 10SM BKN110 M07/M13 A3004 920 62 -1400 070/09 RMK AO2
14926KSTC STC20060227045012102/27/06 04:50:31  5-MIN KSTC 271050Z AUTO 08007KT 10SM BKN110 M07/M13 A3004 920 62 -1500 070/07 RMK AO2 SLP196 T10671128
14926KSTC STC20060227045510402/27/06 04:55:31  5-MIN KSTC 271055Z AUTO 09011KT 10SM OVC110 M07/M13 A3004 910 62 -1500 090/11 RMK AO2
14926KSTC STC20060227050010402/27/06 05:00:31  5-MIN KSTC 271100Z AUTO 07007KT 10SM OVC110 M07/M13 A3004 920 62 -1500 070/07 RMK AO2
14926KSTC STC20060227050510402/27/06 05:05:31  5-MIN KSTC 271105Z AUTO 07010KT 10SM OVC120 M07/M13 A3004 920 62 -1500 070/10 RMK AO2
14926KSTC STC20060227051010402/27/06 05:10:31  5-MIN KSTC 271110Z AUTO 08009KT 10SM OVC120 M07/M13 A3004 920 62 -1500 080/09 RMK AO2
14926KSTC STC20060227051510402/27/06 05:15:31  5-MIN KSTC 271115Z AUTO 08008KT 10SM OVC120 M07/M13 A3004 920 65 -1500 080/08 RMK AO2
14926KSTC STC20060227052010402/27/06 05:20:31  5-MIN KSTC 271120Z AUTO 08009KT 10SM OVC120 M07/M13 A3003 920 65 -1500 070/09 RMK AO2
14926KSTC STC20060227052510402/27/06 05:25:31  5-MIN KSTC 271125Z AUTO 08009KT 10SM OVC120 M07/M13 A3003 920 65 -1500 080/09 RMK AO2
14926KSTC STC20060227053010402/27/06 05:30:31  5-MIN KSTC 271130Z AUTO 08009KT 10SM OVC120 M07/M13 A3003 920 65 -1500 070/09 RMK AO2
14926KSTC STC20060227053510402/27/06 05:35:31  5-MIN KSTC 271135Z AUTO 07008KT 10SM OVC120 M07/M13 A3004 910 65 -1500 070/08 RMK AO2
14926KSTC STC20060227054010402/27/06 05:40:31  5-MIN KSTC 271140Z AUTO VRB05KT 10SM OVC120 M07/M13 A3005 910 65 -1500 VRB/05 RMK AO2
14926KSTC STC20060227054510402/27/06 05:45:31  5-MIN KSTC 271145Z AUTO 08009KT 10SM OVC120 M07/M13 A3004 920 65 -1500 070/09 RMK AO2
14926KSTC STC20060227055013902/27/06 05:50:31  5-MIN KSTC 271150Z AUTO 07010KT 10SM BKN120 M07/M13 A3003 920 65 -1500 070/10 RMK AO2 SLP194 T10721128 11044 21072 56012
14926KSTC STC20060227055510402/27/06 05:55:31  5-MIN KSTC 271155Z AUTO 07009KT 10SM BKN120 M07/M13 A3003 920 65 -1500 070/09 RMK AO2
14926KSTC STC20060227060010402/27/06 06:00:31  5-MIN KSTC 271200Z AUTO 07010KT 10SM SCT120 M07/M13 A3004 920 65 -1500 070/10 RMK AO2
14926KSTC STC20060227060510402/27/06 06:05:31  5-MIN KSTC 271205Z AUTO 07008KT 10SM FEW120 M07/M13 A3003 920 62 -1500 070/08 RMK AO2
14926KSTC STC20060227061010402/27/06 06:10:31  5-MIN KSTC 271210Z AUTO 08008KT 10SM FEW120 M07/M13 A3003 920 65 -1500 070/08 RMK AO2
14926KSTC STC20060227061510402/27/06 06:15:31  5-MIN KSTC 271215Z AUTO 07008KT 10SM SCT110 M07/M13 A3003 920 65 -1500 070/08 RMK AO2
14926KSTC STC20060227062010402/27/06 06:20:31  5-MIN KSTC 271220Z AUTO 07009KT 10SM BKN110 M07/M13 A3004 920 62 -1500 060/09 RMK AO2
14926KSTC STC20060227062510402/27/06 06:25:31  5-MIN KSTC 271225Z AUTO 07008KT 10SM BKN100 M07/M13 A3003 920 62 -1500 070/08 RMK AO2
14926KSTC STC20060227063010402/27/06 06:30:31  5-MIN KSTC 271230Z AUTO 08009KT 10SM BKN100 M07/M13 A3002 930 65 -1500 070/09 RMK AO2
14926KSTC STC20060227063510402/27/06 06:35:31  5-MIN KSTC 271235Z AUTO 07009KT 10SM OVC100 M07/M13 A3003 930 62 -1500 070/09 RMK AO2
14926KSTC STC20060227064010402/27/06 06:40:31  5-MIN KSTC 271240Z AUTO 06008KT 10SM OVC100 M07/M13 A3003 920 65 -1500 060/08 RMK AO2
14926KSTC STC20060227064510402/27/06 06:45:31  5-MIN KSTC 271245Z AUTO 07007KT 10SM OVC100 M07/M13 A3004 910 62 -1500 070/07 RMK AO2
14926KSTC STC20060227065012702/27/06 06:50:31  5-MIN KSTC 271250Z AUTO 07006G14KT 10SM OVC100 M07/M13 A3004 910 62 -1500 060/06G14 RMK AO2 SLP198 T10721133
14926KSTC STC20060227065510402/27/06 06:55:31  5-MIN KSTC 271255Z AUTO 07007KT 10SM OVC100 M07/M13 A3004 910 62 -1500 070/07 RMK AO2
14926KSTC STC20060227070009902/27/06 07:00:31  5-MIN KSTC 271300Z 08006KT 10SM OVC100 M07/M13 A3004 910 62 -1500 080/06 RMK AO2
14926KSTC STC20060227070509902/27/06 07:05:31  5-MIN KSTC 271305Z 08008KT 10SM OVC100 M07/M13 A3004 920 62 -1500 080/08 RMK AO2
14926KSTC STC20060227071009902/27/06 07:10:31  5-MIN KSTC 271310Z 07006KT 10SM OVC100 M07/M13 A3003 920 62 -1500 070/06 RMK AO2
14926KSTC STC20060227071509902/27/06 07:15:31  5-MIN KSTC 271315Z 08007KT 10SM OVC100 M07/M13 A3004 920 62 -1500 070/07 RMK AO2
14926KSTC STC20060227072009902/27/06 07:20:31  5-MIN KSTC 271320Z 07009KT 10SM OVC100 M07/M13 A3004 920 62 -1500 070/09 RMK AO2
14926KSTC STC20060227072510602/27/06 07:25:31  5-MIN KSTC 271325Z 08010KT 10SM BKN100 OVC120 M07/M13 A3004 920 62 -1500 080/10 RMK AO2
14926KSTC STC20060227073010602/27/06 07:30:31  5-MIN KSTC 271330Z 08010KT 10SM BKN100 BKN120 M07/M13 A3004 910 62 -1500 070/10 RMK AO2
14926KSTC STC20060227073510602/27/06 07:35:31  5-MIN KSTC 271335Z 07008KT 10SM SCT100 BKN120 M07/M13 A3004 910 62 -1500 070/08 RMK AO2
14926KSTC STC20060227074010602/27/06 07:40:31  5-MIN KSTC 271340Z 07009KT 10SM SCT095 BKN120 M07/M13 A3005 910 62 -1500 060/09 RMK AO2
14926KSTC STC20060227074510602/27/06 07:45:31  5-MIN KSTC 271345Z 07008KT 10SM FEW100 BKN120 M07/M13 A3004 910 62 -1500 060/08 RMK AO2
14926KSTC STC20060227075012302/27/06 07:50:31  5-MIN KSTC 271350Z 07009KT 10SM FEW095 BKN120 M07/M13 A3004 910 62 -1500 070/09 RMK AO2 SLP199 T10721133
14926KSTC STC20060227075510602/27/06 07:55:31  5-MIN KSTC 271355Z 07006KT 10SM FEW095 BKN120 M07/M13 A3004 910 62 -1500 070/06 RMK AO2
14926KSTC STC20060227080009902/27/06 08:00:31  5-MIN KSTC 271400Z 07009KT 10SM BKN120 M07/M13 A3004 910 62 -1500 070/09 RMK AO2
14926KSTC STC20060227080509902/27/06 08:05:31  5-MIN KSTC 271405Z 08011KT 10SM BKN120 M07/M13 A3004 920 65 -1500 080/11 RMK AO2
14926KSTC STC20060227081009902/27/06 08:10:31  5-MIN KSTC 271410Z 07009KT 10SM BKN120 M07/M13 A3005 910 62 -1500 060/09 RMK AO2
14926KSTC STC20060227081509902/27/06 08:15:31  5-MIN KSTC 271415Z 07007KT 10SM BKN120 M07/M13 A3005 910 62 -1500 060/07 RMK AO2
14926KSTC STC20060227082009902/27/06 08:20:31  5-MIN KSTC 271420Z 07009KT 10SM BKN120 M07/M13 A3004 910 62 -1500 060/09 RMK AO2
14926KSTC STC20060227082510502/27/06 08:25:31  5-MIN KSTC 271425Z 08009G15KT 10SM BKN120 M07/M13 A3004 910 62 -1500 080/09G15 RMK AO2
14926KSTC STC20060227083010502/27/06 08:30:31  5-MIN KSTC 271430Z 07007G15KT 10SM BKN120 M07/M13 A3004 910 62 -1500 070/07G15 RMK AO2
14926KSTC STC20060227083509902/27/06 08:35:31  5-MIN KSTC 271435Z 08009KT 10SM BKN120 M07/M13 A3005 910 62 -1500 080/09 RMK AO2
14926KSTC STC20060227084009902/27/06 08:40:31  5-MIN KSTC 271440Z 08008KT 10SM BKN120 M07/M13 A3005 910 62 -1500 070/08 RMK AO2
14926KSTC STC20060227084509902/27/06 08:45:31  5-MIN KSTC 271445Z 06009KT 10SM BKN120 M07/M13 A3005 910 59 -1500 060/09 RMK AO2
14926KSTC STC20060227085012202/27/06 08:50:31  5-MIN KSTC 271450Z 07008KT 10SM BKN120 M07/M13 A3005 910 59 -1500 060/08 RMK AO2 SLP201 T10671133 56013
14926KSTC STC20060227085509902/27/06 08:55:31  5-MIN KSTC 271455Z 06009KT 10SM BKN120 M07/M13 A3005 900 62 -1500 060/09 RMK AO2
14926KSTC STC20060227090009902/27/06 09:00:31  5-MIN KSTC 271500Z 06007KT 10SM BKN120 M07/M13 A3006 900 59 -1500 060/07 RMK AO2
14926KSTC STC20060227090509902/27/06 09:05:31  5-MIN KSTC 271505Z 07009KT 10SM BKN110 M07/M13 A3006 900 59 -1500 070/09 RMK AO2
14926KSTC STC20060227091009902/27/06 09:10:31  5-MIN KSTC 271510Z 07010KT 10SM BKN110 M07/M13 A3006 900 59 -1500 070/10 RMK AO2
14926KSTC STC20060227091509902/27/06 09:15:31  5-MIN KSTC 271515Z 07010KT 10SM BKN120 M07/M13 A3005 910 59 -1500 060/10 RMK AO2
14926KSTC STC20060227092009902/27/06 09:20:31  5-MIN KSTC 271520Z 07012KT 10SM BKN120 M07/M13 A3005 910 59 -1500 060/12 RMK AO2
14926KSTC STC20060227092509902/27/06 09:25:31  5-MIN KSTC 271525Z 07007KT 10SM BKN110 M07/M13 A3005 900 59 -1500 070/07 RMK AO2
14926KSTC STC20060227093009902/27/06 09:30:31  5-MIN KSTC 271530Z 08008KT 10SM OVC110 M07/M13 A3006 900 59 -1500 080/08 RMK AO2
14926KSTC STC20060227093509902/27/06 09:35:31  5-MIN KSTC 271535Z 08009KT 10SM OVC110 M06/M13 A3006 900 57 -1400 070/09 RMK AO2
14926KSTC STC20060227094009902/27/06 09:40:31  5-MIN KSTC 271540Z 07010KT 10SM BKN110 M06/M13 A3006 900 57 -1400 070/10 RMK AO2
14926KSTC STC20060227094509902/27/06 09:45:31  5-MIN KSTC 271545Z 07011KT 10SM BKN110 M06/M13 A3006 900 57 -1400 070/11 RMK AO2
14926KSTC STC20060227095011602/27/06 09:50:31  5-MIN KSTC 271550Z 07010KT 10SM BKN110 M06/M13 A3006 900 57 -1400 070/10 RMK AO2 SLP204 T10611133
14926KSTC STC20060227095509902/27/06 09:55:31  5-MIN KSTC 271555Z 08009KT 10SM BKN110 M06/M13 A3006 900 57 -1400 080/09 RMK AO2
14926KSTC STC20060227100009902/27/06 10:00:31  5-MIN KSTC 271600Z 09009KT 10SM SCT110 M06/M13 A3006 900 59 -1400 080/09 RMK AO2
14926KSTC STC20060227100509902/27/06 10:05:31  5-MIN KSTC 271605Z 07009KT 10SM SCT100 M06/M13 A3006 890 57 -1300 070/09 RMK AO2
14926KSTC STC20060227101009902/27/06 10:10:31  5-MIN KSTC 271610Z 07007KT 10SM SCT100 M06/M13 A3006 900 57 -1300 070/07 RMK AO2
14926KSTC STC20060227101509902/27/06 10:15:31  5-MIN KSTC 271615Z 07010KT 10SM SCT100 M06/M13 A3006 900 54 -1300 060/10 RMK AO2
14926KSTC STC20060227102009902/27/06 10:20:31  5-MIN KSTC 271620Z 06008KT 10SM FEW100 M06/M13 A3006 900 57 -1300 060/08 RMK AO2
14926KSTC STC20060227102509902/27/06 10:25:31  5-MIN KSTC 271625Z 09009KT 10SM FEW100 M06/M13 A3005 900 57 -1300 080/09 RMK AO2
14926KSTC STC20060227103009902/27/06 10:30:31  5-MIN KSTC 271630Z 09010KT 10SM FEW100 M05/M13 A3005 910 55 -1200 080/10 RMK AO2
14926KSTC STC20060227103509902/27/06 10:35:31  5-MIN KSTC 271635Z 07008KT 10SM FEW100 M05/M13 A3005 900 55 -1300 070/08 RMK AO2
14926KSTC STC20060227104009602/27/06 10:40:31  5-MIN KSTC 271640Z 08009KT 10SM CLR M05/M13 A3005 900 55 -1300 080/09 RMK AO2
14926KSTC STC20060227104509602/27/06 10:45:31  5-MIN KSTC 271645Z 08008KT 10SM CLR M05/M13 A3005 900 55 -1300 070/08 RMK AO2
14926KSTC STC20060227105011302/27/06 10:50:31  5-MIN KSTC 271650Z 07007KT 10SM CLR M04/M13 A3005 900 52 -1200 070/07 RMK AO2 SLP202 T10441128
14926KSTC STC20060227105509902/27/06 10:55:31  5-MIN KSTC 271655Z 07007KT 10SM FEW090 M04/M13 A3006 900 52 -1200 070/07 RMK AO2
14926KSTC STC20060227110009902/27/06 11:00:31  5-MIN KSTC 271700Z 07007KT 10SM FEW090 M04/M13 A3006 900 52 -1200 070/07 RMK AO2
14926KSTC STC20060227110509902/27/06 11:05:31  5-MIN KSTC 271705Z 09009KT 10SM FEW090 M04/M13 A3005 900 52 -1200 090/09 RMK AO2
14926KSTC STC20060227111009902/27/06 11:10:31  5-MIN KSTC 271710Z 08008KT 10SM FEW090 M04/M13 A3006 900 52 -1200 080/08 RMK AO2
14926KSTC STC20060227111509902/27/06 11:15:31  5-MIN KSTC 271715Z 08010KT 10SM FEW090 M04/M13 A3005 900 50 -1100 070/10 RMK AO2
14926KSTC STC20060227112009902/27/06 11:20:31  5-MIN KSTC 271720Z 08010KT 10SM FEW090 M04/M13 A3006 900 50 -1100 080/10 RMK AO2
14926KSTC STC20060227112509602/27/06 11:25:31  5-MIN KSTC 271725Z 09011KT 10SM CLR M04/M13 A3006 900 52 -1200 080/11 RMK AO2
14926KSTC STC20060227113011202/27/06 11:30:31  5-MIN KSTC 271730Z 09007KT 050V110 10SM CLR M04/M13 A3006 900 50 -1100 090/07 050V110 RMK AO2
14926KSTC STC20060227113509602/27/06 11:35:31  5-MIN KSTC 271735Z 08011KT 10SM CLR M04/M13 A3005 900 50 -1100 080/11 RMK AO2
14926KSTC STC20060227114009602/27/06 11:40:31  5-MIN KSTC 271740Z 07007KT 10SM CLR M04/M13 A3006 900 50 -1100 060/07 RMK AO2
14926KSTC STC20060227114509602/27/06 11:45:31  5-MIN KSTC 271745Z 06008KT 10SM CLR M04/M12 A3005 900 52 -1100 060/08 RMK AO2
14926KSTC STC20060227115013102/27/06 11:50:31  5-MIN KSTC 271750Z 07009KT 10SM CLR M03/M12 A3005 900 50 -1000 070/09 RMK AO2 SLP201 T10331122 11033 21072 51007
14926KSTC STC20060227115509602/27/06 11:55:31  5-MIN KSTC 271755Z 08010KT 10SM CLR M03/M12 A3006 900 50 -1000 070/10 RMK AO2
14926KSTC STC20060227120009602/27/06 12:00:31  5-MIN KSTC 271800Z 07009KT 10SM CLR M03/M12 A3006 900 50 -1000 070/09 RMK AO2
14926KSTC STC20060227120509602/27/06 12:05:31  5-MIN KSTC 271805Z 07010KT 10SM CLR M03/M12 A3005 910 50 -1000 060/10 RMK AO2
14926KSTC STC20060227121009602/27/06 12:10:31  5-MIN KSTC 271810Z 07008KT 10SM CLR M03/M12 A3005 900 50 -1000 070/08 RMK AO2
14926KSTC STC20060227121509602/27/06 12:15:31  5-MIN KSTC 271815Z 06009KT 10SM CLR M03/M12 A3005 900 50 -1000 060/09 RMK AO2
14926KSTC STC20060227122009602/27/06 12:20:31  5-MIN KSTC 271820Z 06010KT 10SM CLR M03/M12 A3005 900 50 -1000 060/10 RMK AO2
14926KSTC STC20060227122509602/27/06 12:25:31  5-MIN KSTC 271825Z 07010KT 10SM CLR M03/M13 A3005 910 48 -1000 060/10 RMK AO2
14926KSTC STC20060227123009602/27/06 12:30:31  5-MIN KSTC 271830Z 07010KT 10SM CLR M03/M12 A3005 900 50 -1000 070/10 RMK AO2
14926KSTC STC20060227123509602/27/06 12:35:31  5-MIN KSTC 271835Z 07010KT 10SM CLR M03/M12 A3005 900 50 -1000 070/10 RMK AO2
14926KSTC STC20060227124009602/27/06 12:40:31  5-MIN KSTC 271840Z 08008KT 10SM CLR M03/M12 A3005 900 50 -1000 070/08 RMK AO2
14926KSTC STC20060227124510202/27/06 12:45:31  5-MIN KSTC 271845Z 06008G14KT 10SM CLR M03/M12 A3005 900 50 -1000 060/08G14 RMK AO2
14926KSTC STC20060227125011902/27/06 12:50:31  5-MIN KSTC 271850Z 06008G14KT 10SM CLR M03/M12 A3005 900 50 -1000 060/08G14 RMK AO2 SLP201 T10331122
14926KSTC STC20060227125509602/27/06 12:55:31  5-MIN KSTC 271855Z 06011KT 10SM CLR M03/M12 A3005 900 50 -1000 060/11 RMK AO2
14926KSTC STC20060227130009602/27/06 13:00:31  5-MIN KSTC 271900Z 04010KT 10SM CLR M03/M12 A3006 900 48 -1000 040/10 RMK AO2
14926KSTC STC20060227130509602/27/06 13:05:31  5-MIN KSTC 271905Z 07010KT 10SM CLR M03/M12 A3006 900 50 -1000 060/10 RMK AO2
14926KSTC STC20060227131009602/27/06 13:10:31  5-MIN KSTC 271910Z 06009KT 10SM CLR M03/M12 A3006 900 50 -1000 050/09 RMK AO2
14926KSTC STC20060227131509602/27/06 13:15:31  5-MIN KSTC 271915Z 06009KT 10SM CLR M03/M12 A3005 900 50 -1000 050/09 RMK AO2
14926KSTC STC20060227132009602/27/06 13:20:31  5-MIN KSTC 271920Z 07011KT 10SM CLR M03/M12 A3005 910 50 -1000 060/11 RMK AO2
14926KSTC STC20060227132509602/27/06 13:25:31  5-MIN KSTC 271925Z 08011KT 10SM CLR M03/M12 A3005 910 50 -1000 080/11 RMK AO2
14926KSTC STC20060227133009602/27/06 13:30:31  5-MIN KSTC 271930Z 08011KT 10SM CLR M03/M12 A3005 910 48 -1000 070/11 RMK AO2
14926KSTC STC20060227133509602/27/06 13:35:31  5-MIN KSTC 271935Z 09009KT 10SM CLR M03/M12 A3004 910 50 -1000 090/09 RMK AO2
14926KSTC STC20060227134009602/27/06 13:40:31  5-MIN KSTC 271940Z 07009KT 10SM CLR M03/M12 A3004 920 50 -1000 070/09 RMK AO2
14926KSTC STC20060227134509602/27/06 13:45:31  5-MIN KSTC 271945Z 08010KT 10SM CLR M03/M12 A3004 920 50 -1000 070/10 RMK AO2
14926KSTC STC20060227135011302/27/06 13:50:31  5-MIN KSTC 271950Z 07010KT 10SM CLR M03/M12 A3004 910 48 -1000 060/10 RMK AO2 SLP198 T10281122
14926KSTC STC20060227135509602/27/06 13:55:31  5-MIN KSTC 271955Z 07010KT 10SM CLR M03/M12 A3004 920 50 -1000 070/10 RMK AO2
14926KSTC STC20060227140009602/27/06 14:00:31  5-MIN KSTC 272000Z 08009KT 10SM CLR M03/M12 A3004 920 50 -1000 080/09 RMK AO2
14926KSTC STC20060227140509602/27/06 14:05:31  5-MIN KSTC 272005Z 06009KT 10SM CLR M03/M12 A3004 920 48 -1000 050/09 RMK AO2
14926KSTC STC20060227141009602/27/06 14:10:31  5-MIN KSTC 272010Z 06008KT 10SM CLR M03/M12 A3004 920 48 -1000 050/08 RMK AO2
14926KSTC STC20060227141509502/27/06 14:15:31  5-MIN KSTC 272015Z 06010KT 10SM CLR M02/M12 A3004 920 48 -900 060/10 RMK AO2
14926KSTC STC20060227142009502/27/06 14:20:31  5-MIN KSTC 272020Z 08011KT 10SM CLR M02/M12 A3004 920 48 -900 070/11 RMK AO2
14926KSTC STC20060227142511102/27/06 14:25:31  5-MIN KSTC 272025Z 07008KT 030V100 10SM CLR M02/M12 A3004 920 46 -900 070/08 030V100 RMK AO2
14926KSTC STC20060227143009502/27/06 14:30:31  5-MIN KSTC 272030Z 06011KT 10SM CLR M02/M12 A3004 920 46 -900 060/11 RMK AO2
14926KSTC STC20060227143509502/27/06 14:35:31  5-MIN KSTC 272035Z 05008KT 10SM CLR M02/M12 A3003 920 46 -900 050/08 RMK AO2
14926KSTC STC20060227144010102/27/06 14:40:31  5-MIN KSTC 272040Z 06010G16KT 10SM CLR M02/M12 A3003 920 46 -900 060/10G16 RMK AO2
14926KSTC STC20060227144510102/27/06 14:45:31  5-MIN KSTC 272045Z 06009G16KT 10SM CLR M02/M12 A3004 920 48 -900 060/09G16 RMK AO2
14926KSTC STC20060227145011802/27/06 14:50:31  5-MIN KSTC 272050Z 09009KT 10SM CLR M02/M12 A3004 920 46 -900 090/09 RMK AO2 SLP197 T10221122 50001
14926KSTC STC20060227145509502/27/06 14:55:31  5-MIN KSTC 272055Z 07010KT 10SM CLR M02/M13 A3004 920 44 -900 060/10 RMK AO2
14926KSTC STC20060227150009502/27/06 15:00:31  5-MIN KSTC 272100Z 09008KT 10SM CLR M02/M13 A3004 920 44 -900 090/08 RMK AO2
14926KSTC STC20060227150509502/27/06 15:05:31  5-MIN KSTC 272105Z 08008KT 10SM CLR M02/M12 A3004 920 46 -900 080/08 RMK AO2
14926KSTC STC20060227151009502/27/06 15:10:31  5-MIN KSTC 272110Z 06012KT 10SM CLR M02/M12 A3004 910 46 -900 060/12 RMK AO2
14926KSTC STC20060227151509502/27/06 15:15:31  5-MIN KSTC 272115Z 07009KT 10SM CLR M02/M13 A3004 910 44 -900 060/09 RMK AO2
14926KSTC STC20060227152009502/27/06 15:20:31  5-MIN KSTC 272120Z 07010KT 10SM CLR M02/M13 A3004 910 44 -900 060/10 RMK AO2
14926KSTC STC20060227152509502/27/06 15:25:31  5-MIN KSTC 272125Z 08011KT 10SM CLR M02/M13 A3004 910 44 -900 080/11 RMK AO2
14926KSTC STC20060227153009502/27/06 15:30:31  5-MIN KSTC 272130Z 06010KT 10SM CLR M02/M13 A3004 920 44 -900 060/10 RMK AO2
14926KSTC STC20060227153509502/27/06 15:35:31  5-MIN KSTC 272135Z 07009KT 10SM CLR M02/M12 A3004 910 46 -900 060/09 RMK AO2
14926KSTC STC20060227154009502/27/06 15:40:31  5-MIN KSTC 272140Z 08011KT 10SM CLR M02/M13 A3004 920 44 -900 080/11 RMK AO2
14926KSTC STC20060227154509502/27/06 15:45:31  5-MIN KSTC 272145Z 07010KT 10SM CLR M02/M12 A3004 910 46 -900 070/10 RMK AO2
14926KSTC STC20060227155011202/27/06 15:50:31  5-MIN KSTC 272150Z 07011KT 10SM CLR M02/M13 A3005 910 44 -900 070/11 RMK AO2 SLP199 T10221128
14926KSTC STC20060227155509502/27/06 15:55:31  5-MIN KSTC 272155Z 07010KT 10SM CLR M02/M13 A3005 910 44 -900 070/10 RMK AO2
14926KSTC STC20060227160009502/27/06 16:00:31  5-MIN KSTC 272200Z 06010KT 10SM CLR M02/M13 A3005 910 42 -900 060/10 RMK AO2
14926KSTC STC20060227160510102/27/06 16:05:31  5-MIN KSTC 272205Z 06011G16KT 10SM CLR M02/M13 A3005 910 42 -900 060/11G16 RMK AO2
14926KSTC STC20060227161009502/27/06 16:10:31  5-MIN KSTC 272210Z 07011KT 10SM CLR M02/M13 A3005 910 42 -900 070/11 RMK AO2
14926KSTC STC20060227161509502/27/06 16:15:31  5-MIN KSTC 272215Z 07011KT 10SM CLR M02/M14 A3005 910 40 -900 070/11 RMK AO2
14926KSTC STC20060227162009502/27/06 16:20:31  5-MIN KSTC 272220Z 08010KT 10SM CLR M02/M13 A3005 910 42 -900 080/10 RMK AO2
14926KSTC STC20060227162509502/27/06 16:25:31  5-MIN KSTC 272225Z 09010KT 10SM CLR M02/M13 A3004 910 44 -900 080/10 RMK AO2
14926KSTC STC20060227163009502/27/06 16:30:31  5-MIN KSTC 272230Z 08010KT 10SM CLR M02/M13 A3005 910 44 -900 080/10 RMK AO2
14926KSTC STC20060227163509602/27/06 16:35:31  5-MIN KSTC 272235Z 08010KT 10SM CLR M03/M13 A3005 910 44 -1000 070/10 RMK AO2
14926KSTC STC20060227164009602/27/06 16:40:31  5-MIN KSTC 272240Z 08010KT 10SM CLR M03/M13 A3005 910 46 -1000 070/10 RMK AO2
14926KSTC STC20060227164509602/27/06 16:45:31  5-MIN KSTC 272245Z 06010KT 10SM CLR M03/M13 A3005 910 44 -1000 060/10 RMK AO2
14926KSTC STC20060227165011302/27/06 16:50:31  5-MIN KSTC 272250Z 06009KT 10SM CLR M03/M13 A3005 910 44 -1000 060/09 RMK AO2 SLP201 T10281133
14926KSTC STC20060227165509602/27/06 16:55:31  5-MIN KSTC 272255Z 06009KT 10SM CLR M03/M13 A3005 910 46 -1000 060/09 RMK AO2
14926KSTC STC20060227170009602/27/06 17:00:31  5-MIN KSTC 272300Z 08009KT 10SM CLR M03/M13 A3005 910 46 -1000 080/09 RMK AO2
14926KSTC STC20060227170509602/27/06 17:05:31  5-MIN KSTC 272305Z 08008KT 10SM CLR M03/M13 A3005 910 46 -1000 080/08 RMK AO2
14926KSTC STC20060227171009602/27/06 17:10:31  5-MIN KSTC 272310Z 08009KT 10SM CLR M03/M13 A3005 910 46 -1000 080/09 RMK AO2
14926KSTC STC20060227171509602/27/06 17:15:31  5-MIN KSTC 272315Z 07010KT 10SM CLR M03/M13 A3005 910 44 -1000 070/10 RMK AO2
14926KSTC STC20060227172010202/27/06 17:20:31  5-MIN KSTC 272320Z 07011G15KT 10SM CLR M03/M13 A3005 910 46 -1000 070/11G15 RMK AO2
14926KSTC STC20060227172510202/27/06 17:25:31  5-MIN KSTC 272325Z 08010G15KT 10SM CLR M03/M13 A3005 910 46 -1000 070/10G15 RMK AO2
14926KSTC STC20060227173009602/27/06 17:30:31  5-MIN KSTC 272330Z 07007KT 10SM CLR M03/M13 A3005 910 46 -1000 060/07 RMK AO2
14926KSTC STC20060227173509602/27/06 17:35:31  5-MIN KSTC 272335Z 07008KT 10SM CLR M03/M13 A3005 910 46 -1000 060/08 RMK AO2
14926KSTC STC20060227174009602/27/06 17:40:31  5-MIN KSTC 272340Z 07007KT 10SM CLR M03/M13 A3005 900 46 -1000 070/07 RMK AO2
14926KSTC STC20060227174509602/27/06 17:45:31  5-MIN KSTC 272345Z 08006KT 10SM CLR M03/M13 A3005 900 46 -1000 070/06 RMK AO2
14926KSTC STC20060227175013102/27/06 17:50:31  5-MIN KSTC 272350Z 07006KT 10SM CLR M03/M13 A3005 900 46 -1000 070/06 RMK AO2 SLP202 T10331133 11017 21033 57005
14926KSTC STC20060227175509602/27/06 17:55:31  5-MIN KSTC 272355Z 09006KT 10SM CLR M03/M13 A3005 900 48 -1000 080/06 RMK AO2
14926KSTC STC20060227180009602/27/06 18:00:31  5-MIN KSTC 280000Z 07006KT 10SM CLR M04/M13 A3006 900 50 -1100 070/06 RMK AO2
14926KSTC STC20060227180509602/27/06 18:05:31  5-MIN KSTC 280005Z 07005KT 10SM CLR M03/M13 A3006 900 48 -1000 070/05 RMK AO2
14926KSTC STC20060227181009602/27/06 18:10:31  5-MIN KSTC 280010Z 08005KT 10SM CLR M04/M13 A3006 900 50 -1100 080/05 RMK AO2
14926KSTC STC20060227181509602/27/06 18:15:31  5-MIN KSTC 280015Z 08005KT 10SM CLR M04/M13 A3006 900 50 -1100 080/05 RMK AO2
14926KSTC STC20060227182009602/27/06 18:20:31  5-MIN KSTC 280020Z 08005KT 10SM CLR M04/M13 A3006 890 50 -1100 080/05 RMK AO2
14926KSTC STC20060227182509602/27/06 18:25:31  5-MIN KSTC 280025Z 08005KT 10SM CLR M04/M13 A3006 900 50 -1100 080/05 RMK AO2
14926KSTC STC20060227183009602/27/06 18:30:31  5-MIN KSTC 280030Z 08004KT 10SM CLR M04/M13 A3006 900 50 -1100 080/04 RMK AO2
14926KSTC STC20060227183509602/27/06 18:35:31  5-MIN KSTC 280035Z 08004KT 10SM CLR M04/M13 A3006 900 50 -1100 080/04 RMK AO2
14926KSTC STC20060227184009602/27/06 18:40:31  5-MIN KSTC 280040Z 09005KT 10SM CLR M04/M12 A3006 900 52 -1100 080/05 RMK AO2
14926KSTC STC20060227184509602/27/06 18:45:31  5-MIN KSTC 280045Z 08004KT 10SM CLR M04/M12 A3006 900 52 -1100 080/04 RMK AO2
14926KSTC STC20060227185011302/27/06 18:50:31  5-MIN KSTC 280050Z 07004KT 10SM CLR M04/M13 A3006 900 50 -1100 070/04 RMK AO2 SLP206 T10391128
14926KSTC STC20060227185509602/27/06 18:55:31  5-MIN KSTC 280055Z 08004KT 10SM CLR M04/M12 A3006 900 52 -1100 070/04 RMK AO2
14926KSTC STC20060227190009602/27/06 19:00:31  5-MIN KSTC 280100Z 08005KT 10SM CLR M04/M12 A3006 900 52 -1100 070/05 RMK AO2
14926KSTC STC20060227190509602/27/06 19:05:31  5-MIN KSTC 280105Z 08003KT 10SM CLR M04/M12 A3006 890 52 -1100 070/03 RMK AO2
14926KSTC STC20060227191009602/27/06 19:10:31  5-MIN KSTC 280110Z 08005KT 10SM CLR M04/M12 A3006 890 52 -1100 080/05 RMK AO2
14926KSTC STC20060227191509602/27/06 19:15:31  5-MIN KSTC 280115Z 08004KT 10SM CLR M04/M12 A3006 900 52 -1100 080/04 RMK AO2
14926KSTC STC20060227192009602/27/06 19:20:31  5-MIN KSTC 280120Z 07004KT 10SM CLR M04/M12 A3006 890 52 -1100 070/04 RMK AO2
14926KSTC STC20060227192509602/27/06 19:25:31  5-MIN KSTC 280125Z 07003KT 10SM CLR M04/M12 A3007 890 52 -1100 070/03 RMK AO2
14926KSTC STC20060227193009602/27/06 19:30:31  5-MIN KSTC 280130Z 08004KT 10SM CLR M04/M12 A3006 900 52 -1100 080/04 RMK AO2
14926KSTC STC20060227193509602/27/06 19:35:31  5-MIN KSTC 280135Z 08004KT 10SM CLR M04/M12 A3006 900 55 -1100 070/04 RMK AO2
14926KSTC STC20060227194009602/27/06 19:40:31  5-MIN KSTC 280140Z 07004KT 10SM CLR M04/M12 A3006 900 52 -1100 070/04 RMK AO2
14926KSTC STC20060227194509602/27/06 19:45:31  5-MIN KSTC 280145Z 08004KT 10SM CLR M04/M12 A3006 900 52 -1100 070/04 RMK AO2
14926KSTC STC20060227195011302/27/06 19:50:31  5-MIN KSTC 280150Z 07004KT 10SM CLR M04/M12 A3006 900 52 -1100 070/04 RMK AO2 SLP205 T10391122
14926KSTC STC20060227195509602/27/06 19:55:31  5-MIN KSTC 280155Z 07004KT 10SM CLR M04/M12 A3006 900 55 -1100 070/04 RMK AO2
14926KSTC STC20060227200009602/27/06 20:00:31  5-MIN KSTC 280200Z 08004KT 10SM CLR M04/M12 A3006 900 52 -1100 070/04 RMK AO2
14926KSTC STC20060227200509602/27/06 20:05:31  5-MIN KSTC 280205Z 07003KT 10SM CLR M04/M12 A3006 890 52 -1100 060/03 RMK AO2
14926KSTC STC20060227201009602/27/06 20:10:31  5-MIN KSTC 280210Z 08004KT 10SM CLR M04/M12 A3006 890 55 -1100 070/04 RMK AO2
14926KSTC STC20060227201509602/27/06 20:15:31  5-MIN KSTC 280215Z 08004KT 10SM CLR M04/M12 A3006 900 55 -1100 070/04 RMK AO2
14926KSTC STC20060227202009602/27/06 20:20:31  5-MIN KSTC 280220Z 08005KT 10SM CLR M04/M12 A3006 900 55 -1100 080/05 RMK AO2
14926KSTC STC20060227202509602/27/06 20:25:31  5-MIN KSTC 280225Z 07005KT 10SM CLR M04/M12 A3006 900 55 -1100 070/05 RMK AO2
14926KSTC STC20060227203009602/27/06 20:30:31  5-MIN KSTC 280230Z 07004KT 10SM CLR M04/M12 A3006 890 52 -1100 070/04 RMK AO2
14926KSTC STC20060227203509902/27/06 20:35:31  5-MIN KSTC 280235Z 08004KT 10SM FEW120 M04/M12 A3006 900 52 -1100 080/04 RMK AO2
14926KSTC STC20060227204009902/27/06 20:40:31  5-MIN KSTC 280240Z 08005KT 10SM SCT120 M04/M12 A3006 900 55 -1100 070/05 RMK AO2
14926KSTC STC20060227204509902/27/06 20:45:31  5-MIN KSTC 280245Z 08005KT 10SM BKN120 M04/M12 A3006 900 55 -1100 080/05 RMK AO2
14926KSTC STC20060227205012202/27/06 20:50:31  5-MIN KSTC 280250Z 09004KT 10SM BKN120 M04/M12 A3006 900 55 -1100 080/04 RMK AO2 SLP204 T10391117 51004
14926KSTC STC20060227205509902/27/06 20:55:31  5-MIN KSTC 280255Z VRB03KT 10SM BKN120 M04/M12 A3006 890 55 -1100 VRB/03 RMK AO2
14926KSTC STC20060227210009902/27/06 21:00:31  5-MIN KSTC 280300Z 10003KT 10SM BKN120 M04/M12 A3006 900 52 -1100 100/03 RMK AO2
14926KSTC STC20060227210509902/27/06 21:05:31  5-MIN KSTC 280305Z 11004KT 10SM SCT120 M04/M12 A3006 900 52 -1100 100/04 RMK AO2
14926KSTC STC20060227211009902/27/06 21:10:31  5-MIN KSTC 280310Z 11004KT 10SM SCT120 M04/M12 A3005 900 52 -1100 110/04 RMK AO2
14926KSTC STC20060227211509902/27/06 21:15:31  5-MIN KSTC 280315Z 09005KT 10SM FEW120 M04/M12 A3005 910 52 -1100 090/05 RMK AO2
14926KSTC STC20060227212009902/27/06 21:20:31  5-MIN KSTC 280320Z 09005KT 10SM FEW120 M04/M12 A3005 910 52 -1100 080/05 RMK AO2
14926KSTC STC20060227212509602/27/06 21:25:31  5-MIN KSTC 280325Z 09005KT 10SM CLR M04/M12 A3005 900 52 -1100 080/05 RMK AO2
14926KSTC STC20060227213009602/27/06 21:30:31  5-MIN KSTC 280330Z 09005KT 10SM CLR M04/M12 A3005 910 52 -1100 090/05 RMK AO2
14926KSTC STC20060227213509602/27/06 21:35:31  5-MIN KSTC 280335Z 10004KT 10SM CLR M04/M12 A3004 920 52 -1100 100/04 RMK AO2
14926KSTC STC20060227214009602/27/06 21:40:31  5-MIN KSTC 280340Z 10005KT 10SM CLR M04/M12 A3004 920 55 -1200 100/05 RMK AO2
14926KSTC STC20060227214509602/27/06 21:45:31  5-MIN KSTC 280345Z 09005KT 10SM CLR M04/M12 A3004 920 55 -1200 090/05 RMK AO2
14926KSTC STC20060227215011302/27/06 21:50:31  5-MIN KSTC 280350Z 10006KT 10SM CLR M04/M12 A3002 930 55 -1100 090/06 RMK AO2 SLP192 T10441122
14926KSTC STC20060227215509602/27/06 21:55:31  5-MIN KSTC 280355Z 09007KT 10SM CLR M04/M13 A3002 930 52 -1100 090/07 RMK AO2
14926KSTC STC20060227220009602/27/06 22:00:31  5-MIN KSTC 280400Z 08007KT 10SM CLR M04/M12 A3003 930 52 -1100 080/07 RMK AO2
14926KSTC STC20060227220509602/27/06 22:05:31  5-MIN KSTC 280405Z 10006KT 10SM CLR M04/M12 A3003 930 55 -1100 090/06 RMK AO2
14926KSTC STC20060227221009602/27/06 22:10:31  5-MIN KSTC 280410Z 11006KT 10SM CLR M04/M12 A3002 930 55 -1100 100/06 RMK AO2
14926KSTC STC20060227221509602/27/06 22:15:31  5-MIN KSTC 280415Z 09006KT 10SM CLR M04/M13 A3003 920 52 -1200 090/06 RMK AO2
14926KSTC STC20060227222009602/27/06 22:20:31  5-MIN KSTC 280420Z 09006KT 10SM CLR M04/M13 A3004 920 52 -1200 080/06 RMK AO2
14926KSTC STC20060227222509602/27/06 22:25:31  5-MIN KSTC 280425Z 07006KT 10SM CLR M04/M12 A3004 910 55 -1200 070/06 RMK AO2
14926KSTC STC20060227223009602/27/06 22:30:31  5-MIN KSTC 280430Z 07004KT 10SM CLR M04/M12 A3005 910 55 -1200 060/04 RMK AO2
14926KSTC STC20060227223509602/27/06 22:35:31  5-MIN KSTC 280435Z 07005KT 10SM CLR M04/M13 A3004 910 52 -1200 070/05 RMK AO2
14926KSTC STC20060227224010102/27/06 22:40:31  5-MIN KSTC 280440Z AUTO 08005KT 10SM CLR M04/M13 A3004 920 52 -1200 070/05 RMK AO2
14926KSTC STC20060227224510102/27/06 22:45:31  5-MIN KSTC 280445Z AUTO 08006KT 10SM CLR M05/M12 A3003 920 57 -1200 080/06 RMK AO2
14926KSTC STC20060227225011802/27/06 22:50:31  5-MIN KSTC 280450Z AUTO 08006KT 10SM CLR M04/M12 A3004 920 55 -1200 070/06 RMK AO2 SLP197 T10441122
14926KSTC STC20060227225510102/27/06 22:55:31  5-MIN KSTC 280455Z AUTO 09004KT 10SM CLR M04/M12 A3004 920 55 -1200 080/04 RMK AO2
14926KSTC STC20060227230010102/27/06 23:00:31  5-MIN KSTC 280500Z AUTO 09005KT 10SM CLR M05/M12 A3004 920 57 -1200 090/05 RMK AO2
14926KSTC STC20060227230510102/27/06 23:05:31  5-MIN KSTC 280505Z AUTO 09006KT 10SM CLR M05/M13 A3003 920 55 -1200 080/06 RMK AO2
14926KSTC STC20060227231010102/27/06 23:10:31  5-MIN KSTC 280510Z AUTO 09005KT 10SM CLR M05/M13 A3003 930 55 -1200 080/05 RMK AO2
14926KSTC STC20060227231510102/27/06 23:15:31  5-MIN KSTC 280515Z AUTO 09006KT 10SM CLR M05/M12 A3003 930 57 -1200 080/06 RMK AO2
14926KSTC STC20060227232010102/27/06 23:20:31  5-MIN KSTC 280520Z AUTO 08006KT 10SM CLR M05/M12 A3003 930 57 -1200 080/06 RMK AO2
14926KSTC STC20060227232510402/27/06 23:25:31  5-MIN KSTC 280525Z AUTO 08006KT 10SM FEW120 M05/M12 A3003 930 57 -1200 080/06 RMK AO2
14926KSTC STC20060227233010402/27/06 23:30:31  5-MIN KSTC 280530Z AUTO 08008KT 10SM SCT120 M05/M12 A3003 930 57 -1200 070/08 RMK AO2
14926KSTC STC20060227233510402/27/06 23:35:31  5-MIN KSTC 280535Z AUTO 08006KT 10SM BKN120 M05/M12 A3003 930 57 -1200 080/06 RMK AO2
14926KSTC STC20060227234010402/27/06 23:40:31  5-MIN KSTC 280540Z AUTO 08007KT 10SM BKN120 M05/M12 A3002 930 57 -1200 080/07 RMK AO2
14926KSTC STC20060227234510402/27/06 23:45:31  5-MIN KSTC 280545Z AUTO 08007KT 10SM BKN120 M05/M12 A3002 930 57 -1200 080/07 RMK AO2
14926KSTC STC20060227235014902/27/06 23:50:31  5-MIN KSTC 280550Z AUTO 08007KT 10SM BKN120 M05/M12 A3002 930 57 -1200 070/07 RMK AO2 SLP190 T10501122 11033 21050 410171072 51003
14926KSTC STC20060227235510402/27/06 23:55:31  5-MIN KSTC 280555Z AUTO 08006KT 10SM BKN120 M05/M12 A3002 930 57 -1200 080/06 RMK AO2
14926KSTC STC20060228000010402/28/06 00:00:32  5-MIN KSTC 280600Z AUTO 07005KT 10SM BKN120 M05/M12 A3002 930 57 -1200 070/05 RMK AO2
14926KSTC STC20060228000510402/28/06 00:05:31  5-MIN KSTC 280605Z AUTO 07005KT 10SM SCT120 M05/M12 A3002 930 57 -1200 070/05 RMK AO2
14926KSTC STC20060228001010402/28/06 00:10:31  5-MIN KSTC 280610Z AUTO 08008KT 10SM FEW120 M05/M12 A3002 930 57 -1200 080/08 RMK AO2
14926KSTC STC20060228001510402/28/06 00:15:31  5-MIN KSTC 280615Z AUTO 08007KT 10SM FEW120 M05/M12 A3003 930 57 -1200 070/07 RMK AO2
14926KSTC STC20060228002010402/28/06 00:20:31  5-MIN KSTC 280620Z AUTO 08006KT 10SM FEW120 M05/M12 A3003 930 57 -1200 070/06 RMK AO2
14926KSTC STC20060228002510402/28/06 00:25:31  5-MIN KSTC 280625Z AUTO 07006KT 10SM FEW120 M06/M12 A3003 930 62 -1300 070/06 RMK AO2
14926KSTC STC20060228003010102/28/06 00:30:31  5-MIN KSTC 280630Z AUTO 08007KT 10SM CLR M06/M12 A3002 930 62 -1300 080/07 RMK AO2
14926KSTC STC20060228003510102/28/06 00:35:31  5-MIN KSTC 280635Z AUTO 09008KT 10SM CLR M06/M12 A3002 940 62 -1300 080/08 RMK AO2
14926KSTC STC20060228004010102/28/06 00:40:31  5-MIN KSTC 280640Z AUTO 08007KT 10SM CLR M06/M12 A3002 940 62 -1300 080/07 RMK AO2
14926KSTC STC20060228004510102/28/06 00:45:31  5-MIN KSTC 280645Z AUTO 09007KT 10SM CLR M06/M12 A3001 940 62 -1300 090/07 RMK AO2
14926KSTC STC20060228005011802/28/06 00:50:31  5-MIN KSTC 280650Z AUTO 08008KT 10SM CLR M06/M12 A3001 940 62 -1300 080/08 RMK AO2 SLP188 T10561117
14926KSTC STC20060228005510102/28/06 00:55:31  5-MIN KSTC 280655Z AUTO 09009KT 10SM CLR M06/M12 A3001 940 62 -1300 080/09 RMK AO2
14926KSTC STC20060228010010102/28/06 01:00:31  5-MIN KSTC 280700Z AUTO 08007KT 10SM CLR M06/M12 A3001 940 62 -1300 080/07 RMK AO2
14926KSTC STC20060228010510102/28/06 01:05:31  5-MIN KSTC 280705Z AUTO 08008KT 10SM CLR M06/M12 A3001 940 62 -1300 080/08 RMK AO2
14926KSTC STC20060228011010102/28/06 01:10:31  5-MIN KSTC 280710Z AUTO 08006KT 10SM CLR M06/M12 A3001 940 62 -1300 080/06 RMK AO2
14926KSTC STC20060228011510102/28/06 01:15:31  5-MIN KSTC 280715Z AUTO 07007KT 10SM CLR M06/M12 A3002 930 62 -1300 070/07 RMK AO2
14926KSTC STC20060228012010102/28/06 01:20:31  5-MIN KSTC 280720Z AUTO 08007KT 10SM CLR M06/M12 A3002 930 62 -1300 080/07 RMK AO2
14926KSTC STC20060228012510102/28/06 01:25:31  5-MIN KSTC 280725Z AUTO 08006KT 10SM CLR M06/M12 A3002 930 62 -1300 080/06 RMK AO2
14926KSTC STC20060228013010102/28/06 01:30:31  5-MIN KSTC 280730Z AUTO 09005KT 10SM CLR M06/M12 A3003 930 62 -1300 090/05 RMK AO2
14926KSTC STC20060228013510102/28/06 01:35:31  5-MIN KSTC 280735Z AUTO 08005KT 10SM CLR M06/M12 A3003 930 62 -1300 080/05 RMK AO2
14926KSTC STC20060228014010102/28/06 01:40:31  5-MIN KSTC 280740Z AUTO 08005KT 10SM CLR M06/M12 A3002 930 62 -1300 080/05 RMK AO2
14926KSTC STC20060228014510102/28/06 01:45:31  5-MIN KSTC 280745Z AUTO 08005KT 10SM CLR M06/M12 A3002 930 62 -1300 080/05 RMK AO2
14926KSTC STC20060228015011802/28/06 01:50:31  5-MIN KSTC 280750Z AUTO 08004KT 10SM CLR M06/M12 A3003 930 62 -1300 080/04 RMK AO2 SLP191 T10561117
14926KSTC STC20060228015510102/28/06 01:55:31  5-MIN KSTC 280755Z AUTO 07005KT 10SM CLR M06/M12 A3003 930 62 -1300 070/05 RMK AO2
14926KSTC STC20060228020010102/28/06 02:00:31  5-MIN KSTC 280800Z AUTO 07005KT 10SM CLR M06/M12 A3003 930 62 -1300 070/05 RMK AO2
14926KSTC STC20060228020510102/28/06 02:05:31  5-MIN KSTC 280805Z AUTO 08005KT 10SM CLR M06/M12 A3003 930 65 -1400 080/05 RMK AO2
14926KSTC STC20060228021010102/28/06 02:10:31  5-MIN KSTC 280810Z AUTO 08005KT 10SM CLR M06/M12 A3003 930 65 -1400 080/05 RMK AO2
14926KSTC STC20060228021510102/28/06 02:15:31  5-MIN KSTC 280815Z AUTO 08005KT 10SM CLR M06/M12 A3002 930 65 -1400 080/05 RMK AO2
14926KSTC STC20060228022010102/28/06 02:20:31  5-MIN KSTC 280820Z AUTO 09005KT 10SM CLR M06/M12 A3002 940 65 -1400 080/05 RMK AO2
14926KSTC STC20060228022510102/28/06 02:25:31  5-MIN KSTC 280825Z AUTO 08006KT 10SM CLR M06/M12 A3002 930 65 -1400 080/06 RMK AO2
14926KSTC STC20060228023010102/28/06 02:30:31  5-MIN KSTC 280830Z AUTO 07006KT 10SM CLR M06/M12 A3002 930 65 -1400 070/06 RMK AO2
14926KSTC STC20060228023510102/28/06 02:35:31  5-MIN KSTC 280835Z AUTO 07006KT 10SM CLR M06/M12 A3002 940 65 -1400 060/06 RMK AO2
14926KSTC STC20060228024010102/28/06 02:40:31  5-MIN KSTC 280840Z AUTO 08007KT 10SM CLR M06/M12 A3001 940 65 -1300 080/07 RMK AO2
14926KSTC STC20060228024510102/28/06 02:45:31  5-MIN KSTC 280845Z AUTO 08007KT 10SM CLR M06/M12 A3001 940 65 -1300 080/07 RMK AO2
14926KSTC STC20060228025012402/28/06 02:50:31  5-MIN KSTC 280850Z AUTO 07006KT 10SM CLR M06/M12 A3002 940 65 -1400 070/06 RMK AO2 SLP188 T10611117 56014
14926KSTC STC20060228025510102/28/06 02:55:31  5-MIN KSTC 280855Z AUTO 07006KT 10SM CLR M06/M12 A3002 930 65 -1400 060/06 RMK AO2
14926KSTC STC20060228030010102/28/06 03:00:31  5-MIN KSTC 280900Z AUTO 07007KT 10SM CLR M06/M12 A3002 930 65 -1400 070/07 RMK AO2
14926KSTC STC20060228030510102/28/06 03:05:31  5-MIN KSTC 280905Z AUTO 07006KT 10SM CLR M06/M12 A3002 930 65 -1400 070/06 RMK AO2
14926KSTC STC20060228031010102/28/06 03:10:31  5-MIN KSTC 280910Z AUTO 06007KT 10SM CLR M06/M12 A3003 930 65 -1400 060/07 RMK AO2
14926KSTC STC20060228031510102/28/06 03:15:31  5-MIN KSTC 280915Z AUTO 07006KT 10SM CLR M06/M12 A3002 930 65 -1400 070/06 RMK AO2
14926KSTC STC20060228032010102/28/06 03:20:31  5-MIN KSTC 280920Z AUTO 08008KT 10SM CLR M06/M12 A3002 930 65 -1400 070/08 RMK AO2
14926KSTC STC20060228032510102/28/06 03:25:31  5-MIN KSTC 280925Z AUTO 07007KT 10SM CLR M06/M12 A3002 930 65 -1400 070/07 RMK AO2
14926KSTC STC20060228033010102/28/06 03:30:31  5-MIN KSTC 280930Z AUTO 08006KT 10SM CLR M07/M12 A3002 930 65 -1400 080/06 RMK AO2
14926KSTC STC20060228033510102/28/06 03:35:31  5-MIN KSTC 280935Z AUTO 08004KT 10SM CLR M07/M12 A3002 930 65 -1400 080/04 RMK AO2
14926KSTC STC20060228034010102/28/06 03:40:31  5-MIN KSTC 280940Z AUTO 07008KT 10SM CLR M07/M12 A3002 930 65 -1400 070/08 RMK AO2
14926KSTC STC20060228034510102/28/06 03:45:31  5-MIN KSTC 280945Z AUTO 07009KT 10SM CLR M07/M12 A3002 940 65 -1400 070/09 RMK AO2
14926KSTC STC20060228035012102/28/06 03:50:31  5-MIN KSTC 280950Z AUTO 07008KT 10SM FEW120 M07/M13 A3002 940 62 -1400 070/08 RMK AO2 SLP190 T10671128
14926KSTC STC20060228035510402/28/06 03:55:31  5-MIN KSTC 280955Z AUTO 08007KT 10SM FEW120 M07/M13 A3001 940 62 -1400 080/07 RMK AO2
14926KSTC STC20060228040010402/28/06 04:00:31  5-MIN KSTC 281000Z AUTO 08006KT 10SM FEW120 M07/M13 A3001 940 65 -1500 080/06 RMK AO2
14926KSTC STC20060228040510402/28/06 04:05:31  5-MIN KSTC 281005Z AUTO 08007KT 10SM FEW120 M07/M13 A3001 950 65 -1500 080/07 RMK AO2
14926KSTC STC20060228041010402/28/06 04:10:31  5-MIN KSTC 281010Z AUTO 08006KT 10SM FEW120 M07/M13 A3001 950 65 -1500 080/06 RMK AO2
14926KSTC STC20060228041510402/28/06 04:15:31  5-MIN KSTC 281015Z AUTO 09007KT 10SM FEW120 M07/M13 A3001 950 65 -1500 080/07 RMK AO2
14926KSTC STC20060228042010102/28/06 04:20:31  5-MIN KSTC 281020Z AUTO 08009KT 10SM CLR M07/M13 A3001 950 62 -1500 070/09 RMK AO2
14926KSTC STC20060228042510102/28/06 04:25:31  5-MIN KSTC 281025Z AUTO 08008KT 10SM CLR M07/M13 A3001 950 62 -1500 080/08 RMK AO2
14926KSTC STC20060228043010102/28/06 04:30:31  5-MIN KSTC 281030Z AUTO 08007KT 10SM CLR M07/M13 A3000 950 62 -1500 080/07 RMK AO2
14926KSTC STC20060228043510102/28/06 04:35:31  5-MIN KSTC 281035Z AUTO 09007KT 10SM CLR M08/M13 A2999 960 64 -1500 080/07 RMK AO2
14926KSTC STC20060228044010102/28/06 04:40:31  5-MIN KSTC 281040Z AUTO 08007KT 10SM CLR M08/M13 A2999 960 64 -1500 080/07 RMK AO2
14926KSTC STC20060228044510102/28/06 04:45:31  5-MIN KSTC 281045Z AUTO 08007KT 10SM CLR M08/M13 A2999 960 64 -1500 080/07 RMK AO2
14926KSTC STC20060228045011802/28/06 04:50:31  5-MIN KSTC 281050Z AUTO 08007KT 10SM CLR M08/M13 A3000 950 64 -1600 070/07 RMK AO2 SLP184 T10781133
14926KSTC STC20060228045510102/28/06 04:55:31  5-MIN KSTC 281055Z AUTO 09006KT 10SM CLR M08/M13 A3000 950 64 -1600 080/06 RMK AO2
14926KSTC STC20060228054010102/28/06 05:40:31  5-MIN KSTC 281140Z AUTO 13005KT 10SM CLR M08/M13 A2999 960 64 -1500 120/05 RMK AO2
14926KSTC STC20060228054510102/28/06 05:45:31  5-MIN KSTC 281145Z AUTO 12005KT 10SM CLR M08/M13 A2999 960 64 -1500 110/05 RMK AO2
14926KSTC STC20060228055013602/28/06 05:50:31  5-MIN KSTC 281150Z AUTO 10004KT 10SM CLR M08/M13 A2999 960 64 -1500 090/04 RMK AO2 SLP182 T10781133 11050 21083 58000
14926KSTC STC20060228055510402/28/06 05:55:31  5-MIN KSTC 281155Z AUTO 10003KT 10SM FEW120 M08/M13 A2999 960 67 -1600 090/03 RMK AO2
14926KSTC STC20060228060010402/28/06 06:00:31  5-MIN KSTC 281200Z AUTO 10004KT 10SM SCT120 M08/M13 A2999 960 64 -1500 090/04 RMK AO2
14926KSTC STC20060228060510402/28/06 06:05:31  5-MIN KSTC 281205Z AUTO 11005KT 10SM SCT120 M08/M13 A2998 970 64 -1500 100/05 RMK AO2
14926KSTC STC20060228061010402/28/06 06:10:31  5-MIN KSTC 281210Z AUTO 11005KT 10SM FEW120 M08/M13 A2998 970 67 -1600 100/05 RMK AO2
14926KSTC STC20060228061510402/28/06 06:15:31  5-MIN KSTC 281215Z AUTO 10005KT 10SM FEW120 M08/M13 A2998 980 67 -1600 100/05 RMK AO2
14926KSTC STC20060228062010402/28/06 06:20:31  5-MIN KSTC 281220Z AUTO 09006KT 10SM FEW120 M08/M13 A2997 980 64 -1500 090/06 RMK AO2
14926KSTC STC20060228062510402/28/06 06:25:31  5-MIN KSTC 281225Z AUTO 10006KT 10SM FEW120 M08/M13 A2997 980 64 -1500 090/06 RMK AO2
14926KSTC STC20060228063010102/28/06 06:30:31  5-MIN KSTC 281230Z AUTO 10005KT 10SM CLR M08/M13 A2997 980 64 -1500 100/05 RMK AO2
14926KSTC STC20060228063510102/28/06 06:35:31  5-MIN KSTC 281235Z AUTO 10006KT 10SM CLR M08/M13 A2997 980 67 -1600 100/06 RMK AO2
14926KSTC STC20060228064010102/28/06 06:40:31  5-MIN KSTC 281240Z AUTO 10005KT 10SM CLR M08/M13 A2997 980 67 -1600 100/05 RMK AO2
14926KSTC STC20060228064510102/28/06 06:45:31  5-MIN KSTC 281245Z AUTO 10005KT 10SM CLR M08/M13 A2998 980 67 -1600 090/05 RMK AO2
14926KSTC STC20060228065011802/28/06 06:50:31  5-MIN KSTC 281250Z AUTO 10005KT 10SM CLR M08/M13 A2997 980 67 -1600 100/05 RMK AO2 SLP174 T10831133
14926KSTC STC20060228065510102/28/06 06:55:31  5-MIN KSTC 281255Z AUTO 10005KT 10SM CLR M08/M13 A2996 990 67 -1600 100/05 RMK AO2
14926KSTC STC20060228070010102/28/06 07:00:31  5-MIN KSTC 281300Z AUTO 09006KT 10SM CLR M08/M13 A2997 980 67 -1600 090/06 RMK AO2
14926KSTC STC20060228070510102/28/06 07:05:31  5-MIN KSTC 281305Z AUTO 09006KT 10SM CLR M08/M13 A2996 990 67 -1600 090/06 RMK AO2
14926KSTC STC20060228071010102/28/06 07:10:31  5-MIN KSTC 281310Z AUTO 09006KT 10SM CLR M08/M13 A2997 980 67 -1600 090/06 RMK AO2
14926KSTC STC20060228071510102/28/06 07:15:31  5-MIN KSTC 281315Z AUTO 10006KT 10SM CLR M08/M13 A2996 990 67 -1600 090/06 RMK AO2
14926KSTC STC20060228072010102/28/06 07:20:31  5-MIN KSTC 281320Z AUTO 10005KT 10SM CLR M08/M13 A2995 990 67 -1600 100/05 RMK AO2
14926KSTC STC20060228072510102/28/06 07:25:31  5-MIN KSTC 281325Z AUTO 09006KT 10SM CLR M08/M13 A2996 990 64 -1500 090/06 RMK AO2
14926KSTC STC20060228073010102/28/06 07:30:31  5-MIN KSTC 281330Z AUTO 09006KT 10SM CLR M08/M13 A2996 990 64 -1500 090/06 RMK AO2
14926KSTC STC20060228073510202/28/06 07:35:31  5-MIN KSTC 281335Z AUTO 10006KT 10SM CLR M08/M13 A2995 1000 64 -1500 090/06 RMK AO2
14926KSTC STC20060228074010202/28/06 07:40:31  5-MIN KSTC 281340Z AUTO 11006KT 10SM CLR M08/M13 A2995 1000 64 -1500 100/06 RMK AO2
14926KSTC STC20060228074510202/28/06 07:45:31  5-MIN KSTC 281345Z AUTO 10006KT 10SM CLR M08/M13 A2995 1000 64 -1500 100/06 RMK AO2
14926KSTC STC20060228075011902/28/06 07:50:31  5-MIN KSTC 281350Z AUTO 10006KT 10SM CLR M08/M13 A2995 1000 64 -1500 100/06 RMK AO2 SLP169 T10781133
14926KSTC STC20060228075509602/28/06 07:55:31  5-MIN KSTC 281355Z 09007KT 10SM CLR M08/M13 A2996 990 64 -1500 090/07 RMK AO2
14926KSTC STC20060228080009602/28/06 08:00:31  5-MIN KSTC 281400Z 08006KT 10SM CLR M08/M13 A2996 990 67 -1500 080/06 RMK AO2
14926KSTC STC20060228080509602/28/06 08:05:31  5-MIN KSTC 281405Z 09008KT 10SM CLR M07/M13 A2996 990 62 -1400 090/08 RMK AO2
14926KSTC STC20060228081009602/28/06 08:10:31  5-MIN KSTC 281410Z 10008KT 10SM CLR M07/M13 A2996 990 62 -1400 100/08 RMK AO2
14926KSTC STC20060228081509602/28/06 08:15:31  5-MIN KSTC 281415Z 09006KT 10SM CLR M07/M13 A2996 990 65 -1400 090/06 RMK AO2
14926KSTC STC20060228082009602/28/06 08:20:31  5-MIN KSTC 281420Z 10008KT 10SM CLR M07/M13 A2996 990 62 -1400 090/08 RMK AO2
14926KSTC STC20060228082509602/28/06 08:25:31  5-MIN KSTC 281425Z 11006KT 10SM CLR M07/M13 A2996 990 62 -1400 110/06 RMK AO2
14926KSTC STC20060228083009602/28/06 08:30:31  5-MIN KSTC 281430Z 10008KT 10SM CLR M07/M13 A2996 990 62 -1400 100/08 RMK AO2
14926KSTC STC20060228083509602/28/06 08:35:31  5-MIN KSTC 281435Z 10007KT 10SM CLR M07/M13 A2996 990 62 -1400 100/07 RMK AO2
14926KSTC STC20060228084009602/28/06 08:40:31  5-MIN KSTC 281440Z 10006KT 10SM CLR M06/M13 A2996 990 59 -1300 100/06 RMK AO2
14926KSTC STC20060228084509602/28/06 08:45:31  5-MIN KSTC 281445Z 11007KT 10SM CLR M06/M13 A2996 990 59 -1300 110/07 RMK AO2
14926KSTC STC20060228085011902/28/06 08:50:31  5-MIN KSTC 281450Z 11007KT 10SM CLR M06/M13 A2996 990 59 -1300 100/07 RMK AO2 SLP171 T10611128 58009
14926KSTC STC20060228085509602/28/06 08:55:31  5-MIN KSTC 281455Z 10007KT 10SM CLR M06/M13 A2997 980 57 -1200 100/07 RMK AO2
14926KSTC STC20060228090009602/28/06 09:00:31  5-MIN KSTC 281500Z 10009KT 10SM CLR M06/M13 A2997 980 57 -1200 090/09 RMK AO2
14926KSTC STC20060228090509602/28/06 09:05:31  5-MIN KSTC 281505Z 09007KT 10SM CLR M06/M13 A2997 980 57 -1200 090/07 RMK AO2
14926KSTC STC20060228091011202/28/06 09:10:31  5-MIN KSTC 281510Z 10007KT 070V130 10SM CLR M05/M13 A2997 980 55 -1200 100/07 070V130 RMK AO2
14926KSTC STC20060228091509602/28/06 09:15:31  5-MIN KSTC 281515Z 11007KT 10SM CLR M05/M13 A2996 990 55 -1100 100/07 RMK AO2
14926KSTC STC20060228092009702/28/06 09:20:31  5-MIN KSTC 281520Z VRB06KT 10SM CLR M05/M12 A2995 1000 57 -1100 VRB/06 RMK AO2
14926KSTC STC20060228092509602/28/06 09:25:31  5-MIN KSTC 281525Z 10007KT 10SM CLR M04/M13 A2996 990 52 -1100 100/07 RMK AO2
14926KSTC STC20060228093009602/28/06 09:30:31  5-MIN KSTC 281530Z 10007KT 10SM CLR M04/M13 A2995 990 52 -1100 100/07 RMK AO2
14926KSTC STC20060228093509702/28/06 09:35:31  5-MIN KSTC 281535Z 12008KT 10SM CLR M04/M12 A2995 1000 55 -1100 110/08 RMK AO2
14926KSTC STC20060228094010302/28/06 09:40:31  5-MIN KSTC 281540Z 11010G14KT 10SM CLR M04/M13 A2995 1000 52 -1100 110/10G14 RMK AO2
14926KSTC STC20060228094509702/28/06 09:45:31  5-MIN KSTC 281545Z 12008KT 10SM CLR M04/M13 A2995 1000 50 -1000 110/08 RMK AO2
14926KSTC STC20060228095011402/28/06 09:50:31  5-MIN KSTC 281550Z 11009KT 10SM CLR M04/M13 A2995 1000 50 -1000 100/09 RMK AO2 SLP164 T10391128
14926KSTC STC20060228095509702/28/06 09:55:31  5-MIN KSTC 281555Z 12008KT 10SM CLR M04/M13 A2994 1000 50 -1000 110/08 RMK AO2
14926KSTC STC20060228100009702/28/06 10:00:31  5-MIN KSTC 281600Z 11007KT 10SM CLR M04/M13 A2995 1000 50 -1000 110/07 RMK AO2
14926KSTC STC20060228100509702/28/06 10:05:31  5-MIN KSTC 281605Z 13010KT 10SM CLR M04/M13 A2994 1000 50 -1000 120/10 RMK AO2
14926KSTC STC20060228101009702/28/06 10:10:31  5-MIN KSTC 281610Z 13010KT 10SM CLR M04/M13 A2994 1000 50 -1000 120/10 RMK AO2
14926KSTC STC20060228101509602/28/06 10:15:31  5-MIN KSTC 281615Z 12007KT 10SM CLR M03/M13 A2994 1010 46 -900 110/07 RMK AO2
14926KSTC STC20060228102009602/28/06 10:20:31  5-MIN KSTC 281620Z 12010KT 10SM CLR M03/M13 A2994 1010 48 -900 120/10 RMK AO2
14926KSTC STC20060228102509602/28/06 10:25:31  5-MIN KSTC 281625Z 13009KT 10SM CLR M03/M13 A2994 1010 48 -900 130/09 RMK AO2
14926KSTC STC20060228103009602/28/06 10:30:31  5-MIN KSTC 281630Z 14009KT 10SM CLR M03/M13 A2994 1010 48 -900 130/09 RMK AO2
14926KSTC STC20060228103509602/28/06 10:35:31  5-MIN KSTC 281635Z 12009KT 10SM CLR M03/M12 A2993 1010 48 -800 110/09 RMK AO2
14926KSTC STC20060228104009602/28/06 10:40:31  5-MIN KSTC 281640Z 13009KT 10SM CLR M03/M12 A2993 1020 50 -800 130/09 RMK AO2
14926KSTC STC20060228104510302/28/06 10:45:31  5-MIN KSTC 281645Z 12008KT 10SM CLR M03/M12 A2992 1030 48 -800 120/08 RMK AO2 PRESFR
14926KSTC STC20060228105011902/28/06 10:50:31  5-MIN KSTC 281650Z 14011G15KT 10SM CLR M03/M12 A2991 1030 50 -800 130/11G15 RMK AO2 SLP153 T10281117
14926KSTC STC20060228105510202/28/06 10:55:31  5-MIN KSTC 281655Z 13011G15KT 10SM CLR M03/M12 A2991 1030 50 -800 130/11G15 RMK AO2
14926KSTC STC20060228110009602/28/06 11:00:31  5-MIN KSTC 281700Z 14013KT 10SM CLR M03/M12 A2991 1040 50 -800 140/13 RMK AO2
14926KSTC STC20060228110509602/28/06 11:05:31  5-MIN KSTC 281705Z 15013KT 10SM CLR M03/M11 A2991 1030 53 -800 140/13 RMK AO2
14926KSTC STC20060228111009602/28/06 11:10:31  5-MIN KSTC 281710Z 14011KT 10SM CLR M03/M11 A2991 1040 53 -800 140/11 RMK AO2
14926KSTC STC20060228111509602/28/06 11:15:31  5-MIN KSTC 281715Z 13009KT 10SM CLR M02/M11 A2991 1040 51 -700 120/09 RMK AO2
14926KSTC STC20060228112009602/28/06 11:20:31  5-MIN KSTC 281720Z 14011KT 10SM CLR M02/M11 A2991 1030 51 -700 130/11 RMK AO2
14926KSTC STC20060228112509602/28/06 11:25:31  5-MIN KSTC 281725Z 14012KT 10SM CLR M02/M11 A2991 1040 51 -700 140/12 RMK AO2
14926KSTC STC20060228113009602/28/06 11:30:31  5-MIN KSTC 281730Z 14010KT 10SM CLR M02/M11 A2991 1040 53 -700 140/10 RMK AO2
14926KSTC STC20060228113509602/28/06 11:35:31  5-MIN KSTC 281735Z 15011KT 10SM CLR M02/M11 A2991 1040 51 -700 140/11 RMK AO2
14926KSTC STC20060228114009602/28/06 11:40:31  5-MIN KSTC 281740Z 13010KT 10SM CLR M02/M11 A2991 1040 53 -700 130/10 RMK AO2
14926KSTC STC20060228114509602/28/06 11:45:31  5-MIN KSTC 281745Z 15009KT 10SM CLR M02/M11 A2991 1040 51 -700 150/09 RMK AO2
14926KSTC STC20060228115013102/28/06 11:50:31  5-MIN KSTC 281750Z 13007KT 10SM CLR M02/M10 A2991 1040 53 -700 130/07 RMK AO2 SLP151 T10171100 11017 21083 55008
14926KSTC STC20060228115509602/28/06 11:55:31  5-MIN KSTC 281755Z 13007KT 10SM CLR M02/M11 A2991 1040 51 -700 130/07 RMK AO2
14926KSTC STC20060228120009602/28/06 12:00:31  5-MIN KSTC 281800Z 13009KT 10SM CLR M01/M10 A2990 1050 51 -600 130/09 RMK AO2
14926KSTC STC20060228120509602/28/06 12:05:31  5-MIN KSTC 281805Z 13008KT 10SM CLR M01/M10 A2990 1050 51 -600 130/08 RMK AO2
14926KSTC STC20060228121009602/28/06 12:10:31  5-MIN KSTC 281810Z 13007KT 10SM CLR M01/M11 A2989 1050 49 -600 130/07 RMK AO2
14926KSTC STC20060228121509602/28/06 12:15:31  5-MIN KSTC 281815Z 14009KT 10SM CLR M01/M11 A2989 1050 49 -600 130/09 RMK AO2
14926KSTC STC20060228122009602/28/06 12:20:31  5-MIN KSTC 281820Z 14009KT 10SM CLR M01/M11 A2989 1050 49 -600 130/09 RMK AO2
14926KSTC STC20060228122509602/28/06 12:25:31  5-MIN KSTC 281825Z 14010KT 10SM CLR M01/M09 A2988 1060 55 -600 140/10 RMK AO2
14926KSTC STC20060228123009602/28/06 12:30:31  5-MIN KSTC 281830Z 14010KT 10SM CLR M01/M09 A2988 1060 53 -600 140/10 RMK AO2
14926KSTC STC20060228123509602/28/06 12:35:31  5-MIN KSTC 281835Z 14009KT 10SM CLR M01/M09 A2988 1060 55 -600 140/09 RMK AO2
14926KSTC STC20060228124009602/28/06 12:40:31  5-MIN KSTC 281840Z 15011KT 10SM CLR M01/M09 A2988 1060 53 -500 140/11 RMK AO2
14926KSTC STC20060228124509602/28/06 12:45:31  5-MIN KSTC 281845Z 15011KT 10SM CLR M01/M09 A2988 1060 53 -500 150/11 RMK AO2
14926KSTC STC20060228125011302/28/06 12:50:31  5-MIN KSTC 281850Z 14010KT 10SM CLR M01/M09 A2988 1060 51 -500 140/10 RMK AO2 SLP141 T10061094
14926KSTC STC20060228125509602/28/06 12:55:31  5-MIN KSTC 281855Z 15011KT 10SM CLR M01/M09 A2988 1060 53 -500 150/11 RMK AO2
14926KSTC STC20060228130009602/28/06 13:00:31  5-MIN KSTC 281900Z 14010KT 10SM CLR M01/M09 A2988 1060 53 -500 140/10 RMK AO2
14926KSTC STC20060228130509602/28/06 13:05:31  5-MIN KSTC 281905Z 15010KT 10SM CLR M01/M09 A2988 1060 53 -500 150/10 RMK AO2
14926KSTC STC20060228131009602/28/06 13:10:31  5-MIN KSTC 281910Z 15011KT 10SM CLR M01/M09 A2988 1070 53 -500 150/11 RMK AO2
14926KSTC STC20060228131509602/28/06 13:15:31  5-MIN KSTC 281915Z 16011KT 10SM CLR M01/M09 A2987 1070 53 -500 150/11 RMK AO2
14926KSTC STC20060228132009602/28/06 13:20:31  5-MIN KSTC 281920Z 16010KT 10SM CLR M01/M09 A2987 1070 53 -500 150/10 RMK AO2
14926KSTC STC20060228132509602/28/06 13:25:31  5-MIN KSTC 281925Z 15011KT 10SM CLR M01/M08 A2987 1070 56 -500 150/11 RMK AO2
14926KSTC STC20060228133009602/28/06 13:30:31  5-MIN KSTC 281930Z 14011KT 10SM CLR M01/M09 A2987 1080 53 -500 140/11 RMK AO2
14926KSTC STC20060228133509602/28/06 13:35:31  5-MIN KSTC 281935Z 15012KT 10SM CLR M01/M09 A2986 1080 53 -500 150/12 RMK AO2
14926KSTC STC20060228134009602/28/06 13:40:31  5-MIN KSTC 281940Z 15010KT 10SM CLR M01/M08 A2986 1080 56 -500 150/10 RMK AO2
14926KSTC STC20060228134509602/28/06 13:45:31  5-MIN KSTC 281945Z 14011KT 10SM CLR M01/M08 A2986 1090 56 -500 140/11 RMK AO2
14926KSTC STC20060228135011302/28/06 13:50:31  5-MIN KSTC 281950Z 14010KT 10SM CLR M01/M08 A2986 1090 56 -500 140/10 RMK AO2 SLP132 T10061083
14926KSTC STC20060228135509502/28/06 13:55:31  5-MIN KSTC 281955Z 14010KT 10SM CLR 00/M08 A2986 1080 53 -400 130/10 RMK AO2
14926KSTC STC20060228140009502/28/06 14:00:31  5-MIN KSTC 282000Z 14009KT 10SM CLR 00/M09 A2986 1080 51 -400 140/09 RMK AO2
14926KSTC STC20060228140509502/28/06 14:05:31  5-MIN KSTC 282005Z 14010KT 10SM CLR 00/M08 A2986 1090 53 -400 130/10 RMK AO2
14926KSTC STC20060228141009502/28/06 14:10:31  5-MIN KSTC 282010Z 14010KT 10SM CLR 00/M08 A2985 1090 53 -400 130/10 RMK AO2
14926KSTC STC20060228141509502/28/06 14:15:31  5-MIN KSTC 282015Z 13009KT 10SM CLR 00/M09 A2985 1090 51 -400 130/09 RMK AO2
14926KSTC STC20060228142009502/28/06 14:20:31  5-MIN KSTC 282020Z 14009KT 10SM CLR 00/M09 A2985 1100 51 -400 140/09 RMK AO2
14926KSTC STC20060228142509502/28/06 14:25:31  5-MIN KSTC 282025Z 14009KT 10SM CLR 01/M08 A2984 1100 51 -300 140/09 RMK AO2
14926KSTC STC20060228143009502/28/06 14:30:31  5-MIN KSTC 282030Z 14008KT 10SM CLR 01/M08 A2984 1100 51 -300 140/08 RMK AO2
14926KSTC STC20060228143509502/28/06 14:35:31  5-MIN KSTC 282035Z 14010KT 10SM CLR 01/M08 A2984 1100 51 -300 140/10 RMK AO2
14926KSTC STC20060228144009502/28/06 14:40:31  5-MIN KSTC 282040Z 14008KT 10SM CLR 00/M08 A2985 1100 56 -400 140/08 RMK AO2
14926KSTC STC20060228144509502/28/06 14:45:31  5-MIN KSTC 282045Z 15009KT 10SM CLR 01/M08 A2984 1100 54 -300 140/09 RMK AO2
14926KSTC STC20060228145011802/28/06 14:50:31  5-MIN KSTC 282050Z 13007KT 10SM CLR 01/M08 A2984 1100 51 -300 130/07 RMK AO2 SLP128 T00061083 56020
14926KSTC STC20060228145509502/28/06 14:55:31  5-MIN KSTC 282055Z 14008KT 10SM CLR 01/M08 A2984 1100 51 -300 140/08 RMK AO2
14926KSTC STC20060228150009502/28/06 15:00:31  5-MIN KSTC 282100Z 14008KT 10SM CLR 01/M08 A2984 1100 54 -300 140/08 RMK AO2
14926KSTC STC20060228150509502/28/06 15:05:31  5-MIN KSTC 282105Z 14008KT 10SM CLR 01/M08 A2984 1100 54 -300 140/08 RMK AO2
14926KSTC STC20060228151009502/28/06 15:10:31  5-MIN KSTC 282110Z 15009KT 10SM CLR 01/M07 A2984 1100 56 -300 140/09 RMK AO2
14926KSTC STC20060228151509502/28/06 15:15:31  5-MIN KSTC 282115Z 14009KT 10SM CLR 01/M08 A2984 1100 54 -300 140/09 RMK AO2
14926KSTC STC20060228152009502/28/06 15:20:31  5-MIN KSTC 282120Z 14008KT 10SM CLR 01/M08 A2984 1100 49 -200 130/08 RMK AO2
14926KSTC STC20060228152509502/28/06 15:25:31  5-MIN KSTC 282125Z 12007KT 10SM CLR 01/M08 A2984 1100 49 -200 120/07 RMK AO2
14926KSTC STC20060228153009502/28/06 15:30:31  5-MIN KSTC 282130Z 14009KT 10SM CLR 01/M08 A2984 1100 51 -200 140/09 RMK AO2
14926KSTC STC20060228153509502/28/06 15:35:31  5-MIN KSTC 282135Z 14009KT 10SM CLR 01/M07 A2984 1100 54 -200 140/09 RMK AO2
14926KSTC STC20060228154009502/28/06 15:40:31  5-MIN KSTC 282140Z 14009KT 10SM CLR 01/M07 A2984 1100 54 -200 140/09 RMK AO2
14926KSTC STC20060228154509502/28/06 15:45:31  5-MIN KSTC 282145Z 15009KT 10SM CLR 01/M08 A2984 1100 51 -200 150/09 RMK AO2
14926KSTC STC20060228155011202/28/06 15:50:31  5-MIN KSTC 282150Z 15008KT 10SM CLR 01/M07 A2984 1110 56 -200 140/08 RMK AO2 SLP125 T00111067
14926KSTC STC20060228155509502/28/06 15:55:31  5-MIN KSTC 282155Z 15008KT 10SM CLR 01/M07 A2984 1100 56 -200 140/08 RMK AO2
14926KSTC STC20060228160009502/28/06 16:00:31  5-MIN KSTC 282200Z 14009KT 10SM CLR 01/M08 A2983 1110 51 -200 140/09 RMK AO2
14926KSTC STC20060228160509502/28/06 16:05:31  5-MIN KSTC 282205Z 11008KT 10SM CLR 01/M08 A2983 1110 49 -200 110/08 RMK AO2
14926KSTC STC20060228161009502/28/06 16:10:31  5-MIN KSTC 282210Z 13007KT 10SM CLR 01/M08 A2983 1110 49 -200 130/07 RMK AO2
14926KSTC STC20060228161509502/28/06 16:15:31  5-MIN KSTC 282215Z 14008KT 10SM CLR 01/M08 A2983 1110 49 -200 130/08 RMK AO2
14926KSTC STC20060228162009502/28/06 16:20:31  5-MIN KSTC 282220Z 14006KT 10SM CLR 02/M08 A2983 1110 47 -200 130/06 RMK AO2
14926KSTC STC20060228162509502/28/06 16:25:31  5-MIN KSTC 282225Z 15008KT 10SM CLR 01/M08 A2984 1100 51 -200 150/08 RMK AO2
14926KSTC STC20060228163009502/28/06 16:30:31  5-MIN KSTC 282230Z 12010KT 10SM CLR 01/M07 A2983 1110 54 -200 120/10 RMK AO2
14926KSTC STC20060228163509502/28/06 16:35:31  5-MIN KSTC 282235Z 10005KT 10SM CLR 02/M08 A2981 1120 47 -100 100/05 RMK AO2
14926KSTC STC20060228164009502/28/06 16:40:31  5-MIN KSTC 282240Z 13007KT 10SM CLR 02/M08 A2982 1120 47 -100 130/07 RMK AO2
14926KSTC STC20060228164509502/28/06 16:45:31  5-MIN KSTC 282245Z 12007KT 10SM CLR 02/M08 A2982 1120 47 -100 120/07 RMK AO2
14926KSTC STC20060228165011202/28/06 16:50:31  5-MIN KSTC 282250Z 12006KT 10SM CLR 02/M09 A2981 1130 45 -100 120/06 RMK AO2 SLP117 T00171089
14926KSTC STC20060228165510002/28/06 16:55:31  5-MIN KSTC 282255Z AUTO 11006KT 10SM CLR 02/M08 A2981 1120 47 -100 110/06 RMK AO2
14926KSTC STC20060228170010002/28/06 17:00:31  5-MIN KSTC 282300Z AUTO 12005KT 10SM CLR 02/M08 A2982 1120 47 -100 120/05 RMK AO2
14926KSTC STC20060228170510002/28/06 17:05:31  5-MIN KSTC 282305Z AUTO 11006KT 10SM CLR 02/M09 A2982 1120 45 -100 100/06 RMK AO2
14926KSTC STC20060228171010002/28/06 17:10:31  5-MIN KSTC 282310Z AUTO 12004KT 10SM CLR 01/M09 A2982 1120 47 -200 120/04 RMK AO2
14926KSTC STC20060228171510002/28/06 17:15:31  5-MIN KSTC 282315Z AUTO 11005KT 10SM CLR 01/M09 A2981 1130 47 -200 100/05 RMK AO2
14926KSTC STC20060228172010002/28/06 17:20:31  5-MIN KSTC 282320Z AUTO 11004KT 10SM CLR 01/M09 A2982 1120 47 -200 110/04 RMK AO2
14926KSTC STC20060228172510002/28/06 17:25:31  5-MIN KSTC 282325Z AUTO 11004KT 10SM CLR 01/M09 A2982 1120 47 -200 110/04 RMK AO2
14926KSTC STC20060228173010002/28/06 17:30:31  5-MIN KSTC 282330Z AUTO 11005KT 10SM CLR 01/M09 A2981 1120 47 -200 110/05 RMK AO2
14926KSTC STC20060228173510002/28/06 17:35:31  5-MIN KSTC 282335Z AUTO 10005KT 10SM CLR 01/M09 A2982 1120 49 -300 100/05 RMK AO2
14926KSTC STC20060228174010002/28/06 17:40:31  5-MIN KSTC 282340Z AUTO 09006KT 10SM CLR 01/M09 A2981 1130 47 -200 090/06 RMK AO2
14926KSTC STC20060228174510002/28/06 17:45:31  5-MIN KSTC 282345Z AUTO 09005KT 10SM CLR 01/M09 A2981 1120 47 -200 090/05 RMK AO2
14926KSTC STC20060228175013502/28/06 17:50:31  5-MIN KSTC 282350Z AUTO 08005KT 10SM CLR 01/M09 A2982 1120 49 -300 080/05 RMK AO2 SLP120 T00061089 10017 21017 56020
14926KSTC STC20060228175510002/28/06 17:55:31  5-MIN KSTC 282355Z AUTO 09005KT 10SM CLR 01/M09 A2981 1130 49 -300 090/05 RMK AO2
14926KSTC STC20060228180010002/28/06 18:00:31  5-MIN KSTC 010000Z AUTO 09005KT 10SM CLR 01/M09 A2981 1130 49 -300 090/05 RMK AO2
14926KSTC STC20060228180510002/28/06 18:05:31  5-MIN KSTC 010005Z AUTO 09004KT 10SM CLR 01/M09 A2982 1120 49 -300 080/04 RMK AO2
14926KSTC STC20060228181010002/28/06 18:10:31  5-MIN KSTC 010010Z AUTO 09004KT 10SM CLR 00/M09 A2982 1120 51 -300 090/04 RMK AO2
14926KSTC STC20060228181510002/28/06 18:15:31  5-MIN KSTC 010015Z AUTO 08005KT 10SM CLR 00/M09 A2982 1120 51 -300 070/05 RMK AO2
14926KSTC STC20060228182010002/28/06 18:20:31  5-MIN KSTC 010020Z AUTO 08007KT 10SM CLR 00/M09 A2982 1120 51 -300 080/07 RMK AO2
14926KSTC STC20060228182510002/28/06 18:25:31  5-MIN KSTC 010025Z AUTO 08007KT 10SM CLR 00/M09 A2982 1120 51 -300 080/07 RMK AO2
14926KSTC STC20060228183010002/28/06 18:30:31  5-MIN KSTC 010030Z AUTO 08007KT 10SM CLR 00/M09 A2982 1120 51 -400 080/07 RMK AO2
14926KSTC STC20060228183510102/28/06 18:35:31  5-MIN KSTC 010035Z AUTO 08008KT 10SM CLR M01/M09 A2982 1120 53 -400 080/08 RMK AO2
14926KSTC STC20060228184010102/28/06 18:40:31  5-MIN KSTC 010040Z AUTO 08009KT 10SM CLR M01/M09 A2981 1120 53 -400 080/09 RMK AO2
14926KSTC STC20060228184510102/28/06 18:45:31  5-MIN KSTC 010045Z AUTO 08010KT 10SM CLR M01/M09 A2981 1130 53 -400 080/10 RMK AO2
14926KSTC STC20060228185011802/28/06 18:50:31  5-MIN KSTC 010050Z AUTO 08009KT 10SM CLR M01/M09 A2981 1130 53 -400 080/09 RMK AO2 SLP120 T10061089
14926KSTC STC20060228185510102/28/06 18:55:31  5-MIN KSTC 010055Z AUTO 08009KT 10SM CLR M01/M09 A2982 1120 51 -400 080/09 RMK AO2
14926KSTC STC20060228190010102/28/06 19:00:31  5-MIN KSTC 010100Z AUTO 09010KT 10SM CLR M01/M09 A2982 1120 51 -400 090/10 RMK AO2
14926KSTC STC20060228190510102/28/06 19:05:31  5-MIN KSTC 010105Z AUTO 09009KT 10SM CLR M01/M09 A2982 1110 51 -400 090/09 RMK AO2
14926KSTC STC20060228191010102/28/06 19:10:31  5-MIN KSTC 010110Z AUTO 09009KT 10SM CLR M01/M09 A2983 1110 51 -400 080/09 RMK AO2
14926KSTC STC20060228191510102/28/06 19:15:31  5-MIN KSTC 010115Z AUTO 09009KT 10SM CLR M01/M09 A2983 1110 51 -400 090/09 RMK AO2
14926KSTC STC20060228192010102/28/06 19:20:31  5-MIN KSTC 010120Z AUTO 09008KT 10SM CLR M01/M09 A2983 1110 51 -400 090/08 RMK AO2
14926KSTC STC20060228192510102/28/06 19:25:31  5-MIN KSTC 010125Z AUTO 09008KT 10SM CLR M01/M09 A2984 1100 53 -500 080/08 RMK AO2
14926KSTC STC20060228193010102/28/06 19:30:31  5-MIN KSTC 010130Z AUTO 10007KT 10SM CLR M01/M09 A2984 1100 53 -500 090/07 RMK AO2
14926KSTC STC20060228193510102/28/06 19:35:31  5-MIN KSTC 010135Z AUTO 10007KT 10SM CLR M01/M09 A2984 1100 53 -500 100/07 RMK AO2
14926KSTC STC20060228194010102/28/06 19:40:31  5-MIN KSTC 010140Z AUTO 09007KT 10SM CLR M01/M09 A2983 1110 53 -500 090/07 RMK AO2
14926KSTC STC20060228194510102/28/06 19:45:31  5-MIN KSTC 010145Z AUTO 09007KT 10SM CLR M01/M09 A2983 1110 53 -500 090/07 RMK AO2
14926KSTC STC20060228195011802/28/06 19:50:31  5-MIN KSTC 010150Z AUTO 10007KT 10SM CLR M01/M09 A2984 1100 53 -500 100/07 RMK AO2 SLP127 T10111094
14926KSTC STC20060228195510102/28/06 19:55:31  5-MIN KSTC 010155Z AUTO 10008KT 10SM CLR M01/M09 A2984 1110 53 -500 100/08 RMK AO2
14926KSTC STC20060228200010102/28/06 20:00:31  5-MIN KSTC 010200Z AUTO 10008KT 10SM CLR M01/M09 A2984 1100 53 -500 100/08 RMK AO2
14926KSTC STC20060228200510102/28/06 20:05:31  5-MIN KSTC 010205Z AUTO 10007KT 10SM CLR M01/M09 A2984 1110 53 -500 090/07 RMK AO2
14926KSTC STC20060228201010102/28/06 20:10:31  5-MIN KSTC 010210Z AUTO 10007KT 10SM CLR M01/M10 A2984 1100 51 -500 100/07 RMK AO2
14926KSTC STC20060228201510102/28/06 20:15:31  5-MIN KSTC 010215Z AUTO 09008KT 10SM CLR M01/M10 A2984 1100 51 -500 090/08 RMK AO2
14926KSTC STC20060228202010102/28/06 20:20:31  5-MIN KSTC 010220Z AUTO 09007KT 10SM CLR M01/M10 A2984 1100 51 -500 090/07 RMK AO2
14926KSTC STC20060228202510102/28/06 20:25:31  5-MIN KSTC 010225Z AUTO 09007KT 10SM CLR M01/M10 A2984 1100 51 -500 090/07 RMK AO2
14926KSTC STC20060228203010102/28/06 20:30:31  5-MIN KSTC 010230Z AUTO 09008KT 10SM CLR M01/M10 A2984 1100 51 -500 090/08 RMK AO2
14926KSTC STC20060228203510702/28/06 20:35:31  5-MIN KSTC 010235Z AUTO 09008G15KT 10SM CLR M01/M10 A2985 1100 51 -500 090/08G15 RMK AO2
14926KSTC STC20060228204010102/28/06 20:40:31  5-MIN KSTC 010240Z AUTO 10008KT 10SM CLR M01/M10 A2985 1090 51 -500 100/08 RMK AO2
14926KSTC STC20060228204510102/28/06 20:45:31  5-MIN KSTC 010245Z AUTO 09008KT 10SM CLR M01/M10 A2985 1090 51 -500 090/08 RMK AO2
14926KSTC STC20060228205012402/28/06 20:50:31  5-MIN KSTC 010250Z AUTO 10009KT 10SM CLR M01/M10 A2985 1090 51 -500 090/09 RMK AO2 SLP132 T10111100 56010
14926KSTC STC20060228205510102/28/06 20:55:31  5-MIN KSTC 010255Z AUTO 10007KT 10SM CLR M01/M10 A2985 1090 51 -500 090/07 RMK AO2
14926KSTC STC20060228210010102/28/06 21:00:31  5-MIN KSTC 010300Z AUTO 10007KT 10SM CLR M01/M10 A2985 1090 51 -500 100/07 RMK AO2
14926KSTC STC20060228210510102/28/06 21:05:31  5-MIN KSTC 010305Z AUTO 10007KT 10SM CLR M01/M10 A2985 1090 51 -500 090/07 RMK AO2
14926KSTC STC20060228211010102/28/06 21:10:31  5-MIN KSTC 010310Z AUTO 09007KT 10SM CLR M02/M10 A2985 1090 53 -600 090/07 RMK AO2
14926KSTC STC20060228211510102/28/06 21:15:31  5-MIN KSTC 010315Z AUTO 09008KT 10SM CLR M02/M10 A2985 1090 53 -600 090/08 RMK AO2
14926KSTC STC20060228212010102/28/06 21:20:31  5-MIN KSTC 010320Z AUTO 09009KT 10SM CLR M02/M10 A2985 1090 53 -600 090/09 RMK AO2
14926KSTC STC20060228212510102/28/06 21:25:31  5-MIN KSTC 010325Z AUTO 09008KT 10SM CLR M02/M10 A2985 1090 53 -600 090/08 RMK AO2
14926KSTC STC20060228213010102/28/06 21:30:31  5-MIN KSTC 010330Z AUTO 09009KT 10SM CLR M02/M10 A2985 1090 53 -600 090/09 RMK AO2
14926KSTC STC20060228213510102/28/06 21:35:31  5-MIN KSTC 010335Z AUTO 09009KT 10SM CLR M02/M10 A2985 1090 53 -600 090/09 RMK AO2
14926KSTC STC20060228214010102/28/06 21:40:31  5-MIN KSTC 010340Z AUTO 09007KT 10SM CLR M02/M11 A2985 1090 51 -600 090/07 RMK AO2
14926KSTC STC20060228214510102/28/06 21:45:31  5-MIN KSTC 010345Z AUTO 10008KT 10SM CLR M02/M11 A2985 1090 51 -600 090/08 RMK AO2
14926KSTC STC20060228215011802/28/06 21:50:31  5-MIN KSTC 010350Z AUTO 09009KT 10SM CLR M02/M11 A2985 1090 51 -600 090/09 RMK AO2 SLP132 T10171106
14926KSTC STC20060228215510102/28/06 21:55:31  5-MIN KSTC 010355Z AUTO 10007KT 10SM CLR M02/M11 A2986 1080 51 -600 090/07 RMK AO2
14926KSTC STC20060228220010102/28/06 22:00:31  5-MIN KSTC 010400Z AUTO 09007KT 10SM CLR M02/M11 A2986 1080 51 -600 090/07 RMK AO2
14926KSTC STC20060228220510102/28/06 22:05:31  5-MIN KSTC 010405Z AUTO 10009KT 10SM CLR M02/M11 A2986 1080 51 -600 090/09 RMK AO2
14926KSTC STC20060228221010102/28/06 22:10:31  5-MIN KSTC 010410Z AUTO 10007KT 10SM CLR M02/M11 A2986 1090 51 -600 090/07 RMK AO2
14926KSTC STC20060228221510102/28/06 22:15:31  5-MIN KSTC 010415Z AUTO 10007KT 10SM CLR M02/M11 A2986 1090 51 -600 100/07 RMK AO2
14926KSTC STC20060228222010102/28/06 22:20:31  5-MIN KSTC 010420Z AUTO 10007KT 10SM CLR M02/M11 A2985 1090 53 -700 090/07 RMK AO2
14926KSTC STC20060228222510102/28/06 22:25:31  5-MIN KSTC 010425Z AUTO 10007KT 10SM CLR M02/M11 A2986 1090 51 -600 090/07 RMK AO2
14926KSTC STC20060228223010102/28/06 22:30:31  5-MIN KSTC 010430Z AUTO 09009KT 10SM CLR M02/M11 A2985 1090 51 -600 090/09 RMK AO2
14926KSTC STC20060228223510102/28/06 22:35:31  5-MIN KSTC 010435Z AUTO 09007KT 10SM CLR M02/M11 A2985 1090 53 -700 090/07 RMK AO2
14926KSTC STC20060228224010102/28/06 22:40:31  5-MIN KSTC 010440Z AUTO 09007KT 10SM CLR M02/M11 A2985 1090 53 -700 090/07 RMK AO2
14926KSTC STC20060228224510102/28/06 22:45:31  5-MIN KSTC 010445Z AUTO 09007KT 10SM CLR M02/M11 A2985 1090 53 -700 090/07 RMK AO2
14926KSTC STC20060228225011802/28/06 22:50:31  5-MIN KSTC 010450Z AUTO 10007KT 10SM CLR M02/M11 A2985 1090 53 -700 100/07 RMK AO2 SLP131 T10221106
14926KSTC STC20060228225510102/28/06 22:55:31  5-MIN KSTC 010455Z AUTO 10009KT 10SM CLR M02/M11 A2985 1090 53 -700 090/09 RMK AO2
14926KSTC STC20060228230010102/28/06 23:00:31  5-MIN KSTC 010500Z AUTO 10008KT 10SM CLR M02/M11 A2985 1090 53 -700 090/08 RMK AO2
14926KSTC STC20060228230510102/28/06 23:05:31  5-MIN KSTC 010505Z AUTO 10007KT 10SM CLR M02/M11 A2985 1090 53 -700 090/07 RMK AO2
14926KSTC STC20060228231010102/28/06 23:10:31  5-MIN KSTC 010510Z AUTO 09008KT 10SM CLR M02/M11 A2985 1090 53 -700 090/08 RMK AO2
14926KSTC STC20060228231510102/28/06 23:15:31  5-MIN KSTC 010515Z AUTO 10007KT 10SM CLR M02/M11 A2985 1090 53 -700 100/07 RMK AO2
14926KSTC STC20060228232010102/28/06 23:20:31  5-MIN KSTC 010520Z AUTO 09009KT 10SM CLR M02/M11 A2984 1100 53 -700 080/09 RMK AO2
14926KSTC STC20060228232510102/28/06 23:25:31  5-MIN KSTC 010525Z AUTO 09009KT 10SM CLR M02/M10 A2984 1100 55 -700 090/09 RMK AO2
14926KSTC STC20060228233010102/28/06 23:30:31  5-MIN KSTC 010530Z AUTO 09008KT 10SM CLR M02/M10 A2985 1100 55 -700 080/08 RMK AO2
14926KSTC STC20060228233510102/28/06 23:35:31  5-MIN KSTC 010535Z AUTO 09009KT 10SM CLR M02/M10 A2984 1100 55 -700 080/09 RMK AO2
14926KSTC STC20060228234010102/28/06 23:40:31  5-MIN KSTC 010540Z AUTO 09010KT 10SM CLR M02/M10 A2984 1110 55 -600 080/10 RMK AO2
14926KSTC STC20060228234510102/28/06 23:45:31  5-MIN KSTC 010545Z AUTO 09009KT 10SM CLR M02/M10 A2983 1110 55 -600 080/09 RMK AO2
14926KSTC STC20060228235014602/28/06 23:50:31  5-MIN KSTC 010550Z AUTO 09010KT 10SM CLR M02/M11 A2983 1110 53 -600 090/10 RMK AO2 SLP124 T10221106 10006 21022 400171083 53014
14926KSTC STC20060228235510102/28/06 23:55:31  5-MIN KSTC 010555Z AUTO 09010KT 10SM CLR M02/M10 A2983 1110 55 -600 080/10 RMK AO2
