14926KSTC STC20051001000009910/01/05 00:00:35  5-MIN KSTC 010600Z AUTO 16004KT 10SM CLR 14/11 A2975 1180 80 1400 160/04 RMK AO2
14926KSTC STC20051001000509910/01/05 00:05:31  5-MIN KSTC 010605Z AUTO 16003KT 10SM CLR 14/11 A2975 1180 80 1400 160/03 RMK AO2
14926KSTC STC20051001001009910/01/05 00:10:31  5-MIN KSTC 010610Z AUTO 16003KT 10SM CLR 14/11 A2975 1180 77 1400 160/03 RMK AO2
14926KSTC STC20051001001509910/01/05 00:15:31  5-MIN KSTC 010615Z AUTO 16003KT 10SM CLR 14/11 A2975 1180 77 1400 160/03 RMK AO2
14926KSTC STC20051001002009910/01/05 00:20:31  5-MIN KSTC 010620Z AUTO 15003KT 10SM CLR 14/11 A2975 1180 80 1400 150/03 RMK AO2
14926KSTC STC20051001002509910/01/05 00:25:31  5-MIN KSTC 010625Z AUTO 15004KT 10SM CLR 14/11 A2975 1180 80 1400 150/04 RMK AO2
14926KSTC STC20051001003009910/01/05 00:30:31  5-MIN KSTC 010630Z AUTO 16005KT 10SM CLR 13/11 A2975 1180 83 1300 150/05 RMK AO2
14926KSTC STC20051001003509910/01/05 00:35:31  5-MIN KSTC 010635Z AUTO 16005KT 10SM CLR 12/10 A2976 1180 86 1200 160/05 RMK AO2
14926KSTC STC20051001004009910/01/05 00:40:31  5-MIN KSTC 010640Z AUTO 16005KT 10SM CLR 12/10 A2976 1180 86 1200 160/05 RMK AO2
14926KSTC STC20051001004509910/01/05 00:45:31  5-MIN KSTC 010645Z AUTO 16005KT 10SM CLR 13/10 A2976 1180 83 1200 160/05 RMK AO2
14926KSTC STC20051001005011610/01/05 00:50:31  5-MIN KSTC 010650Z AUTO 17005KT 10SM CLR 13/10 A2976 1180 80 1300 160/05 RMK AO2 SLP084 T01330100
14926KSTC STC20051001005509910/01/05 00:55:31  5-MIN KSTC 010655Z AUTO 17004KT 10SM CLR 13/11 A2976 1170 83 1300 170/04 RMK AO2
14926KSTC STC20051001010009910/01/05 01:00:31  5-MIN KSTC 010700Z AUTO 17004KT 10SM CLR 13/11 A2976 1170 83 1300 170/04 RMK AO2
14926KSTC STC20051001010509910/01/05 01:05:31  5-MIN KSTC 010705Z AUTO 16004KT 10SM CLR 13/11 A2976 1170 83 1300 160/04 RMK AO2
14926KSTC STC20051001011009910/01/05 01:10:31  5-MIN KSTC 010710Z AUTO 14004KT 10SM CLR 13/11 A2977 1170 83 1300 140/04 RMK AO2
14926KSTC STC20051001011509910/01/05 01:15:31  5-MIN KSTC 010715Z AUTO 00000KT 10SM CLR 13/10 A2977 1170 83 1200 000/00 RMK AO2
14926KSTC STC20051001012009910/01/05 01:20:31  5-MIN KSTC 010720Z AUTO 00000KT 10SM CLR 12/10 A2977 1170 86 1100 000/00 RMK AO2
14926KSTC STC20051001012509910/01/05 01:25:31  5-MIN KSTC 010725Z AUTO 00000KT 10SM CLR 12/10 A2977 1170 86 1100 000/00 RMK AO2
14926KSTC STC20051001013009910/01/05 01:30:31  5-MIN KSTC 010730Z AUTO 15004KT 10SM CLR 12/10 A2977 1160 86 1100 150/04 RMK AO2
14926KSTC STC20051001013509910/01/05 01:35:31  5-MIN KSTC 010735Z AUTO 15005KT 10SM CLR 11/10 A2977 1160 93 1000 150/05 RMK AO2
14926KSTC STC20051001014009910/01/05 01:40:31  5-MIN KSTC 010740Z AUTO 15005KT 10SM CLR 11/10 A2978 1160 93 1000 140/05 RMK AO2
14926KSTC STC20051001014509910/01/05 01:45:31  5-MIN KSTC 010745Z AUTO 14005KT 10SM CLR 12/10 A2978 1160 89 1100 140/05 RMK AO2
14926KSTC STC20051001015011610/01/05 01:50:31  5-MIN KSTC 010750Z AUTO 15005KT 10SM CLR 12/10 A2977 1160 89 1100 150/05 RMK AO2 SLP089 T01170100
14926KSTC STC20051001015509910/01/05 01:55:31  5-MIN KSTC 010755Z AUTO 14006KT 10SM CLR 12/10 A2978 1160 89 1100 140/06 RMK AO2
14926KSTC STC20051001020009910/01/05 02:00:31  5-MIN KSTC 010800Z AUTO 14005KT 10SM CLR 12/10 A2978 1160 86 1100 140/05 RMK AO2
14926KSTC STC20051001020509910/01/05 02:05:31  5-MIN KSTC 010805Z AUTO 14005KT 10SM CLR 13/11 A2978 1160 86 1200 140/05 RMK AO2
14926KSTC STC20051001021009910/01/05 02:10:31  5-MIN KSTC 010810Z AUTO 15005KT 10SM CLR 12/11 A2978 1160 89 1100 140/05 RMK AO2
14926KSTC STC20051001021509910/01/05 02:15:31  5-MIN KSTC 010815Z AUTO 15005KT 10SM CLR 13/11 A2977 1160 86 1200 140/05 RMK AO2
14926KSTC STC20051001022009910/01/05 02:20:31  5-MIN KSTC 010820Z AUTO 15006KT 10SM CLR 12/11 A2977 1160 89 1100 150/06 RMK AO2
14926KSTC STC20051001022509910/01/05 02:25:31  5-MIN KSTC 010825Z AUTO 15006KT 10SM CLR 12/11 A2977 1160 89 1100 150/06 RMK AO2
14926KSTC STC20051001023009910/01/05 02:30:31  5-MIN KSTC 010830Z AUTO 15007KT 10SM CLR 12/11 A2977 1160 89 1100 150/07 RMK AO2
14926KSTC STC20051001023509910/01/05 02:35:31  5-MIN KSTC 010835Z AUTO 15007KT 10SM CLR 12/10 A2977 1160 86 1100 150/07 RMK AO2
14926KSTC STC20051001024009910/01/05 02:40:31  5-MIN KSTC 010840Z AUTO 16007KT 10SM CLR 12/10 A2978 1160 89 1100 150/07 RMK AO2
14926KSTC STC20051001024509910/01/05 02:45:31  5-MIN KSTC 010845Z AUTO 16006KT 10SM CLR 12/10 A2978 1160 86 1100 150/06 RMK AO2
14926KSTC STC20051001025012210/01/05 02:50:31  5-MIN KSTC 010850Z AUTO 15006KT 10SM CLR 12/11 A2977 1160 89 1100 150/06 RMK AO2 SLP088 T01220106 51014
14926KSTC STC20051001025509910/01/05 02:55:31  5-MIN KSTC 010855Z AUTO 15006KT 10SM CLR 12/11 A2977 1160 89 1100 150/06 RMK AO2
14926KSTC STC20051001030009910/01/05 03:00:31  5-MIN KSTC 010900Z AUTO 15006KT 10SM CLR 13/11 A2978 1160 86 1200 150/06 RMK AO2
14926KSTC STC20051001030509910/01/05 03:05:31  5-MIN KSTC 010905Z AUTO 15005KT 10SM CLR 13/11 A2978 1160 86 1200 150/05 RMK AO2
14926KSTC STC20051001031009910/01/05 03:10:31  5-MIN KSTC 010910Z AUTO 15006KT 10SM CLR 13/11 A2978 1160 86 1200 150/06 RMK AO2
14926KSTC STC20051001031509910/01/05 03:15:31  5-MIN KSTC 010915Z AUTO 15005KT 10SM CLR 13/11 A2978 1160 86 1200 150/05 RMK AO2
14926KSTC STC20051001032009910/01/05 03:20:31  5-MIN KSTC 010920Z AUTO 14005KT 10SM CLR 13/11 A2979 1150 86 1200 140/05 RMK AO2
14926KSTC STC20051001032509910/01/05 03:25:31  5-MIN KSTC 010925Z AUTO 15004KT 10SM CLR 13/11 A2978 1150 86 1200 140/04 RMK AO2
14926KSTC STC20051001033009910/01/05 03:30:31  5-MIN KSTC 010930Z AUTO 14004KT 10SM CLR 13/11 A2978 1150 86 1200 140/04 RMK AO2
14926KSTC STC20051001033509910/01/05 03:35:31  5-MIN KSTC 010935Z AUTO 14004KT 10SM CLR 13/11 A2978 1150 86 1200 140/04 RMK AO2
14926KSTC STC20051001034009910/01/05 03:40:31  5-MIN KSTC 010940Z AUTO 13003KT 10SM CLR 13/11 A2978 1150 86 1200 130/03 RMK AO2
14926KSTC STC20051001034509910/01/05 03:45:31  5-MIN KSTC 010945Z AUTO 15003KT 10SM CLR 13/11 A2978 1150 86 1200 150/03 RMK AO2
14926KSTC STC20051001035011610/01/05 03:50:31  5-MIN KSTC 010950Z AUTO 15004KT 10SM CLR 12/11 A2978 1150 89 1100 150/04 RMK AO2 SLP091 T01220106
14926KSTC STC20051001035509910/01/05 03:55:31  5-MIN KSTC 010955Z AUTO 00000KT 10SM CLR 12/10 A2979 1150 89 1100 000/00 RMK AO2
14926KSTC STC20051001040009910/01/05 04:00:31  5-MIN KSTC 011000Z AUTO 00000KT 10SM CLR 12/10 A2979 1150 89 1100 000/00 RMK AO2
14926KSTC STC20051001040509910/01/05 04:05:31  5-MIN KSTC 011005Z AUTO 00000KT 10SM CLR 12/10 A2979 1150 89 1100 000/00 RMK AO2
14926KSTC STC20051001041009910/01/05 04:10:31  5-MIN KSTC 011010Z AUTO 00000KT 10SM CLR 12/10 A2979 1140 89 1100 000/00 RMK AO2
14926KSTC STC20051001041509910/01/05 04:15:31  5-MIN KSTC 011015Z AUTO 14003KT 10SM CLR 11/10 A2979 1140 93 1000 130/03 RMK AO2
14926KSTC STC20051001042009810/01/05 04:20:31  5-MIN KSTC 011020Z AUTO 14005KT 10SM CLR 11/09 A2979 1140 93 900 140/05 RMK AO2
14926KSTC STC20051001042509810/01/05 04:25:31  5-MIN KSTC 011025Z AUTO 15006KT 10SM CLR 10/09 A2980 1140 96 900 140/06 RMK AO2
14926KSTC STC20051001043009810/01/05 04:30:31  5-MIN KSTC 011030Z AUTO 14006KT 10SM CLR 10/09 A2980 1140 96 900 140/06 RMK AO2
14926KSTC STC20051001043509810/01/05 04:35:31  5-MIN KSTC 011035Z AUTO 14007KT 10SM CLR 11/09 A2980 1140 93 900 140/07 RMK AO2
14926KSTC STC20051001044009810/01/05 04:40:31  5-MIN KSTC 011040Z AUTO 15007KT 10SM CLR 11/09 A2979 1140 93 900 150/07 RMK AO2
14926KSTC STC20051001044509810/01/05 04:45:31  5-MIN KSTC 011045Z AUTO 15007KT 10SM CLR 11/09 A2979 1140 93 900 150/07 RMK AO2
14926KSTC STC20051001045011610/01/05 04:50:31  5-MIN KSTC 011050Z AUTO 15006KT 10SM CLR 11/10 A2980 1140 93 1000 150/06 RMK AO2 SLP096 T01110100
14926KSTC STC20051001045509910/01/05 04:55:31  5-MIN KSTC 011055Z AUTO 15007KT 10SM CLR 11/09 A2980 1140 89 1000 150/07 RMK AO2
14926KSTC STC20051001050009910/01/05 05:00:31  5-MIN KSTC 011100Z AUTO 16007KT 10SM CLR 11/10 A2980 1140 93 1000 150/07 RMK AO2
14926KSTC STC20051001050509910/01/05 05:05:31  5-MIN KSTC 011105Z AUTO 16008KT 10SM CLR 11/10 A2980 1140 93 1000 150/08 RMK AO2
14926KSTC STC20051001051009910/01/05 05:10:31  5-MIN KSTC 011110Z AUTO 15008KT 10SM CLR 11/10 A2980 1140 93 1000 150/08 RMK AO2
14926KSTC STC20051001051509910/01/05 05:15:31  5-MIN KSTC 011115Z AUTO 15007KT 10SM CLR 11/10 A2980 1140 93 1000 150/07 RMK AO2
14926KSTC STC20051001052009910/01/05 05:20:31  5-MIN KSTC 011120Z AUTO 15006KT 10SM CLR 11/10 A2980 1130 93 1000 150/06 RMK AO2
14926KSTC STC20051001052509910/01/05 05:25:31  5-MIN KSTC 011125Z AUTO 15006KT 10SM CLR 12/10 A2981 1130 89 1000 150/06 RMK AO2
14926KSTC STC20051001053009910/01/05 05:30:31  5-MIN KSTC 011130Z AUTO 14003KT 10SM CLR 12/10 A2981 1130 89 1000 140/03 RMK AO2
14926KSTC STC20051001053509910/01/05 05:35:31  5-MIN KSTC 011135Z AUTO 15004KT 10SM CLR 12/10 A2981 1130 89 1000 150/04 RMK AO2
14926KSTC STC20051001054009910/01/05 05:40:31  5-MIN KSTC 011140Z AUTO 14003KT 10SM CLR 12/10 A2982 1120 89 1000 130/03 RMK AO2
14926KSTC STC20051001054509910/01/05 05:45:31  5-MIN KSTC 011145Z AUTO 00000KT 10SM CLR 12/10 A2982 1120 89 1000 000/00 RMK AO2
14926KSTC STC20051001055013410/01/05 05:50:31  5-MIN KSTC 011150Z AUTO 00000KT 10SM CLR 12/10 A2982 1120 89 1000 000/00 RMK AO2 SLP105 T01170100 10144 20100 51008
14926KSTC STC20051001055509910/01/05 05:55:31  5-MIN KSTC 011155Z AUTO 09003KT 10SM CLR 12/10 A2982 1120 89 1000 090/03 RMK AO2
14926KSTC STC20051001060009410/01/05 06:00:31  5-MIN KSTC 011200Z 12003KT 10SM CLR 11/10 A2982 1120 93 1000 120/03 RMK AO2
14926KSTC STC20051001060509310/01/05 06:05:31  5-MIN KSTC 011205Z 14004KT 10SM CLR 11/10 A2982 1120 96 900 140/04 RMK AO2
14926KSTC STC20051001061009210/01/05 06:10:31  5-MIN KSTC 011210Z 15006KT 9SM CLR 10/09 A2983 1110 93 800 140/06 RMK AO2
14926KSTC STC20051001061509210/01/05 06:15:31  5-MIN KSTC 011215Z 15006KT 7SM CLR 10/09 A2983 1110 93 800 150/06 RMK AO2
14926KSTC STC20051001062009510/01/05 06:20:31  5-MIN KSTC 011220Z 15006KT 6SM BR CLR 10/09 A2983 1110 93 800 150/06 RMK AO2
14926KSTC STC20051001062509210/01/05 06:25:31  5-MIN KSTC 011225Z 14006KT 7SM CLR 10/09 A2983 1110 96 800 140/06 RMK AO2
14926KSTC STC20051001063009210/01/05 06:30:31  5-MIN KSTC 011230Z 14005KT 8SM CLR 11/09 A2984 1100 93 900 130/05 RMK AO2
14926KSTC STC20051001063509310/01/05 06:35:31  5-MIN KSTC 011235Z 14004KT 10SM CLR 11/09 A2984 1100 93 900 130/04 RMK AO2
14926KSTC STC20051001064009310/01/05 06:40:31  5-MIN KSTC 011240Z 14005KT 10SM CLR 11/10 A2984 1100 93 900 130/05 RMK AO2
14926KSTC STC20051001064509410/01/05 06:45:31  5-MIN KSTC 011245Z 14005KT 10SM CLR 12/10 A2984 1100 89 1000 130/05 RMK AO2
14926KSTC STC20051001065011110/01/05 06:50:31  5-MIN KSTC 011250Z 14004KT 10SM CLR 12/10 A2984 1100 89 1000 140/04 RMK AO2 SLP113 T01170100
14926KSTC STC20051001065509410/01/05 06:55:31  5-MIN KSTC 011255Z 14005KT 10SM CLR 12/10 A2984 1100 89 1000 140/05 RMK AO2
14926KSTC STC20051001070009310/01/05 07:00:31  5-MIN KSTC 011300Z 14004KT 10SM CLR 11/10 A2985 1100 93 900 140/04 RMK AO2
14926KSTC STC20051001070509410/01/05 07:05:31  5-MIN KSTC 011305Z 14004KT 10SM CLR 12/10 A2985 1100 89 1000 130/04 RMK AO2
14926KSTC STC20051001071009410/01/05 07:10:31  5-MIN KSTC 011310Z 14005KT 10SM CLR 12/10 A2985 1090 89 1000 140/05 RMK AO2
14926KSTC STC20051001071509410/01/05 07:15:31  5-MIN KSTC 011315Z 14004KT 10SM CLR 12/11 A2985 1090 93 1000 140/04 RMK AO2
14926KSTC STC20051001072009410/01/05 07:20:31  5-MIN KSTC 011320Z 14004KT 10SM CLR 12/11 A2985 1090 89 1100 140/04 RMK AO2
14926KSTC STC20051001072509410/01/05 07:25:31  5-MIN KSTC 011325Z 14003KT 10SM CLR 12/11 A2985 1090 89 1100 130/03 RMK AO2
14926KSTC STC20051001073009410/01/05 07:30:31  5-MIN KSTC 011330Z 13004KT 10SM CLR 12/11 A2985 1090 89 1100 130/04 RMK AO2
14926KSTC STC20051001073509410/01/05 07:35:31  5-MIN KSTC 011335Z 13003KT 10SM CLR 13/11 A2985 1090 86 1100 130/03 RMK AO2
14926KSTC STC20051001074009410/01/05 07:40:31  5-MIN KSTC 011340Z 13005KT 10SM CLR 13/11 A2986 1090 86 1100 130/05 RMK AO2
14926KSTC STC20051001074509410/01/05 07:45:31  5-MIN KSTC 011345Z 14005KT 10SM CLR 13/11 A2986 1080 83 1200 130/05 RMK AO2
14926KSTC STC20051001075011110/01/05 07:50:31  5-MIN KSTC 011350Z 13005KT 10SM CLR 13/11 A2986 1080 83 1200 130/05 RMK AO2 SLP119 T01330106
14926KSTC STC20051001075509410/01/05 07:55:31  5-MIN KSTC 011355Z 14005KT 10SM CLR 13/11 A2986 1080 83 1200 130/05 RMK AO2
14926KSTC STC20051001080009410/01/05 08:00:31  5-MIN KSTC 011400Z 14004KT 10SM CLR 14/11 A2986 1080 80 1200 140/04 RMK AO2
14926KSTC STC20051001080509410/01/05 08:05:31  5-MIN KSTC 011405Z 15006KT 10SM CLR 14/11 A2986 1080 83 1200 150/06 RMK AO2
14926KSTC STC20051001081009410/01/05 08:10:31  5-MIN KSTC 011410Z 15006KT 10SM CLR 14/11 A2987 1080 83 1200 150/06 RMK AO2
14926KSTC STC20051001081509410/01/05 08:15:31  5-MIN KSTC 011415Z 15005KT 10SM CLR 14/11 A2986 1080 80 1300 150/05 RMK AO2
14926KSTC STC20051001082009410/01/05 08:20:31  5-MIN KSTC 011420Z 15006KT 10SM CLR 14/11 A2986 1080 80 1300 150/06 RMK AO2
14926KSTC STC20051001082509410/01/05 08:25:31  5-MIN KSTC 011425Z 17005KT 10SM CLR 15/11 A2987 1080 77 1400 160/05 RMK AO2
14926KSTC STC20051001083009410/01/05 08:30:31  5-MIN KSTC 011430Z 16005KT 10SM CLR 15/11 A2987 1070 77 1400 160/05 RMK AO2
14926KSTC STC20051001083509410/01/05 08:35:31  5-MIN KSTC 011435Z 18004KT 10SM CLR 16/11 A2987 1070 74 1400 170/04 RMK AO2
14926KSTC STC20051001084009410/01/05 08:40:31  5-MIN KSTC 011440Z 17006KT 10SM CLR 16/11 A2987 1070 74 1400 160/06 RMK AO2
14926KSTC STC20051001084509410/01/05 08:45:31  5-MIN KSTC 011445Z 17007KT 10SM CLR 16/11 A2987 1070 72 1500 170/07 RMK AO2
14926KSTC STC20051001085011710/01/05 08:50:31  5-MIN KSTC 011450Z 18007KT 10SM CLR 16/11 A2987 1070 72 1500 180/07 RMK AO2 SLP122 T01610111 53014
14926KSTC STC20051001085509410/01/05 08:55:31  5-MIN KSTC 011455Z 17007KT 10SM CLR 16/11 A2987 1070 72 1500 160/07 RMK AO2
14926KSTC STC20051001090009410/01/05 09:00:31  5-MIN KSTC 011500Z 16006KT 10SM CLR 16/11 A2987 1070 72 1500 160/06 RMK AO2
14926KSTC STC20051001090509410/01/05 09:05:31  5-MIN KSTC 011505Z 17007KT 10SM CLR 17/11 A2987 1070 69 1600 170/07 RMK AO2
14926KSTC STC20051001091009410/01/05 09:10:31  5-MIN KSTC 011510Z 17006KT 10SM CLR 17/11 A2987 1070 69 1600 170/06 RMK AO2
14926KSTC STC20051001091509410/01/05 09:15:31  5-MIN KSTC 011515Z 17006KT 10SM CLR 17/11 A2988 1070 67 1600 170/06 RMK AO2
14926KSTC STC20051001092009410/01/05 09:20:31  5-MIN KSTC 011520Z 17008KT 10SM CLR 17/12 A2988 1070 69 1600 170/08 RMK AO2
14926KSTC STC20051001092509410/01/05 09:25:31  5-MIN KSTC 011525Z 17007KT 10SM CLR 18/12 A2988 1060 67 1700 170/07 RMK AO2
14926KSTC STC20051001093009410/01/05 09:30:31  5-MIN KSTC 011530Z 18006KT 10SM CLR 18/12 A2988 1060 67 1700 170/06 RMK AO2
14926KSTC STC20051001093509410/01/05 09:35:31  5-MIN KSTC 011535Z 17006KT 10SM CLR 18/12 A2988 1060 65 1700 170/06 RMK AO2
14926KSTC STC20051001094009410/01/05 09:40:31  5-MIN KSTC 011540Z 16006KT 10SM CLR 18/12 A2988 1060 65 1700 160/06 RMK AO2
14926KSTC STC20051001094509410/01/05 09:45:31  5-MIN KSTC 011545Z 18006KT 10SM CLR 18/12 A2988 1060 65 1700 170/06 RMK AO2
14926KSTC STC20051001095011110/01/05 09:50:31  5-MIN KSTC 011550Z 18005KT 10SM CLR 19/12 A2988 1060 62 1800 170/05 RMK AO2 SLP125 T01890117
14926KSTC STC20051001095509410/01/05 09:55:31  5-MIN KSTC 011555Z VRB04KT 10SM CLR 19/12 A2988 1070 62 1800 VRB/04 RMK AO2
14926KSTC STC20051001100009410/01/05 10:00:31  5-MIN KSTC 011600Z 16005KT 10SM CLR 19/12 A2988 1070 62 1900 160/05 RMK AO2
14926KSTC STC20051001100509410/01/05 10:05:31  5-MIN KSTC 011605Z 15006KT 10SM CLR 20/12 A2988 1070 60 1900 140/06 RMK AO2
14926KSTC STC20051001101009410/01/05 10:10:31  5-MIN KSTC 011610Z VRB06KT 10SM CLR 20/12 A2988 1070 60 1900 VRB/06 RMK AO2
14926KSTC STC20051001101509410/01/05 10:15:31  5-MIN KSTC 011615Z 15006KT 10SM CLR 20/12 A2988 1070 60 1900 140/06 RMK AO2
14926KSTC STC20051001102009410/01/05 10:20:31  5-MIN KSTC 011620Z 15005KT 10SM CLR 21/12 A2988 1070 58 2000 140/05 RMK AO2
14926KSTC STC20051001102509410/01/05 10:25:31  5-MIN KSTC 011625Z 15007KT 10SM CLR 21/12 A2988 1070 58 2000 150/07 RMK AO2
14926KSTC STC20051001103009410/01/05 10:30:31  5-MIN KSTC 011630Z 16007KT 10SM CLR 21/12 A2988 1070 56 2100 160/07 RMK AO2
14926KSTC STC20051001103509410/01/05 10:35:31  5-MIN KSTC 011635Z 14007KT 10SM CLR 22/13 A2988 1070 56 2100 140/07 RMK AO2
14926KSTC STC20051001104009410/01/05 10:40:31  5-MIN KSTC 011640Z 15006KT 10SM CLR 22/13 A2988 1070 56 2100 150/06 RMK AO2
14926KSTC STC20051001104509410/01/05 10:45:31  5-MIN KSTC 011645Z 15008KT 10SM CLR 22/13 A2988 1070 54 2200 150/08 RMK AO2
14926KSTC STC20051001105011110/01/05 10:50:31  5-MIN KSTC 011650Z 15009KT 10SM CLR 22/13 A2988 1070 54 2200 150/09 RMK AO2 SLP123 T02220128
14926KSTC STC20051001105509410/01/05 10:55:31  5-MIN KSTC 011655Z 17009KT 10SM CLR 22/13 A2988 1070 54 2200 170/09 RMK AO2
14926KSTC STC20051001110009410/01/05 11:00:31  5-MIN KSTC 011700Z 17008KT 10SM CLR 23/13 A2988 1070 53 2300 170/08 RMK AO2
14926KSTC STC20051001110509410/01/05 11:05:31  5-MIN KSTC 011705Z 16008KT 10SM CLR 23/13 A2988 1070 53 2300 150/08 RMK AO2
14926KSTC STC20051001111009410/01/05 11:10:31  5-MIN KSTC 011710Z 16011KT 10SM CLR 23/13 A2987 1070 53 2300 150/11 RMK AO2
14926KSTC STC20051001111509410/01/05 11:15:31  5-MIN KSTC 011715Z 16008KT 10SM CLR 23/13 A2987 1070 53 2300 160/08 RMK AO2
14926KSTC STC20051001112009410/01/05 11:20:31  5-MIN KSTC 011720Z 15006KT 10SM CLR 23/13 A2987 1070 51 2300 150/06 RMK AO2
14926KSTC STC20051001112509410/01/05 11:25:31  5-MIN KSTC 011725Z 16007KT 10SM CLR 23/13 A2987 1070 51 2300 150/07 RMK AO2
14926KSTC STC20051001113009410/01/05 11:30:31  5-MIN KSTC 011730Z 15009KT 10SM CLR 24/13 A2987 1070 51 2400 150/09 RMK AO2
14926KSTC STC20051001113509410/01/05 11:35:31  5-MIN KSTC 011735Z 16008KT 10SM CLR 24/13 A2987 1070 51 2400 160/08 RMK AO2
14926KSTC STC20051001114009410/01/05 11:40:31  5-MIN KSTC 011740Z 14008KT 10SM CLR 24/13 A2987 1070 49 2400 140/08 RMK AO2
14926KSTC STC20051001114509410/01/05 11:45:31  5-MIN KSTC 011745Z 15008KT 10SM CLR 24/13 A2987 1080 49 2500 150/08 RMK AO2
14926KSTC STC20051001115012910/01/05 11:50:31  5-MIN KSTC 011750Z 15009KT 10SM CLR 25/13 A2987 1080 48 2500 140/09 RMK AO2 SLP118 T02500133 10250 20100 51019
14926KSTC STC20051001115509410/01/05 11:55:31  5-MIN KSTC 011755Z 15008KT 10SM CLR 24/13 A2986 1080 49 2500 140/08 RMK AO2
14926KSTC STC20051001120011010/01/05 12:00:31  5-MIN KSTC 011800Z 15008KT 120V180 10SM CLR 26/14 A2986 1080 48 2600 150/08 120V180 RMK AO2
14926KSTC STC20051001120509410/01/05 12:05:31  5-MIN KSTC 011805Z 14009KT 10SM CLR 25/14 A2986 1080 49 2500 130/09 RMK AO2
14926KSTC STC20051001121009410/01/05 12:10:31  5-MIN KSTC 011810Z 16010KT 10SM CLR 26/14 A2986 1080 48 2600 160/10 RMK AO2
14926KSTC STC20051001121509410/01/05 12:15:31  5-MIN KSTC 011815Z 15013KT 10SM CLR 25/13 A2986 1080 48 2500 150/13 RMK AO2
14926KSTC STC20051001122009410/01/05 12:20:31  5-MIN KSTC 011820Z 16008KT 10SM CLR 25/13 A2986 1080 48 2500 160/08 RMK AO2
14926KSTC STC20051001122509410/01/05 12:25:31  5-MIN KSTC 011825Z 18010KT 10SM CLR 26/14 A2986 1080 48 2600 170/10 RMK AO2
14926KSTC STC20051001123009410/01/05 12:30:31  5-MIN KSTC 011830Z 16010KT 10SM CLR 26/14 A2986 1080 48 2600 160/10 RMK AO2
14926KSTC STC20051001123509410/01/05 12:35:31  5-MIN KSTC 011835Z 16012KT 10SM CLR 26/14 A2986 1090 46 2700 160/12 RMK AO2
14926KSTC STC20051001124009410/01/05 12:40:31  5-MIN KSTC 011840Z 16012KT 10SM CLR 26/14 A2986 1090 46 2700 160/12 RMK AO2
14926KSTC STC20051001124509410/01/05 12:45:31  5-MIN KSTC 011845Z 17010KT 10SM CLR 26/14 A2985 1090 46 2700 160/10 RMK AO2
14926KSTC STC20051001125011110/01/05 12:50:31  5-MIN KSTC 011850Z 16010KT 10SM CLR 26/14 A2985 1090 46 2700 160/10 RMK AO2 SLP114 T02610139
14926KSTC STC20051001125509410/01/05 12:55:31  5-MIN KSTC 011855Z 15012KT 10SM CLR 26/14 A2985 1090 48 2600 150/12 RMK AO2
14926KSTC STC20051001130009410/01/05 13:00:31  5-MIN KSTC 011900Z 16010KT 10SM CLR 26/14 A2985 1090 48 2700 160/10 RMK AO2
14926KSTC STC20051001130509410/01/05 13:05:31  5-MIN KSTC 011905Z 15011KT 10SM CLR 26/14 A2985 1090 48 2700 150/11 RMK AO2
14926KSTC STC20051001131009410/01/05 13:10:31  5-MIN KSTC 011910Z 16011KT 10SM CLR 26/14 A2985 1090 48 2700 160/11 RMK AO2
14926KSTC STC20051001131509410/01/05 13:15:31  5-MIN KSTC 011915Z 16013KT 10SM CLR 26/14 A2985 1090 48 2700 160/13 RMK AO2
14926KSTC STC20051001132009410/01/05 13:20:31  5-MIN KSTC 011920Z 17011KT 10SM CLR 26/14 A2985 1090 48 2700 160/11 RMK AO2
14926KSTC STC20051001132509910/01/05 13:25:31  5-MIN KSTC 011925Z AUTO 16011KT 10SM CLR 27/14 A2985 1090 46 2700 160/11 RMK AO2
14926KSTC STC20051001133009910/01/05 13:30:31  5-MIN KSTC 011930Z AUTO 18012KT 10SM CLR 27/14 A2985 1090 46 2700 180/12 RMK AO2
14926KSTC STC20051001133509910/01/05 13:35:31  5-MIN KSTC 011935Z AUTO 17014KT 10SM CLR 27/14 A2985 1090 46 2700 160/14 RMK AO2
14926KSTC STC20051001134009910/01/05 13:40:31  5-MIN KSTC 011940Z AUTO 18014KT 10SM CLR 27/14 A2985 1090 46 2700 180/14 RMK AO2
14926KSTC STC20051001134510510/01/05 13:45:31  5-MIN KSTC 011945Z AUTO 16012G18KT 10SM CLR 27/14 A2985 1100 46 2700 160/12G18 RMK AO2
14926KSTC STC20051001135011610/01/05 13:50:31  5-MIN KSTC 011950Z AUTO 16010KT 10SM CLR 27/14 A2984 1100 46 2700 160/10 RMK AO2 SLP111 T02670144
14926KSTC STC20051001135509910/01/05 13:55:31  5-MIN KSTC 011955Z AUTO 17009KT 10SM CLR 27/15 A2984 1100 48 2700 170/09 RMK AO2
14926KSTC STC20051001140009910/01/05 14:00:31  5-MIN KSTC 012000Z AUTO 15012KT 10SM CLR 27/15 A2984 1100 48 2700 150/12 RMK AO2
14926KSTC STC20051001140510510/01/05 14:05:31  5-MIN KSTC 012005Z AUTO 18012G16KT 10SM CLR 27/14 A2984 1100 46 2700 170/12G16 RMK AO2
14926KSTC STC20051001141009910/01/05 14:10:31  5-MIN KSTC 012010Z AUTO 16011KT 10SM CLR 27/14 A2984 1100 46 2700 160/11 RMK AO2
14926KSTC STC20051001141509910/01/05 14:15:31  5-MIN KSTC 012015Z AUTO 17011KT 10SM CLR 27/14 A2984 1100 46 2700 170/11 RMK AO2
14926KSTC STC20051001142009910/01/05 14:20:31  5-MIN KSTC 012020Z AUTO 17010KT 10SM CLR 27/14 A2984 1100 45 2800 170/10 RMK AO2
14926KSTC STC20051001142509910/01/05 14:25:31  5-MIN KSTC 012025Z AUTO 16010KT 10SM CLR 27/15 A2984 1100 46 2800 160/10 RMK AO2
14926KSTC STC20051001143009910/01/05 14:30:31  5-MIN KSTC 012030Z AUTO 18013KT 10SM CLR 27/15 A2984 1100 46 2800 180/13 RMK AO2
14926KSTC STC20051001143509910/01/05 14:35:31  5-MIN KSTC 012035Z AUTO 17013KT 10SM CLR 27/15 A2984 1100 46 2800 170/13 RMK AO2
14926KSTC STC20051001144009910/01/05 14:40:31  5-MIN KSTC 012040Z AUTO 16010KT 10SM CLR 28/15 A2984 1100 45 2900 160/10 RMK AO2
14926KSTC STC20051001144509910/01/05 14:45:31  5-MIN KSTC 012045Z AUTO 17012KT 10SM CLR 27/15 A2984 1100 46 2800 170/12 RMK AO2
14926KSTC STC20051001145012210/01/05 14:50:31  5-MIN KSTC 012050Z AUTO 18011KT 10SM CLR 27/15 A2984 1110 46 2800 180/11 RMK AO2 SLP108 T02720150 58003
14926KSTC STC20051001145509910/01/05 14:55:31  5-MIN KSTC 012055Z AUTO 17008KT 10SM CLR 27/15 A2983 1110 46 2800 170/08 RMK AO2
14926KSTC STC20051001150009910/01/05 15:00:31  5-MIN KSTC 012100Z AUTO 17011KT 10SM CLR 27/15 A2983 1110 46 2800 170/11 RMK AO2
14926KSTC STC20051001150509910/01/05 15:05:31  5-MIN KSTC 012105Z AUTO 17009KT 10SM CLR 27/15 A2983 1110 46 2800 170/09 RMK AO2
14926KSTC STC20051001151009910/01/05 15:10:31  5-MIN KSTC 012110Z AUTO 17009KT 10SM CLR 27/15 A2983 1110 46 2800 160/09 RMK AO2
14926KSTC STC20051001151509910/01/05 15:15:31  5-MIN KSTC 012115Z AUTO 17008KT 10SM CLR 28/15 A2983 1110 45 2900 160/08 RMK AO2
14926KSTC STC20051001152009910/01/05 15:20:31  5-MIN KSTC 012120Z AUTO 16009KT 10SM CLR 28/15 A2983 1110 45 2900 160/09 RMK AO2
14926KSTC STC20051001152509910/01/05 15:25:31  5-MIN KSTC 012125Z AUTO 17010KT 10SM CLR 28/15 A2983 1110 45 2900 160/10 RMK AO2
14926KSTC STC20051001153009910/01/05 15:30:31  5-MIN KSTC 012130Z AUTO 16008KT 10SM CLR 28/15 A2983 1110 45 2900 160/08 RMK AO2
14926KSTC STC20051001153509910/01/05 15:35:31  5-MIN KSTC 012135Z AUTO 17012KT 10SM CLR 28/15 A2983 1110 45 2900 170/12 RMK AO2
14926KSTC STC20051001154009910/01/05 15:40:31  5-MIN KSTC 012140Z AUTO 16013KT 10SM CLR 28/15 A2983 1110 45 2900 160/13 RMK AO2
14926KSTC STC20051001154509910/01/05 15:45:31  5-MIN KSTC 012145Z AUTO 17010KT 10SM CLR 28/15 A2983 1110 45 2900 160/10 RMK AO2
14926KSTC STC20051001155011610/01/05 15:50:31  5-MIN KSTC 012150Z AUTO 16012KT 10SM CLR 28/15 A2983 1110 45 2900 160/12 RMK AO2 SLP106 T02780150
14926KSTC STC20051001155509910/01/05 15:55:31  5-MIN KSTC 012155Z AUTO 17010KT 10SM CLR 28/15 A2983 1110 45 2900 170/10 RMK AO2
14926KSTC STC20051001160009910/01/05 16:00:31  5-MIN KSTC 012200Z AUTO 16012KT 10SM CLR 27/15 A2983 1110 46 2800 160/12 RMK AO2
14926KSTC STC20051001160509910/01/05 16:05:31  5-MIN KSTC 012205Z AUTO 16012KT 10SM CLR 27/15 A2983 1110 46 2800 160/12 RMK AO2
14926KSTC STC20051001161009910/01/05 16:10:31  5-MIN KSTC 012210Z AUTO 16010KT 10SM CLR 27/15 A2983 1110 46 2800 160/10 RMK AO2
14926KSTC STC20051001161509910/01/05 16:15:31  5-MIN KSTC 012215Z AUTO 17011KT 10SM CLR 27/15 A2983 1110 46 2800 160/11 RMK AO2
14926KSTC STC20051001162009910/01/05 16:20:31  5-MIN KSTC 012220Z AUTO 16008KT 10SM CLR 27/15 A2983 1110 46 2800 160/08 RMK AO2
14926KSTC STC20051001162509910/01/05 16:25:31  5-MIN KSTC 012225Z AUTO 16010KT 10SM CLR 27/15 A2983 1110 48 2700 150/10 RMK AO2
14926KSTC STC20051001163009910/01/05 16:30:31  5-MIN KSTC 012230Z AUTO 16009KT 10SM CLR 27/15 A2983 1110 48 2700 160/09 RMK AO2
14926KSTC STC20051001163509910/01/05 16:35:31  5-MIN KSTC 012235Z AUTO 16008KT 10SM CLR 27/16 A2983 1110 50 2700 160/08 RMK AO2
14926KSTC STC20051001164009910/01/05 16:40:31  5-MIN KSTC 012240Z AUTO 16008KT 10SM CLR 27/16 A2984 1100 50 2700 160/08 RMK AO2
14926KSTC STC20051001164509910/01/05 16:45:31  5-MIN KSTC 012245Z AUTO 15009KT 10SM CLR 26/16 A2984 1100 51 2700 150/09 RMK AO2
14926KSTC STC20051001165011610/01/05 16:50:31  5-MIN KSTC 012250Z AUTO 16008KT 10SM CLR 26/16 A2984 1100 51 2700 160/08 RMK AO2 SLP111 T02610156
14926KSTC STC20051001165509910/01/05 16:55:31  5-MIN KSTC 012255Z AUTO 16008KT 10SM CLR 26/16 A2984 1100 51 2700 160/08 RMK AO2
14926KSTC STC20051001170009910/01/05 17:00:31  5-MIN KSTC 012300Z AUTO 15008KT 10SM CLR 26/16 A2984 1100 51 2700 150/08 RMK AO2
14926KSTC STC20051001170509910/01/05 17:05:31  5-MIN KSTC 012305Z AUTO 15007KT 10SM CLR 26/15 A2984 1100 50 2700 150/07 RMK AO2
14926KSTC STC20051001171009910/01/05 17:10:31  5-MIN KSTC 012310Z AUTO 14005KT 10SM CLR 26/16 A2984 1100 53 2600 140/05 RMK AO2
14926KSTC STC20051001171509910/01/05 17:15:31  5-MIN KSTC 012315Z AUTO 14006KT 10SM CLR 26/16 A2984 1100 53 2600 140/06 RMK AO2
14926KSTC STC20051001172009910/01/05 17:20:31  5-MIN KSTC 012320Z AUTO 15006KT 10SM CLR 25/16 A2984 1100 55 2500 140/06 RMK AO2
14926KSTC STC20051001172509910/01/05 17:25:31  5-MIN KSTC 012325Z AUTO 15007KT 10SM CLR 25/16 A2985 1100 55 2500 150/07 RMK AO2
14926KSTC STC20051001173009910/01/05 17:30:31  5-MIN KSTC 012330Z AUTO 14006KT 10SM CLR 24/16 A2985 1100 57 2500 140/06 RMK AO2
14926KSTC STC20051001173509910/01/05 17:35:31  5-MIN KSTC 012335Z AUTO 14007KT 10SM CLR 24/16 A2985 1100 57 2500 140/07 RMK AO2
14926KSTC STC20051001174009910/01/05 17:40:31  5-MIN KSTC 012340Z AUTO 14006KT 10SM CLR 24/16 A2985 1100 57 2500 140/06 RMK AO2
14926KSTC STC20051001174509910/01/05 17:45:31  5-MIN KSTC 012345Z AUTO 14007KT 10SM CLR 24/16 A2985 1100 59 2400 140/07 RMK AO2
14926KSTC STC20051001175013410/01/05 17:50:31  5-MIN KSTC 012350Z AUTO 14007KT 10SM CLR 24/15 A2985 1090 57 2400 140/07 RMK AO2 SLP114 T02390150 10278 20239 56010
14926KSTC STC20051001175509910/01/05 17:55:31  5-MIN KSTC 012355Z AUTO 14006KT 10SM CLR 23/15 A2985 1100 59 2400 140/06 RMK AO2
14926KSTC STC20051001180009910/01/05 18:00:31  5-MIN KSTC 020000Z AUTO 13006KT 10SM CLR 23/15 A2985 1100 59 2400 130/06 RMK AO2
14926KSTC STC20051001180509910/01/05 18:05:31  5-MIN KSTC 020005Z AUTO 14007KT 10SM CLR 23/15 A2985 1100 59 2400 130/07 RMK AO2
14926KSTC STC20051001181009910/01/05 18:10:31  5-MIN KSTC 020010Z AUTO 13007KT 10SM CLR 24/15 A2985 1090 57 2400 130/07 RMK AO2
14926KSTC STC20051001181509910/01/05 18:15:31  5-MIN KSTC 020015Z AUTO 14007KT 10SM CLR 23/15 A2985 1090 59 2300 130/07 RMK AO2
14926KSTC STC20051001182009910/01/05 18:20:31  5-MIN KSTC 020020Z AUTO 13007KT 10SM CLR 23/15 A2985 1090 59 2300 130/07 RMK AO2
14926KSTC STC20051001182509910/01/05 18:25:31  5-MIN KSTC 020025Z AUTO 13007KT 10SM CLR 24/15 A2985 1090 57 2400 130/07 RMK AO2
14926KSTC STC20051001183009910/01/05 18:30:31  5-MIN KSTC 020030Z AUTO 13007KT 10SM CLR 23/15 A2985 1090 59 2300 130/07 RMK AO2
14926KSTC STC20051001183509910/01/05 18:35:31  5-MIN KSTC 020035Z AUTO 13006KT 10SM CLR 23/15 A2985 1090 59 2300 130/06 RMK AO2
14926KSTC STC20051001184009910/01/05 18:40:31  5-MIN KSTC 020040Z AUTO 14006KT 10SM CLR 23/16 A2985 1090 63 2300 130/06 RMK AO2
14926KSTC STC20051001184509910/01/05 18:45:31  5-MIN KSTC 020045Z AUTO 14006KT 10SM CLR 23/16 A2986 1090 63 2300 140/06 RMK AO2
14926KSTC STC20051001185011610/01/05 18:50:31  5-MIN KSTC 020050Z AUTO 14008KT 10SM CLR 23/16 A2986 1090 63 2300 140/08 RMK AO2 SLP117 T02280156
14926KSTC STC20051001185509910/01/05 18:55:31  5-MIN KSTC 020055Z AUTO 14008KT 10SM CLR 22/16 A2986 1080 65 2200 140/08 RMK AO2
14926KSTC STC20051001190009910/01/05 19:00:31  5-MIN KSTC 020100Z AUTO 14007KT 10SM CLR 22/16 A2986 1080 65 2200 140/07 RMK AO2
14926KSTC STC20051001190509910/01/05 19:05:31  5-MIN KSTC 020105Z AUTO 14008KT 10SM CLR 22/16 A2986 1080 65 2200 140/08 RMK AO2
14926KSTC STC20051001191009910/01/05 19:10:31  5-MIN KSTC 020110Z AUTO 14008KT 10SM CLR 22/16 A2986 1080 65 2200 140/08 RMK AO2
14926KSTC STC20051001191509910/01/05 19:15:31  5-MIN KSTC 020115Z AUTO 15008KT 10SM CLR 22/16 A2987 1080 65 2200 140/08 RMK AO2
14926KSTC STC20051001192009910/01/05 19:20:31  5-MIN KSTC 020120Z AUTO 15010KT 10SM CLR 22/16 A2987 1080 65 2200 150/10 RMK AO2
14926KSTC STC20051001192509910/01/05 19:25:31  5-MIN KSTC 020125Z AUTO 16012KT 10SM CLR 23/15 A2987 1070 59 2300 160/12 RMK AO2
14926KSTC STC20051001193009910/01/05 19:30:31  5-MIN KSTC 020130Z AUTO 16011KT 10SM CLR 23/15 A2987 1070 59 2300 160/11 RMK AO2
14926KSTC STC20051001193509910/01/05 19:35:31  5-MIN KSTC 020135Z AUTO 16011KT 10SM CLR 23/15 A2988 1070 59 2300 160/11 RMK AO2
14926KSTC STC20051001194009910/01/05 19:40:31  5-MIN KSTC 020140Z AUTO 16010KT 10SM CLR 23/15 A2988 1070 61 2300 160/10 RMK AO2
14926KSTC STC20051001194509910/01/05 19:45:31  5-MIN KSTC 020145Z AUTO 16010KT 10SM CLR 23/15 A2988 1070 61 2300 160/10 RMK AO2
14926KSTC STC20051001195011610/01/05 19:50:31  5-MIN KSTC 020150Z AUTO 16010KT 10SM CLR 23/15 A2988 1060 61 2300 160/10 RMK AO2 SLP124 T02280150
14926KSTC STC20051001195509910/01/05 19:55:31  5-MIN KSTC 020155Z AUTO 16008KT 10SM CLR 22/15 A2988 1060 63 2200 160/08 RMK AO2
14926KSTC STC20051001200009910/01/05 20:00:31  5-MIN KSTC 020200Z AUTO 16008KT 10SM CLR 22/15 A2988 1060 63 2200 160/08 RMK AO2
14926KSTC STC20051001200509910/01/05 20:05:31  5-MIN KSTC 020205Z AUTO 16008KT 10SM CLR 22/15 A2988 1060 65 2100 160/08 RMK AO2
14926KSTC STC20051001201009910/01/05 20:10:31  5-MIN KSTC 020210Z AUTO 16007KT 10SM CLR 22/15 A2988 1060 65 2100 150/07 RMK AO2
14926KSTC STC20051001201509910/01/05 20:15:31  5-MIN KSTC 020215Z AUTO 15007KT 10SM CLR 21/16 A2988 1060 70 2100 150/07 RMK AO2
14926KSTC STC20051001202009910/01/05 20:20:31  5-MIN KSTC 020220Z AUTO 15007KT 10SM CLR 21/16 A2988 1060 73 2000 150/07 RMK AO2
14926KSTC STC20051001202509410/01/05 20:25:31  5-MIN KSTC 020225Z 15007KT 10SM CLR 20/15 A2988 1060 72 1900 150/07 RMK AO2
14926KSTC STC20051001203009410/01/05 20:30:31  5-MIN KSTC 020230Z 16007KT 10SM CLR 21/15 A2989 1060 68 2100 150/07 RMK AO2
14926KSTC STC20051001203509410/01/05 20:35:31  5-MIN KSTC 020235Z 16007KT 10SM CLR 20/15 A2989 1060 72 1900 150/07 RMK AO2
14926KSTC STC20051001204009410/01/05 20:40:31  5-MIN KSTC 020240Z 17008KT 10SM CLR 20/15 A2989 1060 72 1900 160/08 RMK AO2
14926KSTC STC20051001204509410/01/05 20:45:31  5-MIN KSTC 020245Z 18010KT 10SM CLR 22/15 A2989 1050 65 2100 170/10 RMK AO2
14926KSTC STC20051001205011710/01/05 20:50:31  5-MIN KSTC 020250Z 17009KT 10SM CLR 22/15 A2989 1050 65 2100 170/09 RMK AO2 SLP128 T02170150 53004
14926KSTC STC20051001205509410/01/05 20:55:31  5-MIN KSTC 020255Z 17008KT 10SM CLR 22/15 A2989 1050 65 2100 160/08 RMK AO2
14926KSTC STC20051001210009410/01/05 21:00:31  5-MIN KSTC 020300Z 16007KT 10SM CLR 21/15 A2989 1050 68 2000 150/07 RMK AO2
14926KSTC STC20051001210509410/01/05 21:05:31  5-MIN KSTC 020305Z 16007KT 10SM CLR 21/15 A2989 1050 70 2000 150/07 RMK AO2
14926KSTC STC20051001211009410/01/05 21:10:31  5-MIN KSTC 020310Z 15008KT 10SM CLR 20/15 A2990 1050 72 1900 150/08 RMK AO2
14926KSTC STC20051001211509410/01/05 21:15:31  5-MIN KSTC 020315Z 16009KT 10SM CLR 21/15 A2990 1050 70 2000 160/09 RMK AO2
14926KSTC STC20051001212009410/01/05 21:20:31  5-MIN KSTC 020320Z 17009KT 10SM CLR 21/15 A2990 1040 68 2000 160/09 RMK AO2
14926KSTC STC20051001212509410/01/05 21:25:31  5-MIN KSTC 020325Z 17008KT 10SM CLR 21/14 A2990 1040 65 2000 160/08 RMK AO2
14926KSTC STC20051001213009410/01/05 21:30:31  5-MIN KSTC 020330Z 16008KT 10SM CLR 21/14 A2990 1040 67 2000 160/08 RMK AO2
14926KSTC STC20051001213509410/01/05 21:35:31  5-MIN KSTC 020335Z 17008KT 10SM CLR 21/14 A2990 1040 67 2000 160/08 RMK AO2
14926KSTC STC20051001214009410/01/05 21:40:31  5-MIN KSTC 020340Z 16007KT 10SM CLR 21/14 A2990 1040 67 2000 160/07 RMK AO2
14926KSTC STC20051001214509910/01/05 21:45:31  5-MIN KSTC 020345Z AUTO 16007KT 10SM CLR 20/14 A2990 1040 70 1900 160/07 RMK AO2
14926KSTC STC20051001215011610/01/05 21:50:31  5-MIN KSTC 020350Z AUTO 15006KT 10SM CLR 20/14 A2990 1040 70 1900 150/06 RMK AO2 SLP131 T02000144
14926KSTC STC20051001215509910/01/05 21:55:31  5-MIN KSTC 020355Z AUTO 15006KT 10SM CLR 19/14 A2990 1040 72 1800 140/06 RMK AO2
14926KSTC STC20051001220009910/01/05 22:00:31  5-MIN KSTC 020400Z AUTO 14006KT 10SM CLR 19/14 A2990 1040 72 1800 140/06 RMK AO2
14926KSTC STC20051001220509910/01/05 22:05:31  5-MIN KSTC 020405Z AUTO 15006KT 10SM CLR 19/14 A2990 1040 72 1800 140/06 RMK AO2
14926KSTC STC20051001221009910/01/05 22:10:31  5-MIN KSTC 020410Z AUTO 15006KT 10SM CLR 19/14 A2991 1040 75 1800 150/06 RMK AO2
14926KSTC STC20051001221509910/01/05 22:15:31  5-MIN KSTC 020415Z AUTO 15006KT 10SM CLR 19/14 A2990 1040 75 1800 150/06 RMK AO2
14926KSTC STC20051001222009910/01/05 22:20:31  5-MIN KSTC 020420Z AUTO 15006KT 10SM CLR 19/14 A2990 1040 75 1800 150/06 RMK AO2
14926KSTC STC20051001222509910/01/05 22:25:31  5-MIN KSTC 020425Z AUTO 15007KT 10SM CLR 19/14 A2990 1040 75 1800 140/07 RMK AO2
14926KSTC STC20051001223009910/01/05 22:30:31  5-MIN KSTC 020430Z AUTO 15007KT 10SM CLR 19/14 A2990 1040 75 1800 150/07 RMK AO2
14926KSTC STC20051001223509910/01/05 22:35:31  5-MIN KSTC 020435Z AUTO 15007KT 10SM CLR 19/14 A2990 1040 75 1800 150/07 RMK AO2
14926KSTC STC20051001224009910/01/05 22:40:31  5-MIN KSTC 020440Z AUTO 15007KT 10SM CLR 19/14 A2990 1040 75 1800 150/07 RMK AO2
14926KSTC STC20051001224509910/01/05 22:45:31  5-MIN KSTC 020445Z AUTO 15008KT 10SM CLR 19/14 A2990 1040 75 1800 150/08 RMK AO2
14926KSTC STC20051001225011610/01/05 22:50:31  5-MIN KSTC 020450Z AUTO 16009KT 10SM CLR 19/14 A2990 1040 72 1800 150/09 RMK AO2 SLP129 T01940144
14926KSTC STC20051001225509910/01/05 22:55:31  5-MIN KSTC 020455Z AUTO 16008KT 10SM CLR 19/14 A2990 1040 72 1800 150/08 RMK AO2
14926KSTC STC20051001230009910/01/05 23:00:31  5-MIN KSTC 020500Z AUTO 15008KT 10SM CLR 19/14 A2990 1050 72 1800 150/08 RMK AO2
14926KSTC STC20051001230509910/01/05 23:05:31  5-MIN KSTC 020505Z AUTO 15009KT 10SM CLR 19/14 A2989 1050 72 1900 150/09 RMK AO2
14926KSTC STC20051001231009910/01/05 23:10:31  5-MIN KSTC 020510Z AUTO 15011KT 10SM CLR 19/14 A2989 1050 72 1900 150/11 RMK AO2
14926KSTC STC20051001231509910/01/05 23:15:31  5-MIN KSTC 020515Z AUTO 15011KT 10SM CLR 20/14 A2989 1050 70 1900 150/11 RMK AO2
14926KSTC STC20051001232009910/01/05 23:20:31  5-MIN KSTC 020520Z AUTO 15012KT 10SM CLR 20/14 A2989 1050 70 1900 150/12 RMK AO2
14926KSTC STC20051001232509910/01/05 23:25:31  5-MIN KSTC 020525Z AUTO 16012KT 10SM CLR 20/14 A2989 1050 70 1900 150/12 RMK AO2
14926KSTC STC20051001233009910/01/05 23:30:31  5-MIN KSTC 020530Z AUTO 16012KT 10SM CLR 20/14 A2990 1050 70 1900 150/12 RMK AO2
14926KSTC STC20051001233509910/01/05 23:35:31  5-MIN KSTC 020535Z AUTO 16012KT 10SM CLR 20/14 A2990 1050 70 1900 160/12 RMK AO2
14926KSTC STC20051001234009910/01/05 23:40:31  5-MIN KSTC 020540Z AUTO 16012KT 10SM CLR 21/14 A2990 1050 67 2000 150/12 RMK AO2
14926KSTC STC20051001234509910/01/05 23:45:31  5-MIN KSTC 020545Z AUTO 16011KT 10SM CLR 20/14 A2989 1050 70 1900 150/11 RMK AO2
14926KSTC STC20051001235014410/01/05 23:50:31  5-MIN KSTC 020550Z AUTO 16011KT 10SM CLR 20/14 A2989 1050 70 1900 160/11 RMK AO2 SLP126 T02000144 10239 20189 402780100 53015
14926KSTC STC20051001235509910/01/05 23:55:31  5-MIN KSTC 020555Z AUTO 16011KT 10SM CLR 20/14 A2989 1050 70 1900 160/11 RMK AO2
14926KSTC STC20051002000009910/02/05 00:00:32  5-MIN KSTC 020600Z AUTO 16011KT 10SM CLR 20/14 A2990 1050 70 1900 160/11 RMK AO2
14926KSTC STC20051002000509910/02/05 00:05:31  5-MIN KSTC 020605Z AUTO 16011KT 10SM CLR 20/14 A2989 1050 70 1900 160/11 RMK AO2
14926KSTC STC20051002001009910/02/05 00:10:31  5-MIN KSTC 020610Z AUTO 16010KT 10SM CLR 20/14 A2990 1050 70 1900 160/10 RMK AO2
14926KSTC STC20051002001509910/02/05 00:15:31  5-MIN KSTC 020615Z AUTO 16010KT 10SM CLR 20/14 A2990 1050 70 1900 160/10 RMK AO2
14926KSTC STC20051002002009910/02/05 00:20:31  5-MIN KSTC 020620Z AUTO 16009KT 10SM CLR 20/14 A2990 1050 70 1900 160/09 RMK AO2
14926KSTC STC20051002002509910/02/05 00:25:31  5-MIN KSTC 020625Z AUTO 16008KT 10SM CLR 19/14 A2990 1050 72 1800 160/08 RMK AO2
14926KSTC STC20051002003009910/02/05 00:30:31  5-MIN KSTC 020630Z AUTO 16010KT 10SM CLR 19/14 A2990 1050 72 1800 150/10 RMK AO2
14926KSTC STC20051002003509910/02/05 00:35:31  5-MIN KSTC 020635Z AUTO 16008KT 10SM CLR 19/14 A2990 1050 72 1800 150/08 RMK AO2
14926KSTC STC20051002004009910/02/05 00:40:31  5-MIN KSTC 020640Z AUTO 16008KT 10SM CLR 19/14 A2990 1050 72 1800 150/08 RMK AO2
14926KSTC STC20051002004509910/02/05 00:45:31  5-MIN KSTC 020645Z AUTO 15008KT 10SM CLR 19/14 A2990 1050 72 1800 150/08 RMK AO2
14926KSTC STC20051002005011610/02/05 00:50:31  5-MIN KSTC 020650Z AUTO 15007KT 10SM CLR 19/14 A2990 1050 75 1800 140/07 RMK AO2 SLP127 T01890144
14926KSTC STC20051002005509910/02/05 00:55:31  5-MIN KSTC 020655Z AUTO 15007KT 10SM CLR 19/14 A2990 1050 75 1800 140/07 RMK AO2
14926KSTC STC20051002010009910/02/05 01:00:31  5-MIN KSTC 020700Z AUTO 15007KT 10SM CLR 18/14 A2990 1050 78 1700 150/07 RMK AO2
14926KSTC STC20051002010509910/02/05 01:05:31  5-MIN KSTC 020705Z AUTO 15006KT 10SM CLR 18/14 A2989 1050 78 1700 150/06 RMK AO2
14926KSTC STC20051002011009910/02/05 01:10:31  5-MIN KSTC 020710Z AUTO 15007KT 10SM CLR 18/14 A2989 1050 78 1700 140/07 RMK AO2
14926KSTC STC20051002011509910/02/05 01:15:31  5-MIN KSTC 020715Z AUTO 15007KT 10SM CLR 18/14 A2989 1050 78 1700 140/07 RMK AO2
14926KSTC STC20051002012009910/02/05 01:20:31  5-MIN KSTC 020720Z AUTO 15008KT 10SM CLR 18/14 A2989 1050 78 1700 150/08 RMK AO2
14926KSTC STC20051002012509910/02/05 01:25:31  5-MIN KSTC 020725Z AUTO 15006KT 10SM CLR 18/14 A2989 1050 78 1700 150/06 RMK AO2
14926KSTC STC20051002013009910/02/05 01:30:31  5-MIN KSTC 020730Z AUTO 15007KT 10SM CLR 18/14 A2989 1060 78 1700 150/07 RMK AO2
14926KSTC STC20051002013509910/02/05 01:35:31  5-MIN KSTC 020735Z AUTO 15007KT 10SM CLR 18/14 A2989 1060 78 1700 140/07 RMK AO2
14926KSTC STC20051002014009910/02/05 01:40:31  5-MIN KSTC 020740Z AUTO 15007KT 10SM CLR 18/14 A2989 1060 78 1700 140/07 RMK AO2
14926KSTC STC20051002014509910/02/05 01:45:31  5-MIN KSTC 020745Z AUTO 14006KT 10SM CLR 18/14 A2988 1060 81 1700 140/06 RMK AO2
14926KSTC STC20051002015011610/02/05 01:50:31  5-MIN KSTC 020750Z AUTO 14005KT 10SM CLR 18/14 A2988 1060 78 1700 140/05 RMK AO2 SLP122 T01830144
14926KSTC STC20051002015509910/02/05 01:55:31  5-MIN KSTC 020755Z AUTO 14005KT 10SM CLR 18/14 A2988 1060 81 1700 140/05 RMK AO2
14926KSTC STC20051002020009910/02/05 02:00:31  5-MIN KSTC 020800Z AUTO 15005KT 10SM CLR 18/14 A2988 1060 81 1700 140/05 RMK AO2
14926KSTC STC20051002020509910/02/05 02:05:31  5-MIN KSTC 020805Z AUTO 15005KT 10SM CLR 18/14 A2988 1060 81 1700 140/05 RMK AO2
14926KSTC STC20051002021009910/02/05 02:10:31  5-MIN KSTC 020810Z AUTO 14005KT 10SM CLR 18/14 A2988 1060 81 1700 130/05 RMK AO2
14926KSTC STC20051002021509910/02/05 02:15:31  5-MIN KSTC 020815Z AUTO 14004KT 10SM CLR 18/14 A2988 1070 81 1700 140/04 RMK AO2
14926KSTC STC20051002022009910/02/05 02:20:31  5-MIN KSTC 020820Z AUTO 15005KT 10SM CLR 18/14 A2988 1070 81 1700 140/05 RMK AO2
14926KSTC STC20051002022509910/02/05 02:25:31  5-MIN KSTC 020825Z AUTO 15006KT 10SM CLR 18/14 A2988 1070 81 1700 140/06 RMK AO2
14926KSTC STC20051002023009910/02/05 02:30:31  5-MIN KSTC 020830Z AUTO 14006KT 10SM CLR 17/14 A2988 1070 83 1600 140/06 RMK AO2
14926KSTC STC20051002023509910/02/05 02:35:31  5-MIN KSTC 020835Z AUTO 14006KT 10SM CLR 17/14 A2987 1070 83 1600 140/06 RMK AO2
14926KSTC STC20051002024009910/02/05 02:40:31  5-MIN KSTC 020840Z AUTO 15007KT 10SM CLR 17/14 A2988 1070 83 1600 150/07 RMK AO2
14926KSTC STC20051002024509910/02/05 02:45:31  5-MIN KSTC 020845Z AUTO 15008KT 10SM CLR 18/14 A2987 1070 81 1700 150/08 RMK AO2
14926KSTC STC20051002025012210/02/05 02:50:31  5-MIN KSTC 020850Z AUTO 16010KT 10SM CLR 18/15 A2987 1070 81 1700 150/10 RMK AO2 SLP119 T01830150 50001
14926KSTC STC20051002025509910/02/05 02:55:31  5-MIN KSTC 020855Z AUTO 15010KT 10SM CLR 18/15 A2987 1070 81 1800 150/10 RMK AO2
14926KSTC STC20051002030009910/02/05 03:00:31  5-MIN KSTC 020900Z AUTO 16010KT 10SM CLR 18/15 A2987 1070 81 1800 150/10 RMK AO2
14926KSTC STC20051002030509910/02/05 03:05:31  5-MIN KSTC 020905Z AUTO 16010KT 10SM CLR 19/15 A2987 1070 78 1800 160/10 RMK AO2
14926KSTC STC20051002031009910/02/05 03:10:31  5-MIN KSTC 020910Z AUTO 16010KT 10SM CLR 18/15 A2987 1080 81 1800 150/10 RMK AO2
14926KSTC STC20051002031510210/02/05 03:15:31  5-MIN KSTC 020915Z AUTO 16011KT 10SM FEW050 19/15 A2987 1080 78 1800 160/11 RMK AO2
14926KSTC STC20051002032010210/02/05 03:20:31  5-MIN KSTC 020920Z AUTO 16010KT 10SM SCT048 19/15 A2986 1080 78 1800 160/10 RMK AO2
14926KSTC STC20051002032510210/02/05 03:25:31  5-MIN KSTC 020925Z AUTO 16009KT 10SM SCT048 19/15 A2987 1080 78 1800 160/09 RMK AO2
14926KSTC STC20051002033010210/02/05 03:30:31  5-MIN KSTC 020930Z AUTO 16009KT 10SM SCT048 19/15 A2987 1070 78 1800 160/09 RMK AO2
14926KSTC STC20051002033510210/02/05 03:35:31  5-MIN KSTC 020935Z AUTO 16009KT 10SM FEW048 19/15 A2987 1080 78 1800 150/09 RMK AO2
14926KSTC STC20051002034010210/02/05 03:40:31  5-MIN KSTC 020940Z AUTO 16010KT 10SM FEW048 18/15 A2987 1070 81 1800 160/10 RMK AO2
14926KSTC STC20051002034510210/02/05 03:45:31  5-MIN KSTC 020945Z AUTO 16010KT 10SM FEW048 18/15 A2987 1070 81 1800 150/10 RMK AO2
14926KSTC STC20051002035011610/02/05 03:50:31  5-MIN KSTC 020950Z AUTO 16009KT 10SM CLR 18/15 A2986 1080 81 1800 160/09 RMK AO2 SLP116 T01830150
14926KSTC STC20051002035509910/02/05 03:55:31  5-MIN KSTC 020955Z AUTO 16008KT 10SM CLR 18/15 A2986 1080 81 1800 160/08 RMK AO2
14926KSTC STC20051002040009910/02/05 04:00:31  5-MIN KSTC 021000Z AUTO 16008KT 10SM CLR 18/15 A2987 1080 81 1800 160/08 RMK AO2
14926KSTC STC20051002040509910/02/05 04:05:31  5-MIN KSTC 021005Z AUTO 16008KT 10SM CLR 18/15 A2987 1080 81 1800 160/08 RMK AO2
14926KSTC STC20051002041009910/02/05 04:10:31  5-MIN KSTC 021010Z AUTO 16008KT 10SM CLR 18/15 A2987 1080 81 1800 160/08 RMK AO2
14926KSTC STC20051002041509910/02/05 04:15:31  5-MIN KSTC 021015Z AUTO 16008KT 10SM CLR 18/15 A2986 1080 81 1800 160/08 RMK AO2
14926KSTC STC20051002042009910/02/05 04:20:31  5-MIN KSTC 021020Z AUTO 15007KT 10SM CLR 18/15 A2986 1080 83 1700 150/07 RMK AO2
14926KSTC STC20051002042509910/02/05 04:25:31  5-MIN KSTC 021025Z AUTO 16007KT 10SM CLR 18/15 A2987 1080 83 1700 160/07 RMK AO2
14926KSTC STC20051002043009910/02/05 04:30:31  5-MIN KSTC 021030Z AUTO 16007KT 10SM CLR 18/15 A2987 1070 83 1700 150/07 RMK AO2
14926KSTC STC20051002043509910/02/05 04:35:31  5-MIN KSTC 021035Z AUTO 16007KT 10SM CLR 18/15 A2987 1070 83 1700 160/07 RMK AO2
14926KSTC STC20051002044009910/02/05 04:40:31  5-MIN KSTC 021040Z AUTO 16007KT 10SM CLR 18/15 A2987 1070 83 1700 150/07 RMK AO2
14926KSTC STC20051002044509910/02/05 04:45:31  5-MIN KSTC 021045Z AUTO 16007KT 10SM CLR 18/15 A2987 1080 83 1700 150/07 RMK AO2
14926KSTC STC20051002045011610/02/05 04:50:31  5-MIN KSTC 021050Z AUTO 15006KT 10SM CLR 17/15 A2987 1080 87 1600 140/06 RMK AO2 SLP117 T01720150
14926KSTC STC20051002045509910/02/05 04:55:31  5-MIN KSTC 021055Z AUTO 14007KT 10SM CLR 17/14 A2986 1080 83 1600 140/07 RMK AO2
14926KSTC STC20051002050009910/02/05 05:00:31  5-MIN KSTC 021100Z AUTO 15007KT 10SM CLR 17/14 A2986 1080 83 1600 150/07 RMK AO2
14926KSTC STC20051002050509910/02/05 05:05:31  5-MIN KSTC 021105Z AUTO 15008KT 10SM CLR 17/15 A2986 1080 87 1600 150/08 RMK AO2
14926KSTC STC20051002051009910/02/05 05:10:31  5-MIN KSTC 021110Z AUTO 15007KT 10SM CLR 17/15 A2986 1080 87 1600 140/07 RMK AO2
14926KSTC STC20051002051509910/02/05 05:15:31  5-MIN KSTC 021115Z AUTO 15007KT 10SM CLR 17/15 A2986 1090 87 1600 140/07 RMK AO2
14926KSTC STC20051002052009910/02/05 05:20:31  5-MIN KSTC 021120Z AUTO 15008KT 10SM CLR 17/15 A2985 1090 87 1600 140/08 RMK AO2
14926KSTC STC20051002052509910/02/05 05:25:31  5-MIN KSTC 021125Z AUTO 15008KT 10SM CLR 17/15 A2985 1090 87 1600 140/08 RMK AO2
14926KSTC STC20051002053009910/02/05 05:30:31  5-MIN KSTC 021130Z AUTO 14008KT 10SM CLR 17/15 A2985 1090 87 1600 140/08 RMK AO2
14926KSTC STC20051002053509910/02/05 05:35:31  5-MIN KSTC 021135Z AUTO 14008KT 10SM CLR 17/15 A2985 1090 87 1600 140/08 RMK AO2
14926KSTC STC20051002054009910/02/05 05:40:31  5-MIN KSTC 021140Z AUTO 15008KT 10SM CLR 18/15 A2985 1090 83 1700 140/08 RMK AO2
14926KSTC STC20051002054509410/02/05 05:45:31  5-MIN KSTC 021145Z 15009KT 10SM CLR 17/14 A2985 1090 83 1600 150/09 RMK AO2
14926KSTC STC20051002055012910/02/05 05:50:31  5-MIN KSTC 021150Z 15009KT 10SM CLR 17/14 A2985 1090 83 1600 140/09 RMK AO2 SLP112 T01720144 10200 20172 58008
14926KSTC STC20051002055509410/02/05 05:55:31  5-MIN KSTC 021155Z 15009KT 10SM CLR 17/14 A2985 1090 83 1600 150/09 RMK AO2
14926KSTC STC20051002060009410/02/05 06:00:31  5-MIN KSTC 021200Z 15009KT 10SM CLR 17/14 A2985 1090 83 1600 150/09 RMK AO2
14926KSTC STC20051002060509410/02/05 06:05:31  5-MIN KSTC 021205Z 16010KT 10SM CLR 18/15 A2985 1090 83 1700 150/10 RMK AO2
14926KSTC STC20051002061009410/02/05 06:10:31  5-MIN KSTC 021210Z 15010KT 10SM CLR 18/15 A2985 1090 83 1700 150/10 RMK AO2
14926KSTC STC20051002061509410/02/05 06:15:31  5-MIN KSTC 021215Z 16008KT 10SM CLR 18/15 A2985 1090 83 1700 150/08 RMK AO2
14926KSTC STC20051002062009410/02/05 06:20:31  5-MIN KSTC 021220Z 16008KT 10SM CLR 18/15 A2985 1090 83 1700 150/08 RMK AO2
14926KSTC STC20051002062509410/02/05 06:25:31  5-MIN KSTC 021225Z 16009KT 10SM CLR 18/15 A2985 1090 83 1700 150/09 RMK AO2
14926KSTC STC20051002063009410/02/05 06:30:31  5-MIN KSTC 021230Z 16009KT 10SM CLR 18/15 A2985 1090 83 1700 150/09 RMK AO2
14926KSTC STC20051002063509410/02/05 06:35:31  5-MIN KSTC 021235Z 16008KT 10SM CLR 18/15 A2984 1100 83 1700 150/08 RMK AO2
14926KSTC STC20051002064009410/02/05 06:40:31  5-MIN KSTC 021240Z 14008KT 10SM CLR 18/15 A2984 1100 83 1700 140/08 RMK AO2
14926KSTC STC20051002064509410/02/05 06:45:31  5-MIN KSTC 021245Z 14007KT 10SM CLR 17/15 A2984 1100 87 1700 140/07 RMK AO2
14926KSTC STC20051002065011110/02/05 06:50:31  5-MIN KSTC 021250Z 14007KT 10SM CLR 17/15 A2984 1100 87 1700 140/07 RMK AO2 SLP109 T01720150
14926KSTC STC20051002065509410/02/05 06:55:31  5-MIN KSTC 021255Z 14008KT 10SM CLR 17/15 A2984 1100 87 1700 140/08 RMK AO2
14926KSTC STC20051002070009410/02/05 07:00:31  5-MIN KSTC 021300Z 15007KT 10SM CLR 17/14 A2984 1100 83 1700 150/07 RMK AO2
14926KSTC STC20051002070509410/02/05 07:05:31  5-MIN KSTC 021305Z 15008KT 10SM CLR 17/15 A2984 1100 87 1700 140/08 RMK AO2
14926KSTC STC20051002071009710/02/05 07:10:31  5-MIN KSTC 021310Z 15009KT 10SM FEW021 17/15 A2984 1100 87 1700 150/09 RMK AO2
14926KSTC STC20051002071509710/02/05 07:15:31  5-MIN KSTC 021315Z 15008KT 10SM SCT021 18/15 A2985 1100 83 1700 150/08 RMK AO2
14926KSTC STC20051002072009710/02/05 07:20:31  5-MIN KSTC 021320Z 15008KT 10SM BKN021 18/15 A2984 1100 83 1700 150/08 RMK AO2
14926KSTC STC20051002072509710/02/05 07:25:31  5-MIN KSTC 021325Z 15009KT 10SM BKN021 18/14 A2985 1100 81 1700 150/09 RMK AO2
14926KSTC STC20051002073009710/02/05 07:30:31  5-MIN KSTC 021330Z 15009KT 10SM BKN021 18/14 A2985 1090 81 1700 150/09 RMK AO2
14926KSTC STC20051002073509710/02/05 07:35:31  5-MIN KSTC 021335Z 15009KT 10SM BKN021 18/14 A2984 1100 81 1700 150/09 RMK AO2
14926KSTC STC20051002074009710/02/05 07:40:31  5-MIN KSTC 021340Z 16009KT 10SM OVC021 18/15 A2984 1100 83 1700 160/09 RMK AO2
14926KSTC STC20051002074509710/02/05 07:45:31  5-MIN KSTC 021345Z 16010KT 10SM OVC021 18/15 A2984 1100 81 1800 150/10 RMK AO2
14926KSTC STC20051002075011410/02/05 07:50:31  5-MIN KSTC 021350Z 15010KT 10SM OVC021 18/15 A2984 1100 81 1800 150/10 RMK AO2 SLP108 T01830150
14926KSTC STC20051002075509710/02/05 07:55:31  5-MIN KSTC 021355Z 15009KT 10SM OVC023 18/15 A2984 1100 81 1800 150/09 RMK AO2
14926KSTC STC20051002080009710/02/05 08:00:31  5-MIN KSTC 021400Z 16011KT 10SM OVC023 18/15 A2984 1100 81 1800 160/11 RMK AO2
14926KSTC STC20051002080509710/02/05 08:05:31  5-MIN KSTC 021405Z 16010KT 10SM OVC023 19/15 A2984 1100 78 1800 150/10 RMK AO2
14926KSTC STC20051002081009710/02/05 08:10:31  5-MIN KSTC 021410Z 15011KT 10SM OVC023 19/15 A2984 1100 78 1800 150/11 RMK AO2
14926KSTC STC20051002081509710/02/05 08:15:31  5-MIN KSTC 021415Z 16010KT 10SM OVC021 19/15 A2984 1100 78 1800 160/10 RMK AO2
14926KSTC STC20051002082009710/02/05 08:20:31  5-MIN KSTC 021420Z 15010KT 10SM OVC021 19/15 A2984 1100 78 1800 150/10 RMK AO2
14926KSTC STC20051002082509710/02/05 08:25:31  5-MIN KSTC 021425Z 16010KT 10SM OVC021 19/15 A2984 1100 78 1800 150/10 RMK AO2
14926KSTC STC20051002083009710/02/05 08:30:31  5-MIN KSTC 021430Z 16012KT 10SM OVC021 19/15 A2984 1100 78 1800 150/12 RMK AO2
14926KSTC STC20051002083509710/02/05 08:35:31  5-MIN KSTC 021435Z 15010KT 10SM OVC021 19/15 A2984 1100 78 1800 150/10 RMK AO2
14926KSTC STC20051002084009710/02/05 08:40:31  5-MIN KSTC 021440Z 15012KT 10SM OVC021 19/15 A2984 1100 78 1800 150/12 RMK AO2
14926KSTC STC20051002084509710/02/05 08:45:31  5-MIN KSTC 021445Z 15009KT 10SM OVC021 19/15 A2984 1100 78 1800 140/09 RMK AO2
14926KSTC STC20051002085012010/02/05 08:50:31  5-MIN KSTC 021450Z 15012KT 10SM OVC021 19/15 A2984 1100 75 1900 150/12 RMK AO2 SLP109 T01940150 58006
14926KSTC STC20051002085509710/02/05 08:55:31  5-MIN KSTC 021455Z 16011KT 10SM OVC023 19/15 A2984 1100 75 1900 150/11 RMK AO2
14926KSTC STC20051002090010310/02/05 09:00:31  5-MIN KSTC 021500Z 15011G17KT 10SM OVC023 19/15 A2984 1100 75 1900 150/11G17 RMK AO2
14926KSTC STC20051002090510310/02/05 09:05:31  5-MIN KSTC 021505Z 16011G17KT 10SM OVC023 19/16 A2984 1100 78 1900 160/11G17 RMK AO2
14926KSTC STC20051002091010410/02/05 09:10:31  5-MIN KSTC 021510Z 16013KT 10SM SCT019 OVC025 19/16 A2984 1100 78 1900 160/13 RMK AO2
14926KSTC STC20051002091510410/02/05 09:15:31  5-MIN KSTC 021515Z 16014KT 10SM FEW019 OVC025 19/16 A2983 1110 78 1900 160/14 RMK AO2
14926KSTC STC20051002092011010/02/05 09:20:31  5-MIN KSTC 021520Z 16013G17KT 10SM FEW019 OVC025 19/16 A2983 1110 78 1900 160/13G17 RMK AO2
14926KSTC STC20051002092511010/02/05 09:25:31  5-MIN KSTC 021525Z 15012G17KT 10SM FEW017 OVC025 19/16 A2983 1110 78 1900 150/12G17 RMK AO2
14926KSTC STC20051002093010410/02/05 09:30:31  5-MIN KSTC 021530Z 16016KT 10SM FEW017 OVC027 19/16 A2983 1110 78 1900 160/16 RMK AO2
14926KSTC STC20051002093509710/02/05 09:35:31  5-MIN KSTC 021535Z 16012KT 10SM OVC027 19/16 A2983 1110 78 1900 150/12 RMK AO2
14926KSTC STC20051002094009710/02/05 09:40:31  5-MIN KSTC 021540Z 16012KT 10SM OVC029 19/16 A2983 1110 78 1900 150/12 RMK AO2
14926KSTC STC20051002094509710/02/05 09:45:31  5-MIN KSTC 021545Z 15012KT 10SM OVC029 19/16 A2983 1110 78 1900 150/12 RMK AO2
14926KSTC STC20051002095012010/02/05 09:50:31  5-MIN KSTC 021550Z 15015G19KT 10SM OVC031 19/16 A2983 1110 78 1900 140/15G19 RMK AO2 SLP106 T01940156
14926KSTC STC20051002095510310/02/05 09:55:31  5-MIN KSTC 021555Z 14011G19KT 10SM OVC031 19/16 A2983 1110 78 1900 140/11G19 RMK AO2
14926KSTC STC20051002100010310/02/05 10:00:31  5-MIN KSTC 021600Z 14014G18KT 10SM OVC031 20/16 A2982 1120 75 2000 140/14G18 RMK AO2
14926KSTC STC20051002100510410/02/05 10:05:31  5-MIN KSTC 021605Z 15014KT 10SM FEW018 OVC031 20/16 A2982 1120 75 2000 150/14 RMK AO2
14926KSTC STC20051002101010410/02/05 10:10:31  5-MIN KSTC 021610Z 15015KT 10SM SCT018 OVC031 19/16 A2982 1120 78 1900 150/15 RMK AO2
14926KSTC STC20051002101511110/02/05 10:15:31  5-MIN KSTC 021615Z 15013KT 10SM SCT018 BKN022 OVC031 19/16 A2982 1120 78 1900 150/13 RMK AO2
14926KSTC STC20051002102011710/02/05 10:20:31  5-MIN KSTC 021620Z 15017G20KT 10SM SCT018 BKN022 OVC033 19/16 A2982 1120 78 1900 140/17G20 RMK AO2
14926KSTC STC20051002102511710/02/05 10:25:31  5-MIN KSTC 021625Z 15014G20KT 10SM BKN020 BKN027 OVC033 20/16 A2982 1120 75 2000 140/14G20 RMK AO2
14926KSTC STC20051002103011110/02/05 10:30:31  5-MIN KSTC 021630Z 15015KT 10SM BKN020 BKN024 OVC030 20/16 A2982 1120 75 2000 150/15 RMK AO2
14926KSTC STC20051002103511010/02/05 10:35:31  5-MIN KSTC 021635Z 16014G19KT 10SM BKN020 OVC026 20/16 A2982 1120 75 2000 150/14G19 RMK AO2
14926KSTC STC20051002104010410/02/05 10:40:31  5-MIN KSTC 021640Z 15014KT 10SM BKN020 OVC029 20/16 A2982 1120 75 2000 150/14 RMK AO2
14926KSTC STC20051002104510410/02/05 10:45:31  5-MIN KSTC 021645Z 15012KT 10SM BKN020 OVC029 20/16 A2982 1120 75 2000 140/12 RMK AO2
14926KSTC STC20051002105012110/02/05 10:50:31  5-MIN KSTC 021650Z 15013KT 10SM SCT020 OVC026 21/16 A2981 1120 73 2100 150/13 RMK AO2 SLP101 T02060156
14926KSTC STC20051002105511010/02/05 10:55:31  5-MIN KSTC 021655Z 15015G22KT 10SM BKN022 OVC029 21/16 A2981 1120 73 2100 150/15G22 RMK AO2
14926KSTC STC20051002110011010/02/05 11:00:31  5-MIN KSTC 021700Z 16016G22KT 10SM BKN022 OVC029 21/16 A2982 1120 73 2100 150/16G22 RMK AO2
14926KSTC STC20051002110510410/02/05 11:05:31  5-MIN KSTC 021705Z 16016KT 10SM BKN022 OVC029 21/16 A2981 1120 73 2100 160/16 RMK AO2
14926KSTC STC20051002111011010/02/05 11:10:31  5-MIN KSTC 021710Z 16014G20KT 10SM BKN022 OVC029 21/16 A2982 1120 73 2100 160/14G20 RMK AO2
14926KSTC STC20051002111511010/02/05 11:15:31  5-MIN KSTC 021715Z 16017G20KT 10SM BKN022 OVC029 20/16 A2982 1120 75 2000 160/17G20 RMK AO2
14926KSTC STC20051002112010310/02/05 11:20:31  5-MIN KSTC 021720Z 16012G20KT 10SM OVC022 20/16 A2982 1120 75 2000 160/12G20 RMK AO2
14926KSTC STC20051002112510310/02/05 11:25:31  5-MIN KSTC 021725Z 16016G21KT 10SM OVC022 20/16 A2982 1120 75 2000 160/16G21 RMK AO2
14926KSTC STC20051002113010310/02/05 11:30:31  5-MIN KSTC 021730Z 16014G21KT 10SM OVC022 20/16 A2981 1130 75 2000 150/14G21 RMK AO2
14926KSTC STC20051002113509710/02/05 11:35:31  5-MIN KSTC 021735Z 16012KT 10SM OVC022 21/16 A2981 1130 73 2100 160/12 RMK AO2
14926KSTC STC20051002114010310/02/05 11:40:31  5-MIN KSTC 021740Z 16014G19KT 10SM OVC022 21/16 A2981 1130 73 2100 150/14G19 RMK AO2
14926KSTC STC20051002114510310/02/05 11:45:31  5-MIN KSTC 021745Z 16012G19KT 10SM OVC022 21/16 A2981 1130 73 2100 160/12G19 RMK AO2
14926KSTC STC20051002115013810/02/05 11:50:31  5-MIN KSTC 021750Z 16014G19KT 10SM OVC022 21/16 A2981 1130 73 2100 160/14G19 RMK AO2 SLP098 T02060156 10206 20172 55004
14926KSTC STC20051002115510310/02/05 11:55:31  5-MIN KSTC 021755Z 16011G19KT 10SM OVC022 21/16 A2981 1130 75 2100 160/11G19 RMK AO2
14926KSTC STC20051002120009710/02/05 12:00:31  5-MIN KSTC 021800Z 16015KT 10SM OVC022 21/16 A2981 1130 73 2100 150/15 RMK AO2
14926KSTC STC20051002120510310/02/05 12:05:31  5-MIN KSTC 021805Z 16010G18KT 10SM OVC022 21/16 A2980 1140 73 2100 160/10G18 RMK AO2
14926KSTC STC20051002121010310/02/05 12:10:31  5-MIN KSTC 021810Z 16012G18KT 10SM OVC020 21/16 A2980 1140 73 2100 160/12G18 RMK AO2
14926KSTC STC20051002121510310/02/05 12:15:31  5-MIN KSTC 021815Z 16015G19KT 10SM OVC020 21/16 A2980 1140 73 2100 160/15G19 RMK AO2
14926KSTC STC20051002122010310/02/05 12:20:31  5-MIN KSTC 021820Z 16014G19KT 10SM OVC020 21/16 A2980 1140 73 2200 150/14G19 RMK AO2
14926KSTC STC20051002122510310/02/05 12:25:31  5-MIN KSTC 021825Z 17010G19KT 10SM OVC020 21/16 A2980 1140 73 2100 160/10G19 RMK AO2
14926KSTC STC20051002123010310/02/05 12:30:31  5-MIN KSTC 021830Z 16014G18KT 10SM OVC020 21/17 A2980 1140 75 2200 160/14G18 RMK AO2
14926KSTC STC20051002123510310/02/05 12:35:31  5-MIN KSTC 021835Z 17013G18KT 10SM OVC020 21/17 A2980 1140 75 2100 170/13G18 RMK AO2
14926KSTC STC20051002124009710/02/05 12:40:31  5-MIN KSTC 021840Z 16012KT 10SM OVC020 21/17 A2980 1140 75 2100 160/12 RMK AO2
14926KSTC STC20051002124509710/02/05 12:45:31  5-MIN KSTC 021845Z 15013KT 10SM OVC020 21/17 A2980 1130 75 2100 150/13 RMK AO2
14926KSTC STC20051002125011410/02/05 12:50:31  5-MIN KSTC 021850Z 16012KT 10SM OVC020 21/17 A2980 1130 75 2100 150/12 RMK AO2 SLP097 T02110167
14926KSTC STC20051002125510310/02/05 12:55:31  5-MIN KSTC 021855Z 16012G17KT 10SM OVC020 21/17 A2980 1140 75 2100 160/12G17 RMK AO2
14926KSTC STC20051002130010310/02/05 13:00:31  5-MIN KSTC 021900Z 16011G17KT 10SM OVC020 21/17 A2980 1140 75 2200 150/11G17 RMK AO2
14926KSTC STC20051002130510310/02/05 13:05:31  5-MIN KSTC 021905Z 16013G17KT 10SM OVC020 22/17 A2979 1140 73 2200 160/13G17 RMK AO2
14926KSTC STC20051002131009710/02/05 13:10:31  5-MIN KSTC 021910Z 15010KT 10SM OVC020 22/17 A2979 1150 73 2200 150/10 RMK AO2
14926KSTC STC20051002131509710/02/05 13:15:31  5-MIN KSTC 021915Z 16012KT 10SM OVC020 22/17 A2979 1150 73 2200 160/12 RMK AO2
14926KSTC STC20051002132010310/02/05 13:20:31  5-MIN KSTC 021920Z 16013G18KT 10SM OVC020 22/17 A2979 1140 73 2200 160/13G18 RMK AO2
14926KSTC STC20051002132510310/02/05 13:25:31  5-MIN KSTC 021925Z 16013G18KT 10SM OVC020 22/17 A2979 1150 73 2200 150/13G18 RMK AO2
14926KSTC STC20051002133009710/02/05 13:30:31  5-MIN KSTC 021930Z 17011KT 10SM OVC020 22/17 A2979 1140 75 2200 160/11 RMK AO2
14926KSTC STC20051002133509710/02/05 13:35:31  5-MIN KSTC 021935Z 16012KT 10SM OVC020 22/17 A2980 1140 75 2200 160/12 RMK AO2
14926KSTC STC20051002134010310/02/05 13:40:31  5-MIN KSTC 021940Z 17011G17KT 10SM OVC020 22/17 A2979 1140 75 2200 170/11G17 RMK AO2
14926KSTC STC20051002134510310/02/05 13:45:31  5-MIN KSTC 021945Z 17010G17KT 10SM OVC020 22/17 A2979 1140 75 2200 170/10G17 RMK AO2
14926KSTC STC20051002135011410/02/05 13:50:31  5-MIN KSTC 021950Z 17011KT 10SM OVC020 22/17 A2980 1140 75 2200 160/11 RMK AO2 SLP094 T02170172
14926KSTC STC20051002135509710/02/05 13:55:31  5-MIN KSTC 021955Z 17012KT 10SM OVC020 22/17 A2979 1140 75 2200 170/12 RMK AO2
14926KSTC STC20051002140009710/02/05 14:00:31  5-MIN KSTC 022000Z 16012KT 10SM OVC020 22/17 A2979 1150 75 2200 160/12 RMK AO2
14926KSTC STC20051002140509710/02/05 14:05:31  5-MIN KSTC 022005Z 16012KT 10SM OVC022 22/17 A2979 1150 73 2300 160/12 RMK AO2
14926KSTC STC20051002141009710/02/05 14:10:31  5-MIN KSTC 022010Z 16011KT 10SM OVC022 22/17 A2979 1150 73 2300 160/11 RMK AO2
14926KSTC STC20051002141509710/02/05 14:15:31  5-MIN KSTC 022015Z 16010KT 10SM OVC022 22/17 A2979 1150 73 2300 150/10 RMK AO2
14926KSTC STC20051002142011010/02/05 14:20:31  5-MIN KSTC 022020Z 16012G16KT 10SM BKN022 OVC028 22/17 A2979 1150 73 2300 160/12G16 RMK AO2
14926KSTC STC20051002142510410/02/05 14:25:31  5-MIN KSTC 022025Z 16011KT 10SM BKN024 OVC031 22/17 A2979 1150 73 2300 160/11 RMK AO2
14926KSTC STC20051002143010410/02/05 14:30:31  5-MIN KSTC 022030Z 15010KT 10SM SCT024 OVC031 22/18 A2979 1150 75 2300 150/10 RMK AO2
14926KSTC STC20051002143510410/02/05 14:35:31  5-MIN KSTC 022035Z 15011KT 10SM SCT024 OVC031 22/18 A2979 1150 75 2300 150/11 RMK AO2
14926KSTC STC20051002144010410/02/05 14:40:31  5-MIN KSTC 022040Z 16012KT 10SM SCT026 OVC033 23/18 A2978 1150 73 2400 150/12 RMK AO2
14926KSTC STC20051002144510910/02/05 14:45:31  5-MIN KSTC 022045Z AUTO 16010KT 10SM SCT026 OVC033 23/18 A2978 1160 73 2400 150/10 RMK AO2
14926KSTC STC20051002145013210/02/05 14:50:31  5-MIN KSTC 022050Z AUTO 15012KT 10SM FEW026 OVC033 23/18 A2977 1160 70 2400 140/12 RMK AO2 SLP086 T02330178 56010
14926KSTC STC20051002145510910/02/05 14:55:31  5-MIN KSTC 022055Z AUTO 16011KT 10SM FEW026 OVC033 23/18 A2977 1160 70 2400 160/11 RMK AO2
14926KSTC STC20051002150010910/02/05 15:00:31  5-MIN KSTC 022100Z AUTO 15012KT 10SM FEW026 OVC035 23/18 A2977 1160 70 2400 150/12 RMK AO2
14926KSTC STC20051002150510910/02/05 15:05:31  5-MIN KSTC 022105Z AUTO 15013KT 10SM FEW026 OVC035 23/18 A2977 1160 70 2400 150/13 RMK AO2
14926KSTC STC20051002151010210/02/05 15:10:31  5-MIN KSTC 022110Z AUTO 15011KT 10SM OVC035 23/18 A2977 1160 70 2400 150/11 RMK AO2
14926KSTC STC20051002151510910/02/05 15:15:31  5-MIN KSTC 022115Z AUTO 15009KT 10SM FEW028 OVC035 23/18 A2977 1160 70 2400 150/09 RMK AO2
14926KSTC STC20051002152010910/02/05 15:20:31  5-MIN KSTC 022120Z AUTO 15012KT 10SM SCT028 OVC035 23/18 A2977 1160 70 2400 140/12 RMK AO2
14926KSTC STC20051002152510910/02/05 15:25:31  5-MIN KSTC 022125Z AUTO 14011KT 10SM SCT030 OVC035 24/18 A2977 1160 68 2500 140/11 RMK AO2
14926KSTC STC20051002153010910/02/05 15:30:31  5-MIN KSTC 022130Z AUTO 15011KT 10SM FEW030 OVC035 24/18 A2977 1170 68 2500 140/11 RMK AO2
14926KSTC STC20051002153510910/02/05 15:35:31  5-MIN KSTC 022135Z AUTO 16009KT 10SM FEW028 BKN035 24/18 A2977 1170 71 2500 150/09 RMK AO2
14926KSTC STC20051002154010910/02/05 15:40:31  5-MIN KSTC 022140Z AUTO 16010KT 10SM FEW028 BKN035 24/18 A2977 1170 71 2500 150/10 RMK AO2
14926KSTC STC20051002154510210/02/05 15:45:31  5-MIN KSTC 022145Z AUTO 16012KT 10SM BKN035 24/18 A2976 1170 68 2600 150/12 RMK AO2
14926KSTC STC20051002155011910/02/05 15:50:31  5-MIN KSTC 022150Z AUTO 15010KT 10SM BKN035 24/18 A2976 1170 68 2600 150/10 RMK AO2 SLP082 T02440183
14926KSTC STC20051002155509710/02/05 15:55:31  5-MIN KSTC 022155Z 15009KT 10SM SCT035 24/18 A2976 1170 68 2600 150/09 RMK AO2
14926KSTC STC20051002160009710/02/05 16:00:31  5-MIN KSTC 022200Z 14009KT 10SM SCT035 24/18 A2976 1170 68 2600 140/09 RMK AO2
14926KSTC STC20051002160509710/02/05 16:05:31  5-MIN KSTC 022205Z 15011KT 10SM FEW035 24/18 A2976 1170 68 2600 150/11 RMK AO2
14926KSTC STC20051002161009710/02/05 16:10:31  5-MIN KSTC 022210Z 14008KT 10SM FEW035 25/18 A2976 1170 66 2600 140/08 RMK AO2
14926KSTC STC20051002161509410/02/05 16:15:31  5-MIN KSTC 022215Z 15010KT 10SM CLR 25/18 A2976 1170 66 2600 150/10 RMK AO2
14926KSTC STC20051002162009410/02/05 16:20:31  5-MIN KSTC 022220Z 14010KT 10SM CLR 24/18 A2976 1180 68 2600 140/10 RMK AO2
14926KSTC STC20051002162509410/02/05 16:25:31  5-MIN KSTC 022225Z 14011KT 10SM CLR 24/18 A2976 1180 68 2600 140/11 RMK AO2
14926KSTC STC20051002163009410/02/05 16:30:31  5-MIN KSTC 022230Z 15009KT 10SM CLR 24/18 A2976 1180 68 2600 150/09 RMK AO2
14926KSTC STC20051002163509410/02/05 16:35:31  5-MIN KSTC 022235Z 14007KT 10SM CLR 24/19 A2976 1170 71 2600 140/07 RMK AO2
14926KSTC STC20051002164009410/02/05 16:40:31  5-MIN KSTC 022240Z 15007KT 10SM CLR 25/19 A2976 1170 68 2600 140/07 RMK AO2
14926KSTC STC20051002164509410/02/05 16:45:31  5-MIN KSTC 022245Z 14008KT 10SM CLR 24/19 A2976 1170 71 2600 140/08 RMK AO2
14926KSTC STC20051002165011110/02/05 16:50:31  5-MIN KSTC 022250Z 14008KT 10SM CLR 24/19 A2976 1180 71 2600 140/08 RMK AO2 SLP081 T02440189
14926KSTC STC20051002165509410/02/05 16:55:31  5-MIN KSTC 022255Z 14008KT 10SM CLR 24/19 A2976 1170 71 2600 130/08 RMK AO2
14926KSTC STC20051002170009410/02/05 17:00:31  5-MIN KSTC 022300Z 14009KT 10SM CLR 24/19 A2976 1170 71 2600 130/09 RMK AO2
14926KSTC STC20051002170509710/02/05 17:05:31  5-MIN KSTC 022305Z 15007KT 10SM FEW040 24/19 A2976 1170 73 2500 140/07 RMK AO2
14926KSTC STC20051002171009710/02/05 17:10:31  5-MIN KSTC 022310Z 14007KT 10SM FEW040 24/19 A2976 1170 73 2500 140/07 RMK AO2
14926KSTC STC20051002171509410/02/05 17:15:31  5-MIN KSTC 022315Z 14008KT 10SM CLR 23/19 A2976 1180 76 2400 130/08 RMK AO2
14926KSTC STC20051002172009710/02/05 17:20:31  5-MIN KSTC 022320Z 14008KT 10SM FEW041 23/19 A2976 1180 76 2400 140/08 RMK AO2
14926KSTC STC20051002172509410/02/05 17:25:31  5-MIN KSTC 022325Z 14008KT 10SM CLR 23/19 A2976 1180 76 2400 140/08 RMK AO2
14926KSTC STC20051002173009410/02/05 17:30:31  5-MIN KSTC 022330Z 14008KT 10SM CLR 23/19 A2976 1180 76 2400 140/08 RMK AO2
14926KSTC STC20051002173509410/02/05 17:35:31  5-MIN KSTC 022335Z 14008KT 10SM CLR 23/19 A2976 1180 76 2500 140/08 RMK AO2
14926KSTC STC20051002174009410/02/05 17:40:31  5-MIN KSTC 022340Z 14008KT 10SM CLR 23/19 A2976 1180 76 2400 130/08 RMK AO2
14926KSTC STC20051002174509710/02/05 17:45:31  5-MIN KSTC 022345Z 14009KT 10SM FEW043 23/19 A2976 1180 76 2400 140/09 RMK AO2
14926KSTC STC20051002175012910/02/05 17:50:31  5-MIN KSTC 022350Z 15009KT 10SM CLR 23/19 A2976 1180 78 2400 140/09 RMK AO2 SLP082 T02280189 10250 20206 58012
14926KSTC STC20051002175509410/02/05 17:55:31  5-MIN KSTC 022355Z 14010KT 10SM CLR 23/19 A2976 1180 78 2400 140/10 RMK AO2
14926KSTC STC20051002180009410/02/05 18:00:31  5-MIN KSTC 030000Z 14009KT 10SM CLR 23/19 A2976 1180 78 2400 140/09 RMK AO2
14926KSTC STC20051002180509710/02/05 18:05:31  5-MIN KSTC 030005Z 14008KT 10SM FEW044 23/19 A2976 1180 78 2400 140/08 RMK AO2
14926KSTC STC20051002181009710/02/05 18:10:31  5-MIN KSTC 030010Z 14008KT 10SM FEW044 23/19 A2976 1180 78 2400 140/08 RMK AO2
14926KSTC STC20051002181509710/02/05 18:15:31  5-MIN KSTC 030015Z 15009KT 10SM FEW044 23/19 A2976 1170 78 2400 140/09 RMK AO2
14926KSTC STC20051002182009710/02/05 18:20:31  5-MIN KSTC 030020Z 14008KT 10SM FEW044 23/19 A2976 1170 78 2400 140/08 RMK AO2
14926KSTC STC20051002182509710/02/05 18:25:31  5-MIN KSTC 030025Z 14009KT 10SM FEW044 23/19 A2976 1170 78 2400 140/09 RMK AO2
14926KSTC STC20051002183009710/02/05 18:30:31  5-MIN KSTC 030030Z 15009KT 10SM FEW044 22/19 A2976 1170 81 2300 140/09 RMK AO2
14926KSTC STC20051002183509710/02/05 18:35:31  5-MIN KSTC 030035Z 15010KT 10SM FEW042 22/19 A2976 1170 81 2300 140/10 RMK AO2
14926KSTC STC20051002184009410/02/05 18:40:31  5-MIN KSTC 030040Z 15010KT 10SM CLR 22/19 A2976 1170 81 2300 140/10 RMK AO2
14926KSTC STC20051002184509410/02/05 18:45:31  5-MIN KSTC 030045Z 15009KT 10SM CLR 22/19 A2976 1170 81 2300 140/09 RMK AO2
14926KSTC STC20051002185011110/02/05 18:50:31  5-MIN KSTC 030050Z 15010KT 10SM CLR 22/19 A2977 1170 81 2300 150/10 RMK AO2 SLP084 T02220189
14926KSTC STC20051002185509410/02/05 18:55:31  5-MIN KSTC 030055Z 15008KT 10SM CLR 22/19 A2977 1170 81 2300 140/08 RMK AO2
14926KSTC STC20051002190009410/02/05 19:00:31  5-MIN KSTC 030100Z 14008KT 10SM CLR 22/18 A2977 1160 78 2300 140/08 RMK AO2
14926KSTC STC20051002190509410/02/05 19:05:31  5-MIN KSTC 030105Z 15009KT 10SM CLR 22/18 A2978 1160 78 2300 140/09 RMK AO2
14926KSTC STC20051002191009410/02/05 19:10:31  5-MIN KSTC 030110Z 15008KT 10SM CLR 22/18 A2978 1160 78 2300 150/08 RMK AO2
14926KSTC STC20051002191509410/02/05 19:15:31  5-MIN KSTC 030115Z 15008KT 10SM CLR 22/18 A2978 1160 81 2200 140/08 RMK AO2
14926KSTC STC20051002192009410/02/05 19:20:31  5-MIN KSTC 030120Z 14007KT 10SM CLR 22/18 A2978 1160 81 2200 140/07 RMK AO2
14926KSTC STC20051002192509410/02/05 19:25:31  5-MIN KSTC 030125Z 15007KT 10SM CLR 22/18 A2978 1160 81 2200 140/07 RMK AO2
14926KSTC STC20051002193009410/02/05 19:30:31  5-MIN KSTC 030130Z 15007KT 10SM CLR 21/18 A2978 1150 84 2200 150/07 RMK AO2
14926KSTC STC20051002193509410/02/05 19:35:31  5-MIN KSTC 030135Z 15008KT 10SM CLR 22/18 A2979 1150 81 2200 150/08 RMK AO2
14926KSTC STC20051002194009410/02/05 19:40:31  5-MIN KSTC 030140Z 16009KT 10SM CLR 22/18 A2979 1150 81 2200 160/09 RMK AO2
14926KSTC STC20051002194509410/02/05 19:45:31  5-MIN KSTC 030145Z 16010KT 10SM CLR 22/18 A2979 1150 78 2300 160/10 RMK AO2
14926KSTC STC20051002195011110/02/05 19:50:31  5-MIN KSTC 030150Z 16010KT 10SM CLR 23/18 A2979 1150 76 2400 160/10 RMK AO2 SLP092 T02280183
14926KSTC STC20051002195509410/02/05 19:55:31  5-MIN KSTC 030155Z 17010KT 10SM CLR 23/18 A2980 1140 76 2300 170/10 RMK AO2
14926KSTC STC20051002200009410/02/05 20:00:31  5-MIN KSTC 030200Z 17010KT 10SM CLR 23/18 A2980 1140 76 2300 170/10 RMK AO2
14926KSTC STC20051002200509410/02/05 20:05:31  5-MIN KSTC 030205Z 17010KT 10SM CLR 23/18 A2980 1140 76 2300 170/10 RMK AO2
14926KSTC STC20051002201009410/02/05 20:10:31  5-MIN KSTC 030210Z 17010KT 10SM CLR 23/18 A2980 1140 76 2300 170/10 RMK AO2
14926KSTC STC20051002201509410/02/05 20:15:31  5-MIN KSTC 030215Z 16011KT 10SM CLR 23/18 A2980 1140 73 2400 160/11 RMK AO2
14926KSTC STC20051002202009310/02/05 20:20:31  5-MIN KSTC 030220Z 17010KT 9SM CLR 23/18 A2980 1140 76 2300 170/10 RMK AO2
14926KSTC STC20051002202509310/02/05 20:25:31  5-MIN KSTC 030225Z 17010KT 9SM CLR 23/18 A2980 1140 76 2300 160/10 RMK AO2
14926KSTC STC20051002203009310/02/05 20:30:31  5-MIN KSTC 030230Z 17008KT 9SM CLR 23/18 A2980 1140 76 2300 170/08 RMK AO2
14926KSTC STC20051002203509310/02/05 20:35:31  5-MIN KSTC 030235Z 17010KT 9SM CLR 23/18 A2980 1140 76 2300 170/10 RMK AO2
14926KSTC STC20051002204009310/02/05 20:40:31  5-MIN KSTC 030240Z 17010KT 9SM CLR 23/18 A2980 1140 76 2300 160/10 RMK AO2
14926KSTC STC20051002204509310/02/05 20:45:31  5-MIN KSTC 030245Z 17008KT 9SM CLR 23/18 A2980 1140 76 2300 160/08 RMK AO2
14926KSTC STC20051002205011610/02/05 20:50:31  5-MIN KSTC 030250Z 16007KT 9SM CLR 22/18 A2980 1140 78 2300 160/07 RMK AO2 SLP096 T02220183 56006
14926KSTC STC20051002205509310/02/05 20:55:31  5-MIN KSTC 030255Z 16007KT 9SM CLR 22/18 A2980 1140 78 2300 160/07 RMK AO2
14926KSTC STC20051002210009310/02/05 21:00:31  5-MIN KSTC 030300Z 17007KT 8SM CLR 22/18 A2980 1140 78 2300 160/07 RMK AO2
14926KSTC STC20051002210509310/02/05 21:05:31  5-MIN KSTC 030305Z 17008KT 8SM CLR 22/18 A2980 1130 78 2300 170/08 RMK AO2
14926KSTC STC20051002211009310/02/05 21:10:31  5-MIN KSTC 030310Z 16007KT 8SM CLR 22/18 A2981 1130 78 2300 160/07 RMK AO2
14926KSTC STC20051002211509310/02/05 21:15:31  5-MIN KSTC 030315Z 17007KT 8SM CLR 22/18 A2981 1130 78 2300 160/07 RMK AO2
14926KSTC STC20051002212009310/02/05 21:20:31  5-MIN KSTC 030320Z 16008KT 8SM CLR 22/18 A2981 1130 78 2300 160/08 RMK AO2
14926KSTC STC20051002212509310/02/05 21:25:31  5-MIN KSTC 030325Z 16008KT 8SM CLR 22/18 A2981 1130 78 2300 160/08 RMK AO2
14926KSTC STC20051002213009310/02/05 21:30:31  5-MIN KSTC 030330Z 17009KT 8SM CLR 22/18 A2981 1130 78 2300 160/09 RMK AO2
14926KSTC STC20051002213509310/02/05 21:35:31  5-MIN KSTC 030335Z 16007KT 8SM CLR 22/18 A2981 1130 78 2300 160/07 RMK AO2
14926KSTC STC20051002214009310/02/05 21:40:31  5-MIN KSTC 030340Z 16007KT 8SM CLR 22/18 A2981 1130 78 2300 160/07 RMK AO2
14926KSTC STC20051002214509310/02/05 21:45:31  5-MIN KSTC 030345Z 16008KT 8SM CLR 22/18 A2981 1130 78 2300 160/08 RMK AO2
14926KSTC STC20051002215011510/02/05 21:50:31  5-MIN KSTC 030350Z AUTO 16007KT 8SM CLR 22/18 A2981 1130 78 2300 150/07 RMK AO2 SLP098 T02220183
14926KSTC STC20051002215509810/02/05 21:55:31  5-MIN KSTC 030355Z AUTO 16007KT 8SM CLR 22/18 A2981 1130 78 2300 160/07 RMK AO2
14926KSTC STC20051002220010110/02/05 22:00:31  5-MIN KSTC 030400Z AUTO 16008KT 8SM FEW070 22/18 A2981 1130 78 2300 160/08 RMK AO2
14926KSTC STC20051002220510110/02/05 22:05:31  5-MIN KSTC 030405Z AUTO 17008KT 8SM SCT070 22/18 A2981 1130 78 2300 160/08 RMK AO2
14926KSTC STC20051002221010110/02/05 22:10:31  5-MIN KSTC 030410Z AUTO 16007KT 8SM BKN070 22/18 A2981 1130 78 2300 160/07 RMK AO2
14926KSTC STC20051002221510110/02/05 22:15:31  5-MIN KSTC 030415Z AUTO 16007KT 7SM BKN070 22/18 A2982 1120 78 2300 160/07 RMK AO2
14926KSTC STC20051002222010110/02/05 22:20:31  5-MIN KSTC 030420Z AUTO 17007KT 7SM BKN070 22/18 A2982 1120 78 2300 160/07 RMK AO2
14926KSTC STC20051002222510110/02/05 22:25:31  5-MIN KSTC 030425Z AUTO 16007KT 7SM BKN075 22/18 A2982 1120 78 2300 160/07 RMK AO2
14926KSTC STC20051002223010110/02/05 22:30:31  5-MIN KSTC 030430Z AUTO 17006KT 7SM OVC075 22/18 A2982 1120 78 2300 170/06 RMK AO2
14926KSTC STC20051002223510110/02/05 22:35:31  5-MIN KSTC 030435Z AUTO 17006KT 7SM OVC075 22/18 A2982 1120 78 2300 170/06 RMK AO2
14926KSTC STC20051002224010110/02/05 22:40:31  5-MIN KSTC 030440Z AUTO 18008KT 7SM OVC080 22/19 A2982 1120 81 2300 170/08 RMK AO2
14926KSTC STC20051002224510810/02/05 22:45:31  5-MIN KSTC 030445Z AUTO 18005KT 7SM BKN070 BKN085 22/19 A2982 1120 81 2300 170/05 RMK AO2
14926KSTC STC20051002225012510/02/05 22:50:31  5-MIN KSTC 030450Z AUTO 17005KT 7SM BKN070 BKN085 22/18 A2982 1120 81 2200 170/05 RMK AO2 SLP102 T02170183
14926KSTC STC20051002225510810/02/05 22:55:31  5-MIN KSTC 030455Z AUTO 17006KT 7SM SCT070 SCT085 22/18 A2982 1120 81 2200 170/06 RMK AO2
14926KSTC STC20051002230010810/02/05 23:00:31  5-MIN KSTC 030500Z AUTO 16006KT 7SM SCT070 SCT085 22/18 A2982 1120 81 2200 160/06 RMK AO2
14926KSTC STC20051002230510110/02/05 23:05:31  5-MIN KSTC 030505Z AUTO 16005KT 7SM FEW070 21/18 A2982 1120 84 2100 160/05 RMK AO2
14926KSTC STC20051002231010410/02/05 23:10:31  5-MIN KSTC 030510Z AUTO 16005KT 6SM HZ FEW065 21/18 A2983 1110 84 2100 160/05 RMK AO2
14926KSTC STC20051002231510410/02/05 23:15:31  5-MIN KSTC 030515Z AUTO 16006KT 6SM HZ FEW070 21/18 A2983 1110 84 2100 160/06 RMK AO2
14926KSTC STC20051002232010410/02/05 23:20:31  5-MIN KSTC 030520Z AUTO 17006KT 6SM HZ SCT070 21/18 A2983 1110 84 2100 160/06 RMK AO2
14926KSTC STC20051002232510410/02/05 23:25:31  5-MIN KSTC 030525Z AUTO 17006KT 6SM HZ BKN070 21/18 A2982 1120 84 2100 170/06 RMK AO2
14926KSTC STC20051002233010410/02/05 23:30:31  5-MIN KSTC 030530Z AUTO 17006KT 6SM BR SCT070 21/18 A2982 1120 87 2100 170/06 RMK AO2
14926KSTC STC20051002233510410/02/05 23:35:31  5-MIN KSTC 030535Z AUTO 17005KT 6SM BR SCT070 21/18 A2983 1110 87 2100 160/05 RMK AO2
14926KSTC STC20051002234010410/02/05 23:40:31  5-MIN KSTC 030540Z AUTO 16005KT 6SM BR SCT070 21/18 A2983 1110 87 2100 160/05 RMK AO2
14926KSTC STC20051002234510410/02/05 23:45:31  5-MIN KSTC 030545Z AUTO 16005KT 6SM BR SCT070 21/18 A2983 1110 87 2100 150/05 RMK AO2
14926KSTC STC20051002235014910/02/05 23:50:31  5-MIN KSTC 030550Z AUTO 15004KT 6SM BR SCT065 21/18 A2983 1110 87 2100 150/04 RMK AO2 SLP104 T02060183 10233 20206 402500172 51015
14926KSTC STC20051002235510410/02/05 23:55:31  5-MIN KSTC 030555Z AUTO 15004KT 6SM BR SCT065 20/18 A2983 1110 90 2000 140/04 RMK AO2
14926KSTC STC20051003000010410/03/05 00:00:32  5-MIN KSTC 030600Z AUTO 14004KT 6SM BR SCT070 21/18 A2983 1110 87 2100 140/04 RMK AO2
14926KSTC STC20051003000510410/03/05 00:05:31  5-MIN KSTC 030605Z AUTO 14004KT 6SM BR FEW070 21/18 A2983 1110 87 2100 130/04 RMK AO2
14926KSTC STC20051003001010410/03/05 00:10:31  5-MIN KSTC 030610Z AUTO 14004KT 6SM BR FEW070 21/18 A2983 1110 87 2100 140/04 RMK AO2
14926KSTC STC20051003001510410/03/05 00:15:31  5-MIN KSTC 030615Z AUTO 14003KT 6SM BR FEW065 21/18 A2983 1110 87 2100 140/03 RMK AO2
14926KSTC STC20051003002010110/03/05 00:20:31  5-MIN KSTC 030620Z AUTO 15004KT 6SM BR CLR 21/18 A2983 1110 87 2000 150/04 RMK AO2
14926KSTC STC20051003002510110/03/05 00:25:31  5-MIN KSTC 030625Z AUTO 15004KT 5SM BR CLR 21/18 A2983 1110 87 2000 150/04 RMK AO2
14926KSTC STC20051003003010110/03/05 00:30:31  5-MIN KSTC 030630Z AUTO 14003KT 5SM BR CLR 21/18 A2983 1110 87 2000 140/03 RMK AO2
14926KSTC STC20051003003510110/03/05 00:35:31  5-MIN KSTC 030635Z AUTO 14003KT 5SM BR CLR 21/18 A2983 1110 87 2100 130/03 RMK AO2
14926KSTC STC20051003004010110/03/05 00:40:31  5-MIN KSTC 030640Z AUTO 14004KT 5SM BR CLR 20/18 A2983 1110 90 2000 130/04 RMK AO2
14926KSTC STC20051003004510110/03/05 00:45:31  5-MIN KSTC 030645Z AUTO 14004KT 5SM BR CLR 20/18 A2983 1110 90 2000 130/04 RMK AO2
14926KSTC STC20051003005011810/03/05 00:50:31  5-MIN KSTC 030650Z AUTO 14004KT 5SM BR CLR 21/18 A2983 1110 87 2000 130/04 RMK AO2 SLP106 T02060183
14926KSTC STC20051003005510110/03/05 00:55:31  5-MIN KSTC 030655Z AUTO 13003KT 5SM BR CLR 21/18 A2983 1110 87 2000 130/03 RMK AO2
14926KSTC STC20051003010010110/03/05 01:00:31  5-MIN KSTC 030700Z AUTO 13003KT 5SM BR CLR 20/18 A2983 1110 90 2000 130/03 RMK AO2
14926KSTC STC20051003010510110/03/05 01:05:31  5-MIN KSTC 030705Z AUTO 13003KT 5SM BR CLR 19/18 A2983 1110 93 1900 130/03 RMK AO2
14926KSTC STC20051003011010110/03/05 01:10:31  5-MIN KSTC 030710Z AUTO 13005KT 5SM BR CLR 20/18 A2983 1110 90 2000 130/05 RMK AO2
14926KSTC STC20051003011510110/03/05 01:15:31  5-MIN KSTC 030715Z AUTO 12003KT 5SM BR CLR 20/18 A2983 1110 90 2000 120/03 RMK AO2
14926KSTC STC20051003012010110/03/05 01:20:31  5-MIN KSTC 030720Z AUTO 13004KT 5SM BR CLR 20/19 A2983 1110 93 2000 130/04 RMK AO2
14926KSTC STC20051003012510110/03/05 01:25:31  5-MIN KSTC 030725Z AUTO 13003KT 5SM BR CLR 20/18 A2983 1110 90 2000 130/03 RMK AO2
14926KSTC STC20051003013010110/03/05 01:30:31  5-MIN KSTC 030730Z AUTO 13004KT 4SM BR CLR 19/18 A2983 1110 93 1900 130/04 RMK AO2
14926KSTC STC20051003013510110/03/05 01:35:31  5-MIN KSTC 030735Z AUTO 13004KT 4SM BR CLR 18/18 A2983 1110 96 1800 130/04 RMK AO2
14926KSTC STC20051003014010110/03/05 01:40:31  5-MIN KSTC 030740Z AUTO 13004KT 4SM BR CLR 18/18 A2983 1110 96 1800 130/04 RMK AO2
14926KSTC STC20051003014510110/03/05 01:45:31  5-MIN KSTC 030745Z AUTO 13004KT 4SM BR CLR 18/18 A2983 1110 96 1800 130/04 RMK AO2
14926KSTC STC20051003015011810/03/05 01:50:31  5-MIN KSTC 030750Z AUTO 13004KT 4SM BR CLR 19/18 A2983 1110 93 1900 130/04 RMK AO2 SLP107 T01890178
14926KSTC STC20051003015510110/03/05 01:55:31  5-MIN KSTC 030755Z AUTO 13004KT 4SM BR CLR 19/18 A2983 1110 93 1900 130/04 RMK AO2
14926KSTC STC20051003020010110/03/05 02:00:31  5-MIN KSTC 030800Z AUTO 13004KT 4SM BR CLR 19/18 A2983 1110 93 1900 130/04 RMK AO2
14926KSTC STC20051003020510110/03/05 02:05:31  5-MIN KSTC 030805Z AUTO 13004KT 4SM BR CLR 19/18 A2983 1110 93 1900 130/04 RMK AO2
14926KSTC STC20051003021010110/03/05 02:10:31  5-MIN KSTC 030810Z AUTO 13004KT 4SM BR CLR 19/18 A2983 1110 93 1900 130/04 RMK AO2
14926KSTC STC20051003021510110/03/05 02:15:31  5-MIN KSTC 030815Z AUTO 13004KT 4SM BR CLR 18/18 A2983 1110 96 1800 130/04 RMK AO2
14926KSTC STC20051003022010110/03/05 02:20:31  5-MIN KSTC 030820Z AUTO 13004KT 3SM BR CLR 18/18 A2983 1110 96 1800 130/04 RMK AO2
14926KSTC STC20051003022510110/03/05 02:25:31  5-MIN KSTC 030825Z AUTO 14004KT 3SM BR CLR 18/18 A2983 1110 96 1800 140/04 RMK AO2
14926KSTC STC20051003023010110/03/05 02:30:31  5-MIN KSTC 030830Z AUTO 14003KT 3SM BR CLR 19/18 A2984 1110 93 1900 140/03 RMK AO2
14926KSTC STC20051003023510510/03/05 02:35:31  5-MIN KSTC 030835Z AUTO 14004KT 2 1/2SM BR CLR 18/18 A2983 1110 96 1800 140/04 RMK AO2
14926KSTC STC20051003024010110/03/05 02:40:31  5-MIN KSTC 030840Z AUTO 14004KT 2SM BR CLR 18/18 A2984 1100 96 1800 140/04 RMK AO2
14926KSTC STC20051003024510810/03/05 02:45:31  5-MIN KSTC 030845Z AUTO 14004KT 2 1/2SM BR FEW032 19/18 A2984 1100 93 1900 140/04 RMK AO2
14926KSTC STC20051003025013110/03/05 02:50:31  5-MIN KSTC 030850Z AUTO 14004KT 2 1/2SM BR SCT032 19/18 A2984 1100 97 1900 140/04 RMK AO2 SLP108 T01890183 51008
14926KSTC STC20051003025510410/03/05 02:55:31  5-MIN KSTC 030855Z AUTO 14003KT 3SM BR BKN032 19/18 A2984 1100 97 1800 140/03 RMK AO2
14926KSTC STC20051003030010410/03/05 03:00:31  5-MIN KSTC 030900Z AUTO 14003KT 3SM BR BKN032 19/18 A2984 1100 93 1900 140/03 RMK AO2
14926KSTC STC20051003030510410/03/05 03:05:31  5-MIN KSTC 030905Z AUTO 15003KT 3SM BR BKN032 19/19 A2984 1100 97 1900 140/03 RMK AO2
14926KSTC STC20051003031010410/03/05 03:10:31  5-MIN KSTC 030910Z AUTO 15003KT 3SM BR OVC032 19/19 A2985 1100 97 1900 140/03 RMK AO2
14926KSTC STC20051003031510810/03/05 03:15:31  5-MIN KSTC 030915Z AUTO 00000KT 2 1/2SM BR OVC032 19/18 A2985 1090 97 1800 000/00 RMK AO2
14926KSTC STC20051003032011510/03/05 03:20:31  5-MIN KSTC 030920Z AUTO 30004KT 2 1/2SM BR BKN032 OVC042 18/18 A2985 1100 96 1800 300/04 RMK AO2
14926KSTC STC20051003032511110/03/05 03:25:31  5-MIN KSTC 030925Z AUTO 00000KT 2SM BR BKN032 OVC042 19/18 A2985 1090 93 1800 000/00 RMK AO2
14926KSTC STC20051003033011110/03/05 03:30:31  5-MIN KSTC 030930Z AUTO 33004KT 2SM BR SCT032 BKN042 19/18 A2984 1100 97 1800 330/04 RMK AO2
14926KSTC STC20051003033511510/03/05 03:35:31  5-MIN KSTC 030935Z AUTO 35003KT 1 3/4SM BR FEW032 SCT042 19/18 A2985 1100 97 1800 340/03 RMK AO2
14926KSTC STC20051003034011510/03/05 03:40:31  5-MIN KSTC 030940Z AUTO 33004KT 1 1/2SM BR FEW007 SCT042 19/18 A2985 1100 97 1800 330/04 RMK AO2
14926KSTC STC20051003034511510/03/05 03:45:31  5-MIN KSTC 030945Z AUTO 00000KT 1 1/4SM BR FEW007 SCT042 19/18 A2985 1090 97 1800 000/00 RMK AO2
14926KSTC STC20051003035012810/03/05 03:50:31  5-MIN KSTC 030950Z AUTO 34003KT 1SM BR FEW007 SCT042 19/18 A2985 1090 97 1800 340/03 RMK AO2 SLP112 T01890183
14926KSTC STC20051003035511310/03/05 03:55:31  5-MIN KSTC 030955Z AUTO 34003KT 1/2SM FG FEW008 SCT027 18/18 A2985 1090 96 1800 330/03 RMK AO2
14926KSTC STC20051003040011310/03/05 04:00:31  5-MIN KSTC 031000Z AUTO 00000KT 1/4SM FG SCT008 SCT027 18/18 A2985 1090 96 1800 000/00 RMK AO2
14926KSTC STC20051003040511310/03/05 04:05:31  5-MIN KSTC 031005Z AUTO 35003KT 1/4SM FG SCT007 BKN011 18/18 A2985 1090 96 1800 350/03 RMK AO2
14926KSTC STC20051003041011310/03/05 04:10:31  5-MIN KSTC 031010Z AUTO 00000KT 1/4SM FG SCT007 BKN011 18/17 A2985 1090 93 1800 000/00 RMK AO2
14926KSTC STC20051003041512010/03/05 04:15:31  5-MIN KSTC 031015Z AUTO 01003KT 1/4SM FG FEW007 BKN011 BKN026 18/18 A2985 1090 96 1800 010/03 RMK AO2
14926KSTC STC20051003042012110/03/05 04:20:31  5-MIN KSTC 031020Z AUTO 01003KT 1/4SM FG FEW007 BKN011 BKN026 18/18 A2985 1090 100 1700 010/03 RMK AO2
14926KSTC STC20051003042510610/03/05 04:25:31  5-MIN KSTC 031025Z AUTO 00000KT 1/2SM FG BKN011 18/18 A2986 1090 96 1800 000/00 RMK AO2
14926KSTC STC20051003043011410/03/05 04:30:31  5-MIN KSTC 031030Z AUTO 00000KT 1/2SM FG FEW006 OVC011 18/18 A2986 1080 100 1700 000/00 RMK AO2
14926KSTC STC20051003043510710/03/05 04:35:31  5-MIN KSTC 031035Z AUTO 00000KT 1/2SM FG OVC011 18/18 A2986 1080 100 1700 000/00 RMK AO2
14926KSTC STC20051003044010610/03/05 04:40:31  5-MIN KSTC 031040Z AUTO 00000KT 1/2SM FG OVC011 18/17 A2986 1080 96 1700 000/00 RMK AO2
14926KSTC STC20051003044510610/03/05 04:45:31  5-MIN KSTC 031045Z AUTO 00000KT 3/4SM BR OVC011 18/17 A2986 1080 96 1700 000/00 RMK AO2
14926KSTC STC20051003045012310/03/05 04:50:31  5-MIN KSTC 031050Z AUTO 00000KT 3/4SM BR OVC011 18/17 A2986 1080 96 1700 000/00 RMK AO2 SLP116 T01780172
14926KSTC STC20051003045510610/03/05 04:55:31  5-MIN KSTC 031055Z AUTO 06003KT 3/4SM BR OVC011 18/18 A2986 1080 96 1800 060/03 RMK AO2
14926KSTC STC20051003050010810/03/05 05:00:31  5-MIN KSTC 031100Z AUTO 00000KT 1 1/4SM BR OVC011 18/18 A2987 1080 96 1800 000/00 RMK AO2
14926KSTC STC20051003050510910/03/05 05:05:31  5-MIN KSTC 031105Z AUTO 00000KT 1 1/2SM BR OVC011 18/18 A2987 1070 100 1800 000/00 RMK AO2
14926KSTC STC20051003051012010/03/05 05:10:31  5-MIN KSTC 031110Z AUTO 31004KT 1 3/4SM BR OVC011 18/18 A2987 1070 96 1700 300/04 RMK AO2 CIG 007V013
14926KSTC STC20051003051513410/03/05 05:15:31  5-MIN KSTC 031115Z AUTO 32005KT 1 3/4SM BR FEW001 SCT006 OVC009 18/18 A2988 1070 96 1700 310/05 RMK AO2 CIG 009V013
14926KSTC STC20051003052013410/03/05 05:20:31  5-MIN KSTC 031120Z AUTO 32007KT 1 3/4SM BR FEW001 BKN006 OVC011 19/18 A2988 1070 97 1800 310/07 RMK AO2 CIG 004V008
14926KSTC STC20051003052512710/03/05 05:25:31  5-MIN KSTC 031125Z AUTO 32008KT 2 1/2SM BR BKN006 OVC011 18/17 A2988 1060 96 1700 310/08 RMK AO2 CIG 001V008
14926KSTC STC20051003053012310/03/05 05:30:31  5-MIN KSTC 031130Z AUTO 32009KT 4SM BR BKN004 OVC011 18/17 A2988 1060 93 1700 310/09 RMK AO2 CIG 001V007
14926KSTC STC20051003053511610/03/05 05:35:31  5-MIN KSTC 031135Z AUTO 32007KT 4SM BR OVC004 17/17 A2988 1060 96 1600 320/07 RMK AO2 CIG 001V007
14926KSTC STC20051003054010410/03/05 05:40:31  5-MIN KSTC 031140Z AUTO 33006KT 5SM BR OVC004 17/17 A2988 1060 96 1600 320/06 RMK AO2
14926KSTC STC20051003054510410/03/05 05:45:31  5-MIN KSTC 031145Z AUTO 33007KT 5SM BR OVC004 17/16 A2988 1060 93 1600 320/07 RMK AO2
14926KSTC STC20051003055013910/03/05 05:50:31  5-MIN KSTC 031150Z AUTO 33006KT 5SM BR OVC004 17/16 A2988 1060 93 1600 320/06 RMK AO2 SLP124 T01720161 10206 20172 52004
14926KSTC STC20051003055509910/03/05 05:55:31  5-MIN KSTC 031155Z 33006KT 5SM BR OVC004 17/16 A2988 1060 93 1600 320/06 RMK AO2
14926KSTC STC20051003060009910/03/05 06:00:31  5-MIN KSTC 031200Z 33004KT 5SM BR OVC004 17/16 A2988 1060 96 1500 330/04 RMK AO2
14926KSTC STC20051003060509910/03/05 06:05:31  5-MIN KSTC 031205Z 34005KT 5SM BR OVC004 17/16 A2988 1060 96 1500 330/05 RMK AO2
14926KSTC STC20051003061009910/03/05 06:10:31  5-MIN KSTC 031210Z 34005KT 4SM BR OVC004 17/16 A2988 1060 96 1500 330/05 RMK AO2
14926KSTC STC20051003061509910/03/05 06:15:31  5-MIN KSTC 031215Z 34004KT 4SM BR OVC004 17/16 A2988 1060 96 1500 330/04 RMK AO2
14926KSTC STC20051003062009910/03/05 06:20:31  5-MIN KSTC 031220Z 35004KT 4SM BR OVC004 17/16 A2988 1070 93 1600 340/04 RMK AO2
14926KSTC STC20051003062509910/03/05 06:25:31  5-MIN KSTC 031225Z 34004KT 4SM BR OVC004 17/16 A2988 1070 93 1600 340/04 RMK AO2
14926KSTC STC20051003063009910/03/05 06:30:31  5-MIN KSTC 031230Z VRB03KT 3SM BR OVC004 17/16 A2988 1070 93 1600 VRB/03 RMK AO2
14926KSTC STC20051003063509910/03/05 06:35:31  5-MIN KSTC 031235Z VRB03KT 3SM BR OVC004 17/16 A2988 1060 93 1600 VRB/03 RMK AO2
14926KSTC STC20051003064010310/03/05 06:40:31  5-MIN KSTC 031240Z 00000KT 2 1/2SM BR OVC004 17/16 A2988 1060 93 1600 000/00 RMK AO2
14926KSTC STC20051003064509910/03/05 06:45:31  5-MIN KSTC 031245Z 33003KT 2SM BR OVC004 17/16 A2988 1060 93 1600 330/03 RMK AO2
14926KSTC STC20051003065011610/03/05 06:50:31  5-MIN KSTC 031250Z 00000KT 2SM BR OVC004 17/16 A2989 1060 93 1600 000/00 RMK AO2 SLP126 T01720161
14926KSTC STC20051003065509910/03/05 06:55:31  5-MIN KSTC 031255Z 00000KT 2SM BR OVC004 17/16 A2989 1050 93 1600 000/00 RMK AO2
14926KSTC STC20051003070009910/03/05 07:00:31  5-MIN KSTC 031300Z 32003KT 2SM BR OVC004 17/17 A2989 1050 96 1600 310/03 RMK AO2
14926KSTC STC20051003070510310/03/05 07:05:31  5-MIN KSTC 031305Z 33004KT 1 3/4SM BR OVC004 17/17 A2989 1050 96 1600 320/04 RMK AO2
14926KSTC STC20051003071010310/03/05 07:10:31  5-MIN KSTC 031310Z 34003KT 1 3/4SM BR OVC004 17/17 A2990 1050 96 1600 330/03 RMK AO2
14926KSTC STC20051003071510310/03/05 07:15:31  5-MIN KSTC 031315Z 34004KT 1 3/4SM BR OVC004 18/17 A2990 1050 93 1700 330/04 RMK AO2
14926KSTC STC20051003072009910/03/05 07:20:31  5-MIN KSTC 031320Z 32004KT 2SM BR OVC004 18/17 A2990 1050 93 1700 310/04 RMK AO2
14926KSTC STC20051003072509910/03/05 07:25:31  5-MIN KSTC 031325Z 31004KT 2SM BR OVC004 18/17 A2990 1050 93 1700 310/04 RMK AO2
14926KSTC STC20051003073010310/03/05 07:30:31  5-MIN KSTC 031330Z 30006KT 2 1/2SM BR OVC004 18/17 A2990 1050 93 1700 300/06 RMK AO2
14926KSTC STC20051003073509910/03/05 07:35:31  5-MIN KSTC 031335Z 32007KT 3SM BR OVC004 17/16 A2990 1050 93 1600 310/07 RMK AO2
14926KSTC STC20051003074009910/03/05 07:40:31  5-MIN KSTC 031340Z 33006KT 3SM BR OVC004 18/17 A2990 1050 93 1700 330/06 RMK AO2
14926KSTC STC20051003074509910/03/05 07:45:31  5-MIN KSTC 031345Z 35005KT 3SM BR OVC004 18/17 A2990 1050 93 1700 350/05 RMK AO2
14926KSTC STC20051003075012010/03/05 07:50:31  5-MIN KSTC 031350Z 32003KT 2 1/2SM BR OVC004 18/17 A2990 1040 93 1700 320/03 RMK AO2 SLP129 T01780167
14926KSTC STC20051003075510310/03/05 07:55:31  5-MIN KSTC 031355Z 30003KT 2 1/2SM BR OVC004 18/17 A2990 1040 93 1700 300/03 RMK AO2
14926KSTC STC20051003080010310/03/05 08:00:31  5-MIN KSTC 031400Z 33004KT 2 1/2SM BR OVC004 18/17 A2990 1040 93 1700 330/04 RMK AO2
14926KSTC STC20051003080510310/03/05 08:05:31  5-MIN KSTC 031405Z 35004KT 2 1/2SM BR OVC004 18/17 A2990 1050 96 1700 350/04 RMK AO2
14926KSTC STC20051003081009910/03/05 08:10:31  5-MIN KSTC 031410Z 01005KT 2SM BR OVC004 18/17 A2990 1050 93 1700 360/05 RMK AO2
14926KSTC STC20051003081509910/03/05 08:15:31  5-MIN KSTC 031415Z 02006KT 2SM BR OVC004 18/17 A2990 1040 93 1700 010/06 RMK AO2
14926KSTC STC20051003082010310/03/05 08:20:31  5-MIN KSTC 031420Z 06008KT 2 1/2SM BR OVC004 18/17 A2990 1040 93 1700 060/08 RMK AO2
14926KSTC STC20051003082511110/03/05 08:25:31  5-MIN KSTC 031425Z 06006KT 3SM BR OVC004 18/17 A2990 1040 93 1700 060/06 RMK AO2 CIG 003V007
14926KSTC STC20051003083011110/03/05 08:30:31  5-MIN KSTC 031430Z 06006KT 4SM BR OVC004 18/17 A2991 1040 93 1700 060/06 RMK AO2 CIG 003V007
14926KSTC STC20051003083511110/03/05 08:35:31  5-MIN KSTC 031435Z 04007KT 4SM BR OVC004 18/17 A2991 1040 93 1700 040/07 RMK AO2 CIG 003V007
14926KSTC STC20051003084011110/03/05 08:40:31  5-MIN KSTC 031440Z VRB03KT 4SM BR OVC004 18/17 A2991 1040 90 1700 VRB/03 RMK AO2 CIG 003V007
14926KSTC STC20051003084509910/03/05 08:45:31  5-MIN KSTC 031445Z 00000KT 4SM BR OVC004 18/17 A2991 1040 90 1700 000/00 RMK AO2
14926KSTC STC20051003085012210/03/05 08:50:31  5-MIN KSTC 031450Z 05007KT 4SM BR OVC004 18/17 A2990 1040 93 1600 050/07 RMK AO2 SLP131 T01780167 53015
14926KSTC STC20051003085509910/03/05 08:55:31  5-MIN KSTC 031455Z 07007KT 4SM BR OVC004 18/17 A2990 1050 93 1700 060/07 RMK AO2
14926KSTC STC20051003090009910/03/05 09:00:31  5-MIN KSTC 031500Z 06008KT 5SM BR OVC004 18/16 A2990 1040 90 1700 060/08 RMK AO2
14926KSTC STC20051003090509910/03/05 09:05:31  5-MIN KSTC 031505Z 06006KT 5SM BR OVC004 18/16 A2990 1040 90 1700 060/06 RMK AO2
14926KSTC STC20051003091009910/03/05 09:10:31  5-MIN KSTC 031510Z 05006KT 5SM BR OVC004 18/16 A2990 1050 90 1700 040/06 RMK AO2
14926KSTC STC20051003091509910/03/05 09:15:31  5-MIN KSTC 031515Z 06006KT 5SM BR OVC004 18/16 A2990 1040 90 1700 060/06 RMK AO2
14926KSTC STC20051003092009910/03/05 09:20:31  5-MIN KSTC 031520Z 06005KT 5SM BR OVC004 18/16 A2990 1040 90 1700 050/05 RMK AO2
14926KSTC STC20051003092509910/03/05 09:25:31  5-MIN KSTC 031525Z 05006KT 5SM BR OVC004 18/16 A2990 1040 90 1700 040/06 RMK AO2
14926KSTC STC20051003093009910/03/05 09:30:31  5-MIN KSTC 031530Z 06006KT 5SM BR OVC004 18/17 A2990 1050 93 1700 050/06 RMK AO2
14926KSTC STC20051003093509910/03/05 09:35:31  5-MIN KSTC 031535Z 06006KT 5SM BR OVC004 18/17 A2990 1050 90 1700 060/06 RMK AO2
14926KSTC STC20051003094009910/03/05 09:40:31  5-MIN KSTC 031540Z 05005KT 5SM BR OVC004 18/17 A2990 1050 90 1700 050/05 RMK AO2
14926KSTC STC20051003094509910/03/05 09:45:31  5-MIN KSTC 031545Z VRB03KT 5SM BR OVC004 18/17 A2990 1050 90 1700 VRB/03 RMK AO2
14926KSTC STC20051003095011610/03/05 09:50:31  5-MIN KSTC 031550Z 08003KT 5SM BR OVC004 18/17 A2990 1040 90 1700 080/03 RMK AO2 SLP129 T01830167
14926KSTC STC20051003095509910/03/05 09:55:31  5-MIN KSTC 031555Z 07004KT 5SM BR OVC004 18/17 A2990 1040 90 1700 070/04 RMK AO2
14926KSTC STC20051003100009910/03/05 10:00:31  5-MIN KSTC 031600Z 00000KT 5SM BR OVC004 18/17 A2990 1040 90 1700 000/00 RMK AO2
14926KSTC STC20051003100509910/03/05 10:05:31  5-MIN KSTC 031605Z 07004KT 5SM BR OVC004 19/17 A2990 1050 87 1800 070/04 RMK AO2
14926KSTC STC20051003101009910/03/05 10:10:31  5-MIN KSTC 031610Z 07003KT 5SM BR OVC004 19/17 A2989 1050 87 1800 070/03 RMK AO2
14926KSTC STC20051003101510610/03/05 10:15:31  5-MIN KSTC 031615Z VRB04KT 5SM BR BKN004 OVC010 19/17 A2989 1050 87 1800 VRB/04 RMK AO2
14926KSTC STC20051003102011110/03/05 10:20:31  5-MIN KSTC 031620Z 04003KT 6SM BR OVC006 19/17 A2990 1050 87 1800 040/03 RMK AO2 CIG 005V009
14926KSTC STC20051003102511110/03/05 10:25:31  5-MIN KSTC 031625Z VRB03KT 6SM HZ OVC006 19/17 A2990 1050 84 1800 VRB/03 RMK AO2 CIG 005V011
14926KSTC STC20051003103011110/03/05 10:30:31  5-MIN KSTC 031630Z 00000KT 6SM BR OVC006 19/17 A2990 1040 87 1800 000/00 RMK AO2 CIG 005V011
14926KSTC STC20051003103511110/03/05 10:35:31  5-MIN KSTC 031635Z 08003KT 6SM BR OVC006 19/17 A2990 1040 87 1800 080/03 RMK AO2 CIG 005V011
14926KSTC STC20051003104011110/03/05 10:40:31  5-MIN KSTC 031640Z 00000KT 6SM BR OVC006 19/17 A2990 1040 87 1800 000/00 RMK AO2 CIG 005V011
14926KSTC STC20051003104511110/03/05 10:45:31  5-MIN KSTC 031645Z 00000KT 6SM BR OVC008 19/17 A2990 1040 87 1800 000/00 RMK AO2 CIG 006V012
14926KSTC STC20051003105012810/03/05 10:50:31  5-MIN KSTC 031650Z 00000KT 6SM BR OVC008 19/17 A2990 1040 87 1800 000/00 RMK AO2 CIG 006V012 SLP129 T01940172
14926KSTC STC20051003105511810/03/05 10:55:31  5-MIN KSTC 031655Z 00000KT 6SM BR BKN010 OVC031 19/17 A2991 1040 87 1800 000/00 RMK AO2 CIG 007V012
14926KSTC STC20051003110011810/03/05 11:00:31  5-MIN KSTC 031700Z 00000KT 6SM BR BKN010 OVC029 19/17 A2991 1040 87 1800 000/00 RMK AO2 CIG 007V012
14926KSTC STC20051003110511810/03/05 11:05:31  5-MIN KSTC 031705Z 00000KT 6SM HZ BKN010 OVC026 20/17 A2990 1040 84 1900 000/00 RMK AO2 CIG 007V013
14926KSTC STC20051003111010610/03/05 11:10:31  5-MIN KSTC 031710Z 00000KT 6SM HZ SCT012 OVC026 20/17 A2990 1040 84 1900 000/00 RMK AO2
14926KSTC STC20051003111510610/03/05 11:15:31  5-MIN KSTC 031715Z 00000KT 6SM HZ SCT012 OVC026 20/17 A2990 1040 84 1900 000/00 RMK AO2
14926KSTC STC20051003112010610/03/05 11:20:31  5-MIN KSTC 031720Z 00000KT 6SM HZ SCT012 OVC026 21/18 A2990 1050 84 2000 000/00 RMK AO2
14926KSTC STC20051003112510310/03/05 11:25:31  5-MIN KSTC 031725Z 00000KT 7SM SCT012 OVC026 21/18 A2990 1050 84 2000 000/00 RMK AO2
14926KSTC STC20051003113010310/03/05 11:30:31  5-MIN KSTC 031730Z 00000KT 7SM FEW012 OVC024 21/18 A2990 1050 84 2000 000/00 RMK AO2
14926KSTC STC20051003113510310/03/05 11:35:31  5-MIN KSTC 031735Z 00000KT 7SM SCT012 OVC024 21/18 A2990 1050 81 2000 000/00 RMK AO2
14926KSTC STC20051003114010310/03/05 11:40:31  5-MIN KSTC 031740Z 14004KT 7SM SCT012 OVC022 21/18 A2990 1050 81 2000 130/04 RMK AO2
14926KSTC STC20051003114510310/03/05 11:45:31  5-MIN KSTC 031745Z 16004KT 7SM FEW012 OVC022 21/18 A2990 1050 84 2000 160/04 RMK AO2
14926KSTC STC20051003115013810/03/05 11:50:31  5-MIN KSTC 031750Z 18004KT 7SM FEW012 OVC022 21/18 A2990 1050 84 2000 170/04 RMK AO2 SLP128 T02110183 10211 20167 51005
14926KSTC STC20051003115510310/03/05 11:55:31  5-MIN KSTC 031755Z VRB03KT 7SM FEW012 OVC022 21/18 A2990 1050 84 2000 VRB/03 RMK AO2
14926KSTC STC20051003120010310/03/05 12:00:31  5-MIN KSTC 031800Z VRB04KT 7SM FEW012 OVC022 22/18 A2990 1050 81 2100 VRB/04 RMK AO2
14926KSTC STC20051003120509610/03/05 12:05:31  5-MIN KSTC 031805Z VRB03KT 7SM OVC024 22/18 A2990 1050 81 2100 VRB/03 RMK AO2
14926KSTC STC20051003121009610/03/05 12:10:31  5-MIN KSTC 031810Z 19003KT 7SM OVC024 22/19 A2989 1050 84 2100 180/03 RMK AO2
14926KSTC STC20051003121509610/03/05 12:15:31  5-MIN KSTC 031815Z 18005KT 7SM OVC024 23/19 A2990 1050 78 2200 170/05 RMK AO2
14926KSTC STC20051003122009610/03/05 12:20:31  5-MIN KSTC 031820Z 20005KT 7SM OVC024 22/19 A2990 1050 81 2200 200/05 RMK AO2
14926KSTC STC20051003122509610/03/05 12:25:31  5-MIN KSTC 031825Z 19007KT 7SM OVC024 23/19 A2990 1050 78 2200 190/07 RMK AO2
14926KSTC STC20051003123009610/03/05 12:30:31  5-MIN KSTC 031830Z 20007KT 7SM OVC024 23/19 A2989 1050 78 2200 190/07 RMK AO2
14926KSTC STC20051003123511010/03/05 12:35:31  5-MIN KSTC 031835Z 19006KT 7SM FEW014 BKN024 OVC031 23/19 A2989 1050 78 2200 180/06 RMK AO2
14926KSTC STC20051003124011010/03/05 12:40:31  5-MIN KSTC 031840Z 18007KT 7SM SCT016 BKN024 OVC031 23/19 A2989 1060 78 2200 180/07 RMK AO2
14926KSTC STC20051003124511010/03/05 12:45:31  5-MIN KSTC 031845Z 17004KT 8SM SCT016 BKN024 OVC031 23/19 A2989 1060 78 2200 170/04 RMK AO2
14926KSTC STC20051003125014310/03/05 12:50:31  5-MIN KSTC 031850Z VRB05KT 7SM -RA SCT016 BKN024 OVC031 23/19 A2988 1060 78 2200 VRB/05 RMK AO2 RAB49 SLP123 P0000 T02280189
14926KSTC STC20051003125512010/03/05 12:55:31  5-MIN KSTC 031855Z 16005KT 6SM -RA BKN016 BKN024 OVC031 22/19 A2988 1070 84 2200 160/05 RMK AO2 P0000
14926KSTC STC20051003130012010/03/05 13:00:31  5-MIN KSTC 031900Z 19005KT 6SM -RA BKN016 BKN024 OVC031 23/19 A2988 1060 81 2200 180/05 RMK AO2 P0000
14926KSTC STC20051003130512210/03/05 13:05:31  5-MIN KSTC 031905Z 16006KT 7SM BKN016 BKN022 BKN030 23/19 A2987 1070 81 2300 150/06 RMK AO2 RAE03 P0000
14926KSTC STC20051003131012210/03/05 13:10:31  5-MIN KSTC 031910Z 17006KT 8SM BKN018 BKN022 BKN030 23/20 A2987 1070 84 2300 160/06 RMK AO2 RAE03 P0000
14926KSTC STC20051003131511510/03/05 13:15:31  5-MIN KSTC 031915Z 17005KT 8SM SCT018 BKN024 23/19 A2987 1070 78 2300 170/05 RMK AO2 RAE03 P0000
14926KSTC STC20051003132011510/03/05 13:20:31  5-MIN KSTC 031920Z 17006KT 8SM SCT018 BKN024 23/19 A2987 1070 78 2300 170/06 RMK AO2 RAE03 P0000
14926KSTC STC20051003132511510/03/05 13:25:31  5-MIN KSTC 031925Z 17007KT 8SM FEW016 SCT024 23/19 A2987 1080 78 2300 170/07 RMK AO2 RAE03 P0000
14926KSTC STC20051003133010810/03/05 13:30:31  5-MIN KSTC 031930Z 18008KT 8SM FEW022 23/19 A2987 1070 78 2300 180/08 RMK AO2 RAE03 P0000
14926KSTC STC20051003133510810/03/05 13:35:31  5-MIN KSTC 031935Z 18008KT 8SM FEW024 23/19 A2987 1080 78 2300 180/08 RMK AO2 RAE03 P0000
14926KSTC STC20051003134010810/03/05 13:40:31  5-MIN KSTC 031940Z 19008KT 8SM FEW024 23/19 A2987 1070 78 2300 180/08 RMK AO2 RAE03 P0000
14926KSTC STC20051003134510510/03/05 13:45:31  5-MIN KSTC 031945Z 18006KT 8SM CLR 23/19 A2987 1070 78 2300 170/06 RMK AO2 RAE03 P0000
14926KSTC STC20051003135012210/03/05 13:50:31  5-MIN KSTC 031950Z 19008KT 8SM CLR 23/19 A2987 1070 78 2300 180/08 RMK AO2 RAE03 SLP120 P0000 T02330194
14926KSTC STC20051003135509310/03/05 13:55:31  5-MIN KSTC 031955Z 19006KT 8SM CLR 23/19 A2988 1070 78 2300 180/06 RMK AO2
14926KSTC STC20051003140009310/03/05 14:00:31  5-MIN KSTC 032000Z 19007KT 8SM CLR 23/19 A2988 1070 78 2300 190/07 RMK AO2
14926KSTC STC20051003140509610/03/05 14:05:31  5-MIN KSTC 032005Z 19005KT 8SM FEW037 24/19 A2987 1070 76 2400 180/05 RMK AO2
14926KSTC STC20051003141009610/03/05 14:10:31  5-MIN KSTC 032010Z VRB04KT 9SM FEW037 24/19 A2987 1070 76 2400 VRB/04 RMK AO2
14926KSTC STC20051003141509310/03/05 14:15:31  5-MIN KSTC 032015Z 19004KT 9SM CLR 24/19 A2987 1070 76 2400 180/04 RMK AO2
14926KSTC STC20051003142009310/03/05 14:20:31  5-MIN KSTC 032020Z 17004KT 9SM CLR 24/20 A2987 1080 78 2400 160/04 RMK AO2
14926KSTC STC20051003142509310/03/05 14:25:31  5-MIN KSTC 032025Z 18006KT 9SM CLR 24/19 A2987 1080 76 2400 170/06 RMK AO2
14926KSTC STC20051003143009310/03/05 14:30:31  5-MIN KSTC 032030Z 17007KT 9SM CLR 24/20 A2987 1080 78 2400 160/07 RMK AO2
14926KSTC STC20051003143509310/03/05 14:35:31  5-MIN KSTC 032035Z VRB05KT 9SM CLR 24/19 A2986 1080 73 2500 VRB/05 RMK AO2
14926KSTC STC20051003144009310/03/05 14:40:31  5-MIN KSTC 032040Z 16005KT 9SM CLR 24/20 A2986 1080 76 2500 150/05 RMK AO2
14926KSTC STC20051003144509410/03/05 14:45:31  5-MIN KSTC 032045Z 16006KT 10SM CLR 24/20 A2986 1080 76 2500 160/06 RMK AO2
14926KSTC STC20051003145012310/03/05 14:50:31  5-MIN KSTC 032050Z 16004KT 10SM CLR 24/20 A2986 1090 76 2500 160/04 RMK AO2 SLP114 60000 T02440200 58002
14926KSTC STC20051003145509910/03/05 14:55:31  5-MIN KSTC 032055Z AUTO 16005KT 10SM CLR 24/20 A2986 1090 76 2500 150/05 RMK AO2
14926KSTC STC20051003150009910/03/05 15:00:31  5-MIN KSTC 032100Z AUTO 16006KT 10SM CLR 24/20 A2986 1090 76 2500 150/06 RMK AO2
14926KSTC STC20051003150509910/03/05 15:05:31  5-MIN KSTC 032105Z AUTO 15005KT 10SM CLR 24/20 A2985 1090 76 2500 150/05 RMK AO2
14926KSTC STC20051003151009910/03/05 15:10:31  5-MIN KSTC 032110Z AUTO 15005KT 10SM CLR 25/20 A2985 1090 73 2500 150/05 RMK AO2
14926KSTC STC20051003151509910/03/05 15:15:31  5-MIN KSTC 032115Z AUTO 17005KT 10SM CLR 26/20 A2985 1090 68 2700 170/05 RMK AO2
14926KSTC STC20051003152009910/03/05 15:20:31  5-MIN KSTC 032120Z AUTO 16006KT 10SM CLR 26/20 A2985 1090 71 2600 160/06 RMK AO2
14926KSTC STC20051003152509910/03/05 15:25:31  5-MIN KSTC 032125Z AUTO 15006KT 10SM CLR 26/20 A2985 1090 68 2700 150/06 RMK AO2
14926KSTC STC20051003153009910/03/05 15:30:31  5-MIN KSTC 032130Z AUTO 16006KT 10SM CLR 26/20 A2985 1090 68 2700 160/06 RMK AO2
14926KSTC STC20051003153509910/03/05 15:35:31  5-MIN KSTC 032135Z AUTO 15007KT 10SM CLR 26/20 A2985 1090 68 2700 140/07 RMK AO2
14926KSTC STC20051003154009910/03/05 15:40:31  5-MIN KSTC 032140Z AUTO 16007KT 10SM CLR 27/20 A2985 1090 66 2700 160/07 RMK AO2
14926KSTC STC20051003154509910/03/05 15:45:31  5-MIN KSTC 032145Z AUTO 16006KT 10SM CLR 27/20 A2985 1090 66 2700 160/06 RMK AO2
14926KSTC STC20051003155011610/03/05 15:50:31  5-MIN KSTC 032150Z AUTO 17005KT 10SM CLR 27/20 A2985 1090 66 2700 160/05 RMK AO2 SLP112 T02670200
14926KSTC STC20051003155510210/03/05 15:55:31  5-MIN KSTC 032155Z AUTO 16007KT 10SM FEW055 26/20 A2985 1090 68 2700 160/07 RMK AO2
14926KSTC STC20051003160010210/03/05 16:00:31  5-MIN KSTC 032200Z AUTO 15006KT 10SM SCT050 26/20 A2985 1090 68 2700 150/06 RMK AO2
14926KSTC STC20051003160509710/03/05 16:05:31  5-MIN KSTC 032205Z 16005KT 10SM BKN050 26/20 A2985 1090 71 2600 160/05 RMK AO2
14926KSTC STC20051003161010410/03/05 16:10:31  5-MIN KSTC 032210Z 15005KT 10SM BKN050 BKN070 26/20 A2985 1090 71 2600 150/05 RMK AO2
14926KSTC STC20051003161510410/03/05 16:15:31  5-MIN KSTC 032215Z VRB03KT 10SM BKN050 BKN070 26/20 A2986 1090 71 2600 VRB/03 RMK AO2
14926KSTC STC20051003162010410/03/05 16:20:31  5-MIN KSTC 032220Z 00000KT 10SM BKN055 OVC070 26/20 A2985 1090 68 2700 000/00 RMK AO2
14926KSTC STC20051003162509710/03/05 16:25:31  5-MIN KSTC 032225Z 00000KT 10SM OVC055 26/20 A2986 1090 68 2700 000/00 RMK AO2
14926KSTC STC20051003163010410/03/05 16:30:31  5-MIN KSTC 032230Z 00000KT 10SM BKN055 OVC070 26/20 A2986 1090 71 2600 000/00 RMK AO2
14926KSTC STC20051003163509710/03/05 16:35:31  5-MIN KSTC 032235Z 04003KT 10SM OVC055 26/21 A2985 1090 73 2600 040/03 RMK AO2
14926KSTC STC20051003164010410/03/05 16:40:31  5-MIN KSTC 032240Z 03003KT 10SM BKN055 OVC075 25/21 A2985 1090 76 2500 020/03 RMK AO2
14926KSTC STC20051003164511310/03/05 16:45:31  5-MIN KSTC 032245Z 01003KT 10SM TS BKN055 OVC075 26/20 A2985 1090 71 2600 010/03 RMK AO2 TSB42
14926KSTC STC20051003165012310/03/05 16:50:31  5-MIN KSTC 032250Z 01004KT 10SM TS OVC055 25/21 A2985 1090 76 2500 010/04 RMK AO2 TSB42 SLP112 T02500206
14926KSTC STC20051003165510010/03/05 16:55:31  5-MIN KSTC 032255Z 35004KT 10SM TS OVC055 25/21 A2985 1090 76 2500 340/04 RMK AO2
14926KSTC STC20051003170010710/03/05 17:00:31  5-MIN KSTC 032300Z 32006KT 10SM TS FEW041 OVC055 24/21 A2986 1080 78 2500 320/06 RMK AO2
14926KSTC STC20051003170510910/03/05 17:05:31  5-MIN KSTC 032305Z 31008KT 9SM BKN039 OVC055 24/21 A2986 1080 78 2500 310/08 RMK AO2 TSE04
14926KSTC STC20051003171012910/03/05 17:10:31  5-MIN KSTC 032310Z 35006KT 6SM -TSRA BKN039 OVC060 24/21 A2985 1090 81 2400 340/06 RMK AO2 TSE04B06RAB08 P0000
14926KSTC STC20051003171513610/03/05 17:15:31  5-MIN KSTC 032315Z 02005KT 5SM -TSRA FEW017 BKN039 BKN060 23/21 A2985 1100 84 2400 020/05 RMK AO2 TSE04B06RAB08 P0000
14926KSTC STC20051003172013610/03/05 17:20:31  5-MIN KSTC 032320Z 03005KT 6SM -TSRA FEW017 SCT039 BKN055 23/21 A2984 1100 84 2400 030/05 RMK AO2 TSE04B06RAB08 P0001
14926KSTC STC20051003172513610/03/05 17:25:31  5-MIN KSTC 032325Z 36004KT 8SM TS FEW017 SCT039 BKN065 23/21 A2985 1090 87 2300 360/04 RMK AO2 TSE04B06RAB08E25 P0001
14926KSTC STC20051003173013610/03/05 17:30:31  5-MIN KSTC 032330Z 33006KT 7SM TS FEW017 BKN060 BKN070 23/21 A2986 1090 87 2300 320/06 RMK AO2 TSE04B06RAB08E25 P0001
14926KSTC STC20051003173513210/03/05 17:35:31  5-MIN KSTC 032335Z 32010KT 6SM TS BR FEW017 BKN065 23/21 A2985 1090 90 2300 310/10 RMK AO2 TSE04B06RAB08E25 P0001
14926KSTC STC20051003174014010/03/05 17:40:31  5-MIN KSTC 032340Z 35008KT 5SM VCTS BR FEW017 BKN065 22/21 A2985 1090 93 2200 350/08 RMK AO2 TSE04B06E36B40RAB08E25 P0001
14926KSTC STC20051003174513310/03/05 17:45:31  5-MIN KSTC 032345Z 01007KT 5SM VCTS BR SCT065 22/20 A2985 1090 90 2200 360/07 RMK AO2 TSE04B06E36B40RAB08E25 P0001
14926KSTC STC20051003175017410/03/05 17:50:31  5-MIN KSTC 032350Z 02007KT 5SM VCTS BR SCT065 21/19 A2985 1090 90 2000 010/07 RMK AO2 TSE04B06E36B40RAB08E25 SLP113 P0001 60001 T02060189 10267 20206 58013
14926KSTC STC20051003175510510/03/05 17:55:31  5-MIN KSTC 032355Z 02005KT 6SM BR SCT065 21/19 A2985 1090 90 2000 020/05 RMK AO2 TSE55
14926KSTC STC20051003180010710/03/05 18:00:31  5-MIN KSTC 040000Z 03004KT 6SM BR SCT070 20/19 A2985 1090 93 2000 030/04 RMK AO2 TSE2355
14926KSTC STC20051003180510710/03/05 18:05:31  5-MIN KSTC 040005Z 35005KT 6SM BR SCT070 20/19 A2986 1090 93 2000 350/05 RMK AO2 TSE2355
14926KSTC STC20051003181010710/03/05 18:10:31  5-MIN KSTC 040010Z 34007KT 6SM BR BKN070 20/18 A2986 1080 90 2000 330/07 RMK AO2 TSE2355
14926KSTC STC20051003181510710/03/05 18:15:31  5-MIN KSTC 040015Z 34007KT 6SM BR BKN070 20/18 A2986 1080 90 2000 340/07 RMK AO2 TSE2355
14926KSTC STC20051003182010410/03/05 18:20:31  5-MIN KSTC 040020Z 33007KT 7SM BKN070 19/17 A2986 1080 90 1800 330/07 RMK AO2 TSE2355
14926KSTC STC20051003182510410/03/05 18:25:31  5-MIN KSTC 040025Z 35009KT 8SM SCT070 18/17 A2987 1080 90 1800 350/09 RMK AO2 TSE2355
14926KSTC STC20051003183010410/03/05 18:30:31  5-MIN KSTC 040030Z 35008KT 9SM SCT070 18/17 A2987 1070 90 1800 340/08 RMK AO2 TSE2355
14926KSTC STC20051003183510510/03/05 18:35:31  5-MIN KSTC 040035Z 35008KT 10SM SCT075 18/16 A2987 1070 87 1800 340/08 RMK AO2 TSE2355
14926KSTC STC20051003184010510/03/05 18:40:31  5-MIN KSTC 040040Z 35007KT 10SM BKN075 18/16 A2987 1070 90 1700 350/07 RMK AO2 TSE2355
14926KSTC STC20051003184510510/03/05 18:45:31  5-MIN KSTC 040045Z 35006KT 10SM SCT075 18/16 A2987 1070 90 1700 340/06 RMK AO2 TSE2355
14926KSTC STC20051003185012210/03/05 18:50:31  5-MIN KSTC 040050Z 35005KT 10SM SCT075 18/16 A2987 1070 90 1700 350/05 RMK AO2 TSE2355 SLP122 T01780161
14926KSTC STC20051003185509710/03/05 18:55:31  5-MIN KSTC 040055Z 36006KT 10SM SCT075 18/16 A2987 1070 90 1700 350/06 RMK AO2
14926KSTC STC20051003190009710/03/05 19:00:31  5-MIN KSTC 040100Z 36007KT 10SM SCT075 18/16 A2987 1070 87 1700 360/07 RMK AO2
14926KSTC STC20051003190509710/03/05 19:05:31  5-MIN KSTC 040105Z 35007KT 10SM FEW075 18/16 A2988 1070 87 1700 340/07 RMK AO2
14926KSTC STC20051003191009710/03/05 19:10:31  5-MIN KSTC 040110Z 35006KT 10SM FEW075 17/16 A2988 1060 90 1600 340/06 RMK AO2
14926KSTC STC20051003191509410/03/05 19:15:31  5-MIN KSTC 040115Z 35006KT 10SM CLR 17/16 A2988 1060 90 1600 350/06 RMK AO2
14926KSTC STC20051003192009410/03/05 19:20:31  5-MIN KSTC 040120Z 01005KT 10SM CLR 17/16 A2988 1070 90 1600 360/05 RMK AO2
14926KSTC STC20051003192509410/03/05 19:25:31  5-MIN KSTC 040125Z 36005KT 10SM CLR 17/16 A2988 1060 90 1600 350/05 RMK AO2
14926KSTC STC20051003193009410/03/05 19:30:31  5-MIN KSTC 040130Z VRB04KT 10SM CLR 17/16 A2989 1060 90 1600 VRB/04 RMK AO2
14926KSTC STC20051003193509410/03/05 19:35:31  5-MIN KSTC 040135Z 01003KT 10SM CLR 17/16 A2989 1060 90 1600 360/03 RMK AO2
14926KSTC STC20051003194009410/03/05 19:40:31  5-MIN KSTC 040140Z 36004KT 10SM CLR 17/16 A2989 1060 90 1600 360/04 RMK AO2
14926KSTC STC20051003194509410/03/05 19:45:31  5-MIN KSTC 040145Z 01004KT 10SM CLR 17/16 A2989 1050 90 1600 010/04 RMK AO2
14926KSTC STC20051003195011110/03/05 19:50:31  5-MIN KSTC 040150Z 36005KT 10SM CLR 17/16 A2989 1050 90 1600 360/05 RMK AO2 SLP129 T01720156
14926KSTC STC20051003195509410/03/05 19:55:31  5-MIN KSTC 040155Z 36004KT 10SM CLR 17/16 A2990 1050 90 1600 350/04 RMK AO2
14926KSTC STC20051003200009410/03/05 20:00:31  5-MIN KSTC 040200Z 00000KT 10SM CLR 17/16 A2990 1050 93 1500 000/00 RMK AO2
14926KSTC STC20051003200509310/03/05 20:05:31  5-MIN KSTC 040205Z 00000KT 9SM CLR 17/16 A2990 1050 93 1500 000/00 RMK AO2
14926KSTC STC20051003201009310/03/05 20:10:31  5-MIN KSTC 040210Z VRB03KT 9SM CLR 17/16 A2990 1050 93 1500 VRB/03 RMK AO2
14926KSTC STC20051003201509310/03/05 20:15:31  5-MIN KSTC 040215Z 01003KT 9SM CLR 17/16 A2990 1050 93 1500 010/03 RMK AO2
14926KSTC STC20051003202009310/03/05 20:20:31  5-MIN KSTC 040220Z 34003KT 9SM CLR 17/16 A2989 1050 93 1500 340/03 RMK AO2
14926KSTC STC20051003202509310/03/05 20:25:31  5-MIN KSTC 040225Z 00000KT 9SM CLR 17/16 A2989 1050 93 1500 000/00 RMK AO2
14926KSTC STC20051003203009310/03/05 20:30:31  5-MIN KSTC 040230Z 03004KT 9SM CLR 17/16 A2989 1050 93 1500 020/04 RMK AO2
14926KSTC STC20051003203509310/03/05 20:35:31  5-MIN KSTC 040235Z 04004KT 9SM CLR 17/16 A2989 1050 93 1500 030/04 RMK AO2
14926KSTC STC20051003204009310/03/05 20:40:31  5-MIN KSTC 040240Z 34004KT 9SM CLR 17/16 A2990 1050 93 1500 340/04 RMK AO2
14926KSTC STC20051003204509310/03/05 20:45:31  5-MIN KSTC 040245Z 35004KT 8SM CLR 17/16 A2990 1040 93 1500 350/04 RMK AO2
14926KSTC STC20051003205012510/03/05 20:50:31  5-MIN KSTC 040250Z 34004KT 8SM TS CLR 17/16 A2990 1040 93 1500 340/04 RMK AO2 TSB49 SLP133 T01670156 56002
14926KSTC STC20051003205509910/03/05 20:55:31  5-MIN KSTC 040255Z 33004KT 8SM TS FEW080 17/16 A2991 1040 93 1500 320/04 RMK AO2
14926KSTC STC20051003210009910/03/05 21:00:31  5-MIN KSTC 040300Z 34005KT 8SM TS FEW075 16/15 A2991 1040 93 1500 340/05 RMK AO2
14926KSTC STC20051003210510910/03/05 21:05:31  5-MIN KSTC 040305Z 28006KT 8SM SCT070 SCT090 17/15 A2991 1030 90 1500 280/06 RMK AO2 TSE03
14926KSTC STC20051003211010910/03/05 21:10:31  5-MIN KSTC 040310Z 33004KT 8SM SCT070 BKN090 17/15 A2991 1040 90 1500 330/04 RMK AO2 TSE03
14926KSTC STC20051003211510910/03/05 21:15:31  5-MIN KSTC 040315Z 30005KT 7SM SCT070 BKN090 16/15 A2992 1030 93 1400 290/05 RMK AO2 TSE03
14926KSTC STC20051003212010910/03/05 21:20:31  5-MIN KSTC 040320Z 34005KT 7SM SCT070 BKN090 16/15 A2992 1030 93 1400 340/05 RMK AO2 TSE03
14926KSTC STC20051003212510910/03/05 21:25:31  5-MIN KSTC 040325Z VRB03KT 7SM FEW070 BKN090 16/15 A2992 1030 93 1400 VRB/03 RMK AO2 TSE03
14926KSTC STC20051003213010910/03/05 21:30:31  5-MIN KSTC 040330Z 33005KT 8SM SCT070 BKN090 16/15 A2992 1020 93 1400 330/05 RMK AO2 TSE03
14926KSTC STC20051003213510910/03/05 21:35:31  5-MIN KSTC 040335Z 35004KT 8SM BKN070 BKN090 16/15 A2992 1030 93 1400 350/04 RMK AO2 TSE03
14926KSTC STC20051003214010910/03/05 21:40:31  5-MIN KSTC 040340Z 34006KT 8SM BKN070 BKN090 16/14 A2992 1030 90 1400 340/06 RMK AO2 TSE03
14926KSTC STC20051003214510910/03/05 21:45:31  5-MIN KSTC 040345Z 35004KT 9SM SCT070 BKN090 16/14 A2992 1030 90 1400 340/04 RMK AO2 TSE03
14926KSTC STC20051003215013110/03/05 21:50:31  5-MIN KSTC 040350Z AUTO 35006KT 9SM SCT070 BKN095 16/14 A2992 1030 90 1400 340/06 RMK AO2 TSE03 SLP139 T01610144
14926KSTC STC20051003215510810/03/05 21:55:31  5-MIN KSTC 040355Z AUTO 34006KT 8SM BKN065 BKN080 16/14 A2992 1030 90 1400 340/06 RMK AO2
14926KSTC STC20051003220010110/03/05 22:00:31  5-MIN KSTC 040400Z AUTO 33006KT 8SM BKN065 16/14 A2993 1020 90 1400 320/06 RMK AO2
14926KSTC STC20051003220510110/03/05 22:05:31  5-MIN KSTC 040405Z AUTO 34006KT 8SM SCT065 16/14 A2993 1020 90 1400 330/06 RMK AO2
14926KSTC STC20051003221010810/03/05 22:10:31  5-MIN KSTC 040410Z AUTO 32006KT 7SM FEW007 SCT065 16/14 A2993 1020 93 1400 320/06 RMK AO2
14926KSTC STC20051003221510810/03/05 22:15:31  5-MIN KSTC 040415Z AUTO 33006KT 7SM SCT007 BKN070 16/14 A2994 1010 93 1400 320/06 RMK AO2
14926KSTC STC20051003222010810/03/05 22:20:31  5-MIN KSTC 040420Z AUTO 34007KT 7SM BKN007 BKN065 16/14 A2994 1010 93 1400 340/07 RMK AO2
14926KSTC STC20051003222510410/03/05 22:25:31  5-MIN KSTC 040425Z AUTO 33007KT 6SM BR BKN007 16/14 A2994 1010 90 1400 330/07 RMK AO2
14926KSTC STC20051003223010410/03/05 22:30:31  5-MIN KSTC 040430Z AUTO 34006KT 6SM BR BKN007 16/14 A2994 1010 90 1400 330/06 RMK AO2
14926KSTC STC20051003223510410/03/05 22:35:31  5-MIN KSTC 040435Z AUTO 34007KT 5SM BR OVC007 16/14 A2994 1010 90 1400 340/07 RMK AO2
14926KSTC STC20051003224010410/03/05 22:40:31  5-MIN KSTC 040440Z AUTO 35008KT 6SM BR OVC007 16/15 A2994 1010 93 1400 350/08 RMK AO2
14926KSTC STC20051003224510410/03/05 22:45:31  5-MIN KSTC 040445Z AUTO 35008KT 6SM BR OVC007 16/14 A2994 1010 90 1400 350/08 RMK AO2
14926KSTC STC20051003225012110/03/05 22:50:31  5-MIN KSTC 040450Z AUTO 35007KT 6SM BR OVC007 16/14 A2994 1010 90 1400 350/07 RMK AO2 SLP146 T01610144
14926KSTC STC20051003225510810/03/05 22:55:31  5-MIN KSTC 040455Z AUTO 35007KT 7SM BKN007 OVC042 16/14 A2994 1010 90 1400 350/07 RMK AO2
14926KSTC STC20051003230010810/03/05 23:00:31  5-MIN KSTC 040500Z AUTO 36006KT 7SM BKN007 OVC042 16/14 A2994 1010 90 1400 350/06 RMK AO2
14926KSTC STC20051003230510810/03/05 23:05:31  5-MIN KSTC 040505Z AUTO 36007KT 7SM BKN007 OVC040 16/14 A2994 1010 90 1400 360/07 RMK AO2
14926KSTC STC20051003231010810/03/05 23:10:31  5-MIN KSTC 040510Z AUTO 36007KT 8SM SCT007 OVC040 16/14 A2994 1010 90 1400 360/07 RMK AO2
14926KSTC STC20051003231510810/03/05 23:15:31  5-MIN KSTC 040515Z AUTO 01005KT 8SM FEW007 OVC040 16/14 A2994 1010 90 1400 010/05 RMK AO2
14926KSTC STC20051003232010810/03/05 23:20:31  5-MIN KSTC 040520Z AUTO 02006KT 8SM FEW007 OVC040 16/15 A2994 1010 93 1400 010/06 RMK AO2
14926KSTC STC20051003232510110/03/05 23:25:31  5-MIN KSTC 040525Z AUTO 01004KT 8SM OVC038 16/15 A2994 1010 93 1400 010/04 RMK AO2
14926KSTC STC20051003233010110/03/05 23:30:31  5-MIN KSTC 040530Z AUTO 36005KT 8SM OVC038 16/15 A2994 1010 93 1400 350/05 RMK AO2
14926KSTC STC20051003233510110/03/05 23:35:31  5-MIN KSTC 040535Z AUTO 36005KT 8SM OVC036 16/15 A2994 1010 93 1400 360/05 RMK AO2
14926KSTC STC20051003234010110/03/05 23:40:31  5-MIN KSTC 040540Z AUTO 01004KT 8SM OVC036 16/15 A2994 1010 93 1400 360/04 RMK AO2
14926KSTC STC20051003234510810/03/05 23:45:31  5-MIN KSTC 040545Z AUTO 01005KT 8SM FEW007 OVC036 16/15 A2994 1000 93 1400 360/05 RMK AO2
14926KSTC STC20051003235015310/03/05 23:50:31  5-MIN KSTC 040550Z AUTO 36004KT 9SM FEW007 OVC036 16/15 A2995 1000 93 1400 360/04 RMK AO2 SLP146 T01610150 10206 20156 402670156 51019
14926KSTC STC20051003235510810/03/05 23:55:31  5-MIN KSTC 040555Z AUTO 36005KT 9SM FEW007 OVC034 17/15 A2994 1000 90 1500 360/05 RMK AO2
14926KSTC STC20051004000010810/04/05 00:00:32  5-MIN KSTC 040600Z AUTO 35004KT 9SM FEW007 OVC034 16/15 A2995 1000 93 1400 350/04 RMK AO2
14926KSTC STC20051004000510810/04/05 00:05:31  5-MIN KSTC 040605Z AUTO 36005KT 9SM FEW007 OVC034 16/15 A2995 1000 93 1400 360/05 RMK AO2
14926KSTC STC20051004001010910/04/05 00:10:31  5-MIN KSTC 040610Z AUTO 35004KT 10SM FEW007 OVC034 16/15 A2995 1000 93 1400 350/04 RMK AO2
14926KSTC STC20051004001510910/04/05 00:15:31  5-MIN KSTC 040615Z AUTO 35005KT 10SM FEW007 OVC034 16/15 A2995 1000 93 1400 340/05 RMK AO2
14926KSTC STC20051004002010910/04/05 00:20:31  5-MIN KSTC 040620Z AUTO 36006KT 10SM FEW007 OVC032 16/14 A2995 1000 90 1400 350/06 RMK AO2
14926KSTC STC20051004002510910/04/05 00:25:31  5-MIN KSTC 040625Z AUTO 36004KT 10SM FEW007 OVC032 16/14 A2995 1000 90 1400 360/04 RMK AO2
14926KSTC STC20051004003010810/04/05 00:30:31  5-MIN KSTC 040630Z AUTO 36006KT 10SM FEW007 OVC032 16/14 A2996 990 90 1400 360/06 RMK AO2
14926KSTC STC20051004003510810/04/05 00:35:31  5-MIN KSTC 040635Z AUTO 36005KT 10SM FEW007 OVC032 16/14 A2996 990 90 1400 360/05 RMK AO2
14926KSTC STC20051004004010810/04/05 00:40:31  5-MIN KSTC 040640Z AUTO 36007KT 10SM FEW009 OVC032 16/14 A2996 990 90 1400 360/07 RMK AO2
14926KSTC STC20051004004510810/04/05 00:45:31  5-MIN KSTC 040645Z AUTO 01005KT 10SM FEW009 OVC032 16/14 A2996 990 90 1400 010/05 RMK AO2
14926KSTC STC20051004005012510/04/05 00:50:31  5-MIN KSTC 040650Z AUTO 02008KT 10SM FEW009 OVC030 16/14 A2996 990 90 1400 010/08 RMK AO2 SLP151 T01610144
14926KSTC STC20051004005510810/04/05 00:55:31  5-MIN KSTC 040655Z AUTO 01006KT 10SM FEW009 OVC030 16/14 A2996 990 86 1400 010/06 RMK AO2
14926KSTC STC20051004010010810/04/05 01:00:31  5-MIN KSTC 040700Z AUTO 02006KT 10SM FEW009 OVC030 16/14 A2996 990 86 1400 020/06 RMK AO2
14926KSTC STC20051004010510110/04/05 01:05:31  5-MIN KSTC 040705Z AUTO 02008KT 10SM OVC030 16/14 A2996 990 86 1400 020/08 RMK AO2
14926KSTC STC20051004011010110/04/05 01:10:31  5-MIN KSTC 040710Z AUTO 02007KT 10SM OVC030 16/14 A2996 990 86 1400 020/07 RMK AO2
14926KSTC STC20051004011510110/04/05 01:15:31  5-MIN KSTC 040715Z AUTO 02005KT 10SM OVC028 16/14 A2997 980 86 1400 020/05 RMK AO2
14926KSTC STC20051004012010110/04/05 01:20:31  5-MIN KSTC 040720Z AUTO 02006KT 10SM OVC028 16/13 A2997 980 83 1400 010/06 RMK AO2
14926KSTC STC20051004012510810/04/05 01:25:31  5-MIN KSTC 040725Z AUTO VRB06KT 10SM FEW010 OVC028 16/13 A2997 980 83 1400 VRB/06 RMK AO2
14926KSTC STC20051004013010810/04/05 01:30:31  5-MIN KSTC 040730Z AUTO 36006KT 10SM FEW010 OVC028 16/13 A2997 980 86 1300 360/06 RMK AO2
14926KSTC STC20051004013510810/04/05 01:35:31  5-MIN KSTC 040735Z AUTO 01006KT 10SM FEW010 OVC028 16/13 A2997 980 86 1300 010/06 RMK AO2
14926KSTC STC20051004014010810/04/05 01:40:31  5-MIN KSTC 040740Z AUTO 01006KT 10SM FEW010 OVC026 16/13 A2997 980 86 1300 010/06 RMK AO2
14926KSTC STC20051004014510810/04/05 01:45:31  5-MIN KSTC 040745Z AUTO 01008KT 10SM FEW010 OVC026 16/13 A2996 990 86 1300 010/08 RMK AO2
14926KSTC STC20051004015012510/04/05 01:50:31  5-MIN KSTC 040750Z AUTO 02006KT 10SM FEW010 OVC026 16/13 A2996 990 86 1300 020/06 RMK AO2 SLP152 T01560133
14926KSTC STC20051004015510810/04/05 01:55:31  5-MIN KSTC 040755Z AUTO 03004KT 10SM FEW010 OVC026 16/13 A2996 990 86 1300 020/04 RMK AO2
14926KSTC STC20051004020010810/04/05 02:00:31  5-MIN KSTC 040800Z AUTO 02005KT 10SM FEW010 OVC026 16/13 A2996 990 86 1300 010/05 RMK AO2
14926KSTC STC20051004020511710/04/05 02:05:31  5-MIN KSTC 040805Z AUTO 01007KT 10SM TS FEW010 OVC026 16/13 A2996 990 86 1300 010/07 RMK AO2 TSB04
14926KSTC STC20051004021011010/04/05 02:10:31  5-MIN KSTC 040810Z AUTO 03006KT 10SM TS OVC026 16/13 A2997 980 86 1300 030/06 RMK AO2 TSB04
14926KSTC STC20051004021511010/04/05 02:15:31  5-MIN KSTC 040815Z AUTO 02004KT 10SM TS OVC026 16/13 A2997 980 86 1300 010/04 RMK AO2 TSB04
14926KSTC STC20051004022011010/04/05 02:20:31  5-MIN KSTC 040820Z AUTO 01005KT 10SM TS OVC026 16/13 A2997 980 86 1300 010/05 RMK AO2 TSB04
14926KSTC STC20051004022511010/04/05 02:25:31  5-MIN KSTC 040825Z AUTO 36004KT 10SM TS OVC026 16/13 A2997 980 86 1300 360/04 RMK AO2 TSB04
14926KSTC STC20051004023011010/04/05 02:30:31  5-MIN KSTC 040830Z AUTO 36005KT 10SM TS OVC026 16/13 A2997 980 86 1300 360/05 RMK AO2 TSB04
14926KSTC STC20051004023511010/04/05 02:35:31  5-MIN KSTC 040835Z AUTO 03005KT 10SM TS OVC026 16/13 A2996 990 86 1300 030/05 RMK AO2 TSB04
14926KSTC STC20051004024011210/04/05 02:40:31  5-MIN KSTC 040840Z AUTO 01006KT 10SM VCTS OVC026 16/13 A2996 990 83 1300 010/06 RMK AO2 TSB04
14926KSTC STC20051004024511910/04/05 02:45:31  5-MIN KSTC 040845Z AUTO 36007KT 10SM VCTS BKN028 OVC035 15/13 A2996 990 86 1300 360/07 RMK AO2 TSB04
14926KSTC STC20051004025014910/04/05 02:50:31  5-MIN KSTC 040850Z AUTO 34005KT 10SM VCTS FEW019 BKN028 OVC035 15/13 A2996 990 86 1300 330/05 RMK AO2 TSB04 SLP152 T01500128 51013
14926KSTC STC20051004025512010/04/05 02:55:31  5-MIN KSTC 040855Z AUTO 34005KT 10SM VCTS FEW017 BKN026 OVC033 15/13 A2996 990 86 1300 340/05 RMK AO2
14926KSTC STC20051004030012310/04/05 03:00:31  5-MIN KSTC 040900Z AUTO 36005KT 10SM SCT017 BKN024 OVC033 15/12 A2997 980 83 1300 360/05 RMK AO2 TSE0857
14926KSTC STC20051004030512310/04/05 03:05:31  5-MIN KSTC 040905Z AUTO 01007KT 10SM SCT019 BKN024 OVC036 15/12 A2996 990 83 1300 010/07 RMK AO2 TSE0857
14926KSTC STC20051004031012310/04/05 03:10:31  5-MIN KSTC 040910Z AUTO 02006KT 10SM FEW017 BKN028 OVC034 15/12 A2996 990 83 1300 020/06 RMK AO2 TSE0857
14926KSTC STC20051004031512310/04/05 03:15:31  5-MIN KSTC 040915Z AUTO 02005KT 10SM FEW017 SCT023 OVC033 15/12 A2996 990 83 1300 020/05 RMK AO2 TSE0857
14926KSTC STC20051004032012310/04/05 03:20:31  5-MIN KSTC 040920Z AUTO 03005KT 10SM FEW017 SCT023 OVC029 15/12 A2997 980 83 1300 030/05 RMK AO2 TSE0857
14926KSTC STC20051004032512310/04/05 03:25:31  5-MIN KSTC 040925Z AUTO 02005KT 10SM FEW019 BKN026 OVC031 15/12 A2997 980 83 1300 020/05 RMK AO2 TSE0857
14926KSTC STC20051004033011610/04/05 03:30:31  5-MIN KSTC 040930Z AUTO 03007KT 10SM BKN026 OVC035 15/12 A2997 980 80 1300 030/07 RMK AO2 TSE0857
14926KSTC STC20051004033510910/04/05 03:35:31  5-MIN KSTC 040935Z AUTO 03005KT 10SM OVC026 15/12 A2997 980 80 1300 030/05 RMK AO2 TSE0857
14926KSTC STC20051004034010910/04/05 03:40:31  5-MIN KSTC 040940Z AUTO VRB06KT 10SM OVC026 15/12 A2997 980 80 1300 VRB/06 RMK AO2 TSE0857
14926KSTC STC20051004034510910/04/05 03:45:31  5-MIN KSTC 040945Z AUTO VRB05KT 10SM OVC026 15/12 A2997 980 80 1200 VRB/05 RMK AO2 TSE0857
14926KSTC STC20051004035012610/04/05 03:50:31  5-MIN KSTC 040950Z AUTO 03007KT 10SM OVC024 15/12 A2997 980 80 1300 030/07 RMK AO2 TSE0857 SLP152 T01500117
14926KSTC STC20051004035510110/04/05 03:55:31  5-MIN KSTC 040955Z AUTO 03006KT 10SM OVC024 15/12 A2997 980 80 1300 030/06 RMK AO2
14926KSTC STC20051004040010810/04/05 04:00:31  5-MIN KSTC 041000Z AUTO 03006KT 10SM FEW013 OVC024 15/12 A2997 980 80 1200 030/06 RMK AO2
14926KSTC STC20051004040510810/04/05 04:05:31  5-MIN KSTC 041005Z AUTO 02004KT 10SM FEW013 OVC024 15/12 A2997 980 80 1200 010/04 RMK AO2
14926KSTC STC20051004041010810/04/05 04:10:31  5-MIN KSTC 041010Z AUTO 02005KT 10SM SCT013 OVC024 14/12 A2997 980 83 1200 010/05 RMK AO2
14926KSTC STC20051004041510810/04/05 04:15:31  5-MIN KSTC 041015Z AUTO 02006KT 10SM BKN013 OVC024 14/12 A2997 980 83 1200 020/06 RMK AO2
14926KSTC STC20051004042010810/04/05 04:20:31  5-MIN KSTC 041020Z AUTO 02005KT 10SM BKN013 OVC024 14/12 A2997 980 83 1200 010/05 RMK AO2
14926KSTC STC20051004042510810/04/05 04:25:31  5-MIN KSTC 041025Z AUTO 02004KT 10SM BKN013 OVC024 14/12 A2997 980 83 1200 010/04 RMK AO2
14926KSTC STC20051004043010110/04/05 04:30:31  5-MIN KSTC 041030Z AUTO 03006KT 10SM OVC013 14/12 A2997 980 83 1200 030/06 RMK AO2
14926KSTC STC20051004043510110/04/05 04:35:31  5-MIN KSTC 041035Z AUTO 02008KT 10SM OVC013 14/12 A2997 980 83 1200 020/08 RMK AO2
14926KSTC STC20051004044010810/04/05 04:40:31  5-MIN KSTC 041040Z AUTO 02007KT 10SM FEW010 OVC013 14/12 A2998 980 83 1200 010/07 RMK AO2
14926KSTC STC20051004044510810/04/05 04:45:31  5-MIN KSTC 041045Z AUTO 02008KT 10SM FEW010 OVC013 14/12 A2997 980 83 1200 020/08 RMK AO2
14926KSTC STC20051004045011810/04/05 04:50:31  5-MIN KSTC 041050Z AUTO 03007KT 10SM OVC013 14/12 A2998 970 83 1200 020/07 RMK AO2 SLP157 T01440117
14926KSTC STC20051004045510110/04/05 04:55:31  5-MIN KSTC 041055Z AUTO 02005KT 10SM OVC013 14/12 A2998 970 86 1100 020/05 RMK AO2
14926KSTC STC20051004050010110/04/05 05:00:31  5-MIN KSTC 041100Z AUTO 01005KT 10SM OVC013 14/12 A2998 970 86 1100 360/05 RMK AO2
14926KSTC STC20051004050512010/04/05 05:05:31  5-MIN KSTC 041105Z AUTO 03007KT 10SM BKN010 OVC013 14/12 A2998 970 86 1100 030/07 RMK AO2 CIG 009V013
14926KSTC STC20051004051010810/04/05 05:10:31  5-MIN KSTC 041110Z AUTO 04007KT 10SM BKN010 OVC013 14/12 A2998 970 86 1100 040/07 RMK AO2
14926KSTC STC20051004051511310/04/05 05:15:31  5-MIN KSTC 041115Z AUTO 02007KT 10SM OVC010 14/12 A2998 970 86 1100 020/07 RMK AO2 CIG 009V014
14926KSTC STC20051004052010110/04/05 05:20:31  5-MIN KSTC 041120Z AUTO 03006KT 10SM OVC010 14/12 A2998 970 86 1100 020/06 RMK AO2
14926KSTC STC20051004052510110/04/05 05:25:31  5-MIN KSTC 041125Z AUTO 02007KT 10SM OVC010 14/12 A2998 970 86 1100 020/07 RMK AO2
14926KSTC STC20051004053010110/04/05 05:30:31  5-MIN KSTC 041130Z AUTO 03008KT 10SM OVC010 14/12 A2998 980 86 1100 020/08 RMK AO2
14926KSTC STC20051004053511310/04/05 05:35:31  5-MIN KSTC 041135Z AUTO 02008KT 10SM OVC010 13/12 A2997 980 89 1000 010/08 RMK AO2 CIG 008V013
14926KSTC STC20051004054011310/04/05 05:40:31  5-MIN KSTC 041140Z AUTO 02008KT 10SM OVC010 13/12 A2998 980 89 1000 020/08 RMK AO2 CIG 007V013
14926KSTC STC20051004054510110/04/05 05:45:31  5-MIN KSTC 041145Z AUTO 02006KT 10SM OVC010 13/12 A2997 980 89 1100 020/06 RMK AO2
14926KSTC STC20051004055015410/04/05 05:50:31  5-MIN KSTC 041150Z AUTO 02005KT 10SM OVC010 13/12 A2997 980 89 1100 010/05 RMK AO2 CIG 007V012 SLP156 70001 T01330117 10167 20133 51006
14926KSTC STC20051004055510810/04/05 05:55:31  5-MIN KSTC 041155Z 02007KT 10SM OVC010 13/12 A2997 980 89 1100 010/07 RMK AO2 CIG 007V012
14926KSTC STC20051004060010810/04/05 06:00:31  5-MIN KSTC 041200Z 01006KT 10SM OVC008 13/12 A2996 990 89 1100 010/06 RMK AO2 CIG 007V012
14926KSTC STC20051004060510810/04/05 06:05:31  5-MIN KSTC 041205Z 02006KT 10SM OVC008 13/12 A2997 990 89 1100 020/06 RMK AO2 CIG 006V010
14926KSTC STC20051004061009510/04/05 06:10:31  5-MIN KSTC 041210Z 03007KT 9SM OVC008 13/12 A2996 990 89 1100 020/07 RMK AO2
14926KSTC STC20051004061509510/04/05 06:15:31  5-MIN KSTC 041215Z 02006KT 9SM OVC008 13/12 A2997 980 89 1100 020/06 RMK AO2
14926KSTC STC20051004062009510/04/05 06:20:31  5-MIN KSTC 041220Z 03007KT 9SM OVC008 13/12 A2997 980 89 1100 030/07 RMK AO2
14926KSTC STC20051004062509610/04/05 06:25:31  5-MIN KSTC 041225Z VRB06KT 10SM OVC008 13/12 A2998 970 89 1000 VRB/06 RMK AO2
14926KSTC STC20051004063009610/04/05 06:30:31  5-MIN KSTC 041230Z 03005KT 10SM OVC008 13/12 A2998 970 89 1000 030/05 RMK AO2
14926KSTC STC20051004063509610/04/05 06:35:31  5-MIN KSTC 041235Z 04004KT 10SM OVC008 13/12 A2998 970 89 1000 030/04 RMK AO2
14926KSTC STC20051004064009510/04/05 06:40:31  5-MIN KSTC 041240Z 04005KT 9SM OVC008 13/12 A2999 970 89 1000 030/05 RMK AO2
14926KSTC STC20051004064511410/04/05 06:45:31  5-MIN KSTC 041245Z 02006KT 6SM -RA BR OVC008 13/12 A2998 970 89 1000 020/06 RMK AO2 RAB45 P0000
14926KSTC STC20051004065013110/04/05 06:50:31  5-MIN KSTC 041250Z 02006KT 3SM -RA BR OVC008 13/12 A2998 970 93 1000 020/06 RMK AO2 RAB45 SLP160 P0000 T01280117
14926KSTC STC20051004065511210/04/05 06:55:31  5-MIN KSTC 041255Z 03007KT 1 3/4SM -RA BR OVC008 13/12 A2998 970 93 1000 020/07 RMK AO2 P0000
14926KSTC STC20051004070011210/04/05 07:00:31  5-MIN KSTC 041300Z 02006KT 1 1/2SM -RA BR OVC008 13/12 A2998 970 93 1000 020/06 RMK AO2 P0001
14926KSTC STC20051004070512010/04/05 07:05:31  5-MIN KSTC 041305Z VRB04KT 2SM -RA BR OVC008 13/12 A2999 970 93 1000 VRB/04 RMK AO2 CIG 005V010 P0001
14926KSTC STC20051004071012410/04/05 07:10:31  5-MIN KSTC 041310Z 36005KT 2 1/2SM -RA BR OVC008 13/12 A2998 970 93 1000 360/05 RMK AO2 CIG 005V010 P0001
14926KSTC STC20051004071512610/04/05 07:15:31  5-MIN KSTC 041315Z 02007KT 2 1/2SM BR OVC008 13/12 A2997 980 93 1000 020/07 RMK AO2 RAE11 CIG 004V010 P0001
14926KSTC STC20051004172514310/04/05 17:25:31  5-MIN KSTC 042325Z 06010KT 9SM -RA BKN008 BKN024 OVC032 13/12 A2987 1070 93 1200 050/10 RMK AO2 TSB2258E13 CIG 005V011 P0011
14926KSTC STC20051004173014410/04/05 17:30:31  5-MIN KSTC 042330Z 05007KT 10SM -RA BKN008 BKN024 OVC032 13/12 A2987 1070 93 1200 040/07 RMK AO2 TSB2258E13 CIG 006V011 P0011
14926KSTC STC20051004173513210/04/05 17:35:31  5-MIN KSTC 042335Z 02008KT 10SM -RA SCT008 BKN021 OVC033 13/12 A2987 1070 93 1200 020/08 RMK AO2 TSB2258E13 P0011
14926KSTC STC20051004174013810/04/05 17:40:31  5-MIN KSTC 042340Z 02007KT 10SM BKN008 OVC033 13/12 A2987 1070 93 1200 010/07 RMK AO2 TSB2258E13RAE36 CIG 006V010 P0011
14926KSTC STC20051004174513810/04/05 17:45:31  5-MIN KSTC 042345Z 03007KT 10SM BKN008 OVC030 13/12 A2986 1080 93 1200 030/07 RMK AO2 TSB2258E13RAE36 CIG 006V016 P0011
14926KSTC STC20051004175020110/04/05 17:50:31  5-MIN KSTC 042350Z 02007KT 340V040 10SM -RA BKN008 BKN027 OVC033 13/12 A2987 1070 93 1200 020/07 340V040 RMK AO2 TSB2258E13 CIG 006V016 SLP126 P0011 60155 T01330122 10139 20128 58041
14926KSTC STC20051004175513310/04/05 17:55:31  5-MIN KSTC 042355Z 34008KT 10SM -RA BKN008 BKN027 OVC033 13/12 A2987 1080 93 1200 340/08 RMK AO2 CIG 006V011 P0000
14926KSTC STC20051004180012610/04/05 18:00:31  5-MIN KSTC 050000Z 06008KT 10SM -RA BKN008 OVC027 13/12 A2985 1090 93 1200 050/08 RMK AO2 CIG 006V011 P0000
14926KSTC STC20051004180513210/04/05 18:05:31  5-MIN KSTC 050005Z 07010G14KT 10SM -RA BKN008 OVC029 13/12 A2985 1100 93 1200 070/10G14 RMK AO2 CIG 006V011 P0000
14926KSTC STC20051004181012810/04/05 18:10:31  5-MIN KSTC 050010Z 04010KT 10SM BKN008 OVC029 13/12 A2986 1090 93 1200 040/10 RMK AO2 RAE06 CIG 006V011 P0000
14926KSTC STC20051004181511610/04/05 18:15:31  5-MIN KSTC 050015Z 02006KT 10SM BKN008 OVC029 13/12 A2986 1090 93 1200 020/06 RMK AO2 RAE06 P0000
14926KSTC STC20051004182011610/04/05 18:20:31  5-MIN KSTC 050020Z 04010KT 3SM +RA BR BKN008 OVC029 13/12 A2985 1090 96 1100 040/10 RMK AO2 P0002
14926KSTC STC20051004182511610/04/05 18:25:31  5-MIN KSTC 050025Z 04009KT 3SM -RA BR BKN008 OVC029 13/12 A2986 1080 96 1100 040/09 RMK AO2 P0009
14926KSTC STC20051004183013210/04/05 18:30:31  5-MIN KSTC 050030Z 02008KT 360V060 3SM +RA BR SCT008 OVC027 13/12 A2986 1080 96 1100 020/08 360V060 RMK AO2 P0010
14926KSTC STC20051004183512310/04/05 18:35:31  5-MIN KSTC 050035Z 02007KT 2SM +RA BR SCT008 BKN011 OVC027 13/12 A2986 1080 96 1100 010/07 RMK AO2 P0020
14926KSTC STC20051004184013210/04/05 18:40:31  5-MIN KSTC 050040Z 04009KT 2 1/2SM -RA BR BKN008 OVC027 13/12 A2987 1080 96 1100 040/09 RMK AO2 CIG 005V011 P0024
14926KSTC STC20051004184512310/04/05 18:45:31  5-MIN KSTC 050045Z 03006KT 6SM -RA BR BKN008 BKN011 OVC027 13/12 A2988 1070 96 1100 030/06 RMK AO2 P0024
14926KSTC STC20051004185013710/04/05 18:50:31  5-MIN KSTC 050050Z VRB05KT 8SM -RA BKN008 BKN011 OVC027 13/12 A2988 1060 96 1100 VRB/05 RMK AO2 SLP129 P0024 T01280122
14926KSTC STC20051004185513310/04/05 18:55:31  5-MIN KSTC 050055Z 06007KT 10SM -RA BKN008 BKN011 OVC027 13/12 A2988 1070 93 1100 060/07 RMK AO2 CIG 005V011 P0000
14926KSTC STC20051004190013310/04/05 19:00:31  5-MIN KSTC 050100Z 06009KT 10SM -RA BKN006 BKN011 OVC027 13/12 A2987 1070 93 1100 060/09 RMK AO2 CIG 005V010 P0000
14926KSTC STC20051004190512110/04/05 19:05:31  5-MIN KSTC 050105Z 05006KT 10SM -RA SCT006 BKN011 OVC027 13/12 A2987 1070 93 1100 050/06 RMK AO2 P0000
14926KSTC STC20051004191012310/04/05 19:10:31  5-MIN KSTC 050110Z 05008KT 10SM SCT006 BKN013 OVC036 13/12 A2987 1080 93 1100 040/08 RMK AO2 RAE07 P0000
14926KSTC STC20051004191512310/04/05 19:15:31  5-MIN KSTC 050115Z 06008KT 10SM BKN006 BKN013 OVC029 13/12 A2987 1070 93 1100 060/08 RMK AO2 RAE07 P0000
14926KSTC STC20051004192012310/04/05 19:20:31  5-MIN KSTC 050120Z 07009KT 10SM BKN006 BKN013 OVC029 13/12 A2987 1070 93 1100 070/09 RMK AO2 RAE07 P0000
14926KSTC STC20051004192511610/04/05 19:25:31  5-MIN KSTC 050125Z 06006KT 10SM BKN008 OVC029 13/12 A2988 1070 93 1100 060/06 RMK AO2 RAE07 P0000
14926KSTC STC20051004193011610/04/05 19:30:31  5-MIN KSTC 050130Z 04008KT 10SM BKN008 OVC029 13/12 A2987 1070 93 1100 040/08 RMK AO2 RAE07 P0000
14926KSTC STC20051004193510910/04/05 19:35:31  5-MIN KSTC 050135Z 06006KT 10SM OVC008 13/12 A2987 1070 93 1100 060/06 RMK AO2 RAE07 P0000
14926KSTC STC20051004194010910/04/05 19:40:31  5-MIN KSTC 050140Z 07008KT 10SM OVC008 13/12 A2987 1070 93 1100 070/08 RMK AO2 RAE07 P0000
14926KSTC STC20051004194510910/04/05 19:45:31  5-MIN KSTC 050145Z 06007KT 10SM OVC008 13/12 A2988 1070 93 1100 050/07 RMK AO2 RAE07 P0000
14926KSTC STC20051004195014010/04/05 19:50:31  5-MIN KSTC 050150Z 06008KT 10SM -TSRA OVC008 13/12 A2987 1070 93 1100 050/08 RMK AO2 TSB46RAE07B47 SLP125 P0000 T01280117
14926KSTC STC20051004195511510/04/05 19:55:31  5-MIN KSTC 050155Z 07010G16KT 10SM -TSRA OVC008 13/12 A2987 1070 93 1100 060/10G16 RMK AO2 P0001
14926KSTC STC20051004200011310/04/05 20:00:31  5-MIN KSTC 050200Z 07009G16KT 8SM TSRA OVC008 13/12 A2987 1070 93 1100 070/09G16 RMK AO2 P0002
14926KSTC STC20051004200511810/04/05 20:05:31  5-MIN KSTC 050205Z 06011KT 7SM RA BKN008 OVC027 12/12 A2987 1070 96 1000 060/11 RMK AO2 TSE01 P0004
14926KSTC STC20051004201011710/04/05 20:10:31  5-MIN KSTC 050210Z 07012G17KT 7SM RA OVC008 12/12 A2987 1070 96 1000 060/12G17 RMK AO2 TSE01 P0005
14926KSTC STC20051004201513410/04/05 20:15:31  5-MIN KSTC 050215Z 08007G17KT 7SM TSRA OVC008 12/12 A2988 1070 96 1000 080/07G17 RMK AO2 TSE01B13 CIG 005V010 P0005
14926KSTC STC20051004202011710/04/05 20:20:31  5-MIN KSTC 050220Z 10007KT 7SM -TSRA OVC008 12/12 A2989 1050 96 1000 100/07 RMK AO2 TSE01B13 P0007
14926KSTC STC20051004202511910/04/05 20:25:31  5-MIN KSTC 050225Z 08008KT 5SM TSRA BR OVC008 12/12 A2989 1050 96 1000 070/08 RMK AO2 TSE01B13 P0008
14926KSTC STC20051004203012010/04/05 20:30:31  5-MIN KSTC 050230Z VRB06KT 3SM +TSRA BR OVC008 12/11 A2990 1050 93 1000 VRB/06 RMK AO2 TSE01B13 P0012
14926KSTC STC20051004203512010/04/05 20:35:31  5-MIN KSTC 050235Z VRB03KT 3SM +TSRA BR OVC008 12/12 A2990 1040 96 1000 VRB/03 RMK AO2 TSE01B13 P0016
14926KSTC STC20051004204013110/04/05 20:40:31  5-MIN KSTC 050240Z 04011KT 1 3/4SM +TSRA BR FEW001 OVC006 12/11 A2988 1070 93 1000 040/11 RMK AO2 TSE01B13 P0019
14926KSTC STC20051004204513710/04/05 20:45:31  5-MIN KSTC 050245Z 04012G19KT 1 1/4SM +TSRA BR FEW001 OVC006 12/11 A2987 1070 93 1000 030/12G19 RMK AO2 TSE01B13 P0042
14926KSTC STC20051004205017310/04/05 20:50:31  5-MIN KSTC 050250Z 05011G19KT 1 1/2SM +TSRA BR FEW001 BKN006 OVC030 12/11 A2987 1070 93 1000 050/11G19 RMK AO2 TSE01B13 SLP125 P0046 60070 T01220111 50003
14926KSTC STC20051004205512910/04/05 20:55:31  5-MIN KSTC 050255Z 06008KT 2 1/2SM +TSRA BR FEW001 BKN006 OVC025 12/11 A2987 1070 93 1000 050/08 RMK AO2 P0000
14926KSTC STC20051004210012410/04/05 21:00:31  5-MIN KSTC 050300Z 06009KT 4SM TSRA BR FEW001 BKN023 OVC029 12/11 A2986 1080 93 1000 050/09 RMK AO2 P0002
14926KSTC STC20051004210512510/04/05 21:05:31  5-MIN KSTC 050305Z 06009KT 6SM -TSRA BR FEW001 BKN011 OVC030 12/11 A2986 1090 96 1000 060/09 RMK AO2 P0003
14926KSTC STC20051004211012810/04/05 21:10:31  5-MIN KSTC 050310Z 07008G16KT 8SM -TSRA BKN009 BKN023 OVC030 12/11 A2986 1080 93 1000 070/08G16 RMK AO2 P0004
14926KSTC STC20051004211512910/04/05 21:15:31  5-MIN KSTC 050315Z 06010G16KT 10SM -TSRA BKN009 BKN023 OVC030 12/11 A2986 1090 93 1100 060/10G16 RMK AO2 P0004
14926KSTC STC20051004212013910/04/05 21:20:31  5-MIN KSTC 050320Z 07009KT 10SM -RA BKN009 BKN023 OVC030 12/11 A2986 1090 93 1000 070/09 RMK AO2 TSE19 CIG 006V012 P0005
14926KSTC STC20051004212513910/04/05 21:25:31  5-MIN KSTC 050325Z 07009KT 10SM -RA BKN009 BKN023 OVC042 12/11 A2986 1080 93 1000 070/09 RMK AO2 TSE19 CIG 006V012 P0005
14926KSTC STC20051004213012510/04/05 21:30:31  5-MIN KSTC 050330Z 07008KT 10SM -RA OVC009 12/11 A2986 1080 93 1000 070/08 RMK AO2 TSE19 CIG 006V012 P0005
14926KSTC STC20051004213513110/04/05 21:35:31  5-MIN KSTC 050335Z 07008G15KT 10SM -RA OVC009 12/11 A2986 1080 93 1000 070/08G15 RMK AO2 TSE19 CIG 006V011 P0005
14926KSTC STC20051004214013610/04/05 21:40:31  5-MIN KSTC 050340Z AUTO 08009G15KT 10SM -RA OVC009 12/11 A2986 1080 93 1000 080/09G15 RMK AO2 TSE19 CIG 006V011 P0006
14926KSTC STC20051004214513010/04/05 21:45:31  5-MIN KSTC 050345Z AUTO 07010KT 10SM -RA OVC009 12/11 A2986 1090 93 1100 060/10 RMK AO2 TSE19 CIG 006V011 P0006
14926KSTC STC20051004215016310/04/05 21:50:31  5-MIN KSTC 050350Z AUTO 07010KT 020V090 10SM -RA OVC007 12/11 A2985 1090 93 1100 070/10 020V090 RMK AO2 TSE19 CIG 006V010 SLP119 P0006 T01220111
14926KSTC STC20051004215512410/04/05 21:55:31  5-MIN KSTC 050355Z AUTO 07009KT 10SM -RA OVC007 12/11 A2986 1080 93 1000 070/09 RMK AO2 CIG 006V011 P0000
14926KSTC STC20051004220012410/04/05 22:00:31  5-MIN KSTC 050400Z AUTO 07009KT 10SM -RA OVC007 12/11 A2986 1080 93 1000 070/09 RMK AO2 CIG 006V011 P0000
14926KSTC STC20051004220511210/04/05 22:05:31  5-MIN KSTC 050405Z AUTO 08007KT 10SM -RA OVC007 12/11 A2986 1080 93 1000 080/07 RMK AO2 P0000
14926KSTC STC20051004221011210/04/05 22:10:31  5-MIN KSTC 050410Z AUTO 07009KT 10SM -RA OVC007 12/11 A2986 1090 93 1100 060/09 RMK AO2 P0001
14926KSTC STC20051004221511810/04/05 22:15:31  5-MIN KSTC 050415Z AUTO 08006G14KT 10SM -RA OVC007 12/11 A2986 1080 93 1000 080/06G14 RMK AO2 P0001
14926KSTC STC20051004222011210/04/05 22:20:31  5-MIN KSTC 050420Z AUTO 08010KT 10SM -RA OVC007 12/12 A2985 1090 96 1100 080/10 RMK AO2 P0002
14926KSTC STC20051004222511210/04/05 22:25:31  5-MIN KSTC 050425Z AUTO 08008KT 10SM -RA OVC005 12/11 A2985 1090 93 1100 070/08 RMK AO2 P0002
14926KSTC STC20051004223011210/04/05 22:30:31  5-MIN KSTC 050430Z AUTO 08007KT 10SM -RA OVC005 12/11 A2985 1090 93 1100 080/07 RMK AO2 P0002
14926KSTC STC20051004223511210/04/05 22:35:31  5-MIN KSTC 050435Z AUTO 08009KT 10SM -RA OVC005 12/12 A2985 1090 96 1100 080/09 RMK AO2 P0003
14926KSTC STC20051004224011210/04/05 22:40:31  5-MIN KSTC 050440Z AUTO 08006KT 10SM -RA OVC005 12/12 A2985 1090 96 1100 080/06 RMK AO2 P0003
14926KSTC STC20051004224511210/04/05 22:45:31  5-MIN KSTC 050445Z AUTO 07007KT 10SM -RA OVC005 12/12 A2986 1080 96 1000 070/07 RMK AO2 P0003
14926KSTC STC20051004225012710/04/05 22:50:31  5-MIN KSTC 050450Z AUTO VRB04KT 7SM RA OVC005 12/12 A2986 1080 96 1000 VRB/04 RMK AO2 SLP121 P0003 T01220117
14926KSTC STC20051004225511110/04/05 22:55:31  5-MIN KSTC 050455Z AUTO 03005KT 7SM -RA OVC005 12/12 A2986 1080 96 1000 030/05 RMK AO2 P0000
14926KSTC STC20051004230011210/04/05 23:00:31  5-MIN KSTC 050500Z AUTO 02007KT 10SM -RA OVC005 12/12 A2986 1080 96 1000 020/07 RMK AO2 P0000
14926KSTC STC20051004230511010/04/05 23:05:31  5-MIN KSTC 050505Z AUTO 04006KT 8SM RA OVC005 12/12 A2985 1090 96 1100 040/06 RMK AO2 P0001
14926KSTC STC20051004231011310/04/05 23:10:31  5-MIN KSTC 050510Z AUTO 06006KT 6SM RA BR OVC005 12/12 A2985 1090 96 1100 060/06 RMK AO2 P0002
14926KSTC STC20051004231511310/04/05 23:15:31  5-MIN KSTC 050515Z AUTO 07006KT 4SM RA BR OVC005 12/12 A2986 1080 96 1000 070/06 RMK AO2 P0003
14926KSTC STC20051004232011810/04/05 23:20:31  5-MIN KSTC 050520Z AUTO 06007KT 2 1/2SM +RA BR OVC005 12/12 A2986 1080 96 1000 060/07 RMK AO2 P0006
14926KSTC STC20051004232512510/04/05 23:25:31  5-MIN KSTC 050525Z AUTO 07007KT 1 3/4SM +RA BR BKN005 OVC013 12/12 A2986 1080 96 1000 070/07 RMK AO2 P0016
14926KSTC STC20051004233012510/04/05 23:30:31  5-MIN KSTC 050530Z AUTO 07007KT 2 1/2SM +RA BR BKN005 OVC013 12/12 A2985 1090 96 1100 070/07 RMK AO2 P0020
14926KSTC STC20051004233512110/04/05 23:35:31  5-MIN KSTC 050535Z AUTO 06009KT 6SM -RA BR SCT005 OVC013 12/12 A2985 1090 96 1100 050/09 RMK AO2 P0021
14926KSTC STC20051004234012710/04/05 23:40:31  5-MIN KSTC 050540Z AUTO VRB05KT 10SM -TSRA SCT005 OVC013 12/12 A2985 1090 96 1100 VRB/05 RMK AO2 TSB38 P0021
14926KSTC STC20051004234512710/04/05 23:45:31  5-MIN KSTC 050545Z AUTO 07007KT 10SM -TSRA BKN007 OVC013 12/12 A2986 1090 96 1100 070/07 RMK AO2 TSB38 P0021
14926KSTC STC20051004235017710/04/05 23:50:31  5-MIN KSTC 050550Z AUTO 07007KT 9SM -TSRA BKN009 OVC017 12/12 A2986 1080 96 1000 070/07 RMK AO2 TSB38 SLP121 P0021 60105 T01220117 10133 20117 401610117 58001
14926KSTC STC20051004235513510/04/05 23:55:31  5-MIN KSTC 050555Z AUTO 08007KT 050V110 7SM TSRA BKN007 OVC012 12/12 A2987 1070 96 1000 080/07 050V110 RMK AO2 P0001
14926KSTC STC20051005000011510/05/05 00:00:32  5-MIN KSTC 050600Z AUTO 07006KT 6SM TSRA BR OVC009 13/12 A2987 1070 93 1100 070/06 RMK AO2 P0003
14926KSTC STC20051005000512210/05/05 00:05:31  5-MIN KSTC 050605Z AUTO 08007KT 6SM TSRA BR BKN007 OVC011 13/12 A2988 1070 93 1100 070/07 RMK AO2 P0005
14926KSTC STC20051005001012010/05/05 00:10:31  5-MIN KSTC 050610Z AUTO 07007KT 7SM -TSRA BKN007 OVC012 12/12 A2988 1070 96 1000 070/07 RMK AO2 P0006
14926KSTC STC20051005001511310/05/05 00:15:31  5-MIN KSTC 050615Z AUTO VRB06KT 8SM -TSRA OVC007 12/12 A2988 1060 96 1000 VRB/06 RMK AO2 P0006
14926KSTC STC20051005002012410/05/05 00:20:31  5-MIN KSTC 050620Z AUTO 09006KT 6SM TSRA BR OVC007 12/12 A2988 1060 96 1000 090/06 RMK AO2 TSE16B17 P0007
14926KSTC STC20051005002512410/05/05 00:25:31  5-MIN KSTC 050625Z AUTO 06009KT 4SM TSRA BR OVC007 12/12 A2988 1070 96 1000 060/09 RMK AO2 TSE16B17 P0008
14926KSTC STC20051005003013810/05/05 00:30:31  5-MIN KSTC 050630Z AUTO 06009KT 4SM TSRA BR BKN007 BKN011 OVC022 12/11 A2988 1070 93 1000 060/09 RMK AO2 TSE16B17 P0010
14926KSTC STC20051005003514410/05/05 00:35:31  5-MIN KSTC 050635Z AUTO VRB05KT 5SM TSRA BR BKN007 BKN011 OVC022 12/11 A2988 1060 93 1000 VRB/05 RMK AO2 TSE16B17E33B34 P0011
14926KSTC STC20051005004015410/05/05 00:40:31  5-MIN KSTC 050640Z AUTO 05007KT 010V110 5SM -TSRA BR BKN007 OVC011 12/11 A2987 1070 93 1000 040/07 010V110 RMK AO2 TSE16B17E33B34 P0012
14926KSTC STC20051005004513710/05/05 00:45:31  5-MIN KSTC 050645Z AUTO VRB04KT 6SM TSRA BR BKN007 OVC013 12/11 A2986 1080 93 1000 VRB/04 RMK AO2 TSE16B17E33B34 P0013
14926KSTC STC20051005005015310/05/05 00:50:31  5-MIN KSTC 050650Z AUTO VRB05KT 7SM -RA BKN007 OVC011 12/11 A2987 1080 93 1000 VRB/05 RMK AO2 TSE16B17E33B34E50 SLP123 P0013 T01220111
14926KSTC STC20051005005511910/05/05 00:55:31  5-MIN KSTC 050655Z AUTO 06009KT 10SM -RA BKN007 OVC011 12/11 A2986 1080 96 1000 060/09 RMK AO2 P0000
14926KSTC STC20051005010012810/05/05 01:00:31  5-MIN KSTC 050700Z AUTO 04008KT 010V080 10SM -RA OVC007 12/11 A2985 1090 96 1000 040/08 010V080 RMK AO2 P0000
14926KSTC STC20051005010511210/05/05 01:05:31  5-MIN KSTC 050705Z AUTO 06008KT 10SM -RA OVC007 12/11 A2985 1090 96 1000 060/08 RMK AO2 P0000
14926KSTC STC20051005011011210/05/05 01:10:31  5-MIN KSTC 050710Z AUTO 06009KT 10SM -RA OVC007 12/11 A2986 1080 96 1000 050/09 RMK AO2 P0000
14926KSTC STC20051005011511710/05/05 01:15:31  5-MIN KSTC 050715Z AUTO 07010G14KT 9SM -RA OVC007 12/11 A2986 1090 93 1000 060/10G14 RMK AO2 P0001
14926KSTC STC20051005012011810/05/05 01:20:31  5-MIN KSTC 050720Z AUTO 06009G14KT 10SM -RA OVC007 12/11 A2985 1090 93 1000 060/09G14 RMK AO2 P0002
14926KSTC STC20051005012511210/05/05 01:25:31  5-MIN KSTC 050725Z AUTO 07010KT 10SM -RA OVC007 12/11 A2984 1100 93 1000 070/10 RMK AO2 P0002
14926KSTC STC20051005013011810/05/05 01:30:31  5-MIN KSTC 050730Z AUTO 07008G15KT 10SM -RA OVC007 12/11 A2984 1100 93 1000 070/08G15 RMK AO2 P0002
14926KSTC STC20051005013513110/05/05 01:35:31  5-MIN KSTC 050735Z AUTO 07011G17KT 8SM -RA BKN007 OVC013 12/11 A2983 1110 93 1000 070/11G17 RMK AO2 PRESFR P0002
14926KSTC STC20051005014013110/05/05 01:40:31  5-MIN KSTC 050740Z AUTO 07014G21KT 7SM -RA BKN007 OVC013 12/11 A2981 1130 93 1000 070/14G21 RMK AO2 PRESFR P0003
14926KSTC STC20051005014512410/05/05 01:45:31  5-MIN KSTC 050745Z AUTO 07014G21KT 8SM -RA BKN007 OVC013 11/11 A2981 1120 96 1000 070/14G21 RMK AO2 P0004
14926KSTC STC20051005015014910/05/05 01:50:31  5-MIN KSTC 050750Z AUTO 07014G19KT 10SM -RA SCT007 BKN013 OVC044 11/10 A2981 1130 93 1000 070/14G19 RMK AO2 SLP103 P0004 T01110100
14926KSTC STC20051005015514210/05/05 01:55:31  5-MIN KSTC 050755Z AUTO 07012G19KT 10SM TS SCT007 BKN013 OVC044 11/10 A2980 1130 93 1000 070/12G19 RMK AO2 TSB55RAE55 P0000
14926KSTC STC20051005020014610/05/05 02:00:31  5-MIN KSTC 050800Z AUTO 07014G19KT 10SM TS FEW007 BKN024 OVC044 11/10 A2980 1140 93 1000 070/14G19 RMK AO2 TSB0755RAE0755 P0000
14926KSTC STC20051005020514210/05/05 02:05:31  5-MIN KSTC 050805Z AUTO 07012G18KT 10SM -TSRA FEW007 BKN024 OVC042 11/10 A2981 1130 93 1000 070/12G18 RMK AO2 TSB0755 P0000
14926KSTC STC20051005021014210/05/05 02:10:31  5-MIN KSTC 050810Z AUTO 07013G18KT 10SM -TSRA FEW007 SCT013 OVC042 11/10 A2980 1140 93 1000 070/13G18 RMK AO2 TSB0755 P0000
14926KSTC STC20051005021513710/05/05 02:15:31  5-MIN KSTC 050815Z AUTO 07015G22KT 4SM -TSRA BR SCT011 OVC042 11/10 A2979 1140 93 1000 070/15G22 RMK AO2 TSB0755 P0000
14926KSTC STC20051005022014410/05/05 02:20:31  5-MIN KSTC 050820Z AUTO 08012G22KT 2SM +TSRA BR FEW007 BKN034 OVC042 11/11 A2980 1140 96 1000 080/12G22 RMK AO2 TSB0755 P0012
14926KSTC STC20051005022515610/05/05 02:25:31  5-MIN KSTC 050825Z AUTO 07011G17KT 2 1/2SM -TSRA BR FEW007 BKN013 OVC040 11/11 A2979 1150 96 1000 070/11G17 RMK AO2 VIS 1V5 TSB0755 P0013
14926KSTC STC20051005023015010/05/05 02:30:31  5-MIN KSTC 050830Z AUTO 07015G22KT 4SM TSRA BR FEW007 BKN013 OVC038 11/10 A2978 1160 93 1000 070/15G22 RMK AO2 TSB0755 PRESFR P0015
14926KSTC STC20051005023514310/05/05 02:35:31  5-MIN KSTC 050835Z AUTO 08012G22KT 4SM TSRA BR SCT011 BKN020 OVC036 11/10 A2978 1160 93 1000 070/12G22 RMK AO2 TSB0755 P0018
14926KSTC STC20051005024014410/05/05 02:40:31  5-MIN KSTC 050840Z AUTO 08014G20KT 6SM -TSRA BR FEW008 BKN020 OVC039 11/10 A2977 1160 93 1000 070/14G20 RMK AO2 TSB0755 P0019
14926KSTC STC20051005024514410/05/05 02:45:31  5-MIN KSTC 050845Z AUTO 08013G20KT 5SM -TSRA BR FEW006 BKN013 OVC034 11/10 A2977 1170 93 1000 080/13G20 RMK AO2 TSB0755 P0019
14926KSTC STC20051005025017310/05/05 02:50:31  5-MIN KSTC 050850Z AUTO 09013G19KT 4SM -TSRA BR FEW006 BKN013 OVC034 11/11 A2977 1170 96 1000 080/13G19 RMK AO2 TSB0755 SLP091 P0024 60041 T01110106 55000
14926KSTC STC20051005025513610/05/05 02:55:31  5-MIN KSTC 050855Z AUTO 09013G18KT 5SM -TSRA BR FEW006 BKN013 OVC034 11/11 A2976 1170 96 1000 090/13G18 RMK AO2 P0000
14926KSTC STC20051005030014210/05/05 03:00:31  5-MIN KSTC 050900Z AUTO 09012G18KT 6SM -RA BR FEW006 BKN030 OVC038 11/11 A2976 1170 96 1000 080/12G18 RMK AO2 TSE0858 P0003
14926KSTC STC20051005030513910/05/05 03:05:31  5-MIN KSTC 050905Z AUTO 09011G19KT 8SM -RA SCT006 BKN011 OVC030 11/11 A2976 1170 96 1000 090/11G19 RMK AO2 TSE0858 P0003
14926KSTC STC20051005031014010/05/05 03:10:31  5-MIN KSTC 050910Z AUTO 09011G19KT 10SM -RA SCT006 BKN011 OVC027 12/11 A2976 1170 93 1100 090/11G19 RMK AO2 TSE0858 P0003
14926KSTC STC20051005031514010/05/05 03:15:31  5-MIN KSTC 050915Z AUTO 09013G18KT 10SM -RA SCT006 BKN011 OVC027 12/11 A2976 1170 93 1100 090/13G18 RMK AO2 TSE0858 P0003
14926KSTC STC20051005032014110/05/05 03:20:31  5-MIN KSTC 050920Z AUTO 09012G18KT 10SM BKN006 BKN009 OVC027 12/11 A2976 1170 93 1100 090/12G18 RMK AO2 TSE0858RAE19 P0003
14926KSTC STC20051005032513410/05/05 03:25:31  5-MIN KSTC 050925Z AUTO 09013G18KT 10SM BKN006 OVC027 12/11 A2976 1170 93 1100 090/13G18 RMK AO2 TSE0858RAE19 P0003
14926KSTC STC20051005033013410/05/05 03:30:31  5-MIN KSTC 050930Z AUTO 10013G18KT 10SM BKN006 OVC025 12/11 A2976 1180 93 1100 090/13G18 RMK AO2 TSE0858RAE19 P0003
14926KSTC STC20051005033513410/05/05 03:35:31  5-MIN KSTC 050935Z AUTO 09013G19KT 10SM BKN006 OVC025 12/11 A2975 1180 93 1100 090/13G19 RMK AO2 TSE0858RAE19 P0003
14926KSTC STC20051005034012710/05/05 03:40:31  5-MIN KSTC 050940Z AUTO 10011G20KT 10SM OVC006 12/11 A2975 1180 93 1100 090/11G20 RMK AO2 TSE0858RAE19 P0003
14926KSTC STC20051005034512710/05/05 03:45:31  5-MIN KSTC 050945Z AUTO 09013G20KT 10SM OVC006 12/11 A2975 1190 93 1100 090/13G20 RMK AO2 TSE0858RAE19 P0003
14926KSTC STC20051005035014410/05/05 03:50:31  5-MIN KSTC 050950Z AUTO 09011G19KT 10SM OVC006 12/11 A2974 1190 96 1100 090/11G19 RMK AO2 TSE0858RAE19 SLP081 P0003 T01170111
14926KSTC STC20051005035510210/05/05 03:55:31  5-MIN KSTC 050955Z AUTO 09011KT 10SM OVC006 12/11 A2974 1190 96 1100 090/11 RMK AO2
14926KSTC STC20051005040010210/05/05 04:00:31  5-MIN KSTC 051000Z AUTO 09011KT 10SM OVC004 12/11 A2975 1190 96 1100 090/11 RMK AO2
14926KSTC STC20051005040510210/05/05 04:05:31  5-MIN KSTC 051005Z AUTO 09010KT 10SM OVC004 12/11 A2975 1190 96 1100 090/10 RMK AO2
14926KSTC STC20051005041012510/05/05 04:10:31  5-MIN KSTC 051010Z AUTO 09009KT 10SM -RA BKN004 OVC022 12/11 A2974 1190 96 1100 090/09 RMK AO2 RAB09 P0000
14926KSTC STC20051005041513110/05/05 04:15:31  5-MIN KSTC 051015Z AUTO 09012G16KT 10SM -RA BKN004 OVC009 12/11 A2974 1190 96 1100 080/12G16 RMK AO2 RAB09 P0000
14926KSTC STC20051005042013010/05/05 04:20:31  5-MIN KSTC 051020Z AUTO 09010G16KT 10SM BKN004 OVC009 12/11 A2974 1200 96 1100 090/10G16 RMK AO2 RAB09E20 P0000
14926KSTC STC20051005042513010/05/05 04:25:31  5-MIN KSTC 051025Z AUTO 10009G15KT 10SM BKN004 OVC009 12/11 A2973 1200 96 1100 090/09G15 RMK AO2 RAB09E20 P0000
14926KSTC STC20051005043013010/05/05 04:30:31  5-MIN KSTC 051030Z AUTO 09009G15KT 10SM BKN004 OVC027 12/11 A2974 1200 96 1100 090/09G15 RMK AO2 RAB09E20 P0000
14926KSTC STC20051005043513310/05/05 04:35:31  5-MIN KSTC 051035Z AUTO 10011G18KT 6SM -TSRA BR BKN004 12/11 A2974 1200 96 1100 100/11G18 RMK AO2 TSB32RAB09 P0000
14926KSTC STC20051005044014710/05/05 04:40:31  5-MIN KSTC 051040Z AUTO 08017G22KT 3SM +TSRA BR BKN004 BKN009 OVC030 12/11 A2974 1200 96 1100 080/17G22 RMK AO2 TSB32RAB09 P0007
14926KSTC STC20051005044514710/05/05 04:45:31  5-MIN KSTC 051045Z AUTO 12008G22KT 4SM -TSRA BR BKN004 BKN011 OVC030 12/11 A2973 1200 96 1100 120/08G22 RMK AO2 TSB32RAB09 P0008
14926KSTC STC20051005045015710/05/05 04:50:31  5-MIN KSTC 051050Z AUTO 09016KT 10SM -RA BKN004 BKN011 OVC020 12/11 A2973 1200 96 1100 080/16 RMK AO2 TSB32E46RAB09 SLP078 P0008 T01170111
14926KSTC STC20051005045514010/05/05 04:55:31  5-MIN KSTC 051055Z AUTO 10012G18KT 10SM -TSRA BKN004 BKN020 OVC030 12/11 A2975 1180 96 1100 100/12G18 RMK AO2 TSB54 P0000
14926KSTC STC20051005050015410/05/05 05:00:31  5-MIN KSTC 051100Z AUTO 14009KT 070V200 5SM +TSRA BR SCT004 BKN016 OVC021 12/11 A2975 1180 96 1100 140/09 070V200 RMK AO2 TSB1054 P0001
14926KSTC STC20051005050513810/05/05 05:05:31  5-MIN KSTC 051105Z AUTO 11009KT 3SM +TSRA BR SCT004 BKN012 OVC019 12/11 A2974 1190 96 1100 110/09 RMK AO2 TSB1054 P0011
14926KSTC STC20051005051013710/05/05 05:10:31  5-MIN KSTC 051110Z AUTO 08012KT 3SM TSRA BR SCT004 BKN014 OVC023 12/11 A2973 1200 96 1100 080/12 RMK AO2 TSB1054 P0013
14926KSTC STC20051005051513810/05/05 05:15:31  5-MIN KSTC 051115Z AUTO 09010KT 4SM -TSRA BR SCT004 BKN016 OVC023 12/11 A2973 1200 93 1200 090/10 RMK AO2 TSB1054 P0016
14926KSTC STC20051005052014110/05/05 05:20:31  5-MIN KSTC 051120Z AUTO 09012G18KT 7SM -TSRA FEW004 BKN016 OVC036 12/11 A2973 1200 93 1200 080/12G18 RMK AO2 TSB1054 P0016
14926KSTC STC20051005121010310/05/05 12:10:31  5-MIN KSTC 051810Z 24015G20KT 10SM OVC025 12/06 A2986 1080 66 1000 240/15G20 RMK AO2
14926KSTC STC20051005121510310/05/05 12:15:31  5-MIN KSTC 051815Z 25015G20KT 10SM OVC025 12/06 A2986 1080 68 1000 250/15G20 RMK AO2
14926KSTC STC20051005122009710/05/05 12:20:31  5-MIN KSTC 051820Z 24012KT 10SM OVC025 13/07 A2986 1080 66 1100 240/12 RMK AO2
14926KSTC STC20051005122510310/05/05 12:25:31  5-MIN KSTC 051825Z 23015G20KT 10SM OVC025 13/07 A2986 1080 66 1100 220/15G20 RMK AO2
14926KSTC STC20051005123010310/05/05 12:30:31  5-MIN KSTC 051830Z 24016G20KT 10SM OVC025 13/07 A2986 1080 66 1100 240/16G20 RMK AO2
14926KSTC STC20051005123510310/05/05 12:35:31  5-MIN KSTC 051835Z 26016G20KT 10SM OVC025 12/06 A2986 1080 66 1000 250/16G20 RMK AO2
14926KSTC STC20051005124010310/05/05 12:40:31  5-MIN KSTC 051840Z 25012G20KT 10SM OVC025 12/06 A2986 1080 66 1000 240/12G20 RMK AO2
14926KSTC STC20051005124509710/05/05 12:45:31  5-MIN KSTC 051845Z 26016KT 10SM OVC028 12/06 A2986 1080 66 1000 250/16 RMK AO2
14926KSTC STC20051005125011410/05/05 12:50:31  5-MIN KSTC 051850Z 25015KT 10SM OVC028 12/06 A2986 1080 66 1000 240/15 RMK AO2 SLP123 T01220061
14926KSTC STC20051005125509710/05/05 12:55:31  5-MIN KSTC 051855Z 25015KT 10SM OVC028 12/06 A2987 1080 63 1000 240/15 RMK AO2
14926KSTC STC20051005130009710/05/05 13:00:31  5-MIN KSTC 051900Z 24014KT 10SM OVC028 12/06 A2987 1070 63 1000 240/14 RMK AO2
14926KSTC STC20051005130509710/05/05 13:05:31  5-MIN KSTC 051905Z 24016KT 10SM OVC030 12/06 A2987 1080 63 1000 240/16 RMK AO2
14926KSTC STC20051005131009710/05/05 13:10:31  5-MIN KSTC 051910Z 25016KT 10SM OVC030 12/06 A2987 1070 63 1000 240/16 RMK AO2
14926KSTC STC20051005131510310/05/05 13:15:31  5-MIN KSTC 051915Z 25018G21KT 10SM OVC030 12/05 A2987 1070 63 1000 250/18G21 RMK AO2
14926KSTC STC20051005132010310/05/05 13:20:31  5-MIN KSTC 051920Z 25017G21KT 10SM OVC030 12/05 A2988 1070 63 1000 250/17G21 RMK AO2
14926KSTC STC20051005132510310/05/05 13:25:31  5-MIN KSTC 051925Z 25016G22KT 10SM OVC030 12/06 A2988 1060 66 1000 240/16G22 RMK AO2
14926KSTC STC20051005133010310/05/05 13:30:31  5-MIN KSTC 051930Z 26017G22KT 10SM OVC030 12/06 A2988 1060 66 1000 260/17G22 RMK AO2
14926KSTC STC20051005133510310/05/05 13:35:31  5-MIN KSTC 051935Z 25018G23KT 10SM OVC030 12/06 A2988 1060 66 1000 250/18G23 RMK AO2
14926KSTC STC20051005134010310/05/05 13:40:31  5-MIN KSTC 051940Z 25012G23KT 10SM OVC030 12/05 A2988 1070 63 1000 240/12G23 RMK AO2
14926KSTC STC20051005134509710/05/05 13:45:31  5-MIN KSTC 051945Z 26016KT 10SM OVC030 12/06 A2988 1070 63 1000 250/16 RMK AO2
14926KSTC STC20051005135012010/05/05 13:50:31  5-MIN KSTC 051950Z 25016G21KT 10SM OVC030 12/05 A2988 1060 61 1000 240/16G21 RMK AO2 SLP129 T01220050
14926KSTC STC20051005135510310/05/05 13:55:31  5-MIN KSTC 051955Z 24017G21KT 10SM BKN032 12/05 A2988 1060 61 1000 230/17G21 RMK AO2
14926KSTC STC20051005140009710/05/05 14:00:31  5-MIN KSTC 052000Z 27019KT 10SM OVC032 13/05 A2988 1070 59 1100 260/19 RMK AO2
14926KSTC STC20051005140509710/05/05 14:05:31  5-MIN KSTC 052005Z 25017KT 10SM BKN032 12/05 A2988 1060 61 1000 240/17 RMK AO2
14926KSTC STC20051005141009710/05/05 14:10:31  5-MIN KSTC 052010Z 24013KT 10SM BKN032 12/05 A2988 1060 63 1000 240/13 RMK AO2
14926KSTC STC20051005141510310/05/05 14:15:31  5-MIN KSTC 052015Z 24017G20KT 10SM OVC032 12/05 A2988 1060 63 1000 240/17G20 RMK AO2
14926KSTC STC20051005142010310/05/05 14:20:31  5-MIN KSTC 052020Z 23015G21KT 10SM OVC032 12/04 A2988 1060 59 1000 230/15G21 RMK AO2
14926KSTC STC20051005142510310/05/05 14:25:31  5-MIN KSTC 052025Z 24016G22KT 10SM OVC034 12/04 A2989 1060 61 1000 240/16G22 RMK AO2
14926KSTC STC20051005143010310/05/05 14:30:31  5-MIN KSTC 052030Z 27017G23KT 10SM OVC034 12/04 A2989 1060 61 1000 270/17G23 RMK AO2
14926KSTC STC20051005143510310/05/05 14:35:31  5-MIN KSTC 052035Z 25015G23KT 10SM OVC034 12/04 A2989 1060 61 1000 250/15G23 RMK AO2
14926KSTC STC20051005144009610/05/05 14:40:31  5-MIN KSTC 052040Z 26021KT 10SM OVC034 11/04 A2989 1050 61 900 260/21 RMK AO2
14926KSTC STC20051005144510210/05/05 14:45:31  5-MIN KSTC 052045Z 24017G23KT 10SM OVC034 11/04 A2989 1050 61 900 240/17G23 RMK AO2
14926KSTC STC20051005145012510/05/05 14:50:31  5-MIN KSTC 052050Z 24016G23KT 10SM OVC034 11/04 A2990 1050 61 900 230/16G23 RMK AO2 SLP136 T01110039 51034
14926KSTC STC20051005145509610/05/05 14:55:31  5-MIN KSTC 052055Z 24017KT 10SM OVC034 11/04 A2990 1040 63 800 240/17 RMK AO2
14926KSTC STC20051005150010110/05/05 15:00:31  5-MIN KSTC 052100Z AUTO 24014KT 10SM OVC034 11/04 A2990 1050 63 800 240/14 RMK AO2
14926KSTC STC20051005150510710/05/05 15:05:31  5-MIN KSTC 052105Z AUTO 24016G21KT 10SM OVC032 11/04 A2990 1050 63 800 240/16G21 RMK AO2
14926KSTC STC20051005151010710/05/05 15:10:31  5-MIN KSTC 052110Z AUTO 23015G21KT 10SM OVC032 11/04 A2990 1040 61 900 230/15G21 RMK AO2
14926KSTC STC20051005151510710/05/05 15:15:31  5-MIN KSTC 052115Z AUTO 22015G21KT 10SM OVC032 11/04 A2990 1040 61 900 220/15G21 RMK AO2
14926KSTC STC20051005152010710/05/05 15:20:31  5-MIN KSTC 052120Z AUTO 23014G21KT 10SM OVC034 11/04 A2991 1040 63 800 230/14G21 RMK AO2
14926KSTC STC20051005152510110/05/05 15:25:31  5-MIN KSTC 052125Z AUTO 24009KT 10SM OVC034 11/04 A2990 1040 63 800 230/09 RMK AO2
14926KSTC STC20051005153010110/05/05 15:30:31  5-MIN KSTC 052130Z AUTO 23011KT 10SM OVC034 11/03 A2991 1040 61 800 220/11 RMK AO2
14926KSTC STC20051005153510710/05/05 15:35:31  5-MIN KSTC 052135Z AUTO 26009G17KT 10SM OVC034 11/04 A2991 1040 63 800 250/09G17 RMK AO2
14926KSTC STC20051005154010710/05/05 15:40:31  5-MIN KSTC 052140Z AUTO 25013G17KT 10SM OVC034 11/03 A2991 1040 61 800 250/13G17 RMK AO2
14926KSTC STC20051005154510110/05/05 15:45:31  5-MIN KSTC 052145Z AUTO 25013KT 10SM OVC036 11/03 A2991 1040 58 800 250/13 RMK AO2
14926KSTC STC20051005155011810/05/05 15:50:31  5-MIN KSTC 052150Z AUTO 25014KT 10SM OVC036 11/03 A2991 1040 58 800 250/14 RMK AO2 SLP140 T01060028
14926KSTC STC20051005155510110/05/05 15:55:31  5-MIN KSTC 052155Z AUTO 25012KT 10SM OVC034 11/03 A2991 1040 61 800 250/12 RMK AO2
14926KSTC STC20051005160010110/05/05 16:00:31  5-MIN KSTC 052200Z AUTO 25014KT 10SM OVC034 11/03 A2991 1030 58 900 250/14 RMK AO2
14926KSTC STC20051005160510110/05/05 16:05:31  5-MIN KSTC 052205Z AUTO 24014KT 10SM BKN036 11/03 A2991 1030 58 800 240/14 RMK AO2
14926KSTC STC20051005161010110/05/05 16:10:31  5-MIN KSTC 052210Z AUTO 25012KT 10SM BKN036 11/03 A2992 1030 61 800 240/12 RMK AO2
14926KSTC STC20051005161510110/05/05 16:15:31  5-MIN KSTC 052215Z AUTO 25013KT 10SM BKN036 11/03 A2992 1020 58 800 250/13 RMK AO2
14926KSTC STC20051005162010710/05/05 16:20:31  5-MIN KSTC 052220Z AUTO 23015G20KT 10SM BKN038 11/03 A2993 1020 58 800 230/15G20 RMK AO2
14926KSTC STC20051005162510110/05/05 16:25:31  5-MIN KSTC 052225Z AUTO 24018KT 10SM BKN038 11/03 A2993 1020 58 800 240/18 RMK AO2
14926KSTC STC20051005163010710/05/05 16:30:31  5-MIN KSTC 052230Z AUTO 25018G23KT 10SM BKN038 10/02 A2993 1010 58 700 250/18G23 RMK AO2
14926KSTC STC20051005163510710/05/05 16:35:31  5-MIN KSTC 052235Z AUTO 25016G23KT 10SM BKN040 10/02 A2993 1010 58 700 250/16G23 RMK AO2
14926KSTC STC20051005164010710/05/05 16:40:31  5-MIN KSTC 052240Z AUTO 25017G24KT 10SM BKN040 10/02 A2994 1010 58 700 240/17G24 RMK AO2
14926KSTC STC20051005164510710/05/05 16:45:31  5-MIN KSTC 052245Z AUTO 25015G24KT 10SM BKN040 10/02 A2994 1010 58 700 240/15G24 RMK AO2
14926KSTC STC20051005165011810/05/05 16:50:31  5-MIN KSTC 052250Z AUTO 25015KT 10SM BKN040 10/02 A2994 1010 58 700 250/15 RMK AO2 SLP149 T01000022
14926KSTC STC20051005165510110/05/05 16:55:31  5-MIN KSTC 052255Z AUTO 24014KT 10SM BKN040 09/02 A2993 1010 60 600 240/14 RMK AO2
14926KSTC STC20051005170010110/05/05 17:00:31  5-MIN KSTC 052300Z AUTO 24012KT 10SM BKN040 09/02 A2993 1010 60 600 240/12 RMK AO2
14926KSTC STC20051005170510110/05/05 17:05:31  5-MIN KSTC 052305Z AUTO 24012KT 10SM BKN040 09/02 A2993 1010 58 600 230/12 RMK AO2
14926KSTC STC20051005171010710/05/05 17:10:31  5-MIN KSTC 052310Z AUTO 23012G17KT 10SM BKN042 09/02 A2993 1020 58 600 230/12G17 RMK AO2
14926KSTC STC20051005171510710/05/05 17:15:31  5-MIN KSTC 052315Z AUTO 24012G17KT 10SM BKN042 09/02 A2993 1020 58 600 230/12G17 RMK AO2
14926KSTC STC20051005172010710/05/05 17:20:31  5-MIN KSTC 052320Z AUTO 24013G17KT 10SM BKN042 09/02 A2993 1020 58 600 230/13G17 RMK AO2
14926KSTC STC20051005172510710/05/05 17:25:31  5-MIN KSTC 052325Z AUTO 24014G19KT 10SM BKN044 09/02 A2993 1020 58 600 230/14G19 RMK AO2
14926KSTC STC20051005173010710/05/05 17:30:31  5-MIN KSTC 052330Z AUTO 24011G19KT 10SM BKN044 09/02 A2993 1020 58 600 240/11G19 RMK AO2
14926KSTC STC20051005173510110/05/05 17:35:31  5-MIN KSTC 052335Z AUTO 25010KT 10SM OVC042 09/02 A2993 1020 58 600 250/10 RMK AO2
14926KSTC STC20051005174010110/05/05 17:40:31  5-MIN KSTC 052340Z AUTO 24011KT 10SM OVC042 09/02 A2993 1020 63 600 240/11 RMK AO2
14926KSTC STC20051005174510710/05/05 17:45:31  5-MIN KSTC 052345Z AUTO 24014G19KT 10SM OVC042 09/02 A2993 1020 60 600 240/14G19 RMK AO2
14926KSTC STC20051005175014210/05/05 17:50:31  5-MIN KSTC 052350Z AUTO 25013G19KT 10SM OVC042 09/02 A2993 1020 60 600 250/13G19 RMK AO2 SLP147 T00890017 10128 20089 53012
14926KSTC STC20051005175510710/05/05 17:55:31  5-MIN KSTC 052355Z AUTO 25015G19KT 10SM OVC042 09/02 A2993 1020 60 600 240/15G19 RMK AO2
14926KSTC STC20051005180010710/05/05 18:00:31  5-MIN KSTC 060000Z AUTO 25013G19KT 10SM OVC042 09/02 A2993 1010 60 600 250/13G19 RMK AO2
14926KSTC STC20051005180510710/05/05 18:05:31  5-MIN KSTC 060005Z AUTO 25013G18KT 10SM OVC042 09/01 A2993 1010 58 600 250/13G18 RMK AO2
14926KSTC STC20051005181010110/05/05 18:10:31  5-MIN KSTC 060010Z AUTO 25009KT 10SM OVC042 09/01 A2993 1020 58 600 250/09 RMK AO2
14926KSTC STC20051005181510710/05/05 18:15:31  5-MIN KSTC 060015Z AUTO 24013G19KT 10SM OVC042 09/01 A2993 1020 58 600 240/13G19 RMK AO2
14926KSTC STC20051005182010710/05/05 18:20:31  5-MIN KSTC 060020Z AUTO 24014G19KT 10SM OVC042 09/01 A2993 1020 58 600 240/14G19 RMK AO2
14926KSTC STC20051005182510710/05/05 18:25:31  5-MIN KSTC 060025Z AUTO 24012G20KT 10SM OVC042 09/01 A2993 1020 56 600 240/12G20 RMK AO2
14926KSTC STC20051005183010710/05/05 18:30:31  5-MIN KSTC 060030Z AUTO 24011G20KT 10SM OVC042 09/01 A2993 1020 56 600 240/11G20 RMK AO2
14926KSTC STC20051005183510110/05/05 18:35:31  5-MIN KSTC 060035Z AUTO 24012KT 10SM OVC042 09/01 A2993 1020 56 600 240/12 RMK AO2
14926KSTC STC20051005184010110/05/05 18:40:31  5-MIN KSTC 060040Z AUTO 23011KT 10SM OVC042 09/01 A2993 1020 56 600 230/11 RMK AO2
14926KSTC STC20051005184510110/05/05 18:45:31  5-MIN KSTC 060045Z AUTO 23008KT 10SM OVC042 09/01 A2993 1020 58 600 230/08 RMK AO2
14926KSTC STC20051005185011810/05/05 18:50:31  5-MIN KSTC 060050Z AUTO 22008KT 10SM OVC042 08/01 A2993 1020 60 500 220/08 RMK AO2 SLP146 T00830011
14926KSTC STC20051005185510110/05/05 18:55:31  5-MIN KSTC 060055Z AUTO 23010KT 10SM OVC044 08/01 A2993 1020 60 500 220/10 RMK AO2
14926KSTC STC20051005190010110/05/05 19:00:31  5-MIN KSTC 060100Z AUTO 23013KT 10SM OVC044 08/01 A2993 1020 58 500 230/13 RMK AO2
14926KSTC STC20051005190510110/05/05 19:05:31  5-MIN KSTC 060105Z AUTO 23013KT 10SM OVC044 08/01 A2992 1020 58 500 220/13 RMK AO2
14926KSTC STC20051005191010110/05/05 19:10:31  5-MIN KSTC 060110Z AUTO 22012KT 10SM OVC044 08/01 A2992 1020 58 500 220/12 RMK AO2
14926KSTC STC20051005191510710/05/05 19:15:31  5-MIN KSTC 060115Z AUTO 23015G20KT 10SM OVC044 08/01 A2992 1030 58 500 220/15G20 RMK AO2
14926KSTC STC20051005192010710/05/05 19:20:31  5-MIN KSTC 060120Z AUTO 23012G20KT 10SM OVC044 08/00 A2992 1030 55 500 230/12G20 RMK AO2
14926KSTC STC20051005192510710/05/05 19:25:31  5-MIN KSTC 060125Z AUTO 23012G20KT 10SM OVC044 08/01 A2992 1030 58 500 230/12G20 RMK AO2
14926KSTC STC20051005193010710/05/05 19:30:31  5-MIN KSTC 060130Z AUTO 23013G20KT 10SM OVC046 08/00 A2992 1030 55 500 220/13G20 RMK AO2
14926KSTC STC20051005193510110/05/05 19:35:31  5-MIN KSTC 060135Z AUTO 22011KT 10SM OVC046 08/01 A2992 1030 58 500 220/11 RMK AO2
14926KSTC STC20051005194010110/05/05 19:40:31  5-MIN KSTC 060140Z AUTO 23011KT 10SM OVC046 08/00 A2992 1030 55 500 230/11 RMK AO2
14926KSTC STC20051005194510110/05/05 19:45:31  5-MIN KSTC 060145Z AUTO 23011KT 10SM OVC046 08/01 A2992 1030 58 500 230/11 RMK AO2
14926KSTC STC20051005195011810/05/05 19:50:31  5-MIN KSTC 060150Z AUTO 23010KT 10SM OVC046 08/01 A2992 1030 58 500 220/10 RMK AO2 SLP143 T00830006
14926KSTC STC20051005195510110/05/05 19:55:31  5-MIN KSTC 060155Z AUTO 23011KT 10SM OVC046 08/01 A2992 1030 58 500 220/11 RMK AO2
14926KSTC STC20051005200010710/05/05 20:00:31  5-MIN KSTC 060200Z AUTO 23012G17KT 10SM OVC046 08/00 A2992 1030 55 500 230/12G17 RMK AO2
14926KSTC STC20051005200510110/05/05 20:05:31  5-MIN KSTC 060205Z AUTO 24014KT 10SM OVC044 08/00 A2992 1030 55 500 230/14 RMK AO2
14926KSTC STC20051005201010110/05/05 20:10:31  5-MIN KSTC 060210Z AUTO 24012KT 10SM OVC044 08/00 A2992 1020 55 500 240/12 RMK AO2
14926KSTC STC20051005201510110/05/05 20:15:31  5-MIN KSTC 060215Z AUTO 25011KT 10SM OVC044 08/00 A2992 1030 58 400 250/11 RMK AO2
14926KSTC STC20051005202010710/05/05 20:20:31  5-MIN KSTC 060220Z AUTO 24017G23KT 10SM OVC044 08/00 A2992 1030 58 400 240/17G23 RMK AO2
14926KSTC STC20051005202510810/05/05 20:25:31  5-MIN KSTC 060225Z AUTO 24015G23KT 10SM OVC044 08/M01 A2992 1030 55 400 240/15G23 RMK AO2
14926KSTC STC20051005203010210/05/05 20:30:31  5-MIN KSTC 060230Z AUTO 25012KT 10SM OVC044 08/M01 A2992 1030 55 400 240/12 RMK AO2
14926KSTC STC20051005203510710/05/05 20:35:31  5-MIN KSTC 060235Z AUTO 25015G21KT 10SM OVC044 08/00 A2992 1030 58 400 250/15G21 RMK AO2
14926KSTC STC20051005204010810/05/05 20:40:31  5-MIN KSTC 060240Z AUTO 26019G23KT 10SM OVC042 08/M01 A2992 1030 55 400 260/19G23 RMK AO2
14926KSTC STC20051005204510810/05/05 20:45:31  5-MIN KSTC 060245Z AUTO 25016G23KT 10SM OVC042 08/M01 A2992 1030 53 400 250/16G23 RMK AO2
14926KSTC STC20051005205013110/05/05 20:50:31  5-MIN KSTC 060250Z AUTO 24015G21KT 10SM OVC042 08/M01 A2992 1030 53 400 230/15G21 RMK AO2 SLP144 T00781011 50010
14926KSTC STC20051005205510810/05/05 20:55:31  5-MIN KSTC 060255Z AUTO 25016G25KT 10SM OVC042 07/M01 A2992 1030 55 400 240/16G25 RMK AO2
14926KSTC STC20051005210010810/05/05 21:00:31  5-MIN KSTC 060300Z AUTO 24014G25KT 10SM BKN042 07/M01 A2992 1030 55 400 240/14G25 RMK AO2
14926KSTC STC20051005210510210/05/05 21:05:31  5-MIN KSTC 060305Z AUTO 24014KT 10SM BKN044 07/M02 A2992 1030 53 400 230/14 RMK AO2
14926KSTC STC20051005211010810/05/05 21:10:31  5-MIN KSTC 060310Z AUTO 24016G21KT 10SM BKN044 07/M02 A2992 1030 53 400 240/16G21 RMK AO2
14926KSTC STC20051005211510810/05/05 21:15:31  5-MIN KSTC 060315Z AUTO 24016G21KT 10SM BKN044 07/M01 A2992 1030 55 400 240/16G21 RMK AO2
14926KSTC STC20051005212010810/05/05 21:20:31  5-MIN KSTC 060320Z AUTO 24018G23KT 10SM BKN044 07/M02 A2992 1030 53 400 230/18G23 RMK AO2
14926KSTC STC20051005212510810/05/05 21:25:31  5-MIN KSTC 060325Z AUTO 24017G23KT 10SM OVC044 07/M02 A2992 1030 53 400 240/17G23 RMK AO2
14926KSTC STC20051005213010810/05/05 21:30:31  5-MIN KSTC 060330Z AUTO 24017G25KT 10SM OVC044 07/M02 A2992 1030 53 400 240/17G25 RMK AO2
14926KSTC STC20051005213512610/05/05 21:35:31  5-MIN KSTC 060335Z AUTO 23019G28KT 10SM OVC042 07/M02 A2992 1030 53 400 230/19G28 RMK AO2 PK WND 23028/0335
14926KSTC STC20051005214012610/05/05 21:40:31  5-MIN KSTC 060340Z AUTO 23017G28KT 10SM OVC042 07/M02 A2992 1020 53 300 230/17G28 RMK AO2 PK WND 23028/0335
14926KSTC STC20051005214512610/05/05 21:45:31  5-MIN KSTC 060345Z AUTO 24018G26KT 10SM OVC042 07/M02 A2993 1020 55 300 240/18G26 RMK AO2 PK WND 23028/0335
14926KSTC STC20051005215014310/05/05 21:50:31  5-MIN KSTC 060350Z AUTO 25014G24KT 10SM OVC042 07/M02 A2992 1020 53 300 240/14G24 RMK AO2 PK WND 23028/0335 SLP146 T00671022
14926KSTC STC20051005215510810/05/05 21:55:31  5-MIN KSTC 060355Z AUTO 25017G21KT 10SM OVC042 07/M02 A2992 1020 55 300 250/17G21 RMK AO2
14926KSTC STC20051005220010810/05/05 22:00:31  5-MIN KSTC 060400Z AUTO 24014G21KT 10SM OVC042 07/M02 A2992 1020 55 300 240/14G21 RMK AO2
14926KSTC STC20051005220510210/05/05 22:05:31  5-MIN KSTC 060405Z AUTO 25015KT 10SM OVC044 07/M02 A2992 1020 55 300 240/15 RMK AO2
14926KSTC STC20051005221012610/05/05 22:10:31  5-MIN KSTC 060410Z AUTO 24018G26KT 10SM OVC044 06/M02 A2993 1020 57 200 240/18G26 RMK AO2 PK WND 26026/0407
14926KSTC STC20051005221512610/05/05 22:15:31  5-MIN KSTC 060415Z AUTO 24015G26KT 10SM OVC044 06/M01 A2992 1020 60 200 240/15G26 RMK AO2 PK WND 26026/0407
14926KSTC STC20051005222012610/05/05 22:20:31  5-MIN KSTC 060420Z AUTO 25018G30KT 10SM OVC044 06/M01 A2992 1020 60 200 250/18G30 RMK AO2 PK WND 23030/0417
14926KSTC STC20051005222512610/05/05 22:25:31  5-MIN KSTC 060425Z AUTO 24016G30KT 10SM OVC042 06/M02 A2992 1020 57 200 240/16G30 RMK AO2 PK WND 23030/0417
14926KSTC STC20051005223012610/05/05 22:30:31  5-MIN KSTC 060430Z AUTO 26018G25KT 10SM OVC040 06/M01 A2992 1020 60 200 250/18G25 RMK AO2 PK WND 23030/0417
14926KSTC STC20051005223512610/05/05 22:35:31  5-MIN KSTC 060435Z AUTO 26014G20KT 10SM OVC040 06/M01 A2992 1020 60 200 250/14G20 RMK AO2 PK WND 23030/0417
14926KSTC STC20051005224013310/05/05 22:40:31  5-MIN KSTC 060440Z AUTO 24016G19KT 10SM BKN036 OVC043 06/M01 A2993 1020 60 200 240/16G19 RMK AO2 PK WND 23030/0417
14926KSTC STC20051005224512610/05/05 22:45:31  5-MIN KSTC 060445Z AUTO 24014G19KT 10SM OVC038 06/M01 A2992 1020 60 200 240/14G19 RMK AO2 PK WND 23030/0417
14926KSTC STC20051005225014310/05/05 22:50:31  5-MIN KSTC 060450Z AUTO 24019G23KT 10SM OVC036 06/M01 A2992 1020 62 200 230/19G23 RMK AO2 PK WND 23030/0417 SLP145 T00561011
14926KSTC STC20051005225510810/05/05 22:55:31  5-MIN KSTC 060455Z AUTO 25017G23KT 10SM OVC036 06/M01 A2993 1020 62 200 250/17G23 RMK AO2
14926KSTC STC20051005230010810/05/05 23:00:31  5-MIN KSTC 060500Z AUTO 25015G23KT 10SM OVC034 06/M01 A2993 1020 62 200 250/15G23 RMK AO2
14926KSTC STC20051005230510810/05/05 23:05:31  5-MIN KSTC 060505Z AUTO 25016G23KT 10SM OVC034 06/M01 A2993 1020 62 200 250/16G23 RMK AO2
14926KSTC STC20051005231010810/05/05 23:10:31  5-MIN KSTC 060510Z AUTO 24014G22KT 10SM OVC032 06/M01 A2993 1020 62 200 230/14G22 RMK AO2
14926KSTC STC20051005231510210/05/05 23:15:31  5-MIN KSTC 060515Z AUTO 24014KT 10SM OVC032 05/M01 A2993 1020 64 100 240/14 RMK AO2
14926KSTC STC20051005232010810/05/05 23:20:31  5-MIN KSTC 060520Z AUTO 25019G23KT 10SM OVC032 05/M01 A2993 1020 64 100 240/19G23 RMK AO2
14926KSTC STC20051005232510810/05/05 23:25:31  5-MIN KSTC 060525Z AUTO 25019G23KT 10SM OVC032 05/M01 A2993 1020 64 100 250/19G23 RMK AO2
14926KSTC STC20051005233010210/05/05 23:30:31  5-MIN KSTC 060530Z AUTO 25015KT 10SM OVC030 05/M01 A2993 1020 64 100 250/15 RMK AO2
14926KSTC STC20051005233510810/05/05 23:35:31  5-MIN KSTC 060535Z AUTO 24017G23KT 10SM OVC030 05/M01 A2993 1020 64 100 230/17G23 RMK AO2
14926KSTC STC20051005234010810/05/05 23:40:31  5-MIN KSTC 060540Z AUTO 25019G24KT 10SM OVC030 05/M01 A2993 1020 64 100 250/19G24 RMK AO2
14926KSTC STC20051005234510810/05/05 23:45:31  5-MIN KSTC 060545Z AUTO 25016G24KT 10SM OVC030 05/M01 A2993 1020 64 100 240/16G24 RMK AO2
14926KSTC STC20051005235015310/05/05 23:50:31  5-MIN KSTC 060550Z AUTO 24014G22KT 10SM OVC030 05/M01 A2993 1020 64 100 240/14G22 RMK AO2 SLP149 T00501011 10089 20050 401610050 55003
14926KSTC STC20051005235510810/05/05 23:55:31  5-MIN KSTC 060555Z AUTO 25014G22KT 10SM OVC028 05/M01 A2993 1020 64 100 250/14G22 RMK AO2
14926KSTC STC20051006000010810/06/05 00:00:32  5-MIN KSTC 060600Z AUTO 25017G21KT 10SM OVC028 05/M01 A2993 1010 67 100 250/17G21 RMK AO2
14926KSTC STC20051006000510610/06/05 00:05:31  5-MIN KSTC 060605Z AUTO 25016G23KT 10SM OVC028 04/M01 A2993 1010 70 0 250/16G23 RMK AO2
14926KSTC STC20051006001512410/06/05 00:15:31  5-MIN KSTC 060615Z AUTO 25020G26KT 10SM OVC026 04/M01 A2994 1010 70 0 240/20G26 RMK AO2 PK WND 25026/0615
14926KSTC STC20051006002012410/06/05 00:20:31  5-MIN KSTC 060620Z AUTO 24018G26KT 10SM OVC026 04/M01 A2994 1010 70 0 240/18G26 RMK AO2 PK WND 25026/0615
14926KSTC STC20051006002511810/06/05 00:25:31  5-MIN KSTC 060625Z AUTO 25017KT 10SM OVC026 04/M01 A2994 1010 70 0 250/17 RMK AO2 PK WND 25026/0615
14926KSTC STC20051006003013110/06/05 00:30:31  5-MIN KSTC 060630Z AUTO 25017G23KT 10SM BKN026 OVC032 04/M01 A2994 1010 67 0 250/17G23 RMK AO2 PK WND 25026/0615
14926KSTC STC20051006003513110/06/05 00:35:31  5-MIN KSTC 060635Z AUTO 26018G25KT 10SM BKN026 OVC032 04/M01 A2994 1010 67 0 250/18G25 RMK AO2 PK WND 25026/0615
14926KSTC STC20051006004013110/06/05 00:40:31  5-MIN KSTC 060640Z AUTO 26015G25KT 10SM BKN028 OVC034 04/M02 A2994 1010 64 0 250/15G25 RMK AO2 PK WND 25026/0615
14926KSTC STC20051006004512510/06/05 00:45:31  5-MIN KSTC 060645Z AUTO 26013KT 10SM BKN028 OVC034 04/M01 A2994 1010 67 0 260/13 RMK AO2 PK WND 25026/0615
14926KSTC STC20051006005014210/06/05 00:50:31  5-MIN KSTC 060650Z AUTO 24013KT 10SM BKN026 OVC034 04/M01 A2994 1010 67 0 240/13 RMK AO2 PK WND 25026/0615 SLP153 T00441011
14926KSTC STC20051006005511310/06/05 00:55:31  5-MIN KSTC 060655Z AUTO 26013G21KT 10SM BKN028 OVC033 04/M01 A2995 1000 70 0 250/13G21 RMK AO2
14926KSTC STC20051006010010610/06/05 01:00:31  5-MIN KSTC 060700Z AUTO 27017G23KT 10SM OVC026 04/M01 A2995 1000 70 0 260/17G23 RMK AO2
14926KSTC STC20051006010510610/06/05 01:05:31  5-MIN KSTC 060705Z AUTO 26015G24KT 10SM OVC026 04/M01 A2995 1000 67 0 260/15G24 RMK AO2
14926KSTC STC20051006011010610/06/05 01:10:31  5-MIN KSTC 060710Z AUTO 26015G24KT 10SM OVC026 04/M01 A2995 1000 70 0 260/15G24 RMK AO2
14926KSTC STC20051006011510010/06/05 01:15:31  5-MIN KSTC 060715Z AUTO 26017KT 10SM OVC028 04/M01 A2995 1000 70 0 260/17 RMK AO2
14926KSTC STC20051006012011310/06/05 01:20:31  5-MIN KSTC 060720Z AUTO 25017G22KT 10SM BKN025 OVC030 04/M01 A2995 1000 70 0 250/17G22 RMK AO2
14926KSTC STC20051006012510610/06/05 01:25:31  5-MIN KSTC 060725Z AUTO 25016G23KT 10SM OVC025 04/M01 A2995 1000 73 0 250/16G23 RMK AO2
14926KSTC STC20051006013011310/06/05 01:30:31  5-MIN KSTC 060730Z AUTO 25016G23KT 10SM BKN025 OVC030 04/M01 A2994 1000 73 0 250/16G23 RMK AO2
14926KSTC STC20051006013510610/06/05 01:35:31  5-MIN KSTC 060735Z AUTO 26016G23KT 10SM OVC025 04/M01 A2994 1010 73 0 250/16G23 RMK AO2
14926KSTC STC20051006014010610/06/05 01:40:31  5-MIN KSTC 060740Z AUTO 25016G21KT 10SM OVC023 04/M01 A2994 1000 73 0 250/16G21 RMK AO2
14926KSTC STC20051006014511610/06/05 01:45:31  5-MIN KSTC 060745Z AUTO 26017G23KT 10SM BKN021 OVC027 03/M01 A2994 1010 76 -100 250/17G23 RMK AO2
14926KSTC STC20051006015013210/06/05 01:50:31  5-MIN KSTC 060750Z AUTO 26015G23KT 10SM BKN021 OVC025 03/00 A2994 1010 79 -100 260/15G23 RMK AO2 SLP152 T00330000
14926KSTC STC20051006015510210/06/05 01:55:31  5-MIN KSTC 060755Z AUTO 26015KT 10SM OVC019 03/00 A2994 1010 79 -100 260/15 RMK AO2
14926KSTC STC20051006020010210/06/05 02:00:31  5-MIN KSTC 060800Z AUTO 26016KT 10SM OVC019 03/00 A2994 1010 79 -100 260/16 RMK AO2
14926KSTC STC20051006020510210/06/05 02:05:31  5-MIN KSTC 060805Z AUTO 26014KT 10SM OVC019 03/00 A2994 1010 79 -100 260/14 RMK AO2
14926KSTC STC20051006021010210/06/05 02:10:31  5-MIN KSTC 060810Z AUTO 26014KT 10SM OVC017 03/00 A2994 1010 79 -100 260/14 RMK AO2
14926KSTC STC20051006021510210/06/05 02:15:31  5-MIN KSTC 060815Z AUTO 26013KT 10SM OVC017 03/01 A2994 1010 82 -100 260/13 RMK AO2
14926KSTC STC20051006022010210/06/05 02:20:31  5-MIN KSTC 060820Z AUTO 25011KT 10SM OVC015 03/01 A2994 1000 82 -100 250/11 RMK AO2
14926KSTC STC20051006022510210/06/05 02:25:31  5-MIN KSTC 060825Z AUTO 26011KT 10SM OVC015 03/01 A2995 1000 82 -100 250/11 RMK AO2
14926KSTC STC20051006023010810/06/05 02:30:31  5-MIN KSTC 060830Z AUTO 26014G19KT 10SM OVC015 03/01 A2994 1000 82 -100 260/14G19 RMK AO2
14926KSTC STC20051006023510810/06/05 02:35:31  5-MIN KSTC 060835Z AUTO 26015G19KT 10SM OVC015 03/01 A2995 1000 82 -100 260/15G19 RMK AO2
14926KSTC STC20051006024010210/06/05 02:40:31  5-MIN KSTC 060840Z AUTO 26015KT 10SM OVC013 03/01 A2995 1000 82 -100 250/15 RMK AO2
14926KSTC STC20051006024510110/06/05 02:45:31  5-MIN KSTC 060845Z AUTO 26014KT 9SM OVC013 03/01 A2995 1000 85 -100 250/14 RMK AO2
14926KSTC STC20051006025012410/06/05 02:50:31  5-MIN KSTC 060850Z AUTO 26014KT 9SM OVC013 03/01 A2995 1000 85 -100 260/14 RMK AO2 SLP157 T00330011 53003
14926KSTC STC20051006025510110/06/05 02:55:31  5-MIN KSTC 060855Z AUTO 27014KT 8SM OVC013 03/01 A2995 1000 85 -100 260/14 RMK AO2
14926KSTC STC20051006030010110/06/05 03:00:31  5-MIN KSTC 060900Z AUTO 27010KT 8SM OVC013 03/02 A2995 1000 89 -100 260/10 RMK AO2
14926KSTC STC20051006030510110/06/05 03:05:31  5-MIN KSTC 060905Z AUTO 27012KT 7SM OVC013 03/02 A2995 1000 89 -100 260/12 RMK AO2
14926KSTC STC20051006031010410/06/05 03:10:31  5-MIN KSTC 060910Z AUTO 27012KT 6SM BR OVC013 03/02 A2995 1000 89 -100 260/12 RMK AO2
14926KSTC STC20051006031510410/06/05 03:15:31  5-MIN KSTC 060915Z AUTO 27009KT 5SM BR OVC013 03/02 A2995 1000 89 -100 270/09 RMK AO2
14926KSTC STC20051006032011610/06/05 03:20:31  5-MIN KSTC 060920Z AUTO 28013G18KT 5SM BR BKN011 OVC016 03/02 A2996 990 89 -100 280/13G18 RMK AO2
14926KSTC STC20051006032510910/06/05 03:25:31  5-MIN KSTC 060925Z AUTO 27011G18KT 6SM BR OVC013 03/02 A2996 990 89 -100 270/11G18 RMK AO2
14926KSTC STC20051006033010710/06/05 03:30:31  5-MIN KSTC 060930Z AUTO 28012KT 9SM SCT010 OVC015 03/02 A2996 990 89 -100 280/12 RMK AO2
14926KSTC STC20051006033510810/06/05 03:35:31  5-MIN KSTC 060935Z AUTO 28011KT 10SM BKN013 OVC018 03/02 A2996 990 89 -100 280/11 RMK AO2
14926KSTC STC20051006034010810/06/05 03:40:31  5-MIN KSTC 060940Z AUTO 29014KT 10SM FEW010 OVC016 03/02 A2997 980 89 -100 280/14 RMK AO2
14926KSTC STC20051006034511110/06/05 03:45:31  5-MIN KSTC 060945Z AUTO 30014G20KT 10SM FEW010 OVC016 04/01 A2997 980 82 0 290/14G20 RMK AO2
14926KSTC STC20051006035012110/06/05 03:50:31  5-MIN KSTC 060950Z AUTO 30013G20KT 10SM OVC018 04/01 A2997 980 82 0 290/13G20 RMK AO2 SLP164 T00390011
14926KSTC STC20051006035510410/06/05 03:55:31  5-MIN KSTC 060955Z AUTO 29017G24KT 10SM OVC018 04/01 A2997 980 82 0 290/17G24 RMK AO2
14926KSTC STC20051006040010410/06/05 04:00:31  5-MIN KSTC 061000Z AUTO 30014G24KT 10SM OVC018 04/01 A2997 980 79 0 300/14G24 RMK AO2
14926KSTC STC20051006040510410/06/05 04:05:31  5-MIN KSTC 061005Z AUTO 30013G19KT 10SM OVC018 04/01 A2997 980 82 0 300/13G19 RMK AO2
14926KSTC STC20051006041010410/06/05 04:10:31  5-MIN KSTC 061010Z AUTO 30014G19KT 10SM OVC018 04/01 A2998 980 82 0 300/14G19 RMK AO2
14926KSTC STC20051006041509710/06/05 04:15:31  5-MIN KSTC 061015Z AUTO 30012KT 9SM OVC016 04/01 A2998 970 82 0 300/12 RMK AO2
14926KSTC STC20051006042011610/06/05 04:20:31  5-MIN KSTC 061020Z AUTO 29010KT 6SM -RA BR OVC014 04/02 A2998 970 85 0 290/10 RMK AO2 RAB17 P0000
14926KSTC STC20051006042512310/06/05 04:25:31  5-MIN KSTC 061025Z AUTO 28011KT 5SM -RA BR BKN012 OVC016 04/02 A2998 970 89 0 280/11 RMK AO2 RAB17 P0000
14926KSTC STC20051006043014410/06/05 04:30:31  5-MIN KSTC 061030Z AUTO 29014G18KT 5SM -RA BR BKN010 OVC016 03/02 A2998 970 92 -100 290/14G18 RMK AO2 RAB17 CIG 008V012 P0000
14926KSTC STC20051006043512510/06/05 04:35:31  5-MIN KSTC 061035Z AUTO 29011G18KT 5SM -RA BR OVC012 03/02 A2999 970 92 -100 280/11G18 RMK AO2 RAB17 P0000
14926KSTC STC20051006044011610/06/05 04:40:31  5-MIN KSTC 061040Z AUTO 29013KT 8SM -RA OVC014 03/02 A2999 960 89 -100 290/13 RMK AO2 RAB17 P0000
14926KSTC STC20051006044511610/06/05 04:45:31  5-MIN KSTC 061045Z AUTO 28011KT 10SM OVC014 03/02 A2999 960 89 -100 280/11 RMK AO2 RAB17E41 P0000
14926KSTC STC20051006045014610/06/05 04:50:31  5-MIN KSTC 061050Z AUTO 30014G17KT 10SM FEW010 OVC014 03/02 A3000 960 89 -100 300/14G17 RMK AO2 RAB17E41 SLP173 P0000 T00330017
14926KSTC STC20051006045510810/06/05 04:55:31  5-MIN KSTC 061055Z AUTO 30013KT 10SM FEW010 OVC016 03/01 A3000 950 85 -100 300/13 RMK AO2
14926KSTC STC20051006050011410/06/05 05:00:31  5-MIN KSTC 061100Z AUTO 30015G21KT 10SM BKN016 OVC022 03/01 A3000 950 82 -100 300/15G21 RMK AO2
14926KSTC STC20051006050510710/06/05 05:05:31  5-MIN KSTC 061105Z AUTO 30016G22KT 10SM OVC018 03/01 A3000 950 82 -100 300/16G22 RMK AO2
14926KSTC STC20051006051011410/06/05 05:10:31  5-MIN KSTC 061110Z AUTO 29013G22KT 10SM BKN016 OVC021 03/01 A3000 950 82 -100 290/13G22 RMK AO2
14926KSTC STC20051006051510710/06/05 05:15:31  5-MIN KSTC 061115Z AUTO 29014G19KT 10SM OVC016 03/01 A3001 950 82 -100 290/14G19 RMK AO2
14926KSTC STC20051006052010710/06/05 05:20:31  5-MIN KSTC 061120Z AUTO 29015G21KT 10SM OVC018 03/01 A3001 940 82 -200 290/15G21 RMK AO2
14926KSTC STC20051006052510710/06/05 05:25:31  5-MIN KSTC 061125Z AUTO 29015G21KT 10SM OVC018 03/01 A3002 940 82 -200 280/15G21 RMK AO2
14926KSTC STC20051006053010110/06/05 05:30:31  5-MIN KSTC 061130Z AUTO 29014KT 10SM OVC018 03/00 A3002 940 82 -200 280/14 RMK AO2
14926KSTC STC20051006053510110/06/05 05:35:31  5-MIN KSTC 061135Z AUTO 29011KT 10SM OVC018 03/00 A3002 930 82 -200 290/11 RMK AO2
14926KSTC STC20051006054010710/06/05 05:40:31  5-MIN KSTC 061140Z AUTO 29012G20KT 10SM OVC018 03/00 A3002 930 82 -200 290/12G20 RMK AO2
14926KSTC STC20051006054510710/06/05 05:45:31  5-MIN KSTC 061145Z AUTO 29012G20KT 10SM OVC018 03/00 A3002 930 82 -200 290/12G20 RMK AO2
14926KSTC STC20051006055014810/06/05 05:50:31  5-MIN KSTC 061150Z AUTO 29016KT 10SM OVC018 03/00 A3002 930 82 -200 290/16 RMK AO2 SLP183 60000 70005 T00280000 10050 20028 51006
14926KSTC STC20051006055510110/06/05 05:55:31  5-MIN KSTC 061155Z AUTO 29014KT 10SM OVC018 03/00 A3002 930 82 -200 290/14 RMK AO2
14926KSTC STC20051006060010710/06/05 06:00:31  5-MIN KSTC 061200Z AUTO 30014G20KT 10SM OVC018 03/00 A3002 930 82 -200 290/14G20 RMK AO2
14926KSTC STC20051006060510710/06/05 06:05:31  5-MIN KSTC 061205Z AUTO 31015G20KT 10SM OVC018 03/00 A3003 930 82 -200 300/15G20 RMK AO2
14926KSTC STC20051006061010710/06/05 06:10:31  5-MIN KSTC 061210Z AUTO 29013G20KT 10SM OVC018 03/00 A3003 920 82 -200 290/13G20 RMK AO2
14926KSTC STC20051006061510810/06/05 06:15:31  5-MIN KSTC 061215Z AUTO 30016G21KT 10SM OVC018 03/M01 A3004 920 79 -300 300/16G21 RMK AO2
14926KSTC STC20051006062010710/06/05 06:20:31  5-MIN KSTC 061220Z AUTO 28013G21KT 10SM OVC018 03/00 A3004 910 82 -300 280/13G21 RMK AO2
14926KSTC STC20051006062510710/06/05 06:25:31  5-MIN KSTC 061225Z AUTO 29014G20KT 10SM OVC018 03/00 A3005 910 82 -300 290/14G20 RMK AO2
14926KSTC STC20051006063010710/06/05 06:30:31  5-MIN KSTC 061230Z AUTO 29015G20KT 10SM OVC018 03/00 A3005 910 82 -300 280/15G20 RMK AO2
14926KSTC STC20051006063510810/06/05 06:35:31  5-MIN KSTC 061235Z AUTO 29014G19KT 10SM OVC018 03/M01 A3006 900 79 -300 290/14G19 RMK AO2
14926KSTC STC20051006064010810/06/05 06:40:31  5-MIN KSTC 061240Z AUTO 29016G20KT 10SM OVC018 03/M01 A3006 900 79 -300 290/16G20 RMK AO2
14926KSTC STC20051006064510710/06/05 06:45:31  5-MIN KSTC 061245Z AUTO 30015G20KT 10SM OVC018 03/00 A3006 900 82 -300 290/15G20 RMK AO2
14926KSTC STC20051006065012510/06/05 06:50:31  5-MIN KSTC 061250Z AUTO 28017G21KT 10SM OVC018 03/M01 A3007 890 79 -300 280/17G21 RMK AO2 SLP197 T00281006
14926KSTC STC20051006065510710/06/05 06:55:31  5-MIN KSTC 061255Z AUTO 29014G21KT 10SM OVC018 03/00 A3007 890 82 -300 290/14G21 RMK AO2
14926KSTC STC20051006070010710/06/05 07:00:31  5-MIN KSTC 061300Z AUTO 29012G19KT 10SM OVC018 03/00 A3007 890 82 -300 280/12G19 RMK AO2
14926KSTC STC20051006070510710/06/05 07:05:31  5-MIN KSTC 061305Z AUTO 29018G23KT 10SM OVC018 03/00 A3007 890 82 -300 290/18G23 RMK AO2
14926KSTC STC20051006071010810/06/05 07:10:31  5-MIN KSTC 061310Z AUTO 29018G23KT 10SM OVC018 03/M01 A3007 880 79 -300 290/18G23 RMK AO2
14926KSTC STC20051006071510810/06/05 07:15:31  5-MIN KSTC 061315Z AUTO 30016G21KT 10SM OVC018 03/M01 A3008 880 79 -300 290/16G21 RMK AO2
14926KSTC STC20051006072010810/06/05 07:20:31  5-MIN KSTC 061320Z AUTO 30016G21KT 10SM OVC018 03/M01 A3008 880 79 -300 300/16G21 RMK AO2
14926KSTC STC20051006072510810/06/05 07:25:31  5-MIN KSTC 061325Z AUTO 29015G21KT 10SM OVC018 03/M01 A3008 880 79 -300 290/15G21 RMK AO2
14926KSTC STC20051006073010810/06/05 07:30:31  5-MIN KSTC 061330Z AUTO 30016G21KT 10SM OVC018 03/M01 A3009 870 75 -300 300/16G21 RMK AO2
14926KSTC STC20051006073510810/06/05 07:35:31  5-MIN KSTC 061335Z AUTO 30016G21KT 10SM OVC018 03/M01 A3009 870 75 -300 290/16G21 RMK AO2
14926KSTC STC20051006074010810/06/05 07:40:31  5-MIN KSTC 061340Z AUTO 31014G23KT 10SM OVC018 03/M01 A3009 870 75 -300 300/14G23 RMK AO2
14926KSTC STC20051006074510810/06/05 07:45:31  5-MIN KSTC 061345Z AUTO 29017G23KT 10SM OVC018 03/M01 A3009 870 75 -300 280/17G23 RMK AO2
14926KSTC STC20051006075012510/06/05 07:50:31  5-MIN KSTC 061350Z AUTO 30017G22KT 10SM OVC018 03/M01 A3010 870 75 -300 300/17G22 RMK AO2 SLP207 T00281011
14926KSTC STC20051006075510810/06/05 07:55:31  5-MIN KSTC 061355Z AUTO 30014G21KT 10SM OVC018 03/M01 A3010 860 75 -300 290/14G21 RMK AO2
14926KSTC STC20051006080010210/06/05 08:00:31  5-MIN KSTC 061400Z AUTO 29016KT 10SM OVC018 03/M01 A3010 860 75 -300 290/16 RMK AO2
14926KSTC STC20051006080510210/06/05 08:05:31  5-MIN KSTC 061405Z AUTO 30012KT 10SM OVC018 03/M01 A3010 860 75 -300 290/12 RMK AO2
14926KSTC STC20051006081010810/06/05 08:10:31  5-MIN KSTC 061410Z AUTO 30015G18KT 10SM OVC018 03/M01 A3011 860 75 -300 300/15G18 RMK AO2
14926KSTC STC20051006081510810/06/05 08:15:31  5-MIN KSTC 061415Z AUTO 29015G22KT 10SM OVC018 03/M01 A3011 850 75 -300 290/15G22 RMK AO2
14926KSTC STC20051006082010810/06/05 08:20:31  5-MIN KSTC 061420Z AUTO 30015G22KT 10SM OVC018 03/M01 A3011 850 72 -300 300/15G22 RMK AO2
14926KSTC STC20051006082510810/06/05 08:25:31  5-MIN KSTC 061425Z AUTO 30013G22KT 10SM OVC018 03/M01 A3011 850 72 -300 300/13G22 RMK AO2
14926KSTC STC20051006083010810/06/05 08:30:31  5-MIN KSTC 061430Z AUTO 30014G22KT 10SM OVC018 03/M01 A3012 850 72 -300 300/14G22 RMK AO2
14926KSTC STC20051006083510210/06/05 08:35:31  5-MIN KSTC 061435Z AUTO 31014KT 10SM OVC018 03/M01 A3012 850 72 -300 300/14 RMK AO2
14926KSTC STC20051006084010810/06/05 08:40:31  5-MIN KSTC 061440Z AUTO 30013G19KT 10SM OVC018 04/M01 A3012 840 73 -200 300/13G19 RMK AO2
14926KSTC STC20051006084510810/06/05 08:45:31  5-MIN KSTC 061445Z AUTO 29019G24KT 10SM OVC020 03/M01 A3012 840 72 -300 290/19G24 RMK AO2
14926KSTC STC20051006085013110/06/05 08:50:31  5-MIN KSTC 061450Z AUTO 31015G24KT 10SM OVC020 03/M01 A3012 840 72 -300 300/15G24 RMK AO2 SLP217 T00331011 53024
14926KSTC STC20051006085510810/06/05 08:55:31  5-MIN KSTC 061455Z AUTO 30017G22KT 10SM OVC020 04/M01 A3013 840 73 -200 300/17G22 RMK AO2
14926KSTC STC20051006090010810/06/05 09:00:31  5-MIN KSTC 061500Z AUTO 30018G22KT 10SM OVC020 04/M01 A3013 830 73 -200 290/18G22 RMK AO2
14926KSTC STC20051006090510810/06/05 09:05:31  5-MIN KSTC 061505Z AUTO 30019G23KT 10SM OVC020 04/M01 A3013 830 70 -200 300/19G23 RMK AO2
14926KSTC STC20051006091010810/06/05 09:10:31  5-MIN KSTC 061510Z AUTO 31014G23KT 10SM OVC020 04/M01 A3013 830 73 -200 300/14G23 RMK AO2
14926KSTC STC20051006091510810/06/05 09:15:31  5-MIN KSTC 061515Z AUTO 31017G24KT 10SM OVC020 04/M01 A3013 830 73 -200 300/17G24 RMK AO2
14926KSTC STC20051006092010810/06/05 09:20:31  5-MIN KSTC 061520Z AUTO 30018G24KT 10SM OVC020 04/M01 A3014 830 70 -200 290/18G24 RMK AO2
14926KSTC STC20051006092510310/06/05 09:25:31  5-MIN KSTC 061525Z 30018G23KT 10SM OVC020 04/M01 A3014 820 70 -200 300/18G23 RMK AO2
14926KSTC STC20051006093011010/06/05 09:30:31  5-MIN KSTC 061530Z 30015G23KT 10SM BKN020 OVC025 04/M01 A3015 820 73 -200 290/15G23 RMK AO2
14926KSTC STC20051006093510310/06/05 09:35:31  5-MIN KSTC 061535Z 29017G21KT 10SM OVC020 04/M01 A3015 810 73 -200 290/17G21 RMK AO2
14926KSTC STC20051006094010310/06/05 09:40:31  5-MIN KSTC 061540Z 31018G21KT 10SM OVC020 04/M01 A3015 810 73 -300 300/18G21 RMK AO2
14926KSTC STC20051006094510310/06/05 09:45:31  5-MIN KSTC 061545Z 31020G23KT 10SM OVC020 04/M01 A3016 810 70 -300 300/20G23 RMK AO2
14926KSTC STC20051006095012010/06/05 09:50:31  5-MIN KSTC 061550Z 30017G23KT 10SM OVC020 04/M01 A3016 810 70 -300 300/17G23 RMK AO2 SLP229 T00391011
14926KSTC STC20051006095510310/06/05 09:55:31  5-MIN KSTC 061555Z 30014G23KT 10SM OVC020 04/M01 A3016 800 73 -300 300/14G23 RMK AO2
14926KSTC STC20051006100010310/06/05 10:00:31  5-MIN KSTC 061600Z 30017G22KT 10SM OVC020 04/M01 A3017 800 70 -300 300/17G22 RMK AO2
14926KSTC STC20051006100510310/06/05 10:05:31  5-MIN KSTC 061605Z 30014G22KT 10SM OVC022 04/M01 A3017 790 70 -300 300/14G22 RMK AO2
14926KSTC STC20051006101010310/06/05 10:10:31  5-MIN KSTC 061610Z 31016G22KT 10SM OVC022 04/M01 A3018 790 70 -300 310/16G22 RMK AO2
14926KSTC STC20051006101510310/06/05 10:15:31  5-MIN KSTC 061615Z 30017G22KT 10SM OVC022 04/M01 A3018 790 70 -300 300/17G22 RMK AO2
14926KSTC STC20051006102010310/06/05 10:20:31  5-MIN KSTC 061620Z 30017G20KT 10SM OVC022 04/M01 A3017 790 70 -300 300/17G20 RMK AO2
14926KSTC STC20051006102510310/06/05 10:25:31  5-MIN KSTC 061625Z 31013G23KT 10SM OVC022 04/M01 A3017 790 73 -300 310/13G23 RMK AO2
14926KSTC STC20051006103010310/06/05 10:30:31  5-MIN KSTC 061630Z 30014G23KT 10SM OVC022 04/M01 A3017 800 70 -200 290/14G23 RMK AO2
14926KSTC STC20051006103509710/06/05 10:35:31  5-MIN KSTC 061635Z 31017KT 10SM OVC024 04/M01 A3017 800 70 -200 310/17 RMK AO2
14926KSTC STC20051006104009710/06/05 10:40:31  5-MIN KSTC 061640Z 30015KT 10SM OVC024 04/M01 A3017 790 70 -200 300/15 RMK AO2
14926KSTC STC20051006104510310/06/05 10:45:31  5-MIN KSTC 061645Z 30018G23KT 10SM OVC024 04/M01 A3018 790 67 -200 300/18G23 RMK AO2
14926KSTC STC20051006105012710/06/05 10:50:31  5-MIN KSTC 061650Z 30016G23KT 10SM BKN024 OVC029 04/M01 A3018 790 70 -300 300/16G23 RMK AO2 SLP236 T00391011
14926KSTC STC20051006105511010/06/05 10:55:31  5-MIN KSTC 061655Z 30013G24KT 10SM BKN024 OVC029 04/M01 A3018 790 67 -200 300/13G24 RMK AO2
14926KSTC STC20051006110011010/06/05 11:00:31  5-MIN KSTC 061700Z 31015G24KT 10SM BKN024 OVC029 04/M01 A3018 780 70 -200 300/15G24 RMK AO2
14926KSTC STC20051006110510410/06/05 11:05:31  5-MIN KSTC 061705Z 31015KT 10SM BKN024 OVC029 04/M01 A3018 780 67 -200 310/15 RMK AO2
14926KSTC STC20051006111010310/06/05 11:10:31  5-MIN KSTC 061710Z 32017G23KT 10SM OVC024 04/M01 A3018 780 67 -200 310/17G23 RMK AO2
14926KSTC STC20051006111510310/06/05 11:15:31  5-MIN KSTC 061715Z 31019G23KT 10SM OVC026 04/M01 A3019 780 67 -200 310/19G23 RMK AO2
14926KSTC STC20051006112011010/06/05 11:20:31  5-MIN KSTC 061720Z 32017G25KT 10SM BKN026 OVC032 04/M02 A3019 780 64 -200 320/17G25 RMK AO2
14926KSTC STC20051006112511010/06/05 11:25:31  5-MIN KSTC 061725Z 31017G25KT 10SM BKN026 OVC032 05/M02 A3019 770 62 -200 310/17G25 RMK AO2
14926KSTC STC20051006113011010/06/05 11:30:31  5-MIN KSTC 061730Z 31016G23KT 10SM BKN027 OVC032 05/M02 A3020 770 62 -200 310/16G23 RMK AO2
14926KSTC STC20051006113509710/06/05 11:35:31  5-MIN KSTC 061735Z 29011KT 10SM OVC027 04/M01 A3020 770 67 -200 290/11 RMK AO2
14926KSTC STC20051006114010410/06/05 11:40:31  5-MIN KSTC 061740Z 30014KT 10SM BKN027 OVC032 04/M01 A3020 770 67 -200 300/14 RMK AO2
14926KSTC STC20051006114510410/06/05 11:45:31  5-MIN KSTC 061745Z 30013KT 10SM BKN027 OVC035 04/M01 A3020 770 67 -200 300/13 RMK AO2
14926KSTC STC20051006115013910/06/05 11:50:31  5-MIN KSTC 061750Z 31014KT 10SM BKN027 OVC033 04/M01 A3020 770 67 -200 310/14 RMK AO2 SLP244 T00441011 10050 20028 51034
14926KSTC STC20051006115510410/06/05 11:55:31  5-MIN KSTC 061755Z 31015KT 10SM BKN027 OVC034 05/M01 A3020 770 64 -200 300/15 RMK AO2
14926KSTC STC20051006120010310/06/05 12:00:31  5-MIN KSTC 061800Z 31018G24KT 10SM OVC029 05/M01 A3020 770 64 -200 300/18G24 RMK AO2
14926KSTC STC20051006120511010/06/05 12:05:31  5-MIN KSTC 061805Z 31017G24KT 10SM BKN027 OVC035 05/M02 A3019 770 62 -200 310/17G24 RMK AO2
14926KSTC STC20051006121011010/06/05 12:10:31  5-MIN KSTC 061810Z 31018G22KT 10SM BKN027 OVC033 05/M02 A3019 780 62 -200 310/18G22 RMK AO2
14926KSTC STC20051006121510310/06/05 12:15:31  5-MIN KSTC 061815Z 31018G23KT 10SM OVC029 05/M02 A3019 780 62 -200 310/18G23 RMK AO2
14926KSTC STC20051006122011010/06/05 12:20:31  5-MIN KSTC 061820Z 31016G23KT 10SM BKN029 OVC035 05/M02 A3019 780 62 -200 310/16G23 RMK AO2
14926KSTC STC20051006122510310/06/05 12:25:31  5-MIN KSTC 061825Z 31014G22KT 10SM OVC032 06/M01 A3019 770 62 -100 310/14G22 RMK AO2
14926KSTC STC20051006123010310/06/05 12:30:31  5-MIN KSTC 061830Z 30017G21KT 10SM OVC032 05/M01 A3019 770 64 -200 300/17G21 RMK AO2
14926KSTC STC20051006123510310/06/05 12:35:31  5-MIN KSTC 061835Z 31016G21KT 10SM OVC030 05/M01 A3019 780 64 -200 300/16G21 RMK AO2
14926KSTC STC20051006124010310/06/05 12:40:31  5-MIN KSTC 061840Z 31015G21KT 10SM OVC032 06/M01 A3019 780 62 -100 310/15G21 RMK AO2
14926KSTC STC20051006124510310/06/05 12:45:31  5-MIN KSTC 061845Z 31014G21KT 10SM OVC032 06/M01 A3019 780 62 -100 310/14G21 RMK AO2
14926KSTC STC20051006125011410/06/05 12:50:31  5-MIN KSTC 061850Z 31016KT 10SM OVC032 06/M02 A3019 780 59 -100 300/16 RMK AO2 SLP240 T00561017
14926KSTC STC20051006125510310/06/05 12:55:31  5-MIN KSTC 061855Z 32020G24KT 10SM OVC032 06/M01 A3019 780 62 -100 310/20G24 RMK AO2
14926KSTC STC20051006130010310/06/05 13:00:31  5-MIN KSTC 061900Z 32015G24KT 10SM OVC032 05/M02 A3019 780 62 -200 310/15G24 RMK AO2
14926KSTC STC20051006130510310/06/05 13:05:31  5-MIN KSTC 061905Z 30016G23KT 10SM OVC032 06/M01 A3019 780 62 -100 300/16G23 RMK AO2
14926KSTC STC20051006131010310/06/05 13:10:31  5-MIN KSTC 061910Z 31014G19KT 10SM OVC032 06/M01 A3019 780 62 -100 310/14G19 RMK AO2
14926KSTC STC20051006131510310/06/05 13:15:31  5-MIN KSTC 061915Z 32012G20KT 10SM OVC032 06/M01 A3019 780 62 -100 310/12G20 RMK AO2
14926KSTC STC20051006132010310/06/05 13:20:31  5-MIN KSTC 061920Z 31017G22KT 10SM OVC034 06/M01 A3019 780 62 -100 310/17G22 RMK AO2
14926KSTC STC20051006132510310/06/05 13:25:31  5-MIN KSTC 061925Z 32012G22KT 10SM OVC034 06/M01 A3019 780 62 -100 320/12G22 RMK AO2
14926KSTC STC20051006133010310/06/05 13:30:31  5-MIN KSTC 061930Z 31016G22KT 10SM OVC034 06/M01 A3019 780 62 -100 310/16G22 RMK AO2
14926KSTC STC20051006133510310/06/05 13:35:31  5-MIN KSTC 061935Z 31015G22KT 10SM OVC032 06/M02 A3019 780 59 -100 310/15G22 RMK AO2
14926KSTC STC20051006134010310/06/05 13:40:31  5-MIN KSTC 061940Z 32016G19KT 10SM OVC032 06/M01 A3019 780 62 -100 310/16G19 RMK AO2
14926KSTC STC20051006134509710/06/05 13:45:31  5-MIN KSTC 061945Z 30017KT 10SM OVC032 05/M02 A3019 780 62 -200 300/17 RMK AO2
14926KSTC STC20051006135011410/06/05 13:50:31  5-MIN KSTC 061950Z 32013KT 10SM OVC032 06/M01 A3019 780 62 -100 320/13 RMK AO2 SLP241 T00561011
14926KSTC STC20051006135509710/06/05 13:55:31  5-MIN KSTC 061955Z 31015KT 10SM OVC032 06/M01 A3019 780 62 -100 310/15 RMK AO2
14926KSTC STC20051006140009710/06/05 14:00:31  5-MIN KSTC 062000Z 31015KT 10SM OVC034 06/M02 A3019 770 59 -100 310/15 RMK AO2
14926KSTC STC20051006140510310/06/05 14:05:31  5-MIN KSTC 062005Z 32015G20KT 10SM OVC034 06/M02 A3019 770 59 -100 310/15G20 RMK AO2
14926KSTC STC20051006141010310/06/05 14:10:31  5-MIN KSTC 062010Z 31014G21KT 10SM OVC034 06/M02 A3020 770 59 -100 310/14G21 RMK AO2
14926KSTC STC20051006141510310/06/05 14:15:31  5-MIN KSTC 062015Z 32015G21KT 10SM OVC034 06/M02 A3020 770 59 -100 310/15G21 RMK AO2
14926KSTC STC20051006142010310/06/05 14:20:31  5-MIN KSTC 062020Z 30015G21KT 10SM OVC034 06/M01 A3020 770 62 -100 300/15G21 RMK AO2
14926KSTC STC20051006142510310/06/05 14:25:31  5-MIN KSTC 062025Z 31016G22KT 10SM OVC034 06/M02 A3020 770 59 -100 310/16G22 RMK AO2
14926KSTC STC20051006143010310/06/05 14:30:31  5-MIN KSTC 062030Z 32011G22KT 10SM OVC034 06/M02 A3020 770 59 -100 310/11G22 RMK AO2
14926KSTC STC20051006143509710/06/05 14:35:31  5-MIN KSTC 062035Z 31013KT 10SM OVC034 06/M02 A3020 770 59 -100 310/13 RMK AO2
14926KSTC STC20051006144010310/06/05 14:40:31  5-MIN KSTC 062040Z 32011G15KT 10SM OVC034 06/M01 A3020 760 62 -100 320/11G15 RMK AO2
14926KSTC STC20051006144510310/06/05 14:45:31  5-MIN KSTC 062045Z 32013G17KT 10SM OVC034 06/M01 A3021 760 62 -100 310/13G17 RMK AO2
14926KSTC STC20051006145012010/06/05 14:50:31  5-MIN KSTC 062050Z 31013KT 10SM OVC034 06/M02 A3021 760 59 -100 310/13 RMK AO2 SLP246 T00561017 51024
14926KSTC STC20051006145510310/06/05 14:55:31  5-MIN KSTC 062055Z 30015G18KT 10SM OVC036 06/M02 A3021 760 59 -100 300/15G18 RMK AO2
14926KSTC STC20051006150009710/06/05 15:00:31  5-MIN KSTC 062100Z 31015KT 10SM OVC036 06/M02 A3021 760 59 -100 310/15 RMK AO2
14926KSTC STC20051006150509710/06/05 15:05:31  5-MIN KSTC 062105Z 31012KT 10SM OVC036 06/M02 A3021 760 59 -100 310/12 RMK AO2
14926KSTC STC20051006151009710/06/05 15:10:31  5-MIN KSTC 062110Z 30012KT 10SM OVC036 06/M01 A3021 760 62 -100 300/12 RMK AO2
14926KSTC STC20051006151509710/06/05 15:15:31  5-MIN KSTC 062115Z 31012KT 10SM OVC036 06/M01 A3021 760 62 -100 310/12 RMK AO2
14926KSTC STC20051006152009710/06/05 15:20:31  5-MIN KSTC 062120Z 32013KT 10SM OVC036 06/M02 A3022 750 59 -100 320/13 RMK AO2
14926KSTC STC20051006152509710/06/05 15:25:31  5-MIN KSTC 062125Z 30013KT 10SM OVC036 05/M02 A3022 750 62 -200 300/13 RMK AO2
14926KSTC STC20051006153010310/06/05 15:30:31  5-MIN KSTC 062130Z 32011G18KT 10SM OVC036 05/M01 A3022 750 64 -200 320/11G18 RMK AO2
14926KSTC STC20051006153509710/06/05 15:35:31  5-MIN KSTC 062135Z 31012KT 10SM OVC036 06/M01 A3022 750 62 -100 310/12 RMK AO2
14926KSTC STC20051006154010410/06/05 15:40:31  5-MIN KSTC 062140Z 31014KT 10SM BKN036 OVC044 06/M01 A3022 750 62 -100 300/14 RMK AO2
14926KSTC STC20051006154510410/06/05 15:45:31  5-MIN KSTC 062145Z 32011KT 10SM SCT034 OVC044 06/M02 A3022 750 59 -100 310/11 RMK AO2
14926KSTC STC20051006155011410/06/05 15:50:31  5-MIN KSTC 062150Z 30012KT 10SM OVC039 06/M02 A3022 750 59 -100 300/12 RMK AO2 SLP252 T00561017
14926KSTC STC20051006155509710/06/05 15:55:31  5-MIN KSTC 062155Z 31011KT 10SM OVC039 06/M02 A3022 750 59 -100 300/11 RMK AO2
14926KSTC STC20051006160009710/06/05 16:00:31  5-MIN KSTC 062200Z 32011KT 10SM OVC041 06/M01 A3022 750 62 -100 320/11 RMK AO2
14926KSTC STC20051006160509710/06/05 16:05:31  5-MIN KSTC 062205Z 32012KT 10SM OVC043 06/M02 A3022 750 59 -100 310/12 RMK AO2
14926KSTC STC20051006161009710/06/05 16:10:31  5-MIN KSTC 062210Z 30014KT 10SM OVC043 06/M02 A3022 750 59 -100 300/14 RMK AO2
14926KSTC STC20051006161509710/06/05 16:15:31  5-MIN KSTC 062215Z 30012KT 10SM OVC043 05/M02 A3023 750 62 -200 300/12 RMK AO2
14926KSTC STC20051006162009710/06/05 16:20:31  5-MIN KSTC 062220Z 31012KT 10SM OVC043 06/M01 A3023 740 62 -100 310/12 RMK AO2
14926KSTC STC20051006162509710/06/05 16:25:31  5-MIN KSTC 062225Z 31010KT 10SM OVC043 06/M01 A3023 740 62 -100 300/10 RMK AO2
14926KSTC STC20051006163009710/06/05 16:30:31  5-MIN KSTC 062230Z 31010KT 10SM OVC045 06/M01 A3023 740 62 -100 310/10 RMK AO2
14926KSTC STC20051006163509710/06/05 16:35:31  5-MIN KSTC 062235Z 32010KT 10SM OVC045 06/M02 A3023 740 59 -100 320/10 RMK AO2
14926KSTC STC20051006164009710/06/05 16:40:31  5-MIN KSTC 062240Z 31011KT 10SM OVC045 06/M01 A3023 740 62 -100 310/11 RMK AO2
14926KSTC STC20051006164509710/06/05 16:45:31  5-MIN KSTC 062245Z 31011KT 10SM OVC045 06/M01 A3024 740 62 -100 310/11 RMK AO2
14926KSTC STC20051006165011410/06/05 16:50:31  5-MIN KSTC 062250Z 31011KT 10SM OVC045 05/M01 A3024 740 64 -200 310/11 RMK AO2 SLP256 T00501011
14926KSTC STC20051006165509710/06/05 16:55:31  5-MIN KSTC 062255Z 31011KT 10SM OVC045 05/M02 A3024 740 62 -200 310/11 RMK AO2
14926KSTC STC20051006170009710/06/05 17:00:31  5-MIN KSTC 062300Z 31010KT 10SM OVC045 05/M02 A3024 740 62 -200 300/10 RMK AO2
14926KSTC STC20051006170509710/06/05 17:05:31  5-MIN KSTC 062305Z 31011KT 10SM OVC045 05/M01 A3024 740 64 -200 310/11 RMK AO2
14926KSTC STC20051006171009710/06/05 17:10:31  5-MIN KSTC 062310Z 31009KT 10SM OVC045 05/M02 A3024 740 62 -200 310/09 RMK AO2
14926KSTC STC20051006171509710/06/05 17:15:31  5-MIN KSTC 062315Z 31008KT 10SM OVC043 05/M01 A3024 730 64 -200 310/08 RMK AO2
14926KSTC STC20051006172009710/06/05 17:20:31  5-MIN KSTC 062320Z 30011KT 10SM OVC043 05/M01 A3024 730 64 -200 300/11 RMK AO2
14926KSTC STC20051006172509710/06/05 17:25:31  5-MIN KSTC 062325Z 30008KT 10SM OVC041 05/M01 A3024 730 64 -200 300/08 RMK AO2
14926KSTC STC20051006173009710/06/05 17:30:31  5-MIN KSTC 062330Z 30008KT 10SM OVC043 05/M01 A3024 730 64 -200 290/08 RMK AO2
14926KSTC STC20051006173510410/06/05 17:35:31  5-MIN KSTC 062335Z 30009KT 10SM BKN043 OVC050 05/M01 A3024 730 64 -200 300/09 RMK AO2
14926KSTC STC20051006174010410/06/05 17:40:31  5-MIN KSTC 062340Z 31009KT 10SM BKN043 BKN050 04/M01 A3024 730 67 -300 300/09 RMK AO2
14926KSTC STC20051006174510410/06/05 17:45:31  5-MIN KSTC 062345Z 31008KT 10SM SCT043 BKN050 04/M01 A3025 730 67 -300 310/08 RMK AO2
14926KSTC STC20051006175013910/06/05 17:50:31  5-MIN KSTC 062350Z 31008KT 10SM BKN047 OVC055 04/M01 A3025 730 67 -300 300/08 RMK AO2 SLP261 T00441011 10056 20044 53003
14926KSTC STC20051006175510410/06/05 17:55:31  5-MIN KSTC 062355Z 31007KT 10SM BKN047 OVC055 04/M01 A3025 720 67 -300 300/07 RMK AO2
14926KSTC STC20051006180010410/06/05 18:00:31  5-MIN KSTC 070000Z 31009KT 10SM SCT038 OVC050 05/M01 A3025 720 64 -200 310/09 RMK AO2
14926KSTC STC20051006180510410/06/05 18:05:31  5-MIN KSTC 070005Z 32009KT 10SM SCT038 OVC050 05/M01 A3025 720 64 -200 320/09 RMK AO2
14926KSTC STC20051006181010410/06/05 18:10:31  5-MIN KSTC 070010Z 32008KT 10SM BKN036 OVC050 05/M01 A3025 720 64 -200 320/08 RMK AO2
14926KSTC STC20051006181510410/06/05 18:15:31  5-MIN KSTC 070015Z 31008KT 10SM BKN036 OVC049 05/M01 A3025 720 67 -200 310/08 RMK AO2
14926KSTC STC20051006182010410/06/05 18:20:31  5-MIN KSTC 070020Z 31007KT 10SM BKN038 OVC050 04/M01 A3025 720 70 -300 310/07 RMK AO2
14926KSTC STC20051006182510410/06/05 18:25:31  5-MIN KSTC 070025Z 31007KT 10SM BKN038 OVC050 04/M01 A3025 720 70 -300 300/07 RMK AO2
14926KSTC STC20051006183010410/06/05 18:30:31  5-MIN KSTC 070030Z 32008KT 10SM BKN036 OVC050 04/M01 A3025 720 70 -300 310/08 RMK AO2
14926KSTC STC20051006183510410/06/05 18:35:31  5-MIN KSTC 070035Z 31010KT 10SM SCT036 OVC050 04/M01 A3026 720 67 -300 310/10 RMK AO2
14926KSTC STC20051006184010410/06/05 18:40:31  5-MIN KSTC 070040Z 31010KT 10SM SCT036 OVC050 04/M01 A3026 710 67 -300 310/10 RMK AO2
14926KSTC STC20051006184510410/06/05 18:45:31  5-MIN KSTC 070045Z 32009KT 10SM FEW036 OVC050 04/M01 A3026 720 70 -300 310/09 RMK AO2
14926KSTC STC20051006185012110/06/05 18:50:31  5-MIN KSTC 070050Z 31008KT 10SM FEW036 OVC050 04/M01 A3026 720 70 -300 310/08 RMK AO2 SLP265 T00441006
14926KSTC STC20051006185510410/06/05 18:55:31  5-MIN KSTC 070055Z 31008KT 10SM FEW036 OVC055 04/M01 A3026 710 70 -300 310/08 RMK AO2
14926KSTC STC20051006190010410/06/05 19:00:31  5-MIN KSTC 070100Z 31007KT 10SM FEW036 OVC055 04/M01 A3026 720 70 -300 310/07 RMK AO2
14926KSTC STC20051006190510410/06/05 19:05:31  5-MIN KSTC 070105Z 31009KT 10SM FEW036 BKN055 04/M01 A3026 710 73 -400 310/09 RMK AO2
14926KSTC STC20051006191010410/06/05 19:10:31  5-MIN KSTC 070110Z 32008KT 10SM FEW036 BKN055 04/M01 A3026 710 73 -400 310/08 RMK AO2
14926KSTC STC20051006191510410/06/05 19:15:31  5-MIN KSTC 070115Z 32010KT 10SM SCT036 BKN055 04/M01 A3026 710 73 -400 320/10 RMK AO2
14926KSTC STC20051006192011110/06/05 19:20:31  5-MIN KSTC 070120Z 32007KT 10SM SCT036 BKN046 BKN055 04/M01 A3026 710 73 -400 320/07 RMK AO2
14926KSTC STC20051006192510410/06/05 19:25:31  5-MIN KSTC 070125Z 32009KT 10SM FEW036 SCT050 04/M01 A3026 710 73 -400 320/09 RMK AO2
14926KSTC STC20051006193010410/06/05 19:30:31  5-MIN KSTC 070130Z 32007KT 10SM FEW036 SCT050 04/M01 A3026 710 73 -400 320/07 RMK AO2
14926KSTC STC20051006193510410/06/05 19:35:31  5-MIN KSTC 070135Z 32007KT 10SM FEW036 SCT050 04/M01 A3027 710 73 -400 320/07 RMK AO2
14926KSTC STC20051006194011110/06/05 19:40:31  5-MIN KSTC 070140Z 32008KT 10SM FEW030 SCT037 SCT050 04/M01 A3027 710 73 -400 320/08 RMK AO2
14926KSTC STC20051006194510310/06/05 19:45:31  5-MIN KSTC 070145Z 32008KT 10SM SCT028 BKN050 04/00 A3027 700 76 -400 310/08 RMK AO2
14926KSTC STC20051006195012010/06/05 19:50:31  5-MIN KSTC 070150Z 32010KT 10SM SCT028 BKN050 04/00 A3027 700 76 -400 320/10 RMK AO2 SLP270 T00390000
14926KSTC STC20051006195510310/06/05 19:55:31  5-MIN KSTC 070155Z 32009KT 10SM FEW028 BKN050 04/00 A3027 700 76 -400 320/09 RMK AO2
14926KSTC STC20051006200011010/06/05 20:00:31  5-MIN KSTC 070200Z 32007KT 10SM FEW028 SCT038 BKN050 04/00 A3028 700 76 -400 310/07 RMK AO2
14926KSTC STC20051006200511010/06/05 20:05:31  5-MIN KSTC 070205Z 33006KT 10SM FEW028 SCT038 BKN050 03/00 A3028 700 79 -500 330/06 RMK AO2
14926KSTC STC20051006201010310/06/05 20:10:31  5-MIN KSTC 070210Z 34006KT 10SM FEW028 SCT050 03/00 A3028 700 79 -500 330/06 RMK AO2
14926KSTC STC20051006201509610/06/05 20:15:31  5-MIN KSTC 070215Z 32006KT 10SM FEW038 03/00 A3028 700 79 -500 320/06 RMK AO2
14926KSTC STC20051006202009610/06/05 20:20:31  5-MIN KSTC 070220Z 32005KT 10SM FEW040 03/00 A3028 690 79 -500 310/05 RMK AO2
14926KSTC STC20051006202509610/06/05 20:25:31  5-MIN KSTC 070225Z 31005KT 10SM FEW040 03/00 A3028 690 82 -500 310/05 RMK AO2
14926KSTC STC20051006203009610/06/05 20:30:31  5-MIN KSTC 070230Z 31006KT 10SM FEW042 03/01 A3028 690 85 -500 310/06 RMK AO2
14926KSTC STC20051006203510310/06/05 20:35:31  5-MIN KSTC 070235Z 32005KT 10SM FEW042 SCT050 03/01 A3028 690 85 -500 310/05 RMK AO2
14926KSTC STC20051006204010310/06/05 20:40:31  5-MIN KSTC 070240Z 31005KT 10SM FEW042 BKN050 03/01 A3028 690 89 -500 310/05 RMK AO2
14926KSTC STC20051006204509610/06/05 20:45:31  5-MIN KSTC 070245Z 31005KT 10SM BKN048 03/01 A3029 690 85 -500 300/05 RMK AO2
14926KSTC STC20051006205011910/06/05 20:50:31  5-MIN KSTC 070250Z 31006KT 10SM BKN046 03/01 A3029 690 82 -500 310/06 RMK AO2 SLP275 T00330006 51013
14926KSTC STC20051006205509610/06/05 20:55:31  5-MIN KSTC 070255Z 31007KT 10SM OVC046 04/01 A3029 690 79 -400 300/07 RMK AO2
14926KSTC STC20051006210009610/06/05 21:00:31  5-MIN KSTC 070300Z 31008KT 10SM OVC046 04/01 A3029 690 79 -400 300/08 RMK AO2
14926KSTC STC20051006210509610/06/05 21:05:31  5-MIN KSTC 070305Z 31008KT 10SM OVC046 04/00 A3029 690 76 -400 310/08 RMK AO2
14926KSTC STC20051006211009610/06/05 21:10:31  5-MIN KSTC 070310Z 31009KT 10SM OVC046 04/00 A3029 680 76 -400 310/09 RMK AO2
14926KSTC STC20051006211509610/06/05 21:15:31  5-MIN KSTC 070315Z 31009KT 10SM OVC048 04/00 A3029 680 76 -400 300/09 RMK AO2
14926KSTC STC20051006212009610/06/05 21:20:31  5-MIN KSTC 070320Z 31009KT 10SM OVC048 04/00 A3029 680 76 -400 310/09 RMK AO2
14926KSTC STC20051006212509610/06/05 21:25:31  5-MIN KSTC 070325Z 31009KT 10SM OVC048 04/00 A3029 680 76 -400 310/09 RMK AO2
14926KSTC STC20051006213009610/06/05 21:30:31  5-MIN KSTC 070330Z 32007KT 10SM OVC048 03/00 A3029 680 79 -500 310/07 RMK AO2
14926KSTC STC20051006213509610/06/05 21:35:31  5-MIN KSTC 070335Z 32009KT 10SM OVC048 03/00 A3030 680 79 -500 310/09 RMK AO2
14926KSTC STC20051006214009610/06/05 21:40:31  5-MIN KSTC 070340Z 32007KT 10SM OVC048 03/00 A3030 680 79 -500 320/07 RMK AO2
14926KSTC STC20051006214509610/06/05 21:45:31  5-MIN KSTC 070345Z 32007KT 10SM OVC048 03/00 A3030 680 79 -500 320/07 RMK AO2
14926KSTC STC20051006215011810/06/05 21:50:31  5-MIN KSTC 070350Z AUTO 33006KT 10SM OVC048 03/00 A3030 680 79 -500 320/06 RMK AO2 SLP278 T00330000
14926KSTC STC20051006215510110/06/05 21:55:31  5-MIN KSTC 070355Z AUTO 32005KT 10SM OVC048 03/00 A3030 680 79 -500 320/05 RMK AO2
14926KSTC STC20051006220010110/06/05 22:00:31  5-MIN KSTC 070400Z AUTO 32006KT 10SM OVC048 03/00 A3030 680 82 -500 320/06 RMK AO2
14926KSTC STC20051006220510110/06/05 22:05:31  5-MIN KSTC 070405Z AUTO 32006KT 10SM OVC048 03/00 A3030 680 82 -500 320/06 RMK AO2
14926KSTC STC20051006221010110/06/05 22:10:31  5-MIN KSTC 070410Z AUTO 32007KT 10SM OVC048 03/00 A3030 680 82 -500 320/07 RMK AO2
14926KSTC STC20051006221510110/06/05 22:15:31  5-MIN KSTC 070415Z AUTO 32007KT 10SM OVC048 03/00 A3030 680 82 -500 310/07 RMK AO2
14926KSTC STC20051006222010110/06/05 22:20:31  5-MIN KSTC 070420Z AUTO 32006KT 10SM OVC048 03/00 A3030 680 82 -600 320/06 RMK AO2
14926KSTC STC20051006222510110/06/05 22:25:31  5-MIN KSTC 070425Z AUTO 32004KT 10SM OVC048 03/00 A3030 680 82 -600 320/04 RMK AO2
14926KSTC STC20051006223010110/06/05 22:30:31  5-MIN KSTC 070430Z AUTO 32006KT 10SM OVC048 03/00 A3030 680 82 -600 310/06 RMK AO2
14926KSTC STC20051006223510110/06/05 22:35:31  5-MIN KSTC 070435Z AUTO 32005KT 10SM OVC048 03/00 A3030 680 82 -600 310/05 RMK AO2
14926KSTC STC20051006224010110/06/05 22:40:31  5-MIN KSTC 070440Z AUTO 32005KT 10SM OVC048 03/00 A3030 680 82 -600 320/05 RMK AO2
14926KSTC STC20051006224510110/06/05 22:45:31  5-MIN KSTC 070445Z AUTO VRB03KT 10SM OVC048 03/00 A3030 680 82 -600 VRB/03 RMK AO2
14926KSTC STC20051006225011810/06/05 22:50:31  5-MIN KSTC 070450Z AUTO 32003KT 10SM OVC048 03/00 A3030 680 82 -600 310/03 RMK AO2 SLP280 T00280000
14926KSTC STC20051006225510110/06/05 22:55:31  5-MIN KSTC 070455Z AUTO 00000KT 10SM OVC046 03/00 A3030 680 82 -600 000/00 RMK AO2
14926KSTC STC20051006230010110/06/05 23:00:31  5-MIN KSTC 070500Z AUTO VRB04KT 10SM OVC046 03/00 A3030 670 82 -600 VRB/04 RMK AO2
14926KSTC STC20051006230510110/06/05 23:05:31  5-MIN KSTC 070505Z AUTO 34005KT 10SM OVC046 03/00 A3030 670 79 -500 340/05 RMK AO2
14926KSTC STC20051006231010110/06/05 23:10:31  5-MIN KSTC 070510Z AUTO 35007KT 10SM OVC044 03/00 A3030 670 79 -500 350/07 RMK AO2
14926KSTC STC20051006231510110/06/05 23:15:31  5-MIN KSTC 070515Z AUTO 35006KT 10SM OVC044 03/00 A3030 670 79 -500 350/06 RMK AO2
14926KSTC STC20051006232010110/06/05 23:20:31  5-MIN KSTC 070520Z AUTO 35006KT 10SM OVC044 03/00 A3031 670 82 -600 350/06 RMK AO2
14926KSTC STC20051006232510110/06/05 23:25:31  5-MIN KSTC 070525Z AUTO 34007KT 10SM BKN044 03/00 A3031 670 82 -600 340/07 RMK AO2
14926KSTC STC20051006233010210/06/05 23:30:31  5-MIN KSTC 070530Z AUTO 35005KT 10SM BKN044 03/M01 A3031 670 79 -600 350/05 RMK AO2
14926KSTC STC20051006233510210/06/05 23:35:31  5-MIN KSTC 070535Z AUTO 35004KT 10SM BKN044 02/M01 A3031 670 82 -600 350/04 RMK AO2
14926KSTC STC20051006234010210/06/05 23:40:31  5-MIN KSTC 070540Z AUTO 34005KT 10SM BKN046 02/M01 A3031 670 82 -600 340/05 RMK AO2
14926KSTC STC20051006234510210/06/05 23:45:31  5-MIN KSTC 070545Z AUTO 35005KT 10SM BKN046 02/M01 A3031 670 82 -600 340/05 RMK AO2
14926KSTC STC20051006235014710/06/05 23:50:31  5-MIN KSTC 070550Z AUTO 34005KT 10SM BKN046 02/M01 A3031 670 82 -600 340/05 RMK AO2 SLP282 T00221006 10050 20022 400560022 53013
14926KSTC STC20051006235510210/06/05 23:55:31  5-MIN KSTC 070555Z AUTO 34004KT 10SM BKN046 02/M01 A3031 670 82 -600 340/04 RMK AO2
14926KSTC STC20051007000010210/07/05 00:00:32  5-MIN KSTC 070600Z AUTO 35005KT 10SM BKN046 02/M01 A3030 670 85 -700 350/05 RMK AO2
14926KSTC STC20051007000510210/07/05 00:05:31  5-MIN KSTC 070605Z AUTO 34004KT 10SM SCT046 02/M01 A3030 670 85 -700 340/04 RMK AO2
14926KSTC STC20051007001010210/07/05 00:10:31  5-MIN KSTC 070610Z AUTO 34005KT 10SM SCT046 02/M01 A3030 670 85 -700 340/05 RMK AO2
14926KSTC STC20051007001510210/07/05 00:15:31  5-MIN KSTC 070615Z AUTO 34004KT 10SM FEW046 02/M01 A3030 670 85 -700 340/04 RMK AO2
14926KSTC STC20051007002009910/07/05 00:20:31  5-MIN KSTC 070620Z AUTO 35004KT 10SM CLR 01/M01 A3030 670 89 -800 340/04 RMK AO2
14926KSTC STC20051007002509910/07/05 00:25:31  5-MIN KSTC 070625Z AUTO 35004KT 10SM CLR 01/M01 A3031 670 89 -800 350/04 RMK AO2
14926KSTC STC20051007003009910/07/05 00:30:31  5-MIN KSTC 070630Z AUTO 35004KT 10SM CLR 01/M01 A3031 670 89 -800 340/04 RMK AO2
14926KSTC STC20051007003509910/07/05 00:35:31  5-MIN KSTC 070635Z AUTO 35004KT 10SM CLR 01/M01 A3031 670 89 -800 350/04 RMK AO2
14926KSTC STC20051007004009910/07/05 00:40:31  5-MIN KSTC 070640Z AUTO 36004KT 10SM CLR 01/M01 A3031 670 89 -800 350/04 RMK AO2
14926KSTC STC20051007004509910/07/05 00:45:31  5-MIN KSTC 070645Z AUTO 36004KT 10SM CLR 01/M01 A3031 670 89 -800 360/04 RMK AO2
14926KSTC STC20051007005011610/07/05 00:50:31  5-MIN KSTC 070650Z AUTO 01004KT 10SM CLR 01/M01 A3031 670 85 -800 360/04 RMK AO2 SLP282 T00111011
14926KSTC STC20051007005509910/07/05 00:55:31  5-MIN KSTC 070655Z AUTO 36004KT 10SM CLR 01/M01 A3031 670 85 -800 360/04 RMK AO2
14926KSTC STC20051007010009910/07/05 01:00:31  5-MIN KSTC 070700Z AUTO 36004KT 10SM CLR 01/M01 A3031 670 89 -800 360/04 RMK AO2
14926KSTC STC20051007010509910/07/05 01:05:31  5-MIN KSTC 070705Z AUTO 36003KT 10SM CLR 01/M01 A3031 670 89 -800 360/03 RMK AO2
14926KSTC STC20051007011009910/07/05 01:10:31  5-MIN KSTC 070710Z AUTO 35004KT 10SM CLR 01/M01 A3031 670 89 -800 350/04 RMK AO2
14926KSTC STC20051007011509910/07/05 01:15:31  5-MIN KSTC 070715Z AUTO 35004KT 10SM CLR 01/M01 A3031 670 89 -800 350/04 RMK AO2
14926KSTC STC20051007012009910/07/05 01:20:31  5-MIN KSTC 070720Z AUTO 35004KT 10SM CLR 01/M01 A3031 670 89 -800 350/04 RMK AO2
14926KSTC STC20051007012509910/07/05 01:25:31  5-MIN KSTC 070725Z AUTO 35004KT 10SM CLR 01/M01 A3031 670 89 -800 350/04 RMK AO2
14926KSTC STC20051007013009910/07/05 01:30:31  5-MIN KSTC 070730Z AUTO 34005KT 10SM CLR 01/M01 A3031 670 89 -800 340/05 RMK AO2
14926KSTC STC20051007013509910/07/05 01:35:31  5-MIN KSTC 070735Z AUTO 34005KT 10SM CLR 01/M01 A3031 670 89 -800 340/05 RMK AO2
14926KSTC STC20051007014009910/07/05 01:40:31  5-MIN KSTC 070740Z AUTO 34005KT 10SM CLR 01/M01 A3031 670 89 -800 340/05 RMK AO2
14926KSTC STC20051007014509910/07/05 01:45:31  5-MIN KSTC 070745Z AUTO 34005KT 10SM CLR 01/M01 A3031 660 89 -800 340/05 RMK AO2
14926KSTC STC20051007015011610/07/05 01:50:31  5-MIN KSTC 070750Z AUTO 35005KT 10SM CLR 01/M01 A3032 660 89 -800 340/05 RMK AO2 SLP285 T00061011
14926KSTC STC20051007015509910/07/05 01:55:31  5-MIN KSTC 070755Z AUTO 35004KT 10SM CLR 01/M01 A3032 660 89 -900 340/04 RMK AO2
14926KSTC STC20051007020009910/07/05 02:00:31  5-MIN KSTC 070800Z AUTO 34004KT 10SM CLR 01/M01 A3032 660 89 -900 340/04 RMK AO2
14926KSTC STC20051007020509910/07/05 02:05:31  5-MIN KSTC 070805Z AUTO 35005KT 10SM CLR 01/M01 A3032 660 89 -900 340/05 RMK AO2
14926KSTC STC20051007021009910/07/05 02:10:31  5-MIN KSTC 070810Z AUTO 35004KT 10SM CLR 01/M01 A3032 660 89 -900 350/04 RMK AO2
14926KSTC STC20051007021509910/07/05 02:15:31  5-MIN KSTC 070815Z AUTO 36004KT 10SM CLR 00/M01 A3032 660 92 -900 350/04 RMK AO2
14926KSTC STC20051007022009910/07/05 02:20:31  5-MIN KSTC 070820Z AUTO 35004KT 10SM CLR 00/M01 A3032 660 92 -900 350/04 RMK AO2
14926KSTC STC20051007022509910/07/05 02:25:31  5-MIN KSTC 070825Z AUTO 36003KT 10SM CLR 00/M01 A3032 660 92 -900 350/03 RMK AO2
14926KSTC STC20051007023009910/07/05 02:30:31  5-MIN KSTC 070830Z AUTO 36003KT 10SM CLR 00/M01 A3032 660 92 -900 360/03 RMK AO2
14926KSTC STC20051007023509910/07/05 02:35:31  5-MIN KSTC 070835Z AUTO 02003KT 10SM CLR 00/M02 A3032 660 88 -900 010/03 RMK AO2
14926KSTC STC20051007024009910/07/05 02:40:31  5-MIN KSTC 070840Z AUTO 01003KT 10SM CLR 00/M02 A3032 660 88 -900 360/03 RMK AO2
14926KSTC STC20051007024509910/07/05 02:45:31  5-MIN KSTC 070845Z AUTO 01003KT 10SM CLR 00/M02 A3032 660 88 -900 010/03 RMK AO2
14926KSTC STC20051007025012210/07/05 02:50:31  5-MIN KSTC 070850Z AUTO 36003KT 10SM CLR 00/M02 A3032 660 88 -900 350/03 RMK AO2 SLP287 T00001017 51006
14926KSTC STC20051007025510110/07/05 02:55:31  5-MIN KSTC 070855Z AUTO 36003KT 10SM CLR M01/M02 A3032 660 92 -1000 360/03 RMK AO2
14926KSTC STC20051007030010110/07/05 03:00:31  5-MIN KSTC 070900Z AUTO 35003KT 10SM CLR M01/M02 A3032 650 92 -1000 350/03 RMK AO2
14926KSTC STC20051007030510110/07/05 03:05:31  5-MIN KSTC 070905Z AUTO 35004KT 10SM CLR M01/M02 A3033 650 92 -1000 340/04 RMK AO2
14926KSTC STC20051007031010110/07/05 03:10:31  5-MIN KSTC 070910Z AUTO 35004KT 10SM CLR M01/M02 A3032 660 92 -1000 350/04 RMK AO2
14926KSTC STC20051007031510110/07/05 03:15:31  5-MIN KSTC 070915Z AUTO 36003KT 10SM CLR M01/M02 A3032 660 92 -1000 350/03 RMK AO2
14926KSTC STC20051007032010110/07/05 03:20:31  5-MIN KSTC 070920Z AUTO 00000KT 10SM CLR M01/M02 A3033 650 92 -1000 000/00 RMK AO2
14926KSTC STC20051007032510110/07/05 03:25:31  5-MIN KSTC 070925Z AUTO 00000KT 10SM CLR M01/M02 A3033 650 92 -1000 000/00 RMK AO2
14926KSTC STC20051007033010110/07/05 03:30:31  5-MIN KSTC 070930Z AUTO 00000KT 10SM CLR M01/M02 A3033 650 92 -1000 000/00 RMK AO2
14926KSTC STC20051007033510110/07/05 03:35:31  5-MIN KSTC 070935Z AUTO 00000KT 10SM CLR M01/M02 A3033 650 92 -1000 000/00 RMK AO2
14926KSTC STC20051007034010110/07/05 03:40:31  5-MIN KSTC 070940Z AUTO 01003KT 10SM CLR M01/M02 A3033 650 92 -1000 010/03 RMK AO2
14926KSTC STC20051007034510110/07/05 03:45:31  5-MIN KSTC 070945Z AUTO 01003KT 10SM CLR M01/M02 A3033 650 92 -1000 010/03 RMK AO2
14926KSTC STC20051007035011810/07/05 03:50:31  5-MIN KSTC 070950Z AUTO 01003KT 10SM CLR M01/M02 A3033 650 92 -1000 010/03 RMK AO2 SLP290 T10061017
14926KSTC STC20051007035510110/07/05 03:55:31  5-MIN KSTC 070955Z AUTO 01003KT 10SM CLR M01/M02 A3033 650 92 -1000 360/03 RMK AO2
14926KSTC STC20051007040010110/07/05 04:00:31  5-MIN KSTC 071000Z AUTO 01003KT 10SM CLR M01/M02 A3033 650 92 -1100 360/03 RMK AO2
14926KSTC STC20051007040510110/07/05 04:05:31  5-MIN KSTC 071005Z AUTO 36003KT 10SM CLR M01/M02 A3033 650 92 -1100 350/03 RMK AO2
14926KSTC STC20051007041010110/07/05 04:10:31  5-MIN KSTC 071010Z AUTO 35003KT 10SM CLR M01/M02 A3033 650 92 -1100 350/03 RMK AO2
14926KSTC STC20051007041510110/07/05 04:15:31  5-MIN KSTC 071015Z AUTO 00000KT 10SM CLR M01/M02 A3033 650 92 -1100 000/00 RMK AO2
14926KSTC STC20051007042010110/07/05 04:20:31  5-MIN KSTC 071020Z AUTO 02003KT 10SM CLR M01/M02 A3033 650 96 -1100 020/03 RMK AO2
14926KSTC STC20051007042510110/07/05 04:25:31  5-MIN KSTC 071025Z AUTO 00000KT 10SM CLR M01/M02 A3033 650 92 -1100 000/00 RMK AO2
14926KSTC STC20051007043010110/07/05 04:30:31  5-MIN KSTC 071030Z AUTO 01003KT 10SM CLR M01/M02 A3032 650 92 -1100 010/03 RMK AO2
14926KSTC STC20051007043510110/07/05 04:35:31  5-MIN KSTC 071035Z AUTO 00000KT 10SM CLR M02/M03 A3032 650 92 -1100 000/00 RMK AO2
14926KSTC STC20051007044010110/07/05 04:40:31  5-MIN KSTC 071040Z AUTO 00000KT 10SM CLR M02/M03 A3033 650 92 -1100 000/00 RMK AO2
14926KSTC STC20051007044510110/07/05 04:45:31  5-MIN KSTC 071045Z AUTO 00000KT 10SM CLR M02/M03 A3033 650 92 -1100 000/00 RMK AO2
14926KSTC STC20051007045011810/07/05 04:50:31  5-MIN KSTC 071050Z AUTO 00000KT 10SM CLR M02/M03 A3033 650 96 -1200 000/00 RMK AO2 SLP291 T10221028
14926KSTC STC20051007045510110/07/05 04:55:31  5-MIN KSTC 071055Z AUTO 00000KT 10SM CLR M02/M03 A3033 650 92 -1100 000/00 RMK AO2
14926KSTC STC20051007050010110/07/05 05:00:31  5-MIN KSTC 071100Z AUTO 00000KT 10SM CLR M02/M02 A3033 650 96 -1200 000/00 RMK AO2
14926KSTC STC20051007050510110/07/05 05:05:31  5-MIN KSTC 071105Z AUTO 00000KT 10SM CLR M02/M03 A3034 640 92 -1200 000/00 RMK AO2
14926KSTC STC20051007051010110/07/05 05:10:31  5-MIN KSTC 071110Z AUTO 35003KT 10SM CLR M02/M03 A3034 640 92 -1200 350/03 RMK AO2
14926KSTC STC20051007051510110/07/05 05:15:31  5-MIN KSTC 071115Z AUTO 00000KT 10SM CLR M02/M03 A3034 640 92 -1200 000/00 RMK AO2
14926KSTC STC20051007052010110/07/05 05:20:31  5-MIN KSTC 071120Z AUTO 35003KT 10SM CLR M02/M02 A3034 640 96 -1200 350/03 RMK AO2
14926KSTC STC20051007052510110/07/05 05:25:31  5-MIN KSTC 071125Z AUTO 36003KT 10SM CLR M01/M02 A3034 640 92 -1100 360/03 RMK AO2
14926KSTC STC20051007053010110/07/05 05:30:31  5-MIN KSTC 071130Z AUTO 36003KT 10SM CLR M02/M03 A3034 640 92 -1200 360/03 RMK AO2
14926KSTC STC20051007053510110/07/05 05:35:31  5-MIN KSTC 071135Z AUTO 01003KT 10SM CLR M02/M03 A3034 640 92 -1200 010/03 RMK AO2
14926KSTC STC20051007054010110/07/05 05:40:31  5-MIN KSTC 071140Z AUTO 02003KT 10SM CLR M01/M02 A3034 640 92 -1100 020/03 RMK AO2
14926KSTC STC20051007054510110/07/05 05:45:31  5-MIN KSTC 071145Z AUTO 02003KT 10SM CLR M02/M02 A3034 640 96 -1200 020/03 RMK AO2
14926KSTC STC20051007055013610/07/05 05:50:31  5-MIN KSTC 071150Z AUTO 36003KT 10SM CLR M02/M02 A3034 640 96 -1200 360/03 RMK AO2 SLP295 T10171022 10022 21022 53005
14926KSTC STC20051007055510110/07/05 05:55:31  5-MIN KSTC 071155Z AUTO 00000KT 10SM CLR M02/M02 A3034 640 96 -1200 000/00 RMK AO2
14926KSTC STC20051007060010110/07/05 06:00:31  5-MIN KSTC 071200Z AUTO 00000KT 10SM CLR M01/M02 A3034 640 92 -1100 000/00 RMK AO2
14926KSTC STC20051007060509610/07/05 06:05:31  5-MIN KSTC 071205Z 01003KT 10SM CLR M01/M02 A3034 640 92 -1100 010/03 RMK AO2
14926KSTC STC20051007061009610/07/05 06:10:31  5-MIN KSTC 071210Z 00000KT 10SM CLR M01/M02 A3034 640 92 -1100 000/00 RMK AO2
14926KSTC STC20051007061509610/07/05 06:15:31  5-MIN KSTC 071215Z 02003KT 10SM CLR M01/M02 A3034 640 92 -1100 020/03 RMK AO2
14926KSTC STC20051007062009610/07/05 06:20:31  5-MIN KSTC 071220Z 02003KT 10SM CLR M01/M03 A3034 640 88 -1100 010/03 RMK AO2
14926KSTC STC20051007062509610/07/05 06:25:31  5-MIN KSTC 071225Z 00000KT 10SM CLR M01/M02 A3034 640 92 -1100 000/00 RMK AO2
14926KSTC STC20051007063009610/07/05 06:30:31  5-MIN KSTC 071230Z 01003KT 10SM CLR M01/M02 A3034 640 92 -1100 010/03 RMK AO2
14926KSTC STC20051007063509610/07/05 06:35:31  5-MIN KSTC 071235Z 00000KT 10SM CLR M01/M03 A3034 640 88 -1100 000/00 RMK AO2
14926KSTC STC20051007064009610/07/05 06:40:31  5-MIN KSTC 071240Z 00000KT 10SM CLR M01/M03 A3034 640 88 -1100 000/00 RMK AO2
14926KSTC STC20051007064509610/07/05 06:45:31  5-MIN KSTC 071245Z 00000KT 10SM CLR M01/M02 A3034 640 92 -1100 000/00 RMK AO2
14926KSTC STC20051007065011510/07/05 06:50:31  5-MIN KSTC 071250Z 00000KT 10SM CLR M01/M02 A3034 640 92 -1100 000/00 RMK AO2 SLP296 T10111022 $
14926KSTC STC20051007065509810/07/05 06:55:31  5-MIN KSTC 071255Z 01003KT 10SM CLR M01/M02 A3035 640 92 -1100 360/03 RMK AO2 $
14926KSTC STC20051007070009810/07/05 07:00:31  5-MIN KSTC 071300Z 00000KT 10SM CLR M01/M02 A3034 640 92 -1100 000/00 RMK AO2 $
14926KSTC STC20051007070509810/07/05 07:05:31  5-MIN KSTC 071305Z 03003KT 10SM CLR M01/M02 A3034 640 96 -1100 020/03 RMK AO2 $
14926KSTC STC20051007071008310/07/05 07:10:31  5-MIN KSTC 071310Z 04004KT 10SM CLR A3034 M M M 030/04 RMK AO2 $
14926KSTC STC20051007071509610/07/05 07:15:31  5-MIN KSTC 071315Z VRB04KT 10SM CLR 00/M02 A3034 640 88 -900 VRB/04 RMK AO2 $
14926KSTC STC20051007072009710/07/05 07:20:31  5-MIN KSTC 071320Z 04004KT 10SM CLR 00/M02 A3034 640 88 -1000 040/04 RMK AO2 $
14926KSTC STC20051007072509310/07/05 07:25:31  5-MIN KSTC 071325Z VRB03KT 10SM 00/M01 A3034 640 92 -1000 VRB/03 RMK AO2 $
14926KSTC STC20051007073009210/07/05 07:30:31  5-MIN KSTC 071330Z 04003KT 10SM 01/M01 A3034 640 89 -900 040/03 RMK AO2 $
14926KSTC STC20051007073509210/07/05 07:35:31  5-MIN KSTC 071335Z VRB03KT 10SM 01/M01 A3035 640 89 -900 VRB/03 RMK AO2 $
14926KSTC STC20051007074009210/07/05 07:40:31  5-MIN KSTC 071340Z 05004KT 10SM 01/M01 A3035 630 89 -900 050/04 RMK AO2 $
14926KSTC STC20051007074509210/07/05 07:45:31  5-MIN KSTC 071345Z 04005KT 10SM 01/M01 A3035 630 85 -800 040/05 RMK AO2 $
14926KSTC STC20051007075010910/07/05 07:50:31  5-MIN KSTC 071350Z 04004KT 10SM 01/M01 A3035 630 85 -800 040/04 RMK AO2 SLP297 T00111011 $
14926KSTC STC20051007075509210/07/05 07:55:31  5-MIN KSTC 071355Z 05004KT 10SM 01/M01 A3035 630 85 -800 050/04 RMK AO2 $
14926KSTC STC20051007080009210/07/05 08:00:31  5-MIN KSTC 071400Z 04004KT 10SM 02/M01 A3035 630 85 -700 040/04 RMK AO2 $
14926KSTC STC20051007080509210/07/05 08:05:31  5-MIN KSTC 071405Z 04004KT 10SM 02/M01 A3035 630 85 -700 030/04 RMK AO2 $
14926KSTC STC20051007081009210/07/05 08:10:31  5-MIN KSTC 071410Z 05004KT 10SM 02/M01 A3035 630 82 -700 050/04 RMK AO2 $
14926KSTC STC20051007081509210/07/05 08:15:31  5-MIN KSTC 071415Z 06004KT 10SM 02/M01 A3035 630 82 -700 050/04 RMK AO2 $
14926KSTC STC20051007082009210/07/05 08:20:31  5-MIN KSTC 071420Z 06004KT 10SM 02/M01 A3035 630 82 -700 060/04 RMK AO2 $
14926KSTC STC20051007082509210/07/05 08:25:31  5-MIN KSTC 071425Z 06005KT 10SM 03/M01 A3034 640 79 -600 060/05 RMK AO2 $
14926KSTC STC20051007083009210/07/05 08:30:31  5-MIN KSTC 071430Z 09006KT 10SM 03/M01 A3034 640 75 -600 090/06 RMK AO2 $
14926KSTC STC20051007083509210/07/05 08:35:31  5-MIN KSTC 071435Z 09005KT 10SM 03/M01 A3034 640 79 -600 090/05 RMK AO2 $
14926KSTC STC20051007084009210/07/05 08:40:31  5-MIN KSTC 071440Z VRB04KT 10SM 03/M01 A3034 640 79 -600 VRB/04 RMK AO2 $
14926KSTC STC20051007084509210/07/05 08:45:31  5-MIN KSTC 071445Z VRB04KT 10SM 03/M01 A3034 640 76 -500 VRB/04 RMK AO2 $
14926KSTC STC20051007085011510/07/05 08:50:31  5-MIN KSTC 071450Z 08006KT 10SM 03/M01 A3034 640 76 -500 070/06 RMK AO2 SLP293 T00331006 53006 $
14926KSTC STC20051007085509210/07/05 08:55:31  5-MIN KSTC 071455Z 06005KT 10SM 03/M01 A3034 640 76 -500 060/05 RMK AO2 $
14926KSTC STC20051007090009210/07/05 09:00:31  5-MIN KSTC 071500Z 10005KT 10SM 04/M01 A3034 640 73 -500 100/05 RMK AO2 $
14926KSTC STC20051007090509210/07/05 09:05:31  5-MIN KSTC 071505Z 13006KT 10SM 04/M01 A3034 640 73 -500 120/06 RMK AO2 $
14926KSTC STC20051007091010810/07/05 09:10:31  5-MIN KSTC 071510Z 11007KT 070V140 10SM 04/M01 A3034 640 70 -500 110/07 070V140 RMK AO2 $
14926KSTC STC20051007091509210/07/05 09:15:31  5-MIN KSTC 071515Z VRB05KT 10SM 04/M01 A3034 640 70 -400 VRB/05 RMK AO2 $
14926KSTC STC20051007092009210/07/05 09:20:31  5-MIN KSTC 071520Z 08007KT 10SM 04/M01 A3033 650 70 -400 080/07 RMK AO2 $
14926KSTC STC20051007092509210/07/05 09:25:31  5-MIN KSTC 071525Z 08007KT 10SM 04/M01 A3033 650 70 -500 080/07 RMK AO2 $
14926KSTC STC20051007093009210/07/05 09:30:31  5-MIN KSTC 071530Z 09006KT 10SM 04/M01 A3033 650 67 -400 090/06 RMK AO2 $
14926KSTC STC20051007093509210/07/05 09:35:31  5-MIN KSTC 071535Z 08005KT 10SM 04/M01 A3033 650 70 -400 080/05 RMK AO2 $
14926KSTC STC20051007094009210/07/05 09:40:31  5-MIN KSTC 071540Z VRB05KT 10SM 04/M01 A3033 650 67 -400 VRB/05 RMK AO2 $
14926KSTC STC20051007094509210/07/05 09:45:31  5-MIN KSTC 071545Z VRB03KT 10SM 05/M01 A3033 650 64 -300 VRB/03 RMK AO2 $
14926KSTC STC20051007095010910/07/05 09:50:31  5-MIN KSTC 071550Z 14007KT 10SM 06/M01 A3033 650 62 -200 140/07 RMK AO2 SLP287 T00561011 $
14926KSTC STC20051007095509210/07/05 09:55:31  5-MIN KSTC 071555Z VRB04KT 10SM 05/M01 A3033 650 64 -300 VRB/04 RMK AO2 $
14926KSTC STC20051007100009210/07/05 10:00:31  5-MIN KSTC 071600Z 14006KT 10SM 05/M01 A3032 650 64 -300 140/06 RMK AO2 $
14926KSTC STC20051007100509210/07/05 10:05:31  5-MIN KSTC 071605Z VRB04KT 10SM 05/M02 A3032 660 62 -300 VRB/04 RMK AO2 $
14926KSTC STC20051007101008710/07/05 10:10:31  5-MIN KSTC 071610Z 13004KT 04/M01 A3032 660 67 -400 130/04 RMK AO2 $
14926KSTC STC20051007101508710/07/05 10:15:31  5-MIN KSTC 071615Z 10005KT 05/M01 A3032 660 64 -300 090/05 RMK AO2 $
14926KSTC STC20051007102008710/07/05 10:20:31  5-MIN KSTC 071620Z VRB04KT 05/M02 A3032 660 62 -300 VRB/04 RMK AO2 $
14926KSTC STC20051007102508710/07/05 10:25:31  5-MIN KSTC 071625Z VRB05KT 06/M01 A3032 660 60 -200 VRB/05 RMK AO2 $
14926KSTC STC20051007103008810/07/05 10:30:31  5-MIN KSTC 071630Z 14007KT 07/M01 A3032 660 55 0 140/07 RMK AO2 PNO $
14926KSTC STC20051007103508810/07/05 10:35:31  5-MIN KSTC 071635Z 14007KT 07/M01 A3032 660 55 0 140/07 RMK AO2 PNO $
14926KSTC STC20051007104008810/07/05 10:40:31  5-MIN KSTC 071640Z 14006KT 07/M01 A3031 660 55 0 140/06 RMK AO2 PNO $
14926KSTC STC20051007104508910/07/05 10:45:31  5-MIN KSTC 071645Z VRB05KT 07/M02 A3031 670 55 -100 VRB/05 RMK AO2 PNO
14926KSTC STC20051007105009910/07/05 10:50:31  5-MIN KSTC 071650Z VRB04KT 07/M02 A3031 670 53 0 VRB/04 RMK AO2 SLP282 T00721017
14926KSTC STC20051007105509210/07/05 10:55:31  5-MIN KSTC 071655Z 13004KT FEW027 07/M02 A3031 670 55 -100 130/04 RMK AO2
14926KSTC STC20051007110009410/07/05 11:00:31  5-MIN KSTC 071700Z VRB05KT FEW027 07/M02 A3031 670 55 -100 VRB/05 RMK AO2 $
14926KSTC STC20051007110507810/07/05 11:05:31  5-MIN KSTC 071705Z CLR 07/M02 A3031 670 53 0 M /M RMK AO2 $
14926KSTC STC20051007111008610/07/05 11:10:31  5-MIN KSTC 071710Z 10SM CLR 07/M01 A3030 670 57 -100 M /M RMK AO2 $
14926KSTC STC20051007111508910/07/05 11:15:31  5-MIN KSTC 071715Z 10SM FEW030 07/M02 A3030 670 53 -100 M /M RMK AO2 $
14926KSTC STC20051007112008610/07/05 11:20:31  5-MIN KSTC 071720Z 10SM SCT032 07/M02 A3030 680 53 0 M /M RMK AO2 $
14926KSTC STC20051007112509810/07/05 11:25:31  5-MIN KSTC 071725Z 16006KT 10SM BKN032 08/M01 A3030 680 51 100 160/06 RMK AO2 $
14926KSTC STC20051007113010210/07/05 11:30:31  5-MIN KSTC 071730Z VRB06KT 10SM BKN032 08/M01 A3030 680 51 100 VRB/06 RMK AO2 PNO $
14926KSTC STC20051007113510210/07/05 11:35:31  5-MIN KSTC 071735Z 14007KT 10SM BKN032 09/M02 A3030 680 47 100 140/07 RMK AO2 PNO $
14926KSTC STC20051007114010010/07/05 11:40:31  5-MIN KSTC 071740Z 00000KT 10SM BKN032 07/M02 A3029 680 53 0 000/00 RMK AO2 PNO $
14926KSTC STC20051007114510010/07/05 11:45:31  5-MIN KSTC 071745Z 13003KT 10SM BKN032 08/M02 A3029 690 51 0 130/03 RMK AO2 PNO $
14926KSTC STC20051007115014110/07/05 11:50:31  5-MIN KSTC 071750Z VRB03KT 10SM BKN032 08/M02 A3029 690 51 0 VRB/03 RMK AO2 SLP275 6//// T00781017 10089 21017 50001 PNO $
14926KSTC STC20051007115510010/07/05 11:55:31  5-MIN KSTC 071755Z 04006KT 10SM BKN034 08/M01 A3029 690 53 0 040/06 RMK AO2 PNO $
14926KSTC STC20051007120009410/07/05 12:00:31  5-MIN KSTC 071800Z 00000KT 10SM BKN034 08/M01 A3028 690 53 0 000/00 RMK AO2
14926KSTC STC20051007120509610/07/05 12:05:31  5-MIN KSTC 071805Z 17005KT 10SM BKN034 08/M01 A3028 690 51 100 170/05 RMK AO2
14926KSTC STC20051007121009510/07/05 12:10:31  5-MIN KSTC 071810Z VRB05KT 9SM BKN034 09/M01 A3028 690 49 200 VRB/05 RMK AO2
14926KSTC STC20051007121509510/07/05 12:15:31  5-MIN KSTC 071815Z VRB04KT 9SM BKN034 09/M01 A3028 690 49 200 VRB/04 RMK AO2
14926KSTC STC20051007122009410/07/05 12:20:31  5-MIN KSTC 071820Z VRB04KT 10SM BKN034 08/M02 A3028 700 51 0 VRB/04 RMK AO2
14926KSTC STC20051007122509610/07/05 12:25:31  5-MIN KSTC 071825Z VRB04KT 10SM BKN034 08/M01 A3028 700 51 100 VRB/04 RMK AO2
14926KSTC STC20051007123009610/07/05 12:30:31  5-MIN KSTC 071830Z VRB05KT 10SM BKN034 09/M01 A3027 700 49 200 VRB/05 RMK AO2
14926KSTC STC20051007123509610/07/05 12:35:31  5-MIN KSTC 071835Z VRB04KT 10SM BKN036 08/M02 A3027 700 49 100 VRB/04 RMK AO2
14926KSTC STC20051007124009410/07/05 12:40:31  5-MIN KSTC 071840Z 00000KT 10SM OVC036 08/M02 A3027 710 51 0 000/00 RMK AO2
14926KSTC STC20051007124510110/07/05 12:45:31  5-MIN KSTC 071845Z AUTO 14007KT 10SM OVC036 08/M01 A3027 710 51 100 140/07 RMK AO2
14926KSTC STC20051007125011810/07/05 12:50:31  5-MIN KSTC 071850Z AUTO VRB05KT 10SM BKN036 08/M01 A3027 710 51 100 VRB/05 RMK AO2 SLP266 T00831011
14926KSTC STC20051007125510110/07/05 12:55:31  5-MIN KSTC 071855Z AUTO 18006KT 10SM BKN036 08/M02 A3026 710 49 100 180/06 RMK AO2
14926KSTC STC20051007130010110/07/05 13:00:31  5-MIN KSTC 071900Z AUTO VRB05KT 10SM SCT036 08/M02 A3026 720 49 100 VRB/05 RMK AO2
14926KSTC STC20051007130510110/07/05 13:05:31  5-MIN KSTC 071905Z AUTO 17007KT 10SM SCT036 08/M02 A3025 720 49 100 170/07 RMK AO2
14926KSTC STC20051007131010110/07/05 13:10:31  5-MIN KSTC 071910Z AUTO 10007KT 10SM FEW038 09/M01 A3025 720 49 200 100/07 RMK AO2
14926KSTC STC20051007131510110/07/05 13:15:31  5-MIN KSTC 071915Z AUTO 11006KT 10SM FEW038 08/M02 A3025 720 49 100 110/06 RMK AO2
14926KSTC STC20051007132009810/07/05 13:20:31  5-MIN KSTC 071920Z AUTO VRB05KT 10SM CLR 08/M02 A3025 730 49 100 VRB/05 RMK AO2
14926KSTC STC20051007132509810/07/05 13:25:31  5-MIN KSTC 071925Z AUTO 16006KT 10SM CLR 09/M02 A3024 730 47 200 160/06 RMK AO2
14926KSTC STC20051007133011410/07/05 13:30:31  5-MIN KSTC 071930Z AUTO 11009KT 060V130 10SM CLR 09/M01 A3024 730 49 200 100/09 060V130 RMK AO2
14926KSTC STC20051007133509810/07/05 13:35:31  5-MIN KSTC 071935Z AUTO VRB04KT 10SM CLR 08/M02 A3024 730 49 100 VRB/04 RMK AO2
14926KSTC STC20051007134010110/07/05 13:40:31  5-MIN KSTC 071940Z AUTO 00000KT 10SM FEW040 08/M02 A3024 730 47 100 000/00 RMK AO2
14926KSTC STC20051007134510110/07/05 13:45:31  5-MIN KSTC 071945Z AUTO VRB06KT 10SM FEW040 08/M02 A3024 730 47 100 VRB/06 RMK AO2
14926KSTC STC20051007135011510/07/05 13:50:31  5-MIN KSTC 071950Z AUTO VRB05KT 10SM CLR 09/M02 A3024 740 47 200 VRB/05 RMK AO2 SLP256 T00891017
14926KSTC STC20051007135509810/07/05 13:55:31  5-MIN KSTC 071955Z AUTO VRB06KT 10SM CLR 09/M02 A3023 740 47 200 VRB/06 RMK AO2
14926KSTC STC20051007140009810/07/05 14:00:31  5-MIN KSTC 072000Z AUTO 08004KT 10SM CLR 08/M02 A3023 740 47 200 080/04 RMK AO2
14926KSTC STC20051007140509810/07/05 14:05:31  5-MIN KSTC 072005Z AUTO 12007KT 10SM CLR 09/M02 A3023 740 45 200 120/07 RMK AO2
14926KSTC STC20051007141009810/07/05 14:10:31  5-MIN KSTC 072010Z AUTO 10007KT 10SM CLR 09/M02 A3023 750 45 200 090/07 RMK AO2
14926KSTC STC20051007141509810/07/05 14:15:31  5-MIN KSTC 072015Z AUTO 07004KT 10SM CLR 09/M02 A3022 750 45 200 060/04 RMK AO2
14926KSTC STC20051007142009810/07/05 14:20:31  5-MIN KSTC 072020Z AUTO VRB06KT 10SM CLR 09/M02 A3022 750 47 200 VRB/06 RMK AO2
14926KSTC STC20051007142509810/07/05 14:25:31  5-MIN KSTC 072025Z AUTO VRB06KT 10SM CLR 09/M02 A3022 750 47 200 VRB/06 RMK AO2
14926KSTC STC20051007143009810/07/05 14:30:31  5-MIN KSTC 072030Z AUTO VRB06KT 10SM CLR 09/M02 A3022 750 47 200 VRB/06 RMK AO2
14926KSTC STC20051007143509810/07/05 14:35:31  5-MIN KSTC 072035Z AUTO 11004KT 10SM CLR 09/M02 A3022 750 47 200 100/04 RMK AO2
14926KSTC STC20051007144009810/07/05 14:40:31  5-MIN KSTC 072040Z AUTO 13006KT 10SM CLR 09/M02 A3022 750 47 200 130/06 RMK AO2
14926KSTC STC20051007144509310/07/05 14:45:31  5-MIN KSTC 072045Z VRB05KT 10SM CLR 09/M02 A3021 760 47 200 VRB/05 RMK AO2
14926KSTC STC20051007145011610/07/05 14:50:31  5-MIN KSTC 072050Z 06006KT 10SM CLR 09/M02 A3021 760 47 200 060/06 RMK AO2 SLP248 T00891017 58017
14926KSTC STC20051007145509310/07/05 14:55:31  5-MIN KSTC 072055Z 09007KT 10SM CLR 09/M02 A3021 760 45 300 080/07 RMK AO2
14926KSTC STC20051007150009310/07/05 15:00:31  5-MIN KSTC 072100Z VRB04KT 10SM CLR 09/M02 A3021 760 47 200 VRB/04 RMK AO2
14926KSTC STC20051007150509310/07/05 15:05:31  5-MIN KSTC 072105Z 11006KT 10SM CLR 09/M01 A3021 760 47 300 110/06 RMK AO2
14926KSTC STC20051007151009310/07/05 15:10:31  5-MIN KSTC 072110Z VRB05KT 10SM CLR 09/M02 A3021 760 47 300 VRB/05 RMK AO2
14926KSTC STC20051007151509310/07/05 15:15:31  5-MIN KSTC 072115Z 14007KT 10SM CLR 09/M02 A3020 760 47 300 140/07 RMK AO2
14926KSTC STC20051007152009310/07/05 15:20:31  5-MIN KSTC 072120Z 14009KT 10SM CLR 09/M02 A3020 760 47 300 140/09 RMK AO2
14926KSTC STC20051007152509310/07/05 15:25:31  5-MIN KSTC 072125Z 11006KT 10SM CLR 09/M02 A3020 760 47 300 100/06 RMK AO2
14926KSTC STC20051007153009310/07/05 15:30:31  5-MIN KSTC 072130Z 10006KT 10SM CLR 09/M02 A3020 770 47 300 090/06 RMK AO2
14926KSTC STC20051007153509310/07/05 15:35:31  5-MIN KSTC 072135Z 12006KT 10SM CLR 09/M02 A3020 770 47 300 120/06 RMK AO2
14926KSTC STC20051007154009310/07/05 15:40:31  5-MIN KSTC 072140Z VRB06KT 10SM CLR 09/M02 A3020 770 47 300 VRB/06 RMK AO2
14926KSTC STC20051007154509310/07/05 15:45:31  5-MIN KSTC 072145Z 09006KT 10SM CLR 09/M02 A3020 770 47 300 090/06 RMK AO2
14926KSTC STC20051007155010910/07/05 15:50:31  5-MIN KSTC 072150Z 15009KT 8SM CLR 09/M02 A3020 770 47 300 140/09 RMK AO2 SLP244 T00891017
14926KSTC STC20051007155511110/07/05 15:55:31  5-MIN KSTC 072155Z 08007KT 060V120 6SM HZ CLR 09/M02 A3020 770 47 300 080/07 060V120 RMK AO2
14926KSTC STC20051007160009210/07/05 16:00:31  5-MIN KSTC 072200Z VRB05KT 7SM CLR 09/M02 A3020 770 47 300 VRB/05 RMK AO2
14926KSTC STC20051007160509310/07/05 16:05:31  5-MIN KSTC 072205Z 11006KT 10SM CLR 09/M02 A3019 770 47 300 110/06 RMK AO2
14926KSTC STC20051007161009310/07/05 16:10:31  5-MIN KSTC 072210Z 10006KT 10SM CLR 09/M02 A3019 780 47 300 100/06 RMK AO2
14926KSTC STC20051007161509310/07/05 16:15:31  5-MIN KSTC 072215Z 09006KT 10SM CLR 09/M02 A3019 780 47 300 090/06 RMK AO2
14926KSTC STC20051007162010910/07/05 16:20:31  5-MIN KSTC 072220Z 10007KT 070V130 10SM CLR 09/M01 A3018 780 49 300 100/07 070V130 RMK AO2
14926KSTC STC20051007162509310/07/05 16:25:31  5-MIN KSTC 072225Z 12005KT 10SM CLR 08/M02 A3018 780 49 200 120/05 RMK AO2
14926KSTC STC20051007163009310/07/05 16:30:31  5-MIN KSTC 072230Z 12007KT 10SM CLR 08/M01 A3018 780 51 200 120/07 RMK AO2
14926KSTC STC20051007163509310/07/05 16:35:31  5-MIN KSTC 072235Z 09005KT 10SM CLR 08/M01 A3019 780 51 200 090/05 RMK AO2
14926KSTC STC20051007164009310/07/05 16:40:31  5-MIN KSTC 072240Z 10004KT 10SM CLR 08/M01 A3018 780 51 200 100/04 RMK AO2
14926KSTC STC20051007164509310/07/05 16:45:31  5-MIN KSTC 072245Z VRB06KT 10SM CLR 08/M01 A3018 790 51 200 VRB/06 RMK AO2
14926KSTC STC20051007165011010/07/05 16:50:31  5-MIN KSTC 072250Z 12007KT 10SM CLR 08/M01 A3018 790 51 200 120/07 RMK AO2 SLP239 T00831011
14926KSTC STC20051007165509310/07/05 16:55:31  5-MIN KSTC 072255Z 11006KT 10SM CLR 08/M01 A3018 790 51 200 100/06 RMK AO2
14926KSTC STC20051007170009310/07/05 17:00:31  5-MIN KSTC 072300Z 12007KT 10SM CLR 08/M01 A3018 780 53 100 120/07 RMK AO2
14926KSTC STC20051007170509310/07/05 17:05:31  5-MIN KSTC 072305Z 12006KT 10SM CLR 08/M01 A3018 780 53 100 110/06 RMK AO2
14926KSTC STC20051007171009310/07/05 17:10:31  5-MIN KSTC 072310Z 11006KT 10SM CLR 08/M01 A3019 780 53 100 110/06 RMK AO2
14926KSTC STC20051007171509310/07/05 17:15:31  5-MIN KSTC 072315Z 12005KT 10SM CLR 08/M01 A3019 780 53 100 110/05 RMK AO2
14926KSTC STC20051007172009310/07/05 17:20:31  5-MIN KSTC 072320Z 13005KT 10SM CLR 07/M01 A3019 780 55 100 120/05 RMK AO2
14926KSTC STC20051007172509310/07/05 17:25:31  5-MIN KSTC 072325Z 12005KT 10SM CLR 07/M01 A3019 780 55 100 120/05 RMK AO2
14926KSTC STC20051007173009310/07/05 17:30:31  5-MIN KSTC 072330Z 12006KT 10SM CLR 07/M01 A3019 780 55 100 120/06 RMK AO2
14926KSTC STC20051007173509110/07/05 17:35:31  5-MIN KSTC 072335Z 12005KT 10SM CLR 07/M01 A3019 780 57 0 110/05 RMK AO2
14926KSTC STC20051007174009110/07/05 17:40:31  5-MIN KSTC 072340Z 12004KT 10SM CLR 07/M01 A3019 780 57 0 120/04 RMK AO2
14926KSTC STC20051007174509110/07/05 17:45:31  5-MIN KSTC 072345Z 11005KT 10SM CLR 07/M01 A3019 780 57 0 110/05 RMK AO2
14926KSTC STC20051007175012610/07/05 17:50:31  5-MIN KSTC 072350Z 11004KT 10SM CLR 06/M01 A3019 780 60 0 110/04 RMK AO2 SLP243 T00611011 10094 20061 56026
14926KSTC STC20051007175509110/07/05 17:55:31  5-MIN KSTC 072355Z 11004KT 10SM CLR 06/M01 A3019 780 62 0 110/04 RMK AO2
14926KSTC STC20051007180009410/07/05 18:00:31  5-MIN KSTC 080000Z 11003KT 10SM CLR 06/M01 A3019 780 65 -100 100/03 RMK AO2
14926KSTC STC20051007180509410/07/05 18:05:31  5-MIN KSTC 080005Z 10004KT 10SM CLR 06/M01 A3019 770 65 -100 100/04 RMK AO2
14926KSTC STC20051007181009410/07/05 18:10:31  5-MIN KSTC 080010Z 10004KT 10SM CLR 06/M01 A3019 780 65 -100 090/04 RMK AO2
14926KSTC STC20051007181509410/07/05 18:15:31  5-MIN KSTC 080015Z 10005KT 10SM CLR 05/M01 A3019 780 67 -200 100/05 RMK AO2
14926KSTC STC20051007182009410/07/05 18:20:31  5-MIN KSTC 080020Z 10005KT 10SM CLR 05/M01 A3019 780 67 -200 100/05 RMK AO2
14926KSTC STC20051007182509410/07/05 18:25:31  5-MIN KSTC 080025Z 10004KT 10SM CLR 05/M01 A3019 770 67 -200 100/04 RMK AO2
14926KSTC STC20051007183009410/07/05 18:30:31  5-MIN KSTC 080030Z 10004KT 10SM CLR 05/M01 A3019 770 67 -200 100/04 RMK AO2
14926KSTC STC20051007183509410/07/05 18:35:31  5-MIN KSTC 080035Z 10005KT 10SM CLR 05/M01 A3019 780 67 -200 100/05 RMK AO2
14926KSTC STC20051007184009410/07/05 18:40:31  5-MIN KSTC 080040Z 10005KT 10SM CLR 04/M01 A3019 780 70 -200 090/05 RMK AO2
14926KSTC STC20051007184509410/07/05 18:45:31  5-MIN KSTC 080045Z 10004KT 10SM CLR 04/M01 A3019 780 70 -200 100/04 RMK AO2
14926KSTC STC20051007185011110/07/05 18:50:31  5-MIN KSTC 080050Z 10004KT 10SM CLR 05/M01 A3019 780 67 -200 090/04 RMK AO2 SLP243 T00501006
14926KSTC STC20051007185509410/07/05 18:55:31  5-MIN KSTC 080055Z 09005KT 10SM CLR 04/M01 A3019 780 70 -200 090/05 RMK AO2
14926KSTC STC20051007190009410/07/05 19:00:31  5-MIN KSTC 080100Z 10005KT 10SM CLR 04/M01 A3019 780 70 -200 100/05 RMK AO2
14926KSTC STC20051007190509410/07/05 19:05:31  5-MIN KSTC 080105Z 10005KT 10SM CLR 04/M01 A3019 780 70 -200 100/05 RMK AO2
14926KSTC STC20051007191009410/07/05 19:10:31  5-MIN KSTC 080110Z 10005KT 10SM CLR 04/M01 A3019 780 70 -200 100/05 RMK AO2
14926KSTC STC20051007191509410/07/05 19:15:31  5-MIN KSTC 080115Z 11006KT 10SM CLR 04/M01 A3019 780 70 -200 100/06 RMK AO2
14926KSTC STC20051007192009410/07/05 19:20:31  5-MIN KSTC 080120Z 10005KT 10SM CLR 04/M01 A3019 780 70 -200 100/05 RMK AO2
14926KSTC STC20051007192509410/07/05 19:25:31  5-MIN KSTC 080125Z 10005KT 10SM CLR 04/M01 A3019 780 70 -200 100/05 RMK AO2
14926KSTC STC20051007193009410/07/05 19:30:31  5-MIN KSTC 080130Z 10005KT 10SM CLR 04/M01 A3019 780 70 -200 100/05 RMK AO2
14926KSTC STC20051007193509410/07/05 19:35:31  5-MIN KSTC 080135Z 11005KT 10SM CLR 04/M01 A3019 780 70 -200 100/05 RMK AO2
14926KSTC STC20051007194009410/07/05 19:40:31  5-MIN KSTC 080140Z 10005KT 10SM CLR 04/M01 A3019 770 70 -200 100/05 RMK AO2
14926KSTC STC20051007194509410/07/05 19:45:31  5-MIN KSTC 080145Z 10005KT 10SM CLR 04/M01 A3019 780 70 -200 100/05 RMK AO2
14926KSTC STC20051007195011110/07/05 19:50:31  5-MIN KSTC 080150Z 12005KT 10SM CLR 04/M01 A3019 780 73 -300 110/05 RMK AO2 SLP242 T00391006
14926KSTC STC20051007195509410/07/05 19:55:31  5-MIN KSTC 080155Z 12005KT 10SM CLR 04/M01 A3019 780 73 -300 120/05 RMK AO2
14926KSTC STC20051007200009410/07/05 20:00:31  5-MIN KSTC 080200Z 12005KT 10SM CLR 04/M01 A3018 780 70 -200 120/05 RMK AO2
14926KSTC STC20051007200509410/07/05 20:05:31  5-MIN KSTC 080205Z 13006KT 10SM CLR 04/M01 A3018 780 73 -300 120/06 RMK AO2
14926KSTC STC20051007201009410/07/05 20:10:31  5-MIN KSTC 080210Z 13003KT 10SM CLR 04/M01 A3019 780 73 -300 120/03 RMK AO2
14926KSTC STC20051007201509410/07/05 20:15:31  5-MIN KSTC 080215Z 13003KT 10SM CLR 03/M01 A3019 780 76 -400 120/03 RMK AO2
14926KSTC STC20051007202009410/07/05 20:20:31  5-MIN KSTC 080220Z 13003KT 10SM CLR 03/M01 A3019 780 76 -400 120/03 RMK AO2
14926KSTC STC20051007202509410/07/05 20:25:31  5-MIN KSTC 080225Z 12005KT 10SM CLR 04/M01 A3019 780 73 -300 120/05 RMK AO2
14926KSTC STC20051007203009410/07/05 20:30:31  5-MIN KSTC 080230Z 12005KT 10SM CLR 04/M01 A3019 780 73 -300 120/05 RMK AO2
14926KSTC STC20051007203509410/07/05 20:35:31  5-MIN KSTC 080235Z 12005KT 10SM CLR 04/M01 A3019 780 73 -300 120/05 RMK AO2
14926KSTC STC20051007204009410/07/05 20:40:31  5-MIN KSTC 080240Z 12005KT 10SM CLR 04/M01 A3019 780 73 -300 120/05 RMK AO2
14926KSTC STC20051007204509410/07/05 20:45:31  5-MIN KSTC 080245Z 12004KT 10SM CLR 04/M01 A3019 780 73 -300 120/04 RMK AO2
14926KSTC STC20051007205011710/07/05 20:50:31  5-MIN KSTC 080250Z 13003KT 10SM CLR 03/M01 A3019 780 76 -400 130/03 RMK AO2 SLP242 T00331006 55007
14926KSTC STC20051007205509410/07/05 20:55:31  5-MIN KSTC 080255Z 13003KT 10SM CLR 03/M01 A3019 780 76 -400 130/03 RMK AO2
14926KSTC STC20051007210009410/07/05 21:00:31  5-MIN KSTC 080300Z 12003KT 10SM CLR 03/M01 A3019 780 76 -400 120/03 RMK AO2
14926KSTC STC20051007210509410/07/05 21:05:31  5-MIN KSTC 080305Z 12004KT 10SM CLR 03/M01 A3019 780 76 -400 120/04 RMK AO2
14926KSTC STC20051007211009410/07/05 21:10:31  5-MIN KSTC 080310Z 13003KT 10SM CLR 03/M01 A3019 770 76 -400 120/03 RMK AO2
14926KSTC STC20051007211509410/07/05 21:15:31  5-MIN KSTC 080315Z 12004KT 10SM CLR 03/M01 A3019 780 76 -400 120/04 RMK AO2
14926KSTC STC20051007212009410/07/05 21:20:31  5-MIN KSTC 080320Z 11004KT 10SM CLR 03/M01 A3019 780 79 -400 110/04 RMK AO2
14926KSTC STC20051007212509410/07/05 21:25:31  5-MIN KSTC 080325Z 12004KT 10SM CLR 03/M01 A3019 780 79 -400 120/04 RMK AO2
14926KSTC STC20051007213009410/07/05 21:30:31  5-MIN KSTC 080330Z 12004KT 10SM CLR 03/M01 A3019 780 79 -400 120/04 RMK AO2
14926KSTC STC20051007213509410/07/05 21:35:31  5-MIN KSTC 080335Z 12005KT 10SM CLR 03/M01 A3019 780 79 -400 110/05 RMK AO2
14926KSTC STC20051007214009410/07/05 21:40:31  5-MIN KSTC 080340Z 12005KT 10SM CLR 03/M01 A3019 780 79 -400 120/05 RMK AO2
14926KSTC STC20051007214509410/07/05 21:45:31  5-MIN KSTC 080345Z 11004KT 10SM CLR 03/M01 A3019 780 79 -400 110/04 RMK AO2
14926KSTC STC20051007215011110/07/05 21:50:31  5-MIN KSTC 080350Z 11003KT 10SM CLR 03/M01 A3019 780 79 -400 110/03 RMK AO2 SLP239 T00281006
14926KSTC STC20051007215509910/07/05 21:55:31  5-MIN KSTC 080355Z AUTO 11003KT 10SM CLR 03/M01 A3019 780 79 -400 110/03 RMK AO2
14926KSTC STC20051007220009910/07/05 22:00:31  5-MIN KSTC 080400Z AUTO 10003KT 10SM CLR 03/M01 A3019 780 79 -400 100/03 RMK AO2
14926KSTC STC20051007220509910/07/05 22:05:31  5-MIN KSTC 080405Z AUTO 11004KT 10SM CLR 03/M01 A3018 780 79 -400 110/04 RMK AO2
14926KSTC STC20051007221009910/07/05 22:10:31  5-MIN KSTC 080410Z AUTO 11004KT 10SM CLR 02/M01 A3018 780 82 -500 110/04 RMK AO2
14926KSTC STC20051007221509910/07/05 22:15:31  5-MIN KSTC 080415Z AUTO 11004KT 10SM CLR 03/M01 A3018 790 79 -400 110/04 RMK AO2
14926KSTC STC20051007222009910/07/05 22:20:31  5-MIN KSTC 080420Z AUTO 11004KT 10SM CLR 02/M01 A3018 790 82 -500 100/04 RMK AO2
14926KSTC STC20051007222509910/07/05 22:25:31  5-MIN KSTC 080425Z AUTO 11004KT 10SM CLR 02/M01 A3018 790 82 -500 110/04 RMK AO2
14926KSTC STC20051007223009910/07/05 22:30:31  5-MIN KSTC 080430Z AUTO 12003KT 10SM CLR 02/M01 A3018 790 82 -500 120/03 RMK AO2
14926KSTC STC20051007223509910/07/05 22:35:31  5-MIN KSTC 080435Z AUTO 12004KT 10SM CLR 02/M01 A3018 790 82 -500 110/04 RMK AO2
14926KSTC STC20051007224009910/07/05 22:40:31  5-MIN KSTC 080440Z AUTO 12004KT 10SM CLR 02/M01 A3018 790 82 -500 120/04 RMK AO2
14926KSTC STC20051007224509910/07/05 22:45:31  5-MIN KSTC 080445Z AUTO 12004KT 10SM CLR 02/M01 A3018 790 82 -500 120/04 RMK AO2
14926KSTC STC20051007225011610/07/05 22:50:31  5-MIN KSTC 080450Z AUTO 11004KT 10SM CLR 02/M01 A3018 790 82 -500 110/04 RMK AO2 SLP236 T00221006
14926KSTC STC20051007225509910/07/05 22:55:31  5-MIN KSTC 080455Z AUTO 10003KT 10SM CLR 02/M01 A3018 790 82 -500 100/03 RMK AO2
14926KSTC STC20051007230009910/07/05 23:00:31  5-MIN KSTC 080500Z AUTO 10003KT 10SM CLR 02/M01 A3018 790 82 -500 100/03 RMK AO2
14926KSTC STC20051007230509910/07/05 23:05:31  5-MIN KSTC 080505Z AUTO 11004KT 10SM CLR 02/M01 A3018 790 85 -500 110/04 RMK AO2
14926KSTC STC20051007231009910/07/05 23:10:31  5-MIN KSTC 080510Z AUTO 11004KT 10SM CLR 02/M01 A3018 790 85 -500 110/04 RMK AO2
14926KSTC STC20051007231509910/07/05 23:15:31  5-MIN KSTC 080515Z AUTO 11004KT 10SM CLR 02/M01 A3018 790 85 -500 110/04 RMK AO2
14926KSTC STC20051007232009910/07/05 23:20:31  5-MIN KSTC 080520Z AUTO 11004KT 10SM CLR 02/M01 A3018 790 82 -500 110/04 RMK AO2
14926KSTC STC20051007232509910/07/05 23:25:31  5-MIN KSTC 080525Z AUTO 10003KT 10SM CLR 02/M01 A3018 790 85 -600 100/03 RMK AO2
14926KSTC STC20051007233009910/07/05 23:30:31  5-MIN KSTC 080530Z AUTO 10004KT 10SM CLR 02/M01 A3018 790 85 -600 100/04 RMK AO2
14926KSTC STC20051007233509910/07/05 23:35:31  5-MIN KSTC 080535Z AUTO 10004KT 10SM CLR 01/M01 A3017 790 89 -600 100/04 RMK AO2
14926KSTC STC20051007234009910/07/05 23:40:31  5-MIN KSTC 080540Z AUTO 10003KT 10SM CLR 01/M01 A3017 790 89 -600 100/03 RMK AO2
14926KSTC STC20051007234509910/07/05 23:45:31  5-MIN KSTC 080545Z AUTO 10004KT 10SM CLR 02/M01 A3018 790 85 -500 100/04 RMK AO2
14926KSTC STC20051007235014410/07/05 23:50:31  5-MIN KSTC 080550Z AUTO 10003KT 10SM CLR 01/M01 A3017 790 89 -600 100/03 RMK AO2 SLP235 T00111006 10061 20011 400941022 54000
14926KSTC STC20051007235509910/07/05 23:55:31  5-MIN KSTC 080555Z AUTO 11004KT 10SM CLR 01/M01 A3017 790 89 -600 110/04 RMK AO2
14926KSTC STC20051008000009910/08/05 00:00:32  5-MIN KSTC 080600Z AUTO 11004KT 10SM CLR 01/M01 A3017 800 89 -600 110/04 RMK AO2
14926KSTC STC20051008000509910/08/05 00:05:31  5-MIN KSTC 080605Z AUTO 10004KT 10SM CLR 01/M01 A3017 800 89 -600 100/04 RMK AO2
14926KSTC STC20051008001009910/08/05 00:10:31  5-MIN KSTC 080610Z AUTO 10003KT 10SM CLR 01/M01 A3017 790 89 -600 090/03 RMK AO2
14926KSTC STC20051008001509910/08/05 00:15:31  5-MIN KSTC 080615Z AUTO 11003KT 10SM CLR 01/M01 A3017 790 89 -600 100/03 RMK AO2
14926KSTC STC20051008002009910/08/05 00:20:31  5-MIN KSTC 080620Z AUTO 11004KT 10SM CLR 01/M01 A3017 790 89 -600 110/04 RMK AO2
14926KSTC STC20051008002509910/08/05 00:25:31  5-MIN KSTC 080625Z AUTO 10003KT 10SM CLR 01/M01 A3017 790 89 -600 090/03 RMK AO2
14926KSTC STC20051008003009910/08/05 00:30:31  5-MIN KSTC 080630Z AUTO 08004KT 10SM CLR 01/M01 A3018 790 85 -600 070/04 RMK AO2
14926KSTC STC20051008003509910/08/05 00:35:31  5-MIN KSTC 080635Z AUTO 05003KT 10SM CLR 01/M01 A3018 790 89 -700 050/03 RMK AO2
14926KSTC STC20051008004009910/08/05 00:40:31  5-MIN KSTC 080640Z AUTO 06003KT 10SM CLR 01/M01 A3018 790 89 -700 060/03 RMK AO2
14926KSTC STC20051008004509910/08/05 00:45:31  5-MIN KSTC 080645Z AUTO 06004KT 10SM CLR 00/M01 A3018 790 92 -800 060/04 RMK AO2
14926KSTC STC20051008005011610/08/05 00:50:31  5-MIN KSTC 080650Z AUTO 08003KT 10SM CLR 00/M01 A3018 790 92 -800 080/03 RMK AO2 SLP238 T00001011
14926KSTC STC20051008005510010/08/05 00:55:31  5-MIN KSTC 080655Z AUTO 09003KT 10SM CLR M01/M01 A3018 790 96 -800 090/03 RMK AO2
14926KSTC STC20051008010009910/08/05 01:00:31  5-MIN KSTC 080700Z AUTO 09003KT 10SM CLR 00/M01 A3018 780 92 -800 090/03 RMK AO2
14926KSTC STC20051008010509910/08/05 01:05:31  5-MIN KSTC 080705Z AUTO 00000KT 10SM CLR 00/M01 A3018 780 92 -800 000/00 RMK AO2
14926KSTC STC20051008011009910/08/05 01:10:31  5-MIN KSTC 080710Z AUTO 10003KT 10SM CLR 00/M01 A3018 780 92 -800 090/03 RMK AO2
14926KSTC STC20051008011509910/08/05 01:15:31  5-MIN KSTC 080715Z AUTO 10003KT 10SM CLR 00/M01 A3018 780 92 -800 100/03 RMK AO2
14926KSTC STC20051008012009910/08/05 01:20:31  5-MIN KSTC 080720Z AUTO 11003KT 10SM CLR 00/M01 A3018 790 92 -800 100/03 RMK AO2
14926KSTC STC20051008012509910/08/05 01:25:31  5-MIN KSTC 080725Z AUTO 11003KT 10SM CLR 00/M01 A3018 790 92 -800 100/03 RMK AO2
14926KSTC STC20051008013009910/08/05 01:30:31  5-MIN KSTC 080730Z AUTO 12003KT 10SM CLR 00/M01 A3018 790 92 -800 110/03 RMK AO2
14926KSTC STC20051008013509910/08/05 01:35:31  5-MIN KSTC 080735Z AUTO 11003KT 10SM CLR 00/M01 A3018 790 92 -800 110/03 RMK AO2
14926KSTC STC20051008014009910/08/05 01:40:31  5-MIN KSTC 080740Z AUTO 11003KT 10SM CLR 00/M01 A3018 790 92 -800 110/03 RMK AO2
14926KSTC STC20051008014509910/08/05 01:45:31  5-MIN KSTC 080745Z AUTO 11003KT 10SM CLR 00/M01 A3018 790 92 -800 110/03 RMK AO2
14926KSTC STC20051008015011610/08/05 01:50:31  5-MIN KSTC 080750Z AUTO 11003KT 10SM CLR 00/M01 A3018 790 92 -800 110/03 RMK AO2 SLP236 T00001011
14926KSTC STC20051008015509910/08/05 01:55:31  5-MIN KSTC 080755Z AUTO 11003KT 10SM CLR 01/M01 A3018 790 89 -700 100/03 RMK AO2
14926KSTC STC20051008020009910/08/05 02:00:31  5-MIN KSTC 080800Z AUTO 10003KT 10SM CLR 00/M01 A3017 790 92 -800 090/03 RMK AO2
14926KSTC STC20051008020509910/08/05 02:05:31  5-MIN KSTC 080805Z AUTO 09004KT 10SM CLR 00/M01 A3017 790 92 -800 090/04 RMK AO2
14926KSTC STC20051008021009910/08/05 02:10:31  5-MIN KSTC 080810Z AUTO 09005KT 10SM CLR 00/M02 A3017 790 88 -800 080/05 RMK AO2
14926KSTC STC20051008021509910/08/05 02:15:31  5-MIN KSTC 080815Z AUTO 08004KT 10SM CLR 00/M01 A3017 800 92 -800 080/04 RMK AO2
14926KSTC STC20051008022009910/08/05 02:20:31  5-MIN KSTC 080820Z AUTO 10005KT 10SM CLR 00/M01 A3017 800 92 -800 090/05 RMK AO2
14926KSTC STC20051008022509910/08/05 02:25:31  5-MIN KSTC 080825Z AUTO 10005KT 10SM CLR 01/M01 A3017 800 89 -700 090/05 RMK AO2
14926KSTC STC20051008023009910/08/05 02:30:31  5-MIN KSTC 080830Z AUTO 09006KT 10SM CLR 01/M01 A3017 800 89 -700 090/06 RMK AO2
14926KSTC STC20051008023509910/08/05 02:35:31  5-MIN KSTC 080835Z AUTO 10006KT 10SM CLR 01/M01 A3017 800 89 -700 090/06 RMK AO2
14926KSTC STC20051008024009910/08/05 02:40:31  5-MIN KSTC 080840Z AUTO 10006KT 10SM CLR 01/M01 A3017 800 89 -700 100/06 RMK AO2
14926KSTC STC20051008024509910/08/05 02:45:31  5-MIN KSTC 080845Z AUTO 10006KT 10SM CLR 01/M01 A3017 800 92 -700 100/06 RMK AO2
14926KSTC STC20051008025012210/08/05 02:50:31  5-MIN KSTC 080850Z AUTO 11005KT 10SM CLR 01/M01 A3017 800 92 -700 100/05 RMK AO2 SLP233 T00061006 58006
14926KSTC STC20051008025509910/08/05 02:55:31  5-MIN KSTC 080855Z AUTO 11005KT 10SM CLR 01/M01 A3017 800 92 -700 110/05 RMK AO2
14926KSTC STC20051008030009910/08/05 03:00:31  5-MIN KSTC 080900Z AUTO 11004KT 10SM CLR 01/M01 A3017 800 89 -700 100/04 RMK AO2
14926KSTC STC20051008030509910/08/05 03:05:31  5-MIN KSTC 080905Z AUTO 11006KT 10SM CLR 01/M01 A3016 800 89 -700 110/06 RMK AO2
14926KSTC STC20051008031009910/08/05 03:10:31  5-MIN KSTC 080910Z AUTO 11006KT 10SM CLR 01/M01 A3016 800 89 -700 110/06 RMK AO2
14926KSTC STC20051008031509910/08/05 03:15:31  5-MIN KSTC 080915Z AUTO 11005KT 10SM CLR 01/M01 A3016 800 89 -700 110/05 RMK AO2
14926KSTC STC20051008032009910/08/05 03:20:31  5-MIN KSTC 080920Z AUTO 11006KT 10SM CLR 01/M01 A3016 810 89 -700 100/06 RMK AO2
14926KSTC STC20051008032509910/08/05 03:25:31  5-MIN KSTC 080925Z AUTO 11005KT 10SM CLR 01/M01 A3016 810 89 -700 110/05 RMK AO2
14926KSTC STC20051008033009910/08/05 03:30:31  5-MIN KSTC 080930Z AUTO 11005KT 10SM CLR 01/M01 A3016 810 89 -700 110/05 RMK AO2
14926KSTC STC20051008033509910/08/05 03:35:31  5-MIN KSTC 080935Z AUTO 11005KT 10SM CLR 01/M01 A3016 810 89 -700 110/05 RMK AO2
14926KSTC STC20051008034009910/08/05 03:40:31  5-MIN KSTC 080940Z AUTO 11005KT 10SM CLR 01/M01 A3016 810 89 -700 110/05 RMK AO2
14926KSTC STC20051008034509910/08/05 03:45:31  5-MIN KSTC 080945Z AUTO 11004KT 10SM CLR 01/M01 A3016 810 89 -700 110/04 RMK AO2
14926KSTC STC20051008035011610/08/05 03:50:31  5-MIN KSTC 080950Z AUTO 11005KT 10SM CLR 01/M01 A3016 810 89 -700 110/05 RMK AO2 SLP230 T00061011
14926KSTC STC20051008035509910/08/05 03:55:31  5-MIN KSTC 080955Z AUTO 10003KT 10SM CLR 01/M01 A3016 810 89 -700 100/03 RMK AO2
14926KSTC STC20051008040009910/08/05 04:00:31  5-MIN KSTC 081000Z AUTO 11004KT 10SM CLR 00/M01 A3016 810 92 -700 100/04 RMK AO2
14926KSTC STC20051008040509910/08/05 04:05:31  5-MIN KSTC 081005Z AUTO 11003KT 10SM CLR 00/M01 A3016 810 92 -700 110/03 RMK AO2
14926KSTC STC20051008041009910/08/05 04:10:31  5-MIN KSTC 081010Z AUTO 11003KT 10SM CLR 00/M01 A3016 800 92 -700 100/03 RMK AO2
14926KSTC STC20051008041509910/08/05 04:15:31  5-MIN KSTC 081015Z AUTO 09003KT 10SM CLR 00/M01 A3016 800 92 -700 090/03 RMK AO2
14926KSTC STC20051008042009910/08/05 04:20:31  5-MIN KSTC 081020Z AUTO 09004KT 10SM CLR 00/M01 A3016 810 92 -700 090/04 RMK AO2
14926KSTC STC20051008042509910/08/05 04:25:31  5-MIN KSTC 081025Z AUTO 11004KT 10SM CLR 00/M01 A3016 810 92 -700 100/04 RMK AO2
14926KSTC STC20051008043009910/08/05 04:30:31  5-MIN KSTC 081030Z AUTO 10004KT 10SM CLR 00/M01 A3016 810 92 -700 100/04 RMK AO2
14926KSTC STC20051008043509910/08/05 04:35:31  5-MIN KSTC 081035Z AUTO 10005KT 10SM CLR 00/M01 A3016 810 92 -700 100/05 RMK AO2
14926KSTC STC20051008044009910/08/05 04:40:31  5-MIN KSTC 081040Z AUTO 11004KT 10SM CLR 01/M01 A3016 800 89 -700 100/04 RMK AO2
14926KSTC STC20051008044509910/08/05 04:45:31  5-MIN KSTC 081045Z AUTO 11005KT 10SM CLR 01/M01 A3016 800 89 -700 110/05 RMK AO2
14926KSTC STC20051008045011610/08/05 04:50:31  5-MIN KSTC 081050Z AUTO 11004KT 10SM CLR 00/M01 A3016 800 92 -700 110/04 RMK AO2 SLP232 T00001011
14926KSTC STC20051008045509910/08/05 04:55:31  5-MIN KSTC 081055Z AUTO 11004KT 10SM CLR 01/M01 A3017 800 92 -700 110/04 RMK AO2
14926KSTC STC20051008050009910/08/05 05:00:31  5-MIN KSTC 081100Z AUTO 11004KT 10SM CLR 01/M01 A3016 800 92 -700 110/04 RMK AO2
14926KSTC STC20051008050509910/08/05 05:05:31  5-MIN KSTC 081105Z AUTO 11004KT 10SM CLR 01/M01 A3016 800 92 -700 110/04 RMK AO2
14926KSTC STC20051008051009910/08/05 05:10:31  5-MIN KSTC 081110Z AUTO 11004KT 10SM CLR 01/M01 A3016 800 92 -700 110/04 RMK AO2
14926KSTC STC20051008051509910/08/05 05:15:31  5-MIN KSTC 081115Z AUTO 10004KT 10SM CLR 01/M01 A3016 800 89 -700 100/04 RMK AO2
14926KSTC STC20051008052009910/08/05 05:20:31  5-MIN KSTC 081120Z AUTO 10004KT 10SM CLR 01/M01 A3016 800 92 -700 100/04 RMK AO2
14926KSTC STC20051008052509910/08/05 05:25:31  5-MIN KSTC 081125Z AUTO 11004KT 10SM CLR 00/M01 A3016 800 92 -700 110/04 RMK AO2
14926KSTC STC20051008053009910/08/05 05:30:31  5-MIN KSTC 081130Z AUTO 11005KT 10SM CLR 01/M01 A3016 800 92 -700 110/05 RMK AO2
14926KSTC STC20051008053509910/08/05 05:35:31  5-MIN KSTC 081135Z AUTO 11005KT 10SM CLR 01/M01 A3016 800 92 -700 110/05 RMK AO2
14926KSTC STC20051008054009910/08/05 05:40:31  5-MIN KSTC 081140Z AUTO 11006KT 10SM CLR 01/M01 A3016 810 92 -700 110/06 RMK AO2
14926KSTC STC20051008054509910/08/05 05:45:31  5-MIN KSTC 081145Z AUTO 11005KT 10SM CLR 01/M01 A3016 810 92 -700 110/05 RMK AO2
14926KSTC STC20051008055014010/08/05 05:50:31  5-MIN KSTC 081150Z AUTO 11005KT 10SM CLR 01/M01 A3016 810 92 -700 110/05 RMK AO2 SLP231 7//// T00061006 10011 21006 58002
14926KSTC STC20051008055509410/08/05 05:55:31  5-MIN KSTC 081155Z 11004KT 10SM CLR 01/M01 A3016 800 92 -700 110/04 RMK AO2
14926KSTC STC20051008060009410/08/05 06:00:31  5-MIN KSTC 081200Z 10004KT 10SM CLR 01/M01 A3016 800 92 -700 100/04 RMK AO2
14926KSTC STC20051008060509410/08/05 06:05:31  5-MIN KSTC 081205Z 10004KT 10SM CLR 00/M01 A3016 800 92 -700 100/04 RMK AO2
14926KSTC STC20051008061009410/08/05 06:10:31  5-MIN KSTC 081210Z 10003KT 10SM CLR 00/M01 A3016 800 92 -700 100/03 RMK AO2
14926KSTC STC20051008061509410/08/05 06:15:31  5-MIN KSTC 081215Z 11004KT 10SM CLR 00/M01 A3016 800 92 -700 100/04 RMK AO2
14926KSTC STC20051008062009310/08/05 06:20:31  5-MIN KSTC 081220Z 11004KT 9SM CLR 00/M01 A3016 800 92 -700 110/04 RMK AO2
14926KSTC STC20051008062509310/08/05 06:25:31  5-MIN KSTC 081225Z 10004KT 9SM CLR 00/M01 A3016 800 92 -700 100/04 RMK AO2
14926KSTC STC20051008063009310/08/05 06:30:31  5-MIN KSTC 081230Z 10004KT 9SM CLR 00/M01 A3016 800 92 -700 090/04 RMK AO2
14926KSTC STC20051008063509310/08/05 06:35:31  5-MIN KSTC 081235Z 09004KT 9SM CLR 00/M01 A3017 800 92 -700 090/04 RMK AO2
14926KSTC STC20051008064009310/08/05 06:40:31  5-MIN KSTC 081240Z 10004KT 9SM CLR 00/M01 A3017 800 92 -700 100/04 RMK AO2
14926KSTC STC20051008064509310/08/05 06:45:31  5-MIN KSTC 081245Z 11004KT 9SM CLR 00/M01 A3017 800 92 -700 110/04 RMK AO2
14926KSTC STC20051008065011010/08/05 06:50:31  5-MIN KSTC 081250Z 11005KT 9SM CLR 00/M01 A3017 800 96 -700 110/05 RMK AO2 SLP234 T00001006
14926KSTC STC20051008065509310/08/05 06:55:31  5-MIN KSTC 081255Z 10004KT 9SM CLR 01/M01 A3017 800 92 -700 100/04 RMK AO2
14926KSTC STC20051008070009410/08/05 07:00:31  5-MIN KSTC 081300Z 10004KT 10SM CLR 01/M01 A3017 800 92 -700 100/04 RMK AO2
14926KSTC STC20051008070509410/08/05 07:05:31  5-MIN KSTC 081305Z 11005KT 10SM CLR 01/M01 A3016 800 92 -700 100/05 RMK AO2
14926KSTC STC20051008071009410/08/05 07:10:31  5-MIN KSTC 081310Z 11005KT 10SM CLR 01/M01 A3017 800 92 -700 110/05 RMK AO2
14926KSTC STC20051008071509310/08/05 07:15:31  5-MIN KSTC 081315Z 11006KT 10SM CLR 01/00 A3017 800 92 -600 110/06 RMK AO2
14926KSTC STC20051008072009310/08/05 07:20:31  5-MIN KSTC 081320Z 11006KT 10SM CLR 01/00 A3017 800 92 -600 110/06 RMK AO2
14926KSTC STC20051008072509310/08/05 07:25:31  5-MIN KSTC 081325Z 11005KT 10SM CLR 02/00 A3017 800 89 -500 110/05 RMK AO2
14926KSTC STC20051008073009310/08/05 07:30:31  5-MIN KSTC 081330Z 12006KT 10SM CLR 02/00 A3017 800 89 -500 110/06 RMK AO2
14926KSTC STC20051008073509310/08/05 07:35:31  5-MIN KSTC 081335Z 12006KT 10SM CLR 02/01 A3017 800 89 -500 120/06 RMK AO2
14926KSTC STC20051008074009310/08/05 07:40:31  5-MIN KSTC 081340Z 12006KT 10SM CLR 02/01 A3017 800 89 -500 120/06 RMK AO2
14926KSTC STC20051008074509310/08/05 07:45:31  5-MIN KSTC 081345Z 12007KT 10SM CLR 03/01 A3017 800 85 -400 120/07 RMK AO2
14926KSTC STC20051008075011010/08/05 07:50:31  5-MIN KSTC 081350Z 13006KT 10SM CLR 03/01 A3017 800 89 -400 120/06 RMK AO2 SLP234 T00280011
14926KSTC STC20051008075509310/08/05 07:55:31  5-MIN KSTC 081355Z 13005KT 10SM CLR 03/01 A3017 800 89 -400 120/05 RMK AO2
14926KSTC STC20051008080009310/08/05 08:00:31  5-MIN KSTC 081400Z 12004KT 10SM CLR 03/01 A3017 800 85 -300 110/04 RMK AO2
14926KSTC STC20051008080509310/08/05 08:05:31  5-MIN KSTC 081405Z 13006KT 10SM CLR 03/01 A3016 800 85 -300 130/06 RMK AO2
14926KSTC STC20051008081009310/08/05 08:10:31  5-MIN KSTC 081410Z 13007KT 10SM CLR 04/01 A3016 800 82 -300 130/07 RMK AO2
14926KSTC STC20051008081509310/08/05 08:15:31  5-MIN KSTC 081415Z 14006KT 10SM CLR 04/02 A3016 800 85 -300 140/06 RMK AO2
14926KSTC STC20051008082009310/08/05 08:20:31  5-MIN KSTC 081420Z 14010KT 10SM CLR 04/02 A3017 800 82 -200 140/10 RMK AO2
14926KSTC STC20051008082509310/08/05 08:25:31  5-MIN KSTC 081425Z 14009KT 10SM CLR 05/02 A3016 800 79 -100 140/09 RMK AO2
14926KSTC STC20051008083009310/08/05 08:30:31  5-MIN KSTC 081430Z 13007KT 10SM CLR 04/02 A3016 800 82 -200 130/07 RMK AO2
14926KSTC STC20051008083509310/08/05 08:35:31  5-MIN KSTC 081435Z 15007KT 10SM CLR 05/02 A3016 800 79 -100 150/07 RMK AO2
14926KSTC STC20051008084009310/08/05 08:40:31  5-MIN KSTC 081440Z 14008KT 10SM CLR 06/02 A3016 800 76 -100 140/08 RMK AO2
14926KSTC STC20051008084509310/08/05 08:45:31  5-MIN KSTC 081445Z 15008KT 10SM CLR 06/02 A3016 800 76 -100 150/08 RMK AO2
14926KSTC STC20051008085011610/08/05 08:50:31  5-MIN KSTC 081450Z 16009KT 10SM CLR 06/02 A3016 810 76 -100 150/09 RMK AO2 SLP231 T00560017 56002
14926KSTC STC20051008085509310/08/05 08:55:31  5-MIN KSTC 081455Z 15010KT 10SM CLR 06/02 A3016 800 76 -100 150/10 RMK AO2
14926KSTC STC20051008090009310/08/05 09:00:31  5-MIN KSTC 081500Z 15009KT 10SM CLR 06/01 A3016 810 73 -100 150/09 RMK AO2
14926KSTC STC20051008090509010/08/05 09:05:31  5-MIN KSTC 081505Z 15009KT 10SM CLR 06/02 A3016 810 73 0 150/09 RMK AO2
14926KSTC STC20051008091009010/08/05 09:10:31  5-MIN KSTC 081510Z 16010KT 10SM CLR 07/02 A3016 810 70 0 160/10 RMK AO2
14926KSTC STC20051008091509010/08/05 09:15:31  5-MIN KSTC 081515Z 17010KT 10SM CLR 07/02 A3016 810 70 0 170/10 RMK AO2
14926KSTC STC20051008092009010/08/05 09:20:31  5-MIN KSTC 081520Z 16010KT 10SM CLR 07/02 A3016 810 70 0 160/10 RMK AO2
14926KSTC STC20051008092509010/08/05 09:25:31  5-MIN KSTC 081525Z 16009KT 10SM CLR 07/02 A3015 810 70 0 160/09 RMK AO2
14926KSTC STC20051008093009210/08/05 09:30:31  5-MIN KSTC 081530Z 16010KT 10SM CLR 07/02 A3015 810 68 100 160/10 RMK AO2
14926KSTC STC20051008093509210/08/05 09:35:31  5-MIN KSTC 081535Z 17011KT 10SM CLR 08/01 A3015 810 62 200 160/11 RMK AO2
14926KSTC STC20051008094009210/08/05 09:40:31  5-MIN KSTC 081540Z 15013KT 10SM CLR 08/01 A3015 810 62 200 150/13 RMK AO2
14926KSTC STC20051008094509210/08/05 09:45:31  5-MIN KSTC 081545Z 16010KT 10SM CLR 08/01 A3015 810 62 200 150/10 RMK AO2
14926KSTC STC20051008095011510/08/05 09:50:31  5-MIN KSTC 081550Z 16016G19KT 10SM CLR 08/01 A3015 810 60 200 160/16G19 RMK AO2 SLP226 T00830011
14926KSTC STC20051008095509810/08/05 09:55:31  5-MIN KSTC 081555Z 16011G19KT 10SM CLR 08/01 A3015 810 58 200 160/11G19 RMK AO2
14926KSTC STC20051008100009210/08/05 10:00:31  5-MIN KSTC 081600Z 16014KT 10SM CLR 08/01 A3015 810 60 200 160/14 RMK AO2
14926KSTC STC20051008100509210/08/05 10:05:31  5-MIN KSTC 081605Z 17011KT 10SM CLR 08/01 A3015 810 60 200 160/11 RMK AO2
14926KSTC STC20051008101009810/08/05 10:10:31  5-MIN KSTC 081610Z 16013G18KT 10SM CLR 09/01 A3015 810 58 300 150/13G18 RMK AO2
14926KSTC STC20051008101509810/08/05 10:15:31  5-MIN KSTC 081615Z 16011G18KT 10SM CLR 09/01 A3015 820 58 300 160/11G18 RMK AO2
14926KSTC STC20051008102009210/08/05 10:20:31  5-MIN KSTC 081620Z 15012KT 10SM CLR 09/01 A3015 820 58 300 150/12 RMK AO2
14926KSTC STC20051008102509810/08/05 10:25:31  5-MIN KSTC 081625Z 17010G19KT 10SM CLR 09/01 A3015 820 56 300 160/10G19 RMK AO2
14926KSTC STC20051008103009810/08/05 10:30:31  5-MIN KSTC 081630Z 17012G19KT 10SM CLR 09/01 A3014 820 56 300 160/12G19 RMK AO2
14926KSTC STC20051008103509810/08/05 10:35:31  5-MIN KSTC 081635Z 17014G18KT 10SM CLR 09/01 A3015 820 53 400 160/14G18 RMK AO2
14926KSTC STC20051008104009810/08/05 10:40:31  5-MIN KSTC 081640Z 17013G20KT 10SM CLR 09/01 A3015 820 56 300 170/13G20 RMK AO2
14926KSTC STC20051008104509810/08/05 10:45:31  5-MIN KSTC 081645Z 18011G17KT 10SM CLR 09/01 A3014 820 56 400 170/11G17 RMK AO2
14926KSTC STC20051008105011510/08/05 10:50:31  5-MIN KSTC 081650Z 17010G18KT 10SM CLR 09/01 A3014 820 53 400 170/10G18 RMK AO2 SLP223 T00940006
14926KSTC STC20051008105509710/08/05 10:55:31  5-MIN KSTC 081655Z 17013G18KT 9SM CLR 10/01 A3014 820 54 500 170/13G18 RMK AO2
14926KSTC STC20051008110009110/08/05 11:00:31  5-MIN KSTC 081700Z 18011KT 9SM CLR 10/01 A3014 830 52 500 170/11 RMK AO2
14926KSTC STC20051008110509210/08/05 11:05:31  5-MIN KSTC 081705Z 18013KT 10SM CLR 10/01 A3014 830 54 500 180/13 RMK AO2
14926KSTC STC20051008111009210/08/05 11:10:31  5-MIN KSTC 081710Z 19013KT 10SM CLR 10/01 A3013 830 52 500 190/13 RMK AO2
14926KSTC STC20051008111509210/08/05 11:15:31  5-MIN KSTC 081715Z 16012KT 10SM CLR 10/01 A3013 830 54 500 150/12 RMK AO2
14926KSTC STC20051008112009110/08/05 11:20:31  5-MIN KSTC 081720Z 15011KT 9SM CLR 11/01 A3013 830 52 500 140/11 RMK AO2
14926KSTC STC20051008112509110/08/05 11:25:31  5-MIN KSTC 081725Z 17012KT 9SM CLR 10/01 A3013 830 52 500 170/12 RMK AO2
14926KSTC STC20051008113009110/08/05 11:30:31  5-MIN KSTC 081730Z 15015KT 9SM CLR 10/01 A3013 830 54 500 150/15 RMK AO2
14926KSTC STC20051008113509710/08/05 11:35:31  5-MIN KSTC 081735Z 16011G18KT 8SM CLR 10/01 A3013 830 54 500 160/11G18 RMK AO2
14926KSTC STC20051008114009110/08/05 11:40:31  5-MIN KSTC 081740Z 16012KT 9SM CLR 11/01 A3013 830 52 500 160/12 RMK AO2
14926KSTC STC20051008114509210/08/05 11:45:31  5-MIN KSTC 081745Z 17010KT 10SM CLR 11/01 A3013 840 50 600 170/10 RMK AO2
14926KSTC STC20051008115013310/08/05 11:50:31  5-MIN KSTC 081750Z 15014G18KT 10SM CLR 11/01 A3012 840 52 500 150/14G18 RMK AO2 SLP217 T01060011 10111 20000 50001
14926KSTC STC20051008115509810/08/05 11:55:31  5-MIN KSTC 081755Z 15010G18KT 10SM CLR 11/01 A3012 840 50 600 140/10G18 RMK AO2
14926KSTC STC20051008120009810/08/05 12:00:31  5-MIN KSTC 081800Z 15014G20KT 10SM CLR 11/01 A3012 840 50 600 150/14G20 RMK AO2
14926KSTC STC20051008120509810/08/05 12:05:31  5-MIN KSTC 081805Z 15011G20KT 10SM CLR 11/01 A3012 840 52 600 150/11G20 RMK AO2
14926KSTC STC20051008121009210/08/05 12:10:31  5-MIN KSTC 081810Z 13011KT 10SM CLR 11/01 A3012 850 50 600 130/11 RMK AO2
14926KSTC STC20051008121509210/08/05 12:15:31  5-MIN KSTC 081815Z 14013KT 10SM CLR 11/01 A3012 850 50 600 140/13 RMK AO2
14926KSTC STC20051008122009210/08/05 12:20:31  5-MIN KSTC 081820Z 16011KT 10SM CLR 11/01 A3011 850 50 600 160/11 RMK AO2
14926KSTC STC20051008122509210/08/05 12:25:31  5-MIN KSTC 081825Z 17010KT 10SM CLR 11/01 A3011 850 50 600 170/10 RMK AO2
14926KSTC STC20051008123009210/08/05 12:30:31  5-MIN KSTC 081830Z 17011KT 10SM CLR 11/01 A3011 850 50 600 160/11 RMK AO2
14926KSTC STC20051008123509210/08/05 12:35:31  5-MIN KSTC 081835Z 16012KT 10SM CLR 12/01 A3011 850 48 700 160/12 RMK AO2
14926KSTC STC20051008124009210/08/05 12:40:31  5-MIN KSTC 081840Z 16008KT 10SM CLR 11/01 A3011 860 50 600 160/08 RMK AO2
14926KSTC STC20051008124510810/08/05 12:45:31  5-MIN KSTC 081845Z 14009KT 110V180 10SM CLR 12/01 A3010 860 48 700 140/09 110V180 RMK AO2
14926KSTC STC20051008125011510/08/05 12:50:31  5-MIN KSTC 081850Z 15011G16KT 10SM CLR 12/01 A3010 860 48 700 150/11G16 RMK AO2 SLP209 T01170011
14926KSTC STC20051008125509810/08/05 12:55:31  5-MIN KSTC 081855Z 16011G16KT 10SM CLR 12/01 A3010 860 48 700 160/11G16 RMK AO2
14926KSTC STC20051008130009210/08/05 13:00:31  5-MIN KSTC 081900Z 14010KT 10SM CLR 12/02 A3010 860 50 700 130/10 RMK AO2
14926KSTC STC20051008130509210/08/05 13:05:31  5-MIN KSTC 081905Z 14012KT 10SM CLR 12/01 A3010 860 46 800 140/12 RMK AO2
14926KSTC STC20051008131009210/08/05 13:10:31  5-MIN KSTC 081910Z 17012KT 10SM CLR 12/01 A3010 860 48 700 170/12 RMK AO2
14926KSTC STC20051008131509210/08/05 13:15:31  5-MIN KSTC 081915Z 16012KT 10SM CLR 12/01 A3009 870 48 700 160/12 RMK AO2
14926KSTC STC20051008132009210/08/05 13:20:31  5-MIN KSTC 081920Z 15009KT 10SM CLR 12/01 A3009 870 48 700 150/09 RMK AO2
14926KSTC STC20051008132509210/08/05 13:25:31  5-MIN KSTC 081925Z 16009KT 10SM CLR 12/02 A3009 870 48 800 150/09 RMK AO2
14926KSTC STC20051008133009810/08/05 13:30:31  5-MIN KSTC 081930Z 15012G16KT 10SM CLR 12/01 A3009 870 46 800 150/12G16 RMK AO2
14926KSTC STC20051008133509210/08/05 13:35:31  5-MIN KSTC 081935Z 15012KT 10SM CLR 12/02 A3009 870 48 800 150/12 RMK AO2
14926KSTC STC20051008134009710/08/05 13:40:31  5-MIN KSTC 081940Z AUTO 15010KT 10SM CLR 12/02 A3009 870 48 800 140/10 RMK AO2
14926KSTC STC20051008134509210/08/05 13:45:31  5-MIN KSTC 081945Z 16010KT 10SM CLR 12/02 A3008 880 48 800 160/10 RMK AO2
14926KSTC STC20051008135010910/08/05 13:50:31  5-MIN KSTC 081950Z 13008KT 10SM CLR 12/02 A3008 880 48 800 130/08 RMK AO2 SLP203 T01220017
14926KSTC STC20051008135509210/08/05 13:55:31  5-MIN KSTC 081955Z 14010KT 10SM CLR 12/02 A3008 880 48 800 140/10 RMK AO2
14926KSTC STC20051008140009210/08/05 14:00:31  5-MIN KSTC 082000Z 16015KT 10SM CLR 12/02 A3008 880 48 800 150/15 RMK AO2
14926KSTC STC20051008140509810/08/05 14:05:31  5-MIN KSTC 082005Z 15010G16KT 10SM CLR 12/02 A3008 880 48 800 150/10G16 RMK AO2
14926KSTC STC20051008141009210/08/05 14:10:31  5-MIN KSTC 082010Z 16012KT 10SM CLR 12/02 A3008 880 48 800 160/12 RMK AO2
14926KSTC STC20051008141509210/08/05 14:15:31  5-MIN KSTC 082015Z 16009KT 10SM CLR 12/02 A3008 880 50 800 160/09 RMK AO2
14926KSTC STC20051008142009210/08/05 14:20:31  5-MIN KSTC 082020Z 16012KT 10SM CLR 12/02 A3008 880 48 800 160/12 RMK AO2
14926KSTC STC20051008142509210/08/05 14:25:31  5-MIN KSTC 082025Z 14011KT 10SM CLR 12/02 A3008 880 48 800 140/11 RMK AO2
14926KSTC STC20051008143009210/08/05 14:30:31  5-MIN KSTC 082030Z 16011KT 10SM CLR 12/02 A3008 880 48 800 150/11 RMK AO2
14926KSTC STC20051008143509210/08/05 14:35:31  5-MIN KSTC 082035Z 16012KT 10SM CLR 12/02 A3007 880 48 800 150/12 RMK AO2
14926KSTC STC20051008144009210/08/05 14:40:31  5-MIN KSTC 082040Z 14009KT 10SM CLR 12/02 A3007 890 48 800 140/09 RMK AO2
14926KSTC STC20051008144509810/08/05 14:45:31  5-MIN KSTC 082045Z 16012G18KT 10SM CLR 12/02 A3007 890 48 800 160/12G18 RMK AO2
14926KSTC STC20051008145012110/08/05 14:50:31  5-MIN KSTC 082050Z 15009G18KT 10SM CLR 12/02 A3007 890 48 800 150/09G18 RMK AO2 SLP197 T01220017 58013
14926KSTC STC20051008145510810/08/05 14:55:31  5-MIN KSTC 082055Z 13009KT 100V160 10SM CLR 12/02 A3007 890 48 800 120/09 100V160 RMK AO2
14926KSTC STC20051008150009210/08/05 15:00:31  5-MIN KSTC 082100Z 14012KT 10SM CLR 13/02 A3007 890 46 900 140/12 RMK AO2
14926KSTC STC20051008150509210/08/05 15:05:31  5-MIN KSTC 082105Z 15012KT 10SM CLR 12/02 A3007 890 48 800 150/12 RMK AO2
14926KSTC STC20051008151009210/08/05 15:10:31  5-MIN KSTC 082110Z 13011KT 10SM CLR 12/02 A3007 890 48 800 130/11 RMK AO2
14926KSTC STC20051008151509210/08/05 15:15:31  5-MIN KSTC 082115Z 16011KT 10SM CLR 12/02 A3006 890 48 800 160/11 RMK AO2
14926KSTC STC20051008152009210/08/05 15:20:31  5-MIN KSTC 082120Z 15013KT 10SM CLR 12/02 A3006 900 48 800 150/13 RMK AO2
14926KSTC STC20051008152509210/08/05 15:25:31  5-MIN KSTC 082125Z 15013KT 10SM CLR 12/02 A3006 900 48 800 150/13 RMK AO2
14926KSTC STC20051008153009210/08/05 15:30:31  5-MIN KSTC 082130Z 14010KT 10SM CLR 12/02 A3006 900 48 800 140/10 RMK AO2
14926KSTC STC20051008153509210/08/05 15:35:31  5-MIN KSTC 082135Z 14010KT 10SM CLR 13/02 A3006 900 46 900 130/10 RMK AO2
14926KSTC STC20051008154009210/08/05 15:40:31  5-MIN KSTC 082140Z 16010KT 10SM CLR 13/02 A3006 900 46 900 160/10 RMK AO2
14926KSTC STC20051008154509210/08/05 15:45:31  5-MIN KSTC 082145Z 14011KT 10SM CLR 13/02 A3006 900 46 900 140/11 RMK AO2
14926KSTC STC20051008155010910/08/05 15:50:31  5-MIN KSTC 082150Z 14011KT 10SM CLR 12/01 A3006 900 46 800 140/11 RMK AO2 SLP194 T01220011
14926KSTC STC20051008155509210/08/05 15:55:31  5-MIN KSTC 082155Z 16010KT 10SM CLR 12/02 A3006 900 48 800 160/10 RMK AO2
14926KSTC STC20051008160009210/08/05 16:00:31  5-MIN KSTC 082200Z 15011KT 10SM CLR 12/02 A3006 900 48 800 150/11 RMK AO2
14926KSTC STC20051008160509210/08/05 16:05:31  5-MIN KSTC 082205Z 16010KT 10SM CLR 12/02 A3005 900 48 800 160/10 RMK AO2
14926KSTC STC20051008161009210/08/05 16:10:31  5-MIN KSTC 082210Z 16009KT 10SM CLR 12/02 A3006 900 48 800 150/09 RMK AO2
14926KSTC STC20051008161509210/08/05 16:15:31  5-MIN KSTC 082215Z 13011KT 10SM CLR 12/02 A3005 900 48 800 130/11 RMK AO2
14926KSTC STC20051008162009210/08/05 16:20:31  5-MIN KSTC 082220Z 13009KT 10SM CLR 12/02 A3005 900 48 800 130/09 RMK AO2
14926KSTC STC20051008162509210/08/05 16:25:31  5-MIN KSTC 082225Z 16011KT 10SM CLR 12/02 A3005 900 48 800 160/11 RMK AO2
14926KSTC STC20051008163009210/08/05 16:30:31  5-MIN KSTC 082230Z 15011KT 10SM CLR 12/02 A3005 910 50 800 150/11 RMK AO2
14926KSTC STC20051008163509210/08/05 16:35:31  5-MIN KSTC 082235Z 13008KT 10SM CLR 12/02 A3005 910 50 800 130/08 RMK AO2
14926KSTC STC20051008164009210/08/05 16:40:31  5-MIN KSTC 082240Z 13011KT 10SM CLR 12/02 A3005 910 50 800 130/11 RMK AO2
14926KSTC STC20051008164509210/08/05 16:45:31  5-MIN KSTC 082245Z 13008KT 10SM CLR 12/02 A3004 910 50 800 130/08 RMK AO2
14926KSTC STC20051008165010910/08/05 16:50:31  5-MIN KSTC 082250Z 13009KT 10SM CLR 12/02 A3004 910 50 800 130/09 RMK AO2 SLP189 T01170017
14926KSTC STC20051008165509210/08/05 16:55:31  5-MIN KSTC 082255Z 14010KT 10SM CLR 12/02 A3004 910 50 800 140/10 RMK AO2
14926KSTC STC20051008170009210/08/05 17:00:31  5-MIN KSTC 082300Z 14009KT 10SM CLR 12/02 A3004 910 50 800 140/09 RMK AO2
14926KSTC STC20051008170509210/08/05 17:05:31  5-MIN KSTC 082305Z 14009KT 10SM CLR 11/02 A3004 910 52 700 140/09 RMK AO2
14926KSTC STC20051008171009210/08/05 17:10:31  5-MIN KSTC 082310Z 14008KT 10SM CLR 11/02 A3004 910 52 700 130/08 RMK AO2
14926KSTC STC20051008171509210/08/05 17:15:31  5-MIN KSTC 082315Z 13006KT 10SM CLR 11/02 A3004 910 52 700 130/06 RMK AO2
14926KSTC STC20051008172009210/08/05 17:20:31  5-MIN KSTC 082320Z 13006KT 10SM CLR 11/02 A3004 910 52 700 120/06 RMK AO2
14926KSTC STC20051008172509210/08/05 17:25:31  5-MIN KSTC 082325Z 12006KT 10SM CLR 11/02 A3004 920 52 700 120/06 RMK AO2
14926KSTC STC20051008173009210/08/05 17:30:31  5-MIN KSTC 082330Z 12006KT 10SM CLR 11/02 A3004 920 56 600 120/06 RMK AO2
14926KSTC STC20051008173509210/08/05 17:35:31  5-MIN KSTC 082335Z 13006KT 10SM CLR 10/02 A3004 910 58 600 120/06 RMK AO2
14926KSTC STC20051008174009210/08/05 17:40:31  5-MIN KSTC 082340Z 12005KT 10SM CLR 10/02 A3004 920 58 600 120/05 RMK AO2
14926KSTC STC20051008174509210/08/05 17:45:31  5-MIN KSTC 082345Z 12005KT 10SM CLR 10/02 A3004 910 58 600 110/05 RMK AO2
14926KSTC STC20051008175012710/08/05 17:50:31  5-MIN KSTC 082350Z 12005KT 10SM CLR 09/02 A3004 920 60 500 120/05 RMK AO2 SLP190 T00940022 10128 20094 56018
14926KSTC STC20051008175509210/08/05 17:55:31  5-MIN KSTC 082355Z 12005KT 10SM CLR 09/02 A3004 920 60 500 120/05 RMK AO2
14926KSTC STC20051008180009210/08/05 18:00:31  5-MIN KSTC 090000Z 12005KT 10SM CLR 09/02 A3004 920 60 500 110/05 RMK AO2
14926KSTC STC20051008182009210/08/05 18:20:31  5-MIN KSTC 090020Z 11005KT 10SM CLR 08/02 A3004 920 65 400 110/05 RMK AO2
14926KSTC STC20051008182509210/08/05 18:25:31  5-MIN KSTC 090025Z 11004KT 10SM CLR 08/02 A3004 920 65 400 100/04 RMK AO2
14926KSTC STC20051008183009210/08/05 18:30:31  5-MIN KSTC 090030Z 11005KT 10SM CLR 08/02 A3004 920 65 400 100/05 RMK AO2
14926KSTC STC20051008183509210/08/05 18:35:31  5-MIN KSTC 090035Z 11005KT 10SM CLR 08/02 A3004 920 65 400 100/05 RMK AO2
14926KSTC STC20051008184009210/08/05 18:40:31  5-MIN KSTC 090040Z 11005KT 10SM CLR 08/02 A3004 920 68 300 100/05 RMK AO2
14926KSTC STC20051008184509210/08/05 18:45:31  5-MIN KSTC 090045Z 11005KT 10SM CLR 08/02 A3004 920 68 300 110/05 RMK AO2
14926KSTC STC20051008185010910/08/05 18:50:31  5-MIN KSTC 090050Z 11005KT 10SM CLR 08/02 A3004 920 68 300 110/05 RMK AO2 SLP190 T00780022
14926KSTC STC20051008185509210/08/05 18:55:31  5-MIN KSTC 090055Z 10005KT 10SM CLR 08/02 A3004 920 68 300 100/05 RMK AO2
14926KSTC STC20051008190009210/08/05 19:00:31  5-MIN KSTC 090100Z 10006KT 10SM CLR 08/02 A3004 920 68 300 100/06 RMK AO2
14926KSTC STC20051008190509210/08/05 19:05:31  5-MIN KSTC 090105Z 10006KT 10SM CLR 08/02 A3004 920 68 300 100/06 RMK AO2
14926KSTC STC20051008191009210/08/05 19:10:31  5-MIN KSTC 090110Z 10006KT 10SM CLR 08/02 A3004 920 68 300 100/06 RMK AO2
14926KSTC STC20051008191509210/08/05 19:15:31  5-MIN KSTC 090115Z 10005KT 10SM CLR 08/02 A3004 920 68 300 100/05 RMK AO2
14926KSTC STC20051008192009210/08/05 19:20:31  5-MIN KSTC 090120Z 10006KT 10SM CLR 08/02 A3004 920 68 300 100/06 RMK AO2
14926KSTC STC20051008192509210/08/05 19:25:31  5-MIN KSTC 090125Z 10005KT 10SM CLR 07/02 A3004 920 70 200 090/05 RMK AO2
14926KSTC STC20051008193009210/08/05 19:30:31  5-MIN KSTC 090130Z 10006KT 10SM CLR 07/02 A3004 920 70 200 100/06 RMK AO2
14926KSTC STC20051008193509210/08/05 19:35:31  5-MIN KSTC 090135Z 10006KT 10SM CLR 07/02 A3004 920 70 200 100/06 RMK AO2
14926KSTC STC20051008194009210/08/05 19:40:31  5-MIN KSTC 090140Z 10006KT 10SM CLR 07/02 A3004 910 70 200 100/06 RMK AO2
14926KSTC STC20051008194509210/08/05 19:45:31  5-MIN KSTC 090145Z 10005KT 10SM CLR 07/02 A3004 910 70 200 100/05 RMK AO2
14926KSTC STC20051008195010910/08/05 19:50:31  5-MIN KSTC 090150Z 10006KT 10SM CLR 07/02 A3005 910 70 200 100/06 RMK AO2 SLP191 T00720022
14926KSTC STC20051008195509210/08/05 19:55:31  5-MIN KSTC 090155Z 11005KT 10SM CLR 07/02 A3005 910 70 200 110/05 RMK AO2
14926KSTC STC20051008200009210/08/05 20:00:31  5-MIN KSTC 090200Z 11004KT 10SM CLR 07/02 A3005 910 70 200 110/04 RMK AO2
14926KSTC STC20051008200509210/08/05 20:05:31  5-MIN KSTC 090205Z 11006KT 10SM CLR 07/02 A3004 910 73 200 110/06 RMK AO2
14926KSTC STC20051008201009210/08/05 20:10:31  5-MIN KSTC 090210Z 11006KT 10SM CLR 07/02 A3004 910 73 200 110/06 RMK AO2
14926KSTC STC20051008201509210/08/05 20:15:31  5-MIN KSTC 090215Z 12006KT 10SM CLR 07/02 A3005 910 70 200 120/06 RMK AO2
14926KSTC STC20051008202009210/08/05 20:20:31  5-MIN KSTC 090220Z 12006KT 10SM CLR 07/02 A3005 910 70 200 120/06 RMK AO2
14926KSTC STC20051008202509210/08/05 20:25:31  5-MIN KSTC 090225Z 12006KT 10SM CLR 07/02 A3005 910 70 200 120/06 RMK AO2
14926KSTC STC20051008203009210/08/05 20:30:31  5-MIN KSTC 090230Z 12006KT 10SM CLR 07/02 A3005 910 70 200 120/06 RMK AO2
14926KSTC STC20051008203509210/08/05 20:35:31  5-MIN KSTC 090235Z 12006KT 10SM CLR 07/02 A3005 910 70 200 120/06 RMK AO2
14926KSTC STC20051008204009210/08/05 20:40:31  5-MIN KSTC 090240Z 12006KT 10SM CLR 07/02 A3005 910 70 200 120/06 RMK AO2
14926KSTC STC20051008204509210/08/05 20:45:31  5-MIN KSTC 090245Z 12007KT 10SM CLR 07/02 A3005 910 70 200 120/07 RMK AO2
14926KSTC STC20051008205011510/08/05 20:50:31  5-MIN KSTC 090250Z 12007KT 10SM CLR 07/02 A3005 910 70 200 120/07 RMK AO2 SLP191 T00720022 56009
14926KSTC STC20051008205509210/08/05 20:55:31  5-MIN KSTC 090255Z 12007KT 10SM CLR 07/02 A3005 910 70 200 120/07 RMK AO2
14926KSTC STC20051008210009210/08/05 21:00:31  5-MIN KSTC 090300Z 12006KT 10SM CLR 07/02 A3005 910 68 200 120/06 RMK AO2
14926KSTC STC20051008210509210/08/05 21:05:31  5-MIN KSTC 090305Z 12007KT 10SM CLR 07/02 A3005 910 68 200 110/07 RMK AO2
14926KSTC STC20051008211009210/08/05 21:10:31  5-MIN KSTC 090310Z 12007KT 10SM CLR 07/02 A3005 910 70 200 120/07 RMK AO2
14926KSTC STC20051008211509210/08/05 21:15:31  5-MIN KSTC 090315Z 12007KT 10SM CLR 07/02 A3005 910 68 200 120/07 RMK AO2
14926KSTC STC20051008212009210/08/05 21:20:31  5-MIN KSTC 090320Z 12006KT 10SM CLR 07/02 A3005 910 68 200 120/06 RMK AO2
14926KSTC STC20051008212509210/08/05 21:25:31  5-MIN KSTC 090325Z 12006KT 10SM CLR 07/02 A3005 910 70 200 120/06 RMK AO2
14926KSTC STC20051008213009210/08/05 21:30:31  5-MIN KSTC 090330Z 12007KT 10SM CLR 07/02 A3005 910 70 200 120/07 RMK AO2
14926KSTC STC20051008213509210/08/05 21:35:31  5-MIN KSTC 090335Z 11006KT 10SM CLR 07/02 A3005 910 70 200 110/06 RMK AO2
14926KSTC STC20051008214009210/08/05 21:40:31  5-MIN KSTC 090340Z 11004KT 10SM CLR 07/02 A3005 910 70 200 110/04 RMK AO2
14926KSTC STC20051008214509210/08/05 21:45:31  5-MIN KSTC 090345Z 11005KT 10SM CLR 07/02 A3005 900 70 200 110/05 RMK AO2
14926KSTC STC20051008215010910/08/05 21:50:31  5-MIN KSTC 090350Z 11005KT 10SM CLR 07/02 A3005 900 70 200 110/05 RMK AO2 SLP191 T00670017
14926KSTC STC20051008215509710/08/05 21:55:31  5-MIN KSTC 090355Z AUTO 11005KT 10SM CLR 07/02 A3005 900 70 200 110/05 RMK AO2
14926KSTC STC20051008220009710/08/05 22:00:31  5-MIN KSTC 090400Z AUTO 10005KT 10SM CLR 06/02 A3005 900 73 100 100/05 RMK AO2
14926KSTC STC20051008220509710/08/05 22:05:31  5-MIN KSTC 090405Z AUTO 10005KT 10SM CLR 06/02 A3005 900 73 100 100/05 RMK AO2
14926KSTC STC20051008221009510/08/05 22:10:31  5-MIN KSTC 090410Z AUTO 10005KT 10SM CLR 06/02 A3005 900 76 0 100/05 RMK AO2
14926KSTC STC20051008221509510/08/05 22:15:31  5-MIN KSTC 090415Z AUTO 10005KT 10SM CLR 06/02 A3005 900 76 0 090/05 RMK AO2
14926KSTC STC20051008222009510/08/05 22:20:31  5-MIN KSTC 090420Z AUTO 09004KT 10SM CLR 06/02 A3005 900 76 0 090/04 RMK AO2
14926KSTC STC20051008222509510/08/05 22:25:31  5-MIN KSTC 090425Z AUTO 10004KT 10SM CLR 06/02 A3005 900 76 0 100/04 RMK AO2
14926KSTC STC20051008223009510/08/05 22:30:31  5-MIN KSTC 090430Z AUTO 10005KT 10SM CLR 06/02 A3005 900 76 0 100/05 RMK AO2
14926KSTC STC20051008223509510/08/05 22:35:31  5-MIN KSTC 090435Z AUTO 10006KT 10SM CLR 06/02 A3005 900 76 0 100/06 RMK AO2
14926KSTC STC20051008224009510/08/05 22:40:31  5-MIN KSTC 090440Z AUTO 10005KT 10SM CLR 06/02 A3006 900 76 0 100/05 RMK AO2
14926KSTC STC20051008224509510/08/05 22:45:31  5-MIN KSTC 090445Z AUTO 11005KT 10SM CLR 06/02 A3006 900 76 0 100/05 RMK AO2
14926KSTC STC20051008225011210/08/05 22:50:31  5-MIN KSTC 090450Z AUTO 11006KT 10SM CLR 06/02 A3006 900 76 0 110/06 RMK AO2 SLP192 T00560017
14926KSTC STC20051008225509510/08/05 22:55:31  5-MIN KSTC 090455Z AUTO 11005KT 10SM CLR 06/02 A3006 900 76 0 100/05 RMK AO2
14926KSTC STC20051008230009510/08/05 23:00:31  5-MIN KSTC 090500Z AUTO 10006KT 10SM CLR 06/02 A3006 900 76 0 100/06 RMK AO2
14926KSTC STC20051008230509510/08/05 23:05:31  5-MIN KSTC 090505Z AUTO 10006KT 10SM CLR 06/02 A3006 900 76 0 100/06 RMK AO2
14926KSTC STC20051008231009510/08/05 23:10:31  5-MIN KSTC 090510Z AUTO 10006KT 10SM CLR 06/02 A3006 900 76 0 100/06 RMK AO2
14926KSTC STC20051008231509510/08/05 23:15:31  5-MIN KSTC 090515Z AUTO 10006KT 10SM CLR 05/02 A3006 900 79 0 100/06 RMK AO2
14926KSTC STC20051008232009510/08/05 23:20:31  5-MIN KSTC 090520Z AUTO 10006KT 10SM CLR 05/02 A3006 890 79 0 100/06 RMK AO2
14926KSTC STC20051008232509510/08/05 23:25:31  5-MIN KSTC 090525Z AUTO 11006KT 10SM CLR 05/02 A3006 900 79 0 100/06 RMK AO2
14926KSTC STC20051008233009510/08/05 23:30:31  5-MIN KSTC 090530Z AUTO 11006KT 10SM CLR 05/02 A3006 900 79 0 100/06 RMK AO2
14926KSTC STC20051008233509510/08/05 23:35:31  5-MIN KSTC 090535Z AUTO 10005KT 10SM CLR 05/02 A3006 900 79 0 100/05 RMK AO2
14926KSTC STC20051008234009510/08/05 23:40:31  5-MIN KSTC 090540Z AUTO 10006KT 10SM CLR 05/02 A3006 900 79 0 100/06 RMK AO2
14926KSTC STC20051008234509510/08/05 23:45:31  5-MIN KSTC 090545Z AUTO 10006KT 10SM CLR 05/02 A3006 900 79 0 100/06 RMK AO2
14926KSTC STC20051008235014010/08/05 23:50:31  5-MIN KSTC 090550Z AUTO 11006KT 10SM CLR 05/02 A3006 900 79 0 100/06 RMK AO2 SLP194 T00500017 10094 20050 401281006 53003
14926KSTC STC20051008235509510/08/05 23:55:31  5-MIN KSTC 090555Z AUTO 11006KT 10SM CLR 05/02 A3006 890 79 0 110/06 RMK AO2
14926KSTC STC20051009000009510/09/05 00:00:32  5-MIN KSTC 090600Z AUTO 11006KT 10SM CLR 05/02 A3006 890 79 0 100/06 RMK AO2
14926KSTC STC20051009000509510/09/05 00:05:31  5-MIN KSTC 090605Z AUTO 11006KT 10SM CLR 05/02 A3006 890 79 0 100/06 RMK AO2
14926KSTC STC20051009001009510/09/05 00:10:31  5-MIN KSTC 090610Z AUTO 11005KT 10SM CLR 05/02 A3006 890 79 0 100/05 RMK AO2
14926KSTC STC20051009001509510/09/05 00:15:31  5-MIN KSTC 090615Z AUTO 11006KT 10SM CLR 05/02 A3007 890 79 0 100/06 RMK AO2
14926KSTC STC20051009002009810/09/05 00:20:31  5-MIN KSTC 090620Z AUTO 11006KT 10SM CLR 04/02 A3007 890 82 -100 110/06 RMK AO2
14926KSTC STC20051009002509810/09/05 00:25:31  5-MIN KSTC 090625Z AUTO 11006KT 10SM CLR 04/02 A3007 890 82 -100 110/06 RMK AO2
14926KSTC STC20051009003009810/09/05 00:30:31  5-MIN KSTC 090630Z AUTO 11006KT 10SM CLR 04/02 A3007 890 82 -100 110/06 RMK AO2
14926KSTC STC20051009003509810/09/05 00:35:31  5-MIN KSTC 090635Z AUTO 11005KT 10SM CLR 04/02 A3007 890 82 -100 110/05 RMK AO2
14926KSTC STC20051009004009810/09/05 00:40:31  5-MIN KSTC 090640Z AUTO 11005KT 10SM CLR 04/02 A3007 890 82 -100 110/05 RMK AO2
14926KSTC STC20051009004509810/09/05 00:45:31  5-MIN KSTC 090645Z AUTO 11006KT 10SM CLR 04/02 A3007 890 82 -100 110/06 RMK AO2
14926KSTC STC20051009005011510/09/05 00:50:31  5-MIN KSTC 090650Z AUTO 11006KT 10SM CLR 04/02 A3007 890 82 -100 110/06 RMK AO2 SLP198 T00440017
14926KSTC STC20051009005509810/09/05 00:55:31  5-MIN KSTC 090655Z AUTO 12006KT 10SM CLR 04/02 A3008 880 82 -100 110/06 RMK AO2
14926KSTC STC20051009010009810/09/05 01:00:31  5-MIN KSTC 090700Z AUTO 12005KT 10SM CLR 04/02 A3008 880 82 -100 120/05 RMK AO2
14926KSTC STC20051009010509810/09/05 01:05:31  5-MIN KSTC 090705Z AUTO 12006KT 10SM CLR 04/02 A3008 880 82 -100 120/06 RMK AO2
14926KSTC STC20051009011009810/09/05 01:10:31  5-MIN KSTC 090710Z AUTO 12006KT 10SM CLR 04/02 A3008 880 82 -100 120/06 RMK AO2
14926KSTC STC20051009011509510/09/05 01:15:31  5-MIN KSTC 090715Z AUTO 12006KT 10SM CLR 05/02 A3008 880 82 0 120/06 RMK AO2
14926KSTC STC20051009012009510/09/05 01:20:31  5-MIN KSTC 090720Z AUTO 12007KT 10SM CLR 05/02 A3008 880 82 0 120/07 RMK AO2
14926KSTC STC20051009012509510/09/05 01:25:31  5-MIN KSTC 090725Z AUTO 12007KT 10SM CLR 05/02 A3008 880 82 0 120/07 RMK AO2
14926KSTC STC20051009013009510/09/05 01:30:31  5-MIN KSTC 090730Z AUTO 12007KT 10SM CLR 05/02 A3008 880 82 0 120/07 RMK AO2
14926KSTC STC20051009013509510/09/05 01:35:31  5-MIN KSTC 090735Z AUTO 12007KT 10SM CLR 05/02 A3008 880 82 0 120/07 RMK AO2
14926KSTC STC20051009014009510/09/05 01:40:31  5-MIN KSTC 090740Z AUTO 12007KT 10SM CLR 05/02 A3008 880 82 0 120/07 RMK AO2
14926KSTC STC20051009014509510/09/05 01:45:31  5-MIN KSTC 090745Z AUTO 12007KT 10SM CLR 05/02 A3008 880 82 0 120/07 RMK AO2
14926KSTC STC20051009015011210/09/05 01:50:31  5-MIN KSTC 090750Z AUTO 13007KT 10SM CLR 05/02 A3008 880 82 0 120/07 RMK AO2 SLP201 T00500022
14926KSTC STC20051009015509810/09/05 01:55:31  5-MIN KSTC 090755Z AUTO 13006KT 10SM CLR 04/02 A3008 880 85 -100 120/06 RMK AO2
14926KSTC STC20051009020009810/09/05 02:00:31  5-MIN KSTC 090800Z AUTO 12006KT 10SM CLR 04/02 A3008 880 85 -100 120/06 RMK AO2
14926KSTC STC20051009020509810/09/05 02:05:31  5-MIN KSTC 090805Z AUTO 13007KT 10SM CLR 04/02 A3008 880 85 -100 130/07 RMK AO2
14926KSTC STC20051009021009810/09/05 02:10:31  5-MIN KSTC 090810Z AUTO 13007KT 10SM CLR 04/02 A3008 880 85 -100 120/07 RMK AO2
14926KSTC STC20051009021509810/09/05 02:15:31  5-MIN KSTC 090815Z AUTO 12006KT 10SM CLR 04/02 A3008 880 85 -100 120/06 RMK AO2
14926KSTC STC20051009022009810/09/05 02:20:31  5-MIN KSTC 090820Z AUTO 12006KT 10SM CLR 04/02 A3008 880 85 -100 120/06 RMK AO2
14926KSTC STC20051009022509810/09/05 02:25:31  5-MIN KSTC 090825Z AUTO 12005KT 10SM CLR 04/02 A3008 880 85 -100 120/05 RMK AO2
14926KSTC STC20051009023009810/09/05 02:30:31  5-MIN KSTC 090830Z AUTO 12006KT 10SM CLR 04/02 A3008 880 85 -100 120/06 RMK AO2
14926KSTC STC20051009023509810/09/05 02:35:31  5-MIN KSTC 090835Z AUTO 12005KT 10SM CLR 04/02 A3008 880 89 -200 120/05 RMK AO2
14926KSTC STC20051009024009810/09/05 02:40:31  5-MIN KSTC 090840Z AUTO 12006KT 10SM CLR 04/02 A3008 880 89 -200 120/06 RMK AO2
14926KSTC STC20051009024509810/09/05 02:45:31  5-MIN KSTC 090845Z AUTO 12005KT 10SM CLR 04/02 A3008 880 89 -200 120/05 RMK AO2
14926KSTC STC20051009025012110/09/05 02:50:31  5-MIN KSTC 090850Z AUTO 12006KT 10SM CLR 04/02 A3008 880 89 -200 120/06 RMK AO2 SLP202 T00390022 53004
14926KSTC STC20051009025509810/09/05 02:55:31  5-MIN KSTC 090855Z AUTO 12005KT 10SM CLR 04/02 A3008 870 89 -200 110/05 RMK AO2
14926KSTC STC20051009030009810/09/05 03:00:31  5-MIN KSTC 090900Z AUTO 12005KT 10SM CLR 04/02 A3008 870 89 -200 110/05 RMK AO2
14926KSTC STC20051009030509810/09/05 03:05:31  5-MIN KSTC 090905Z AUTO 12004KT 10SM CLR 04/02 A3008 870 89 -200 110/04 RMK AO2
14926KSTC STC20051009031009810/09/05 03:10:31  5-MIN KSTC 090910Z AUTO 12005KT 10SM CLR 04/02 A3008 880 85 -200 110/05 RMK AO2
14926KSTC STC20051009031509810/09/05 03:15:31  5-MIN KSTC 090915Z AUTO 11004KT 10SM CLR 03/02 A3009 870 89 -200 110/04 RMK AO2
14926KSTC STC20051009032009810/09/05 03:20:31  5-MIN KSTC 090920Z AUTO 11004KT 10SM CLR 03/02 A3009 870 89 -200 110/04 RMK AO2
14926KSTC STC20051009032509810/09/05 03:25:31  5-MIN KSTC 090925Z AUTO 12005KT 10SM CLR 03/02 A3008 870 89 -200 110/05 RMK AO2
14926KSTC STC20051009033009810/09/05 03:30:31  5-MIN KSTC 090930Z AUTO 11006KT 10SM CLR 04/02 A3008 870 85 -200 110/06 RMK AO2
14926KSTC STC20051009033509810/09/05 03:35:31  5-MIN KSTC 090935Z AUTO 12006KT 10SM CLR 04/02 A3008 870 89 -200 110/06 RMK AO2
14926KSTC STC20051009034009810/09/05 03:40:31  5-MIN KSTC 090940Z AUTO 12005KT 10SM CLR 04/02 A3008 870 89 -200 110/05 RMK AO2
14926KSTC STC20051009034509810/09/05 03:45:31  5-MIN KSTC 090945Z AUTO 12005KT 10SM CLR 04/02 A3008 870 89 -200 120/05 RMK AO2
14926KSTC STC20051009035011510/09/05 03:50:31  5-MIN KSTC 090950Z AUTO 12004KT 10SM CLR 04/02 A3009 870 89 -200 120/04 RMK AO2 SLP202 T00390022
14926KSTC STC20051009035509810/09/05 03:55:31  5-MIN KSTC 090955Z AUTO 12004KT 10SM CLR 04/02 A3009 870 89 -200 120/04 RMK AO2
14926KSTC STC20051009040009810/09/05 04:00:31  5-MIN KSTC 091000Z AUTO 12003KT 10SM CLR 03/02 A3009 870 89 -200 120/03 RMK AO2
14926KSTC STC20051009040509810/09/05 04:05:31  5-MIN KSTC 091005Z AUTO 12003KT 10SM CLR 03/02 A3009 870 92 -300 110/03 RMK AO2
14926KSTC STC20051009041009810/09/05 04:10:31  5-MIN KSTC 091010Z AUTO 12003KT 10SM CLR 03/02 A3009 870 92 -300 110/03 RMK AO2
14926KSTC STC20051009041509710/09/05 04:15:31  5-MIN KSTC 091015Z AUTO 12003KT 9SM CLR 03/01 A3009 870 89 -300 110/03 RMK AO2
14926KSTC STC20051009042009710/09/05 04:20:31  5-MIN KSTC 091020Z AUTO 12003KT 9SM CLR 03/02 A3009 870 92 -300 110/03 RMK AO2
14926KSTC STC20051009042509810/09/05 04:25:31  5-MIN KSTC 091025Z AUTO 12004KT 10SM CLR 03/02 A3009 870 89 -200 120/04 RMK AO2
14926KSTC STC20051009043009810/09/05 04:30:31  5-MIN KSTC 091030Z AUTO 11004KT 10SM CLR 03/02 A3010 860 89 -300 110/04 RMK AO2
14926KSTC STC20051009043509810/09/05 04:35:31  5-MIN KSTC 091035Z AUTO 11004KT 10SM CLR 03/02 A3010 860 89 -300 110/04 RMK AO2
14926KSTC STC20051009044009810/09/05 04:40:31  5-MIN KSTC 091040Z AUTO 11004KT 10SM CLR 03/02 A3010 860 89 -300 110/04 RMK AO2
14926KSTC STC20051009044509810/09/05 04:45:31  5-MIN KSTC 091045Z AUTO 11004KT 10SM CLR 03/02 A3010 860 89 -300 100/04 RMK AO2
14926KSTC STC20051009045011510/09/05 04:50:31  5-MIN KSTC 091050Z AUTO 11004KT 10SM CLR 03/02 A3010 860 89 -300 110/04 RMK AO2 SLP206 T00330017
14926KSTC STC20051009045509810/09/05 04:55:31  5-MIN KSTC 091055Z AUTO 11004KT 10SM CLR 03/02 A3010 860 89 -300 110/04 RMK AO2
14926KSTC STC20051009050009710/09/05 05:00:31  5-MIN KSTC 091100Z AUTO 11004KT 9SM CLR 03/02 A3010 860 89 -300 100/04 RMK AO2
14926KSTC STC20051009050509710/09/05 05:05:31  5-MIN KSTC 091105Z AUTO 11005KT 9SM CLR 03/02 A3010 860 89 -300 110/05 RMK AO2
14926KSTC STC20051009051009710/09/05 05:10:31  5-MIN KSTC 091110Z AUTO 10005KT 9SM CLR 03/02 A3010 860 92 -300 100/05 RMK AO2
14926KSTC STC20051009051509710/09/05 05:15:31  5-MIN KSTC 091115Z AUTO 11004KT 9SM CLR 03/02 A3010 860 89 -300 100/04 RMK AO2
14926KSTC STC20051009052009710/09/05 05:20:31  5-MIN KSTC 091120Z AUTO 11004KT 9SM CLR 03/02 A3010 860 92 -300 110/04 RMK AO2
14926KSTC STC20051009052509710/09/05 05:25:31  5-MIN KSTC 091125Z AUTO 10005KT 9SM CLR 03/02 A3010 860 92 -300 100/05 RMK AO2
14926KSTC STC20051009053009710/09/05 05:30:31  5-MIN KSTC 091130Z AUTO 10005KT 8SM CLR 03/02 A3010 860 92 -300 100/05 RMK AO2
14926KSTC STC20051009053509710/09/05 05:35:31  5-MIN KSTC 091135Z AUTO 10004KT 8SM CLR 03/01 A3010 860 89 -300 090/04 RMK AO2
14926KSTC STC20051009054009710/09/05 05:40:31  5-MIN KSTC 091140Z AUTO 10004KT 7SM CLR 03/01 A3010 860 89 -300 090/04 RMK AO2
14926KSTC STC20051009054509210/09/05 05:45:31  5-MIN KSTC 091145Z 09005KT 7SM CLR 02/01 A3010 860 92 -400 090/05 RMK AO2
14926KSTC STC20051009055012710/09/05 05:50:31  5-MIN KSTC 091150Z 09005KT 7SM CLR 02/01 A3010 860 92 -400 090/05 RMK AO2 SLP210 T00220011 10050 20022 51007
14926KSTC STC20051009055509210/09/05 05:55:31  5-MIN KSTC 091155Z 10005KT 7SM CLR 02/01 A3010 860 92 -400 100/05 RMK AO2
14926KSTC STC20051009060009510/09/05 06:00:31  5-MIN KSTC 091200Z 10006KT 6SM BR CLR 02/01 A3010 860 92 -400 100/06 RMK AO2
14926KSTC STC20051009060509510/09/05 06:05:31  5-MIN KSTC 091205Z 10005KT 6SM BR CLR 02/01 A3010 860 92 -400 100/05 RMK AO2
14926KSTC STC20051009061009510/09/05 06:10:31  5-MIN KSTC 091210Z 10005KT 6SM BR CLR 02/01 A3010 860 92 -400 100/05 RMK AO2
14926KSTC STC20051009061509510/09/05 06:15:31  5-MIN KSTC 091215Z 10005KT 6SM BR CLR 03/02 A3010 860 92 -300 100/05 RMK AO2
14926KSTC STC20051009062009510/09/05 06:20:31  5-MIN KSTC 091220Z 10006KT 6SM BR CLR 03/02 A3010 860 92 -300 100/06 RMK AO2
14926KSTC STC20051009062509510/09/05 06:25:31  5-MIN KSTC 091225Z 10005KT 6SM BR CLR 03/02 A3010 860 92 -300 100/05 RMK AO2
14926KSTC STC20051009063009510/09/05 06:30:31  5-MIN KSTC 091230Z 10004KT 5SM BR CLR 02/01 A3010 860 92 -400 090/04 RMK AO2
14926KSTC STC20051009063509510/09/05 06:35:31  5-MIN KSTC 091235Z 10005KT 4SM BR CLR 02/01 A3010 860 92 -400 100/05 RMK AO2
14926KSTC STC20051009064009510/09/05 06:40:31  5-MIN KSTC 091240Z 10005KT 4SM BR CLR 02/01 A3010 860 92 -400 100/05 RMK AO2
14926KSTC STC20051009064509510/09/05 06:45:31  5-MIN KSTC 091245Z 10005KT 4SM BR CLR 03/02 A3010 860 92 -300 100/05 RMK AO2
14926KSTC STC20051009065011210/09/05 06:50:31  5-MIN KSTC 091250Z 11005KT 4SM BR CLR 03/02 A3010 860 92 -300 110/05 RMK AO2 SLP210 T00280017
14926KSTC STC20051009065509510/09/05 06:55:31  5-MIN KSTC 091255Z 10004KT 4SM BR CLR 03/02 A3010 860 92 -300 100/04 RMK AO2
14926KSTC STC20051009070009510/09/05 07:00:31  5-MIN KSTC 091300Z 10004KT 4SM BR CLR 03/02 A3011 850 92 -300 100/04 RMK AO2
14926KSTC STC20051009070509510/09/05 07:05:31  5-MIN KSTC 091305Z 10004KT 5SM BR CLR 03/02 A3011 860 92 -300 100/04 RMK AO2
14926KSTC STC20051009071009510/09/05 07:10:31  5-MIN KSTC 091310Z 11005KT 5SM BR CLR 03/02 A3011 850 92 -300 100/05 RMK AO2
14926KSTC STC20051009071509510/09/05 07:15:31  5-MIN KSTC 091315Z 11005KT 5SM BR CLR 03/02 A3011 850 92 -300 100/05 RMK AO2
14926KSTC STC20051009072009510/09/05 07:20:31  5-MIN KSTC 091320Z 12005KT 5SM BR CLR 03/02 A3011 850 92 -300 110/05 RMK AO2
14926KSTC STC20051009072509510/09/05 07:25:31  5-MIN KSTC 091325Z 12007KT 5SM BR CLR 04/02 A3011 850 89 -200 110/07 RMK AO2
14926KSTC STC20051009073009510/09/05 07:30:31  5-MIN KSTC 091330Z 11005KT 6SM BR CLR 04/03 A3011 850 92 -200 110/05 RMK AO2
14926KSTC STC20051009073509510/09/05 07:35:31  5-MIN KSTC 091335Z VRB06KT 6SM BR CLR 04/03 A3011 850 92 -200 VRB/06 RMK AO2
14926KSTC STC20051009074009510/09/05 07:40:31  5-MIN KSTC 091340Z 12006KT 6SM BR CLR 04/03 A3011 850 89 -100 110/06 RMK AO2
14926KSTC STC20051009074509510/09/05 07:45:31  5-MIN KSTC 091345Z 13007KT 6SM BR CLR 04/03 A3011 850 89 -100 120/07 RMK AO2
14926KSTC STC20051009075010910/09/05 07:50:31  5-MIN KSTC 091350Z 12008KT 7SM CLR 05/03 A3011 850 85 -100 120/08 RMK AO2 SLP213 T00500028
14926KSTC STC20051009075509210/09/05 07:55:31  5-MIN KSTC 091355Z 13007KT 7SM CLR 05/03 A3011 850 89 -100 130/07 RMK AO2
14926KSTC STC20051009080009210/09/05 08:00:31  5-MIN KSTC 091400Z 12007KT 7SM CLR 05/03 A3011 850 89 -100 120/07 RMK AO2
14926KSTC STC20051009080508910/09/05 08:05:31  5-MIN KSTC 091405Z 12006KT 8SM CLR 06/03 A3011 850 85 0 120/06 RMK AO2
14926KSTC STC20051009081008910/09/05 08:10:31  5-MIN KSTC 091410Z 13006KT 8SM CLR 06/03 A3011 850 85 0 120/06 RMK AO2
14926KSTC STC20051009081508910/09/05 08:15:31  5-MIN KSTC 091415Z 14006KT 8SM CLR 06/03 A3011 850 82 0 130/06 RMK AO2
14926KSTC STC20051009082008910/09/05 08:20:31  5-MIN KSTC 091420Z 13007KT 8SM CLR 06/04 A3011 850 86 0 130/07 RMK AO2
14926KSTC STC20051009082508910/09/05 08:25:31  5-MIN KSTC 091425Z 14009KT 9SM CLR 06/04 A3011 850 86 0 130/09 RMK AO2
14926KSTC STC20051009083009110/09/05 08:30:31  5-MIN KSTC 091430Z 13009KT 9SM CLR 07/03 A3011 850 79 100 130/09 RMK AO2
14926KSTC STC20051009083509110/09/05 08:35:31  5-MIN KSTC 091435Z 14008KT 9SM CLR 07/04 A3012 850 82 100 130/08 RMK AO2
14926KSTC STC20051009084009110/09/05 08:40:31  5-MIN KSTC 091440Z 13008KT 9SM CLR 07/04 A3011 850 82 100 130/08 RMK AO2
14926KSTC STC20051009084509210/09/05 08:45:31  5-MIN KSTC 091445Z 15009KT 10SM CLR 07/04 A3012 850 82 100 140/09 RMK AO2
14926KSTC STC20051009085011410/09/05 08:50:31  5-MIN KSTC 091450Z 15009KT 9SM CLR 07/04 A3012 840 79 100 150/09 RMK AO2 SLP214 T00720039 53005
14926KSTC STC20051009085509110/09/05 08:55:31  5-MIN KSTC 091455Z 15008KT 9SM CLR 07/04 A3012 840 79 200 150/08 RMK AO2
14926KSTC STC20051009090009210/09/05 09:00:31  5-MIN KSTC 091500Z 14008KT 10SM CLR 08/04 A3012 850 76 200 140/08 RMK AO2
14926KSTC STC20051009090509210/09/05 09:05:31  5-MIN KSTC 091505Z 14010KT 10SM CLR 08/04 A3011 850 76 200 140/10 RMK AO2
14926KSTC STC20051009091009210/09/05 09:10:31  5-MIN KSTC 091510Z 15009KT 10SM CLR 08/04 A3011 850 73 300 150/09 RMK AO2
14926KSTC STC20051009091509210/09/05 09:15:31  5-MIN KSTC 091515Z 15010KT 10SM CLR 08/04 A3011 850 73 300 140/10 RMK AO2
14926KSTC STC20051009092009210/09/05 09:20:31  5-MIN KSTC 091520Z 15010KT 10SM CLR 08/04 A3011 850 73 300 140/10 RMK AO2
14926KSTC STC20051009092509210/09/05 09:25:31  5-MIN KSTC 091525Z 16009KT 10SM CLR 08/04 A3011 850 73 300 150/09 RMK AO2
14926KSTC STC20051009093009210/09/05 09:30:31  5-MIN KSTC 091530Z 15009KT 10SM CLR 09/04 A3011 850 71 400 140/09 RMK AO2
14926KSTC STC20051009093509210/09/05 09:35:31  5-MIN KSTC 091535Z 15008KT 10SM CLR 09/04 A3011 850 71 400 150/08 RMK AO2
14926KSTC STC20051009094009210/09/05 09:40:31  5-MIN KSTC 091540Z 14011KT 10SM CLR 09/04 A3011 850 71 400 140/11 RMK AO2
14926KSTC STC20051009094509210/09/05 09:45:31  5-MIN KSTC 091545Z 14010KT 10SM CLR 09/04 A3011 850 71 400 130/10 RMK AO2
14926KSTC STC20051009095010910/09/05 09:50:31  5-MIN KSTC 091550Z 15010KT 10SM CLR 09/04 A3011 850 71 400 140/10 RMK AO2 SLP211 T00890039
14926KSTC STC20051009095509210/09/05 09:55:31  5-MIN KSTC 091555Z 14009KT 10SM CLR 09/04 A3011 850 71 400 140/09 RMK AO2
14926KSTC STC20051009100009210/09/05 10:00:31  5-MIN KSTC 091600Z 14008KT 10SM CLR 09/04 A3011 850 71 400 140/08 RMK AO2
14926KSTC STC20051009100509210/09/05 10:05:31  5-MIN KSTC 091605Z 16007KT 10SM CLR 09/04 A3011 850 71 400 150/07 RMK AO2
14926KSTC STC20051009101009210/09/05 10:10:31  5-MIN KSTC 091610Z 13009KT 10SM CLR 09/04 A3011 850 71 400 120/09 RMK AO2
14926KSTC STC20051009101509210/09/05 10:15:31  5-MIN KSTC 091615Z 14008KT 10SM CLR 09/04 A3011 850 71 400 140/08 RMK AO2
14926KSTC STC20051009102009210/09/05 10:20:31  5-MIN KSTC 091620Z 13007KT 10SM CLR 10/04 A3011 850 68 500 120/07 RMK AO2
14926KSTC STC20051009102509210/09/05 10:25:31  5-MIN KSTC 091625Z VRB06KT 10SM CLR 10/04 A3010 860 68 500 VRB/06 RMK AO2
14926KSTC STC20051009103009210/09/05 10:30:31  5-MIN KSTC 091630Z 13007KT 10SM CLR 11/04 A3010 860 66 600 130/07 RMK AO2
14926KSTC STC20051009103509210/09/05 10:35:31  5-MIN KSTC 091635Z 14010KT 10SM CLR 11/04 A3010 860 66 600 140/10 RMK AO2
14926KSTC STC20051009104009210/09/05 10:40:31  5-MIN KSTC 091640Z 16010KT 10SM CLR 11/04 A3010 860 63 600 160/10 RMK AO2
14926KSTC STC20051009104509210/09/05 10:45:31  5-MIN KSTC 091645Z 13010KT 10SM CLR 11/04 A3010 860 63 600 130/10 RMK AO2
14926KSTC STC20051009105010910/09/05 10:50:31  5-MIN KSTC 091650Z 14008KT 10SM CLR 11/04 A3010 860 63 600 140/08 RMK AO2 SLP206 T01110044
14926KSTC STC20051009105509210/09/05 10:55:31  5-MIN KSTC 091655Z 13009KT 10SM CLR 11/04 A3010 860 63 600 130/09 RMK AO2
14926KSTC STC20051009110009210/09/05 11:00:31  5-MIN KSTC 091700Z 15007KT 10SM CLR 11/04 A3010 860 63 600 150/07 RMK AO2
14926KSTC STC20051009110509210/09/05 11:05:31  5-MIN KSTC 091705Z 15009KT 10SM CLR 12/04 A3009 870 61 700 150/09 RMK AO2
14926KSTC STC20051009111009210/09/05 11:10:31  5-MIN KSTC 091710Z 12008KT 10SM CLR 12/04 A3009 870 61 700 120/08 RMK AO2
14926KSTC STC20051009111510810/09/05 11:15:31  5-MIN KSTC 091715Z 13007KT 080V160 10SM CLR 12/04 A3009 870 61 700 130/07 080V160 RMK AO2
14926KSTC STC20051009112009210/09/05 11:20:31  5-MIN KSTC 091720Z 15008KT 10SM CLR 12/04 A3009 870 59 800 150/08 RMK AO2
14926KSTC STC20051009112509210/09/05 11:25:31  5-MIN KSTC 091725Z 14006KT 10SM CLR 12/04 A3009 870 59 800 130/06 RMK AO2
14926KSTC STC20051009113009210/09/05 11:30:31  5-MIN KSTC 091730Z 16007KT 10SM CLR 12/04 A3009 870 59 800 150/07 RMK AO2
14926KSTC STC20051009113509210/09/05 11:35:31  5-MIN KSTC 091735Z 11007KT 10SM CLR 13/04 A3009 870 56 900 110/07 RMK AO2
14926KSTC STC20051009114010810/09/05 11:40:31  5-MIN KSTC 091740Z 13009KT 100V160 10SM CLR 12/04 A3009 870 59 800 130/09 100V160 RMK AO2
14926KSTC STC20051009114509210/09/05 11:45:31  5-MIN KSTC 091745Z 14008KT 10SM CLR 12/04 A3009 870 59 800 130/08 RMK AO2
14926KSTC STC20051009115012710/09/05 11:50:31  5-MIN KSTC 091750Z 14009KT 10SM CLR 13/04 A3009 870 56 900 140/09 RMK AO2 SLP202 T01280044 10128 20022 53006
14926KSTC STC20051009115509210/09/05 11:55:31  5-MIN KSTC 091755Z 14010KT 10SM CLR 13/04 A3008 880 56 900 140/10 RMK AO2
14926KSTC STC20051009120011410/09/05 12:00:31  5-MIN KSTC 091800Z 12010G14KT 080V140 10SM CLR 13/04 A3008 880 54 900 120/10G14 080V140 RMK AO2
14926KSTC STC20051009120509210/09/05 12:05:31  5-MIN KSTC 091805Z 12010KT 10SM CLR 13/04 A3008 880 52 900 120/10 RMK AO2
14926KSTC STC20051009121010810/09/05 12:10:31  5-MIN KSTC 091810Z 11007KT 060V160 10SM CLR 13/04 A3008 880 54 900 110/07 060V160 RMK AO2
14926KSTC STC20051009121509210/09/05 12:15:31  5-MIN KSTC 091815Z 13010KT 10SM CLR 13/04 A3008 880 52 900 130/10 RMK AO2
14926KSTC STC20051009122009210/09/05 12:20:31  5-MIN KSTC 091820Z 14010KT 10SM CLR 13/04 A3007 890 52 900 130/10 RMK AO2
14926KSTC STC20051009122509810/09/05 12:25:31  5-MIN KSTC 091825Z 15011G15KT 10SM CLR 13/04 A3007 890 52 900 140/11G15 RMK AO2
14926KSTC STC20051009123009810/09/05 12:30:31  5-MIN KSTC 091830Z 15011G15KT 10SM CLR 13/04 A3007 890 52 900 140/11G15 RMK AO2
14926KSTC STC20051009123509210/09/05 12:35:31  5-MIN KSTC 091835Z 16009KT 10SM CLR 13/04 A3007 890 52 900 150/09 RMK AO2
14926KSTC STC20051009124009210/09/05 12:40:31  5-MIN KSTC 091840Z 15011KT 10SM CLR 13/04 A3006 890 52 900 150/11 RMK AO2
14926KSTC STC20051009124509210/09/05 12:45:31  5-MIN KSTC 091845Z 14012KT 10SM CLR 13/04 A3006 890 52 900 140/12 RMK AO2
14926KSTC STC20051009125013110/09/05 12:50:31  5-MIN KSTC 091850Z 14011G16KT 100V180 10SM CLR 13/04 A3006 890 54 900 130/11G16 100V180 RMK AO2 SLP195 T01330044
14926KSTC STC20051009125509910/09/05 12:55:31  5-MIN KSTC 091855Z 16008G16KT 10SM CLR 14/04 A3006 900 50 1000 150/08G16 RMK AO2
14926KSTC STC20051009130009310/09/05 13:00:31  5-MIN KSTC 091900Z 11008KT 10SM CLR 14/04 A3006 900 52 1000 110/08 RMK AO2
14926KSTC STC20051009130509310/09/05 13:05:31  5-MIN KSTC 091905Z 15010KT 10SM CLR 14/04 A3006 900 50 1000 140/10 RMK AO2
14926KSTC STC20051009131009310/09/05 13:10:31  5-MIN KSTC 091910Z 14010KT 10SM CLR 14/04 A3006 900 50 1000 130/10 RMK AO2
14926KSTC STC20051009131509310/09/05 13:15:31  5-MIN KSTC 091915Z 12007KT 10SM CLR 13/04 A3006 900 52 1000 120/07 RMK AO2
14926KSTC STC20051009132009310/09/05 13:20:31  5-MIN KSTC 091920Z VRB05KT 10SM CLR 14/04 A3006 900 50 1000 VRB/05 RMK AO2
14926KSTC STC20051009132509310/09/05 13:25:31  5-MIN KSTC 091925Z 14008KT 10SM CLR 14/04 A3006 900 52 1000 140/08 RMK AO2
14926KSTC STC20051009133009310/09/05 13:30:31  5-MIN KSTC 091930Z 12008KT 10SM CLR 14/04 A3006 900 49 1100 110/08 RMK AO2
14926KSTC STC20051009133509310/09/05 13:35:31  5-MIN KSTC 091935Z VRB06KT 10SM CLR 14/04 A3006 900 52 1000 VRB/06 RMK AO2
14926KSTC STC20051009134010910/09/05 13:40:31  5-MIN KSTC 091940Z 13008KT 100V160 10SM CLR 14/04 A3006 900 49 1100 120/08 100V160 RMK AO2
14926KSTC STC20051009134510910/09/05 13:45:31  5-MIN KSTC 091945Z 10007KT 080V140 10SM CLR 14/04 A3006 900 49 1100 100/07 080V140 RMK AO2
14926KSTC STC20051009135011010/09/05 13:50:31  5-MIN KSTC 091950Z 16010KT 10SM CLR 14/04 A3006 900 49 1100 160/10 RMK AO2 SLP192 T01440039
14926KSTC STC20051009135509310/09/05 13:55:31  5-MIN KSTC 091955Z 13008KT 10SM CLR 14/04 A3006 900 49 1100 120/08 RMK AO2
14926KSTC STC20051009140009310/09/05 14:00:31  5-MIN KSTC 092000Z 15006KT 10SM CLR 14/04 A3006 900 50 1000 150/06 RMK AO2
14926KSTC STC20051009140509910/09/05 14:05:31  5-MIN KSTC 092005Z 13008G14KT 10SM CLR 14/04 A3005 900 49 1100 130/08G14 RMK AO2
14926KSTC STC20051009141009910/09/05 14:10:31  5-MIN KSTC 092010Z 16006G14KT 10SM CLR 14/04 A3005 900 49 1100 150/06G14 RMK AO2
14926KSTC STC20051009141510910/09/05 14:15:31  5-MIN KSTC 092015Z 14007KT 100V170 10SM CLR 14/04 A3006 900 49 1100 140/07 100V170 RMK AO2
14926KSTC STC20051009142009310/09/05 14:20:31  5-MIN KSTC 092020Z 13010KT 10SM CLR 14/04 A3005 900 49 1100 130/10 RMK AO2
14926KSTC STC20051009142509310/09/05 14:25:31  5-MIN KSTC 092025Z 13008KT 10SM CLR 14/04 A3006 900 49 1100 130/08 RMK AO2
14926KSTC STC20051009143010910/09/05 14:30:31  5-MIN KSTC 092030Z 12008KT 090V160 10SM CLR 14/04 A3006 900 49 1100 120/08 090V160 RMK AO2
14926KSTC STC20051009143509310/09/05 14:35:31  5-MIN KSTC 092035Z 11009KT 10SM CLR 15/04 A3006 900 47 1100 110/09 RMK AO2
14926KSTC STC20051009144010910/09/05 14:40:31  5-MIN KSTC 092040Z 10007KT 070V140 10SM CLR 14/03 A3006 900 47 1100 100/07 070V140 RMK AO2
14926KSTC STC20051009144509810/09/05 14:45:31  5-MIN KSTC 092045Z AUTO 14009KT 10SM CLR 15/04 A3006 900 47 1100 130/09 RMK AO2
14926KSTC STC20051009145012110/09/05 14:50:31  5-MIN KSTC 092050Z AUTO 12006KT 10SM CLR 14/04 A3006 900 49 1100 120/06 RMK AO2 SLP193 T01440039 58011
14926KSTC STC20051009145509810/09/05 14:55:31  5-MIN KSTC 092055Z AUTO 15008KT 10SM CLR 14/03 A3006 900 47 1100 150/08 RMK AO2
14926KSTC STC20051009150009810/09/05 15:00:31  5-MIN KSTC 092100Z AUTO 15007KT 10SM CLR 14/03 A3006 900 47 1100 150/07 RMK AO2
14926KSTC STC20051009150509810/09/05 15:05:31  5-MIN KSTC 092105Z AUTO 16008KT 10SM CLR 14/03 A3006 900 47 1100 160/08 RMK AO2
14926KSTC STC20051009151009810/09/05 15:10:31  5-MIN KSTC 092110Z AUTO 12008KT 10SM CLR 14/04 A3006 900 49 1100 110/08 RMK AO2
14926KSTC STC20051009151509810/09/05 15:15:31  5-MIN KSTC 092115Z AUTO VRB06KT 10SM CLR 14/04 A3006 900 49 1100 VRB/06 RMK AO2
14926KSTC STC20051009152009810/09/05 15:20:31  5-MIN KSTC 092120Z AUTO 15009KT 10SM CLR 14/04 A3006 900 49 1100 150/09 RMK AO2
14926KSTC STC20051009152509810/09/05 15:25:31  5-MIN KSTC 092125Z AUTO 14008KT 10SM CLR 14/04 A3006 900 49 1100 140/08 RMK AO2
14926KSTC STC20051009153009810/09/05 15:30:31  5-MIN KSTC 092130Z AUTO 15009KT 10SM CLR 14/04 A3006 900 50 1000 150/09 RMK AO2
14926KSTC STC20051009153509810/09/05 15:35:31  5-MIN KSTC 092135Z AUTO 15008KT 10SM CLR 14/04 A3006 900 50 1000 150/08 RMK AO2
14926KSTC STC20051009154009810/09/05 15:40:31  5-MIN KSTC 092140Z AUTO 12006KT 10SM CLR 14/04 A3006 900 49 1100 110/06 RMK AO2
14926KSTC STC20051009154509810/09/05 15:45:31  5-MIN KSTC 092145Z AUTO 13006KT 10SM CLR 14/04 A3006 900 49 1100 130/06 RMK AO2
14926KSTC STC20051009155011510/09/05 15:50:31  5-MIN KSTC 092150Z AUTO 15009KT 10SM CLR 14/04 A3006 900 49 1100 150/09 RMK AO2 SLP193 T01440039
14926KSTC STC20051009155509810/09/05 15:55:31  5-MIN KSTC 092155Z AUTO 15006KT 10SM CLR 14/04 A3006 900 49 1100 140/06 RMK AO2
14926KSTC STC20051009160009810/09/05 16:00:31  5-MIN KSTC 092200Z AUTO 11009KT 10SM CLR 14/04 A3006 900 50 1000 110/09 RMK AO2
14926KSTC STC20051009160509810/09/05 16:05:31  5-MIN KSTC 092205Z AUTO 13007KT 10SM CLR 14/04 A3006 890 50 1000 120/07 RMK AO2
14926KSTC STC20051009161009810/09/05 16:10:31  5-MIN KSTC 092210Z AUTO 10003KT 10SM CLR 14/04 A3006 890 50 1000 100/03 RMK AO2
14926KSTC STC20051009161509810/09/05 16:15:31  5-MIN KSTC 092215Z AUTO 11005KT 10SM CLR 14/04 A3006 890 52 1000 110/05 RMK AO2
14926KSTC STC20051009162009810/09/05 16:20:31  5-MIN KSTC 092220Z AUTO VRB04KT 10SM CLR 14/04 A3007 890 52 1000 VRB/04 RMK AO2
14926KSTC STC20051009162509810/09/05 16:25:31  5-MIN KSTC 092225Z AUTO 11006KT 10SM CLR 14/04 A3007 890 52 1000 100/06 RMK AO2
14926KSTC STC20051009163009810/09/05 16:30:31  5-MIN KSTC 092230Z AUTO 09005KT 10SM CLR 14/04 A3007 890 52 1000 080/05 RMK AO2
14926KSTC STC20051009163509810/09/05 16:35:31  5-MIN KSTC 092235Z AUTO 09006KT 10SM CLR 14/04 A3007 890 52 1000 090/06 RMK AO2
14926KSTC STC20051009164009810/09/05 16:40:31  5-MIN KSTC 092240Z AUTO 12006KT 10SM CLR 14/04 A3007 890 52 1000 120/06 RMK AO2
14926KSTC STC20051009164509710/09/05 16:45:31  5-MIN KSTC 092245Z AUTO 12006KT 10SM CLR 13/04 A3007 890 54 900 110/06 RMK AO2
14926KSTC STC20051009165011410/09/05 16:50:31  5-MIN KSTC 092250Z AUTO 10004KT 10SM CLR 13/04 A3007 890 56 900 100/04 RMK AO2 SLP197 T01280044
14926KSTC STC20051009165509710/09/05 16:55:31  5-MIN KSTC 092255Z AUTO 12005KT 10SM CLR 13/04 A3007 890 56 900 110/05 RMK AO2
14926KSTC STC20051009170009710/09/05 17:00:31  5-MIN KSTC 092300Z AUTO 11004KT 10SM CLR 12/04 A3007 880 59 800 110/04 RMK AO2
14926KSTC STC20051009170509710/09/05 17:05:31  5-MIN KSTC 092305Z AUTO 11005KT 10SM CLR 12/04 A3007 880 59 800 110/05 RMK AO2
14926KSTC STC20051009171009710/09/05 17:10:31  5-MIN KSTC 092310Z AUTO 11005KT 10SM CLR 12/04 A3008 880 59 800 110/05 RMK AO2
14926KSTC STC20051009171509710/09/05 17:15:31  5-MIN KSTC 092315Z AUTO 10004KT 10SM CLR 12/04 A3008 880 61 700 100/04 RMK AO2
14926KSTC STC20051009172009710/09/05 17:20:31  5-MIN KSTC 092320Z AUTO 10004KT 10SM CLR 12/04 A3008 880 61 700 100/04 RMK AO2
14926KSTC STC20051009172509710/09/05 17:25:31  5-MIN KSTC 092325Z AUTO 09003KT 10SM CLR 11/04 A3008 880 63 700 090/03 RMK AO2
14926KSTC STC20051009173009710/09/05 17:30:31  5-MIN KSTC 092330Z AUTO 07003KT 10SM CLR 11/04 A3009 870 63 700 070/03 RMK AO2
14926KSTC STC20051009173509710/09/05 17:35:31  5-MIN KSTC 092335Z AUTO 08003KT 10SM CLR 11/04 A3009 870 63 700 080/03 RMK AO2
14926KSTC STC20051009174009710/09/05 17:40:31  5-MIN KSTC 092340Z AUTO 00000KT 10SM CLR 11/04 A3009 870 66 600 000/00 RMK AO2
14926KSTC STC20051009174509710/09/05 17:45:31  5-MIN KSTC 092345Z AUTO 09004KT 10SM CLR 11/05 A3009 870 68 600 090/04 RMK AO2
14926KSTC STC20051009175013210/09/05 17:50:31  5-MIN KSTC 092350Z AUTO 09004KT 10SM CLR 10/05 A3009 870 71 500 090/04 RMK AO2 SLP206 T01000050 10150 20100 55008
14926KSTC STC20051009175509710/09/05 17:55:31  5-MIN KSTC 092355Z AUTO 11003KT 10SM CLR 10/05 A3009 870 71 500 100/03 RMK AO2
14926KSTC STC20051009180009710/09/05 18:00:31  5-MIN KSTC 100000Z AUTO 11003KT 10SM CLR 10/04 A3010 870 68 500 100/03 RMK AO2
14926KSTC STC20051009180509710/09/05 18:05:31  5-MIN KSTC 100005Z AUTO 10004KT 10SM CLR 10/05 A3010 860 71 500 100/04 RMK AO2
14926KSTC STC20051009181009710/09/05 18:10:31  5-MIN KSTC 100010Z AUTO 09004KT 10SM CLR 09/04 A3010 860 73 400 090/04 RMK AO2
14926KSTC STC20051009181509710/09/05 18:15:31  5-MIN KSTC 100015Z AUTO 09004KT 10SM CLR 09/04 A3010 860 71 400 090/04 RMK AO2
14926KSTC STC20051009182009710/09/05 18:20:31  5-MIN KSTC 100020Z AUTO 08003KT 10SM CLR 09/04 A3010 860 71 400 080/03 RMK AO2
14926KSTC STC20051009182509710/09/05 18:25:31  5-MIN KSTC 100025Z AUTO 08004KT 10SM CLR 09/05 A3010 860 76 400 080/04 RMK AO2
14926KSTC STC20051009183009710/09/05 18:30:31  5-MIN KSTC 100030Z AUTO 08004KT 10SM CLR 09/04 A3010 860 73 400 080/04 RMK AO2
14926KSTC STC20051009183509710/09/05 18:35:31  5-MIN KSTC 100035Z AUTO 09004KT 10SM CLR 09/05 A3010 860 74 400 080/04 RMK AO2
14926KSTC STC20051009184009710/09/05 18:40:31  5-MIN KSTC 100040Z AUTO 09004KT 10SM CLR 09/05 A3011 860 74 400 090/04 RMK AO2
14926KSTC STC20051009184509710/09/05 18:45:31  5-MIN KSTC 100045Z AUTO 08004KT 10SM CLR 09/05 A3011 850 74 400 080/04 RMK AO2
14926KSTC STC20051009185011410/09/05 18:50:31  5-MIN KSTC 100050Z AUTO 09003KT 10SM CLR 09/05 A3011 850 76 400 080/03 RMK AO2 SLP212 T00890050
14926KSTC STC20051009185509710/09/05 18:55:31  5-MIN KSTC 100055Z AUTO 08004KT 10SM CLR 09/05 A3011 850 76 400 080/04 RMK AO2
14926KSTC STC20051009190009710/09/05 19:00:31  5-MIN KSTC 100100Z AUTO 08004KT 10SM CLR 09/04 A3011 850 73 400 080/04 RMK AO2
14926KSTC STC20051009190509710/09/05 19:05:31  5-MIN KSTC 100105Z AUTO 08004KT 10SM CLR 09/05 A3011 850 76 400 080/04 RMK AO2
14926KSTC STC20051009191009710/09/05 19:10:31  5-MIN KSTC 100110Z AUTO 09005KT 10SM CLR 09/05 A3011 850 76 400 090/05 RMK AO2
14926KSTC STC20051009191509710/09/05 19:15:31  5-MIN KSTC 100115Z AUTO 09004KT 10SM CLR 08/04 A3012 850 76 300 090/04 RMK AO2
14926KSTC STC20051009192009710/09/05 19:20:31  5-MIN KSTC 100120Z AUTO 10004KT 10SM CLR 08/04 A3012 850 76 300 090/04 RMK AO2
14926KSTC STC20051009192509710/09/05 19:25:31  5-MIN KSTC 100125Z AUTO 09004KT 10SM CLR 08/04 A3012 840 76 300 090/04 RMK AO2
14926KSTC STC20051009193009710/09/05 19:30:31  5-MIN KSTC 100130Z AUTO 09004KT 10SM CLR 08/04 A3012 840 76 300 090/04 RMK AO2
14926KSTC STC20051009193509710/09/05 19:35:31  5-MIN KSTC 100135Z AUTO 10005KT 10SM CLR 08/04 A3012 840 76 300 100/05 RMK AO2
14926KSTC STC20051009194009710/09/05 19:40:31  5-MIN KSTC 100140Z AUTO 11004KT 10SM CLR 08/04 A3012 840 76 300 100/04 RMK AO2
14926KSTC STC20051009194509710/09/05 19:45:31  5-MIN KSTC 100145Z AUTO 11004KT 10SM CLR 08/04 A3012 840 76 300 110/04 RMK AO2
14926KSTC STC20051009195011410/09/05 19:50:31  5-MIN KSTC 100150Z AUTO 10003KT 10SM CLR 08/04 A3013 840 79 200 100/03 RMK AO2 SLP217 T00780044
14926KSTC STC20051009195509710/09/05 19:55:31  5-MIN KSTC 100155Z AUTO 09004KT 10SM CLR 08/04 A3012 840 73 300 090/04 RMK AO2
14926KSTC STC20051009200009710/09/05 20:00:31  5-MIN KSTC 100200Z AUTO 10004KT 10SM CLR 08/04 A3013 840 76 200 090/04 RMK AO2
14926KSTC STC20051009200509710/09/05 20:05:31  5-MIN KSTC 100205Z AUTO 10004KT 10SM CLR 08/04 A3013 840 76 200 100/04 RMK AO2
14926KSTC STC20051009201009710/09/05 20:10:31  5-MIN KSTC 100210Z AUTO 10004KT 10SM CLR 07/04 A3013 840 82 100 100/04 RMK AO2
14926KSTC STC20051009201509710/09/05 20:15:31  5-MIN KSTC 100215Z AUTO 11004KT 10SM CLR 08/04 A3013 830 76 200 110/04 RMK AO2
14926KSTC STC20051009202009710/09/05 20:20:31  5-MIN KSTC 100220Z AUTO 11004KT 10SM CLR 08/04 A3013 830 73 300 100/04 RMK AO2
14926KSTC STC20051009202509710/09/05 20:25:31  5-MIN KSTC 100225Z AUTO 10004KT 10SM CLR 08/04 A3013 830 76 200 100/04 RMK AO2
14926KSTC STC20051009203009710/09/05 20:30:31  5-MIN KSTC 100230Z AUTO 10005KT 10SM CLR 07/04 A3013 830 82 100 090/05 RMK AO2
14926KSTC STC20051009203509710/09/05 20:35:31  5-MIN KSTC 100235Z AUTO 09005KT 10SM CLR 07/04 A3013 830 82 100 090/05 RMK AO2
14926KSTC STC20051009204009710/09/05 20:40:31  5-MIN KSTC 100240Z AUTO 09004KT 10SM CLR 07/04 A3013 830 79 100 090/04 RMK AO2
14926KSTC STC20051009204509710/09/05 20:45:31  5-MIN KSTC 100245Z AUTO 09004KT 10SM CLR 07/04 A3013 830 82 100 090/04 RMK AO2
14926KSTC STC20051009205012010/09/05 20:50:31  5-MIN KSTC 100250Z AUTO 10004KT 10SM CLR 07/04 A3013 830 82 100 100/04 RMK AO2 SLP219 T00670039 53010
14926KSTC STC20051009205509710/09/05 20:55:31  5-MIN KSTC 100255Z AUTO 10004KT 10SM CLR 07/04 A3013 830 79 100 100/04 RMK AO2
14926KSTC STC20051009210009710/09/05 21:00:31  5-MIN KSTC 100300Z AUTO 11004KT 10SM CLR 07/04 A3013 830 79 100 100/04 RMK AO2
14926KSTC STC20051009210509710/09/05 21:05:31  5-MIN KSTC 100305Z AUTO 10004KT 10SM CLR 07/04 A3013 830 79 100 100/04 RMK AO2
14926KSTC STC20051009211009710/09/05 21:10:31  5-MIN KSTC 100310Z AUTO 10003KT 10SM CLR 07/04 A3013 830 79 100 100/03 RMK AO2
14926KSTC STC20051009211509710/09/05 21:15:31  5-MIN KSTC 100315Z AUTO 10003KT 10SM CLR 07/04 A3013 830 79 100 100/03 RMK AO2
14926KSTC STC20051009212009710/09/05 21:20:31  5-MIN KSTC 100320Z AUTO 10004KT 10SM CLR 07/04 A3013 830 79 100 100/04 RMK AO2
14926KSTC STC20051009212509710/09/05 21:25:31  5-MIN KSTC 100325Z AUTO 11004KT 10SM CLR 07/03 A3013 830 76 100 100/04 RMK AO2
14926KSTC STC20051009213009710/09/05 21:30:31  5-MIN KSTC 100330Z AUTO 11005KT 10SM CLR 07/03 A3014 830 79 100 110/05 RMK AO2
14926KSTC STC20051009213509710/09/05 21:35:31  5-MIN KSTC 100335Z AUTO 10004KT 10SM CLR 07/03 A3014 830 79 100 100/04 RMK AO2
14926KSTC STC20051009214009510/09/05 21:40:31  5-MIN KSTC 100340Z AUTO 10003KT 10SM CLR 06/03 A3014 830 82 0 100/03 RMK AO2
14926KSTC STC20051009214509510/09/05 21:45:31  5-MIN KSTC 100345Z AUTO 00000KT 10SM CLR 06/03 A3014 830 82 0 000/00 RMK AO2
14926KSTC STC20051009215011210/09/05 21:50:31  5-MIN KSTC 100350Z AUTO 00000KT 10SM CLR 06/03 A3014 830 85 0 000/00 RMK AO2 SLP221 T00560033
14926KSTC STC20051009215509810/09/05 21:55:31  5-MIN KSTC 100355Z AUTO 00000KT 10SM CLR 05/03 A3014 830 85 -100 000/00 RMK AO2
14926KSTC STC20051009220009510/09/05 22:00:31  5-MIN KSTC 100400Z AUTO 00000KT 10SM CLR 06/03 A3014 820 85 0 000/00 RMK AO2
14926KSTC STC20051009220509810/09/05 22:05:31  5-MIN KSTC 100405Z AUTO 07003KT 10SM CLR 04/03 A3014 820 92 -200 070/03 RMK AO2
14926KSTC STC20051009221009810/09/05 22:10:31  5-MIN KSTC 100410Z AUTO 05003KT 10SM CLR 04/03 A3014 820 92 -200 050/03 RMK AO2
14926KSTC STC20051009221509810/09/05 22:15:31  5-MIN KSTC 100415Z AUTO 00000KT 10SM CLR 05/03 A3014 820 89 -100 000/00 RMK AO2
14926KSTC STC20051009222009810/09/05 22:20:31  5-MIN KSTC 100420Z AUTO 00000KT 10SM CLR 05/03 A3014 820 89 -100 000/00 RMK AO2
14926KSTC STC20051009222509810/09/05 22:25:31  5-MIN KSTC 100425Z AUTO 08003KT 10SM CLR 04/03 A3014 820 92 -200 080/03 RMK AO2
14926KSTC STC20051009223009810/09/05 22:30:31  5-MIN KSTC 100430Z AUTO 09003KT 10SM CLR 04/03 A3014 820 92 -200 080/03 RMK AO2
14926KSTC STC20051009223509810/09/05 22:35:31  5-MIN KSTC 100435Z AUTO 09004KT 10SM CLR 04/03 A3014 820 92 -200 090/04 RMK AO2
14926KSTC STC20051009224009810/09/05 22:40:31  5-MIN KSTC 100440Z AUTO 08004KT 10SM CLR 03/02 A3014 820 92 -300 080/04 RMK AO2
14926KSTC STC20051009224509810/09/05 22:45:31  5-MIN KSTC 100445Z AUTO 08004KT 10SM CLR 03/02 A3014 820 92 -300 080/04 RMK AO2
14926KSTC STC20051009225011410/09/05 22:50:31  5-MIN KSTC 100450Z AUTO 09003KT 9SM CLR 03/02 A3014 820 92 -300 090/03 RMK AO2 SLP223 T00330022
14926KSTC STC20051009225509810/09/05 22:55:31  5-MIN KSTC 100455Z AUTO 09003KT 10SM CLR 04/03 A3014 820 92 -200 090/03 RMK AO2
14926KSTC STC20051009230009810/09/05 23:00:31  5-MIN KSTC 100500Z AUTO 00000KT 10SM CLR 03/02 A3014 820 92 -300 000/00 RMK AO2
14926KSTC STC20051009230509810/09/05 23:05:31  5-MIN KSTC 100505Z AUTO 10004KT 10SM CLR 04/02 A3014 820 89 -200 100/04 RMK AO2
14926KSTC STC20051009231009810/09/05 23:10:31  5-MIN KSTC 100510Z AUTO 10005KT 10SM CLR 04/03 A3014 820 92 -200 100/05 RMK AO2
14926KSTC STC20051009231509810/09/05 23:15:31  5-MIN KSTC 100515Z AUTO 09005KT 10SM CLR 04/03 A3014 820 89 -200 090/05 RMK AO2
14926KSTC STC20051009232009810/09/05 23:20:31  5-MIN KSTC 100520Z AUTO 09005KT 10SM CLR 04/03 A3014 820 89 -200 090/05 RMK AO2
14926KSTC STC20051009232509810/09/05 23:25:31  5-MIN KSTC 100525Z AUTO 10005KT 10SM CLR 04/03 A3014 820 89 -200 090/05 RMK AO2
14926KSTC STC20051009233009810/09/05 23:30:31  5-MIN KSTC 100530Z AUTO 09004KT 10SM CLR 04/03 A3014 820 89 -200 090/04 RMK AO2
14926KSTC STC20051009233509810/09/05 23:35:31  5-MIN KSTC 100535Z AUTO 10004KT 10SM CLR 04/03 A3014 820 92 -200 100/04 RMK AO2
14926KSTC STC20051009234009810/09/05 23:40:31  5-MIN KSTC 100540Z AUTO 09004KT 10SM CLR 04/03 A3014 830 92 -200 090/04 RMK AO2
14926KSTC STC20051009234509810/09/05 23:45:31  5-MIN KSTC 100545Z AUTO 09004KT 10SM CLR 03/02 A3014 820 92 -300 090/04 RMK AO2
14926KSTC STC20051009235014310/09/05 23:50:31  5-MIN KSTC 100550Z AUTO 09004KT 10SM CLR 03/02 A3014 820 92 -300 090/04 RMK AO2 SLP220 T00330022 10100 20028 401500022 51013
14926KSTC STC20051009235509810/09/05 23:55:31  5-MIN KSTC 100555Z AUTO 08004KT 10SM CLR 03/02 A3014 820 92 -400 080/04 RMK AO2
14926KSTC STC20051010000009710/10/05 00:00:32  5-MIN KSTC 100600Z AUTO 08003KT 9SM CLR 03/02 A3014 820 92 -400 070/03 RMK AO2
14926KSTC STC20051010000509710/10/05 00:05:31  5-MIN KSTC 100605Z AUTO 00000KT 8SM CLR 04/02 A3014 820 89 -200 000/00 RMK AO2
14926KSTC STC20051010001009710/10/05 00:10:31  5-MIN KSTC 100610Z AUTO 08003KT 8SM CLR 03/02 A3014 820 92 -300 070/03 RMK AO2
14926KSTC STC20051010001509710/10/05 00:15:31  5-MIN KSTC 100615Z AUTO 08004KT 8SM CLR 03/02 A3014 820 92 -400 080/04 RMK AO2
14926KSTC STC20051010002009710/10/05 00:20:31  5-MIN KSTC 100620Z AUTO 09004KT 8SM CLR 02/02 A3014 820 96 -400 080/04 RMK AO2
14926KSTC STC20051010002509710/10/05 00:25:31  5-MIN KSTC 100625Z AUTO 09004KT 9SM CLR 03/02 A3014 820 92 -400 080/04 RMK AO2
14926KSTC STC20051010003009710/10/05 00:30:31  5-MIN KSTC 100630Z AUTO 09004KT 9SM CLR 03/02 A3014 820 92 -400 090/04 RMK AO2
14926KSTC STC20051010003509710/10/05 00:35:31  5-MIN KSTC 100635Z AUTO 00000KT 9SM CLR 03/02 A3014 820 92 -300 000/00 RMK AO2
14926KSTC STC20051010004009710/10/05 00:40:31  5-MIN KSTC 100640Z AUTO 00000KT 9SM CLR 03/02 A3014 820 92 -300 000/00 RMK AO2
14926KSTC STC20051010004509710/10/05 00:45:31  5-MIN KSTC 100645Z AUTO 00000KT 9SM CLR 03/02 A3015 820 92 -400 000/00 RMK AO2
14926KSTC STC20051010005011410/10/05 00:50:31  5-MIN KSTC 100650Z AUTO 00000KT 9SM CLR 03/02 A3015 820 92 -400 000/00 RMK AO2 SLP223 T00280017
14926KSTC STC20051010005509710/10/05 00:55:31  5-MIN KSTC 100655Z AUTO 00000KT 9SM CLR 02/01 A3015 820 92 -500 000/00 RMK AO2
14926KSTC STC20051010010009710/10/05 01:00:31  5-MIN KSTC 100700Z AUTO 00000KT 8SM CLR 02/02 A3015 810 96 -500 000/00 RMK AO2
14926KSTC STC20051010010509710/10/05 01:05:31  5-MIN KSTC 100705Z AUTO 00000KT 7SM CLR 02/02 A3015 810 96 -500 000/00 RMK AO2
14926KSTC STC20051010011009710/10/05 01:10:31  5-MIN KSTC 100710Z AUTO 00000KT 7SM CLR 03/02 A3015 820 92 -400 000/00 RMK AO2
14926KSTC STC20051010011510010/10/05 01:15:31  5-MIN KSTC 100715Z AUTO 00000KT 6SM BR CLR 03/02 A3015 820 92 -400 000/00 RMK AO2
14926KSTC STC20051010012010010/10/05 01:20:31  5-MIN KSTC 100720Z AUTO 00000KT 6SM BR CLR 03/02 A3015 820 92 -400 000/00 RMK AO2
14926KSTC STC20051010012510010/10/05 01:25:31  5-MIN KSTC 100725Z AUTO 00000KT 6SM BR CLR 02/02 A3015 820 96 -500 000/00 RMK AO2
14926KSTC STC20051010013010010/10/05 01:30:31  5-MIN KSTC 100730Z AUTO 00000KT 6SM BR CLR 03/02 A3015 810 92 -400 000/00 RMK AO2
14926KSTC STC20051010013510010/10/05 01:35:31  5-MIN KSTC 100735Z AUTO 00000KT 5SM BR CLR 02/02 A3015 810 96 -500 000/00 RMK AO2
14926KSTC STC20051010014010010/10/05 01:40:31  5-MIN KSTC 100740Z AUTO 00000KT 4SM BR CLR 02/01 A3015 810 96 -500 000/00 RMK AO2
14926KSTC STC20051010014510010/10/05 01:45:31  5-MIN KSTC 100745Z AUTO 00000KT 4SM BR CLR 02/01 A3015 810 96 -500 000/00 RMK AO2
14926KSTC STC20051010015011710/10/05 01:50:31  5-MIN KSTC 100750Z AUTO 00000KT 4SM BR CLR 02/01 A3015 810 96 -500 000/00 RMK AO2 SLP225 T00170011
14926KSTC STC20051010015510010/10/05 01:55:31  5-MIN KSTC 100755Z AUTO 00000KT 5SM BR CLR 01/01 A3015 810 96 -600 000/00 RMK AO2
14926KSTC STC20051010020010010/10/05 02:00:31  5-MIN KSTC 100800Z AUTO 01003KT 5SM BR CLR 01/01 A3015 810 96 -600 010/03 RMK AO2
14926KSTC STC20051010020510010/10/05 02:05:31  5-MIN KSTC 100805Z AUTO 00000KT 5SM BR CLR 01/01 A3015 810 96 -600 000/00 RMK AO2
14926KSTC STC20051010021010010/10/05 02:10:31  5-MIN KSTC 100810Z AUTO 36003KT 5SM BR CLR 01/01 A3015 810 96 -600 350/03 RMK AO2
14926KSTC STC20051010021510110/10/05 02:15:31  5-MIN KSTC 100815Z AUTO 35003KT 5SM BR CLR 01/01 A3016 810 100 -700 350/03 RMK AO2
14926KSTC STC20051010022010010/10/05 02:20:31  5-MIN KSTC 100820Z AUTO 00000KT 5SM BR CLR 01/01 A3016 810 96 -600 000/00 RMK AO2
14926KSTC STC20051010022510010/10/05 02:25:31  5-MIN KSTC 100825Z AUTO 02004KT 5SM BR CLR 02/01 A3016 810 92 -500 020/04 RMK AO2
14926KSTC STC20051010023010010/10/05 02:30:31  5-MIN KSTC 100830Z AUTO 00000KT 5SM BR CLR 02/01 A3016 810 96 -500 000/00 RMK AO2
14926KSTC STC20051010023510010/10/05 02:35:31  5-MIN KSTC 100835Z AUTO 00000KT 5SM BR CLR 02/01 A3016 810 92 -500 000/00 RMK AO2
14926KSTC STC20051010024010010/10/05 02:40:31  5-MIN KSTC 100840Z AUTO 00000KT 5SM BR CLR 02/01 A3016 810 92 -500 000/00 RMK AO2
14926KSTC STC20051010024510010/10/05 02:45:31  5-MIN KSTC 100845Z AUTO 00000KT 5SM BR CLR 02/01 A3016 810 92 -500 000/00 RMK AO2
14926KSTC STC20051010025012310/10/05 02:50:31  5-MIN KSTC 100850Z AUTO 00000KT 4SM BR CLR 01/01 A3016 800 96 -600 000/00 RMK AO2 SLP228 T00110006 50002
14926KSTC STC20051010025510010/10/05 02:55:31  5-MIN KSTC 100855Z AUTO 00000KT 4SM BR CLR 01/01 A3016 800 96 -600 000/00 RMK AO2
14926KSTC STC20051010030010010/10/05 03:00:31  5-MIN KSTC 100900Z AUTO 01003KT 5SM BR CLR 02/01 A3017 800 92 -500 010/03 RMK AO2
14926KSTC STC20051010030510010/10/05 03:05:31  5-MIN KSTC 100905Z AUTO 01003KT 5SM BR CLR 02/01 A3017 800 92 -500 010/03 RMK AO2
14926KSTC STC20051010031010010/10/05 03:10:31  5-MIN KSTC 100910Z AUTO 03003KT 5SM BR CLR 02/01 A3017 800 92 -500 030/03 RMK AO2
14926KSTC STC20051010031510010/10/05 03:15:31  5-MIN KSTC 100915Z AUTO 03003KT 5SM BR CLR 02/01 A3017 800 92 -500 030/03 RMK AO2
14926KSTC STC20051010032010010/10/05 03:20:31  5-MIN KSTC 100920Z AUTO 00000KT 5SM BR CLR 02/01 A3017 800 92 -500 000/00 RMK AO2
14926KSTC STC20051010032510010/10/05 03:25:31  5-MIN KSTC 100925Z AUTO 01003KT 4SM BR CLR 01/01 A3017 800 96 -600 010/03 RMK AO2
14926KSTC STC20051010033010010/10/05 03:30:31  5-MIN KSTC 100930Z AUTO 02003KT 4SM BR CLR 01/01 A3017 790 96 -600 020/03 RMK AO2
14926KSTC STC20051010033510010/10/05 03:35:31  5-MIN KSTC 100935Z AUTO 00000KT 5SM BR CLR 02/01 A3018 790 92 -600 000/00 RMK AO2
14926KSTC STC20051010034010010/10/05 03:40:31  5-MIN KSTC 100940Z AUTO 04003KT 5SM BR CLR 02/01 A3018 790 96 -500 040/03 RMK AO2
14926KSTC STC20051010034510010/10/05 03:45:31  5-MIN KSTC 100945Z AUTO 03003KT 5SM BR CLR 01/01 A3017 790 96 -600 030/03 RMK AO2
14926KSTC STC20051010035011710/10/05 03:50:31  5-MIN KSTC 100950Z AUTO 03003KT 5SM BR CLR 01/01 A3017 790 96 -600 030/03 RMK AO2 SLP232 T00110006
14926KSTC STC20051010035510010/10/05 03:55:31  5-MIN KSTC 100955Z AUTO 02004KT 5SM BR CLR 01/01 A3018 790 96 -600 020/04 RMK AO2
14926KSTC STC20051010040010010/10/05 04:00:31  5-MIN KSTC 101000Z AUTO 01003KT 5SM BR CLR 01/00 A3018 790 92 -600 010/03 RMK AO2
14926KSTC STC20051010040510010/10/05 04:05:31  5-MIN KSTC 101005Z AUTO 00000KT 5SM BR CLR 01/01 A3018 790 96 -600 000/00 RMK AO2
14926KSTC STC20051010041010010/10/05 04:10:31  5-MIN KSTC 101010Z AUTO 00000KT 5SM BR CLR 02/01 A3018 780 92 -600 000/00 RMK AO2
14926KSTC STC20051010041510010/10/05 04:15:31  5-MIN KSTC 101015Z AUTO 00000KT 5SM BR CLR 02/01 A3018 780 92 -600 000/00 RMK AO2
14926KSTC STC20051010042010010/10/05 04:20:31  5-MIN KSTC 101020Z AUTO 00000KT 5SM BR CLR 02/01 A3019 780 92 -600 000/00 RMK AO2
14926KSTC STC20051010042510010/10/05 04:25:31  5-MIN KSTC 101025Z AUTO 00000KT 4SM BR CLR 02/01 A3019 780 92 -600 000/00 RMK AO2
14926KSTC STC20051010043010010/10/05 04:30:31  5-MIN KSTC 101030Z AUTO 00000KT 4SM BR CLR 01/01 A3019 780 96 -600 000/00 RMK AO2
14926KSTC STC20051010043510010/10/05 04:35:31  5-MIN KSTC 101035Z AUTO 00000KT 4SM BR CLR 02/01 A3019 770 96 -600 000/00 RMK AO2
14926KSTC STC20051010044010010/10/05 04:40:31  5-MIN KSTC 101040Z AUTO 04003KT 4SM BR CLR 01/01 A3019 770 96 -600 040/03 RMK AO2
14926KSTC STC20051010044510010/10/05 04:45:31  5-MIN KSTC 101045Z AUTO 04003KT 3SM BR CLR 01/01 A3020 770 96 -600 040/03 RMK AO2
14926KSTC STC20051010045011710/10/05 04:50:31  5-MIN KSTC 101050Z AUTO 00000KT 4SM BR CLR 01/01 A3020 770 96 -600 000/00 RMK AO2 SLP241 T00110006
14926KSTC STC20051010045510010/10/05 04:55:31  5-MIN KSTC 101055Z AUTO 00000KT 4SM BR CLR 01/01 A3020 770 96 -600 000/00 RMK AO2
14926KSTC STC20051010050010010/10/05 05:00:31  5-MIN KSTC 101100Z AUTO 00000KT 5SM BR CLR 01/01 A3020 770 96 -700 000/00 RMK AO2
14926KSTC STC20051010050510010/10/05 05:05:31  5-MIN KSTC 101105Z AUTO 01003KT 4SM BR CLR 01/00 A3021 760 96 -700 010/03 RMK AO2
14926KSTC STC20051010051010010/10/05 05:10:31  5-MIN KSTC 101110Z AUTO 02003KT 4SM BR CLR 01/01 A3021 760 96 -700 010/03 RMK AO2
14926KSTC STC20051010051510010/10/05 05:15:31  5-MIN KSTC 101115Z AUTO 36003KT 4SM BR CLR 01/01 A3021 760 96 -700 360/03 RMK AO2
14926KSTC STC20051010052010010/10/05 05:20:31  5-MIN KSTC 101120Z AUTO 03003KT 4SM BR CLR 02/01 A3021 760 92 -600 020/03 RMK AO2
14926KSTC STC20051010052510010/10/05 05:25:31  5-MIN KSTC 101125Z AUTO 04003KT 5SM BR CLR 01/01 A3021 760 96 -700 030/03 RMK AO2
14926KSTC STC20051010053010010/10/05 05:30:31  5-MIN KSTC 101130Z AUTO 04003KT 6SM BR CLR 01/01 A3021 760 96 -700 030/03 RMK AO2
14926KSTC STC20051010053510110/10/05 05:35:31  5-MIN KSTC 101135Z AUTO 00000KT 5SM BR CLR 01/01 A3021 760 100 -700 000/00 RMK AO2
14926KSTC STC20051010054010010/10/05 05:40:31  5-MIN KSTC 101140Z AUTO 00000KT 4SM BR CLR 01/00 A3021 760 96 -700 000/00 RMK AO2
14926KSTC STC20051010054510110/10/05 05:45:31  5-MIN KSTC 101145Z AUTO 02003KT 4SM BR CLR 00/00 A3021 760 100 -800 020/03 RMK AO2
14926KSTC STC20051010055013010/10/05 05:50:31  5-MIN KSTC 101150Z 00000KT 4SM BR CLR 01/01 A3021 760 96 -700 000/00 RMK AO2 SLP246 T00110006 10039 20000 51008
14926KSTC STC20051010055509510/10/05 05:55:31  5-MIN KSTC 101155Z 00000KT 4SM BR CLR 01/01 A3021 760 96 -700 000/00 RMK AO2
14926KSTC STC20051010060009510/10/05 06:00:31  5-MIN KSTC 101200Z 01003KT 3SM BR CLR 01/00 A3021 760 96 -700 010/03 RMK AO2
14926KSTC STC20051010060509610/10/05 06:05:31  5-MIN KSTC 101205Z 00000KT 3SM BR CLR 00/M01 A3021 760 96 -800 000/00 RMK AO2
14926KSTC STC20051010061009510/10/05 06:10:31  5-MIN KSTC 101210Z 36003KT 4SM BR CLR 01/01 A3021 760 96 -700 360/03 RMK AO2
14926KSTC STC20051010061509510/10/05 06:15:31  5-MIN KSTC 101215Z 01003KT 4SM BR CLR 01/01 A3021 760 96 -700 010/03 RMK AO2
14926KSTC STC20051010062009510/10/05 06:20:31  5-MIN KSTC 101220Z 03003KT 4SM BR CLR 01/01 A3021 760 96 -700 020/03 RMK AO2
14926KSTC STC20051010062509510/10/05 06:25:31  5-MIN KSTC 101225Z 00000KT 4SM BR CLR 01/01 A3021 760 96 -700 000/00 RMK AO2
14926KSTC STC20051010063009610/10/05 06:30:31  5-MIN KSTC 101230Z 35003KT 4SM BR CLR 01/01 A3021 750 100 -700 350/03 RMK AO2
14926KSTC STC20051010063509510/10/05 06:35:31  5-MIN KSTC 101235Z 00000KT 4SM BR CLR 01/01 A3021 760 96 -700 000/00 RMK AO2
14926KSTC STC20051010064009510/10/05 06:40:31  5-MIN KSTC 101240Z 00000KT 4SM BR CLR 01/01 A3021 760 96 -700 000/00 RMK AO2
14926KSTC STC20051010064509510/10/05 06:45:31  5-MIN KSTC 101245Z 06003KT 4SM BR CLR 01/01 A3021 750 96 -700 060/03 RMK AO2
14926KSTC STC20051010065011210/10/05 06:50:31  5-MIN KSTC 101250Z 06003KT 3SM BR CLR 01/01 A3022 750 96 -700 060/03 RMK AO2 SLP249 T00110006
14926KSTC STC20051010065509510/10/05 06:55:31  5-MIN KSTC 101255Z 06004KT 5SM BR CLR 02/01 A3021 760 96 -600 060/04 RMK AO2
14926KSTC STC20051010070009510/10/05 07:00:31  5-MIN KSTC 101300Z 05004KT 6SM BR CLR 02/01 A3021 760 92 -500 050/04 RMK AO2
14926KSTC STC20051010070509210/10/05 07:05:31  5-MIN KSTC 101305Z 05004KT 8SM CLR 02/02 A3021 760 96 -500 050/04 RMK AO2
14926KSTC STC20051010071009210/10/05 07:10:31  5-MIN KSTC 101310Z 06004KT 9SM CLR 03/02 A3021 760 92 -500 050/04 RMK AO2
14926KSTC STC20051010071509310/10/05 07:15:31  5-MIN KSTC 101315Z 05004KT 10SM CLR 03/02 A3021 760 96 -500 050/04 RMK AO2
14926KSTC STC20051010072009310/10/05 07:20:31  5-MIN KSTC 101320Z 05004KT 10SM CLR 03/03 A3021 760 96 -400 050/04 RMK AO2
14926KSTC STC20051010072509310/10/05 07:25:31  5-MIN KSTC 101325Z 05004KT 10SM CLR 04/03 A3021 760 92 -300 050/04 RMK AO2
14926KSTC STC20051010073009310/10/05 07:30:31  5-MIN KSTC 101330Z 06003KT 10SM CLR 04/03 A3021 760 92 -200 050/03 RMK AO2
14926KSTC STC20051010073509310/10/05 07:35:31  5-MIN KSTC 101335Z 06004KT 10SM CLR 04/03 A3021 760 92 -200 060/04 RMK AO2
14926KSTC STC20051010074009310/10/05 07:40:31  5-MIN KSTC 101340Z 06004KT 10SM CLR 05/04 A3021 760 92 -200 050/04 RMK AO2
14926KSTC STC20051010074509310/10/05 07:45:31  5-MIN KSTC 101345Z 06004KT 10SM CLR 05/04 A3021 760 92 -200 050/04 RMK AO2
14926KSTC STC20051010075011010/10/05 07:50:31  5-MIN KSTC 101350Z 06003KT 10SM CLR 06/04 A3022 750 89 -100 060/03 RMK AO2 SLP247 T00560039
14926KSTC STC20051010075509310/10/05 07:55:31  5-MIN KSTC 101355Z 00000KT 10SM CLR 06/04 A3022 750 92 -100 000/00 RMK AO2
14926KSTC STC20051010080009010/10/05 08:00:31  5-MIN KSTC 101400Z 00000KT 10SM CLR 06/04 A3022 750 89 0 000/00 RMK AO2
14926KSTC STC20051010080509310/10/05 08:05:31  5-MIN KSTC 101405Z 00000KT 10SM CLR 06/04 A3022 750 89 -100 000/00 RMK AO2
14926KSTC STC20051010081009010/10/05 08:10:31  5-MIN KSTC 101410Z 00000KT 10SM CLR 07/05 A3022 750 89 0 000/00 RMK AO2
14926KSTC STC20051010081509010/10/05 08:15:31  5-MIN KSTC 101415Z 00000KT 10SM CLR 07/04 A3022 750 82 0 000/00 RMK AO2
14926KSTC STC20051010082009010/10/05 08:20:31  5-MIN KSTC 101420Z 06003KT 10SM CLR 07/05 A3022 750 86 0 060/03 RMK AO2
14926KSTC STC20051010082509210/10/05 08:25:31  5-MIN KSTC 101425Z 07003KT 10SM CLR 08/05 A3022 750 82 100 060/03 RMK AO2
14926KSTC STC20051010083009210/10/05 08:30:31  5-MIN KSTC 101430Z 06004KT 10SM CLR 08/05 A3022 750 79 200 060/04 RMK AO2
14926KSTC STC20051010083509210/10/05 08:35:31  5-MIN KSTC 101435Z 06003KT 10SM CLR 08/05 A3022 750 79 200 060/03 RMK AO2
14926KSTC STC20051010084009210/10/05 08:40:31  5-MIN KSTC 101440Z 00000KT 10SM CLR 09/06 A3022 750 79 200 000/00 RMK AO2
14926KSTC STC20051010084509210/10/05 08:45:31  5-MIN KSTC 101445Z 09003KT 10SM CLR 09/06 A3022 750 79 200 090/03 RMK AO2
14926KSTC STC20051010085011510/10/05 08:50:31  5-MIN KSTC 101450Z 00000KT 10SM CLR 09/05 A3022 750 76 200 000/00 RMK AO2 SLP248 T00890050 51016
14926KSTC STC20051010085509210/10/05 08:55:31  5-MIN KSTC 101455Z 00000KT 10SM CLR 09/06 A3022 750 79 200 000/00 RMK AO2
14926KSTC STC20051010090009210/10/05 09:00:31  5-MIN KSTC 101500Z 10003KT 10SM CLR 09/06 A3022 750 76 300 090/03 RMK AO2
14926KSTC STC20051010090509210/10/05 09:05:31  5-MIN KSTC 101505Z 09005KT 10SM CLR 09/06 A3022 750 76 300 090/05 RMK AO2
14926KSTC STC20051010091009210/10/05 09:10:31  5-MIN KSTC 101510Z 09004KT 10SM CLR 10/06 A3022 750 74 400 090/04 RMK AO2
14926KSTC STC20051010091509210/10/05 09:15:31  5-MIN KSTC 101515Z VRB03KT 10SM CLR 11/06 A3022 750 71 400 VRB/03 RMK AO2
14926KSTC STC20051010092009210/10/05 09:20:31  5-MIN KSTC 101520Z 05003KT 10SM CLR 11/06 A3022 750 71 400 050/03 RMK AO2
14926KSTC STC20051010092509210/10/05 09:25:31  5-MIN KSTC 101525Z VRB04KT 10SM CLR 11/06 A3022 750 68 500 VRB/04 RMK AO2
14926KSTC STC20051010093009210/10/05 09:30:31  5-MIN KSTC 101530Z 10006KT 10SM CLR 11/06 A3022 750 68 500 100/06 RMK AO2
14926KSTC STC20051010093509210/10/05 09:35:31  5-MIN KSTC 101535Z 09004KT 10SM CLR 12/06 A3022 750 66 600 090/04 RMK AO2
14926KSTC STC20051010094009210/10/05 09:40:31  5-MIN KSTC 101540Z 09008KT 10SM CLR 12/06 A3022 750 66 600 090/08 RMK AO2
14926KSTC STC20051010094509210/10/05 09:45:31  5-MIN KSTC 101545Z 09007KT 10SM CLR 12/05 A3022 750 63 600 090/07 RMK AO2
14926KSTC STC20051010095010910/10/05 09:50:31  5-MIN KSTC 101550Z 08008KT 10SM CLR 12/05 A3022 750 61 600 080/08 RMK AO2 SLP248 T01220050
14926KSTC STC20051010095509210/10/05 09:55:31  5-MIN KSTC 101555Z 07007KT 10SM CLR 12/05 A3022 750 61 600 070/07 RMK AO2
14926KSTC STC20051010100009210/10/05 10:00:31  5-MIN KSTC 101600Z 08007KT 10SM CLR 12/05 A3022 750 61 600 070/07 RMK AO2
14926KSTC STC20051010100509210/10/05 10:05:31  5-MIN KSTC 101605Z 08006KT 10SM CLR 12/05 A3022 750 61 600 080/06 RMK AO2
14926KSTC STC20051010101009210/10/05 10:10:31  5-MIN KSTC 101610Z 07006KT 10SM CLR 13/05 A3022 750 59 700 070/06 RMK AO2
14926KSTC STC20051010101509210/10/05 10:15:31  5-MIN KSTC 101615Z VRB04KT 10SM CLR 13/05 A3022 750 59 700 VRB/04 RMK AO2
14926KSTC STC20051010102009210/10/05 10:20:31  5-MIN KSTC 101620Z VRB03KT 10SM CLR 13/05 A3022 750 59 700 VRB/03 RMK AO2
14926KSTC STC20051010102509210/10/05 10:25:31  5-MIN KSTC 101625Z 10006KT 10SM CLR 13/05 A3022 750 57 800 090/06 RMK AO2
14926KSTC STC20051010103009210/10/05 10:30:31  5-MIN KSTC 101630Z 09007KT 10SM CLR 13/05 A3022 750 57 800 090/07 RMK AO2
14926KSTC STC20051010103509210/10/05 10:35:31  5-MIN KSTC 101635Z 09006KT 10SM CLR 13/05 A3022 750 57 800 090/06 RMK AO2
14926KSTC STC20051010104009210/10/05 10:40:31  5-MIN KSTC 101640Z 09007KT 10SM CLR 13/05 A3022 750 57 800 090/07 RMK AO2
14926KSTC STC20051010104509210/10/05 10:45:31  5-MIN KSTC 101645Z 10006KT 10SM CLR 14/05 A3022 750 55 800 100/06 RMK AO2
14926KSTC STC20051010105012510/10/05 10:50:31  5-MIN KSTC 101650Z 08007KT 060V120 10SM CLR 14/05 A3022 750 55 800 080/07 060V120 RMK AO2 SLP249 T01390050
14926KSTC STC20051010105509210/10/05 10:55:31  5-MIN KSTC 101655Z 09008KT 10SM CLR 14/05 A3022 750 53 900 090/08 RMK AO2
14926KSTC STC20051010110009210/10/05 11:00:31  5-MIN KSTC 101700Z 08007KT 10SM CLR 14/05 A3022 750 53 900 070/07 RMK AO2
14926KSTC STC20051010110509210/10/05 11:05:31  5-MIN KSTC 101705Z 09007KT 10SM CLR 14/05 A3022 750 53 900 090/07 RMK AO2
14926KSTC STC20051010111009210/10/05 11:10:31  5-MIN KSTC 101710Z 11007KT 10SM CLR 14/05 A3022 750 53 900 100/07 RMK AO2
14926KSTC STC20051010111509210/10/05 11:15:31  5-MIN KSTC 101715Z VRB06KT 10SM CLR 14/05 A3022 750 53 900 VRB/06 RMK AO2
14926KSTC STC20051010112009210/10/05 11:20:31  5-MIN KSTC 101720Z 09007KT 10SM CLR 14/05 A3022 750 53 900 090/07 RMK AO2
14926KSTC STC20051010112509210/10/05 11:25:31  5-MIN KSTC 101725Z 07007KT 10SM CLR 14/05 A3021 760 53 900 070/07 RMK AO2
14926KSTC STC20051010113009310/10/05 11:30:31  5-MIN KSTC 101730Z 05006KT 10SM CLR 15/05 A3022 750 51 1000 050/06 RMK AO2
14926KSTC STC20051010113509310/10/05 11:35:31  5-MIN KSTC 101735Z 08006KT 10SM CLR 15/05 A3021 760 51 1000 080/06 RMK AO2
14926KSTC STC20051010114009310/10/05 11:40:31  5-MIN KSTC 101740Z 09008KT 10SM CLR 15/05 A3022 750 51 1000 080/08 RMK AO2
14926KSTC STC20051010114509310/10/05 11:45:31  5-MIN KSTC 101745Z VRB05KT 10SM CLR 15/06 A3022 750 53 1000 VRB/05 RMK AO2
14926KSTC STC20051010115012810/10/05 11:50:31  5-MIN KSTC 101750Z VRB05KT 10SM CLR 16/06 A3022 750 51 1000 VRB/05 RMK AO2 SLP247 T01560056 10156 20000 53003
14926KSTC STC20051010115509310/10/05 11:55:31  5-MIN KSTC 101755Z 00000KT 10SM CLR 15/05 A3022 750 51 1000 000/00 RMK AO2
14926KSTC STC20051010120009310/10/05 12:00:31  5-MIN KSTC 101800Z 09005KT 10SM CLR 15/05 A3022 750 51 1000 090/05 RMK AO2
14926KSTC STC20051010120509310/10/05 12:05:31  5-MIN KSTC 101805Z VRB04KT 10SM CLR 15/05 A3022 750 51 1000 VRB/04 RMK AO2
14926KSTC STC20051010121009310/10/05 12:10:31  5-MIN KSTC 101810Z 04007KT 10SM CLR 16/05 A3022 750 47 1100 040/07 RMK AO2
14926KSTC STC20051010121509310/10/05 12:15:31  5-MIN KSTC 101815Z 01005KT 10SM CLR 16/05 A3021 760 47 1100 010/05 RMK AO2
14926KSTC STC20051010122009310/10/05 12:20:31  5-MIN KSTC 101820Z 08006KT 10SM CLR 16/05 A3021 760 49 1000 080/06 RMK AO2
14926KSTC STC20051010122509310/10/05 12:25:31  5-MIN KSTC 101825Z 10006KT 10SM CLR 16/05 A3021 760 49 1000 100/06 RMK AO2
14926KSTC STC20051010123009310/10/05 12:30:31  5-MIN KSTC 101830Z 06006KT 10SM CLR 16/05 A3021 760 47 1100 050/06 RMK AO2
14926KSTC STC20051010123509310/10/05 12:35:31  5-MIN KSTC 101835Z 05007KT 10SM CLR 16/05 A3021 760 47 1100 050/07 RMK AO2
14926KSTC STC20051010124009310/10/05 12:40:31  5-MIN KSTC 101840Z 08006KT 10SM CLR 16/05 A3020 760 47 1100 070/06 RMK AO2
14926KSTC STC20051010124509310/10/05 12:45:31  5-MIN KSTC 101845Z 09007KT 10SM CLR 16/05 A3020 770 47 1100 080/07 RMK AO2
14926KSTC STC20051010125011010/10/05 12:50:31  5-MIN KSTC 101850Z VRB05KT 10SM CLR 16/05 A3020 770 49 1100 VRB/05 RMK AO2 SLP240 T01560050
14926KSTC STC20051010125509310/10/05 12:55:31  5-MIN KSTC 101855Z 06007KT 10SM CLR 16/05 A3020 770 47 1100 060/07 RMK AO2
14926KSTC STC20051010130009310/10/05 13:00:31  5-MIN KSTC 101900Z VRB04KT 10SM CLR 16/05 A3019 770 49 1100 VRB/04 RMK AO2
14926KSTC STC20051010130510910/10/05 13:05:31  5-MIN KSTC 101905Z 06007KT 360V110 10SM CLR 16/05 A3019 780 47 1100 060/07 360V110 RMK AO2
14926KSTC STC20051010131011510/10/05 13:10:31  5-MIN KSTC 101910Z 02007G16KT 350V060 10SM CLR 17/06 A3019 780 47 1200 020/07G16 350V060 RMK AO2
14926KSTC STC20051010131510910/10/05 13:15:31  5-MIN KSTC 101915Z 06009KT 010V090 10SM CLR 17/06 A3019 780 47 1200 060/09 010V090 RMK AO2
14926KSTC STC20051010132009310/10/05 13:20:31  5-MIN KSTC 101920Z VRB06KT 10SM CLR 16/05 A3019 780 47 1100 VRB/06 RMK AO2
14926KSTC STC20051010132509310/10/05 13:25:31  5-MIN KSTC 101925Z VRB05KT 10SM CLR 16/05 A3019 780 47 1100 VRB/05 RMK AO2
14926KSTC STC20051010133009310/10/05 13:30:31  5-MIN KSTC 101930Z VRB06KT 10SM CLR 16/05 A3019 780 47 1100 VRB/06 RMK AO2
14926KSTC STC20051010133509310/10/05 13:35:31  5-MIN KSTC 101935Z 07007KT 10SM CLR 17/06 A3019 780 47 1200 070/07 RMK AO2
14926KSTC STC20051010134009310/10/05 13:40:31  5-MIN KSTC 101940Z 07007KT 10SM CLR 17/06 A3018 780 47 1200 070/07 RMK AO2
14926KSTC STC20051010134509310/10/05 13:45:31  5-MIN KSTC 101945Z 08008KT 10SM CLR 16/05 A3018 780 47 1100 070/08 RMK AO2
14926KSTC STC20051010135011010/10/05 13:50:31  5-MIN KSTC 101950Z 04007KT 10SM CLR 17/05 A3018 780 45 1200 040/07 RMK AO2 SLP234 T01670050
14926KSTC STC20051010135509310/10/05 13:55:31  5-MIN KSTC 101955Z VRB06KT 10SM CLR 17/06 A3018 790 47 1200 VRB/06 RMK AO2
14926KSTC STC20051010140010910/10/05 14:00:31  5-MIN KSTC 102000Z 05007KT 020V090 10SM CLR 17/06 A3018 790 47 1200 050/07 020V090 RMK AO2
14926KSTC STC20051010140509310/10/05 14:05:31  5-MIN KSTC 102005Z VRB04KT 10SM CLR 16/05 A3018 790 47 1100 VRB/04 RMK AO2
14926KSTC STC20051010141009310/10/05 14:10:31  5-MIN KSTC 102010Z 09007KT 10SM CLR 17/05 A3018 790 45 1200 080/07 RMK AO2
14926KSTC STC20051010141509310/10/05 14:15:31  5-MIN KSTC 102015Z 12006KT 10SM CLR 17/05 A3018 790 45 1200 110/06 RMK AO2
14926KSTC STC20051010142009310/10/05 14:20:31  5-MIN KSTC 102020Z VRB06KT 10SM CLR 17/05 A3018 790 45 1200 VRB/06 RMK AO2
14926KSTC STC20051010142509310/10/05 14:25:31  5-MIN KSTC 102025Z 09005KT 10SM CLR 17/05 A3018 790 45 1200 090/05 RMK AO2
14926KSTC STC20051010143009310/10/05 14:30:31  5-MIN KSTC 102030Z VRB03KT 10SM CLR 17/05 A3018 790 45 1200 VRB/03 RMK AO2
14926KSTC STC20051010143509310/10/05 14:35:31  5-MIN KSTC 102035Z 09007KT 10SM CLR 17/05 A3018 790 45 1200 090/07 RMK AO2
14926KSTC STC20051010144009310/10/05 14:40:31  5-MIN KSTC 102040Z VRB05KT 10SM CLR 17/05 A3018 790 45 1200 VRB/05 RMK AO2
14926KSTC STC20051010144509310/10/05 14:45:31  5-MIN KSTC 102045Z 11005KT 10SM CLR 17/05 A3018 790 45 1200 110/05 RMK AO2
14926KSTC STC20051010145011610/10/05 14:50:31  5-MIN KSTC 102050Z 09006KT 10SM CLR 17/05 A3017 790 45 1200 090/06 RMK AO2 SLP232 T01670050 58001
14926KSTC STC20051010145509310/10/05 14:55:31  5-MIN KSTC 102055Z 10004KT 10SM CLR 17/04 A3017 790 44 1200 090/04 RMK AO2
14926KSTC STC20051010150009310/10/05 15:00:31  5-MIN KSTC 102100Z 08006KT 10SM CLR 17/05 A3017 800 45 1200 080/06 RMK AO2
14926KSTC STC20051010150509310/10/05 15:05:31  5-MIN KSTC 102105Z VRB03KT 10SM CLR 17/05 A3017 800 45 1200 VRB/03 RMK AO2
14926KSTC STC20051010151009310/10/05 15:10:31  5-MIN KSTC 102110Z 05006KT 10SM CLR 17/05 A3017 800 44 1300 050/06 RMK AO2
14926KSTC STC20051010151509310/10/05 15:15:31  5-MIN KSTC 102115Z 10006KT 10SM CLR 17/05 A3017 800 45 1200 100/06 RMK AO2
14926KSTC STC20051010152009310/10/05 15:20:31  5-MIN KSTC 102120Z VRB06KT 10SM CLR 17/05 A3017 800 45 1200 VRB/06 RMK AO2
14926KSTC STC20051010152509310/10/05 15:25:31  5-MIN KSTC 102125Z 09006KT 10SM CLR 17/05 A3017 800 45 1200 090/06 RMK AO2
14926KSTC STC20051010153009310/10/05 15:30:31  5-MIN KSTC 102130Z 10007KT 10SM CLR 17/04 A3017 800 44 1200 100/07 RMK AO2
14926KSTC STC20051010153509310/10/05 15:35:31  5-MIN KSTC 102135Z 09005KT 10SM CLR 17/04 A3017 800 44 1200 090/05 RMK AO2
14926KSTC STC20051010154009310/10/05 15:40:31  5-MIN KSTC 102140Z 06005KT 10SM CLR 17/04 A3017 800 44 1200 060/05 RMK AO2
14926KSTC STC20051010154509310/10/05 15:45:31  5-MIN KSTC 102145Z 08005KT 10SM CLR 17/05 A3017 800 45 1200 080/05 RMK AO2
14926KSTC STC20051010155011010/10/05 15:50:31  5-MIN KSTC 102150Z VRB05KT 10SM CLR 17/04 A3017 800 44 1200 VRB/05 RMK AO2 SLP230 T01670044
14926KSTC STC20051010155509310/10/05 15:55:31  5-MIN KSTC 102155Z 08005KT 10SM CLR 17/05 A3017 800 45 1200 080/05 RMK AO2
14926KSTC STC20051010160009310/10/05 16:00:31  5-MIN KSTC 102200Z VRB06KT 10SM CLR 17/05 A3017 800 45 1200 VRB/06 RMK AO2
14926KSTC STC20051010160509310/10/05 16:05:31  5-MIN KSTC 102205Z 07007KT 10SM CLR 17/05 A3017 800 45 1200 070/07 RMK AO2
14926KSTC STC20051010161009310/10/05 16:10:31  5-MIN KSTC 102210Z 05006KT 10SM CLR 17/05 A3017 800 45 1200 050/06 RMK AO2
14926KSTC STC20051010161509310/10/05 16:15:31  5-MIN KSTC 102215Z 05007KT 10SM CLR 17/05 A3017 800 45 1200 050/07 RMK AO2
14926KSTC STC20051010162009310/10/05 16:20:31  5-MIN KSTC 102220Z 03005KT 10SM CLR 17/05 A3017 800 45 1200 030/05 RMK AO2
14926KSTC STC20051010162509310/10/05 16:25:31  5-MIN KSTC 102225Z 04007KT 10SM CLR 17/05 A3017 800 45 1200 040/07 RMK AO2
14926KSTC STC20051010163009310/10/05 16:30:31  5-MIN KSTC 102230Z 05007KT 10SM CLR 17/05 A3017 800 45 1200 050/07 RMK AO2
14926KSTC STC20051010163509310/10/05 16:35:31  5-MIN KSTC 102235Z 07005KT 10SM CLR 16/05 A3017 790 47 1200 070/05 RMK AO2
14926KSTC STC20051010164009310/10/05 16:40:31  5-MIN KSTC 102240Z 05006KT 10SM CLR 16/05 A3017 790 47 1100 040/06 RMK AO2
14926KSTC STC20051010164509310/10/05 16:45:31  5-MIN KSTC 102245Z 05004KT 10SM CLR 16/05 A3017 790 47 1100 050/04 RMK AO2
14926KSTC STC20051010165011010/10/05 16:50:31  5-MIN KSTC 102250Z 05004KT 10SM CLR 16/05 A3018 790 47 1100 050/04 RMK AO2 SLP233 T01610050
14926KSTC STC20051010165509310/10/05 16:55:31  5-MIN KSTC 102255Z 06004KT 10SM CLR 16/05 A3018 790 49 1100 060/04 RMK AO2
14926KSTC STC20051010170009310/10/05 17:00:31  5-MIN KSTC 102300Z 00000KT 10SM CLR 16/05 A3018 790 49 1100 000/00 RMK AO2
14926KSTC STC20051010170509310/10/05 17:05:31  5-MIN KSTC 102305Z 08003KT 10SM CLR 16/05 A3018 790 49 1100 080/03 RMK AO2
14926KSTC STC20051010171009310/10/05 17:10:31  5-MIN KSTC 102310Z 00000KT 10SM CLR 16/06 A3018 790 51 1100 000/00 RMK AO2
14926KSTC STC20051010171509310/10/05 17:15:31  5-MIN KSTC 102315Z 00000KT 10SM CLR 15/06 A3018 790 55 1000 000/00 RMK AO2
14926KSTC STC20051010172009210/10/05 17:20:31  5-MIN KSTC 102320Z 00000KT 10SM CLR 14/06 A3018 790 57 900 000/00 RMK AO2
14926KSTC STC20051010172509210/10/05 17:25:31  5-MIN KSTC 102325Z 00000KT 10SM CLR 14/06 A3018 790 57 900 000/00 RMK AO2
14926KSTC STC20051010173009210/10/05 17:30:31  5-MIN KSTC 102330Z 08003KT 10SM CLR 14/06 A3018 790 57 900 070/03 RMK AO2
14926KSTC STC20051010173509210/10/05 17:35:31  5-MIN KSTC 102335Z 08003KT 10SM CLR 13/06 A3018 790 59 800 070/03 RMK AO2
14926KSTC STC20051010174009210/10/05 17:40:31  5-MIN KSTC 102340Z 08003KT 10SM CLR 13/06 A3018 790 63 700 080/03 RMK AO2
14926KSTC STC20051010174509210/10/05 17:45:31  5-MIN KSTC 102345Z 08003KT 10SM CLR 12/06 A3018 790 66 700 080/03 RMK AO2
14926KSTC STC20051010175012710/10/05 17:50:31  5-MIN KSTC 102350Z 09003KT 10SM CLR 12/06 A3018 790 66 700 090/03 RMK AO2 SLP236 T01220061 10172 20122 56015
14926KSTC STC20051010175509210/10/05 17:55:31  5-MIN KSTC 102355Z 09003KT 10SM CLR 12/06 A3018 790 66 700 080/03 RMK AO2
14926KSTC STC20051010180009210/10/05 18:00:31  5-MIN KSTC 110000Z 08003KT 10SM CLR 11/06 A3018 790 71 500 080/03 RMK AO2
14926KSTC STC20051010180509210/10/05 18:05:31  5-MIN KSTC 110005Z 07003KT 10SM CLR 11/06 A3018 790 71 500 070/03 RMK AO2
14926KSTC STC20051010181009210/10/05 18:10:31  5-MIN KSTC 110010Z 00000KT 10SM CLR 12/06 A3018 790 66 600 000/00 RMK AO2
14926KSTC STC20051010181509210/10/05 18:15:31  5-MIN KSTC 110015Z 07003KT 10SM CLR 11/06 A3018 790 68 500 070/03 RMK AO2
14926KSTC STC20051010182009210/10/05 18:20:31  5-MIN KSTC 110020Z 06003KT 10SM CLR 11/06 A3018 780 71 500 060/03 RMK AO2
14926KSTC STC20051010182509210/10/05 18:25:31  5-MIN KSTC 110025Z 05003KT 10SM CLR 11/06 A3018 780 71 500 050/03 RMK AO2
14926KSTC STC20051010183009210/10/05 18:30:31  5-MIN KSTC 110030Z 00000KT 10SM CLR 11/06 A3018 780 71 500 000/00 RMK AO2
14926KSTC STC20051010183509210/10/05 18:35:31  5-MIN KSTC 110035Z 00000KT 10SM CLR 11/06 A3019 780 71 500 000/00 RMK AO2
14926KSTC STC20051010184009210/10/05 18:40:31  5-MIN KSTC 110040Z 06003KT 10SM CLR 10/06 A3018 780 77 400 060/03 RMK AO2
14926KSTC STC20051010184509210/10/05 18:45:31  5-MIN KSTC 110045Z 00000KT 10SM CLR 10/06 A3019 780 74 400 000/00 RMK AO2
14926KSTC STC20051010185010910/10/05 18:50:31  5-MIN KSTC 110050Z 00000KT 10SM CLR 10/06 A3019 780 74 400 000/00 RMK AO2 SLP238 T01000056
14926KSTC STC20051010185509210/10/05 18:55:31  5-MIN KSTC 110055Z 00000KT 10SM CLR 09/06 A3019 780 79 300 000/00 RMK AO2
14926KSTC STC20051010190009210/10/05 19:00:31  5-MIN KSTC 110100Z 00000KT 10SM CLR 09/06 A3019 780 76 300 000/00 RMK AO2
14926KSTC STC20051010190509210/10/05 19:05:31  5-MIN KSTC 110105Z 06003KT 10SM CLR 09/06 A3018 780 76 300 060/03 RMK AO2
14926KSTC STC20051010191009210/10/05 19:10:31  5-MIN KSTC 110110Z 06004KT 10SM CLR 09/06 A3019 780 79 300 060/04 RMK AO2
14926KSTC STC20051010191509210/10/05 19:15:31  5-MIN KSTC 110115Z 07004KT 10SM CLR 09/06 A3019 780 79 300 060/04 RMK AO2
14926KSTC STC20051010192009210/10/05 19:20:31  5-MIN KSTC 110120Z 06004KT 10SM CLR 09/06 A3019 780 79 300 060/04 RMK AO2
14926KSTC STC20051010192509210/10/05 19:25:31  5-MIN KSTC 110125Z 05003KT 10SM CLR 08/06 A3019 780 86 200 050/03 RMK AO2
14926KSTC STC20051010193009210/10/05 19:30:31  5-MIN KSTC 110130Z 05003KT 10SM CLR 08/06 A3019 780 86 200 050/03 RMK AO2
14926KSTC STC20051010193509210/10/05 19:35:31  5-MIN KSTC 110135Z 04003KT 10SM CLR 08/06 A3019 780 89 100 040/03 RMK AO2
14926KSTC STC20051010194009210/10/05 19:40:31  5-MIN KSTC 110140Z 04003KT 10SM CLR 08/06 A3018 780 86 200 040/03 RMK AO2
14926KSTC STC20051010194509210/10/05 19:45:31  5-MIN KSTC 110145Z 04003KT 10SM CLR 08/06 A3019 780 82 200 030/03 RMK AO2
14926KSTC STC20051010195010910/10/05 19:50:31  5-MIN KSTC 110150Z 03003KT 10SM CLR 08/06 A3019 780 86 100 030/03 RMK AO2 SLP238 T00780056
14926KSTC STC20051010195509210/10/05 19:55:31  5-MIN KSTC 110155Z 04003KT 10SM CLR 08/06 A3019 780 86 100 030/03 RMK AO2
14926KSTC STC20051010200009210/10/05 20:00:31  5-MIN KSTC 110200Z 04003KT 10SM CLR 08/06 A3019 780 86 100 040/03 RMK AO2
14926KSTC STC20051010200509210/10/05 20:05:31  5-MIN KSTC 110205Z 04003KT 10SM CLR 08/06 A3019 780 86 100 040/03 RMK AO2
14926KSTC STC20051010201009210/10/05 20:10:31  5-MIN KSTC 110210Z 05003KT 10SM CLR 07/05 A3019 780 86 100 040/03 RMK AO2
14926KSTC STC20051010201509210/10/05 20:15:31  5-MIN KSTC 110215Z 05003KT 10SM CLR 07/05 A3019 780 86 100 050/03 RMK AO2
14926KSTC STC20051010202009210/10/05 20:20:31  5-MIN KSTC 110220Z 06004KT 10SM CLR 08/06 A3019 780 82 200 050/04 RMK AO2
14926KSTC STC20051010202509210/10/05 20:25:31  5-MIN KSTC 110225Z 05004KT 10SM CLR 08/06 A3019 780 82 200 050/04 RMK AO2
14926KSTC STC20051010203009210/10/05 20:30:31  5-MIN KSTC 110230Z 05005KT 10SM CLR 08/05 A3019 780 79 200 050/05 RMK AO2
14926KSTC STC20051010203509210/10/05 20:35:31  5-MIN KSTC 110235Z 05006KT 10SM CLR 08/05 A3019 780 79 200 050/06 RMK AO2
14926KSTC STC20051010204009210/10/05 20:40:31  5-MIN KSTC 110240Z 05006KT 10SM CLR 09/05 A3019 780 76 300 050/06 RMK AO2
14926KSTC STC20051010204509210/10/05 20:45:31  5-MIN KSTC 110245Z 05005KT 10SM CLR 09/05 A3019 780 76 300 050/05 RMK AO2
14926KSTC STC20051010205011510/10/05 20:50:31  5-MIN KSTC 110250Z 05005KT 10SM CLR 09/05 A3019 780 76 300 050/05 RMK AO2 SLP238 T00890050 53003
14926KSTC STC20051010205509210/10/05 20:55:31  5-MIN KSTC 110255Z 05006KT 10SM CLR 09/05 A3019 780 76 300 050/06 RMK AO2
14926KSTC STC20051010210009210/10/05 21:00:31  5-MIN KSTC 110300Z 05005KT 10SM CLR 09/06 A3019 780 76 300 050/05 RMK AO2
14926KSTC STC20051010210509210/10/05 21:05:31  5-MIN KSTC 110305Z 05006KT 10SM CLR 09/06 A3019 780 76 300 050/06 RMK AO2
14926KSTC STC20051010211009210/10/05 21:10:31  5-MIN KSTC 110310Z 05005KT 10SM CLR 09/06 A3019 780 76 300 050/05 RMK AO2
14926KSTC STC20051010211509210/10/05 21:15:31  5-MIN KSTC 110315Z 05005KT 10SM CLR 09/06 A3019 780 76 300 050/05 RMK AO2
14926KSTC STC20051010212009210/10/05 21:20:31  5-MIN KSTC 110320Z 05005KT 10SM CLR 09/06 A3019 780 76 300 050/05 RMK AO2
14926KSTC STC20051010212509210/10/05 21:25:31  5-MIN KSTC 110325Z 05005KT 10SM CLR 09/06 A3019 780 79 300 050/05 RMK AO2
14926KSTC STC20051010213009210/10/05 21:30:31  5-MIN KSTC 110330Z 06005KT 10SM CLR 09/06 A3019 780 79 300 060/05 RMK AO2
14926KSTC STC20051010213509210/10/05 21:35:31  5-MIN KSTC 110335Z 06004KT 10SM CLR 09/06 A3019 780 76 300 060/04 RMK AO2
14926KSTC STC20051010214009210/10/05 21:40:31  5-MIN KSTC 110340Z 07004KT 10SM CLR 09/06 A3019 780 76 300 060/04 RMK AO2
14926KSTC STC20051010214509210/10/05 21:45:31  5-MIN KSTC 110345Z 07004KT 10SM CLR 09/06 A3019 770 76 300 070/04 RMK AO2
14926KSTC STC20051010215011410/10/05 21:50:31  5-MIN KSTC 110350Z AUTO 08003KT 10SM CLR 09/06 A3019 770 79 300 080/03 RMK AO2 SLP237 T00890056
14926KSTC STC20051010215509710/10/05 21:55:31  5-MIN KSTC 110355Z AUTO 07004KT 10SM CLR 09/06 A3019 780 79 300 070/04 RMK AO2
14926KSTC STC20051010220009710/10/05 22:00:31  5-MIN KSTC 110400Z AUTO 08005KT 10SM CLR 09/06 A3019 780 79 300 070/05 RMK AO2
14926KSTC STC20051010220509710/10/05 22:05:31  5-MIN KSTC 110405Z AUTO 07004KT 10SM CLR 09/06 A3019 780 79 300 070/04 RMK AO2
14926KSTC STC20051010221009710/10/05 22:10:31  5-MIN KSTC 110410Z AUTO 07003KT 10SM CLR 09/06 A3019 770 79 300 070/03 RMK AO2
14926KSTC STC20051010221509710/10/05 22:15:31  5-MIN KSTC 110415Z AUTO 07004KT 10SM CLR 09/05 A3019 780 76 300 070/04 RMK AO2
14926KSTC STC20051010222009710/10/05 22:20:31  5-MIN KSTC 110420Z AUTO 06003KT 10SM CLR 08/05 A3019 770 79 200 060/03 RMK AO2
14926KSTC STC20051010222509710/10/05 22:25:31  5-MIN KSTC 110425Z AUTO 05003KT 10SM CLR 08/05 A3019 780 79 200 050/03 RMK AO2
14926KSTC STC20051010223009710/10/05 22:30:31  5-MIN KSTC 110430Z AUTO 05003KT 10SM CLR 08/05 A3019 780 79 200 050/03 RMK AO2
14926KSTC STC20051010223509710/10/05 22:35:31  5-MIN KSTC 110435Z AUTO 05003KT 10SM CLR 08/05 A3019 780 79 200 050/03 RMK AO2
14926KSTC STC20051010224009710/10/05 22:40:31  5-MIN KSTC 110440Z AUTO 04003KT 10SM CLR 08/05 A3019 780 82 100 040/03 RMK AO2
14926KSTC STC20051010224509710/10/05 22:45:31  5-MIN KSTC 110445Z AUTO 00000KT 10SM CLR 08/05 A3019 780 82 100 000/00 RMK AO2
14926KSTC STC20051010225011410/10/05 22:50:31  5-MIN KSTC 110450Z AUTO 00000KT 10SM CLR 07/05 A3019 780 86 100 000/00 RMK AO2 SLP236 T00720050
14926KSTC STC20051010225509710/10/05 22:55:31  5-MIN KSTC 110455Z AUTO 05003KT 10SM CLR 07/05 A3019 780 86 100 040/03 RMK AO2
14926KSTC STC20051010230009710/10/05 23:00:31  5-MIN KSTC 110500Z AUTO 00000KT 10SM CLR 07/05 A3019 780 86 100 000/00 RMK AO2
14926KSTC STC20051010230509710/10/05 23:05:31  5-MIN KSTC 110505Z AUTO 00000KT 10SM CLR 07/05 A3019 780 86 100 000/00 RMK AO2
14926KSTC STC20051010231009710/10/05 23:10:31  5-MIN KSTC 110510Z AUTO 00000KT 10SM CLR 07/05 A3019 780 86 100 000/00 RMK AO2
14926KSTC STC20051010231509510/10/05 23:15:31  5-MIN KSTC 110515Z AUTO 00000KT 10SM CLR 06/04 A3019 780 89 0 000/00 RMK AO2
14926KSTC STC20051010232009810/10/05 23:20:31  5-MIN KSTC 110520Z AUTO 00000KT 10SM CLR 06/04 A3019 780 92 -100 000/00 RMK AO2
14926KSTC STC20051010232509810/10/05 23:25:31  5-MIN KSTC 110525Z AUTO 00000KT 10SM CLR 05/04 A3019 780 92 -100 000/00 RMK AO2
14926KSTC STC20051010233009810/10/05 23:30:31  5-MIN KSTC 110530Z AUTO 05003KT 10SM CLR 06/04 A3018 780 92 -100 050/03 RMK AO2
14926KSTC STC20051010233509510/10/05 23:35:31  5-MIN KSTC 110535Z AUTO 05003KT 10SM CLR 06/04 A3018 780 89 0 050/03 RMK AO2
14926KSTC STC20051010234009510/10/05 23:40:31  5-MIN KSTC 110540Z AUTO 05003KT 10SM CLR 06/04 A3018 790 89 0 040/03 RMK AO2
14926KSTC STC20051010234509810/10/05 23:45:31  5-MIN KSTC 110545Z AUTO 04003KT 10SM CLR 06/04 A3018 790 92 -100 040/03 RMK AO2
14926KSTC STC20051010235014310/10/05 23:50:31  5-MIN KSTC 110550Z AUTO 00000KT 10SM CLR 06/04 A3018 790 89 -100 000/00 RMK AO2 SLP233 T00560039 10122 20050 401720000 51003
14926KSTC STC20051010235509810/10/05 23:55:31  5-MIN KSTC 110555Z AUTO 00000KT 10SM CLR 06/04 A3018 790 89 -100 000/00 RMK AO2
14926KSTC STC20051011000009510/11/05 00:00:32  5-MIN KSTC 110600Z AUTO 00000KT 10SM CLR 06/04 A3018 790 86 0 000/00 RMK AO2
14926KSTC STC20051011000509810/11/05 00:05:31  5-MIN KSTC 110605Z AUTO 00000KT 10SM CLR 06/04 A3018 790 92 -100 000/00 RMK AO2
14926KSTC STC20051011001009810/11/05 00:10:31  5-MIN KSTC 110610Z AUTO 00000KT 10SM CLR 05/04 A3018 790 92 -100 000/00 RMK AO2
14926KSTC STC20051011001509810/11/05 00:15:31  5-MIN KSTC 110615Z AUTO 00000KT 10SM CLR 05/04 A3018 780 92 -100 000/00 RMK AO2
14926KSTC STC20051011002009810/11/05 00:20:31  5-MIN KSTC 110620Z AUTO 00000KT 10SM CLR 04/04 A3018 780 96 -200 000/00 RMK AO2
14926KSTC STC20051011002509810/11/05 00:25:31  5-MIN KSTC 110625Z AUTO 00000KT 10SM CLR 05/04 A3019 780 92 -100 000/00 RMK AO2
14926KSTC STC20051011003009810/11/05 00:30:31  5-MIN KSTC 110630Z AUTO 00000KT 10SM CLR 06/04 A3019 780 89 -100 000/00 RMK AO2
14926KSTC STC20051011003509810/11/05 00:35:31  5-MIN KSTC 110635Z AUTO 00000KT 10SM CLR 04/03 A3019 780 92 -200 000/00 RMK AO2
14926KSTC STC20051011004009810/11/05 00:40:31  5-MIN KSTC 110640Z AUTO 00000KT 10SM CLR 04/03 A3018 780 92 -300 000/00 RMK AO2
14926KSTC STC20051011004509810/11/05 00:45:31  5-MIN KSTC 110645Z AUTO 00000KT 10SM CLR 04/03 A3018 790 92 -200 000/00 RMK AO2
14926KSTC STC20051011005011510/11/05 00:50:31  5-MIN KSTC 110650Z AUTO 00000KT 10SM CLR 04/03 A3018 780 92 -200 000/00 RMK AO2 SLP234 T00440033
14926KSTC STC20051011005509810/11/05 00:55:31  5-MIN KSTC 110655Z AUTO 00000KT 10SM CLR 04/03 A3018 780 92 -200 000/00 RMK AO2
14926KSTC STC20051011010009810/11/05 01:00:31  5-MIN KSTC 110700Z AUTO 05003KT 10SM CLR 04/03 A3018 790 92 -200 040/03 RMK AO2
14926KSTC STC20051011010509810/11/05 01:05:31  5-MIN KSTC 110705Z AUTO 05004KT 10SM CLR 04/03 A3018 790 96 -300 050/04 RMK AO2
14926KSTC STC20051011011009810/11/05 01:10:31  5-MIN KSTC 110710Z AUTO 06004KT 10SM CLR 05/04 A3018 790 92 -100 060/04 RMK AO2
14926KSTC STC20051011011509810/11/05 01:15:31  5-MIN KSTC 110715Z AUTO 00000KT 10SM CLR 05/04 A3018 790 92 -100 000/00 RMK AO2
14926KSTC STC20051011012009810/11/05 01:20:31  5-MIN KSTC 110720Z AUTO 00000KT 10SM CLR 04/04 A3018 790 96 -200 000/00 RMK AO2
14926KSTC STC20051011012509810/11/05 01:25:31  5-MIN KSTC 110725Z AUTO 00000KT 10SM CLR 03/03 A3018 790 96 -300 000/00 RMK AO2
14926KSTC STC20051011013009810/11/05 01:30:31  5-MIN KSTC 110730Z AUTO 06003KT 10SM CLR 04/03 A3018 780 92 -200 060/03 RMK AO2
14926KSTC STC20051011013509810/11/05 01:35:31  5-MIN KSTC 110735Z AUTO 00000KT 10SM CLR 05/04 A3018 780 92 -100 000/00 RMK AO2
14926KSTC STC20051011014009810/11/05 01:40:31  5-MIN KSTC 110740Z AUTO 00000KT 10SM CLR 06/04 A3018 780 89 -100 000/00 RMK AO2
14926KSTC STC20051011014509810/11/05 01:45:31  5-MIN KSTC 110745Z AUTO 06003KT 10SM CLR 06/04 A3018 790 89 -100 050/03 RMK AO2
14926KSTC STC20051011015011510/11/05 01:50:31  5-MIN KSTC 110750Z AUTO 06003KT 10SM CLR 05/04 A3018 780 92 -100 060/03 RMK AO2 SLP233 T00500039
14926KSTC STC20051011015509810/11/05 01:55:31  5-MIN KSTC 110755Z AUTO 06003KT 10SM CLR 06/04 A3018 780 89 -100 060/03 RMK AO2
14926KSTC STC20051011020009810/11/05 02:00:31  5-MIN KSTC 110800Z AUTO 05003KT 10SM CLR 05/04 A3018 790 92 -100 050/03 RMK AO2
14926KSTC STC20051011020509810/11/05 02:05:31  5-MIN KSTC 110805Z AUTO 00000KT 10SM CLR 05/03 A3018 790 89 -100 000/00 RMK AO2
14926KSTC STC20051011021009810/11/05 02:10:31  5-MIN KSTC 110810Z AUTO 04003KT 10SM CLR 05/03 A3018 790 89 -100 040/03 RMK AO2
14926KSTC STC20051011021509810/11/05 02:15:31  5-MIN KSTC 110815Z AUTO 05003KT 10SM CLR 04/03 A3018 790 92 -200 040/03 RMK AO2
14926KSTC STC20051011092009210/11/05 09:20:31  5-MIN KSTC 111520Z 09005KT 10SM CLR 09/06 A3017 790 76 400 090/05 RMK AO2
14926KSTC STC20051011092509210/11/05 09:25:31  5-MIN KSTC 111525Z 11006KT 10SM CLR 10/06 A3017 790 77 400 110/06 RMK AO2
14926KSTC STC20051011093009210/11/05 09:30:31  5-MIN KSTC 111530Z 12006KT 10SM CLR 10/06 A3017 800 77 400 110/06 RMK AO2
14926KSTC STC20051011093509210/11/05 09:35:31  5-MIN KSTC 111535Z 11006KT 10SM CLR 11/06 A3017 800 74 500 110/06 RMK AO2
14926KSTC STC20051011094009210/11/05 09:40:31  5-MIN KSTC 111540Z 12006KT 10SM CLR 11/06 A3017 800 74 500 110/06 RMK AO2
14926KSTC STC20051011094509210/11/05 09:45:31  5-MIN KSTC 111545Z VRB05KT 10SM CLR 11/06 A3017 800 74 500 VRB/05 RMK AO2
14926KSTC STC20051011095010910/11/05 09:50:31  5-MIN KSTC 111550Z 14006KT 10SM CLR 11/07 A3017 800 74 600 140/06 RMK AO2 SLP229 T01110067
14926KSTC STC20051011095509210/11/05 09:55:31  5-MIN KSTC 111555Z 14007KT 10SM CLR 11/06 A3016 800 71 600 140/07 RMK AO2
14926KSTC STC20051011100009210/11/05 10:00:31  5-MIN KSTC 111600Z 14007KT 10SM CLR 12/06 A3016 800 68 600 130/07 RMK AO2
14926KSTC STC20051011100509210/11/05 10:05:31  5-MIN KSTC 111605Z 13006KT 10SM CLR 12/07 A3016 800 71 600 130/06 RMK AO2
14926KSTC STC20051011101009210/11/05 10:10:31  5-MIN KSTC 111610Z 15007KT 10SM CLR 12/06 A3016 800 68 600 150/07 RMK AO2
14926KSTC STC20051011101509210/11/05 10:15:31  5-MIN KSTC 111615Z 16008KT 10SM CLR 12/07 A3016 800 68 700 150/08 RMK AO2
14926KSTC STC20051011102009210/11/05 10:20:31  5-MIN KSTC 111620Z 15006KT 10SM CLR 12/07 A3016 800 68 700 150/06 RMK AO2
14926KSTC STC20051011102509210/11/05 10:25:31  5-MIN KSTC 111625Z 15008KT 10SM CLR 13/07 A3016 800 66 800 140/08 RMK AO2
14926KSTC STC20051011103009210/11/05 10:30:31  5-MIN KSTC 111630Z 16007KT 10SM CLR 13/07 A3016 800 66 800 160/07 RMK AO2
14926KSTC STC20051011103509210/11/05 10:35:31  5-MIN KSTC 111635Z 14008KT 10SM CLR 13/07 A3016 800 66 800 140/08 RMK AO2
14926KSTC STC20051011104009210/11/05 10:40:31  5-MIN KSTC 111640Z 15008KT 10SM CLR 13/07 A3016 800 64 800 150/08 RMK AO2
14926KSTC STC20051011104509210/11/05 10:45:31  5-MIN KSTC 111645Z 15006KT 10SM CLR 13/07 A3016 800 66 800 140/06 RMK AO2
14926KSTC STC20051011105010910/11/05 10:50:31  5-MIN KSTC 111650Z 16008KT 10SM CLR 13/07 A3016 800 64 800 160/08 RMK AO2 SLP226 T01330067
14926KSTC STC20051011105509210/11/05 10:55:31  5-MIN KSTC 111655Z 15008KT 10SM CLR 13/07 A3016 810 64 800 150/08 RMK AO2
14926KSTC STC20051011110009210/11/05 11:00:31  5-MIN KSTC 111700Z 17008KT 10SM CLR 13/07 A3016 810 64 800 160/08 RMK AO2
14926KSTC STC20051011110509210/11/05 11:05:31  5-MIN KSTC 111705Z 16008KT 10SM CLR 14/07 A3016 810 61 900 150/08 RMK AO2
14926KSTC STC20051011111009210/11/05 11:10:31  5-MIN KSTC 111710Z 14008KT 10SM CLR 14/07 A3016 810 61 900 140/08 RMK AO2
14926KSTC STC20051011111509510/11/05 11:15:31  5-MIN KSTC 111715Z 12007KT 10SM FEW026 14/07 A3016 810 61 900 120/07 RMK AO2
14926KSTC STC20051011112009610/11/05 11:20:31  5-MIN KSTC 111720Z 15011KT 10SM FEW026 14/07 A3015 810 59 1000 150/11 RMK AO2
14926KSTC STC20051011112509310/11/05 11:25:31  5-MIN KSTC 111725Z 17012KT 10SM CLR 14/07 A3015 810 59 1000 160/12 RMK AO2
14926KSTC STC20051011113009310/11/05 11:30:31  5-MIN KSTC 111730Z 15009KT 10SM CLR 14/07 A3015 810 59 1000 150/09 RMK AO2
14926KSTC STC20051011113509310/11/05 11:35:31  5-MIN KSTC 111735Z 15009KT 10SM CLR 14/07 A3015 810 59 1000 150/09 RMK AO2
14926KSTC STC20051011114009210/11/05 11:40:31  5-MIN KSTC 111740Z 15008KT 10SM CLR 14/06 A3015 810 59 900 150/08 RMK AO2
14926KSTC STC20051011114509210/11/05 11:45:31  5-MIN KSTC 111745Z 15007KT 10SM CLR 14/07 A3015 810 61 900 150/07 RMK AO2
14926KSTC STC20051011115012810/11/05 11:50:31  5-MIN KSTC 111750Z 13010KT 10SM CLR 14/07 A3015 810 59 1000 130/10 RMK AO2 SLP224 T01440067 10144 20028 58001
14926KSTC STC20051011115509310/11/05 11:55:31  5-MIN KSTC 111755Z 12008KT 10SM CLR 14/07 A3015 810 59 1000 120/08 RMK AO2
14926KSTC STC20051011120009610/11/05 12:00:31  5-MIN KSTC 111800Z 16011KT 10SM FEW028 15/07 A3015 810 57 1000 160/11 RMK AO2
14926KSTC STC20051011120509610/11/05 12:05:31  5-MIN KSTC 111805Z 16010KT 10SM SCT028 14/07 A3015 810 59 1000 160/10 RMK AO2
14926KSTC STC20051011121009510/11/05 12:10:31  5-MIN KSTC 111810Z 14007KT 10SM SCT028 14/07 A3015 810 61 900 140/07 RMK AO2
14926KSTC STC20051011121509610/11/05 12:15:31  5-MIN KSTC 111815Z 14010KT 10SM FEW028 15/07 A3015 810 57 1000 140/10 RMK AO2
14926KSTC STC20051011122009510/11/05 12:20:31  5-MIN KSTC 111820Z 13009KT 10SM FEW028 14/07 A3015 820 61 900 130/09 RMK AO2
14926KSTC STC20051011122509510/11/05 12:25:31  5-MIN KSTC 111825Z 15008KT 10SM FEW028 14/07 A3015 820 61 900 150/08 RMK AO2
14926KSTC STC20051011123009510/11/05 12:30:31  5-MIN KSTC 111830Z 13004KT 10SM FEW030 14/07 A3015 820 61 900 130/04 RMK AO2
14926KSTC STC20051011123511210/11/05 12:35:31  5-MIN KSTC 111835Z 14008KT 100V170 10SM SCT032 15/07 A3015 820 57 1000 140/08 100V170 RMK AO2
14926KSTC STC20051011124009610/11/05 12:40:31  5-MIN KSTC 111840Z 14009KT 10SM FEW032 16/07 A3015 820 55 1100 130/09 RMK AO2
14926KSTC STC20051011124509610/11/05 12:45:31  5-MIN KSTC 111845Z 17008KT 10SM FEW032 15/07 A3015 820 57 1000 160/08 RMK AO2
14926KSTC STC20051011125011310/11/05 12:50:31  5-MIN KSTC 111850Z 15007KT 10SM FEW032 14/07 A3014 820 59 1000 150/07 RMK AO2 SLP221 T01440067
14926KSTC STC20051011125509610/11/05 12:55:31  5-MIN KSTC 111855Z VRB05KT 10SM SCT032 15/06 A3014 820 55 1100 VRB/05 RMK AO2
14926KSTC STC20051011130010210/11/05 13:00:31  5-MIN KSTC 111900Z 13011G14KT 10SM FEW032 16/06 A3014 830 51 1200 130/11G14 RMK AO2
14926KSTC STC20051011130509610/11/05 13:05:31  5-MIN KSTC 111905Z 13010KT 10SM FEW032 16/06 A3014 830 53 1100 130/10 RMK AO2
14926KSTC STC20051011131009610/11/05 13:10:31  5-MIN KSTC 111910Z VRB06KT 10SM FEW034 15/06 A3013 830 55 1100 VRB/06 RMK AO2
14926KSTC STC20051011131509610/11/05 13:15:31  5-MIN KSTC 111915Z 14009KT 10SM FEW034 16/07 A3013 830 53 1200 140/09 RMK AO2
14926KSTC STC20051011132009610/11/05 13:20:31  5-MIN KSTC 111920Z 15008KT 10SM FEW034 16/06 A3013 830 51 1200 140/08 RMK AO2
14926KSTC STC20051011132509310/11/05 13:25:31  5-MIN KSTC 111925Z 14007KT 10SM CLR 16/06 A3013 840 53 1100 140/07 RMK AO2
14926KSTC STC20051011133009310/11/05 13:30:31  5-MIN KSTC 111930Z 12008KT 10SM CLR 16/06 A3012 840 49 1200 110/08 RMK AO2
14926KSTC STC20051011133509310/11/05 13:35:31  5-MIN KSTC 111935Z 14009KT 10SM CLR 16/06 A3012 840 49 1200 130/09 RMK AO2
14926KSTC STC20051011134009310/11/05 13:40:31  5-MIN KSTC 111940Z 12010KT 10SM CLR 16/06 A3012 840 49 1200 120/10 RMK AO2
14926KSTC STC20051011134509310/11/05 13:45:31  5-MIN KSTC 111945Z 11010KT 10SM CLR 16/06 A3012 850 51 1100 100/10 RMK AO2
14926KSTC STC20051011135011010/11/05 13:50:31  5-MIN KSTC 111950Z 11007KT 10SM CLR 16/06 A3011 850 51 1100 110/07 RMK AO2 SLP210 T01560056
14926KSTC STC20051011135509310/11/05 13:55:31  5-MIN KSTC 111955Z 14009KT 10SM CLR 16/06 A3011 850 49 1200 140/09 RMK AO2
14926KSTC STC20051011140009310/11/05 14:00:31  5-MIN KSTC 112000Z 14010KT 10SM CLR 16/06 A3011 850 49 1200 140/10 RMK AO2
14926KSTC STC20051011140509310/11/05 14:05:31  5-MIN KSTC 112005Z 15008KT 10SM CLR 16/05 A3011 850 47 1200 140/08 RMK AO2
14926KSTC STC20051011141009310/11/05 14:10:31  5-MIN KSTC 112010Z VRB06KT 10SM CLR 17/06 A3010 860 47 1300 VRB/06 RMK AO2
14926KSTC STC20051011141509310/11/05 14:15:31  5-MIN KSTC 112015Z 13010KT 10SM CLR 16/06 A3010 860 49 1200 130/10 RMK AO2
14926KSTC STC20051011142009310/11/05 14:20:31  5-MIN KSTC 112020Z 14007KT 10SM CLR 16/06 A3010 860 49 1200 140/07 RMK AO2
14926KSTC STC20051011142509310/11/05 14:25:31  5-MIN KSTC 112025Z 14010KT 10SM CLR 17/06 A3010 860 47 1300 140/10 RMK AO2
14926KSTC STC20051011143009310/11/05 14:30:31  5-MIN KSTC 112030Z 13009KT 10SM CLR 17/06 A3010 860 47 1300 130/09 RMK AO2
14926KSTC STC20051011143509310/11/05 14:35:31  5-MIN KSTC 112035Z 12008KT 10SM CLR 16/06 A3009 870 49 1200 120/08 RMK AO2
14926KSTC STC20051011144010910/11/05 14:40:31  5-MIN KSTC 112040Z 12007KT 080V160 10SM CLR 17/06 A3009 870 47 1300 120/07 080V160 RMK AO2
14926KSTC STC20051011144509310/11/05 14:45:31  5-MIN KSTC 112045Z 15009KT 10SM CLR 17/06 A3009 870 47 1300 140/09 RMK AO2
14926KSTC STC20051011145011610/11/05 14:50:31  5-MIN KSTC 112050Z 14006KT 10SM CLR 17/06 A3009 870 47 1300 140/06 RMK AO2 SLP202 T01670056 56010
14926KSTC STC20051011145511410/11/05 14:55:31  5-MIN KSTC 112055Z AUTO 14009KT 100V180 10SM CLR 17/06 A3009 870 47 1300 140/09 100V180 RMK AO2
14926KSTC STC20051011150009810/11/05 15:00:31  5-MIN KSTC 112100Z AUTO VRB05KT 10SM CLR 17/06 A3009 870 47 1300 VRB/05 RMK AO2
14926KSTC STC20051011150509810/11/05 15:05:31  5-MIN KSTC 112105Z AUTO 14006KT 10SM CLR 17/06 A3009 870 47 1300 140/06 RMK AO2
14926KSTC STC20051011151009810/11/05 15:10:31  5-MIN KSTC 112110Z AUTO 14009KT 10SM CLR 17/06 A3009 870 47 1300 130/09 RMK AO2
14926KSTC STC20051011151509810/11/05 15:15:31  5-MIN KSTC 112115Z AUTO 15007KT 10SM CLR 17/06 A3009 870 47 1300 150/07 RMK AO2
14926KSTC STC20051011152009810/11/05 15:20:31  5-MIN KSTC 112120Z AUTO VRB06KT 10SM CLR 17/06 A3009 870 47 1300 VRB/06 RMK AO2
14926KSTC STC20051011152509810/11/05 15:25:31  5-MIN KSTC 112125Z AUTO 14008KT 10SM CLR 17/06 A3009 870 47 1300 130/08 RMK AO2
14926KSTC STC20051011153009310/11/05 15:30:31  5-MIN KSTC 112130Z 15010KT 10SM CLR 17/05 A3009 870 45 1300 140/10 RMK AO2
14926KSTC STC20051011153509310/11/05 15:35:31  5-MIN KSTC 112135Z 13007KT 10SM CLR 17/05 A3009 870 45 1300 120/07 RMK AO2
14926KSTC STC20051011154009310/11/05 15:40:31  5-MIN KSTC 112140Z 14008KT 10SM CLR 17/05 A3009 870 45 1300 130/08 RMK AO2
14926KSTC STC20051011154509310/11/05 15:45:31  5-MIN KSTC 112145Z 12009KT 10SM CLR 17/05 A3009 870 45 1300 120/09 RMK AO2
14926KSTC STC20051011155011010/11/05 15:50:31  5-MIN KSTC 112150Z 13007KT 10SM CLR 17/06 A3009 870 47 1300 130/07 RMK AO2 SLP202 T01670056
14926KSTC STC20051011155509310/11/05 15:55:31  5-MIN KSTC 112155Z 14009KT 10SM CLR 17/05 A3009 870 45 1300 140/09 RMK AO2
14926KSTC STC20051011160009310/11/05 16:00:31  5-MIN KSTC 112200Z 14010KT 10SM CLR 16/05 A3009 870 47 1200 130/10 RMK AO2
14926KSTC STC20051011160509310/11/05 16:05:31  5-MIN KSTC 112205Z 15008KT 10SM CLR 16/06 A3009 870 49 1200 150/08 RMK AO2
14926KSTC STC20051011161009310/11/05 16:10:31  5-MIN KSTC 112210Z 14007KT 10SM CLR 16/06 A3009 870 49 1200 140/07 RMK AO2
14926KSTC STC20051011161509310/11/05 16:15:31  5-MIN KSTC 112215Z 14007KT 10SM CLR 16/06 A3009 870 49 1200 130/07 RMK AO2
14926KSTC STC20051011162009310/11/05 16:20:31  5-MIN KSTC 112220Z 14006KT 10SM CLR 16/05 A3009 870 47 1200 140/06 RMK AO2
14926KSTC STC20051011162509310/11/05 16:25:31  5-MIN KSTC 112225Z 16009KT 10SM CLR 16/06 A3009 870 49 1200 150/09 RMK AO2
14926KSTC STC20051011163009310/11/05 16:30:31  5-MIN KSTC 112230Z 15009KT 10SM CLR 16/06 A3009 870 51 1200 150/09 RMK AO2
14926KSTC STC20051011163509310/11/05 16:35:31  5-MIN KSTC 112235Z 15007KT 10SM CLR 16/06 A3009 870 51 1200 150/07 RMK AO2
14926KSTC STC20051011164009310/11/05 16:40:31  5-MIN KSTC 112240Z 16009KT 10SM CLR 16/06 A3009 870 51 1200 150/09 RMK AO2
14926KSTC STC20051011164509310/11/05 16:45:31  5-MIN KSTC 112245Z 15007KT 10SM CLR 16/06 A3009 870 51 1200 140/07 RMK AO2
14926KSTC STC20051011165011010/11/05 16:50:31  5-MIN KSTC 112250Z 15007KT 10SM CLR 15/06 A3009 870 53 1100 140/07 RMK AO2 SLP204 T01500056
14926KSTC STC20051011165509310/11/05 16:55:31  5-MIN KSTC 112255Z 15008KT 10SM CLR 15/06 A3009 870 53 1100 140/08 RMK AO2
14926KSTC STC20051011170009310/11/05 17:00:31  5-MIN KSTC 112300Z 15007KT 10SM CLR 14/06 A3009 870 55 1000 150/07 RMK AO2
14926KSTC STC20051011170509310/11/05 17:05:31  5-MIN KSTC 112305Z 15006KT 10SM CLR 14/06 A3009 870 55 1000 150/06 RMK AO2
14926KSTC STC20051011171009310/11/05 17:10:31  5-MIN KSTC 112310Z 15006KT 10SM CLR 14/06 A3010 860 57 1000 140/06 RMK AO2
14926KSTC STC20051011171509310/11/05 17:15:31  5-MIN KSTC 112315Z 14006KT 10SM CLR 14/06 A3010 860 57 1000 140/06 RMK AO2
14926KSTC STC20051011172009210/11/05 17:20:31  5-MIN KSTC 112320Z 16005KT 10SM CLR 13/06 A3010 860 61 800 160/05 RMK AO2
14926KSTC STC20051011172509210/11/05 17:25:31  5-MIN KSTC 112325Z 15005KT 10SM CLR 12/06 A3010 860 63 800 150/05 RMK AO2
14926KSTC STC20051011173009210/11/05 17:30:31  5-MIN KSTC 112330Z 15004KT 10SM CLR 12/06 A3010 860 63 800 140/04 RMK AO2
14926KSTC STC20051011173509210/11/05 17:35:31  5-MIN KSTC 112335Z 14004KT 10SM CLR 13/06 A3010 860 61 800 130/04 RMK AO2
14926KSTC STC20051011174009210/11/05 17:40:31  5-MIN KSTC 112340Z 14004KT 10SM CLR 12/06 A3010 860 63 800 130/04 RMK AO2
14926KSTC STC20051011174509210/11/05 17:45:31  5-MIN KSTC 112345Z 13004KT 10SM CLR 12/06 A3009 870 66 800 130/04 RMK AO2
14926KSTC STC20051011175012710/11/05 17:50:31  5-MIN KSTC 112350Z 13004KT 10SM CLR 12/06 A3009 870 66 800 130/04 RMK AO2 SLP204 T01220061 10167 20122 58021
14926KSTC STC20051011175509210/11/05 17:55:31  5-MIN KSTC 112355Z 13004KT 10SM CLR 12/06 A3009 870 66 800 120/04 RMK AO2
14926KSTC STC20051011180009210/11/05 18:00:31  5-MIN KSTC 120000Z 13003KT 10SM CLR 12/06 A3009 870 66 800 130/03 RMK AO2
14926KSTC STC20051011180509210/11/05 18:05:31  5-MIN KSTC 120005Z 00000KT 10SM CLR 12/06 A3009 870 68 700 000/00 RMK AO2
14926KSTC STC20051011181009210/11/05 18:10:31  5-MIN KSTC 120010Z 13003KT 10SM CLR 12/06 A3009 870 68 700 120/03 RMK AO2
14926KSTC STC20051011181509210/11/05 18:15:31  5-MIN KSTC 120015Z 12003KT 10SM CLR 12/06 A3009 870 68 700 120/03 RMK AO2
14926KSTC STC20051011182009210/11/05 18:20:31  5-MIN KSTC 120020Z 12003KT 10SM CLR 11/06 A3009 870 71 600 120/03 RMK AO2
14926KSTC STC20051011182509210/11/05 18:25:31  5-MIN KSTC 120025Z 12003KT 10SM CLR 11/06 A3009 870 71 600 120/03 RMK AO2
14926KSTC STC20051011183009210/11/05 18:30:31  5-MIN KSTC 120030Z 12003KT 10SM CLR 11/06 A3009 870 71 600 110/03 RMK AO2
14926KSTC STC20051011183509210/11/05 18:35:31  5-MIN KSTC 120035Z 10003KT 10SM CLR 10/06 A3009 870 74 500 090/03 RMK AO2
14926KSTC STC20051011184009210/11/05 18:40:31  5-MIN KSTC 120040Z 11003KT 10SM CLR 09/06 A3009 870 76 500 100/03 RMK AO2
14926KSTC STC20051011184509210/11/05 18:45:31  5-MIN KSTC 120045Z 10003KT 10SM CLR 10/06 A3009 870 77 500 100/03 RMK AO2
14926KSTC STC20051011185010910/11/05 18:50:31  5-MIN KSTC 120050Z 10004KT 10SM CLR 09/06 A3009 870 79 500 100/04 RMK AO2 SLP204 T00940061
14926KSTC STC20051011185509210/11/05 18:55:31  5-MIN KSTC 120055Z 09003KT 10SM CLR 09/06 A3009 870 79 400 090/03 RMK AO2
14926KSTC STC20051011190009210/11/05 19:00:31  5-MIN KSTC 120100Z 09003KT 10SM CLR 08/06 A3008 870 86 300 080/03 RMK AO2
14926KSTC STC20051011190509210/11/05 19:05:31  5-MIN KSTC 120105Z 09003KT 10SM CLR 08/06 A3009 870 82 300 080/03 RMK AO2
14926KSTC STC20051011191009210/11/05 19:10:31  5-MIN KSTC 120110Z 09003KT 10SM CLR 08/06 A3009 870 86 300 090/03 RMK AO2
14926KSTC STC20051011191509210/11/05 19:15:31  5-MIN KSTC 120115Z 10003KT 10SM CLR 07/05 A3009 870 86 200 100/03 RMK AO2
14926KSTC STC20051011192009210/11/05 19:20:31  5-MIN KSTC 120120Z 11004KT 10SM CLR 07/05 A3009 870 86 200 100/04 RMK AO2
14926KSTC STC20051011192509210/11/05 19:25:31  5-MIN KSTC 120125Z 11003KT 10SM CLR 08/05 A3009 870 82 300 100/03 RMK AO2
14926KSTC STC20051011193009210/11/05 19:30:31  5-MIN KSTC 120130Z 10003KT 10SM CLR 08/05 A3009 870 82 300 100/03 RMK AO2
14926KSTC STC20051011193509210/11/05 19:35:31  5-MIN KSTC 120135Z 10003KT 10SM CLR 07/05 A3009 870 86 200 090/03 RMK AO2
14926KSTC STC20051011194009210/11/05 19:40:31  5-MIN KSTC 120140Z 00000KT 10SM CLR 07/05 A3009 870 86 200 000/00 RMK AO2
14926KSTC STC20051011194509210/11/05 19:45:31  5-MIN KSTC 120145Z 00000KT 10SM CLR 07/06 A3009 870 89 200 000/00 RMK AO2
14926KSTC STC20051011195010910/11/05 19:50:31  5-MIN KSTC 120150Z 00000KT 10SM CLR 07/06 A3009 870 89 200 000/00 RMK AO2 SLP207 T00720056
14926KSTC STC20051011195509210/11/05 19:55:31  5-MIN KSTC 120155Z 10003KT 10SM CLR 07/06 A3009 870 89 200 100/03 RMK AO2
14926KSTC STC20051011200009210/11/05 20:00:31  5-MIN KSTC 120200Z 00000KT 10SM CLR 08/06 A3010 860 86 200 000/00 RMK AO2
14926KSTC STC20051011200509210/11/05 20:05:31  5-MIN KSTC 120205Z 00000KT 10SM CLR 07/06 A3010 860 89 200 000/00 RMK AO2
14926KSTC STC20051011201009210/11/05 20:10:31  5-MIN KSTC 120210Z 00000KT 10SM CLR 07/06 A3010 860 89 200 000/00 RMK AO2
14926KSTC STC20051011201509210/11/05 20:15:31  5-MIN KSTC 120215Z 00000KT 10SM CLR 07/05 A3010 860 86 200 000/00 RMK AO2
14926KSTC STC20051011202009210/11/05 20:20:31  5-MIN KSTC 120220Z 00000KT 10SM CLR 07/05 A3010 860 89 100 000/00 RMK AO2
14926KSTC STC20051011202509010/11/05 20:25:31  5-MIN KSTC 120225Z 00000KT 10SM CLR 06/05 A3010 860 93 0 000/00 RMK AO2
14926KSTC STC20051011203009210/11/05 20:30:31  5-MIN KSTC 120230Z 00000KT 10SM CLR 07/05 A3010 860 89 100 000/00 RMK AO2
14926KSTC STC20051011203509210/11/05 20:35:31  5-MIN KSTC 120235Z 00000KT 10SM CLR 07/06 A3010 860 93 100 000/00 RMK AO2
14926KSTC STC20051011204009310/11/05 20:40:31  5-MIN KSTC 120240Z 00000KT 10SM SCT050 06/05 A3010 860 93 0 000/00 RMK AO2
14926KSTC STC20051011204509510/11/05 20:45:31  5-MIN KSTC 120245Z 00000KT 10SM SCT050 07/05 A3010 860 89 100 000/00 RMK AO2
14926KSTC STC20051011205011610/11/05 20:50:31  5-MIN KSTC 120250Z 00000KT 10SM BKN050 06/05 A3010 860 93 0 000/00 RMK AO2 SLP208 T00610050 50001
14926KSTC STC20051011205509310/11/05 20:55:31  5-MIN KSTC 120255Z 00000KT 10SM BKN050 06/05 A3010 860 93 0 000/00 RMK AO2
14926KSTC STC20051011210009510/11/05 21:00:31  5-MIN KSTC 120300Z 00000KT 10SM BKN055 07/05 A3010 860 89 100 000/00 RMK AO2
14926KSTC STC20051011210509510/11/05 21:05:31  5-MIN KSTC 120305Z 07003KT 10SM BKN055 07/05 A3010 860 89 100 070/03 RMK AO2
14926KSTC STC20051011211009310/11/05 21:10:31  5-MIN KSTC 120310Z 08003KT 10SM BKN055 06/05 A3010 860 93 0 080/03 RMK AO2
14926KSTC STC20051011211509510/11/05 21:15:31  5-MIN KSTC 120315Z 11003KT 10SM SCT055 07/05 A3010 860 89 100 100/03 RMK AO2
14926KSTC STC20051011212009510/11/05 21:20:31  5-MIN KSTC 120320Z 11004KT 10SM SCT055 07/05 A3010 860 89 100 100/04 RMK AO2
14926KSTC STC20051011212509510/11/05 21:25:31  5-MIN KSTC 120325Z 10004KT 10SM SCT055 07/05 A3010 860 86 200 100/04 RMK AO2
14926KSTC STC20051011213009510/11/05 21:30:31  5-MIN KSTC 120330Z 11004KT 10SM BKN055 08/06 A3010 860 82 300 100/04 RMK AO2
14926KSTC STC20051011213509510/11/05 21:35:31  5-MIN KSTC 120335Z 11004KT 10SM BKN055 09/06 A3010 860 83 400 110/04 RMK AO2
14926KSTC STC20051011214009510/11/05 21:40:31  5-MIN KSTC 120340Z 10003KT 10SM BKN055 09/06 A3010 860 79 400 090/03 RMK AO2
14926KSTC STC20051011214509510/11/05 21:45:31  5-MIN KSTC 120345Z 11004KT 10SM BKN055 09/06 A3010 860 79 400 100/04 RMK AO2
14926KSTC STC20051011215011710/11/05 21:50:31  5-MIN KSTC 120350Z AUTO 11004KT 10SM OVC055 09/06 A3010 860 79 400 110/04 RMK AO2 SLP204 T00940061
14926KSTC STC20051011215510010/11/05 21:55:31  5-MIN KSTC 120355Z AUTO 14003KT 10SM OVC055 10/07 A3010 860 80 500 140/03 RMK AO2
14926KSTC STC20051011220010010/11/05 22:00:31  5-MIN KSTC 120400Z AUTO 16003KT 10SM OVC060 09/07 A3010 860 83 400 160/03 RMK AO2
14926KSTC STC20051011220510010/11/05 22:05:31  5-MIN KSTC 120405Z AUTO 15003KT 10SM OVC060 09/07 A3010 860 83 400 150/03 RMK AO2
14926KSTC STC20051011221010010/11/05 22:10:31  5-MIN KSTC 120410Z AUTO 14003KT 10SM OVC060 09/07 A3010 860 83 400 130/03 RMK AO2
14926KSTC STC20051011221510010/11/05 22:15:31  5-MIN KSTC 120415Z AUTO 12003KT 10SM OVC060 09/06 A3010 860 83 400 120/03 RMK AO2
14926KSTC STC20051011222010010/11/05 22:20:31  5-MIN KSTC 120420Z AUTO 12003KT 10SM BKN060 08/06 A3009 870 86 300 110/03 RMK AO2
14926KSTC STC20051011222510010/11/05 22:25:31  5-MIN KSTC 120425Z AUTO 12003KT 10SM BKN060 09/06 A3009 870 83 400 110/03 RMK AO2
14926KSTC STC20051011223010010/11/05 22:30:31  5-MIN KSTC 120430Z AUTO 12004KT 10SM BKN060 09/07 A3009 870 83 400 110/04 RMK AO2
14926KSTC STC20051011223510010/11/05 22:35:31  5-MIN KSTC 120435Z AUTO 13003KT 10SM SCT060 09/07 A3009 870 83 400 130/03 RMK AO2
14926KSTC STC20051011224010010/11/05 22:40:31  5-MIN KSTC 120440Z AUTO 00000KT 10SM FEW060 09/07 A3009 870 83 400 000/00 RMK AO2
14926KSTC STC20051011224510010/11/05 22:45:31  5-MIN KSTC 120445Z AUTO 00000KT 10SM FEW060 09/07 A3009 870 86 400 000/00 RMK AO2
14926KSTC STC20051011225011610/11/05 22:50:31  5-MIN KSTC 120450Z AUTO 00000KT 9SM FEW060 09/07 A3009 870 86 400 000/00 RMK AO2 SLP201 T00890067
14926KSTC STC20051011225509610/11/05 22:55:31  5-MIN KSTC 120455Z AUTO 13003KT 9SM CLR 09/07 A3009 870 83 500 130/03 RMK AO2
14926KSTC STC20051011230009610/11/05 23:00:31  5-MIN KSTC 120500Z AUTO 00000KT 9SM CLR 09/07 A3009 870 86 400 000/00 RMK AO2
14926KSTC STC20051011230509610/11/05 23:05:31  5-MIN KSTC 120505Z AUTO 00000KT 9SM CLR 08/07 A3009 870 89 300 000/00 RMK AO2
14926KSTC STC20051011231009910/11/05 23:10:31  5-MIN KSTC 120510Z AUTO 00000KT 8SM FEW060 09/07 A3009 870 86 400 000/00 RMK AO2
14926KSTC STC20051011231509910/11/05 23:15:31  5-MIN KSTC 120515Z AUTO 00000KT 8SM BKN060 09/07 A3009 870 86 400 000/00 RMK AO2
14926KSTC STC20051011232009910/11/05 23:20:31  5-MIN KSTC 120520Z AUTO 00000KT 7SM BKN060 08/07 A3009 870 89 300 000/00 RMK AO2
14926KSTC STC20051011232509910/11/05 23:25:31  5-MIN KSTC 120525Z AUTO 00000KT 7SM BKN060 08/07 A3009 870 89 300 000/00 RMK AO2
14926KSTC STC20051011233009910/11/05 23:30:31  5-MIN KSTC 120530Z AUTO 13003KT 8SM OVC060 09/07 A3009 870 89 400 120/03 RMK AO2
14926KSTC STC20051011233509910/11/05 23:35:31  5-MIN KSTC 120535Z AUTO 12004KT 8SM OVC060 09/07 A3008 870 86 500 110/04 RMK AO2
14926KSTC STC20051011234009910/11/05 23:40:31  5-MIN KSTC 120540Z AUTO 13003KT 8SM OVC060 09/07 A3008 880 86 500 120/03 RMK AO2
14926KSTC STC20051011234509910/11/05 23:45:31  5-MIN KSTC 120545Z AUTO 13004KT 8SM OVC060 09/07 A3008 880 86 500 120/04 RMK AO2
14926KSTC STC20051011235014410/11/05 23:50:31  5-MIN KSTC 120550Z AUTO 13003KT 8SM OVC060 09/07 A3008 880 86 500 130/03 RMK AO2 SLP198 T00940072 10122 20061 401670017 53002
14926KSTC STC20051011235509910/11/05 23:55:31  5-MIN KSTC 120555Z AUTO 12004KT 8SM OVC060 09/08 A3008 880 89 500 120/04 RMK AO2
14926KSTC STC20051012000009910/12/05 00:00:32  5-MIN KSTC 120600Z AUTO 13003KT 8SM BKN060 09/08 A3008 880 89 500 130/03 RMK AO2
14926KSTC STC20051012000509910/12/05 00:05:31  5-MIN KSTC 120605Z AUTO 14003KT 8SM BKN060 09/08 A3008 880 89 500 130/03 RMK AO2
14926KSTC STC20051012001009910/12/05 00:10:31  5-MIN KSTC 120610Z AUTO 00000KT 7SM BKN060 08/07 A3008 880 89 300 000/00 RMK AO2
14926KSTC STC20051012001509910/12/05 00:15:31  5-MIN KSTC 120615Z AUTO 11003KT 7SM BKN060 08/07 A3008 880 93 300 110/03 RMK AO2
14926KSTC STC20051012002010610/12/05 00:20:31  5-MIN KSTC 120620Z AUTO 12003KT 7SM BKN060 BKN080 09/07 A3007 880 89 400 120/03 RMK AO2
14926KSTC STC20051012002510610/12/05 00:25:31  5-MIN KSTC 120625Z AUTO 11003KT 7SM BKN060 BKN080 09/07 A3007 880 89 400 110/03 RMK AO2
14926KSTC STC20051012003009910/12/05 00:30:31  5-MIN KSTC 120630Z AUTO 11004KT 7SM BKN060 09/07 A3008 880 89 400 110/04 RMK AO2
14926KSTC STC20051012003509910/12/05 00:35:31  5-MIN KSTC 120635Z AUTO 13003KT 7SM BKN060 09/07 A3008 880 89 400 120/03 RMK AO2
14926KSTC STC20051012004009910/12/05 00:40:31  5-MIN KSTC 120640Z AUTO 12004KT 7SM BKN060 09/08 A3008 880 89 500 120/04 RMK AO2
14926KSTC STC20051012004509910/12/05 00:45:31  5-MIN KSTC 120645Z AUTO 10004KT 7SM OVC060 10/08 A3008 880 89 500 100/04 RMK AO2
14926KSTC STC20051012005011610/12/05 00:50:31  5-MIN KSTC 120650Z AUTO 10004KT 7SM OVC060 10/08 A3008 880 89 500 100/04 RMK AO2 SLP197 T01000083
14926KSTC STC20051012005509910/12/05 00:55:31  5-MIN KSTC 120655Z AUTO 11004KT 7SM OVC055 10/08 A3008 880 89 500 110/04 RMK AO2
14926KSTC STC20051012010009910/12/05 01:00:31  5-MIN KSTC 120700Z AUTO 11004KT 7SM OVC055 10/08 A3008 880 89 500 110/04 RMK AO2
14926KSTC STC20051012010509910/12/05 01:05:31  5-MIN KSTC 120705Z AUTO 11004KT 7SM OVC050 10/08 A3008 880 89 500 110/04 RMK AO2
14926KSTC STC20051012011009910/12/05 01:10:31  5-MIN KSTC 120710Z AUTO 11004KT 7SM OVC050 11/08 A3008 880 86 600 110/04 RMK AO2
14926KSTC STC20051012011509910/12/05 01:15:31  5-MIN KSTC 120715Z AUTO 11005KT 7SM OVC050 11/08 A3008 880 86 600 110/05 RMK AO2
14926KSTC STC20051012012009910/12/05 01:20:31  5-MIN KSTC 120720Z AUTO 11005KT 7SM OVC050 11/08 A3008 880 86 600 110/05 RMK AO2
14926KSTC STC20051012012509910/12/05 01:25:31  5-MIN KSTC 120725Z AUTO 11005KT 7SM OVC050 11/08 A3008 880 86 600 110/05 RMK AO2
14926KSTC STC20051012013009910/12/05 01:30:31  5-MIN KSTC 120730Z AUTO 11006KT 7SM OVC050 11/09 A3008 880 89 600 110/06 RMK AO2
14926KSTC STC20051012013509910/12/05 01:35:31  5-MIN KSTC 120735Z AUTO 12006KT 7SM OVC050 11/09 A3008 880 89 600 110/06 RMK AO2
14926KSTC STC20051012014009910/12/05 01:40:31  5-MIN KSTC 120740Z AUTO 12007KT 7SM OVC050 11/09 A3008 880 89 600 120/07 RMK AO2
14926KSTC STC20051012014509910/12/05 01:45:31  5-MIN KSTC 120745Z AUTO 12006KT 7SM OVC050 11/09 A3008 880 89 600 120/06 RMK AO2
14926KSTC STC20051012015011610/12/05 01:50:31  5-MIN KSTC 120750Z AUTO 12007KT 7SM OVC050 11/09 A3008 880 89 600 120/07 RMK AO2 SLP195 T01060089
14926KSTC STC20051012015509910/12/05 01:55:31  5-MIN KSTC 120755Z AUTO 13007KT 7SM OVC050 11/09 A3008 880 89 600 130/07 RMK AO2
14926KSTC STC20051012020010610/12/05 02:00:31  5-MIN KSTC 120800Z AUTO 13007KT 7SM BKN050 OVC060 11/09 A3008 880 86 700 130/07 RMK AO2
14926KSTC STC20051012020510610/12/05 02:05:31  5-MIN KSTC 120805Z AUTO 13006KT 7SM BKN050 OVC060 11/09 A3007 890 86 700 130/06 RMK AO2
14926KSTC STC20051012021010610/12/05 02:10:31  5-MIN KSTC 120810Z AUTO 13007KT 7SM SCT050 OVC060 11/09 A3007 880 89 700 130/07 RMK AO2
14926KSTC STC20051012021509910/12/05 02:15:31  5-MIN KSTC 120815Z AUTO 13007KT 7SM OVC055 11/09 A3007 890 89 700 130/07 RMK AO2
14926KSTC STC20051012022010210/12/05 02:20:31  5-MIN KSTC 120820Z AUTO 12004KT 6SM BR OVC055 11/09 A3007 890 89 700 120/04 RMK AO2
14926KSTC STC20051012022510210/12/05 02:25:31  5-MIN KSTC 120825Z AUTO 12005KT 6SM BR OVC060 11/09 A3007 890 89 700 110/05 RMK AO2
14926KSTC STC20051012023010210/12/05 02:30:31  5-MIN KSTC 120830Z AUTO 12005KT 6SM BR OVC055 11/09 A3007 890 89 700 110/05 RMK AO2
14926KSTC STC20051012023510910/12/05 02:35:31  5-MIN KSTC 120835Z AUTO 12004KT 6SM BR SCT049 OVC060 11/09 A3006 890 89 700 120/04 RMK AO2
14926KSTC STC20051012024010910/12/05 02:40:31  5-MIN KSTC 120840Z AUTO 13005KT 6SM BR SCT049 OVC060 11/09 A3006 890 89 700 120/05 RMK AO2
14926KSTC STC20051012024510910/12/05 02:45:31  5-MIN KSTC 120845Z AUTO 12003KT 6SM BR FEW049 OVC060 11/09 A3006 900 89 700 120/03 RMK AO2
14926KSTC STC20051012025013210/12/05 02:50:31  5-MIN KSTC 120850Z AUTO 14003KT 6SM BR FEW049 OVC060 11/09 A3006 900 89 700 140/03 RMK AO2 SLP190 T01110094 58005
14926KSTC STC20051012025510910/12/05 02:55:31  5-MIN KSTC 120855Z AUTO 13003KT 6SM BR FEW047 OVC060 11/09 A3006 900 89 700 130/03 RMK AO2
14926KSTC STC20051012030010910/12/05 03:00:31  5-MIN KSTC 120900Z AUTO 13003KT 6SM BR SCT045 OVC060 11/09 A3006 900 89 700 130/03 RMK AO2
14926KSTC STC20051012030510910/12/05 03:05:31  5-MIN KSTC 120905Z AUTO 12003KT 6SM BR BKN043 OVC060 11/09 A3006 900 89 700 120/03 RMK AO2
14926KSTC STC20051012031010910/12/05 03:10:31  5-MIN KSTC 120910Z AUTO 12003KT 6SM BR BKN041 OVC060 11/09 A3006 900 89 700 120/03 RMK AO2
14926KSTC STC20051012031510910/12/05 03:15:31  5-MIN KSTC 120915Z AUTO 13004KT 6SM BR BKN041 OVC060 11/09 A3006 900 89 700 120/04 RMK AO2
14926KSTC STC20051012032010910/12/05 03:20:31  5-MIN KSTC 120920Z AUTO 12004KT 6SM BR BKN041 OVC060 11/09 A3006 900 89 700 120/04 RMK AO2
14926KSTC STC20051012032510910/12/05 03:25:31  5-MIN KSTC 120925Z AUTO 12004KT 5SM BR BKN041 OVC049 11/09 A3006 900 89 700 120/04 RMK AO2
14926KSTC STC20051012033010910/12/05 03:30:31  5-MIN KSTC 120930Z AUTO 11004KT 5SM BR BKN041 OVC049 11/09 A3005 900 89 700 110/04 RMK AO2
14926KSTC STC20051012033510210/12/05 03:35:31  5-MIN KSTC 120935Z AUTO 11004KT 5SM BR OVC045 11/09 A3005 900 89 700 110/04 RMK AO2
14926KSTC STC20051012034010210/12/05 03:40:31  5-MIN KSTC 120940Z AUTO 12006KT 5SM BR OVC045 11/09 A3005 900 89 700 110/06 RMK AO2
14926KSTC STC20051012034510210/12/05 03:45:31  5-MIN KSTC 120945Z AUTO 12004KT 5SM BR OVC047 11/09 A3006 900 89 700 110/04 RMK AO2
14926KSTC STC20051012035011910/12/05 03:50:31  5-MIN KSTC 120950Z AUTO 12004KT 5SM BR OVC047 11/09 A3006 900 89 700 110/04 RMK AO2 SLP189 T01110094
14926KSTC STC20051012035510210/12/05 03:55:31  5-MIN KSTC 120955Z AUTO 10003KT 5SM BR OVC049 11/09 A3006 900 89 700 100/03 RMK AO2
14926KSTC STC20051012040010910/12/05 04:00:31  5-MIN KSTC 121000Z AUTO 10003KT 5SM BR SCT043 OVC049 11/09 A3006 900 89 700 100/03 RMK AO2
14926KSTC STC20051012040511810/12/05 04:05:31  5-MIN KSTC 121005Z AUTO 10003KT 4SM -RA BR OVC046 11/09 A3006 900 93 600 100/03 RMK AO2 RAB01 P0000
14926KSTC STC20051012041012410/12/05 04:10:31  5-MIN KSTC 121010Z AUTO 11004KT 5SM BR BKN043 OVC050 11/09 A3006 900 93 600 110/04 RMK AO2 RAB01E10 P0000
14926KSTC STC20051012041512410/12/05 04:15:31  5-MIN KSTC 121015Z AUTO 13004KT 5SM BR BKN043 OVC050 11/09 A3006 900 93 600 130/04 RMK AO2 RAB01E10 P0000
14926KSTC STC20051012042012410/12/05 04:20:31  5-MIN KSTC 121020Z AUTO 12004KT 5SM BR BKN040 OVC049 11/09 A3006 900 93 600 120/04 RMK AO2 RAB01E10 P0000
14926KSTC STC20051012042511710/12/05 04:25:31  5-MIN KSTC 121025Z AUTO 12005KT 5SM BR OVC040 11/09 A3006 900 93 600 120/05 RMK AO2 RAB01E10 P0000
14926KSTC STC20051012043011710/12/05 04:30:31  5-MIN KSTC 121030Z AUTO 12003KT 5SM BR OVC040 11/09 A3006 900 89 700 110/03 RMK AO2 RAB01E10 P0000
14926KSTC STC20051012043511710/12/05 04:35:31  5-MIN KSTC 121035Z AUTO 11004KT 4SM BR OVC040 11/09 A3006 900 89 700 110/04 RMK AO2 RAB01E10 P0000
14926KSTC STC20051012044011710/12/05 04:40:31  5-MIN KSTC 121040Z AUTO 12004KT 4SM BR OVC040 11/09 A3006 900 89 700 110/04 RMK AO2 RAB01E10 P0000
14926KSTC STC20051012044511710/12/05 04:45:31  5-MIN KSTC 121045Z AUTO 10005KT 4SM BR OVC038 11/09 A3005 900 89 700 100/05 RMK AO2 RAB01E10 P0000
14926KSTC STC20051012045013410/12/05 04:50:31  5-MIN KSTC 121050Z AUTO 10005KT 4SM BR OVC038 11/09 A3006 900 89 700 100/05 RMK AO2 RAB01E10 SLP188 P0000 T01110094
14926KSTC STC20051012045510210/12/05 04:55:31  5-MIN KSTC 121055Z AUTO 12004KT 4SM BR OVC040 11/09 A3006 900 89 700 120/04 RMK AO2
14926KSTC STC20051012050010210/12/05 05:00:31  5-MIN KSTC 121100Z AUTO 12004KT 5SM BR OVC040 11/09 A3006 900 89 700 110/04 RMK AO2
14926KSTC STC20051012050510910/12/05 05:05:31  5-MIN KSTC 121105Z AUTO 12004KT 5SM BR BKN040 OVC060 11/09 A3006 900 89 700 120/04 RMK AO2
14926KSTC STC20051012051010910/12/05 05:10:31  5-MIN KSTC 121110Z AUTO 12005KT 5SM BR BKN040 OVC060 11/09 A3006 900 89 700 120/05 RMK AO2
14926KSTC STC20051012051510910/12/05 05:15:31  5-MIN KSTC 121115Z AUTO 11004KT 5SM BR BKN042 OVC065 11/09 A3006 900 89 700 110/04 RMK AO2
14926KSTC STC20051012052010910/12/05 05:20:31  5-MIN KSTC 121120Z AUTO 12005KT 5SM BR BKN042 OVC065 11/09 A3006 900 89 700 110/05 RMK AO2
14926KSTC STC20051012052510910/12/05 05:25:31  5-MIN KSTC 121125Z AUTO 11004KT 5SM BR FEW042 OVC065 11/09 A3006 890 89 700 110/04 RMK AO2
14926KSTC STC20051012053010910/12/05 05:30:31  5-MIN KSTC 121130Z AUTO 11005KT 5SM BR FEW042 OVC060 11/09 A3006 890 89 700 110/05 RMK AO2
14926KSTC STC20051012053510910/12/05 05:35:31  5-MIN KSTC 121135Z AUTO 12005KT 5SM BR FEW042 OVC065 11/09 A3007 890 89 700 110/05 RMK AO2
14926KSTC STC20051012054010910/12/05 05:40:31  5-MIN KSTC 121140Z AUTO 11005KT 5SM BR FEW044 OVC065 11/09 A3007 890 89 700 110/05 RMK AO2
14926KSTC STC20051012054509710/12/05 05:45:31  5-MIN KSTC 121145Z 12005KT 5SM BR OVC065 11/09 A3007 890 89 700 110/05 RMK AO2
14926KSTC STC20051012055013810/12/05 05:50:31  5-MIN KSTC 121150Z 12005KT 5SM BR OVC065 11/09 A3006 890 89 700 120/05 RMK AO2 SLP192 60000 T01110094 10111 20083 58007
14926KSTC STC20051012055509710/12/05 05:55:31  5-MIN KSTC 121155Z 11003KT 5SM BR OVC065 11/09 A3006 890 89 700 110/03 RMK AO2
14926KSTC STC20051012060009710/12/05 06:00:31  5-MIN KSTC 121200Z 12003KT 5SM BR OVC065 11/09 A3006 900 89 700 110/03 RMK AO2
14926KSTC STC20051012060509710/12/05 06:05:31  5-MIN KSTC 121205Z 12004KT 5SM BR OVC070 11/09 A3006 900 89 700 110/04 RMK AO2
14926KSTC STC20051012061009710/12/05 06:10:31  5-MIN KSTC 121210Z 11003KT 5SM BR OVC070 11/09 A3006 900 89 700 110/03 RMK AO2
14926KSTC STC20051012061510410/12/05 06:15:31  5-MIN KSTC 121215Z 12004KT 5SM BR FEW009 OVC070 11/09 A3006 900 89 700 120/04 RMK AO2
14926KSTC STC20051012062010410/12/05 06:20:31  5-MIN KSTC 121220Z 11003KT 5SM BR SCT009 OVC070 11/09 A3006 900 89 700 110/03 RMK AO2
14926KSTC STC20051012062510410/12/05 06:25:31  5-MIN KSTC 121225Z 00000KT 5SM BR BKN009 OVC070 11/09 A3006 890 89 700 000/00 RMK AO2
14926KSTC STC20051012063010410/12/05 06:30:31  5-MIN KSTC 121230Z 11004KT 5SM BR BKN009 OVC070 11/09 A3006 900 89 700 110/04 RMK AO2
14926KSTC STC20051012063510410/12/05 06:35:31  5-MIN KSTC 121235Z 00000KT 5SM BR BKN009 OVC070 11/09 A3006 900 89 700 000/00 RMK AO2
14926KSTC STC20051012064009710/12/05 06:40:31  5-MIN KSTC 121240Z 09003KT 4SM BR OVC009 11/09 A3006 900 93 600 090/03 RMK AO2
14926KSTC STC20051012064510410/12/05 06:45:31  5-MIN KSTC 121245Z 00000KT 3SM BR BKN009 OVC025 11/09 A3006 900 93 600 000/00 RMK AO2
14926KSTC STC20051012065012110/12/05 06:50:31  5-MIN KSTC 121250Z 08003KT 3SM BR BKN009 OVC025 11/09 A3006 900 93 600 080/03 RMK AO2 SLP193 T01060094
14926KSTC STC20051012065510410/12/05 06:55:31  5-MIN KSTC 121255Z 00000KT 3SM BR BKN009 OVC025 11/09 A3006 900 93 600 000/00 RMK AO2
14926KSTC STC20051012070010810/12/05 07:00:31  5-MIN KSTC 121300Z 08003KT 2 1/2SM BR BKN009 BKN025 11/09 A3006 900 93 600 080/03 RMK AO2
14926KSTC STC20051012070510810/12/05 07:05:31  5-MIN KSTC 121305Z 09003KT 2 1/2SM BR SCT007 BKN025 10/09 A3006 900 93 600 080/03 RMK AO2
14926KSTC STC20051012071010810/12/05 07:10:31  5-MIN KSTC 121310Z 09003KT 2 1/2SM BR FEW007 BKN025 10/09 A3006 900 93 600 090/03 RMK AO2
14926KSTC STC20051012071510810/12/05 07:15:31  5-MIN KSTC 121315Z 10003KT 2 1/2SM BR FEW007 BKN027 11/09 A3006 900 93 600 090/03 RMK AO2
14926KSTC STC20051012072010810/12/05 07:20:31  5-MIN KSTC 121320Z 10004KT 2 1/2SM BR FEW007 BKN027 11/09 A3006 900 93 600 100/04 RMK AO2
14926KSTC STC20051012072509710/12/05 07:25:31  5-MIN KSTC 121325Z 10004KT 3SM BR BKN027 11/09 A3006 900 93 600 090/04 RMK AO2
14926KSTC STC20051012073009710/12/05 07:30:31  5-MIN KSTC 121330Z 09005KT 3SM BR BKN029 11/09 A3006 900 93 600 090/05 RMK AO2
14926KSTC STC20051012073509710/12/05 07:35:31  5-MIN KSTC 121335Z 09005KT 3SM BR OVC029 11/09 A3006 900 93 600 090/05 RMK AO2
14926KSTC STC20051012074009710/12/05 07:40:31  5-MIN KSTC 121340Z 09005KT 3SM BR OVC029 11/09 A3006 900 93 600 090/05 RMK AO2
14926KSTC STC20051012074509710/12/05 07:45:31  5-MIN KSTC 121345Z 10005KT 3SM BR OVC029 11/09 A3006 900 93 600 090/05 RMK AO2
14926KSTC STC20051012075011410/12/05 07:50:31  5-MIN KSTC 121350Z 10005KT 3SM BR OVC031 11/09 A3006 890 93 600 090/05 RMK AO2 SLP195 T01060094
14926KSTC STC20051012075509710/12/05 07:55:31  5-MIN KSTC 121355Z 10006KT 3SM BR OVC031 11/09 A3007 890 93 600 100/06 RMK AO2
14926KSTC STC20051012080009710/12/05 08:00:31  5-MIN KSTC 121400Z 11006KT 3SM BR OVC031 11/09 A3007 890 93 600 100/06 RMK AO2
14926KSTC STC20051012080510410/12/05 08:05:31  5-MIN KSTC 121405Z 11006KT 4SM BR FEW018 OVC031 11/09 A3007 890 93 600 100/06 RMK AO2
14926KSTC STC20051012081010410/12/05 08:10:31  5-MIN KSTC 121410Z 11005KT 4SM BR SCT018 OVC031 11/09 A3007 890 93 600 110/05 RMK AO2
14926KSTC STC20051012081511110/12/05 08:15:31  5-MIN KSTC 121415Z 11006KT 4SM BR FEW011 SCT018 OVC031 11/09 A3007 890 93 600 100/06 RMK AO2
14926KSTC STC20051012082011110/12/05 08:20:31  5-MIN KSTC 121420Z 11005KT 4SM BR SCT011 BKN018 OVC031 11/09 A3007 890 89 700 110/05 RMK AO2
14926KSTC STC20051012082511110/12/05 08:25:31  5-MIN KSTC 121425Z 11006KT 4SM BR SCT011 BKN018 OVC038 11/09 A3007 890 89 700 110/06 RMK AO2
14926KSTC STC20051012083011110/12/05 08:30:31  5-MIN KSTC 121430Z 12006KT 4SM BR SCT009 BKN018 OVC038 11/10 A3007 890 93 700 120/06 RMK AO2
14926KSTC STC20051012083512310/12/05 08:35:31  5-MIN KSTC 121435Z 12006KT 4SM BR BKN009 BKN018 OVC038 11/10 A3007 890 93 700 120/06 RMK AO2 CIG 005V011
14926KSTC STC20051012084011610/12/05 08:40:31  5-MIN KSTC 121440Z 12006KT 4SM BR BKN009 OVC035 12/10 A3007 890 89 700 120/06 RMK AO2 CIG 005V011
14926KSTC STC20051012084511110/12/05 08:45:31  5-MIN KSTC 121445Z 13006KT 4SM BR FEW005 SCT009 OVC033 12/10 A3007 890 89 700 120/06 RMK AO2
14926KSTC STC20051012085013410/12/05 08:50:31  5-MIN KSTC 121450Z 13006KT 4SM BR FEW005 SCT009 OVC033 12/10 A3007 890 89 700 130/06 RMK AO2 SLP197 T01170100 53001
14926KSTC STC20051012085511110/12/05 08:55:31  5-MIN KSTC 121455Z 13006KT 4SM BR FEW005 SCT011 OVC033 12/10 A3007 890 89 700 130/06 RMK AO2
14926KSTC STC20051012090011110/12/05 09:00:31  5-MIN KSTC 121500Z 14005KT 4SM BR FEW005 BKN011 OVC033 12/10 A3007 890 86 800 130/05 RMK AO2
14926KSTC STC20051012090511110/12/05 09:05:31  5-MIN KSTC 121505Z 13005KT 5SM BR SCT011 BKN017 OVC033 12/10 A3007 890 86 800 120/05 RMK AO2
14926KSTC STC20051012091011110/12/05 09:10:31  5-MIN KSTC 121510Z 12006KT 5SM BR SCT011 BKN017 OVC035 13/11 A3007 890 86 900 120/06 RMK AO2
14926KSTC STC20051012091511110/12/05 09:15:31  5-MIN KSTC 121515Z 12006KT 5SM BR SCT011 BKN017 BKN035 13/11 A3007 890 86 900 120/06 RMK AO2
14926KSTC STC20051012092011110/12/05 09:20:31  5-MIN KSTC 121520Z 15007KT 5SM BR SCT011 SCT017 BKN039 13/11 A3007 890 86 900 150/07 RMK AO2
14926KSTC STC20051012092511110/12/05 09:25:31  5-MIN KSTC 121525Z 14007KT 5SM BR SCT011 BKN017 BKN039 13/11 A3007 890 86 900 140/07 RMK AO2
14926KSTC STC20051012093011110/12/05 09:30:31  5-MIN KSTC 121530Z 14008KT 5SM BR SCT011 SCT017 BKN039 13/11 A3006 890 86 900 130/08 RMK AO2
14926KSTC STC20051012093511110/12/05 09:35:31  5-MIN KSTC 121535Z 12007KT 5SM BR SCT011 BKN039 BKN060 13/11 A3006 900 86 900 120/07 RMK AO2
14926KSTC STC20051012094012310/12/05 09:40:31  5-MIN KSTC 121540Z 13006KT 5SM HZ BKN011 BKN039 OVC060 13/11 A3006 900 83 900 120/06 RMK AO2 CIG 007V012
14926KSTC STC20051012094510410/12/05 09:45:31  5-MIN KSTC 121545Z 14007KT 5SM HZ BKN009 OVC039 13/11 A3006 900 83 900 140/07 RMK AO2
14926KSTC STC20051012095012110/12/05 09:50:31  5-MIN KSTC 121550Z 14008KT 5SM HZ BKN009 OVC060 13/11 A3006 900 83 900 130/08 RMK AO2 SLP190 T01330106
14926KSTC STC20051012095509710/12/05 09:55:31  5-MIN KSTC 121555Z 14009KT 5SM HZ OVC009 13/11 A3006 900 83 900 140/09 RMK AO2
14926KSTC STC20051012100009710/12/05 10:00:31  5-MIN KSTC 121600Z 15008KT 5SM HZ OVC009 13/11 A3006 900 83 900 140/08 RMK AO2
14926KSTC STC20051012100511010/12/05 10:05:31  5-MIN KSTC 121605Z 15008KT 5SM HZ OVC009 14/11 A3006 900 80 1000 140/08 RMK AO2 CIG 009V013
14926KSTC STC20051012101009810/12/05 10:10:31  5-MIN KSTC 121610Z 13009KT 5SM HZ OVC011 14/11 A3006 900 80 1000 130/09 RMK AO2
14926KSTC STC20051012101509810/12/05 10:15:31  5-MIN KSTC 121615Z 14008KT 5SM HZ OVC011 14/11 A3006 900 80 1000 140/08 RMK AO2
14926KSTC STC20051012102010510/12/05 10:20:31  5-MIN KSTC 121620Z 15009KT 5SM HZ BKN011 OVC065 14/11 A3006 900 80 1000 150/09 RMK AO2
14926KSTC STC20051012102511210/12/05 10:25:31  5-MIN KSTC 121625Z 14007KT 5SM HZ BKN011 BKN045 OVC065 14/11 A3006 900 80 1000 140/07 RMK AO2
14926KSTC STC20051012103011210/12/05 10:30:31  5-MIN KSTC 121630Z 15008KT 5SM HZ BKN011 BKN047 OVC060 14/11 A3006 900 80 1000 150/08 RMK AO2
14926KSTC STC20051012103511210/12/05 10:35:31  5-MIN KSTC 121635Z 14007KT 5SM HZ SCT011 BKN047 OVC065 14/11 A3006 900 80 1000 140/07 RMK AO2
14926KSTC STC20051012104011210/12/05 10:40:31  5-MIN KSTC 121640Z 16006KT 6SM HZ SCT011 BKN047 OVC065 14/11 A3006 900 77 1100 160/06 RMK AO2
14926KSTC STC20051012104511210/12/05 10:45:31  5-MIN KSTC 121645Z 15006KT 5SM HZ SCT011 BKN047 OVC065 14/11 A3006 900 80 1000 140/06 RMK AO2
14926KSTC STC20051012105012210/12/05 10:50:31  5-MIN KSTC 121650Z 15007KT 5SM HZ BKN011 OVC047 14/11 A3006 900 80 1000 140/07 RMK AO2 SLP190 T01390106
14926KSTC STC20051012105510510/12/05 10:55:31  5-MIN KSTC 121655Z 16007KT 6SM HZ BKN013 OVC047 14/11 A3006 900 80 1000 150/07 RMK AO2
14926KSTC STC20051012110010510/12/05 11:00:31  5-MIN KSTC 121700Z 18008KT 6SM HZ BKN013 OVC047 14/11 A3006 900 77 1100 170/08 RMK AO2
14926KSTC STC20051012110509810/12/05 11:05:31  5-MIN KSTC 121705Z 14006KT 6SM HZ OVC013 14/11 A3006 900 77 1100 140/06 RMK AO2
14926KSTC STC20051012111009810/12/05 11:10:31  5-MIN KSTC 121710Z 14007KT 6SM HZ OVC013 14/11 A3005 900 77 1100 140/07 RMK AO2
14926KSTC STC20051012111509810/12/05 11:15:31  5-MIN KSTC 121715Z 16007KT 6SM HZ OVC013 14/11 A3005 900 80 1100 160/07 RMK AO2
14926KSTC STC20051012112009810/12/05 11:20:31  5-MIN KSTC 121720Z 15008KT 6SM HZ OVC013 15/11 A3006 900 77 1200 150/08 RMK AO2
14926KSTC STC20051012112509810/12/05 11:25:31  5-MIN KSTC 121725Z 14009KT 6SM HZ OVC013 14/11 A3005 900 80 1100 140/09 RMK AO2
14926KSTC STC20051012113009810/12/05 11:30:31  5-MIN KSTC 121730Z 16008KT 6SM HZ OVC013 15/11 A3006 900 77 1200 150/08 RMK AO2
14926KSTC STC20051012113509510/12/05 11:35:31  5-MIN KSTC 121735Z 16007KT 7SM OVC013 15/11 A3005 900 77 1200 160/07 RMK AO2
14926KSTC STC20051012114010210/12/05 11:40:31  5-MIN KSTC 121740Z 16006KT 7SM BKN015 OVC060 15/11 A3005 910 77 1200 160/06 RMK AO2
14926KSTC STC20051012114510210/12/05 11:45:31  5-MIN KSTC 121745Z 16007KT 7SM BKN015 OVC060 15/11 A3005 910 77 1200 160/07 RMK AO2
14926KSTC STC20051012115014410/12/05 11:50:31  5-MIN KSTC 121750Z 17007KT 7SM BKN015 BKN046 OVC060 15/11 A3005 910 74 1200 170/07 RMK AO2 SLP187 T01500106 10156 20100 53002
14926KSTC STC20051012115510910/12/05 11:55:31  5-MIN KSTC 121755Z VRB06KT 8SM BKN015 BKN046 OVC060 16/11 A3005 910 74 1200 VRB/06 RMK AO2
14926KSTC STC20051012120010910/12/05 12:00:31  5-MIN KSTC 121800Z 15008KT 8SM BKN015 BKN044 OVC060 16/11 A3005 910 74 1200 150/08 RMK AO2
14926KSTC STC20051012120510910/12/05 12:05:31  5-MIN KSTC 121805Z 14008KT 8SM BKN015 BKN044 OVC060 15/11 A3005 910 74 1200 140/08 RMK AO2
14926KSTC STC20051012121010210/12/05 12:10:31  5-MIN KSTC 121810Z 14007KT 8SM BKN015 OVC042 16/11 A3004 910 72 1200 140/07 RMK AO2
14926KSTC STC20051012121510210/12/05 12:15:31  5-MIN KSTC 121815Z 15008KT 8SM BKN015 OVC042 16/11 A3004 910 74 1200 140/08 RMK AO2
14926KSTC STC20051012122010910/12/05 12:20:31  5-MIN KSTC 121820Z 17007KT 8SM SCT015 BKN042 OVC060 16/11 A3004 910 72 1200 170/07 RMK AO2
14926KSTC STC20051012122510910/12/05 12:25:31  5-MIN KSTC 121825Z 16006KT 9SM SCT015 BKN042 OVC060 16/11 A3004 920 72 1200 150/06 RMK AO2
14926KSTC STC20051012123010910/12/05 12:30:31  5-MIN KSTC 121830Z 18007KT 9SM FEW015 BKN042 OVC060 16/11 A3004 920 72 1200 180/07 RMK AO2
14926KSTC STC20051012123511010/12/05 12:35:31  5-MIN KSTC 121835Z 18006KT 10SM FEW017 BKN040 OVC060 16/11 A3004 920 72 1200 180/06 RMK AO2
14926KSTC STC20051012124011010/12/05 12:40:31  5-MIN KSTC 121840Z 17007KT 10SM FEW030 BKN040 OVC060 16/11 A3004 920 72 1200 170/07 RMK AO2
14926KSTC STC20051012124511010/12/05 12:45:31  5-MIN KSTC 121845Z 15006KT 10SM SCT028 BKN040 OVC060 16/11 A3004 920 72 1200 150/06 RMK AO2
14926KSTC STC20051012125012710/12/05 12:50:31  5-MIN KSTC 121850Z 14005KT 10SM SCT028 BKN037 OVC060 16/11 A3003 920 72 1200 140/05 RMK AO2 SLP181 T01560106
14926KSTC STC20051012125511010/12/05 12:55:31  5-MIN KSTC 121855Z 13006KT 10SM FEW022 BKN037 OVC060 16/11 A3003 920 72 1200 130/06 RMK AO2
14926KSTC STC20051012130010910/12/05 13:00:31  5-MIN KSTC 121900Z 11004KT 9SM FEW022 BKN037 OVC060 15/11 A3003 920 77 1200 110/04 RMK AO2
14926KSTC STC20051012130510910/12/05 13:05:31  5-MIN KSTC 121905Z VRB05KT 7SM FEW022 SCT027 OVC060 15/11 A3003 920 77 1200 VRB/05 RMK AO2
14926KSTC STC20051012131010210/12/05 13:10:31  5-MIN KSTC 121910Z 11005KT 7SM FEW022 OVC060 15/11 A3003 920 77 1200 110/05 RMK AO2
14926KSTC STC20051012131510210/12/05 13:15:31  5-MIN KSTC 121915Z 11005KT 7SM FEW022 OVC060 15/11 A3003 930 77 1200 110/05 RMK AO2
14926KSTC STC20051012132011210/12/05 13:20:31  5-MIN KSTC 121920Z 11005KT 6SM HZ FEW022 BKN060 OVC080 15/11 A3003 930 77 1200 110/05 RMK AO2
14926KSTC STC20051012132512510/12/05 13:25:31  5-MIN KSTC 121925Z 13004KT 6SM -RA FEW020 BKN065 BKN080 15/12 A3003 930 80 1200 130/04 RMK AO2 RAB22 P0000
14926KSTC STC20051012133011810/12/05 13:30:31  5-MIN KSTC 121930Z 12005KT 6SM -RA SCT065 BKN080 15/12 A3003 930 80 1200 120/05 RMK AO2 RAB22 P0000
14926KSTC STC20051012133511810/12/05 13:35:31  5-MIN KSTC 121935Z 13004KT 6SM -RA FEW024 BKN075 15/12 A3003 930 80 1200 130/04 RMK AO2 RAB22 P0000
14926KSTC STC20051012134012510/12/05 13:40:31  5-MIN KSTC 121940Z VRB04KT 6SM -RA FEW019 BKN070 BKN085 15/12 A3003 930 80 1200 VRB/04 RMK AO2 RAB22 P0000
14926KSTC STC20051012134512510/12/05 13:45:31  5-MIN KSTC 121945Z 12003KT 5SM -RA FEW024 SCT032 BKN070 15/12 A3003 930 80 1200 120/03 RMK AO2 RAB22 P0001
14926KSTC STC20051012135014210/12/05 13:50:31  5-MIN KSTC 121950Z 11003KT 5SM -RA FEW024 BKN034 BKN070 15/12 A3003 930 83 1200 110/03 RMK AO2 RAB22 SLP178 P0001 T01500122
14926KSTC STC20051012135512210/12/05 13:55:31  5-MIN KSTC 121955Z 00000KT 5SM -RA BR FEW024 BKN034 OVC085 14/12 A3003 930 86 1100 000/00 RMK AO2 P0000
14926KSTC STC20051012140012210/12/05 14:00:31  5-MIN KSTC 122000Z 00000KT 4SM -RA BR SCT019 BKN029 OVC070 14/12 A3003 930 86 1100 000/00 RMK AO2 P0000
14926KSTC STC20051012140512510/12/05 14:05:31  5-MIN KSTC 122005Z 00000KT 2 1/2SM RA BR SCT019 BKN027 OVC070 14/12 A3003 930 86 1100 000/00 RMK AO2 P0001
14926KSTC STC20051012141012210/12/05 14:10:31  5-MIN KSTC 122010Z 20004KT 2SM -RA BR BKN019 BKN027 OVC036 14/13 A3003 930 90 1100 200/04 RMK AO2 P0002
14926KSTC STC20051012141513610/12/05 14:15:31  5-MIN KSTC 122015Z 19004KT 2 1/2SM -RA BR BKN015 BKN020 OVC034 14/12 A3003 930 90 1100 180/04 RMK AO2 TWR VIS 3 P0002
14926KSTC STC20051012142012210/12/05 14:20:31  5-MIN KSTC 122020Z 20004KT 3SM -RA BR BKN015 BKN020 OVC027 14/13 A3003 930 93 1100 200/04 RMK AO2 P0004
14926KSTC STC20051012142511510/12/05 14:25:31  5-MIN KSTC 122025Z 20004KT 3SM -RA BR BKN015 OVC020 14/12 A3003 930 90 1100 200/04 RMK AO2 P0005
14926KSTC STC20051012143011510/12/05 14:30:31  5-MIN KSTC 122030Z 20003KT 3SM -RA BR BKN015 OVC050 14/12 A3003 930 90 1100 200/03 RMK AO2 P0006
14926KSTC STC20051012143511510/12/05 14:35:31  5-MIN KSTC 122035Z 21003KT 3SM -RA BR BKN015 OVC050 14/12 A3003 930 90 1100 200/03 RMK AO2 P0006
14926KSTC STC20051012144011510/12/05 14:40:31  5-MIN KSTC 122040Z 19003KT 3SM -RA BR BKN015 OVC050 14/12 A3003 930 90 1100 190/03 RMK AO2 P0006
14926KSTC STC20051012144512010/12/05 14:45:31  5-MIN KSTC 122045Z AUTO 20003KT 3SM -RA BR BKN015 OVC050 14/12 A3003 930 90 1100 200/03 RMK AO2 P0006
14926KSTC STC20051012145014910/12/05 14:50:31  5-MIN KSTC 122050Z AUTO 21005KT 3SM -RA BR BKN015 OVC050 14/12 A3003 930 90 1100 200/05 RMK AO2 SLP178 P0006 60007 T01390122 57007
14926KSTC STC20051012145512010/12/05 14:55:31  5-MIN KSTC 122055Z AUTO 20004KT 4SM -RA BR BKN015 OVC050 14/12 A3003 930 90 1100 200/04 RMK AO2 P0000
14926KSTC STC20051012150012410/12/05 15:00:31  5-MIN KSTC 122100Z AUTO 20005KT 4SM BR BKN017 OVC050 14/12 A3003 930 90 1100 200/05 RMK AO2 RAE2059 P0000
14926KSTC STC20051012150513110/12/05 15:05:31  5-MIN KSTC 122105Z AUTO 20003KT 4SM BR BKN015 BKN021 OVC050 13/12 A3003 930 93 1000 200/03 RMK AO2 RAE2059 P0000
14926KSTC STC20051012151012410/12/05 15:10:31  5-MIN KSTC 122110Z AUTO 00000KT 4SM BR BKN015 OVC055 13/12 A3002 930 93 1000 000/00 RMK AO2 RAE2059 P0000
14926KSTC STC20051012151513110/12/05 15:15:31  5-MIN KSTC 122115Z AUTO 00000KT 4SM BR SCT015 SCT020 OVC055 14/12 A3003 930 90 1100 000/00 RMK AO2 RAE2059 P0000
14926KSTC STC20051012152012410/12/05 15:20:31  5-MIN KSTC 122120Z AUTO 00000KT 4SM BR FEW012 OVC055 14/13 A3002 930 93 1100 000/00 RMK AO2 RAE2059 P0000
14926KSTC STC20051012152512410/12/05 15:25:31  5-MIN KSTC 122125Z AUTO 00000KT 4SM BR FEW012 OVC055 14/13 A3002 930 93 1100 000/00 RMK AO2 RAE2059 P0000
14926KSTC STC20051012153012410/12/05 15:30:31  5-MIN KSTC 122130Z AUTO 00000KT 3SM BR FEW013 OVC060 14/13 A3002 930 93 1100 000/00 RMK AO2 RAE2059 P0000
14926KSTC STC20051012153511710/12/05 15:35:31  5-MIN KSTC 122135Z AUTO 00000KT 4SM BR OVC060 14/13 A3002 930 93 1100 000/00 RMK AO2 RAE2059 P0000
14926KSTC STC20051012154012410/12/05 15:40:31  5-MIN KSTC 122140Z AUTO 00000KT 4SM BR BKN060 OVC070 14/13 A3002 930 90 1100 000/00 RMK AO2 RAE2059 P0000
14926KSTC STC20051012154511710/12/05 15:45:31  5-MIN KSTC 122145Z AUTO 13004KT 4SM BR OVC065 14/13 A3002 930 90 1100 130/04 RMK AO2 RAE2059 P0000
14926KSTC STC20051012155014110/12/05 15:50:31  5-MIN KSTC 122150Z AUTO 14005KT 4SM BR FEW008 OVC070 14/13 A3002 930 90 1100 140/05 RMK AO2 RAE2059 SLP176 P0000 T01440128
14926KSTC STC20051012155511010/12/05 15:55:31  5-MIN KSTC 122155Z AUTO 13003KT 4SM BR FEW008 OVC070 14/13 A3002 930 90 1100 120/03 RMK AO2
14926KSTC STC20051012160010310/12/05 16:00:31  5-MIN KSTC 122200Z AUTO 13005KT 4SM BR OVC070 14/13 A3002 930 90 1100 130/05 RMK AO2
14926KSTC STC20051012160510310/12/05 16:05:31  5-MIN KSTC 122205Z AUTO 12004KT 4SM BR OVC075 14/13 A3002 930 90 1100 120/04 RMK AO2
14926KSTC STC20051012161011010/12/05 16:10:31  5-MIN KSTC 122210Z AUTO 12004KT 4SM BR FEW010 OVC075 14/13 A3002 930 90 1100 120/04 RMK AO2
14926KSTC STC20051012161510310/12/05 16:15:31  5-MIN KSTC 122215Z AUTO 13005KT 4SM BR OVC075 14/13 A3002 930 93 1100 130/05 RMK AO2
14926KSTC STC20051012162010310/12/05 16:20:31  5-MIN KSTC 122220Z AUTO 12004KT 4SM BR OVC075 14/13 A3002 930 93 1100 110/04 RMK AO2
14926KSTC STC20051012162510310/12/05 16:25:31  5-MIN KSTC 122225Z AUTO 11004KT 4SM BR OVC075 14/13 A3002 930 93 1100 110/04 RMK AO2
14926KSTC STC20051012163011010/12/05 16:30:31  5-MIN KSTC 122230Z AUTO 11004KT 4SM BR FEW050 OVC075 14/13 A3002 930 93 1100 110/04 RMK AO2
14926KSTC STC20051012163511010/12/05 16:35:31  5-MIN KSTC 122235Z AUTO 10003KT 4SM BR FEW050 OVC075 14/13 A3002 930 93 1100 100/03 RMK AO2
14926KSTC STC20051012164011710/12/05 16:40:31  5-MIN KSTC 122240Z AUTO 11004KT 4SM BR FEW033 SCT050 OVC075 14/13 A3002 930 93 1100 110/04 RMK AO2
14926KSTC STC20051012164511710/12/05 16:45:31  5-MIN KSTC 122245Z AUTO 10004KT 3SM BR SCT033 BKN050 OVC070 14/12 A3002 930 90 1100 100/04 RMK AO2
14926KSTC STC20051012165013410/12/05 16:50:31  5-MIN KSTC 122250Z AUTO 11003KT 3SM BR SCT033 BKN050 OVC070 14/12 A3002 930 90 1100 110/03 RMK AO2 SLP177 T01390122
14926KSTC STC20051012165511710/12/05 16:55:31  5-MIN KSTC 122255Z AUTO 11004KT 3SM BR BKN035 BKN050 OVC070 14/12 A3002 930 90 1100 110/04 RMK AO2
14926KSTC STC20051012170011010/12/05 17:00:31  5-MIN KSTC 122300Z AUTO 11004KT 3SM BR BKN035 OVC050 14/13 A3002 930 93 1100 110/04 RMK AO2
14926KSTC STC20051012170511010/12/05 17:05:31  5-MIN KSTC 122305Z AUTO 11004KT 3SM BR BKN035 OVC050 14/12 A3002 930 90 1100 100/04 RMK AO2
14926KSTC STC20051012171011010/12/05 17:10:31  5-MIN KSTC 122310Z AUTO 11004KT 3SM BR SCT035 OVC050 14/12 A3002 930 90 1100 110/04 RMK AO2
14926KSTC STC20051012171511710/12/05 17:15:31  5-MIN KSTC 122315Z AUTO 12004KT 3SM BR FEW021 BKN037 OVC050 14/12 A3002 930 90 1100 110/04 RMK AO2
14926KSTC STC20051012172011710/12/05 17:20:31  5-MIN KSTC 122320Z AUTO 11004KT 3SM BR FEW021 BKN037 OVC050 14/12 A3002 930 90 1100 100/04 RMK AO2
14926KSTC STC20051012172511710/12/05 17:25:31  5-MIN KSTC 122325Z AUTO 11004KT 4SM BR FEW021 BKN035 OVC050 14/13 A3002 930 93 1100 110/04 RMK AO2
14926KSTC STC20051012173013310/12/05 17:30:31  5-MIN KSTC 122330Z AUTO 11004KT 4SM -RA BR SCT021 BKN035 OVC050 14/13 A3002 930 93 1100 100/04 RMK AO2 RAB26 P0000
14926KSTC STC20051012173513310/12/05 17:35:31  5-MIN KSTC 122335Z AUTO 11004KT 4SM -RA BR SCT021 BKN030 OVC037 13/13 A3002 930 96 1000 110/04 RMK AO2 RAB26 P0000
14926KSTC STC20051012174013310/12/05 17:40:31  5-MIN KSTC 122340Z AUTO 12005KT 4SM -RA BR FEW009 BKN030 OVC037 13/13 A3003 930 96 1000 120/05 RMK AO2 RAB26 P0000
14926KSTC STC20051012174513310/12/05 17:45:31  5-MIN KSTC 122345Z AUTO 12006KT 4SM -RA BR FEW009 SCT018 OVC035 13/13 A3003 930 96 1000 110/06 RMK AO2 RAB26 P0000
14926KSTC STC20051012175017410/12/05 17:50:31  5-MIN KSTC 122350Z AUTO 12004KT 4SM -RA BR FEW009 BKN023 OVC035 13/13 A3003 930 96 1000 120/04 RMK AO2 RAB26 SLP179 P0000 60007 T01330128 10156 20133 56007
14926KSTC STC20051012175511710/12/05 17:55:31  5-MIN KSTC 122355Z AUTO 12005KT 4SM BR FEW009 BKN029 OVC039 13/12 A3003 930 93 1000 120/05 RMK AO2
14926KSTC STC20051012180011710/12/05 18:00:31  5-MIN KSTC 130000Z AUTO 12005KT 4SM BR FEW009 BKN024 OVC040 13/12 A3003 930 93 1000 120/05 RMK AO2
14926KSTC STC20051012180511710/12/05 18:05:31  5-MIN KSTC 130005Z AUTO 13006KT 4SM BR SCT011 BKN027 OVC038 13/12 A3003 930 93 1000 120/06 RMK AO2
14926KSTC STC20051012183511710/12/05 18:35:31  5-MIN KSTC 130035Z AUTO 13007KT 4SM BR FEW011 BKN040 OVC050 13/12 A3003 920 93 1000 130/07 RMK AO2
14926KSTC STC20051012184011010/12/05 18:40:31  5-MIN KSTC 130040Z AUTO 14006KT 3SM BR BKN041 OVC050 13/12 A3003 920 93 1000 140/06 RMK AO2
14926KSTC STC20051012184511010/12/05 18:45:31  5-MIN KSTC 130045Z AUTO 13006KT 3SM BR BKN039 OVC050 13/12 A3003 930 93 1000 130/06 RMK AO2
14926KSTC STC20051012185012710/12/05 18:50:31  5-MIN KSTC 130050Z AUTO 13006KT 3SM BR BKN039 OVC050 13/12 A3003 930 93 1000 130/06 RMK AO2 SLP180 T01330122
14926KSTC STC20051012185511010/12/05 18:55:31  5-MIN KSTC 130055Z AUTO 13006KT 3SM BR BKN039 OVC050 13/12 A3003 920 93 1000 130/06 RMK AO2
14926KSTC STC20051012190012810/12/05 19:00:31  5-MIN KSTC 130100Z AUTO 13005KT 3SM -RA BR BKN036 OVC050 13/12 A3003 930 93 1000 120/05 RMK AO2 RAB0058 P0000
14926KSTC STC20051012190512110/12/05 19:05:31  5-MIN KSTC 130105Z AUTO 12004KT 3SM -RA BR OVC036 13/12 A3003 930 93 1000 110/04 RMK AO2 RAB0058 P0000
14926KSTC STC20051012191011910/12/05 19:10:31  5-MIN KSTC 130110Z AUTO 12005KT 3SM BR OVC034 13/12 A3003 930 96 900 120/05 RMK AO2 RAB0058E08 P0000
14926KSTC STC20051012191512610/12/05 19:15:31  5-MIN KSTC 130115Z AUTO 12004KT 3SM BR FEW029 OVC034 13/12 A3003 930 96 900 120/04 RMK AO2 RAB0058E08 P0000
14926KSTC STC20051012192012610/12/05 19:20:31  5-MIN KSTC 130120Z AUTO 12004KT 3SM BR SCT029 OVC034 13/12 A3003 930 96 900 110/04 RMK AO2 RAB0058E08 P0000
14926KSTC STC20051012192512610/12/05 19:25:31  5-MIN KSTC 130125Z AUTO 10003KT 3SM BR BKN029 OVC034 13/12 A3003 930 96 900 100/03 RMK AO2 RAB0058E08 P0000
14926KSTC STC20051012193013710/12/05 19:30:31  5-MIN KSTC 130130Z AUTO 11004KT 2 1/2SM BR FEW023 BKN029 OVC034 13/12 A3003 930 96 900 110/04 RMK AO2 RAB0058E08 P0000
14926KSTC STC20051012193513010/12/05 19:35:31  5-MIN KSTC 130135Z AUTO 12003KT 2 1/2SM BR SCT023 OVC028 13/12 A3003 930 96 900 110/03 RMK AO2 RAB0058E08 P0000
14926KSTC STC20051012194013010/12/05 19:40:31  5-MIN KSTC 130140Z AUTO 11003KT 2 1/2SM BR BKN023 OVC028 13/12 A3003 930 96 900 110/03 RMK AO2 RAB0058E08 P0000
14926KSTC STC20051012194513010/12/05 19:45:31  5-MIN KSTC 130145Z AUTO 11004KT 2 1/2SM BR BKN022 OVC028 13/12 A3003 930 96 900 100/04 RMK AO2 RAB0058E08 P0000
14926KSTC STC20051012195014310/12/05 19:50:31  5-MIN KSTC 130150Z AUTO 10004KT 3SM BR BKN022 OVC028 13/12 A3003 930 96 900 100/04 RMK AO2 RAB0058E08 SLP180 P0000 T01280122
14926KSTC STC20051012195510210/12/05 19:55:31  5-MIN KSTC 130155Z AUTO 11004KT 3SM BR OVC022 13/12 A3003 930 96 900 100/04 RMK AO2
14926KSTC STC20051012200010610/12/05 20:00:31  5-MIN KSTC 130200Z AUTO 11004KT 2 1/2SM BR OVC022 13/12 A3003 930 96 900 110/04 RMK AO2
14926KSTC STC20051012200511310/12/05 20:05:31  5-MIN KSTC 130205Z AUTO 11004KT 2 1/2SM BR FEW008 OVC022 13/12 A3003 930 96 900 100/04 RMK AO2
14926KSTC STC20051012201013610/12/05 20:10:31  5-MIN KSTC 130210Z AUTO 11004KT 1 3/4SM -RA BR FEW008 SCT012 OVC022 13/12 A3003 930 96 900 110/04 RMK AO2 RAB07 P0001
14926KSTC STC20051012201513610/12/05 20:15:31  5-MIN KSTC 130215Z AUTO 12003KT 1 1/2SM -RA BR SCT006 SCT012 OVC022 13/12 A3002 930 96 900 120/03 RMK AO2 RAB07 P0001
14926KSTC STC20051012202013610/12/05 20:20:31  5-MIN KSTC 130220Z AUTO 11004KT 1 1/2SM -RA BR SCT006 BKN012 OVC022 13/12 A3002 930 96 900 110/04 RMK AO2 RAB07 P0002
14926KSTC STC20051012202514810/12/05 20:25:31  5-MIN KSTC 130225Z AUTO 11006KT 1 1/2SM -RA BR FEW002 BKN008 OVC022 13/12 A3002 930 96 900 110/06 RMK AO2 RAB07 CIG 005V013 P0002
14926KSTC STC20051012203014810/12/05 20:30:31  5-MIN KSTC 130230Z AUTO 12005KT 1 1/2SM -RA BR SCT005 BKN008 OVC020 13/12 A3002 930 96 900 120/05 RMK AO2 RAB07 CIG 007V011 P0002
14926KSTC STC20051012203514010/12/05 20:35:31  5-MIN KSTC 130235Z AUTO 12004KT 1 1/2SM BR BKN005 OVC011 13/12 A3002 930 96 900 120/04 RMK AO2 RAB07E32 CIG 002V008 P0002
14926KSTC STC20051012204014010/12/05 20:40:31  5-MIN KSTC 130240Z AUTO 13005KT 1 1/2SM BR BKN005 OVC009 13/12 A3002 930 96 900 130/05 RMK AO2 RAB07E32 CIG 002V006 P0003
14926KSTC STC20051012204514110/12/05 20:45:31  5-MIN KSTC 130245Z AUTO 12004KT 1 1/4SM -RA BR BKN005 OVC009 13/12 A3002 930 96 900 120/04 RMK AO2 RAB07 CIG 002V008 P0003
14926KSTC STC20051012205017010/12/05 20:50:31  5-MIN KSTC 130250Z AUTO 13004KT 1 1/4SM -RA BR BKN005 OVC009 13/12 A3002 930 96 900 130/04 RMK AO2 RAB07 CIG 002V006 SLP177 P0003 60003 T01280122 55000
14926KSTC STC20051012205512810/12/05 20:55:31  5-MIN KSTC 130255Z AUTO 13005KT 1 1/2SM -RA BR OVC005 13/12 A3002 930 96 900 120/05 RMK AO2 CIG 002V007 P0001
14926KSTC STC20051012210012810/12/05 21:00:31  5-MIN KSTC 130300Z AUTO 12004KT 1 1/4SM -RA BR OVC005 13/12 A3002 930 96 900 110/04 RMK AO2 CIG 001V008 P0001
14926KSTC STC20051012210513510/12/05 21:05:31  5-MIN KSTC 130305Z AUTO 12005KT 1 1/4SM -RA BR BKN003 OVC008 13/12 A3002 930 96 900 120/05 RMK AO2 CIG 001V005 P0002
14926KSTC STC20051012211012810/12/05 21:10:31  5-MIN KSTC 130310Z AUTO 13006KT 1 1/4SM -RA BR OVC005 13/12 A3002 940 96 900 130/06 RMK AO2 CIG 001V008 P0004
14926KSTC STC20051012211513510/12/05 21:15:31  5-MIN KSTC 130315Z AUTO 12005KT 1 1/4SM -RA BR BKN003 OVC008 13/12 A3002 940 96 900 120/05 RMK AO2 CIG 001V006 P0005
14926KSTC STC20051012212013510/12/05 21:20:31  5-MIN KSTC 130320Z AUTO 13005KT 1 1/2SM -RA BR BKN003 OVC007 13/12 A3002 940 96 900 130/05 RMK AO2 CIG 001V005 P0006
14926KSTC STC20051012212512810/12/05 21:25:31  5-MIN KSTC 130325Z AUTO 13006KT 1 3/4SM -RA BR OVC005 13/12 A3002 940 93 900 130/06 RMK AO2 CIG 001V008 P0006
14926KSTC STC20051012213012810/12/05 21:30:31  5-MIN KSTC 130330Z AUTO 14007KT 2 1/2SM -RA BR OVC005 13/12 A3001 940 93 900 140/07 RMK AO2 CIG 002V008 P0006
14926KSTC STC20051012213512810/12/05 21:35:31  5-MIN KSTC 130335Z AUTO 15008KT 2 1/2SM -RA BR OVC005 13/12 A3001 940 93 900 150/08 RMK AO2 CIG 002V008 P0006
14926KSTC STC20051012214013310/12/05 21:40:31  5-MIN KSTC 130340Z AUTO 14007KT 2SM BR BKN005 OVC009 13/12 A3001 940 93 900 140/07 RMK AO2 RAE37 CIG 002V007 P0006
14926KSTC STC20051012214513310/12/05 21:45:31  5-MIN KSTC 130345Z AUTO 14007KT 2SM BR BKN005 OVC009 13/12 A3001 940 93 900 140/07 RMK AO2 RAE37 CIG 003V007 P0006
14926KSTC STC20051012215014210/12/05 21:50:31  5-MIN KSTC 130350Z AUTO 15007KT 2 1/2SM BR BKN005 OVC009 13/12 A3001 940 93 900 140/07 RMK AO2 RAE37 SLP173 P0006 T01280117
14926KSTC STC20051012215511310/12/05 21:55:31  5-MIN KSTC 130355Z AUTO 15007KT 2 1/2SM BR BKN005 OVC009 12/12 A3001 940 96 900 140/07 RMK AO2
14926KSTC STC20051012220012110/12/05 22:00:31  5-MIN KSTC 130400Z AUTO 15007KT 3SM BR BKN005 OVC009 12/12 A3001 940 96 900 150/07 RMK AO2 CIG 003V007
14926KSTC STC20051012220513010/12/05 22:05:31  5-MIN KSTC 130405Z AUTO 16007KT 3SM -RA BR OVC005 12/12 A3001 950 96 900 150/07 RMK AO2 RAB04 CIG 003V010 P0000
14926KSTC STC20051012221014110/12/05 22:10:31  5-MIN KSTC 130410Z AUTO 15006KT 2 1/2SM -RA BR BKN005 OVC009 12/12 A3001 950 96 900 150/06 RMK AO2 RAB04 CIG 003V007 P0000
14926KSTC STC20051012221513310/12/05 22:15:31  5-MIN KSTC 130415Z AUTO 15007KT 2 1/2SM BR OVC005 12/12 A3001 950 96 900 150/07 RMK AO2 RAB04E13 CIG 003V010 P0000
14926KSTC STC20051012222012510/12/05 22:20:31  5-MIN KSTC 130420Z AUTO 15006KT 2SM -RA BR BKN005 OVC008 12/12 A3001 950 96 900 150/06 RMK AO2 RAB04 P0001
14926KSTC STC20051012222513110/12/05 22:25:31  5-MIN KSTC 130425Z AUTO 15006KT 2SM -RA BR OVC005 12/12 A3000 950 100 900 150/06 RMK AO2 RAB04 CIG 002V006 P0001
14926KSTC STC20051012223013410/12/05 22:30:31  5-MIN KSTC 130430Z AUTO 15007KT 2 1/2SM BR OVC003 12/12 A3000 950 100 900 150/07 RMK AO2 RAB04E30 CIG 002V006 P0001
14926KSTC STC20051012223512910/12/05 22:35:31  5-MIN KSTC 130435Z AUTO 15006KT 2SM BR OVC003 12/12 A3000 950 96 900 150/06 RMK AO2 RAB04E30 CIG 002V007 P0001
14926KSTC STC20051012224012910/12/05 22:40:31  5-MIN KSTC 130440Z AUTO 15006KT 2SM BR OVC003 12/12 A3000 950 96 900 150/06 RMK AO2 RAB04E30 CIG 002V006 P0001
14926KSTC STC20051012224512110/12/05 22:45:31  5-MIN KSTC 130445Z AUTO 15006KT 1 3/4SM BR OVC003 12/12 A3000 950 96 900 150/06 RMK AO2 RAB04E30 P0001
14926KSTC STC20051012225013910/12/05 22:50:31  5-MIN KSTC 130450Z AUTO 16006KT 1 3/4SM BR OVC003 12/12 A3000 950 100 900 150/06 RMK AO2 RAB04E30 SLP169 P0001 T01220122
14926KSTC STC20051012225510710/12/05 22:55:31  5-MIN KSTC 130455Z AUTO 16007KT 1 3/4SM BR OVC003 12/12 A3000 950 100 900 160/07 RMK AO2
14926KSTC STC20051012230010710/12/05 23:00:31  5-MIN KSTC 130500Z AUTO 17006KT 1 3/4SM BR OVC003 12/12 A3000 950 100 900 160/06 RMK AO2
14926KSTC STC20051012230510710/12/05 23:05:31  5-MIN KSTC 130505Z AUTO 18006KT 1 3/4SM BR OVC003 12/12 A3000 950 100 900 180/06 RMK AO2
14926KSTC STC20051012231010710/12/05 23:10:31  5-MIN KSTC 130510Z AUTO 18005KT 1 3/4SM BR OVC003 12/12 A3000 950 100 900 170/05 RMK AO2
14926KSTC STC20051012231510710/12/05 23:15:31  5-MIN KSTC 130515Z AUTO 18006KT 1 1/2SM BR OVC003 12/12 A3000 960 100 900 180/06 RMK AO2
14926KSTC STC20051012232010710/12/05 23:20:31  5-MIN KSTC 130520Z AUTO 18005KT 1 1/2SM BR OVC003 12/12 A3000 960 100 900 170/05 RMK AO2
14926KSTC STC20051012232511310/12/05 23:25:31  5-MIN KSTC 130525Z AUTO 17006KT 1 1/2SM BR OVC003 12/12 A2999 960 100 900 170/06 RMK AO2 P0001
14926KSTC STC20051012233011310/12/05 23:30:31  5-MIN KSTC 130530Z AUTO 17006KT 1 3/4SM BR OVC003 12/12 A2999 960 100 900 160/06 RMK AO2 P0001
14926KSTC STC20051012233512110/12/05 23:35:31  5-MIN KSTC 130535Z AUTO 17007KT 2SM BR OVC003 13/12 A2999 960 96 1000 170/07 RMK AO2 CIG 001V007 P0001
14926KSTC STC20051012234012510/12/05 23:40:31  5-MIN KSTC 130540Z AUTO 17006KT 2 1/2SM BR OVC003 13/12 A2999 960 96 1000 170/06 RMK AO2 CIG 001V007 P0001
14926KSTC STC20051012234512110/12/05 23:45:31  5-MIN KSTC 130545Z AUTO 18005KT 3SM BR OVC003 13/12 A2999 960 96 1000 180/05 RMK AO2 CIG 001V007 P0001
14926KSTC STC20051012235017610/12/05 23:50:31  5-MIN KSTC 130550Z AUTO 19006KT 2 1/2SM BR OVC003 13/12 A2999 960 96 1000 180/06 RMK AO2 CIG 001V007 SLP166 P0001 60011 T01280122 10133 20122 401560083 58002
14926KSTC STC20051012235510710/12/05 23:55:31  5-MIN KSTC 130555Z AUTO 19005KT 2 1/2SM BR OVC003 13/12 A2999 960 96 1000 180/05 RMK AO2
14926KSTC STC20051013000010310/13/05 00:00:32  5-MIN KSTC 130600Z AUTO 19005KT 2SM BR OVC003 13/12 A2999 960 96 1000 180/05 RMK AO2
14926KSTC STC20051013000510310/13/05 00:05:31  5-MIN KSTC 130605Z AUTO 18005KT 2SM BR OVC003 13/12 A2999 960 96 1000 170/05 RMK AO2
14926KSTC STC20051013001011510/13/05 00:10:31  5-MIN KSTC 130610Z AUTO 17004KT 2SM BR OVC003 13/12 A2999 960 96 1000 170/04 RMK AO2 CIG 001V005
14926KSTC STC20051013001511510/13/05 00:15:31  5-MIN KSTC 130615Z AUTO 18004KT 2SM BR OVC003 13/12 A2999 960 96 1000 170/04 RMK AO2 CIG 001V005
14926KSTC STC20051013002011910/13/05 00:20:31  5-MIN KSTC 130620Z AUTO 17004KT 2 1/2SM BR OVC003 13/12 A2999 970 96 1000 170/04 RMK AO2 CIG 001V005
14926KSTC STC20051013002513110/13/05 00:25:31  5-MIN KSTC 130625Z AUTO 17004KT 2SM -RA BR OVC003 13/12 A2999 970 96 1000 170/04 RMK AO2 RAB23 CIG 001V007 P0000
14926KSTC STC20051013003013710/13/05 00:30:31  5-MIN KSTC 130630Z AUTO 17004KT 2SM RA BR BKN003 OVC007 13/12 A2999 970 96 1000 170/04 RMK AO2 RAB23 CIG 001V005 P0002
14926KSTC STC20051013003514210/13/05 00:35:31  5-MIN KSTC 130635Z AUTO 17005KT 1 3/4SM -RA BR BKN003 OVC007 13/12 A2998 970 96 1000 160/05 RMK AO2 RAB23 CIG 001V005 P0003
14926KSTC STC20051013004013810/13/05 00:40:31  5-MIN KSTC 130640Z AUTO 17004KT 2SM -RA BR BKN005 OVC008 12/12 A2998 970 100 900 160/04 RMK AO2 RAB23 CIG 001V006 P0003
14926KSTC STC20051013004514210/13/05 00:45:31  5-MIN KSTC 130645Z AUTO 17004KT 2 1/2SM -RA BR SCT003 OVC010 13/12 A2999 970 96 1000 170/04 RMK AO2 RAB23 CIG 007V012 P0003
14926KSTC STC20051013005015310/13/05 00:50:31  5-MIN KSTC 130650Z AUTO 18004KT 2 1/2SM BR SCT003 BKN008 OVC012 13/12 A2999 960 96 1000 180/04 RMK AO2 RAB23E48 SLP163 P0003 T01280122
14926KSTC STC20051013005512610/13/05 00:55:31  5-MIN KSTC 130655Z AUTO 19004KT 2 1/2SM BR SCT003 OVC008 13/12 A2999 960 96 1000 190/04 RMK AO2 CIG 006V010
14926KSTC STC20051013010012610/13/05 01:00:31  5-MIN KSTC 130700Z AUTO 19004KT 2 1/2SM BR SCT003 OVC008 13/12 A2999 960 96 1000 190/04 RMK AO2 CIG 007V012
14926KSTC STC20051013010512610/13/05 01:05:31  5-MIN KSTC 130705Z AUTO 19004KT 2 1/2SM BR SCT004 OVC010 13/12 A2999 960 96 1000 190/04 RMK AO2 CIG 007V013
14926KSTC STC20051013011011410/13/05 01:10:31  5-MIN KSTC 130710Z AUTO 20005KT 2 1/2SM BR SCT004 OVC010 13/12 A2999 960 96 1000 200/05 RMK AO2
14926KSTC STC20051013011511710/13/05 01:15:31  5-MIN KSTC 130715Z AUTO 21005KT 3SM BR SCT004 SCT008 OVC012 13/12 A2999 960 93 1000 210/05 RMK AO2
14926KSTC STC20051013012011010/13/05 01:20:31  5-MIN KSTC 130720Z AUTO 22006KT 3SM BR SCT004 OVC012 13/12 A2999 960 93 1000 210/06 RMK AO2
14926KSTC STC20051013012512910/13/05 01:25:31  5-MIN KSTC 130725Z AUTO 22005KT 3SM BR BKN006 BKN009 OVC014 13/12 A2999 960 93 1000 220/05 RMK AO2 CIG 002V007
14926KSTC STC20051013013012910/13/05 01:30:31  5-MIN KSTC 130730Z AUTO 23005KT 3SM BR SCT004 BKN008 OVC011 13/12 A2999 960 96 1000 230/05 RMK AO2 CIG 007V010
14926KSTC STC20051013013512910/13/05 01:35:31  5-MIN KSTC 130735Z AUTO 24006KT 3SM BR FEW004 BKN010 OVC015 13/12 A2999 960 93 1000 230/06 RMK AO2 CIG 006V012
14926KSTC STC20051013014012910/13/05 01:40:31  5-MIN KSTC 130740Z AUTO 23005KT 4SM BR FEW004 BKN010 OVC015 13/12 A2999 960 93 1000 230/05 RMK AO2 CIG 006V013
14926KSTC STC20051013014511610/13/05 01:45:31  5-MIN KSTC 130745Z AUTO 23005KT 4SM BR SCT004 BKN010 OVC013 12/12 A2999 960 96 900 230/05 RMK AO2
14926KSTC STC20051013015013310/13/05 01:50:31  5-MIN KSTC 130750Z AUTO 22005KT 4SM BR SCT006 BKN012 OVC049 12/12 A2999 960 96 900 220/05 RMK AO2 SLP166 T01220117
14926KSTC STC20051013015511610/13/05 01:55:31  5-MIN KSTC 130755Z AUTO 24007KT 4SM BR SCT006 BKN012 OVC049 12/12 A2999 960 96 900 230/07 RMK AO2
14926KSTC STC20051013020011610/13/05 02:00:31  5-MIN KSTC 130800Z AUTO 24006KT 4SM BR SCT007 BKN012 OVC060 12/12 A2999 960 96 900 240/06 RMK AO2
14926KSTC STC20051013020512810/13/05 02:05:31  5-MIN KSTC 130805Z AUTO 25006KT 4SM BR BKN007 BKN050 OVC080 12/12 A2999 960 96 900 240/06 RMK AO2 CIG 004V014
14926KSTC STC20051013021011610/13/05 02:10:31  5-MIN KSTC 130810Z AUTO 25006KT 4SM BR SCT007 BKN050 OVC080 12/12 A2999 960 96 900 250/06 RMK AO2
14926KSTC STC20051013021511610/13/05 02:15:31  5-MIN KSTC 130815Z AUTO 25009KT 4SM BR SCT007 SCT050 OVC080 12/11 A2999 960 93 900 250/09 RMK AO2
14926KSTC STC20051013022011610/13/05 02:20:31  5-MIN KSTC 130820Z AUTO 26006KT 4SM BR SCT007 BKN080 OVC100 12/11 A2999 970 93 900 250/06 RMK AO2
14926KSTC STC20051013022511610/13/05 02:25:31  5-MIN KSTC 130825Z AUTO 25006KT 4SM BR FEW007 BKN080 OVC100 12/11 A2999 960 93 900 250/06 RMK AO2
14926KSTC STC20051013023011610/13/05 02:30:31  5-MIN KSTC 130830Z AUTO 25006KT 4SM BR FEW007 BKN080 OVC100 12/11 A2999 960 96 800 250/06 RMK AO2
14926KSTC STC20051013023510910/13/05 02:35:31  5-MIN KSTC 130835Z AUTO 24006KT 4SM BR BKN080 OVC100 12/11 A2999 960 93 800 240/06 RMK AO2
14926KSTC STC20051013024010910/13/05 02:40:31  5-MIN KSTC 130840Z AUTO 24006KT 4SM BR BKN075 OVC100 12/11 A2999 960 93 800 240/06 RMK AO2
14926KSTC STC20051013024510210/13/05 02:45:31  5-MIN KSTC 130845Z AUTO 24006KT 4SM BR OVC080 12/11 A2999 960 93 800 240/06 RMK AO2
14926KSTC STC20051013025013110/13/05 02:50:31  5-MIN KSTC 130850Z AUTO 24005KT 3SM BR OVC080 12/11 A2999 960 93 800 240/05 RMK AO2 SLP165 60003 T01170106 56009
14926KSTC STC20051013025510210/13/05 02:55:31  5-MIN KSTC 130855Z AUTO 25005KT 3SM BR OVC080 12/11 A2999 970 93 800 250/05 RMK AO2
14926KSTC STC20051013030010210/13/05 03:00:31  5-MIN KSTC 130900Z AUTO 25006KT 3SM BR OVC080 12/11 A2999 960 93 800 250/06 RMK AO2
14926KSTC STC20051013030510210/13/05 03:05:31  5-MIN KSTC 130905Z AUTO 25007KT 3SM BR OVC080 12/11 A2999 960 93 800 250/07 RMK AO2
14926KSTC STC20051013031010210/13/05 03:10:31  5-MIN KSTC 130910Z AUTO 25006KT 3SM BR OVC085 12/11 A2999 960 93 800 250/06 RMK AO2
14926KSTC STC20051013031510910/13/05 03:15:31  5-MIN KSTC 130915Z AUTO 25005KT 3SM BR FEW075 OVC090 12/11 A2999 960 93 800 250/05 RMK AO2
14926KSTC STC20051013032010210/13/05 03:20:31  5-MIN KSTC 130920Z AUTO 25005KT 3SM BR OVC095 11/11 A2999 960 96 800 250/05 RMK AO2
14926KSTC STC20051013032510210/13/05 03:25:31  5-MIN KSTC 130925Z AUTO 25005KT 3SM BR OVC095 11/11 A2999 960 96 800 240/05 RMK AO2
14926KSTC STC20051013033010210/13/05 03:30:31  5-MIN KSTC 130930Z AUTO 25007KT 4SM BR OVC100 11/10 A2999 960 93 800 250/07 RMK AO2
14926KSTC STC20051013033510210/13/05 03:35:31  5-MIN KSTC 130935Z AUTO 25006KT 4SM BR OVC100 11/10 A2999 960 93 800 250/06 RMK AO2
14926KSTC STC20051013034010210/13/05 03:40:31  5-MIN KSTC 130940Z AUTO 25009KT 4SM BR OVC100 11/10 A2999 960 93 800 250/09 RMK AO2
14926KSTC STC20051013034510210/13/05 03:45:31  5-MIN KSTC 130945Z AUTO 26008KT 4SM BR OVC100 11/10 A2999 960 93 800 260/08 RMK AO2
14926KSTC STC20051013035011910/13/05 03:50:31  5-MIN KSTC 130950Z AUTO 27009KT 4SM BR OVC100 11/10 A3000 960 93 800 260/09 RMK AO2 SLP167 T01110100
14926KSTC STC20051013035510910/13/05 03:55:31  5-MIN KSTC 130955Z AUTO 26008KT 4SM BR FEW011 OVC100 11/09 A3000 960 89 800 260/08 RMK AO2
14926KSTC STC20051013040010910/13/05 04:00:31  5-MIN KSTC 131000Z AUTO 26008KT 4SM BR SCT011 OVC100 11/10 A3000 960 93 800 260/08 RMK AO2
14926KSTC STC20051013040510910/13/05 04:05:31  5-MIN KSTC 131005Z AUTO 26008KT 4SM BR BKN011 OVC100 11/10 A3000 960 96 700 260/08 RMK AO2
14926KSTC STC20051013041011610/13/05 04:10:31  5-MIN KSTC 131010Z AUTO 26008KT 4SM BR FEW007 BKN011 OVC100 11/09 A3000 960 93 700 260/08 RMK AO2
14926KSTC STC20051013041511610/13/05 04:15:31  5-MIN KSTC 131015Z AUTO 26008KT 4SM BR SCT007 BKN011 OVC100 11/09 A3000 960 93 700 250/08 RMK AO2
14926KSTC STC20051013042010910/13/05 04:20:31  5-MIN KSTC 131020Z AUTO 26007KT 4SM BR BKN007 OVC011 11/09 A3000 950 93 700 260/07 RMK AO2
14926KSTC STC20051013042510910/13/05 04:25:31  5-MIN KSTC 131025Z AUTO 27010KT 5SM BR BKN007 OVC011 11/09 A3000 950 93 700 270/10 RMK AO2
14926KSTC STC20051013043010910/13/05 04:30:31  5-MIN KSTC 131030Z AUTO 28009KT 5SM BR BKN007 OVC011 11/09 A3000 950 93 700 270/09 RMK AO2
14926KSTC STC20051013043510210/13/05 04:35:31  5-MIN KSTC 131035Z AUTO 28008KT 6SM BR OVC007 11/09 A3000 950 93 700 280/08 RMK AO2
14926KSTC STC20051013044010210/13/05 04:40:31  5-MIN KSTC 131040Z AUTO 27006KT 5SM BR OVC007 11/09 A3000 950 93 700 270/06 RMK AO2
14926KSTC STC20051013044510210/13/05 04:45:31  5-MIN KSTC 131045Z AUTO 26005KT 5SM BR OVC007 11/09 A3000 950 93 700 250/05 RMK AO2
14926KSTC STC20051013045013110/13/05 04:50:31  5-MIN KSTC 131050Z AUTO 26005KT 5SM BR OVC007 11/09 A3000 950 93 700 250/05 RMK AO2 CIG 005V008 SLP170 T01060094
14926KSTC STC20051013045510210/13/05 04:55:31  5-MIN KSTC 131055Z AUTO 26005KT 5SM BR OVC005 11/09 A3000 950 93 700 250/05 RMK AO2
14926KSTC STC20051013050010210/13/05 05:00:31  5-MIN KSTC 131100Z AUTO 26005KT 5SM BR OVC005 10/09 A3000 950 96 600 260/05 RMK AO2
14926KSTC STC20051013050510210/13/05 05:05:31  5-MIN KSTC 131105Z AUTO 26004KT 5SM BR OVC005 10/09 A3000 950 96 600 260/04 RMK AO2
14926KSTC STC20051013051010210/13/05 05:10:31  5-MIN KSTC 131110Z AUTO 25004KT 5SM BR OVC005 10/09 A3000 950 96 600 250/04 RMK AO2
14926KSTC STC20051013051510210/13/05 05:15:31  5-MIN KSTC 131115Z AUTO 26004KT 4SM BR OVC005 11/09 A3000 950 93 700 250/04 RMK AO2
14926KSTC STC20051013052010210/13/05 05:20:31  5-MIN KSTC 131120Z AUTO 27007KT 4SM BR OVC005 11/09 A3000 950 93 700 270/07 RMK AO2
14926KSTC STC20051013052510210/13/05 05:25:31  5-MIN KSTC 131125Z AUTO 27006KT 4SM BR OVC005 11/09 A3000 950 93 700 270/06 RMK AO2
14926KSTC STC20051013053010210/13/05 05:30:31  5-MIN KSTC 131130Z AUTO 28006KT 4SM BR OVC005 11/09 A3000 950 93 700 270/06 RMK AO2
14926KSTC STC20051013053511410/13/05 05:35:31  5-MIN KSTC 131135Z AUTO 28007KT 4SM BR OVC005 11/09 A3000 950 93 700 270/07 RMK AO2 CIG 005V009
14926KSTC STC20051013054011410/13/05 05:40:31  5-MIN KSTC 131140Z AUTO 28007KT 4SM BR OVC005 11/09 A3000 950 93 700 270/07 RMK AO2 CIG 005V010
14926KSTC STC20051013054511410/13/05 05:45:31  5-MIN KSTC 131145Z AUTO 27005KT 4SM BR OVC005 11/09 A3000 950 93 700 270/05 RMK AO2 CIG 005V010
14926KSTC STC20051013055016110/13/05 05:50:31  5-MIN KSTC 131150Z AUTO 26005KT 4SM BR OVC007 11/09 A3000 950 93 700 260/05 RMK AO2 CIG 005V010 SLP170 60003 70021 T01060094 10128 20100 58002
14926KSTC STC20051013055510210/13/05 05:55:31  5-MIN KSTC 131155Z AUTO 27005KT 4SM BR OVC007 11/09 A3000 950 93 700 270/05 RMK AO2
14926KSTC STC20051013060010210/13/05 06:00:31  5-MIN KSTC 131200Z AUTO 27005KT 4SM BR OVC007 11/09 A3000 950 93 700 270/05 RMK AO2
14926KSTC STC20051013060510210/13/05 06:05:31  5-MIN KSTC 131205Z AUTO 27004KT 4SM BR OVC007 11/09 A3000 950 93 700 270/04 RMK AO2
14926KSTC STC20051013061009710/13/05 06:10:31  5-MIN KSTC 131210Z 26004KT 4SM BR OVC007 11/09 A3000 950 93 700 260/04 RMK AO2
14926KSTC STC20051013061509710/13/05 06:15:31  5-MIN KSTC 131215Z 27006KT 4SM BR OVC007 11/09 A3000 950 93 700 260/06 RMK AO2
14926KSTC STC20051013062010910/13/05 06:20:31  5-MIN KSTC 131220Z 27006KT 5SM BR OVC007 11/09 A3000 950 93 700 260/06 RMK AO2 CIG 006V010
14926KSTC STC20051013062510910/13/05 06:25:31  5-MIN KSTC 131225Z 28006KT 5SM BR OVC007 11/09 A3000 950 93 700 270/06 RMK AO2 CIG 006V011
14926KSTC STC20051013063010910/13/05 06:30:31  5-MIN KSTC 131230Z 27007KT 5SM BR OVC009 11/09 A3000 950 93 700 260/07 RMK AO2 CIG 006V011
14926KSTC STC20051013133509610/13/05 13:35:31  5-MIN KSTC 131935Z 26008KT 10SM BKN022 15/09 A3000 960 66 1200 260/08 RMK AO2
14926KSTC STC20051013134009610/13/05 13:40:31  5-MIN KSTC 131940Z 25008KT 10SM BKN022 15/09 A3000 960 69 1200 240/08 RMK AO2
14926KSTC STC20051013134509610/13/05 13:45:31  5-MIN KSTC 131945Z 24007KT 10SM OVC022 15/09 A3000 960 69 1200 240/07 RMK AO2
14926KSTC STC20051013135011310/13/05 13:50:31  5-MIN KSTC 131950Z 25008KT 10SM OVC024 15/09 A3000 960 69 1200 240/08 RMK AO2 SLP167 T01500094
14926KSTC STC20051013135509610/13/05 13:55:31  5-MIN KSTC 131955Z 24009KT 10SM OVC024 14/09 A3000 960 69 1200 240/09 RMK AO2
14926KSTC STC20051013140009610/13/05 14:00:31  5-MIN KSTC 132000Z 25008KT 10SM OVC024 14/09 A2999 960 69 1200 240/08 RMK AO2
14926KSTC STC20051013140509610/13/05 14:05:31  5-MIN KSTC 132005Z 29006KT 10SM OVC024 14/09 A2999 960 69 1200 290/06 RMK AO2
14926KSTC STC20051013141009610/13/05 14:10:31  5-MIN KSTC 132010Z 27009KT 10SM OVC024 14/09 A2999 960 69 1200 270/09 RMK AO2
14926KSTC STC20051013141509610/13/05 14:15:31  5-MIN KSTC 132015Z 27009KT 10SM OVC026 14/09 A2999 960 69 1200 260/09 RMK AO2
14926KSTC STC20051013142009610/13/05 14:20:31  5-MIN KSTC 132020Z 26007KT 10SM OVC026 14/09 A2999 960 69 1200 260/07 RMK AO2
14926KSTC STC20051013142509610/13/05 14:25:31  5-MIN KSTC 132025Z 26007KT 10SM OVC026 14/09 A2999 960 69 1200 260/07 RMK AO2
14926KSTC STC20051013143009610/13/05 14:30:31  5-MIN KSTC 132030Z 24006KT 10SM OVC026 16/09 A2999 960 64 1300 240/06 RMK AO2
14926KSTC STC20051013143509610/13/05 14:35:31  5-MIN KSTC 132035Z 26007KT 10SM OVC026 16/09 A2999 960 64 1300 250/07 RMK AO2
14926KSTC STC20051013144009610/13/05 14:40:31  5-MIN KSTC 132040Z 25008KT 10SM OVC024 16/09 A2999 960 64 1300 240/08 RMK AO2
14926KSTC STC20051013144510210/13/05 14:45:31  5-MIN KSTC 132045Z 28006G14KT 10SM OVC024 16/09 A2999 960 64 1300 280/06G14 RMK AO2
14926KSTC STC20051013145012510/13/05 14:50:31  5-MIN KSTC 132050Z 27007G14KT 10SM OVC024 15/09 A2999 960 66 1200 260/07G14 RMK AO2 SLP166 T01500089 58001
14926KSTC STC20051013145509610/13/05 14:55:31  5-MIN KSTC 132055Z 26006KT 10SM OVC024 15/09 A2999 960 66 1200 260/06 RMK AO2
14926KSTC STC20051013150009610/13/05 15:00:31  5-MIN KSTC 132100Z 28008KT 10SM OVC024 14/08 A2999 960 66 1200 280/08 RMK AO2
14926KSTC STC20051013150509610/13/05 15:05:31  5-MIN KSTC 132105Z 27005KT 10SM OVC024 14/09 A2999 960 69 1200 270/05 RMK AO2
14926KSTC STC20051013151010110/13/05 15:10:31  5-MIN KSTC 132110Z AUTO 24006KT 10SM OVC024 15/09 A2999 960 66 1200 230/06 RMK AO2
14926KSTC STC20051013151510110/13/05 15:15:31  5-MIN KSTC 132115Z AUTO 20004KT 10SM OVC026 15/09 A2999 970 66 1200 200/04 RMK AO2
14926KSTC STC20051013152010110/13/05 15:20:31  5-MIN KSTC 132120Z AUTO 23004KT 10SM BKN026 15/09 A2999 970 66 1200 220/04 RMK AO2
14926KSTC STC20051013152510110/13/05 15:25:31  5-MIN KSTC 132125Z AUTO 24004KT 10SM BKN026 16/09 A2998 970 64 1300 240/04 RMK AO2
14926KSTC STC20051013153010110/13/05 15:30:31  5-MIN KSTC 132130Z AUTO 24004KT 10SM SCT026 15/09 A2998 970 66 1200 230/04 RMK AO2
14926KSTC STC20051013153510110/13/05 15:35:31  5-MIN KSTC 132135Z AUTO 25005KT 10SM FEW026 16/09 A2998 970 64 1300 250/05 RMK AO2
14926KSTC STC20051013154010110/13/05 15:40:31  5-MIN KSTC 132140Z AUTO 22007KT 10SM FEW026 16/09 A2998 970 64 1300 220/07 RMK AO2
14926KSTC STC20051013154509810/13/05 15:45:31  5-MIN KSTC 132145Z AUTO 22007KT 10SM CLR 16/09 A2998 970 64 1300 220/07 RMK AO2
14926KSTC STC20051013155011510/13/05 15:50:31  5-MIN KSTC 132150Z AUTO 21007KT 10SM CLR 16/09 A2998 970 64 1300 210/07 RMK AO2 SLP164 T01560089
14926KSTC STC20051013155509810/13/05 15:55:31  5-MIN KSTC 132155Z AUTO 22005KT 10SM CLR 16/09 A2998 970 64 1300 220/05 RMK AO2
14926KSTC STC20051013160009810/13/05 16:00:31  5-MIN KSTC 132200Z AUTO VRB05KT 10SM CLR 16/09 A2998 970 64 1300 VRB/05 RMK AO2
14926KSTC STC20051013160509810/13/05 16:05:31  5-MIN KSTC 132205Z AUTO 25006KT 10SM CLR 16/09 A2998 970 64 1300 240/06 RMK AO2
14926KSTC STC20051013161009810/13/05 16:10:31  5-MIN KSTC 132210Z AUTO 21006KT 10SM CLR 16/09 A2998 970 64 1300 210/06 RMK AO2
14926KSTC STC20051013161510110/13/05 16:15:31  5-MIN KSTC 132215Z AUTO 22005KT 10SM FEW036 16/09 A2998 970 64 1300 220/05 RMK AO2
14926KSTC STC20051013162010110/13/05 16:20:31  5-MIN KSTC 132220Z AUTO 21005KT 10SM SCT036 16/09 A2998 970 64 1300 200/05 RMK AO2
14926KSTC STC20051013162510810/13/05 16:25:31  5-MIN KSTC 132225Z AUTO 20005KT 10SM FEW029 SCT036 16/09 A2998 970 64 1300 200/05 RMK AO2
14926KSTC STC20051013163010810/13/05 16:30:31  5-MIN KSTC 132230Z AUTO 20006KT 10SM FEW029 SCT036 16/09 A2998 970 67 1300 200/06 RMK AO2
14926KSTC STC20051013163510110/13/05 16:35:31  5-MIN KSTC 132235Z AUTO 20005KT 10SM FEW037 15/09 A2998 970 66 1200 200/05 RMK AO2
14926KSTC STC20051013164010110/13/05 16:40:31  5-MIN KSTC 132240Z AUTO 22006KT 10SM FEW037 15/09 A2998 970 66 1200 210/06 RMK AO2
14926KSTC STC20051013164510110/13/05 16:45:31  5-MIN KSTC 132245Z AUTO 20004KT 10SM FEW037 15/09 A2998 970 66 1200 200/04 RMK AO2
14926KSTC STC20051013165011510/13/05 16:50:31  5-MIN KSTC 132250Z AUTO 20005KT 10SM CLR 15/09 A2998 970 66 1200 190/05 RMK AO2 SLP162 T01500089
14926KSTC STC20051013165509810/13/05 16:55:31  5-MIN KSTC 132255Z AUTO 19004KT 10SM CLR 14/09 A2998 970 69 1200 190/04 RMK AO2
14926KSTC STC20051013170009810/13/05 17:00:31  5-MIN KSTC 132300Z AUTO 18004KT 10SM CLR 14/09 A2998 970 72 1200 170/04 RMK AO2
14926KSTC STC20051013170509810/13/05 17:05:31  5-MIN KSTC 132305Z AUTO 16003KT 10SM CLR 14/09 A2998 970 74 1100 160/03 RMK AO2
14926KSTC STC20051013171009810/13/05 17:10:31  5-MIN KSTC 132310Z AUTO 16004KT 10SM CLR 14/09 A2998 970 74 1100 160/04 RMK AO2
14926KSTC STC20051013171509810/13/05 17:15:31  5-MIN KSTC 132315Z AUTO 17004KT 10SM CLR 13/09 A2998 970 74 1000 160/04 RMK AO2
14926KSTC STC20051013172009810/13/05 17:20:31  5-MIN KSTC 132320Z AUTO 16004KT 10SM CLR 13/09 A2998 970 77 1000 160/04 RMK AO2
14926KSTC STC20051013172509810/13/05 17:25:31  5-MIN KSTC 132325Z AUTO 16004KT 10SM CLR 13/09 A2998 970 80 1000 150/04 RMK AO2
14926KSTC STC20051013173009810/13/05 17:30:31  5-MIN KSTC 132330Z AUTO 16004KT 10SM CLR 13/09 A2998 970 80 1000 160/04 RMK AO2
14926KSTC STC20051013173509710/13/05 17:35:31  5-MIN KSTC 132335Z AUTO 16004KT 10SM CLR 12/09 A2998 970 83 900 160/04 RMK AO2
14926KSTC STC20051013174009710/13/05 17:40:31  5-MIN KSTC 132340Z AUTO 16004KT 10SM CLR 12/09 A2998 970 86 800 160/04 RMK AO2
14926KSTC STC20051013174509710/13/05 17:45:31  5-MIN KSTC 132345Z AUTO 16004KT 10SM CLR 12/09 A2998 970 83 800 160/04 RMK AO2
14926KSTC STC20051013175013210/13/05 17:50:31  5-MIN KSTC 132350Z AUTO 15004KT 10SM CLR 12/09 A2998 970 83 800 150/04 RMK AO2 SLP163 T01170089 10156 20117 56008
14926KSTC STC20051013175509710/13/05 17:55:31  5-MIN KSTC 132355Z AUTO 15005KT 10SM CLR 12/09 A2998 970 83 800 150/05 RMK AO2
14926KSTC STC20051013180009710/13/05 18:00:31  5-MIN KSTC 140000Z AUTO 15005KT 10SM CLR 12/09 A2998 980 83 800 150/05 RMK AO2
14926KSTC STC20051013180509710/13/05 18:05:31  5-MIN KSTC 140005Z AUTO 15005KT 10SM CLR 12/09 A2998 970 83 800 140/05 RMK AO2
14926KSTC STC20051013181009710/13/05 18:10:31  5-MIN KSTC 140010Z AUTO 15005KT 10SM CLR 12/09 A2998 970 83 800 140/05 RMK AO2
14926KSTC STC20051013181509710/13/05 18:15:31  5-MIN KSTC 140015Z AUTO 14005KT 10SM CLR 12/09 A2997 980 83 800 140/05 RMK AO2
14926KSTC STC20051013182009710/13/05 18:20:31  5-MIN KSTC 140020Z AUTO 14005KT 10SM CLR 12/09 A2997 980 83 800 140/05 RMK AO2
14926KSTC STC20051013182509710/13/05 18:25:31  5-MIN KSTC 140025Z AUTO 14004KT 10SM CLR 12/09 A2997 980 83 800 130/04 RMK AO2
14926KSTC STC20051013183009710/13/05 18:30:31  5-MIN KSTC 140030Z AUTO 14004KT 10SM CLR 11/09 A2997 980 86 800 140/04 RMK AO2
14926KSTC STC20051013183509710/13/05 18:35:31  5-MIN KSTC 140035Z AUTO 14005KT 10SM CLR 11/09 A2998 980 86 800 140/05 RMK AO2
14926KSTC STC20051013184009710/13/05 18:40:31  5-MIN KSTC 140040Z AUTO 14004KT 10SM CLR 11/09 A2997 980 86 800 130/04 RMK AO2
14926KSTC STC20051013184509710/13/05 18:45:31  5-MIN KSTC 140045Z AUTO 14004KT 10SM CLR 11/09 A2998 980 86 800 140/04 RMK AO2
14926KSTC STC20051013185011410/13/05 18:50:31  5-MIN KSTC 140050Z AUTO 14004KT 10SM CLR 11/09 A2998 970 86 800 140/04 RMK AO2 SLP163 T01110089
14926KSTC STC20051013185509710/13/05 18:55:31  5-MIN KSTC 140055Z AUTO 14004KT 10SM CLR 11/09 A2998 970 86 800 140/04 RMK AO2
14926KSTC STC20051013190009710/13/05 19:00:31  5-MIN KSTC 140100Z AUTO 14005KT 10SM CLR 11/08 A2998 970 86 700 140/05 RMK AO2
14926KSTC STC20051013190509710/13/05 19:05:31  5-MIN KSTC 140105Z AUTO 14004KT 10SM CLR 11/08 A2998 970 86 700 140/04 RMK AO2
14926KSTC STC20051013191009710/13/05 19:10:31  5-MIN KSTC 140110Z AUTO 14004KT 10SM CLR 10/08 A2998 970 89 600 140/04 RMK AO2
14926KSTC STC20051013191509710/13/05 19:15:31  5-MIN KSTC 140115Z AUTO 14004KT 10SM CLR 11/08 A2998 970 86 700 130/04 RMK AO2
14926KSTC STC20051013192009710/13/05 19:20:31  5-MIN KSTC 140120Z AUTO 14003KT 10SM CLR 11/08 A2998 970 86 700 130/03 RMK AO2
14926KSTC STC20051013192509710/13/05 19:25:31  5-MIN KSTC 140125Z AUTO 14003KT 10SM CLR 10/08 A2998 980 89 600 140/03 RMK AO2
14926KSTC STC20051013193009710/13/05 19:30:31  5-MIN KSTC 140130Z AUTO 14003KT 10SM CLR 10/08 A2997 980 89 600 130/03 RMK AO2
14926KSTC STC20051013193509710/13/05 19:35:31  5-MIN KSTC 140135Z AUTO 14003KT 10SM CLR 10/08 A2998 980 89 600 140/03 RMK AO2
14926KSTC STC20051013194009710/13/05 19:40:31  5-MIN KSTC 140140Z AUTO 00000KT 10SM CLR 09/08 A2997 980 89 600 000/00 RMK AO2
14926KSTC STC20051013194509710/13/05 19:45:31  5-MIN KSTC 140145Z AUTO 13003KT 10SM CLR 10/08 A2998 980 86 600 130/03 RMK AO2
14926KSTC STC20051013195011410/13/05 19:50:31  5-MIN KSTC 140150Z AUTO 14004KT 10SM CLR 10/08 A2997 980 86 600 140/04 RMK AO2 SLP162 T01000078
14926KSTC STC20051013195509710/13/05 19:55:31  5-MIN KSTC 140155Z AUTO 14004KT 10SM CLR 09/08 A2998 970 89 600 140/04 RMK AO2
14926KSTC STC20051013200009710/13/05 20:00:31  5-MIN KSTC 140200Z AUTO 14005KT 10SM CLR 09/08 A2998 970 89 600 140/05 RMK AO2
14926KSTC STC20051013200509610/13/05 20:05:31  5-MIN KSTC 140205Z AUTO 14005KT 9SM CLR 09/08 A2998 970 89 600 140/05 RMK AO2
14926KSTC STC20051013201009610/13/05 20:10:31  5-MIN KSTC 140210Z AUTO 14005KT 9SM CLR 09/08 A2998 970 93 500 140/05 RMK AO2
14926KSTC STC20051013201509610/13/05 20:15:31  5-MIN KSTC 140215Z AUTO 14005KT 8SM CLR 09/07 A2998 970 89 500 140/05 RMK AO2
14926KSTC STC20051013202009610/13/05 20:20:31  5-MIN KSTC 140220Z AUTO 14005KT 8SM CLR 09/08 A2998 970 93 500 140/05 RMK AO2
14926KSTC STC20051013202509610/13/05 20:25:31  5-MIN KSTC 140225Z AUTO 14005KT 8SM CLR 09/08 A2998 970 93 500 130/05 RMK AO2
14926KSTC STC20051013203009610/13/05 20:30:31  5-MIN KSTC 140230Z AUTO 13004KT 8SM CLR 09/08 A2998 970 89 600 130/04 RMK AO2
14926KSTC STC20051013203509610/13/05 20:35:31  5-MIN KSTC 140235Z AUTO 14004KT 8SM CLR 09/08 A2998 970 93 600 130/04 RMK AO2
14926KSTC STC20051013204009610/13/05 20:40:31  5-MIN KSTC 140240Z AUTO 14004KT 8SM CLR 09/08 A2998 970 93 500 140/04 RMK AO2
14926KSTC STC20051013204509610/13/05 20:45:31  5-MIN KSTC 140245Z AUTO 15003KT 7SM CLR 09/08 A2998 970 93 500 140/03 RMK AO2
14926KSTC STC20051013205012210/13/05 20:50:31  5-MIN KSTC 140250Z AUTO 15003KT 6SM BR CLR 09/08 A2999 970 93 500 150/03 RMK AO2 SLP167 T00890078 56004
14926KSTC STC20051013205509910/13/05 20:55:31  5-MIN KSTC 140255Z AUTO 15003KT 5SM BR CLR 08/08 A2998 970 96 400 140/03 RMK AO2
14926KSTC STC20051013210009910/13/05 21:00:31  5-MIN KSTC 140300Z AUTO 14003KT 5SM BR CLR 08/07 A2998 970 93 400 140/03 RMK AO2
14926KSTC STC20051013210509910/13/05 21:05:31  5-MIN KSTC 140305Z AUTO 14003KT 4SM BR CLR 08/07 A2998 970 93 400 140/03 RMK AO2
14926KSTC STC20051013211009910/13/05 21:10:31  5-MIN KSTC 140310Z AUTO 14003KT 4SM BR CLR 08/07 A2999 970 93 400 140/03 RMK AO2
14926KSTC STC20051013211510210/13/05 21:15:31  5-MIN KSTC 140315Z AUTO 15003KT 4SM BR FEW047 08/07 A2999 970 93 400 150/03 RMK AO2
14926KSTC STC20051013212010210/13/05 21:20:31  5-MIN KSTC 140320Z AUTO 15003KT 4SM BR FEW045 08/07 A2998 970 93 400 150/03 RMK AO2
14926KSTC STC20051013212510210/13/05 21:25:31  5-MIN KSTC 140325Z AUTO 15003KT 5SM BR FEW045 08/08 A2998 970 96 400 140/03 RMK AO2
14926KSTC STC20051013213010210/13/05 21:30:31  5-MIN KSTC 140330Z AUTO 15003KT 5SM BR FEW045 08/07 A2998 970 93 400 140/03 RMK AO2
14926KSTC STC20051013213510210/13/05 21:35:31  5-MIN KSTC 140335Z AUTO 00000KT 5SM BR FEW045 08/07 A2998 970 96 400 000/00 RMK AO2
14926KSTC STC20051013214010210/13/05 21:40:31  5-MIN KSTC 140340Z AUTO 14003KT 5SM BR FEW045 08/07 A2998 970 93 400 140/03 RMK AO2
14926KSTC STC20051013214509910/13/05 21:45:31  5-MIN KSTC 140345Z AUTO 15004KT 4SM BR CLR 08/07 A2998 970 96 400 140/04 RMK AO2
14926KSTC STC20051013215011610/13/05 21:50:31  5-MIN KSTC 140350Z AUTO 14004KT 5SM BR CLR 08/07 A2998 970 96 400 140/04 RMK AO2 SLP164 T00780072
14926KSTC STC20051013215509410/13/05 21:55:31  5-MIN KSTC 140355Z 14003KT 5SM BR CLR 08/07 A2998 970 93 400 140/03 RMK AO2
14926KSTC STC20051013220009910/13/05 22:00:31  5-MIN KSTC 140400Z AUTO 14003KT 5SM BR CLR 08/07 A2998 980 93 400 140/03 RMK AO2
14926KSTC STC20051013220509910/13/05 22:05:31  5-MIN KSTC 140405Z AUTO 14004KT 4SM BR CLR 08/07 A2997 980 96 400 140/04 RMK AO2
14926KSTC STC20051013221009910/13/05 22:10:31  5-MIN KSTC 140410Z AUTO 14004KT 3SM BR CLR 08/07 A2997 980 93 400 140/04 RMK AO2
14926KSTC STC20051013221509910/13/05 22:15:31  5-MIN KSTC 140415Z AUTO 14003KT 3SM BR CLR 08/07 A2998 970 93 400 140/03 RMK AO2
14926KSTC STC20051013222009910/13/05 22:20:31  5-MIN KSTC 140420Z AUTO 15003KT 3SM BR CLR 08/07 A2998 970 93 400 140/03 RMK AO2
14926KSTC STC20051013222509910/13/05 22:25:31  5-MIN KSTC 140425Z AUTO 15004KT 3SM BR CLR 08/07 A2997 980 93 400 150/04 RMK AO2
14926KSTC STC20051013223010310/13/05 22:30:31  5-MIN KSTC 140430Z AUTO 15005KT 2 1/2SM BR CLR 07/07 A2997 980 96 300 150/05 RMK AO2
14926KSTC STC20051013223509910/13/05 22:35:31  5-MIN KSTC 140435Z AUTO 15004KT 2SM BR CLR 07/07 A2997 980 96 300 150/04 RMK AO2
14926KSTC STC20051013224009910/13/05 22:40:31  5-MIN KSTC 140440Z AUTO 16004KT 2SM BR CLR 07/07 A2997 980 96 300 160/04 RMK AO2
14926KSTC STC20051013224510310/13/05 22:45:31  5-MIN KSTC 140445Z AUTO 17004KT 2 1/2SM BR CLR 07/07 A2997 980 96 300 160/04 RMK AO2
14926KSTC STC20051013225011610/13/05 22:50:31  5-MIN KSTC 140450Z AUTO 18003KT 3SM BR CLR 07/07 A2997 980 96 300 180/03 RMK AO2 SLP161 T00720067
14926KSTC STC20051013225509910/13/05 22:55:31  5-MIN KSTC 140455Z AUTO 00000KT 3SM BR CLR 07/07 A2997 980 96 300 000/00 RMK AO2
14926KSTC STC20051013230009910/13/05 23:00:31  5-MIN KSTC 140500Z AUTO 00000KT 4SM BR CLR 08/07 A2996 990 93 400 000/00 RMK AO2
14926KSTC STC20051013230509910/13/05 23:05:31  5-MIN KSTC 140505Z AUTO 00000KT 4SM BR CLR 08/07 A2996 990 96 400 000/00 RMK AO2
14926KSTC STC20051013231009910/13/05 23:10:31  5-MIN KSTC 140510Z AUTO 00000KT 4SM BR CLR 08/07 A2997 980 93 400 000/00 RMK AO2
14926KSTC STC20051013231509910/13/05 23:15:31  5-MIN KSTC 140515Z AUTO 00000KT 4SM BR CLR 08/07 A2997 980 93 400 000/00 RMK AO2
14926KSTC STC20051013232009910/13/05 23:20:31  5-MIN KSTC 140520Z AUTO 00000KT 4SM BR CLR 08/07 A2997 980 93 400 000/00 RMK AO2
14926KSTC STC20051013232509910/13/05 23:25:31  5-MIN KSTC 140525Z AUTO 00000KT 4SM BR CLR 08/07 A2996 990 93 400 000/00 RMK AO2
14926KSTC STC20051013233009910/13/05 23:30:31  5-MIN KSTC 140530Z AUTO 17003KT 3SM BR CLR 07/07 A2996 990 96 300 160/03 RMK AO2
14926KSTC STC20051013233509910/13/05 23:35:31  5-MIN KSTC 140535Z AUTO 17003KT 3SM BR CLR 07/07 A2997 980 96 300 170/03 RMK AO2
14926KSTC STC20051013234009910/13/05 23:40:31  5-MIN KSTC 140540Z AUTO 17003KT 3SM BR CLR 07/07 A2997 980 96 300 170/03 RMK AO2
14926KSTC STC20051013234509910/13/05 23:45:31  5-MIN KSTC 140545Z AUTO 17003KT 3SM BR CLR 07/07 A2997 980 96 300 170/03 RMK AO2
14926KSTC STC20051013235014410/13/05 23:50:31  5-MIN KSTC 140550Z AUTO 16003KT 4SM BR CLR 08/07 A2996 990 93 400 160/03 RMK AO2 SLP159 T00780067 10117 20072 401560072 53003
14926KSTC STC20051013235509910/13/05 23:55:31  5-MIN KSTC 140555Z AUTO 16004KT 4SM BR CLR 08/07 A2996 990 93 400 160/04 RMK AO2
14926KSTC STC20051014000009910/14/05 00:00:32  5-MIN KSTC 140600Z AUTO 17004KT 4SM BR CLR 07/07 A2996 990 96 300 170/04 RMK AO2
14926KSTC STC20051014000509910/14/05 00:05:31  5-MIN KSTC 140605Z AUTO 16003KT 4SM BR CLR 07/06 A2996 990 93 300 160/03 RMK AO2
14926KSTC STC20051014001009910/14/05 00:10:31  5-MIN KSTC 140610Z AUTO 16003KT 4SM BR CLR 07/07 A2996 990 96 300 160/03 RMK AO2
14926KSTC STC20051014001509910/14/05 00:15:31  5-MIN KSTC 140615Z AUTO 16003KT 4SM BR CLR 07/06 A2996 990 96 300 150/03 RMK AO2
14926KSTC STC20051014002009910/14/05 00:20:31  5-MIN KSTC 140620Z AUTO 18003KT 3SM BR CLR 07/06 A2996 990 96 300 180/03 RMK AO2
14926KSTC STC20051014002509910/14/05 00:25:31  5-MIN KSTC 140625Z AUTO 00000KT 3SM BR CLR 07/06 A2996 990 93 300 000/00 RMK AO2
14926KSTC STC20051014003009910/14/05 00:30:31  5-MIN KSTC 140630Z AUTO 00000KT 4SM BR CLR 07/07 A2996 990 96 300 000/00 RMK AO2
14926KSTC STC20051014003509910/14/05 00:35:31  5-MIN KSTC 140635Z AUTO 00000KT 3SM BR CLR 07/07 A2996 990 96 300 000/00 RMK AO2
14926KSTC STC20051014004009910/14/05 00:40:31  5-MIN KSTC 140640Z AUTO 17003KT 3SM BR CLR 07/07 A2996 990 96 300 170/03 RMK AO2
14926KSTC STC20051014004509910/14/05 00:45:31  5-MIN KSTC 140645Z AUTO 18004KT 3SM BR CLR 07/07 A2996 990 96 300 180/04 RMK AO2
14926KSTC STC20051014005011610/14/05 00:50:31  5-MIN KSTC 140650Z AUTO 18004KT 3SM BR CLR 07/07 A2996 990 96 300 180/04 RMK AO2 SLP157 T00720067
14926KSTC STC20051014005509910/14/05 00:55:31  5-MIN KSTC 140655Z AUTO 17003KT 3SM BR CLR 07/07 A2996 990 96 300 170/03 RMK AO2
14926KSTC STC20051014010009910/14/05 01:00:31  5-MIN KSTC 140700Z AUTO 17003KT 3SM BR CLR 07/07 A2996 990 96 300 170/03 RMK AO2
14926KSTC STC20051014010509910/14/05 01:05:31  5-MIN KSTC 140705Z AUTO 17003KT 3SM BR CLR 07/07 A2996 990 96 300 160/03 RMK AO2
14926KSTC STC20051014011010010/14/05 01:10:31  5-MIN KSTC 140710Z AUTO 17003KT 3SM BR CLR 07/07 A2995 1000 96 300 160/03 RMK AO2
14926KSTC STC20051014011510010/14/05 01:15:31  5-MIN KSTC 140715Z AUTO 17003KT 4SM BR CLR 07/07 A2995 1000 96 300 160/03 RMK AO2
14926KSTC STC20051014012010010/14/05 01:20:31  5-MIN KSTC 140720Z AUTO 16003KT 4SM BR CLR 07/07 A2995 1000 96 300 160/03 RMK AO2
14926KSTC STC20051014012510010/14/05 01:25:31  5-MIN KSTC 140725Z AUTO 16004KT 3SM BR CLR 07/07 A2995 1000 96 300 160/04 RMK AO2
14926KSTC STC20051014013010010/14/05 01:30:31  5-MIN KSTC 140730Z AUTO 16004KT 3SM BR CLR 07/06 A2995 1000 93 300 160/04 RMK AO2
14926KSTC STC20051014013510010/14/05 01:35:31  5-MIN KSTC 140735Z AUTO 15005KT 3SM BR CLR 07/06 A2994 1010 93 400 150/05 RMK AO2
14926KSTC STC20051014014010410/14/05 01:40:31  5-MIN KSTC 140740Z AUTO 15005KT 2 1/2SM BR CLR 07/06 A2994 1010 96 300 140/05 RMK AO2
14926KSTC STC20051014014510410/14/05 01:45:31  5-MIN KSTC 140745Z AUTO 15005KT 2 1/2SM BR CLR 07/06 A2994 1010 96 300 140/05 RMK AO2
14926KSTC STC20051014015012110/14/05 01:50:31  5-MIN KSTC 140750Z AUTO 15005KT 2 1/2SM BR CLR 07/06 A2994 1010 96 300 150/05 RMK AO2 SLP150 T00670061
14926KSTC STC20051014015510410/14/05 01:55:31  5-MIN KSTC 140755Z AUTO 15004KT 2 1/2SM BR CLR 07/07 A2994 1010 96 400 150/04 RMK AO2
14926KSTC STC20051014020010410/14/05 02:00:31  5-MIN KSTC 140800Z AUTO 16004KT 2 1/2SM BR CLR 07/07 A2994 1010 96 400 160/04 RMK AO2
14926KSTC STC20051014020510010/14/05 02:05:31  5-MIN KSTC 140805Z AUTO 16004KT 3SM BR CLR 07/07 A2994 1010 96 400 160/04 RMK AO2
14926KSTC STC20051014021010010/14/05 02:10:31  5-MIN KSTC 140810Z AUTO 17004KT 3SM BR CLR 07/07 A2994 1010 96 400 170/04 RMK AO2
14926KSTC STC20051014021510010/14/05 02:15:31  5-MIN KSTC 140815Z AUTO 18004KT 4SM BR CLR 07/07 A2994 1010 96 400 170/04 RMK AO2
14926KSTC STC20051014022010010/14/05 02:20:31  5-MIN KSTC 140820Z AUTO 18004KT 4SM BR CLR 07/07 A2993 1010 96 400 180/04 RMK AO2
14926KSTC STC20051014022510010/14/05 02:25:31  5-MIN KSTC 140825Z AUTO 18004KT 5SM BR CLR 07/07 A2993 1010 96 400 180/04 RMK AO2
14926KSTC STC20051014023010010/14/05 02:30:31  5-MIN KSTC 140830Z AUTO 18004KT 5SM BR CLR 07/07 A2993 1020 96 400 180/04 RMK AO2
14926KSTC STC20051014023510010/14/05 02:35:31  5-MIN KSTC 140835Z AUTO 18004KT 6SM BR CLR 07/07 A2993 1020 96 400 180/04 RMK AO2
14926KSTC STC20051014024010010/14/05 02:40:31  5-MIN KSTC 140840Z AUTO 18005KT 6SM BR CLR 07/07 A2993 1020 96 400 180/05 RMK AO2
14926KSTC STC20051014024510010/14/05 02:45:31  5-MIN KSTC 140845Z AUTO 18004KT 6SM BR CLR 08/07 A2993 1020 93 400 180/04 RMK AO2
14926KSTC STC20051014025012310/14/05 02:50:31  5-MIN KSTC 140850Z AUTO 18005KT 6SM BR CLR 07/07 A2993 1020 96 400 170/05 RMK AO2 SLP147 T00720067 56007
14926KSTC STC20051014025510010/14/05 02:55:31  5-MIN KSTC 140855Z AUTO 19005KT 5SM BR CLR 07/07 A2993 1020 96 400 180/05 RMK AO2
14926KSTC STC20051014030010010/14/05 03:00:31  5-MIN KSTC 140900Z AUTO 19004KT 5SM BR CLR 07/07 A2993 1020 96 400 190/04 RMK AO2
14926KSTC STC20051014030510010/14/05 03:05:31  5-MIN KSTC 140905Z AUTO 19004KT 5SM BR CLR 07/07 A2993 1020 96 400 180/04 RMK AO2
14926KSTC STC20051014031010010/14/05 03:10:31  5-MIN KSTC 140910Z AUTO 19005KT 5SM BR CLR 07/06 A2993 1020 96 300 180/05 RMK AO2
14926KSTC STC20051014031510010/14/05 03:15:31  5-MIN KSTC 140915Z AUTO 18005KT 5SM BR CLR 07/06 A2993 1020 93 400 180/05 RMK AO2
14926KSTC STC20051014032010010/14/05 03:20:31  5-MIN KSTC 140920Z AUTO 18005KT 5SM BR CLR 07/07 A2993 1020 96 400 170/05 RMK AO2
14926KSTC STC20051014032510010/14/05 03:25:31  5-MIN KSTC 140925Z AUTO 18005KT 5SM BR CLR 08/07 A2992 1020 93 400 170/05 RMK AO2
14926KSTC STC20051014033010010/14/05 03:30:31  5-MIN KSTC 140930Z AUTO 18005KT 5SM BR CLR 08/07 A2992 1020 93 400 180/05 RMK AO2
14926KSTC STC20051014033510010/14/05 03:35:31  5-MIN KSTC 140935Z AUTO 18005KT 6SM BR CLR 08/07 A2992 1030 93 400 180/05 RMK AO2
14926KSTC STC20051014034010010/14/05 03:40:31  5-MIN KSTC 140940Z AUTO 18005KT 6SM BR CLR 08/07 A2992 1030 93 400 180/05 RMK AO2
14926KSTC STC20051014034509710/14/05 03:45:31  5-MIN KSTC 140945Z AUTO 18006KT 7SM CLR 08/07 A2991 1030 93 500 180/06 RMK AO2
14926KSTC STC20051014035011410/14/05 03:50:31  5-MIN KSTC 140950Z AUTO 18006KT 7SM CLR 08/07 A2991 1030 93 500 180/06 RMK AO2 SLP140 T00780067
14926KSTC STC20051014035509710/14/05 03:55:31  5-MIN KSTC 140955Z AUTO 18006KT 8SM CLR 08/07 A2991 1030 93 500 180/06 RMK AO2
14926KSTC STC20051014040009710/14/05 04:00:31  5-MIN KSTC 141000Z AUTO 18006KT 8SM CLR 08/07 A2991 1030 93 500 180/06 RMK AO2
14926KSTC STC20051014040509710/14/05 04:05:31  5-MIN KSTC 141005Z AUTO 18006KT 8SM CLR 08/07 A2991 1030 93 500 170/06 RMK AO2
14926KSTC STC20051014041009710/14/05 04:10:31  5-MIN KSTC 141010Z AUTO 18007KT 9SM CLR 08/07 A2991 1030 93 500 180/07 RMK AO2
14926KSTC STC20051014041509710/14/05 04:15:31  5-MIN KSTC 141015Z AUTO 18006KT 9SM CLR 08/07 A2991 1030 93 500 180/06 RMK AO2
14926KSTC STC20051014042009710/14/05 04:20:31  5-MIN KSTC 141020Z AUTO 18006KT 9SM CLR 08/07 A2991 1030 93 500 180/06 RMK AO2
14926KSTC STC20051014042509710/14/05 04:25:31  5-MIN KSTC 141025Z AUTO 18006KT 9SM CLR 08/07 A2991 1030 93 500 180/06 RMK AO2
14926KSTC STC20051014043009710/14/05 04:30:31  5-MIN KSTC 141030Z AUTO 18006KT 9SM CLR 08/07 A2991 1030 93 500 180/06 RMK AO2
14926KSTC STC20051014043509710/14/05 04:35:31  5-MIN KSTC 141035Z AUTO 18005KT 9SM CLR 08/06 A2991 1030 89 500 180/05 RMK AO2
14926KSTC STC20051014044009710/14/05 04:40:31  5-MIN KSTC 141040Z AUTO 18005KT 9SM CLR 08/06 A2991 1030 89 500 180/05 RMK AO2
14926KSTC STC20051014044509810/14/05 04:45:31  5-MIN KSTC 141045Z AUTO 19005KT 10SM CLR 08/06 A2991 1030 89 500 180/05 RMK AO2
14926KSTC STC20051014045011510/14/05 04:50:31  5-MIN KSTC 141050Z AUTO 18006KT 10SM CLR 07/06 A2991 1040 93 400 180/06 RMK AO2 SLP141 T00720061
14926KSTC STC20051014045509810/14/05 04:55:31  5-MIN KSTC 141055Z AUTO 18006KT 10SM CLR 07/06 A2991 1030 93 400 180/06 RMK AO2
14926KSTC STC20051014050009810/14/05 05:00:31  5-MIN KSTC 141100Z AUTO 18006KT 10SM CLR 07/06 A2991 1030 93 400 180/06 RMK AO2
14926KSTC STC20051014050509810/14/05 05:05:31  5-MIN KSTC 141105Z AUTO 18006KT 10SM CLR 07/06 A2991 1040 93 400 180/06 RMK AO2
14926KSTC STC20051014051009810/14/05 05:10:31  5-MIN KSTC 141110Z AUTO 18005KT 10SM CLR 07/06 A2991 1030 89 400 180/05 RMK AO2
14926KSTC STC20051014051509810/14/05 05:15:31  5-MIN KSTC 141115Z AUTO 19006KT 10SM CLR 07/06 A2991 1030 89 400 190/06 RMK AO2
14926KSTC STC20051014052009810/14/05 05:20:31  5-MIN KSTC 141120Z AUTO 19006KT 10SM CLR 07/06 A2991 1030 89 400 190/06 RMK AO2
14926KSTC STC20051014052509810/14/05 05:25:31  5-MIN KSTC 141125Z AUTO 19005KT 10SM CLR 07/06 A2992 1030 89 400 190/05 RMK AO2
14926KSTC STC20051014053010110/14/05 05:30:31  5-MIN KSTC 141130Z AUTO 19005KT 10SM FEW110 07/06 A2992 1030 89 400 190/05 RMK AO2
14926KSTC STC20051014053510110/14/05 05:35:31  5-MIN KSTC 141135Z AUTO 19005KT 10SM FEW110 07/06 A2991 1030 89 400 180/05 RMK AO2
14926KSTC STC20051014054009810/14/05 05:40:31  5-MIN KSTC 141140Z AUTO 18006KT 10SM CLR 07/06 A2991 1030 89 400 180/06 RMK AO2
14926KSTC STC20051014054509810/14/05 05:45:31  5-MIN KSTC 141145Z AUTO 19005KT 10SM CLR 07/06 A2991 1030 89 400 180/05 RMK AO2
14926KSTC STC20051014055013310/14/05 05:50:31  5-MIN KSTC 141150Z AUTO 18005KT 10SM CLR 07/06 A2991 1030 89 400 180/05 RMK AO2 SLP142 T00720056 10078 20067 58011
14926KSTC STC20051014055509310/14/05 05:55:31  5-MIN KSTC 141155Z 19005KT 10SM CLR 07/06 A2991 1040 93 300 180/05 RMK AO2
14926KSTC STC20051014060009310/14/05 06:00:31  5-MIN KSTC 141200Z 18005KT 10SM CLR 07/06 A2991 1040 93 300 180/05 RMK AO2
14926KSTC STC20051014060509310/14/05 06:05:31  5-MIN KSTC 141205Z 19005KT 10SM CLR 07/06 A2991 1040 89 400 190/05 RMK AO2
14926KSTC STC20051014061009310/14/05 06:10:31  5-MIN KSTC 141210Z 20005KT 10SM CLR 07/06 A2991 1040 89 400 190/05 RMK AO2
14926KSTC STC20051014061509310/14/05 06:15:31  5-MIN KSTC 141215Z 21005KT 10SM CLR 07/06 A2991 1030 93 300 210/05 RMK AO2
14926KSTC STC20051014062009310/14/05 06:20:31  5-MIN KSTC 141220Z 22004KT 10SM CLR 07/06 A2991 1030 89 400 210/04 RMK AO2
14926KSTC STC20051014062509310/14/05 06:25:31  5-MIN KSTC 141225Z 21004KT 10SM CLR 07/06 A2991 1030 89 400 210/04 RMK AO2
14926KSTC STC20051014063009310/14/05 06:30:31  5-MIN KSTC 141230Z 22003KT 10SM CLR 07/06 A2992 1030 89 400 220/03 RMK AO2
14926KSTC STC20051014063509310/14/05 06:35:31  5-MIN KSTC 141235Z 24004KT 10SM CLR 08/06 A2992 1020 86 400 230/04 RMK AO2
14926KSTC STC20051014064009310/14/05 06:40:31  5-MIN KSTC 141240Z 22005KT 10SM CLR 08/06 A2992 1020 86 400 220/05 RMK AO2
14926KSTC STC20051014064509310/14/05 06:45:31  5-MIN KSTC 141245Z 21005KT 10SM CLR 08/06 A2992 1030 86 400 210/05 RMK AO2
14926KSTC STC20051014065011010/14/05 06:50:31  5-MIN KSTC 141250Z 20006KT 10SM CLR 07/06 A2992 1030 89 400 190/06 RMK AO2 SLP143 T00720056
14926KSTC STC20051014065509310/14/05 06:55:31  5-MIN KSTC 141255Z 19006KT 10SM CLR 08/06 A2991 1040 86 500 190/06 RMK AO2
14926KSTC STC20051014070009310/14/05 07:00:31  5-MIN KSTC 141300Z 19006KT 10SM CLR 08/06 A2991 1030 86 500 190/06 RMK AO2
14926KSTC STC20051014070509310/14/05 07:05:31  5-MIN KSTC 141305Z 20006KT 10SM CLR 08/06 A2991 1030 86 500 200/06 RMK AO2
14926KSTC STC20051014071009310/14/05 07:10:31  5-MIN KSTC 141310Z 20006KT 10SM CLR 08/06 A2992 1030 89 400 200/06 RMK AO2
14926KSTC STC20051014071509310/14/05 07:15:31  5-MIN KSTC 141315Z 20006KT 10SM CLR 08/06 A2992 1030 89 400 200/06 RMK AO2
14926KSTC STC20051014072009310/14/05 07:20:31  5-MIN KSTC 141320Z 21007KT 10SM CLR 08/07 A2991 1030 89 500 200/07 RMK AO2
14926KSTC STC20051014072509310/14/05 07:25:31  5-MIN KSTC 141325Z 20007KT 10SM CLR 09/07 A2991 1030 86 600 200/07 RMK AO2
14926KSTC STC20051014073009310/14/05 07:30:31  5-MIN KSTC 141330Z 20005KT 10SM CLR 09/07 A2992 1030 89 600 200/05 RMK AO2
14926KSTC STC20051014073509310/14/05 07:35:31  5-MIN KSTC 141335Z 21003KT 10SM CLR 09/08 A2992 1030 89 600 200/03 RMK AO2
14926KSTC STC20051014074009310/14/05 07:40:31  5-MIN KSTC 141340Z 21004KT 10SM CLR 10/08 A2992 1030 86 700 210/04 RMK AO2
14926KSTC STC20051014074509310/14/05 07:45:31  5-MIN KSTC 141345Z 22005KT 10SM CLR 10/07 A2992 1030 83 700 220/05 RMK AO2
14926KSTC STC20051014075011010/14/05 07:50:31  5-MIN KSTC 141350Z 23005KT 10SM CLR 10/07 A2992 1030 83 700 220/05 RMK AO2 SLP144 T01000072
14926KSTC STC20051014075509310/14/05 07:55:31  5-MIN KSTC 141355Z 23005KT 10SM CLR 11/08 A2992 1030 83 800 220/05 RMK AO2
14926KSTC STC20051014080009310/14/05 08:00:31  5-MIN KSTC 141400Z 23006KT 10SM CLR 11/07 A2992 1030 80 800 220/06 RMK AO2
14926KSTC STC20051014080509310/14/05 08:05:31  5-MIN KSTC 141405Z 22006KT 10SM CLR 11/08 A2992 1030 83 800 220/06 RMK AO2
14926KSTC STC20051014081009310/14/05 08:10:31  5-MIN KSTC 141410Z 23006KT 10SM CLR 11/07 A2991 1030 77 900 220/06 RMK AO2
14926KSTC STC20051014081509310/14/05 08:15:31  5-MIN KSTC 141415Z 23006KT 10SM CLR 11/08 A2992 1030 80 900 220/06 RMK AO2
14926KSTC STC20051014082009310/14/05 08:20:31  5-MIN KSTC 141420Z 24006KT 10SM CLR 11/08 A2992 1030 80 800 230/06 RMK AO2
14926KSTC STC20051014082509310/14/05 08:25:31  5-MIN KSTC 141425Z 24007KT 10SM CLR 12/08 A2992 1030 77 900 240/07 RMK AO2
14926KSTC STC20051014083009410/14/05 08:30:31  5-MIN KSTC 141430Z 25007KT 10SM CLR 12/08 A2993 1020 77 1000 240/07 RMK AO2
14926KSTC STC20051014083509410/14/05 08:35:31  5-MIN KSTC 141435Z 25008KT 10SM CLR 12/08 A2992 1020 77 1000 250/08 RMK AO2
14926KSTC STC20051014084009410/14/05 08:40:31  5-MIN KSTC 141440Z 26007KT 10SM CLR 12/08 A2993 1020 77 1000 250/07 RMK AO2
14926KSTC STC20051014084509410/14/05 08:45:31  5-MIN KSTC 141445Z 26008KT 10SM CLR 13/08 A2992 1020 71 1000 260/08 RMK AO2
14926KSTC STC20051014085011710/14/05 08:50:31  5-MIN KSTC 141450Z 26007KT 10SM CLR 13/08 A2992 1020 69 1100 260/07 RMK AO2 SLP145 T01330078 56006
14926KSTC STC20051014085509410/14/05 08:55:31  5-MIN KSTC 141455Z 26006KT 10SM CLR 13/08 A2992 1020 69 1100 260/06 RMK AO2
14926KSTC STC20051014090009410/14/05 09:00:31  5-MIN KSTC 141500Z 26009KT 10SM CLR 14/08 A2993 1020 66 1200 250/09 RMK AO2
14926KSTC STC20051014090509410/14/05 09:05:31  5-MIN KSTC 141505Z 27009KT 10SM CLR 14/08 A2993 1020 66 1200 260/09 RMK AO2
14926KSTC STC20051014091009410/14/05 09:10:31  5-MIN KSTC 141510Z 28007KT 10SM CLR 14/08 A2993 1020 66 1200 270/07 RMK AO2
14926KSTC STC20051014091509410/14/05 09:15:31  5-MIN KSTC 141515Z 28009KT 10SM CLR 14/08 A2993 1020 64 1200 280/09 RMK AO2
14926KSTC STC20051014092009410/14/05 09:20:31  5-MIN KSTC 141520Z 28008KT 10SM CLR 15/08 A2993 1020 62 1300 280/08 RMK AO2
14926KSTC STC20051014092509410/14/05 09:25:31  5-MIN KSTC 141525Z 29008KT 10SM CLR 15/07 A2993 1020 59 1300 290/08 RMK AO2
14926KSTC STC20051014093009410/14/05 09:30:31  5-MIN KSTC 141530Z 28010KT 10SM CLR 16/07 A2993 1020 57 1400 280/10 RMK AO2
14926KSTC STC20051014093509410/14/05 09:35:31  5-MIN KSTC 141535Z 27009KT 10SM CLR 16/07 A2993 1020 55 1400 270/09 RMK AO2
14926KSTC STC20051014094009410/14/05 09:40:31  5-MIN KSTC 141540Z 29009KT 10SM CLR 16/07 A2993 1020 53 1400 290/09 RMK AO2
14926KSTC STC20051014094509410/14/05 09:45:31  5-MIN KSTC 141545Z 27011KT 10SM CLR 17/07 A2993 1020 53 1500 270/11 RMK AO2
14926KSTC STC20051014095011110/14/05 09:50:31  5-MIN KSTC 141550Z 28010KT 10SM CLR 17/07 A2993 1020 51 1500 280/10 RMK AO2 SLP146 T01670067
14926KSTC STC20051014095509410/14/05 09:55:31  5-MIN KSTC 141555Z 28009KT 10SM CLR 17/07 A2993 1020 53 1500 270/09 RMK AO2
14926KSTC STC20051014100009410/14/05 10:00:31  5-MIN KSTC 141600Z 28011KT 10SM CLR 17/07 A2993 1010 51 1500 270/11 RMK AO2
14926KSTC STC20051014100509410/14/05 10:05:31  5-MIN KSTC 141605Z 27012KT 10SM CLR 17/07 A2994 1010 53 1500 270/12 RMK AO2
14926KSTC STC20051014101009410/14/05 10:10:31  5-MIN KSTC 141610Z 29011KT 10SM CLR 17/07 A2994 1010 49 1500 280/11 RMK AO2
14926KSTC STC20051014101509410/14/05 10:15:31  5-MIN KSTC 141615Z 29012KT 10SM CLR 17/07 A2994 1010 49 1500 280/12 RMK AO2
14926KSTC STC20051014102009410/14/05 10:20:31  5-MIN KSTC 141620Z 29012KT 10SM CLR 17/07 A2994 1010 51 1500 290/12 RMK AO2
14926KSTC STC20051014102509410/14/05 10:25:31  5-MIN KSTC 141625Z 29012KT 10SM CLR 17/07 A2994 1010 51 1500 290/12 RMK AO2
14926KSTC STC20051014103010010/14/05 10:30:31  5-MIN KSTC 141630Z 27007G16KT 10SM CLR 18/07 A2994 1010 49 1600 270/07G16 RMK AO2
14926KSTC STC20051014103509410/14/05 10:35:31  5-MIN KSTC 141635Z 28012KT 10SM CLR 18/08 A2994 1010 51 1600 270/12 RMK AO2
14926KSTC STC20051014104009410/14/05 10:40:31  5-MIN KSTC 141640Z 28013KT 10SM CLR 18/08 A2995 1000 50 1700 280/13 RMK AO2
14926KSTC STC20051014104509410/14/05 10:45:31  5-MIN KSTC 141645Z 30016KT 10SM CLR 18/08 A2995 1000 50 1700 300/16 RMK AO2
14926KSTC STC20051014105011110/14/05 10:50:31  5-MIN KSTC 141650Z 30013KT 10SM CLR 18/07 A2995 1000 48 1700 300/13 RMK AO2 SLP152 T01830072
14926KSTC STC20051014105510010/14/05 10:55:31  5-MIN KSTC 141655Z 31013G20KT 10SM CLR 18/08 A2995 1000 50 1700 310/13G20 RMK AO2
14926KSTC STC20051014110010010/14/05 11:00:31  5-MIN KSTC 141700Z 29012G20KT 10SM CLR 18/08 A2995 1000 50 1700 290/12G20 RMK AO2
14926KSTC STC20051014110509410/14/05 11:05:31  5-MIN KSTC 141705Z 31013KT 10SM CLR 18/07 A2995 1000 48 1700 310/13 RMK AO2
14926KSTC STC20051014111009410/14/05 11:10:31  5-MIN KSTC 141710Z 29013KT 10SM CLR 19/08 A2995 1000 48 1700 290/13 RMK AO2
14926KSTC STC20051014111509410/14/05 11:15:31  5-MIN KSTC 141715Z 29015KT 10SM CLR 19/07 A2995 1000 46 1700 290/15 RMK AO2
14926KSTC STC20051014112009310/14/05 11:20:31  5-MIN KSTC 141720Z 30014KT 10SM CLR 19/07 A2996 990 44 1700 290/14 RMK AO2
14926KSTC STC20051014112509310/14/05 11:25:31  5-MIN KSTC 141725Z 29012KT 10SM CLR 19/07 A2996 990 46 1700 280/12 RMK AO2
14926KSTC STC20051014113009310/14/05 11:30:31  5-MIN KSTC 141730Z 32012KT 10SM CLR 19/07 A2996 990 44 1800 320/12 RMK AO2
14926KSTC STC20051014113509310/14/05 11:35:31  5-MIN KSTC 141735Z 29014KT 10SM CLR 19/07 A2996 990 44 1800 290/14 RMK AO2
14926KSTC STC20051014114009310/14/05 11:40:31  5-MIN KSTC 141740Z 30012KT 10SM CLR 19/07 A2996 990 44 1800 300/12 RMK AO2
14926KSTC STC20051014114509310/14/05 11:45:31  5-MIN KSTC 141745Z 30017KT 10SM CLR 19/07 A2996 990 43 1800 300/17 RMK AO2
14926KSTC STC20051014115013410/14/05 11:50:31  5-MIN KSTC 141750Z 31015G20KT 10SM CLR 19/07 A2996 990 43 1800 310/15G20 RMK AO2 SLP155 T01940067 10194 20067 53004
14926KSTC STC20051014115509910/14/05 11:55:31  5-MIN KSTC 141755Z 29015G20KT 10SM CLR 19/06 A2996 990 41 1800 290/15G20 RMK AO2
14926KSTC STC20051014120009310/14/05 12:00:31  5-MIN KSTC 141800Z 30014KT 10SM CLR 19/06 A2996 990 41 1800 290/14 RMK AO2
14926KSTC STC20051014120509310/14/05 12:05:31  5-MIN KSTC 141805Z 30012KT 10SM CLR 20/06 A2996 990 40 1800 300/12 RMK AO2
14926KSTC STC20051014121009310/14/05 12:10:31  5-MIN KSTC 141810Z 31013KT 10SM CLR 20/06 A2996 990 38 1800 310/13 RMK AO2
14926KSTC STC20051014121509310/14/05 12:15:31  5-MIN KSTC 141815Z 31014KT 10SM CLR 20/06 A2996 990 40 1800 310/14 RMK AO2
14926KSTC STC20051014122009310/14/05 12:20:31  5-MIN KSTC 141820Z 29012KT 10SM CLR 20/06 A2996 990 38 1800 290/12 RMK AO2
14926KSTC STC20051014122509310/14/05 12:25:31  5-MIN KSTC 141825Z 30012KT 10SM CLR 21/06 A2996 990 38 1900 300/12 RMK AO2
14926KSTC STC20051014123009910/14/05 12:30:31  5-MIN KSTC 141830Z 30015G18KT 10SM CLR 21/06 A2996 990 37 1900 300/15G18 RMK AO2
14926KSTC STC20051014123509910/14/05 12:35:31  5-MIN KSTC 141835Z 30014G19KT 10SM CLR 21/06 A2996 990 38 1900 300/14G19 RMK AO2
14926KSTC STC20051014124009910/14/05 12:40:31  5-MIN KSTC 141840Z 29015G21KT 10SM CLR 21/06 A2996 990 37 1900 290/15G21 RMK AO2
14926KSTC STC20051014124509910/14/05 12:45:31  5-MIN KSTC 141845Z 29016G23KT 10SM CLR 21/05 A2997 980 35 1900 290/16G23 RMK AO2
14926KSTC STC20051014125011610/14/05 12:50:31  5-MIN KSTC 141850Z 30018G23KT 10SM CLR 20/04 A2997 980 35 1800 300/18G23 RMK AO2 SLP159 T02000044
14926KSTC STC20051014125509910/14/05 12:55:31  5-MIN KSTC 141855Z 29018G22KT 10SM CLR 20/04 A2997 980 35 1800 290/18G22 RMK AO2
14926KSTC STC20051014130009910/14/05 13:00:31  5-MIN KSTC 141900Z 30017G25KT 10SM CLR 20/04 A2997 980 35 1800 300/17G25 RMK AO2
14926KSTC STC20051014130509910/14/05 13:05:31  5-MIN KSTC 141905Z 32016G25KT 10SM CLR 20/04 A2997 980 35 1800 320/16G25 RMK AO2
14926KSTC STC20051014131009910/14/05 13:10:31  5-MIN KSTC 141910Z 32015G22KT 10SM CLR 20/05 A2997 980 37 1800 320/15G22 RMK AO2
14926KSTC STC20051014131509310/14/05 13:15:31  5-MIN KSTC 141915Z 31013KT 10SM CLR 21/05 A2997 980 35 1900 300/13 RMK AO2
14926KSTC STC20051014132009310/14/05 13:20:31  5-MIN KSTC 141920Z 29013KT 10SM CLR 21/05 A2997 980 35 1900 290/13 RMK AO2
14926KSTC STC20051015102009210/15/05 10:20:31  5-MIN KSTC 151620Z 32008KT 10SM CLR 13/03 A3018 780 48 800 320/08 RMK AO2
14926KSTC STC20051015102509210/15/05 10:25:31  5-MIN KSTC 151625Z 33008KT 10SM CLR 13/02 A3018 780 46 800 320/08 RMK AO2
14926KSTC STC20051015103009210/15/05 10:30:31  5-MIN KSTC 151630Z 31011KT 10SM CLR 13/03 A3018 780 48 800 310/11 RMK AO2
14926KSTC STC20051015103509210/15/05 10:35:31  5-MIN KSTC 151635Z 32011KT 10SM CLR 13/02 A3018 790 46 800 310/11 RMK AO2
14926KSTC STC20051015104009210/15/05 10:40:31  5-MIN KSTC 151640Z 31008KT 10SM CLR 13/02 A3018 790 46 800 310/08 RMK AO2
14926KSTC STC20051015104509210/15/05 10:45:31  5-MIN KSTC 151645Z 32011KT 10SM CLR 14/03 A3018 790 47 900 320/11 RMK AO2
14926KSTC STC20051015105011510/15/05 10:50:31  5-MIN KSTC 151650Z 32013G16KT 10SM CLR 13/02 A3018 790 46 800 310/13G16 RMK AO2 SLP232 T01330022
14926KSTC STC20051015105509810/15/05 10:55:31  5-MIN KSTC 151655Z 33009G16KT 10SM CLR 14/02 A3018 790 45 900 320/09G16 RMK AO2
14926KSTC STC20051015110009210/15/05 11:00:31  5-MIN KSTC 151700Z 31012KT 10SM CLR 14/02 A3018 790 45 900 310/12 RMK AO2
14926KSTC STC20051015110509210/15/05 11:05:31  5-MIN KSTC 151705Z 32009KT 10SM CLR 14/02 A3018 790 45 900 320/09 RMK AO2
14926KSTC STC20051015111009210/15/05 11:10:31  5-MIN KSTC 151710Z 30012KT 10SM CLR 14/02 A3018 790 41 900 300/12 RMK AO2
14926KSTC STC20051015111509210/15/05 11:15:31  5-MIN KSTC 151715Z 30014KT 10SM CLR 14/02 A3018 790 41 900 300/14 RMK AO2
14926KSTC STC20051015112009210/15/05 11:20:31  5-MIN KSTC 151720Z 30011KT 10SM CLR 14/01 A3018 790 40 900 290/11 RMK AO2
14926KSTC STC20051015112509210/15/05 11:25:31  5-MIN KSTC 151725Z 32008KT 10SM CLR 14/01 A3018 790 40 900 310/08 RMK AO2
14926KSTC STC20051015113009310/15/05 11:30:31  5-MIN KSTC 151730Z 31010KT 10SM CLR 14/01 A3018 790 40 1000 310/10 RMK AO2
14926KSTC STC20051015113509310/15/05 11:35:31  5-MIN KSTC 151735Z 31009KT 10SM CLR 14/02 A3017 790 41 1000 310/09 RMK AO2
14926KSTC STC20051015114009310/15/05 11:40:31  5-MIN KSTC 151740Z 30010KT 10SM CLR 15/02 A3017 790 42 1000 300/10 RMK AO2
14926KSTC STC20051015114509310/15/05 11:45:31  5-MIN KSTC 151745Z 30012KT 10SM CLR 15/02 A3017 790 40 1000 300/12 RMK AO2
14926KSTC STC20051015115012810/15/05 11:50:31  5-MIN KSTC 151750Z 30010KT 10SM CLR 15/01 A3017 800 38 1000 300/10 RMK AO2 SLP228 T01500011 10150 20039 51008
14926KSTC STC20051015115509310/15/05 11:55:31  5-MIN KSTC 151755Z 30010KT 10SM CLR 15/01 A3017 800 38 1000 290/10 RMK AO2
14926KSTC STC20051015120009310/15/05 12:00:31  5-MIN KSTC 151800Z 30010KT 10SM CLR 15/01 A3017 800 37 1000 300/10 RMK AO2
14926KSTC STC20051015120509310/15/05 12:05:31  5-MIN KSTC 151805Z 33008KT 10SM CLR 15/02 A3016 800 40 1000 330/08 RMK AO2
14926KSTC STC20051015121009910/15/05 12:10:31  5-MIN KSTC 151810Z 31011G16KT 10SM CLR 15/02 A3016 800 40 1000 310/11G16 RMK AO2
14926KSTC STC20051015121509310/15/05 12:15:31  5-MIN KSTC 151815Z 31012KT 10SM CLR 15/01 A3016 800 38 1000 310/12 RMK AO2
14926KSTC STC20051015122009310/15/05 12:20:31  5-MIN KSTC 151820Z 31007KT 10SM CLR 15/01 A3016 810 38 1000 310/07 RMK AO2
14926KSTC STC20051015122509310/15/05 12:25:31  5-MIN KSTC 151825Z 30012KT 10SM CLR 16/01 A3016 810 37 1100 300/12 RMK AO2
14926KSTC STC20051015123009310/15/05 12:30:31  5-MIN KSTC 151830Z 31013KT 10SM CLR 16/01 A3016 810 36 1100 300/13 RMK AO2
14926KSTC STC20051015123509310/15/05 12:35:31  5-MIN KSTC 151835Z 32010KT 10SM CLR 16/01 A3015 810 36 1100 320/10 RMK AO2
14926KSTC STC20051015124009310/15/05 12:40:31  5-MIN KSTC 151840Z 30010KT 10SM CLR 16/01 A3015 810 37 1100 300/10 RMK AO2
14926KSTC STC20051015124509310/15/05 12:45:31  5-MIN KSTC 151845Z 31011KT 10SM CLR 16/01 A3015 810 36 1200 300/11 RMK AO2
14926KSTC STC20051015125011010/15/05 12:50:31  5-MIN KSTC 151850Z 31012KT 10SM CLR 16/01 A3015 810 34 1200 310/12 RMK AO2 SLP222 T01610006
14926KSTC STC20051015125509310/15/05 12:55:31  5-MIN KSTC 151855Z 30008KT 10SM CLR 16/01 A3015 810 34 1200 300/08 RMK AO2
14926KSTC STC20051015130009310/15/05 13:00:31  5-MIN KSTC 151900Z 29012KT 10SM CLR 16/01 A3015 820 36 1200 290/12 RMK AO2
14926KSTC STC20051015130509310/15/05 13:05:31  5-MIN KSTC 151905Z 31012KT 10SM CLR 16/01 A3015 820 36 1200 300/12 RMK AO2
14926KSTC STC20051015131009310/15/05 13:10:31  5-MIN KSTC 151910Z 29011KT 10SM CLR 16/01 A3015 820 34 1200 290/11 RMK AO2
14926KSTC STC20051015131509310/15/05 13:15:31  5-MIN KSTC 151915Z 29007KT 10SM CLR 16/00 A3015 820 33 1200 290/07 RMK AO2
14926KSTC STC20051015132009310/15/05 13:20:31  5-MIN KSTC 151920Z 30011KT 10SM CLR 17/01 A3014 820 33 1200 290/11 RMK AO2
14926KSTC STC20051015132509310/15/05 13:25:31  5-MIN KSTC 151925Z 30009KT 10SM CLR 17/00 A3014 820 32 1200 300/09 RMK AO2
14926KSTC STC20051015133009310/15/05 13:30:31  5-MIN KSTC 151930Z 29010KT 10SM CLR 17/01 A3014 820 33 1200 290/10 RMK AO2
14926KSTC STC20051015133509310/15/05 13:35:31  5-MIN KSTC 151935Z 30011KT 10SM CLR 17/01 A3014 820 33 1200 300/11 RMK AO2
14926KSTC STC20051015134009310/15/05 13:40:31  5-MIN KSTC 151940Z 31010KT 10SM CLR 16/01 A3014 820 34 1200 300/10 RMK AO2
14926KSTC STC20051015134509310/15/05 13:45:31  5-MIN KSTC 151945Z 30011KT 10SM CLR 17/00 A3014 820 32 1300 300/11 RMK AO2
14926KSTC STC20051015135011010/15/05 13:50:31  5-MIN KSTC 151950Z 32009KT 10SM CLR 17/00 A3014 820 32 1300 320/09 RMK AO2 SLP216 T01670000
14926KSTC STC20051015135509310/15/05 13:55:31  5-MIN KSTC 151955Z 32009KT 10SM CLR 17/00 A3014 830 32 1300 310/09 RMK AO2
14926KSTC STC20051015140009310/15/05 14:00:31  5-MIN KSTC 152000Z 32011KT 10SM CLR 17/00 A3014 830 32 1300 310/11 RMK AO2
14926KSTC STC20051015140509310/15/05 14:05:31  5-MIN KSTC 152005Z 31013KT 10SM CLR 17/01 A3013 830 33 1300 300/13 RMK AO2
14926KSTC STC20051015141009310/15/05 14:10:31  5-MIN KSTC 152010Z 32010KT 10SM CLR 17/00 A3013 830 32 1300 310/10 RMK AO2
14926KSTC STC20051015141509310/15/05 14:15:31  5-MIN KSTC 152015Z 31011KT 10SM CLR 17/00 A3013 830 32 1300 310/11 RMK AO2
14926KSTC STC20051015142009310/15/05 14:20:31  5-MIN KSTC 152020Z 32010KT 10SM CLR 17/00 A3013 830 32 1300 320/10 RMK AO2
14926KSTC STC20051015142509410/15/05 14:25:31  5-MIN KSTC 152025Z 32010KT 10SM CLR 17/M01 A3013 830 31 1300 320/10 RMK AO2
14926KSTC STC20051015143009410/15/05 14:30:31  5-MIN KSTC 152030Z 32008KT 10SM CLR 17/M01 A3013 830 31 1300 310/08 RMK AO2
14926KSTC STC20051015143509310/15/05 14:35:31  5-MIN KSTC 152035Z 30010KT 10SM CLR 17/00 A3013 830 32 1300 300/10 RMK AO2
14926KSTC STC20051015144009310/15/05 14:40:31  5-MIN KSTC 152040Z 30009KT 10SM CLR 17/01 A3013 830 33 1300 290/09 RMK AO2
14926KSTC STC20051015144509310/15/05 14:45:31  5-MIN KSTC 152045Z 30006KT 10SM CLR 17/00 A3013 840 32 1300 300/06 RMK AO2
14926KSTC STC20051015145011610/15/05 14:50:31  5-MIN KSTC 152050Z 31009KT 10SM CLR 17/00 A3013 830 32 1300 310/09 RMK AO2 SLP214 T01670000 58003
14926KSTC STC20051015145509410/15/05 14:55:31  5-MIN KSTC 152055Z 33008KT 10SM CLR 17/M01 A3013 840 29 1300 320/08 RMK AO2
14926KSTC STC20051015150009410/15/05 15:00:31  5-MIN KSTC 152100Z 30007KT 10SM CLR 17/M01 A3013 840 31 1300 300/07 RMK AO2
14926KSTC STC20051015150509310/15/05 15:05:31  5-MIN KSTC 152105Z 31007KT 10SM CLR 17/01 A3013 840 33 1300 310/07 RMK AO2
14926KSTC STC20051015151009310/15/05 15:10:31  5-MIN KSTC 152110Z 32007KT 10SM CLR 17/00 A3012 840 32 1300 320/07 RMK AO2
14926KSTC STC20051015151509410/15/05 15:15:31  5-MIN KSTC 152115Z 34009KT 10SM CLR 17/M01 A3012 840 31 1300 330/09 RMK AO2
14926KSTC STC20051015152009410/15/05 15:20:31  5-MIN KSTC 152120Z 31010KT 10SM CLR 17/M01 A3012 840 31 1300 310/10 RMK AO2
14926KSTC STC20051015152509410/15/05 15:25:31  5-MIN KSTC 152125Z 32008KT 10SM CLR 17/M01 A3012 840 31 1300 320/08 RMK AO2
14926KSTC STC20051015153009410/15/05 15:30:31  5-MIN KSTC 152130Z 31008KT 10SM CLR 17/M01 A3012 840 31 1300 310/08 RMK AO2
14926KSTC STC20051015153509310/15/05 15:35:31  5-MIN KSTC 152135Z 29008KT 10SM CLR 17/00 A3012 840 32 1300 290/08 RMK AO2
14926KSTC STC20051015154009410/15/05 15:40:31  5-MIN KSTC 152140Z 32010KT 10SM CLR 17/M01 A3012 840 31 1300 320/10 RMK AO2
14926KSTC STC20051015154509410/15/05 15:45:31  5-MIN KSTC 152145Z 32007KT 10SM CLR 17/M01 A3012 840 31 1300 320/07 RMK AO2
14926KSTC STC20051015155011010/15/05 15:50:31  5-MIN KSTC 152150Z 32008KT 10SM CLR 17/00 A3012 840 32 1300 320/08 RMK AO2 SLP211 T01670000
14926KSTC STC20051015155509410/15/05 15:55:31  5-MIN KSTC 152155Z 32009KT 10SM CLR 16/M01 A3012 840 32 1200 320/09 RMK AO2
14926KSTC STC20051015160009410/15/05 16:00:31  5-MIN KSTC 152200Z 33008KT 10SM CLR 16/M01 A3012 850 32 1200 330/08 RMK AO2
14926KSTC STC20051015160509410/15/05 16:05:31  5-MIN KSTC 152205Z 33009KT 10SM CLR 16/M01 A3012 840 30 1200 330/09 RMK AO2
14926KSTC STC20051015161009410/15/05 16:10:31  5-MIN KSTC 152210Z 33008KT 10SM CLR 16/M01 A3011 850 30 1200 330/08 RMK AO2
14926KSTC STC20051015161509410/15/05 16:15:31  5-MIN KSTC 152215Z 32008KT 10SM CLR 16/M01 A3011 850 32 1200 320/08 RMK AO2
14926KSTC STC20051015162009410/15/05 16:20:31  5-MIN KSTC 152220Z 33007KT 10SM CLR 16/M01 A3011 850 32 1200 330/07 RMK AO2
14926KSTC STC20051015162509410/15/05 16:25:31  5-MIN KSTC 152225Z 34006KT 10SM CLR 16/M01 A3011 850 32 1200 340/06 RMK AO2
14926KSTC STC20051015163009310/15/05 16:30:31  5-MIN KSTC 152230Z 33007KT 10SM CLR 16/00 A3012 850 33 1200 330/07 RMK AO2
14926KSTC STC20051015163509410/15/05 16:35:31  5-MIN KSTC 152235Z 33005KT 10SM CLR 16/M01 A3012 850 33 1100 330/05 RMK AO2
14926KSTC STC20051015164009310/15/05 16:40:31  5-MIN KSTC 152240Z 33006KT 10SM CLR 16/00 A3012 850 34 1100 330/06 RMK AO2
14926KSTC STC20051015164509310/15/05 16:45:31  5-MIN KSTC 152245Z 32004KT 10SM CLR 15/01 A3012 850 37 1100 320/04 RMK AO2
14926KSTC STC20051015165011010/15/05 16:50:31  5-MIN KSTC 152250Z 32006KT 10SM CLR 15/01 A3012 850 37 1100 320/06 RMK AO2 SLP212 T01500006
14926KSTC STC20051015165509310/15/05 16:55:31  5-MIN KSTC 152255Z 32005KT 10SM CLR 15/01 A3012 850 37 1100 320/05 RMK AO2
14926KSTC STC20051015170009310/15/05 17:00:31  5-MIN KSTC 152300Z 32005KT 10SM CLR 14/01 A3012 850 38 1000 320/05 RMK AO2
14926KSTC STC20051015170509310/15/05 17:05:31  5-MIN KSTC 152305Z 32004KT 10SM CLR 14/01 A3012 850 40 1000 310/04 RMK AO2
14926KSTC STC20051015171009210/15/05 17:10:31  5-MIN KSTC 152310Z 31005KT 10SM CLR 13/02 A3012 850 45 900 300/05 RMK AO2
14926KSTC STC20051015171509210/15/05 17:15:31  5-MIN KSTC 152315Z 30005KT 10SM CLR 13/02 A3012 850 48 800 300/05 RMK AO2
14926KSTC STC20051015172009210/15/05 17:20:31  5-MIN KSTC 152320Z 30005KT 10SM CLR 12/02 A3012 850 48 800 300/05 RMK AO2
14926KSTC STC20051015172509210/15/05 17:25:31  5-MIN KSTC 152325Z 30005KT 10SM CLR 13/01 A3012 850 44 800 300/05 RMK AO2
14926KSTC STC20051015173009210/15/05 17:30:31  5-MIN KSTC 152330Z 29005KT 10SM CLR 12/01 A3012 850 46 800 290/05 RMK AO2
14926KSTC STC20051015173509210/15/05 17:35:31  5-MIN KSTC 152335Z 29005KT 10SM CLR 12/01 A3012 850 48 700 290/05 RMK AO2
14926KSTC STC20051015174009210/15/05 17:40:31  5-MIN KSTC 152340Z 29003KT 10SM CLR 12/01 A3012 850 48 700 280/03 RMK AO2
14926KSTC STC20051015174509210/15/05 17:45:31  5-MIN KSTC 152345Z 30003KT 10SM CLR 12/01 A3011 850 46 700 290/03 RMK AO2
14926KSTC STC20051015175012710/15/05 17:50:31  5-MIN KSTC 152350Z 00000KT 10SM CLR 12/01 A3011 850 46 700 000/00 RMK AO2 SLP211 T01170006 10172 20117 56013
14926KSTC STC20051015175509210/15/05 17:55:31  5-MIN KSTC 152355Z 31003KT 10SM CLR 11/01 A3011 850 50 600 300/03 RMK AO2
14926KSTC STC20051015180009210/15/05 18:00:31  5-MIN KSTC 160000Z 31003KT 10SM CLR 11/01 A3011 850 52 600 310/03 RMK AO2
14926KSTC STC20051015180509210/15/05 18:05:31  5-MIN KSTC 160005Z 00000KT 10SM CLR 11/01 A3011 850 52 600 000/00 RMK AO2
14926KSTC STC20051015181009210/15/05 18:10:31  5-MIN KSTC 160010Z 00000KT 10SM CLR 10/01 A3012 850 54 500 000/00 RMK AO2
14926KSTC STC20051015181509210/15/05 18:15:31  5-MIN KSTC 160015Z 00000KT 10SM CLR 09/02 A3012 850 60 400 000/00 RMK AO2
14926KSTC STC20051015182009210/15/05 18:20:31  5-MIN KSTC 160020Z 00000KT 10SM CLR 09/02 A3012 840 63 400 000/00 RMK AO2
14926KSTC STC20051015182509210/15/05 18:25:31  5-MIN KSTC 160025Z 00000KT 10SM CLR 09/02 A3012 840 58 400 000/00 RMK AO2
14926KSTC STC20051015183009210/15/05 18:30:31  5-MIN KSTC 160030Z 00000KT 10SM CLR 09/02 A3012 840 58 400 000/00 RMK AO2
14926KSTC STC20051015183509210/15/05 18:35:31  5-MIN KSTC 160035Z 00000KT 10SM CLR 09/02 A3012 840 58 400 000/00 RMK AO2
14926KSTC STC20051015184009210/15/05 18:40:31  5-MIN KSTC 160040Z 00000KT 10SM CLR 09/02 A3012 840 58 400 000/00 RMK AO2
14926KSTC STC20051015184509210/15/05 18:45:31  5-MIN KSTC 160045Z 00000KT 10SM CLR 09/02 A3012 840 63 300 000/00 RMK AO2
14926KSTC STC20051015185010910/15/05 18:50:31  5-MIN KSTC 160050Z 00000KT 10SM CLR 09/02 A3012 840 63 300 000/00 RMK AO2 SLP216 T00890022
14926KSTC STC20051015185509210/15/05 18:55:31  5-MIN KSTC 160055Z 00000KT 10SM CLR 08/02 A3012 840 65 300 000/00 RMK AO2
14926KSTC STC20051015190009210/15/05 19:00:31  5-MIN KSTC 160100Z 00000KT 10SM CLR 08/02 A3012 840 63 300 000/00 RMK AO2
14926KSTC STC20051015190509210/15/05 19:05:31  5-MIN KSTC 160105Z 00000KT 10SM CLR 08/02 A3012 840 65 200 000/00 RMK AO2
14926KSTC STC20051015191009210/15/05 19:10:31  5-MIN KSTC 160110Z 00000KT 10SM CLR 08/02 A3013 840 65 200 000/00 RMK AO2
14926KSTC STC20051015191509210/15/05 19:15:31  5-MIN KSTC 160115Z 00000KT 10SM CLR 08/02 A3013 840 65 200 000/00 RMK AO2
14926KSTC STC20051015192009210/15/05 19:20:31  5-MIN KSTC 160120Z 00000KT 10SM CLR 07/02 A3013 830 70 100 000/00 RMK AO2
14926KSTC STC20051015192509210/15/05 19:25:31  5-MIN KSTC 160125Z 00000KT 10SM CLR 07/02 A3013 830 70 100 000/00 RMK AO2
14926KSTC STC20051015193009210/15/05 19:30:31  5-MIN KSTC 160130Z 00000KT 10SM CLR 07/02 A3013 830 70 100 000/00 RMK AO2
14926KSTC STC20051015193509210/15/05 19:35:31  5-MIN KSTC 160135Z 00000KT 10SM CLR 07/02 A3013 830 73 100 000/00 RMK AO2
14926KSTC STC20051015194009210/15/05 19:40:31  5-MIN KSTC 160140Z 00000KT 10SM CLR 07/02 A3013 830 73 100 000/00 RMK AO2
14926KSTC STC20051015194509010/15/05 19:45:31  5-MIN KSTC 160145Z 00000KT 10SM CLR 06/02 A3013 830 73 0 000/00 RMK AO2
14926KSTC STC20051015195010910/15/05 19:50:31  5-MIN KSTC 160150Z 00000KT 10SM CLR 07/02 A3013 830 70 100 000/00 RMK AO2 SLP218 T00670017
14926KSTC STC20051015195509210/15/05 19:55:31  5-MIN KSTC 160155Z 00000KT 10SM CLR 07/02 A3013 830 73 100 000/00 RMK AO2
14926KSTC STC20051015200009210/15/05 20:00:31  5-MIN KSTC 160200Z 00000KT 10SM CLR 07/02 A3013 830 73 100 000/00 RMK AO2
14926KSTC STC20051015200509010/15/05 20:05:31  5-MIN KSTC 160205Z 00000KT 10SM CLR 06/02 A3013 830 73 0 000/00 RMK AO2
14926KSTC STC20051015201009010/15/05 20:10:31  5-MIN KSTC 160210Z 00000KT 10SM CLR 06/02 A3013 830 73 0 000/00 RMK AO2
14926KSTC STC20051015201509010/15/05 20:15:31  5-MIN KSTC 160215Z 00000KT 10SM CLR 06/02 A3013 830 76 0 000/00 RMK AO2
14926KSTC STC20051015202009310/15/05 20:20:31  5-MIN KSTC 160220Z 00000KT 10SM CLR 05/02 A3013 830 79 -100 000/00 RMK AO2
14926KSTC STC20051015202509310/15/05 20:25:31  5-MIN KSTC 160225Z 00000KT 10SM CLR 05/02 A3013 830 79 -100 000/00 RMK AO2
14926KSTC STC20051015203009310/15/05 20:30:31  5-MIN KSTC 160230Z 00000KT 10SM CLR 05/02 A3013 830 82 -100 000/00 RMK AO2
14926KSTC STC20051015203509310/15/05 20:35:31  5-MIN KSTC 160235Z 00000KT 10SM CLR 05/02 A3013 830 82 -100 000/00 RMK AO2
14926KSTC STC20051015204009310/15/05 20:40:31  5-MIN KSTC 160240Z 00000KT 10SM CLR 04/02 A3013 830 82 -200 000/00 RMK AO2
14926KSTC STC20051015204509310/15/05 20:45:31  5-MIN KSTC 160245Z 00000KT 10SM CLR 04/02 A3014 830 85 -200 000/00 RMK AO2
14926KSTC STC20051015205011610/15/05 20:50:31  5-MIN KSTC 160250Z 00000KT 10SM CLR 04/02 A3014 830 82 -200 000/00 RMK AO2 SLP221 T00440017 56005
14926KSTC STC20051015205509310/15/05 20:55:31  5-MIN KSTC 160255Z 00000KT 10SM CLR 04/02 A3014 820 82 -200 000/00 RMK AO2
14926KSTC STC20051015210009310/15/05 21:00:31  5-MIN KSTC 160300Z 00000KT 10SM CLR 04/02 A3014 820 82 -200 000/00 RMK AO2
14926KSTC STC20051015210509310/15/05 21:05:31  5-MIN KSTC 160305Z 00000KT 10SM CLR 04/02 A3014 820 85 -200 000/00 RMK AO2
14926KSTC STC20051015211009310/15/05 21:10:31  5-MIN KSTC 160310Z 00000KT 10SM CLR 04/02 A3014 820 85 -200 000/00 RMK AO2
14926KSTC STC20051015211509310/15/05 21:15:31  5-MIN KSTC 160315Z 00000KT 10SM CLR 03/02 A3014 820 89 -300 000/00 RMK AO2
14926KSTC STC20051015212009310/15/05 21:20:31  5-MIN KSTC 160320Z 00000KT 10SM CLR 04/02 A3014 820 82 -200 000/00 RMK AO2
14926KSTC STC20051015212509310/15/05 21:25:31  5-MIN KSTC 160325Z 00000KT 10SM CLR 04/02 A3014 820 89 -200 000/00 RMK AO2
14926KSTC STC20051015213009310/15/05 21:30:31  5-MIN KSTC 160330Z 00000KT 10SM CLR 04/02 A3014 820 89 -200 000/00 RMK AO2
14926KSTC STC20051015213509310/15/05 21:35:31  5-MIN KSTC 160335Z 00000KT 10SM CLR 04/02 A3014 820 85 -200 000/00 RMK AO2
14926KSTC STC20051015214009310/15/05 21:40:31  5-MIN KSTC 160340Z 00000KT 10SM CLR 04/02 A3014 820 89 -200 000/00 RMK AO2
14926KSTC STC20051015214509310/15/05 21:45:31  5-MIN KSTC 160345Z 00000KT 10SM CLR 04/02 A3014 820 85 -200 000/00 RMK AO2
14926KSTC STC20051015215011010/15/05 21:50:31  5-MIN KSTC 160350Z 00000KT 10SM CLR 04/02 A3014 820 85 -200 000/00 RMK AO2 SLP221 T00390017
14926KSTC STC20051015215509810/15/05 21:55:31  5-MIN KSTC 160355Z AUTO 00000KT 10SM CLR 03/02 A3014 820 89 -300 000/00 RMK AO2
14926KSTC STC20051015220009810/15/05 22:00:31  5-MIN KSTC 160400Z AUTO 00000KT 10SM CLR 03/02 A3014 820 89 -300 000/00 RMK AO2
14926KSTC STC20051015220509810/15/05 22:05:31  5-MIN KSTC 160405Z AUTO 00000KT 10SM CLR 03/02 A3014 820 89 -300 000/00 RMK AO2
14926KSTC STC20051015221009810/15/05 22:10:31  5-MIN KSTC 160410Z AUTO 00000KT 10SM CLR 03/02 A3014 820 89 -300 000/00 RMK AO2
14926KSTC STC20051015221509810/15/05 22:15:31  5-MIN KSTC 160415Z AUTO 00000KT 10SM CLR 04/02 A3014 820 85 -200 000/00 RMK AO2
14926KSTC STC20051015222009810/15/05 22:20:31  5-MIN KSTC 160420Z AUTO 00000KT 10SM CLR 04/02 A3014 820 85 -200 000/00 RMK AO2
14926KSTC STC20051015222509810/15/05 22:25:31  5-MIN KSTC 160425Z AUTO 00000KT 10SM CLR 03/02 A3015 820 89 -300 000/00 RMK AO2
14926KSTC STC20051015223009810/15/05 22:30:31  5-MIN KSTC 160430Z AUTO 00000KT 10SM CLR 03/02 A3014 820 89 -300 000/00 RMK AO2
14926KSTC STC20051015223509810/15/05 22:35:31  5-MIN KSTC 160435Z AUTO 00000KT 10SM CLR 03/02 A3014 820 89 -300 000/00 RMK AO2
14926KSTC STC20051015224009810/15/05 22:40:31  5-MIN KSTC 160440Z AUTO 00000KT 10SM CLR 03/02 A3014 820 89 -300 000/00 RMK AO2
14926KSTC STC20051015224509810/15/05 22:45:31  5-MIN KSTC 160445Z AUTO 00000KT 10SM CLR 03/02 A3014 820 89 -300 000/00 RMK AO2
14926KSTC STC20051015225011510/15/05 22:50:31  5-MIN KSTC 160450Z AUTO 00000KT 10SM CLR 03/02 A3014 820 89 -300 000/00 RMK AO2 SLP222 T00330017
14926KSTC STC20051015225509810/15/05 22:55:31  5-MIN KSTC 160455Z AUTO 02003KT 10SM CLR 03/02 A3014 820 92 -400 020/03 RMK AO2
14926KSTC STC20051015230009810/15/05 23:00:31  5-MIN KSTC 160500Z AUTO 00000KT 10SM CLR 03/01 A3015 820 89 -400 000/00 RMK AO2
14926KSTC STC20051015230509810/15/05 23:05:31  5-MIN KSTC 160505Z AUTO 00000KT 10SM CLR 03/01 A3014 820 89 -400 000/00 RMK AO2
14926KSTC STC20051015231009810/15/05 23:10:31  5-MIN KSTC 160510Z AUTO 00000KT 10SM CLR 02/01 A3014 820 92 -400 000/00 RMK AO2
14926KSTC STC20051015231509810/15/05 23:15:31  5-MIN KSTC 160515Z AUTO 00000KT 10SM CLR 03/01 A3014 820 89 -400 000/00 RMK AO2
14926KSTC STC20051015232009810/15/05 23:20:31  5-MIN KSTC 160520Z AUTO 00000KT 10SM CLR 02/01 A3014 820 92 -400 000/00 RMK AO2
14926KSTC STC20051015232509810/15/05 23:25:31  5-MIN KSTC 160525Z AUTO 00000KT 10SM CLR 02/01 A3014 820 92 -400 000/00 RMK AO2
14926KSTC STC20051015233009810/15/05 23:30:31  5-MIN KSTC 160530Z AUTO 00000KT 10SM CLR 03/01 A3014 820 89 -400 000/00 RMK AO2
14926KSTC STC20051015233509810/15/05 23:35:31  5-MIN KSTC 160535Z AUTO 00000KT 10SM CLR 03/01 A3015 820 89 -400 000/00 RMK AO2
14926KSTC STC20051015234009810/15/05 23:40:31  5-MIN KSTC 160540Z AUTO 00000KT 10SM CLR 03/02 A3015 820 92 -400 000/00 RMK AO2
14926KSTC STC20051015234509810/15/05 23:45:31  5-MIN KSTC 160545Z AUTO 00000KT 10SM CLR 02/01 A3015 820 92 -400 000/00 RMK AO2
14926KSTC STC20051015235014310/15/05 23:50:31  5-MIN KSTC 160550Z AUTO 00000KT 10SM CLR 02/01 A3015 820 92 -400 000/00 RMK AO2 SLP223 T00220011 10111 20022 401720022 51009
14926KSTC STC20051015235509810/15/05 23:55:31  5-MIN KSTC 160555Z AUTO 00000KT 10SM CLR 02/01 A3015 820 92 -400 000/00 RMK AO2
14926KSTC STC20051016000009810/16/05 00:00:32  5-MIN KSTC 160600Z AUTO 00000KT 10SM CLR 02/01 A3015 810 92 -500 000/00 RMK AO2
14926KSTC STC20051016000509810/16/05 00:05:31  5-MIN KSTC 160605Z AUTO 00000KT 10SM CLR 02/01 A3015 810 92 -500 000/00 RMK AO2
14926KSTC STC20051016001009810/16/05 00:10:31  5-MIN KSTC 160610Z AUTO 00000KT 10SM CLR 02/01 A3015 810 89 -500 000/00 RMK AO2
14926KSTC STC20051016001509810/16/05 00:15:31  5-MIN KSTC 160615Z AUTO 00000KT 10SM CLR 02/01 A3015 810 92 -500 000/00 RMK AO2
14926KSTC STC20051016002009810/16/05 00:20:31  5-MIN KSTC 160620Z AUTO 00000KT 10SM CLR 02/01 A3015 810 89 -500 000/00 RMK AO2
14926KSTC STC20051016002509810/16/05 00:25:31  5-MIN KSTC 160625Z AUTO 02003KT 10SM CLR 02/01 A3015 810 92 -500 010/03 RMK AO2
14926KSTC STC20051016003009810/16/05 00:30:31  5-MIN KSTC 160630Z AUTO 00000KT 10SM CLR 02/01 A3015 810 92 -500 000/00 RMK AO2
14926KSTC STC20051016003509810/16/05 00:35:31  5-MIN KSTC 160635Z AUTO 00000KT 10SM CLR 02/01 A3015 810 92 -500 000/00 RMK AO2
14926KSTC STC20051016004009810/16/05 00:40:31  5-MIN KSTC 160640Z AUTO 00000KT 10SM CLR 02/01 A3015 810 92 -500 000/00 RMK AO2
14926KSTC STC20051016004509810/16/05 00:45:31  5-MIN KSTC 160645Z AUTO 00000KT 10SM CLR 02/01 A3015 810 96 -500 000/00 RMK AO2
14926KSTC STC20051016005011510/16/05 00:50:31  5-MIN KSTC 160650Z AUTO 00000KT 10SM CLR 01/01 A3015 810 96 -600 000/00 RMK AO2 SLP225 T00110006
14926KSTC STC20051016005509810/16/05 00:55:31  5-MIN KSTC 160655Z AUTO 00000KT 10SM CLR 02/01 A3015 810 92 -500 000/00 RMK AO2
14926KSTC STC20051016010009810/16/05 01:00:31  5-MIN KSTC 160700Z AUTO 00000KT 10SM CLR 02/01 A3015 810 89 -500 000/00 RMK AO2
14926KSTC STC20051016010509810/16/05 01:05:31  5-MIN KSTC 160705Z AUTO 00000KT 10SM CLR 02/01 A3016 810 92 -500 000/00 RMK AO2
14926KSTC STC20051016011009810/16/05 01:10:31  5-MIN KSTC 160710Z AUTO 00000KT 10SM CLR 02/01 A3015 810 92 -500 000/00 RMK AO2
14926KSTC STC20051016011509810/16/05 01:15:31  5-MIN KSTC 160715Z AUTO 00000KT 10SM CLR 02/01 A3016 810 92 -500 000/00 RMK AO2
14926KSTC STC20051016012009810/16/05 01:20:31  5-MIN KSTC 160720Z AUTO 00000KT 10SM CLR 02/01 A3016 810 92 -500 000/00 RMK AO2
14926KSTC STC20051016012509810/16/05 01:25:31  5-MIN KSTC 160725Z AUTO 00000KT 10SM CLR 01/01 A3015 810 96 -600 000/00 RMK AO2
14926KSTC STC20051016013009810/16/05 01:30:31  5-MIN KSTC 160730Z AUTO 00000KT 10SM CLR 02/01 A3015 810 92 -500 000/00 RMK AO2
14926KSTC STC20051016013509810/16/05 01:35:31  5-MIN KSTC 160735Z AUTO 00000KT 10SM CLR 01/00 A3015 810 92 -600 000/00 RMK AO2
14926KSTC STC20051016014009810/16/05 01:40:31  5-MIN KSTC 160740Z AUTO 00000KT 10SM CLR 01/00 A3015 810 92 -600 000/00 RMK AO2
14926KSTC STC20051016014509810/16/05 01:45:31  5-MIN KSTC 160745Z AUTO 00000KT 10SM CLR 01/00 A3015 810 92 -600 000/00 RMK AO2
14926KSTC STC20051016015011510/16/05 01:50:31  5-MIN KSTC 160750Z AUTO 00000KT 10SM CLR 02/01 A3015 810 92 -500 000/00 RMK AO2 SLP224 T00170006
14926KSTC STC20051016015509810/16/05 01:55:31  5-MIN KSTC 160755Z AUTO 00000KT 10SM CLR 01/01 A3015 810 96 -600 000/00 RMK AO2
14926KSTC STC20051016020009810/16/05 02:00:31  5-MIN KSTC 160800Z AUTO 05003KT 10SM CLR 02/01 A3015 820 92 -500 050/03 RMK AO2
14926KSTC STC20051016020509810/16/05 02:05:31  5-MIN KSTC 160805Z AUTO 06003KT 10SM CLR 01/01 A3015 810 96 -600 050/03 RMK AO2
14926KSTC STC20051016021009810/16/05 02:10:31  5-MIN KSTC 160810Z AUTO 06003KT 10SM CLR 02/01 A3015 820 92 -500 050/03 RMK AO2
14926KSTC STC20051016021509810/16/05 02:15:31  5-MIN KSTC 160815Z AUTO 00000KT 10SM CLR 01/01 A3015 810 96 -600 000/00 RMK AO2
14926KSTC STC20051016022009810/16/05 02:20:31  5-MIN KSTC 160820Z AUTO 00000KT 10SM CLR 01/00 A3015 820 92 -600 000/00 RMK AO2
14926KSTC STC20051016022509810/16/05 02:25:31  5-MIN KSTC 160825Z AUTO 00000KT 10SM CLR 01/00 A3015 810 92 -600 000/00 RMK AO2
14926KSTC STC20051016023009810/16/05 02:30:31  5-MIN KSTC 160830Z AUTO 00000KT 10SM CLR 01/00 A3015 810 92 -600 000/00 RMK AO2
14926KSTC STC20051016023509810/16/05 02:35:31  5-MIN KSTC 160835Z AUTO 00000KT 10SM CLR 01/00 A3015 810 92 -600 000/00 RMK AO2
14926KSTC STC20051016024009910/16/05 02:40:31  5-MIN KSTC 160840Z AUTO 00000KT 10SM CLR 01/M01 A3015 820 92 -700 000/00 RMK AO2
14926KSTC STC20051016024509910/16/05 02:45:31  5-MIN KSTC 160845Z AUTO 00000KT 10SM CLR 01/M01 A3015 820 92 -700 000/00 RMK AO2
14926KSTC STC20051016025012210/16/05 02:50:31  5-MIN KSTC 160850Z AUTO 00000KT 10SM CLR 01/M01 A3015 820 92 -700 000/00 RMK AO2 SLP223 T00061006 53002
14926KSTC STC20051016025509810/16/05 02:55:31  5-MIN KSTC 160855Z AUTO 00000KT 10SM CLR 01/00 A3015 820 92 -600 000/00 RMK AO2
14926KSTC STC20051016030009810/16/05 03:00:31  5-MIN KSTC 160900Z AUTO 00000KT 10SM CLR 01/00 A3015 820 92 -600 000/00 RMK AO2
14926KSTC STC20051016030509810/16/05 03:05:31  5-MIN KSTC 160905Z AUTO 00000KT 10SM CLR 02/00 A3015 820 89 -500 000/00 RMK AO2
14926KSTC STC20051016031009810/16/05 03:10:31  5-MIN KSTC 160910Z AUTO 08003KT 10SM CLR 02/00 A3015 820 89 -500 070/03 RMK AO2
14926KSTC STC20051016031509810/16/05 03:15:31  5-MIN KSTC 160915Z AUTO 08003KT 10SM CLR 01/00 A3015 820 92 -600 070/03 RMK AO2
14926KSTC STC20051016032009810/16/05 03:20:31  5-MIN KSTC 160920Z AUTO 00000KT 10SM CLR 01/00 A3015 810 92 -600 000/00 RMK AO2
14926KSTC STC20051016032509910/16/05 03:25:31  5-MIN KSTC 160925Z AUTO 00000KT 10SM CLR 01/M01 A3015 810 92 -700 000/00 RMK AO2
14926KSTC STC20051016033009810/16/05 03:30:31  5-MIN KSTC 160930Z AUTO 00000KT 10SM CLR 01/00 A3015 810 92 -600 000/00 RMK AO2
14926KSTC STC20051016033509810/16/05 03:35:31  5-MIN KSTC 160935Z AUTO 00000KT 10SM CLR 02/00 A3016 810 85 -500 000/00 RMK AO2
14926KSTC STC20051016034009910/16/05 03:40:31  5-MIN KSTC 160940Z AUTO 00000KT 10SM CLR 01/M01 A3016 810 89 -600 000/00 RMK AO2
14926KSTC STC20051016034509910/16/05 03:45:31  5-MIN KSTC 160945Z AUTO 00000KT 10SM CLR 01/M01 A3015 810 89 -600 000/00 RMK AO2
14926KSTC STC20051016035011610/16/05 03:50:31  5-MIN KSTC 160950Z AUTO 08003KT 10SM CLR 01/M01 A3016 810 89 -600 080/03 RMK AO2 SLP226 T00111006
14926KSTC STC20051016035509810/16/05 03:55:31  5-MIN KSTC 160955Z AUTO 00000KT 10SM CLR 01/00 A3016 810 96 -700 000/00 RMK AO2
14926KSTC STC20051016040009910/16/05 04:00:31  5-MIN KSTC 161000Z AUTO 08003KT 10SM CLR 01/M01 A3016 810 92 -700 080/03 RMK AO2
14926KSTC STC20051016040509910/16/05 04:05:31  5-MIN KSTC 161005Z AUTO 08003KT 10SM CLR 01/M01 A3016 810 89 -600 080/03 RMK AO2
14926KSTC STC20051016041009910/16/05 04:10:31  5-MIN KSTC 161010Z AUTO 00000KT 10SM CLR 01/M01 A3016 810 89 -600 000/00 RMK AO2
14926KSTC STC20051016041509810/16/05 04:15:31  5-MIN KSTC 161015Z AUTO 08003KT 10SM CLR 02/00 A3016 810 89 -500 080/03 RMK AO2
14926KSTC STC20051016042009910/16/05 04:20:31  5-MIN KSTC 161020Z AUTO 00000KT 10SM CLR 02/M01 A3016 810 85 -500 000/00 RMK AO2
14926KSTC STC20051016042509910/16/05 04:25:31  5-MIN KSTC 161025Z AUTO 00000KT 10SM CLR 02/M01 A3016 800 85 -500 000/00 RMK AO2
14926KSTC STC20051016043009910/16/05 04:30:31  5-MIN KSTC 161030Z AUTO 00000KT 10SM CLR 02/M01 A3016 810 85 -500 000/00 RMK AO2
14926KSTC STC20051016043509910/16/05 04:35:31  5-MIN KSTC 161035Z AUTO 00000KT 10SM CLR 02/M01 A3016 810 85 -500 000/00 RMK AO2
14926KSTC STC20051016044009910/16/05 04:40:31  5-MIN KSTC 161040Z AUTO 00000KT 10SM CLR 02/M01 A3016 800 82 -500 000/00 RMK AO2
14926KSTC STC20051016044509910/16/05 04:45:31  5-MIN KSTC 161045Z AUTO 00000KT 10SM CLR 02/M01 A3016 810 82 -500 000/00 RMK AO2
14926KSTC STC20051016045011610/16/05 04:50:31  5-MIN KSTC 161050Z AUTO 00000KT 10SM CLR 02/M01 A3016 810 85 -500 000/00 RMK AO2 SLP227 T00171006
14926KSTC STC20051016045509910/16/05 04:55:31  5-MIN KSTC 161055Z AUTO 00000KT 10SM CLR 02/M01 A3016 810 85 -500 000/00 RMK AO2
14926KSTC STC20051016050009910/16/05 05:00:31  5-MIN KSTC 161100Z AUTO 00000KT 10SM CLR 01/M01 A3016 810 89 -600 000/00 RMK AO2
14926KSTC STC20051016050509910/16/05 05:05:31  5-MIN KSTC 161105Z AUTO 00000KT 10SM CLR 01/M01 A3016 810 89 -600 000/00 RMK AO2
14926KSTC STC20051016051009910/16/05 05:10:31  5-MIN KSTC 161110Z AUTO 00000KT 10SM CLR 02/M01 A3016 810 85 -500 000/00 RMK AO2
14926KSTC STC20051016051509910/16/05 05:15:31  5-MIN KSTC 161115Z AUTO 00000KT 10SM CLR 01/M01 A3016 800 89 -600 000/00 RMK AO2
14926KSTC STC20051016052009910/16/05 05:20:31  5-MIN KSTC 161120Z AUTO 00000KT 10SM CLR 02/M01 A3016 800 85 -500 000/00 RMK AO2
14926KSTC STC20051016052509910/16/05 05:25:31  5-MIN KSTC 161125Z AUTO 00000KT 10SM CLR 02/M01 A3016 800 85 -500 000/00 RMK AO2
14926KSTC STC20051016053009910/16/05 05:30:31  5-MIN KSTC 161130Z AUTO 00000KT 10SM CLR 01/M01 A3016 800 89 -600 000/00 RMK AO2
14926KSTC STC20051016053509910/16/05 05:35:31  5-MIN KSTC 161135Z AUTO 00000KT 10SM CLR 02/M01 A3016 800 85 -500 000/00 RMK AO2
14926KSTC STC20051016054009910/16/05 05:40:31  5-MIN KSTC 161140Z AUTO 00000KT 10SM CLR 01/M01 A3016 800 89 -600 000/00 RMK AO2
14926KSTC STC20051016054509910/16/05 05:45:31  5-MIN KSTC 161145Z AUTO 00000KT 10SM CLR 01/M01 A3016 800 89 -600 000/00 RMK AO2
14926KSTC STC20051016055012910/16/05 05:50:31  5-MIN KSTC 161150Z 00000KT 10SM CLR 02/M01 A3016 800 85 -500 000/00 RMK AO2 SLP230 T00171006 10022 20006 50000
14926KSTC STC20051016055509410/16/05 05:55:31  5-MIN KSTC 161155Z 00000KT 10SM CLR 01/M01 A3016 800 89 -600 000/00 RMK AO2
14926KSTC STC20051016060009410/16/05 06:00:31  5-MIN KSTC 161200Z 00000KT 10SM CLR 01/M01 A3016 800 89 -600 000/00 RMK AO2
14926KSTC STC20051016060509410/16/05 06:05:31  5-MIN KSTC 161205Z 00000KT 10SM CLR 01/M01 A3016 800 89 -600 000/00 RMK AO2
14926KSTC STC20051016061009410/16/05 06:10:31  5-MIN KSTC 161210Z 00000KT 10SM CLR 01/M01 A3016 800 89 -600 000/00 RMK AO2
14926KSTC STC20051016061509410/16/05 06:15:31  5-MIN KSTC 161215Z 08003KT 10SM CLR 01/M01 A3016 800 92 -700 080/03 RMK AO2
14926KSTC STC20051016062009410/16/05 06:20:31  5-MIN KSTC 161220Z 09003KT 10SM CLR 01/M01 A3016 800 92 -700 080/03 RMK AO2
14926KSTC STC20051016062509410/16/05 06:25:31  5-MIN KSTC 161225Z 09004KT 10SM CLR 01/M01 A3016 810 92 -700 080/04 RMK AO2
14926KSTC STC20051016063009410/16/05 06:30:31  5-MIN KSTC 161230Z 08004KT 10SM CLR 01/M01 A3016 810 89 -700 080/04 RMK AO2
14926KSTC STC20051016063509410/16/05 06:35:31  5-MIN KSTC 161235Z 08003KT 10SM CLR 01/M01 A3016 810 85 -600 080/03 RMK AO2
14926KSTC STC20051016064009410/16/05 06:40:31  5-MIN KSTC 161240Z 08003KT 10SM CLR 01/M01 A3016 810 89 -600 080/03 RMK AO2
14926KSTC STC20051016064509410/16/05 06:45:31  5-MIN KSTC 161245Z 10004KT 10SM CLR 02/M01 A3016 810 85 -500 090/04 RMK AO2
14926KSTC STC20051016065011110/16/05 06:50:31  5-MIN KSTC 161250Z 10003KT 10SM CLR 02/M01 A3016 810 85 -500 090/03 RMK AO2 SLP229 T00171006
14926KSTC STC20051016065509410/16/05 06:55:31  5-MIN KSTC 161255Z 09003KT 10SM CLR 02/M01 A3016 810 82 -500 080/03 RMK AO2
14926KSTC STC20051016070009410/16/05 07:00:31  5-MIN KSTC 161300Z 09005KT 10SM CLR 02/M01 A3016 810 82 -500 080/05 RMK AO2
14926KSTC STC20051016070509310/16/05 07:05:31  5-MIN KSTC 161305Z 09005KT 10SM CLR 03/00 A3016 810 82 -400 080/05 RMK AO2
14926KSTC STC20051016071009310/16/05 07:10:31  5-MIN KSTC 161310Z 09005KT 10SM CLR 03/00 A3016 810 82 -400 090/05 RMK AO2
14926KSTC STC20051016071509310/16/05 07:15:31  5-MIN KSTC 161315Z 09005KT 10SM CLR 03/00 A3015 810 79 -300 090/05 RMK AO2
14926KSTC STC20051016072009310/16/05 07:20:31  5-MIN KSTC 161320Z 09005KT 10SM CLR 03/01 A3015 810 82 -300 090/05 RMK AO2
14926KSTC STC20051016072509310/16/05 07:25:31  5-MIN KSTC 161325Z 09005KT 10SM CLR 03/01 A3015 810 82 -300 090/05 RMK AO2
14926KSTC STC20051016073009310/16/05 07:30:31  5-MIN KSTC 161330Z 10006KT 10SM CLR 04/01 A3015 810 79 -200 100/06 RMK AO2
14926KSTC STC20051016073509310/16/05 07:35:31  5-MIN KSTC 161335Z 11006KT 10SM CLR 04/01 A3015 810 76 -200 110/06 RMK AO2
14926KSTC STC20051016074009310/16/05 07:40:31  5-MIN KSTC 161340Z 11006KT 10SM CLR 04/01 A3015 810 79 -200 110/06 RMK AO2
14926KSTC STC20051016074509310/16/05 07:45:31  5-MIN KSTC 161345Z 11007KT 10SM CLR 05/01 A3015 810 76 -100 100/07 RMK AO2
14926KSTC STC20051016075011010/16/05 07:50:31  5-MIN KSTC 161350Z 10006KT 10SM CLR 05/01 A3015 820 76 -100 100/06 RMK AO2 SLP225 T00500011
14926KSTC STC20051016075509010/16/05 07:55:31  5-MIN KSTC 161355Z 11006KT 10SM CLR 06/01 A3014 820 73 0 100/06 RMK AO2
14926KSTC STC20051016080009010/16/05 08:00:31  5-MIN KSTC 161400Z 11006KT 10SM CLR 06/02 A3015 820 76 0 110/06 RMK AO2
14926KSTC STC20051016080509010/16/05 08:05:31  5-MIN KSTC 161405Z 11006KT 10SM CLR 06/01 A3015 820 70 0 110/06 RMK AO2
14926KSTC STC20051016081009010/16/05 08:10:31  5-MIN KSTC 161410Z 11005KT 10SM CLR 06/02 A3015 820 73 0 110/05 RMK AO2
14926KSTC STC20051016081509210/16/05 08:15:31  5-MIN KSTC 161415Z 11004KT 10SM CLR 07/02 A3015 820 70 100 110/04 RMK AO2
14926KSTC STC20051016082009210/16/05 08:20:31  5-MIN KSTC 161420Z 13004KT 10SM CLR 07/02 A3015 820 73 100 120/04 RMK AO2
14926KSTC STC20051016082509210/16/05 08:25:31  5-MIN KSTC 161425Z 12005KT 10SM CLR 07/02 A3014 820 70 100 120/05 RMK AO2
14926KSTC STC20051016083009210/16/05 08:30:31  5-MIN KSTC 161430Z 13006KT 10SM CLR 08/02 A3015 820 68 200 130/06 RMK AO2
14926KSTC STC20051016083509210/16/05 08:35:31  5-MIN KSTC 161435Z 14008KT 10SM CLR 08/02 A3015 820 68 200 140/08 RMK AO2
14926KSTC STC20051016084009210/16/05 08:40:31  5-MIN KSTC 161440Z 14008KT 10SM CLR 08/02 A3015 820 65 300 140/08 RMK AO2
14926KSTC STC20051016084509210/16/05 08:45:31  5-MIN KSTC 161445Z 15007KT 10SM CLR 08/02 A3015 820 65 300 140/07 RMK AO2
14926KSTC STC20051016085011510/16/05 08:50:31  5-MIN KSTC 161450Z 16006KT 10SM CLR 08/02 A3015 820 65 300 150/06 RMK AO2 SLP224 T00830022 51006
14926KSTC STC20051016085509210/16/05 08:55:31  5-MIN KSTC 161455Z 14010KT 10SM CLR 09/03 A3014 820 65 300 140/10 RMK AO2
14926KSTC STC20051016090009210/16/05 09:00:31  5-MIN KSTC 161500Z 15008KT 10SM CLR 09/02 A3014 820 63 300 150/08 RMK AO2
14926KSTC STC20051016090509210/16/05 09:05:31  5-MIN KSTC 161505Z 14009KT 10SM CLR 09/02 A3014 820 60 400 140/09 RMK AO2
14926KSTC STC20051016091009210/16/05 09:10:31  5-MIN KSTC 161510Z 14009KT 10SM CLR 10/03 A3014 820 60 500 140/09 RMK AO2
14926KSTC STC20051016091509210/16/05 09:15:31  5-MIN KSTC 161515Z 14009KT 10SM CLR 10/02 A3014 820 58 500 140/09 RMK AO2
14926KSTC STC20051016092009210/16/05 09:20:31  5-MIN KSTC 161520Z 14009KT 10SM CLR 10/02 A3014 820 58 500 140/09 RMK AO2
14926KSTC STC20051016092509210/16/05 09:25:31  5-MIN KSTC 161525Z 14008KT 10SM CLR 10/02 A3014 820 58 500 130/08 RMK AO2
14926KSTC STC20051016093009210/16/05 09:30:31  5-MIN KSTC 161530Z 13008KT 10SM CLR 11/02 A3014 830 56 500 130/08 RMK AO2
14926KSTC STC20051016093509210/16/05 09:35:31  5-MIN KSTC 161535Z 14009KT 10SM CLR 11/03 A3014 830 56 600 140/09 RMK AO2
14926KSTC STC20051016094009210/16/05 09:40:31  5-MIN KSTC 161540Z 15009KT 10SM CLR 11/02 A3014 830 54 600 150/09 RMK AO2
14926KSTC STC20051016094509210/16/05 09:45:31  5-MIN KSTC 161545Z 14007KT 10SM CLR 12/03 A3013 830 54 700 140/07 RMK AO2
14926KSTC STC20051016095010910/16/05 09:50:31  5-MIN KSTC 161550Z 14008KT 10SM CLR 12/02 A3013 830 52 700 140/08 RMK AO2 SLP219 T01170022
14926KSTC STC20051016095509210/16/05 09:55:31  5-MIN KSTC 161555Z 14009KT 10SM CLR 12/02 A3013 830 52 700 140/09 RMK AO2
14926KSTC STC20051016100009210/16/05 10:00:31  5-MIN KSTC 161600Z 15008KT 10SM CLR 12/02 A3013 830 50 700 140/08 RMK AO2
14926KSTC STC20051016100509210/16/05 10:05:31  5-MIN KSTC 161605Z 15009KT 10SM CLR 12/02 A3013 840 50 700 150/09 RMK AO2
14926KSTC STC20051016101009210/16/05 10:10:31  5-MIN KSTC 161610Z 16009KT 10SM CLR 13/02 A3013 840 48 800 150/09 RMK AO2
14926KSTC STC20051016101509210/16/05 10:15:31  5-MIN KSTC 161615Z 14011KT 10SM CLR 13/02 A3012 840 46 900 140/11 RMK AO2
14926KSTC STC20051016102009210/16/05 10:20:31  5-MIN KSTC 161620Z 15009KT 10SM CLR 13/02 A3012 840 46 900 150/09 RMK AO2
14926KSTC STC20051016102509210/16/05 10:25:31  5-MIN KSTC 161625Z 14010KT 10SM CLR 13/02 A3012 840 46 900 140/10 RMK AO2
14926KSTC STC20051016103009210/16/05 10:30:31  5-MIN KSTC 161630Z 15011KT 10SM CLR 13/02 A3011 850 46 900 140/11 RMK AO2
14926KSTC STC20051016103509310/16/05 10:35:31  5-MIN KSTC 161635Z 15011KT 10SM CLR 14/02 A3011 850 45 1000 140/11 RMK AO2
14926KSTC STC20051016104009310/16/05 10:40:31  5-MIN KSTC 161640Z 15008KT 10SM CLR 14/03 A3011 850 45 1000 140/08 RMK AO2
14926KSTC STC20051016104509310/16/05 10:45:31  5-MIN KSTC 161645Z 14011KT 10SM CLR 14/02 A3011 850 43 1000 140/11 RMK AO2
14926KSTC STC20051016105011010/16/05 10:50:31  5-MIN KSTC 161650Z 14010KT 10SM CLR 14/02 A3011 850 43 1000 140/10 RMK AO2 SLP210 T01440022
14926KSTC STC20051016105509310/16/05 10:55:31  5-MIN KSTC 161655Z 15011KT 10SM CLR 15/02 A3011 860 42 1100 150/11 RMK AO2
14926KSTC STC20051016110009310/16/05 11:00:31  5-MIN KSTC 161700Z 16009KT 10SM CLR 15/02 A3010 860 42 1100 150/09 RMK AO2
14926KSTC STC20051016110509310/16/05 11:05:31  5-MIN KSTC 161705Z 15011KT 10SM CLR 16/03 A3010 860 42 1200 150/11 RMK AO2
14926KSTC STC20051016111009310/16/05 11:10:31  5-MIN KSTC 161710Z 15012KT 10SM CLR 15/02 A3010 860 42 1100 140/12 RMK AO2
14926KSTC STC20051016111509310/16/05 11:15:31  5-MIN KSTC 161715Z 15012KT 10SM CLR 15/02 A3010 860 42 1100 140/12 RMK AO2
14926KSTC STC20051016112009910/16/05 11:20:31  5-MIN KSTC 161720Z 14013G17KT 10SM CLR 15/02 A3009 870 42 1100 130/13G17 RMK AO2
14926KSTC STC20051016112509310/16/05 11:25:31  5-MIN KSTC 161725Z 13012KT 10SM CLR 16/02 A3009 870 40 1200 130/12 RMK AO2
14926KSTC STC20051016113009310/16/05 11:30:31  5-MIN KSTC 161730Z 15010KT 10SM CLR 16/02 A3008 870 39 1200 150/10 RMK AO2
14926KSTC STC20051016113509310/16/05 11:35:31  5-MIN KSTC 161735Z 14010KT 10SM CLR 16/03 A3008 880 40 1300 140/10 RMK AO2
14926KSTC STC20051016114009910/16/05 11:40:31  5-MIN KSTC 161740Z 15012G17KT 10SM CLR 16/03 A3008 880 40 1300 150/12G17 RMK AO2
14926KSTC STC20051016114509310/16/05 11:45:31  5-MIN KSTC 161745Z 15013KT 10SM CLR 16/03 A3008 880 40 1300 150/13 RMK AO2
14926KSTC STC20051016115012810/16/05 11:50:31  5-MIN KSTC 161750Z 16012KT 10SM CLR 17/02 A3007 880 37 1300 160/12 RMK AO2 SLP197 T01670022 10167 20006 56007
14926KSTC STC20051016115509310/16/05 11:55:31  5-MIN KSTC 161755Z 14010KT 10SM CLR 17/02 A3007 880 36 1300 140/10 RMK AO2
14926KSTC STC20051016120009310/16/05 12:00:31  5-MIN KSTC 161800Z 14013KT 10SM CLR 17/02 A3007 880 37 1300 140/13 RMK AO2
14926KSTC STC20051016120509310/16/05 12:05:31  5-MIN KSTC 161805Z 14011KT 10SM CLR 17/02 A3007 890 37 1300 140/11 RMK AO2
14926KSTC STC20051016121009310/16/05 12:10:31  5-MIN KSTC 161810Z 13011KT 10SM CLR 17/02 A3007 890 36 1300 130/11 RMK AO2
14926KSTC STC20051016121509310/16/05 12:15:31  5-MIN KSTC 161815Z 14011KT 10SM CLR 17/02 A3007 890 36 1300 130/11 RMK AO2
14926KSTC STC20051016122009310/16/05 12:20:31  5-MIN KSTC 161820Z 15013KT 10SM CLR 17/02 A3006 890 35 1400 140/13 RMK AO2
14926KSTC STC20051016122509310/16/05 12:25:31  5-MIN KSTC 161825Z 15011KT 10SM CLR 18/02 A3006 900 35 1500 140/11 RMK AO2
14926KSTC STC20051016123009310/16/05 12:30:31  5-MIN KSTC 161830Z 14013KT 10SM CLR 17/02 A3006 900 35 1400 140/13 RMK AO2
14926KSTC STC20051016123509310/16/05 12:35:31  5-MIN KSTC 161835Z 15013KT 10SM CLR 18/02 A3005 900 33 1500 150/13 RMK AO2
14926KSTC STC20051016124009310/16/05 12:40:31  5-MIN KSTC 161840Z 14014KT 10SM CLR 18/02 A3005 910 33 1500 140/14 RMK AO2
14926KSTC STC20051016124509310/16/05 12:45:31  5-MIN KSTC 161845Z 15014KT 10SM CLR 18/02 A3004 910 33 1500 150/14 RMK AO2
14926KSTC STC20051016125011610/16/05 12:50:31  5-MIN KSTC 161850Z 17012G19KT 10SM CLR 18/02 A3004 920 33 1500 170/12G19 RMK AO2 SLP185 T01780017
14926KSTC STC20051016125509910/16/05 12:55:31  5-MIN KSTC 161855Z 15013G19KT 10SM CLR 18/02 A3003 920 32 1600 150/13G19 RMK AO2
14926KSTC STC20051016130009310/16/05 13:00:31  5-MIN KSTC 161900Z 14012KT 10SM CLR 18/02 A3003 920 33 1500 130/12 RMK AO2
14926KSTC STC20051016130509310/16/05 13:05:31  5-MIN KSTC 161905Z 14016KT 10SM CLR 18/02 A3003 920 32 1600 140/16 RMK AO2
14926KSTC STC20051016131009310/16/05 13:10:31  5-MIN KSTC 161910Z 14010KT 10SM CLR 18/02 A3003 920 32 1600 140/10 RMK AO2
14926KSTC STC20051016131509310/16/05 13:15:31  5-MIN KSTC 161915Z 16012KT 10SM CLR 18/02 A3003 920 32 1600 150/12 RMK AO2
14926KSTC STC20051016132009310/16/05 13:20:31  5-MIN KSTC 161920Z 15012KT 10SM CLR 18/02 A3003 930 32 1600 150/12 RMK AO2
14926KSTC STC20051016132509310/16/05 13:25:31  5-MIN KSTC 161925Z 14014KT 10SM CLR 18/02 A3002 930 32 1600 140/14 RMK AO2
14926KSTC STC20051016133009310/16/05 13:30:31  5-MIN KSTC 161930Z 15014KT 10SM CLR 18/02 A3002 940 32 1600 140/14 RMK AO2
14926KSTC STC20051016133509310/16/05 13:35:31  5-MIN KSTC 161935Z 16011KT 10SM CLR 18/02 A3001 940 34 1600 160/11 RMK AO2
14926KSTC STC20051016134009310/16/05 13:40:31  5-MIN KSTC 161940Z 14012KT 10SM CLR 18/02 A3001 940 34 1600 140/12 RMK AO2
14926KSTC STC20051016134509310/16/05 13:45:31  5-MIN KSTC 161945Z 15013KT 10SM CLR 17/02 A3001 950 36 1500 150/13 RMK AO2
14926KSTC STC20051016135011010/16/05 13:50:31  5-MIN KSTC 161950Z 14011KT 10SM CLR 17/02 A3000 950 36 1500 140/11 RMK AO2 SLP172 T01720022
14926KSTC STC20051016135509310/16/05 13:55:31  5-MIN KSTC 161955Z 15014KT 10SM CLR 17/02 A3000 960 36 1500 150/14 RMK AO2
14926KSTC STC20051016140009310/16/05 14:00:31  5-MIN KSTC 162000Z 15013KT 10SM CLR 18/03 A2999 960 36 1500 140/13 RMK AO2
14926KSTC STC20051016140509310/16/05 14:05:31  5-MIN KSTC 162005Z 14013KT 10SM CLR 18/03 A2999 960 35 1600 140/13 RMK AO2
14926KSTC STC20051016141009310/16/05 14:10:31  5-MIN KSTC 162010Z 15014KT 10SM CLR 19/03 A2999 960 34 1700 150/14 RMK AO2
14926KSTC STC20051016141509310/16/05 14:15:31  5-MIN KSTC 162015Z 16012KT 10SM CLR 18/03 A2998 970 35 1600 160/12 RMK AO2
14926KSTC STC20051016142009310/16/05 14:20:31  5-MIN KSTC 162020Z 14015KT 10SM CLR 18/03 A2998 970 35 1600 140/15 RMK AO2
14926KSTC STC20051016142509310/16/05 14:25:31  5-MIN KSTC 162025Z 16014KT 10SM CLR 18/03 A2997 980 35 1600 150/14 RMK AO2
14926KSTC STC20051016143009910/16/05 14:30:31  5-MIN KSTC 162030Z 15016G21KT 10SM CLR 18/03 A2997 980 35 1600 150/16G21 RMK AO2
14926KSTC STC20051016143509910/16/05 14:35:31  5-MIN KSTC 162035Z 14012G21KT 10SM CLR 18/03 A2997 980 35 1600 140/12G21 RMK AO2
14926KSTC STC20051016144009910/16/05 14:40:31  5-MIN KSTC 162040Z 14014G18KT 10SM CLR 19/03 A2997 990 34 1700 140/14G18 RMK AO2
14926KSTC STC20051016144509910/16/05 14:45:31  5-MIN KSTC 162045Z 15015G18KT 10SM CLR 18/03 A2996 990 35 1600 150/15G18 RMK AO2
14926KSTC STC20051016145012110/16/05 14:50:31  5-MIN KSTC 162050Z AUTO 15014KT 10SM CLR 18/03 A2996 990 35 1600 150/14 RMK AO2 SLP159 T01830028 58023
14926KSTC STC20051016145509810/16/05 14:55:31  5-MIN KSTC 162055Z AUTO 15014KT 10SM CLR 19/03 A2996 990 34 1700 150/14 RMK AO2
14926KSTC STC20051016150009810/16/05 15:00:31  5-MIN KSTC 162100Z AUTO 16013KT 10SM CLR 19/03 A2996 990 34 1700 150/13 RMK AO2
14926KSTC STC20051016150509810/16/05 15:05:31  5-MIN KSTC 162105Z AUTO 15013KT 10SM CLR 19/03 A2996 990 35 1700 150/13 RMK AO2
14926KSTC STC20051016151009810/16/05 15:10:31  5-MIN KSTC 162110Z AUTO 16010KT 10SM CLR 19/03 A2996 990 34 1700 150/10 RMK AO2
14926KSTC STC20051016151509810/16/05 15:15:31  5-MIN KSTC 162115Z AUTO 14013KT 10SM CLR 18/03 A2996 990 35 1700 140/13 RMK AO2
14926KSTC STC20051016152009810/16/05 15:20:31  5-MIN KSTC 162120Z AUTO 15011KT 10SM CLR 18/03 A2996 990 36 1600 150/11 RMK AO2
14926KSTC STC20051016152509810/16/05 15:25:31  5-MIN KSTC 162125Z AUTO 14011KT 10SM CLR 18/03 A2996 990 38 1600 140/11 RMK AO2
14926KSTC STC20051016153009910/16/05 15:30:31  5-MIN KSTC 162130Z AUTO 16009KT 10SM CLR 18/03 A2995 1000 36 1700 150/09 RMK AO2
14926KSTC STC20051016153509910/16/05 15:35:31  5-MIN KSTC 162135Z AUTO 15012KT 10SM CLR 18/03 A2995 1000 36 1700 150/12 RMK AO2
14926KSTC STC20051016154009910/16/05 15:40:31  5-MIN KSTC 162140Z AUTO 15012KT 10SM CLR 19/03 A2995 1000 35 1700 150/12 RMK AO2
14926KSTC STC20051016154509910/16/05 15:45:31  5-MIN KSTC 162145Z AUTO 14010KT 10SM CLR 19/03 A2994 1010 35 1700 140/10 RMK AO2
14926KSTC STC20051016155011610/16/05 15:50:31  5-MIN KSTC 162150Z AUTO 15013KT 10SM CLR 19/03 A2995 1000 35 1700 140/13 RMK AO2 SLP153 T01890033
14926KSTC STC20051016155509910/16/05 15:55:31  5-MIN KSTC 162155Z AUTO 15011KT 10SM CLR 18/03 A2994 1010 36 1700 140/11 RMK AO2
14926KSTC STC20051016160009910/16/05 16:00:31  5-MIN KSTC 162200Z AUTO 14013KT 10SM CLR 18/03 A2994 1010 36 1700 140/13 RMK AO2
14926KSTC STC20051016160509910/16/05 16:05:31  5-MIN KSTC 162205Z AUTO 15010KT 10SM CLR 18/03 A2994 1010 36 1700 140/10 RMK AO2
14926KSTC STC20051016161009910/16/05 16:10:31  5-MIN KSTC 162210Z AUTO 15010KT 10SM CLR 18/03 A2994 1010 38 1600 140/10 RMK AO2
14926KSTC STC20051016161509910/16/05 16:15:31  5-MIN KSTC 162215Z AUTO 14010KT 10SM CLR 18/03 A2994 1010 38 1600 140/10 RMK AO2
14926KSTC STC20051016162009910/16/05 16:20:31  5-MIN KSTC 162220Z AUTO 14008KT 10SM CLR 18/03 A2993 1010 36 1700 140/08 RMK AO2
14926KSTC STC20051016162509910/16/05 16:25:31  5-MIN KSTC 162225Z AUTO 14010KT 10SM CLR 18/03 A2993 1020 38 1600 130/10 RMK AO2
14926KSTC STC20051016163009910/16/05 16:30:31  5-MIN KSTC 162230Z AUTO 14009KT 10SM CLR 18/03 A2993 1020 38 1600 130/09 RMK AO2
14926KSTC STC20051016163509910/16/05 16:35:31  5-MIN KSTC 162235Z AUTO 14009KT 10SM CLR 18/03 A2992 1030 38 1600 140/09 RMK AO2
14926KSTC STC20051016164009910/16/05 16:40:31  5-MIN KSTC 162240Z AUTO 14011KT 10SM CLR 17/03 A2992 1030 39 1600 140/11 RMK AO2
14926KSTC STC20051016164509910/16/05 16:45:31  5-MIN KSTC 162245Z AUTO 14009KT 10SM CLR 17/03 A2991 1030 39 1600 140/09 RMK AO2
14926KSTC STC20051016165011610/16/05 16:50:31  5-MIN KSTC 162250Z AUTO 14010KT 10SM CLR 17/03 A2991 1030 39 1600 140/10 RMK AO2 SLP142 T01720033
14926KSTC STC20051016165509910/16/05 16:55:31  5-MIN KSTC 162255Z AUTO 14009KT 10SM CLR 17/03 A2991 1040 39 1600 130/09 RMK AO2
14926KSTC STC20051016170009910/16/05 17:00:31  5-MIN KSTC 162300Z AUTO 13008KT 10SM CLR 17/03 A2991 1040 39 1600 130/08 RMK AO2
14926KSTC STC20051016170509910/16/05 17:05:31  5-MIN KSTC 162305Z AUTO 13007KT 10SM CLR 17/03 A2991 1040 39 1600 130/07 RMK AO2
14926KSTC STC20051016171009910/16/05 17:10:31  5-MIN KSTC 162310Z AUTO 13008KT 10SM CLR 17/03 A2991 1040 40 1500 130/08 RMK AO2
14926KSTC STC20051016171509910/16/05 17:15:31  5-MIN KSTC 162315Z AUTO 13009KT 10SM CLR 17/03 A2990 1040 40 1500 130/09 RMK AO2
14926KSTC STC20051016172009910/16/05 17:20:31  5-MIN KSTC 162320Z AUTO 14009KT 10SM CLR 17/03 A2990 1040 40 1500 130/09 RMK AO2
14926KSTC STC20051016172509910/16/05 17:25:31  5-MIN KSTC 162325Z AUTO 14008KT 10SM CLR 16/03 A2990 1040 42 1500 130/08 RMK AO2
14926KSTC STC20051016173009910/16/05 17:30:31  5-MIN KSTC 162330Z AUTO 13008KT 10SM CLR 16/03 A2990 1040 42 1500 130/08 RMK AO2
14926KSTC STC20051016173509910/16/05 17:35:31  5-MIN KSTC 162335Z AUTO 13008KT 10SM CLR 16/03 A2990 1050 42 1500 130/08 RMK AO2
14926KSTC STC20051016174009910/16/05 17:40:31  5-MIN KSTC 162340Z AUTO 13009KT 10SM CLR 16/03 A2990 1050 42 1500 130/09 RMK AO2
14926KSTC STC20051016174509910/16/05 17:45:31  5-MIN KSTC 162345Z AUTO 13009KT 10SM CLR 16/03 A2989 1050 40 1500 130/09 RMK AO2
14926KSTC STC20051016175013410/16/05 17:50:31  5-MIN KSTC 162350Z AUTO 13009KT 10SM CLR 16/03 A2989 1050 42 1500 130/09 RMK AO2 SLP136 T01610033 10189 20161 57037
14926KSTC STC20051016175509910/16/05 17:55:31  5-MIN KSTC 162355Z AUTO 13007KT 10SM CLR 16/03 A2989 1050 42 1500 130/07 RMK AO2
14926KSTC STC20051016180009910/16/05 18:00:31  5-MIN KSTC 170000Z AUTO 13008KT 10SM CLR 16/03 A2989 1050 42 1500 130/08 RMK AO2
14926KSTC STC20051016180509910/16/05 18:05:31  5-MIN KSTC 170005Z AUTO 14008KT 10SM CLR 16/03 A2989 1050 43 1400 140/08 RMK AO2
14926KSTC STC20051016181009910/16/05 18:10:31  5-MIN KSTC 170010Z AUTO 14008KT 10SM CLR 16/03 A2989 1050 43 1400 130/08 RMK AO2
14926KSTC STC20051016181509910/16/05 18:15:31  5-MIN KSTC 170015Z AUTO 14008KT 10SM CLR 16/03 A2989 1050 43 1400 140/08 RMK AO2
14926KSTC STC20051016182009910/16/05 18:20:31  5-MIN KSTC 170020Z AUTO 14007KT 10SM CLR 16/03 A2989 1050 43 1400 140/07 RMK AO2
14926KSTC STC20051016182509910/16/05 18:25:31  5-MIN KSTC 170025Z AUTO 14008KT 10SM CLR 16/03 A2989 1060 43 1400 140/08 RMK AO2
14926KSTC STC20051016183009910/16/05 18:30:31  5-MIN KSTC 170030Z AUTO 14008KT 10SM CLR 16/03 A2988 1060 43 1400 130/08 RMK AO2
14926KSTC STC20051016183509910/16/05 18:35:31  5-MIN KSTC 170035Z AUTO 14009KT 10SM CLR 16/03 A2988 1070 43 1400 140/09 RMK AO2
14926KSTC STC20051016184009910/16/05 18:40:31  5-MIN KSTC 170040Z AUTO 14008KT 10SM CLR 16/03 A2988 1070 43 1400 140/08 RMK AO2
14926KSTC STC20051016184509910/16/05 18:45:31  5-MIN KSTC 170045Z AUTO 14008KT 10SM CLR 16/03 A2988 1070 43 1400 130/08 RMK AO2
14926KSTC STC20051016185011610/16/05 18:50:31  5-MIN KSTC 170050Z AUTO 14009KT 10SM CLR 16/03 A2988 1070 43 1400 140/09 RMK AO2 SLP131 T01560033
14926KSTC STC20051016185509910/16/05 18:55:31  5-MIN KSTC 170055Z AUTO 14009KT 10SM CLR 17/03 A2987 1070 40 1600 140/09 RMK AO2
14926KSTC STC20051016190009910/16/05 19:00:31  5-MIN KSTC 170100Z AUTO 14009KT 10SM CLR 15/03 A2987 1070 45 1400 140/09 RMK AO2
14926KSTC STC20051016190509910/16/05 19:05:31  5-MIN KSTC 170105Z AUTO 14009KT 10SM CLR 15/03 A2987 1080 45 1400 140/09 RMK AO2
14926KSTC STC20051016191009910/16/05 19:10:31  5-MIN KSTC 170110Z AUTO 14009KT 10SM CLR 15/03 A2986 1080 45 1400 130/09 RMK AO2
14926KSTC STC20051016192509910/16/05 19:25:31  5-MIN KSTC 170125Z AUTO 14009KT 10SM CLR 16/03 A2986 1080 43 1400 130/09 RMK AO2
14926KSTC STC20051016193009910/16/05 19:30:31  5-MIN KSTC 170130Z AUTO 14008KT 10SM CLR 15/03 A2986 1080 45 1400 140/08 RMK AO2
14926KSTC STC20051016193509910/16/05 19:35:31  5-MIN KSTC 170135Z AUTO 14009KT 10SM CLR 14/04 A2986 1080 49 1300 140/09 RMK AO2
14926KSTC STC20051016194009910/16/05 19:40:31  5-MIN KSTC 170140Z AUTO 15009KT 10SM CLR 14/04 A2986 1090 49 1300 140/09 RMK AO2
14926KSTC STC20051016194509910/16/05 19:45:31  5-MIN KSTC 170145Z AUTO 15009KT 10SM CLR 14/04 A2985 1090 49 1300 140/09 RMK AO2
14926KSTC STC20051016195011610/16/05 19:50:31  5-MIN KSTC 170150Z AUTO 15008KT 10SM CLR 14/04 A2985 1090 49 1300 140/08 RMK AO2 SLP122 T01440039
14926KSTC STC20051016195509910/16/05 19:55:31  5-MIN KSTC 170155Z AUTO 15008KT 10SM CLR 14/04 A2985 1090 50 1300 140/08 RMK AO2
14926KSTC STC20051016200009910/16/05 20:00:31  5-MIN KSTC 170200Z AUTO 15008KT 10SM CLR 14/04 A2985 1090 50 1300 150/08 RMK AO2
14926KSTC STC20051016200509910/16/05 20:05:31  5-MIN KSTC 170205Z AUTO 15008KT 10SM CLR 14/04 A2985 1090 50 1300 150/08 RMK AO2
14926KSTC STC20051016201009910/16/05 20:10:31  5-MIN KSTC 170210Z AUTO 16009KT 10SM CLR 14/04 A2985 1090 49 1300 150/09 RMK AO2
14926KSTC STC20051016201509910/16/05 20:15:31  5-MIN KSTC 170215Z AUTO 16010KT 10SM CLR 14/03 A2984 1100 47 1300 150/10 RMK AO2
14926KSTC STC20051016202009910/16/05 20:20:31  5-MIN KSTC 170220Z AUTO 16009KT 10SM CLR 14/03 A2984 1100 47 1300 150/09 RMK AO2
14926KSTC STC20051016202509910/16/05 20:25:31  5-MIN KSTC 170225Z AUTO 15008KT 10SM CLR 14/03 A2984 1100 47 1300 150/08 RMK AO2
14926KSTC STC20051016203009910/16/05 20:30:31  5-MIN KSTC 170230Z AUTO 15009KT 10SM CLR 14/03 A2984 1110 48 1300 150/09 RMK AO2
14926KSTC STC20051016203509910/16/05 20:35:31  5-MIN KSTC 170235Z AUTO 16009KT 10SM CLR 14/03 A2983 1110 48 1300 160/09 RMK AO2
14926KSTC STC20051016204009910/16/05 20:40:31  5-MIN KSTC 170240Z AUTO 16010KT 10SM CLR 14/03 A2983 1110 47 1300 160/10 RMK AO2
14926KSTC STC20051016204509910/16/05 20:45:31  5-MIN KSTC 170245Z AUTO 15011KT 10SM CLR 14/03 A2983 1110 47 1300 150/11 RMK AO2
14926KSTC STC20051016205012210/16/05 20:50:31  5-MIN KSTC 170250Z AUTO 16011KT 10SM CLR 14/03 A2982 1120 47 1400 150/11 RMK AO2 SLP110 T01440033 57023
14926KSTC STC20051016205509910/16/05 20:55:31  5-MIN KSTC 170255Z AUTO 16010KT 10SM CLR 15/03 A2982 1120 45 1400 160/10 RMK AO2
14926KSTC STC20051016210009910/16/05 21:00:31  5-MIN KSTC 170300Z AUTO 16009KT 10SM CLR 14/03 A2982 1120 47 1400 160/09 RMK AO2
14926KSTC STC20051016210509910/16/05 21:05:31  5-MIN KSTC 170305Z AUTO 16010KT 10SM CLR 15/03 A2982 1120 45 1400 160/10 RMK AO2
14926KSTC STC20051016211009910/16/05 21:10:31  5-MIN KSTC 170310Z AUTO 16011KT 10SM CLR 15/03 A2982 1120 43 1400 160/11 RMK AO2
14926KSTC STC20051016211509910/16/05 21:15:31  5-MIN KSTC 170315Z AUTO 16010KT 10SM CLR 15/03 A2981 1130 45 1400 160/10 RMK AO2
14926KSTC STC20051016212009910/16/05 21:20:31  5-MIN KSTC 170320Z AUTO 17011KT 10SM CLR 15/03 A2981 1130 45 1400 170/11 RMK AO2
14926KSTC STC20051016212509910/16/05 21:25:31  5-MIN KSTC 170325Z AUTO 17012KT 10SM CLR 16/03 A2981 1130 42 1500 170/12 RMK AO2
14926KSTC STC20051016213009910/16/05 21:30:31  5-MIN KSTC 170330Z AUTO 17010KT 10SM CLR 16/03 A2981 1130 42 1500 170/10 RMK AO2
14926KSTC STC20051016213509910/16/05 21:35:31  5-MIN KSTC 170335Z AUTO 17011KT 10SM CLR 16/03 A2981 1130 42 1500 170/11 RMK AO2
14926KSTC STC20051016214009910/16/05 21:40:31  5-MIN KSTC 170340Z AUTO 17011KT 10SM CLR 16/03 A2981 1130 42 1500 170/11 RMK AO2
14926KSTC STC20051016214509910/16/05 21:45:31  5-MIN KSTC 170345Z AUTO 17010KT 10SM CLR 16/03 A2980 1130 43 1500 170/10 RMK AO2
14926KSTC STC20051016215011610/16/05 21:50:31  5-MIN KSTC 170350Z AUTO 17009KT 10SM CLR 16/03 A2980 1140 43 1500 170/09 RMK AO2 SLP101 T01560033
14926KSTC STC20051016215509910/16/05 21:55:31  5-MIN KSTC 170355Z AUTO 18011KT 10SM CLR 16/03 A2980 1130 43 1500 170/11 RMK AO2
14926KSTC STC20051016220009910/16/05 22:00:31  5-MIN KSTC 170400Z AUTO 18011KT 10SM CLR 16/03 A2980 1140 43 1500 180/11 RMK AO2
14926KSTC STC20051016220509910/16/05 22:05:31  5-MIN KSTC 170405Z AUTO 18014KT 10SM CLR 15/03 A2980 1140 45 1400 180/14 RMK AO2
14926KSTC STC20051016221009910/16/05 22:10:31  5-MIN KSTC 170410Z AUTO 18012KT 10SM CLR 16/03 A2980 1140 43 1500 180/12 RMK AO2
14926KSTC STC20051016221509910/16/05 22:15:31  5-MIN KSTC 170415Z AUTO 18011KT 10SM CLR 15/03 A2979 1140 45 1500 180/11 RMK AO2
14926KSTC STC20051016222009910/16/05 22:20:31  5-MIN KSTC 170420Z AUTO 18012KT 10SM CLR 15/03 A2979 1150 45 1500 180/12 RMK AO2
14926KSTC STC20051016222509910/16/05 22:25:31  5-MIN KSTC 170425Z AUTO 18011KT 10SM CLR 15/03 A2979 1150 45 1500 170/11 RMK AO2
14926KSTC STC20051016223010510/16/05 22:30:31  5-MIN KSTC 170430Z AUTO 18011G17KT 10SM CLR 15/04 A2978 1150 47 1500 170/11G17 RMK AO2
14926KSTC STC20051016223510210/16/05 22:35:31  5-MIN KSTC 170435Z AUTO 18012KT 10SM FEW070 15/04 A2978 1150 47 1500 170/12 RMK AO2
14926KSTC STC20051016224010210/16/05 22:40:31  5-MIN KSTC 170440Z AUTO 18012KT 10SM SCT070 15/04 A2978 1160 47 1500 170/12 RMK AO2
14926KSTC STC20051016224510910/16/05 22:45:31  5-MIN KSTC 170445Z AUTO 17012KT 10SM SCT065 BKN080 16/04 A2978 1160 45 1500 170/12 RMK AO2
14926KSTC STC20051016225012610/16/05 22:50:31  5-MIN KSTC 170450Z AUTO 17013KT 10SM SCT060 BKN075 16/04 A2978 1160 45 1500 170/13 RMK AO2 SLP092 T01560039
14926KSTC STC20051016225510910/16/05 22:55:31  5-MIN KSTC 170455Z AUTO 17012KT 10SM SCT060 BKN080 16/04 A2977 1160 45 1500 170/12 RMK AO2
14926KSTC STC20051016230010910/16/05 23:00:31  5-MIN KSTC 170500Z AUTO 17012KT 10SM SCT060 BKN075 16/04 A2977 1170 45 1500 170/12 RMK AO2
14926KSTC STC20051016230510910/16/05 23:05:31  5-MIN KSTC 170505Z AUTO 17011KT 10SM SCT060 BKN080 16/04 A2977 1170 45 1500 170/11 RMK AO2
14926KSTC STC20051016231010910/16/05 23:10:31  5-MIN KSTC 170510Z AUTO 17012KT 10SM BKN060 OVC080 16/04 A2976 1170 45 1500 170/12 RMK AO2
14926KSTC STC20051016231510910/16/05 23:15:31  5-MIN KSTC 170515Z AUTO 17012KT 10SM SCT055 BKN080 16/04 A2976 1170 45 1600 170/12 RMK AO2
14926KSTC STC20051016232010910/16/05 23:20:31  5-MIN KSTC 170520Z AUTO 17011KT 10SM SCT060 BKN075 16/04 A2976 1180 47 1600 170/11 RMK AO2
14926KSTC STC20051016232511610/16/05 23:25:31  5-MIN KSTC 170525Z AUTO 18012KT 10SM SCT060 BKN075 BKN110 16/04 A2976 1180 47 1600 180/12 RMK AO2
14926KSTC STC20051016233013910/16/05 23:30:31  5-MIN KSTC 170530Z AUTO 18011KT 10SM -TSRA BKN060 BKN080 BKN110 16/05 A2975 1180 49 1600 170/11 RMK AO2 TSB26RAB30 P0000
14926KSTC STC20051016233513910/16/05 23:35:31  5-MIN KSTC 170535Z AUTO 17009KT 10SM -TSRA BKN065 BKN090 OVC110 15/06 A2975 1180 53 1500 170/09 RMK AO2 TSB26RAB30 P0001
14926KSTC STC20051016234013910/16/05 23:40:31  5-MIN KSTC 170540Z AUTO 17010KT 10SM TS BKN065 BKN080 OVC110 15/06 A2974 1190 55 1500 170/10 RMK AO2 TSB26RAB30E40 P0001
14926KSTC STC20051016234513210/16/05 23:45:31  5-MIN KSTC 170545Z AUTO 18013KT 10SM TS SCT065 OVC090 15/06 A2974 1190 53 1500 180/13 RMK AO2 TSB26RAB30E40 P0001
14926KSTC STC20051016235018210/16/05 23:50:31  5-MIN KSTC 170550Z AUTO 18014KT 9SM -TSRA FEW070 OVC085 15/06 A2975 1190 53 1500 180/14 RMK AO2 TSB26RAB30 SLP080 P0001 60001 T01500056 10167 20139 401890006 58023
14926KSTC STC20051016235513710/16/05 23:55:31  5-MIN KSTC 170555Z AUTO 19017G24KT 2 1/2SM +TSRA BKN060 BKN080 OVC090 14/08 A2973 1200 66 1400 180/17G24 RMK AO2 P0003
14926KSTC STC20051017000014410/17/05 00:00:32  5-MIN KSTC 170600Z AUTO 17014G24KT 2 1/2SM TSRA BKN047 BKN065 OVC085 13/08 A2973 1200 74 1300 160/14G24 RMK AO2 VIS 1V5 P0011
14926KSTC STC20051017000512010/17/05 00:05:31  5-MIN KSTC 170605Z AUTO 16012KT 5SM -TSRA BKN055 OVC085 13/09 A2973 1210 77 1300 160/12 RMK AO2 P0016
14926KSTC STC20051017001012710/17/05 00:10:31  5-MIN KSTC 170610Z AUTO 16012KT 7SM -TSRA BKN050 BKN060 OVC090 13/09 A2972 1210 77 1300 160/12 RMK AO2 P0016
14926KSTC STC20051017001512710/17/05 00:15:31  5-MIN KSTC 170615Z AUTO 16010KT 9SM -TSRA SCT042 BKN055 OVC090 12/09 A2972 1220 80 1200 150/10 RMK AO2 P0017
14926KSTC STC20051017002012110/17/05 00:20:31  5-MIN KSTC 170620Z AUTO 15008KT 10SM -TSRA FEW018 OVC060 12/09 A2971 1220 80 1200 150/08 RMK AO2 P0017
14926KSTC STC20051017002512510/17/05 00:25:31  5-MIN KSTC 170625Z AUTO 15008KT 10SM -RA BKN060 OVC085 12/09 A2971 1220 80 1200 140/08 RMK AO2 TSE25 P0017
14926KSTC STC20051017003011810/17/05 00:30:31  5-MIN KSTC 170630Z AUTO 15009KT 10SM -RA OVC060 12/09 A2970 1230 80 1200 150/09 RMK AO2 TSE25 P0017
14926KSTC STC20051017003512510/17/05 00:35:31  5-MIN KSTC 170635Z AUTO 16008KT 10SM -RA BKN060 BKN110 12/09 A2970 1230 83 1200 160/08 RMK AO2 TSE25 P0017
14926KSTC STC20051017004012610/17/05 00:40:31  5-MIN KSTC 170640Z AUTO 16009KT 10SM BKN060 BKN110 12/09 A2970 1230 80 1200 160/09 RMK AO2 TSE25RAE37 P0017
14926KSTC STC20051017004512610/17/05 00:45:31  5-MIN KSTC 170645Z AUTO 16008KT 10SM BKN065 BKN110 12/09 A2969 1240 83 1200 160/08 RMK AO2 TSE25RAE37 P0017
14926KSTC STC20051017005014310/17/05 00:50:31  5-MIN KSTC 170650Z AUTO 16008KT 10SM BKN070 BKN110 12/09 A2969 1240 83 1200 160/08 RMK AO2 TSE25RAE37 SLP062 P0017 T01170089
14926KSTC STC20051017005510910/17/05 00:55:31  5-MIN KSTC 170655Z AUTO 16009KT 10SM BKN070 BKN110 12/09 A2968 1250 83 1200 150/09 RMK AO2
14926KSTC STC20051017010011610/17/05 01:00:31  5-MIN KSTC 170700Z AUTO 15008KT 10SM BKN070 BKN110 12/09 A2968 1250 83 1200 150/08 RMK AO2 PRESFR
14926KSTC STC20051017010511610/17/05 01:05:31  5-MIN KSTC 170705Z AUTO 15008KT 10SM BKN070 BKN110 12/09 A2967 1260 83 1200 150/08 RMK AO2 PRESFR
14926KSTC STC20051017011010210/17/05 01:10:31  5-MIN KSTC 170710Z AUTO 15008KT 10SM BKN070 12/09 A2967 1260 83 1200 150/08 RMK AO2
14926KSTC STC20051017011510210/17/05 01:15:31  5-MIN KSTC 170715Z AUTO 16008KT 10SM BKN070 11/09 A2966 1260 86 1100 150/08 RMK AO2
14926KSTC STC20051017012011110/17/05 01:20:31  5-MIN KSTC 170720Z AUTO 16008KT 10SM TS SCT070 11/09 A2966 1270 86 1100 150/08 RMK AO2 TSB20
14926KSTC STC20051017012511110/17/05 01:25:31  5-MIN KSTC 170725Z AUTO 16008KT 10SM TS FEW070 11/09 A2966 1270 86 1100 160/08 RMK AO2 TSB20
14926KSTC STC20051017013011110/17/05 01:30:31  5-MIN KSTC 170730Z AUTO 16008KT 10SM TS FEW075 12/09 A2966 1270 83 1200 160/08 RMK AO2 TSB20
14926KSTC STC20051017013511110/17/05 01:35:31  5-MIN KSTC 170735Z AUTO 16007KT 10SM SCT080 12/09 A2966 1270 83 1200 160/07 RMK AO2 TSB20E34
14926KSTC STC20051017014011110/17/05 01:40:31  5-MIN KSTC 170740Z AUTO 16007KT 10SM BKN080 12/09 A2966 1270 83 1200 160/07 RMK AO2 TSB20E34
14926KSTC STC20051017014511710/17/05 01:45:31  5-MIN KSTC 170745Z AUTO 16006KT 10SM TS BKN085 12/09 A2966 1270 83 1200 150/06 RMK AO2 TSB20E34B41
14926KSTC STC20051017015014110/17/05 01:50:31  5-MIN KSTC 170750Z AUTO 17005KT 10SM TS BKN080 BKN090 12/09 A2966 1260 83 1200 170/05 RMK AO2 TSB20E34B41 SLP053 T01170089
14926KSTC STC20051017015511210/17/05 01:55:31  5-MIN KSTC 170755Z AUTO 20005KT 10SM TS BKN080 OVC100 12/09 A2967 1260 83 1200 190/05 RMK AO2
14926KSTC STC20051017020011210/17/05 02:00:31  5-MIN KSTC 170800Z AUTO 21004KT 10SM TS BKN070 OVC090 12/09 A2967 1260 86 1200 210/04 RMK AO2
14926KSTC STC20051017020512210/17/05 02:05:31  5-MIN KSTC 170805Z AUTO 22003KT 10SM SCT070 BKN090 OVC110 12/09 A2967 1260 86 1200 220/03 RMK AO2 TSE03
14926KSTC STC20051017021014210/17/05 02:10:31  5-MIN KSTC 170810Z AUTO 23003KT 10SM -TSRA FEW044 BKN090 OVC110 12/09 A2966 1260 86 1200 220/03 RMK AO2 TSE03B07RAB08 P0000
14926KSTC STC20051017021514210/17/05 02:15:31  5-MIN KSTC 170815Z AUTO 22003KT 10SM -TSRA SCT044 BKN070 BKN090 12/09 A2966 1260 86 1200 220/03 RMK AO2 TSE03B07RAB08 P0000
14926KSTC STC20051017022014210/17/05 02:20:31  5-MIN KSTC 170820Z AUTO 22003KT 10SM TS FEW043 BKN075 BKN110 12/09 A2966 1270 86 1200 220/03 RMK AO2 TSE03B07RAB08E19 P0000
14926KSTC STC20051017022514210/17/05 02:25:31  5-MIN KSTC 170825Z AUTO 22003KT 10SM TS FEW048 BKN080 BKN095 12/09 A2966 1270 86 1200 220/03 RMK AO2 TSE03B07RAB08E19 P0000
14926KSTC STC20051017023014410/17/05 02:30:31  5-MIN KSTC 170830Z AUTO 00000KT 6SM -TSRA BR SCT042 BKN080 BKN100 12/09 A2966 1270 86 1200 000/00 RMK AO2 TSE03B07RAB08 P0000
14926KSTC STC20051017023514310/17/05 02:35:31  5-MIN KSTC 170835Z AUTO 19004KT 3SM TSRA BR SCT038 BKN045 BKN080 12/09 A2965 1280 86 1200 180/04 RMK AO2 TSE03B07RAB08 P0002
14926KSTC STC20051017024014410/17/05 02:40:31  5-MIN KSTC 170840Z AUTO 18005KT 4SM -TSRA BR FEW038 BKN080 OVC100 12/09 A2965 1280 86 1200 180/05 RMK AO2 TSE03B07RAB08 P0006
14926KSTC STC20051017024514210/17/05 02:45:31  5-MIN KSTC 170845Z AUTO 19007KT 10SM -TSRA SCT041 BKN080 OVC090 12/09 A2964 1280 86 1200 190/07 RMK AO2 TSE03B07RAB08 P0006
14926KSTC STC20051017025017110/17/05 02:50:31  5-MIN KSTC 170850Z AUTO 18007KT 10SM TS SCT043 BKN080 OVC090 12/09 A2964 1290 86 1200 170/07 RMK AO2 TSE03B07RAB08E46 SLP045 P0006 60023 T01170094 58027
14926KSTC STC20051017025511910/17/05 02:55:31  5-MIN KSTC 170855Z AUTO 18008KT 10SM TS FEW029 BKN042 OVC080 11/09 A2964 1290 89 1200 170/08 RMK AO2
14926KSTC STC20051017030011910/17/05 03:00:31  5-MIN KSTC 170900Z AUTO 17007KT 10SM TS BKN040 BKN080 OVC100 11/09 A2964 1290 89 1200 170/07 RMK AO2
14926KSTC STC20051017030511910/17/05 03:05:31  5-MIN KSTC 170905Z AUTO 19005KT 10SM TS SCT040 BKN080 OVC100 12/09 A2963 1290 86 1200 190/05 RMK AO2
14926KSTC STC20051017031011910/17/05 03:10:31  5-MIN KSTC 170910Z AUTO 19006KT 10SM TS FEW040 SCT080 BKN100 12/09 A2963 1290 86 1200 180/06 RMK AO2
14926KSTC STC20051017031511210/17/05 03:15:31  5-MIN KSTC 170915Z AUTO 20006KT 10SM TS FEW040 BKN100 12/09 A2963 1290 86 1200 190/06 RMK AO2
14926KSTC STC20051017032011210/17/05 03:20:31  5-MIN KSTC 170920Z AUTO 21005KT 10SM TS FEW040 SCT100 12/09 A2963 1290 86 1200 200/05 RMK AO2
14926KSTC STC20051017032510810/17/05 03:25:31  5-MIN KSTC 170925Z AUTO 21007KT 10SM SCT100 11/09 A2963 1290 89 1200 210/07 RMK AO2 TSE25
14926KSTC STC20051017033010810/17/05 03:30:31  5-MIN KSTC 170930Z AUTO 21008KT 10SM FEW100 12/09 A2964 1290 86 1200 200/08 RMK AO2 TSE25
14926KSTC STC20051017033510510/17/05 03:35:31  5-MIN KSTC 170935Z AUTO 22007KT 10SM CLR 12/09 A2964 1290 86 1200 210/07 RMK AO2 TSE25
14926KSTC STC20051017034010510/17/05 03:40:31  5-MIN KSTC 170940Z AUTO 23007KT 10SM CLR 12/10 A2964 1290 89 1200 220/07 RMK AO2 TSE25
14926KSTC STC20051017034511110/17/05 03:45:31  5-MIN KSTC 170945Z AUTO 22007KT 10SM TS CLR 12/10 A2964 1280 86 1300 220/07 RMK AO2 TSE25B45
14926KSTC STC20051017035012810/17/05 03:50:31  5-MIN KSTC 170950Z AUTO 25007KT 10SM TS CLR 12/10 A2965 1280 86 1300 240/07 RMK AO2 TSE25B45 SLP047 T01220100
14926KSTC STC20051017035510210/17/05 03:55:31  5-MIN KSTC 170955Z AUTO 25006KT 10SM TS CLR 12/10 A2965 1280 86 1300 250/06 RMK AO2
14926KSTC STC20051017040010510/17/05 04:00:31  5-MIN KSTC 171000Z AUTO 24005KT 10SM CLR 12/10 A2965 1280 86 1300 230/05 RMK AO2 TSE00
14926KSTC STC20051017040510510/17/05 04:05:31  5-MIN KSTC 171005Z AUTO 24007KT 10SM CLR 12/10 A2965 1280 86 1300 240/07 RMK AO2 TSE00
14926KSTC STC20051017041010810/17/05 04:10:31  5-MIN KSTC 171010Z AUTO 25006KT 10SM FEW110 13/11 A2965 1280 86 1400 250/06 RMK AO2 TSE00
14926KSTC STC20051017041510810/17/05 04:15:31  5-MIN KSTC 171015Z AUTO 26007KT 10SM FEW110 13/11 A2965 1280 86 1400 260/07 RMK AO2 TSE00
14926KSTC STC20051017042010510/17/05 04:20:31  5-MIN KSTC 171020Z AUTO 26008KT 10SM CLR 13/11 A2965 1280 86 1400 250/08 RMK AO2 TSE00
14926KSTC STC20051017042510510/17/05 04:25:31  5-MIN KSTC 171025Z AUTO 25007KT 10SM CLR 13/11 A2964 1290 86 1400 250/07 RMK AO2 TSE00
14926KSTC STC20051017043010510/17/05 04:30:31  5-MIN KSTC 171030Z AUTO 27006KT 10SM CLR 13/11 A2965 1280 86 1400 260/06 RMK AO2 TSE00
14926KSTC STC20051017043510510/17/05 04:35:31  5-MIN KSTC 171035Z AUTO 27008KT 10SM CLR 13/11 A2965 1280 89 1400 260/08 RMK AO2 TSE00
14926KSTC STC20051017044010510/17/05 04:40:31  5-MIN KSTC 171040Z AUTO 27008KT 10SM CLR 13/11 A2965 1280 86 1400 270/08 RMK AO2 TSE00
14926KSTC STC20051017044511210/17/05 04:45:31  5-MIN KSTC 171045Z AUTO 28010KT 10SM CLR 13/11 A2966 1260 86 1300 280/10 RMK AO2 TSE00 PRESRR
14926KSTC STC20051017045012210/17/05 04:50:31  5-MIN KSTC 171050Z AUTO 28011KT 10SM CLR 14/11 A2967 1260 83 1500 280/11 RMK AO2 TSE00 SLP053 T01390111
14926KSTC STC20051017045509910/17/05 04:55:31  5-MIN KSTC 171055Z AUTO 28010KT 10SM CLR 14/11 A2966 1260 80 1500 280/10 RMK AO2
14926KSTC STC20051017050009910/17/05 05:00:31  5-MIN KSTC 171100Z AUTO 28011KT 10SM CLR 14/11 A2966 1260 80 1500 280/11 RMK AO2
14926KSTC STC20051017050509910/17/05 05:05:31  5-MIN KSTC 171105Z AUTO 29010KT 10SM CLR 14/11 A2967 1260 80 1500 280/10 RMK AO2
14926KSTC STC20051017051009910/17/05 05:10:31  5-MIN KSTC 171110Z AUTO 29010KT 10SM CLR 14/11 A2967 1260 80 1500 290/10 RMK AO2
14926KSTC STC20051017051509910/17/05 05:15:31  5-MIN KSTC 171115Z AUTO 29011KT 10SM CLR 14/10 A2967 1260 77 1500 290/11 RMK AO2
14926KSTC STC20051017052009910/17/05 05:20:31  5-MIN KSTC 171120Z AUTO 29010KT 10SM CLR 13/10 A2967 1260 80 1400 290/10 RMK AO2
14926KSTC STC20051017052509910/17/05 05:25:31  5-MIN KSTC 171125Z AUTO 29009KT 10SM CLR 13/10 A2968 1250 80 1400 280/09 RMK AO2
14926KSTC STC20051017053009910/17/05 05:30:31  5-MIN KSTC 171130Z AUTO 29009KT 10SM CLR 13/10 A2968 1250 80 1400 290/09 RMK AO2
14926KSTC STC20051017053509910/17/05 05:35:31  5-MIN KSTC 171135Z AUTO 29009KT 10SM CLR 13/10 A2968 1250 83 1300 280/09 RMK AO2
14926KSTC STC20051017054009910/17/05 05:40:31  5-MIN KSTC 171140Z AUTO 29009KT 10SM CLR 13/10 A2968 1250 80 1400 280/09 RMK AO2
14926KSTC STC20051017054509410/17/05 05:45:31  5-MIN KSTC 171145Z 29008KT 10SM CLR 13/10 A2968 1250 83 1300 290/08 RMK AO2
14926KSTC STC20051017055014110/17/05 05:50:31  5-MIN KSTC 171150Z 29010KT 10SM CLR 13/09 A2968 1250 80 1300 290/10 RMK AO2 SLP057 60023 70024 T01280094 10144 20111 56034
14926KSTC STC20051017055509410/17/05 05:55:31  5-MIN KSTC 171155Z 29010KT 10SM CLR 13/09 A2968 1250 80 1300 290/10 RMK AO2
14926KSTC STC20051017060009410/17/05 06:00:31  5-MIN KSTC 171200Z 29010KT 10SM CLR 13/09 A2968 1250 77 1300 290/10 RMK AO2
14926KSTC STC20051017060509410/17/05 06:05:31  5-MIN KSTC 171205Z 29011KT 10SM CLR 13/09 A2968 1250 77 1300 290/11 RMK AO2
14926KSTC STC20051017061009410/17/05 06:10:31  5-MIN KSTC 171210Z 29011KT 10SM CLR 13/09 A2969 1240 77 1300 290/11 RMK AO2
14926KSTC STC20051017061509410/17/05 06:15:31  5-MIN KSTC 171215Z 29012KT 10SM CLR 13/09 A2969 1240 77 1300 290/12 RMK AO2
14926KSTC STC20051017062009410/17/05 06:20:31  5-MIN KSTC 171220Z 29012KT 10SM CLR 13/08 A2969 1240 74 1300 290/12 RMK AO2
14926KSTC STC20051017062509410/17/05 06:25:31  5-MIN KSTC 171225Z 30013KT 10SM CLR 13/08 A2969 1240 74 1300 290/13 RMK AO2
14926KSTC STC20051017063009410/17/05 06:30:31  5-MIN KSTC 171230Z 29010KT 10SM CLR 13/08 A2970 1230 74 1300 290/10 RMK AO2
14926KSTC STC20051017063509410/17/05 06:35:31  5-MIN KSTC 171235Z 28010KT 10SM CLR 12/08 A2970 1230 77 1200 270/10 RMK AO2
14926KSTC STC20051017064010010/17/05 06:40:31  5-MIN KSTC 171240Z 28013G18KT 10SM CLR 12/08 A2971 1230 77 1200 280/13G18 RMK AO2
14926KSTC STC20051017064510010/17/05 06:45:31  5-MIN KSTC 171245Z 29013G18KT 10SM CLR 12/08 A2971 1220 74 1200 290/13G18 RMK AO2
14926KSTC STC20051017065011110/17/05 06:50:31  5-MIN KSTC 171250Z 29013KT 10SM CLR 12/08 A2971 1220 74 1200 290/13 RMK AO2 SLP071 T01220078
14926KSTC STC20051017065509410/17/05 06:55:31  5-MIN KSTC 171255Z 29012KT 10SM CLR 12/08 A2972 1220 74 1200 290/12 RMK AO2
14926KSTC STC20051017070009410/17/05 07:00:31  5-MIN KSTC 171300Z 29015KT 10SM CLR 12/07 A2972 1210 74 1100 290/15 RMK AO2
14926KSTC STC20051017070509410/17/05 07:05:31  5-MIN KSTC 171305Z 29015KT 10SM CLR 12/07 A2972 1210 74 1100 290/15 RMK AO2
14926KSTC STC20051017071009410/17/05 07:10:31  5-MIN KSTC 171310Z 30017KT 10SM CLR 12/07 A2973 1210 68 1200 290/17 RMK AO2
14926KSTC STC20051017071509410/17/05 07:15:31  5-MIN KSTC 171315Z 30015KT 10SM CLR 12/07 A2973 1200 68 1200 300/15 RMK AO2
14926KSTC STC20051017072009410/17/05 07:20:31  5-MIN KSTC 171320Z 30014KT 10SM CLR 12/07 A2973 1200 71 1100 300/14 RMK AO2
14926KSTC STC20051017121509410/17/05 12:15:31  5-MIN KSTC 171815Z 29015KT 10SM CLR 18/07 A2981 1130 48 1800 280/15 RMK AO2
14926KSTC STC20051017122009410/17/05 12:20:31  5-MIN KSTC 171820Z 30014KT 10SM CLR 17/07 A2981 1130 49 1700 290/14 RMK AO2
14926KSTC STC20051017122510010/17/05 12:25:31  5-MIN KSTC 171825Z 30016G19KT 10SM CLR 18/06 A2981 1130 46 1800 290/16G19 RMK AO2
14926KSTC STC20051017123010010/17/05 12:30:31  5-MIN KSTC 171830Z 30015G21KT 10SM CLR 18/06 A2981 1130 46 1800 300/15G21 RMK AO2
14926KSTC STC20051017123510010/17/05 12:35:31  5-MIN KSTC 171835Z 31017G21KT 10SM CLR 18/06 A2980 1130 46 1800 310/17G21 RMK AO2
14926KSTC STC20051017124010010/17/05 12:40:31  5-MIN KSTC 171840Z 30012G21KT 10SM CLR 18/06 A2980 1140 46 1800 300/12G21 RMK AO2
14926KSTC STC20051017124510010/17/05 12:45:31  5-MIN KSTC 171845Z 31015G21KT 10SM CLR 18/06 A2979 1140 44 1800 300/15G21 RMK AO2
14926KSTC STC20051017125011710/17/05 12:50:31  5-MIN KSTC 171850Z 30014G21KT 10SM CLR 18/07 A2979 1140 46 1800 290/14G21 RMK AO2 SLP098 T01830067
14926KSTC STC20051017125509410/17/05 12:55:31  5-MIN KSTC 171855Z 30013KT 10SM CLR 18/06 A2979 1150 46 1800 300/13 RMK AO2
14926KSTC STC20051017130009410/17/05 13:00:31  5-MIN KSTC 171900Z 31014KT 10SM CLR 18/06 A2979 1150 46 1800 310/14 RMK AO2
14926KSTC STC20051017130510010/17/05 13:05:31  5-MIN KSTC 171905Z 31016G20KT 10SM CLR 18/06 A2979 1150 46 1800 310/16G20 RMK AO2
14926KSTC STC20051017131010010/17/05 13:10:31  5-MIN KSTC 171910Z 30019G23KT 10SM CLR 18/06 A2979 1150 44 1800 300/19G23 RMK AO2
14926KSTC STC20051017131510010/17/05 13:15:31  5-MIN KSTC 171915Z 31018G23KT 10SM CLR 18/06 A2979 1150 44 1800 310/18G23 RMK AO2
14926KSTC STC20051017132010010/17/05 13:20:31  5-MIN KSTC 171920Z 31019G24KT 10SM CLR 18/06 A2979 1150 44 1800 300/19G24 RMK AO2
14926KSTC STC20051017132510010/17/05 13:25:31  5-MIN KSTC 171925Z 30013G24KT 10SM CLR 18/06 A2979 1150 42 1800 300/13G24 RMK AO2
14926KSTC STC20051017133010010/17/05 13:30:31  5-MIN KSTC 171930Z 28013G19KT 10SM CLR 18/06 A2978 1150 44 1800 280/13G19 RMK AO2
14926KSTC STC20051017133509410/17/05 13:35:31  5-MIN KSTC 171935Z 29012KT 10SM CLR 18/07 A2978 1150 46 1900 290/12 RMK AO2
14926KSTC STC20051017134009410/17/05 13:40:31  5-MIN KSTC 171940Z 30013KT 10SM CLR 18/07 A2978 1150 46 1800 290/13 RMK AO2
14926KSTC STC20051017134510010/17/05 13:45:31  5-MIN KSTC 171945Z 30014G19KT 10SM CLR 18/07 A2979 1150 46 1800 300/14G19 RMK AO2
14926KSTC STC20051017135011710/17/05 13:50:31  5-MIN KSTC 171950Z 31014G19KT 10SM CLR 18/06 A2979 1150 46 1800 310/14G19 RMK AO2 SLP096 T01780061
14926KSTC STC20051017135510010/17/05 13:55:31  5-MIN KSTC 171955Z 29011G19KT 10SM CLR 18/06 A2979 1150 44 1800 280/11G19 RMK AO2
14926KSTC STC20051017140010010/17/05 14:00:31  5-MIN KSTC 172000Z 31017G21KT 10SM CLR 18/06 A2979 1150 44 1800 300/17G21 RMK AO2
14926KSTC STC20051017140510010/17/05 14:05:31  5-MIN KSTC 172005Z 30015G21KT 10SM CLR 18/06 A2979 1150 42 1800 300/15G21 RMK AO2
14926KSTC STC20051017141009410/17/05 14:10:31  5-MIN KSTC 172010Z 30013KT 10SM CLR 18/06 A2979 1150 44 1800 300/13 RMK AO2
14926KSTC STC20051017141510010/17/05 14:15:31  5-MIN KSTC 172015Z 29016G21KT 10SM CLR 18/06 A2979 1150 44 1800 290/16G21 RMK AO2
14926KSTC STC20051017142010010/17/05 14:20:31  5-MIN KSTC 172020Z 30016G21KT 10SM CLR 18/06 A2979 1150 42 1800 290/16G21 RMK AO2
14926KSTC STC20051017142510010/17/05 14:25:31  5-MIN KSTC 172025Z 31016G20KT 10SM CLR 18/06 A2979 1150 42 1800 300/16G20 RMK AO2
14926KSTC STC20051017143010010/17/05 14:30:31  5-MIN KSTC 172030Z 29016G20KT 10SM CLR 18/06 A2979 1150 42 1800 290/16G20 RMK AO2
14926KSTC STC20051017143510010/17/05 14:35:31  5-MIN KSTC 172035Z 29013G21KT 10SM CLR 18/05 A2979 1150 41 1800 290/13G21 RMK AO2
14926KSTC STC20051017144010010/17/05 14:40:31  5-MIN KSTC 172040Z 29019G22KT 10SM CLR 18/05 A2979 1150 41 1800 280/19G22 RMK AO2
14926KSTC STC20051017144510510/17/05 14:45:31  5-MIN KSTC 172045Z AUTO 30014G22KT 10SM CLR 18/06 A2979 1150 42 1800 300/14G22 RMK AO2
14926KSTC STC20051017145012310/17/05 14:50:31  5-MIN KSTC 172050Z 31015G22KT 10SM CLR 18/06 A2979 1150 42 1800 300/15G22 RMK AO2 SLP096 T01830056 51013
14926KSTC STC20051017145509410/17/05 14:55:31  5-MIN KSTC 172055Z 31016KT 10SM CLR 18/06 A2979 1150 42 1800 310/16 RMK AO2
14926KSTC STC20051017150009410/17/05 15:00:31  5-MIN KSTC 172100Z 31016KT 10SM CLR 18/06 A2979 1150 42 1800 310/16 RMK AO2
14926KSTC STC20051017150509410/17/05 15:05:31  5-MIN KSTC 172105Z 30013KT 10SM CLR 18/06 A2979 1150 44 1800 300/13 RMK AO2
14926KSTC STC20051017151010010/17/05 15:10:31  5-MIN KSTC 172110Z 29015G21KT 10SM CLR 18/06 A2979 1150 42 1800 280/15G21 RMK AO2
14926KSTC STC20051017151510010/17/05 15:15:31  5-MIN KSTC 172115Z 29011G21KT 10SM CLR 18/06 A2979 1140 42 1800 290/11G21 RMK AO2
14926KSTC STC20051017152010010/17/05 15:20:31  5-MIN KSTC 172120Z 29016G21KT 10SM CLR 18/06 A2979 1140 44 1800 290/16G21 RMK AO2
14926KSTC STC20051017152510010/17/05 15:25:31  5-MIN KSTC 172125Z 30015G21KT 10SM CLR 18/05 A2979 1140 42 1800 300/15G21 RMK AO2
14926KSTC STC20051017153009410/17/05 15:30:31  5-MIN KSTC 172130Z 29014KT 10SM CLR 18/06 A2980 1140 44 1800 290/14 RMK AO2
14926KSTC STC20051017153509410/17/05 15:35:31  5-MIN KSTC 172135Z 30014KT 10SM CLR 18/06 A2980 1140 44 1800 290/14 RMK AO2
14926KSTC STC20051017154010010/17/05 15:40:31  5-MIN KSTC 172140Z 28018G25KT 10SM CLR 18/06 A2980 1140 44 1800 280/18G25 RMK AO2
14926KSTC STC20051017154510010/17/05 15:45:31  5-MIN KSTC 172145Z 29016G25KT 10SM CLR 18/06 A2980 1130 44 1800 280/16G25 RMK AO2
14926KSTC STC20051017155011710/17/05 15:50:31  5-MIN KSTC 172150Z 30016G21KT 10SM CLR 18/05 A2980 1130 42 1800 290/16G21 RMK AO2 SLP101 T01780050
14926KSTC STC20051017155510010/17/05 15:55:31  5-MIN KSTC 172155Z 30014G21KT 10SM CLR 17/05 A2980 1130 44 1700 300/14G21 RMK AO2
14926KSTC STC20051017160009410/17/05 16:00:31  5-MIN KSTC 172200Z 30013KT 10SM CLR 17/06 A2980 1130 46 1700 300/13 RMK AO2
14926KSTC STC20051017160509410/17/05 16:05:31  5-MIN KSTC 172205Z 29011KT 10SM CLR 17/06 A2980 1130 46 1700 290/11 RMK AO2
14926KSTC STC20051017161010010/17/05 16:10:31  5-MIN KSTC 172210Z 29016G20KT 10SM CLR 17/06 A2981 1130 46 1700 290/16G20 RMK AO2
14926KSTC STC20051017161510010/17/05 16:15:31  5-MIN KSTC 172215Z 28016G20KT 10SM CLR 17/06 A2981 1130 46 1700 280/16G20 RMK AO2
14926KSTC STC20051017162010010/17/05 16:20:31  5-MIN KSTC 172220Z 28014G19KT 10SM CLR 17/06 A2980 1130 46 1700 280/14G19 RMK AO2
14926KSTC STC20051017162509410/17/05 16:25:31  5-MIN KSTC 172225Z 29012KT 10SM CLR 17/06 A2980 1130 47 1600 280/12 RMK AO2
14926KSTC STC20051017163010010/17/05 16:30:31  5-MIN KSTC 172230Z 29015G18KT 10SM CLR 17/06 A2981 1130 47 1600 290/15G18 RMK AO2
14926KSTC STC20051017163510010/17/05 16:35:31  5-MIN KSTC 172235Z 30012G18KT 10SM CLR 17/06 A2981 1130 47 1600 290/12G18 RMK AO2
14926KSTC STC20051017164009410/17/05 16:40:31  5-MIN KSTC 172240Z 29011KT 10SM CLR 17/06 A2981 1130 47 1600 290/11 RMK AO2
14926KSTC STC20051017164509410/17/05 16:45:31  5-MIN KSTC 172245Z 30012KT 10SM CLR 17/06 A2981 1130 47 1600 290/12 RMK AO2
14926KSTC STC20051017165011110/17/05 16:50:31  5-MIN KSTC 172250Z 29013KT 10SM CLR 16/06 A2981 1130 49 1600 290/13 RMK AO2 SLP103 T01610056
14926KSTC STC20051017165509410/17/05 16:55:31  5-MIN KSTC 172255Z 30011KT 10SM CLR 16/06 A2981 1130 49 1600 290/11 RMK AO2
14926KSTC STC20051017170009410/17/05 17:00:31  5-MIN KSTC 172300Z 29012KT 10SM CLR 16/06 A2981 1130 49 1600 280/12 RMK AO2
14926KSTC STC20051017170509410/17/05 17:05:31  5-MIN KSTC 172305Z 30012KT 10SM CLR 16/06 A2981 1130 51 1500 290/12 RMK AO2
14926KSTC STC20051017171009410/17/05 17:10:31  5-MIN KSTC 172310Z 29009KT 10SM CLR 16/06 A2981 1130 51 1500 290/09 RMK AO2
14926KSTC STC20051017171509410/17/05 17:15:31  5-MIN KSTC 172315Z 28010KT 10SM CLR 16/06 A2981 1130 51 1500 280/10 RMK AO2
14926KSTC STC20051017172009410/17/05 17:20:31  5-MIN KSTC 172320Z 29009KT 10SM CLR 15/06 A2981 1130 53 1400 290/09 RMK AO2
14926KSTC STC20051017172509410/17/05 17:25:31  5-MIN KSTC 172325Z 29008KT 10SM CLR 14/06 A2981 1130 55 1400 290/08 RMK AO2
14926KSTC STC20051017173009410/17/05 17:30:31  5-MIN KSTC 172330Z 29007KT 10SM CLR 14/06 A2981 1130 55 1400 290/07 RMK AO2
14926KSTC STC20051017173509410/17/05 17:35:31  5-MIN KSTC 172335Z 29006KT 10SM CLR 14/06 A2981 1130 55 1400 280/06 RMK AO2
14926KSTC STC20051017174009410/17/05 17:40:31  5-MIN KSTC 172340Z 28007KT 10SM CLR 14/06 A2981 1130 57 1300 280/07 RMK AO2
14926KSTC STC20051017174509410/17/05 17:45:31  5-MIN KSTC 172345Z 29007KT 10SM CLR 14/06 A2981 1120 57 1300 290/07 RMK AO2
14926KSTC STC20051017175012910/17/05 17:50:31  5-MIN KSTC 172350Z 28007KT 10SM CLR 14/06 A2982 1120 57 1300 280/07 RMK AO2 SLP107 T01390056 10189 20139 55009
14926KSTC STC20051017175509410/17/05 17:55:31  5-MIN KSTC 172355Z 28006KT 10SM CLR 13/06 A2982 1120 59 1200 280/06 RMK AO2
14926KSTC STC20051017180009410/17/05 18:00:31  5-MIN KSTC 180000Z 28006KT 10SM CLR 13/06 A2982 1120 59 1200 280/06 RMK AO2
14926KSTC STC20051017180509410/17/05 18:05:31  5-MIN KSTC 180005Z 28006KT 10SM CLR 13/06 A2982 1120 59 1200 280/06 RMK AO2
14926KSTC STC20051017181009410/17/05 18:10:31  5-MIN KSTC 180010Z 28006KT 10SM CLR 13/06 A2982 1120 61 1200 270/06 RMK AO2
14926KSTC STC20051017181509410/17/05 18:15:31  5-MIN KSTC 180015Z 28006KT 10SM CLR 13/06 A2982 1120 61 1200 280/06 RMK AO2
14926KSTC STC20051017182009410/17/05 18:20:31  5-MIN KSTC 180020Z 28007KT 10SM CLR 13/06 A2983 1110 61 1200 280/07 RMK AO2
14926KSTC STC20051017182509410/17/05 18:25:31  5-MIN KSTC 180025Z 28007KT 10SM CLR 13/06 A2983 1110 61 1200 280/07 RMK AO2
14926KSTC STC20051017183009410/17/05 18:30:31  5-MIN KSTC 180030Z 28006KT 10SM CLR 13/06 A2983 1110 63 1100 270/06 RMK AO2
14926KSTC STC20051017183509410/17/05 18:35:31  5-MIN KSTC 180035Z 27006KT 10SM CLR 12/06 A2983 1110 66 1000 260/06 RMK AO2
14926KSTC STC20051017184009410/17/05 18:40:31  5-MIN KSTC 180040Z 27006KT 10SM CLR 11/06 A2983 1110 68 1000 270/06 RMK AO2
14926KSTC STC20051017184509410/17/05 18:45:31  5-MIN KSTC 180045Z 28006KT 10SM CLR 12/06 A2983 1110 66 1000 270/06 RMK AO2
14926KSTC STC20051017185011110/17/05 18:50:31  5-MIN KSTC 180050Z 26006KT 10SM CLR 12/06 A2983 1110 66 1000 260/06 RMK AO2 SLP110 T01170056
14926KSTC STC20051017185509410/17/05 18:55:31  5-MIN KSTC 180055Z 25005KT 10SM CLR 11/06 A2983 1110 71 1000 250/05 RMK AO2
14926KSTC STC20051017190009410/17/05 19:00:31  5-MIN KSTC 180100Z 25005KT 10SM CLR 11/06 A2983 1110 71 1000 250/05 RMK AO2
14926KSTC STC20051017190509310/17/05 19:05:31  5-MIN KSTC 180105Z 26005KT 10SM CLR 11/06 A2983 1110 74 900 260/05 RMK AO2
14926KSTC STC20051017191009310/17/05 19:10:31  5-MIN KSTC 180110Z 27005KT 10SM CLR 10/06 A2983 1110 77 800 260/05 RMK AO2
14926KSTC STC20051017191509310/17/05 19:15:31  5-MIN KSTC 180115Z 27005KT 10SM CLR 11/06 A2983 1110 74 900 270/05 RMK AO2
14926KSTC STC20051017192009310/17/05 19:20:31  5-MIN KSTC 180120Z 27004KT 10SM CLR 11/06 A2983 1110 74 900 270/04 RMK AO2
14926KSTC STC20051017192509310/17/05 19:25:31  5-MIN KSTC 180125Z 27004KT 10SM CLR 11/06 A2983 1110 71 900 270/04 RMK AO2
14926KSTC STC20051017193009310/17/05 19:30:31  5-MIN KSTC 180130Z 27004KT 10SM CLR 10/06 A2983 1110 74 800 260/04 RMK AO2
14926KSTC STC20051017193509310/17/05 19:35:31  5-MIN KSTC 180135Z 27004KT 10SM CLR 10/06 A2983 1110 74 800 260/04 RMK AO2
14926KSTC STC20051017194009310/17/05 19:40:31  5-MIN KSTC 180140Z 28004KT 10SM CLR 10/06 A2983 1110 74 800 270/04 RMK AO2
14926KSTC STC20051017194509310/17/05 19:45:31  5-MIN KSTC 180145Z 29004KT 10SM CLR 11/06 A2983 1110 71 900 290/04 RMK AO2
14926KSTC STC20051017195011010/17/05 19:50:31  5-MIN KSTC 180150Z 29005KT 10SM CLR 11/06 A2983 1110 71 900 290/05 RMK AO2 SLP112 T01060056
14926KSTC STC20051017195509310/17/05 19:55:31  5-MIN KSTC 180155Z 29005KT 10SM CLR 10/06 A2983 1110 74 800 280/05 RMK AO2
14926KSTC STC20051017200009310/17/05 20:00:31  5-MIN KSTC 180200Z 28006KT 10SM CLR 10/06 A2983 1110 74 800 280/06 RMK AO2
14926KSTC STC20051017200509310/17/05 20:05:31  5-MIN KSTC 180205Z 28006KT 10SM CLR 09/06 A2983 1110 76 700 280/06 RMK AO2
14926KSTC STC20051017201009310/17/05 20:10:31  5-MIN KSTC 180210Z 29005KT 10SM CLR 10/06 A2983 1110 74 800 290/05 RMK AO2
14926KSTC STC20051017201509310/17/05 20:15:31  5-MIN KSTC 180215Z 29004KT 10SM CLR 10/06 A2983 1110 74 800 280/04 RMK AO2
14926KSTC STC20051017202009310/17/05 20:20:31  5-MIN KSTC 180220Z 29005KT 10SM CLR 10/06 A2983 1110 74 800 280/05 RMK AO2
14926KSTC STC20051017202509310/17/05 20:25:31  5-MIN KSTC 180225Z 30004KT 10SM CLR 11/06 A2983 1110 71 900 290/04 RMK AO2
14926KSTC STC20051017203009310/17/05 20:30:31  5-MIN KSTC 180230Z 32004KT 10SM CLR 11/06 A2983 1110 71 900 310/04 RMK AO2
14926KSTC STC20051017203509310/17/05 20:35:31  5-MIN KSTC 180235Z 33003KT 10SM CLR 10/06 A2983 1110 74 800 320/03 RMK AO2
14926KSTC STC20051017204009310/17/05 20:40:31  5-MIN KSTC 180240Z 34003KT 10SM CLR 09/06 A2983 1110 76 700 340/03 RMK AO2
14926KSTC STC20051017204509310/17/05 20:45:31  5-MIN KSTC 180245Z 00000KT 10SM CLR 09/06 A2983 1110 76 700 000/00 RMK AO2
14926KSTC STC20051017205011610/17/05 20:50:31  5-MIN KSTC 180250Z 32003KT 10SM CLR 09/06 A2983 1110 79 700 320/03 RMK AO2 SLP112 T00940061 51010
14926KSTC STC20051017205509310/17/05 20:55:31  5-MIN KSTC 180255Z 00000KT 10SM CLR 09/06 A2983 1110 83 700 000/00 RMK AO2
14926KSTC STC20051017210009310/17/05 21:00:31  5-MIN KSTC 180300Z 00000KT 10SM CLR 08/06 A2983 1110 82 600 000/00 RMK AO2
14926KSTC STC20051017210509310/17/05 21:05:31  5-MIN KSTC 180305Z 00000KT 10SM CLR 08/06 A2983 1110 86 600 000/00 RMK AO2
14926KSTC STC20051017211009310/17/05 21:10:31  5-MIN KSTC 180310Z 00000KT 10SM CLR 08/06 A2983 1110 86 600 000/00 RMK AO2
14926KSTC STC20051017211509310/17/05 21:15:31  5-MIN KSTC 180315Z 00000KT 10SM CLR 08/06 A2983 1110 89 600 000/00 RMK AO2
14926KSTC STC20051017212009810/17/05 21:20:31  5-MIN KSTC 180320Z AUTO 00000KT 10SM CLR 07/06 A2983 1110 89 500 000/00 RMK AO2
14926KSTC STC20051017212509810/17/05 21:25:31  5-MIN KSTC 180325Z AUTO 00000KT 10SM CLR 07/06 A2983 1110 89 500 000/00 RMK AO2
14926KSTC STC20051017213009810/17/05 21:30:31  5-MIN KSTC 180330Z AUTO 00000KT 10SM CLR 07/06 A2983 1110 89 500 000/00 RMK AO2
14926KSTC STC20051017213509810/17/05 21:35:31  5-MIN KSTC 180335Z AUTO 22003KT 10SM CLR 07/06 A2983 1110 89 500 220/03 RMK AO2
14926KSTC STC20051017214009810/17/05 21:40:31  5-MIN KSTC 180340Z AUTO 22003KT 10SM CLR 08/06 A2983 1110 86 600 220/03 RMK AO2
14926KSTC STC20051017214509810/17/05 21:45:31  5-MIN KSTC 180345Z AUTO 00000KT 10SM CLR 08/06 A2983 1110 86 600 000/00 RMK AO2
14926KSTC STC20051017215011510/17/05 21:50:31  5-MIN KSTC 180350Z AUTO 00000KT 10SM CLR 08/06 A2983 1110 86 600 000/00 RMK AO2 SLP111 T00780056
14926KSTC STC20051017215509810/17/05 21:55:31  5-MIN KSTC 180355Z AUTO 00000KT 10SM CLR 08/06 A2982 1110 86 600 000/00 RMK AO2
14926KSTC STC20051017220009810/17/05 22:00:31  5-MIN KSTC 180400Z AUTO 00000KT 10SM CLR 07/06 A2982 1110 89 500 000/00 RMK AO2
14926KSTC STC20051017220509810/17/05 22:05:31  5-MIN KSTC 180405Z AUTO 00000KT 10SM CLR 07/05 A2983 1110 89 400 000/00 RMK AO2
14926KSTC STC20051017221009810/17/05 22:10:31  5-MIN KSTC 180410Z AUTO 00000KT 10SM CLR 07/05 A2983 1110 89 400 000/00 RMK AO2
14926KSTC STC20051017221509810/17/05 22:15:31  5-MIN KSTC 180415Z AUTO 00000KT 10SM CLR 07/05 A2983 1110 86 500 000/00 RMK AO2
14926KSTC STC20051017222009810/17/05 22:20:31  5-MIN KSTC 180420Z AUTO 00000KT 10SM CLR 07/06 A2983 1110 89 500 000/00 RMK AO2
14926KSTC STC20051017222509810/17/05 22:25:31  5-MIN KSTC 180425Z AUTO 00000KT 10SM CLR 07/05 A2983 1110 89 400 000/00 RMK AO2
14926KSTC STC20051017223009810/17/05 22:30:31  5-MIN KSTC 180430Z AUTO 00000KT 10SM CLR 07/06 A2983 1110 89 500 000/00 RMK AO2
14926KSTC STC20051017223509810/17/05 22:35:31  5-MIN KSTC 180435Z AUTO 00000KT 10SM CLR 07/06 A2983 1110 89 500 000/00 RMK AO2
14926KSTC STC20051017224009810/17/05 22:40:31  5-MIN KSTC 180440Z AUTO 00000KT 10SM CLR 07/05 A2983 1110 89 400 000/00 RMK AO2
14926KSTC STC20051017224509810/17/05 22:45:31  5-MIN KSTC 180445Z AUTO 00000KT 10SM CLR 07/05 A2983 1110 89 400 000/00 RMK AO2
14926KSTC STC20051017225011510/17/05 22:50:31  5-MIN KSTC 180450Z AUTO 00000KT 10SM CLR 06/05 A2983 1110 93 300 000/00 RMK AO2 SLP114 T00610050
14926KSTC STC20051017225509810/17/05 22:55:31  5-MIN KSTC 180455Z AUTO 00000KT 10SM CLR 06/05 A2983 1110 93 300 000/00 RMK AO2
14926KSTC STC20051017230009810/17/05 23:00:31  5-MIN KSTC 180500Z AUTO 19004KT 10SM CLR 06/05 A2984 1100 93 300 190/04 RMK AO2
14926KSTC STC20051017230509810/17/05 23:05:31  5-MIN KSTC 180505Z AUTO 20005KT 10SM CLR 06/05 A2984 1100 93 300 200/05 RMK AO2
14926KSTC STC20051017231009810/17/05 23:10:31  5-MIN KSTC 180510Z AUTO 00000KT 10SM CLR 06/04 A2984 1100 89 300 000/00 RMK AO2
14926KSTC STC20051017231509810/17/05 23:15:31  5-MIN KSTC 180515Z AUTO 00000KT 10SM CLR 07/05 A2984 1100 86 500 000/00 RMK AO2
14926KSTC STC20051017232009810/17/05 23:20:31  5-MIN KSTC 180520Z AUTO 20003KT 10SM CLR 07/05 A2984 1100 89 400 190/03 RMK AO2
14926KSTC STC20051017232509810/17/05 23:25:31  5-MIN KSTC 180525Z AUTO 20004KT 10SM CLR 07/06 A2984 1100 89 500 200/04 RMK AO2
14926KSTC STC20051017233009810/17/05 23:30:31  5-MIN KSTC 180530Z AUTO 20003KT 10SM CLR 07/05 A2984 1100 89 400 190/03 RMK AO2
14926KSTC STC20051017233509810/17/05 23:35:31  5-MIN KSTC 180535Z AUTO 21004KT 10SM CLR 07/05 A2984 1100 89 400 210/04 RMK AO2
14926KSTC STC20051017234009810/17/05 23:40:31  5-MIN KSTC 180540Z AUTO 20003KT 10SM CLR 07/05 A2984 1100 89 400 200/03 RMK AO2
14926KSTC STC20051017234509810/17/05 23:45:31  5-MIN KSTC 180545Z AUTO 20003KT 10SM CLR 07/05 A2984 1100 89 400 190/03 RMK AO2
14926KSTC STC20051017235014310/17/05 23:50:31  5-MIN KSTC 180550Z AUTO 20003KT 10SM CLR 07/05 A2985 1100 86 500 190/03 RMK AO2 SLP117 T00720050 10133 20061 401890061 51004
14926KSTC STC20051017235509810/17/05 23:55:31  5-MIN KSTC 180555Z AUTO 20003KT 10SM CLR 07/05 A2985 1090 86 500 190/03 RMK AO2
14926KSTC STC20051018000009810/18/05 00:00:32  5-MIN KSTC 180600Z AUTO 20004KT 10SM CLR 07/05 A2985 1090 86 500 200/04 RMK AO2
14926KSTC STC20051018000509810/18/05 00:05:31  5-MIN KSTC 180605Z AUTO 00000KT 10SM CLR 07/05 A2985 1090 86 500 000/00 RMK AO2
14926KSTC STC20051018001009810/18/05 00:10:31  5-MIN KSTC 180610Z AUTO 00000KT 10SM CLR 07/05 A2985 1090 86 500 000/00 RMK AO2
14926KSTC STC20051018001509810/18/05 00:15:31  5-MIN KSTC 180615Z AUTO 00000KT 10SM CLR 08/06 A2985 1100 86 500 000/00 RMK AO2
14926KSTC STC20051018002009810/18/05 00:20:31  5-MIN KSTC 180620Z AUTO 00000KT 10SM CLR 07/05 A2984 1100 89 400 000/00 RMK AO2
14926KSTC STC20051018002509810/18/05 00:25:31  5-MIN KSTC 180625Z AUTO 00000KT 10SM CLR 07/05 A2984 1100 89 400 000/00 RMK AO2
14926KSTC STC20051018003009810/18/05 00:30:31  5-MIN KSTC 180630Z AUTO 00000KT 10SM CLR 06/05 A2984 1100 93 300 000/00 RMK AO2
14926KSTC STC20051018003509810/18/05 00:35:31  5-MIN KSTC 180635Z AUTO 00000KT 10SM CLR 07/05 A2984 1100 89 400 000/00 RMK AO2
14926KSTC STC20051018004009810/18/05 00:40:31  5-MIN KSTC 180640Z AUTO 00000KT 10SM CLR 07/05 A2984 1100 89 400 000/00 RMK AO2
14926KSTC STC20051018004509810/18/05 00:45:31  5-MIN KSTC 180645Z AUTO 00000KT 10SM CLR 06/05 A2984 1100 93 300 000/00 RMK AO2
14926KSTC STC20051018005011510/18/05 00:50:31  5-MIN KSTC 180650Z AUTO 00000KT 10SM CLR 06/04 A2984 1100 92 300 000/00 RMK AO2 SLP115 T00560044
14926KSTC STC20051018005509810/18/05 00:55:31  5-MIN KSTC 180655Z AUTO 00000KT 10SM CLR 06/04 A2984 1100 92 300 000/00 RMK AO2
14926KSTC STC20051018010009810/18/05 01:00:31  5-MIN KSTC 180700Z AUTO 00000KT 10SM CLR 06/04 A2984 1100 92 300 000/00 RMK AO2
14926KSTC STC20051018010509810/18/05 01:05:31  5-MIN KSTC 180705Z AUTO 00000KT 10SM CLR 06/04 A2984 1100 92 300 000/00 RMK AO2
14926KSTC STC20051018011009810/18/05 01:10:31  5-MIN KSTC 180710Z AUTO 20003KT 10SM CLR 06/04 A2984 1100 92 300 200/03 RMK AO2
14926KSTC STC20051018011509810/18/05 01:15:31  5-MIN KSTC 180715Z AUTO 18003KT 10SM CLR 05/04 A2984 1100 92 200 180/03 RMK AO2
14926KSTC STC20051018012009810/18/05 01:20:31  5-MIN KSTC 180720Z AUTO 00000KT 10SM CLR 05/04 A2984 1100 92 200 000/00 RMK AO2
14926KSTC STC20051018012509810/18/05 01:25:31  5-MIN KSTC 180725Z AUTO 00000KT 10SM CLR 05/04 A2984 1100 92 200 000/00 RMK AO2
14926KSTC STC20051018013009810/18/05 01:30:31  5-MIN KSTC 180730Z AUTO 00000KT 10SM CLR 05/04 A2984 1100 96 200 000/00 RMK AO2
14926KSTC STC20051018013509810/18/05 01:35:31  5-MIN KSTC 180735Z AUTO 00000KT 10SM CLR 06/04 A2984 1100 92 300 000/00 RMK AO2
14926KSTC STC20051018014009810/18/05 01:40:31  5-MIN KSTC 180740Z AUTO 00000KT 10SM CLR 06/04 A2984 1100 92 300 000/00 RMK AO2
14926KSTC STC20051018014509810/18/05 01:45:31  5-MIN KSTC 180745Z AUTO 00000KT 10SM CLR 05/04 A2984 1100 92 200 000/00 RMK AO2
14926KSTC STC20051018015011510/18/05 01:50:31  5-MIN KSTC 180750Z AUTO 00000KT 10SM CLR 04/04 A2983 1110 96 100 000/00 RMK AO2 SLP114 T00440039
14926KSTC STC20051018015509810/18/05 01:55:31  5-MIN KSTC 180755Z AUTO 00000KT 10SM CLR 05/04 A2983 1110 92 200 000/00 RMK AO2
14926KSTC STC20051018020009810/18/05 02:00:31  5-MIN KSTC 180800Z AUTO 00000KT 10SM CLR 06/04 A2983 1110 92 300 000/00 RMK AO2
14926KSTC STC20051018020509810/18/05 02:05:31  5-MIN KSTC 180805Z AUTO 00000KT 10SM CLR 06/04 A2983 1110 92 300 000/00 RMK AO2
14926KSTC STC20051018021009810/18/05 02:10:31  5-MIN KSTC 180810Z AUTO 00000KT 10SM CLR 05/04 A2983 1110 92 200 000/00 RMK AO2
14926KSTC STC20051018021509810/18/05 02:15:31  5-MIN KSTC 180815Z AUTO 00000KT 10SM CLR 06/04 A2983 1110 92 300 000/00 RMK AO2
14926KSTC STC20051018022009810/18/05 02:20:31  5-MIN KSTC 180820Z AUTO 15003KT 10SM CLR 06/04 A2983 1110 92 300 150/03 RMK AO2
14926KSTC STC20051018022509810/18/05 02:25:31  5-MIN KSTC 180825Z AUTO 00000KT 10SM CLR 05/04 A2983 1110 92 200 000/00 RMK AO2
14926KSTC STC20051018023009810/18/05 02:30:31  5-MIN KSTC 180830Z AUTO 00000KT 10SM CLR 05/04 A2983 1110 92 200 000/00 RMK AO2
14926KSTC STC20051018023509810/18/05 02:35:31  5-MIN KSTC 180835Z AUTO 00000KT 10SM CLR 04/04 A2982 1120 96 100 000/00 RMK AO2
14926KSTC STC20051018024009810/18/05 02:40:31  5-MIN KSTC 180840Z AUTO 00000KT 10SM CLR 04/04 A2982 1120 96 100 000/00 RMK AO2
14926KSTC STC20051018024509810/18/05 02:45:31  5-MIN KSTC 180845Z AUTO 07004KT 10SM CLR 04/03 A2982 1120 92 200 070/04 RMK AO2
14926KSTC STC20051018025012110/18/05 02:50:31  5-MIN KSTC 180850Z AUTO 07005KT 10SM CLR 04/04 A2982 1120 96 200 070/05 RMK AO2 SLP108 T00440039 53006
14926KSTC STC20051018025509810/18/05 02:55:31  5-MIN KSTC 180855Z AUTO 08005KT 10SM CLR 05/04 A2982 1120 92 200 070/05 RMK AO2
14926KSTC STC20051018030009810/18/05 03:00:31  5-MIN KSTC 180900Z AUTO 10003KT 10SM CLR 06/04 A2982 1120 92 300 090/03 RMK AO2
14926KSTC STC20051018030509810/18/05 03:05:31  5-MIN KSTC 180905Z AUTO 14003KT 10SM CLR 05/04 A2982 1120 96 200 140/03 RMK AO2
14926KSTC STC20051018031009810/18/05 03:10:31  5-MIN KSTC 180910Z AUTO 13003KT 10SM CLR 04/04 A2982 1120 96 200 130/03 RMK AO2
14926KSTC STC20051018031509810/18/05 03:15:31  5-MIN KSTC 180915Z AUTO 12003KT 10SM CLR 04/03 A2982 1120 92 200 120/03 RMK AO2
14926KSTC STC20051018032009810/18/05 03:20:31  5-MIN KSTC 180920Z AUTO 09003KT 10SM CLR 04/03 A2982 1120 92 200 080/03 RMK AO2
14926KSTC STC20051018032509810/18/05 03:25:31  5-MIN KSTC 180925Z AUTO 00000KT 10SM CLR 05/04 A2982 1120 92 200 000/00 RMK AO2
14926KSTC STC20051018033009810/18/05 03:30:31  5-MIN KSTC 180930Z AUTO 00000KT 10SM CLR 05/04 A2982 1120 96 200 000/00 RMK AO2
14926KSTC STC20051018033509810/18/05 03:35:31  5-MIN KSTC 180935Z AUTO 07003KT 10SM CLR 05/04 A2982 1120 92 200 070/03 RMK AO2
14926KSTC STC20051018034009810/18/05 03:40:31  5-MIN KSTC 180940Z AUTO 00000KT 10SM CLR 06/04 A2983 1110 92 300 000/00 RMK AO2
14926KSTC STC20051018034509810/18/05 03:45:31  5-MIN KSTC 180945Z AUTO 08003KT 10SM CLR 06/04 A2983 1110 92 300 080/03 RMK AO2
14926KSTC STC20051018035011510/18/05 03:50:31  5-MIN KSTC 180950Z AUTO 08004KT 10SM CLR 05/04 A2983 1110 96 200 070/04 RMK AO2 SLP111 T00500044
14926KSTC STC20051018035509810/18/05 03:55:31  5-MIN KSTC 180955Z AUTO 07003KT 10SM CLR 05/04 A2983 1110 92 200 070/03 RMK AO2
14926KSTC STC20051018040009810/18/05 04:00:31  5-MIN KSTC 181000Z AUTO 05005KT 10SM CLR 04/04 A2983 1110 96 100 050/05 RMK AO2
14926KSTC STC20051018040509810/18/05 04:05:31  5-MIN KSTC 181005Z AUTO 06006KT 10SM CLR 04/04 A2983 1110 96 100 050/06 RMK AO2
14926KSTC STC20051018041009810/18/05 04:10:31  5-MIN KSTC 181010Z AUTO 08004KT 10SM CLR 06/04 A2983 1110 92 300 070/04 RMK AO2
14926KSTC STC20051018041509810/18/05 04:15:31  5-MIN KSTC 181015Z AUTO 08005KT 10SM CLR 06/04 A2983 1110 92 300 080/05 RMK AO2
14926KSTC STC20051018042009810/18/05 04:20:31  5-MIN KSTC 181020Z AUTO 08006KT 10SM CLR 06/04 A2983 1110 92 300 070/06 RMK AO2
14926KSTC STC20051018042509810/18/05 04:25:31  5-MIN KSTC 181025Z AUTO 09004KT 10SM CLR 06/04 A2983 1110 92 300 080/04 RMK AO2
14926KSTC STC20051018043009810/18/05 04:30:31  5-MIN KSTC 181030Z AUTO 09003KT 10SM CLR 06/04 A2982 1120 92 300 080/03 RMK AO2
14926KSTC STC20051018043509810/18/05 04:35:31  5-MIN KSTC 181035Z AUTO 11004KT 10SM CLR 06/04 A2982 1120 92 300 110/04 RMK AO2
14926KSTC STC20051018044009810/18/05 04:40:31  5-MIN KSTC 181040Z AUTO 09005KT 10SM CLR 06/04 A2982 1120 92 300 090/05 RMK AO2
14926KSTC STC20051018044509810/18/05 04:45:31  5-MIN KSTC 181045Z AUTO 09004KT 10SM CLR 06/04 A2982 1120 92 300 090/04 RMK AO2
14926KSTC STC20051018045011510/18/05 04:50:31  5-MIN KSTC 181050Z AUTO 00000KT 10SM CLR 05/04 A2982 1120 92 200 000/00 RMK AO2 SLP111 T00500039
14926KSTC STC20051018045509810/18/05 04:55:31  5-MIN KSTC 181055Z AUTO 09003KT 10SM CLR 06/04 A2982 1120 92 300 090/03 RMK AO2
14926KSTC STC20051018050009810/18/05 05:00:31  5-MIN KSTC 181100Z AUTO 00000KT 10SM CLR 05/04 A2982 1120 92 200 000/00 RMK AO2
14926KSTC STC20051018050509810/18/05 05:05:31  5-MIN KSTC 181105Z AUTO 11003KT 10SM CLR 05/04 A2982 1120 92 200 110/03 RMK AO2
14926KSTC STC20051018051009810/18/05 05:10:31  5-MIN KSTC 181110Z AUTO 12003KT 10SM CLR 05/04 A2982 1120 92 200 110/03 RMK AO2
14926KSTC STC20051018051509810/18/05 05:15:31  5-MIN KSTC 181115Z AUTO 12004KT 10SM CLR 05/04 A2981 1130 92 200 120/04 RMK AO2
14926KSTC STC20051018052009810/18/05 05:20:31  5-MIN KSTC 181120Z AUTO 12006KT 10SM CLR 05/04 A2981 1130 92 200 120/06 RMK AO2
14926KSTC STC20051018052509810/18/05 05:25:31  5-MIN KSTC 181125Z AUTO 12006KT 10SM CLR 07/05 A2980 1130 89 400 120/06 RMK AO2
14926KSTC STC20051018053009810/18/05 05:30:31  5-MIN KSTC 181130Z AUTO 12005KT 10SM CLR 07/05 A2981 1130 89 400 120/05 RMK AO2
14926KSTC STC20051018053509810/18/05 05:35:31  5-MIN KSTC 181135Z AUTO 12005KT 10SM CLR 07/05 A2981 1130 89 400 120/05 RMK AO2
14926KSTC STC20051018054009810/18/05 05:40:31  5-MIN KSTC 181140Z AUTO 13005KT 10SM CLR 07/05 A2981 1130 89 400 120/05 RMK AO2
14926KSTC STC20051018054509810/18/05 05:45:31  5-MIN KSTC 181145Z AUTO 13005KT 10SM CLR 07/05 A2980 1140 89 400 130/05 RMK AO2
14926KSTC STC20051018055012810/18/05 05:50:31  5-MIN KSTC 181150Z 14005KT 10SM CLR 06/05 A2980 1140 93 400 140/05 RMK AO2 SLP103 T00610050 10078 20044 58009
14926KSTC STC20051018055509310/18/05 05:55:31  5-MIN KSTC 181155Z 14005KT 10SM CLR 06/04 A2980 1140 92 300 130/05 RMK AO2
14926KSTC STC20051018060009310/18/05 06:00:31  5-MIN KSTC 181200Z 14005KT 10SM CLR 06/05 A2980 1140 93 400 140/05 RMK AO2
14926KSTC STC20051018060509310/18/05 06:05:31  5-MIN KSTC 181205Z 13004KT 10SM CLR 06/04 A2980 1140 92 300 130/04 RMK AO2
14926KSTC STC20051018061009310/18/05 06:10:31  5-MIN KSTC 181210Z 11003KT 10SM CLR 06/04 A2980 1140 89 400 110/03 RMK AO2
14926KSTC STC20051018061509310/18/05 06:15:31  5-MIN KSTC 181215Z 11003KT 10SM CLR 07/05 A2980 1140 89 500 110/03 RMK AO2
14926KSTC STC20051018062009310/18/05 06:20:31  5-MIN KSTC 181220Z 13005KT 10SM CLR 07/05 A2979 1140 89 500 120/05 RMK AO2
14926KSTC STC20051018062509310/18/05 06:25:31  5-MIN KSTC 181225Z 15004KT 10SM CLR 07/05 A2979 1150 89 500 150/04 RMK AO2
14926KSTC STC20051018063009310/18/05 06:30:31  5-MIN KSTC 181230Z 16005KT 10SM CLR 05/04 A2979 1150 92 300 160/05 RMK AO2
14926KSTC STC20051018063509310/18/05 06:35:31  5-MIN KSTC 181235Z 16006KT 10SM CLR 05/04 A2979 1150 92 300 160/06 RMK AO2
14926KSTC STC20051018064009310/18/05 06:40:31  5-MIN KSTC 181240Z 17004KT 10SM CLR 06/04 A2979 1150 89 300 170/04 RMK AO2
14926KSTC STC20051018064509310/18/05 06:45:31  5-MIN KSTC 181245Z 17003KT 10SM CLR 05/04 A2979 1150 92 300 160/03 RMK AO2
14926KSTC STC20051018065011010/18/05 06:50:31  5-MIN KSTC 181250Z 00000KT 10SM CLR 05/04 A2979 1150 92 300 000/00 RMK AO2 SLP101 T00500039
14926KSTC STC20051018065509310/18/05 06:55:31  5-MIN KSTC 181255Z 00000KT 10SM CLR 06/04 A2979 1150 92 300 000/00 RMK AO2
14926KSTC STC20051018070009310/18/05 07:00:31  5-MIN KSTC 181300Z 10003KT 10SM CLR 06/04 A2979 1150 92 300 100/03 RMK AO2
14926KSTC STC20051018070509310/18/05 07:05:31  5-MIN KSTC 181305Z 13004KT 10SM CLR 06/04 A2979 1150 89 400 130/04 RMK AO2
14926KSTC STC20051018071009310/18/05 07:10:31  5-MIN KSTC 181310Z 14004KT 10SM CLR 07/05 A2979 1150 89 500 140/04 RMK AO2
14926KSTC STC20051018071509310/18/05 07:15:31  5-MIN KSTC 181315Z 12003KT 10SM CLR 07/05 A2979 1150 89 500 120/03 RMK AO2
14926KSTC STC20051018072009310/18/05 07:20:31  5-MIN KSTC 181320Z 08003KT 10SM CLR 07/05 A2979 1150 89 500 080/03 RMK AO2
14926KSTC STC20051018072509310/18/05 07:25:31  5-MIN KSTC 181325Z 09004KT 10SM CLR 07/05 A2979 1150 86 500 090/04 RMK AO2
14926KSTC STC20051018073009310/18/05 07:30:31  5-MIN KSTC 181330Z 09004KT 10SM CLR 08/06 A2979 1150 86 600 090/04 RMK AO2
14926KSTC STC20051018073509610/18/05 07:35:31  5-MIN KSTC 181335Z 09004KT 10SM FEW110 08/06 A2979 1150 86 600 090/04 RMK AO2
14926KSTC STC20051018074009310/18/05 07:40:31  5-MIN KSTC 181340Z 09005KT 10SM CLR 08/06 A2978 1150 86 700 090/05 RMK AO2
14926KSTC STC20051018074509310/18/05 07:45:31  5-MIN KSTC 181345Z 09006KT 10SM CLR 08/06 A2979 1150 82 700 090/06 RMK AO2
14926KSTC STC20051018075011010/18/05 07:50:31  5-MIN KSTC 181350Z 11004KT 10SM CLR 09/06 A2979 1150 83 700 110/04 RMK AO2 SLP099 T00890061
14926KSTC STC20051018075509310/18/05 07:55:31  5-MIN KSTC 181355Z 12005KT 10SM CLR 09/06 A2978 1150 83 700 110/05 RMK AO2
14926KSTC STC20051018080009310/18/05 08:00:31  5-MIN KSTC 181400Z 12004KT 10SM CLR 09/06 A2978 1150 79 800 120/04 RMK AO2
14926KSTC STC20051018080509310/18/05 08:05:31  5-MIN KSTC 181405Z 10004KT 10SM CLR 09/06 A2978 1150 79 800 100/04 RMK AO2
14926KSTC STC20051018081009310/18/05 08:10:31  5-MIN KSTC 181410Z 12005KT 10SM CLR 10/06 A2978 1150 77 900 120/05 RMK AO2
14926KSTC STC20051018081509310/18/05 08:15:31  5-MIN KSTC 181415Z 10005KT 10SM CLR 10/07 A2978 1150 80 900 100/05 RMK AO2
14926KSTC STC20051018082009310/18/05 08:20:31  5-MIN KSTC 181420Z 13006KT 10SM CLR 11/07 A2978 1150 77 900 120/06 RMK AO2
14926KSTC STC20051018082509310/18/05 08:25:31  5-MIN KSTC 181425Z 13005KT 10SM CLR 11/07 A2978 1160 77 900 130/05 RMK AO2
14926KSTC STC20051018083009310/18/05 08:30:31  5-MIN KSTC 181430Z 14005KT 10SM CLR 11/07 A2978 1160 77 900 130/05 RMK AO2
14926KSTC STC20051018083509310/18/05 08:35:31  5-MIN KSTC 181435Z 14007KT 10SM CLR 11/07 A2978 1160 77 900 140/07 RMK AO2
14926KSTC STC20051018084009410/18/05 08:40:31  5-MIN KSTC 181440Z 14006KT 10SM CLR 11/07 A2978 1160 77 1000 140/06 RMK AO2
14926KSTC STC20051018084509410/18/05 08:45:31  5-MIN KSTC 181445Z 14006KT 10SM CLR 11/07 A2978 1160 77 1000 140/06 RMK AO2
14926KSTC STC20051018085011710/18/05 08:50:31  5-MIN KSTC 181450Z 14006KT 10SM CLR 11/07 A2977 1160 77 1000 130/06 RMK AO2 SLP094 T01110072 58007
14926KSTC STC20051018085509410/18/05 08:55:31  5-MIN KSTC 181455Z 14005KT 10SM CLR 12/08 A2977 1160 77 1100 140/05 RMK AO2
14926KSTC STC20051018090009410/18/05 09:00:31  5-MIN KSTC 181500Z 14007KT 10SM CLR 12/08 A2977 1170 74 1200 140/07 RMK AO2
14926KSTC STC20051018090509410/18/05 09:05:31  5-MIN KSTC 181505Z 14007KT 10SM CLR 13/08 A2977 1170 71 1200 140/07 RMK AO2
14926KSTC STC20051018091009410/18/05 09:10:31  5-MIN KSTC 181510Z 14007KT 10SM CLR 13/08 A2977 1170 71 1200 130/07 RMK AO2
14926KSTC STC20051018091509410/18/05 09:15:31  5-MIN KSTC 181515Z 15008KT 10SM CLR 13/08 A2976 1180 71 1200 140/08 RMK AO2
14926KSTC STC20051018092009410/18/05 09:20:31  5-MIN KSTC 181520Z 16008KT 10SM CLR 13/08 A2975 1180 69 1300 150/08 RMK AO2
14926KSTC STC20051018092510110/18/05 09:25:31  5-MIN KSTC 181525Z 16009KT 10SM CLR 14/08 A2975 1190 66 1400 150/09 RMK AO2 PRESFR
14926KSTC STC20051018093009410/18/05 09:30:31  5-MIN KSTC 181530Z 16008KT 10SM CLR 14/08 A2974 1190 64 1400 160/08 RMK AO2
14926KSTC STC20051018093509410/18/05 09:35:31  5-MIN KSTC 181535Z 15008KT 10SM CLR 14/08 A2974 1190 64 1400 150/08 RMK AO2
14926KSTC STC20051018094009410/18/05 09:40:31  5-MIN KSTC 181540Z 16007KT 10SM CLR 15/08 A2974 1190 62 1500 160/07 RMK AO2
14926KSTC STC20051018094509410/18/05 09:45:31  5-MIN KSTC 181545Z 17010KT 10SM CLR 16/08 A2974 1190 59 1600 160/10 RMK AO2
14926KSTC STC20051018095011110/18/05 09:50:31  5-MIN KSTC 181550Z 17008KT 10SM CLR 16/07 A2974 1190 57 1600 160/08 RMK AO2 SLP081 T01560072
14926KSTC STC20051018095509410/18/05 09:55:31  5-MIN KSTC 181555Z 16008KT 10SM CLR 16/08 A2973 1200 57 1600 160/08 RMK AO2
14926KSTC STC20051018100009410/18/05 10:00:31  5-MIN KSTC 181600Z 17008KT 10SM CLR 16/07 A2973 1200 55 1700 170/08 RMK AO2
14926KSTC STC20051018100509410/18/05 10:05:31  5-MIN KSTC 181605Z 16007KT 10SM CLR 17/08 A2973 1200 53 1800 150/07 RMK AO2
14926KSTC STC20051018101009410/18/05 10:10:31  5-MIN KSTC 181610Z 17008KT 10SM CLR 17/08 A2973 1210 53 1800 160/08 RMK AO2
14926KSTC STC20051018101509410/18/05 10:15:31  5-MIN KSTC 181615Z 15008KT 10SM CLR 17/07 A2972 1210 51 1800 150/08 RMK AO2
14926KSTC STC20051018102009410/18/05 10:20:31  5-MIN KSTC 181620Z 17009KT 10SM CLR 18/07 A2971 1220 49 1900 170/09 RMK AO2
14926KSTC STC20051018102509410/18/05 10:25:31  5-MIN KSTC 181625Z 17010KT 10SM CLR 18/07 A2971 1220 48 1900 160/10 RMK AO2
14926KSTC STC20051018103009410/18/05 10:30:31  5-MIN KSTC 181630Z 16011KT 10SM CLR 18/07 A2971 1220 48 1900 160/11 RMK AO2
14926KSTC STC20051018103509410/18/05 10:35:31  5-MIN KSTC 181635Z 19011KT 10SM CLR 18/07 A2971 1220 48 1900 180/11 RMK AO2
14926KSTC STC20051018104009410/18/05 10:40:31  5-MIN KSTC 181640Z 18010KT 10SM CLR 19/07 A2971 1220 46 2000 170/10 RMK AO2
14926KSTC STC20051018104509410/18/05 10:45:31  5-MIN KSTC 181645Z 17010KT 10SM CLR 19/07 A2971 1230 46 2000 170/10 RMK AO2
14926KSTC STC20051018105011110/18/05 10:50:31  5-MIN KSTC 181650Z 18011KT 10SM CLR 19/07 A2971 1230 46 2000 170/11 RMK AO2 SLP068 T01890072
14926KSTC STC20051018105509410/18/05 10:55:31  5-MIN KSTC 181655Z 18011KT 10SM CLR 20/08 A2970 1230 45 2100 180/11 RMK AO2
14926KSTC STC20051018110009410/18/05 11:00:31  5-MIN KSTC 181700Z 19013KT 10SM CLR 21/08 A2970 1230 43 2200 190/13 RMK AO2
14926KSTC STC20051018110509410/18/05 11:05:31  5-MIN KSTC 181705Z 21014KT 10SM CLR 20/07 A2970 1230 43 2100 200/14 RMK AO2
14926KSTC STC20051018111009410/18/05 11:10:31  5-MIN KSTC 181710Z 20011KT 10SM CLR 20/07 A2970 1230 43 2100 190/11 RMK AO2
14926KSTC STC20051018111509410/18/05 11:15:31  5-MIN KSTC 181715Z 18010KT 10SM CLR 20/08 A2970 1230 45 2100 180/10 RMK AO2
14926KSTC STC20051018112009410/18/05 11:20:31  5-MIN KSTC 181720Z 19013KT 10SM CLR 19/07 A2970 1230 44 2100 190/13 RMK AO2
14926KSTC STC20051018112509410/18/05 11:25:31  5-MIN KSTC 181725Z 19013KT 10SM CLR 19/07 A2970 1230 44 2100 190/13 RMK AO2
14926KSTC STC20051018113009410/18/05 11:30:31  5-MIN KSTC 181730Z 19010KT 10SM CLR 21/08 A2970 1240 43 2200 190/10 RMK AO2
14926KSTC STC20051018113509410/18/05 11:35:31  5-MIN KSTC 181735Z 19012KT 10SM CLR 20/08 A2969 1240 45 2100 190/12 RMK AO2
14926KSTC STC20051018114009410/18/05 11:40:31  5-MIN KSTC 181740Z 19010KT 10SM CLR 21/08 A2969 1240 43 2200 190/10 RMK AO2
14926KSTC STC20051018114509410/18/05 11:45:31  5-MIN KSTC 181745Z 19010KT 10SM CLR 21/08 A2968 1250 42 2300 190/10 RMK AO2
14926KSTC STC20051018115012910/18/05 11:50:31  5-MIN KSTC 181750Z 19011KT 10SM CLR 21/08 A2968 1250 42 2300 190/11 RMK AO2 SLP058 T02110078 10211 20050 58007
14926KSTC STC20051018115509410/18/05 11:55:31  5-MIN KSTC 181755Z 20012KT 10SM CLR 22/08 A2967 1250 40 2400 200/12 RMK AO2
14926KSTC STC20051018120009410/18/05 12:00:31  5-MIN KSTC 181800Z 21014KT 10SM CLR 22/08 A2967 1260 40 2400 200/14 RMK AO2
14926KSTC STC20051018120509410/18/05 12:05:31  5-MIN KSTC 181805Z 19012KT 10SM CLR 22/08 A2966 1270 42 2400 180/12 RMK AO2
14926KSTC STC20051018121009410/18/05 12:10:31  5-MIN KSTC 181810Z 18010KT 10SM CLR 22/08 A2966 1270 40 2400 180/10 RMK AO2
14926KSTC STC20051018121509410/18/05 12:15:31  5-MIN KSTC 181815Z 18011KT 10SM CLR 22/08 A2965 1270 40 2400 180/11 RMK AO2
14926KSTC STC20051018122009410/18/05 12:20:31  5-MIN KSTC 181820Z 18012KT 10SM CLR 22/08 A2965 1280 40 2400 180/12 RMK AO2
14926KSTC STC20051018122509410/18/05 12:25:31  5-MIN KSTC 181825Z 18013KT 10SM CLR 22/08 A2964 1280 39 2500 180/13 RMK AO2
14926KSTC STC20051018123009410/18/05 12:30:31  5-MIN KSTC 181830Z 19011KT 10SM CLR 22/08 A2964 1290 40 2500 190/11 RMK AO2
14926KSTC STC20051018123509410/18/05 12:35:31  5-MIN KSTC 181835Z 19011KT 10SM CLR 23/08 A2963 1290 39 2500 180/11 RMK AO2
14926KSTC STC20051018124010110/18/05 12:40:31  5-MIN KSTC 181840Z 19014KT 10SM CLR 23/08 A2963 1300 38 2600 180/14 RMK AO2 PRESFR
14926KSTC STC20051018124510110/18/05 12:45:31  5-MIN KSTC 181845Z 20016KT 10SM CLR 23/08 A2962 1310 39 2500 200/16 RMK AO2 PRESFR
14926KSTC STC20051018125011810/18/05 12:50:31  5-MIN KSTC 181850Z 19013KT 10SM CLR 23/08 A2961 1310 38 2600 190/13 RMK AO2 PRESFR SLP036 T02330083
14926KSTC STC20051018125509410/18/05 12:55:31  5-MIN KSTC 181855Z 18013KT 10SM CLR 24/09 A2961 1320 38 2700 180/13 RMK AO2
14926KSTC STC20051018130009410/18/05 13:00:31  5-MIN KSTC 181900Z 19013KT 10SM CLR 24/08 A2961 1310 36 2700 190/13 RMK AO2
14926KSTC STC20051018130509410/18/05 13:05:31  5-MIN KSTC 181905Z 20015KT 10SM CLR 23/08 A2961 1310 39 2600 200/15 RMK AO2
14926KSTC STC20051018131009410/18/05 13:10:31  5-MIN KSTC 181910Z 20016KT 10SM CLR 23/08 A2961 1320 39 2600 200/16 RMK AO2
14926KSTC STC20051018131509410/18/05 13:15:31  5-MIN KSTC 181915Z 19015KT 10SM CLR 24/08 A2961 1320 36 2700 190/15 RMK AO2
14926KSTC STC20051018132009410/18/05 13:20:31  5-MIN KSTC 181920Z 20016KT 10SM CLR 23/08 A2961 1320 38 2600 190/16 RMK AO2
14926KSTC STC20051018132510010/18/05 13:25:31  5-MIN KSTC 181925Z 20017G21KT 10SM CLR 24/08 A2960 1320 36 2700 200/17G21 RMK AO2
14926KSTC STC20051018133010010/18/05 13:30:31  5-MIN KSTC 181930Z 20013G21KT 10SM CLR 24/09 A2960 1330 38 2700 190/13G21 RMK AO2
14926KSTC STC20051018133509410/18/05 13:35:31  5-MIN KSTC 181935Z 20013KT 10SM CLR 24/09 A2960 1320 38 2700 200/13 RMK AO2
14926KSTC STC20051018134009410/18/05 13:40:31  5-MIN KSTC 181940Z 20014KT 10SM CLR 24/09 A2960 1330 38 2700 190/14 RMK AO2
14926KSTC STC20051018134509410/18/05 13:45:31  5-MIN KSTC 181945Z 20015KT 10SM CLR 24/08 A2959 1330 36 2700 200/15 RMK AO2
14926KSTC STC20051018135011110/18/05 13:50:31  5-MIN KSTC 181950Z 20011KT 10SM CLR 24/08 A2959 1330 36 2700 200/11 RMK AO2 SLP028 T02390083
14926KSTC STC20051018135509410/18/05 13:55:31  5-MIN KSTC 181955Z 20011KT 10SM CLR 25/09 A2959 1340 37 2800 200/11 RMK AO2
14926KSTC STC20051018140010010/18/05 14:00:31  5-MIN KSTC 182000Z 20017G20KT 10SM CLR 24/09 A2958 1340 36 2800 200/17G20 RMK AO2
14926KSTC STC20051018140510010/18/05 14:05:31  5-MIN KSTC 182005Z 21018G24KT 10SM CLR 24/08 A2958 1340 36 2700 200/18G24 RMK AO2
14926KSTC STC20051018141010010/18/05 14:10:31  5-MIN KSTC 182010Z 22017G24KT 10SM CLR 24/08 A2958 1340 35 2800 220/17G24 RMK AO2
14926KSTC STC20051018141509410/18/05 14:15:31  5-MIN KSTC 182015Z 21017KT 10SM CLR 25/08 A2958 1340 34 2800 210/17 RMK AO2
14926KSTC STC20051018142009410/18/05 14:20:31  5-MIN KSTC 182020Z 20015KT 10SM CLR 25/09 A2958 1350 35 2800 200/15 RMK AO2
14926KSTC STC20051018142509410/18/05 14:25:31  5-MIN KSTC 182025Z 21018KT 10SM CLR 25/09 A2957 1350 35 2900 200/18 RMK AO2
14926KSTC STC20051018143009410/18/05 14:30:31  5-MIN KSTC 182030Z 20015KT 10SM CLR 25/09 A2957 1350 35 2900 200/15 RMK AO2
14926KSTC STC20051018143509410/18/05 14:35:31  5-MIN KSTC 182035Z 21013KT 10SM CLR 26/09 A2957 1350 34 2900 210/13 RMK AO2
14926KSTC STC20051018144010010/18/05 14:40:31  5-MIN KSTC 182040Z 21015G20KT 10SM CLR 24/09 A2957 1350 36 2800 200/15G20 RMK AO2
14926KSTC STC20051018144509710/18/05 14:45:31  5-MIN KSTC 182045Z 21015KT 10SM FEW120 25/09 A2957 1350 35 2900 210/15 RMK AO2
14926KSTC STC20051018145012210/18/05 14:50:31  5-MIN KSTC 182050Z AUTO 22017KT 10SM CLR 25/09 A2957 1360 35 2900 220/17 RMK AO2 SLP020 T02500089 56032
14926KSTC STC20051018145509910/18/05 14:55:31  5-MIN KSTC 182055Z AUTO 21015KT 10SM CLR 25/09 A2956 1360 35 2900 210/15 RMK AO2
14926KSTC STC20051018150009910/18/05 15:00:31  5-MIN KSTC 182100Z AUTO 20012KT 10SM CLR 25/09 A2956 1360 35 2900 200/12 RMK AO2
14926KSTC STC20051018150509910/18/05 15:05:31  5-MIN KSTC 182105Z AUTO 20014KT 10SM CLR 24/09 A2956 1370 36 2800 200/14 RMK AO2
14926KSTC STC20051018151009910/18/05 15:10:31  5-MIN KSTC 182110Z AUTO 21014KT 10SM CLR 25/09 A2955 1370 37 2900 200/14 RMK AO2
14926KSTC STC20051018151509410/18/05 15:15:31  5-MIN KSTC 182115Z 21015KT 10SM CLR 24/09 A2955 1370 36 2800 210/15 RMK AO2
14926KSTC STC20051018152009410/18/05 15:20:31  5-MIN KSTC 182120Z 21012KT 10SM CLR 25/09 A2955 1370 35 2900 210/12 RMK AO2
14926KSTC STC20051018152509410/18/05 15:25:31  5-MIN KSTC 182125Z 21016KT 10SM CLR 25/09 A2955 1370 35 2900 210/16 RMK AO2
14926KSTC STC20051018153009410/18/05 15:30:31  5-MIN KSTC 182130Z 21015KT 10SM CLR 25/09 A2955 1370 35 2900 210/15 RMK AO2
14926KSTC STC20051018153509410/18/05 15:35:31  5-MIN KSTC 182135Z 22014KT 10SM CLR 25/09 A2955 1370 35 2900 210/14 RMK AO2
14926KSTC STC20051018154009410/18/05 15:40:31  5-MIN KSTC 182140Z 22012KT 10SM CLR 25/09 A2956 1370 37 2900 220/12 RMK AO2
14926KSTC STC20051018154509410/18/05 15:45:31  5-MIN KSTC 182145Z 22016KT 10SM CLR 25/09 A2955 1370 35 2900 220/16 RMK AO2
14926KSTC STC20051018155011710/18/05 15:50:31  5-MIN KSTC 182150Z 22015G21KT 10SM CLR 24/09 A2955 1370 36 2800 220/15G21 RMK AO2 SLP016 T02440089
14926KSTC STC20051018155510010/18/05 15:55:31  5-MIN KSTC 182155Z 22015G21KT 10SM CLR 24/09 A2956 1370 36 2800 220/15G21 RMK AO2
14926KSTC STC20051018160009410/18/05 16:00:31  5-MIN KSTC 182200Z 23013KT 10SM CLR 24/09 A2955 1370 36 2800 230/13 RMK AO2
14926KSTC STC20051018160509410/18/05 16:05:31  5-MIN KSTC 182205Z 23014KT 10SM CLR 25/09 A2956 1370 35 2900 230/14 RMK AO2
14926KSTC STC20051018161009410/18/05 16:10:31  5-MIN KSTC 182210Z 23011KT 10SM CLR 24/09 A2955 1370 36 2800 230/11 RMK AO2
14926KSTC STC20051018161509410/18/05 16:15:31  5-MIN KSTC 182215Z 23012KT 10SM CLR 24/09 A2955 1370 38 2800 230/12 RMK AO2
14926KSTC STC20051018162009410/18/05 16:20:31  5-MIN KSTC 182220Z 23010KT 10SM CLR 24/09 A2956 1370 39 2700 220/10 RMK AO2
14926KSTC STC20051018162509410/18/05 16:25:31  5-MIN KSTC 182225Z 23010KT 10SM CLR 24/09 A2956 1360 38 2800 220/10 RMK AO2
14926KSTC STC20051018163009410/18/05 16:30:31  5-MIN KSTC 182230Z 23008KT 10SM CLR 24/09 A2956 1360 38 2800 230/08 RMK AO2
14926KSTC STC20051018163509410/18/05 16:35:31  5-MIN KSTC 182235Z 24009KT 10SM CLR 24/09 A2956 1360 38 2800 240/09 RMK AO2
14926KSTC STC20051018164009410/18/05 16:40:31  5-MIN KSTC 182240Z 24011KT 10SM CLR 24/09 A2956 1360 38 2800 230/11 RMK AO2
14926KSTC STC20051018164509410/18/05 16:45:31  5-MIN KSTC 182245Z 24010KT 10SM CLR 24/09 A2956 1360 39 2700 240/10 RMK AO2
14926KSTC STC20051018165011710/18/05 16:50:31  5-MIN KSTC 182250Z 25015G21KT 10SM CLR 24/09 A2957 1360 39 2700 240/15G21 RMK AO2 SLP020 T02390094
14926KSTC STC20051018165510310/18/05 16:55:31  5-MIN KSTC 182255Z 27017G24KT 10SM FEW120 24/09 A2958 1340 38 2700 260/17G24 RMK AO2
14926KSTC STC20051018170012810/18/05 17:00:31  5-MIN KSTC 182300Z 29024G32KT 10SM FEW120 23/08 A2959 1330 38 2600 290/24G32 RMK AO2 PK WND 30032/2259 PRESRR
14926KSTC STC20051018170513910/18/05 17:05:31  5-MIN KSTC 182305Z 29025G33KT 10SM FEW120 22/08 A2960 1330 39 2500 280/25G33 RMK AO2 PK WND 29033/2303 WSHFT 2249 PRESRR
14926KSTC STC20051018171013210/18/05 17:10:31  5-MIN KSTC 182310Z 29020G33KT 10SM FEW120 22/08 A2960 1320 40 2400 290/20G33 RMK AO2 PK WND 29033/2303 WSHFT 2249
14926KSTC STC20051018171513210/18/05 17:15:31  5-MIN KSTC 182315Z 30019G27KT 10SM FEW120 21/08 A2960 1320 42 2400 290/19G27 RMK AO2 PK WND 29033/2303 WSHFT 2249
14926KSTC STC20051018172013210/18/05 17:20:31  5-MIN KSTC 182320Z 30016G24KT 10SM FEW120 21/08 A2960 1320 43 2300 290/16G24 RMK AO2 PK WND 29033/2303 WSHFT 2249
14926KSTC STC20051018172513210/18/05 17:25:31  5-MIN KSTC 182325Z 29014G22KT 10SM FEW120 20/08 A2960 1320 46 2200 290/14G22 RMK AO2 PK WND 29033/2303 WSHFT 2249
14926KSTC STC20051018173012910/18/05 17:30:31  5-MIN KSTC 182330Z 30017G21KT 10SM CLR 20/08 A2961 1320 45 2200 290/17G21 RMK AO2 PK WND 29033/2303 WSHFT 2249
14926KSTC STC20051018173512910/18/05 17:35:31  5-MIN KSTC 182335Z 30015G21KT 10SM CLR 19/08 A2961 1310 48 2200 300/15G21 RMK AO2 PK WND 29033/2303 WSHFT 2249
14926KSTC STC20051018174012910/18/05 17:40:31  5-MIN KSTC 182340Z 31023G28KT 10SM CLR 19/08 A2962 1310 50 2100 310/23G28 RMK AO2 PK WND 29033/2303 WSHFT 2249
14926KSTC STC20051018174513210/18/05 17:45:31  5-MIN KSTC 182345Z 31020G28KT 10SM FEW120 19/08 A2962 1310 48 2100 300/20G28 RMK AO2 PK WND 29033/2303 WSHFT 2249
14926KSTC STC20051018175016710/18/05 17:50:31  5-MIN KSTC 182350Z 31021G27KT 10SM SCT120 18/08 A2963 1300 50 2000 300/21G27 RMK AO2 PK WND 29033/2303 WSHFT 2249 SLP042 T01830078 10256 20183 56037
14926KSTC STC20051018175512110/18/05 17:55:31  5-MIN KSTC 182355Z 30019G27KT 10SM SCT120 18/08 A2963 1300 50 2000 300/19G27 RMK AO2 PK WND 30026/2355
14926KSTC STC20051018180012110/18/05 18:00:31  5-MIN KSTC 190000Z 31017G26KT 10SM SCT120 18/07 A2963 1290 49 2000 300/17G26 RMK AO2 PK WND 30026/2355
14926KSTC STC20051018180512110/18/05 18:05:31  5-MIN KSTC 190005Z 30014G24KT 10SM BKN120 18/08 A2964 1290 51 1900 300/14G24 RMK AO2 PK WND 30026/2355
14926KSTC STC20051018181012110/18/05 18:10:31  5-MIN KSTC 190010Z 29016G22KT 10SM BKN120 18/08 A2964 1280 51 1900 290/16G22 RMK AO2 PK WND 30026/2355
14926KSTC STC20051018181512110/18/05 18:15:31  5-MIN KSTC 190015Z 30017G22KT 10SM SCT120 17/08 A2965 1280 53 1900 300/17G22 RMK AO2 PK WND 30026/2355
14926KSTC STC20051018182012110/18/05 18:20:31  5-MIN KSTC 190020Z 30019G24KT 10SM SCT120 17/08 A2965 1280 53 1900 300/19G24 RMK AO2 PK WND 30026/2355
14926KSTC STC20051018182512110/18/05 18:25:31  5-MIN KSTC 190025Z 31018G24KT 10SM SCT120 17/08 A2966 1270 55 1800 300/18G24 RMK AO2 PK WND 30026/2355
14926KSTC STC20051018183012110/18/05 18:30:31  5-MIN KSTC 190030Z 32023G28KT 10SM FEW120 17/08 A2966 1270 55 1800 310/23G28 RMK AO2 PK WND 31028/0027
14926KSTC STC20051018183511810/18/05 18:35:31  5-MIN KSTC 190035Z 31022G29KT 10SM CLR 16/07 A2967 1260 55 1700 310/22G29 RMK AO2 PK WND 32029/0032
14926KSTC STC20051018184012510/18/05 18:40:31  5-MIN KSTC 190040Z 32019G29KT 10SM CLR 16/07 A2968 1250 57 1600 320/19G29 RMK AO2 PK WND 32029/0032 PRESRR
14926KSTC STC20051018184512510/18/05 18:45:31  5-MIN KSTC 190045Z 32021G29KT 10SM CLR 15/07 A2969 1240 59 1600 320/21G29 RMK AO2 PK WND 32029/0043 PRESRR
14926KSTC STC20051018185013510/18/05 18:50:31  5-MIN KSTC 190050Z 32019G29KT 10SM CLR 14/07 A2969 1240 61 1500 320/19G29 RMK AO2 PK WND 32029/0043 SLP066 T01440072
14926KSTC STC20051018185511810/18/05 18:55:31  5-MIN KSTC 190055Z 31019G27KT 10SM CLR 14/07 A2969 1240 64 1400 310/19G27 RMK AO2 PK WND 31026/0055
14926KSTC STC20051018190011810/18/05 19:00:31  5-MIN KSTC 190100Z 32025G30KT 10SM CLR 13/07 A2970 1230 66 1400 310/25G30 RMK AO2 PK WND 32030/0059
14926KSTC STC20051018190511810/18/05 19:05:31  5-MIN KSTC 190105Z 32024G31KT 10SM CLR 13/07 A2970 1230 66 1400 310/24G31 RMK AO2 PK WND 31031/0105
14926KSTC STC20051018191011810/18/05 19:10:31  5-MIN KSTC 190110Z 31016G31KT 10SM CLR 13/07 A2971 1220 69 1300 310/16G31 RMK AO2 PK WND 31031/0105
14926KSTC STC20051018191511210/18/05 19:15:31  5-MIN KSTC 190115Z 31017KT 10SM CLR 12/07 A2971 1220 71 1200 310/17 RMK AO2 PK WND 31031/0105
14926KSTC STC20051018192011810/18/05 19:20:31  5-MIN KSTC 190120Z 32022G30KT 10SM CLR 12/07 A2972 1210 68 1200 310/22G30 RMK AO2 PK WND 31031/0105
14926KSTC STC20051018192511810/18/05 19:25:31  5-MIN KSTC 190125Z 31021G30KT 10SM CLR 12/06 A2972 1210 66 1200 310/21G30 RMK AO2 PK WND 31031/0105
14926KSTC STC20051018193011810/18/05 19:30:31  5-MIN KSTC 190130Z 32019G30KT 10SM CLR 12/06 A2973 1210 66 1200 320/19G30 RMK AO2 PK WND 31031/0105
14926KSTC STC20051018193511810/18/05 19:35:31  5-MIN KSTC 190135Z 31018G30KT 10SM CLR 12/06 A2973 1200 68 1100 310/18G30 RMK AO2 PK WND 31031/0105
14926KSTC STC20051018194011810/18/05 19:40:31  5-MIN KSTC 190140Z 32017G23KT 10SM CLR 12/06 A2974 1200 68 1100 320/17G23 RMK AO2 PK WND 31031/0105
14926KSTC STC20051018194512510/18/05 19:45:31  5-MIN KSTC 190145Z 32014G23KT 10SM CLR 11/06 A2974 1190 68 1000 310/14G23 RMK AO2 PK WND 31031/0105 PRESRR
14926KSTC STC20051018195012910/18/05 19:50:31  5-MIN KSTC 190150Z 31015KT 10SM CLR 11/06 A2975 1190 68 1000 310/15 RMK AO2 PK WND 31031/0105 SLP085 T01110056
14926KSTC STC20051018195510110/18/05 19:55:31  5-MIN KSTC 190155Z 32012KT 10SM CLR 11/06 A2976 1180 68 1000 310/12 RMK AO2 PRESRR
14926KSTC STC20051018200010710/18/05 20:00:31  5-MIN KSTC 190200Z 32011G18KT 10SM CLR 11/06 A2976 1170 68 1000 320/11G18 RMK AO2 PRESRR
14926KSTC STC20051018200511010/18/05 20:05:31  5-MIN KSTC 190205Z 33011G19KT 10SM FEW032 11/06 A2977 1170 68 1000 330/11G19 RMK AO2 PRESRR
14926KSTC STC20051018201011010/18/05 20:10:31  5-MIN KSTC 190210Z 35012G19KT 10SM SCT032 11/05 A2977 1160 66 1000 350/12G19 RMK AO2 PRESRR
14926KSTC STC20051018201509710/18/05 20:15:31  5-MIN KSTC 190215Z 34011KT 10SM BKN032 11/04 A2977 1160 63 1000 340/11 RMK AO2
14926KSTC STC20051018202010910/18/05 20:20:31  5-MIN KSTC 190220Z 35015G20KT 10SM BKN032 11/04 A2978 1150 66 900 340/15G20 RMK AO2 PRESRR
14926KSTC STC20051018202510210/18/05 20:25:31  5-MIN KSTC 190225Z 35014G22KT 10SM BKN032 11/04 A2978 1150 66 900 350/14G22 RMK AO2
14926KSTC STC20051018203010210/18/05 20:30:31  5-MIN KSTC 190230Z 34016G23KT 10SM BKN032 11/04 A2979 1150 66 900 340/16G23 RMK AO2
14926KSTC STC20051018203512010/18/05 20:35:31  5-MIN KSTC 190235Z 35018G26KT 10SM OVC032 11/04 A2979 1140 66 900 350/18G26 RMK AO2 PK WND 35026/0233
14926KSTC STC20051018204012010/18/05 20:40:31  5-MIN KSTC 190240Z 35015G26KT 10SM OVC032 11/04 A2980 1140 66 900 350/15G26 RMK AO2 PK WND 35026/0237
14926KSTC STC20051018204512010/18/05 20:45:31  5-MIN KSTC 190245Z 35015G26KT 10SM BKN032 10/04 A2981 1130 68 800 350/15G26 RMK AO2 PK WND 35026/0237
14926KSTC STC20051018205015010/18/05 20:50:31  5-MIN KSTC 190250Z 35015G22KT 10SM BKN032 10/04 A2981 1120 68 800 340/15G22 RMK AO2 PK WND 35026/0237 PRESRR SLP108 T01000044 53021
14926KSTC STC20051018205510910/18/05 20:55:31  5-MIN KSTC 190255Z 35018G22KT 10SM BKN030 09/04 A2982 1120 71 800 340/18G22 RMK AO2 PRESRR
14926KSTC STC20051018210010910/18/05 21:00:31  5-MIN KSTC 190300Z 34015G21KT 10SM BKN028 09/04 A2983 1110 71 700 340/15G21 RMK AO2 PRESRR
14926KSTC STC20051018210511610/18/05 21:05:31  5-MIN KSTC 190305Z 34015G24KT 10SM BKN026 BKN031 09/04 A2984 1100 71 700 340/15G24 RMK AO2 PRESRR
14926KSTC STC20051018211011610/18/05 21:10:31  5-MIN KSTC 190310Z 34016G25KT 10SM BKN023 BKN028 09/04 A2984 1100 71 700 330/16G25 RMK AO2 PRESRR
14926KSTC STC20051018211510910/18/05 21:15:31  5-MIN KSTC 190315Z 33017G25KT 10SM BKN023 OVC028 09/04 A2985 1100 71 700 330/17G25 RMK AO2
14926KSTC STC20051018212010210/18/05 21:20:31  5-MIN KSTC 190320Z 33012G23KT 10SM OVC023 09/04 A2985 1090 71 700 330/12G23 RMK AO2
14926KSTC STC20051018212510210/18/05 21:25:31  5-MIN KSTC 190325Z 34014G24KT 10SM OVC023 08/04 A2986 1090 73 600 330/14G24 RMK AO2
14926KSTC STC20051018213010210/18/05 21:30:31  5-MIN KSTC 190330Z 34013G24KT 10SM OVC021 08/04 A2986 1080 73 600 340/13G24 RMK AO2
14926KSTC STC20051018213510210/18/05 21:35:31  5-MIN KSTC 190335Z 35013G19KT 10SM OVC021 08/04 A2986 1080 73 600 340/13G19 RMK AO2
14926KSTC STC20051018214010210/18/05 21:40:31  5-MIN KSTC 190340Z 34010G18KT 10SM OVC021 08/04 A2987 1080 73 600 340/10G18 RMK AO2
14926KSTC STC20051018214510210/18/05 21:45:31  5-MIN KSTC 190345Z 35011G19KT 10SM OVC021 08/04 A2987 1070 73 600 350/11G19 RMK AO2
14926KSTC STC20051018215011910/18/05 21:50:31  5-MIN KSTC 190350Z 35011G19KT 10SM OVC021 08/03 A2987 1070 70 600 350/11G19 RMK AO2 SLP127 T00830033
14926KSTC STC20051018215510710/18/05 21:55:31  5-MIN KSTC 190355Z AUTO 35012G18KT 10SM OVC021 08/03 A2988 1070 70 600 340/12G18 RMK AO2
14926KSTC STC20051018220010710/18/05 22:00:31  5-MIN KSTC 190400Z AUTO 35014G19KT 10SM OVC021 08/03 A2988 1060 70 600 350/14G19 RMK AO2
14926KSTC STC20051018220510710/18/05 22:05:31  5-MIN KSTC 190405Z AUTO 35012G19KT 10SM OVC021 08/03 A2989 1060 73 500 350/12G19 RMK AO2
14926KSTC STC20051018221010710/18/05 22:10:31  5-MIN KSTC 190410Z AUTO 35014G18KT 10SM OVC021 08/03 A2989 1050 73 500 350/14G18 RMK AO2
14926KSTC STC20051018221510710/18/05 22:15:31  5-MIN KSTC 190415Z AUTO 35016G23KT 10SM OVC021 08/03 A2990 1050 70 500 350/16G23 RMK AO2
14926KSTC STC20051018224010710/18/05 22:40:31  5-MIN KSTC 190440Z AUTO 35015G23KT 10SM BKN021 07/02 A2992 1030 70 400 350/15G23 RMK AO2
14926KSTC STC20051018224510710/18/05 22:45:31  5-MIN KSTC 190445Z AUTO 36011G19KT 10SM BKN023 07/02 A2992 1030 70 300 350/11G19 RMK AO2
14926KSTC STC20051018225012410/18/05 22:50:31  5-MIN KSTC 190450Z AUTO 36015G19KT 10SM SCT023 07/02 A2992 1020 70 300 350/15G19 RMK AO2 SLP143 T00670017
14926KSTC STC20051018225510710/18/05 22:55:31  5-MIN KSTC 190455Z AUTO 35011G19KT 10SM SCT023 07/02 A2993 1020 70 300 350/11G19 RMK AO2
14926KSTC STC20051018230010710/18/05 23:00:31  5-MIN KSTC 190500Z AUTO 36014G19KT 10SM SCT023 07/02 A2993 1020 70 300 350/14G19 RMK AO2
14926KSTC STC20051018230510110/18/05 23:05:31  5-MIN KSTC 190505Z AUTO 36012KT 10SM SCT023 07/02 A2993 1020 70 300 350/12 RMK AO2
14926KSTC STC20051018231010710/18/05 23:10:31  5-MIN KSTC 190510Z AUTO 35012G19KT 10SM BKN023 07/02 A2993 1010 70 300 350/12G19 RMK AO2
14926KSTC STC20051018231510710/18/05 23:15:31  5-MIN KSTC 190515Z AUTO 35014G20KT 10SM BKN023 07/02 A2994 1010 70 300 350/14G20 RMK AO2
14926KSTC STC20051018232010710/18/05 23:20:31  5-MIN KSTC 190520Z AUTO 35014G20KT 10SM BKN023 07/02 A2994 1010 70 300 350/14G20 RMK AO2
14926KSTC STC20051018232510710/18/05 23:25:31  5-MIN KSTC 190525Z AUTO 35013G20KT 10SM BKN023 07/02 A2995 1000 70 300 340/13G20 RMK AO2
14926KSTC STC20051018233010710/18/05 23:30:31  5-MIN KSTC 190530Z AUTO 35014G20KT 10SM OVC023 07/02 A2995 1000 70 300 340/14G20 RMK AO2
14926KSTC STC20051018233510010/18/05 23:35:31  5-MIN KSTC 190535Z AUTO 35012KT 10SM OVC023 07/02 A2996 990 70 300 340/12 RMK AO2
14926KSTC STC20051018234010010/18/05 23:40:31  5-MIN KSTC 190540Z AUTO 35015KT 10SM OVC023 07/02 A2996 990 70 300 350/15 RMK AO2
14926KSTC STC20051018234510610/18/05 23:45:31  5-MIN KSTC 190545Z AUTO 35014G19KT 10SM OVC023 07/02 A2996 990 70 300 340/14G19 RMK AO2
14926KSTC STC20051018235015110/18/05 23:50:31  5-MIN KSTC 190550Z AUTO 34011G19KT 10SM OVC023 07/02 A2997 980 70 300 340/11G19 RMK AO2 SLP158 T00670017 10183 20067 402560044 53063
14926KSTC STC20051018235510010/18/05 23:55:31  5-MIN KSTC 190555Z AUTO 36012KT 10SM OVC023 07/02 A2997 980 70 200 350/12 RMK AO2
14926KSTC STC20051019000010010/19/05 00:00:32  5-MIN KSTC 190600Z AUTO 35012KT 10SM OVC023 07/02 A2998 970 70 200 340/12 RMK AO2
14926KSTC STC20051019000510610/19/05 00:05:31  5-MIN KSTC 190605Z AUTO 34013G18KT 10SM OVC023 07/02 A2998 970 70 200 340/13G18 RMK AO2
14926KSTC STC20051019001010610/19/05 00:10:31  5-MIN KSTC 190610Z AUTO 35012G18KT 10SM OVC023 07/02 A2998 970 70 200 350/12G18 RMK AO2
14926KSTC STC20051019001510610/19/05 00:15:31  5-MIN KSTC 190615Z AUTO 35011G18KT 10SM OVC023 07/02 A2998 970 70 200 350/11G18 RMK AO2
14926KSTC STC20051019002010610/19/05 00:20:31  5-MIN KSTC 190620Z AUTO 35014G17KT 10SM OVC023 07/02 A2999 960 70 200 350/14G17 RMK AO2
14926KSTC STC20051019002510610/19/05 00:25:31  5-MIN KSTC 190625Z AUTO 34012G19KT 10SM OVC023 06/02 A2999 960 73 200 340/12G19 RMK AO2
14926KSTC STC20051019003010610/19/05 00:30:31  5-MIN KSTC 190630Z AUTO 35012G19KT 10SM OVC021 06/02 A2999 960 73 200 350/12G19 RMK AO2
14926KSTC STC20051019003510610/19/05 00:35:31  5-MIN KSTC 190635Z AUTO 35012G18KT 10SM OVC021 06/02 A3000 950 73 200 350/12G18 RMK AO2
14926KSTC STC20051019004010610/19/05 00:40:31  5-MIN KSTC 190640Z AUTO 35013G17KT 10SM OVC021 06/02 A3000 950 73 100 340/13G17 RMK AO2
14926KSTC STC20051019004510010/19/05 00:45:31  5-MIN KSTC 190645Z AUTO 35009KT 10SM OVC021 06/02 A3000 950 73 100 350/09 RMK AO2
14926KSTC STC20051019005012310/19/05 00:50:31  5-MIN KSTC 190650Z AUTO 35011G16KT 10SM OVC021 06/02 A3000 950 73 100 350/11G16 RMK AO2 SLP169 T00610017
14926KSTC STC20051019005510010/19/05 00:55:31  5-MIN KSTC 190655Z AUTO 35011KT 10SM OVC021 06/02 A3001 950 73 100 340/11 RMK AO2
14926KSTC STC20051019010010010/19/05 01:00:31  5-MIN KSTC 190700Z AUTO 35011KT 10SM OVC021 06/02 A3001 950 73 100 350/11 RMK AO2
14926KSTC STC20051019010510010/19/05 01:05:31  5-MIN KSTC 190705Z AUTO 35011KT 10SM OVC021 06/02 A3001 940 73 100 350/11 RMK AO2
14926KSTC STC20051019011010010/19/05 01:10:31  5-MIN KSTC 190710Z AUTO 35009KT 10SM OVC021 06/02 A3002 940 73 100 350/09 RMK AO2
14926KSTC STC20051019011510010/19/05 01:15:31  5-MIN KSTC 190715Z AUTO 34011KT 10SM OVC021 06/02 A3002 940 73 100 340/11 RMK AO2
14926KSTC STC20051019012010010/19/05 01:20:31  5-MIN KSTC 190720Z AUTO 35010KT 10SM OVC021 06/02 A3002 930 73 100 350/10 RMK AO2
14926KSTC STC20051019012510010/19/05 01:25:31  5-MIN KSTC 190725Z AUTO 34010KT 10SM OVC021 06/02 A3002 930 76 100 340/10 RMK AO2
14926KSTC STC20051019013010010/19/05 01:30:31  5-MIN KSTC 190730Z AUTO 35007KT 10SM OVC021 06/02 A3002 930 76 100 340/07 RMK AO2
14926KSTC STC20051019013510610/19/05 01:35:31  5-MIN KSTC 190735Z AUTO 33012G17KT 10SM OVC021 06/02 A3002 930 76 100 330/12G17 RMK AO2
14926KSTC STC20051019014010610/19/05 01:40:31  5-MIN KSTC 190740Z AUTO 36007G17KT 10SM OVC021 06/02 A3003 930 76 100 360/07G17 RMK AO2
14926KSTC STC20051019014510010/19/05 01:45:31  5-MIN KSTC 190745Z AUTO 35008KT 10SM OVC021 06/02 A3003 930 76 100 350/08 RMK AO2
14926KSTC STC20051019015011710/19/05 01:50:31  5-MIN KSTC 190750Z AUTO 34008KT 10SM OVC019 06/02 A3003 930 76 100 340/08 RMK AO2 SLP177 T00560017
14926KSTC STC20051019015509810/19/05 01:55:31  5-MIN KSTC 190755Z AUTO 35010KT 10SM OVC019 06/02 A3003 930 76 0 340/10 RMK AO2
14926KSTC STC20051019020009810/19/05 02:00:31  5-MIN KSTC 190800Z AUTO 35007KT 10SM OVC019 06/02 A3003 920 76 0 340/07 RMK AO2
14926KSTC STC20051019020509810/19/05 02:05:31  5-MIN KSTC 190805Z AUTO 34009KT 10SM OVC019 06/02 A3003 920 76 0 330/09 RMK AO2
14926KSTC STC20051019021009810/19/05 02:10:31  5-MIN KSTC 190810Z AUTO 34011KT 10SM OVC019 06/02 A3003 920 76 0 340/11 RMK AO2
14926KSTC STC20051019021509810/19/05 02:15:31  5-MIN KSTC 190815Z AUTO 35011KT 10SM OVC019 06/01 A3003 920 73 0 350/11 RMK AO2
14926KSTC STC20051019022009810/19/05 02:20:31  5-MIN KSTC 190820Z AUTO 36010KT 10SM OVC019 06/01 A3003 920 73 0 360/10 RMK AO2
14926KSTC STC20051019022509810/19/05 02:25:31  5-MIN KSTC 190825Z AUTO 35009KT 10SM OVC019 06/02 A3003 920 76 0 340/09 RMK AO2
14926KSTC STC20051019023009810/19/05 02:30:31  5-MIN KSTC 190830Z AUTO 36009KT 10SM OVC019 06/02 A3003 920 76 0 350/09 RMK AO2
14926KSTC STC20051019023509810/19/05 02:35:31  5-MIN KSTC 190835Z AUTO 35010KT 10SM OVC019 05/02 A3004 920 79 0 350/10 RMK AO2
14926KSTC STC20051019024009810/19/05 02:40:31  5-MIN KSTC 190840Z AUTO 35011KT 10SM OVC019 05/01 A3004 920 76 0 350/11 RMK AO2
14926KSTC STC20051019024509810/19/05 02:45:31  5-MIN KSTC 190845Z AUTO 35008KT 10SM OVC019 05/01 A3004 910 76 0 350/08 RMK AO2
14926KSTC STC20051019025012110/19/05 02:50:31  5-MIN KSTC 190850Z AUTO 35009KT 10SM OVC019 05/01 A3004 910 76 0 350/09 RMK AO2 SLP183 T00500011 51050
14926KSTC STC20051019025509810/19/05 02:55:31  5-MIN KSTC 190855Z AUTO 36007KT 10SM OVC017 05/01 A3004 910 76 0 360/07 RMK AO2
14926KSTC STC20051019030009810/19/05 03:00:31  5-MIN KSTC 190900Z AUTO 35011KT 10SM OVC017 05/01 A3005 910 76 0 350/11 RMK AO2
14926KSTC STC20051019030509810/19/05 03:05:31  5-MIN KSTC 190905Z AUTO 36006KT 10SM OVC017 05/01 A3005 910 76 0 350/06 RMK AO2
14926KSTC STC20051019031009810/19/05 03:10:31  5-MIN KSTC 190910Z AUTO 36009KT 10SM OVC017 05/01 A3005 910 76 0 360/09 RMK AO2
14926KSTC STC20051019031509810/19/05 03:15:31  5-MIN KSTC 190915Z AUTO 36009KT 10SM OVC017 05/01 A3005 910 76 0 350/09 RMK AO2
14926KSTC STC20051019032009810/19/05 03:20:31  5-MIN KSTC 190920Z AUTO 35010KT 10SM OVC017 05/01 A3005 910 76 0 350/10 RMK AO2
14926KSTC STC20051019032509810/19/05 03:25:31  5-MIN KSTC 190925Z AUTO 36010KT 10SM OVC017 05/01 A3005 910 76 0 360/10 RMK AO2
14926KSTC STC20051019033009810/19/05 03:30:31  5-MIN KSTC 190930Z AUTO 35010KT 10SM OVC017 05/01 A3005 910 76 0 350/10 RMK AO2
14926KSTC STC20051019033509810/19/05 03:35:31  5-MIN KSTC 190935Z AUTO 36010KT 10SM OVC017 05/01 A3005 900 76 0 360/10 RMK AO2
14926KSTC STC20051019034009810/19/05 03:40:31  5-MIN KSTC 190940Z AUTO 36011KT 10SM OVC017 05/01 A3006 900 76 0 360/11 RMK AO2
14926KSTC STC20051019034509810/19/05 03:45:31  5-MIN KSTC 190945Z AUTO 36012KT 10SM OVC017 05/01 A3006 900 76 0 360/12 RMK AO2
14926KSTC STC20051019035011510/19/05 03:50:31  5-MIN KSTC 190950Z AUTO 36009KT 10SM OVC017 05/01 A3006 900 76 0 350/09 RMK AO2 SLP188 T00500011
14926KSTC STC20051019035509810/19/05 03:55:31  5-MIN KSTC 190955Z AUTO 36007KT 10SM OVC017 05/01 A3006 900 76 0 350/07 RMK AO2
14926KSTC STC20051019040009810/19/05 04:00:31  5-MIN KSTC 191000Z AUTO 36007KT 10SM OVC017 05/01 A3006 900 76 0 360/07 RMK AO2
14926KSTC STC20051019040509810/19/05 04:05:31  5-MIN KSTC 191005Z AUTO 36008KT 10SM OVC017 05/01 A3006 900 76 0 360/08 RMK AO2
14926KSTC STC20051019041009810/19/05 04:10:31  5-MIN KSTC 191010Z AUTO 36009KT 10SM OVC017 05/01 A3006 900 76 0 350/09 RMK AO2
14926KSTC STC20051019041509810/19/05 04:15:31  5-MIN KSTC 191015Z AUTO 36006KT 10SM OVC017 05/01 A3006 890 76 0 360/06 RMK AO2
14926KSTC STC20051019042009810/19/05 04:20:31  5-MIN KSTC 191020Z AUTO 01007KT 10SM OVC017 05/01 A3007 890 76 0 360/07 RMK AO2
14926KSTC STC20051019042509810/19/05 04:25:31  5-MIN KSTC 191025Z AUTO 36007KT 10SM OVC017 05/01 A3007 890 76 0 360/07 RMK AO2
14926KSTC STC20051019043009810/19/05 04:30:31  5-MIN KSTC 191030Z AUTO 01007KT 10SM OVC017 05/01 A3007 890 76 0 010/07 RMK AO2
14926KSTC STC20051019043509810/19/05 04:35:31  5-MIN KSTC 191035Z AUTO 01006KT 10SM OVC017 05/01 A3007 890 76 0 010/06 RMK AO2
14926KSTC STC20051019044009810/19/05 04:40:31  5-MIN KSTC 191040Z AUTO 01006KT 10SM OVC017 05/01 A3007 880 76 0 010/06 RMK AO2
14926KSTC STC20051019044509810/19/05 04:45:31  5-MIN KSTC 191045Z AUTO 01007KT 10SM OVC017 05/01 A3007 880 76 0 010/07 RMK AO2
14926KSTC STC20051019045011510/19/05 04:50:31  5-MIN KSTC 191050Z AUTO 01006KT 10SM OVC017 05/01 A3008 880 76 0 360/06 RMK AO2 SLP194 T00500011
14926KSTC STC20051019045509810/19/05 04:55:31  5-MIN KSTC 191055Z AUTO 36007KT 10SM OVC017 05/01 A3008 880 76 0 360/07 RMK AO2
14926KSTC STC20051019050009810/19/05 05:00:31  5-MIN KSTC 191100Z AUTO 01004KT 10SM OVC017 05/01 A3008 880 76 0 010/04 RMK AO2
14926KSTC STC20051019050509810/19/05 05:05:31  5-MIN KSTC 191105Z AUTO 36005KT 10SM OVC017 05/01 A3008 880 76 0 360/05 RMK AO2
14926KSTC STC20051019051009810/19/05 05:10:31  5-MIN KSTC 191110Z AUTO 01005KT 10SM OVC017 05/01 A3008 880 76 0 360/05 RMK AO2
14926KSTC STC20051019051509810/19/05 05:15:31  5-MIN KSTC 191115Z AUTO 36006KT 10SM OVC017 05/01 A3008 880 76 0 360/06 RMK AO2
14926KSTC STC20051019052009810/19/05 05:20:31  5-MIN KSTC 191120Z AUTO 36006KT 10SM OVC017 05/01 A3008 880 76 0 360/06 RMK AO2
14926KSTC STC20051019052509810/19/05 05:25:31  5-MIN KSTC 191125Z AUTO 36005KT 10SM OVC017 05/01 A3008 880 76 0 350/05 RMK AO2
14926KSTC STC20051019053009810/19/05 05:30:31  5-MIN KSTC 191130Z AUTO 36005KT 10SM OVC017 05/01 A3008 880 76 0 350/05 RMK AO2
14926KSTC STC20051019053509810/19/05 05:35:31  5-MIN KSTC 191135Z AUTO 36007KT 10SM OVC017 05/01 A3008 880 76 0 360/07 RMK AO2
14926KSTC STC20051019054009810/19/05 05:40:31  5-MIN KSTC 191140Z AUTO 36007KT 10SM OVC017 05/01 A3008 880 76 0 360/07 RMK AO2
14926KSTC STC20051019054509810/19/05 05:45:31  5-MIN KSTC 191145Z AUTO 02006KT 10SM OVC017 05/01 A3009 870 76 0 010/06 RMK AO2
14926KSTC STC20051019055012810/19/05 05:50:31  5-MIN KSTC 191150Z 02004KT 10SM OVC017 05/01 A3009 870 76 0 010/04 RMK AO2 SLP199 T00500011 10067 20050 51024
14926KSTC STC20051019055509310/19/05 05:55:31  5-MIN KSTC 191155Z 01004KT 10SM OVC017 05/01 A3009 870 76 0 010/04 RMK AO2
14926KSTC STC20051019060009310/19/05 06:00:31  5-MIN KSTC 191200Z 36007KT 10SM OVC017 05/01 A3009 870 76 0 350/07 RMK AO2
14926KSTC STC20051019060509310/19/05 06:05:31  5-MIN KSTC 191205Z 36008KT 10SM OVC017 05/01 A3009 870 76 0 360/08 RMK AO2
14926KSTC STC20051019061009310/19/05 06:10:31  5-MIN KSTC 191210Z 36006KT 10SM OVC017 05/01 A3009 870 76 0 360/06 RMK AO2
14926KSTC STC20051019061509310/19/05 06:15:31  5-MIN KSTC 191215Z 35008KT 10SM OVC017 05/01 A3010 860 76 0 350/08 RMK AO2
14926KSTC STC20051019062009310/19/05 06:20:31  5-MIN KSTC 191220Z 02006KT 10SM OVC017 05/01 A3010 860 76 0 010/06 RMK AO2
14926KSTC STC20051019062509610/19/05 06:25:31  5-MIN KSTC 191225Z 36004KT 10SM OVC017 05/01 A3010 860 76 -100 360/04 RMK AO2
14926KSTC STC20051019063009310/19/05 06:30:31  5-MIN KSTC 191230Z 36004KT 10SM OVC017 05/01 A3010 860 76 0 360/04 RMK AO2
14926KSTC STC20051019063509310/19/05 06:35:31  5-MIN KSTC 191235Z 35004KT 10SM OVC017 05/01 A3010 860 76 0 350/04 RMK AO2
14926KSTC STC20051019064009610/19/05 06:40:31  5-MIN KSTC 191240Z 36004KT 10SM OVC017 05/01 A3010 860 76 -100 350/04 RMK AO2
14926KSTC STC20051019064509610/19/05 06:45:31  5-MIN KSTC 191245Z 35005KT 10SM OVC017 05/01 A3010 860 76 -100 350/05 RMK AO2
14926KSTC STC20051019065011310/19/05 06:50:31  5-MIN KSTC 191250Z 35005KT 10SM OVC017 04/01 A3010 860 79 -100 350/05 RMK AO2 SLP206 T00440011
14926KSTC STC20051019065509610/19/05 06:55:31  5-MIN KSTC 191255Z 35006KT 10SM OVC017 04/01 A3010 860 79 -100 350/06 RMK AO2
14926KSTC STC20051019070009610/19/05 07:00:31  5-MIN KSTC 191300Z 34005KT 10SM OVC017 04/01 A3011 860 79 -100 340/05 RMK AO2
14926KSTC STC20051019070509610/19/05 07:05:31  5-MIN KSTC 191305Z 36003KT 10SM OVC017 04/01 A3011 850 79 -100 350/03 RMK AO2
14926KSTC STC20051019071009610/19/05 07:10:31  5-MIN KSTC 191310Z 00000KT 10SM OVC015 05/01 A3011 850 76 -100 000/00 RMK AO2
14926KSTC STC20051019071509610/19/05 07:15:31  5-MIN KSTC 191315Z 33003KT 10SM OVC015 05/01 A3011 850 76 -100 320/03 RMK AO2
14926KSTC STC20051019072009610/19/05 07:20:31  5-MIN KSTC 191320Z 34004KT 10SM OVC015 05/01 A3011 850 76 -100 330/04 RMK AO2
14926KSTC STC20051019072509610/19/05 07:25:31  5-MIN KSTC 191325Z 34005KT 10SM OVC015 05/01 A3011 850 76 -100 340/05 RMK AO2
14926KSTC STC20051019073009610/19/05 07:30:31  5-MIN KSTC 191330Z 34004KT 10SM OVC015 05/01 A3011 850 76 -100 340/04 RMK AO2
14926KSTC STC20051019073509610/19/05 07:35:31  5-MIN KSTC 191335Z 32005KT 10SM OVC015 05/01 A3012 840 76 -100 320/05 RMK AO2
14926KSTC STC20051019074009610/19/05 07:40:31  5-MIN KSTC 191340Z 36005KT 10SM OVC015 05/01 A3012 840 76 -100 360/05 RMK AO2
14926KSTC STC20051019074509610/19/05 07:45:31  5-MIN KSTC 191345Z 02004KT 10SM OVC015 05/01 A3012 840 76 -100 020/04 RMK AO2
14926KSTC STC20051019075011310/19/05 07:50:31  5-MIN KSTC 191350Z 01004KT 10SM OVC015 05/01 A3012 840 76 -100 360/04 RMK AO2 SLP214 T00500011
14926KSTC STC20051019075509610/19/05 07:55:31  5-MIN KSTC 191355Z 01006KT 10SM OVC015 05/01 A3012 840 76 -100 010/06 RMK AO2
14926KSTC STC20051019080009610/19/05 08:00:31  5-MIN KSTC 191400Z 35005KT 10SM OVC015 05/01 A3012 840 76 -100 350/05 RMK AO2
14926KSTC STC20051019080509610/19/05 08:05:31  5-MIN KSTC 191405Z 32004KT 10SM OVC015 05/01 A3012 840 76 -100 320/04 RMK AO2
14926KSTC STC20051019081009610/19/05 08:10:31  5-MIN KSTC 191410Z 34004KT 10SM OVC015 05/01 A3012 840 76 -100 330/04 RMK AO2
14926KSTC STC20051019081509610/19/05 08:15:31  5-MIN KSTC 191415Z 35005KT 10SM OVC015 05/01 A3013 840 76 -100 350/05 RMK AO2
14926KSTC STC20051019082009610/19/05 08:20:31  5-MIN KSTC 191420Z 03004KT 10SM OVC015 05/01 A3013 840 76 -100 030/04 RMK AO2
14926KSTC STC20051019082509610/19/05 08:25:31  5-MIN KSTC 191425Z 01005KT 10SM OVC015 05/01 A3013 830 76 -100 010/05 RMK AO2
14926KSTC STC20051019083009610/19/05 08:30:31  5-MIN KSTC 191430Z 01006KT 10SM OVC015 05/01 A3013 830 76 -100 010/06 RMK AO2
14926KSTC STC20051019083509310/19/05 08:35:31  5-MIN KSTC 191435Z 01003KT 10SM OVC015 06/01 A3013 830 73 0 360/03 RMK AO2
14926KSTC STC20051019084009310/19/05 08:40:31  5-MIN KSTC 191440Z 36005KT 10SM OVC015 06/02 A3013 830 76 0 360/05 RMK AO2
14926KSTC STC20051019084509310/19/05 08:45:31  5-MIN KSTC 191445Z 33006KT 10SM OVC015 06/02 A3014 830 76 0 330/06 RMK AO2
14926KSTC STC20051019085011910/19/05 08:50:31  5-MIN KSTC 191450Z 31007KT 10SM OVC015 05/02 A3014 820 79 -100 310/07 RMK AO2 SLP221 T00500017 51014
14926KSTC STC20051019085509610/19/05 08:55:31  5-MIN KSTC 191455Z 31003KT 10SM OVC015 05/02 A3014 820 79 -100 300/03 RMK AO2
14926KSTC STC20051019090009610/19/05 09:00:31  5-MIN KSTC 191500Z 32005KT 10SM OVC015 05/02 A3014 820 79 -100 320/05 RMK AO2
14926KSTC STC20051019090509310/19/05 09:05:31  5-MIN KSTC 191505Z 30004KT 10SM OVC015 06/02 A3014 820 76 0 300/04 RMK AO2
14926KSTC STC20051019091009610/19/05 09:10:31  5-MIN KSTC 191510Z 31005KT 10SM OVC015 05/02 A3014 820 79 -100 310/05 RMK AO2
14926KSTC STC20051019091509610/19/05 09:15:31  5-MIN KSTC 191515Z 31004KT 10SM OVC015 05/02 A3014 820 79 -100 300/04 RMK AO2
14926KSTC STC20051019092009310/19/05 09:20:31  5-MIN KSTC 191520Z 32004KT 10SM OVC015 06/02 A3014 820 76 0 320/04 RMK AO2
14926KSTC STC20051019092509310/19/05 09:25:31  5-MIN KSTC 191525Z 31004KT 10SM OVC015 06/02 A3014 820 76 0 300/04 RMK AO2
14926KSTC STC20051019093009310/19/05 09:30:31  5-MIN KSTC 191530Z 00000KT 10SM OVC015 06/02 A3014 820 76 0 000/00 RMK AO2
14926KSTC STC20051019093509310/19/05 09:35:31  5-MIN KSTC 191535Z 00000KT 10SM OVC015 06/02 A3014 820 76 0 000/00 RMK AO2
14926KSTC STC20051019094009310/19/05 09:40:31  5-MIN KSTC 191540Z 30004KT 10SM OVC015 06/02 A3014 820 76 0 290/04 RMK AO2
14926KSTC STC20051019094509310/19/05 09:45:31  5-MIN KSTC 191545Z 00000KT 10SM OVC015 06/02 A3014 820 76 0 000/00 RMK AO2
14926KSTC STC20051019095011010/19/05 09:50:31  5-MIN KSTC 191550Z 34005KT 10SM OVC015 06/02 A3014 820 76 0 330/05 RMK AO2 SLP221 T00560017
14926KSTC STC20051019095509310/19/05 09:55:31  5-MIN KSTC 191555Z 00000KT 10SM OVC015 06/02 A3014 820 76 0 000/00 RMK AO2
14926KSTC STC20051019100009310/19/05 10:00:31  5-MIN KSTC 191600Z 00000KT 10SM OVC015 06/02 A3014 820 76 0 000/00 RMK AO2
14926KSTC STC20051019100509310/19/05 10:05:31  5-MIN KSTC 191605Z 29004KT 10SM OVC015 06/02 A3014 820 76 0 280/04 RMK AO2
14926KSTC STC20051019101009310/19/05 10:10:31  5-MIN KSTC 191610Z 28004KT 10SM OVC015 06/02 A3014 820 73 0 270/04 RMK AO2
14926KSTC STC20051019101509310/19/05 10:15:31  5-MIN KSTC 191615Z 24003KT 10SM OVC015 06/02 A3014 820 76 0 240/03 RMK AO2
14926KSTC STC20051019102009310/19/05 10:20:31  5-MIN KSTC 191620Z 25005KT 10SM OVC015 06/02 A3014 820 76 0 250/05 RMK AO2
14926KSTC STC20051019102509310/19/05 10:25:31  5-MIN KSTC 191625Z 26005KT 10SM OVC015 06/02 A3014 820 73 0 260/05 RMK AO2
14926KSTC STC20051019103009310/19/05 10:30:31  5-MIN KSTC 191630Z VRB04KT 10SM OVC015 06/02 A3014 820 73 0 VRB/04 RMK AO2
14926KSTC STC20051019103509310/19/05 10:35:31  5-MIN KSTC 191635Z 28004KT 10SM OVC015 06/02 A3014 820 73 0 280/04 RMK AO2
14926KSTC STC20051019213509310/19/05 21:35:31  5-MIN KSTC 200335Z 00000KT 10SM CLR 02/01 A3007 890 92 -400 000/00 RMK AO2
14926KSTC STC20051019214009310/19/05 21:40:31  5-MIN KSTC 200340Z 00000KT 10SM CLR 02/01 A3007 890 92 -400 000/00 RMK AO2
14926KSTC STC20051019214509310/19/05 21:45:31  5-MIN KSTC 200345Z 00000KT 10SM CLR 02/01 A3007 890 92 -400 000/00 RMK AO2
14926KSTC STC20051019215011010/19/05 21:50:31  5-MIN KSTC 200350Z 00000KT 10SM CLR 02/02 A3007 890 96 -400 000/00 RMK AO2 SLP201 T00220017
14926KSTC STC20051019215509310/19/05 21:55:31  5-MIN KSTC 200355Z 00000KT 10SM CLR 02/02 A3007 880 96 -400 000/00 RMK AO2
14926KSTC STC20051019220009810/19/05 22:00:31  5-MIN KSTC 200400Z AUTO 00000KT 10SM CLR 02/01 A3008 880 92 -400 000/00 RMK AO2
14926KSTC STC20051019220509810/19/05 22:05:31  5-MIN KSTC 200405Z AUTO 00000KT 10SM CLR 02/01 A3008 880 92 -400 000/00 RMK AO2
14926KSTC STC20051019221009810/19/05 22:10:31  5-MIN KSTC 200410Z AUTO 00000KT 10SM CLR 02/01 A3008 880 92 -400 000/00 RMK AO2
14926KSTC STC20051019221509810/19/05 22:15:31  5-MIN KSTC 200415Z AUTO 00000KT 10SM CLR 02/01 A3008 880 92 -400 000/00 RMK AO2
14926KSTC STC20051019222009810/19/05 22:20:31  5-MIN KSTC 200420Z AUTO 00000KT 10SM CLR 02/01 A3008 880 92 -400 000/00 RMK AO2
14926KSTC STC20051019222509810/19/05 22:25:31  5-MIN KSTC 200425Z AUTO 00000KT 10SM CLR 02/01 A3007 880 96 -400 000/00 RMK AO2
14926KSTC STC20051019223009810/19/05 22:30:31  5-MIN KSTC 200430Z AUTO 00000KT 10SM CLR 02/01 A3007 880 96 -400 000/00 RMK AO2
14926KSTC STC20051019223509810/19/05 22:35:31  5-MIN KSTC 200435Z AUTO 00000KT 10SM CLR 02/01 A3007 880 96 -400 000/00 RMK AO2
14926KSTC STC20051019224009810/19/05 22:40:31  5-MIN KSTC 200440Z AUTO 00000KT 10SM CLR 02/01 A3007 890 96 -400 000/00 RMK AO2
14926KSTC STC20051019224509810/19/05 22:45:31  5-MIN KSTC 200445Z AUTO 00000KT 10SM CLR 02/01 A3007 890 92 -400 000/00 RMK AO2
14926KSTC STC20051019225011410/19/05 22:50:31  5-MIN KSTC 200450Z AUTO 00000KT 9SM CLR 02/01 A3007 890 96 -400 000/00 RMK AO2 SLP201 T00170011
14926KSTC STC20051019225509710/19/05 22:55:31  5-MIN KSTC 200455Z AUTO 00000KT 9SM CLR 02/01 A3007 890 89 -400 000/00 RMK AO2
14926KSTC STC20051019230009710/19/05 23:00:31  5-MIN KSTC 200500Z AUTO 00000KT 8SM CLR 02/01 A3007 890 92 -400 000/00 RMK AO2
14926KSTC STC20051019230509710/19/05 23:05:31  5-MIN KSTC 200505Z AUTO 36003KT 7SM CLR 02/01 A3007 890 92 -400 360/03 RMK AO2
14926KSTC STC20051019231010010/19/05 23:10:31  5-MIN KSTC 200510Z AUTO 00000KT 6SM BR CLR 02/01 A3007 890 92 -400 000/00 RMK AO2
14926KSTC STC20051019231509710/19/05 23:15:31  5-MIN KSTC 200515Z AUTO 00000KT 7SM CLR 02/01 A3007 890 92 -400 000/00 RMK AO2
14926KSTC STC20051019232009710/19/05 23:20:31  5-MIN KSTC 200520Z AUTO 00000KT 8SM CLR 01/01 A3007 890 96 -500 000/00 RMK AO2
14926KSTC STC20051019232509710/19/05 23:25:31  5-MIN KSTC 200525Z AUTO 00000KT 8SM CLR 01/01 A3007 890 96 -500 000/00 RMK AO2
14926KSTC STC20051019233009710/19/05 23:30:31  5-MIN KSTC 200530Z AUTO 01003KT 7SM CLR 01/01 A3007 890 96 -500 360/03 RMK AO2
14926KSTC STC20051019233510010/19/05 23:35:31  5-MIN KSTC 200535Z AUTO 00000KT 6SM BR CLR 01/00 A3007 890 96 -600 000/00 RMK AO2
14926KSTC STC20051019234010010/19/05 23:40:31  5-MIN KSTC 200540Z AUTO 00000KT 6SM BR CLR 01/00 A3007 890 96 -600 000/00 RMK AO2
14926KSTC STC20051019234509710/19/05 23:45:31  5-MIN KSTC 200545Z AUTO 00000KT 7SM CLR 01/00 A3007 890 96 -600 000/00 RMK AO2
14926KSTC STC20051019235014210/19/05 23:50:31  5-MIN KSTC 200550Z AUTO 00000KT 7SM CLR 01/01 A3007 890 96 -500 000/00 RMK AO2 SLP200 T00110006 10067 20006 401110006 50000
14926KSTC STC20051019235509710/19/05 23:55:31  5-MIN KSTC 200555Z AUTO 00000KT 7SM CLR 01/01 A3007 890 96 -500 000/00 RMK AO2
14926KSTC STC20051020000010010/20/05 00:00:32  5-MIN KSTC 200600Z AUTO 00000KT 6SM BR CLR 01/00 A3007 890 92 -500 000/00 RMK AO2
14926KSTC STC20051020000510010/20/05 00:05:31  5-MIN KSTC 200605Z AUTO 00000KT 6SM BR CLR 02/01 A3007 890 92 -400 000/00 RMK AO2
14926KSTC STC20051020001010010/20/05 00:10:31  5-MIN KSTC 200610Z AUTO 00000KT 5SM BR CLR 01/01 A3007 890 96 -500 000/00 RMK AO2
14926KSTC STC20051020001510010/20/05 00:15:31  5-MIN KSTC 200615Z AUTO 00000KT 5SM BR CLR 01/01 A3007 890 96 -500 000/00 RMK AO2
14926KSTC STC20051020002010010/20/05 00:20:31  5-MIN KSTC 200620Z AUTO 00000KT 5SM BR CLR 01/01 A3007 880 96 -500 000/00 RMK AO2
14926KSTC STC20051020002510010/20/05 00:25:31  5-MIN KSTC 200625Z AUTO 00000KT 6SM BR CLR 01/00 A3008 880 92 -500 000/00 RMK AO2
14926KSTC STC20051020003010010/20/05 00:30:31  5-MIN KSTC 200630Z AUTO 00000KT 6SM BR CLR 01/00 A3007 880 92 -500 000/00 RMK AO2
14926KSTC STC20051020003510010/20/05 00:35:31  5-MIN KSTC 200635Z AUTO 01003KT 6SM BR CLR 01/00 A3008 880 92 -500 010/03 RMK AO2
14926KSTC STC20051020004010110/20/05 00:40:31  5-MIN KSTC 200640Z AUTO 03004KT 6SM BR CLR 00/M01 A3008 880 96 -700 030/04 RMK AO2
14926KSTC STC20051020004510110/20/05 00:45:31  5-MIN KSTC 200645Z AUTO 01003KT 6SM BR CLR 01/M01 A3008 880 92 -600 010/03 RMK AO2
14926KSTC STC20051020005011710/20/05 00:50:31  5-MIN KSTC 200650Z AUTO 00000KT 6SM BR CLR 01/00 A3008 880 92 -500 000/00 RMK AO2 SLP200 T00110000
14926KSTC STC20051020005510010/20/05 00:55:31  5-MIN KSTC 200655Z AUTO 01003KT 6SM BR CLR 01/00 A3008 880 92 -500 010/03 RMK AO2
14926KSTC STC20051020010010010/20/05 01:00:31  5-MIN KSTC 200700Z AUTO 01004KT 6SM BR CLR 01/00 A3008 880 96 -600 360/04 RMK AO2
14926KSTC STC20051020010510010/20/05 01:05:31  5-MIN KSTC 200705Z AUTO 00000KT 5SM BR CLR 01/00 A3008 880 92 -500 000/00 RMK AO2
14926KSTC STC20051020011010010/20/05 01:10:31  5-MIN KSTC 200710Z AUTO 00000KT 5SM BR CLR 01/00 A3007 890 96 -600 000/00 RMK AO2
14926KSTC STC20051020011510010/20/05 01:15:31  5-MIN KSTC 200715Z AUTO 00000KT 4SM BR CLR 01/00 A3007 890 96 -600 000/00 RMK AO2
14926KSTC STC20051020012010010/20/05 01:20:31  5-MIN KSTC 200720Z AUTO 01003KT 5SM BR CLR 01/00 A3007 880 96 -600 360/03 RMK AO2
14926KSTC STC20051020012510010/20/05 01:25:31  5-MIN KSTC 200725Z AUTO 00000KT 5SM BR CLR 01/00 A3007 880 96 -600 000/00 RMK AO2
14926KSTC STC20051020013010010/20/05 01:30:31  5-MIN KSTC 200730Z AUTO 00000KT 5SM BR CLR 01/00 A3008 880 96 -600 000/00 RMK AO2
14926KSTC STC20051020013510010/20/05 01:35:31  5-MIN KSTC 200735Z AUTO 00000KT 5SM BR CLR 01/00 A3008 880 96 -600 000/00 RMK AO2
14926KSTC STC20051020014010110/20/05 01:40:31  5-MIN KSTC 200740Z AUTO 00000KT 5SM BR CLR 01/M01 A3008 880 92 -600 000/00 RMK AO2
14926KSTC STC20051020014510110/20/05 01:45:31  5-MIN KSTC 200745Z AUTO 00000KT 5SM BR CLR 01/M01 A3008 880 92 -600 000/00 RMK AO2
14926KSTC STC20051020015011710/20/05 01:50:31  5-MIN KSTC 200750Z AUTO 01003KT 5SM BR CLR 01/00 A3007 880 96 -600 360/03 RMK AO2 SLP200 T00060000
14926KSTC STC20051020015510110/20/05 01:55:31  5-MIN KSTC 200755Z AUTO 36003KT 5SM BR CLR 01/M01 A3007 890 92 -600 350/03 RMK AO2
14926KSTC STC20051020020010110/20/05 02:00:31  5-MIN KSTC 200800Z AUTO 01003KT 4SM BR CLR 00/M01 A3007 890 96 -600 010/03 RMK AO2
14926KSTC STC20051020020510110/20/05 02:05:31  5-MIN KSTC 200805Z AUTO 01004KT 5SM BR CLR 00/M01 A3007 890 96 -600 010/04 RMK AO2
14926KSTC STC20051020021010110/20/05 02:10:31  5-MIN KSTC 200810Z AUTO 01003KT 5SM BR CLR 00/M01 A3007 890 92 -600 010/03 RMK AO2
14926KSTC STC20051020021510110/20/05 02:15:31  5-MIN KSTC 200815Z AUTO 00000KT 5SM BR CLR 01/M01 A3007 890 92 -600 000/00 RMK AO2
14926KSTC STC20051020022010110/20/05 02:20:31  5-MIN KSTC 200820Z AUTO 36003KT 5SM BR CLR 00/M01 A3007 890 96 -600 360/03 RMK AO2
14926KSTC STC20051020022510210/20/05 02:25:31  5-MIN KSTC 200825Z AUTO 02004KT 4SM BR CLR M01/M01 A3007 890 96 -700 010/04 RMK AO2
14926KSTC STC20051020023010110/20/05 02:30:31  5-MIN KSTC 200830Z AUTO 01004KT 4SM BR CLR 00/M01 A3007 890 96 -600 010/04 RMK AO2
14926KSTC STC20051020023510010/20/05 02:35:31  5-MIN KSTC 200835Z AUTO 03003KT 4SM BR CLR 01/00 A3007 890 92 -500 020/03 RMK AO2
14926KSTC STC20051020024010010/20/05 02:40:31  5-MIN KSTC 200840Z AUTO 03003KT 5SM BR CLR 01/00 A3007 890 92 -500 030/03 RMK AO2
14926KSTC STC20051020024510010/20/05 02:45:31  5-MIN KSTC 200845Z AUTO 03003KT 5SM BR CLR 01/00 A3007 890 92 -500 020/03 RMK AO2
14926KSTC STC20051020025012310/20/05 02:50:31  5-MIN KSTC 200850Z AUTO 00000KT 5SM BR CLR 01/00 A3007 890 96 -600 000/00 RMK AO2 SLP199 T00060000 58000
14926KSTC STC20051020025510010/20/05 02:55:31  5-MIN KSTC 200855Z AUTO 00000KT 4SM BR CLR 01/01 A3007 880 96 -500 000/00 RMK AO2
14926KSTC STC20051020030010010/20/05 03:00:31  5-MIN KSTC 200900Z AUTO 00000KT 4SM BR CLR 01/00 A3007 890 96 -600 000/00 RMK AO2
14926KSTC STC20051020030510010/20/05 03:05:31  5-MIN KSTC 200905Z AUTO 35004KT 4SM BR CLR 01/01 A3007 890 96 -500 350/04 RMK AO2
14926KSTC STC20051020031010010/20/05 03:10:31  5-MIN KSTC 200910Z AUTO 36003KT 5SM BR CLR 01/01 A3007 890 96 -500 350/03 RMK AO2
14926KSTC STC20051020031510010/20/05 03:15:31  5-MIN KSTC 200915Z AUTO 36005KT 5SM BR CLR 01/01 A3007 890 96 -500 360/05 RMK AO2
14926KSTC STC20051020032010010/20/05 03:20:31  5-MIN KSTC 200920Z AUTO 36004KT 5SM BR CLR 01/00 A3007 890 96 -600 360/04 RMK AO2
14926KSTC STC20051020032510010/20/05 03:25:31  5-MIN KSTC 200925Z AUTO 36004KT 5SM BR CLR 01/01 A3007 890 96 -500 360/04 RMK AO2
14926KSTC STC20051020033010010/20/05 03:30:31  5-MIN KSTC 200930Z AUTO 36004KT 5SM BR CLR 01/01 A3007 890 96 -500 360/04 RMK AO2
14926KSTC STC20051020033510010/20/05 03:35:31  5-MIN KSTC 200935Z AUTO 01005KT 5SM BR CLR 01/01 A3007 890 96 -500 010/05 RMK AO2
14926KSTC STC20051020034010010/20/05 03:40:31  5-MIN KSTC 200940Z AUTO 01004KT 5SM BR CLR 01/01 A3007 890 96 -500 010/04 RMK AO2
14926KSTC STC20051020034510010/20/05 03:45:31  5-MIN KSTC 200945Z AUTO 01004KT 5SM BR CLR 02/01 A3007 890 92 -400 010/04 RMK AO2
14926KSTC STC20051020035011710/20/05 03:50:31  5-MIN KSTC 200950Z AUTO 02005KT 5SM BR CLR 01/01 A3007 890 96 -500 020/05 RMK AO2 SLP199 T00110006
14926KSTC STC20051020035510010/20/05 03:55:31  5-MIN KSTC 200955Z AUTO 02005KT 5SM BR CLR 02/01 A3007 890 92 -400 010/05 RMK AO2
14926KSTC STC20051020040010010/20/05 04:00:31  5-MIN KSTC 201000Z AUTO 02005KT 6SM BR CLR 02/01 A3007 890 92 -400 020/05 RMK AO2
14926KSTC STC20051020040510010/20/05 04:05:31  5-MIN KSTC 201005Z AUTO 02004KT 6SM BR CLR 02/01 A3007 880 92 -400 020/04 RMK AO2
14926KSTC STC20051020041010010/20/05 04:10:31  5-MIN KSTC 201010Z AUTO 02005KT 6SM BR CLR 02/01 A3008 880 92 -400 020/05 RMK AO2
14926KSTC STC20051020041510010/20/05 04:15:31  5-MIN KSTC 201015Z AUTO 03005KT 6SM BR CLR 02/01 A3008 880 92 -400 020/05 RMK AO2
14926KSTC STC20051020042010010/20/05 04:20:31  5-MIN KSTC 201020Z AUTO 03004KT 6SM BR CLR 02/01 A3008 880 92 -400 020/04 RMK AO2
14926KSTC STC20051020042509710/20/05 04:25:31  5-MIN KSTC 201025Z AUTO VRB04KT 7SM CLR 03/02 A3008 880 92 -300 VRB/04 RMK AO2
14926KSTC STC20051020043009710/20/05 04:30:31  5-MIN KSTC 201030Z AUTO 04004KT 8SM CLR 03/02 A3009 870 92 -300 030/04 RMK AO2
14926KSTC STC20051020043509710/20/05 04:35:31  5-MIN KSTC 201035Z AUTO 05005KT 8SM CLR 03/02 A3009 870 92 -300 050/05 RMK AO2
14926KSTC STC20051020044009710/20/05 04:40:31  5-MIN KSTC 201040Z AUTO 05007KT 8SM CLR 03/02 A3009 870 92 -300 040/07 RMK AO2
14926KSTC STC20051020044509710/20/05 04:45:31  5-MIN KSTC 201045Z AUTO 04008KT 8SM CLR 03/02 A3009 870 92 -300 040/08 RMK AO2
14926KSTC STC20051020045011410/20/05 04:50:31  5-MIN KSTC 201050Z AUTO 05007KT 9SM CLR 03/02 A3009 870 96 -300 040/07 RMK AO2 SLP205 T00280022
14926KSTC STC20051020045509710/20/05 04:55:31  5-MIN KSTC 201055Z AUTO 05007KT 9SM CLR 03/02 A3009 870 96 -300 050/07 RMK AO2
14926KSTC STC20051020050009710/20/05 05:00:31  5-MIN KSTC 201100Z AUTO 04006KT 8SM CLR 03/02 A3009 870 96 -300 040/06 RMK AO2
14926KSTC STC20051020050510610/20/05 05:05:31  5-MIN KSTC 201105Z AUTO 04010G15KT 7SM SCT004 03/02 A3010 860 96 -300 040/10G15 RMK AO2
14926KSTC STC20051020051010910/20/05 05:10:31  5-MIN KSTC 201110Z AUTO 06009G15KT 2SM BR BKN002 03/02 A3010 860 96 -300 050/09G15 RMK AO2
14926KSTC STC20051020051510310/20/05 05:15:31  5-MIN KSTC 201115Z AUTO 06008KT 1SM BR BKN002 03/02 A3010 860 96 -300 050/08 RMK AO2
14926KSTC STC20051020052010310/20/05 05:20:31  5-MIN KSTC 201120Z AUTO 06010KT 1SM BR BKN002 03/02 A3010 860 96 -300 050/10 RMK AO2
14926KSTC STC20051020052510310/20/05 05:25:31  5-MIN KSTC 201125Z AUTO 05008KT 1SM BR OVC002 03/02 A3010 860 96 -300 050/08 RMK AO2
14926KSTC STC20051020053010510/20/05 05:30:31  5-MIN KSTC 201130Z AUTO 05009KT 3/4SM BR OVC002 03/02 A3010 860 96 -300 050/09 RMK AO2
14926KSTC STC20051020053510510/20/05 05:35:31  5-MIN KSTC 201135Z AUTO 05007KT 3/4SM BR OVC002 03/03 A3010 860 96 -300 050/07 RMK AO2
14926KSTC STC20051020054010510/20/05 05:40:31  5-MIN KSTC 201140Z AUTO 04008KT 3/4SM BR OVC002 03/03 A3010 860 96 -300 040/08 RMK AO2
14926KSTC STC20051020054510510/20/05 05:45:31  5-MIN KSTC 201145Z AUTO 05007KT 3/4SM BR OVC002 03/03 A3011 850 96 -300 050/07 RMK AO2
14926KSTC STC20051020055013910/20/05 05:50:31  5-MIN KSTC 201150Z AUTO 04006KT 1SM BR OVC002 03/03 A3011 850 100 -300 040/06 RMK AO2 SLP212 T00330033 10033 21006 51001
14926KSTC STC20051020055510410/20/05 05:55:31  5-MIN KSTC 201155Z AUTO 04006KT 1SM BR OVC002 03/03 A3011 850 100 -300 040/06 RMK AO2
14926KSTC STC20051020060010210/20/05 06:00:31  5-MIN KSTC 201200Z 06007KT 1 1/4SM BR OVC002 04/03 A3011 850 96 -200 060/07 RMK AO2
14926KSTC STC20051020060510210/20/05 06:05:31  5-MIN KSTC 201205Z 05005KT 1 1/4SM BR OVC002 04/03 A3011 850 96 -200 050/05 RMK AO2
14926KSTC STC20051020061010210/20/05 06:10:31  5-MIN KSTC 201210Z 06005KT 1 1/4SM BR OVC002 04/03 A3011 850 96 -200 050/05 RMK AO2
14926KSTC STC20051020061510210/20/05 06:15:31  5-MIN KSTC 201215Z 05006KT 1 1/2SM BR OVC002 04/03 A3011 850 96 -200 050/06 RMK AO2
14926KSTC STC20051020062009910/20/05 06:20:31  5-MIN KSTC 201220Z 06006KT 2SM BR OVC002 04/04 A3011 850 100 -200 060/06 RMK AO2
14926KSTC STC20051020062509810/20/05 06:25:31  5-MIN KSTC 201225Z 07005KT 3SM BR OVC002 04/04 A3011 850 96 -100 070/05 RMK AO2
14926KSTC STC20051020063009810/20/05 06:30:31  5-MIN KSTC 201230Z 07004KT 4SM BR OVC002 04/04 A3011 850 96 -100 070/04 RMK AO2
14926KSTC STC20051020063509810/20/05 06:35:31  5-MIN KSTC 201235Z 08006KT 4SM BR OVC002 04/04 A3011 850 96 -100 080/06 RMK AO2
14926KSTC STC20051020064009810/20/05 06:40:31  5-MIN KSTC 201240Z 07004KT 5SM BR OVC002 04/04 A3011 850 96 -100 070/04 RMK AO2
14926KSTC STC20051020064509810/20/05 06:45:31  5-MIN KSTC 201245Z 08004KT 5SM BR OVC002 04/04 A3011 850 96 -100 080/04 RMK AO2
14926KSTC STC20051020065011510/20/05 06:50:31  5-MIN KSTC 201250Z 09004KT 4SM BR OVC002 04/04 A3011 850 96 -100 090/04 RMK AO2 SLP214 T00440039
14926KSTC STC20051020065509810/20/05 06:55:31  5-MIN KSTC 201255Z 07004KT 4SM BR OVC002 04/04 A3011 850 96 -100 060/04 RMK AO2
14926KSTC STC20051020070009810/20/05 07:00:31  5-MIN KSTC 201300Z 07004KT 4SM BR OVC002 04/03 A3011 850 92 -100 070/04 RMK AO2
14926KSTC STC20051020070509810/20/05 07:05:31  5-MIN KSTC 201305Z 07003KT 4SM BR BKN002 04/03 A3011 850 92 -100 070/03 RMK AO2
14926KSTC STC20051020071009810/20/05 07:10:31  5-MIN KSTC 201310Z VRB03KT 4SM BR BKN002 04/03 A3011 850 92 -100 VRB/03 RMK AO2
14926KSTC STC20051020071509810/20/05 07:15:31  5-MIN KSTC 201315Z 00000KT 4SM BR SCT004 04/03 A3012 850 92 -100 000/00 RMK AO2
14926KSTC STC20051020072009810/20/05 07:20:31  5-MIN KSTC 201320Z 00000KT 4SM BR SCT004 04/03 A3011 850 92 -100 000/00 RMK AO2
14926KSTC STC20051020072509810/20/05 07:25:31  5-MIN KSTC 201325Z 00000KT 4SM BR FEW004 04/04 A3012 850 96 -100 000/00 RMK AO2
14926KSTC STC20051020073009510/20/05 07:30:31  5-MIN KSTC 201330Z 00000KT 4SM BR CLR 04/04 A3012 850 96 -100 000/00 RMK AO2
14926KSTC STC20051020073509510/20/05 07:35:31  5-MIN KSTC 201335Z 05003KT 5SM BR CLR 04/03 A3012 850 92 -100 040/03 RMK AO2
14926KSTC STC20051020074009510/20/05 07:40:31  5-MIN KSTC 201340Z 04004KT 5SM BR CLR 05/04 A3011 850 92 -100 040/04 RMK AO2
14926KSTC STC20051020074509210/20/05 07:45:31  5-MIN KSTC 201345Z 06005KT 7SM CLR 05/04 A3011 850 92 -100 060/05 RMK AO2
14926KSTC STC20051020075010910/20/05 07:50:31  5-MIN KSTC 201350Z 05005KT 8SM CLR 05/04 A3011 850 92 -100 050/05 RMK AO2 SLP215 T00500039
14926KSTC STC20051020075509210/20/05 07:55:31  5-MIN KSTC 201355Z 06005KT 8SM CLR 05/04 A3012 850 92 -100 060/05 RMK AO2
14926KSTC STC20051020080008910/20/05 08:00:31  5-MIN KSTC 201400Z 05005KT 9SM CLR 06/04 A3012 850 89 0 050/05 RMK AO2
14926KSTC STC20051020080509010/20/05 08:05:31  5-MIN KSTC 201405Z 06006KT 10SM CLR 06/04 A3012 850 89 0 060/06 RMK AO2
14926KSTC STC20051020081009010/20/05 08:10:31  5-MIN KSTC 201410Z VRB04KT 10SM CLR 06/04 A3012 850 89 0 VRB/04 RMK AO2
14926KSTC STC20051020081509010/20/05 08:15:31  5-MIN KSTC 201415Z 10004KT 10SM CLR 06/04 A3012 840 86 0 090/04 RMK AO2
14926KSTC STC20051020082009010/20/05 08:20:31  5-MIN KSTC 201420Z 09004KT 10SM CLR 06/04 A3012 840 86 0 090/04 RMK AO2
14926KSTC STC20051020082509010/20/05 08:25:31  5-MIN KSTC 201425Z 07006KT 10SM CLR 06/04 A3012 840 86 0 070/06 RMK AO2
14926KSTC STC20051020083009310/20/05 08:30:31  5-MIN KSTC 201430Z 10003KT 10SM FEW008 06/04 A3012 840 86 0 090/03 RMK AO2
14926KSTC STC20051020083509310/20/05 08:35:31  5-MIN KSTC 201435Z VRB04KT 10SM FEW008 06/04 A3012 840 86 0 VRB/04 RMK AO2
14926KSTC STC20051020084009510/20/05 08:40:31  5-MIN KSTC 201440Z 08005KT 10SM FEW008 07/04 A3012 840 82 100 070/05 RMK AO2
14926KSTC STC20051020084509510/20/05 08:45:31  5-MIN KSTC 201445Z 09008KT 10SM FEW008 07/04 A3012 840 82 100 090/08 RMK AO2
14926KSTC STC20051020085011810/20/05 08:50:31  5-MIN KSTC 201450Z 10004KT 10SM FEW008 07/04 A3012 840 82 100 100/04 RMK AO2 SLP216 T00670039 53012
14926KSTC STC20051020085509510/20/05 08:55:31  5-MIN KSTC 201455Z 09007KT 10SM FEW008 07/04 A3012 840 82 100 090/07 RMK AO2
14926KSTC STC20051020090009510/20/05 09:00:31  5-MIN KSTC 201500Z 08008KT 10SM FEW008 07/04 A3012 840 82 100 080/08 RMK AO2
14926KSTC STC20051020090510810/20/05 09:05:31  5-MIN KSTC 201505Z 08007KT 050V120 10SM CLR 07/04 A3012 850 82 200 080/07 050V120 RMK AO2
14926KSTC STC20051020091009210/20/05 09:10:31  5-MIN KSTC 201510Z 07006KT 10SM CLR 07/04 A3012 850 82 200 070/06 RMK AO2
14926KSTC STC20051020091509210/20/05 09:15:31  5-MIN KSTC 201515Z 09007KT 10SM CLR 08/04 A3011 850 79 200 080/07 RMK AO2
14926KSTC STC20051020092009210/20/05 09:20:31  5-MIN KSTC 201520Z 07006KT 10SM CLR 08/04 A3011 850 79 200 070/06 RMK AO2
14926KSTC STC20051020092509210/20/05 09:25:31  5-MIN KSTC 201525Z VRB06KT 10SM CLR 08/04 A3011 850 79 200 VRB/06 RMK AO2
14926KSTC STC20051020093009210/20/05 09:30:31  5-MIN KSTC 201530Z 05004KT 10SM CLR 08/05 A3011 850 79 300 050/04 RMK AO2
14926KSTC STC20051020212509210/20/05 21:25:31  5-MIN KSTC 210325Z 09006KT 10SM CLR 07/03 A3009 870 76 100 090/06 RMK AO2
14926KSTC STC20051020213009210/20/05 21:30:31  5-MIN KSTC 210330Z 10006KT 10SM CLR 07/03 A3009 870 76 100 090/06 RMK AO2
14926KSTC STC20051020213509210/20/05 21:35:31  5-MIN KSTC 210335Z 10007KT 10SM CLR 07/03 A3009 870 76 100 090/07 RMK AO2
14926KSTC STC20051020214009210/20/05 21:40:31  5-MIN KSTC 210340Z 10006KT 10SM CLR 07/03 A3009 870 76 100 090/06 RMK AO2
14926KSTC STC20051020214509210/20/05 21:45:31  5-MIN KSTC 210345Z 10006KT 10SM CLR 07/03 A3010 870 76 100 100/06 RMK AO2
14926KSTC STC20051020215011210/20/05 21:50:31  5-MIN KSTC 210350Z AUTO 10005KT 10SM CLR 06/03 A3010 860 79 0 090/05 RMK AO2 SLP205 T00610028
14926KSTC STC20051020215509510/20/05 21:55:31  5-MIN KSTC 210355Z AUTO 10005KT 10SM CLR 06/03 A3010 860 79 0 100/05 RMK AO2
14926KSTC STC20051020220009510/20/05 22:00:31  5-MIN KSTC 210400Z AUTO 11006KT 10SM CLR 06/03 A3010 860 79 0 100/06 RMK AO2
14926KSTC STC20051020220509510/20/05 22:05:31  5-MIN KSTC 210405Z AUTO 11006KT 10SM CLR 06/03 A3010 860 79 0 110/06 RMK AO2
14926KSTC STC20051020221009510/20/05 22:10:31  5-MIN KSTC 210410Z AUTO 10004KT 10SM CLR 06/03 A3010 860 79 0 100/04 RMK AO2
14926KSTC STC20051020221509510/20/05 22:15:31  5-MIN KSTC 210415Z AUTO 10003KT 10SM CLR 06/03 A3010 860 82 0 100/03 RMK AO2
14926KSTC STC20051020222009510/20/05 22:20:31  5-MIN KSTC 210420Z AUTO 10003KT 10SM CLR 06/03 A3010 860 82 0 100/03 RMK AO2
14926KSTC STC20051020222509510/20/05 22:25:31  5-MIN KSTC 210425Z AUTO 10003KT 10SM CLR 06/02 A3010 860 79 0 100/03 RMK AO2
14926KSTC STC20051020223009510/20/05 22:30:31  5-MIN KSTC 210430Z AUTO 10004KT 10SM CLR 06/02 A3010 860 79 0 100/04 RMK AO2
14926KSTC STC20051020223509510/20/05 22:35:31  5-MIN KSTC 210435Z AUTO 11004KT 10SM CLR 06/02 A3010 860 79 0 110/04 RMK AO2
14926KSTC STC20051020224009510/20/05 22:40:31  5-MIN KSTC 210440Z AUTO 11004KT 10SM CLR 06/02 A3010 860 79 0 110/04 RMK AO2
14926KSTC STC20051020224509510/20/05 22:45:31  5-MIN KSTC 210445Z AUTO 10004KT 10SM CLR 06/02 A3010 860 79 0 100/04 RMK AO2
14926KSTC STC20051020225011210/20/05 22:50:31  5-MIN KSTC 210450Z AUTO 11003KT 10SM CLR 06/02 A3010 860 79 0 100/03 RMK AO2 SLP208 T00560022
14926KSTC STC20051020225509810/20/05 22:55:31  5-MIN KSTC 210455Z AUTO 09004KT 10SM CLR 05/02 A3010 860 82 -100 090/04 RMK AO2
14926KSTC STC20051020230009810/20/05 23:00:31  5-MIN KSTC 210500Z AUTO 09004KT 10SM CLR 04/02 A3010 860 85 -100 090/04 RMK AO2
14926KSTC STC20051020230509810/20/05 23:05:31  5-MIN KSTC 210505Z AUTO 09004KT 10SM CLR 04/02 A3010 860 85 -100 090/04 RMK AO2
14926KSTC STC20051020231009810/20/05 23:10:31  5-MIN KSTC 210510Z AUTO 10003KT 10SM CLR 04/02 A3010 860 85 -100 100/03 RMK AO2
14926KSTC STC20051020231509810/20/05 23:15:31  5-MIN KSTC 210515Z AUTO 10003KT 10SM CLR 05/02 A3010 860 82 -100 090/03 RMK AO2
14926KSTC STC20051020232009810/20/05 23:20:31  5-MIN KSTC 210520Z AUTO 00000KT 10SM CLR 05/02 A3010 860 82 -100 000/00 RMK AO2
14926KSTC STC20051020232509810/20/05 23:25:31  5-MIN KSTC 210525Z AUTO 00000KT 10SM CLR 04/02 A3010 860 85 -100 000/00 RMK AO2
14926KSTC STC20051020233009810/20/05 23:30:31  5-MIN KSTC 210530Z AUTO 10003KT 10SM CLR 04/02 A3010 860 85 -100 100/03 RMK AO2
14926KSTC STC20051020233509810/20/05 23:35:31  5-MIN KSTC 210535Z AUTO 09003KT 10SM CLR 04/02 A3010 860 85 -100 080/03 RMK AO2
14926KSTC STC20051020234010110/20/05 23:40:31  5-MIN KSTC 210540Z AUTO 08003KT 10SM FEW110 04/02 A3010 860 85 -100 080/03 RMK AO2
14926KSTC STC20051020234510110/20/05 23:45:31  5-MIN KSTC 210545Z AUTO 09003KT 10SM FEW110 04/02 A3010 860 85 -100 080/03 RMK AO2
14926KSTC STC20051020235014610/20/05 23:50:31  5-MIN KSTC 210550Z AUTO 08003KT 10SM FEW110 04/02 A3010 860 85 -100 080/03 RMK AO2 SLP206 T00440022 10094 20033 401441006 51008
14926KSTC STC20051020235510110/20/05 23:55:31  5-MIN KSTC 210555Z AUTO 00000KT 10SM SCT100 04/02 A3010 860 85 -100 000/00 RMK AO2
14926KSTC STC20051021000010110/21/05 00:00:32  5-MIN KSTC 210600Z AUTO 00000KT 10SM BKN100 04/02 A3010 860 85 -100 000/00 RMK AO2
14926KSTC STC20051021000510110/21/05 00:05:31  5-MIN KSTC 210605Z AUTO 00000KT 10SM BKN100 04/02 A3010 860 85 -100 000/00 RMK AO2
14926KSTC STC20051021001010110/21/05 00:10:31  5-MIN KSTC 210610Z AUTO 00000KT 10SM BKN100 04/03 A3010 860 89 -100 000/00 RMK AO2
14926KSTC STC20051021001509810/21/05 00:15:31  5-MIN KSTC 210615Z AUTO 00000KT 10SM BKN100 05/03 A3010 860 85 0 000/00 RMK AO2
14926KSTC STC20051021002010110/21/05 00:20:31  5-MIN KSTC 210620Z AUTO 00000KT 10SM BKN100 04/03 A3010 860 89 -100 000/00 RMK AO2
14926KSTC STC20051021002509810/21/05 00:25:31  5-MIN KSTC 210625Z AUTO 00000KT 10SM BKN100 05/03 A3010 860 85 0 000/00 RMK AO2
14926KSTC STC20051021003009810/21/05 00:30:31  5-MIN KSTC 210630Z AUTO 00000KT 10SM SCT100 05/03 A3010 860 85 0 000/00 RMK AO2
14926KSTC STC20051021003509810/21/05 00:35:31  5-MIN KSTC 210635Z AUTO 00000KT 10SM SCT100 05/03 A3010 860 85 0 000/00 RMK AO2
14926KSTC STC20051021004009810/21/05 00:40:31  5-MIN KSTC 210640Z AUTO 00000KT 10SM FEW100 05/03 A3009 870 85 0 000/00 RMK AO2
14926KSTC STC20051021004509510/21/05 00:45:31  5-MIN KSTC 210645Z AUTO 00000KT 10SM CLR 05/03 A3009 870 85 0 000/00 RMK AO2
14926KSTC STC20051021005011210/21/05 00:50:31  5-MIN KSTC 210650Z AUTO 00000KT 10SM CLR 05/03 A3009 870 85 0 000/00 RMK AO2 SLP204 T00500028
14926KSTC STC20051021005509510/21/05 00:55:31  5-MIN KSTC 210655Z AUTO 00000KT 10SM CLR 05/03 A3010 860 85 0 000/00 RMK AO2
14926KSTC STC20051021010009510/21/05 01:00:31  5-MIN KSTC 210700Z AUTO 00000KT 10SM CLR 05/03 A3010 860 85 0 000/00 RMK AO2
14926KSTC STC20051021010509510/21/05 01:05:31  5-MIN KSTC 210705Z AUTO 00000KT 10SM CLR 05/03 A3010 860 85 0 000/00 RMK AO2
14926KSTC STC20051021011009510/21/05 01:10:31  5-MIN KSTC 210710Z AUTO 00000KT 10SM CLR 05/03 A3010 860 85 0 000/00 RMK AO2
14926KSTC STC20051021011509510/21/05 01:15:31  5-MIN KSTC 210715Z AUTO 00000KT 10SM CLR 05/03 A3010 860 85 0 000/00 RMK AO2
14926KSTC STC20051021012009810/21/05 01:20:31  5-MIN KSTC 210720Z AUTO 00000KT 10SM FEW120 05/03 A3010 860 85 0 000/00 RMK AO2
14926KSTC STC20051021012509810/21/05 01:25:31  5-MIN KSTC 210725Z AUTO 00000KT 10SM FEW120 05/03 A3010 860 85 0 000/00 RMK AO2
14926KSTC STC20051021013009810/21/05 01:30:31  5-MIN KSTC 210730Z AUTO 09003KT 10SM FEW120 05/03 A3010 860 85 0 090/03 RMK AO2
14926KSTC STC20051021013509810/21/05 01:35:31  5-MIN KSTC 210735Z AUTO 09003KT 10SM SCT120 05/03 A3010 860 85 0 090/03 RMK AO2
14926KSTC STC20051021014009810/21/05 01:40:31  5-MIN KSTC 210740Z AUTO 00000KT 10SM BKN120 05/03 A3010 860 85 0 000/00 RMK AO2
14926KSTC STC20051021014509810/21/05 01:45:31  5-MIN KSTC 210745Z AUTO 00000KT 10SM BKN120 05/03 A3010 860 85 0 000/00 RMK AO2
14926KSTC STC20051021015011510/21/05 01:50:31  5-MIN KSTC 210750Z AUTO 00000KT 10SM BKN120 05/03 A3010 860 85 0 000/00 RMK AO2 SLP205 T00500028
14926KSTC STC20051021015510110/21/05 01:55:31  5-MIN KSTC 210755Z AUTO 00000KT 10SM SCT120 04/03 A3010 860 89 -100 000/00 RMK AO2
14926KSTC STC20051021020010110/21/05 02:00:31  5-MIN KSTC 210800Z AUTO 00000KT 10SM SCT120 04/03 A3010 860 89 -100 000/00 RMK AO2
14926KSTC STC20051021020510810/21/05 02:05:31  5-MIN KSTC 210805Z AUTO 00000KT 10SM FEW095 SCT120 04/03 A3009 870 89 -100 000/00 RMK AO2
14926KSTC STC20051021021010810/21/05 02:10:31  5-MIN KSTC 210810Z AUTO 00000KT 10SM SCT095 SCT120 04/03 A3009 870 89 -100 000/00 RMK AO2
14926KSTC STC20051021021510110/21/05 02:15:31  5-MIN KSTC 210815Z AUTO 00000KT 10SM BKN095 04/03 A3009 870 92 -200 000/00 RMK AO2
14926KSTC STC20051021022010110/21/05 02:20:31  5-MIN KSTC 210820Z AUTO 00000KT 10SM BKN095 04/02 A3009 870 89 -200 000/00 RMK AO2
14926KSTC STC20051021022510110/21/05 02:25:31  5-MIN KSTC 210825Z AUTO 00000KT 10SM BKN095 04/03 A3009 870 92 -200 000/00 RMK AO2
14926KSTC STC20051021023010110/21/05 02:30:31  5-MIN KSTC 210830Z AUTO 00000KT 10SM OVC095 04/03 A3009 870 89 -100 000/00 RMK AO2
14926KSTC STC20051021023509810/21/05 02:35:31  5-MIN KSTC 210835Z AUTO 00000KT 10SM OVC095 05/03 A3009 870 85 0 000/00 RMK AO2
14926KSTC STC20051021024009810/21/05 02:40:31  5-MIN KSTC 210840Z AUTO 00000KT 10SM OVC095 05/03 A3009 870 85 0 000/00 RMK AO2
14926KSTC STC20051021024509810/21/05 02:45:31  5-MIN KSTC 210845Z AUTO 00000KT 10SM OVC095 05/03 A3009 870 85 0 000/00 RMK AO2
14926KSTC STC20051021025012110/21/05 02:50:31  5-MIN KSTC 210850Z AUTO 00000KT 10SM OVC100 05/03 A3009 870 89 0 000/00 RMK AO2 SLP202 T00500033 50002
14926KSTC STC20051021025509810/21/05 02:55:31  5-MIN KSTC 210855Z AUTO 00000KT 10SM OVC100 05/03 A3009 870 85 0 000/00 RMK AO2
14926KSTC STC20051021030009810/21/05 03:00:31  5-MIN KSTC 210900Z AUTO 00000KT 10SM BKN100 05/03 A3008 870 85 0 000/00 RMK AO2
14926KSTC STC20051021030510510/21/05 03:05:31  5-MIN KSTC 210905Z AUTO 00000KT 10SM BKN100 BKN120 05/03 A3008 880 85 0 000/00 RMK AO2
14926KSTC STC20051021031010510/21/05 03:10:31  5-MIN KSTC 210910Z AUTO 00000KT 10SM SCT100 BKN110 05/03 A3008 880 89 0 000/00 RMK AO2
14926KSTC STC20051021031509810/21/05 03:15:31  5-MIN KSTC 210915Z AUTO 00000KT 10SM BKN110 05/03 A3008 880 89 0 000/00 RMK AO2
14926KSTC STC20051021032009810/21/05 03:20:31  5-MIN KSTC 210920Z AUTO 00000KT 10SM BKN100 05/03 A3009 870 85 0 000/00 RMK AO2
14926KSTC STC20051021032510510/21/05 03:25:31  5-MIN KSTC 210925Z AUTO 00000KT 10SM BKN095 BKN110 05/03 A3009 870 85 0 000/00 RMK AO2
14926KSTC STC20051021033010510/21/05 03:30:31  5-MIN KSTC 210930Z AUTO 00000KT 10SM BKN090 BKN110 05/03 A3009 870 89 0 000/00 RMK AO2
14926KSTC STC20051021033510510/21/05 03:35:31  5-MIN KSTC 210935Z AUTO 00000KT 10SM FEW070 BKN085 05/03 A3009 870 89 0 000/00 RMK AO2
14926KSTC STC20051021034010510/21/05 03:40:31  5-MIN KSTC 210940Z AUTO 00000KT 10SM FEW060 OVC075 05/03 A3009 870 89 0 000/00 RMK AO2
14926KSTC STC20051021034512010/21/05 03:45:31  5-MIN KSTC 210945Z AUTO 11004KT 9SM -RA FEW049 OVC070 05/03 A3008 870 89 0 110/04 RMK AO2 RAB42 P0000
14926KSTC STC20051021035014410/21/05 03:50:31  5-MIN KSTC 210950Z AUTO 14005KT 8SM -RA FEW049 BKN060 OVC080 05/03 A3009 870 89 0 140/05 RMK AO2 RAB42 SLP201 P0001 T00500033
14926KSTC STC20051021035512210/21/05 03:55:31  5-MIN KSTC 210955Z AUTO 12005KT 10SM -RA FEW049 BKN060 OVC080 06/03 A3009 870 85 0 110/05 RMK AO2 P0000
14926KSTC STC20051021040011710/21/05 04:00:31  5-MIN KSTC 211000Z AUTO 13003KT 10SM SCT049 OVC075 05/04 A3008 880 92 0 130/03 RMK AO2 RAE00 P0000
14926KSTC STC20051021040512410/21/05 04:05:31  5-MIN KSTC 211005Z AUTO 13003KT 10SM SCT048 SCT060 OVC075 05/04 A3008 880 92 0 130/03 RMK AO2 RAE00 P0000
14926KSTC STC20051021041011710/21/05 04:10:31  5-MIN KSTC 211010Z AUTO 00000KT 10SM SCT048 OVC075 05/04 A3008 880 92 0 000/00 RMK AO2 RAE00 P0000
14926KSTC STC20051021041511510/21/05 04:15:31  5-MIN KSTC 211015Z AUTO 00000KT 10SM -RA FEW048 OVC075 05/04 A3008 880 92 0 000/00 RMK AO2 P0000
14926KSTC STC20051021042011010/21/05 04:20:31  5-MIN KSTC 211020Z AUTO 00000KT 10SM OVC070 05/04 A3008 880 92 0 000/00 RMK AO2 RAE20 P0000
14926KSTC STC20051021042511010/21/05 04:25:31  5-MIN KSTC 211025Z AUTO 00000KT 10SM OVC070 05/04 A3008 880 92 0 000/00 RMK AO2 RAE20 P0000
14926KSTC STC20051021043011010/21/05 04:30:31  5-MIN KSTC 211030Z AUTO 11003KT 10SM OVC070 05/04 A3008 880 92 0 110/03 RMK AO2 RAE20 P0000
14926KSTC STC20051021043511010/21/05 04:35:31  5-MIN KSTC 211035Z AUTO 00000KT 10SM OVC070 05/04 A3008 880 92 0 000/00 RMK AO2 RAE20 P0000
14926KSTC STC20051021044010910/21/05 04:40:31  5-MIN KSTC 211040Z AUTO 00000KT 9SM OVC070 06/04 A3008 880 89 0 000/00 RMK AO2 RAE20 P0000
14926KSTC STC20051021044511010/21/05 04:45:31  5-MIN KSTC 211045Z AUTO 00000KT 10SM OVC070 06/04 A3008 880 89 0 000/00 RMK AO2 RAE20 P0000
14926KSTC STC20051021045013410/21/05 04:50:31  5-MIN KSTC 211050Z AUTO 00000KT 10SM BKN065 OVC080 06/04 A3008 880 89 0 000/00 RMK AO2 RAE20 SLP201 P0000 T00560039
14926KSTC STC20051021045510510/21/05 04:55:31  5-MIN KSTC 211055Z AUTO 00000KT 10SM BKN070 OVC085 06/04 A3008 880 89 0 000/00 RMK AO2
14926KSTC STC20051021050010410/21/05 05:00:31  5-MIN KSTC 211100Z AUTO 12003KT 9SM BKN065 OVC080 05/04 A3008 880 92 0 120/03 RMK AO2
14926KSTC STC20051021050510410/21/05 05:05:31  5-MIN KSTC 211105Z AUTO 12003KT 9SM SCT065 OVC080 05/04 A3008 880 92 0 120/03 RMK AO2
14926KSTC STC20051021051010410/21/05 05:10:31  5-MIN KSTC 211110Z AUTO 11003KT 9SM FEW065 OVC080 06/04 A3008 880 89 0 110/03 RMK AO2
14926KSTC STC20051021051509710/21/05 05:15:31  5-MIN KSTC 211115Z AUTO 00000KT 9SM OVC075 06/04 A3008 880 89 0 000/00 RMK AO2
14926KSTC STC20051021052010410/21/05 05:20:31  5-MIN KSTC 211120Z AUTO 00000KT 9SM FEW065 OVC080 06/04 A3008 880 89 0 000/00 RMK AO2
14926KSTC STC20051021052509710/21/05 05:25:31  5-MIN KSTC 211125Z AUTO 00000KT 9SM OVC080 06/04 A3008 880 89 0 000/00 RMK AO2
14926KSTC STC20051021053009710/21/05 05:30:31  5-MIN KSTC 211130Z AUTO 00000KT 9SM OVC080 06/04 A3008 880 89 0 000/00 RMK AO2
14926KSTC STC20051021053510410/21/05 05:35:31  5-MIN KSTC 211135Z AUTO 00000KT 9SM BKN080 OVC120 06/04 A3007 880 89 0 000/00 RMK AO2
14926KSTC STC20051021054010410/21/05 05:40:31  5-MIN KSTC 211140Z AUTO 00000KT 9SM BKN080 OVC120 06/04 A3007 880 89 0 000/00 RMK AO2
14926KSTC STC20051021054510410/21/05 05:45:31  5-MIN KSTC 211145Z AUTO 00000KT 9SM BKN080 OVC120 06/04 A3007 890 89 0 000/00 RMK AO2
14926KSTC STC20051021055015110/21/05 05:50:31  5-MIN KSTC 211150Z AUTO 00000KT 8SM BKN080 OVC120 06/04 A3007 890 89 0 000/00 RMK AO2 SLP197 60001 70001 T00560039 10056 20039 58003
14926KSTC STC20051021055510410/21/05 05:55:31  5-MIN KSTC 211155Z AUTO 00000KT 7SM BKN080 OVC120 06/04 A3007 890 89 0 000/00 RMK AO2
14926KSTC STC20051021060010410/21/05 06:00:31  5-MIN KSTC 211200Z AUTO 12003KT 8SM BKN080 OVC120 05/04 A3006 890 92 0 120/03 RMK AO2
14926KSTC STC20051021060509210/21/05 06:05:31  5-MIN KSTC 211205Z 14003KT 8SM OVC080 05/04 A3007 890 92 0 140/03 RMK AO2
14926KSTC STC20051021061009210/21/05 06:10:31  5-MIN KSTC 211210Z 15003KT 9SM OVC080 06/04 A3007 890 89 0 140/03 RMK AO2
14926KSTC STC20051021061509210/21/05 06:15:31  5-MIN KSTC 211215Z 13004KT 8SM OVC080 06/04 A3006 900 89 0 130/04 RMK AO2
14926KSTC STC20051021062009210/21/05 06:20:31  5-MIN KSTC 211220Z 13003KT 8SM OVC080 06/04 A3006 900 89 0 120/03 RMK AO2
14926KSTC STC20051021062509210/21/05 06:25:31  5-MIN KSTC 211225Z 13004KT 8SM OVC085 06/04 A3006 900 89 0 130/04 RMK AO2
14926KSTC STC20051021063009210/21/05 06:30:31  5-MIN KSTC 211230Z 14003KT 9SM OVC085 06/04 A3006 900 89 0 140/03 RMK AO2
14926KSTC STC20051021063509210/21/05 06:35:31  5-MIN KSTC 211235Z 14003KT 9SM OVC085 06/04 A3006 900 89 0 140/03 RMK AO2
14926KSTC STC20051021064009210/21/05 06:40:31  5-MIN KSTC 211240Z 14003KT 9SM OVC085 06/04 A3006 900 89 0 140/03 RMK AO2
14926KSTC STC20051021064509210/21/05 06:45:31  5-MIN KSTC 211245Z 15004KT 8SM OVC085 06/04 A3006 900 89 0 140/04 RMK AO2
14926KSTC STC20051021065010910/21/05 06:50:31  5-MIN KSTC 211250Z 14004KT 8SM OVC085 06/04 A3006 900 92 0 140/04 RMK AO2 SLP194 T00560044
14926KSTC STC20051021065509210/21/05 06:55:31  5-MIN KSTC 211255Z 13004KT 8SM OVC085 06/04 A3006 900 92 0 120/04 RMK AO2
14926KSTC STC20051021070009210/21/05 07:00:31  5-MIN KSTC 211300Z 13004KT 7SM OVC085 06/04 A3006 900 92 0 130/04 RMK AO2
14926KSTC STC20051021070509210/21/05 07:05:31  5-MIN KSTC 211305Z 13004KT 7SM OVC085 06/04 A3005 900 92 0 130/04 RMK AO2
14926KSTC STC20051021071009210/21/05 07:10:31  5-MIN KSTC 211310Z 14004KT 7SM OVC085 06/04 A3005 900 92 0 130/04 RMK AO2
14926KSTC STC20051021071509210/21/05 07:15:31  5-MIN KSTC 211315Z 14005KT 7SM OVC085 06/04 A3005 900 92 0 140/05 RMK AO2
14926KSTC STC20051021072009410/21/05 07:20:31  5-MIN KSTC 211320Z 13005KT 7SM OVC085 06/04 A3005 900 89 100 130/05 RMK AO2
14926KSTC STC20051021072509410/21/05 07:25:31  5-MIN KSTC 211325Z 15005KT 7SM OVC085 06/04 A3005 900 89 100 140/05 RMK AO2
14926KSTC STC20051021073009410/21/05 07:30:31  5-MIN KSTC 211330Z 15004KT 7SM OVC085 06/04 A3005 900 89 100 150/04 RMK AO2
14926KSTC STC20051021073509410/21/05 07:35:31  5-MIN KSTC 211335Z 14005KT 7SM OVC085 06/05 A3005 900 93 100 140/05 RMK AO2
14926KSTC STC20051021074009710/21/05 07:40:31  5-MIN KSTC 211340Z 14005KT 6SM BR OVC080 06/05 A3005 900 93 100 140/05 RMK AO2
14926KSTC STC20051021074509710/21/05 07:45:31  5-MIN KSTC 211345Z 15004KT 6SM BR OVC080 06/05 A3005 900 93 100 150/04 RMK AO2
14926KSTC STC20051021075011810/21/05 07:50:31  5-MIN KSTC 211350Z 15004KT 7SM BKN075 BKN090 07/05 A3005 900 89 200 150/04 RMK AO2 SLP193 T00670050
14926KSTC STC20051021075510110/21/05 07:55:31  5-MIN KSTC 211355Z 15004KT 7SM BKN075 BKN090 07/05 A3005 910 89 200 140/04 RMK AO2
14926KSTC STC20051021080010410/21/05 08:00:31  5-MIN KSTC 211400Z 15004KT 6SM BR BKN075 BKN090 07/05 A3005 900 89 200 140/04 RMK AO2
14926KSTC STC20051021080509710/21/05 08:05:31  5-MIN KSTC 211405Z 15004KT 6SM BR BKN075 07/05 A3005 900 89 200 140/04 RMK AO2
14926KSTC STC20051021081009410/21/05 08:10:31  5-MIN KSTC 211410Z 15005KT 7SM BKN075 07/06 A3005 900 93 200 150/05 RMK AO2
14926KSTC STC20051021081509410/21/05 08:15:31  5-MIN KSTC 211415Z 15004KT 7SM BKN075 07/06 A3005 900 93 200 150/04 RMK AO2
14926KSTC STC20051021082009410/21/05 08:20:31  5-MIN KSTC 211420Z 15004KT 7SM OVC075 07/06 A3005 900 89 200 150/04 RMK AO2
14926KSTC STC20051021082509410/21/05 08:25:31  5-MIN KSTC 211425Z 15005KT 7SM OVC075 07/06 A3005 900 89 200 150/05 RMK AO2
14926KSTC STC20051021083009410/21/05 08:30:31  5-MIN KSTC 211430Z 15004KT 7SM OVC075 07/06 A3005 900 89 200 150/04 RMK AO2
14926KSTC STC20051021083509410/21/05 08:35:31  5-MIN KSTC 211435Z 16004KT 7SM OVC075 08/06 A3005 910 86 300 160/04 RMK AO2
14926KSTC STC20051021084009410/21/05 08:40:31  5-MIN KSTC 211440Z 16004KT 8SM OVC075 08/06 A3005 910 86 300 160/04 RMK AO2
14926KSTC STC20051021084509410/21/05 08:45:31  5-MIN KSTC 211445Z 19004KT 8SM OVC075 08/06 A3006 900 86 300 190/04 RMK AO2
14926KSTC STC20051021085011710/21/05 08:50:31  5-MIN KSTC 211450Z 22004KT 9SM OVC075 08/06 A3006 900 86 300 210/04 RMK AO2 SLP194 T00780056 58007
14926KSTC STC20051021085509410/21/05 08:55:31  5-MIN KSTC 211455Z 21004KT 9SM OVC075 08/06 A3006 900 86 300 210/04 RMK AO2
14926KSTC STC20051021090009410/21/05 09:00:31  5-MIN KSTC 211500Z 18003KT 9SM OVC075 08/06 A3005 900 82 400 180/03 RMK AO2
14926KSTC STC20051021090509410/21/05 09:05:31  5-MIN KSTC 211505Z 20003KT 9SM OVC075 08/06 A3006 900 82 400 200/03 RMK AO2
14926KSTC STC20051021091010110/21/05 09:10:31  5-MIN KSTC 211510Z 21004KT 9SM BKN075 OVC090 08/06 A3005 900 82 400 200/04 RMK AO2
14926KSTC STC20051021091510110/21/05 09:15:31  5-MIN KSTC 211515Z 20005KT 9SM BKN075 OVC090 08/06 A3005 900 82 400 200/05 RMK AO2
14926KSTC STC20051021092010110/21/05 09:20:31  5-MIN KSTC 211520Z 20004KT 9SM BKN075 OVC090 08/06 A3005 900 82 400 190/04 RMK AO2
14926KSTC STC20051021092510110/21/05 09:25:31  5-MIN KSTC 211525Z 20004KT 9SM BKN075 OVC090 08/06 A3005 900 82 400 200/04 RMK AO2
14926KSTC STC20051021093010210/21/05 09:30:31  5-MIN KSTC 211530Z 21005KT 10SM BKN070 OVC090 08/06 A3005 900 82 400 210/05 RMK AO2
14926KSTC STC20051021093510210/21/05 09:35:31  5-MIN KSTC 211535Z 21005KT 10SM BKN070 OVC090 09/06 A3005 900 79 400 210/05 RMK AO2
14926KSTC STC20051021094010210/21/05 09:40:31  5-MIN KSTC 211540Z 20004KT 10SM BKN070 OVC085 09/05 A3005 900 76 400 200/04 RMK AO2
14926KSTC STC20051021094509510/21/05 09:45:31  5-MIN KSTC 211545Z 20005KT 10SM OVC070 09/05 A3005 910 76 400 200/05 RMK AO2
14926KSTC STC20051021095011210/21/05 09:50:31  5-MIN KSTC 211550Z 21005KT 10SM OVC070 09/06 A3005 910 79 400 210/05 RMK AO2 SLP189 T00890056
14926KSTC STC20051021095509510/21/05 09:55:31  5-MIN KSTC 211555Z 21005KT 10SM OVC070 09/05 A3005 910 76 400 210/05 RMK AO2
14926KSTC STC20051021100009510/21/05 10:00:31  5-MIN KSTC 211600Z 22005KT 10SM OVC070 09/05 A3005 910 76 400 220/05 RMK AO2
14926KSTC STC20051021100509510/21/05 10:05:31  5-MIN KSTC 211605Z 23004KT 10SM OVC070 09/06 A3005 900 79 400 230/04 RMK AO2
14926KSTC STC20051021101009510/21/05 10:10:31  5-MIN KSTC 211610Z 24004KT 10SM OVC070 09/06 A3005 900 76 500 230/04 RMK AO2
14926KSTC STC20051021101509510/21/05 10:15:31  5-MIN KSTC 211615Z 24004KT 10SM OVC070 09/05 A3005 900 74 500 240/04 RMK AO2
14926KSTC STC20051021102009510/21/05 10:20:31  5-MIN KSTC 211620Z 24005KT 10SM OVC070 09/06 A3005 900 76 500 240/05 RMK AO2
14926KSTC STC20051021102509510/21/05 10:25:31  5-MIN KSTC 211625Z 24006KT 10SM OVC070 09/05 A3005 910 74 500 240/06 RMK AO2
14926KSTC STC20051021103009510/21/05 10:30:31  5-MIN KSTC 211630Z 26005KT 10SM OVC070 10/05 A3005 910 71 600 260/05 RMK AO2
14926KSTC STC20051021103509510/21/05 10:35:31  5-MIN KSTC 211635Z 27006KT 10SM OVC070 10/05 A3005 910 71 600 270/06 RMK AO2
14926KSTC STC20051021104009510/21/05 10:40:31  5-MIN KSTC 211640Z 27005KT 10SM OVC070 10/05 A3005 910 71 600 270/05 RMK AO2
14926KSTC STC20051021104509510/21/05 10:45:31  5-MIN KSTC 211645Z 27005KT 10SM OVC065 10/05 A3005 910 71 600 270/05 RMK AO2
14926KSTC STC20051021105011210/21/05 10:50:31  5-MIN KSTC 211650Z 28005KT 10SM OVC065 10/05 A3005 910 71 600 280/05 RMK AO2 SLP190 T01000050
14926KSTC STC20051021105509510/21/05 10:55:31  5-MIN KSTC 211655Z 27006KT 10SM OVC060 10/05 A3005 910 71 600 270/06 RMK AO2
14926KSTC STC20051021110009510/21/05 11:00:31  5-MIN KSTC 211700Z 27005KT 10SM OVC060 10/05 A3005 910 71 600 270/05 RMK AO2
14926KSTC STC20051021110510210/21/05 11:05:31  5-MIN KSTC 211705Z 28005KT 10SM FEW020 OVC060 11/05 A3005 910 68 600 280/05 RMK AO2
14926KSTC STC20051021111010910/21/05 11:10:31  5-MIN KSTC 211710Z 29008KT 10SM SCT020 SCT036 OVC060 10/06 A3005 900 74 600 290/08 RMK AO2
14926KSTC STC20051021111512410/21/05 11:15:31  5-MIN KSTC 211715Z 29009KT 9SM -RA SCT022 BKN034 OVC060 11/06 A3005 900 71 600 290/09 RMK AO2 RAB15 P0000
14926KSTC STC20051021112012410/21/05 11:20:31  5-MIN KSTC 211720Z 30011KT 8SM -RA BKN020 BKN034 OVC060 09/06 A3006 900 79 500 300/11 RMK AO2 RAB15 P0000
14926KSTC STC20051021112512710/21/05 11:25:31  5-MIN KSTC 211725Z 30011KT 6SM -RA BR BKN020 BKN036 OVC055 09/07 A3005 900 86 400 290/11 RMK AO2 RAB15 P0000
14926KSTC STC20051021113012010/21/05 11:30:31  5-MIN KSTC 211730Z 30009KT 5SM -RA BR SCT016 OVC021 09/07 A3005 900 86 400 290/09 RMK AO2 RAB15 P0000
14926KSTC STC20051021113511310/21/05 11:35:31  5-MIN KSTC 211735Z 30008KT 5SM -RA BR OVC021 09/07 A3005 910 89 400 290/08 RMK AO2 RAB15 P0001
14926KSTC STC20051021114011310/21/05 11:40:31  5-MIN KSTC 211740Z 30008KT 5SM -RA BR OVC021 09/07 A3005 910 89 400 290/08 RMK AO2 RAB15 P0001
14926KSTC STC20051021114511310/21/05 11:45:31  5-MIN KSTC 211745Z 30005KT 6SM -RA BR OVC021 09/07 A3004 910 89 400 300/05 RMK AO2 RAB15 P0001
14926KSTC STC20051021115015010/21/05 11:50:31  5-MIN KSTC 211750Z 29005KT 7SM OVC022 09/07 A3004 910 89 400 290/05 RMK AO2 RAB15E47 SLP188 P0001 60001 T00890072 10106 20050 55002
14926KSTC STC20051021115509410/21/05 11:55:31  5-MIN KSTC 211755Z 30004KT 8SM OVC022 09/07 A3004 920 89 400 300/04 RMK AO2
14926KSTC STC20051021120009410/21/05 12:00:31  5-MIN KSTC 211800Z 29004KT 8SM OVC022 09/08 A3004 920 93 400 290/04 RMK AO2
14926KSTC STC20051021120509410/21/05 12:05:31  5-MIN KSTC 211805Z 29004KT 8SM OVC024 09/07 A3004 920 89 400 290/04 RMK AO2
14926KSTC STC20051021121010110/21/05 12:10:31  5-MIN KSTC 211810Z 30005KT 9SM FEW018 OVC024 09/08 A3004 920 89 500 290/05 RMK AO2
14926KSTC STC20051021121510110/21/05 12:15:31  5-MIN KSTC 211815Z 29005KT 9SM SCT018 OVC024 09/08 A3004 920 89 500 290/05 RMK AO2
14926KSTC STC20051021122010210/21/05 12:20:31  5-MIN KSTC 211820Z 29007KT 10SM BKN018 OVC024 09/07 A3003 920 86 500 290/07 RMK AO2
14926KSTC STC20051021122510210/21/05 12:25:31  5-MIN KSTC 211825Z 30006KT 10SM BKN018 OVC024 09/07 A3004 920 86 500 300/06 RMK AO2
14926KSTC STC20051021123010210/21/05 12:30:31  5-MIN KSTC 211830Z 30007KT 10SM BKN018 OVC024 09/07 A3004 920 86 500 300/07 RMK AO2
14926KSTC STC20051021123509510/21/05 12:35:31  5-MIN KSTC 211835Z 30006KT 10SM OVC016 09/07 A3004 920 86 500 290/06 RMK AO2
14926KSTC STC20051021124009510/21/05 12:40:31  5-MIN KSTC 211840Z 29008KT 10SM OVC016 09/07 A3003 920 86 500 290/08 RMK AO2
14926KSTC STC20051021124509510/21/05 12:45:31  5-MIN KSTC 211845Z 30011KT 10SM OVC016 09/07 A3003 920 86 500 290/11 RMK AO2
14926KSTC STC20051021125011210/21/05 12:50:31  5-MIN KSTC 211850Z 30008KT 10SM OVC016 09/07 A3003 920 86 500 290/08 RMK AO2 SLP185 T00940072
14926KSTC STC20051021125509510/21/05 12:55:31  5-MIN KSTC 211855Z 29009KT 10SM OVC016 09/07 A3003 920 86 500 290/09 RMK AO2
14926KSTC STC20051021130009510/21/05 13:00:31  5-MIN KSTC 211900Z 29009KT 10SM OVC016 09/07 A3003 920 83 500 290/09 RMK AO2
14926KSTC STC20051021130509510/21/05 13:05:31  5-MIN KSTC 211905Z 30010KT 10SM OVC020 09/07 A3003 920 86 500 290/10 RMK AO2
14926KSTC STC20051021131010210/21/05 13:10:31  5-MIN KSTC 211910Z 29010KT 10SM BKN018 OVC023 10/07 A3003 920 83 600 290/10 RMK AO2
14926KSTC STC20051021131510210/21/05 13:15:31  5-MIN KSTC 211915Z 29010KT 10SM BKN018 OVC023 09/07 A3003 920 83 500 290/10 RMK AO2
14926KSTC STC20051021132010210/21/05 13:20:31  5-MIN KSTC 211920Z 30016KT 10SM BKN018 OVC023 09/07 A3003 920 83 500 300/16 RMK AO2
14926KSTC STC20051021132510810/21/05 13:25:31  5-MIN KSTC 211925Z 30011G18KT 10SM BKN018 OVC023 09/06 A3003 920 79 500 290/11G18 RMK AO2
14926KSTC STC20051021133010210/21/05 13:30:31  5-MIN KSTC 211930Z 30013KT 10SM BKN018 OVC023 09/06 A3003 920 79 500 290/13 RMK AO2
14926KSTC STC20051021133510910/21/05 13:35:31  5-MIN KSTC 211935Z 30012KT 10SM BKN018 BKN023 OVC039 10/06 A3003 920 77 600 300/12 RMK AO2
14926KSTC STC20051021134010910/21/05 13:40:31  5-MIN KSTC 211940Z 30013KT 10SM SCT018 BKN023 OVC039 10/06 A3003 920 77 600 290/13 RMK AO2
14926KSTC STC20051021134510910/21/05 13:45:31  5-MIN KSTC 211945Z 30012KT 10SM BKN018 BKN025 OVC039 09/06 A3003 920 79 500 300/12 RMK AO2
14926KSTC STC20051021135012610/21/05 13:50:31  5-MIN KSTC 211950Z 31011KT 10SM BKN020 BKN025 OVC039 09/06 A3003 920 79 500 310/11 RMK AO2 SLP185 T00940061
14926KSTC STC20051021135510210/21/05 13:55:31  5-MIN KSTC 211955Z 31011KT 10SM BKN020 OVC039 10/06 A3003 920 77 600 300/11 RMK AO2
14926KSTC STC20051021140009510/21/05 14:00:31  5-MIN KSTC 212000Z 31011KT 10SM OVC020 10/06 A3003 920 77 600 300/11 RMK AO2
14926KSTC STC20051021140510210/21/05 14:05:31  5-MIN KSTC 212005Z 30011KT 10SM BKN020 OVC029 10/06 A3003 930 77 600 300/11 RMK AO2
14926KSTC STC20051021141010210/21/05 14:10:31  5-MIN KSTC 212010Z 31009KT 10SM BKN020 OVC029 10/06 A3003 930 77 600 300/09 RMK AO2
14926KSTC STC20051021141510810/21/05 14:15:31  5-MIN KSTC 212015Z 30013G17KT 10SM BKN022 OVC030 10/06 A3003 930 74 600 300/13G17 RMK AO2
14926KSTC STC20051021142009510/21/05 14:20:31  5-MIN KSTC 212020Z 31010KT 10SM OVC022 10/06 A3003 930 74 600 310/10 RMK AO2
14926KSTC STC20051021142510210/21/05 14:25:31  5-MIN KSTC 212025Z 32013KT 10SM BKN024 OVC028 10/06 A3003 920 74 600 310/13 RMK AO2
14926KSTC STC20051021143009510/21/05 14:30:31  5-MIN KSTC 212030Z 32011KT 10SM OVC026 10/06 A3003 920 74 600 320/11 RMK AO2
14926KSTC STC20051021143509510/21/05 14:35:31  5-MIN KSTC 212035Z 33010KT 10SM OVC026 10/06 A3003 920 74 600 330/10 RMK AO2
14926KSTC STC20051021144009510/21/05 14:40:31  5-MIN KSTC 212040Z 32010KT 10SM OVC026 09/06 A3003 920 76 500 320/10 RMK AO2
14926KSTC STC20051021144510210/21/05 14:45:31  5-MIN KSTC 212045Z 32016KT 10SM BKN022 OVC027 09/05 A3003 920 74 500 310/16 RMK AO2
14926KSTC STC20051021145013110/21/05 14:50:31  5-MIN KSTC 212050Z 31015G18KT 10SM BKN020 OVC027 09/05 A3004 920 76 400 310/15G18 RMK AO2 SLP186 T00890050 56006
14926KSTC STC20051021145510810/21/05 14:55:31  5-MIN KSTC 212055Z 31016G20KT 10SM BKN020 OVC027 09/04 A3004 920 73 400 310/16G20 RMK AO2
14926KSTC STC20051021150010810/21/05 15:00:31  5-MIN KSTC 212100Z 31015G20KT 10SM BKN020 OVC027 09/04 A3004 920 73 400 310/15G20 RMK AO2
14926KSTC STC20051021150509510/21/05 15:05:31  5-MIN KSTC 212105Z 31012KT 10SM OVC020 09/04 A3004 920 73 400 300/12 RMK AO2
14926KSTC STC20051021151009510/21/05 15:10:31  5-MIN KSTC 212110Z 31012KT 10SM OVC020 09/04 A3004 920 73 400 310/12 RMK AO2
14926KSTC STC20051021151509510/21/05 15:15:31  5-MIN KSTC 212115Z 31010KT 10SM OVC020 09/04 A3004 920 73 400 310/10 RMK AO2
14926KSTC STC20051021152009510/21/05 15:20:31  5-MIN KSTC 212120Z 31010KT 10SM OVC022 09/04 A3004 920 73 400 300/10 RMK AO2
14926KSTC STC20051021152509510/21/05 15:25:31  5-MIN KSTC 212125Z 30013KT 10SM OVC022 09/04 A3004 920 71 400 300/13 RMK AO2
14926KSTC STC20051021153009510/21/05 15:30:31  5-MIN KSTC 212130Z 30011KT 10SM OVC022 09/04 A3004 920 71 400 300/11 RMK AO2
14926KSTC STC20051021153509510/21/05 15:35:31  5-MIN KSTC 212135Z 31013KT 10SM OVC022 09/04 A3004 910 71 400 310/13 RMK AO2
14926KSTC STC20051021154010110/21/05 15:40:31  5-MIN KSTC 212140Z 31014G20KT 10SM OVC022 09/04 A3005 910 71 400 300/14G20 RMK AO2
14926KSTC STC20051021154510110/21/05 15:45:31  5-MIN KSTC 212145Z 31015G20KT 10SM OVC024 09/03 A3005 910 68 400 310/15G20 RMK AO2
14926KSTC STC20051021155011910/21/05 15:50:31  5-MIN KSTC 212150Z 32015KT 10SM BKN024 OVC031 09/03 A3005 910 65 400 320/15 RMK AO2 SLP190 T00890028
14926KSTC STC20051021155510210/21/05 15:55:31  5-MIN KSTC 212155Z 32014KT 10SM BKN024 OVC031 09/03 A3005 910 65 400 310/14 RMK AO2
14926KSTC STC20051021160009510/21/05 16:00:31  5-MIN KSTC 212200Z 32012KT 10SM OVC027 09/03 A3005 910 65 400 320/12 RMK AO2
14926KSTC STC20051021160509510/21/05 16:05:31  5-MIN KSTC 212205Z 32012KT 10SM OVC029 09/03 A3005 910 65 400 320/12 RMK AO2
14926KSTC STC20051021161009510/21/05 16:10:31  5-MIN KSTC 212210Z 33012KT 10SM OVC029 08/03 A3005 910 68 400 330/12 RMK AO2
14926KSTC STC20051021161509510/21/05 16:15:31  5-MIN KSTC 212215Z 33013KT 10SM OVC031 08/02 A3005 910 65 400 330/13 RMK AO2
14926KSTC STC20051021162009510/21/05 16:20:31  5-MIN KSTC 212220Z 33011KT 10SM OVC031 08/02 A3005 910 65 400 330/11 RMK AO2
14926KSTC STC20051021162510210/21/05 16:25:31  5-MIN KSTC 212225Z 32010KT 10SM BKN031 OVC035 08/02 A3005 910 65 400 320/10 RMK AO2
14926KSTC STC20051021163009510/21/05 16:30:31  5-MIN KSTC 212230Z 33009KT 10SM OVC031 09/02 A3005 910 63 400 330/09 RMK AO2
14926KSTC STC20051021163509510/21/05 16:35:31  5-MIN KSTC 212235Z 32013KT 10SM BKN031 09/02 A3005 910 63 400 320/13 RMK AO2
14926KSTC STC20051021164009510/21/05 16:40:31  5-MIN KSTC 212240Z 33009KT 10SM BKN033 08/02 A3005 910 65 400 330/09 RMK AO2
14926KSTC STC20051021164510110/21/05 16:45:31  5-MIN KSTC 212245Z 33010G17KT 10SM SCT033 08/02 A3005 910 63 400 320/10G17 RMK AO2
14926KSTC STC20051021165011810/21/05 16:50:31  5-MIN KSTC 212250Z 33010G17KT 10SM FEW033 08/02 A3005 910 63 400 320/10G17 RMK AO2 SLP190 T00830017
14926KSTC STC20051021165509510/21/05 16:55:31  5-MIN KSTC 212255Z 33007KT 10SM FEW033 08/02 A3005 910 65 300 330/07 RMK AO2
14926KSTC STC20051021170009510/21/05 17:00:31  5-MIN KSTC 212300Z 33007KT 10SM FEW033 08/02 A3005 910 65 300 320/07 RMK AO2
14926KSTC STC20051021170509510/21/05 17:05:31  5-MIN KSTC 212305Z 33006KT 10SM FEW035 08/02 A3005 900 65 300 330/06 RMK AO2
14926KSTC STC20051021171009510/21/05 17:10:31  5-MIN KSTC 212310Z 33005KT 10SM SCT035 08/02 A3005 900 65 300 330/05 RMK AO2
14926KSTC STC20051021171509510/21/05 17:15:31  5-MIN KSTC 212315Z 33004KT 10SM BKN037 08/02 A3005 910 65 300 330/04 RMK AO2
14926KSTC STC20051021172009510/21/05 17:20:31  5-MIN KSTC 212320Z 33004KT 10SM BKN037 08/02 A3005 910 65 300 330/04 RMK AO2
14926KSTC STC20051021172509510/21/05 17:25:31  5-MIN KSTC 212325Z 34004KT 10SM BKN037 08/02 A3005 910 65 300 330/04 RMK AO2
14926KSTC STC20051021173009510/21/05 17:30:31  5-MIN KSTC 212330Z 34003KT 10SM OVC037 07/02 A3005 910 68 200 340/03 RMK AO2
14926KSTC STC20051021173509510/21/05 17:35:31  5-MIN KSTC 212335Z 34003KT 10SM OVC037 07/02 A3005 910 68 200 330/03 RMK AO2
14926KSTC STC20051021174009510/21/05 17:40:31  5-MIN KSTC 212340Z 33004KT 10SM OVC037 07/02 A3005 900 68 200 330/04 RMK AO2
14926KSTC STC20051021174509510/21/05 17:45:31  5-MIN KSTC 212345Z 34003KT 10SM OVC037 07/02 A3005 900 68 200 340/03 RMK AO2
14926KSTC STC20051021175013010/21/05 17:50:31  5-MIN KSTC 212350Z 00000KT 10SM OVC037 07/02 A3006 900 70 200 000/00 RMK AO2 SLP194 T00670017 10100 20067 55001
14926KSTC STC20051021175509510/21/05 17:55:31  5-MIN KSTC 212355Z 00000KT 10SM OVC037 07/02 A3006 900 73 200 000/00 RMK AO2
14926KSTC STC20051021180009510/21/05 18:00:31  5-MIN KSTC 220000Z 00000KT 10SM OVC037 07/02 A3006 900 73 200 000/00 RMK AO2
14926KSTC STC20051021180509510/21/05 18:05:31  5-MIN KSTC 220005Z 00000KT 10SM BKN039 06/02 A3006 900 76 100 000/00 RMK AO2
14926KSTC STC20051021181009310/21/05 18:10:31  5-MIN KSTC 220010Z 00000KT 10SM BKN041 06/02 A3006 900 79 0 000/00 RMK AO2
14926KSTC STC20051021181509310/21/05 18:15:31  5-MIN KSTC 220015Z 00000KT 10SM OVC041 06/02 A3006 900 79 0 000/00 RMK AO2
14926KSTC STC20051021182009310/21/05 18:20:31  5-MIN KSTC 220020Z 00000KT 10SM BKN041 05/02 A3006 900 82 0 000/00 RMK AO2
14926KSTC STC20051021182509310/21/05 18:25:31  5-MIN KSTC 220025Z 00000KT 10SM BKN041 05/02 A3006 900 82 0 000/00 RMK AO2
14926KSTC STC20051021183009310/21/05 18:30:31  5-MIN KSTC 220030Z 00000KT 10SM BKN043 05/02 A3006 900 82 0 000/00 RMK AO2
14926KSTC STC20051021183509310/21/05 18:35:31  5-MIN KSTC 220035Z 00000KT 10SM BKN043 05/02 A3006 900 82 0 000/00 RMK AO2
14926KSTC STC20051021184009310/21/05 18:40:31  5-MIN KSTC 220040Z 00000KT 10SM BKN043 05/02 A3006 900 82 0 000/00 RMK AO2
14926KSTC STC20051021184509610/21/05 18:45:31  5-MIN KSTC 220045Z 00000KT 10SM BKN045 04/02 A3006 900 82 -100 000/00 RMK AO2
14926KSTC STC20051021185012010/21/05 18:50:31  5-MIN KSTC 220050Z 00000KT 10SM BKN045 BKN095 04/02 A3006 900 82 -100 000/00 RMK AO2 SLP195 T00440017
14926KSTC STC20051021185510010/21/05 18:55:31  5-MIN KSTC 220055Z 00000KT 10SM BKN045 OVC100 06/02 A3006 900 79 0 000/00 RMK AO2
14926KSTC STC20051021190010010/21/05 19:00:31  5-MIN KSTC 220100Z 00000KT 10SM SCT045 OVC100 05/02 A3006 900 82 0 000/00 RMK AO2
14926KSTC STC20051021190510310/21/05 19:05:31  5-MIN KSTC 220105Z 34004KT 10SM FEW045 OVC100 04/02 A3006 900 82 -100 340/04 RMK AO2
14926KSTC STC20051021191010310/21/05 19:10:31  5-MIN KSTC 220110Z 34003KT 10SM FEW045 OVC100 04/02 A3005 900 82 -100 340/03 RMK AO2
14926KSTC STC20051021191509310/21/05 19:15:31  5-MIN KSTC 220115Z 34003KT 10SM OVC100 05/02 A3005 900 82 0 330/03 RMK AO2
14926KSTC STC20051021192009310/21/05 19:20:31  5-MIN KSTC 220120Z 33003KT 10SM OVC100 05/02 A3005 900 82 0 320/03 RMK AO2
14926KSTC STC20051021192509610/21/05 19:25:31  5-MIN KSTC 220125Z 31003KT 10SM OVC095 04/02 A3005 900 85 -100 300/03 RMK AO2
14926KSTC STC20051021193009610/21/05 19:30:31  5-MIN KSTC 220130Z 30004KT 10SM OVC095 04/02 A3005 900 85 -100 300/04 RMK AO2
14926KSTC STC20051021193509310/21/05 19:35:31  5-MIN KSTC 220135Z 30004KT 10SM OVC095 05/02 A3005 900 82 0 300/04 RMK AO2
14926KSTC STC20051021194009610/21/05 19:40:31  5-MIN KSTC 220140Z 30005KT 10SM OVC095 04/02 A3005 900 85 -100 300/05 RMK AO2
14926KSTC STC20051021194509610/21/05 19:45:31  5-MIN KSTC 220145Z 30005KT 10SM OVC095 04/02 A3005 900 85 -100 300/05 RMK AO2
14926KSTC STC20051021195011310/21/05 19:50:31  5-MIN KSTC 220150Z 30005KT 10SM OVC095 04/02 A3005 900 85 -100 300/05 RMK AO2 SLP194 T00440022
14926KSTC STC20051021195509610/21/05 19:55:31  5-MIN KSTC 220155Z 31005KT 10SM BKN095 04/02 A3006 900 82 -100 310/05 RMK AO2
14926KSTC STC20051021200009610/21/05 20:00:31  5-MIN KSTC 220200Z 31006KT 10SM BKN095 04/02 A3006 900 82 -100 310/06 RMK AO2
14926KSTC STC20051021200510310/21/05 20:05:31  5-MIN KSTC 220205Z 31006KT 10SM FEW042 BKN095 04/02 A3006 900 85 -100 310/06 RMK AO2
14926KSTC STC20051021201010310/21/05 20:10:31  5-MIN KSTC 220210Z 32008KT 10SM SCT042 BKN095 04/02 A3006 900 82 -100 320/08 RMK AO2
14926KSTC STC20051021201510010/21/05 20:15:31  5-MIN KSTC 220215Z 32008KT 10SM BKN042 BKN100 06/02 A3006 900 76 0 320/08 RMK AO2
