14926KSTC STC20011101000009911/01/01 00:00:32  5-MIN KSTC 010600Z AUTO 19010KT 10SM CLR 13/09 A2938 1530 77 1700 190/10 RMK AO2
14926KSTC STC20011101000509911/01/01 00:05:31  5-MIN KSTC 010605Z AUTO 19013KT 10SM CLR 13/09 A2938 1530 77 1700 190/13 RMK AO2
14926KSTC STC20011101001009911/01/01 00:10:31  5-MIN KSTC 010610Z AUTO 20012KT 10SM CLR 13/09 A2939 1520 77 1700 200/12 RMK AO2
14926KSTC STC20011101001509911/01/01 00:15:31  5-MIN KSTC 010615Z AUTO 19010KT 10SM CLR 13/09 A2939 1520 77 1700 190/10 RMK AO2
14926KSTC STC20011101002009911/01/01 00:20:31  5-MIN KSTC 010620Z AUTO 19009KT 10SM CLR 13/09 A2938 1530 80 1700 190/09 RMK AO2
14926KSTC STC20011101002509911/01/01 00:25:31  5-MIN KSTC 010625Z AUTO 19011KT 10SM CLR 13/09 A2938 1530 77 1700 190/11 RMK AO2
14926KSTC STC20011101003009911/01/01 00:30:31  5-MIN KSTC 010630Z AUTO 19009KT 10SM CLR 13/09 A2938 1530 80 1700 190/09 RMK AO2
14926KSTC STC20011101003509911/01/01 00:35:31  5-MIN KSTC 010635Z AUTO 19008KT 10SM CLR 13/09 A2938 1530 80 1700 190/08 RMK AO2
14926KSTC STC20011101004009911/01/01 00:40:31  5-MIN KSTC 010640Z AUTO 20007KT 10SM CLR 13/09 A2939 1520 80 1700 200/07 RMK AO2
14926KSTC STC20011101004509911/01/01 00:45:31  5-MIN KSTC 010645Z AUTO 19009KT 10SM CLR 12/09 A2939 1520 83 1600 180/09 RMK AO2
14926KSTC STC20011101005011611/01/01 00:50:31  5-MIN KSTC 010650Z AUTO 20008KT 10SM CLR 12/09 A2939 1520 83 1600 200/08 RMK AO2 SLP962 T01220094
14926KSTC STC20011101005509911/01/01 00:55:31  5-MIN KSTC 010655Z AUTO 20006KT 10SM CLR 12/09 A2939 1520 83 1600 190/06 RMK AO2
14926KSTC STC20011101010009911/01/01 01:00:31  5-MIN KSTC 010700Z AUTO 20007KT 10SM CLR 12/09 A2939 1520 83 1600 190/07 RMK AO2
14926KSTC STC20011101010509911/01/01 01:05:31  5-MIN KSTC 010705Z AUTO 20008KT 10SM CLR 12/09 A2939 1520 83 1600 200/08 RMK AO2
14926KSTC STC20011101011009911/01/01 01:10:31  5-MIN KSTC 010710Z AUTO 21008KT 10SM CLR 12/09 A2940 1520 83 1600 200/08 RMK AO2
14926KSTC STC20011101011509911/01/01 01:15:31  5-MIN KSTC 010715Z AUTO 22008KT 10SM CLR 12/09 A2940 1510 86 1500 210/08 RMK AO2
14926KSTC STC20011101012009911/01/01 01:20:31  5-MIN KSTC 010720Z AUTO 22008KT 10SM CLR 12/09 A2939 1520 83 1600 220/08 RMK AO2
14926KSTC STC20011101012509911/01/01 01:25:31  5-MIN KSTC 010725Z AUTO 22008KT 10SM CLR 12/09 A2939 1520 83 1600 220/08 RMK AO2
14926KSTC STC20011101013009911/01/01 01:30:31  5-MIN KSTC 010730Z AUTO 23009KT 10SM CLR 12/09 A2940 1510 83 1600 220/09 RMK AO2
14926KSTC STC20011101013509911/01/01 01:35:31  5-MIN KSTC 010735Z AUTO 22009KT 10SM CLR 12/09 A2940 1510 83 1600 220/09 RMK AO2
14926KSTC STC20011101014009911/01/01 01:40:31  5-MIN KSTC 010740Z AUTO 23008KT 10SM CLR 12/09 A2940 1510 83 1600 220/08 RMK AO2
14926KSTC STC20011101014509911/01/01 01:45:31  5-MIN KSTC 010745Z AUTO 22008KT 10SM CLR 12/09 A2940 1510 83 1600 220/08 RMK AO2
14926KSTC STC20011101015011611/01/01 01:50:31  5-MIN KSTC 010750Z AUTO 22009KT 10SM CLR 12/09 A2940 1510 86 1500 220/09 RMK AO2 SLP965 T01170094
14926KSTC STC20011101015509911/01/01 01:55:31  5-MIN KSTC 010755Z AUTO 23009KT 10SM CLR 12/09 A2941 1500 83 1500 230/09 RMK AO2
14926KSTC STC20011101020009911/01/01 02:00:31  5-MIN KSTC 010800Z AUTO 24008KT 10SM CLR 12/09 A2941 1500 83 1500 240/08 RMK AO2
14926KSTC STC20011101020509911/01/01 02:05:31  5-MIN KSTC 010805Z AUTO 23007KT 10SM CLR 12/09 A2941 1500 83 1500 230/07 RMK AO2
14926KSTC STC20011101021009911/01/01 02:10:31  5-MIN KSTC 010810Z AUTO 24008KT 10SM CLR 12/09 A2942 1500 83 1500 230/08 RMK AO2
14926KSTC STC20011101021509911/01/01 02:15:31  5-MIN KSTC 010815Z AUTO 24008KT 10SM CLR 12/09 A2942 1490 83 1500 230/08 RMK AO2
14926KSTC STC20011101022009911/01/01 02:20:31  5-MIN KSTC 010820Z AUTO 25008KT 10SM CLR 11/09 A2942 1500 86 1400 250/08 RMK AO2
14926KSTC STC20011101022509911/01/01 02:25:31  5-MIN KSTC 010825Z AUTO 25008KT 10SM CLR 11/09 A2942 1490 86 1400 250/08 RMK AO2
14926KSTC STC20011101023009911/01/01 02:30:31  5-MIN KSTC 010830Z AUTO 25010KT 10SM CLR 11/08 A2943 1490 83 1400 250/10 RMK AO2
14926KSTC STC20011101023509911/01/01 02:35:31  5-MIN KSTC 010835Z AUTO 25008KT 10SM CLR 11/08 A2943 1480 83 1400 250/08 RMK AO2
14926KSTC STC20011101024009911/01/01 02:40:31  5-MIN KSTC 010840Z AUTO 25009KT 10SM CLR 11/08 A2943 1490 83 1400 250/09 RMK AO2
14926KSTC STC20011101024509911/01/01 02:45:31  5-MIN KSTC 010845Z AUTO 26009KT 10SM CLR 11/08 A2943 1490 80 1400 250/09 RMK AO2
14926KSTC STC20011101025012211/01/01 02:50:31  5-MIN KSTC 010850Z AUTO 27006KT 10SM CLR 11/08 A2942 1490 83 1400 260/06 RMK AO2 SLP973 T01060078 56013
14926KSTC STC20011101025509911/01/01 02:55:31  5-MIN KSTC 010855Z AUTO 26007KT 10SM CLR 10/08 A2943 1490 86 1300 260/07 RMK AO2
14926KSTC STC20011101030009911/01/01 03:00:31  5-MIN KSTC 010900Z AUTO 26007KT 10SM CLR 10/07 A2943 1480 83 1300 250/07 RMK AO2
14926KSTC STC20011101030509911/01/01 03:05:31  5-MIN KSTC 010905Z AUTO 22006KT 10SM CLR 09/07 A2944 1480 86 1200 220/06 RMK AO2
14926KSTC STC20011101031009911/01/01 03:10:31  5-MIN KSTC 010910Z AUTO 22005KT 10SM CLR 09/07 A2944 1470 86 1200 210/05 RMK AO2
14926KSTC STC20011101031509911/01/01 03:15:31  5-MIN KSTC 010915Z AUTO 22005KT 10SM CLR 09/07 A2944 1470 86 1200 220/05 RMK AO2
14926KSTC STC20011101032009911/01/01 03:20:31  5-MIN KSTC 010920Z AUTO 23006KT 10SM CLR 09/07 A2944 1470 86 1200 230/06 RMK AO2
14926KSTC STC20011101032509911/01/01 03:25:31  5-MIN KSTC 010925Z AUTO 23006KT 10SM CLR 09/07 A2944 1470 86 1200 230/06 RMK AO2
14926KSTC STC20011101033009911/01/01 03:30:31  5-MIN KSTC 010930Z AUTO 23004KT 10SM CLR 09/07 A2944 1470 86 1200 220/04 RMK AO2
14926KSTC STC20011101033509911/01/01 03:35:31  5-MIN KSTC 010935Z AUTO 23004KT 10SM CLR 09/07 A2944 1470 83 1200 220/04 RMK AO2
14926KSTC STC20011101034009911/01/01 03:40:31  5-MIN KSTC 010940Z AUTO 23004KT 10SM CLR 09/07 A2944 1480 86 1100 230/04 RMK AO2
14926KSTC STC20011101034509911/01/01 03:45:31  5-MIN KSTC 010945Z AUTO 25003KT 10SM CLR 08/07 A2943 1480 89 1100 250/03 RMK AO2
14926KSTC STC20011101064009711/01/01 06:40:31  5-MIN KSTC 011240Z AUTO 20006KT 9SM CLR 08/07 A2951 1410 96 900 200/06 RMK AO2
14926KSTC STC20011101064509711/01/01 06:45:31  5-MIN KSTC 011245Z AUTO 20006KT 8SM CLR 08/07 A2952 1400 96 900 200/06 RMK AO2
14926KSTC STC20011101065011411/01/01 06:50:31  5-MIN KSTC 011250Z AUTO 20008KT 9SM CLR 08/07 A2952 1400 96 900 190/08 RMK AO2 SLP006 T00780072
14926KSTC STC20011101065509911/01/01 06:55:31  5-MIN KSTC 011255Z AUTO 19007KT 10SM CLR 08/07 A2952 1400 93 1000 190/07 RMK AO2
14926KSTC STC20011101070009911/01/01 07:00:31  5-MIN KSTC 011300Z AUTO 19008KT 10SM CLR 08/07 A2952 1400 93 1000 190/08 RMK AO2
14926KSTC STC20011101070509911/01/01 07:05:31  5-MIN KSTC 011305Z AUTO 19008KT 10SM CLR 08/07 A2952 1400 93 1000 190/08 RMK AO2
14926KSTC STC20011101071009911/01/01 07:10:31  5-MIN KSTC 011310Z AUTO 19008KT 10SM CLR 08/07 A2952 1400 93 1000 190/08 RMK AO2
14926KSTC STC20011101071509911/01/01 07:15:31  5-MIN KSTC 011315Z AUTO 20007KT 10SM CLR 09/07 A2953 1390 89 1000 200/07 RMK AO2
14926KSTC STC20011101072009911/01/01 07:20:31  5-MIN KSTC 011320Z AUTO 21007KT 10SM CLR 08/07 A2953 1390 93 1000 210/07 RMK AO2
14926KSTC STC20011101072509911/01/01 07:25:31  5-MIN KSTC 011325Z AUTO 22006KT 10SM CLR 08/07 A2954 1380 93 1000 220/06 RMK AO2
14926KSTC STC20011101073009811/01/01 07:30:31  5-MIN KSTC 011330Z AUTO 22005KT 10SM CLR 08/07 A2954 1380 93 900 220/05 RMK AO2
14926KSTC STC20011101073510511/01/01 07:35:31  5-MIN KSTC 011335Z AUTO 23005KT 10SM CLR 08/07 A2955 1370 93 900 230/05 RMK AO2 PRESRR
14926KSTC STC20011101074009811/01/01 07:40:31  5-MIN KSTC 011340Z AUTO 22005KT 10SM CLR 08/07 A2955 1370 93 900 220/05 RMK AO2
14926KSTC STC20011101074509811/01/01 07:45:31  5-MIN KSTC 011345Z AUTO 20005KT 10SM CLR 07/07 A2955 1370 96 800 200/05 RMK AO2
14926KSTC STC20011101075011511/01/01 07:50:31  5-MIN KSTC 011350Z AUTO 19005KT 10SM CLR 07/07 A2955 1370 96 800 180/05 RMK AO2 SLP016 T00720067
14926KSTC STC20011101075509811/01/01 07:55:31  5-MIN KSTC 011355Z AUTO 19005KT 10SM CLR 08/07 A2955 1370 93 900 190/05 RMK AO2
14926KSTC STC20011101080009911/01/01 08:00:31  5-MIN KSTC 011400Z AUTO 20005KT 10SM CLR 09/07 A2956 1370 89 1000 200/05 RMK AO2
14926KSTC STC20011101080509911/01/01 08:05:31  5-MIN KSTC 011405Z AUTO 20006KT 10SM CLR 09/07 A2956 1360 89 1000 200/06 RMK AO2
14926KSTC STC20011101081009911/01/01 08:10:31  5-MIN KSTC 011410Z AUTO 22006KT 10SM CLR 09/08 A2956 1360 93 1000 210/06 RMK AO2
14926KSTC STC20011101081509911/01/01 08:15:31  5-MIN KSTC 011415Z AUTO 20006KT 10SM CLR 09/08 A2956 1360 93 1000 200/06 RMK AO2
14926KSTC STC20011101082009911/01/01 08:20:31  5-MIN KSTC 011420Z AUTO 19005KT 10SM CLR 09/08 A2956 1360 89 1100 190/05 RMK AO2
14926KSTC STC20011101082509911/01/01 08:25:31  5-MIN KSTC 011425Z AUTO 20006KT 10SM CLR 10/08 A2956 1360 86 1100 200/06 RMK AO2
14926KSTC STC20011101083009911/01/01 08:30:31  5-MIN KSTC 011430Z AUTO 20005KT 10SM CLR 10/08 A2956 1360 89 1100 200/05 RMK AO2
14926KSTC STC20011101083509911/01/01 08:35:31  5-MIN KSTC 011435Z AUTO 21006KT 10SM CLR 10/08 A2956 1360 89 1100 200/06 RMK AO2
14926KSTC STC20011101084009911/01/01 08:40:31  5-MIN KSTC 011440Z AUTO 22005KT 10SM CLR 11/08 A2957 1350 86 1200 220/05 RMK AO2
14926KSTC STC20011101084509911/01/01 08:45:31  5-MIN KSTC 011445Z AUTO 24005KT 10SM CLR 11/08 A2957 1350 83 1200 230/05 RMK AO2
14926KSTC STC20011101085012211/01/01 08:50:31  5-MIN KSTC 011450Z AUTO 23005KT 10SM CLR 11/08 A2957 1350 83 1200 220/05 RMK AO2 SLP023 T01110083 53019
14926KSTC STC20011101085509911/01/01 08:55:31  5-MIN KSTC 011455Z AUTO 23005KT 10SM CLR 12/08 A2957 1350 80 1300 230/05 RMK AO2
14926KSTC STC20011101090009911/01/01 09:00:31  5-MIN KSTC 011500Z AUTO 25006KT 10SM CLR 12/09 A2958 1340 83 1300 240/06 RMK AO2
14926KSTC STC20011101090509911/01/01 09:05:31  5-MIN KSTC 011505Z AUTO 25008KT 10SM CLR 12/09 A2958 1350 80 1400 250/08 RMK AO2
14926KSTC STC20011101091009911/01/01 09:10:31  5-MIN KSTC 011510Z AUTO 27009KT 10SM CLR 13/09 A2958 1350 77 1400 270/09 RMK AO2
14926KSTC STC20011101091509911/01/01 09:15:31  5-MIN KSTC 011515Z AUTO 27008KT 10SM CLR 13/08 A2957 1350 74 1400 270/08 RMK AO2
14926KSTC STC20011101092009911/01/01 09:20:31  5-MIN KSTC 011520Z AUTO 26009KT 10SM CLR 13/08 A2957 1350 74 1400 260/09 RMK AO2
14926KSTC STC20011101092509911/01/01 09:25:31  5-MIN KSTC 011525Z AUTO 27010KT 10SM CLR 13/08 A2958 1340 71 1500 270/10 RMK AO2
14926KSTC STC20011101093009911/01/01 09:30:31  5-MIN KSTC 011530Z AUTO 28011KT 10SM CLR 13/08 A2958 1340 69 1500 280/11 RMK AO2
14926KSTC STC20011101093509911/01/01 09:35:31  5-MIN KSTC 011535Z AUTO 28010KT 10SM CLR 14/08 A2958 1340 66 1600 280/10 RMK AO2
14926KSTC STC20011101094009911/01/01 09:40:31  5-MIN KSTC 011540Z AUTO 28010KT 10SM CLR 14/07 A2959 1340 64 1600 270/10 RMK AO2
14926KSTC STC20011101094509911/01/01 09:45:31  5-MIN KSTC 011545Z AUTO 27012KT 10SM CLR 14/07 A2959 1340 61 1600 260/12 RMK AO2
14926KSTC STC20011101095011611/01/01 09:50:31  5-MIN KSTC 011550Z AUTO 27009KT 10SM CLR 14/07 A2958 1340 61 1600 270/09 RMK AO2 SLP027 T01390067
14926KSTC STC20011101095509911/01/01 09:55:31  5-MIN KSTC 011555Z AUTO 28009KT 10SM CLR 14/07 A2958 1340 59 1600 270/09 RMK AO2
14926KSTC STC20011101100009911/01/01 10:00:31  5-MIN KSTC 011600Z AUTO 26008KT 10SM CLR 14/07 A2959 1340 59 1600 260/08 RMK AO2
14926KSTC STC20011101100509911/01/01 10:05:31  5-MIN KSTC 011605Z AUTO 27008KT 10SM CLR 14/07 A2959 1340 59 1600 270/08 RMK AO2
14926KSTC STC20011101101009911/01/01 10:10:31  5-MIN KSTC 011610Z AUTO 26008KT 10SM CLR 14/07 A2959 1340 59 1600 260/08 RMK AO2
14926KSTC STC20011101101509911/01/01 10:15:31  5-MIN KSTC 011615Z AUTO 25008KT 10SM CLR 15/06 A2959 1330 55 1700 250/08 RMK AO2
14926KSTC STC20011101102009911/01/01 10:20:31  5-MIN KSTC 011620Z AUTO 26010KT 10SM CLR 15/06 A2959 1330 55 1700 260/10 RMK AO2
14926KSTC STC20011101102509911/01/01 10:25:31  5-MIN KSTC 011625Z AUTO 26008KT 10SM CLR 16/07 A2960 1330 55 1700 260/08 RMK AO2
14926KSTC STC20011101103009911/01/01 10:30:31  5-MIN KSTC 011630Z AUTO 25010KT 10SM CLR 16/07 A2960 1330 55 1700 250/10 RMK AO2
14926KSTC STC20011101103509911/01/01 10:35:31  5-MIN KSTC 011635Z AUTO 26012KT 10SM CLR 16/06 A2960 1330 51 1800 260/12 RMK AO2
14926KSTC STC20011101104009911/01/01 10:40:31  5-MIN KSTC 011640Z AUTO 24009KT 10SM CLR 16/07 A2960 1330 53 1800 240/09 RMK AO2
14926KSTC STC20011101104509911/01/01 10:45:31  5-MIN KSTC 011645Z AUTO 25013KT 10SM CLR 16/07 A2961 1320 53 1800 250/13 RMK AO2
14926KSTC STC20011101105012211/01/01 10:50:31  5-MIN KSTC 011650Z AUTO 27014G18KT 10SM CLR 16/06 A2961 1320 51 1800 270/14G18 RMK AO2 SLP034 T01610061
14926KSTC STC20011101105509911/01/01 10:55:31  5-MIN KSTC 011655Z AUTO 26014KT 10SM CLR 16/06 A2961 1320 51 1800 260/14 RMK AO2
14926KSTC STC20011101110009911/01/01 11:00:31  5-MIN KSTC 011700Z AUTO 26014KT 10SM CLR 16/06 A2961 1320 53 1700 260/14 RMK AO2
14926KSTC STC20011101110509911/01/01 11:05:31  5-MIN KSTC 011705Z AUTO 26013KT 10SM CLR 16/06 A2961 1320 51 1800 260/13 RMK AO2
14926KSTC STC20011101111009911/01/01 11:10:31  5-MIN KSTC 011710Z AUTO 27013KT 10SM CLR 16/06 A2961 1320 49 1800 270/13 RMK AO2
14926KSTC STC20011101111509911/01/01 11:15:31  5-MIN KSTC 011715Z AUTO 29012KT 10SM CLR 17/05 A2961 1320 45 1900 290/12 RMK AO2
14926KSTC STC20011101112009911/01/01 11:20:31  5-MIN KSTC 011720Z AUTO 25012KT 10SM CLR 16/04 A2960 1320 45 1800 250/12 RMK AO2
14926KSTC STC20011101112509911/01/01 11:25:31  5-MIN KSTC 011725Z AUTO 26011KT 10SM CLR 16/04 A2961 1320 45 1800 260/11 RMK AO2
14926KSTC STC20011101113009911/01/01 11:30:31  5-MIN KSTC 011730Z AUTO 27014KT 10SM CLR 17/04 A2961 1310 44 1900 260/14 RMK AO2
14926KSTC STC20011101113509911/01/01 11:35:31  5-MIN KSTC 011735Z AUTO 28014KT 10SM CLR 17/04 A2961 1310 44 1900 270/14 RMK AO2
14926KSTC STC20011101114009911/01/01 11:40:31  5-MIN KSTC 011740Z AUTO 27012KT 10SM CLR 17/04 A2961 1320 44 1900 270/12 RMK AO2
14926KSTC STC20011101114510511/01/01 11:45:31  5-MIN KSTC 011745Z AUTO 27014G19KT 10SM CLR 17/04 A2961 1320 44 1900 260/14G19 RMK AO2
14926KSTC STC20011101115014011/01/01 11:50:31  5-MIN KSTC 011750Z AUTO 26011G19KT 10SM CLR 17/04 A2960 1320 42 1900 260/11G19 RMK AO2 SLP031 T01720044 10172 20072 51029
14926KSTC STC20011101115510511/01/01 11:55:31  5-MIN KSTC 011755Z AUTO 25014G20KT 10SM CLR 17/04 A2960 1320 41 1900 250/14G20 RMK AO2
14926KSTC STC20011101120010511/01/01 12:00:31  5-MIN KSTC 011800Z AUTO 24017G20KT 10SM CLR 17/04 A2960 1320 41 1900 240/17G20 RMK AO2
14926KSTC STC20011101120509911/01/01 12:05:31  5-MIN KSTC 011805Z AUTO 26015KT 10SM CLR 17/03 A2961 1320 39 1900 250/15 RMK AO2
14926KSTC STC20011101121009911/01/01 12:10:31  5-MIN KSTC 011810Z AUTO 26015KT 10SM CLR 17/03 A2961 1320 37 1900 260/15 RMK AO2
14926KSTC STC20011101121509911/01/01 12:15:31  5-MIN KSTC 011815Z AUTO 27013KT 10SM CLR 17/03 A2961 1320 37 1900 270/13 RMK AO2
14926KSTC STC20011101122012111/01/01 12:20:31  5-MIN KSTC 011820Z AUTO 25016G20KT 230V300 10SM CLR 18/03 A2961 1320 38 2000 250/16G20 230V300 RMK AO2
14926KSTC STC20011101122510511/01/01 12:25:31  5-MIN KSTC 011825Z AUTO 26020G23KT 10SM CLR 17/02 A2961 1320 36 1900 250/20G23 RMK AO2
14926KSTC STC20011101123010511/01/01 12:30:31  5-MIN KSTC 011830Z AUTO 27019G23KT 10SM CLR 17/02 A2961 1320 35 1900 260/19G23 RMK AO2
14926KSTC STC20011101123510511/01/01 12:35:31  5-MIN KSTC 011835Z AUTO 26017G25KT 10SM CLR 17/01 A2960 1320 33 1900 260/17G25 RMK AO2
14926KSTC STC20011101124010511/01/01 12:40:31  5-MIN KSTC 011840Z AUTO 25018G25KT 10SM CLR 17/01 A2961 1320 34 1900 250/18G25 RMK AO2
14926KSTC STC20011101124509911/01/01 12:45:31  5-MIN KSTC 011845Z AUTO 26018KT 10SM CLR 17/01 A2961 1320 33 1900 260/18 RMK AO2
14926KSTC STC20011101125011611/01/01 12:50:31  5-MIN KSTC 011850Z AUTO 26018KT 10SM CLR 17/01 A2961 1310 34 1900 250/18 RMK AO2 SLP035 T01670011
14926KSTC STC20011101125510511/01/01 12:55:31  5-MIN KSTC 011855Z AUTO 25020G24KT 10SM CLR 17/01 A2961 1310 33 1900 240/20G24 RMK AO2
14926KSTC STC20011101130010511/01/01 13:00:31  5-MIN KSTC 011900Z AUTO 25020G24KT 10SM CLR 17/00 A2961 1310 32 1900 250/20G24 RMK AO2
14926KSTC STC20011101130510511/01/01 13:05:31  5-MIN KSTC 011905Z AUTO 24017G24KT 10SM CLR 17/01 A2961 1310 33 1900 240/17G24 RMK AO2
14926KSTC STC20011101131010511/01/01 13:10:31  5-MIN KSTC 011910Z AUTO 24017G22KT 10SM CLR 17/01 A2961 1310 34 1800 240/17G22 RMK AO2
14926KSTC STC20011101131512311/01/01 13:15:31  5-MIN KSTC 011915Z AUTO 25021G26KT 10SM CLR 17/01 A2961 1310 32 1900 240/21G26 RMK AO2 PK WND 25026/1915
14926KSTC STC20011101132012411/01/01 13:20:31  5-MIN KSTC 011920Z AUTO 27020G26KT 10SM CLR 17/M01 A2961 1310 29 1900 270/20G26 RMK AO2 PK WND 26026/1918
14926KSTC STC20011101132512411/01/01 13:25:31  5-MIN KSTC 011925Z AUTO 26020G26KT 10SM CLR 17/M01 A2961 1310 29 1900 260/20G26 RMK AO2 PK WND 26026/1918
14926KSTC STC20011101133012411/01/01 13:30:31  5-MIN KSTC 011930Z AUTO 25021G27KT 10SM CLR 17/M01 A2962 1310 29 1800 250/21G27 RMK AO2 PK WND 27027/1927
14926KSTC STC20011101133512411/01/01 13:35:31  5-MIN KSTC 011935Z AUTO 26021G27KT 10SM CLR 16/M01 A2962 1310 32 1800 260/21G27 RMK AO2 PK WND 27027/1934
14926KSTC STC20011101134012411/01/01 13:40:31  5-MIN KSTC 011940Z AUTO 26018G27KT 10SM CLR 16/M01 A2962 1310 32 1800 260/18G27 RMK AO2 PK WND 27027/1934
14926KSTC STC20011101134512311/01/01 13:45:31  5-MIN KSTC 011945Z AUTO 26015G25KT 10SM CLR 16/00 A2961 1310 33 1800 260/15G25 RMK AO2 PK WND 27027/1934
14926KSTC STC20011101135014111/01/01 13:50:31  5-MIN KSTC 011950Z AUTO 25017G22KT 10SM CLR 16/M01 A2962 1310 32 1800 250/17G22 RMK AO2 PK WND 27027/1934 SLP038 T01611006
14926KSTC STC20011101135510911/01/01 13:55:31  5-MIN KSTC 011955Z AUTO 26018G22KT 10SM FEW110 16/M01 A2962 1310 32 1800 250/18G22 RMK AO2
14926KSTC STC20011101140010311/01/01 14:00:31  5-MIN KSTC 012000Z AUTO 25017KT 10SM FEW110 16/M01 A2962 1300 32 1800 240/17 RMK AO2
14926KSTC STC20011101140510911/01/01 14:05:31  5-MIN KSTC 012005Z AUTO 25018G24KT 10SM SCT120 16/M01 A2962 1300 33 1700 250/18G24 RMK AO2
14926KSTC STC20011101141010911/01/01 14:10:31  5-MIN KSTC 012010Z AUTO 25017G24KT 10SM FEW120 16/M01 A2962 1300 33 1700 250/17G24 RMK AO2
14926KSTC STC20011101141510911/01/01 14:15:31  5-MIN KSTC 012015Z AUTO 25016G22KT 10SM FEW120 16/M01 A2963 1300 33 1700 250/16G22 RMK AO2
14926KSTC STC20011101142010811/01/01 14:20:31  5-MIN KSTC 012020Z AUTO 25015G22KT 10SM FEW120 16/00 A2963 1300 33 1800 240/15G22 RMK AO2
14926KSTC STC20011101142510211/01/01 14:25:31  5-MIN KSTC 012025Z AUTO 24018KT 10SM FEW120 17/00 A2963 1300 32 1800 230/18 RMK AO2
14926KSTC STC20011101143010811/01/01 14:30:31  5-MIN KSTC 012030Z AUTO 25021G25KT 10SM FEW120 16/00 A2963 1300 33 1800 240/21G25 RMK AO2
14926KSTC STC20011101143510511/01/01 14:35:31  5-MIN KSTC 012035Z AUTO 25017G25KT 10SM CLR 16/00 A2963 1300 33 1800 250/17G25 RMK AO2
14926KSTC STC20011101144009911/01/01 14:40:31  5-MIN KSTC 012040Z AUTO 25016KT 10SM CLR 16/00 A2963 1290 33 1800 240/16 RMK AO2
14926KSTC STC20011101144510511/01/01 14:45:31  5-MIN KSTC 012045Z AUTO 24021G25KT 10SM CLR 16/00 A2963 1290 33 1800 240/21G25 RMK AO2
14926KSTC STC20011101145012311/01/01 14:50:31  5-MIN KSTC 012050Z AUTO 24020KT 10SM CLR 16/M01 A2963 1290 33 1700 240/20 RMK AO2 SLP043 T01561006 50010
14926KSTC STC20011101145510311/01/01 14:55:31  5-MIN KSTC 012055Z AUTO 25017KT 10SM FEW120 16/M01 A2963 1290 33 1700 240/17 RMK AO2
14926KSTC STC20011101150010911/01/01 15:00:31  5-MIN KSTC 012100Z AUTO 25016G23KT 10SM FEW120 16/M01 A2963 1290 32 1800 250/16G23 RMK AO2
14926KSTC STC20011101150510911/01/01 15:05:31  5-MIN KSTC 012105Z AUTO 25020G23KT 10SM FEW110 16/M01 A2963 1290 30 1800 250/20G23 RMK AO2
14926KSTC STC20011101151010311/01/01 15:10:31  5-MIN KSTC 012110Z AUTO 25020KT 10SM FEW110 16/M01 A2964 1290 30 1800 250/20 RMK AO2
14926KSTC STC20011101151510311/01/01 15:15:31  5-MIN KSTC 012115Z AUTO 25017KT 10SM FEW110 16/M01 A2963 1290 33 1700 240/17 RMK AO2
14926KSTC STC20011101152010211/01/01 15:20:31  5-MIN KSTC 012120Z AUTO 25012KT 10SM FEW110 16/00 A2963 1290 34 1700 240/12 RMK AO2
14926KSTC STC20011101152510511/01/01 15:25:31  5-MIN KSTC 012125Z AUTO 25018G21KT 10SM CLR 16/00 A2964 1290 34 1700 250/18G21 RMK AO2
14926KSTC STC20011101153010611/01/01 15:30:31  5-MIN KSTC 012130Z AUTO 26017G21KT 10SM CLR 15/M01 A2964 1290 34 1600 260/17G21 RMK AO2
14926KSTC STC20011101153510611/01/01 15:35:31  5-MIN KSTC 012135Z AUTO 25014G21KT 10SM CLR 15/M01 A2964 1290 34 1600 240/14G21 RMK AO2
14926KSTC STC20011101154010511/01/01 15:40:31  5-MIN KSTC 012140Z AUTO 24014G21KT 10SM CLR 15/00 A2964 1280 35 1600 240/14G21 RMK AO2
14926KSTC STC20011101154510511/01/01 15:45:31  5-MIN KSTC 012145Z AUTO 25017G21KT 10SM CLR 15/00 A2964 1280 35 1600 250/17G21 RMK AO2
14926KSTC STC20011101155011611/01/01 15:50:31  5-MIN KSTC 012150Z AUTO 25018KT 10SM CLR 15/00 A2965 1280 35 1600 250/18 RMK AO2 SLP049 T01500000
14926KSTC STC20011101155510011/01/01 15:55:31  5-MIN KSTC 012155Z AUTO 25019KT 10SM CLR 14/M01 A2965 1280 35 1600 250/19 RMK AO2
14926KSTC STC20011101160010011/01/01 16:00:31  5-MIN KSTC 012200Z AUTO 25018KT 10SM CLR 14/M01 A2965 1280 35 1500 250/18 RMK AO2
14926KSTC STC20011101160510011/01/01 16:05:31  5-MIN KSTC 012205Z AUTO 26013KT 10SM CLR 14/M01 A2965 1280 35 1500 250/13 RMK AO2
14926KSTC STC20011101161010011/01/01 16:10:31  5-MIN KSTC 012210Z AUTO 25016KT 10SM CLR 14/M01 A2965 1270 35 1500 250/16 RMK AO2
14926KSTC STC20011101161512411/01/01 16:15:31  5-MIN KSTC 012215Z AUTO 25017G26KT 10SM CLR 14/M01 A2965 1270 35 1500 250/17G26 RMK AO2 PK WND 25026/2213
14926KSTC STC20011101162012411/01/01 16:20:31  5-MIN KSTC 012220Z AUTO 25017G26KT 10SM CLR 14/M01 A2965 1270 35 1500 250/17G26 RMK AO2 PK WND 25026/2213
14926KSTC STC20011101162511811/01/01 16:25:31  5-MIN KSTC 012225Z AUTO 25013KT 10SM CLR 14/M01 A2966 1270 37 1500 250/13 RMK AO2 PK WND 25026/2213
14926KSTC STC20011101163011811/01/01 16:30:31  5-MIN KSTC 012230Z AUTO 25014KT 10SM CLR 14/M01 A2966 1270 37 1500 240/14 RMK AO2 PK WND 25026/2213
14926KSTC STC20011101163511811/01/01 16:35:31  5-MIN KSTC 012235Z AUTO 25013KT 10SM CLR 14/M01 A2966 1270 37 1500 240/13 RMK AO2 PK WND 25026/2213
14926KSTC STC20011101164011811/01/01 16:40:31  5-MIN KSTC 012240Z AUTO 24013KT 10SM CLR 14/M01 A2966 1270 37 1500 240/13 RMK AO2 PK WND 25026/2213
14926KSTC STC20011101164511811/01/01 16:45:31  5-MIN KSTC 012245Z AUTO 24012KT 10SM CLR 13/M01 A2966 1260 38 1400 240/12 RMK AO2 PK WND 25026/2213
14926KSTC STC20011101165013511/01/01 16:50:31  5-MIN KSTC 012250Z AUTO 25013KT 10SM CLR 14/M01 A2967 1260 37 1500 240/13 RMK AO2 PK WND 25026/2213 SLP057 T01391006
14926KSTC STC20011101165509911/01/01 16:55:31  5-MIN KSTC 012255Z AUTO 24012KT 10SM CLR 13/00 A2967 1260 40 1400 240/12 RMK AO2
14926KSTC STC20011101170009911/01/01 17:00:31  5-MIN KSTC 012300Z AUTO 24013KT 10SM CLR 13/00 A2967 1260 40 1400 240/13 RMK AO2
14926KSTC STC20011101170509911/01/01 17:05:31  5-MIN KSTC 012305Z AUTO 24013KT 10SM CLR 13/00 A2967 1260 40 1400 240/13 RMK AO2
14926KSTC STC20011101171009911/01/01 17:10:31  5-MIN KSTC 012310Z AUTO 24012KT 10SM CLR 13/00 A2967 1250 40 1400 240/12 RMK AO2
14926KSTC STC20011101171509911/01/01 17:15:31  5-MIN KSTC 012315Z AUTO 24012KT 10SM CLR 13/00 A2968 1250 40 1400 240/12 RMK AO2
14926KSTC STC20011101172009911/01/01 17:20:31  5-MIN KSTC 012320Z AUTO 24012KT 10SM CLR 13/00 A2968 1250 40 1400 240/12 RMK AO2
14926KSTC STC20011101172509911/01/01 17:25:31  5-MIN KSTC 012325Z AUTO 23011KT 10SM CLR 13/00 A2968 1250 41 1300 230/11 RMK AO2
14926KSTC STC20011101173009911/01/01 17:30:31  5-MIN KSTC 012330Z AUTO 23011KT 10SM CLR 13/00 A2968 1250 41 1300 230/11 RMK AO2
14926KSTC STC20011101173509911/01/01 17:35:31  5-MIN KSTC 012335Z AUTO 24011KT 10SM CLR 12/00 A2969 1240 43 1200 230/11 RMK AO2
14926KSTC STC20011101174009911/01/01 17:40:31  5-MIN KSTC 012340Z AUTO 24010KT 10SM CLR 12/00 A2969 1240 43 1200 230/10 RMK AO2
14926KSTC STC20011101174509911/01/01 17:45:31  5-MIN KSTC 012345Z AUTO 23010KT 10SM CLR 12/00 A2969 1240 43 1200 230/10 RMK AO2
14926KSTC STC20011101175013411/01/01 17:50:31  5-MIN KSTC 012350Z AUTO 23010KT 10SM CLR 12/00 A2969 1240 43 1200 220/10 RMK AO2 SLP065 T01220000 10178 20122 53009
14926KSTC STC20011101175509911/01/01 17:55:31  5-MIN KSTC 012355Z AUTO 23010KT 10SM CLR 12/00 A2969 1240 44 1200 230/10 RMK AO2
14926KSTC STC20011101180009911/01/01 18:00:31  5-MIN KSTC 020000Z AUTO 23012KT 10SM CLR 12/00 A2969 1240 43 1200 230/12 RMK AO2
14926KSTC STC20011101180509911/01/01 18:05:31  5-MIN KSTC 020005Z AUTO 23012KT 10SM CLR 12/00 A2969 1240 43 1200 230/12 RMK AO2
14926KSTC STC20011101181009911/01/01 18:10:31  5-MIN KSTC 020010Z AUTO 23011KT 10SM CLR 12/00 A2969 1240 44 1200 220/11 RMK AO2
14926KSTC STC20011101181509911/01/01 18:15:31  5-MIN KSTC 020015Z AUTO 23011KT 10SM CLR 12/00 A2970 1230 44 1200 220/11 RMK AO2
14926KSTC STC20011101182009911/01/01 18:20:31  5-MIN KSTC 020020Z AUTO 23010KT 10SM CLR 12/00 A2970 1230 44 1200 230/10 RMK AO2
14926KSTC STC20011101182509911/01/01 18:25:31  5-MIN KSTC 020025Z AUTO 23011KT 10SM CLR 12/00 A2970 1230 44 1200 230/11 RMK AO2
14926KSTC STC20011101183009911/01/01 18:30:31  5-MIN KSTC 020030Z AUTO 23010KT 10SM CLR 11/00 A2970 1230 46 1100 230/10 RMK AO2
14926KSTC STC20011101183509911/01/01 18:35:31  5-MIN KSTC 020035Z AUTO 23012KT 10SM CLR 11/00 A2971 1230 46 1100 230/12 RMK AO2
14926KSTC STC20011101184009911/01/01 18:40:31  5-MIN KSTC 020040Z AUTO 24010KT 10SM CLR 11/00 A2971 1220 46 1100 230/10 RMK AO2
14926KSTC STC20011101184509911/01/01 18:45:31  5-MIN KSTC 020045Z AUTO 24011KT 10SM CLR 11/00 A2971 1220 46 1100 240/11 RMK AO2
14926KSTC STC20011101185011611/01/01 18:50:31  5-MIN KSTC 020050Z AUTO 24010KT 10SM CLR 11/00 A2971 1220 48 1000 230/10 RMK AO2 SLP074 T01060000
14926KSTC STC20011101185509911/01/01 18:55:31  5-MIN KSTC 020055Z AUTO 23010KT 10SM CLR 11/00 A2972 1210 46 1100 230/10 RMK AO2
14926KSTC STC20011101190009911/01/01 19:00:31  5-MIN KSTC 020100Z AUTO 23011KT 10SM CLR 11/00 A2972 1210 46 1100 230/11 RMK AO2
14926KSTC STC20011101190509911/01/01 19:05:31  5-MIN KSTC 020105Z AUTO 24011KT 10SM CLR 11/00 A2972 1210 48 1000 240/11 RMK AO2
14926KSTC STC20011101191009911/01/01 19:10:31  5-MIN KSTC 020110Z AUTO 24010KT 10SM CLR 11/00 A2973 1210 48 1000 240/10 RMK AO2
14926KSTC STC20011101191509911/01/01 19:15:31  5-MIN KSTC 020115Z AUTO 24011KT 10SM CLR 11/00 A2973 1210 48 1000 240/11 RMK AO2
14926KSTC STC20011101192009911/01/01 19:20:31  5-MIN KSTC 020120Z AUTO 24010KT 10SM CLR 11/00 A2973 1210 48 1000 230/10 RMK AO2
14926KSTC STC20011101192509811/01/01 19:25:31  5-MIN KSTC 020125Z AUTO 23008KT 10SM CLR 10/00 A2973 1200 49 900 230/08 RMK AO2
14926KSTC STC20011101193009811/01/01 19:30:31  5-MIN KSTC 020130Z AUTO 23009KT 10SM CLR 10/01 A2973 1200 52 900 230/09 RMK AO2
14926KSTC STC20011101193509811/01/01 19:35:31  5-MIN KSTC 020135Z AUTO 23008KT 10SM CLR 10/01 A2973 1200 52 900 230/08 RMK AO2
14926KSTC STC20011101194009811/01/01 19:40:31  5-MIN KSTC 020140Z AUTO 24008KT 10SM CLR 10/01 A2973 1200 52 900 230/08 RMK AO2
14926KSTC STC20011101194509811/01/01 19:45:31  5-MIN KSTC 020145Z AUTO 24008KT 10SM CLR 09/01 A2973 1200 53 900 240/08 RMK AO2
14926KSTC STC20011101195011511/01/01 19:50:31  5-MIN KSTC 020150Z AUTO 24009KT 10SM CLR 09/01 A2973 1200 53 900 240/09 RMK AO2 SLP082 T00940006
14926KSTC STC20011101195509811/01/01 19:55:31  5-MIN KSTC 020155Z AUTO 24008KT 10SM CLR 09/01 A2974 1200 53 900 240/08 RMK AO2
14926KSTC STC20011101200009811/01/01 20:00:31  5-MIN KSTC 020200Z AUTO 24009KT 10SM CLR 09/01 A2974 1190 53 900 240/09 RMK AO2
14926KSTC STC20011101200509811/01/01 20:05:31  5-MIN KSTC 020205Z AUTO 25009KT 10SM CLR 09/01 A2974 1190 53 800 240/09 RMK AO2
14926KSTC STC20011101201009811/01/01 20:10:31  5-MIN KSTC 020210Z AUTO 24010KT 10SM CLR 09/01 A2974 1190 53 800 240/10 RMK AO2
14926KSTC STC20011101201509811/01/01 20:15:31  5-MIN KSTC 020215Z AUTO 24011KT 10SM CLR 09/01 A2974 1190 53 800 240/11 RMK AO2
14926KSTC STC20011101202009811/01/01 20:20:31  5-MIN KSTC 020220Z AUTO 24012KT 10SM CLR 10/01 A2975 1190 52 900 240/12 RMK AO2
14926KSTC STC20011101202509811/01/01 20:25:31  5-MIN KSTC 020225Z AUTO 25013KT 10SM CLR 10/01 A2975 1180 52 900 250/13 RMK AO2
14926KSTC STC20011101203009811/01/01 20:30:31  5-MIN KSTC 020230Z AUTO 26012KT 10SM CLR 10/02 A2975 1180 56 900 250/12 RMK AO2
14926KSTC STC20011101203509911/01/01 20:35:31  5-MIN KSTC 020235Z AUTO 26013KT 10SM CLR 11/02 A2976 1180 54 1000 260/13 RMK AO2
14926KSTC STC20011101204009911/01/01 20:40:31  5-MIN KSTC 020240Z AUTO 26012KT 10SM CLR 11/01 A2975 1180 50 1000 250/12 RMK AO2
14926KSTC STC20011101204510511/01/01 20:45:31  5-MIN KSTC 020245Z AUTO 25013G19KT 10SM CLR 11/00 A2976 1180 48 1000 250/13G19 RMK AO2
14926KSTC STC20011101205012211/01/01 20:50:31  5-MIN KSTC 020250Z AUTO 26015KT 10SM CLR 11/00 A2976 1170 48 1000 250/15 RMK AO2 SLP089 T01060000 53019
14926KSTC STC20011101205509911/01/01 20:55:31  5-MIN KSTC 020255Z AUTO 25012KT 10SM CLR 11/00 A2976 1170 48 1000 250/12 RMK AO2
14926KSTC STC20011101210009911/01/01 21:00:31  5-MIN KSTC 020300Z AUTO 26014KT 10SM CLR 11/00 A2977 1170 48 1000 260/14 RMK AO2
14926KSTC STC20011101210509911/01/01 21:05:31  5-MIN KSTC 020305Z AUTO 25013KT 10SM CLR 11/00 A2977 1170 48 1000 250/13 RMK AO2
14926KSTC STC20011101211009911/01/01 21:10:31  5-MIN KSTC 020310Z AUTO 25012KT 10SM CLR 11/00 A2977 1170 48 1000 240/12 RMK AO2
14926KSTC STC20011101211509811/01/01 21:15:31  5-MIN KSTC 020315Z AUTO 25012KT 10SM CLR 10/00 A2977 1170 49 900 240/12 RMK AO2
14926KSTC STC20011101212009811/01/01 21:20:31  5-MIN KSTC 020320Z AUTO 25012KT 10SM CLR 10/00 A2977 1170 49 900 240/12 RMK AO2
14926KSTC STC20011101212509811/01/01 21:25:31  5-MIN KSTC 020325Z AUTO 25010KT 10SM CLR 10/00 A2977 1160 49 900 250/10 RMK AO2
14926KSTC STC20011101213009811/01/01 21:30:31  5-MIN KSTC 020330Z AUTO 25011KT 10SM CLR 09/00 A2977 1160 51 800 250/11 RMK AO2
14926KSTC STC20011101213509811/01/01 21:35:31  5-MIN KSTC 020335Z AUTO 25011KT 10SM CLR 09/00 A2977 1160 51 800 250/11 RMK AO2
14926KSTC STC20011101214009811/01/01 21:40:31  5-MIN KSTC 020340Z AUTO 25011KT 10SM CLR 09/00 A2978 1160 51 800 250/11 RMK AO2
14926KSTC STC20011101214509811/01/01 21:45:31  5-MIN KSTC 020345Z AUTO 24011KT 10SM CLR 09/00 A2978 1160 51 800 240/11 RMK AO2
14926KSTC STC20011101215011511/01/01 21:50:31  5-MIN KSTC 020350Z AUTO 25011KT 10SM CLR 09/00 A2978 1160 51 800 240/11 RMK AO2 SLP094 T00940000
14926KSTC STC20011101215509811/01/01 21:55:31  5-MIN KSTC 020355Z AUTO 24011KT 10SM CLR 09/00 A2978 1160 51 800 240/11 RMK AO2
14926KSTC STC20011101220009811/01/01 22:00:31  5-MIN KSTC 020400Z AUTO 24010KT 10SM CLR 09/00 A2978 1160 51 800 240/10 RMK AO2
14926KSTC STC20011101220509811/01/01 22:05:31  5-MIN KSTC 020405Z AUTO 24009KT 10SM CLR 09/00 A2978 1160 53 700 240/09 RMK AO2
14926KSTC STC20011101221009811/01/01 22:10:31  5-MIN KSTC 020410Z AUTO 22006KT 10SM CLR 08/00 A2978 1150 58 600 220/06 RMK AO2
14926KSTC STC20011101221509811/01/01 22:15:31  5-MIN KSTC 020415Z AUTO 24006KT 10SM CLR 07/00 A2978 1150 60 500 240/06 RMK AO2
14926KSTC STC20011101222009911/01/01 22:20:31  5-MIN KSTC 020420Z AUTO 25007KT 10SM CLR 08/M01 A2978 1150 55 600 250/07 RMK AO2
14926KSTC STC20011101222509911/01/01 22:25:31  5-MIN KSTC 020425Z AUTO 25009KT 10SM CLR 08/M01 A2978 1150 53 700 250/09 RMK AO2
14926KSTC STC20011101223009911/01/01 22:30:31  5-MIN KSTC 020430Z AUTO 25008KT 10SM CLR 08/M01 A2978 1150 53 700 250/08 RMK AO2
14926KSTC STC20011101223509911/01/01 22:35:31  5-MIN KSTC 020435Z AUTO 26010KT 10SM CLR 08/M01 A2978 1150 53 700 250/10 RMK AO2
14926KSTC STC20011101224009911/01/01 22:40:31  5-MIN KSTC 020440Z AUTO 25009KT 10SM CLR 08/M01 A2979 1150 51 700 250/09 RMK AO2
14926KSTC STC20011101224509911/01/01 22:45:31  5-MIN KSTC 020445Z AUTO 26012KT 10SM CLR 08/M01 A2979 1150 51 700 250/12 RMK AO2
14926KSTC STC20011101225011611/01/01 22:50:31  5-MIN KSTC 020450Z AUTO 26013KT 10SM CLR 09/M01 A2978 1150 49 700 250/13 RMK AO2 SLP095 T00891011
14926KSTC STC20011101225509911/01/01 22:55:31  5-MIN KSTC 020455Z AUTO 26011KT 10SM CLR 09/M01 A2978 1150 49 700 250/11 RMK AO2
14926KSTC STC20011101230009911/01/01 23:00:31  5-MIN KSTC 020500Z AUTO 26012KT 10SM CLR 09/M02 A2978 1150 47 700 250/12 RMK AO2
14926KSTC STC20011101230509911/01/01 23:05:31  5-MIN KSTC 020505Z AUTO 26012KT 10SM CLR 09/M02 A2979 1150 47 700 250/12 RMK AO2
14926KSTC STC20011101231009911/01/01 23:10:31  5-MIN KSTC 020510Z AUTO 26011KT 10SM CLR 08/M02 A2979 1150 49 700 260/11 RMK AO2
14926KSTC STC20011101231509911/01/01 23:15:31  5-MIN KSTC 020515Z AUTO 26012KT 10SM CLR 08/M02 A2979 1150 49 700 260/12 RMK AO2
14926KSTC STC20011101232009911/01/01 23:20:31  5-MIN KSTC 020520Z AUTO 26013KT 10SM CLR 08/M02 A2979 1150 49 700 260/13 RMK AO2
14926KSTC STC20011101232509911/01/01 23:25:31  5-MIN KSTC 020525Z AUTO 26012KT 10SM CLR 09/M02 A2979 1150 47 700 260/12 RMK AO2
14926KSTC STC20011101233009911/01/01 23:30:31  5-MIN KSTC 020530Z AUTO 27014KT 10SM CLR 09/M02 A2979 1140 45 700 260/14 RMK AO2
14926KSTC STC20011101233509911/01/01 23:35:31  5-MIN KSTC 020535Z AUTO 26012KT 10SM CLR 08/M02 A2979 1140 47 700 260/12 RMK AO2
14926KSTC STC20011101234009911/01/01 23:40:31  5-MIN KSTC 020540Z AUTO 26012KT 10SM CLR 08/M02 A2980 1140 47 700 260/12 RMK AO2
14926KSTC STC20011101234509911/01/01 23:45:31  5-MIN KSTC 020545Z AUTO 26011KT 10SM CLR 08/M02 A2980 1140 47 700 260/11 RMK AO2
14926KSTC STC20011101235014411/01/01 23:50:31  5-MIN KSTC 020550Z AUTO 25011KT 10SM CLR 08/M02 A2980 1140 47 700 250/11 RMK AO2 SLP099 T00831022 10122 20072 401780072 53023
14926KSTC STC20011101235509911/01/01 23:55:31  5-MIN KSTC 020555Z AUTO 26011KT 10SM CLR 08/M02 A2980 1140 47 700 260/11 RMK AO2
14926KSTC STC20011102000009911/02/01 00:00:31  5-MIN KSTC 020600Z AUTO 26012KT 10SM CLR 08/M02 A2979 1140 47 700 260/12 RMK AO2
14926KSTC STC20011102000509911/02/01 00:05:31  5-MIN KSTC 020605Z AUTO 26011KT 10SM CLR 08/M02 A2979 1140 49 600 260/11 RMK AO2
14926KSTC STC20011102001009911/02/01 00:10:31  5-MIN KSTC 020610Z AUTO 26012KT 10SM CLR 08/M02 A2980 1140 49 600 260/12 RMK AO2
14926KSTC STC20011102001509911/02/01 00:15:31  5-MIN KSTC 020615Z AUTO 26012KT 10SM CLR 08/M02 A2980 1140 49 600 250/12 RMK AO2
14926KSTC STC20011102002009911/02/01 00:20:31  5-MIN KSTC 020620Z AUTO 26012KT 10SM CLR 08/M02 A2980 1140 47 600 250/12 RMK AO2
14926KSTC STC20011102002509911/02/01 00:25:31  5-MIN KSTC 020625Z AUTO 26013KT 10SM CLR 08/M02 A2980 1140 47 700 260/13 RMK AO2
14926KSTC STC20011102003009911/02/01 00:30:31  5-MIN KSTC 020630Z AUTO 26014KT 10SM CLR 08/M02 A2980 1140 47 700 260/14 RMK AO2
14926KSTC STC20011102003509911/02/01 00:35:31  5-MIN KSTC 020635Z AUTO 26011KT 10SM CLR 08/M02 A2980 1140 47 700 250/11 RMK AO2
14926KSTC STC20011102004009911/02/01 00:40:31  5-MIN KSTC 020640Z AUTO 26012KT 10SM CLR 08/M02 A2980 1140 49 600 250/12 RMK AO2
14926KSTC STC20011102004509911/02/01 00:45:31  5-MIN KSTC 020645Z AUTO 26011KT 10SM CLR 08/M02 A2980 1140 49 600 260/11 RMK AO2
14926KSTC STC20011102005011611/02/01 00:50:31  5-MIN KSTC 020650Z AUTO 26012KT 10SM CLR 08/M02 A2980 1130 49 600 260/12 RMK AO2 SLP103 T00781022
14926KSTC STC20011102005509911/02/01 00:55:31  5-MIN KSTC 020655Z AUTO 26012KT 10SM CLR 08/M02 A2980 1140 49 600 250/12 RMK AO2
14926KSTC STC20011102010009911/02/01 01:00:31  5-MIN KSTC 020700Z AUTO 25010KT 10SM CLR 08/M02 A2980 1140 49 600 250/10 RMK AO2
14926KSTC STC20011102010509911/02/01 01:05:31  5-MIN KSTC 020705Z AUTO 25012KT 10SM CLR 08/M02 A2980 1140 49 600 250/12 RMK AO2
14926KSTC STC20011102011009911/02/01 01:10:31  5-MIN KSTC 020710Z AUTO 25012KT 10SM CLR 08/M02 A2980 1130 49 600 250/12 RMK AO2
14926KSTC STC20011102011510511/02/01 01:15:31  5-MIN KSTC 020715Z AUTO 26013G19KT 10SM CLR 08/M02 A2981 1130 49 600 250/13G19 RMK AO2
14926KSTC STC20011102012009911/02/01 01:20:31  5-MIN KSTC 020720Z AUTO 26013KT 10SM CLR 08/M02 A2981 1130 49 600 260/13 RMK AO2
14926KSTC STC20011102012509911/02/01 01:25:31  5-MIN KSTC 020725Z AUTO 26014KT 10SM CLR 08/M02 A2981 1130 49 600 260/14 RMK AO2
14926KSTC STC20011102013009911/02/01 01:30:31  5-MIN KSTC 020730Z AUTO 26013KT 10SM CLR 08/M02 A2981 1130 49 600 260/13 RMK AO2
14926KSTC STC20011102013509911/02/01 01:35:31  5-MIN KSTC 020735Z AUTO 26014KT 10SM CLR 08/M02 A2981 1130 49 600 260/14 RMK AO2
14926KSTC STC20011102014009911/02/01 01:40:31  5-MIN KSTC 020740Z AUTO 26012KT 10SM CLR 08/M02 A2981 1120 49 600 260/12 RMK AO2
14926KSTC STC20011102014509911/02/01 01:45:31  5-MIN KSTC 020745Z AUTO 26014KT 10SM CLR 08/M02 A2982 1120 49 600 250/14 RMK AO2
14926KSTC STC20011102015011611/02/01 01:50:31  5-MIN KSTC 020750Z AUTO 26013KT 10SM CLR 08/M02 A2982 1120 49 600 260/13 RMK AO2 SLP108 T00781022
14926KSTC STC20011102114011611/02/01 11:40:31  5-MIN KSTC 021740Z AUTO 30018KT 10SM CLR 12/M01 A3004 910 42 800 300/18 RMK AO2 PK WND 28026/1726
14926KSTC STC20011102114512211/02/01 11:45:31  5-MIN KSTC 021745Z AUTO 29016G22KT 10SM CLR 12/M01 A3004 910 42 800 290/16G22 RMK AO2 PK WND 28026/1726
14926KSTC STC20011102115015111/02/01 11:50:31  5-MIN KSTC 021750Z AUTO 28018KT 10SM CLR 12/M01 A3004 910 42 800 270/18 RMK AO2 PK WND 28026/1726 SLP187 T01171006 10117 20061 53033
14926KSTC STC20011102115510411/02/01 11:55:31  5-MIN KSTC 021755Z AUTO 28020G24KT 10SM CLR 12/M01 A3005 910 41 800 280/20G24 RMK AO2
14926KSTC STC20011102120010411/02/01 12:00:31  5-MIN KSTC 021800Z AUTO 29018G24KT 10SM CLR 12/M01 A3005 910 41 800 290/18G24 RMK AO2
14926KSTC STC20011102120510411/02/01 12:05:31  5-MIN KSTC 021805Z AUTO 29018G23KT 10SM CLR 12/M01 A3004 910 41 800 290/18G23 RMK AO2
14926KSTC STC20011102121012211/02/01 12:10:31  5-MIN KSTC 021810Z AUTO 29021G28KT 10SM CLR 12/M01 A3005 910 39 800 280/21G28 RMK AO2 PK WND 30028/1808
14926KSTC STC20011102121512211/02/01 12:15:31  5-MIN KSTC 021815Z AUTO 29016G28KT 10SM CLR 12/M01 A3005 910 39 800 290/16G28 RMK AO2 PK WND 30028/1808
14926KSTC STC20011102122012211/02/01 12:20:31  5-MIN KSTC 021820Z AUTO 28018G23KT 10SM CLR 13/M01 A3004 910 38 900 280/18G23 RMK AO2 PK WND 30028/1808
14926KSTC STC20011102122512211/02/01 12:25:31  5-MIN KSTC 021825Z AUTO 28016G23KT 10SM CLR 12/M01 A3005 910 39 800 280/16G23 RMK AO2 PK WND 30028/1808
14926KSTC STC20011102123011611/02/01 12:30:31  5-MIN KSTC 021830Z AUTO 28018KT 10SM CLR 12/M02 A3005 910 38 800 270/18 RMK AO2 PK WND 30028/1808
14926KSTC STC20011102123511611/02/01 12:35:31  5-MIN KSTC 021835Z AUTO 29017KT 10SM CLR 12/M02 A3005 910 38 800 290/17 RMK AO2 PK WND 30028/1808
14926KSTC STC20011102124012211/02/01 12:40:31  5-MIN KSTC 021840Z AUTO 29021G30KT 10SM CLR 12/M02 A3005 910 38 800 290/21G30 RMK AO2 PK WND 29030/1837
14926KSTC STC20011102124512211/02/01 12:45:31  5-MIN KSTC 021845Z AUTO 28019G30KT 10SM CLR 12/M02 A3005 910 36 800 280/19G30 RMK AO2 PK WND 29030/1837
14926KSTC STC20011102125013911/02/01 12:50:31  5-MIN KSTC 021850Z AUTO 28021G26KT 10SM CLR 13/M02 A3005 910 36 900 280/21G26 RMK AO2 PK WND 29030/1837 SLP187 T01281017
14926KSTC STC20011102125509811/02/01 12:55:31  5-MIN KSTC 021855Z AUTO 28020KT 10SM CLR 13/M02 A3005 910 35 900 280/20 RMK AO2
14926KSTC STC20011102130012211/02/01 13:00:31  5-MIN KSTC 021900Z AUTO 28021G27KT 10SM CLR 13/M02 A3005 910 35 900 280/21G27 RMK AO2 PK WND 28027/1858
14926KSTC STC20011102130512211/02/01 13:05:31  5-MIN KSTC 021905Z AUTO 30018G27KT 10SM CLR 13/M02 A3005 910 35 900 290/18G27 RMK AO2 PK WND 28027/1858
14926KSTC STC20011102131012311/02/01 13:10:31  5-MIN KSTC 021910Z AUTO 29018G25KT 10SM CLR 13/M02 A3005 910 35 1000 290/18G25 RMK AO2 PK WND 28027/1858
14926KSTC STC20011102131512311/02/01 13:15:31  5-MIN KSTC 021915Z AUTO 29018G25KT 10SM CLR 13/M02 A3005 910 34 1000 290/18G25 RMK AO2 PK WND 28027/1858
14926KSTC STC20011102132012311/02/01 13:20:31  5-MIN KSTC 021920Z AUTO 30020G24KT 10SM CLR 13/M02 A3005 900 34 1000 290/20G24 RMK AO2 PK WND 28027/1858
14926KSTC STC20011102132512311/02/01 13:25:31  5-MIN KSTC 021925Z AUTO 29016G24KT 10SM CLR 13/M02 A3005 900 34 1000 280/16G24 RMK AO2 PK WND 28027/1858
14926KSTC STC20011102133012311/02/01 13:30:31  5-MIN KSTC 021930Z AUTO 29022G28KT 10SM CLR 13/M02 A3005 900 34 1000 290/22G28 RMK AO2 PK WND 30028/1930
14926KSTC STC20011102133512311/02/01 13:35:31  5-MIN KSTC 021935Z AUTO 29021G29KT 10SM CLR 13/M03 A3005 900 32 1000 280/21G29 RMK AO2 PK WND 28029/1934
14926KSTC STC20011102134012311/02/01 13:40:31  5-MIN KSTC 021940Z AUTO 30020G29KT 10SM CLR 13/M02 A3006 900 34 1000 300/20G29 RMK AO2 PK WND 28029/1934
14926KSTC STC20011102134512311/02/01 13:45:31  5-MIN KSTC 021945Z AUTO 29023G27KT 10SM CLR 13/M02 A3006 900 34 1000 290/23G27 RMK AO2 PK WND 28029/1934
14926KSTC STC20011102135014011/02/01 13:50:31  5-MIN KSTC 021950Z AUTO 28021G27KT 10SM CLR 13/M03 A3006 900 31 1000 280/21G27 RMK AO2 PK WND 28029/1934 SLP191 T01331033
14926KSTC STC20011102135512311/02/01 13:55:31  5-MIN KSTC 021955Z AUTO 29022G29KT 10SM CLR 13/M03 A3006 900 31 1000 290/22G29 RMK AO2 PK WND 29029/1954
14926KSTC STC20011102140012311/02/01 14:00:31  5-MIN KSTC 022000Z AUTO 29017G29KT 10SM CLR 13/M03 A3006 900 31 1000 280/17G29 RMK AO2 PK WND 29029/1954
14926KSTC STC20011102140512311/02/01 14:05:31  5-MIN KSTC 022005Z AUTO 29017G26KT 10SM CLR 14/M03 A3006 900 30 1000 290/17G26 RMK AO2 PK WND 29029/1954
14926KSTC STC20011102141012311/02/01 14:10:31  5-MIN KSTC 022010Z AUTO 29019G26KT 10SM CLR 14/M03 A3006 900 30 1000 290/19G26 RMK AO2 PK WND 29029/1954
14926KSTC STC20011102141512311/02/01 14:15:31  5-MIN KSTC 022015Z AUTO 30015G26KT 10SM CLR 14/M03 A3006 900 31 1000 290/15G26 RMK AO2 PK WND 29029/1954
14926KSTC STC20011102142012311/02/01 14:20:31  5-MIN KSTC 022020Z AUTO 29018G22KT 10SM CLR 14/M03 A3006 890 31 1000 290/18G22 RMK AO2 PK WND 29029/1954
14926KSTC STC20011102142511611/02/01 14:25:31  5-MIN KSTC 022025Z AUTO 30019KT 10SM CLR 13/M03 A3006 890 32 900 300/19 RMK AO2 PK WND 29029/1954
14926KSTC STC20011102143012311/02/01 14:30:31  5-MIN KSTC 022030Z AUTO 29016G22KT 10SM CLR 14/M02 A3007 890 32 1000 290/16G22 RMK AO2 PK WND 29029/1954
14926KSTC STC20011102143512211/02/01 14:35:31  5-MIN KSTC 022035Z AUTO 29021G26KT 10SM CLR 13/M03 A3007 890 32 900 290/21G26 RMK AO2 PK WND 29029/1954
14926KSTC STC20011102144012211/02/01 14:40:31  5-MIN KSTC 022040Z AUTO 28021G26KT 10SM CLR 13/M03 A3007 880 32 900 280/21G26 RMK AO2 PK WND 29029/1954
14926KSTC STC20011102144512211/02/01 14:45:31  5-MIN KSTC 022045Z AUTO 29019G25KT 10SM CLR 13/M03 A3008 880 32 900 280/19G25 RMK AO2 PK WND 29029/1954
14926KSTC STC20011102145013911/02/01 14:50:31  5-MIN KSTC 022050Z AUTO 29018KT 10SM CLR 13/M03 A3008 880 31 900 290/18 RMK AO2 PK WND 29029/1954 SLP199 T01331033 51023
14926KSTC STC20011102145510411/02/01 14:55:31  5-MIN KSTC 022055Z AUTO 30019G24KT 10SM CLR 13/M03 A3008 880 31 900 290/19G24 RMK AO2
14926KSTC STC20011102150010411/02/01 15:00:31  5-MIN KSTC 022100Z AUTO 29017G24KT 10SM CLR 13/M03 A3008 880 31 900 290/17G24 RMK AO2
14926KSTC STC20011102150510411/02/01 15:05:31  5-MIN KSTC 022105Z AUTO 30019G23KT 10SM CLR 13/M03 A3009 870 31 900 300/19G23 RMK AO2
14926KSTC STC20011102151012211/02/01 15:10:31  5-MIN KSTC 022110Z AUTO 29019G26KT 10SM CLR 13/M04 A3009 870 30 900 290/19G26 RMK AO2 PK WND 31026/2106
14926KSTC STC20011102151512211/02/01 15:15:31  5-MIN KSTC 022115Z AUTO 29018G26KT 10SM CLR 13/M03 A3009 870 31 900 290/18G26 RMK AO2 PK WND 31026/2106
14926KSTC STC20011102152011611/02/01 15:20:31  5-MIN KSTC 022120Z AUTO 29017KT 10SM CLR 13/M03 A3009 870 31 900 290/17 RMK AO2 PK WND 31026/2106
14926KSTC STC20011102152512211/02/01 15:25:31  5-MIN KSTC 022125Z AUTO 29014G22KT 10SM CLR 13/M04 A3009 870 30 900 290/14G22 RMK AO2 PK WND 31026/2106
14926KSTC STC20011102153012211/02/01 15:30:31  5-MIN KSTC 022130Z AUTO 29016G22KT 10SM CLR 13/M03 A3009 870 31 900 280/16G22 RMK AO2 PK WND 31026/2106
14926KSTC STC20011102153511611/02/01 15:35:31  5-MIN KSTC 022135Z AUTO 28015KT 10SM CLR 13/M03 A3010 860 31 900 280/15 RMK AO2 PK WND 31026/2106
14926KSTC STC20011102154011611/02/01 15:40:31  5-MIN KSTC 022140Z AUTO 29012KT 10SM CLR 13/M03 A3010 860 31 900 290/12 RMK AO2 PK WND 31026/2106
14926KSTC STC20011102154511611/02/01 15:45:31  5-MIN KSTC 022145Z AUTO 28017KT 10SM CLR 13/M03 A3010 860 31 900 280/17 RMK AO2 PK WND 31026/2106
14926KSTC STC20011102155013311/02/01 15:50:31  5-MIN KSTC 022150Z AUTO 28016KT 10SM CLR 13/M04 A3010 860 30 900 280/16 RMK AO2 PK WND 31026/2106 SLP207 T01331039
14926KSTC STC20011102155510411/02/01 15:55:31  5-MIN KSTC 022155Z AUTO 29016G21KT 10SM CLR 13/M03 A3010 860 31 900 280/16G21 RMK AO2
14926KSTC STC20011102160009811/02/01 16:00:31  5-MIN KSTC 022200Z AUTO 29013KT 10SM CLR 13/M03 A3011 860 32 800 290/13 RMK AO2
14926KSTC STC20011102160509811/02/01 16:05:31  5-MIN KSTC 022205Z AUTO 30017KT 10SM CLR 13/M04 A3011 850 31 800 300/17 RMK AO2
14926KSTC STC20011102161009811/02/01 16:10:31  5-MIN KSTC 022210Z AUTO 29014KT 10SM CLR 13/M03 A3011 850 32 800 290/14 RMK AO2
14926KSTC STC20011102161509811/02/01 16:15:31  5-MIN KSTC 022215Z AUTO 30014KT 10SM CLR 13/M04 A3011 850 31 800 290/14 RMK AO2
14926KSTC STC20011102162009811/02/01 16:20:31  5-MIN KSTC 022220Z AUTO 30011KT 10SM CLR 12/M03 A3011 850 33 800 300/11 RMK AO2
14926KSTC STC20011102162509811/02/01 16:25:31  5-MIN KSTC 022225Z AUTO 29009KT 10SM CLR 12/M03 A3012 850 33 800 290/09 RMK AO2
14926KSTC STC20011102163009811/02/01 16:30:31  5-MIN KSTC 022230Z AUTO 29008KT 10SM CLR 12/M03 A3011 850 33 800 290/08 RMK AO2
14926KSTC STC20011102163509811/02/01 16:35:31  5-MIN KSTC 022235Z AUTO 29009KT 10SM CLR 12/M03 A3012 850 36 700 290/09 RMK AO2
14926KSTC STC20011102164009811/02/01 16:40:31  5-MIN KSTC 022240Z AUTO 29010KT 10SM CLR 12/M03 A3012 840 36 700 290/10 RMK AO2
14926KSTC STC20011102164509811/02/01 16:45:31  5-MIN KSTC 022245Z AUTO 29012KT 10SM CLR 12/M03 A3012 840 35 700 290/12 RMK AO2
14926KSTC STC20011102165011511/02/01 16:50:31  5-MIN KSTC 022250Z AUTO 29011KT 10SM CLR 12/M03 A3012 840 35 700 290/11 RMK AO2 SLP213 T01171033
14926KSTC STC20011102165509811/02/01 16:55:31  5-MIN KSTC 022255Z AUTO 29011KT 10SM CLR 12/M04 A3012 840 33 700 290/11 RMK AO2
14926KSTC STC20011102170009811/02/01 17:00:31  5-MIN KSTC 022300Z AUTO 29010KT 10SM CLR 11/M03 A3012 840 36 600 290/10 RMK AO2
14926KSTC STC20011102170509811/02/01 17:05:31  5-MIN KSTC 022305Z AUTO 29009KT 10SM CLR 11/M03 A3012 840 37 500 290/09 RMK AO2
14926KSTC STC20011102171009811/02/01 17:10:31  5-MIN KSTC 022310Z AUTO 29008KT 10SM CLR 10/M03 A3013 840 40 500 290/08 RMK AO2
14926KSTC STC20011102171509811/02/01 17:15:31  5-MIN KSTC 022315Z AUTO 28007KT 10SM CLR 10/M03 A3013 840 40 500 280/07 RMK AO2
14926KSTC STC20011102172009811/02/01 17:20:31  5-MIN KSTC 022320Z AUTO 27007KT 10SM CLR 09/M03 A3013 830 40 400 270/07 RMK AO2
14926KSTC STC20011102172509811/02/01 17:25:31  5-MIN KSTC 022325Z AUTO 27007KT 10SM CLR 09/M03 A3013 830 42 300 270/07 RMK AO2
14926KSTC STC20011102173009811/02/01 17:30:31  5-MIN KSTC 022330Z AUTO 28006KT 10SM CLR 09/M03 A3013 830 43 300 280/06 RMK AO2
14926KSTC STC20011102173509811/02/01 17:35:31  5-MIN KSTC 022335Z AUTO 29007KT 10SM CLR 09/M03 A3014 830 40 400 280/07 RMK AO2
14926KSTC STC20011102174009811/02/01 17:40:31  5-MIN KSTC 022340Z AUTO 29008KT 10SM CLR 09/M03 A3014 830 40 400 280/08 RMK AO2
14926KSTC STC20011102174509811/02/01 17:45:31  5-MIN KSTC 022345Z AUTO 28007KT 10SM CLR 09/M03 A3014 820 43 300 280/07 RMK AO2
14926KSTC STC20011102175013311/02/01 17:50:31  5-MIN KSTC 022350Z AUTO 27006KT 10SM CLR 09/M03 A3014 820 42 300 270/06 RMK AO2 SLP221 T00891033 10139 20089 53012
14926KSTC STC20011102175509811/02/01 17:55:31  5-MIN KSTC 022355Z AUTO 27006KT 10SM CLR 08/M03 A3014 820 43 300 270/06 RMK AO2
14926KSTC STC20011102180009811/02/01 18:00:31  5-MIN KSTC 030000Z AUTO 28005KT 10SM CLR 08/M03 A3014 820 43 300 280/05 RMK AO2
14926KSTC STC20011102180509811/02/01 18:05:31  5-MIN KSTC 030005Z AUTO 28005KT 10SM CLR 08/M03 A3014 820 47 200 280/05 RMK AO2
14926KSTC STC20011102181009811/02/01 18:10:31  5-MIN KSTC 030010Z AUTO 28005KT 10SM CLR 08/M03 A3015 820 45 200 270/05 RMK AO2
14926KSTC STC20011102181509811/02/01 18:15:31  5-MIN KSTC 030015Z AUTO 29005KT 10SM CLR 08/M03 A3015 820 45 200 280/05 RMK AO2
14926KSTC STC20011102182009811/02/01 18:20:31  5-MIN KSTC 030020Z AUTO 29005KT 10SM CLR 08/M04 A3014 820 43 200 290/05 RMK AO2
14926KSTC STC20011102182509811/02/01 18:25:31  5-MIN KSTC 030025Z AUTO 30004KT 10SM CLR 08/M04 A3014 820 43 200 290/04 RMK AO2
14926KSTC STC20011102183009811/02/01 18:30:31  5-MIN KSTC 030030Z AUTO 29004KT 10SM CLR 08/M04 A3015 820 42 300 290/04 RMK AO2
14926KSTC STC20011102183509811/02/01 18:35:31  5-MIN KSTC 030035Z AUTO 26003KT 10SM CLR 08/M04 A3015 820 43 200 260/03 RMK AO2
14926KSTC STC20011102184009811/02/01 18:40:31  5-MIN KSTC 030040Z AUTO 00000KT 10SM CLR 07/M04 A3015 820 45 100 000/00 RMK AO2
14926KSTC STC20011102184509811/02/01 18:45:31  5-MIN KSTC 030045Z AUTO 30003KT 10SM CLR 07/M04 A3015 810 45 100 300/03 RMK AO2
14926KSTC STC20011102185011511/02/01 18:50:31  5-MIN KSTC 030050Z AUTO 29003KT 10SM CLR 07/M04 A3015 810 45 100 290/03 RMK AO2 SLP226 T00721039
14926KSTC STC20011102185509611/02/01 18:55:31  5-MIN KSTC 030055Z AUTO 00000KT 10SM CLR 07/M04 A3015 810 47 0 000/00 RMK AO2
14926KSTC STC20011102190009611/02/01 19:00:31  5-MIN KSTC 030100Z AUTO 31003KT 10SM CLR 06/M04 A3015 810 48 0 310/03 RMK AO2
14926KSTC STC20011102190509611/02/01 19:05:31  5-MIN KSTC 030105Z AUTO 00000KT 10SM CLR 06/M04 A3015 810 50 0 000/00 RMK AO2
14926KSTC STC20011102191009611/02/01 19:10:31  5-MIN KSTC 030110Z AUTO 00000KT 10SM CLR 06/M03 A3015 810 53 0 000/00 RMK AO2
14926KSTC STC20011102191509911/02/01 19:15:31  5-MIN KSTC 030115Z AUTO 00000KT 10SM CLR 05/M03 A3015 810 55 -100 000/00 RMK AO2
14926KSTC STC20011102192009911/02/01 19:20:31  5-MIN KSTC 030120Z AUTO 00000KT 10SM CLR 04/M03 A3015 810 59 -200 000/00 RMK AO2
14926KSTC STC20011102192509911/02/01 19:25:31  5-MIN KSTC 030125Z AUTO 00000KT 10SM CLR 05/M03 A3016 810 57 -100 000/00 RMK AO2
14926KSTC STC20011102193009911/02/01 19:30:31  5-MIN KSTC 030130Z AUTO 00000KT 10SM CLR 04/M03 A3016 810 57 -200 000/00 RMK AO2
14926KSTC STC20011102193509911/02/01 19:35:31  5-MIN KSTC 030135Z AUTO 00000KT 10SM CLR 04/M03 A3016 810 59 -200 000/00 RMK AO2
14926KSTC STC20011102194009911/02/01 19:40:31  5-MIN KSTC 030140Z AUTO 00000KT 10SM CLR 04/M03 A3016 810 62 -300 000/00 RMK AO2
14926KSTC STC20011102194509911/02/01 19:45:31  5-MIN KSTC 030145Z AUTO 20007KT 10SM CLR 02/M02 A3016 800 72 -500 190/07 RMK AO2
14926KSTC STC20011102195011611/02/01 19:50:31  5-MIN KSTC 030150Z AUTO 19003KT 10SM CLR 03/M03 A3016 800 67 -400 190/03 RMK AO2 SLP231 T00281028
14926KSTC STC20011102195509911/02/01 19:55:31  5-MIN KSTC 030155Z AUTO 00000KT 10SM CLR 03/M03 A3016 810 67 -400 000/00 RMK AO2
14926KSTC STC20011102200009911/02/01 20:00:31  5-MIN KSTC 030200Z AUTO 00000KT 10SM CLR 03/M03 A3016 810 64 -300 000/00 RMK AO2
14926KSTC STC20011102200509911/02/01 20:05:31  5-MIN KSTC 030205Z AUTO 00000KT 10SM CLR 03/M03 A3016 800 64 -300 000/00 RMK AO2
14926KSTC STC20011102201009911/02/01 20:10:31  5-MIN KSTC 030210Z AUTO 00000KT 10SM CLR 03/M03 A3016 800 67 -400 000/00 RMK AO2
14926KSTC STC20011102201509911/02/01 20:15:31  5-MIN KSTC 030215Z AUTO 00000KT 10SM CLR 03/M03 A3017 800 67 -400 000/00 RMK AO2
14926KSTC STC20011102202009911/02/01 20:20:31  5-MIN KSTC 030220Z AUTO 00000KT 10SM CLR 03/M03 A3017 800 67 -400 000/00 RMK AO2
14926KSTC STC20011102202509911/02/01 20:25:31  5-MIN KSTC 030225Z AUTO 00000KT 10SM CLR 03/M03 A3017 800 67 -400 000/00 RMK AO2
14926KSTC STC20011102203009911/02/01 20:30:31  5-MIN KSTC 030230Z AUTO 00000KT 10SM CLR 02/M02 A3017 800 78 -500 000/00 RMK AO2
14926KSTC STC20011102203509911/02/01 20:35:31  5-MIN KSTC 030235Z AUTO 00000KT 10SM CLR 02/M02 A3017 800 75 -500 000/00 RMK AO2
14926KSTC STC20011102204009911/02/01 20:40:31  5-MIN KSTC 030240Z AUTO 00000KT 10SM CLR 02/M03 A3016 800 67 -500 000/00 RMK AO2
14926KSTC STC20011102204509911/02/01 20:45:31  5-MIN KSTC 030245Z AUTO 00000KT 10SM CLR 02/M03 A3017 800 72 -500 000/00 RMK AO2
14926KSTC STC20011102205012211/02/01 20:50:31  5-MIN KSTC 030250Z AUTO 00000KT 10SM CLR 02/M02 A3017 800 75 -500 000/00 RMK AO2 SLP233 T00171022 51021
14926KSTC STC20011102205509911/02/01 20:55:31  5-MIN KSTC 030255Z AUTO 00000KT 10SM CLR 01/M03 A3017 800 75 -600 000/00 RMK AO2
14926KSTC STC20011102210009911/02/01 21:00:31  5-MIN KSTC 030300Z AUTO 00000KT 10SM CLR 01/M03 A3017 790 75 -600 000/00 RMK AO2
14926KSTC STC20011102210509911/02/01 21:05:31  5-MIN KSTC 030305Z AUTO 00000KT 10SM CLR 01/M03 A3018 790 75 -600 000/00 RMK AO2
14926KSTC STC20011102211009911/02/01 21:10:31  5-MIN KSTC 030310Z AUTO 00000KT 10SM CLR 01/M02 A3018 790 82 -600 000/00 RMK AO2
14926KSTC STC20011102211509911/02/01 21:15:31  5-MIN KSTC 030315Z AUTO 00000KT 10SM CLR 01/M02 A3018 790 82 -600 000/00 RMK AO2
14926KSTC STC20011102212009911/02/01 21:20:31  5-MIN KSTC 030320Z AUTO 00000KT 10SM CLR 01/M02 A3018 790 82 -700 000/00 RMK AO2
14926KSTC STC20011102212509911/02/01 21:25:31  5-MIN KSTC 030325Z AUTO 18004KT 10SM CLR 01/M03 A3019 780 78 -700 170/04 RMK AO2
14926KSTC STC20011102213009911/02/01 21:30:31  5-MIN KSTC 030330Z AUTO 00000KT 10SM CLR 01/M03 A3019 780 75 -700 000/00 RMK AO2
14926KSTC STC20011102213509911/02/01 21:35:31  5-MIN KSTC 030335Z AUTO 00000KT 10SM CLR 01/M03 A3019 780 75 -700 000/00 RMK AO2
14926KSTC STC20011102214009911/02/01 21:40:31  5-MIN KSTC 030340Z AUTO 00000KT 10SM CLR 01/M03 A3019 780 75 -700 000/00 RMK AO2
14926KSTC STC20011102214509911/02/01 21:45:31  5-MIN KSTC 030345Z AUTO 00000KT 10SM CLR 01/M03 A3019 780 72 -600 000/00 RMK AO2
14926KSTC STC20011102215011611/02/01 21:50:31  5-MIN KSTC 030350Z AUTO 00000KT 10SM CLR 01/M03 A3019 780 78 -700 000/00 RMK AO2 SLP241 T00061028
14926KSTC STC20011102215509911/02/01 21:55:31  5-MIN KSTC 030355Z AUTO 00000KT 10SM CLR 00/M03 A3019 780 81 -800 000/00 RMK AO2
14926KSTC STC20011102220009911/02/01 22:00:31  5-MIN KSTC 030400Z AUTO 00000KT 10SM CLR 00/M03 A3019 780 81 -800 000/00 RMK AO2
14926KSTC STC20011102220510011/02/01 22:05:31  5-MIN KSTC 030405Z AUTO 00000KT 10SM CLR M01/M03 A3019 770 85 -900 000/00 RMK AO2
14926KSTC STC20011102221010011/02/01 22:10:31  5-MIN KSTC 030410Z AUTO 00000KT 10SM CLR M01/M03 A3019 770 85 -900 000/00 RMK AO2
14926KSTC STC20011102221510011/02/01 22:15:31  5-MIN KSTC 030415Z AUTO 00000KT 10SM CLR M01/M03 A3020 770 81 -900 000/00 RMK AO2
14926KSTC STC20011102222009911/02/01 22:20:31  5-MIN KSTC 030420Z AUTO 00000KT 10SM CLR 00/M03 A3020 770 78 -800 000/00 RMK AO2
14926KSTC STC20011102222509911/02/01 22:25:31  5-MIN KSTC 030425Z AUTO 00000KT 10SM CLR 00/M03 A3020 770 78 -800 000/00 RMK AO2
14926KSTC STC20011102223009911/02/01 22:30:31  5-MIN KSTC 030430Z AUTO 00000KT 10SM CLR 00/M03 A3020 770 81 -800 000/00 RMK AO2
14926KSTC STC20011102223509911/02/01 22:35:31  5-MIN KSTC 030435Z AUTO 00000KT 10SM CLR 01/M02 A3020 770 82 -700 000/00 RMK AO2
14926KSTC STC20011102224010011/02/01 22:40:31  5-MIN KSTC 030440Z AUTO 00000KT 10SM CLR M01/M03 A3020 770 81 -900 000/00 RMK AO2
14926KSTC STC20011102224509911/02/01 22:45:31  5-MIN KSTC 030445Z AUTO 00000KT 10SM CLR 00/M03 A3020 770 81 -800 000/00 RMK AO2
14926KSTC STC20011102225011711/02/01 22:50:31  5-MIN KSTC 030450Z AUTO 00000KT 10SM CLR M01/M04 A3020 770 81 -900 000/00 RMK AO2 SLP243 T10111039
14926KSTC STC20011102225510011/02/01 22:55:31  5-MIN KSTC 030455Z AUTO 00000KT 10SM CLR M01/M03 A3020 770 85 -900 000/00 RMK AO2
14926KSTC STC20011102230010011/02/01 23:00:31  5-MIN KSTC 030500Z AUTO 00000KT 10SM CLR M01/M03 A3019 770 81 -900 000/00 RMK AO2
14926KSTC STC20011102230510011/02/01 23:05:31  5-MIN KSTC 030505Z AUTO 00000KT 10SM CLR M01/M03 A3019 770 81 -800 000/00 RMK AO2
14926KSTC STC20011102231010011/02/01 23:10:31  5-MIN KSTC 030510Z AUTO 00000KT 10SM CLR M01/M03 A3019 770 85 -900 000/00 RMK AO2
14926KSTC STC20011102231510011/02/01 23:15:31  5-MIN KSTC 030515Z AUTO 00000KT 10SM CLR M01/M03 A3020 770 81 -900 000/00 RMK AO2
14926KSTC STC20011102232010011/02/01 23:20:31  5-MIN KSTC 030520Z AUTO 00000KT 10SM CLR M01/M03 A3020 770 85 -900 000/00 RMK AO2
14926KSTC STC20011102232510011/02/01 23:25:31  5-MIN KSTC 030525Z AUTO 00000KT 10SM CLR M01/M03 A3020 770 85 -900 000/00 RMK AO2
14926KSTC STC20011102233010011/02/01 23:30:31  5-MIN KSTC 030530Z AUTO 00000KT 10SM CLR M01/M03 A3020 770 85 -900 000/00 RMK AO2
14926KSTC STC20011102233510011/02/01 23:35:31  5-MIN KSTC 030535Z AUTO 00000KT 10SM CLR M01/M03 A3020 770 88 -900 000/00 RMK AO2
14926KSTC STC20011102234010011/02/01 23:40:31  5-MIN KSTC 030540Z AUTO 17003KT 10SM CLR M01/M03 A3020 770 85 -900 170/03 RMK AO2
14926KSTC STC20011102234510011/02/01 23:45:31  5-MIN KSTC 030545Z AUTO 00000KT 10SM CLR M01/M04 A3020 770 78 -900 000/00 RMK AO2
14926KSTC STC20011102235014511/02/01 23:50:31  5-MIN KSTC 030550Z AUTO 00000KT 10SM CLR M01/M03 A3020 770 85 -900 000/00 RMK AO2 SLP244 T10111033 10083 21011 401391011 52008
14926KSTC STC20011102235510011/02/01 23:55:31  5-MIN KSTC 030555Z AUTO 00000KT 10SM CLR M01/M03 A3020 770 85 -900 000/00 RMK AO2
14926KSTC STC20011103000010011/03/01 00:00:31  5-MIN KSTC 030600Z AUTO 00000KT 10SM CLR M01/M03 A3020 770 85 -900 000/00 RMK AO2
14926KSTC STC20011103000510011/03/01 00:05:31  5-MIN KSTC 030605Z AUTO 00000KT 10SM CLR M01/M03 A3021 760 85 -900 000/00 RMK AO2
14926KSTC STC20011103001010011/03/01 00:10:31  5-MIN KSTC 030610Z AUTO 00000KT 10SM CLR M01/M03 A3021 760 88 -900 000/00 RMK AO2
14926KSTC STC20011103001510111/03/01 00:15:31  5-MIN KSTC 030615Z AUTO 00000KT 10SM CLR M02/M03 A3021 760 88 -1000 000/00 RMK AO2
14926KSTC STC20011103002010111/03/01 00:20:31  5-MIN KSTC 030620Z AUTO 00000KT 10SM CLR M02/M03 A3021 760 88 -1000 000/00 RMK AO2
14926KSTC STC20011103002510011/03/01 00:25:31  5-MIN KSTC 030625Z AUTO 00000KT 10SM CLR M01/M03 A3021 760 88 -900 000/00 RMK AO2
14926KSTC STC20011103003010011/03/01 00:30:31  5-MIN KSTC 030630Z AUTO 00000KT 10SM CLR M01/M03 A3022 750 88 -900 000/00 RMK AO2
14926KSTC STC20011103003510111/03/01 00:35:31  5-MIN KSTC 030635Z AUTO 00000KT 10SM CLR M02/M03 A3022 750 92 -1000 000/00 RMK AO2
14926KSTC STC20011103004010111/03/01 00:40:31  5-MIN KSTC 030640Z AUTO 00000KT 10SM CLR M02/M03 A3022 750 92 -1000 000/00 RMK AO2
14926KSTC STC20011103004510111/03/01 00:45:31  5-MIN KSTC 030645Z AUTO 00000KT 10SM CLR M02/M03 A3022 750 88 -1000 000/00 RMK AO2
14926KSTC STC20011103005011811/03/01 00:50:31  5-MIN KSTC 030650Z AUTO 00000KT 10SM CLR M02/M03 A3022 750 88 -1000 000/00 RMK AO2 SLP249 T10171033
14926KSTC STC20011103005510111/03/01 00:55:31  5-MIN KSTC 030655Z AUTO 00000KT 10SM CLR M02/M03 A3022 750 92 -1000 000/00 RMK AO2
14926KSTC STC20011103010010111/03/01 01:00:31  5-MIN KSTC 030700Z AUTO 00000KT 10SM CLR M02/M03 A3022 750 92 -1000 000/00 RMK AO2
14926KSTC STC20011103010510111/03/01 01:05:31  5-MIN KSTC 030705Z AUTO 00000KT 10SM CLR M02/M03 A3022 750 92 -1000 000/00 RMK AO2
14926KSTC STC20011103011010111/03/01 01:10:31  5-MIN KSTC 030710Z AUTO 00000KT 10SM CLR M02/M03 A3022 750 92 -1100 000/00 RMK AO2
14926KSTC STC20011103011510111/03/01 01:15:31  5-MIN KSTC 030715Z AUTO 00000KT 10SM CLR M02/M03 A3022 750 92 -1100 000/00 RMK AO2
14926KSTC STC20011103012010111/03/01 01:20:31  5-MIN KSTC 030720Z AUTO 00000KT 10SM CLR M02/M03 A3022 750 92 -1100 000/00 RMK AO2
14926KSTC STC20011103012510111/03/01 01:25:31  5-MIN KSTC 030725Z AUTO 00000KT 10SM CLR M02/M03 A3022 750 92 -1100 000/00 RMK AO2
14926KSTC STC20011103013010111/03/01 01:30:31  5-MIN KSTC 030730Z AUTO 00000KT 10SM CLR M02/M03 A3022 750 92 -1100 000/00 RMK AO2
14926KSTC STC20011103013510111/03/01 01:35:31  5-MIN KSTC 030735Z AUTO 00000KT 10SM CLR M02/M03 A3022 750 88 -1000 000/00 RMK AO2
14926KSTC STC20011103014010111/03/01 01:40:31  5-MIN KSTC 030740Z AUTO 00000KT 10SM CLR M02/M03 A3022 750 92 -1100 000/00 RMK AO2
14926KSTC STC20011103014510111/03/01 01:45:31  5-MIN KSTC 030745Z AUTO 00000KT 10SM CLR M02/M03 A3022 750 92 -1100 000/00 RMK AO2
14926KSTC STC20011103015011811/03/01 01:50:31  5-MIN KSTC 030750Z AUTO 00000KT 10SM CLR M02/M03 A3022 750 88 -1000 000/00 RMK AO2 SLP250 T10171033
14926KSTC STC20011103015510011/03/01 01:55:31  5-MIN KSTC 030755Z AUTO 00000KT 10SM CLR M01/M03 A3022 750 88 -900 000/00 RMK AO2
14926KSTC STC20011103020010111/03/01 02:00:31  5-MIN KSTC 030800Z AUTO 00000KT 10SM CLR M02/M03 A3022 750 92 -1000 000/00 RMK AO2
14926KSTC STC20011103020510111/03/01 02:05:31  5-MIN KSTC 030805Z AUTO 00000KT 10SM CLR M02/M03 A3022 750 92 -1000 000/00 RMK AO2
14926KSTC STC20011103021010111/03/01 02:10:31  5-MIN KSTC 030810Z AUTO 11003KT 10SM CLR M02/M03 A3022 750 96 -1100 100/03 RMK AO2
14926KSTC STC20011103021510011/03/01 02:15:31  5-MIN KSTC 030815Z AUTO 11003KT 10SM CLR M01/M03 A3022 750 88 -900 110/03 RMK AO2
14926KSTC STC20011103022010111/03/01 02:20:31  5-MIN KSTC 030820Z AUTO 00000KT 10SM CLR M02/M03 A3022 750 92 -1000 000/00 RMK AO2
14926KSTC STC20011103022510111/03/01 02:25:31  5-MIN KSTC 030825Z AUTO 11003KT 10SM CLR M02/M03 A3022 750 92 -1000 110/03 RMK AO2
14926KSTC STC20011103023010011/03/01 02:30:31  5-MIN KSTC 030830Z AUTO 11003KT 10SM CLR M01/M03 A3022 750 88 -900 110/03 RMK AO2
14926KSTC STC20011103023510011/03/01 02:35:31  5-MIN KSTC 030835Z AUTO 10003KT 10SM CLR M01/M03 A3022 750 88 -900 100/03 RMK AO2
14926KSTC STC20011103024010011/03/01 02:40:31  5-MIN KSTC 030840Z AUTO 00000KT 10SM CLR M01/M03 A3022 750 88 -900 000/00 RMK AO2
14926KSTC STC20011103024510011/03/01 02:45:31  5-MIN KSTC 030845Z AUTO 00000KT 10SM CLR M01/M03 A3022 750 88 -900 000/00 RMK AO2
14926KSTC STC20011103025012311/03/01 02:50:31  5-MIN KSTC 030850Z AUTO 00000KT 10SM CLR M01/M03 A3022 750 88 -900 000/00 RMK AO2 SLP250 T10111028 51012
14926KSTC STC20011103025510111/03/01 02:55:31  5-MIN KSTC 030855Z AUTO 00000KT 10SM CLR M02/M03 A3022 750 92 -1000 000/00 RMK AO2
14926KSTC STC20011103030010111/03/01 03:00:31  5-MIN KSTC 030900Z AUTO 00000KT 10SM CLR M02/M03 A3022 750 92 -1000 000/00 RMK AO2
14926KSTC STC20011103030510011/03/01 03:05:31  5-MIN KSTC 030905Z AUTO 00000KT 10SM CLR M01/M02 A3022 750 92 -900 000/00 RMK AO2
14926KSTC STC20011103031010011/03/01 03:10:31  5-MIN KSTC 030910Z AUTO 00000KT 10SM CLR M01/M02 A3021 760 88 -900 000/00 RMK AO2
14926KSTC STC20011103031510011/03/01 03:15:31  5-MIN KSTC 030915Z AUTO 00000KT 10SM CLR M01/M02 A3021 760 92 -900 000/00 RMK AO2
14926KSTC STC20011103032010011/03/01 03:20:31  5-MIN KSTC 030920Z AUTO 00000KT 10SM CLR M01/M02 A3021 760 92 -900 000/00 RMK AO2
14926KSTC STC20011103032510011/03/01 03:25:31  5-MIN KSTC 030925Z AUTO 00000KT 10SM CLR M01/M02 A3021 760 92 -900 000/00 RMK AO2
14926KSTC STC20011103033010011/03/01 03:30:31  5-MIN KSTC 030930Z AUTO 00000KT 10SM CLR M01/M02 A3021 760 92 -900 000/00 RMK AO2
14926KSTC STC20011103033510011/03/01 03:35:31  5-MIN KSTC 030935Z AUTO 00000KT 10SM CLR M01/M02 A3021 760 92 -900 000/00 RMK AO2
14926KSTC STC20011103034010011/03/01 03:40:31  5-MIN KSTC 030940Z AUTO 00000KT 10SM CLR M01/M02 A3021 760 92 -900 000/00 RMK AO2
14926KSTC STC20011103034510011/03/01 03:45:31  5-MIN KSTC 030945Z AUTO 00000KT 10SM CLR M01/M02 A3021 760 92 -900 000/00 RMK AO2
14926KSTC STC20011103035011711/03/01 03:50:31  5-MIN KSTC 030950Z AUTO 00000KT 10SM CLR M01/M02 A3021 760 92 -900 000/00 RMK AO2 SLP247 T10111022
14926KSTC STC20011103035510011/03/01 03:55:31  5-MIN KSTC 030955Z AUTO 00000KT 10SM CLR M01/M02 A3021 760 92 -900 000/00 RMK AO2
14926KSTC STC20011103040010011/03/01 04:00:31  5-MIN KSTC 031000Z AUTO 00000KT 10SM CLR M01/M02 A3021 760 92 -900 000/00 RMK AO2
14926KSTC STC20011103040510011/03/01 04:05:31  5-MIN KSTC 031005Z AUTO 00000KT 10SM CLR M01/M02 A3021 760 92 -900 000/00 RMK AO2
14926KSTC STC20011103041010011/03/01 04:10:31  5-MIN KSTC 031010Z AUTO 00000KT 10SM CLR M01/M02 A3022 750 92 -900 000/00 RMK AO2
14926KSTC STC20011103041510011/03/01 04:15:31  5-MIN KSTC 031015Z AUTO 00000KT 10SM CLR M01/M02 A3022 750 92 -900 000/00 RMK AO2
14926KSTC STC20011103042010011/03/01 04:20:31  5-MIN KSTC 031020Z AUTO 00000KT 10SM CLR M01/M02 A3022 750 92 -900 000/00 RMK AO2
14926KSTC STC20011103042510011/03/01 04:25:31  5-MIN KSTC 031025Z AUTO 00000KT 10SM CLR M01/M02 A3022 750 92 -900 000/00 RMK AO2
14926KSTC STC20011103043010111/03/01 04:30:31  5-MIN KSTC 031030Z AUTO 00000KT 10SM CLR M01/M02 A3022 750 92 -1000 000/00 RMK AO2
14926KSTC STC20011103043510011/03/01 04:35:31  5-MIN KSTC 031035Z AUTO 00000KT 10SM CLR M01/M03 A3022 750 88 -900 000/00 RMK AO2
14926KSTC STC20011103044010111/03/01 04:40:31  5-MIN KSTC 031040Z AUTO 00000KT 10SM CLR M02/M03 A3022 750 92 -1000 000/00 RMK AO2
14926KSTC STC20011103044510111/03/01 04:45:31  5-MIN KSTC 031045Z AUTO 00000KT 10SM CLR M02/M03 A3022 750 92 -1000 000/00 RMK AO2
14926KSTC STC20011103045011811/03/01 04:50:31  5-MIN KSTC 031050Z AUTO 00000KT 10SM CLR M02/M03 A3023 740 92 -1000 000/00 RMK AO2 SLP253 T10171028
14926KSTC STC20011103045510111/03/01 04:55:31  5-MIN KSTC 031055Z AUTO 00000KT 10SM CLR M02/M03 A3022 750 96 -1100 000/00 RMK AO2
14926KSTC STC20011103050010111/03/01 05:00:31  5-MIN KSTC 031100Z AUTO 00000KT 10SM CLR M02/M03 A3023 740 96 -1100 000/00 RMK AO2
14926KSTC STC20011103050510111/03/01 05:05:31  5-MIN KSTC 031105Z AUTO 00000KT 10SM CLR M02/M03 A3022 750 96 -1100 000/00 RMK AO2
14926KSTC STC20011103051010111/03/01 05:10:31  5-MIN KSTC 031110Z AUTO 00000KT 10SM CLR M02/M03 A3023 740 96 -1100 000/00 RMK AO2
14926KSTC STC20011103051510111/03/01 05:15:31  5-MIN KSTC 031115Z AUTO 00000KT 10SM CLR M02/M03 A3023 740 92 -1000 000/00 RMK AO2
14926KSTC STC20011103052010111/03/01 05:20:31  5-MIN KSTC 031120Z AUTO 00000KT 10SM CLR M02/M03 A3023 740 92 -1000 000/00 RMK AO2
14926KSTC STC20011103052510111/03/01 05:25:31  5-MIN KSTC 031125Z AUTO 00000KT 10SM CLR M02/M03 A3023 740 96 -1100 000/00 RMK AO2
14926KSTC STC20011103053010111/03/01 05:30:31  5-MIN KSTC 031130Z AUTO 00000KT 10SM CLR M02/M03 A3023 740 92 -1100 000/00 RMK AO2
14926KSTC STC20011103053510111/03/01 05:35:31  5-MIN KSTC 031135Z AUTO 00000KT 10SM CLR M03/M03 A3024 740 96 -1200 000/00 RMK AO2
14926KSTC STC20011103054010111/03/01 05:40:31  5-MIN KSTC 031140Z AUTO 00000KT 10SM CLR M03/M03 A3024 740 96 -1200 000/00 RMK AO2
14926KSTC STC20011103054510111/03/01 05:45:31  5-MIN KSTC 031145Z AUTO 00000KT 10SM CLR M03/M03 A3024 730 96 -1200 000/00 RMK AO2
14926KSTC STC20011103055013611/03/01 05:50:31  5-MIN KSTC 031150Z AUTO 00000KT 10SM CLR M03/M03 A3024 730 96 -1200 000/00 RMK AO2 SLP258 T10281033 11006 21028 51005
14926KSTC STC20011103055510111/03/01 05:55:31  5-MIN KSTC 031155Z AUTO 00000KT 10SM CLR M03/M03 A3024 730 96 -1200 000/00 RMK AO2
14926KSTC STC20011103060010111/03/01 06:00:31  5-MIN KSTC 031200Z AUTO 13003KT 10SM CLR M03/M03 A3024 730 96 -1200 130/03 RMK AO2
14926KSTC STC20011103060510111/03/01 06:05:31  5-MIN KSTC 031205Z AUTO 00000KT 10SM CLR M03/M04 A3024 730 96 -1300 000/00 RMK AO2
14926KSTC STC20011103061010111/03/01 06:10:31  5-MIN KSTC 031210Z AUTO 08003KT 10SM CLR M03/M03 A3024 730 96 -1200 070/03 RMK AO2
14926KSTC STC20011103061510111/03/01 06:15:31  5-MIN KSTC 031215Z AUTO 09003KT 10SM CLR M03/M03 A3024 730 96 -1200 080/03 RMK AO2
14926KSTC STC20011103062010111/03/01 06:20:31  5-MIN KSTC 031220Z AUTO 00000KT 10SM CLR M03/M03 A3024 730 96 -1200 000/00 RMK AO2
14926KSTC STC20011103062510111/03/01 06:25:31  5-MIN KSTC 031225Z AUTO 00000KT 10SM CLR M03/M03 A3024 730 96 -1200 000/00 RMK AO2
14926KSTC STC20011103063010111/03/01 06:30:31  5-MIN KSTC 031230Z AUTO 00000KT 10SM CLR M03/M04 A3024 730 96 -1300 000/00 RMK AO2
14926KSTC STC20011103063510111/03/01 06:35:31  5-MIN KSTC 031235Z AUTO 00000KT 10SM CLR M03/M04 A3024 730 96 -1300 000/00 RMK AO2
14926KSTC STC20011103064010111/03/01 06:40:31  5-MIN KSTC 031240Z AUTO 09003KT 10SM CLR M03/M03 A3024 730 96 -1200 090/03 RMK AO2
14926KSTC STC20011103064510211/03/01 06:45:31  5-MIN KSTC 031245Z AUTO 08004KT 10SM CLR M03/M03 A3024 730 100 -1200 080/04 RMK AO2
14926KSTC STC20011103065011811/03/01 06:50:31  5-MIN KSTC 031250Z AUTO 09004KT 10SM CLR M03/M03 A3024 730 96 -1200 090/04 RMK AO2 SLP260 T10281033
14926KSTC STC20011103065510211/03/01 06:55:31  5-MIN KSTC 031255Z AUTO 08005KT 10SM CLR M03/M03 A3024 730 100 -1200 080/05 RMK AO2
14926KSTC STC20011103070010111/03/01 07:00:31  5-MIN KSTC 031300Z AUTO 00000KT 10SM CLR M02/M03 A3024 730 96 -1100 000/00 RMK AO2
14926KSTC STC20011103070510111/03/01 07:05:31  5-MIN KSTC 031305Z AUTO 00000KT 10SM CLR M02/M03 A3025 730 96 -1100 000/00 RMK AO2
14926KSTC STC20011103071010111/03/01 07:10:31  5-MIN KSTC 031310Z AUTO 00000KT 10SM CLR M03/M04 A3025 720 96 -1300 000/00 RMK AO2
14926KSTC STC20011103071510111/03/01 07:15:31  5-MIN KSTC 031315Z AUTO 00000KT 10SM CLR M03/M03 A3025 720 96 -1200 000/00 RMK AO2
14926KSTC STC20011103072010111/03/01 07:20:31  5-MIN KSTC 031320Z AUTO 00000KT 10SM CLR M03/M03 A3025 730 96 -1200 000/00 RMK AO2
14926KSTC STC20011103072510111/03/01 07:25:31  5-MIN KSTC 031325Z AUTO 00000KT 10SM CLR M03/M03 A3025 730 96 -1200 000/00 RMK AO2
14926KSTC STC20011103073010111/03/01 07:30:31  5-MIN KSTC 031330Z AUTO 00000KT 10SM CLR M03/M03 A3025 730 96 -1200 000/00 RMK AO2
14926KSTC STC20011103073510111/03/01 07:35:31  5-MIN KSTC 031335Z AUTO 00000KT 10SM CLR M02/M03 A3025 720 96 -1100 000/00 RMK AO2
14926KSTC STC20011103074010111/03/01 07:40:31  5-MIN KSTC 031340Z AUTO 00000KT 10SM CLR M02/M02 A3025 720 96 -1100 000/00 RMK AO2
14926KSTC STC20011103074510111/03/01 07:45:31  5-MIN KSTC 031345Z AUTO 17003KT 10SM CLR M02/M02 A3025 720 96 -1100 170/03 RMK AO2
14926KSTC STC20011103075011811/03/01 07:50:31  5-MIN KSTC 031350Z AUTO 18003KT 10SM CLR M01/M02 A3025 720 92 -1000 170/03 RMK AO2 SLP264 T10111022
14926KSTC STC20011103075510111/03/01 07:55:31  5-MIN KSTC 031355Z AUTO 18003KT 10SM CLR M01/M02 A3025 720 96 -1000 170/03 RMK AO2
14926KSTC STC20011103080010011/03/01 08:00:31  5-MIN KSTC 031400Z AUTO 00000KT 10SM CLR M01/M02 A3025 720 92 -900 000/00 RMK AO2
14926KSTC STC20011103080510011/03/01 08:05:31  5-MIN KSTC 031405Z AUTO 00000KT 10SM CLR M01/M01 A3025 720 96 -900 000/00 RMK AO2
14926KSTC STC20011103081009911/03/01 08:10:31  5-MIN KSTC 031410Z AUTO 00000KT 10SM CLR 00/M01 A3025 730 92 -800 000/00 RMK AO2
14926KSTC STC20011103081509911/03/01 08:15:31  5-MIN KSTC 031415Z AUTO 00000KT 10SM CLR 01/M01 A3025 720 89 -800 000/00 RMK AO2
14926KSTC STC20011103082009911/03/01 08:20:31  5-MIN KSTC 031420Z AUTO 00000KT 10SM CLR 01/M01 A3025 720 89 -700 000/00 RMK AO2
14926KSTC STC20011103082509811/03/01 08:25:31  5-MIN KSTC 031425Z AUTO 00000KT 10SM CLR 02/00 A3025 730 89 -600 000/00 RMK AO2
14926KSTC STC20011103083009811/03/01 08:30:31  5-MIN KSTC 031430Z AUTO 00000KT 10SM CLR 02/00 A3025 720 85 -600 000/00 RMK AO2
14926KSTC STC20011103083509811/03/01 08:35:31  5-MIN KSTC 031435Z AUTO 00000KT 10SM CLR 03/00 A3025 720 82 -500 000/00 RMK AO2
14926KSTC STC20011103084009811/03/01 08:40:31  5-MIN KSTC 031440Z AUTO 00000KT 10SM CLR 03/00 A3025 720 82 -500 000/00 RMK AO2
14926KSTC STC20011103084509811/03/01 08:45:31  5-MIN KSTC 031445Z AUTO 19003KT 10SM CLR 03/00 A3025 730 82 -500 190/03 RMK AO2
14926KSTC STC20011103085012111/03/01 08:50:31  5-MIN KSTC 031450Z AUTO 20004KT 10SM CLR 03/00 A3025 720 79 -400 200/04 RMK AO2 SLP263 T00330000 53006
14926KSTC STC20011103085509811/03/01 08:55:31  5-MIN KSTC 031455Z AUTO 20004KT 10SM CLR 04/00 A3025 720 76 -400 200/04 RMK AO2
14926KSTC STC20011103090009811/03/01 09:00:31  5-MIN KSTC 031500Z AUTO 19003KT 10SM CLR 04/01 A3025 720 76 -300 190/03 RMK AO2
14926KSTC STC20011103090509811/03/01 09:05:31  5-MIN KSTC 031505Z AUTO 20003KT 10SM CLR 04/01 A3025 720 76 -300 200/03 RMK AO2
14926KSTC STC20011103091009811/03/01 09:10:31  5-MIN KSTC 031510Z AUTO 21003KT 10SM CLR 05/01 A3025 720 73 -200 200/03 RMK AO2
14926KSTC STC20011103091509811/03/01 09:15:31  5-MIN KSTC 031515Z AUTO 21004KT 10SM CLR 06/01 A3025 720 70 -200 200/04 RMK AO2
14926KSTC STC20011103092009811/03/01 09:20:31  5-MIN KSTC 031520Z AUTO 19004KT 10SM CLR 06/01 A3025 720 70 -200 190/04 RMK AO2
14926KSTC STC20011103092509511/03/01 09:25:31  5-MIN KSTC 031525Z AUTO 21004KT 10SM CLR 07/01 A3025 730 65 0 200/04 RMK AO2
14926KSTC STC20011103093009511/03/01 09:30:31  5-MIN KSTC 031530Z AUTO 20004KT 10SM CLR 07/01 A3025 730 65 0 200/04 RMK AO2
14926KSTC STC20011103093509711/03/01 09:35:31  5-MIN KSTC 031535Z AUTO 21005KT 10SM CLR 08/01 A3025 730 60 100 200/05 RMK AO2
14926KSTC STC20011103094009711/03/01 09:40:31  5-MIN KSTC 031540Z AUTO 21005KT 10SM CLR 08/01 A3025 720 58 100 210/05 RMK AO2
14926KSTC STC20011103094509711/03/01 09:45:31  5-MIN KSTC 031545Z AUTO 23006KT 10SM CLR 09/01 A3025 720 56 200 230/06 RMK AO2
14926KSTC STC20011103095011411/03/01 09:50:31  5-MIN KSTC 031550Z AUTO 23006KT 10SM CLR 09/01 A3025 720 53 300 230/06 RMK AO2 SLP261 T00940006
14926KSTC STC20011103095509711/03/01 09:55:31  5-MIN KSTC 031555Z AUTO 24005KT 10SM CLR 10/01 A3025 720 52 300 230/05 RMK AO2
14926KSTC STC20011103100009711/03/01 10:00:31  5-MIN KSTC 031600Z AUTO 23005KT 10SM CLR 11/01 A3025 720 50 400 230/05 RMK AO2
14926KSTC STC20011103100509711/03/01 10:05:31  5-MIN KSTC 031605Z AUTO 23006KT 10SM CLR 11/01 A3025 720 50 500 230/06 RMK AO2
14926KSTC STC20011103101009711/03/01 10:10:31  5-MIN KSTC 031610Z AUTO 23006KT 10SM CLR 11/01 A3025 720 50 500 230/06 RMK AO2
14926KSTC STC20011103101509711/03/01 10:15:31  5-MIN KSTC 031615Z AUTO 24008KT 10SM CLR 12/01 A3025 720 46 600 230/08 RMK AO2
14926KSTC STC20011103102009711/03/01 10:20:31  5-MIN KSTC 031620Z AUTO 24007KT 10SM CLR 13/01 A3025 720 44 700 240/07 RMK AO2
14926KSTC STC20011103102509711/03/01 10:25:31  5-MIN KSTC 031625Z AUTO 25009KT 10SM CLR 13/02 A3025 720 45 700 240/09 RMK AO2
14926KSTC STC20011103103009711/03/01 10:30:31  5-MIN KSTC 031630Z AUTO 24008KT 10SM CLR 14/01 A3025 720 41 800 240/08 RMK AO2
14926KSTC STC20011103103509711/03/01 10:35:31  5-MIN KSTC 031635Z AUTO 25010KT 10SM CLR 14/01 A3025 720 40 900 240/10 RMK AO2
14926KSTC STC20011103104009711/03/01 10:40:31  5-MIN KSTC 031640Z AUTO 25009KT 10SM CLR 14/01 A3025 730 38 900 240/09 RMK AO2
14926KSTC STC20011103104509711/03/01 10:45:31  5-MIN KSTC 031645Z AUTO 26009KT 10SM CLR 15/01 A3025 730 37 900 250/09 RMK AO2
14926KSTC STC20011103105011411/03/01 10:50:31  5-MIN KSTC 031650Z AUTO 27010KT 10SM CLR 15/01 A3025 730 37 900 270/10 RMK AO2 SLP258 T01500006
14926KSTC STC20011103105509811/03/01 10:55:31  5-MIN KSTC 031655Z AUTO 27010KT 10SM CLR 16/01 A3025 730 37 1000 260/10 RMK AO2
14926KSTC STC20011103110009811/03/01 11:00:31  5-MIN KSTC 031700Z AUTO 26010KT 10SM CLR 16/01 A3025 720 37 1000 260/10 RMK AO2
14926KSTC STC20011103110509811/03/01 11:05:31  5-MIN KSTC 031705Z AUTO 26009KT 10SM CLR 16/01 A3025 720 37 1000 250/09 RMK AO2
14926KSTC STC20011103111009811/03/01 11:10:31  5-MIN KSTC 031710Z AUTO 26009KT 10SM CLR 16/01 A3025 720 36 1100 250/09 RMK AO2
14926KSTC STC20011103111509811/03/01 11:15:31  5-MIN KSTC 031715Z AUTO 26011KT 10SM CLR 16/01 A3025 720 36 1100 260/11 RMK AO2
14926KSTC STC20011103112009811/03/01 11:20:31  5-MIN KSTC 031720Z AUTO 26010KT 10SM CLR 16/01 A3025 720 36 1100 260/10 RMK AO2
14926KSTC STC20011103112509811/03/01 11:25:31  5-MIN KSTC 031725Z AUTO 27010KT 10SM CLR 16/01 A3025 720 36 1100 270/10 RMK AO2
14926KSTC STC20011103113009811/03/01 11:30:31  5-MIN KSTC 031730Z AUTO 26011KT 10SM CLR 17/01 A3025 720 34 1100 260/11 RMK AO2
14926KSTC STC20011103113509811/03/01 11:35:31  5-MIN KSTC 031735Z AUTO 27012KT 10SM CLR 17/01 A3025 720 34 1100 270/12 RMK AO2
14926KSTC STC20011103114009811/03/01 11:40:31  5-MIN KSTC 031740Z AUTO 27010KT 10SM CLR 17/01 A3025 720 33 1200 270/10 RMK AO2
14926KSTC STC20011103114509811/03/01 11:45:31  5-MIN KSTC 031745Z AUTO 27008KT 10SM CLR 17/01 A3025 720 33 1200 260/08 RMK AO2
14926KSTC STC20011103115013311/03/01 11:50:31  5-MIN KSTC 031750Z AUTO 27011KT 10SM CLR 17/01 A3025 720 33 1200 270/11 RMK AO2 SLP259 T01720011 10172 21033 50003
14926KSTC STC20011103115509811/03/01 11:55:31  5-MIN KSTC 031755Z AUTO 28009KT 10SM CLR 18/01 A3025 720 32 1300 270/09 RMK AO2
14926KSTC STC20011103120009811/03/01 12:00:31  5-MIN KSTC 031800Z AUTO 27009KT 10SM CLR 18/01 A3024 730 32 1300 270/09 RMK AO2
14926KSTC STC20011103120510411/03/01 12:05:31  5-MIN KSTC 031805Z AUTO 24009G16KT 10SM CLR 18/01 A3024 730 32 1300 240/09G16 RMK AO2
14926KSTC STC20011103121009811/03/01 12:10:31  5-MIN KSTC 031810Z AUTO 25008KT 10SM CLR 18/01 A3024 730 31 1300 250/08 RMK AO2
14926KSTC STC20011103121509811/03/01 12:15:31  5-MIN KSTC 031815Z AUTO 26009KT 10SM CLR 18/01 A3024 730 30 1300 260/09 RMK AO2
14926KSTC STC20011103122009811/03/01 12:20:31  5-MIN KSTC 031820Z AUTO 28011KT 10SM CLR 18/01 A3024 730 31 1300 280/11 RMK AO2
14926KSTC STC20011103122509811/03/01 12:25:31  5-MIN KSTC 031825Z AUTO 27010KT 10SM CLR 18/01 A3024 740 31 1300 270/10 RMK AO2
14926KSTC STC20011103123009811/03/01 12:30:31  5-MIN KSTC 031830Z AUTO 27014KT 10SM CLR 18/01 A3023 740 31 1300 270/14 RMK AO2
14926KSTC STC20011103123509811/03/01 12:35:31  5-MIN KSTC 031835Z AUTO 29011KT 10SM CLR 18/01 A3023 740 31 1300 280/11 RMK AO2
14926KSTC STC20011103124009811/03/01 12:40:31  5-MIN KSTC 031840Z AUTO 28012KT 10SM CLR 19/01 A3023 740 30 1400 270/12 RMK AO2
14926KSTC STC20011103124509811/03/01 12:45:31  5-MIN KSTC 031845Z AUTO 28012KT 10SM CLR 19/01 A3023 740 30 1400 280/12 RMK AO2
14926KSTC STC20011103125011511/03/01 12:50:31  5-MIN KSTC 031850Z AUTO 28014KT 10SM CLR 19/01 A3022 750 30 1400 280/14 RMK AO2 SLP249 T01890011
14926KSTC STC20011103125509811/03/01 12:55:31  5-MIN KSTC 031855Z AUTO 29014KT 10SM CLR 19/02 A3022 750 31 1400 290/14 RMK AO2
14926KSTC STC20011103130010411/03/01 13:00:31  5-MIN KSTC 031900Z AUTO 29011G17KT 10SM CLR 19/02 A3022 750 31 1400 290/11G17 RMK AO2
14926KSTC STC20011103130509811/03/01 13:05:31  5-MIN KSTC 031905Z AUTO 29015KT 10SM CLR 19/01 A3022 750 30 1400 290/15 RMK AO2
14926KSTC STC20011103131009811/03/01 13:10:31  5-MIN KSTC 031910Z AUTO 29009KT 10SM CLR 19/02 A3022 750 30 1500 290/09 RMK AO2
14926KSTC STC20011103131509811/03/01 13:15:31  5-MIN KSTC 031915Z AUTO 29012KT 10SM CLR 19/02 A3022 750 30 1500 290/12 RMK AO2
14926KSTC STC20011103132009811/03/01 13:20:31  5-MIN KSTC 031920Z AUTO 30013KT 10SM CLR 19/02 A3022 750 30 1500 290/13 RMK AO2
14926KSTC STC20011103132509811/03/01 13:25:31  5-MIN KSTC 031925Z AUTO 30015KT 10SM CLR 19/02 A3022 750 30 1500 300/15 RMK AO2
14926KSTC STC20011103133009811/03/01 13:30:31  5-MIN KSTC 031930Z AUTO 28015KT 10SM CLR 19/02 A3022 750 30 1500 280/15 RMK AO2
14926KSTC STC20011103133509811/03/01 13:35:31  5-MIN KSTC 031935Z AUTO 30015KT 10SM CLR 19/02 A3022 750 30 1500 300/15 RMK AO2
14926KSTC STC20011103134009811/03/01 13:40:31  5-MIN KSTC 031940Z AUTO 30013KT 10SM CLR 19/02 A3022 750 30 1500 300/13 RMK AO2
14926KSTC STC20011103134509811/03/01 13:45:31  5-MIN KSTC 031945Z AUTO 30015KT 10SM CLR 19/02 A3022 750 30 1500 300/15 RMK AO2
14926KSTC STC20011103135011511/03/01 13:50:31  5-MIN KSTC 031950Z AUTO 29016KT 10SM CLR 19/01 A3022 750 30 1400 290/16 RMK AO2 SLP249 T01890011
14926KSTC STC20011103135509811/03/01 13:55:31  5-MIN KSTC 031955Z AUTO 30016KT 10SM CLR 19/01 A3022 750 30 1400 300/16 RMK AO2
14926KSTC STC20011103140009811/03/01 14:00:31  5-MIN KSTC 032000Z AUTO 29016KT 10SM CLR 19/02 A3022 750 31 1400 280/16 RMK AO2
14926KSTC STC20011103140509811/03/01 14:05:31  5-MIN KSTC 032005Z AUTO 29017KT 10SM CLR 19/01 A3022 750 30 1400 290/17 RMK AO2
14926KSTC STC20011103141009811/03/01 14:10:31  5-MIN KSTC 032010Z AUTO 30015KT 10SM CLR 19/01 A3022 750 30 1400 300/15 RMK AO2
14926KSTC STC20011103141509811/03/01 14:15:31  5-MIN KSTC 032015Z AUTO 29012KT 10SM CLR 19/02 A3023 750 31 1400 290/12 RMK AO2
14926KSTC STC20011103142009811/03/01 14:20:31  5-MIN KSTC 032020Z AUTO 28016KT 10SM CLR 19/02 A3023 750 31 1400 280/16 RMK AO2
14926KSTC STC20011103142509811/03/01 14:25:31  5-MIN KSTC 032025Z AUTO 29012KT 10SM CLR 19/02 A3023 740 31 1400 290/12 RMK AO2
14926KSTC STC20011103143010411/03/01 14:30:31  5-MIN KSTC 032030Z AUTO 29013G20KT 10SM CLR 19/01 A3023 740 30 1400 290/13G20 RMK AO2
14926KSTC STC20011103143509811/03/01 14:35:31  5-MIN KSTC 032035Z AUTO 29012KT 10SM CLR 19/01 A3023 740 30 1400 290/12 RMK AO2
14926KSTC STC20011103144010411/03/01 14:40:31  5-MIN KSTC 032040Z AUTO 28016G23KT 10SM CLR 19/01 A3023 740 30 1400 280/16G23 RMK AO2
14926KSTC STC20011103144510411/03/01 14:45:31  5-MIN KSTC 032045Z AUTO 28013G23KT 10SM CLR 19/01 A3023 740 30 1400 280/13G23 RMK AO2
14926KSTC STC20011103145012111/03/01 14:50:31  5-MIN KSTC 032050Z AUTO 30013KT 10SM CLR 19/01 A3023 740 30 1400 290/13 RMK AO2 SLP251 T01890011 53001
14926KSTC STC20011103145509811/03/01 14:55:31  5-MIN KSTC 032055Z AUTO 28017KT 10SM CLR 19/01 A3023 740 30 1400 280/17 RMK AO2
14926KSTC STC20011103150009811/03/01 15:00:31  5-MIN KSTC 032100Z AUTO 28012KT 10SM CLR 18/01 A3023 740 31 1300 270/12 RMK AO2
14926KSTC STC20011103150509811/03/01 15:05:31  5-MIN KSTC 032105Z AUTO 28016KT 10SM CLR 18/01 A3023 750 31 1300 280/16 RMK AO2
14926KSTC STC20011103151009811/03/01 15:10:31  5-MIN KSTC 032110Z AUTO 28016KT 10SM CLR 18/01 A3023 740 31 1300 270/16 RMK AO2
14926KSTC STC20011103151509811/03/01 15:15:31  5-MIN KSTC 032115Z AUTO 27017KT 10SM CLR 18/01 A3023 740 31 1300 270/17 RMK AO2
14926KSTC STC20011103152010411/03/01 15:20:31  5-MIN KSTC 032120Z AUTO 28018G21KT 10SM CLR 18/01 A3023 750 30 1300 280/18G21 RMK AO2
14926KSTC STC20011103152510411/03/01 15:25:31  5-MIN KSTC 032125Z AUTO 29014G21KT 10SM CLR 18/00 A3022 750 30 1300 280/14G21 RMK AO2
14926KSTC STC20011103153009811/03/01 15:30:31  5-MIN KSTC 032130Z AUTO 29016KT 10SM CLR 18/00 A3022 750 30 1300 280/16 RMK AO2
14926KSTC STC20011103153509811/03/01 15:35:31  5-MIN KSTC 032135Z AUTO 29015KT 10SM CLR 18/00 A3022 750 30 1300 280/15 RMK AO2
14926KSTC STC20011103154009811/03/01 15:40:31  5-MIN KSTC 032140Z AUTO 28013KT 10SM CLR 18/00 A3022 750 30 1300 280/13 RMK AO2
14926KSTC STC20011103154509811/03/01 15:45:31  5-MIN KSTC 032145Z AUTO 29014KT 10SM CLR 18/00 A3022 750 30 1300 280/14 RMK AO2
14926KSTC STC20011103155012111/03/01 15:50:31  5-MIN KSTC 032150Z AUTO 28010G17KT 10SM CLR 17/00 A3023 750 31 1200 280/10G17 RMK AO2 SLP250 T01720000
14926KSTC STC20011103155509811/03/01 15:55:31  5-MIN KSTC 032155Z AUTO 29013KT 10SM CLR 17/00 A3023 740 31 1200 280/13 RMK AO2
14926KSTC STC20011103160009811/03/01 16:00:31  5-MIN KSTC 032200Z AUTO 29014KT 10SM CLR 17/00 A3023 740 31 1200 290/14 RMK AO2
14926KSTC STC20011103160509811/03/01 16:05:31  5-MIN KSTC 032205Z AUTO 29012KT 10SM CLR 17/00 A3023 740 31 1200 290/12 RMK AO2
14926KSTC STC20011103161009811/03/01 16:10:31  5-MIN KSTC 032210Z AUTO 28011KT 10SM CLR 17/01 A3023 740 33 1200 280/11 RMK AO2
14926KSTC STC20011103161509811/03/01 16:15:31  5-MIN KSTC 032215Z AUTO 27014KT 10SM CLR 17/01 A3023 740 33 1200 270/14 RMK AO2
14926KSTC STC20011103162009811/03/01 16:20:31  5-MIN KSTC 032220Z AUTO 28012KT 10SM CLR 17/01 A3023 740 33 1100 280/12 RMK AO2
14926KSTC STC20011103162509811/03/01 16:25:31  5-MIN KSTC 032225Z AUTO 28012KT 10SM CLR 17/00 A3023 740 32 1100 270/12 RMK AO2
14926KSTC STC20011103163009811/03/01 16:30:31  5-MIN KSTC 032230Z AUTO 29012KT 10SM CLR 16/00 A3023 740 33 1100 280/12 RMK AO2
14926KSTC STC20011103163509811/03/01 16:35:31  5-MIN KSTC 032235Z AUTO 28012KT 10SM CLR 16/00 A3023 740 33 1100 280/12 RMK AO2
14926KSTC STC20011103164009811/03/01 16:40:31  5-MIN KSTC 032240Z AUTO 29009KT 10SM CLR 16/00 A3024 740 34 1000 290/09 RMK AO2
14926KSTC STC20011103164509711/03/01 16:45:31  5-MIN KSTC 032245Z AUTO 29009KT 10SM CLR 15/00 A3024 740 35 900 290/09 RMK AO2
14926KSTC STC20011103165011411/03/01 16:50:31  5-MIN KSTC 032250Z AUTO 29010KT 10SM CLR 15/01 A3024 730 37 900 290/10 RMK AO2 SLP255 T01500006
14926KSTC STC20011103165509711/03/01 16:55:31  5-MIN KSTC 032255Z AUTO 29009KT 10SM CLR 15/00 A3024 730 35 900 280/09 RMK AO2
14926KSTC STC20011103170009711/03/01 17:00:31  5-MIN KSTC 032300Z AUTO 29007KT 10SM CLR 14/01 A3024 730 38 900 280/07 RMK AO2
14926KSTC STC20011103170509711/03/01 17:05:31  5-MIN KSTC 032305Z AUTO 29010KT 10SM CLR 14/00 A3024 730 37 900 290/10 RMK AO2
14926KSTC STC20011103171009711/03/01 17:10:31  5-MIN KSTC 032310Z AUTO 29008KT 10SM CLR 14/01 A3024 730 40 800 280/08 RMK AO2
14926KSTC STC20011103171509711/03/01 17:15:31  5-MIN KSTC 032315Z AUTO 29007KT 10SM CLR 14/01 A3024 730 40 800 290/07 RMK AO2
14926KSTC STC20011103172009711/03/01 17:20:31  5-MIN KSTC 032320Z AUTO 29007KT 10SM CLR 13/01 A3024 730 41 700 290/07 RMK AO2
14926KSTC STC20011103172509711/03/01 17:25:31  5-MIN KSTC 032325Z AUTO 29006KT 10SM CLR 13/01 A3024 730 41 700 290/06 RMK AO2
14926KSTC STC20011103173009711/03/01 17:30:31  5-MIN KSTC 032330Z AUTO 29007KT 10SM CLR 13/01 A3024 730 41 700 290/07 RMK AO2
14926KSTC STC20011103173509711/03/01 17:35:31  5-MIN KSTC 032335Z AUTO 29007KT 10SM CLR 13/01 A3024 730 41 700 280/07 RMK AO2
14926KSTC STC20011103174009711/03/01 17:40:31  5-MIN KSTC 032340Z AUTO 29007KT 10SM CLR 13/01 A3024 730 41 700 280/07 RMK AO2
14926KSTC STC20011103174509711/03/01 17:45:31  5-MIN KSTC 032345Z AUTO 29006KT 10SM CLR 13/01 A3025 730 44 700 280/06 RMK AO2
14926KSTC STC20011103175013211/03/01 17:50:31  5-MIN KSTC 032350Z AUTO 28007KT 10SM CLR 13/01 A3025 730 44 700 280/07 RMK AO2 SLP260 T01280011 10194 20128 55007
14926KSTC STC20011103175509711/03/01 17:55:31  5-MIN KSTC 032355Z AUTO 28007KT 10SM CLR 13/01 A3025 720 44 700 280/07 RMK AO2
14926KSTC STC20011103180009711/03/01 18:00:31  5-MIN KSTC 040000Z AUTO 28006KT 10SM CLR 12/01 A3025 720 46 600 280/06 RMK AO2
14926KSTC STC20011103180509711/03/01 18:05:31  5-MIN KSTC 040005Z AUTO 28006KT 10SM CLR 12/01 A3025 720 46 600 280/06 RMK AO2
14926KSTC STC20011103181009711/03/01 18:10:31  5-MIN KSTC 040010Z AUTO 28006KT 10SM CLR 12/01 A3025 720 46 600 280/06 RMK AO2
14926KSTC STC20011103181509711/03/01 18:15:31  5-MIN KSTC 040015Z AUTO 28005KT 10SM CLR 12/01 A3025 720 48 500 280/05 RMK AO2
14926KSTC STC20011103182009711/03/01 18:20:31  5-MIN KSTC 040020Z AUTO 28005KT 10SM CLR 12/01 A3025 720 48 500 280/05 RMK AO2
14926KSTC STC20011103182509711/03/01 18:25:31  5-MIN KSTC 040025Z AUTO 28005KT 10SM CLR 12/01 A3025 720 48 500 280/05 RMK AO2
14926KSTC STC20011103183009711/03/01 18:30:31  5-MIN KSTC 040030Z AUTO 28005KT 10SM CLR 11/01 A3025 720 50 500 280/05 RMK AO2
14926KSTC STC20011103183509711/03/01 18:35:31  5-MIN KSTC 040035Z AUTO 28005KT 10SM CLR 12/01 A3025 720 48 500 280/05 RMK AO2
14926KSTC STC20011103184009711/03/01 18:40:31  5-MIN KSTC 040040Z AUTO 28005KT 10SM CLR 11/02 A3025 720 52 500 270/05 RMK AO2
14926KSTC STC20011103184509711/03/01 18:45:31  5-MIN KSTC 040045Z AUTO 28005KT 10SM CLR 11/02 A3026 720 52 500 280/05 RMK AO2
14926KSTC STC20011103185011411/03/01 18:50:31  5-MIN KSTC 040050Z AUTO 28005KT 10SM CLR 11/01 A3026 720 50 500 280/05 RMK AO2 SLP263 T01110011
14926KSTC STC20011103185509711/03/01 18:55:31  5-MIN KSTC 040055Z AUTO 28005KT 10SM CLR 11/02 A3026 720 52 500 280/05 RMK AO2
14926KSTC STC20011103190009711/03/01 19:00:31  5-MIN KSTC 040100Z AUTO 28004KT 10SM CLR 11/01 A3026 720 50 500 280/04 RMK AO2
14926KSTC STC20011103190509711/03/01 19:05:31  5-MIN KSTC 040105Z AUTO 26003KT 10SM CLR 11/02 A3026 720 52 500 260/03 RMK AO2
14926KSTC STC20011103191009711/03/01 19:10:31  5-MIN KSTC 040110Z AUTO 26003KT 10SM CLR 11/02 A3026 720 54 400 260/03 RMK AO2
14926KSTC STC20011103191509711/03/01 19:15:31  5-MIN KSTC 040115Z AUTO 27004KT 10SM CLR 11/01 A3026 710 52 400 270/04 RMK AO2
14926KSTC STC20011103192009711/03/01 19:20:31  5-MIN KSTC 040120Z AUTO 26005KT 10SM CLR 11/02 A3026 710 54 400 260/05 RMK AO2
14926KSTC STC20011103192509711/03/01 19:25:31  5-MIN KSTC 040125Z AUTO 27004KT 10SM CLR 10/02 A3026 710 56 300 270/04 RMK AO2
14926KSTC STC20011103193009711/03/01 19:30:31  5-MIN KSTC 040130Z AUTO 27004KT 10SM CLR 11/02 A3026 710 54 400 260/04 RMK AO2
14926KSTC STC20011103193509711/03/01 19:35:31  5-MIN KSTC 040135Z AUTO 27004KT 10SM CLR 11/01 A3026 710 52 400 260/04 RMK AO2
14926KSTC STC20011103194009711/03/01 19:40:31  5-MIN KSTC 040140Z AUTO 26003KT 10SM CLR 11/02 A3026 710 54 400 260/03 RMK AO2
14926KSTC STC20011103194509711/03/01 19:45:31  5-MIN KSTC 040145Z AUTO 26003KT 10SM CLR 11/01 A3026 710 52 400 260/03 RMK AO2
14926KSTC STC20011103195011411/03/01 19:50:31  5-MIN KSTC 040150Z AUTO 25003KT 10SM CLR 11/02 A3026 710 54 400 240/03 RMK AO2 SLP265 T01060017
14926KSTC STC20011103195509711/03/01 19:55:31  5-MIN KSTC 040155Z AUTO 24003KT 10SM CLR 11/01 A3026 710 52 400 230/03 RMK AO2
14926KSTC STC20011103200009711/03/01 20:00:31  5-MIN KSTC 040200Z AUTO 24003KT 10SM CLR 11/01 A3026 710 52 400 240/03 RMK AO2
14926KSTC STC20011103200509711/03/01 20:05:31  5-MIN KSTC 040205Z AUTO 25003KT 10SM CLR 11/01 A3027 710 52 400 250/03 RMK AO2
14926KSTC STC20011103201009711/03/01 20:10:31  5-MIN KSTC 040210Z AUTO 25003KT 10SM CLR 11/01 A3027 710 52 400 250/03 RMK AO2
14926KSTC STC20011103201509711/03/01 20:15:31  5-MIN KSTC 040215Z AUTO 25003KT 10SM CLR 11/01 A3027 710 52 400 240/03 RMK AO2
14926KSTC STC20011103202009711/03/01 20:20:31  5-MIN KSTC 040220Z AUTO 25004KT 10SM CLR 10/01 A3027 710 54 300 250/04 RMK AO2
14926KSTC STC20011103202509711/03/01 20:25:31  5-MIN KSTC 040225Z AUTO 24005KT 10SM CLR 09/01 A3027 710 56 300 240/05 RMK AO2
14926KSTC STC20011103203009711/03/01 20:30:31  5-MIN KSTC 040230Z AUTO 25005KT 10SM CLR 08/01 A3027 710 58 100 240/05 RMK AO2
14926KSTC STC20011103203509511/03/01 20:35:31  5-MIN KSTC 040235Z AUTO 26005KT 10SM CLR 08/01 A3027 710 60 0 250/05 RMK AO2
14926KSTC STC20011103204009711/03/01 20:40:31  5-MIN KSTC 040240Z AUTO 26004KT 10SM CLR 08/01 A3027 700 58 100 260/04 RMK AO2
14926KSTC STC20011103204509711/03/01 20:45:31  5-MIN KSTC 040245Z AUTO 27004KT 10SM CLR 08/01 A3027 700 60 100 270/04 RMK AO2
14926KSTC STC20011103205012011/03/01 20:50:31  5-MIN KSTC 040250Z AUTO 27003KT 10SM CLR 09/01 A3027 700 58 200 270/03 RMK AO2 SLP267 T00890011 53006
14926KSTC STC20011103205509711/03/01 20:55:31  5-MIN KSTC 040255Z AUTO 00000KT 10SM CLR 09/01 A3027 700 58 200 000/00 RMK AO2
14926KSTC STC20011103210009711/03/01 21:00:31  5-MIN KSTC 040300Z AUTO 00000KT 10SM CLR 09/01 A3027 700 58 200 000/00 RMK AO2
14926KSTC STC20011103210509711/03/01 21:05:31  5-MIN KSTC 040305Z AUTO 00000KT 10SM CLR 09/01 A3027 700 58 200 000/00 RMK AO2
14926KSTC STC20011103211009711/03/01 21:10:31  5-MIN KSTC 040310Z AUTO 00000KT 10SM CLR 09/01 A3027 700 58 200 000/00 RMK AO2
14926KSTC STC20011103211509711/03/01 21:15:31  5-MIN KSTC 040315Z AUTO 00000KT 10SM CLR 09/01 A3028 700 58 200 000/00 RMK AO2
14926KSTC STC20011103212009511/03/01 21:20:31  5-MIN KSTC 040320Z AUTO 32003KT 10SM CLR 08/01 A3028 700 62 0 310/03 RMK AO2
14926KSTC STC20011103212509511/03/01 21:25:31  5-MIN KSTC 040325Z AUTO 00000KT 10SM CLR 07/01 A3028 700 67 0 000/00 RMK AO2
14926KSTC STC20011103213009511/03/01 21:30:31  5-MIN KSTC 040330Z AUTO 00000KT 10SM CLR 08/01 A3028 700 62 0 000/00 RMK AO2
14926KSTC STC20011103213509511/03/01 21:35:31  5-MIN KSTC 040335Z AUTO 00000KT 10SM CLR 07/01 A3028 700 65 0 000/00 RMK AO2
14926KSTC STC20011103214009511/03/01 21:40:31  5-MIN KSTC 040340Z AUTO 00000KT 10SM CLR 07/01 A3028 700 65 0 000/00 RMK AO2
14926KSTC STC20011103214509511/03/01 21:45:31  5-MIN KSTC 040345Z AUTO 00000KT 10SM CLR 07/01 A3028 700 65 0 000/00 RMK AO2
14926KSTC STC20011104193009611/04/01 19:30:31  5-MIN KSTC 050130Z AUTO 14006KT 10SM CLR 07/M03 A3028 700 51 0 130/06 RMK AO2
14926KSTC STC20011104193509611/04/01 19:35:31  5-MIN KSTC 050135Z AUTO 14007KT 10SM CLR 08/M03 A3027 700 45 0 130/07 RMK AO2
14926KSTC STC20011104194009811/04/01 19:40:31  5-MIN KSTC 050140Z AUTO 14007KT 10SM CLR 08/M03 A3027 700 43 100 130/07 RMK AO2
14926KSTC STC20011104194509811/04/01 19:45:31  5-MIN KSTC 050145Z AUTO 14007KT 10SM CLR 08/M03 A3027 700 43 100 130/07 RMK AO2
14926KSTC STC20011104195011511/04/01 19:50:31  5-MIN KSTC 050150Z AUTO 14007KT 10SM CLR 08/M03 A3027 710 43 100 140/07 RMK AO2 SLP269 T00831033
14926KSTC STC20011104195509811/04/01 19:55:31  5-MIN KSTC 050155Z AUTO 14008KT 10SM CLR 08/M03 A3027 710 43 100 130/08 RMK AO2
14926KSTC STC20011104200009811/04/01 20:00:31  5-MIN KSTC 050200Z AUTO 14008KT 10SM CLR 08/M03 A3027 710 43 100 130/08 RMK AO2
14926KSTC STC20011104200509811/04/01 20:05:31  5-MIN KSTC 050205Z AUTO 14007KT 10SM CLR 08/M03 A3026 710 43 100 140/07 RMK AO2
14926KSTC STC20011104201009811/04/01 20:10:31  5-MIN KSTC 050210Z AUTO 14008KT 10SM CLR 08/M03 A3026 710 43 100 140/08 RMK AO2
14926KSTC STC20011104201509811/04/01 20:15:31  5-MIN KSTC 050215Z AUTO 14008KT 10SM CLR 08/M03 A3026 710 45 100 140/08 RMK AO2
14926KSTC STC20011104202009811/04/01 20:20:31  5-MIN KSTC 050220Z AUTO 14008KT 10SM CLR 08/M03 A3026 710 43 100 140/08 RMK AO2
14926KSTC STC20011104202509811/04/01 20:25:31  5-MIN KSTC 050225Z AUTO 14008KT 10SM CLR 08/M03 A3026 710 43 100 130/08 RMK AO2
14926KSTC STC20011104203009811/04/01 20:30:31  5-MIN KSTC 050230Z AUTO 14007KT 10SM CLR 08/M03 A3026 710 45 100 140/07 RMK AO2
14926KSTC STC20011104203509811/04/01 20:35:31  5-MIN KSTC 050235Z AUTO 13008KT 10SM CLR 09/M03 A3026 710 43 200 130/08 RMK AO2
14926KSTC STC20011104204009811/04/01 20:40:31  5-MIN KSTC 050240Z AUTO 14008KT 10SM CLR 09/M03 A3026 710 42 200 140/08 RMK AO2
14926KSTC STC20011104204509811/04/01 20:45:31  5-MIN KSTC 050245Z AUTO 14008KT 10SM CLR 08/M03 A3026 710 45 100 130/08 RMK AO2
14926KSTC STC20011104205012111/04/01 20:50:31  5-MIN KSTC 050250Z AUTO 14007KT 10SM CLR 08/M03 A3026 710 45 100 130/07 RMK AO2 SLP263 T00831028 56008
14926KSTC STC20011104205509811/04/01 20:55:31  5-MIN KSTC 050255Z AUTO 14008KT 10SM CLR 08/M03 A3026 710 45 100 140/08 RMK AO2
14926KSTC STC20011104210009811/04/01 21:00:31  5-MIN KSTC 050300Z AUTO 14009KT 10SM CLR 08/M03 A3026 720 45 100 140/09 RMK AO2
14926KSTC STC20011104210509811/04/01 21:05:31  5-MIN KSTC 050305Z AUTO 14009KT 10SM CLR 08/M03 A3026 720 45 100 140/09 RMK AO2
14926KSTC STC20011104211009811/04/01 21:10:31  5-MIN KSTC 050310Z AUTO 14009KT 10SM CLR 08/M03 A3026 720 47 100 140/09 RMK AO2
14926KSTC STC20011104211509611/04/01 21:15:31  5-MIN KSTC 050315Z AUTO 14009KT 10SM CLR 07/M03 A3025 720 49 0 140/09 RMK AO2
14926KSTC STC20011104212009811/04/01 21:20:31  5-MIN KSTC 050320Z AUTO 14009KT 10SM CLR 08/M03 A3025 720 47 100 140/09 RMK AO2
14926KSTC STC20011104212509811/04/01 21:25:31  5-MIN KSTC 050325Z AUTO 14009KT 10SM CLR 08/M03 A3025 720 45 100 140/09 RMK AO2
14926KSTC STC20011104213009811/04/01 21:30:31  5-MIN KSTC 050330Z AUTO 14009KT 10SM CLR 08/M03 A3025 720 45 100 140/09 RMK AO2
14926KSTC STC20011104213509811/04/01 21:35:31  5-MIN KSTC 050335Z AUTO 14010KT 10SM CLR 08/M03 A3025 720 45 100 140/10 RMK AO2
14926KSTC STC20011104214009811/04/01 21:40:31  5-MIN KSTC 050340Z AUTO 14009KT 10SM CLR 08/M03 A3025 720 45 100 140/09 RMK AO2
14926KSTC STC20011104214509811/04/01 21:45:31  5-MIN KSTC 050345Z AUTO 14009KT 10SM CLR 08/M03 A3025 720 45 100 140/09 RMK AO2
14926KSTC STC20011104215011511/04/01 21:50:31  5-MIN KSTC 050350Z AUTO 14007KT 10SM CLR 08/M03 A3025 720 47 100 140/07 RMK AO2 SLP258 T00781028
14926KSTC STC20011104215509811/04/01 21:55:31  5-MIN KSTC 050355Z AUTO 14008KT 10SM CLR 08/M03 A3025 720 47 100 140/08 RMK AO2
14926KSTC STC20011104220009811/04/01 22:00:31  5-MIN KSTC 050400Z AUTO 14007KT 10SM CLR 08/M03 A3025 730 47 100 140/07 RMK AO2
14926KSTC STC20011104220509811/04/01 22:05:31  5-MIN KSTC 050405Z AUTO 14007KT 10SM CLR 08/M03 A3025 730 47 100 140/07 RMK AO2
14926KSTC STC20011104221009811/04/01 22:10:31  5-MIN KSTC 050410Z AUTO 14007KT 10SM CLR 08/M03 A3025 730 47 100 130/07 RMK AO2
14926KSTC STC20011104221509811/04/01 22:15:31  5-MIN KSTC 050415Z AUTO 14006KT 10SM CLR 08/M03 A3024 730 47 100 140/06 RMK AO2
14926KSTC STC20011104222009611/04/01 22:20:31  5-MIN KSTC 050420Z AUTO 14007KT 10SM CLR 07/M03 A3024 730 49 0 130/07 RMK AO2
14926KSTC STC20011104222509811/04/01 22:25:31  5-MIN KSTC 050425Z AUTO 14006KT 10SM CLR 08/M03 A3024 730 47 100 130/06 RMK AO2
14926KSTC STC20011104223009811/04/01 22:30:31  5-MIN KSTC 050430Z AUTO 14006KT 10SM CLR 08/M03 A3024 730 47 100 130/06 RMK AO2
14926KSTC STC20011104223509611/04/01 22:35:31  5-MIN KSTC 050435Z AUTO 13005KT 10SM CLR 07/M03 A3024 730 49 0 130/05 RMK AO2
14926KSTC STC20011104224009611/04/01 22:40:31  5-MIN KSTC 050440Z AUTO 13006KT 10SM CLR 07/M03 A3024 730 49 0 130/06 RMK AO2
14926KSTC STC20011104224509611/04/01 22:45:31  5-MIN KSTC 050445Z AUTO 14006KT 10SM CLR 07/M03 A3024 730 49 0 140/06 RMK AO2
14926KSTC STC20011104225011611/04/01 22:50:31  5-MIN KSTC 050450Z AUTO 14006KT 10SM CLR 06/M03 A3024 730 53 -100 140/06 RMK AO2 SLP254 T00611028
14926KSTC STC20011104225509911/04/01 22:55:31  5-MIN KSTC 050455Z AUTO 14007KT 10SM CLR 06/M02 A3024 730 57 -100 140/07 RMK AO2
14926KSTC STC20011104230009911/04/01 23:00:31  5-MIN KSTC 050500Z AUTO 14007KT 10SM CLR 06/M03 A3023 740 53 -100 140/07 RMK AO2
14926KSTC STC20011104230509911/04/01 23:05:31  5-MIN KSTC 050505Z AUTO 14007KT 10SM CLR 06/M02 A3023 740 57 -100 140/07 RMK AO2
14926KSTC STC20011104231009911/04/01 23:10:31  5-MIN KSTC 050510Z AUTO 14007KT 10SM CLR 06/M02 A3023 740 57 -100 140/07 RMK AO2
14926KSTC STC20011104231509911/04/01 23:15:31  5-MIN KSTC 050515Z AUTO 14007KT 10SM CLR 06/M02 A3023 740 57 -100 140/07 RMK AO2
14926KSTC STC20011104232009911/04/01 23:20:31  5-MIN KSTC 050520Z AUTO 14007KT 10SM CLR 06/M02 A3023 740 57 -100 140/07 RMK AO2
14926KSTC STC20011104232509911/04/01 23:25:31  5-MIN KSTC 050525Z AUTO 14007KT 10SM CLR 06/M02 A3023 740 55 -100 140/07 RMK AO2
14926KSTC STC20011104233009911/04/01 23:30:31  5-MIN KSTC 050530Z AUTO 14007KT 10SM CLR 06/M02 A3023 740 57 -100 140/07 RMK AO2
14926KSTC STC20011104233509911/04/01 23:35:31  5-MIN KSTC 050535Z AUTO 14006KT 10SM CLR 06/M02 A3023 740 57 -100 140/06 RMK AO2
14926KSTC STC20011104234009911/04/01 23:40:31  5-MIN KSTC 050540Z AUTO 15007KT 10SM CLR 06/M02 A3023 750 57 -100 140/07 RMK AO2
14926KSTC STC20011104234509911/04/01 23:45:31  5-MIN KSTC 050545Z AUTO 14007KT 10SM CLR 04/M02 A3022 750 62 -300 140/07 RMK AO2
14926KSTC STC20011104235014411/04/01 23:50:31  5-MIN KSTC 050550Z AUTO 14006KT 10SM CLR 04/M02 A3023 750 64 -300 140/06 RMK AO2 SLP250 T00391022 10089 20039 401441022 56012
14926KSTC STC20011104235509911/04/01 23:55:31  5-MIN KSTC 050555Z AUTO 14006KT 10SM CLR 05/M02 A3023 740 59 -200 140/06 RMK AO2
14926KSTC STC20011105000009911/05/01 00:00:31  5-MIN KSTC 050600Z AUTO 14007KT 10SM CLR 05/M02 A3022 750 59 -200 140/07 RMK AO2
14926KSTC STC20011105000509911/05/01 00:05:31  5-MIN KSTC 050605Z AUTO 14006KT 10SM CLR 05/M02 A3022 750 59 -200 140/06 RMK AO2
14926KSTC STC20011105001009911/05/01 00:10:31  5-MIN KSTC 050610Z AUTO 14006KT 10SM CLR 05/M02 A3022 750 59 -200 140/06 RMK AO2
14926KSTC STC20011105001509911/05/01 00:15:31  5-MIN KSTC 050615Z AUTO 14007KT 10SM CLR 04/M02 A3022 750 62 -300 140/07 RMK AO2
14926KSTC STC20011105002009911/05/01 00:20:31  5-MIN KSTC 050620Z AUTO 14007KT 10SM CLR 04/M02 A3022 750 62 -300 140/07 RMK AO2
14926KSTC STC20011105002509911/05/01 00:25:31  5-MIN KSTC 050625Z AUTO 14007KT 10SM CLR 05/M02 A3022 750 59 -200 140/07 RMK AO2
14926KSTC STC20011105003009911/05/01 00:30:31  5-MIN KSTC 050630Z AUTO 14007KT 10SM CLR 05/M02 A3022 750 59 -200 140/07 RMK AO2
14926KSTC STC20011105003509911/05/01 00:35:31  5-MIN KSTC 050635Z AUTO 14007KT 10SM CLR 05/M02 A3021 760 59 -200 140/07 RMK AO2
14926KSTC STC20011105004009911/05/01 00:40:31  5-MIN KSTC 050640Z AUTO 14008KT 10SM CLR 05/M02 A3021 760 59 -200 140/08 RMK AO2
14926KSTC STC20011105004509911/05/01 00:45:31  5-MIN KSTC 050645Z AUTO 14008KT 10SM CLR 05/M02 A3021 760 59 -200 140/08 RMK AO2
14926KSTC STC20011105005011611/05/01 00:50:31  5-MIN KSTC 050650Z AUTO 14008KT 10SM CLR 04/M02 A3021 760 62 -200 140/08 RMK AO2 SLP244 T00441022
14926KSTC STC20011105005509911/05/01 00:55:31  5-MIN KSTC 050655Z AUTO 14008KT 10SM CLR 05/M02 A3021 760 59 -200 140/08 RMK AO2
14926KSTC STC20011105010009911/05/01 01:00:31  5-MIN KSTC 050700Z AUTO 14008KT 10SM CLR 06/M02 A3021 760 57 -100 140/08 RMK AO2
14926KSTC STC20011105010509911/05/01 01:05:31  5-MIN KSTC 050705Z AUTO 14007KT 10SM CLR 06/M02 A3020 770 57 -100 140/07 RMK AO2
14926KSTC STC20011105011009911/05/01 01:10:31  5-MIN KSTC 050710Z AUTO 14007KT 10SM CLR 06/M02 A3020 770 57 -100 140/07 RMK AO2
14926KSTC STC20011105011509911/05/01 01:15:31  5-MIN KSTC 050715Z AUTO 14007KT 10SM CLR 05/M02 A3020 770 59 -200 140/07 RMK AO2
14926KSTC STC20011105012009911/05/01 01:20:31  5-MIN KSTC 050720Z AUTO 14007KT 10SM CLR 04/M02 A3020 770 62 -200 140/07 RMK AO2
14926KSTC STC20011105012509911/05/01 01:25:31  5-MIN KSTC 050725Z AUTO 14008KT 10SM CLR 05/M02 A3020 770 59 -200 140/08 RMK AO2
14926KSTC STC20011105013009911/05/01 01:30:31  5-MIN KSTC 050730Z AUTO 15007KT 10SM CLR 04/M02 A3020 770 62 -200 140/07 RMK AO2
14926KSTC STC20011105013509911/05/01 01:35:31  5-MIN KSTC 050735Z AUTO 15008KT 10SM CLR 04/M02 A3019 770 64 -300 140/08 RMK AO2
14926KSTC STC20011105014009911/05/01 01:40:31  5-MIN KSTC 050740Z AUTO 15008KT 10SM CLR 04/M02 A3019 770 62 -200 140/08 RMK AO2
14926KSTC STC20011105014509911/05/01 01:45:31  5-MIN KSTC 050745Z AUTO 15008KT 10SM CLR 05/M02 A3019 780 59 -200 140/08 RMK AO2
14926KSTC STC20011105015011611/05/01 01:50:31  5-MIN KSTC 050750Z AUTO 15007KT 10SM CLR 05/M02 A3019 780 59 -200 140/07 RMK AO2 SLP237 T00501022
14926KSTC STC20011105015509911/05/01 01:55:31  5-MIN KSTC 050755Z AUTO 15008KT 10SM CLR 05/M02 A3019 780 59 -100 150/08 RMK AO2
14926KSTC STC20011105020009911/05/01 02:00:31  5-MIN KSTC 050800Z AUTO 16008KT 10SM CLR 05/M02 A3019 780 59 -100 150/08 RMK AO2
14926KSTC STC20011105020509911/05/01 02:05:31  5-MIN KSTC 050805Z AUTO 16009KT 10SM CLR 05/M02 A3019 780 59 -100 160/09 RMK AO2
14926KSTC STC20011105021009911/05/01 02:10:31  5-MIN KSTC 050810Z AUTO 16008KT 10SM CLR 05/M02 A3018 780 62 -100 160/08 RMK AO2
14926KSTC STC20011105021509611/05/01 02:15:31  5-MIN KSTC 050815Z AUTO 17009KT 10SM CLR 06/M02 A3018 780 57 0 160/09 RMK AO2
14926KSTC STC20011105022009611/05/01 02:20:31  5-MIN KSTC 050820Z AUTO 17009KT 10SM CLR 07/M02 A3018 780 55 0 170/09 RMK AO2
14926KSTC STC20011105022509811/05/01 02:25:31  5-MIN KSTC 050825Z AUTO 17009KT 10SM CLR 07/M02 A3018 790 53 100 170/09 RMK AO2
14926KSTC STC20011105023009811/05/01 02:30:31  5-MIN KSTC 050830Z AUTO 17009KT 10SM CLR 07/M01 A3018 790 55 100 170/09 RMK AO2
14926KSTC STC20011105023509811/05/01 02:35:31  5-MIN KSTC 050835Z AUTO 18010KT 10SM CLR 08/M02 A3018 790 51 100 170/10 RMK AO2
14926KSTC STC20011105024009811/05/01 02:40:31  5-MIN KSTC 050840Z AUTO 18011KT 10SM CLR 08/M01 A3018 790 53 100 180/11 RMK AO2
14926KSTC STC20011105024509811/05/01 02:45:31  5-MIN KSTC 050845Z AUTO 18011KT 10SM CLR 08/M01 A3018 790 53 100 170/11 RMK AO2
14926KSTC STC20011105025012111/05/01 02:50:31  5-MIN KSTC 050850Z AUTO 18010KT 10SM CLR 08/M01 A3018 790 53 100 170/10 RMK AO2 SLP232 T00781011 56012
14926KSTC STC20011105025509811/05/01 02:55:31  5-MIN KSTC 050855Z AUTO 17011KT 10SM CLR 07/M01 A3018 790 55 100 170/11 RMK AO2
14926KSTC STC20011105030009811/05/01 03:00:31  5-MIN KSTC 050900Z AUTO 17011KT 10SM CLR 08/M01 A3018 790 53 200 170/11 RMK AO2
14926KSTC STC20011105030509811/05/01 03:05:31  5-MIN KSTC 050905Z AUTO 17011KT 10SM CLR 08/M01 A3017 790 53 200 170/11 RMK AO2
14926KSTC STC20011105031009811/05/01 03:10:31  5-MIN KSTC 050910Z AUTO 17011KT 10SM CLR 07/M01 A3017 790 55 100 170/11 RMK AO2
14926KSTC STC20011105031509811/05/01 03:15:31  5-MIN KSTC 050915Z AUTO 17009KT 10SM CLR 07/M01 A3017 790 55 100 170/09 RMK AO2
14926KSTC STC20011105032009811/05/01 03:20:31  5-MIN KSTC 050920Z AUTO 17010KT 10SM CLR 07/M01 A3017 790 57 100 170/10 RMK AO2
14926KSTC STC20011105032509811/05/01 03:25:31  5-MIN KSTC 050925Z AUTO 17009KT 10SM CLR 07/M01 A3017 790 57 100 170/09 RMK AO2
14926KSTC STC20011105033009811/05/01 03:30:31  5-MIN KSTC 050930Z AUTO 17009KT 10SM CLR 07/M01 A3017 800 57 100 170/09 RMK AO2
14926KSTC STC20011105033509811/05/01 03:35:31  5-MIN KSTC 050935Z AUTO 17010KT 10SM CLR 07/M01 A3017 800 57 100 170/10 RMK AO2
14926KSTC STC20011105034009811/05/01 03:40:31  5-MIN KSTC 050940Z AUTO 17009KT 10SM CLR 07/M01 A3017 800 57 100 170/09 RMK AO2
14926KSTC STC20011105034509811/05/01 03:45:31  5-MIN KSTC 050945Z AUTO 17010KT 10SM CLR 07/M01 A3017 800 57 100 170/10 RMK AO2
14926KSTC STC20011105035011511/05/01 03:50:31  5-MIN KSTC 050950Z AUTO 17009KT 10SM CLR 07/M01 A3017 800 57 100 160/09 RMK AO2 SLP229 T00721006
14926KSTC STC20011105035509611/05/01 03:55:31  5-MIN KSTC 050955Z AUTO 16008KT 10SM CLR 07/M01 A3017 800 60 0 160/08 RMK AO2
14926KSTC STC20011105040009611/05/01 04:00:31  5-MIN KSTC 051000Z AUTO 16008KT 10SM CLR 06/M01 A3017 800 62 0 160/08 RMK AO2
14926KSTC STC20011105040509511/05/01 04:05:31  5-MIN KSTC 051005Z AUTO 16008KT 10SM CLR 06/00 A3017 800 65 0 160/08 RMK AO2
14926KSTC STC20011105041009811/05/01 04:10:31  5-MIN KSTC 051010Z AUTO 16008KT 10SM CLR 06/00 A3017 800 67 -100 160/08 RMK AO2
14926KSTC STC20011105041509811/05/01 04:15:31  5-MIN KSTC 051015Z AUTO 16008KT 10SM CLR 06/00 A3017 800 67 -100 160/08 RMK AO2
14926KSTC STC20011105042009811/05/01 04:20:31  5-MIN KSTC 051020Z AUTO 16008KT 10SM CLR 05/00 A3016 800 70 -100 160/08 RMK AO2
14926KSTC STC20011105042509811/05/01 04:25:31  5-MIN KSTC 051025Z AUTO 16008KT 10SM CLR 05/00 A3016 800 70 -100 160/08 RMK AO2
14926KSTC STC20011105043009811/05/01 04:30:31  5-MIN KSTC 051030Z AUTO 16007KT 10SM CLR 05/00 A3016 800 70 -100 160/07 RMK AO2
14926KSTC STC20011105043509811/05/01 04:35:31  5-MIN KSTC 051035Z AUTO 16007KT 10SM CLR 05/00 A3016 810 70 -100 160/07 RMK AO2
14926KSTC STC20011105044009811/05/01 04:40:31  5-MIN KSTC 051040Z AUTO 16008KT 10SM CLR 05/00 A3016 810 70 -100 160/08 RMK AO2
14926KSTC STC20011105044509811/05/01 04:45:31  5-MIN KSTC 051045Z AUTO 16007KT 10SM CLR 05/00 A3016 810 70 -100 160/07 RMK AO2
14926KSTC STC20011105045011511/05/01 04:50:31  5-MIN KSTC 051050Z AUTO 16007KT 10SM CLR 05/00 A3016 810 70 -100 160/07 RMK AO2 SLP227 T00500000
14926KSTC STC20011105045509811/05/01 04:55:31  5-MIN KSTC 051055Z AUTO 16007KT 10SM CLR 05/00 A3016 810 70 -100 160/07 RMK AO2
14926KSTC STC20011105050009811/05/01 05:00:31  5-MIN KSTC 051100Z AUTO 16007KT 10SM CLR 05/00 A3016 810 70 -100 160/07 RMK AO2
14926KSTC STC20011105050509811/05/01 05:05:31  5-MIN KSTC 051105Z AUTO 16008KT 10SM CLR 05/00 A3015 810 70 -100 160/08 RMK AO2
14926KSTC STC20011105051009811/05/01 05:10:31  5-MIN KSTC 051110Z AUTO 16008KT 10SM CLR 04/01 A3015 810 76 -200 160/08 RMK AO2
14926KSTC STC20011105051509811/05/01 05:15:31  5-MIN KSTC 051115Z AUTO 16008KT 10SM CLR 04/01 A3015 820 76 -200 160/08 RMK AO2
14926KSTC STC20011105052009811/05/01 05:20:31  5-MIN KSTC 051120Z AUTO 16008KT 10SM CLR 04/01 A3015 820 76 -200 160/08 RMK AO2
14926KSTC STC20011105052509811/05/01 05:25:31  5-MIN KSTC 051125Z AUTO 16008KT 10SM CLR 04/01 A3015 820 76 -200 150/08 RMK AO2
14926KSTC STC20011105053009811/05/01 05:30:31  5-MIN KSTC 051130Z AUTO 16008KT 10SM CLR 04/01 A3015 820 76 -200 160/08 RMK AO2
14926KSTC STC20011105053509811/05/01 05:35:31  5-MIN KSTC 051135Z AUTO 16008KT 10SM CLR 05/01 A3015 820 73 -100 160/08 RMK AO2
14926KSTC STC20011105054009811/05/01 05:40:31  5-MIN KSTC 051140Z AUTO 16008KT 10SM CLR 05/01 A3015 820 73 -100 160/08 RMK AO2
14926KSTC STC20011105054509811/05/01 05:45:31  5-MIN KSTC 051145Z AUTO 16007KT 10SM CLR 04/01 A3015 820 76 -200 160/07 RMK AO2
14926KSTC STC20011105055013311/05/01 05:50:31  5-MIN KSTC 051150Z AUTO 16007KT 10SM CLR 04/01 A3015 820 76 -200 160/07 RMK AO2 SLP224 T00440006 10078 20039 56016
14926KSTC STC20011105055509811/05/01 05:55:31  5-MIN KSTC 051155Z AUTO 16007KT 10SM CLR 04/01 A3014 820 76 -200 160/07 RMK AO2
14926KSTC STC20011105060009811/05/01 06:00:31  5-MIN KSTC 051200Z AUTO 16008KT 10SM CLR 04/01 A3014 820 76 -200 150/08 RMK AO2
14926KSTC STC20011105060509811/05/01 06:05:31  5-MIN KSTC 051205Z AUTO 15008KT 10SM CLR 05/01 A3014 820 73 -100 150/08 RMK AO2
14926KSTC STC20011105061009811/05/01 06:10:31  5-MIN KSTC 051210Z AUTO 16008KT 10SM CLR 04/01 A3014 820 76 -200 150/08 RMK AO2
14926KSTC STC20011105061509811/05/01 06:15:31  5-MIN KSTC 051215Z AUTO 16008KT 10SM CLR 04/01 A3014 830 79 -200 150/08 RMK AO2
14926KSTC STC20011105062009811/05/01 06:20:31  5-MIN KSTC 051220Z AUTO 15008KT 10SM CLR 04/01 A3014 830 76 -200 150/08 RMK AO2
14926KSTC STC20011105062509811/05/01 06:25:31  5-MIN KSTC 051225Z AUTO 15008KT 10SM CLR 04/01 A3013 830 76 -200 150/08 RMK AO2
14926KSTC STC20011105063009811/05/01 06:30:31  5-MIN KSTC 051230Z AUTO 15007KT 10SM CLR 04/01 A3013 830 76 -200 150/07 RMK AO2
14926KSTC STC20011105063509811/05/01 06:35:31  5-MIN KSTC 051235Z AUTO 16008KT 10SM CLR 04/01 A3013 830 76 -200 150/08 RMK AO2
14926KSTC STC20011105064009811/05/01 06:40:31  5-MIN KSTC 051240Z AUTO 16008KT 10SM CLR 04/01 A3013 830 79 -200 150/08 RMK AO2
14926KSTC STC20011105064509811/05/01 06:45:31  5-MIN KSTC 051245Z AUTO 16008KT 10SM CLR 04/01 A3013 830 79 -200 150/08 RMK AO2
14926KSTC STC20011105065011511/05/01 06:50:31  5-MIN KSTC 051250Z AUTO 16008KT 10SM CLR 04/01 A3013 830 76 -200 150/08 RMK AO2 SLP219 T00440006
14926KSTC STC20011105065509811/05/01 06:55:31  5-MIN KSTC 051255Z AUTO 16008KT 10SM CLR 04/01 A3013 830 79 -200 160/08 RMK AO2
14926KSTC STC20011105070009811/05/01 07:00:31  5-MIN KSTC 051300Z AUTO 16008KT 10SM CLR 04/01 A3013 830 79 -200 160/08 RMK AO2
14926KSTC STC20011105070509811/05/01 07:05:31  5-MIN KSTC 051305Z AUTO 16008KT 10SM CLR 04/01 A3013 840 79 -200 160/08 RMK AO2
14926KSTC STC20011105071009811/05/01 07:10:31  5-MIN KSTC 051310Z AUTO 16008KT 10SM CLR 04/01 A3013 840 79 -200 150/08 RMK AO2
14926KSTC STC20011105071509811/05/01 07:15:31  5-MIN KSTC 051315Z AUTO 16009KT 10SM CLR 04/01 A3013 840 79 -100 160/09 RMK AO2
14926KSTC STC20011105072009811/05/01 07:20:31  5-MIN KSTC 051320Z AUTO 16008KT 10SM CLR 04/01 A3013 840 79 -100 160/08 RMK AO2
14926KSTC STC20011105072509811/05/01 07:25:31  5-MIN KSTC 051325Z AUTO 16007KT 10SM CLR 05/01 A3013 840 76 -100 160/07 RMK AO2
14926KSTC STC20011105073509511/05/01 07:35:31  5-MIN KSTC 051335Z AUTO 16008KT 10SM CLR 06/01 A3012 840 73 0 160/08 RMK AO2
14926KSTC STC20011105074009511/05/01 07:40:31  5-MIN KSTC 051340Z AUTO 17008KT 10SM CLR 06/01 A3012 840 73 0 160/08 RMK AO2
14926KSTC STC20011105074509511/05/01 07:45:31  5-MIN KSTC 051345Z AUTO 17007KT 10SM CLR 06/02 A3012 840 73 0 170/07 RMK AO2
14926KSTC STC20011105075011411/05/01 07:50:31  5-MIN KSTC 051350Z AUTO 17009KT 10SM CLR 07/02 A3012 840 70 100 170/09 RMK AO2 SLP215 T00670017
14926KSTC STC20011105075509711/05/01 07:55:31  5-MIN KSTC 051355Z AUTO 17009KT 10SM CLR 07/02 A3012 840 70 100 170/09 RMK AO2
14926KSTC STC20011105080009711/05/01 08:00:31  5-MIN KSTC 051400Z AUTO 18009KT 10SM CLR 07/02 A3012 840 68 100 170/09 RMK AO2
14926KSTC STC20011105080509711/05/01 08:05:31  5-MIN KSTC 051405Z AUTO 18010KT 10SM CLR 07/02 A3012 840 68 100 170/10 RMK AO2
14926KSTC STC20011105081009711/05/01 08:10:31  5-MIN KSTC 051410Z AUTO 18010KT 10SM CLR 08/02 A3013 840 65 200 180/10 RMK AO2
14926KSTC STC20011105081509711/05/01 08:15:31  5-MIN KSTC 051415Z AUTO 18009KT 10SM CLR 08/02 A3012 840 65 200 170/09 RMK AO2
14926KSTC STC20011105082009711/05/01 08:20:31  5-MIN KSTC 051420Z AUTO 17011KT 10SM CLR 08/02 A3012 840 63 300 170/11 RMK AO2
14926KSTC STC20011105082509711/05/01 08:25:31  5-MIN KSTC 051425Z AUTO 17010KT 10SM CLR 08/02 A3012 840 63 300 170/10 RMK AO2
14926KSTC STC20011105083009711/05/01 08:30:31  5-MIN KSTC 051430Z AUTO 18010KT 10SM CLR 08/02 A3012 840 63 300 180/10 RMK AO2
14926KSTC STC20011105083509711/05/01 08:35:31  5-MIN KSTC 051435Z AUTO 17011KT 10SM CLR 09/02 A3012 840 60 300 170/11 RMK AO2
14926KSTC STC20011105084009711/05/01 08:40:31  5-MIN KSTC 051440Z AUTO 18010KT 10SM CLR 09/02 A3012 840 60 300 180/10 RMK AO2
14926KSTC STC20011105084510311/05/01 08:45:31  5-MIN KSTC 051445Z AUTO 19012G17KT 10SM CLR 09/02 A3012 840 58 400 180/12G17 RMK AO2
14926KSTC STC20011105085012611/05/01 08:50:31  5-MIN KSTC 051450Z AUTO 18009G17KT 10SM CLR 09/02 A3012 840 60 400 180/09G17 RMK AO2 SLP214 T00940022 58010
14926KSTC STC20011105085509711/05/01 08:55:31  5-MIN KSTC 051455Z AUTO 18010KT 10SM CLR 10/02 A3012 840 58 500 180/10 RMK AO2
14926KSTC STC20011105090009711/05/01 09:00:31  5-MIN KSTC 051500Z AUTO 18010KT 10SM CLR 10/02 A3012 840 58 500 180/10 RMK AO2
14926KSTC STC20011105090509711/05/01 09:05:31  5-MIN KSTC 051505Z AUTO 18011KT 10SM CLR 11/02 A3012 840 56 600 180/11 RMK AO2
14926KSTC STC20011105091009711/05/01 09:10:31  5-MIN KSTC 051510Z AUTO 18011KT 10SM CLR 11/02 A3012 840 56 600 180/11 RMK AO2
14926KSTC STC20011105091509711/05/01 09:15:31  5-MIN KSTC 051515Z AUTO 18010KT 10SM CLR 11/02 A3012 850 54 600 180/10 RMK AO2
14926KSTC STC20011105092009711/05/01 09:20:31  5-MIN KSTC 051520Z AUTO 19012KT 10SM CLR 11/02 A3011 850 54 600 190/12 RMK AO2
14926KSTC STC20011105092509711/05/01 09:25:31  5-MIN KSTC 051525Z AUTO 18010KT 10SM CLR 12/02 A3011 850 52 700 180/10 RMK AO2
14926KSTC STC20011105093009711/05/01 09:30:31  5-MIN KSTC 051530Z AUTO 19011KT 10SM CLR 12/02 A3011 850 52 700 180/11 RMK AO2
14926KSTC STC20011105093509711/05/01 09:35:31  5-MIN KSTC 051535Z AUTO 18009KT 10SM CLR 12/02 A3011 850 50 800 180/09 RMK AO2
14926KSTC STC20011105094009711/05/01 09:40:31  5-MIN KSTC 051540Z AUTO 18010KT 10SM CLR 12/02 A3011 850 50 800 180/10 RMK AO2
14926KSTC STC20011105094509711/05/01 09:45:31  5-MIN KSTC 051545Z AUTO 19010KT 10SM CLR 13/02 A3011 850 48 800 180/10 RMK AO2
14926KSTC STC20011105095011411/05/01 09:50:31  5-MIN KSTC 051550Z AUTO 18010KT 10SM CLR 13/02 A3010 860 46 900 170/10 RMK AO2 SLP206 T01330022
14926KSTC STC20011105095509811/05/01 09:55:31  5-MIN KSTC 051555Z AUTO 19011KT 10SM CLR 14/02 A3010 860 45 1000 180/11 RMK AO2
14926KSTC STC20011105100009811/05/01 10:00:31  5-MIN KSTC 051600Z AUTO 18014KT 10SM CLR 14/02 A3010 860 45 1000 180/14 RMK AO2
14926KSTC STC20011105100509811/05/01 10:05:31  5-MIN KSTC 051605Z AUTO 19015KT 10SM CLR 14/02 A3010 860 43 1000 190/15 RMK AO2
14926KSTC STC20011105101009811/05/01 10:10:31  5-MIN KSTC 051610Z AUTO 19013KT 10SM CLR 14/02 A3010 860 43 1000 180/13 RMK AO2
14926KSTC STC20011105101509811/05/01 10:15:31  5-MIN KSTC 051615Z AUTO 19015KT 10SM CLR 15/02 A3010 860 42 1100 180/15 RMK AO2
14926KSTC STC20011105102009811/05/01 10:20:31  5-MIN KSTC 051620Z AUTO 19014KT 10SM CLR 15/02 A3009 870 42 1100 190/14 RMK AO2
14926KSTC STC20011105102509811/05/01 10:25:31  5-MIN KSTC 051625Z AUTO 19015KT 10SM CLR 16/02 A3009 870 40 1200 180/15 RMK AO2
14926KSTC STC20011105103009811/05/01 10:30:31  5-MIN KSTC 051630Z AUTO 19017KT 10SM CLR 16/02 A3009 870 40 1200 190/17 RMK AO2
14926KSTC STC20011105103509811/05/01 10:35:31  5-MIN KSTC 051635Z AUTO 18014KT 10SM CLR 16/02 A3009 870 39 1200 180/14 RMK AO2
14926KSTC STC20011105104009811/05/01 10:40:31  5-MIN KSTC 051640Z AUTO 19016KT 10SM CLR 16/02 A3009 870 39 1200 180/16 RMK AO2
14926KSTC STC20011105104509811/05/01 10:45:31  5-MIN KSTC 051645Z AUTO 18016KT 10SM CLR 17/02 A3008 870 37 1300 180/16 RMK AO2
14926KSTC STC20011105105011511/05/01 10:50:31  5-MIN KSTC 051650Z AUTO 18015KT 10SM CLR 17/02 A3008 880 37 1300 180/15 RMK AO2 SLP197 T01670022
14926KSTC STC20011105105509811/05/01 10:55:31  5-MIN KSTC 051655Z AUTO 18015KT 10SM CLR 17/02 A3008 880 36 1400 180/15 RMK AO2
14926KSTC STC20011105110009811/05/01 11:00:31  5-MIN KSTC 051700Z AUTO 18015KT 10SM CLR 17/02 A3008 880 36 1400 180/15 RMK AO2
14926KSTC STC20011105110510411/05/01 11:05:31  5-MIN KSTC 051705Z AUTO 19016G21KT 10SM CLR 17/02 A3007 880 36 1400 190/16G21 RMK AO2
14926KSTC STC20011105111009811/05/01 11:10:31  5-MIN KSTC 051710Z AUTO 19018KT 10SM CLR 18/03 A3007 890 36 1500 180/18 RMK AO2
14926KSTC STC20011105111509811/05/01 11:15:31  5-MIN KSTC 051715Z AUTO 19016KT 10SM CLR 18/03 A3007 890 36 1500 180/16 RMK AO2
14926KSTC STC20011105112010411/05/01 11:20:31  5-MIN KSTC 051720Z AUTO 19016G23KT 10SM CLR 18/03 A3007 890 36 1500 180/16G23 RMK AO2
14926KSTC STC20011105112510411/05/01 11:25:31  5-MIN KSTC 051725Z AUTO 20017G23KT 10SM CLR 18/03 A3007 890 35 1500 200/17G23 RMK AO2
14926KSTC STC20011105113010411/05/01 11:30:31  5-MIN KSTC 051730Z AUTO 19019G24KT 10SM CLR 18/03 A3006 890 36 1500 190/19G24 RMK AO2
14926KSTC STC20011105113510411/05/01 11:35:31  5-MIN KSTC 051735Z AUTO 19018G24KT 10SM CLR 18/03 A3006 900 36 1500 190/18G24 RMK AO2
14926KSTC STC20011105114010411/05/01 11:40:31  5-MIN KSTC 051740Z AUTO 19016G22KT 10SM CLR 19/03 A3006 900 35 1600 180/16G22 RMK AO2
14926KSTC STC20011105114510411/05/01 11:45:31  5-MIN KSTC 051745Z AUTO 19018G22KT 10SM CLR 19/03 A3005 910 35 1600 180/18G22 RMK AO2
14926KSTC STC20011105115013311/05/01 11:50:31  5-MIN KSTC 051750Z AUTO 19017KT 10SM CLR 19/04 A3005 910 36 1600 180/17 RMK AO2 SLP187 T01890039 10189 20039 56007
14926KSTC STC20011105115509811/05/01 11:55:31  5-MIN KSTC 051755Z AUTO 19018KT 10SM CLR 19/04 A3005 910 36 1600 190/18 RMK AO2
14926KSTC STC20011105120009811/05/01 12:00:31  5-MIN KSTC 051800Z AUTO 19016KT 10SM CLR 19/04 A3004 910 36 1600 190/16 RMK AO2
14926KSTC STC20011105120509811/05/01 12:05:31  5-MIN KSTC 051805Z AUTO 19017KT 10SM CLR 19/04 A3004 920 36 1600 190/17 RMK AO2
14926KSTC STC20011105121009811/05/01 12:10:31  5-MIN KSTC 051810Z AUTO 19015KT 10SM CLR 19/04 A3004 920 35 1700 190/15 RMK AO2
14926KSTC STC20011105121509811/05/01 12:15:31  5-MIN KSTC 051815Z AUTO 19016KT 10SM CLR 19/04 A3004 920 37 1700 180/16 RMK AO2
14926KSTC STC20011105122010411/05/01 12:20:31  5-MIN KSTC 051820Z AUTO 20016G21KT 10SM CLR 20/04 A3003 920 35 1800 200/16G21 RMK AO2
14926KSTC STC20011105122510411/05/01 12:25:31  5-MIN KSTC 051825Z AUTO 19017G21KT 10SM CLR 20/04 A3003 920 35 1800 180/17G21 RMK AO2
14926KSTC STC20011105123010411/05/01 12:30:31  5-MIN KSTC 051830Z AUTO 19015G21KT 10SM CLR 20/05 A3003 920 37 1800 190/15G21 RMK AO2
14926KSTC STC20011105123510411/05/01 12:35:31  5-MIN KSTC 051835Z AUTO 18018G22KT 10SM CLR 20/05 A3003 930 37 1800 180/18G22 RMK AO2
14926KSTC STC20011105124009811/05/01 12:40:31  5-MIN KSTC 051840Z AUTO 18016KT 10SM CLR 21/05 A3003 930 35 1800 180/16 RMK AO2
14926KSTC STC20011105124510411/05/01 12:45:31  5-MIN KSTC 051845Z AUTO 19018G22KT 10SM CLR 21/05 A3002 930 35 1800 190/18G22 RMK AO2
14926KSTC STC20011105125012111/05/01 12:50:31  5-MIN KSTC 051850Z AUTO 19017G22KT 10SM CLR 21/06 A3002 930 37 1800 190/17G22 RMK AO2 SLP176 T02060056
14926KSTC STC20011105125510411/05/01 12:55:31  5-MIN KSTC 051855Z AUTO 18016G22KT 10SM CLR 21/06 A3002 930 37 1800 180/16G22 RMK AO2
14926KSTC STC20011105130010411/05/01 13:00:31  5-MIN KSTC 051900Z AUTO 19017G22KT 10SM CLR 21/06 A3002 940 37 1800 190/17G22 RMK AO2
14926KSTC STC20011105130510411/05/01 13:05:31  5-MIN KSTC 051905Z AUTO 19018G24KT 10SM CLR 21/06 A3002 940 38 1800 190/18G24 RMK AO2
14926KSTC STC20011105131010411/05/01 13:10:31  5-MIN KSTC 051910Z AUTO 20015G24KT 10SM CLR 21/06 A3001 940 38 1800 190/15G24 RMK AO2
14926KSTC STC20011105131510411/05/01 13:15:31  5-MIN KSTC 051915Z AUTO 19019G23KT 10SM CLR 21/06 A3001 940 38 1800 190/19G23 RMK AO2
14926KSTC STC20011105132010411/05/01 13:20:31  5-MIN KSTC 051920Z AUTO 18016G23KT 10SM CLR 21/06 A3001 940 38 1800 180/16G23 RMK AO2
14926KSTC STC20011105132509811/05/01 13:25:31  5-MIN KSTC 051925Z AUTO 18018KT 10SM CLR 21/06 A3001 950 38 1900 180/18 RMK AO2
14926KSTC STC20011105133009811/05/01 13:30:31  5-MIN KSTC 051930Z AUTO 18017KT 10SM CLR 21/07 A3000 950 38 1900 180/17 RMK AO2
14926KSTC STC20011105133509811/05/01 13:35:31  5-MIN KSTC 051935Z AUTO 18018KT 10SM CLR 21/07 A3000 950 38 1900 180/18 RMK AO2
14926KSTC STC20011105134009811/05/01 13:40:31  5-MIN KSTC 051940Z AUTO 19016KT 10SM CLR 21/07 A2999 960 38 1900 190/16 RMK AO2
14926KSTC STC20011105134509811/05/01 13:45:31  5-MIN KSTC 051945Z AUTO 18018KT 10SM CLR 21/07 A2999 960 38 1900 180/18 RMK AO2
14926KSTC STC20011105135011511/05/01 13:50:31  5-MIN KSTC 051950Z AUTO 19016KT 10SM CLR 21/07 A2999 960 40 1900 190/16 RMK AO2 SLP166 T02110072
14926KSTC STC20011105135510411/05/01 13:55:31  5-MIN KSTC 051955Z AUTO 18018G21KT 10SM CLR 21/07 A2999 960 40 1900 180/18G21 RMK AO2
14926KSTC STC20011105140010411/05/01 14:00:31  5-MIN KSTC 052000Z AUTO 19016G21KT 10SM CLR 21/07 A2999 960 40 1900 180/16G21 RMK AO2
14926KSTC STC20011105140509811/05/01 14:05:31  5-MIN KSTC 052005Z AUTO 19016KT 10SM CLR 21/07 A2998 970 40 1900 190/16 RMK AO2
14926KSTC STC20011105141010411/05/01 14:10:31  5-MIN KSTC 052010Z AUTO 19015G20KT 10SM CLR 22/07 A2998 970 39 2000 190/15G20 RMK AO2
14926KSTC STC20011105141510411/05/01 14:15:31  5-MIN KSTC 052015Z AUTO 19017G21KT 10SM CLR 21/07 A2998 980 40 2000 180/17G21 RMK AO2
14926KSTC STC20011105142009811/05/01 14:20:31  5-MIN KSTC 052020Z AUTO 18017KT 10SM CLR 21/07 A2997 980 40 2000 180/17 RMK AO2
14926KSTC STC20011105142509811/05/01 14:25:31  5-MIN KSTC 052025Z AUTO 18015KT 10SM CLR 21/08 A2997 980 42 2000 180/15 RMK AO2
14926KSTC STC20011105143009811/05/01 14:30:31  5-MIN KSTC 052030Z AUTO 19015KT 10SM CLR 22/08 A2997 980 40 2000 180/15 RMK AO2
14926KSTC STC20011105143510411/05/01 14:35:31  5-MIN KSTC 052035Z AUTO 19017G22KT 10SM CLR 22/08 A2997 980 40 2000 180/17G22 RMK AO2
14926KSTC STC20011105144009811/05/01 14:40:31  5-MIN KSTC 052040Z AUTO 19016KT 10SM CLR 22/08 A2997 980 40 2000 190/16 RMK AO2
14926KSTC STC20011105144510411/05/01 14:45:31  5-MIN KSTC 052045Z AUTO 19016G22KT 10SM CLR 22/08 A2997 980 40 2000 190/16G22 RMK AO2
14926KSTC STC20011105145012711/05/01 14:50:31  5-MIN KSTC 052050Z AUTO 19020G24KT 10SM CLR 22/08 A2997 980 40 2000 190/20G24 RMK AO2 SLP157 T02170078 58024
14926KSTC STC20011105145510411/05/01 14:55:31  5-MIN KSTC 052055Z AUTO 19018G25KT 10SM CLR 22/08 A2997 980 42 2000 180/18G25 RMK AO2
14926KSTC STC20011105150010411/05/01 15:00:31  5-MIN KSTC 052100Z AUTO 19021G25KT 10SM CLR 21/08 A2996 990 43 2000 180/21G25 RMK AO2
14926KSTC STC20011105150510411/05/01 15:05:31  5-MIN KSTC 052105Z AUTO 19016G24KT 10SM CLR 22/08 A2996 990 42 2000 180/16G24 RMK AO2
14926KSTC STC20011105151009811/05/01 15:10:31  5-MIN KSTC 052110Z AUTO 19017KT 10SM CLR 21/08 A2996 990 43 2000 180/17 RMK AO2
14926KSTC STC20011105151510411/05/01 15:15:31  5-MIN KSTC 052115Z AUTO 18017G24KT 10SM CLR 21/08 A2997 980 43 2000 180/17G24 RMK AO2
14926KSTC STC20011105152010411/05/01 15:20:31  5-MIN KSTC 052120Z AUTO 19017G24KT 10SM CLR 21/08 A2996 990 43 2000 180/17G24 RMK AO2
14926KSTC STC20011105152509811/05/01 15:25:31  5-MIN KSTC 052125Z AUTO 19015KT 10SM CLR 21/09 A2996 990 45 2000 180/15 RMK AO2
14926KSTC STC20011105153009811/05/01 15:30:31  5-MIN KSTC 052130Z AUTO 19015KT 10SM CLR 21/09 A2996 990 45 2000 180/15 RMK AO2
14926KSTC STC20011105153509811/05/01 15:35:31  5-MIN KSTC 052135Z AUTO 19017KT 10SM CLR 21/09 A2996 990 45 2000 180/17 RMK AO2
14926KSTC STC20011105154010411/05/01 15:40:31  5-MIN KSTC 052140Z AUTO 18019G22KT 10SM CLR 21/09 A2996 990 45 2000 180/19G22 RMK AO2
14926KSTC STC20011105154510411/05/01 15:45:31  5-MIN KSTC 052145Z AUTO 19016G22KT 10SM CLR 21/09 A2996 990 45 2000 180/16G22 RMK AO2
14926KSTC STC20011105155011511/05/01 15:50:31  5-MIN KSTC 052150Z AUTO 18015KT 10SM CLR 21/09 A2996 990 47 2000 180/15 RMK AO2 SLP153 T02110094
14926KSTC STC20011105155510411/05/01 15:55:31  5-MIN KSTC 052155Z AUTO 18015G20KT 10SM CLR 21/09 A2995 990 47 2000 180/15G20 RMK AO2
14926KSTC STC20011105160009911/05/01 16:00:31  5-MIN KSTC 052200Z AUTO 18015KT 10SM CLR 21/09 A2995 1000 47 2000 170/15 RMK AO2
14926KSTC STC20011105160509911/05/01 16:05:31  5-MIN KSTC 052205Z AUTO 18011KT 10SM CLR 21/09 A2995 1000 47 2000 170/11 RMK AO2
14926KSTC STC20011105161009911/05/01 16:10:31  5-MIN KSTC 052210Z AUTO 18012KT 10SM CLR 21/09 A2995 1000 48 1900 180/12 RMK AO2
14926KSTC STC20011105161509811/05/01 16:15:31  5-MIN KSTC 052215Z AUTO 18013KT 10SM CLR 21/09 A2996 990 48 1900 180/13 RMK AO2
14926KSTC STC20011105162010411/05/01 16:20:31  5-MIN KSTC 052220Z AUTO 19012G19KT 10SM CLR 21/09 A2996 990 48 1900 180/12G19 RMK AO2
14926KSTC STC20011105162509811/05/01 16:25:31  5-MIN KSTC 052225Z AUTO 18014KT 10SM CLR 21/09 A2996 990 48 1900 180/14 RMK AO2
14926KSTC STC20011105163009911/05/01 16:30:31  5-MIN KSTC 052230Z AUTO 18013KT 10SM CLR 21/10 A2995 1000 50 1900 180/13 RMK AO2
14926KSTC STC20011105163510411/05/01 16:35:31  5-MIN KSTC 052235Z AUTO 18012G19KT 10SM CLR 20/10 A2995 990 52 1800 180/12G19 RMK AO2
14926KSTC STC20011105164009811/05/01 16:40:31  5-MIN KSTC 052240Z AUTO 18012KT 10SM CLR 20/10 A2995 990 52 1800 180/12 RMK AO2
14926KSTC STC20011105164509811/05/01 16:45:31  5-MIN KSTC 052245Z AUTO 18013KT 10SM CLR 20/10 A2996 990 52 1800 170/13 RMK AO2
14926KSTC STC20011105165011511/05/01 16:50:31  5-MIN KSTC 052250Z AUTO 18014KT 10SM CLR 20/10 A2995 990 52 1800 170/14 RMK AO2 SLP154 T02000100
14926KSTC STC20011105165509811/05/01 16:55:31  5-MIN KSTC 052255Z AUTO 17012KT 10SM CLR 19/10 A2995 990 54 1800 170/12 RMK AO2
14926KSTC STC20011105170009911/05/01 17:00:31  5-MIN KSTC 052300Z AUTO 17013KT 10SM CLR 19/10 A2995 1000 54 1800 170/13 RMK AO2
14926KSTC STC20011105170509911/05/01 17:05:31  5-MIN KSTC 052305Z AUTO 17012KT 10SM CLR 19/10 A2995 1000 54 1800 160/12 RMK AO2
14926KSTC STC20011105171009911/05/01 17:10:31  5-MIN KSTC 052310Z AUTO 17011KT 10SM CLR 19/10 A2995 1000 56 1700 170/11 RMK AO2
14926KSTC STC20011105171509911/05/01 17:15:31  5-MIN KSTC 052315Z AUTO 17011KT 10SM CLR 19/10 A2995 1000 56 1700 170/11 RMK AO2
14926KSTC STC20011105172009911/05/01 17:20:31  5-MIN KSTC 052320Z AUTO 17012KT 10SM CLR 19/10 A2995 1000 56 1700 170/12 RMK AO2
14926KSTC STC20011105172509911/05/01 17:25:31  5-MIN KSTC 052325Z AUTO 17012KT 10SM CLR 19/10 A2995 1000 56 1700 170/12 RMK AO2
14926KSTC STC20011105173009911/05/01 17:30:31  5-MIN KSTC 052330Z AUTO 17012KT 10SM CLR 19/10 A2995 1000 56 1700 170/12 RMK AO2
14926KSTC STC20011105173509911/05/01 17:35:31  5-MIN KSTC 052335Z AUTO 17012KT 10SM CLR 19/10 A2995 1000 56 1700 170/12 RMK AO2
14926KSTC STC20011105174009911/05/01 17:40:31  5-MIN KSTC 052340Z AUTO 17011KT 10SM CLR 19/10 A2995 1000 56 1700 170/11 RMK AO2
14926KSTC STC20011105174509911/05/01 17:45:31  5-MIN KSTC 052345Z AUTO 17012KT 10SM CLR 18/10 A2995 1000 58 1700 160/12 RMK AO2
14926KSTC STC20011105175013411/05/01 17:50:31  5-MIN KSTC 052350Z AUTO 16011KT 10SM CLR 18/10 A2995 1000 60 1600 160/11 RMK AO2 SLP154 T01780100 10217 20178 56027
14926KSTC STC20011105175509911/05/01 17:55:31  5-MIN KSTC 052355Z AUTO 16012KT 10SM CLR 18/10 A2995 1000 60 1600 160/12 RMK AO2
14926KSTC STC20011105180009911/05/01 18:00:31  5-MIN KSTC 060000Z AUTO 16012KT 10SM CLR 18/10 A2995 1000 60 1600 160/12 RMK AO2
14926KSTC STC20011105180509911/05/01 18:05:31  5-MIN KSTC 060005Z AUTO 17012KT 10SM CLR 18/10 A2995 1000 60 1600 160/12 RMK AO2
14926KSTC STC20011105181009911/05/01 18:10:31  5-MIN KSTC 060010Z AUTO 17011KT 10SM CLR 17/10 A2995 1000 62 1500 160/11 RMK AO2
14926KSTC STC20011105181509911/05/01 18:15:31  5-MIN KSTC 060015Z AUTO 17012KT 10SM CLR 17/10 A2995 1000 62 1500 160/12 RMK AO2
14926KSTC STC20011105182009911/05/01 18:20:31  5-MIN KSTC 060020Z AUTO 17013KT 10SM CLR 18/10 A2995 1000 60 1600 160/13 RMK AO2
14926KSTC STC20011105182509911/05/01 18:25:31  5-MIN KSTC 060025Z AUTO 17011KT 10SM CLR 18/10 A2995 1000 60 1600 170/11 RMK AO2
14926KSTC STC20011105183009911/05/01 18:30:31  5-MIN KSTC 060030Z AUTO 17012KT 10SM CLR 17/10 A2995 1000 62 1500 170/12 RMK AO2
14926KSTC STC20011105183509911/05/01 18:35:31  5-MIN KSTC 060035Z AUTO 17011KT 10SM CLR 18/10 A2995 1000 60 1600 170/11 RMK AO2
14926KSTC STC20011105184009911/05/01 18:40:31  5-MIN KSTC 060040Z AUTO 17011KT 10SM CLR 17/10 A2995 1000 62 1500 160/11 RMK AO2
14926KSTC STC20011105184509911/05/01 18:45:31  5-MIN KSTC 060045Z AUTO 16012KT 10SM CLR 17/10 A2995 1000 64 1500 160/12 RMK AO2
14926KSTC STC20011105185011611/05/01 18:50:31  5-MIN KSTC 060050Z AUTO 16010KT 10SM CLR 17/10 A2995 1000 64 1500 160/10 RMK AO2 SLP153 T01670100
14926KSTC STC20011105185509911/05/01 18:55:31  5-MIN KSTC 060055Z AUTO 16010KT 10SM CLR 17/10 A2995 1000 64 1500 160/10 RMK AO2
14926KSTC STC20011105190009911/05/01 19:00:31  5-MIN KSTC 060100Z AUTO 16010KT 10SM CLR 16/10 A2995 1000 67 1400 160/10 RMK AO2
14926KSTC STC20011105190509911/05/01 19:05:31  5-MIN KSTC 060105Z AUTO 16010KT 10SM CLR 16/10 A2994 1000 67 1400 160/10 RMK AO2
14926KSTC STC20011105191009911/05/01 19:10:31  5-MIN KSTC 060110Z AUTO 17009KT 10SM CLR 16/10 A2995 1000 67 1400 160/09 RMK AO2
14926KSTC STC20011105191509911/05/01 19:15:31  5-MIN KSTC 060115Z AUTO 16009KT 10SM CLR 16/10 A2994 1010 69 1300 160/09 RMK AO2
14926KSTC STC20011105192009911/05/01 19:20:31  5-MIN KSTC 060120Z AUTO 16008KT 10SM CLR 16/10 A2994 1010 69 1300 160/08 RMK AO2
14926KSTC STC20011105192509911/05/01 19:25:31  5-MIN KSTC 060125Z AUTO 16008KT 10SM CLR 15/10 A2994 1000 72 1300 160/08 RMK AO2
14926KSTC STC20011105193009911/05/01 19:30:31  5-MIN KSTC 060130Z AUTO 16008KT 10SM CLR 15/10 A2994 1000 72 1300 160/08 RMK AO2
14926KSTC STC20011105193509911/05/01 19:35:31  5-MIN KSTC 060135Z AUTO 16008KT 10SM CLR 15/10 A2994 1000 72 1300 160/08 RMK AO2
14926KSTC STC20011105194009911/05/01 19:40:31  5-MIN KSTC 060140Z AUTO 16008KT 10SM CLR 15/10 A2994 1010 72 1300 160/08 RMK AO2
14926KSTC STC20011105194509911/05/01 19:45:31  5-MIN KSTC 060145Z AUTO 16008KT 10SM CLR 14/10 A2994 1010 74 1200 160/08 RMK AO2
14926KSTC STC20011105195011611/05/01 19:50:31  5-MIN KSTC 060150Z AUTO 16008KT 10SM CLR 14/10 A2994 1010 77 1200 160/08 RMK AO2 SLP150 T01390100
14926KSTC STC20011105195509911/05/01 19:55:31  5-MIN KSTC 060155Z AUTO 16008KT 10SM CLR 14/10 A2994 1010 74 1200 160/08 RMK AO2
14926KSTC STC20011105200009911/05/01 20:00:31  5-MIN KSTC 060200Z AUTO 16009KT 10SM CLR 14/10 A2994 1010 74 1200 160/09 RMK AO2
14926KSTC STC20011105200509911/05/01 20:05:31  5-MIN KSTC 060205Z AUTO 17008KT 10SM CLR 14/10 A2994 1010 74 1200 160/08 RMK AO2
14926KSTC STC20011105201009911/05/01 20:10:31  5-MIN KSTC 060210Z AUTO 16009KT 10SM CLR 15/10 A2994 1010 72 1300 160/09 RMK AO2
14926KSTC STC20011105201509911/05/01 20:15:31  5-MIN KSTC 060215Z AUTO 17009KT 10SM CLR 15/10 A2994 1010 72 1300 160/09 RMK AO2
14926KSTC STC20011105202009911/05/01 20:20:31  5-MIN KSTC 060220Z AUTO 17009KT 10SM CLR 15/10 A2994 1010 72 1300 170/09 RMK AO2
14926KSTC STC20011105202509911/05/01 20:25:31  5-MIN KSTC 060225Z AUTO 17009KT 10SM CLR 15/10 A2994 1010 72 1300 170/09 RMK AO2
14926KSTC STC20011105203009911/05/01 20:30:31  5-MIN KSTC 060230Z AUTO 17009KT 10SM CLR 15/11 A2994 1010 77 1300 170/09 RMK AO2
14926KSTC STC20011105203509911/05/01 20:35:31  5-MIN KSTC 060235Z AUTO 17010KT 10SM CLR 16/11 A2994 1010 74 1300 170/10 RMK AO2
14926KSTC STC20011105204009911/05/01 20:40:31  5-MIN KSTC 060240Z AUTO 18010KT 10SM CLR 15/10 A2994 1010 72 1300 170/10 RMK AO2
14926KSTC STC20011105204509911/05/01 20:45:31  5-MIN KSTC 060245Z AUTO 17010KT 10SM CLR 15/10 A2994 1010 72 1300 170/10 RMK AO2
14926KSTC STC20011105205012211/05/01 20:50:31  5-MIN KSTC 060250Z AUTO 17010KT 10SM CLR 15/10 A2994 1010 72 1300 170/10 RMK AO2 SLP150 T01500100 56006
14926KSTC STC20011105205509911/05/01 20:55:31  5-MIN KSTC 060255Z AUTO 17010KT 10SM CLR 15/10 A2994 1000 72 1300 170/10 RMK AO2
14926KSTC STC20011105210009911/05/01 21:00:31  5-MIN KSTC 060300Z AUTO 18009KT 10SM CLR 15/10 A2995 1000 72 1300 170/09 RMK AO2
14926KSTC STC20011105210509911/05/01 21:05:31  5-MIN KSTC 060305Z AUTO 18009KT 10SM CLR 15/10 A2995 1000 72 1300 170/09 RMK AO2
14926KSTC STC20011105211009911/05/01 21:10:31  5-MIN KSTC 060310Z AUTO 18009KT 10SM CLR 15/10 A2995 1000 72 1300 180/09 RMK AO2
14926KSTC STC20011105211509911/05/01 21:15:31  5-MIN KSTC 060315Z AUTO 18009KT 10SM CLR 15/10 A2995 1000 72 1300 180/09 RMK AO2
14926KSTC STC20011105212009911/05/01 21:20:31  5-MIN KSTC 060320Z AUTO 18010KT 10SM CLR 14/10 A2994 1000 74 1200 170/10 RMK AO2
14926KSTC STC20011105212509911/05/01 21:25:31  5-MIN KSTC 060325Z AUTO 18011KT 10SM CLR 15/10 A2994 1010 72 1300 180/11 RMK AO2
14926KSTC STC20011105213009911/05/01 21:30:31  5-MIN KSTC 060330Z AUTO 18011KT 10SM CLR 15/10 A2994 1010 72 1300 180/11 RMK AO2
14926KSTC STC20011105213509911/05/01 21:35:31  5-MIN KSTC 060335Z AUTO 18011KT 10SM CLR 15/10 A2994 1010 72 1300 170/11 RMK AO2
14926KSTC STC20011105214009911/05/01 21:40:31  5-MIN KSTC 060340Z AUTO 18012KT 10SM CLR 15/10 A2994 1010 72 1300 180/12 RMK AO2
14926KSTC STC20011105214509911/05/01 21:45:31  5-MIN KSTC 060345Z AUTO 18013KT 10SM CLR 15/10 A2994 1010 72 1300 180/13 RMK AO2
14926KSTC STC20011105215011611/05/01 21:50:31  5-MIN KSTC 060350Z AUTO 18013KT 10SM CLR 15/11 A2994 1010 74 1300 180/13 RMK AO2 SLP147 T01500106
14926KSTC STC20011105215509911/05/01 21:55:31  5-MIN KSTC 060355Z AUTO 19013KT 10SM CLR 15/11 A2994 1010 74 1300 180/13 RMK AO2
14926KSTC STC20011105220009911/05/01 22:00:31  5-MIN KSTC 060400Z AUTO 18012KT 10SM CLR 16/11 A2994 1010 72 1400 180/12 RMK AO2
14926KSTC STC20011105220509911/05/01 22:05:31  5-MIN KSTC 060405Z AUTO 18013KT 10SM CLR 15/11 A2993 1020 74 1300 180/13 RMK AO2
14926KSTC STC20011105221009911/05/01 22:10:31  5-MIN KSTC 060410Z AUTO 18013KT 10SM CLR 16/11 A2993 1020 72 1400 180/13 RMK AO2
14926KSTC STC20011105221509911/05/01 22:15:31  5-MIN KSTC 060415Z AUTO 19015KT 10SM CLR 16/11 A2993 1020 72 1400 180/15 RMK AO2
14926KSTC STC20011105222009911/05/01 22:20:31  5-MIN KSTC 060420Z AUTO 19014KT 10SM CLR 16/11 A2993 1020 74 1400 180/14 RMK AO2
14926KSTC STC20011105222509911/05/01 22:25:31  5-MIN KSTC 060425Z AUTO 19014KT 10SM CLR 16/11 A2993 1020 74 1400 180/14 RMK AO2
14926KSTC STC20011105223009911/05/01 22:30:31  5-MIN KSTC 060430Z AUTO 18014KT 10SM CLR 16/11 A2993 1020 74 1400 180/14 RMK AO2
14926KSTC STC20011105223509911/05/01 22:35:31  5-MIN KSTC 060435Z AUTO 19014KT 10SM CLR 16/11 A2993 1010 74 1400 180/14 RMK AO2
14926KSTC STC20011105224009911/05/01 22:40:31  5-MIN KSTC 060440Z AUTO 19014KT 10SM CLR 16/11 A2993 1010 74 1400 190/14 RMK AO2
14926KSTC STC20011105224509911/05/01 22:45:31  5-MIN KSTC 060445Z AUTO 19011KT 10SM CLR 16/11 A2993 1020 74 1400 190/11 RMK AO2
14926KSTC STC20011105225011611/05/01 22:50:31  5-MIN KSTC 060450Z AUTO 19013KT 10SM CLR 15/11 A2993 1020 77 1300 180/13 RMK AO2 SLP143 T01500111
14926KSTC STC20011105225509911/05/01 22:55:31  5-MIN KSTC 060455Z AUTO 19013KT 10SM CLR 16/11 A2993 1020 74 1400 180/13 RMK AO2
14926KSTC STC20011105230009911/05/01 23:00:31  5-MIN KSTC 060500Z AUTO 19011KT 10SM CLR 16/11 A2993 1010 74 1400 190/11 RMK AO2
14926KSTC STC20011105230509911/05/01 23:05:31  5-MIN KSTC 060505Z AUTO 19010KT 10SM CLR 15/11 A2993 1020 77 1300 190/10 RMK AO2
14926KSTC STC20011105231009911/05/01 23:10:31  5-MIN KSTC 060510Z AUTO 19013KT 10SM CLR 15/11 A2993 1020 77 1300 190/13 RMK AO2
14926KSTC STC20011105231509911/05/01 23:15:31  5-MIN KSTC 060515Z AUTO 18012KT 10SM CLR 15/11 A2993 1020 77 1300 180/12 RMK AO2
14926KSTC STC20011105232009911/05/01 23:20:31  5-MIN KSTC 060520Z AUTO 18012KT 10SM CLR 15/11 A2993 1020 77 1300 180/12 RMK AO2
14926KSTC STC20011105232509911/05/01 23:25:31  5-MIN KSTC 060525Z AUTO 19012KT 10SM CLR 15/11 A2993 1020 77 1300 180/12 RMK AO2
14926KSTC STC20011105233009911/05/01 23:30:31  5-MIN KSTC 060530Z AUTO 19012KT 10SM CLR 15/11 A2993 1020 77 1300 180/12 RMK AO2
14926KSTC STC20011105233509911/05/01 23:35:31  5-MIN KSTC 060535Z AUTO 19010KT 10SM CLR 14/11 A2993 1020 80 1200 190/10 RMK AO2
14926KSTC STC20011105234009911/05/01 23:40:31  5-MIN KSTC 060540Z AUTO 19011KT 10SM CLR 15/11 A2993 1020 77 1300 190/11 RMK AO2
14926KSTC STC20011105234509911/05/01 23:45:31  5-MIN KSTC 060545Z AUTO 19012KT 10SM CLR 14/11 A2993 1020 80 1200 190/12 RMK AO2
14926KSTC STC20011105235014411/05/01 23:50:31  5-MIN KSTC 060550Z AUTO 19011KT 10SM CLR 14/11 A2993 1020 80 1200 190/11 RMK AO2 SLP141 T01440111 10178 20139 402170039 55001
14926KSTC STC20011105235510511/05/01 23:55:31  5-MIN KSTC 060555Z AUTO 19016G22KT 10SM CLR 14/11 A2992 1020 80 1200 190/16G22 RMK AO2
14926KSTC STC20011106000010511/06/01 00:00:31  5-MIN KSTC 060600Z AUTO 19014G22KT 10SM CLR 14/11 A2992 1020 80 1200 180/14G22 RMK AO2
14926KSTC STC20011106000509911/06/01 00:05:31  5-MIN KSTC 060605Z AUTO 19012KT 10SM CLR 14/11 A2992 1020 80 1200 190/12 RMK AO2
14926KSTC STC20011106001009911/06/01 00:10:31  5-MIN KSTC 060610Z AUTO 19012KT 10SM CLR 14/11 A2992 1020 80 1200 190/12 RMK AO2
14926KSTC STC20011106001509911/06/01 00:15:31  5-MIN KSTC 060615Z AUTO 19012KT 10SM CLR 14/11 A2992 1020 80 1200 180/12 RMK AO2
14926KSTC STC20011106002009911/06/01 00:20:31  5-MIN KSTC 060620Z AUTO 19011KT 10SM CLR 14/11 A2992 1020 83 1200 190/11 RMK AO2
14926KSTC STC20011106002509911/06/01 00:25:31  5-MIN KSTC 060625Z AUTO 19011KT 10SM CLR 14/12 A2993 1020 86 1200 190/11 RMK AO2
14926KSTC STC20011106003009911/06/01 00:30:31  5-MIN KSTC 060630Z AUTO 20010KT 10SM CLR 14/11 A2993 1020 83 1200 190/10 RMK AO2
14926KSTC STC20011106003509911/06/01 00:35:31  5-MIN KSTC 060635Z AUTO 19012KT 10SM CLR 14/11 A2992 1030 83 1200 190/12 RMK AO2
14926KSTC STC20011106004009911/06/01 00:40:31  5-MIN KSTC 060640Z AUTO 19013KT 10SM CLR 14/12 A2992 1030 86 1200 190/13 RMK AO2
14926KSTC STC20011106004509911/06/01 00:45:31  5-MIN KSTC 060645Z AUTO 19013KT 10SM CLR 14/12 A2992 1030 86 1200 190/13 RMK AO2
14926KSTC STC20011106005011611/06/01 00:50:31  5-MIN KSTC 060650Z AUTO 19011KT 10SM CLR 14/12 A2992 1030 86 1200 180/11 RMK AO2 SLP138 T01390117
14926KSTC STC20011106005509911/06/01 00:55:31  5-MIN KSTC 060655Z AUTO 19010KT 10SM CLR 14/12 A2992 1030 86 1200 180/10 RMK AO2
14926KSTC STC20011106010009911/06/01 01:00:31  5-MIN KSTC 060700Z AUTO 18012KT 10SM CLR 14/12 A2992 1030 86 1200 180/12 RMK AO2
14926KSTC STC20011106010509911/06/01 01:05:31  5-MIN KSTC 060705Z AUTO 18012KT 10SM CLR 14/12 A2991 1030 86 1200 180/12 RMK AO2
14926KSTC STC20011106011009911/06/01 01:10:31  5-MIN KSTC 060710Z AUTO 19012KT 10SM CLR 14/12 A2991 1030 86 1200 180/12 RMK AO2
14926KSTC STC20011106011509911/06/01 01:15:31  5-MIN KSTC 060715Z AUTO 18011KT 10SM CLR 14/12 A2991 1030 86 1200 180/11 RMK AO2
14926KSTC STC20011106012009911/06/01 01:20:31  5-MIN KSTC 060720Z AUTO 18011KT 10SM CLR 14/12 A2991 1030 86 1200 180/11 RMK AO2
14926KSTC STC20011106012509911/06/01 01:25:31  5-MIN KSTC 060725Z AUTO 19011KT 10SM CLR 14/12 A2992 1030 86 1200 190/11 RMK AO2
14926KSTC STC20011106013009911/06/01 01:30:31  5-MIN KSTC 060730Z AUTO 19011KT 10SM CLR 14/12 A2991 1030 86 1200 180/11 RMK AO2
14926KSTC STC20011106013509911/06/01 01:35:31  5-MIN KSTC 060735Z AUTO 18010KT 10SM CLR 13/12 A2991 1040 89 1100 180/10 RMK AO2
14926KSTC STC20011106014009911/06/01 01:40:31  5-MIN KSTC 060740Z AUTO 18010KT 10SM CLR 13/12 A2991 1030 89 1100 180/10 RMK AO2
14926KSTC STC20011106014509911/06/01 01:45:31  5-MIN KSTC 060745Z AUTO 18010KT 10SM CLR 13/11 A2991 1040 86 1100 180/10 RMK AO2
14926KSTC STC20011106015011611/06/01 01:50:31  5-MIN KSTC 060750Z AUTO 18009KT 10SM CLR 13/11 A2991 1040 86 1100 180/09 RMK AO2 SLP136 T01330111
14926KSTC STC20011106015509911/06/01 01:55:31  5-MIN KSTC 060755Z AUTO 18010KT 10SM CLR 13/11 A2991 1030 86 1100 180/10 RMK AO2
14926KSTC STC20011106020009911/06/01 02:00:31  5-MIN KSTC 060800Z AUTO 17009KT 10SM CLR 13/11 A2992 1030 86 1100 170/09 RMK AO2
14926KSTC STC20011106020509911/06/01 02:05:31  5-MIN KSTC 060805Z AUTO 18009KT 10SM CLR 13/11 A2992 1030 89 1000 170/09 RMK AO2
14926KSTC STC20011106021009911/06/01 02:10:31  5-MIN KSTC 060810Z AUTO 18008KT 10SM CLR 13/11 A2992 1030 89 1000 180/08 RMK AO2
14926KSTC STC20011106021509911/06/01 02:15:31  5-MIN KSTC 060815Z AUTO 18008KT 10SM CLR 13/11 A2992 1030 89 1000 180/08 RMK AO2
14926KSTC STC20011106022009811/06/01 02:20:31  5-MIN KSTC 060820Z AUTO 18008KT 9SM CLR 13/11 A2992 1030 89 1000 180/08 RMK AO2
14926KSTC STC20011106022509811/06/01 02:25:31  5-MIN KSTC 060825Z AUTO 18009KT 9SM CLR 13/11 A2992 1030 89 1000 180/09 RMK AO2
14926KSTC STC20011106023009811/06/01 02:30:31  5-MIN KSTC 060830Z AUTO 18008KT 9SM CLR 12/11 A2992 1030 93 1000 180/08 RMK AO2
14926KSTC STC20011106023509811/06/01 02:35:31  5-MIN KSTC 060835Z AUTO 18008KT 9SM CLR 12/11 A2992 1020 93 1000 180/08 RMK AO2
14926KSTC STC20011106024009811/06/01 02:40:31  5-MIN KSTC 060840Z AUTO 18008KT 9SM CLR 12/11 A2992 1030 93 1000 180/08 RMK AO2
14926KSTC STC20011106024509811/06/01 02:45:31  5-MIN KSTC 060845Z AUTO 18009KT 9SM CLR 12/11 A2992 1030 93 1000 180/09 RMK AO2
14926KSTC STC20011106025012111/06/01 02:50:31  5-MIN KSTC 060850Z AUTO 18008KT 9SM CLR 12/11 A2992 1030 93 1000 180/08 RMK AO2 SLP137 T01220111 56006
14926KSTC STC20011106025509811/06/01 02:55:31  5-MIN KSTC 060855Z AUTO 18008KT 9SM CLR 12/11 A2991 1030 93 1000 180/08 RMK AO2
14926KSTC STC20011106030009811/06/01 03:00:31  5-MIN KSTC 060900Z AUTO 18008KT 9SM CLR 12/11 A2991 1030 93 1000 180/08 RMK AO2
14926KSTC STC20011106030509811/06/01 03:05:31  5-MIN KSTC 060905Z AUTO 18008KT 9SM CLR 12/11 A2991 1030 93 1000 170/08 RMK AO2
14926KSTC STC20011106031009711/06/01 03:10:31  5-MIN KSTC 060910Z AUTO 18007KT 9SM CLR 12/11 A2992 1030 93 900 180/07 RMK AO2
14926KSTC STC20011106031509711/06/01 03:15:31  5-MIN KSTC 060915Z AUTO 18007KT 9SM CLR 12/11 A2992 1030 93 900 170/07 RMK AO2
14926KSTC STC20011106032009711/06/01 03:20:31  5-MIN KSTC 060920Z AUTO 18008KT 9SM CLR 12/11 A2991 1030 93 900 180/08 RMK AO2
14926KSTC STC20011106032509711/06/01 03:25:31  5-MIN KSTC 060925Z AUTO 18008KT 9SM CLR 12/11 A2991 1030 93 900 170/08 RMK AO2
14926KSTC STC20011106033009711/06/01 03:30:31  5-MIN KSTC 060930Z AUTO 18009KT 9SM CLR 12/11 A2991 1030 93 900 180/09 RMK AO2
14926KSTC STC20011106033509711/06/01 03:35:31  5-MIN KSTC 060935Z AUTO 18008KT 8SM CLR 12/11 A2992 1030 93 900 180/08 RMK AO2
14926KSTC STC20011106034009711/06/01 03:40:31  5-MIN KSTC 060940Z AUTO 18007KT 9SM CLR 12/11 A2991 1030 93 900 180/07 RMK AO2
14926KSTC STC20011106034509711/06/01 03:45:31  5-MIN KSTC 060945Z AUTO 18008KT 8SM CLR 11/11 A2992 1030 96 900 180/08 RMK AO2
14926KSTC STC20011106035011411/06/01 03:50:31  5-MIN KSTC 060950Z AUTO 18007KT 8SM CLR 11/11 A2992 1030 96 800 180/07 RMK AO2 SLP138 T01110106
14926KSTC STC20011106035509711/06/01 03:55:31  5-MIN KSTC 060955Z AUTO 18007KT 8SM CLR 11/11 A2992 1030 96 800 180/07 RMK AO2
14926KSTC STC20011106040009711/06/01 04:00:31  5-MIN KSTC 061000Z AUTO 18007KT 8SM CLR 11/11 A2992 1030 96 800 180/07 RMK AO2
14926KSTC STC20011106040509711/06/01 04:05:31  5-MIN KSTC 061005Z AUTO 19006KT 8SM CLR 11/10 A2992 1030 96 800 180/06 RMK AO2
14926KSTC STC20011106041009711/06/01 04:10:31  5-MIN KSTC 061010Z AUTO 19005KT 8SM CLR 11/10 A2992 1020 96 800 180/05 RMK AO2
14926KSTC STC20011106041509711/06/01 04:15:31  5-MIN KSTC 061015Z AUTO 18005KT 8SM CLR 11/10 A2992 1020 96 800 180/05 RMK AO2
14926KSTC STC20011106042009811/06/01 04:20:31  5-MIN KSTC 061020Z AUTO 17005KT 7SM CLR 10/10 A2992 1020 100 700 170/05 RMK AO2
14926KSTC STC20011106042509811/06/01 04:25:31  5-MIN KSTC 061025Z AUTO 17006KT 7SM CLR 10/10 A2992 1030 100 700 170/06 RMK AO2
14926KSTC STC20011106043009711/06/01 04:30:31  5-MIN KSTC 061030Z AUTO 17006KT 7SM CLR 11/10 A2992 1030 96 800 170/06 RMK AO2
14926KSTC STC20011106043509811/06/01 04:35:31  5-MIN KSTC 061035Z AUTO 17005KT 7SM CLR 10/10 A2992 1030 100 700 170/05 RMK AO2
14926KSTC STC20011106044009711/06/01 04:40:31  5-MIN KSTC 061040Z AUTO 17005KT 7SM CLR 10/09 A2992 1030 96 700 170/05 RMK AO2
14926KSTC STC20011106044509711/06/01 04:45:31  5-MIN KSTC 061045Z AUTO 17005KT 7SM CLR 10/09 A2992 1030 96 700 170/05 RMK AO2
14926KSTC STC20011106045011511/06/01 04:50:31  5-MIN KSTC 061050Z AUTO 17005KT 7SM CLR 09/09 A2992 1020 100 600 170/05 RMK AO2 SLP142 T00940094
14926KSTC STC20011106045509811/06/01 04:55:31  5-MIN KSTC 061055Z AUTO 17005KT 7SM CLR 09/09 A2992 1020 100 600 170/05 RMK AO2
14926KSTC STC20011106050009811/06/01 05:00:31  5-MIN KSTC 061100Z AUTO 18004KT 7SM CLR 09/09 A2993 1020 100 600 170/04 RMK AO2
14926KSTC STC20011106050509811/06/01 05:05:31  5-MIN KSTC 061105Z AUTO 17005KT 7SM CLR 09/09 A2993 1020 100 600 170/05 RMK AO2
14926KSTC STC20011106051009811/06/01 05:10:31  5-MIN KSTC 061110Z AUTO 17004KT 7SM CLR 09/09 A2993 1020 100 600 170/04 RMK AO2
14926KSTC STC20011106051509811/06/01 05:15:31  5-MIN KSTC 061115Z AUTO 18005KT 7SM CLR 09/09 A2993 1020 100 600 180/05 RMK AO2
14926KSTC STC20011106052010111/06/01 05:20:31  5-MIN KSTC 061120Z AUTO 18005KT 6SM BR CLR 08/08 A2993 1020 100 500 180/05 RMK AO2
14926KSTC STC20011106080511311/06/01 08:05:31  5-MIN KSTC 061405Z AUTO 00000KT M1/4SM FG BKN001 OVC009 06/06 A2997 980 100 200 000/00 RMK AO2
14926KSTC STC20011106081011311/06/01 08:10:31  5-MIN KSTC 061410Z AUTO 00000KT M1/4SM FG SCT001 OVC009 07/07 A2998 980 100 200 000/00 RMK AO2
14926KSTC STC20011106081511311/06/01 08:15:31  5-MIN KSTC 061415Z AUTO 00000KT M1/4SM FG SCT001 OVC009 07/07 A2998 970 100 200 000/00 RMK AO2
14926KSTC STC20011106082011211/06/01 08:20:31  5-MIN KSTC 061420Z AUTO 00000KT 1/4SM FG BKN001 OVC009 07/07 A2998 970 100 300 000/00 RMK AO2
14926KSTC STC20011106082511211/06/01 08:25:31  5-MIN KSTC 061425Z AUTO 20003KT 1/4SM FG BKN001 OVC009 07/07 A2998 970 100 300 200/03 RMK AO2
14926KSTC STC20011106083011211/06/01 08:30:31  5-MIN KSTC 061430Z AUTO 21003KT 1/4SM FG BKN001 OVC009 08/08 A2998 970 100 400 210/03 RMK AO2
14926KSTC STC20011106083511211/06/01 08:35:31  5-MIN KSTC 061435Z AUTO 20004KT 1/4SM FG BKN001 BKN009 08/08 A2998 970 100 400 190/04 RMK AO2
14926KSTC STC20011106084011211/06/01 08:40:31  5-MIN KSTC 061440Z AUTO 21004KT 3/4SM BR SCT001 BKN009 09/09 A2998 970 100 500 210/04 RMK AO2
14926KSTC STC20011106084510711/06/01 08:45:31  5-MIN KSTC 061445Z AUTO 22003KT 2 1/2SM BR SCT001 09/09 A2998 970 100 500 220/03 RMK AO2
14926KSTC STC20011106085012611/06/01 08:50:31  5-MIN KSTC 061450Z AUTO 20003KT 4SM BR FEW001 09/09 A2998 970 100 600 200/03 RMK AO2 SLP164 T00940094 53006
14926KSTC STC20011106085510311/06/01 08:55:31  5-MIN KSTC 061455Z AUTO 19003KT 5SM BR FEW001 10/10 A2999 960 100 600 180/03 RMK AO2
14926KSTC STC20011106090010011/06/01 09:00:31  5-MIN KSTC 061500Z AUTO 00000KT 5SM BR CLR 10/10 A2999 960 100 600 000/00 RMK AO2
14926KSTC STC20011106090510011/06/01 09:05:31  5-MIN KSTC 061505Z AUTO 19003KT 5SM BR CLR 10/10 A2999 960 100 600 180/03 RMK AO2
14926KSTC STC20011106091010011/06/01 09:10:31  5-MIN KSTC 061510Z AUTO 00000KT 6SM BR CLR 11/11 A3000 960 100 700 000/00 RMK AO2
14926KSTC STC20011106091509911/06/01 09:15:31  5-MIN KSTC 061515Z AUTO 00000KT 6SM BR CLR 11/11 A3000 960 96 800 000/00 RMK AO2
14926KSTC STC20011106092009911/06/01 09:20:31  5-MIN KSTC 061520Z AUTO 00000KT 5SM BR CLR 11/11 A3000 950 96 800 000/00 RMK AO2
14926KSTC STC20011106092509911/06/01 09:25:31  5-MIN KSTC 061525Z AUTO 00000KT 5SM BR CLR 12/11 A3000 950 93 800 000/00 RMK AO2
14926KSTC STC20011106093009911/06/01 09:30:31  5-MIN KSTC 061530Z AUTO 00000KT 6SM BR CLR 12/11 A3000 950 89 900 000/00 RMK AO2
14926KSTC STC20011106093509611/06/01 09:35:31  5-MIN KSTC 061535Z AUTO 00000KT 7SM CLR 12/11 A3001 950 89 900 000/00 RMK AO2
14926KSTC STC20011106094009611/06/01 09:40:31  5-MIN KSTC 061540Z AUTO 00000KT 7SM CLR 13/11 A3001 940 86 900 000/00 RMK AO2
14926KSTC STC20011106094509711/06/01 09:45:31  5-MIN KSTC 061545Z AUTO 00000KT 8SM CLR 13/11 A3001 940 83 1000 000/00 RMK AO2
14926KSTC STC20011106095011411/06/01 09:50:31  5-MIN KSTC 061550Z AUTO 00000KT 8SM CLR 13/11 A3001 940 83 1000 000/00 RMK AO2 SLP172 T01330106
14926KSTC STC20011106095509711/06/01 09:55:31  5-MIN KSTC 061555Z AUTO VRB04KT 8SM CLR 13/11 A3002 940 83 1000 VRB/04 RMK AO2
14926KSTC STC20011106100009711/06/01 10:00:31  5-MIN KSTC 061600Z AUTO VRB05KT 9SM CLR 14/11 A3002 930 80 1100 VRB/05 RMK AO2
14926KSTC STC20011106100509711/06/01 10:05:31  5-MIN KSTC 061605Z AUTO 01005KT 9SM CLR 14/10 A3002 930 77 1100 010/05 RMK AO2
14926KSTC STC20011106101009711/06/01 10:10:31  5-MIN KSTC 061610Z AUTO 01006KT 9SM CLR 14/10 A3002 930 77 1100 360/06 RMK AO2
14926KSTC STC20011106101509711/06/01 10:15:31  5-MIN KSTC 061615Z AUTO 34008KT 9SM CLR 14/10 A3002 930 77 1100 340/08 RMK AO2
14926KSTC STC20011106102009811/06/01 10:20:31  5-MIN KSTC 061620Z AUTO 33009KT 10SM CLR 14/10 A3003 930 74 1100 330/09 RMK AO2
14926KSTC STC20011106102509811/06/01 10:25:31  5-MIN KSTC 061625Z AUTO 32009KT 10SM CLR 14/09 A3003 930 74 1100 320/09 RMK AO2
14926KSTC STC20011106103009811/06/01 10:30:31  5-MIN KSTC 061630Z AUTO 35008KT 10SM CLR 14/09 A3003 930 72 1100 340/08 RMK AO2
14926KSTC STC20011106103509811/06/01 10:35:31  5-MIN KSTC 061635Z AUTO 34008KT 10SM CLR 14/09 A3003 930 72 1100 330/08 RMK AO2
14926KSTC STC20011106104009811/06/01 10:40:31  5-MIN KSTC 061640Z AUTO 35006KT 10SM CLR 14/09 A3003 930 69 1100 350/06 RMK AO2
14926KSTC STC20011106104509811/06/01 10:45:31  5-MIN KSTC 061645Z AUTO 34006KT 10SM CLR 14/09 A3003 920 69 1100 340/06 RMK AO2
14926KSTC STC20011106105011511/06/01 10:50:31  5-MIN KSTC 061650Z AUTO VRB05KT 10SM CLR 14/09 A3003 920 69 1100 VRB/05 RMK AO2 SLP179 T01440089
14926KSTC STC20011106105509811/06/01 10:55:31  5-MIN KSTC 061655Z AUTO 34005KT 10SM CLR 15/09 A3003 930 66 1200 340/05 RMK AO2
14926KSTC STC20011106110009811/06/01 11:00:31  5-MIN KSTC 061700Z AUTO VRB04KT 10SM CLR 16/09 A3003 930 64 1200 VRB/04 RMK AO2
14926KSTC STC20011106110509811/06/01 11:05:31  5-MIN KSTC 061705Z AUTO 01004KT 10SM CLR 16/08 A3003 930 62 1300 010/04 RMK AO2
14926KSTC STC20011106111009811/06/01 11:10:31  5-MIN KSTC 061710Z AUTO 00000KT 10SM CLR 15/08 A3002 930 64 1200 000/00 RMK AO2
14926KSTC STC20011106111509811/06/01 11:15:31  5-MIN KSTC 061715Z AUTO VRB03KT 10SM CLR 16/08 A3002 930 62 1300 VRB/03 RMK AO2
14926KSTC STC20011106112009811/06/01 11:20:31  5-MIN KSTC 061720Z AUTO 00000KT 10SM CLR 16/08 A3002 930 59 1300 000/00 RMK AO2
14926KSTC STC20011106112509811/06/01 11:25:31  5-MIN KSTC 061725Z AUTO VRB04KT 10SM CLR 16/08 A3003 930 59 1300 VRB/04 RMK AO2
14926KSTC STC20011106113009811/06/01 11:30:31  5-MIN KSTC 061730Z AUTO 02003KT 10SM CLR 16/08 A3003 930 57 1300 020/03 RMK AO2
14926KSTC STC20011106113509811/06/01 11:35:31  5-MIN KSTC 061735Z AUTO 04004KT 10SM CLR 17/08 A3003 930 53 1400 040/04 RMK AO2
14926KSTC STC20011106114009811/06/01 11:40:31  5-MIN KSTC 061740Z AUTO 36004KT 10SM CLR 17/08 A3003 930 53 1400 360/04 RMK AO2
14926KSTC STC20011106114509811/06/01 11:45:31  5-MIN KSTC 061745Z AUTO VRB03KT 10SM CLR 17/08 A3003 930 53 1400 VRB/03 RMK AO2
14926KSTC STC20011106115013311/06/01 11:50:31  5-MIN KSTC 061750Z AUTO 34005KT 10SM CLR 17/08 A3003 930 53 1400 330/05 RMK AO2 SLP177 T01720078 10172 20056 53018
14926KSTC STC20011106115509811/06/01 11:55:31  5-MIN KSTC 061755Z AUTO 31006KT 10SM CLR 17/07 A3003 930 49 1400 310/06 RMK AO2
14926KSTC STC20011106120009811/06/01 12:00:31  5-MIN KSTC 061800Z AUTO 32006KT 10SM CLR 18/07 A3003 930 48 1500 310/06 RMK AO2
14926KSTC STC20011106120509811/06/01 12:05:31  5-MIN KSTC 061805Z AUTO 36006KT 10SM CLR 18/07 A3003 930 46 1600 350/06 RMK AO2
14926KSTC STC20011106121009811/06/01 12:10:31  5-MIN KSTC 061810Z AUTO 35007KT 10SM CLR 18/07 A3003 930 48 1600 350/07 RMK AO2
14926KSTC STC20011106121509811/06/01 12:15:31  5-MIN KSTC 061815Z AUTO 32009KT 10SM CLR 18/06 A3003 930 44 1600 310/09 RMK AO2
14926KSTC STC20011106122009811/06/01 12:20:31  5-MIN KSTC 061820Z AUTO 34007KT 10SM CLR 19/06 A3003 930 43 1600 330/07 RMK AO2
14926KSTC STC20011106122509811/06/01 12:25:31  5-MIN KSTC 061825Z AUTO 33008KT 10SM CLR 19/06 A3003 920 43 1600 330/08 RMK AO2
14926KSTC STC20011106123009811/06/01 12:30:31  5-MIN KSTC 061830Z AUTO 34008KT 10SM CLR 19/06 A3003 920 41 1600 340/08 RMK AO2
14926KSTC STC20011106123509811/06/01 12:35:31  5-MIN KSTC 061835Z AUTO 33007KT 10SM CLR 19/06 A3003 920 41 1700 320/07 RMK AO2
14926KSTC STC20011106124009811/06/01 12:40:31  5-MIN KSTC 061840Z AUTO 36008KT 10SM CLR 19/05 A3003 920 38 1700 350/08 RMK AO2
14926KSTC STC20011106124509811/06/01 12:45:31  5-MIN KSTC 061845Z AUTO 34008KT 10SM CLR 19/05 A3003 920 38 1700 340/08 RMK AO2
14926KSTC STC20011106125011511/06/01 12:50:31  5-MIN KSTC 061850Z AUTO 35009KT 10SM CLR 19/05 A3003 920 38 1700 350/09 RMK AO2 SLP177 T01940050
14926KSTC STC20011106125509811/06/01 12:55:31  5-MIN KSTC 061855Z AUTO 01007KT 10SM CLR 19/05 A3003 920 38 1700 360/07 RMK AO2
14926KSTC STC20011106130009811/06/01 13:00:31  5-MIN KSTC 061900Z AUTO 36009KT 10SM CLR 20/06 A3003 920 38 1800 360/09 RMK AO2
14926KSTC STC20011106130509811/06/01 13:05:31  5-MIN KSTC 061905Z AUTO 34009KT 10SM CLR 20/05 A3003 920 37 1800 340/09 RMK AO2
14926KSTC STC20011106131009811/06/01 13:10:31  5-MIN KSTC 061910Z AUTO 35009KT 10SM CLR 20/06 A3003 920 38 1800 340/09 RMK AO2
14926KSTC STC20011106131509811/06/01 13:15:31  5-MIN KSTC 061915Z AUTO 35008KT 10SM CLR 20/06 A3003 920 38 1800 350/08 RMK AO2
14926KSTC STC20011106132009811/06/01 13:20:31  5-MIN KSTC 061920Z AUTO 35008KT 10SM CLR 20/06 A3003 920 38 1800 350/08 RMK AO2
14926KSTC STC20011106132509811/06/01 13:25:31  5-MIN KSTC 061925Z AUTO 36008KT 10SM CLR 20/06 A3003 920 38 1800 350/08 RMK AO2
14926KSTC STC20011106133009811/06/01 13:30:31  5-MIN KSTC 061930Z AUTO 34010KT 10SM CLR 20/06 A3004 920 38 1800 340/10 RMK AO2
14926KSTC STC20011106133509811/06/01 13:35:31  5-MIN KSTC 061935Z AUTO 34008KT 10SM CLR 21/06 A3004 920 38 1800 340/08 RMK AO2
14926KSTC STC20011106134009811/06/01 13:40:31  5-MIN KSTC 061940Z AUTO 01010KT 10SM CLR 20/06 A3004 920 38 1800 360/10 RMK AO2
14926KSTC STC20011106134509811/06/01 13:45:31  5-MIN KSTC 061945Z AUTO 35009KT 10SM CLR 20/06 A3004 920 38 1800 350/09 RMK AO2
14926KSTC STC20011106135011511/06/01 13:50:31  5-MIN KSTC 061950Z AUTO 35010KT 10SM CLR 21/06 A3004 920 37 1800 340/10 RMK AO2 SLP179 T02060056
14926KSTC STC20011106135510411/06/01 13:55:31  5-MIN KSTC 061955Z AUTO 35011G16KT 10SM CLR 21/04 A3004 920 34 1800 350/11G16 RMK AO2
14926KSTC STC20011106140010411/06/01 14:00:31  5-MIN KSTC 062000Z AUTO 35011G16KT 10SM CLR 21/04 A3004 920 34 1800 340/11G16 RMK AO2
14926KSTC STC20011106140509811/06/01 14:05:31  5-MIN KSTC 062005Z AUTO 34010KT 10SM CLR 21/04 A3004 920 34 1800 340/10 RMK AO2
14926KSTC STC20011106141009811/06/01 14:10:31  5-MIN KSTC 062010Z AUTO 36009KT 10SM CLR 21/04 A3004 920 34 1800 360/09 RMK AO2
14926KSTC STC20011106141509811/06/01 14:15:31  5-MIN KSTC 062015Z AUTO 36008KT 10SM CLR 21/04 A3004 920 34 1800 360/08 RMK AO2
14926KSTC STC20011106142009811/06/01 14:20:31  5-MIN KSTC 062020Z AUTO 35010KT 10SM CLR 21/04 A3004 910 33 1900 350/10 RMK AO2
14926KSTC STC20011106142509811/06/01 14:25:31  5-MIN KSTC 062025Z AUTO 35010KT 10SM CLR 21/04 A3004 910 33 1800 350/10 RMK AO2
14926KSTC STC20011106143009811/06/01 14:30:31  5-MIN KSTC 062030Z AUTO 36011KT 10SM CLR 21/04 A3004 910 33 1800 360/11 RMK AO2
14926KSTC STC20011106143509811/06/01 14:35:31  5-MIN KSTC 062035Z AUTO 01008KT 10SM CLR 21/04 A3005 910 33 1800 010/08 RMK AO2
14926KSTC STC20011106144009811/06/01 14:40:31  5-MIN KSTC 062040Z AUTO 01009KT 10SM CLR 21/04 A3005 910 33 1800 010/09 RMK AO2
14926KSTC STC20011106144509811/06/01 14:45:31  5-MIN KSTC 062045Z AUTO 01008KT 10SM CLR 21/04 A3005 910 32 1900 360/08 RMK AO2
14926KSTC STC20011106145012111/06/01 14:50:31  5-MIN KSTC 062050Z AUTO 35009KT 10SM CLR 21/04 A3005 910 33 1800 350/09 RMK AO2 SLP183 T02060039 50013
14926KSTC STC20011106145509811/06/01 14:55:31  5-MIN KSTC 062055Z AUTO 34009KT 10SM CLR 21/04 A3005 910 33 1800 340/09 RMK AO2
14926KSTC STC20011106150009811/06/01 15:00:31  5-MIN KSTC 062100Z AUTO 34010KT 10SM CLR 21/04 A3005 900 33 1800 340/10 RMK AO2
14926KSTC STC20011106150509811/06/01 15:05:31  5-MIN KSTC 062105Z AUTO 34010KT 10SM CLR 20/04 A3006 900 34 1700 340/10 RMK AO2
14926KSTC STC20011106151009811/06/01 15:10:31  5-MIN KSTC 062110Z AUTO 35009KT 10SM CLR 20/04 A3006 900 34 1700 350/09 RMK AO2
14926KSTC STC20011106151509811/06/01 15:15:31  5-MIN KSTC 062115Z AUTO 35011KT 10SM CLR 20/04 A3006 900 34 1700 340/11 RMK AO2
14926KSTC STC20011106152009811/06/01 15:20:31  5-MIN KSTC 062120Z AUTO 36010KT 10SM CLR 20/03 A3006 900 33 1700 360/10 RMK AO2
14926KSTC STC20011106152509811/06/01 15:25:31  5-MIN KSTC 062125Z AUTO 35008KT 10SM CLR 20/03 A3006 890 33 1700 350/08 RMK AO2
14926KSTC STC20011106153009811/06/01 15:30:31  5-MIN KSTC 062130Z AUTO 34010KT 10SM CLR 19/03 A3007 890 34 1700 340/10 RMK AO2
14926KSTC STC20011106153509811/06/01 15:35:31  5-MIN KSTC 062135Z AUTO 34010KT 10SM CLR 19/03 A3007 890 34 1700 340/10 RMK AO2
14926KSTC STC20011106154009811/06/01 15:40:31  5-MIN KSTC 062140Z AUTO 34010KT 10SM CLR 19/04 A3007 890 35 1700 340/10 RMK AO2
14926KSTC STC20011106154509811/06/01 15:45:31  5-MIN KSTC 062145Z AUTO 35008KT 10SM CLR 19/04 A3007 890 36 1600 350/08 RMK AO2
14926KSTC STC20011106155011511/06/01 15:50:31  5-MIN KSTC 062150Z AUTO 35009KT 10SM CLR 19/04 A3007 890 36 1600 350/09 RMK AO2 SLP192 T01890039
14926KSTC STC20011106155509811/06/01 15:55:31  5-MIN KSTC 062155Z AUTO 34008KT 10SM CLR 19/04 A3007 890 36 1600 340/08 RMK AO2
14926KSTC STC20011106160009811/06/01 16:00:31  5-MIN KSTC 062200Z AUTO 35009KT 10SM CLR 18/04 A3007 880 38 1500 340/09 RMK AO2
14926KSTC STC20011106160509811/06/01 16:05:31  5-MIN KSTC 062205Z AUTO 35008KT 10SM CLR 18/04 A3008 880 38 1500 340/08 RMK AO2
14926KSTC STC20011106161009811/06/01 16:10:31  5-MIN KSTC 062210Z AUTO 35008KT 10SM CLR 18/04 A3008 880 39 1500 340/08 RMK AO2
14926KSTC STC20011106161509811/06/01 16:15:31  5-MIN KSTC 062215Z AUTO 35009KT 10SM CLR 18/04 A3008 880 39 1400 350/09 RMK AO2
14926KSTC STC20011106162009811/06/01 16:20:31  5-MIN KSTC 062220Z AUTO 36008KT 10SM CLR 18/04 A3008 880 39 1400 350/08 RMK AO2
14926KSTC STC20011106162509811/06/01 16:25:31  5-MIN KSTC 062225Z AUTO 35006KT 10SM CLR 17/04 A3008 880 41 1400 350/06 RMK AO2
14926KSTC STC20011106163009811/06/01 16:30:31  5-MIN KSTC 062230Z AUTO 35007KT 10SM CLR 17/04 A3008 880 42 1300 350/07 RMK AO2
14926KSTC STC20011106163509811/06/01 16:35:31  5-MIN KSTC 062235Z AUTO 36007KT 10SM CLR 17/03 A3008 870 40 1300 350/07 RMK AO2
14926KSTC STC20011106164009811/06/01 16:40:31  5-MIN KSTC 062240Z AUTO 36007KT 10SM CLR 16/03 A3009 870 40 1200 360/07 RMK AO2
14926KSTC STC20011106164509811/06/01 16:45:31  5-MIN KSTC 062245Z AUTO 36006KT 10SM CLR 16/03 A3009 870 42 1200 360/06 RMK AO2
14926KSTC STC20011106165011511/06/01 16:50:31  5-MIN KSTC 062250Z AUTO 01006KT 10SM CLR 15/03 A3009 870 43 1100 360/06 RMK AO2 SLP200 T01500028
14926KSTC STC20011106165509811/06/01 16:55:31  5-MIN KSTC 062255Z AUTO 01006KT 10SM CLR 14/03 A3009 870 45 1000 010/06 RMK AO2
14926KSTC STC20011106170009811/06/01 17:00:31  5-MIN KSTC 062300Z AUTO 01007KT 10SM CLR 14/03 A3009 870 45 1000 010/07 RMK AO2
14926KSTC STC20011106170509811/06/01 17:05:31  5-MIN KSTC 062305Z AUTO 01007KT 10SM CLR 14/03 A3009 870 47 1000 360/07 RMK AO2
14926KSTC STC20011106171009711/06/01 17:10:31  5-MIN KSTC 062310Z AUTO 01007KT 10SM CLR 13/03 A3009 870 48 900 360/07 RMK AO2
14926KSTC STC20011106171509711/06/01 17:15:31  5-MIN KSTC 062315Z AUTO 01007KT 10SM CLR 13/03 A3010 860 48 900 360/07 RMK AO2
14926KSTC STC20011106172009711/06/01 17:20:31  5-MIN KSTC 062320Z AUTO 01008KT 10SM CLR 13/03 A3010 860 48 900 010/08 RMK AO2
14926KSTC STC20011106172509711/06/01 17:25:31  5-MIN KSTC 062325Z AUTO 36007KT 10SM CLR 13/03 A3010 860 50 800 360/07 RMK AO2
14926KSTC STC20011106173009711/06/01 17:30:31  5-MIN KSTC 062330Z AUTO 36007KT 10SM CLR 13/03 A3010 860 50 800 360/07 RMK AO2
14926KSTC STC20011106173509711/06/01 17:35:31  5-MIN KSTC 062335Z AUTO 36007KT 10SM CLR 13/03 A3011 850 48 900 360/07 RMK AO2
14926KSTC STC20011106174009711/06/01 17:40:31  5-MIN KSTC 062340Z AUTO 36006KT 10SM CLR 13/03 A3011 850 50 800 360/06 RMK AO2
14926KSTC STC20011106174509711/06/01 17:45:31  5-MIN KSTC 062345Z AUTO 36007KT 10SM CLR 12/02 A3011 850 50 800 350/07 RMK AO2
14926KSTC STC20011106175013211/06/01 17:50:31  5-MIN KSTC 062350Z AUTO 36007KT 10SM CLR 12/02 A3011 850 50 800 360/07 RMK AO2 SLP208 T01220022 10211 20122 53008
14926KSTC STC20011106175509711/06/01 17:55:31  5-MIN KSTC 062355Z AUTO 01008KT 10SM CLR 12/02 A3011 850 50 800 360/08 RMK AO2
14926KSTC STC20011106180009711/06/01 18:00:31  5-MIN KSTC 070000Z AUTO 01008KT 10SM CLR 12/03 A3011 850 52 800 360/08 RMK AO2
14926KSTC STC20011106180509711/06/01 18:05:31  5-MIN KSTC 070005Z AUTO 36008KT 10SM CLR 12/03 A3011 850 52 800 360/08 RMK AO2
14926KSTC STC20011106181009711/06/01 18:10:31  5-MIN KSTC 070010Z AUTO 36008KT 10SM CLR 12/03 A3012 850 52 800 360/08 RMK AO2
14926KSTC STC20011106181509711/06/01 18:15:31  5-MIN KSTC 070015Z AUTO 36008KT 10SM CLR 12/03 A3012 840 52 800 360/08 RMK AO2
14926KSTC STC20011106182009711/06/01 18:20:31  5-MIN KSTC 070020Z AUTO 36008KT 10SM CLR 12/03 A3012 840 54 700 360/08 RMK AO2
14926KSTC STC20011106182509711/06/01 18:25:31  5-MIN KSTC 070025Z AUTO 36008KT 10SM CLR 12/03 A3012 840 54 700 360/08 RMK AO2
14926KSTC STC20011106183009711/06/01 18:30:31  5-MIN KSTC 070030Z AUTO 36008KT 10SM CLR 12/03 A3012 840 54 700 360/08 RMK AO2
14926KSTC STC20011106183509711/06/01 18:35:31  5-MIN KSTC 070035Z AUTO 36008KT 10SM CLR 12/03 A3013 840 54 700 360/08 RMK AO2
14926KSTC STC20011106184009711/06/01 18:40:31  5-MIN KSTC 070040Z AUTO 36009KT 10SM CLR 11/03 A3013 840 56 600 360/09 RMK AO2
14926KSTC STC20011106184509711/06/01 18:45:31  5-MIN KSTC 070045Z AUTO 01009KT 10SM CLR 11/03 A3013 830 56 600 360/09 RMK AO2
14926KSTC STC20011106185011411/06/01 18:50:31  5-MIN KSTC 070050Z AUTO 01009KT 10SM CLR 11/03 A3013 830 58 500 360/09 RMK AO2 SLP216 T01060028
14926KSTC STC20011106185509711/06/01 18:55:31  5-MIN KSTC 070055Z AUTO 01009KT 10SM CLR 11/03 A3013 830 58 500 360/09 RMK AO2
14926KSTC STC20011106190009711/06/01 19:00:31  5-MIN KSTC 070100Z AUTO 01008KT 10SM CLR 11/03 A3013 830 58 500 010/08 RMK AO2
14926KSTC STC20011106190509711/06/01 19:05:31  5-MIN KSTC 070105Z AUTO 01007KT 10SM CLR 11/03 A3014 830 58 500 010/07 RMK AO2
14926KSTC STC20011106191009711/06/01 19:10:31  5-MIN KSTC 070110Z AUTO 01008KT 10SM CLR 10/03 A3014 830 60 500 010/08 RMK AO2
14926KSTC STC20011106191509711/06/01 19:15:31  5-MIN KSTC 070115Z AUTO 01007KT 10SM CLR 10/03 A3014 830 60 500 360/07 RMK AO2
14926KSTC STC20011106192009711/06/01 19:20:31  5-MIN KSTC 070120Z AUTO 01007KT 10SM CLR 10/03 A3014 830 60 500 010/07 RMK AO2
14926KSTC STC20011106192509711/06/01 19:25:31  5-MIN KSTC 070125Z AUTO 01006KT 10SM CLR 10/03 A3014 830 60 500 010/06 RMK AO2
14926KSTC STC20011106193009711/06/01 19:30:31  5-MIN KSTC 070130Z AUTO 01006KT 10SM CLR 10/03 A3014 820 60 500 010/06 RMK AO2
14926KSTC STC20011106193509711/06/01 19:35:31  5-MIN KSTC 070135Z AUTO 01006KT 10SM CLR 09/03 A3014 820 63 400 010/06 RMK AO2
14926KSTC STC20011106194009711/06/01 19:40:31  5-MIN KSTC 070140Z AUTO 01006KT 10SM CLR 09/03 A3014 830 63 400 010/06 RMK AO2
14926KSTC STC20011106194509711/06/01 19:45:31  5-MIN KSTC 070145Z AUTO 01006KT 10SM CLR 09/03 A3014 830 65 300 010/06 RMK AO2
14926KSTC STC20011106195011411/06/01 19:50:31  5-MIN KSTC 070150Z AUTO 01007KT 10SM CLR 09/03 A3014 820 65 300 010/07 RMK AO2 SLP220 T00890028
14926KSTC STC20011106195509711/06/01 19:55:31  5-MIN KSTC 070155Z AUTO 01007KT 10SM CLR 09/03 A3014 820 63 400 010/07 RMK AO2
14926KSTC STC20011106200009711/06/01 20:00:31  5-MIN KSTC 070200Z AUTO 01007KT 10SM CLR 09/03 A3015 820 63 400 010/07 RMK AO2
14926KSTC STC20011106210009711/06/01 21:00:31  5-MIN KSTC 070300Z AUTO 03006KT 10SM CLR 09/03 A3016 810 65 300 020/06 RMK AO2
14926KSTC STC20011106210509711/06/01 21:05:31  5-MIN KSTC 070305Z AUTO 03006KT 10SM CLR 09/03 A3016 800 65 300 020/06 RMK AO2
14926KSTC STC20011106211009711/06/01 21:10:31  5-MIN KSTC 070310Z AUTO 03007KT 10SM CLR 09/03 A3016 800 65 300 020/07 RMK AO2
14926KSTC STC20011106211509711/06/01 21:15:31  5-MIN KSTC 070315Z AUTO 03006KT 10SM CLR 09/03 A3016 800 65 300 020/06 RMK AO2
14926KSTC STC20011106212009711/06/01 21:20:31  5-MIN KSTC 070320Z AUTO 03006KT 10SM CLR 09/03 A3016 800 65 300 030/06 RMK AO2
14926KSTC STC20011106212509711/06/01 21:25:31  5-MIN KSTC 070325Z AUTO 02006KT 10SM CLR 09/03 A3017 800 65 300 020/06 RMK AO2
14926KSTC STC20011106213009711/06/01 21:30:31  5-MIN KSTC 070330Z AUTO 02006KT 10SM CLR 09/03 A3017 800 65 300 020/06 RMK AO2
14926KSTC STC20011106213509711/06/01 21:35:31  5-MIN KSTC 070335Z AUTO 03006KT 10SM CLR 08/03 A3017 790 68 200 020/06 RMK AO2
14926KSTC STC20011106214009711/06/01 21:40:31  5-MIN KSTC 070340Z AUTO 03006KT 10SM CLR 08/03 A3017 790 68 200 020/06 RMK AO2
14926KSTC STC20011106214509711/06/01 21:45:31  5-MIN KSTC 070345Z AUTO 03005KT 10SM CLR 08/03 A3017 790 68 200 030/05 RMK AO2
14926KSTC STC20011106215011411/06/01 21:50:31  5-MIN KSTC 070350Z AUTO 03005KT 10SM CLR 08/03 A3017 790 68 200 030/05 RMK AO2 SLP230 T00830028
14926KSTC STC20011106215509711/06/01 21:55:31  5-MIN KSTC 070355Z AUTO 03005KT 10SM CLR 08/03 A3017 790 68 200 030/05 RMK AO2
14926KSTC STC20011106220009711/06/01 22:00:31  5-MIN KSTC 070400Z AUTO 04004KT 10SM CLR 08/03 A3017 790 68 200 040/04 RMK AO2
14926KSTC STC20011106220509711/06/01 22:05:31  5-MIN KSTC 070405Z AUTO 04004KT 10SM CLR 08/03 A3017 790 70 200 040/04 RMK AO2
14926KSTC STC20011106221009711/06/01 22:10:31  5-MIN KSTC 070410Z AUTO 04005KT 10SM CLR 08/03 A3018 790 70 200 040/05 RMK AO2
14926KSTC STC20011106221509711/06/01 22:15:31  5-MIN KSTC 070415Z AUTO 04005KT 10SM CLR 08/03 A3018 790 70 200 040/05 RMK AO2
14926KSTC STC20011106222009711/06/01 22:20:31  5-MIN KSTC 070420Z AUTO 04005KT 10SM CLR 08/03 A3018 790 70 100 040/05 RMK AO2
14926KSTC STC20011106222509711/06/01 22:25:31  5-MIN KSTC 070425Z AUTO 04006KT 10SM CLR 08/03 A3018 790 70 100 030/06 RMK AO2
14926KSTC STC20011106223009711/06/01 22:30:31  5-MIN KSTC 070430Z AUTO 03005KT 10SM CLR 08/03 A3018 790 70 200 030/05 RMK AO2
14926KSTC STC20011106223509711/06/01 22:35:31  5-MIN KSTC 070435Z AUTO 03006KT 10SM CLR 08/03 A3018 790 70 200 030/06 RMK AO2
14926KSTC STC20011106224009711/06/01 22:40:31  5-MIN KSTC 070440Z AUTO 03006KT 10SM CLR 08/03 A3018 790 70 200 020/06 RMK AO2
14926KSTC STC20011106224509711/06/01 22:45:31  5-MIN KSTC 070445Z AUTO 03004KT 10SM CLR 08/03 A3017 790 70 200 030/04 RMK AO2
14926KSTC STC20011106225011411/06/01 22:50:31  5-MIN KSTC 070450Z AUTO 04004KT 10SM CLR 08/03 A3017 790 70 200 040/04 RMK AO2 SLP230 T00780028
14926KSTC STC20011106225509711/06/01 22:55:31  5-MIN KSTC 070455Z AUTO 03004KT 10SM CLR 08/03 A3018 790 70 200 030/04 RMK AO2
14926KSTC STC20011106230009711/06/01 23:00:31  5-MIN KSTC 070500Z AUTO 04004KT 10SM CLR 07/03 A3018 790 73 100 040/04 RMK AO2
14926KSTC STC20011106230509711/06/01 23:05:31  5-MIN KSTC 070505Z AUTO 03004KT 10SM CLR 07/03 A3017 790 73 100 030/04 RMK AO2
14926KSTC STC20011106231009711/06/01 23:10:31  5-MIN KSTC 070510Z AUTO 04005KT 10SM CLR 07/03 A3017 790 73 100 030/05 RMK AO2
14926KSTC STC20011106231509711/06/01 23:15:31  5-MIN KSTC 070515Z AUTO 04005KT 10SM CLR 07/03 A3017 790 73 100 040/05 RMK AO2
14926KSTC STC20011106232009711/06/01 23:20:31  5-MIN KSTC 070520Z AUTO 05005KT 10SM CLR 07/03 A3017 800 73 100 040/05 RMK AO2
14926KSTC STC20011106232509711/06/01 23:25:31  5-MIN KSTC 070525Z AUTO 05005KT 10SM CLR 07/03 A3017 800 73 100 050/05 RMK AO2
14926KSTC STC20011106233009711/06/01 23:30:31  5-MIN KSTC 070530Z AUTO 06005KT 10SM CLR 07/03 A3017 800 73 100 060/05 RMK AO2
14926KSTC STC20011106233509711/06/01 23:35:31  5-MIN KSTC 070535Z AUTO 06005KT 10SM CLR 07/03 A3017 800 73 100 060/05 RMK AO2
14926KSTC STC20011106234009711/06/01 23:40:31  5-MIN KSTC 070540Z AUTO VRB06KT 10SM CLR 07/03 A3017 790 76 100 VRB/06 RMK AO2
14926KSTC STC20011106234509711/06/01 23:45:31  5-MIN KSTC 070545Z AUTO 06006KT 10SM CLR 07/03 A3017 800 76 100 060/06 RMK AO2
14926KSTC STC20011106235014211/06/01 23:50:31  5-MIN KSTC 070550Z AUTO 07007KT 10SM CLR 08/03 A3017 800 73 200 060/07 RMK AO2 SLP227 T00780033 10122 20072 402110056 51015
14926KSTC STC20011106235509711/06/01 23:55:31  5-MIN KSTC 070555Z AUTO 06007KT 10SM CLR 08/03 A3016 800 73 200 060/07 RMK AO2
14926KSTC STC20011107000009711/07/01 00:00:31  5-MIN KSTC 070600Z AUTO 08006KT 10SM CLR 08/03 A3016 800 73 200 070/06 RMK AO2
14926KSTC STC20011107000509711/07/01 00:05:31  5-MIN KSTC 070605Z AUTO 08009KT 10SM CLR 08/03 A3016 800 73 200 070/09 RMK AO2
14926KSTC STC20011107001009711/07/01 00:10:31  5-MIN KSTC 070610Z AUTO 09006KT 10SM CLR 08/03 A3016 800 73 200 080/06 RMK AO2
14926KSTC STC20011107001509711/07/01 00:15:31  5-MIN KSTC 070615Z AUTO 08007KT 10SM CLR 07/03 A3016 810 76 100 070/07 RMK AO2
14926KSTC STC20011107002009711/07/01 00:20:31  5-MIN KSTC 070620Z AUTO 08007KT 10SM CLR 07/03 A3016 800 76 100 080/07 RMK AO2
14926KSTC STC20011107002509711/07/01 00:25:31  5-MIN KSTC 070625Z AUTO 08006KT 10SM CLR 07/03 A3016 810 76 100 070/06 RMK AO2
14926KSTC STC20011107003009711/07/01 00:30:31  5-MIN KSTC 070630Z AUTO 08006KT 10SM CLR 07/03 A3016 800 76 100 070/06 RMK AO2
14926KSTC STC20011107003509711/07/01 00:35:31  5-MIN KSTC 070635Z AUTO 08006KT 10SM CLR 07/03 A3016 800 76 100 070/06 RMK AO2
14926KSTC STC20011107004009711/07/01 00:40:31  5-MIN KSTC 070640Z AUTO 07005KT 10SM CLR 07/03 A3016 800 76 100 070/05 RMK AO2
14926KSTC STC20011107004509711/07/01 00:45:31  5-MIN KSTC 070645Z AUTO 07006KT 10SM CLR 07/03 A3016 810 76 100 070/06 RMK AO2
14926KSTC STC20011107005011411/07/01 00:50:31  5-MIN KSTC 070650Z AUTO 07007KT 10SM CLR 07/03 A3016 810 76 100 070/07 RMK AO2 SLP223 T00720033
14926KSTC STC20011107005509511/07/01 00:55:31  5-MIN KSTC 070655Z AUTO 07006KT 10SM CLR 07/03 A3016 810 79 0 070/06 RMK AO2
14926KSTC STC20011107010009511/07/01 01:00:31  5-MIN KSTC 070700Z AUTO 07008KT 10SM CLR 07/03 A3015 810 79 0 070/08 RMK AO2
14926KSTC STC20011107010509511/07/01 01:05:31  5-MIN KSTC 070705Z AUTO 07007KT 10SM CLR 07/03 A3015 810 79 0 070/07 RMK AO2
14926KSTC STC20011107011009511/07/01 01:10:31  5-MIN KSTC 070710Z AUTO 07009KT 10SM CLR 07/03 A3015 820 79 0 070/09 RMK AO2
14926KSTC STC20011107011509711/07/01 01:15:31  5-MIN KSTC 070715Z AUTO 07009KT 10SM CLR 07/03 A3015 820 79 100 070/09 RMK AO2
14926KSTC STC20011107012009711/07/01 01:20:31  5-MIN KSTC 070720Z AUTO 07008KT 10SM CLR 07/03 A3014 820 79 100 070/08 RMK AO2
14926KSTC STC20011107012509711/07/01 01:25:31  5-MIN KSTC 070725Z AUTO 07008KT 10SM CLR 07/03 A3014 820 79 100 070/08 RMK AO2
14926KSTC STC20011107013009711/07/01 01:30:31  5-MIN KSTC 070730Z AUTO 07009KT 10SM CLR 07/03 A3014 820 79 100 070/09 RMK AO2
14926KSTC STC20011107013509711/07/01 01:35:31  5-MIN KSTC 070735Z AUTO 07009KT 10SM CLR 07/03 A3014 820 79 100 070/09 RMK AO2
14926KSTC STC20011107014009711/07/01 01:40:31  5-MIN KSTC 070740Z AUTO 07009KT 10SM CLR 07/03 A3014 820 79 100 070/09 RMK AO2
14926KSTC STC20011107014509711/07/01 01:45:31  5-MIN KSTC 070745Z AUTO 07009KT 10SM CLR 07/03 A3014 820 79 100 070/09 RMK AO2
14926KSTC STC20011107015011411/07/01 01:50:31  5-MIN KSTC 070750Z AUTO 08009KT 10SM CLR 07/03 A3014 820 79 100 070/09 RMK AO2 SLP218 T00670033
14926KSTC STC20011107015509711/07/01 01:55:31  5-MIN KSTC 070755Z AUTO 08009KT 10SM CLR 07/03 A3014 820 79 100 070/09 RMK AO2
14926KSTC STC20011107020009511/07/01 02:00:31  5-MIN KSTC 070800Z AUTO 08009KT 10SM CLR 06/03 A3014 820 82 0 080/09 RMK AO2
14926KSTC STC20011107020509711/07/01 02:05:31  5-MIN KSTC 070805Z AUTO 08009KT 10SM CLR 07/03 A3014 830 79 100 080/09 RMK AO2
14926KSTC STC20011107021009511/07/01 02:10:31  5-MIN KSTC 070810Z AUTO 08010KT 10SM CLR 06/03 A3013 830 82 0 070/10 RMK AO2
14926KSTC STC20011107021509511/07/01 02:15:31  5-MIN KSTC 070815Z AUTO 08010KT 10SM CLR 06/03 A3013 830 82 0 070/10 RMK AO2
14926KSTC STC20011107022009511/07/01 02:20:31  5-MIN KSTC 070820Z AUTO 08009KT 10SM CLR 06/03 A3013 830 82 0 070/09 RMK AO2
14926KSTC STC20011107022509511/07/01 02:25:31  5-MIN KSTC 070825Z AUTO 08010KT 10SM CLR 06/03 A3013 830 82 0 080/10 RMK AO2
14926KSTC STC20011107023009511/07/01 02:30:31  5-MIN KSTC 070830Z AUTO 08009KT 10SM CLR 06/03 A3013 830 82 0 080/09 RMK AO2
14926KSTC STC20011107023509511/07/01 02:35:31  5-MIN KSTC 070835Z AUTO 09009KT 10SM CLR 06/03 A3013 830 82 0 080/09 RMK AO2
14926KSTC STC20011107024010111/07/01 02:40:31  5-MIN KSTC 070840Z AUTO 09008G15KT 10SM CLR 06/03 A3013 830 82 0 080/08G15 RMK AO2
14926KSTC STC20011107024509511/07/01 02:45:31  5-MIN KSTC 070845Z AUTO 09009KT 10SM CLR 06/03 A3013 830 82 0 090/09 RMK AO2
14926KSTC STC20011107025011811/07/01 02:50:31  5-MIN KSTC 070850Z AUTO 09007KT 10SM CLR 06/03 A3013 830 82 0 080/07 RMK AO2 SLP213 T00610033 50004
14926KSTC STC20011107025509511/07/01 02:55:31  5-MIN KSTC 070855Z AUTO 08008KT 10SM CLR 06/03 A3013 830 82 0 080/08 RMK AO2
14926KSTC STC20011107030009511/07/01 03:00:31  5-MIN KSTC 070900Z AUTO 08008KT 10SM CLR 06/03 A3013 830 85 0 080/08 RMK AO2
14926KSTC STC20011107030509511/07/01 03:05:31  5-MIN KSTC 070905Z AUTO 09007KT 10SM CLR 06/03 A3013 830 85 0 080/07 RMK AO2
14926KSTC STC20011107031009511/07/01 03:10:31  5-MIN KSTC 070910Z AUTO 09009KT 10SM CLR 06/03 A3013 840 85 0 090/09 RMK AO2
14926KSTC STC20011107031509511/07/01 03:15:31  5-MIN KSTC 070915Z AUTO 09006KT 10SM CLR 06/03 A3012 840 85 0 080/06 RMK AO2
14926KSTC STC20011107032009511/07/01 03:20:31  5-MIN KSTC 070920Z AUTO 09008KT 10SM CLR 06/03 A3012 840 85 0 080/08 RMK AO2
14926KSTC STC20011107032509511/07/01 03:25:31  5-MIN KSTC 070925Z AUTO 09008KT 10SM CLR 06/03 A3012 840 85 0 090/08 RMK AO2
14926KSTC STC20011107033009511/07/01 03:30:31  5-MIN KSTC 070930Z AUTO 10008KT 10SM CLR 06/03 A3012 840 85 0 090/08 RMK AO2
14926KSTC STC20011107033509511/07/01 03:35:31  5-MIN KSTC 070935Z AUTO 10008KT 10SM CLR 06/03 A3012 840 85 0 090/08 RMK AO2
14926KSTC STC20011107034009511/07/01 03:40:31  5-MIN KSTC 070940Z AUTO 10008KT 10SM CLR 06/03 A3012 840 85 0 100/08 RMK AO2
14926KSTC STC20011107034509511/07/01 03:45:31  5-MIN KSTC 070945Z AUTO 10008KT 10SM CLR 06/03 A3012 840 85 0 090/08 RMK AO2
14926KSTC STC20011107035011211/07/01 03:50:31  5-MIN KSTC 070950Z AUTO 09007KT 10SM CLR 06/03 A3012 840 85 0 080/07 RMK AO2 SLP210 T00560033
14926KSTC STC20011107035509511/07/01 03:55:31  5-MIN KSTC 070955Z AUTO 09008KT 10SM CLR 06/03 A3012 840 85 0 080/08 RMK AO2
14926KSTC STC20011107040009511/07/01 04:00:31  5-MIN KSTC 071000Z AUTO 09008KT 10SM CLR 06/03 A3012 840 85 0 090/08 RMK AO2
14926KSTC STC20011107040509811/07/01 04:05:31  5-MIN KSTC 071005Z AUTO 09008KT 10SM CLR 05/03 A3012 840 89 -100 080/08 RMK AO2
14926KSTC STC20011107041009811/07/01 04:10:31  5-MIN KSTC 071010Z AUTO 09009KT 10SM CLR 05/03 A3011 850 89 -100 080/09 RMK AO2
14926KSTC STC20011107041509811/07/01 04:15:31  5-MIN KSTC 071015Z AUTO 09008KT 10SM CLR 05/03 A3011 850 89 -100 090/08 RMK AO2
14926KSTC STC20011107042009811/07/01 04:20:31  5-MIN KSTC 071020Z AUTO 08008KT 10SM CLR 05/03 A3011 850 89 -100 080/08 RMK AO2
14926KSTC STC20011107042509811/07/01 04:25:31  5-MIN KSTC 071025Z AUTO 08009KT 10SM CLR 05/03 A3011 850 89 -100 080/09 RMK AO2
14926KSTC STC20011107043009811/07/01 04:30:31  5-MIN KSTC 071030Z AUTO 08008KT 10SM CLR 05/03 A3011 850 89 -100 080/08 RMK AO2
14926KSTC STC20011107043509811/07/01 04:35:31  5-MIN KSTC 071035Z AUTO 08007KT 10SM CLR 05/03 A3011 850 89 -100 080/07 RMK AO2
14926KSTC STC20011107044009811/07/01 04:40:31  5-MIN KSTC 071040Z AUTO 09007KT 10SM CLR 05/03 A3011 850 89 -100 090/07 RMK AO2
14926KSTC STC20011107044509811/07/01 04:45:31  5-MIN KSTC 071045Z AUTO 08008KT 10SM CLR 05/03 A3012 850 89 -100 070/08 RMK AO2
14926KSTC STC20011107045011511/07/01 04:50:31  5-MIN KSTC 071050Z AUTO 08006KT 10SM CLR 05/03 A3012 840 89 -100 080/06 RMK AO2 SLP212 T00500033
14926KSTC STC20011107045509811/07/01 04:55:31  5-MIN KSTC 071055Z AUTO 09007KT 10SM CLR 05/03 A3012 850 89 -100 080/07 RMK AO2
14926KSTC STC20011107050009811/07/01 05:00:31  5-MIN KSTC 071100Z AUTO 09008KT 10SM CLR 04/03 A3012 840 92 -100 090/08 RMK AO2
14926KSTC STC20011107050509811/07/01 05:05:31  5-MIN KSTC 071105Z AUTO 09008KT 10SM CLR 04/03 A3012 840 92 -100 090/08 RMK AO2
14926KSTC STC20011107051009811/07/01 05:10:31  5-MIN KSTC 071110Z AUTO 09010KT 10SM CLR 04/03 A3011 850 92 -100 090/10 RMK AO2
14926KSTC STC20011107051509811/07/01 05:15:31  5-MIN KSTC 071115Z AUTO 10010KT 10SM CLR 04/03 A3011 850 92 -100 090/10 RMK AO2
14926KSTC STC20011107052009811/07/01 05:20:31  5-MIN KSTC 071120Z AUTO 09010KT 10SM CLR 04/03 A3011 850 92 -100 090/10 RMK AO2
14926KSTC STC20011107052509811/07/01 05:25:31  5-MIN KSTC 071125Z AUTO 09009KT 10SM CLR 04/03 A3011 850 92 -100 080/09 RMK AO2
14926KSTC STC20011107053009811/07/01 05:30:31  5-MIN KSTC 071130Z AUTO 09009KT 10SM CLR 04/03 A3011 850 92 -100 080/09 RMK AO2
14926KSTC STC20011107053509811/07/01 05:35:31  5-MIN KSTC 071135Z AUTO 08008KT 10SM CLR 04/03 A3011 860 92 -100 080/08 RMK AO2
14926KSTC STC20011107054009811/07/01 05:40:31  5-MIN KSTC 071140Z AUTO 09011KT 10SM CLR 04/03 A3010 860 92 -100 090/11 RMK AO2
14926KSTC STC20011107054509811/07/01 05:45:31  5-MIN KSTC 071145Z AUTO 09010KT 10SM CLR 04/03 A3010 860 92 -100 090/10 RMK AO2
14926KSTC STC20011107055013311/07/01 05:50:31  5-MIN KSTC 071150Z AUTO 09011KT 10SM CLR 04/03 A3010 860 92 -100 090/11 RMK AO2 SLP207 T00440033 10078 20044 58013
14926KSTC STC20011107055509811/07/01 05:55:31  5-MIN KSTC 071155Z AUTO 09010KT 10SM CLR 04/03 A3010 860 92 -100 090/10 RMK AO2
14926KSTC STC20011107060009811/07/01 06:00:31  5-MIN KSTC 071200Z AUTO 09009KT 10SM CLR 04/03 A3010 860 92 -100 090/09 RMK AO2
14926KSTC STC20011107060509811/07/01 06:05:31  5-MIN KSTC 071205Z AUTO 09011KT 10SM CLR 04/03 A3009 870 92 -100 090/11 RMK AO2
14926KSTC STC20011107061009811/07/01 06:10:31  5-MIN KSTC 071210Z AUTO 10010KT 10SM CLR 04/03 A3009 870 92 -100 100/10 RMK AO2
14926KSTC STC20011107061509811/07/01 06:15:31  5-MIN KSTC 071215Z AUTO 09010KT 10SM CLR 04/03 A3009 870 92 -100 090/10 RMK AO2
14926KSTC STC20011107062009811/07/01 06:20:31  5-MIN KSTC 071220Z AUTO 09009KT 10SM CLR 04/03 A3009 870 92 -100 090/09 RMK AO2
14926KSTC STC20011107062509811/07/01 06:25:31  5-MIN KSTC 071225Z AUTO 10009KT 10SM CLR 04/03 A3009 870 96 -200 090/09 RMK AO2
14926KSTC STC20011107063009811/07/01 06:30:31  5-MIN KSTC 071230Z AUTO 09009KT 10SM CLR 04/03 A3009 870 96 -200 090/09 RMK AO2
14926KSTC STC20011107063509811/07/01 06:35:31  5-MIN KSTC 071235Z AUTO 09008KT 10SM CLR 04/03 A3009 870 96 -200 090/08 RMK AO2
14926KSTC STC20011107064009811/07/01 06:40:31  5-MIN KSTC 071240Z AUTO 08008KT 10SM CLR 04/03 A3010 860 96 -200 080/08 RMK AO2
14926KSTC STC20011107064509811/07/01 06:45:31  5-MIN KSTC 071245Z AUTO 08008KT 10SM CLR 04/03 A3010 860 96 -200 080/08 RMK AO2
14926KSTC STC20011107065011511/07/01 06:50:31  5-MIN KSTC 071250Z AUTO 08007KT 10SM CLR 04/03 A3010 860 96 -200 080/07 RMK AO2 SLP207 T00390033
14926KSTC STC20011107065509811/07/01 06:55:31  5-MIN KSTC 071255Z AUTO 09007KT 10SM CLR 04/03 A3009 870 92 -200 080/07 RMK AO2
14926KSTC STC20011107070009811/07/01 07:00:31  5-MIN KSTC 071300Z AUTO 08010KT 10SM CLR 04/03 A3009 870 96 -200 080/10 RMK AO2
14926KSTC STC20011107070510411/07/01 07:05:31  5-MIN KSTC 071305Z AUTO 09010G16KT 10SM CLR 04/03 A3009 870 96 -200 080/10G16 RMK AO2
14926KSTC STC20011107071010411/07/01 07:10:31  5-MIN KSTC 071310Z AUTO 08007G16KT 10SM CLR 04/03 A3009 870 96 -200 080/07G16 RMK AO2
14926KSTC STC20011107071509811/07/01 07:15:31  5-MIN KSTC 071315Z AUTO 08009KT 10SM CLR 04/03 A3009 870 96 -200 080/09 RMK AO2
14926KSTC STC20011107072009811/07/01 07:20:31  5-MIN KSTC 071320Z AUTO 08007KT 10SM CLR 04/03 A3009 870 92 -200 080/07 RMK AO2
14926KSTC STC20011107072509811/07/01 07:25:31  5-MIN KSTC 071325Z AUTO 08009KT 10SM CLR 04/03 A3009 870 96 -200 080/09 RMK AO2
14926KSTC STC20011107073009811/07/01 07:30:31  5-MIN KSTC 071330Z AUTO 09008KT 10SM CLR 04/03 A3009 870 96 -200 090/08 RMK AO2
14926KSTC STC20011107073510111/07/01 07:35:31  5-MIN KSTC 071335Z AUTO 09010KT 10SM FEW030 04/03 A3008 880 96 -200 080/10 RMK AO2
14926KSTC STC20011107074010111/07/01 07:40:31  5-MIN KSTC 071340Z AUTO 08009KT 10SM SCT030 04/03 A3008 880 96 -200 080/09 RMK AO2
14926KSTC STC20011107074510111/07/01 07:45:31  5-MIN KSTC 071345Z AUTO 09011KT 10SM SCT030 04/03 A3007 880 96 -200 090/11 RMK AO2
14926KSTC STC20011107075011811/07/01 07:50:31  5-MIN KSTC 071350Z AUTO 09012KT 10SM SCT030 04/03 A3007 890 96 -200 090/12 RMK AO2 SLP198 T00390033
14926KSTC STC20011107075510111/07/01 07:55:31  5-MIN KSTC 071355Z AUTO 09010KT 10SM BKN030 04/03 A3007 890 92 -100 090/10 RMK AO2
14926KSTC STC20011107080010111/07/01 08:00:31  5-MIN KSTC 071400Z AUTO 09011KT 10SM BKN030 04/03 A3007 890 92 -100 090/11 RMK AO2
14926KSTC STC20011107080510111/07/01 08:05:31  5-MIN KSTC 071405Z AUTO 09013KT 10SM BKN030 04/03 A3007 890 92 -100 090/13 RMK AO2
14926KSTC STC20011107081010111/07/01 08:10:31  5-MIN KSTC 071410Z AUTO 09012KT 10SM BKN030 04/03 A3006 890 92 -100 090/12 RMK AO2
14926KSTC STC20011107081510111/07/01 08:15:31  5-MIN KSTC 071415Z AUTO 09011KT 10SM BKN030 04/03 A3006 900 92 -100 090/11 RMK AO2
14926KSTC STC20011107082010111/07/01 08:20:31  5-MIN KSTC 071420Z AUTO 09010KT 10SM BKN030 04/03 A3006 900 92 -100 090/10 RMK AO2
14926KSTC STC20011107082509811/07/01 08:25:31  5-MIN KSTC 071425Z AUTO 10012KT 10SM OVC030 05/04 A3006 900 92 0 090/12 RMK AO2
14926KSTC STC20011107083009811/07/01 08:30:31  5-MIN KSTC 071430Z AUTO 09011KT 10SM OVC030 05/04 A3006 900 92 0 090/11 RMK AO2
14926KSTC STC20011107083509811/07/01 08:35:31  5-MIN KSTC 071435Z AUTO 09012KT 10SM BKN030 05/04 A3006 900 92 0 090/12 RMK AO2
14926KSTC STC20011107084010411/07/01 08:40:31  5-MIN KSTC 071440Z AUTO 09010G17KT 10SM OVC030 06/04 A3006 900 89 0 090/10G17 RMK AO2
14926KSTC STC20011107084509811/07/01 08:45:31  5-MIN KSTC 071445Z AUTO 09012KT 10SM BKN030 06/04 A3006 900 89 0 090/12 RMK AO2
14926KSTC STC20011107085012111/07/01 08:50:31  5-MIN KSTC 071450Z AUTO 09011KT 10SM BKN030 06/04 A3006 900 89 0 090/11 RMK AO2 SLP194 T00560039 58011
14926KSTC STC20011107085510011/07/01 08:55:31  5-MIN KSTC 071455Z AUTO 10011KT 10SM SCT030 06/04 A3006 900 89 100 090/11 RMK AO2
14926KSTC STC20011107090010011/07/01 09:00:31  5-MIN KSTC 071500Z AUTO 10010KT 10SM FEW030 06/04 A3006 900 89 100 100/10 RMK AO2
14926KSTC STC20011107090510011/07/01 09:05:31  5-MIN KSTC 071505Z AUTO 10010KT 10SM FEW030 06/04 A3005 910 89 100 100/10 RMK AO2
14926KSTC STC20011107091009711/07/01 09:10:31  5-MIN KSTC 071510Z AUTO 10009KT 10SM CLR 06/04 A3005 910 89 100 090/09 RMK AO2
14926KSTC STC20011107091509711/07/01 09:15:31  5-MIN KSTC 071515Z AUTO 10010KT 10SM CLR 07/04 A3005 910 86 200 090/10 RMK AO2
14926KSTC STC20011107092009711/07/01 09:20:31  5-MIN KSTC 071520Z AUTO 09010KT 10SM CLR 07/05 A3005 910 89 200 090/10 RMK AO2
14926KSTC STC20011107092509711/07/01 09:25:31  5-MIN KSTC 071525Z AUTO 10009KT 10SM CLR 07/05 A3005 910 86 200 100/09 RMK AO2
14926KSTC STC20011107093009711/07/01 09:30:31  5-MIN KSTC 071530Z AUTO 09008KT 10SM CLR 08/05 A3005 910 82 300 090/08 RMK AO2
14926KSTC STC20011107093509711/07/01 09:35:31  5-MIN KSTC 071535Z AUTO 10006KT 10SM CLR 08/05 A3005 910 82 300 100/06 RMK AO2
14926KSTC STC20011107094009711/07/01 09:40:31  5-MIN KSTC 071540Z AUTO 11009KT 10SM CLR 08/06 A3005 910 82 400 110/09 RMK AO2
14926KSTC STC20011107094510011/07/01 09:45:31  5-MIN KSTC 071545Z AUTO 10011KT 10SM SCT013 08/06 A3005 910 82 400 100/11 RMK AO2
14926KSTC STC20011107095011711/07/01 09:50:31  5-MIN KSTC 071550Z AUTO 11011KT 10SM BKN013 08/06 A3004 910 82 400 100/11 RMK AO2 SLP188 T00830056
14926KSTC STC20011107095510011/07/01 09:55:31  5-MIN KSTC 071555Z AUTO 10009KT 10SM BKN013 08/06 A3004 910 82 400 100/09 RMK AO2
14926KSTC STC20011107100010011/07/01 10:00:31  5-MIN KSTC 071600Z AUTO 11010KT 10SM BKN013 08/06 A3004 910 82 400 110/10 RMK AO2
14926KSTC STC20011107100510011/07/01 10:05:31  5-MIN KSTC 071605Z AUTO 11007KT 10SM BKN013 09/06 A3004 920 79 400 110/07 RMK AO2
14926KSTC STC20011107101010011/07/01 10:10:31  5-MIN KSTC 071610Z AUTO 11008KT 10SM BKN013 09/06 A3003 920 83 400 100/08 RMK AO2
14926KSTC STC20011107101510011/07/01 10:15:31  5-MIN KSTC 071615Z AUTO 11008KT 10SM BKN013 09/06 A3003 920 83 500 110/08 RMK AO2
14926KSTC STC20011107102010011/07/01 10:20:31  5-MIN KSTC 071620Z AUTO 11008KT 10SM BKN013 09/06 A3003 930 83 500 110/08 RMK AO2
14926KSTC STC20011107102510011/07/01 10:25:31  5-MIN KSTC 071625Z AUTO 11008KT 10SM OVC013 09/07 A3003 920 83 500 110/08 RMK AO2
14926KSTC STC20011107103010011/07/01 10:30:31  5-MIN KSTC 071630Z AUTO 12009KT 10SM OVC013 09/07 A3004 920 83 500 110/09 RMK AO2
14926KSTC STC20011107103510011/07/01 10:35:31  5-MIN KSTC 071635Z AUTO 11010KT 10SM OVC013 10/07 A3004 920 80 600 110/10 RMK AO2
14926KSTC STC20011107104010011/07/01 10:40:31  5-MIN KSTC 071640Z AUTO 10008KT 10SM OVC013 09/07 A3004 920 83 500 100/08 RMK AO2
14926KSTC STC20011107104510011/07/01 10:45:31  5-MIN KSTC 071645Z AUTO VRB05KT 10SM OVC013 10/07 A3004 910 80 600 VRB/05 RMK AO2
14926KSTC STC20011107105011711/07/01 10:50:31  5-MIN KSTC 071650Z AUTO 10009KT 10SM OVC013 10/07 A3004 920 80 600 100/09 RMK AO2 SLP187 T01000067
14926KSTC STC20011107105510011/07/01 10:55:31  5-MIN KSTC 071655Z AUTO 10007KT 10SM OVC013 10/07 A3004 920 80 600 090/07 RMK AO2
14926KSTC STC20011107110010011/07/01 11:00:31  5-MIN KSTC 071700Z AUTO 10006KT 10SM OVC013 10/07 A3004 920 80 600 100/06 RMK AO2
14926KSTC STC20011107110510011/07/01 11:05:31  5-MIN KSTC 071705Z AUTO 09006KT 10SM OVC013 10/07 A3004 920 80 600 080/06 RMK AO2
14926KSTC STC20011107111010011/07/01 11:10:31  5-MIN KSTC 071710Z AUTO 09007KT 10SM OVC013 10/07 A3003 930 80 600 090/07 RMK AO2
14926KSTC STC20011107111510011/07/01 11:15:31  5-MIN KSTC 071715Z AUTO 10008KT 10SM OVC013 10/07 A3002 930 80 600 100/08 RMK AO2
14926KSTC STC20011107112010011/07/01 11:20:31  5-MIN KSTC 071720Z AUTO 09007KT 10SM OVC013 10/07 A3003 930 80 600 090/07 RMK AO2
14926KSTC STC20011107112510011/07/01 11:25:31  5-MIN KSTC 071725Z AUTO 10009KT 10SM OVC013 10/07 A3002 940 80 600 100/09 RMK AO2
14926KSTC STC20011107113010011/07/01 11:30:31  5-MIN KSTC 071730Z AUTO 11010KT 10SM OVC013 10/07 A3001 940 80 600 100/10 RMK AO2
14926KSTC STC20011107113510711/07/01 11:35:31  5-MIN KSTC 071735Z AUTO 10009KT 10SM OVC013 10/07 A3000 950 83 600 100/09 RMK AO2 PRESFR
14926KSTC STC20011107114010611/07/01 11:40:31  5-MIN KSTC 071740Z AUTO 10009KT 9SM OVC013 10/07 A3000 960 83 600 100/09 RMK AO2 PRESFR
14926KSTC STC20011107114510611/07/01 11:45:31  5-MIN KSTC 071745Z AUTO 11010KT 9SM OVC013 11/07 A2999 970 80 700 100/10 RMK AO2 PRESFR
14926KSTC STC20011107115013511/07/01 11:50:31  5-MIN KSTC 071750Z AUTO 10010KT 10SM OVC013 10/07 A2998 970 83 600 100/10 RMK AO2 SLP167 T01000072 10106 20039 58013
14926KSTC STC20011107115509911/07/01 11:55:31  5-MIN KSTC 071755Z AUTO 10007KT 9SM OVC013 10/07 A2998 970 83 600 100/07 RMK AO2
14926KSTC STC20011107120009911/07/01 12:00:31  5-MIN KSTC 071800Z AUTO 10006KT 9SM OVC013 11/07 A2999 970 80 700 090/06 RMK AO2
14926KSTC STC20011107120509911/07/01 12:05:31  5-MIN KSTC 071805Z AUTO 09008KT 9SM OVC013 11/08 A2998 970 83 700 090/08 RMK AO2
14926KSTC STC20011107121009911/07/01 12:10:31  5-MIN KSTC 071810Z AUTO VRB06KT 9SM OVC013 11/08 A2998 970 80 800 VRB/06 RMK AO2
14926KSTC STC20011107121509911/07/01 12:15:31  5-MIN KSTC 071815Z AUTO 08006KT 8SM OVC013 11/08 A2999 960 80 800 070/06 RMK AO2
14926KSTC STC20011107122009911/07/01 12:20:31  5-MIN KSTC 071820Z AUTO 05005KT 8SM OVC013 11/08 A2999 960 83 700 050/05 RMK AO2
14926KSTC STC20011107122509911/07/01 12:25:31  5-MIN KSTC 071825Z AUTO 09004KT 7SM OVC013 11/08 A2999 970 83 700 080/04 RMK AO2
14926KSTC STC20011107123009911/07/01 12:30:31  5-MIN KSTC 071830Z AUTO 09006KT 7SM OVC013 11/08 A2998 970 80 800 090/06 RMK AO2
14926KSTC STC20011107123509911/07/01 12:35:31  5-MIN KSTC 071835Z AUTO 09007KT 7SM OVC013 12/08 A2998 980 80 800 080/07 RMK AO2
14926KSTC STC20011107124009911/07/01 12:40:31  5-MIN KSTC 071840Z AUTO 06007KT 7SM OVC015 11/08 A2998 970 83 800 060/07 RMK AO2
14926KSTC STC20011107124509911/07/01 12:45:31  5-MIN KSTC 071845Z AUTO 09006KT 7SM OVC015 11/08 A2998 980 83 800 090/06 RMK AO2
14926KSTC STC20011107125011911/07/01 12:50:31  5-MIN KSTC 071850Z AUTO 09006KT 6SM HZ OVC015 11/08 A2997 980 83 800 080/06 RMK AO2 SLP161 T01110083
14926KSTC STC20011107125510211/07/01 12:55:31  5-MIN KSTC 071855Z AUTO 08007KT 6SM HZ OVC015 11/08 A2996 990 83 800 080/07 RMK AO2
14926KSTC STC20011107130010911/07/01 13:00:31  5-MIN KSTC 071900Z AUTO 09007KT 6SM HZ OVC015 11/08 A2996 990 83 800 080/07 RMK AO2 PRESFR
14926KSTC STC20011107130510211/07/01 13:05:31  5-MIN KSTC 071905Z AUTO 11007KT 6SM HZ OVC015 12/09 A2996 990 83 900 100/07 RMK AO2
14926KSTC STC20011107131010211/07/01 13:10:31  5-MIN KSTC 071910Z AUTO 09007KT 6SM HZ OVC015 12/09 A2996 990 83 900 090/07 RMK AO2
14926KSTC STC20011107131510311/07/01 13:15:31  5-MIN KSTC 071915Z AUTO 08008KT 6SM HZ OVC015 12/09 A2995 1000 83 900 080/08 RMK AO2
14926KSTC STC20011107132010311/07/01 13:20:31  5-MIN KSTC 071920Z AUTO 09007KT 5SM HZ OVC015 12/09 A2994 1000 83 900 090/07 RMK AO2
14926KSTC STC20011107132510311/07/01 13:25:31  5-MIN KSTC 071925Z AUTO 10008KT 6SM HZ OVC015 12/09 A2994 1010 83 900 090/08 RMK AO2
14926KSTC STC20011107133010311/07/01 13:30:31  5-MIN KSTC 071930Z AUTO 09008KT 5SM HZ OVC015 12/09 A2994 1010 83 900 090/08 RMK AO2
14926KSTC STC20011107133510311/07/01 13:35:31  5-MIN KSTC 071935Z AUTO 10006KT 5SM HZ OVC015 12/09 A2994 1010 83 900 100/06 RMK AO2
14926KSTC STC20011107134010411/07/01 13:40:31  5-MIN KSTC 071940Z AUTO 09007KT 5SM HZ OVC015 12/09 A2994 1010 80 1000 090/07 RMK AO2
14926KSTC STC20011107134510411/07/01 13:45:31  5-MIN KSTC 071945Z AUTO 08007KT 5SM HZ OVC015 12/09 A2994 1010 80 1000 080/07 RMK AO2
14926KSTC STC20011107135012111/07/01 13:50:31  5-MIN KSTC 071950Z AUTO 10007KT 5SM HZ OVC015 12/09 A2993 1020 80 1000 100/07 RMK AO2 SLP148 T01220089
14926KSTC STC20011107135510411/07/01 13:55:31  5-MIN KSTC 071955Z AUTO 11007KT 5SM HZ OVC017 12/09 A2993 1020 80 1000 110/07 RMK AO2
14926KSTC STC20011107140010411/07/01 14:00:31  5-MIN KSTC 072000Z AUTO 10007KT 5SM HZ OVC017 12/09 A2993 1020 83 1000 090/07 RMK AO2
14926KSTC STC20011107140510411/07/01 14:05:31  5-MIN KSTC 072005Z AUTO 10006KT 5SM HZ OVC017 12/09 A2992 1020 83 1000 100/06 RMK AO2
14926KSTC STC20011107141010411/07/01 14:10:31  5-MIN KSTC 072010Z AUTO 09007KT 5SM HZ OVC017 13/09 A2992 1020 80 1000 080/07 RMK AO2
14926KSTC STC20011107141510411/07/01 14:15:31  5-MIN KSTC 072015Z AUTO 08006KT 5SM HZ OVC017 13/09 A2992 1020 80 1000 070/06 RMK AO2
14926KSTC STC20011107142010411/07/01 14:20:31  5-MIN KSTC 072020Z AUTO 09006KT 5SM HZ OVC017 13/09 A2992 1020 80 1000 090/06 RMK AO2
14926KSTC STC20011107142510411/07/01 14:25:31  5-MIN KSTC 072025Z AUTO 09008KT 5SM HZ OVC017 12/09 A2992 1020 83 1000 080/08 RMK AO2
14926KSTC STC20011107143010411/07/01 14:30:31  5-MIN KSTC 072030Z AUTO 08007KT 5SM HZ OVC019 12/09 A2992 1030 83 1000 080/07 RMK AO2
14926KSTC STC20011107143510411/07/01 14:35:31  5-MIN KSTC 072035Z AUTO 09008KT 5SM HZ OVC019 13/09 A2992 1030 80 1000 090/08 RMK AO2
14926KSTC STC20011107144010411/07/01 14:40:31  5-MIN KSTC 072040Z AUTO 09008KT 5SM HZ OVC019 13/09 A2992 1020 80 1000 090/08 RMK AO2
14926KSTC STC20011107144510411/07/01 14:45:31  5-MIN KSTC 072045Z AUTO 08006KT 5SM HZ OVC019 13/09 A2992 1020 80 1000 080/06 RMK AO2
14926KSTC STC20011107145012711/07/01 14:50:31  5-MIN KSTC 072050Z AUTO 06009KT 5SM HZ OVC019 13/09 A2992 1020 80 1000 060/09 RMK AO2 SLP145 T01280094 58025
14926KSTC STC20011107145510411/07/01 14:55:31  5-MIN KSTC 072055Z AUTO 07007KT 5SM HZ BKN019 12/09 A2992 1020 83 1000 060/07 RMK AO2
14926KSTC STC20011107150010411/07/01 15:00:31  5-MIN KSTC 072100Z AUTO 06007KT 5SM HZ BKN019 12/09 A2993 1020 83 1000 060/07 RMK AO2
14926KSTC STC20011107150510411/07/01 15:05:31  5-MIN KSTC 072105Z AUTO 09008KT 5SM HZ SCT019 12/09 A2992 1030 83 1000 090/08 RMK AO2
14926KSTC STC20011107151010411/07/01 15:10:31  5-MIN KSTC 072110Z AUTO 09006KT 5SM HZ FEW019 12/09 A2992 1030 83 1000 080/06 RMK AO2
14926KSTC STC20011107151510411/07/01 15:15:31  5-MIN KSTC 072115Z AUTO 07006KT 5SM HZ FEW019 12/09 A2992 1020 83 1000 060/06 RMK AO2
14926KSTC STC20011107152010111/07/01 15:20:31  5-MIN KSTC 072120Z AUTO 06006KT 5SM HZ CLR 12/09 A2993 1020 83 1000 050/06 RMK AO2
14926KSTC STC20011107152510111/07/01 15:25:31  5-MIN KSTC 072125Z AUTO 04007KT 5SM HZ CLR 12/09 A2993 1020 83 1000 040/07 RMK AO2
14926KSTC STC20011107153010111/07/01 15:30:31  5-MIN KSTC 072130Z AUTO 06006KT 5SM HZ CLR 12/09 A2994 1010 83 1000 060/06 RMK AO2
14926KSTC STC20011107153510111/07/01 15:35:31  5-MIN KSTC 072135Z AUTO 04007KT 5SM HZ CLR 12/09 A2994 1010 83 1000 040/07 RMK AO2
14926KSTC STC20011107154010111/07/01 15:40:31  5-MIN KSTC 072140Z AUTO 05008KT 5SM HZ CLR 12/09 A2993 1010 83 1000 050/08 RMK AO2
14926KSTC STC20011107154510011/07/01 15:45:31  5-MIN KSTC 072145Z AUTO 04007KT 5SM HZ CLR 12/09 A2994 1010 83 900 040/07 RMK AO2
14926KSTC STC20011107155011711/07/01 15:50:31  5-MIN KSTC 072150Z AUTO 04006KT 5SM HZ CLR 12/09 A2994 1010 83 900 040/06 RMK AO2 SLP152 T01170089
14926KSTC STC20011107155510011/07/01 15:55:31  5-MIN KSTC 072155Z AUTO 05006KT 5SM HZ CLR 12/09 A2993 1020 83 900 050/06 RMK AO2
14926KSTC STC20011107160010011/07/01 16:00:31  5-MIN KSTC 072200Z AUTO 06007KT 5SM HZ CLR 12/09 A2993 1020 83 900 060/07 RMK AO2
14926KSTC STC20011107160510011/07/01 16:05:31  5-MIN KSTC 072205Z AUTO 05007KT 5SM HZ CLR 12/09 A2993 1020 83 900 040/07 RMK AO2
14926KSTC STC20011107161010011/07/01 16:10:31  5-MIN KSTC 072210Z AUTO 05006KT 5SM BR CLR 11/09 A2992 1030 86 800 050/06 RMK AO2
14926KSTC STC20011107161510011/07/01 16:15:31  5-MIN KSTC 072215Z AUTO 07007KT 5SM BR CLR 11/09 A2992 1030 86 800 070/07 RMK AO2
14926KSTC STC20011107162010011/07/01 16:20:31  5-MIN KSTC 072220Z AUTO 06006KT 5SM BR CLR 11/09 A2992 1030 86 800 060/06 RMK AO2
14926KSTC STC20011107162510011/07/01 16:25:31  5-MIN KSTC 072225Z AUTO 07005KT 5SM BR CLR 11/09 A2991 1030 86 900 060/05 RMK AO2
14926KSTC STC20011107163010011/07/01 16:30:31  5-MIN KSTC 072230Z AUTO 07007KT 5SM BR CLR 11/09 A2992 1020 86 800 070/07 RMK AO2
14926KSTC STC20011107163510011/07/01 16:35:31  5-MIN KSTC 072235Z AUTO 06007KT 5SM BR CLR 11/09 A2993 1020 86 800 060/07 RMK AO2
14926KSTC STC20011107164010311/07/01 16:40:31  5-MIN KSTC 072240Z AUTO 03004KT 5SM BR FEW050 11/09 A2993 1020 86 800 030/04 RMK AO2
14926KSTC STC20011107164511911/07/01 16:45:31  5-MIN KSTC 072245Z AUTO 02004KT 5SM -RA BR SCT050 11/09 A2993 1010 86 800 020/04 RMK AO2 RAB45 P0000
14926KSTC STC20011107165014311/07/01 16:50:31  5-MIN KSTC 072250Z AUTO 35006KT 5SM -RA BR BKN050 BKN120 11/09 A2994 1010 86 800 350/06 RMK AO2 RAB45 SLP153 P0000 T01110089
14926KSTC STC20011107165512011/07/01 16:55:31  5-MIN KSTC 072255Z AUTO 36005KT 5SM -RA BR BKN050 BKN120 11/09 A2994 1010 93 800 360/05 RMK AO2 P0000
14926KSTC STC20011107170011711/07/01 17:00:31  5-MIN KSTC 072300Z AUTO 36004KT 5SM BR BKN050 11/09 A2994 1010 93 800 360/04 RMK AO2 RAE2256 P0000
14926KSTC STC20011107170511711/07/01 17:05:31  5-MIN KSTC 072305Z AUTO 36005KT 6SM BR OVC050 11/09 A2994 1010 93 800 360/05 RMK AO2 RAE2256 P0000
14926KSTC STC20011107171011711/07/01 17:10:31  5-MIN KSTC 072310Z AUTO 35006KT 6SM BR OVC050 11/09 A2994 1010 93 800 340/06 RMK AO2 RAE2256 P0000
14926KSTC STC20011107171511711/07/01 17:15:31  5-MIN KSTC 072315Z AUTO 36006KT 6SM BR OVC050 11/09 A2994 1010 93 800 360/06 RMK AO2 RAE2256 P0000
14926KSTC STC20011107172011711/07/01 17:20:31  5-MIN KSTC 072320Z AUTO 02004KT 6SM BR OVC048 11/09 A2994 1010 93 800 020/04 RMK AO2 RAE2256 P0000
14926KSTC STC20011107172511711/07/01 17:25:31  5-MIN KSTC 072325Z AUTO 35006KT 6SM BR OVC048 11/09 A2994 1000 93 800 350/06 RMK AO2 RAE2256 P0000
14926KSTC STC20011107173011711/07/01 17:30:31  5-MIN KSTC 072330Z AUTO 35007KT 6SM BR OVC048 11/09 A2995 1000 93 700 340/07 RMK AO2 RAE2256 P0000
14926KSTC STC20011107173511711/07/01 17:35:31  5-MIN KSTC 072335Z AUTO 35007KT 6SM BR OVC046 11/09 A2995 1000 89 700 340/07 RMK AO2 RAE2256 P0000
14926KSTC STC20011107174012411/07/01 17:40:31  5-MIN KSTC 072340Z AUTO 36006KT 6SM -RA BR OVC044 11/09 A2995 1000 93 700 360/06 RMK AO2 RAE2256B36 P0000
14926KSTC STC20011107174512311/07/01 17:45:31  5-MIN KSTC 072345Z AUTO 36006KT 6SM BR OVC044 11/09 A2995 1000 93 700 360/06 RMK AO2 RAE2256B36E45 P0000
14926KSTC STC20011107175016311/07/01 17:50:31  5-MIN KSTC 072350Z AUTO 34007KT 6SM BR OVC042 11/09 A2997 980 93 700 340/07 RMK AO2 RAE2256B36E45 SLP161 P0000 60000 T01060094 10128 20100 56019
14926KSTC STC20011107175510211/07/01 17:55:31  5-MIN KSTC 072355Z AUTO 34008KT 5SM BR OVC040 11/09 A2996 990 93 700 330/08 RMK AO2
14926KSTC STC20011107180010211/07/01 18:00:31  5-MIN KSTC 080000Z AUTO 34010KT 5SM BR OVC037 11/09 A2997 980 93 700 340/10 RMK AO2
14926KSTC STC20011107180510911/07/01 18:05:31  5-MIN KSTC 080005Z AUTO 34010KT 6SM BR FEW014 OVC037 11/09 A2997 980 89 700 340/10 RMK AO2
14926KSTC STC20011107181010911/07/01 18:10:31  5-MIN KSTC 080010Z AUTO 36009KT 6SM BR FEW014 OVC035 11/09 A2996 990 89 700 360/09 RMK AO2
14926KSTC STC20011107181510211/07/01 18:15:31  5-MIN KSTC 080015Z AUTO 36008KT 6SM BR OVC035 11/09 A2997 980 89 700 350/08 RMK AO2
14926KSTC STC20011107182012511/07/01 18:20:31  5-MIN KSTC 080020Z AUTO 36008KT 6SM -RA BR BKN028 OVC035 11/09 A2997 980 89 700 350/08 RMK AO2 RAB20 P0000
14926KSTC STC20011107182512511/07/01 18:25:31  5-MIN KSTC 080025Z AUTO 01007KT 6SM -RA BR BKN028 OVC035 10/09 A2996 990 93 700 010/07 RMK AO2 RAB20 P0000
14926KSTC STC20011107183013111/07/01 18:30:31  5-MIN KSTC 080030Z AUTO 01008KT 6SM BR BKN028 BKN033 OVC070 10/09 A2996 990 93 700 360/08 RMK AO2 RAB20E30 P0000
14926KSTC STC20011107183513111/07/01 18:35:31  5-MIN KSTC 080035Z AUTO 36008KT 6SM BR SCT028 BKN033 OVC070 10/09 A2996 990 93 700 360/08 RMK AO2 RAB20E30 P0000
14926KSTC STC20011107184013111/07/01 18:40:31  5-MIN KSTC 080040Z AUTO 35007KT 6SM BR SCT028 BKN042 OVC110 10/09 A2996 990 93 700 350/07 RMK AO2 RAB20E30 P0000
14926KSTC STC20011107184513111/07/01 18:45:31  5-MIN KSTC 080045Z AUTO 35009KT 6SM BR SCT028 BKN042 OVC070 10/09 A2997 980 93 700 340/09 RMK AO2 RAB20E30 P0000
14926KSTC STC20011107185014811/07/01 18:50:31  5-MIN KSTC 080050Z AUTO 34009KT 6SM BR FEW020 BKN026 OVC070 10/09 A2998 980 93 600 340/09 RMK AO2 RAB20E30 SLP165 P0000 T01000089
14926KSTC STC20011107185511311/07/01 18:55:31  5-MIN KSTC 080055Z AUTO 33008KT 7SM BKN022 BKN043 OVC070 10/09 A2998 970 93 600 330/08 RMK AO2
14926KSTC STC20011107190011311/07/01 19:00:31  5-MIN KSTC 080100Z AUTO 33009KT 7SM BKN018 BKN023 OVC065 10/08 A2998 970 89 600 330/09 RMK AO2
14926KSTC STC20011107190511311/07/01 19:05:31  5-MIN KSTC 080105Z AUTO 34009KT 7SM BKN018 BKN024 OVC043 10/08 A2998 970 89 600 330/09 RMK AO2
14926KSTC STC20011107191010611/07/01 19:10:31  5-MIN KSTC 080110Z AUTO 35008KT 7SM BKN018 OVC024 10/08 A2998 970 89 600 350/08 RMK AO2
14926KSTC STC20011107191509911/07/01 19:15:31  5-MIN KSTC 080115Z AUTO 32010KT 8SM OVC018 10/08 A3000 950 89 600 320/10 RMK AO2
14926KSTC STC20011107192009911/07/01 19:20:31  5-MIN KSTC 080120Z AUTO 33009KT 8SM OVC018 09/08 A3000 960 89 600 330/09 RMK AO2
14926KSTC STC20011107192509911/07/01 19:25:31  5-MIN KSTC 080125Z AUTO 33009KT 8SM OVC016 09/08 A3000 950 89 600 330/09 RMK AO2
14926KSTC STC20011107193011511/07/01 19:30:31  5-MIN KSTC 080130Z AUTO 34011KT 8SM -RA OVC016 09/08 A2999 960 93 500 340/11 RMK AO2 RAB27 P0000
14926KSTC STC20011107193511511/07/01 19:35:31  5-MIN KSTC 080135Z AUTO 34009KT 8SM -RA OVC016 09/08 A2999 960 93 500 340/09 RMK AO2 RAB27 P0001
14926KSTC STC20011107194011511/07/01 19:40:31  5-MIN KSTC 080140Z AUTO 34008KT 7SM -RA OVC016 09/08 A2999 960 93 500 340/08 RMK AO2 RAB27 P0001
14926KSTC STC20011107194511511/07/01 19:45:31  5-MIN KSTC 080145Z AUTO 34007KT 7SM -RA OVC014 08/08 A2999 960 96 400 330/07 RMK AO2 RAB27 P0001
14926KSTC STC20011107195013211/07/01 19:50:31  5-MIN KSTC 080150Z AUTO 33009KT 8SM -RA OVC014 08/08 A2999 960 96 400 330/09 RMK AO2 RAB27 SLP172 P0001 T00830078
14926KSTC STC20011107195510911/07/01 19:55:31  5-MIN KSTC 080155Z AUTO 33009KT 9SM -RA OVC014 08/08 A3000 950 96 400 330/09 RMK AO2 P0000
14926KSTC STC20011107200011311/07/01 20:00:31  5-MIN KSTC 080200Z AUTO 33008KT 9SM OVC014 08/08 A3000 950 96 400 320/08 RMK AO2 RAE0158 P0000
14926KSTC STC20011107200511311/07/01 20:05:31  5-MIN KSTC 080205Z AUTO 33010KT 8SM OVC014 08/08 A3000 950 96 400 320/10 RMK AO2 RAE0158 P0000
14926KSTC STC20011107201011311/07/01 20:10:31  5-MIN KSTC 080210Z AUTO 32008KT 8SM OVC012 08/08 A3001 950 96 400 320/08 RMK AO2 RAE0158 P0000
14926KSTC STC20011107201512011/07/01 20:15:31  5-MIN KSTC 080215Z AUTO 32010KT 8SM BKN010 OVC015 08/08 A3001 950 96 400 320/10 RMK AO2 RAE0158 P0000
14926KSTC STC20011107202012011/07/01 20:20:31  5-MIN KSTC 080220Z AUTO 32013KT 8SM BKN010 OVC015 08/08 A3001 940 96 400 320/13 RMK AO2 RAE0158 P0001
14926KSTC STC20011107202512011/07/01 20:25:31  5-MIN KSTC 080225Z AUTO 32011KT 7SM BKN010 OVC015 08/08 A3001 950 96 400 320/11 RMK AO2 RAE0158 P0001
14926KSTC STC20011107203012511/07/01 20:30:31  5-MIN KSTC 080230Z AUTO 32014KT 7SM OVC010 08/08 A3001 950 96 400 320/14 RMK AO2 RAE0158 CIG 009V013 P0001
14926KSTC STC20011107203513111/07/01 20:35:31  5-MIN KSTC 080235Z AUTO 32015G19KT 7SM OVC010 08/08 A3001 940 96 400 320/15G19 RMK AO2 RAE0158 CIG 009V014 P0001
14926KSTC STC20011107204011911/07/01 20:40:31  5-MIN KSTC 080240Z AUTO 32015G23KT 8SM OVC012 08/07 A3001 940 93 400 320/15G23 RMK AO2 RAE0158 P0001
14926KSTC STC20011108001512511/08/01 00:15:31  5-MIN KSTC 080615Z AUTO 31025G29KT 10SM OVC012 05/03 A3013 830 85 -100 310/25G29 RMK AO2 PK WND 31030/0559
14926KSTC STC20011108002012511/08/01 00:20:31  5-MIN KSTC 080620Z AUTO 31023G29KT 10SM OVC012 05/03 A3014 830 85 -100 310/23G29 RMK AO2 PK WND 31030/0559
14926KSTC STC20011108002512511/08/01 00:25:31  5-MIN KSTC 080625Z AUTO 31020G25KT 10SM OVC012 04/03 A3014 830 89 -200 310/20G25 RMK AO2 PK WND 31030/0559
14926KSTC STC20011108003012511/08/01 00:30:31  5-MIN KSTC 080630Z AUTO 31021G27KT 10SM OVC014 04/02 A3014 820 85 -200 310/21G27 RMK AO2 PK WND 31030/0559
14926KSTC STC20011108003512511/08/01 00:35:31  5-MIN KSTC 080635Z AUTO 31022G29KT 10SM OVC014 04/02 A3014 820 85 -200 310/22G29 RMK AO2 PK WND 31030/0559
14926KSTC STC20011108004012511/08/01 00:40:31  5-MIN KSTC 080640Z AUTO 32020G30KT 10SM OVC016 04/02 A3014 820 82 -200 320/20G30 RMK AO2 PK WND 32030/0637
14926KSTC STC20011108004512511/08/01 00:45:31  5-MIN KSTC 080645Z AUTO 32021G30KT 10SM OVC016 04/02 A3014 820 82 -200 320/21G30 RMK AO2 PK WND 32030/0637
14926KSTC STC20011108005014211/08/01 00:50:31  5-MIN KSTC 080650Z AUTO 32018G28KT 10SM OVC016 04/02 A3015 820 82 -200 320/18G28 RMK AO2 PK WND 32030/0637 SLP223 T00440017
14926KSTC STC20011108005512511/08/01 00:55:31  5-MIN KSTC 080655Z AUTO 32017G27KT 10SM OVC016 04/02 A3015 820 82 -200 320/17G27 RMK AO2 PK WND 32027/0655
14926KSTC STC20011108010012511/08/01 01:00:31  5-MIN KSTC 080700Z AUTO 32020G29KT 10SM OVC016 04/01 A3015 820 82 -200 320/20G29 RMK AO2 PK WND 32029/0700
14926KSTC STC20011108010512511/08/01 01:05:31  5-MIN KSTC 080705Z AUTO 32020G29KT 10SM OVC018 04/01 A3016 810 82 -300 320/20G29 RMK AO2 PK WND 32029/0700
14926KSTC STC20011108011012511/08/01 01:10:31  5-MIN KSTC 080710Z AUTO 32018G26KT 10SM OVC020 04/01 A3016 810 82 -300 320/18G26 RMK AO2 PK WND 32029/0700
14926KSTC STC20011108011511911/08/01 01:15:31  5-MIN KSTC 080715Z AUTO 32018KT 10SM OVC018 04/01 A3017 800 82 -300 310/18 RMK AO2 PK WND 32029/0700
14926KSTC STC20011108012012511/08/01 01:20:31  5-MIN KSTC 080720Z AUTO 31021G27KT 10SM OVC018 04/01 A3017 800 82 -300 310/21G27 RMK AO2 PK WND 32029/0700
14926KSTC STC20011108012512511/08/01 01:25:31  5-MIN KSTC 080725Z AUTO 31014G27KT 10SM OVC018 04/01 A3017 790 82 -300 310/14G27 RMK AO2 PK WND 32029/0700
14926KSTC STC20011108013012511/08/01 01:30:31  5-MIN KSTC 080730Z AUTO 32020G25KT 10SM OVC018 03/01 A3018 790 85 -300 310/20G25 RMK AO2 PK WND 32029/0700
14926KSTC STC20011108013512511/08/01 01:35:31  5-MIN KSTC 080735Z AUTO 31021G26KT 10SM OVC018 03/01 A3018 790 85 -300 310/21G26 RMK AO2 PK WND 32029/0700
14926KSTC STC20011108014012511/08/01 01:40:31  5-MIN KSTC 080740Z AUTO 31016G26KT 10SM OVC018 03/01 A3018 790 85 -300 310/16G26 RMK AO2 PK WND 32029/0700
14926KSTC STC20011108014512511/08/01 01:45:31  5-MIN KSTC 080745Z AUTO 31020G26KT 10SM OVC018 03/01 A3018 790 82 -300 310/20G26 RMK AO2 PK WND 32029/0700
14926KSTC STC20011108015014211/08/01 01:50:31  5-MIN KSTC 080750Z AUTO 32019G30KT 10SM OVC018 03/01 A3018 780 82 -400 320/19G30 RMK AO2 PK WND 32030/0747 SLP235 T00330006
14926KSTC STC20011108015512511/08/01 01:55:31  5-MIN KSTC 080755Z AUTO 32021G30KT 10SM OVC018 03/01 A3019 780 82 -400 320/21G30 RMK AO2 PK WND 33027/0754
14926KSTC STC20011108020012511/08/01 02:00:31  5-MIN KSTC 080800Z AUTO 33016G27KT 10SM OVC018 03/01 A3019 770 82 -400 330/16G27 RMK AO2 PK WND 32027/0756
14926KSTC STC20011108020512511/08/01 02:05:31  5-MIN KSTC 080805Z AUTO 33014G27KT 10SM OVC018 03/01 A3020 770 82 -400 330/14G27 RMK AO2 PK WND 32027/0756
14926KSTC STC20011108021012511/08/01 02:10:31  5-MIN KSTC 080810Z AUTO 32016G24KT 10SM OVC018 03/01 A3020 770 82 -400 320/16G24 RMK AO2 PK WND 32027/0756
14926KSTC STC20011108021512511/08/01 02:15:31  5-MIN KSTC 080815Z AUTO 32019G24KT 10SM OVC018 03/01 A3020 770 85 -400 320/19G24 RMK AO2 PK WND 32027/0756
14926KSTC STC20011108022012511/08/01 02:20:31  5-MIN KSTC 080820Z AUTO 33017G25KT 10SM OVC016 03/01 A3021 760 85 -400 320/17G25 RMK AO2 PK WND 32027/0756
14926KSTC STC20011108022512511/08/01 02:25:31  5-MIN KSTC 080825Z AUTO 33018G25KT 10SM OVC016 03/00 A3021 760 82 -500 320/18G25 RMK AO2 PK WND 32027/0756
14926KSTC STC20011108023012511/08/01 02:30:31  5-MIN KSTC 080830Z AUTO 32018G26KT 10SM OVC016 03/00 A3021 760 82 -500 320/18G26 RMK AO2 PK WND 32027/0756
14926KSTC STC20011108023512511/08/01 02:35:31  5-MIN KSTC 080835Z AUTO 32021G26KT 10SM OVC016 03/00 A3022 750 82 -500 320/21G26 RMK AO2 PK WND 32027/0756
14926KSTC STC20011108024012511/08/01 02:40:31  5-MIN KSTC 080840Z AUTO 32016G25KT 10SM OVC016 03/00 A3022 750 82 -500 320/16G25 RMK AO2 PK WND 32027/0756
14926KSTC STC20011108024512511/08/01 02:45:31  5-MIN KSTC 080845Z AUTO 32018G25KT 10SM OVC018 03/00 A3022 750 82 -500 320/18G25 RMK AO2 PK WND 32027/0756
14926KSTC STC20011108025014811/08/01 02:50:31  5-MIN KSTC 080850Z AUTO 32016G26KT 10SM OVC018 03/00 A3022 750 82 -500 320/16G26 RMK AO2 PK WND 32027/0756 SLP248 T00280000 53030
14926KSTC STC20011108025510711/08/01 02:55:31  5-MIN KSTC 080855Z AUTO 32015G27KT 10SM OVC018 03/00 A3022 750 82 -500 320/15G27 RMK AO2
14926KSTC STC20011108030010711/08/01 03:00:31  5-MIN KSTC 080900Z AUTO 32014G27KT 10SM OVC018 03/00 A3023 750 82 -500 320/14G27 RMK AO2
14926KSTC STC20011108030510711/08/01 03:05:31  5-MIN KSTC 080905Z AUTO 33016G22KT 10SM OVC018 03/00 A3023 740 82 -500 320/16G22 RMK AO2
14926KSTC STC20011108031010711/08/01 03:10:31  5-MIN KSTC 080910Z AUTO 33017G24KT 10SM OVC018 03/00 A3023 740 82 -500 330/17G24 RMK AO2
14926KSTC STC20011108031510711/08/01 03:15:31  5-MIN KSTC 080915Z AUTO 33013G24KT 10SM OVC020 03/00 A3023 740 82 -500 330/13G24 RMK AO2
14926KSTC STC20011108032010811/08/01 03:20:31  5-MIN KSTC 080920Z AUTO 32016G23KT 10SM OVC020 03/M01 A3023 740 79 -500 320/16G23 RMK AO2
14926KSTC STC20011108032510811/08/01 03:25:31  5-MIN KSTC 080925Z AUTO 33017G24KT 10SM OVC020 03/M01 A3024 730 79 -500 320/17G24 RMK AO2
14926KSTC STC20011108033010811/08/01 03:30:31  5-MIN KSTC 080930Z AUTO 32016G24KT 10SM OVC022 03/M01 A3024 730 79 -500 320/16G24 RMK AO2
14926KSTC STC20011108033512611/08/01 03:35:31  5-MIN KSTC 080935Z AUTO 32021G30KT 10SM OVC022 03/M01 A3025 720 79 -500 320/21G30 RMK AO2 PK WND 33030/0934
14926KSTC STC20011108034012611/08/01 03:40:31  5-MIN KSTC 080940Z AUTO 32014G30KT 10SM OVC022 03/M01 A3025 720 79 -500 320/14G30 RMK AO2 PK WND 33030/0934
14926KSTC STC20011108034512611/08/01 03:45:31  5-MIN KSTC 080945Z AUTO 33019G24KT 10SM OVC024 03/M01 A3025 720 79 -500 330/19G24 RMK AO2 PK WND 33030/0934
14926KSTC STC20011108035014311/08/01 03:50:31  5-MIN KSTC 080950Z AUTO 32021G26KT 10SM OVC024 03/M01 A3025 720 75 -500 320/21G26 RMK AO2 PK WND 33030/0934 SLP261 T00281011
14926KSTC STC20011108035510811/08/01 03:55:31  5-MIN KSTC 080955Z AUTO 32017G26KT 10SM OVC024 03/M01 A3026 710 75 -500 320/17G26 RMK AO2
14926KSTC STC20011108040012611/08/01 04:00:31  5-MIN KSTC 081000Z AUTO 33021G29KT 10SM OVC024 03/M01 A3026 720 75 -500 330/21G29 RMK AO2 PK WND 32029/0959
14926KSTC STC20011108040512611/08/01 04:05:31  5-MIN KSTC 081005Z AUTO 34020G29KT 10SM OVC024 03/M02 A3026 710 72 -500 330/20G29 RMK AO2 PK WND 32029/0959
14926KSTC STC20011108041012611/08/01 04:10:31  5-MIN KSTC 081010Z AUTO 34021G30KT 10SM OVC026 03/M02 A3027 710 72 -500 330/21G30 RMK AO2 PK WND 32030/1008
14926KSTC STC20011108041512611/08/01 04:15:31  5-MIN KSTC 081015Z AUTO 33017G30KT 10SM OVC026 03/M02 A3027 710 72 -500 330/17G30 RMK AO2 PK WND 32030/1008
14926KSTC STC20011108042012611/08/01 04:20:31  5-MIN KSTC 081020Z AUTO 33016G26KT 10SM OVC026 03/M02 A3027 700 72 -500 320/16G26 RMK AO2 PK WND 32030/1008
14926KSTC STC20011108042512611/08/01 04:25:31  5-MIN KSTC 081025Z AUTO 33017G26KT 10SM OVC026 03/M01 A3027 700 75 -500 330/17G26 RMK AO2 PK WND 32030/1008
14926KSTC STC20011108043012611/08/01 04:30:31  5-MIN KSTC 081030Z AUTO 33017G24KT 10SM OVC026 03/M02 A3028 700 72 -500 320/17G24 RMK AO2 PK WND 32030/1008
14926KSTC STC20011108043512611/08/01 04:35:31  5-MIN KSTC 081035Z AUTO 33019G24KT 10SM OVC026 02/M02 A3028 700 75 -600 320/19G24 RMK AO2 PK WND 32030/1008
14926KSTC STC20011108044012611/08/01 04:40:31  5-MIN KSTC 081040Z AUTO 33018G23KT 10SM OVC026 02/M02 A3028 690 75 -600 320/18G23 RMK AO2 PK WND 32030/1008
14926KSTC STC20011108044512611/08/01 04:45:31  5-MIN KSTC 081045Z AUTO 34016G23KT 10SM OVC026 02/M02 A3029 690 75 -600 330/16G23 RMK AO2 PK WND 32030/1008
14926KSTC STC20011108045014311/08/01 04:50:31  5-MIN KSTC 081050Z AUTO 33015G23KT 10SM OVC026 02/M02 A3029 690 75 -600 330/15G23 RMK AO2 PK WND 32030/1008 SLP272 T00221017
14926KSTC STC20011108045510211/08/01 04:55:31  5-MIN KSTC 081055Z AUTO 33018KT 10SM OVC026 02/M02 A3029 690 72 -600 330/18 RMK AO2
14926KSTC STC20011108050010811/08/01 05:00:31  5-MIN KSTC 081100Z AUTO 33015G20KT 10SM OVC026 02/M02 A3029 690 72 -600 320/15G20 RMK AO2
14926KSTC STC20011108050510811/08/01 05:05:31  5-MIN KSTC 081105Z AUTO 32015G20KT 10SM OVC026 02/M02 A3030 680 72 -600 320/15G20 RMK AO2
14926KSTC STC20011108051010811/08/01 05:10:31  5-MIN KSTC 081110Z AUTO 33013G20KT 10SM OVC026 02/M02 A3030 680 72 -600 330/13G20 RMK AO2
14926KSTC STC20011108051510811/08/01 05:15:31  5-MIN KSTC 081115Z AUTO 34019G24KT 10SM OVC026 03/M02 A3030 670 69 -600 340/19G24 RMK AO2
14926KSTC STC20011108052010811/08/01 05:20:31  5-MIN KSTC 081120Z AUTO 33017G24KT 10SM OVC026 03/M02 A3031 670 69 -600 330/17G24 RMK AO2
14926KSTC STC20011108052510811/08/01 05:25:31  5-MIN KSTC 081125Z AUTO 33016G22KT 10SM OVC026 03/M02 A3031 670 69 -600 330/16G22 RMK AO2
14926KSTC STC20011108053010811/08/01 05:30:31  5-MIN KSTC 081130Z AUTO 33015G25KT 10SM OVC026 03/M02 A3031 670 69 -600 330/15G25 RMK AO2
14926KSTC STC20011108053510811/08/01 05:35:31  5-MIN KSTC 081135Z AUTO 33014G25KT 10SM OVC026 03/M02 A3031 660 69 -600 330/14G25 RMK AO2
14926KSTC STC20011108054010811/08/01 05:40:31  5-MIN KSTC 081140Z AUTO 33015G22KT 10SM OVC028 03/M02 A3032 660 69 -600 320/15G22 RMK AO2
14926KSTC STC20011108054510211/08/01 05:45:31  5-MIN KSTC 081145Z AUTO 32015KT 10SM OVC028 03/M02 A3032 660 69 -600 320/15 RMK AO2
14926KSTC STC20011108055014911/08/01 05:50:31  5-MIN KSTC 081150Z AUTO 32015G20KT 10SM OVC028 03/M02 A3032 650 69 -600 320/15G20 RMK AO2 SLP285 70002 T00281022 10056 20022 53035
14926KSTC STC20011108055510811/08/01 05:55:31  5-MIN KSTC 081155Z AUTO 32016G20KT 10SM OVC028 02/M02 A3033 650 72 -700 320/16G20 RMK AO2
14926KSTC STC20011108060010811/08/01 06:00:31  5-MIN KSTC 081200Z AUTO 33016G21KT 10SM OVC028 02/M02 A3033 650 72 -700 320/16G21 RMK AO2
14926KSTC STC20011108060510811/08/01 06:05:31  5-MIN KSTC 081205Z AUTO 33016G22KT 10SM OVC028 02/M02 A3033 650 72 -700 320/16G22 RMK AO2
14926KSTC STC20011108061010811/08/01 06:10:31  5-MIN KSTC 081210Z AUTO 32016G22KT 10SM OVC028 02/M02 A3033 650 72 -700 320/16G22 RMK AO2
14926KSTC STC20011108061510811/08/01 06:15:31  5-MIN KSTC 081215Z AUTO 32016G22KT 10SM OVC028 02/M02 A3034 640 72 -700 320/16G22 RMK AO2
14926KSTC STC20011108062010811/08/01 06:20:31  5-MIN KSTC 081220Z AUTO 33015G22KT 10SM OVC028 02/M02 A3034 640 72 -700 330/15G22 RMK AO2
14926KSTC STC20011108062510811/08/01 06:25:31  5-MIN KSTC 081225Z AUTO 33011G20KT 10SM OVC028 02/M02 A3034 640 72 -700 330/11G20 RMK AO2
14926KSTC STC20011108063010811/08/01 06:30:31  5-MIN KSTC 081230Z AUTO 33014G20KT 10SM OVC028 02/M02 A3034 640 72 -700 330/14G20 RMK AO2
14926KSTC STC20011108063510211/08/01 06:35:31  5-MIN KSTC 081235Z AUTO 33016KT 10SM OVC028 02/M02 A3035 630 72 -700 320/16 RMK AO2
14926KSTC STC20011108064010811/08/01 06:40:31  5-MIN KSTC 081240Z AUTO 33018G24KT 10SM OVC028 02/M03 A3035 640 69 -700 320/18G24 RMK AO2
14926KSTC STC20011108064510811/08/01 06:45:31  5-MIN KSTC 081245Z AUTO 33014G24KT 10SM OVC028 02/M03 A3035 630 69 -700 330/14G24 RMK AO2
14926KSTC STC20011108065012511/08/01 06:50:31  5-MIN KSTC 081250Z AUTO 34017G21KT 10SM OVC028 02/M03 A3035 630 69 -700 340/17G21 RMK AO2 SLP296 T00221028
14926KSTC STC20011108065510811/08/01 06:55:31  5-MIN KSTC 081255Z AUTO 33017G22KT 10SM OVC028 02/M03 A3036 620 69 -700 330/17G22 RMK AO2
14926KSTC STC20011108070010811/08/01 07:00:31  5-MIN KSTC 081300Z AUTO 33014G22KT 10SM OVC028 02/M03 A3036 620 69 -700 330/14G22 RMK AO2
14926KSTC STC20011108070510811/08/01 07:05:31  5-MIN KSTC 081305Z AUTO 34014G22KT 10SM OVC028 02/M03 A3037 620 69 -700 330/14G22 RMK AO2
14926KSTC STC20011108071010811/08/01 07:10:31  5-MIN KSTC 081310Z AUTO 33013G20KT 10SM OVC028 02/M03 A3037 610 69 -700 330/13G20 RMK AO2
14926KSTC STC20011108071510811/08/01 07:15:31  5-MIN KSTC 081315Z AUTO 34015G20KT 10SM OVC028 02/M03 A3038 610 69 -700 330/15G20 RMK AO2
14926KSTC STC20011108072011511/08/01 07:20:31  5-MIN KSTC 081320Z AUTO 32012G20KT 10SM OVC028 02/M02 A3038 600 72 -700 320/12G20 RMK AO2 PRESRR
14926KSTC STC20011108072510811/08/01 07:25:31  5-MIN KSTC 081325Z AUTO 33014G18KT 10SM OVC028 02/M02 A3039 600 72 -700 320/14G18 RMK AO2
14926KSTC STC20011108073010811/08/01 07:30:31  5-MIN KSTC 081330Z AUTO 32014G18KT 10SM OVC028 02/M02 A3039 600 72 -700 320/14G18 RMK AO2
14926KSTC STC20011108073510211/08/01 07:35:31  5-MIN KSTC 081335Z AUTO 33014KT 10SM OVC028 02/M02 A3039 590 72 -700 320/14 RMK AO2
14926KSTC STC20011108074010811/08/01 07:40:31  5-MIN KSTC 081340Z AUTO 32014G19KT 10SM OVC028 02/M02 A3040 590 72 -700 320/14G19 RMK AO2
14926KSTC STC20011108074510811/08/01 07:45:31  5-MIN KSTC 081345Z AUTO 33017G21KT 10SM OVC028 02/M03 A3040 590 69 -700 330/17G21 RMK AO2
14926KSTC STC20011108075012511/08/01 07:50:31  5-MIN KSTC 081350Z AUTO 33018G22KT 10SM OVC028 02/M03 A3040 580 69 -700 330/18G22 RMK AO2 SLP313 T00221028
14926KSTC STC20011108075510811/08/01 07:55:31  5-MIN KSTC 081355Z AUTO 34019G25KT 10SM OVC028 02/M03 A3040 580 69 -700 330/19G25 RMK AO2
14926KSTC STC20011108080010811/08/01 08:00:31  5-MIN KSTC 081400Z AUTO 33017G25KT 10SM OVC028 02/M03 A3040 580 67 -700 330/17G25 RMK AO2
14926KSTC STC20011108080510811/08/01 08:05:31  5-MIN KSTC 081405Z AUTO 33018G23KT 10SM OVC028 02/M03 A3040 580 67 -700 330/18G23 RMK AO2
14926KSTC STC20011108081010811/08/01 08:10:31  5-MIN KSTC 081410Z AUTO 33018G23KT 10SM OVC028 02/M03 A3041 580 67 -700 330/18G23 RMK AO2
14926KSTC STC20011108081510811/08/01 08:15:31  5-MIN KSTC 081415Z AUTO 33017G23KT 10SM OVC028 02/M03 A3041 580 67 -700 330/17G23 RMK AO2
14926KSTC STC20011108082012611/08/01 08:20:31  5-MIN KSTC 081420Z AUTO 34018G26KT 10SM OVC028 02/M03 A3041 580 67 -700 330/18G26 RMK AO2 PK WND 34026/1417
14926KSTC STC20011108082512611/08/01 08:25:31  5-MIN KSTC 081425Z AUTO 35017G26KT 10SM OVC028 02/M03 A3041 580 67 -700 350/17G26 RMK AO2 PK WND 34026/1417
14926KSTC STC20011108083012611/08/01 08:30:31  5-MIN KSTC 081430Z AUTO 35019G24KT 10SM OVC028 02/M03 A3041 580 67 -700 340/19G24 RMK AO2 PK WND 34026/1417
14926KSTC STC20011108083512611/08/01 08:35:31  5-MIN KSTC 081435Z AUTO 34015G24KT 10SM OVC028 03/M03 A3041 580 67 -700 340/15G24 RMK AO2 PK WND 34026/1417
14926KSTC STC20011108084012611/08/01 08:40:31  5-MIN KSTC 081440Z AUTO 34014G21KT 10SM OVC028 03/M03 A3042 570 67 -700 340/14G21 RMK AO2 PK WND 34026/1417
14926KSTC STC20011108084512611/08/01 08:45:31  5-MIN KSTC 081445Z AUTO 33015G21KT 10SM OVC028 03/M03 A3042 570 67 -700 330/15G21 RMK AO2 PK WND 34026/1417
14926KSTC STC20011108085014911/08/01 08:50:31  5-MIN KSTC 081450Z AUTO 35015G20KT 10SM OVC026 03/M03 A3041 570 67 -700 340/15G20 RMK AO2 PK WND 34026/1417 SLP316 T00281028 53033
14926KSTC STC20011108085510811/08/01 08:55:31  5-MIN KSTC 081455Z AUTO 35014G20KT 10SM OVC026 03/M03 A3041 570 67 -700 340/14G20 RMK AO2
14926KSTC STC20011108090010211/08/01 09:00:31  5-MIN KSTC 081500Z AUTO 35012KT 10SM BKN026 03/M03 A3041 580 67 -700 350/12 RMK AO2
14926KSTC STC20011108090510211/08/01 09:05:31  5-MIN KSTC 081505Z AUTO 35012KT 10SM BKN026 03/M03 A3041 580 64 -600 340/12 RMK AO2
14926KSTC STC20011108091010211/08/01 09:10:31  5-MIN KSTC 081510Z AUTO 35016KT 10SM BKN026 03/M03 A3041 580 64 -600 350/16 RMK AO2
14926KSTC STC20011108091510211/08/01 09:15:31  5-MIN KSTC 081515Z AUTO 36014KT 10SM SCT026 03/M03 A3041 580 64 -600 360/14 RMK AO2
14926KSTC STC20011108092010211/08/01 09:20:31  5-MIN KSTC 081520Z AUTO 35013KT 10SM SCT026 03/M03 A3041 580 64 -600 350/13 RMK AO2
14926KSTC STC20011108092510211/08/01 09:25:31  5-MIN KSTC 081525Z AUTO 35012KT 10SM FEW026 03/M03 A3041 570 64 -600 350/12 RMK AO2
14926KSTC STC20011108093010211/08/01 09:30:31  5-MIN KSTC 081530Z AUTO 34013KT 10SM FEW026 04/M03 A3041 570 62 -500 330/13 RMK AO2
14926KSTC STC20011108093510211/08/01 09:35:31  5-MIN KSTC 081535Z AUTO 33014KT 10SM FEW026 03/M03 A3042 570 64 -600 330/14 RMK AO2
14926KSTC STC20011108094009911/08/01 09:40:31  5-MIN KSTC 081540Z AUTO 34012KT 10SM CLR 03/M03 A3042 570 64 -600 340/12 RMK AO2
14926KSTC STC20011108094510511/08/01 09:45:31  5-MIN KSTC 081545Z AUTO 35015G18KT 10SM CLR 04/M03 A3042 570 62 -600 340/15G18 RMK AO2
14926KSTC STC20011108095012211/08/01 09:50:31  5-MIN KSTC 081550Z AUTO 34013G18KT 10SM CLR 04/M03 A3042 570 62 -600 340/13G18 RMK AO2 SLP318 T00391028
14926KSTC STC20011108095509911/08/01 09:55:31  5-MIN KSTC 081555Z AUTO 35013KT 10SM CLR 04/M03 A3042 570 62 -600 340/13 RMK AO2
14926KSTC STC20011108100009911/08/01 10:00:31  5-MIN KSTC 081600Z AUTO 34011KT 10SM CLR 04/M03 A3042 570 62 -600 340/11 RMK AO2
14926KSTC STC20011108100509911/08/01 10:05:31  5-MIN KSTC 081605Z AUTO 33013KT 10SM CLR 04/M02 A3043 560 62 -500 330/13 RMK AO2
14926KSTC STC20011108101010211/08/01 10:10:31  5-MIN KSTC 081610Z AUTO 32013KT 10SM SCT028 04/M02 A3043 560 62 -500 320/13 RMK AO2
14926KSTC STC20011108101510211/08/01 10:15:31  5-MIN KSTC 081615Z AUTO 34012KT 10SM SCT028 04/M03 A3043 560 62 -600 330/12 RMK AO2
14926KSTC STC20011108102010211/08/01 10:20:31  5-MIN KSTC 081620Z AUTO 34009KT 10SM SCT028 04/M03 A3043 560 62 -600 340/09 RMK AO2
14926KSTC STC20011108102510211/08/01 10:25:31  5-MIN KSTC 081625Z AUTO 32013KT 10SM SCT028 05/M02 A3043 550 59 -400 320/13 RMK AO2
14926KSTC STC20011108103010811/08/01 10:30:31  5-MIN KSTC 081630Z AUTO 31012G16KT 10SM BKN028 04/M02 A3043 550 62 -500 310/12G16 RMK AO2
14926KSTC STC20011108103510211/08/01 10:35:31  5-MIN KSTC 081635Z AUTO 30015KT 10SM BKN028 04/M03 A3044 550 59 -500 290/15 RMK AO2
14926KSTC STC20011108104010211/08/01 10:40:31  5-MIN KSTC 081640Z AUTO 33012KT 10SM BKN028 05/M02 A3043 550 59 -400 320/12 RMK AO2
14926KSTC STC20011108104510211/08/01 10:45:31  5-MIN KSTC 081645Z AUTO 31012KT 10SM BKN028 04/M03 A3043 550 62 -600 310/12 RMK AO2
14926KSTC STC20011108105011911/08/01 10:50:31  5-MIN KSTC 081650Z AUTO 34013KT 10SM BKN028 04/M03 A3044 550 59 -500 340/13 RMK AO2 SLP323 T00441028
14926KSTC STC20011108105510211/08/01 10:55:31  5-MIN KSTC 081655Z AUTO 35010KT 10SM SCT028 05/M03 A3044 550 57 -400 340/10 RMK AO2
14926KSTC STC20011108110010811/08/01 11:00:31  5-MIN KSTC 081700Z AUTO 32011G17KT 10SM SCT028 05/M03 A3044 550 57 -400 320/11G17 RMK AO2
14926KSTC STC20011108110510211/08/01 11:05:31  5-MIN KSTC 081705Z AUTO 29012KT 10SM SCT028 05/M02 A3044 550 59 -400 290/12 RMK AO2
14926KSTC STC20011108111010211/08/01 11:10:31  5-MIN KSTC 081710Z AUTO 31015KT 10SM BKN028 05/M02 A3044 550 59 -400 310/15 RMK AO2
14926KSTC STC20011108111510211/08/01 11:15:31  5-MIN KSTC 081715Z AUTO 30012KT 10SM SCT028 04/M03 A3044 550 62 -600 300/12 RMK AO2
14926KSTC STC20011108112010211/08/01 11:20:31  5-MIN KSTC 081720Z AUTO 30012KT 10SM SCT028 05/M02 A3044 550 59 -400 300/12 RMK AO2
14926KSTC STC20011108112510211/08/01 11:25:31  5-MIN KSTC 081725Z AUTO 31014KT 10SM SCT028 05/M02 A3045 540 59 -400 310/14 RMK AO2
14926KSTC STC20011108113010811/08/01 11:30:31  5-MIN KSTC 081730Z AUTO 32014G18KT 10SM BKN028 05/M02 A3044 550 59 -400 310/14G18 RMK AO2
14926KSTC STC20011108113510211/08/01 11:35:31  5-MIN KSTC 081735Z AUTO 31012KT 10SM SCT028 05/M02 A3044 550 59 -400 310/12 RMK AO2
14926KSTC STC20011108114010211/08/01 11:40:31  5-MIN KSTC 081740Z AUTO 31012KT 10SM FEW028 04/M03 A3044 550 59 -500 310/12 RMK AO2
14926KSTC STC20011108114510211/08/01 11:45:31  5-MIN KSTC 081745Z AUTO 32013KT 10SM FEW028 05/M03 A3044 550 57 -400 310/13 RMK AO2
14926KSTC STC20011108115013711/08/01 11:50:31  5-MIN KSTC 081750Z AUTO 32011KT 10SM FEW028 05/M03 A3044 550 57 -400 320/11 RMK AO2 SLP324 T00501028 10050 20022 51029
14926KSTC STC20011108115509911/08/01 11:55:31  5-MIN KSTC 081755Z AUTO 32014KT 10SM CLR 06/M03 A3044 550 55 -400 320/14 RMK AO2
14926KSTC STC20011108120009911/08/01 12:00:31  5-MIN KSTC 081800Z AUTO 32012KT 10SM CLR 05/M03 A3044 550 57 -400 310/12 RMK AO2
14926KSTC STC20011108120509911/08/01 12:05:31  5-MIN KSTC 081805Z AUTO 31013KT 10SM CLR 06/M03 A3044 550 53 -300 300/13 RMK AO2
14926KSTC STC20011108121010211/08/01 12:10:31  5-MIN KSTC 081810Z AUTO 30012KT 10SM FEW031 06/M03 A3045 540 55 -400 300/12 RMK AO2
14926KSTC STC20011108121510811/08/01 12:15:31  5-MIN KSTC 081815Z AUTO 31015G20KT 10SM FEW031 06/M03 A3045 540 55 -400 310/15G20 RMK AO2
14926KSTC STC20011108122010811/08/01 12:20:31  5-MIN KSTC 081820Z AUTO 31015G20KT 10SM FEW031 06/M03 A3045 540 55 -400 310/15G20 RMK AO2
14926KSTC STC20011108122510211/08/01 12:25:31  5-MIN KSTC 081825Z AUTO 31016KT 10SM FEW031 06/M03 A3045 540 53 -300 300/16 RMK AO2
14926KSTC STC20011108123010211/08/01 12:30:31  5-MIN KSTC 081830Z AUTO 32012KT 10SM FEW031 06/M02 A3045 540 55 -300 320/12 RMK AO2
14926KSTC STC20011108123510811/08/01 12:35:31  5-MIN KSTC 081835Z AUTO 30015G19KT 10SM FEW031 06/M03 A3045 540 53 -300 300/15G19 RMK AO2
14926KSTC STC20011108124010811/08/01 12:40:31  5-MIN KSTC 081840Z AUTO 30009G19KT 10SM FEW031 06/M02 A3044 540 57 -400 300/09G19 RMK AO2
14926KSTC STC20011108124510811/08/01 12:45:31  5-MIN KSTC 081845Z AUTO 30013G18KT 10SM FEW031 06/M02 A3044 550 57 -400 300/13G18 RMK AO2
14926KSTC STC20011108125011911/08/01 12:50:31  5-MIN KSTC 081850Z AUTO 30014KT 10SM FEW031 06/M02 A3044 550 57 -400 300/14 RMK AO2 SLP326 T00561022
14926KSTC STC20011108125510211/08/01 12:55:31  5-MIN KSTC 081855Z AUTO 32013KT 10SM FEW031 06/M02 A3044 550 57 -400 320/13 RMK AO2
14926KSTC STC20011108130009911/08/01 13:00:31  5-MIN KSTC 081900Z AUTO 31015KT 10SM CLR 06/M03 A3044 550 55 -400 310/15 RMK AO2
14926KSTC STC20011108130509911/08/01 13:05:31  5-MIN KSTC 081905Z AUTO 32011KT 10SM CLR 06/M03 A3044 550 55 -400 320/11 RMK AO2
14926KSTC STC20011108131009911/08/01 13:10:31  5-MIN KSTC 081910Z AUTO 33013KT 10SM CLR 06/M03 A3044 550 53 -300 330/13 RMK AO2
14926KSTC STC20011108131509911/08/01 13:15:31  5-MIN KSTC 081915Z AUTO 32011KT 10SM CLR 06/M03 A3044 550 51 -300 320/11 RMK AO2
14926KSTC STC20011108132009911/08/01 13:20:31  5-MIN KSTC 081920Z AUTO 34009KT 10SM CLR 06/M03 A3043 550 53 -300 340/09 RMK AO2
14926KSTC STC20011108132509911/08/01 13:25:31  5-MIN KSTC 081925Z AUTO 32011KT 10SM CLR 06/M03 A3043 560 53 -300 310/11 RMK AO2
14926KSTC STC20011108133009911/08/01 13:30:31  5-MIN KSTC 081930Z AUTO 32007KT 10SM CLR 06/M03 A3043 560 53 -300 320/07 RMK AO2
14926KSTC STC20011108133509911/08/01 13:35:31  5-MIN KSTC 081935Z AUTO 32010KT 10SM CLR 06/M03 A3042 560 53 -300 320/10 RMK AO2
14926KSTC STC20011108134010511/08/01 13:40:31  5-MIN KSTC 081940Z AUTO 28009G15KT 10SM CLR 07/M02 A3042 560 53 -200 280/09G15 RMK AO2
14926KSTC STC20011108134509911/08/01 13:45:31  5-MIN KSTC 081945Z AUTO 31010KT 10SM CLR 06/M02 A3043 560 55 -300 300/10 RMK AO2
14926KSTC STC20011108135011611/08/01 13:50:31  5-MIN KSTC 081950Z AUTO 31011KT 10SM CLR 06/M02 A3042 560 55 -300 310/11 RMK AO2 SLP320 T00611022
14926KSTC STC20011108135511511/08/01 13:55:31  5-MIN KSTC 081955Z AUTO 33009KT 290V010 10SM CLR 06/M03 A3042 560 53 -300 320/09 290V010 RMK AO2
14926KSTC STC20011108140009911/08/01 14:00:31  5-MIN KSTC 082000Z AUTO 31009KT 10SM CLR 06/M03 A3042 570 53 -300 300/09 RMK AO2
14926KSTC STC20011108140509911/08/01 14:05:31  5-MIN KSTC 082005Z AUTO 33011KT 10SM CLR 06/M03 A3042 570 53 -300 320/11 RMK AO2
14926KSTC STC20011108141009911/08/01 14:10:31  5-MIN KSTC 082010Z AUTO 34008KT 10SM CLR 06/M03 A3041 570 53 -300 330/08 RMK AO2
14926KSTC STC20011108141509911/08/01 14:15:31  5-MIN KSTC 082015Z AUTO 33009KT 10SM CLR 06/M03 A3041 570 53 -300 320/09 RMK AO2
14926KSTC STC20011108142009911/08/01 14:20:31  5-MIN KSTC 082020Z AUTO 31009KT 10SM CLR 07/M03 A3042 570 51 -200 310/09 RMK AO2
14926KSTC STC20011108142509911/08/01 14:25:31  5-MIN KSTC 082025Z AUTO 29008KT 10SM CLR 06/M02 A3041 570 55 -300 280/08 RMK AO2
14926KSTC STC20011108143009911/08/01 14:30:31  5-MIN KSTC 082030Z AUTO 30012KT 10SM CLR 06/M02 A3042 570 55 -300 300/12 RMK AO2
14926KSTC STC20011108143509911/08/01 14:35:31  5-MIN KSTC 082035Z AUTO 29010KT 10SM CLR 07/M03 A3042 570 51 -200 290/10 RMK AO2
14926KSTC STC20011108144009911/08/01 14:40:31  5-MIN KSTC 082040Z AUTO 29010KT 10SM CLR 06/M03 A3042 570 53 -300 290/10 RMK AO2
14926KSTC STC20011108144509911/08/01 14:45:31  5-MIN KSTC 082045Z AUTO 31008KT 10SM CLR 06/M03 A3042 570 53 -300 310/08 RMK AO2
14926KSTC STC20011108145012211/08/01 14:50:31  5-MIN KSTC 082050Z AUTO 30011KT 10SM CLR 06/M02 A3042 570 55 -300 290/11 RMK AO2 SLP318 T00611022 51008
14926KSTC STC20011108145509911/08/01 14:55:31  5-MIN KSTC 082055Z AUTO 28009KT 10SM CLR 06/M02 A3042 570 55 -300 280/09 RMK AO2
14926KSTC STC20011108150009911/08/01 15:00:31  5-MIN KSTC 082100Z AUTO 31010KT 10SM CLR 06/M02 A3041 570 55 -300 300/10 RMK AO2
14926KSTC STC20011108150509911/08/01 15:05:31  5-MIN KSTC 082105Z AUTO 29010KT 10SM CLR 06/M03 A3042 570 53 -300 280/10 RMK AO2
14926KSTC STC20011108151009911/08/01 15:10:31  5-MIN KSTC 082110Z AUTO 30011KT 10SM CLR 06/M03 A3042 570 53 -300 290/11 RMK AO2
14926KSTC STC20011108151509911/08/01 15:15:31  5-MIN KSTC 082115Z AUTO 28010KT 10SM CLR 06/M03 A3042 570 53 -300 280/10 RMK AO2
14926KSTC STC20011108152009911/08/01 15:20:31  5-MIN KSTC 082120Z AUTO 28010KT 10SM CLR 06/M03 A3042 570 53 -300 270/10 RMK AO2
14926KSTC STC20011108152509911/08/01 15:25:31  5-MIN KSTC 082125Z AUTO 27010KT 10SM CLR 06/M03 A3042 570 55 -300 260/10 RMK AO2
14926KSTC STC20011108153009911/08/01 15:30:31  5-MIN KSTC 082130Z AUTO 29010KT 10SM CLR 06/M03 A3042 570 55 -300 290/10 RMK AO2
14926KSTC STC20011108153509911/08/01 15:35:31  5-MIN KSTC 082135Z AUTO 28009KT 10SM CLR 06/M03 A3041 580 55 -300 280/09 RMK AO2
14926KSTC STC20011108154009911/08/01 15:40:31  5-MIN KSTC 082140Z AUTO 29008KT 10SM CLR 06/M03 A3041 580 55 -300 290/08 RMK AO2
14926KSTC STC20011108154509911/08/01 15:45:31  5-MIN KSTC 082145Z AUTO 29008KT 10SM CLR 06/M03 A3041 580 55 -300 290/08 RMK AO2
14926KSTC STC20011108155011611/08/01 15:50:31  5-MIN KSTC 082150Z AUTO 29009KT 10SM CLR 06/M03 A3041 580 55 -300 290/09 RMK AO2 SLP315 T00561028
14926KSTC STC20011108155509911/08/01 15:55:31  5-MIN KSTC 082155Z AUTO 29009KT 10SM CLR 06/M03 A3041 570 55 -300 280/09 RMK AO2
14926KSTC STC20011108160009911/08/01 16:00:31  5-MIN KSTC 082200Z AUTO 29007KT 10SM CLR 06/M03 A3042 570 55 -300 290/07 RMK AO2
14926KSTC STC20011108160509911/08/01 16:05:31  5-MIN KSTC 082205Z AUTO 30007KT 10SM CLR 06/M03 A3042 570 55 -300 300/07 RMK AO2
14926KSTC STC20011108161009911/08/01 16:10:31  5-MIN KSTC 082210Z AUTO 31008KT 10SM CLR 05/M03 A3042 570 57 -400 310/08 RMK AO2
14926KSTC STC20011108161509911/08/01 16:15:31  5-MIN KSTC 082215Z AUTO 30006KT 10SM CLR 05/M03 A3041 580 57 -400 300/06 RMK AO2
14926KSTC STC20011108162009911/08/01 16:20:31  5-MIN KSTC 082220Z AUTO 31008KT 10SM CLR 05/M02 A3041 580 59 -400 300/08 RMK AO2
14926KSTC STC20011108162509911/08/01 16:25:31  5-MIN KSTC 082225Z AUTO 29007KT 10SM CLR 04/M02 A3041 580 62 -500 290/07 RMK AO2
14926KSTC STC20011108163009911/08/01 16:30:31  5-MIN KSTC 082230Z AUTO 30007KT 10SM CLR 05/M02 A3041 580 59 -400 300/07 RMK AO2
14926KSTC STC20011108163509911/08/01 16:35:31  5-MIN KSTC 082235Z AUTO 29008KT 10SM CLR 04/M03 A3041 580 59 -500 290/08 RMK AO2
14926KSTC STC20011108164009911/08/01 16:40:31  5-MIN KSTC 082240Z AUTO 28006KT 10SM CLR 04/M03 A3041 580 59 -500 280/06 RMK AO2
14926KSTC STC20011108164509911/08/01 16:45:31  5-MIN KSTC 082245Z AUTO 28006KT 10SM CLR 04/M03 A3041 580 62 -500 280/06 RMK AO2
14926KSTC STC20011108165011611/08/01 16:50:31  5-MIN KSTC 082250Z AUTO 28005KT 10SM CLR 04/M03 A3041 580 62 -500 280/05 RMK AO2 SLP317 T00391028
14926KSTC STC20011108165509911/08/01 16:55:31  5-MIN KSTC 082255Z AUTO 28006KT 10SM CLR 04/M03 A3041 580 62 -500 270/06 RMK AO2
14926KSTC STC20011108170009911/08/01 17:00:31  5-MIN KSTC 082300Z AUTO 28005KT 10SM CLR 03/M03 A3041 580 64 -600 270/05 RMK AO2
14926KSTC STC20011108170509911/08/01 17:05:31  5-MIN KSTC 082305Z AUTO 27004KT 10SM CLR 03/M03 A3041 580 64 -600 270/04 RMK AO2
14926KSTC STC20011108171009911/08/01 17:10:31  5-MIN KSTC 082310Z AUTO 27004KT 10SM CLR 03/M03 A3040 580 67 -700 270/04 RMK AO2
14926KSTC STC20011108171509911/08/01 17:15:31  5-MIN KSTC 082315Z AUTO 26004KT 10SM CLR 02/M03 A3040 580 69 -700 260/04 RMK AO2
14926KSTC STC20011108172009911/08/01 17:20:31  5-MIN KSTC 082320Z AUTO 26004KT 10SM CLR 02/M03 A3040 580 69 -700 260/04 RMK AO2
14926KSTC STC20011108172509911/08/01 17:25:31  5-MIN KSTC 082325Z AUTO 26003KT 10SM CLR 02/M03 A3040 580 67 -700 260/03 RMK AO2
14926KSTC STC20011108173009911/08/01 17:30:31  5-MIN KSTC 082330Z AUTO 27004KT 10SM CLR 03/M03 A3041 580 64 -700 270/04 RMK AO2
14926KSTC STC20011108173509911/08/01 17:35:31  5-MIN KSTC 082335Z AUTO 28004KT 10SM CLR 02/M03 A3041 570 69 -800 280/04 RMK AO2
14926KSTC STC20011108174009911/08/01 17:40:31  5-MIN KSTC 082340Z AUTO 28004KT 10SM CLR 02/M03 A3041 570 69 -800 280/04 RMK AO2
14926KSTC STC20011108174509911/08/01 17:45:31  5-MIN KSTC 082345Z AUTO 28004KT 10SM CLR 02/M03 A3041 570 72 -800 280/04 RMK AO2
14926KSTC STC20011108175013411/08/01 17:50:31  5-MIN KSTC 082350Z AUTO 29004KT 10SM CLR 01/M03 A3042 570 72 -900 290/04 RMK AO2 SLP320 T00111033 10067 20011 58007
14926KSTC STC20011108175509911/08/01 17:55:31  5-MIN KSTC 082355Z AUTO 28004KT 10SM CLR 01/M03 A3042 570 72 -900 270/04 RMK AO2
14926KSTC STC20011108180009911/08/01 18:00:31  5-MIN KSTC 090000Z AUTO 28007KT 10SM CLR 01/M03 A3042 570 72 -900 280/07 RMK AO2
14926KSTC STC20011108180509911/08/01 18:05:31  5-MIN KSTC 090005Z AUTO 27007KT 10SM CLR 02/M03 A3042 570 69 -800 270/07 RMK AO2
14926KSTC STC20011108181009911/08/01 18:10:31  5-MIN KSTC 090010Z AUTO 28006KT 10SM CLR 02/M03 A3041 570 72 -800 270/06 RMK AO2
14926KSTC STC20011108181509911/08/01 18:15:31  5-MIN KSTC 090015Z AUTO 28006KT 10SM CLR 02/M03 A3042 570 72 -800 280/06 RMK AO2
14926KSTC STC20011108182009911/08/01 18:20:31  5-MIN KSTC 090020Z AUTO 28004KT 10SM CLR 01/M03 A3042 570 75 -900 280/04 RMK AO2
14926KSTC STC20011108182510011/08/01 18:25:31  5-MIN KSTC 090025Z AUTO 26003KT 10SM CLR 01/M03 A3041 570 78 -1000 260/03 RMK AO2
14926KSTC STC20011108183010011/08/01 18:30:31  5-MIN KSTC 090030Z AUTO 26003KT 10SM CLR 01/M03 A3042 570 75 -1000 260/03 RMK AO2
14926KSTC STC20011108183510011/08/01 18:35:31  5-MIN KSTC 090035Z AUTO 00000KT 10SM CLR 00/M03 A3041 580 78 -1000 000/00 RMK AO2
14926KSTC STC20011108184010011/08/01 18:40:31  5-MIN KSTC 090040Z AUTO 00000KT 10SM CLR 00/M03 A3041 580 78 -1000 000/00 RMK AO2
14926KSTC STC20011108184509911/08/01 18:45:31  5-MIN KSTC 090045Z AUTO 22003KT 10SM CLR 01/M03 A3040 580 75 -900 220/03 RMK AO2
14926KSTC STC20011108185011711/08/01 18:50:31  5-MIN KSTC 090050Z AUTO 22003KT 10SM CLR 00/M03 A3040 580 78 -1000 210/03 RMK AO2 SLP316 T00001033
14926KSTC STC20011108185510011/08/01 18:55:31  5-MIN KSTC 090055Z AUTO 21003KT 10SM CLR 00/M03 A3040 590 78 -1000 200/03 RMK AO2
14926KSTC STC20011108190010011/08/01 19:00:31  5-MIN KSTC 090100Z AUTO 00000KT 10SM CLR 00/M03 A3040 590 78 -1000 000/00 RMK AO2
14926KSTC STC20011108190510011/08/01 19:05:31  5-MIN KSTC 090105Z AUTO 17003KT 10SM CLR 00/M03 A3039 600 78 -1000 170/03 RMK AO2
14926KSTC STC20011108191010111/08/01 19:10:31  5-MIN KSTC 090110Z AUTO 16004KT 10SM CLR M01/M04 A3038 600 81 -1100 160/04 RMK AO2
14926KSTC STC20011108191510111/08/01 19:15:31  5-MIN KSTC 090115Z AUTO 17004KT 10SM CLR M02/M04 A3038 600 85 -1200 170/04 RMK AO2
14926KSTC STC20011108192010111/08/01 19:20:31  5-MIN KSTC 090120Z AUTO 19004KT 10SM CLR M01/M03 A3038 600 85 -1100 180/04 RMK AO2
14926KSTC STC20011108192510111/08/01 19:25:31  5-MIN KSTC 090125Z AUTO 18004KT 10SM CLR M01/M03 A3038 610 81 -1100 170/04 RMK AO2
14926KSTC STC20011108193010111/08/01 19:30:31  5-MIN KSTC 090130Z AUTO 17004KT 10SM CLR M01/M03 A3038 610 81 -1100 170/04 RMK AO2
14926KSTC STC20011108193510111/08/01 19:35:31  5-MIN KSTC 090135Z AUTO 17004KT 10SM CLR M01/M03 A3037 610 85 -1100 160/04 RMK AO2
14926KSTC STC20011108194010111/08/01 19:40:31  5-MIN KSTC 090140Z AUTO 17004KT 10SM CLR M01/M04 A3037 610 81 -1100 160/04 RMK AO2
14926KSTC STC20011108194510111/08/01 19:45:31  5-MIN KSTC 090145Z AUTO 17004KT 10SM CLR M01/M03 A3037 610 85 -1100 170/04 RMK AO2
14926KSTC STC20011108195011811/08/01 19:50:31  5-MIN KSTC 090150Z AUTO 18004KT 10SM CLR M01/M04 A3037 610 81 -1100 170/04 RMK AO2 SLP306 T10111039
14926KSTC STC20011108195510111/08/01 19:55:31  5-MIN KSTC 090155Z AUTO 19004KT 10SM CLR M02/M04 A3037 610 85 -1200 190/04 RMK AO2
14926KSTC STC20011108200010111/08/01 20:00:31  5-MIN KSTC 090200Z AUTO 20004KT 10SM CLR M02/M04 A3037 610 88 -1300 190/04 RMK AO2
14926KSTC STC20011108200510111/08/01 20:05:31  5-MIN KSTC 090205Z AUTO 20005KT 10SM CLR M02/M04 A3037 610 85 -1300 200/05 RMK AO2
14926KSTC STC20011108201010111/08/01 20:10:31  5-MIN KSTC 090210Z AUTO 20004KT 10SM CLR M02/M04 A3037 610 88 -1300 190/04 RMK AO2
14926KSTC STC20011108201510111/08/01 20:15:31  5-MIN KSTC 090215Z AUTO 19003KT 10SM CLR M02/M04 A3037 620 85 -1200 190/03 RMK AO2
14926KSTC STC20011108202010111/08/01 20:20:31  5-MIN KSTC 090220Z AUTO 19003KT 10SM CLR M01/M03 A3037 620 85 -1100 190/03 RMK AO2
14926KSTC STC20011108202510111/08/01 20:25:31  5-MIN KSTC 090225Z AUTO 20005KT 10SM CLR M01/M04 A3036 620 81 -1100 190/05 RMK AO2
14926KSTC STC20011108203010111/08/01 20:30:31  5-MIN KSTC 090230Z AUTO 19004KT 10SM CLR M02/M03 A3036 620 88 -1200 190/04 RMK AO2
14926KSTC STC20011108203510111/08/01 20:35:31  5-MIN KSTC 090235Z AUTO 19006KT 10SM CLR M02/M03 A3036 630 92 -1200 190/06 RMK AO2
14926KSTC STC20011108204010111/08/01 20:40:31  5-MIN KSTC 090240Z AUTO 19006KT 10SM CLR M02/M04 A3035 630 88 -1200 190/06 RMK AO2
14926KSTC STC20011108204510111/08/01 20:45:31  5-MIN KSTC 090245Z AUTO 19007KT 10SM CLR M02/M04 A3034 640 85 -1200 180/07 RMK AO2
14926KSTC STC20011108205012411/08/01 20:50:31  5-MIN KSTC 090250Z AUTO 19006KT 10SM CLR M02/M04 A3034 640 85 -1200 190/06 RMK AO2 SLP296 T10171039 55000
14926KSTC STC20011108205510111/08/01 20:55:31  5-MIN KSTC 090255Z AUTO 19008KT 10SM CLR M01/M03 A3034 640 85 -1100 190/08 RMK AO2
14926KSTC STC20011108210010811/08/01 21:00:31  5-MIN KSTC 090300Z AUTO 19008KT 10SM CLR M01/M03 A3033 650 85 -1100 180/08 RMK AO2 PRESFR
14926KSTC STC20011108210510111/08/01 21:05:31  5-MIN KSTC 090305Z AUTO 18008KT 10SM CLR M01/M03 A3032 660 85 -1000 180/08 RMK AO2
14926KSTC STC20011108211010111/08/01 21:10:31  5-MIN KSTC 090310Z AUTO 18008KT 10SM CLR M01/M03 A3032 660 85 -1000 180/08 RMK AO2
14926KSTC STC20011108211510111/08/01 21:15:31  5-MIN KSTC 090315Z AUTO 18007KT 10SM CLR M01/M03 A3033 650 85 -1000 180/07 RMK AO2
14926KSTC STC20011108212010111/08/01 21:20:31  5-MIN KSTC 090320Z AUTO 18006KT 10SM CLR M01/M03 A3032 650 85 -1000 180/06 RMK AO2
14926KSTC STC20011108212510111/08/01 21:25:31  5-MIN KSTC 090325Z AUTO 19006KT 10SM CLR M01/M03 A3032 660 85 -1000 180/06 RMK AO2
14926KSTC STC20011108213010111/08/01 21:30:31  5-MIN KSTC 090330Z AUTO 18006KT 10SM CLR M01/M03 A3032 660 85 -1100 180/06 RMK AO2
14926KSTC STC20011108213510111/08/01 21:35:31  5-MIN KSTC 090335Z AUTO 18007KT 10SM CLR M02/M03 A3031 670 88 -1100 180/07 RMK AO2
14926KSTC STC20011108214010111/08/01 21:40:31  5-MIN KSTC 090340Z AUTO 17007KT 10SM CLR M01/M03 A3031 670 85 -1000 170/07 RMK AO2
14926KSTC STC20011108214510111/08/01 21:45:31  5-MIN KSTC 090345Z AUTO 18007KT 10SM CLR M01/M03 A3031 670 88 -1000 170/07 RMK AO2
14926KSTC STC20011108215011811/08/01 21:50:31  5-MIN KSTC 090350Z AUTO 18007KT 10SM CLR M01/M03 A3030 670 88 -1000 180/07 RMK AO2 SLP282 T10111028
14926KSTC STC20011108215510111/08/01 21:55:31  5-MIN KSTC 090355Z AUTO 18007KT 10SM CLR M01/M03 A3030 680 85 -1000 170/07 RMK AO2
14926KSTC STC20011108220010111/08/01 22:00:31  5-MIN KSTC 090400Z AUTO 18008KT 10SM CLR M01/M03 A3029 680 85 -1000 170/08 RMK AO2
14926KSTC STC20011108220510111/08/01 22:05:31  5-MIN KSTC 090405Z AUTO 17007KT 10SM CLR M01/M02 A3029 690 88 -1000 170/07 RMK AO2
14926KSTC STC20011108221010111/08/01 22:10:31  5-MIN KSTC 090410Z AUTO 17006KT 10SM CLR M02/M03 A3029 690 88 -1100 170/06 RMK AO2
14926KSTC STC20011108221510111/08/01 22:15:31  5-MIN KSTC 090415Z AUTO 18007KT 10SM CLR M02/M03 A3029 690 88 -1100 170/07 RMK AO2
14926KSTC STC20011108222010111/08/01 22:20:31  5-MIN KSTC 090420Z AUTO 18005KT 10SM CLR M02/M03 A3029 690 92 -1200 170/05 RMK AO2
14926KSTC STC20011108222510111/08/01 22:25:31  5-MIN KSTC 090425Z AUTO 18006KT 10SM CLR M02/M04 A3028 690 88 -1200 170/06 RMK AO2
14926KSTC STC20011108223010111/08/01 22:30:31  5-MIN KSTC 090430Z AUTO 18005KT 10SM CLR M02/M04 A3028 690 88 -1200 170/05 RMK AO2
14926KSTC STC20011108223510111/08/01 22:35:31  5-MIN KSTC 090435Z AUTO 18005KT 10SM CLR M02/M04 A3028 700 88 -1200 170/05 RMK AO2
14926KSTC STC20011108224010111/08/01 22:40:31  5-MIN KSTC 090440Z AUTO 18004KT 10SM CLR M02/M03 A3028 700 88 -1100 170/04 RMK AO2
14926KSTC STC20011108224510111/08/01 22:45:31  5-MIN KSTC 090445Z AUTO 17004KT 10SM CLR M02/M04 A3028 690 88 -1200 170/04 RMK AO2
14926KSTC STC20011108225011811/08/01 22:50:31  5-MIN KSTC 090450Z AUTO 17005KT 10SM CLR M02/M04 A3028 700 88 -1200 170/05 RMK AO2 SLP274 T10221039
14926KSTC STC20011108225510111/08/01 22:55:31  5-MIN KSTC 090455Z AUTO 18006KT 10SM CLR M03/M04 A3028 700 88 -1200 180/06 RMK AO2
14926KSTC STC20011108230010111/08/01 23:00:31  5-MIN KSTC 090500Z AUTO 19006KT 10SM CLR M03/M04 A3028 700 88 -1200 180/06 RMK AO2
14926KSTC STC20011108230510111/08/01 23:05:31  5-MIN KSTC 090505Z AUTO 19006KT 10SM CLR M03/M04 A3028 700 92 -1200 190/06 RMK AO2
14926KSTC STC20011108231010111/08/01 23:10:31  5-MIN KSTC 090510Z AUTO 19007KT 10SM CLR M02/M03 A3027 700 88 -1100 190/07 RMK AO2
14926KSTC STC20011108231510111/08/01 23:15:31  5-MIN KSTC 090515Z AUTO 19006KT 10SM CLR M02/M03 A3028 700 88 -1100 190/06 RMK AO2
14926KSTC STC20011108232010111/08/01 23:20:31  5-MIN KSTC 090520Z AUTO 20005KT 10SM CLR M02/M03 A3028 700 88 -1100 200/05 RMK AO2
14926KSTC STC20011108232510111/08/01 23:25:31  5-MIN KSTC 090525Z AUTO 22006KT 10SM CLR M02/M03 A3028 690 88 -1100 210/06 RMK AO2
14926KSTC STC20011108233010111/08/01 23:30:31  5-MIN KSTC 090530Z AUTO 22005KT 10SM CLR M02/M04 A3028 700 85 -1100 220/05 RMK AO2
14926KSTC STC20011108233510111/08/01 23:35:31  5-MIN KSTC 090535Z AUTO 21003KT 10SM CLR M02/M04 A3028 700 88 -1200 210/03 RMK AO2
14926KSTC STC20011108234010111/08/01 23:40:31  5-MIN KSTC 090540Z AUTO 21005KT 10SM CLR M02/M04 A3027 700 85 -1100 200/05 RMK AO2
14926KSTC STC20011108234510111/08/01 23:45:31  5-MIN KSTC 090545Z AUTO 21005KT 10SM CLR M02/M04 A3027 700 85 -1100 200/05 RMK AO2
14926KSTC STC20011108235014611/08/01 23:50:31  5-MIN KSTC 090550Z AUTO 21006KT 10SM CLR M02/M04 A3027 700 85 -1100 210/06 RMK AO2 SLP271 T10171039 10022 21033 400671033 58024
14926KSTC STC20011108235510111/08/01 23:55:31  5-MIN KSTC 090555Z AUTO 21006KT 10SM CLR M02/M04 A3027 710 85 -1100 200/06 RMK AO2
14926KSTC STC20011109000010111/09/01 00:00:31  5-MIN KSTC 090600Z AUTO 21006KT 10SM CLR M02/M04 A3027 710 85 -1100 200/06 RMK AO2
14926KSTC STC20011109000510111/09/01 00:05:31  5-MIN KSTC 090605Z AUTO 21007KT 10SM CLR M02/M04 A3027 710 85 -1100 200/07 RMK AO2
14926KSTC STC20011109001010111/09/01 00:10:31  5-MIN KSTC 090610Z AUTO 20007KT 10SM CLR M02/M03 A3026 710 88 -1100 200/07 RMK AO2
14926KSTC STC20011109001510111/09/01 00:15:31  5-MIN KSTC 090615Z AUTO 19008KT 10SM CLR M01/M03 A3026 710 85 -1000 190/08 RMK AO2
14926KSTC STC20011109002010011/09/01 00:20:31  5-MIN KSTC 090620Z AUTO 19007KT 10SM CLR M01/M03 A3026 720 81 -900 190/07 RMK AO2
14926KSTC STC20011109002510011/09/01 00:25:31  5-MIN KSTC 090625Z AUTO 19008KT 10SM CLR M01/M03 A3025 720 85 -900 190/08 RMK AO2
14926KSTC STC20011109003010011/09/01 00:30:31  5-MIN KSTC 090630Z AUTO 19008KT 10SM CLR M01/M03 A3025 730 81 -900 190/08 RMK AO2
14926KSTC STC20011109003510011/09/01 00:35:31  5-MIN KSTC 090635Z AUTO 19008KT 10SM CLR M01/M03 A3024 730 81 -900 190/08 RMK AO2
14926KSTC STC20011109004010011/09/01 00:40:31  5-MIN KSTC 090640Z AUTO 19008KT 10SM CLR M01/M03 A3024 730 85 -900 190/08 RMK AO2
14926KSTC STC20011109004510011/09/01 00:45:31  5-MIN KSTC 090645Z AUTO 19007KT 10SM CLR M01/M03 A3024 730 85 -900 180/07 RMK AO2
14926KSTC STC20011109005011711/09/01 00:50:31  5-MIN KSTC 090650Z AUTO 18006KT 10SM CLR M01/M03 A3024 740 81 -900 180/06 RMK AO2 SLP258 T10061033
14926KSTC STC20011109005510011/09/01 00:55:31  5-MIN KSTC 090655Z AUTO 18007KT 10SM CLR M01/M03 A3023 740 85 -900 180/07 RMK AO2
14926KSTC STC20011109010010011/09/01 01:00:31  5-MIN KSTC 090700Z AUTO 19007KT 10SM CLR M01/M03 A3023 750 85 -900 180/07 RMK AO2
14926KSTC STC20011109010510011/09/01 01:05:31  5-MIN KSTC 090705Z AUTO 19007KT 10SM CLR M01/M03 A3022 750 85 -900 190/07 RMK AO2
14926KSTC STC20011109011009911/09/01 01:10:31  5-MIN KSTC 090710Z AUTO 20007KT 10SM CLR 00/M03 A3022 750 81 -800 190/07 RMK AO2
14926KSTC STC20011109011510011/09/01 01:15:31  5-MIN KSTC 090715Z AUTO 20007KT 10SM CLR M01/M03 A3022 750 85 -900 200/07 RMK AO2
14926KSTC STC20011109012010011/09/01 01:20:31  5-MIN KSTC 090720Z AUTO 20007KT 10SM CLR M01/M03 A3021 760 85 -900 190/07 RMK AO2
14926KSTC STC20011109012510011/09/01 01:25:31  5-MIN KSTC 090725Z AUTO 19007KT 10SM CLR M01/M03 A3021 760 85 -900 190/07 RMK AO2
14926KSTC STC20011109013009911/09/01 01:30:31  5-MIN KSTC 090730Z AUTO 19007KT 10SM CLR 00/M03 A3021 760 81 -800 190/07 RMK AO2
14926KSTC STC20011109013509911/09/01 01:35:31  5-MIN KSTC 090735Z AUTO 19007KT 10SM CLR 00/M03 A3021 760 81 -800 190/07 RMK AO2
14926KSTC STC20011109014009911/09/01 01:40:31  5-MIN KSTC 090740Z AUTO 19008KT 10SM CLR 00/M03 A3020 770 81 -800 190/08 RMK AO2
14926KSTC STC20011109014509911/09/01 01:45:31  5-MIN KSTC 090745Z AUTO 20007KT 10SM CLR 01/M03 A3020 770 78 -700 190/07 RMK AO2
14926KSTC STC20011109015011611/09/01 01:50:31  5-MIN KSTC 090750Z AUTO 20007KT 10SM CLR 01/M03 A3020 770 78 -700 200/07 RMK AO2 SLP246 T00061028
14926KSTC STC20011109015509911/09/01 01:55:31  5-MIN KSTC 090755Z AUTO 20007KT 10SM CLR 01/M03 A3020 770 78 -700 200/07 RMK AO2
14926KSTC STC20011109020009911/09/01 02:00:31  5-MIN KSTC 090800Z AUTO 20007KT 10SM CLR 00/M02 A3020 770 85 -800 200/07 RMK AO2
14926KSTC STC20011109020509911/09/01 02:05:31  5-MIN KSTC 090805Z AUTO 20008KT 10SM CLR 01/M02 A3020 770 82 -700 200/08 RMK AO2
14926KSTC STC20011109021009911/09/01 02:10:31  5-MIN KSTC 090810Z AUTO 20008KT 10SM CLR 01/M02 A3019 780 82 -700 200/08 RMK AO2
14926KSTC STC20011109021509911/09/01 02:15:31  5-MIN KSTC 090815Z AUTO 20009KT 10SM CLR 01/M02 A3019 780 82 -700 200/09 RMK AO2
14926KSTC STC20011109022009911/09/01 02:20:31  5-MIN KSTC 090820Z AUTO 20010KT 10SM CLR 01/M02 A3018 780 78 -600 200/10 RMK AO2
14926KSTC STC20011109022509911/09/01 02:25:31  5-MIN KSTC 090825Z AUTO 20010KT 10SM CLR 01/M02 A3018 790 78 -600 190/10 RMK AO2
14926KSTC STC20011109023009911/09/01 02:30:31  5-MIN KSTC 090830Z AUTO 20011KT 10SM CLR 02/M02 A3018 790 75 -600 200/11 RMK AO2
14926KSTC STC20011109023509911/09/01 02:35:31  5-MIN KSTC 090835Z AUTO 20011KT 10SM CLR 02/M02 A3017 790 75 -500 200/11 RMK AO2
14926KSTC STC20011109024009911/09/01 02:40:31  5-MIN KSTC 090840Z AUTO 20010KT 10SM CLR 02/M02 A3017 790 75 -500 200/10 RMK AO2
14926KSTC STC20011109024509911/09/01 02:45:31  5-MIN KSTC 090845Z AUTO 20009KT 10SM CLR 02/M02 A3017 800 75 -500 200/09 RMK AO2
14926KSTC STC20011109025012211/09/01 02:50:31  5-MIN KSTC 090850Z AUTO 21010KT 10SM CLR 02/M02 A3017 800 75 -500 200/10 RMK AO2 SLP235 T00171022 56023
14926KSTC STC20011109025509911/09/01 02:55:31  5-MIN KSTC 090855Z AUTO 21010KT 10SM CLR 02/M02 A3017 800 75 -500 210/10 RMK AO2
14926KSTC STC20011109030009911/09/01 03:00:31  5-MIN KSTC 090900Z AUTO 21010KT 10SM CLR 02/M02 A3017 800 72 -500 210/10 RMK AO2
14926KSTC STC20011109030509911/09/01 03:05:31  5-MIN KSTC 090905Z AUTO 21009KT 10SM CLR 02/M02 A3016 800 72 -500 210/09 RMK AO2
14926KSTC STC20011109031009911/09/01 03:10:31  5-MIN KSTC 090910Z AUTO 21010KT 10SM CLR 02/M02 A3016 810 72 -500 210/10 RMK AO2
14926KSTC STC20011109031509911/09/01 03:15:31  5-MIN KSTC 090915Z AUTO 21009KT 10SM CLR 02/M02 A3016 810 72 -500 210/09 RMK AO2
14926KSTC STC20011109032009911/09/01 03:20:31  5-MIN KSTC 090920Z AUTO 21011KT 10SM CLR 02/M03 A3015 810 69 -500 210/11 RMK AO2
14926KSTC STC20011109032509911/09/01 03:25:31  5-MIN KSTC 090925Z AUTO 21009KT 10SM CLR 02/M03 A3015 810 69 -500 210/09 RMK AO2
14926KSTC STC20011109033009911/09/01 03:30:31  5-MIN KSTC 090930Z AUTO 22009KT 10SM CLR 02/M03 A3015 810 69 -500 220/09 RMK AO2
14926KSTC STC20011109033509911/09/01 03:35:31  5-MIN KSTC 090935Z AUTO 23009KT 10SM CLR 02/M03 A3015 810 69 -500 220/09 RMK AO2
14926KSTC STC20011109034009911/09/01 03:40:31  5-MIN KSTC 090940Z AUTO 22010KT 10SM CLR 02/M03 A3015 810 69 -500 220/10 RMK AO2
14926KSTC STC20011109034509911/09/01 03:45:31  5-MIN KSTC 090945Z AUTO 22010KT 10SM CLR 03/M03 A3015 820 67 -400 220/10 RMK AO2
14926KSTC STC20011109035011611/09/01 03:50:31  5-MIN KSTC 090950Z AUTO 22009KT 10SM CLR 02/M03 A3015 820 69 -400 220/09 RMK AO2 SLP228 T00221028
14926KSTC STC20011109035509911/09/01 03:55:31  5-MIN KSTC 090955Z AUTO 22009KT 10SM CLR 02/M03 A3015 820 69 -400 210/09 RMK AO2
14926KSTC STC20011109040009911/09/01 04:00:31  5-MIN KSTC 091000Z AUTO 22009KT 10SM CLR 02/M03 A3015 820 69 -400 220/09 RMK AO2
14926KSTC STC20011109040509911/09/01 04:05:31  5-MIN KSTC 091005Z AUTO 22008KT 10SM CLR 02/M03 A3015 820 69 -400 220/08 RMK AO2
14926KSTC STC20011109041009911/09/01 04:10:31  5-MIN KSTC 091010Z AUTO 22009KT 10SM CLR 02/M03 A3015 820 72 -500 220/09 RMK AO2
14926KSTC STC20011109041509911/09/01 04:15:31  5-MIN KSTC 091015Z AUTO 22009KT 10SM CLR 02/M03 A3014 820 72 -500 210/09 RMK AO2
14926KSTC STC20011109042009911/09/01 04:20:31  5-MIN KSTC 091020Z AUTO 22009KT 10SM CLR 02/M03 A3014 820 72 -500 210/09 RMK AO2
14926KSTC STC20011109042509911/09/01 04:25:31  5-MIN KSTC 091025Z AUTO 21009KT 10SM CLR 02/M03 A3014 830 72 -500 210/09 RMK AO2
14926KSTC STC20011109043009911/09/01 04:30:31  5-MIN KSTC 091030Z AUTO 21009KT 10SM CLR 02/M03 A3014 820 72 -500 210/09 RMK AO2
14926KSTC STC20011109043509911/09/01 04:35:31  5-MIN KSTC 091035Z AUTO 22007KT 10SM CLR 02/M03 A3014 830 72 -500 210/07 RMK AO2
14926KSTC STC20011109044009911/09/01 04:40:31  5-MIN KSTC 091040Z AUTO 21007KT 10SM CLR 01/M03 A3013 830 75 -600 210/07 RMK AO2
14926KSTC STC20011109044509911/09/01 04:45:31  5-MIN KSTC 091045Z AUTO 21007KT 10SM CLR 01/M03 A3013 830 75 -600 210/07 RMK AO2
14926KSTC STC20011109045011611/09/01 04:50:31  5-MIN KSTC 091050Z AUTO 21006KT 10SM CLR 01/M03 A3013 830 75 -600 210/06 RMK AO2 SLP222 T00111028
14926KSTC STC20011109045509911/09/01 04:55:31  5-MIN KSTC 091055Z AUTO 21006KT 10SM CLR 01/M03 A3013 830 75 -600 210/06 RMK AO2
14926KSTC STC20011109050009911/09/01 05:00:31  5-MIN KSTC 091100Z AUTO 21006KT 10SM CLR 01/M03 A3012 840 78 -600 200/06 RMK AO2
14926KSTC STC20011109050509911/09/01 05:05:31  5-MIN KSTC 091105Z AUTO 20006KT 10SM CLR 01/M03 A3012 840 78 -600 200/06 RMK AO2
14926KSTC STC20011109051009911/09/01 05:10:31  5-MIN KSTC 091110Z AUTO 21006KT 10SM CLR 01/M03 A3012 840 78 -600 210/06 RMK AO2
14926KSTC STC20011109051509911/09/01 05:15:31  5-MIN KSTC 091115Z AUTO 21006KT 10SM CLR 01/M03 A3012 840 78 -600 210/06 RMK AO2
14926KSTC STC20011109052009911/09/01 05:20:31  5-MIN KSTC 091120Z AUTO 21006KT 10SM CLR 01/M03 A3012 840 78 -600 200/06 RMK AO2
14926KSTC STC20011109052509911/09/01 05:25:31  5-MIN KSTC 091125Z AUTO 21007KT 10SM CLR 01/M03 A3012 840 78 -600 200/07 RMK AO2
14926KSTC STC20011109053009911/09/01 05:30:31  5-MIN KSTC 091130Z AUTO 20007KT 10SM CLR 01/M03 A3012 850 78 -600 200/07 RMK AO2
14926KSTC STC20011109053509911/09/01 05:35:31  5-MIN KSTC 091135Z AUTO 20007KT 10SM CLR 01/M03 A3011 850 78 -600 200/07 RMK AO2
14926KSTC STC20011109054009911/09/01 05:40:31  5-MIN KSTC 091140Z AUTO 20006KT 10SM CLR 01/M03 A3011 850 78 -600 200/06 RMK AO2
14926KSTC STC20011109054509911/09/01 05:45:31  5-MIN KSTC 091145Z AUTO 20006KT 10SM CLR 00/M03 A3011 850 78 -700 200/06 RMK AO2
14926KSTC STC20011109055013411/09/01 05:50:31  5-MIN KSTC 091150Z AUTO 20006KT 10SM CLR 00/M03 A3011 850 78 -700 200/06 RMK AO2 SLP217 T00001033 10028 21017 56033
14926KSTC STC20011109055509911/09/01 05:55:31  5-MIN KSTC 091155Z AUTO 20006KT 10SM CLR 00/M03 A3011 850 78 -700 200/06 RMK AO2
14926KSTC STC20011109060009911/09/01 06:00:31  5-MIN KSTC 091200Z AUTO 19005KT 10SM CLR 00/M03 A3011 850 78 -700 190/05 RMK AO2
14926KSTC STC20011109060509911/09/01 06:05:31  5-MIN KSTC 091205Z AUTO 19004KT 10SM CLR 00/M03 A3011 860 78 -700 190/04 RMK AO2
14926KSTC STC20011109061009911/09/01 06:10:31  5-MIN KSTC 091210Z AUTO 19005KT 10SM CLR 00/M03 A3010 860 78 -700 190/05 RMK AO2
14926KSTC STC20011109061509911/09/01 06:15:31  5-MIN KSTC 091215Z AUTO 19005KT 10SM CLR 00/M03 A3010 860 78 -700 190/05 RMK AO2
14926KSTC STC20011109062009911/09/01 06:20:31  5-MIN KSTC 091220Z AUTO 20004KT 10SM CLR 00/M03 A3011 860 78 -700 190/04 RMK AO2
14926KSTC STC20011109062509911/09/01 06:25:31  5-MIN KSTC 091225Z AUTO 20005KT 10SM CLR 00/M03 A3010 860 78 -700 200/05 RMK AO2
14926KSTC STC20011109063010011/09/01 06:30:31  5-MIN KSTC 091230Z AUTO 21006KT 10SM CLR M01/M03 A3010 860 81 -700 200/06 RMK AO2
14926KSTC STC20011109063510011/09/01 06:35:31  5-MIN KSTC 091235Z AUTO 21006KT 10SM CLR M01/M03 A3010 860 81 -700 210/06 RMK AO2
14926KSTC STC20011109064010011/09/01 06:40:31  5-MIN KSTC 091240Z AUTO 21006KT 10SM CLR M01/M04 A3010 860 81 -800 200/06 RMK AO2
14926KSTC STC20011109064510011/09/01 06:45:31  5-MIN KSTC 091245Z AUTO 21006KT 10SM CLR M01/M03 A3010 860 85 -800 200/06 RMK AO2
14926KSTC STC20011109065011711/09/01 06:50:31  5-MIN KSTC 091250Z AUTO 20006KT 10SM CLR M01/M03 A3010 860 85 -800 200/06 RMK AO2 SLP212 T10111033
14926KSTC STC20011109065510011/09/01 06:55:31  5-MIN KSTC 091255Z AUTO 21006KT 10SM CLR M01/M03 A3009 870 85 -800 200/06 RMK AO2
14926KSTC STC20011109070010011/09/01 07:00:31  5-MIN KSTC 091300Z AUTO 21005KT 10SM CLR M01/M03 A3009 870 85 -800 200/05 RMK AO2
14926KSTC STC20011109070510011/09/01 07:05:31  5-MIN KSTC 091305Z AUTO 21005KT 10SM CLR M01/M03 A3009 870 85 -800 200/05 RMK AO2
14926KSTC STC20011109071010011/09/01 07:10:31  5-MIN KSTC 091310Z AUTO 21005KT 10SM CLR M01/M03 A3009 870 85 -800 210/05 RMK AO2
14926KSTC STC20011109071510011/09/01 07:15:31  5-MIN KSTC 091315Z AUTO 21005KT 10SM CLR M01/M03 A3009 870 85 -800 210/05 RMK AO2
14926KSTC STC20011109072010011/09/01 07:20:31  5-MIN KSTC 091320Z AUTO 22005KT 10SM CLR M01/M04 A3010 870 81 -800 210/05 RMK AO2
14926KSTC STC20011109072510011/09/01 07:25:31  5-MIN KSTC 091325Z AUTO 21004KT 10SM CLR M01/M04 A3009 870 81 -800 210/04 RMK AO2
14926KSTC STC20011109073010011/09/01 07:30:31  5-MIN KSTC 091330Z AUTO 21003KT 10SM CLR M01/M03 A3010 860 81 -700 210/03 RMK AO2
14926KSTC STC20011109073510011/09/01 07:35:31  5-MIN KSTC 091335Z AUTO 21004KT 10SM CLR M01/M03 A3010 860 81 -700 200/04 RMK AO2
14926KSTC STC20011109074010011/09/01 07:40:31  5-MIN KSTC 091340Z AUTO 20004KT 10SM CLR M01/M03 A3009 870 81 -700 200/04 RMK AO2
14926KSTC STC20011109074510011/09/01 07:45:31  5-MIN KSTC 091345Z AUTO 20005KT 10SM CLR M01/M03 A3010 860 85 -700 190/05 RMK AO2
14926KSTC STC20011109075011611/09/01 07:50:31  5-MIN KSTC 091350Z AUTO 20005KT 10SM CLR 00/M03 A3010 860 81 -700 200/05 RMK AO2 SLP212 T00001028
14926KSTC STC20011109075509911/09/01 07:55:31  5-MIN KSTC 091355Z AUTO 20005KT 10SM CLR 00/M03 A3010 870 81 -700 200/05 RMK AO2
14926KSTC STC20011109080009911/09/01 08:00:31  5-MIN KSTC 091400Z AUTO 21005KT 10SM CLR 00/M03 A3009 870 81 -700 200/05 RMK AO2
14926KSTC STC20011109080509911/09/01 08:05:31  5-MIN KSTC 091405Z AUTO 20004KT 10SM CLR 01/M03 A3010 860 78 -600 200/04 RMK AO2
14926KSTC STC20011109081009911/09/01 08:10:31  5-MIN KSTC 091410Z AUTO 21004KT 10SM CLR 01/M02 A3010 860 82 -600 210/04 RMK AO2
14926KSTC STC20011109081509911/09/01 08:15:31  5-MIN KSTC 091415Z AUTO 20004KT 10SM CLR 01/M02 A3010 860 78 -500 200/04 RMK AO2
14926KSTC STC20011109082009911/09/01 08:20:31  5-MIN KSTC 091420Z AUTO 21005KT 10SM CLR 01/M02 A3010 860 78 -500 210/05 RMK AO2
14926KSTC STC20011109082509911/09/01 08:25:31  5-MIN KSTC 091425Z AUTO 21006KT 10SM CLR 02/M02 A3009 870 75 -500 210/06 RMK AO2
14926KSTC STC20011109083009911/09/01 08:30:31  5-MIN KSTC 091430Z AUTO 21006KT 10SM CLR 02/M03 A3009 870 72 -500 210/06 RMK AO2
14926KSTC STC20011109083509911/09/01 08:35:31  5-MIN KSTC 091435Z AUTO 22006KT 10SM CLR 02/M02 A3009 870 75 -500 220/06 RMK AO2
14926KSTC STC20011109084009911/09/01 08:40:31  5-MIN KSTC 091440Z AUTO 22006KT 10SM CLR 02/M02 A3009 870 72 -400 210/06 RMK AO2
14926KSTC STC20011109084509911/09/01 08:45:31  5-MIN KSTC 091445Z AUTO 22007KT 10SM CLR 03/M02 A3009 870 69 -300 220/07 RMK AO2
14926KSTC STC20011109085012211/09/01 08:50:31  5-MIN KSTC 091450Z AUTO 22007KT 10SM CLR 03/M02 A3009 870 69 -300 220/07 RMK AO2 SLP209 T00281022 56019
14926KSTC STC20011109085509911/09/01 08:55:31  5-MIN KSTC 091455Z AUTO 22007KT 10SM CLR 03/M02 A3009 870 67 -200 220/07 RMK AO2
14926KSTC STC20011109090009911/09/01 09:00:31  5-MIN KSTC 091500Z AUTO 21007KT 10SM CLR 03/M02 A3009 870 67 -200 210/07 RMK AO2
14926KSTC STC20011109102509811/09/01 10:25:31  5-MIN KSTC 091625Z AUTO 25006KT 10SM CLR 07/M02 A3008 880 51 200 240/06 RMK AO2
14926KSTC STC20011109103009811/09/01 10:30:31  5-MIN KSTC 091630Z AUTO 24007KT 10SM CLR 07/M02 A3008 880 51 200 240/07 RMK AO2
14926KSTC STC20011109103509811/09/01 10:35:31  5-MIN KSTC 091635Z AUTO 24006KT 10SM CLR 08/M02 A3008 880 49 300 240/06 RMK AO2
14926KSTC STC20011109104009811/09/01 10:40:31  5-MIN KSTC 091640Z AUTO 23007KT 10SM CLR 07/M02 A3008 880 51 200 230/07 RMK AO2
14926KSTC STC20011109104509811/09/01 10:45:31  5-MIN KSTC 091645Z AUTO 23007KT 10SM CLR 07/M03 A3007 890 49 200 230/07 RMK AO2
14926KSTC STC20011109105011511/09/01 10:50:31  5-MIN KSTC 091650Z AUTO 23008KT 10SM CLR 08/M02 A3007 890 49 300 220/08 RMK AO2 SLP202 T00781022
14926KSTC STC20011109105509811/09/01 10:55:31  5-MIN KSTC 091655Z AUTO 22006KT 10SM CLR 08/M02 A3007 890 49 300 210/06 RMK AO2
14926KSTC STC20011109110009811/09/01 11:00:31  5-MIN KSTC 091700Z AUTO 20007KT 10SM CLR 08/M02 A3007 890 47 300 200/07 RMK AO2
14926KSTC STC20011109110509811/09/01 11:05:31  5-MIN KSTC 091705Z AUTO 20008KT 10SM CLR 08/M02 A3007 890 47 300 190/08 RMK AO2
14926KSTC STC20011109111009811/09/01 11:10:31  5-MIN KSTC 091710Z AUTO 22008KT 10SM CLR 08/M02 A3007 890 47 300 210/08 RMK AO2
14926KSTC STC20011109111509811/09/01 11:15:31  5-MIN KSTC 091715Z AUTO 20009KT 10SM CLR 08/M02 A3006 890 47 300 200/09 RMK AO2
14926KSTC STC20011109112009811/09/01 11:20:31  5-MIN KSTC 091720Z AUTO 20008KT 10SM CLR 08/M02 A3006 900 47 300 200/08 RMK AO2
14926KSTC STC20011109112509811/09/01 11:25:31  5-MIN KSTC 091725Z AUTO 20009KT 10SM CLR 08/M02 A3006 900 47 400 200/09 RMK AO2
14926KSTC STC20011109113009811/09/01 11:30:31  5-MIN KSTC 091730Z AUTO 22009KT 10SM CLR 09/M02 A3006 900 45 400 210/09 RMK AO2
14926KSTC STC20011109113509811/09/01 11:35:31  5-MIN KSTC 091735Z AUTO 21008KT 10SM CLR 08/M02 A3005 900 47 400 210/08 RMK AO2
14926KSTC STC20011109114009811/09/01 11:40:31  5-MIN KSTC 091740Z AUTO 20008KT 10SM CLR 09/M02 A3005 910 45 400 200/08 RMK AO2
14926KSTC STC20011109114509811/09/01 11:45:31  5-MIN KSTC 091745Z AUTO 20010KT 10SM CLR 08/M02 A3005 910 47 400 200/10 RMK AO2
14926KSTC STC20011109115013311/09/01 11:50:31  5-MIN KSTC 091750Z AUTO 21010KT 10SM CLR 09/M02 A3005 910 45 400 210/10 RMK AO2 SLP193 T00891022 10089 21011 56008
14926KSTC STC20011109115509811/09/01 11:55:31  5-MIN KSTC 091755Z AUTO 22010KT 10SM CLR 08/M02 A3005 910 47 400 210/10 RMK AO2
14926KSTC STC20011109120009811/09/01 12:00:31  5-MIN KSTC 091800Z AUTO 21009KT 10SM CLR 09/M02 A3004 910 45 400 210/09 RMK AO2
14926KSTC STC20011109120509811/09/01 12:05:31  5-MIN KSTC 091805Z AUTO 22008KT 10SM CLR 09/M02 A3004 910 45 400 210/08 RMK AO2
14926KSTC STC20011109121009811/09/01 12:10:31  5-MIN KSTC 091810Z AUTO 19007KT 10SM CLR 09/M02 A3004 910 45 400 190/07 RMK AO2
14926KSTC STC20011109121509811/09/01 12:15:31  5-MIN KSTC 091815Z AUTO 20008KT 10SM CLR 09/M02 A3004 920 44 500 200/08 RMK AO2
14926KSTC STC20011109122009811/09/01 12:20:31  5-MIN KSTC 091820Z AUTO 20008KT 10SM CLR 09/M02 A3004 920 44 500 200/08 RMK AO2
14926KSTC STC20011109122509811/09/01 12:25:31  5-MIN KSTC 091825Z AUTO 20008KT 10SM CLR 09/M02 A3004 920 44 500 200/08 RMK AO2
14926KSTC STC20011109123009811/09/01 12:30:31  5-MIN KSTC 091830Z AUTO 19008KT 10SM CLR 09/M02 A3003 920 45 500 180/08 RMK AO2
14926KSTC STC20011109123509811/09/01 12:35:31  5-MIN KSTC 091835Z AUTO 18008KT 10SM CLR 09/M02 A3003 920 45 500 180/08 RMK AO2
14926KSTC STC20011109124009811/09/01 12:40:31  5-MIN KSTC 091840Z AUTO 18007KT 10SM CLR 09/M02 A3003 920 45 500 180/07 RMK AO2
14926KSTC STC20011109124509811/09/01 12:45:31  5-MIN KSTC 091845Z AUTO 18007KT 10SM CLR 10/M02 A3003 920 44 600 180/07 RMK AO2
14926KSTC STC20011109125011511/09/01 12:50:31  5-MIN KSTC 091850Z AUTO 20009KT 10SM CLR 10/M02 A3003 920 44 600 200/09 RMK AO2 SLP186 T01001017
14926KSTC STC20011109125509811/09/01 12:55:31  5-MIN KSTC 091855Z AUTO 19007KT 10SM CLR 10/M02 A3003 920 44 600 190/07 RMK AO2
14926KSTC STC20011109130009811/09/01 13:00:31  5-MIN KSTC 091900Z AUTO 19009KT 10SM CLR 11/M02 A3003 930 42 700 190/09 RMK AO2
14926KSTC STC20011109130509811/09/01 13:05:31  5-MIN KSTC 091905Z AUTO 20007KT 10SM CLR 11/M02 A3002 930 42 700 200/07 RMK AO2
14926KSTC STC20011109131009811/09/01 13:10:31  5-MIN KSTC 091910Z AUTO 20010KT 10SM CLR 11/M02 A3003 930 41 700 200/10 RMK AO2
14926KSTC STC20011109131509811/09/01 13:15:31  5-MIN KSTC 091915Z AUTO 19010KT 10SM CLR 11/M02 A3002 930 41 700 190/10 RMK AO2
14926KSTC STC20011109132009811/09/01 13:20:31  5-MIN KSTC 091920Z AUTO 21008KT 10SM CLR 12/M02 A3002 940 39 800 210/08 RMK AO2
14926KSTC STC20011109132509811/09/01 13:25:31  5-MIN KSTC 091925Z AUTO 20009KT 10SM CLR 12/M02 A3002 940 38 900 200/09 RMK AO2
14926KSTC STC20011109133009811/09/01 13:30:31  5-MIN KSTC 091930Z AUTO 19007KT 10SM CLR 12/M02 A3002 940 38 900 190/07 RMK AO2
14926KSTC STC20011109133509811/09/01 13:35:31  5-MIN KSTC 091935Z AUTO 18009KT 10SM CLR 12/M02 A3001 940 38 900 180/09 RMK AO2
14926KSTC STC20011109134009811/09/01 13:40:31  5-MIN KSTC 091940Z AUTO 19008KT 10SM CLR 12/M02 A3001 950 38 900 190/08 RMK AO2
14926KSTC STC20011109134509811/09/01 13:45:31  5-MIN KSTC 091945Z AUTO 19008KT 10SM CLR 13/M02 A3000 950 35 900 190/08 RMK AO2
14926KSTC STC20011109135011511/09/01 13:50:31  5-MIN KSTC 091950Z AUTO 18009KT 10SM CLR 12/M02 A3000 950 38 900 180/09 RMK AO2 SLP174 T01221017
14926KSTC STC20011109135509811/09/01 13:55:31  5-MIN KSTC 091955Z AUTO 19008KT 10SM CLR 12/M02 A3000 950 36 900 190/08 RMK AO2
14926KSTC STC20011109140009911/09/01 14:00:31  5-MIN KSTC 092000Z AUTO 20007KT 10SM CLR 13/M02 A3000 950 35 1000 200/07 RMK AO2
14926KSTC STC20011109140509911/09/01 14:05:31  5-MIN KSTC 092005Z AUTO 18006KT 10SM CLR 13/M02 A3000 960 34 1000 180/06 RMK AO2
14926KSTC STC20011109141009911/09/01 14:10:31  5-MIN KSTC 092010Z AUTO 18006KT 10SM CLR 13/M02 A2999 960 35 1000 180/06 RMK AO2
14926KSTC STC20011109141509911/09/01 14:15:31  5-MIN KSTC 092015Z AUTO 20007KT 10SM CLR 13/M02 A2999 960 34 1000 200/07 RMK AO2
14926KSTC STC20011109142009911/09/01 14:20:31  5-MIN KSTC 092020Z AUTO 17007KT 10SM CLR 13/M02 A2999 960 34 1000 170/07 RMK AO2
14926KSTC STC20011109142509911/09/01 14:25:31  5-MIN KSTC 092025Z AUTO 19007KT 10SM CLR 13/M02 A2999 960 34 1000 180/07 RMK AO2
14926KSTC STC20011109143009911/09/01 14:30:31  5-MIN KSTC 092030Z AUTO 20009KT 10SM CLR 13/M02 A2999 970 34 1000 200/09 RMK AO2
14926KSTC STC20011109143509911/09/01 14:35:31  5-MIN KSTC 092035Z AUTO 19009KT 10SM CLR 14/M02 A2998 970 32 1100 180/09 RMK AO2
14926KSTC STC20011109144009911/09/01 14:40:31  5-MIN KSTC 092040Z AUTO 18009KT 10SM CLR 14/M02 A2998 970 34 1100 180/09 RMK AO2
14926KSTC STC20011109144509911/09/01 14:45:31  5-MIN KSTC 092045Z AUTO 19010KT 10SM CLR 14/M02 A2998 980 34 1100 180/10 RMK AO2
14926KSTC STC20011109145012211/09/01 14:50:31  5-MIN KSTC 092050Z AUTO 18009KT 10SM CLR 13/M02 A2997 980 35 1000 180/09 RMK AO2 SLP164 T01331017 58012
14926KSTC STC20011109145509911/09/01 14:55:31  5-MIN KSTC 092055Z AUTO 19011KT 10SM CLR 13/M02 A2997 980 35 1000 190/11 RMK AO2
14926KSTC STC20011109150009911/09/01 15:00:31  5-MIN KSTC 092100Z AUTO 18010KT 10SM CLR 13/M02 A2997 980 35 1100 180/10 RMK AO2
14926KSTC STC20011109150509911/09/01 15:05:31  5-MIN KSTC 092105Z AUTO 18009KT 10SM CLR 13/M02 A2997 980 36 1000 170/09 RMK AO2
14926KSTC STC20011109151009911/09/01 15:10:31  5-MIN KSTC 092110Z AUTO 18009KT 10SM CLR 13/M02 A2997 980 36 1000 180/09 RMK AO2
14926KSTC STC20011109151509911/09/01 15:15:31  5-MIN KSTC 092115Z AUTO 18009KT 10SM CLR 13/M02 A2997 980 35 1100 180/09 RMK AO2
14926KSTC STC20011109152009911/09/01 15:20:31  5-MIN KSTC 092120Z AUTO 18009KT 10SM CLR 13/M02 A2997 980 36 1000 180/09 RMK AO2
14926KSTC STC20011109152509911/09/01 15:25:31  5-MIN KSTC 092125Z AUTO 18007KT 10SM CLR 13/M02 A2997 980 36 1000 180/07 RMK AO2
14926KSTC STC20011109153009911/09/01 15:30:31  5-MIN KSTC 092130Z AUTO 18008KT 10SM CLR 13/M01 A2997 980 38 1000 180/08 RMK AO2
14926KSTC STC20011109153509911/09/01 15:35:31  5-MIN KSTC 092135Z AUTO 17006KT 10SM CLR 13/M01 A2997 980 38 1000 170/06 RMK AO2
14926KSTC STC20011109154009911/09/01 15:40:31  5-MIN KSTC 092140Z AUTO 18006KT 10SM CLR 13/M01 A2997 980 36 1100 180/06 RMK AO2
14926KSTC STC20011109154509911/09/01 15:45:31  5-MIN KSTC 092145Z AUTO 18006KT 10SM CLR 13/M01 A2997 980 36 1100 180/06 RMK AO2
14926KSTC STC20011109155011611/09/01 15:50:31  5-MIN KSTC 092150Z AUTO 18006KT 10SM CLR 13/M01 A2997 980 36 1100 180/06 RMK AO2 SLP163 T01331011
14926KSTC STC20011109155509911/09/01 15:55:31  5-MIN KSTC 092155Z AUTO 19007KT 10SM CLR 13/M01 A2997 980 36 1100 190/07 RMK AO2
14926KSTC STC20011109160009911/09/01 16:00:31  5-MIN KSTC 092200Z AUTO 19006KT 10SM CLR 13/M01 A2997 980 36 1100 190/06 RMK AO2
14926KSTC STC20011109160509911/09/01 16:05:31  5-MIN KSTC 092205Z AUTO 19007KT 10SM CLR 13/M01 A2996 990 36 1100 180/07 RMK AO2
14926KSTC STC20011109161009911/09/01 16:10:31  5-MIN KSTC 092210Z AUTO 19006KT 10SM CLR 13/M01 A2996 990 36 1100 180/06 RMK AO2
14926KSTC STC20011109161509911/09/01 16:15:31  5-MIN KSTC 092215Z AUTO 19006KT 10SM CLR 13/M01 A2996 990 38 1000 180/06 RMK AO2
14926KSTC STC20011109162009811/09/01 16:20:31  5-MIN KSTC 092220Z AUTO 19006KT 10SM CLR 12/M01 A2996 990 39 900 180/06 RMK AO2
14926KSTC STC20011109162509811/09/01 16:25:31  5-MIN KSTC 092225Z AUTO 18006KT 10SM CLR 12/M01 A2996 990 41 900 180/06 RMK AO2
14926KSTC STC20011109163009811/09/01 16:30:31  5-MIN KSTC 092230Z AUTO 19006KT 10SM CLR 12/M01 A2996 990 41 900 180/06 RMK AO2
14926KSTC STC20011109163509911/09/01 16:35:31  5-MIN KSTC 092235Z AUTO 19006KT 10SM CLR 11/M01 A2995 1000 42 800 180/06 RMK AO2
14926KSTC STC20011109164009911/09/01 16:40:31  5-MIN KSTC 092240Z AUTO 18005KT 10SM CLR 11/M01 A2995 1000 42 800 180/05 RMK AO2
14926KSTC STC20011109164509911/09/01 16:45:31  5-MIN KSTC 092245Z AUTO 18005KT 10SM CLR 11/M01 A2995 1000 44 700 170/05 RMK AO2
14926KSTC STC20011109165011611/09/01 16:50:31  5-MIN KSTC 092250Z AUTO 17005KT 10SM CLR 10/M01 A2995 1000 46 700 170/05 RMK AO2 SLP158 T01001011
14926KSTC STC20011109165509911/09/01 16:55:31  5-MIN KSTC 092255Z AUTO 17005KT 10SM CLR 09/M02 A2995 1000 45 600 170/05 RMK AO2
14926KSTC STC20011109170009911/09/01 17:00:31  5-MIN KSTC 092300Z AUTO 17005KT 10SM CLR 09/M02 A2995 1000 45 600 170/05 RMK AO2
14926KSTC STC20011109170509911/09/01 17:05:31  5-MIN KSTC 092305Z AUTO 17006KT 10SM CLR 09/M02 A2995 1000 47 500 170/06 RMK AO2
14926KSTC STC20011109171009911/09/01 17:10:31  5-MIN KSTC 092310Z AUTO 17005KT 10SM CLR 09/M02 A2995 1000 45 600 170/05 RMK AO2
14926KSTC STC20011109171509911/09/01 17:15:31  5-MIN KSTC 092315Z AUTO 18005KT 10SM CLR 09/M02 A2994 1000 44 600 170/05 RMK AO2
14926KSTC STC20011109172009911/09/01 17:20:31  5-MIN KSTC 092320Z AUTO 18006KT 10SM CLR 09/M02 A2994 1010 45 600 180/06 RMK AO2
14926KSTC STC20011109172509911/09/01 17:25:31  5-MIN KSTC 092325Z AUTO 18006KT 10SM CLR 09/M02 A2994 1010 47 600 180/06 RMK AO2
14926KSTC STC20011109173009911/09/01 17:30:31  5-MIN KSTC 092330Z AUTO 18006KT 10SM CLR 08/M02 A2993 1020 49 500 170/06 RMK AO2
14926KSTC STC20011109173509911/09/01 17:35:31  5-MIN KSTC 092335Z AUTO 18006KT 10SM CLR 08/M02 A2993 1010 49 400 170/06 RMK AO2
14926KSTC STC20011109174009911/09/01 17:40:31  5-MIN KSTC 092340Z AUTO 18005KT 10SM CLR 07/M02 A2994 1010 53 400 180/05 RMK AO2
14926KSTC STC20011109174509911/09/01 17:45:31  5-MIN KSTC 092345Z AUTO 17005KT 10SM CLR 07/M02 A2994 1010 53 400 170/05 RMK AO2
14926KSTC STC20011109175013411/09/01 17:50:31  5-MIN KSTC 092350Z AUTO 17004KT 10SM CLR 09/M02 A2994 1010 45 600 170/04 RMK AO2 SLP156 T00891022 10139 20072 58025
14926KSTC STC20011109175509911/09/01 17:55:31  5-MIN KSTC 092355Z AUTO 17004KT 10SM CLR 09/M02 A2994 1010 45 600 160/04 RMK AO2
14926KSTC STC20011109180009911/09/01 18:00:31  5-MIN KSTC 100000Z AUTO 16005KT 10SM CLR 09/M02 A2994 1010 45 600 160/05 RMK AO2
14926KSTC STC20011109180509911/09/01 18:05:31  5-MIN KSTC 100005Z AUTO 17005KT 10SM CLR 08/M02 A2993 1020 49 400 170/05 RMK AO2
14926KSTC STC20011109181009911/09/01 18:10:31  5-MIN KSTC 100010Z AUTO 18004KT 10SM CLR 07/M02 A2993 1010 51 400 170/04 RMK AO2
14926KSTC STC20011109181509911/09/01 18:15:31  5-MIN KSTC 100015Z AUTO 17003KT 10SM CLR 07/M02 A2993 1010 51 400 170/03 RMK AO2
14926KSTC STC20011109182009911/09/01 18:20:31  5-MIN KSTC 100020Z AUTO 16004KT 10SM CLR 07/M02 A2993 1020 53 300 160/04 RMK AO2
14926KSTC STC20011109182509911/09/01 18:25:31  5-MIN KSTC 100025Z AUTO 17003KT 10SM CLR 07/M02 A2993 1020 55 300 170/03 RMK AO2
14926KSTC STC20011109183009911/09/01 18:30:31  5-MIN KSTC 100030Z AUTO 18003KT 10SM CLR 07/M02 A2993 1010 53 400 180/03 RMK AO2
14926KSTC STC20011109183509911/09/01 18:35:31  5-MIN KSTC 100035Z AUTO 19004KT 10SM CLR 07/M02 A2994 1010 51 400 190/04 RMK AO2
14926KSTC STC20011109184009911/09/01 18:40:31  5-MIN KSTC 100040Z AUTO 00000KT 10SM CLR 07/M02 A2994 1010 55 300 000/00 RMK AO2
14926KSTC STC20011109184509911/09/01 18:45:31  5-MIN KSTC 100045Z AUTO 00000KT 10SM CLR 07/M02 A2994 1010 51 400 000/00 RMK AO2
14926KSTC STC20011109185011611/09/01 18:50:31  5-MIN KSTC 100050Z AUTO 00000KT 10SM CLR 06/M02 A2994 1010 55 200 000/00 RMK AO2 SLP157 T00611022
14926KSTC STC20011109185509911/09/01 18:55:31  5-MIN KSTC 100055Z AUTO 20005KT 10SM CLR 07/M02 A2993 1020 53 300 200/05 RMK AO2
14926KSTC STC20011109190009911/09/01 19:00:31  5-MIN KSTC 100100Z AUTO 21004KT 10SM CLR 06/M02 A2993 1020 57 200 210/04 RMK AO2
14926KSTC STC20011109190509911/09/01 19:05:31  5-MIN KSTC 100105Z AUTO 20005KT 10SM CLR 05/M02 A2993 1020 62 100 200/05 RMK AO2
14926KSTC STC20011109191009911/09/01 19:10:31  5-MIN KSTC 100110Z AUTO 20007KT 10SM CLR 05/M02 A2992 1020 59 100 200/07 RMK AO2
14926KSTC STC20011109191509711/09/01 19:15:31  5-MIN KSTC 100115Z AUTO 20007KT 10SM CLR 04/M02 A2992 1030 64 0 200/07 RMK AO2
14926KSTC STC20011109192009711/09/01 19:20:31  5-MIN KSTC 100120Z AUTO 20008KT 10SM CLR 04/M02 A2992 1030 67 0 200/08 RMK AO2
14926KSTC STC20011109192509911/09/01 19:25:31  5-MIN KSTC 100125Z AUTO 20009KT 10SM CLR 06/M02 A2991 1030 59 200 200/09 RMK AO2
14926KSTC STC20011109193009911/09/01 19:30:31  5-MIN KSTC 100130Z AUTO 20009KT 10SM CLR 07/M02 A2991 1030 55 300 200/09 RMK AO2
14926KSTC STC20011109193509911/09/01 19:35:31  5-MIN KSTC 100135Z AUTO 21009KT 10SM CLR 07/M02 A2991 1030 53 300 200/09 RMK AO2
14926KSTC STC20011109194009911/09/01 19:40:31  5-MIN KSTC 100140Z AUTO 21008KT 10SM CLR 06/M02 A2991 1040 55 300 210/08 RMK AO2
14926KSTC STC20011109194509911/09/01 19:45:31  5-MIN KSTC 100145Z AUTO 21008KT 10SM CLR 06/M02 A2990 1040 57 200 210/08 RMK AO2
14926KSTC STC20011109195011611/09/01 19:50:31  5-MIN KSTC 100150Z AUTO 22008KT 10SM CLR 06/M02 A2991 1040 55 300 210/08 RMK AO2 SLP145 T00611022
14926KSTC STC20011109195509911/09/01 19:55:31  5-MIN KSTC 100155Z AUTO 22007KT 10SM CLR 06/M03 A2990 1040 53 300 220/07 RMK AO2
14926KSTC STC20011109200009911/09/01 20:00:31  5-MIN KSTC 100200Z AUTO 22007KT 10SM CLR 07/M03 A2990 1040 51 300 210/07 RMK AO2
14926KSTC STC20011109200509911/09/01 20:05:31  5-MIN KSTC 100205Z AUTO 22006KT 10SM CLR 06/M03 A2990 1040 53 300 220/06 RMK AO2
14926KSTC STC20011109201009911/09/01 20:10:31  5-MIN KSTC 100210Z AUTO 22005KT 10SM CLR 07/M03 A2990 1040 51 300 210/05 RMK AO2
14926KSTC STC20011109201509911/09/01 20:15:31  5-MIN KSTC 100215Z AUTO 21004KT 10SM CLR 07/M03 A2990 1040 51 300 210/04 RMK AO2
14926KSTC STC20011109202009911/09/01 20:20:31  5-MIN KSTC 100220Z AUTO 22004KT 10SM CLR 07/M03 A2990 1050 51 300 210/04 RMK AO2
14926KSTC STC20011109202509911/09/01 20:25:31  5-MIN KSTC 100225Z AUTO 22004KT 10SM CLR 07/M03 A2991 1040 49 400 220/04 RMK AO2
14926KSTC STC20011109203009911/09/01 20:30:31  5-MIN KSTC 100230Z AUTO 23005KT 10SM CLR 07/M02 A2991 1040 53 400 230/05 RMK AO2
14926KSTC STC20011109203509911/09/01 20:35:31  5-MIN KSTC 100235Z AUTO 28006KT 10SM CLR 07/M02 A2992 1030 55 300 270/06 RMK AO2
14926KSTC STC20011109204009711/09/01 20:40:31  5-MIN KSTC 100240Z AUTO 30006KT 10SM CLR 04/M03 A2992 1020 57 0 300/06 RMK AO2
14926KSTC STC20011109204509911/09/01 20:45:31  5-MIN KSTC 100245Z AUTO 29004KT 10SM CLR 06/M04 A2992 1030 50 200 280/04 RMK AO2
14926KSTC STC20011109205012211/09/01 20:50:31  5-MIN KSTC 100250Z AUTO 30004KT 10SM CLR 06/M04 A2992 1020 48 200 300/04 RMK AO2 SLP149 T00611039 58010
14926KSTC STC20011109205509911/09/01 20:55:31  5-MIN KSTC 100255Z AUTO 27006KT 10SM CLR 07/M04 A2992 1030 45 400 270/06 RMK AO2
14926KSTC STC20011109210009911/09/01 21:00:31  5-MIN KSTC 100300Z AUTO 25008KT 10SM CLR 07/M04 A2992 1030 45 400 250/08 RMK AO2
14926KSTC STC20011109210509911/09/01 21:05:31  5-MIN KSTC 100305Z AUTO 25008KT 10SM CLR 07/M04 A2992 1030 45 400 240/08 RMK AO2
14926KSTC STC20011109211009911/09/01 21:10:31  5-MIN KSTC 100310Z AUTO 25007KT 10SM CLR 07/M03 A2992 1030 47 400 250/07 RMK AO2
14926KSTC STC20011109211509911/09/01 21:15:31  5-MIN KSTC 100315Z AUTO 25007KT 10SM CLR 08/M04 A2992 1030 43 400 240/07 RMK AO2
14926KSTC STC20011109212009911/09/01 21:20:31  5-MIN KSTC 100320Z AUTO 24007KT 10SM CLR 07/M04 A2992 1030 45 400 240/07 RMK AO2
14926KSTC STC20011109212509911/09/01 21:25:31  5-MIN KSTC 100325Z AUTO 24006KT 10SM CLR 07/M03 A2992 1030 47 400 240/06 RMK AO2
14926KSTC STC20011109213009911/09/01 21:30:31  5-MIN KSTC 100330Z AUTO 24005KT 10SM CLR 08/M04 A2992 1030 43 400 240/05 RMK AO2
14926KSTC STC20011109213509911/09/01 21:35:31  5-MIN KSTC 100335Z AUTO 23006KT 10SM CLR 08/M04 A2991 1030 43 500 230/06 RMK AO2
14926KSTC STC20011109214009911/09/01 21:40:31  5-MIN KSTC 100340Z AUTO 24006KT 10SM CLR 07/M04 A2991 1030 47 300 230/06 RMK AO2
14926KSTC STC20011109214509911/09/01 21:45:31  5-MIN KSTC 100345Z AUTO 24007KT 10SM CLR 07/M04 A2991 1030 47 300 230/07 RMK AO2
14926KSTC STC20011109215011611/09/01 21:50:31  5-MIN KSTC 100350Z AUTO 23007KT 10SM CLR 07/M04 A2991 1030 47 300 230/07 RMK AO2 SLP144 T00671039
14926KSTC STC20011109215509911/09/01 21:55:31  5-MIN KSTC 100355Z AUTO 23007KT 10SM CLR 06/M04 A2991 1040 48 300 230/07 RMK AO2
14926KSTC STC20011109220009911/09/01 22:00:31  5-MIN KSTC 100400Z AUTO 23007KT 10SM CLR 06/M04 A2991 1040 48 300 230/07 RMK AO2
14926KSTC STC20011109220509911/09/01 22:05:31  5-MIN KSTC 100405Z AUTO 24006KT 10SM CLR 07/M04 A2991 1040 47 300 240/06 RMK AO2
14926KSTC STC20011109221009911/09/01 22:10:31  5-MIN KSTC 100410Z AUTO 24005KT 10SM CLR 07/M04 A2991 1030 45 400 240/05 RMK AO2
14926KSTC STC20011109221509911/09/01 22:15:31  5-MIN KSTC 100415Z AUTO 25005KT 10SM CLR 07/M04 A2991 1030 45 400 250/05 RMK AO2
14926KSTC STC20011109222009911/09/01 22:20:31  5-MIN KSTC 100420Z AUTO 24005KT 10SM CLR 08/M04 A2992 1030 41 400 240/05 RMK AO2
14926KSTC STC20011109222509911/09/01 22:25:31  5-MIN KSTC 100425Z AUTO 24005KT 10SM CLR 07/M04 A2991 1030 45 400 240/05 RMK AO2
14926KSTC STC20011109223009911/09/01 22:30:31  5-MIN KSTC 100430Z AUTO 24004KT 10SM CLR 07/M04 A2991 1030 47 300 240/04 RMK AO2
14926KSTC STC20011109223509911/09/01 22:35:31  5-MIN KSTC 100435Z AUTO 24006KT 10SM CLR 07/M04 A2991 1030 47 300 240/06 RMK AO2
14926KSTC STC20011109224009911/09/01 22:40:31  5-MIN KSTC 100440Z AUTO 26007KT 10SM CLR 08/M04 A2991 1030 43 500 260/07 RMK AO2
14926KSTC STC20011109224509911/09/01 22:45:31  5-MIN KSTC 100445Z AUTO 26006KT 10SM CLR 08/M04 A2991 1030 43 500 260/06 RMK AO2
14926KSTC STC20011109225011611/09/01 22:50:31  5-MIN KSTC 100450Z AUTO 26006KT 10SM CLR 08/M04 A2991 1030 43 500 250/06 RMK AO2 SLP144 T00781039
14926KSTC STC20011109225509911/09/01 22:55:31  5-MIN KSTC 100455Z AUTO 26006KT 10SM CLR 07/M04 A2992 1030 45 400 260/06 RMK AO2
14926KSTC STC20011109230009911/09/01 23:00:31  5-MIN KSTC 100500Z AUTO 26007KT 10SM CLR 07/M04 A2992 1030 45 400 260/07 RMK AO2
14926KSTC STC20011109230509911/09/01 23:05:31  5-MIN KSTC 100505Z AUTO 27008KT 10SM CLR 07/M04 A2992 1030 45 400 270/08 RMK AO2
14926KSTC STC20011109231009911/09/01 23:10:31  5-MIN KSTC 100510Z AUTO 26008KT 10SM CLR 07/M04 A2992 1030 45 400 260/08 RMK AO2
14926KSTC STC20011109231509911/09/01 23:15:31  5-MIN KSTC 100515Z AUTO 27008KT 10SM CLR 08/M04 A2992 1030 43 400 270/08 RMK AO2
14926KSTC STC20011109232009911/09/01 23:20:31  5-MIN KSTC 100520Z AUTO 27008KT 10SM CLR 08/M04 A2992 1020 43 400 270/08 RMK AO2
14926KSTC STC20011109232509911/09/01 23:25:31  5-MIN KSTC 100525Z AUTO 27009KT 10SM CLR 07/M03 A2992 1030 47 400 260/09 RMK AO2
14926KSTC STC20011109233009911/09/01 23:30:31  5-MIN KSTC 100530Z AUTO 28010KT 10SM CLR 08/M04 A2992 1030 43 400 270/10 RMK AO2
14926KSTC STC20011109233509911/09/01 23:35:31  5-MIN KSTC 100535Z AUTO 28010KT 10SM CLR 09/M04 A2992 1030 40 600 280/10 RMK AO2
14926KSTC STC20011109234009911/09/01 23:40:31  5-MIN KSTC 100540Z AUTO 28009KT 10SM CLR 08/M03 A2992 1030 43 500 280/09 RMK AO2
14926KSTC STC20011109234509911/09/01 23:45:31  5-MIN KSTC 100545Z AUTO 28008KT 10SM CLR 08/M03 A2992 1030 43 500 280/08 RMK AO2
14926KSTC STC20011109235014411/09/01 23:50:31  5-MIN KSTC 100550Z AUTO 29008KT 10SM CLR 08/M03 A2992 1020 43 500 290/08 RMK AO2 SLP146 T00831033 10089 20039 401391017 55006
14926KSTC STC20011109235509911/09/01 23:55:31  5-MIN KSTC 100555Z AUTO 29009KT 10SM CLR 08/M03 A2992 1020 43 500 290/09 RMK AO2
14926KSTC STC20011110000009911/10/01 00:00:31  5-MIN KSTC 100600Z AUTO 30009KT 10SM CLR 08/M03 A2993 1020 45 400 290/09 RMK AO2
14926KSTC STC20011110000509911/10/01 00:05:31  5-MIN KSTC 100605Z AUTO 30009KT 10SM CLR 08/M03 A2993 1020 45 400 300/09 RMK AO2
14926KSTC STC20011110001009911/10/01 00:10:31  5-MIN KSTC 100610Z AUTO 30009KT 10SM CLR 08/M03 A2993 1020 45 400 290/09 RMK AO2
14926KSTC STC20011110001509911/10/01 00:15:31  5-MIN KSTC 100615Z AUTO 30008KT 10SM CLR 08/M03 A2993 1020 45 400 290/08 RMK AO2
14926KSTC STC20011110002009911/10/01 00:20:31  5-MIN KSTC 100620Z AUTO 29007KT 10SM CLR 07/M03 A2993 1020 47 400 290/07 RMK AO2
14926KSTC STC20011110002509911/10/01 00:25:31  5-MIN KSTC 100625Z AUTO 30007KT 10SM CLR 07/M03 A2993 1020 49 300 290/07 RMK AO2
14926KSTC STC20011110003009911/10/01 00:30:31  5-MIN KSTC 100630Z AUTO 31007KT 10SM CLR 06/M03 A2993 1010 51 200 310/07 RMK AO2
14926KSTC STC20011110003509911/10/01 00:35:31  5-MIN KSTC 100635Z AUTO 31008KT 10SM CLR 06/M03 A2993 1020 51 200 300/08 RMK AO2
14926KSTC STC20011110004009911/10/01 00:40:31  5-MIN KSTC 100640Z AUTO 30008KT 10SM CLR 06/M03 A2993 1010 51 200 300/08 RMK AO2
14926KSTC STC20011110004509911/10/01 00:45:31  5-MIN KSTC 100645Z AUTO 30009KT 10SM CLR 06/M03 A2993 1020 53 200 300/09 RMK AO2
14926KSTC STC20011110005011611/10/01 00:50:31  5-MIN KSTC 100650Z AUTO 31009KT 10SM CLR 06/M03 A2993 1020 53 200 300/09 RMK AO2 SLP150 T00561033
14926KSTC STC20011110005509911/10/01 00:55:31  5-MIN KSTC 100655Z AUTO 31008KT 10SM CLR 06/M03 A2993 1010 53 200 300/08 RMK AO2
14926KSTC STC20011110010009911/10/01 01:00:31  5-MIN KSTC 100700Z AUTO 30009KT 10SM CLR 06/M03 A2993 1010 53 200 300/09 RMK AO2
14926KSTC STC20011110010509911/10/01 01:05:31  5-MIN KSTC 100705Z AUTO 30009KT 10SM CLR 05/M03 A2994 1010 55 100 300/09 RMK AO2
14926KSTC STC20011110011009711/10/01 01:10:31  5-MIN KSTC 100710Z AUTO 30009KT 10SM CLR 04/M03 A2994 1010 57 0 300/09 RMK AO2
14926KSTC STC20011110011509911/10/01 01:15:31  5-MIN KSTC 100715Z AUTO 30008KT 10SM CLR 05/M03 A2994 1010 57 100 290/08 RMK AO2
14926KSTC STC20011110012009911/10/01 01:20:31  5-MIN KSTC 100720Z AUTO 30008KT 10SM CLR 05/M03 A2994 1010 57 100 290/08 RMK AO2
14926KSTC STC20011110012509911/10/01 01:25:31  5-MIN KSTC 100725Z AUTO 30008KT 10SM CLR 05/M03 A2994 1000 57 100 290/08 RMK AO2
14926KSTC STC20011110013009911/10/01 01:30:31  5-MIN KSTC 100730Z AUTO 30008KT 10SM CLR 06/M03 A2994 1010 55 100 290/08 RMK AO2
14926KSTC STC20011110013509911/10/01 01:35:31  5-MIN KSTC 100735Z AUTO 30008KT 10SM CLR 05/M03 A2994 1000 57 100 290/08 RMK AO2
14926KSTC STC20011110014009911/10/01 01:40:31  5-MIN KSTC 100740Z AUTO 30009KT 10SM CLR 06/M03 A2995 1000 55 100 300/09 RMK AO2
14926KSTC STC20011110014509911/10/01 01:45:31  5-MIN KSTC 100745Z AUTO 30008KT 10SM CLR 06/M03 A2995 1000 55 100 300/08 RMK AO2
14926KSTC STC20011110015011611/10/01 01:50:31  5-MIN KSTC 100750Z AUTO 30009KT 10SM CLR 05/M03 A2995 1000 57 100 300/09 RMK AO2 SLP157 T00501028
14926KSTC STC20011110015509911/10/01 01:55:31  5-MIN KSTC 100755Z AUTO 30008KT 10SM CLR 05/M03 A2995 1000 57 100 300/08 RMK AO2
14926KSTC STC20011110020009811/10/01 02:00:31  5-MIN KSTC 100800Z AUTO 30009KT 10SM CLR 05/M03 A2996 990 57 100 300/09 RMK AO2
14926KSTC STC20011110020509611/10/01 02:05:31  5-MIN KSTC 100805Z AUTO 31009KT 10SM CLR 04/M03 A2996 990 59 0 300/09 RMK AO2
14926KSTC STC20011110021009611/10/01 02:10:31  5-MIN KSTC 100810Z AUTO 31008KT 10SM CLR 04/M03 A2996 990 62 0 300/08 RMK AO2
14926KSTC STC20011110021509611/10/01 02:15:31  5-MIN KSTC 100815Z AUTO 31008KT 10SM CLR 04/M03 A2997 980 62 0 300/08 RMK AO2
14926KSTC STC20011110022009611/10/01 02:20:31  5-MIN KSTC 100820Z AUTO 30009KT 10SM CLR 04/M03 A2997 980 62 0 300/09 RMK AO2
14926KSTC STC20011110022509911/10/01 02:25:31  5-MIN KSTC 100825Z AUTO 30010KT 10SM CLR 03/M03 A2997 980 67 -200 300/10 RMK AO2
14926KSTC STC20011110023009911/10/01 02:30:31  5-MIN KSTC 100830Z AUTO 31010KT 10SM CLR 03/M03 A2997 980 67 -200 300/10 RMK AO2
14926KSTC STC20011110023509611/10/01 02:35:31  5-MIN KSTC 100835Z AUTO 31010KT 10SM CLR 04/M03 A2997 980 62 0 310/10 RMK AO2
14926KSTC STC20011110024009611/10/01 02:40:31  5-MIN KSTC 100840Z AUTO 31010KT 10SM CLR 04/M03 A2998 980 59 0 310/10 RMK AO2
14926KSTC STC20011110024509611/10/01 02:45:31  5-MIN KSTC 100845Z AUTO 31010KT 10SM CLR 05/M02 A2998 970 59 0 310/10 RMK AO2
14926KSTC STC20011110025011911/10/01 02:50:31  5-MIN KSTC 100850Z AUTO 32010KT 10SM CLR 04/M02 A2998 970 62 0 310/10 RMK AO2 SLP166 T00441022 53000
14926KSTC STC20011110025509611/10/01 02:55:31  5-MIN KSTC 100855Z AUTO 32011KT 10SM CLR 05/M02 A2998 970 59 0 310/11 RMK AO2
14926KSTC STC20011110030009611/10/01 03:00:31  5-MIN KSTC 100900Z AUTO 32010KT 10SM CLR 05/M02 A2999 970 59 0 310/10 RMK AO2
14926KSTC STC20011110030509611/10/01 03:05:31  5-MIN KSTC 100905Z AUTO 32010KT 10SM CLR 05/M02 A2999 960 59 0 310/10 RMK AO2
14926KSTC STC20011110031009611/10/01 03:10:31  5-MIN KSTC 100910Z AUTO 32010KT 10SM CLR 05/M02 A2999 960 59 0 310/10 RMK AO2
14926KSTC STC20011110031509611/10/01 03:15:31  5-MIN KSTC 100915Z AUTO 32010KT 10SM CLR 05/M02 A2999 960 59 0 310/10 RMK AO2
14926KSTC STC20011110032009811/10/01 03:20:31  5-MIN KSTC 100920Z AUTO 32010KT 10SM CLR 06/M02 A2999 960 57 100 320/10 RMK AO2
14926KSTC STC20011110032509811/10/01 03:25:31  5-MIN KSTC 100925Z AUTO 32010KT 10SM CLR 06/M02 A2999 960 55 200 320/10 RMK AO2
14926KSTC STC20011110033009811/10/01 03:30:31  5-MIN KSTC 100930Z AUTO 32010KT 10SM CLR 06/M02 A2999 960 57 100 310/10 RMK AO2
14926KSTC STC20011110033509611/10/01 03:35:31  5-MIN KSTC 100935Z AUTO 31010KT 10SM CLR 05/M02 A3000 960 59 0 310/10 RMK AO2
14926KSTC STC20011110034009611/10/01 03:40:31  5-MIN KSTC 100940Z AUTO 31010KT 10SM CLR 04/M02 A3000 950 62 0 310/10 RMK AO2
14926KSTC STC20011110034509611/10/01 03:45:31  5-MIN KSTC 100945Z AUTO 32010KT 10SM CLR 05/M02 A3000 950 59 0 310/10 RMK AO2
14926KSTC STC20011110035011511/10/01 03:50:31  5-MIN KSTC 100950Z AUTO 32011KT 10SM CLR 06/M02 A3000 950 57 100 310/11 RMK AO2 SLP172 T00561022
14926KSTC STC20011110035509811/10/01 03:55:31  5-MIN KSTC 100955Z AUTO 32011KT 10SM CLR 06/M02 A3000 950 57 100 310/11 RMK AO2
14926KSTC STC20011110040009811/10/01 04:00:31  5-MIN KSTC 101000Z AUTO 32011KT 10SM CLR 06/M02 A3001 950 57 100 310/11 RMK AO2
14926KSTC STC20011110040509611/10/01 04:05:31  5-MIN KSTC 101005Z AUTO 31011KT 10SM CLR 05/M02 A3001 940 59 0 310/11 RMK AO2
14926KSTC STC20011110041009611/10/01 04:10:31  5-MIN KSTC 101010Z AUTO 31011KT 10SM CLR 05/M02 A3001 940 59 0 310/11 RMK AO2
14926KSTC STC20011110041509611/10/01 04:15:31  5-MIN KSTC 101015Z AUTO 31010KT 10SM CLR 05/M02 A3001 940 59 0 310/10 RMK AO2
14926KSTC STC20011110042009611/10/01 04:20:31  5-MIN KSTC 101020Z AUTO 31010KT 10SM CLR 05/M02 A3002 940 59 0 310/10 RMK AO2
14926KSTC STC20011110042509611/10/01 04:25:31  5-MIN KSTC 101025Z AUTO 31010KT 10SM CLR 04/M02 A3002 940 62 0 310/10 RMK AO2
14926KSTC STC20011110043009611/10/01 04:30:31  5-MIN KSTC 101030Z AUTO 31010KT 10SM CLR 04/M02 A3002 930 62 0 310/10 RMK AO2
14926KSTC STC20011110043509611/10/01 04:35:31  5-MIN KSTC 101035Z AUTO 31011KT 10SM CLR 04/M02 A3002 930 62 0 310/11 RMK AO2
14926KSTC STC20011110044009611/10/01 04:40:31  5-MIN KSTC 101040Z AUTO 31011KT 10SM CLR 04/M02 A3003 920 62 0 310/11 RMK AO2
14926KSTC STC20011110044509611/10/01 04:45:31  5-MIN KSTC 101045Z AUTO 32011KT 10SM CLR 04/M02 A3003 920 62 0 310/11 RMK AO2
14926KSTC STC20011110045011311/10/01 04:50:31  5-MIN KSTC 101050Z AUTO 31011KT 10SM CLR 04/M02 A3004 920 62 0 310/11 RMK AO2 SLP187 T00441022
14926KSTC STC20011110045509611/10/01 04:55:31  5-MIN KSTC 101055Z AUTO 31012KT 10SM CLR 04/M02 A3004 920 62 0 310/12 RMK AO2
14926KSTC STC20011110050009911/10/01 05:00:31  5-MIN KSTC 101100Z AUTO 32011KT 10SM CLR 04/M02 A3004 920 62 -100 310/11 RMK AO2
14926KSTC STC20011110050509911/10/01 05:05:31  5-MIN KSTC 101105Z AUTO 32011KT 10SM CLR 04/M02 A3004 910 62 -100 320/11 RMK AO2
14926KSTC STC20011110051009911/10/01 05:10:31  5-MIN KSTC 101110Z AUTO 32010KT 10SM CLR 04/M02 A3004 910 64 -100 310/10 RMK AO2
14926KSTC STC20011110051509911/10/01 05:15:31  5-MIN KSTC 101115Z AUTO 32011KT 10SM CLR 04/M02 A3004 910 64 -100 310/11 RMK AO2
14926KSTC STC20011110052009911/10/01 05:20:31  5-MIN KSTC 101120Z AUTO 32011KT 10SM CLR 04/M02 A3005 910 67 -100 310/11 RMK AO2
14926KSTC STC20011110052509911/10/01 05:25:31  5-MIN KSTC 101125Z AUTO 32009KT 10SM CLR 04/M02 A3005 910 67 -100 320/09 RMK AO2
14926KSTC STC20011110053009911/10/01 05:30:31  5-MIN KSTC 101130Z AUTO 32010KT 10SM CLR 04/M02 A3005 900 67 -100 310/10 RMK AO2
14926KSTC STC20011110053509911/10/01 05:35:31  5-MIN KSTC 101135Z AUTO 32010KT 10SM CLR 04/M02 A3005 900 67 -100 320/10 RMK AO2
14926KSTC STC20011110054009911/10/01 05:40:31  5-MIN KSTC 101140Z AUTO 32010KT 10SM CLR 04/M02 A3006 900 67 -100 320/10 RMK AO2
14926KSTC STC20011110054509911/10/01 05:45:31  5-MIN KSTC 101145Z AUTO 32010KT 10SM CLR 04/M02 A3006 900 67 -100 320/10 RMK AO2
14926KSTC STC20011110055013411/10/01 05:50:31  5-MIN KSTC 101150Z AUTO 32010KT 10SM CLR 03/M02 A3007 890 70 -200 310/10 RMK AO2 SLP198 T00331017 10083 20028 53019
14926KSTC STC20011110055509911/10/01 05:55:31  5-MIN KSTC 101155Z AUTO 32010KT 10SM CLR 03/M02 A3007 890 70 -200 310/10 RMK AO2
14926KSTC STC20011110060009911/10/01 06:00:31  5-MIN KSTC 101200Z AUTO 32009KT 10SM CLR 03/M02 A3007 890 70 -200 310/09 RMK AO2
14926KSTC STC20011110060509911/10/01 06:05:31  5-MIN KSTC 101205Z AUTO 32009KT 10SM CLR 03/M02 A3007 890 72 -300 310/09 RMK AO2
14926KSTC STC20011110061009911/10/01 06:10:31  5-MIN KSTC 101210Z AUTO 32010KT 10SM CLR 03/M01 A3007 890 75 -300 310/10 RMK AO2
14926KSTC STC20011110061509911/10/01 06:15:31  5-MIN KSTC 101215Z AUTO 32009KT 10SM CLR 03/M01 A3007 890 75 -300 310/09 RMK AO2
14926KSTC STC20011110062009911/10/01 06:20:31  5-MIN KSTC 101220Z AUTO 32010KT 10SM CLR 02/M01 A3008 880 78 -400 310/10 RMK AO2
14926KSTC STC20011110062509911/10/01 06:25:31  5-MIN KSTC 101225Z AUTO 31010KT 10SM CLR 02/M01 A3008 880 78 -400 310/10 RMK AO2
14926KSTC STC20011110063009911/10/01 06:30:31  5-MIN KSTC 101230Z AUTO 31010KT 10SM CLR 02/M01 A3008 880 78 -400 310/10 RMK AO2
14926KSTC STC20011110063509911/10/01 06:35:31  5-MIN KSTC 101235Z AUTO 32010KT 10SM CLR 02/M01 A3008 870 78 -400 310/10 RMK AO2
14926KSTC STC20011110064009911/10/01 06:40:31  5-MIN KSTC 101240Z AUTO 32009KT 10SM CLR 02/M01 A3009 870 78 -400 320/09 RMK AO2
14926KSTC STC20011110064509911/10/01 06:45:31  5-MIN KSTC 101245Z AUTO 32009KT 10SM CLR 02/M01 A3009 870 78 -400 310/09 RMK AO2
14926KSTC STC20011110065011611/10/01 06:50:31  5-MIN KSTC 101250Z AUTO 32009KT 10SM CLR 02/M01 A3009 870 78 -400 320/09 RMK AO2 SLP206 T00221011
14926KSTC STC20011110065509911/10/01 06:55:31  5-MIN KSTC 101255Z AUTO 32009KT 10SM CLR 03/M01 A3008 870 75 -300 320/09 RMK AO2
14926KSTC STC20011110070009911/10/01 07:00:31  5-MIN KSTC 101300Z AUTO 32009KT 10SM CLR 03/M01 A3009 870 75 -300 320/09 RMK AO2
14926KSTC STC20011110070509911/10/01 07:05:31  5-MIN KSTC 101305Z AUTO 32008KT 10SM CLR 02/M01 A3009 870 78 -400 310/08 RMK AO2
14926KSTC STC20011110071009911/10/01 07:10:31  5-MIN KSTC 101310Z AUTO 32008KT 10SM CLR 02/M01 A3009 870 82 -500 320/08 RMK AO2
14926KSTC STC20011110071509911/10/01 07:15:31  5-MIN KSTC 101315Z AUTO 32008KT 10SM CLR 02/M01 A3010 860 82 -500 320/08 RMK AO2
14926KSTC STC20011110072009911/10/01 07:20:31  5-MIN KSTC 101320Z AUTO 32008KT 10SM CLR 02/M01 A3010 860 82 -500 320/08 RMK AO2
14926KSTC STC20011110072509911/10/01 07:25:31  5-MIN KSTC 101325Z AUTO 32010KT 10SM CLR 02/M01 A3011 850 82 -500 310/10 RMK AO2
14926KSTC STC20011110073009911/10/01 07:30:31  5-MIN KSTC 101330Z AUTO 32009KT 10SM CLR 02/M01 A3011 850 82 -500 320/09 RMK AO2
14926KSTC STC20011110073509911/10/01 07:35:31  5-MIN KSTC 101335Z AUTO 32009KT 10SM CLR 02/M01 A3011 850 78 -400 320/09 RMK AO2
14926KSTC STC20011110074009911/10/01 07:40:31  5-MIN KSTC 101340Z AUTO 32009KT 10SM CLR 03/M01 A3012 840 75 -300 320/09 RMK AO2
14926KSTC STC20011110074509911/10/01 07:45:31  5-MIN KSTC 101345Z AUTO 33009KT 10SM CLR 03/M01 A3013 840 79 -400 330/09 RMK AO2
14926KSTC STC20011110075011611/10/01 07:50:31  5-MIN KSTC 101350Z AUTO 33008KT 10SM CLR 03/M01 A3013 830 79 -400 330/08 RMK AO2 SLP220 T00281006
14926KSTC STC20011110075509911/10/01 07:55:31  5-MIN KSTC 101355Z AUTO 33008KT 10SM CLR 03/M01 A3013 830 79 -400 330/08 RMK AO2
14926KSTC STC20011110080009911/10/01 08:00:31  5-MIN KSTC 101400Z AUTO 33009KT 10SM CLR 03/M01 A3013 830 76 -300 330/09 RMK AO2
14926KSTC STC20011110080509911/10/01 08:05:31  5-MIN KSTC 101405Z AUTO 34007KT 10SM CLR 03/M01 A3013 830 76 -300 330/07 RMK AO2
14926KSTC STC20011110081009911/10/01 08:10:31  5-MIN KSTC 101410Z AUTO 33007KT 10SM CLR 03/M01 A3014 830 76 -300 330/07 RMK AO2
14926KSTC STC20011110081509911/10/01 08:15:31  5-MIN KSTC 101415Z AUTO 33007KT 10SM CLR 03/M01 A3014 820 76 -300 330/07 RMK AO2
14926KSTC STC20011110082009911/10/01 08:20:31  5-MIN KSTC 101420Z AUTO 33007KT 10SM CLR 03/M01 A3014 820 76 -300 330/07 RMK AO2
14926KSTC STC20011110082509911/10/01 08:25:31  5-MIN KSTC 101425Z AUTO 33009KT 10SM CLR 04/M01 A3014 820 73 -200 330/09 RMK AO2
14926KSTC STC20011110083009911/10/01 08:30:31  5-MIN KSTC 101430Z AUTO 33008KT 10SM CLR 04/M01 A3015 820 73 -200 330/08 RMK AO2
14926KSTC STC20011110083509911/10/01 08:35:31  5-MIN KSTC 101435Z AUTO 33008KT 10SM CLR 04/M01 A3015 810 73 -200 330/08 RMK AO2
14926KSTC STC20011110084009811/10/01 08:40:31  5-MIN KSTC 101440Z AUTO 33008KT 10SM CLR 04/00 A3015 810 73 -200 330/08 RMK AO2
14926KSTC STC20011110084509811/10/01 08:45:31  5-MIN KSTC 101445Z AUTO 35009KT 10SM CLR 04/00 A3015 810 73 -200 350/09 RMK AO2
14926KSTC STC20011110085012711/10/01 08:50:31  5-MIN KSTC 101450Z AUTO 34009G16KT 10SM CLR 05/00 A3015 820 70 -100 340/09G16 RMK AO2 SLP226 T00500000 53028
14926KSTC STC20011110085512011/10/01 08:55:31  5-MIN KSTC 101455Z AUTO 35010G16KT 310V020 10SM CLR 05/00 A3015 810 70 -100 340/10G16 310V020 RMK AO2
14926KSTC STC20011110090009811/10/01 09:00:31  5-MIN KSTC 101500Z AUTO 35011KT 10SM CLR 05/00 A3015 810 70 -100 350/11 RMK AO2
14926KSTC STC20011110090510111/10/01 09:05:31  5-MIN KSTC 101505Z AUTO 35010G17KT 10SM CLR 06/00 A3016 810 67 0 350/10G17 RMK AO2
14926KSTC STC20011110091010411/10/01 09:10:31  5-MIN KSTC 101510Z AUTO 34012G17KT 10SM CLR 06/00 A3016 800 67 -100 340/12G17 RMK AO2
14926KSTC STC20011110091509811/10/01 09:15:31  5-MIN KSTC 101515Z AUTO 35011KT 10SM CLR 06/00 A3016 800 67 -100 340/11 RMK AO2
14926KSTC STC20011110092009511/10/01 09:20:31  5-MIN KSTC 101520Z AUTO 35012KT 10SM CLR 06/00 A3016 800 65 0 350/12 RMK AO2
14926KSTC STC20011110092509811/10/01 09:25:31  5-MIN KSTC 101525Z AUTO 35010KT 10SM CLR 06/00 A3017 800 67 -100 340/10 RMK AO2
14926KSTC STC20011110093009511/10/01 09:30:31  5-MIN KSTC 101530Z AUTO 35012KT 10SM CLR 06/00 A3017 800 65 0 350/12 RMK AO2
14926KSTC STC20011110093509511/10/01 09:35:31  5-MIN KSTC 101535Z AUTO 36009KT 10SM CLR 06/00 A3017 790 65 0 360/09 RMK AO2
14926KSTC STC20011110094009511/10/01 09:40:31  5-MIN KSTC 101540Z AUTO 35011KT 10SM CLR 07/01 A3017 790 65 0 350/11 RMK AO2
14926KSTC STC20011110094509511/10/01 09:45:31  5-MIN KSTC 101545Z AUTO 34011KT 10SM CLR 07/00 A3018 790 62 0 340/11 RMK AO2
14926KSTC STC20011110095011211/10/01 09:50:31  5-MIN KSTC 101550Z AUTO 35011KT 10SM CLR 07/01 A3018 790 65 0 350/11 RMK AO2 SLP235 T00670006
14926KSTC STC20011110095509711/10/01 09:55:31  5-MIN KSTC 101555Z AUTO 36011KT 10SM CLR 07/01 A3018 790 62 100 350/11 RMK AO2
14926KSTC STC20011110100009711/10/01 10:00:31  5-MIN KSTC 101600Z AUTO 36010KT 10SM CLR 07/01 A3018 790 62 100 350/10 RMK AO2
14926KSTC STC20011110100509711/10/01 10:05:31  5-MIN KSTC 101605Z AUTO 35010KT 10SM CLR 07/01 A3018 790 62 100 340/10 RMK AO2
14926KSTC STC20011110101009711/10/01 10:10:31  5-MIN KSTC 101610Z AUTO 36010KT 10SM CLR 07/01 A3017 790 62 100 360/10 RMK AO2
14926KSTC STC20011110101509711/10/01 10:15:31  5-MIN KSTC 101615Z AUTO 35009KT 10SM CLR 08/01 A3018 790 60 200 340/09 RMK AO2
14926KSTC STC20011110102009711/10/01 10:20:31  5-MIN KSTC 101620Z AUTO 35010KT 10SM CLR 08/01 A3018 790 60 200 350/10 RMK AO2
14926KSTC STC20011110102509711/10/01 10:25:31  5-MIN KSTC 101625Z AUTO 36008KT 10SM CLR 08/01 A3018 790 58 200 350/08 RMK AO2
14926KSTC STC20011110103009711/10/01 10:30:31  5-MIN KSTC 101630Z AUTO 35009KT 10SM CLR 08/01 A3019 780 58 200 340/09 RMK AO2
14926KSTC STC20011110103509711/10/01 10:35:31  5-MIN KSTC 101635Z AUTO 34010KT 10SM CLR 08/01 A3019 780 58 200 340/10 RMK AO2
14926KSTC STC20011110104009711/10/01 10:40:31  5-MIN KSTC 101640Z AUTO 35008KT 10SM CLR 08/01 A3019 780 58 200 340/08 RMK AO2
14926KSTC STC20011110104509711/10/01 10:45:31  5-MIN KSTC 101645Z AUTO 36009KT 10SM CLR 08/01 A3019 780 58 200 360/09 RMK AO2
14926KSTC STC20011110105011411/10/01 10:50:31  5-MIN KSTC 101650Z AUTO 34009KT 10SM CLR 09/01 A3019 770 56 300 340/09 RMK AO2 SLP239 T00890006
14926KSTC STC20011110105509711/10/01 10:55:31  5-MIN KSTC 101655Z AUTO 34008KT 10SM CLR 09/01 A3020 770 56 300 330/08 RMK AO2
14926KSTC STC20011110110009711/10/01 11:00:31  5-MIN KSTC 101700Z AUTO 36008KT 10SM CLR 09/01 A3020 770 53 300 360/08 RMK AO2
14926KSTC STC20011110110509711/10/01 11:05:31  5-MIN KSTC 101705Z AUTO 35011KT 10SM CLR 09/01 A3020 770 53 300 340/11 RMK AO2
14926KSTC STC20011110111009711/10/01 11:10:31  5-MIN KSTC 101710Z AUTO 35009KT 10SM CLR 09/01 A3020 770 53 300 350/09 RMK AO2
14926KSTC STC20011110111509711/10/01 11:15:31  5-MIN KSTC 101715Z AUTO 35009KT 10SM CLR 10/01 A3020 770 52 400 350/09 RMK AO2
14926KSTC STC20011110112009711/10/01 11:20:31  5-MIN KSTC 101720Z AUTO 35009KT 10SM CLR 09/01 A3020 770 53 300 340/09 RMK AO2
14926KSTC STC20011110112509711/10/01 11:25:31  5-MIN KSTC 101725Z AUTO 35009KT 10SM CLR 09/01 A3020 770 53 300 340/09 RMK AO2
14926KSTC STC20011110113009711/10/01 11:30:31  5-MIN KSTC 101730Z AUTO 33010KT 10SM CLR 11/01 A3020 770 52 500 330/10 RMK AO2
14926KSTC STC20011110113509711/10/01 11:35:31  5-MIN KSTC 101735Z AUTO 36009KT 10SM CLR 10/01 A3020 770 54 400 360/09 RMK AO2
14926KSTC STC20011110114009711/10/01 11:40:31  5-MIN KSTC 101740Z AUTO 01010KT 10SM CLR 11/01 A3020 770 52 500 010/10 RMK AO2
14926KSTC STC20011110114509711/10/01 11:45:31  5-MIN KSTC 101745Z AUTO 36009KT 10SM CLR 11/01 A3020 760 52 500 360/09 RMK AO2
14926KSTC STC20011110115013211/10/01 11:50:31  5-MIN KSTC 101750Z AUTO 01009KT 10SM CLR 11/01 A3021 760 52 500 360/09 RMK AO2 SLP242 T01060011 10106 20017 53027
14926KSTC STC20011110115509711/10/01 11:55:31  5-MIN KSTC 101755Z AUTO 35011KT 10SM CLR 11/01 A3020 770 52 500 340/11 RMK AO2
14926KSTC STC20011110120009711/10/01 12:00:31  5-MIN KSTC 101800Z AUTO 35010KT 10SM CLR 11/01 A3021 760 50 500 350/10 RMK AO2
14926KSTC STC20011110120509711/10/01 12:05:31  5-MIN KSTC 101805Z AUTO 36009KT 10SM CLR 11/01 A3021 760 50 500 350/09 RMK AO2
14926KSTC STC20011110121009711/10/01 12:10:31  5-MIN KSTC 101810Z AUTO 34011KT 10SM CLR 11/01 A3021 760 48 500 330/11 RMK AO2
14926KSTC STC20011110121509711/10/01 12:15:31  5-MIN KSTC 101815Z AUTO 01011KT 10SM CLR 11/01 A3021 760 48 500 360/11 RMK AO2
14926KSTC STC20011110122009711/10/01 12:20:31  5-MIN KSTC 101820Z AUTO 35009KT 10SM CLR 11/01 A3021 760 48 500 350/09 RMK AO2
14926KSTC STC20011110122509711/10/01 12:25:31  5-MIN KSTC 101825Z AUTO 36008KT 10SM CLR 11/01 A3021 760 48 500 360/08 RMK AO2
14926KSTC STC20011110123009711/10/01 12:30:31  5-MIN KSTC 101830Z AUTO 35012KT 10SM CLR 11/01 A3021 760 48 500 350/12 RMK AO2
14926KSTC STC20011110123509711/10/01 12:35:31  5-MIN KSTC 101835Z AUTO 34010KT 10SM CLR 11/01 A3021 760 48 500 340/10 RMK AO2
14926KSTC STC20011110124009711/10/01 12:40:31  5-MIN KSTC 101840Z AUTO 35011KT 10SM CLR 11/01 A3021 760 48 500 350/11 RMK AO2
14926KSTC STC20011110124509711/10/01 12:45:31  5-MIN KSTC 101845Z AUTO 34009KT 10SM CLR 11/01 A3021 760 48 500 330/09 RMK AO2
14926KSTC STC20011110125011411/10/01 12:50:31  5-MIN KSTC 101850Z AUTO 35008KT 10SM CLR 12/01 A3021 760 46 600 350/08 RMK AO2 SLP244 T01170006
14926KSTC STC20011110125509711/10/01 12:55:31  5-MIN KSTC 101855Z AUTO 36010KT 10SM CLR 12/01 A3021 760 46 600 360/10 RMK AO2
14926KSTC STC20011110130009711/10/01 13:00:31  5-MIN KSTC 101900Z AUTO 35011KT 10SM CLR 11/01 A3021 760 48 500 350/11 RMK AO2
14926KSTC STC20011110130509711/10/01 13:05:31  5-MIN KSTC 101905Z AUTO 33009KT 10SM CLR 11/01 A3021 760 48 500 330/09 RMK AO2
14926KSTC STC20011110131009711/10/01 13:10:31  5-MIN KSTC 101910Z AUTO 34009KT 10SM CLR 12/01 A3021 760 46 600 340/09 RMK AO2
14926KSTC STC20011110131509711/10/01 13:15:31  5-MIN KSTC 101915Z AUTO 33011KT 10SM CLR 12/01 A3021 760 46 600 330/11 RMK AO2
14926KSTC STC20011110132009711/10/01 13:20:31  5-MIN KSTC 101920Z AUTO 34012KT 10SM CLR 12/01 A3021 760 46 600 340/12 RMK AO2
14926KSTC STC20011110132509711/10/01 13:25:31  5-MIN KSTC 101925Z AUTO 35010KT 10SM CLR 12/00 A3021 760 44 600 350/10 RMK AO2
14926KSTC STC20011110133009711/10/01 13:30:31  5-MIN KSTC 101930Z AUTO 33010KT 10SM CLR 12/01 A3021 760 46 600 330/10 RMK AO2
14926KSTC STC20011110133509711/10/01 13:35:31  5-MIN KSTC 101935Z AUTO 35010KT 10SM CLR 12/01 A3021 760 44 700 350/10 RMK AO2
14926KSTC STC20011110134009711/10/01 13:40:31  5-MIN KSTC 101940Z AUTO 35009KT 10SM CLR 12/00 A3021 760 43 700 350/09 RMK AO2
14926KSTC STC20011110134509711/10/01 13:45:31  5-MIN KSTC 101945Z AUTO 34009KT 10SM CLR 12/01 A3021 760 46 600 340/09 RMK AO2
14926KSTC STC20011110135011411/10/01 13:50:31  5-MIN KSTC 101950Z AUTO 32008KT 10SM CLR 12/01 A3021 760 44 700 320/08 RMK AO2 SLP243 T01220006
14926KSTC STC20011110135509711/10/01 13:55:31  5-MIN KSTC 101955Z AUTO 32010KT 10SM CLR 12/01 A3021 760 44 700 320/10 RMK AO2
14926KSTC STC20011110140009711/10/01 14:00:31  5-MIN KSTC 102000Z AUTO 33009KT 10SM CLR 12/01 A3021 760 46 600 330/09 RMK AO2
14926KSTC STC20011110140509711/10/01 14:05:31  5-MIN KSTC 102005Z AUTO 35008KT 10SM CLR 12/01 A3021 760 44 700 340/08 RMK AO2
14926KSTC STC20011110141009711/10/01 14:10:31  5-MIN KSTC 102010Z AUTO 32009KT 10SM CLR 12/01 A3021 760 44 700 320/09 RMK AO2
14926KSTC STC20011110141509711/10/01 14:15:31  5-MIN KSTC 102015Z AUTO 33009KT 10SM CLR 12/01 A3021 760 44 600 320/09 RMK AO2
14926KSTC STC20011110142009711/10/01 14:20:31  5-MIN KSTC 102020Z AUTO 33007KT 10SM CLR 12/01 A3021 760 44 600 330/07 RMK AO2
14926KSTC STC20011110142509711/10/01 14:25:31  5-MIN KSTC 102025Z AUTO 32007KT 10SM CLR 12/01 A3021 760 46 600 320/07 RMK AO2
14926KSTC STC20011110143009711/10/01 14:30:31  5-MIN KSTC 102030Z AUTO 34008KT 10SM CLR 12/01 A3022 750 44 600 340/08 RMK AO2
14926KSTC STC20011110143509711/10/01 14:35:31  5-MIN KSTC 102035Z AUTO 34009KT 10SM CLR 12/01 A3022 750 44 600 340/09 RMK AO2
14926KSTC STC20011110144009711/10/01 14:40:31  5-MIN KSTC 102040Z AUTO 32009KT 10SM CLR 12/01 A3022 750 44 600 320/09 RMK AO2
14926KSTC STC20011110144509711/10/01 14:45:31  5-MIN KSTC 102045Z AUTO 34010KT 10SM CLR 12/01 A3022 750 46 600 340/10 RMK AO2
14926KSTC STC20011110145012011/10/01 14:50:31  5-MIN KSTC 102050Z AUTO 35010KT 10SM CLR 12/01 A3023 750 46 600 350/10 RMK AO2 SLP250 T01170006 51018
14926KSTC STC20011110145509711/10/01 14:55:31  5-MIN KSTC 102055Z AUTO 35010KT 10SM CLR 12/01 A3023 740 44 600 350/10 RMK AO2
14926KSTC STC20011110150009711/10/01 15:00:31  5-MIN KSTC 102100Z AUTO 36007KT 10SM CLR 12/01 A3023 740 44 600 350/07 RMK AO2
14926KSTC STC20011110150509711/10/01 15:05:31  5-MIN KSTC 102105Z AUTO 34009KT 10SM CLR 12/01 A3023 740 44 600 340/09 RMK AO2
14926KSTC STC20011110151009711/10/01 15:10:31  5-MIN KSTC 102110Z AUTO 33008KT 10SM CLR 12/01 A3023 740 44 600 330/08 RMK AO2
14926KSTC STC20011110151509711/10/01 15:15:31  5-MIN KSTC 102115Z AUTO 34006KT 10SM CLR 12/01 A3023 740 46 600 330/06 RMK AO2
14926KSTC STC20011110152009711/10/01 15:20:31  5-MIN KSTC 102120Z AUTO 34009KT 10SM CLR 12/01 A3023 740 46 600 340/09 RMK AO2
14926KSTC STC20011110152509711/10/01 15:25:31  5-MIN KSTC 102125Z AUTO 35009KT 10SM CLR 12/00 A3023 740 44 600 350/09 RMK AO2
14926KSTC STC20011110153009711/10/01 15:30:31  5-MIN KSTC 102130Z AUTO 35007KT 10SM CLR 11/00 A3023 740 46 500 340/07 RMK AO2
14926KSTC STC20011110153509711/10/01 15:35:31  5-MIN KSTC 102135Z AUTO 35008KT 10SM CLR 12/00 A3024 740 44 600 350/08 RMK AO2
14926KSTC STC20011110154009711/10/01 15:40:31  5-MIN KSTC 102140Z AUTO 01008KT 10SM CLR 11/00 A3024 740 46 500 360/08 RMK AO2
14926KSTC STC20011110154509711/10/01 15:45:31  5-MIN KSTC 102145Z AUTO 35006KT 10SM CLR 11/00 A3024 740 46 500 340/06 RMK AO2
14926KSTC STC20011110155011411/10/01 15:50:31  5-MIN KSTC 102150Z AUTO 35006KT 10SM CLR 11/00 A3024 740 46 500 350/06 RMK AO2 SLP253 T01110000
14926KSTC STC20011110155509711/10/01 15:55:31  5-MIN KSTC 102155Z AUTO 35008KT 10SM CLR 11/00 A3024 740 46 500 350/08 RMK AO2
14926KSTC STC20011110160009711/10/01 16:00:31  5-MIN KSTC 102200Z AUTO 01005KT 10SM CLR 11/00 A3023 740 46 500 010/05 RMK AO2
14926KSTC STC20011110160509711/10/01 16:05:31  5-MIN KSTC 102205Z AUTO 01007KT 10SM CLR 11/01 A3024 730 48 500 360/07 RMK AO2
14926KSTC STC20011110161009711/10/01 16:10:31  5-MIN KSTC 102210Z AUTO 01005KT 10SM CLR 11/01 A3024 730 50 400 360/05 RMK AO2
14926KSTC STC20011110161509711/10/01 16:15:31  5-MIN KSTC 102215Z AUTO 36006KT 10SM CLR 11/01 A3024 730 50 400 360/06 RMK AO2
14926KSTC STC20011110162009711/10/01 16:20:31  5-MIN KSTC 102220Z AUTO 36005KT 10SM CLR 11/01 A3024 730 50 400 360/05 RMK AO2
14926KSTC STC20011110162509711/10/01 16:25:31  5-MIN KSTC 102225Z AUTO 36005KT 10SM CLR 10/00 A3024 730 49 300 360/05 RMK AO2
14926KSTC STC20011110163009711/10/01 16:30:31  5-MIN KSTC 102230Z AUTO 36005KT 10SM CLR 10/00 A3024 730 49 300 360/05 RMK AO2
14926KSTC STC20011110163509711/10/01 16:35:31  5-MIN KSTC 102235Z AUTO 36005KT 10SM CLR 09/00 A3024 730 51 300 360/05 RMK AO2
14926KSTC STC20011110164009711/10/01 16:40:31  5-MIN KSTC 102240Z AUTO 36004KT 10SM CLR 09/00 A3024 730 53 200 360/04 RMK AO2
14926KSTC STC20011110164509711/10/01 16:45:31  5-MIN KSTC 102245Z AUTO 01004KT 10SM CLR 09/00 A3024 730 53 200 010/04 RMK AO2
14926KSTC STC20011110165011411/10/01 16:50:31  5-MIN KSTC 102250Z AUTO 02004KT 10SM CLR 08/00 A3024 730 55 100 010/04 RMK AO2 SLP257 T00830000
14926KSTC STC20011110165509711/10/01 16:55:31  5-MIN KSTC 102255Z AUTO 02004KT 10SM CLR 08/00 A3024 730 55 100 020/04 RMK AO2
14926KSTC STC20011110170009711/10/01 17:00:31  5-MIN KSTC 102300Z AUTO 02003KT 10SM CLR 08/00 A3025 730 55 100 020/03 RMK AO2
14926KSTC STC20011110170509711/10/01 17:05:31  5-MIN KSTC 102305Z AUTO 02003KT 10SM CLR 08/00 A3025 720 55 100 010/03 RMK AO2
14926KSTC STC20011110171009711/10/01 17:10:31  5-MIN KSTC 102310Z AUTO 02003KT 10SM CLR 08/00 A3025 720 55 100 020/03 RMK AO2
14926KSTC STC20011110171509711/10/01 17:15:31  5-MIN KSTC 102315Z AUTO 02003KT 10SM CLR 08/00 A3025 720 55 100 010/03 RMK AO2
14926KSTC STC20011110172009711/10/01 17:20:31  5-MIN KSTC 102320Z AUTO 01003KT 10SM CLR 08/00 A3025 720 58 100 360/03 RMK AO2
14926KSTC STC20011110172509511/10/01 17:25:31  5-MIN KSTC 102325Z AUTO 36004KT 10SM CLR 07/00 A3025 720 60 0 360/04 RMK AO2
14926KSTC STC20011110173009511/10/01 17:30:31  5-MIN KSTC 102330Z AUTO 35004KT 10SM CLR 07/00 A3025 720 62 0 350/04 RMK AO2
14926KSTC STC20011110173509511/10/01 17:35:31  5-MIN KSTC 102335Z AUTO 35004KT 10SM CLR 07/00 A3025 720 60 0 350/04 RMK AO2
14926KSTC STC20011110174009811/10/01 17:40:31  5-MIN KSTC 102340Z AUTO 36004KT 10SM CLR 06/00 A3026 720 65 -100 360/04 RMK AO2
14926KSTC STC20011110174509911/10/01 17:45:31  5-MIN KSTC 102345Z AUTO 36004KT 10SM CLR 06/M01 A3026 710 62 -100 360/04 RMK AO2
14926KSTC STC20011110175013311/10/01 17:50:31  5-MIN KSTC 102350Z AUTO 36003KT 10SM CLR 06/00 A3026 710 65 -100 360/03 RMK AO2 SLP264 T00610000 10122 20056 53007
14926KSTC STC20011110175509811/10/01 17:55:31  5-MIN KSTC 102355Z AUTO 01003KT 10SM CLR 06/00 A3026 710 67 -200 010/03 RMK AO2
14926KSTC STC20011110180009811/10/01 18:00:31  5-MIN KSTC 110000Z AUTO 02003KT 10SM CLR 06/00 A3026 720 67 -200 020/03 RMK AO2
14926KSTC STC20011110180509911/10/01 18:05:31  5-MIN KSTC 110005Z AUTO 00000KT 10SM CLR 04/M01 A3026 710 73 -400 000/00 RMK AO2
14926KSTC STC20011110181009811/10/01 18:10:31  5-MIN KSTC 110010Z AUTO 00000KT 10SM CLR 05/00 A3026 710 70 -200 000/00 RMK AO2
14926KSTC STC20011110181509911/10/01 18:15:31  5-MIN KSTC 110015Z AUTO 02003KT 10SM CLR 04/M01 A3026 710 70 -300 010/03 RMK AO2
14926KSTC STC20011110182009911/10/01 18:20:31  5-MIN KSTC 110020Z AUTO 02003KT 10SM CLR 04/M01 A3026 710 73 -400 020/03 RMK AO2
14926KSTC STC20011110182509911/10/01 18:25:31  5-MIN KSTC 110025Z AUTO 00000KT 10SM CLR 04/M01 A3027 710 73 -400 000/00 RMK AO2
14926KSTC STC20011110183009911/10/01 18:30:31  5-MIN KSTC 110030Z AUTO 00000KT 10SM CLR 04/M01 A3027 700 73 -400 000/00 RMK AO2
14926KSTC STC20011110183509911/10/01 18:35:31  5-MIN KSTC 110035Z AUTO 03003KT 10SM CLR 04/M01 A3028 700 73 -400 020/03 RMK AO2
14926KSTC STC20011110184009911/10/01 18:40:31  5-MIN KSTC 110040Z AUTO 02003KT 10SM CLR 04/M01 A3028 700 73 -400 020/03 RMK AO2
14926KSTC STC20011110184509911/10/01 18:45:31  5-MIN KSTC 110045Z AUTO 00000KT 10SM CLR 04/M01 A3028 700 73 -400 000/00 RMK AO2
14926KSTC STC20011110185011611/10/01 18:50:31  5-MIN KSTC 110050Z AUTO 00000KT 10SM CLR 04/M01 A3028 700 73 -400 000/00 RMK AO2 SLP272 T00391006
14926KSTC STC20011110185509911/10/01 18:55:31  5-MIN KSTC 110055Z AUTO 00000KT 10SM CLR 04/M01 A3027 700 73 -400 000/00 RMK AO2
14926KSTC STC20011110190009911/10/01 19:00:31  5-MIN KSTC 110100Z AUTO 05003KT 10SM CLR 04/M01 A3027 700 73 -400 050/03 RMK AO2
14926KSTC STC20011110190509811/10/01 19:05:31  5-MIN KSTC 110105Z AUTO 07003KT 10SM CLR 03/00 A3027 700 79 -500 060/03 RMK AO2
14926KSTC STC20011110191009911/10/01 19:10:31  5-MIN KSTC 110110Z AUTO 06003KT 10SM CLR 04/M01 A3027 700 73 -400 060/03 RMK AO2
14926KSTC STC20011110191509911/10/01 19:15:31  5-MIN KSTC 110115Z AUTO 07003KT 10SM CLR 03/M01 A3028 700 76 -500 060/03 RMK AO2
14926KSTC STC20011110192009911/10/01 19:20:31  5-MIN KSTC 110120Z AUTO 07004KT 10SM CLR 03/M01 A3028 700 79 -500 070/04 RMK AO2
14926KSTC STC20011111142509711/11/01 14:25:31  5-MIN KSTC 112025Z AUTO 19011KT 10SM CLR 13/00 A3024 740 40 800 190/11 RMK AO2
14926KSTC STC20011111143009711/11/01 14:30:31  5-MIN KSTC 112030Z AUTO 19012KT 10SM CLR 13/00 A3023 740 40 800 190/12 RMK AO2
14926KSTC STC20011111143509711/11/01 14:35:31  5-MIN KSTC 112035Z AUTO 19012KT 10SM CLR 13/00 A3023 740 40 800 190/12 RMK AO2
14926KSTC STC20011111144009711/11/01 14:40:31  5-MIN KSTC 112040Z AUTO 19012KT 10SM CLR 13/00 A3023 740 40 800 190/12 RMK AO2
14926KSTC STC20011111144509711/11/01 14:45:31  5-MIN KSTC 112045Z AUTO 18011KT 10SM CLR 13/00 A3023 740 40 800 180/11 RMK AO2
14926KSTC STC20011111145012011/11/01 14:50:31  5-MIN KSTC 112050Z AUTO 18011KT 10SM CLR 13/00 A3023 740 41 700 170/11 RMK AO2 SLP255 T01280000 58009
14926KSTC STC20011111145509711/11/01 14:55:31  5-MIN KSTC 112055Z AUTO 19012KT 10SM CLR 13/00 A3024 740 41 700 190/12 RMK AO2
14926KSTC STC20011111150009711/11/01 15:00:31  5-MIN KSTC 112100Z AUTO 18010KT 10SM CLR 13/00 A3023 740 41 700 180/10 RMK AO2
14926KSTC STC20011111150509711/11/01 15:05:31  5-MIN KSTC 112105Z AUTO 20013KT 10SM CLR 13/00 A3023 740 40 800 200/13 RMK AO2
14926KSTC STC20011111151009711/11/01 15:10:31  5-MIN KSTC 112110Z AUTO 19010KT 10SM CLR 13/01 A3023 740 41 800 180/10 RMK AO2
14926KSTC STC20011111151509711/11/01 15:15:31  5-MIN KSTC 112115Z AUTO 19011KT 10SM CLR 13/00 A3023 740 41 700 180/11 RMK AO2
14926KSTC STC20011111152009711/11/01 15:20:31  5-MIN KSTC 112120Z AUTO 18010KT 10SM CLR 13/00 A3023 740 41 700 180/10 RMK AO2
14926KSTC STC20011111152509711/11/01 15:25:31  5-MIN KSTC 112125Z AUTO 17009KT 10SM CLR 12/00 A3023 740 43 600 170/09 RMK AO2
14926KSTC STC20011111153009711/11/01 15:30:31  5-MIN KSTC 112130Z AUTO 18012KT 10SM CLR 12/00 A3023 740 43 600 180/12 RMK AO2
14926KSTC STC20011111153509711/11/01 15:35:31  5-MIN KSTC 112135Z AUTO 18009KT 10SM CLR 12/00 A3023 740 43 600 180/09 RMK AO2
14926KSTC STC20011111154009711/11/01 15:40:31  5-MIN KSTC 112140Z AUTO 17009KT 10SM CLR 12/00 A3023 740 43 600 170/09 RMK AO2
14926KSTC STC20011111154509711/11/01 15:45:31  5-MIN KSTC 112145Z AUTO 17007KT 10SM CLR 12/01 A3023 740 44 600 170/07 RMK AO2
14926KSTC STC20011111155011411/11/01 15:50:31  5-MIN KSTC 112150Z AUTO 16008KT 10SM CLR 12/01 A3023 740 44 600 150/08 RMK AO2 SLP254 T01220006
14926KSTC STC20011111155509711/11/01 15:55:31  5-MIN KSTC 112155Z AUTO 16008KT 10SM CLR 12/01 A3023 740 44 600 150/08 RMK AO2
14926KSTC STC20011111160009711/11/01 16:00:31  5-MIN KSTC 112200Z AUTO 16008KT 10SM CLR 12/01 A3023 740 46 600 160/08 RMK AO2
14926KSTC STC20011111160509711/11/01 16:05:31  5-MIN KSTC 112205Z AUTO 15007KT 10SM CLR 12/01 A3023 740 46 600 150/07 RMK AO2
14926KSTC STC20011111161009711/11/01 16:10:31  5-MIN KSTC 112210Z AUTO 15008KT 10SM CLR 11/01 A3023 740 48 500 150/08 RMK AO2
14926KSTC STC20011111161509711/11/01 16:15:31  5-MIN KSTC 112215Z AUTO 15007KT 10SM CLR 11/01 A3023 740 48 500 140/07 RMK AO2
14926KSTC STC20011111162009711/11/01 16:20:31  5-MIN KSTC 112220Z AUTO 14007KT 10SM CLR 11/01 A3022 750 50 400 140/07 RMK AO2
14926KSTC STC20011111162509711/11/01 16:25:31  5-MIN KSTC 112225Z AUTO 15007KT 10SM CLR 10/01 A3022 750 52 400 140/07 RMK AO2
14926KSTC STC20011111163009711/11/01 16:30:31  5-MIN KSTC 112230Z AUTO 14007KT 10SM CLR 10/01 A3023 750 52 400 140/07 RMK AO2
14926KSTC STC20011111163509711/11/01 16:35:31  5-MIN KSTC 112235Z AUTO 14006KT 10SM CLR 09/01 A3023 740 53 300 130/06 RMK AO2
14926KSTC STC20011111164009711/11/01 16:40:31  5-MIN KSTC 112240Z AUTO 14005KT 10SM CLR 09/00 A3023 740 51 300 140/05 RMK AO2
14926KSTC STC20011111164509711/11/01 16:45:31  5-MIN KSTC 112245Z AUTO 13006KT 10SM CLR 08/00 A3023 740 55 200 130/06 RMK AO2
14926KSTC STC20011111165011411/11/01 16:50:31  5-MIN KSTC 112250Z AUTO 13007KT 10SM CLR 10/01 A3023 740 52 400 130/07 RMK AO2 SLP255 T01000006
14926KSTC STC20011111165509711/11/01 16:55:31  5-MIN KSTC 112255Z AUTO 12006KT 10SM CLR 10/01 A3023 740 52 400 120/06 RMK AO2
14926KSTC STC20011111170009711/11/01 17:00:31  5-MIN KSTC 112300Z AUTO 13006KT 10SM CLR 09/01 A3023 740 53 300 120/06 RMK AO2
14926KSTC STC20011111170509711/11/01 17:05:31  5-MIN KSTC 112305Z AUTO 13006KT 10SM CLR 09/01 A3023 740 53 300 130/06 RMK AO2
14926KSTC STC20011111171009711/11/01 17:10:31  5-MIN KSTC 112310Z AUTO 13005KT 10SM CLR 09/01 A3023 740 53 300 130/05 RMK AO2
14926KSTC STC20011111171509711/11/01 17:15:31  5-MIN KSTC 112315Z AUTO 13005KT 10SM CLR 09/01 A3023 750 53 300 120/05 RMK AO2
14926KSTC STC20011111172009711/11/01 17:20:31  5-MIN KSTC 112320Z AUTO 13005KT 10SM CLR 09/01 A3023 740 56 200 130/05 RMK AO2
14926KSTC STC20011111172509511/11/01 17:25:31  5-MIN KSTC 112325Z AUTO 12005KT 10SM CLR 07/00 A3023 750 60 0 120/05 RMK AO2
14926KSTC STC20011111173009711/11/01 17:30:31  5-MIN KSTC 112330Z AUTO 12005KT 10SM CLR 08/00 A3023 740 55 200 120/05 RMK AO2
14926KSTC STC20011111173509711/11/01 17:35:31  5-MIN KSTC 112335Z AUTO 13005KT 10SM CLR 09/00 A3023 740 53 200 130/05 RMK AO2
14926KSTC STC20011111174009711/11/01 17:40:31  5-MIN KSTC 112340Z AUTO 13006KT 10SM CLR 08/00 A3023 740 58 100 130/06 RMK AO2
14926KSTC STC20011111174509711/11/01 17:45:31  5-MIN KSTC 112345Z AUTO 13006KT 10SM CLR 08/00 A3023 750 58 100 120/06 RMK AO2
14926KSTC STC20011111175013211/11/01 17:50:31  5-MIN KSTC 112350Z AUTO 13006KT 10SM CLR 08/00 A3022 750 58 100 130/06 RMK AO2 SLP254 T00780000 10133 20067 56016
14926KSTC STC20011111175509711/11/01 17:55:31  5-MIN KSTC 112355Z AUTO 12006KT 10SM CLR 08/00 A3022 750 58 100 120/06 RMK AO2
14926KSTC STC20011111180009711/11/01 18:00:31  5-MIN KSTC 120000Z AUTO 12006KT 10SM CLR 08/00 A3023 750 58 100 120/06 RMK AO2
14926KSTC STC20011111180509711/11/01 18:05:31  5-MIN KSTC 120005Z AUTO 12006KT 10SM CLR 08/00 A3023 750 55 200 110/06 RMK AO2
14926KSTC STC20011111181009711/11/01 18:10:31  5-MIN KSTC 120010Z AUTO 12006KT 10SM CLR 08/00 A3023 740 55 200 120/06 RMK AO2
14926KSTC STC20011111181509711/11/01 18:15:31  5-MIN KSTC 120015Z AUTO 13007KT 10SM CLR 08/00 A3023 740 55 200 120/07 RMK AO2
14926KSTC STC20011111182009711/11/01 18:20:31  5-MIN KSTC 120020Z AUTO 12006KT 10SM CLR 08/00 A3023 740 55 200 120/06 RMK AO2
14926KSTC STC20011111182509711/11/01 18:25:31  5-MIN KSTC 120025Z AUTO 12006KT 10SM CLR 08/00 A3023 740 58 100 120/06 RMK AO2
14926KSTC STC20011111183009711/11/01 18:30:31  5-MIN KSTC 120030Z AUTO 12006KT 10SM CLR 08/00 A3022 750 58 100 120/06 RMK AO2
14926KSTC STC20011111183509511/11/01 18:35:31  5-MIN KSTC 120035Z AUTO 12006KT 10SM CLR 07/00 A3022 750 60 0 120/06 RMK AO2
14926KSTC STC20011111184009711/11/01 18:40:31  5-MIN KSTC 120040Z AUTO 12006KT 10SM CLR 08/00 A3022 750 58 100 120/06 RMK AO2
14926KSTC STC20011111184509711/11/01 18:45:31  5-MIN KSTC 120045Z AUTO 13007KT 10SM CLR 08/00 A3022 750 58 100 120/07 RMK AO2
14926KSTC STC20011111185011411/11/01 18:50:31  5-MIN KSTC 120050Z AUTO 13007KT 10SM CLR 08/00 A3022 750 58 100 130/07 RMK AO2 SLP255 T00780000
14926KSTC STC20011111185509511/11/01 18:55:31  5-MIN KSTC 120055Z AUTO 13007KT 10SM CLR 07/00 A3022 750 60 0 130/07 RMK AO2
14926KSTC STC20011111190009511/11/01 19:00:31  5-MIN KSTC 120100Z AUTO 13006KT 10SM CLR 07/00 A3023 750 60 0 130/06 RMK AO2
14926KSTC STC20011111190509511/11/01 19:05:31  5-MIN KSTC 120105Z AUTO 13007KT 10SM CLR 07/00 A3023 740 60 0 130/07 RMK AO2
14926KSTC STC20011111191009511/11/01 19:10:31  5-MIN KSTC 120110Z AUTO 13006KT 10SM CLR 07/00 A3023 750 60 0 130/06 RMK AO2
14926KSTC STC20011111191509511/11/01 19:15:31  5-MIN KSTC 120115Z AUTO 13007KT 10SM CLR 07/00 A3022 750 60 0 120/07 RMK AO2
14926KSTC STC20011111192009511/11/01 19:20:31  5-MIN KSTC 120120Z AUTO 12006KT 10SM CLR 07/00 A3022 750 60 0 120/06 RMK AO2
14926KSTC STC20011111192509511/11/01 19:25:31  5-MIN KSTC 120125Z AUTO 13006KT 10SM CLR 07/00 A3022 750 62 0 120/06 RMK AO2
14926KSTC STC20011111193009511/11/01 19:30:31  5-MIN KSTC 120130Z AUTO 13006KT 10SM CLR 07/00 A3022 750 60 0 120/06 RMK AO2
14926KSTC STC20011111193509511/11/01 19:35:31  5-MIN KSTC 120135Z AUTO 13007KT 10SM CLR 07/00 A3022 750 62 0 120/07 RMK AO2
14926KSTC STC20011111194009511/11/01 19:40:31  5-MIN KSTC 120140Z AUTO 13007KT 10SM CLR 07/00 A3022 750 62 0 120/07 RMK AO2
14926KSTC STC20011111194509511/11/01 19:45:31  5-MIN KSTC 120145Z AUTO 13007KT 10SM CLR 07/01 A3022 750 62 0 120/07 RMK AO2
14926KSTC STC20011111195011211/11/01 19:50:31  5-MIN KSTC 120150Z AUTO 12007KT 10SM CLR 07/01 A3022 750 65 0 120/07 RMK AO2 SLP254 T00670006
14926KSTC STC20011111195509511/11/01 19:55:31  5-MIN KSTC 120155Z AUTO 12007KT 10SM CLR 07/00 A3022 750 62 0 110/07 RMK AO2
14926KSTC STC20011111200009811/11/01 20:00:31  5-MIN KSTC 120200Z AUTO 12007KT 10SM CLR 06/00 A3022 750 65 -100 110/07 RMK AO2
14926KSTC STC20011111200509511/11/01 20:05:31  5-MIN KSTC 120205Z AUTO 12007KT 10SM CLR 07/00 A3022 750 62 0 110/07 RMK AO2
14926KSTC STC20011111201009511/11/01 20:10:31  5-MIN KSTC 120210Z AUTO 12007KT 10SM CLR 07/01 A3022 750 65 0 120/07 RMK AO2
14926KSTC STC20011111201509511/11/01 20:15:31  5-MIN KSTC 120215Z AUTO 13006KT 10SM CLR 07/00 A3022 750 62 0 120/06 RMK AO2
14926KSTC STC20011111202009511/11/01 20:20:31  5-MIN KSTC 120220Z AUTO 13007KT 10SM CLR 07/01 A3022 750 65 0 120/07 RMK AO2
14926KSTC STC20011111202509511/11/01 20:25:31  5-MIN KSTC 120225Z AUTO 13008KT 10SM CLR 07/01 A3022 750 65 0 130/08 RMK AO2
14926KSTC STC20011111203009511/11/01 20:30:31  5-MIN KSTC 120230Z AUTO 13007KT 10SM CLR 07/01 A3022 750 65 0 130/07 RMK AO2
14926KSTC STC20011111203509511/11/01 20:35:31  5-MIN KSTC 120235Z AUTO 13007KT 10SM CLR 07/01 A3022 750 65 0 130/07 RMK AO2
14926KSTC STC20011111204009811/11/01 20:40:31  5-MIN KSTC 120240Z AUTO 14007KT 10SM CLR 06/00 A3022 750 65 -100 130/07 RMK AO2
14926KSTC STC20011111204509811/11/01 20:45:31  5-MIN KSTC 120245Z AUTO 13006KT 10SM CLR 06/01 A3022 750 67 -100 130/06 RMK AO2
14926KSTC STC20011111205012111/11/01 20:50:31  5-MIN KSTC 120250Z AUTO 14006KT 10SM CLR 06/00 A3022 750 67 -100 140/06 RMK AO2 SLP253 T00560000 56003
14926KSTC STC20011111205509911/11/01 20:55:31  5-MIN KSTC 120255Z AUTO 14006KT 10SM CLR 03/M01 A3022 750 79 -500 140/06 RMK AO2
14926KSTC STC20011111210009911/11/01 21:00:31  5-MIN KSTC 120300Z AUTO 14007KT 10SM CLR 03/M01 A3022 750 76 -400 140/07 RMK AO2
14926KSTC STC20011111210509911/11/01 21:05:31  5-MIN KSTC 120305Z AUTO 14007KT 10SM CLR 03/M01 A3022 750 76 -400 140/07 RMK AO2
14926KSTC STC20011111211009811/11/01 21:10:31  5-MIN KSTC 120310Z AUTO 14007KT 10SM CLR 04/00 A3022 750 73 -300 140/07 RMK AO2
14926KSTC STC20011111211509811/11/01 21:15:31  5-MIN KSTC 120315Z AUTO 14008KT 10SM CLR 05/00 A3022 750 70 -200 130/08 RMK AO2
14926KSTC STC20011111212009811/11/01 21:20:31  5-MIN KSTC 120320Z AUTO 14008KT 10SM CLR 05/01 A3022 750 73 -200 140/08 RMK AO2
14926KSTC STC20011111212509811/11/01 21:25:31  5-MIN KSTC 120325Z AUTO 14008KT 10SM CLR 05/01 A3022 750 73 -200 140/08 RMK AO2
14926KSTC STC20011111213009811/11/01 21:30:31  5-MIN KSTC 120330Z AUTO 14007KT 10SM CLR 04/00 A3022 750 73 -300 140/07 RMK AO2
14926KSTC STC20011111213509811/11/01 21:35:31  5-MIN KSTC 120335Z AUTO 14007KT 10SM CLR 04/00 A3022 750 76 -300 140/07 RMK AO2
14926KSTC STC20011111214009811/11/01 21:40:31  5-MIN KSTC 120340Z AUTO 14007KT 10SM CLR 04/00 A3022 750 76 -300 140/07 RMK AO2
14926KSTC STC20011111214509811/11/01 21:45:31  5-MIN KSTC 120345Z AUTO 14007KT 10SM CLR 03/00 A3022 750 79 -400 140/07 RMK AO2
14926KSTC STC20011111215011511/11/01 21:50:31  5-MIN KSTC 120350Z AUTO 14007KT 10SM CLR 04/00 A3021 760 73 -200 140/07 RMK AO2 SLP249 T00440000
14926KSTC STC20011111215509811/11/01 21:55:31  5-MIN KSTC 120355Z AUTO 14007KT 10SM CLR 05/01 A3021 760 73 -200 140/07 RMK AO2
14926KSTC STC20011111220009811/11/01 22:00:31  5-MIN KSTC 120400Z AUTO 14007KT 10SM CLR 06/01 A3022 750 70 -100 140/07 RMK AO2
14926KSTC STC20011111220509811/11/01 22:05:31  5-MIN KSTC 120405Z AUTO 14007KT 10SM CLR 05/01 A3022 750 73 -200 140/07 RMK AO2
14926KSTC STC20011111221009811/11/01 22:10:31  5-MIN KSTC 120410Z AUTO 14007KT 10SM CLR 04/00 A3022 750 73 -300 140/07 RMK AO2
14926KSTC STC20011111221509811/11/01 22:15:31  5-MIN KSTC 120415Z AUTO 14006KT 10SM CLR 03/00 A3022 750 79 -400 140/06 RMK AO2
14926KSTC STC20011111222009811/11/01 22:20:31  5-MIN KSTC 120420Z AUTO 14007KT 10SM CLR 03/00 A3022 750 79 -400 140/07 RMK AO2
14926KSTC STC20011111222509811/11/01 22:25:31  5-MIN KSTC 120425Z AUTO 14006KT 10SM CLR 03/00 A3022 750 79 -400 140/06 RMK AO2
14926KSTC STC20011111223009911/11/01 22:30:31  5-MIN KSTC 120430Z AUTO 14006KT 10SM CLR 03/M01 A3022 750 76 -400 140/06 RMK AO2
14926KSTC STC20011111223509911/11/01 22:35:31  5-MIN KSTC 120435Z AUTO 14006KT 10SM CLR 03/M01 A3022 750 79 -500 140/06 RMK AO2
14926KSTC STC20011111224009911/11/01 22:40:31  5-MIN KSTC 120440Z AUTO 14006KT 10SM CLR 03/M01 A3022 750 79 -500 140/06 RMK AO2
14926KSTC STC20011111224509911/11/01 22:45:31  5-MIN KSTC 120445Z AUTO 14006KT 10SM CLR 03/M01 A3022 750 79 -500 140/06 RMK AO2
14926KSTC STC20011111225011611/11/01 22:50:31  5-MIN KSTC 120450Z AUTO 15006KT 10SM CLR 03/M01 A3022 750 79 -500 140/06 RMK AO2 SLP251 T00281006
14926KSTC STC20011111225509911/11/01 22:55:31  5-MIN KSTC 120455Z AUTO 15007KT 10SM CLR 03/M01 A3022 750 79 -500 150/07 RMK AO2
14926KSTC STC20011111230009911/11/01 23:00:31  5-MIN KSTC 120500Z AUTO 15007KT 10SM CLR 02/M01 A3022 750 82 -500 150/07 RMK AO2
14926KSTC STC20011111230509911/11/01 23:05:31  5-MIN KSTC 120505Z AUTO 15007KT 10SM CLR 02/M01 A3022 750 85 -600 150/07 RMK AO2
14926KSTC STC20011111231009911/11/01 23:10:31  5-MIN KSTC 120510Z AUTO 15007KT 10SM CLR 02/M01 A3023 750 82 -600 150/07 RMK AO2
14926KSTC STC20011111231509911/11/01 23:15:31  5-MIN KSTC 120515Z AUTO 15006KT 10SM CLR 02/M01 A3023 740 82 -500 150/06 RMK AO2
14926KSTC STC20011111232009911/11/01 23:20:31  5-MIN KSTC 120520Z AUTO 15007KT 10SM CLR 02/M01 A3023 740 82 -500 150/07 RMK AO2
14926KSTC STC20011111232509911/11/01 23:25:31  5-MIN KSTC 120525Z AUTO 15007KT 10SM CLR 03/M01 A3023 750 76 -400 150/07 RMK AO2
14926KSTC STC20011111233009911/11/01 23:30:31  5-MIN KSTC 120530Z AUTO 15007KT 10SM CLR 03/M01 A3023 750 79 -500 150/07 RMK AO2
14926KSTC STC20011111233509911/11/01 23:35:31  5-MIN KSTC 120535Z AUTO 15008KT 10SM CLR 02/M01 A3022 750 82 -500 150/08 RMK AO2
14926KSTC STC20011111234009911/11/01 23:40:31  5-MIN KSTC 120540Z AUTO 15008KT 10SM CLR 02/M01 A3023 740 82 -500 150/08 RMK AO2
14926KSTC STC20011111234509911/11/01 23:45:31  5-MIN KSTC 120545Z AUTO 15008KT 10SM CLR 03/M01 A3023 740 79 -500 140/08 RMK AO2
14926KSTC STC20011111235014311/11/01 23:50:31  5-MIN KSTC 120550Z AUTO 14008KT 10SM CLR 03/00 A3022 750 79 -400 140/08 RMK AO2 SLP250 T00330000 10083 20017 401331044 56001
14926KSTC STC20011111235509811/11/01 23:55:31  5-MIN KSTC 120555Z AUTO 14007KT 10SM CLR 04/00 A3022 750 76 -300 140/07 RMK AO2
14926KSTC STC20011112000009811/12/01 00:00:31  5-MIN KSTC 120600Z AUTO 15007KT 10SM CLR 04/00 A3022 750 76 -300 140/07 RMK AO2
14926KSTC STC20011112000509811/12/01 00:05:31  5-MIN KSTC 120605Z AUTO 15007KT 10SM CLR 04/00 A3022 750 76 -300 140/07 RMK AO2
14926KSTC STC20011112001009811/12/01 00:10:31  5-MIN KSTC 120610Z AUTO 15007KT 10SM CLR 03/00 A3022 750 79 -400 150/07 RMK AO2
14926KSTC STC20011112001509911/12/01 00:15:31  5-MIN KSTC 120615Z AUTO 15007KT 10SM CLR 03/M01 A3022 750 79 -500 150/07 RMK AO2
14926KSTC STC20011112002009811/12/01 00:20:31  5-MIN KSTC 120620Z AUTO 15006KT 10SM CLR 03/00 A3022 750 82 -500 150/06 RMK AO2
14926KSTC STC20011112002509811/12/01 00:25:31  5-MIN KSTC 120625Z AUTO 15006KT 10SM CLR 03/00 A3022 750 79 -400 150/06 RMK AO2
14926KSTC STC20011112003009811/12/01 00:30:31  5-MIN KSTC 120630Z AUTO 16006KT 10SM CLR 03/00 A3022 750 79 -400 150/06 RMK AO2
14926KSTC STC20011112003509811/12/01 00:35:31  5-MIN KSTC 120635Z AUTO 16006KT 10SM CLR 03/00 A3022 750 82 -500 160/06 RMK AO2
14926KSTC STC20011112004009811/12/01 00:40:31  5-MIN KSTC 120640Z AUTO 16006KT 10SM CLR 03/00 A3022 750 82 -500 160/06 RMK AO2
14926KSTC STC20011112004509811/12/01 00:45:31  5-MIN KSTC 120645Z AUTO 17006KT 10SM CLR 03/00 A3022 750 82 -500 160/06 RMK AO2
14926KSTC STC20011112005011511/12/01 00:50:31  5-MIN KSTC 120650Z AUTO 17006KT 10SM CLR 03/00 A3022 750 82 -500 160/06 RMK AO2 SLP247 T00280000
14926KSTC STC20011112005509811/12/01 00:55:31  5-MIN KSTC 120655Z AUTO 16006KT 10SM CLR 03/00 A3021 760 82 -500 160/06 RMK AO2
14926KSTC STC20011112010009811/12/01 01:00:31  5-MIN KSTC 120700Z AUTO 17007KT 10SM CLR 03/00 A3021 760 79 -400 160/07 RMK AO2
14926KSTC STC20011112010509811/12/01 01:05:31  5-MIN KSTC 120705Z AUTO 16007KT 10SM CLR 03/00 A3021 760 82 -400 160/07 RMK AO2
14926KSTC STC20011112011009811/12/01 01:10:31  5-MIN KSTC 120710Z AUTO 15007KT 10SM CLR 03/01 A3021 760 82 -400 150/07 RMK AO2
14926KSTC STC20011112011509811/12/01 01:15:31  5-MIN KSTC 120715Z AUTO 16006KT 10SM CLR 03/01 A3021 760 82 -400 160/06 RMK AO2
14926KSTC STC20011112012009811/12/01 01:20:31  5-MIN KSTC 120720Z AUTO 17005KT 10SM CLR 03/01 A3021 760 82 -400 160/05 RMK AO2
14926KSTC STC20011112012509811/12/01 01:25:31  5-MIN KSTC 120725Z AUTO 17006KT 10SM CLR 03/01 A3021 760 85 -400 170/06 RMK AO2
14926KSTC STC20011112013009811/12/01 01:30:31  5-MIN KSTC 120730Z AUTO 17008KT 10SM CLR 04/01 A3021 760 79 -300 170/08 RMK AO2
14926KSTC STC20011112013509811/12/01 01:35:31  5-MIN KSTC 120735Z AUTO 18007KT 10SM CLR 04/01 A3021 760 79 -200 170/07 RMK AO2
14926KSTC STC20011112014009811/12/01 01:40:31  5-MIN KSTC 120740Z AUTO 18007KT 10SM CLR 04/01 A3021 760 79 -200 170/07 RMK AO2
14926KSTC STC20011112014509811/12/01 01:45:31  5-MIN KSTC 120745Z AUTO 17007KT 10SM CLR 03/01 A3021 760 82 -400 170/07 RMK AO2
14926KSTC STC20011112015011511/12/01 01:50:31  5-MIN KSTC 120750Z AUTO 17006KT 10SM CLR 03/01 A3021 760 85 -400 170/06 RMK AO2 SLP243 T00330011
14926KSTC STC20011112015509811/12/01 01:55:31  5-MIN KSTC 120755Z AUTO 17006KT 10SM CLR 03/01 A3020 760 85 -400 160/06 RMK AO2
14926KSTC STC20011112020009811/12/01 02:00:31  5-MIN KSTC 120800Z AUTO 16006KT 10SM CLR 03/01 A3021 760 85 -400 160/06 RMK AO2
14926KSTC STC20011112020509811/12/01 02:05:31  5-MIN KSTC 120805Z AUTO 17006KT 10SM CLR 03/01 A3020 760 85 -400 160/06 RMK AO2
14926KSTC STC20011112021009811/12/01 02:10:31  5-MIN KSTC 120810Z AUTO 16006KT 10SM CLR 02/01 A3021 760 89 -500 160/06 RMK AO2
14926KSTC STC20011112021509811/12/01 02:15:31  5-MIN KSTC 120815Z AUTO 16005KT 10SM CLR 03/01 A3020 760 85 -400 160/05 RMK AO2
14926KSTC STC20011112022009811/12/01 02:20:31  5-MIN KSTC 120820Z AUTO 16006KT 10SM CLR 02/01 A3020 770 89 -500 160/06 RMK AO2
14926KSTC STC20011112022509811/12/01 02:25:31  5-MIN KSTC 120825Z AUTO 16006KT 10SM CLR 03/01 A3020 770 85 -400 150/06 RMK AO2
14926KSTC STC20011112023009811/12/01 02:30:31  5-MIN KSTC 120830Z AUTO 15007KT 10SM CLR 03/01 A3020 770 85 -400 150/07 RMK AO2
14926KSTC STC20011112023509811/12/01 02:35:31  5-MIN KSTC 120835Z AUTO 15007KT 10SM CLR 03/01 A3020 770 85 -400 140/07 RMK AO2
14926KSTC STC20011112024009811/12/01 02:40:31  5-MIN KSTC 120840Z AUTO 14007KT 10SM CLR 04/01 A3020 770 82 -300 140/07 RMK AO2
14926KSTC STC20011112024509811/12/01 02:45:31  5-MIN KSTC 120845Z AUTO 14007KT 10SM CLR 04/01 A3020 770 82 -300 140/07 RMK AO2
14926KSTC STC20011112025012111/12/01 02:50:31  5-MIN KSTC 120850Z AUTO 14008KT 10SM CLR 04/01 A3019 780 82 -300 140/08 RMK AO2 SLP239 T00390011 53000
14926KSTC STC20011112025509811/12/01 02:55:31  5-MIN KSTC 120855Z AUTO 14007KT 10SM CLR 04/01 A3019 780 82 -300 140/07 RMK AO2
14926KSTC STC20011112030009811/12/01 03:00:31  5-MIN KSTC 120900Z AUTO 15008KT 10SM CLR 03/01 A3019 780 89 -400 140/08 RMK AO2
14926KSTC STC20011112030509811/12/01 03:05:31  5-MIN KSTC 120905Z AUTO 15008KT 10SM CLR 03/01 A3019 780 85 -400 150/08 RMK AO2
14926KSTC STC20011112031009811/12/01 03:10:31  5-MIN KSTC 120910Z AUTO 15008KT 10SM CLR 03/01 A3019 780 89 -400 150/08 RMK AO2
14926KSTC STC20011112031509811/12/01 03:15:31  5-MIN KSTC 120915Z AUTO 16008KT 10SM CLR 03/01 A3019 780 85 -400 150/08 RMK AO2
14926KSTC STC20011112032009811/12/01 03:20:31  5-MIN KSTC 120920Z AUTO 16008KT 10SM CLR 03/01 A3018 780 85 -400 150/08 RMK AO2
14926KSTC STC20011112032509811/12/01 03:25:31  5-MIN KSTC 120925Z AUTO 15008KT 10SM CLR 03/01 A3018 780 89 -400 150/08 RMK AO2
14926KSTC STC20011112033009811/12/01 03:30:31  5-MIN KSTC 120930Z AUTO 15008KT 10SM CLR 03/01 A3018 780 89 -400 150/08 RMK AO2
14926KSTC STC20011112033509811/12/01 03:35:31  5-MIN KSTC 120935Z AUTO 16008KT 10SM CLR 03/01 A3018 780 89 -400 160/08 RMK AO2
14926KSTC STC20011112034009811/12/01 03:40:31  5-MIN KSTC 120940Z AUTO 16008KT 10SM CLR 03/01 A3018 790 89 -400 160/08 RMK AO2
14926KSTC STC20011112034509811/12/01 03:45:31  5-MIN KSTC 120945Z AUTO 16008KT 10SM CLR 03/01 A3018 790 85 -400 150/08 RMK AO2
14926KSTC STC20011112035011511/12/01 03:50:31  5-MIN KSTC 120950Z AUTO 15008KT 10SM CLR 03/01 A3018 790 89 -400 150/08 RMK AO2 SLP234 T00280011
14926KSTC STC20011112035509811/12/01 03:55:31  5-MIN KSTC 120955Z AUTO 15007KT 10SM CLR 03/01 A3018 790 85 -300 140/07 RMK AO2
14926KSTC STC20011112040009811/12/01 04:00:31  5-MIN KSTC 121000Z AUTO 15007KT 10SM CLR 03/01 A3018 790 85 -300 140/07 RMK AO2
14926KSTC STC20011112040509811/12/01 04:05:31  5-MIN KSTC 121005Z AUTO 15007KT 10SM CLR 03/01 A3018 790 85 -300 150/07 RMK AO2
14926KSTC STC20011112041009811/12/01 04:10:31  5-MIN KSTC 121010Z AUTO 15007KT 10SM CLR 03/01 A3018 790 85 -300 150/07 RMK AO2
14926KSTC STC20011112041509811/12/01 04:15:31  5-MIN KSTC 121015Z AUTO 15007KT 10SM CLR 03/01 A3018 790 89 -400 150/07 RMK AO2
14926KSTC STC20011112042009811/12/01 04:20:31  5-MIN KSTC 121020Z AUTO 15008KT 10SM CLR 03/01 A3018 790 89 -400 150/08 RMK AO2
14926KSTC STC20011112042509811/12/01 04:25:31  5-MIN KSTC 121025Z AUTO 15007KT 10SM CLR 03/01 A3018 790 89 -400 140/07 RMK AO2
14926KSTC STC20011112043009811/12/01 04:30:31  5-MIN KSTC 121030Z AUTO 15008KT 10SM CLR 03/01 A3017 790 89 -400 150/08 RMK AO2
14926KSTC STC20011112043509811/12/01 04:35:31  5-MIN KSTC 121035Z AUTO 15008KT 10SM CLR 02/01 A3017 790 89 -500 150/08 RMK AO2
14926KSTC STC20011112044009811/12/01 04:40:31  5-MIN KSTC 121040Z AUTO 15008KT 10SM CLR 02/01 A3017 800 92 -500 140/08 RMK AO2
14926KSTC STC20011112044509811/12/01 04:45:31  5-MIN KSTC 121045Z AUTO 15008KT 10SM CLR 02/01 A3017 800 89 -500 150/08 RMK AO2
14926KSTC STC20011112045011511/12/01 04:50:31  5-MIN KSTC 121050Z AUTO 15008KT 10SM CLR 02/01 A3017 800 89 -500 140/08 RMK AO2 SLP232 T00220006
14926KSTC STC20011112045509811/12/01 04:55:31  5-MIN KSTC 121055Z AUTO 15009KT 10SM CLR 02/01 A3017 800 92 -500 140/09 RMK AO2
14926KSTC STC20011112050009811/12/01 05:00:31  5-MIN KSTC 121100Z AUTO 15008KT 10SM CLR 02/01 A3017 800 92 -500 140/08 RMK AO2
14926KSTC STC20011112050509811/12/01 05:05:31  5-MIN KSTC 121105Z AUTO 15008KT 10SM CLR 02/01 A3017 800 92 -500 150/08 RMK AO2
14926KSTC STC20011112051009811/12/01 05:10:31  5-MIN KSTC 121110Z AUTO 15008KT 10SM CLR 02/01 A3017 800 92 -500 140/08 RMK AO2
14926KSTC STC20011112051509811/12/01 05:15:31  5-MIN KSTC 121115Z AUTO 14008KT 10SM CLR 02/01 A3017 800 89 -500 140/08 RMK AO2
14926KSTC STC20011112052009811/12/01 05:20:31  5-MIN KSTC 121120Z AUTO 14008KT 10SM CLR 03/01 A3017 800 89 -400 140/08 RMK AO2
14926KSTC STC20011112052509811/12/01 05:25:31  5-MIN KSTC 121125Z AUTO 14008KT 10SM CLR 03/01 A3016 800 89 -400 140/08 RMK AO2
14926KSTC STC20011112053009811/12/01 05:30:31  5-MIN KSTC 121130Z AUTO 14007KT 10SM CLR 03/01 A3016 800 85 -300 140/07 RMK AO2
14926KSTC STC20011112053509811/12/01 05:35:31  5-MIN KSTC 121135Z AUTO 14008KT 10SM CLR 03/02 A3016 800 89 -300 140/08 RMK AO2
14926KSTC STC20011112054009811/12/01 05:40:31  5-MIN KSTC 121140Z AUTO 14008KT 10SM CLR 04/02 A3016 800 85 -300 140/08 RMK AO2
14926KSTC STC20011112054509811/12/01 05:45:31  5-MIN KSTC 121145Z AUTO 14008KT 10SM CLR 04/02 A3016 800 85 -300 140/08 RMK AO2
14926KSTC STC20011112055013311/12/01 05:50:31  5-MIN KSTC 121150Z AUTO 14008KT 10SM CLR 04/02 A3016 810 85 -300 140/08 RMK AO2 SLP229 T00390017 10044 20017 58010
14926KSTC STC20011112055509811/12/01 05:55:31  5-MIN KSTC 121155Z AUTO 14007KT 10SM CLR 04/02 A3016 810 85 -300 140/07 RMK AO2
14926KSTC STC20011112060009811/12/01 06:00:31  5-MIN KSTC 121200Z AUTO 14007KT 10SM CLR 04/02 A3016 810 85 -300 130/07 RMK AO2
14926KSTC STC20011112060509811/12/01 06:05:31  5-MIN KSTC 121205Z AUTO 14007KT 10SM CLR 04/02 A3016 810 85 -300 140/07 RMK AO2
14926KSTC STC20011112061009811/12/01 06:10:31  5-MIN KSTC 121210Z AUTO 14008KT 10SM CLR 04/02 A3016 810 85 -300 130/08 RMK AO2
14926KSTC STC20011112061509811/12/01 06:15:31  5-MIN KSTC 121215Z AUTO 14007KT 10SM CLR 04/02 A3016 810 82 -200 140/07 RMK AO2
14926KSTC STC20011112062009811/12/01 06:20:31  5-MIN KSTC 121220Z AUTO 14007KT 10SM CLR 04/02 A3016 810 85 -300 130/07 RMK AO2
14926KSTC STC20011112062510111/12/01 06:25:31  5-MIN KSTC 121225Z AUTO 14007KT 10SM FEW085 04/02 A3015 810 85 -300 130/07 RMK AO2
14926KSTC STC20011112063010111/12/01 06:30:31  5-MIN KSTC 121230Z AUTO 14008KT 10SM SCT085 04/02 A3015 810 85 -200 130/08 RMK AO2
14926KSTC STC20011112063510111/12/01 06:35:31  5-MIN KSTC 121235Z AUTO 14008KT 10SM SCT085 04/02 A3016 810 85 -300 130/08 RMK AO2
14926KSTC STC20011112064010111/12/01 06:40:31  5-MIN KSTC 121240Z AUTO 14009KT 10SM SCT085 04/02 A3016 810 85 -300 140/09 RMK AO2
14926KSTC STC20011112064510111/12/01 06:45:31  5-MIN KSTC 121245Z AUTO 14008KT 10SM SCT085 04/02 A3015 810 85 -200 140/08 RMK AO2
14926KSTC STC20011112065012511/12/01 06:50:31  5-MIN KSTC 121250Z AUTO 14009KT 10SM FEW065 BKN085 04/02 A3015 810 85 -200 140/09 RMK AO2 SLP226 T00390017
14926KSTC STC20011112065510811/12/01 06:55:31  5-MIN KSTC 121255Z AUTO 14009KT 10SM SCT065 BKN085 04/02 A3015 810 85 -200 140/09 RMK AO2
14926KSTC STC20011112070010811/12/01 07:00:31  5-MIN KSTC 121300Z AUTO 14010KT 10SM SCT065 BKN085 04/02 A3015 820 85 -200 140/10 RMK AO2
14926KSTC STC20011112070510811/12/01 07:05:31  5-MIN KSTC 121305Z AUTO 14008KT 10SM FEW065 BKN085 04/02 A3015 820 85 -200 140/08 RMK AO2
14926KSTC STC20011112071010811/12/01 07:10:31  5-MIN KSTC 121310Z AUTO 14007KT 10SM FEW065 OVC085 03/02 A3015 820 89 -300 140/07 RMK AO2
14926KSTC STC20011112071510811/12/01 07:15:31  5-MIN KSTC 121315Z AUTO 14008KT 10SM FEW065 BKN085 03/02 A3015 820 89 -300 140/08 RMK AO2
14926KSTC STC20011112072010811/12/01 07:20:31  5-MIN KSTC 121320Z AUTO 14008KT 10SM FEW065 BKN085 03/02 A3015 820 89 -300 140/08 RMK AO2
14926KSTC STC20011112072510111/12/01 07:25:31  5-MIN KSTC 121325Z AUTO 14008KT 10SM BKN085 03/02 A3014 820 89 -300 140/08 RMK AO2
14926KSTC STC20011112073010111/12/01 07:30:31  5-MIN KSTC 121330Z AUTO 14008KT 10SM BKN085 03/02 A3014 820 89 -300 140/08 RMK AO2
14926KSTC STC20011112073510111/12/01 07:35:31  5-MIN KSTC 121335Z AUTO 14010KT 10SM BKN085 04/02 A3014 820 85 -200 140/10 RMK AO2
14926KSTC STC20011112074010111/12/01 07:40:31  5-MIN KSTC 121340Z AUTO 14009KT 10SM SCT085 04/02 A3014 820 85 -200 140/09 RMK AO2
14926KSTC STC20011112074510111/12/01 07:45:31  5-MIN KSTC 121345Z AUTO 15008KT 10SM SCT085 04/02 A3014 820 85 -200 140/08 RMK AO2
14926KSTC STC20011112075011811/12/01 07:50:31  5-MIN KSTC 121350Z AUTO 14010KT 10SM SCT085 04/02 A3014 820 85 -200 140/10 RMK AO2 SLP222 T00390017
14926KSTC STC20011112075510111/12/01 07:55:31  5-MIN KSTC 121355Z AUTO 15010KT 10SM FEW085 03/02 A3014 830 89 -300 150/10 RMK AO2
14926KSTC STC20011112080010111/12/01 08:00:31  5-MIN KSTC 121400Z AUTO 15009KT 10SM FEW085 04/02 A3014 830 85 -200 140/09 RMK AO2
14926KSTC STC20011112080510111/12/01 08:05:31  5-MIN KSTC 121405Z AUTO 14010KT 10SM FEW085 04/02 A3014 830 89 -200 140/10 RMK AO2
14926KSTC STC20011112081010111/12/01 08:10:31  5-MIN KSTC 121410Z AUTO 15009KT 10SM FEW085 04/02 A3014 820 85 -200 140/09 RMK AO2
14926KSTC STC20011112081509811/12/01 08:15:31  5-MIN KSTC 121415Z AUTO 15010KT 10SM CLR 04/02 A3014 830 85 -200 150/10 RMK AO2
14926KSTC STC20011112082009811/12/01 08:20:31  5-MIN KSTC 121420Z AUTO 15009KT 10SM CLR 05/02 A3014 830 82 -100 150/09 RMK AO2
14926KSTC STC20011112082509811/12/01 08:25:31  5-MIN KSTC 121425Z AUTO 15011KT 10SM CLR 05/02 A3014 830 82 -100 150/11 RMK AO2
14926KSTC STC20011112083009811/12/01 08:30:31  5-MIN KSTC 121430Z AUTO 16012KT 10SM CLR 05/02 A3013 830 82 -100 150/12 RMK AO2
14926KSTC STC20011112083509511/12/01 08:35:31  5-MIN KSTC 121435Z AUTO 16012KT 10SM CLR 06/02 A3013 830 79 0 150/12 RMK AO2
14926KSTC STC20011112084009511/12/01 08:40:31  5-MIN KSTC 121440Z AUTO 16012KT 10SM CLR 06/02 A3014 830 79 0 160/12 RMK AO2
14926KSTC STC20011112084509511/12/01 08:45:31  5-MIN KSTC 121445Z AUTO 16010KT 10SM CLR 06/02 A3014 830 76 0 160/10 RMK AO2
14926KSTC STC20011112085011811/12/01 08:50:31  5-MIN KSTC 121450Z AUTO 16010KT 10SM CLR 06/02 A3014 830 76 0 160/10 RMK AO2 SLP222 T00610022 56011
14926KSTC STC20011112085509511/12/01 08:55:31  5-MIN KSTC 121455Z AUTO 16011KT 10SM CLR 06/02 A3013 830 76 0 160/11 RMK AO2
14926KSTC STC20011112090009711/12/01 09:00:31  5-MIN KSTC 121500Z AUTO 16010KT 10SM CLR 07/02 A3013 830 73 100 160/10 RMK AO2
14926KSTC STC20011112090509711/12/01 09:05:31  5-MIN KSTC 121505Z AUTO 16010KT 10SM CLR 07/02 A3013 830 73 100 160/10 RMK AO2
14926KSTC STC20011112091010011/12/01 09:10:31  5-MIN KSTC 121510Z AUTO 17010KT 10SM FEW090 07/02 A3014 830 73 100 160/10 RMK AO2
14926KSTC STC20011112091510011/12/01 09:15:31  5-MIN KSTC 121515Z AUTO 18009KT 10SM FEW090 07/02 A3013 830 70 100 170/09 RMK AO2
14926KSTC STC20011112092009711/12/01 09:20:31  5-MIN KSTC 121520Z AUTO 17011KT 10SM CLR 07/03 A3013 830 73 100 160/11 RMK AO2
14926KSTC STC20011112092509711/12/01 09:25:31  5-MIN KSTC 121525Z AUTO 16011KT 10SM CLR 08/03 A3013 830 70 200 160/11 RMK AO2
14926KSTC STC20011112093010311/12/01 09:30:31  5-MIN KSTC 121530Z AUTO 17012G18KT 10SM CLR 08/02 A3013 830 68 200 170/12G18 RMK AO2
14926KSTC STC20011112093510311/12/01 09:35:31  5-MIN KSTC 121535Z AUTO 17011G18KT 10SM CLR 08/03 A3013 830 68 300 160/11G18 RMK AO2
14926KSTC STC20011112094009711/12/01 09:40:31  5-MIN KSTC 121540Z AUTO 17012KT 10SM CLR 08/03 A3013 830 68 300 160/12 RMK AO2
14926KSTC STC20011112094509711/12/01 09:45:31  5-MIN KSTC 121545Z AUTO 17011KT 10SM CLR 09/03 A3012 840 65 300 160/11 RMK AO2
14926KSTC STC20011112095011411/12/01 09:50:31  5-MIN KSTC 121550Z AUTO 16012KT 10SM CLR 09/03 A3012 840 65 400 160/12 RMK AO2 SLP214 T00890028
14926KSTC STC20011112095509711/12/01 09:55:31  5-MIN KSTC 121555Z AUTO 16011KT 10SM CLR 09/03 A3011 850 65 400 160/11 RMK AO2
14926KSTC STC20011112100009711/12/01 10:00:31  5-MIN KSTC 121600Z AUTO 16012KT 10SM CLR 09/03 A3011 850 65 400 160/12 RMK AO2
14926KSTC STC20011112100509711/12/01 10:05:31  5-MIN KSTC 121605Z AUTO 16011KT 10SM CLR 10/03 A3011 850 63 500 160/11 RMK AO2
14926KSTC STC20011112101009711/12/01 10:10:31  5-MIN KSTC 121610Z AUTO 17014KT 10SM CLR 09/03 A3011 850 65 400 160/14 RMK AO2
14926KSTC STC20011112101509711/12/01 10:15:31  5-MIN KSTC 121615Z AUTO 16016KT 10SM CLR 09/03 A3012 840 65 400 150/16 RMK AO2
14926KSTC STC20011112102009711/12/01 10:20:31  5-MIN KSTC 121620Z AUTO 17013KT 10SM CLR 09/03 A3012 840 65 400 170/13 RMK AO2
14926KSTC STC20011112102509711/12/01 10:25:31  5-MIN KSTC 121625Z AUTO 18013KT 10SM CLR 09/03 A3012 840 65 400 170/13 RMK AO2
14926KSTC STC20011112103009711/12/01 10:30:31  5-MIN KSTC 121630Z AUTO 17011KT 10SM CLR 10/03 A3012 840 63 500 170/11 RMK AO2
14926KSTC STC20011112103509711/12/01 10:35:31  5-MIN KSTC 121635Z AUTO 16011KT 10SM CLR 11/03 A3012 840 61 600 160/11 RMK AO2
14926KSTC STC20011112104009711/12/01 10:40:31  5-MIN KSTC 121640Z AUTO 17010KT 10SM CLR 11/04 A3012 840 61 600 170/10 RMK AO2
14926KSTC STC20011112104509711/12/01 10:45:31  5-MIN KSTC 121645Z AUTO 17012KT 10SM CLR 11/04 A3011 850 61 600 160/12 RMK AO2
14926KSTC STC20011112105011411/12/01 10:50:31  5-MIN KSTC 121650Z AUTO 17011KT 10SM CLR 11/04 A3011 850 63 600 170/11 RMK AO2 SLP212 T01060039
14926KSTC STC20011112105509711/12/01 10:55:31  5-MIN KSTC 121655Z AUTO 17011KT 10SM CLR 11/04 A3011 850 63 600 160/11 RMK AO2
14926KSTC STC20011112110009711/12/01 11:00:31  5-MIN KSTC 121700Z AUTO 17010KT 10SM CLR 11/04 A3011 850 61 600 160/10 RMK AO2
14926KSTC STC20011112110509711/12/01 11:05:31  5-MIN KSTC 121705Z AUTO 17013KT 10SM CLR 11/04 A3011 850 61 600 170/13 RMK AO2
14926KSTC STC20011112111009711/12/01 11:10:31  5-MIN KSTC 121710Z AUTO 16011KT 10SM CLR 11/04 A3011 850 61 600 150/11 RMK AO2
14926KSTC STC20011112111509711/12/01 11:15:31  5-MIN KSTC 121715Z AUTO 16012KT 10SM CLR 11/04 A3011 860 61 600 150/12 RMK AO2
14926KSTC STC20011112112009711/12/01 11:20:31  5-MIN KSTC 121720Z AUTO 16010KT 10SM CLR 11/04 A3010 860 61 600 160/10 RMK AO2
14926KSTC STC20011112112509711/12/01 11:25:31  5-MIN KSTC 121725Z AUTO 18012KT 10SM CLR 12/04 A3010 860 61 700 180/12 RMK AO2
14926KSTC STC20011112113009711/12/01 11:30:31  5-MIN KSTC 121730Z AUTO 17012KT 10SM CLR 12/04 A3009 870 59 800 170/12 RMK AO2
14926KSTC STC20011112113509711/12/01 11:35:31  5-MIN KSTC 121735Z AUTO 17009KT 10SM CLR 13/04 A3009 870 56 800 170/09 RMK AO2
14926KSTC STC20011112114009711/12/01 11:40:31  5-MIN KSTC 121740Z AUTO 17013KT 10SM CLR 12/04 A3009 870 59 800 170/13 RMK AO2
14926KSTC STC20011112114509711/12/01 11:45:31  5-MIN KSTC 121745Z AUTO 17012KT 10SM CLR 12/04 A3009 870 59 800 170/12 RMK AO2
14926KSTC STC20011112115013211/12/01 11:50:31  5-MIN KSTC 121750Z AUTO 18012KT 10SM CLR 13/05 A3008 870 59 900 170/12 RMK AO2 SLP202 T01280050 10128 20033 56008
14926KSTC STC20011112115509711/12/01 11:55:31  5-MIN KSTC 121755Z AUTO 18013KT 10SM CLR 13/05 A3008 870 57 900 180/13 RMK AO2
14926KSTC STC20011112120009711/12/01 12:00:31  5-MIN KSTC 121800Z AUTO 18013KT 10SM CLR 13/05 A3009 870 57 900 180/13 RMK AO2
14926KSTC STC20011112120509711/12/01 12:05:31  5-MIN KSTC 121805Z AUTO 17011KT 10SM CLR 13/05 A3008 880 57 900 170/11 RMK AO2
14926KSTC STC20011112121009811/12/01 12:10:31  5-MIN KSTC 121810Z AUTO 16013KT 10SM CLR 14/06 A3008 880 57 1000 150/13 RMK AO2
14926KSTC STC20011112121509811/12/01 12:15:31  5-MIN KSTC 121815Z AUTO 16013KT 10SM CLR 14/06 A3008 880 57 1000 160/13 RMK AO2
14926KSTC STC20011112122009811/12/01 12:20:31  5-MIN KSTC 121820Z AUTO 18014KT 10SM CLR 14/06 A3008 880 57 1000 180/14 RMK AO2
14926KSTC STC20011112122509811/12/01 12:25:31  5-MIN KSTC 121825Z AUTO 18013KT 10SM CLR 14/06 A3007 890 57 1000 180/13 RMK AO2
14926KSTC STC20011112123010111/12/01 12:30:31  5-MIN KSTC 121830Z AUTO 16013KT 10SM FEW060 14/06 A3007 890 57 1000 160/13 RMK AO2
14926KSTC STC20011112123510111/12/01 12:35:31  5-MIN KSTC 121835Z AUTO 18012KT 10SM SCT065 14/06 A3007 890 57 1000 180/12 RMK AO2
14926KSTC STC20011112124010111/12/01 12:40:31  5-MIN KSTC 121840Z AUTO 18014KT 10SM FEW070 14/06 A3007 890 57 1100 170/14 RMK AO2
14926KSTC STC20011112124510111/12/01 12:45:31  5-MIN KSTC 121845Z AUTO 17011KT 10SM FEW070 14/06 A3007 890 57 1100 170/11 RMK AO2
14926KSTC STC20011112125011811/12/01 12:50:31  5-MIN KSTC 121850Z AUTO 17014KT 10SM SCT070 14/06 A3006 890 57 1100 170/14 RMK AO2 SLP195 T01440061
14926KSTC STC20011112125510111/12/01 12:55:31  5-MIN KSTC 121855Z AUTO 18014KT 10SM SCT070 15/06 A3006 900 55 1100 180/14 RMK AO2
14926KSTC STC20011112130010111/12/01 13:00:31  5-MIN KSTC 121900Z AUTO 17014KT 10SM SCT065 15/06 A3006 900 55 1100 170/14 RMK AO2
14926KSTC STC20011112130510111/12/01 13:05:31  5-MIN KSTC 121905Z AUTO 18016KT 10SM BKN065 15/06 A3006 900 55 1100 170/16 RMK AO2
14926KSTC STC20011112131010111/12/01 13:10:31  5-MIN KSTC 121910Z AUTO 18014KT 10SM BKN060 15/06 A3006 900 55 1100 170/14 RMK AO2
14926KSTC STC20011112131510111/12/01 13:15:31  5-MIN KSTC 121915Z AUTO 16014KT 10SM BKN060 16/06 A3005 900 53 1200 160/14 RMK AO2
14926KSTC STC20011112132010111/12/01 13:20:31  5-MIN KSTC 121920Z AUTO 18013KT 10SM BKN060 16/06 A3005 900 53 1200 180/13 RMK AO2
14926KSTC STC20011112132510111/12/01 13:25:31  5-MIN KSTC 121925Z AUTO 18014KT 10SM SCT060 16/06 A3005 910 53 1200 170/14 RMK AO2
14926KSTC STC20011112133010111/12/01 13:30:31  5-MIN KSTC 121930Z AUTO 17013KT 10SM SCT060 16/07 A3005 910 53 1300 170/13 RMK AO2
14926KSTC STC20011112133510111/12/01 13:35:31  5-MIN KSTC 121935Z AUTO 17012KT 10SM SCT060 16/07 A3004 910 55 1200 160/12 RMK AO2
14926KSTC STC20011112134010111/12/01 13:40:31  5-MIN KSTC 121940Z AUTO 17011KT 10SM SCT060 16/07 A3004 910 53 1300 160/11 RMK AO2
14926KSTC STC20011112134510111/12/01 13:45:31  5-MIN KSTC 121945Z AUTO 17013KT 10SM SCT060 17/07 A3004 910 51 1400 160/13 RMK AO2
14926KSTC STC20011112135011811/12/01 13:50:31  5-MIN KSTC 121950Z AUTO 18015KT 10SM SCT060 17/07 A3004 920 51 1400 180/15 RMK AO2 SLP185 T01670067
14926KSTC STC20011112135510711/12/01 13:55:31  5-MIN KSTC 121955Z AUTO 18013G18KT 10SM SCT060 17/07 A3004 920 53 1400 180/13G18 RMK AO2
14926KSTC STC20011112140010111/12/01 14:00:31  5-MIN KSTC 122000Z AUTO 16013KT 10SM SCT060 17/07 A3003 920 51 1400 150/13 RMK AO2
14926KSTC STC20011112140510111/12/01 14:05:31  5-MIN KSTC 122005Z AUTO 16013KT 10SM SCT060 17/07 A3003 920 51 1400 160/13 RMK AO2
14926KSTC STC20011112141010111/12/01 14:10:31  5-MIN KSTC 122010Z AUTO 16013KT 10SM BKN060 17/07 A3003 920 51 1400 160/13 RMK AO2
14926KSTC STC20011112141510111/12/01 14:15:31  5-MIN KSTC 122015Z AUTO 15014KT 10SM SCT055 17/07 A3003 930 51 1400 150/14 RMK AO2
14926KSTC STC20011112142010111/12/01 14:20:31  5-MIN KSTC 122020Z AUTO 15012KT 10SM FEW055 17/07 A3003 930 51 1400 150/12 RMK AO2
14926KSTC STC20011112142510111/12/01 14:25:31  5-MIN KSTC 122025Z AUTO 17012KT 10SM FEW060 17/07 A3002 930 51 1400 160/12 RMK AO2
14926KSTC STC20011112143010111/12/01 14:30:31  5-MIN KSTC 122030Z AUTO 16015KT 10SM FEW060 17/07 A3002 930 53 1400 160/15 RMK AO2
14926KSTC STC20011112143510111/12/01 14:35:31  5-MIN KSTC 122035Z AUTO 17012KT 10SM FEW055 17/07 A3002 930 53 1400 160/12 RMK AO2
14926KSTC STC20011112144010111/12/01 14:40:31  5-MIN KSTC 122040Z AUTO 16011KT 10SM SCT055 17/07 A3002 940 51 1500 150/11 RMK AO2
14926KSTC STC20011112144510811/12/01 14:45:31  5-MIN KSTC 122045Z AUTO 16012KT 10SM FEW055 SCT065 17/07 A3002 940 51 1400 150/12 RMK AO2
14926KSTC STC20011112145013111/12/01 14:50:31  5-MIN KSTC 122050Z AUTO 16009KT 10SM SCT060 SCT070 17/07 A3002 940 51 1500 160/09 RMK AO2 SLP176 T01720072 58016
14926KSTC STC20011112145510811/12/01 14:55:31  5-MIN KSTC 122055Z AUTO 17013KT 10SM BKN055 BKN070 17/07 A3001 940 51 1500 160/13 RMK AO2
14926KSTC STC20011112150010811/12/01 15:00:31  5-MIN KSTC 122100Z AUTO 16015KT 10SM BKN050 BKN070 17/07 A3001 940 51 1500 150/15 RMK AO2
14926KSTC STC20011112150510111/12/01 15:05:31  5-MIN KSTC 122105Z AUTO 17014KT 10SM BKN050 17/07 A3001 940 51 1500 170/14 RMK AO2
14926KSTC STC20011112151010811/12/01 15:10:31  5-MIN KSTC 122110Z AUTO 17015KT 10SM BKN055 OVC070 17/08 A3001 950 53 1500 170/15 RMK AO2
14926KSTC STC20011112151510811/12/01 15:15:31  5-MIN KSTC 122115Z AUTO 17014KT 10SM BKN055 OVC070 17/08 A3001 950 53 1500 170/14 RMK AO2
14926KSTC STC20011112152010811/12/01 15:20:31  5-MIN KSTC 122120Z AUTO 17011KT 10SM BKN055 OVC070 17/08 A3000 950 53 1500 170/11 RMK AO2
14926KSTC STC20011112152510811/12/01 15:25:31  5-MIN KSTC 122125Z AUTO 17011KT 10SM BKN050 OVC070 17/08 A3000 950 55 1400 160/11 RMK AO2
14926KSTC STC20011112153011711/12/01 15:30:31  5-MIN KSTC 122130Z AUTO 18011KT 10SM TS BKN055 OVC070 17/08 A3001 950 53 1500 180/11 RMK AO2 TSB27
14926KSTC STC20011112153511711/12/01 15:35:31  5-MIN KSTC 122135Z AUTO 18012KT 10SM TS BKN055 OVC070 17/08 A3001 950 53 1500 180/12 RMK AO2 TSB27
14926KSTC STC20011112154011711/12/01 15:40:31  5-MIN KSTC 122140Z AUTO 18010KT 10SM TS BKN055 OVC070 17/08 A3001 950 53 1500 180/10 RMK AO2 TSB27
14926KSTC STC20011112154511711/12/01 15:45:31  5-MIN KSTC 122145Z AUTO 18011KT 10SM BKN055 OVC075 17/08 A3001 950 53 1500 180/11 RMK AO2 TSB27E41
14926KSTC STC20011112155014111/12/01 15:50:31  5-MIN KSTC 122150Z AUTO 19011KT 10SM FEW043 BKN055 OVC070 17/08 A3001 940 53 1500 190/11 RMK AO2 TSB27E41 SLP176 T01720078
14926KSTC STC20011112155510811/12/01 15:55:31  5-MIN KSTC 122155Z AUTO 20009KT 10SM FEW043 OVC060 17/08 A3001 940 55 1400 190/09 RMK AO2
14926KSTC STC20011112160010811/12/01 16:00:31  5-MIN KSTC 122200Z AUTO 20008KT 10SM BKN060 OVC075 17/08 A3001 940 55 1400 200/08 RMK AO2
14926KSTC STC20011112160512411/12/01 16:05:31  5-MIN KSTC 122205Z AUTO 19006KT 10SM -RA BKN055 OVC075 16/08 A3001 950 59 1300 190/06 RMK AO2 RAB04 P0000
14926KSTC STC20011112161012411/12/01 16:10:31  5-MIN KSTC 122210Z AUTO 18007KT 10SM -RA BKN055 OVC075 16/09 A3001 950 62 1300 180/07 RMK AO2 RAB04 P0000
14926KSTC STC20011112161513011/12/01 16:15:31  5-MIN KSTC 122215Z AUTO 17007KT 8SM -RA SCT039 BKN055 OVC070 16/09 A3000 950 67 1300 170/07 RMK AO2 RAB04 P0001
14926KSTC STC20011112162013711/12/01 16:20:31  5-MIN KSTC 122220Z AUTO 19011KT 7SM -TSRA SCT035 BKN055 OVC085 15/10 A3001 940 72 1200 190/11 RMK AO2 TSB20RAB04 P0001
14926KSTC STC20011112162513711/12/01 16:25:31  5-MIN KSTC 122225Z AUTO 18008KT 9SM -TSRA FEW035 BKN055 OVC085 15/10 A3001 940 72 1200 180/08 RMK AO2 TSB20RAB04 P0001
14926KSTC STC20011112163013711/12/01 16:30:31  5-MIN KSTC 122230Z AUTO 18010KT 8SM -TSRA SCT031 BKN055 OVC085 15/10 A3001 940 72 1200 180/10 RMK AO2 TSB20RAB04 P0002
14926KSTC STC20011112163513711/12/01 16:35:31  5-MIN KSTC 122235Z AUTO 19006KT 5SM -TSRA BKN029 BKN049 OVC085 14/11 A3000 950 77 1100 190/06 RMK AO2 TSB20RAB04 P0004
14926KSTC STC20011112164013911/12/01 16:40:31  5-MIN KSTC 122240Z AUTO 14006KT 4SM TSRA BR BKN027 BKN055 OVC085 13/11 A3000 950 86 1000 140/06 RMK AO2 TSB20RAB04 P0007
14926KSTC STC20011112164514011/12/01 16:45:31  5-MIN KSTC 122245Z AUTO 13005KT 5SM -TSRA BR SCT025 BKN055 OVC085 13/12 A3000 950 89 1000 120/05 RMK AO2 TSB20RAB04 P0008
14926KSTC STC20011112165015411/12/01 16:50:31  5-MIN KSTC 122250Z AUTO 15003KT 8SM -TSRA SCT025 SCT045 OVC055 14/11 A3000 950 83 1100 140/03 RMK AO2 TSB20RAB04 SLP174 P0009 T01390111
14926KSTC STC20011112165512711/12/01 16:55:31  5-MIN KSTC 122255Z AUTO 15003KT 10SM -TSRA SCT025 BKN045 OVC055 13/11 A3000 950 86 1000 150/03 RMK AO2 P0000
14926KSTC STC20011112170012611/12/01 17:00:31  5-MIN KSTC 122300Z AUTO 14003KT 9SM -TSRA FEW025 BKN047 OVC055 13/11 A3000 950 89 1000 130/03 RMK AO2 P0001
14926KSTC STC20011112170512611/12/01 17:05:31  5-MIN KSTC 122305Z AUTO 13004KT 9SM -TSRA FEW026 BKN047 OVC055 13/12 A3000 950 93 1000 130/04 RMK AO2 P0002
14926KSTC STC20011112171012811/12/01 17:10:31  5-MIN KSTC 122310Z AUTO 13005KT 6SM TSRA BR FEW025 BKN045 OVC055 12/12 A3000 950 100 900 120/05 RMK AO2 P0006
14926KSTC STC20011112171512911/12/01 17:15:31  5-MIN KSTC 122315Z AUTO 14003KT 6SM -TSRA BR FEW025 BKN045 OVC050 13/11 A3000 950 86 1000 140/03 RMK AO2 P0007
14926KSTC STC20011112172011911/12/01 17:20:31  5-MIN KSTC 122320Z AUTO 18003KT 7SM -TSRA FEW025 OVC045 14/11 A3001 940 80 1100 170/03 RMK AO2 P0008
14926KSTC STC20011112172511911/12/01 17:25:31  5-MIN KSTC 122325Z AUTO 20003KT 8SM -TSRA FEW025 OVC045 13/11 A3002 940 86 1000 190/03 RMK AO2 P0008
14926KSTC STC20011112173011911/12/01 17:30:31  5-MIN KSTC 122330Z AUTO 23005KT 10SM -TSRA FEW025 OVC047 13/11 A3002 940 89 900 230/05 RMK AO2 P0008
14926KSTC STC20011112173512211/12/01 17:35:31  5-MIN KSTC 122335Z AUTO 21005KT 10SM TS FEW022 OVC047 13/11 A3002 930 89 900 200/05 RMK AO2 RAE31 P0008
14926KSTC STC20011112174011111/12/01 17:40:31  5-MIN KSTC 122340Z AUTO 19003KT 9SM -TSRA OVC047 12/11 A3003 930 93 900 190/03 RMK AO2 P0008
14926KSTC STC20011112174511511/12/01 17:45:31  5-MIN KSTC 122345Z AUTO 22005KT 9SM -RA OVC047 13/11 A3003 920 89 900 220/05 RMK AO2 TSE45 P0009
14926KSTC STC20011112175015711/12/01 17:50:31  5-MIN KSTC 122350Z AUTO 26007KT 10SM -RA OVC047 12/11 A3003 920 93 800 260/07 RMK AO2 TSE45 SLP184 P0009 60018 T01220111 10172 20122 58023
14926KSTC STC20011112175510611/12/01 17:55:31  5-MIN KSTC 122355Z AUTO 26007KT 10SM OVC047 13/11 A3004 920 89 900 260/07 RMK AO2 RAE54
14926KSTC STC20011112180011011/12/01 18:00:31  5-MIN KSTC 130000Z AUTO 25009KT 10SM -RA OVC047 13/11 A3004 910 89 900 250/09 RMK AO2 P0000
14926KSTC STC20011112180510911/12/01 18:05:31  5-MIN KSTC 130005Z AUTO 26009KT 9SM -RA OVC045 13/12 A3005 910 93 900 250/09 RMK AO2 P0000
14926KSTC STC20011112181010911/12/01 18:10:31  5-MIN KSTC 130010Z AUTO 26009KT 7SM -RA OVC043 13/12 A3005 900 93 900 250/09 RMK AO2 P0001
14926KSTC STC20011112181511811/12/01 18:15:31  5-MIN KSTC 130015Z AUTO 25011KT 4SM RA BR BKN038 OVC045 13/12 A3006 900 96 900 250/11 RMK AO2 P0005
14926KSTC STC20011112182011811/12/01 18:20:31  5-MIN KSTC 130020Z AUTO 25009KT 3SM RA BR FEW019 OVC040 13/12 A3005 900 96 900 250/09 RMK AO2 P0007
14926KSTC STC20011112182512611/12/01 18:25:31  5-MIN KSTC 130025Z AUTO 25006KT 4SM -RA BR FEW019 BKN043 OVC060 13/12 A3005 910 96 900 240/06 RMK AO2 P0007
14926KSTC STC20011112183012411/12/01 18:30:31  5-MIN KSTC 130030Z AUTO 23004KT 7SM -RA BKN037 BKN060 OVC075 12/12 A3004 910 100 800 230/04 RMK AO2 P0008
14926KSTC STC20011112183512411/12/01 18:35:31  5-MIN KSTC 130035Z AUTO 22005KT 8SM -RA BKN040 BKN060 OVC075 12/12 A3004 910 100 800 220/05 RMK AO2 P0008
14926KSTC STC20011112184012411/12/01 18:40:31  5-MIN KSTC 130040Z AUTO 21004KT 9SM -RA SCT036 SCT060 OVC075 12/12 A3004 920 100 800 200/04 RMK AO2 P0008
14926KSTC STC20011112184512411/12/01 18:45:31  5-MIN KSTC 130045Z AUTO 19005KT 10SM -RA FEW036 SCT060 OVC075 12/12 A3004 910 96 800 190/05 RMK AO2 P0008
14926KSTC STC20011112185013911/12/01 18:50:31  5-MIN KSTC 130050Z AUTO 19005KT 7SM RA FEW044 BKN065 OVC075 12/12 A3004 920 96 800 180/05 RMK AO2 SLP187 P0010 T01220117
14926KSTC STC20011112185512611/12/01 18:55:31  5-MIN KSTC 130055Z AUTO 17003KT 6SM -RA BR FEW048 BKN065 OVC075 12/12 A3004 920 96 800 170/03 RMK AO2 P0000
14926KSTC STC20011112190011611/12/01 19:00:31  5-MIN KSTC 130100Z AUTO 18005KT 7SM -RA SCT050 OVC070 12/12 A3004 920 96 800 170/05 RMK AO2 P0001
14926KSTC STC20011112190511911/12/01 19:05:31  5-MIN KSTC 130105Z AUTO 16005KT 6SM RA BR SCT042 OVC070 12/12 A3003 920 100 800 160/05 RMK AO2 P0002
14926KSTC STC20011112191012011/12/01 19:10:31  5-MIN KSTC 130110Z AUTO 16006KT 6SM -RA BR BKN038 OVC070 12/12 A3004 920 100 800 160/06 RMK AO2 P0004
14926KSTC STC20011112191511711/12/01 19:15:31  5-MIN KSTC 130115Z AUTO 17007KT 7SM -RA BKN041 OVC065 12/12 A3004 920 100 800 170/07 RMK AO2 P0005
14926KSTC STC20011112192011511/12/01 19:20:31  5-MIN KSTC 130120Z AUTO 16007KT 7SM RA BKN039 OVC070 12/12 A3003 920 96 800 160/07 RMK AO2 P0007
14926KSTC STC20011112192511911/12/01 19:25:31  5-MIN KSTC 130125Z AUTO 16008KT 6SM RA BR BKN032 OVC070 12/12 A3003 920 100 800 150/08 RMK AO2 P0009
14926KSTC STC20011112193011911/12/01 19:30:31  5-MIN KSTC 130130Z AUTO 15009KT 5SM RA BR BKN028 OVC070 12/12 A3003 930 100 800 150/09 RMK AO2 P0011
14926KSTC STC20011112193512611/12/01 19:35:31  5-MIN KSTC 130135Z AUTO 15010KT 4SM RA BR BKN028 BKN045 OVC070 12/12 A3002 930 100 800 140/10 RMK AO2 P0013
14926KSTC STC20011112194011911/12/01 19:40:31  5-MIN KSTC 130140Z AUTO 14011KT 5SM RA BR BKN028 OVC045 12/12 A3001 940 100 800 140/11 RMK AO2 P0014
14926KSTC STC20011112194511211/12/01 19:45:31  5-MIN KSTC 130145Z AUTO 13011KT 5SM RA BR OVC028 12/12 A3001 940 100 900 130/11 RMK AO2 P0016
14926KSTC STC20011112195013011/12/01 19:50:31  5-MIN KSTC 130150Z AUTO 14011KT 5SM -RA BR OVC030 12/12 A3001 940 100 900 140/11 RMK AO2 SLP176 P0017 T01220122
14926KSTC STC20011112195511311/12/01 19:55:31  5-MIN KSTC 130155Z AUTO 15013KT 5SM -RA BR OVC032 12/12 A3001 940 100 800 140/13 RMK AO2 P0000
14926KSTC STC20011112200011311/12/01 20:00:31  5-MIN KSTC 130200Z AUTO 14012KT 5SM -RA BR OVC035 12/12 A3001 950 100 800 140/12 RMK AO2 P0001
14926KSTC STC20011112200511311/12/01 20:05:31  5-MIN KSTC 130205Z AUTO 14011KT 6SM -RA BR OVC039 12/12 A3001 950 100 800 140/11 RMK AO2 P0002
14926KSTC STC20011112201012011/12/01 20:10:31  5-MIN KSTC 130210Z AUTO 15012KT 6SM -RA BR BKN041 OVC070 12/12 A3001 940 100 800 150/12 RMK AO2 P0002
14926KSTC STC20011112201512011/12/01 20:15:31  5-MIN KSTC 130215Z AUTO 15013KT 6SM -RA BR BKN041 OVC070 12/12 A3001 950 100 800 150/13 RMK AO2 P0003
14926KSTC STC20011112202012011/12/01 20:20:31  5-MIN KSTC 130220Z AUTO 15012KT 6SM -RA BR BKN046 OVC070 12/12 A3000 950 100 800 140/12 RMK AO2 P0004
14926KSTC STC20011112202512011/12/01 20:25:31  5-MIN KSTC 130225Z AUTO 15012KT 6SM -RA BR BKN050 OVC070 12/12 A3000 950 100 800 150/12 RMK AO2 P0004
14926KSTC STC20011112203011711/12/01 20:30:31  5-MIN KSTC 130230Z AUTO 15009KT 7SM -RA SCT055 OVC070 12/12 A3001 940 100 800 150/09 RMK AO2 P0005
14926KSTC STC20011112203511711/12/01 20:35:31  5-MIN KSTC 130235Z AUTO 16009KT 7SM -RA FEW055 OVC070 12/12 A3001 940 100 800 160/09 RMK AO2 P0005
14926KSTC STC20011112204010911/12/01 20:40:31  5-MIN KSTC 130240Z AUTO 16011KT 7SM -RA OVC065 12/12 A3002 940 96 900 160/11 RMK AO2 P0006
14926KSTC STC20011112204510911/12/01 20:45:31  5-MIN KSTC 130245Z AUTO 16009KT 7SM -RA OVC065 12/12 A3001 940 96 900 160/09 RMK AO2 P0006
14926KSTC STC20011112205015411/12/01 20:50:31  5-MIN KSTC 130250Z AUTO 16010KT 6SM RA BR SCT030 SCT050 OVC070 12/12 A3001 950 96 900 160/10 RMK AO2 SLP174 P0009 60038 T01220117 53007
14926KSTC STC20011112205512511/12/01 20:55:31  5-MIN KSTC 130255Z AUTO 15010KT 5SM RA BR BKN024 BKN050 OVC070 12/11 A3001 950 96 800 150/10 RMK AO2 P0001
14926KSTC STC20011112210011811/12/01 21:00:31  5-MIN KSTC 130300Z AUTO 15009KT 5SM RA BR BKN026 OVC065 12/11 A3001 950 96 800 140/09 RMK AO2 P0003
14926KSTC STC20011112210512711/12/01 21:05:31  5-MIN KSTC 130305Z AUTO 15011KT 5SM -RA BR BKN028 BKN050 OVC070 12/12 A3001 940 100 800 150/11 RMK AO2 P0004
14926KSTC STC20011112211012011/12/01 21:10:31  5-MIN KSTC 130310Z AUTO 15011KT 4SM -RA BR BKN030 OVC070 12/12 A3000 950 100 800 140/11 RMK AO2 P0005
14926KSTC STC20011112211511111/12/01 21:15:31  5-MIN KSTC 130315Z AUTO 14012KT 4SM RA BR OVC030 12/11 A3000 950 96 800 140/12 RMK AO2 P0007
14926KSTC STC20011112212011211/12/01 21:20:31  5-MIN KSTC 130320Z AUTO 15012KT 4SM -RA BR OVC028 12/11 A3000 950 96 800 150/12 RMK AO2 P0008
14926KSTC STC20011112212512611/12/01 21:25:31  5-MIN KSTC 130325Z AUTO 15011KT 4SM RA BR BKN028 BKN043 OVC055 11/11 A3000 950 100 700 150/11 RMK AO2 P0010
14926KSTC STC20011112213012611/12/01 21:30:31  5-MIN KSTC 130330Z AUTO 15011KT 4SM -RA BR BKN032 BKN043 OVC055 11/11 A3000 950 96 700 140/11 RMK AO2 P0011
14926KSTC STC20011112213512611/12/01 21:35:31  5-MIN KSTC 130335Z AUTO 15010KT 5SM -RA BR BKN030 BKN043 OVC070 11/11 A3001 950 96 700 150/10 RMK AO2 P0012
14926KSTC STC20011112214012611/12/01 21:40:31  5-MIN KSTC 130340Z AUTO 15009KT 5SM -RA BR SCT030 BKN042 OVC060 11/11 A3001 950 96 700 150/09 RMK AO2 P0013
14926KSTC STC20011112214512511/12/01 21:45:31  5-MIN KSTC 130345Z AUTO 15010KT 5SM RA BR SCT030 BKN042 OVC055 11/11 A3001 950 96 700 150/10 RMK AO2 P0014
14926KSTC STC20011112215014211/12/01 21:50:31  5-MIN KSTC 130350Z AUTO 15014KT 5SM RA BR BKN032 BKN042 OVC060 11/10 A3000 950 93 800 150/14 RMK AO2 SLP171 P0015 T01110100
14926KSTC STC20011112215512611/12/01 21:55:31  5-MIN KSTC 130355Z AUTO 14011KT 5SM -RA BR FEW030 BKN037 OVC050 11/10 A3000 950 96 700 140/11 RMK AO2 P0000
14926KSTC STC20011112220012611/12/01 22:00:31  5-MIN KSTC 130400Z AUTO 14012KT 6SM -RA BR FEW034 BKN042 OVC060 11/09 A3000 950 93 700 140/12 RMK AO2 P0001
14926KSTC STC20011112220511611/12/01 22:05:31  5-MIN KSTC 130405Z AUTO 14012KT 8SM -RA SCT033 OVC047 11/09 A2999 960 93 700 140/12 RMK AO2 P0001
14926KSTC STC20011112221011711/12/01 22:10:31  5-MIN KSTC 130410Z AUTO 15011KT 10SM -RA BKN033 OVC047 11/09 A2999 960 93 700 140/11 RMK AO2 P0001
14926KSTC STC20011112221512411/12/01 22:15:31  5-MIN KSTC 130415Z AUTO 15012KT 10SM -RA BKN031 BKN036 OVC049 11/09 A2999 970 93 700 140/12 RMK AO2 P0001
14926KSTC STC20011112222012411/12/01 22:20:31  5-MIN KSTC 130420Z AUTO 15011KT 10SM -RA BKN029 BKN036 OVC049 10/09 A2998 970 96 600 140/11 RMK AO2 P0001
14926KSTC STC20011112222512611/12/01 22:25:31  5-MIN KSTC 130425Z AUTO 14012KT 10SM BKN029 BKN036 OVC060 10/09 A2998 970 96 600 140/12 RMK AO2 RAE24 P0001
14926KSTC STC20011112223011211/12/01 22:30:31  5-MIN KSTC 130430Z AUTO 15012KT 10SM OVC029 10/09 A2998 970 96 600 140/12 RMK AO2 RAE24 P0001
14926KSTC STC20011112223511211/12/01 22:35:31  5-MIN KSTC 130435Z AUTO 15012KT 10SM OVC029 10/09 A2998 970 96 600 150/12 RMK AO2 RAE24 P0001
14926KSTC STC20011112224011211/12/01 22:40:31  5-MIN KSTC 130440Z AUTO 15011KT 10SM OVC029 10/09 A2998 970 96 600 150/11 RMK AO2 RAE24 P0001
14926KSTC STC20011112224511211/12/01 22:45:31  5-MIN KSTC 130445Z AUTO 15012KT 10SM OVC029 10/09 A2997 980 96 700 150/12 RMK AO2 RAE24 P0001
14926KSTC STC20011112225012911/12/01 22:50:31  5-MIN KSTC 130450Z AUTO 15011KT 10SM OVC027 10/09 A2997 980 96 700 150/11 RMK AO2 RAE24 SLP161 P0001 T01000094
14926KSTC STC20011112225510011/12/01 22:55:31  5-MIN KSTC 130455Z AUTO 15010KT 10SM OVC027 10/09 A2997 980 96 700 150/10 RMK AO2
14926KSTC STC20011112230010011/12/01 23:00:31  5-MIN KSTC 130500Z AUTO 15010KT 10SM OVC027 10/09 A2996 990 96 700 140/10 RMK AO2
14926KSTC STC20011112230510911/12/01 23:05:31  5-MIN KSTC 130505Z AUTO 14009KT 10SM TS OVC027 10/09 A2996 990 96 700 140/09 RMK AO2 TSB01
14926KSTC STC20011112231010911/12/01 23:10:31  5-MIN KSTC 130510Z AUTO 15011KT 10SM TS OVC027 10/09 A2996 990 96 700 150/11 RMK AO2 TSB01
14926KSTC STC20011112231510911/12/01 23:15:31  5-MIN KSTC 130515Z AUTO 15011KT 10SM OVC027 10/09 A2996 990 96 700 150/11 RMK AO2 TSB01E15
14926KSTC STC20011112232010911/12/01 23:20:31  5-MIN KSTC 130520Z AUTO 15011KT 10SM OVC027 10/09 A2996 990 96 700 150/11 RMK AO2 TSB01E15
14926KSTC STC20011112232510911/12/01 23:25:31  5-MIN KSTC 130525Z AUTO 15011KT 10SM OVC027 10/09 A2996 990 96 700 140/11 RMK AO2 TSB01E15
14926KSTC STC20011112233010911/12/01 23:30:31  5-MIN KSTC 130530Z AUTO 15012KT 10SM OVC027 10/09 A2996 990 96 700 150/12 RMK AO2 TSB01E15
14926KSTC STC20011112233510911/12/01 23:35:31  5-MIN KSTC 130535Z AUTO 16010KT 10SM OVC025 10/09 A2996 990 93 700 160/10 RMK AO2 TSB01E15
14926KSTC STC20011112234010911/12/01 23:40:31  5-MIN KSTC 130540Z AUTO 16010KT 10SM OVC025 10/09 A2996 990 93 700 150/10 RMK AO2 TSB01E15
14926KSTC STC20011112234510911/12/01 23:45:31  5-MIN KSTC 130545Z AUTO 16011KT 10SM OVC025 10/09 A2996 990 93 700 160/11 RMK AO2 TSB01E15
14926KSTC STC20011112235016111/12/01 23:50:31  5-MIN KSTC 130550Z AUTO 16011KT 10SM OVC025 10/09 A2995 1000 93 700 160/11 RMK AO2 TSB01E15 SLP154 60056 T01000089 10128 20100 401720017 58009
14926KSTC STC20011112235510111/12/01 23:55:31  5-MIN KSTC 130555Z AUTO 16011KT 10SM BKN025 10/09 A2995 1000 93 700 160/11 RMK AO2
14926KSTC STC20011113000010111/13/01 00:00:31  5-MIN KSTC 130600Z AUTO 16011KT 10SM BKN025 10/09 A2995 1000 93 700 150/11 RMK AO2
14926KSTC STC20011113000510111/13/01 00:05:31  5-MIN KSTC 130605Z AUTO 16009KT 10SM BKN025 10/09 A2995 1000 93 700 160/09 RMK AO2
14926KSTC STC20011113001010811/13/01 00:10:31  5-MIN KSTC 130610Z AUTO 15009KT 10SM BKN023 BKN050 10/09 A2995 1000 93 700 150/09 RMK AO2
14926KSTC STC20011113001510111/13/01 00:15:31  5-MIN KSTC 130615Z AUTO 16009KT 10SM BKN023 09/09 A2995 1000 96 600 160/09 RMK AO2
14926KSTC STC20011113002010111/13/01 00:20:31  5-MIN KSTC 130620Z AUTO 16010KT 10SM BKN023 09/09 A2994 1000 96 600 160/10 RMK AO2
14926KSTC STC20011113002510111/13/01 00:25:31  5-MIN KSTC 130625Z AUTO 16011KT 10SM BKN021 10/09 A2994 1000 93 700 160/11 RMK AO2
14926KSTC STC20011113003010111/13/01 00:30:31  5-MIN KSTC 130630Z AUTO 16010KT 10SM BKN021 10/09 A2994 1010 93 700 160/10 RMK AO2
14926KSTC STC20011113003510111/13/01 00:35:31  5-MIN KSTC 130635Z AUTO 17010KT 10SM BKN021 10/09 A2994 1010 93 700 160/10 RMK AO2
14926KSTC STC20011113004010811/13/01 00:40:31  5-MIN KSTC 130640Z AUTO 16010KT 10SM SCT021 BKN120 10/09 A2994 1010 93 700 160/10 RMK AO2
14926KSTC STC20011113004510811/13/01 00:45:31  5-MIN KSTC 130645Z AUTO 16009KT 10SM SCT021 BKN120 09/09 A2994 1010 96 600 160/09 RMK AO2
14926KSTC STC20011113005012511/13/01 00:50:31  5-MIN KSTC 130650Z AUTO 16008KT 10SM FEW021 OVC120 09/09 A2993 1020 96 600 160/08 RMK AO2 SLP147 T00940089
14926KSTC STC20011113005510811/13/01 00:55:31  5-MIN KSTC 130655Z AUTO 17009KT 10SM FEW021 BKN120 10/09 A2993 1020 93 700 160/09 RMK AO2
14926KSTC STC20011113010010111/13/01 01:00:31  5-MIN KSTC 130700Z AUTO 17011KT 10SM BKN120 10/09 A2993 1020 93 700 170/11 RMK AO2
14926KSTC STC20011113010510111/13/01 01:05:31  5-MIN KSTC 130705Z AUTO 18009KT 10SM BKN120 10/09 A2993 1020 93 700 170/09 RMK AO2
14926KSTC STC20011113011010111/13/01 01:10:31  5-MIN KSTC 130710Z AUTO 18007KT 10SM BKN120 10/09 A2993 1020 93 700 170/07 RMK AO2
14926KSTC STC20011113011510111/13/01 01:15:31  5-MIN KSTC 130715Z AUTO 18007KT 10SM BKN120 09/09 A2993 1020 96 600 180/07 RMK AO2
14926KSTC STC20011113012010711/13/01 01:20:31  5-MIN KSTC 130720Z AUTO 19010KT 9SM FEW027 BKN120 09/09 A2993 1020 96 600 180/10 RMK AO2
14926KSTC STC20011113012510711/13/01 01:25:31  5-MIN KSTC 130725Z AUTO 19008KT 9SM SCT027 BKN120 09/09 A2993 1020 96 600 190/08 RMK AO2
14926KSTC STC20011113013010711/13/01 01:30:31  5-MIN KSTC 130730Z AUTO 19008KT 9SM BKN027 OVC120 09/09 A2993 1020 96 600 190/08 RMK AO2
14926KSTC STC20011113013510711/13/01 01:35:31  5-MIN KSTC 130735Z AUTO 19008KT 9SM BKN027 BKN120 09/09 A2993 1020 96 600 190/08 RMK AO2
14926KSTC STC20011113014010711/13/01 01:40:31  5-MIN KSTC 130740Z AUTO 19007KT 8SM BKN027 BKN120 09/09 A2993 1020 96 600 190/07 RMK AO2
14926KSTC STC20011113014510011/13/01 01:45:31  5-MIN KSTC 130745Z AUTO 19008KT 8SM BKN027 09/09 A2993 1020 96 600 180/08 RMK AO2
14926KSTC STC20011113015011711/13/01 01:50:31  5-MIN KSTC 130750Z AUTO 19008KT 8SM BKN027 09/09 A2993 1020 96 600 190/08 RMK AO2 SLP144 T00940089
14926KSTC STC20011113015510111/13/01 01:55:31  5-MIN KSTC 130755Z AUTO 19007KT 8SM SCT027 09/09 A2993 1020 100 600 190/07 RMK AO2
14926KSTC STC20011113020010111/13/01 02:00:31  5-MIN KSTC 130800Z AUTO 19007KT 7SM SCT025 09/09 A2993 1020 100 600 190/07 RMK AO2
14926KSTC STC20011113020510111/13/01 02:05:31  5-MIN KSTC 130805Z AUTO 19007KT 7SM FEW025 09/09 A2993 1020 100 600 180/07 RMK AO2
14926KSTC STC20011113021010111/13/01 02:10:31  5-MIN KSTC 130810Z AUTO 18007KT 7SM FEW015 09/09 A2993 1020 100 600 180/07 RMK AO2
14926KSTC STC20011113021510111/13/01 02:15:31  5-MIN KSTC 130815Z AUTO 18007KT 7SM FEW015 09/09 A2993 1020 100 600 180/07 RMK AO2
14926KSTC STC20011113022010111/13/01 02:20:31  5-MIN KSTC 130820Z AUTO 18007KT 7SM FEW015 09/09 A2993 1020 100 600 180/07 RMK AO2
14926KSTC STC20011113022510111/13/01 02:25:31  5-MIN KSTC 130825Z AUTO 18007KT 7SM FEW015 09/09 A2993 1020 100 600 180/07 RMK AO2
14926KSTC STC20011113023010111/13/01 02:30:31  5-MIN KSTC 130830Z AUTO 19007KT 7SM FEW015 09/09 A2993 1020 100 600 180/07 RMK AO2
14926KSTC STC20011113023510111/13/01 02:35:31  5-MIN KSTC 130835Z AUTO 19006KT 7SM FEW015 09/09 A2993 1020 100 600 190/06 RMK AO2
14926KSTC STC20011113024010411/13/01 02:40:31  5-MIN KSTC 130840Z AUTO 19006KT 6SM BR FEW013 09/09 A2993 1020 100 600 190/06 RMK AO2
14926KSTC STC20011113024510111/13/01 02:45:31  5-MIN KSTC 130845Z AUTO 19006KT 6SM BR CLR 08/08 A2993 1020 100 500 190/06 RMK AO2
14926KSTC STC20011113025012411/13/01 02:50:31  5-MIN KSTC 130850Z AUTO 19005KT 6SM BR CLR 08/08 A2992 1020 100 500 190/05 RMK AO2 SLP143 T00830083 58018
14926KSTC STC20011113025510111/13/01 02:55:31  5-MIN KSTC 130855Z AUTO 20005KT 5SM BR CLR 08/08 A2992 1020 100 400 190/05 RMK AO2
14926KSTC STC20011113030010111/13/01 03:00:31  5-MIN KSTC 130900Z AUTO 20005KT 5SM BR CLR 08/08 A2992 1020 100 400 190/05 RMK AO2
14926KSTC STC20011113030510111/13/01 03:05:31  5-MIN KSTC 130905Z AUTO 19005KT 4SM BR CLR 07/07 A2992 1030 100 400 190/05 RMK AO2
14926KSTC STC20011113031010111/13/01 03:10:31  5-MIN KSTC 130910Z AUTO 19005KT 4SM BR CLR 08/08 A2992 1030 100 400 180/05 RMK AO2
14926KSTC STC20011113031510111/13/01 03:15:31  5-MIN KSTC 130915Z AUTO 19006KT 4SM BR CLR 08/08 A2992 1030 100 400 190/06 RMK AO2
14926KSTC STC20011113032010111/13/01 03:20:31  5-MIN KSTC 130920Z AUTO 19006KT 4SM BR CLR 08/08 A2992 1030 100 400 190/06 RMK AO2
14926KSTC STC20011113032510111/13/01 03:25:31  5-MIN KSTC 130925Z AUTO 19006KT 3SM BR CLR 07/07 A2992 1030 100 400 180/06 RMK AO2
14926KSTC STC20011113033010111/13/01 03:30:31  5-MIN KSTC 130930Z AUTO 19006KT 3SM BR CLR 07/07 A2992 1030 100 400 190/06 RMK AO2
14926KSTC STC20011113033510511/13/01 03:35:31  5-MIN KSTC 130935Z AUTO 19005KT 2 1/2SM BR CLR 07/07 A2992 1030 100 400 180/05 RMK AO2
14926KSTC STC20011113034010111/13/01 03:40:31  5-MIN KSTC 130940Z AUTO 19006KT 2SM BR CLR 07/07 A2992 1030 100 400 180/06 RMK AO2
14926KSTC STC20011113034510511/13/01 03:45:31  5-MIN KSTC 130945Z AUTO 19005KT 1 1/2SM BR CLR 07/07 A2992 1030 100 400 190/05 RMK AO2
14926KSTC STC20011113035011811/13/01 03:50:31  5-MIN KSTC 130950Z AUTO 19006KT 1SM BR CLR 07/07 A2992 1030 100 400 190/06 RMK AO2 SLP141 T00720072
14926KSTC STC20011113035510511/13/01 03:55:31  5-MIN KSTC 130955Z AUTO 18005KT 1/2SM FG VV001 07/07 A2992 1030 100 300 180/05 RMK AO2
14926KSTC STC20011113040011311/13/01 04:00:31  5-MIN KSTC 131000Z AUTO 19005KT 1/4SM FG SCT001 BKN017 06/06 A2992 1030 100 200 190/05 RMK AO2
14926KSTC STC20011113040512011/13/01 04:05:31  5-MIN KSTC 131005Z AUTO 18004KT 1/4SM FG SCT001 BKN009 BKN017 06/06 A2992 1030 100 200 180/04 RMK AO2
14926KSTC STC20011113041012011/13/01 04:10:31  5-MIN KSTC 131010Z AUTO 17005KT 1/4SM FG FEW001 BKN009 BKN017 06/06 A2992 1030 100 200 170/05 RMK AO2
14926KSTC STC20011113041512011/13/01 04:15:31  5-MIN KSTC 131015Z AUTO 17004KT 1/4SM FG FEW001 BKN009 OVC017 07/07 A2992 1030 100 300 170/04 RMK AO2
14926KSTC STC20011113042011311/13/01 04:20:31  5-MIN KSTC 131020Z AUTO 18004KT 1/4SM FG FEW001 OVC009 06/06 A2992 1030 100 200 180/04 RMK AO2
14926KSTC STC20011113042511311/13/01 04:25:31  5-MIN KSTC 131025Z AUTO 17004KT 1/4SM FG FEW001 OVC009 06/06 A2992 1030 100 200 170/04 RMK AO2
14926KSTC STC20011113043011311/13/01 04:30:31  5-MIN KSTC 131030Z AUTO 16003KT 1/4SM FG FEW001 OVC009 06/06 A2991 1030 100 200 160/03 RMK AO2
14926KSTC STC20011113043511311/13/01 04:35:31  5-MIN KSTC 131035Z AUTO 16004KT 1/4SM FG FEW001 OVC009 06/06 A2991 1030 100 200 160/04 RMK AO2
14926KSTC STC20011113044011311/13/01 04:40:31  5-MIN KSTC 131040Z AUTO 17005KT 1/4SM FG FEW001 OVC009 06/06 A2992 1030 100 200 160/05 RMK AO2
14926KSTC STC20011113044511311/13/01 04:45:31  5-MIN KSTC 131045Z AUTO 18004KT 1/4SM FG SCT001 OVC009 06/06 A2992 1020 100 200 180/04 RMK AO2
14926KSTC STC20011113045013011/13/01 04:50:31  5-MIN KSTC 131050Z AUTO 19004KT 1/4SM FG SCT001 OVC007 05/05 A2992 1020 100 100 190/04 RMK AO2 SLP146 T00500050
14926KSTC STC20011113045511311/13/01 04:55:31  5-MIN KSTC 131055Z AUTO 19006KT 1/4SM FG SCT001 OVC007 06/06 A2993 1020 100 200 190/06 RMK AO2
14926KSTC STC20011113050011311/13/01 05:00:31  5-MIN KSTC 131100Z AUTO 20004KT 1/4SM FG SCT001 OVC007 06/06 A2993 1020 100 200 190/04 RMK AO2
14926KSTC STC20011113050511311/13/01 05:05:31  5-MIN KSTC 131105Z AUTO 20003KT 1/4SM FG SCT001 OVC007 06/06 A2993 1020 100 200 200/03 RMK AO2
14926KSTC STC20011113051011311/13/01 05:10:31  5-MIN KSTC 131110Z AUTO 20006KT 1/4SM FG SCT001 OVC007 06/06 A2992 1020 100 200 200/06 RMK AO2
14926KSTC STC20011113051511311/13/01 05:15:31  5-MIN KSTC 131115Z AUTO 20005KT 1/4SM FG SCT001 OVC007 06/06 A2992 1020 100 200 200/05 RMK AO2
14926KSTC STC20011113052011311/13/01 05:20:31  5-MIN KSTC 131120Z AUTO 20005KT 1/4SM FG SCT001 OVC007 06/06 A2993 1020 100 200 200/05 RMK AO2
14926KSTC STC20011113052511311/13/01 05:25:31  5-MIN KSTC 131125Z AUTO 20004KT 1/4SM FG SCT001 OVC007 06/06 A2993 1020 100 200 190/04 RMK AO2
14926KSTC STC20011113053011311/13/01 05:30:31  5-MIN KSTC 131130Z AUTO 19003KT 1/4SM FG SCT001 OVC007 06/06 A2993 1020 100 200 190/03 RMK AO2
14926KSTC STC20011113053511311/13/01 05:35:31  5-MIN KSTC 131135Z AUTO 19004KT 1/4SM FG SCT001 OVC007 05/05 A2993 1020 100 100 190/04 RMK AO2
14926KSTC STC20011113054011311/13/01 05:40:31  5-MIN KSTC 131140Z AUTO 18003KT 1/4SM FG SCT001 OVC007 05/05 A2993 1020 100 100 170/03 RMK AO2
14926KSTC STC20011113054511311/13/01 05:45:31  5-MIN KSTC 131145Z AUTO 17003KT 1/4SM FG SCT001 OVC007 05/05 A2992 1020 100 100 160/03 RMK AO2
14926KSTC STC20011113055015411/13/01 05:50:31  5-MIN KSTC 131150Z AUTO 17004KT 1/4SM FG FEW001 OVC009 05/05 A2993 1020 100 100 170/04 RMK AO2 SLP147 70074 T00500050 10100 20050 56010
14926KSTC STC20011113055511311/13/01 05:55:31  5-MIN KSTC 131155Z AUTO 17004KT 1/4SM FG FEW001 OVC009 05/05 A2993 1020 100 100 160/04 RMK AO2
14926KSTC STC20011113060011311/13/01 06:00:31  5-MIN KSTC 131200Z AUTO 16004KT 1/4SM FG FEW001 OVC009 05/05 A2993 1020 100 100 160/04 RMK AO2
14926KSTC STC20011113060511311/13/01 06:05:31  5-MIN KSTC 131205Z AUTO 16004KT 1/4SM FG FEW001 OVC009 05/05 A2993 1020 100 100 160/04 RMK AO2
14926KSTC STC20011113061011311/13/01 06:10:31  5-MIN KSTC 131210Z AUTO 17005KT 1/4SM FG SCT001 OVC009 05/05 A2993 1020 100 100 170/05 RMK AO2
14926KSTC STC20011113061511311/13/01 06:15:31  5-MIN KSTC 131215Z AUTO 17004KT 1/4SM FG SCT001 OVC009 05/05 A2993 1020 100 100 170/04 RMK AO2
14926KSTC STC20011113062011311/13/01 06:20:31  5-MIN KSTC 131220Z AUTO 18004KT 1/4SM FG SCT001 OVC009 05/05 A2993 1020 100 100 180/04 RMK AO2
14926KSTC STC20011113062511311/13/01 06:25:31  5-MIN KSTC 131225Z AUTO 18003KT 1/4SM FG SCT001 OVC009 05/05 A2993 1020 100 100 180/03 RMK AO2
14926KSTC STC20011113063011311/13/01 06:30:31  5-MIN KSTC 131230Z AUTO 18004KT 1/4SM FG SCT001 OVC009 05/05 A2993 1020 100 100 180/04 RMK AO2
14926KSTC STC20011113063511111/13/01 06:35:31  5-MIN KSTC 131235Z AUTO 18003KT 1/4SM FG SCT001 OVC009 04/04 A2993 1020 100 0 180/03 RMK AO2
14926KSTC STC20011113064011311/13/01 06:40:31  5-MIN KSTC 131240Z AUTO 00000KT 1/4SM FG SCT001 OVC009 05/05 A2993 1020 100 100 000/00 RMK AO2
14926KSTC STC20011113064511311/13/01 06:45:31  5-MIN KSTC 131245Z AUTO 18003KT 1/4SM FG SCT001 OVC009 05/05 A2993 1020 100 100 170/03 RMK AO2
14926KSTC STC20011113065012811/13/01 06:50:31  5-MIN KSTC 131250Z AUTO 16003KT 1/4SM FG SCT001 OVC009 04/04 A2993 1010 100 0 160/03 RMK AO2 SLP150 T00440044
14926KSTC STC20011113065511311/13/01 06:55:31  5-MIN KSTC 131255Z AUTO 15003KT 1/4SM FG SCT001 OVC009 05/05 A2993 1020 100 100 150/03 RMK AO2
14926KSTC STC20011113070011111/13/01 07:00:31  5-MIN KSTC 131300Z AUTO 15004KT 1/4SM FG BKN001 OVC009 04/04 A2993 1020 100 0 150/04 RMK AO2
14926KSTC STC20011113070511111/13/01 07:05:31  5-MIN KSTC 131305Z AUTO 14004KT 1/4SM FG BKN001 OVC009 04/04 A2993 1020 100 0 140/04 RMK AO2
14926KSTC STC20011113071011311/13/01 07:10:31  5-MIN KSTC 131310Z AUTO 14004KT 1/4SM FG SCT001 OVC009 05/05 A2993 1020 100 100 140/04 RMK AO2
14926KSTC STC20011113071511311/13/01 07:15:31  5-MIN KSTC 131315Z AUTO 14003KT 1/4SM FG SCT001 OVC009 05/05 A2993 1010 100 100 130/03 RMK AO2
14926KSTC STC20011113072011411/13/01 07:20:31  5-MIN KSTC 131320Z AUTO 13003KT M1/4SM FG SCT001 OVC009 05/05 A2993 1010 100 100 130/03 RMK AO2
14926KSTC STC20011113072511411/13/01 07:25:31  5-MIN KSTC 131325Z AUTO 14003KT M1/4SM FG SCT001 OVC009 05/05 A2993 1010 100 100 130/03 RMK AO2
14926KSTC STC20011113073011411/13/01 07:30:31  5-MIN KSTC 131330Z AUTO 14005KT M1/4SM FG SCT001 OVC009 05/05 A2994 1010 100 100 140/05 RMK AO2
14926KSTC STC20011113073511411/13/01 07:35:31  5-MIN KSTC 131335Z AUTO 15005KT M1/4SM FG SCT001 OVC009 05/05 A2994 1010 100 100 140/05 RMK AO2
14926KSTC STC20011113074011411/13/01 07:40:31  5-MIN KSTC 131340Z AUTO 15005KT M1/4SM FG BKN001 OVC009 05/05 A2994 1010 100 100 150/05 RMK AO2
14926KSTC STC20011113074511411/13/01 07:45:31  5-MIN KSTC 131345Z AUTO 15006KT M1/4SM FG BKN001 OVC009 05/05 A2994 1010 100 100 150/06 RMK AO2
14926KSTC STC20011113075013011/13/01 07:50:31  5-MIN KSTC 131350Z AUTO 14005KT 1/4SM FG BKN001 OVC009 05/05 A2994 1010 100 100 140/05 RMK AO2 SLP153 T00500050
14926KSTC STC20011113075511411/13/01 07:55:31  5-MIN KSTC 131355Z AUTO 14004KT M1/4SM FG BKN001 OVC009 05/05 A2994 1010 100 100 140/04 RMK AO2
14926KSTC STC20011113080010611/13/01 08:00:31  5-MIN KSTC 131400Z AUTO 15005KT M1/4SM FG VV001 05/05 A2995 1000 100 100 140/05 RMK AO2
14926KSTC STC20011113080510611/13/01 08:05:31  5-MIN KSTC 131405Z AUTO 16004KT M1/4SM FG VV001 05/05 A2994 1000 100 100 150/04 RMK AO2
14926KSTC STC20011113081010611/13/01 08:10:31  5-MIN KSTC 131410Z AUTO 16004KT M1/4SM FG VV001 05/05 A2995 1000 100 100 160/04 RMK AO2
14926KSTC STC20011113081510611/13/01 08:15:31  5-MIN KSTC 131415Z AUTO 17005KT M1/4SM FG VV001 06/06 A2995 1000 100 100 170/05 RMK AO2
14926KSTC STC20011113082010611/13/01 08:20:31  5-MIN KSTC 131420Z AUTO 17005KT M1/4SM FG VV001 06/06 A2995 1000 100 100 170/05 RMK AO2
14926KSTC STC20011113082510511/13/01 08:25:31  5-MIN KSTC 131425Z AUTO 17005KT 1/4SM FG VV001 06/06 A2995 1000 100 100 170/05 RMK AO2
14926KSTC STC20011113083010511/13/01 08:30:31  5-MIN KSTC 131430Z AUTO 17004KT 1/4SM FG VV001 06/06 A2995 1000 100 100 170/04 RMK AO2
14926KSTC STC20011113083510411/13/01 08:35:31  5-MIN KSTC 131435Z AUTO 18004KT 1/4SM FG VV001 06/06 A2995 990 100 100 170/04 RMK AO2
14926KSTC STC20011113084010411/13/01 08:40:31  5-MIN KSTC 131440Z AUTO 18004KT 1/4SM FG VV001 06/06 A2996 990 100 200 180/04 RMK AO2
14926KSTC STC20011113084510411/13/01 08:45:31  5-MIN KSTC 131445Z AUTO 18005KT 1/4SM FG VV001 06/06 A2996 990 100 200 180/05 RMK AO2
14926KSTC STC20011113085012711/13/01 08:50:31  5-MIN KSTC 131450Z AUTO 18007KT 1/4SM FG VV001 06/06 A2996 990 100 200 180/07 RMK AO2 SLP157 T00610061 53001
14926KSTC STC20011113085510411/13/01 08:55:31  5-MIN KSTC 131455Z AUTO 19005KT 1/4SM FG VV001 06/06 A2996 990 100 200 190/05 RMK AO2
14926KSTC STC20011113090010411/13/01 09:00:31  5-MIN KSTC 131500Z AUTO 19007KT 1/4SM FG VV001 06/06 A2996 990 100 200 190/07 RMK AO2
14926KSTC STC20011113090510411/13/01 09:05:31  5-MIN KSTC 131505Z AUTO 19008KT 1/4SM FG VV001 06/06 A2996 990 100 200 190/08 RMK AO2
14926KSTC STC20011113091010511/13/01 09:10:31  5-MIN KSTC 131510Z AUTO 18009KT 1/4SM FG VV001 07/07 A2995 1000 100 300 180/09 RMK AO2
14926KSTC STC20011113091510511/13/01 09:15:31  5-MIN KSTC 131515Z AUTO 19008KT 1/4SM FG VV001 07/07 A2995 1000 100 300 190/08 RMK AO2
14926KSTC STC20011113092010511/13/01 09:20:31  5-MIN KSTC 131520Z AUTO 19009KT 1/4SM FG VV001 07/07 A2995 1000 100 300 180/09 RMK AO2
14926KSTC STC20011113092510511/13/01 09:25:31  5-MIN KSTC 131525Z AUTO 19008KT 1/4SM FG VV001 07/07 A2995 1000 100 300 180/08 RMK AO2
14926KSTC STC20011113093010511/13/01 09:30:31  5-MIN KSTC 131530Z AUTO 19007KT 1/4SM FG VV001 07/07 A2995 1000 100 300 180/07 RMK AO2
14926KSTC STC20011113093510511/13/01 09:35:31  5-MIN KSTC 131535Z AUTO 19008KT 1/4SM FG VV001 07/07 A2995 1000 100 300 190/08 RMK AO2
14926KSTC STC20011113094010511/13/01 09:40:31  5-MIN KSTC 131540Z AUTO 19008KT 1/4SM FG VV001 07/07 A2995 1000 100 300 180/08 RMK AO2
14926KSTC STC20011113094510511/13/01 09:45:31  5-MIN KSTC 131545Z AUTO 20009KT 1/4SM FG VV001 08/08 A2995 1000 100 400 200/09 RMK AO2
14926KSTC STC20011113095012311/13/01 09:50:31  5-MIN KSTC 131550Z AUTO 20008KT 1/2SM FG OVC001 08/08 A2995 1000 100 400 200/08 RMK AO2 SLP154 T00780078
14926KSTC STC20011113095510611/13/01 09:55:31  5-MIN KSTC 131555Z AUTO 19005KT 1/2SM FG OVC001 08/08 A2995 1000 100 400 190/05 RMK AO2
14926KSTC STC20011113100010411/13/01 10:00:31  5-MIN KSTC 131600Z AUTO 20007KT 1SM BR OVC001 08/08 A2995 1000 100 400 190/07 RMK AO2
14926KSTC STC20011113100510411/13/01 10:05:31  5-MIN KSTC 131605Z AUTO 19005KT 2SM BR OVC001 08/08 A2995 1000 100 400 180/05 RMK AO2
14926KSTC STC20011113101010411/13/01 10:10:31  5-MIN KSTC 131610Z AUTO 17006KT 3SM BR OVC001 08/08 A2995 1000 100 400 170/06 RMK AO2
14926KSTC STC20011113101510411/13/01 10:15:31  5-MIN KSTC 131615Z AUTO 20007KT 4SM BR OVC001 08/08 A2995 1000 100 400 190/07 RMK AO2
14926KSTC STC20011113102010411/13/01 10:20:31  5-MIN KSTC 131620Z AUTO 19008KT 4SM BR OVC001 08/08 A2995 1000 100 400 180/08 RMK AO2
14926KSTC STC20011113102510411/13/01 10:25:31  5-MIN KSTC 131625Z AUTO 17008KT 4SM BR OVC003 08/08 A2995 1000 100 400 170/08 RMK AO2
14926KSTC STC20011113103010411/13/01 10:30:31  5-MIN KSTC 131630Z AUTO 18008KT 4SM BR OVC003 08/08 A2995 1000 100 400 180/08 RMK AO2
14926KSTC STC20011113103510411/13/01 10:35:31  5-MIN KSTC 131635Z AUTO 19008KT 4SM BR OVC003 08/08 A2995 1000 100 500 190/08 RMK AO2
14926KSTC STC20011113104010411/13/01 10:40:31  5-MIN KSTC 131640Z AUTO 18007KT 5SM BR OVC003 08/08 A2995 1000 100 400 170/07 RMK AO2
14926KSTC STC20011113104510411/13/01 10:45:31  5-MIN KSTC 131645Z AUTO 19008KT 4SM BR OVC003 08/08 A2995 1000 100 500 190/08 RMK AO2
14926KSTC STC20011113105013311/13/01 10:50:31  5-MIN KSTC 131650Z AUTO 20009KT 5SM BR OVC003 08/08 A2995 1000 100 400 200/09 RMK AO2 CIG 002V007 SLP155 T00780078
14926KSTC STC20011113105511611/13/01 10:55:31  5-MIN KSTC 131655Z AUTO 20009KT 6SM BR OVC003 08/08 A2995 1000 100 500 200/09 RMK AO2 CIG 002V007
14926KSTC STC20011113110011611/13/01 11:00:31  5-MIN KSTC 131700Z AUTO 18009KT 6SM BR OVC003 08/08 A2995 1000 100 500 180/09 RMK AO2 CIG 003V007
14926KSTC STC20011113110510411/13/01 11:05:31  5-MIN KSTC 131705Z AUTO 18009KT 6SM BR OVC003 08/08 A2994 1010 100 500 170/09 RMK AO2
14926KSTC STC20011113111010411/13/01 11:10:31  5-MIN KSTC 131710Z AUTO 17009KT 6SM BR OVC005 09/09 A2994 1010 100 600 170/09 RMK AO2
14926KSTC STC20011113111510411/13/01 11:15:31  5-MIN KSTC 131715Z AUTO 18009KT 6SM BR OVC005 09/09 A2994 1010 100 600 180/09 RMK AO2
14926KSTC STC20011113112010411/13/01 11:20:31  5-MIN KSTC 131720Z AUTO 19009KT 6SM BR OVC005 09/09 A2994 1010 100 600 190/09 RMK AO2
14926KSTC STC20011113112510111/13/01 11:25:31  5-MIN KSTC 131725Z AUTO 19009KT 7SM OVC005 09/09 A2993 1010 100 600 190/09 RMK AO2
14926KSTC STC20011113113010111/13/01 11:30:31  5-MIN KSTC 131730Z AUTO 19008KT 7SM OVC005 09/09 A2993 1010 100 600 190/08 RMK AO2
14926KSTC STC20011113113510011/13/01 11:35:31  5-MIN KSTC 131735Z AUTO 18008KT 7SM OVC005 09/09 A2994 1010 96 600 180/08 RMK AO2
14926KSTC STC20011113114011211/13/01 11:40:31  5-MIN KSTC 131740Z AUTO 18009KT 7SM OVC005 09/09 A2994 1010 96 600 180/09 RMK AO2 CIG 004V009
14926KSTC STC20011113114511211/13/01 11:45:31  5-MIN KSTC 131745Z AUTO 18009KT 7SM OVC005 10/09 A2994 1010 96 700 180/09 RMK AO2 CIG 005V009
14926KSTC STC20011113115013511/13/01 11:50:31  5-MIN KSTC 131750Z AUTO 20010KT 7SM OVC005 10/09 A2993 1010 96 700 190/10 RMK AO2 SLP149 T01000094 10100 20044 53010
14926KSTC STC20011113115510011/13/01 11:55:31  5-MIN KSTC 131755Z AUTO 20010KT 7SM OVC005 10/09 A2993 1020 96 700 200/10 RMK AO2
14926KSTC STC20011113120011211/13/01 12:00:31  5-MIN KSTC 131800Z AUTO 18009KT 7SM OVC007 10/09 A2993 1020 96 700 180/09 RMK AO2 CIG 005V010
14926KSTC STC20011113124010011/13/01 12:40:31  5-MIN KSTC 131840Z AUTO 19007KT 7SM BKN009 11/09 A2992 1030 93 800 180/07 RMK AO2
14926KSTC STC20011113124510011/13/01 12:45:31  5-MIN KSTC 131845Z AUTO 21008KT 7SM BKN009 11/09 A2992 1030 89 800 210/08 RMK AO2
14926KSTC STC20011113125011711/13/01 12:50:31  5-MIN KSTC 131850Z AUTO 19008KT 8SM SCT009 11/09 A2992 1030 89 800 180/08 RMK AO2 SLP143 T01110094
14926KSTC STC20011113125510011/13/01 12:55:31  5-MIN KSTC 131855Z AUTO 20009KT 8SM SCT009 12/10 A2992 1030 89 900 200/09 RMK AO2
14926KSTC STC20011113130010011/13/01 13:00:31  5-MIN KSTC 131900Z AUTO 19008KT 8SM FEW009 12/09 A2992 1030 86 900 190/08 RMK AO2
14926KSTC STC20011113130510011/13/01 13:05:31  5-MIN KSTC 131905Z AUTO 18006KT 8SM FEW009 12/10 A2991 1030 89 900 180/06 RMK AO2
14926KSTC STC20011113131009811/13/01 13:10:31  5-MIN KSTC 131910Z AUTO 20008KT 8SM CLR 12/09 A2991 1030 83 1000 200/08 RMK AO2
14926KSTC STC20011113131509811/13/01 13:15:31  5-MIN KSTC 131915Z AUTO 21008KT 8SM CLR 12/10 A2991 1030 86 1000 210/08 RMK AO2
14926KSTC STC20011113132009811/13/01 13:20:31  5-MIN KSTC 131920Z AUTO 21008KT 8SM CLR 12/10 A2992 1030 86 1000 210/08 RMK AO2
14926KSTC STC20011113132509811/13/01 13:25:31  5-MIN KSTC 131925Z AUTO 21005KT 8SM CLR 12/10 A2991 1030 86 1000 200/05 RMK AO2
14926KSTC STC20011113133009811/13/01 13:30:31  5-MIN KSTC 131930Z AUTO 20007KT 8SM CLR 13/10 A2991 1030 83 1100 200/07 RMK AO2
14926KSTC STC20011113133509811/13/01 13:35:31  5-MIN KSTC 131935Z AUTO 21006KT 8SM CLR 13/10 A2991 1030 83 1100 200/06 RMK AO2
14926KSTC STC20011113134009811/13/01 13:40:31  5-MIN KSTC 131940Z AUTO 20006KT 8SM CLR 13/10 A2991 1030 83 1100 200/06 RMK AO2
14926KSTC STC20011113134509811/13/01 13:45:31  5-MIN KSTC 131945Z AUTO 20005KT 8SM CLR 13/10 A2991 1030 83 1100 190/05 RMK AO2
14926KSTC STC20011113135011511/13/01 13:50:31  5-MIN KSTC 131950Z AUTO 20004KT 8SM CLR 13/10 A2991 1030 83 1100 200/04 RMK AO2 SLP141 T01280100
14926KSTC STC20011113135509811/13/01 13:55:31  5-MIN KSTC 131955Z AUTO 19006KT 8SM CLR 13/10 A2991 1030 80 1100 190/06 RMK AO2
14926KSTC STC20011113140009811/13/01 14:00:31  5-MIN KSTC 132000Z AUTO 19005KT 8SM CLR 13/11 A2991 1030 83 1100 180/05 RMK AO2
14926KSTC STC20011113140509811/13/01 14:05:31  5-MIN KSTC 132005Z AUTO 20008KT 8SM CLR 13/11 A2991 1030 83 1100 200/08 RMK AO2
14926KSTC STC20011113141009811/13/01 14:10:31  5-MIN KSTC 132010Z AUTO 19006KT 8SM CLR 13/10 A2991 1040 80 1100 190/06 RMK AO2
14926KSTC STC20011113141509811/13/01 14:15:31  5-MIN KSTC 132015Z AUTO 19008KT 8SM CLR 13/10 A2991 1040 80 1100 190/08 RMK AO2
14926KSTC STC20011113142009811/13/01 14:20:31  5-MIN KSTC 132020Z AUTO 19008KT 9SM CLR 14/10 A2991 1040 77 1200 190/08 RMK AO2
14926KSTC STC20011113142509811/13/01 14:25:31  5-MIN KSTC 132025Z AUTO 19007KT 9SM CLR 14/11 A2991 1040 80 1200 190/07 RMK AO2
14926KSTC STC20011113143009811/13/01 14:30:31  5-MIN KSTC 132030Z AUTO 18006KT 8SM CLR 14/11 A2991 1040 80 1200 180/06 RMK AO2
14926KSTC STC20011113143509811/13/01 14:35:31  5-MIN KSTC 132035Z AUTO 19007KT 8SM CLR 14/11 A2991 1040 77 1300 190/07 RMK AO2
14926KSTC STC20011113144009811/13/01 14:40:31  5-MIN KSTC 132040Z AUTO 19006KT 8SM CLR 14/11 A2991 1040 80 1200 180/06 RMK AO2
14926KSTC STC20011113144509811/13/01 14:45:31  5-MIN KSTC 132045Z AUTO 18006KT 8SM CLR 14/11 A2990 1040 77 1300 180/06 RMK AO2
14926KSTC STC20011113145012111/13/01 14:50:31  5-MIN KSTC 132050Z AUTO 18006KT 8SM CLR 14/11 A2990 1040 77 1300 180/06 RMK AO2 SLP137 T01440106 58007
14926KSTC STC20011113145509811/13/01 14:55:31  5-MIN KSTC 132055Z AUTO 18007KT 8SM CLR 14/11 A2990 1040 77 1300 170/07 RMK AO2
14926KSTC STC20011113150009811/13/01 15:00:31  5-MIN KSTC 132100Z AUTO 18006KT 8SM CLR 14/11 A2990 1040 77 1300 180/06 RMK AO2
14926KSTC STC20011113150509811/13/01 15:05:31  5-MIN KSTC 132105Z AUTO 18008KT 8SM CLR 14/11 A2991 1040 77 1300 170/08 RMK AO2
14926KSTC STC20011113151009811/13/01 15:10:31  5-MIN KSTC 132110Z AUTO 19008KT 8SM CLR 14/11 A2991 1040 77 1300 190/08 RMK AO2
14926KSTC STC20011113151509811/13/01 15:15:31  5-MIN KSTC 132115Z AUTO 20008KT 8SM CLR 14/11 A2991 1040 77 1300 190/08 RMK AO2
14926KSTC STC20011113152009811/13/01 15:20:31  5-MIN KSTC 132120Z AUTO 20006KT 8SM CLR 14/11 A2991 1040 77 1300 190/06 RMK AO2
14926KSTC STC20011113152509811/13/01 15:25:31  5-MIN KSTC 132125Z AUTO 19007KT 8SM CLR 14/11 A2991 1040 77 1300 190/07 RMK AO2
14926KSTC STC20011113153009811/13/01 15:30:31  5-MIN KSTC 132130Z AUTO 19008KT 8SM CLR 14/11 A2990 1040 77 1300 190/08 RMK AO2
14926KSTC STC20011113153509811/13/01 15:35:31  5-MIN KSTC 132135Z AUTO 19007KT 8SM CLR 14/11 A2990 1040 83 1200 190/07 RMK AO2
14926KSTC STC20011113154009811/13/01 15:40:31  5-MIN KSTC 132140Z AUTO 19007KT 8SM CLR 14/11 A2991 1040 83 1200 180/07 RMK AO2
14926KSTC STC20011113154509811/13/01 15:45:31  5-MIN KSTC 132145Z AUTO 19008KT 7SM CLR 14/11 A2991 1040 83 1200 180/08 RMK AO2
14926KSTC STC20011113155011511/13/01 15:50:31  5-MIN KSTC 132150Z AUTO 18006KT 7SM CLR 14/11 A2991 1040 83 1200 180/06 RMK AO2 SLP139 T01390111
14926KSTC STC20011113155509811/13/01 15:55:31  5-MIN KSTC 132155Z AUTO 17007KT 7SM CLR 14/11 A2990 1040 83 1200 160/07 RMK AO2
14926KSTC STC20011113160009811/13/01 16:00:31  5-MIN KSTC 132200Z AUTO 17007KT 7SM CLR 13/11 A2991 1040 86 1100 170/07 RMK AO2
14926KSTC STC20011113160510111/13/01 16:05:31  5-MIN KSTC 132205Z AUTO 18008KT 6SM BR CLR 13/11 A2991 1040 86 1100 180/08 RMK AO2
14926KSTC STC20011113161010111/13/01 16:10:31  5-MIN KSTC 132210Z AUTO 18007KT 6SM BR CLR 13/11 A2991 1040 86 1100 170/07 RMK AO2
14926KSTC STC20011113161510111/13/01 16:15:31  5-MIN KSTC 132215Z AUTO 18007KT 6SM BR CLR 13/11 A2991 1040 86 1100 180/07 RMK AO2
14926KSTC STC20011113162010111/13/01 16:20:31  5-MIN KSTC 132220Z AUTO 18007KT 6SM BR CLR 13/11 A2991 1040 89 1100 170/07 RMK AO2
14926KSTC STC20011113162510111/13/01 16:25:31  5-MIN KSTC 132225Z AUTO 18008KT 6SM BR CLR 13/11 A2991 1030 89 1100 170/08 RMK AO2
14926KSTC STC20011113163010111/13/01 16:30:31  5-MIN KSTC 132230Z AUTO 19007KT 6SM BR CLR 12/11 A2991 1030 89 1000 180/07 RMK AO2
14926KSTC STC20011113163510111/13/01 16:35:31  5-MIN KSTC 132235Z AUTO 18006KT 5SM BR CLR 12/11 A2991 1030 89 1000 180/06 RMK AO2
14926KSTC STC20011113164010011/13/01 16:40:31  5-MIN KSTC 132240Z AUTO 18005KT 5SM BR CLR 12/11 A2991 1030 93 900 180/05 RMK AO2
14926KSTC STC20011113164510311/13/01 16:45:31  5-MIN KSTC 132245Z AUTO 18005KT 5SM BR FEW013 12/11 A2991 1030 93 900 180/05 RMK AO2
14926KSTC STC20011113165012011/13/01 16:50:31  5-MIN KSTC 132250Z AUTO 18004KT 5SM BR SCT013 12/11 A2991 1030 93 900 180/04 RMK AO2 SLP143 T01170106
14926KSTC STC20011113165510311/13/01 16:55:31  5-MIN KSTC 132255Z AUTO 17004KT 5SM BR SCT013 11/11 A2991 1030 96 900 170/04 RMK AO2
14926KSTC STC20011113170010311/13/01 17:00:31  5-MIN KSTC 132300Z AUTO 16003KT 5SM BR FEW013 11/10 A2991 1030 96 800 160/03 RMK AO2
14926KSTC STC20011113170510311/13/01 17:05:31  5-MIN KSTC 132305Z AUTO 16003KT 6SM BR FEW013 11/11 A2991 1030 96 900 160/03 RMK AO2
14926KSTC STC20011113171010311/13/01 17:10:31  5-MIN KSTC 132310Z AUTO 00000KT 5SM BR FEW013 11/11 A2991 1030 96 900 000/00 RMK AO2
14926KSTC STC20011113171510411/13/01 17:15:31  5-MIN KSTC 132315Z AUTO 14003KT 5SM BR FEW013 11/11 A2991 1030 100 800 130/03 RMK AO2
14926KSTC STC20011113172010111/13/01 17:20:31  5-MIN KSTC 132320Z AUTO 14003KT 5SM BR CLR 11/11 A2991 1030 100 800 140/03 RMK AO2
14926KSTC STC20011113172510111/13/01 17:25:31  5-MIN KSTC 132325Z AUTO 14003KT 5SM BR CLR 10/10 A2991 1040 100 700 130/03 RMK AO2
14926KSTC STC20011113173010111/13/01 17:30:31  5-MIN KSTC 132330Z AUTO 14003KT 5SM BR CLR 11/11 A2991 1040 100 800 140/03 RMK AO2
14926KSTC STC20011113173510111/13/01 17:35:31  5-MIN KSTC 132335Z AUTO 14004KT 5SM BR CLR 11/11 A2991 1040 100 800 140/04 RMK AO2
14926KSTC STC20011113174010111/13/01 17:40:31  5-MIN KSTC 132340Z AUTO 15003KT 4SM BR CLR 09/09 A2991 1030 100 700 140/03 RMK AO2
14926KSTC STC20011113174510511/13/01 17:45:31  5-MIN KSTC 132345Z AUTO 14004KT 2 1/2SM BR CLR 08/08 A2991 1030 100 500 140/04 RMK AO2
14926KSTC STC20011113175013611/13/01 17:50:31  5-MIN KSTC 132350Z AUTO 14005KT 2SM BR CLR 08/08 A2991 1030 100 500 140/05 RMK AO2 SLP144 T00780078 10144 20078 56009
14926KSTC STC20011113175510511/13/01 17:55:31  5-MIN KSTC 132355Z AUTO 14004KT 2 1/2SM BR CLR 08/08 A2991 1030 100 500 140/04 RMK AO2
14926KSTC STC20011113180010511/13/01 18:00:31  5-MIN KSTC 140000Z AUTO 14004KT 2 1/2SM BR CLR 08/08 A2991 1040 100 500 140/04 RMK AO2
14926KSTC STC20011113180510111/13/01 18:05:31  5-MIN KSTC 140005Z AUTO 13004KT 2SM BR CLR 08/08 A2991 1030 100 500 130/04 RMK AO2
14926KSTC STC20011113181010511/13/01 18:10:31  5-MIN KSTC 140010Z AUTO 14003KT 2 1/2SM BR CLR 09/09 A2991 1030 100 600 140/03 RMK AO2
14926KSTC STC20011113181510111/13/01 18:15:31  5-MIN KSTC 140015Z AUTO 00000KT 3SM BR CLR 08/08 A2991 1030 100 500 000/00 RMK AO2
14926KSTC STC20011113182010111/13/01 18:20:31  5-MIN KSTC 140020Z AUTO 14003KT 2SM BR CLR 08/08 A2992 1030 100 500 140/03 RMK AO2
14926KSTC STC20011113182510111/13/01 18:25:31  5-MIN KSTC 140025Z AUTO 14004KT 2SM BR CLR 08/08 A2992 1030 100 500 140/04 RMK AO2
14926KSTC STC20011113183010511/13/01 18:30:31  5-MIN KSTC 140030Z AUTO 15004KT 1 1/4SM BR CLR 08/08 A2992 1030 100 500 150/04 RMK AO2
14926KSTC STC20011113183510511/13/01 18:35:31  5-MIN KSTC 140035Z AUTO 16005KT 3/4SM BR VV001 08/08 A2992 1030 100 400 160/05 RMK AO2
14926KSTC STC20011113184010511/13/01 18:40:31  5-MIN KSTC 140040Z AUTO 16004KT 1/2SM FG VV001 07/07 A2992 1030 100 400 160/04 RMK AO2
14926KSTC STC20011113184510511/13/01 18:45:31  5-MIN KSTC 140045Z AUTO 16004KT 1/4SM FG VV001 07/07 A2992 1030 100 400 160/04 RMK AO2
14926KSTC STC20011113185012211/13/01 18:50:31  5-MIN KSTC 140050Z AUTO 16004KT 1/4SM FG VV001 08/08 A2992 1030 100 400 150/04 RMK AO2 SLP147 T00780078
14926KSTC STC20011113185511311/13/01 18:55:31  5-MIN KSTC 140055Z AUTO 15004KT 1/4SM FG BKN001 BKN018 08/08 A2992 1030 100 400 140/04 RMK AO2
14926KSTC STC20011113190010511/13/01 19:00:31  5-MIN KSTC 140100Z AUTO 14003KT 1/2SM FG VV002 08/08 A2992 1030 100 500 130/03 RMK AO2
14926KSTC STC20011113190510311/13/01 19:05:31  5-MIN KSTC 140105Z AUTO 14004KT 1SM BR VV001 08/08 A2991 1030 100 500 130/04 RMK AO2
14926KSTC STC20011113191010311/13/01 19:10:31  5-MIN KSTC 140110Z AUTO 14003KT 1SM BR VV002 08/08 A2992 1030 100 400 130/03 RMK AO2
14926KSTC STC20011113191510811/13/01 19:15:31  5-MIN KSTC 140115Z AUTO 14004KT 1 1/4SM BR FEW002 08/08 A2991 1030 100 500 140/04 RMK AO2
14926KSTC STC20011113192010811/13/01 19:20:31  5-MIN KSTC 140120Z AUTO 14004KT 1 1/4SM BR FEW002 08/08 A2992 1030 100 400 140/04 RMK AO2
14926KSTC STC20011113192510511/13/01 19:25:31  5-MIN KSTC 140125Z AUTO 14004KT 1 1/4SM BR CLR 08/08 A2991 1030 100 500 140/04 RMK AO2
14926KSTC STC20011113193010111/13/01 19:30:31  5-MIN KSTC 140130Z AUTO 13003KT 1SM BR CLR 07/07 A2991 1040 100 400 130/03 RMK AO2
14926KSTC STC20011113193510311/13/01 19:35:31  5-MIN KSTC 140135Z AUTO 00000KT 3/4SM BR CLR 07/07 A2991 1040 100 300 000/00 RMK AO2
14926KSTC STC20011113194010511/13/01 19:40:31  5-MIN KSTC 140140Z AUTO 00000KT 1/2SM FG VV002 06/06 A2991 1030 100 300 000/00 RMK AO2
14926KSTC STC20011113194511311/13/01 19:45:31  5-MIN KSTC 140145Z AUTO 00000KT 1/4SM FG SCT002 SCT022 06/06 A2991 1030 100 300 000/00 RMK AO2
14926KSTC STC20011113195013011/13/01 19:50:31  5-MIN KSTC 140150Z AUTO 00000KT 1/4SM FG SCT002 BKN022 06/06 A2991 1030 100 300 000/00 RMK AO2 SLP145 T00610061
14926KSTC STC20011113195511311/13/01 19:55:31  5-MIN KSTC 140155Z AUTO 00000KT 1/4SM FG BKN002 BKN022 06/06 A2992 1030 100 200 000/00 RMK AO2
14926KSTC STC20011113200011311/13/01 20:00:31  5-MIN KSTC 140200Z AUTO 00000KT 1/4SM FG BKN002 OVC022 06/06 A2992 1030 100 200 000/00 RMK AO2
14926KSTC STC20011113200511311/13/01 20:05:31  5-MIN KSTC 140205Z AUTO 11003KT 1/4SM FG BKN002 OVC022 06/06 A2991 1030 100 200 110/03 RMK AO2
14926KSTC STC20011113201011311/13/01 20:10:31  5-MIN KSTC 140210Z AUTO 12003KT 1/4SM FG BKN002 OVC022 06/06 A2992 1030 100 200 110/03 RMK AO2
14926KSTC STC20011113201511311/13/01 20:15:31  5-MIN KSTC 140215Z AUTO 00000KT 1/4SM FG BKN002 OVC022 06/06 A2991 1030 100 200 000/00 RMK AO2
14926KSTC STC20011113202011311/13/01 20:20:31  5-MIN KSTC 140220Z AUTO 00000KT 1/4SM FG BKN002 OVC022 06/06 A2991 1030 100 200 000/00 RMK AO2
14926KSTC STC20011113202511311/13/01 20:25:31  5-MIN KSTC 140225Z AUTO 00000KT 1/4SM FG BKN002 OVC022 06/06 A2991 1030 100 300 000/00 RMK AO2
14926KSTC STC20011113203012011/13/01 20:30:31  5-MIN KSTC 140230Z AUTO 00000KT 1/4SM FG BKN002 BKN009 OVC024 06/06 A2991 1040 100 300 000/00 RMK AO2
14926KSTC STC20011113203512011/13/01 20:35:31  5-MIN KSTC 140235Z AUTO 00000KT 1/4SM FG BKN002 BKN009 OVC024 06/06 A2991 1040 100 200 000/00 RMK AO2
14926KSTC STC20011113204012011/13/01 20:40:31  5-MIN KSTC 140240Z AUTO 00000KT 1/4SM FG BKN002 BKN009 OVC024 06/06 A2991 1040 100 200 000/00 RMK AO2
14926KSTC STC20011113204511311/13/01 20:45:31  5-MIN KSTC 140245Z AUTO 00000KT 1/4SM FG SCT002 OVC009 06/06 A2991 1040 100 200 000/00 RMK AO2
14926KSTC STC20011113205013611/13/01 20:50:31  5-MIN KSTC 140250Z AUTO 00000KT 1/4SM FG SCT002 OVC009 06/06 A2991 1040 100 200 000/00 RMK AO2 SLP144 T00560056 53003
14926KSTC STC20011113205511311/13/01 20:55:31  5-MIN KSTC 140255Z AUTO 16003KT 1/4SM FG SCT002 OVC009 06/06 A2991 1030 100 300 150/03 RMK AO2
14926KSTC STC20011113210011311/13/01 21:00:31  5-MIN KSTC 140300Z AUTO 14003KT 1/4SM FG SCT002 OVC009 06/06 A2991 1040 100 300 140/03 RMK AO2
14926KSTC STC20011113210511311/13/01 21:05:31  5-MIN KSTC 140305Z AUTO 15004KT 1/4SM FG SCT002 OVC009 06/06 A2991 1030 100 300 150/04 RMK AO2
14926KSTC STC20011113211011311/13/01 21:10:31  5-MIN KSTC 140310Z AUTO 15004KT 1/4SM FG SCT002 OVC009 07/07 A2991 1030 100 300 150/04 RMK AO2
14926KSTC STC20011113211511311/13/01 21:15:31  5-MIN KSTC 140315Z AUTO 15003KT 1/4SM FG BKN002 OVC009 07/07 A2991 1030 100 400 140/03 RMK AO2
14926KSTC STC20011113212011311/13/01 21:20:31  5-MIN KSTC 140320Z AUTO 14003KT 1/4SM FG BKN002 OVC007 07/07 A2991 1030 100 400 140/03 RMK AO2
14926KSTC STC20011113212511311/13/01 21:25:31  5-MIN KSTC 140325Z AUTO 15003KT 1/4SM FG BKN002 OVC007 06/06 A2991 1030 100 200 140/03 RMK AO2
14926KSTC STC20011113213012011/13/01 21:30:31  5-MIN KSTC 140330Z AUTO 14003KT M1/4SM FG BKN002 OVC007 07/07 A2992 1030 100 300 140/03 RMK AO2 P0001
14926KSTC STC20011113213511911/13/01 21:35:31  5-MIN KSTC 140335Z AUTO 00000KT 1/4SM FG BKN002 OVC007 07/07 A2992 1030 100 300 000/00 RMK AO2 P0001
14926KSTC STC20011113214011911/13/01 21:40:31  5-MIN KSTC 140340Z AUTO 00000KT 1/4SM FG BKN002 OVC007 07/07 A2992 1030 100 300 000/00 RMK AO2 P0001
14926KSTC STC20011113214512011/13/01 21:45:31  5-MIN KSTC 140345Z AUTO 00000KT M1/4SM FG BKN002 OVC007 07/07 A2992 1030 100 300 000/00 RMK AO2 P0001
14926KSTC STC20011113215013611/13/01 21:50:31  5-MIN KSTC 140350Z AUTO 15003KT 1/4SM FG BKN002 OVC007 07/07 A2992 1030 100 400 150/03 RMK AO2 SLP145 P0001 T00720072
14926KSTC STC20011113215511311/13/01 21:55:31  5-MIN KSTC 140355Z AUTO 15003KT 1/4SM FG BKN002 OVC007 07/07 A2992 1030 100 300 150/03 RMK AO2
14926KSTC STC20011113220011311/13/01 22:00:31  5-MIN KSTC 140400Z AUTO 15003KT 1/4SM FG BKN002 OVC007 07/07 A2992 1030 100 400 150/03 RMK AO2
14926KSTC STC20011113220511311/13/01 22:05:31  5-MIN KSTC 140405Z AUTO 15003KT 1/4SM FG BKN002 OVC007 07/07 A2992 1030 100 400 140/03 RMK AO2
14926KSTC STC20011113221011311/13/01 22:10:31  5-MIN KSTC 140410Z AUTO 15003KT 1/4SM FG BKN002 OVC007 07/07 A2992 1030 100 300 150/03 RMK AO2
14926KSTC STC20011113221511311/13/01 22:15:31  5-MIN KSTC 140415Z AUTO 00000KT 1/4SM FG BKN002 OVC007 07/07 A2992 1020 100 400 000/00 RMK AO2
14926KSTC STC20011113222011311/13/01 22:20:31  5-MIN KSTC 140420Z AUTO 00000KT 1/4SM FG BKN002 OVC007 07/07 A2992 1030 100 400 000/00 RMK AO2
14926KSTC STC20011113222511311/13/01 22:25:31  5-MIN KSTC 140425Z AUTO 00000KT 1/4SM FG BKN002 OVC007 07/07 A2992 1020 100 400 000/00 RMK AO2
14926KSTC STC20011113223011311/13/01 22:30:31  5-MIN KSTC 140430Z AUTO 15003KT 1/4SM FG BKN002 OVC007 07/07 A2992 1030 100 300 150/03 RMK AO2
14926KSTC STC20011113223511311/13/01 22:35:31  5-MIN KSTC 140435Z AUTO 15003KT 1/4SM FG BKN002 OVC007 07/07 A2992 1030 100 300 140/03 RMK AO2
14926KSTC STC20011113224011311/13/01 22:40:31  5-MIN KSTC 140440Z AUTO 15003KT 1/4SM FG SCT002 OVC007 07/07 A2992 1030 100 300 150/03 RMK AO2
14926KSTC STC20011113224511311/13/01 22:45:31  5-MIN KSTC 140445Z AUTO 15003KT 1/4SM FG SCT002 OVC009 06/06 A2992 1030 100 200 150/03 RMK AO2
14926KSTC STC20011113225013011/13/01 22:50:31  5-MIN KSTC 140450Z AUTO 14003KT 1/4SM FG FEW002 OVC009 06/06 A2992 1030 100 200 140/03 RMK AO2 SLP146 T00610061
14926KSTC STC20011113225511311/13/01 22:55:31  5-MIN KSTC 140455Z AUTO 14003KT 1/4SM FG FEW002 OVC009 06/06 A2992 1030 100 200 140/03 RMK AO2
14926KSTC STC20011113230010611/13/01 23:00:31  5-MIN KSTC 140500Z AUTO 14003KT 1/4SM FG OVC009 07/07 A2992 1030 100 300 130/03 RMK AO2
14926KSTC STC20011113230511311/13/01 23:05:31  5-MIN KSTC 140505Z AUTO 14004KT 1/4SM FG FEW001 OVC009 07/07 A2992 1030 100 300 140/04 RMK AO2
14926KSTC STC20011113231011311/13/01 23:10:31  5-MIN KSTC 140510Z AUTO 14004KT 1/4SM FG SCT001 OVC009 07/07 A2992 1030 100 300 140/04 RMK AO2
14926KSTC STC20011113231511311/13/01 23:15:31  5-MIN KSTC 140515Z AUTO 14005KT 1/4SM FG SCT001 OVC009 07/07 A2992 1020 100 300 140/05 RMK AO2
14926KSTC STC20011113232011311/13/01 23:20:31  5-MIN KSTC 140520Z AUTO 14004KT 1/4SM FG SCT001 OVC009 07/07 A2992 1020 100 300 140/04 RMK AO2
14926KSTC STC20011113232511311/13/01 23:25:31  5-MIN KSTC 140525Z AUTO 14004KT 1/4SM FG BKN001 OVC009 07/07 A2992 1020 100 300 130/04 RMK AO2
14926KSTC STC20011113233011311/13/01 23:30:31  5-MIN KSTC 140530Z AUTO 14003KT 1/4SM FG BKN001 OVC009 07/07 A2992 1030 100 300 130/03 RMK AO2
14926KSTC STC20011113233511311/13/01 23:35:31  5-MIN KSTC 140535Z AUTO 00000KT 1/4SM FG BKN001 OVC009 07/07 A2992 1030 100 300 000/00 RMK AO2
14926KSTC STC20011113234011311/13/01 23:40:31  5-MIN KSTC 140540Z AUTO 00000KT 1/4SM FG BKN001 OVC009 06/06 A2992 1030 100 200 000/00 RMK AO2
14926KSTC STC20011113234511311/13/01 23:45:31  5-MIN KSTC 140545Z AUTO 00000KT 1/4SM FG BKN001 OVC009 07/07 A2992 1030 100 300 000/00 RMK AO2
14926KSTC STC20011113235016411/13/01 23:50:31  5-MIN KSTC 140550Z AUTO 14003KT 1/4SM FG BKN001 OVC011 06/06 A2992 1030 100 200 140/03 RMK AO2 SLP146 60001 T00610061 10089 20056 401440044 58000
14926KSTC STC20011113235511311/13/01 23:55:31  5-MIN KSTC 140555Z AUTO 14003KT 1/4SM FG BKN001 OVC011 07/07 A2992 1030 100 300 140/03 RMK AO2
14926KSTC STC20011114000011311/14/01 00:00:31  5-MIN KSTC 140600Z AUTO 14003KT 1/4SM FG BKN001 OVC011 06/06 A2992 1020 100 200 140/03 RMK AO2
14926KSTC STC20011114000511311/14/01 00:05:31  5-MIN KSTC 140605Z AUTO 15003KT 1/4SM FG BKN001 OVC011 06/06 A2992 1020 100 200 140/03 RMK AO2
14926KSTC STC20011114001011311/14/01 00:10:31  5-MIN KSTC 140610Z AUTO 14004KT 1/4SM FG BKN001 OVC011 06/06 A2992 1020 100 200 140/04 RMK AO2
14926KSTC STC20011114001511311/14/01 00:15:31  5-MIN KSTC 140615Z AUTO 14003KT 1/4SM FG BKN001 OVC011 06/06 A2992 1020 100 200 140/03 RMK AO2
14926KSTC STC20011114002011311/14/01 00:20:31  5-MIN KSTC 140620Z AUTO 14003KT 1/4SM FG BKN001 OVC011 06/06 A2992 1020 100 200 140/03 RMK AO2
14926KSTC STC20011114002510511/14/01 00:25:31  5-MIN KSTC 140625Z AUTO 00000KT 1/4SM FG VV001 06/06 A2992 1020 100 200 000/00 RMK AO2
14926KSTC STC20011114003010511/14/01 00:30:31  5-MIN KSTC 140630Z AUTO 00000KT 1/4SM FG VV001 06/06 A2992 1020 100 200 000/00 RMK AO2
14926KSTC STC20011114003510511/14/01 00:35:31  5-MIN KSTC 140635Z AUTO 00000KT 1/4SM FG VV001 06/06 A2992 1020 100 200 000/00 RMK AO2
14926KSTC STC20011114004010511/14/01 00:40:31  5-MIN KSTC 140640Z AUTO 00000KT 1/4SM FG VV001 06/06 A2993 1020 100 200 000/00 RMK AO2
14926KSTC STC20011114004510511/14/01 00:45:31  5-MIN KSTC 140645Z AUTO 00000KT 1/4SM FG VV001 06/06 A2993 1020 100 200 000/00 RMK AO2
14926KSTC STC20011114005012211/14/01 00:50:31  5-MIN KSTC 140650Z AUTO 00000KT 1/4SM FG VV001 06/06 A2993 1020 100 200 000/00 RMK AO2 SLP148 T00560056
14926KSTC STC20011114005511311/14/01 00:55:31  5-MIN KSTC 140655Z AUTO 00000KT 1/4SM FG BKN001 OVC011 06/06 A2992 1030 100 200 000/00 RMK AO2
14926KSTC STC20011114010011311/14/01 01:00:31  5-MIN KSTC 140700Z AUTO 00000KT 1/4SM FG BKN001 OVC011 06/06 A2992 1030 100 200 000/00 RMK AO2
14926KSTC STC20011114010511311/14/01 01:05:31  5-MIN KSTC 140705Z AUTO 00000KT 1/4SM FG BKN001 OVC011 06/06 A2992 1030 100 200 000/00 RMK AO2
14926KSTC STC20011114011011311/14/01 01:10:31  5-MIN KSTC 140710Z AUTO 00000KT 1/4SM FG SCT001 OVC011 06/06 A2992 1030 100 200 000/00 RMK AO2
14926KSTC STC20011114011511311/14/01 01:15:31  5-MIN KSTC 140715Z AUTO 00000KT 1/4SM FG SCT001 OVC011 06/06 A2992 1030 100 200 000/00 RMK AO2
14926KSTC STC20011114012011311/14/01 01:20:31  5-MIN KSTC 140720Z AUTO 15003KT 1/4SM FG FEW001 OVC011 06/06 A2992 1030 100 200 140/03 RMK AO2
14926KSTC STC20011114012511311/14/01 01:25:31  5-MIN KSTC 140725Z AUTO 14003KT 1/4SM FG FEW001 OVC011 06/06 A2992 1030 100 200 140/03 RMK AO2
14926KSTC STC20011114013011311/14/01 01:30:31  5-MIN KSTC 140730Z AUTO 14003KT 1/4SM FG FEW001 OVC011 06/06 A2992 1030 100 200 140/03 RMK AO2
14926KSTC STC20011114013511311/14/01 01:35:31  5-MIN KSTC 140735Z AUTO 14003KT 1/4SM FG FEW001 OVC011 06/06 A2992 1030 100 200 140/03 RMK AO2
14926KSTC STC20011114014011311/14/01 01:40:31  5-MIN KSTC 140740Z AUTO 14003KT 1/4SM FG FEW001 OVC011 06/06 A2992 1030 100 200 140/03 RMK AO2
14926KSTC STC20011114014511311/14/01 01:45:31  5-MIN KSTC 140745Z AUTO 15004KT 1/4SM FG SCT001 OVC011 06/06 A2992 1030 100 200 140/04 RMK AO2
14926KSTC STC20011114015013011/14/01 01:50:31  5-MIN KSTC 140750Z AUTO 15003KT 1/4SM FG BKN001 OVC011 06/06 A2992 1030 100 200 140/03 RMK AO2 SLP143 T00560056
14926KSTC STC20011114015511311/14/01 01:55:31  5-MIN KSTC 140755Z AUTO 15003KT 1/4SM FG BKN001 OVC011 06/06 A2992 1030 100 200 140/03 RMK AO2
14926KSTC STC20011114020011311/14/01 02:00:31  5-MIN KSTC 140800Z AUTO 14004KT 1/4SM FG BKN001 OVC011 06/06 A2992 1030 100 200 140/04 RMK AO2
14926KSTC STC20011114020511311/14/01 02:05:31  5-MIN KSTC 140805Z AUTO 14003KT 1/4SM FG BKN001 OVC011 06/06 A2992 1030 100 200 140/03 RMK AO2
14926KSTC STC20011114021011311/14/01 02:10:31  5-MIN KSTC 140810Z AUTO 14003KT 1/4SM FG BKN001 OVC011 06/06 A2992 1030 100 200 140/03 RMK AO2
14926KSTC STC20011114021511311/14/01 02:15:31  5-MIN KSTC 140815Z AUTO 14003KT 1/4SM FG BKN001 OVC011 06/06 A2992 1030 100 200 130/03 RMK AO2
14926KSTC STC20011114022011311/14/01 02:20:31  5-MIN KSTC 140820Z AUTO 13003KT 1/4SM FG BKN001 OVC011 05/05 A2992 1030 100 100 130/03 RMK AO2
14926KSTC STC20011114022511311/14/01 02:25:31  5-MIN KSTC 140825Z AUTO 13003KT 1/4SM FG BKN001 OVC011 06/06 A2992 1030 100 200 130/03 RMK AO2
14926KSTC STC20011114023011311/14/01 02:30:31  5-MIN KSTC 140830Z AUTO 00000KT 1/4SM FG BKN001 OVC011 06/06 A2992 1030 100 200 000/00 RMK AO2
14926KSTC STC20011114023511311/14/01 02:35:31  5-MIN KSTC 140835Z AUTO 00000KT 1/4SM FG SCT001 OVC011 06/06 A2992 1030 100 200 000/00 RMK AO2
14926KSTC STC20011114024011311/14/01 02:40:31  5-MIN KSTC 140840Z AUTO 00000KT 1/4SM FG SCT001 OVC009 06/06 A2992 1030 100 200 000/00 RMK AO2
14926KSTC STC20011114024511311/14/01 02:45:31  5-MIN KSTC 140845Z AUTO 00000KT 1/4SM FG SCT001 OVC009 06/06 A2992 1030 100 200 000/00 RMK AO2
14926KSTC STC20011114025013611/14/01 02:50:31  5-MIN KSTC 140850Z AUTO 11003KT 1/4SM FG SCT001 OVC009 07/07 A2992 1030 100 400 110/03 RMK AO2 SLP142 T00720072 51003
14926KSTC STC20011114025511311/14/01 02:55:31  5-MIN KSTC 140855Z AUTO 13003KT 1/4SM FG FEW001 OVC009 07/07 A2991 1030 100 400 120/03 RMK AO2
14926KSTC STC20011114030011311/14/01 03:00:31  5-MIN KSTC 140900Z AUTO 14003KT 1/4SM FG FEW001 OVC009 07/07 A2991 1030 100 300 130/03 RMK AO2
14926KSTC STC20011114030511311/14/01 03:05:31  5-MIN KSTC 140905Z AUTO 00000KT 1/4SM FG FEW001 OVC009 07/07 A2991 1030 100 300 000/00 RMK AO2
14926KSTC STC20011114031011311/14/01 03:10:31  5-MIN KSTC 140910Z AUTO 00000KT 1/4SM FG FEW001 OVC009 07/07 A2991 1030 100 300 000/00 RMK AO2
14926KSTC STC20011114031511311/14/01 03:15:31  5-MIN KSTC 140915Z AUTO 14003KT 1/4SM FG FEW001 OVC009 06/06 A2991 1030 100 300 130/03 RMK AO2
14926KSTC STC20011114032011311/14/01 03:20:31  5-MIN KSTC 140920Z AUTO 13003KT 1/4SM FG SCT001 OVC009 07/07 A2991 1030 100 300 130/03 RMK AO2
14926KSTC STC20011114032511311/14/01 03:25:31  5-MIN KSTC 140925Z AUTO 13003KT 1/4SM FG SCT001 OVC009 07/07 A2991 1030 100 400 130/03 RMK AO2
14926KSTC STC20011114033011311/14/01 03:30:31  5-MIN KSTC 140930Z AUTO 13003KT 1/4SM FG BKN001 OVC009 07/07 A2991 1030 100 400 130/03 RMK AO2
14926KSTC STC20011114033511311/14/01 03:35:31  5-MIN KSTC 140935Z AUTO 14003KT 1/4SM FG BKN001 OVC009 07/07 A2991 1030 100 400 130/03 RMK AO2
14926KSTC STC20011114034011311/14/01 03:40:31  5-MIN KSTC 140940Z AUTO 13003KT 1/4SM FG BKN001 OVC009 07/07 A2991 1040 100 400 130/03 RMK AO2
14926KSTC STC20011114034511311/14/01 03:45:31  5-MIN KSTC 140945Z AUTO 00000KT 1/4SM FG BKN001 OVC007 07/07 A2991 1040 100 400 000/00 RMK AO2
14926KSTC STC20011114035013011/14/01 03:50:31  5-MIN KSTC 140950Z AUTO 13003KT 1/4SM FG BKN001 OVC007 07/07 A2991 1040 100 300 130/03 RMK AO2 SLP139 T00670067
14926KSTC STC20011114035511311/14/01 03:55:31  5-MIN KSTC 140955Z AUTO 00000KT 1/4SM FG BKN001 OVC007 07/07 A2991 1040 100 400 000/00 RMK AO2
14926KSTC STC20011114040011311/14/01 04:00:31  5-MIN KSTC 141000Z AUTO 00000KT 1/4SM FG BKN001 OVC007 07/07 A2991 1040 100 300 000/00 RMK AO2
14926KSTC STC20011114040511311/14/01 04:05:31  5-MIN KSTC 141005Z AUTO 00000KT 1/4SM FG BKN001 OVC007 07/07 A2991 1040 100 400 000/00 RMK AO2
14926KSTC STC20011114041010511/14/01 04:10:31  5-MIN KSTC 141010Z AUTO 00000KT 1/4SM FG VV001 07/07 A2991 1040 100 400 000/00 RMK AO2
14926KSTC STC20011114041510511/14/01 04:15:31  5-MIN KSTC 141015Z AUTO 09003KT 1/4SM FG VV001 08/08 A2991 1040 100 500 090/03 RMK AO2
14926KSTC STC20011114042010511/14/01 04:20:31  5-MIN KSTC 141020Z AUTO 10003KT 1/4SM FG VV001 08/08 A2991 1040 100 500 100/03 RMK AO2
14926KSTC STC20011114042511311/14/01 04:25:31  5-MIN KSTC 141025Z AUTO 11003KT 1/4SM FG BKN001 OVC007 08/08 A2991 1040 100 500 110/03 RMK AO2
14926KSTC STC20011114043011311/14/01 04:30:31  5-MIN KSTC 141030Z AUTO 12003KT 1/4SM FG BKN001 OVC007 08/08 A2991 1040 100 500 110/03 RMK AO2
14926KSTC STC20011114043511311/14/01 04:35:31  5-MIN KSTC 141035Z AUTO 11003KT 1/4SM FG BKN001 OVC007 08/08 A2991 1040 100 500 110/03 RMK AO2
14926KSTC STC20011114044010511/14/01 04:40:31  5-MIN KSTC 141040Z AUTO 11003KT 1/4SM FG VV001 08/08 A2991 1040 100 500 110/03 RMK AO2
14926KSTC STC20011114044511311/14/01 04:45:31  5-MIN KSTC 141045Z AUTO 10003KT 1/4SM FG BKN001 OVC007 08/08 A2991 1030 100 500 100/03 RMK AO2
14926KSTC STC20011114045013011/14/01 04:50:31  5-MIN KSTC 141050Z AUTO 00000KT 1/4SM FG BKN001 OVC007 09/09 A2991 1030 100 600 000/00 RMK AO2 SLP141 T00890089
14926KSTC STC20011114045511311/14/01 04:55:31  5-MIN KSTC 141055Z AUTO 12003KT 1/4SM FG BKN001 OVC007 09/09 A2991 1030 100 600 120/03 RMK AO2
14926KSTC STC20011114050011311/14/01 05:00:31  5-MIN KSTC 141100Z AUTO 12004KT 1/4SM FG BKN001 OVC007 08/08 A2991 1030 100 500 120/04 RMK AO2
14926KSTC STC20011114050511311/14/01 05:05:31  5-MIN KSTC 141105Z AUTO 12004KT 1/4SM FG BKN001 OVC007 09/09 A2991 1030 100 600 120/04 RMK AO2
14926KSTC STC20011114051011311/14/01 05:10:31  5-MIN KSTC 141110Z AUTO 13004KT 1/4SM FG BKN001 OVC007 09/09 A2991 1030 100 700 130/04 RMK AO2
14926KSTC STC20011114051512011/14/01 05:15:31  5-MIN KSTC 141115Z AUTO 13004KT 1/4SM FG SCT001 BKN007 OVC042 09/09 A2991 1030 100 700 130/04 RMK AO2
14926KSTC STC20011114052012011/14/01 05:20:31  5-MIN KSTC 141120Z AUTO 13003KT 1/2SM FG SCT001 BKN007 OVC042 09/09 A2991 1040 100 700 130/03 RMK AO2
14926KSTC STC20011114052512011/14/01 05:25:31  5-MIN KSTC 141125Z AUTO 13004KT 1/2SM FG FEW001 BKN007 OVC042 09/09 A2991 1040 100 700 120/04 RMK AO2
14926KSTC STC20011114053012011/14/01 05:30:31  5-MIN KSTC 141130Z AUTO 13004KT 1/2SM FG FEW001 BKN007 OVC042 09/09 A2991 1040 100 700 130/04 RMK AO2
14926KSTC STC20011114053512011/14/01 05:35:31  5-MIN KSTC 141135Z AUTO 13004KT 1/2SM FG FEW001 BKN007 OVC042 10/10 A2991 1040 100 700 130/04 RMK AO2
14926KSTC STC20011114054012011/14/01 05:40:31  5-MIN KSTC 141140Z AUTO 13004KT 1/2SM FG FEW001 SCT007 OVC042 10/10 A2991 1040 100 700 130/04 RMK AO2
14926KSTC STC20011114054512011/14/01 05:45:31  5-MIN KSTC 141145Z AUTO 12004KT 1/2SM FG FEW001 SCT007 OVC042 10/10 A2991 1040 100 700 120/04 RMK AO2
14926KSTC STC20011114055016111/14/01 05:50:31  5-MIN KSTC 141150Z AUTO 13003KT 1/4SM FG FEW001 BKN007 OVC042 10/10 A2991 1030 100 700 120/03 RMK AO2 SLP143 70001 T01000100 10100 20050 58002
14926KSTC STC20011114055512011/14/01 05:55:31  5-MIN KSTC 141155Z AUTO 13003KT 1/4SM FG FEW001 BKN007 OVC042 10/10 A2991 1040 100 700 120/03 RMK AO2
14926KSTC STC20011114060012011/14/01 06:00:31  5-MIN KSTC 141200Z AUTO 14003KT 1/4SM FG FEW001 BKN007 OVC042 09/09 A2991 1040 100 700 130/03 RMK AO2
14926KSTC STC20011114060512011/14/01 06:05:31  5-MIN KSTC 141205Z AUTO 13003KT 1/4SM FG SCT001 BKN007 OVC042 09/09 A2991 1040 100 700 130/03 RMK AO2
14926KSTC STC20011114061011311/14/01 06:10:31  5-MIN KSTC 141210Z AUTO 13003KT 1/4SM FG SCT001 OVC007 10/10 A2991 1040 100 700 120/03 RMK AO2
14926KSTC STC20011114061511311/14/01 06:15:31  5-MIN KSTC 141215Z AUTO 00000KT 1/4SM FG SCT001 OVC007 09/09 A2991 1040 100 700 000/00 RMK AO2
14926KSTC STC20011114062011311/14/01 06:20:31  5-MIN KSTC 141220Z AUTO 00000KT 1/4SM FG SCT001 OVC007 10/10 A2991 1040 100 700 000/00 RMK AO2
14926KSTC STC20011114062511311/14/01 06:25:31  5-MIN KSTC 141225Z AUTO 12003KT 1/4SM FG SCT001 OVC007 10/10 A2991 1040 100 700 120/03 RMK AO2
14926KSTC STC20011114063011311/14/01 06:30:31  5-MIN KSTC 141230Z AUTO 00000KT 1/4SM FG SCT001 OVC007 10/10 A2991 1040 100 700 000/00 RMK AO2
14926KSTC STC20011114063511311/14/01 06:35:31  5-MIN KSTC 141235Z AUTO 14003KT 1/4SM FG FEW001 OVC007 10/10 A2991 1040 100 700 130/03 RMK AO2
14926KSTC STC20011114064011311/14/01 06:40:31  5-MIN KSTC 141240Z AUTO 14003KT 1/4SM FG FEW001 OVC007 09/09 A2991 1040 100 700 140/03 RMK AO2
14926KSTC STC20011114064511311/14/01 06:45:31  5-MIN KSTC 141245Z AUTO 14004KT 1/4SM FG FEW001 OVC007 09/09 A2991 1030 100 700 130/04 RMK AO2
14926KSTC STC20011114065013011/14/01 06:50:31  5-MIN KSTC 141250Z AUTO 14004KT 1/4SM FG BKN005 OVC009 09/09 A2992 1030 100 700 140/04 RMK AO2 SLP144 T00940094
14926KSTC STC20011114065510611/14/01 06:55:31  5-MIN KSTC 141255Z AUTO 15005KT 1/4SM FG OVC007 09/09 A2992 1030 100 700 140/05 RMK AO2
14926KSTC STC20011114070012511/14/01 07:00:31  5-MIN KSTC 141300Z AUTO 15005KT 1/4SM FG BKN005 OVC009 09/09 A2992 1030 100 700 140/05 RMK AO2 CIG 002V007
14926KSTC STC20011114070511311/14/01 07:05:31  5-MIN KSTC 141305Z AUTO 15005KT 1/4SM FG BKN005 OVC009 09/09 A2991 1030 100 700 140/05 RMK AO2
14926KSTC STC20011114071012011/14/01 07:10:31  5-MIN KSTC 141310Z AUTO 15006KT 1/4SM FG BKN005 BKN009 OVC018 09/09 A2991 1040 100 700 150/06 RMK AO2
14926KSTC STC20011114071512011/14/01 07:15:31  5-MIN KSTC 141315Z AUTO 15006KT 1/4SM FG BKN005 BKN009 OVC018 10/10 A2991 1040 100 700 150/06 RMK AO2
14926KSTC STC20011114072011311/14/01 07:20:31  5-MIN KSTC 141320Z AUTO 15006KT 1/4SM FG BKN003 OVC018 10/10 A2991 1040 100 700 150/06 RMK AO2
14926KSTC STC20011114072511311/14/01 07:25:31  5-MIN KSTC 141325Z AUTO 15006KT 1/4SM FG BKN003 OVC018 10/10 A2991 1030 100 700 150/06 RMK AO2
14926KSTC STC20011114073010611/14/01 07:30:31  5-MIN KSTC 141330Z AUTO 15006KT 1/4SM FG OVC003 10/10 A2991 1030 100 700 140/06 RMK AO2
14926KSTC STC20011114073510611/14/01 07:35:31  5-MIN KSTC 141335Z AUTO 14005KT 1/4SM FG OVC003 11/11 A2991 1030 100 800 140/05 RMK AO2
14926KSTC STC20011114074010611/14/01 07:40:31  5-MIN KSTC 141340Z AUTO 15005KT 1/4SM FG OVC003 11/11 A2992 1030 100 800 150/05 RMK AO2
14926KSTC STC20011114074510611/14/01 07:45:31  5-MIN KSTC 141345Z AUTO 15006KT 1/4SM FG OVC003 11/11 A2992 1030 100 800 150/06 RMK AO2
14926KSTC STC20011114075012311/14/01 07:50:31  5-MIN KSTC 141350Z AUTO 16006KT 1/4SM FG OVC003 11/11 A2992 1030 100 800 160/06 RMK AO2 SLP145 T01060106
14926KSTC STC20011114075510611/14/01 07:55:31  5-MIN KSTC 141355Z AUTO 16006KT 1/4SM FG OVC003 11/11 A2992 1030 100 800 150/06 RMK AO2
14926KSTC STC20011114080010611/14/01 08:00:31  5-MIN KSTC 141400Z AUTO 16006KT 1/2SM FG OVC003 11/11 A2992 1030 100 800 160/06 RMK AO2
14926KSTC STC20011114080510611/14/01 08:05:31  5-MIN KSTC 141405Z AUTO 17005KT 1/2SM FG OVC003 11/11 A2992 1030 100 800 160/05 RMK AO2
14926KSTC STC20011114081010611/14/01 08:10:31  5-MIN KSTC 141410Z AUTO 17004KT 3/4SM BR OVC003 11/11 A2992 1030 100 800 170/04 RMK AO2
14926KSTC STC20011114081510611/14/01 08:15:31  5-MIN KSTC 141415Z AUTO 17004KT 3/4SM BR OVC003 11/11 A2992 1030 100 800 170/04 RMK AO2
14926KSTC STC20011114082010411/14/01 08:20:31  5-MIN KSTC 141420Z AUTO 17006KT 1SM BR OVC003 11/11 A2992 1030 100 800 170/06 RMK AO2
14926KSTC STC20011114082510411/14/01 08:25:31  5-MIN KSTC 141425Z AUTO 17006KT 1SM BR OVC003 12/12 A2992 1030 100 900 170/06 RMK AO2
14926KSTC STC20011114083010811/14/01 08:30:31  5-MIN KSTC 141430Z AUTO 17006KT 1 1/4SM BR OVC003 12/12 A2992 1030 100 900 170/06 RMK AO2
14926KSTC STC20011114083510811/14/01 08:35:31  5-MIN KSTC 141435Z AUTO 17006KT 1 1/4SM BR OVC003 12/12 A2992 1030 100 900 170/06 RMK AO2
14926KSTC STC20011114084010811/14/01 08:40:31  5-MIN KSTC 141440Z AUTO 17006KT 1 1/4SM BR OVC003 12/12 A2992 1030 100 900 160/06 RMK AO2
14926KSTC STC20011114084510811/14/01 08:45:31  5-MIN KSTC 141445Z AUTO 17005KT 1 1/4SM BR OVC003 12/12 A2992 1030 100 900 160/05 RMK AO2
14926KSTC STC20011114085013111/14/01 08:50:31  5-MIN KSTC 141450Z AUTO 16005KT 1 1/2SM BR OVC003 12/12 A2992 1030 100 900 160/05 RMK AO2 SLP145 T01170117 56002
14926KSTC STC20011114085510811/14/01 08:55:31  5-MIN KSTC 141455Z AUTO 16006KT 1 1/2SM BR OVC003 12/12 A2992 1030 100 900 160/06 RMK AO2
14926KSTC STC20011114090010911/14/01 09:00:31  5-MIN KSTC 141500Z AUTO 17006KT 1 1/2SM BR OVC003 12/12 A2992 1030 100 1000 170/06 RMK AO2
14926KSTC STC20011114090510911/14/01 09:05:31  5-MIN KSTC 141505Z AUTO 17006KT 1 1/2SM BR OVC003 12/12 A2991 1030 100 1000 170/06 RMK AO2
14926KSTC STC20011114091010911/14/01 09:10:31  5-MIN KSTC 141510Z AUTO 16005KT 1 1/2SM BR OVC003 12/12 A2991 1030 100 1000 160/05 RMK AO2
14926KSTC STC20011114091510911/14/01 09:15:31  5-MIN KSTC 141515Z AUTO 16005KT 1 1/4SM BR OVC003 12/12 A2991 1030 100 1000 160/05 RMK AO2
14926KSTC STC20011114092010911/14/01 09:20:31  5-MIN KSTC 141520Z AUTO 16006KT 1 1/2SM BR OVC003 12/12 A2991 1030 100 1000 160/06 RMK AO2
14926KSTC STC20011114092510911/14/01 09:25:31  5-MIN KSTC 141525Z AUTO 16007KT 1 1/2SM BR OVC003 12/12 A2991 1030 100 1000 160/07 RMK AO2
14926KSTC STC20011114093010911/14/01 09:30:31  5-MIN KSTC 141530Z AUTO 16006KT 1 1/2SM BR OVC003 12/12 A2992 1030 100 1000 160/06 RMK AO2
14926KSTC STC20011114093510911/14/01 09:35:31  5-MIN KSTC 141535Z AUTO 16006KT 1 1/2SM BR OVC003 12/12 A2992 1030 100 1000 160/06 RMK AO2
14926KSTC STC20011114094010911/14/01 09:40:31  5-MIN KSTC 141540Z AUTO 16006KT 1 1/2SM BR OVC003 12/12 A2992 1030 100 1000 160/06 RMK AO2
14926KSTC STC20011114094510911/14/01 09:45:31  5-MIN KSTC 141545Z AUTO 16006KT 1 1/2SM BR OVC003 12/12 A2992 1030 100 1000 160/06 RMK AO2
14926KSTC STC20011114095012611/14/01 09:50:31  5-MIN KSTC 141550Z AUTO 16007KT 1 3/4SM BR OVC003 13/13 A2992 1030 100 1000 160/07 RMK AO2 SLP144 T01280128
14926KSTC STC20011114105012211/14/01 10:50:31  5-MIN KSTC 141650Z AUTO 17006KT 2SM BR OVC003 14/14 A2992 1020 100 1200 170/06 RMK AO2 SLP145 T01390139
14926KSTC STC20011114105510511/14/01 10:55:31  5-MIN KSTC 141655Z AUTO 17006KT 2SM BR OVC003 14/14 A2992 1030 100 1200 170/06 RMK AO2
14926KSTC STC20011114110010511/14/01 11:00:31  5-MIN KSTC 141700Z AUTO 18006KT 2SM BR OVC003 14/14 A2992 1030 100 1200 180/06 RMK AO2
14926KSTC STC20011114110510511/14/01 11:05:31  5-MIN KSTC 141705Z AUTO 18006KT 2SM BR OVC003 14/14 A2992 1030 100 1200 180/06 RMK AO2
14926KSTC STC20011114111010511/14/01 11:10:31  5-MIN KSTC 141710Z AUTO 19004KT 2SM BR OVC003 14/14 A2992 1030 100 1200 180/04 RMK AO2
14926KSTC STC20011114111510511/14/01 11:15:31  5-MIN KSTC 141715Z AUTO 19006KT 2SM BR OVC003 14/14 A2992 1030 100 1200 190/06 RMK AO2
14926KSTC STC20011114112010511/14/01 11:20:31  5-MIN KSTC 141720Z AUTO 18006KT 2SM BR OVC003 14/14 A2992 1030 100 1200 180/06 RMK AO2
14926KSTC STC20011114112510411/14/01 11:25:31  5-MIN KSTC 141725Z AUTO 19007KT 2SM BR OVC003 14/14 A2992 1030 96 1200 190/07 RMK AO2
14926KSTC STC20011114113010811/14/01 11:30:31  5-MIN KSTC 141730Z AUTO 19007KT 2 1/2SM BR OVC003 14/14 A2991 1030 96 1200 190/07 RMK AO2
14926KSTC STC20011114113510511/14/01 11:35:31  5-MIN KSTC 141735Z AUTO 19008KT 2SM BR OVC003 14/14 A2991 1030 100 1200 180/08 RMK AO2
14926KSTC STC20011114114010511/14/01 11:40:31  5-MIN KSTC 141740Z AUTO 19008KT 2SM BR OVC005 14/14 A2991 1030 100 1200 190/08 RMK AO2
14926KSTC STC20011114114510911/14/01 11:45:31  5-MIN KSTC 141745Z AUTO 19008KT 2 1/2SM BR OVC005 14/14 A2991 1030 100 1300 190/08 RMK AO2
14926KSTC STC20011114115014411/14/01 11:50:31  5-MIN KSTC 141750Z AUTO 19008KT 2 1/2SM BR OVC005 14/14 A2991 1040 100 1300 190/08 RMK AO2 SLP139 T01440144 10144 20094 51002
14926KSTC STC20011114115510911/14/01 11:55:31  5-MIN KSTC 141755Z AUTO 19007KT 2 1/2SM BR OVC005 14/14 A2991 1040 100 1300 190/07 RMK AO2
14926KSTC STC20011114120010911/14/01 12:00:31  5-MIN KSTC 141800Z AUTO 19007KT 2 1/2SM BR OVC005 14/14 A2990 1040 100 1300 190/07 RMK AO2
14926KSTC STC20011114120510911/14/01 12:05:31  5-MIN KSTC 141805Z AUTO 20007KT 2 1/2SM BR OVC005 14/14 A2990 1040 100 1300 190/07 RMK AO2
14926KSTC STC20011114121010911/14/01 12:10:31  5-MIN KSTC 141810Z AUTO 20007KT 2 1/2SM BR OVC005 14/14 A2990 1040 100 1300 200/07 RMK AO2
14926KSTC STC20011114121510811/14/01 12:15:31  5-MIN KSTC 141815Z AUTO 20007KT 2 1/2SM BR OVC005 15/14 A2990 1050 96 1300 200/07 RMK AO2
14926KSTC STC20011114122010811/14/01 12:20:31  5-MIN KSTC 141820Z AUTO 19007KT 2 1/2SM BR OVC005 15/14 A2990 1050 96 1300 190/07 RMK AO2
14926KSTC STC20011114122510811/14/01 12:25:31  5-MIN KSTC 141825Z AUTO 19006KT 2 1/2SM BR OVC005 15/14 A2990 1050 96 1300 190/06 RMK AO2
14926KSTC STC20011114123012011/14/01 12:30:31  5-MIN KSTC 141830Z AUTO 19006KT 2 1/2SM BR OVC005 15/14 A2989 1050 96 1300 190/06 RMK AO2 CIG 005V009
14926KSTC STC20011114123512011/14/01 12:35:31  5-MIN KSTC 141835Z AUTO 19007KT 2 1/2SM BR OVC005 15/14 A2990 1050 96 1300 190/07 RMK AO2 CIG 005V010
14926KSTC STC20011114124012011/14/01 12:40:31  5-MIN KSTC 141840Z AUTO 19006KT 2 1/2SM BR OVC007 15/14 A2989 1050 96 1300 180/06 RMK AO2 CIG 005V010
14926KSTC STC20011114124512011/14/01 12:45:31  5-MIN KSTC 141845Z AUTO 19005KT 2 1/2SM BR OVC007 15/14 A2989 1050 96 1300 190/05 RMK AO2 CIG 005V010
14926KSTC STC20011114125013711/14/01 12:50:31  5-MIN KSTC 141850Z AUTO 19006KT 2 1/2SM BR OVC007 15/14 A2989 1050 96 1300 190/06 RMK AO2 CIG 005V010 SLP134 T01500144
14926KSTC STC20011114125512011/14/01 12:55:31  5-MIN KSTC 141855Z AUTO 19006KT 2 1/2SM BR OVC007 15/14 A2989 1050 96 1300 180/06 RMK AO2 CIG 005V010
14926KSTC STC20011114130010811/14/01 13:00:31  5-MIN KSTC 141900Z AUTO 19006KT 2 1/2SM BR OVC009 15/14 A2989 1050 96 1300 180/06 RMK AO2
14926KSTC STC20011114130510811/14/01 13:05:31  5-MIN KSTC 141905Z AUTO 18005KT 2 1/2SM BR OVC009 15/14 A2989 1050 96 1300 180/05 RMK AO2
14926KSTC STC20011114131010811/14/01 13:10:31  5-MIN KSTC 141910Z AUTO 19005KT 2 1/2SM BR OVC009 15/14 A2989 1050 96 1300 180/05 RMK AO2
14926KSTC STC20011114131510911/14/01 13:15:31  5-MIN KSTC 141915Z AUTO 19005KT 2 1/2SM BR OVC009 15/15 A2989 1060 100 1300 180/05 RMK AO2
14926KSTC STC20011114132010911/14/01 13:20:31  5-MIN KSTC 141920Z AUTO 17005KT 2 1/2SM BR OVC009 15/15 A2989 1060 100 1300 170/05 RMK AO2
14926KSTC STC20011114132510911/14/01 13:25:31  5-MIN KSTC 141925Z AUTO 17005KT 2 1/2SM BR OVC009 15/15 A2989 1060 100 1300 170/05 RMK AO2
14926KSTC STC20011114133010911/14/01 13:30:31  5-MIN KSTC 141930Z AUTO 17005KT 2 1/2SM BR OVC009 15/15 A2988 1060 100 1300 170/05 RMK AO2
14926KSTC STC20011114133510911/14/01 13:35:31  5-MIN KSTC 141935Z AUTO 17005KT 2 1/2SM BR OVC009 15/15 A2988 1060 100 1300 170/05 RMK AO2
14926KSTC STC20011114134010911/14/01 13:40:31  5-MIN KSTC 141940Z AUTO 17004KT 2 1/2SM BR OVC009 15/15 A2989 1060 100 1300 170/04 RMK AO2
14926KSTC STC20011114134510911/14/01 13:45:31  5-MIN KSTC 141945Z AUTO 16004KT 2 1/2SM BR OVC009 15/15 A2988 1060 100 1300 160/04 RMK AO2
14926KSTC STC20011114135012611/14/01 13:50:31  5-MIN KSTC 141950Z AUTO 16004KT 2 1/2SM BR OVC009 15/15 A2988 1060 100 1300 160/04 RMK AO2 SLP131 T01500150
14926KSTC STC20011114135510911/14/01 13:55:31  5-MIN KSTC 141955Z AUTO 15004KT 2 1/2SM BR OVC009 15/15 A2988 1060 100 1300 150/04 RMK AO2
14926KSTC STC20011114140012011/14/01 14:00:31  5-MIN KSTC 142000Z AUTO 16004KT 2 1/2SM BR OVC009 16/15 A2988 1060 96 1400 160/04 RMK AO2 CIG 009V013
14926KSTC STC20011114140510811/14/01 14:05:31  5-MIN KSTC 142005Z AUTO 16005KT 2 1/2SM BR OVC011 16/15 A2988 1060 96 1400 160/05 RMK AO2
14926KSTC STC20011114141010811/14/01 14:10:31  5-MIN KSTC 142010Z AUTO 15004KT 2 1/2SM BR OVC011 16/15 A2988 1070 96 1400 150/04 RMK AO2
14926KSTC STC20011114141511511/14/01 14:15:31  5-MIN KSTC 142015Z AUTO 15004KT 2 1/2SM BR BKN011 OVC024 16/15 A2988 1070 96 1400 140/04 RMK AO2
14926KSTC STC20011114142012211/14/01 14:20:31  5-MIN KSTC 142020Z AUTO 14005KT 2 1/2SM BR BKN013 BKN019 OVC024 16/15 A2987 1070 96 1400 140/05 RMK AO2
14926KSTC STC20011114142511511/14/01 14:25:31  5-MIN KSTC 142025Z AUTO 15005KT 2 1/2SM BR BKN013 OVC023 16/15 A2987 1070 96 1400 140/05 RMK AO2
14926KSTC STC20011114143012311/14/01 14:30:31  5-MIN KSTC 142030Z AUTO 14005KT 2 1/2SM BR BKN013 BKN018 OVC023 15/15 A2987 1070 100 1400 140/05 RMK AO2
14926KSTC STC20011114143511911/14/01 14:35:31  5-MIN KSTC 142035Z AUTO 14005KT 2SM BR BKN013 BKN018 OVC023 15/15 A2987 1070 100 1400 140/05 RMK AO2
14926KSTC STC20011114144011211/14/01 14:40:31  5-MIN KSTC 142040Z AUTO 14005KT 2SM BR BKN013 OVC021 15/15 A2987 1080 100 1400 140/05 RMK AO2
14926KSTC STC20011114144511211/14/01 14:45:31  5-MIN KSTC 142045Z AUTO 14005KT 2SM BR BKN013 OVC017 15/15 A2986 1080 100 1400 140/05 RMK AO2
14926KSTC STC20011114145012811/14/01 14:50:31  5-MIN KSTC 142050Z AUTO 14005KT 2SM BR OVC013 15/15 A2986 1080 100 1400 140/05 RMK AO2 SLP125 T01500150 58004
14926KSTC STC20011114145510511/14/01 14:55:31  5-MIN KSTC 142055Z AUTO 14004KT 2SM BR OVC011 15/15 A2986 1080 100 1400 140/04 RMK AO2
14926KSTC STC20011114150010811/14/01 15:00:31  5-MIN KSTC 142100Z AUTO 14003KT 2 1/2SM BR OVC011 16/15 A2987 1080 96 1400 140/03 RMK AO2
14926KSTC STC20011114150510911/14/01 15:05:31  5-MIN KSTC 142105Z AUTO 00000KT 2 1/2SM BR OVC011 15/15 A2987 1080 100 1400 000/00 RMK AO2
14926KSTC STC20011114151012111/14/01 15:10:31  5-MIN KSTC 142110Z AUTO 15003KT 2 1/2SM BR OVC011 15/15 A2987 1080 100 1400 140/03 RMK AO2 CIG 009V015
14926KSTC STC20011114151511711/14/01 15:15:31  5-MIN KSTC 142115Z AUTO 00000KT 2SM BR OVC011 15/15 A2987 1070 100 1400 000/00 RMK AO2 CIG 009V014
14926KSTC STC20011114152012411/14/01 15:20:31  5-MIN KSTC 142120Z AUTO 00000KT 2SM BR BKN009 OVC014 15/15 A2987 1080 100 1400 000/00 RMK AO2 CIG 009V012
14926KSTC STC20011114152511711/14/01 15:25:31  5-MIN KSTC 142125Z AUTO 00000KT 2SM BR OVC009 15/15 A2987 1070 100 1400 000/00 RMK AO2 CIG 009V014
14926KSTC STC20011114153012811/14/01 15:30:31  5-MIN KSTC 142130Z AUTO 00000KT 2 1/2SM BR BKN009 OVC015 15/15 A2987 1070 100 1400 000/00 RMK AO2 CIG 009V012
14926KSTC STC20011114153513511/14/01 15:35:31  5-MIN KSTC 142135Z AUTO 00000KT 2 1/2SM BR BKN009 BKN015 OVC036 15/15 A2987 1070 100 1400 000/00 RMK AO2 CIG 009V012
14926KSTC STC20011114154012311/14/01 15:40:31  5-MIN KSTC 142140Z AUTO 00000KT 2 1/2SM BR BKN011 BKN017 OVC036 15/15 A2987 1070 100 1400 000/00 RMK AO2
14926KSTC STC20011114154512311/14/01 15:45:31  5-MIN KSTC 142145Z AUTO 00000KT 2 1/2SM BR BKN013 BKN019 OVC036 15/15 A2987 1070 100 1400 000/00 RMK AO2
14926KSTC STC20011114155013911/14/01 15:50:31  5-MIN KSTC 142150Z AUTO 21003KT 2 1/2SM BR SCT011 BKN019 OVC036 16/15 A2988 1070 96 1400 210/03 RMK AO2 SLP128 T01560150
14926KSTC STC20011114155511811/14/01 15:55:31  5-MIN KSTC 142155Z AUTO 22003KT 3SM BR FEW013 BKN019 OVC036 16/15 A2987 1070 96 1400 210/03 RMK AO2
14926KSTC STC20011114160011811/14/01 16:00:31  5-MIN KSTC 142200Z AUTO 21005KT 3SM BR FEW013 BKN019 OVC036 16/15 A2987 1070 96 1400 210/05 RMK AO2
14926KSTC STC20011114160511811/14/01 16:05:31  5-MIN KSTC 142205Z AUTO 21005KT 4SM BR FEW013 BKN019 OVC038 16/15 A2988 1070 96 1400 210/05 RMK AO2
14926KSTC STC20011114161011111/14/01 16:10:31  5-MIN KSTC 142210Z AUTO 21005KT 4SM BR BKN019 OVC038 16/15 A2988 1070 96 1400 200/05 RMK AO2
14926KSTC STC20011114161511811/14/01 16:15:31  5-MIN KSTC 142215Z AUTO 21006KT 4SM BR FEW015 BKN020 OVC038 16/15 A2988 1060 96 1400 210/06 RMK AO2
14926KSTC STC20011114162011811/14/01 16:20:31  5-MIN KSTC 142220Z AUTO 21005KT 4SM BR FEW015 SCT020 OVC036 16/14 A2988 1070 93 1400 210/05 RMK AO2
14926KSTC STC20011114162511811/14/01 16:25:31  5-MIN KSTC 142225Z AUTO 21005KT 4SM BR FEW015 SCT022 BKN036 15/14 A2988 1070 96 1400 210/05 RMK AO2
14926KSTC STC20011114163011111/14/01 16:30:31  5-MIN KSTC 142230Z AUTO 20005KT 4SM BR FEW015 BKN036 15/14 A2988 1070 96 1400 200/05 RMK AO2
14926KSTC STC20011114163511111/14/01 16:35:31  5-MIN KSTC 142235Z AUTO 22006KT 4SM BR FEW015 BKN036 15/14 A2988 1060 96 1300 210/06 RMK AO2
14926KSTC STC20011114164010411/14/01 16:40:31  5-MIN KSTC 142240Z AUTO 22006KT 5SM BR SCT036 15/14 A2988 1060 93 1300 220/06 RMK AO2
14926KSTC STC20011114164510411/14/01 16:45:31  5-MIN KSTC 142245Z AUTO 23005KT 5SM BR SCT036 14/14 A2988 1060 96 1300 220/05 RMK AO2
14926KSTC STC20011114165012811/14/01 16:50:31  5-MIN KSTC 142250Z AUTO 22005KT 5SM BR SCT021 SCT036 14/14 A2989 1060 96 1300 210/05 RMK AO2 SLP131 T01440139
14926KSTC STC20011114165511111/14/01 16:55:31  5-MIN KSTC 142255Z AUTO 22005KT 5SM BR SCT021 BKN036 14/14 A2989 1060 96 1300 220/05 RMK AO2
14926KSTC STC20011114170011211/14/01 17:00:31  5-MIN KSTC 142300Z AUTO 22005KT 5SM BR SCT021 SCT036 14/14 A2989 1050 100 1200 220/05 RMK AO2
14926KSTC STC20011114170510411/14/01 17:05:31  5-MIN KSTC 142305Z AUTO 22004KT 5SM BR FEW021 14/14 A2989 1050 96 1300 210/04 RMK AO2
14926KSTC STC20011114171010511/14/01 17:10:31  5-MIN KSTC 142310Z AUTO 21003KT 6SM BR FEW021 14/14 A2989 1050 100 1200 210/03 RMK AO2
14926KSTC STC20011114171510511/14/01 17:15:31  5-MIN KSTC 142315Z AUTO 19003KT 5SM BR FEW021 14/14 A2989 1050 100 1200 190/03 RMK AO2
14926KSTC STC20011114172010411/14/01 17:20:31  5-MIN KSTC 142320Z AUTO 00000KT 5SM BR FEW021 14/13 A2990 1050 96 1200 000/00 RMK AO2
14926KSTC STC20011114172510211/14/01 17:25:31  5-MIN KSTC 142325Z AUTO 20003KT 5SM BR CLR 13/13 A2990 1050 100 1100 200/03 RMK AO2
14926KSTC STC20011114173010211/14/01 17:30:31  5-MIN KSTC 142330Z AUTO 17003KT 4SM BR CLR 13/13 A2990 1050 100 1100 170/03 RMK AO2
14926KSTC STC20011114173510211/14/01 17:35:31  5-MIN KSTC 142335Z AUTO 17004KT 4SM BR CLR 12/12 A2990 1050 100 1000 170/04 RMK AO2
14926KSTC STC20011114174010211/14/01 17:40:31  5-MIN KSTC 142340Z AUTO 18004KT 3SM BR CLR 12/12 A2990 1050 100 1000 180/04 RMK AO2
14926KSTC STC20011114174510211/14/01 17:45:31  5-MIN KSTC 142345Z AUTO 18005KT 3SM BR CLR 12/12 A2990 1040 100 1000 180/05 RMK AO2
14926KSTC STC20011114175013611/14/01 17:50:31  5-MIN KSTC 142350Z AUTO 19005KT 3SM BR CLR 12/12 A2990 1040 100 900 190/05 RMK AO2 SLP138 T01170117 10156 20117 58014
14926KSTC STC20011114175510511/14/01 17:55:31  5-MIN KSTC 142355Z AUTO 20003KT 4SM BR FEW018 12/12 A2991 1040 100 1000 200/03 RMK AO2
14926KSTC STC20011114180010511/14/01 18:00:31  5-MIN KSTC 150000Z AUTO 20003KT 4SM BR SCT018 12/12 A2991 1040 100 1000 190/03 RMK AO2
14926KSTC STC20011114180510511/14/01 18:05:31  5-MIN KSTC 150005Z AUTO 19003KT 3SM BR BKN018 12/12 A2991 1040 100 1000 180/03 RMK AO2
14926KSTC STC20011114181011211/14/01 18:10:31  5-MIN KSTC 150010Z AUTO 00000KT 3SM BR SCT018 BKN035 12/12 A2991 1040 100 1000 000/00 RMK AO2
14926KSTC STC20011114181511611/14/01 18:15:31  5-MIN KSTC 150015Z AUTO 17003KT 1 1/2SM BR SCT018 BKN035 12/12 A2991 1040 100 1000 170/03 RMK AO2
14926KSTC STC20011114182011611/14/01 18:20:31  5-MIN KSTC 150020Z AUTO 18004KT 1 1/4SM BR SCT018 OVC033 12/12 A2990 1040 100 1000 170/04 RMK AO2
14926KSTC STC20011114182511211/14/01 18:25:31  5-MIN KSTC 150025Z AUTO 17004KT 2SM BR FEW018 OVC033 12/12 A2990 1040 100 1000 170/04 RMK AO2
14926KSTC STC20011114183011611/14/01 18:30:31  5-MIN KSTC 150030Z AUTO 18004KT 2 1/2SM BR FEW018 OVC033 12/12 A2990 1040 100 1000 170/04 RMK AO2
14926KSTC STC20011114183510511/14/01 18:35:31  5-MIN KSTC 150035Z AUTO 18005KT 3SM BR OVC033 12/12 A2990 1040 100 1000 170/05 RMK AO2
14926KSTC STC20011114184010511/14/01 18:40:31  5-MIN KSTC 150040Z AUTO 18005KT 4SM BR OVC033 13/13 A2990 1040 100 1100 180/05 RMK AO2
14926KSTC STC20011114184510511/14/01 18:45:31  5-MIN KSTC 150045Z AUTO 19004KT 4SM BR OVC033 13/13 A2991 1040 100 1100 190/04 RMK AO2
14926KSTC STC20011114185012211/14/01 18:50:31  5-MIN KSTC 150050Z AUTO 19004KT 5SM BR OVC031 13/13 A2991 1040 100 1100 180/04 RMK AO2 SLP139 T01330133
14926KSTC STC20011114185510511/14/01 18:55:31  5-MIN KSTC 150055Z AUTO 19004KT 4SM BR OVC031 13/13 A2991 1030 100 1100 190/04 RMK AO2
14926KSTC STC20011114190010511/14/01 19:00:31  5-MIN KSTC 150100Z AUTO 19003KT 4SM BR OVC031 13/13 A2991 1040 100 1100 190/03 RMK AO2
14926KSTC STC20011114190510511/14/01 19:05:31  5-MIN KSTC 150105Z AUTO 00000KT 4SM BR OVC031 13/13 A2991 1030 100 1100 000/00 RMK AO2
14926KSTC STC20011114191010511/14/01 19:10:31  5-MIN KSTC 150110Z AUTO 19004KT 4SM BR OVC031 13/13 A2991 1040 100 1100 190/04 RMK AO2
14926KSTC STC20011114191510511/14/01 19:15:31  5-MIN KSTC 150115Z AUTO 19006KT 4SM BR OVC031 13/13 A2991 1030 100 1100 190/06 RMK AO2
14926KSTC STC20011114192010511/14/01 19:20:31  5-MIN KSTC 150120Z AUTO 19006KT 4SM BR OVC031 13/13 A2991 1030 100 1100 180/06 RMK AO2
14926KSTC STC20011114192510511/14/01 19:25:31  5-MIN KSTC 150125Z AUTO 18004KT 4SM BR OVC031 13/13 A2991 1030 100 1100 180/04 RMK AO2
14926KSTC STC20011114193010511/14/01 19:30:31  5-MIN KSTC 150130Z AUTO 18004KT 4SM BR OVC031 13/13 A2991 1040 100 1100 180/04 RMK AO2
14926KSTC STC20011114193510511/14/01 19:35:31  5-MIN KSTC 150135Z AUTO 19005KT 4SM BR OVC031 13/13 A2991 1030 100 1100 180/05 RMK AO2
14926KSTC STC20011114194010511/14/01 19:40:31  5-MIN KSTC 150140Z AUTO 20004KT 5SM BR OVC031 13/13 A2991 1040 100 1100 190/04 RMK AO2
14926KSTC STC20011114194510511/14/01 19:45:31  5-MIN KSTC 150145Z AUTO 21004KT 4SM BR OVC031 13/13 A2991 1040 100 1100 200/04 RMK AO2
14926KSTC STC20011114195012211/14/01 19:50:31  5-MIN KSTC 150150Z AUTO 20004KT 4SM BR OVC031 13/13 A2991 1040 100 1100 190/04 RMK AO2 SLP139 T01280128
14926KSTC STC20011114195510511/14/01 19:55:31  5-MIN KSTC 150155Z AUTO 20005KT 4SM BR OVC031 13/13 A2991 1040 100 1100 190/05 RMK AO2
14926KSTC STC20011114200010511/14/01 20:00:31  5-MIN KSTC 150200Z AUTO 20005KT 4SM BR OVC031 13/13 A2991 1040 100 1100 190/05 RMK AO2
14926KSTC STC20011114200510511/14/01 20:05:31  5-MIN KSTC 150205Z AUTO 20006KT 5SM BR OVC031 13/13 A2991 1040 100 1100 190/06 RMK AO2
14926KSTC STC20011114201010511/14/01 20:10:31  5-MIN KSTC 150210Z AUTO 19005KT 4SM BR OVC031 12/12 A2991 1040 100 1000 190/05 RMK AO2
14926KSTC STC20011114201510511/14/01 20:15:31  5-MIN KSTC 150215Z AUTO 19005KT 5SM BR OVC031 12/12 A2991 1040 100 1000 190/05 RMK AO2
14926KSTC STC20011114202010511/14/01 20:20:31  5-MIN KSTC 150220Z AUTO 19006KT 5SM BR OVC031 13/13 A2991 1040 100 1100 180/06 RMK AO2
14926KSTC STC20011114202510511/14/01 20:25:31  5-MIN KSTC 150225Z AUTO 19005KT 5SM BR OVC029 13/13 A2991 1030 100 1100 180/05 RMK AO2
14926KSTC STC20011114203010511/14/01 20:30:31  5-MIN KSTC 150230Z AUTO 19006KT 5SM BR BKN029 12/12 A2991 1040 100 1000 190/06 RMK AO2
14926KSTC STC20011114203510511/14/01 20:35:31  5-MIN KSTC 150235Z AUTO 19005KT 5SM BR BKN029 12/12 A2991 1040 100 1000 190/05 RMK AO2
14926KSTC STC20011114204010511/14/01 20:40:31  5-MIN KSTC 150240Z AUTO 19006KT 5SM BR SCT029 12/12 A2991 1040 100 1000 180/06 RMK AO2
14926KSTC STC20011114204510411/14/01 20:45:31  5-MIN KSTC 150245Z AUTO 19006KT 5SM BR FEW029 12/12 A2991 1040 100 900 180/06 RMK AO2
14926KSTC STC20011114205012711/14/01 20:50:31  5-MIN KSTC 150250Z AUTO 19006KT 5SM BR FEW029 12/12 A2991 1040 100 900 190/06 RMK AO2 SLP139 T01170117 53014
14926KSTC STC20011114205510111/14/01 20:55:31  5-MIN KSTC 150255Z AUTO 19006KT 5SM BR CLR 12/12 A2991 1040 100 900 190/06 RMK AO2
14926KSTC STC20011114210010111/14/01 21:00:31  5-MIN KSTC 150300Z AUTO 20006KT 5SM BR CLR 12/12 A2991 1040 100 900 200/06 RMK AO2
14926KSTC STC20011114210510111/14/01 21:05:31  5-MIN KSTC 150305Z AUTO 20006KT 4SM BR CLR 11/11 A2991 1040 100 900 200/06 RMK AO2
14926KSTC STC20011114211010111/14/01 21:10:31  5-MIN KSTC 150310Z AUTO 20006KT 4SM BR CLR 11/11 A2991 1040 100 900 200/06 RMK AO2
14926KSTC STC20011114211510111/14/01 21:15:31  5-MIN KSTC 150315Z AUTO 20006KT 4SM BR CLR 11/11 A2991 1040 100 900 190/06 RMK AO2
14926KSTC STC20011114212010111/14/01 21:20:31  5-MIN KSTC 150320Z AUTO 20005KT 4SM BR CLR 11/11 A2991 1040 100 900 190/05 RMK AO2
14926KSTC STC20011114212510111/14/01 21:25:31  5-MIN KSTC 150325Z AUTO 20005KT 4SM BR CLR 11/11 A2991 1040 100 800 190/05 RMK AO2
14926KSTC STC20011114213010111/14/01 21:30:31  5-MIN KSTC 150330Z AUTO 20005KT 4SM BR CLR 11/11 A2991 1040 100 800 190/05 RMK AO2
14926KSTC STC20011114213510111/14/01 21:35:31  5-MIN KSTC 150335Z AUTO 21005KT 4SM BR CLR 11/11 A2991 1030 100 900 200/05 RMK AO2
14926KSTC STC20011114214010111/14/01 21:40:31  5-MIN KSTC 150340Z AUTO 20004KT 4SM BR CLR 11/11 A2991 1030 100 900 190/04 RMK AO2
14926KSTC STC20011114214510111/14/01 21:45:31  5-MIN KSTC 150345Z AUTO 19004KT 3SM BR CLR 11/11 A2991 1030 100 800 180/04 RMK AO2
14926KSTC STC20011114215011811/14/01 21:50:31  5-MIN KSTC 150350Z AUTO 19004KT 3SM BR CLR 10/10 A2991 1040 100 700 190/04 RMK AO2 SLP139 T01000100
14926KSTC STC20011114215510511/14/01 21:55:31  5-MIN KSTC 150355Z AUTO 19004KT 2 1/2SM BR CLR 10/10 A2991 1040 100 700 190/04 RMK AO2
14926KSTC STC20011114220010511/14/01 22:00:31  5-MIN KSTC 150400Z AUTO 19004KT 2 1/2SM BR CLR 10/10 A2991 1040 100 700 190/04 RMK AO2
14926KSTC STC20011114220510111/14/01 22:05:31  5-MIN KSTC 150405Z AUTO 19004KT 2SM BR CLR 10/10 A2991 1040 100 700 190/04 RMK AO2
14926KSTC STC20011114221010511/14/01 22:10:31  5-MIN KSTC 150410Z AUTO 20003KT 1 3/4SM BR CLR 10/10 A2991 1030 100 700 200/03 RMK AO2
14926KSTC STC20011114221510511/14/01 22:15:31  5-MIN KSTC 150415Z AUTO 20005KT 1 1/2SM BR CLR 10/10 A2991 1030 100 700 200/05 RMK AO2
14926KSTC STC20011114222010111/14/01 22:20:31  5-MIN KSTC 150420Z AUTO 20005KT 1SM BR CLR 09/09 A2991 1030 100 700 200/05 RMK AO2
14926KSTC STC20011114222510311/14/01 22:25:31  5-MIN KSTC 150425Z AUTO 21005KT 3/4SM BR CLR 09/09 A2991 1030 100 700 200/05 RMK AO2
14926KSTC STC20011114223010311/14/01 22:30:31  5-MIN KSTC 150430Z AUTO 21005KT 3/4SM BR CLR 09/09 A2991 1030 100 700 200/05 RMK AO2
14926KSTC STC20011114223510311/14/01 22:35:31  5-MIN KSTC 150435Z AUTO 22004KT 3/4SM BR CLR 10/10 A2992 1030 100 700 210/04 RMK AO2
14926KSTC STC20011114224010311/14/01 22:40:31  5-MIN KSTC 150440Z AUTO 22004KT 1/2SM FG CLR 09/09 A2992 1030 100 700 210/04 RMK AO2
14926KSTC STC20011114224510511/14/01 22:45:31  5-MIN KSTC 150445Z AUTO 22003KT 1/2SM FG VV001 09/09 A2992 1030 100 600 210/03 RMK AO2
14926KSTC STC20011114225012211/14/01 22:50:31  5-MIN KSTC 150450Z AUTO 00000KT 1/4SM FG VV001 09/09 A2992 1030 100 600 000/00 RMK AO2 SLP143 T00940094
14926KSTC STC20011114225510511/14/01 22:55:31  5-MIN KSTC 150455Z AUTO 00000KT 1/4SM FG VV001 09/09 A2992 1020 100 600 000/00 RMK AO2
14926KSTC STC20011114230010511/14/01 23:00:31  5-MIN KSTC 150500Z AUTO 00000KT 1/2SM FG VV001 09/09 A2992 1020 100 600 000/00 RMK AO2
14926KSTC STC20011114230510511/14/01 23:05:31  5-MIN KSTC 150505Z AUTO 00000KT 1/2SM FG VV001 10/10 A2992 1030 100 700 000/00 RMK AO2
14926KSTC STC20011114231010511/14/01 23:10:31  5-MIN KSTC 150510Z AUTO 00000KT 1/2SM FG VV001 09/09 A2992 1030 100 600 000/00 RMK AO2
14926KSTC STC20011114231510511/14/01 23:15:31  5-MIN KSTC 150515Z AUTO 00000KT 1/4SM FG VV001 09/09 A2992 1020 100 600 000/00 RMK AO2
14926KSTC STC20011114232010511/14/01 23:20:31  5-MIN KSTC 150520Z AUTO 20003KT 1/4SM FG VV001 08/08 A2993 1020 100 500 190/03 RMK AO2
14926KSTC STC20011114232510511/14/01 23:25:31  5-MIN KSTC 150525Z AUTO 20004KT 1/4SM FG VV001 09/09 A2993 1020 100 600 200/04 RMK AO2
14926KSTC STC20011114233010511/14/01 23:30:31  5-MIN KSTC 150530Z AUTO 20005KT 1/4SM FG VV001 08/08 A2993 1020 100 400 200/05 RMK AO2
14926KSTC STC20011114233510511/14/01 23:35:31  5-MIN KSTC 150535Z AUTO 20005KT 1/4SM FG VV001 08/08 A2992 1020 100 500 200/05 RMK AO2
14926KSTC STC20011114234010511/14/01 23:40:31  5-MIN KSTC 150540Z AUTO 20005KT 1/4SM FG VV001 08/08 A2992 1030 100 400 200/05 RMK AO2
14926KSTC STC20011114234510511/14/01 23:45:31  5-MIN KSTC 150545Z AUTO 19005KT 1/4SM FG VV001 07/07 A2992 1030 100 400 190/05 RMK AO2
14926KSTC STC20011114235015011/14/01 23:50:31  5-MIN KSTC 150550Z AUTO 20005KT 1/4SM FG VV001 07/07 A2992 1020 100 300 190/05 RMK AO2 SLP144 T00670067 10133 20067 401560050 50000
14926KSTC STC20011114235510511/14/01 23:55:31  5-MIN KSTC 150555Z AUTO 20004KT 1/4SM FG VV001 07/07 A2992 1020 100 300 200/04 RMK AO2
14926KSTC STC20011115000011311/15/01 00:00:31  5-MIN KSTC 150600Z AUTO 20004KT 1/4SM FG BKN001 OVC015 07/07 A2992 1020 100 400 190/04 RMK AO2
14926KSTC STC20011115000511311/15/01 00:05:31  5-MIN KSTC 150605Z AUTO 20003KT 1/4SM FG BKN001 OVC015 07/07 A2993 1020 100 400 200/03 RMK AO2
14926KSTC STC20011115001011311/15/01 00:10:31  5-MIN KSTC 150610Z AUTO 20003KT 1/4SM FG BKN001 OVC009 07/07 A2993 1020 100 400 200/03 RMK AO2
14926KSTC STC20011115001511311/15/01 00:15:31  5-MIN KSTC 150615Z AUTO 22003KT 1/4SM FG BKN001 OVC009 07/07 A2992 1020 100 400 210/03 RMK AO2
14926KSTC STC20011115002011311/15/01 00:20:31  5-MIN KSTC 150620Z AUTO 22003KT 1/4SM FG BKN001 OVC009 07/07 A2992 1020 100 400 210/03 RMK AO2
14926KSTC STC20011115002510511/15/01 00:25:31  5-MIN KSTC 150625Z AUTO 22003KT 1/4SM FG VV001 08/08 A2992 1020 100 400 220/03 RMK AO2
14926KSTC STC20011115003011111/15/01 00:30:31  5-MIN KSTC 150630Z AUTO 21003KT 1/4SM FG VV001 07/07 A2992 1020 100 400 210/03 RMK AO2 P0001
14926KSTC STC20011115003511111/15/01 00:35:31  5-MIN KSTC 150635Z AUTO 19003KT 1/4SM FG VV001 07/07 A2992 1030 100 300 190/03 RMK AO2 P0001
14926KSTC STC20011115004011111/15/01 00:40:31  5-MIN KSTC 150640Z AUTO 18003KT 1/4SM FG VV001 07/07 A2992 1030 100 400 170/03 RMK AO2 P0001
14926KSTC STC20011115004511111/15/01 00:45:31  5-MIN KSTC 150645Z AUTO 18004KT 1/4SM FG VV001 07/07 A2992 1030 100 400 180/04 RMK AO2 P0001
14926KSTC STC20011115005012811/15/01 00:50:31  5-MIN KSTC 150650Z AUTO 18004KT 1/4SM FG VV001 07/07 A2992 1030 100 400 180/04 RMK AO2 SLP142 P0001 T00720072
14926KSTC STC20011115005510511/15/01 00:55:31  5-MIN KSTC 150655Z AUTO 00000KT 1/4SM FG VV001 07/07 A2992 1030 100 300 000/00 RMK AO2
14926KSTC STC20011115010010511/15/01 01:00:31  5-MIN KSTC 150700Z AUTO 00000KT 1/4SM FG VV001 07/07 A2992 1020 100 400 000/00 RMK AO2
14926KSTC STC20011115010510511/15/01 01:05:31  5-MIN KSTC 150705Z AUTO 21003KT 1/4SM FG VV001 07/07 A2992 1030 100 400 210/03 RMK AO2
14926KSTC STC20011115011010511/15/01 01:10:31  5-MIN KSTC 150710Z AUTO 00000KT 1/4SM FG VV001 07/07 A2992 1030 100 400 000/00 RMK AO2
14926KSTC STC20011115011510511/15/01 01:15:31  5-MIN KSTC 150715Z AUTO 20003KT 1/4SM FG VV001 07/07 A2992 1030 100 300 190/03 RMK AO2
14926KSTC STC20011115012011311/15/01 01:20:31  5-MIN KSTC 150720Z AUTO 19005KT 1/4SM FG BKN001 OVC011 06/06 A2992 1030 100 200 190/05 RMK AO2
14926KSTC STC20011115012511311/15/01 01:25:31  5-MIN KSTC 150725Z AUTO 18004KT 1/4SM FG BKN001 OVC011 05/05 A2992 1030 100 100 180/04 RMK AO2
14926KSTC STC20011115013011311/15/01 01:30:31  5-MIN KSTC 150730Z AUTO 19004KT 1/4SM FG BKN001 OVC011 06/06 A2992 1030 100 200 190/04 RMK AO2
14926KSTC STC20011115013511311/15/01 01:35:31  5-MIN KSTC 150735Z AUTO 19003KT 1/2SM FG BKN001 BKN011 06/06 A2992 1030 100 200 190/03 RMK AO2
14926KSTC STC20011115014011311/15/01 01:40:31  5-MIN KSTC 150740Z AUTO 00000KT 1/4SM FG BKN001 BKN011 06/06 A2992 1020 100 200 000/00 RMK AO2
14926KSTC STC20011115014511311/15/01 01:45:31  5-MIN KSTC 150745Z AUTO 21003KT 1/4SM FG SCT001 OVC009 07/07 A2992 1020 100 300 200/03 RMK AO2
14926KSTC STC20011115015013011/15/01 01:50:31  5-MIN KSTC 150750Z AUTO 22003KT 1/4SM FG SCT001 OVC009 07/07 A2992 1020 100 300 210/03 RMK AO2 SLP145 T00670067
14926KSTC STC20011115015511311/15/01 01:55:31  5-MIN KSTC 150755Z AUTO 19003KT 1/4SM FG FEW001 OVC009 06/06 A2992 1020 100 200 190/03 RMK AO2
14926KSTC STC20011115020011311/15/01 02:00:31  5-MIN KSTC 150800Z AUTO 19003KT 1/4SM FG FEW001 OVC009 06/06 A2992 1020 100 200 180/03 RMK AO2
14926KSTC STC20011115020511311/15/01 02:05:31  5-MIN KSTC 150805Z AUTO 17003KT 1/4SM FG FEW001 OVC009 06/06 A2992 1030 100 200 170/03 RMK AO2
14926KSTC STC20011115021011311/15/01 02:10:31  5-MIN KSTC 150810Z AUTO 19004KT 1/4SM FG SCT001 OVC009 05/05 A2992 1020 100 100 190/04 RMK AO2
14926KSTC STC20011115021511311/15/01 02:15:31  5-MIN KSTC 150815Z AUTO 19004KT 1/4SM FG SCT001 OVC009 05/05 A2993 1020 100 100 180/04 RMK AO2
14926KSTC STC20011115022011111/15/01 02:20:31  5-MIN KSTC 150820Z AUTO 19004KT 1/4SM FG BKN001 OVC009 04/04 A2993 1020 100 0 190/04 RMK AO2
14926KSTC STC20011115022511311/15/01 02:25:31  5-MIN KSTC 150825Z AUTO 18004KT 1/2SM FG BKN001 OVC009 05/05 A2992 1020 100 100 180/04 RMK AO2
14926KSTC STC20011115023011311/15/01 02:30:31  5-MIN KSTC 150830Z AUTO 18004KT 1/4SM FG BKN001 OVC009 05/05 A2992 1020 100 100 180/04 RMK AO2
14926KSTC STC20011115023511311/15/01 02:35:31  5-MIN KSTC 150835Z AUTO 17004KT 1/4SM FG BKN001 OVC025 05/05 A2992 1020 100 100 170/04 RMK AO2
14926KSTC STC20011115024010511/15/01 02:40:31  5-MIN KSTC 150840Z AUTO 17004KT 1/4SM FG VV001 06/06 A2993 1020 100 200 170/04 RMK AO2
14926KSTC STC20011115024510511/15/01 02:45:31  5-MIN KSTC 150845Z AUTO 00000KT 1/4SM FG VV001 07/07 A2993 1020 100 300 000/00 RMK AO2
14926KSTC STC20011115025013411/15/01 02:50:31  5-MIN KSTC 150850Z AUTO 18003KT 1/2SM FG VV001 07/07 A2993 1020 100 300 180/03 RMK AO2 SLP146 60001 T00670067 51006
14926KSTC STC20011115025510511/15/01 02:55:31  5-MIN KSTC 150855Z AUTO 20003KT 3/4SM BR VV001 07/07 A2993 1020 100 300 190/03 RMK AO2
14926KSTC STC20011115030010511/15/01 03:00:31  5-MIN KSTC 150900Z AUTO 19003KT 1/2SM FG VV001 06/06 A2993 1020 100 200 180/03 RMK AO2
14926KSTC STC20011115030510311/15/01 03:05:31  5-MIN KSTC 150905Z AUTO 18003KT 1/4SM FG VV001 04/04 A2992 1020 100 0 180/03 RMK AO2
14926KSTC STC20011115031010311/15/01 03:10:31  5-MIN KSTC 150910Z AUTO 17004KT 1/4SM FG VV001 04/04 A2992 1030 100 0 170/04 RMK AO2
14926KSTC STC20011115031510311/15/01 03:15:31  5-MIN KSTC 150915Z AUTO 18004KT 1/4SM FG VV001 04/04 A2992 1030 100 0 170/04 RMK AO2
14926KSTC STC20011115032010311/15/01 03:20:31  5-MIN KSTC 150920Z AUTO 18003KT 1/2SM FG VV001 04/04 A2992 1020 100 0 180/03 RMK AO2
14926KSTC STC20011115032510311/15/01 03:25:31  5-MIN KSTC 150925Z AUTO 00000KT 1/2SM FG VV001 04/04 A2993 1020 100 0 000/00 RMK AO2
14926KSTC STC20011115033010311/15/01 03:30:31  5-MIN KSTC 150930Z AUTO 00000KT 1/2SM FG VV001 04/04 A2993 1020 100 0 000/00 RMK AO2
14926KSTC STC20011115033510311/15/01 03:35:31  5-MIN KSTC 150935Z AUTO 00000KT 1/2SM FG VV001 04/04 A2993 1020 100 0 000/00 RMK AO2
14926KSTC STC20011115034010611/15/01 03:40:31  5-MIN KSTC 150940Z AUTO 16003KT 1/2SM FG VV001 03/03 A2992 1020 100 -100 160/03 RMK AO2
14926KSTC STC20011115034510611/15/01 03:45:31  5-MIN KSTC 150945Z AUTO 16004KT 1/2SM FG VV001 03/03 A2992 1020 100 -100 150/04 RMK AO2
14926KSTC STC20011115035012311/15/01 03:50:31  5-MIN KSTC 150950Z AUTO 16004KT 1/4SM FG VV001 03/03 A2992 1020 100 -100 160/04 RMK AO2 SLP146 T00280028
14926KSTC STC20011115035510611/15/01 03:55:31  5-MIN KSTC 150955Z AUTO 18004KT 1/2SM FG VV001 03/03 A2993 1020 100 -100 180/04 RMK AO2
14926KSTC STC20011115040010311/15/01 04:00:31  5-MIN KSTC 151000Z AUTO 18003KT 3/4SM BR VV001 04/04 A2993 1020 100 0 180/03 RMK AO2
14926KSTC STC20011115040510111/15/01 04:05:31  5-MIN KSTC 151005Z AUTO 18004KT 1SM BR VV001 04/04 A2993 1020 100 0 180/04 RMK AO2
14926KSTC STC20011115041010311/15/01 04:10:31  5-MIN KSTC 151010Z AUTO 17004KT 3/4SM BR VV001 04/04 A2993 1020 100 0 170/04 RMK AO2
14926KSTC STC20011115041510611/15/01 04:15:31  5-MIN KSTC 151015Z AUTO 17003KT 1/2SM FG VV001 03/03 A2993 1020 100 -100 170/03 RMK AO2
14926KSTC STC20011115042010611/15/01 04:20:31  5-MIN KSTC 151020Z AUTO 18003KT 1/2SM FG VV001 03/03 A2993 1020 100 -100 180/03 RMK AO2
14926KSTC STC20011115042510611/15/01 04:25:31  5-MIN KSTC 151025Z AUTO 00000KT 1/2SM FG VV001 03/03 A2993 1020 100 -100 000/00 RMK AO2
14926KSTC STC20011115043010611/15/01 04:30:31  5-MIN KSTC 151030Z AUTO 17003KT 1/2SM FG VV001 03/03 A2993 1020 100 -100 170/03 RMK AO2
14926KSTC STC20011115043510611/15/01 04:35:31  5-MIN KSTC 151035Z AUTO 17003KT 1/2SM FG VV001 03/03 A2993 1020 100 -100 170/03 RMK AO2
14926KSTC STC20011115044010611/15/01 04:40:31  5-MIN KSTC 151040Z AUTO 18004KT 1/2SM FG VV001 03/03 A2993 1020 100 -100 180/04 RMK AO2
14926KSTC STC20011115044510611/15/01 04:45:31  5-MIN KSTC 151045Z AUTO 18003KT 1/4SM FG VV001 03/03 A2993 1020 100 -100 180/03 RMK AO2
14926KSTC STC20011115045012311/15/01 04:50:31  5-MIN KSTC 151050Z AUTO 19004KT 1/4SM FG VV001 03/03 A2993 1020 100 -100 180/04 RMK AO2 SLP149 T00330033
14926KSTC STC20011115045510311/15/01 04:55:31  5-MIN KSTC 151055Z AUTO 18004KT 1/2SM FG VV001 04/04 A2993 1020 100 0 180/04 RMK AO2
14926KSTC STC20011115050010311/15/01 05:00:31  5-MIN KSTC 151100Z AUTO 18003KT 1/2SM FG VV001 04/04 A2993 1020 100 0 180/03 RMK AO2
14926KSTC STC20011115050510311/15/01 05:05:31  5-MIN KSTC 151105Z AUTO 18003KT 1/2SM FG VV001 04/04 A2993 1020 100 0 170/03 RMK AO2
14926KSTC STC20011115051010111/15/01 05:10:31  5-MIN KSTC 151110Z AUTO 17003KT 1SM BR VV001 04/04 A2993 1020 100 0 170/03 RMK AO2
14926KSTC STC20011115051510211/15/01 05:15:31  5-MIN KSTC 151115Z AUTO 00000KT 2SM BR SCT001 04/04 A2993 1020 100 0 000/00 RMK AO2
14926KSTC STC20011115052010211/15/01 05:20:31  5-MIN KSTC 151120Z AUTO 00000KT 3SM BR SCT001 04/04 A2994 1010 100 0 000/00 RMK AO2
14926KSTC STC20011115052510211/15/01 05:25:31  5-MIN KSTC 151125Z AUTO 18003KT 4SM BR FEW001 04/04 A2994 1010 100 0 180/03 RMK AO2
14926KSTC STC20011115053010211/15/01 05:30:31  5-MIN KSTC 151130Z AUTO 18003KT 4SM BR FEW001 04/04 A2994 1010 100 0 180/03 RMK AO2
14926KSTC STC20011115053509911/15/01 05:35:31  5-MIN KSTC 151135Z AUTO 18004KT 4SM BR CLR 04/04 A2993 1020 100 0 180/04 RMK AO2
14926KSTC STC20011115054009911/15/01 05:40:31  5-MIN KSTC 151140Z AUTO 18004KT 4SM BR CLR 04/04 A2993 1010 100 0 180/04 RMK AO2
14926KSTC STC20011115054509911/15/01 05:45:31  5-MIN KSTC 151145Z AUTO 18004KT 4SM BR CLR 04/04 A2993 1010 100 0 180/04 RMK AO2
14926KSTC STC20011115055014611/15/01 05:50:31  5-MIN KSTC 151150Z AUTO 19004KT 5SM BR CLR 04/04 A2993 1020 100 0 180/04 RMK AO2 SLP150 60001 70001 T00390039 10078 20028 53001
14926KSTC STC20011115055509911/15/01 05:55:31  5-MIN KSTC 151155Z AUTO 19004KT 5SM BR CLR 04/04 A2993 1020 100 0 180/04 RMK AO2
14926KSTC STC20011115060009911/15/01 06:00:31  5-MIN KSTC 151200Z AUTO 18004KT 5SM BR CLR 04/04 A2993 1020 100 0 180/04 RMK AO2
14926KSTC STC20011115060509911/15/01 06:05:31  5-MIN KSTC 151205Z AUTO 18004KT 5SM BR CLR 04/04 A2993 1020 100 0 180/04 RMK AO2
14926KSTC STC20011115061009911/15/01 06:10:31  5-MIN KSTC 151210Z AUTO 19004KT 5SM BR CLR 04/04 A2993 1020 100 0 180/04 RMK AO2
14926KSTC STC20011115061509911/15/01 06:15:31  5-MIN KSTC 151215Z AUTO 18004KT 5SM BR CLR 04/04 A2993 1020 100 0 180/04 RMK AO2
14926KSTC STC20011115062009911/15/01 06:20:31  5-MIN KSTC 151220Z AUTO 18004KT 5SM BR CLR 04/04 A2993 1020 100 0 180/04 RMK AO2
14926KSTC STC20011115062509911/15/01 06:25:31  5-MIN KSTC 151225Z AUTO 18003KT 6SM BR CLR 04/04 A2993 1020 100 0 180/03 RMK AO2
14926KSTC STC20011115063009611/15/01 06:30:31  5-MIN KSTC 151230Z AUTO 00000KT 7SM CLR 04/04 A2994 1010 100 0 000/00 RMK AO2
14926KSTC STC20011115063509611/15/01 06:35:31  5-MIN KSTC 151235Z AUTO 00000KT 7SM CLR 04/04 A2994 1000 100 0 000/00 RMK AO2
14926KSTC STC20011115064009611/15/01 06:40:31  5-MIN KSTC 151240Z AUTO 00000KT 7SM CLR 04/04 A2994 1000 100 0 000/00 RMK AO2
14926KSTC STC20011115064509911/15/01 06:45:31  5-MIN KSTC 151245Z AUTO 00000KT 6SM BR CLR 04/04 A2994 1000 100 0 000/00 RMK AO2
14926KSTC STC20011115065011611/15/01 06:50:31  5-MIN KSTC 151250Z AUTO 00000KT 5SM BR CLR 04/04 A2994 1000 100 0 000/00 RMK AO2 SLP154 T00440044
14926KSTC STC20011115065509911/15/01 06:55:31  5-MIN KSTC 151255Z AUTO 00000KT 6SM BR CLR 04/04 A2994 1010 100 0 000/00 RMK AO2
14926KSTC STC20011115070009911/15/01 07:00:31  5-MIN KSTC 151300Z AUTO 00000KT 6SM BR CLR 04/04 A2994 1010 100 0 000/00 RMK AO2
14926KSTC STC20011115070510211/15/01 07:05:31  5-MIN KSTC 151305Z AUTO 20003KT 4SM BR CLR 03/03 A2994 1000 100 -100 200/03 RMK AO2
14926KSTC STC20011115071010211/15/01 07:10:31  5-MIN KSTC 151310Z AUTO 00000KT 2SM BR CLR 03/03 A2994 1000 100 -100 000/00 RMK AO2
14926KSTC STC20011115071510611/15/01 07:15:31  5-MIN KSTC 151315Z AUTO 19003KT 1 1/2SM BR CLR 03/03 A2995 1000 100 -100 190/03 RMK AO2
14926KSTC STC20011115072010211/15/01 07:20:31  5-MIN KSTC 151320Z AUTO 20003KT 2SM BR CLR 03/03 A2995 1000 100 -100 200/03 RMK AO2
14926KSTC STC20011115072510611/15/01 07:25:31  5-MIN KSTC 151325Z AUTO 00000KT 2 1/2SM BR CLR 03/03 A2995 1000 100 -100 000/00 RMK AO2
14926KSTC STC20011115073010611/15/01 07:30:31  5-MIN KSTC 151330Z AUTO 00000KT 2 1/2SM BR CLR 03/03 A2995 1000 100 -100 000/00 RMK AO2
14926KSTC STC20011115073510511/15/01 07:35:31  5-MIN KSTC 151335Z AUTO 00000KT 1 1/2SM BR CLR 03/03 A2996 990 100 -200 000/00 RMK AO2
14926KSTC STC20011115074010111/15/01 07:40:31  5-MIN KSTC 151340Z AUTO 18003KT 1SM BR CLR 03/03 A2996 990 100 -200 180/03 RMK AO2
14926KSTC STC20011115074510511/15/01 07:45:31  5-MIN KSTC 151345Z AUTO 18003KT 1 1/4SM BR CLR 03/03 A2996 990 100 -200 180/03 RMK AO2
14926KSTC STC20011115075012211/15/01 07:50:31  5-MIN KSTC 151350Z AUTO 00000KT 2 1/2SM BR CLR 03/03 A2997 980 100 -100 000/00 RMK AO2 SLP161 T00330033
14926KSTC STC20011115075510511/15/01 07:55:31  5-MIN KSTC 151355Z AUTO 00000KT 2 1/2SM BR CLR 03/03 A2997 980 100 -200 000/00 RMK AO2
14926KSTC STC20011115080010511/15/01 08:00:31  5-MIN KSTC 151400Z AUTO 00000KT 2 1/2SM BR CLR 03/03 A2997 980 100 -100 000/00 RMK AO2
14926KSTC STC20011115080510111/15/01 08:05:31  5-MIN KSTC 151405Z AUTO 00000KT 2SM BR CLR 03/03 A2996 990 100 -100 000/00 RMK AO2
14926KSTC STC20011115081010511/15/01 08:10:31  5-MIN KSTC 151410Z AUTO 00000KT 2 1/2SM BR CLR 03/03 A2996 990 100 -100 000/00 RMK AO2
14926KSTC STC20011115081510211/15/01 08:15:31  5-MIN KSTC 151415Z AUTO 00000KT 2 1/2SM BR CLR 04/04 A2996 990 100 0 000/00 RMK AO2
14926KSTC STC20011115082010211/15/01 08:20:31  5-MIN KSTC 151420Z AUTO 00000KT 2 1/2SM BR CLR 04/04 A2996 990 100 0 000/00 RMK AO2
14926KSTC STC20011115082510411/15/01 08:25:31  5-MIN KSTC 151425Z AUTO 00000KT 2 1/2SM BR CLR 05/05 A2997 980 100 100 000/00 RMK AO2
14926KSTC STC20011115083011411/15/01 08:30:31  5-MIN KSTC 151430Z AUTO 00000KT 2 1/2SM BR CLR 05/05 A2997 980 100 0 000/00 RMK AO2 VIS 1 1/2V3
14926KSTC STC20011115083510011/15/01 08:35:31  5-MIN KSTC 151435Z AUTO 00000KT 3SM BR CLR 06/06 A2997 980 100 200 000/00 RMK AO2
14926KSTC STC20011115084010011/15/01 08:40:31  5-MIN KSTC 151440Z AUTO 00000KT 4SM BR CLR 06/06 A2997 980 100 200 000/00 RMK AO2
14926KSTC STC20011115084510011/15/01 08:45:31  5-MIN KSTC 151445Z AUTO 21003KT 5SM BR CLR 07/07 A2997 980 100 300 200/03 RMK AO2
14926KSTC STC20011115085012311/15/01 08:50:31  5-MIN KSTC 151450Z AUTO 20003KT 6SM BR CLR 07/07 A2997 980 100 300 200/03 RMK AO2 SLP161 T00670067 53002
14926KSTC STC20011115085509911/15/01 08:55:31  5-MIN KSTC 151455Z AUTO 20003KT 6SM BR CLR 07/07 A2997 980 96 300 200/03 RMK AO2
14926KSTC STC20011115090009611/15/01 09:00:31  5-MIN KSTC 151500Z AUTO 20003KT 7SM CLR 08/07 A2997 990 96 400 200/03 RMK AO2
14926KSTC STC20011115090509611/15/01 09:05:31  5-MIN KSTC 151505Z AUTO 21003KT 8SM CLR 08/07 A2997 980 96 400 200/03 RMK AO2
14926KSTC STC20011115091009611/15/01 09:10:31  5-MIN KSTC 151510Z AUTO 00000KT 9SM CLR 08/07 A2997 980 93 500 000/00 RMK AO2
14926KSTC STC20011115091509611/15/01 09:15:31  5-MIN KSTC 151515Z AUTO 00000KT 9SM CLR 08/07 A2997 980 93 500 000/00 RMK AO2
14926KSTC STC20011115092009611/15/01 09:20:31  5-MIN KSTC 151520Z AUTO 19003KT 9SM CLR 08/08 A2997 980 96 500 180/03 RMK AO2
14926KSTC STC20011115092509711/15/01 09:25:31  5-MIN KSTC 151525Z AUTO 19003KT 10SM CLR 09/08 A2997 980 93 500 180/03 RMK AO2
14926KSTC STC20011115093009711/15/01 09:30:31  5-MIN KSTC 151530Z AUTO 19005KT 10SM CLR 09/08 A2997 980 89 600 190/05 RMK AO2
14926KSTC STC20011115093509711/15/01 09:35:31  5-MIN KSTC 151535Z AUTO 19003KT 10SM CLR 09/08 A2996 990 89 600 180/03 RMK AO2
14926KSTC STC20011115094009711/15/01 09:40:31  5-MIN KSTC 151540Z AUTO 19003KT 10SM CLR 10/08 A2996 990 86 700 190/03 RMK AO2
14926KSTC STC20011115094509711/15/01 09:45:31  5-MIN KSTC 151545Z AUTO 00000KT 10SM CLR 10/08 A2996 990 86 700 000/00 RMK AO2
14926KSTC STC20011115095011411/15/01 09:50:31  5-MIN KSTC 151550Z AUTO 00000KT 10SM CLR 11/08 A2997 990 83 700 000/00 RMK AO2 SLP159 T01060078
14926KSTC STC20011115095509711/15/01 09:55:31  5-MIN KSTC 151555Z AUTO 00000KT 10SM CLR 11/08 A2997 980 83 700 000/00 RMK AO2
14926KSTC STC20011115100009711/15/01 10:00:31  5-MIN KSTC 151600Z AUTO 00000KT 10SM CLR 11/08 A2997 980 83 700 000/00 RMK AO2
14926KSTC STC20011115100509711/15/01 10:05:31  5-MIN KSTC 151605Z AUTO 00000KT 10SM CLR 11/08 A2997 980 83 700 000/00 RMK AO2
14926KSTC STC20011115101009711/15/01 10:10:31  5-MIN KSTC 151610Z AUTO 00000KT 10SM CLR 11/08 A2997 980 83 700 000/00 RMK AO2
14926KSTC STC20011115101509711/15/01 10:15:31  5-MIN KSTC 151615Z AUTO 00000KT 10SM CLR 11/08 A2997 980 83 700 000/00 RMK AO2
14926KSTC STC20011115102009711/15/01 10:20:31  5-MIN KSTC 151620Z AUTO 00000KT 10SM CLR 11/08 A2997 980 83 700 000/00 RMK AO2
14926KSTC STC20011115102509711/15/01 10:25:31  5-MIN KSTC 151625Z AUTO 00000KT 10SM CLR 11/08 A2997 980 83 800 000/00 RMK AO2
14926KSTC STC20011115103009711/15/01 10:30:31  5-MIN KSTC 151630Z AUTO 00000KT 10SM CLR 11/08 A2997 980 83 800 000/00 RMK AO2
14926KSTC STC20011115103509711/15/01 10:35:31  5-MIN KSTC 151635Z AUTO 00000KT 10SM CLR 11/08 A2997 980 83 800 000/00 RMK AO2
14926KSTC STC20011115104009711/15/01 10:40:31  5-MIN KSTC 151640Z AUTO 00000KT 10SM CLR 11/08 A2997 980 83 800 000/00 RMK AO2
14926KSTC STC20011115104509711/15/01 10:45:31  5-MIN KSTC 151645Z AUTO 00000KT 10SM CLR 11/08 A2996 990 83 800 000/00 RMK AO2
14926KSTC STC20011115105011411/15/01 10:50:31  5-MIN KSTC 151650Z AUTO 00000KT 10SM CLR 12/08 A2997 990 80 900 000/00 RMK AO2 SLP159 T01170083
14926KSTC STC20011115105509711/15/01 10:55:31  5-MIN KSTC 151655Z AUTO 00000KT 10SM CLR 12/08 A2997 980 80 900 000/00 RMK AO2
14926KSTC STC20011115110009711/15/01 11:00:31  5-MIN KSTC 151700Z AUTO 00000KT 10SM CLR 12/09 A2996 990 80 900 000/00 RMK AO2
14926KSTC STC20011115110509811/15/01 11:05:31  5-MIN KSTC 151705Z AUTO VRB04KT 10SM CLR 13/08 A2996 990 74 1000 VRB/04 RMK AO2
14926KSTC STC20011115111009811/15/01 11:10:31  5-MIN KSTC 151710Z AUTO 27005KT 10SM CLR 13/07 A2997 980 69 1000 270/05 RMK AO2
14926KSTC STC20011115111509811/15/01 11:15:31  5-MIN KSTC 151715Z AUTO 24004KT 10SM CLR 13/08 A2997 980 69 1100 240/04 RMK AO2
14926KSTC STC20011115112009811/15/01 11:20:31  5-MIN KSTC 151720Z AUTO 27004KT 10SM CLR 14/07 A2997 980 64 1100 260/04 RMK AO2
14926KSTC STC20011115112509811/15/01 11:25:31  5-MIN KSTC 151725Z AUTO 25006KT 10SM CLR 14/07 A2996 990 64 1100 250/06 RMK AO2
14926KSTC STC20011115113009811/15/01 11:30:31  5-MIN KSTC 151730Z AUTO 23005KT 10SM CLR 14/08 A2996 990 66 1100 230/05 RMK AO2
14926KSTC STC20011115113509811/15/01 11:35:31  5-MIN KSTC 151735Z AUTO 24006KT 10SM CLR 14/07 A2996 990 64 1100 240/06 RMK AO2
14926KSTC STC20011115114009811/15/01 11:40:31  5-MIN KSTC 151740Z AUTO 22004KT 10SM CLR 14/07 A2996 990 61 1200 210/04 RMK AO2
14926KSTC STC20011115114509811/15/01 11:45:31  5-MIN KSTC 151745Z AUTO 24003KT 10SM CLR 14/07 A2997 980 61 1200 240/03 RMK AO2
14926KSTC STC20011115115013311/15/01 11:50:31  5-MIN KSTC 151750Z AUTO 24003KT 10SM CLR 14/07 A2996 990 61 1200 240/03 RMK AO2 SLP159 T01440072 10144 20028 51012
14926KSTC STC20011115115509811/15/01 11:55:31  5-MIN KSTC 151755Z AUTO 00000KT 10SM CLR 15/07 A2996 990 57 1300 000/00 RMK AO2
14926KSTC STC20011115120009811/15/01 12:00:31  5-MIN KSTC 151800Z AUTO 00000KT 10SM CLR 16/07 A2996 990 55 1300 000/00 RMK AO2
14926KSTC STC20011115120509811/15/01 12:05:31  5-MIN KSTC 151805Z AUTO 23005KT 10SM CLR 16/08 A2996 990 59 1300 230/05 RMK AO2
14926KSTC STC20011115121009811/15/01 12:10:31  5-MIN KSTC 151810Z AUTO 25007KT 10SM CLR 16/07 A2996 990 55 1400 240/07 RMK AO2
14926KSTC STC20011115121509811/15/01 12:15:31  5-MIN KSTC 151815Z AUTO 27007KT 10SM CLR 16/07 A2996 990 55 1400 260/07 RMK AO2
14926KSTC STC20011115122009811/15/01 12:20:31  5-MIN KSTC 151820Z AUTO 28006KT 10SM CLR 17/07 A2996 990 51 1500 280/06 RMK AO2
14926KSTC STC20011115122509811/15/01 12:25:31  5-MIN KSTC 151825Z AUTO 26005KT 10SM CLR 17/07 A2996 990 51 1500 260/05 RMK AO2
14926KSTC STC20011115123009811/15/01 12:30:31  5-MIN KSTC 151830Z AUTO 26007KT 10SM CLR 17/07 A2996 990 51 1500 260/07 RMK AO2
14926KSTC STC20011115123509811/15/01 12:35:31  5-MIN KSTC 151835Z AUTO 26006KT 10SM CLR 16/07 A2995 990 53 1400 260/06 RMK AO2
14926KSTC STC20011115124009911/15/01 12:40:31  5-MIN KSTC 151840Z AUTO 27006KT 10SM CLR 16/08 A2995 1000 57 1400 260/06 RMK AO2
14926KSTC STC20011115124509911/15/01 12:45:31  5-MIN KSTC 151845Z AUTO 27007KT 10SM CLR 16/07 A2995 1000 57 1300 270/07 RMK AO2
14926KSTC STC20011115125011611/15/01 12:50:31  5-MIN KSTC 151850Z AUTO 27006KT 10SM CLR 16/08 A2995 1000 59 1300 270/06 RMK AO2 SLP154 T01560078
14926KSTC STC20011115125509911/15/01 12:55:31  5-MIN KSTC 151855Z AUTO 30005KT 10SM CLR 16/08 A2995 1000 59 1300 300/05 RMK AO2
14926KSTC STC20011115130009811/15/01 13:00:31  5-MIN KSTC 151900Z AUTO 30005KT 10SM CLR 17/08 A2996 990 55 1500 290/05 RMK AO2
14926KSTC STC20011115130509811/15/01 13:05:31  5-MIN KSTC 151905Z AUTO 30004KT 10SM CLR 16/07 A2996 990 55 1400 300/04 RMK AO2
14926KSTC STC20011115131009811/15/01 13:10:31  5-MIN KSTC 151910Z AUTO 32004KT 10SM CLR 17/07 A2996 990 53 1500 320/04 RMK AO2
14926KSTC STC20011115131509811/15/01 13:15:31  5-MIN KSTC 151915Z AUTO 32004KT 10SM CLR 17/07 A2996 990 49 1500 310/04 RMK AO2
14926KSTC STC20011115132009811/15/01 13:20:31  5-MIN KSTC 151920Z AUTO 32004KT 10SM CLR 17/07 A2996 990 51 1500 320/04 RMK AO2
14926KSTC STC20011115132509811/15/01 13:25:31  5-MIN KSTC 151925Z AUTO 32006KT 10SM CLR 18/07 A2996 990 48 1600 320/06 RMK AO2
14926KSTC STC20011115133009811/15/01 13:30:31  5-MIN KSTC 151930Z AUTO 31006KT 10SM CLR 18/07 A2996 990 49 1600 310/06 RMK AO2
14926KSTC STC20011115133509811/15/01 13:35:31  5-MIN KSTC 151935Z AUTO 29007KT 10SM CLR 18/08 A2996 990 51 1600 290/07 RMK AO2
14926KSTC STC20011115134009911/15/01 13:40:31  5-MIN KSTC 151940Z AUTO 27008KT 10SM CLR 18/07 A2995 1000 49 1600 270/08 RMK AO2
14926KSTC STC20011115134509911/15/01 13:45:31  5-MIN KSTC 151945Z AUTO 29008KT 10SM CLR 18/07 A2995 1000 49 1600 280/08 RMK AO2
14926KSTC STC20011115135011511/15/01 13:50:31  5-MIN KSTC 151950Z AUTO 28010KT 10SM CLR 18/07 A2996 990 46 1700 280/10 RMK AO2 SLP154 T01830067
14926KSTC STC20011115135509811/15/01 13:55:31  5-MIN KSTC 151955Z AUTO 28007KT 10SM CLR 18/07 A2995 990 48 1600 280/07 RMK AO2
14926KSTC STC20011115140009911/15/01 14:00:31  5-MIN KSTC 152000Z AUTO 26007KT 10SM CLR 18/07 A2995 1000 48 1700 260/07 RMK AO2
14926KSTC STC20011115140509911/15/01 14:05:31  5-MIN KSTC 152005Z AUTO 27006KT 10SM CLR 18/07 A2995 1000 49 1600 270/06 RMK AO2
14926KSTC STC20011115141009911/15/01 14:10:31  5-MIN KSTC 152010Z AUTO 29005KT 10SM CLR 18/07 A2995 1000 48 1700 290/05 RMK AO2
14926KSTC STC20011115141509911/15/01 14:15:31  5-MIN KSTC 152015Z AUTO 29004KT 10SM CLR 18/08 A2995 1000 51 1600 290/04 RMK AO2
14926KSTC STC20011115142009911/15/01 14:20:31  5-MIN KSTC 152020Z AUTO 28005KT 10SM CLR 18/08 A2995 1000 50 1700 280/05 RMK AO2
14926KSTC STC20011115142509911/15/01 14:25:31  5-MIN KSTC 152025Z AUTO 28005KT 10SM CLR 18/08 A2995 1000 50 1700 270/05 RMK AO2
14926KSTC STC20011115143009911/15/01 14:30:31  5-MIN KSTC 152030Z AUTO 26004KT 10SM CLR 18/08 A2995 1000 50 1700 260/04 RMK AO2
14926KSTC STC20011115143509911/15/01 14:35:31  5-MIN KSTC 152035Z AUTO 27008KT 10SM CLR 18/07 A2995 1000 48 1700 270/08 RMK AO2
14926KSTC STC20011115144009911/15/01 14:40:31  5-MIN KSTC 152040Z AUTO 27006KT 10SM CLR 18/07 A2995 1000 46 1700 260/06 RMK AO2
14926KSTC STC20011115144509811/15/01 14:45:31  5-MIN KSTC 152045Z AUTO 28005KT 10SM CLR 18/07 A2996 990 48 1700 280/05 RMK AO2
14926KSTC STC20011115145012111/15/01 14:50:31  5-MIN KSTC 152050Z AUTO 29005KT 10SM CLR 18/08 A2996 990 51 1600 280/05 RMK AO2 SLP156 T01780078 58001
14926KSTC STC20011115145509811/15/01 14:55:31  5-MIN KSTC 152055Z AUTO 29005KT 10SM CLR 18/07 A2996 990 48 1600 290/05 RMK AO2
14926KSTC STC20011115150009811/15/01 15:00:31  5-MIN KSTC 152100Z AUTO 30004KT 10SM CLR 18/08 A2996 990 50 1600 290/04 RMK AO2
14926KSTC STC20011115150509811/15/01 15:05:31  5-MIN KSTC 152105Z AUTO 31005KT 10SM CLR 18/08 A2996 990 52 1600 310/05 RMK AO2
14926KSTC STC20011115151009811/15/01 15:10:31  5-MIN KSTC 152110Z AUTO 29005KT 10SM CLR 18/08 A2997 990 53 1600 280/05 RMK AO2
14926KSTC STC20011115151509811/15/01 15:15:31  5-MIN KSTC 152115Z AUTO 27004KT 10SM CLR 18/08 A2997 980 53 1600 270/04 RMK AO2
14926KSTC STC20011115152009811/15/01 15:20:31  5-MIN KSTC 152120Z AUTO 27005KT 10SM CLR 18/08 A2996 990 51 1600 260/05 RMK AO2
14926KSTC STC20011115152509811/15/01 15:25:31  5-MIN KSTC 152125Z AUTO 27006KT 10SM CLR 17/09 A2997 980 57 1500 270/06 RMK AO2
14926KSTC STC20011115153009811/15/01 15:30:31  5-MIN KSTC 152130Z AUTO 27006KT 10SM CLR 17/09 A2997 980 57 1500 270/06 RMK AO2
14926KSTC STC20011115153509811/15/01 15:35:31  5-MIN KSTC 152135Z AUTO 27005KT 10SM CLR 17/08 A2997 980 55 1500 270/05 RMK AO2
14926KSTC STC20011115154009811/15/01 15:40:31  5-MIN KSTC 152140Z AUTO 26006KT 10SM CLR 17/09 A2997 980 57 1500 260/06 RMK AO2
14926KSTC STC20011115154509811/15/01 15:45:31  5-MIN KSTC 152145Z AUTO 27005KT 10SM CLR 17/08 A2997 980 55 1500 270/05 RMK AO2
14926KSTC STC20011115155011511/15/01 15:50:31  5-MIN KSTC 152150Z AUTO 28006KT 10SM CLR 17/08 A2997 980 57 1400 280/06 RMK AO2 SLP162 T01670083
14926KSTC STC20011115155509811/15/01 15:55:31  5-MIN KSTC 152155Z AUTO 29005KT 10SM CLR 17/08 A2997 980 57 1400 280/05 RMK AO2
14926KSTC STC20011115160009811/15/01 16:00:31  5-MIN KSTC 152200Z AUTO 28005KT 10SM CLR 17/08 A2997 980 57 1400 280/05 RMK AO2
14926KSTC STC20011115160509811/15/01 16:05:31  5-MIN KSTC 152205Z AUTO 31004KT 10SM CLR 17/09 A2997 980 60 1400 300/04 RMK AO2
14926KSTC STC20011115161009811/15/01 16:10:31  5-MIN KSTC 152210Z AUTO 30006KT 10SM CLR 16/08 A2997 980 59 1400 290/06 RMK AO2
14926KSTC STC20011115161509811/15/01 16:15:31  5-MIN KSTC 152215Z AUTO 30006KT 10SM CLR 16/08 A2997 980 59 1400 300/06 RMK AO2
14926KSTC STC20011115162009811/15/01 16:20:31  5-MIN KSTC 152220Z AUTO 31005KT 10SM CLR 16/08 A2998 970 59 1300 310/05 RMK AO2
14926KSTC STC20011115162509811/15/01 16:25:31  5-MIN KSTC 152225Z AUTO 31004KT 10SM CLR 16/08 A2998 970 59 1300 310/04 RMK AO2
14926KSTC STC20011115163009811/15/01 16:30:31  5-MIN KSTC 152230Z AUTO 29003KT 10SM CLR 16/08 A2998 970 59 1300 290/03 RMK AO2
14926KSTC STC20011115163509811/15/01 16:35:31  5-MIN KSTC 152235Z AUTO 00000KT 10SM CLR 16/08 A2998 970 59 1300 000/00 RMK AO2
14926KSTC STC20011115164009811/15/01 16:40:31  5-MIN KSTC 152240Z AUTO 00000KT 10SM CLR 15/08 A2998 970 62 1200 000/00 RMK AO2
14926KSTC STC20011115164509811/15/01 16:45:31  5-MIN KSTC 152245Z AUTO 00000KT 10SM CLR 14/08 A2998 970 64 1200 000/00 RMK AO2
14926KSTC STC20011115165011511/15/01 16:50:31  5-MIN KSTC 152250Z AUTO 00000KT 10SM CLR 14/08 A2998 970 69 1100 000/00 RMK AO2 SLP165 T01390083
14926KSTC STC20011115165509811/15/01 16:55:31  5-MIN KSTC 152255Z AUTO 00000KT 10SM CLR 13/09 A2998 970 77 1000 000/00 RMK AO2
14926KSTC STC20011115170009811/15/01 17:00:31  5-MIN KSTC 152300Z AUTO 00000KT 10SM CLR 13/08 A2999 970 74 1000 000/00 RMK AO2
14926KSTC STC20011115170509711/15/01 17:05:31  5-MIN KSTC 152305Z AUTO 00000KT 10SM CLR 12/08 A2999 960 77 900 000/00 RMK AO2
14926KSTC STC20011115171009811/15/01 17:10:31  5-MIN KSTC 152310Z AUTO 00000KT 10SM CLR 13/08 A2999 960 71 1000 000/00 RMK AO2
14926KSTC STC20011115171509711/15/01 17:15:31  5-MIN KSTC 152315Z AUTO 00000KT 10SM CLR 12/08 A2999 960 77 900 000/00 RMK AO2
14926KSTC STC20011115172009711/15/01 17:20:31  5-MIN KSTC 152320Z AUTO 00000KT 10SM CLR 12/08 A2999 960 74 900 000/00 RMK AO2
14926KSTC STC20011115172509811/15/01 17:25:31  5-MIN KSTC 152325Z AUTO 00000KT 10SM CLR 13/08 A2999 960 71 1000 000/00 RMK AO2
14926KSTC STC20011115173009711/15/01 17:30:31  5-MIN KSTC 152330Z AUTO 00000KT 10SM CLR 12/08 A3000 960 74 900 000/00 RMK AO2
14926KSTC STC20011115173509711/15/01 17:35:31  5-MIN KSTC 152335Z AUTO 00000KT 10SM CLR 12/08 A3000 950 80 800 000/00 RMK AO2
14926KSTC STC20011115174009711/15/01 17:40:31  5-MIN KSTC 152340Z AUTO 00000KT 10SM CLR 11/08 A3000 950 83 800 000/00 RMK AO2
14926KSTC STC20011115174509711/15/01 17:45:31  5-MIN KSTC 152345Z AUTO 00000KT 10SM CLR 11/08 A3000 950 83 700 000/00 RMK AO2
14926KSTC STC20011115175013211/15/01 17:50:31  5-MIN KSTC 152350Z AUTO 00000KT 10SM CLR 11/08 A3000 950 80 700 000/00 RMK AO2 SLP174 T01110078 10183 20106 55001
14926KSTC STC20011115175509711/15/01 17:55:31  5-MIN KSTC 152355Z AUTO 00000KT 10SM CLR 11/07 A3000 950 77 700 000/00 RMK AO2
14926KSTC STC20011115180009711/15/01 18:00:31  5-MIN KSTC 160000Z AUTO 00000KT 10SM CLR 11/08 A3000 950 80 800 000/00 RMK AO2
14926KSTC STC20011115180509711/15/01 18:05:31  5-MIN KSTC 160005Z AUTO 00000KT 10SM CLR 11/08 A3001 950 83 700 000/00 RMK AO2
14926KSTC STC20011115181009711/15/01 18:10:31  5-MIN KSTC 160010Z AUTO 00000KT 10SM CLR 10/08 A3001 950 86 600 000/00 RMK AO2
14926KSTC STC20011115181509711/15/01 18:15:31  5-MIN KSTC 160015Z AUTO 00000KT 10SM CLR 09/08 A3001 940 89 500 000/00 RMK AO2
14926KSTC STC20011115182009711/15/01 18:20:31  5-MIN KSTC 160020Z AUTO 00000KT 10SM CLR 09/08 A3001 940 89 500 000/00 RMK AO2
14926KSTC STC20011115182509711/15/01 18:25:31  5-MIN KSTC 160025Z AUTO 00000KT 10SM CLR 09/08 A3001 940 89 500 000/00 RMK AO2
14926KSTC STC20011115183009711/15/01 18:30:31  5-MIN KSTC 160030Z AUTO 00000KT 10SM CLR 09/07 A3001 940 86 500 000/00 RMK AO2
14926KSTC STC20011115183509711/15/01 18:35:31  5-MIN KSTC 160035Z AUTO 00000KT 10SM CLR 09/07 A3001 940 89 500 000/00 RMK AO2
14926KSTC STC20011115184009711/15/01 18:40:31  5-MIN KSTC 160040Z AUTO 00000KT 10SM CLR 09/07 A3001 940 89 500 000/00 RMK AO2
14926KSTC STC20011115184509711/15/01 18:45:31  5-MIN KSTC 160045Z AUTO 00000KT 10SM CLR 09/07 A3001 940 89 500 000/00 RMK AO2
14926KSTC STC20011115185011411/15/01 18:50:31  5-MIN KSTC 160050Z AUTO 00000KT 10SM CLR 08/07 A3001 940 93 400 000/00 RMK AO2 SLP179 T00830072
14926KSTC STC20011115185509711/15/01 18:55:31  5-MIN KSTC 160055Z AUTO 00000KT 10SM CLR 08/07 A3002 940 93 400 000/00 RMK AO2
14926KSTC STC20011115190009711/15/01 19:00:31  5-MIN KSTC 160100Z AUTO 00000KT 10SM CLR 08/07 A3001 940 93 400 000/00 RMK AO2
14926KSTC STC20011115190509711/15/01 19:05:31  5-MIN KSTC 160105Z AUTO 00000KT 10SM CLR 08/07 A3002 940 93 300 000/00 RMK AO2
14926KSTC STC20011115191009711/15/01 19:10:31  5-MIN KSTC 160110Z AUTO 00000KT 10SM CLR 08/07 A3002 940 93 400 000/00 RMK AO2
14926KSTC STC20011115191509711/15/01 19:15:31  5-MIN KSTC 160115Z AUTO 00000KT 10SM CLR 08/07 A3002 940 93 300 000/00 RMK AO2
14926KSTC STC20011115192009711/15/01 19:20:31  5-MIN KSTC 160120Z AUTO 00000KT 10SM CLR 07/07 A3002 940 96 300 000/00 RMK AO2
14926KSTC STC20011115192509711/15/01 19:25:31  5-MIN KSTC 160125Z AUTO 00000KT 10SM CLR 08/07 A3002 940 93 300 000/00 RMK AO2
14926KSTC STC20011115193009711/15/01 19:30:31  5-MIN KSTC 160130Z AUTO 00000KT 10SM CLR 08/07 A3002 930 96 300 000/00 RMK AO2
14926KSTC STC20011115193509711/15/01 19:35:31  5-MIN KSTC 160135Z AUTO 00000KT 10SM CLR 07/07 A3003 930 96 300 000/00 RMK AO2
14926KSTC STC20011115194009711/15/01 19:40:31  5-MIN KSTC 160140Z AUTO 00000KT 10SM CLR 08/07 A3003 930 96 300 000/00 RMK AO2
14926KSTC STC20011115194509711/15/01 19:45:31  5-MIN KSTC 160145Z AUTO 00000KT 10SM CLR 07/07 A3003 930 96 300 000/00 RMK AO2
14926KSTC STC20011115195011511/15/01 19:50:31  5-MIN KSTC 160150Z AUTO 00000KT 10SM CLR 07/07 A3003 920 100 200 000/00 RMK AO2 SLP186 T00670067
14926KSTC STC20011115195509811/15/01 19:55:31  5-MIN KSTC 160155Z AUTO 00000KT 10SM CLR 07/07 A3003 920 100 200 000/00 RMK AO2
14926KSTC STC20011115200009711/15/01 20:00:31  5-MIN KSTC 160200Z AUTO 00000KT 10SM CLR 07/06 A3003 920 96 200 000/00 RMK AO2
14926KSTC STC20011115200509711/15/01 20:05:31  5-MIN KSTC 160205Z AUTO 00000KT 10SM CLR 07/07 A3003 920 96 200 000/00 RMK AO2
14926KSTC STC20011119010509911/19/01 01:05:31  5-MIN KSTC 190705Z AUTO 31010KT 10SM CLR 00/M05 A3016 800 69 -700 310/10 RMK AO2
14926KSTC STC20011119011009911/19/01 01:10:31  5-MIN KSTC 190710Z AUTO 31010KT 10SM CLR 00/M05 A3016 800 69 -700 310/10 RMK AO2
14926KSTC STC20011119011509911/19/01 01:15:31  5-MIN KSTC 190715Z AUTO 31009KT 10SM CLR 00/M05 A3016 800 69 -700 300/09 RMK AO2
14926KSTC STC20011119012009911/19/01 01:20:31  5-MIN KSTC 190720Z AUTO 31009KT 10SM CLR 00/M05 A3016 810 69 -700 300/09 RMK AO2
14926KSTC STC20011119012509911/19/01 01:25:31  5-MIN KSTC 190725Z AUTO 30008KT 10SM CLR 00/M05 A3016 810 69 -700 300/08 RMK AO2
14926KSTC STC20011119013009911/19/01 01:30:31  5-MIN KSTC 190730Z AUTO 30007KT 10SM CLR 00/M05 A3016 810 69 -700 300/07 RMK AO2
14926KSTC STC20011119013509911/19/01 01:35:31  5-MIN KSTC 190735Z AUTO 30008KT 10SM CLR 00/M04 A3016 800 72 -700 290/08 RMK AO2
14926KSTC STC20011119014009911/19/01 01:40:31  5-MIN KSTC 190740Z AUTO 30009KT 10SM CLR 00/M05 A3016 800 69 -700 290/09 RMK AO2
14926KSTC STC20011119014509911/19/01 01:45:31  5-MIN KSTC 190745Z AUTO 29009KT 10SM CLR 00/M05 A3016 800 69 -700 290/09 RMK AO2
14926KSTC STC20011119015011611/19/01 01:50:31  5-MIN KSTC 190750Z AUTO 30011KT 10SM CLR 00/M05 A3016 800 69 -700 300/11 RMK AO2 SLP233 T00001050
14926KSTC STC20011119015509911/19/01 01:55:31  5-MIN KSTC 190755Z AUTO 30009KT 10SM CLR 00/M05 A3017 800 69 -700 300/09 RMK AO2
14926KSTC STC20011119020009911/19/01 02:00:31  5-MIN KSTC 190800Z AUTO 30009KT 10SM CLR 00/M05 A3017 800 69 -700 300/09 RMK AO2
14926KSTC STC20011119020509911/19/01 02:05:31  5-MIN KSTC 190805Z AUTO 30008KT 10SM CLR 00/M05 A3017 800 69 -700 300/08 RMK AO2
14926KSTC STC20011119021009911/19/01 02:10:31  5-MIN KSTC 190810Z AUTO 30008KT 10SM CLR 00/M05 A3017 800 69 -700 300/08 RMK AO2
14926KSTC STC20011119021510011/19/01 02:15:31  5-MIN KSTC 190815Z AUTO 30009KT 10SM CLR M01/M05 A3017 800 72 -800 300/09 RMK AO2
14926KSTC STC20011119022010011/19/01 02:20:31  5-MIN KSTC 190820Z AUTO 31010KT 10SM CLR M01/M05 A3017 800 72 -800 300/10 RMK AO2
14926KSTC STC20011119022510011/19/01 02:25:31  5-MIN KSTC 190825Z AUTO 30009KT 10SM CLR M01/M05 A3017 800 72 -800 300/09 RMK AO2
14926KSTC STC20011119023010011/19/01 02:30:31  5-MIN KSTC 190830Z AUTO 30010KT 10SM CLR M01/M05 A3017 800 72 -800 300/10 RMK AO2
14926KSTC STC20011119023510011/19/01 02:35:31  5-MIN KSTC 190835Z AUTO 30009KT 10SM CLR M01/M06 A3017 800 69 -800 300/09 RMK AO2
14926KSTC STC20011119024010011/19/01 02:40:31  5-MIN KSTC 190840Z AUTO 30009KT 10SM CLR M01/M06 A3017 800 69 -800 300/09 RMK AO2
14926KSTC STC20011119024510011/19/01 02:45:31  5-MIN KSTC 190845Z AUTO 30011KT 10SM CLR M01/M06 A3017 800 69 -800 300/11 RMK AO2
14926KSTC STC20011119025012311/19/01 02:50:31  5-MIN KSTC 190850Z AUTO 30011KT 10SM CLR M01/M06 A3017 790 69 -800 300/11 RMK AO2 SLP236 T10061056 51010
14926KSTC STC20011119025509911/19/01 02:55:31  5-MIN KSTC 190855Z AUTO 30010KT 10SM CLR 00/M06 A3017 790 66 -800 300/10 RMK AO2
14926KSTC STC20011119030010011/19/01 03:00:31  5-MIN KSTC 190900Z AUTO 30011KT 10SM CLR M01/M06 A3017 790 69 -800 300/11 RMK AO2
14926KSTC STC20011119030510011/19/01 03:05:31  5-MIN KSTC 190905Z AUTO 30011KT 10SM CLR M01/M06 A3017 790 69 -800 300/11 RMK AO2
14926KSTC STC20011119031010011/19/01 03:10:31  5-MIN KSTC 190910Z AUTO 30011KT 10SM CLR M01/M06 A3017 790 69 -800 300/11 RMK AO2
14926KSTC STC20011119031510011/19/01 03:15:31  5-MIN KSTC 190915Z AUTO 30011KT 10SM CLR M01/M06 A3017 790 69 -800 290/11 RMK AO2
14926KSTC STC20011119032010011/19/01 03:20:31  5-MIN KSTC 190920Z AUTO 30011KT 10SM CLR M01/M06 A3017 790 69 -800 290/11 RMK AO2
14926KSTC STC20011119032510011/19/01 03:25:31  5-MIN KSTC 190925Z AUTO 30012KT 10SM CLR M01/M06 A3017 790 69 -800 290/12 RMK AO2
14926KSTC STC20011119033010011/19/01 03:30:31  5-MIN KSTC 190930Z AUTO 30012KT 10SM CLR M01/M06 A3017 790 69 -800 290/12 RMK AO2
14926KSTC STC20011119033510011/19/01 03:35:31  5-MIN KSTC 190935Z AUTO 30011KT 10SM CLR M01/M06 A3017 790 69 -800 290/11 RMK AO2
14926KSTC STC20011119034010011/19/01 03:40:31  5-MIN KSTC 190940Z AUTO 29011KT 10SM CLR M01/M06 A3017 800 69 -800 290/11 RMK AO2
14926KSTC STC20011119034510011/19/01 03:45:31  5-MIN KSTC 190945Z AUTO 29011KT 10SM CLR M01/M06 A3017 800 69 -800 290/11 RMK AO2
14926KSTC STC20011119035011711/19/01 03:50:31  5-MIN KSTC 190950Z AUTO 30013KT 10SM CLR M01/M06 A3017 800 69 -800 290/13 RMK AO2 SLP235 T10061056
14926KSTC STC20011119035510011/19/01 03:55:31  5-MIN KSTC 190955Z AUTO 30011KT 10SM CLR M01/M06 A3017 800 72 -900 290/11 RMK AO2
14926KSTC STC20011119040010011/19/01 04:00:31  5-MIN KSTC 191000Z AUTO 29012KT 10SM CLR M01/M06 A3017 800 72 -900 290/12 RMK AO2
14926KSTC STC20011119040510011/19/01 04:05:31  5-MIN KSTC 191005Z AUTO 30011KT 10SM CLR M01/M06 A3017 800 72 -900 290/11 RMK AO2
14926KSTC STC20011119041010011/19/01 04:10:31  5-MIN KSTC 191010Z AUTO 30011KT 10SM CLR M01/M06 A3017 800 72 -900 290/11 RMK AO2
14926KSTC STC20011119041510011/19/01 04:15:31  5-MIN KSTC 191015Z AUTO 29009KT 10SM CLR M01/M06 A3017 800 72 -900 290/09 RMK AO2
14926KSTC STC20011119042010011/19/01 04:20:31  5-MIN KSTC 191020Z AUTO 29010KT 10SM CLR M01/M06 A3017 800 72 -900 290/10 RMK AO2
14926KSTC STC20011119042510011/19/01 04:25:31  5-MIN KSTC 191025Z AUTO 30010KT 10SM CLR M01/M06 A3017 800 72 -900 290/10 RMK AO2
14926KSTC STC20011119043010011/19/01 04:30:31  5-MIN KSTC 191030Z AUTO 30011KT 10SM CLR M01/M06 A3017 790 72 -900 290/11 RMK AO2
14926KSTC STC20011119043510011/19/01 04:35:31  5-MIN KSTC 191035Z AUTO 30011KT 10SM CLR M01/M06 A3017 790 72 -900 290/11 RMK AO2
14926KSTC STC20011119044010011/19/01 04:40:31  5-MIN KSTC 191040Z AUTO 30011KT 10SM CLR M01/M06 A3017 790 72 -900 290/11 RMK AO2
14926KSTC STC20011119044510011/19/01 04:45:31  5-MIN KSTC 191045Z AUTO 29011KT 10SM CLR M01/M06 A3017 790 72 -900 290/11 RMK AO2
14926KSTC STC20011119045011711/19/01 04:50:31  5-MIN KSTC 191050Z AUTO 29012KT 10SM CLR M01/M06 A3017 790 72 -900 290/12 RMK AO2 SLP237 T10111056
14926KSTC STC20011119045510011/19/01 04:55:31  5-MIN KSTC 191055Z AUTO 29011KT 10SM CLR M01/M06 A3017 790 72 -900 290/11 RMK AO2
14926KSTC STC20011119050010011/19/01 05:00:31  5-MIN KSTC 191100Z AUTO 30012KT 10SM CLR M01/M05 A3018 790 75 -900 290/12 RMK AO2
14926KSTC STC20011119050510011/19/01 05:05:31  5-MIN KSTC 191105Z AUTO 30011KT 10SM CLR M01/M06 A3018 790 72 -900 290/11 RMK AO2
14926KSTC STC20011119051010011/19/01 05:10:31  5-MIN KSTC 191110Z AUTO 30011KT 10SM CLR M01/M06 A3018 790 72 -900 290/11 RMK AO2
14926KSTC STC20011119051510011/19/01 05:15:31  5-MIN KSTC 191115Z AUTO 30013KT 10SM CLR M01/M06 A3019 780 72 -900 300/13 RMK AO2
14926KSTC STC20011119052010011/19/01 05:20:31  5-MIN KSTC 191120Z AUTO 30013KT 10SM CLR M01/M06 A3019 780 72 -900 300/13 RMK AO2
14926KSTC STC20011119052510011/19/01 05:25:31  5-MIN KSTC 191125Z AUTO 30013KT 10SM CLR M01/M06 A3019 780 72 -900 300/13 RMK AO2
14926KSTC STC20011119053010011/19/01 05:30:31  5-MIN KSTC 191130Z AUTO 30012KT 10SM CLR M01/M06 A3019 780 72 -900 290/12 RMK AO2
14926KSTC STC20011119053510011/19/01 05:35:31  5-MIN KSTC 191135Z AUTO 30011KT 10SM CLR M01/M06 A3019 780 72 -900 290/11 RMK AO2
14926KSTC STC20011119054010011/19/01 05:40:31  5-MIN KSTC 191140Z AUTO 29011KT 10SM CLR M01/M05 A3019 780 75 -900 290/11 RMK AO2
14926KSTC STC20011119054510111/19/01 05:45:31  5-MIN KSTC 191145Z AUTO 29010KT 10SM CLR M02/M05 A3019 780 78 -1000 290/10 RMK AO2
14926KSTC STC20011119055014211/19/01 05:50:31  5-MIN KSTC 191150Z AUTO 29012KT 10SM CLR M02/M05 A3019 780 78 -1000 290/12 RMK AO2 SLP242 70005 T10171050 10006 21017 53004
14926KSTC STC20011119055510111/19/01 05:55:31  5-MIN KSTC 191155Z AUTO 29012KT 10SM CLR M02/M05 A3019 780 78 -1000 290/12 RMK AO2
14926KSTC STC20011119060010111/19/01 06:00:31  5-MIN KSTC 191200Z AUTO 29010KT 10SM CLR M02/M05 A3019 780 78 -1000 290/10 RMK AO2
14926KSTC STC20011119060510111/19/01 06:05:31  5-MIN KSTC 191205Z AUTO 29012KT 10SM CLR M02/M05 A3019 780 78 -1000 290/12 RMK AO2
14926KSTC STC20011119061010111/19/01 06:10:31  5-MIN KSTC 191210Z AUTO 29012KT 10SM CLR M02/M05 A3019 780 78 -1000 280/12 RMK AO2
14926KSTC STC20011119061510111/19/01 06:15:31  5-MIN KSTC 191215Z AUTO 29011KT 10SM CLR M02/M05 A3019 780 78 -1000 280/11 RMK AO2
14926KSTC STC20011119062010111/19/01 06:20:31  5-MIN KSTC 191220Z AUTO 29012KT 10SM CLR M02/M05 A3019 780 81 -1100 280/12 RMK AO2
14926KSTC STC20011119062510111/19/01 06:25:31  5-MIN KSTC 191225Z AUTO 28012KT 10SM CLR M02/M05 A3019 780 81 -1100 280/12 RMK AO2
14926KSTC STC20011119063010111/19/01 06:30:31  5-MIN KSTC 191230Z AUTO 28012KT 10SM CLR M02/M05 A3019 780 81 -1100 280/12 RMK AO2
14926KSTC STC20011119063510111/19/01 06:35:31  5-MIN KSTC 191235Z AUTO 28011KT 10SM CLR M02/M05 A3019 780 81 -1100 280/11 RMK AO2
14926KSTC STC20011119064010111/19/01 06:40:31  5-MIN KSTC 191240Z AUTO 29011KT 10SM CLR M02/M05 A3019 780 81 -1100 280/11 RMK AO2
14926KSTC STC20011119064510111/19/01 06:45:31  5-MIN KSTC 191245Z AUTO 28011KT 10SM CLR M02/M05 A3018 780 81 -1000 280/11 RMK AO2
14926KSTC STC20011119065011811/19/01 06:50:31  5-MIN KSTC 191250Z AUTO 29010KT 10SM CLR M02/M05 A3018 780 81 -1000 280/10 RMK AO2 SLP241 T10221050
14926KSTC STC20011119065510111/19/01 06:55:31  5-MIN KSTC 191255Z AUTO 29012KT 10SM CLR M02/M06 A3018 780 78 -1000 280/12 RMK AO2
14926KSTC STC20011119070010111/19/01 07:00:31  5-MIN KSTC 191300Z AUTO 29010KT 10SM CLR M02/M05 A3018 790 81 -1000 290/10 RMK AO2
14926KSTC STC20011119070510111/19/01 07:05:31  5-MIN KSTC 191305Z AUTO 29011KT 10SM CLR M02/M05 A3018 790 81 -1000 280/11 RMK AO2
14926KSTC STC20011119071010111/19/01 07:10:31  5-MIN KSTC 191310Z AUTO 29011KT 10SM CLR M02/M05 A3018 790 81 -1000 280/11 RMK AO2
14926KSTC STC20011119071510111/19/01 07:15:31  5-MIN KSTC 191315Z AUTO 29011KT 10SM CLR M02/M05 A3018 790 81 -1000 280/11 RMK AO2
14926KSTC STC20011119072010111/19/01 07:20:31  5-MIN KSTC 191320Z AUTO 29011KT 10SM CLR M02/M05 A3018 790 81 -1000 280/11 RMK AO2
14926KSTC STC20011119072510111/19/01 07:25:31  5-MIN KSTC 191325Z AUTO 29011KT 10SM CLR M02/M06 A3018 790 78 -1000 280/11 RMK AO2
14926KSTC STC20011119073010111/19/01 07:30:31  5-MIN KSTC 191330Z AUTO 29010KT 10SM CLR M02/M05 A3018 780 81 -1000 290/10 RMK AO2
14926KSTC STC20011119073510111/19/01 07:35:31  5-MIN KSTC 191335Z AUTO 29011KT 10SM CLR M02/M06 A3019 780 78 -1100 290/11 RMK AO2
14926KSTC STC20011119074010111/19/01 07:40:31  5-MIN KSTC 191340Z AUTO 29010KT 10SM CLR M02/M06 A3018 780 78 -1000 280/10 RMK AO2
14926KSTC STC20011119074510111/19/01 07:45:31  5-MIN KSTC 191345Z AUTO 29010KT 10SM CLR M02/M05 A3018 780 81 -1000 280/10 RMK AO2
14926KSTC STC20011119075011811/19/01 07:50:31  5-MIN KSTC 191350Z AUTO 29010KT 10SM CLR M02/M06 A3019 780 78 -1100 280/10 RMK AO2 SLP242 T10221056
14926KSTC STC20011119075510111/19/01 07:55:31  5-MIN KSTC 191355Z AUTO 29011KT 10SM CLR M02/M05 A3019 780 81 -1100 290/11 RMK AO2
14926KSTC STC20011119080010111/19/01 08:00:31  5-MIN KSTC 191400Z AUTO 29013KT 10SM CLR M02/M05 A3019 780 81 -1100 290/13 RMK AO2
14926KSTC STC20011119080510111/19/01 08:05:31  5-MIN KSTC 191405Z AUTO 29012KT 10SM CLR M02/M05 A3019 780 78 -1000 290/12 RMK AO2
14926KSTC STC20011119081010111/19/01 08:10:31  5-MIN KSTC 191410Z AUTO 29012KT 10SM CLR M02/M05 A3019 780 78 -1000 290/12 RMK AO2
14926KSTC STC20011119081510111/19/01 08:15:31  5-MIN KSTC 191415Z AUTO 29011KT 10SM CLR M02/M05 A3019 780 78 -1000 290/11 RMK AO2
14926KSTC STC20011119082010111/19/01 08:20:31  5-MIN KSTC 191420Z AUTO 29012KT 10SM CLR M02/M05 A3019 780 78 -1000 280/12 RMK AO2
14926KSTC STC20011119082510111/19/01 08:25:31  5-MIN KSTC 191425Z AUTO 29014KT 10SM CLR M02/M05 A3019 780 78 -1000 290/14 RMK AO2
14926KSTC STC20011119083010111/19/01 08:30:31  5-MIN KSTC 191430Z AUTO 29013KT 10SM CLR M02/M05 A3019 780 78 -1000 290/13 RMK AO2
14926KSTC STC20011119083510111/19/01 08:35:31  5-MIN KSTC 191435Z AUTO 29013KT 10SM CLR M02/M05 A3019 780 78 -1000 290/13 RMK AO2
14926KSTC STC20011119084010011/19/01 08:40:31  5-MIN KSTC 191440Z AUTO 29012KT 10SM CLR M01/M05 A3019 780 75 -900 290/12 RMK AO2
14926KSTC STC20011119084510011/19/01 08:45:31  5-MIN KSTC 191445Z AUTO 30014KT 10SM CLR M01/M05 A3019 780 75 -900 290/14 RMK AO2
14926KSTC STC20011119085012311/19/01 08:50:31  5-MIN KSTC 191450Z AUTO 30013KT 10SM CLR M01/M05 A3019 780 75 -900 290/13 RMK AO2 SLP244 T10111050 53005
14926KSTC STC20011119085510011/19/01 08:55:31  5-MIN KSTC 191455Z AUTO 30012KT 10SM CLR M01/M05 A3019 780 75 -900 290/12 RMK AO2
14926KSTC STC20011119090010011/19/01 09:00:31  5-MIN KSTC 191500Z AUTO 30012KT 10SM CLR M01/M05 A3019 770 75 -900 300/12 RMK AO2
14926KSTC STC20011119090510011/19/01 09:05:31  5-MIN KSTC 191505Z AUTO 30012KT 10SM CLR M01/M05 A3020 770 75 -900 300/12 RMK AO2
14926KSTC STC20011119091010011/19/01 09:10:31  5-MIN KSTC 191510Z AUTO 30011KT 10SM CLR M01/M05 A3020 770 72 -900 300/11 RMK AO2
14926KSTC STC20011119091510011/19/01 09:15:31  5-MIN KSTC 191515Z AUTO 31013KT 10SM CLR M01/M05 A3020 770 72 -900 300/13 RMK AO2
14926KSTC STC20011119092010011/19/01 09:20:31  5-MIN KSTC 191520Z AUTO 30012KT 10SM CLR M01/M05 A3020 770 72 -900 300/12 RMK AO2
14926KSTC STC20011119092510011/19/01 09:25:31  5-MIN KSTC 191525Z AUTO 30010KT 10SM CLR M01/M05 A3020 770 72 -900 300/10 RMK AO2
14926KSTC STC20011119093010511/19/01 09:30:31  5-MIN KSTC 191530Z AUTO 31015G19KT 10SM CLR 00/M05 A3020 770 69 -800 310/15G19 RMK AO2
14926KSTC STC20011119093510511/19/01 09:35:31  5-MIN KSTC 191535Z AUTO 31014G19KT 10SM CLR 00/M05 A3020 770 69 -800 310/14G19 RMK AO2
14926KSTC STC20011119094009911/19/01 09:40:31  5-MIN KSTC 191540Z AUTO 32012KT 10SM CLR 00/M05 A3020 770 69 -800 310/12 RMK AO2
14926KSTC STC20011119094509911/19/01 09:45:31  5-MIN KSTC 191545Z AUTO 31015KT 10SM CLR 00/M05 A3020 770 69 -800 300/15 RMK AO2
14926KSTC STC20011119095011611/19/01 09:50:31  5-MIN KSTC 191550Z AUTO 31014KT 10SM CLR 00/M05 A3020 770 69 -800 300/14 RMK AO2 SLP247 T00001050
14926KSTC STC20011119095509911/19/01 09:55:31  5-MIN KSTC 191555Z AUTO 31013KT 10SM CLR 01/M05 A3020 770 66 -700 310/13 RMK AO2
14926KSTC STC20011119100009911/19/01 10:00:31  5-MIN KSTC 191600Z AUTO 30014KT 10SM CLR 01/M04 A3020 770 69 -700 290/14 RMK AO2
14926KSTC STC20011119100509911/19/01 10:05:31  5-MIN KSTC 191605Z AUTO 31015KT 10SM CLR 01/M05 A3020 770 66 -700 300/15 RMK AO2
14926KSTC STC20011119101009911/19/01 10:10:31  5-MIN KSTC 191610Z AUTO 31014KT 10SM CLR 01/M05 A3020 770 66 -700 300/14 RMK AO2
14926KSTC STC20011119101509911/19/01 10:15:31  5-MIN KSTC 191615Z AUTO 31013KT 10SM CLR 01/M04 A3020 770 69 -700 300/13 RMK AO2
14926KSTC STC20011119102009911/19/01 10:20:31  5-MIN KSTC 191620Z AUTO 30014KT 10SM CLR 01/M05 A3020 770 66 -700 290/14 RMK AO2
14926KSTC STC20011119102509911/19/01 10:25:31  5-MIN KSTC 191625Z AUTO 31011KT 10SM CLR 01/M04 A3020 770 66 -600 310/11 RMK AO2
14926KSTC STC20011119103009911/19/01 10:30:31  5-MIN KSTC 191630Z AUTO 30010KT 10SM CLR 02/M04 A3020 770 64 -600 300/10 RMK AO2
14926KSTC STC20011119103509911/19/01 10:35:31  5-MIN KSTC 191635Z AUTO 30013KT 10SM CLR 01/M04 A3020 760 66 -700 290/13 RMK AO2
14926KSTC STC20011119104009911/19/01 10:40:31  5-MIN KSTC 191640Z AUTO 30013KT 10SM CLR 01/M04 A3020 760 66 -700 300/13 RMK AO2
14926KSTC STC20011119104509911/19/01 10:45:31  5-MIN KSTC 191645Z AUTO 31013KT 10SM CLR 02/M04 A3020 760 64 -600 300/13 RMK AO2
14926KSTC STC20011119105011611/19/01 10:50:31  5-MIN KSTC 191650Z AUTO 30014KT 10SM CLR 02/M05 A3020 770 61 -600 300/14 RMK AO2 SLP248 T00171050
14926KSTC STC20011119105509911/19/01 10:55:31  5-MIN KSTC 191655Z AUTO 31013KT 10SM CLR 02/M04 A3020 770 64 -600 310/13 RMK AO2
14926KSTC STC20011119110009911/19/01 11:00:31  5-MIN KSTC 191700Z AUTO 31011KT 10SM CLR 02/M04 A3020 760 64 -600 310/11 RMK AO2
14926KSTC STC20011119110509911/19/01 11:05:31  5-MIN KSTC 191705Z AUTO 31014KT 10SM CLR 02/M04 A3020 770 61 -500 300/14 RMK AO2
14926KSTC STC20011119111009911/19/01 11:10:31  5-MIN KSTC 191710Z AUTO 31014KT 10SM CLR 02/M05 A3020 770 59 -500 300/14 RMK AO2
14926KSTC STC20011119111509911/19/01 11:15:31  5-MIN KSTC 191715Z AUTO 30013KT 10SM CLR 02/M04 A3020 770 61 -500 300/13 RMK AO2
14926KSTC STC20011119112009911/19/01 11:20:31  5-MIN KSTC 191720Z AUTO 30015KT 10SM CLR 03/M04 A3020 770 59 -400 300/15 RMK AO2
14926KSTC STC20011119112509911/19/01 11:25:31  5-MIN KSTC 191725Z AUTO 31014KT 10SM CLR 02/M04 A3020 770 61 -500 300/14 RMK AO2
14926KSTC STC20011119113009911/19/01 11:30:31  5-MIN KSTC 191730Z AUTO 31013KT 10SM CLR 03/M04 A3020 770 59 -400 310/13 RMK AO2
14926KSTC STC20011119113509911/19/01 11:35:31  5-MIN KSTC 191735Z AUTO 31014KT 10SM CLR 03/M04 A3020 770 59 -400 300/14 RMK AO2
14926KSTC STC20011119114009911/19/01 11:40:31  5-MIN KSTC 191740Z AUTO 30013KT 10SM CLR 03/M05 A3020 770 56 -400 300/13 RMK AO2
14926KSTC STC20011119114509911/19/01 11:45:31  5-MIN KSTC 191745Z AUTO 30016KT 10SM CLR 03/M05 A3020 770 56 -400 300/16 RMK AO2
14926KSTC STC20011119115013411/19/01 11:50:31  5-MIN KSTC 191750Z AUTO 32016KT 10SM CLR 03/M05 A3020 770 56 -400 320/16 RMK AO2 SLP246 T00281050 10028 21022 53001
14926KSTC STC20011119115510511/19/01 11:55:31  5-MIN KSTC 191755Z AUTO 32013G21KT 10SM CLR 03/M06 A3020 770 54 -400 320/13G21 RMK AO2
14926KSTC STC20011119120009911/19/01 12:00:31  5-MIN KSTC 191800Z AUTO 32014KT 10SM CLR 03/M06 A3020 770 52 -400 320/14 RMK AO2
14926KSTC STC20011119120509911/19/01 12:05:31  5-MIN KSTC 191805Z AUTO 30015KT 10SM CLR 03/M05 A3020 770 54 -400 300/15 RMK AO2
14926KSTC STC20011119121009911/19/01 12:10:31  5-MIN KSTC 191810Z AUTO 32018KT 10SM CLR 03/M05 A3020 770 54 -400 320/18 RMK AO2
14926KSTC STC20011119121509911/19/01 12:15:31  5-MIN KSTC 191815Z AUTO 31015KT 10SM CLR 03/M06 A3020 770 52 -400 310/15 RMK AO2
14926KSTC STC20011119122009911/19/01 12:20:31  5-MIN KSTC 191820Z AUTO 32016KT 10SM CLR 04/M05 A3020 770 52 -300 320/16 RMK AO2
14926KSTC STC20011119122510511/19/01 12:25:31  5-MIN KSTC 191825Z AUTO 32017G22KT 10SM CLR 04/M06 A3020 770 50 -300 320/17G22 RMK AO2
14926KSTC STC20011119123010511/19/01 12:30:31  5-MIN KSTC 191830Z AUTO 33012G22KT 10SM CLR 04/M05 A3019 770 52 -300 320/12G22 RMK AO2
14926KSTC STC20011119123510511/19/01 12:35:31  5-MIN KSTC 191835Z AUTO 30016G19KT 10SM CLR 04/M05 A3019 770 52 -300 300/16G19 RMK AO2
14926KSTC STC20011119124009911/19/01 12:40:31  5-MIN KSTC 191840Z AUTO 31017KT 10SM CLR 04/M06 A3019 770 50 -300 310/17 RMK AO2
14926KSTC STC20011119124509911/19/01 12:45:31  5-MIN KSTC 191845Z AUTO 31016KT 10SM CLR 04/M05 A3019 770 52 -300 300/16 RMK AO2
14926KSTC STC20011119125011611/19/01 12:50:31  5-MIN KSTC 191850Z AUTO 31017KT 10SM CLR 04/M05 A3019 770 52 -300 300/17 RMK AO2 SLP244 T00391050
14926KSTC STC20011119125509911/19/01 12:55:31  5-MIN KSTC 191855Z AUTO 32015KT 10SM CLR 04/M06 A3019 780 50 -300 320/15 RMK AO2
14926KSTC STC20011119130009911/19/01 13:00:31  5-MIN KSTC 191900Z AUTO 31016KT 10SM CLR 04/M06 A3019 780 48 -300 300/16 RMK AO2
14926KSTC STC20011119130509911/19/01 13:05:31  5-MIN KSTC 191905Z AUTO 30015KT 10SM CLR 04/M06 A3019 780 48 -200 300/15 RMK AO2
14926KSTC STC20011119131009911/19/01 13:10:31  5-MIN KSTC 191910Z AUTO 30015KT 10SM CLR 04/M06 A3019 780 48 -200 290/15 RMK AO2
14926KSTC STC20011119131509911/19/01 13:15:31  5-MIN KSTC 191915Z AUTO 31019KT 10SM CLR 04/M06 A3019 780 46 -200 300/19 RMK AO2
14926KSTC STC20011119132009911/19/01 13:20:31  5-MIN KSTC 191920Z AUTO 32016KT 10SM CLR 04/M06 A3019 780 48 -300 320/16 RMK AO2
14926KSTC STC20011119132509911/19/01 13:25:31  5-MIN KSTC 191925Z AUTO 32013KT 10SM CLR 04/M06 A3019 780 46 -200 320/13 RMK AO2
14926KSTC STC20011119133009911/19/01 13:30:31  5-MIN KSTC 191930Z AUTO 31016KT 10SM CLR 04/M06 A3019 780 46 -200 310/16 RMK AO2
14926KSTC STC20011119133509911/19/01 13:35:31  5-MIN KSTC 191935Z AUTO 31016KT 10SM CLR 04/M06 A3019 780 46 -200 310/16 RMK AO2
14926KSTC STC20011119134009911/19/01 13:40:31  5-MIN KSTC 191940Z AUTO 33013KT 10SM CLR 04/M06 A3019 780 46 -200 320/13 RMK AO2
14926KSTC STC20011119134509911/19/01 13:45:31  5-MIN KSTC 191945Z AUTO 33012KT 10SM CLR 05/M06 A3019 780 44 -100 330/12 RMK AO2
14926KSTC STC20011119135012211/19/01 13:50:31  5-MIN KSTC 191950Z AUTO 32015G18KT 10SM CLR 05/M06 A3018 780 44 -100 310/15G18 RMK AO2 SLP241 T00501061
14926KSTC STC20011119135509911/19/01 13:55:31  5-MIN KSTC 191955Z AUTO 32014KT 10SM CLR 04/M07 A3018 780 42 -200 320/14 RMK AO2
14926KSTC STC20011119140009911/19/01 14:00:31  5-MIN KSTC 192000Z AUTO 32014KT 10SM CLR 04/M07 A3018 790 42 -200 320/14 RMK AO2
14926KSTC STC20011119140510511/19/01 14:05:31  5-MIN KSTC 192005Z AUTO 32014G18KT 10SM CLR 04/M07 A3018 790 44 -200 310/14G18 RMK AO2
14926KSTC STC20011119141009911/19/01 14:10:31  5-MIN KSTC 192010Z AUTO 31015KT 10SM CLR 05/M06 A3018 790 44 -100 300/15 RMK AO2
14926KSTC STC20011119141510511/19/01 14:15:31  5-MIN KSTC 192015Z AUTO 31014G18KT 10SM CLR 05/M06 A3018 790 44 -100 310/14G18 RMK AO2
14926KSTC STC20011119142009911/19/01 14:20:31  5-MIN KSTC 192020Z AUTO 31016KT 10SM CLR 05/M07 A3018 790 42 -100 300/16 RMK AO2
14926KSTC STC20011119142509911/19/01 14:25:31  5-MIN KSTC 192025Z AUTO 31012KT 10SM CLR 04/M07 A3018 790 44 -200 300/12 RMK AO2
14926KSTC STC20011119143010511/19/01 14:30:31  5-MIN KSTC 192030Z AUTO 31015G21KT 10SM CLR 05/M07 A3018 790 42 -100 310/15G21 RMK AO2
14926KSTC STC20011119143510511/19/01 14:35:31  5-MIN KSTC 192035Z AUTO 31014G21KT 10SM CLR 05/M07 A3018 790 41 -100 310/14G21 RMK AO2
14926KSTC STC20011119144009911/19/01 14:40:31  5-MIN KSTC 192040Z AUTO 32014KT 10SM CLR 04/M07 A3018 790 42 -200 320/14 RMK AO2
14926KSTC STC20011119144509911/19/01 14:45:31  5-MIN KSTC 192045Z AUTO 33013KT 10SM CLR 04/M07 A3018 780 42 -200 320/13 RMK AO2
14926KSTC STC20011119145012211/19/01 14:50:31  5-MIN KSTC 192050Z AUTO 32014KT 10SM CLR 04/M07 A3018 780 42 -200 320/14 RMK AO2 SLP241 T00441072 50002
14926KSTC STC20011119145510511/19/01 14:55:31  5-MIN KSTC 192055Z AUTO 32011G19KT 10SM CLR 04/M08 A3018 780 41 -200 320/11G19 RMK AO2
14926KSTC STC20011119150010511/19/01 15:00:31  5-MIN KSTC 192100Z AUTO 32011G19KT 10SM CLR 05/M07 A3018 780 42 -100 320/11G19 RMK AO2
14926KSTC STC20011119150510511/19/01 15:05:31  5-MIN KSTC 192105Z AUTO 32013G19KT 10SM CLR 04/M08 A3019 780 41 -200 310/13G19 RMK AO2
14926KSTC STC20011119151009911/19/01 15:10:31  5-MIN KSTC 192110Z AUTO 32012KT 10SM CLR 04/M07 A3019 780 42 -200 320/12 RMK AO2
14926KSTC STC20011119151509911/19/01 15:15:31  5-MIN KSTC 192115Z AUTO 31014KT 10SM CLR 04/M07 A3019 780 42 -200 310/14 RMK AO2
14926KSTC STC20011119152009911/19/01 15:20:31  5-MIN KSTC 192120Z AUTO 31016KT 10SM CLR 04/M07 A3019 780 42 -200 310/16 RMK AO2
14926KSTC STC20011119152509911/19/01 15:25:31  5-MIN KSTC 192125Z AUTO 32014KT 10SM CLR 04/M07 A3019 780 42 -200 320/14 RMK AO2
14926KSTC STC20011119153009911/19/01 15:30:31  5-MIN KSTC 192130Z AUTO 32013KT 10SM CLR 04/M07 A3019 770 42 -200 320/13 RMK AO2
14926KSTC STC20011119153510511/19/01 15:35:31  5-MIN KSTC 192135Z AUTO 31016G19KT 10SM CLR 04/M07 A3020 770 42 -200 300/16G19 RMK AO2
14926KSTC STC20011119154010511/19/01 15:40:31  5-MIN KSTC 192140Z AUTO 31014G19KT 10SM CLR 04/M07 A3019 770 44 -300 300/14G19 RMK AO2
14926KSTC STC20011119154509911/19/01 15:45:31  5-MIN KSTC 192145Z AUTO 31015KT 10SM CLR 04/M07 A3019 780 44 -300 310/15 RMK AO2
14926KSTC STC20011119155011611/19/01 15:50:31  5-MIN KSTC 192150Z AUTO 32010KT 10SM CLR 04/M07 A3019 770 44 -300 310/10 RMK AO2 SLP245 T00391072
14926KSTC STC20011119155509911/19/01 15:55:31  5-MIN KSTC 192155Z AUTO 31013KT 10SM CLR 04/M07 A3019 770 46 -300 310/13 RMK AO2
14926KSTC STC20011119160009911/19/01 16:00:31  5-MIN KSTC 192200Z AUTO 30015KT 10SM CLR 04/M07 A3019 770 44 -300 300/15 RMK AO2
14926KSTC STC20011119160509911/19/01 16:05:31  5-MIN KSTC 192205Z AUTO 31011KT 10SM CLR 03/M07 A3020 770 46 -400 310/11 RMK AO2
14926KSTC STC20011119161009911/19/01 16:10:31  5-MIN KSTC 192210Z AUTO 32012KT 10SM CLR 03/M07 A3020 770 48 -400 320/12 RMK AO2
14926KSTC STC20011119161509911/19/01 16:15:31  5-MIN KSTC 192215Z AUTO 32011KT 10SM CLR 03/M07 A3020 770 46 -400 320/11 RMK AO2
14926KSTC STC20011119162009911/19/01 16:20:31  5-MIN KSTC 192220Z AUTO 32010KT 10SM CLR 03/M07 A3020 770 46 -400 320/10 RMK AO2
14926KSTC STC20011119162509911/19/01 16:25:31  5-MIN KSTC 192225Z AUTO 32009KT 10SM CLR 03/M07 A3021 760 46 -400 320/09 RMK AO2
14926KSTC STC20011119163009911/19/01 16:30:31  5-MIN KSTC 192230Z AUTO 32009KT 10SM CLR 03/M07 A3021 760 50 -400 310/09 RMK AO2
14926KSTC STC20011119163509911/19/01 16:35:31  5-MIN KSTC 192235Z AUTO 31011KT 10SM CLR 02/M07 A3021 760 52 -500 310/11 RMK AO2
14926KSTC STC20011119164009911/19/01 16:40:31  5-MIN KSTC 192240Z AUTO 32010KT 10SM CLR 03/M07 A3021 760 48 -400 320/10 RMK AO2
14926KSTC STC20011119164509911/19/01 16:45:31  5-MIN KSTC 192245Z AUTO 32010KT 10SM CLR 02/M07 A3021 760 50 -500 320/10 RMK AO2
14926KSTC STC20011119165011611/19/01 16:50:31  5-MIN KSTC 192250Z AUTO 31008KT 10SM CLR 02/M07 A3021 760 50 -500 310/08 RMK AO2 SLP251 T00221072
14926KSTC STC20011119165509911/19/01 16:55:31  5-MIN KSTC 192255Z AUTO 31008KT 10SM CLR 02/M07 A3021 760 54 -600 310/08 RMK AO2
14926KSTC STC20011119170009911/19/01 17:00:31  5-MIN KSTC 192300Z AUTO 31008KT 10SM CLR 01/M06 A3021 760 58 -700 310/08 RMK AO2
14926KSTC STC20011119170509911/19/01 17:05:31  5-MIN KSTC 192305Z AUTO 31008KT 10SM CLR 01/M07 A3021 760 56 -700 300/08 RMK AO2
14926KSTC STC20011119171009911/19/01 17:10:31  5-MIN KSTC 192310Z AUTO 31007KT 10SM CLR 01/M06 A3021 760 61 -700 310/07 RMK AO2
14926KSTC STC20011119171509911/19/01 17:15:31  5-MIN KSTC 192315Z AUTO 30007KT 10SM CLR 01/M06 A3021 760 61 -700 300/07 RMK AO2
14926KSTC STC20011119172009911/19/01 17:20:31  5-MIN KSTC 192320Z AUTO 31007KT 10SM CLR 00/M06 A3022 750 63 -800 310/07 RMK AO2
14926KSTC STC20011119172509911/19/01 17:25:31  5-MIN KSTC 192325Z AUTO 31006KT 10SM CLR 00/M06 A3022 750 63 -800 300/06 RMK AO2
14926KSTC STC20011119173009911/19/01 17:30:31  5-MIN KSTC 192330Z AUTO 31006KT 10SM CLR 01/M07 A3022 750 58 -700 310/06 RMK AO2
14926KSTC STC20011119173509911/19/01 17:35:31  5-MIN KSTC 192335Z AUTO 30006KT 10SM CLR 01/M06 A3021 760 61 -700 300/06 RMK AO2
14926KSTC STC20011119174009911/19/01 17:40:31  5-MIN KSTC 192340Z AUTO 30006KT 10SM CLR 00/M06 A3021 760 63 -800 300/06 RMK AO2
14926KSTC STC20011119174509911/19/01 17:45:31  5-MIN KSTC 192345Z AUTO 30006KT 10SM CLR 01/M06 A3021 760 61 -700 300/06 RMK AO2
14926KSTC STC20011119175013411/19/01 17:50:31  5-MIN KSTC 192350Z AUTO 30007KT 10SM CLR 01/M06 A3022 750 61 -700 300/07 RMK AO2 SLP255 T00061061 10050 20000 56005
14926KSTC STC20011119175509911/19/01 17:55:31  5-MIN KSTC 192355Z AUTO 31006KT 10SM CLR 00/M06 A3022 750 63 -800 300/06 RMK AO2
14926KSTC STC20011119180010011/19/01 18:00:31  5-MIN KSTC 200000Z AUTO 31005KT 10SM CLR M01/M06 A3022 750 66 -900 300/05 RMK AO2
14926KSTC STC20011119180509911/19/01 18:05:31  5-MIN KSTC 200005Z AUTO 30007KT 10SM CLR 00/M06 A3022 750 63 -800 300/07 RMK AO2
14926KSTC STC20011119181009911/19/01 18:10:31  5-MIN KSTC 200010Z AUTO 31007KT 10SM CLR 00/M06 A3022 750 63 -800 300/07 RMK AO2
14926KSTC STC20011119181510011/19/01 18:15:31  5-MIN KSTC 200015Z AUTO 30007KT 10SM CLR M01/M06 A3022 750 66 -900 300/07 RMK AO2
14926KSTC STC20011119182010011/19/01 18:20:31  5-MIN KSTC 200020Z AUTO 30006KT 10SM CLR M01/M06 A3021 760 66 -900 300/06 RMK AO2
14926KSTC STC20011119182509911/19/01 18:25:31  5-MIN KSTC 200025Z AUTO 30007KT 10SM CLR 00/M06 A3021 760 63 -800 300/07 RMK AO2
14926KSTC STC20011119183010011/19/01 18:30:31  5-MIN KSTC 200030Z AUTO 31007KT 10SM CLR M01/M06 A3021 760 66 -900 310/07 RMK AO2
14926KSTC STC20011119183510011/19/01 18:35:31  5-MIN KSTC 200035Z AUTO 31006KT 10SM CLR M01/M06 A3021 760 66 -900 310/06 RMK AO2
14926KSTC STC20011119184010011/19/01 18:40:31  5-MIN KSTC 200040Z AUTO 31006KT 10SM CLR M01/M06 A3021 760 66 -900 310/06 RMK AO2
14926KSTC STC20011119184510011/19/01 18:45:31  5-MIN KSTC 200045Z AUTO 31005KT 10SM CLR M01/M06 A3021 760 66 -900 310/05 RMK AO2
14926KSTC STC20011119185011711/19/01 18:50:31  5-MIN KSTC 200050Z AUTO 31005KT 10SM CLR M01/M07 A3021 760 63 -900 310/05 RMK AO2 SLP254 T10061067
14926KSTC STC20011119185510011/19/01 18:55:31  5-MIN KSTC 200055Z AUTO 31006KT 10SM CLR M01/M07 A3022 750 63 -900 310/06 RMK AO2
14926KSTC STC20011119190010011/19/01 19:00:31  5-MIN KSTC 200100Z AUTO 31006KT 10SM CLR M01/M06 A3022 750 66 -900 310/06 RMK AO2
14926KSTC STC20011119190510011/19/01 19:05:31  5-MIN KSTC 200105Z AUTO 31006KT 10SM CLR M01/M06 A3022 750 69 -900 310/06 RMK AO2
14926KSTC STC20011119191010011/19/01 19:10:31  5-MIN KSTC 200110Z AUTO 30005KT 10SM CLR M01/M06 A3022 750 69 -900 300/05 RMK AO2
14926KSTC STC20011119191510111/19/01 19:15:31  5-MIN KSTC 200115Z AUTO 30004KT 10SM CLR M02/M06 A3022 750 72 -1000 290/04 RMK AO2
14926KSTC STC20011119192010111/19/01 19:20:31  5-MIN KSTC 200120Z AUTO 29005KT 10SM CLR M02/M06 A3022 750 72 -1000 290/05 RMK AO2
14926KSTC STC20011119192510111/19/01 19:25:31  5-MIN KSTC 200125Z AUTO 29005KT 10SM CLR M02/M06 A3022 750 72 -1000 280/05 RMK AO2
14926KSTC STC20011119193010111/19/01 19:30:31  5-MIN KSTC 200130Z AUTO 29005KT 10SM CLR M02/M06 A3022 750 75 -1000 290/05 RMK AO2
14926KSTC STC20011119193510011/19/01 19:35:31  5-MIN KSTC 200135Z AUTO 29005KT 10SM CLR M01/M06 A3022 750 72 -900 290/05 RMK AO2
14926KSTC STC20011119194010011/19/01 19:40:31  5-MIN KSTC 200140Z AUTO 30005KT 10SM CLR M01/M06 A3022 750 69 -900 290/05 RMK AO2
14926KSTC STC20011119194510111/19/01 19:45:31  5-MIN KSTC 200145Z AUTO 30006KT 10SM CLR M02/M06 A3022 750 72 -1000 290/06 RMK AO2
14926KSTC STC20011119195011811/19/01 19:50:31  5-MIN KSTC 200150Z AUTO 30006KT 10SM CLR M02/M06 A3022 750 72 -1000 300/06 RMK AO2 SLP256 T10171061
14926KSTC STC20011119195510111/19/01 19:55:31  5-MIN KSTC 200155Z AUTO 30006KT 10SM CLR M02/M06 A3022 750 72 -1000 290/06 RMK AO2
14926KSTC STC20011119200010111/19/01 20:00:31  5-MIN KSTC 200200Z AUTO 30006KT 10SM CLR M02/M06 A3022 750 72 -1000 290/06 RMK AO2
14926KSTC STC20011119200510111/19/01 20:05:31  5-MIN KSTC 200205Z AUTO 30006KT 10SM CLR M02/M06 A3023 750 75 -1100 300/06 RMK AO2
14926KSTC STC20011119201010111/19/01 20:10:31  5-MIN KSTC 200210Z AUTO 30006KT 10SM CLR M02/M06 A3023 740 72 -1000 300/06 RMK AO2
14926KSTC STC20011119201510111/19/01 20:15:31  5-MIN KSTC 200215Z AUTO 30007KT 10SM CLR M02/M06 A3022 750 75 -1100 300/07 RMK AO2
14926KSTC STC20011119202010111/19/01 20:20:31  5-MIN KSTC 200220Z AUTO 30008KT 10SM CLR M02/M06 A3023 740 72 -1000 300/08 RMK AO2
14926KSTC STC20011119202510111/19/01 20:25:31  5-MIN KSTC 200225Z AUTO 30007KT 10SM CLR M02/M06 A3023 750 72 -1000 300/07 RMK AO2
14926KSTC STC20011119203010111/19/01 20:30:31  5-MIN KSTC 200230Z AUTO 30007KT 10SM CLR M02/M06 A3022 750 72 -1000 300/07 RMK AO2
14926KSTC STC20011119203510111/19/01 20:35:31  5-MIN KSTC 200235Z AUTO 31007KT 10SM CLR M02/M06 A3023 740 75 -1100 300/07 RMK AO2
14926KSTC STC20011119204010111/19/01 20:40:31  5-MIN KSTC 200240Z AUTO 31006KT 10SM CLR M02/M06 A3023 740 75 -1100 310/06 RMK AO2
14926KSTC STC20011119204510111/19/01 20:45:31  5-MIN KSTC 200245Z AUTO 31006KT 10SM CLR M02/M06 A3023 740 75 -1100 310/06 RMK AO2
14926KSTC STC20011119205012411/19/01 20:50:31  5-MIN KSTC 200250Z AUTO 32006KT 10SM CLR M02/M07 A3023 740 72 -1100 310/06 RMK AO2 SLP261 T10221067 51012
14926KSTC STC20011119205510111/19/01 20:55:31  5-MIN KSTC 200255Z AUTO 32006KT 10SM CLR M02/M06 A3024 730 75 -1100 310/06 RMK AO2
14926KSTC STC20011119210010111/19/01 21:00:31  5-MIN KSTC 200300Z AUTO 32005KT 10SM CLR M02/M06 A3023 740 75 -1100 310/05 RMK AO2
14926KSTC STC20011119210510111/19/01 21:05:31  5-MIN KSTC 200305Z AUTO 32005KT 10SM CLR M02/M06 A3023 740 75 -1100 310/05 RMK AO2
14926KSTC STC20011119211010111/19/01 21:10:31  5-MIN KSTC 200310Z AUTO 31006KT 10SM CLR M02/M06 A3023 740 75 -1100 310/06 RMK AO2
14926KSTC STC20011119211510111/19/01 21:15:31  5-MIN KSTC 200315Z AUTO 31005KT 10SM CLR M02/M07 A3023 750 72 -1100 310/05 RMK AO2
14926KSTC STC20011119212010111/19/01 21:20:31  5-MIN KSTC 200320Z AUTO 30005KT 10SM CLR M02/M06 A3022 750 75 -1100 300/05 RMK AO2
14926KSTC STC20011119212510111/19/01 21:25:31  5-MIN KSTC 200325Z AUTO 29005KT 10SM CLR M03/M06 A3022 750 78 -1200 290/05 RMK AO2
14926KSTC STC20011119213010111/19/01 21:30:31  5-MIN KSTC 200330Z AUTO 29005KT 10SM CLR M03/M06 A3022 750 81 -1200 290/05 RMK AO2
14926KSTC STC20011119213510111/19/01 21:35:31  5-MIN KSTC 200335Z AUTO 29005KT 10SM CLR M03/M06 A3022 750 85 -1200 280/05 RMK AO2
14926KSTC STC20011119214010111/19/01 21:40:31  5-MIN KSTC 200340Z AUTO 29005KT 10SM CLR M03/M05 A3022 750 85 -1200 290/05 RMK AO2
14926KSTC STC20011119214510111/19/01 21:45:31  5-MIN KSTC 200345Z AUTO 29005KT 10SM CLR M03/M06 A3023 750 81 -1200 290/05 RMK AO2
14926KSTC STC20011119215011811/19/01 21:50:31  5-MIN KSTC 200350Z AUTO 30005KT 10SM CLR M03/M06 A3023 740 81 -1200 290/05 RMK AO2 SLP258 T10331061
14926KSTC STC20011119215510111/19/01 21:55:31  5-MIN KSTC 200355Z AUTO 30005KT 10SM CLR M03/M06 A3022 750 81 -1200 290/05 RMK AO2
14926KSTC STC20011119220010111/19/01 22:00:31  5-MIN KSTC 200400Z AUTO 30005KT 10SM CLR M03/M06 A3023 740 78 -1200 290/05 RMK AO2
14926KSTC STC20011119220510111/19/01 22:05:31  5-MIN KSTC 200405Z AUTO 30006KT 10SM CLR M03/M07 A3023 740 78 -1200 290/06 RMK AO2
14926KSTC STC20011119221010111/19/01 22:10:31  5-MIN KSTC 200410Z AUTO 30006KT 10SM CLR M03/M06 A3023 740 81 -1200 300/06 RMK AO2
14926KSTC STC20011119221510111/19/01 22:15:31  5-MIN KSTC 200415Z AUTO 30005KT 10SM CLR M03/M07 A3023 740 78 -1200 290/05 RMK AO2
14926KSTC STC20011119222010111/19/01 22:20:31  5-MIN KSTC 200420Z AUTO 30005KT 10SM CLR M03/M07 A3023 740 75 -1200 290/05 RMK AO2
14926KSTC STC20011119222510111/19/01 22:25:31  5-MIN KSTC 200425Z AUTO 29005KT 10SM CLR M03/M07 A3023 740 75 -1200 290/05 RMK AO2
14926KSTC STC20011119223010111/19/01 22:30:31  5-MIN KSTC 200430Z AUTO 29004KT 10SM CLR M02/M07 A3023 740 69 -1100 290/04 RMK AO2
14926KSTC STC20011119223510111/19/01 22:35:31  5-MIN KSTC 200435Z AUTO 29004KT 10SM CLR M02/M07 A3023 740 69 -1100 290/04 RMK AO2
14926KSTC STC20011119224010111/19/01 22:40:31  5-MIN KSTC 200440Z AUTO 29003KT 10SM CLR M02/M07 A3023 750 69 -1100 290/03 RMK AO2
14926KSTC STC20011119224510111/19/01 22:45:31  5-MIN KSTC 200445Z AUTO 00000KT 10SM CLR M03/M07 A3023 740 71 -1200 000/00 RMK AO2
14926KSTC STC20011119225011811/19/01 22:50:31  5-MIN KSTC 200450Z AUTO 00000KT 10SM CLR M03/M07 A3023 740 71 -1200 000/00 RMK AO2 SLP257 T10281072
14926KSTC STC20011119225510111/19/01 22:55:31  5-MIN KSTC 200455Z AUTO 00000KT 10SM CLR M03/M07 A3023 740 74 -1200 000/00 RMK AO2
14926KSTC STC20011119230010111/19/01 23:00:31  5-MIN KSTC 200500Z AUTO 00000KT 10SM CLR M03/M07 A3023 740 71 -1200 000/00 RMK AO2
14926KSTC STC20011119230510111/19/01 23:05:31  5-MIN KSTC 200505Z AUTO 00000KT 10SM CLR M04/M07 A3023 740 78 -1300 000/00 RMK AO2
14926KSTC STC20011119231010111/19/01 23:10:31  5-MIN KSTC 200510Z AUTO 00000KT 10SM CLR M03/M07 A3023 740 74 -1200 000/00 RMK AO2
14926KSTC STC20011119231510111/19/01 23:15:31  5-MIN KSTC 200515Z AUTO 00000KT 10SM CLR M04/M07 A3023 740 78 -1300 000/00 RMK AO2
14926KSTC STC20011119232010111/19/01 23:20:31  5-MIN KSTC 200520Z AUTO 24003KT 10SM CLR M03/M07 A3023 740 74 -1200 240/03 RMK AO2
14926KSTC STC20011119232510111/19/01 23:25:31  5-MIN KSTC 200525Z AUTO 24003KT 10SM CLR M03/M07 A3023 740 74 -1200 230/03 RMK AO2
14926KSTC STC20011119233010111/19/01 23:30:31  5-MIN KSTC 200530Z AUTO 25003KT 10SM CLR M04/M07 A3023 740 81 -1300 240/03 RMK AO2
14926KSTC STC20011119233510111/19/01 23:35:31  5-MIN KSTC 200535Z AUTO 00000KT 10SM CLR M04/M07 A3023 740 81 -1300 000/00 RMK AO2
14926KSTC STC20011119234010111/19/01 23:40:31  5-MIN KSTC 200540Z AUTO 00000KT 10SM CLR M04/M06 A3022 750 85 -1300 000/00 RMK AO2
14926KSTC STC20011119234510111/19/01 23:45:31  5-MIN KSTC 200545Z AUTO 00000KT 10SM CLR M04/M06 A3023 740 85 -1300 000/00 RMK AO2
14926KSTC STC20011119235014611/19/01 23:50:31  5-MIN KSTC 200550Z AUTO 00000KT 10SM CLR M04/M07 A3023 740 84 -1400 000/00 RMK AO2 SLP258 T10441067 10000 21044 400501044 53006
14926KSTC STC20011119235510111/19/01 23:55:31  5-MIN KSTC 200555Z AUTO 00000KT 10SM CLR M04/M06 A3022 750 85 -1300 000/00 RMK AO2
14926KSTC STC20011120000010111/20/01 00:00:31  5-MIN KSTC 200600Z AUTO 00000KT 10SM CLR M04/M06 A3022 750 85 -1300 000/00 RMK AO2
14926KSTC STC20011120000510111/20/01 00:05:31  5-MIN KSTC 200605Z AUTO 00000KT 10SM CLR M04/M06 A3022 750 85 -1300 000/00 RMK AO2
14926KSTC STC20011120001010111/20/01 00:10:31  5-MIN KSTC 200610Z AUTO 00000KT 10SM CLR M04/M06 A3022 750 88 -1400 000/00 RMK AO2
14926KSTC STC20011120001510111/20/01 00:15:31  5-MIN KSTC 200615Z AUTO 19003KT 10SM CLR M04/M06 A3021 760 88 -1400 190/03 RMK AO2
14926KSTC STC20011120002010111/20/01 00:20:31  5-MIN KSTC 200620Z AUTO 19005KT 10SM CLR M05/M06 A3019 770 92 -1400 190/05 RMK AO2
14926KSTC STC20011120002510111/20/01 00:25:31  5-MIN KSTC 200625Z AUTO 19003KT 10SM CLR M04/M06 A3020 770 88 -1300 190/03 RMK AO2
14926KSTC STC20011120003010111/20/01 00:30:31  5-MIN KSTC 200630Z AUTO 19004KT 10SM CLR M04/M06 A3019 780 88 -1300 190/04 RMK AO2
14926KSTC STC20011120003510111/20/01 00:35:31  5-MIN KSTC 200635Z AUTO 20005KT 10SM CLR M05/M07 A3019 780 88 -1400 200/05 RMK AO2
14926KSTC STC20011120004010111/20/01 00:40:31  5-MIN KSTC 200640Z AUTO 19004KT 10SM CLR M05/M06 A3019 780 92 -1400 190/04 RMK AO2
14926KSTC STC20011120004510111/20/01 00:45:31  5-MIN KSTC 200645Z AUTO 20003KT 10SM CLR M04/M06 A3018 780 85 -1300 190/03 RMK AO2
14926KSTC STC20011120005011811/20/01 00:50:31  5-MIN KSTC 200650Z AUTO 18003KT 10SM CLR M04/M06 A3018 790 85 -1300 180/03 RMK AO2 SLP241 T10391061
14926KSTC STC20011120005510111/20/01 00:55:31  5-MIN KSTC 200655Z AUTO 19003KT 10SM CLR M04/M06 A3018 790 85 -1300 180/03 RMK AO2
14926KSTC STC20011120010010111/20/01 01:00:31  5-MIN KSTC 200700Z AUTO 00000KT 10SM CLR M04/M07 A3018 790 81 -1300 000/00 RMK AO2
14926KSTC STC20011120010510111/20/01 01:05:31  5-MIN KSTC 200705Z AUTO 00000KT 10SM CLR M04/M07 A3018 790 84 -1300 000/00 RMK AO2
14926KSTC STC20011120011010111/20/01 01:10:31  5-MIN KSTC 200710Z AUTO 16003KT 10SM CLR M04/M07 A3018 790 84 -1300 160/03 RMK AO2
14926KSTC STC20011120011510111/20/01 01:15:31  5-MIN KSTC 200715Z AUTO 15004KT 10SM CLR M04/M07 A3017 800 84 -1300 140/04 RMK AO2
14926KSTC STC20011120012010111/20/01 01:20:31  5-MIN KSTC 200720Z AUTO 15003KT 10SM CLR M05/M07 A3017 800 88 -1400 140/03 RMK AO2
14926KSTC STC20011120012510111/20/01 01:25:31  5-MIN KSTC 200725Z AUTO 00000KT 10SM CLR M06/M07 A3017 790 88 -1500 000/00 RMK AO2
14926KSTC STC20011120013010111/20/01 01:30:31  5-MIN KSTC 200730Z AUTO 00000KT 10SM CLR M06/M07 A3017 800 96 -1500 000/00 RMK AO2
14926KSTC STC20011120013510111/20/01 01:35:31  5-MIN KSTC 200735Z AUTO 18003KT 10SM CLR M06/M07 A3017 800 92 -1500 180/03 RMK AO2
14926KSTC STC20011120014010111/20/01 01:40:31  5-MIN KSTC 200740Z AUTO 19003KT 10SM CLR M06/M06 A3016 800 96 -1500 190/03 RMK AO2
14926KSTC STC20011120014510111/20/01 01:45:31  5-MIN KSTC 200745Z AUTO 00000KT 10SM CLR M06/M07 A3017 800 92 -1500 000/00 RMK AO2
14926KSTC STC20011120015011811/20/01 01:50:31  5-MIN KSTC 200750Z AUTO 00000KT 10SM CLR M06/M07 A3017 800 92 -1500 000/00 RMK AO2 SLP236 T10561067
14926KSTC STC20011120015510111/20/01 01:55:31  5-MIN KSTC 200755Z AUTO 00000KT 10SM CLR M05/M06 A3017 800 92 -1400 000/00 RMK AO2
14926KSTC STC20011120020010111/20/01 02:00:31  5-MIN KSTC 200800Z AUTO 00000KT 10SM CLR M05/M07 A3017 800 88 -1400 000/00 RMK AO2
14926KSTC STC20011120020510111/20/01 02:05:31  5-MIN KSTC 200805Z AUTO 00000KT 10SM CLR M05/M07 A3017 800 88 -1400 000/00 RMK AO2
14926KSTC STC20011120021010111/20/01 02:10:31  5-MIN KSTC 200810Z AUTO 00000KT 10SM CLR M06/M07 A3017 790 88 -1500 000/00 RMK AO2
14926KSTC STC20011120021510111/20/01 02:15:31  5-MIN KSTC 200815Z AUTO 00000KT 10SM CLR M06/M07 A3017 790 92 -1500 000/00 RMK AO2
14926KSTC STC20011120022010111/20/01 02:20:31  5-MIN KSTC 200820Z AUTO 00000KT 10SM CLR M06/M07 A3017 790 92 -1500 000/00 RMK AO2
14926KSTC STC20011120022510111/20/01 02:25:31  5-MIN KSTC 200825Z AUTO 00000KT 10SM CLR M06/M07 A3018 790 92 -1500 000/00 RMK AO2
14926KSTC STC20011120023010111/20/01 02:30:31  5-MIN KSTC 200830Z AUTO 00000KT 10SM CLR M06/M07 A3018 790 92 -1500 000/00 RMK AO2
14926KSTC STC20011120023510111/20/01 02:35:31  5-MIN KSTC 200835Z AUTO 00000KT 10SM CLR M06/M07 A3018 790 92 -1500 000/00 RMK AO2
14926KSTC STC20011120024010111/20/01 02:40:31  5-MIN KSTC 200840Z AUTO 00000KT 10SM CLR M06/M07 A3018 790 88 -1500 000/00 RMK AO2
14926KSTC STC20011120024510111/20/01 02:45:31  5-MIN KSTC 200845Z AUTO 00000KT 10SM CLR M06/M07 A3018 790 92 -1500 000/00 RMK AO2
14926KSTC STC20011120025012411/20/01 02:50:31  5-MIN KSTC 200850Z AUTO 00000KT 10SM CLR M06/M07 A3017 800 96 -1500 000/00 RMK AO2 SLP238 T10611067 56005
14926KSTC STC20011120025510111/20/01 02:55:31  5-MIN KSTC 200855Z AUTO 16003KT 10SM CLR M06/M07 A3017 800 92 -1500 160/03 RMK AO2
14926KSTC STC20011120030010111/20/01 03:00:31  5-MIN KSTC 200900Z AUTO 17003KT 10SM CLR M06/M07 A3016 800 92 -1500 170/03 RMK AO2
14926KSTC STC20011120030510111/20/01 03:05:31  5-MIN KSTC 200905Z AUTO 15003KT 10SM CLR M06/M07 A3016 800 92 -1500 150/03 RMK AO2
14926KSTC STC20011120031010111/20/01 03:10:31  5-MIN KSTC 200910Z AUTO 15003KT 10SM CLR M06/M07 A3016 810 92 -1400 150/03 RMK AO2
14926KSTC STC20011120031510111/20/01 03:15:31  5-MIN KSTC 200915Z AUTO 15004KT 10SM CLR M06/M07 A3015 810 92 -1400 150/04 RMK AO2
14926KSTC STC20011120032010111/20/01 03:20:31  5-MIN KSTC 200920Z AUTO 16005KT 10SM CLR M06/M07 A3015 820 92 -1500 160/05 RMK AO2
14926KSTC STC20011120032510111/20/01 03:25:31  5-MIN KSTC 200925Z AUTO 16005KT 10SM CLR M07/M07 A3014 820 96 -1600 150/05 RMK AO2
14926KSTC STC20011120033010111/20/01 03:30:31  5-MIN KSTC 200930Z AUTO 16005KT 10SM CLR M07/M08 A3015 820 92 -1600 160/05 RMK AO2
14926KSTC STC20011120033510111/20/01 03:35:31  5-MIN KSTC 200935Z AUTO 16004KT 10SM CLR M07/M08 A3014 820 92 -1600 160/04 RMK AO2
14926KSTC STC20011120034010111/20/01 03:40:31  5-MIN KSTC 200940Z AUTO 15003KT 10SM CLR M06/M07 A3015 820 92 -1400 150/03 RMK AO2
14926KSTC STC20011120034510111/20/01 03:45:31  5-MIN KSTC 200945Z AUTO 00000KT 10SM CLR M06/M07 A3015 810 96 -1500 000/00 RMK AO2
14926KSTC STC20011120035011811/20/01 03:50:31  5-MIN KSTC 200950Z AUTO 00000KT 10SM CLR M06/M07 A3015 810 92 -1500 000/00 RMK AO2 SLP232 T10611072
14926KSTC STC20011120035510111/20/01 03:55:31  5-MIN KSTC 200955Z AUTO 15003KT 10SM CLR M06/M07 A3015 820 92 -1500 150/03 RMK AO2
14926KSTC STC20011120040010111/20/01 04:00:31  5-MIN KSTC 201000Z AUTO 15003KT 10SM CLR M06/M07 A3014 820 92 -1500 150/03 RMK AO2
14926KSTC STC20011120040510111/20/01 04:05:31  5-MIN KSTC 201005Z AUTO 15004KT 10SM CLR M06/M07 A3014 830 92 -1500 150/04 RMK AO2
14926KSTC STC20011120041010111/20/01 04:10:31  5-MIN KSTC 201010Z AUTO 15005KT 10SM CLR M07/M08 A3013 830 92 -1600 150/05 RMK AO2
14926KSTC STC20011120041510111/20/01 04:15:31  5-MIN KSTC 201015Z AUTO 15005KT 10SM CLR M07/M07 A3014 830 96 -1600 140/05 RMK AO2
14926KSTC STC20011120042010111/20/01 04:20:31  5-MIN KSTC 201020Z AUTO 15004KT 10SM CLR M06/M07 A3014 830 96 -1500 150/04 RMK AO2
14926KSTC STC20011120042510111/20/01 04:25:31  5-MIN KSTC 201025Z AUTO 15004KT 10SM CLR M06/M07 A3014 820 96 -1500 150/04 RMK AO2
14926KSTC STC20011120043010111/20/01 04:30:31  5-MIN KSTC 201030Z AUTO 14003KT 10SM CLR M06/M07 A3014 820 96 -1500 140/03 RMK AO2
14926KSTC STC20011120043510111/20/01 04:35:31  5-MIN KSTC 201035Z AUTO 13003KT 10SM CLR M06/M07 A3014 820 96 -1500 130/03 RMK AO2
14926KSTC STC20011120044010111/20/01 04:40:31  5-MIN KSTC 201040Z AUTO 00000KT 10SM CLR M07/M07 A3014 820 96 -1600 000/00 RMK AO2
14926KSTC STC20011120044510111/20/01 04:45:31  5-MIN KSTC 201045Z AUTO 00000KT 10SM CLR M07/M07 A3015 820 96 -1600 000/00 RMK AO2
14926KSTC STC20011120045011811/20/01 04:50:31  5-MIN KSTC 201050Z AUTO 00000KT 10SM CLR M06/M07 A3014 820 96 -1500 000/00 RMK AO2 SLP230 T10611067
14926KSTC STC20011120045510111/20/01 04:55:31  5-MIN KSTC 201055Z AUTO 00000KT 10SM CLR M06/M07 A3015 820 92 -1400 000/00 RMK AO2
14926KSTC STC20011120050010111/20/01 05:00:31  5-MIN KSTC 201100Z AUTO 00000KT 10SM CLR M06/M07 A3015 820 92 -1400 000/00 RMK AO2
14926KSTC STC20011120050510111/20/01 05:05:31  5-MIN KSTC 201105Z AUTO 14003KT 10SM CLR M06/M07 A3014 820 92 -1400 140/03 RMK AO2
14926KSTC STC20011120051010111/20/01 05:10:31  5-MIN KSTC 201110Z AUTO 15003KT 10SM CLR M06/M07 A3014 830 92 -1400 140/03 RMK AO2
14926KSTC STC20011120051510111/20/01 05:15:31  5-MIN KSTC 201115Z AUTO 00000KT 10SM CLR M06/M07 A3014 820 92 -1400 000/00 RMK AO2
14926KSTC STC20011120052010111/20/01 05:20:31  5-MIN KSTC 201120Z AUTO 16003KT 10SM CLR M06/M07 A3014 830 92 -1400 150/03 RMK AO2
14926KSTC STC20011120052510111/20/01 05:25:31  5-MIN KSTC 201125Z AUTO 15004KT 10SM CLR M06/M07 A3013 830 92 -1400 150/04 RMK AO2
14926KSTC STC20011120053010111/20/01 05:30:31  5-MIN KSTC 201130Z AUTO 15004KT 10SM CLR M06/M07 A3013 830 96 -1500 140/04 RMK AO2
14926KSTC STC20011120053510111/20/01 05:35:31  5-MIN KSTC 201135Z AUTO 14004KT 10SM CLR M06/M06 A3013 840 96 -1400 140/04 RMK AO2
14926KSTC STC20011120054010111/20/01 05:40:31  5-MIN KSTC 201140Z AUTO 15005KT 10SM CLR M06/M06 A3012 840 96 -1400 140/05 RMK AO2
14926KSTC STC20011120054510111/20/01 05:45:31  5-MIN KSTC 201145Z AUTO 15005KT 10SM CLR M06/M07 A3012 840 92 -1400 140/05 RMK AO2
14926KSTC STC20011120055013611/20/01 05:50:31  5-MIN KSTC 201150Z AUTO 15005KT 10SM CLR M06/M07 A3012 850 92 -1400 140/05 RMK AO2 SLP221 T10561067 11033 21067 56018
14926KSTC STC20011120055510111/20/01 05:55:31  5-MIN KSTC 201155Z AUTO 15005KT 10SM CLR M06/M07 A3011 850 92 -1400 140/05 RMK AO2
14926KSTC STC20011120060010111/20/01 06:00:31  5-MIN KSTC 201200Z AUTO 15005KT 10SM CLR M05/M06 A3011 850 92 -1300 140/05 RMK AO2
14926KSTC STC20011120060510111/20/01 06:05:31  5-MIN KSTC 201205Z AUTO 14005KT 10SM CLR M04/M06 A3011 860 92 -1200 140/05 RMK AO2
14926KSTC STC20011120061010111/20/01 06:10:31  5-MIN KSTC 201210Z AUTO 14005KT 10SM CLR M04/M06 A3010 860 92 -1200 140/05 RMK AO2
14926KSTC STC20011120061510111/20/01 06:15:31  5-MIN KSTC 201215Z AUTO 14005KT 10SM CLR M05/M06 A3010 860 92 -1300 140/05 RMK AO2
14926KSTC STC20011120062010111/20/01 06:20:31  5-MIN KSTC 201220Z AUTO 14005KT 10SM CLR M05/M06 A3010 860 92 -1300 140/05 RMK AO2
14926KSTC STC20011120062510111/20/01 06:25:31  5-MIN KSTC 201225Z AUTO 14006KT 10SM CLR M06/M07 A3009 870 96 -1400 140/06 RMK AO2
14926KSTC STC20011120063010111/20/01 06:30:31  5-MIN KSTC 201230Z AUTO 13006KT 10SM CLR M06/M07 A3009 870 92 -1400 130/06 RMK AO2
14926KSTC STC20011120063510111/20/01 06:35:31  5-MIN KSTC 201235Z AUTO 15005KT 10SM CLR M04/M06 A3009 870 92 -1200 140/05 RMK AO2
14926KSTC STC20011120064010111/20/01 06:40:31  5-MIN KSTC 201240Z AUTO 15006KT 10SM CLR M05/M06 A3009 870 96 -1300 140/06 RMK AO2
14926KSTC STC20011120064510111/20/01 06:45:31  5-MIN KSTC 201245Z AUTO 15006KT 10SM CLR M06/M07 A3008 880 92 -1400 150/06 RMK AO2
14926KSTC STC20011120065011811/20/01 06:50:31  5-MIN KSTC 201250Z AUTO 15007KT 10SM CLR M06/M07 A3008 880 96 -1400 150/07 RMK AO2 SLP210 T10611067
14926KSTC STC20011120065510111/20/01 06:55:31  5-MIN KSTC 201255Z AUTO 16006KT 10SM CLR M06/M07 A3008 880 96 -1400 150/06 RMK AO2
14926KSTC STC20011120070010111/20/01 07:00:31  5-MIN KSTC 201300Z AUTO 15005KT 10SM CLR M06/M07 A3008 880 96 -1400 150/05 RMK AO2
14926KSTC STC20011120070510111/20/01 07:05:31  5-MIN KSTC 201305Z AUTO 15005KT 10SM CLR M05/M06 A3008 880 92 -1300 140/05 RMK AO2
14926KSTC STC20011120071010111/20/01 07:10:31  5-MIN KSTC 201310Z AUTO 14005KT 10SM CLR M04/M06 A3008 880 88 -1200 140/05 RMK AO2
14926KSTC STC20011120071510111/20/01 07:15:31  5-MIN KSTC 201315Z AUTO 14005KT 10SM CLR M04/M06 A3008 880 92 -1200 140/05 RMK AO2
14926KSTC STC20011120072010111/20/01 07:20:31  5-MIN KSTC 201320Z AUTO 15005KT 10SM CLR M04/M06 A3007 890 88 -1200 140/05 RMK AO2
14926KSTC STC20011120072510111/20/01 07:25:31  5-MIN KSTC 201325Z AUTO 15005KT 10SM CLR M04/M06 A3007 890 88 -1200 140/05 RMK AO2
14926KSTC STC20011120073010111/20/01 07:30:31  5-MIN KSTC 201330Z AUTO 15006KT 10SM CLR M05/M06 A3006 890 92 -1300 150/06 RMK AO2
14926KSTC STC20011120073510111/20/01 07:35:31  5-MIN KSTC 201335Z AUTO 15006KT 10SM CLR M06/M07 A3006 900 92 -1300 150/06 RMK AO2
14926KSTC STC20011120074010111/20/01 07:40:31  5-MIN KSTC 201340Z AUTO 16006KT 10SM CLR M06/M07 A3006 900 92 -1300 160/06 RMK AO2
14926KSTC STC20011120074510111/20/01 07:45:31  5-MIN KSTC 201345Z AUTO 16006KT 10SM CLR M06/M06 A3006 900 96 -1300 160/06 RMK AO2
14926KSTC STC20011120075011811/20/01 07:50:31  5-MIN KSTC 201350Z AUTO 17005KT 10SM CLR M05/M06 A3006 900 92 -1300 160/05 RMK AO2 SLP203 T10501061
14926KSTC STC20011120075510111/20/01 07:55:31  5-MIN KSTC 201355Z AUTO 17006KT 10SM CLR M04/M06 A3006 900 92 -1200 160/06 RMK AO2
14926KSTC STC20011120080010111/20/01 08:00:31  5-MIN KSTC 201400Z AUTO 16005KT 10SM CLR M04/M06 A3005 900 88 -1100 160/05 RMK AO2
14926KSTC STC20011120080510111/20/01 08:05:31  5-MIN KSTC 201405Z AUTO 17006KT 10SM CLR M04/M06 A3005 910 88 -1100 170/06 RMK AO2
14926KSTC STC20011120081010111/20/01 08:10:31  5-MIN KSTC 201410Z AUTO 17005KT 10SM CLR M03/M05 A3005 910 88 -1000 170/05 RMK AO2
14926KSTC STC20011120081510111/20/01 08:15:31  5-MIN KSTC 201415Z AUTO 18006KT 10SM CLR M03/M05 A3005 910 85 -1000 170/06 RMK AO2
14926KSTC STC20011120082010011/20/01 08:20:31  5-MIN KSTC 201420Z AUTO 18006KT 10SM CLR M02/M05 A3005 910 81 -900 180/06 RMK AO2
14926KSTC STC20011120082510011/20/01 08:25:31  5-MIN KSTC 201425Z AUTO 18007KT 10SM CLR M02/M05 A3004 910 81 -900 170/07 RMK AO2
14926KSTC STC20011120083010011/20/01 08:30:31  5-MIN KSTC 201430Z AUTO 17006KT 10SM CLR M02/M05 A3004 910 81 -900 170/06 RMK AO2
14926KSTC STC20011120083510011/20/01 08:35:31  5-MIN KSTC 201435Z AUTO 18007KT 10SM CLR M02/M05 A3004 910 78 -800 170/07 RMK AO2
14926KSTC STC20011120084010011/20/01 08:40:31  5-MIN KSTC 201440Z AUTO 18007KT 10SM CLR M02/M05 A3004 920 78 -800 180/07 RMK AO2
14926KSTC STC20011120084510011/20/01 08:45:31  5-MIN KSTC 201445Z AUTO 18007KT 10SM CLR M02/M05 A3003 920 78 -800 180/07 RMK AO2
14926KSTC STC20011120085012311/20/01 08:50:31  5-MIN KSTC 201450Z AUTO 18007KT 10SM CLR M01/M04 A3003 930 78 -700 180/07 RMK AO2 SLP190 T10111044 58018
14926KSTC STC20011120085510011/20/01 08:55:31  5-MIN KSTC 201455Z AUTO 18007KT 10SM CLR M01/M04 A3002 930 78 -700 180/07 RMK AO2
14926KSTC STC20011120090010011/20/01 09:00:31  5-MIN KSTC 201500Z AUTO 19007KT 10SM CLR M01/M04 A3002 940 78 -700 180/07 RMK AO2
14926KSTC STC20011120090510711/20/01 09:05:31  5-MIN KSTC 201505Z AUTO 18008KT 10SM CLR M01/M04 A3001 950 78 -700 180/08 RMK AO2 PRESFR
14926KSTC STC20011120091010011/20/01 09:10:31  5-MIN KSTC 201510Z AUTO 18008KT 10SM CLR M01/M04 A3001 950 78 -700 170/08 RMK AO2
14926KSTC STC20011120091510011/20/01 09:15:31  5-MIN KSTC 201515Z AUTO 18008KT 10SM CLR M01/M04 A3000 950 75 -600 170/08 RMK AO2
14926KSTC STC20011120092010711/20/01 09:20:31  5-MIN KSTC 201520Z AUTO 18009KT 10SM CLR M01/M04 A2999 960 75 -600 170/09 RMK AO2 PRESFR
14926KSTC STC20011120092510011/20/01 09:25:31  5-MIN KSTC 201525Z AUTO 18011KT 10SM CLR M01/M05 A2999 960 72 -600 170/11 RMK AO2
14926KSTC STC20011120093010011/20/01 09:30:31  5-MIN KSTC 201530Z AUTO 18010KT 10SM CLR M01/M05 A2998 970 72 -600 180/10 RMK AO2
14926KSTC STC20011120093510011/20/01 09:35:31  5-MIN KSTC 201535Z AUTO 18011KT 10SM CLR M01/M05 A2998 970 72 -600 170/11 RMK AO2
14926KSTC STC20011120094009911/20/01 09:40:31  5-MIN KSTC 201540Z AUTO 18012KT 10SM CLR 00/M05 A2998 970 69 -500 170/12 RMK AO2
14926KSTC STC20011120094509911/20/01 09:45:31  5-MIN KSTC 201545Z AUTO 18011KT 10SM CLR 00/M04 A2997 980 72 -500 170/11 RMK AO2
14926KSTC STC20011120095011611/20/01 09:50:31  5-MIN KSTC 201550Z AUTO 18012KT 10SM CLR 01/M05 A2997 980 66 -400 180/12 RMK AO2 SLP169 T00061050
14926KSTC STC20011120095509911/20/01 09:55:31  5-MIN KSTC 201555Z AUTO 18013KT 10SM CLR 01/M05 A2996 990 66 -400 170/13 RMK AO2
14926KSTC STC20011120100009911/20/01 10:00:31  5-MIN KSTC 201600Z AUTO 17013KT 10SM CLR 01/M05 A2996 990 64 -400 170/13 RMK AO2
14926KSTC STC20011120100509911/20/01 10:05:31  5-MIN KSTC 201605Z AUTO 18013KT 10SM CLR 01/M05 A2995 990 64 -400 170/13 RMK AO2
14926KSTC STC20011120101010011/20/01 10:10:31  5-MIN KSTC 201610Z AUTO 17013KT 10SM CLR 02/M05 A2995 1000 61 -300 170/13 RMK AO2
14926KSTC STC20011120101510011/20/01 10:15:31  5-MIN KSTC 201615Z AUTO 18011KT 10SM CLR 02/M05 A2995 1000 59 -200 180/11 RMK AO2
14926KSTC STC20011120102010011/20/01 10:20:31  5-MIN KSTC 201620Z AUTO 18011KT 10SM CLR 02/M05 A2994 1000 59 -200 180/11 RMK AO2
14926KSTC STC20011120102510011/20/01 10:25:31  5-MIN KSTC 201625Z AUTO 18012KT 10SM CLR 02/M05 A2994 1000 59 -200 180/12 RMK AO2
14926KSTC STC20011120103010011/20/01 10:30:31  5-MIN KSTC 201630Z AUTO 18013KT 10SM CLR 03/M05 A2994 1010 56 -100 180/13 RMK AO2
14926KSTC STC20011120103510611/20/01 10:35:31  5-MIN KSTC 201635Z AUTO 19014G19KT 10SM CLR 03/M05 A2994 1010 54 -100 190/14G19 RMK AO2
14926KSTC STC20011120104010611/20/01 10:40:31  5-MIN KSTC 201640Z AUTO 19011G21KT 10SM CLR 03/M06 A2994 1010 52 -100 190/11G21 RMK AO2
14926KSTC STC20011120104510611/20/01 10:45:31  5-MIN KSTC 201645Z AUTO 19013G21KT 10SM CLR 03/M06 A2994 1010 52 -100 190/13G21 RMK AO2
14926KSTC STC20011120105011711/20/01 10:50:31  5-MIN KSTC 201650Z AUTO 20015KT 10SM CLR 03/M06 A2993 1010 50 -100 200/15 RMK AO2 SLP156 T00331061
14926KSTC STC20011120105509711/20/01 10:55:31  5-MIN KSTC 201655Z AUTO 20016KT 10SM CLR 04/M06 A2993 1020 48 0 190/16 RMK AO2
14926KSTC STC20011120110010411/20/01 11:00:31  5-MIN KSTC 201700Z AUTO 20015KT 10SM CLR 04/M06 A2992 1030 50 0 190/15 RMK AO2 PRESFR
14926KSTC STC20011120110510611/20/01 11:05:31  5-MIN KSTC 201705Z AUTO 20020KT 10SM CLR 04/M06 A2991 1040 46 100 190/20 RMK AO2 PRESFR
14926KSTC STC20011120111011211/20/01 11:10:31  5-MIN KSTC 201710Z AUTO 20016G23KT 10SM CLR 04/M06 A2990 1040 46 100 190/16G23 RMK AO2 PRESFR
14926KSTC STC20011120111511211/20/01 11:15:31  5-MIN KSTC 201715Z AUTO 19018G23KT 10SM CLR 04/M06 A2990 1050 48 100 180/18G23 RMK AO2 PRESFR
14926KSTC STC20011120112009911/20/01 11:20:31  5-MIN KSTC 201720Z AUTO 19015KT 10SM CLR 04/M06 A2989 1050 48 100 190/15 RMK AO2
14926KSTC STC20011120112510511/20/01 11:25:31  5-MIN KSTC 201725Z AUTO 19017G22KT 10SM CLR 04/M06 A2989 1050 48 100 190/17G22 RMK AO2
14926KSTC STC20011120113010311/20/01 11:30:31  5-MIN KSTC 201730Z AUTO 19015G22KT 10SM CLR 04/M06 A2989 1060 48 0 190/15G22 RMK AO2
14926KSTC STC20011120113509711/20/01 11:35:31  5-MIN KSTC 201735Z AUTO 20015KT 10SM CLR 04/M06 A2988 1060 48 0 190/15 RMK AO2
14926KSTC STC20011120114009711/20/01 11:40:31  5-MIN KSTC 201740Z AUTO 20010KT 10SM CLR 04/M06 A2988 1060 50 0 190/10 RMK AO2
14926KSTC STC20011120114509711/20/01 11:45:31  5-MIN KSTC 201745Z AUTO 20012KT 10SM CLR 04/M06 A2988 1060 50 0 200/12 RMK AO2
14926KSTC STC20011120115013411/20/01 11:50:31  5-MIN KSTC 201750Z AUTO 20012KT 10SM CLR 04/M06 A2988 1070 48 100 200/12 RMK AO2 SLP137 T00441056 10044 21061 58029
14926KSTC STC20011120115509911/20/01 11:55:31  5-MIN KSTC 201755Z AUTO 20010KT 10SM CLR 04/M05 A2987 1070 50 100 190/10 RMK AO2
14926KSTC STC20011120120009911/20/01 12:00:31  5-MIN KSTC 201800Z AUTO 20014KT 10SM CLR 04/M06 A2987 1070 48 100 200/14 RMK AO2
14926KSTC STC20011120120509911/20/01 12:05:31  5-MIN KSTC 201805Z AUTO 20015KT 10SM CLR 04/M06 A2986 1080 48 100 200/15 RMK AO2
14926KSTC STC20011120121010611/20/01 12:10:31  5-MIN KSTC 201810Z AUTO 19014KT 10SM CLR 05/M05 A2985 1090 48 200 190/14 RMK AO2 PRESFR
14926KSTC STC20011120121510611/20/01 12:15:31  5-MIN KSTC 201815Z AUTO 19013KT 10SM CLR 05/M05 A2985 1100 48 200 180/13 RMK AO2 PRESFR
14926KSTC STC20011120122010611/20/01 12:20:31  5-MIN KSTC 201820Z AUTO 19012KT 10SM CLR 05/M05 A2984 1100 48 200 180/12 RMK AO2 PRESFR
14926KSTC STC20011120122509911/20/01 12:25:31  5-MIN KSTC 201825Z AUTO 18013KT 10SM CLR 06/M04 A2983 1110 48 300 180/13 RMK AO2
14926KSTC STC20011120123009911/20/01 12:30:31  5-MIN KSTC 201830Z AUTO 19012KT 10SM CLR 06/M04 A2983 1110 48 300 180/12 RMK AO2
14926KSTC STC20011120123509911/20/01 12:35:31  5-MIN KSTC 201835Z AUTO 19011KT 10SM CLR 06/M04 A2983 1110 48 300 190/11 RMK AO2
14926KSTC STC20011120124009911/20/01 12:40:31  5-MIN KSTC 201840Z AUTO 18013KT 10SM CLR 06/M04 A2983 1110 48 300 180/13 RMK AO2
14926KSTC STC20011120124509911/20/01 12:45:31  5-MIN KSTC 201845Z AUTO 19010KT 10SM CLR 06/M05 A2982 1120 46 300 180/10 RMK AO2
14926KSTC STC20011120125011611/20/01 12:50:31  5-MIN KSTC 201850Z AUTO 18011KT 10SM CLR 06/M04 A2981 1130 48 300 180/11 RMK AO2 SLP114 T00561044
14926KSTC STC20011120125510611/20/01 12:55:31  5-MIN KSTC 201855Z AUTO 19012KT 10SM CLR 06/M04 A2981 1130 48 300 180/12 RMK AO2 PRESFR
14926KSTC STC20011120130009911/20/01 13:00:31  5-MIN KSTC 201900Z AUTO 19014KT 10SM CLR 06/M04 A2980 1130 48 300 180/14 RMK AO2
14926KSTC STC20011120130509911/20/01 13:05:31  5-MIN KSTC 201905Z AUTO 17011KT 10SM CLR 06/M04 A2980 1130 48 300 160/11 RMK AO2
14926KSTC STC20011120131009911/20/01 13:10:31  5-MIN KSTC 201910Z AUTO 18010KT 10SM CLR 06/M04 A2981 1130 46 400 170/10 RMK AO2
14926KSTC STC20011120131509911/20/01 13:15:31  5-MIN KSTC 201915Z AUTO 18010KT 10SM CLR 06/M04 A2981 1130 46 400 180/10 RMK AO2
14926KSTC STC20011120132009911/20/01 13:20:31  5-MIN KSTC 201920Z AUTO 19007KT 10SM CLR 06/M04 A2981 1120 48 400 190/07 RMK AO2
14926KSTC STC20011120132509911/20/01 13:25:31  5-MIN KSTC 201925Z AUTO 19010KT 10SM CLR 07/M03 A2981 1130 49 400 190/10 RMK AO2
14926KSTC STC20011120133009911/20/01 13:30:31  5-MIN KSTC 201930Z AUTO 19011KT 10SM CLR 07/M03 A2980 1140 49 400 190/11 RMK AO2
14926KSTC STC20011120133509911/20/01 13:35:31  5-MIN KSTC 201935Z AUTO 20010KT 10SM CLR 07/M03 A2980 1140 47 500 190/10 RMK AO2
14926KSTC STC20011120134009911/20/01 13:40:31  5-MIN KSTC 201940Z AUTO 19012KT 10SM CLR 07/M03 A2979 1140 47 500 180/12 RMK AO2
14926KSTC STC20011120134509911/20/01 13:45:31  5-MIN KSTC 201945Z AUTO 20010KT 10SM CLR 07/M03 A2980 1140 49 500 190/10 RMK AO2
14926KSTC STC20011120135011611/20/01 13:50:31  5-MIN KSTC 201950Z AUTO 19011KT 10SM CLR 07/M03 A2979 1150 51 500 180/11 RMK AO2 SLP107 T00671028
14926KSTC STC20011120135509911/20/01 13:55:31  5-MIN KSTC 201955Z AUTO 19012KT 10SM CLR 07/M03 A2979 1150 49 500 190/12 RMK AO2
14926KSTC STC20011120140009911/20/01 14:00:31  5-MIN KSTC 202000Z AUTO 19011KT 10SM CLR 07/M03 A2979 1150 49 500 190/11 RMK AO2
14926KSTC STC20011120140509911/20/01 14:05:31  5-MIN KSTC 202005Z AUTO 19011KT 10SM CLR 07/M03 A2979 1150 49 500 190/11 RMK AO2
14926KSTC STC20011120141009911/20/01 14:10:31  5-MIN KSTC 202010Z AUTO 20011KT 10SM CLR 07/M03 A2979 1150 49 500 190/11 RMK AO2
14926KSTC STC20011120141509911/20/01 14:15:31  5-MIN KSTC 202015Z AUTO 20012KT 10SM CLR 08/M03 A2978 1160 47 600 200/12 RMK AO2
14926KSTC STC20011120142009911/20/01 14:20:31  5-MIN KSTC 202020Z AUTO 20010KT 10SM CLR 08/M02 A2977 1160 49 600 190/10 RMK AO2
14926KSTC STC20011120142510611/20/01 14:25:31  5-MIN KSTC 202025Z AUTO 19012KT 10SM CLR 07/M03 A2976 1170 49 600 190/12 RMK AO2 PRESFR
14926KSTC STC20011120143009911/20/01 14:30:31  5-MIN KSTC 202030Z AUTO 19013KT 10SM CLR 07/M03 A2977 1170 49 600 190/13 RMK AO2
14926KSTC STC20011120143509911/20/01 14:35:31  5-MIN KSTC 202035Z AUTO 19013KT 10SM CLR 07/M03 A2977 1170 49 600 190/13 RMK AO2
14926KSTC STC20011120144009911/20/01 14:40:31  5-MIN KSTC 202040Z AUTO 20011KT 10SM CLR 07/M03 A2976 1170 49 600 200/11 RMK AO2
14926KSTC STC20011120144509911/20/01 14:45:31  5-MIN KSTC 202045Z AUTO 20011KT 10SM CLR 07/M02 A2976 1170 51 600 200/11 RMK AO2
14926KSTC STC20011120145012211/20/01 14:50:31  5-MIN KSTC 202050Z AUTO 20012KT 10SM CLR 07/M02 A2976 1180 51 600 200/12 RMK AO2 SLP096 T00721022 56050
14926KSTC STC20011120145509911/20/01 14:55:31  5-MIN KSTC 202055Z AUTO 20008KT 10SM CLR 08/M02 A2976 1180 49 600 200/08 RMK AO2
14926KSTC STC20011120150009911/20/01 15:00:31  5-MIN KSTC 202100Z AUTO 20012KT 10SM CLR 08/M02 A2976 1180 49 600 190/12 RMK AO2
14926KSTC STC20011120150509911/20/01 15:05:31  5-MIN KSTC 202105Z AUTO 20011KT 10SM CLR 08/M02 A2976 1180 49 600 200/11 RMK AO2
14926KSTC STC20011120151009911/20/01 15:10:31  5-MIN KSTC 202110Z AUTO 20012KT 10SM CLR 08/M02 A2976 1180 49 600 200/12 RMK AO2
14926KSTC STC20011120151509911/20/01 15:15:31  5-MIN KSTC 202115Z AUTO 20011KT 10SM CLR 08/M02 A2976 1180 49 600 200/11 RMK AO2
14926KSTC STC20011120152009911/20/01 15:20:31  5-MIN KSTC 202120Z AUTO 20010KT 10SM CLR 08/M02 A2975 1180 49 600 200/10 RMK AO2
14926KSTC STC20011120152509911/20/01 15:25:31  5-MIN KSTC 202125Z AUTO 21013KT 10SM CLR 08/M02 A2975 1190 51 600 210/13 RMK AO2
14926KSTC STC20011120153009911/20/01 15:30:31  5-MIN KSTC 202130Z AUTO 21011KT 10SM CLR 08/M02 A2975 1190 49 600 210/11 RMK AO2
14926KSTC STC20011120153509911/20/01 15:35:31  5-MIN KSTC 202135Z AUTO 22010KT 10SM CLR 08/M02 A2975 1180 49 600 210/10 RMK AO2
14926KSTC STC20011120154009911/20/01 15:40:31  5-MIN KSTC 202140Z AUTO 22010KT 10SM CLR 07/M02 A2976 1180 51 600 210/10 RMK AO2
14926KSTC STC20011120154509911/20/01 15:45:31  5-MIN KSTC 202145Z AUTO 22010KT 10SM CLR 08/M02 A2975 1180 49 600 220/10 RMK AO2
14926KSTC STC20011120155011611/20/01 15:50:31  5-MIN KSTC 202150Z AUTO 23011KT 10SM CLR 08/M02 A2975 1180 49 600 220/11 RMK AO2 SLP094 T00781022
14926KSTC STC20011120155509911/20/01 15:55:31  5-MIN KSTC 202155Z AUTO 22011KT 10SM CLR 07/M02 A2975 1180 51 600 220/11 RMK AO2
14926KSTC STC20011120160009911/20/01 16:00:31  5-MIN KSTC 202200Z AUTO 22011KT 10SM CLR 07/M02 A2975 1180 51 600 220/11 RMK AO2
14926KSTC STC20011120160509911/20/01 16:05:31  5-MIN KSTC 202205Z AUTO 22009KT 10SM CLR 07/M02 A2975 1180 51 600 220/09 RMK AO2
14926KSTC STC20011120161009911/20/01 16:10:31  5-MIN KSTC 202210Z AUTO 22009KT 10SM CLR 07/M02 A2975 1190 53 500 220/09 RMK AO2
14926KSTC STC20011120161509911/20/01 16:15:31  5-MIN KSTC 202215Z AUTO 22008KT 10SM CLR 07/M02 A2975 1190 53 500 220/08 RMK AO2
14926KSTC STC20011120162009911/20/01 16:20:31  5-MIN KSTC 202220Z AUTO 22007KT 10SM CLR 06/M02 A2975 1190 57 400 220/07 RMK AO2
14926KSTC STC20011120162509911/20/01 16:25:31  5-MIN KSTC 202225Z AUTO 22008KT 10SM CLR 06/M02 A2975 1190 57 400 220/08 RMK AO2
14926KSTC STC20011120163009911/20/01 16:30:31  5-MIN KSTC 202230Z AUTO 22007KT 10SM CLR 06/M02 A2975 1190 59 400 220/07 RMK AO2
14926KSTC STC20011120163509911/20/01 16:35:31  5-MIN KSTC 202235Z AUTO 22007KT 10SM CLR 06/M02 A2974 1190 59 400 220/07 RMK AO2
14926KSTC STC20011120164009911/20/01 16:40:31  5-MIN KSTC 202240Z AUTO 22006KT 10SM CLR 06/M02 A2974 1190 59 400 210/06 RMK AO2
14926KSTC STC20011120164509911/20/01 16:45:31  5-MIN KSTC 202245Z AUTO 22006KT 10SM CLR 05/M02 A2974 1190 62 300 210/06 RMK AO2
14926KSTC STC20011120165011611/20/01 16:50:31  5-MIN KSTC 202250Z AUTO 22005KT 10SM CLR 05/M02 A2974 1190 62 300 220/05 RMK AO2 SLP092 T00501017
14926KSTC STC20011120165509911/20/01 16:55:31  5-MIN KSTC 202255Z AUTO 21006KT 10SM CLR 05/M02 A2974 1190 62 300 210/06 RMK AO2
14926KSTC STC20011120170009911/20/01 17:00:31  5-MIN KSTC 202300Z AUTO 21005KT 10SM CLR 04/M02 A2974 1190 64 200 210/05 RMK AO2
14926KSTC STC20011120170509911/20/01 17:05:31  5-MIN KSTC 202305Z AUTO 20005KT 10SM CLR 04/M02 A2974 1200 64 200 200/05 RMK AO2
14926KSTC STC20011120171009911/20/01 17:10:31  5-MIN KSTC 202310Z AUTO 18003KT 10SM CLR 03/M02 A2974 1200 67 100 180/03 RMK AO2
14926KSTC STC20011120171509911/20/01 17:15:31  5-MIN KSTC 202315Z AUTO 18004KT 10SM CLR 04/M02 A2974 1200 67 200 170/04 RMK AO2
14926KSTC STC20011120172009911/20/01 17:20:31  5-MIN KSTC 202320Z AUTO 18004KT 10SM CLR 04/M02 A2974 1200 67 200 170/04 RMK AO2
14926KSTC STC20011120172509911/20/01 17:25:31  5-MIN KSTC 202325Z AUTO 18004KT 10SM CLR 04/M02 A2974 1200 67 200 180/04 RMK AO2
14926KSTC STC20011120173009911/20/01 17:30:31  5-MIN KSTC 202330Z AUTO 19004KT 10SM CLR 04/M02 A2974 1200 62 200 190/04 RMK AO2
14926KSTC STC20011120173509911/20/01 17:35:31  5-MIN KSTC 202335Z AUTO 19003KT 10SM CLR 04/M02 A2974 1200 64 200 190/03 RMK AO2
14926KSTC STC20011120174009911/20/01 17:40:31  5-MIN KSTC 202340Z AUTO 20003KT 10SM CLR 04/M02 A2974 1200 62 200 190/03 RMK AO2
14926KSTC STC20011120174509911/20/01 17:45:31  5-MIN KSTC 202345Z AUTO 20003KT 10SM CLR 04/M02 A2974 1200 62 200 190/03 RMK AO2
14926KSTC STC20011120175013411/20/01 17:50:31  5-MIN KSTC 202350Z AUTO 19003KT 10SM CLR 04/M02 A2973 1200 64 200 190/03 RMK AO2 SLP089 T00391022 10078 20033 56038
14926KSTC STC20011120175509911/20/01 17:55:31  5-MIN KSTC 202355Z AUTO 20003KT 10SM CLR 04/M02 A2974 1200 64 200 190/03 RMK AO2
14926KSTC STC20011120180009911/20/01 18:00:31  5-MIN KSTC 210000Z AUTO 00000KT 10SM CLR 03/M02 A2974 1200 67 100 000/00 RMK AO2
14926KSTC STC20011120180509711/20/01 18:05:31  5-MIN KSTC 210005Z AUTO 00000KT 10SM CLR 03/M02 A2974 1200 69 0 000/00 RMK AO2
14926KSTC STC20011120181009711/20/01 18:10:31  5-MIN KSTC 210010Z AUTO 00000KT 10SM CLR 03/M02 A2974 1200 69 0 000/00 RMK AO2
14926KSTC STC20011120181509711/20/01 18:15:31  5-MIN KSTC 210015Z AUTO 00000KT 10SM CLR 03/M02 A2974 1200 69 0 000/00 RMK AO2
14926KSTC STC20011120182009711/20/01 18:20:31  5-MIN KSTC 210020Z AUTO 00000KT 10SM CLR 02/M02 A2973 1200 72 0 000/00 RMK AO2
14926KSTC STC20011120182509711/20/01 18:25:31  5-MIN KSTC 210025Z AUTO 00000KT 10SM CLR 03/M02 A2973 1200 69 0 000/00 RMK AO2
14926KSTC STC20011120183009711/20/01 18:30:31  5-MIN KSTC 210030Z AUTO 19003KT 10SM CLR 03/M02 A2973 1200 69 0 190/03 RMK AO2
14926KSTC STC20011120183509711/20/01 18:35:31  5-MIN KSTC 210035Z AUTO 00000KT 10SM CLR 02/M02 A2974 1200 72 0 000/00 RMK AO2
14926KSTC STC20011120184010011/20/01 18:40:31  5-MIN KSTC 210040Z AUTO 00000KT 10SM CLR 01/M02 A2973 1200 78 -100 000/00 RMK AO2
14926KSTC STC20011120184510011/20/01 18:45:31  5-MIN KSTC 210045Z AUTO 00000KT 10SM CLR 01/M02 A2973 1200 78 -100 000/00 RMK AO2
14926KSTC STC20011120185011711/20/01 18:50:31  5-MIN KSTC 210050Z AUTO 21003KT 10SM CLR 01/M02 A2973 1210 78 -100 210/03 RMK AO2 SLP089 T00111022
14926KSTC STC20011120185510011/20/01 18:55:31  5-MIN KSTC 210055Z AUTO 00000KT 10SM CLR 01/M02 A2973 1200 82 -200 000/00 RMK AO2
14926KSTC STC20011120190010011/20/01 19:00:31  5-MIN KSTC 210100Z AUTO 00000KT 10SM CLR 01/M02 A2973 1210 82 -200 000/00 RMK AO2
14926KSTC STC20011120190510011/20/01 19:05:31  5-MIN KSTC 210105Z AUTO 00000KT 10SM CLR 01/M02 A2972 1210 82 -200 000/00 RMK AO2
14926KSTC STC20011120191010011/20/01 19:10:31  5-MIN KSTC 210110Z AUTO 00000KT 10SM CLR 01/M02 A2972 1210 82 -200 000/00 RMK AO2
14926KSTC STC20011120191510011/20/01 19:15:31  5-MIN KSTC 210115Z AUTO 21003KT 10SM CLR 01/M02 A2972 1210 82 -200 210/03 RMK AO2
14926KSTC STC20011120192010011/20/01 19:20:31  5-MIN KSTC 210120Z AUTO 21003KT 10SM CLR 01/M02 A2973 1210 82 -200 210/03 RMK AO2
14926KSTC STC20011120192510011/20/01 19:25:31  5-MIN KSTC 210125Z AUTO 22003KT 10SM CLR 01/M02 A2973 1210 78 -100 210/03 RMK AO2
14926KSTC STC20011120193010011/20/01 19:30:31  5-MIN KSTC 210130Z AUTO 00000KT 10SM CLR 01/M02 A2973 1210 78 -100 000/00 RMK AO2
14926KSTC STC20011120193510011/20/01 19:35:31  5-MIN KSTC 210135Z AUTO 00000KT 10SM CLR 01/M02 A2973 1210 82 -200 000/00 RMK AO2
14926KSTC STC20011120194010011/20/01 19:40:31  5-MIN KSTC 210140Z AUTO 00000KT 10SM CLR 00/M03 A2973 1210 81 -200 000/00 RMK AO2
14926KSTC STC20011120194510011/20/01 19:45:31  5-MIN KSTC 210145Z AUTO 00000KT 10SM CLR 01/M03 A2973 1210 78 -200 000/00 RMK AO2
14926KSTC STC20011120195011711/20/01 19:50:31  5-MIN KSTC 210150Z AUTO 00000KT 10SM CLR 00/M03 A2973 1210 81 -200 000/00 RMK AO2 SLP088 T00001028
14926KSTC STC20011120195510011/20/01 19:55:31  5-MIN KSTC 210155Z AUTO 00000KT 10SM CLR 01/M02 A2972 1210 82 -200 000/00 RMK AO2
14926KSTC STC20011120200010011/20/01 20:00:31  5-MIN KSTC 210200Z AUTO 00000KT 10SM CLR 00/M03 A2972 1210 81 -200 000/00 RMK AO2
14926KSTC STC20011120200510011/20/01 20:05:31  5-MIN KSTC 210205Z AUTO 00000KT 10SM CLR 01/M02 A2972 1210 82 -200 000/00 RMK AO2
14926KSTC STC20011120201010011/20/01 20:10:31  5-MIN KSTC 210210Z AUTO 00000KT 10SM CLR 00/M03 A2972 1210 81 -200 000/00 RMK AO2
14926KSTC STC20011120201510111/20/01 20:15:31  5-MIN KSTC 210215Z AUTO 00000KT 10SM CLR M01/M03 A2972 1210 88 -400 000/00 RMK AO2
14926KSTC STC20011120202010111/20/01 20:20:31  5-MIN KSTC 210220Z AUTO 00000KT 10SM CLR M01/M03 A2972 1210 88 -400 000/00 RMK AO2
14926KSTC STC20011120202510011/20/01 20:25:31  5-MIN KSTC 210225Z AUTO 00000KT 10SM CLR 00/M03 A2972 1210 81 -200 000/00 RMK AO2
14926KSTC STC20011120203010111/20/01 20:30:31  5-MIN KSTC 210230Z AUTO 00000KT 10SM CLR M01/M03 A2972 1210 88 -400 000/00 RMK AO2
14926KSTC STC20011120203510111/20/01 20:35:31  5-MIN KSTC 210235Z AUTO 00000KT 10SM CLR M01/M03 A2972 1210 88 -400 000/00 RMK AO2
14926KSTC STC20011120204010111/20/01 20:40:31  5-MIN KSTC 210240Z AUTO 00000KT 10SM CLR M01/M03 A2972 1210 88 -400 000/00 RMK AO2
14926KSTC STC20011120204510111/20/01 20:45:31  5-MIN KSTC 210245Z AUTO 00000KT 10SM CLR M01/M03 A2972 1220 88 -400 000/00 RMK AO2
14926KSTC STC20011120205012411/20/01 20:50:31  5-MIN KSTC 210250Z AUTO 00000KT 10SM CLR M01/M03 A2972 1210 88 -400 000/00 RMK AO2 SLP084 T10111028 58008
14926KSTC STC20011120205510111/20/01 20:55:31  5-MIN KSTC 210255Z AUTO 00000KT 10SM CLR M01/M03 A2972 1210 88 -400 000/00 RMK AO2
14926KSTC STC20011120210010111/20/01 21:00:31  5-MIN KSTC 210300Z AUTO 00000KT 10SM CLR M02/M03 A2972 1220 92 -400 000/00 RMK AO2
14926KSTC STC20011120210510111/20/01 21:05:31  5-MIN KSTC 210305Z AUTO 00000KT 10SM CLR M02/M03 A2972 1220 92 -400 000/00 RMK AO2
14926KSTC STC20011120211010111/20/01 21:10:31  5-MIN KSTC 210310Z AUTO 00000KT 10SM CLR M01/M02 A2972 1210 92 -400 000/00 RMK AO2
14926KSTC STC20011120211510111/20/01 21:15:31  5-MIN KSTC 210315Z AUTO 00000KT 10SM CLR M01/M02 A2972 1220 88 -300 000/00 RMK AO2
14926KSTC STC20011120212010111/20/01 21:20:31  5-MIN KSTC 210320Z AUTO 00000KT 10SM CLR M01/M03 A2971 1220 85 -300 000/00 RMK AO2
14926KSTC STC20011120212510111/20/01 21:25:31  5-MIN KSTC 210325Z AUTO 00000KT 10SM CLR M01/M03 A2971 1220 88 -400 000/00 RMK AO2
14926KSTC STC20011120213010111/20/01 21:30:31  5-MIN KSTC 210330Z AUTO 00000KT 10SM CLR M01/M03 A2971 1220 85 -300 000/00 RMK AO2
14926KSTC STC20011120213510111/20/01 21:35:31  5-MIN KSTC 210335Z AUTO 00000KT 10SM CLR M01/M03 A2971 1220 88 -400 000/00 RMK AO2
14926KSTC STC20011120214010111/20/01 21:40:31  5-MIN KSTC 210340Z AUTO 00000KT 10SM CLR M01/M03 A2971 1220 88 -400 000/00 RMK AO2
14926KSTC STC20011120214510111/20/01 21:45:31  5-MIN KSTC 210345Z AUTO 00000KT 10SM CLR M01/M03 A2971 1220 88 -400 000/00 RMK AO2
14926KSTC STC20011120215011811/20/01 21:50:31  5-MIN KSTC 210350Z AUTO 00000KT 10SM CLR M01/M03 A2971 1220 88 -400 000/00 RMK AO2 SLP081 T10111028
14926KSTC STC20011120215510111/20/01 21:55:31  5-MIN KSTC 210355Z AUTO 00000KT 10SM CLR M01/M03 A2971 1220 88 -400 000/00 RMK AO2
14926KSTC STC20011120220010111/20/01 22:00:31  5-MIN KSTC 210400Z AUTO 00000KT 10SM CLR M01/M03 A2971 1220 88 -400 000/00 RMK AO2
14926KSTC STC20011120220510111/20/01 22:05:31  5-MIN KSTC 210405Z AUTO 20003KT 10SM CLR M01/M02 A2971 1220 92 -400 200/03 RMK AO2
14926KSTC STC20011120221010111/20/01 22:10:31  5-MIN KSTC 210410Z AUTO 20003KT 10SM CLR M01/M02 A2971 1220 92 -400 200/03 RMK AO2
14926KSTC STC20011120221510111/20/01 22:15:31  5-MIN KSTC 210415Z AUTO 20003KT 10SM CLR M01/M03 A2970 1230 88 -400 190/03 RMK AO2
14926KSTC STC20011120222010111/20/01 22:20:31  5-MIN KSTC 210420Z AUTO 00000KT 10SM CLR M02/M02 A2970 1230 96 -400 000/00 RMK AO2
14926KSTC STC20011120222510111/20/01 22:25:31  5-MIN KSTC 210425Z AUTO 22003KT 10SM CLR M02/M02 A2970 1230 96 -400 220/03 RMK AO2
14926KSTC STC20011120223010111/20/01 22:30:31  5-MIN KSTC 210430Z AUTO 24003KT 10SM CLR M01/M03 A2970 1230 88 -400 240/03 RMK AO2
14926KSTC STC20011120223510111/20/01 22:35:31  5-MIN KSTC 210435Z AUTO 00000KT 10SM CLR M01/M03 A2970 1230 88 -400 000/00 RMK AO2
14926KSTC STC20011120224010111/20/01 22:40:31  5-MIN KSTC 210440Z AUTO 00000KT 10SM CLR M01/M03 A2970 1230 88 -400 000/00 RMK AO2
14926KSTC STC20011120224510111/20/01 22:45:31  5-MIN KSTC 210445Z AUTO 00000KT 10SM CLR M01/M03 A2970 1230 85 -300 000/00 RMK AO2
14926KSTC STC20011120225011811/20/01 22:50:31  5-MIN KSTC 210450Z AUTO 00000KT 10SM CLR M01/M03 A2970 1230 85 -300 000/00 RMK AO2 SLP077 T10061028
14926KSTC STC20011120225510111/20/01 22:55:31  5-MIN KSTC 210455Z AUTO 00000KT 10SM CLR M01/M03 A2970 1230 85 -300 000/00 RMK AO2
14926KSTC STC20011120230010111/20/01 23:00:31  5-MIN KSTC 210500Z AUTO 00000KT 10SM CLR M01/M03 A2971 1230 85 -300 000/00 RMK AO2
14926KSTC STC20011120230510111/20/01 23:05:31  5-MIN KSTC 210505Z AUTO 00000KT 10SM CLR M01/M03 A2970 1230 88 -400 000/00 RMK AO2
14926KSTC STC20011120231010111/20/01 23:10:31  5-MIN KSTC 210510Z AUTO 00000KT 10SM CLR M01/M03 A2970 1230 88 -400 000/00 RMK AO2
14926KSTC STC20011120231510111/20/01 23:15:31  5-MIN KSTC 210515Z AUTO 00000KT 10SM CLR M01/M03 A2971 1230 85 -300 000/00 RMK AO2
14926KSTC STC20011120232010111/20/01 23:20:31  5-MIN KSTC 210520Z AUTO 00000KT 10SM CLR M01/M03 A2970 1230 85 -300 000/00 RMK AO2
14926KSTC STC20011120232510111/20/01 23:25:31  5-MIN KSTC 210525Z AUTO 00000KT 10SM CLR M01/M03 A2970 1230 88 -400 000/00 RMK AO2
14926KSTC STC20011120233010111/20/01 23:30:31  5-MIN KSTC 210530Z AUTO 00000KT 10SM CLR M01/M03 A2970 1230 88 -400 000/00 RMK AO2
14926KSTC STC20011120233510111/20/01 23:35:31  5-MIN KSTC 210535Z AUTO 00000KT 10SM CLR M01/M03 A2970 1230 88 -400 000/00 RMK AO2
14926KSTC STC20011120234010111/20/01 23:40:31  5-MIN KSTC 210540Z AUTO 00000KT 10SM CLR M01/M03 A2970 1230 88 -400 000/00 RMK AO2
14926KSTC STC20011120234510111/20/01 23:45:31  5-MIN KSTC 210545Z AUTO 00000KT 10SM CLR M02/M03 A2970 1230 88 -400 000/00 RMK AO2
14926KSTC STC20011120235014611/20/01 23:50:31  5-MIN KSTC 210550Z AUTO 00000KT 10SM CLR M01/M03 A2970 1230 88 -400 000/00 RMK AO2 SLP077 T10111028 10039 21017 400781067 58005
14926KSTC STC20011120235510111/20/01 23:55:31  5-MIN KSTC 210555Z AUTO 00000KT 10SM CLR M02/M03 A2971 1230 92 -400 000/00 RMK AO2
14926KSTC STC20011121000010111/21/01 00:00:31  5-MIN KSTC 210600Z AUTO 00000KT 10SM CLR M02/M03 A2971 1220 88 -400 000/00 RMK AO2
14926KSTC STC20011121000510111/21/01 00:05:31  5-MIN KSTC 210605Z AUTO 00000KT 10SM CLR M02/M03 A2970 1230 88 -400 000/00 RMK AO2
14926KSTC STC20011121001010111/21/01 00:10:31  5-MIN KSTC 210610Z AUTO 00000KT 10SM CLR M02/M03 A2970 1230 88 -400 000/00 RMK AO2
14926KSTC STC20011121001510111/21/01 00:15:31  5-MIN KSTC 210615Z AUTO 17003KT 10SM CLR M02/M03 A2970 1230 88 -400 170/03 RMK AO2
14926KSTC STC20011121002010111/21/01 00:20:31  5-MIN KSTC 210620Z AUTO 17003KT 10SM CLR M01/M03 A2970 1230 88 -300 170/03 RMK AO2
14926KSTC STC20011121002510111/21/01 00:25:31  5-MIN KSTC 210625Z AUTO 19003KT 10SM CLR M02/M03 A2970 1230 88 -400 190/03 RMK AO2
14926KSTC STC20011121003010111/21/01 00:30:31  5-MIN KSTC 210630Z AUTO 18004KT 10SM CLR M02/M03 A2969 1240 88 -400 180/04 RMK AO2
14926KSTC STC20011121003510111/21/01 00:35:31  5-MIN KSTC 210635Z AUTO 19004KT 10SM CLR M01/M03 A2969 1240 85 -300 180/04 RMK AO2
14926KSTC STC20011121004010111/21/01 00:40:31  5-MIN KSTC 210640Z AUTO 19003KT 10SM CLR M02/M03 A2969 1240 88 -400 190/03 RMK AO2
14926KSTC STC20011121004510111/21/01 00:45:31  5-MIN KSTC 210645Z AUTO 00000KT 10SM CLR M02/M04 A2969 1240 88 -500 000/00 RMK AO2
14926KSTC STC20011121005011811/21/01 00:50:31  5-MIN KSTC 210650Z AUTO 00000KT 10SM CLR M03/M04 A2969 1240 88 -500 000/00 RMK AO2 SLP071 T10281044
14926KSTC STC20011121005510111/21/01 00:55:31  5-MIN KSTC 210655Z AUTO 00000KT 10SM CLR M03/M04 A2969 1240 92 -500 000/00 RMK AO2
14926KSTC STC20011121010010111/21/01 01:00:31  5-MIN KSTC 210700Z AUTO 00000KT 10SM CLR M02/M04 A2969 1240 88 -500 000/00 RMK AO2
14926KSTC STC20011121010510111/21/01 01:05:31  5-MIN KSTC 210705Z AUTO 00000KT 10SM CLR M03/M04 A2969 1240 92 -500 000/00 RMK AO2
14926KSTC STC20011121011010111/21/01 01:10:31  5-MIN KSTC 210710Z AUTO 00000KT 10SM CLR M02/M04 A2969 1240 88 -500 000/00 RMK AO2
14926KSTC STC20011121011510111/21/01 01:15:31  5-MIN KSTC 210715Z AUTO 00000KT 10SM CLR M02/M03 A2968 1250 92 -500 000/00 RMK AO2
14926KSTC STC20011121012010111/21/01 01:20:31  5-MIN KSTC 210720Z AUTO 00000KT 10SM CLR M02/M03 A2968 1250 88 -400 000/00 RMK AO2
14926KSTC STC20011121012510111/21/01 01:25:31  5-MIN KSTC 210725Z AUTO 00000KT 10SM CLR M02/M03 A2968 1250 92 -500 000/00 RMK AO2
14926KSTC STC20011121013010111/21/01 01:30:31  5-MIN KSTC 210730Z AUTO 00000KT 10SM CLR M02/M03 A2968 1250 92 -500 000/00 RMK AO2
14926KSTC STC20011121013510111/21/01 01:35:31  5-MIN KSTC 210735Z AUTO 00000KT 10SM CLR M02/M03 A2968 1250 92 -500 000/00 RMK AO2
14926KSTC STC20011121014010111/21/01 01:40:31  5-MIN KSTC 210740Z AUTO 00000KT 10SM CLR M03/M03 A2968 1250 96 -500 000/00 RMK AO2
14926KSTC STC20011121014510111/21/01 01:45:31  5-MIN KSTC 210745Z AUTO 00000KT 10SM CLR M03/M04 A2968 1250 92 -500 000/00 RMK AO2
14926KSTC STC20011121015011811/21/01 01:50:31  5-MIN KSTC 210750Z AUTO 00000KT 10SM CLR M03/M04 A2968 1250 92 -500 000/00 RMK AO2 SLP069 T10281039
14926KSTC STC20011121015510111/21/01 01:55:31  5-MIN KSTC 210755Z AUTO 00000KT 10SM CLR M02/M03 A2968 1250 92 -500 000/00 RMK AO2
14926KSTC STC20011121020010111/21/01 02:00:31  5-MIN KSTC 210800Z AUTO 00000KT 10SM CLR M03/M03 A2968 1250 96 -500 000/00 RMK AO2
14926KSTC STC20011121020510111/21/01 02:05:31  5-MIN KSTC 210805Z AUTO 00000KT 10SM CLR M02/M03 A2968 1250 92 -500 000/00 RMK AO2
14926KSTC STC20011121021010111/21/01 02:10:31  5-MIN KSTC 210810Z AUTO 00000KT 10SM CLR M03/M03 A2968 1250 96 -500 000/00 RMK AO2
14926KSTC STC20011121021510111/21/01 02:15:31  5-MIN KSTC 210815Z AUTO 00000KT 10SM CLR M02/M03 A2968 1250 92 -500 000/00 RMK AO2
14926KSTC STC20011121022010111/21/01 02:20:31  5-MIN KSTC 210820Z AUTO 00000KT 10SM CLR M02/M03 A2968 1250 92 -500 000/00 RMK AO2
14926KSTC STC20011121022510111/21/01 02:25:31  5-MIN KSTC 210825Z AUTO 00000KT 10SM CLR M03/M03 A2968 1250 96 -500 000/00 RMK AO2
14926KSTC STC20011121023010111/21/01 02:30:31  5-MIN KSTC 210830Z AUTO 00000KT 10SM CLR M03/M04 A2969 1240 92 -500 000/00 RMK AO2
14926KSTC STC20011121023510111/21/01 02:35:31  5-MIN KSTC 210835Z AUTO 00000KT 10SM CLR M03/M04 A2969 1240 92 -500 000/00 RMK AO2
14926KSTC STC20011121024010111/21/01 02:40:31  5-MIN KSTC 210840Z AUTO 00000KT 10SM CLR M03/M03 A2969 1240 96 -500 000/00 RMK AO2
14926KSTC STC20011121024510111/21/01 02:45:31  5-MIN KSTC 210845Z AUTO 00000KT 10SM CLR M02/M03 A2969 1240 92 -500 000/00 RMK AO2
14926KSTC STC20011121025012411/21/01 02:50:31  5-MIN KSTC 210850Z AUTO 00000KT 10SM CLR M02/M03 A2969 1240 92 -500 000/00 RMK AO2 SLP072 T10221033 56004
14926KSTC STC20011121025510111/21/01 02:55:31  5-MIN KSTC 210855Z AUTO 00000KT 10SM CLR M03/M04 A2969 1240 92 -600 000/00 RMK AO2
14926KSTC STC20011121030010111/21/01 03:00:31  5-MIN KSTC 210900Z AUTO 00000KT 10SM CLR M03/M04 A2969 1240 92 -500 000/00 RMK AO2
14926KSTC STC20011121030510111/21/01 03:05:31  5-MIN KSTC 210905Z AUTO 00000KT 10SM CLR M02/M03 A2969 1240 92 -500 000/00 RMK AO2
14926KSTC STC20011121031010111/21/01 03:10:31  5-MIN KSTC 210910Z AUTO 00000KT 10SM CLR M03/M03 A2969 1240 96 -500 000/00 RMK AO2
14926KSTC STC20011121031510111/21/01 03:15:31  5-MIN KSTC 210915Z AUTO 00000KT 10SM CLR M03/M04 A2969 1240 92 -500 000/00 RMK AO2
14926KSTC STC20011121032010111/21/01 03:20:31  5-MIN KSTC 210920Z AUTO 00000KT 10SM CLR M03/M04 A2969 1240 92 -500 000/00 RMK AO2
14926KSTC STC20011121032510111/21/01 03:25:31  5-MIN KSTC 210925Z AUTO 00000KT 10SM CLR M03/M04 A2969 1240 92 -500 000/00 RMK AO2
14926KSTC STC20011121033010111/21/01 03:30:31  5-MIN KSTC 210930Z AUTO 00000KT 10SM CLR M03/M03 A2969 1240 96 -500 000/00 RMK AO2
14926KSTC STC20011121033510111/21/01 03:35:31  5-MIN KSTC 210935Z AUTO 20003KT 10SM CLR M03/M03 A2968 1250 96 -500 200/03 RMK AO2
14926KSTC STC20011121034010111/21/01 03:40:31  5-MIN KSTC 210940Z AUTO 20004KT 10SM CLR M03/M04 A2968 1250 92 -500 190/04 RMK AO2
14926KSTC STC20011121034510111/21/01 03:45:31  5-MIN KSTC 210945Z AUTO 19004KT 10SM CLR M03/M03 A2968 1250 96 -500 190/04 RMK AO2
14926KSTC STC20011121035011811/21/01 03:50:31  5-MIN KSTC 210950Z AUTO 19004KT 10SM CLR M03/M03 A2968 1250 96 -500 190/04 RMK AO2 SLP069 T10281033
14926KSTC STC20011121035510111/21/01 03:55:31  5-MIN KSTC 210955Z AUTO 20004KT 10SM CLR M02/M03 A2968 1250 92 -400 190/04 RMK AO2
14926KSTC STC20011121040010111/21/01 04:00:31  5-MIN KSTC 211000Z AUTO 19004KT 10SM CLR M01/M03 A2968 1250 88 -300 190/04 RMK AO2
14926KSTC STC20011121040510111/21/01 04:05:31  5-MIN KSTC 211005Z AUTO 19004KT 10SM CLR M01/M03 A2968 1250 88 -300 190/04 RMK AO2
14926KSTC STC20011121041010111/21/01 04:10:31  5-MIN KSTC 211010Z AUTO 00000KT 10SM CLR M01/M03 A2968 1250 88 -300 000/00 RMK AO2
14926KSTC STC20011121041510111/21/01 04:15:31  5-MIN KSTC 211015Z AUTO 00000KT 10SM CLR M02/M03 A2968 1250 92 -500 000/00 RMK AO2
14926KSTC STC20011121042010111/21/01 04:20:31  5-MIN KSTC 211020Z AUTO 00000KT 10SM CLR M03/M04 A2968 1250 92 -500 000/00 RMK AO2
14926KSTC STC20011121042510111/21/01 04:25:31  5-MIN KSTC 211025Z AUTO 00000KT 10SM CLR M02/M04 A2968 1250 88 -500 000/00 RMK AO2
14926KSTC STC20011121043010111/21/01 04:30:31  5-MIN KSTC 211030Z AUTO 00000KT 10SM CLR M02/M03 A2968 1250 92 -500 000/00 RMK AO2
14926KSTC STC20011121043510111/21/01 04:35:31  5-MIN KSTC 211035Z AUTO 00000KT 10SM CLR M02/M03 A2969 1240 92 -500 000/00 RMK AO2
14926KSTC STC20011121044010111/21/01 04:40:31  5-MIN KSTC 211040Z AUTO 00000KT 10SM CLR M02/M03 A2968 1240 92 -500 000/00 RMK AO2
14926KSTC STC20011121044510111/21/01 04:45:31  5-MIN KSTC 211045Z AUTO 00000KT 10SM CLR M02/M03 A2968 1250 92 -500 000/00 RMK AO2
14926KSTC STC20011121045011811/21/01 04:50:31  5-MIN KSTC 211050Z AUTO 00000KT 10SM CLR M03/M04 A2969 1240 92 -500 000/00 RMK AO2 SLP071 T10281039
14926KSTC STC20011121045510111/21/01 04:55:31  5-MIN KSTC 211055Z AUTO 00000KT 10SM CLR M03/M04 A2968 1250 92 -500 000/00 RMK AO2
14926KSTC STC20011121050010111/21/01 05:00:31  5-MIN KSTC 211100Z AUTO 00000KT 10SM CLR M03/M04 A2969 1240 92 -500 000/00 RMK AO2
14926KSTC STC20011121050510111/21/01 05:05:31  5-MIN KSTC 211105Z AUTO 15003KT 10SM CLR M03/M04 A2968 1250 92 -500 150/03 RMK AO2
14926KSTC STC20011121051010111/21/01 05:10:31  5-MIN KSTC 211110Z AUTO 00000KT 10SM CLR M03/M04 A2968 1250 92 -500 000/00 RMK AO2
14926KSTC STC20011121051510111/21/01 05:15:31  5-MIN KSTC 211115Z AUTO 00000KT 10SM CLR M03/M04 A2968 1250 96 -600 000/00 RMK AO2
14926KSTC STC20011121052010111/21/01 05:20:31  5-MIN KSTC 211120Z AUTO 00000KT 10SM CLR M04/M04 A2969 1240 96 -700 000/00 RMK AO2
14926KSTC STC20011121052510111/21/01 05:25:31  5-MIN KSTC 211125Z AUTO 00000KT 10SM CLR M04/M04 A2969 1240 96 -700 000/00 RMK AO2
14926KSTC STC20011121053010111/21/01 05:30:31  5-MIN KSTC 211130Z AUTO 00000KT 10SM CLR M03/M04 A2968 1250 96 -600 000/00 RMK AO2
14926KSTC STC20011121053510111/21/01 05:35:31  5-MIN KSTC 211135Z AUTO 00000KT 10SM CLR M03/M04 A2968 1250 96 -600 000/00 RMK AO2
14926KSTC STC20011121054010111/21/01 05:40:31  5-MIN KSTC 211140Z AUTO 00000KT 10SM CLR M03/M04 A2969 1240 96 -600 000/00 RMK AO2
14926KSTC STC20011121054510111/21/01 05:45:31  5-MIN KSTC 211145Z AUTO 00000KT 10SM CLR M03/M04 A2968 1250 96 -600 000/00 RMK AO2
14926KSTC STC20011121055013611/21/01 05:50:31  5-MIN KSTC 211150Z AUTO 00000KT 10SM CLR M04/M04 A2968 1250 96 -700 000/00 RMK AO2 SLP071 T10391044 11011 21039 55004
14926KSTC STC20011121055510111/21/01 05:55:31  5-MIN KSTC 211155Z AUTO 15003KT 10SM CLR M04/M04 A2968 1250 96 -700 140/03 RMK AO2
14926KSTC STC20011121060010111/21/01 06:00:31  5-MIN KSTC 211200Z AUTO 00000KT 10SM CLR M03/M04 A2968 1250 92 -600 000/00 RMK AO2
14926KSTC STC20011121060510111/21/01 06:05:31  5-MIN KSTC 211205Z AUTO 00000KT 10SM CLR M04/M04 A2968 1250 96 -700 000/00 RMK AO2
14926KSTC STC20011121061010111/21/01 06:10:31  5-MIN KSTC 211210Z AUTO 00000KT 10SM CLR M04/M04 A2968 1250 96 -700 000/00 RMK AO2
14926KSTC STC20011121061510111/21/01 06:15:31  5-MIN KSTC 211215Z AUTO 00000KT 10SM CLR M03/M03 A2968 1250 96 -500 000/00 RMK AO2
14926KSTC STC20011121062010111/21/01 06:20:31  5-MIN KSTC 211220Z AUTO 17003KT 10SM CLR M03/M04 A2968 1250 96 -600 170/03 RMK AO2
14926KSTC STC20011121062510111/21/01 06:25:31  5-MIN KSTC 211225Z AUTO 17004KT 10SM CLR M03/M04 A2968 1250 96 -600 160/04 RMK AO2
14926KSTC STC20011121063010111/21/01 06:30:31  5-MIN KSTC 211230Z AUTO 16003KT 10SM CLR M03/M04 A2968 1250 96 -600 150/03 RMK AO2
14926KSTC STC20011121063510111/21/01 06:35:31  5-MIN KSTC 211235Z AUTO 16003KT 10SM CLR M03/M04 A2968 1250 96 -600 150/03 RMK AO2
14926KSTC STC20011121064010111/21/01 06:40:31  5-MIN KSTC 211240Z AUTO 00000KT 10SM CLR M03/M04 A2968 1250 96 -600 000/00 RMK AO2
14926KSTC STC20011121064510111/21/01 06:45:31  5-MIN KSTC 211245Z AUTO 00000KT 10SM CLR M03/M04 A2968 1250 96 -600 000/00 RMK AO2
14926KSTC STC20011121065011811/21/01 06:50:31  5-MIN KSTC 211250Z AUTO 00000KT 10SM CLR M03/M03 A2968 1250 96 -500 000/00 RMK AO2 SLP072 T10281033
14926KSTC STC20011121065510111/21/01 06:55:31  5-MIN KSTC 211255Z AUTO 00000KT 10SM CLR M03/M03 A2968 1240 96 -500 000/00 RMK AO2
14926KSTC STC20011121070010111/21/01 07:00:31  5-MIN KSTC 211300Z AUTO 00000KT 10SM CLR M03/M04 A2968 1250 92 -500 000/00 RMK AO2
14926KSTC STC20011121070510111/21/01 07:05:31  5-MIN KSTC 211305Z AUTO 00000KT 10SM CLR M03/M04 A2968 1250 92 -500 000/00 RMK AO2
14926KSTC STC20011121071010111/21/01 07:10:31  5-MIN KSTC 211310Z AUTO 00000KT 10SM CLR M03/M04 A2968 1250 92 -500 000/00 RMK AO2
14926KSTC STC20011121071510111/21/01 07:15:31  5-MIN KSTC 211315Z AUTO 20003KT 10SM CLR M03/M04 A2968 1250 92 -500 190/03 RMK AO2
14926KSTC STC20011121072010111/21/01 07:20:31  5-MIN KSTC 211320Z AUTO 21003KT 10SM CLR M02/M03 A2968 1250 92 -500 200/03 RMK AO2
14926KSTC STC20011121072510111/21/01 07:25:31  5-MIN KSTC 211325Z AUTO 00000KT 10SM CLR M02/M03 A2968 1250 92 -500 000/00 RMK AO2
14926KSTC STC20011121073010111/21/01 07:30:31  5-MIN KSTC 211330Z AUTO 00000KT 10SM CLR M03/M04 A2968 1250 96 -600 000/00 RMK AO2
14926KSTC STC20011121073510111/21/01 07:35:31  5-MIN KSTC 211335Z AUTO 19003KT 10SM CLR M03/M04 A2968 1250 92 -500 190/03 RMK AO2
14926KSTC STC20011121074010111/21/01 07:40:31  5-MIN KSTC 211340Z AUTO 19003KT 10SM CLR M03/M04 A2968 1250 92 -500 190/03 RMK AO2
14926KSTC STC20011121074510111/21/01 07:45:31  5-MIN KSTC 211345Z AUTO 20003KT 10SM CLR M03/M04 A2968 1250 92 -500 190/03 RMK AO2
14926KSTC STC20011121075011811/21/01 07:50:31  5-MIN KSTC 211350Z AUTO 19003KT 10SM CLR M02/M03 A2968 1250 92 -500 190/03 RMK AO2 SLP071 T10221033
14926KSTC STC20011121075510111/21/01 07:55:31  5-MIN KSTC 211355Z AUTO 00000KT 10SM CLR M02/M03 A2968 1250 96 -500 000/00 RMK AO2
14926KSTC STC20011121080010111/21/01 08:00:31  5-MIN KSTC 211400Z AUTO 00000KT 10SM CLR M01/M02 A2968 1250 92 -300 000/00 RMK AO2
14926KSTC STC20011121080510111/21/01 08:05:31  5-MIN KSTC 211405Z AUTO 20003KT 10SM CLR M02/M03 A2968 1250 92 -400 200/03 RMK AO2
14926KSTC STC20011121081010111/21/01 08:10:31  5-MIN KSTC 211410Z AUTO 19003KT 10SM CLR M02/M03 A2968 1250 92 -400 190/03 RMK AO2
14926KSTC STC20011121081510111/21/01 08:15:31  5-MIN KSTC 211415Z AUTO 19003KT 10SM CLR M01/M02 A2968 1250 92 -300 190/03 RMK AO2
14926KSTC STC20011121082010111/21/01 08:20:31  5-MIN KSTC 211420Z AUTO 00000KT 10SM CLR M01/M01 A2968 1250 96 -300 000/00 RMK AO2
14926KSTC STC20011121082510011/21/01 08:25:31  5-MIN KSTC 211425Z AUTO 20004KT 10SM CLR 00/M01 A2969 1240 92 -200 190/04 RMK AO2
14926KSTC STC20011121083010011/21/01 08:30:31  5-MIN KSTC 211430Z AUTO 20003KT 10SM CLR 01/M01 A2969 1240 89 -100 200/03 RMK AO2
14926KSTC STC20011121083510011/21/01 08:35:31  5-MIN KSTC 211435Z AUTO 20003KT 10SM CLR 01/M01 A2969 1240 89 -100 200/03 RMK AO2
14926KSTC STC20011121084010011/21/01 08:40:31  5-MIN KSTC 211440Z AUTO 19003KT 10SM CLR 01/M01 A2969 1240 89 -100 190/03 RMK AO2
14926KSTC STC20011121084509711/21/01 08:45:31  5-MIN KSTC 211445Z AUTO 19003KT 10SM CLR 02/M01 A2969 1240 85 0 190/03 RMK AO2
14926KSTC STC20011121085012011/21/01 08:50:31  5-MIN KSTC 211450Z AUTO 19003KT 10SM CLR 02/M01 A2969 1240 85 0 190/03 RMK AO2 SLP072 T00171006 56003
14926KSTC STC20011121085509711/21/01 08:55:31  5-MIN KSTC 211455Z AUTO 19003KT 10SM CLR 02/M01 A2969 1240 82 0 190/03 RMK AO2
14926KSTC STC20011121090009711/21/01 09:00:31  5-MIN KSTC 211500Z AUTO 19003KT 10SM CLR 02/M01 A2969 1240 82 0 190/03 RMK AO2
14926KSTC STC20011121091009811/21/01 09:10:31  5-MIN KSTC 211510Z AUTO 19003KT 10SM CLR 03/00 A2969 1240 82 100 190/03 RMK AO2
14926KSTC STC20011121091509811/21/01 09:15:31  5-MIN KSTC 211515Z AUTO 20003KT 10SM CLR 03/00 A2969 1240 82 100 190/03 RMK AO2
14926KSTC STC20011121092009811/21/01 09:20:31  5-MIN KSTC 211520Z AUTO 20004KT 10SM CLR 03/00 A2969 1240 79 200 200/04 RMK AO2
14926KSTC STC20011121092509811/21/01 09:25:31  5-MIN KSTC 211525Z AUTO 19003KT 10SM CLR 03/00 A2969 1240 79 200 190/03 RMK AO2
14926KSTC STC20011121093009811/21/01 09:30:31  5-MIN KSTC 211530Z AUTO 20004KT 10SM CLR 04/00 A2969 1240 76 200 200/04 RMK AO2
14926KSTC STC20011121093509811/21/01 09:35:31  5-MIN KSTC 211535Z AUTO 20004KT 10SM CLR 04/01 A2969 1240 79 200 200/04 RMK AO2
14926KSTC STC20011121094009811/21/01 09:40:31  5-MIN KSTC 211540Z AUTO 19004KT 10SM CLR 04/01 A2969 1240 76 300 190/04 RMK AO2
14926KSTC STC20011121094509811/21/01 09:45:31  5-MIN KSTC 211545Z AUTO 20003KT 10SM CLR 05/01 A2969 1240 73 400 190/03 RMK AO2
14926KSTC STC20011121095011511/21/01 09:50:31  5-MIN KSTC 211550Z AUTO 19004KT 10SM CLR 05/01 A2970 1230 73 400 190/04 RMK AO2 SLP074 T00500006
14926KSTC STC20011121095509811/21/01 09:55:31  5-MIN KSTC 211555Z AUTO 19004KT 10SM CLR 06/01 A2970 1230 70 400 190/04 RMK AO2
14926KSTC STC20011121100009811/21/01 10:00:31  5-MIN KSTC 211600Z AUTO 18004KT 10SM CLR 06/01 A2970 1230 70 400 180/04 RMK AO2
14926KSTC STC20011121100509811/21/01 10:05:31  5-MIN KSTC 211605Z AUTO 18003KT 10SM CLR 06/01 A2969 1240 67 500 180/03 RMK AO2
14926KSTC STC20011121101009811/21/01 10:10:31  5-MIN KSTC 211610Z AUTO 18004KT 10SM CLR 06/01 A2970 1230 67 500 180/04 RMK AO2
14926KSTC STC20011121101509811/21/01 10:15:31  5-MIN KSTC 211615Z AUTO 19005KT 10SM CLR 07/01 A2969 1240 65 600 190/05 RMK AO2
14926KSTC STC20011121102009811/21/01 10:20:31  5-MIN KSTC 211620Z AUTO 18003KT 10SM CLR 07/01 A2969 1240 62 600 180/03 RMK AO2
14926KSTC STC20011121102509811/21/01 10:25:31  5-MIN KSTC 211625Z AUTO 19003KT 10SM CLR 07/01 A2969 1240 62 600 190/03 RMK AO2
14926KSTC STC20011121103009811/21/01 10:30:31  5-MIN KSTC 211630Z AUTO 19003KT 10SM CLR 08/01 A2970 1240 60 700 180/03 RMK AO2
14926KSTC STC20011121103509811/21/01 10:35:31  5-MIN KSTC 211635Z AUTO 18003KT 10SM CLR 08/01 A2970 1230 58 800 180/03 RMK AO2
14926KSTC STC20011121104009811/21/01 10:40:31  5-MIN KSTC 211640Z AUTO 00000KT 10SM CLR 09/01 A2969 1240 56 800 000/00 RMK AO2
14926KSTC STC20011121104509811/21/01 10:45:31  5-MIN KSTC 211645Z AUTO 23004KT 10SM CLR 09/01 A2969 1240 56 800 230/04 RMK AO2
14926KSTC STC20011121105011611/21/01 10:50:31  5-MIN KSTC 211650Z AUTO 23004KT 10SM CLR 10/01 A2969 1240 52 1000 230/04 RMK AO2 SLP070 T01000006
14926KSTC STC20011121105509911/21/01 10:55:31  5-MIN KSTC 211655Z AUTO 23005KT 10SM CLR 11/00 A2969 1240 48 1000 230/05 RMK AO2
14926KSTC STC20011121110009911/21/01 11:00:31  5-MIN KSTC 211700Z AUTO 25007KT 10SM CLR 11/00 A2969 1240 46 1100 250/07 RMK AO2
14926KSTC STC20011121110509911/21/01 11:05:31  5-MIN KSTC 211705Z AUTO 24006KT 10SM CLR 11/00 A2969 1240 46 1100 240/06 RMK AO2
14926KSTC STC20011121111009911/21/01 11:10:31  5-MIN KSTC 211710Z AUTO 24006KT 10SM CLR 12/00 A2969 1240 44 1200 230/06 RMK AO2
14926KSTC STC20011121111509911/21/01 11:15:31  5-MIN KSTC 211715Z AUTO 23006KT 10SM CLR 12/00 A2969 1240 44 1200 230/06 RMK AO2
14926KSTC STC20011121112009911/21/01 11:20:31  5-MIN KSTC 211720Z AUTO 24007KT 10SM CLR 12/00 A2969 1240 43 1200 230/07 RMK AO2
14926KSTC STC20011121112509911/21/01 11:25:31  5-MIN KSTC 211725Z AUTO 24007KT 10SM CLR 12/00 A2968 1250 43 1200 240/07 RMK AO2
14926KSTC STC20011121113009911/21/01 11:30:31  5-MIN KSTC 211730Z AUTO 24007KT 10SM CLR 13/00 A2968 1240 41 1300 240/07 RMK AO2
14926KSTC STC20011121113509911/21/01 11:35:31  5-MIN KSTC 211735Z AUTO 24007KT 10SM CLR 13/00 A2969 1240 41 1300 230/07 RMK AO2
14926KSTC STC20011121114009911/21/01 11:40:31  5-MIN KSTC 211740Z AUTO 24007KT 10SM CLR 13/00 A2968 1250 41 1300 230/07 RMK AO2
14926KSTC STC20011121114509911/21/01 11:45:31  5-MIN KSTC 211745Z AUTO 25006KT 10SM CLR 13/01 A2968 1250 41 1400 240/06 RMK AO2
14926KSTC STC20011121115013411/21/01 11:50:31  5-MIN KSTC 211750Z AUTO 24006KT 10SM CLR 13/01 A2968 1250 41 1400 230/06 RMK AO2 SLP067 T01330006 10133 21039 53001
14926KSTC STC20011121115509911/21/01 11:55:31  5-MIN KSTC 211755Z AUTO 24005KT 10SM CLR 14/01 A2968 1250 40 1400 240/05 RMK AO2
14926KSTC STC20011121120009911/21/01 12:00:31  5-MIN KSTC 211800Z AUTO 24007KT 10SM CLR 14/01 A2968 1250 40 1500 240/07 RMK AO2
14926KSTC STC20011121120509911/21/01 12:05:31  5-MIN KSTC 211805Z AUTO 27008KT 10SM CLR 14/01 A2968 1250 38 1500 260/08 RMK AO2
14926KSTC STC20011121121009911/21/01 12:10:31  5-MIN KSTC 211810Z AUTO 29009KT 10SM CLR 14/00 A2968 1250 37 1500 280/09 RMK AO2
14926KSTC STC20011121121509911/21/01 12:15:31  5-MIN KSTC 211815Z AUTO 28008KT 10SM CLR 15/01 A2968 1250 37 1600 280/08 RMK AO2
14926KSTC STC20011121122009911/21/01 12:20:31  5-MIN KSTC 211820Z AUTO 28009KT 10SM CLR 15/00 A2968 1250 35 1600 280/09 RMK AO2
14926KSTC STC20011121122509911/21/01 12:25:31  5-MIN KSTC 211825Z AUTO 27007KT 10SM CLR 15/01 A2968 1250 37 1600 270/07 RMK AO2
14926KSTC STC20011121123009911/21/01 12:30:31  5-MIN KSTC 211830Z AUTO 27006KT 10SM CLR 15/00 A2968 1250 35 1600 270/06 RMK AO2
14926KSTC STC20011121123509911/21/01 12:35:31  5-MIN KSTC 211835Z AUTO 22006KT 10SM CLR 15/01 A2967 1250 37 1600 220/06 RMK AO2
14926KSTC STC20011121124009911/21/01 12:40:31  5-MIN KSTC 211840Z AUTO 23009KT 10SM CLR 15/01 A2967 1260 37 1600 230/09 RMK AO2
14926KSTC STC20011121124509911/21/01 12:45:31  5-MIN KSTC 211845Z AUTO 24007KT 10SM CLR 15/01 A2967 1260 37 1600 230/07 RMK AO2
14926KSTC STC20011121125011611/21/01 12:50:31  5-MIN KSTC 211850Z AUTO 25009KT 10SM CLR 16/01 A2967 1260 37 1700 240/09 RMK AO2 SLP062 T01560011
14926KSTC STC20011121125509911/21/01 12:55:31  5-MIN KSTC 211855Z AUTO 24008KT 10SM CLR 16/01 A2967 1260 37 1700 240/08 RMK AO2
14926KSTC STC20011121130009911/21/01 13:00:31  5-MIN KSTC 211900Z AUTO 24008KT 10SM CLR 16/01 A2967 1260 37 1700 230/08 RMK AO2
14926KSTC STC20011121130509911/21/01 13:05:31  5-MIN KSTC 211905Z AUTO 24009KT 10SM CLR 16/01 A2967 1260 37 1700 240/09 RMK AO2
14926KSTC STC20011121131009911/21/01 13:10:31  5-MIN KSTC 211910Z AUTO 25009KT 10SM CLR 16/01 A2967 1260 37 1700 240/09 RMK AO2
14926KSTC STC20011121131509911/21/01 13:15:31  5-MIN KSTC 211915Z AUTO 24008KT 10SM CLR 16/01 A2967 1260 37 1700 230/08 RMK AO2
14926KSTC STC20011121132009911/21/01 13:20:31  5-MIN KSTC 211920Z AUTO 23007KT 10SM CLR 16/01 A2967 1260 36 1700 230/07 RMK AO2
14926KSTC STC20011121132509911/21/01 13:25:31  5-MIN KSTC 211925Z AUTO 24007KT 10SM CLR 16/01 A2967 1260 36 1700 230/07 RMK AO2
14926KSTC STC20011121133009911/21/01 13:30:31  5-MIN KSTC 211930Z AUTO 24007KT 10SM CLR 16/01 A2966 1260 36 1700 240/07 RMK AO2
14926KSTC STC20011121133509911/21/01 13:35:31  5-MIN KSTC 211935Z AUTO 25006KT 10SM CLR 16/01 A2966 1270 36 1700 250/06 RMK AO2
14926KSTC STC20011121134009911/21/01 13:40:31  5-MIN KSTC 211940Z AUTO 26006KT 10SM CLR 16/01 A2966 1260 36 1700 260/06 RMK AO2
14926KSTC STC20011121134509911/21/01 13:45:31  5-MIN KSTC 211945Z AUTO 24007KT 10SM CLR 16/02 A2966 1260 37 1700 240/07 RMK AO2
14926KSTC STC20011121135011611/21/01 13:50:31  5-MIN KSTC 211950Z AUTO 24006KT 10SM CLR 17/01 A2966 1260 34 1800 240/06 RMK AO2 SLP059 T01670011
14926KSTC STC20011121135509911/21/01 13:55:31  5-MIN KSTC 211955Z AUTO VRB05KT 10SM CLR 17/02 A2966 1260 36 1800 VRB/05 RMK AO2
14926KSTC STC20011121140009911/21/01 14:00:31  5-MIN KSTC 212000Z AUTO 28007KT 10SM CLR 17/01 A2966 1270 34 1800 280/07 RMK AO2
14926KSTC STC20011121140509911/21/01 14:05:31  5-MIN KSTC 212005Z AUTO 29007KT 10SM CLR 17/01 A2966 1270 34 1800 290/07 RMK AO2
14926KSTC STC20011121141009911/21/01 14:10:31  5-MIN KSTC 212010Z AUTO 29006KT 10SM CLR 17/01 A2966 1270 34 1800 290/06 RMK AO2
14926KSTC STC20011121141509911/21/01 14:15:31  5-MIN KSTC 212015Z AUTO 27007KT 10SM CLR 17/01 A2966 1270 34 1800 270/07 RMK AO2
14926KSTC STC20011121142009911/21/01 14:20:31  5-MIN KSTC 212020Z AUTO 25004KT 10SM CLR 17/01 A2966 1270 33 1800 250/04 RMK AO2
14926KSTC STC20011121142509911/21/01 14:25:31  5-MIN KSTC 212025Z AUTO 24006KT 10SM CLR 17/01 A2965 1270 34 1800 230/06 RMK AO2
14926KSTC STC20011121143009911/21/01 14:30:31  5-MIN KSTC 212030Z AUTO 23006KT 10SM CLR 17/01 A2965 1280 34 1800 230/06 RMK AO2
14926KSTC STC20011121143509911/21/01 14:35:31  5-MIN KSTC 212035Z AUTO 22007KT 10SM CLR 17/02 A2965 1270 36 1800 210/07 RMK AO2
14926KSTC STC20011121144009911/21/01 14:40:31  5-MIN KSTC 212040Z AUTO 21006KT 10SM CLR 17/01 A2965 1280 34 1800 210/06 RMK AO2
14926KSTC STC20011121144509911/21/01 14:45:31  5-MIN KSTC 212045Z AUTO 23007KT 10SM CLR 17/01 A2965 1280 34 1800 230/07 RMK AO2
14926KSTC STC20011121145012211/21/01 14:50:31  5-MIN KSTC 212050Z AUTO 23006KT 10SM CLR 17/01 A2965 1280 34 1800 230/06 RMK AO2 SLP054 T01670011 58001
14926KSTC STC20011121145509911/21/01 14:55:31  5-MIN KSTC 212055Z AUTO 24006KT 10SM CLR 17/01 A2965 1280 34 1800 230/06 RMK AO2
14926KSTC STC20011121150009911/21/01 15:00:31  5-MIN KSTC 212100Z AUTO 24007KT 10SM CLR 17/01 A2965 1280 34 1800 240/07 RMK AO2
14926KSTC STC20011121150509911/21/01 15:05:31  5-MIN KSTC 212105Z AUTO 23006KT 10SM CLR 17/02 A2965 1280 36 1800 230/06 RMK AO2
14926KSTC STC20011121151009911/21/01 15:10:31  5-MIN KSTC 212110Z AUTO 21008KT 10SM CLR 16/01 A2965 1280 36 1700 210/08 RMK AO2
14926KSTC STC20011121151509911/21/01 15:15:31  5-MIN KSTC 212115Z AUTO 22006KT 10SM CLR 16/01 A2965 1280 36 1700 220/06 RMK AO2
14926KSTC STC20011121152009911/21/01 15:20:31  5-MIN KSTC 212120Z AUTO 22007KT 10SM CLR 16/01 A2965 1270 36 1700 220/07 RMK AO2
14926KSTC STC20011121152509911/21/01 15:25:31  5-MIN KSTC 212125Z AUTO 22007KT 10SM CLR 16/01 A2966 1270 36 1700 220/07 RMK AO2
14926KSTC STC20011121153009911/21/01 15:30:31  5-MIN KSTC 212130Z AUTO 23006KT 10SM CLR 16/01 A2966 1270 36 1700 230/06 RMK AO2
14926KSTC STC20011121153509911/21/01 15:35:31  5-MIN KSTC 212135Z AUTO 22006KT 10SM CLR 16/01 A2966 1270 36 1700 220/06 RMK AO2
14926KSTC STC20011121154009911/21/01 15:40:31  5-MIN KSTC 212140Z AUTO 20006KT 10SM CLR 15/02 A2966 1270 42 1600 200/06 RMK AO2
14926KSTC STC20011121154509911/21/01 15:45:31  5-MIN KSTC 212145Z AUTO 20007KT 10SM CLR 15/03 A2966 1270 43 1600 190/07 RMK AO2
14926KSTC STC20011121155011611/21/01 15:50:31  5-MIN KSTC 212150Z AUTO 20006KT 10SM CLR 14/03 A2966 1270 45 1500 200/06 RMK AO2 SLP058 T01440028
14926KSTC STC20011121155509911/21/01 15:55:31  5-MIN KSTC 212155Z AUTO 21007KT 10SM CLR 14/03 A2966 1270 45 1500 210/07 RMK AO2
14926KSTC STC20011121160009911/21/01 16:00:31  5-MIN KSTC 212200Z AUTO 21007KT 10SM CLR 14/03 A2966 1270 47 1500 210/07 RMK AO2
14926KSTC STC20011121160509911/21/01 16:05:31  5-MIN KSTC 212205Z AUTO 21006KT 10SM CLR 13/03 A2966 1270 48 1400 210/06 RMK AO2
14926KSTC STC20011121161009911/21/01 16:10:31  5-MIN KSTC 212210Z AUTO 21006KT 10SM CLR 13/03 A2966 1270 48 1400 200/06 RMK AO2
14926KSTC STC20011121161509911/21/01 16:15:31  5-MIN KSTC 212215Z AUTO 21006KT 10SM CLR 13/03 A2966 1260 50 1300 210/06 RMK AO2
14926KSTC STC20011121162009911/21/01 16:20:31  5-MIN KSTC 212220Z AUTO 21006KT 10SM CLR 12/03 A2966 1270 52 1300 210/06 RMK AO2
14926KSTC STC20011121162509911/21/01 16:25:31  5-MIN KSTC 212225Z AUTO 21006KT 10SM CLR 12/03 A2966 1270 52 1300 210/06 RMK AO2
14926KSTC STC20011121163009911/21/01 16:30:31  5-MIN KSTC 212230Z AUTO 21006KT 10SM CLR 12/02 A2966 1260 52 1200 210/06 RMK AO2
14926KSTC STC20011121163509911/21/01 16:35:31  5-MIN KSTC 212235Z AUTO 21005KT 10SM CLR 12/02 A2966 1260 52 1200 210/05 RMK AO2
14926KSTC STC20011121164009911/21/01 16:40:31  5-MIN KSTC 212240Z AUTO 20005KT 10SM CLR 11/02 A2966 1260 54 1100 200/05 RMK AO2
14926KSTC STC20011121164509911/21/01 16:45:31  5-MIN KSTC 212245Z AUTO 20005KT 10SM CLR 11/02 A2967 1260 56 1100 200/05 RMK AO2
14926KSTC STC20011121165011611/21/01 16:50:31  5-MIN KSTC 212250Z AUTO 21004KT 10SM CLR 10/02 A2966 1260 56 1000 210/04 RMK AO2 SLP062 T01000017
14926KSTC STC20011121165509911/21/01 16:55:31  5-MIN KSTC 212255Z AUTO 21004KT 10SM CLR 10/02 A2967 1260 56 1000 210/04 RMK AO2
14926KSTC STC20011121170009911/21/01 17:00:31  5-MIN KSTC 212300Z AUTO 21004KT 10SM CLR 11/02 A2967 1260 54 1100 200/04 RMK AO2
14926KSTC STC20011121170509911/21/01 17:05:31  5-MIN KSTC 212305Z AUTO 19004KT 10SM CLR 10/01 A2967 1260 54 1000 190/04 RMK AO2
14926KSTC STC20011121171009811/21/01 17:10:31  5-MIN KSTC 212310Z AUTO 19004KT 10SM CLR 09/01 A2967 1260 56 900 190/04 RMK AO2
14926KSTC STC20011121171509811/21/01 17:15:31  5-MIN KSTC 212315Z AUTO 19004KT 10SM CLR 09/02 A2967 1260 58 900 180/04 RMK AO2
14926KSTC STC20011121172009811/21/01 17:20:31  5-MIN KSTC 212320Z AUTO 18004KT 10SM CLR 09/02 A2967 1260 58 900 180/04 RMK AO2
14926KSTC STC20011121172509811/21/01 17:25:31  5-MIN KSTC 212325Z AUTO 19004KT 10SM CLR 09/02 A2967 1260 58 900 190/04 RMK AO2
14926KSTC STC20011121173009811/21/01 17:30:31  5-MIN KSTC 212330Z AUTO 19004KT 10SM CLR 09/02 A2967 1260 58 900 190/04 RMK AO2
14926KSTC STC20011121173509811/21/01 17:35:31  5-MIN KSTC 212335Z AUTO 20003KT 10SM CLR 09/02 A2967 1260 60 900 200/03 RMK AO2
14926KSTC STC20011121174009811/21/01 17:40:31  5-MIN KSTC 212340Z AUTO 19003KT 10SM CLR 09/01 A2967 1250 56 900 190/03 RMK AO2
14926KSTC STC20011121174509811/21/01 17:45:31  5-MIN KSTC 212345Z AUTO 00000KT 10SM CLR 09/01 A2968 1250 58 900 000/00 RMK AO2
14926KSTC STC20011121175013311/21/01 17:50:31  5-MIN KSTC 212350Z AUTO 00000KT 10SM CLR 08/01 A2968 1250 62 700 000/00 RMK AO2 SLP067 T00780011 10167 20078 58012
14926KSTC STC20011121175509811/21/01 17:55:31  5-MIN KSTC 212355Z AUTO 00000KT 10SM CLR 08/01 A2967 1260 62 700 000/00 RMK AO2
14926KSTC STC20011121180009811/21/01 18:00:31  5-MIN KSTC 220000Z AUTO 00000KT 10SM CLR 07/01 A2967 1260 65 700 000/00 RMK AO2
14926KSTC STC20011121180509811/21/01 18:05:31  5-MIN KSTC 220005Z AUTO 00000KT 10SM CLR 07/01 A2967 1250 65 700 000/00 RMK AO2
14926KSTC STC20011121181009811/21/01 18:10:31  5-MIN KSTC 220010Z AUTO 00000KT 10SM CLR 07/01 A2968 1250 65 600 000/00 RMK AO2
14926KSTC STC20011121181509811/21/01 18:15:31  5-MIN KSTC 220015Z AUTO 00000KT 10SM CLR 07/01 A2968 1250 65 600 000/00 RMK AO2
14926KSTC STC20011121182009811/21/01 18:20:31  5-MIN KSTC 220020Z AUTO 00000KT 10SM CLR 07/01 A2968 1250 65 600 000/00 RMK AO2
14926KSTC STC20011121182509811/21/01 18:25:31  5-MIN KSTC 220025Z AUTO 00000KT 10SM CLR 06/01 A2968 1250 67 500 000/00 RMK AO2
14926KSTC STC20011121183009811/21/01 18:30:31  5-MIN KSTC 220030Z AUTO 00000KT 10SM CLR 06/01 A2968 1250 67 500 000/00 RMK AO2
14926KSTC STC20011121183509811/21/01 18:35:31  5-MIN KSTC 220035Z AUTO 00000KT 10SM CLR 06/01 A2968 1250 70 500 000/00 RMK AO2
14926KSTC STC20011121184009811/21/01 18:40:31  5-MIN KSTC 220040Z AUTO 00000KT 10SM CLR 04/01 A2968 1250 76 300 000/00 RMK AO2
14926KSTC STC20011121184509811/21/01 18:45:31  5-MIN KSTC 220045Z AUTO 00000KT 10SM CLR 05/01 A2968 1250 73 400 000/00 RMK AO2
14926KSTC STC20011121185011511/21/01 18:50:31  5-MIN KSTC 220050Z AUTO 00000KT 10SM CLR 04/01 A2968 1250 76 300 000/00 RMK AO2 SLP069 T00440006
14926KSTC STC20011121185509811/21/01 18:55:31  5-MIN KSTC 220055Z AUTO 00000KT 10SM CLR 05/01 A2968 1250 73 400 000/00 RMK AO2
14926KSTC STC20011121190009811/21/01 19:00:31  5-MIN KSTC 220100Z AUTO 00000KT 10SM CLR 04/01 A2968 1250 76 300 000/00 RMK AO2
14926KSTC STC20011121190509811/21/01 19:05:31  5-MIN KSTC 220105Z AUTO 00000KT 10SM CLR 04/01 A2968 1250 76 300 000/00 RMK AO2
14926KSTC STC20011121191009811/21/01 19:10:31  5-MIN KSTC 220110Z AUTO 00000KT 10SM CLR 04/01 A2968 1250 76 300 000/00 RMK AO2
14926KSTC STC20011121191509811/21/01 19:15:31  5-MIN KSTC 220115Z AUTO 00000KT 10SM CLR 04/01 A2968 1250 76 300 000/00 RMK AO2
14926KSTC STC20011121192009811/21/01 19:20:31  5-MIN KSTC 220120Z AUTO 00000KT 10SM CLR 04/01 A2968 1250 79 200 000/00 RMK AO2
14926KSTC STC20011121192509811/21/01 19:25:31  5-MIN KSTC 220125Z AUTO 00000KT 10SM CLR 04/01 A2968 1250 79 200 000/00 RMK AO2
14926KSTC STC20011121193009811/21/01 19:30:31  5-MIN KSTC 220130Z AUTO 00000KT 10SM CLR 04/01 A2968 1250 79 200 000/00 RMK AO2
14926KSTC STC20011121193509811/21/01 19:35:31  5-MIN KSTC 220135Z AUTO 00000KT 10SM CLR 03/00 A2968 1250 79 200 000/00 RMK AO2
14926KSTC STC20011121194009811/21/01 19:40:31  5-MIN KSTC 220140Z AUTO 00000KT 10SM CLR 03/00 A2968 1250 82 100 000/00 RMK AO2
14926KSTC STC20011121194509811/21/01 19:45:31  5-MIN KSTC 220145Z AUTO 00000KT 10SM CLR 03/01 A2968 1250 82 200 000/00 RMK AO2
14926KSTC STC20011121195011511/21/01 19:50:31  5-MIN KSTC 220150Z AUTO 00000KT 10SM CLR 03/00 A2968 1250 82 100 000/00 RMK AO2 SLP070 T00280000
14926KSTC STC20011121195509811/21/01 19:55:31  5-MIN KSTC 220155Z AUTO 00000KT 10SM CLR 03/00 A2968 1250 79 200 000/00 RMK AO2
14926KSTC STC20011121200009811/21/01 20:00:31  5-MIN KSTC 220200Z AUTO 00000KT 10SM CLR 03/01 A2968 1250 82 200 000/00 RMK AO2
14926KSTC STC20011121200509811/21/01 20:05:31  5-MIN KSTC 220205Z AUTO 00000KT 10SM CLR 03/01 A2968 1250 82 200 000/00 RMK AO2
14926KSTC STC20011121201009811/21/01 20:10:31  5-MIN KSTC 220210Z AUTO 00000KT 10SM CLR 03/00 A2968 1250 79 200 000/00 RMK AO2
14926KSTC STC20011121201509611/21/01 20:15:31  5-MIN KSTC 220215Z AUTO 00000KT 10SM CLR 02/00 A2968 1250 85 0 000/00 RMK AO2
14926KSTC STC20011121202009711/21/01 20:20:31  5-MIN KSTC 220220Z AUTO 00000KT 10SM CLR 02/M01 A2968 1250 82 0 000/00 RMK AO2
14926KSTC STC20011121202509711/21/01 20:25:31  5-MIN KSTC 220225Z AUTO 00000KT 10SM CLR 02/M01 A2968 1250 85 0 000/00 RMK AO2
14926KSTC STC20011121203009711/21/01 20:30:31  5-MIN KSTC 220230Z AUTO 00000KT 10SM CLR 01/M01 A2968 1250 89 0 000/00 RMK AO2
14926KSTC STC20011121203509711/21/01 20:35:31  5-MIN KSTC 220235Z AUTO 00000KT 10SM CLR 01/M01 A2967 1250 89 0 000/00 RMK AO2
14926KSTC STC20011121204009711/21/01 20:40:31  5-MIN KSTC 220240Z AUTO 00000KT 10SM CLR 02/M01 A2967 1250 85 0 000/00 RMK AO2
14926KSTC STC20011121204509711/21/01 20:45:31  5-MIN KSTC 220245Z AUTO 00000KT 10SM CLR 02/M01 A2968 1250 85 0 000/00 RMK AO2
14926KSTC STC20011121205012311/21/01 20:50:31  5-MIN KSTC 220250Z AUTO 16003KT 10SM CLR 01/M01 A2968 1250 89 -100 150/03 RMK AO2 SLP068 T00061011 51009
14926KSTC STC20011121205510011/21/01 20:55:31  5-MIN KSTC 220255Z AUTO 00000KT 10SM CLR 00/M01 A2968 1250 92 -200 000/00 RMK AO2
14926KSTC STC20011121210010011/21/01 21:00:31  5-MIN KSTC 220300Z AUTO 00000KT 10SM CLR 01/M01 A2967 1260 89 -100 000/00 RMK AO2
14926KSTC STC20011121210510011/21/01 21:05:31  5-MIN KSTC 220305Z AUTO 00000KT 10SM CLR 00/M02 A2967 1260 88 -200 000/00 RMK AO2
14926KSTC STC20011121211010011/21/01 21:10:31  5-MIN KSTC 220310Z AUTO 00000KT 10SM CLR 01/M01 A2967 1260 89 -100 000/00 RMK AO2
14926KSTC STC20011121211510011/21/01 21:15:31  5-MIN KSTC 220315Z AUTO 00000KT 10SM CLR 01/M01 A2967 1260 89 -100 000/00 RMK AO2
14926KSTC STC20011121212010011/21/01 21:20:31  5-MIN KSTC 220320Z AUTO 00000KT 10SM CLR 01/M01 A2968 1250 89 -100 000/00 RMK AO2
14926KSTC STC20011121212510011/21/01 21:25:31  5-MIN KSTC 220325Z AUTO 00000KT 10SM CLR 01/M01 A2968 1250 89 -100 000/00 RMK AO2
14926KSTC STC20011121213010011/21/01 21:30:31  5-MIN KSTC 220330Z AUTO 00000KT 10SM CLR 01/M01 A2967 1260 89 -100 000/00 RMK AO2
14926KSTC STC20011121213510011/21/01 21:35:31  5-MIN KSTC 220335Z AUTO 02005KT 10SM CLR 00/M02 A2967 1260 88 -200 010/05 RMK AO2
14926KSTC STC20011121214010111/21/01 21:40:31  5-MIN KSTC 220340Z AUTO 03004KT 10SM CLR M01/M02 A2967 1260 92 -200 030/04 RMK AO2
14926KSTC STC20011121214510011/21/01 21:45:31  5-MIN KSTC 220345Z AUTO 04003KT 10SM CLR 01/M01 A2966 1260 89 -100 040/03 RMK AO2
14926KSTC STC20011121215011411/21/01 21:50:31  5-MIN KSTC 220350Z AUTO 05003KT 10SM CLR 01/M01 A2966 1260 89 0 050/03 RMK AO2 SLP062 T00111006
14926KSTC STC20011121215510011/21/01 21:55:31  5-MIN KSTC 220355Z AUTO 00000KT 10SM CLR 00/M01 A2967 1260 92 -200 000/00 RMK AO2
14926KSTC STC20011121220010011/21/01 22:00:31  5-MIN KSTC 220400Z AUTO 00000KT 10SM CLR 01/M01 A2967 1260 89 -100 000/00 RMK AO2
14926KSTC STC20011121220510011/21/01 22:05:31  5-MIN KSTC 220405Z AUTO 00000KT 10SM CLR 00/M01 A2967 1260 92 -200 000/00 RMK AO2
14926KSTC STC20011121221010111/21/01 22:10:31  5-MIN KSTC 220410Z AUTO 00000KT 10SM CLR M01/M02 A2967 1260 92 -200 000/00 RMK AO2
14926KSTC STC20011121221510011/21/01 22:15:31  5-MIN KSTC 220415Z AUTO 00000KT 10SM CLR 00/M01 A2967 1260 92 -200 000/00 RMK AO2
14926KSTC STC20011121222010011/21/01 22:20:31  5-MIN KSTC 220420Z AUTO 00000KT 10SM CLR 01/M01 A2967 1260 89 -100 000/00 RMK AO2
14926KSTC STC20011121222510011/21/01 22:25:31  5-MIN KSTC 220425Z AUTO 00000KT 10SM CLR 00/M01 A2967 1260 92 -200 000/00 RMK AO2
14926KSTC STC20011121223010011/21/01 22:30:31  5-MIN KSTC 220430Z AUTO 00000KT 10SM CLR 00/M01 A2967 1260 92 -200 000/00 RMK AO2
14926KSTC STC20011121223510011/21/01 22:35:31  5-MIN KSTC 220435Z AUTO 00000KT 10SM CLR 00/M01 A2967 1260 92 -200 000/00 RMK AO2
14926KSTC STC20011121224010011/21/01 22:40:31  5-MIN KSTC 220440Z AUTO 00000KT 10SM CLR 00/M01 A2967 1260 92 -200 000/00 RMK AO2
14926KSTC STC20011121224510011/21/01 22:45:31  5-MIN KSTC 220445Z AUTO 00000KT 10SM CLR 00/M01 A2966 1260 92 -200 000/00 RMK AO2
14926KSTC STC20011121225011811/21/01 22:50:31  5-MIN KSTC 220450Z AUTO 00000KT 10SM CLR M01/M02 A2966 1270 92 -200 000/00 RMK AO2 SLP061 T10061017
14926KSTC STC20011121225510111/21/01 22:55:31  5-MIN KSTC 220455Z AUTO 00000KT 10SM CLR M01/M02 A2967 1260 92 -200 000/00 RMK AO2
14926KSTC STC20011121230010111/21/01 23:00:31  5-MIN KSTC 220500Z AUTO 00000KT 10SM CLR M01/M02 A2967 1260 92 -200 000/00 RMK AO2
14926KSTC STC20011121230510111/21/01 23:05:31  5-MIN KSTC 220505Z AUTO 16003KT 10SM CLR M01/M02 A2967 1260 88 -200 160/03 RMK AO2
14926KSTC STC20011121231010111/21/01 23:10:31  5-MIN KSTC 220510Z AUTO 00000KT 10SM CLR M01/M02 A2967 1260 92 -300 000/00 RMK AO2
14926KSTC STC20011121231510111/21/01 23:15:31  5-MIN KSTC 220515Z AUTO 00000KT 10SM CLR M01/M02 A2967 1260 92 -300 000/00 RMK AO2
14926KSTC STC20011121232010111/21/01 23:20:31  5-MIN KSTC 220520Z AUTO 14003KT 10SM CLR M01/M02 A2967 1260 92 -200 140/03 RMK AO2
14926KSTC STC20011121232510111/21/01 23:25:31  5-MIN KSTC 220525Z AUTO 00000KT 10SM CLR M01/M02 A2967 1260 88 -200 000/00 RMK AO2
14926KSTC STC20011121233010111/21/01 23:30:31  5-MIN KSTC 220530Z AUTO 00000KT 10SM CLR M01/M02 A2967 1260 92 -300 000/00 RMK AO2
14926KSTC STC20011121233510111/21/01 23:35:31  5-MIN KSTC 220535Z AUTO 00000KT 10SM CLR M01/M02 A2967 1260 92 -200 000/00 RMK AO2
14926KSTC STC20011121234010111/21/01 23:40:31  5-MIN KSTC 220540Z AUTO 00000KT 10SM CLR M01/M02 A2967 1260 92 -300 000/00 RMK AO2
14926KSTC STC20011121234510111/21/01 23:45:31  5-MIN KSTC 220545Z AUTO 00000KT 10SM CLR M01/M02 A2967 1260 92 -300 000/00 RMK AO2
14926KSTC STC20011121235014611/21/01 23:50:31  5-MIN KSTC 220550Z AUTO 00000KT 10SM CLR M01/M02 A2967 1260 92 -200 000/00 RMK AO2 SLP061 T10061017 10078 21011 401671039 50001
14926KSTC STC20011121235510111/21/01 23:55:31  5-MIN KSTC 220555Z AUTO 00000KT 10SM CLR M01/M02 A2967 1260 92 -200 000/00 RMK AO2
14926KSTC STC20011122000010111/22/01 00:00:31  5-MIN KSTC 220600Z AUTO 00000KT 10SM CLR M01/M02 A2967 1260 92 -200 000/00 RMK AO2
14926KSTC STC20011122000510111/22/01 00:05:31  5-MIN KSTC 220605Z AUTO 36003KT 10SM CLR M01/M02 A2967 1260 92 -200 350/03 RMK AO2
14926KSTC STC20011122001010111/22/01 00:10:31  5-MIN KSTC 220610Z AUTO 00000KT 10SM CLR M01/M01 A2967 1260 96 -200 000/00 RMK AO2
14926KSTC STC20011122001510111/22/01 00:15:31  5-MIN KSTC 220615Z AUTO 34003KT 10SM CLR M01/M02 A2967 1260 96 -300 340/03 RMK AO2
14926KSTC STC20011122002010111/22/01 00:20:31  5-MIN KSTC 220620Z AUTO 00000KT 10SM CLR M01/M02 A2967 1260 92 -200 000/00 RMK AO2
14926KSTC STC20011122002510111/22/01 00:25:31  5-MIN KSTC 220625Z AUTO 35003KT 10SM CLR M01/M02 A2966 1260 92 -200 350/03 RMK AO2
14926KSTC STC20011122003010111/22/01 00:30:31  5-MIN KSTC 220630Z AUTO 36003KT 10SM CLR M02/M03 A2966 1270 92 -400 360/03 RMK AO2
14926KSTC STC20011122003510111/22/01 00:35:31  5-MIN KSTC 220635Z AUTO 01003KT 10SM CLR M02/M02 A2966 1270 96 -400 010/03 RMK AO2
14926KSTC STC20011122004010111/22/01 00:40:31  5-MIN KSTC 220640Z AUTO 00000KT 10SM CLR M01/M02 A2966 1270 92 -200 000/00 RMK AO2
14926KSTC STC20011122004510111/22/01 00:45:31  5-MIN KSTC 220645Z AUTO 00000KT 10SM CLR M01/M02 A2966 1270 96 -300 000/00 RMK AO2
14926KSTC STC20011122005011811/22/01 00:50:31  5-MIN KSTC 220650Z AUTO 00000KT 10SM CLR M01/M02 A2965 1270 92 -300 000/00 RMK AO2 SLP055 T10111022
14926KSTC STC20011122005510111/22/01 00:55:31  5-MIN KSTC 220655Z AUTO 00000KT 10SM CLR M01/M02 A2965 1270 92 -300 000/00 RMK AO2
14926KSTC STC20011122010010111/22/01 01:00:31  5-MIN KSTC 220700Z AUTO 01003KT 10SM CLR M02/M02 A2965 1270 96 -400 360/03 RMK AO2
14926KSTC STC20011122010510111/22/01 01:05:31  5-MIN KSTC 220705Z AUTO 02003KT 10SM CLR M02/M03 A2965 1280 92 -400 020/03 RMK AO2
14926KSTC STC20011122011010111/22/01 01:10:31  5-MIN KSTC 220710Z AUTO 00000KT 10SM CLR M02/M02 A2965 1280 96 -400 000/00 RMK AO2
14926KSTC STC20011122011510111/22/01 01:15:31  5-MIN KSTC 220715Z AUTO 00000KT 10SM CLR M02/M02 A2965 1280 96 -400 000/00 RMK AO2
14926KSTC STC20011122012010111/22/01 01:20:31  5-MIN KSTC 220720Z AUTO 00000KT 10SM CLR M01/M02 A2965 1280 92 -300 000/00 RMK AO2
14926KSTC STC20011122012510111/22/01 01:25:31  5-MIN KSTC 220725Z AUTO 01003KT 10SM CLR M02/M02 A2965 1280 96 -400 010/03 RMK AO2
14926KSTC STC20011122013010111/22/01 01:30:31  5-MIN KSTC 220730Z AUTO 02004KT 10SM CLR M01/M02 A2964 1280 92 -300 020/04 RMK AO2
14926KSTC STC20011122013510111/22/01 01:35:31  5-MIN KSTC 220735Z AUTO 00000KT 10SM CLR M02/M02 A2964 1280 96 -400 000/00 RMK AO2
14926KSTC STC20011122014010111/22/01 01:40:31  5-MIN KSTC 220740Z AUTO 06003KT 10SM CLR M01/M02 A2964 1290 92 -300 050/03 RMK AO2
14926KSTC STC20011122014510111/22/01 01:45:31  5-MIN KSTC 220745Z AUTO 02003KT 10SM CLR M02/M03 A2963 1290 92 -300 010/03 RMK AO2
14926KSTC STC20011122015011811/22/01 01:50:31  5-MIN KSTC 220750Z AUTO 04004KT 10SM CLR M02/M02 A2963 1300 96 -300 040/04 RMK AO2 SLP047 T10171022
14926KSTC STC20011122015510111/22/01 01:55:31  5-MIN KSTC 220755Z AUTO 04004KT 10SM CLR M02/M02 A2963 1300 96 -300 040/04 RMK AO2
14926KSTC STC20011122020010111/22/01 02:00:31  5-MIN KSTC 220800Z AUTO 00000KT 10SM CLR M02/M03 A2963 1300 92 -300 000/00 RMK AO2
14926KSTC STC20011122020510111/22/01 02:05:31  5-MIN KSTC 220805Z AUTO 00000KT 10SM CLR M02/M02 A2963 1300 96 -300 000/00 RMK AO2
14926KSTC STC20011122021010111/22/01 02:10:31  5-MIN KSTC 220810Z AUTO 03003KT 10SM CLR M01/M02 A2963 1290 92 -300 020/03 RMK AO2
14926KSTC STC20011122021510111/22/01 02:15:31  5-MIN KSTC 220815Z AUTO 00000KT 10SM CLR M01/M02 A2963 1300 92 -300 000/00 RMK AO2
14926KSTC STC20011122022010111/22/01 02:20:31  5-MIN KSTC 220820Z AUTO 05003KT 10SM CLR M01/M02 A2963 1300 92 -300 050/03 RMK AO2
14926KSTC STC20011122022510111/22/01 02:25:31  5-MIN KSTC 220825Z AUTO 00000KT 10SM CLR M01/M02 A2963 1300 92 -300 000/00 RMK AO2
14926KSTC STC20011122023010111/22/01 02:30:31  5-MIN KSTC 220830Z AUTO 07004KT 10SM CLR M01/M02 A2963 1300 92 -300 070/04 RMK AO2
14926KSTC STC20011122023510111/22/01 02:35:31  5-MIN KSTC 220835Z AUTO 07004KT 10SM CLR M02/M03 A2963 1300 92 -300 070/04 RMK AO2
14926KSTC STC20011122024010111/22/01 02:40:31  5-MIN KSTC 220840Z AUTO 09004KT 10SM CLR M02/M02 A2963 1300 96 -300 090/04 RMK AO2
14926KSTC STC20011122024510111/22/01 02:45:31  5-MIN KSTC 220845Z AUTO 08005KT 10SM CLR M01/M02 A2963 1300 92 -300 080/05 RMK AO2
14926KSTC STC20011122025012411/22/01 02:50:31  5-MIN KSTC 220850Z AUTO 07005KT 10SM CLR M01/M02 A2962 1300 88 -200 070/05 RMK AO2 SLP044 T10061022 55002
14926KSTC STC20011122025510011/22/01 02:55:31  5-MIN KSTC 220855Z AUTO 06004KT 10SM CLR 00/M02 A2962 1300 88 -100 060/04 RMK AO2
14926KSTC STC20011122030010011/22/01 03:00:31  5-MIN KSTC 220900Z AUTO 06005KT 10SM CLR 00/M01 A2962 1310 92 -100 060/05 RMK AO2
14926KSTC STC20011122030509711/22/01 03:05:31  5-MIN KSTC 220905Z AUTO 05006KT 10SM CLR 01/M01 A2961 1310 89 0 050/06 RMK AO2
14926KSTC STC20011122031009711/22/01 03:10:31  5-MIN KSTC 220910Z AUTO 06006KT 10SM CLR 01/M01 A2961 1310 89 0 060/06 RMK AO2
14926KSTC STC20011122031509711/22/01 03:15:31  5-MIN KSTC 220915Z AUTO 06005KT 10SM CLR 01/M01 A2961 1320 89 0 060/05 RMK AO2
14926KSTC STC20011122032009711/22/01 03:20:31  5-MIN KSTC 220920Z AUTO 09004KT 10SM CLR 01/M01 A2961 1310 92 0 090/04 RMK AO2
14926KSTC STC20011122032509711/22/01 03:25:31  5-MIN KSTC 220925Z AUTO 08007KT 10SM CLR 01/M01 A2961 1320 89 0 080/07 RMK AO2
14926KSTC STC20011122033009711/22/01 03:30:31  5-MIN KSTC 220930Z AUTO 12007KT 10SM CLR 01/M01 A2961 1320 89 0 120/07 RMK AO2
14926KSTC STC20011122033509711/22/01 03:35:31  5-MIN KSTC 220935Z AUTO 10007KT 10SM CLR 01/M01 A2961 1320 89 0 090/07 RMK AO2
14926KSTC STC20011122034009711/22/01 03:40:31  5-MIN KSTC 220940Z AUTO 09007KT 10SM CLR 01/M01 A2961 1320 89 0 090/07 RMK AO2
14926KSTC STC20011122034509911/22/01 03:45:31  5-MIN KSTC 220945Z AUTO 09009KT 10SM CLR 02/M01 A2961 1320 85 100 090/09 RMK AO2
14926KSTC STC20011122035011411/22/01 03:50:31  5-MIN KSTC 220950Z AUTO 10010KT 10SM CLR 01/M01 A2960 1320 89 0 090/10 RMK AO2 SLP038 T00111006
14926KSTC STC20011122035509711/22/01 03:55:31  5-MIN KSTC 220955Z AUTO 10010KT 10SM CLR 01/M01 A2961 1320 89 0 090/10 RMK AO2
14926KSTC STC20011122040009711/22/01 04:00:31  5-MIN KSTC 221000Z AUTO 09010KT 10SM CLR 01/M01 A2961 1320 89 0 090/10 RMK AO2
14926KSTC STC20011122040509711/22/01 04:05:31  5-MIN KSTC 221005Z AUTO 09009KT 10SM CLR 01/M01 A2961 1320 89 0 090/09 RMK AO2
14926KSTC STC20011122041009711/22/01 04:10:31  5-MIN KSTC 221010Z AUTO 08007KT 10SM CLR 01/M01 A2960 1320 89 0 080/07 RMK AO2
14926KSTC STC20011122041509711/22/01 04:15:31  5-MIN KSTC 221015Z AUTO 09007KT 10SM CLR 01/M01 A2960 1320 89 0 080/07 RMK AO2
14926KSTC STC20011122042009711/22/01 04:20:31  5-MIN KSTC 221020Z AUTO 08008KT 10SM CLR 01/M01 A2960 1320 89 0 080/08 RMK AO2
14926KSTC STC20011122042509711/22/01 04:25:31  5-MIN KSTC 221025Z AUTO 07008KT 10SM CLR 01/M01 A2960 1320 89 0 070/08 RMK AO2
14926KSTC STC20011122043009711/22/01 04:30:31  5-MIN KSTC 221030Z AUTO 07007KT 10SM CLR 01/M01 A2961 1320 89 0 070/07 RMK AO2
14926KSTC STC20011122043509711/22/01 04:35:31  5-MIN KSTC 221035Z AUTO 06007KT 10SM CLR 01/M01 A2961 1320 89 0 050/07 RMK AO2
14926KSTC STC20011122044009711/22/01 04:40:31  5-MIN KSTC 221040Z AUTO 05007KT 10SM CLR 01/M01 A2961 1320 92 0 050/07 RMK AO2
14926KSTC STC20011122044509711/22/01 04:45:31  5-MIN KSTC 221045Z AUTO 05007KT 10SM CLR 01/M01 A2961 1320 92 0 050/07 RMK AO2
14926KSTC STC20011122045011411/22/01 04:50:31  5-MIN KSTC 221050Z AUTO 05007KT 10SM CLR 01/M01 A2960 1320 92 0 040/07 RMK AO2 SLP039 T00061006
14926KSTC STC20011122045509711/22/01 04:55:31  5-MIN KSTC 221055Z AUTO 06008KT 10SM CLR 01/M01 A2960 1320 92 0 060/08 RMK AO2
14926KSTC STC20011122050009711/22/01 05:00:31  5-MIN KSTC 221100Z AUTO 07006KT 10SM CLR 01/M01 A2960 1320 89 0 060/06 RMK AO2
14926KSTC STC20011122050509711/22/01 05:05:31  5-MIN KSTC 221105Z AUTO 08006KT 10SM CLR 01/M01 A2960 1320 89 0 070/06 RMK AO2
14926KSTC STC20011122051009711/22/01 05:10:31  5-MIN KSTC 221110Z AUTO 07005KT 10SM CLR 01/M01 A2961 1320 89 0 070/05 RMK AO2
14926KSTC STC20011122051509711/22/01 05:15:31  5-MIN KSTC 221115Z AUTO 07005KT 10SM CLR 01/M01 A2961 1320 89 0 060/05 RMK AO2
14926KSTC STC20011122052009711/22/01 05:20:31  5-MIN KSTC 221120Z AUTO 07007KT 10SM CLR 01/M01 A2961 1320 89 0 070/07 RMK AO2
14926KSTC STC20011122052509711/22/01 05:25:31  5-MIN KSTC 221125Z AUTO 07006KT 10SM CLR 01/M01 A2961 1320 89 0 070/06 RMK AO2
14926KSTC STC20011122053009711/22/01 05:30:31  5-MIN KSTC 221130Z AUTO 06006KT 10SM CLR 01/M01 A2960 1320 89 0 060/06 RMK AO2
14926KSTC STC20011122053509711/22/01 05:35:31  5-MIN KSTC 221135Z AUTO 06006KT 10SM CLR 01/M01 A2961 1320 89 0 060/06 RMK AO2
14926KSTC STC20011122054009711/22/01 05:40:31  5-MIN KSTC 221140Z AUTO 07006KT 10SM CLR 01/M01 A2961 1310 92 0 070/06 RMK AO2
14926KSTC STC20011122054509711/22/01 05:45:31  5-MIN KSTC 221145Z AUTO 08005KT 10SM CLR 01/M01 A2961 1310 92 0 080/05 RMK AO2
14926KSTC STC20011122055013211/22/01 05:50:31  5-MIN KSTC 221150Z AUTO 07004KT 10SM CLR 01/M01 A2961 1310 92 0 060/04 RMK AO2 SLP044 T00061006 10017 21022 56016
14926KSTC STC20011122055509711/22/01 05:55:31  5-MIN KSTC 221155Z AUTO 07005KT 10SM CLR 01/M01 A2961 1320 92 0 060/05 RMK AO2
14926KSTC STC20011122060009711/22/01 06:00:31  5-MIN KSTC 221200Z AUTO 07006KT 10SM CLR 01/M01 A2961 1320 92 0 060/06 RMK AO2
14926KSTC STC20011122060510011/22/01 06:05:31  5-MIN KSTC 221205Z AUTO 08007KT 10SM FEW120 01/M01 A2960 1320 92 0 070/07 RMK AO2
14926KSTC STC20011122061010011/22/01 06:10:31  5-MIN KSTC 221210Z AUTO 07008KT 10SM FEW120 01/M01 A2960 1320 92 0 070/08 RMK AO2
14926KSTC STC20011122061510011/22/01 06:15:31  5-MIN KSTC 221215Z AUTO 07008KT 10SM SCT120 01/M01 A2960 1330 92 0 070/08 RMK AO2
14926KSTC STC20011122062010011/22/01 06:20:31  5-MIN KSTC 221220Z AUTO 07008KT 10SM BKN120 01/M01 A2960 1330 92 0 070/08 RMK AO2
14926KSTC STC20011122062510011/22/01 06:25:31  5-MIN KSTC 221225Z AUTO 07008KT 10SM BKN120 01/M01 A2960 1330 92 0 070/08 RMK AO2
14926KSTC STC20011122063010011/22/01 06:30:31  5-MIN KSTC 221230Z AUTO 07009KT 10SM BKN120 01/M01 A2959 1330 92 0 070/09 RMK AO2
14926KSTC STC20011122063510011/22/01 06:35:31  5-MIN KSTC 221235Z AUTO 08008KT 10SM SCT120 01/M01 A2959 1330 92 0 080/08 RMK AO2
14926KSTC STC20011122064010011/22/01 06:40:31  5-MIN KSTC 221240Z AUTO 08007KT 10SM BKN120 01/M01 A2960 1320 92 0 080/07 RMK AO2
14926KSTC STC20011122064510011/22/01 06:45:31  5-MIN KSTC 221245Z AUTO 09007KT 10SM BKN120 01/M01 A2960 1320 92 0 090/07 RMK AO2
14926KSTC STC20011122065011711/22/01 06:50:31  5-MIN KSTC 221250Z AUTO 08008KT 10SM BKN120 01/M01 A2960 1320 92 0 080/08 RMK AO2 SLP042 T00061006
14926KSTC STC20011122065510011/22/01 06:55:31  5-MIN KSTC 221255Z AUTO 07008KT 10SM BKN120 01/M01 A2960 1330 92 0 070/08 RMK AO2
14926KSTC STC20011122070010011/22/01 07:00:31  5-MIN KSTC 221300Z AUTO 08008KT 10SM BKN120 01/M01 A2960 1330 92 0 080/08 RMK AO2
14926KSTC STC20011122070510011/22/01 07:05:31  5-MIN KSTC 221305Z AUTO 09009KT 10SM OVC120 01/M01 A2959 1330 92 0 080/09 RMK AO2
14926KSTC STC20011122071010011/22/01 07:10:31  5-MIN KSTC 221310Z AUTO 08009KT 10SM OVC120 01/M01 A2959 1340 92 0 080/09 RMK AO2
14926KSTC STC20011122071510011/22/01 07:15:31  5-MIN KSTC 221315Z AUTO 08008KT 10SM OVC120 01/M01 A2959 1340 92 0 080/08 RMK AO2
14926KSTC STC20011122072010011/22/01 07:20:31  5-MIN KSTC 221320Z AUTO 09007KT 10SM OVC120 01/M01 A2960 1330 92 0 080/07 RMK AO2
14926KSTC STC20011122072510011/22/01 07:25:31  5-MIN KSTC 221325Z AUTO 09005KT 10SM OVC120 01/M01 A2960 1320 92 0 080/05 RMK AO2
14926KSTC STC20011122073010011/22/01 07:30:31  5-MIN KSTC 221330Z AUTO 08006KT 10SM OVC120 01/M01 A2960 1320 92 0 080/06 RMK AO2
14926KSTC STC20011122073510011/22/01 07:35:31  5-MIN KSTC 221335Z AUTO 08006KT 10SM BKN120 01/M01 A2960 1320 92 0 080/06 RMK AO2
14926KSTC STC20011122074009911/22/01 07:40:31  5-MIN KSTC 221340Z AUTO 09006KT 9SM BKN120 01/M01 A2960 1320 92 0 080/06 RMK AO2
14926KSTC STC20011122074509911/22/01 07:45:31  5-MIN KSTC 221345Z AUTO 09008KT 9SM BKN120 01/M01 A2960 1330 92 0 080/08 RMK AO2
14926KSTC STC20011122075011611/22/01 07:50:31  5-MIN KSTC 221350Z AUTO 08008KT 9SM SCT110 01/M01 A2959 1330 92 0 080/08 RMK AO2 SLP040 T00061006
14926KSTC STC20011122075509911/22/01 07:55:31  5-MIN KSTC 221355Z AUTO 08008KT 9SM BKN110 01/M01 A2959 1330 92 0 080/08 RMK AO2
14926KSTC STC20011122080010611/22/01 08:00:31  5-MIN KSTC 221400Z AUTO 09009KT 9SM BKN100 BKN120 01/M01 A2959 1330 92 0 080/09 RMK AO2
14926KSTC STC20011122080510611/22/01 08:05:31  5-MIN KSTC 221405Z AUTO 09011KT 9SM BKN100 BKN110 01/M01 A2959 1330 92 0 090/11 RMK AO2
14926KSTC STC20011122081010611/22/01 08:10:31  5-MIN KSTC 221410Z AUTO 08009KT 9SM BKN095 BKN110 01/M01 A2958 1340 92 0 080/09 RMK AO2
14926KSTC STC20011122081510511/22/01 08:15:31  5-MIN KSTC 221415Z AUTO 07011KT 9SM BKN095 01/00 A2957 1350 96 0 070/11 RMK AO2 PRESFR
14926KSTC STC20011122082011211/22/01 08:20:31  5-MIN KSTC 221420Z AUTO 08009KT 9SM BKN090 OVC100 01/00 A2956 1360 96 0 070/09 RMK AO2 PRESFR
14926KSTC STC20011122082511211/22/01 08:25:31  5-MIN KSTC 221425Z AUTO 08013G16KT 10SM BKN085 BKN100 01/00 A2956 1360 92 0 070/13G16 RMK AO2
14926KSTC STC20011122083011211/22/01 08:30:31  5-MIN KSTC 221430Z AUTO 08013G19KT 10SM SCT085 BKN110 01/00 A2956 1360 92 0 080/13G19 RMK AO2
14926KSTC STC20011122083511211/22/01 08:35:31  5-MIN KSTC 221435Z AUTO 08011G19KT 10SM SCT080 BKN110 01/00 A2956 1360 92 0 080/11G19 RMK AO2
14926KSTC STC20011122084010611/22/01 08:40:31  5-MIN KSTC 221440Z AUTO 07012KT 10SM FEW080 BKN110 01/00 A2956 1370 92 0 070/12 RMK AO2
14926KSTC STC20011122084510811/22/01 08:45:31  5-MIN KSTC 221445Z AUTO 07010KT 10SM FEW080 BKN110 02/00 A2955 1370 89 100 070/10 RMK AO2
14926KSTC STC20011122085012411/22/01 08:50:31  5-MIN KSTC 221450Z AUTO 08009KT 10SM BKN110 02/00 A2956 1360 89 100 080/09 RMK AO2 SLP030 T00170000 55003
14926KSTC STC20011122085510111/22/01 08:55:31  5-MIN KSTC 221455Z AUTO 09007KT 10SM BKN110 02/00 A2957 1350 89 100 090/07 RMK AO2
14926KSTC STC20011122090010811/22/01 09:00:31  5-MIN KSTC 221500Z AUTO VRB04KT 10SM BKN100 02/00 A2959 1340 89 100 VRB/04 RMK AO2 PRESRR
14926KSTC STC20011122090510111/22/01 09:05:31  5-MIN KSTC 221505Z AUTO 18007KT 10SM BKN100 02/00 A2959 1330 89 100 180/07 RMK AO2
14926KSTC STC20011122091010811/22/01 09:10:31  5-MIN KSTC 221510Z AUTO 18007KT 10SM FEW010 BKN100 02/00 A2960 1330 89 100 180/07 RMK AO2
14926KSTC STC20011122091510811/22/01 09:15:31  5-MIN KSTC 221515Z AUTO 12005KT 10SM FEW010 BKN100 02/01 A2959 1340 92 100 120/05 RMK AO2
14926KSTC STC20011122092010811/22/01 09:20:31  5-MIN KSTC 221520Z AUTO 09006KT 10SM FEW010 BKN100 02/00 A2958 1340 89 100 090/06 RMK AO2
14926KSTC STC20011122092510111/22/01 09:25:31  5-MIN KSTC 221525Z AUTO 09003KT 10SM BKN100 02/00 A2958 1340 89 100 090/03 RMK AO2
14926KSTC STC20011122093010111/22/01 09:30:31  5-MIN KSTC 221530Z AUTO VRB04KT 10SM BKN100 02/00 A2958 1340 89 100 VRB/04 RMK AO2
14926KSTC STC20011122093510111/22/01 09:35:31  5-MIN KSTC 221535Z AUTO 05006KT 10SM BKN100 02/01 A2958 1340 89 200 050/06 RMK AO2
14926KSTC STC20011122094010111/22/01 09:40:31  5-MIN KSTC 221540Z AUTO VRB03KT 10SM BKN100 02/01 A2959 1340 89 100 VRB/03 RMK AO2
14926KSTC STC20011122094510111/22/01 09:45:31  5-MIN KSTC 221545Z AUTO 07007KT 10SM BKN095 02/01 A2958 1340 89 200 070/07 RMK AO2
14926KSTC STC20011122095011811/22/01 09:50:31  5-MIN KSTC 221550Z AUTO 08008KT 10SM BKN090 02/01 A2957 1350 89 200 070/08 RMK AO2 SLP031 T00220006
14926KSTC STC20011122095510811/22/01 09:55:31  5-MIN KSTC 221555Z AUTO 09005KT 10SM SCT080 BKN095 02/01 A2957 1350 89 200 080/05 RMK AO2
14926KSTC STC20011122100010111/22/01 10:00:31  5-MIN KSTC 221600Z AUTO 07006KT 10SM BKN090 02/01 A2957 1350 89 200 070/06 RMK AO2
14926KSTC STC20011122100510111/22/01 10:05:31  5-MIN KSTC 221605Z AUTO 09007KT 10SM BKN085 02/01 A2958 1350 89 200 090/07 RMK AO2
14926KSTC STC20011122101010811/22/01 10:10:31  5-MIN KSTC 221610Z AUTO 07007KT 10SM BKN075 BKN090 02/01 A2957 1350 89 200 070/07 RMK AO2
14926KSTC STC20011122101510111/22/01 10:15:31  5-MIN KSTC 221615Z AUTO 09007KT 10SM SCT070 02/01 A2957 1350 89 200 090/07 RMK AO2
14926KSTC STC20011122102010811/22/01 10:20:31  5-MIN KSTC 221620Z AUTO 07007KT 10SM SCT080 BKN100 02/01 A2957 1350 89 200 070/07 RMK AO2
14926KSTC STC20011122102510811/22/01 10:25:31  5-MIN KSTC 221625Z AUTO 08009KT 10SM SCT085 BKN100 02/01 A2956 1360 89 200 080/09 RMK AO2
14926KSTC STC20011122103010811/22/01 10:30:31  5-MIN KSTC 221630Z AUTO 08007KT 10SM FEW080 BKN100 03/01 A2957 1360 85 200 080/07 RMK AO2
14926KSTC STC20011122103510811/22/01 10:35:31  5-MIN KSTC 221635Z AUTO 09009KT 10SM FEW090 SCT100 03/01 A2956 1360 89 200 090/09 RMK AO2
14926KSTC STC20011122104010111/22/01 10:40:31  5-MIN KSTC 221640Z AUTO 08009KT 10SM SCT100 03/01 A2956 1370 89 300 080/09 RMK AO2
14926KSTC STC20011122104510111/22/01 10:45:31  5-MIN KSTC 221645Z AUTO 08009KT 10SM SCT100 03/01 A2955 1370 85 300 070/09 RMK AO2
14926KSTC STC20011122105011811/22/01 10:50:31  5-MIN KSTC 221650Z AUTO 07010KT 10SM SCT110 03/01 A2955 1370 85 300 070/10 RMK AO2 SLP025 T00330011
14926KSTC STC20011122105510111/22/01 10:55:31  5-MIN KSTC 221655Z AUTO 07010KT 10SM FEW110 03/01 A2955 1380 85 300 070/10 RMK AO2
14926KSTC STC20011122110010111/22/01 11:00:31  5-MIN KSTC 221700Z AUTO 07008KT 10SM FEW110 04/01 A2954 1380 82 400 070/08 RMK AO2
14926KSTC STC20011122110510111/22/01 11:05:31  5-MIN KSTC 221705Z AUTO 09009KT 10SM FEW110 04/01 A2954 1380 82 400 090/09 RMK AO2
14926KSTC STC20011122111010111/22/01 11:10:31  5-MIN KSTC 221710Z AUTO 07009KT 10SM FEW110 04/01 A2954 1380 79 500 070/09 RMK AO2
14926KSTC STC20011122111509811/22/01 11:15:31  5-MIN KSTC 221715Z AUTO 09009KT 10SM CLR 04/01 A2953 1390 79 500 090/09 RMK AO2
14926KSTC STC20011122112009811/22/01 11:20:31  5-MIN KSTC 221720Z AUTO 08006KT 10SM CLR 04/02 A2953 1390 82 500 070/06 RMK AO2
14926KSTC STC20011122112509811/22/01 11:25:31  5-MIN KSTC 221725Z AUTO 09008KT 10SM CLR 05/02 A2953 1390 79 600 090/08 RMK AO2
14926KSTC STC20011122113009811/22/01 11:30:31  5-MIN KSTC 221730Z AUTO 07008KT 10SM CLR 05/02 A2953 1390 79 600 060/08 RMK AO2
14926KSTC STC20011122113509811/22/01 11:35:31  5-MIN KSTC 221735Z AUTO 07008KT 10SM CLR 06/02 A2952 1390 76 600 070/08 RMK AO2
14926KSTC STC20011122114009811/22/01 11:40:31  5-MIN KSTC 221740Z AUTO 09009KT 10SM CLR 06/02 A2952 1400 76 600 090/09 RMK AO2
14926KSTC STC20011122114509811/22/01 11:45:31  5-MIN KSTC 221745Z AUTO 08007KT 10SM CLR 06/02 A2952 1400 73 700 080/07 RMK AO2
14926KSTC STC20011122115013311/22/01 11:50:31  5-MIN KSTC 221750Z AUTO 06007KT 10SM CLR 06/02 A2952 1400 73 700 060/07 RMK AO2 SLP013 T00610017 10061 20006 58015
14926KSTC STC20011122115509811/22/01 11:55:31  5-MIN KSTC 221755Z AUTO 07008KT 10SM CLR 06/02 A2951 1400 73 700 070/08 RMK AO2
14926KSTC STC20011122120009811/22/01 12:00:31  5-MIN KSTC 221800Z AUTO 07006KT 10SM CLR 06/02 A2952 1400 73 700 070/06 RMK AO2
14926KSTC STC20011122120509811/22/01 12:05:31  5-MIN KSTC 221805Z AUTO 08004KT 10SM CLR 07/02 A2952 1400 73 800 080/04 RMK AO2
14926KSTC STC20011122121009811/22/01 12:10:31  5-MIN KSTC 221810Z AUTO 09006KT 10SM CLR 07/02 A2952 1400 73 800 090/06 RMK AO2
14926KSTC STC20011122121509811/22/01 12:15:31  5-MIN KSTC 221815Z AUTO 10007KT 10SM CLR 07/02 A2952 1400 70 800 100/07 RMK AO2
14926KSTC STC20011122122009811/22/01 12:20:31  5-MIN KSTC 221820Z AUTO 07007KT 10SM CLR 07/02 A2951 1400 70 800 070/07 RMK AO2
14926KSTC STC20011122122509811/22/01 12:25:31  5-MIN KSTC 221825Z AUTO 09005KT 10SM CLR 08/02 A2951 1410 68 900 090/05 RMK AO2
14926KSTC STC20011122123009811/22/01 12:30:31  5-MIN KSTC 221830Z AUTO 10006KT 10SM CLR 08/02 A2951 1410 68 900 100/06 RMK AO2
14926KSTC STC20011122123509811/22/01 12:35:31  5-MIN KSTC 221835Z AUTO 13007KT 10SM CLR 08/02 A2951 1410 68 900 120/07 RMK AO2
14926KSTC STC20011122124011411/22/01 12:40:31  5-MIN KSTC 221840Z AUTO 12007KT 080V150 10SM CLR 08/02 A2951 1410 68 900 120/07 080V150 RMK AO2
14926KSTC STC20011122124509811/22/01 12:45:31  5-MIN KSTC 221845Z AUTO 11009KT 10SM CLR 08/02 A2950 1420 68 900 110/09 RMK AO2
14926KSTC STC20011122125011511/22/01 12:50:31  5-MIN KSTC 221850Z AUTO 13008KT 10SM CLR 07/02 A2950 1420 68 900 130/08 RMK AO2 SLP007 T00720017
14926KSTC STC20011122125509811/22/01 12:55:31  5-MIN KSTC 221855Z AUTO 14009KT 10SM CLR 08/02 A2950 1420 68 900 140/09 RMK AO2
14926KSTC STC20011122130009811/22/01 13:00:31  5-MIN KSTC 221900Z AUTO 14011KT 10SM CLR 08/02 A2951 1410 68 900 140/11 RMK AO2
14926KSTC STC20011122130509811/22/01 13:05:31  5-MIN KSTC 221905Z AUTO 15010KT 10SM CLR 07/02 A2951 1410 70 800 140/10 RMK AO2
14926KSTC STC20011122131009811/22/01 13:10:31  5-MIN KSTC 221910Z AUTO 14010KT 10SM CLR 07/02 A2951 1410 70 900 130/10 RMK AO2
14926KSTC STC20011122131509811/22/01 13:15:31  5-MIN KSTC 221915Z AUTO 14010KT 10SM CLR 07/02 A2951 1410 70 900 140/10 RMK AO2
14926KSTC STC20011122132009811/22/01 13:20:31  5-MIN KSTC 221920Z AUTO 13006KT 10SM CLR 07/02 A2950 1410 68 900 130/06 RMK AO2
14926KSTC STC20011122132509811/22/01 13:25:31  5-MIN KSTC 221925Z AUTO 15009KT 10SM CLR 07/02 A2950 1420 70 900 140/09 RMK AO2
14926KSTC STC20011122133009811/22/01 13:30:31  5-MIN KSTC 221930Z AUTO VRB05KT 10SM CLR 08/02 A2950 1420 68 900 VRB/05 RMK AO2
14926KSTC STC20011122133509811/22/01 13:35:31  5-MIN KSTC 221935Z AUTO 13009KT 10SM CLR 08/02 A2950 1420 68 900 130/09 RMK AO2
14926KSTC STC20011122134009811/22/01 13:40:31  5-MIN KSTC 221940Z AUTO 12008KT 10SM CLR 07/02 A2950 1420 70 900 120/08 RMK AO2
14926KSTC STC20011122134509811/22/01 13:45:31  5-MIN KSTC 221945Z AUTO 15006KT 10SM CLR 07/02 A2950 1410 70 900 140/06 RMK AO2
14926KSTC STC20011122135011511/22/01 13:50:31  5-MIN KSTC 221950Z AUTO 15007KT 10SM CLR 07/02 A2950 1410 70 900 140/07 RMK AO2 SLP008 T00720022
14926KSTC STC20011122135510111/22/01 13:55:31  5-MIN KSTC 221955Z AUTO 12005KT 10SM FEW019 07/02 A2950 1410 70 900 120/05 RMK AO2
14926KSTC STC20011122140010111/22/01 14:00:31  5-MIN KSTC 222000Z AUTO 11004KT 10SM SCT019 07/02 A2951 1410 70 900 110/04 RMK AO2
14926KSTC STC20011122140510111/22/01 14:05:31  5-MIN KSTC 222005Z AUTO VRB05KT 10SM SCT019 07/02 A2950 1420 70 900 VRB/05 RMK AO2
14926KSTC STC20011122141010111/22/01 14:10:31  5-MIN KSTC 222010Z AUTO 11006KT 10SM SCT019 07/02 A2950 1420 70 900 100/06 RMK AO2
14926KSTC STC20011122141510111/22/01 14:15:31  5-MIN KSTC 222015Z AUTO 12006KT 10SM SCT019 07/02 A2950 1420 70 900 120/06 RMK AO2
14926KSTC STC20011122142010111/22/01 14:20:31  5-MIN KSTC 222020Z AUTO 09005KT 10SM SCT019 07/02 A2950 1420 70 900 090/05 RMK AO2
14926KSTC STC20011122142510111/22/01 14:25:31  5-MIN KSTC 222025Z AUTO 11006KT 10SM BKN019 07/02 A2950 1420 70 900 110/06 RMK AO2
14926KSTC STC20011122143010111/22/01 14:30:31  5-MIN KSTC 222030Z AUTO 10006KT 10SM BKN021 07/02 A2950 1420 70 900 100/06 RMK AO2
14926KSTC STC20011122143510111/22/01 14:35:31  5-MIN KSTC 222035Z AUTO VRB06KT 10SM SCT021 08/02 A2950 1420 68 900 VRB/06 RMK AO2
14926KSTC STC20011122144010111/22/01 14:40:31  5-MIN KSTC 222040Z AUTO 13005KT 10SM SCT021 08/02 A2950 1420 68 900 130/05 RMK AO2
14926KSTC STC20011122144510111/22/01 14:45:31  5-MIN KSTC 222045Z AUTO 11006KT 10SM SCT021 08/03 A2950 1420 70 900 110/06 RMK AO2
14926KSTC STC20011122145012411/22/01 14:50:31  5-MIN KSTC 222050Z AUTO 08005KT 10SM SCT021 08/02 A2950 1420 68 900 080/05 RMK AO2 SLP006 T00780022 58017
14926KSTC STC20011122145510111/22/01 14:55:31  5-MIN KSTC 222055Z AUTO 08006KT 10SM FEW021 08/02 A2950 1420 68 900 080/06 RMK AO2
14926KSTC STC20011122150010111/22/01 15:00:31  5-MIN KSTC 222100Z AUTO 09006KT 10SM FEW023 08/02 A2950 1420 68 900 080/06 RMK AO2
14926KSTC STC20011122150510111/22/01 15:05:31  5-MIN KSTC 222105Z AUTO 07007KT 10SM FEW023 08/02 A2950 1420 68 900 060/07 RMK AO2
14926KSTC STC20011122151010111/22/01 15:10:31  5-MIN KSTC 222110Z AUTO 07006KT 10SM FEW023 08/02 A2950 1420 68 900 070/06 RMK AO2
14926KSTC STC20011122151509811/22/01 15:15:31  5-MIN KSTC 222115Z AUTO 06007KT 10SM CLR 08/02 A2951 1410 68 900 050/07 RMK AO2
14926KSTC STC20011122152009811/22/01 15:20:31  5-MIN KSTC 222120Z AUTO 08006KT 10SM CLR 08/02 A2951 1410 68 900 080/06 RMK AO2
14926KSTC STC20011122152509811/22/01 15:25:31  5-MIN KSTC 222125Z AUTO 07006KT 10SM CLR 08/02 A2951 1410 68 900 070/06 RMK AO2
14926KSTC STC20011122153009811/22/01 15:30:31  5-MIN KSTC 222130Z AUTO 05006KT 10SM CLR 08/03 A2951 1410 70 900 050/06 RMK AO2
14926KSTC STC20011122153509811/22/01 15:35:31  5-MIN KSTC 222135Z AUTO 07004KT 10SM CLR 08/03 A2952 1400 70 900 060/04 RMK AO2
14926KSTC STC20011122154009811/22/01 15:40:31  5-MIN KSTC 222140Z AUTO 06006KT 10SM CLR 08/03 A2952 1400 70 900 060/06 RMK AO2
14926KSTC STC20011122154509811/22/01 15:45:31  5-MIN KSTC 222145Z AUTO 07005KT 10SM CLR 07/03 A2952 1400 73 800 060/05 RMK AO2
14926KSTC STC20011122155011511/22/01 15:50:31  5-MIN KSTC 222150Z AUTO 06005KT 10SM CLR 07/03 A2952 1400 73 800 060/05 RMK AO2 SLP013 T00720028
14926KSTC STC20011122155509811/22/01 15:55:31  5-MIN KSTC 222155Z AUTO 06006KT 10SM CLR 07/03 A2953 1390 73 800 060/06 RMK AO2
14926KSTC STC20011122160009811/22/01 16:00:31  5-MIN KSTC 222200Z AUTO 05005KT 10SM CLR 07/03 A2953 1390 73 800 050/05 RMK AO2
14926KSTC STC20011122160509811/22/01 16:05:31  5-MIN KSTC 222205Z AUTO 05005KT 10SM CLR 07/03 A2953 1390 73 800 050/05 RMK AO2
14926KSTC STC20011122161009811/22/01 16:10:31  5-MIN KSTC 222210Z AUTO 05004KT 10SM CLR 07/03 A2953 1390 73 800 040/04 RMK AO2
14926KSTC STC20011122161509811/22/01 16:15:31  5-MIN KSTC 222215Z AUTO 05005KT 10SM CLR 07/03 A2953 1390 76 800 040/05 RMK AO2
14926KSTC STC20011122162009811/22/01 16:20:31  5-MIN KSTC 222220Z AUTO 04005KT 10SM CLR 07/03 A2953 1390 76 800 040/05 RMK AO2
14926KSTC STC20011122162509811/22/01 16:25:31  5-MIN KSTC 222225Z AUTO 04006KT 10SM CLR 07/03 A2953 1390 76 800 030/06 RMK AO2
14926KSTC STC20011122163009811/22/01 16:30:31  5-MIN KSTC 222230Z AUTO 04006KT 10SM CLR 06/03 A2953 1390 79 700 030/06 RMK AO2
14926KSTC STC20011122163509811/22/01 16:35:31  5-MIN KSTC 222235Z AUTO 04006KT 10SM CLR 06/03 A2953 1390 79 700 040/06 RMK AO2
14926KSTC STC20011122164009811/22/01 16:40:31  5-MIN KSTC 222240Z AUTO 04005KT 10SM CLR 06/03 A2953 1390 79 700 040/05 RMK AO2
14926KSTC STC20011122164509811/22/01 16:45:31  5-MIN KSTC 222245Z AUTO 05005KT 10SM CLR 06/03 A2954 1380 82 600 040/05 RMK AO2
14926KSTC STC20011122165011511/22/01 16:50:31  5-MIN KSTC 222250Z AUTO 05005KT 10SM CLR 06/02 A2953 1390 79 600 040/05 RMK AO2 SLP017 T00560022
14926KSTC STC20011122165509811/22/01 16:55:31  5-MIN KSTC 222255Z AUTO 04005KT 10SM CLR 05/02 A2953 1390 82 600 040/05 RMK AO2
14926KSTC STC20011122170009811/22/01 17:00:31  5-MIN KSTC 222300Z AUTO 04005KT 10SM CLR 05/02 A2953 1390 82 600 040/05 RMK AO2
14926KSTC STC20011122170509811/22/01 17:05:31  5-MIN KSTC 222305Z AUTO 05006KT 10SM CLR 05/02 A2953 1390 82 600 040/06 RMK AO2
14926KSTC STC20011122171009811/22/01 17:10:31  5-MIN KSTC 222310Z AUTO 05006KT 10SM CLR 05/02 A2953 1390 82 600 040/06 RMK AO2
14926KSTC STC20011122171509811/22/01 17:15:31  5-MIN KSTC 222315Z AUTO 04006KT 10SM CLR 05/02 A2953 1390 82 600 040/06 RMK AO2
14926KSTC STC20011122172009811/22/01 17:20:31  5-MIN KSTC 222320Z AUTO 04006KT 10SM CLR 05/02 A2953 1390 82 600 040/06 RMK AO2
14926KSTC STC20011122172509811/22/01 17:25:31  5-MIN KSTC 222325Z AUTO 05007KT 10SM CLR 04/02 A2953 1390 85 500 040/07 RMK AO2
14926KSTC STC20011122173009811/22/01 17:30:31  5-MIN KSTC 222330Z AUTO 05006KT 10SM CLR 05/02 A2953 1390 82 600 050/06 RMK AO2
14926KSTC STC20011122173509811/22/01 17:35:31  5-MIN KSTC 222335Z AUTO 05006KT 10SM CLR 04/02 A2953 1390 85 500 050/06 RMK AO2
14926KSTC STC20011122174009711/22/01 17:40:31  5-MIN KSTC 222340Z AUTO 05007KT 9SM CLR 04/02 A2953 1390 85 500 050/07 RMK AO2
14926KSTC STC20011122174509711/22/01 17:45:31  5-MIN KSTC 222345Z AUTO 05007KT 9SM CLR 04/02 A2953 1390 85 500 050/07 RMK AO2
14926KSTC STC20011122175013211/22/01 17:50:31  5-MIN KSTC 222350Z AUTO 05006KT 9SM CLR 04/02 A2953 1390 85 500 050/06 RMK AO2 SLP016 T00440022 10078 20044 56005
14926KSTC STC20011122175509711/22/01 17:55:31  5-MIN KSTC 222355Z AUTO 05007KT 9SM CLR 04/02 A2953 1390 85 500 050/07 RMK AO2
14926KSTC STC20011122180009711/22/01 18:00:31  5-MIN KSTC 230000Z AUTO 05007KT 9SM CLR 04/02 A2953 1390 85 500 050/07 RMK AO2
14926KSTC STC20011122180509711/22/01 18:05:31  5-MIN KSTC 230005Z AUTO 05007KT 9SM CLR 04/02 A2953 1390 85 500 050/07 RMK AO2
14926KSTC STC20011122181009711/22/01 18:10:31  5-MIN KSTC 230010Z AUTO 05006KT 9SM CLR 04/02 A2953 1390 89 400 050/06 RMK AO2
14926KSTC STC20011122181509711/22/01 18:15:31  5-MIN KSTC 230015Z AUTO 05007KT 9SM CLR 04/02 A2953 1390 89 400 050/07 RMK AO2
14926KSTC STC20011122182009711/22/01 18:20:31  5-MIN KSTC 230020Z AUTO 05007KT 9SM CLR 04/02 A2953 1390 89 400 050/07 RMK AO2
14926KSTC STC20011122182509711/22/01 18:25:31  5-MIN KSTC 230025Z AUTO 05007KT 8SM CLR 04/02 A2953 1390 89 400 050/07 RMK AO2
14926KSTC STC20011122183009711/22/01 18:30:31  5-MIN KSTC 230030Z AUTO 05006KT 8SM CLR 04/02 A2953 1390 89 400 050/06 RMK AO2
14926KSTC STC20011122183509711/22/01 18:35:31  5-MIN KSTC 230035Z AUTO 05006KT 8SM CLR 04/02 A2953 1390 89 400 040/06 RMK AO2
14926KSTC STC20011122184009711/22/01 18:40:31  5-MIN KSTC 230040Z AUTO 05007KT 8SM CLR 04/02 A2953 1390 89 400 050/07 RMK AO2
14926KSTC STC20011122184509711/22/01 18:45:31  5-MIN KSTC 230045Z AUTO 05007KT 8SM CLR 04/02 A2952 1400 89 400 050/07 RMK AO2
14926KSTC STC20011122185011411/22/01 18:50:31  5-MIN KSTC 230050Z AUTO 05006KT 8SM CLR 04/02 A2952 1400 89 400 050/06 RMK AO2 SLP014 T00390022
14926KSTC STC20011122185509711/22/01 18:55:31  5-MIN KSTC 230055Z AUTO 04006KT 7SM CLR 04/02 A2952 1400 89 400 040/06 RMK AO2
14926KSTC STC20011122190009711/22/01 19:00:31  5-MIN KSTC 230100Z AUTO 05007KT 7SM CLR 04/02 A2952 1400 89 400 040/07 RMK AO2
14926KSTC STC20011122190509711/22/01 19:05:31  5-MIN KSTC 230105Z AUTO 05006KT 7SM CLR 04/02 A2952 1400 89 400 050/06 RMK AO2
14926KSTC STC20011122191009711/22/01 19:10:31  5-MIN KSTC 230110Z AUTO 05006KT 7SM CLR 04/02 A2952 1400 89 400 050/06 RMK AO2
14926KSTC STC20011122191509711/22/01 19:15:31  5-MIN KSTC 230115Z AUTO 06006KT 8SM CLR 04/02 A2951 1400 89 400 060/06 RMK AO2
14926KSTC STC20011122192009711/22/01 19:20:31  5-MIN KSTC 230120Z AUTO 05006KT 8SM CLR 04/02 A2951 1410 89 400 050/06 RMK AO2
14926KSTC STC20011122192509711/22/01 19:25:31  5-MIN KSTC 230125Z AUTO 05006KT 9SM CLR 04/02 A2951 1410 89 400 050/06 RMK AO2
14926KSTC STC20011122193009711/22/01 19:30:31  5-MIN KSTC 230130Z AUTO 06006KT 9SM CLR 04/02 A2951 1410 85 500 060/06 RMK AO2
14926KSTC STC20011122193509811/22/01 19:35:31  5-MIN KSTC 230135Z AUTO 05006KT 10SM CLR 04/02 A2951 1410 85 500 050/06 RMK AO2
14926KSTC STC20011122194009811/22/01 19:40:31  5-MIN KSTC 230140Z AUTO 05006KT 10SM CLR 04/02 A2951 1410 85 500 050/06 RMK AO2
14926KSTC STC20011122194509811/22/01 19:45:31  5-MIN KSTC 230145Z AUTO 05006KT 10SM CLR 04/02 A2951 1410 85 500 050/06 RMK AO2
14926KSTC STC20011122195011511/22/01 19:50:31  5-MIN KSTC 230150Z AUTO 05006KT 10SM CLR 04/02 A2951 1410 85 500 040/06 RMK AO2 SLP011 T00440022
14926KSTC STC20011122195509811/22/01 19:55:31  5-MIN KSTC 230155Z AUTO 05005KT 10SM CLR 04/02 A2951 1410 85 500 050/05 RMK AO2
14926KSTC STC20011122200009811/22/01 20:00:31  5-MIN KSTC 230200Z AUTO 04005KT 10SM CLR 04/02 A2951 1400 85 500 040/05 RMK AO2
14926KSTC STC20011122200509811/22/01 20:05:31  5-MIN KSTC 230205Z AUTO 05005KT 10SM CLR 04/02 A2952 1400 85 500 040/05 RMK AO2
14926KSTC STC20011122201009811/22/01 20:10:31  5-MIN KSTC 230210Z AUTO 04005KT 10SM CLR 04/02 A2952 1400 85 500 040/05 RMK AO2
14926KSTC STC20011122201509811/22/01 20:15:31  5-MIN KSTC 230215Z AUTO VRB04KT 10SM CLR 04/02 A2952 1400 85 500 VRB/04 RMK AO2
14926KSTC STC20011122202009811/22/01 20:20:31  5-MIN KSTC 230220Z AUTO 05005KT 10SM CLR 04/02 A2952 1400 85 500 040/05 RMK AO2
14926KSTC STC20011122202509811/22/01 20:25:31  5-MIN KSTC 230225Z AUTO 06005KT 10SM CLR 04/02 A2952 1400 89 400 050/05 RMK AO2
14926KSTC STC20011122203009811/22/01 20:30:31  5-MIN KSTC 230230Z AUTO 05005KT 10SM CLR 04/02 A2952 1400 89 400 050/05 RMK AO2
14926KSTC STC20011122203509811/22/01 20:35:31  5-MIN KSTC 230235Z AUTO 05006KT 10SM CLR 04/02 A2952 1400 85 400 050/06 RMK AO2
14926KSTC STC20011122204009811/22/01 20:40:31  5-MIN KSTC 230240Z AUTO 04005KT 10SM CLR 04/02 A2952 1400 85 400 040/05 RMK AO2
14926KSTC STC20011122204509811/22/01 20:45:31  5-MIN KSTC 230245Z AUTO 04006KT 10SM CLR 04/02 A2951 1400 85 400 040/06 RMK AO2
14926KSTC STC20011122205012111/22/01 20:50:31  5-MIN KSTC 230250Z AUTO 04006KT 10SM CLR 04/02 A2951 1400 85 400 040/06 RMK AO2 SLP012 T00390017 50009
14926KSTC STC20011122205509811/22/01 20:55:31  5-MIN KSTC 230255Z AUTO 05005KT 10SM CLR 04/02 A2952 1400 85 400 040/05 RMK AO2
14926KSTC STC20011122210009811/22/01 21:00:31  5-MIN KSTC 230300Z AUTO 05006KT 10SM CLR 03/02 A2951 1410 89 400 050/06 RMK AO2
14926KSTC STC20011122210509811/22/01 21:05:31  5-MIN KSTC 230305Z AUTO 06005KT 10SM CLR 03/02 A2951 1410 89 400 050/05 RMK AO2
14926KSTC STC20011122211009811/22/01 21:10:31  5-MIN KSTC 230310Z AUTO 06005KT 10SM CLR 03/02 A2951 1410 89 400 050/05 RMK AO2
14926KSTC STC20011122211509811/22/01 21:15:31  5-MIN KSTC 230315Z AUTO 06006KT 10SM CLR 03/02 A2951 1410 89 400 050/06 RMK AO2
14926KSTC STC20011122212009811/22/01 21:20:31  5-MIN KSTC 230320Z AUTO 06005KT 10SM CLR 03/02 A2951 1410 89 400 050/05 RMK AO2
14926KSTC STC20011122212509811/22/01 21:25:31  5-MIN KSTC 230325Z AUTO 05006KT 10SM CLR 03/02 A2951 1410 89 400 050/06 RMK AO2
14926KSTC STC20011122213009811/22/01 21:30:31  5-MIN KSTC 230330Z AUTO 06006KT 10SM CLR 03/02 A2951 1410 89 400 050/06 RMK AO2
14926KSTC STC20011122213509811/22/01 21:35:31  5-MIN KSTC 230335Z AUTO 05005KT 10SM CLR 03/02 A2951 1410 89 400 050/05 RMK AO2
14926KSTC STC20011122214009811/22/01 21:40:31  5-MIN KSTC 230340Z AUTO 05006KT 10SM CLR 04/02 A2951 1410 85 400 050/06 RMK AO2
14926KSTC STC20011122214509811/22/01 21:45:31  5-MIN KSTC 230345Z AUTO 05004KT 10SM CLR 04/02 A2951 1410 85 400 050/04 RMK AO2
14926KSTC STC20011122215011511/22/01 21:50:31  5-MIN KSTC 230350Z AUTO 05005KT 10SM CLR 04/02 A2951 1410 85 400 050/05 RMK AO2 SLP009 T00390017
14926KSTC STC20011122215509811/22/01 21:55:31  5-MIN KSTC 230355Z AUTO 05005KT 10SM CLR 04/02 A2951 1410 85 400 050/05 RMK AO2
14926KSTC STC20011122220009811/22/01 22:00:31  5-MIN KSTC 230400Z AUTO 04005KT 10SM CLR 04/02 A2951 1410 85 400 040/05 RMK AO2
14926KSTC STC20011122220509811/22/01 22:05:31  5-MIN KSTC 230405Z AUTO 05005KT 10SM CLR 04/02 A2951 1410 89 400 050/05 RMK AO2
14926KSTC STC20011122221009811/22/01 22:10:31  5-MIN KSTC 230410Z AUTO 04005KT 10SM CLR 04/02 A2951 1410 89 400 040/05 RMK AO2
14926KSTC STC20011122221509811/22/01 22:15:31  5-MIN KSTC 230415Z AUTO 04005KT 10SM CLR 04/02 A2951 1410 85 400 040/05 RMK AO2
14926KSTC STC20011122222009811/22/01 22:20:31  5-MIN KSTC 230420Z AUTO 01003KT 10SM CLR 04/02 A2951 1410 85 400 010/03 RMK AO2
14926KSTC STC20011122222509811/22/01 22:25:31  5-MIN KSTC 230425Z AUTO 02004KT 10SM CLR 04/02 A2951 1410 85 400 020/04 RMK AO2
14926KSTC STC20011122223009811/22/01 22:30:31  5-MIN KSTC 230430Z AUTO 02004KT 10SM CLR 03/02 A2951 1410 89 400 020/04 RMK AO2
14926KSTC STC20011122223509811/22/01 22:35:31  5-MIN KSTC 230435Z AUTO 03005KT 10SM CLR 03/02 A2951 1410 89 400 030/05 RMK AO2
14926KSTC STC20011122224009811/22/01 22:40:31  5-MIN KSTC 230440Z AUTO 03005KT 10SM CLR 03/02 A2951 1410 89 400 030/05 RMK AO2
14926KSTC STC20011122224509811/22/01 22:45:31  5-MIN KSTC 230445Z AUTO 04005KT 10SM CLR 03/02 A2951 1410 89 400 030/05 RMK AO2
14926KSTC STC20011122225011511/22/01 22:50:31  5-MIN KSTC 230450Z AUTO 04004KT 10SM CLR 03/02 A2951 1410 89 400 040/04 RMK AO2 SLP009 T00330017
14926KSTC STC20011122225509811/22/01 22:55:31  5-MIN KSTC 230455Z AUTO 03005KT 10SM CLR 03/02 A2951 1410 89 400 030/05 RMK AO2
14926KSTC STC20011122230009811/22/01 23:00:31  5-MIN KSTC 230500Z AUTO 03004KT 10SM CLR 03/02 A2951 1410 89 400 020/04 RMK AO2
14926KSTC STC20011122230509811/22/01 23:05:31  5-MIN KSTC 230505Z AUTO 03003KT 10SM CLR 03/02 A2951 1410 89 400 030/03 RMK AO2
14926KSTC STC20011122231009811/22/01 23:10:31  5-MIN KSTC 230510Z AUTO 05003KT 10SM CLR 04/02 A2952 1400 85 400 040/03 RMK AO2
14926KSTC STC20011122231510111/22/01 23:15:31  5-MIN KSTC 230515Z AUTO 00000KT 10SM FEW120 03/02 A2952 1400 89 400 000/00 RMK AO2
14926KSTC STC20011122232009811/22/01 23:20:31  5-MIN KSTC 230520Z AUTO 04005KT 10SM CLR 03/02 A2951 1410 89 400 030/05 RMK AO2
14926KSTC STC20011122232509811/22/01 23:25:31  5-MIN KSTC 230525Z AUTO 04004KT 10SM CLR 03/02 A2952 1400 89 400 040/04 RMK AO2
14926KSTC STC20011122233010111/22/01 23:30:31  5-MIN KSTC 230530Z AUTO 07003KT 10SM BKN120 03/02 A2952 1400 89 400 060/03 RMK AO2
14926KSTC STC20011122233510111/22/01 23:35:31  5-MIN KSTC 230535Z AUTO 00000KT 10SM BKN120 03/02 A2952 1400 89 400 000/00 RMK AO2
14926KSTC STC20011122234010111/22/01 23:40:31  5-MIN KSTC 230540Z AUTO 06003KT 10SM BKN120 03/02 A2953 1390 89 400 050/03 RMK AO2
14926KSTC STC20011122234510111/22/01 23:45:31  5-MIN KSTC 230545Z AUTO 03003KT 10SM BKN120 03/02 A2953 1390 92 300 030/03 RMK AO2
14926KSTC STC20011122235014611/22/01 23:50:31  5-MIN KSTC 230550Z AUTO 03004KT 10SM SCT120 03/02 A2953 1390 89 400 020/04 RMK AO2 SLP014 T00330017 10044 20028 400781022 55004
14926KSTC STC20011122235510011/22/01 23:55:31  5-MIN KSTC 230555Z AUTO 03004KT 9SM SCT120 03/02 A2953 1390 92 300 030/04 RMK AO2
14926KSTC STC20011123000010011/23/01 00:00:31  5-MIN KSTC 230600Z AUTO 03004KT 9SM FEW120 03/02 A2953 1390 89 400 030/04 RMK AO2
14926KSTC STC20011123000510011/23/01 00:05:31  5-MIN KSTC 230605Z AUTO 00000KT 9SM SCT120 03/02 A2953 1390 89 400 000/00 RMK AO2
14926KSTC STC20011123001010011/23/01 00:10:31  5-MIN KSTC 230610Z AUTO 00000KT 9SM FEW120 03/02 A2953 1390 89 400 000/00 RMK AO2
14926KSTC STC20011123001510011/23/01 00:15:31  5-MIN KSTC 230615Z AUTO 00000KT 9SM FEW120 03/02 A2953 1390 92 300 000/00 RMK AO2
14926KSTC STC20011123002010011/23/01 00:20:31  5-MIN KSTC 230620Z AUTO 00000KT 9SM SCT120 03/02 A2953 1390 92 300 000/00 RMK AO2
14926KSTC STC20011123002510011/23/01 00:25:31  5-MIN KSTC 230625Z AUTO 00000KT 9SM SCT120 03/02 A2953 1390 92 300 000/00 RMK AO2
14926KSTC STC20011123003010011/23/01 00:30:31  5-MIN KSTC 230630Z AUTO 00000KT 9SM SCT120 03/02 A2953 1390 89 300 000/00 RMK AO2
14926KSTC STC20011123003510011/23/01 00:35:31  5-MIN KSTC 230635Z AUTO 00000KT 8SM FEW120 03/02 A2953 1390 92 300 000/00 RMK AO2
14926KSTC STC20011123004010011/23/01 00:40:31  5-MIN KSTC 230640Z AUTO 00000KT 8SM FEW120 03/02 A2953 1390 92 300 000/00 RMK AO2
14926KSTC STC20011123004510011/23/01 00:45:31  5-MIN KSTC 230645Z AUTO 00000KT 8SM FEW120 03/02 A2953 1390 92 300 000/00 RMK AO2
14926KSTC STC20011123005011711/23/01 00:50:31  5-MIN KSTC 230650Z AUTO 00000KT 8SM FEW120 03/02 A2953 1390 92 300 000/00 RMK AO2 SLP016 T00280017
14926KSTC STC20011123005510011/23/01 00:55:31  5-MIN KSTC 230655Z AUTO 04003KT 8SM SCT120 03/02 A2954 1380 92 300 040/03 RMK AO2
14926KSTC STC20011123010010011/23/01 01:00:31  5-MIN KSTC 230700Z AUTO 03003KT 8SM BKN110 03/02 A2954 1380 92 300 030/03 RMK AO2
14926KSTC STC20011123010510011/23/01 01:05:31  5-MIN KSTC 230705Z AUTO 02003KT 8SM BKN110 02/02 A2954 1380 96 200 020/03 RMK AO2
14926KSTC STC20011123011010011/23/01 01:10:31  5-MIN KSTC 230710Z AUTO 00000KT 8SM BKN110 02/02 A2954 1380 96 200 000/00 RMK AO2
14926KSTC STC20011123011510011/23/01 01:15:31  5-MIN KSTC 230715Z AUTO 00000KT 7SM OVC110 02/02 A2955 1370 96 200 000/00 RMK AO2
14926KSTC STC20011123012010011/23/01 01:20:31  5-MIN KSTC 230720Z AUTO 30003KT 7SM OVC110 02/02 A2955 1370 96 200 300/03 RMK AO2
14926KSTC STC20011123012510011/23/01 01:25:31  5-MIN KSTC 230725Z AUTO 31005KT 7SM OVC110 02/02 A2955 1370 96 200 310/05 RMK AO2
14926KSTC STC20011123013010311/23/01 01:30:31  5-MIN KSTC 230730Z AUTO 32005KT 6SM BR OVC110 02/02 A2955 1370 96 200 320/05 RMK AO2
14926KSTC STC20011123013510011/23/01 01:35:31  5-MIN KSTC 230735Z AUTO 34004KT 7SM OVC110 02/02 A2955 1370 96 200 330/04 RMK AO2
14926KSTC STC20011123014010311/23/01 01:40:31  5-MIN KSTC 230740Z AUTO 36004KT 6SM BR OVC110 02/01 A2955 1370 96 100 350/04 RMK AO2
14926KSTC STC20011123014510311/23/01 01:45:31  5-MIN KSTC 230745Z AUTO 35005KT 6SM BR OVC110 02/01 A2955 1370 96 100 350/05 RMK AO2
14926KSTC STC20011123015012011/23/01 01:50:31  5-MIN KSTC 230750Z AUTO 36005KT 5SM BR OVC110 02/01 A2955 1370 96 100 360/05 RMK AO2 SLP021 T00170011
14926KSTC STC20011123015510111/23/01 01:55:31  5-MIN KSTC 230755Z AUTO 35003KT 5SM BR OVC110 01/01 A2955 1370 96 0 340/03 RMK AO2
14926KSTC STC20011123020011011/23/01 02:00:31  5-MIN KSTC 230800Z AUTO 25003KT 6SM BR OVC110 02/01 A2957 1350 96 100 250/03 RMK AO2 PRESRR
14926KSTC STC20011123020510211/23/01 02:05:31  5-MIN KSTC 230805Z AUTO 29004KT 6SM BR OVC100 01/01 A2957 1350 100 0 290/04 RMK AO2
14926KSTC STC20011123021010311/23/01 02:10:31  5-MIN KSTC 230810Z AUTO 27005KT 6SM BR BKN100 02/01 A2958 1350 96 100 270/05 RMK AO2
14926KSTC STC20011123021510211/23/01 02:15:31  5-MIN KSTC 230815Z AUTO 28004KT 6SM BR BKN100 01/01 A2957 1350 100 0 280/04 RMK AO2
14926KSTC STC20011123022010211/23/01 02:20:31  5-MIN KSTC 230820Z AUTO 27003KT 5SM BR SCT100 01/01 A2958 1340 100 0 270/03 RMK AO2
14926KSTC STC20011123022510111/23/01 02:25:31  5-MIN KSTC 230825Z AUTO 25005KT 5SM BR FEW100 01/01 A2958 1340 96 0 250/05 RMK AO2
14926KSTC STC20011123023010111/23/01 02:30:31  5-MIN KSTC 230830Z AUTO 25004KT 5SM BR FEW090 01/01 A2958 1340 96 0 250/04 RMK AO2
14926KSTC STC20011123023510111/23/01 02:35:31  5-MIN KSTC 230835Z AUTO 00000KT 4SM BR FEW100 01/01 A2958 1340 96 0 000/00 RMK AO2
14926KSTC STC20011123024010211/23/01 02:40:31  5-MIN KSTC 230840Z AUTO 00000KT 4SM BR SCT100 01/01 A2958 1340 100 0 000/00 RMK AO2
14926KSTC STC20011123024510111/23/01 02:45:31  5-MIN KSTC 230845Z AUTO 31003KT 4SM BR SCT095 01/01 A2958 1340 96 0 310/03 RMK AO2
14926KSTC STC20011123025012411/23/01 02:50:31  5-MIN KSTC 230850Z AUTO 31003KT 4SM BR SCT100 01/01 A2958 1340 96 0 310/03 RMK AO2 SLP033 T00110006 53003
14926KSTC STC20011123025510111/23/01 02:55:31  5-MIN KSTC 230855Z AUTO 34003KT 4SM BR BKN100 01/01 A2958 1340 96 0 340/03 RMK AO2
14926KSTC STC20011123030010211/23/01 03:00:31  5-MIN KSTC 230900Z AUTO 36003KT 4SM BR BKN100 01/01 A2958 1340 100 0 360/03 RMK AO2
14926KSTC STC20011123030510211/23/01 03:05:31  5-MIN KSTC 230905Z AUTO 36004KT 4SM BR BKN100 01/01 A2958 1350 100 0 360/04 RMK AO2
14926KSTC STC20011123031010111/23/01 03:10:31  5-MIN KSTC 230910Z AUTO 36006KT 4SM BR BKN110 01/01 A2957 1350 96 0 360/06 RMK AO2
14926KSTC STC20011123031510111/23/01 03:15:31  5-MIN KSTC 230915Z AUTO 36006KT 4SM BR BKN110 01/01 A2957 1350 96 0 360/06 RMK AO2
14926KSTC STC20011123032010911/23/01 03:20:31  5-MIN KSTC 230920Z AUTO 36004KT 4SM BR FEW090 BKN110 01/01 A2958 1350 100 0 360/04 RMK AO2
14926KSTC STC20011123032510911/23/01 03:25:31  5-MIN KSTC 230925Z AUTO 36005KT 4SM BR SCT090 BKN110 01/01 A2958 1350 100 0 350/05 RMK AO2
14926KSTC STC20011123033011011/23/01 03:30:31  5-MIN KSTC 230930Z AUTO 35005KT 5SM BR BKN085 BKN110 02/01 A2958 1340 96 100 350/05 RMK AO2
14926KSTC STC20011123033511011/23/01 03:35:31  5-MIN KSTC 230935Z AUTO 35004KT 5SM BR BKN085 BKN110 02/01 A2958 1340 96 100 350/04 RMK AO2
14926KSTC STC20011123034011011/23/01 03:40:31  5-MIN KSTC 230940Z AUTO 36004KT 5SM BR BKN085 BKN110 02/01 A2958 1340 96 100 350/04 RMK AO2
14926KSTC STC20011123034510311/23/01 03:45:31  5-MIN KSTC 230945Z AUTO 01004KT 5SM BR BKN080 02/01 A2958 1340 96 100 010/04 RMK AO2
14926KSTC STC20011123035012111/23/01 03:50:31  5-MIN KSTC 230950Z AUTO 01003KT 5SM BR BKN080 02/02 A2958 1340 100 100 010/03 RMK AO2 SLP033 T00170017
14926KSTC STC20011123035510311/23/01 03:55:31  5-MIN KSTC 230955Z AUTO 01003KT 5SM BR SCT080 02/02 A2958 1340 96 200 010/03 RMK AO2
14926KSTC STC20011123040010311/23/01 04:00:31  5-MIN KSTC 231000Z AUTO 01004KT 5SM BR FEW080 02/01 A2958 1340 96 100 010/04 RMK AO2
14926KSTC STC20011123040510311/23/01 04:05:31  5-MIN KSTC 231005Z AUTO 01004KT 5SM BR FEW075 02/01 A2958 1340 96 100 360/04 RMK AO2
14926KSTC STC20011123041011011/23/01 04:10:31  5-MIN KSTC 231010Z AUTO 35003KT 5SM BR FEW085 SCT110 02/01 A2959 1340 96 100 350/03 RMK AO2
14926KSTC STC20011123041510311/23/01 04:15:31  5-MIN KSTC 231015Z AUTO 32003KT 5SM BR FEW100 02/01 A2959 1330 96 100 320/03 RMK AO2
14926KSTC STC20011123042010311/23/01 04:20:31  5-MIN KSTC 231020Z AUTO 00000KT 5SM BR FEW110 02/01 A2959 1330 96 100 000/00 RMK AO2
14926KSTC STC20011123042510311/23/01 04:25:31  5-MIN KSTC 231025Z AUTO 34003KT 5SM BR FEW110 02/02 A2959 1330 96 100 330/03 RMK AO2
14926KSTC STC20011123043010311/23/01 04:30:31  5-MIN KSTC 231030Z AUTO 00000KT 5SM BR FEW110 02/01 A2959 1330 92 100 000/00 RMK AO2
14926KSTC STC20011123043510311/23/01 04:35:31  5-MIN KSTC 231035Z AUTO 00000KT 5SM BR FEW110 02/01 A2959 1330 96 100 000/00 RMK AO2
14926KSTC STC20011123044010011/23/01 04:40:31  5-MIN KSTC 231040Z AUTO 00000KT 5SM BR CLR 02/01 A2960 1330 96 100 000/00 RMK AO2
14926KSTC STC20011123044509911/23/01 04:45:31  5-MIN KSTC 231045Z AUTO 32003KT 4SM BR CLR 01/01 A2960 1330 100 0 320/03 RMK AO2
14926KSTC STC20011123045011611/23/01 04:50:31  5-MIN KSTC 231050Z AUTO 00000KT 4SM BR CLR 01/01 A2960 1320 100 0 000/00 RMK AO2 SLP040 T00110011
14926KSTC STC20011123045509911/23/01 04:55:31  5-MIN KSTC 231055Z AUTO 00000KT 4SM BR CLR 01/01 A2960 1320 100 0 000/00 RMK AO2
14926KSTC STC20011123050009911/23/01 05:00:31  5-MIN KSTC 231100Z AUTO 00000KT 3SM BR CLR 01/01 A2960 1320 100 0 000/00 RMK AO2
14926KSTC STC20011123050509911/23/01 05:05:31  5-MIN KSTC 231105Z AUTO 00000KT 3SM BR CLR 01/01 A2960 1320 100 0 000/00 RMK AO2
14926KSTC STC20011123051009811/23/01 05:10:31  5-MIN KSTC 231110Z AUTO 34003KT 3SM BR CLR 01/01 A2960 1320 96 0 340/03 RMK AO2
14926KSTC STC20011123051510211/23/01 05:15:31  5-MIN KSTC 231115Z AUTO 00000KT 2 1/2SM BR CLR 01/01 A2960 1320 96 0 000/00 RMK AO2
14926KSTC STC20011123052010211/23/01 05:20:31  5-MIN KSTC 231120Z AUTO 34003KT 2 1/2SM BR CLR 01/01 A2960 1320 96 0 340/03 RMK AO2
14926KSTC STC20011123052510311/23/01 05:25:31  5-MIN KSTC 231125Z AUTO 34004KT 2 1/2SM BR CLR 01/01 A2960 1320 100 0 330/04 RMK AO2
14926KSTC STC20011123053010211/23/01 05:30:31  5-MIN KSTC 231130Z AUTO 35003KT 2SM BR FEW003 01/01 A2960 1320 100 0 340/03 RMK AO2
14926KSTC STC20011123053510211/23/01 05:35:31  5-MIN KSTC 231135Z AUTO 34003KT 2SM BR SCT003 01/01 A2961 1320 100 0 340/03 RMK AO2
14926KSTC STC20011123054010611/23/01 05:40:31  5-MIN KSTC 231140Z AUTO 35003KT 1 3/4SM BR BKN003 01/01 A2961 1320 100 0 350/03 RMK AO2
14926KSTC STC20011123054510211/23/01 05:45:31  5-MIN KSTC 231145Z AUTO 36003KT 2SM BR BKN003 01/01 A2961 1320 100 0 350/03 RMK AO2
14926KSTC STC20011123055014111/23/01 05:50:31  5-MIN KSTC 231150Z AUTO 01005KT 1 1/2SM BR BKN001 01/01 A2960 1320 100 0 010/05 RMK AO2 SLP042 T00060006 10033 20006 53018
14926KSTC STC20011123055510411/23/01 05:55:31  5-MIN KSTC 231155Z AUTO 01004KT 3/4SM BR OVC001 01/01 A2960 1320 100 0 010/04 RMK AO2
14926KSTC STC20011123060010311/23/01 06:00:31  5-MIN KSTC 231200Z AUTO 01005KT 1/2SM FG VV001 01/01 A2960 1320 100 0 360/05 RMK AO2
14926KSTC STC20011123060510311/23/01 06:05:31  5-MIN KSTC 231205Z AUTO 01005KT 1/4SM FG VV001 01/01 A2961 1320 100 0 010/05 RMK AO2
14926KSTC STC20011123061010311/23/01 06:10:31  5-MIN KSTC 231210Z AUTO 02003KT 1/4SM FG VV001 01/01 A2961 1310 100 0 020/03 RMK AO2
14926KSTC STC20011123061510311/23/01 06:15:31  5-MIN KSTC 231215Z AUTO 01005KT 1/4SM FG VV001 01/01 A2962 1310 100 0 010/05 RMK AO2
14926KSTC STC20011123062010311/23/01 06:20:31  5-MIN KSTC 231220Z AUTO 01004KT 1/4SM FG VV001 01/01 A2962 1310 100 0 010/04 RMK AO2
14926KSTC STC20011123062510311/23/01 06:25:31  5-MIN KSTC 231225Z AUTO 02004KT 1/4SM FG VV001 01/01 A2962 1310 100 0 020/04 RMK AO2
14926KSTC STC20011123063010311/23/01 06:30:31  5-MIN KSTC 231230Z AUTO 05003KT 1/4SM FG VV001 01/01 A2962 1310 100 0 050/03 RMK AO2
14926KSTC STC20011123063510311/23/01 06:35:31  5-MIN KSTC 231235Z AUTO 05003KT 1/4SM FG VV001 01/01 A2962 1300 100 0 040/03 RMK AO2
14926KSTC STC20011123064010311/23/01 06:40:31  5-MIN KSTC 231240Z AUTO 04003KT 1/4SM FG VV001 01/01 A2962 1300 100 0 040/03 RMK AO2
14926KSTC STC20011123064510311/23/01 06:45:31  5-MIN KSTC 231245Z AUTO 04004KT 1/4SM FG VV001 01/01 A2962 1300 100 0 040/04 RMK AO2
14926KSTC STC20011123065012011/23/01 06:50:31  5-MIN KSTC 231250Z AUTO 04004KT 1/4SM FG VV001 01/01 A2962 1300 100 0 040/04 RMK AO2 SLP049 T00110011
14926KSTC STC20011123065510311/23/01 06:55:31  5-MIN KSTC 231255Z AUTO 05004KT 1/4SM FG VV001 01/01 A2962 1300 100 0 050/04 RMK AO2
14926KSTC STC20011123070010311/23/01 07:00:31  5-MIN KSTC 231300Z AUTO 05003KT 1/4SM FG VV001 01/01 A2962 1300 100 0 050/03 RMK AO2
14926KSTC STC20011123070510311/23/01 07:05:31  5-MIN KSTC 231305Z AUTO 05003KT 1/4SM FG VV001 01/01 A2962 1300 100 0 050/03 RMK AO2
14926KSTC STC20011123071010311/23/01 07:10:31  5-MIN KSTC 231310Z AUTO 05004KT 1/4SM FG VV001 01/01 A2962 1310 100 0 050/04 RMK AO2
14926KSTC STC20011123071510311/23/01 07:15:31  5-MIN KSTC 231315Z AUTO 05005KT 1/4SM FG VV001 01/01 A2962 1310 100 0 050/05 RMK AO2
14926KSTC STC20011123072010311/23/01 07:20:31  5-MIN KSTC 231320Z AUTO 06005KT 1/4SM FG VV001 01/01 A2962 1310 100 0 050/05 RMK AO2
14926KSTC STC20011123072510311/23/01 07:25:31  5-MIN KSTC 231325Z AUTO 05004KT 1/4SM FG VV001 01/01 A2962 1310 100 0 050/04 RMK AO2
14926KSTC STC20011123073010311/23/01 07:30:31  5-MIN KSTC 231330Z AUTO 03004KT 1/4SM FG VV001 01/01 A2962 1300 100 0 020/04 RMK AO2
14926KSTC STC20011123073510311/23/01 07:35:31  5-MIN KSTC 231335Z AUTO 00000KT 1/4SM FG VV001 01/01 A2963 1300 100 0 000/00 RMK AO2
14926KSTC STC20011123074010311/23/01 07:40:31  5-MIN KSTC 231340Z AUTO 00000KT 1/4SM FG VV001 02/02 A2963 1300 100 0 000/00 RMK AO2
14926KSTC STC20011123074510311/23/01 07:45:31  5-MIN KSTC 231345Z AUTO 00000KT 1/4SM FG VV001 02/02 A2963 1300 100 0 000/00 RMK AO2
14926KSTC STC20011123075012011/23/01 07:50:31  5-MIN KSTC 231350Z AUTO 00000KT 1/4SM FG VV001 02/02 A2963 1290 100 0 000/00 RMK AO2 SLP051 T00170017
14926KSTC STC20011123075510311/23/01 07:55:31  5-MIN KSTC 231355Z AUTO 13003KT 1/4SM FG VV001 02/02 A2963 1290 100 0 130/03 RMK AO2
14926KSTC STC20011123080010311/23/01 08:00:31  5-MIN KSTC 231400Z AUTO 13003KT 1/4SM FG VV001 02/02 A2963 1290 100 0 130/03 RMK AO2
14926KSTC STC20011123080510311/23/01 08:05:31  5-MIN KSTC 231405Z AUTO 15003KT 1/4SM FG VV001 02/02 A2964 1290 100 0 150/03 RMK AO2
14926KSTC STC20011123081010311/23/01 08:10:31  5-MIN KSTC 231410Z AUTO 14004KT 1/4SM FG VV001 02/02 A2964 1290 100 0 140/04 RMK AO2
14926KSTC STC20011123081510311/23/01 08:15:31  5-MIN KSTC 231415Z AUTO 16006KT 1/4SM FG VV001 02/02 A2964 1280 100 0 160/06 RMK AO2
14926KSTC STC20011123082010311/23/01 08:20:31  5-MIN KSTC 231420Z AUTO 14004KT 1/4SM FG VV001 02/02 A2964 1280 100 0 140/04 RMK AO2
14926KSTC STC20011123082510311/23/01 08:25:31  5-MIN KSTC 231425Z AUTO VRB03KT 1/4SM FG VV001 01/01 A2964 1280 100 0 VRB/03 RMK AO2
14926KSTC STC20011123083010311/23/01 08:30:31  5-MIN KSTC 231430Z AUTO VRB03KT 1/4SM FG VV001 02/02 A2965 1280 100 0 VRB/03 RMK AO2
14926KSTC STC20011123083510311/23/01 08:35:31  5-MIN KSTC 231435Z AUTO 15005KT 1/4SM FG VV001 01/01 A2965 1270 100 0 140/05 RMK AO2
14926KSTC STC20011123084010311/23/01 08:40:31  5-MIN KSTC 231440Z AUTO 14005KT 1/4SM FG VV001 02/02 A2965 1270 100 0 130/05 RMK AO2
14926KSTC STC20011123084510311/23/01 08:45:31  5-MIN KSTC 231445Z AUTO 14005KT 1/4SM FG VV001 01/01 A2965 1270 100 0 140/05 RMK AO2
14926KSTC STC20011123085012611/23/01 08:50:31  5-MIN KSTC 231450Z AUTO 13005KT 1/4SM FG VV001 01/01 A2965 1270 100 0 130/05 RMK AO2 SLP059 T00110011 53007
14926KSTC STC20011123085510311/23/01 08:55:31  5-MIN KSTC 231455Z AUTO 09003KT 1/4SM FG VV001 01/01 A2965 1280 100 0 090/03 RMK AO2
14926KSTC STC20011123090010311/23/01 09:00:31  5-MIN KSTC 231500Z AUTO 13003KT 1/4SM FG VV001 01/01 A2965 1270 100 0 120/03 RMK AO2
14926KSTC STC20011123090510311/23/01 09:05:31  5-MIN KSTC 231505Z AUTO 00000KT 1/4SM FG VV001 01/01 A2965 1270 100 0 000/00 RMK AO2
14926KSTC STC20011123091010311/23/01 09:10:31  5-MIN KSTC 231510Z AUTO 13004KT 1/4SM FG VV001 01/01 A2966 1270 100 0 130/04 RMK AO2
14926KSTC STC20011123091510311/23/01 09:15:31  5-MIN KSTC 231515Z AUTO 12003KT 1/4SM FG VV001 01/01 A2966 1270 100 0 120/03 RMK AO2
14926KSTC STC20011123092010311/23/01 09:20:31  5-MIN KSTC 231520Z AUTO 11004KT 1/4SM FG VV001 01/01 A2966 1270 100 0 110/04 RMK AO2
14926KSTC STC20011123092510311/23/01 09:25:31  5-MIN KSTC 231525Z AUTO 04005KT 1/4SM FG VV001 01/01 A2966 1270 100 0 040/05 RMK AO2
14926KSTC STC20011123093010311/23/01 09:30:31  5-MIN KSTC 231530Z AUTO VRB04KT 1/4SM FG VV001 02/02 A2966 1270 100 0 VRB/04 RMK AO2
14926KSTC STC20011123093510311/23/01 09:35:31  5-MIN KSTC 231535Z AUTO 06004KT 1/4SM FG VV001 02/02 A2966 1270 100 0 060/04 RMK AO2
14926KSTC STC20011123094010311/23/01 09:40:31  5-MIN KSTC 231540Z AUTO VRB03KT 1/4SM FG VV001 02/02 A2966 1270 100 0 VRB/03 RMK AO2
14926KSTC STC20011123094510311/23/01 09:45:31  5-MIN KSTC 231545Z AUTO 08004KT 1/4SM FG VV001 02/02 A2966 1270 100 0 080/04 RMK AO2
14926KSTC STC20011123095012011/23/01 09:50:31  5-MIN KSTC 231550Z AUTO 08005KT 1/4SM FG VV001 02/02 A2966 1270 100 0 080/05 RMK AO2 SLP063 T00170017
14926KSTC STC20011123095510511/23/01 09:55:31  5-MIN KSTC 231555Z AUTO 05005KT 1/4SM FG VV001 02/02 A2966 1270 100 100 050/05 RMK AO2
14926KSTC STC20011123100010511/23/01 10:00:31  5-MIN KSTC 231600Z AUTO 05006KT 1/4SM FG VV001 02/02 A2966 1270 100 100 040/06 RMK AO2
14926KSTC STC20011123100510511/23/01 10:05:31  5-MIN KSTC 231605Z AUTO 07004KT 1/4SM FG VV001 02/02 A2966 1260 100 100 070/04 RMK AO2
14926KSTC STC20011123101010511/23/01 10:10:31  5-MIN KSTC 231610Z AUTO 04006KT 1/4SM FG VV001 03/03 A2967 1260 100 100 040/06 RMK AO2
14926KSTC STC20011123101510611/23/01 10:15:31  5-MIN KSTC 231615Z AUTO 04006KT 1/4SM FG OVC001 03/03 A2966 1270 100 100 030/06 RMK AO2
14926KSTC STC20011123102010611/23/01 10:20:31  5-MIN KSTC 231620Z AUTO 03008KT 1/2SM FG OVC001 03/03 A2965 1280 100 100 030/08 RMK AO2
14926KSTC STC20011123102510611/23/01 10:25:31  5-MIN KSTC 231625Z AUTO 02009KT 1/2SM FG OVC001 03/03 A2966 1270 100 100 010/09 RMK AO2
14926KSTC STC20011123103010611/23/01 10:30:31  5-MIN KSTC 231630Z AUTO 03007KT 3/4SM BR OVC001 03/03 A2966 1270 100 100 030/07 RMK AO2
14926KSTC STC20011123103510611/23/01 10:35:31  5-MIN KSTC 231635Z AUTO 03008KT 3/4SM BR OVC001 03/03 A2966 1270 100 100 030/08 RMK AO2
14926KSTC STC20011123104012211/23/01 10:40:31  5-MIN KSTC 231640Z AUTO 03007KT 350V050 3/4SM BR OVC001 03/03 A2966 1270 100 100 030/07 350V050 RMK AO2
14926KSTC STC20011123104510611/23/01 10:45:31  5-MIN KSTC 231645Z AUTO 03005KT 3/4SM BR OVC001 03/03 A2966 1270 100 200 030/05 RMK AO2
14926KSTC STC20011123105012111/23/01 10:50:31  5-MIN KSTC 231650Z AUTO 03005KT 1SM BR OVC001 03/03 A2966 1270 100 200 030/05 RMK AO2 SLP060 T00330033
14926KSTC STC20011123105510811/23/01 10:55:31  5-MIN KSTC 231655Z AUTO 04004KT 1 1/4SM BR OVC001 03/03 A2966 1270 100 200 040/04 RMK AO2
14926KSTC STC20011123110010811/23/01 11:00:31  5-MIN KSTC 231700Z AUTO VRB05KT 1 1/2SM BR OVC001 04/04 A2966 1270 100 300 VRB/05 RMK AO2
14926KSTC STC20011123110510811/23/01 11:05:31  5-MIN KSTC 231705Z AUTO 05008KT 1 1/4SM BR OVC001 03/03 A2965 1270 100 200 050/08 RMK AO2
14926KSTC STC20011123111010411/23/01 11:10:31  5-MIN KSTC 231710Z AUTO 05005KT 1SM BR OVC001 03/03 A2966 1270 100 200 050/05 RMK AO2
14926KSTC STC20011123111510811/23/01 11:15:31  5-MIN KSTC 231715Z AUTO 03006KT 1 1/4SM BR OVC001 04/04 A2965 1270 100 300 030/06 RMK AO2
14926KSTC STC20011123112010811/23/01 11:20:31  5-MIN KSTC 231720Z AUTO 03007KT 1 1/4SM BR OVC001 03/03 A2965 1280 100 200 030/07 RMK AO2
14926KSTC STC20011123112510811/23/01 11:25:31  5-MIN KSTC 231725Z AUTO VRB04KT 1 1/2SM BR OVC001 04/04 A2965 1280 100 300 VRB/04 RMK AO2
14926KSTC STC20011123113010811/23/01 11:30:31  5-MIN KSTC 231730Z AUTO 07006KT 1 3/4SM BR OVC001 04/04 A2965 1280 100 300 070/06 RMK AO2
14926KSTC STC20011123113510811/23/01 11:35:31  5-MIN KSTC 231735Z AUTO 08008KT 1 1/2SM BR OVC001 04/04 A2965 1280 100 300 070/08 RMK AO2
14926KSTC STC20011123114010811/23/01 11:40:31  5-MIN KSTC 231740Z AUTO 05006KT 1 1/4SM BR OVC001 04/04 A2965 1280 100 300 040/06 RMK AO2
14926KSTC STC20011123114510811/23/01 11:45:31  5-MIN KSTC 231745Z AUTO 07004KT 1 1/4SM BR OVC001 04/04 A2965 1280 100 300 060/04 RMK AO2
14926KSTC STC20011123115014311/23/01 11:50:31  5-MIN KSTC 231750Z AUTO 05005KT 1 3/4SM BR OVC001 04/04 A2965 1280 100 300 050/05 RMK AO2 SLP057 T00390039 10039 20006 53016
14926KSTC STC20011123115510411/23/01 11:55:31  5-MIN KSTC 231755Z AUTO 07003KT 2SM BR OVC001 04/04 A2965 1280 100 300 070/03 RMK AO2
14926KSTC STC20011123120010811/23/01 12:00:31  5-MIN KSTC 231800Z AUTO 07005KT 1 3/4SM BR OVC001 04/04 A2965 1280 100 300 070/05 RMK AO2
14926KSTC STC20011123120510811/23/01 12:05:31  5-MIN KSTC 231805Z AUTO 04005KT 1 3/4SM BR OVC001 04/04 A2964 1280 100 300 040/05 RMK AO2
14926KSTC STC20011123121010311/23/01 12:10:31  5-MIN KSTC 231810Z AUTO 09006KT 2SM BR OVC001 04/04 A2965 1280 96 400 090/06 RMK AO2
14926KSTC STC20011123121510311/23/01 12:15:31  5-MIN KSTC 231815Z AUTO 08006KT 2SM BR OVC001 04/04 A2965 1280 96 400 080/06 RMK AO2
14926KSTC STC20011123122010711/23/01 12:20:31  5-MIN KSTC 231820Z AUTO 06005KT 2 1/2SM BR OVC001 04/04 A2965 1280 96 400 060/05 RMK AO2
14926KSTC STC20011123122510711/23/01 12:25:31  5-MIN KSTC 231825Z AUTO 08004KT 2 1/2SM BR OVC001 04/04 A2965 1280 96 400 080/04 RMK AO2
14926KSTC STC20011123123010711/23/01 12:30:31  5-MIN KSTC 231830Z AUTO 07005KT 2 1/2SM BR OVC001 04/04 A2965 1280 96 400 070/05 RMK AO2
14926KSTC STC20011123123510311/23/01 12:35:31  5-MIN KSTC 231835Z AUTO 09004KT 2SM BR OVC001 04/04 A2964 1280 96 400 080/04 RMK AO2
14926KSTC STC20011123124010311/23/01 12:40:31  5-MIN KSTC 231840Z AUTO 06006KT 2SM BR OVC001 04/04 A2965 1280 96 400 060/06 RMK AO2
14926KSTC STC20011123124510311/23/01 12:45:31  5-MIN KSTC 231845Z AUTO 09007KT 2SM BR OVC001 04/04 A2965 1280 96 400 090/07 RMK AO2
14926KSTC STC20011123125012111/23/01 12:50:31  5-MIN KSTC 231850Z AUTO 09005KT 2SM BR OVC001 04/04 A2965 1280 100 300 090/05 RMK AO2 SLP057 T00390039
14926KSTC STC20011123125510311/23/01 12:55:31  5-MIN KSTC 231855Z AUTO VRB03KT 2SM BR OVC001 04/04 A2965 1280 96 300 VRB/03 RMK AO2
14926KSTC STC20011123130010711/23/01 13:00:31  5-MIN KSTC 231900Z AUTO 11006KT 2 1/2SM BR OVC001 04/04 A2965 1280 96 400 100/06 RMK AO2
14926KSTC STC20011123130510411/23/01 13:05:31  5-MIN KSTC 231905Z AUTO 09005KT 2SM BR OVC001 04/04 A2965 1280 100 300 090/05 RMK AO2
14926KSTC STC20011123131010811/23/01 13:10:31  5-MIN KSTC 231910Z AUTO 09006KT 1 3/4SM BR OVC001 04/04 A2965 1280 100 300 080/06 RMK AO2
14926KSTC STC20011123131510711/23/01 13:15:31  5-MIN KSTC 231915Z AUTO 09006KT 1 3/4SM BR OVC001 04/04 A2965 1280 96 400 090/06 RMK AO2
14926KSTC STC20011123132010311/23/01 13:20:31  5-MIN KSTC 231920Z AUTO 09006KT 2SM BR OVC001 04/04 A2965 1280 96 400 090/06 RMK AO2
14926KSTC STC20011123132510711/23/01 13:25:31  5-MIN KSTC 231925Z AUTO 08005KT 1 1/2SM BR OVC001 04/04 A2965 1280 96 400 080/05 RMK AO2
14926KSTC STC20011123133010711/23/01 13:30:31  5-MIN KSTC 231930Z AUTO 07006KT 1 1/2SM BR OVC001 04/04 A2965 1280 96 400 070/06 RMK AO2
14926KSTC STC20011123133510311/23/01 13:35:31  5-MIN KSTC 231935Z AUTO 08005KT 2SM BR OVC001 04/04 A2965 1280 96 400 070/05 RMK AO2
14926KSTC STC20011123134010311/23/01 13:40:31  5-MIN KSTC 231940Z AUTO 05006KT 2SM BR OVC001 04/04 A2965 1280 96 300 050/06 RMK AO2
14926KSTC STC20011123134510711/23/01 13:45:31  5-MIN KSTC 231945Z AUTO 07006KT 2 1/2SM BR OVC001 04/04 A2965 1280 96 400 070/06 RMK AO2
14926KSTC STC20011123135012011/23/01 13:50:31  5-MIN KSTC 231950Z AUTO 04006KT 3SM BR OVC001 05/04 A2964 1280 96 400 040/06 RMK AO2 SLP055 T00500044
14926KSTC STC20011123135510311/23/01 13:55:31  5-MIN KSTC 231955Z AUTO 03007KT 3SM BR OVC001 05/04 A2964 1290 96 400 030/07 RMK AO2
14926KSTC STC20011123140010711/23/01 14:00:31  5-MIN KSTC 232000Z AUTO 06005KT 2 1/2SM BR OVC001 05/04 A2964 1290 96 400 050/05 RMK AO2
14926KSTC STC20011123140510711/23/01 14:05:31  5-MIN KSTC 232005Z AUTO 06006KT 2 1/2SM BR OVC001 05/04 A2964 1280 96 400 050/06 RMK AO2
14926KSTC STC20011123141010711/23/01 14:10:31  5-MIN KSTC 232010Z AUTO 06005KT 2 1/2SM BR OVC001 05/04 A2964 1280 96 400 060/05 RMK AO2
14926KSTC STC20011123141510711/23/01 14:15:31  5-MIN KSTC 232015Z AUTO 06006KT 2 1/2SM BR OVC001 05/04 A2964 1280 96 400 060/06 RMK AO2
14926KSTC STC20011123142010311/23/01 14:20:31  5-MIN KSTC 232020Z AUTO 07008KT 3SM BR OVC003 05/04 A2964 1290 96 400 060/08 RMK AO2
14926KSTC STC20011123142510311/23/01 14:25:31  5-MIN KSTC 232025Z AUTO 07007KT 3SM BR OVC003 05/04 A2964 1290 96 400 060/07 RMK AO2
14926KSTC STC20011123143010311/23/01 14:30:31  5-MIN KSTC 232030Z AUTO 08007KT 3SM BR OVC003 05/04 A2964 1290 92 400 070/07 RMK AO2
14926KSTC STC20011123143510311/23/01 14:35:31  5-MIN KSTC 232035Z AUTO 07005KT 3SM BR OVC003 05/04 A2964 1290 92 400 060/05 RMK AO2
14926KSTC STC20011123144010311/23/01 14:40:31  5-MIN KSTC 232040Z AUTO 07007KT 3SM BR OVC003 05/04 A2964 1280 96 400 070/07 RMK AO2
14926KSTC STC20011123144510311/23/01 14:45:31  5-MIN KSTC 232045Z AUTO 05005KT 3SM BR OVC003 05/04 A2964 1290 96 400 050/05 RMK AO2
14926KSTC STC20011123145012611/23/01 14:50:31  5-MIN KSTC 232050Z AUTO 06007KT 3SM BR OVC003 05/04 A2964 1290 96 400 060/07 RMK AO2 SLP053 T00500044 58002
14926KSTC STC20011123145510311/23/01 14:55:31  5-MIN KSTC 232055Z AUTO VRB05KT 3SM BR OVC003 05/04 A2964 1290 96 400 VRB/05 RMK AO2
14926KSTC STC20011123150010311/23/01 15:00:31  5-MIN KSTC 232100Z AUTO 06008KT 3SM BR OVC003 05/04 A2964 1290 96 400 060/08 RMK AO2
14926KSTC STC20011123150510311/23/01 15:05:31  5-MIN KSTC 232105Z AUTO 05008KT 3SM BR OVC003 05/04 A2964 1290 96 400 040/08 RMK AO2
14926KSTC STC20011123151010311/23/01 15:10:31  5-MIN KSTC 232110Z AUTO 06007KT 3SM BR OVC003 05/04 A2964 1290 96 400 060/07 RMK AO2
14926KSTC STC20011123151510311/23/01 15:15:31  5-MIN KSTC 232115Z AUTO 05006KT 3SM BR OVC003 05/04 A2964 1290 96 400 050/06 RMK AO2
14926KSTC STC20011123152010311/23/01 15:20:31  5-MIN KSTC 232120Z AUTO 04007KT 3SM BR OVC003 05/04 A2964 1290 96 400 040/07 RMK AO2
14926KSTC STC20011123152510311/23/01 15:25:31  5-MIN KSTC 232125Z AUTO 05009KT 3SM BR OVC003 05/04 A2963 1290 96 400 040/09 RMK AO2
14926KSTC STC20011123153010311/23/01 15:30:31  5-MIN KSTC 232130Z AUTO 05010KT 3SM BR OVC003 05/04 A2963 1290 96 400 050/10 RMK AO2
14926KSTC STC20011123153510311/23/01 15:35:31  5-MIN KSTC 232135Z AUTO 05007KT 3SM BR OVC003 05/04 A2964 1290 96 400 040/07 RMK AO2
14926KSTC STC20011123154010311/23/01 15:40:31  5-MIN KSTC 232140Z AUTO 04009KT 3SM BR OVC003 05/04 A2964 1290 96 400 040/09 RMK AO2
14926KSTC STC20011123154510311/23/01 15:45:31  5-MIN KSTC 232145Z AUTO 05007KT 3SM BR OVC003 05/04 A2964 1280 96 400 050/07 RMK AO2
14926KSTC STC20011123155012011/23/01 15:50:31  5-MIN KSTC 232150Z AUTO 04008KT 3SM BR OVC003 05/04 A2964 1280 96 400 040/08 RMK AO2 SLP055 T00500044
14926KSTC STC20011123155510311/23/01 15:55:31  5-MIN KSTC 232155Z AUTO 04009KT 3SM BR OVC003 05/04 A2964 1290 96 400 040/09 RMK AO2
14926KSTC STC20011123160010311/23/01 16:00:31  5-MIN KSTC 232200Z AUTO 05010KT 3SM BR OVC003 05/04 A2964 1290 96 400 040/10 RMK AO2
14926KSTC STC20011123160510311/23/01 16:05:31  5-MIN KSTC 232205Z AUTO 05008KT 3SM BR OVC003 05/04 A2965 1280 96 400 040/08 RMK AO2
14926KSTC STC20011123161010311/23/01 16:10:31  5-MIN KSTC 232210Z AUTO 05006KT 3SM BR OVC003 05/04 A2965 1280 96 400 050/06 RMK AO2
14926KSTC STC20011123161510311/23/01 16:15:31  5-MIN KSTC 232215Z AUTO 05008KT 3SM BR OVC003 05/04 A2965 1280 96 400 050/08 RMK AO2
14926KSTC STC20011123162010311/23/01 16:20:31  5-MIN KSTC 232220Z AUTO 05007KT 3SM BR OVC005 05/04 A2965 1280 96 400 050/07 RMK AO2
14926KSTC STC20011123162510311/23/01 16:25:31  5-MIN KSTC 232225Z AUTO 04008KT 3SM BR OVC005 05/04 A2965 1270 96 400 040/08 RMK AO2
14926KSTC STC20011123163010311/23/01 16:30:31  5-MIN KSTC 232230Z AUTO 04008KT 3SM BR OVC005 05/04 A2966 1270 96 400 030/08 RMK AO2
14926KSTC STC20011123163510311/23/01 16:35:31  5-MIN KSTC 232235Z AUTO 04009KT 3SM BR OVC005 05/04 A2965 1270 96 400 040/09 RMK AO2
14926KSTC STC20011123164011011/23/01 16:40:31  5-MIN KSTC 232240Z AUTO 05009KT 3SM BR BKN005 OVC009 05/04 A2965 1270 96 400 040/09 RMK AO2
14926KSTC STC20011123164511011/23/01 16:45:31  5-MIN KSTC 232245Z AUTO 04008KT 3SM BR BKN005 OVC009 05/04 A2965 1280 96 400 030/08 RMK AO2
14926KSTC STC20011123165012711/23/01 16:50:31  5-MIN KSTC 232250Z AUTO 05010KT 4SM BR BKN005 OVC009 05/04 A2965 1280 96 400 040/10 RMK AO2 SLP058 T00500044
14926KSTC STC20011123165511011/23/01 16:55:31  5-MIN KSTC 232255Z AUTO 05009KT 5SM BR BKN005 OVC009 05/04 A2965 1270 96 400 040/09 RMK AO2
14926KSTC STC20011123170011011/23/01 17:00:31  5-MIN KSTC 232300Z AUTO 04007KT 5SM BR BKN005 OVC009 05/04 A2966 1270 92 400 040/07 RMK AO2
14926KSTC STC20011123170511011/23/01 17:05:31  5-MIN KSTC 232305Z AUTO 04008KT 5SM BR BKN005 OVC009 05/04 A2966 1270 96 400 030/08 RMK AO2
14926KSTC STC20011123171011011/23/01 17:10:31  5-MIN KSTC 232310Z AUTO 04009KT 5SM BR BKN005 OVC009 05/04 A2965 1280 96 400 040/09 RMK AO2
14926KSTC STC20011123171511711/23/01 17:15:31  5-MIN KSTC 232315Z AUTO 05007KT 5SM BR BKN005 BKN009 OVC110 05/04 A2965 1280 92 400 040/07 RMK AO2
14926KSTC STC20011123172011711/23/01 17:20:31  5-MIN KSTC 232320Z AUTO 05009KT 5SM BR SCT005 BKN009 OVC110 05/04 A2965 1280 92 400 050/09 RMK AO2
14926KSTC STC20011123172511011/23/01 17:25:31  5-MIN KSTC 232325Z AUTO 06007KT 5SM BR SCT005 BKN110 05/04 A2965 1280 92 400 050/07 RMK AO2
14926KSTC STC20011123173011011/23/01 17:30:31  5-MIN KSTC 232330Z AUTO 05006KT 5SM BR FEW005 BKN110 05/04 A2965 1280 92 400 050/06 RMK AO2
14926KSTC STC20011123173511011/23/01 17:35:31  5-MIN KSTC 232335Z AUTO 05008KT 5SM BR FEW005 SCT110 05/04 A2965 1280 92 400 050/08 RMK AO2
14926KSTC STC20011123174010311/23/01 17:40:31  5-MIN KSTC 232340Z AUTO 05007KT 5SM BR FEW110 05/04 A2964 1280 92 400 050/07 RMK AO2
14926KSTC STC20011123174510311/23/01 17:45:31  5-MIN KSTC 232345Z AUTO 05007KT 5SM BR FEW110 05/04 A2965 1280 92 400 050/07 RMK AO2
14926KSTC STC20011123175013511/23/01 17:50:31  5-MIN KSTC 232350Z AUTO 05007KT 5SM BR CLR 05/04 A2964 1280 92 400 040/07 RMK AO2 SLP056 T00500039 10050 20039 58003
14926KSTC STC20011123175510011/23/01 17:55:31  5-MIN KSTC 232355Z AUTO 04008KT 5SM BR CLR 05/04 A2964 1280 92 400 040/08 RMK AO2
14926KSTC STC20011123180010311/23/01 18:00:31  5-MIN KSTC 240000Z AUTO 05008KT 5SM BR FEW110 05/04 A2964 1280 92 400 050/08 RMK AO2
14926KSTC STC20011123180511011/23/01 18:05:31  5-MIN KSTC 240005Z AUTO 05009KT 5SM BR SCT095 SCT110 05/04 A2964 1290 92 400 040/09 RMK AO2
14926KSTC STC20011123181010311/23/01 18:10:31  5-MIN KSTC 240010Z AUTO 04009KT 5SM BR BKN090 05/04 A2964 1290 92 400 040/09 RMK AO2
14926KSTC STC20011123181511011/23/01 18:15:31  5-MIN KSTC 240015Z AUTO 04008KT 5SM BR BKN090 BKN110 05/04 A2964 1290 92 400 040/08 RMK AO2
14926KSTC STC20011123182010311/23/01 18:20:31  5-MIN KSTC 240020Z AUTO 04010KT 5SM BR BKN100 05/04 A2963 1290 92 400 030/10 RMK AO2
14926KSTC STC20011123182510311/23/01 18:25:31  5-MIN KSTC 240025Z AUTO 04011KT 5SM BR OVC100 05/04 A2964 1290 92 400 040/11 RMK AO2
14926KSTC STC20011123183010311/23/01 18:30:31  5-MIN KSTC 240030Z AUTO 07007KT 6SM BR OVC100 05/04 A2964 1280 92 400 070/07 RMK AO2
14926KSTC STC20011123183510311/23/01 18:35:31  5-MIN KSTC 240035Z AUTO VRB05KT 6SM BR BKN100 06/04 A2965 1280 89 500 VRB/05 RMK AO2
14926KSTC STC20011123184010311/23/01 18:40:31  5-MIN KSTC 240040Z AUTO 06005KT 6SM BR BKN100 06/04 A2964 1290 89 500 050/05 RMK AO2
14926KSTC STC20011123184510311/23/01 18:45:31  5-MIN KSTC 240045Z AUTO 04007KT 6SM BR BKN100 06/04 A2964 1290 89 500 040/07 RMK AO2
14926KSTC STC20011123185012011/23/01 18:50:31  5-MIN KSTC 240050Z AUTO 05008KT 6SM BR SCT095 06/04 A2964 1290 89 500 040/08 RMK AO2 SLP052 T00560039
14926KSTC STC20011123185510311/23/01 18:55:31  5-MIN KSTC 240055Z AUTO 06007KT 6SM BR FEW090 06/04 A2964 1290 89 500 050/07 RMK AO2
14926KSTC STC20011123190010311/23/01 19:00:31  5-MIN KSTC 240100Z AUTO 05007KT 6SM BR FEW090 06/04 A2964 1290 89 500 050/07 RMK AO2
14926KSTC STC20011123190510311/23/01 19:05:31  5-MIN KSTC 240105Z AUTO 06006KT 6SM BR FEW100 06/04 A2964 1290 89 500 050/06 RMK AO2
14926KSTC STC20011123191010311/23/01 19:10:31  5-MIN KSTC 240110Z AUTO 05008KT 5SM BR FEW110 06/04 A2964 1290 89 500 050/08 RMK AO2
14926KSTC STC20011123191510311/23/01 19:15:31  5-MIN KSTC 240115Z AUTO 05007KT 5SM BR FEW120 06/04 A2964 1290 89 500 050/07 RMK AO2
14926KSTC STC20011123192010311/23/01 19:20:31  5-MIN KSTC 240120Z AUTO 05009KT 5SM BR SCT120 06/04 A2964 1290 89 500 040/09 RMK AO2
14926KSTC STC20011123192510311/23/01 19:25:31  5-MIN KSTC 240125Z AUTO 05009KT 5SM BR BKN120 06/04 A2963 1290 89 500 050/09 RMK AO2
14926KSTC STC20011123193010311/23/01 19:30:31  5-MIN KSTC 240130Z AUTO 06009KT 6SM BR BKN110 06/04 A2963 1290 89 500 050/09 RMK AO2
14926KSTC STC20011123193510311/23/01 19:35:31  5-MIN KSTC 240135Z AUTO 05008KT 6SM BR SCT110 06/04 A2963 1290 89 500 050/08 RMK AO2
14926KSTC STC20011123194010311/23/01 19:40:31  5-MIN KSTC 240140Z AUTO 05007KT 6SM BR BKN110 06/04 A2964 1290 89 500 050/07 RMK AO2
14926KSTC STC20011123194510311/23/01 19:45:31  5-MIN KSTC 240145Z AUTO 05007KT 6SM BR BKN110 06/04 A2964 1290 89 500 050/07 RMK AO2
14926KSTC STC20011123195012011/23/01 19:50:31  5-MIN KSTC 240150Z AUTO 05008KT 6SM BR BKN110 06/04 A2964 1290 89 500 050/08 RMK AO2 SLP053 T00560039
14926KSTC STC20011123195510311/23/01 19:55:31  5-MIN KSTC 240155Z AUTO 05008KT 6SM BR BKN110 06/04 A2964 1290 89 500 050/08 RMK AO2
14926KSTC STC20011123200010311/23/01 20:00:31  5-MIN KSTC 240200Z AUTO 05009KT 6SM BR BKN110 06/04 A2963 1290 89 500 040/09 RMK AO2
14926KSTC STC20011123200511011/23/01 20:05:31  5-MIN KSTC 240205Z AUTO 05007KT 6SM BR BKN100 BKN120 06/04 A2963 1290 89 500 050/07 RMK AO2
14926KSTC STC20011123201010311/23/01 20:10:31  5-MIN KSTC 240210Z AUTO 05008KT 6SM BR BKN100 06/04 A2963 1290 89 500 040/08 RMK AO2
14926KSTC STC20011123201511011/23/01 20:15:31  5-MIN KSTC 240215Z AUTO 04009KT 6SM BR FEW055 BKN100 06/04 A2963 1300 89 500 040/09 RMK AO2
14926KSTC STC20011123202011011/23/01 20:20:31  5-MIN KSTC 240220Z AUTO 05008KT 6SM BR SCT055 BKN100 06/04 A2963 1300 89 500 040/08 RMK AO2
14926KSTC STC20011123202511011/23/01 20:25:31  5-MIN KSTC 240225Z AUTO 05009KT 6SM BR BKN055 BKN100 06/04 A2963 1300 89 500 040/09 RMK AO2
14926KSTC STC20011123203011011/23/01 20:30:31  5-MIN KSTC 240230Z AUTO 05010KT 6SM BR BKN055 OVC100 06/04 A2963 1300 89 500 040/10 RMK AO2
14926KSTC STC20011123203510311/23/01 20:35:31  5-MIN KSTC 240235Z AUTO 05008KT 6SM BR BKN050 06/04 A2963 1300 89 500 050/08 RMK AO2
14926KSTC STC20011123204010011/23/01 20:40:31  5-MIN KSTC 240240Z AUTO 05009KT 7SM OVC050 06/04 A2963 1300 89 500 050/09 RMK AO2
14926KSTC STC20011123204510011/23/01 20:45:31  5-MIN KSTC 240245Z AUTO 04008KT 7SM OVC050 06/04 A2962 1300 89 500 040/08 RMK AO2
14926KSTC STC20011123205012311/23/01 20:50:31  5-MIN KSTC 240250Z AUTO 05006KT 7SM OVC050 06/04 A2963 1300 89 500 050/06 RMK AO2 SLP049 T00560039 50001
14926KSTC STC20011123205510011/23/01 20:55:31  5-MIN KSTC 240255Z AUTO 06009KT 7SM OVC050 06/04 A2963 1300 89 500 060/09 RMK AO2
14926KSTC STC20011123210010011/23/01 21:00:31  5-MIN KSTC 240300Z AUTO 06008KT 7SM OVC050 06/04 A2963 1300 86 600 060/08 RMK AO2
14926KSTC STC20011123210510011/23/01 21:05:31  5-MIN KSTC 240305Z AUTO 07009KT 7SM OVC050 06/04 A2963 1300 86 600 070/09 RMK AO2
14926KSTC STC20011123211010011/23/01 21:10:31  5-MIN KSTC 240310Z AUTO 06010KT 7SM OVC050 06/04 A2962 1300 86 600 060/10 RMK AO2
14926KSTC STC20011123211510011/23/01 21:15:31  5-MIN KSTC 240315Z AUTO 06009KT 7SM OVC050 06/04 A2962 1300 86 600 060/09 RMK AO2
14926KSTC STC20011123212010711/23/01 21:20:31  5-MIN KSTC 240320Z AUTO 06009KT 7SM FEW041 OVC050 06/04 A2962 1300 86 600 060/09 RMK AO2
14926KSTC STC20011123212510711/23/01 21:25:31  5-MIN KSTC 240325Z AUTO 06008KT 7SM SCT037 OVC050 06/04 A2962 1300 86 600 050/08 RMK AO2
14926KSTC STC20011123213013011/23/01 21:30:31  5-MIN KSTC 240330Z AUTO 06007KT 7SM -RA SCT031 BKN039 OVC050 06/04 A2962 1300 86 600 060/07 RMK AO2 RAB30 P0000
14926KSTC STC20011123213513011/23/01 21:35:31  5-MIN KSTC 240335Z AUTO 06007KT 7SM -RA FEW018 BKN039 OVC050 06/04 A2962 1310 86 600 060/07 RMK AO2 RAB30 P0000
14926KSTC STC20011123214013011/23/01 21:40:31  5-MIN KSTC 240340Z AUTO 06010KT 7SM -RA SCT018 BKN030 OVC050 06/04 A2962 1300 86 600 060/10 RMK AO2 RAB30 P0000
14926KSTC STC20011123214512911/23/01 21:45:31  5-MIN KSTC 240345Z AUTO 05008KT 7SM BKN016 BKN030 OVC050 06/04 A2962 1310 86 600 050/08 RMK AO2 RAB30E42 P0000
14926KSTC STC20011123215014611/23/01 21:50:31  5-MIN KSTC 240350Z AUTO 06009KT 7SM SCT016 BKN033 OVC070 06/04 A2962 1310 86 600 050/09 RMK AO2 RAB30E42 SLP046 P0000 T00610039
14926KSTC STC20011123215511711/23/01 21:55:31  5-MIN KSTC 240355Z AUTO 05009KT 6SM BR SCT016 BKN031 OVC075 06/04 A2961 1310 86 600 050/09 RMK AO2
14926KSTC STC20011123220011711/23/01 22:00:31  5-MIN KSTC 240400Z AUTO 05010KT 6SM BR SCT016 SCT060 OVC075 06/04 A2961 1320 86 600 050/10 RMK AO2
14926KSTC STC20011123220511011/23/01 22:05:31  5-MIN KSTC 240405Z AUTO 06010KT 6SM BR SCT016 OVC065 06/04 A2961 1320 89 600 050/10 RMK AO2
14926KSTC STC20011123221013311/23/01 22:10:31  5-MIN KSTC 240410Z AUTO 06009KT 6SM -RA BR SCT016 BKN060 OVC080 06/04 A2961 1320 89 600 060/09 RMK AO2 RAB09 P0000
14926KSTC STC20011123221513311/23/01 22:15:31  5-MIN KSTC 240415Z AUTO 07011KT 6SM -RA BR SCT016 BKN060 OVC080 06/04 A2961 1320 89 600 060/11 RMK AO2 RAB09 P0000
14926KSTC STC20011123222013911/23/01 22:20:31  5-MIN KSTC 240420Z AUTO 06010G17KT 6SM -RA BR BKN014 BKN060 OVC075 06/04 A2961 1320 89 600 060/10G17 RMK AO2 RAB09 P0000
14926KSTC STC20011123222513911/23/01 22:25:31  5-MIN KSTC 240425Z AUTO 06010G16KT 6SM -RA BR BKN014 BKN019 OVC060 06/04 A2960 1320 89 600 060/10G16 RMK AO2 RAB09 P0000
14926KSTC STC20011123223013811/23/01 22:30:31  5-MIN KSTC 240430Z AUTO 06009G16KT 6SM BR BKN014 BKN019 OVC060 06/04 A2960 1320 92 500 050/09G16 RMK AO2 RAB09E27 P0000
14926KSTC STC20011123223512511/23/01 22:35:31  5-MIN KSTC 240435Z AUTO 06012G16KT 5SM -RA BR OVC014 06/04 A2960 1320 92 500 050/12G16 RMK AO2 RAB09 P0000
14926KSTC STC20011123224012511/23/01 22:40:31  5-MIN KSTC 240440Z AUTO 06010G16KT 5SM -RA BR OVC014 06/04 A2960 1320 92 500 060/10G16 RMK AO2 RAB09 P0000
14926KSTC STC20011123224511911/23/01 22:45:31  5-MIN KSTC 240445Z AUTO 06011KT 5SM -RA BR OVC014 06/04 A2960 1330 92 500 060/11 RMK AO2 RAB09 P0000
14926KSTC STC20011123225013611/23/01 22:50:31  5-MIN KSTC 240450Z AUTO 07011KT 5SM -RA BR OVC014 06/04 A2960 1330 92 500 060/11 RMK AO2 RAB09 SLP038 P0000 T00560044
14926KSTC STC20011123225511311/23/01 22:55:31  5-MIN KSTC 240455Z AUTO 06008KT 4SM -RA BR OVC014 06/04 A2960 1330 92 500 050/08 RMK AO2 P0000
14926KSTC STC20011123230011311/23/01 23:00:31  5-MIN KSTC 240500Z AUTO 06008KT 4SM -RA BR OVC014 06/05 A2959 1330 96 500 050/08 RMK AO2 P0000
14926KSTC STC20011123230511311/23/01 23:05:31  5-MIN KSTC 240505Z AUTO 06009KT 4SM -RA BR OVC012 06/05 A2959 1330 96 600 050/09 RMK AO2 P0001
14926KSTC STC20011123231011311/23/01 23:10:31  5-MIN KSTC 240510Z AUTO 05009KT 4SM -RA BR OVC012 06/05 A2959 1330 96 600 050/09 RMK AO2 P0001
14926KSTC STC20011123231511311/23/01 23:15:31  5-MIN KSTC 240515Z AUTO 05009KT 4SM -RA BR OVC012 06/05 A2959 1330 96 600 050/09 RMK AO2 P0001
14926KSTC STC20011123232011311/23/01 23:20:31  5-MIN KSTC 240520Z AUTO 05009KT 4SM -RA BR OVC012 06/05 A2959 1330 96 600 050/09 RMK AO2 P0001
14926KSTC STC20011123232511311/23/01 23:25:31  5-MIN KSTC 240525Z AUTO 05010KT 4SM -RA BR OVC012 06/05 A2959 1330 96 600 050/10 RMK AO2 P0002
14926KSTC STC20011123233011311/23/01 23:30:31  5-MIN KSTC 240530Z AUTO 05008KT 4SM -RA BR OVC012 06/05 A2959 1330 96 600 050/08 RMK AO2 P0002
14926KSTC STC20011123233511311/23/01 23:35:31  5-MIN KSTC 240535Z AUTO 06010KT 4SM -RA BR OVC012 06/05 A2959 1340 96 600 060/10 RMK AO2 P0002
14926KSTC STC20011123234011311/23/01 23:40:31  5-MIN KSTC 240540Z AUTO 06011KT 4SM -RA BR OVC012 06/05 A2959 1330 96 600 060/11 RMK AO2 P0003
14926KSTC STC20011123234511311/23/01 23:45:31  5-MIN KSTC 240545Z AUTO 06008KT 4SM -RA BR OVC010 06/05 A2959 1340 96 600 060/08 RMK AO2 P0003
14926KSTC STC20011123235018211/23/01 23:50:31  5-MIN KSTC 240550Z AUTO 06011G17KT 3SM -RA BR OVC010 06/05 A2959 1340 96 600 060/11G17 RMK AO2 CIG 006V012 SLP035 P0004 60004 T00560050 10061 20050 400610006 58005
14926KSTC STC20011123235513111/23/01 23:55:31  5-MIN KSTC 240555Z AUTO 06010G17KT 4SM -RA BR OVC010 06/05 A2959 1340 96 600 060/10G17 RMK AO2 CIG 006V012 P0000
14926KSTC STC20011124000012511/24/01 00:00:31  5-MIN KSTC 240600Z AUTO 06011KT 4SM -RA BR OVC010 06/05 A2959 1340 96 600 060/11 RMK AO2 CIG 006V011 P0001
14926KSTC STC20011124000512511/24/01 00:05:31  5-MIN KSTC 240605Z AUTO 06011KT 4SM -RA BR OVC008 06/05 A2959 1340 96 600 060/11 RMK AO2 CIG 006V012 P0002
14926KSTC STC20011124001012511/24/01 00:10:31  5-MIN KSTC 240610Z AUTO 06012KT 4SM -RA BR OVC008 06/05 A2959 1340 96 600 060/12 RMK AO2 CIG 006V013 P0003
14926KSTC STC20011124001513011/24/01 00:15:31  5-MIN KSTC 240615Z AUTO 06011G17KT 3SM RA BR OVC008 06/05 A2958 1340 96 600 060/11G17 RMK AO2 CIG 005V013 P0004
14926KSTC STC20011124002013111/24/01 00:20:31  5-MIN KSTC 240620Z AUTO 06011G17KT 3SM -RA BR OVC008 06/05 A2958 1340 96 600 050/11G17 RMK AO2 CIG 005V012 P0004
14926KSTC STC20011124002513811/24/01 00:25:31  5-MIN KSTC 240625Z AUTO 06008G17KT 3SM -RA BR BKN008 OVC013 06/05 A2958 1340 96 600 060/08G17 RMK AO2 CIG 005V011 P0005
14926KSTC STC20011124003013211/24/01 00:30:31  5-MIN KSTC 240630Z AUTO 06009KT 3SM -RA BR BKN008 OVC013 06/05 A2958 1340 96 600 060/09 RMK AO2 CIG 005V010 P0006
14926KSTC STC20011124003513211/24/01 00:35:31  5-MIN KSTC 240635Z AUTO 05009KT 4SM -RA BR BKN008 OVC013 06/05 A2957 1350 96 600 050/09 RMK AO2 CIG 005V010 P0006
14926KSTC STC20011124004012011/24/01 00:40:31  5-MIN KSTC 240640Z AUTO 05010KT 4SM -RA BR BKN008 OVC012 06/05 A2957 1350 96 600 050/10 RMK AO2 P0006
14926KSTC STC20011124004511311/24/01 00:45:31  5-MIN KSTC 240645Z AUTO 05009KT 4SM -RA BR OVC008 06/05 A2957 1350 96 600 050/09 RMK AO2 P0006
14926KSTC STC20011124005013011/24/01 00:50:31  5-MIN KSTC 240650Z AUTO 05009KT 4SM -RA BR OVC006 06/05 A2957 1350 96 600 050/09 RMK AO2 SLP029 P0007 T00560050
14926KSTC STC20011124005511911/24/01 00:55:31  5-MIN KSTC 240655Z AUTO 05010G16KT 4SM -RA BR OVC006 06/05 A2957 1350 96 600 050/10G16 RMK AO2 P0000
14926KSTC STC20011124010012511/24/01 01:00:31  5-MIN KSTC 240700Z AUTO 05010KT 4SM -RA BR OVC006 06/05 A2957 1350 96 600 050/10 RMK AO2 CIG 005V011 P0000
14926KSTC STC20011124010511311/24/01 01:05:31  5-MIN KSTC 240705Z AUTO 06011KT 4SM -RA BR OVC006 06/05 A2957 1350 96 600 050/11 RMK AO2 P0000
14926KSTC STC20011124011013111/24/01 01:10:31  5-MIN KSTC 240710Z AUTO 05011G17KT 4SM -RA BR OVC006 06/05 A2956 1360 96 600 050/11G17 RMK AO2 CIG 005V011 P0001
14926KSTC STC20011124011511911/24/01 01:15:31  5-MIN KSTC 240715Z AUTO 05012G17KT 4SM -RA BR OVC006 06/05 A2956 1360 96 600 050/12G17 RMK AO2 P0001
14926KSTC STC20011124012011311/24/01 01:20:31  5-MIN KSTC 240720Z AUTO 05012KT 4SM -RA BR OVC006 06/05 A2955 1370 96 600 040/12 RMK AO2 P0002
14926KSTC STC20011124012511311/24/01 01:25:31  5-MIN KSTC 240725Z AUTO 05012KT 4SM -RA BR OVC006 06/05 A2955 1370 96 600 040/12 RMK AO2 P0003
14926KSTC STC20011124013011911/24/01 01:30:31  5-MIN KSTC 240730Z AUTO 05013G17KT 4SM -RA BR OVC006 06/05 A2955 1370 96 600 050/13G17 RMK AO2 P0003
14926KSTC STC20011124013511311/24/01 01:35:31  5-MIN KSTC 240735Z AUTO 05012KT 4SM -RA BR OVC006 06/05 A2955 1370 96 600 040/12 RMK AO2 P0003
14926KSTC STC20011124014011311/24/01 01:40:31  5-MIN KSTC 240740Z AUTO 05012KT 4SM -RA BR OVC006 06/05 A2955 1370 96 600 040/12 RMK AO2 P0003
14926KSTC STC20011124014511311/24/01 01:45:31  5-MIN KSTC 240745Z AUTO 05010KT 4SM -RA BR OVC006 06/05 A2955 1370 96 600 050/10 RMK AO2 P0004
14926KSTC STC20011124015013011/24/01 01:50:31  5-MIN KSTC 240750Z AUTO 06009KT 4SM -RA BR OVC006 06/05 A2955 1370 96 600 060/09 RMK AO2 SLP022 P0004 T00560050
14926KSTC STC20011124015511311/24/01 01:55:31  5-MIN KSTC 240755Z AUTO 06011KT 5SM -RA BR OVC006 06/05 A2955 1370 96 600 060/11 RMK AO2 P0000
14926KSTC STC20011124020011311/24/01 02:00:31  5-MIN KSTC 240800Z AUTO 06010KT 5SM -RA BR OVC006 06/05 A2955 1370 96 600 060/10 RMK AO2 P0000
14926KSTC STC20011124020511411/24/01 02:05:31  5-MIN KSTC 240805Z AUTO 06010KT 5SM -RA BR OVC006 06/06 A2955 1370 100 600 060/10 RMK AO2 P0000
14926KSTC STC20011124021011411/24/01 02:10:31  5-MIN KSTC 240810Z AUTO 05010KT 5SM -RA BR OVC006 06/06 A2955 1370 100 600 050/10 RMK AO2 P0000
14926KSTC STC20011124021511411/24/01 02:15:31  5-MIN KSTC 240815Z AUTO 06010KT 5SM -RA BR OVC006 06/06 A2955 1370 100 600 050/10 RMK AO2 P0000
14926KSTC STC20011124022011511/24/01 02:20:31  5-MIN KSTC 240820Z AUTO 06011KT 5SM BR OVC006 06/06 A2955 1370 96 700 050/11 RMK AO2 RAE17 P0000
14926KSTC STC20011124022511911/24/01 02:25:31  5-MIN KSTC 240825Z AUTO 07010G16KT 5SM -RA BR OVC006 06/06 A2955 1370 96 700 060/10G16 RMK AO2 P0000
14926KSTC STC20011124023011911/24/01 02:30:31  5-MIN KSTC 240830Z AUTO 06011G18KT 5SM -RA BR OVC006 06/06 A2954 1380 96 700 060/11G18 RMK AO2 P0000
14926KSTC STC20011124023511911/24/01 02:35:31  5-MIN KSTC 240835Z AUTO 06012G18KT 4SM -RA BR OVC006 06/06 A2954 1380 96 700 060/12G18 RMK AO2 P0000
14926KSTC STC20011124024011911/24/01 02:40:31  5-MIN KSTC 240840Z AUTO 06012G17KT 4SM -RA BR OVC006 06/06 A2954 1380 96 700 060/12G17 RMK AO2 P0001
14926KSTC STC20011124024511311/24/01 02:45:31  5-MIN KSTC 240845Z AUTO 06010KT 4SM -RA BR OVC006 06/06 A2954 1380 96 700 060/10 RMK AO2 P0001
14926KSTC STC20011124025014211/24/01 02:50:31  5-MIN KSTC 240850Z AUTO 06010KT 4SM -RA BR OVC006 06/06 A2954 1380 96 700 060/10 RMK AO2 SLP017 P0001 60012 T00610056 56013
14926KSTC STC20011124025511911/24/01 02:55:31  5-MIN KSTC 240855Z AUTO 07011G17KT 5SM -RA BR OVC006 06/06 A2954 1380 96 700 060/11G17 RMK AO2 P0000
14926KSTC STC20011124030011911/24/01 03:00:31  5-MIN KSTC 240900Z AUTO 06014G18KT 5SM -RA BR OVC006 06/06 A2953 1390 96 700 050/14G18 RMK AO2 P0000
14926KSTC STC20011124030511911/24/01 03:05:31  5-MIN KSTC 240905Z AUTO 06012G18KT 5SM -RA BR OVC006 06/06 A2953 1390 96 700 060/12G18 RMK AO2 P0000
14926KSTC STC20011124031011911/24/01 03:10:31  5-MIN KSTC 240910Z AUTO 06011G18KT 5SM -RA BR OVC006 06/06 A2952 1390 96 700 060/11G18 RMK AO2 P0000
14926KSTC STC20011124031512111/24/01 03:15:31  5-MIN KSTC 240915Z AUTO 06010G18KT 6SM BR OVC006 06/06 A2952 1400 96 700 050/10G18 RMK AO2 RAE13 P0000
14926KSTC STC20011124032012211/24/01 03:20:31  5-MIN KSTC 240920Z AUTO 05013KT 5SM BR OVC006 06/06 A2951 1410 96 700 050/13 RMK AO2 RAE13 PRESFR P0000
14926KSTC STC20011124032512111/24/01 03:25:31  5-MIN KSTC 240925Z AUTO 06010G18KT 5SM BR OVC006 06/06 A2951 1410 96 700 060/10G18 RMK AO2 RAE13 P0000
14926KSTC STC20011124033012111/24/01 03:30:31  5-MIN KSTC 240930Z AUTO 06012G18KT 5SM BR OVC006 06/06 A2951 1410 96 700 060/12G18 RMK AO2 RAE13 P0000
14926KSTC STC20011124033512111/24/01 03:35:31  5-MIN KSTC 240935Z AUTO 06013G20KT 6SM BR OVC006 06/06 A2952 1400 96 700 060/13G20 RMK AO2 RAE13 P0000
14926KSTC STC20011124034012111/24/01 03:40:31  5-MIN KSTC 240940Z AUTO 07013G20KT 6SM BR OVC006 06/06 A2952 1400 96 700 060/13G20 RMK AO2 RAE13 P0000
14926KSTC STC20011124034512111/24/01 03:45:31  5-MIN KSTC 240945Z AUTO 07012G18KT 6SM BR OVC006 06/06 A2951 1410 96 700 060/12G18 RMK AO2 RAE13 P0000
14926KSTC STC20011124035013811/24/01 03:50:31  5-MIN KSTC 240950Z AUTO 06012G17KT 6SM BR OVC006 06/06 A2952 1400 96 700 060/12G17 RMK AO2 RAE13 SLP010 P0000 T00610056
14926KSTC STC20011124035510911/24/01 03:55:31  5-MIN KSTC 240955Z AUTO 07013G17KT 5SM BR OVC006 06/06 A2953 1390 96 700 070/13G17 RMK AO2
14926KSTC STC20011124040010311/24/01 04:00:31  5-MIN KSTC 241000Z AUTO 06012KT 5SM BR OVC006 06/06 A2953 1390 96 700 060/12 RMK AO2
14926KSTC STC20011124040510911/24/01 04:05:31  5-MIN KSTC 241005Z AUTO 06013G17KT 4SM BR OVC006 06/06 A2953 1390 96 700 060/13G17 RMK AO2
14926KSTC STC20011124041010911/24/01 04:10:31  5-MIN KSTC 241010Z AUTO 07013G17KT 4SM BR OVC006 06/06 A2953 1390 96 700 060/13G17 RMK AO2
14926KSTC STC20011124041510311/24/01 04:15:31  5-MIN KSTC 241015Z AUTO 06013KT 4SM BR OVC006 06/06 A2953 1390 96 700 060/13 RMK AO2
14926KSTC STC20011124042010911/24/01 04:20:31  5-MIN KSTC 241020Z AUTO 06012G17KT 3SM BR OVC006 06/06 A2953 1390 96 700 060/12G17 RMK AO2
14926KSTC STC20011124042510911/24/01 04:25:31  5-MIN KSTC 241025Z AUTO 06012G17KT 3SM BR OVC006 06/06 A2954 1380 96 700 060/12G17 RMK AO2
14926KSTC STC20011124043011011/24/01 04:30:31  5-MIN KSTC 241030Z AUTO 06012KT 3SM BR OVC006 06/06 A2953 1390 100 600 050/12 RMK AO2 P0001
14926KSTC STC20011124043511611/24/01 04:35:31  5-MIN KSTC 241035Z AUTO 05011G17KT 3SM BR OVC006 06/06 A2953 1390 100 600 050/11G17 RMK AO2 P0001
14926KSTC STC20011124044011011/24/01 04:40:31  5-MIN KSTC 241040Z AUTO 05012KT 3SM BR OVC006 06/06 A2953 1390 100 600 050/12 RMK AO2 P0001
14926KSTC STC20011124044511011/24/01 04:45:31  5-MIN KSTC 241045Z AUTO 05010KT 3SM BR OVC006 06/06 A2953 1390 100 600 050/10 RMK AO2 P0001
14926KSTC STC20011124045012711/24/01 04:50:31  5-MIN KSTC 241050Z AUTO 05009KT 3SM BR OVC006 06/06 A2953 1390 100 600 050/09 RMK AO2 SLP014 P0001 T00560056
14926KSTC STC20011124045510411/24/01 04:55:31  5-MIN KSTC 241055Z AUTO 05013KT 3SM BR OVC006 06/06 A2952 1400 100 600 050/13 RMK AO2
14926KSTC STC20011124050010411/24/01 05:00:31  5-MIN KSTC 241100Z AUTO 05011KT 4SM BR OVC006 06/06 A2952 1400 100 600 050/11 RMK AO2
14926KSTC STC20011124050510411/24/01 05:05:31  5-MIN KSTC 241105Z AUTO 05011KT 5SM BR OVC006 06/06 A2952 1400 100 600 050/11 RMK AO2
14926KSTC STC20011124051010411/24/01 05:10:31  5-MIN KSTC 241110Z AUTO 05013KT 6SM BR OVC004 06/06 A2951 1400 100 600 050/13 RMK AO2
14926KSTC STC20011124051512011/24/01 05:15:31  5-MIN KSTC 241115Z AUTO 05011KT 6SM -RA BR OVC004 06/06 A2951 1410 100 600 050/11 RMK AO2 RAB15 P0000
14926KSTC STC20011124052012611/24/01 05:20:31  5-MIN KSTC 241120Z AUTO 05015G19KT 6SM -RA BR OVC004 06/06 A2950 1420 100 700 050/15G19 RMK AO2 RAB15 P0000
14926KSTC STC20011124052512211/24/01 05:25:31  5-MIN KSTC 241125Z AUTO 05015G19KT 7SM OVC004 06/06 A2950 1420 100 700 040/15G19 RMK AO2 RAB15E25 P0000
14926KSTC STC20011124053011611/24/01 05:30:31  5-MIN KSTC 241130Z AUTO 05014KT 8SM OVC004 06/06 A2949 1420 100 700 050/14 RMK AO2 RAB15E25 P0000
14926KSTC STC20011124053511611/24/01 05:35:31  5-MIN KSTC 241135Z AUTO 05014KT 8SM OVC004 06/06 A2949 1420 100 700 050/14 RMK AO2 RAB15E25 P0000
14926KSTC STC20011124054011611/24/01 05:40:31  5-MIN KSTC 241140Z AUTO 05013KT 7SM OVC004 06/06 A2949 1420 100 700 050/13 RMK AO2 RAB15E25 P0000
14926KSTC STC20011124054511611/24/01 05:45:31  5-MIN KSTC 241145Z AUTO 05014KT 8SM OVC004 06/06 A2949 1420 100 700 050/14 RMK AO2 RAB15E25 P0000
14926KSTC STC20011124055016211/24/01 05:50:31  5-MIN KSTC 241150Z AUTO 05012KT 9SM OVC004 06/05 A2949 1420 96 700 040/12 RMK AO2 RAB15E25 SLP001 P0000 60013 70017 T00560050 10061 20056 56017
14926KSTC STC20011124055510611/24/01 05:55:31  5-MIN KSTC 241155Z AUTO 04012G20KT 9SM OVC004 06/05 A2949 1420 96 700 040/12G20 RMK AO2
14926KSTC STC20011124060010711/24/01 06:00:31  5-MIN KSTC 241200Z AUTO 05009G20KT 9SM OVC004 06/06 A2950 1420 100 700 050/09G20 RMK AO2
14926KSTC STC20011124060510011/24/01 06:05:31  5-MIN KSTC 241205Z AUTO 05010KT 9SM OVC004 06/05 A2949 1420 96 700 050/10 RMK AO2
14926KSTC STC20011124061010611/24/01 06:10:31  5-MIN KSTC 241210Z AUTO 05013G17KT 9SM OVC004 06/05 A2949 1420 96 700 040/13G17 RMK AO2
14926KSTC STC20011124061510711/24/01 06:15:31  5-MIN KSTC 241215Z AUTO 05013G19KT 10SM OVC004 06/05 A2950 1420 96 700 050/13G19 RMK AO2
14926KSTC STC20011124062010711/24/01 06:20:31  5-MIN KSTC 241220Z AUTO 05013G19KT 10SM OVC004 06/05 A2949 1420 96 700 040/13G19 RMK AO2
14926KSTC STC20011124062510011/24/01 06:25:31  5-MIN KSTC 241225Z AUTO 05014KT 9SM OVC004 06/05 A2949 1430 96 700 040/14 RMK AO2
14926KSTC STC20011124063010011/24/01 06:30:31  5-MIN KSTC 241230Z AUTO 05013KT 9SM OVC004 06/05 A2949 1430 96 700 040/13 RMK AO2
14926KSTC STC20011124063510011/24/01 06:35:31  5-MIN KSTC 241235Z AUTO 05011KT 9SM OVC004 06/05 A2949 1430 96 700 050/11 RMK AO2
14926KSTC STC20011124064010011/24/01 06:40:31  5-MIN KSTC 241240Z AUTO 05011KT 9SM OVC004 06/05 A2949 1430 96 700 050/11 RMK AO2
14926KSTC STC20011124064510011/24/01 06:45:31  5-MIN KSTC 241245Z AUTO 05011KT 9SM OVC004 06/05 A2949 1430 96 700 050/11 RMK AO2
14926KSTC STC20011124065011711/24/01 06:50:31  5-MIN KSTC 241250Z AUTO 05011KT 9SM OVC004 06/05 A2949 1430 96 700 050/11 RMK AO2 SLP000 T00560050
14926KSTC STC20011124065510711/24/01 06:55:31  5-MIN KSTC 241255Z AUTO 05013G19KT 8SM OVC004 06/06 A2949 1430 100 700 040/13G19 RMK AO2
14926KSTC STC20011124070010711/24/01 07:00:31  5-MIN KSTC 241300Z AUTO 05011G21KT 8SM OVC004 06/06 A2948 1430 100 700 040/11G21 RMK AO2
14926KSTC STC20011124070510711/24/01 07:05:31  5-MIN KSTC 241305Z AUTO 05013G21KT 7SM OVC004 06/06 A2948 1430 100 700 050/13G21 RMK AO2
14926KSTC STC20011124071010411/24/01 07:10:31  5-MIN KSTC 241310Z AUTO 05014KT 6SM BR OVC004 06/06 A2948 1440 100 700 040/14 RMK AO2
14926KSTC STC20011124071510411/24/01 07:15:31  5-MIN KSTC 241315Z AUTO 04013KT 5SM BR OVC004 06/06 A2948 1440 100 700 040/13 RMK AO2
14926KSTC STC20011124072010411/24/01 07:20:31  5-MIN KSTC 241320Z AUTO 04011KT 5SM BR OVC004 06/06 A2948 1440 100 700 040/11 RMK AO2
14926KSTC STC20011124072510411/24/01 07:25:31  5-MIN KSTC 241325Z AUTO 05012KT 5SM BR OVC004 06/06 A2947 1440 100 700 050/12 RMK AO2
14926KSTC STC20011124073010411/24/01 07:30:31  5-MIN KSTC 241330Z AUTO 04012KT 5SM BR OVC004 06/06 A2947 1440 100 700 040/12 RMK AO2
14926KSTC STC20011124073511011/24/01 07:35:31  5-MIN KSTC 241335Z AUTO 04014G18KT 6SM BR OVC004 06/06 A2947 1450 100 700 040/14G18 RMK AO2
14926KSTC STC20011124074011011/24/01 07:40:31  5-MIN KSTC 241340Z AUTO 04012G18KT 6SM BR OVC004 06/06 A2947 1450 100 700 040/12G18 RMK AO2
14926KSTC STC20011124074510011/24/01 07:45:31  5-MIN KSTC 241345Z AUTO 04013KT 7SM OVC004 06/06 A2946 1450 96 800 040/13 RMK AO2
14926KSTC STC20011124075012011/24/01 07:50:31  5-MIN KSTC 241350Z AUTO 04013KT 5SM BR OVC004 06/06 A2946 1450 96 800 040/13 RMK AO2 SLP991 T00610056
14926KSTC STC20011124075510411/24/01 07:55:31  5-MIN KSTC 241355Z AUTO 04010KT 5SM BR OVC004 06/06 A2946 1450 100 700 040/10 RMK AO2
14926KSTC STC20011124080010411/24/01 08:00:31  5-MIN KSTC 241400Z AUTO 04012KT 4SM BR OVC004 06/06 A2946 1450 100 700 040/12 RMK AO2
14926KSTC STC20011124080512611/24/01 08:05:31  5-MIN KSTC 241405Z AUTO 04013G18KT 4SM -RA BR OVC004 06/06 A2946 1450 100 700 040/13G18 RMK AO2 RAB05 P0000
14926KSTC STC20011124081012611/24/01 08:10:31  5-MIN KSTC 241410Z AUTO 04013G18KT 3SM -RA BR OVC004 06/06 A2946 1460 100 700 040/13G18 RMK AO2 RAB05 P0000
14926KSTC STC20011124081512311/24/01 08:15:31  5-MIN KSTC 241415Z AUTO 04015KT 2 1/2SM BR OVC004 06/06 A2946 1460 100 700 040/15 RMK AO2 RAB05E14 P0000
14926KSTC STC20011124082012911/24/01 08:20:31  5-MIN KSTC 241420Z AUTO 04015G19KT 2 1/2SM BR OVC004 06/06 A2945 1460 100 700 030/15G19 RMK AO2 RAB05E14 P0000
14926KSTC STC20011124082512911/24/01 08:25:31  5-MIN KSTC 241425Z AUTO 04013G19KT 2 1/2SM BR OVC004 06/06 A2945 1460 100 700 040/13G19 RMK AO2 RAB05E14 P0000
14926KSTC STC20011124083011911/24/01 08:30:31  5-MIN KSTC 241430Z AUTO 04013KT 2SM BR OVC004 06/06 A2945 1460 100 700 040/13 RMK AO2 RAB05E14 P0000
14926KSTC STC20011124083511911/24/01 08:35:31  5-MIN KSTC 241435Z AUTO 04013KT 2SM BR OVC004 06/06 A2945 1460 100 700 040/13 RMK AO2 RAB05E14 P0000
14926KSTC STC20011124084012511/24/01 08:40:31  5-MIN KSTC 241440Z AUTO 04011G19KT 2SM BR OVC004 06/06 A2945 1470 100 700 040/11G19 RMK AO2 RAB05E14 P0000
14926KSTC STC20011124084512911/24/01 08:45:31  5-MIN KSTC 241445Z AUTO 04013G19KT 1 3/4SM BR OVC004 06/06 A2945 1470 100 700 040/13G19 RMK AO2 RAB05E14 P0000
14926KSTC STC20011124085015911/24/01 08:50:31  5-MIN KSTC 241450Z AUTO 04012KT 1 3/4SM -RA BR OVC004 06/06 A2945 1470 100 700 040/12 RMK AO2 RAB05E14B50 SLP986 P0000 60000 T00560056 58014
14926KSTC STC20011124085512411/24/01 08:55:31  5-MIN KSTC 241455Z AUTO 04013G20KT 1 3/4SM -RA BR OVC004 06/06 A2945 1470 100 700 030/13G20 RMK AO2 P0000
14926KSTC STC20011124090012411/24/01 09:00:31  5-MIN KSTC 241500Z AUTO 04013G20KT 1 3/4SM -RA BR OVC004 06/06 A2944 1470 100 700 030/13G20 RMK AO2 P0001
14926KSTC STC20011124090511911/24/01 09:05:31  5-MIN KSTC 241505Z AUTO 04013G19KT 2SM -RA BR OVC004 06/06 A2944 1470 96 800 040/13G19 RMK AO2 P0002
14926KSTC STC20011124091012311/24/01 09:10:31  5-MIN KSTC 241510Z AUTO 04012G19KT 2 1/2SM -RA BR OVC004 06/06 A2944 1480 96 800 030/12G19 RMK AO2 P0002
14926KSTC STC20011124091511711/24/01 09:15:31  5-MIN KSTC 241515Z AUTO 03012KT 2 1/2SM -RA BR OVC004 06/06 A2944 1480 96 800 030/12 RMK AO2 P0003
14926KSTC STC20011124092012411/24/01 09:20:31  5-MIN KSTC 241520Z AUTO 03012G17KT 2 1/2SM -RA BR OVC004 06/06 A2943 1480 100 700 030/12G17 RMK AO2 P0003
14926KSTC STC20011124092512411/24/01 09:25:31  5-MIN KSTC 241525Z AUTO 03009G20KT 2 1/2SM -RA BR OVC004 06/06 A2943 1480 100 700 030/09G20 RMK AO2 P0003
14926KSTC STC20011124093012011/24/01 09:30:31  5-MIN KSTC 241530Z AUTO 04013G20KT 3SM -RA BR OVC004 06/06 A2943 1480 100 700 040/13G20 RMK AO2 P0004
14926KSTC STC20011124093512011/24/01 09:35:31  5-MIN KSTC 241535Z AUTO 04013G20KT 4SM -RA BR OVC004 06/06 A2943 1480 100 700 040/13G20 RMK AO2 P0004
14926KSTC STC20011124094012011/24/01 09:40:31  5-MIN KSTC 241540Z AUTO 03010G18KT 5SM -RA BR OVC004 06/06 A2943 1480 100 700 030/10G18 RMK AO2 P0004
14926KSTC STC20011124094512011/24/01 09:45:31  5-MIN KSTC 241545Z AUTO 03012G20KT 5SM -RA BR OVC004 06/06 A2943 1490 100 700 030/12G20 RMK AO2 P0004
14926KSTC STC20011124095013911/24/01 09:50:31  5-MIN KSTC 241550Z AUTO 03012G20KT 5SM BR OVC004 06/06 A2942 1490 100 700 020/12G20 RMK AO2 RAE46 SLP978 P0004 T00560056
14926KSTC STC20011124095511011/24/01 09:55:31  5-MIN KSTC 241555Z AUTO 03013G19KT 5SM BR OVC004 06/06 A2942 1490 100 800 030/13G19 RMK AO2
14926KSTC STC20011124100011011/24/01 10:00:31  5-MIN KSTC 241600Z AUTO 03013G19KT 5SM BR OVC004 06/06 A2942 1500 100 800 030/13G19 RMK AO2
14926KSTC STC20011124100510411/24/01 10:05:31  5-MIN KSTC 241605Z AUTO 03012KT 5SM BR OVC004 06/06 A2941 1500 100 800 030/12 RMK AO2
14926KSTC STC20011124101010411/24/01 10:10:31  5-MIN KSTC 241610Z AUTO 03011KT 4SM BR OVC004 06/06 A2941 1500 100 800 030/11 RMK AO2
14926KSTC STC20011124101512011/24/01 10:15:31  5-MIN KSTC 241615Z AUTO 03014KT 3SM -RA BR OVC004 06/06 A2940 1510 100 800 030/14 RMK AO2 RAB14 P0000
14926KSTC STC20011124102012411/24/01 10:20:31  5-MIN KSTC 241620Z AUTO 03013KT 2 1/2SM -RA BR OVC004 06/06 A2940 1510 100 800 030/13 RMK AO2 RAB14 P0000
14926KSTC STC20011124102512011/24/01 10:25:31  5-MIN KSTC 241625Z AUTO 02013KT 3SM -RA BR OVC004 06/06 A2940 1510 100 800 020/13 RMK AO2 RAB14 P0000
14926KSTC STC20011124103012611/24/01 10:30:31  5-MIN KSTC 241630Z AUTO 03013G19KT 4SM -RA BR OVC004 06/06 A2940 1510 100 800 020/13G19 RMK AO2 RAB14 P0001
14926KSTC STC20011124103512611/24/01 10:35:31  5-MIN KSTC 241635Z AUTO 03014G19KT 4SM -RA BR OVC004 06/06 A2940 1510 100 800 030/14G19 RMK AO2 RAB14 P0001
14926KSTC STC20011124104012611/24/01 10:40:31  5-MIN KSTC 241640Z AUTO 03016G20KT 3SM -RA BR OVC004 06/06 A2939 1520 100 800 030/16G20 RMK AO2 RAB14 P0001
14926KSTC STC20011124104513011/24/01 10:45:31  5-MIN KSTC 241645Z AUTO 03014G20KT 2 1/2SM -RA BR OVC004 06/06 A2939 1520 100 800 030/14G20 RMK AO2 RAB14 P0001
14926KSTC STC20011124105014711/24/01 10:50:31  5-MIN KSTC 241650Z AUTO 03013G19KT 2 1/2SM -RA BR OVC004 06/06 A2938 1530 100 800 030/13G19 RMK AO2 RAB14 SLP964 P0001 T00560056
14926KSTC STC20011124105512411/24/01 10:55:31  5-MIN KSTC 241655Z AUTO 03012G19KT 2 1/2SM -RA BR OVC004 06/06 A2938 1530 100 800 020/12G19 RMK AO2 P0000
14926KSTC STC20011124110012011/24/01 11:00:31  5-MIN KSTC 241700Z AUTO 03013G19KT 2SM -RA BR OVC004 06/06 A2938 1530 100 800 020/13G19 RMK AO2 P0001
14926KSTC STC20011124110512011/24/01 11:05:31  5-MIN KSTC 241705Z AUTO 03016G20KT 2SM -RA BR OVC004 06/06 A2938 1530 100 800 030/16G20 RMK AO2 P0001
14926KSTC STC20011124111012411/24/01 11:10:31  5-MIN KSTC 241710Z AUTO 03011G20KT 2 1/2SM -RA BR OVC004 06/06 A2938 1530 100 800 030/11G20 RMK AO2 P0001
14926KSTC STC20011124111512011/24/01 11:15:31  5-MIN KSTC 241715Z AUTO 03010G18KT 3SM -RA BR OVC004 06/06 A2938 1530 100 800 030/10G18 RMK AO2 P0002
14926KSTC STC20011124112012011/24/01 11:20:31  5-MIN KSTC 241720Z AUTO 03015G18KT 4SM -RA BR OVC004 06/06 A2937 1540 100 800 020/15G18 RMK AO2 P0003
14926KSTC STC20011124112511211/24/01 11:25:31  5-MIN KSTC 241725Z AUTO 03014KT 4SM RA BR OVC004 06/06 A2936 1550 96 900 020/14 RMK AO2 P0004
14926KSTC STC20011124113013111/24/01 11:30:31  5-MIN KSTC 241730Z AUTO 03013KT 4SM RA BR OVC004 06/06 A2935 1550 96 900 020/13 RMK AO2 CIG 004V009 PRESFR P0005
14926KSTC STC20011124113513111/24/01 11:35:31  5-MIN KSTC 241735Z AUTO 03014KT 4SM RA BR OVC006 06/06 A2935 1560 96 900 030/14 RMK AO2 CIG 004V009 PRESFR P0006
14926KSTC STC20011124114013111/24/01 11:40:31  5-MIN KSTC 241740Z AUTO 03013KT 4SM RA BR OVC006 06/06 A2934 1570 96 900 020/13 RMK AO2 CIG 004V009 PRESFR P0007
14926KSTC STC20011124114513811/24/01 11:45:31  5-MIN KSTC 241745Z AUTO 02015G21KT 4SM -RA BR OVC006 06/05 A2933 1570 93 900 020/15G21 RMK AO2 CIG 004V009 PRESFR P0008
14926KSTC STC20011124115017811/24/01 11:50:31  5-MIN KSTC 241750Z AUTO 03014G21KT 4SM RA BR OVC006 06/05 A2932 1580 93 900 020/14G21 RMK AO2 CIG 005V010 PRESFR SLP944 P0010 60015 T00610050 10061 20056 58016
14926KSTC STC20011124115513711/24/01 11:55:31  5-MIN KSTC 241755Z AUTO 02016G21KT 3SM RA BR OVC008 06/06 A2931 1590 96 900 020/16G21 RMK AO2 CIG 005V010 PRESFR P0000
14926KSTC STC20011124120013811/24/01 12:00:31  5-MIN KSTC 241800Z AUTO 02018G24KT 4SM RA BR OVC008 06/06 A2931 1600 96 1000 020/18G24 RMK AO2 CIG 006V010 PRESFR P0002
14926KSTC STC20011124120513911/24/01 12:05:31  5-MIN KSTC 241805Z AUTO 03017G24KT 5SM -RA BR OVC008 06/06 A2930 1600 96 1000 020/17G24 RMK AO2 CIG 006V010 PRESFR P0002
14926KSTC STC20011124121011711/24/01 12:10:31  5-MIN KSTC 241810Z AUTO 02014G24KT 8SM -RA OVC008 06/06 A2930 1610 96 1000 020/14G24 RMK AO2 P0003
14926KSTC STC20011124121512911/24/01 12:15:31  5-MIN KSTC 241815Z AUTO 02015G22KT 9SM -RA OVC008 06/06 A2930 1610 96 1000 020/15G22 RMK AO2 CIG 006V012 P0003
14926KSTC STC20011124122013011/24/01 12:20:31  5-MIN KSTC 241820Z AUTO 02013G22KT 10SM -RA OVC008 06/06 A2929 1610 96 1000 020/13G22 RMK AO2 CIG 007V011 P0003
14926KSTC STC20011124122513011/24/01 12:25:31  5-MIN KSTC 241825Z AUTO 02014G24KT 10SM -RA OVC008 06/06 A2929 1610 96 1000 020/14G24 RMK AO2 CIG 007V011 P0003
14926KSTC STC20011124123011811/24/01 12:30:31  5-MIN KSTC 241830Z AUTO 02013G24KT 10SM -RA OVC008 06/06 A2929 1620 96 1000 020/13G24 RMK AO2 P0004
14926KSTC STC20011124123511811/24/01 12:35:31  5-MIN KSTC 241835Z AUTO 02015G21KT 10SM -RA OVC008 06/05 A2929 1620 93 1000 020/15G21 RMK AO2 P0004
14926KSTC STC20011124124011811/24/01 12:40:31  5-MIN KSTC 241840Z AUTO 02017G23KT 10SM -RA OVC008 06/05 A2928 1620 93 1000 020/17G23 RMK AO2 P0004
14926KSTC STC20011124124511811/24/01 12:45:31  5-MIN KSTC 241845Z AUTO 02015G24KT 10SM -RA OVC008 06/05 A2928 1630 93 1000 020/15G24 RMK AO2 P0004
14926KSTC STC20011124125013311/24/01 12:50:31  5-MIN KSTC 241850Z AUTO 02014G24KT 9SM -RA OVC008 06/05 A2927 1630 96 900 020/14G24 RMK AO2 SLP925 P0005 T00560050
14926KSTC STC20011124125511711/24/01 12:55:31  5-MIN KSTC 241855Z AUTO 02014G23KT 10SM -RA OVC008 06/05 A2926 1640 96 900 020/14G23 RMK AO2 P0000
14926KSTC STC20011124130011611/24/01 13:00:31  5-MIN KSTC 241900Z AUTO 02016G23KT 9SM -RA OVC008 06/05 A2926 1640 96 900 020/16G23 RMK AO2 P0001
14926KSTC STC20011124130511711/24/01 13:05:31  5-MIN KSTC 241905Z AUTO 03016G22KT 10SM -RA OVC008 06/05 A2926 1640 96 900 020/16G22 RMK AO2 P0001
14926KSTC STC20011124131012911/24/01 13:10:31  5-MIN KSTC 241910Z AUTO 02017G22KT 10SM -RA OVC008 06/05 A2926 1650 96 900 020/17G22 RMK AO2 CIG 008V012 P0001
14926KSTC STC20011124131511611/24/01 13:15:31  5-MIN KSTC 241915Z AUTO 02016G23KT 9SM -RA OVC008 06/05 A2926 1650 96 900 020/16G23 RMK AO2 P0002
14926KSTC STC20011124132011611/24/01 13:20:31  5-MIN KSTC 241920Z AUTO 03014G25KT 8SM -RA OVC010 06/04 A2926 1640 92 900 020/14G25 RMK AO2 P0002
14926KSTC STC20011124132512811/24/01 13:25:31  5-MIN KSTC 241925Z AUTO 02016G25KT 7SM -RA OVC010 06/04 A2926 1650 92 900 020/16G25 RMK AO2 CIG 008V012 P0003
14926KSTC STC20011124133013111/24/01 13:30:31  5-MIN KSTC 241930Z AUTO 02017G21KT 5SM RA BR OVC010 06/04 A2925 1650 92 1000 020/17G21 RMK AO2 CIG 008V013 P0005
14926KSTC STC20011124133513111/24/01 13:35:31  5-MIN KSTC 241935Z AUTO 02013G21KT 4SM RA BR OVC010 06/04 A2925 1660 92 1000 020/13G21 RMK AO2 CIG 008V013 P0006
14926KSTC STC20011124134013111/24/01 13:40:31  5-MIN KSTC 241940Z AUTO 02017G24KT 4SM RA BR OVC010 06/04 A2924 1660 92 1000 020/17G24 RMK AO2 CIG 007V013 P0008
14926KSTC STC20011124134513811/24/01 13:45:31  5-MIN KSTC 241945Z AUTO 02014G24KT 4SM RA BR BKN010 OVC013 06/04 A2924 1660 92 1000 010/14G24 RMK AO2 CIG 007V011 P0009
14926KSTC STC20011124135014811/24/01 13:50:31  5-MIN KSTC 241950Z AUTO 02014G24KT 5SM RA BR OVC010 06/04 A2924 1660 92 1000 010/14G24 RMK AO2 CIG 007V012 SLP914 P0010 T00560044
14926KSTC STC20011124135513011/24/01 13:55:31  5-MIN KSTC 241955Z AUTO 02015G21KT 5SM RA BR OVC010 05/04 A2924 1670 96 900 020/15G21 RMK AO2 CIG 007V014 P0001
14926KSTC STC20011124140012411/24/01 14:00:31  5-MIN KSTC 242000Z AUTO 02014KT 5SM RA BR OVC010 05/04 A2923 1670 96 900 020/14 RMK AO2 CIG 007V014 P0002
14926KSTC STC20011124141013111/24/01 14:10:31  5-MIN KSTC 242010Z AUTO 02015G22KT 5SM -RA BR OVC010 05/04 A2923 1670 96 900 020/15G22 RMK AO2 CIG 008V014 P0004
14926KSTC STC20011124141513111/24/01 14:15:31  5-MIN KSTC 242015Z AUTO 02017G24KT 5SM -RA BR OVC010 05/04 A2923 1670 96 900 020/17G24 RMK AO2 CIG 008V014 P0005
14926KSTC STC20011124142013011/24/01 14:20:31  5-MIN KSTC 242020Z AUTO 02014G24KT 5SM RA BR OVC010 05/04 A2923 1670 96 900 010/14G24 RMK AO2 CIG 008V013 P0006
14926KSTC STC20011124142513011/24/01 14:25:31  5-MIN KSTC 242025Z AUTO 02015G22KT 4SM RA BR OVC010 05/04 A2922 1680 96 900 020/15G22 RMK AO2 CIG 008V013 P0007
14926KSTC STC20011124143013011/24/01 14:30:31  5-MIN KSTC 242030Z AUTO 02014G24KT 4SM RA BR OVC010 05/04 A2923 1670 96 900 010/14G24 RMK AO2 CIG 008V013 P0009
14926KSTC STC20011124143513111/24/01 14:35:31  5-MIN KSTC 242035Z AUTO 02016G24KT 4SM -RA BR OVC010 05/04 A2922 1680 96 900 020/16G24 RMK AO2 CIG 008V013 P0010
14926KSTC STC20011124144013011/24/01 14:40:31  5-MIN KSTC 242040Z AUTO 02016G21KT 4SM RA BR OVC010 05/04 A2922 1680 96 900 020/16G21 RMK AO2 CIG 007V013 P0011
14926KSTC STC20011124144513011/24/01 14:45:31  5-MIN KSTC 242045Z AUTO 02016G21KT 4SM RA BR OVC010 05/04 A2922 1680 96 900 010/16G21 RMK AO2 CIG 007V013 P0012
14926KSTC STC20011124145015911/24/01 14:50:31  5-MIN KSTC 242050Z AUTO 01015G23KT 4SM RA BR OVC010 05/04 A2922 1680 96 900 010/15G23 RMK AO2 CIG 007V013 SLP908 P0015 60031 T00500044 58042
14926KSTC STC20011124145513011/24/01 14:55:31  5-MIN KSTC 242055Z AUTO 02014G23KT 3SM RA BR OVC010 05/04 A2922 1680 96 900 010/14G23 RMK AO2 CIG 007V012 P0001
14926KSTC STC20011124150013011/24/01 15:00:31  5-MIN KSTC 242100Z AUTO 02012G19KT 4SM RA BR OVC010 05/04 A2922 1680 96 900 010/12G19 RMK AO2 CIG 007V012 P0002
14926KSTC STC20011124150513011/24/01 15:05:31  5-MIN KSTC 242105Z AUTO 01012G19KT 4SM RA BR OVC010 05/04 A2922 1680 96 900 010/12G19 RMK AO2 CIG 007V013 P0004
14926KSTC STC20011124151013011/24/01 15:10:31  5-MIN KSTC 242110Z AUTO 02014G22KT 4SM RA BR OVC010 05/04 A2922 1680 96 900 010/14G22 RMK AO2 CIG 007V011 P0005
14926KSTC STC20011124151513011/24/01 15:15:31  5-MIN KSTC 242115Z AUTO 01017G23KT 4SM RA BR OVC010 05/04 A2922 1680 96 900 010/17G23 RMK AO2 CIG 007V013 P0007
14926KSTC STC20011124152013011/24/01 15:20:31  5-MIN KSTC 242120Z AUTO 01013G23KT 4SM RA BR OVC010 05/04 A2922 1680 96 900 010/13G23 RMK AO2 CIG 007V013 P0008
14926KSTC STC20011124152513011/24/01 15:25:31  5-MIN KSTC 242125Z AUTO 02014G19KT 4SM RA BR OVC010 05/04 A2922 1680 96 900 020/14G19 RMK AO2 CIG 007V013 P0010
14926KSTC STC20011124153013011/24/01 15:30:31  5-MIN KSTC 242130Z AUTO 02014G24KT 4SM RA BR OVC010 05/04 A2922 1680 96 900 010/14G24 RMK AO2 CIG 007V013 P0011
14926KSTC STC20011124153513011/24/01 15:35:31  5-MIN KSTC 242135Z AUTO 02016G24KT 5SM RA BR OVC010 05/04 A2923 1670 96 900 020/16G24 RMK AO2 CIG 007V012 P0012
14926KSTC STC20011124154013111/24/01 15:40:31  5-MIN KSTC 242140Z AUTO 02014G22KT 6SM -RA BR OVC010 05/04 A2923 1670 96 900 010/14G22 RMK AO2 CIG 007V012 P0013
14926KSTC STC20011124154512411/24/01 15:45:31  5-MIN KSTC 242145Z AUTO 02013KT 5SM RA BR OVC010 05/04 A2923 1680 96 900 010/13 RMK AO2 CIG 007V013 P0015
14926KSTC STC20011124155014111/24/01 15:50:31  5-MIN KSTC 242150Z AUTO 02014KT 3SM RA BR OVC010 05/04 A2922 1680 96 900 010/14 RMK AO2 CIG 007V014 SLP910 P0018 T00500044
14926KSTC STC20011124155513011/24/01 15:55:31  5-MIN KSTC 242155Z AUTO 01016G20KT 3SM RA BR OVC010 05/04 A2922 1680 96 900 010/16G20 RMK AO2 CIG 007V014 P0001
14926KSTC STC20011124160012511/24/01 16:00:31  5-MIN KSTC 242200Z AUTO 02015G20KT 4SM RA BR BKN010 OVC016 05/04 A2922 1680 96 900 010/15G20 RMK AO2 P0003
14926KSTC STC20011124160511811/24/01 16:05:31  5-MIN KSTC 242205Z AUTO 01016G20KT 4SM RA BR OVC012 05/04 A2922 1680 96 900 010/16G20 RMK AO2 P0006
14926KSTC STC20011124161013711/24/01 16:10:31  5-MIN KSTC 242210Z AUTO 01014G22KT 5SM RA BR BKN010 OVC015 05/04 A2922 1680 96 900 360/14G22 RMK AO2 CIG 008V013 P0007
14926KSTC STC20011124161512511/24/01 16:15:31  5-MIN KSTC 242215Z AUTO 01016G22KT 6SM RA BR BKN012 OVC019 05/04 A2922 1680 96 900 010/16G22 RMK AO2 P0010
14926KSTC STC20011124162012511/24/01 16:20:31  5-MIN KSTC 242220Z AUTO 01013G22KT 5SM RA BR BKN012 OVC018 05/04 A2923 1670 96 900 010/13G22 RMK AO2 P0013
14926KSTC STC20011124162513711/24/01 16:25:31  5-MIN KSTC 242225Z AUTO 02013G22KT 5SM RA BR BKN010 OVC016 05/04 A2923 1670 96 900 020/13G22 RMK AO2 CIG 008V012 P0015
14926KSTC STC20011124163011811/24/01 16:30:31  5-MIN KSTC 242230Z AUTO 02011G19KT 5SM RA BR OVC012 05/04 A2923 1670 96 900 020/11G19 RMK AO2 P0017
14926KSTC STC20011124163511211/24/01 16:35:31  5-MIN KSTC 242235Z AUTO 01014KT 5SM RA BR OVC012 05/04 A2923 1670 96 900 010/14 RMK AO2 P0019
14926KSTC STC20011124164011211/24/01 16:40:31  5-MIN KSTC 242240Z AUTO 01012KT 5SM RA BR OVC012 05/04 A2923 1670 96 900 010/12 RMK AO2 P0022
14926KSTC STC20011124164511211/24/01 16:45:31  5-MIN KSTC 242245Z AUTO 01015KT 5SM RA BR OVC012 05/04 A2923 1670 96 900 010/15 RMK AO2 P0024
14926KSTC STC20011124165012911/24/01 16:50:31  5-MIN KSTC 242250Z AUTO 01012KT 5SM RA BR OVC012 05/04 A2923 1670 96 900 010/12 RMK AO2 SLP911 P0026 T00500044
14926KSTC STC20011124165511911/24/01 16:55:31  5-MIN KSTC 242255Z AUTO 36012KT 6SM RA BR BKN012 OVC019 05/04 A2923 1680 96 900 360/12 RMK AO2 P0001
14926KSTC STC20011124170011611/24/01 17:00:31  5-MIN KSTC 242300Z AUTO 36013KT 7SM RA BKN012 OVC017 05/04 A2922 1680 96 900 350/13 RMK AO2 P0002
14926KSTC STC20011124170513511/24/01 17:05:31  5-MIN KSTC 242305Z AUTO 36014G20KT 7SM -RA BKN010 OVC017 05/04 A2921 1690 96 900 360/14G20 RMK AO2 CIG 008V015 P0002
14926KSTC STC20011124171012811/24/01 17:10:31  5-MIN KSTC 242310Z AUTO 36014G20KT 9SM -RA OVC010 05/04 A2921 1690 96 900 360/14G20 RMK AO2 CIG 008V015 P0003
14926KSTC STC20011124171512411/24/01 17:15:31  5-MIN KSTC 242315Z AUTO 35015G19KT 10SM -RA BKN010 OVC018 05/04 A2922 1680 96 900 350/15G19 RMK AO2 P0003
14926KSTC STC20011124172013711/24/01 17:20:31  5-MIN KSTC 242320Z AUTO 01012KT 10SM -RA BKN010 BKN013 OVC018 05/04 A2921 1690 96 900 010/12 RMK AO2 CIG 008V011 P0003
14926KSTC STC20011124172512311/24/01 17:25:31  5-MIN KSTC 242325Z AUTO 36014KT 10SM -RA OVC010 05/04 A2922 1680 96 900 360/14 RMK AO2 CIG 008V014 P0003
14926KSTC STC20011124173012511/24/01 17:30:31  5-MIN KSTC 242330Z AUTO 01013KT 10SM OVC010 05/04 A2922 1680 92 900 010/13 RMK AO2 RAE29 CIG 007V014 P0003
14926KSTC STC20011124173513811/24/01 17:35:31  5-MIN KSTC 242335Z AUTO 01014G19KT 10SM BKN010 OVC017 05/04 A2922 1680 92 900 010/14G19 RMK AO2 RAE29 CIG 007V013 P0003
14926KSTC STC20011124174013211/24/01 17:40:31  5-MIN KSTC 242340Z AUTO 01012KT 10SM BKN010 OVC017 05/04 A2923 1680 92 900 010/12 RMK AO2 RAE29 CIG 007V013 P0003
14926KSTC STC20011124174511311/24/01 17:45:31  5-MIN KSTC 242345Z AUTO 01014KT 10SM OVC010 05/04 A2923 1670 92 900 010/14 RMK AO2 RAE29 P0003
14926KSTC STC20011124175016011/24/01 17:50:31  5-MIN KSTC 242350Z AUTO 36014G18KT 10SM OVC010 05/04 A2923 1680 92 900 360/14G18 RMK AO2 RAE29 SLP910 P0003 60079 T00500039 10061 20050 56033
14926KSTC STC20011124175511911/24/01 17:55:31  5-MIN KSTC 242355Z AUTO 01012G18KT 10SM OVC010 05/04 A2922 1680 92 900 360/12G18 RMK AO2 CIG 007V013
14926KSTC STC20011124180010111/24/01 18:00:31  5-MIN KSTC 250000Z AUTO 01013KT 10SM OVC010 05/04 A2923 1670 92 900 360/13 RMK AO2
14926KSTC STC20011124180510111/24/01 18:05:31  5-MIN KSTC 250005Z AUTO 01011KT 10SM OVC010 05/04 A2923 1670 92 900 010/11 RMK AO2
14926KSTC STC20011124181010111/24/01 18:10:31  5-MIN KSTC 250010Z AUTO 01013KT 10SM OVC010 05/04 A2923 1670 92 900 360/13 RMK AO2
14926KSTC STC20011124181510111/24/01 18:15:31  5-MIN KSTC 250015Z AUTO 01011KT 10SM OVC012 05/04 A2923 1670 92 900 360/11 RMK AO2
14926KSTC STC20011124182010711/24/01 18:20:31  5-MIN KSTC 250020Z AUTO 36014G18KT 10SM OVC012 05/04 A2923 1670 92 900 360/14G18 RMK AO2
14926KSTC STC20011124182510111/24/01 18:25:31  5-MIN KSTC 250025Z AUTO 36013KT 10SM OVC012 04/04 A2923 1670 96 800 360/13 RMK AO2
14926KSTC STC20011124183010111/24/01 18:30:31  5-MIN KSTC 250030Z AUTO 36011KT 10SM OVC012 04/04 A2923 1670 96 800 360/11 RMK AO2
14926KSTC STC20011124183510111/24/01 18:35:31  5-MIN KSTC 250035Z AUTO 36013KT 10SM OVC012 04/04 A2923 1670 96 800 360/13 RMK AO2
14926KSTC STC20011124184010111/24/01 18:40:31  5-MIN KSTC 250040Z AUTO 36012KT 10SM OVC012 05/04 A2923 1670 92 900 360/12 RMK AO2
14926KSTC STC20011124184510711/24/01 18:45:31  5-MIN KSTC 250045Z AUTO 36013G18KT 10SM OVC012 04/04 A2923 1670 96 800 360/13G18 RMK AO2
14926KSTC STC20011124185011811/24/01 18:50:31  5-MIN KSTC 250050Z AUTO 36013KT 10SM OVC012 04/04 A2923 1670 96 800 360/13 RMK AO2 SLP913 T00440039
14926KSTC STC20011124185510111/24/01 18:55:31  5-MIN KSTC 250055Z AUTO 36010KT 10SM OVC012 05/04 A2923 1670 92 900 360/10 RMK AO2
14926KSTC STC20011124190010111/24/01 19:00:31  5-MIN KSTC 250100Z AUTO 36011KT 10SM OVC012 05/04 A2924 1670 92 900 360/11 RMK AO2
14926KSTC STC20011124190510111/24/01 19:05:31  5-MIN KSTC 250105Z AUTO 36012KT 10SM OVC012 04/04 A2924 1660 96 800 360/12 RMK AO2
14926KSTC STC20011124191010111/24/01 19:10:31  5-MIN KSTC 250110Z AUTO 01012KT 10SM OVC012 05/04 A2924 1660 92 900 360/12 RMK AO2
14926KSTC STC20011124191510111/24/01 19:15:31  5-MIN KSTC 250115Z AUTO 36011KT 10SM OVC012 05/04 A2924 1660 92 900 360/11 RMK AO2
14926KSTC STC20011124192010111/24/01 19:20:31  5-MIN KSTC 250120Z AUTO 01010KT 10SM OVC012 05/04 A2924 1660 92 900 010/10 RMK AO2
14926KSTC STC20011124192510111/24/01 19:25:31  5-MIN KSTC 250125Z AUTO 36011KT 10SM OVC012 05/04 A2924 1660 92 900 360/11 RMK AO2
14926KSTC STC20011124193010111/24/01 19:30:31  5-MIN KSTC 250130Z AUTO 36011KT 10SM OVC012 05/04 A2924 1660 92 900 360/11 RMK AO2
14926KSTC STC20011124193510111/24/01 19:35:31  5-MIN KSTC 250135Z AUTO 36011KT 10SM OVC012 05/03 A2924 1660 89 900 360/11 RMK AO2
14926KSTC STC20011124194010111/24/01 19:40:31  5-MIN KSTC 250140Z AUTO 36013KT 10SM OVC012 05/03 A2924 1660 89 900 360/13 RMK AO2
14926KSTC STC20011124194510111/24/01 19:45:31  5-MIN KSTC 250145Z AUTO 36012KT 10SM OVC012 05/03 A2924 1660 89 900 360/12 RMK AO2
14926KSTC STC20011124195011811/24/01 19:50:31  5-MIN KSTC 250150Z AUTO 36012KT 10SM OVC012 04/03 A2924 1660 92 800 360/12 RMK AO2 SLP916 T00440033
14926KSTC STC20011124195510111/24/01 19:55:31  5-MIN KSTC 250155Z AUTO 36010KT 10SM OVC012 04/03 A2924 1660 92 800 360/10 RMK AO2
14926KSTC STC20011124200010111/24/01 20:00:31  5-MIN KSTC 250200Z AUTO 36011KT 10SM OVC010 04/03 A2925 1660 92 800 360/11 RMK AO2
14926KSTC STC20011124200510111/24/01 20:05:31  5-MIN KSTC 250205Z AUTO 36010KT 10SM OVC010 04/03 A2925 1660 92 800 350/10 RMK AO2
14926KSTC STC20011124201010111/24/01 20:10:31  5-MIN KSTC 250210Z AUTO 36012KT 10SM OVC010 04/03 A2925 1660 92 800 350/12 RMK AO2
14926KSTC STC20011124201510111/24/01 20:15:31  5-MIN KSTC 250215Z AUTO 36011KT 10SM OVC010 04/03 A2924 1660 92 800 360/11 RMK AO2
14926KSTC STC20011124202010111/24/01 20:20:31  5-MIN KSTC 250220Z AUTO 36011KT 10SM OVC010 04/03 A2924 1660 92 800 360/11 RMK AO2
14926KSTC STC20011124202510111/24/01 20:25:31  5-MIN KSTC 250225Z AUTO 36010KT 10SM OVC010 04/03 A2925 1660 92 800 350/10 RMK AO2
14926KSTC STC20011124203010111/24/01 20:30:31  5-MIN KSTC 250230Z AUTO 36011KT 10SM OVC010 04/03 A2924 1660 92 800 350/11 RMK AO2
14926KSTC STC20011124203510111/24/01 20:35:31  5-MIN KSTC 250235Z AUTO 35011KT 10SM OVC010 04/03 A2925 1660 92 800 350/11 RMK AO2
14926KSTC STC20011124204010111/24/01 20:40:31  5-MIN KSTC 250240Z AUTO 35011KT 10SM OVC010 04/03 A2925 1660 92 800 350/11 RMK AO2
14926KSTC STC20011124204511311/24/01 20:45:31  5-MIN KSTC 250245Z AUTO 35010KT 10SM OVC010 04/03 A2925 1660 96 800 340/10 RMK AO2 CIG 007V011
14926KSTC STC20011124205013611/24/01 20:50:31  5-MIN KSTC 250250Z AUTO 35009KT 10SM OVC010 04/03 A2925 1660 96 800 350/09 RMK AO2 CIG 006V011 SLP918 T00390033 50002
14926KSTC STC20011124205511211/24/01 20:55:31  5-MIN KSTC 250255Z AUTO 35011KT 9SM OVC008 04/03 A2925 1650 96 700 340/11 RMK AO2 CIG 006V011
14926KSTC STC20011124210011211/24/01 21:00:31  5-MIN KSTC 250300Z AUTO 35012KT 9SM OVC008 04/03 A2925 1650 96 700 350/12 RMK AO2 CIG 006V011
14926KSTC STC20011124210511211/24/01 21:05:31  5-MIN KSTC 250305Z AUTO 34012KT 8SM OVC008 04/03 A2925 1650 96 700 340/12 RMK AO2 CIG 006V011
14926KSTC STC20011124211011211/24/01 21:10:31  5-MIN KSTC 250310Z AUTO 35012KT 8SM OVC008 04/03 A2925 1650 96 700 350/12 RMK AO2 CIG 006V011
14926KSTC STC20011124211511211/24/01 21:15:31  5-MIN KSTC 250315Z AUTO 35011KT 8SM OVC008 04/03 A2925 1650 96 700 340/11 RMK AO2 CIG 006V009
14926KSTC STC20011124212011211/24/01 21:20:31  5-MIN KSTC 250320Z AUTO 34013KT 8SM OVC008 04/03 A2925 1650 96 700 340/13 RMK AO2 CIG 005V011
14926KSTC STC20011124212511811/24/01 21:25:31  5-MIN KSTC 250325Z AUTO 34011G17KT 9SM OVC008 04/03 A2926 1640 96 700 340/11G17 RMK AO2 CIG 005V011
14926KSTC STC20011124213011811/24/01 21:30:31  5-MIN KSTC 250330Z AUTO 35012G17KT 9SM OVC008 04/03 A2926 1640 96 700 340/12G17 RMK AO2 CIG 005V011
14926KSTC STC20011124213511211/24/01 21:35:31  5-MIN KSTC 250335Z AUTO 34010KT 9SM OVC008 04/03 A2926 1640 96 700 340/10 RMK AO2 CIG 005V011
14926KSTC STC20011124214011211/24/01 21:40:31  5-MIN KSTC 250340Z AUTO 34012KT 8SM OVC008 04/03 A2926 1640 96 700 340/12 RMK AO2 CIG 005V011
14926KSTC STC20011124214511211/24/01 21:45:31  5-MIN KSTC 250345Z AUTO 34012KT 7SM OVC008 04/03 A2926 1640 96 700 340/12 RMK AO2 CIG 005V010
14926KSTC STC20011124215012911/24/01 21:50:31  5-MIN KSTC 250350Z AUTO 35012KT 7SM OVC008 04/03 A2927 1640 96 700 340/12 RMK AO2 CIG 005V010 SLP925 T00390033
14926KSTC STC20011124215511211/24/01 21:55:31  5-MIN KSTC 250355Z AUTO 34011KT 8SM OVC008 04/03 A2927 1640 96 700 340/11 RMK AO2 CIG 005V011
14926KSTC STC20011124220011211/24/01 22:00:31  5-MIN KSTC 250400Z AUTO 34011KT 8SM OVC008 04/03 A2927 1630 96 700 330/11 RMK AO2 CIG 005V011
14926KSTC STC20011124220511211/24/01 22:05:31  5-MIN KSTC 250405Z AUTO 34012KT 9SM OVC008 04/03 A2927 1630 92 700 330/12 RMK AO2 CIG 005V011
14926KSTC STC20011124221011811/24/01 22:10:31  5-MIN KSTC 250410Z AUTO 34011G17KT 9SM OVC008 03/03 A2927 1630 96 700 340/11G17 RMK AO2 CIG 005V011
14926KSTC STC20011124221510611/24/01 22:15:31  5-MIN KSTC 250415Z AUTO 34013G18KT 8SM OVC008 03/03 A2927 1630 96 700 340/13G18 RMK AO2
14926KSTC STC20011124222010611/24/01 22:20:31  5-MIN KSTC 250420Z AUTO 34014G18KT 7SM OVC008 03/03 A2927 1630 96 700 340/14G18 RMK AO2
14926KSTC STC20011124222511811/24/01 22:25:31  5-MIN KSTC 250425Z AUTO 34012G17KT 7SM OVC008 03/03 A2927 1630 96 700 340/12G17 RMK AO2 CIG 006V011
14926KSTC STC20011124223011511/24/01 22:30:31  5-MIN KSTC 250430Z AUTO 34012KT 6SM BR OVC008 03/03 A2927 1630 96 700 340/12 RMK AO2 CIG 006V011
14926KSTC STC20011124223513111/24/01 22:35:31  5-MIN KSTC 250435Z AUTO 34013KT 6SM -RA BR OVC008 03/03 A2928 1630 96 600 330/13 RMK AO2 RAB33 CIG 006V012 P0000
14926KSTC STC20011124224013811/24/01 22:40:31  5-MIN KSTC 250440Z AUTO 34011KT 5SM -RA BR BKN008 OVC012 03/03 A2928 1620 96 600 340/11 RMK AO2 RAB33 CIG 006V010 P0000
14926KSTC STC20011124224513811/24/01 22:45:31  5-MIN KSTC 250445Z AUTO 34013KT 5SM -RA BR BKN008 OVC012 03/03 A2928 1620 96 600 330/13 RMK AO2 RAB33 CIG 006V010 P0000
14926KSTC STC20011124225014311/24/01 22:50:31  5-MIN KSTC 250450Z AUTO 34013KT 5SM -RA BR BKN008 OVC012 03/03 A2929 1620 96 600 340/13 RMK AO2 RAB33 SLP932 P0000 T00330028
14926KSTC STC20011124225512011/24/01 22:55:31  5-MIN KSTC 250455Z AUTO 34012KT 5SM -RA BR BKN008 OVC013 03/03 A2929 1620 96 600 340/12 RMK AO2 P0000
14926KSTC STC20011124230012011/24/01 23:00:31  5-MIN KSTC 250500Z AUTO 34014KT 5SM -RA BR BKN010 OVC014 03/03 A2929 1620 96 600 330/14 RMK AO2 P0000
14926KSTC STC20011124230511911/24/01 23:05:31  5-MIN KSTC 250505Z AUTO 34014G22KT 5SM -RA BR OVC010 03/03 A2929 1610 96 600 340/14G22 RMK AO2 P0000
14926KSTC STC20011124231011911/24/01 23:10:31  5-MIN KSTC 250510Z AUTO 34012G22KT 6SM -RA BR OVC010 03/03 A2929 1610 96 600 330/12G22 RMK AO2 P0000
14926KSTC STC20011124231512011/24/01 23:15:31  5-MIN KSTC 250515Z AUTO 34011KT 6SM -RA BR BKN010 OVC014 03/03 A2930 1610 96 600 330/11 RMK AO2 P0000
14926KSTC STC20011124232012011/24/01 23:20:31  5-MIN KSTC 250520Z AUTO 33014KT 6SM -RA BR BKN010 OVC014 03/03 A2930 1610 96 600 330/14 RMK AO2 P0000
14926KSTC STC20011124232511311/24/01 23:25:31  5-MIN KSTC 250525Z AUTO 34012KT 6SM -RA BR OVC010 03/03 A2930 1600 96 600 330/12 RMK AO2 P0000
14926KSTC STC20011124233011211/24/01 23:30:31  5-MIN KSTC 250530Z AUTO 33013KT 7SM OVC010 03/03 A2931 1600 96 600 330/13 RMK AO2 RAE26 P0000
14926KSTC STC20011124233511211/24/01 23:35:31  5-MIN KSTC 250535Z AUTO 34014KT 8SM OVC010 03/02 A2931 1600 92 600 330/14 RMK AO2 RAE26 P0000
14926KSTC STC20011124234011311/24/01 23:40:31  5-MIN KSTC 250540Z AUTO 34014KT 10SM OVC010 03/02 A2931 1600 92 600 330/14 RMK AO2 RAE26 P0000
14926KSTC STC20011124234512511/24/01 23:45:31  5-MIN KSTC 250545Z AUTO 33013KT 10SM OVC010 03/02 A2931 1590 96 500 330/13 RMK AO2 RAE26 CIG 007V012 P0000
14926KSTC STC20011124235017511/24/01 23:50:31  5-MIN KSTC 250550Z AUTO 34012KT 9SM OVC010 03/02 A2932 1590 96 500 340/12 RMK AO2 RAE26 CIG 006V014 SLP942 P0000 60000 T00280022 10050 20028 400610028 51008
14926KSTC STC20011124235511211/24/01 23:55:31  5-MIN KSTC 250555Z AUTO 34012KT 8SM OVC010 03/02 A2932 1590 96 500 330/12 RMK AO2 CIG 006V015
14926KSTC STC20011125000011211/25/01 00:00:31  5-MIN KSTC 250600Z AUTO 34012KT 7SM OVC010 03/02 A2933 1580 96 500 340/12 RMK AO2 CIG 006V015
14926KSTC STC20011125000511511/25/01 00:05:31  5-MIN KSTC 250605Z AUTO 33010KT 6SM BR OVC010 03/02 A2933 1580 96 500 330/10 RMK AO2 CIG 006V013
14926KSTC STC20011125001012811/25/01 00:10:31  5-MIN KSTC 250610Z AUTO 34009G17KT 5SM BR BKN010 OVC014 03/02 A2933 1580 96 500 330/09G17 RMK AO2 CIG 006V011
14926KSTC STC20011125001512211/25/01 00:15:31  5-MIN KSTC 250615Z AUTO 33011KT 6SM BR BKN010 OVC014 03/02 A2934 1570 96 500 330/11 RMK AO2 CIG 006V011
14926KSTC STC20011125002012211/25/01 00:20:31  5-MIN KSTC 250620Z AUTO 33010KT 6SM BR BKN010 OVC014 03/02 A2934 1570 96 500 330/10 RMK AO2 CIG 006V011
14926KSTC STC20011125002511911/25/01 00:25:31  5-MIN KSTC 250625Z AUTO 34012KT 8SM BKN010 OVC014 03/02 A2934 1570 96 500 330/12 RMK AO2 CIG 006V011
14926KSTC STC20011125003011311/25/01 00:30:31  5-MIN KSTC 250630Z AUTO 33012KT 10SM OVC010 03/02 A2934 1570 92 500 330/12 RMK AO2 CIG 006V012
14926KSTC STC20011125003511311/25/01 00:35:31  5-MIN KSTC 250635Z AUTO 33011KT 10SM OVC010 03/02 A2934 1560 92 500 320/11 RMK AO2 CIG 006V015
14926KSTC STC20011125004011311/25/01 00:40:31  5-MIN KSTC 250640Z AUTO 33013KT 10SM OVC010 02/02 A2935 1560 96 400 330/13 RMK AO2 CIG 007V014
14926KSTC STC20011125004512911/25/01 00:45:31  5-MIN KSTC 250645Z AUTO 33012KT 10SM -RA OVC010 02/02 A2935 1560 96 400 320/12 RMK AO2 RAB43 CIG 007V014 P0000
14926KSTC STC20011125005015211/25/01 00:50:31  5-MIN KSTC 250650Z AUTO 32015G20KT 10SM -RA OVC010 02/02 A2935 1550 96 400 320/15G20 RMK AO2 RAB43 CIG 007V014 SLP956 P0000 T00220017
14926KSTC STC20011125005512911/25/01 00:55:31  5-MIN KSTC 250655Z AUTO 32012G20KT 10SM -RA OVC010 02/02 A2936 1550 96 400 320/12G20 RMK AO2 CIG 007V012 P0000
14926KSTC STC20011125010012311/25/01 01:00:31  5-MIN KSTC 250700Z AUTO 32012KT 10SM -RA OVC010 02/02 A2936 1550 96 400 320/12 RMK AO2 CIG 007V012 P0000
14926KSTC STC20011125010512511/25/01 01:05:31  5-MIN KSTC 250705Z AUTO 32013KT 10SM OVC010 02/02 A2936 1550 96 400 320/13 RMK AO2 RAE05 CIG 007V014 P0000
14926KSTC STC20011125011011111/25/01 01:10:31  5-MIN KSTC 250710Z AUTO 32014KT 10SM -RA OVC010 02/02 A2936 1550 96 400 320/14 RMK AO2 P0000
14926KSTC STC20011125011512911/25/01 01:15:31  5-MIN KSTC 250715Z AUTO 32013G18KT 10SM -RA OVC010 02/02 A2936 1540 96 400 320/13G18 RMK AO2 CIG 007V014 P0000
14926KSTC STC20011125012013211/25/01 01:20:31  5-MIN KSTC 250720Z AUTO 32014KT 10SM BKN010 OVC014 02/02 A2937 1540 96 400 320/14 RMK AO2 RAE19 CIG 007V012 P0000
14926KSTC STC20011125012511311/25/01 01:25:31  5-MIN KSTC 250725Z AUTO 32013KT 10SM OVC010 02/02 A2937 1540 96 400 310/13 RMK AO2 RAE19 P0000
14926KSTC STC20011125013011311/25/01 01:30:31  5-MIN KSTC 250730Z AUTO 31013KT 10SM OVC012 02/02 A2938 1530 96 400 310/13 RMK AO2 RAE19 P0000
14926KSTC STC20011125013513211/25/01 01:35:31  5-MIN KSTC 250735Z AUTO 31015KT 10SM BKN010 OVC014 02/01 A2938 1530 92 400 310/15 RMK AO2 RAE19 CIG 007V012 P0000
14926KSTC STC20011125014011311/25/01 01:40:31  5-MIN KSTC 250740Z AUTO 31015KT 10SM OVC010 02/01 A2938 1530 92 400 310/15 RMK AO2 RAE19 P0000
14926KSTC STC20011125014511311/25/01 01:45:31  5-MIN KSTC 250745Z AUTO 31014KT 10SM OVC012 02/01 A2938 1530 96 300 310/14 RMK AO2 RAE19 P0000
14926KSTC STC20011125015013011/25/01 01:50:31  5-MIN KSTC 250750Z AUTO 31014KT 10SM OVC012 02/01 A2939 1520 96 300 310/14 RMK AO2 RAE19 SLP967 P0000 T00170011
14926KSTC STC20011125015511711/25/01 01:55:31  5-MIN KSTC 250755Z AUTO 31017G22KT 10SM -RA OVC014 02/01 A2939 1520 96 300 310/17G22 RMK AO2 P0000
14926KSTC STC20011125020011711/25/01 02:00:31  5-MIN KSTC 250800Z AUTO 31017G22KT 10SM -RA OVC014 02/01 A2939 1520 96 300 310/17G22 RMK AO2 P0000
14926KSTC STC20011125020512111/25/01 02:05:31  5-MIN KSTC 250805Z AUTO 31016KT 10SM UP OVC014 02/01 A2939 1520 96 300 300/16 RMK AO2 RAE05UPB05 P0000
14926KSTC STC20011125021012111/25/01 02:10:31  5-MIN KSTC 250810Z AUTO 31015KT 10SM OVC014 02/01 A2940 1510 96 300 310/15 RMK AO2 RAE05UPB05E08 P0000
14926KSTC STC20011125021512111/25/01 02:15:31  5-MIN KSTC 250815Z AUTO 31016KT 10SM OVC014 02/01 A2940 1510 96 300 310/16 RMK AO2 RAE05UPB05E08 P0000
14926KSTC STC20011125022012111/25/01 02:20:31  5-MIN KSTC 250820Z AUTO 32015KT 10SM OVC014 02/01 A2940 1510 96 300 310/15 RMK AO2 RAE05UPB05E08 P0000
14926KSTC STC20011125022512811/25/01 02:25:31  5-MIN KSTC 250825Z AUTO 31013KT 10SM BKN010 OVC017 02/01 A2940 1510 96 300 310/13 RMK AO2 RAE05UPB05E08 P0000
14926KSTC STC20011125023013511/25/01 02:30:31  5-MIN KSTC 250830Z AUTO 32015KT 10SM BKN013 BKN018 OVC023 02/01 A2940 1510 92 300 310/15 RMK AO2 RAE05UPB05E08 P0000
14926KSTC STC20011125023514111/25/01 02:35:31  5-MIN KSTC 250835Z AUTO 32015KT 10SM UP BKN013 BKN018 OVC023 02/01 A2940 1510 92 300 310/15 RMK AO2 RAE05UPB05E08B33 P0000
14926KSTC STC20011125024014711/25/01 02:40:31  5-MIN KSTC 250840Z AUTO 32013G20KT 10SM UP BKN011 BKN016 OVC025 02/01 A2940 1510 92 300 310/13G20 RMK AO2 RAE05UPB05E08B33 P0000
14926KSTC STC20011125024514711/25/01 02:45:31  5-MIN KSTC 250845Z AUTO 32013G20KT 10SM UP BKN011 BKN016 OVC025 01/01 A2940 1510 96 200 320/13G20 RMK AO2 RAE05UPB05E08B33 P0000
14926KSTC STC20011125025017011/25/01 02:50:31  5-MIN KSTC 250850Z AUTO 32014KT 10SM FEW009 BKN014 OVC025 01/01 A2940 1510 96 200 310/14 RMK AO2 RAE05UPB05E08B33E48 SLP973 P0000 60000 T00110006 53023
14926KSTC STC20011125025512111/25/01 02:55:31  5-MIN KSTC 250855Z AUTO 32015G19KT 10SM FEW009 BKN014 OVC025 01/01 A2941 1500 96 200 320/15G19 RMK AO2
14926KSTC STC20011125030010811/25/01 03:00:31  5-MIN KSTC 250900Z AUTO 32014KT 10SM BKN013 OVC025 01/01 A2941 1500 96 200 310/14 RMK AO2
14926KSTC STC20011125030511511/25/01 03:05:31  5-MIN KSTC 250905Z AUTO 32014KT 10SM BKN013 BKN020 OVC027 01/01 A2941 1500 96 200 310/14 RMK AO2
14926KSTC STC20011125031011511/25/01 03:10:31  5-MIN KSTC 250910Z AUTO 32014KT 10SM FEW010 BKN015 OVC027 01/01 A2941 1500 96 200 320/14 RMK AO2
14926KSTC STC20011125031510711/25/01 03:15:31  5-MIN KSTC 250915Z AUTO 32012G19KT 10SM OVC015 01/01 A2941 1500 96 200 310/12G19 RMK AO2
14926KSTC STC20011125032010811/25/01 03:20:31  5-MIN KSTC 250920Z AUTO 32015KT 10SM FEW009 OVC015 01/01 A2941 1500 96 200 310/15 RMK AO2
14926KSTC STC20011125032510111/25/01 03:25:31  5-MIN KSTC 250925Z AUTO 31014KT 10SM OVC015 01/01 A2942 1490 96 200 310/14 RMK AO2
14926KSTC STC20011125033010811/25/01 03:30:31  5-MIN KSTC 250930Z AUTO 31014KT 10SM BKN012 OVC017 01/01 A2942 1490 96 200 310/14 RMK AO2
14926KSTC STC20011125033510111/25/01 03:35:31  5-MIN KSTC 250935Z AUTO 31014KT 10SM OVC014 01/01 A2943 1490 96 200 310/14 RMK AO2
14926KSTC STC20011125034010811/25/01 03:40:31  5-MIN KSTC 250940Z AUTO 32013KT 10SM BKN012 OVC017 01/01 A2943 1480 96 200 320/13 RMK AO2
14926KSTC STC20011125034510811/25/01 03:45:31  5-MIN KSTC 250945Z AUTO 32016KT 10SM BKN014 OVC020 02/01 A2943 1480 92 300 310/16 RMK AO2
14926KSTC STC20011125035012511/25/01 03:50:31  5-MIN KSTC 250950Z AUTO 32016KT 10SM BKN014 OVC020 01/01 A2943 1480 96 200 310/16 RMK AO2 SLP982 T00110006
14926KSTC STC20011125035510811/25/01 03:55:31  5-MIN KSTC 250955Z AUTO 32015KT 10SM BKN014 OVC020 02/01 A2943 1480 92 300 320/15 RMK AO2
14926KSTC STC20011125040011411/25/01 04:00:31  5-MIN KSTC 251000Z AUTO 32013G20KT 10SM BKN014 OVC020 02/01 A2944 1480 92 300 320/13G20 RMK AO2
14926KSTC STC20011125040510811/25/01 04:05:31  5-MIN KSTC 251005Z AUTO 32013KT 10SM BKN015 OVC022 02/00 A2944 1480 89 300 320/13 RMK AO2
14926KSTC STC20011125041010811/25/01 04:10:31  5-MIN KSTC 251010Z AUTO 32014KT 10SM BKN015 OVC022 02/00 A2944 1470 89 200 310/14 RMK AO2
14926KSTC STC20011125041511411/25/01 04:15:31  5-MIN KSTC 251015Z AUTO 31015G20KT 10SM BKN015 OVC022 02/01 A2945 1460 92 200 310/15G20 RMK AO2
14926KSTC STC20011125042011511/25/01 04:20:31  5-MIN KSTC 251020Z AUTO 31014KT 10SM BKN015 OVC022 02/01 A2946 1450 92 200 300/14 RMK AO2 PRESRR
14926KSTC STC20011125042510811/25/01 04:25:31  5-MIN KSTC 251025Z AUTO 31015KT 10SM BKN017 OVC022 02/01 A2946 1450 92 200 300/15 RMK AO2
14926KSTC STC20011125043010111/25/01 04:30:31  5-MIN KSTC 251030Z AUTO 31013KT 10SM OVC017 02/00 A2946 1450 89 200 310/13 RMK AO2
14926KSTC STC20011125043510111/25/01 04:35:31  5-MIN KSTC 251035Z AUTO 32013KT 10SM OVC019 02/00 A2946 1450 89 200 310/13 RMK AO2
14926KSTC STC20011125044010111/25/01 04:40:31  5-MIN KSTC 251040Z AUTO 32012KT 10SM OVC019 02/00 A2946 1450 89 200 310/12 RMK AO2
14926KSTC STC20011125044510111/25/01 04:45:31  5-MIN KSTC 251045Z AUTO 32012KT 10SM OVC019 02/00 A2946 1450 89 200 320/12 RMK AO2
14926KSTC STC20011125045011811/25/01 04:50:31  5-MIN KSTC 251050Z AUTO 32013KT 10SM OVC019 02/00 A2947 1450 89 200 320/13 RMK AO2 SLP994 T00170000
14926KSTC STC20011125045510111/25/01 04:55:31  5-MIN KSTC 251055Z AUTO 31012KT 10SM OVC019 02/00 A2947 1440 89 200 310/12 RMK AO2
14926KSTC STC20011125050010111/25/01 05:00:31  5-MIN KSTC 251100Z AUTO 31013KT 10SM OVC019 02/00 A2948 1440 89 200 310/13 RMK AO2
14926KSTC STC20011125050510811/25/01 05:05:31  5-MIN KSTC 251105Z AUTO 31015KT 10SM OVC019 02/00 A2949 1430 89 200 310/15 RMK AO2 PRESRR
14926KSTC STC20011125051011411/25/01 05:10:31  5-MIN KSTC 251110Z AUTO 31016G21KT 10SM OVC019 02/00 A2950 1420 89 200 300/16G21 RMK AO2 PRESRR
14926KSTC STC20011125051510111/25/01 05:15:31  5-MIN KSTC 251115Z AUTO 31016KT 10SM OVC019 02/00 A2950 1420 89 200 300/16 RMK AO2
14926KSTC STC20011125052010811/25/01 05:20:31  5-MIN KSTC 251120Z AUTO 31015KT 10SM OVC021 02/00 A2951 1410 89 200 310/15 RMK AO2 PRESRR
14926KSTC STC20011125052510711/25/01 05:25:31  5-MIN KSTC 251125Z AUTO 31014G21KT 10SM OVC021 02/00 A2951 1410 89 200 310/14G21 RMK AO2
14926KSTC STC20011125053010211/25/01 05:30:31  5-MIN KSTC 251130Z AUTO 31016KT 10SM OVC021 02/M01 A2951 1400 85 200 310/16 RMK AO2
14926KSTC STC20011125053510211/25/01 05:35:31  5-MIN KSTC 251135Z AUTO 32015KT 10SM OVC021 02/M01 A2952 1400 85 200 310/15 RMK AO2
14926KSTC STC20011125054011511/25/01 05:40:31  5-MIN KSTC 251140Z AUTO 32014G21KT 10SM OVC021 02/M01 A2953 1390 85 100 320/14G21 RMK AO2 PRESRR
14926KSTC STC20011125054511511/25/01 05:45:31  5-MIN KSTC 251145Z AUTO 31014G21KT 10SM OVC021 02/M01 A2953 1390 85 100 310/14G21 RMK AO2 PRESRR
14926KSTC STC20011125055015511/25/01 05:50:31  5-MIN KSTC 251150Z AUTO 32012G21KT 10SM OVC021 02/M01 A2954 1380 85 100 310/12G21 RMK AO2 SLP019 60000 70095 T00171006 10028 20011 51029
14926KSTC STC20011125055510211/25/01 05:55:31  5-MIN KSTC 251155Z AUTO 32014KT 10SM OVC021 02/M01 A2954 1380 85 100 310/14 RMK AO2
14926KSTC STC20011125060010811/25/01 06:00:31  5-MIN KSTC 251200Z AUTO 31016G20KT 10SM OVC021 02/M01 A2954 1380 85 100 310/16G20 RMK AO2
14926KSTC STC20011125060510811/25/01 06:05:31  5-MIN KSTC 251205Z AUTO 31013G20KT 10SM OVC021 02/M01 A2955 1380 85 100 310/13G20 RMK AO2
14926KSTC STC20011125061010811/25/01 06:10:31  5-MIN KSTC 251210Z AUTO 32015G19KT 10SM OVC021 02/M01 A2955 1370 85 100 310/15G19 RMK AO2
14926KSTC STC20011125061510811/25/01 06:15:31  5-MIN KSTC 251215Z AUTO 31015G19KT 10SM OVC021 02/M01 A2955 1370 85 100 310/15G19 RMK AO2
14926KSTC STC20011125062010811/25/01 06:20:31  5-MIN KSTC 251220Z AUTO 32018G23KT 10SM OVC021 02/M01 A2955 1370 85 100 310/18G23 RMK AO2
14926KSTC STC20011125062510811/25/01 06:25:31  5-MIN KSTC 251225Z AUTO 32015G23KT 10SM OVC021 02/M01 A2956 1370 85 100 310/15G23 RMK AO2
14926KSTC STC20011125063010211/25/01 06:30:31  5-MIN KSTC 251230Z AUTO 32013KT 10SM OVC021 02/M01 A2956 1360 85 100 320/13 RMK AO2
14926KSTC STC20011125063510211/25/01 06:35:31  5-MIN KSTC 251235Z AUTO 31013KT 10SM OVC023 02/M01 A2956 1360 85 100 310/13 RMK AO2
14926KSTC STC20011125064010211/25/01 06:40:31  5-MIN KSTC 251240Z AUTO 31016KT 10SM OVC023 02/M01 A2957 1350 85 100 310/16 RMK AO2
14926KSTC STC20011125064510211/25/01 06:45:31  5-MIN KSTC 251245Z AUTO 30015KT 10SM OVC023 02/M01 A2957 1350 82 100 300/15 RMK AO2
14926KSTC STC20011125065011911/25/01 06:50:31  5-MIN KSTC 251250Z AUTO 30016KT 10SM OVC023 02/M01 A2958 1340 82 100 300/16 RMK AO2 SLP033 T00171011
14926KSTC STC20011125065510211/25/01 06:55:31  5-MIN KSTC 251255Z AUTO 30014KT 10SM OVC023 02/M01 A2958 1340 82 100 300/14 RMK AO2
14926KSTC STC20011125070010811/25/01 07:00:31  5-MIN KSTC 251300Z AUTO 31016G23KT 10SM OVC025 02/M01 A2958 1340 82 100 310/16G23 RMK AO2
14926KSTC STC20011125070510811/25/01 07:05:31  5-MIN KSTC 251305Z AUTO 31016G23KT 10SM OVC025 02/M01 A2959 1330 82 100 300/16G23 RMK AO2
14926KSTC STC20011125071010711/25/01 07:10:31  5-MIN KSTC 251310Z AUTO 30017KT 10SM BKN025 OVC034 01/M01 A2960 1330 89 0 300/17 RMK AO2
14926KSTC STC20011125071510711/25/01 07:15:31  5-MIN KSTC 251315Z AUTO 30017KT 10SM BKN025 OVC034 01/M01 A2960 1330 89 0 300/17 RMK AO2
14926KSTC STC20011125072010711/25/01 07:20:31  5-MIN KSTC 251320Z AUTO 30016KT 10SM BKN025 OVC034 01/M01 A2960 1320 89 0 300/16 RMK AO2
14926KSTC STC20011125072510711/25/01 07:25:31  5-MIN KSTC 251325Z AUTO 31017KT 10SM BKN025 OVC034 01/M01 A2961 1320 85 0 300/17 RMK AO2
14926KSTC STC20011125073010711/25/01 07:30:31  5-MIN KSTC 251330Z AUTO 31016KT 10SM SCT025 OVC032 01/M01 A2961 1310 85 0 310/16 RMK AO2
14926KSTC STC20011125073510711/25/01 07:35:31  5-MIN KSTC 251335Z AUTO 31016KT 10SM FEW025 OVC032 01/M01 A2961 1310 85 0 310/16 RMK AO2
14926KSTC STC20011125074010711/25/01 07:40:31  5-MIN KSTC 251340Z AUTO 32014KT 10SM FEW025 OVC032 01/M02 A2962 1310 82 0 320/14 RMK AO2
14926KSTC STC20011125074510611/25/01 07:45:31  5-MIN KSTC 251345Z AUTO 32015G21KT 10SM OVC030 01/M02 A2962 1300 82 0 320/15G21 RMK AO2
14926KSTC STC20011125075013011/25/01 07:50:31  5-MIN KSTC 251350Z AUTO 32013G21KT 10SM FEW025 OVC030 01/M02 A2963 1300 78 0 320/13G21 RMK AO2 SLP050 T00111022
14926KSTC STC20011125075511311/25/01 07:55:31  5-MIN KSTC 251355Z AUTO 32012G20KT 10SM SCT023 OVC030 01/M02 A2963 1300 78 0 320/12G20 RMK AO2
14926KSTC STC20011125080011411/25/01 08:00:31  5-MIN KSTC 251400Z AUTO 31012KT 10SM SCT020 BKN025 OVC030 01/M02 A2964 1290 82 0 310/12 RMK AO2
14926KSTC STC20011125080510711/25/01 08:05:31  5-MIN KSTC 251405Z AUTO 31013KT 10SM BKN020 OVC030 01/M01 A2964 1280 85 0 310/13 RMK AO2
14926KSTC STC20011125081011311/25/01 08:10:31  5-MIN KSTC 251410Z AUTO 31016G20KT 10SM SCT020 OVC028 01/M01 A2965 1280 85 0 310/16G20 RMK AO2
14926KSTC STC20011125081511311/25/01 08:15:31  5-MIN KSTC 251415Z AUTO 32014G20KT 10SM BKN021 OVC028 01/M02 A2965 1280 82 0 320/14G20 RMK AO2
14926KSTC STC20011125082010011/25/01 08:20:31  5-MIN KSTC 251420Z AUTO 31014KT 10SM OVC023 01/M02 A2965 1270 78 0 310/14 RMK AO2
14926KSTC STC20011125082510011/25/01 08:25:31  5-MIN KSTC 251425Z AUTO 33013KT 10SM OVC023 01/M02 A2966 1270 78 0 320/13 RMK AO2
14926KSTC STC20011125083010611/25/01 08:30:31  5-MIN KSTC 251430Z AUTO 32016G20KT 10SM OVC023 01/M03 A2966 1270 75 0 320/16G20 RMK AO2
14926KSTC STC20011125083510611/25/01 08:35:31  5-MIN KSTC 251435Z AUTO 32017G21KT 10SM OVC023 01/M03 A2966 1260 75 0 320/17G21 RMK AO2
14926KSTC STC20011125084010611/25/01 08:40:31  5-MIN KSTC 251440Z AUTO 32011G21KT 10SM OVC023 01/M03 A2967 1260 75 0 320/11G21 RMK AO2
14926KSTC STC20011125084510611/25/01 08:45:31  5-MIN KSTC 251445Z AUTO 32014G17KT 10SM OVC023 01/M02 A2967 1260 78 0 310/14G17 RMK AO2
14926KSTC STC20011125085012911/25/01 08:50:31  5-MIN KSTC 251450Z AUTO 32017G20KT 10SM OVC023 01/M02 A2968 1250 78 0 310/17G20 RMK AO2 SLP067 T00111022 53043
14926KSTC STC20011125085510611/25/01 08:55:31  5-MIN KSTC 251455Z AUTO 32017G20KT 10SM OVC023 01/M03 A2968 1250 75 0 310/17G20 RMK AO2
14926KSTC STC20011125090012711/25/01 09:00:31  5-MIN KSTC 251500Z AUTO 33017G26KT 10SM OVC023 01/M03 A2968 1250 75 -100 320/17G26 RMK AO2 PK WND 31026/1458
14926KSTC STC20011125090512711/25/01 09:05:31  5-MIN KSTC 251505Z AUTO 33015G26KT 10SM OVC023 01/M03 A2969 1240 75 -100 320/15G26 RMK AO2 PK WND 31026/1458
14926KSTC STC20011125091012711/25/01 09:10:31  5-MIN KSTC 251510Z AUTO 33018G23KT 10SM OVC023 01/M03 A2970 1230 75 -100 320/18G23 RMK AO2 PK WND 31026/1458
14926KSTC STC20011125091512711/25/01 09:15:31  5-MIN KSTC 251515Z AUTO 33012G23KT 10SM OVC023 01/M03 A2970 1230 75 -100 330/12G23 RMK AO2 PK WND 31026/1458
14926KSTC STC20011125092012711/25/01 09:20:31  5-MIN KSTC 251520Z AUTO 33017G21KT 10SM OVC023 01/M03 A2970 1230 75 -100 330/17G21 RMK AO2 PK WND 31026/1458
14926KSTC STC20011125092512711/25/01 09:25:31  5-MIN KSTC 251525Z AUTO 32013G21KT 10SM OVC023 01/M03 A2970 1230 75 -100 320/13G21 RMK AO2 PK WND 31026/1458
14926KSTC STC20011125093012711/25/01 09:30:31  5-MIN KSTC 251530Z AUTO 32013G21KT 10SM OVC021 01/M03 A2971 1220 78 -200 320/13G21 RMK AO2 PK WND 31026/1458
14926KSTC STC20011125093512711/25/01 09:35:31  5-MIN KSTC 251535Z AUTO 32018G22KT 10SM OVC021 01/M03 A2972 1210 75 -200 320/18G22 RMK AO2 PK WND 31026/1458
14926KSTC STC20011125094012711/25/01 09:40:31  5-MIN KSTC 251540Z AUTO 32013G22KT 10SM OVC021 01/M03 A2972 1210 75 -200 320/13G22 RMK AO2 PK WND 31026/1458
14926KSTC STC20011125094512111/25/01 09:45:31  5-MIN KSTC 251545Z AUTO 32013KT 10SM OVC023 01/M03 A2973 1210 78 -200 320/13 RMK AO2 PK WND 31026/1458
14926KSTC STC20011125095014411/25/01 09:50:31  5-MIN KSTC 251550Z AUTO 32019G22KT 10SM OVC023 01/M03 A2973 1210 75 -200 320/19G22 RMK AO2 PK WND 31026/1458 SLP085 T00061033
14926KSTC STC20011125095510911/25/01 09:55:31  5-MIN KSTC 251555Z AUTO 33017G23KT 10SM OVC023 01/M03 A2973 1200 72 -100 320/17G23 RMK AO2
14926KSTC STC20011125100012711/25/01 10:00:31  5-MIN KSTC 251600Z AUTO 32021G26KT 10SM OVC023 01/M03 A2973 1200 75 -200 320/21G26 RMK AO2 PK WND 32026/1559
14926KSTC STC20011125100512711/25/01 10:05:31  5-MIN KSTC 251605Z AUTO 32014G26KT 10SM OVC025 01/M03 A2974 1200 75 -200 320/14G26 RMK AO2 PK WND 32026/1559
14926KSTC STC20011125101013411/25/01 10:10:31  5-MIN KSTC 251610Z AUTO 32016G21KT 10SM BKN023 OVC028 01/M03 A2974 1200 75 -200 320/16G21 RMK AO2 PK WND 32026/1559
14926KSTC STC20011125101513411/25/01 10:15:31  5-MIN KSTC 251615Z AUTO 32014G21KT 10SM BKN023 OVC031 01/M03 A2974 1190 75 -200 320/14G21 RMK AO2 PK WND 32026/1559
14926KSTC STC20011125102013411/25/01 10:20:31  5-MIN KSTC 251620Z AUTO 31016G21KT 10SM BKN023 OVC030 01/M03 A2975 1190 78 -200 310/16G21 RMK AO2 PK WND 32026/1559
14926KSTC STC20011125102513411/25/01 10:25:31  5-MIN KSTC 251625Z AUTO 32012G20KT 10SM BKN021 OVC027 01/M03 A2975 1180 78 -200 320/12G20 RMK AO2 PK WND 32026/1559
14926KSTC STC20011125103012811/25/01 10:30:31  5-MIN KSTC 251630Z AUTO 32013KT 10SM BKN021 OVC027 01/M03 A2976 1180 78 -200 320/13 RMK AO2 PK WND 32026/1559
14926KSTC STC20011125103512811/25/01 10:35:31  5-MIN KSTC 251635Z AUTO 31013KT 10SM BKN021 OVC030 01/M03 A2976 1180 78 -200 310/13 RMK AO2 PK WND 32026/1559
14926KSTC STC20011125104012811/25/01 10:40:31  5-MIN KSTC 251640Z AUTO 32013KT 10SM BKN023 OVC030 01/M03 A2976 1170 75 -200 310/13 RMK AO2 PK WND 32026/1559
14926KSTC STC20011125104512811/25/01 10:45:31  5-MIN KSTC 251645Z AUTO 31012KT 10SM BKN021 OVC028 01/M03 A2977 1170 78 -200 310/12 RMK AO2 PK WND 32026/1559
14926KSTC STC20011125105014511/25/01 10:50:31  5-MIN KSTC 251650Z AUTO 31015KT 10SM BKN021 OVC025 01/M03 A2977 1160 78 -200 310/15 RMK AO2 PK WND 32026/1559 SLP100 T00061028
14926KSTC STC20011125105510911/25/01 10:55:31  5-MIN KSTC 251655Z AUTO 32016G21KT 10SM OVC021 01/M03 A2977 1160 75 -200 320/16G21 RMK AO2
14926KSTC STC20011125110010911/25/01 11:00:31  5-MIN KSTC 251700Z AUTO 32017G21KT 10SM OVC021 01/M03 A2978 1160 75 -200 320/17G21 RMK AO2
14926KSTC STC20011125110510911/25/01 11:05:31  5-MIN KSTC 251705Z AUTO 31020G23KT 10SM OVC021 01/M04 A2978 1160 72 -200 310/20G23 RMK AO2
14926KSTC STC20011125111010911/25/01 11:10:31  5-MIN KSTC 251710Z AUTO 32019G23KT 10SM OVC021 01/M04 A2978 1150 72 -200 320/19G23 RMK AO2
14926KSTC STC20011125111510311/25/01 11:15:31  5-MIN KSTC 251715Z AUTO 31015KT 10SM OVC021 01/M03 A2979 1150 75 -200 310/15 RMK AO2
14926KSTC STC20011125112010911/25/01 11:20:31  5-MIN KSTC 251720Z AUTO 31018G21KT 10SM OVC021 01/M03 A2978 1150 75 -200 310/18G21 RMK AO2
14926KSTC STC20011125112510311/25/01 11:25:31  5-MIN KSTC 251725Z AUTO 32016KT 10SM OVC021 01/M03 A2978 1160 75 -200 320/16 RMK AO2
14926KSTC STC20011125113010911/25/01 11:30:31  5-MIN KSTC 251730Z AUTO 32018G21KT 10SM OVC023 01/M04 A2979 1150 72 -200 320/18G21 RMK AO2
14926KSTC STC20011125113510911/25/01 11:35:31  5-MIN KSTC 251735Z AUTO 32015G21KT 10SM OVC023 01/M03 A2979 1150 75 -200 320/15G21 RMK AO2
14926KSTC STC20011125114010311/25/01 11:40:31  5-MIN KSTC 251740Z AUTO 32015KT 10SM OVC023 01/M03 A2979 1140 75 -200 310/15 RMK AO2
14926KSTC STC20011125114511011/25/01 11:45:31  5-MIN KSTC 251745Z AUTO 32017KT 10SM BKN024 OVC030 01/M03 A2979 1140 75 -300 320/17 RMK AO2
14926KSTC STC20011125115015111/25/01 11:50:31  5-MIN KSTC 251750Z AUTO 32019G24KT 10SM BKN024 OVC030 01/M04 A2980 1140 72 -300 310/19G24 RMK AO2 SLP109 T00061039 10017 20006 53046
14926KSTC STC20011125115511611/25/01 11:55:31  5-MIN KSTC 251755Z AUTO 32014G24KT 10SM BKN024 OVC030 01/M03 A2980 1140 75 -300 320/14G24 RMK AO2
14926KSTC STC20011125120011611/25/01 12:00:31  5-MIN KSTC 251800Z AUTO 32018G22KT 10SM BKN024 OVC030 01/M04 A2980 1130 72 -300 320/18G22 RMK AO2
14926KSTC STC20011125120510911/25/01 12:05:31  5-MIN KSTC 251805Z AUTO 32013G22KT 10SM OVC024 01/M04 A2980 1130 72 -300 320/13G22 RMK AO2
14926KSTC STC20011125121010311/25/01 12:10:31  5-MIN KSTC 251810Z AUTO 32014KT 10SM OVC024 01/M04 A2981 1130 72 -300 320/14 RMK AO2
14926KSTC STC20011125121510311/25/01 12:15:31  5-MIN KSTC 251815Z AUTO 31017KT 10SM OVC024 01/M04 A2981 1130 72 -300 310/17 RMK AO2
14926KSTC STC20011125122010311/25/01 12:20:31  5-MIN KSTC 251820Z AUTO 32014KT 10SM OVC024 01/M04 A2981 1130 72 -300 320/14 RMK AO2
14926KSTC STC20011125122510911/25/01 12:25:31  5-MIN KSTC 251825Z AUTO 32014G21KT 10SM OVC024 01/M04 A2981 1130 72 -300 320/14G21 RMK AO2
14926KSTC STC20011125123010911/25/01 12:30:31  5-MIN KSTC 251830Z AUTO 33012G21KT 10SM OVC024 00/M04 A2980 1130 75 -300 320/12G21 RMK AO2
14926KSTC STC20011125123510911/25/01 12:35:31  5-MIN KSTC 251835Z AUTO 32016G20KT 10SM OVC024 00/M04 A2981 1130 75 -300 320/16G20 RMK AO2
14926KSTC STC20011125124010911/25/01 12:40:31  5-MIN KSTC 251840Z AUTO 33016G20KT 10SM OVC024 00/M04 A2981 1130 75 -300 320/16G20 RMK AO2
14926KSTC STC20011125124510911/25/01 12:45:31  5-MIN KSTC 251845Z AUTO 32017G23KT 10SM OVC024 00/M04 A2982 1120 75 -400 310/17G23 RMK AO2
14926KSTC STC20011125125013311/25/01 12:50:31  5-MIN KSTC 251850Z AUTO 32013G23KT 10SM OVC024 00/M04 A2983 1110 75 -400 310/13G23 RMK AO2 PRESRR SLP120 T00001039
14926KSTC STC20011125125511011/25/01 12:55:31  5-MIN KSTC 251855Z AUTO 33012KT 10SM OVC024 00/M04 A2984 1100 75 -400 330/12 RMK AO2 PRESRR
14926KSTC STC20011125130011611/25/01 13:00:31  5-MIN KSTC 251900Z AUTO 32013G20KT 10SM OVC024 00/M04 A2985 1100 75 -400 320/13G20 RMK AO2 PRESRR
14926KSTC STC20011125130510911/25/01 13:05:31  5-MIN KSTC 251905Z AUTO 32014G20KT 10SM OVC024 00/M04 A2985 1090 75 -400 320/14G20 RMK AO2
14926KSTC STC20011125131010311/25/01 13:10:31  5-MIN KSTC 251910Z AUTO 32012KT 10SM OVC024 00/M04 A2985 1090 75 -400 320/12 RMK AO2
14926KSTC STC20011125131510911/25/01 13:15:31  5-MIN KSTC 251915Z AUTO 32013G18KT 10SM OVC024 00/M04 A2986 1090 75 -400 310/13G18 RMK AO2
14926KSTC STC20011125132010311/25/01 13:20:31  5-MIN KSTC 251920Z AUTO 32015KT 10SM OVC022 00/M04 A2986 1080 75 -400 310/15 RMK AO2
14926KSTC STC20011125132510311/25/01 13:25:31  5-MIN KSTC 251925Z AUTO 31016KT 10SM OVC022 00/M04 A2986 1080 75 -400 310/16 RMK AO2
14926KSTC STC20011125133010311/25/01 13:30:31  5-MIN KSTC 251930Z AUTO 32015KT 10SM OVC022 00/M04 A2986 1080 75 -400 310/15 RMK AO2
14926KSTC STC20011125133510911/25/01 13:35:31  5-MIN KSTC 251935Z AUTO 32015G23KT 10SM OVC022 00/M04 A2986 1080 72 -400 320/15G23 RMK AO2
14926KSTC STC20011125134010911/25/01 13:40:31  5-MIN KSTC 251940Z AUTO 31018G23KT 10SM OVC022 00/M04 A2986 1080 75 -400 310/18G23 RMK AO2
14926KSTC STC20011125134510911/25/01 13:45:31  5-MIN KSTC 251945Z AUTO 32014G21KT 10SM OVC022 00/M04 A2987 1070 75 -400 320/14G21 RMK AO2
14926KSTC STC20011125135012011/25/01 13:50:31  5-MIN KSTC 251950Z AUTO 32014KT 10SM OVC022 00/M04 A2988 1070 75 -400 320/14 RMK AO2 SLP136 T00001039
14926KSTC STC20011125135510311/25/01 13:55:31  5-MIN KSTC 251955Z AUTO 32014KT 10SM OVC022 00/M04 A2988 1070 75 -400 320/14 RMK AO2
14926KSTC STC20011125140011011/25/01 14:00:31  5-MIN KSTC 252000Z AUTO 32013KT 10SM BKN022 OVC029 00/M04 A2987 1070 75 -400 320/13 RMK AO2
14926KSTC STC20011125140511011/25/01 14:05:31  5-MIN KSTC 252005Z AUTO 32013KT 10SM SCT022 OVC031 00/M04 A2988 1070 75 -400 310/13 RMK AO2
14926KSTC STC20011125141011011/25/01 14:10:31  5-MIN KSTC 252010Z AUTO 32012KT 10SM SCT022 OVC031 00/M04 A2988 1070 75 -400 320/12 RMK AO2
14926KSTC STC20011125141511011/25/01 14:15:31  5-MIN KSTC 252015Z AUTO 33012KT 10SM FEW022 OVC031 00/M04 A2987 1070 72 -400 320/12 RMK AO2
14926KSTC STC20011125142011011/25/01 14:20:31  5-MIN KSTC 252020Z AUTO 32013KT 10SM FEW022 OVC031 00/M04 A2988 1070 72 -400 320/13 RMK AO2
14926KSTC STC20011125142510311/25/01 14:25:31  5-MIN KSTC 252025Z AUTO 32015KT 10SM OVC029 00/M04 A2988 1060 72 -400 310/15 RMK AO2
14926KSTC STC20011125143010911/25/01 14:30:31  5-MIN KSTC 252030Z AUTO 32010G21KT 10SM OVC029 00/M04 A2989 1060 72 -400 320/10G21 RMK AO2
14926KSTC STC20011125143510911/25/01 14:35:31  5-MIN KSTC 252035Z AUTO 32012G21KT 10SM OVC029 00/M04 A2989 1050 72 -400 320/12G21 RMK AO2
14926KSTC STC20011125144010911/25/01 14:40:31  5-MIN KSTC 252040Z AUTO 32014G20KT 10SM OVC029 00/M05 A2990 1050 69 -400 320/14G20 RMK AO2
14926KSTC STC20011125144510911/25/01 14:45:31  5-MIN KSTC 252045Z AUTO 34011G20KT 10SM OVC029 00/M05 A2990 1050 69 -400 340/11G20 RMK AO2
14926KSTC STC20011125145012611/25/01 14:50:31  5-MIN KSTC 252050Z AUTO 34010KT 10SM OVC029 00/M04 A2990 1040 72 -400 330/10 RMK AO2 SLP145 T00001044 51038
14926KSTC STC20011125145510311/25/01 14:55:31  5-MIN KSTC 252055Z AUTO 35012KT 10SM OVC029 00/M05 A2990 1050 69 -400 340/12 RMK AO2
14926KSTC STC20011125150010311/25/01 15:00:31  5-MIN KSTC 252100Z AUTO 34011KT 10SM OVC029 00/M05 A2990 1040 69 -400 330/11 RMK AO2
14926KSTC STC20011125150510311/25/01 15:05:31  5-MIN KSTC 252105Z AUTO 34011KT 10SM OVC029 00/M05 A2990 1040 69 -400 340/11 RMK AO2
14926KSTC STC20011125151010311/25/01 15:10:31  5-MIN KSTC 252110Z AUTO 34013KT 10SM OVC029 00/M05 A2990 1040 69 -400 340/13 RMK AO2
14926KSTC STC20011125151510311/25/01 15:15:31  5-MIN KSTC 252115Z AUTO 34013KT 10SM OVC029 00/M05 A2991 1040 69 -500 340/13 RMK AO2
14926KSTC STC20011125152010311/25/01 15:20:31  5-MIN KSTC 252120Z AUTO 35012KT 10SM OVC029 00/M05 A2991 1030 69 -500 340/12 RMK AO2
14926KSTC STC20011125152510911/25/01 15:25:31  5-MIN KSTC 252125Z AUTO 36013G18KT 10SM OVC027 00/M04 A2991 1030 72 -500 360/13G18 RMK AO2
14926KSTC STC20011125153010911/25/01 15:30:31  5-MIN KSTC 252130Z AUTO 35011G18KT 10SM OVC027 00/M05 A2992 1030 69 -500 350/11G18 RMK AO2
14926KSTC STC20011125153511011/25/01 15:35:31  5-MIN KSTC 252135Z AUTO 35012KT 10SM BKN027 OVC039 00/M05 A2992 1030 69 -500 350/12 RMK AO2
14926KSTC STC20011125154011011/25/01 15:40:31  5-MIN KSTC 252140Z AUTO 35011KT 10SM BKN027 OVC039 00/M04 A2992 1030 72 -500 350/11 RMK AO2
14926KSTC STC20011125154511011/25/01 15:45:31  5-MIN KSTC 252145Z AUTO 35010KT 10SM SCT027 BKN039 00/M04 A2991 1030 72 -500 350/10 RMK AO2
14926KSTC STC20011125155012711/25/01 15:50:31  5-MIN KSTC 252150Z AUTO 35010KT 10SM SCT027 OVC039 00/M04 A2992 1030 72 -500 350/10 RMK AO2 SLP152 T00001044
14926KSTC STC20011125155511611/25/01 15:55:31  5-MIN KSTC 252155Z AUTO 35011G17KT 10SM FEW029 OVC037 00/M04 A2993 1020 72 -500 350/11G17 RMK AO2
14926KSTC STC20011125160011611/25/01 16:00:31  5-MIN KSTC 252200Z AUTO 33013G17KT 10SM BKN031 OVC038 00/M05 A2994 1010 69 -500 330/13G17 RMK AO2
14926KSTC STC20011125160511011/25/01 16:05:31  5-MIN KSTC 252205Z AUTO 34010KT 10SM BKN031 OVC038 00/M04 A2994 1010 72 -500 330/10 RMK AO2
14926KSTC STC20011125161011011/25/01 16:10:31  5-MIN KSTC 252210Z AUTO 34012KT 10SM BKN029 OVC036 00/M04 A2993 1020 72 -500 340/12 RMK AO2
14926KSTC STC20011125161511011/25/01 16:15:31  5-MIN KSTC 252215Z AUTO 34011KT 10SM BKN029 OVC036 00/M04 A2993 1020 72 -500 340/11 RMK AO2
14926KSTC STC20011125162010311/25/01 16:20:31  5-MIN KSTC 252220Z AUTO 35012KT 10SM OVC027 00/M04 A2993 1020 72 -500 350/12 RMK AO2
14926KSTC STC20011125162510311/25/01 16:25:31  5-MIN KSTC 252225Z AUTO 34011KT 10SM OVC027 00/M04 A2994 1010 72 -500 340/11 RMK AO2
14926KSTC STC20011125163010311/25/01 16:30:31  5-MIN KSTC 252230Z AUTO 35009KT 10SM OVC027 00/M04 A2993 1010 72 -500 350/09 RMK AO2
14926KSTC STC20011125163510311/25/01 16:35:31  5-MIN KSTC 252235Z AUTO 36011KT 10SM OVC027 00/M04 A2993 1020 72 -500 360/11 RMK AO2
14926KSTC STC20011125164010311/25/01 16:40:31  5-MIN KSTC 252240Z AUTO 35011KT 10SM OVC027 00/M04 A2994 1000 72 -500 350/11 RMK AO2
14926KSTC STC20011125164510911/25/01 16:45:31  5-MIN KSTC 252245Z AUTO 35008G16KT 10SM OVC027 00/M04 A2995 1000 72 -500 350/08G16 RMK AO2
14926KSTC STC20011125165012011/25/01 16:50:31  5-MIN KSTC 252250Z AUTO 34008KT 10SM OVC027 00/M04 A2995 1000 72 -500 340/08 RMK AO2 SLP163 T00001044
14926KSTC STC20011125165510211/25/01 16:55:31  5-MIN KSTC 252255Z AUTO 35008KT 10SM OVC027 00/M04 A2996 990 72 -500 350/08 RMK AO2
14926KSTC STC20011125170010911/25/01 17:00:31  5-MIN KSTC 252300Z AUTO 33006KT 10SM OVC025 00/M04 A2997 980 72 -500 320/06 RMK AO2 PRESRR
14926KSTC STC20011125170510211/25/01 17:05:31  5-MIN KSTC 252305Z AUTO 33007KT 10SM OVC025 00/M04 A2998 970 72 -500 330/07 RMK AO2
14926KSTC STC20011125171010911/25/01 17:10:31  5-MIN KSTC 252310Z AUTO 34005KT 10SM OVC025 00/M04 A2999 970 72 -500 340/05 RMK AO2 PRESRR
14926KSTC STC20011125171510211/25/01 17:15:31  5-MIN KSTC 252315Z AUTO 34005KT 10SM OVC025 00/M04 A2999 970 72 -500 340/05 RMK AO2
14926KSTC STC20011125172010311/25/01 17:20:31  5-MIN KSTC 252320Z AUTO 35006KT 10SM OVC025 M01/M04 A2999 970 75 -600 340/06 RMK AO2
14926KSTC STC20011125172510211/25/01 17:25:31  5-MIN KSTC 252325Z AUTO 35006KT 10SM OVC025 00/M04 A2999 960 72 -500 340/06 RMK AO2
14926KSTC STC20011125173010311/25/01 17:30:31  5-MIN KSTC 252330Z AUTO 35006KT 10SM OVC025 M01/M04 A2999 960 75 -600 340/06 RMK AO2
14926KSTC STC20011125173510311/25/01 17:35:31  5-MIN KSTC 252335Z AUTO 34005KT 10SM OVC025 M01/M04 A3000 960 78 -600 340/05 RMK AO2
14926KSTC STC20011125174011011/25/01 17:40:31  5-MIN KSTC 252340Z AUTO 34006KT 10SM BKN025 OVC034 M01/M04 A3000 950 75 -600 330/06 RMK AO2
14926KSTC STC20011125174511011/25/01 17:45:31  5-MIN KSTC 252345Z AUTO 33005KT 10SM BKN025 OVC034 M01/M04 A3000 950 75 -600 330/05 RMK AO2
14926KSTC STC20011125175014511/25/01 17:50:31  5-MIN KSTC 252350Z AUTO 32005KT 10SM SCT025 OVC034 M01/M04 A3001 940 75 -600 320/05 RMK AO2 SLP182 T10061044 10006 21006 51035
14926KSTC STC20011125175511011/25/01 17:55:31  5-MIN KSTC 252355Z AUTO 33006KT 10SM SCT025 OVC034 M01/M04 A3001 950 78 -600 330/06 RMK AO2
14926KSTC STC20011125180011011/25/01 18:00:31  5-MIN KSTC 260000Z AUTO 34004KT 10SM FEW027 OVC034 M01/M04 A3001 950 78 -600 330/04 RMK AO2
14926KSTC STC20011125180510311/25/01 18:05:31  5-MIN KSTC 260005Z AUTO 32004KT 10SM OVC032 M01/M04 A3001 940 78 -600 320/04 RMK AO2
14926KSTC STC20011125181010311/25/01 18:10:31  5-MIN KSTC 260010Z AUTO 31005KT 10SM OVC032 M01/M04 A3001 940 78 -600 310/05 RMK AO2
14926KSTC STC20011125181510311/25/01 18:15:31  5-MIN KSTC 260015Z AUTO 34004KT 10SM OVC030 M01/M04 A3001 950 78 -600 340/04 RMK AO2
14926KSTC STC20011125182010311/25/01 18:20:31  5-MIN KSTC 260020Z AUTO 35006KT 10SM OVC029 M01/M04 A3000 950 78 -600 350/06 RMK AO2
14926KSTC STC20011125182511011/25/01 18:25:31  5-MIN KSTC 260025Z AUTO 36006KT 10SM BKN027 OVC032 M01/M04 A3000 950 78 -600 350/06 RMK AO2
14926KSTC STC20011125183011011/25/01 18:30:31  5-MIN KSTC 260030Z AUTO 35005KT 10SM BKN025 OVC032 M01/M04 A3000 950 78 -600 350/05 RMK AO2
14926KSTC STC20011125183511011/25/01 18:35:31  5-MIN KSTC 260035Z AUTO 35007KT 10SM SCT025 OVC032 M01/M04 A3000 950 78 -600 350/07 RMK AO2
14926KSTC STC20011125184011011/25/01 18:40:31  5-MIN KSTC 260040Z AUTO 35006KT 10SM FEW025 OVC034 M01/M04 A3001 940 78 -600 340/06 RMK AO2
14926KSTC STC20011125184511011/25/01 18:45:31  5-MIN KSTC 260045Z AUTO 35006KT 10SM FEW025 OVC034 M01/M04 A3001 940 78 -600 350/06 RMK AO2
14926KSTC STC20011125185012711/25/01 18:50:31  5-MIN KSTC 260050Z AUTO 36008KT 10SM FEW023 OVC034 M01/M04 A3001 950 75 -600 360/08 RMK AO2 SLP181 T10061044
14926KSTC STC20011125185510311/25/01 18:55:31  5-MIN KSTC 260055Z AUTO 36009KT 10SM OVC034 M01/M04 A3000 950 75 -600 360/09 RMK AO2
14926KSTC STC20011125190010311/25/01 19:00:31  5-MIN KSTC 260100Z AUTO 01008KT 10SM OVC034 M01/M04 A3001 950 75 -600 360/08 RMK AO2
14926KSTC STC20011125190510311/25/01 19:05:31  5-MIN KSTC 260105Z AUTO 36009KT 10SM OVC034 M01/M04 A3001 940 75 -600 360/09 RMK AO2
14926KSTC STC20011125191010311/25/01 19:10:31  5-MIN KSTC 260110Z AUTO 36008KT 10SM OVC034 M01/M04 A3001 940 75 -600 360/08 RMK AO2
14926KSTC STC20011125191510311/25/01 19:15:31  5-MIN KSTC 260115Z AUTO 36010KT 10SM OVC034 M01/M04 A3002 940 75 -600 360/10 RMK AO2
14926KSTC STC20011125192010311/25/01 19:20:31  5-MIN KSTC 260120Z AUTO 01008KT 10SM OVC034 M01/M04 A3001 940 75 -600 360/08 RMK AO2
14926KSTC STC20011125192510311/25/01 19:25:31  5-MIN KSTC 260125Z AUTO 36007KT 10SM OVC032 M01/M04 A3002 940 75 -600 350/07 RMK AO2
14926KSTC STC20011125193010311/25/01 19:30:31  5-MIN KSTC 260130Z AUTO 35006KT 10SM OVC032 M01/M04 A3003 930 75 -700 350/06 RMK AO2
14926KSTC STC20011125193510311/25/01 19:35:31  5-MIN KSTC 260135Z AUTO 35007KT 10SM OVC032 M01/M04 A3004 920 75 -700 350/07 RMK AO2
14926KSTC STC20011125194011011/25/01 19:40:31  5-MIN KSTC 260140Z AUTO 33005KT 10SM OVC030 M01/M04 A3004 910 75 -700 320/05 RMK AO2 PRESRR
14926KSTC STC20011125194510311/25/01 19:45:31  5-MIN KSTC 260145Z AUTO 35006KT 10SM OVC030 M01/M04 A3004 920 75 -700 340/06 RMK AO2
14926KSTC STC20011125195012011/25/01 19:50:31  5-MIN KSTC 260150Z AUTO 33005KT 10SM OVC030 M01/M04 A3004 920 78 -700 330/05 RMK AO2 SLP192 T10061039
14926KSTC STC20011125195510311/25/01 19:55:31  5-MIN KSTC 260155Z AUTO 34007KT 10SM OVC030 M01/M04 A3003 920 78 -700 340/07 RMK AO2
14926KSTC STC20011125200010311/25/01 20:00:31  5-MIN KSTC 260200Z AUTO 35007KT 10SM OVC030 M01/M04 A3003 930 78 -700 350/07 RMK AO2
14926KSTC STC20011125200510311/25/01 20:05:31  5-MIN KSTC 260205Z AUTO 35008KT 10SM OVC030 M01/M03 A3003 920 81 -700 350/08 RMK AO2
14926KSTC STC20011125201010311/25/01 20:10:31  5-MIN KSTC 260210Z AUTO 34006KT 10SM OVC030 M01/M03 A3004 910 81 -700 340/06 RMK AO2
14926KSTC STC20011125201510311/25/01 20:15:31  5-MIN KSTC 260215Z AUTO 35008KT 10SM OVC030 M01/M03 A3004 920 81 -700 340/08 RMK AO2
14926KSTC STC20011125202010311/25/01 20:20:31  5-MIN KSTC 260220Z AUTO 34008KT 10SM OVC030 M01/M03 A3005 910 85 -700 340/08 RMK AO2
14926KSTC STC20011125202510311/25/01 20:25:31  5-MIN KSTC 260225Z AUTO 34007KT 10SM OVC028 M01/M03 A3005 910 85 -800 340/07 RMK AO2
14926KSTC STC20011125203010311/25/01 20:30:31  5-MIN KSTC 260230Z AUTO 34006KT 10SM OVC028 M01/M03 A3005 900 85 -800 340/06 RMK AO2
14926KSTC STC20011125203510311/25/01 20:35:31  5-MIN KSTC 260235Z AUTO 35008KT 10SM OVC028 M01/M03 A3005 910 81 -700 350/08 RMK AO2
14926KSTC STC20011125204010311/25/01 20:40:31  5-MIN KSTC 260240Z AUTO 35010KT 10SM OVC028 M01/M03 A3005 910 85 -800 350/10 RMK AO2
14926KSTC STC20011125204510311/25/01 20:45:31  5-MIN KSTC 260245Z AUTO 35009KT 10SM OVC028 M01/M04 A3006 900 81 -800 350/09 RMK AO2
14926KSTC STC20011125205012611/25/01 20:50:31  5-MIN KSTC 260250Z AUTO 36008KT 10SM OVC028 M01/M04 A3006 890 81 -800 350/08 RMK AO2 SLP202 T10111039 53036
14926KSTC STC20011125205510311/25/01 20:55:31  5-MIN KSTC 260255Z AUTO 36009KT 10SM OVC028 M01/M04 A3007 890 81 -800 350/09 RMK AO2
14926KSTC STC20011125210010311/25/01 21:00:31  5-MIN KSTC 260300Z AUTO 01009KT 10SM OVC028 M01/M04 A3007 890 81 -800 360/09 RMK AO2
14926KSTC STC20011125210510311/25/01 21:05:31  5-MIN KSTC 260305Z AUTO 01009KT 10SM OVC028 M01/M04 A3007 890 81 -800 360/09 RMK AO2
14926KSTC STC20011125211010311/25/01 21:10:31  5-MIN KSTC 260310Z AUTO 01009KT 10SM OVC028 M01/M04 A3006 900 81 -800 010/09 RMK AO2
14926KSTC STC20011125211510311/25/01 21:15:31  5-MIN KSTC 260315Z AUTO 01009KT 10SM OVC028 M01/M04 A3006 900 81 -800 360/09 RMK AO2
14926KSTC STC20011125212010311/25/01 21:20:31  5-MIN KSTC 260320Z AUTO 36006KT 10SM OVC026 M01/M04 A3007 890 81 -800 360/06 RMK AO2
14926KSTC STC20011125212510311/25/01 21:25:31  5-MIN KSTC 260325Z AUTO 36007KT 10SM OVC026 M01/M04 A3007 880 81 -800 350/07 RMK AO2
14926KSTC STC20011125213010311/25/01 21:30:31  5-MIN KSTC 260330Z AUTO 36007KT 10SM OVC026 M01/M04 A3007 890 81 -800 360/07 RMK AO2
14926KSTC STC20011125213510311/25/01 21:35:31  5-MIN KSTC 260335Z AUTO 01006KT 10SM OVC026 M01/M04 A3007 890 78 -800 010/06 RMK AO2
14926KSTC STC20011125214010311/25/01 21:40:31  5-MIN KSTC 260340Z AUTO 02008KT 10SM OVC026 M01/M04 A3007 890 78 -800 020/08 RMK AO2
14926KSTC STC20011125214510311/25/01 21:45:31  5-MIN KSTC 260345Z AUTO 02007KT 10SM OVC026 M01/M04 A3007 890 78 -800 010/07 RMK AO2
14926KSTC STC20011125215012011/25/01 21:50:31  5-MIN KSTC 260350Z AUTO 01007KT 10SM OVC026 M01/M04 A3008 880 78 -800 010/07 RMK AO2 SLP206 T10111044
14926KSTC STC20011125215510311/25/01 21:55:31  5-MIN KSTC 260355Z AUTO 02007KT 10SM OVC024 M01/M04 A3009 870 78 -800 020/07 RMK AO2
14926KSTC STC20011125220010311/25/01 22:00:31  5-MIN KSTC 260400Z AUTO 36007KT 10SM OVC024 M01/M04 A3009 870 78 -800 350/07 RMK AO2
14926KSTC STC20011125220510311/25/01 22:05:31  5-MIN KSTC 260405Z AUTO 36008KT 10SM OVC024 M01/M04 A3009 870 78 -800 350/08 RMK AO2
14926KSTC STC20011125221010311/25/01 22:10:31  5-MIN KSTC 260410Z AUTO 36007KT 10SM OVC024 M01/M04 A3009 870 78 -800 350/07 RMK AO2
14926KSTC STC20011125221510311/25/01 22:15:31  5-MIN KSTC 260415Z AUTO 01006KT 10SM OVC024 M01/M05 A3010 860 75 -800 360/06 RMK AO2
14926KSTC STC20011125222010311/25/01 22:20:31  5-MIN KSTC 260420Z AUTO 01007KT 10SM OVC024 M01/M04 A3009 870 78 -800 360/07 RMK AO2
14926KSTC STC20011125222510311/25/01 22:25:31  5-MIN KSTC 260425Z AUTO 36008KT 10SM OVC024 M01/M04 A3008 880 78 -800 350/08 RMK AO2
14926KSTC STC20011125223010311/25/01 22:30:31  5-MIN KSTC 260430Z AUTO 35007KT 10SM OVC024 M01/M05 A3009 870 75 -800 350/07 RMK AO2
14926KSTC STC20011125223510311/25/01 22:35:31  5-MIN KSTC 260435Z AUTO 36008KT 10SM OVC024 M01/M06 A3008 880 72 -800 360/08 RMK AO2
14926KSTC STC20011125224010311/25/01 22:40:31  5-MIN KSTC 260440Z AUTO 36008KT 10SM OVC024 M01/M05 A3009 870 75 -800 360/08 RMK AO2
14926KSTC STC20011125224510311/25/01 22:45:31  5-MIN KSTC 260445Z AUTO 34007KT 10SM OVC024 M01/M05 A3011 860 75 -800 340/07 RMK AO2
14926KSTC STC20011125225012011/25/01 22:50:31  5-MIN KSTC 260450Z AUTO 35008KT 10SM OVC024 M01/M06 A3011 850 72 -800 350/08 RMK AO2 SLP216 T10111056
14926KSTC STC20011125225510311/25/01 22:55:31  5-MIN KSTC 260455Z AUTO 35008KT 10SM OVC024 M01/M06 A3011 850 72 -800 350/08 RMK AO2
14926KSTC STC20011125230010311/25/01 23:00:31  5-MIN KSTC 260500Z AUTO 01007KT 10SM OVC024 M01/M05 A3011 850 75 -800 360/07 RMK AO2
14926KSTC STC20011125230510311/25/01 23:05:31  5-MIN KSTC 260505Z AUTO 36007KT 10SM OVC024 M01/M05 A3011 850 75 -800 360/07 RMK AO2
14926KSTC STC20011125231010311/25/01 23:10:31  5-MIN KSTC 260510Z AUTO 36007KT 10SM OVC026 M01/M05 A3012 850 75 -800 360/07 RMK AO2
14926KSTC STC20011125231510311/25/01 23:15:31  5-MIN KSTC 260515Z AUTO 01008KT 10SM OVC026 M01/M05 A3011 850 75 -800 360/08 RMK AO2
14926KSTC STC20011125232010311/25/01 23:20:31  5-MIN KSTC 260520Z AUTO 35007KT 10SM OVC026 M01/M05 A3012 840 75 -800 350/07 RMK AO2
14926KSTC STC20011125232510311/25/01 23:25:31  5-MIN KSTC 260525Z AUTO 01006KT 10SM OVC026 M01/M05 A3012 840 75 -800 360/06 RMK AO2
14926KSTC STC20011125233010311/25/01 23:30:31  5-MIN KSTC 260530Z AUTO 36005KT 10SM OVC026 M01/M05 A3012 840 75 -800 360/05 RMK AO2
14926KSTC STC20011125233510311/25/01 23:35:31  5-MIN KSTC 260535Z AUTO 01008KT 10SM OVC026 M01/M05 A3012 850 75 -800 360/08 RMK AO2
14926KSTC STC20011125234010311/25/01 23:40:31  5-MIN KSTC 260540Z AUTO 36009KT 10SM OVC024 M01/M05 A3012 850 75 -800 360/09 RMK AO2
14926KSTC STC20011125234510311/25/01 23:45:31  5-MIN KSTC 260545Z AUTO 01008KT 10SM OVC024 M01/M05 A3012 850 75 -800 360/08 RMK AO2
14926KSTC STC20011125235014811/25/01 23:50:31  5-MIN KSTC 260550Z AUTO 36007KT 10SM OVC024 M01/M04 A3011 850 78 -800 350/07 RMK AO2 SLP219 T10111044 11006 21011 400281011 53020
14926KSTC STC20011125235510311/25/01 23:55:31  5-MIN KSTC 260555Z AUTO 01009KT 10SM OVC024 M01/M04 A3011 850 78 -800 360/09 RMK AO2
14926KSTC STC20011126000011011/26/01 00:00:31  5-MIN KSTC 260600Z AUTO 36009KT 10SM FEW017 OVC024 M01/M04 A3012 850 78 -800 360/09 RMK AO2
14926KSTC STC20011126000510311/26/01 00:05:31  5-MIN KSTC 260605Z AUTO 01009KT 10SM OVC024 M01/M04 A3012 850 78 -800 360/09 RMK AO2
14926KSTC STC20011126001010311/26/01 00:10:31  5-MIN KSTC 260610Z AUTO 01007KT 10SM OVC024 M01/M04 A3012 840 78 -800 010/07 RMK AO2
14926KSTC STC20011126001510311/26/01 00:15:31  5-MIN KSTC 260615Z AUTO 01008KT 10SM OVC022 M01/M04 A3011 850 78 -800 010/08 RMK AO2
14926KSTC STC20011126002010311/26/01 00:20:31  5-MIN KSTC 260620Z AUTO 01009KT 10SM OVC022 M01/M04 A3012 840 78 -800 360/09 RMK AO2
14926KSTC STC20011126002510311/26/01 00:25:31  5-MIN KSTC 260625Z AUTO 01008KT 10SM OVC022 M02/M04 A3012 840 81 -900 010/08 RMK AO2
14926KSTC STC20011126003010311/26/01 00:30:31  5-MIN KSTC 260630Z AUTO 01010KT 10SM OVC022 M02/M04 A3012 840 81 -900 010/10 RMK AO2
14926KSTC STC20011126003510311/26/01 00:35:31  5-MIN KSTC 260635Z AUTO 02007KT 10SM OVC020 M02/M04 A3012 840 81 -900 010/07 RMK AO2
14926KSTC STC20011126004010311/26/01 00:40:31  5-MIN KSTC 260640Z AUTO 02008KT 10SM OVC020 M02/M04 A3012 840 81 -900 010/08 RMK AO2
14926KSTC STC20011126004510311/26/01 00:45:31  5-MIN KSTC 260645Z AUTO 01008KT 10SM OVC020 M02/M04 A3012 840 85 -900 010/08 RMK AO2
14926KSTC STC20011126005012011/26/01 00:50:31  5-MIN KSTC 260650Z AUTO 01009KT 10SM OVC020 M02/M04 A3012 840 85 -900 010/09 RMK AO2 SLP221 T10171039
14926KSTC STC20011126005511011/26/01 00:55:31  5-MIN KSTC 260655Z AUTO 02009KT 10SM BKN018 OVC023 M02/M04 A3012 840 85 -900 010/09 RMK AO2
14926KSTC STC20011126010010311/26/01 01:00:31  5-MIN KSTC 260700Z AUTO 01010KT 10SM OVC020 M02/M04 A3011 850 85 -900 010/10 RMK AO2
14926KSTC STC20011126010510311/26/01 01:05:31  5-MIN KSTC 260705Z AUTO 01008KT 10SM OVC020 M02/M04 A3011 850 85 -900 010/08 RMK AO2
14926KSTC STC20011126011010311/26/01 01:10:31  5-MIN KSTC 260710Z AUTO 01009KT 10SM OVC020 M02/M04 A3011 850 85 -900 360/09 RMK AO2
14926KSTC STC20011126011510311/26/01 01:15:31  5-MIN KSTC 260715Z AUTO 01007KT 10SM OVC022 M02/M04 A3011 850 85 -900 010/07 RMK AO2
14926KSTC STC20011126012010311/26/01 01:20:31  5-MIN KSTC 260720Z AUTO 01008KT 10SM OVC022 M02/M04 A3012 850 85 -900 360/08 RMK AO2
14926KSTC STC20011126012510311/26/01 01:25:31  5-MIN KSTC 260725Z AUTO 36007KT 10SM OVC022 M02/M04 A3012 840 85 -900 360/07 RMK AO2
14926KSTC STC20011126013010311/26/01 01:30:31  5-MIN KSTC 260730Z AUTO 01007KT 10SM OVC022 M02/M04 A3013 840 85 -900 010/07 RMK AO2
14926KSTC STC20011126013510311/26/01 01:35:31  5-MIN KSTC 260735Z AUTO 01007KT 10SM OVC022 M02/M04 A3013 840 85 -900 360/07 RMK AO2
14926KSTC STC20011126014010311/26/01 01:40:31  5-MIN KSTC 260740Z AUTO 36007KT 10SM OVC022 M02/M04 A3013 840 85 -900 360/07 RMK AO2
14926KSTC STC20011126014510311/26/01 01:45:31  5-MIN KSTC 260745Z AUTO 01007KT 10SM OVC020 M01/M04 A3012 840 81 -800 010/07 RMK AO2
14926KSTC STC20011126015012011/26/01 01:50:31  5-MIN KSTC 260750Z AUTO 01008KT 10SM OVC020 M01/M04 A3012 840 81 -800 010/08 RMK AO2 SLP222 T10111039
14926KSTC STC20011126015510311/26/01 01:55:31  5-MIN KSTC 260755Z AUTO 03006KT 10SM OVC020 M01/M04 A3012 840 81 -800 030/06 RMK AO2
14926KSTC STC20011126020010311/26/01 02:00:31  5-MIN KSTC 260800Z AUTO 04006KT 10SM OVC020 M01/M04 A3012 840 81 -800 030/06 RMK AO2
14926KSTC STC20011126020510311/26/01 02:05:31  5-MIN KSTC 260805Z AUTO 04006KT 10SM OVC020 M01/M04 A3013 830 81 -800 040/06 RMK AO2
14926KSTC STC20011126021010311/26/01 02:10:31  5-MIN KSTC 260810Z AUTO 04007KT 10SM OVC020 M01/M04 A3013 830 78 -800 040/07 RMK AO2
14926KSTC STC20011126021510311/26/01 02:15:31  5-MIN KSTC 260815Z AUTO 04008KT 10SM OVC020 M01/M04 A3013 830 78 -800 040/08 RMK AO2
14926KSTC STC20011126022010311/26/01 02:20:31  5-MIN KSTC 260820Z AUTO 04008KT 10SM OVC020 M01/M04 A3013 830 78 -900 040/08 RMK AO2
14926KSTC STC20011126022510311/26/01 02:25:31  5-MIN KSTC 260825Z AUTO 03007KT 10SM OVC020 M01/M04 A3014 820 78 -900 030/07 RMK AO2
14926KSTC STC20011126023010311/26/01 02:30:31  5-MIN KSTC 260830Z AUTO 04008KT 10SM OVC020 M01/M04 A3014 820 78 -900 040/08 RMK AO2
14926KSTC STC20011126023511011/26/01 02:35:31  5-MIN KSTC 260835Z AUTO 05006KT 10SM BKN018 OVC023 M01/M04 A3014 830 78 -900 050/06 RMK AO2
14926KSTC STC20011126024010311/26/01 02:40:31  5-MIN KSTC 260840Z AUTO 04009KT 10SM OVC018 M01/M04 A3014 830 78 -900 040/09 RMK AO2
14926KSTC STC20011126024510311/26/01 02:45:31  5-MIN KSTC 260845Z AUTO 04007KT 10SM OVC018 M01/M04 A3014 830 78 -900 030/07 RMK AO2
14926KSTC STC20011126025012611/26/01 02:50:31  5-MIN KSTC 260850Z AUTO 05008KT 10SM OVC018 M01/M04 A3014 830 78 -900 040/08 RMK AO2 SLP227 T10111044 51015
14926KSTC STC20011126025510311/26/01 02:55:31  5-MIN KSTC 260855Z AUTO 04009KT 10SM OVC018 M01/M04 A3014 830 78 -900 040/09 RMK AO2
14926KSTC STC20011126030010311/26/01 03:00:31  5-MIN KSTC 260900Z AUTO 05008KT 10SM OVC018 M01/M04 A3014 830 78 -900 050/08 RMK AO2
14926KSTC STC20011126030510311/26/01 03:05:31  5-MIN KSTC 260905Z AUTO 05010KT 10SM OVC018 M01/M04 A3014 830 78 -900 050/10 RMK AO2
14926KSTC STC20011126031010311/26/01 03:10:31  5-MIN KSTC 260910Z AUTO 05008KT 10SM OVC018 M01/M04 A3014 830 78 -900 040/08 RMK AO2
14926KSTC STC20011126031510311/26/01 03:15:31  5-MIN KSTC 260915Z AUTO 05008KT 10SM OVC018 M01/M04 A3014 830 78 -900 050/08 RMK AO2
14926KSTC STC20011126032010311/26/01 03:20:31  5-MIN KSTC 260920Z AUTO 04008KT 10SM OVC020 M01/M04 A3014 820 78 -900 040/08 RMK AO2
14926KSTC STC20011126032511011/26/01 03:25:31  5-MIN KSTC 260925Z AUTO 05008KT 10SM BKN020 OVC024 M01/M04 A3014 830 78 -900 040/08 RMK AO2
14926KSTC STC20011126033011011/26/01 03:30:31  5-MIN KSTC 260930Z AUTO 05009KT 10SM BKN020 OVC024 M01/M04 A3013 830 78 -900 040/09 RMK AO2
14926KSTC STC20011126033511011/26/01 03:35:31  5-MIN KSTC 260935Z AUTO 05007KT 10SM BKN020 OVC024 M01/M04 A3014 830 81 -900 040/07 RMK AO2
14926KSTC STC20011126034010311/26/01 03:40:31  5-MIN KSTC 260940Z AUTO 05009KT 10SM OVC018 M01/M04 A3014 830 78 -900 040/09 RMK AO2
14926KSTC STC20011126034511011/26/01 03:45:31  5-MIN KSTC 260945Z AUTO 05006KT 10SM BKN018 OVC024 M01/M04 A3014 820 81 -900 050/06 RMK AO2
14926KSTC STC20011126035012011/26/01 03:50:31  5-MIN KSTC 260950Z AUTO 05008KT 10SM OVC018 M01/M04 A3014 830 81 -900 050/08 RMK AO2 SLP227 T10111039
14926KSTC STC20011126035510311/26/01 03:55:31  5-MIN KSTC 260955Z AUTO 05009KT 10SM OVC018 M01/M04 A3014 830 81 -900 050/09 RMK AO2
14926KSTC STC20011126040010311/26/01 04:00:31  5-MIN KSTC 261000Z AUTO 05009KT 10SM OVC016 M01/M04 A3014 830 81 -900 050/09 RMK AO2
14926KSTC STC20011126040510311/26/01 04:05:31  5-MIN KSTC 261005Z AUTO 05009KT 10SM OVC016 M02/M04 A3014 820 85 -900 050/09 RMK AO2
14926KSTC STC20011126041010311/26/01 04:10:31  5-MIN KSTC 261010Z AUTO 04010KT 10SM OVC016 M02/M03 A3014 820 88 -900 040/10 RMK AO2
14926KSTC STC20011126041510311/26/01 04:15:31  5-MIN KSTC 261015Z AUTO 05009KT 10SM OVC016 M02/M03 A3014 830 88 -900 040/09 RMK AO2
14926KSTC STC20011126042010311/26/01 04:20:31  5-MIN KSTC 261020Z AUTO 04009KT 10SM OVC016 M02/M03 A3013 830 88 -900 040/09 RMK AO2
14926KSTC STC20011126042510311/26/01 04:25:31  5-MIN KSTC 261025Z AUTO 04009KT 10SM OVC014 M02/M03 A3013 830 88 -900 040/09 RMK AO2
14926KSTC STC20011126043010311/26/01 04:30:31  5-MIN KSTC 261030Z AUTO 05010KT 10SM OVC014 M02/M03 A3013 830 88 -900 040/10 RMK AO2
14926KSTC STC20011126043510311/26/01 04:35:31  5-MIN KSTC 261035Z AUTO 04011KT 10SM OVC014 M02/M03 A3012 840 88 -900 040/11 RMK AO2
14926KSTC STC20011126044010311/26/01 04:40:31  5-MIN KSTC 261040Z AUTO 04010KT 10SM OVC014 M02/M03 A3012 840 88 -900 040/10 RMK AO2
14926KSTC STC20011126044510311/26/01 04:45:31  5-MIN KSTC 261045Z AUTO 05011KT 10SM OVC014 M02/M03 A3013 840 88 -900 040/11 RMK AO2
14926KSTC STC20011126045012711/26/01 04:50:31  5-MIN KSTC 261050Z AUTO 04009KT 10SM FEW010 OVC014 M02/M03 A3012 840 88 -900 030/09 RMK AO2 SLP221 T10171033
14926KSTC STC20011126045511011/26/01 04:55:31  5-MIN KSTC 261055Z AUTO 04009KT 10SM FEW010 OVC014 M02/M03 A3012 840 88 -900 040/09 RMK AO2
14926KSTC STC20011126050010311/26/01 05:00:31  5-MIN KSTC 261100Z AUTO 05011KT 10SM OVC014 M02/M04 A3012 840 85 -900 040/11 RMK AO2
14926KSTC STC20011126050510311/26/01 05:05:31  5-MIN KSTC 261105Z AUTO 04011KT 10SM OVC014 M02/M04 A3012 840 85 -900 040/11 RMK AO2
14926KSTC STC20011126051010311/26/01 05:10:31  5-MIN KSTC 261110Z AUTO 05010KT 10SM OVC014 M02/M04 A3012 840 85 -900 040/10 RMK AO2
14926KSTC STC20011126051510311/26/01 05:15:31  5-MIN KSTC 261115Z AUTO 04010KT 10SM OVC014 M02/M04 A3012 840 85 -900 030/10 RMK AO2
14926KSTC STC20011126052010911/26/01 05:20:31  5-MIN KSTC 261120Z AUTO 04012G17KT 10SM OVC014 M02/M04 A3012 840 85 -900 040/12G17 RMK AO2
14926KSTC STC20011126052510311/26/01 05:25:31  5-MIN KSTC 261125Z AUTO 04011KT 10SM OVC014 M01/M04 A3012 850 81 -800 040/11 RMK AO2
14926KSTC STC20011126053010911/26/01 05:30:31  5-MIN KSTC 261130Z AUTO 05012G17KT 10SM OVC014 M01/M04 A3011 850 81 -800 040/12G17 RMK AO2
14926KSTC STC20011126053510311/26/01 05:35:31  5-MIN KSTC 261135Z AUTO 05013KT 10SM OVC014 M01/M03 A3011 850 85 -800 050/13 RMK AO2
14926KSTC STC20011126054010311/26/01 05:40:31  5-MIN KSTC 261140Z AUTO 05012KT 10SM OVC014 M02/M03 A3012 850 88 -900 050/12 RMK AO2
14926KSTC STC20011126054510911/26/01 05:45:31  5-MIN KSTC 261145Z AUTO 05012G17KT 10SM OVC014 M02/M03 A3011 850 88 -900 050/12G17 RMK AO2
14926KSTC STC20011126055014411/26/01 05:50:31  5-MIN KSTC 261150Z AUTO 05014G20KT 10SM OVC014 M02/M03 A3011 860 88 -900 040/14G20 RMK AO2 SLP217 T10171033 11011 21017 53007
14926KSTC STC20011126055510911/26/01 05:55:31  5-MIN KSTC 261155Z AUTO 05012G20KT 10SM OVC012 M02/M03 A3011 860 88 -900 050/12G20 RMK AO2
14926KSTC STC20011126060010911/26/01 06:00:31  5-MIN KSTC 261200Z AUTO 05013G18KT 10SM OVC012 M02/M03 A3010 860 92 -900 040/13G18 RMK AO2
14926KSTC STC20011126060510911/26/01 06:05:31  5-MIN KSTC 261205Z AUTO 05012G18KT 10SM OVC012 M02/M03 A3010 860 92 -900 050/12G18 RMK AO2
14926KSTC STC20011126061010311/26/01 06:10:31  5-MIN KSTC 261210Z AUTO 05011KT 10SM OVC012 M02/M03 A3010 860 92 -900 040/11 RMK AO2
14926KSTC STC20011126061512111/26/01 06:15:31  5-MIN KSTC 261215Z AUTO 05012G19KT 10SM OVC010 M02/M03 A3011 850 92 -900 050/12G19 RMK AO2 CIG 007V014
14926KSTC STC20011126062012011/26/01 06:20:31  5-MIN KSTC 261220Z AUTO 05009G19KT 9SM OVC010 M02/M03 A3011 850 92 -900 050/09G19 RMK AO2 CIG 007V014
14926KSTC STC20011126062511511/26/01 06:25:31  5-MIN KSTC 261225Z AUTO 05011KT 10SM OVC008 M02/M03 A3011 850 92 -900 050/11 RMK AO2 CIG 007V012
14926KSTC STC20011126063012111/26/01 06:30:31  5-MIN KSTC 261230Z AUTO 06011G18KT 10SM OVC008 M02/M03 A3011 850 92 -900 050/11G18 RMK AO2 CIG 007V012
14926KSTC STC20011126063512111/26/01 06:35:31  5-MIN KSTC 261235Z AUTO 05011G18KT 10SM OVC008 M02/M03 A3011 850 92 -900 050/11G18 RMK AO2 CIG 007V012
14926KSTC STC20011126064011511/26/01 06:40:31  5-MIN KSTC 261240Z AUTO 05010KT 10SM OVC008 M02/M03 A3011 850 92 -900 050/10 RMK AO2 CIG 007V012
14926KSTC STC20011126064510311/26/01 06:45:31  5-MIN KSTC 261245Z AUTO 06013KT 10SM OVC008 M02/M03 A3011 850 92 -900 050/13 RMK AO2
14926KSTC STC20011126065012011/26/01 06:50:31  5-MIN KSTC 261250Z AUTO 06011KT 10SM OVC008 M02/M03 A3011 850 92 -900 050/11 RMK AO2 SLP218 T10171028
14926KSTC STC20011126065510311/26/01 06:55:31  5-MIN KSTC 261255Z AUTO 06012KT 10SM OVC008 M02/M03 A3011 850 92 -900 050/12 RMK AO2
14926KSTC STC20011126070010311/26/01 07:00:31  5-MIN KSTC 261300Z AUTO 05010KT 10SM OVC008 M02/M03 A3011 850 92 -900 050/10 RMK AO2
14926KSTC STC20011126070510911/26/01 07:05:31  5-MIN KSTC 261305Z AUTO 06012G17KT 10SM OVC008 M02/M03 A3011 850 92 -900 050/12G17 RMK AO2
14926KSTC STC20011126071010311/26/01 07:10:31  5-MIN KSTC 261310Z AUTO 06011KT 10SM OVC008 M02/M03 A3011 850 92 -900 050/11 RMK AO2
14926KSTC STC20011126071510911/26/01 07:15:31  5-MIN KSTC 261315Z AUTO 06015G18KT 10SM OVC008 M02/M03 A3011 850 92 -900 050/15G18 RMK AO2
14926KSTC STC20011126072010911/26/01 07:20:31  5-MIN KSTC 261320Z AUTO 06010G18KT 10SM OVC008 M02/M03 A3011 850 92 -900 060/10G18 RMK AO2
14926KSTC STC20011126072510911/26/01 07:25:31  5-MIN KSTC 261325Z AUTO 06012G18KT 10SM OVC010 M01/M03 A3011 850 88 -800 060/12G18 RMK AO2
14926KSTC STC20011126073010911/26/01 07:30:31  5-MIN KSTC 261330Z AUTO 05010G20KT 10SM OVC010 M01/M03 A3011 850 88 -800 050/10G20 RMK AO2
14926KSTC STC20011126073510911/26/01 07:35:31  5-MIN KSTC 261335Z AUTO 05013G21KT 10SM OVC010 M01/M03 A3011 850 88 -800 050/13G21 RMK AO2
14926KSTC STC20011126074012411/26/01 07:40:31  5-MIN KSTC 261340Z AUTO 05014G21KT 7SM -SN OVC010 M01/M03 A3010 860 88 -800 050/14G21 RMK AO2 SNB37 P0000
14926KSTC STC20011126074512711/26/01 07:45:31  5-MIN KSTC 261345Z AUTO 05012G20KT 5SM -SN BR OVC010 M01/M03 A3010 860 88 -800 050/12G20 RMK AO2 SNB37 P0000
14926KSTC STC20011126075014411/26/01 07:50:31  5-MIN KSTC 261350Z AUTO 05014G20KT 4SM -SN BR OVC010 M01/M03 A3010 860 88 -800 050/14G20 RMK AO2 SNB37 SLP214 P0000 T10111028
14926KSTC STC20011126075512111/26/01 07:55:31  5-MIN KSTC 261355Z AUTO 06016G19KT 3SM -SN BR OVC010 M01/M02 A3010 860 92 -800 050/16G19 RMK AO2 P0000
14926KSTC STC20011126080012511/26/01 08:00:31  5-MIN KSTC 261400Z AUTO 05014G19KT 1 3/4SM -SN BR OVC010 M01/M02 A3010 860 92 -800 050/14G19 RMK AO2 P0000
14926KSTC STC20011126080512511/26/01 08:05:31  5-MIN KSTC 261405Z AUTO 05014G19KT 1 1/2SM -SN BR OVC010 M01/M02 A3010 860 92 -800 050/14G19 RMK AO2 P0000
14926KSTC STC20011126081012111/26/01 08:10:31  5-MIN KSTC 261410Z AUTO 05013G20KT 1SM -SN BR OVC010 M02/M02 A3010 860 96 -900 050/13G20 RMK AO2 P0000
14926KSTC STC20011126081513011/26/01 08:15:31  5-MIN KSTC 261415Z AUTO 05012G20KT 3/4SM -SN BR SCT006 OVC011 M02/M02 A3011 860 96 -900 050/12G20 RMK AO2 P0000
14926KSTC STC20011126082013011/26/01 08:20:31  5-MIN KSTC 261420Z AUTO 05013G20KT 3/4SM -SN BR BKN006 OVC011 M02/M02 A3011 850 96 -900 050/13G20 RMK AO2 P0000
14926KSTC STC20011126082513011/26/01 08:25:31  5-MIN KSTC 261425Z AUTO 05012G19KT 3/4SM -SN BR BKN008 OVC015 M02/M02 A3011 850 96 -900 050/12G19 RMK AO2 P0000
14926KSTC STC20011126083011411/26/01 08:30:31  5-MIN KSTC 261430Z AUTO 05013KT 1SM -SN BR VV008 M02/M02 A3011 850 96 -900 050/13 RMK AO2 P0001
14926KSTC STC20011126083512411/26/01 08:35:31  5-MIN KSTC 261435Z AUTO 05012KT 3/4SM -SN BR BKN007 OVC011 M02/M02 A3011 850 96 -900 050/12 RMK AO2 P0001
14926KSTC STC20011126084012411/26/01 08:40:31  5-MIN KSTC 261440Z AUTO 05010KT 3/4SM -SN BR BKN007 OVC011 M02/M02 A3011 850 96 -900 050/10 RMK AO2 P0001
14926KSTC STC20011126084513011/26/01 08:45:31  5-MIN KSTC 261445Z AUTO 05012G18KT 3/4SM -SN BR BKN007 OVC011 M02/M02 A3011 850 96 -900 050/12G18 RMK AO2 P0001
14926KSTC STC20011126085015911/26/01 08:50:31  5-MIN KSTC 261450Z AUTO 06014G18KT 3/4SM -SN BR BKN007 OVC013 M02/M02 A3011 850 96 -900 050/14G18 RMK AO2 SLP217 P0001 60001 T10171022 58010
14926KSTC STC20011126085513011/26/01 08:55:31  5-MIN KSTC 261455Z AUTO 06015G20KT 3/4SM -SN BR BKN007 OVC013 M01/M02 A3011 850 92 -800 050/15G20 RMK AO2 P0000
14926KSTC STC20011126090012211/26/01 09:00:31  5-MIN KSTC 261500Z AUTO 06012G20KT 3/4SM -SN BR VV008 M01/M02 A3011 850 92 -800 050/12G20 RMK AO2 P0001
14926KSTC STC20011126090513011/26/01 09:05:31  5-MIN KSTC 261505Z AUTO 05012G18KT 3/4SM -SN BR BKN008 OVC013 M01/M02 A3011 850 92 -800 050/12G18 RMK AO2 P0001
14926KSTC STC20011126091013011/26/01 09:10:31  5-MIN KSTC 261510Z AUTO 05013G20KT 3/4SM -SN BR BKN008 OVC013 M01/M02 A3011 860 92 -800 050/13G20 RMK AO2 P0001
14926KSTC STC20011126091512211/26/01 09:15:31  5-MIN KSTC 261515Z AUTO 05011G20KT 3/4SM -SN BR VV008 M01/M02 A3011 860 92 -800 050/11G20 RMK AO2 P0001
14926KSTC STC20011126092011711/26/01 09:20:31  5-MIN KSTC 261520Z AUTO 06010KT 3/4SM -SN BR OVC008 M01/M02 A3011 850 92 -800 050/10 RMK AO2 P0001
14926KSTC STC20011126092513011/26/01 09:25:31  5-MIN KSTC 261525Z AUTO 06012G18KT 3/4SM -SN BR BKN008 OVC014 M01/M02 A3011 860 92 -800 060/12G18 RMK AO2 P0002
14926KSTC STC20011126093012211/26/01 09:30:31  5-MIN KSTC 261530Z AUTO 06013KT 1SM -SN BR BKN008 OVC014 M01/M02 A3010 860 92 -800 050/13 RMK AO2 P0002
14926KSTC STC20011126093512811/26/01 09:35:31  5-MIN KSTC 261535Z AUTO 06016G22KT 1SM -SN BR BKN008 OVC014 M01/M02 A3010 860 92 -800 050/16G22 RMK AO2 P0002
14926KSTC STC20011126094013011/26/01 09:40:31  5-MIN KSTC 261540Z AUTO 06013G22KT 3/4SM -SN BR BKN008 OVC014 M01/M02 A3009 870 92 -800 050/13G22 RMK AO2 P0002
14926KSTC STC20011126094513711/26/01 09:45:31  5-MIN KSTC 261545Z AUTO 05016G20KT 3/4SM -SN BR BKN008 OVC014 M01/M02 A3008 880 92 -800 050/16G20 RMK AO2 PRESFR P0002
14926KSTC STC20011126095014711/26/01 09:50:31  5-MIN KSTC 261550Z AUTO 05016G21KT 3/4SM -SN BR BKN008 OVC014 M01/M02 A3008 880 92 -800 040/16G21 RMK AO2 SLP209 P0002 T10111022
14926KSTC STC20011126095513011/26/01 09:55:31  5-MIN KSTC 261555Z AUTO 05014G21KT 3/4SM -SN BR BKN008 OVC014 M01/M02 A3008 880 92 -800 050/14G21 RMK AO2 P0000
14926KSTC STC20011126100013011/26/01 10:00:31  5-MIN KSTC 261600Z AUTO 06012G20KT 3/4SM -SN BR BKN008 OVC014 M01/M02 A3008 880 92 -800 050/12G20 RMK AO2 P0001
14926KSTC STC20011126100513011/26/01 10:05:31  5-MIN KSTC 261605Z AUTO 05012G20KT 3/4SM -SN BR SCT008 OVC014 M01/M02 A3008 880 92 -800 050/12G20 RMK AO2 P0001
14926KSTC STC20011126101013011/26/01 10:10:31  5-MIN KSTC 261610Z AUTO 06014G18KT 3/4SM -SN BR SCT006 OVC014 M01/M02 A3008 880 92 -800 050/14G18 RMK AO2 P0001
14926KSTC STC20011126101512211/26/01 10:15:31  5-MIN KSTC 261615Z AUTO 06013KT 1SM -SN BR BKN009 OVC014 M01/M02 A3009 870 92 -800 050/13 RMK AO2 P0001
14926KSTC STC20011126102013711/26/01 10:20:31  5-MIN KSTC 261620Z AUTO 06013G20KT 3/4SM -SN BR FEW005 BKN009 OVC014 M01/M02 A3008 880 92 -800 050/13G20 RMK AO2 P0001
14926KSTC STC20011126102513811/26/01 10:25:31  5-MIN KSTC 261625Z AUTO 06015G21KT 1/2SM SN FZFG FEW005 BKN010 OVC015 M01/M02 A3008 880 92 -800 060/15G21 RMK AO2 P0001
14926KSTC STC20011126103013811/26/01 10:30:31  5-MIN KSTC 261630Z AUTO 06013G21KT 1/2SM SN FZFG FEW003 BKN010 OVC015 M01/M02 A3008 880 92 -800 060/13G21 RMK AO2 P0002
14926KSTC STC20011126103512511/26/01 10:35:31  5-MIN KSTC 261635Z AUTO 06014KT 1/2SM SN FZFG FEW003 OVC012 M01/M02 A3009 870 92 -800 050/14 RMK AO2 P0002
14926KSTC STC20011126104013111/26/01 10:40:31  5-MIN KSTC 261640Z AUTO 07015G23KT 1/2SM SN FZFG FEW003 OVC012 M01/M02 A3009 870 92 -800 070/15G23 RMK AO2 P0002
14926KSTC STC20011126104513111/26/01 10:45:31  5-MIN KSTC 261645Z AUTO 06013G23KT 1/2SM SN FZFG FEW003 OVC012 M01/M02 A3009 870 92 -800 060/13G23 RMK AO2 P0003
14926KSTC STC20011126105015411/26/01 10:50:31  5-MIN KSTC 261650Z AUTO 06014G23KT 3/4SM -SN BR FEW003 BKN012 OVC017 M01/M02 A3008 870 92 -800 060/14G23 RMK AO2 SLP210 P0003 T10111022
14926KSTC STC20011126105513711/26/01 10:55:31  5-MIN KSTC 261655Z AUTO 06013G22KT 3/4SM -SN BR FEW005 BKN012 OVC017 M01/M02 A3008 880 92 -800 050/13G22 RMK AO2 P0000
14926KSTC STC20011126110013811/26/01 11:00:31  5-MIN KSTC 261700Z AUTO 06015G24KT 1/2SM SN FZFG SCT005 BKN012 OVC016 M01/M02 A3007 880 92 -800 050/15G24 RMK AO2 P0000
14926KSTC STC20011126110513111/26/01 11:05:31  5-MIN KSTC 261705Z AUTO 06014G24KT 1/2SM SN FZFG SCT005 OVC012 M01/M02 A3007 890 92 -800 060/14G24 RMK AO2 P0000
14926KSTC STC20011126111013111/26/01 11:10:31  5-MIN KSTC 261710Z AUTO 06012G19KT 1/2SM SN FZFG SCT005 OVC012 M01/M02 A3007 890 92 -800 050/12G19 RMK AO2 P0001
14926KSTC STC20011126111513811/26/01 11:15:31  5-MIN KSTC 261715Z AUTO 05016G21KT 1/2SM SN FZFG SCT005 BKN008 OVC015 M01/M02 A3007 890 92 -800 050/16G21 RMK AO2 P0001
14926KSTC STC20011126112013111/26/01 11:20:31  5-MIN KSTC 261720Z AUTO 05016G23KT 1/2SM SN FZFG SCT005 OVC011 M01/M02 A3007 890 92 -800 050/16G23 RMK AO2 P0001
14926KSTC STC20011126112513111/26/01 11:25:31  5-MIN KSTC 261725Z AUTO 05013G23KT 1/2SM SN FZFG SCT005 OVC011 M01/M02 A3007 890 92 -800 050/13G23 RMK AO2 P0001
14926KSTC STC20011126113013811/26/01 11:30:31  5-MIN KSTC 261730Z AUTO 06015G20KT 1/2SM SN FZFG SCT005 BKN009 OVC013 M01/M02 A3007 890 92 -800 060/15G20 RMK AO2 P0002
14926KSTC STC20011126113513111/26/01 11:35:31  5-MIN KSTC 261735Z AUTO 07014G20KT 1/2SM SN FZFG SCT005 OVC011 M01/M02 A3007 890 92 -800 060/14G20 RMK AO2 P0002
14926KSTC STC20011126114013111/26/01 11:40:31  5-MIN KSTC 261740Z AUTO 06015G20KT 1/2SM SN FZFG SCT005 OVC012 M01/M02 A3007 890 92 -800 050/15G20 RMK AO2 P0002
14926KSTC STC20011126114513111/26/01 11:45:31  5-MIN KSTC 261745Z AUTO 06015G19KT 1/2SM SN FZFG SCT005 OVC012 M01/M02 A3007 890 92 -800 060/15G19 RMK AO2 P0002
14926KSTC STC20011126115017211/26/01 11:50:31  5-MIN KSTC 261750Z AUTO 06014G20KT 1/2SM SN FZFG SCT005 OVC012 M01/M02 A3007 890 92 -800 060/14G20 RMK AO2 SLP204 P0003 60009 T10111022 11011 21017 53001
14926KSTC STC20011126115513111/26/01 11:55:31  5-MIN KSTC 261755Z AUTO 07015G20KT 1/2SM SN FZFG SCT005 OVC012 M01/M02 A3006 890 92 -800 060/15G20 RMK AO2 P0000
14926KSTC STC20011126120013111/26/01 12:00:31  5-MIN KSTC 261800Z AUTO 07014G20KT 1/2SM SN FZFG SCT005 OVC012 M01/M02 A3006 900 92 -800 060/14G20 RMK AO2 P0000
14926KSTC STC20011126120513111/26/01 12:05:31  5-MIN KSTC 261805Z AUTO 06017G20KT 1/2SM SN FZFG SCT005 OVC012 M01/M02 A3006 900 92 -800 060/17G20 RMK AO2 P0000
14926KSTC STC20011126121013811/26/01 12:10:31  5-MIN KSTC 261810Z AUTO 07015G22KT 1/2SM SN FZFG SCT005 BKN010 OVC014 M01/M02 A3005 900 92 -800 060/15G22 RMK AO2 P0001
14926KSTC STC20011126121513111/26/01 12:15:31  5-MIN KSTC 261815Z AUTO 06017G25KT 1/2SM SN FZFG SCT005 OVC012 M01/M02 A3005 910 92 -800 060/17G25 RMK AO2 P0001
14926KSTC STC20011126122013811/26/01 12:20:31  5-MIN KSTC 261820Z AUTO 06017G25KT 1/2SM SN FZFG SCT005 OVC012 M01/M02 A3004 920 92 -700 060/17G25 RMK AO2 PRESFR P0001
14926KSTC STC20011126122513811/26/01 12:25:31  5-MIN KSTC 261825Z AUTO 06016G25KT 1/2SM SN FZFG SCT005 OVC012 M01/M02 A3003 930 92 -700 060/16G25 RMK AO2 PRESFR P0001
14926KSTC STC20011126123013711/26/01 12:30:31  5-MIN KSTC 261830Z AUTO 05016G25KT 3/4SM -SN BR SCT005 OVC012 M01/M02 A3002 930 92 -700 050/16G25 RMK AO2 PRESFR P0001
14926KSTC STC20011126123513711/26/01 12:35:31  5-MIN KSTC 261835Z AUTO 06017G24KT 3/4SM -SN BR SCT005 OVC012 M01/M02 A3001 940 92 -700 050/17G24 RMK AO2 PRESFR P0002
14926KSTC STC20011126124015511/26/01 12:40:31  5-MIN KSTC 261840Z AUTO 06017G26KT 3/4SM -SN BR FEW005 OVC012 M01/M02 A3001 950 92 -700 050/17G26 RMK AO2 PK WND 05026/1836 PRESFR P0002
14926KSTC STC20011126124515311/26/01 12:45:31  5-MIN KSTC 261845Z AUTO 06017G26KT 1SM -SN BR FEW005 OVC012 M01/M02 A3000 950 92 -700 060/17G26 RMK AO2 PK WND 05026/1842 PRESFR P0002
14926KSTC STC20011126125016311/26/01 12:50:31  5-MIN KSTC 261850Z AUTO 05020G29KT 1SM -SN BR OVC012 M01/M02 A2999 960 92 -700 050/20G29 RMK AO2 PK WND 04029/1850 PRESFR SLP178 P0002 T10111022
14926KSTC STC20011126125513911/26/01 12:55:31  5-MIN KSTC 261855Z AUTO 05015G29KT 1 1/4SM -SN BR FEW007 OVC014 M01/M02 A2999 970 92 -700 050/15G29 RMK AO2 PRESFR P0000
14926KSTC STC20011126130012511/26/01 13:00:31  5-MIN KSTC 261900Z AUTO 06015G26KT 1 1/4SM -SN BR OVC014 M01/M02 A2998 970 92 -700 050/15G26 RMK AO2 P0000
14926KSTC STC20011126130512511/26/01 13:05:31  5-MIN KSTC 261905Z AUTO 05017G24KT 1 1/4SM -SN BR OVC014 M01/M02 A2998 970 92 -700 050/17G24 RMK AO2 P0000
14926KSTC STC20011126131012511/26/01 13:10:31  5-MIN KSTC 261910Z AUTO 06017G24KT 1 1/4SM -SN BR OVC014 M01/M02 A2998 970 92 -700 060/17G24 RMK AO2 P0000
14926KSTC STC20011126131513211/26/01 13:15:31  5-MIN KSTC 261915Z AUTO 06017G24KT 1 1/2SM -SN BR BKN012 OVC018 M01/M02 A2998 970 92 -700 060/17G24 RMK AO2 P0000
14926KSTC STC20011126132012511/26/01 13:20:31  5-MIN KSTC 261920Z AUTO 06018G25KT 1 1/2SM -SN BR OVC014 M01/M02 A2999 970 92 -700 060/18G25 RMK AO2 P0000
14926KSTC STC20011126132514311/26/01 13:25:31  5-MIN KSTC 261925Z AUTO 07015G27KT 1 1/2SM -SN BR OVC014 M01/M02 A3000 960 92 -700 060/15G27 RMK AO2 PK WND 08027/1922 P0000
14926KSTC STC20011126133013911/26/01 13:30:31  5-MIN KSTC 261930Z AUTO 07019G27KT 1SM -SN BR OVC014 M01/M02 A3000 950 92 -700 060/19G27 RMK AO2 PK WND 08027/1922 P0000
14926KSTC STC20011126133514111/26/01 13:35:31  5-MIN KSTC 261935Z AUTO 07013G25KT 3/4SM -SN BR OVC014 M01/M02 A3001 950 92 -700 070/13G25 RMK AO2 PK WND 08027/1922 P0000
14926KSTC STC20011126134014811/26/01 13:40:31  5-MIN KSTC 261940Z AUTO 07016G24KT 3/4SM -SN BR FEW008 OVC014 M01/M02 A3001 940 92 -700 070/16G24 RMK AO2 PK WND 08027/1922 P0001
14926KSTC STC20011126134514911/26/01 13:45:31  5-MIN KSTC 261945Z AUTO 07017G23KT 1/2SM SN FZFG FEW006 OVC012 M01/M02 A3001 940 92 -700 070/17G23 RMK AO2 PK WND 08027/1922 P0001
14926KSTC STC20011126135016611/26/01 13:50:31  5-MIN KSTC 261950Z AUTO 07013G23KT 1/2SM SN FZFG SCT006 OVC012 M01/M02 A3001 940 92 -700 070/13G23 RMK AO2 PK WND 08027/1922 SLP185 P0001 T10111022
14926KSTC STC20011126135513111/26/01 13:55:31  5-MIN KSTC 261955Z AUTO 07014G21KT 1/4SM SN FZFG SCT004 OVC012 M01/M02 A3000 950 92 -700 070/14G21 RMK AO2 P0000
14926KSTC STC20011126140013111/26/01 14:00:31  5-MIN KSTC 262000Z AUTO 07015G23KT 1/4SM SN FZFG SCT004 OVC012 M01/M02 A3000 950 92 -700 060/15G23 RMK AO2 P0000
14926KSTC STC20011126140513111/26/01 14:05:31  5-MIN KSTC 262005Z AUTO 07013G24KT 1/2SM SN FZFG BKN004 OVC010 M01/M02 A3000 950 92 -700 070/13G24 RMK AO2 P0001
14926KSTC STC20011126141013111/26/01 14:10:31  5-MIN KSTC 262010Z AUTO 07016G24KT 1/2SM SN FZFG BKN004 OVC010 M01/M02 A3000 960 92 -700 070/16G24 RMK AO2 P0001
14926KSTC STC20011126141513111/26/01 14:15:31  5-MIN KSTC 262015Z AUTO 07016G22KT 1/4SM SN FZFG BKN004 OVC010 M01/M02 A2999 960 92 -700 060/16G22 RMK AO2 P0002
14926KSTC STC20011126142014911/26/01 14:20:31  5-MIN KSTC 262020Z AUTO 07019G26KT 1/4SM SN FZFG BKN004 OVC010 M01/M02 A2999 960 92 -700 060/19G26 RMK AO2 PK WND 06026/2020 P0002
14926KSTC STC20011126142514911/26/01 14:25:31  5-MIN KSTC 262025Z AUTO 06018G26KT 1/4SM SN FZFG BKN004 OVC010 M01/M02 A2998 970 92 -700 060/18G26 RMK AO2 PK WND 06026/2020 P0003
14926KSTC STC20011126143014911/26/01 14:30:31  5-MIN KSTC 262030Z AUTO 07016G25KT 1/4SM SN FZFG BKN004 OVC010 M01/M02 A2998 970 92 -700 060/16G25 RMK AO2 PK WND 06026/2020 P0003
14926KSTC STC20011126143514911/26/01 14:35:31  5-MIN KSTC 262035Z AUTO 07014G25KT 1/4SM SN FZFG BKN004 OVC010 M01/M02 A2998 970 92 -700 060/14G25 RMK AO2 PK WND 06026/2020 P0003
14926KSTC STC20011126144015011/26/01 14:40:31  5-MIN KSTC 262040Z AUTO 06018G26KT 1/4SM +SN FZFG BKN004 OVC010 M01/M02 A2998 980 92 -700 060/18G26 RMK AO2 PK WND 06026/2038 P0004
14926KSTC STC20011126144515011/26/01 14:45:31  5-MIN KSTC 262045Z AUTO 06018G26KT 1/4SM +SN FZFG BKN004 OVC010 M01/M02 A2997 980 92 -700 060/18G26 RMK AO2 PK WND 06026/2038 P0004
14926KSTC STC20011126145017811/26/01 14:50:31  5-MIN KSTC 262050Z AUTO 06017G25KT 1/4SM SN FZFG BKN004 OVC010 M01/M02 A2997 980 92 -700 060/17G25 RMK AO2 PK WND 06026/2038 SLP170 P0004 60008 T10111022 56014
14926KSTC STC20011126145513111/26/01 14:55:31  5-MIN KSTC 262055Z AUTO 06019G25KT 1/2SM SN FZFG BKN004 OVC010 M01/M02 A2997 980 92 -700 060/19G25 RMK AO2 P0000
14926KSTC STC20011126150013111/26/01 15:00:31  5-MIN KSTC 262100Z AUTO 06017G25KT 1/2SM SN FZFG BKN004 OVC010 M01/M02 A2996 990 92 -700 060/17G25 RMK AO2 P0000
14926KSTC STC20011126150513211/26/01 15:05:31  5-MIN KSTC 262105Z AUTO 06018G25KT 1/4SM +SN FZFG BKN004 OVC010 M01/M02 A2996 990 92 -600 060/18G25 RMK AO2 P0000
14926KSTC STC20011126151015011/26/01 15:10:31  5-MIN KSTC 262110Z AUTO 06016G27KT 1/4SM +SN FZFG BKN004 OVC009 M01/M02 A2996 990 92 -600 060/16G27 RMK AO2 PK WND 06027/2106 P0001
14926KSTC STC20011126151515011/26/01 15:15:31  5-MIN KSTC 262115Z AUTO 07018G27KT 1/4SM +SN FZFG BKN004 OVC009 M01/M02 A2996 990 92 -600 060/18G27 RMK AO2 PK WND 06027/2106 P0001
14926KSTC STC20011126152014911/26/01 15:20:31  5-MIN KSTC 262120Z AUTO 06019G26KT 1/4SM SN FZFG BKN004 OVC009 M01/M02 A2995 990 92 -600 060/19G26 RMK AO2 PK WND 06027/2106 P0001
14926KSTC STC20011126152515011/26/01 15:25:31  5-MIN KSTC 262125Z AUTO 07020G28KT 1/2SM SN FZFG BKN004 OVC009 M01/M02 A2995 1000 92 -600 060/20G28 RMK AO2 PK WND 07028/2123 P0001
14926KSTC STC20011126153015711/26/01 15:30:31  5-MIN KSTC 262130Z AUTO 06019G34KT 1/2SM SN FZFG BKN004 BKN009 OVC014 M01/M02 A2995 1000 92 -600 060/19G34 RMK AO2 PK WND 06034/2126 P0002
14926KSTC STC20011126153515011/26/01 15:35:31  5-MIN KSTC 262135Z AUTO 06019G34KT 1/2SM SN FZFG BKN004 OVC012 M01/M02 A2995 1000 92 -600 060/19G34 RMK AO2 PK WND 06034/2126 P0002
14926KSTC STC20011126154015611/26/01 15:40:31  5-MIN KSTC 262140Z AUTO 06024G33KT 1/2SM SN FZFG BKN004 BKN009 OVC014 M01/M02 A2995 990 92 -600 060/24G33 RMK AO2 PK WND 06034/2126 P0002
14926KSTC STC20011126154515711/26/01 15:45:31  5-MIN KSTC 262145Z AUTO 07022G33KT 1/2SM SN FZFG BKN006 BKN009 OVC015 M01/M02 A2995 1000 92 -600 060/22G33 RMK AO2 PK WND 06034/2126 P0002
14926KSTC STC20011126155017411/26/01 15:50:31  5-MIN KSTC 262150Z AUTO 06021G31KT 1/2SM SN FZFG BKN006 BKN009 OVC015 M01/M02 A2995 1000 92 -600 060/21G31 RMK AO2 PK WND 06034/2126 SLP164 P0002 T10111022
14926KSTC STC20011126155515711/26/01 15:55:31  5-MIN KSTC 262155Z AUTO 06023G30KT 1/2SM SN FZFG BKN006 BKN009 OVC015 M01/M02 A2995 1000 92 -600 060/23G30 RMK AO2 PK WND 07030/2155 P0001
14926KSTC STC20011126160015711/26/01 16:00:31  5-MIN KSTC 262200Z AUTO 07023G30KT 1/2SM SN FZFG BKN006 BKN009 OVC015 M01/M02 A2995 1000 92 -600 060/23G30 RMK AO2 PK WND 06030/2200 P0001
14926KSTC STC20011126160515011/26/01 16:05:31  5-MIN KSTC 262205Z AUTO 07020G30KT 1/2SM SN FZFG BKN006 OVC016 M01/M02 A2995 1000 92 -600 060/20G30 RMK AO2 PK WND 06030/2200 P0001
14926KSTC STC20011126161014911/26/01 16:10:31  5-MIN KSTC 262210Z AUTO 06019G29KT 3/4SM -SN BR BKN006 OVC012 M01/M02 A2995 1000 92 -600 060/19G29 RMK AO2 PK WND 06030/2200 P0001
14926KSTC STC20011126161515011/26/01 16:15:31  5-MIN KSTC 262215Z AUTO 07023G32KT 1/2SM SN FZFG BKN006 OVC012 M01/M02 A2995 1000 92 -600 060/23G32 RMK AO2 PK WND 06032/2215 P0001
14926KSTC STC20011126162015011/26/01 16:20:31  5-MIN KSTC 262220Z AUTO 06018G32KT 1/2SM SN FZFG BKN006 OVC012 M01/M02 A2995 1000 92 -600 060/18G32 RMK AO2 PK WND 06032/2215 P0001
14926KSTC STC20011126162515011/26/01 16:25:31  5-MIN KSTC 262225Z AUTO 07017G32KT 1/2SM SN FZFG BKN006 OVC014 M02/M02 A2995 1000 96 -700 060/17G32 RMK AO2 PK WND 06032/2222 P0001
14926KSTC STC20011126163015011/26/01 16:30:31  5-MIN KSTC 262230Z AUTO 06020G32KT 1/2SM SN FZFG BKN006 OVC012 M02/M02 A2995 1000 96 -700 060/20G32 RMK AO2 PK WND 06032/2222 P0002
14926KSTC STC20011126163514911/26/01 16:35:31  5-MIN KSTC 262235Z AUTO 06021G30KT 3/4SM -SN BR BKN006 OVC012 M02/M02 A2995 1000 96 -700 060/21G30 RMK AO2 PK WND 06032/2222 P0002
14926KSTC STC20011126164014911/26/01 16:40:31  5-MIN KSTC 262240Z AUTO 07019G30KT 3/4SM -SN BR BKN006 OVC012 M02/M02 A2995 1000 96 -700 060/19G30 RMK AO2 PK WND 06032/2222 P0002
14926KSTC STC20011126164514911/26/01 16:45:31  5-MIN KSTC 262245Z AUTO 07022G30KT 3/4SM -SN BR BKN004 OVC012 M02/M02 A2994 1000 96 -700 060/22G30 RMK AO2 PK WND 06032/2222 P0003
14926KSTC STC20011126165016611/26/01 16:50:31  5-MIN KSTC 262250Z AUTO 06018G30KT 3/4SM -SN BR BKN004 OVC012 M02/M02 A2994 1010 96 -700 060/18G30 RMK AO2 PK WND 06032/2222 SLP160 P0003 T10171022
14926KSTC STC20011126165514911/26/01 16:55:31  5-MIN KSTC 262255Z AUTO 06021G29KT 3/4SM -SN BR BKN004 OVC012 M02/M02 A2993 1010 96 -700 060/21G29 RMK AO2 PK WND 07027/2254 P0000
14926KSTC STC20011126170014911/26/01 17:00:31  5-MIN KSTC 262300Z AUTO 06019G30KT 3/4SM -SN BR BKN004 OVC010 M02/M02 A2993 1020 96 -700 060/19G30 RMK AO2 PK WND 07030/2258 P0001
14926KSTC STC20011126170514911/26/01 17:05:31  5-MIN KSTC 262305Z AUTO 06023G32KT 3/4SM -SN BR BKN004 OVC010 M02/M02 A2993 1020 96 -700 060/23G32 RMK AO2 PK WND 06032/2303 P0001
14926KSTC STC20011126171014911/26/01 17:10:31  5-MIN KSTC 262310Z AUTO 06017G32KT 3/4SM -SN BR BKN004 OVC010 M02/M02 A2992 1020 96 -700 060/17G32 RMK AO2 PK WND 06032/2303 P0001
14926KSTC STC20011126171514911/26/01 17:15:31  5-MIN KSTC 262315Z AUTO 07023G28KT 3/4SM -SN BR BKN004 OVC010 M02/M02 A2993 1020 96 -700 060/23G28 RMK AO2 PK WND 06032/2303 P0002
14926KSTC STC20011126172014911/26/01 17:20:31  5-MIN KSTC 262320Z AUTO 07022G31KT 3/4SM -SN BR BKN004 OVC010 M02/M02 A2993 1020 96 -700 060/22G31 RMK AO2 PK WND 06032/2303 P0002
14926KSTC STC20011126172515011/26/01 17:25:31  5-MIN KSTC 262325Z AUTO 06019G31KT 1/2SM SN FZFG BKN004 OVC010 M02/M02 A2993 1020 96 -700 060/19G31 RMK AO2 PK WND 06032/2303 P0002
14926KSTC STC20011126173015011/26/01 17:30:31  5-MIN KSTC 262330Z AUTO 07021G28KT 1/2SM SN FZFG BKN004 OVC010 M02/M02 A2993 1020 96 -700 070/21G28 RMK AO2 PK WND 06032/2303 P0003
14926KSTC STC20011126173515011/26/01 17:35:31  5-MIN KSTC 262335Z AUTO 07021G30KT 1/2SM SN FZFG BKN004 OVC010 M02/M02 A2993 1020 96 -700 060/21G30 RMK AO2 PK WND 06032/2303 P0003
14926KSTC STC20011126174015011/26/01 17:40:31  5-MIN KSTC 262340Z AUTO 06020G30KT 1/2SM SN FZFG BKN004 OVC008 M02/M02 A2992 1020 96 -700 060/20G30 RMK AO2 PK WND 06032/2303 P0003
14926KSTC STC20011126174515011/26/01 17:45:31  5-MIN KSTC 262345Z AUTO 06021G35KT 1/2SM SN FZFG BKN004 OVC008 M02/M02 A2992 1020 96 -700 060/21G35 RMK AO2 PK WND 06035/2342 P0004
14926KSTC STC20011126175018311/26/01 17:50:31  5-MIN KSTC 262350Z AUTO 06022G35KT 1/2SM SN FZFG VV003 M02/M02 A2992 1020 96 -700 060/22G35 RMK AO2 PK WND 06035/2342 SLP154 P0004 60018 T10171022 11011 21017 56032
14926KSTC STC20011126175512411/26/01 17:55:31  5-MIN KSTC 262355Z AUTO 06019G27KT 1/2SM SN FZFG VV002 M02/M02 A2992 1020 96 -700 060/19G27 RMK AO2 P0000
14926KSTC STC20011126180013211/26/01 18:00:31  5-MIN KSTC 270000Z AUTO 06018G25KT 1/2SM SN FZFG BKN002 OVC007 M02/M02 A2992 1030 96 -700 060/18G25 RMK AO2 P0000
14926KSTC STC20011126180515011/26/01 18:05:31  5-MIN KSTC 270005Z AUTO 06021G28KT 1/2SM SN FZFG BKN002 OVC009 M02/M02 A2992 1030 96 -700 060/21G28 RMK AO2 PK WND 05028/0001 P0001
14926KSTC STC20011126181015011/26/01 18:10:31  5-MIN KSTC 270010Z AUTO 07020G28KT 1/2SM SN FZFG BKN002 OVC009 M02/M02 A2992 1030 96 -700 060/20G28 RMK AO2 PK WND 05028/0001 P0001
14926KSTC STC20011126181515011/26/01 18:15:31  5-MIN KSTC 270015Z AUTO 06020G31KT 1/2SM SN FZFG BKN002 OVC009 M02/M02 A2992 1030 96 -700 060/20G31 RMK AO2 PK WND 06031/0014 P0002
14926KSTC STC20011126182015011/26/01 18:20:31  5-MIN KSTC 270020Z AUTO 06019G31KT 1/2SM SN FZFG BKN002 OVC009 M02/M02 A2992 1030 96 -700 060/19G31 RMK AO2 PK WND 06031/0014 P0002
14926KSTC STC20011126182515011/26/01 18:25:31  5-MIN KSTC 270025Z AUTO 07021G32KT 1/2SM SN FZFG BKN002 OVC009 M02/M02 A2992 1030 96 -700 060/21G32 RMK AO2 PK WND 06032/0023 P0003
14926KSTC STC20011126183015011/26/01 18:30:31  5-MIN KSTC 270030Z AUTO 06020G32KT 1/2SM SN FZFG BKN002 OVC009 M02/M02 A2991 1030 96 -700 060/20G32 RMK AO2 PK WND 06032/0023 P0003
14926KSTC STC20011126183515011/26/01 18:35:31  5-MIN KSTC 270035Z AUTO 07024G31KT 1/2SM SN FZFG BKN002 OVC009 M02/M02 A2991 1030 96 -700 060/24G31 RMK AO2 PK WND 06032/0023 P0004
14926KSTC STC20011126184015011/26/01 18:40:31  5-MIN KSTC 270040Z AUTO 06021G31KT 1/2SM SN FZFG BKN002 OVC009 M02/M02 A2991 1030 96 -700 060/21G31 RMK AO2 PK WND 06032/0023 P0004
14926KSTC STC20011126184515011/26/01 18:45:31  5-MIN KSTC 270045Z AUTO 06020G31KT 1/2SM SN FZFG BKN002 OVC009 M02/M02 A2991 1030 96 -700 060/20G31 RMK AO2 PK WND 06032/0023 P0004
14926KSTC STC20011126185016611/26/01 18:50:31  5-MIN KSTC 270050Z AUTO 06020G29KT 3/4SM -SN BR BKN002 OVC009 M02/M02 A2991 1040 96 -700 060/20G29 RMK AO2 PK WND 06032/0023 SLP150 P0005 T10171022
14926KSTC STC20011126185514911/26/01 18:55:31  5-MIN KSTC 270055Z AUTO 07022G28KT 3/4SM -SN BR BKN004 OVC009 M02/M03 A2991 1040 92 -700 070/22G28 RMK AO2 PK WND 08027/0054 P0000
14926KSTC STC20011126190014911/26/01 19:00:31  5-MIN KSTC 270100Z AUTO 06021G28KT 3/4SM -SN BR BKN004 OVC009 M02/M02 A2991 1040 96 -700 060/21G28 RMK AO2 PK WND 06028/0056 P0000
14926KSTC STC20011126190514911/26/01 19:05:31  5-MIN KSTC 270105Z AUTO 07021G28KT 3/4SM -SN BR BKN004 OVC009 M02/M02 A2991 1040 96 -700 070/21G28 RMK AO2 PK WND 06028/0104 P0001
14926KSTC STC20011126191014211/26/01 19:10:31  5-MIN KSTC 270110Z AUTO 07021G31KT 1/2SM SN FZFG VV003 M02/M02 A2990 1040 96 -700 060/21G31 RMK AO2 PK WND 06031/0110 P0001
14926KSTC STC20011126191514211/26/01 19:15:31  5-MIN KSTC 270115Z AUTO 06021G31KT 1/2SM SN FZFG VV003 M02/M02 A2990 1040 96 -700 050/21G31 RMK AO2 PK WND 06031/0110 P0002
14926KSTC STC20011126192014211/26/01 19:20:31  5-MIN KSTC 270120Z AUTO 06022G30KT 1/2SM SN FZFG VV003 M02/M02 A2990 1050 96 -700 060/22G30 RMK AO2 PK WND 06031/0110 P0002
14926KSTC STC20011126192514211/26/01 19:25:31  5-MIN KSTC 270125Z AUTO 07019G30KT 1/2SM SN FZFG VV003 M02/M02 A2990 1040 96 -700 060/19G30 RMK AO2 PK WND 06031/0110 P0003
14926KSTC STC20011126193014211/26/01 19:30:31  5-MIN KSTC 270130Z AUTO 07019G32KT 1/2SM SN FZFG VV003 M02/M02 A2990 1040 96 -700 060/19G32 RMK AO2 PK WND 06032/0126 P0003
14926KSTC STC20011126193514211/26/01 19:35:31  5-MIN KSTC 270135Z AUTO 07023G32KT 1/2SM SN FZFG VV003 M02/M02 A2990 1040 96 -700 070/23G32 RMK AO2 PK WND 06032/0126 P0004
14926KSTC STC20011126194014211/26/01 19:40:31  5-MIN KSTC 270140Z AUTO 06022G29KT 1/2SM SN FZFG VV003 M02/M02 A2990 1040 96 -700 060/22G29 RMK AO2 PK WND 06032/0126 P0004
14926KSTC STC20011126194514211/26/01 19:45:31  5-MIN KSTC 270145Z AUTO 07020G30KT 1/2SM SN FZFG VV002 M02/M02 A2990 1040 96 -700 060/20G30 RMK AO2 PK WND 06032/0126 P0005
14926KSTC STC20011126195015911/26/01 19:50:31  5-MIN KSTC 270150Z AUTO 07025G32KT 1/2SM SN FZFG VV002 M02/M02 A2990 1040 96 -700 060/25G32 RMK AO2 PK WND 07032/0149 SLP147 P0005 T10171022
14926KSTC STC20011126195514211/26/01 19:55:31  5-MIN KSTC 270155Z AUTO 07020G32KT 1/2SM SN FZFG VV002 M02/M02 A2990 1040 96 -700 060/20G32 RMK AO2 PK WND 06026/0155 P0000
14926KSTC STC20011126200014211/26/01 20:00:31  5-MIN KSTC 270200Z AUTO 07021G28KT 1/2SM SN FZFG VV002 M02/M02 A2990 1040 96 -700 060/21G28 RMK AO2 PK WND 07028/0157 P0000
14926KSTC STC20011126200514211/26/01 20:05:31  5-MIN KSTC 270205Z AUTO 07019G28KT 1/2SM SN FZFG VV002 M02/M02 A2990 1040 96 -700 060/19G28 RMK AO2 PK WND 06028/0203 P0001
14926KSTC STC20011126201014211/26/01 20:10:31  5-MIN KSTC 270210Z AUTO 07018G28KT 1/2SM SN FZFG VV002 M02/M02 A2990 1040 96 -700 060/18G28 RMK AO2 PK WND 06028/0203 P0002
14926KSTC STC20011126201514311/26/01 20:15:31  5-MIN KSTC 270215Z AUTO 06016G26KT 1/2SM SN FZFG OVC001 M02/M02 A2990 1040 96 -700 060/16G26 RMK AO2 PK WND 06028/0203 P0002
14926KSTC STC20011126202014211/26/01 20:20:31  5-MIN KSTC 270220Z AUTO 06017G28KT 1/2SM SN FZFG VV002 M02/M02 A2990 1040 96 -700 060/17G28 RMK AO2 PK WND 05028/0217 P0003
14926KSTC STC20011126202514211/26/01 20:25:31  5-MIN KSTC 270225Z AUTO 06021G29KT 1/2SM SN FZFG VV002 M02/M02 A2990 1040 96 -700 060/21G29 RMK AO2 PK WND 05029/0225 P0003
14926KSTC STC20011126203014211/26/01 20:30:31  5-MIN KSTC 270230Z AUTO 07020G29KT 1/2SM SN FZFG VV002 M02/M02 A2990 1040 96 -700 060/20G29 RMK AO2 PK WND 05029/0225 P0004
14926KSTC STC20011126203514211/26/01 20:35:31  5-MIN KSTC 270235Z AUTO 06018G27KT 1/2SM SN FZFG VV002 M02/M02 A2990 1040 96 -700 060/18G27 RMK AO2 PK WND 05029/0225 P0004
14926KSTC STC20011126204015011/26/01 20:40:31  5-MIN KSTC 270240Z AUTO 06018G26KT 1/2SM SN FZFG BKN002 OVC006 M02/M02 A2990 1040 96 -700 060/18G26 RMK AO2 PK WND 05029/0225 P0005
14926KSTC STC20011126204515111/26/01 20:45:31  5-MIN KSTC 270245Z AUTO 07018G25KT 1/4SM +SN FZFG BKN002 OVC008 M02/M02 A2991 1040 96 -700 060/18G25 RMK AO2 PK WND 05029/0225 P0006
14926KSTC STC20011126205018011/26/01 20:50:31  5-MIN KSTC 270250Z AUTO 06019G25KT 1/4SM +SN FZFG BKN002 OVC008 M02/M02 A2990 1040 96 -700 060/19G25 RMK AO2 PK WND 05029/0225 SLP148 P0007 60018 T10171022 56014
14926KSTC STC20011126205513311/26/01 20:55:31  5-MIN KSTC 270255Z AUTO 06017G23KT 1/4SM +SN FZFG SCT002 OVC008 M02/M02 A2990 1040 96 -700 060/17G23 RMK AO2 P0001
14926KSTC STC20011126210013411/26/01 21:00:31  5-MIN KSTC 270300Z AUTO 06017G22KT 1/4SM +SN FZFG FEW002 OVC008 M02/M02 A2991 1040 100 -700 060/17G22 RMK AO2 P0002
14926KSTC STC20011126210513411/26/01 21:05:31  5-MIN KSTC 270305Z AUTO 06017G23KT 1/4SM +SN FZFG FEW002 OVC008 M02/M02 A2991 1040 100 -700 060/17G23 RMK AO2 P0002
14926KSTC STC20011126211013311/26/01 21:10:31  5-MIN KSTC 270310Z AUTO 06017G25KT 1/4SM +SN FZFG SCT002 OVC008 M02/M02 A2990 1040 96 -700 060/17G25 RMK AO2 P0003
14926KSTC STC20011126211513311/26/01 21:15:31  5-MIN KSTC 270315Z AUTO 06018G25KT 1/4SM +SN FZFG SCT002 OVC008 M02/M02 A2991 1040 96 -700 050/18G25 RMK AO2 P0004
14926KSTC STC20011126212015111/26/01 21:20:31  5-MIN KSTC 270320Z AUTO 06018G27KT 1/4SM +SN FZFG FEW002 OVC008 M02/M02 A2991 1040 96 -700 060/18G27 RMK AO2 PK WND 06027/0318 P0005
14926KSTC STC20011126212515111/26/01 21:25:31  5-MIN KSTC 270325Z AUTO 06017G27KT 1/4SM +SN FZFG SCT002 OVC008 M02/M02 A2991 1040 96 -700 050/17G27 RMK AO2 PK WND 06027/0318 P0006
14926KSTC STC20011126213015111/26/01 21:30:31  5-MIN KSTC 270330Z AUTO 06020G25KT 1/4SM +SN FZFG BKN002 OVC008 M02/M02 A2991 1040 96 -700 060/20G25 RMK AO2 PK WND 06027/0318 P0007
14926KSTC STC20011126213515111/26/01 21:35:31  5-MIN KSTC 270335Z AUTO 06017G25KT 1/4SM +SN FZFG BKN002 OVC008 M02/M02 A2990 1040 96 -700 060/17G25 RMK AO2 PK WND 06027/0318 P0007
14926KSTC STC20011126214015111/26/01 21:40:31  5-MIN KSTC 270340Z AUTO 06017G25KT 1/4SM +SN FZFG BKN002 OVC008 M02/M02 A2990 1040 96 -700 060/17G25 RMK AO2 PK WND 06027/0318 P0008
14926KSTC STC20011126214515111/26/01 21:45:31  5-MIN KSTC 270345Z AUTO 06017G25KT 1/4SM +SN FZFG BKN002 OVC008 M02/M02 A2990 1040 96 -700 060/17G25 RMK AO2 PK WND 06027/0318 P0009
14926KSTC STC20011126215016711/26/01 21:50:31  5-MIN KSTC 270350Z AUTO 07017G27KT 1/2SM SN FZFG BKN002 OVC008 M02/M02 A2991 1040 96 -700 060/17G27 RMK AO2 PK WND 05027/0347 SLP148 P0010 T10171022
14926KSTC STC20011126215513211/26/01 21:55:31  5-MIN KSTC 270355Z AUTO 07016G27KT 1/2SM SN FZFG BKN002 OVC010 M02/M02 A2991 1040 96 -700 070/16G27 RMK AO2 P0000
14926KSTC STC20011126220013211/26/01 22:00:31  5-MIN KSTC 270400Z AUTO 06015G23KT 1/2SM SN FZFG BKN002 OVC010 M02/M02 A2991 1040 96 -700 060/15G23 RMK AO2 P0001
14926KSTC STC20011126220515011/26/01 22:05:31  5-MIN KSTC 270405Z AUTO 06017G26KT 1/2SM SN FZFG BKN002 OVC010 M02/M02 A2990 1040 96 -700 060/17G26 RMK AO2 PK WND 09026/0402 P0001
14926KSTC STC20011126221015011/26/01 22:10:31  5-MIN KSTC 270410Z AUTO 06013G26KT 1/2SM SN FZFG BKN002 OVC007 M02/M02 A2990 1040 96 -700 060/13G26 RMK AO2 PK WND 06026/0407 P0002
14926KSTC STC20011126221515011/26/01 22:15:31  5-MIN KSTC 270415Z AUTO 06014G26KT 1/2SM SN FZFG BKN002 OVC007 M02/M02 A2990 1040 96 -700 050/14G26 RMK AO2 PK WND 06026/0407 P0002
14926KSTC STC20011126222014311/26/01 22:20:31  5-MIN KSTC 270420Z AUTO 05016G23KT 1/2SM SN FZFG OVC002 M02/M02 A2990 1040 96 -700 050/16G23 RMK AO2 PK WND 06026/0407 P0003
14926KSTC STC20011126222515011/26/01 22:25:31  5-MIN KSTC 270425Z AUTO 05012G22KT 1/2SM SN FZFG BKN002 OVC008 M02/M02 A2990 1040 96 -700 050/12G22 RMK AO2 PK WND 06026/0407 P0003
14926KSTC STC20011126223015011/26/01 22:30:31  5-MIN KSTC 270430Z AUTO 06013G21KT 1/2SM SN FZFG BKN002 OVC008 M02/M02 A2990 1040 96 -700 060/13G21 RMK AO2 PK WND 06026/0407 P0004
14926KSTC STC20011126223515611/26/01 22:35:31  5-MIN KSTC 270435Z AUTO 05012G19KT 3/4SM -SN BR BKN002 BKN008 OVC012 M02/M02 A2990 1050 96 -700 050/12G19 RMK AO2 PK WND 06026/0407 P0004
14926KSTC STC20011126224014911/26/01 22:40:31  5-MIN KSTC 270440Z AUTO 06015G22KT 3/4SM -SN BR BKN002 OVC008 M02/M03 A2990 1050 92 -600 050/15G22 RMK AO2 PK WND 06026/0407 P0004
14926KSTC STC20011126224514911/26/01 22:45:31  5-MIN KSTC 270445Z AUTO 06016G22KT 3/4SM -SN BR BKN002 OVC008 M02/M02 A2989 1050 96 -600 060/16G22 RMK AO2 PK WND 06026/0407 P0005
14926KSTC STC20011126225016611/26/01 22:50:31  5-MIN KSTC 270450Z AUTO 06013G21KT 3/4SM -SN BR BKN002 OVC008 M02/M02 A2989 1050 96 -600 050/13G21 RMK AO2 PK WND 06026/0407 SLP144 P0005 T10171022
14926KSTC STC20011126225514911/26/01 22:55:31  5-MIN KSTC 270455Z AUTO 05016G28KT 3/4SM -SN BR BKN002 OVC010 M02/M02 A2989 1050 96 -600 050/16G28 RMK AO2 PK WND 06028/0454 P0000
14926KSTC STC20011126230014911/26/01 23:00:31  5-MIN KSTC 270500Z AUTO 05015G28KT 3/4SM -SN BR BKN002 OVC010 M02/M02 A2989 1060 96 -600 050/15G28 RMK AO2 PK WND 06028/0454 P0001
14926KSTC STC20011126230514711/26/01 23:05:31  5-MIN KSTC 270505Z AUTO 05014G21KT 1SM -SN BR BKN002 OVC010 M02/M02 A2989 1060 96 -600 040/14G21 RMK AO2 PK WND 06028/0454 P0001
14926KSTC STC20011126231014711/26/01 23:10:31  5-MIN KSTC 270510Z AUTO 05016G22KT 1SM -SN BR BKN004 OVC010 M02/M03 A2988 1060 92 -600 050/16G22 RMK AO2 PK WND 06028/0454 P0001
14926KSTC STC20011126231515611/26/01 23:15:31  5-MIN KSTC 270515Z AUTO 05016G24KT 3/4SM -SN BR BKN004 BKN010 OVC014 M02/M02 A2989 1060 96 -600 050/16G24 RMK AO2 PK WND 06028/0454 P0001
14926KSTC STC20011126232015611/26/01 23:20:31  5-MIN KSTC 270520Z AUTO 05014G24KT 3/4SM -SN BR SCT004 BKN010 OVC014 M02/M02 A2989 1060 96 -600 050/14G24 RMK AO2 PK WND 06028/0454 P0002
14926KSTC STC20011126232515411/26/01 23:25:31  5-MIN KSTC 270525Z AUTO 06014G20KT 1SM -SN BR SCT004 BKN010 OVC014 M02/M03 A2989 1060 92 -600 050/14G20 RMK AO2 PK WND 06028/0454 P0002
14926KSTC STC20011126233015811/26/01 23:30:31  5-MIN KSTC 270530Z AUTO 06014G20KT 1 1/4SM -SN BR SCT004 BKN010 OVC016 M02/M03 A2989 1060 92 -600 050/14G20 RMK AO2 PK WND 06028/0454 P0002
14926KSTC STC20011126233515811/26/01 23:35:31  5-MIN KSTC 270535Z AUTO 07013G21KT 1 1/2SM -SN BR SCT004 BKN012 OVC017 M02/M03 A2989 1050 92 -600 060/13G21 RMK AO2 PK WND 06028/0454 P0002
14926KSTC STC20011126234015111/26/01 23:40:31  5-MIN KSTC 270540Z AUTO 07015G21KT 1 1/2SM -SN BR FEW004 OVC012 M02/M03 A2989 1050 92 -600 070/15G21 RMK AO2 PK WND 06028/0454 P0003
14926KSTC STC20011126234515111/26/01 23:45:31  5-MIN KSTC 270545Z AUTO 06015G19KT 1 3/4SM -SN BR BKN010 OVC015 M02/M03 A2989 1050 92 -600 060/15G19 RMK AO2 PK WND 06028/0454 P0003
14926KSTC STC20011126235020211/26/01 23:50:31  5-MIN KSTC 270550Z AUTO 07016G21KT 1 3/4SM -SN BR BKN010 OVC015 M02/M03 A2989 1060 92 -600 060/16G21 RMK AO2 PK WND 06028/0454 SLP143 P0003 60036 T10171028 11017 21017 410111017 55006
14926KSTC STC20011126235513311/26/01 23:55:31  5-MIN KSTC 270555Z AUTO 06013G21KT 1 3/4SM -SN BR BKN010 OVC015 M02/M03 A2989 1060 92 -600 050/13G21 RMK AO2 P0000
14926KSTC STC20011127000013311/27/01 00:00:31  5-MIN KSTC 270600Z AUTO 06014G19KT 1 1/2SM -SN BR BKN008 OVC014 M02/M03 A2988 1060 92 -600 060/14G19 RMK AO2 P0001
14926KSTC STC20011127000513311/27/01 00:05:31  5-MIN KSTC 270605Z AUTO 05016G23KT 1 1/2SM -SN BR BKN008 OVC012 M02/M03 A2988 1060 92 -600 050/16G23 RMK AO2 P0001
14926KSTC STC20011127001014011/27/01 00:10:31  5-MIN KSTC 270610Z AUTO 06012G23KT 1 1/4SM -SN BR SCT006 BKN010 OVC016 M02/M03 A2988 1070 92 -600 060/12G23 RMK AO2 P0001
14926KSTC STC20011127001514011/27/01 00:15:31  5-MIN KSTC 270615Z AUTO 06015G21KT 1 1/2SM -SN BR SCT006 BKN010 OVC016 M02/M03 A2988 1070 92 -600 060/15G21 RMK AO2 P0001
14926KSTC STC20011127002013311/27/01 00:20:31  5-MIN KSTC 270620Z AUTO 06013G21KT 1 1/2SM -SN BR BKN006 OVC014 M02/M03 A2988 1070 92 -600 050/13G21 RMK AO2 P0001
14926KSTC STC20011127002513311/27/01 00:25:31  5-MIN KSTC 270625Z AUTO 05016G21KT 1 1/2SM -SN BR BKN008 OVC014 M02/M03 A2987 1070 92 -600 050/16G21 RMK AO2 P0001
14926KSTC STC20011127003014011/27/01 00:30:31  5-MIN KSTC 270630Z AUTO 05011G21KT 1 3/4SM -SN BR SCT008 BKN012 OVC019 M02/M03 A2987 1070 92 -600 050/11G21 RMK AO2 P0001
14926KSTC STC20011127003513611/27/01 00:35:31  5-MIN KSTC 270635Z AUTO 05013G21KT 2SM -SN BR BKN010 BKN017 OVC022 M02/M03 A2987 1070 92 -600 050/13G21 RMK AO2 P0001
14926KSTC STC20011127004013311/27/01 00:40:31  5-MIN KSTC 270640Z AUTO 05012G19KT 2 1/2SM -SN BR BKN010 OVC017 M02/M03 A2987 1070 92 -600 050/12G19 RMK AO2 P0001
14926KSTC STC20011127004514011/27/01 00:45:31  5-MIN KSTC 270645Z AUTO 05011G19KT 2 1/2SM -SN BR BKN010 BKN018 OVC024 M02/M03 A2987 1080 92 -600 050/11G19 RMK AO2 P0001
14926KSTC STC20011127005014611/27/01 00:50:31  5-MIN KSTC 270650Z AUTO 05013G22KT 3SM -SN BR BKN012 OVC020 M02/M03 A2986 1080 92 -600 050/13G22 RMK AO2 SLP134 P0001 T10171028
14926KSTC STC20011127005512911/27/01 00:55:31  5-MIN KSTC 270655Z AUTO 05012G22KT 4SM -SN BR BKN012 OVC017 M02/M03 A2986 1080 92 -600 050/12G22 RMK AO2 P0000
14926KSTC STC20011127010012911/27/01 01:00:31  5-MIN KSTC 270700Z AUTO 05012G22KT 5SM -SN BR BKN012 OVC022 M02/M03 A2986 1080 92 -600 050/12G22 RMK AO2 P0000
14926KSTC STC20011127010513811/27/01 01:05:31  5-MIN KSTC 270705Z AUTO 06012G22KT 6SM BR BKN012 BKN020 OVC025 M02/M03 A2986 1080 92 -600 050/12G22 RMK AO2 SNE05 P0000
14926KSTC STC20011127011013511/27/01 01:10:31  5-MIN KSTC 270710Z AUTO 05017G23KT 8SM BKN012 BKN020 OVC025 M02/M03 A2986 1090 92 -600 050/17G23 RMK AO2 SNE05 P0000
14926KSTC STC20011127011513511/27/01 01:15:31  5-MIN KSTC 270715Z AUTO 06012G23KT 9SM BKN012 BKN018 OVC025 M02/M03 A2986 1090 92 -600 060/12G23 RMK AO2 SNE05 P0000
14926KSTC STC20011127012012811/27/01 01:20:31  5-MIN KSTC 270720Z AUTO 06016G23KT 9SM BKN014 OVC023 M02/M03 A2986 1090 92 -600 060/16G23 RMK AO2 SNE05 P0000
14926KSTC STC20011127012512811/27/01 01:25:31  5-MIN KSTC 270725Z AUTO 06016G23KT 9SM BKN014 OVC023 M02/M03 A2986 1080 92 -600 060/16G23 RMK AO2 SNE05 P0000
14926KSTC STC20011127013012811/27/01 01:30:31  5-MIN KSTC 270730Z AUTO 06016G23KT 9SM BKN014 OVC023 M01/M03 A2985 1090 88 -500 050/16G23 RMK AO2 SNE05 P0000
14926KSTC STC20011127013512811/27/01 01:35:31  5-MIN KSTC 270735Z AUTO 06016G24KT 8SM BKN014 OVC023 M01/M03 A2985 1090 88 -500 060/16G24 RMK AO2 SNE05 P0000
14926KSTC STC20011127014012811/27/01 01:40:31  5-MIN KSTC 270740Z AUTO 05017G24KT 9SM SCT014 OVC023 M01/M03 A2985 1090 88 -500 050/17G24 RMK AO2 SNE05 P0000
14926KSTC STC20011127014512811/27/01 01:45:31  5-MIN KSTC 270745Z AUTO 06014G22KT 8SM SCT014 OVC023 M01/M03 A2985 1090 88 -500 060/14G22 RMK AO2 SNE05 P0000
14926KSTC STC20011127015014511/27/01 01:50:31  5-MIN KSTC 270750Z AUTO 05015G23KT 8SM SCT014 OVC023 M01/M03 A2985 1090 88 -500 050/15G23 RMK AO2 SNE05 SLP130 P0000 T10111028
14926KSTC STC20011127015511611/27/01 01:55:31  5-MIN KSTC 270755Z AUTO 05016G23KT 9SM FEW014 OVC023 M01/M03 A2985 1090 88 -500 050/16G23 RMK AO2
14926KSTC STC20011127020011611/27/01 02:00:31  5-MIN KSTC 270800Z AUTO 05019G24KT 9SM FEW014 OVC025 M01/M03 A2985 1090 88 -500 040/19G24 RMK AO2
14926KSTC STC20011127020511711/27/01 02:05:31  5-MIN KSTC 270805Z AUTO 05015G24KT 10SM FEW014 OVC025 M01/M03 A2985 1090 88 -500 050/15G24 RMK AO2
14926KSTC STC20011127021011711/27/01 02:10:31  5-MIN KSTC 270810Z AUTO 05016G23KT 10SM FEW014 OVC025 M01/M03 A2985 1090 88 -500 050/16G23 RMK AO2
14926KSTC STC20011127021511011/27/01 02:15:31  5-MIN KSTC 270815Z AUTO 04017G25KT 10SM OVC025 M01/M03 A2985 1090 88 -500 040/17G25 RMK AO2
14926KSTC STC20011127022011711/27/01 02:20:31  5-MIN KSTC 270820Z AUTO 05017G25KT 10SM FEW014 OVC025 M01/M03 A2985 1090 88 -500 050/17G25 RMK AO2
14926KSTC STC20011127022511711/27/01 02:25:31  5-MIN KSTC 270825Z AUTO 06015G23KT 10SM FEW014 OVC025 M01/M03 A2985 1090 88 -500 050/15G23 RMK AO2
14926KSTC STC20011127023011011/27/01 02:30:31  5-MIN KSTC 270830Z AUTO 05014G23KT 10SM OVC025 M01/M03 A2985 1090 88 -500 040/14G23 RMK AO2
14926KSTC STC20011127023513511/27/01 02:35:31  5-MIN KSTC 270835Z AUTO 05019G26KT 10SM FEW015 OVC025 M01/M03 A2985 1090 88 -500 050/19G26 RMK AO2 PK WND 05026/0834
14926KSTC STC20011127024013511/27/01 02:40:31  5-MIN KSTC 270840Z AUTO 05016G26KT 10SM FEW015 OVC025 M01/M03 A2985 1100 88 -500 050/16G26 RMK AO2 PK WND 05026/0838
14926KSTC STC20011127024514211/27/01 02:45:31  5-MIN KSTC 270845Z AUTO 05018G30KT 9SM UP OVC025 M01/M03 A2985 1100 88 -500 050/18G30 RMK AO2 PK WND 06030/0842 UPB44 P0000
14926KSTC STC20011127025018711/27/01 02:50:31  5-MIN KSTC 270850Z AUTO 05019G30KT 8SM -SN FEW015 OVC025 M01/M03 A2985 1100 88 -500 050/19G30 RMK AO2 PK WND 05030/0848 UPB44E47SNB47 SLP128 P0000 60001 T10111028 58005
14926KSTC STC20011127025512611/27/01 02:55:31  5-MIN KSTC 270855Z AUTO 05018G30KT 7SM -SN SCT015 OVC027 M01/M03 A2984 1100 88 -500 050/18G30 RMK AO2 P0000
14926KSTC STC20011127030012911/27/01 03:00:31  5-MIN KSTC 270900Z AUTO 05019G24KT 5SM -SN BR SCT015 OVC027 M01/M03 A2984 1100 88 -500 050/19G24 RMK AO2 P0001
14926KSTC STC20011127030512911/27/01 03:05:31  5-MIN KSTC 270905Z AUTO 05016G24KT 3SM -SN BR SCT015 OVC029 M01/M03 A2984 1100 88 -500 040/16G24 RMK AO2 P0001
14926KSTC STC20011127031013311/27/01 03:10:31  5-MIN KSTC 270910Z AUTO 05019G25KT 2 1/2SM -SN BR BKN015 OVC029 M01/M03 A2984 1100 88 -500 040/19G25 RMK AO2 P0001
14926KSTC STC20011127031514711/27/01 03:15:31  5-MIN KSTC 270915Z AUTO 05017G26KT 3SM -SN BR BKN015 OVC029 M01/M03 A2984 1100 88 -500 050/17G26 RMK AO2 PK WND 05026/0914 P0001
14926KSTC STC20011127032014711/27/01 03:20:31  5-MIN KSTC 270920Z AUTO 05018G26KT 4SM -SN BR BKN017 OVC029 M01/M03 A2984 1100 88 -500 050/18G26 RMK AO2 PK WND 05026/0914 P0002
14926KSTC STC20011127032514711/27/01 03:25:31  5-MIN KSTC 270925Z AUTO 05015G24KT 5SM -SN BR BKN017 OVC029 M01/M03 A2984 1100 88 -500 040/15G24 RMK AO2 PK WND 05026/0914 P0002
14926KSTC STC20011127033014711/27/01 03:30:31  5-MIN KSTC 270930Z AUTO 05017G25KT 5SM -SN BR BKN017 OVC026 M01/M03 A2984 1100 88 -500 040/17G25 RMK AO2 PK WND 05026/0914 P0002
14926KSTC STC20011127033514011/27/01 03:35:31  5-MIN KSTC 270935Z AUTO 05015G26KT 5SM -SN BR OVC017 M01/M03 A2984 1100 88 -500 040/15G26 RMK AO2 PK WND 04026/0933 P0002
14926KSTC STC20011127034014711/27/01 03:40:31  5-MIN KSTC 270940Z AUTO 05016G26KT 5SM -SN BR BKN017 OVC033 M01/M03 A2984 1100 88 -500 040/16G26 RMK AO2 PK WND 04026/0933 P0002
14926KSTC STC20011127034514711/27/01 03:45:31  5-MIN KSTC 270945Z AUTO 05017G24KT 5SM -SN BR BKN017 OVC033 M01/M03 A2984 1100 88 -500 040/17G24 RMK AO2 PK WND 04026/0933 P0002
14926KSTC STC20011127035016411/27/01 03:50:31  5-MIN KSTC 270950Z AUTO 04021G24KT 3SM -SN BR BKN017 OVC030 M01/M03 A2984 1100 88 -500 040/21G24 RMK AO2 PK WND 04026/0933 SLP126 P0002 T10111028
14926KSTC STC20011127035512911/27/01 03:55:31  5-MIN KSTC 270955Z AUTO 05019G25KT 3SM -SN BR BKN015 OVC030 M01/M03 A2984 1100 88 -500 050/19G25 RMK AO2 P0000
14926KSTC STC20011127040014011/27/01 04:00:31  5-MIN KSTC 271000Z AUTO 05016G25KT 2 1/2SM -SN BR BKN015 BKN019 OVC030 M01/M03 A2984 1100 88 -500 050/16G25 RMK AO2 P0000
14926KSTC STC20011127040512911/27/01 04:05:31  5-MIN KSTC 271005Z AUTO 05016G24KT 2SM -SN BR BKN015 OVC038 M01/M02 A2984 1100 92 -500 040/16G24 RMK AO2 P0000
14926KSTC STC20011127041013311/27/01 04:10:31  5-MIN KSTC 271010Z AUTO 05017G25KT 1 3/4SM -SN BR BKN013 OVC018 M01/M02 A2984 1100 92 -500 040/17G25 RMK AO2 P0000
14926KSTC STC20011127041515111/27/01 04:15:31  5-MIN KSTC 271015Z AUTO 05020G26KT 1 1/2SM -SN BR BKN013 OVC018 M01/M02 A2984 1100 92 -500 040/20G26 RMK AO2 PK WND 01026/1013 P0000
14926KSTC STC20011127042014411/27/01 04:20:31  5-MIN KSTC 271020Z AUTO 04017G26KT 1 1/2SM -SN BR OVC015 M01/M02 A2984 1100 92 -500 040/17G26 RMK AO2 PK WND 01026/1013 P0000
14926KSTC STC20011127042515111/27/01 04:25:31  5-MIN KSTC 271025Z AUTO 04015G24KT 1 3/4SM -SN BR BKN012 OVC019 M01/M02 A2984 1100 92 -500 040/15G24 RMK AO2 PK WND 01026/1013 P0000
14926KSTC STC20011127043014711/27/01 04:30:31  5-MIN KSTC 271030Z AUTO 05017G25KT 2SM -SN BR BKN012 OVC019 M01/M02 A2984 1100 92 -500 040/17G25 RMK AO2 PK WND 01026/1013 P0000
14926KSTC STC20011127043514411/27/01 04:35:31  5-MIN KSTC 271035Z AUTO 05017G25KT 2 1/2SM -SN BR OVC014 M01/M02 A2984 1100 92 -500 040/17G25 RMK AO2 PK WND 01026/1013 P0000
14926KSTC STC20011127044015111/27/01 04:40:31  5-MIN KSTC 271040Z AUTO 04016G25KT 2 1/2SM -SN BR BKN014 OVC020 M01/M02 A2984 1100 92 -500 040/16G25 RMK AO2 PK WND 01026/1013 P0000
14926KSTC STC20011127044514711/27/01 04:45:31  5-MIN KSTC 271045Z AUTO 05017G25KT 2SM -SN BR BKN014 OVC019 M01/M03 A2984 1100 88 -500 040/17G25 RMK AO2 PK WND 01026/1013 P0000
14926KSTC STC20011127045016811/27/01 04:50:31  5-MIN KSTC 271050Z AUTO 04015G24KT 2 1/2SM -SN BR BKN014 OVC019 M01/M03 A2984 1100 88 -500 040/15G24 RMK AO2 PK WND 01026/1013 SLP126 P0000 T10111028
14926KSTC STC20011127045513311/27/01 04:55:31  5-MIN KSTC 271055Z AUTO 05016G25KT 2 1/2SM -SN BR BKN014 OVC019 M01/M03 A2984 1100 88 -500 040/16G25 RMK AO2 P0000
14926KSTC STC20011127050013311/27/01 05:00:31  5-MIN KSTC 271100Z AUTO 04017G25KT 2 1/2SM -SN BR BKN014 OVC019 M01/M02 A2984 1100 92 -500 040/17G25 RMK AO2 P0000
14926KSTC STC20011127050513311/27/01 05:05:31  5-MIN KSTC 271105Z AUTO 04018G24KT 2 1/2SM -SN BR BKN014 OVC021 M01/M02 A2984 1100 92 -500 040/18G24 RMK AO2 P0000
14926KSTC STC20011127051012911/27/01 05:10:31  5-MIN KSTC 271110Z AUTO 04018G25KT 2SM -SN BR BKN014 OVC021 M01/M02 A2984 1100 92 -500 040/18G25 RMK AO2 P0000
14926KSTC STC20011127051512911/27/01 05:15:31  5-MIN KSTC 271115Z AUTO 05014G25KT 2SM -SN BR BKN012 OVC018 M01/M02 A2984 1100 92 -500 040/14G25 RMK AO2 P0000
14926KSTC STC20011127052012611/27/01 05:20:31  5-MIN KSTC 271120Z AUTO 05016G22KT 2 1/2SM -SN BR OVC014 M01/M02 A2984 1100 92 -500 040/16G22 RMK AO2 P0000
14926KSTC STC20011127052512611/27/01 05:25:31  5-MIN KSTC 271125Z AUTO 05019G25KT 2 1/2SM -SN BR OVC014 M01/M02 A2984 1100 92 -500 040/19G25 RMK AO2 P0000
14926KSTC STC20011127053012611/27/01 05:30:31  5-MIN KSTC 271130Z AUTO 04019G25KT 2 1/2SM -SN BR OVC014 M01/M02 A2984 1100 92 -500 040/19G25 RMK AO2 P0001
14926KSTC STC20011127053512211/27/01 05:35:31  5-MIN KSTC 271135Z AUTO 05018G24KT 3SM -SN BR OVC014 M01/M02 A2984 1100 92 -500 040/18G24 RMK AO2 P0001
14926KSTC STC20011127054012611/27/01 05:40:31  5-MIN KSTC 271140Z AUTO 04017G24KT 2 1/2SM -SN BR OVC014 M01/M02 A2984 1100 92 -500 040/17G24 RMK AO2 P0001
14926KSTC STC20011127054512211/27/01 05:45:31  5-MIN KSTC 271145Z AUTO 05017G23KT 2SM -SN BR OVC014 M01/M02 A2984 1100 92 -500 050/17G23 RMK AO2 P0001
14926KSTC STC20011127055017311/27/01 05:50:31  5-MIN KSTC 271150Z AUTO 05017G23KT 1 3/4SM -SN BR OVC014 M01/M02 A2984 1100 92 -500 040/17G23 RMK AO2 SLP126 P0001 60004 70068 T10111022 11011 21017 56015
14926KSTC STC20011127055513311/27/01 05:55:31  5-MIN KSTC 271155Z AUTO 05017G22KT 1 1/4SM -SN BR BKN009 OVC016 M01/M02 A2984 1100 96 -500 050/17G22 RMK AO2 P0000
14926KSTC STC20011127060015111/27/01 06:00:31  5-MIN KSTC 271200Z AUTO 04019G26KT 1 1/4SM -SN BR BKN009 OVC016 M01/M02 A2984 1100 92 -500 040/19G26 RMK AO2 PK WND 05026/1159 P0000
14926KSTC STC20011127060515111/27/01 06:05:31  5-MIN KSTC 271205Z AUTO 05019G28KT 1 1/4SM -SN BR BKN007 OVC014 M01/M02 A2984 1100 92 -500 040/19G28 RMK AO2 PK WND 05028/1204 P0000
14926KSTC STC20011127061014711/27/01 06:10:31  5-MIN KSTC 271210Z AUTO 05015G28KT 1SM -SN BR BKN005 OVC013 M01/M02 A2984 1100 92 -500 050/15G28 RMK AO2 PK WND 05028/1204 P0000
14926KSTC STC20011127061514911/27/01 06:15:31  5-MIN KSTC 271215Z AUTO 04018G23KT 3/4SM -SN BR BKN005 OVC009 M01/M02 A2984 1100 92 -500 040/18G23 RMK AO2 PK WND 05028/1204 P0000
14926KSTC STC20011127062014911/27/01 06:20:31  5-MIN KSTC 271220Z AUTO 05017G24KT 3/4SM -SN BR BKN005 OVC009 M01/M02 A2984 1100 92 -500 050/17G24 RMK AO2 PK WND 05028/1204 P0000
14926KSTC STC20011127062514911/27/01 06:25:31  5-MIN KSTC 271225Z AUTO 05017G24KT 3/4SM -SN BR BKN005 OVC009 M01/M02 A2985 1090 92 -500 040/17G24 RMK AO2 PK WND 05028/1204 P0001
14926KSTC STC20011127063015011/27/01 06:30:31  5-MIN KSTC 271230Z AUTO 04015G21KT 1/2SM SN FZFG BKN003 OVC009 M01/M02 A2985 1090 92 -500 040/15G21 RMK AO2 PK WND 05028/1204 P0001
14926KSTC STC20011127063515011/27/01 06:35:31  5-MIN KSTC 271235Z AUTO 05017G23KT 1/2SM SN FZFG BKN003 OVC009 M01/M02 A2985 1090 96 -500 040/17G23 RMK AO2 PK WND 05028/1204 P0002
14926KSTC STC20011127064015611/27/01 06:40:31  5-MIN KSTC 271240Z AUTO 05017G23KT 3/4SM -SN BR BKN003 BKN009 OVC014 M01/M02 A2985 1090 92 -500 040/17G23 RMK AO2 PK WND 05028/1204 P0002
14926KSTC STC20011128160512711/28/01 16:05:31  5-MIN KSTC 282205Z AUTO 05005KT 1 1/2SM -SN BR BKN014 OVC043 M02/M03 A3024 730 96 -1100 040/05 RMK AO2 P0000
14926KSTC STC20011128161012011/28/01 16:10:31  5-MIN KSTC 282210Z AUTO 05005KT 1 3/4SM -SN BR OVC014 M02/M03 A3024 730 96 -1100 050/05 RMK AO2 P0000
14926KSTC STC20011128161512011/28/01 16:15:31  5-MIN KSTC 282215Z AUTO 06004KT 1 3/4SM -SN BR OVC014 M02/M03 A3023 740 96 -1100 060/04 RMK AO2 P0000
14926KSTC STC20011128162012011/28/01 16:20:31  5-MIN KSTC 282220Z AUTO 05004KT 1 3/4SM -SN BR OVC016 M02/M03 A3023 740 96 -1100 050/04 RMK AO2 P0000
14926KSTC STC20011128162512011/28/01 16:25:31  5-MIN KSTC 282225Z AUTO 06005KT 1 3/4SM -SN BR OVC016 M02/M03 A3023 740 96 -1100 060/05 RMK AO2 P0001
14926KSTC STC20011128163012011/28/01 16:30:31  5-MIN KSTC 282230Z AUTO 06004KT 1 1/2SM -SN BR OVC016 M02/M03 A3023 740 96 -1100 060/04 RMK AO2 P0001
14926KSTC STC20011128163512011/28/01 16:35:31  5-MIN KSTC 282235Z AUTO 07004KT 1 3/4SM -SN BR OVC016 M02/M03 A3023 740 96 -1100 070/04 RMK AO2 P0001
14926KSTC STC20011128164012011/28/01 16:40:31  5-MIN KSTC 282240Z AUTO 07004KT 1 3/4SM -SN BR OVC016 M02/M03 A3024 740 96 -1100 060/04 RMK AO2 P0001
14926KSTC STC20011128164512011/28/01 16:45:31  5-MIN KSTC 282245Z AUTO 06004KT 1 3/4SM -SN BR OVC016 M02/M03 A3023 740 96 -1100 050/04 RMK AO2 P0001
14926KSTC STC20011128165013711/28/01 16:50:31  5-MIN KSTC 282250Z AUTO 07004KT 2 1/2SM -SN BR OVC016 M02/M03 A3023 740 96 -1100 060/04 RMK AO2 SLP260 P0001 T10221028
14926KSTC STC20011128165512311/28/01 16:55:31  5-MIN KSTC 282255Z AUTO 07005KT 3SM -SN BR BKN016 OVC028 M02/M03 A3023 740 96 -1100 070/05 RMK AO2 P0000
14926KSTC STC20011128170012311/28/01 17:00:31  5-MIN KSTC 282300Z AUTO 07004KT 3SM -SN BR BKN016 OVC028 M02/M03 A3023 740 96 -1100 070/04 RMK AO2 P0000
14926KSTC STC20011128170512311/28/01 17:05:31  5-MIN KSTC 282305Z AUTO 06003KT 3SM -SN BR BKN016 OVC028 M02/M03 A3023 740 96 -1100 060/03 RMK AO2 P0000
14926KSTC STC20011128171012311/28/01 17:10:31  5-MIN KSTC 282310Z AUTO 00000KT 3SM -SN BR SCT016 OVC028 M02/M03 A3023 740 96 -1100 000/00 RMK AO2 P0000
14926KSTC STC20011128171512711/28/01 17:15:31  5-MIN KSTC 282315Z AUTO 05003KT 2 1/2SM -SN BR FEW016 OVC028 M02/M03 A3023 740 96 -1100 040/03 RMK AO2 P0000
14926KSTC STC20011128172012311/28/01 17:20:31  5-MIN KSTC 282320Z AUTO 04003KT 3SM -SN BR FEW018 OVC026 M02/M03 A3023 740 96 -1100 030/03 RMK AO2 P0000
14926KSTC STC20011128172512711/28/01 17:25:31  5-MIN KSTC 282325Z AUTO 00000KT 2 1/2SM -SN BR FEW018 OVC026 M02/M03 A3023 740 96 -1100 000/00 RMK AO2 P0000
14926KSTC STC20011128173012011/28/01 17:30:31  5-MIN KSTC 282330Z AUTO 02003KT 2 1/2SM -SN BR OVC026 M02/M03 A3023 740 96 -1100 010/03 RMK AO2 P0000
14926KSTC STC20011128173512711/28/01 17:35:31  5-MIN KSTC 282335Z AUTO 06004KT 2 1/2SM -SN BR FEW021 OVC026 M02/M03 A3023 740 96 -1100 060/04 RMK AO2 P0000
14926KSTC STC20011128174012711/28/01 17:40:31  5-MIN KSTC 282340Z AUTO 06005KT 2 1/2SM -SN BR FEW011 OVC024 M02/M03 A3023 740 96 -1100 060/05 RMK AO2 P0000
14926KSTC STC20011128174512311/28/01 17:45:31  5-MIN KSTC 282345Z AUTO 05004KT 2SM -SN BR SCT011 OVC024 M02/M03 A3022 750 96 -1100 050/04 RMK AO2 P0001
14926KSTC STC20011128175017211/28/01 17:50:31  5-MIN KSTC 282350Z AUTO 05004KT 2SM -SN BR SCT015 BKN021 OVC026 M03/M03 A3022 750 100 -1200 050/04 RMK AO2 SLP257 P0001 60008 T10281028 11017 21028 55010
14926KSTC STC20011128175513511/28/01 17:55:31  5-MIN KSTC 282355Z AUTO 05004KT 2 1/2SM -SN BR BKN017 BKN024 OVC047 M03/M03 A3022 750 100 -1200 040/04 RMK AO2 P0000
14926KSTC STC20011128180013111/28/01 18:00:31  5-MIN KSTC 290000Z AUTO 05004KT 3SM -SN BR SCT017 BKN026 OVC060 M03/M03 A3022 750 100 -1200 050/04 RMK AO2 P0000
14926KSTC STC20011128180513011/28/01 18:05:31  5-MIN KSTC 290005Z AUTO 06004KT 3SM -SN BR SCT019 BKN026 OVC060 M03/M03 A3022 750 96 -1200 050/04 RMK AO2 P0000
14926KSTC STC20011128181013111/28/01 18:10:31  5-MIN KSTC 290010Z AUTO 06004KT 4SM -SN BR SCT021 SCT036 OVC060 M03/M03 A3022 750 100 -1200 060/04 RMK AO2 P0000
14926KSTC STC20011128181513011/28/01 18:15:31  5-MIN KSTC 290015Z AUTO 06005KT 4SM -SN BR FEW025 SCT036 OVC060 M03/M03 A3022 750 96 -1200 060/05 RMK AO2 P0000
14926KSTC STC20011128182012311/28/01 18:20:31  5-MIN KSTC 290020Z AUTO 06004KT 4SM -SN BR FEW025 OVC055 M03/M03 A3021 760 96 -1200 060/04 RMK AO2 P0000
14926KSTC STC20011128182511611/28/01 18:25:31  5-MIN KSTC 290025Z AUTO 06004KT 5SM -SN BR OVC055 M03/M03 A3021 760 96 -1200 060/04 RMK AO2 P0000
14926KSTC STC20011128183011611/28/01 18:30:31  5-MIN KSTC 290030Z AUTO 05003KT 6SM -SN BR OVC060 M03/M03 A3021 760 96 -1100 050/03 RMK AO2 P0000
14926KSTC STC20011128183511311/28/01 18:35:31  5-MIN KSTC 290035Z AUTO 05004KT 8SM -SN OVC060 M03/M03 A3021 760 96 -1100 040/04 RMK AO2 P0000
14926KSTC STC20011128184011511/28/01 18:40:31  5-MIN KSTC 290040Z AUTO 04004KT 9SM OVC055 M03/M03 A3020 770 96 -1100 040/04 RMK AO2 SNE36 P0000
14926KSTC STC20011128184511611/28/01 18:45:31  5-MIN KSTC 290045Z AUTO 05005KT 10SM OVC055 M03/M03 A3020 770 96 -1100 040/05 RMK AO2 SNE36 P0000
14926KSTC STC20011128185013311/28/01 18:50:31  5-MIN KSTC 290050Z AUTO 04005KT 10SM OVC055 M03/M03 A3020 770 96 -1100 040/05 RMK AO2 SNE36 SLP249 P0000 T10281033
14926KSTC STC20011128185511111/28/01 18:55:31  5-MIN KSTC 290055Z AUTO 05005KT 10SM SCT050 OVC060 M03/M03 A3019 770 96 -1100 050/05 RMK AO2
14926KSTC STC20011128190011111/28/01 19:00:31  5-MIN KSTC 290100Z AUTO 06005KT 10SM SCT050 OVC060 M03/M03 A3020 770 96 -1100 060/05 RMK AO2
14926KSTC STC20011128190511111/28/01 19:05:31  5-MIN KSTC 290105Z AUTO 07005KT 10SM SCT050 OVC060 M03/M03 A3020 770 96 -1100 060/05 RMK AO2
14926KSTC STC20011128191011811/28/01 19:10:31  5-MIN KSTC 290110Z AUTO 07004KT 10SM FEW018 SCT050 OVC060 M03/M03 A3020 770 96 -1100 070/04 RMK AO2
14926KSTC STC20011128191511811/28/01 19:15:31  5-MIN KSTC 290115Z AUTO 07004KT 10SM FEW018 SCT050 OVC060 M03/M03 A3020 770 96 -1100 070/04 RMK AO2
14926KSTC STC20011128192011811/28/01 19:20:31  5-MIN KSTC 290120Z AUTO 08004KT 10SM FEW018 SCT023 OVC060 M03/M03 A3020 770 96 -1100 070/04 RMK AO2
14926KSTC STC20011128192511811/28/01 19:25:31  5-MIN KSTC 290125Z AUTO 08003KT 10SM SCT018 BKN023 OVC060 M03/M03 A3019 770 96 -1100 080/03 RMK AO2
14926KSTC STC20011128193011811/28/01 19:30:31  5-MIN KSTC 290130Z AUTO 08003KT 10SM BKN018 BKN023 OVC060 M03/M03 A3019 770 96 -1100 080/03 RMK AO2
14926KSTC STC20011128193511811/28/01 19:35:31  5-MIN KSTC 290135Z AUTO 08003KT 10SM BKN018 BKN023 OVC060 M03/M03 A3019 770 96 -1100 070/03 RMK AO2
14926KSTC STC20011128194011111/28/01 19:40:31  5-MIN KSTC 290140Z AUTO 08004KT 10SM BKN018 OVC023 M03/M03 A3019 780 96 -1100 070/04 RMK AO2
14926KSTC STC20011128194510411/28/01 19:45:31  5-MIN KSTC 290145Z AUTO 08004KT 10SM OVC018 M03/M03 A3019 780 96 -1100 080/04 RMK AO2
14926KSTC STC20011128195012111/28/01 19:50:31  5-MIN KSTC 290150Z AUTO 09004KT 10SM OVC018 M03/M03 A3019 780 96 -1100 080/04 RMK AO2 SLP246 T10281033
14926KSTC STC20011128195510411/28/01 19:55:31  5-MIN KSTC 290155Z AUTO 08003KT 10SM OVC018 M03/M03 A3019 780 96 -1100 070/03 RMK AO2
14926KSTC STC20011128200010411/28/01 20:00:31  5-MIN KSTC 290200Z AUTO 09003KT 10SM OVC020 M03/M03 A3019 780 96 -1100 090/03 RMK AO2
14926KSTC STC20011128200510411/28/01 20:05:31  5-MIN KSTC 290205Z AUTO 08005KT 10SM OVC020 M03/M03 A3018 780 96 -1100 080/05 RMK AO2
14926KSTC STC20011128201011811/28/01 20:10:31  5-MIN KSTC 290210Z AUTO 07004KT 10SM BKN020 BKN024 OVC048 M03/M03 A3018 790 96 -1100 070/04 RMK AO2
14926KSTC STC20011128201511111/28/01 20:15:31  5-MIN KSTC 290215Z AUTO 08004KT 10SM BKN022 OVC048 M03/M03 A3017 790 96 -1100 080/04 RMK AO2
14926KSTC STC20011128202011111/28/01 20:20:31  5-MIN KSTC 290220Z AUTO 08004KT 10SM BKN022 OVC048 M03/M03 A3017 790 96 -1100 080/04 RMK AO2
14926KSTC STC20011128202511111/28/01 20:25:31  5-MIN KSTC 290225Z AUTO 08005KT 10SM BKN022 OVC048 M03/M03 A3017 800 96 -1100 080/05 RMK AO2
14926KSTC STC20011128203011111/28/01 20:30:31  5-MIN KSTC 290230Z AUTO 09004KT 10SM BKN022 OVC048 M03/M03 A3017 800 96 -1100 080/04 RMK AO2
14926KSTC STC20011128203511111/28/01 20:35:31  5-MIN KSTC 290235Z AUTO 09004KT 10SM BKN022 OVC048 M03/M03 A3017 800 96 -1100 090/04 RMK AO2
14926KSTC STC20011128204010411/28/01 20:40:31  5-MIN KSTC 290240Z AUTO 09003KT 10SM OVC022 M03/M03 A3017 800 96 -1100 090/03 RMK AO2
14926KSTC STC20011128204510411/28/01 20:45:31  5-MIN KSTC 290245Z AUTO 09004KT 10SM OVC022 M03/M03 A3017 800 96 -1100 090/04 RMK AO2
14926KSTC STC20011128205014011/28/01 20:50:31  5-MIN KSTC 290250Z AUTO 09003KT 10SM FEW013 OVC022 M03/M03 A3017 800 96 -1100 090/03 RMK AO2 SLP239 60000 T10281033 58006
14926KSTC STC20011128205511111/28/01 20:55:31  5-MIN KSTC 290255Z AUTO 10003KT 10SM FEW013 OVC020 M03/M03 A3017 800 96 -1100 090/03 RMK AO2
14926KSTC STC20011128210011111/28/01 21:00:31  5-MIN KSTC 290300Z AUTO 09004KT 10SM FEW013 OVC020 M03/M03 A3017 800 96 -1100 090/04 RMK AO2
14926KSTC STC20011128210511811/28/01 21:05:31  5-MIN KSTC 290305Z AUTO 09003KT 10SM FEW005 BKN013 OVC020 M03/M03 A3017 800 96 -1100 080/03 RMK AO2
14926KSTC STC20011128211011811/28/01 21:10:31  5-MIN KSTC 290310Z AUTO 10003KT 10SM SCT005 BKN013 OVC020 M03/M03 A3017 800 96 -1100 090/03 RMK AO2
14926KSTC STC20011128211511811/28/01 21:15:31  5-MIN KSTC 290315Z AUTO 10003KT 10SM SCT005 BKN011 OVC020 M03/M03 A3017 800 96 -1100 100/03 RMK AO2
14926KSTC STC20011128212011811/28/01 21:20:31  5-MIN KSTC 290320Z AUTO 10003KT 10SM BKN005 BKN011 OVC020 M03/M03 A3017 800 96 -1100 100/03 RMK AO2
14926KSTC STC20011128212511111/28/01 21:25:31  5-MIN KSTC 290325Z AUTO 10003KT 10SM BKN005 OVC011 M03/M03 A3017 800 96 -1100 100/03 RMK AO2
14926KSTC STC20011128213011111/28/01 21:30:31  5-MIN KSTC 290330Z AUTO 11003KT 10SM BKN005 OVC011 M03/M03 A3017 800 96 -1100 100/03 RMK AO2
14926KSTC STC20011128213510411/28/01 21:35:31  5-MIN KSTC 290335Z AUTO 10003KT 10SM OVC005 M03/M03 A3016 800 96 -1100 100/03 RMK AO2
14926KSTC STC20011128214010411/28/01 21:40:31  5-MIN KSTC 290340Z AUTO 09003KT 10SM OVC005 M03/M03 A3016 800 96 -1100 090/03 RMK AO2
14926KSTC STC20011128214510411/28/01 21:45:31  5-MIN KSTC 290345Z AUTO 10003KT 10SM OVC005 M03/M03 A3016 810 96 -1100 090/03 RMK AO2
14926KSTC STC20011128215012111/28/01 21:50:31  5-MIN KSTC 290350Z AUTO 10003KT 10SM OVC005 M03/M03 A3016 810 96 -1100 100/03 RMK AO2 SLP236 T10281033
14926KSTC STC20011128215510411/28/01 21:55:31  5-MIN KSTC 290355Z AUTO 09003KT 10SM OVC005 M03/M03 A3016 810 96 -1100 090/03 RMK AO2
14926KSTC STC20011128220010411/28/01 22:00:31  5-MIN KSTC 290400Z AUTO 00000KT 10SM OVC005 M03/M03 A3015 810 96 -1100 000/00 RMK AO2
14926KSTC STC20011128220510411/28/01 22:05:31  5-MIN KSTC 290405Z AUTO 00000KT 10SM OVC005 M03/M03 A3015 810 96 -1100 000/00 RMK AO2
14926KSTC STC20011128221010411/28/01 22:10:31  5-MIN KSTC 290410Z AUTO 00000KT 10SM OVC005 M03/M03 A3015 810 96 -1100 000/00 RMK AO2
14926KSTC STC20011128221510411/28/01 22:15:31  5-MIN KSTC 290415Z AUTO 00000KT 10SM OVC005 M03/M03 A3015 810 96 -1100 000/00 RMK AO2
14926KSTC STC20011128222010411/28/01 22:20:31  5-MIN KSTC 290420Z AUTO 00000KT 10SM OVC005 M03/M03 A3015 810 96 -1100 000/00 RMK AO2
14926KSTC STC20011128222510411/28/01 22:25:31  5-MIN KSTC 290425Z AUTO 00000KT 10SM OVC005 M03/M04 A3015 820 92 -1100 000/00 RMK AO2
14926KSTC STC20011128223010411/28/01 22:30:31  5-MIN KSTC 290430Z AUTO 00000KT 10SM OVC005 M03/M04 A3015 820 92 -1100 000/00 RMK AO2
14926KSTC STC20011128223510411/28/01 22:35:31  5-MIN KSTC 290435Z AUTO 00000KT 10SM OVC005 M03/M04 A3015 820 92 -1100 000/00 RMK AO2
14926KSTC STC20011128224010411/28/01 22:40:31  5-MIN KSTC 290440Z AUTO 00000KT 10SM OVC005 M03/M04 A3015 820 92 -1100 000/00 RMK AO2
14926KSTC STC20011128224510411/28/01 22:45:31  5-MIN KSTC 290445Z AUTO 00000KT 10SM OVC005 M03/M04 A3014 820 92 -1100 000/00 RMK AO2
14926KSTC STC20011128225012111/28/01 22:50:31  5-MIN KSTC 290450Z AUTO 00000KT 10SM OVC005 M03/M04 A3014 820 92 -1100 000/00 RMK AO2 SLP230 T10281039
14926KSTC STC20011128225510411/28/01 22:55:31  5-MIN KSTC 290455Z AUTO 00000KT 10SM OVC005 M03/M04 A3014 820 92 -1100 000/00 RMK AO2
14926KSTC STC20011128230010411/28/01 23:00:31  5-MIN KSTC 290500Z AUTO 00000KT 10SM OVC005 M03/M04 A3014 820 92 -1100 000/00 RMK AO2
14926KSTC STC20011128230510411/28/01 23:05:31  5-MIN KSTC 290505Z AUTO 00000KT 10SM OVC005 M03/M04 A3014 820 92 -1100 000/00 RMK AO2
14926KSTC STC20011128231010411/28/01 23:10:31  5-MIN KSTC 290510Z AUTO 00000KT 10SM OVC005 M03/M04 A3014 830 92 -1100 000/00 RMK AO2
14926KSTC STC20011128231510411/28/01 23:15:31  5-MIN KSTC 290515Z AUTO 00000KT 10SM OVC003 M03/M04 A3014 820 92 -1100 000/00 RMK AO2
14926KSTC STC20011128232010411/28/01 23:20:31  5-MIN KSTC 290520Z AUTO 00000KT 10SM OVC003 M03/M04 A3014 820 92 -1100 000/00 RMK AO2
14926KSTC STC20011128232510411/28/01 23:25:31  5-MIN KSTC 290525Z AUTO 00000KT 10SM OVC003 M03/M04 A3014 820 92 -1100 000/00 RMK AO2
14926KSTC STC20011128233010411/28/01 23:30:31  5-MIN KSTC 290530Z AUTO 00000KT 10SM OVC003 M03/M04 A3014 820 92 -1100 000/00 RMK AO2
14926KSTC STC20011128233510411/28/01 23:35:31  5-MIN KSTC 290535Z AUTO 00000KT 10SM OVC003 M03/M04 A3014 820 92 -1100 000/00 RMK AO2
14926KSTC STC20011128234010411/28/01 23:40:31  5-MIN KSTC 290540Z AUTO 00000KT 10SM OVC003 M03/M04 A3014 820 92 -1100 000/00 RMK AO2
14926KSTC STC20011128234510411/28/01 23:45:31  5-MIN KSTC 290545Z AUTO 00000KT 10SM OVC003 M03/M04 A3014 830 92 -1100 000/00 RMK AO2
14926KSTC STC20011128235015511/28/01 23:50:31  5-MIN KSTC 290550Z AUTO 00000KT 10SM OVC003 M03/M04 A3014 830 92 -1100 000/00 RMK AO2 SLP229 60000 T10281039 11028 21028 410171039 56018
14926KSTC STC20011128235510411/28/01 23:55:31  5-MIN KSTC 290555Z AUTO 00000KT 10SM OVC003 M03/M04 A3014 830 92 -1100 000/00 RMK AO2
14926KSTC STC20011129000010411/29/01 00:00:31  5-MIN KSTC 290600Z AUTO 00000KT 10SM OVC003 M03/M04 A3014 830 92 -1100 000/00 RMK AO2
14926KSTC STC20011129000510411/29/01 00:05:31  5-MIN KSTC 290605Z AUTO 00000KT 10SM OVC003 M03/M04 A3014 830 92 -1100 000/00 RMK AO2
14926KSTC STC20011129001010411/29/01 00:10:31  5-MIN KSTC 290610Z AUTO 00000KT 10SM OVC003 M03/M04 A3014 830 92 -1100 000/00 RMK AO2
14926KSTC STC20011129001510411/29/01 00:15:31  5-MIN KSTC 290615Z AUTO 00000KT 10SM OVC003 M03/M04 A3014 830 92 -1100 000/00 RMK AO2
14926KSTC STC20011129002010311/29/01 00:20:31  5-MIN KSTC 290620Z AUTO 00000KT 9SM OVC003 M03/M04 A3014 830 92 -1100 000/00 RMK AO2
14926KSTC STC20011129002510311/29/01 00:25:31  5-MIN KSTC 290625Z AUTO 00000KT 9SM OVC003 M03/M04 A3013 830 92 -1100 000/00 RMK AO2
14926KSTC STC20011129003010311/29/01 00:30:31  5-MIN KSTC 290630Z AUTO 00000KT 7SM OVC003 M03/M03 A3013 830 96 -1100 000/00 RMK AO2
14926KSTC STC20011129003510611/29/01 00:35:31  5-MIN KSTC 290635Z AUTO 00000KT 6SM BR OVC003 M03/M03 A3013 830 96 -1100 000/00 RMK AO2
14926KSTC STC20011129004010611/29/01 00:40:31  5-MIN KSTC 290640Z AUTO 00000KT 4SM BR OVC003 M03/M03 A3013 830 96 -1100 000/00 RMK AO2
14926KSTC STC20011129004510611/29/01 00:45:31  5-MIN KSTC 290645Z AUTO 00000KT 3SM BR OVC003 M03/M03 A3013 830 96 -1100 000/00 RMK AO2
14926KSTC STC20011129005012311/29/01 00:50:31  5-MIN KSTC 290650Z AUTO 00000KT 3SM BR OVC003 M03/M03 A3013 840 96 -1100 000/00 RMK AO2 SLP224 T10281033
14926KSTC STC20011129005510611/29/01 00:55:31  5-MIN KSTC 290655Z AUTO 00000KT 3SM BR OVC001 M03/M03 A3012 840 96 -1100 000/00 RMK AO2
14926KSTC STC20011129010010611/29/01 01:00:31  5-MIN KSTC 290700Z AUTO 00000KT 3SM BR OVC001 M03/M03 A3013 840 96 -1100 000/00 RMK AO2
14926KSTC STC20011129010511011/29/01 01:05:31  5-MIN KSTC 290705Z AUTO 00000KT 1 3/4SM BR OVC001 M03/M03 A3013 840 96 -1100 000/00 RMK AO2
14926KSTC STC20011129011011011/29/01 01:10:31  5-MIN KSTC 290710Z AUTO 00000KT 1 1/4SM BR OVC001 M03/M03 A3012 840 96 -1000 000/00 RMK AO2
14926KSTC STC20011129011511011/29/01 01:15:31  5-MIN KSTC 290715Z AUTO 00000KT 1 1/4SM BR OVC001 M03/M03 A3012 840 96 -1000 000/00 RMK AO2
14926KSTC STC20011129012011011/29/01 01:20:31  5-MIN KSTC 290720Z AUTO 00000KT 1 1/2SM BR OVC001 M03/M03 A3012 840 96 -1000 000/00 RMK AO2
14926KSTC STC20011129012511011/29/01 01:25:31  5-MIN KSTC 290725Z AUTO 00000KT 1 1/2SM BR OVC001 M03/M03 A3012 840 96 -1000 000/00 RMK AO2
14926KSTC STC20011129013011011/29/01 01:30:31  5-MIN KSTC 290730Z AUTO 00000KT 1 1/4SM BR OVC001 M03/M03 A3012 840 96 -1000 000/00 RMK AO2
14926KSTC STC20011129013510811/29/01 01:35:31  5-MIN KSTC 290735Z AUTO 00000KT 3/4SM BR OVC001 M03/M03 A3012 840 96 -1000 000/00 RMK AO2
14926KSTC STC20011129014010811/29/01 01:40:31  5-MIN KSTC 290740Z AUTO 00000KT 3/4SM BR OVC001 M03/M03 A3012 840 96 -1000 000/00 RMK AO2
14926KSTC STC20011129014510811/29/01 01:45:31  5-MIN KSTC 290745Z AUTO 00000KT 3/4SM BR OVC001 M03/M03 A3012 840 96 -1000 000/00 RMK AO2
14926KSTC STC20011129015012711/29/01 01:50:31  5-MIN KSTC 290750Z AUTO 00000KT 1/2SM FZFG OVC001 M03/M03 A3012 840 96 -1000 000/00 RMK AO2 SLP222 T10281033
14926KSTC STC20011129015511711/29/01 01:55:31  5-MIN KSTC 290755Z AUTO 00000KT 1/2SM FZFG BKN001 OVC007 M03/M03 A3012 840 96 -1000 000/00 RMK AO2
14926KSTC STC20011129020011711/29/01 02:00:31  5-MIN KSTC 290800Z AUTO 00000KT 1/2SM FZFG BKN001 OVC007 M03/M03 A3012 850 96 -1000 000/00 RMK AO2
14926KSTC STC20011129020511711/29/01 02:05:31  5-MIN KSTC 290805Z AUTO 00000KT 1/2SM FZFG BKN001 OVC007 M03/M03 A3012 840 96 -1000 000/00 RMK AO2
14926KSTC STC20011129021011711/29/01 02:10:31  5-MIN KSTC 290810Z AUTO 00000KT 1/2SM FZFG BKN001 OVC007 M03/M03 A3012 840 96 -1000 000/00 RMK AO2
14926KSTC STC20011129021511711/29/01 02:15:31  5-MIN KSTC 290815Z AUTO 00000KT 1/2SM FZFG BKN001 OVC007 M03/M03 A3012 840 96 -1000 000/00 RMK AO2
14926KSTC STC20011129022011711/29/01 02:20:31  5-MIN KSTC 290820Z AUTO 00000KT 1/2SM FZFG BKN001 OVC007 M03/M03 A3012 840 96 -1000 000/00 RMK AO2
14926KSTC STC20011129022511711/29/01 02:25:31  5-MIN KSTC 290825Z AUTO 00000KT 1/2SM FZFG BKN001 OVC007 M03/M03 A3012 840 96 -1000 000/00 RMK AO2
14926KSTC STC20011129023011711/29/01 02:30:31  5-MIN KSTC 290830Z AUTO 00000KT 1/2SM FZFG BKN001 OVC007 M03/M03 A3013 840 96 -1100 000/00 RMK AO2
14926KSTC STC20011129023511711/29/01 02:35:31  5-MIN KSTC 290835Z AUTO 00000KT 1/2SM FZFG BKN001 OVC007 M03/M03 A3013 840 96 -1100 000/00 RMK AO2
14926KSTC STC20011129024011711/29/01 02:40:31  5-MIN KSTC 290840Z AUTO 00000KT 1/4SM FZFG BKN001 OVC007 M03/M03 A3013 840 96 -1100 000/00 RMK AO2
14926KSTC STC20011129024511711/29/01 02:45:31  5-MIN KSTC 290845Z AUTO 00000KT 1/4SM FZFG BKN001 OVC007 M03/M03 A3012 840 96 -1100 000/00 RMK AO2
14926KSTC STC20011129025014011/29/01 02:50:31  5-MIN KSTC 290850Z AUTO 00000KT 1/4SM FZFG BKN001 OVC007 M03/M03 A3012 840 96 -1000 000/00 RMK AO2 SLP223 T10281033 56011
14926KSTC STC20011129025511711/29/01 02:55:31  5-MIN KSTC 290855Z AUTO 00000KT 1/4SM FZFG BKN001 OVC007 M03/M03 A3012 840 96 -1000 000/00 RMK AO2
14926KSTC STC20011129030011011/29/01 03:00:31  5-MIN KSTC 290900Z AUTO 00000KT 1/4SM FZFG VV001 M03/M03 A3012 850 100 -1000 000/00 RMK AO2
14926KSTC STC20011129030510911/29/01 03:05:31  5-MIN KSTC 290905Z AUTO 00000KT 1/4SM FZFG VV001 M03/M03 A3011 850 96 -1000 000/00 RMK AO2
14926KSTC STC20011129031010911/29/01 03:10:31  5-MIN KSTC 290910Z AUTO 00000KT 1/4SM FZFG VV001 M03/M03 A3012 850 96 -1000 000/00 RMK AO2
14926KSTC STC20011129031511711/29/01 03:15:31  5-MIN KSTC 290915Z AUTO 00000KT 1/4SM FZFG BKN001 OVC008 M03/M03 A3012 850 96 -1000 000/00 RMK AO2
14926KSTC STC20011129032011711/29/01 03:20:31  5-MIN KSTC 290920Z AUTO 00000KT 1/4SM FZFG BKN001 OVC008 M03/M03 A3011 850 96 -1000 000/00 RMK AO2
14926KSTC STC20011129032511711/29/01 03:25:31  5-MIN KSTC 290925Z AUTO 00000KT 1/4SM FZFG BKN001 OVC008 M03/M03 A3011 850 96 -1000 000/00 RMK AO2
14926KSTC STC20011129033011711/29/01 03:30:31  5-MIN KSTC 290930Z AUTO 00000KT 1/4SM FZFG BKN001 OVC008 M03/M03 A3011 850 96 -1000 000/00 RMK AO2
14926KSTC STC20011129033511711/29/01 03:35:31  5-MIN KSTC 290935Z AUTO 00000KT 1/4SM FZFG BKN001 OVC008 M03/M03 A3011 850 96 -1000 000/00 RMK AO2
14926KSTC STC20011129034011711/29/01 03:40:31  5-MIN KSTC 290940Z AUTO 00000KT 1/4SM FZFG BKN001 OVC008 M03/M03 A3011 850 96 -1000 000/00 RMK AO2
14926KSTC STC20011129034511711/29/01 03:45:31  5-MIN KSTC 290945Z AUTO 00000KT 1/4SM FZFG BKN001 OVC008 M03/M03 A3011 850 96 -1000 000/00 RMK AO2
14926KSTC STC20011129035013511/29/01 03:50:31  5-MIN KSTC 290950Z AUTO 00000KT 1/4SM FZFG BKN001 OVC008 M03/M03 A3011 850 100 -1000 000/00 RMK AO2 SLP219 T10281028
14926KSTC STC20011129035511811/29/01 03:55:31  5-MIN KSTC 290955Z AUTO 00000KT 1/4SM FZFG BKN001 OVC008 M03/M03 A3011 850 100 -1000 000/00 RMK AO2
14926KSTC STC20011129040011811/29/01 04:00:31  5-MIN KSTC 291000Z AUTO 00000KT 1/4SM FZFG BKN001 OVC008 M03/M03 A3011 850 100 -1000 000/00 RMK AO2
14926KSTC STC20011129054011811/29/01 05:40:31  5-MIN KSTC 291140Z AUTO 00000KT 1/4SM FZFG SCT001 OVC007 M03/M03 A3009 870 100 -1000 000/00 RMK AO2
14926KSTC STC20011129054511811/29/01 05:45:31  5-MIN KSTC 291145Z AUTO 00000KT 1/4SM FZFG BKN001 OVC007 M03/M03 A3009 870 100 -1000 000/00 RMK AO2
14926KSTC STC20011129055015911/29/01 05:50:31  5-MIN KSTC 291150Z AUTO 00000KT 1/4SM FZFG BKN001 OVC007 M03/M03 A3009 870 100 -1000 000/00 RMK AO2 SLP213 70008 T10281028 11028 21028 55005
14926KSTC STC20011129055511811/29/01 05:55:31  5-MIN KSTC 291155Z AUTO 00000KT 1/4SM FZFG BKN001 OVC007 M03/M03 A3009 870 100 -1000 000/00 RMK AO2
14926KSTC STC20011129060011811/29/01 06:00:31  5-MIN KSTC 291200Z AUTO 18003KT 1/4SM FZFG BKN001 OVC007 M03/M03 A3009 870 100 -1000 170/03 RMK AO2
14926KSTC STC20011129060511811/29/01 06:05:31  5-MIN KSTC 291205Z AUTO 16003KT 1/4SM FZFG BKN001 OVC007 M03/M03 A3009 870 100 -1000 160/03 RMK AO2
14926KSTC STC20011129061011811/29/01 06:10:31  5-MIN KSTC 291210Z AUTO 16003KT 1/4SM FZFG BKN001 OVC007 M03/M03 A3009 870 100 -1000 160/03 RMK AO2
14926KSTC STC20011129061511811/29/01 06:15:31  5-MIN KSTC 291215Z AUTO 16004KT 1/4SM FZFG BKN001 OVC007 M03/M03 A3009 870 100 -1000 150/04 RMK AO2
14926KSTC STC20011129062011811/29/01 06:20:31  5-MIN KSTC 291220Z AUTO 15003KT 1/4SM FZFG BKN001 OVC007 M03/M03 A3009 870 100 -1000 150/03 RMK AO2
14926KSTC STC20011129062511811/29/01 06:25:31  5-MIN KSTC 291225Z AUTO 00000KT 1/4SM FZFG BKN001 OVC007 M03/M03 A3009 870 100 -1000 000/00 RMK AO2
14926KSTC STC20011129063011811/29/01 06:30:31  5-MIN KSTC 291230Z AUTO 00000KT 1/4SM FZFG BKN001 OVC007 M03/M03 A3009 870 100 -1000 000/00 RMK AO2
14926KSTC STC20011129063511811/29/01 06:35:31  5-MIN KSTC 291235Z AUTO 17003KT 1/4SM FZFG BKN001 OVC007 M03/M03 A3009 870 100 -1000 170/03 RMK AO2
14926KSTC STC20011129064011811/29/01 06:40:31  5-MIN KSTC 291240Z AUTO 00000KT 1/4SM FZFG BKN001 OVC007 M03/M03 A3009 870 100 -1000 000/00 RMK AO2
14926KSTC STC20011129064511811/29/01 06:45:31  5-MIN KSTC 291245Z AUTO 00000KT 1/4SM FZFG BKN001 OVC007 M03/M03 A3008 880 100 -1000 000/00 RMK AO2
14926KSTC STC20011129065013511/29/01 06:50:31  5-MIN KSTC 291250Z AUTO 00000KT 1/2SM FZFG BKN001 OVC007 M03/M03 A3008 880 100 -1000 000/00 RMK AO2 SLP210 T10281028
14926KSTC STC20011129065511811/29/01 06:55:31  5-MIN KSTC 291255Z AUTO 00000KT 1/2SM FZFG BKN001 OVC007 M03/M03 A3008 880 100 -1000 000/00 RMK AO2
14926KSTC STC20011129070011611/29/01 07:00:31  5-MIN KSTC 291300Z AUTO 00000KT 3/4SM BR BKN001 OVC007 M03/M03 A3008 880 100 -1000 000/00 RMK AO2
14926KSTC STC20011129070511411/29/01 07:05:31  5-MIN KSTC 291305Z AUTO 00000KT 1SM BR BKN001 OVC007 M03/M03 A3009 870 100 -1000 000/00 RMK AO2
14926KSTC STC20011129071010711/29/01 07:10:31  5-MIN KSTC 291310Z AUTO 00000KT 1SM BR OVC001 M03/M03 A3009 870 100 -1000 000/00 RMK AO2
14926KSTC STC20011129071510711/29/01 07:15:31  5-MIN KSTC 291315Z AUTO 00000KT 1SM BR OVC001 M03/M03 A3009 870 100 -1000 000/00 RMK AO2
14926KSTC STC20011129072010611/29/01 07:20:31  5-MIN KSTC 291320Z AUTO 00000KT 1SM BR OVC001 M02/M02 A3009 870 100 -900 000/00 RMK AO2
14926KSTC STC20011129072511111/29/01 07:25:31  5-MIN KSTC 291325Z AUTO 00000KT 1 1/4SM BR OVC001 M03/M03 A3009 870 100 -1000 000/00 RMK AO2
14926KSTC STC20011129073010711/29/01 07:30:31  5-MIN KSTC 291330Z AUTO 00000KT 2SM BR OVC001 M03/M03 A3008 880 100 -1000 000/00 RMK AO2
14926KSTC STC20011129073510711/29/01 07:35:31  5-MIN KSTC 291335Z AUTO 20003KT 2SM BR OVC001 M03/M03 A3008 880 100 -1000 190/03 RMK AO2
14926KSTC STC20011129074010711/29/01 07:40:31  5-MIN KSTC 291340Z AUTO 19003KT 2SM BR OVC001 M03/M03 A3008 880 100 -1000 180/03 RMK AO2
14926KSTC STC20011129074510711/29/01 07:45:31  5-MIN KSTC 291345Z AUTO 19003KT 2SM BR OVC003 M03/M03 A3008 880 100 -1000 180/03 RMK AO2
14926KSTC STC20011129075012411/29/01 07:50:31  5-MIN KSTC 291350Z AUTO 19003KT 2SM BR OVC003 M03/M03 A3008 880 100 -1000 190/03 RMK AO2 SLP209 T10281028
14926KSTC STC20011129075511111/29/01 07:55:31  5-MIN KSTC 291355Z AUTO 20004KT 2 1/2SM BR OVC003 M03/M03 A3008 880 100 -1000 200/04 RMK AO2
14926KSTC STC20011129080011111/29/01 08:00:31  5-MIN KSTC 291400Z AUTO 20003KT 2 1/2SM BR OVC003 M03/M03 A3008 880 100 -1000 200/03 RMK AO2
14926KSTC STC20011129080510711/29/01 08:05:31  5-MIN KSTC 291405Z AUTO 20003KT 2SM BR OVC003 M03/M03 A3008 880 100 -1000 200/03 RMK AO2
14926KSTC STC20011129081010711/29/01 08:10:31  5-MIN KSTC 291410Z AUTO 22003KT 2SM BR OVC003 M03/M03 A3008 880 100 -1000 220/03 RMK AO2
14926KSTC STC20011129081511111/29/01 08:15:31  5-MIN KSTC 291415Z AUTO 23003KT 1 3/4SM BR OVC003 M03/M03 A3008 880 100 -1000 230/03 RMK AO2
14926KSTC STC20011129082011111/29/01 08:20:31  5-MIN KSTC 291420Z AUTO 23004KT 1 1/2SM BR OVC003 M03/M03 A3008 880 100 -1000 230/04 RMK AO2
14926KSTC STC20011129082511111/29/01 08:25:31  5-MIN KSTC 291425Z AUTO 23003KT 1 1/2SM BR OVC003 M03/M03 A3008 880 100 -1000 230/03 RMK AO2
14926KSTC STC20011129083011111/29/01 08:30:31  5-MIN KSTC 291430Z AUTO 23003KT 1 1/2SM BR OVC003 M03/M03 A3008 880 100 -1000 230/03 RMK AO2
14926KSTC STC20011129083511111/29/01 08:35:31  5-MIN KSTC 291435Z AUTO 21003KT 1 1/2SM BR OVC003 M03/M03 A3008 880 100 -1000 210/03 RMK AO2
14926KSTC STC20011129084011111/29/01 08:40:31  5-MIN KSTC 291440Z AUTO 20003KT 1 1/2SM BR OVC003 M03/M03 A3008 880 100 -1000 200/03 RMK AO2
14926KSTC STC20011129084511011/29/01 08:45:31  5-MIN KSTC 291445Z AUTO 20003KT 1 3/4SM BR OVC003 M03/M03 A3008 880 96 -1000 200/03 RMK AO2
14926KSTC STC20011129085012911/29/01 08:50:31  5-MIN KSTC 291450Z AUTO 20003KT 2SM BR OVC003 M03/M03 A3008 880 96 -1000 200/03 RMK AO2 SLP209 T10281033 56009
14926KSTC STC20011129085510611/29/01 08:55:31  5-MIN KSTC 291455Z AUTO 20003KT 2SM BR OVC003 M03/M03 A3008 880 96 -1000 200/03 RMK AO2
14926KSTC STC20011129090011011/29/01 09:00:31  5-MIN KSTC 291500Z AUTO 20003KT 1 3/4SM BR OVC003 M03/M03 A3008 880 96 -1000 190/03 RMK AO2
14926KSTC STC20011129090511111/29/01 09:05:31  5-MIN KSTC 291505Z AUTO 19004KT 1 3/4SM BR OVC003 M03/M03 A3008 880 100 -1100 190/04 RMK AO2
14926KSTC STC20011129091011111/29/01 09:10:31  5-MIN KSTC 291510Z AUTO 20004KT 1 3/4SM BR OVC003 M03/M03 A3008 880 100 -1100 200/04 RMK AO2
14926KSTC STC20011129091511111/29/01 09:15:31  5-MIN KSTC 291515Z AUTO 20004KT 1 1/2SM BR OVC003 M03/M03 A3008 880 100 -1100 200/04 RMK AO2
14926KSTC STC20011129092011111/29/01 09:20:31  5-MIN KSTC 291520Z AUTO 20004KT 1 1/2SM BR OVC003 M03/M03 A3008 880 100 -1100 200/04 RMK AO2
14926KSTC STC20011129092511111/29/01 09:25:31  5-MIN KSTC 291525Z AUTO 21004KT 1 1/2SM BR OVC003 M03/M03 A3008 880 100 -1100 210/04 RMK AO2
14926KSTC STC20011129093011111/29/01 09:30:31  5-MIN KSTC 291530Z AUTO 19004KT 1 1/2SM BR OVC003 M03/M03 A3007 880 100 -1100 190/04 RMK AO2
14926KSTC STC20011129093511111/29/01 09:35:31  5-MIN KSTC 291535Z AUTO 20003KT 1 1/2SM BR OVC003 M03/M03 A3008 880 100 -1100 200/03 RMK AO2
14926KSTC STC20011129094011111/29/01 09:40:31  5-MIN KSTC 291540Z AUTO 19004KT 1 1/2SM BR OVC003 M03/M03 A3008 880 100 -1100 190/04 RMK AO2
14926KSTC STC20011129094511111/29/01 09:45:31  5-MIN KSTC 291545Z AUTO 19005KT 1 1/4SM BR OVC003 M03/M03 A3008 880 100 -1100 180/05 RMK AO2
14926KSTC STC20011129095012711/29/01 09:50:31  5-MIN KSTC 291550Z AUTO 19005KT 1 1/4SM BR OVC003 M03/M04 A3008 880 96 -1100 190/05 RMK AO2 SLP210 T10331039
14926KSTC STC20011129095511011/29/01 09:55:31  5-MIN KSTC 291555Z AUTO 19004KT 1 1/4SM BR OVC003 M03/M04 A3008 880 96 -1100 190/04 RMK AO2
14926KSTC STC20011129100012211/29/01 10:00:31  5-MIN KSTC 291600Z AUTO 19004KT 1 1/4SM BR OVC003 M03/M04 A3008 880 96 -1100 190/04 RMK AO2 CIG 002V005
14926KSTC STC20011129100512211/29/01 10:05:31  5-MIN KSTC 291605Z AUTO 19004KT 1 1/2SM BR OVC003 M03/M04 A3008 880 96 -1100 180/04 RMK AO2 CIG 002V005
14926KSTC STC20011129101012211/29/01 10:10:31  5-MIN KSTC 291610Z AUTO 19004KT 1 1/2SM BR OVC003 M03/M04 A3008 880 96 -1100 190/04 RMK AO2 CIG 002V005
14926KSTC STC20011129101511011/29/01 10:15:31  5-MIN KSTC 291615Z AUTO 19004KT 1 1/2SM BR OVC003 M03/M04 A3008 880 96 -1100 180/04 RMK AO2
14926KSTC STC20011129102011011/29/01 10:20:31  5-MIN KSTC 291620Z AUTO 20004KT 1 1/4SM BR OVC003 M03/M04 A3008 880 96 -1100 200/04 RMK AO2
14926KSTC STC20011129102511011/29/01 10:25:31  5-MIN KSTC 291625Z AUTO 20004KT 1 1/4SM BR OVC003 M03/M04 A3008 880 96 -1100 190/04 RMK AO2
14926KSTC STC20011129103011011/29/01 10:30:31  5-MIN KSTC 291630Z AUTO 20004KT 1 1/2SM BR OVC003 M03/M04 A3008 880 96 -1100 200/04 RMK AO2
14926KSTC STC20011129103511011/29/01 10:35:31  5-MIN KSTC 291635Z AUTO 20004KT 1 1/2SM BR OVC003 M03/M04 A3008 880 96 -1100 200/04 RMK AO2
14926KSTC STC20011129104011011/29/01 10:40:31  5-MIN KSTC 291640Z AUTO 20005KT 1 1/2SM BR OVC003 M03/M04 A3008 880 96 -1100 200/05 RMK AO2
14926KSTC STC20011129104511011/29/01 10:45:31  5-MIN KSTC 291645Z AUTO 21004KT 1 3/4SM BR OVC003 M03/M04 A3008 880 96 -1100 210/04 RMK AO2
14926KSTC STC20011129105012311/29/01 10:50:31  5-MIN KSTC 291650Z AUTO 21004KT 2SM BR OVC003 M03/M04 A3008 880 96 -1100 210/04 RMK AO2 SLP208 T10331039
14926KSTC STC20011129105511711/29/01 10:55:31  5-MIN KSTC 291655Z AUTO 21004KT 2 1/2SM BR BKN003 OVC009 M03/M04 A3008 880 96 -1100 210/04 RMK AO2
14926KSTC STC20011129110011711/29/01 11:00:31  5-MIN KSTC 291700Z AUTO 21004KT 2 1/2SM BR BKN003 OVC009 M03/M04 A3007 890 96 -1100 200/04 RMK AO2
14926KSTC STC20011129110511711/29/01 11:05:31  5-MIN KSTC 291705Z AUTO 20005KT 2 1/2SM BR BKN005 OVC009 M03/M04 A3007 890 96 -1100 200/05 RMK AO2
14926KSTC STC20011129111012511/29/01 11:10:31  5-MIN KSTC 291710Z AUTO 20004KT 3SM BR BKN005 OVC009 M03/M04 A3007 890 96 -1100 200/04 RMK AO2 CIG 004V008
14926KSTC STC20011129111512511/29/01 11:15:31  5-MIN KSTC 291715Z AUTO 20004KT 3SM BR BKN005 OVC009 M03/M04 A3007 890 96 -1100 200/04 RMK AO2 CIG 004V008
14926KSTC STC20011129112011811/29/01 11:20:31  5-MIN KSTC 291720Z AUTO 21004KT 3SM BR OVC007 M03/M04 A3006 890 96 -1100 200/04 RMK AO2 CIG 005V010
14926KSTC STC20011129112511811/29/01 11:25:31  5-MIN KSTC 291725Z AUTO 21005KT 3SM BR OVC007 M03/M04 A3006 900 96 -1000 200/05 RMK AO2 CIG 005V010
14926KSTC STC20011129113011811/29/01 11:30:31  5-MIN KSTC 291730Z AUTO 21005KT 3SM BR OVC007 M03/M04 A3006 900 96 -1000 210/05 RMK AO2 CIG 005V010
14926KSTC STC20011129113511811/29/01 11:35:31  5-MIN KSTC 291735Z AUTO 21005KT 4SM BR OVC007 M03/M04 A3006 900 96 -1000 210/05 RMK AO2 CIG 005V009
14926KSTC STC20011129114011811/29/01 11:40:31  5-MIN KSTC 291740Z AUTO 20005KT 4SM BR OVC007 M03/M04 A3005 910 96 -1000 200/05 RMK AO2 CIG 005V009
14926KSTC STC20011129114510611/29/01 11:45:31  5-MIN KSTC 291745Z AUTO 20005KT 4SM BR OVC007 M03/M04 A3005 910 96 -1000 200/05 RMK AO2
14926KSTC STC20011129115014111/29/01 11:50:31  5-MIN KSTC 291750Z AUTO 21005KT 5SM BR OVC007 M03/M04 A3004 910 96 -1000 200/05 RMK AO2 SLP197 T10331039 11022 21033 56005
14926KSTC STC20011129115510611/29/01 11:55:31  5-MIN KSTC 291755Z AUTO 20005KT 5SM BR OVC007 M03/M04 A3004 910 96 -1000 200/05 RMK AO2
14926KSTC STC20011129120010611/29/01 12:00:31  5-MIN KSTC 291800Z AUTO 21004KT 5SM BR OVC007 M03/M04 A3004 910 96 -1000 210/04 RMK AO2
14926KSTC STC20011129120510611/29/01 12:05:31  5-MIN KSTC 291805Z AUTO 21005KT 6SM BR OVC007 M03/M04 A3004 910 96 -1000 200/05 RMK AO2
14926KSTC STC20011129121010611/29/01 12:10:31  5-MIN KSTC 291810Z AUTO 21005KT 6SM BR OVC007 M03/M04 A3004 920 96 -1000 200/05 RMK AO2
14926KSTC STC20011129121510611/29/01 12:15:31  5-MIN KSTC 291815Z AUTO 20006KT 6SM BR OVC007 M03/M04 A3004 920 96 -1000 200/06 RMK AO2
14926KSTC STC20011129122010311/29/01 12:20:31  5-MIN KSTC 291820Z AUTO 21005KT 7SM OVC007 M03/M04 A3004 920 96 -1000 210/05 RMK AO2
14926KSTC STC20011129122510311/29/01 12:25:31  5-MIN KSTC 291825Z AUTO 22005KT 7SM OVC007 M03/M04 A3004 920 96 -1000 210/05 RMK AO2
14926KSTC STC20011129123010311/29/01 12:30:31  5-MIN KSTC 291830Z AUTO 21005KT 7SM OVC007 M03/M04 A3003 920 96 -1000 210/05 RMK AO2
14926KSTC STC20011129123510311/29/01 12:35:31  5-MIN KSTC 291835Z AUTO 21004KT 7SM OVC007 M03/M04 A3003 930 96 -1000 210/04 RMK AO2
14926KSTC STC20011129124010311/29/01 12:40:31  5-MIN KSTC 291840Z AUTO 21004KT 7SM OVC007 M03/M04 A3003 930 96 -1000 210/04 RMK AO2
14926KSTC STC20011129124510311/29/01 12:45:31  5-MIN KSTC 291845Z AUTO 20004KT 7SM OVC007 M03/M04 A3002 930 96 -1000 200/04 RMK AO2
14926KSTC STC20011129125012011/29/01 12:50:31  5-MIN KSTC 291850Z AUTO 20004KT 8SM OVC007 M03/M04 A3002 930 96 -1000 200/04 RMK AO2 SLP188 T10331039
14926KSTC STC20011129125510311/29/01 12:55:31  5-MIN KSTC 291855Z AUTO 20005KT 9SM OVC007 M03/M04 A3002 930 96 -1000 200/05 RMK AO2
14926KSTC STC20011129130010311/29/01 13:00:31  5-MIN KSTC 291900Z AUTO 19004KT 9SM OVC007 M03/M04 A3002 930 96 -1000 190/04 RMK AO2
14926KSTC STC20011129130510311/29/01 13:05:31  5-MIN KSTC 291905Z AUTO 18004KT 9SM OVC007 M03/M04 A3002 930 96 -1000 180/04 RMK AO2
14926KSTC STC20011129131010411/29/01 13:10:31  5-MIN KSTC 291910Z AUTO 15004KT 10SM OVC007 M03/M04 A3002 940 96 -1000 150/04 RMK AO2
14926KSTC STC20011129131510411/29/01 13:15:31  5-MIN KSTC 291915Z AUTO 17006KT 10SM OVC007 M03/M04 A3001 940 96 -1000 160/06 RMK AO2
14926KSTC STC20011129132010311/29/01 13:20:31  5-MIN KSTC 291920Z AUTO 18005KT 10SM OVC007 M03/M04 A3001 940 92 -900 180/05 RMK AO2
14926KSTC STC20011129132510311/29/01 13:25:31  5-MIN KSTC 291925Z AUTO 15004KT 10SM OVC007 M03/M04 A3001 940 92 -900 150/04 RMK AO2
14926KSTC STC20011129133010311/29/01 13:30:31  5-MIN KSTC 291930Z AUTO 16005KT 10SM OVC007 M03/M04 A3001 940 92 -900 160/05 RMK AO2
14926KSTC STC20011129133510311/29/01 13:35:31  5-MIN KSTC 291935Z AUTO 15005KT 10SM OVC007 M03/M04 A3001 940 92 -900 150/05 RMK AO2
14926KSTC STC20011129134010311/29/01 13:40:31  5-MIN KSTC 291940Z AUTO 14005KT 10SM OVC007 M03/M04 A3001 940 92 -900 140/05 RMK AO2
14926KSTC STC20011129134510311/29/01 13:45:31  5-MIN KSTC 291945Z AUTO 15005KT 10SM OVC007 M03/M04 A3001 940 92 -900 140/05 RMK AO2
14926KSTC STC20011129135012011/29/01 13:50:31  5-MIN KSTC 291950Z AUTO 14006KT 10SM OVC009 M03/M04 A3001 940 92 -900 140/06 RMK AO2 SLP186 T10281039
14926KSTC STC20011129135510311/29/01 13:55:31  5-MIN KSTC 291955Z AUTO 14007KT 10SM OVC009 M03/M04 A3001 950 92 -900 140/07 RMK AO2
14926KSTC STC20011129140010311/29/01 14:00:31  5-MIN KSTC 292000Z AUTO 15006KT 10SM OVC009 M03/M04 A3001 950 92 -900 150/06 RMK AO2
14926KSTC STC20011129140511011/29/01 14:05:31  5-MIN KSTC 292005Z AUTO 15007KT 10SM BKN009 OVC022 M03/M04 A3001 950 92 -900 140/07 RMK AO2
14926KSTC STC20011129141010911/29/01 14:10:31  5-MIN KSTC 292010Z AUTO 14006KT 9SM BKN009 OVC022 M03/M04 A3000 950 92 -900 140/06 RMK AO2
14926KSTC STC20011129141512111/29/01 14:15:31  5-MIN KSTC 292015Z AUTO 15007KT 9SM BKN009 OVC022 M03/M04 A3000 960 92 -900 140/07 RMK AO2 CIG 008V012
14926KSTC STC20011129142012111/29/01 14:20:31  5-MIN KSTC 292020Z AUTO 15006KT 9SM BKN009 OVC022 M03/M04 A3000 960 92 -900 150/06 RMK AO2 CIG 008V013
14926KSTC STC20011129142512111/29/01 14:25:31  5-MIN KSTC 292025Z AUTO 15007KT 9SM BKN009 OVC022 M03/M04 A3000 960 92 -900 150/07 RMK AO2 CIG 008V013
14926KSTC STC20011129143010911/29/01 14:30:31  5-MIN KSTC 292030Z AUTO 15006KT 9SM BKN011 OVC022 M03/M04 A3000 960 92 -900 150/06 RMK AO2
14926KSTC STC20011129143510911/29/01 14:35:31  5-MIN KSTC 292035Z AUTO 16007KT 9SM BKN011 OVC022 M03/M04 A2999 960 92 -900 150/07 RMK AO2
14926KSTC STC20011129144012111/29/01 14:40:31  5-MIN KSTC 292040Z AUTO 15007KT 9SM BKN011 OVC020 M03/M04 A2999 960 92 -900 150/07 RMK AO2 CIG 009V014
14926KSTC STC20011129144511011/29/01 14:45:31  5-MIN KSTC 292045Z AUTO 15007KT 10SM BKN011 OVC020 M03/M04 A2999 960 92 -900 150/07 RMK AO2
14926KSTC STC20011129145014111/29/01 14:50:31  5-MIN KSTC 292050Z AUTO 16008KT 10SM SCT011 BKN014 OVC020 M03/M04 A2999 960 96 -1000 150/08 RMK AO2 SLP178 T10331039 58011
14926KSTC STC20011129145511111/29/01 14:55:31  5-MIN KSTC 292055Z AUTO 16008KT 10SM SCT011 OVC020 M03/M04 A2999 960 96 -1000 150/08 RMK AO2
14926KSTC STC20011129150011811/29/01 15:00:31  5-MIN KSTC 292100Z AUTO 16007KT 10SM FEW011 SCT015 OVC020 M03/M04 A2999 960 92 -1000 150/07 RMK AO2
14926KSTC STC20011129150511011/29/01 15:05:31  5-MIN KSTC 292105Z AUTO 18004KT 10SM FEW011 OVC020 M03/M04 A2999 960 88 -900 170/04 RMK AO2
14926KSTC STC20011129151010311/29/01 15:10:31  5-MIN KSTC 292110Z AUTO 18006KT 10SM OVC020 M03/M04 A3000 960 92 -900 180/06 RMK AO2
14926KSTC STC20011129151510311/29/01 15:15:31  5-MIN KSTC 292115Z AUTO 17005KT 10SM OVC020 M03/M04 A3000 960 88 -900 170/05 RMK AO2
14926KSTC STC20011129152010311/29/01 15:20:31  5-MIN KSTC 292120Z AUTO 18005KT 10SM OVC020 M03/M04 A3000 960 88 -900 180/05 RMK AO2
14926KSTC STC20011129152510311/29/01 15:25:31  5-MIN KSTC 292125Z AUTO 18008KT 10SM OVC020 M03/M04 A3000 960 88 -900 180/08 RMK AO2
14926KSTC STC20011129153010311/29/01 15:30:31  5-MIN KSTC 292130Z AUTO 17006KT 10SM OVC020 M03/M04 A2999 960 88 -900 170/06 RMK AO2
14926KSTC STC20011129153510311/29/01 15:35:31  5-MIN KSTC 292135Z AUTO 17007KT 10SM OVC022 M03/M04 A3000 960 88 -900 170/07 RMK AO2
14926KSTC STC20011129154010311/29/01 15:40:31  5-MIN KSTC 292140Z AUTO 16008KT 10SM OVC022 M03/M04 A3000 960 88 -900 160/08 RMK AO2
14926KSTC STC20011129154510311/29/01 15:45:31  5-MIN KSTC 292145Z AUTO 17006KT 10SM OVC022 M03/M04 A3000 960 88 -900 160/06 RMK AO2
14926KSTC STC20011129155012111/29/01 15:50:31  5-MIN KSTC 292150Z AUTO 16006KT 10SM OVC022 M03/M04 A2999 960 92 -1000 160/06 RMK AO2 SLP179 T10331044
14926KSTC STC20011129155510411/29/01 15:55:31  5-MIN KSTC 292155Z AUTO 16006KT 10SM OVC022 M03/M04 A3000 960 92 -1000 150/06 RMK AO2
14926KSTC STC20011129160010411/29/01 16:00:31  5-MIN KSTC 292200Z AUTO 18006KT 10SM OVC022 M03/M04 A3000 960 92 -1000 170/06 RMK AO2
14926KSTC STC20011129160510411/29/01 16:05:31  5-MIN KSTC 292205Z AUTO 17007KT 10SM OVC022 M03/M04 A2999 960 92 -1000 170/07 RMK AO2
14926KSTC STC20011129161010411/29/01 16:10:31  5-MIN KSTC 292210Z AUTO 17007KT 10SM OVC022 M03/M05 A2999 960 88 -1000 170/07 RMK AO2
14926KSTC STC20011129161511111/29/01 16:15:31  5-MIN KSTC 292215Z AUTO 16006KT 10SM FEW017 OVC022 M03/M05 A2999 960 88 -1000 160/06 RMK AO2
14926KSTC STC20011129162011111/29/01 16:20:31  5-MIN KSTC 292220Z AUTO 17007KT 10SM FEW017 OVC022 M03/M05 A2999 960 88 -1000 170/07 RMK AO2
14926KSTC STC20011129162511111/29/01 16:25:31  5-MIN KSTC 292225Z AUTO 16006KT 10SM FEW017 OVC022 M03/M05 A3000 960 88 -1000 160/06 RMK AO2
14926KSTC STC20011129163011111/29/01 16:30:31  5-MIN KSTC 292230Z AUTO 16005KT 10SM FEW017 OVC022 M03/M05 A2999 960 88 -1000 160/05 RMK AO2
14926KSTC STC20011129163510411/29/01 16:35:31  5-MIN KSTC 292235Z AUTO 15005KT 10SM OVC022 M03/M05 A2999 960 88 -1000 150/05 RMK AO2
14926KSTC STC20011129164010411/29/01 16:40:31  5-MIN KSTC 292240Z AUTO 16005KT 10SM OVC022 M03/M05 A2999 960 88 -1000 160/05 RMK AO2
14926KSTC STC20011129164510411/29/01 16:45:31  5-MIN KSTC 292245Z AUTO 16004KT 10SM OVC022 M03/M05 A2999 960 88 -1000 150/04 RMK AO2
14926KSTC STC20011129165012111/29/01 16:50:31  5-MIN KSTC 292250Z AUTO 15003KT 10SM OVC022 M03/M05 A2999 960 88 -1000 150/03 RMK AO2 SLP178 T10331050
14926KSTC STC20011129165510411/29/01 16:55:31  5-MIN KSTC 292255Z AUTO 15003KT 10SM OVC022 M03/M04 A2999 960 92 -1000 140/03 RMK AO2
14926KSTC STC20011129170010411/29/01 17:00:31  5-MIN KSTC 292300Z AUTO 15003KT 10SM OVC022 M03/M04 A2999 960 92 -1000 150/03 RMK AO2
14926KSTC STC20011129170510411/29/01 17:05:31  5-MIN KSTC 292305Z AUTO 15004KT 10SM OVC022 M03/M04 A2999 960 92 -1000 140/04 RMK AO2
14926KSTC STC20011129171010411/29/01 17:10:31  5-MIN KSTC 292310Z AUTO 15004KT 10SM OVC022 M03/M05 A2999 960 88 -1000 140/04 RMK AO2
14926KSTC STC20011129171510411/29/01 17:15:31  5-MIN KSTC 292315Z AUTO 14004KT 10SM OVC020 M03/M05 A2999 960 88 -1000 140/04 RMK AO2
14926KSTC STC20011129172010411/29/01 17:20:31  5-MIN KSTC 292320Z AUTO 14005KT 10SM OVC020 M03/M04 A2999 960 92 -1000 140/05 RMK AO2
14926KSTC STC20011129172510411/29/01 17:25:31  5-MIN KSTC 292325Z AUTO 13004KT 10SM OVC020 M03/M05 A2999 960 88 -1000 130/04 RMK AO2
14926KSTC STC20011129173010411/29/01 17:30:31  5-MIN KSTC 292330Z AUTO 13005KT 10SM OVC020 M03/M05 A2999 970 88 -1000 130/05 RMK AO2
14926KSTC STC20011129173510411/29/01 17:35:31  5-MIN KSTC 292335Z AUTO 13005KT 10SM OVC020 M03/M05 A2998 970 88 -1000 130/05 RMK AO2
14926KSTC STC20011129174010411/29/01 17:40:31  5-MIN KSTC 292340Z AUTO 13005KT 10SM OVC018 M03/M05 A2998 970 88 -1000 130/05 RMK AO2
14926KSTC STC20011129174510411/29/01 17:45:31  5-MIN KSTC 292345Z AUTO 14004KT 10SM OVC018 M03/M05 A2998 970 88 -1000 140/04 RMK AO2
14926KSTC STC20011129175013911/29/01 17:50:31  5-MIN KSTC 292350Z AUTO 14004KT 10SM OVC018 M03/M05 A2998 970 88 -1000 140/04 RMK AO2 SLP176 T10331050 11028 21033 56018
14926KSTC STC20011129175510411/29/01 17:55:31  5-MIN KSTC 292355Z AUTO 13003KT 10SM OVC018 M03/M05 A2998 970 88 -1000 130/03 RMK AO2
14926KSTC STC20011129180010411/29/01 18:00:31  5-MIN KSTC 300000Z AUTO 00000KT 10SM OVC018 M03/M05 A2998 970 88 -1000 000/00 RMK AO2
14926KSTC STC20011129180510411/29/01 18:05:31  5-MIN KSTC 300005Z AUTO 00000KT 10SM OVC018 M03/M05 A2998 970 88 -1000 000/00 RMK AO2
14926KSTC STC20011129181010311/29/01 18:10:31  5-MIN KSTC 300010Z AUTO 00000KT 10SM OVC018 M03/M04 A2998 980 88 -900 000/00 RMK AO2
14926KSTC STC20011129181510311/29/01 18:15:31  5-MIN KSTC 300015Z AUTO 00000KT 10SM OVC018 M03/M04 A2997 980 92 -900 000/00 RMK AO2
14926KSTC STC20011129182010311/29/01 18:20:31  5-MIN KSTC 300020Z AUTO 09003KT 10SM OVC018 M03/M04 A2997 980 88 -900 090/03 RMK AO2
14926KSTC STC20011129182510311/29/01 18:25:31  5-MIN KSTC 300025Z AUTO 08003KT 10SM OVC018 M03/M04 A2997 980 88 -900 080/03 RMK AO2
14926KSTC STC20011129183010311/29/01 18:30:31  5-MIN KSTC 300030Z AUTO 00000KT 10SM OVC018 M03/M04 A2997 980 88 -900 000/00 RMK AO2
14926KSTC STC20011129183510311/29/01 18:35:31  5-MIN KSTC 300035Z AUTO 00000KT 10SM OVC018 M03/M04 A2996 990 88 -900 000/00 RMK AO2
14926KSTC STC20011129184010311/29/01 18:40:31  5-MIN KSTC 300040Z AUTO 09003KT 10SM OVC018 M03/M04 A2996 990 88 -900 080/03 RMK AO2
14926KSTC STC20011129184510411/29/01 18:45:31  5-MIN KSTC 300045Z AUTO 09004KT 10SM OVC018 M03/M04 A2995 1000 88 -900 080/04 RMK AO2
14926KSTC STC20011129185012011/29/01 18:50:31  5-MIN KSTC 300050Z AUTO 00000KT 10SM OVC018 M03/M04 A2995 990 88 -900 000/00 RMK AO2 SLP166 T10281044
14926KSTC STC20011129185510411/29/01 18:55:31  5-MIN KSTC 300055Z AUTO 00000KT 10SM OVC018 M03/M04 A2995 1000 88 -900 000/00 RMK AO2
14926KSTC STC20011129190010411/29/01 19:00:31  5-MIN KSTC 300100Z AUTO 00000KT 10SM OVC018 M03/M04 A2995 1000 88 -900 000/00 RMK AO2
14926KSTC STC20011129190510411/29/01 19:05:31  5-MIN KSTC 300105Z AUTO 00000KT 10SM OVC018 M03/M04 A2995 1000 88 -900 000/00 RMK AO2
14926KSTC STC20011129191010311/29/01 19:10:31  5-MIN KSTC 300110Z AUTO 00000KT 10SM OVC016 M03/M04 A2996 990 88 -900 000/00 RMK AO2
14926KSTC STC20011129191510311/29/01 19:15:31  5-MIN KSTC 300115Z AUTO 00000KT 10SM OVC016 M03/M04 A2996 990 88 -900 000/00 RMK AO2
14926KSTC STC20011129192010311/29/01 19:20:31  5-MIN KSTC 300120Z AUTO 00000KT 10SM OVC016 M03/M04 A2996 990 88 -900 000/00 RMK AO2
14926KSTC STC20011129192510311/29/01 19:25:31  5-MIN KSTC 300125Z AUTO 09003KT 10SM OVC016 M03/M04 A2995 990 88 -900 090/03 RMK AO2
14926KSTC STC20011129193010411/29/01 19:30:31  5-MIN KSTC 300130Z AUTO 09003KT 10SM OVC016 M03/M04 A2995 1000 88 -900 090/03 RMK AO2
14926KSTC STC20011129193510311/29/01 19:35:31  5-MIN KSTC 300135Z AUTO 10003KT 10SM OVC016 M03/M04 A2996 990 88 -900 090/03 RMK AO2
14926KSTC STC20011129194010311/29/01 19:40:31  5-MIN KSTC 300140Z AUTO 11003KT 10SM OVC016 M03/M04 A2996 990 88 -900 100/03 RMK AO2
14926KSTC STC20011129194510311/29/01 19:45:31  5-MIN KSTC 300145Z AUTO 11003KT 10SM OVC016 M03/M04 A2996 990 88 -900 100/03 RMK AO2
14926KSTC STC20011129195012111/29/01 19:50:31  5-MIN KSTC 300150Z AUTO 10004KT 10SM OVC016 M03/M04 A2995 1000 88 -900 100/04 RMK AO2 SLP166 T10281044
14926KSTC STC20011129195510411/29/01 19:55:31  5-MIN KSTC 300155Z AUTO 11004KT 10SM OVC016 M03/M04 A2995 1000 88 -900 110/04 RMK AO2
14926KSTC STC20011129200010411/29/01 20:00:31  5-MIN KSTC 300200Z AUTO 11004KT 10SM OVC016 M03/M04 A2995 1000 88 -800 110/04 RMK AO2
14926KSTC STC20011129200510411/29/01 20:05:31  5-MIN KSTC 300205Z AUTO 10004KT 10SM OVC016 M03/M04 A2994 1010 88 -800 090/04 RMK AO2
14926KSTC STC20011129201010411/29/01 20:10:31  5-MIN KSTC 300210Z AUTO 10003KT 10SM OVC016 M03/M04 A2994 1010 92 -800 100/03 RMK AO2
14926KSTC STC20011129201511111/29/01 20:15:31  5-MIN KSTC 300215Z AUTO 10004KT 10SM OVC016 M03/M04 A2993 1020 92 -800 100/04 RMK AO2 PRESFR
14926KSTC STC20011129202010411/29/01 20:20:31  5-MIN KSTC 300220Z AUTO 12003KT 10SM OVC016 M03/M04 A2993 1020 88 -800 110/03 RMK AO2
14926KSTC STC20011129202510411/29/01 20:25:31  5-MIN KSTC 300225Z AUTO 12003KT 10SM OVC016 M03/M04 A2993 1020 92 -800 120/03 RMK AO2
14926KSTC STC20011129203010411/29/01 20:30:31  5-MIN KSTC 300230Z AUTO 11003KT 10SM OVC016 M03/M04 A2993 1020 92 -800 100/03 RMK AO2
14926KSTC STC20011129203511111/29/01 20:35:31  5-MIN KSTC 300235Z AUTO 10004KT 10SM BKN016 OVC021 M03/M04 A2992 1020 92 -800 090/04 RMK AO2
14926KSTC STC20011129204010411/29/01 20:40:31  5-MIN KSTC 300240Z AUTO 09003KT 10SM OVC018 M03/M04 A2992 1020 92 -800 080/03 RMK AO2
14926KSTC STC20011129204510411/29/01 20:45:31  5-MIN KSTC 300245Z AUTO 09004KT 10SM OVC018 M03/M04 A2992 1030 92 -800 080/04 RMK AO2
14926KSTC STC20011129205012711/29/01 20:50:31  5-MIN KSTC 300250Z AUTO 08003KT 10SM OVC020 M03/M04 A2991 1040 92 -800 080/03 RMK AO2 SLP151 T10281039 58002
14926KSTC STC20011129205510411/29/01 20:55:31  5-MIN KSTC 300255Z AUTO 09004KT 10SM OVC020 M03/M04 A2991 1040 92 -800 080/04 RMK AO2
14926KSTC STC20011129210010411/29/01 21:00:31  5-MIN KSTC 300300Z AUTO 09005KT 10SM OVC022 M03/M04 A2991 1040 92 -800 090/05 RMK AO2
14926KSTC STC20011129210510411/29/01 21:05:31  5-MIN KSTC 300305Z AUTO 09006KT 10SM OVC022 M03/M04 A2990 1040 92 -800 090/06 RMK AO2
14926KSTC STC20011129211010311/29/01 21:10:31  5-MIN KSTC 300310Z AUTO 09005KT 9SM OVC022 M02/M04 A2990 1050 88 -700 090/05 RMK AO2
14926KSTC STC20011129211510311/29/01 21:15:31  5-MIN KSTC 300315Z AUTO 08003KT 9SM OVC022 M02/M04 A2990 1040 88 -700 080/03 RMK AO2
14926KSTC STC20011129212010311/29/01 21:20:31  5-MIN KSTC 300320Z AUTO 08003KT 9SM OVC022 M02/M04 A2990 1050 88 -700 080/03 RMK AO2
14926KSTC STC20011129212510311/29/01 21:25:31  5-MIN KSTC 300325Z AUTO 08004KT 9SM OVC022 M02/M04 A2989 1050 88 -700 080/04 RMK AO2
14926KSTC STC20011129213010311/29/01 21:30:31  5-MIN KSTC 300330Z AUTO 09004KT 9SM OVC022 M02/M03 A2989 1050 92 -700 080/04 RMK AO2
14926KSTC STC20011129213510311/29/01 21:35:31  5-MIN KSTC 300335Z AUTO 08003KT 9SM OVC022 M02/M04 A2989 1050 88 -700 070/03 RMK AO2
14926KSTC STC20011129214010311/29/01 21:40:31  5-MIN KSTC 300340Z AUTO 08005KT 9SM OVC022 M02/M03 A2989 1060 92 -700 080/05 RMK AO2
14926KSTC STC20011129214510311/29/01 21:45:31  5-MIN KSTC 300345Z AUTO 08005KT 9SM OVC022 M02/M03 A2989 1060 92 -700 080/05 RMK AO2
14926KSTC STC20011129215012011/29/01 21:50:31  5-MIN KSTC 300350Z AUTO 08003KT 9SM OVC022 M02/M03 A2989 1050 92 -700 080/03 RMK AO2 SLP144 T10221033
14926KSTC STC20011129215510311/29/01 21:55:31  5-MIN KSTC 300355Z AUTO 08003KT 9SM OVC022 M02/M03 A2989 1060 92 -700 080/03 RMK AO2
14926KSTC STC20011129220010311/29/01 22:00:31  5-MIN KSTC 300400Z AUTO 07003KT 9SM OVC022 M02/M03 A2989 1050 92 -700 070/03 RMK AO2
14926KSTC STC20011129220510311/29/01 22:05:31  5-MIN KSTC 300405Z AUTO 08004KT 9SM OVC020 M02/M03 A2988 1060 92 -700 070/04 RMK AO2
14926KSTC STC20011129221010311/29/01 22:10:31  5-MIN KSTC 300410Z AUTO 08004KT 9SM OVC020 M02/M03 A2988 1060 92 -700 070/04 RMK AO2
14926KSTC STC20011129221510311/29/01 22:15:31  5-MIN KSTC 300415Z AUTO 08004KT 9SM OVC020 M02/M03 A2988 1060 92 -700 080/04 RMK AO2
14926KSTC STC20011129222010311/29/01 22:20:31  5-MIN KSTC 300420Z AUTO 08005KT 9SM OVC020 M02/M03 A2988 1070 92 -700 080/05 RMK AO2
14926KSTC STC20011129222510311/29/01 22:25:31  5-MIN KSTC 300425Z AUTO 09004KT 9SM OVC020 M02/M04 A2988 1060 88 -700 080/04 RMK AO2
14926KSTC STC20011129223010311/29/01 22:30:31  5-MIN KSTC 300430Z AUTO 09004KT 9SM OVC020 M02/M04 A2988 1060 85 -600 090/04 RMK AO2
14926KSTC STC20011129223510311/29/01 22:35:31  5-MIN KSTC 300435Z AUTO 09004KT 9SM OVC020 M02/M04 A2987 1070 85 -600 090/04 RMK AO2
14926KSTC STC20011129224010311/29/01 22:40:31  5-MIN KSTC 300440Z AUTO 09005KT 9SM OVC020 M02/M03 A2987 1080 88 -600 080/05 RMK AO2
14926KSTC STC20011129224510311/29/01 22:45:31  5-MIN KSTC 300445Z AUTO 09006KT 8SM OVC020 M02/M03 A2987 1080 88 -600 090/06 RMK AO2
14926KSTC STC20011129225012011/29/01 22:50:31  5-MIN KSTC 300450Z AUTO 09007KT 8SM OVC020 M02/M03 A2987 1080 88 -600 090/07 RMK AO2 SLP136 T10171033
14926KSTC STC20011129225510311/29/01 22:55:31  5-MIN KSTC 300455Z AUTO 09006KT 8SM OVC020 M02/M03 A2987 1070 88 -600 090/06 RMK AO2
14926KSTC STC20011129230010311/29/01 23:00:31  5-MIN KSTC 300500Z AUTO 10005KT 8SM OVC020 M02/M03 A2987 1070 88 -600 100/05 RMK AO2
14926KSTC STC20011129230510311/29/01 23:05:31  5-MIN KSTC 300505Z AUTO 09004KT 8SM OVC020 M02/M03 A2987 1070 88 -600 090/04 RMK AO2
14926KSTC STC20011129231010311/29/01 23:10:31  5-MIN KSTC 300510Z AUTO 09005KT 8SM OVC020 M02/M03 A2987 1080 88 -600 090/05 RMK AO2
14926KSTC STC20011129231510311/29/01 23:15:31  5-MIN KSTC 300515Z AUTO 09005KT 8SM OVC020 M02/M03 A2987 1070 88 -600 090/05 RMK AO2
14926KSTC STC20011129232010311/29/01 23:20:31  5-MIN KSTC 300520Z AUTO 10005KT 8SM OVC020 M02/M03 A2987 1080 88 -600 100/05 RMK AO2
14926KSTC STC20011129232510311/29/01 23:25:31  5-MIN KSTC 300525Z AUTO 10006KT 8SM OVC020 M02/M03 A2987 1080 88 -600 100/06 RMK AO2
14926KSTC STC20011129233010311/29/01 23:30:31  5-MIN KSTC 300530Z AUTO 11005KT 8SM OVC020 M02/M03 A2986 1080 88 -600 100/05 RMK AO2
14926KSTC STC20011129233510311/29/01 23:35:31  5-MIN KSTC 300535Z AUTO 10005KT 8SM OVC020 M02/M03 A2986 1080 92 -600 100/05 RMK AO2
14926KSTC STC20011129234010311/29/01 23:40:31  5-MIN KSTC 300540Z AUTO 11006KT 8SM OVC018 M02/M03 A2986 1080 92 -600 100/06 RMK AO2
14926KSTC STC20011129234510311/29/01 23:45:31  5-MIN KSTC 300545Z AUTO 11006KT 9SM OVC018 M02/M03 A2986 1080 92 -600 110/06 RMK AO2
14926KSTC STC20011129235014811/29/01 23:50:31  5-MIN KSTC 300550Z AUTO 11006KT 9SM OVC018 M02/M03 A2986 1080 92 -600 110/06 RMK AO2 SLP134 T10171028 11017 21033 410171033 58024
14926KSTC STC20011129235510311/29/01 23:55:31  5-MIN KSTC 300555Z AUTO 10006KT 9SM OVC018 M01/M03 A2986 1080 88 -500 100/06 RMK AO2
14926KSTC STC20011130000010311/30/01 00:00:31  5-MIN KSTC 300600Z AUTO 10007KT 9SM OVC018 M01/M03 A2986 1080 88 -500 100/07 RMK AO2
14926KSTC STC20011130000510311/30/01 00:05:31  5-MIN KSTC 300605Z AUTO 10007KT 9SM OVC020 M01/M03 A2986 1090 88 -500 100/07 RMK AO2
14926KSTC STC20011130001010411/30/01 00:10:31  5-MIN KSTC 300610Z AUTO 10007KT 10SM OVC020 M01/M03 A2985 1090 88 -500 090/07 RMK AO2
14926KSTC STC20011130001510411/30/01 00:15:31  5-MIN KSTC 300615Z AUTO 10007KT 10SM OVC020 M01/M03 A2984 1100 88 -500 090/07 RMK AO2
14926KSTC STC20011130002010411/30/01 00:20:31  5-MIN KSTC 300620Z AUTO 11006KT 10SM OVC022 M01/M03 A2985 1100 88 -500 110/06 RMK AO2
14926KSTC STC20011130002510411/30/01 00:25:31  5-MIN KSTC 300625Z AUTO 10006KT 10SM OVC022 M01/M03 A2984 1100 88 -500 100/06 RMK AO2
14926KSTC STC20011130003010411/30/01 00:30:31  5-MIN KSTC 300630Z AUTO 11005KT 10SM OVC022 M01/M03 A2984 1100 88 -500 110/05 RMK AO2
14926KSTC STC20011130003510411/30/01 00:35:31  5-MIN KSTC 300635Z AUTO 11005KT 10SM OVC022 M01/M03 A2984 1100 88 -500 100/05 RMK AO2
14926KSTC STC20011130004010411/30/01 00:40:31  5-MIN KSTC 300640Z AUTO 12005KT 10SM OVC022 M01/M03 A2984 1100 88 -500 120/05 RMK AO2
14926KSTC STC20011130004510411/30/01 00:45:31  5-MIN KSTC 300645Z AUTO 13006KT 10SM OVC022 M01/M03 A2985 1100 88 -500 120/06 RMK AO2
14926KSTC STC20011130005012111/30/01 00:50:31  5-MIN KSTC 300650Z AUTO 12005KT 10SM OVC022 M01/M03 A2984 1100 88 -500 120/05 RMK AO2 SLP128 T10111028
14926KSTC STC20011130005510311/30/01 00:55:31  5-MIN KSTC 300655Z AUTO 12005KT 9SM OVC020 M01/M03 A2984 1100 88 -500 120/05 RMK AO2
14926KSTC STC20011130010010311/30/01 01:00:31  5-MIN KSTC 300700Z AUTO 11005KT 9SM OVC020 M01/M03 A2984 1100 88 -500 110/05 RMK AO2
14926KSTC STC20011130010510311/30/01 01:05:31  5-MIN KSTC 300705Z AUTO 13006KT 9SM OVC020 M01/M03 A2984 1100 88 -500 120/06 RMK AO2
14926KSTC STC20011130011010311/30/01 01:10:31  5-MIN KSTC 300710Z AUTO 13006KT 9SM OVC020 M01/M03 A2984 1100 88 -500 120/06 RMK AO2
14926KSTC STC20011130011510311/30/01 01:15:31  5-MIN KSTC 300715Z AUTO 13004KT 9SM OVC020 M01/M02 A2984 1100 92 -500 120/04 RMK AO2
14926KSTC STC20011130012010311/30/01 01:20:31  5-MIN KSTC 300720Z AUTO 12004KT 9SM OVC020 M01/M02 A2984 1100 92 -500 120/04 RMK AO2
14926KSTC STC20011130012510311/30/01 01:25:31  5-MIN KSTC 300725Z AUTO 12004KT 9SM OVC020 M01/M02 A2983 1110 92 -500 120/04 RMK AO2
14926KSTC STC20011130013010311/30/01 01:30:31  5-MIN KSTC 300730Z AUTO 11004KT 9SM OVC020 M01/M02 A2983 1110 92 -500 110/04 RMK AO2
14926KSTC STC20011130013510311/30/01 01:35:31  5-MIN KSTC 300735Z AUTO 11005KT 9SM OVC022 M01/M02 A2983 1110 92 -500 110/05 RMK AO2
14926KSTC STC20011130014010411/30/01 01:40:31  5-MIN KSTC 300740Z AUTO 11005KT 10SM OVC022 M01/M02 A2983 1110 92 -500 110/05 RMK AO2
14926KSTC STC20011130014510411/30/01 01:45:31  5-MIN KSTC 300745Z AUTO 11006KT 10SM OVC022 M01/M02 A2983 1110 92 -500 110/06 RMK AO2
14926KSTC STC20011130015012111/30/01 01:50:31  5-MIN KSTC 300750Z AUTO 12007KT 10SM OVC022 M01/M02 A2983 1110 92 -500 120/07 RMK AO2 SLP124 T10111022
14926KSTC STC20011130015510411/30/01 01:55:31  5-MIN KSTC 300755Z AUTO 13006KT 10SM OVC022 M01/M02 A2984 1100 92 -500 130/06 RMK AO2
14926KSTC STC20011130020010411/30/01 02:00:31  5-MIN KSTC 300800Z AUTO 13006KT 10SM OVC022 M01/M02 A2984 1100 88 -400 130/06 RMK AO2
14926KSTC STC20011130020510411/30/01 02:05:31  5-MIN KSTC 300805Z AUTO 12005KT 10SM OVC022 M01/M02 A2984 1110 88 -400 120/05 RMK AO2
14926KSTC STC20011130021010411/30/01 02:10:31  5-MIN KSTC 300810Z AUTO 12005KT 10SM OVC022 M01/M02 A2983 1110 92 -500 110/05 RMK AO2
14926KSTC STC20011130021510411/30/01 02:15:31  5-MIN KSTC 300815Z AUTO 11005KT 10SM OVC022 M01/M02 A2983 1110 92 -500 100/05 RMK AO2
14926KSTC STC20011130022010411/30/01 02:20:31  5-MIN KSTC 300820Z AUTO 09007KT 10SM OVC022 M01/M02 A2982 1120 88 -400 090/07 RMK AO2
14926KSTC STC20011130022510411/30/01 02:25:31  5-MIN KSTC 300825Z AUTO 11006KT 10SM OVC022 M01/M02 A2983 1110 92 -500 110/06 RMK AO2
14926KSTC STC20011130023010411/30/01 02:30:31  5-MIN KSTC 300830Z AUTO 10005KT 10SM OVC022 M01/M02 A2982 1120 88 -400 100/05 RMK AO2
14926KSTC STC20011130023510411/30/01 02:35:31  5-MIN KSTC 300835Z AUTO 11005KT 10SM OVC022 M01/M02 A2983 1110 92 -500 110/05 RMK AO2
14926KSTC STC20011130024010411/30/01 02:40:31  5-MIN KSTC 300840Z AUTO 09005KT 10SM OVC022 M01/M02 A2982 1120 88 -400 090/05 RMK AO2
14926KSTC STC20011130024510411/30/01 02:45:31  5-MIN KSTC 300845Z AUTO 11005KT 10SM OVC020 M01/M02 A2983 1110 92 -500 110/05 RMK AO2
14926KSTC STC20011130025012711/30/01 02:50:31  5-MIN KSTC 300850Z AUTO 10005KT 10SM OVC020 M01/M02 A2982 1110 92 -500 100/05 RMK AO2 SLP122 T10111022 56017
14926KSTC STC20011130025510411/30/01 02:55:31  5-MIN KSTC 300855Z AUTO 12005KT 10SM OVC020 M01/M02 A2983 1110 92 -500 110/05 RMK AO2
14926KSTC STC20011130030010411/30/01 03:00:31  5-MIN KSTC 300900Z AUTO 11004KT 10SM OVC020 M01/M02 A2983 1110 92 -500 110/04 RMK AO2
14926KSTC STC20011130030510411/30/01 03:05:31  5-MIN KSTC 300905Z AUTO 12005KT 10SM OVC020 M01/M02 A2983 1110 92 -500 120/05 RMK AO2
14926KSTC STC20011130031010411/30/01 03:10:31  5-MIN KSTC 300910Z AUTO 11004KT 10SM OVC020 M01/M02 A2984 1100 92 -500 110/04 RMK AO2
14926KSTC STC20011130031510411/30/01 03:15:31  5-MIN KSTC 300915Z AUTO 12005KT 10SM OVC020 M01/M02 A2983 1110 92 -500 120/05 RMK AO2
14926KSTC STC20011130032010411/30/01 03:20:31  5-MIN KSTC 300920Z AUTO 10003KT 10SM OVC020 M01/M02 A2983 1110 92 -500 100/03 RMK AO2
14926KSTC STC20011130032510411/30/01 03:25:31  5-MIN KSTC 300925Z AUTO 10005KT 10SM OVC020 M01/M02 A2982 1120 92 -500 090/05 RMK AO2
14926KSTC STC20011130033011111/30/01 03:30:31  5-MIN KSTC 300930Z AUTO 09006KT 10SM OVC020 M01/M02 A2981 1120 92 -500 080/06 RMK AO2 PRESFR
14926KSTC STC20011130033510411/30/01 03:35:31  5-MIN KSTC 300935Z AUTO 09005KT 10SM OVC020 M01/M02 A2982 1120 92 -500 090/05 RMK AO2
14926KSTC STC20011130034010411/30/01 03:40:31  5-MIN KSTC 300940Z AUTO 10005KT 10SM OVC020 M01/M02 A2982 1120 92 -500 100/05 RMK AO2
14926KSTC STC20011130034510411/30/01 03:45:31  5-MIN KSTC 300945Z AUTO 09005KT 10SM OVC020 M01/M02 A2981 1130 92 -500 090/05 RMK AO2
14926KSTC STC20011130035012111/30/01 03:50:31  5-MIN KSTC 300950Z AUTO 08005KT 10SM OVC020 M01/M02 A2981 1130 92 -500 080/05 RMK AO2 SLP115 T10111022
14926KSTC STC20011130035510411/30/01 03:55:31  5-MIN KSTC 300955Z AUTO 09005KT 10SM OVC020 M01/M02 A2981 1130 92 -500 080/05 RMK AO2
14926KSTC STC20011130040010411/30/01 04:00:31  5-MIN KSTC 301000Z AUTO 09005KT 10SM OVC020 M01/M02 A2981 1130 92 -500 090/05 RMK AO2
14926KSTC STC20011130040510411/30/01 04:05:31  5-MIN KSTC 301005Z AUTO 10004KT 10SM OVC020 M01/M02 A2981 1130 92 -500 100/04 RMK AO2
14926KSTC STC20011130041010411/30/01 04:10:31  5-MIN KSTC 301010Z AUTO 11004KT 10SM OVC020 M01/M02 A2981 1120 92 -500 100/04 RMK AO2
14926KSTC STC20011130041510411/30/01 04:15:31  5-MIN KSTC 301015Z AUTO 10006KT 10SM OVC020 M01/M02 A2981 1130 92 -500 100/06 RMK AO2
14926KSTC STC20011130042010411/30/01 04:20:31  5-MIN KSTC 301020Z AUTO 09006KT 10SM OVC020 M01/M02 A2981 1130 92 -500 090/06 RMK AO2
14926KSTC STC20011130042510411/30/01 04:25:31  5-MIN KSTC 301025Z AUTO 10006KT 10SM OVC020 M01/M02 A2981 1130 92 -500 100/06 RMK AO2
14926KSTC STC20011130043010411/30/01 04:30:31  5-MIN KSTC 301030Z AUTO 10006KT 10SM OVC020 M01/M02 A2981 1130 92 -500 090/06 RMK AO2
14926KSTC STC20011130043510411/30/01 04:35:31  5-MIN KSTC 301035Z AUTO 10006KT 10SM OVC020 M01/M02 A2980 1140 92 -500 100/06 RMK AO2
14926KSTC STC20011130044010411/30/01 04:40:31  5-MIN KSTC 301040Z AUTO 09006KT 10SM OVC020 M01/M02 A2979 1140 92 -500 090/06 RMK AO2
14926KSTC STC20011130044511111/30/01 04:45:31  5-MIN KSTC 301045Z AUTO 09007KT 10SM OVC020 M01/M02 A2978 1150 92 -400 090/07 RMK AO2 PRESFR
14926KSTC STC20011130045012111/30/01 04:50:31  5-MIN KSTC 301050Z AUTO 09005KT 10SM OVC020 M01/M02 A2978 1150 92 -400 090/05 RMK AO2 SLP107 T10111022
14926KSTC STC20011130045510411/30/01 04:55:31  5-MIN KSTC 301055Z AUTO 09006KT 10SM OVC020 M01/M02 A2978 1160 92 -400 090/06 RMK AO2
14926KSTC STC20011130050010411/30/01 05:00:31  5-MIN KSTC 301100Z AUTO 09006KT 10SM OVC020 M01/M02 A2978 1160 92 -400 090/06 RMK AO2
14926KSTC STC20011130050510411/30/01 05:05:31  5-MIN KSTC 301105Z AUTO 10006KT 10SM OVC020 M01/M02 A2978 1160 92 -400 090/06 RMK AO2
14926KSTC STC20011130051010411/30/01 05:10:31  5-MIN KSTC 301110Z AUTO 09005KT 10SM OVC020 M01/M02 A2978 1160 92 -400 090/05 RMK AO2
14926KSTC STC20011130051510411/30/01 05:15:31  5-MIN KSTC 301115Z AUTO 09006KT 10SM OVC020 M01/M02 A2977 1160 92 -400 090/06 RMK AO2
14926KSTC STC20011130052010411/30/01 05:20:31  5-MIN KSTC 301120Z AUTO 10005KT 10SM OVC020 M01/M02 A2977 1160 92 -400 090/05 RMK AO2
14926KSTC STC20011130052510411/30/01 05:25:31  5-MIN KSTC 301125Z AUTO 10005KT 10SM OVC020 M01/M02 A2978 1160 92 -400 100/05 RMK AO2
14926KSTC STC20011130053010411/30/01 05:30:31  5-MIN KSTC 301130Z AUTO 10006KT 10SM OVC020 M01/M02 A2977 1160 92 -400 090/06 RMK AO2
14926KSTC STC20011130053510411/30/01 05:35:31  5-MIN KSTC 301135Z AUTO 10006KT 10SM OVC020 M01/M02 A2977 1170 92 -400 090/06 RMK AO2
14926KSTC STC20011130054010411/30/01 05:40:31  5-MIN KSTC 301140Z AUTO 10007KT 10SM OVC020 M01/M02 A2977 1170 92 -400 090/07 RMK AO2
14926KSTC STC20011130054510411/30/01 05:45:31  5-MIN KSTC 301145Z AUTO 09007KT 10SM OVC020 M01/M02 A2977 1170 92 -400 090/07 RMK AO2
14926KSTC STC20011130055013911/30/01 05:50:31  5-MIN KSTC 301150Z AUTO 09006KT 10SM OVC020 M01/M02 A2976 1170 92 -400 090/06 RMK AO2 SLP101 T10111022 11006 21011 56010
14926KSTC STC20011130055510411/30/01 05:55:31  5-MIN KSTC 301155Z AUTO 10006KT 10SM OVC020 M01/M02 A2977 1170 92 -400 100/06 RMK AO2
14926KSTC STC20011130060010411/30/01 06:00:31  5-MIN KSTC 301200Z AUTO 10006KT 10SM OVC020 M01/M02 A2976 1170 92 -400 090/06 RMK AO2
14926KSTC STC20011130060510411/30/01 06:05:31  5-MIN KSTC 301205Z AUTO 10005KT 10SM OVC020 M01/M02 A2976 1170 92 -400 100/05 RMK AO2
14926KSTC STC20011130061010411/30/01 06:10:31  5-MIN KSTC 301210Z AUTO 10006KT 10SM OVC020 M01/M02 A2976 1170 92 -400 100/06 RMK AO2
14926KSTC STC20011130061510411/30/01 06:15:31  5-MIN KSTC 301215Z AUTO 11005KT 10SM OVC020 M01/M02 A2976 1170 92 -400 110/05 RMK AO2
14926KSTC STC20011130062010411/30/01 06:20:31  5-MIN KSTC 301220Z AUTO 11005KT 10SM OVC020 M01/M02 A2976 1170 92 -400 110/05 RMK AO2
14926KSTC STC20011130062510411/30/01 06:25:31  5-MIN KSTC 301225Z AUTO 11005KT 10SM OVC020 M01/M02 A2976 1170 92 -400 100/05 RMK AO2
14926KSTC STC20011130063010411/30/01 06:30:31  5-MIN KSTC 301230Z AUTO 11005KT 10SM OVC020 M01/M02 A2976 1170 92 -400 100/05 RMK AO2
14926KSTC STC20011130063510411/30/01 06:35:31  5-MIN KSTC 301235Z AUTO 10004KT 10SM OVC020 M01/M02 A2976 1170 92 -400 100/04 RMK AO2
14926KSTC STC20011130064010411/30/01 06:40:31  5-MIN KSTC 301240Z AUTO 12005KT 10SM OVC020 M01/M02 A2977 1170 92 -400 110/05 RMK AO2
14926KSTC STC20011130064510411/30/01 06:45:31  5-MIN KSTC 301245Z AUTO 11005KT 10SM OVC020 M01/M02 A2976 1170 92 -400 100/05 RMK AO2
14926KSTC STC20011130065012111/30/01 06:50:31  5-MIN KSTC 301250Z AUTO 11005KT 10SM OVC020 M01/M02 A2976 1170 92 -400 100/05 RMK AO2 SLP099 T10111022
14926KSTC STC20011130065510411/30/01 06:55:31  5-MIN KSTC 301255Z AUTO 11006KT 10SM OVC020 M01/M02 A2976 1170 92 -400 110/06 RMK AO2
14926KSTC STC20011130070010411/30/01 07:00:31  5-MIN KSTC 301300Z AUTO 11005KT 10SM OVC020 M01/M02 A2976 1170 92 -400 110/05 RMK AO2
14926KSTC STC20011130070510411/30/01 07:05:31  5-MIN KSTC 301305Z AUTO 12005KT 10SM OVC020 M01/M02 A2976 1170 92 -400 110/05 RMK AO2
14926KSTC STC20011130071010411/30/01 07:10:31  5-MIN KSTC 301310Z AUTO 12005KT 10SM OVC020 M01/M02 A2976 1170 92 -400 110/05 RMK AO2
14926KSTC STC20011130071510411/30/01 07:15:31  5-MIN KSTC 301315Z AUTO 11004KT 10SM OVC020 M01/M02 A2976 1170 92 -400 110/04 RMK AO2
14926KSTC STC20011130072010411/30/01 07:20:31  5-MIN KSTC 301320Z AUTO 12003KT 10SM OVC020 M01/M02 A2976 1170 92 -400 110/03 RMK AO2
14926KSTC STC20011130072510411/30/01 07:25:31  5-MIN KSTC 301325Z AUTO 12003KT 10SM OVC020 M01/M02 A2976 1170 92 -400 110/03 RMK AO2
14926KSTC STC20011130073010411/30/01 07:30:31  5-MIN KSTC 301330Z AUTO 11004KT 10SM OVC020 M01/M02 A2976 1170 92 -400 110/04 RMK AO2
14926KSTC STC20011130073510411/30/01 07:35:31  5-MIN KSTC 301335Z AUTO 11004KT 10SM OVC020 M01/M02 A2976 1170 92 -400 110/04 RMK AO2
14926KSTC STC20011130074010411/30/01 07:40:31  5-MIN KSTC 301340Z AUTO 11004KT 10SM OVC020 M01/M02 A2976 1180 92 -400 110/04 RMK AO2
14926KSTC STC20011130074510311/30/01 07:45:31  5-MIN KSTC 301345Z AUTO 11005KT 9SM OVC020 M01/M02 A2976 1170 92 -400 110/05 RMK AO2
14926KSTC STC20011130075012011/30/01 07:50:31  5-MIN KSTC 301350Z AUTO 11004KT 8SM OVC020 M01/M02 A2976 1180 92 -400 110/04 RMK AO2 SLP098 T10111022
14926KSTC STC20011130075510311/30/01 07:55:31  5-MIN KSTC 301355Z AUTO 11005KT 8SM OVC020 M01/M02 A2976 1180 92 -400 100/05 RMK AO2
14926KSTC STC20011130080010311/30/01 08:00:31  5-MIN KSTC 301400Z AUTO 10004KT 8SM OVC020 M01/M02 A2975 1180 92 -400 100/04 RMK AO2
14926KSTC STC20011130080510311/30/01 08:05:31  5-MIN KSTC 301405Z AUTO 10005KT 8SM OVC020 M01/M02 A2975 1180 92 -400 100/05 RMK AO2
14926KSTC STC20011130081010311/30/01 08:10:31  5-MIN KSTC 301410Z AUTO 11005KT 8SM OVC020 M01/M02 A2976 1180 92 -400 100/05 RMK AO2
14926KSTC STC20011130081510311/30/01 08:15:31  5-MIN KSTC 301415Z AUTO 13004KT 9SM OVC020 M01/M02 A2976 1170 92 -400 120/04 RMK AO2
14926KSTC STC20011130082010311/30/01 08:20:31  5-MIN KSTC 301420Z AUTO 13004KT 8SM OVC020 M01/M02 A2976 1170 92 -400 130/04 RMK AO2
14926KSTC STC20011130082510311/30/01 08:25:31  5-MIN KSTC 301425Z AUTO 13004KT 8SM OVC020 M01/M02 A2977 1170 92 -400 130/04 RMK AO2
14926KSTC STC20011130083010311/30/01 08:30:31  5-MIN KSTC 301430Z AUTO 13004KT 8SM OVC020 M01/M02 A2977 1170 92 -400 130/04 RMK AO2
14926KSTC STC20011130083510311/30/01 08:35:31  5-MIN KSTC 301435Z AUTO 13004KT 8SM OVC020 M01/M02 A2976 1170 92 -400 130/04 RMK AO2
14926KSTC STC20011130084010311/30/01 08:40:31  5-MIN KSTC 301440Z AUTO 12005KT 8SM OVC020 M01/M02 A2976 1170 92 -400 120/05 RMK AO2
14926KSTC STC20011130084510311/30/01 08:45:31  5-MIN KSTC 301445Z AUTO 13005KT 8SM OVC020 M01/M02 A2976 1180 92 -400 120/05 RMK AO2
14926KSTC STC20011130085012611/30/01 08:50:31  5-MIN KSTC 301450Z AUTO 12006KT 8SM OVC020 M01/M02 A2976 1180 92 -400 120/06 RMK AO2 SLP097 T10111022 56021
14926KSTC STC20011130085510311/30/01 08:55:31  5-MIN KSTC 301455Z AUTO 13006KT 8SM OVC020 M01/M02 A2976 1180 92 -400 130/06 RMK AO2
14926KSTC STC20011130090010311/30/01 09:00:31  5-MIN KSTC 301500Z AUTO 13005KT 8SM OVC020 M01/M02 A2976 1180 92 -400 120/05 RMK AO2
14926KSTC STC20011130090510311/30/01 09:05:31  5-MIN KSTC 301505Z AUTO 12005KT 8SM OVC020 M01/M02 A2975 1180 92 -400 110/05 RMK AO2
14926KSTC STC20011130091010311/30/01 09:10:31  5-MIN KSTC 301510Z AUTO 11005KT 8SM OVC020 M01/M02 A2975 1180 92 -400 110/05 RMK AO2
14926KSTC STC20011130091510311/30/01 09:15:31  5-MIN KSTC 301515Z AUTO 12005KT 8SM OVC020 M01/M02 A2975 1190 92 -400 110/05 RMK AO2
14926KSTC STC20011130092010311/30/01 09:20:31  5-MIN KSTC 301520Z AUTO 11005KT 8SM OVC020 M01/M02 A2974 1190 92 -400 110/05 RMK AO2
14926KSTC STC20011130092510311/30/01 09:25:31  5-MIN KSTC 301525Z AUTO 11006KT 8SM OVC020 M01/M02 A2974 1190 92 -400 110/06 RMK AO2
14926KSTC STC20011130093010311/30/01 09:30:31  5-MIN KSTC 301530Z AUTO 10006KT 8SM OVC020 M01/M02 A2974 1200 88 -300 100/06 RMK AO2
14926KSTC STC20011130093510311/30/01 09:35:31  5-MIN KSTC 301535Z AUTO 11006KT 9SM OVC020 M01/M02 A2973 1200 88 -300 110/06 RMK AO2
14926KSTC STC20011130094010311/30/01 09:40:31  5-MIN KSTC 301540Z AUTO 11005KT 9SM OVC020 M01/M02 A2973 1200 88 -300 100/05 RMK AO2
14926KSTC STC20011130094510311/30/01 09:45:31  5-MIN KSTC 301545Z AUTO 10005KT 9SM OVC020 M01/M02 A2973 1200 88 -300 100/05 RMK AO2
14926KSTC STC20011130095012111/30/01 09:50:31  5-MIN KSTC 301550Z AUTO 11005KT 10SM OVC020 M01/M02 A2973 1210 88 -300 110/05 RMK AO2 SLP087 T10061022
14926KSTC STC20011130095510411/30/01 09:55:31  5-MIN KSTC 301555Z AUTO 10004KT 10SM OVC018 M01/M02 A2972 1210 88 -300 090/04 RMK AO2
14926KSTC STC20011130100010311/30/01 10:00:31  5-MIN KSTC 301600Z AUTO 10005KT 10SM OVC018 00/M02 A2972 1210 85 -200 100/05 RMK AO2
14926KSTC STC20011130100510311/30/01 10:05:31  5-MIN KSTC 301605Z AUTO 10004KT 10SM OVC018 00/M02 A2972 1210 85 -200 100/04 RMK AO2
14926KSTC STC20011130101010311/30/01 10:10:31  5-MIN KSTC 301610Z AUTO 11005KT 10SM OVC018 00/M02 A2972 1210 85 -200 100/05 RMK AO2
14926KSTC STC20011130101510311/30/01 10:15:31  5-MIN KSTC 301615Z AUTO 11005KT 10SM OVC018 00/M02 A2972 1210 85 -200 110/05 RMK AO2
14926KSTC STC20011130102010311/30/01 10:20:31  5-MIN KSTC 301620Z AUTO 09005KT 10SM OVC018 00/M02 A2972 1220 85 -200 090/05 RMK AO2
14926KSTC STC20011130102510311/30/01 10:25:31  5-MIN KSTC 301625Z AUTO 11006KT 10SM OVC018 00/M02 A2972 1210 85 -200 110/06 RMK AO2
14926KSTC STC20011130103010311/30/01 10:30:31  5-MIN KSTC 301630Z AUTO 13005KT 10SM OVC018 00/M02 A2973 1210 88 -200 130/05 RMK AO2
14926KSTC STC20011130103510311/30/01 10:35:31  5-MIN KSTC 301635Z AUTO 12005KT 10SM OVC018 00/M02 A2972 1210 85 -200 120/05 RMK AO2
14926KSTC STC20011130104010311/30/01 10:40:31  5-MIN KSTC 301640Z AUTO 11005KT 10SM OVC018 00/M02 A2972 1210 85 -200 110/05 RMK AO2
14926KSTC STC20011130104510311/30/01 10:45:31  5-MIN KSTC 301645Z AUTO 12005KT 10SM OVC018 00/M02 A2972 1210 85 -200 120/05 RMK AO2
14926KSTC STC20011130105012011/30/01 10:50:31  5-MIN KSTC 301650Z AUTO 12006KT 10SM OVC018 00/M02 A2972 1210 85 -200 120/06 RMK AO2 SLP084 T00001022
14926KSTC STC20011130105510311/30/01 10:55:31  5-MIN KSTC 301655Z AUTO 12005KT 10SM OVC018 00/M02 A2972 1220 85 -200 120/05 RMK AO2
14926KSTC STC20011130110010311/30/01 11:00:31  5-MIN KSTC 301700Z AUTO 11005KT 10SM OVC018 00/M02 A2971 1220 85 -200 110/05 RMK AO2
14926KSTC STC20011130110510311/30/01 11:05:31  5-MIN KSTC 301705Z AUTO 13005KT 10SM OVC018 00/M02 A2971 1220 85 -200 120/05 RMK AO2
14926KSTC STC20011130111010311/30/01 11:10:31  5-MIN KSTC 301710Z AUTO 14006KT 10SM OVC018 00/M02 A2971 1220 85 -200 140/06 RMK AO2
14926KSTC STC20011130111510311/30/01 11:15:31  5-MIN KSTC 301715Z AUTO 14007KT 10SM OVC018 00/M02 A2971 1220 85 -200 130/07 RMK AO2
14926KSTC STC20011130112010311/30/01 11:20:31  5-MIN KSTC 301720Z AUTO 14006KT 10SM OVC018 00/M02 A2971 1220 85 -200 130/06 RMK AO2
14926KSTC STC20011130112510311/30/01 11:25:31  5-MIN KSTC 301725Z AUTO 15006KT 10SM OVC018 00/M02 A2971 1220 88 -200 140/06 RMK AO2
14926KSTC STC20011130113010311/30/01 11:30:31  5-MIN KSTC 301730Z AUTO 15008KT 10SM OVC018 00/M02 A2971 1220 88 -200 150/08 RMK AO2
14926KSTC STC20011130113510311/30/01 11:35:31  5-MIN KSTC 301735Z AUTO 14007KT 10SM OVC018 00/M02 A2971 1220 88 -200 140/07 RMK AO2
14926KSTC STC20011130114010311/30/01 11:40:31  5-MIN KSTC 301740Z AUTO 13006KT 10SM OVC018 00/M02 A2971 1230 85 -200 130/06 RMK AO2
14926KSTC STC20011130114510311/30/01 11:45:31  5-MIN KSTC 301745Z AUTO 15006KT 10SM OVC018 00/M02 A2970 1230 88 -200 140/06 RMK AO2
14926KSTC STC20011130115013811/30/01 11:50:31  5-MIN KSTC 301750Z AUTO 14005KT 10SM OVC018 00/M02 A2970 1230 88 -200 140/05 RMK AO2 SLP077 T00001017 10000 21011 56003
14926KSTC STC20011130115510311/30/01 11:55:31  5-MIN KSTC 301755Z AUTO 15005KT 10SM OVC018 00/M02 A2970 1230 88 -200 140/05 RMK AO2
14926KSTC STC20011130120010311/30/01 12:00:31  5-MIN KSTC 301800Z AUTO 15007KT 10SM OVC018 00/M02 A2970 1230 88 -200 140/07 RMK AO2
14926KSTC STC20011130120510311/30/01 12:05:31  5-MIN KSTC 301805Z AUTO 15007KT 10SM OVC018 00/M02 A2970 1230 88 -200 150/07 RMK AO2
14926KSTC STC20011130121010311/30/01 12:10:31  5-MIN KSTC 301810Z AUTO 15006KT 10SM OVC018 00/M02 A2970 1230 88 -200 150/06 RMK AO2
14926KSTC STC20011130121510311/30/01 12:15:31  5-MIN KSTC 301815Z AUTO 14005KT 10SM OVC018 00/M02 A2970 1230 88 -200 140/05 RMK AO2
14926KSTC STC20011130122010311/30/01 12:20:31  5-MIN KSTC 301820Z AUTO 14005KT 10SM OVC018 00/M02 A2970 1240 85 -200 140/05 RMK AO2
14926KSTC STC20011130122510311/30/01 12:25:31  5-MIN KSTC 301825Z AUTO 14005KT 10SM OVC018 00/M02 A2969 1240 88 -200 130/05 RMK AO2
14926KSTC STC20011130123010311/30/01 12:30:31  5-MIN KSTC 301830Z AUTO 14004KT 10SM OVC018 00/M02 A2969 1240 88 -200 130/04 RMK AO2
14926KSTC STC20011130123510311/30/01 12:35:31  5-MIN KSTC 301835Z AUTO 14005KT 10SM OVC018 00/M02 A2969 1240 88 -200 140/05 RMK AO2
14926KSTC STC20011130124010311/30/01 12:40:31  5-MIN KSTC 301840Z AUTO 14005KT 10SM OVC018 00/M02 A2970 1240 88 -200 140/05 RMK AO2
14926KSTC STC20011130124510311/30/01 12:45:31  5-MIN KSTC 301845Z AUTO 14004KT 10SM OVC018 00/M02 A2969 1240 88 -200 140/04 RMK AO2
14926KSTC STC20011130125012011/30/01 12:50:31  5-MIN KSTC 301850Z AUTO 13004KT 10SM OVC018 00/M02 A2969 1240 88 -200 130/04 RMK AO2 SLP075 T00001017
14926KSTC STC20011130125510311/30/01 12:55:31  5-MIN KSTC 301855Z AUTO 14004KT 10SM OVC018 00/M02 A2969 1240 88 -200 140/04 RMK AO2
14926KSTC STC20011130130010311/30/01 13:00:31  5-MIN KSTC 301900Z AUTO 14003KT 10SM OVC018 00/M02 A2969 1240 88 -200 130/03 RMK AO2
14926KSTC STC20011130130510311/30/01 13:05:31  5-MIN KSTC 301905Z AUTO 15004KT 10SM OVC018 01/M02 A2968 1250 85 -100 140/04 RMK AO2
14926KSTC STC20011130131010311/30/01 13:10:31  5-MIN KSTC 301910Z AUTO 14004KT 10SM OVC018 01/M02 A2968 1250 85 -100 140/04 RMK AO2
14926KSTC STC20011130131510311/30/01 13:15:31  5-MIN KSTC 301915Z AUTO 00000KT 10SM OVC018 01/M02 A2968 1250 85 -100 000/00 RMK AO2
14926KSTC STC20011130132010311/30/01 13:20:31  5-MIN KSTC 301920Z AUTO 14004KT 10SM OVC018 00/M02 A2968 1250 88 -200 140/04 RMK AO2
14926KSTC STC20011130132510311/30/01 13:25:31  5-MIN KSTC 301925Z AUTO 14004KT 10SM OVC018 00/M02 A2968 1250 88 -200 130/04 RMK AO2
14926KSTC STC20011130133010311/30/01 13:30:31  5-MIN KSTC 301930Z AUTO 13004KT 10SM OVC018 01/M02 A2968 1250 85 -100 130/04 RMK AO2
14926KSTC STC20011130133510311/30/01 13:35:31  5-MIN KSTC 301935Z AUTO 13005KT 10SM OVC018 01/M02 A2968 1250 85 -100 130/05 RMK AO2
14926KSTC STC20011130134010311/30/01 13:40:31  5-MIN KSTC 301940Z AUTO 14005KT 10SM OVC018 01/M02 A2968 1250 85 -100 140/05 RMK AO2
14926KSTC STC20011130134510311/30/01 13:45:31  5-MIN KSTC 301945Z AUTO 14005KT 10SM OVC018 01/M02 A2968 1250 85 -100 140/05 RMK AO2
14926KSTC STC20011130135012611/30/01 13:50:31  5-MIN KSTC 301950Z AUTO 14005KT 9SM SCT013 OVC018 01/M02 A2968 1250 85 -100 140/05 RMK AO2 SLP071 T00061017
14926KSTC STC20011130135510911/30/01 13:55:31  5-MIN KSTC 301955Z AUTO 15006KT 9SM FEW013 OVC018 01/M02 A2968 1250 85 -100 150/06 RMK AO2
14926KSTC STC20011130140010911/30/01 14:00:31  5-MIN KSTC 302000Z AUTO 14005KT 9SM FEW013 OVC018 00/M02 A2968 1250 88 -200 140/05 RMK AO2
14926KSTC STC20011130140510211/30/01 14:05:31  5-MIN KSTC 302005Z AUTO 15006KT 9SM OVC018 01/M02 A2969 1240 85 -100 140/06 RMK AO2
14926KSTC STC20011130141010211/30/01 14:10:31  5-MIN KSTC 302010Z AUTO 14007KT 9SM OVC018 01/M02 A2969 1240 85 -100 140/07 RMK AO2
14926KSTC STC20011130141510211/30/01 14:15:31  5-MIN KSTC 302015Z AUTO 15006KT 9SM OVC018 00/M02 A2968 1250 88 -200 150/06 RMK AO2
14926KSTC STC20011130142010211/30/01 14:20:31  5-MIN KSTC 302020Z AUTO 15006KT 9SM OVC018 01/M02 A2968 1250 85 -100 140/06 RMK AO2
14926KSTC STC20011130142510211/30/01 14:25:31  5-MIN KSTC 302025Z AUTO 15006KT 8SM OVC018 00/M02 A2968 1250 88 -200 150/06 RMK AO2
14926KSTC STC20011130143010211/30/01 14:30:31  5-MIN KSTC 302030Z AUTO 15006KT 8SM OVC016 00/M01 A2968 1250 92 -200 140/06 RMK AO2
14926KSTC STC20011130143510211/30/01 14:35:31  5-MIN KSTC 302035Z AUTO 14005KT 8SM OVC016 01/M01 A2968 1250 89 -100 140/05 RMK AO2
14926KSTC STC20011130144010211/30/01 14:40:31  5-MIN KSTC 302040Z AUTO 14005KT 8SM OVC016 01/M01 A2968 1250 89 -100 140/05 RMK AO2
14926KSTC STC20011130144510211/30/01 14:45:31  5-MIN KSTC 302045Z AUTO 14004KT 8SM OVC016 01/M01 A2968 1250 89 -100 140/04 RMK AO2
14926KSTC STC20011130145012511/30/01 14:50:31  5-MIN KSTC 302050Z AUTO 14005KT 8SM OVC014 01/M01 A2967 1260 89 -100 130/05 RMK AO2 SLP068 T00061011 56019
14926KSTC STC20011130145510211/30/01 14:55:31  5-MIN KSTC 302055Z AUTO 13004KT 8SM OVC014 01/M02 A2967 1260 85 -100 130/04 RMK AO2
14926KSTC STC20011130150010211/30/01 15:00:31  5-MIN KSTC 302100Z AUTO 14005KT 8SM OVC014 01/M01 A2967 1260 89 -100 140/05 RMK AO2
14926KSTC STC20011130150510211/30/01 15:05:31  5-MIN KSTC 302105Z AUTO 15005KT 8SM OVC014 01/M01 A2967 1260 89 -100 140/05 RMK AO2
14926KSTC STC20011130151010211/30/01 15:10:31  5-MIN KSTC 302110Z AUTO 15006KT 8SM OVC014 00/M01 A2968 1250 92 -200 150/06 RMK AO2
14926KSTC STC20011130151510211/30/01 15:15:31  5-MIN KSTC 302115Z AUTO 15004KT 8SM OVC014 01/M01 A2968 1250 89 -100 150/04 RMK AO2
14926KSTC STC20011130152010211/30/01 15:20:31  5-MIN KSTC 302120Z AUTO 17006KT 8SM OVC014 01/M01 A2968 1250 89 -100 170/06 RMK AO2
14926KSTC STC20011130152510211/30/01 15:25:31  5-MIN KSTC 302125Z AUTO 17006KT 9SM OVC014 01/M01 A2968 1250 89 -100 170/06 RMK AO2
14926KSTC STC20011130153010211/30/01 15:30:31  5-MIN KSTC 302130Z AUTO 15005KT 9SM OVC016 01/M02 A2967 1260 85 -100 150/05 RMK AO2
14926KSTC STC20011130153510211/30/01 15:35:31  5-MIN KSTC 302135Z AUTO 15006KT 9SM OVC016 01/M02 A2967 1250 85 -100 150/06 RMK AO2
14926KSTC STC20011130154010211/30/01 15:40:31  5-MIN KSTC 302140Z AUTO 17005KT 9SM OVC016 01/M01 A2968 1250 89 -100 170/05 RMK AO2
14926KSTC STC20011130154510211/30/01 15:45:31  5-MIN KSTC 302145Z AUTO 17004KT 9SM OVC016 01/M01 A2968 1250 89 -100 170/04 RMK AO2
14926KSTC STC20011130155011911/30/01 15:50:31  5-MIN KSTC 302150Z AUTO 17005KT 9SM OVC016 01/M01 A2968 1250 89 -100 170/05 RMK AO2 SLP071 T00061011
14926KSTC STC20011130155510211/30/01 15:55:31  5-MIN KSTC 302155Z AUTO 17005KT 9SM OVC016 01/M01 A2968 1250 89 -100 170/05 RMK AO2
14926KSTC STC20011130160010211/30/01 16:00:31  5-MIN KSTC 302200Z AUTO 17005KT 8SM OVC016 01/M01 A2968 1250 89 -100 160/05 RMK AO2
14926KSTC STC20011130160510211/30/01 16:05:31  5-MIN KSTC 302205Z AUTO 17005KT 9SM OVC016 01/M01 A2968 1250 89 -100 170/05 RMK AO2
14926KSTC STC20011130161010211/30/01 16:10:31  5-MIN KSTC 302210Z AUTO 17005KT 8SM OVC016 01/M01 A2968 1250 89 -100 170/05 RMK AO2
14926KSTC STC20011130161510211/30/01 16:15:31  5-MIN KSTC 302215Z AUTO 17006KT 8SM OVC016 01/M01 A2968 1250 89 -100 170/06 RMK AO2
14926KSTC STC20011130162010211/30/01 16:20:31  5-MIN KSTC 302220Z AUTO 18005KT 8SM OVC016 01/M01 A2969 1240 89 -100 180/05 RMK AO2
14926KSTC STC20011130162510211/30/01 16:25:31  5-MIN KSTC 302225Z AUTO 18005KT 8SM OVC016 01/M01 A2969 1240 89 -100 180/05 RMK AO2
14926KSTC STC20011130163010911/30/01 16:30:31  5-MIN KSTC 302230Z AUTO 18005KT 8SM BKN018 OVC022 01/M01 A2969 1240 89 -100 180/05 RMK AO2
14926KSTC STC20011130163510211/30/01 16:35:31  5-MIN KSTC 302235Z AUTO 17005KT 8SM OVC018 01/M01 A2969 1240 89 -100 170/05 RMK AO2
14926KSTC STC20011130164010211/30/01 16:40:31  5-MIN KSTC 302240Z AUTO 18005KT 8SM OVC022 01/M01 A2969 1240 89 -100 180/05 RMK AO2
14926KSTC STC20011130164510911/30/01 16:45:31  5-MIN KSTC 302245Z AUTO 17005KT 8SM SCT017 OVC024 01/M01 A2968 1250 89 -100 170/05 RMK AO2
14926KSTC STC20011130165011911/30/01 16:50:31  5-MIN KSTC 302250Z AUTO 17005KT 8SM OVC022 00/M01 A2968 1250 92 -200 170/05 RMK AO2 SLP072 T00001011
14926KSTC STC20011130165510211/30/01 16:55:31  5-MIN KSTC 302255Z AUTO 18005KT 9SM OVC022 00/M01 A2968 1250 92 -200 180/05 RMK AO2
14926KSTC STC20011130170010211/30/01 17:00:31  5-MIN KSTC 302300Z AUTO 18004KT 9SM OVC022 00/M01 A2968 1250 92 -200 180/04 RMK AO2
14926KSTC STC20011130170510211/30/01 17:05:31  5-MIN KSTC 302305Z AUTO 18005KT 9SM OVC024 00/M01 A2969 1240 92 -200 180/05 RMK AO2
14926KSTC STC20011130171010211/30/01 17:10:31  5-MIN KSTC 302310Z AUTO 18005KT 9SM OVC024 00/M01 A2969 1240 92 -200 180/05 RMK AO2
14926KSTC STC20011130171510211/30/01 17:15:31  5-MIN KSTC 302315Z AUTO 17004KT 9SM OVC024 00/M01 A2968 1250 92 -200 170/04 RMK AO2
14926KSTC STC20011130172010211/30/01 17:20:31  5-MIN KSTC 302320Z AUTO 17004KT 8SM OVC024 00/M01 A2968 1250 92 -200 170/04 RMK AO2
14926KSTC STC20011130172510911/30/01 17:25:31  5-MIN KSTC 302325Z AUTO 18004KT 8SM SCT020 OVC024 00/M01 A2968 1250 92 -200 170/04 RMK AO2
14926KSTC STC20011130173010911/30/01 17:30:31  5-MIN KSTC 302330Z AUTO 19004KT 8SM SCT016 OVC024 00/M01 A2969 1240 92 -200 180/04 RMK AO2
14926KSTC STC20011130173510911/30/01 17:35:31  5-MIN KSTC 302335Z AUTO 19004KT 8SM BKN013 OVC024 00/M01 A2969 1240 92 -200 190/04 RMK AO2
14926KSTC STC20011130174010911/30/01 17:40:31  5-MIN KSTC 302340Z AUTO 21006KT 8SM SCT013 OVC021 00/M01 A2969 1240 92 -200 200/06 RMK AO2
14926KSTC STC20011130174510911/30/01 17:45:31  5-MIN KSTC 302345Z AUTO 22007KT 8SM BKN013 OVC021 00/M01 A2969 1240 92 -200 220/07 RMK AO2
14926KSTC STC20011130175014411/30/01 17:50:31  5-MIN KSTC 302350Z AUTO 22006KT 8SM BKN011 OVC018 00/M01 A2969 1240 92 -200 210/06 RMK AO2 SLP075 T00001011 10006 20000 58008
14926KSTC STC20011130175510911/30/01 17:55:31  5-MIN KSTC 302355Z AUTO 21007KT 7SM BKN013 OVC018 00/M01 A2970 1240 92 -200 210/07 RMK AO2
14926KSTC STC20011130180010911/30/01 18:00:31  5-MIN KSTC 010000Z AUTO 21009KT 8SM SCT013 OVC020 00/M02 A2970 1230 88 -200 210/09 RMK AO2
14926KSTC STC20011130180511611/30/01 18:05:31  5-MIN KSTC 010005Z AUTO 21011KT 8SM FEW011 BKN019 OVC024 00/M02 A2970 1230 88 -200 200/11 RMK AO2
14926KSTC STC20011130181011611/30/01 18:10:31  5-MIN KSTC 010010Z AUTO 21010KT 8SM FEW011 BKN022 OVC085 00/M02 A2970 1230 88 -200 210/10 RMK AO2
14926KSTC STC20011130181511611/30/01 18:15:31  5-MIN KSTC 010015Z AUTO 22010KT 8SM FEW015 BKN022 OVC090 00/M02 A2970 1230 88 -200 210/10 RMK AO2
14926KSTC STC20011130182011711/30/01 18:20:31  5-MIN KSTC 010020Z AUTO 22008KT 7SM FEW009 BKN022 OVC090 M01/M02 A2970 1230 92 -300 220/08 RMK AO2
14926KSTC STC20011130182511711/30/01 18:25:31  5-MIN KSTC 010025Z AUTO 22007KT 7SM FEW009 BKN022 OVC090 M01/M02 A2970 1230 92 -300 220/07 RMK AO2
14926KSTC STC20011130183011011/30/01 18:30:31  5-MIN KSTC 010030Z AUTO 23007KT 7SM SCT022 OVC085 M01/M02 A2970 1230 88 -300 220/07 RMK AO2
14926KSTC STC20011130183511011/30/01 18:35:31  5-MIN KSTC 010035Z AUTO 23009KT 7SM FEW022 OVC085 M01/M02 A2970 1230 88 -300 230/09 RMK AO2
14926KSTC STC20011130184011711/30/01 18:40:31  5-MIN KSTC 010040Z AUTO 23009KT 7SM FEW022 BKN080 OVC095 M01/M02 A2970 1230 88 -300 230/09 RMK AO2
14926KSTC STC20011130184511711/30/01 18:45:31  5-MIN KSTC 010045Z AUTO 23009KT 8SM FEW022 BKN080 BKN095 M01/M02 A2970 1230 88 -300 230/09 RMK AO2
14926KSTC STC20011130185012711/30/01 18:50:31  5-MIN KSTC 010050Z AUTO 23008KT 8SM SCT022 BKN080 M01/M02 A2970 1230 92 -300 230/08 RMK AO2 SLP078 T10111022
14926KSTC STC20011130185511011/30/01 18:55:31  5-MIN KSTC 010055Z AUTO 22008KT 8SM BKN020 BKN080 M01/M03 A2970 1230 88 -300 220/08 RMK AO2
14926KSTC STC20011130190011711/30/01 19:00:31  5-MIN KSTC 010100Z AUTO 24009KT 8SM FEW010 BKN020 BKN080 M01/M03 A2970 1230 88 -300 230/09 RMK AO2
14926KSTC STC20011130190511711/30/01 19:05:31  5-MIN KSTC 010105Z AUTO 23009KT 8SM SCT010 BKN020 OVC080 M01/M03 A2970 1230 88 -300 230/09 RMK AO2
14926KSTC STC20011130191011711/30/01 19:10:31  5-MIN KSTC 010110Z AUTO 21008KT 8SM SCT012 BKN020 OVC090 M01/M03 A2970 1230 88 -300 210/08 RMK AO2
14926KSTC STC20011130191511711/30/01 19:15:31  5-MIN KSTC 010115Z AUTO 23008KT 8SM SCT012 BKN020 OVC090 M01/M03 A2970 1230 88 -300 230/08 RMK AO2
14926KSTC STC20011130192011711/30/01 19:20:31  5-MIN KSTC 010120Z AUTO 22006KT 8SM FEW010 BKN018 OVC090 M01/M03 A2970 1240 88 -300 220/06 RMK AO2
14926KSTC STC20011130192511711/30/01 19:25:31  5-MIN KSTC 010125Z AUTO 21007KT 8SM FEW010 SCT018 OVC090 M02/M03 A2969 1240 92 -400 210/07 RMK AO2
14926KSTC STC20011130193011711/30/01 19:30:31  5-MIN KSTC 010130Z AUTO 22011KT 8SM FEW014 BKN090 OVC120 M02/M03 A2970 1230 88 -400 210/11 RMK AO2
14926KSTC STC20011130193511011/30/01 19:35:31  5-MIN KSTC 010135Z AUTO 22010KT 8SM FEW014 OVC090 M02/M03 A2970 1230 88 -400 220/10 RMK AO2
14926KSTC STC20011130194011011/30/01 19:40:31  5-MIN KSTC 010140Z AUTO 22009KT 8SM FEW014 OVC090 M02/M03 A2970 1230 88 -400 210/09 RMK AO2
14926KSTC STC20011130194510311/30/01 19:45:31  5-MIN KSTC 010145Z AUTO 22007KT 8SM OVC090 M02/M03 A2970 1230 88 -400 210/07 RMK AO2
14926KSTC STC20011130195012711/30/01 19:50:31  5-MIN KSTC 010150Z AUTO 22008KT 7SM BKN090 OVC110 M02/M03 A2970 1230 88 -400 210/08 RMK AO2 SLP080 T10171033
14926KSTC STC20011130195511711/30/01 19:55:31  5-MIN KSTC 010155Z AUTO 22008KT 7SM FEW012 BKN090 OVC110 M02/M03 A2971 1230 88 -400 220/08 RMK AO2
14926KSTC STC20011130200011711/30/01 20:00:31  5-MIN KSTC 010200Z AUTO 22007KT 7SM SCT012 BKN090 OVC110 M02/M03 A2971 1220 88 -400 220/07 RMK AO2
14926KSTC STC20011130200511711/30/01 20:05:31  5-MIN KSTC 010205Z AUTO 23007KT 7SM SCT012 BKN085 OVC110 M02/M03 A2971 1230 88 -400 220/07 RMK AO2
14926KSTC STC20011130201011711/30/01 20:10:31  5-MIN KSTC 010210Z AUTO 22006KT 7SM SCT012 BKN085 OVC110 M02/M03 A2971 1230 88 -400 220/06 RMK AO2
14926KSTC STC20011130201511711/30/01 20:15:31  5-MIN KSTC 010215Z AUTO 22005KT 7SM FEW012 BKN085 OVC110 M02/M03 A2971 1220 92 -500 220/05 RMK AO2
14926KSTC STC20011130202011711/30/01 20:20:31  5-MIN KSTC 010220Z AUTO 22006KT 7SM SCT014 BKN080 BKN110 M02/M03 A2971 1220 92 -500 220/06 RMK AO2
14926KSTC STC20011130202511011/30/01 20:25:31  5-MIN KSTC 010225Z AUTO 23006KT 7SM BKN014 OVC085 M02/M03 A2971 1220 88 -400 220/06 RMK AO2
14926KSTC STC20011130203011011/30/01 20:30:31  5-MIN KSTC 010230Z AUTO 23006KT 7SM BKN016 OVC085 M02/M03 A2971 1220 92 -500 230/06 RMK AO2
14926KSTC STC20011130203511011/30/01 20:35:31  5-MIN KSTC 010235Z AUTO 24006KT 7SM BKN016 OVC080 M02/M03 A2971 1220 88 -400 240/06 RMK AO2
14926KSTC STC20011130204011011/30/01 20:40:31  5-MIN KSTC 010240Z AUTO 24007KT 7SM BKN016 BKN080 M02/M03 A2971 1220 88 -400 240/07 RMK AO2
14926KSTC STC20011130204510311/30/01 20:45:31  5-MIN KSTC 010245Z AUTO 24008KT 7SM OVC016 M02/M03 A2971 1220 88 -400 230/08 RMK AO2
14926KSTC STC20011130205012911/30/01 20:50:31  5-MIN KSTC 010250Z AUTO 24008KT 6SM BR OVC016 M02/M03 A2971 1220 88 -400 240/08 RMK AO2 SLP082 T10171033 51007
14926KSTC STC20011130205510611/30/01 20:55:31  5-MIN KSTC 010255Z AUTO 23008KT 6SM BR BKN016 M02/M03 A2971 1220 92 -500 230/08 RMK AO2
14926KSTC STC20011130210010611/30/01 21:00:31  5-MIN KSTC 010300Z AUTO 24008KT 6SM BR BKN016 M02/M03 A2971 1220 92 -500 240/08 RMK AO2
14926KSTC STC20011130210510611/30/01 21:05:31  5-MIN KSTC 010305Z AUTO 24008KT 6SM BR BKN016 M02/M03 A2972 1220 88 -400 230/08 RMK AO2
14926KSTC STC20011130211010611/30/01 21:10:31  5-MIN KSTC 010310Z AUTO 24007KT 6SM BR OVC016 M02/M03 A2972 1210 88 -400 230/07 RMK AO2
14926KSTC STC20011130211510611/30/01 21:15:31  5-MIN KSTC 010315Z AUTO 23007KT 6SM BR OVC016 M02/M03 A2972 1210 88 -400 230/07 RMK AO2
14926KSTC STC20011130212011311/30/01 21:20:31  5-MIN KSTC 010320Z AUTO 23007KT 6SM BR BKN016 OVC039 M02/M03 A2972 1220 88 -400 230/07 RMK AO2
14926KSTC STC20011130212511311/30/01 21:25:31  5-MIN KSTC 010325Z AUTO 23007KT 6SM BR BKN016 OVC039 M02/M03 A2972 1220 88 -400 230/07 RMK AO2
14926KSTC STC20011130213010611/30/01 21:30:31  5-MIN KSTC 010330Z AUTO 24008KT 6SM BR OVC018 M02/M03 A2972 1220 88 -400 230/08 RMK AO2
14926KSTC STC20011130213510611/30/01 21:35:31  5-MIN KSTC 010335Z AUTO 23007KT 6SM BR OVC018 M02/M03 A2972 1210 88 -400 230/07 RMK AO2
14926KSTC STC20011130214010611/30/01 21:40:31  5-MIN KSTC 010340Z AUTO 23007KT 6SM BR OVC018 M02/M03 A2972 1210 88 -400 230/07 RMK AO2
14926KSTC STC20011130214510611/30/01 21:45:31  5-MIN KSTC 010345Z AUTO 24006KT 6SM BR OVC018 M02/M03 A2972 1210 88 -400 230/06 RMK AO2
14926KSTC STC20011130215012311/30/01 21:50:31  5-MIN KSTC 010350Z AUTO 24006KT 6SM BR OVC018 M02/M03 A2972 1210 88 -400 230/06 RMK AO2 SLP085 T10171033
14926KSTC STC20011130215510611/30/01 21:55:31  5-MIN KSTC 010355Z AUTO 24006KT 5SM BR OVC018 M02/M03 A2972 1210 88 -400 240/06 RMK AO2
14926KSTC STC20011130220010611/30/01 22:00:31  5-MIN KSTC 010400Z AUTO 24008KT 5SM BR OVC018 M02/M03 A2972 1210 88 -400 240/08 RMK AO2
14926KSTC STC20011130220510611/30/01 22:05:31  5-MIN KSTC 010405Z AUTO 24007KT 5SM BR OVC018 M02/M03 A2972 1210 88 -400 230/07 RMK AO2
14926KSTC STC20011130221011311/30/01 22:10:31  5-MIN KSTC 010410Z AUTO 24007KT 5SM BR BKN018 OVC040 M02/M03 A2972 1210 88 -400 240/07 RMK AO2
14926KSTC STC20011130221512011/30/01 22:15:31  5-MIN KSTC 010415Z AUTO 24007KT 5SM BR FEW013 BKN018 OVC040 M02/M03 A2972 1210 88 -400 240/07 RMK AO2
14926KSTC STC20011130222013611/30/01 22:20:31  5-MIN KSTC 010420Z AUTO 24006KT 4SM -SN BR FEW013 BKN018 OVC040 M02/M03 A2973 1210 88 -400 240/06 RMK AO2 SNB16 P0000
14926KSTC STC20011130222513611/30/01 22:25:31  5-MIN KSTC 010425Z AUTO 24006KT 4SM -SN BR FEW013 BKN040 OVC065 M02/M04 A2973 1210 85 -500 240/06 RMK AO2 SNB16 P0000
14926KSTC STC20011130223013611/30/01 22:30:31  5-MIN KSTC 010430Z AUTO 24005KT 4SM -SN BR FEW013 BKN040 OVC065 M02/M04 A2972 1210 85 -400 240/05 RMK AO2 SNB16 P0000
14926KSTC STC20011130223513611/30/01 22:35:31  5-MIN KSTC 010435Z AUTO 24006KT 4SM -SN BR FEW014 BKN040 OVC060 M02/M04 A2973 1210 85 -400 240/06 RMK AO2 SNB16 P0000
14926KSTC STC20011130224013611/30/01 22:40:31  5-MIN KSTC 010440Z AUTO 25006KT 4SM -SN BR FEW012 BKN045 OVC060 M02/M04 A2973 1210 85 -500 240/06 RMK AO2 SNB16 P0000
14926KSTC STC20011130224513611/30/01 22:45:31  5-MIN KSTC 010445Z AUTO 25006KT 4SM -SN BR FEW014 BKN048 OVC065 M02/M04 A2973 1210 85 -500 250/06 RMK AO2 SNB16 P0000
14926KSTC STC20011130225015311/30/01 22:50:31  5-MIN KSTC 010450Z AUTO 25008KT 4SM -SN BR SCT014 BKN050 OVC060 M02/M04 A2973 1210 85 -500 240/08 RMK AO2 SNB16 SLP086 P0000 T10171039
14926KSTC STC20011130225513011/30/01 22:55:31  5-MIN KSTC 010455Z AUTO 25007KT 4SM -SN BR SCT012 SCT030 OVC050 M02/M04 A2973 1210 85 -500 250/07 RMK AO2 P0000
14926KSTC STC20011130230013411/30/01 23:00:31  5-MIN KSTC 010500Z AUTO 25008KT 4SM BR SCT012 BKN048 OVC055 M02/M04 A2973 1210 85 -500 250/08 RMK AO2 SNE0458 P0000
14926KSTC STC20011130230513011/30/01 23:05:31  5-MIN KSTC 010505Z AUTO 26010KT 4SM -SN BR SCT012 BKN048 OVC060 M02/M04 A2973 1200 85 -500 250/10 RMK AO2 P0000
14926KSTC STC20011130231013011/30/01 23:10:31  5-MIN KSTC 010510Z AUTO 25010KT 4SM -SN BR SCT012 BKN048 OVC060 M02/M04 A2973 1200 85 -500 250/10 RMK AO2 P0000
14926KSTC STC20011130231513211/30/01 23:15:31  5-MIN KSTC 010515Z AUTO 25009KT 4SM BR SCT012 BKN046 OVC060 M02/M04 A2973 1200 85 -500 250/09 RMK AO2 SNE14 P0000
14926KSTC STC20011130232013211/30/01 23:20:31  5-MIN KSTC 010520Z AUTO 25009KT 5SM BR FEW012 BKN044 OVC060 M02/M04 A2973 1200 85 -500 250/09 RMK AO2 SNE14 P0000
14926KSTC STC20011130232513211/30/01 23:25:31  5-MIN KSTC 010525Z AUTO 25007KT 5SM BR FEW012 BKN044 OVC060 M02/M04 A2973 1200 85 -500 250/07 RMK AO2 SNE14 P0000
14926KSTC STC20011130233013211/30/01 23:30:31  5-MIN KSTC 010530Z AUTO 26007KT 5SM BR SCT012 BKN044 OVC060 M02/M04 A2973 1200 85 -500 260/07 RMK AO2 SNE14 P0000
14926KSTC STC20011130233513211/30/01 23:35:31  5-MIN KSTC 010535Z AUTO 26008KT 5SM BR BKN012 BKN044 OVC060 M02/M04 A2973 1200 85 -500 260/08 RMK AO2 SNE14 P0000
14926KSTC STC20011130234012511/30/01 23:40:31  5-MIN KSTC 010540Z AUTO 26007KT 5SM BR BKN012 OVC044 M02/M04 A2973 1200 85 -500 260/07 RMK AO2 SNE14 P0000
14926KSTC STC20011130234513211/30/01 23:45:31  5-MIN KSTC 010545Z AUTO 26008KT 5SM BR BKN012 BKN044 OVC060 M02/M04 A2973 1200 88 -500 250/08 RMK AO2 SNE14 P0000
14926KSTC STC20011130235018311/30/01 23:50:31  5-MIN KSTC 010550Z AUTO 26008KT 5SM BR BKN012 BKN044 OVC055 M02/M04 A2974 1200 88 -500 250/08 RMK AO2 SNE14 SLP091 P0000 60000 T10221039 10000 21022 400061022 53006
14926KSTC STC20011130235511311/30/01 23:55:31  5-MIN KSTC 010555Z AUTO 25007KT 5SM BR BKN012 OVC060 M02/M04 A2974 1190 88 -500 250/07 RMK AO2
