14926KSTC STC20060601000010106/01/06 00:00:35  5-MIN KSTC 010600Z AUTO 21004KT 10SM OVC110 17/14 A3019 780 86 1200 210/04 RMK AO2
14926KSTC STC20060601000510106/01/06 00:05:31  5-MIN KSTC 010605Z AUTO 22004KT 10SM OVC110 17/14 A3019 780 80 1300 220/04 RMK AO2
14926KSTC STC20060601001010106/01/06 00:10:31  5-MIN KSTC 010610Z AUTO 23003KT 10SM OVC110 17/14 A3019 780 86 1200 220/03 RMK AO2
14926KSTC STC20060601001510106/01/06 00:15:31  5-MIN KSTC 010615Z AUTO 22004KT 10SM OVC110 17/14 A3019 780 83 1200 220/04 RMK AO2
14926KSTC STC20060601002010106/01/06 00:20:31  5-MIN KSTC 010620Z AUTO 22004KT 10SM OVC110 17/14 A3018 780 83 1200 210/04 RMK AO2
14926KSTC STC20060601002510106/01/06 00:25:31  5-MIN KSTC 010625Z AUTO 00000KT 10SM BKN110 17/14 A3018 790 83 1200 000/00 RMK AO2
14926KSTC STC20060601003010106/01/06 00:30:31  5-MIN KSTC 010630Z AUTO 22003KT 10SM BKN110 17/14 A3018 780 86 1200 220/03 RMK AO2
14926KSTC STC20060601003510106/01/06 00:35:31  5-MIN KSTC 010635Z AUTO 00000KT 10SM BKN110 17/14 A3019 780 86 1200 000/00 RMK AO2
14926KSTC STC20060601004010106/01/06 00:40:31  5-MIN KSTC 010640Z AUTO 26004KT 10SM BKN110 17/14 A3019 780 86 1200 260/04 RMK AO2
14926KSTC STC20060601004510106/01/06 00:45:31  5-MIN KSTC 010645Z AUTO 30005KT 10SM SCT110 17/14 A3019 780 86 1200 300/05 RMK AO2
14926KSTC STC20060601005011806/01/06 00:50:31  5-MIN KSTC 010650Z AUTO 32006KT 10SM SCT120 16/14 A3019 780 90 1100 320/06 RMK AO2 SLP227 T01610144
14926KSTC STC20060601005510106/01/06 00:55:31  5-MIN KSTC 010655Z AUTO 33006KT 10SM SCT120 16/14 A3018 790 86 1100 320/06 RMK AO2
14926KSTC STC20060601010010106/01/06 01:00:31  5-MIN KSTC 010700Z AUTO 33004KT 10SM FEW120 16/14 A3018 790 86 1100 330/04 RMK AO2
14926KSTC STC20060601010510106/01/06 01:05:31  5-MIN KSTC 010705Z AUTO 33005KT 10SM FEW120 16/14 A3018 790 86 1100 330/05 RMK AO2
14926KSTC STC20060601011010106/01/06 01:10:31  5-MIN KSTC 010710Z AUTO 32007KT 10SM FEW120 16/14 A3018 790 86 1100 320/07 RMK AO2
14926KSTC STC20060601011510106/01/06 01:15:31  5-MIN KSTC 010715Z AUTO 33005KT 10SM FEW120 16/14 A3018 790 86 1100 330/05 RMK AO2
14926KSTC STC20060601012009806/01/06 01:20:31  5-MIN KSTC 010720Z AUTO 34004KT 10SM CLR 16/14 A3017 790 86 1100 340/04 RMK AO2
14926KSTC STC20060601012509806/01/06 01:25:31  5-MIN KSTC 010725Z AUTO VRB03KT 10SM CLR 16/14 A3017 790 90 1100 VRB/03 RMK AO2
14926KSTC STC20060601013009806/01/06 01:30:31  5-MIN KSTC 010730Z AUTO 32005KT 10SM CLR 16/14 A3017 790 90 1100 320/05 RMK AO2
14926KSTC STC20060601013509806/01/06 01:35:31  5-MIN KSTC 010735Z AUTO 33003KT 10SM CLR 16/14 A3017 790 90 1100 330/03 RMK AO2
14926KSTC STC20060601014009806/01/06 01:40:31  5-MIN KSTC 010740Z AUTO 00000KT 10SM CLR 16/14 A3017 790 90 1100 000/00 RMK AO2
14926KSTC STC20060601014509806/01/06 01:45:31  5-MIN KSTC 010745Z AUTO 00000KT 10SM CLR 16/14 A3017 800 90 1200 000/00 RMK AO2
14926KSTC STC20060601015011506/01/06 01:50:31  5-MIN KSTC 010750Z AUTO 00000KT 10SM CLR 16/14 A3017 800 90 1200 000/00 RMK AO2 SLP220 T01610144
14926KSTC STC20060601015509806/01/06 01:55:31  5-MIN KSTC 010755Z AUTO 00000KT 10SM CLR 16/14 A3017 800 90 1200 000/00 RMK AO2
14926KSTC STC20060601020009806/01/06 02:00:31  5-MIN KSTC 010800Z AUTO 00000KT 10SM CLR 16/14 A3016 800 93 1100 000/00 RMK AO2
14926KSTC STC20060601020509806/01/06 02:05:31  5-MIN KSTC 010805Z AUTO 00000KT 10SM CLR 16/14 A3016 810 93 1100 000/00 RMK AO2
14926KSTC STC20060601021009706/01/06 02:10:31  5-MIN KSTC 010810Z AUTO 00000KT 8SM CLR 15/14 A3016 810 96 1000 000/00 RMK AO2
14926KSTC STC20060601021509706/01/06 02:15:31  5-MIN KSTC 010815Z AUTO 14003KT 8SM CLR 15/14 A3016 810 96 1000 140/03 RMK AO2
14926KSTC STC20060601022009706/01/06 02:20:31  5-MIN KSTC 010820Z AUTO 14003KT 7SM CLR 15/14 A3016 810 96 1000 140/03 RMK AO2
14926KSTC STC20060601022510006/01/06 02:25:31  5-MIN KSTC 010825Z AUTO 15005KT 6SM BR CLR 15/14 A3016 810 96 1000 150/05 RMK AO2
14926KSTC STC20060601023010006/01/06 02:30:31  5-MIN KSTC 010830Z AUTO 16005KT 6SM BR CLR 15/14 A3016 810 96 1000 150/05 RMK AO2
14926KSTC STC20060601023510006/01/06 02:35:31  5-MIN KSTC 010835Z AUTO 16003KT 5SM BR CLR 14/14 A3016 800 96 1000 160/03 RMK AO2
14926KSTC STC20060601024010006/01/06 02:40:31  5-MIN KSTC 010840Z AUTO 00000KT 6SM BR CLR 14/14 A3016 810 96 1000 000/00 RMK AO2
14926KSTC STC20060601024509706/01/06 02:45:31  5-MIN KSTC 010845Z AUTO 17004KT 7SM CLR 14/14 A3016 800 96 1000 170/04 RMK AO2
14926KSTC STC20060601025012006/01/06 02:50:31  5-MIN KSTC 010850Z AUTO 00000KT 8SM CLR 14/14 A3016 800 96 1000 000/00 RMK AO2 SLP221 T01440139 51005
14926KSTC STC20060601025509706/01/06 02:55:31  5-MIN KSTC 010855Z AUTO 00000KT 7SM CLR 14/14 A3016 800 96 1000 000/00 RMK AO2
14926KSTC STC20060601030010006/01/06 03:00:31  5-MIN KSTC 010900Z AUTO 00000KT 6SM BR CLR 14/14 A3016 800 96 1000 000/00 RMK AO2
14926KSTC STC20060601030509706/01/06 03:05:31  5-MIN KSTC 010905Z AUTO 00000KT 7SM CLR 15/14 A3016 800 93 1000 000/00 RMK AO2
14926KSTC STC20060601031009706/01/06 03:10:31  5-MIN KSTC 010910Z AUTO 00000KT 8SM CLR 15/14 A3016 800 93 1000 000/00 RMK AO2
14926KSTC STC20060601031509706/01/06 03:15:31  5-MIN KSTC 010915Z AUTO 00000KT 8SM CLR 15/14 A3016 800 93 1000 000/00 RMK AO2
14926KSTC STC20060601032009706/01/06 03:20:31  5-MIN KSTC 010920Z AUTO 00000KT 7SM CLR 14/13 A3016 800 93 1000 000/00 RMK AO2
14926KSTC STC20060601032510006/01/06 03:25:31  5-MIN KSTC 010925Z AUTO 00000KT 6SM BR CLR 14/14 A3016 810 96 1000 000/00 RMK AO2
14926KSTC STC20060601033009906/01/06 03:30:31  5-MIN KSTC 010930Z AUTO 00000KT 5SM BR CLR 14/13 A3016 810 96 900 000/00 RMK AO2
14926KSTC STC20060601033509906/01/06 03:35:31  5-MIN KSTC 010935Z AUTO 00000KT 4SM BR CLR 14/13 A3016 810 96 900 000/00 RMK AO2
14926KSTC STC20060601034009906/01/06 03:40:31  5-MIN KSTC 010940Z AUTO 00000KT 3SM BR CLR 14/13 A3016 810 96 900 000/00 RMK AO2
14926KSTC STC20060601034509906/01/06 03:45:31  5-MIN KSTC 010945Z AUTO 00000KT 3SM BR CLR 14/13 A3016 810 96 900 000/00 RMK AO2
14926KSTC STC20060601035011606/01/06 03:50:31  5-MIN KSTC 010950Z AUTO 00000KT 4SM BR CLR 14/13 A3016 800 96 900 000/00 RMK AO2 SLP221 T01390133
14926KSTC STC20060601035509906/01/06 03:55:31  5-MIN KSTC 010955Z AUTO 00000KT 5SM BR CLR 14/13 A3016 800 96 900 000/00 RMK AO2
14926KSTC STC20060601040009906/01/06 04:00:31  5-MIN KSTC 011000Z AUTO 00000KT 3SM BR CLR 14/13 A3016 800 96 900 000/00 RMK AO2
14926KSTC STC20060601040510306/01/06 04:05:31  5-MIN KSTC 011005Z AUTO 00000KT 2 1/2SM BR CLR 14/13 A3016 800 93 900 000/00 RMK AO2
14926KSTC STC20060601041009906/01/06 04:10:31  5-MIN KSTC 011010Z AUTO 00000KT 3SM BR CLR 14/13 A3017 800 96 900 000/00 RMK AO2
14926KSTC STC20060601041509906/01/06 04:15:31  5-MIN KSTC 011015Z AUTO 00000KT 4SM BR CLR 14/13 A3017 800 96 900 000/00 RMK AO2
14926KSTC STC20060601042011106/01/06 04:20:31  5-MIN KSTC 011020Z AUTO 00000KT 2 1/2SM BR CLR 14/13 A3017 800 96 900 000/00 RMK AO2 VIS 1V4
14926KSTC STC20060601042510706/01/06 04:25:31  5-MIN KSTC 011025Z AUTO 00000KT 2SM BR CLR 14/13 A3016 800 96 900 000/00 RMK AO2 VIS 1V4
14926KSTC STC20060601043011306/01/06 04:30:31  5-MIN KSTC 011030Z AUTO 00000KT 1 1/2SM BR CLR 13/13 A3016 800 96 800 000/00 RMK AO2 VIS 3/4V4
14926KSTC STC20060601043510906/01/06 04:35:31  5-MIN KSTC 011035Z AUTO 00000KT 1SM BR CLR 14/13 A3016 800 96 900 000/00 RMK AO2 VIS 1/4V3
14926KSTC STC20060601044011106/01/06 04:40:31  5-MIN KSTC 011040Z AUTO 00000KT 1/2SM FG CLR 13/13 A3017 800 96 800 000/00 RMK AO2 VIS 1/4V2
14926KSTC STC20060601044509906/01/06 04:45:31  5-MIN KSTC 011045Z AUTO 00000KT 1SM BR CLR 14/13 A3017 800 96 900 000/00 RMK AO2
14926KSTC STC20060601045010006/01/06 04:50:31  5-MIN KSTC 011050Z AUTO 00000KT 3SM BR CLR 14/13 A3017 800 93 1000 000/00 RMK AO2
14926KSTC STC20060601045509906/01/06 04:55:31  5-MIN KSTC 011055Z AUTO 00000KT 3SM BR CLR 14/13 A3017 800 96 900 000/00 RMK AO2
14926KSTC STC20060601050009906/01/06 05:00:31  5-MIN KSTC 011100Z AUTO 32003KT 4SM BR CLR 14/13 A3017 800 96 900 320/03 RMK AO2
14926KSTC STC20060601050509906/01/06 05:05:31  5-MIN KSTC 011105Z AUTO 31003KT 5SM BR CLR 14/13 A3017 800 96 900 300/03 RMK AO2
14926KSTC STC20060601051009906/01/06 05:10:31  5-MIN KSTC 011110Z AUTO 31003KT 4SM BR CLR 14/13 A3017 790 96 900 310/03 RMK AO2
14926KSTC STC20060601051509906/01/06 05:15:31  5-MIN KSTC 011115Z AUTO 32005KT 5SM BR CLR 14/13 A3017 790 96 900 320/05 RMK AO2
14926KSTC STC20060601052009706/01/06 05:20:31  5-MIN KSTC 011120Z AUTO 33004KT 7SM CLR 14/13 A3017 790 90 1000 320/04 RMK AO2
14926KSTC STC20060601052509806/01/06 05:25:31  5-MIN KSTC 011125Z AUTO 33003KT 10SM CLR 14/13 A3017 790 90 1000 320/03 RMK AO2
14926KSTC STC20060601053009706/01/06 05:30:31  5-MIN KSTC 011130Z AUTO 33004KT 10SM CLR 14/13 A3018 790 90 900 330/04 RMK AO2
14926KSTC STC20060601053509706/01/06 05:35:31  5-MIN KSTC 011135Z AUTO 33003KT 10SM CLR 14/13 A3018 790 90 900 320/03 RMK AO2
14926KSTC STC20060601054009806/01/06 05:40:31  5-MIN KSTC 011140Z AUTO 33003KT 10SM CLR 14/13 A3017 790 90 1000 330/03 RMK AO2
14926KSTC STC20060601054509706/01/06 05:45:31  5-MIN KSTC 011145Z AUTO 00000KT 10SM CLR 14/13 A3018 790 90 900 000/00 RMK AO2
14926KSTC STC20060601055013806/01/06 05:50:31  5-MIN KSTC 011150Z AUTO 33005KT 10SM CLR 14/12 A3018 790 86 900 330/05 RMK AO2 SLP227 70012 T01440122 10172 20133 58008
14926KSTC STC20060601055509206/01/06 05:55:31  5-MIN KSTC 011155Z 33004KT 10SM CLR 14/12 A3018 790 86 900 320/04 RMK AO2
14926KSTC STC20060601060009206/01/06 06:00:31  5-MIN KSTC 011200Z 34004KT 10SM CLR 14/12 A3018 790 90 900 330/04 RMK AO2
14926KSTC STC20060601060509206/01/06 06:05:31  5-MIN KSTC 011205Z 33004KT 10SM CLR 14/12 A3018 780 90 900 330/04 RMK AO2
14926KSTC STC20060601061009206/01/06 06:10:31  5-MIN KSTC 011210Z 33004KT 10SM CLR 14/12 A3018 780 86 900 320/04 RMK AO2
14926KSTC STC20060601061509206/01/06 06:15:31  5-MIN KSTC 011215Z 34004KT 10SM CLR 14/12 A3018 790 86 900 340/04 RMK AO2
14926KSTC STC20060601062009306/01/06 06:20:31  5-MIN KSTC 011220Z VRB04KT 10SM CLR 15/13 A3018 790 86 1000 VRB/04 RMK AO2
14926KSTC STC20060601062509306/01/06 06:25:31  5-MIN KSTC 011225Z 34005KT 10SM CLR 15/12 A3018 780 83 1000 340/05 RMK AO2
14926KSTC STC20060601063009306/01/06 06:30:31  5-MIN KSTC 011230Z 34006KT 10SM CLR 15/12 A3018 780 83 1000 340/06 RMK AO2
14926KSTC STC20060601063509306/01/06 06:35:31  5-MIN KSTC 011235Z 34006KT 10SM CLR 16/12 A3018 780 80 1100 340/06 RMK AO2
14926KSTC STC20060601064009306/01/06 06:40:31  5-MIN KSTC 011240Z 35004KT 10SM CLR 16/12 A3019 780 80 1100 350/04 RMK AO2
14926KSTC STC20060601064509306/01/06 06:45:31  5-MIN KSTC 011245Z 34004KT 10SM CLR 16/13 A3019 780 80 1100 340/04 RMK AO2
14926KSTC STC20060601065011006/01/06 06:50:31  5-MIN KSTC 011250Z 34006KT 10SM CLR 16/12 A3019 780 77 1100 340/06 RMK AO2 SLP229 T01610122
14926KSTC STC20060601065509306/01/06 06:55:31  5-MIN KSTC 011255Z 35006KT 10SM CLR 16/12 A3019 780 75 1100 350/06 RMK AO2
14926KSTC STC20060601070009306/01/06 07:00:31  5-MIN KSTC 011300Z 35006KT 10SM CLR 17/12 A3019 780 75 1200 350/06 RMK AO2
14926KSTC STC20060601070509306/01/06 07:05:31  5-MIN KSTC 011305Z 35006KT 10SM CLR 17/12 A3019 780 75 1200 350/06 RMK AO2
14926KSTC STC20060601071009306/01/06 07:10:31  5-MIN KSTC 011310Z 35005KT 10SM CLR 17/12 A3019 780 75 1200 350/05 RMK AO2
14926KSTC STC20060601071509306/01/06 07:15:31  5-MIN KSTC 011315Z 35005KT 10SM CLR 17/12 A3019 770 72 1300 350/05 RMK AO2
14926KSTC STC20060601072009306/01/06 07:20:31  5-MIN KSTC 011320Z 35007KT 10SM CLR 17/12 A3019 770 72 1300 350/07 RMK AO2
14926KSTC STC20060601072509306/01/06 07:25:31  5-MIN KSTC 011325Z 35009KT 10SM CLR 17/12 A3020 770 69 1300 350/09 RMK AO2
14926KSTC STC20060601073009306/01/06 07:30:31  5-MIN KSTC 011330Z 36007KT 10SM CLR 17/12 A3020 770 69 1300 360/07 RMK AO2
14926KSTC STC20060601073509306/01/06 07:35:31  5-MIN KSTC 011335Z 35008KT 10SM CLR 17/12 A3020 770 69 1300 350/08 RMK AO2
14926KSTC STC20060601074009306/01/06 07:40:31  5-MIN KSTC 011340Z 35007KT 10SM CLR 17/12 A3020 770 69 1300 350/07 RMK AO2
14926KSTC STC20060601074509306/01/06 07:45:31  5-MIN KSTC 011345Z 35006KT 10SM CLR 18/12 A3020 770 67 1300 350/06 RMK AO2
14926KSTC STC20060601075011006/01/06 07:50:31  5-MIN KSTC 011350Z 36007KT 10SM CLR 18/12 A3020 770 67 1300 350/07 RMK AO2 SLP233 T01780117
14926KSTC STC20060601075509306/01/06 07:55:31  5-MIN KSTC 011355Z 34006KT 10SM CLR 18/12 A3020 770 67 1400 330/06 RMK AO2
14926KSTC STC20060601080009306/01/06 08:00:31  5-MIN KSTC 011400Z 34007KT 10SM CLR 18/12 A3020 770 65 1400 330/07 RMK AO2
14926KSTC STC20060601080509306/01/06 08:05:31  5-MIN KSTC 011405Z 36006KT 10SM CLR 18/12 A3020 770 65 1400 360/06 RMK AO2
14926KSTC STC20060601081009306/01/06 08:10:31  5-MIN KSTC 011410Z VRB04KT 10SM CLR 19/12 A3019 770 62 1500 VRB/04 RMK AO2
14926KSTC STC20060601081509306/01/06 08:15:31  5-MIN KSTC 011415Z 35005KT 10SM CLR 19/12 A3020 770 62 1500 350/05 RMK AO2
14926KSTC STC20060601082009306/01/06 08:20:31  5-MIN KSTC 011420Z 36004KT 10SM CLR 19/12 A3020 770 65 1400 350/04 RMK AO2
14926KSTC STC20060601082509306/01/06 08:25:31  5-MIN KSTC 011425Z 35005KT 10SM CLR 20/12 A3020 770 60 1600 350/05 RMK AO2
14926KSTC STC20060601083009306/01/06 08:30:31  5-MIN KSTC 011430Z 35007KT 10SM CLR 19/12 A3020 770 62 1500 350/07 RMK AO2
14926KSTC STC20060601083509306/01/06 08:35:31  5-MIN KSTC 011435Z 33007KT 10SM CLR 19/12 A3020 770 62 1500 330/07 RMK AO2
14926KSTC STC20060601084009306/01/06 08:40:31  5-MIN KSTC 011440Z VRB06KT 10SM CLR 19/12 A3020 770 62 1500 VRB/06 RMK AO2
14926KSTC STC20060601084509306/01/06 08:45:31  5-MIN KSTC 011445Z 34005KT 10SM CLR 20/12 A3020 770 60 1600 330/05 RMK AO2
14926KSTC STC20060601085011606/01/06 08:50:31  5-MIN KSTC 011450Z 35006KT 10SM CLR 20/12 A3020 770 60 1600 350/06 RMK AO2 SLP231 T02000122 53006
14926KSTC STC20060601085509306/01/06 08:55:31  5-MIN KSTC 011455Z 35005KT 10SM CLR 20/12 A3020 770 58 1600 340/05 RMK AO2
14926KSTC STC20060601090009306/01/06 09:00:31  5-MIN KSTC 011500Z 35006KT 10SM CLR 21/12 A3020 770 58 1600 340/06 RMK AO2
14926KSTC STC20060601090509306/01/06 09:05:31  5-MIN KSTC 011505Z 01005KT 10SM CLR 21/12 A3020 770 58 1600 360/05 RMK AO2
14926KSTC STC20060601091009306/01/06 09:10:31  5-MIN KSTC 011510Z 32006KT 10SM CLR 21/12 A3019 770 56 1600 320/06 RMK AO2
14926KSTC STC20060601091509306/01/06 09:15:31  5-MIN KSTC 011515Z 34009KT 10SM CLR 21/12 A3019 780 54 1700 330/09 RMK AO2
14926KSTC STC20060601092009306/01/06 09:20:31  5-MIN KSTC 011520Z 35005KT 10SM CLR 21/12 A3019 780 54 1700 340/05 RMK AO2
14926KSTC STC20060601092509306/01/06 09:25:31  5-MIN KSTC 011525Z 01004KT 10SM CLR 22/12 A3019 780 52 1800 360/04 RMK AO2
14926KSTC STC20060601093009306/01/06 09:30:31  5-MIN KSTC 011530Z 33006KT 10SM CLR 22/12 A3019 780 52 1800 330/06 RMK AO2
14926KSTC STC20060601093509306/01/06 09:35:31  5-MIN KSTC 011535Z VRB05KT 10SM CLR 22/11 A3019 780 50 1800 VRB/05 RMK AO2
14926KSTC STC20060601094009306/01/06 09:40:31  5-MIN KSTC 011540Z 36006KT 10SM CLR 22/11 A3019 780 49 1800 360/06 RMK AO2
14926KSTC STC20060601094509306/01/06 09:45:31  5-MIN KSTC 011545Z 33007KT 10SM CLR 22/11 A3019 780 47 1800 330/07 RMK AO2
14926KSTC STC20060601095011006/01/06 09:50:31  5-MIN KSTC 011550Z 34010KT 10SM CLR 22/11 A3019 780 47 1800 330/10 RMK AO2 SLP228 T02220106
14926KSTC STC20060601095509306/01/06 09:55:31  5-MIN KSTC 011555Z 36007KT 10SM CLR 22/10 A3019 780 45 1800 360/07 RMK AO2
14926KSTC STC20060601100009306/01/06 10:00:31  5-MIN KSTC 011600Z 01007KT 10SM CLR 23/10 A3019 780 44 1900 360/07 RMK AO2
14926KSTC STC20060601100509306/01/06 10:05:31  5-MIN KSTC 011605Z 35008KT 10SM CLR 23/10 A3019 780 44 1900 350/08 RMK AO2
14926KSTC STC20060601101009306/01/06 10:10:31  5-MIN KSTC 011610Z 36008KT 10SM CLR 23/10 A3019 780 44 1900 360/08 RMK AO2
14926KSTC STC20060601101509306/01/06 10:15:31  5-MIN KSTC 011615Z 36008KT 10SM CLR 23/10 A3019 780 44 1900 350/08 RMK AO2
14926KSTC STC20060601102009306/01/06 10:20:31  5-MIN KSTC 011620Z 36008KT 10SM CLR 23/10 A3019 780 44 1900 360/08 RMK AO2
14926KSTC STC20060601102510906/01/06 10:25:31  5-MIN KSTC 011625Z 02007KT 350V060 10SM CLR 23/11 A3018 780 44 2000 020/07 350V060 RMK AO2
14926KSTC STC20060601103010906/01/06 10:30:31  5-MIN KSTC 011630Z 35008KT 320V020 10SM CLR 23/10 A3018 780 42 2000 340/08 320V020 RMK AO2
14926KSTC STC20060601103509306/01/06 10:35:31  5-MIN KSTC 011635Z VRB04KT 10SM CLR 23/10 A3018 780 42 2000 VRB/04 RMK AO2
14926KSTC STC20060601104009306/01/06 10:40:31  5-MIN KSTC 011640Z 02006KT 10SM CLR 23/11 A3018 790 44 2000 010/06 RMK AO2
14926KSTC STC20060601104509306/01/06 10:45:31  5-MIN KSTC 011645Z 34004KT 10SM CLR 23/11 A3018 790 44 2000 340/04 RMK AO2
14926KSTC STC20060601105011006/01/06 10:50:31  5-MIN KSTC 011650Z VRB06KT 10SM CLR 24/10 A3018 790 41 2000 VRB/06 RMK AO2 SLP225 T02390100
14926KSTC STC20060601105509306/01/06 10:55:31  5-MIN KSTC 011655Z 36006KT 10SM CLR 23/10 A3018 790 42 2000 360/06 RMK AO2
14926KSTC STC20060601110009306/01/06 11:00:31  5-MIN KSTC 011700Z 36006KT 10SM CLR 24/10 A3018 790 41 2000 350/06 RMK AO2
14926KSTC STC20060601110509306/01/06 11:05:31  5-MIN KSTC 011705Z VRB05KT 10SM CLR 24/10 A3018 790 41 2000 VRB/05 RMK AO2
14926KSTC STC20060601111009306/01/06 11:10:31  5-MIN KSTC 011710Z VRB04KT 10SM CLR 24/09 A3018 790 39 2000 VRB/04 RMK AO2
14926KSTC STC20060601111509306/01/06 11:15:31  5-MIN KSTC 011715Z VRB03KT 10SM CLR 23/09 A3018 790 41 2000 VRB/03 RMK AO2
14926KSTC STC20060601112009306/01/06 11:20:31  5-MIN KSTC 011720Z VRB05KT 10SM CLR 24/09 A3018 790 38 2100 VRB/05 RMK AO2
14926KSTC STC20060601112509306/01/06 11:25:31  5-MIN KSTC 011725Z 34007KT 10SM CLR 24/09 A3017 790 36 2100 340/07 RMK AO2
14926KSTC STC20060601113009306/01/06 11:30:31  5-MIN KSTC 011730Z 32009KT 10SM CLR 24/09 A3017 790 36 2100 310/09 RMK AO2
14926KSTC STC20060601113509306/01/06 11:35:31  5-MIN KSTC 011735Z 34007KT 10SM CLR 24/08 A3017 800 35 2100 340/07 RMK AO2
14926KSTC STC20060601114009306/01/06 11:40:31  5-MIN KSTC 011740Z 35008KT 10SM CLR 25/08 A3017 800 34 2200 350/08 RMK AO2
14926KSTC STC20060601114509306/01/06 11:45:31  5-MIN KSTC 011745Z 01007KT 10SM CLR 25/08 A3017 800 33 2200 010/07 RMK AO2
14926KSTC STC20060601115012806/01/06 11:50:31  5-MIN KSTC 011750Z 03009KT 10SM CLR 25/08 A3016 800 33 2200 020/09 RMK AO2 SLP219 T02500078 10250 20139 50006
14926KSTC STC20060601115509306/01/06 11:55:31  5-MIN KSTC 011755Z VRB06KT 10SM CLR 25/08 A3016 800 33 2200 VRB/06 RMK AO2
14926KSTC STC20060601120009306/01/06 12:00:31  5-MIN KSTC 011800Z 36009KT 10SM CLR 25/08 A3016 800 34 2200 360/09 RMK AO2
14926KSTC STC20060601120509306/01/06 12:05:31  5-MIN KSTC 011805Z VRB06KT 10SM CLR 25/08 A3016 810 33 2200 VRB/06 RMK AO2
14926KSTC STC20060601121009306/01/06 12:10:31  5-MIN KSTC 011810Z 01009KT 10SM CLR 25/08 A3016 810 33 2200 010/09 RMK AO2
14926KSTC STC20060601121509306/01/06 12:15:31  5-MIN KSTC 011815Z VRB06KT 10SM CLR 26/08 A3016 810 33 2300 VRB/06 RMK AO2
14926KSTC STC20060601122009306/01/06 12:20:31  5-MIN KSTC 011820Z 33005KT 10SM CLR 25/08 A3016 810 33 2200 330/05 RMK AO2
14926KSTC STC20060601122509306/01/06 12:25:31  5-MIN KSTC 011825Z VRB04KT 10SM CLR 26/07 A3015 810 30 2300 VRB/04 RMK AO2
14926KSTC STC20060601123009306/01/06 12:30:31  5-MIN KSTC 011830Z 35008KT 10SM CLR 26/08 A3015 810 32 2300 350/08 RMK AO2
14926KSTC STC20060601123509306/01/06 12:35:31  5-MIN KSTC 011835Z 33008KT 10SM CLR 26/08 A3015 810 32 2300 330/08 RMK AO2
14926KSTC STC20060601124009306/01/06 12:40:31  5-MIN KSTC 011840Z VRB03KT 10SM CLR 26/08 A3015 820 32 2300 VRB/03 RMK AO2
14926KSTC STC20060601124509306/01/06 12:45:31  5-MIN KSTC 011845Z 01008KT 10SM CLR 26/07 A3015 820 30 2300 010/08 RMK AO2
14926KSTC STC20060601125011606/01/06 12:50:31  5-MIN KSTC 011850Z 33008G17KT 10SM CLR 26/07 A3015 820 29 2300 330/08G17 RMK AO2 SLP214 T02610072
14926KSTC STC20060601125509906/01/06 12:55:31  5-MIN KSTC 011855Z 32007G17KT 10SM CLR 26/07 A3015 820 30 2300 320/07G17 RMK AO2
14926KSTC STC20060601130009306/01/06 13:00:31  5-MIN KSTC 011900Z 31007KT 10SM CLR 26/07 A3015 820 30 2300 310/07 RMK AO2
14926KSTC STC20060601130509306/01/06 13:05:31  5-MIN KSTC 011905Z 36010KT 10SM CLR 27/07 A3015 820 28 2400 360/10 RMK AO2
14926KSTC STC20060601131009306/01/06 13:10:31  5-MIN KSTC 011910Z 36008KT 10SM CLR 26/07 A3015 820 28 2300 360/08 RMK AO2
14926KSTC STC20060601131509306/01/06 13:15:31  5-MIN KSTC 011915Z 36010KT 10SM CLR 26/07 A3015 820 28 2300 350/10 RMK AO2
14926KSTC STC20060601132009306/01/06 13:20:31  5-MIN KSTC 011920Z 34008KT 10SM CLR 26/07 A3014 820 29 2300 340/08 RMK AO2
14926KSTC STC20060601132509306/01/06 13:25:31  5-MIN KSTC 011925Z 36006KT 10SM CLR 26/08 A3014 820 31 2300 360/06 RMK AO2
14926KSTC STC20060601133009306/01/06 13:30:31  5-MIN KSTC 011930Z 36009KT 10SM CLR 26/08 A3014 820 31 2300 350/09 RMK AO2
14926KSTC STC20060601133509306/01/06 13:35:31  5-MIN KSTC 011935Z VRB06KT 10SM CLR 27/07 A3014 830 27 2400 VRB/06 RMK AO2
14926KSTC STC20060601134009306/01/06 13:40:31  5-MIN KSTC 011940Z 35004KT 10SM CLR 26/07 A3014 830 29 2300 350/04 RMK AO2
14926KSTC STC20060601134509306/01/06 13:45:31  5-MIN KSTC 011945Z 36007KT 10SM CLR 27/07 A3014 830 28 2400 360/07 RMK AO2
14926KSTC STC20060601135011006/01/06 13:50:31  5-MIN KSTC 011950Z 35006KT 10SM CLR 26/07 A3014 830 29 2300 350/06 RMK AO2 SLP209 T02610072
14926KSTC STC20060601135509906/01/06 13:55:31  5-MIN KSTC 011955Z 34011G14KT 10SM CLR 27/07 A3014 830 28 2400 340/11G14 RMK AO2
14926KSTC STC20060601140009906/01/06 14:00:31  5-MIN KSTC 012000Z 34009G14KT 10SM CLR 26/07 A3014 830 28 2300 330/09G14 RMK AO2
14926KSTC STC20060601140509306/01/06 14:05:31  5-MIN KSTC 012005Z 30007KT 10SM CLR 26/07 A3013 830 29 2300 300/07 RMK AO2
14926KSTC STC20060601141009306/01/06 14:10:31  5-MIN KSTC 012010Z 31005KT 10SM CLR 26/07 A3013 830 29 2300 300/05 RMK AO2
14926KSTC STC20060601141510906/01/06 14:15:31  5-MIN KSTC 012015Z 02008KT 300V070 10SM CLR 26/07 A3013 830 28 2300 010/08 300V070 RMK AO2
14926KSTC STC20060601142009906/01/06 14:20:31  5-MIN KSTC 012020Z 30011G14KT 10SM CLR 27/07 A3013 830 28 2400 300/11G14 RMK AO2
14926KSTC STC20060601142509306/01/06 14:25:31  5-MIN KSTC 012025Z 32011KT 10SM CLR 27/07 A3013 830 27 2400 310/11 RMK AO2
14926KSTC STC20060601143009306/01/06 14:30:31  5-MIN KSTC 012030Z 33007KT 10SM CLR 26/07 A3013 830 28 2300 330/07 RMK AO2
14926KSTC STC20060601143509306/01/06 14:35:31  5-MIN KSTC 012035Z 28005KT 10SM CLR 26/07 A3013 840 28 2300 280/05 RMK AO2
14926KSTC STC20060601144010906/01/06 14:40:31  5-MIN KSTC 012040Z 35008KT 310V040 10SM CLR 27/08 A3013 840 29 2500 340/08 310V040 RMK AO2
14926KSTC STC20060601234509806/01/06 23:45:31  5-MIN KSTC 020545Z AUTO 05004KT 10SM CLR 15/11 A3011 850 77 1100 050/04 RMK AO2
14926KSTC STC20060601235014906/01/06 23:50:31  5-MIN KSTC 020550Z AUTO 00000KT 10SM CLR 14/11 A3011 850 77 1000 000/00 RMK AO2 SLP202 60002 T01440106 10261 20128 402780128 51013
14926KSTC STC20060601235509806/01/06 23:55:31  5-MIN KSTC 020555Z AUTO 00000KT 10SM CLR 14/11 A3011 850 77 1000 000/00 RMK AO2
14926KSTC STC20060602000009806/02/06 00:00:32  5-MIN KSTC 020600Z AUTO 00000KT 10SM CLR 14/11 A3011 850 77 1000 000/00 RMK AO2
14926KSTC STC20060602000509806/02/06 00:05:31  5-MIN KSTC 020605Z AUTO 04003KT 10SM CLR 14/11 A3011 850 80 1000 040/03 RMK AO2
14926KSTC STC20060602001009806/02/06 00:10:31  5-MIN KSTC 020610Z AUTO 00000KT 10SM CLR 14/11 A3011 850 80 1000 000/00 RMK AO2
14926KSTC STC20060602001509806/02/06 00:15:31  5-MIN KSTC 020615Z AUTO 00000KT 10SM CLR 14/11 A3011 850 83 1000 000/00 RMK AO2
14926KSTC STC20060602002009706/02/06 00:20:31  5-MIN KSTC 020620Z AUTO 00000KT 10SM CLR 13/11 A3011 850 83 900 000/00 RMK AO2
14926KSTC STC20060602002509706/02/06 00:25:31  5-MIN KSTC 020625Z AUTO 00000KT 10SM CLR 13/11 A3011 850 86 900 000/00 RMK AO2
14926KSTC STC20060602003009706/02/06 00:30:31  5-MIN KSTC 020630Z AUTO 00000KT 10SM CLR 13/11 A3011 850 89 800 000/00 RMK AO2
14926KSTC STC20060602003509706/02/06 00:35:31  5-MIN KSTC 020635Z AUTO 00000KT 10SM CLR 13/11 A3011 850 86 900 000/00 RMK AO2
14926KSTC STC20060602004009706/02/06 00:40:31  5-MIN KSTC 020640Z AUTO 00000KT 10SM CLR 12/11 A3011 850 93 800 000/00 RMK AO2
14926KSTC STC20060602004509706/02/06 00:45:31  5-MIN KSTC 020645Z AUTO 00000KT 10SM CLR 12/11 A3011 850 89 800 000/00 RMK AO2
14926KSTC STC20060602005011406/02/06 00:50:31  5-MIN KSTC 020650Z AUTO 00000KT 10SM CLR 12/11 A3011 850 89 800 000/00 RMK AO2 SLP202 T01220106
14926KSTC STC20060602005510006/02/06 00:55:31  5-MIN KSTC 020655Z AUTO 00000KT 10SM FEW120 12/11 A3011 850 89 800 000/00 RMK AO2
14926KSTC STC20060602010010006/02/06 01:00:31  5-MIN KSTC 020700Z AUTO 05003KT 10SM FEW120 12/11 A3011 850 93 800 050/03 RMK AO2
14926KSTC STC20060602010510006/02/06 01:05:31  5-MIN KSTC 020705Z AUTO 06004KT 10SM SCT120 13/11 A3011 860 89 800 060/04 RMK AO2
14926KSTC STC20060602011010006/02/06 01:10:31  5-MIN KSTC 020710Z AUTO 07003KT 10SM BKN120 12/11 A3010 860 93 800 060/03 RMK AO2
14926KSTC STC20060602011510006/02/06 01:15:31  5-MIN KSTC 020715Z AUTO 07004KT 10SM BKN120 12/11 A3010 860 93 800 070/04 RMK AO2
14926KSTC STC20060602012010006/02/06 01:20:31  5-MIN KSTC 020720Z AUTO 07003KT 10SM BKN120 12/11 A3010 860 93 800 070/03 RMK AO2
14926KSTC STC20060602012510006/02/06 01:25:31  5-MIN KSTC 020725Z AUTO 00000KT 10SM OVC120 13/11 A3010 860 86 800 000/00 RMK AO2
14926KSTC STC20060602013010006/02/06 01:30:31  5-MIN KSTC 020730Z AUTO 00000KT 10SM OVC120 13/11 A3010 860 83 900 000/00 RMK AO2
14926KSTC STC20060602013510006/02/06 01:35:31  5-MIN KSTC 020735Z AUTO 00000KT 10SM OVC120 13/11 A3010 860 83 900 000/00 RMK AO2
14926KSTC STC20060602014010106/02/06 01:40:31  5-MIN KSTC 020740Z AUTO 00000KT 10SM OVC120 14/11 A3010 860 80 1000 000/00 RMK AO2
14926KSTC STC20060602014510106/02/06 01:45:31  5-MIN KSTC 020745Z AUTO 00000KT 10SM OVC120 14/11 A3010 860 77 1000 000/00 RMK AO2
14926KSTC STC20060602015011806/02/06 01:50:31  5-MIN KSTC 020750Z AUTO 00000KT 10SM OVC110 14/11 A3011 860 80 1000 000/00 RMK AO2 SLP200 T01390106
14926KSTC STC20060602015510106/02/06 01:55:31  5-MIN KSTC 020755Z AUTO 00000KT 10SM OVC110 14/11 A3011 860 80 1000 000/00 RMK AO2
14926KSTC STC20060602020010106/02/06 02:00:31  5-MIN KSTC 020800Z AUTO 22003KT 10SM OVC110 14/11 A3010 860 80 1000 220/03 RMK AO2
14926KSTC STC20060602020510006/02/06 02:05:31  5-MIN KSTC 020805Z AUTO 00000KT 10SM OVC110 13/11 A3010 860 89 800 000/00 RMK AO2
14926KSTC STC20060602021010006/02/06 02:10:31  5-MIN KSTC 020810Z AUTO 22003KT 10SM OVC110 13/11 A3010 860 89 800 220/03 RMK AO2
14926KSTC STC20060602021510006/02/06 02:15:31  5-MIN KSTC 020815Z AUTO 00000KT 10SM OVC110 13/11 A3010 860 89 800 000/00 RMK AO2
14926KSTC STC20060602022010006/02/06 02:20:31  5-MIN KSTC 020820Z AUTO 00000KT 10SM OVC110 13/11 A3010 860 89 800 000/00 RMK AO2
14926KSTC STC20060602022510006/02/06 02:25:31  5-MIN KSTC 020825Z AUTO 00000KT 10SM OVC110 13/11 A3010 860 89 800 000/00 RMK AO2
14926KSTC STC20060602023010006/02/06 02:30:31  5-MIN KSTC 020830Z AUTO 00000KT 10SM OVC110 13/11 A3010 860 89 800 000/00 RMK AO2
14926KSTC STC20060602023510006/02/06 02:35:31  5-MIN KSTC 020835Z AUTO 04003KT 10SM BKN110 12/11 A3010 860 89 800 040/03 RMK AO2
14926KSTC STC20060602024010006/02/06 02:40:31  5-MIN KSTC 020840Z AUTO 00000KT 10SM BKN110 12/11 A3010 860 93 700 000/00 RMK AO2
14926KSTC STC20060602024510006/02/06 02:45:31  5-MIN KSTC 020845Z AUTO 00000KT 10SM BKN110 12/11 A3010 860 89 800 000/00 RMK AO2
14926KSTC STC20060602025012306/02/06 02:50:31  5-MIN KSTC 020850Z AUTO 00000KT 10SM BKN110 13/11 A3010 860 89 800 000/00 RMK AO2 SLP199 T01280111 55000
14926KSTC STC20060602025510006/02/06 02:55:31  5-MIN KSTC 020855Z AUTO 00000KT 10SM BKN110 12/11 A3010 860 93 800 000/00 RMK AO2
14926KSTC STC20060602030010006/02/06 03:00:31  5-MIN KSTC 020900Z AUTO 00000KT 10SM BKN110 12/11 A3010 860 93 800 000/00 RMK AO2
14926KSTC STC20060602030510006/02/06 03:05:31  5-MIN KSTC 020905Z AUTO 00000KT 10SM BKN110 12/11 A3010 860 93 800 000/00 RMK AO2
14926KSTC STC20060602031010006/02/06 03:10:31  5-MIN KSTC 020910Z AUTO 00000KT 10SM BKN110 12/11 A3010 860 93 800 000/00 RMK AO2
14926KSTC STC20060602031510006/02/06 03:15:31  5-MIN KSTC 020915Z AUTO 00000KT 10SM OVC110 12/11 A3010 860 93 800 000/00 RMK AO2
14926KSTC STC20060602032010006/02/06 03:20:31  5-MIN KSTC 020920Z AUTO 00000KT 10SM OVC110 12/11 A3011 860 93 800 000/00 RMK AO2
14926KSTC STC20060602032510006/02/06 03:25:31  5-MIN KSTC 020925Z AUTO 00000KT 10SM OVC110 12/11 A3011 850 93 800 000/00 RMK AO2
14926KSTC STC20060602033010006/02/06 03:30:31  5-MIN KSTC 020930Z AUTO 00000KT 10SM OVC110 12/11 A3011 850 93 700 000/00 RMK AO2
14926KSTC STC20060602033510006/02/06 03:35:31  5-MIN KSTC 020935Z AUTO 00000KT 10SM BKN110 12/11 A3011 850 93 800 000/00 RMK AO2
14926KSTC STC20060602034010006/02/06 03:40:31  5-MIN KSTC 020940Z AUTO 00000KT 10SM BKN110 12/11 A3011 850 93 800 000/00 RMK AO2
14926KSTC STC20060602034510006/02/06 03:45:31  5-MIN KSTC 020945Z AUTO 00000KT 10SM BKN110 12/11 A3011 850 93 800 000/00 RMK AO2
14926KSTC STC20060602035011706/02/06 03:50:31  5-MIN KSTC 020950Z AUTO 03005KT 10SM BKN110 11/10 A3011 850 93 600 020/05 RMK AO2 SLP203 T01110100
14926KSTC STC20060602035510006/02/06 03:55:31  5-MIN KSTC 020955Z AUTO 03003KT 10SM BKN110 12/11 A3011 850 93 700 030/03 RMK AO2
14926KSTC STC20060602040010006/02/06 04:00:31  5-MIN KSTC 021000Z AUTO 05004KT 10SM SCT110 12/11 A3011 850 93 700 040/04 RMK AO2
14926KSTC STC20060602040510006/02/06 04:05:31  5-MIN KSTC 021005Z AUTO 05004KT 10SM SCT110 12/11 A3011 850 93 700 050/04 RMK AO2
14926KSTC STC20060602041010006/02/06 04:10:31  5-MIN KSTC 021010Z AUTO 05003KT 10SM SCT100 12/11 A3011 850 93 700 050/03 RMK AO2
14926KSTC STC20060602041510006/02/06 04:15:31  5-MIN KSTC 021015Z AUTO 05004KT 10SM SCT110 12/10 A3011 850 89 700 050/04 RMK AO2
14926KSTC STC20060602042010006/02/06 04:20:31  5-MIN KSTC 021020Z AUTO 05003KT 10SM SCT110 11/10 A3011 850 93 600 050/03 RMK AO2
14926KSTC STC20060602042510006/02/06 04:25:31  5-MIN KSTC 021025Z AUTO 00000KT 10SM SCT110 12/10 A3011 850 89 700 000/00 RMK AO2
14926KSTC STC20060602043010006/02/06 04:30:31  5-MIN KSTC 021030Z AUTO 00000KT 10SM FEW100 12/10 A3011 850 89 700 000/00 RMK AO2
14926KSTC STC20060602043510006/02/06 04:35:31  5-MIN KSTC 021035Z AUTO 00000KT 10SM SCT110 12/10 A3011 850 89 700 000/00 RMK AO2
14926KSTC STC20060602044010006/02/06 04:40:31  5-MIN KSTC 021040Z AUTO 00000KT 10SM FEW110 11/10 A3011 850 93 600 000/00 RMK AO2
14926KSTC STC20060602044510006/02/06 04:45:31  5-MIN KSTC 021045Z AUTO 00000KT 10SM FEW110 11/10 A3011 850 93 600 000/00 RMK AO2
14926KSTC STC20060602045011706/02/06 04:50:31  5-MIN KSTC 021050Z AUTO 00000KT 10SM FEW110 12/11 A3011 850 93 700 000/00 RMK AO2 SLP202 T01170106
14926KSTC STC20060602045510006/02/06 04:55:31  5-MIN KSTC 021055Z AUTO 00000KT 10SM FEW110 11/11 A3011 850 96 600 000/00 RMK AO2
14926KSTC STC20060602050010006/02/06 05:00:31  5-MIN KSTC 021100Z AUTO 00000KT 10SM FEW110 11/10 A3011 850 93 600 000/00 RMK AO2
14926KSTC STC20060602050509706/02/06 05:05:31  5-MIN KSTC 021105Z AUTO 00000KT 10SM CLR 11/10 A3012 850 93 600 000/00 RMK AO2
14926KSTC STC20060602051009706/02/06 05:10:31  5-MIN KSTC 021110Z AUTO 00000KT 10SM CLR 11/10 A3011 850 93 600 000/00 RMK AO2
14926KSTC STC20060602051509706/02/06 05:15:31  5-MIN KSTC 021115Z AUTO 00000KT 10SM CLR 11/10 A3011 850 93 600 000/00 RMK AO2
14926KSTC STC20060602052009706/02/06 05:20:31  5-MIN KSTC 021120Z AUTO 00000KT 10SM CLR 11/10 A3012 850 93 600 000/00 RMK AO2
14926KSTC STC20060602052509706/02/06 05:25:31  5-MIN KSTC 021125Z AUTO 00000KT 10SM CLR 12/11 A3012 850 93 700 000/00 RMK AO2
14926KSTC STC20060602053009706/02/06 05:30:31  5-MIN KSTC 021130Z AUTO 00000KT 10SM CLR 12/11 A3012 840 93 700 000/00 RMK AO2
14926KSTC STC20060602053509706/02/06 05:35:31  5-MIN KSTC 021135Z AUTO 00000KT 10SM CLR 12/11 A3012 840 93 700 000/00 RMK AO2
14926KSTC STC20060602054009706/02/06 05:40:31  5-MIN KSTC 021140Z AUTO 00000KT 10SM CLR 12/11 A3012 840 93 800 000/00 RMK AO2
14926KSTC STC20060602054509706/02/06 05:45:31  5-MIN KSTC 021145Z AUTO 00000KT 10SM CLR 13/11 A3012 840 89 800 000/00 RMK AO2
14926KSTC STC20060602055013806/02/06 05:50:31  5-MIN KSTC 021150Z AUTO 00000KT 10SM CLR 13/11 A3012 850 86 900 000/00 RMK AO2 SLP204 70002 T01330111 10150 20111 58003
14926KSTC STC20060602055509706/02/06 05:55:31  5-MIN KSTC 021155Z AUTO 00000KT 10SM CLR 13/11 A3012 840 86 900 000/00 RMK AO2
14926KSTC STC20060602060009206/02/06 06:00:31  5-MIN KSTC 021200Z 00000KT 10SM CLR 14/12 A3012 840 86 900 000/00 RMK AO2
14926KSTC STC20060602060509306/02/06 06:05:31  5-MIN KSTC 021205Z 00000KT 10SM CLR 14/12 A3012 840 83 1000 000/00 RMK AO2
14926KSTC STC20060602061009306/02/06 06:10:31  5-MIN KSTC 021210Z 00000KT 10SM CLR 14/12 A3012 840 83 1000 000/00 RMK AO2
14926KSTC STC20060602061509606/02/06 06:15:31  5-MIN KSTC 021215Z 00000KT 10SM FEW110 15/12 A3012 840 80 1100 000/00 RMK AO2
14926KSTC STC20060602062009606/02/06 06:20:31  5-MIN KSTC 021220Z 00000KT 10SM FEW100 15/12 A3012 840 80 1100 000/00 RMK AO2
14926KSTC STC20060602062509606/02/06 06:25:31  5-MIN KSTC 021225Z 00000KT 10SM FEW110 16/12 A3012 840 77 1100 000/00 RMK AO2
14926KSTC STC20060602063009606/02/06 06:30:31  5-MIN KSTC 021230Z 00000KT 10SM FEW110 16/12 A3012 840 77 1100 000/00 RMK AO2
14926KSTC STC20060602063509606/02/06 06:35:31  5-MIN KSTC 021235Z 00000KT 10SM FEW110 16/12 A3012 840 77 1200 000/00 RMK AO2
14926KSTC STC20060602064009606/02/06 06:40:31  5-MIN KSTC 021240Z 00000KT 10SM FEW110 16/12 A3012 840 77 1200 000/00 RMK AO2
14926KSTC STC20060602064509606/02/06 06:45:31  5-MIN KSTC 021245Z 00000KT 10SM FEW110 17/12 A3012 840 75 1300 000/00 RMK AO2
14926KSTC STC20060602065011306/02/06 06:50:31  5-MIN KSTC 021250Z 00000KT 10SM FEW110 17/12 A3012 840 75 1300 000/00 RMK AO2 SLP204 T01670122
14926KSTC STC20060602065509306/02/06 06:55:31  5-MIN KSTC 021255Z 00000KT 10SM CLR 17/12 A3012 840 75 1300 000/00 RMK AO2
14926KSTC STC20060602070009306/02/06 07:00:31  5-MIN KSTC 021300Z 00000KT 10SM CLR 17/13 A3012 840 75 1300 000/00 RMK AO2
14926KSTC STC20060602070509306/02/06 07:05:31  5-MIN KSTC 021305Z 00000KT 10SM CLR 18/13 A3012 840 72 1400 000/00 RMK AO2
14926KSTC STC20060602071009306/02/06 07:10:31  5-MIN KSTC 021310Z 00000KT 10SM CLR 18/12 A3012 840 69 1400 000/00 RMK AO2
14926KSTC STC20060602071509306/02/06 07:15:31  5-MIN KSTC 021315Z 00000KT 10SM CLR 18/13 A3012 840 72 1400 000/00 RMK AO2
14926KSTC STC20060602072009306/02/06 07:20:31  5-MIN KSTC 021320Z 00000KT 10SM CLR 18/13 A3012 840 70 1500 000/00 RMK AO2
14926KSTC STC20060602072509306/02/06 07:25:31  5-MIN KSTC 021325Z 00000KT 10SM CLR 19/13 A3012 840 67 1500 000/00 RMK AO2
14926KSTC STC20060602073009306/02/06 07:30:31  5-MIN KSTC 021330Z 22003KT 10SM CLR 18/13 A3012 840 70 1500 210/03 RMK AO2
14926KSTC STC20060602073509306/02/06 07:35:31  5-MIN KSTC 021335Z 20004KT 10SM CLR 19/13 A3012 840 67 1500 190/04 RMK AO2
14926KSTC STC20060602074009306/02/06 07:40:31  5-MIN KSTC 021340Z VRB03KT 10SM CLR 19/13 A3012 840 65 1600 VRB/03 RMK AO2
14926KSTC STC20060602074509306/02/06 07:45:31  5-MIN KSTC 021345Z 22004KT 10SM CLR 19/13 A3012 840 65 1600 210/04 RMK AO2
14926KSTC STC20060602075011006/02/06 07:50:31  5-MIN KSTC 021350Z 00000KT 10SM CLR 20/13 A3012 840 63 1700 000/00 RMK AO2 SLP206 T02000128
14926KSTC STC20060602075509306/02/06 07:55:31  5-MIN KSTC 021355Z 15003KT 10SM CLR 20/13 A3012 840 63 1700 150/03 RMK AO2
14926KSTC STC20060602080009306/02/06 08:00:31  5-MIN KSTC 021400Z VRB03KT 10SM CLR 21/12 A3012 840 58 1700 VRB/03 RMK AO2
14926KSTC STC20060602080509306/02/06 08:05:31  5-MIN KSTC 021405Z 13004KT 10SM CLR 20/12 A3012 840 60 1700 130/04 RMK AO2
14926KSTC STC20060602081009306/02/06 08:10:31  5-MIN KSTC 021410Z 00000KT 10SM CLR 21/12 A3012 840 58 1700 000/00 RMK AO2
14926KSTC STC20060602081509306/02/06 08:15:31  5-MIN KSTC 021415Z 13003KT 10SM CLR 21/12 A3012 840 58 1700 130/03 RMK AO2
14926KSTC STC20060602082009306/02/06 08:20:31  5-MIN KSTC 021420Z 12003KT 10SM CLR 21/12 A3012 840 56 1800 110/03 RMK AO2
14926KSTC STC20060602082509306/02/06 08:25:31  5-MIN KSTC 021425Z 00000KT 10SM CLR 21/12 A3012 840 54 1800 000/00 RMK AO2
14926KSTC STC20060602083009306/02/06 08:30:31  5-MIN KSTC 021430Z 15004KT 10SM CLR 21/11 A3012 840 52 1800 140/04 RMK AO2
14926KSTC STC20060602083509306/02/06 08:35:31  5-MIN KSTC 021435Z 00000KT 10SM CLR 22/11 A3012 840 49 1800 000/00 RMK AO2
14926KSTC STC20060602084009306/02/06 08:40:31  5-MIN KSTC 021440Z 00000KT 10SM CLR 22/11 A3012 840 49 1900 000/00 RMK AO2
14926KSTC STC20060602084509306/02/06 08:45:31  5-MIN KSTC 021445Z VRB04KT 10SM CLR 22/11 A3012 840 49 1900 VRB/04 RMK AO2
14926KSTC STC20060602085011606/02/06 08:50:31  5-MIN KSTC 021450Z VRB03KT 10SM CLR 22/11 A3012 840 47 1900 VRB/03 RMK AO2 SLP204 T02220106 51005
14926KSTC STC20060602085509306/02/06 08:55:31  5-MIN KSTC 021455Z 05004KT 10SM CLR 22/11 A3012 850 47 1900 050/04 RMK AO2
14926KSTC STC20060602090009306/02/06 09:00:31  5-MIN KSTC 021500Z 13004KT 10SM CLR 23/11 A3011 850 45 2000 120/04 RMK AO2
14926KSTC STC20060602090509306/02/06 09:05:31  5-MIN KSTC 021505Z VRB06KT 10SM CLR 23/11 A3011 850 45 2000 VRB/06 RMK AO2
14926KSTC STC20060602091009306/02/06 09:10:31  5-MIN KSTC 021510Z 07006KT 10SM CLR 23/11 A3011 850 45 2000 070/06 RMK AO2
14926KSTC STC20060602091509306/02/06 09:15:31  5-MIN KSTC 021515Z VRB04KT 10SM CLR 23/11 A3011 850 47 2000 VRB/04 RMK AO2
14926KSTC STC20060602092009306/02/06 09:20:31  5-MIN KSTC 021520Z 09007KT 10SM CLR 23/11 A3011 850 45 2100 090/07 RMK AO2
14926KSTC STC20060602092509306/02/06 09:25:31  5-MIN KSTC 021525Z 09005KT 10SM CLR 23/11 A3011 850 44 2100 090/05 RMK AO2
14926KSTC STC20060602093009306/02/06 09:30:31  5-MIN KSTC 021530Z VRB05KT 10SM CLR 23/11 A3011 850 44 2100 VRB/05 RMK AO2
14926KSTC STC20060602093509306/02/06 09:35:31  5-MIN KSTC 021535Z VRB06KT 10SM CLR 23/10 A3011 850 42 2100 VRB/06 RMK AO2
14926KSTC STC20060602094009306/02/06 09:40:31  5-MIN KSTC 021540Z VRB04KT 10SM CLR 23/11 A3011 850 44 2100 VRB/04 RMK AO2
14926KSTC STC20060602094509306/02/06 09:45:31  5-MIN KSTC 021545Z VRB04KT 10SM CLR 24/11 A3010 860 42 2100 VRB/04 RMK AO2
14926KSTC STC20060602095011006/02/06 09:50:31  5-MIN KSTC 021550Z 11005KT 10SM CLR 24/11 A3010 860 42 2100 100/05 RMK AO2 SLP199 T02390106
14926KSTC STC20060602095509306/02/06 09:55:31  5-MIN KSTC 021555Z VRB04KT 10SM CLR 24/10 A3010 860 41 2100 VRB/04 RMK AO2
14926KSTC STC20060602100009306/02/06 10:00:31  5-MIN KSTC 021600Z VRB06KT 10SM CLR 24/11 A3010 860 41 2200 VRB/06 RMK AO2
14926KSTC STC20060602100509306/02/06 10:05:31  5-MIN KSTC 021605Z 07005KT 10SM CLR 24/10 A3010 860 39 2200 060/05 RMK AO2
14926KSTC STC20060602101009306/02/06 10:10:31  5-MIN KSTC 021610Z VRB03KT 10SM CLR 24/10 A3010 860 41 2100 VRB/03 RMK AO2
14926KSTC STC20060602101509306/02/06 10:15:31  5-MIN KSTC 021615Z 00000KT 10SM CLR 24/10 A3010 860 39 2200 000/00 RMK AO2
14926KSTC STC20060602102009306/02/06 10:20:31  5-MIN KSTC 021620Z VRB05KT 10SM CLR 24/10 A3010 860 39 2200 VRB/05 RMK AO2
14926KSTC STC20060602102510906/02/06 10:25:31  5-MIN KSTC 021625Z 07007KT 040V100 10SM CLR 25/10 A3010 860 38 2300 070/07 040V100 RMK AO2
14926KSTC STC20060602103009306/02/06 10:30:31  5-MIN KSTC 021630Z 07006KT 10SM CLR 24/10 A3010 860 39 2200 070/06 RMK AO2
14926KSTC STC20060602103509306/02/06 10:35:31  5-MIN KSTC 021635Z 05007KT 10SM CLR 24/10 A3010 860 39 2200 050/07 RMK AO2
14926KSTC STC20060602104009306/02/06 10:40:31  5-MIN KSTC 021640Z VRB03KT 10SM CLR 25/09 A3010 860 37 2300 VRB/03 RMK AO2
14926KSTC STC20060602104509306/02/06 10:45:31  5-MIN KSTC 021645Z VRB04KT 10SM CLR 25/09 A3010 860 37 2300 VRB/04 RMK AO2
14926KSTC STC20060602105011006/02/06 10:50:31  5-MIN KSTC 021650Z 07006KT 10SM CLR 25/10 A3010 860 38 2300 070/06 RMK AO2 SLP199 T02500100
14926KSTC STC20060602105509306/02/06 10:55:31  5-MIN KSTC 021655Z 00000KT 10SM CLR 25/10 A3010 860 38 2300 000/00 RMK AO2
14926KSTC STC20060602110009306/02/06 11:00:31  5-MIN KSTC 021700Z VRB04KT 10SM CLR 26/11 A3010 860 38 2300 VRB/04 RMK AO2
14926KSTC STC20060602110509306/02/06 11:05:31  5-MIN KSTC 021705Z 06007KT 10SM CLR 26/10 A3010 860 37 2300 050/07 RMK AO2
14926KSTC STC20060602111009306/02/06 11:10:31  5-MIN KSTC 021710Z VRB03KT 10SM CLR 25/09 A3010 870 37 2300 VRB/03 RMK AO2
14926KSTC STC20060602111509306/02/06 11:15:31  5-MIN KSTC 021715Z 00000KT 10SM CLR 24/09 A3009 870 38 2200 000/00 RMK AO2
14926KSTC STC20060602112009306/02/06 11:20:31  5-MIN KSTC 021720Z 24004KT 10SM CLR 24/09 A3009 870 38 2200 240/04 RMK AO2
14926KSTC STC20060602112509306/02/06 11:25:31  5-MIN KSTC 021725Z VRB05KT 10SM CLR 26/10 A3009 870 37 2300 VRB/05 RMK AO2
14926KSTC STC20060602113009306/02/06 11:30:31  5-MIN KSTC 021730Z VRB06KT 10SM CLR 26/10 A3009 870 36 2400 VRB/06 RMK AO2
14926KSTC STC20060602113509306/02/06 11:35:31  5-MIN KSTC 021735Z 00000KT 10SM CLR 26/10 A3009 870 36 2400 000/00 RMK AO2
14926KSTC STC20060602114009306/02/06 11:40:31  5-MIN KSTC 021740Z 00000KT 10SM CLR 26/10 A3009 870 37 2300 000/00 RMK AO2
14926KSTC STC20060602114509306/02/06 11:45:31  5-MIN KSTC 021745Z VRB04KT 10SM CLR 26/10 A3009 870 36 2400 VRB/04 RMK AO2
14926KSTC STC20060602115012806/02/06 11:50:31  5-MIN KSTC 021750Z VRB03KT 10SM CLR 26/09 A3009 870 34 2400 VRB/03 RMK AO2 SLP194 T02610094 10261 20133 58000
14926KSTC STC20060602115509306/02/06 11:55:31  5-MIN KSTC 021755Z VRB05KT 10SM CLR 26/10 A3009 870 36 2400 VRB/05 RMK AO2
14926KSTC STC20060602120009306/02/06 12:00:31  5-MIN KSTC 021800Z 02008KT 10SM CLR 26/09 A3009 870 34 2400 020/08 RMK AO2
14926KSTC STC20060602120509306/02/06 12:05:31  5-MIN KSTC 021805Z VRB04KT 10SM CLR 25/09 A3009 870 37 2300 VRB/04 RMK AO2
14926KSTC STC20060602121009306/02/06 12:10:31  5-MIN KSTC 021810Z VRB03KT 10SM CLR 25/09 A3009 870 37 2300 VRB/03 RMK AO2
14926KSTC STC20060602121509306/02/06 12:15:31  5-MIN KSTC 021815Z VRB03KT 10SM CLR 26/09 A3009 870 34 2400 VRB/03 RMK AO2
14926KSTC STC20060602122009306/02/06 12:20:31  5-MIN KSTC 021820Z VRB03KT 10SM CLR 26/09 A3009 870 34 2400 VRB/03 RMK AO2
14926KSTC STC20060602122509606/02/06 12:25:31  5-MIN KSTC 021825Z 08006KT 10SM FEW065 27/10 A3009 870 34 2500 070/06 RMK AO2
14926KSTC STC20060602123009606/02/06 12:30:31  5-MIN KSTC 021830Z VRB03KT 10SM FEW065 25/09 A3008 870 37 2300 VRB/03 RMK AO2
14926KSTC STC20060602123509606/02/06 12:35:31  5-MIN KSTC 021835Z VRB06KT 10SM FEW065 26/09 A3008 880 35 2300 VRB/06 RMK AO2
14926KSTC STC20060602124009606/02/06 12:40:31  5-MIN KSTC 021840Z 06008KT 10SM FEW065 26/09 A3008 880 34 2400 060/08 RMK AO2
14926KSTC STC20060602124509606/02/06 12:45:31  5-MIN KSTC 021845Z 06006KT 10SM FEW065 27/10 A3008 880 34 2500 060/06 RMK AO2
14926KSTC STC20060602125011306/02/06 12:50:31  5-MIN KSTC 021850Z VRB05KT 10SM FEW065 27/09 A3008 880 33 2500 VRB/05 RMK AO2 SLP191 T02670094
14926KSTC STC20060602125509606/02/06 12:55:31  5-MIN KSTC 021855Z VRB04KT 10SM FEW065 26/09 A3008 880 34 2400 VRB/04 RMK AO2
14926KSTC STC20060602130009606/02/06 13:00:31  5-MIN KSTC 021900Z VRB05KT 10SM FEW065 27/09 A3008 880 33 2500 VRB/05 RMK AO2
14926KSTC STC20060602130509606/02/06 13:05:31  5-MIN KSTC 021905Z VRB04KT 10SM SCT065 26/10 A3008 880 36 2400 VRB/04 RMK AO2
14926KSTC STC20060602131009606/02/06 13:10:31  5-MIN KSTC 021910Z VRB04KT 10SM SCT065 27/09 A3008 880 33 2500 VRB/04 RMK AO2
14926KSTC STC20060602131509606/02/06 13:15:31  5-MIN KSTC 021915Z 01006KT 10SM FEW065 27/09 A3008 880 32 2500 010/06 RMK AO2
14926KSTC STC20060602132009606/02/06 13:20:31  5-MIN KSTC 021920Z 05005KT 10SM FEW065 27/09 A3008 880 32 2500 040/05 RMK AO2
14926KSTC STC20060602132509606/02/06 13:25:31  5-MIN KSTC 021925Z VRB04KT 10SM FEW070 27/10 A3008 880 33 2500 VRB/04 RMK AO2
14926KSTC STC20060602133009606/02/06 13:30:31  5-MIN KSTC 021930Z VRB04KT 10SM FEW070 27/09 A3008 880 32 2500 VRB/04 RMK AO2
14926KSTC STC20060602133509306/02/06 13:35:31  5-MIN KSTC 021935Z 32006KT 10SM CLR 27/09 A3007 890 31 2500 320/06 RMK AO2
14926KSTC STC20060602134009306/02/06 13:40:31  5-MIN KSTC 021940Z VRB06KT 10SM CLR 27/09 A3007 880 31 2500 VRB/06 RMK AO2
14926KSTC STC20060602134509606/02/06 13:45:31  5-MIN KSTC 021945Z 29007KT 10SM FEW070 28/08 A3007 890 29 2600 290/07 RMK AO2
14926KSTC STC20060602135011306/02/06 13:50:31  5-MIN KSTC 021950Z 26005KT 10SM FEW070 27/08 A3007 890 31 2500 260/05 RMK AO2 SLP187 T02670083
14926KSTC STC20060602135509306/02/06 13:55:31  5-MIN KSTC 021955Z VRB05KT 10SM CLR 28/09 A3007 890 30 2600 VRB/05 RMK AO2
14926KSTC STC20060602140009306/02/06 14:00:31  5-MIN KSTC 022000Z 00000KT 10SM CLR 28/09 A3007 890 29 2700 000/00 RMK AO2
14926KSTC STC20060602140509606/02/06 14:05:31  5-MIN KSTC 022005Z 32009KT 10SM FEW075 28/09 A3007 890 30 2600 320/09 RMK AO2
14926KSTC STC20060602141009606/02/06 14:10:31  5-MIN KSTC 022010Z 34006KT 10SM FEW075 26/08 A3007 890 32 2400 340/06 RMK AO2
14926KSTC STC20060602141509606/02/06 14:15:31  5-MIN KSTC 022015Z 34007KT 10SM FEW070 26/09 A3007 890 33 2400 340/07 RMK AO2
14926KSTC STC20060602142009606/02/06 14:20:31  5-MIN KSTC 022020Z 35006KT 10SM FEW070 27/09 A3007 890 31 2500 350/06 RMK AO2
14926KSTC STC20060602142509606/02/06 14:25:31  5-MIN KSTC 022025Z 33005KT 10SM FEW075 28/09 A3006 890 30 2600 330/05 RMK AO2
14926KSTC STC20060602143009606/02/06 14:30:31  5-MIN KSTC 022030Z 30005KT 10SM FEW070 27/09 A3006 900 31 2500 300/05 RMK AO2
14926KSTC STC20060602143509606/02/06 14:35:31  5-MIN KSTC 022035Z 00000KT 10SM FEW070 27/09 A3006 900 31 2500 000/00 RMK AO2
14926KSTC STC20060602144009606/02/06 14:40:31  5-MIN KSTC 022040Z 19003KT 10SM FEW075 27/08 A3006 900 31 2500 190/03 RMK AO2
14926KSTC STC20060602144509606/02/06 14:45:31  5-MIN KSTC 022045Z VRB06KT 10SM FEW080 27/09 A3006 900 31 2600 VRB/06 RMK AO2
14926KSTC STC20060602145011906/02/06 14:50:31  5-MIN KSTC 022050Z 02005KT 10SM FEW080 28/09 A3006 900 31 2600 020/05 RMK AO2 SLP182 T02780094 56009
14926KSTC STC20060602145509306/02/06 14:55:31  5-MIN KSTC 022055Z 01007KT 10SM CLR 28/09 A3005 900 31 2600 360/07 RMK AO2
14926KSTC STC20060602150009806/02/06 15:00:31  5-MIN KSTC 022100Z AUTO 05007KT 10SM CLR 28/09 A3005 900 30 2600 050/07 RMK AO2
14926KSTC STC20060602150509806/02/06 15:05:31  5-MIN KSTC 022105Z AUTO 04005KT 10SM CLR 28/09 A3005 900 30 2600 040/05 RMK AO2
14926KSTC STC20060602151010106/02/06 15:10:31  5-MIN KSTC 022110Z AUTO VRB04KT 10SM FEW080 28/09 A3005 910 30 2600 VRB/04 RMK AO2
14926KSTC STC20060602151510106/02/06 15:15:31  5-MIN KSTC 022115Z AUTO VRB03KT 10SM FEW080 28/09 A3005 910 31 2600 VRB/03 RMK AO2
14926KSTC STC20060602152010106/02/06 15:20:31  5-MIN KSTC 022120Z AUTO VRB06KT 10SM SCT075 28/09 A3005 910 30 2600 VRB/06 RMK AO2
14926KSTC STC20060602152510106/02/06 15:25:31  5-MIN KSTC 022125Z AUTO 03008KT 10SM BKN075 28/09 A3005 910 31 2600 030/08 RMK AO2
14926KSTC STC20060602153010106/02/06 15:30:31  5-MIN KSTC 022130Z AUTO 05007KT 10SM BKN075 28/09 A3005 910 31 2600 050/07 RMK AO2
14926KSTC STC20060602153510106/02/06 15:35:31  5-MIN KSTC 022135Z AUTO 08008KT 10SM SCT075 27/09 A3005 910 32 2600 080/08 RMK AO2
14926KSTC STC20060602154010106/02/06 15:40:31  5-MIN KSTC 022140Z AUTO VRB04KT 10SM SCT075 28/09 A3005 910 30 2600 VRB/04 RMK AO2
14926KSTC STC20060602154510106/02/06 15:45:31  5-MIN KSTC 022145Z AUTO 34005KT 10SM SCT070 28/09 A3004 910 30 2600 340/05 RMK AO2
14926KSTC STC20060602155011806/02/06 15:50:31  5-MIN KSTC 022150Z AUTO 35008KT 10SM FEW070 28/09 A3004 910 30 2600 350/08 RMK AO2 SLP179 T02780089
14926KSTC STC20060602155510106/02/06 15:55:31  5-MIN KSTC 022155Z AUTO 05007KT 10SM FEW085 28/09 A3004 910 31 2600 050/07 RMK AO2
14926KSTC STC20060602160010106/02/06 16:00:31  5-MIN KSTC 022200Z AUTO 04007KT 10SM FEW080 28/10 A3004 910 31 2700 040/07 RMK AO2
14926KSTC STC20060602160510106/02/06 16:05:31  5-MIN KSTC 022205Z AUTO 36007KT 10SM FEW080 28/09 A3004 910 31 2600 360/07 RMK AO2
14926KSTC STC20060602161010106/02/06 16:10:31  5-MIN KSTC 022210Z AUTO 35005KT 10SM FEW080 27/09 A3004 910 31 2600 350/05 RMK AO2
14926KSTC STC20060602161510106/02/06 16:15:31  5-MIN KSTC 022215Z AUTO VRB03KT 10SM FEW080 28/09 A3004 920 31 2600 VRB/03 RMK AO2
14926KSTC STC20060602162009606/02/06 16:20:31  5-MIN KSTC 022220Z 01006KT 10SM FEW080 28/09 A3004 920 30 2700 010/06 RMK AO2
14926KSTC STC20060602162509606/02/06 16:25:31  5-MIN KSTC 022225Z 35005KT 10SM FEW080 27/08 A3004 920 30 2600 350/05 RMK AO2
14926KSTC STC20060602163009306/02/06 16:30:31  5-MIN KSTC 022230Z VRB06KT 10SM CLR 28/09 A3004 920 30 2600 VRB/06 RMK AO2
14926KSTC STC20060602163510906/02/06 16:35:31  5-MIN KSTC 022235Z 02007KT 350V070 10SM CLR 28/09 A3004 920 31 2600 010/07 350V070 RMK AO2
14926KSTC STC20060602164009306/02/06 16:40:31  5-MIN KSTC 022240Z 05006KT 10SM CLR 27/09 A3004 920 31 2600 050/06 RMK AO2
14926KSTC STC20060602164509306/02/06 16:45:31  5-MIN KSTC 022245Z 03006KT 10SM CLR 27/09 A3004 920 31 2600 030/06 RMK AO2
14926KSTC STC20060602165011006/02/06 16:50:31  5-MIN KSTC 022250Z VRB04KT 10SM CLR 27/09 A3004 920 32 2500 VRB/04 RMK AO2 SLP177 T02670089
14926KSTC STC20060602165509306/02/06 16:55:31  5-MIN KSTC 022255Z 36006KT 10SM CLR 27/09 A3004 920 31 2600 360/06 RMK AO2
14926KSTC STC20060602170009306/02/06 17:00:31  5-MIN KSTC 022300Z VRB05KT 10SM CLR 27/09 A3004 920 31 2600 VRB/05 RMK AO2
14926KSTC STC20060602170509306/02/06 17:05:31  5-MIN KSTC 022305Z 36006KT 10SM CLR 27/09 A3004 920 31 2600 360/06 RMK AO2
14926KSTC STC20060602171009306/02/06 17:10:31  5-MIN KSTC 022310Z 03007KT 10SM CLR 26/09 A3004 920 33 2400 030/07 RMK AO2
14926KSTC STC20060602171509306/02/06 17:15:31  5-MIN KSTC 022315Z 36007KT 10SM CLR 27/09 A3004 920 31 2600 360/07 RMK AO2
14926KSTC STC20060602172009306/02/06 17:20:31  5-MIN KSTC 022320Z 04005KT 10SM CLR 27/08 A3004 920 30 2600 040/05 RMK AO2
14926KSTC STC20060602172509306/02/06 17:25:31  5-MIN KSTC 022325Z 02004KT 10SM CLR 27/08 A3003 920 31 2500 020/04 RMK AO2
14926KSTC STC20060602173009606/02/06 17:30:31  5-MIN KSTC 022330Z 03006KT 10SM FEW075 27/08 A3003 920 30 2600 020/06 RMK AO2
14926KSTC STC20060602173509606/02/06 17:35:31  5-MIN KSTC 022335Z 01004KT 10SM SCT075 27/08 A3003 920 30 2600 010/04 RMK AO2
14926KSTC STC20060602174009606/02/06 17:40:31  5-MIN KSTC 022340Z VRB04KT 10SM SCT075 27/08 A3003 920 30 2600 VRB/04 RMK AO2
14926KSTC STC20060602174509606/02/06 17:45:31  5-MIN KSTC 022345Z 05004KT 10SM FEW075 27/08 A3003 920 30 2600 050/04 RMK AO2
14926KSTC STC20060602175013106/02/06 17:50:31  5-MIN KSTC 022350Z 02006KT 10SM FEW075 27/09 A3003 920 31 2600 020/06 RMK AO2 SLP173 T02720089 10283 20250 58011
14926KSTC STC20060602175509606/02/06 17:55:31  5-MIN KSTC 022355Z 02007KT 10SM FEW075 27/09 A3003 920 32 2500 020/07 RMK AO2
14926KSTC STC20060602180009606/02/06 18:00:31  5-MIN KSTC 030000Z 02007KT 10SM FEW075 27/09 A3003 920 32 2500 020/07 RMK AO2
14926KSTC STC20060602180509606/02/06 18:05:31  5-MIN KSTC 030005Z 03006KT 10SM FEW080 27/09 A3003 920 32 2500 020/06 RMK AO2
14926KSTC STC20060602181009606/02/06 18:10:31  5-MIN KSTC 030010Z 03007KT 10SM SCT080 26/09 A3003 920 33 2500 030/07 RMK AO2
14926KSTC STC20060602181509606/02/06 18:15:31  5-MIN KSTC 030015Z 04006KT 10SM SCT080 26/09 A3003 920 33 2500 040/06 RMK AO2
14926KSTC STC20060602182009606/02/06 18:20:31  5-MIN KSTC 030020Z 04006KT 10SM SCT080 26/09 A3003 920 33 2500 040/06 RMK AO2
14926KSTC STC20060602182509606/02/06 18:25:31  5-MIN KSTC 030025Z 04006KT 10SM BKN080 26/09 A3003 920 33 2500 040/06 RMK AO2
14926KSTC STC20060602183009606/02/06 18:30:31  5-MIN KSTC 030030Z 03007KT 10SM SCT080 26/09 A3003 920 34 2500 030/07 RMK AO2
14926KSTC STC20060602183509606/02/06 18:35:31  5-MIN KSTC 030035Z 04008KT 10SM SCT080 26/09 A3003 920 35 2400 030/08 RMK AO2
14926KSTC STC20060602184009606/02/06 18:40:31  5-MIN KSTC 030040Z 04006KT 10SM FEW080 26/09 A3003 920 35 2400 030/06 RMK AO2
14926KSTC STC20060602184509606/02/06 18:45:31  5-MIN KSTC 030045Z 04006KT 10SM FEW080 26/09 A3003 920 35 2400 040/06 RMK AO2
14926KSTC STC20060602185011006/02/06 18:50:31  5-MIN KSTC 030050Z 04006KT 10SM CLR 26/09 A3003 920 35 2400 040/06 RMK AO2 SLP174 T02560094
14926KSTC STC20060602185509306/02/06 18:55:31  5-MIN KSTC 030055Z 04007KT 10SM CLR 25/09 A3003 920 37 2300 040/07 RMK AO2
14926KSTC STC20060602190009306/02/06 19:00:31  5-MIN KSTC 030100Z 04005KT 10SM CLR 25/09 A3003 920 37 2300 040/05 RMK AO2
14926KSTC STC20060602190509306/02/06 19:05:31  5-MIN KSTC 030105Z 04005KT 10SM CLR 25/10 A3003 920 38 2300 040/05 RMK AO2
14926KSTC STC20060602191009306/02/06 19:10:31  5-MIN KSTC 030110Z 04007KT 10SM CLR 24/09 A3003 920 38 2300 040/07 RMK AO2
14926KSTC STC20060602191509306/02/06 19:15:31  5-MIN KSTC 030115Z 05005KT 10SM CLR 24/09 A3003 920 38 2300 040/05 RMK AO2
14926KSTC STC20060602192009306/02/06 19:20:31  5-MIN KSTC 030120Z 05004KT 10SM CLR 24/10 A3003 920 41 2200 050/04 RMK AO2
14926KSTC STC20060602192509306/02/06 19:25:31  5-MIN KSTC 030125Z 05005KT 10SM CLR 24/10 A3003 930 41 2200 050/05 RMK AO2
14926KSTC STC20060602193009306/02/06 19:30:31  5-MIN KSTC 030130Z 05005KT 10SM CLR 23/10 A3003 930 42 2100 050/05 RMK AO2
14926KSTC STC20060602193509306/02/06 19:35:31  5-MIN KSTC 030135Z 06005KT 10SM CLR 23/10 A3003 930 42 2100 060/05 RMK AO2
14926KSTC STC20060602194009306/02/06 19:40:31  5-MIN KSTC 030140Z 06004KT 10SM CLR 23/10 A3003 930 44 2100 050/04 RMK AO2
14926KSTC STC20060602194509306/02/06 19:45:31  5-MIN KSTC 030145Z 06004KT 10SM CLR 23/10 A3003 930 44 2100 050/04 RMK AO2
14926KSTC STC20060602195011006/02/06 19:50:31  5-MIN KSTC 030150Z 07003KT 10SM CLR 22/10 A3003 930 45 2000 070/03 RMK AO2 SLP173 T02220100
14926KSTC STC20060602195509306/02/06 19:55:31  5-MIN KSTC 030155Z 06003KT 10SM CLR 22/10 A3003 930 45 2000 050/03 RMK AO2
14926KSTC STC20060602200009306/02/06 20:00:31  5-MIN KSTC 030200Z 06003KT 10SM CLR 22/10 A3003 930 47 2000 050/03 RMK AO2
14926KSTC STC20060602200509306/02/06 20:05:31  5-MIN KSTC 030205Z 05003KT 10SM CLR 22/10 A3003 930 47 2000 050/03 RMK AO2
14926KSTC STC20060602201009306/02/06 20:10:31  5-MIN KSTC 030210Z 06003KT 10SM CLR 22/10 A3003 930 47 2000 060/03 RMK AO2
14926KSTC STC20060602201509306/02/06 20:15:31  5-MIN KSTC 030215Z 07003KT 10SM CLR 22/10 A3003 920 47 2000 060/03 RMK AO2
14926KSTC STC20060602202009306/02/06 20:20:31  5-MIN KSTC 030220Z 06003KT 10SM CLR 21/11 A3003 920 50 1900 060/03 RMK AO2
14926KSTC STC20060602202509306/02/06 20:25:31  5-MIN KSTC 030225Z 05003KT 10SM CLR 21/11 A3003 920 52 1800 050/03 RMK AO2
14926KSTC STC20060602203009306/02/06 20:30:31  5-MIN KSTC 030230Z 00000KT 10SM CLR 21/11 A3004 920 52 1800 000/00 RMK AO2
14926KSTC STC20060602203509306/02/06 20:35:31  5-MIN KSTC 030235Z 06003KT 10SM CLR 20/11 A3004 920 54 1800 050/03 RMK AO2
14926KSTC STC20060602204009306/02/06 20:40:31  5-MIN KSTC 030240Z 00000KT 10SM CLR 20/11 A3004 920 54 1800 000/00 RMK AO2
14926KSTC STC20060602204509306/02/06 20:45:31  5-MIN KSTC 030245Z 00000KT 10SM CLR 21/11 A3004 910 52 1800 000/00 RMK AO2
14926KSTC STC20060602205011606/02/06 20:50:31  5-MIN KSTC 030250Z 00000KT 10SM CLR 19/11 A3004 910 58 1600 000/00 RMK AO2 SLP178 T01890106 56008
14926KSTC STC20060602205509306/02/06 20:55:31  5-MIN KSTC 030255Z 17004KT 10SM CLR 17/12 A3005 910 69 1400 170/04 RMK AO2
14926KSTC STC20060602210009306/02/06 21:00:31  5-MIN KSTC 030300Z 00000KT 10SM CLR 17/12 A3005 910 69 1400 000/00 RMK AO2
14926KSTC STC20060602210509306/02/06 21:05:31  5-MIN KSTC 030305Z 00000KT 10SM CLR 17/12 A3005 910 69 1400 000/00 RMK AO2
14926KSTC STC20060602211009306/02/06 21:10:31  5-MIN KSTC 030310Z 00000KT 10SM CLR 19/12 A3005 910 62 1600 000/00 RMK AO2
14926KSTC STC20060602211509306/02/06 21:15:31  5-MIN KSTC 030315Z 00000KT 10SM CLR 18/12 A3005 910 65 1500 000/00 RMK AO2
14926KSTC STC20060602212009306/02/06 21:20:31  5-MIN KSTC 030320Z 00000KT 10SM CLR 18/12 A3005 910 67 1500 000/00 RMK AO2
14926KSTC STC20060602212509306/02/06 21:25:31  5-MIN KSTC 030325Z 00000KT 10SM CLR 18/11 A3005 910 64 1500 000/00 RMK AO2
14926KSTC STC20060602213009306/02/06 21:30:31  5-MIN KSTC 030330Z 00000KT 10SM CLR 18/11 A3005 910 64 1500 000/00 RMK AO2
14926KSTC STC20060602213509306/02/06 21:35:31  5-MIN KSTC 030335Z 00000KT 10SM CLR 17/11 A3005 910 67 1400 000/00 RMK AO2
14926KSTC STC20060602214009306/02/06 21:40:31  5-MIN KSTC 030340Z 00000KT 10SM CLR 17/11 A3005 910 69 1400 000/00 RMK AO2
14926KSTC STC20060602214509306/02/06 21:45:31  5-MIN KSTC 030345Z 00000KT 10SM CLR 18/11 A3005 910 64 1500 000/00 RMK AO2
14926KSTC STC20060602215011006/02/06 21:50:31  5-MIN KSTC 030350Z 00000KT 10SM CLR 17/11 A3005 910 69 1400 000/00 RMK AO2 SLP179 T01670111
14926KSTC STC20060602215509806/02/06 21:55:31  5-MIN KSTC 030355Z AUTO 00000KT 10SM CLR 16/11 A3004 910 72 1300 000/00 RMK AO2
14926KSTC STC20060602220009806/02/06 22:00:31  5-MIN KSTC 030400Z AUTO 00000KT 10SM CLR 16/11 A3004 910 69 1300 000/00 RMK AO2
14926KSTC STC20060602220509806/02/06 22:05:31  5-MIN KSTC 030405Z AUTO 00000KT 10SM CLR 16/11 A3004 910 69 1300 000/00 RMK AO2
14926KSTC STC20060602221009806/02/06 22:10:31  5-MIN KSTC 030410Z AUTO 00000KT 10SM CLR 16/11 A3004 920 69 1300 000/00 RMK AO2
14926KSTC STC20060602221509806/02/06 22:15:31  5-MIN KSTC 030415Z AUTO 00000KT 10SM CLR 16/11 A3004 920 72 1200 000/00 RMK AO2
14926KSTC STC20060602222009806/02/06 22:20:31  5-MIN KSTC 030420Z AUTO 00000KT 10SM CLR 15/11 A3004 920 74 1200 000/00 RMK AO2
14926KSTC STC20060602222509806/02/06 22:25:31  5-MIN KSTC 030425Z AUTO 00000KT 10SM CLR 16/11 A3004 910 72 1200 000/00 RMK AO2
14926KSTC STC20060602223009806/02/06 22:30:31  5-MIN KSTC 030430Z AUTO 00000KT 10SM CLR 15/11 A3004 910 74 1200 000/00 RMK AO2
14926KSTC STC20060602223509806/02/06 22:35:31  5-MIN KSTC 030435Z AUTO 00000KT 10SM CLR 16/11 A3004 910 72 1200 000/00 RMK AO2
14926KSTC STC20060602224009806/02/06 22:40:31  5-MIN KSTC 030440Z AUTO 00000KT 10SM CLR 16/11 A3004 920 74 1200 000/00 RMK AO2
14926KSTC STC20060602224509806/02/06 22:45:31  5-MIN KSTC 030445Z AUTO 00000KT 10SM CLR 15/11 A3004 920 77 1200 000/00 RMK AO2
14926KSTC STC20060602225011506/02/06 22:50:31  5-MIN KSTC 030450Z AUTO 00000KT 10SM CLR 15/11 A3004 920 77 1200 000/00 RMK AO2 SLP178 T01500111
14926KSTC STC20060602225509806/02/06 22:55:31  5-MIN KSTC 030455Z AUTO 00000KT 10SM CLR 15/11 A3004 910 77 1200 000/00 RMK AO2
14926KSTC STC20060602230009806/02/06 23:00:31  5-MIN KSTC 030500Z AUTO 00000KT 10SM CLR 15/11 A3004 920 77 1200 000/00 RMK AO2
14926KSTC STC20060602230509806/02/06 23:05:31  5-MIN KSTC 030505Z AUTO 00000KT 10SM CLR 14/11 A3004 920 80 1100 000/00 RMK AO2
14926KSTC STC20060602231009806/02/06 23:10:31  5-MIN KSTC 030510Z AUTO 00000KT 10SM CLR 13/11 A3004 920 86 1000 000/00 RMK AO2
14926KSTC STC20060602231509806/02/06 23:15:31  5-MIN KSTC 030515Z AUTO 00000KT 10SM CLR 14/11 A3004 920 83 1000 000/00 RMK AO2
14926KSTC STC20060602232009806/02/06 23:20:31  5-MIN KSTC 030520Z AUTO 00000KT 10SM CLR 14/11 A3004 920 80 1100 000/00 RMK AO2
14926KSTC STC20060602232509806/02/06 23:25:31  5-MIN KSTC 030525Z AUTO 00000KT 10SM CLR 14/11 A3004 920 83 1000 000/00 RMK AO2
14926KSTC STC20060602233009806/02/06 23:30:31  5-MIN KSTC 030530Z AUTO 00000KT 10SM CLR 14/11 A3004 920 83 1000 000/00 RMK AO2
14926KSTC STC20060602233509806/02/06 23:35:31  5-MIN KSTC 030535Z AUTO 00000KT 10SM CLR 13/11 A3004 920 83 1000 000/00 RMK AO2
14926KSTC STC20060602234009806/02/06 23:40:31  5-MIN KSTC 030540Z AUTO 00000KT 10SM CLR 13/11 A3004 920 83 1000 000/00 RMK AO2
14926KSTC STC20060602234509806/02/06 23:45:31  5-MIN KSTC 030545Z AUTO 00000KT 10SM CLR 13/11 A3004 920 86 1000 000/00 RMK AO2
14926KSTC STC20060602235014306/02/06 23:50:31  5-MIN KSTC 030550Z AUTO 00000KT 10SM CLR 13/11 A3004 920 86 1000 000/00 RMK AO2 SLP176 T01330111 10267 20133 402830111 53004
14926KSTC STC20060602235509806/02/06 23:55:31  5-MIN KSTC 030555Z AUTO 00000KT 10SM CLR 14/11 A3004 920 83 1000 000/00 RMK AO2
14926KSTC STC20060603000009806/03/06 00:00:32  5-MIN KSTC 030600Z AUTO 00000KT 10SM CLR 14/11 A3004 920 80 1000 000/00 RMK AO2
14926KSTC STC20060603000509806/03/06 00:05:31  5-MIN KSTC 030605Z AUTO 00000KT 10SM CLR 14/11 A3004 920 80 1000 000/00 RMK AO2
14926KSTC STC20060603001009806/03/06 00:10:31  5-MIN KSTC 030610Z AUTO 00000KT 10SM CLR 13/11 A3004 920 86 1000 000/00 RMK AO2
14926KSTC STC20060603001509806/03/06 00:15:31  5-MIN KSTC 030615Z AUTO 00000KT 10SM CLR 13/11 A3003 920 86 1000 000/00 RMK AO2
14926KSTC STC20060603002009806/03/06 00:20:31  5-MIN KSTC 030620Z AUTO 00000KT 10SM CLR 13/11 A3004 920 86 1000 000/00 RMK AO2
14926KSTC STC20060603002509706/03/06 00:25:31  5-MIN KSTC 030625Z AUTO 00000KT 10SM CLR 13/11 A3004 920 89 900 000/00 RMK AO2
14926KSTC STC20060603003009706/03/06 00:30:31  5-MIN KSTC 030630Z AUTO 00000KT 10SM CLR 13/11 A3004 920 86 900 000/00 RMK AO2
14926KSTC STC20060603003509706/03/06 00:35:31  5-MIN KSTC 030635Z AUTO 00000KT 10SM CLR 13/11 A3004 920 89 900 000/00 RMK AO2
14926KSTC STC20060603004009706/03/06 00:40:31  5-MIN KSTC 030640Z AUTO 00000KT 10SM CLR 13/11 A3004 920 89 900 000/00 RMK AO2
14926KSTC STC20060603004509706/03/06 00:45:31  5-MIN KSTC 030645Z AUTO 00000KT 10SM CLR 13/11 A3004 920 89 900 000/00 RMK AO2
14926KSTC STC20060603005011406/03/06 00:50:31  5-MIN KSTC 030650Z AUTO 00000KT 10SM CLR 13/11 A3004 920 89 900 000/00 RMK AO2 SLP177 T01280111
14926KSTC STC20060603005509706/03/06 00:55:31  5-MIN KSTC 030655Z AUTO 00000KT 10SM CLR 13/11 A3004 920 89 900 000/00 RMK AO2
14926KSTC STC20060603010009806/03/06 01:00:31  5-MIN KSTC 030700Z AUTO 00000KT 10SM CLR 13/11 A3004 920 86 1000 000/00 RMK AO2
14926KSTC STC20060603010509706/03/06 01:05:31  5-MIN KSTC 030705Z AUTO 00000KT 10SM CLR 13/11 A3004 920 89 900 000/00 RMK AO2
14926KSTC STC20060603011009706/03/06 01:10:31  5-MIN KSTC 030710Z AUTO 00000KT 10SM CLR 13/11 A3004 910 89 900 000/00 RMK AO2
14926KSTC STC20060603011509706/03/06 01:15:31  5-MIN KSTC 030715Z AUTO 00000KT 10SM CLR 13/11 A3004 920 89 900 000/00 RMK AO2
14926KSTC STC20060603012009706/03/06 01:20:31  5-MIN KSTC 030720Z AUTO 00000KT 10SM CLR 13/11 A3004 920 89 900 000/00 RMK AO2
14926KSTC STC20060603012509706/03/06 01:25:31  5-MIN KSTC 030725Z AUTO 00000KT 10SM CLR 13/11 A3004 920 89 900 000/00 RMK AO2
14926KSTC STC20060603013009706/03/06 01:30:31  5-MIN KSTC 030730Z AUTO 00000KT 10SM CLR 12/11 A3004 920 93 800 000/00 RMK AO2
14926KSTC STC20060603013509706/03/06 01:35:31  5-MIN KSTC 030735Z AUTO 00000KT 10SM CLR 12/11 A3004 920 93 800 000/00 RMK AO2
14926KSTC STC20060603014009706/03/06 01:40:31  5-MIN KSTC 030740Z AUTO 00000KT 10SM CLR 12/11 A3004 920 93 800 000/00 RMK AO2
14926KSTC STC20060603014509706/03/06 01:45:31  5-MIN KSTC 030745Z AUTO 00000KT 10SM CLR 12/11 A3004 920 93 800 000/00 RMK AO2
14926KSTC STC20060603015011406/03/06 01:50:31  5-MIN KSTC 030750Z AUTO 00000KT 10SM CLR 12/11 A3004 910 89 800 000/00 RMK AO2 SLP178 T01220106
14926KSTC STC20060603015509706/03/06 01:55:31  5-MIN KSTC 030755Z AUTO 00000KT 10SM CLR 12/11 A3004 910 93 800 000/00 RMK AO2
14926KSTC STC20060603020009706/03/06 02:00:31  5-MIN KSTC 030800Z AUTO 00000KT 10SM CLR 12/11 A3004 910 93 800 000/00 RMK AO2
14926KSTC STC20060603020509706/03/06 02:05:31  5-MIN KSTC 030805Z AUTO 00000KT 10SM CLR 12/11 A3004 920 93 800 000/00 RMK AO2
14926KSTC STC20060603021009706/03/06 02:10:31  5-MIN KSTC 030810Z AUTO 00000KT 10SM CLR 12/11 A3004 920 89 800 000/00 RMK AO2
14926KSTC STC20060603021509706/03/06 02:15:31  5-MIN KSTC 030815Z AUTO 00000KT 10SM CLR 12/11 A3004 920 89 800 000/00 RMK AO2
14926KSTC STC20060603022009706/03/06 02:20:31  5-MIN KSTC 030820Z AUTO 00000KT 10SM CLR 12/11 A3004 920 89 800 000/00 RMK AO2
14926KSTC STC20060603022509706/03/06 02:25:31  5-MIN KSTC 030825Z AUTO 00000KT 10SM CLR 12/11 A3004 910 93 800 000/00 RMK AO2
14926KSTC STC20060603023009706/03/06 02:30:31  5-MIN KSTC 030830Z AUTO 00000KT 10SM CLR 12/11 A3004 910 93 800 000/00 RMK AO2
14926KSTC STC20060603023509706/03/06 02:35:31  5-MIN KSTC 030835Z AUTO 00000KT 10SM CLR 12/11 A3004 910 89 800 000/00 RMK AO2
14926KSTC STC20060603024009706/03/06 02:40:31  5-MIN KSTC 030840Z AUTO 00000KT 10SM CLR 12/11 A3004 910 89 800 000/00 RMK AO2
14926KSTC STC20060603024509706/03/06 02:45:31  5-MIN KSTC 030845Z AUTO 00000KT 10SM CLR 12/11 A3004 910 89 800 000/00 RMK AO2
14926KSTC STC20060603025012006/03/06 02:50:31  5-MIN KSTC 030850Z AUTO 00000KT 10SM CLR 12/11 A3004 910 93 800 000/00 RMK AO2 SLP179 T01170106 58002
14926KSTC STC20060603025509706/03/06 02:55:31  5-MIN KSTC 030855Z AUTO 00000KT 10SM CLR 12/11 A3005 910 93 800 000/00 RMK AO2
14926KSTC STC20060603030009706/03/06 03:00:31  5-MIN KSTC 030900Z AUTO 00000KT 10SM CLR 12/10 A3005 910 89 800 000/00 RMK AO2
14926KSTC STC20060603030509706/03/06 03:05:31  5-MIN KSTC 030905Z AUTO 00000KT 10SM CLR 12/10 A3005 910 89 800 000/00 RMK AO2
14926KSTC STC20060603031009706/03/06 03:10:31  5-MIN KSTC 030910Z AUTO 00000KT 10SM CLR 12/11 A3005 910 93 800 000/00 RMK AO2
14926KSTC STC20060603031509706/03/06 03:15:31  5-MIN KSTC 030915Z AUTO 00000KT 10SM CLR 11/10 A3005 910 93 700 000/00 RMK AO2
14926KSTC STC20060603032009706/03/06 03:20:31  5-MIN KSTC 030920Z AUTO 00000KT 10SM CLR 12/10 A3005 910 89 800 000/00 RMK AO2
14926KSTC STC20060603032509706/03/06 03:25:31  5-MIN KSTC 030925Z AUTO 00000KT 10SM CLR 11/10 A3005 910 93 700 000/00 RMK AO2
14926KSTC STC20060603033009706/03/06 03:30:31  5-MIN KSTC 030930Z AUTO 00000KT 10SM CLR 12/10 A3005 910 89 800 000/00 RMK AO2
14926KSTC STC20060603033509706/03/06 03:35:31  5-MIN KSTC 030935Z AUTO 00000KT 10SM CLR 11/10 A3005 910 93 700 000/00 RMK AO2
14926KSTC STC20060603034009706/03/06 03:40:31  5-MIN KSTC 030940Z AUTO 00000KT 10SM CLR 12/10 A3005 910 89 800 000/00 RMK AO2
14926KSTC STC20060603034509706/03/06 03:45:31  5-MIN KSTC 030945Z AUTO 00000KT 10SM CLR 11/09 A3005 900 89 700 000/00 RMK AO2
14926KSTC STC20060603035011406/03/06 03:50:31  5-MIN KSTC 030950Z AUTO 00000KT 10SM CLR 11/09 A3005 900 93 600 000/00 RMK AO2 SLP182 T01060094
14926KSTC STC20060603035509706/03/06 03:55:31  5-MIN KSTC 030955Z AUTO 00000KT 10SM CLR 11/10 A3005 900 93 700 000/00 RMK AO2
14926KSTC STC20060603040009706/03/06 04:00:31  5-MIN KSTC 031000Z AUTO 00000KT 10SM CLR 11/10 A3005 900 96 600 000/00 RMK AO2
14926KSTC STC20060603040509706/03/06 04:05:31  5-MIN KSTC 031005Z AUTO 00000KT 10SM CLR 11/09 A3005 900 93 600 000/00 RMK AO2
14926KSTC STC20060603041009706/03/06 04:10:31  5-MIN KSTC 031010Z AUTO 07003KT 10SM CLR 11/10 A3005 910 96 600 070/03 RMK AO2
14926KSTC STC20060603041509706/03/06 04:15:31  5-MIN KSTC 031015Z AUTO 09003KT 10SM CLR 11/10 A3005 900 93 700 090/03 RMK AO2
14926KSTC STC20060603042009706/03/06 04:20:31  5-MIN KSTC 031020Z AUTO 00000KT 10SM CLR 12/10 A3005 900 89 800 000/00 RMK AO2
14926KSTC STC20060603042509706/03/06 04:25:31  5-MIN KSTC 031025Z AUTO 10003KT 10SM CLR 11/09 A3005 900 93 600 100/03 RMK AO2
14926KSTC STC20060603043009706/03/06 04:30:31  5-MIN KSTC 031030Z AUTO 09004KT 10SM CLR 11/09 A3005 900 93 600 090/04 RMK AO2
14926KSTC STC20060603043509706/03/06 04:35:31  5-MIN KSTC 031035Z AUTO 12003KT 10SM CLR 11/10 A3005 900 93 700 110/03 RMK AO2
14926KSTC STC20060603044009706/03/06 04:40:31  5-MIN KSTC 031040Z AUTO 00000KT 10SM CLR 11/09 A3005 900 93 600 000/00 RMK AO2
14926KSTC STC20060603044509706/03/06 04:45:31  5-MIN KSTC 031045Z AUTO 09003KT 10SM CLR 11/09 A3005 900 89 700 090/03 RMK AO2
14926KSTC STC20060603045011406/03/06 04:50:31  5-MIN KSTC 031050Z AUTO 00000KT 10SM CLR 11/10 A3006 900 93 700 000/00 RMK AO2 SLP184 T01110100
14926KSTC STC20060603045509706/03/06 04:55:31  5-MIN KSTC 031055Z AUTO 00000KT 10SM CLR 11/09 A3006 900 89 700 000/00 RMK AO2
14926KSTC STC20060603050009706/03/06 05:00:31  5-MIN KSTC 031100Z AUTO 00000KT 10SM CLR 11/09 A3006 900 93 600 000/00 RMK AO2
14926KSTC STC20060603050509706/03/06 05:05:31  5-MIN KSTC 031105Z AUTO 00000KT 10SM CLR 12/10 A3006 900 89 800 000/00 RMK AO2
14926KSTC STC20060603051009706/03/06 05:10:31  5-MIN KSTC 031110Z AUTO 00000KT 10SM CLR 12/10 A3006 900 89 800 000/00 RMK AO2
14926KSTC STC20060603051509706/03/06 05:15:31  5-MIN KSTC 031115Z AUTO 08003KT 10SM CLR 12/10 A3006 900 89 700 080/03 RMK AO2
14926KSTC STC20060603052009706/03/06 05:20:31  5-MIN KSTC 031120Z AUTO 08003KT 10SM CLR 12/11 A3006 890 89 800 080/03 RMK AO2
14926KSTC STC20060603052509706/03/06 05:25:31  5-MIN KSTC 031125Z AUTO 00000KT 10SM CLR 13/11 A3006 890 86 900 000/00 RMK AO2
14926KSTC STC20060603053009706/03/06 05:30:31  5-MIN KSTC 031130Z AUTO 09003KT 10SM CLR 13/11 A3006 900 86 900 090/03 RMK AO2
14926KSTC STC20060603053509706/03/06 05:35:31  5-MIN KSTC 031135Z AUTO 09003KT 10SM CLR 13/11 A3006 890 89 900 090/03 RMK AO2
14926KSTC STC20060603054009706/03/06 05:40:31  5-MIN KSTC 031140Z AUTO 00000KT 10SM CLR 13/11 A3006 890 86 900 000/00 RMK AO2
14926KSTC STC20060603054509806/03/06 05:45:31  5-MIN KSTC 031145Z AUTO 00000KT 10SM CLR 14/12 A3006 890 86 1000 000/00 RMK AO2
14926KSTC STC20060603055013306/03/06 05:50:31  5-MIN KSTC 031150Z AUTO 00000KT 10SM CLR 14/12 A3007 890 86 1000 000/00 RMK AO2 SLP185 T01390117 10139 20106 53003
14926KSTC STC20060603055509306/03/06 05:55:31  5-MIN KSTC 031155Z 00000KT 10SM CLR 14/12 A3006 890 83 1100 000/00 RMK AO2
14926KSTC STC20060603060009306/03/06 06:00:31  5-MIN KSTC 031200Z 00000KT 10SM CLR 15/12 A3006 900 80 1100 000/00 RMK AO2
14926KSTC STC20060603060509306/03/06 06:05:31  5-MIN KSTC 031205Z 00000KT 10SM CLR 16/12 A3006 900 77 1200 000/00 RMK AO2
14926KSTC STC20060603061009306/03/06 06:10:31  5-MIN KSTC 031210Z 00000KT 10SM CLR 16/12 A3006 900 75 1300 000/00 RMK AO2
14926KSTC STC20060603061509306/03/06 06:15:31  5-MIN KSTC 031215Z 00000KT 10SM CLR 16/12 A3006 900 75 1300 000/00 RMK AO2
14926KSTC STC20060603062009306/03/06 06:20:31  5-MIN KSTC 031220Z VRB03KT 10SM CLR 16/12 A3006 900 75 1300 VRB/03 RMK AO2
14926KSTC STC20060603062509306/03/06 06:25:31  5-MIN KSTC 031225Z 00000KT 10SM CLR 17/12 A3006 900 72 1300 000/00 RMK AO2
14926KSTC STC20060603063009306/03/06 06:30:31  5-MIN KSTC 031230Z 15004KT 10SM CLR 17/12 A3006 900 69 1400 140/04 RMK AO2
14926KSTC STC20060603063509306/03/06 06:35:31  5-MIN KSTC 031235Z 13004KT 10SM CLR 17/11 A3006 900 67 1400 130/04 RMK AO2
14926KSTC STC20060603064009306/03/06 06:40:31  5-MIN KSTC 031240Z 14004KT 10SM CLR 17/11 A3006 900 67 1400 140/04 RMK AO2
14926KSTC STC20060603064509306/03/06 06:45:31  5-MIN KSTC 031245Z 14006KT 10SM CLR 18/12 A3006 900 67 1500 130/06 RMK AO2
14926KSTC STC20060603065011006/03/06 06:50:31  5-MIN KSTC 031250Z 14005KT 10SM CLR 18/11 A3006 900 64 1500 140/05 RMK AO2 SLP182 T01780111
14926KSTC STC20060603065509306/03/06 06:55:31  5-MIN KSTC 031255Z 14006KT 10SM CLR 18/11 A3005 900 62 1500 140/06 RMK AO2
14926KSTC STC20060603070009306/03/06 07:00:31  5-MIN KSTC 031300Z 13006KT 10SM CLR 18/11 A3005 900 62 1500 130/06 RMK AO2
14926KSTC STC20060603070509306/03/06 07:05:31  5-MIN KSTC 031305Z 13005KT 10SM CLR 19/11 A3005 900 60 1600 130/05 RMK AO2
14926KSTC STC20060603071009306/03/06 07:10:31  5-MIN KSTC 031310Z 13006KT 10SM CLR 19/11 A3005 900 60 1600 120/06 RMK AO2
14926KSTC STC20060603071509306/03/06 07:15:31  5-MIN KSTC 031315Z 13006KT 10SM CLR 20/11 A3005 900 56 1700 130/06 RMK AO2
14926KSTC STC20060603072009306/03/06 07:20:31  5-MIN KSTC 031320Z 14009KT 10SM CLR 20/11 A3006 900 54 1700 140/09 RMK AO2
14926KSTC STC20060603072509306/03/06 07:25:31  5-MIN KSTC 031325Z 15009KT 10SM CLR 21/10 A3005 900 50 1800 150/09 RMK AO2
14926KSTC STC20060603073009306/03/06 07:30:31  5-MIN KSTC 031330Z 14007KT 10SM CLR 21/09 A3006 900 47 1900 140/07 RMK AO2
14926KSTC STC20060603073509306/03/06 07:35:31  5-MIN KSTC 031335Z 13007KT 10SM CLR 21/11 A3005 900 50 1900 130/07 RMK AO2
14926KSTC STC20060603074009306/03/06 07:40:31  5-MIN KSTC 031340Z 14009KT 10SM CLR 21/09 A3005 900 47 1900 140/09 RMK AO2
14926KSTC STC20060603074509306/03/06 07:45:31  5-MIN KSTC 031345Z 14010KT 10SM CLR 22/08 A3005 900 42 1900 130/10 RMK AO2
14926KSTC STC20060603075011006/03/06 07:50:31  5-MIN KSTC 031350Z 14010KT 10SM CLR 22/08 A3005 900 42 1900 130/10 RMK AO2 SLP180 T02170083
14926KSTC STC20060603075509306/03/06 07:55:31  5-MIN KSTC 031355Z 14006KT 10SM CLR 22/09 A3005 900 43 1900 130/06 RMK AO2
14926KSTC STC20060603080009306/03/06 08:00:31  5-MIN KSTC 031400Z 11006KT 10SM CLR 22/09 A3005 910 45 1900 110/06 RMK AO2
14926KSTC STC20060603083009306/03/06 08:30:31  5-MIN KSTC 031430Z 14007KT 10SM CLR 23/10 A3005 910 44 2100 130/07 RMK AO2
14926KSTC STC20060603083509306/03/06 08:35:31  5-MIN KSTC 031435Z 14009KT 10SM CLR 23/10 A3005 910 42 2100 140/09 RMK AO2
14926KSTC STC20060603084009306/03/06 08:40:31  5-MIN KSTC 031440Z 14007KT 10SM CLR 23/09 A3005 910 42 2100 130/07 RMK AO2
14926KSTC STC20060603084509306/03/06 08:45:31  5-MIN KSTC 031445Z 13007KT 10SM CLR 24/09 A3004 910 39 2200 120/07 RMK AO2
14926KSTC STC20060603085011606/03/06 08:50:31  5-MIN KSTC 031450Z 13007KT 10SM CLR 24/09 A3004 910 38 2200 130/07 RMK AO2 SLP177 T02390089 51006
14926KSTC STC20060603085509306/03/06 08:55:31  5-MIN KSTC 031455Z 13009KT 10SM CLR 23/09 A3004 910 39 2100 130/09 RMK AO2
14926KSTC STC20060603090009306/03/06 09:00:31  5-MIN KSTC 031500Z 12009KT 10SM CLR 23/09 A3004 910 39 2100 110/09 RMK AO2
14926KSTC STC20060603090509306/03/06 09:05:31  5-MIN KSTC 031505Z 13009KT 10SM CLR 24/08 A3004 920 36 2200 120/09 RMK AO2
14926KSTC STC20060603091009306/03/06 09:10:31  5-MIN KSTC 031510Z 16010KT 10SM CLR 24/09 A3004 920 36 2300 160/10 RMK AO2
14926KSTC STC20060603091509306/03/06 09:15:31  5-MIN KSTC 031515Z 12009KT 10SM CLR 24/08 A3004 920 35 2300 120/09 RMK AO2
14926KSTC STC20060603092009306/03/06 09:20:31  5-MIN KSTC 031520Z 12007KT 10SM CLR 24/08 A3004 920 35 2300 120/07 RMK AO2
14926KSTC STC20060603092509306/03/06 09:25:31  5-MIN KSTC 031525Z 16008KT 10SM CLR 24/08 A3004 920 35 2300 160/08 RMK AO2
14926KSTC STC20060603093009306/03/06 09:30:31  5-MIN KSTC 031530Z 14009KT 10SM CLR 25/09 A3004 920 35 2300 130/09 RMK AO2
14926KSTC STC20060603093509306/03/06 09:35:31  5-MIN KSTC 031535Z 14008KT 10SM CLR 25/08 A3004 920 34 2300 140/08 RMK AO2
14926KSTC STC20060603094009306/03/06 09:40:31  5-MIN KSTC 031540Z 13008KT 10SM CLR 25/08 A3004 920 34 2300 120/08 RMK AO2
14926KSTC STC20060603094509306/03/06 09:45:31  5-MIN KSTC 031545Z 13008KT 10SM CLR 25/08 A3004 920 34 2300 130/08 RMK AO2
14926KSTC STC20060603095011006/03/06 09:50:31  5-MIN KSTC 031550Z 14009KT 10SM CLR 25/08 A3004 920 34 2300 130/09 RMK AO2 SLP175 T02500083
14926KSTC STC20060603095509306/03/06 09:55:31  5-MIN KSTC 031555Z 15009KT 10SM CLR 26/08 A3003 920 33 2400 140/09 RMK AO2
14926KSTC STC20060603100009306/03/06 10:00:31  5-MIN KSTC 031600Z 14010KT 10SM CLR 26/08 A3004 920 33 2400 130/10 RMK AO2
14926KSTC STC20060603100509306/03/06 10:05:31  5-MIN KSTC 031605Z 13009KT 10SM CLR 26/08 A3004 920 33 2400 130/09 RMK AO2
14926KSTC STC20060603101009306/03/06 10:10:31  5-MIN KSTC 031610Z 13010KT 10SM CLR 26/08 A3004 920 33 2400 130/10 RMK AO2
14926KSTC STC20060603101509306/03/06 10:15:31  5-MIN KSTC 031615Z 13009KT 10SM CLR 25/08 A3003 920 34 2300 130/09 RMK AO2
14926KSTC STC20060603102009306/03/06 10:20:31  5-MIN KSTC 031620Z 15011KT 10SM CLR 26/08 A3003 920 32 2500 150/11 RMK AO2
14926KSTC STC20060603102509306/03/06 10:25:31  5-MIN KSTC 031625Z 14010KT 10SM CLR 26/08 A3003 920 32 2500 140/10 RMK AO2
14926KSTC STC20060603103009306/03/06 10:30:31  5-MIN KSTC 031630Z 11010KT 10SM CLR 26/08 A3003 920 32 2500 110/10 RMK AO2
14926KSTC STC20060603103509306/03/06 10:35:31  5-MIN KSTC 031635Z 12010KT 10SM CLR 26/08 A3003 920 31 2500 110/10 RMK AO2
14926KSTC STC20060603104009306/03/06 10:40:31  5-MIN KSTC 031640Z 11010KT 10SM CLR 27/08 A3003 920 29 2500 110/10 RMK AO2
14926KSTC STC20060603104509306/03/06 10:45:31  5-MIN KSTC 031645Z 13010KT 10SM CLR 26/08 A3003 930 31 2500 130/10 RMK AO2
14926KSTC STC20060603105011006/03/06 10:50:31  5-MIN KSTC 031650Z 11010KT 10SM CLR 27/08 A3003 930 29 2500 110/10 RMK AO2 SLP173 T02670078
14926KSTC STC20060603105509306/03/06 10:55:31  5-MIN KSTC 031655Z 09007KT 10SM CLR 26/08 A3003 930 31 2500 090/07 RMK AO2
14926KSTC STC20060603110009906/03/06 11:00:31  5-MIN KSTC 031700Z 14011G16KT 10SM CLR 27/08 A3002 930 30 2600 130/11G16 RMK AO2
14926KSTC STC20060603110509906/03/06 11:05:31  5-MIN KSTC 031705Z 16011G16KT 10SM CLR 27/07 A3002 930 28 2500 150/11G16 RMK AO2
14926KSTC STC20060603111009906/03/06 11:10:31  5-MIN KSTC 031710Z 15012G17KT 10SM CLR 27/08 A3002 930 29 2500 150/12G17 RMK AO2
14926KSTC STC20060603111509306/03/06 11:15:31  5-MIN KSTC 031715Z 16012KT 10SM CLR 27/07 A3002 940 27 2600 150/12 RMK AO2
14926KSTC STC20060603112011506/03/06 11:20:31  5-MIN KSTC 031720Z 13009G19KT 090V160 10SM CLR 27/07 A3002 940 27 2500 120/09G19 090V160 RMK AO2
14926KSTC STC20060603112509906/03/06 11:25:31  5-MIN KSTC 031725Z 11010G19KT 10SM CLR 27/08 A3002 940 29 2600 100/10G19 RMK AO2
14926KSTC STC20060603113009306/03/06 11:30:31  5-MIN KSTC 031730Z 16012KT 10SM CLR 27/07 A3002 940 27 2500 160/12 RMK AO2
14926KSTC STC20060603113509306/03/06 11:35:31  5-MIN KSTC 031735Z 13011KT 10SM CLR 27/07 A3002 940 27 2600 130/11 RMK AO2
14926KSTC STC20060603114011506/03/06 11:40:31  5-MIN KSTC 031740Z 14011G15KT 100V160 10SM CLR 27/08 A3001 940 29 2600 130/11G15 100V160 RMK AO2
14926KSTC STC20060603114509906/03/06 11:45:31  5-MIN KSTC 031745Z 12010G15KT 10SM CLR 27/08 A3001 940 29 2600 120/10G15 RMK AO2
14926KSTC STC20060603115015006/03/06 11:50:31  5-MIN KSTC 031750Z 11008G16KT 090V150 10SM CLR 27/07 A3001 940 27 2600 110/08G16 090V150 RMK AO2 SLP167 T02720072 10272 20144 58007
14926KSTC STC20060603115509306/03/06 11:55:31  5-MIN KSTC 031755Z 18010KT 10SM CLR 27/07 A3001 940 26 2600 170/10 RMK AO2
14926KSTC STC20060603120009306/03/06 12:00:31  5-MIN KSTC 031800Z 15010KT 10SM CLR 27/07 A3001 950 26 2600 150/10 RMK AO2
14926KSTC STC20060603120509906/03/06 12:05:31  5-MIN KSTC 031805Z 13013G17KT 10SM CLR 28/07 A3001 950 27 2700 120/13G17 RMK AO2
14926KSTC STC20060603121009906/03/06 12:10:31  5-MIN KSTC 031810Z 12010G17KT 10SM CLR 27/07 A3000 950 26 2600 110/10G17 RMK AO2
14926KSTC STC20060603121509306/03/06 12:15:31  5-MIN KSTC 031815Z 13011KT 10SM CLR 27/07 A3000 950 26 2600 130/11 RMK AO2
14926KSTC STC20060603122010906/03/06 12:20:31  5-MIN KSTC 031820Z 13010KT 100V170 10SM CLR 27/07 A3000 950 27 2600 130/10 100V170 RMK AO2
14926KSTC STC20060603122509306/03/06 12:25:31  5-MIN KSTC 031825Z 12011KT 10SM CLR 28/07 A3000 950 26 2700 120/11 RMK AO2
14926KSTC STC20060603123009306/03/06 12:30:31  5-MIN KSTC 031830Z 11008KT 10SM CLR 27/07 A3000 960 26 2600 100/08 RMK AO2
14926KSTC STC20060603123509906/03/06 12:35:31  5-MIN KSTC 031835Z 12013G16KT 10SM CLR 28/07 A3000 960 27 2700 120/13G16 RMK AO2
14926KSTC STC20060603124009906/03/06 12:40:31  5-MIN KSTC 031840Z 13010G16KT 10SM CLR 28/07 A3000 960 27 2700 130/10G16 RMK AO2
14926KSTC STC20060603124509306/03/06 12:45:31  5-MIN KSTC 031845Z 10009KT 10SM CLR 27/07 A3000 960 26 2600 100/09 RMK AO2
14926KSTC STC20060603125011006/03/06 12:50:31  5-MIN KSTC 031850Z 11009KT 10SM CLR 28/07 A2999 960 26 2700 110/09 RMK AO2 SLP161 T02830072
14926KSTC STC20060603125509306/03/06 12:55:31  5-MIN KSTC 031855Z 14013KT 10SM CLR 28/07 A2999 960 27 2700 130/13 RMK AO2
14926KSTC STC20060603130009306/03/06 13:00:31  5-MIN KSTC 031900Z 14010KT 10SM CLR 28/07 A2999 960 27 2700 140/10 RMK AO2
14926KSTC STC20060603130511506/03/06 13:05:31  5-MIN KSTC 031905Z 11007G14KT 070V150 10SM CLR 27/07 A2999 960 27 2600 100/07G14 070V150 RMK AO2
14926KSTC STC20060603131009306/03/06 13:10:31  5-MIN KSTC 031910Z 12009KT 10SM CLR 28/07 A2999 960 27 2700 120/09 RMK AO2
14926KSTC STC20060603131509306/03/06 13:15:31  5-MIN KSTC 031915Z 14010KT 10SM CLR 28/08 A2999 960 27 2800 140/10 RMK AO2
14926KSTC STC20060603132009906/03/06 13:20:31  5-MIN KSTC 031920Z 14013G17KT 10SM CLR 28/07 A2999 960 26 2700 130/13G17 RMK AO2
14926KSTC STC20060603132509906/03/06 13:25:31  5-MIN KSTC 031925Z 17007G17KT 10SM CLR 28/07 A2999 960 26 2700 170/07G17 RMK AO2
14926KSTC STC20060603133009906/03/06 13:30:31  5-MIN KSTC 031930Z 12006G17KT 10SM CLR 27/07 A2999 960 26 2600 120/06G17 RMK AO2
14926KSTC STC20060603133509906/03/06 13:35:31  5-MIN KSTC 031935Z 14008G17KT 10SM CLR 28/07 A2998 970 26 2700 140/08G17 RMK AO2
14926KSTC STC20060603134009306/03/06 13:40:31  5-MIN KSTC 031940Z 12010KT 10SM CLR 28/07 A2998 970 26 2800 120/10 RMK AO2
14926KSTC STC20060603134509906/03/06 13:45:31  5-MIN KSTC 031945Z 12009G15KT 10SM CLR 28/07 A2998 970 26 2800 120/09G15 RMK AO2
14926KSTC STC20060603135011606/03/06 13:50:31  5-MIN KSTC 031950Z 12009G15KT 10SM CLR 28/07 A2998 970 27 2700 120/09G15 RMK AO2 SLP157 T02780072
14926KSTC STC20060603135509306/03/06 13:55:31  5-MIN KSTC 031955Z 11009KT 10SM CLR 28/07 A2998 970 26 2800 110/09 RMK AO2
14926KSTC STC20060603140009306/03/06 14:00:31  5-MIN KSTC 032000Z 13011KT 10SM CLR 28/07 A2998 970 26 2800 130/11 RMK AO2
14926KSTC STC20060603140509906/03/06 14:05:31  5-MIN KSTC 032005Z 10010G18KT 10SM CLR 28/07 A2998 980 27 2700 100/10G18 RMK AO2
14926KSTC STC20060603141009906/03/06 14:10:31  5-MIN KSTC 032010Z 11010G18KT 10SM CLR 28/07 A2997 980 26 2800 110/10G18 RMK AO2
14926KSTC STC20060603141509906/03/06 14:15:31  5-MIN KSTC 032015Z 13012G16KT 10SM CLR 28/07 A2997 980 26 2800 130/12G16 RMK AO2
14926KSTC STC20060603142009906/03/06 14:20:31  5-MIN KSTC 032020Z 13010G16KT 10SM CLR 28/07 A2997 980 26 2800 130/10G16 RMK AO2
14926KSTC STC20060603142509306/03/06 14:25:31  5-MIN KSTC 032025Z 09009KT 10SM CLR 28/07 A2997 980 27 2700 090/09 RMK AO2
14926KSTC STC20060603143009306/03/06 14:30:31  5-MIN KSTC 032030Z 12009KT 10SM CLR 28/07 A2997 980 27 2700 120/09 RMK AO2
14926KSTC STC20060603143509306/03/06 14:35:31  5-MIN KSTC 032035Z 14011KT 10SM CLR 28/08 A2997 980 27 2800 140/11 RMK AO2
14926KSTC STC20060603144009906/03/06 14:40:31  5-MIN KSTC 032040Z 13012G17KT 10SM CLR 28/08 A2997 980 27 2800 130/12G17 RMK AO2
14926KSTC STC20060603144509906/03/06 14:45:31  5-MIN KSTC 032045Z 14012G18KT 10SM CLR 28/07 A2997 980 26 2800 140/12G18 RMK AO2
14926KSTC STC20060603145012206/03/06 14:50:31  5-MIN KSTC 032050Z 13012G16KT 10SM CLR 28/08 A2996 990 27 2800 130/12G16 RMK AO2 SLP152 T02830078 58010
14926KSTC STC20060603145509906/03/06 14:55:31  5-MIN KSTC 032055Z 14012G17KT 10SM CLR 28/07 A2996 990 26 2800 140/12G17 RMK AO2
14926KSTC STC20060603150011506/03/06 15:00:31  5-MIN KSTC 032100Z 11008G17KT 080V140 10SM CLR 28/07 A2996 990 27 2700 110/08G17 080V140 RMK AO2
14926KSTC STC20060603150509306/03/06 15:05:31  5-MIN KSTC 032105Z 12011KT 10SM CLR 28/08 A2996 990 27 2800 120/11 RMK AO2
14926KSTC STC20060603151009306/03/06 15:10:31  5-MIN KSTC 032110Z 14010KT 10SM CLR 28/08 A2996 990 27 2800 140/10 RMK AO2
14926KSTC STC20060603151509306/03/06 15:15:31  5-MIN KSTC 032115Z 12009KT 10SM CLR 28/07 A2996 990 27 2700 120/09 RMK AO2
14926KSTC STC20060603152009906/03/06 15:20:31  5-MIN KSTC 032120Z 13012G15KT 10SM CLR 28/08 A2996 990 27 2800 120/12G15 RMK AO2
14926KSTC STC20060603152509306/03/06 15:25:31  5-MIN KSTC 032125Z 13010KT 10SM CLR 28/08 A2996 990 27 2800 130/10 RMK AO2
14926KSTC STC20060603153010906/03/06 15:30:31  5-MIN KSTC 032130Z 10009KT 080V140 10SM CLR 28/08 A2996 990 28 2800 100/09 080V140 RMK AO2
14926KSTC STC20060603153509906/03/06 15:35:31  5-MIN KSTC 032135Z 13010G16KT 10SM CLR 28/08 A2996 990 27 2800 130/10G16 RMK AO2
14926KSTC STC20060603154009906/03/06 15:40:31  5-MIN KSTC 032140Z 12010G16KT 10SM CLR 28/08 A2996 990 27 2800 120/10G16 RMK AO2
14926KSTC STC20060603154511506/03/06 15:45:31  5-MIN KSTC 032145Z 12009G16KT 080V150 10SM CLR 28/08 A2996 990 28 2700 120/09G16 080V150 RMK AO2
14926KSTC STC20060603155011006/03/06 15:50:31  5-MIN KSTC 032150Z 10010KT 10SM CLR 28/08 A2996 990 28 2800 100/10 RMK AO2 SLP149 T02830083
14926KSTC STC20060603155509906/03/06 15:55:31  5-MIN KSTC 032155Z 13011G16KT 10SM CLR 28/08 A2995 990 28 2800 130/11G16 RMK AO2
14926KSTC STC20060603160010006/03/06 16:00:31  5-MIN KSTC 032200Z 12009G16KT 10SM CLR 28/08 A2995 1000 28 2700 110/09G16 RMK AO2
14926KSTC STC20060603160510006/03/06 16:05:31  5-MIN KSTC 032205Z 11007G17KT 10SM CLR 28/08 A2995 1000 28 2700 110/07G17 RMK AO2
14926KSTC STC20060603161010006/03/06 16:10:31  5-MIN KSTC 032210Z 11009G17KT 10SM CLR 28/08 A2995 1000 28 2700 110/09G17 RMK AO2
14926KSTC STC20060603161509406/03/06 16:15:31  5-MIN KSTC 032215Z 12012KT 10SM CLR 28/08 A2995 1000 28 2700 120/12 RMK AO2
14926KSTC STC20060603162009406/03/06 16:20:31  5-MIN KSTC 032220Z 13011KT 10SM CLR 27/08 A2995 1000 29 2700 120/11 RMK AO2
14926KSTC STC20060603162509406/03/06 16:25:31  5-MIN KSTC 032225Z 14011KT 10SM CLR 28/08 A2995 1000 28 2700 140/11 RMK AO2
14926KSTC STC20060603163009406/03/06 16:30:31  5-MIN KSTC 032230Z 12010KT 10SM CLR 28/08 A2995 1000 28 2700 120/10 RMK AO2
14926KSTC STC20060603163510006/03/06 16:35:31  5-MIN KSTC 032235Z 11011G15KT 10SM CLR 28/08 A2995 1000 29 2700 100/11G15 RMK AO2
14926KSTC STC20060603164010006/03/06 16:40:31  5-MIN KSTC 032240Z 11011G15KT 10SM CLR 28/08 A2995 1000 29 2700 110/11G15 RMK AO2
14926KSTC STC20060603164509406/03/06 16:45:31  5-MIN KSTC 032245Z 10009KT 10SM CLR 27/08 A2995 1000 30 2700 100/09 RMK AO2
14926KSTC STC20060603165012706/03/06 16:50:31  5-MIN KSTC 032250Z 11009KT 080V140 10SM CLR 28/08 A2995 1000 28 2700 110/09 080V140 RMK AO2 SLP146 T02780078
14926KSTC STC20060603165509406/03/06 16:55:31  5-MIN KSTC 032255Z 10011KT 10SM CLR 27/08 A2995 1000 30 2700 100/11 RMK AO2
14926KSTC STC20060603170009406/03/06 17:00:31  5-MIN KSTC 032300Z 11008KT 10SM CLR 27/08 A2995 1000 29 2700 100/08 RMK AO2
14926KSTC STC20060603170509406/03/06 17:05:31  5-MIN KSTC 032305Z 11008KT 10SM CLR 27/08 A2994 1000 30 2700 110/08 RMK AO2
14926KSTC STC20060603171009406/03/06 17:10:31  5-MIN KSTC 032310Z 12010KT 10SM CLR 27/08 A2994 1000 30 2700 120/10 RMK AO2
14926KSTC STC20060603171509406/03/06 17:15:31  5-MIN KSTC 032315Z 10009KT 10SM CLR 27/08 A2994 1010 30 2700 100/09 RMK AO2
14926KSTC STC20060603172009406/03/06 17:20:31  5-MIN KSTC 032320Z 10011KT 10SM CLR 27/08 A2994 1010 29 2700 100/11 RMK AO2
14926KSTC STC20060603172509406/03/06 17:25:31  5-MIN KSTC 032325Z 11011KT 10SM CLR 27/08 A2994 1010 30 2700 110/11 RMK AO2
14926KSTC STC20060603173010006/03/06 17:30:31  5-MIN KSTC 032330Z 12011G16KT 10SM CLR 27/08 A2994 1010 29 2700 120/11G16 RMK AO2
14926KSTC STC20060603173510006/03/06 17:35:31  5-MIN KSTC 032335Z 11010G16KT 10SM CLR 27/08 A2994 1010 29 2700 100/10G16 RMK AO2
14926KSTC STC20060603174011006/03/06 17:40:31  5-MIN KSTC 032340Z 12008KT 090V150 10SM CLR 27/08 A2994 1010 29 2600 120/08 090V150 RMK AO2
14926KSTC STC20060603174509406/03/06 17:45:31  5-MIN KSTC 032345Z 10011KT 10SM CLR 27/08 A2994 1010 29 2600 100/11 RMK AO2
14926KSTC STC20060603175012906/03/06 17:50:31  5-MIN KSTC 032350Z 10009KT 10SM CLR 27/08 A2994 1010 29 2600 100/09 RMK AO2 SLP143 T02670078 10289 20267 56015
14926KSTC STC20060603175509406/03/06 17:55:31  5-MIN KSTC 032355Z 09010KT 10SM CLR 27/08 A2994 1010 31 2600 090/10 RMK AO2
14926KSTC STC20060603180009406/03/06 18:00:31  5-MIN KSTC 040000Z 10009KT 10SM CLR 26/08 A2994 1010 32 2600 090/09 RMK AO2
14926KSTC STC20060603180509406/03/06 18:05:31  5-MIN KSTC 040005Z 10009KT 10SM CLR 26/08 A2994 1010 32 2600 100/09 RMK AO2
14926KSTC STC20060603181010006/03/06 18:10:31  5-MIN KSTC 040010Z 11011G15KT 10SM CLR 26/08 A2994 1010 32 2600 110/11G15 RMK AO2
14926KSTC STC20060603181510006/03/06 18:15:31  5-MIN KSTC 040015Z 10008G15KT 10SM CLR 26/08 A2994 1010 31 2600 100/08G15 RMK AO2
14926KSTC STC20060603182009406/03/06 18:20:31  5-MIN KSTC 040020Z 10011KT 10SM CLR 26/08 A2994 1010 32 2600 100/11 RMK AO2
14926KSTC STC20060603182509406/03/06 18:25:31  5-MIN KSTC 040025Z 10011KT 10SM CLR 26/08 A2994 1010 31 2600 090/11 RMK AO2
14926KSTC STC20060603183009406/03/06 18:30:31  5-MIN KSTC 040030Z 10010KT 10SM CLR 26/08 A2994 1010 32 2500 100/10 RMK AO2
14926KSTC STC20060603183509406/03/06 18:35:31  5-MIN KSTC 040035Z 10009KT 10SM CLR 26/08 A2994 1010 32 2500 100/09 RMK AO2
14926KSTC STC20060603184009406/03/06 18:40:31  5-MIN KSTC 040040Z 11008KT 10SM CLR 26/08 A2994 1010 33 2500 100/08 RMK AO2
14926KSTC STC20060603184509406/03/06 18:45:31  5-MIN KSTC 040045Z 10010KT 10SM CLR 26/08 A2994 1010 32 2500 090/10 RMK AO2
14926KSTC STC20060603185011106/03/06 18:50:31  5-MIN KSTC 040050Z 11007KT 10SM CLR 25/08 A2994 1010 34 2400 100/07 RMK AO2 SLP142 T02500083
14926KSTC STC20060603185509406/03/06 18:55:31  5-MIN KSTC 040055Z 10008KT 10SM CLR 25/08 A2994 1010 34 2400 100/08 RMK AO2
14926KSTC STC20060603190009406/03/06 19:00:31  5-MIN KSTC 040100Z 11008KT 10SM CLR 25/08 A2994 1010 34 2400 110/08 RMK AO2
14926KSTC STC20060603190509406/03/06 19:05:31  5-MIN KSTC 040105Z 11008KT 10SM CLR 25/08 A2994 1010 34 2400 100/08 RMK AO2
14926KSTC STC20060603191009406/03/06 19:10:31  5-MIN KSTC 040110Z 10007KT 10SM CLR 24/08 A2994 1010 35 2400 090/07 RMK AO2
14926KSTC STC20060603191509406/03/06 19:15:31  5-MIN KSTC 040115Z 10007KT 10SM CLR 24/08 A2993 1010 35 2400 090/07 RMK AO2
14926KSTC STC20060603192009406/03/06 19:20:31  5-MIN KSTC 040120Z 10007KT 10SM CLR 24/08 A2993 1010 35 2400 090/07 RMK AO2
14926KSTC STC20060603192509406/03/06 19:25:31  5-MIN KSTC 040125Z 10007KT 10SM CLR 24/08 A2993 1010 36 2300 100/07 RMK AO2
14926KSTC STC20060603193009406/03/06 19:30:31  5-MIN KSTC 040130Z 11008KT 10SM CLR 24/08 A2993 1020 36 2300 100/08 RMK AO2
14926KSTC STC20060603193509406/03/06 19:35:31  5-MIN KSTC 040135Z 10007KT 10SM CLR 24/09 A2993 1020 38 2300 090/07 RMK AO2
14926KSTC STC20060603194009406/03/06 19:40:31  5-MIN KSTC 040140Z 09006KT 10SM CLR 23/09 A2993 1010 39 2300 090/06 RMK AO2
14926KSTC STC20060603194509406/03/06 19:45:31  5-MIN KSTC 040145Z 10006KT 10SM CLR 23/09 A2993 1020 39 2300 090/06 RMK AO2
14926KSTC STC20060603195011106/03/06 19:50:31  5-MIN KSTC 040150Z 10007KT 10SM CLR 23/09 A2993 1020 39 2300 100/07 RMK AO2 SLP139 T02330089
14926KSTC STC20060603195509406/03/06 19:55:31  5-MIN KSTC 040155Z 10007KT 10SM CLR 23/09 A2993 1020 40 2200 100/07 RMK AO2
14926KSTC STC20060603200009406/03/06 20:00:31  5-MIN KSTC 040200Z 10007KT 10SM CLR 23/09 A2993 1020 40 2200 100/07 RMK AO2
14926KSTC STC20060603200509406/03/06 20:05:31  5-MIN KSTC 040205Z 10006KT 10SM CLR 23/09 A2993 1020 40 2200 100/06 RMK AO2
14926KSTC STC20060603201009406/03/06 20:10:31  5-MIN KSTC 040210Z 11006KT 10SM CLR 23/09 A2993 1020 40 2200 100/06 RMK AO2
14926KSTC STC20060603201509406/03/06 20:15:31  5-MIN KSTC 040215Z 11006KT 10SM CLR 22/09 A2993 1020 42 2100 110/06 RMK AO2
14926KSTC STC20060603202009406/03/06 20:20:31  5-MIN KSTC 040220Z 11007KT 10SM CLR 22/09 A2993 1010 42 2100 100/07 RMK AO2
14926KSTC STC20060603202509406/03/06 20:25:31  5-MIN KSTC 040225Z 10006KT 10SM CLR 22/09 A2993 1010 42 2100 100/06 RMK AO2
14926KSTC STC20060603204509406/03/06 20:45:31  5-MIN KSTC 040245Z 10006KT 10SM CLR 22/09 A2994 1010 43 2100 100/06 RMK AO2
14926KSTC STC20060603205011706/03/06 20:50:31  5-MIN KSTC 040250Z 11006KT 10SM CLR 22/09 A2994 1010 43 2100 100/06 RMK AO2 SLP143 T02170089 58008
14926KSTC STC20060603205509406/03/06 20:55:31  5-MIN KSTC 040255Z 11006KT 10SM CLR 22/09 A2994 1000 43 2000 110/06 RMK AO2
14926KSTC STC20060603210009406/03/06 21:00:31  5-MIN KSTC 040300Z 11006KT 10SM CLR 21/09 A2994 1000 47 2000 110/06 RMK AO2
14926KSTC STC20060603210509406/03/06 21:05:31  5-MIN KSTC 040305Z 11006KT 10SM CLR 21/09 A2995 1000 47 2000 110/06 RMK AO2
14926KSTC STC20060603211009406/03/06 21:10:31  5-MIN KSTC 040310Z 12007KT 10SM CLR 21/09 A2995 1000 47 2000 110/07 RMK AO2
14926KSTC STC20060603211509706/03/06 21:15:31  5-MIN KSTC 040315Z 11006KT 10SM FEW100 21/09 A2995 1000 47 2000 110/06 RMK AO2
14926KSTC STC20060603212009706/03/06 21:20:31  5-MIN KSTC 040320Z 11006KT 10SM FEW100 21/09 A2995 1000 47 2000 110/06 RMK AO2
14926KSTC STC20060603212509706/03/06 21:25:31  5-MIN KSTC 040325Z 11007KT 10SM SCT100 21/09 A2995 1000 47 2000 110/07 RMK AO2
14926KSTC STC20060603213009706/03/06 21:30:31  5-MIN KSTC 040330Z 11006KT 10SM BKN100 21/09 A2995 1000 47 2000 100/06 RMK AO2
14926KSTC STC20060603213509706/03/06 21:35:31  5-MIN KSTC 040335Z 11006KT 10SM BKN100 21/09 A2995 1000 47 2000 110/06 RMK AO2
14926KSTC STC20060603214009706/03/06 21:40:31  5-MIN KSTC 040340Z 11007KT 10SM BKN100 21/09 A2995 1000 47 2000 110/07 RMK AO2
14926KSTC STC20060603214509706/03/06 21:45:31  5-MIN KSTC 040345Z 11007KT 10SM BKN100 21/09 A2995 1000 47 2000 100/07 RMK AO2
14926KSTC STC20060603215012006/03/06 21:50:31  5-MIN KSTC 040350Z 11006KT 10SM BKN100 BKN120 21/09 A2996 990 47 2000 110/06 RMK AO2 SLP148 T02110094
14926KSTC STC20060603215510306/03/06 21:55:31  5-MIN KSTC 040355Z 11007KT 10SM BKN100 BKN120 21/09 A2996 990 47 2000 110/07 RMK AO2
14926KSTC STC20060603220010906/03/06 22:00:31  5-MIN KSTC 040400Z AUTO 11008KT 10SM BKN100 BKN120 21/09 A2995 1000 47 2000 110/08 RMK AO2
14926KSTC STC20060603220510806/03/06 22:05:31  5-MIN KSTC 040405Z AUTO 12008KT 10SM SCT100 SCT120 21/09 A2995 990 47 2000 120/08 RMK AO2
14926KSTC STC20060603221010206/03/06 22:10:31  5-MIN KSTC 040410Z AUTO 12008KT 10SM BKN100 21/09 A2995 1000 45 2000 110/08 RMK AO2
14926KSTC STC20060603221510106/03/06 22:15:31  5-MIN KSTC 040415Z AUTO 12007KT 10SM BKN100 21/09 A2995 990 47 2000 120/07 RMK AO2
14926KSTC STC20060603222010206/03/06 22:20:31  5-MIN KSTC 040420Z AUTO 12008KT 10SM BKN100 21/09 A2995 1000 46 1900 120/08 RMK AO2
14926KSTC STC20060603222510206/03/06 22:25:31  5-MIN KSTC 040425Z AUTO 11007KT 10SM SCT100 21/09 A2995 1000 46 1900 110/07 RMK AO2
14926KSTC STC20060603223010206/03/06 22:30:31  5-MIN KSTC 040430Z AUTO 12008KT 10SM SCT100 21/09 A2995 1000 46 1900 120/08 RMK AO2
14926KSTC STC20060603223510206/03/06 22:35:31  5-MIN KSTC 040435Z AUTO 12006KT 10SM SCT100 21/09 A2995 1000 46 1900 110/06 RMK AO2
14926KSTC STC20060603224010106/03/06 22:40:31  5-MIN KSTC 040440Z AUTO 12007KT 10SM SCT100 21/09 A2996 990 46 1900 110/07 RMK AO2
14926KSTC STC20060603224510106/03/06 22:45:31  5-MIN KSTC 040445Z AUTO 12007KT 10SM SCT100 21/09 A2996 990 46 1900 120/07 RMK AO2
14926KSTC STC20060603225011906/03/06 22:50:31  5-MIN KSTC 040450Z AUTO 11007KT 10SM BKN100 21/09 A2995 1000 46 1900 110/07 RMK AO2 SLP144 T02060089
14926KSTC STC20060603225510906/03/06 22:55:31  5-MIN KSTC 040455Z AUTO 12008KT 10SM SCT100 BKN110 21/09 A2995 1000 46 1900 120/08 RMK AO2
14926KSTC STC20060603230010906/03/06 23:00:31  5-MIN KSTC 040500Z AUTO 12008KT 10SM BKN095 BKN110 21/09 A2995 1000 46 1900 120/08 RMK AO2
14926KSTC STC20060603230510906/03/06 23:05:31  5-MIN KSTC 040505Z AUTO 12007KT 10SM BKN100 BKN110 20/09 A2995 1000 48 1900 120/07 RMK AO2
14926KSTC STC20060603231010206/03/06 23:10:31  5-MIN KSTC 040510Z AUTO 11006KT 10SM BKN095 20/09 A2995 1000 48 1900 110/06 RMK AO2
14926KSTC STC20060603231510206/03/06 23:15:31  5-MIN KSTC 040515Z AUTO 11007KT 10SM SCT095 20/09 A2995 1000 48 1900 110/07 RMK AO2
14926KSTC STC20060603232010206/03/06 23:20:31  5-MIN KSTC 040520Z AUTO 12007KT 10SM FEW095 20/09 A2995 1000 48 1900 110/07 RMK AO2
14926KSTC STC20060603232510206/03/06 23:25:31  5-MIN KSTC 040525Z AUTO 11007KT 10SM FEW095 19/09 A2994 1010 50 1800 110/07 RMK AO2
14926KSTC STC20060603233010206/03/06 23:30:31  5-MIN KSTC 040530Z AUTO 11007KT 10SM FEW100 20/09 A2994 1000 48 1900 110/07 RMK AO2
14926KSTC STC20060603233509906/03/06 23:35:31  5-MIN KSTC 040535Z AUTO 12007KT 10SM CLR 20/09 A2995 1000 48 1900 120/07 RMK AO2
14926KSTC STC20060603234009906/03/06 23:40:31  5-MIN KSTC 040540Z AUTO 12007KT 10SM CLR 20/09 A2995 1000 48 1900 120/07 RMK AO2
14926KSTC STC20060603234509906/03/06 23:45:31  5-MIN KSTC 040545Z AUTO 12006KT 10SM CLR 20/09 A2995 1000 48 1900 120/06 RMK AO2
14926KSTC STC20060603235014406/03/06 23:50:31  5-MIN KSTC 040550Z AUTO 12007KT 10SM CLR 19/09 A2995 1000 50 1800 120/07 RMK AO2 SLP144 T01940089 10267 20194 402890106 53001
14926KSTC STC20060603235509906/03/06 23:55:31  5-MIN KSTC 040555Z AUTO 13006KT 10SM CLR 19/09 A2995 1000 50 1800 130/06 RMK AO2
14926KSTC STC20060604000009906/04/06 00:00:32  5-MIN KSTC 040600Z AUTO 13006KT 10SM CLR 19/09 A2995 1000 50 1800 130/06 RMK AO2
14926KSTC STC20060604000510206/04/06 00:05:31  5-MIN KSTC 040605Z AUTO 12006KT 10SM FEW100 19/09 A2995 1000 50 1800 110/06 RMK AO2
14926KSTC STC20060604001010206/04/06 00:10:31  5-MIN KSTC 040610Z AUTO 13007KT 10SM FEW100 19/09 A2995 1000 50 1800 120/07 RMK AO2
14926KSTC STC20060604001510206/04/06 00:15:31  5-MIN KSTC 040615Z AUTO 12006KT 10SM FEW100 19/09 A2995 1000 50 1800 120/06 RMK AO2
14926KSTC STC20060604002010206/04/06 00:20:31  5-MIN KSTC 040620Z AUTO 12006KT 10SM FEW100 19/09 A2995 1000 50 1800 120/06 RMK AO2
14926KSTC STC20060604002510206/04/06 00:25:31  5-MIN KSTC 040625Z AUTO 13007KT 10SM FEW100 19/09 A2995 1000 52 1700 120/07 RMK AO2
14926KSTC STC20060604003010206/04/06 00:30:31  5-MIN KSTC 040630Z AUTO 12006KT 10SM FEW100 19/09 A2995 1000 52 1700 120/06 RMK AO2
14926KSTC STC20060604003509906/04/06 00:35:31  5-MIN KSTC 040635Z AUTO 14006KT 10SM CLR 19/09 A2995 1000 52 1700 130/06 RMK AO2
14926KSTC STC20060604004009906/04/06 00:40:31  5-MIN KSTC 040640Z AUTO 12005KT 10SM CLR 18/09 A2995 1000 58 1600 120/05 RMK AO2
14926KSTC STC20060604004509906/04/06 00:45:31  5-MIN KSTC 040645Z AUTO 12006KT 10SM CLR 19/09 A2995 1000 52 1700 110/06 RMK AO2
14926KSTC STC20060604005011606/04/06 00:50:31  5-MIN KSTC 040650Z AUTO 12006KT 10SM CLR 19/09 A2995 1000 52 1700 110/06 RMK AO2 SLP144 T01890089
14926KSTC STC20060604005510206/04/06 00:55:31  5-MIN KSTC 040655Z AUTO 12006KT 10SM FEW110 19/09 A2995 1000 54 1700 120/06 RMK AO2
14926KSTC STC20060604010010206/04/06 01:00:31  5-MIN KSTC 040700Z AUTO 12006KT 10SM SCT110 19/09 A2995 1000 54 1700 110/06 RMK AO2
14926KSTC STC20060604010510206/04/06 01:05:31  5-MIN KSTC 040705Z AUTO 12006KT 10SM SCT100 19/09 A2995 1000 54 1700 120/06 RMK AO2
14926KSTC STC20060604011010106/04/06 01:10:31  5-MIN KSTC 040710Z AUTO 13005KT 10SM SCT100 19/09 A2996 990 54 1700 120/05 RMK AO2
14926KSTC STC20060604011510106/04/06 01:15:31  5-MIN KSTC 040715Z AUTO 12006KT 10SM SCT100 18/09 A2996 990 56 1700 120/06 RMK AO2
14926KSTC STC20060604012010106/04/06 01:20:31  5-MIN KSTC 040720Z AUTO 13005KT 10SM SCT100 18/09 A2996 990 56 1700 130/05 RMK AO2
14926KSTC STC20060604012510106/04/06 01:25:31  5-MIN KSTC 040725Z AUTO 12005KT 10SM SCT100 18/09 A2996 990 58 1600 120/05 RMK AO2
14926KSTC STC20060604013010106/04/06 01:30:31  5-MIN KSTC 040730Z AUTO 12005KT 10SM FEW100 18/09 A2996 990 56 1700 120/05 RMK AO2
14926KSTC STC20060604013510106/04/06 01:35:31  5-MIN KSTC 040735Z AUTO 13005KT 10SM FEW100 18/09 A2995 990 56 1700 130/05 RMK AO2
14926KSTC STC20060604014010206/04/06 01:40:31  5-MIN KSTC 040740Z AUTO 11005KT 10SM FEW100 18/09 A2995 1000 58 1600 110/05 RMK AO2
14926KSTC STC20060604014509906/04/06 01:45:31  5-MIN KSTC 040745Z AUTO 11005KT 10SM CLR 18/09 A2995 1000 58 1600 110/05 RMK AO2
14926KSTC STC20060604015011606/04/06 01:50:31  5-MIN KSTC 040750Z AUTO 10005KT 10SM CLR 18/09 A2995 1000 58 1600 100/05 RMK AO2 SLP144 T01780094
14926KSTC STC20060604015509906/04/06 01:55:31  5-MIN KSTC 040755Z AUTO 10006KT 10SM CLR 18/09 A2995 1000 58 1600 100/06 RMK AO2
14926KSTC STC20060604020009906/04/06 02:00:31  5-MIN KSTC 040800Z AUTO 11006KT 10SM CLR 18/09 A2995 1000 58 1600 100/06 RMK AO2
14926KSTC STC20060604020509906/04/06 02:05:31  5-MIN KSTC 040805Z AUTO 10005KT 10SM CLR 18/09 A2995 1000 58 1600 100/05 RMK AO2
14926KSTC STC20060604021009906/04/06 02:10:31  5-MIN KSTC 040810Z AUTO 11005KT 10SM CLR 18/09 A2995 1000 58 1600 100/05 RMK AO2
14926KSTC STC20060604021509906/04/06 02:15:31  5-MIN KSTC 040815Z AUTO 11005KT 10SM CLR 18/09 A2995 1000 58 1600 110/05 RMK AO2
14926KSTC STC20060604022009906/04/06 02:20:31  5-MIN KSTC 040820Z AUTO 12005KT 10SM CLR 18/09 A2995 1000 58 1600 110/05 RMK AO2
14926KSTC STC20060604022509906/04/06 02:25:31  5-MIN KSTC 040825Z AUTO 12006KT 10SM CLR 18/09 A2995 1000 58 1600 120/06 RMK AO2
14926KSTC STC20060604023009906/04/06 02:30:31  5-MIN KSTC 040830Z AUTO 12006KT 10SM CLR 18/09 A2994 1010 58 1600 120/06 RMK AO2
14926KSTC STC20060604023509906/04/06 02:35:31  5-MIN KSTC 040835Z AUTO 11006KT 10SM CLR 18/09 A2994 1010 58 1600 110/06 RMK AO2
14926KSTC STC20060604024009906/04/06 02:40:31  5-MIN KSTC 040840Z AUTO 10005KT 10SM CLR 18/09 A2994 1010 58 1600 100/05 RMK AO2
14926KSTC STC20060604024509906/04/06 02:45:31  5-MIN KSTC 040845Z AUTO 10004KT 10SM CLR 17/09 A2994 1010 60 1500 090/04 RMK AO2
14926KSTC STC20060604025012206/04/06 02:50:31  5-MIN KSTC 040850Z AUTO 10005KT 10SM CLR 17/09 A2994 1010 60 1500 090/05 RMK AO2 SLP142 T01720094 51002
14926KSTC STC20060604025509906/04/06 02:55:31  5-MIN KSTC 040855Z AUTO 10005KT 10SM CLR 17/09 A2994 1010 62 1500 100/05 RMK AO2
14926KSTC STC20060604030009906/04/06 03:00:31  5-MIN KSTC 040900Z AUTO 10006KT 10SM CLR 17/09 A2994 1010 62 1500 090/06 RMK AO2
14926KSTC STC20060604030509906/04/06 03:05:31  5-MIN KSTC 040905Z AUTO 09005KT 10SM CLR 17/09 A2994 1010 62 1500 090/05 RMK AO2
14926KSTC STC20060604031009906/04/06 03:10:31  5-MIN KSTC 040910Z AUTO 09005KT 10SM CLR 17/09 A2993 1010 62 1500 090/05 RMK AO2
14926KSTC STC20060604031509906/04/06 03:15:31  5-MIN KSTC 040915Z AUTO 09006KT 10SM CLR 16/09 A2993 1020 64 1400 090/06 RMK AO2
14926KSTC STC20060604032009906/04/06 03:20:31  5-MIN KSTC 040920Z AUTO 09007KT 10SM CLR 16/09 A2993 1020 64 1400 090/07 RMK AO2
14926KSTC STC20060604032509906/04/06 03:25:31  5-MIN KSTC 040925Z AUTO 09006KT 10SM CLR 16/09 A2993 1020 64 1400 090/06 RMK AO2
14926KSTC STC20060604033009906/04/06 03:30:31  5-MIN KSTC 040930Z AUTO 09005KT 10SM CLR 17/09 A2993 1020 62 1500 090/05 RMK AO2
14926KSTC STC20060604033509906/04/06 03:35:31  5-MIN KSTC 040935Z AUTO 10005KT 10SM CLR 16/09 A2993 1020 64 1400 100/05 RMK AO2
14926KSTC STC20060604034009906/04/06 03:40:31  5-MIN KSTC 040940Z AUTO 10004KT 10SM CLR 16/09 A2993 1020 64 1400 100/04 RMK AO2
14926KSTC STC20060604034509906/04/06 03:45:31  5-MIN KSTC 040945Z AUTO 10006KT 10SM CLR 16/09 A2993 1020 64 1400 090/06 RMK AO2
14926KSTC STC20060604035011606/04/06 03:50:31  5-MIN KSTC 040950Z AUTO 10005KT 10SM CLR 16/09 A2993 1020 64 1400 090/05 RMK AO2 SLP139 T01610094
14926KSTC STC20060604035509906/04/06 03:55:31  5-MIN KSTC 040955Z AUTO 11005KT 10SM CLR 16/09 A2993 1020 67 1400 100/05 RMK AO2
14926KSTC STC20060604040009906/04/06 04:00:31  5-MIN KSTC 041000Z AUTO 10005KT 10SM CLR 16/09 A2993 1020 64 1400 090/05 RMK AO2
14926KSTC STC20060604040509906/04/06 04:05:31  5-MIN KSTC 041005Z AUTO 09005KT 10SM CLR 16/09 A2993 1020 67 1400 090/05 RMK AO2
14926KSTC STC20060604041009906/04/06 04:10:31  5-MIN KSTC 041010Z AUTO 10005KT 10SM CLR 16/09 A2993 1020 67 1400 100/05 RMK AO2
14926KSTC STC20060604041509906/04/06 04:15:31  5-MIN KSTC 041015Z AUTO 10004KT 10SM CLR 16/09 A2993 1010 67 1400 100/04 RMK AO2
14926KSTC STC20060604042010206/04/06 04:20:31  5-MIN KSTC 041020Z AUTO 10003KT 10SM FEW100 16/09 A2994 1010 67 1300 100/03 RMK AO2
14926KSTC STC20060604042510206/04/06 04:25:31  5-MIN KSTC 041025Z AUTO 10004KT 10SM SCT100 16/09 A2994 1010 67 1300 100/04 RMK AO2
14926KSTC STC20060604043010206/04/06 04:30:31  5-MIN KSTC 041030Z AUTO 10004KT 10SM BKN100 16/10 A2994 1000 69 1300 090/04 RMK AO2
14926KSTC STC20060604043510206/04/06 04:35:31  5-MIN KSTC 041035Z AUTO 09004KT 10SM BKN100 16/10 A2995 1000 69 1300 090/04 RMK AO2
14926KSTC STC20060604044010206/04/06 04:40:31  5-MIN KSTC 041040Z AUTO 09005KT 10SM BKN100 16/10 A2995 1000 69 1300 090/05 RMK AO2
14926KSTC STC20060604044510206/04/06 04:45:31  5-MIN KSTC 041045Z AUTO 09005KT 10SM OVC100 16/10 A2995 1000 69 1300 090/05 RMK AO2
14926KSTC STC20060604045011906/04/06 04:50:31  5-MIN KSTC 041050Z AUTO 10004KT 10SM OVC100 16/10 A2995 1000 69 1300 090/04 RMK AO2 SLP147 T01560100
14926KSTC STC20060604045510206/04/06 04:55:31  5-MIN KSTC 041055Z AUTO 10004KT 10SM BKN100 16/10 A2995 1000 69 1300 100/04 RMK AO2
14926KSTC STC20060604050010206/04/06 05:00:31  5-MIN KSTC 041100Z AUTO 10005KT 10SM BKN100 16/10 A2995 1000 69 1300 100/05 RMK AO2
14926KSTC STC20060604050510206/04/06 05:05:31  5-MIN KSTC 041105Z AUTO 11005KT 10SM BKN100 16/10 A2995 1000 69 1300 100/05 RMK AO2
14926KSTC STC20060604051010206/04/06 05:10:31  5-MIN KSTC 041110Z AUTO 09005KT 10SM SCT110 16/10 A2995 1000 69 1300 090/05 RMK AO2
14926KSTC STC20060604051510106/04/06 05:15:31  5-MIN KSTC 041115Z AUTO 10004KT 10SM SCT110 16/10 A2995 990 69 1300 100/04 RMK AO2
14926KSTC STC20060604052010206/04/06 05:20:31  5-MIN KSTC 041120Z AUTO 10003KT 10SM SCT110 16/10 A2995 1000 69 1300 100/03 RMK AO2
14926KSTC STC20060604052510106/04/06 05:25:31  5-MIN KSTC 041125Z AUTO 10005KT 10SM FEW110 16/10 A2995 990 67 1400 100/05 RMK AO2
14926KSTC STC20060604053010106/04/06 05:30:31  5-MIN KSTC 041130Z AUTO 10005KT 10SM FEW100 16/10 A2996 990 67 1400 100/05 RMK AO2
14926KSTC STC20060604053509806/04/06 05:35:31  5-MIN KSTC 041135Z AUTO 10005KT 10SM CLR 17/10 A2996 990 64 1500 100/05 RMK AO2
14926KSTC STC20060604054010106/04/06 05:40:31  5-MIN KSTC 041140Z AUTO 11005KT 10SM FEW100 17/10 A2996 990 64 1500 110/05 RMK AO2
14926KSTC STC20060604054510106/04/06 05:45:31  5-MIN KSTC 041145Z AUTO 12005KT 10SM SCT100 17/10 A2996 990 64 1500 110/05 RMK AO2
14926KSTC STC20060604055013106/04/06 05:50:31  5-MIN KSTC 041150Z 12006KT 10SM SCT100 17/11 A2996 990 64 1500 120/06 RMK AO2 SLP147 T01720106 10194 20156 58002
14926KSTC STC20060604055509606/04/06 05:55:31  5-MIN KSTC 041155Z 12006KT 10SM SCT100 17/10 A2996 990 62 1500 120/06 RMK AO2
14926KSTC STC20060604060009606/04/06 06:00:31  5-MIN KSTC 041200Z 12005KT 10SM SCT100 17/11 A2996 990 64 1500 120/05 RMK AO2
14926KSTC STC20060604060509606/04/06 06:05:31  5-MIN KSTC 041205Z 12005KT 10SM FEW100 17/11 A2996 990 64 1500 110/05 RMK AO2
14926KSTC STC20060604061009606/04/06 06:10:31  5-MIN KSTC 041210Z 11005KT 10SM FEW100 18/11 A2996 990 62 1600 100/05 RMK AO2
14926KSTC STC20060604061509606/04/06 06:15:31  5-MIN KSTC 041215Z 13005KT 10SM FEW100 18/11 A2996 990 62 1600 130/05 RMK AO2
14926KSTC STC20060604062009606/04/06 06:20:31  5-MIN KSTC 041220Z 14008KT 10SM SCT100 18/11 A2996 990 60 1600 140/08 RMK AO2
14926KSTC STC20060604062509606/04/06 06:25:31  5-MIN KSTC 041225Z 13008KT 10SM SCT095 18/11 A2996 990 60 1600 130/08 RMK AO2
14926KSTC STC20060604063009606/04/06 06:30:31  5-MIN KSTC 041230Z 13008KT 10SM BKN095 18/11 A2996 990 60 1600 130/08 RMK AO2
14926KSTC STC20060604063509606/04/06 06:35:31  5-MIN KSTC 041235Z 13008KT 10SM BKN095 19/11 A2996 990 60 1700 130/08 RMK AO2
14926KSTC STC20060604064009606/04/06 06:40:31  5-MIN KSTC 041240Z 14009KT 10SM BKN090 19/11 A2997 980 60 1700 130/09 RMK AO2
14926KSTC STC20060604064509606/04/06 06:45:31  5-MIN KSTC 041245Z 13008KT 10SM OVC090 19/11 A2997 980 58 1800 130/08 RMK AO2
14926KSTC STC20060604065011306/04/06 06:50:31  5-MIN KSTC 041250Z 13009KT 10SM OVC090 19/11 A2997 980 58 1800 130/09 RMK AO2 SLP152 T01940111
14926KSTC STC20060604065509606/04/06 06:55:31  5-MIN KSTC 041255Z 13007KT 10SM OVC090 19/11 A2997 980 58 1800 120/07 RMK AO2
14926KSTC STC20060604070009606/04/06 07:00:31  5-MIN KSTC 041300Z 13007KT 10SM OVC090 19/11 A2997 980 58 1800 130/07 RMK AO2
14926KSTC STC20060604070509606/04/06 07:05:31  5-MIN KSTC 041305Z 13010KT 10SM OVC090 19/11 A2997 980 58 1800 130/10 RMK AO2
14926KSTC STC20060604071009606/04/06 07:10:31  5-MIN KSTC 041310Z 14008KT 10SM OVC095 19/11 A2997 980 58 1800 130/08 RMK AO2
14926KSTC STC20060604071509606/04/06 07:15:31  5-MIN KSTC 041315Z 15007KT 10SM OVC095 19/11 A2998 980 58 1800 140/07 RMK AO2
14926KSTC STC20060604072010306/04/06 07:20:31  5-MIN KSTC 041320Z 14007KT 10SM BKN100 OVC110 20/12 A2997 980 58 1800 140/07 RMK AO2
14926KSTC STC20060604072509606/04/06 07:25:31  5-MIN KSTC 041325Z 15008KT 10SM BKN100 20/12 A2997 980 58 1800 140/08 RMK AO2
14926KSTC STC20060604073009606/04/06 07:30:31  5-MIN KSTC 041330Z 16010KT 10SM BKN100 21/12 A2998 980 56 1900 150/10 RMK AO2
14926KSTC STC20060604073509606/04/06 07:35:31  5-MIN KSTC 041335Z 15011KT 10SM SCT100 20/12 A2998 970 58 1800 140/11 RMK AO2
14926KSTC STC20060604074009606/04/06 07:40:31  5-MIN KSTC 041340Z 15011KT 10SM SCT100 21/12 A2998 970 56 1900 150/11 RMK AO2
14926KSTC STC20060604074509606/04/06 07:45:31  5-MIN KSTC 041345Z 16012KT 10SM FEW110 21/12 A2997 980 54 2000 160/12 RMK AO2
14926KSTC STC20060604075011006/04/06 07:50:31  5-MIN KSTC 041350Z 16014KT 10SM CLR 21/12 A2997 980 54 2000 160/14 RMK AO2 SLP153 T02110117
14926KSTC STC20060604075509306/04/06 07:55:31  5-MIN KSTC 041355Z 15012KT 10SM CLR 22/12 A2997 980 52 2100 150/12 RMK AO2
14926KSTC STC20060604080009306/04/06 08:00:31  5-MIN KSTC 041400Z 15014KT 10SM CLR 22/12 A2997 980 51 2100 150/14 RMK AO2
14926KSTC STC20060604080509306/04/06 08:05:31  5-MIN KSTC 041405Z 15011KT 10SM CLR 22/12 A2997 980 51 2100 150/11 RMK AO2
14926KSTC STC20060604081009306/04/06 08:10:31  5-MIN KSTC 041410Z 15012KT 10SM CLR 22/12 A2997 980 51 2100 150/12 RMK AO2
14926KSTC STC20060604081509306/04/06 08:15:31  5-MIN KSTC 041415Z 15015KT 10SM CLR 23/12 A2997 980 49 2200 140/15 RMK AO2
14926KSTC STC20060604082009306/04/06 08:20:31  5-MIN KSTC 041420Z 15013KT 10SM CLR 23/12 A2996 990 49 2200 150/13 RMK AO2
14926KSTC STC20060604082509306/04/06 08:25:31  5-MIN KSTC 041425Z 16012KT 10SM CLR 23/12 A2996 990 49 2200 150/12 RMK AO2
14926KSTC STC20060604083009906/04/06 08:30:31  5-MIN KSTC 041430Z 16016G20KT 10SM CLR 23/12 A2996 990 49 2200 160/16G20 RMK AO2
14926KSTC STC20060604083509306/04/06 08:35:31  5-MIN KSTC 041435Z 16014KT 10SM CLR 23/12 A2996 990 47 2200 160/14 RMK AO2
14926KSTC STC20060604084009906/04/06 08:40:31  5-MIN KSTC 041440Z 17017G22KT 10SM CLR 23/12 A2996 990 49 2200 170/17G22 RMK AO2
14926KSTC STC20060604084510206/04/06 08:45:31  5-MIN KSTC 041445Z 16015G22KT 10SM FEW065 23/12 A2996 990 49 2200 160/15G22 RMK AO2
14926KSTC STC20060604085011906/04/06 08:50:31  5-MIN KSTC 041450Z 16012KT 10SM SCT065 23/12 A2996 990 49 2200 160/12 RMK AO2 SLP148 T02280117 53005
14926KSTC STC20060604085509606/04/06 08:55:31  5-MIN KSTC 041455Z 16016KT 10SM SCT065 24/12 A2996 990 47 2300 160/16 RMK AO2
14926KSTC STC20060604090009606/04/06 09:00:31  5-MIN KSTC 041500Z 18013KT 10SM SCT065 24/12 A2996 990 47 2300 180/13 RMK AO2
14926KSTC STC20060604090509706/04/06 09:05:31  5-MIN KSTC 041505Z 17014KT 10SM FEW065 24/12 A2995 1000 47 2300 170/14 RMK AO2
14926KSTC STC20060604091009606/04/06 09:10:31  5-MIN KSTC 041510Z 17012KT 10SM FEW065 23/12 A2995 990 47 2200 170/12 RMK AO2
14926KSTC STC20060604091509706/04/06 09:15:31  5-MIN KSTC 041515Z 16015KT 10SM FEW065 24/12 A2995 1000 47 2300 160/15 RMK AO2
14926KSTC STC20060604092009706/04/06 09:20:31  5-MIN KSTC 041520Z 16016KT 10SM FEW070 24/12 A2995 1000 47 2300 160/16 RMK AO2
14926KSTC STC20060604092509406/04/06 09:25:31  5-MIN KSTC 041525Z 17014KT 10SM CLR 24/12 A2995 1000 46 2300 160/14 RMK AO2
14926KSTC STC20060604093009406/04/06 09:30:31  5-MIN KSTC 041530Z 16015KT 10SM CLR 24/12 A2995 1000 46 2400 150/15 RMK AO2
14926KSTC STC20060604093509406/04/06 09:35:31  5-MIN KSTC 041535Z 17016KT 10SM CLR 24/12 A2995 1000 46 2400 170/16 RMK AO2
14926KSTC STC20060604094009406/04/06 09:40:31  5-MIN KSTC 041540Z 18015KT 10SM CLR 25/12 A2995 1000 44 2400 170/15 RMK AO2
14926KSTC STC20060604094510006/04/06 09:45:31  5-MIN KSTC 041545Z 16016G21KT 10SM CLR 25/12 A2995 1000 44 2400 150/16G21 RMK AO2
14926KSTC STC20060604095011106/04/06 09:50:31  5-MIN KSTC 041550Z 17014KT 10SM CLR 25/12 A2994 1010 44 2400 170/14 RMK AO2 SLP142 T02500122
14926KSTC STC20060604095509406/04/06 09:55:31  5-MIN KSTC 041555Z 17014KT 10SM CLR 26/12 A2994 1010 43 2500 170/14 RMK AO2
14926KSTC STC20060604100009406/04/06 10:00:31  5-MIN KSTC 041600Z 16016KT 10SM CLR 25/12 A2994 1010 43 2400 160/16 RMK AO2
14926KSTC STC20060604100509406/04/06 10:05:31  5-MIN KSTC 041605Z 18014KT 10SM CLR 25/12 A2994 1010 44 2400 170/14 RMK AO2
14926KSTC STC20060604101010006/04/06 10:10:31  5-MIN KSTC 041610Z 16014G20KT 10SM CLR 25/12 A2994 1010 44 2400 150/14G20 RMK AO2
14926KSTC STC20060604101509406/04/06 10:15:31  5-MIN KSTC 041615Z 16016KT 10SM CLR 26/12 A2994 1010 43 2500 160/16 RMK AO2
14926KSTC STC20060604102009406/04/06 10:20:31  5-MIN KSTC 041620Z 15015KT 10SM CLR 26/12 A2994 1010 41 2600 150/15 RMK AO2
14926KSTC STC20060604102509406/04/06 10:25:31  5-MIN KSTC 041625Z 17014KT 10SM CLR 26/12 A2994 1010 41 2600 170/14 RMK AO2
14926KSTC STC20060604103009406/04/06 10:30:31  5-MIN KSTC 041630Z 16014KT 10SM CLR 27/13 A2994 1010 41 2600 160/14 RMK AO2
14926KSTC STC20060604103509406/04/06 10:35:31  5-MIN KSTC 041635Z 18013KT 10SM CLR 26/13 A2994 1000 43 2600 180/13 RMK AO2
14926KSTC STC20060604104010006/04/06 10:40:31  5-MIN KSTC 041640Z 17012G18KT 10SM CLR 27/12 A2994 1010 40 2600 170/12G18 RMK AO2
14926KSTC STC20060604104509406/04/06 10:45:31  5-MIN KSTC 041645Z 16013KT 10SM CLR 27/13 A2994 1010 41 2600 160/13 RMK AO2
14926KSTC STC20060604105011106/04/06 10:50:31  5-MIN KSTC 041650Z 18011KT 10SM CLR 27/12 A2994 1010 40 2600 170/11 RMK AO2 SLP141 T02670122
14926KSTC STC20060604105509406/04/06 10:55:31  5-MIN KSTC 041655Z 17012KT 10SM CLR 27/13 A2994 1010 40 2700 170/12 RMK AO2
14926KSTC STC20060604110009406/04/06 11:00:31  5-MIN KSTC 041700Z 16012KT 10SM CLR 27/13 A2994 1010 41 2600 150/12 RMK AO2
14926KSTC STC20060604110509406/04/06 11:05:31  5-MIN KSTC 041705Z 15015KT 10SM CLR 26/12 A2994 1010 41 2600 150/15 RMK AO2
14926KSTC STC20060604111010006/04/06 11:10:31  5-MIN KSTC 041710Z 18014G21KT 10SM CLR 26/12 A2994 1010 41 2600 180/14G21 RMK AO2
14926KSTC STC20060604111510006/04/06 11:15:31  5-MIN KSTC 041715Z 18011G21KT 10SM CLR 26/12 A2994 1010 41 2600 180/11G21 RMK AO2
14926KSTC STC20060604112009406/04/06 11:20:31  5-MIN KSTC 041720Z 18013KT 10SM CLR 27/12 A2994 1010 40 2600 180/13 RMK AO2
14926KSTC STC20060604112509406/04/06 11:25:31  5-MIN KSTC 041725Z 18014KT 10SM CLR 27/13 A2994 1010 41 2600 180/14 RMK AO2
14926KSTC STC20060604113009406/04/06 11:30:31  5-MIN KSTC 041730Z 19012KT 10SM CLR 26/13 A2994 1010 43 2600 180/12 RMK AO2
14926KSTC STC20060604113509406/04/06 11:35:31  5-MIN KSTC 041735Z 18014KT 10SM CLR 27/13 A2994 1010 40 2700 170/14 RMK AO2
14926KSTC STC20060604114009406/04/06 11:40:31  5-MIN KSTC 041740Z 16014KT 10SM CLR 27/12 A2994 1010 39 2700 160/14 RMK AO2
14926KSTC STC20060604114509406/04/06 11:45:31  5-MIN KSTC 041745Z 16013KT 10SM CLR 27/13 A2994 1010 41 2600 160/13 RMK AO2
14926KSTC STC20060604115012906/04/06 11:50:31  5-MIN KSTC 041750Z 19014KT 10SM CLR 27/13 A2994 1010 41 2600 190/14 RMK AO2 SLP140 T02670128 10272 20172 50000
14926KSTC STC20060604115509406/04/06 11:55:31  5-MIN KSTC 041755Z 17015KT 10SM CLR 27/12 A2993 1010 40 2600 170/15 RMK AO2
14926KSTC STC20060604120009406/04/06 12:00:31  5-MIN KSTC 041800Z 18014KT 10SM CLR 27/12 A2993 1010 40 2600 180/14 RMK AO2
14926KSTC STC20060604120509406/04/06 12:05:31  5-MIN KSTC 041805Z 17014KT 10SM CLR 27/13 A2993 1010 41 2600 170/14 RMK AO2
14926KSTC STC20060604121010006/04/06 12:10:31  5-MIN KSTC 041810Z 16014G19KT 10SM CLR 27/12 A2994 1010 40 2600 150/14G19 RMK AO2
14926KSTC STC20060604121510006/04/06 12:15:31  5-MIN KSTC 041815Z 17014G19KT 10SM CLR 27/13 A2993 1010 41 2600 170/14G19 RMK AO2
14926KSTC STC20060604122010006/04/06 12:20:31  5-MIN KSTC 041820Z 17014G20KT 10SM CLR 26/12 A2993 1020 41 2600 170/14G20 RMK AO2
14926KSTC STC20060604122510006/04/06 12:25:31  5-MIN KSTC 041825Z 19013G20KT 10SM CLR 26/12 A2993 1020 41 2600 180/13G20 RMK AO2
14926KSTC STC20060604123010006/04/06 12:30:31  5-MIN KSTC 041830Z 16016G20KT 10SM CLR 27/13 A2993 1020 41 2600 160/16G20 RMK AO2
14926KSTC STC20060604123510006/04/06 12:35:31  5-MIN KSTC 041835Z 16014G20KT 10SM CLR 26/12 A2993 1020 41 2600 160/14G20 RMK AO2
14926KSTC STC20060604124010006/04/06 12:40:31  5-MIN KSTC 041840Z 17014G18KT 10SM CLR 27/13 A2993 1020 41 2600 170/14G18 RMK AO2
14926KSTC STC20060604124509406/04/06 12:45:31  5-MIN KSTC 041845Z 17014KT 10SM CLR 27/13 A2993 1020 40 2700 170/14 RMK AO2
14926KSTC STC20060604125011106/04/06 12:50:31  5-MIN KSTC 041850Z 16015KT 10SM CLR 27/13 A2993 1020 40 2700 160/15 RMK AO2 SLP137 T02720128
14926KSTC STC20060604125509406/04/06 12:55:31  5-MIN KSTC 041855Z 17015KT 10SM CLR 27/12 A2992 1020 39 2700 160/15 RMK AO2
14926KSTC STC20060604130009406/04/06 13:00:31  5-MIN KSTC 041900Z 18014KT 10SM CLR 27/12 A2993 1020 40 2600 170/14 RMK AO2
14926KSTC STC20060604130509406/04/06 13:05:31  5-MIN KSTC 041905Z 16015KT 10SM CLR 27/13 A2992 1020 41 2600 160/15 RMK AO2
14926KSTC STC20060604131009406/04/06 13:10:31  5-MIN KSTC 041910Z 19013KT 10SM CLR 27/13 A2992 1020 41 2600 180/13 RMK AO2
14926KSTC STC20060604131509406/04/06 13:15:31  5-MIN KSTC 041915Z 16016KT 10SM CLR 27/12 A2993 1020 40 2600 150/16 RMK AO2
14926KSTC STC20060604132009406/04/06 13:20:31  5-MIN KSTC 041920Z 18012KT 10SM CLR 27/12 A2993 1020 40 2600 170/12 RMK AO2
14926KSTC STC20060604132509406/04/06 13:25:31  5-MIN KSTC 041925Z 17013KT 10SM CLR 26/12 A2993 1020 41 2600 170/13 RMK AO2
14926KSTC STC20060604133009406/04/06 13:30:31  5-MIN KSTC 041930Z 16012KT 10SM CLR 26/12 A2993 1020 41 2600 160/12 RMK AO2
14926KSTC STC20060604133509406/04/06 13:35:31  5-MIN KSTC 041935Z 17011KT 10SM CLR 27/13 A2993 1020 41 2600 170/11 RMK AO2
14926KSTC STC20060604134009406/04/06 13:40:31  5-MIN KSTC 041940Z 16011KT 10SM CLR 27/13 A2993 1020 41 2600 160/11 RMK AO2
14926KSTC STC20060604134509406/04/06 13:45:31  5-MIN KSTC 041945Z 17014KT 10SM CLR 27/13 A2993 1020 41 2600 160/14 RMK AO2
14926KSTC STC20060604135011106/04/06 13:50:31  5-MIN KSTC 041950Z 18012KT 10SM CLR 26/13 A2993 1020 43 2600 180/12 RMK AO2 SLP137 T02610128
14926KSTC STC20060604135509406/04/06 13:55:31  5-MIN KSTC 041955Z 18009KT 10SM CLR 27/13 A2993 1020 41 2600 180/09 RMK AO2
14926KSTC STC20060604140009406/04/06 14:00:31  5-MIN KSTC 042000Z 17013KT 10SM CLR 27/13 A2992 1020 41 2600 160/13 RMK AO2
14926KSTC STC20060604140509406/04/06 14:05:31  5-MIN KSTC 042005Z 17010KT 10SM CLR 27/13 A2992 1020 41 2600 170/10 RMK AO2
14926KSTC STC20060604141009406/04/06 14:10:31  5-MIN KSTC 042010Z 19014KT 10SM CLR 27/12 A2992 1020 40 2600 190/14 RMK AO2
14926KSTC STC20060604141509406/04/06 14:15:31  5-MIN KSTC 042015Z 19012KT 10SM CLR 27/12 A2992 1020 40 2600 180/12 RMK AO2
14926KSTC STC20060604142009406/04/06 14:20:31  5-MIN KSTC 042020Z 18012KT 10SM CLR 27/13 A2992 1030 41 2600 170/12 RMK AO2
14926KSTC STC20060604142509406/04/06 14:25:31  5-MIN KSTC 042025Z 19013KT 10SM CLR 27/13 A2992 1030 41 2600 180/13 RMK AO2
14926KSTC STC20060604143009406/04/06 14:30:31  5-MIN KSTC 042030Z 18013KT 10SM CLR 27/12 A2992 1030 40 2600 180/13 RMK AO2
14926KSTC STC20060604143509406/04/06 14:35:31  5-MIN KSTC 042035Z 18012KT 10SM CLR 27/13 A2992 1030 41 2600 180/12 RMK AO2
14926KSTC STC20060604144009406/04/06 14:40:31  5-MIN KSTC 042040Z 18011KT 10SM CLR 27/13 A2992 1030 40 2700 180/11 RMK AO2
14926KSTC STC20060604144509406/04/06 14:45:31  5-MIN KSTC 042045Z 17013KT 10SM CLR 27/13 A2991 1030 40 2700 170/13 RMK AO2
14926KSTC STC20060604145011706/04/06 14:50:31  5-MIN KSTC 042050Z 16012KT 10SM CLR 27/12 A2991 1030 40 2700 160/12 RMK AO2 SLP132 T02670122 56008
14926KSTC STC20060604145510006/04/06 14:55:31  5-MIN KSTC 042055Z 17014G20KT 10SM CLR 27/12 A2991 1040 40 2700 160/14G20 RMK AO2
14926KSTC STC20060604150010006/04/06 15:00:31  5-MIN KSTC 042100Z 15014G20KT 10SM CLR 27/12 A2991 1040 39 2700 150/14G20 RMK AO2
14926KSTC STC20060604150509406/04/06 15:05:31  5-MIN KSTC 042105Z 16015KT 10SM CLR 27/12 A2991 1040 37 2700 150/15 RMK AO2
14926KSTC STC20060604151009406/04/06 15:10:31  5-MIN KSTC 042110Z 16015KT 10SM CLR 27/12 A2991 1040 37 2700 160/15 RMK AO2
14926KSTC STC20060604151509406/04/06 15:15:31  5-MIN KSTC 042115Z 17013KT 10SM CLR 28/12 A2990 1040 36 2800 160/13 RMK AO2
14926KSTC STC20060604152009406/04/06 15:20:31  5-MIN KSTC 042120Z 16016KT 10SM CLR 28/12 A2990 1040 36 2800 160/16 RMK AO2
14926KSTC STC20060604152509406/04/06 15:25:31  5-MIN KSTC 042125Z 17016KT 10SM CLR 28/12 A2990 1040 36 2800 170/16 RMK AO2
14926KSTC STC20060604153009406/04/06 15:30:31  5-MIN KSTC 042130Z 16014KT 10SM CLR 28/12 A2990 1050 36 2800 160/14 RMK AO2
14926KSTC STC20060604153509406/04/06 15:35:31  5-MIN KSTC 042135Z 15015KT 10SM CLR 28/12 A2990 1050 35 2900 150/15 RMK AO2
14926KSTC STC20060604154009406/04/06 15:40:31  5-MIN KSTC 042140Z 16016KT 10SM CLR 28/12 A2989 1050 36 2800 160/16 RMK AO2
14926KSTC STC20060604154510006/04/06 15:45:31  5-MIN KSTC 042145Z 17015G20KT 10SM CLR 28/11 A2990 1050 33 2900 170/15G20 RMK AO2
14926KSTC STC20060604155011106/04/06 15:50:31  5-MIN KSTC 042150Z 17016KT 10SM CLR 28/11 A2990 1050 33 2900 160/16 RMK AO2 SLP127 T02830111
14926KSTC STC20060604155510006/04/06 15:55:31  5-MIN KSTC 042155Z 16014G21KT 10SM CLR 28/12 A2990 1050 36 2800 160/14G21 RMK AO2
14926KSTC STC20060604160009406/04/06 16:00:31  5-MIN KSTC 042200Z 16013KT 10SM CLR 28/12 A2990 1050 35 2900 150/13 RMK AO2
14926KSTC STC20060604160509406/04/06 16:05:31  5-MIN KSTC 042205Z 17014KT 10SM CLR 28/12 A2989 1050 35 2900 170/14 RMK AO2
14926KSTC STC20060604161009406/04/06 16:10:31  5-MIN KSTC 042210Z 17014KT 10SM CLR 28/12 A2989 1050 35 2900 170/14 RMK AO2
14926KSTC STC20060604161509406/04/06 16:15:31  5-MIN KSTC 042215Z 17014KT 10SM CLR 29/12 A2989 1050 34 2900 160/14 RMK AO2
14926KSTC STC20060604162009406/04/06 16:20:31  5-MIN KSTC 042220Z 17015KT 10SM CLR 28/12 A2989 1050 35 2900 170/15 RMK AO2
14926KSTC STC20060604162510006/04/06 16:25:31  5-MIN KSTC 042225Z 16014G20KT 10SM CLR 28/12 A2989 1050 35 2900 160/14G20 RMK AO2
14926KSTC STC20060604163009406/04/06 16:30:31  5-MIN KSTC 042230Z 17016KT 10SM CLR 28/12 A2989 1060 35 2900 160/16 RMK AO2
14926KSTC STC20060604163509406/04/06 16:35:31  5-MIN KSTC 042235Z 18014KT 10SM CLR 28/12 A2989 1050 35 2900 180/14 RMK AO2
14926KSTC STC20060604164009406/04/06 16:40:31  5-MIN KSTC 042240Z 17015KT 10SM CLR 28/12 A2989 1060 35 2900 160/15 RMK AO2
14926KSTC STC20060604164509406/04/06 16:45:31  5-MIN KSTC 042245Z 16014KT 10SM CLR 28/12 A2989 1060 35 2900 160/14 RMK AO2
14926KSTC STC20060604165011106/04/06 16:50:31  5-MIN KSTC 042250Z 15016KT 10SM CLR 28/12 A2988 1060 36 2800 150/16 RMK AO2 SLP124 T02780117
14926KSTC STC20060604165509406/04/06 16:55:31  5-MIN KSTC 042255Z 16014KT 10SM CLR 28/11 A2988 1060 35 2800 160/14 RMK AO2
14926KSTC STC20060604170009406/04/06 17:00:31  5-MIN KSTC 042300Z 15015KT 10SM CLR 28/12 A2988 1060 36 2800 150/15 RMK AO2
14926KSTC STC20060604170509406/04/06 17:05:31  5-MIN KSTC 042305Z 16015KT 10SM CLR 28/12 A2988 1060 36 2800 160/15 RMK AO2
14926KSTC STC20060604171009406/04/06 17:10:31  5-MIN KSTC 042310Z 15014KT 10SM CLR 28/12 A2988 1060 36 2800 150/14 RMK AO2
14926KSTC STC20060604171509406/04/06 17:15:31  5-MIN KSTC 042315Z 15014KT 10SM CLR 28/12 A2988 1060 36 2800 150/14 RMK AO2
14926KSTC STC20060604172009406/04/06 17:20:31  5-MIN KSTC 042320Z 16013KT 10SM CLR 28/12 A2988 1060 36 2800 150/13 RMK AO2
14926KSTC STC20060604172509406/04/06 17:25:31  5-MIN KSTC 042325Z 15014KT 10SM CLR 27/12 A2988 1060 37 2700 150/14 RMK AO2
14926KSTC STC20060604173009406/04/06 17:30:31  5-MIN KSTC 042330Z 16014KT 10SM CLR 27/12 A2988 1060 38 2700 150/14 RMK AO2
14926KSTC STC20060604173509406/04/06 17:35:31  5-MIN KSTC 042335Z 17011KT 10SM CLR 27/12 A2988 1060 38 2700 160/11 RMK AO2
14926KSTC STC20060604174009406/04/06 17:40:31  5-MIN KSTC 042340Z 15012KT 10SM CLR 27/12 A2988 1060 38 2700 150/12 RMK AO2
14926KSTC STC20060604174509706/04/06 17:45:31  5-MIN KSTC 042345Z 15011KT 10SM FEW120 26/12 A2988 1060 40 2600 150/11 RMK AO2
14926KSTC STC20060604175013206/04/06 17:50:31  5-MIN KSTC 042350Z 15012KT 10SM SCT110 26/12 A2988 1060 40 2600 150/12 RMK AO2 SLP123 T02610117 10289 20261 58008
14926KSTC STC20060604175509706/04/06 17:55:31  5-MIN KSTC 042355Z 16010KT 10SM SCT110 26/12 A2988 1060 40 2600 150/10 RMK AO2
14926KSTC STC20060604180009706/04/06 18:00:31  5-MIN KSTC 050000Z 15009KT 10SM BKN110 26/12 A2988 1060 40 2600 150/09 RMK AO2
14926KSTC STC20060604180509706/04/06 18:05:31  5-MIN KSTC 050005Z 15012KT 10SM BKN100 26/12 A2988 1060 40 2600 150/12 RMK AO2
14926KSTC STC20060604181009706/04/06 18:10:31  5-MIN KSTC 050010Z 15011KT 10SM OVC100 26/12 A2988 1060 40 2600 150/11 RMK AO2
14926KSTC STC20060604181509706/04/06 18:15:31  5-MIN KSTC 050015Z 15009KT 10SM BKN100 26/12 A2988 1060 40 2600 140/09 RMK AO2
14926KSTC STC20060604182009706/04/06 18:20:31  5-MIN KSTC 050020Z 14010KT 10SM BKN100 26/12 A2989 1060 43 2600 140/10 RMK AO2
14926KSTC STC20060604182509706/04/06 18:25:31  5-MIN KSTC 050025Z 14009KT 10SM BKN100 26/12 A2989 1060 43 2600 140/09 RMK AO2
14926KSTC STC20060604183009706/04/06 18:30:31  5-MIN KSTC 050030Z 15010KT 10SM BKN100 26/12 A2989 1060 41 2600 140/10 RMK AO2
14926KSTC STC20060604183509706/04/06 18:35:31  5-MIN KSTC 050035Z 14009KT 10SM BKN100 26/12 A2989 1060 41 2600 140/09 RMK AO2
14926KSTC STC20060604184009706/04/06 18:40:31  5-MIN KSTC 050040Z 15010KT 10SM BKN100 26/12 A2988 1060 43 2600 140/10 RMK AO2
14926KSTC STC20060604184509706/04/06 18:45:31  5-MIN KSTC 050045Z 15010KT 10SM BKN100 26/12 A2989 1060 43 2600 140/10 RMK AO2
14926KSTC STC20060604185011406/04/06 18:50:31  5-MIN KSTC 050050Z 14010KT 10SM OVC100 25/12 A2988 1060 44 2500 140/10 RMK AO2 SLP122 T02500122
14926KSTC STC20060604185509706/04/06 18:55:31  5-MIN KSTC 050055Z 14010KT 10SM OVC100 25/12 A2988 1060 44 2500 140/10 RMK AO2
14926KSTC STC20060604190009706/04/06 19:00:31  5-MIN KSTC 050100Z 14012KT 10SM OVC100 25/12 A2988 1060 44 2500 140/12 RMK AO2
14926KSTC STC20060604190509706/04/06 19:05:31  5-MIN KSTC 050105Z 14011KT 10SM OVC110 25/12 A2988 1070 43 2500 140/11 RMK AO2
14926KSTC STC20060604191009706/04/06 19:10:31  5-MIN KSTC 050110Z 15009KT 10SM OVC110 25/12 A2988 1070 44 2500 140/09 RMK AO2
14926KSTC STC20060604191509706/04/06 19:15:31  5-MIN KSTC 050115Z 15011KT 10SM OVC110 25/12 A2988 1070 43 2500 140/11 RMK AO2
14926KSTC STC20060604192009706/04/06 19:20:31  5-MIN KSTC 050120Z 15010KT 10SM OVC100 25/12 A2988 1070 43 2500 150/10 RMK AO2
14926KSTC STC20060604192509706/04/06 19:25:31  5-MIN KSTC 050125Z 15012KT 10SM OVC110 25/12 A2988 1070 43 2500 150/12 RMK AO2
14926KSTC STC20060604193009706/04/06 19:30:31  5-MIN KSTC 050130Z 15011KT 10SM OVC110 25/12 A2988 1070 43 2500 150/11 RMK AO2
14926KSTC STC20060604193509706/04/06 19:35:31  5-MIN KSTC 050135Z 16011KT 10SM OVC110 25/11 A2988 1060 41 2500 150/11 RMK AO2
14926KSTC STC20060604194009706/04/06 19:40:31  5-MIN KSTC 050140Z 16010KT 10SM OVC100 25/11 A2988 1060 41 2500 150/10 RMK AO2
14926KSTC STC20060604194509706/04/06 19:45:31  5-MIN KSTC 050145Z 15012KT 10SM OVC100 25/11 A2988 1070 41 2500 150/12 RMK AO2
14926KSTC STC20060604195011406/04/06 19:50:31  5-MIN KSTC 050150Z 16010KT 10SM OVC100 25/11 A2988 1070 41 2500 150/10 RMK AO2 SLP120 T02500111
14926KSTC STC20060604195509706/04/06 19:55:31  5-MIN KSTC 050155Z 16011KT 10SM OVC100 25/11 A2987 1070 41 2500 150/11 RMK AO2
14926KSTC STC20060604200009706/04/06 20:00:31  5-MIN KSTC 050200Z 15012KT 10SM OVC100 24/11 A2987 1070 42 2400 150/12 RMK AO2
14926KSTC STC20060604200509706/04/06 20:05:31  5-MIN KSTC 050205Z 15013KT 10SM OVC100 24/12 A2987 1070 44 2400 150/13 RMK AO2
14926KSTC STC20060604201009706/04/06 20:10:31  5-MIN KSTC 050210Z 15011KT 10SM OVC100 24/12 A2987 1070 44 2400 150/11 RMK AO2
14926KSTC STC20060604201509706/04/06 20:15:31  5-MIN KSTC 050215Z 16012KT 10SM OVC100 24/12 A2988 1070 44 2400 150/12 RMK AO2
14926KSTC STC20060604202009706/04/06 20:20:31  5-MIN KSTC 050220Z 16009KT 10SM OVC100 24/12 A2988 1070 44 2400 150/09 RMK AO2
14926KSTC STC20060604202509706/04/06 20:25:31  5-MIN KSTC 050225Z 16009KT 10SM OVC100 24/12 A2988 1060 44 2400 150/09 RMK AO2
14926KSTC STC20060604203009706/04/06 20:30:31  5-MIN KSTC 050230Z 16010KT 10SM OVC100 24/12 A2988 1060 44 2400 150/10 RMK AO2
14926KSTC STC20060604203509706/04/06 20:35:31  5-MIN KSTC 050235Z 15010KT 10SM OVC100 24/12 A2988 1060 44 2400 150/10 RMK AO2
14926KSTC STC20060604204009706/04/06 20:40:31  5-MIN KSTC 050240Z 14009KT 10SM OVC100 24/12 A2988 1060 46 2400 140/09 RMK AO2
14926KSTC STC20060604204509706/04/06 20:45:31  5-MIN KSTC 050245Z 14009KT 10SM OVC100 24/12 A2988 1060 47 2400 140/09 RMK AO2
14926KSTC STC20060604205012006/04/06 20:50:31  5-MIN KSTC 050250Z 14008KT 10SM OVC100 24/12 A2988 1060 47 2400 140/08 RMK AO2 SLP122 T02390122 56009
14926KSTC STC20060604205509706/04/06 20:55:31  5-MIN KSTC 050255Z 14008KT 10SM OVC100 24/12 A2988 1060 47 2400 140/08 RMK AO2
14926KSTC STC20060604210009706/04/06 21:00:31  5-MIN KSTC 050300Z 15008KT 10SM OVC100 24/12 A2989 1050 47 2400 140/08 RMK AO2
14926KSTC STC20060604210509706/04/06 21:05:31  5-MIN KSTC 050305Z 14008KT 10SM OVC100 24/12 A2989 1050 47 2400 140/08 RMK AO2
14926KSTC STC20060604211009706/04/06 21:10:31  5-MIN KSTC 050310Z 14008KT 10SM OVC100 23/12 A2989 1050 49 2300 140/08 RMK AO2
14926KSTC STC20060604211509706/04/06 21:15:31  5-MIN KSTC 050315Z 15009KT 10SM OVC110 24/12 A2989 1050 46 2400 140/09 RMK AO2
14926KSTC STC20060604212009706/04/06 21:20:31  5-MIN KSTC 050320Z 15009KT 10SM OVC100 24/12 A2989 1050 46 2400 140/09 RMK AO2
14926KSTC STC20060604212509706/04/06 21:25:31  5-MIN KSTC 050325Z 15009KT 10SM OVC100 24/12 A2989 1050 46 2400 150/09 RMK AO2
14926KSTC STC20060604213009706/04/06 21:30:31  5-MIN KSTC 050330Z 15010KT 10SM OVC100 23/12 A2989 1060 47 2300 140/10 RMK AO2
14926KSTC STC20060604213509706/04/06 21:35:31  5-MIN KSTC 050335Z 15010KT 10SM OVC110 24/11 A2989 1050 44 2400 150/10 RMK AO2
14926KSTC STC20060604214009706/04/06 21:40:31  5-MIN KSTC 050340Z 15011KT 10SM OVC110 24/11 A2989 1060 44 2400 150/11 RMK AO2
14926KSTC STC20060604214509706/04/06 21:45:31  5-MIN KSTC 050345Z 15011KT 10SM OVC110 24/11 A2989 1050 42 2400 150/11 RMK AO2
14926KSTC STC20060604215011906/04/06 21:50:31  5-MIN KSTC 050350Z AUTO 15010KT 10SM OVC110 23/11 A2989 1050 45 2300 150/10 RMK AO2 SLP124 T02330111
14926KSTC STC20060604215510206/04/06 21:55:31  5-MIN KSTC 050355Z AUTO 15011KT 10SM OVC110 23/11 A2989 1050 44 2300 140/11 RMK AO2
14926KSTC STC20060604220010206/04/06 22:00:31  5-MIN KSTC 050400Z AUTO 15010KT 10SM OVC110 23/11 A2989 1050 44 2300 150/10 RMK AO2
14926KSTC STC20060604220510206/04/06 22:05:31  5-MIN KSTC 050405Z AUTO 15010KT 10SM OVC110 23/11 A2989 1050 44 2300 150/10 RMK AO2
14926KSTC STC20060604221010206/04/06 22:10:31  5-MIN KSTC 050410Z AUTO 15011KT 10SM OVC120 23/11 A2989 1050 44 2300 150/11 RMK AO2
14926KSTC STC20060604221510206/04/06 22:15:31  5-MIN KSTC 050415Z AUTO 16010KT 10SM OVC120 23/11 A2989 1050 44 2300 150/10 RMK AO2
14926KSTC STC20060604222010206/04/06 22:20:31  5-MIN KSTC 050420Z AUTO 16010KT 10SM OVC120 23/11 A2990 1050 44 2300 160/10 RMK AO2
14926KSTC STC20060604222510206/04/06 22:25:31  5-MIN KSTC 050425Z AUTO 16010KT 10SM BKN120 23/11 A2989 1050 45 2200 150/10 RMK AO2
14926KSTC STC20060604223010206/04/06 22:30:31  5-MIN KSTC 050430Z AUTO 16010KT 10SM BKN120 23/11 A2990 1050 44 2300 160/10 RMK AO2
14926KSTC STC20060604223510206/04/06 22:35:31  5-MIN KSTC 050435Z AUTO 16010KT 10SM SCT120 23/10 A2990 1050 44 2200 160/10 RMK AO2
14926KSTC STC20060604224010206/04/06 22:40:31  5-MIN KSTC 050440Z AUTO 16010KT 10SM FEW120 23/10 A2990 1040 44 2200 160/10 RMK AO2
14926KSTC STC20060604224510906/04/06 22:45:31  5-MIN KSTC 050445Z AUTO 16009KT 10SM FEW080 SCT120 23/10 A2990 1040 42 2300 160/09 RMK AO2
14926KSTC STC20060604225011906/04/06 22:50:31  5-MIN KSTC 050450Z AUTO 16009KT 10SM SCT080 23/10 A2990 1040 42 2300 160/09 RMK AO2 SLP127 T02330100
14926KSTC STC20060604225510206/04/06 22:55:31  5-MIN KSTC 050455Z AUTO 16009KT 10SM BKN080 23/10 A2990 1040 42 2300 160/09 RMK AO2
14926KSTC STC20060604230010206/04/06 23:00:31  5-MIN KSTC 050500Z AUTO 16009KT 10SM BKN080 23/09 A2990 1040 41 2300 160/09 RMK AO2
14926KSTC STC20060604230510206/04/06 23:05:31  5-MIN KSTC 050505Z AUTO 16011KT 10SM BKN080 23/09 A2990 1040 41 2300 160/11 RMK AO2
14926KSTC STC20060604231010206/04/06 23:10:31  5-MIN KSTC 050510Z AUTO 16010KT 10SM BKN080 23/09 A2990 1040 41 2300 160/10 RMK AO2
14926KSTC STC20060604231510206/04/06 23:15:31  5-MIN KSTC 050515Z AUTO 16010KT 10SM SCT080 23/09 A2990 1040 41 2300 160/10 RMK AO2
14926KSTC STC20060604232010206/04/06 23:20:31  5-MIN KSTC 050520Z AUTO 16011KT 10SM SCT080 23/09 A2990 1050 41 2300 160/11 RMK AO2
14926KSTC STC20060604232510206/04/06 23:25:31  5-MIN KSTC 050525Z AUTO 16010KT 10SM SCT080 24/09 A2990 1050 39 2400 160/10 RMK AO2
14926KSTC STC20060604233010206/04/06 23:30:31  5-MIN KSTC 050530Z AUTO 16010KT 10SM FEW080 23/09 A2990 1050 42 2200 160/10 RMK AO2
14926KSTC STC20060604233509906/04/06 23:35:31  5-MIN KSTC 050535Z AUTO 16010KT 10SM CLR 23/09 A2990 1050 42 2200 160/10 RMK AO2
14926KSTC STC20060604234009906/04/06 23:40:31  5-MIN KSTC 050540Z AUTO 16011KT 10SM CLR 23/09 A2990 1050 42 2200 160/11 RMK AO2
14926KSTC STC20060604234509906/04/06 23:45:31  5-MIN KSTC 050545Z AUTO 16009KT 10SM CLR 23/09 A2990 1050 42 2200 160/09 RMK AO2
14926KSTC STC20060604235014406/04/06 23:50:31  5-MIN KSTC 050550Z AUTO 16011KT 10SM CLR 23/09 A2990 1050 40 2200 160/11 RMK AO2 SLP125 T02280089 10261 20228 402890156 53001
14926KSTC STC20060604235509906/04/06 23:55:31  5-MIN KSTC 050555Z AUTO 16011KT 10SM CLR 23/09 A2990 1050 40 2200 160/11 RMK AO2
14926KSTC STC20060605000009906/05/06 00:00:32  5-MIN KSTC 050600Z AUTO 16009KT 10SM CLR 23/09 A2990 1050 40 2200 160/09 RMK AO2
14926KSTC STC20060605000509906/05/06 00:05:31  5-MIN KSTC 050605Z AUTO 16010KT 10SM CLR 23/09 A2990 1050 40 2200 160/10 RMK AO2
14926KSTC STC20060605001010206/05/06 00:10:31  5-MIN KSTC 050610Z AUTO 16009KT 10SM FEW075 23/09 A2990 1050 40 2200 160/09 RMK AO2
14926KSTC STC20060605001510206/05/06 00:15:31  5-MIN KSTC 050615Z AUTO 16010KT 10SM SCT080 23/09 A2990 1050 40 2200 150/10 RMK AO2
14926KSTC STC20060605002010206/05/06 00:20:31  5-MIN KSTC 050620Z AUTO 16008KT 10SM SCT080 23/09 A2990 1050 40 2200 160/08 RMK AO2
14926KSTC STC20060605002510206/05/06 00:25:31  5-MIN KSTC 050625Z AUTO 16010KT 10SM BKN080 22/09 A2990 1050 43 2200 160/10 RMK AO2
14926KSTC STC20060605003010206/05/06 00:30:31  5-MIN KSTC 050630Z AUTO 16009KT 10SM BKN080 23/09 A2990 1050 40 2200 160/09 RMK AO2
14926KSTC STC20060605003510206/05/06 00:35:31  5-MIN KSTC 050635Z AUTO 16010KT 10SM OVC075 23/09 A2990 1050 40 2200 160/10 RMK AO2
14926KSTC STC20060605004010206/05/06 00:40:31  5-MIN KSTC 050640Z AUTO 16008KT 10SM OVC075 23/09 A2989 1050 40 2200 160/08 RMK AO2
14926KSTC STC20060605004511106/05/06 00:45:31  5-MIN KSTC 050645Z AUTO 16009KT 10SM TS OVC075 22/09 A2989 1050 42 2200 160/09 RMK AO2 TSB42
14926KSTC STC20060605005012806/05/06 00:50:31  5-MIN KSTC 050650Z AUTO 16009KT 10SM TS OVC080 22/09 A2989 1050 42 2200 160/09 RMK AO2 TSB42 SLP124 T02220089
14926KSTC STC20060605005510506/05/06 00:55:31  5-MIN KSTC 050655Z AUTO 16008KT 10SM TS OVC080 22/09 A2989 1050 42 2200 160/08 RMK AO2
14926KSTC STC20060605010011006/05/06 01:00:31  5-MIN KSTC 050700Z AUTO 16008KT 10SM OVC080 22/09 A2989 1050 42 2200 160/08 RMK AO2 TSE0656
14926KSTC STC20060605010511006/05/06 01:05:31  5-MIN KSTC 050705Z AUTO 16010KT 10SM OVC080 22/09 A2989 1050 42 2200 160/10 RMK AO2 TSE0656
14926KSTC STC20060605011011006/05/06 01:10:31  5-MIN KSTC 050710Z AUTO 16009KT 10SM OVC080 22/09 A2989 1050 42 2200 160/09 RMK AO2 TSE0656
14926KSTC STC20060605011511706/05/06 01:15:31  5-MIN KSTC 050715Z AUTO 17009KT 10SM BKN075 OVC085 22/09 A2989 1050 42 2200 170/09 RMK AO2 TSE0656
14926KSTC STC20060605012011006/05/06 01:20:31  5-MIN KSTC 050720Z AUTO 16009KT 10SM OVC075 22/09 A2989 1050 42 2200 160/09 RMK AO2 TSE0656
14926KSTC STC20060605012511006/05/06 01:25:31  5-MIN KSTC 050725Z AUTO 17009KT 10SM OVC075 22/09 A2989 1050 42 2200 160/09 RMK AO2 TSE0656
14926KSTC STC20060605013011706/05/06 01:30:31  5-MIN KSTC 050730Z AUTO 16009KT 10SM BKN075 OVC095 22/09 A2989 1050 43 2200 160/09 RMK AO2 TSE0656
14926KSTC STC20060605013511706/05/06 01:35:31  5-MIN KSTC 050735Z AUTO 16010KT 10SM BKN075 OVC090 22/09 A2989 1050 43 2200 160/10 RMK AO2 TSE0656
14926KSTC STC20060605014011006/05/06 01:40:31  5-MIN KSTC 050740Z AUTO 17010KT 10SM OVC075 22/09 A2989 1050 43 2200 160/10 RMK AO2 TSE0656
14926KSTC STC20060605014511706/05/06 01:45:31  5-MIN KSTC 050745Z AUTO 17010KT 10SM BKN080 BKN095 22/09 A2989 1050 43 2200 170/10 RMK AO2 TSE0656
14926KSTC STC20060605015013406/05/06 01:50:31  5-MIN KSTC 050750Z AUTO 17011KT 10SM BKN075 BKN095 22/09 A2989 1050 43 2200 170/11 RMK AO2 TSE0656 SLP125 T02220094
14926KSTC STC20060605015510206/05/06 01:55:31  5-MIN KSTC 050755Z AUTO 18010KT 10SM BKN080 22/09 A2989 1050 43 2200 180/10 RMK AO2
14926KSTC STC20060605020010206/05/06 02:00:31  5-MIN KSTC 050800Z AUTO 17013KT 10SM BKN080 22/09 A2989 1050 43 2200 170/13 RMK AO2
14926KSTC STC20060605020510806/05/06 02:05:31  5-MIN KSTC 050805Z AUTO 17013G18KT 10SM BKN080 22/09 A2989 1060 43 2200 170/13G18 RMK AO2
14926KSTC STC20060605021010806/05/06 02:10:31  5-MIN KSTC 050810Z AUTO 17014G20KT 10SM BKN080 22/10 A2989 1060 47 2100 170/14G20 RMK AO2
14926KSTC STC20060605021510806/05/06 02:15:31  5-MIN KSTC 050815Z AUTO 17013G20KT 10SM BKN080 22/10 A2989 1060 47 2100 170/13G20 RMK AO2
14926KSTC STC20060605022010906/05/06 02:20:31  5-MIN KSTC 050820Z AUTO 17012KT 10SM SCT080 BKN090 22/10 A2989 1060 47 2100 160/12 RMK AO2
14926KSTC STC20060605022510906/05/06 02:25:31  5-MIN KSTC 050825Z AUTO 17013KT 10SM SCT080 SCT095 22/10 A2989 1060 47 2100 160/13 RMK AO2
14926KSTC STC20060605023011606/05/06 02:30:31  5-MIN KSTC 050830Z AUTO 17012KT 10SM FEW080 SCT100 BKN120 22/11 A2989 1060 49 2100 170/12 RMK AO2
14926KSTC STC20060605023512506/05/06 02:35:31  5-MIN KSTC 050835Z AUTO 17012KT 10SM TS SCT080 BKN100 BKN120 21/11 A2988 1060 50 2100 160/12 RMK AO2 TSB31
14926KSTC STC20060605024011806/05/06 02:40:31  5-MIN KSTC 050840Z AUTO 16011KT 10SM TS BKN075 BKN100 21/11 A2988 1060 52 2100 160/11 RMK AO2 TSB31
14926KSTC STC20060605024512506/05/06 02:45:31  5-MIN KSTC 050845Z AUTO 16011KT 10SM TS SCT075 BKN090 BKN110 21/12 A2989 1060 56 2000 160/11 RMK AO2 TSB31
14926KSTC STC20060605025011806/05/06 02:50:31  5-MIN KSTC 050850Z AUTO 16011KT 10SM SCT080 BKN095 21/12 A2989 1060 56 2000 160/11 RMK AO2 TSB31E46
14926KSTC STC20060605025511606/05/06 02:55:31  5-MIN KSTC 050855Z AUTO 16009KT 10SM SCT080 BKN095 BKN110 21/12 A2989 1060 58 2000 160/09 RMK AO2
14926KSTC STC20060605030010906/05/06 03:00:31  5-MIN KSTC 050900Z AUTO 16008KT 10SM FEW070 BKN090 20/12 A2989 1060 60 1900 160/08 RMK AO2
14926KSTC STC20060605030510906/05/06 03:05:31  5-MIN KSTC 050905Z AUTO 16011KT 10SM SCT070 BKN090 20/12 A2989 1060 60 1900 160/11 RMK AO2
14926KSTC STC20060605031010906/05/06 03:10:31  5-MIN KSTC 050910Z AUTO 16009KT 10SM BKN065 BKN090 20/13 A2989 1060 63 1900 150/09 RMK AO2
14926KSTC STC20060605031511606/05/06 03:15:31  5-MIN KSTC 050915Z AUTO 16009KT 10SM SCT060 BKN075 OVC095 20/13 A2989 1050 63 1900 160/09 RMK AO2
14926KSTC STC20060605032010906/05/06 03:20:31  5-MIN KSTC 050920Z AUTO 16010KT 10SM BKN060 OVC090 21/13 A2989 1050 63 2000 160/10 RMK AO2
14926KSTC STC20060605032510206/05/06 03:25:31  5-MIN KSTC 050925Z AUTO 16010KT 10SM OVC060 21/13 A2989 1050 63 2000 160/10 RMK AO2
14926KSTC STC20060605033010906/05/06 03:30:31  5-MIN KSTC 050930Z AUTO 16012KT 10SM BKN060 OVC075 21/13 A2989 1050 63 2000 160/12 RMK AO2
14926KSTC STC20060605033510906/05/06 03:35:31  5-MIN KSTC 050935Z AUTO 16011KT 10SM BKN060 OVC075 21/13 A2989 1050 63 2000 160/11 RMK AO2
14926KSTC STC20060605034010906/05/06 03:40:31  5-MIN KSTC 050940Z AUTO 16012KT 10SM BKN060 OVC085 20/14 A2989 1050 67 1900 160/12 RMK AO2
14926KSTC STC20060605034511606/05/06 03:45:31  5-MIN KSTC 050945Z AUTO 17011KT 10SM BKN060 BKN075 OVC090 20/14 A2989 1050 67 1900 170/11 RMK AO2
14926KSTC STC20060605035012606/05/06 03:50:31  5-MIN KSTC 050950Z AUTO 16015KT 10SM BKN060 OVC075 20/14 A2989 1050 67 1900 160/15 RMK AO2 SLP124 T02000139
14926KSTC STC20060605035511506/05/06 03:55:31  5-MIN KSTC 050955Z AUTO 16014G18KT 10SM BKN060 OVC075 20/14 A2989 1050 67 1900 160/14G18 RMK AO2
14926KSTC STC20060605040010206/05/06 04:00:31  5-MIN KSTC 051000Z AUTO 16015KT 10SM OVC060 20/14 A2989 1050 67 1900 150/15 RMK AO2
14926KSTC STC20060605040510206/05/06 04:05:31  5-MIN KSTC 051005Z AUTO 16015KT 10SM OVC065 20/14 A2989 1050 70 1900 160/15 RMK AO2
14926KSTC STC20060605041010206/05/06 04:10:31  5-MIN KSTC 051010Z AUTO 16016KT 10SM OVC065 20/14 A2989 1050 70 1900 150/16 RMK AO2
14926KSTC STC20060605041511106/05/06 04:15:31  5-MIN KSTC 051015Z AUTO 16014KT 10SM TS OVC060 20/14 A2989 1050 70 1900 160/14 RMK AO2 TSB14
14926KSTC STC20060605042011106/05/06 04:20:31  5-MIN KSTC 051020Z AUTO 15014KT 10SM TS OVC065 20/14 A2989 1050 70 1900 150/14 RMK AO2 TSB14
14926KSTC STC20060605042511806/05/06 04:25:31  5-MIN KSTC 051025Z AUTO 15016KT 10SM TS BKN065 OVC080 20/14 A2990 1050 70 1900 140/16 RMK AO2 TSB14
14926KSTC STC20060605043011706/05/06 04:30:31  5-MIN KSTC 051030Z AUTO 16014G21KT 10SM OVC065 20/14 A2990 1050 70 1900 160/14G21 RMK AO2 TSB14E29
14926KSTC STC20060605043511706/05/06 04:35:31  5-MIN KSTC 051035Z AUTO 16014G21KT 10SM OVC060 20/14 A2990 1050 70 1900 150/14G21 RMK AO2 TSB14E29
14926KSTC STC20060605044011706/05/06 04:40:31  5-MIN KSTC 051040Z AUTO 16013G20KT 10SM OVC060 20/14 A2990 1050 70 1900 160/13G20 RMK AO2 TSB14E29
14926KSTC STC20060605044511706/05/06 04:45:31  5-MIN KSTC 051045Z AUTO 15014G20KT 10SM OVC060 20/14 A2990 1040 70 1900 150/14G20 RMK AO2 TSB14E29
14926KSTC STC20060605045011706/05/06 04:50:31  5-MIN KSTC 051050Z AUTO 16014KT 10SM TS OVC060 20/15 A2990 1040 72 1900 160/14 RMK AO2 TSB14E29B49
14926KSTC STC20060605045511206/05/06 04:55:31  5-MIN KSTC 051055Z AUTO 16014KT 10SM TS BKN060 OVC085 20/15 A2991 1040 72 1900 150/14 RMK AO2
14926KSTC STC20060605050011206/05/06 05:00:31  5-MIN KSTC 051100Z AUTO 15014KT 10SM TS BKN060 OVC085 20/14 A2991 1040 70 1900 150/14 RMK AO2
14926KSTC STC20060605050510806/05/06 05:05:31  5-MIN KSTC 051105Z AUTO 16012KT 10SM OVC060 20/14 A2991 1040 70 1900 160/12 RMK AO2 TSE04
14926KSTC STC20060605051010806/05/06 05:10:31  5-MIN KSTC 051110Z AUTO 16014KT 10SM OVC060 20/14 A2991 1040 70 1900 150/14 RMK AO2 TSE04
14926KSTC STC20060605051512006/05/06 05:15:31  5-MIN KSTC 051115Z AUTO 15013G19KT 10SM TS OVC060 21/14 A2991 1040 67 2000 150/13G19 RMK AO2 TSE04B14
14926KSTC STC20060605052011406/05/06 05:20:31  5-MIN KSTC 051120Z AUTO 16013KT 10SM TS OVC060 21/14 A2991 1040 67 2000 150/13 RMK AO2 TSE04B14
14926KSTC STC20060605052511406/05/06 05:25:31  5-MIN KSTC 051125Z AUTO 16015KT 10SM TS OVC060 21/14 A2991 1040 67 2000 160/15 RMK AO2 TSE04B14
14926KSTC STC20060605053011406/05/06 05:30:31  5-MIN KSTC 051130Z AUTO 16013KT 10SM OVC060 21/14 A2991 1040 67 2000 160/13 RMK AO2 TSE04B14E29
14926KSTC STC20060605053511406/05/06 05:35:31  5-MIN KSTC 051135Z AUTO 16014KT 10SM OVC060 21/14 A2991 1040 67 2000 150/14 RMK AO2 TSE04B14E29
14926KSTC STC20060605054011406/05/06 05:40:31  5-MIN KSTC 051140Z AUTO 16014KT 10SM OVC060 21/14 A2991 1040 67 2000 160/14 RMK AO2 TSE04B14E29
14926KSTC STC20060605054511406/05/06 05:45:31  5-MIN KSTC 051145Z AUTO 16011KT 10SM OVC060 21/14 A2991 1040 67 2000 150/11 RMK AO2 TSE04B14E29
14926KSTC STC20060605055015606/05/06 05:50:31  5-MIN KSTC 051150Z AUTO 15013KT 10SM BKN055 OVC070 21/14 A2991 1040 67 2000 150/13 RMK AO2 TSE04B14E29 SLP131 T02060144 10228 20200 56002
14926KSTC STC20060605055510906/05/06 05:55:31  5-MIN KSTC 051155Z AUTO 16011KT 10SM BKN060 OVC090 21/14 A2991 1040 67 2000 160/11 RMK AO2
14926KSTC STC20060605060010406/05/06 06:00:31  5-MIN KSTC 051200Z 16010KT 10SM BKN055 OVC090 21/14 A2991 1040 67 2000 160/10 RMK AO2
14926KSTC STC20060605060510406/05/06 06:05:31  5-MIN KSTC 051205Z 16010KT 10SM BKN060 OVC090 21/14 A2991 1040 67 2000 160/10 RMK AO2
14926KSTC STC20060605061010406/05/06 06:10:31  5-MIN KSTC 051210Z 16009KT 10SM SCT060 OVC090 20/14 A2991 1040 70 1900 160/09 RMK AO2
14926KSTC STC20060605061510406/05/06 06:15:31  5-MIN KSTC 051215Z 17010KT 10SM SCT060 BKN090 20/14 A2991 1040 70 1900 170/10 RMK AO2
14926KSTC STC20060605062010406/05/06 06:20:31  5-MIN KSTC 051220Z 17007KT 10SM FEW060 BKN090 20/14 A2991 1030 70 1900 160/07 RMK AO2
14926KSTC STC20060605062510406/05/06 06:25:31  5-MIN KSTC 051225Z 17009KT 10SM SCT060 BKN090 20/14 A2991 1030 70 1900 170/09 RMK AO2
14926KSTC STC20060605063010406/05/06 06:30:31  5-MIN KSTC 051230Z 17011KT 10SM BKN060 BKN090 20/14 A2991 1030 70 1900 160/11 RMK AO2
14926KSTC STC20060605063511106/05/06 06:35:31  5-MIN KSTC 051235Z 16010KT 10SM BKN060 BKN075 BKN090 20/14 A2991 1030 70 1900 160/10 RMK AO2
14926KSTC STC20060605064010406/05/06 06:40:31  5-MIN KSTC 051240Z 17009KT 10SM SCT060 SCT075 21/14 A2991 1040 67 2000 160/09 RMK AO2
14926KSTC STC20060605064510406/05/06 06:45:31  5-MIN KSTC 051245Z 16009KT 10SM SCT060 SCT075 21/15 A2991 1030 70 2000 160/09 RMK AO2
14926KSTC STC20060605065012106/05/06 06:50:31  5-MIN KSTC 051250Z 16010KT 10SM FEW060 SCT075 21/14 A2991 1040 67 2000 150/10 RMK AO2 SLP131 T02060144
14926KSTC STC20060605065509706/05/06 06:55:31  5-MIN KSTC 051255Z 15010KT 10SM FEW060 21/15 A2991 1040 70 2000 150/10 RMK AO2
14926KSTC STC20060605070009706/05/06 07:00:31  5-MIN KSTC 051300Z 16010KT 10SM FEW075 21/15 A2990 1040 70 2000 150/10 RMK AO2
14926KSTC STC20060605070509406/05/06 07:05:31  5-MIN KSTC 051305Z 16010KT 10SM CLR 21/14 A2990 1040 65 2000 150/10 RMK AO2
14926KSTC STC20060605071009406/05/06 07:10:31  5-MIN KSTC 051310Z 17010KT 10SM CLR 21/14 A2990 1040 65 2000 170/10 RMK AO2
14926KSTC STC20060605071509406/05/06 07:15:31  5-MIN KSTC 051315Z 16012KT 10SM CLR 21/14 A2990 1040 65 2000 160/12 RMK AO2
14926KSTC STC20060605072009406/05/06 07:20:31  5-MIN KSTC 051320Z 17011KT 10SM CLR 22/14 A2990 1040 63 2100 170/11 RMK AO2
14926KSTC STC20060605072509406/05/06 07:25:31  5-MIN KSTC 051325Z 18010KT 10SM CLR 22/14 A2990 1040 63 2100 180/10 RMK AO2
14926KSTC STC20060605073009406/05/06 07:30:31  5-MIN KSTC 051330Z 18011KT 10SM CLR 22/14 A2990 1040 61 2200 180/11 RMK AO2
14926KSTC STC20060605073509406/05/06 07:35:31  5-MIN KSTC 051335Z 17012KT 10SM CLR 22/14 A2990 1050 61 2200 170/12 RMK AO2
14926KSTC STC20060605074009406/05/06 07:40:31  5-MIN KSTC 051340Z 17011KT 10SM CLR 22/14 A2990 1050 59 2200 170/11 RMK AO2
14926KSTC STC20060605074509406/05/06 07:45:31  5-MIN KSTC 051345Z 19011KT 10SM CLR 23/14 A2990 1050 59 2200 190/11 RMK AO2
14926KSTC STC20060605075011106/05/06 07:50:31  5-MIN KSTC 051350Z 19014KT 10SM CLR 23/14 A2990 1050 55 2300 190/14 RMK AO2 SLP125 T02330139
14926KSTC STC20060605075509406/05/06 07:55:31  5-MIN KSTC 051355Z 18012KT 10SM CLR 23/14 A2989 1050 57 2200 180/12 RMK AO2
14926KSTC STC20060605080009406/05/06 08:00:31  5-MIN KSTC 051400Z 18015KT 10SM CLR 23/14 A2989 1050 55 2300 180/15 RMK AO2
14926KSTC STC20060605080509406/05/06 08:05:31  5-MIN KSTC 051405Z 19013KT 10SM CLR 24/14 A2989 1050 53 2400 180/13 RMK AO2
14926KSTC STC20060605081009406/05/06 08:10:31  5-MIN KSTC 051410Z 19014KT 10SM CLR 24/14 A2989 1060 53 2400 180/14 RMK AO2
14926KSTC STC20060605081509406/05/06 08:15:31  5-MIN KSTC 051415Z 18013KT 10SM CLR 24/14 A2989 1060 53 2400 180/13 RMK AO2
14926KSTC STC20060605082009406/05/06 08:20:31  5-MIN KSTC 051420Z 18015KT 10SM CLR 24/13 A2989 1060 51 2400 170/15 RMK AO2
14926KSTC STC20060605082509406/05/06 08:25:31  5-MIN KSTC 051425Z 19014KT 10SM CLR 24/14 A2989 1060 51 2400 190/14 RMK AO2
14926KSTC STC20060605083009406/05/06 08:30:31  5-MIN KSTC 051430Z 19011KT 10SM CLR 24/14 A2988 1060 51 2400 190/11 RMK AO2
14926KSTC STC20060605083509406/05/06 08:35:31  5-MIN KSTC 051435Z 18013KT 10SM CLR 24/14 A2988 1060 51 2400 170/13 RMK AO2
14926KSTC STC20060605084009406/05/06 08:40:31  5-MIN KSTC 051440Z 19014KT 10SM CLR 25/14 A2988 1060 49 2500 190/14 RMK AO2
14926KSTC STC20060605084509406/05/06 08:45:31  5-MIN KSTC 051445Z 19011KT 10SM CLR 25/14 A2988 1070 49 2500 180/11 RMK AO2
14926KSTC STC20060605085011706/05/06 08:50:31  5-MIN KSTC 051450Z 19013KT 10SM CLR 25/14 A2988 1060 49 2500 180/13 RMK AO2 SLP120 T02500139 53007
14926KSTC STC20060605085509406/05/06 08:55:31  5-MIN KSTC 051455Z 19011KT 10SM CLR 25/14 A2988 1070 49 2500 180/11 RMK AO2
14926KSTC STC20060605090009406/05/06 09:00:31  5-MIN KSTC 051500Z 19013KT 10SM CLR 25/14 A2988 1070 49 2500 180/13 RMK AO2
14926KSTC STC20060605090509406/05/06 09:05:31  5-MIN KSTC 051505Z 18012KT 10SM CLR 25/14 A2988 1060 49 2500 170/12 RMK AO2
14926KSTC STC20060605091009606/05/06 09:10:31  5-MIN KSTC 051510Z 19011KT 3SM HZ CLR 26/14 A2988 1070 49 2600 180/11 RMK AO2
14926KSTC STC20060605091510006/05/06 09:15:31  5-MIN KSTC 051515Z 17012KT 2 1/2SM HZ CLR 26/14 A2988 1070 49 2600 170/12 RMK AO2
14926KSTC STC20060605092009306/05/06 09:20:31  5-MIN KSTC 051520Z 19013KT 8SM CLR 26/14 A2987 1070 48 2600 180/13 RMK AO2
14926KSTC STC20060605092509406/05/06 09:25:31  5-MIN KSTC 051525Z 19014KT 10SM CLR 26/14 A2987 1070 46 2600 180/14 RMK AO2
14926KSTC STC20060605093009406/05/06 09:30:31  5-MIN KSTC 051530Z 17014KT 10SM CLR 26/14 A2987 1070 48 2600 170/14 RMK AO2
14926KSTC STC20060605093509406/05/06 09:35:31  5-MIN KSTC 051535Z 18013KT 10SM CLR 26/14 A2987 1070 48 2600 180/13 RMK AO2
14926KSTC STC20060605094010006/05/06 09:40:31  5-MIN KSTC 051540Z 18015G19KT 10SM CLR 26/14 A2987 1070 46 2600 180/15G19 RMK AO2
14926KSTC STC20060605094509406/05/06 09:45:31  5-MIN KSTC 051545Z 19012KT 10SM CLR 26/14 A2987 1070 48 2600 180/12 RMK AO2
14926KSTC STC20060605095011106/05/06 09:50:31  5-MIN KSTC 051550Z 18013KT 10SM CLR 27/14 A2987 1070 46 2700 180/13 RMK AO2 SLP116 T02670144
14926KSTC STC20060605095509406/05/06 09:55:31  5-MIN KSTC 051555Z 18015KT 10SM CLR 27/14 A2987 1070 46 2700 170/15 RMK AO2
14926KSTC STC20060605100009406/05/06 10:00:31  5-MIN KSTC 051600Z 19013KT 10SM CLR 27/14 A2987 1070 46 2700 190/13 RMK AO2
14926KSTC STC20060605100510006/05/06 10:05:31  5-MIN KSTC 051605Z 17016G20KT 10SM CLR 27/14 A2987 1070 46 2700 170/16G20 RMK AO2
14926KSTC STC20060605101010006/05/06 10:10:31  5-MIN KSTC 051610Z 18015G20KT 10SM CLR 27/14 A2987 1070 45 2800 180/15G20 RMK AO2
14926KSTC STC20060605101509406/05/06 10:15:31  5-MIN KSTC 051615Z 17016KT 10SM CLR 27/14 A2987 1080 45 2800 170/16 RMK AO2
14926KSTC STC20060605102009406/05/06 10:20:31  5-MIN KSTC 051620Z 19014KT 10SM CLR 27/14 A2986 1080 45 2800 190/14 RMK AO2
14926KSTC STC20060605102509406/05/06 10:25:31  5-MIN KSTC 051625Z 19015KT 10SM CLR 28/14 A2986 1080 43 2800 190/15 RMK AO2
14926KSTC STC20060605103010006/05/06 10:30:31  5-MIN KSTC 051630Z 18016G20KT 10SM CLR 27/14 A2986 1080 45 2800 180/16G20 RMK AO2
14926KSTC STC20060605103510006/05/06 10:35:31  5-MIN KSTC 051635Z 19013G20KT 10SM CLR 27/14 A2986 1080 45 2800 190/13G20 RMK AO2
14926KSTC STC20060605104009406/05/06 10:40:31  5-MIN KSTC 051640Z 18012KT 10SM CLR 28/14 A2986 1080 43 2800 180/12 RMK AO2
14926KSTC STC20060605104509406/05/06 10:45:31  5-MIN KSTC 051645Z 17014KT 10SM CLR 28/14 A2986 1080 43 2800 170/14 RMK AO2
14926KSTC STC20060605105011706/05/06 10:50:31  5-MIN KSTC 051650Z 18014G18KT 10SM CLR 28/14 A2986 1080 43 2800 170/14G18 RMK AO2 SLP114 T02780144
14926KSTC STC20060605105510006/05/06 10:55:31  5-MIN KSTC 051655Z 19014G19KT 10SM CLR 28/14 A2986 1080 42 2900 190/14G19 RMK AO2
14926KSTC STC20060605110009406/05/06 11:00:31  5-MIN KSTC 051700Z 19017KT 10SM CLR 29/14 A2986 1080 40 3000 190/17 RMK AO2
14926KSTC STC20060605110510006/05/06 11:05:31  5-MIN KSTC 051705Z 19017G21KT 10SM CLR 29/14 A2986 1080 40 3000 190/17G21 RMK AO2
14926KSTC STC20060605111010006/05/06 11:10:31  5-MIN KSTC 051710Z 19016G21KT 10SM CLR 28/14 A2986 1080 40 2900 190/16G21 RMK AO2
14926KSTC STC20060605111509406/05/06 11:15:31  5-MIN KSTC 051715Z 19019KT 10SM CLR 29/13 A2986 1090 38 3000 190/19 RMK AO2
14926KSTC STC20060605112009406/05/06 11:20:31  5-MIN KSTC 051720Z 19017KT 10SM CLR 29/13 A2985 1090 36 3000 190/17 RMK AO2
14926KSTC STC20060605112510006/05/06 11:25:31  5-MIN KSTC 051725Z 19015G22KT 10SM CLR 29/13 A2985 1090 38 3000 190/15G22 RMK AO2
14926KSTC STC20060605113010306/05/06 11:30:31  5-MIN KSTC 051730Z 18015G21KT 10SM FEW055 29/14 A2985 1090 38 3000 170/15G21 RMK AO2
14926KSTC STC20060605113510306/05/06 11:35:31  5-MIN KSTC 051735Z 19017G23KT 10SM FEW055 29/13 A2985 1100 36 3000 190/17G23 RMK AO2
14926KSTC STC20060605114010306/05/06 11:40:31  5-MIN KSTC 051740Z 19017G23KT 10SM FEW055 29/13 A2985 1090 38 3000 190/17G23 RMK AO2
14926KSTC STC20060605114510306/05/06 11:45:31  5-MIN KSTC 051745Z 18015G22KT 10SM FEW055 28/13 A2985 1090 39 2900 180/15G22 RMK AO2
14926KSTC STC20060605115013806/05/06 11:50:31  5-MIN KSTC 051750Z 18016G21KT 10SM FEW055 29/13 A2984 1100 38 3000 180/16G21 RMK AO2 SLP107 T02890133 10294 20200 58011
14926KSTC STC20060605115509706/05/06 11:55:31  5-MIN KSTC 051755Z 17017KT 10SM FEW055 29/13 A2984 1100 36 3000 170/17 RMK AO2
14926KSTC STC20060605120010306/05/06 12:00:31  5-MIN KSTC 051800Z 20016G22KT 10SM FEW060 29/13 A2984 1100 38 3000 200/16G22 RMK AO2
14926KSTC STC20060605120510306/05/06 12:05:31  5-MIN KSTC 051805Z 21017G22KT 10SM FEW060 30/13 A2984 1100 35 3100 210/17G22 RMK AO2
14926KSTC STC20060605121010006/05/06 12:10:31  5-MIN KSTC 051810Z 21017G21KT 10SM CLR 30/13 A2984 1100 34 3100 210/17G21 RMK AO2
14926KSTC STC20060605121510006/05/06 12:15:31  5-MIN KSTC 051815Z 17017G21KT 10SM CLR 30/13 A2983 1110 35 3100 170/17G21 RMK AO2
14926KSTC STC20060605122009406/05/06 12:20:31  5-MIN KSTC 051820Z 19016KT 10SM CLR 29/13 A2983 1110 36 3100 180/16 RMK AO2
14926KSTC STC20060605122510306/05/06 12:25:31  5-MIN KSTC 051825Z 18017G22KT 10SM FEW060 29/13 A2983 1110 35 3100 170/17G22 RMK AO2
14926KSTC STC20060605123010306/05/06 12:30:31  5-MIN KSTC 051830Z 17015G21KT 10SM FEW060 29/13 A2982 1120 36 3100 170/15G21 RMK AO2
14926KSTC STC20060605123509706/05/06 12:35:31  5-MIN KSTC 051835Z 19015KT 10SM FEW060 30/13 A2982 1120 35 3100 190/15 RMK AO2
14926KSTC STC20060605124010306/05/06 12:40:31  5-MIN KSTC 051840Z 17018G25KT 10SM FEW060 29/13 A2982 1120 35 3100 170/18G25 RMK AO2
14926KSTC STC20060605124510306/05/06 12:45:31  5-MIN KSTC 051845Z 19012G25KT 10SM FEW060 29/13 A2981 1120 35 3100 190/12G25 RMK AO2
14926KSTC STC20060605125012006/05/06 12:50:31  5-MIN KSTC 051850Z 19012G18KT 10SM FEW060 29/13 A2981 1130 35 3100 190/12G18 RMK AO2 SLP097 T02940128
14926KSTC STC20060605125510306/05/06 12:55:31  5-MIN KSTC 051855Z 18014G20KT 10SM FEW060 29/13 A2981 1130 35 3100 180/14G20 RMK AO2
14926KSTC STC20060605130010306/05/06 13:00:31  5-MIN KSTC 051900Z 20014G20KT 10SM FEW065 30/13 A2981 1130 34 3100 190/14G20 RMK AO2
14926KSTC STC20060605130510006/05/06 13:05:31  5-MIN KSTC 051905Z 19017G22KT 10SM CLR 30/13 A2981 1130 34 3100 190/17G22 RMK AO2
14926KSTC STC20060605131009706/05/06 13:10:31  5-MIN KSTC 051910Z 19018KT 10SM FEW065 29/13 A2980 1130 35 3100 180/18 RMK AO2
14926KSTC STC20060605131510306/05/06 13:15:31  5-MIN KSTC 051915Z 21016G21KT 10SM FEW070 30/13 A2981 1130 34 3100 210/16G21 RMK AO2
14926KSTC STC20060605132009706/05/06 13:20:31  5-MIN KSTC 051920Z 18014KT 10SM FEW070 30/13 A2980 1130 35 3100 170/14 RMK AO2
14926KSTC STC20060605132510306/05/06 13:25:31  5-MIN KSTC 051925Z 18015G20KT 10SM SCT065 29/13 A2980 1140 35 3100 180/15G20 RMK AO2
14926KSTC STC20060605133010306/05/06 13:30:31  5-MIN KSTC 051930Z 18016G21KT 10SM SCT070 30/13 A2980 1140 34 3100 180/16G21 RMK AO2
14926KSTC STC20060605133509706/05/06 13:35:31  5-MIN KSTC 051935Z 17015KT 10SM BKN070 29/13 A2980 1140 35 3100 170/15 RMK AO2
14926KSTC STC20060605134010306/05/06 13:40:31  5-MIN KSTC 051940Z 19015G22KT 10SM BKN070 29/13 A2980 1140 36 3000 190/15G22 RMK AO2
14926KSTC STC20060605134510306/05/06 13:45:31  5-MIN KSTC 051945Z 18015G22KT 10SM BKN070 29/13 A2979 1150 35 3100 180/15G22 RMK AO2
14926KSTC STC20060605135012006/05/06 13:50:31  5-MIN KSTC 051950Z 19014G21KT 10SM BKN070 29/13 A2979 1150 36 3000 190/14G21 RMK AO2 SLP089 T02890128
14926KSTC STC20060605135509706/05/06 13:55:31  5-MIN KSTC 051955Z 19014KT 10SM BKN070 29/13 A2979 1150 35 3100 190/14 RMK AO2
14926KSTC STC20060605140009706/05/06 14:00:31  5-MIN KSTC 052000Z 17015KT 10SM BKN070 30/13 A2978 1150 35 3200 170/15 RMK AO2
14926KSTC STC20060605140509706/05/06 14:05:31  5-MIN KSTC 052005Z 17017KT 10SM BKN070 29/13 A2978 1160 36 3100 170/17 RMK AO2
14926KSTC STC20060605141009706/05/06 14:10:31  5-MIN KSTC 052010Z 17012KT 10SM SCT070 29/13 A2978 1160 36 3100 170/12 RMK AO2
14926KSTC STC20060605141509706/05/06 14:15:31  5-MIN KSTC 052015Z 18015KT 10SM SCT070 29/13 A2977 1160 36 3100 180/15 RMK AO2
14926KSTC STC20060605144510306/05/06 14:45:31  5-MIN KSTC 052045Z 18016G23KT 10SM SCT070 31/13 A2976 1180 34 3300 170/16G23 RMK AO2
14926KSTC STC20060605145012606/05/06 14:50:31  5-MIN KSTC 052050Z 19016G23KT 10SM SCT070 30/13 A2976 1170 35 3200 190/16G23 RMK AO2 SLP078 T03000133 58012
14926KSTC STC20060605145509706/05/06 14:55:31  5-MIN KSTC 052055Z 18016KT 10SM SCT070 29/13 A2976 1170 36 3100 180/16 RMK AO2
14926KSTC STC20060605150010306/05/06 15:00:31  5-MIN KSTC 052100Z 19014G22KT 10SM FEW070 29/13 A2976 1170 36 3100 190/14G22 RMK AO2
14926KSTC STC20060605150510306/05/06 15:05:31  5-MIN KSTC 052105Z 19013G21KT 10SM FEW065 29/13 A2976 1180 36 3100 180/13G21 RMK AO2
14926KSTC STC20060605151010006/05/06 15:10:31  5-MIN KSTC 052110Z 18014G20KT 10SM CLR 29/14 A2976 1180 38 3100 180/14G20 RMK AO2
14926KSTC STC20060605151509406/05/06 15:15:31  5-MIN KSTC 052115Z 19016KT 10SM CLR 29/14 A2976 1180 38 3100 190/16 RMK AO2
14926KSTC STC20060605152010006/05/06 15:20:31  5-MIN KSTC 052120Z 19013G20KT 10SM CLR 29/14 A2975 1180 38 3100 180/13G20 RMK AO2
14926KSTC STC20060605152510006/05/06 15:25:31  5-MIN KSTC 052125Z 19014G20KT 10SM CLR 29/14 A2975 1190 38 3100 190/14G20 RMK AO2
14926KSTC STC20060605153010306/05/06 15:30:31  5-MIN KSTC 052130Z 18013G20KT 10SM FEW070 29/14 A2975 1190 40 3100 180/13G20 RMK AO2
14926KSTC STC20060605153509706/05/06 15:35:31  5-MIN KSTC 052135Z 19014KT 10SM FEW060 29/14 A2975 1190 40 3100 190/14 RMK AO2
14926KSTC STC20060605154009706/05/06 15:40:31  5-MIN KSTC 052140Z 18013KT 10SM FEW075 29/14 A2975 1190 40 3100 180/13 RMK AO2
14926KSTC STC20060605154509706/05/06 15:45:31  5-MIN KSTC 052145Z 19011KT 10SM FEW080 29/14 A2975 1190 39 3100 180/11 RMK AO2
14926KSTC STC20060605155012106/05/06 15:50:31  5-MIN KSTC 052150Z 19013KT 10SM FEW085 SCT110 29/14 A2975 1190 40 3100 180/13 RMK AO2 SLP075 T02890144
14926KSTC STC20060605155511706/05/06 15:55:31  5-MIN KSTC 052155Z 19013G19KT 10SM FEW065 SCT080 BKN110 29/14 A2975 1180 40 3100 190/13G19 RMK AO2
14926KSTC STC20060605160011106/05/06 16:00:31  5-MIN KSTC 052200Z 19012KT 10SM SCT065 BKN080 BKN110 29/14 A2975 1180 40 3100 190/12 RMK AO2
14926KSTC STC20060605160510406/05/06 16:05:31  5-MIN KSTC 052205Z 19012KT 10SM BKN065 BKN110 29/14 A2975 1180 40 3100 190/12 RMK AO2
14926KSTC STC20060605161011106/05/06 16:10:31  5-MIN KSTC 052210Z 19014KT 10SM BKN065 BKN085 BKN110 28/14 A2975 1180 42 3000 190/14 RMK AO2
14926KSTC STC20060605161512206/05/06 16:15:31  5-MIN KSTC 052215Z 19014KT 10SM VCTS BKN065 BKN085 OVC110 28/14 A2975 1180 40 3000 190/14 RMK AO2 TSB15
14926KSTC STC20060605162012606/05/06 16:20:31  5-MIN KSTC 052220Z 20015KT 7SM -TSRA BKN070 OVC090 28/15 A2976 1170 45 2900 200/15 RMK AO2 TSB15RAB19 P0000
14926KSTC STC20060605162513206/05/06 16:25:31  5-MIN KSTC 052225Z 22009KT 4SM TSRA SCT027 BKN065 OVC085 26/17 A2976 1170 59 2700 210/09 RMK AO2 TSB15RAB19 P0001
14926KSTC STC20060605163013306/05/06 16:30:31  5-MIN KSTC 052230Z 24009KT 3SM -TSRA SCT025 BKN065 OVC085 25/17 A2977 1170 61 2600 240/09 RMK AO2 TSB15RAB19 P0002
14926KSTC STC20060605163515006/05/06 16:35:31  5-MIN KSTC 052235Z 27013G19KT 1 1/2SM +TSRA SCT022 BKN065 OVC085 24/18 A2979 1150 71 2500 270/13G19 RMK AO2 TSB15RAB19 PRESRR P0002
14926KSTC STC20060605164014106/05/06 16:40:31  5-MIN KSTC 052240Z 30019G25KT 1/2SM +TSRA BKN015 OVC065 22/18 A2980 1140 78 2300 290/19G25 RMK AO2 TSB15RAB19 PRESRR P0013
14926KSTC STC20060605164514106/05/06 16:45:31  5-MIN KSTC 052245Z 28020G25KT 1/2SM +TSRA BKN015 OVC060 21/18 A2980 1140 84 2100 270/20G25 RMK AO2 TSB15RAB19 PRESRR P0027
14926KSTC STC20060605165016406/05/06 16:50:31  5-MIN KSTC 052250Z 24019G36KT 1/2SM +TSRA FG VV013 20/18 A2978 1160 90 2000 230/19G36 RMK AO2 PK WND 26036/2247 TSB15RAB19 SLP088 P0034 T02000183
14926KSTC STC20060605165516206/05/06 16:55:31  5-MIN KSTC 052255Z 16041G48KT 1/4SM +TSRA FG BKN008 OVC060 19/17 A2977 1170 87 2000 150/41G48 RMK AO2 PK WND 16047/2254 WSHFT 2241 PRESFR P0007
14926KSTC STC20060605170016806/05/06 17:00:31  5-MIN KSTC 052300Z 14024G48KT 1/4SM TSRA FG BKN008 BKN014 OVC065 18/17 A2976 1180 93 1900 130/24G48 RMK AO2 PK WND 16047/2254 WSHFT 2245 PRESFR P0020
14926KSTC STC20060605170516006/05/06 17:05:31  5-MIN KSTC 052305Z 12018G41KT 1SM -TSRA BR BKN008 BKN110 20/18 A2975 1190 87 2100 120/18G41 RMK AO2 PK WND 16047/2254 WSHFT 2245 PRESFR P0023
14926KSTC STC20060605171015206/05/06 17:10:31  5-MIN KSTC 052310Z 11010G26KT 6SM -TSRA BKN008 BKN110 21/17 A2975 1180 81 2100 100/10G26 RMK AO2 PK WND 16047/2254 WSHFT 2253 P0023 $
14926KSTC STC20060605171516006/05/06 17:15:31  5-MIN KSTC 052315Z VRB05G17KT 10SM -TSRA SCT005 SCT012 BKN110 21/16 A2975 1180 73 2200 VRB/05G17 RMK AO2 PK WND 16047/2254 WSHFT 2253 P0023 $
14926KSTC STC20060605172015006/05/06 17:20:31  5-MIN KSTC 052320Z VRB04KT 10SM TS FEW005 BKN110 22/16 A2975 1190 68 2300 VRB/04 RMK AO2 PK WND 16047/2254 WSHFT 2253 RAE16 P0023 $
14926KSTC STC20060605172515006/05/06 17:25:31  5-MIN KSTC 052325Z 15004KT 10SM TS FEW013 SCT110 21/17 A2975 1190 78 2200 140/04 RMK AO2 PK WND 16047/2254 WSHFT 2253 RAE16 P0023 $
14926KSTC STC20060605173014706/05/06 17:30:31  5-MIN KSTC 052330Z 15003KT 10SM -TSRA FEW017 SCT110 21/18 A2975 1180 87 2100 150/03 RMK AO2 PK WND 16047/2254 WSHFT 2253 P0023 $
14926KSTC STC20060605173514706/05/06 17:35:31  5-MIN KSTC 052335Z 00000KT 10SM -TSRA FEW015 SCT110 21/19 A2976 1180 87 2200 000/00 RMK AO2 PK WND 16047/2254 WSHFT 2253 P0023 $
14926KSTC STC20060605174014706/05/06 17:40:31  5-MIN KSTC 052340Z 07003KT 10SM -TSRA FEW015 SCT120 21/19 A2976 1170 87 2200 070/03 RMK AO2 PK WND 16047/2254 WSHFT 2253 P0023 $
14926KSTC STC20060605174514306/05/06 17:45:31  5-MIN KSTC 052345Z 00000KT 10SM TS FEW031 21/18 A2976 1170 84 2200 000/00 RMK AO2 PK WND 16047/2254 WSHFT 2253 RAE45 P0023 $
14926KSTC STC20060605175018406/05/06 17:50:31  5-MIN KSTC 052350Z 00000KT 10SM TS FEW031 21/18 A2976 1180 84 2200 000/00 RMK AO2 PK WND 16047/2254 WSHFT 2253 RAE45 SLP081 P0023 60072 T02110183 10317 20183 58026 $
14926KSTC STC20060605175510206/05/06 17:55:31  5-MIN KSTC 052355Z 00000KT 10SM TS FEW025 21/18 A2976 1180 84 2200 000/00 RMK AO2 $
14926KSTC STC20060605180011906/05/06 18:00:31  5-MIN KSTC 060000Z 01004KT 10SM -TSRA FEW027 21/18 A2976 1170 84 2200 360/04 RMK AO2 RAB2356 P0000 $
14926KSTC STC20060605180512606/05/06 18:05:31  5-MIN KSTC 060005Z 01004KT 10SM -TSRA FEW034 SCT070 21/18 A2976 1180 87 2100 010/04 RMK AO2 RAB2356 P0000 $
14926KSTC STC20060605181009906/05/06 18:10:31  5-MIN KSTC 060010Z TS 21/18 A2976 1180 87 2100 M /M RMK AO2 RAB2356RAEMM P0000 $
14926KSTC STC20060606034506306/06/06 03:45:31  5-MIN KSTC 060945Z AUTO M M M M /M RMK AO2 $
14926KSTC STC20060606035012206/06/06 03:50:31  5-MIN KSTC 060950Z AUTO 00000KT 17/17 A2975 1180 100 1800 000/00 RMK AO2 SLP080 P0000 T01720172 PWINO $
14926KSTC STC20060606035509206/06/06 03:55:31  5-MIN KSTC 060955Z AUTO 00000KT 17/17 A2975 1190 96 1800 000/00 RMK AO2 $
14926KSTC STC20060606040010006/06/06 04:00:31  5-MIN KSTC 061000Z AUTO 00000KT 3SM BR 17/17 A2975 1190 100 1700 000/00 RMK AO2 $
14926KSTC STC20060606040510406/06/06 04:05:31  5-MIN KSTC 061005Z AUTO 00000KT 2 1/2SM BR 17/17 A2974 1190 100 1700 000/00 RMK AO2 $
14926KSTC STC20060606041010406/06/06 04:10:31  5-MIN KSTC 061010Z AUTO 17003KT 2 1/2SM BR 17/17 A2975 1190 100 1700 170/03 RMK AO2 $
14926KSTC STC20060606041509906/06/06 04:15:31  5-MIN KSTC 061015Z AUTO 18003KT 3SM BR 17/16 A2974 1190 96 1700 180/03 RMK AO2 $
14926KSTC STC20060606042010606/06/06 04:20:31  5-MIN KSTC 061020Z AUTO 20003KT 3SM BR SCT018 17/16 A2974 1190 96 1700 190/03 RMK AO2 $
14926KSTC STC20060606042510606/06/06 04:25:31  5-MIN KSTC 061025Z AUTO 20003KT 3SM BR FEW018 17/16 A2974 1190 96 1700 200/03 RMK AO2 $
14926KSTC STC20060606043011106/06/06 04:30:31  5-MIN KSTC 061030Z AUTO 19003KT 2 1/2SM BR FEW018 16/16 A2974 1190 100 1600 190/03 RMK AO2 $
14926KSTC STC20060606043510306/06/06 04:35:31  5-MIN KSTC 061035Z AUTO 19003KT 2SM BR CLR 16/16 A2974 1190 96 1600 190/03 RMK AO2 $
14926KSTC STC20060606044010706/06/06 04:40:31  5-MIN KSTC 061040Z AUTO 00000KT 1 3/4SM BR CLR 16/16 A2974 1190 96 1600 000/00 RMK AO2 $
14926KSTC STC20060606044510706/06/06 04:45:31  5-MIN KSTC 061045Z AUTO 00000KT 1 1/2SM BR CLR 16/16 A2974 1190 96 1600 000/00 RMK AO2 $
14926KSTC STC20060606045012406/06/06 04:50:31  5-MIN KSTC 061050Z AUTO 18003KT 1 1/4SM BR CLR 16/16 A2974 1190 96 1600 180/03 RMK AO2 SLP078 T01610156 $
14926KSTC STC20060606045510306/06/06 04:55:31  5-MIN KSTC 061055Z AUTO 18003KT 1SM BR CLR 16/16 A2974 1190 96 1600 180/03 RMK AO2 $
14926KSTC STC20060606050010506/06/06 05:00:31  5-MIN KSTC 061100Z AUTO 00000KT 1/4SM FG CLR 16/16 A2974 1190 96 1600 000/00 RMK AO2 $
14926KSTC STC20060606050510506/06/06 05:05:31  5-MIN KSTC 061105Z AUTO 00000KT 1/4SM FG CLR 16/16 A2974 1190 96 1600 000/00 RMK AO2 $
14926KSTC STC20060606051010506/06/06 05:10:31  5-MIN KSTC 061110Z AUTO 00000KT 1/2SM FG CLR 16/16 A2974 1190 96 1600 000/00 RMK AO2 $
14926KSTC STC20060606051510306/06/06 05:15:31  5-MIN KSTC 061115Z AUTO 00000KT 1SM BR CLR 16/16 A2974 1190 96 1600 000/00 RMK AO2 $
14926KSTC STC20060606052010806/06/06 05:20:31  5-MIN KSTC 061120Z AUTO 00000KT 1 1/4SM BR CLR 16/16 A2974 1190 100 1600 000/00 RMK AO2 $
14926KSTC STC20060606052510706/06/06 05:25:31  5-MIN KSTC 061125Z AUTO 19003KT 1 3/4SM BR CLR 17/16 A2974 1190 96 1700 190/03 RMK AO2 $
14926KSTC STC20060606053010306/06/06 05:30:31  5-MIN KSTC 061130Z AUTO 19003KT 2SM BR CLR 17/16 A2974 1190 96 1700 190/03 RMK AO2 $
14926KSTC STC20060606053510306/06/06 05:35:31  5-MIN KSTC 061135Z AUTO 19003KT 2SM BR CLR 17/16 A2974 1190 96 1700 190/03 RMK AO2 $
14926KSTC STC20060606054010406/06/06 05:40:31  5-MIN KSTC 061140Z AUTO 00000KT 2SM BR CLR 17/17 A2974 1190 100 1700 000/00 RMK AO2 $
14926KSTC STC20060606054510506/06/06 05:45:31  5-MIN KSTC 061145Z AUTO 00000KT 2 1/2SM BR CLR 17/17 A2975 1190 96 1800 000/00 RMK AO2
14926KSTC STC20060606055014606/06/06 05:50:31  5-MIN KSTC 061150Z AUTO 23003KT 2 1/2SM BR CLR 17/17 A2975 1190 96 1800 230/03 RMK AO2 SLP077 6//// 7//// T01720167 10294 20161
14926KSTC STC20060606055509606/06/06 05:55:31  5-MIN KSTC 061155Z 23003KT 3SM BR CLR 17/17 A2975 1190 96 1800 230/03 RMK AO2
14926KSTC STC20060606060009806/06/06 06:00:31  5-MIN KSTC 061200Z 25004KT 4SM BR CLR 18/17 A2975 1190 93 1800 240/04 RMK AO2 $
14926KSTC STC20060606060509806/06/06 06:05:31  5-MIN KSTC 061205Z 24004KT 4SM BR CLR 18/17 A2975 1190 96 1800 240/04 RMK AO2 $
14926KSTC STC20060606061009806/06/06 06:10:31  5-MIN KSTC 061210Z 25004KT 4SM BR CLR 18/17 A2975 1190 96 1800 240/04 RMK AO2 $
14926KSTC STC20060606061509806/06/06 06:15:31  5-MIN KSTC 061215Z 25005KT 4SM BR CLR 18/17 A2975 1190 96 1800 250/05 RMK AO2 $
14926KSTC STC20060606062009806/06/06 06:20:31  5-MIN KSTC 061220Z 26005KT 4SM BR CLR 18/17 A2975 1190 93 1900 260/05 RMK AO2 $
14926KSTC STC20060606062509806/06/06 06:25:31  5-MIN KSTC 061225Z 27006KT 4SM BR CLR 18/17 A2975 1190 93 1900 270/06 RMK AO2 $
14926KSTC STC20060606063009806/06/06 06:30:31  5-MIN KSTC 061230Z 28006KT 5SM BR CLR 19/17 A2975 1190 90 2000 270/06 RMK AO2 $
14926KSTC STC20060606063509806/06/06 06:35:31  5-MIN KSTC 061235Z 28005KT 6SM BR CLR 19/18 A2975 1180 90 2000 280/05 RMK AO2 $
14926KSTC STC20060606064009506/06/06 06:40:31  5-MIN KSTC 061240Z 29007KT 7SM CLR 19/18 A2975 1180 90 2000 290/07 RMK AO2 $
14926KSTC STC20060606064509506/06/06 06:45:31  5-MIN KSTC 061245Z 28007KT 8SM CLR 20/17 A2975 1180 84 2100 270/07 RMK AO2 $
14926KSTC STC20060606065011106/06/06 06:50:31  5-MIN KSTC 061250Z 28008KT 10SM CLR 20/17 A2975 1180 84 2100 270/08 RMK AO2 SLP077 T02000172
14926KSTC STC20060606065509906/06/06 06:55:31  5-MIN KSTC 061255Z AUTO 28007KT 10SM CLR 20/17 A2975 1180 84 2100 280/07 RMK AO2
14926KSTC STC20060606070009906/06/06 07:00:31  5-MIN KSTC 061300Z AUTO 28008KT 10SM CLR 21/17 A2975 1180 78 2100 280/08 RMK AO2
14926KSTC STC20060606070509906/06/06 07:05:31  5-MIN KSTC 061305Z AUTO 28010KT 10SM CLR 21/16 A2975 1180 75 2100 280/10 RMK AO2
14926KSTC STC20060606071009906/06/06 07:10:31  5-MIN KSTC 061310Z AUTO 29011KT 10SM CLR 21/16 A2975 1180 75 2100 280/11 RMK AO2
14926KSTC STC20060606071509906/06/06 07:15:31  5-MIN KSTC 061315Z AUTO 28009KT 10SM CLR 21/16 A2975 1180 73 2200 280/09 RMK AO2
14926KSTC STC20060606072009906/06/06 07:20:31  5-MIN KSTC 061320Z AUTO 28009KT 10SM CLR 21/16 A2975 1180 73 2200 280/09 RMK AO2
14926KSTC STC20060606072509906/06/06 07:25:31  5-MIN KSTC 061325Z AUTO 28010KT 10SM CLR 21/16 A2976 1180 70 2200 280/10 RMK AO2
14926KSTC STC20060606073009906/06/06 07:30:31  5-MIN KSTC 061330Z AUTO 27009KT 10SM CLR 21/16 A2976 1180 70 2200 270/09 RMK AO2
14926KSTC STC20060606073509906/06/06 07:35:31  5-MIN KSTC 061335Z AUTO 27012KT 10SM CLR 22/16 A2976 1170 68 2300 270/12 RMK AO2
14926KSTC STC20060606074009906/06/06 07:40:31  5-MIN KSTC 061340Z AUTO 27012KT 10SM CLR 22/15 A2976 1170 65 2300 270/12 RMK AO2
14926KSTC STC20060606074509906/06/06 07:45:31  5-MIN KSTC 061345Z AUTO 28010KT 10SM CLR 22/15 A2976 1170 65 2300 270/10 RMK AO2
14926KSTC STC20060606075011106/06/06 07:50:31  5-MIN KSTC 061350Z 27010KT 10SM CLR 22/16 A2976 1170 68 2300 270/10 RMK AO2 SLP081 T02170156
14926KSTC STC20060606075509406/06/06 07:55:31  5-MIN KSTC 061355Z 27011KT 10SM CLR 22/15 A2976 1170 65 2300 270/11 RMK AO2
14926KSTC STC20060606080009406/06/06 08:00:31  5-MIN KSTC 061400Z 28010KT 10SM CLR 22/16 A2976 1170 65 2300 270/10 RMK AO2
14926KSTC STC20060606080509406/06/06 08:05:31  5-MIN KSTC 061405Z 28008KT 10SM CLR 22/15 A2976 1170 63 2300 270/08 RMK AO2
14926KSTC STC20060606081009406/06/06 08:10:31  5-MIN KSTC 061410Z 29010KT 10SM CLR 22/15 A2976 1170 63 2300 280/10 RMK AO2
14926KSTC STC20060606081510006/06/06 08:15:31  5-MIN KSTC 061415Z 28014G18KT 10SM CLR 22/14 A2977 1170 61 2300 280/14G18 RMK AO2
14926KSTC STC20060606082010006/06/06 08:20:31  5-MIN KSTC 061420Z 28013G18KT 10SM CLR 22/14 A2977 1170 61 2300 270/13G18 RMK AO2
14926KSTC STC20060606082509406/06/06 08:25:31  5-MIN KSTC 061425Z 27012KT 10SM CLR 22/14 A2977 1170 61 2300 270/12 RMK AO2
14926KSTC STC20060606083009406/06/06 08:30:31  5-MIN KSTC 061430Z 29014KT 10SM CLR 22/14 A2977 1170 61 2300 290/14 RMK AO2
14926KSTC STC20060606083509406/06/06 08:35:31  5-MIN KSTC 061435Z 28013KT 10SM CLR 23/15 A2977 1170 61 2400 280/13 RMK AO2
14926KSTC STC20060606084009406/06/06 08:40:31  5-MIN KSTC 061440Z 29012KT 10SM CLR 23/14 A2977 1170 59 2400 280/12 RMK AO2
14926KSTC STC20060606084509406/06/06 08:45:31  5-MIN KSTC 061445Z 29013KT 10SM CLR 23/15 A2977 1170 61 2400 280/13 RMK AO2
14926KSTC STC20060606085011706/06/06 08:50:31  5-MIN KSTC 061450Z 28012G18KT 10SM CLR 23/15 A2977 1170 61 2400 280/12G18 RMK AO2 SLP081 T02280150
14926KSTC STC20060606085509406/06/06 08:55:31  5-MIN KSTC 061455Z 28012KT 10SM CLR 23/15 A2977 1170 61 2400 280/12 RMK AO2
14926KSTC STC20060606090009406/06/06 09:00:31  5-MIN KSTC 061500Z 28009KT 10SM CLR 23/15 A2977 1170 59 2400 280/09 RMK AO2
14926KSTC STC20060606090510006/06/06 09:05:31  5-MIN KSTC 061505Z 30015G20KT 10SM CLR 23/15 A2977 1170 59 2400 300/15G20 RMK AO2
14926KSTC STC20060606091010006/06/06 09:10:31  5-MIN KSTC 061510Z 29014G20KT 10SM CLR 23/15 A2977 1170 59 2400 280/14G20 RMK AO2
14926KSTC STC20060606091509406/06/06 09:15:31  5-MIN KSTC 061515Z 29015KT 10SM CLR 23/15 A2977 1170 59 2400 290/15 RMK AO2
14926KSTC STC20060606092009406/06/06 09:20:31  5-MIN KSTC 061520Z 30016KT 10SM CLR 23/14 A2977 1170 57 2400 300/16 RMK AO2
14926KSTC STC20060606092509406/06/06 09:25:31  5-MIN KSTC 061525Z 29012KT 10SM CLR 24/15 A2977 1170 57 2500 290/12 RMK AO2
14926KSTC STC20060606093009406/06/06 09:30:31  5-MIN KSTC 061530Z 30017KT 10SM CLR 23/15 A2977 1170 59 2400 300/17 RMK AO2
14926KSTC STC20060606093509406/06/06 09:35:31  5-MIN KSTC 061535Z 30014KT 10SM CLR 24/15 A2977 1170 57 2500 300/14 RMK AO2
14926KSTC STC20060606094009406/06/06 09:40:31  5-MIN KSTC 061540Z 28016KT 10SM CLR 24/15 A2977 1170 57 2500 280/16 RMK AO2
14926KSTC STC20060606094510006/06/06 09:45:31  5-MIN KSTC 061545Z 29016G20KT 10SM CLR 24/15 A2977 1170 57 2500 290/16G20 RMK AO2
14926KSTC STC20060606095011706/06/06 09:50:31  5-MIN KSTC 061550Z 30014G21KT 10SM CLR 24/15 A2977 1170 57 2500 290/14G21 RMK AO2 SLP080 T02390150
14926KSTC STC20060606095510006/06/06 09:55:31  5-MIN KSTC 061555Z 30017G21KT 10SM CLR 24/15 A2977 1160 55 2600 300/17G21 RMK AO2
14926KSTC STC20060606100010006/06/06 10:00:31  5-MIN KSTC 061600Z 30012G21KT 10SM CLR 24/15 A2977 1160 55 2600 300/12G21 RMK AO2
14926KSTC STC20060606100509406/06/06 10:05:31  5-MIN KSTC 061605Z 29013KT 10SM CLR 24/15 A2977 1170 55 2600 290/13 RMK AO2
14926KSTC STC20060606101010006/06/06 10:10:31  5-MIN KSTC 061610Z 29016G20KT 10SM CLR 24/15 A2977 1170 55 2600 290/16G20 RMK AO2
14926KSTC STC20060606101510006/06/06 10:15:31  5-MIN KSTC 061615Z 31017G20KT 10SM CLR 24/15 A2977 1170 55 2600 300/17G20 RMK AO2
14926KSTC STC20060606102009406/06/06 10:20:31  5-MIN KSTC 061620Z 30015KT 10SM CLR 24/15 A2977 1170 55 2600 300/15 RMK AO2
14926KSTC STC20060606102509406/06/06 10:25:31  5-MIN KSTC 061625Z 29015KT 10SM CLR 24/15 A2977 1160 55 2600 280/15 RMK AO2
14926KSTC STC20060606103009706/06/06 10:30:31  5-MIN KSTC 061630Z 27015KT 10SM FEW043 25/15 A2977 1160 53 2600 270/15 RMK AO2
14926KSTC STC20060606103509706/06/06 10:35:31  5-MIN KSTC 061635Z 28014KT 10SM FEW043 24/15 A2978 1160 55 2600 280/14 RMK AO2
14926KSTC STC20060606104009706/06/06 10:40:31  5-MIN KSTC 061640Z 30014KT 10SM FEW043 25/14 A2977 1160 51 2600 300/14 RMK AO2
14926KSTC STC20060606104509706/06/06 10:45:31  5-MIN KSTC 061645Z 30014KT 10SM FEW043 25/14 A2978 1160 51 2600 300/14 RMK AO2
14926KSTC STC20060606105011406/06/06 10:50:31  5-MIN KSTC 061650Z 30014KT 10SM FEW043 25/14 A2978 1160 51 2600 300/14 RMK AO2 SLP083 T02500144
14926KSTC STC20060606105509706/06/06 10:55:31  5-MIN KSTC 061655Z 29017KT 10SM FEW043 25/14 A2978 1160 51 2600 290/17 RMK AO2
14926KSTC STC20060606110009406/06/06 11:00:31  5-MIN KSTC 061700Z 30012KT 10SM CLR 25/14 A2978 1160 49 2600 300/12 RMK AO2
14926KSTC STC20060606110509406/06/06 11:05:31  5-MIN KSTC 061705Z 30013KT 10SM CLR 25/14 A2978 1160 51 2600 300/13 RMK AO2
14926KSTC STC20060606111009406/06/06 11:10:31  5-MIN KSTC 061710Z 28015KT 10SM CLR 25/14 A2978 1160 49 2600 280/15 RMK AO2
14926KSTC STC20060606111509406/06/06 11:15:31  5-MIN KSTC 061715Z 30017KT 10SM CLR 26/14 A2978 1160 48 2700 300/17 RMK AO2
14926KSTC STC20060606112009406/06/06 11:20:31  5-MIN KSTC 061720Z 31015KT 10SM CLR 26/13 A2978 1160 46 2700 310/15 RMK AO2
14926KSTC STC20060606112509406/06/06 11:25:31  5-MIN KSTC 061725Z 31016KT 10SM CLR 26/14 A2978 1160 48 2700 310/16 RMK AO2
14926KSTC STC20060606113010006/06/06 11:30:31  5-MIN KSTC 061730Z 29013G19KT 10SM CLR 26/14 A2978 1160 48 2700 290/13G19 RMK AO2
14926KSTC STC20060606113509406/06/06 11:35:31  5-MIN KSTC 061735Z 29018KT 10SM CLR 26/13 A2978 1160 46 2700 290/18 RMK AO2
14926KSTC STC20060606114009406/06/06 11:40:31  5-MIN KSTC 061740Z 30017KT 10SM CLR 26/13 A2978 1150 46 2700 300/17 RMK AO2
14926KSTC STC20060606114510006/06/06 11:45:31  5-MIN KSTC 061745Z 31016G21KT 10SM CLR 26/13 A2978 1150 46 2700 300/16G21 RMK AO2
14926KSTC STC20060606115012906/06/06 11:50:31  5-MIN KSTC 061750Z 28016KT 10SM CLR 26/13 A2978 1150 46 2700 280/16 RMK AO2 SLP085 T02560133 10261 20172 51007
14926KSTC STC20060606115509406/06/06 11:55:31  5-MIN KSTC 061755Z 31012KT 10SM CLR 26/13 A2978 1150 46 2700 310/12 RMK AO2
14926KSTC STC20060606120009406/06/06 12:00:31  5-MIN KSTC 061800Z 28016KT 10SM CLR 26/14 A2978 1150 46 2700 280/16 RMK AO2
14926KSTC STC20060606120509406/06/06 12:05:31  5-MIN KSTC 061805Z 30013KT 10SM CLR 26/14 A2978 1150 46 2700 300/13 RMK AO2
14926KSTC STC20060606121009406/06/06 12:10:31  5-MIN KSTC 061810Z 31014KT 10SM CLR 26/14 A2978 1150 46 2700 310/14 RMK AO2
14926KSTC STC20060606121510006/06/06 12:15:31  5-MIN KSTC 061815Z 30014G20KT 10SM CLR 26/14 A2978 1160 46 2700 300/14G20 RMK AO2
14926KSTC STC20060606122010306/06/06 12:20:31  5-MIN KSTC 061820Z 29016G20KT 10SM FEW050 26/13 A2978 1150 44 2700 290/16G20 RMK AO2
14926KSTC STC20060606122510306/06/06 12:25:31  5-MIN KSTC 061825Z 30012G20KT 10SM FEW050 26/13 A2978 1150 44 2700 290/12G20 RMK AO2
14926KSTC STC20060606123010306/06/06 12:30:31  5-MIN KSTC 061830Z 29012G20KT 10SM FEW050 27/14 A2978 1160 45 2800 290/12G20 RMK AO2
14926KSTC STC20060606123510306/06/06 12:35:31  5-MIN KSTC 061835Z 29014G19KT 10SM FEW050 27/14 A2978 1160 45 2800 290/14G19 RMK AO2
14926KSTC STC20060606124010306/06/06 12:40:31  5-MIN KSTC 061840Z 31013G19KT 10SM FEW055 27/14 A2978 1150 45 2800 300/13G19 RMK AO2
14926KSTC STC20060606124509706/06/06 12:45:31  5-MIN KSTC 061845Z 30016KT 10SM FEW050 27/14 A2978 1150 45 2800 290/16 RMK AO2
14926KSTC STC20060606125012006/06/06 12:50:31  5-MIN KSTC 061850Z 29016G22KT 10SM SCT050 27/13 A2978 1150 43 2800 290/16G22 RMK AO2 SLP085 T02670133
14926KSTC STC20060606125510306/06/06 12:55:31  5-MIN KSTC 061855Z 30015G22KT 10SM SCT050 26/13 A2978 1150 44 2700 300/15G22 RMK AO2
14926KSTC STC20060606130010306/06/06 13:00:31  5-MIN KSTC 061900Z 28014G19KT 10SM SCT050 27/13 A2978 1150 43 2800 280/14G19 RMK AO2
14926KSTC STC20060606130510306/06/06 13:05:31  5-MIN KSTC 061905Z 28017G21KT 10SM FEW050 27/13 A2978 1150 43 2800 280/17G21 RMK AO2
14926KSTC STC20060606131009706/06/06 13:10:31  5-MIN KSTC 061910Z 29019KT 10SM SCT050 27/13 A2978 1150 43 2800 290/19 RMK AO2
14926KSTC STC20060606131509706/06/06 13:15:31  5-MIN KSTC 061915Z 28014KT 10SM SCT050 27/14 A2978 1160 45 2800 280/14 RMK AO2
14926KSTC STC20060606132009706/06/06 13:20:31  5-MIN KSTC 061920Z 29017KT 10SM SCT050 27/13 A2978 1150 43 2800 290/17 RMK AO2
14926KSTC STC20060606132510306/06/06 13:25:31  5-MIN KSTC 061925Z 29016G20KT 10SM SCT050 27/14 A2978 1150 43 2900 290/16G20 RMK AO2
14926KSTC STC20060606133010306/06/06 13:30:31  5-MIN KSTC 061930Z 29015G23KT 10SM SCT050 27/14 A2978 1150 43 2900 280/15G23 RMK AO2
14926KSTC STC20060606133511006/06/06 13:35:31  5-MIN KSTC 061935Z 30014G23KT 10SM SCT050 SCT060 27/13 A2978 1150 42 2900 290/14G23 RMK AO2
14926KSTC STC20060606134010306/06/06 13:40:31  5-MIN KSTC 061940Z 30017G21KT 10SM SCT055 27/14 A2978 1150 43 2900 290/17G21 RMK AO2
14926KSTC STC20060606134512106/06/06 13:45:31  5-MIN KSTC 061945Z 28014G26KT 10SM BKN055 27/14 A2978 1150 43 2900 280/14G26 RMK AO2 PK WND 29026/1941
14926KSTC STC20060606135013806/06/06 13:50:31  5-MIN KSTC 061950Z 32016G26KT 10SM BKN050 27/13 A2978 1150 42 2900 320/16G26 RMK AO2 PK WND 29026/1941 SLP085 T02720133
14926KSTC STC20060606135510306/06/06 13:55:31  5-MIN KSTC 061955Z 31017G22KT 10SM BKN050 27/13 A2978 1150 43 2800 300/17G22 RMK AO2
14926KSTC STC20060606140010306/06/06 14:00:31  5-MIN KSTC 062000Z 30016G22KT 10SM SCT055 27/14 A2979 1150 43 2900 300/16G22 RMK AO2
14926KSTC STC20060606140510306/06/06 14:05:31  5-MIN KSTC 062005Z 30017G22KT 10SM BKN055 27/13 A2979 1150 43 2800 290/17G22 RMK AO2
14926KSTC STC20060606141009706/06/06 14:10:31  5-MIN KSTC 062010Z 30017KT 10SM BKN055 27/13 A2979 1150 43 2800 290/17 RMK AO2
14926KSTC STC20060606141509706/06/06 14:15:31  5-MIN KSTC 062015Z 30015KT 10SM BKN055 27/14 A2979 1150 43 2900 290/15 RMK AO2
14926KSTC STC20060606142009706/06/06 14:20:31  5-MIN KSTC 062020Z 31014KT 10SM BKN055 27/14 A2979 1150 43 2900 310/14 RMK AO2
14926KSTC STC20060606142509706/06/06 14:25:31  5-MIN KSTC 062025Z 32016KT 10SM BKN055 27/14 A2979 1150 43 2900 310/16 RMK AO2
14926KSTC STC20060606143010406/06/06 14:30:31  5-MIN KSTC 062030Z 31016KT 10SM BKN055 BKN070 27/14 A2979 1150 45 2900 310/16 RMK AO2
14926KSTC STC20060606143510406/06/06 14:35:31  5-MIN KSTC 062035Z 30018KT 10SM SCT055 BKN070 27/14 A2979 1150 45 2800 300/18 RMK AO2
14926KSTC STC20060606144010406/06/06 14:40:31  5-MIN KSTC 062040Z 31014KT 10SM SCT055 BKN070 26/14 A2979 1150 46 2700 310/14 RMK AO2
14926KSTC STC20060606144510406/06/06 14:45:31  5-MIN KSTC 062045Z 31015KT 10SM SCT055 SCT070 27/14 A2979 1150 45 2800 300/15 RMK AO2
14926KSTC STC20060606145013306/06/06 14:50:31  5-MIN KSTC 062050Z 29018G21KT 10SM FEW055 SCT070 27/14 A2979 1150 43 2900 290/18G21 RMK AO2 SLP088 T02720139 53004
14926KSTC STC20060606145511006/06/06 14:55:31  5-MIN KSTC 062055Z 30013G21KT 10SM SCT060 SCT070 27/14 A2979 1150 45 2800 300/13G21 RMK AO2
14926KSTC STC20060606150010306/06/06 15:00:31  5-MIN KSTC 062100Z 29019G22KT 10SM FEW055 27/13 A2979 1150 42 2900 290/19G22 RMK AO2
14926KSTC STC20060606150510306/06/06 15:05:31  5-MIN KSTC 062105Z 31016G22KT 10SM FEW055 27/14 A2979 1150 43 2900 310/16G22 RMK AO2
14926KSTC STC20060606151009706/06/06 15:10:31  5-MIN KSTC 062110Z 31017KT 10SM FEW055 27/14 A2979 1150 45 2800 300/17 RMK AO2
14926KSTC STC20060606151509706/06/06 15:15:31  5-MIN KSTC 062115Z 32012KT 10SM SCT060 27/13 A2979 1150 43 2800 320/12 RMK AO2
14926KSTC STC20060606152009706/06/06 15:20:31  5-MIN KSTC 062120Z 32012KT 10SM SCT060 26/13 A2979 1150 44 2700 320/12 RMK AO2
14926KSTC STC20060606152510406/06/06 15:25:31  5-MIN KSTC 062125Z 31011KT 10SM SCT055 BKN080 26/14 A2979 1150 48 2700 310/11 RMK AO2
14926KSTC STC20060606153011006/06/06 15:30:31  5-MIN KSTC 062130Z 31016G20KT 10SM SCT060 BKN080 27/14 A2979 1150 46 2800 310/16G20 RMK AO2
14926KSTC STC20060606153511706/06/06 15:35:31  5-MIN KSTC 062135Z 31013G20KT 10SM SCT055 BKN080 BKN090 26/14 A2979 1150 48 2700 300/13G20 RMK AO2
14926KSTC STC20060606161010406/06/06 16:10:31  5-MIN KSTC 062210Z 32011KT 10SM SCT065 BKN090 25/15 A2980 1140 53 2600 320/11 RMK AO2
14926KSTC STC20060606161511106/06/06 16:15:31  5-MIN KSTC 062215Z 32010KT 10SM FEW048 SCT060 BKN090 25/15 A2980 1140 53 2600 310/10 RMK AO2
14926KSTC STC20060606162011106/06/06 16:20:31  5-MIN KSTC 062220Z 31013KT 10SM FEW048 SCT060 BKN085 25/15 A2980 1140 53 2600 310/13 RMK AO2
14926KSTC STC20060606162511106/06/06 16:25:31  5-MIN KSTC 062225Z 32012KT 10SM FEW048 SCT060 BKN090 25/15 A2980 1140 53 2600 320/12 RMK AO2
14926KSTC STC20060606163011106/06/06 16:30:31  5-MIN KSTC 062230Z 32009KT 10SM FEW048 BKN060 BKN090 25/15 A2980 1140 53 2600 320/09 RMK AO2
14926KSTC STC20060606163511106/06/06 16:35:31  5-MIN KSTC 062235Z 32010KT 10SM FEW048 BKN060 BKN085 26/16 A2980 1140 53 2700 320/10 RMK AO2
14926KSTC STC20060606164011706/06/06 16:40:31  5-MIN KSTC 062240Z 32012G16KT 10SM SCT049 SCT060 BKN085 26/15 A2980 1140 51 2700 320/12G16 RMK AO2
14926KSTC STC20060606164511106/06/06 16:45:31  5-MIN KSTC 062245Z 33012KT 10SM FEW049 SCT075 BKN090 26/15 A2980 1140 50 2700 320/12 RMK AO2
14926KSTC STC20060606165012806/06/06 16:50:31  5-MIN KSTC 062250Z 31017KT 10SM SCT055 BKN075 BKN085 26/15 A2980 1140 50 2700 310/17 RMK AO2 SLP096 T02610150
14926KSTC STC20060606165511106/06/06 16:55:31  5-MIN KSTC 062255Z 32013KT 10SM FEW049 SCT060 BKN080 26/15 A2980 1130 51 2600 310/13 RMK AO2
14926KSTC STC20060606170011106/06/06 17:00:31  5-MIN KSTC 062300Z 32015KT 10SM FEW050 SCT070 BKN085 26/15 A2980 1130 51 2600 320/15 RMK AO2
14926KSTC STC20060606170510406/06/06 17:05:31  5-MIN KSTC 062305Z 32014KT 10SM SCT060 BKN080 26/15 A2980 1130 51 2600 320/14 RMK AO2
14926KSTC STC20060606171010406/06/06 17:10:31  5-MIN KSTC 062310Z 32011KT 10SM SCT065 SCT080 26/15 A2980 1140 50 2700 320/11 RMK AO2
14926KSTC STC20060606171509706/06/06 17:15:31  5-MIN KSTC 062315Z 32012KT 10SM FEW060 26/15 A2980 1140 51 2700 320/12 RMK AO2
14926KSTC STC20060606172009706/06/06 17:20:31  5-MIN KSTC 062320Z 33012KT 10SM FEW065 26/15 A2980 1130 51 2600 320/12 RMK AO2
14926KSTC STC20060606172509706/06/06 17:25:31  5-MIN KSTC 062325Z 32010KT 10SM FEW065 26/15 A2980 1130 51 2600 320/10 RMK AO2
14926KSTC STC20060606173009406/06/06 17:30:31  5-MIN KSTC 062330Z 32011KT 10SM CLR 26/15 A2980 1130 51 2600 310/11 RMK AO2
14926KSTC STC20060606173509406/06/06 17:35:31  5-MIN KSTC 062335Z 32015KT 10SM CLR 26/16 A2981 1130 51 2700 310/15 RMK AO2
14926KSTC STC20060606174009406/06/06 17:40:31  5-MIN KSTC 062340Z 32014KT 10SM CLR 26/15 A2981 1130 51 2600 310/14 RMK AO2
14926KSTC STC20060606174509406/06/06 17:45:31  5-MIN KSTC 062345Z 32012KT 10SM CLR 26/16 A2981 1130 53 2600 310/12 RMK AO2
14926KSTC STC20060606175013206/06/06 17:50:31  5-MIN KSTC 062350Z 32012KT 10SM FEW048 26/15 A2981 1130 51 2600 310/12 RMK AO2 SLP099 T02560150 10272 20250 53002
14926KSTC STC20060606175510306/06/06 17:55:31  5-MIN KSTC 062355Z 32014G18KT 10SM FEW048 26/15 A2981 1130 51 2600 320/14G18 RMK AO2
14926KSTC STC20060606180009706/06/06 18:00:31  5-MIN KSTC 070000Z 32011KT 10SM FEW048 26/15 A2981 1130 51 2600 320/11 RMK AO2
14926KSTC STC20060606180509706/06/06 18:05:31  5-MIN KSTC 070005Z 31012KT 10SM FEW048 26/15 A2981 1130 51 2600 310/12 RMK AO2
14926KSTC STC20060606181009706/06/06 18:10:31  5-MIN KSTC 070010Z 33011KT 10SM SCT048 26/16 A2981 1120 53 2600 320/11 RMK AO2
14926KSTC STC20060606181509706/06/06 18:15:31  5-MIN KSTC 070015Z 32010KT 10SM SCT048 26/15 A2982 1120 51 2600 320/10 RMK AO2
14926KSTC STC20060606182009706/06/06 18:20:31  5-MIN KSTC 070020Z 33010KT 10SM FEW048 26/15 A2982 1120 51 2600 320/10 RMK AO2
14926KSTC STC20060606182509706/06/06 18:25:31  5-MIN KSTC 070025Z 32013KT 10SM SCT048 26/15 A2982 1120 51 2600 310/13 RMK AO2
14926KSTC STC20060606183009706/06/06 18:30:31  5-MIN KSTC 070030Z 32013KT 10SM SCT048 25/14 A2982 1120 51 2600 320/13 RMK AO2
14926KSTC STC20060606183510306/06/06 18:35:31  5-MIN KSTC 070035Z 32012G19KT 10SM FEW048 25/14 A2982 1120 51 2600 320/12G19 RMK AO2
14926KSTC STC20060606184010306/06/06 18:40:31  5-MIN KSTC 070040Z 32014G19KT 10SM FEW048 25/14 A2982 1120 51 2600 310/14G19 RMK AO2
14926KSTC STC20060606184509706/06/06 18:45:31  5-MIN KSTC 070045Z 31013KT 10SM FEW048 25/14 A2982 1120 51 2600 310/13 RMK AO2
14926KSTC STC20060606185011406/06/06 18:50:31  5-MIN KSTC 070050Z 32013KT 10SM FEW048 24/14 A2982 1110 53 2500 310/13 RMK AO2 SLP102 T02440144
14926KSTC STC20060606185510006/06/06 18:55:31  5-MIN KSTC 070055Z 32012G18KT 10SM CLR 24/14 A2983 1110 53 2500 320/12G18 RMK AO2
14926KSTC STC20060606190009406/06/06 19:00:31  5-MIN KSTC 070100Z 32012KT 10SM CLR 24/14 A2983 1110 53 2500 320/12 RMK AO2
14926KSTC STC20060606190509406/06/06 19:05:31  5-MIN KSTC 070105Z 32012KT 10SM CLR 24/14 A2983 1110 53 2500 320/12 RMK AO2
14926KSTC STC20060606191009406/06/06 19:10:31  5-MIN KSTC 070110Z 32011KT 10SM CLR 24/14 A2983 1110 53 2500 320/11 RMK AO2
14926KSTC STC20060606191509406/06/06 19:15:31  5-MIN KSTC 070115Z 32009KT 10SM CLR 24/14 A2983 1110 55 2400 310/09 RMK AO2
14926KSTC STC20060606192009406/06/06 19:20:31  5-MIN KSTC 070120Z 31010KT 10SM CLR 23/15 A2983 1110 59 2400 310/10 RMK AO2
14926KSTC STC20060606192509406/06/06 19:25:31  5-MIN KSTC 070125Z 32010KT 10SM CLR 23/15 A2984 1100 59 2400 310/10 RMK AO2
14926KSTC STC20060606193009406/06/06 19:30:31  5-MIN KSTC 070130Z 31011KT 10SM CLR 23/15 A2984 1100 59 2400 310/11 RMK AO2
14926KSTC STC20060606193509406/06/06 19:35:31  5-MIN KSTC 070135Z 31010KT 10SM CLR 23/15 A2984 1100 59 2400 310/10 RMK AO2
14926KSTC STC20060606194009406/06/06 19:40:31  5-MIN KSTC 070140Z 31010KT 10SM CLR 23/15 A2984 1100 61 2300 310/10 RMK AO2
14926KSTC STC20060606194509406/06/06 19:45:31  5-MIN KSTC 070145Z 31010KT 10SM CLR 23/15 A2984 1100 61 2300 310/10 RMK AO2
14926KSTC STC20060606195011106/06/06 19:50:31  5-MIN KSTC 070150Z 31010KT 10SM CLR 23/15 A2984 1100 61 2300 310/10 RMK AO2 SLP108 T02280150
14926KSTC STC20060606195509406/06/06 19:55:31  5-MIN KSTC 070155Z 31010KT 10SM CLR 23/15 A2984 1100 61 2300 310/10 RMK AO2
14926KSTC STC20060606200009406/06/06 20:00:31  5-MIN KSTC 070200Z 31010KT 10SM CLR 22/15 A2984 1100 63 2200 310/10 RMK AO2
14926KSTC STC20060606200509406/06/06 20:05:31  5-MIN KSTC 070205Z 31009KT 10SM CLR 22/15 A2985 1090 63 2200 310/09 RMK AO2
14926KSTC STC20060606201009406/06/06 20:10:31  5-MIN KSTC 070210Z 31009KT 10SM CLR 22/15 A2985 1090 65 2200 310/09 RMK AO2
14926KSTC STC20060606201509406/06/06 20:15:31  5-MIN KSTC 070215Z 31010KT 10SM CLR 22/15 A2985 1090 65 2200 310/10 RMK AO2
14926KSTC STC20060606202009406/06/06 20:20:31  5-MIN KSTC 070220Z 31008KT 10SM CLR 22/15 A2985 1090 65 2200 310/08 RMK AO2
14926KSTC STC20060606202509406/06/06 20:25:31  5-MIN KSTC 070225Z 31008KT 10SM CLR 21/15 A2986 1090 68 2100 310/08 RMK AO2
14926KSTC STC20060606203009406/06/06 20:30:31  5-MIN KSTC 070230Z 31007KT 10SM CLR 21/15 A2986 1080 68 2100 310/07 RMK AO2
14926KSTC STC20060606203509406/06/06 20:35:31  5-MIN KSTC 070235Z 31007KT 10SM CLR 21/15 A2986 1080 70 2000 310/07 RMK AO2
14926KSTC STC20060606204009406/06/06 20:40:31  5-MIN KSTC 070240Z 31007KT 10SM CLR 21/15 A2986 1080 70 2000 310/07 RMK AO2
14926KSTC STC20060606204509406/06/06 20:45:31  5-MIN KSTC 070245Z 31006KT 10SM CLR 21/15 A2986 1080 70 2000 300/06 RMK AO2
14926KSTC STC20060606205011706/06/06 20:50:31  5-MIN KSTC 070250Z 32006KT 10SM CLR 21/15 A2986 1080 70 2000 310/06 RMK AO2 SLP116 T02060150 51008
14926KSTC STC20060606205509406/06/06 20:55:31  5-MIN KSTC 070255Z 31007KT 10SM CLR 21/15 A2986 1080 70 2000 310/07 RMK AO2
14926KSTC STC20060606210009406/06/06 21:00:31  5-MIN KSTC 070300Z 31007KT 10SM CLR 20/15 A2987 1080 72 1900 310/07 RMK AO2
14926KSTC STC20060606210509406/06/06 21:05:31  5-MIN KSTC 070305Z 31007KT 10SM CLR 20/15 A2987 1080 72 1900 300/07 RMK AO2
14926KSTC STC20060606211009406/06/06 21:10:31  5-MIN KSTC 070310Z 30006KT 10SM CLR 20/16 A2987 1070 75 1900 300/06 RMK AO2
14926KSTC STC20060606211509406/06/06 21:15:31  5-MIN KSTC 070315Z 30006KT 10SM CLR 20/16 A2987 1070 75 1900 300/06 RMK AO2
14926KSTC STC20060606212009406/06/06 21:20:31  5-MIN KSTC 070320Z 30006KT 10SM CLR 20/15 A2987 1070 72 1900 300/06 RMK AO2
14926KSTC STC20060606212509406/06/06 21:25:31  5-MIN KSTC 070325Z 30007KT 10SM CLR 20/15 A2987 1070 72 1900 290/07 RMK AO2
14926KSTC STC20060606213009406/06/06 21:30:31  5-MIN KSTC 070330Z 30008KT 10SM CLR 21/15 A2988 1070 68 2100 300/08 RMK AO2
14926KSTC STC20060606213509406/06/06 21:35:31  5-MIN KSTC 070335Z 30008KT 10SM CLR 21/15 A2988 1070 70 2000 300/08 RMK AO2
14926KSTC STC20060606214009406/06/06 21:40:31  5-MIN KSTC 070340Z 30009KT 10SM CLR 21/15 A2988 1060 70 2000 300/09 RMK AO2
14926KSTC STC20060606214509406/06/06 21:45:31  5-MIN KSTC 070345Z 30009KT 10SM CLR 21/15 A2988 1060 68 2100 300/09 RMK AO2
14926KSTC STC20060606215011106/06/06 21:50:31  5-MIN KSTC 070350Z 30009KT 10SM CLR 21/15 A2988 1060 68 2100 290/09 RMK AO2 SLP121 T02110150
14926KSTC STC20060606215509406/06/06 21:55:31  5-MIN KSTC 070355Z 30009KT 10SM CLR 21/15 A2988 1060 68 2100 300/09 RMK AO2
14926KSTC STC20060606220009906/06/06 22:00:31  5-MIN KSTC 070400Z AUTO 30009KT 10SM CLR 21/15 A2988 1060 68 2100 290/09 RMK AO2
14926KSTC STC20060606220509906/06/06 22:05:31  5-MIN KSTC 070405Z AUTO 30008KT 10SM CLR 21/15 A2988 1060 70 2000 290/08 RMK AO2
14926KSTC STC20060606221009906/06/06 22:10:31  5-MIN KSTC 070410Z AUTO 29007KT 10SM CLR 21/15 A2988 1060 70 2000 290/07 RMK AO2
14926KSTC STC20060606221509906/06/06 22:15:31  5-MIN KSTC 070415Z AUTO 30007KT 10SM CLR 21/15 A2988 1060 70 2000 300/07 RMK AO2
14926KSTC STC20060606222009906/06/06 22:20:31  5-MIN KSTC 070420Z AUTO 30008KT 10SM CLR 21/15 A2989 1060 70 2000 300/08 RMK AO2
14926KSTC STC20060606222509906/06/06 22:25:31  5-MIN KSTC 070425Z AUTO 30007KT 10SM CLR 20/15 A2988 1060 72 1900 300/07 RMK AO2
14926KSTC STC20060606223009906/06/06 22:30:31  5-MIN KSTC 070430Z AUTO 31006KT 10SM CLR 19/15 A2988 1060 75 1900 300/06 RMK AO2
14926KSTC STC20060606223509906/06/06 22:35:31  5-MIN KSTC 070435Z AUTO 31006KT 10SM CLR 19/15 A2989 1060 75 1900 310/06 RMK AO2
14926KSTC STC20060606224009906/06/06 22:40:31  5-MIN KSTC 070440Z AUTO 31006KT 10SM CLR 19/15 A2989 1060 78 1800 310/06 RMK AO2
14926KSTC STC20060606224509906/06/06 22:45:31  5-MIN KSTC 070445Z AUTO 31006KT 10SM CLR 19/15 A2989 1060 78 1800 300/06 RMK AO2
14926KSTC STC20060606225011606/06/06 22:50:31  5-MIN KSTC 070450Z AUTO 30006KT 10SM CLR 18/15 A2989 1060 81 1700 300/06 RMK AO2 SLP125 T01830150
14926KSTC STC20060606225509906/06/06 22:55:31  5-MIN KSTC 070455Z AUTO 31006KT 10SM CLR 18/15 A2989 1060 81 1700 300/06 RMK AO2
14926KSTC STC20060606230009906/06/06 23:00:31  5-MIN KSTC 070500Z AUTO 31006KT 10SM CLR 18/15 A2989 1050 81 1700 300/06 RMK AO2
14926KSTC STC20060606230509906/06/06 23:05:31  5-MIN KSTC 070505Z AUTO 30006KT 10SM CLR 18/15 A2989 1050 81 1700 290/06 RMK AO2
14926KSTC STC20060606231009906/06/06 23:10:31  5-MIN KSTC 070510Z AUTO 30006KT 10SM CLR 18/15 A2989 1050 83 1700 300/06 RMK AO2
14926KSTC STC20060606231509906/06/06 23:15:31  5-MIN KSTC 070515Z AUTO 30007KT 10SM CLR 18/15 A2989 1050 81 1700 300/07 RMK AO2
14926KSTC STC20060606232009906/06/06 23:20:31  5-MIN KSTC 070520Z AUTO 31006KT 10SM CLR 18/15 A2989 1050 81 1700 300/06 RMK AO2
14926KSTC STC20060606232509906/06/06 23:25:31  5-MIN KSTC 070525Z AUTO 31006KT 10SM CLR 18/14 A2989 1050 78 1700 310/06 RMK AO2
14926KSTC STC20060606233009906/06/06 23:30:31  5-MIN KSTC 070530Z AUTO 31006KT 10SM CLR 18/14 A2990 1050 78 1700 300/06 RMK AO2
14926KSTC STC20060606233509906/06/06 23:35:31  5-MIN KSTC 070535Z AUTO 31006KT 10SM CLR 18/14 A2990 1050 81 1700 300/06 RMK AO2
14926KSTC STC20060606234009906/06/06 23:40:31  5-MIN KSTC 070540Z AUTO 30006KT 10SM CLR 17/14 A2990 1050 83 1600 300/06 RMK AO2
14926KSTC STC20060606234509906/06/06 23:45:31  5-MIN KSTC 070545Z AUTO 30006KT 10SM CLR 17/14 A2990 1040 83 1600 290/06 RMK AO2
14926KSTC STC20060606235014406/06/06 23:50:31  5-MIN KSTC 070550Z AUTO 30006KT 10SM CLR 17/14 A2990 1040 83 1600 290/06 RMK AO2 SLP129 T01720144 10256 20172 403170161 53017
14926KSTC STC20060606235509906/06/06 23:55:31  5-MIN KSTC 070555Z AUTO 30006KT 10SM CLR 17/14 A2990 1040 83 1600 290/06 RMK AO2
14926KSTC STC20060607000009906/07/06 00:00:32  5-MIN KSTC 070600Z AUTO 29006KT 10SM CLR 17/14 A2990 1040 83 1600 290/06 RMK AO2
14926KSTC STC20060607000509906/07/06 00:05:31  5-MIN KSTC 070605Z AUTO 30006KT 10SM CLR 17/14 A2990 1040 83 1600 290/06 RMK AO2
14926KSTC STC20060607001009906/07/06 00:10:31  5-MIN KSTC 070610Z AUTO 30006KT 10SM CLR 17/14 A2990 1040 83 1600 300/06 RMK AO2
14926KSTC STC20060607001509906/07/06 00:15:31  5-MIN KSTC 070615Z AUTO 30006KT 10SM CLR 17/14 A2990 1040 86 1500 300/06 RMK AO2
14926KSTC STC20060607002009906/07/06 00:20:31  5-MIN KSTC 070620Z AUTO 30006KT 10SM CLR 17/14 A2990 1040 83 1600 300/06 RMK AO2
14926KSTC STC20060607002509906/07/06 00:25:31  5-MIN KSTC 070625Z AUTO 30006KT 10SM CLR 17/14 A2990 1040 83 1600 300/06 RMK AO2
14926KSTC STC20060607003009906/07/06 00:30:31  5-MIN KSTC 070630Z AUTO 31006KT 10SM CLR 17/14 A2990 1040 83 1600 300/06 RMK AO2
14926KSTC STC20060607003509906/07/06 00:35:31  5-MIN KSTC 070635Z AUTO 31006KT 10SM CLR 17/14 A2990 1040 83 1600 310/06 RMK AO2
14926KSTC STC20060607004009906/07/06 00:40:31  5-MIN KSTC 070640Z AUTO 31006KT 10SM CLR 17/14 A2990 1040 83 1600 310/06 RMK AO2
14926KSTC STC20060607004509906/07/06 00:45:31  5-MIN KSTC 070645Z AUTO 32005KT 10SM CLR 17/14 A2990 1040 83 1600 320/05 RMK AO2
14926KSTC STC20060607005011606/07/06 00:50:31  5-MIN KSTC 070650Z AUTO 32004KT 10SM CLR 18/14 A2990 1040 81 1600 320/04 RMK AO2 SLP129 T01780144
14926KSTC STC20060607005509906/07/06 00:55:31  5-MIN KSTC 070655Z AUTO 32005KT 10SM CLR 18/14 A2990 1040 81 1600 320/05 RMK AO2
14926KSTC STC20060607010009906/07/06 01:00:31  5-MIN KSTC 070700Z AUTO 31005KT 10SM CLR 17/14 A2990 1040 83 1600 310/05 RMK AO2
14926KSTC STC20060607010509906/07/06 01:05:31  5-MIN KSTC 070705Z AUTO 31006KT 10SM CLR 16/14 A2990 1040 90 1500 310/06 RMK AO2
14926KSTC STC20060607011009906/07/06 01:10:31  5-MIN KSTC 070710Z AUTO 31005KT 10SM CLR 17/14 A2990 1040 86 1500 310/05 RMK AO2
14926KSTC STC20060607011509906/07/06 01:15:31  5-MIN KSTC 070715Z AUTO 30005KT 10SM CLR 17/14 A2990 1040 86 1500 300/05 RMK AO2
14926KSTC STC20060607012009906/07/06 01:20:31  5-MIN KSTC 070720Z AUTO 30006KT 10SM CLR 16/14 A2991 1040 90 1500 300/06 RMK AO2
14926KSTC STC20060607012509906/07/06 01:25:31  5-MIN KSTC 070725Z AUTO 30005KT 10SM CLR 16/14 A2991 1040 86 1400 300/05 RMK AO2
14926KSTC STC20060607013009906/07/06 01:30:31  5-MIN KSTC 070730Z AUTO 29005KT 10SM CLR 16/14 A2991 1030 90 1400 290/05 RMK AO2
14926KSTC STC20060607013509906/07/06 01:35:31  5-MIN KSTC 070735Z AUTO 30005KT 10SM CLR 16/14 A2991 1030 90 1400 290/05 RMK AO2
14926KSTC STC20060607014009906/07/06 01:40:31  5-MIN KSTC 070740Z AUTO 30005KT 10SM CLR 16/14 A2991 1030 86 1400 300/05 RMK AO2
14926KSTC STC20060607014509906/07/06 01:45:31  5-MIN KSTC 070745Z AUTO 00000KT 10SM CLR 16/14 A2991 1030 86 1400 000/00 RMK AO2
14926KSTC STC20060607015011606/07/06 01:50:31  5-MIN KSTC 070750Z AUTO 30004KT 10SM CLR 16/14 A2991 1030 86 1400 300/04 RMK AO2 SLP134 T01610139
14926KSTC STC20060607015509906/07/06 01:55:31  5-MIN KSTC 070755Z AUTO 29005KT 10SM CLR 16/14 A2992 1030 86 1400 290/05 RMK AO2
14926KSTC STC20060607020009906/07/06 02:00:31  5-MIN KSTC 070800Z AUTO 30005KT 10SM CLR 16/14 A2992 1030 90 1400 290/05 RMK AO2
14926KSTC STC20060607020509906/07/06 02:05:31  5-MIN KSTC 070805Z AUTO 30005KT 10SM CLR 16/14 A2992 1030 86 1400 300/05 RMK AO2
14926KSTC STC20060607021009906/07/06 02:10:31  5-MIN KSTC 070810Z AUTO 33003KT 10SM CLR 16/14 A2992 1030 86 1400 320/03 RMK AO2
14926KSTC STC20060607021509906/07/06 02:15:31  5-MIN KSTC 070815Z AUTO 00000KT 10SM CLR 16/14 A2992 1030 86 1400 000/00 RMK AO2
14926KSTC STC20060607022009906/07/06 02:20:31  5-MIN KSTC 070820Z AUTO 31003KT 10SM CLR 16/14 A2992 1030 86 1400 310/03 RMK AO2
14926KSTC STC20060607022509906/07/06 02:25:31  5-MIN KSTC 070825Z AUTO 31003KT 10SM CLR 16/14 A2992 1030 86 1400 310/03 RMK AO2
14926KSTC STC20060607023009906/07/06 02:30:31  5-MIN KSTC 070830Z AUTO 32003KT 10SM CLR 16/14 A2992 1020 86 1400 310/03 RMK AO2
14926KSTC STC20060607023509906/07/06 02:35:31  5-MIN KSTC 070835Z AUTO 30004KT 10SM CLR 16/14 A2993 1020 90 1400 300/04 RMK AO2
14926KSTC STC20060607024009906/07/06 02:40:31  5-MIN KSTC 070840Z AUTO 30005KT 10SM CLR 16/14 A2993 1020 90 1400 300/05 RMK AO2
14926KSTC STC20060607024509906/07/06 02:45:31  5-MIN KSTC 070845Z AUTO 30005KT 10SM CLR 16/14 A2993 1020 90 1400 290/05 RMK AO2
14926KSTC STC20060607025012206/07/06 02:50:31  5-MIN KSTC 070850Z AUTO 30006KT 10SM CLR 16/14 A2993 1020 90 1400 300/06 RMK AO2 SLP140 T01560139 51013
14926KSTC STC20060607025509906/07/06 02:55:31  5-MIN KSTC 070855Z AUTO 30007KT 10SM CLR 16/14 A2993 1010 90 1400 300/07 RMK AO2
14926KSTC STC20060607030009906/07/06 03:00:31  5-MIN KSTC 070900Z AUTO 30007KT 10SM CLR 17/14 A2993 1010 86 1500 290/07 RMK AO2
14926KSTC STC20060607030509906/07/06 03:05:31  5-MIN KSTC 070905Z AUTO 30007KT 10SM CLR 17/14 A2993 1010 86 1500 300/07 RMK AO2
14926KSTC STC20060607031009906/07/06 03:10:31  5-MIN KSTC 070910Z AUTO 30007KT 10SM CLR 16/14 A2993 1010 90 1400 290/07 RMK AO2
14926KSTC STC20060607031509906/07/06 03:15:31  5-MIN KSTC 070915Z AUTO 30007KT 10SM CLR 17/14 A2994 1010 86 1500 290/07 RMK AO2
14926KSTC STC20060607032009906/07/06 03:20:31  5-MIN KSTC 070920Z AUTO 30007KT 10SM CLR 17/14 A2994 1010 86 1500 300/07 RMK AO2
14926KSTC STC20060607032509906/07/06 03:25:31  5-MIN KSTC 070925Z AUTO 30007KT 10SM CLR 17/14 A2994 1000 86 1500 300/07 RMK AO2
14926KSTC STC20060607033009906/07/06 03:30:31  5-MIN KSTC 070930Z AUTO 30007KT 10SM CLR 16/14 A2995 1000 90 1400 300/07 RMK AO2
14926KSTC STC20060607033509906/07/06 03:35:31  5-MIN KSTC 070935Z AUTO 30007KT 10SM CLR 16/14 A2995 1000 90 1400 300/07 RMK AO2
14926KSTC STC20060607034009906/07/06 03:40:31  5-MIN KSTC 070940Z AUTO 30007KT 10SM CLR 16/14 A2995 1000 90 1400 300/07 RMK AO2
14926KSTC STC20060607034509906/07/06 03:45:31  5-MIN KSTC 070945Z AUTO 31007KT 10SM CLR 16/14 A2995 1000 90 1400 300/07 RMK AO2
14926KSTC STC20060607035011506/07/06 03:50:31  5-MIN KSTC 070950Z AUTO 32005KT 10SM CLR 16/14 A2995 990 86 1400 310/05 RMK AO2 SLP148 T01610139
14926KSTC STC20060607035509806/07/06 03:55:31  5-MIN KSTC 070955Z AUTO 32005KT 10SM CLR 16/14 A2996 990 86 1400 320/05 RMK AO2
14926KSTC STC20060607040009806/07/06 04:00:31  5-MIN KSTC 071000Z AUTO 32005KT 10SM CLR 16/14 A2996 990 86 1400 320/05 RMK AO2
14926KSTC STC20060607040509806/07/06 04:05:31  5-MIN KSTC 071005Z AUTO 32005KT 10SM CLR 16/14 A2996 990 90 1300 320/05 RMK AO2
14926KSTC STC20060607041009806/07/06 04:10:31  5-MIN KSTC 071010Z AUTO 32005KT 10SM CLR 16/14 A2996 990 90 1300 310/05 RMK AO2
14926KSTC STC20060607041509806/07/06 04:15:31  5-MIN KSTC 071015Z AUTO 32003KT 10SM CLR 16/14 A2997 980 90 1300 320/03 RMK AO2
14926KSTC STC20060607042009806/07/06 04:20:31  5-MIN KSTC 071020Z AUTO 32003KT 10SM CLR 16/14 A2997 980 90 1300 320/03 RMK AO2
14926KSTC STC20060607042509806/07/06 04:25:31  5-MIN KSTC 071025Z AUTO 32003KT 10SM CLR 16/14 A2997 980 90 1300 320/03 RMK AO2
14926KSTC STC20060607043009806/07/06 04:30:31  5-MIN KSTC 071030Z AUTO 32005KT 10SM CLR 16/14 A2997 980 90 1300 320/05 RMK AO2
14926KSTC STC20060607043509806/07/06 04:35:31  5-MIN KSTC 071035Z AUTO 32005KT 10SM CLR 16/13 A2997 980 86 1300 320/05 RMK AO2
14926KSTC STC20060607044009806/07/06 04:40:31  5-MIN KSTC 071040Z AUTO 32004KT 10SM CLR 16/13 A2997 980 86 1300 320/04 RMK AO2
14926KSTC STC20060607044509806/07/06 04:45:31  5-MIN KSTC 071045Z AUTO 33005KT 10SM CLR 16/14 A2997 980 90 1300 320/05 RMK AO2
14926KSTC STC20060607045011506/07/06 04:50:31  5-MIN KSTC 071050Z AUTO 33004KT 10SM CLR 16/14 A2998 970 90 1300 320/04 RMK AO2 SLP155 T01560139
14926KSTC STC20060607045509806/07/06 04:55:31  5-MIN KSTC 071055Z AUTO 32004KT 10SM CLR 16/14 A2998 970 90 1300 320/04 RMK AO2
14926KSTC STC20060607050009806/07/06 05:00:31  5-MIN KSTC 071100Z AUTO 32005KT 10SM CLR 16/14 A2998 970 90 1300 320/05 RMK AO2
14926KSTC STC20060607050509806/07/06 05:05:31  5-MIN KSTC 071105Z AUTO 33005KT 10SM CLR 16/14 A2998 970 90 1300 320/05 RMK AO2
14926KSTC STC20060607051009806/07/06 05:10:31  5-MIN KSTC 071110Z AUTO 33004KT 10SM CLR 16/13 A2999 970 86 1300 320/04 RMK AO2
14926KSTC STC20060607051509806/07/06 05:15:31  5-MIN KSTC 071115Z AUTO 32004KT 10SM CLR 16/14 A2999 960 90 1300 320/04 RMK AO2
14926KSTC STC20060607052009806/07/06 05:20:31  5-MIN KSTC 071120Z AUTO 32005KT 10SM CLR 16/14 A2999 960 90 1300 320/05 RMK AO2
14926KSTC STC20060607052509806/07/06 05:25:31  5-MIN KSTC 071125Z AUTO 32005KT 10SM CLR 16/14 A2999 960 86 1400 320/05 RMK AO2
14926KSTC STC20060607053009806/07/06 05:30:31  5-MIN KSTC 071130Z AUTO 32005KT 10SM CLR 16/14 A2999 960 86 1400 310/05 RMK AO2
14926KSTC STC20060607053509806/07/06 05:35:31  5-MIN KSTC 071135Z AUTO 32005KT 10SM CLR 16/14 A3000 960 86 1300 310/05 RMK AO2
14926KSTC STC20060607054009806/07/06 05:40:31  5-MIN KSTC 071140Z AUTO 32005KT 10SM CLR 17/14 A3000 960 83 1400 320/05 RMK AO2
14926KSTC STC20060607054509806/07/06 05:45:31  5-MIN KSTC 071145Z AUTO 32005KT 10SM CLR 17/14 A3000 950 83 1400 320/05 RMK AO2
14926KSTC STC20060607055013306/07/06 05:50:31  5-MIN KSTC 071150Z AUTO 31005KT 10SM CLR 17/14 A3000 950 83 1400 310/05 RMK AO2 SLP163 T01670139 10178 20150 53010
14926KSTC STC20060607055509806/07/06 05:55:31  5-MIN KSTC 071155Z AUTO 31004KT 10SM CLR 17/14 A3000 950 83 1500 310/04 RMK AO2
14926KSTC STC20060607060009806/07/06 06:00:31  5-MIN KSTC 071200Z AUTO 32004KT 10SM CLR 17/14 A3000 950 83 1500 320/04 RMK AO2
14926KSTC STC20060607060509306/07/06 06:05:31  5-MIN KSTC 071205Z 33004KT 10SM CLR 18/14 A3000 950 81 1500 330/04 RMK AO2
14926KSTC STC20060607061009306/07/06 06:10:31  5-MIN KSTC 071210Z 33004KT 10SM CLR 18/14 A3000 950 81 1500 330/04 RMK AO2
14926KSTC STC20060607061509306/07/06 06:15:31  5-MIN KSTC 071215Z 33005KT 10SM CLR 18/14 A3001 950 78 1600 330/05 RMK AO2
14926KSTC STC20060607062009306/07/06 06:20:31  5-MIN KSTC 071220Z 34005KT 10SM CLR 18/14 A3001 950 78 1600 330/05 RMK AO2
14926KSTC STC20060607062509306/07/06 06:25:31  5-MIN KSTC 071225Z 33005KT 10SM CLR 19/14 A3001 940 75 1700 330/05 RMK AO2
14926KSTC STC20060607063009306/07/06 06:30:31  5-MIN KSTC 071230Z 34004KT 10SM CLR 19/14 A3001 940 75 1700 340/04 RMK AO2
14926KSTC STC20060607063509306/07/06 06:35:31  5-MIN KSTC 071235Z 34004KT 10SM CLR 19/14 A3001 940 72 1700 330/04 RMK AO2
14926KSTC STC20060607064009306/07/06 06:40:31  5-MIN KSTC 071240Z 34006KT 10SM CLR 19/14 A3001 940 72 1700 340/06 RMK AO2
14926KSTC STC20060607064509306/07/06 06:45:31  5-MIN KSTC 071245Z 34005KT 10SM CLR 20/14 A3002 940 70 1800 330/05 RMK AO2
14926KSTC STC20060607065011006/07/06 06:50:31  5-MIN KSTC 071250Z 34006KT 10SM CLR 20/14 A3002 930 70 1800 330/06 RMK AO2 SLP169 T02000144
14926KSTC STC20060607065509306/07/06 06:55:31  5-MIN KSTC 071255Z 34006KT 10SM CLR 20/14 A3002 930 67 1800 340/06 RMK AO2
14926KSTC STC20060607070009306/07/06 07:00:31  5-MIN KSTC 071300Z 34005KT 10SM CLR 21/14 A3002 930 65 1800 330/05 RMK AO2
14926KSTC STC20060607070509306/07/06 07:05:31  5-MIN KSTC 071305Z 33006KT 10SM CLR 21/14 A3002 930 67 1800 330/06 RMK AO2
14926KSTC STC20060607071009306/07/06 07:10:31  5-MIN KSTC 071310Z 33005KT 10SM CLR 21/14 A3002 930 65 1800 330/05 RMK AO2
14926KSTC STC20060607071509306/07/06 07:15:31  5-MIN KSTC 071315Z 34004KT 10SM CLR 21/14 A3002 930 65 1900 330/04 RMK AO2
14926KSTC STC20060607072009306/07/06 07:20:31  5-MIN KSTC 071320Z 33007KT 10SM CLR 21/14 A3002 930 65 1900 330/07 RMK AO2
14926KSTC STC20060607072509306/07/06 07:25:31  5-MIN KSTC 071325Z 32006KT 10SM CLR 21/14 A3003 930 63 1900 320/06 RMK AO2
14926KSTC STC20060607073009306/07/06 07:30:31  5-MIN KSTC 071330Z 32006KT 10SM CLR 22/14 A3003 930 63 2000 320/06 RMK AO2
14926KSTC STC20060607073509306/07/06 07:35:31  5-MIN KSTC 071335Z 32007KT 10SM CLR 22/14 A3003 930 63 2000 320/07 RMK AO2
14926KSTC STC20060607074009306/07/06 07:40:31  5-MIN KSTC 071340Z 32006KT 10SM CLR 22/14 A3003 930 63 2000 320/06 RMK AO2
14926KSTC STC20060607074509306/07/06 07:45:31  5-MIN KSTC 071345Z 32006KT 10SM CLR 22/14 A3003 920 61 2000 320/06 RMK AO2
14926KSTC STC20060607075011006/07/06 07:50:31  5-MIN KSTC 071350Z 31007KT 10SM CLR 22/14 A3003 920 61 2000 300/07 RMK AO2 SLP172 T02220144
14926KSTC STC20060607075509306/07/06 07:55:31  5-MIN KSTC 071355Z 32007KT 10SM CLR 22/15 A3003 920 63 2000 320/07 RMK AO2
14926KSTC STC20060607080009306/07/06 08:00:31  5-MIN KSTC 071400Z 31007KT 10SM CLR 23/14 A3003 920 59 2100 310/07 RMK AO2
14926KSTC STC20060607080509306/07/06 08:05:31  5-MIN KSTC 071405Z 34005KT 10SM CLR 23/15 A3003 920 61 2100 340/05 RMK AO2
14926KSTC STC20060607081009306/07/06 08:10:31  5-MIN KSTC 071410Z VRB04KT 10SM CLR 23/14 A3003 930 57 2100 VRB/04 RMK AO2
14926KSTC STC20060607081509306/07/06 08:15:31  5-MIN KSTC 071415Z 35005KT 10SM CLR 24/15 A3003 930 57 2200 350/05 RMK AO2
14926KSTC STC20060607082009306/07/06 08:20:31  5-MIN KSTC 071420Z 36006KT 10SM CLR 23/14 A3003 930 57 2100 360/06 RMK AO2
14926KSTC STC20060607082509306/07/06 08:25:31  5-MIN KSTC 071425Z 36004KT 10SM CLR 24/15 A3003 930 57 2200 360/04 RMK AO2
14926KSTC STC20060607083009306/07/06 08:30:31  5-MIN KSTC 071430Z VRB05KT 10SM CLR 24/15 A3003 920 57 2200 VRB/05 RMK AO2
14926KSTC STC20060607083509306/07/06 08:35:31  5-MIN KSTC 071435Z 01006KT 10SM CLR 24/15 A3003 920 55 2300 010/06 RMK AO2
14926KSTC STC20060607084009306/07/06 08:40:31  5-MIN KSTC 071440Z VRB05KT 10SM CLR 24/14 A3003 920 53 2300 VRB/05 RMK AO2
14926KSTC STC20060607084509306/07/06 08:45:31  5-MIN KSTC 071445Z 01005KT 10SM CLR 24/15 A3003 920 55 2300 010/05 RMK AO2
14926KSTC STC20060607085011606/07/06 08:50:31  5-MIN KSTC 071450Z 33007KT 10SM CLR 24/14 A3003 920 51 2300 330/07 RMK AO2 SLP173 T02440139 51023
14926KSTC STC20060607085509306/07/06 08:55:31  5-MIN KSTC 071455Z 01006KT 10SM CLR 24/13 A3003 920 49 2300 360/06 RMK AO2
14926KSTC STC20060607090009306/07/06 09:00:31  5-MIN KSTC 071500Z 35005KT 10SM CLR 25/14 A3003 920 49 2300 350/05 RMK AO2
14926KSTC STC20060607090509306/07/06 09:05:31  5-MIN KSTC 071505Z 34005KT 10SM CLR 25/13 A3003 920 48 2300 340/05 RMK AO2
14926KSTC STC20060607091009306/07/06 09:10:31  5-MIN KSTC 071510Z 01004KT 10SM CLR 25/14 A3003 920 49 2300 010/04 RMK AO2
14926KSTC STC20060607091509306/07/06 09:15:31  5-MIN KSTC 071515Z 35005KT 10SM CLR 26/14 A3003 920 48 2400 350/05 RMK AO2
14926KSTC STC20060607092009306/07/06 09:20:31  5-MIN KSTC 071520Z VRB04KT 10SM CLR 25/14 A3003 920 49 2300 VRB/04 RMK AO2
14926KSTC STC20060607092509306/07/06 09:25:31  5-MIN KSTC 071525Z 01007KT 10SM CLR 26/13 A3003 920 46 2400 360/07 RMK AO2
14926KSTC STC20060607093009306/07/06 09:30:31  5-MIN KSTC 071530Z VRB05KT 10SM CLR 26/13 A3003 920 46 2400 VRB/05 RMK AO2
14926KSTC STC20060607093509306/07/06 09:35:31  5-MIN KSTC 071535Z 36006KT 10SM CLR 26/13 A3003 920 44 2500 360/06 RMK AO2
14926KSTC STC20060607094009306/07/06 09:40:31  5-MIN KSTC 071540Z VRB05KT 10SM CLR 26/13 A3003 920 44 2500 VRB/05 RMK AO2
14926KSTC STC20060607094509306/07/06 09:45:31  5-MIN KSTC 071545Z 01005KT 10SM CLR 26/13 A3003 920 44 2500 010/05 RMK AO2
14926KSTC STC20060607095011006/07/06 09:50:31  5-MIN KSTC 071550Z 35004KT 10SM CLR 26/13 A3003 920 43 2500 340/04 RMK AO2 SLP172 T02610128
14926KSTC STC20060607095509306/07/06 09:55:31  5-MIN KSTC 071555Z VRB04KT 10SM CLR 26/13 A3003 920 44 2500 VRB/04 RMK AO2
14926KSTC STC20060607100009306/07/06 10:00:31  5-MIN KSTC 071600Z 01007KT 10SM CLR 26/13 A3003 920 44 2500 010/07 RMK AO2
14926KSTC STC20060607100509306/07/06 10:05:31  5-MIN KSTC 071605Z 01007KT 10SM CLR 26/13 A3003 920 43 2500 010/07 RMK AO2
14926KSTC STC20060607101009306/07/06 10:10:31  5-MIN KSTC 071610Z 01009KT 10SM CLR 26/13 A3003 920 43 2500 010/09 RMK AO2
14926KSTC STC20060607101509306/07/06 10:15:31  5-MIN KSTC 071615Z 33008KT 10SM CLR 26/13 A3004 920 43 2500 330/08 RMK AO2
14926KSTC STC20060607102009306/07/06 10:20:31  5-MIN KSTC 071620Z VRB04KT 10SM CLR 27/13 A3003 920 41 2500 VRB/04 RMK AO2
14926KSTC STC20060607102509306/07/06 10:25:31  5-MIN KSTC 071625Z 36007KT 10SM CLR 27/13 A3003 920 42 2600 360/07 RMK AO2
14926KSTC STC20060607103009306/07/06 10:30:31  5-MIN KSTC 071630Z 01004KT 10SM CLR 27/12 A3003 920 40 2500 010/04 RMK AO2
14926KSTC STC20060607103509306/07/06 10:35:31  5-MIN KSTC 071635Z 36006KT 10SM CLR 27/12 A3003 920 40 2500 360/06 RMK AO2
14926KSTC STC20060607104009306/07/06 10:40:31  5-MIN KSTC 071640Z 35005KT 10SM CLR 27/12 A3003 920 40 2500 340/05 RMK AO2
14926KSTC STC20060607104509306/07/06 10:45:31  5-MIN KSTC 071645Z 36004KT 10SM CLR 27/12 A3003 920 40 2500 360/04 RMK AO2
14926KSTC STC20060607105011006/07/06 10:50:31  5-MIN KSTC 071650Z VRB03KT 10SM CLR 27/13 A3003 920 41 2500 VRB/03 RMK AO2 SLP173 T02670128
14926KSTC STC20060607105509306/07/06 10:55:31  5-MIN KSTC 071655Z 36006KT 10SM CLR 27/13 A3003 920 41 2500 360/06 RMK AO2
14926KSTC STC20060607110009306/07/06 11:00:31  5-MIN KSTC 071700Z VRB04KT 10SM CLR 27/12 A3003 920 40 2500 VRB/04 RMK AO2
14926KSTC STC20060607110509306/07/06 11:05:31  5-MIN KSTC 071705Z VRB04KT 10SM CLR 27/13 A3003 920 40 2600 VRB/04 RMK AO2
14926KSTC STC20060607111009306/07/06 11:10:31  5-MIN KSTC 071710Z 34007KT 10SM CLR 27/13 A3003 920 42 2600 340/07 RMK AO2
14926KSTC STC20060607111509306/07/06 11:15:31  5-MIN KSTC 071715Z VRB03KT 10SM CLR 27/13 A3003 920 40 2600 VRB/03 RMK AO2
14926KSTC STC20060607112009306/07/06 11:20:31  5-MIN KSTC 071720Z 00000KT 10SM CLR 27/13 A3003 920 41 2500 000/00 RMK AO2
14926KSTC STC20060607112509306/07/06 11:25:31  5-MIN KSTC 071725Z 31006KT 10SM CLR 27/13 A3003 930 42 2600 310/06 RMK AO2
14926KSTC STC20060607113009306/07/06 11:30:31  5-MIN KSTC 071730Z 00000KT 10SM CLR 27/13 A3003 930 40 2600 000/00 RMK AO2
14926KSTC STC20060607113509306/07/06 11:35:31  5-MIN KSTC 071735Z 04006KT 10SM CLR 28/13 A3002 930 40 2600 030/06 RMK AO2
14926KSTC STC20060607114009306/07/06 11:40:31  5-MIN KSTC 071740Z VRB03KT 10SM CLR 27/13 A3002 930 40 2600 VRB/03 RMK AO2
14926KSTC STC20060607114509306/07/06 11:45:31  5-MIN KSTC 071745Z VRB03KT 10SM CLR 28/12 A3002 930 37 2700 VRB/03 RMK AO2
14926KSTC STC20060607115012806/07/06 11:50:31  5-MIN KSTC 071750Z 35005KT 10SM CLR 28/13 A3002 930 37 2700 350/05 RMK AO2 SLP169 T02830128 10283 20167 51010
14926KSTC STC20060607115509306/07/06 11:55:31  5-MIN KSTC 071755Z 33006KT 10SM CLR 28/13 A3002 940 37 2700 320/06 RMK AO2
14926KSTC STC20060607120009306/07/06 12:00:31  5-MIN KSTC 071800Z 35007KT 10SM CLR 28/12 A3002 940 36 2700 340/07 RMK AO2
14926KSTC STC20060607120509306/07/06 12:05:31  5-MIN KSTC 071805Z 36006KT 10SM CLR 28/12 A3002 940 37 2700 350/06 RMK AO2
14926KSTC STC20060607121009306/07/06 12:10:31  5-MIN KSTC 071810Z VRB04KT 10SM CLR 27/12 A3002 940 39 2600 VRB/04 RMK AO2
14926KSTC STC20060607121509306/07/06 12:15:31  5-MIN KSTC 071815Z VRB03KT 10SM CLR 28/12 A3002 940 37 2700 VRB/03 RMK AO2
14926KSTC STC20060607122009306/07/06 12:20:31  5-MIN KSTC 071820Z VRB03KT 10SM CLR 28/12 A3002 940 37 2700 VRB/03 RMK AO2
14926KSTC STC20060607122509306/07/06 12:25:31  5-MIN KSTC 071825Z 34005KT 10SM CLR 28/13 A3002 940 37 2700 340/05 RMK AO2
14926KSTC STC20060607123009306/07/06 12:30:31  5-MIN KSTC 071830Z VRB04KT 10SM CLR 28/13 A3002 940 37 2700 VRB/04 RMK AO2
14926KSTC STC20060607123509306/07/06 12:35:31  5-MIN KSTC 071835Z VRB05KT 10SM CLR 29/13 A3001 940 36 2800 VRB/05 RMK AO2
14926KSTC STC20060607124009306/07/06 12:40:31  5-MIN KSTC 071840Z VRB04KT 10SM CLR 28/12 A3001 940 36 2700 VRB/04 RMK AO2
14926KSTC STC20060607124509306/07/06 12:45:31  5-MIN KSTC 071845Z 27008KT 10SM CLR 28/12 A3001 940 35 2700 270/08 RMK AO2
14926KSTC STC20060607125011006/07/06 12:50:31  5-MIN KSTC 071850Z 31005KT 10SM CLR 28/12 A3001 940 35 2700 310/05 RMK AO2 SLP167 T02830117
14926KSTC STC20060607125509306/07/06 12:55:31  5-MIN KSTC 071855Z 33006KT 10SM CLR 29/12 A3001 940 34 2800 330/06 RMK AO2
14926KSTC STC20060607130009306/07/06 13:00:31  5-MIN KSTC 071900Z 27003KT 10SM CLR 28/12 A3001 940 35 2700 260/03 RMK AO2
14926KSTC STC20060607130509306/07/06 13:05:31  5-MIN KSTC 071905Z 29005KT 10SM CLR 29/12 A3001 950 35 2800 290/05 RMK AO2
14926KSTC STC20060607131009306/07/06 13:10:31  5-MIN KSTC 071910Z 31005KT 10SM CLR 29/12 A3001 950 34 2800 300/05 RMK AO2
14926KSTC STC20060607131509306/07/06 13:15:31  5-MIN KSTC 071915Z VRB05KT 10SM CLR 29/12 A3000 950 34 2800 VRB/05 RMK AO2
14926KSTC STC20060607132010906/07/06 13:20:31  5-MIN KSTC 071920Z 30007KT 240V330 10SM CLR 29/12 A3000 950 35 2800 300/07 240V330 RMK AO2
14926KSTC STC20060607132509306/07/06 13:25:31  5-MIN KSTC 071925Z 00000KT 10SM CLR 29/12 A3000 950 34 2800 000/00 RMK AO2
14926KSTC STC20060607133009306/07/06 13:30:31  5-MIN KSTC 071930Z VRB05KT 10SM CLR 29/12 A3000 950 34 2900 VRB/05 RMK AO2
14926KSTC STC20060607133509306/07/06 13:35:31  5-MIN KSTC 071935Z VRB06KT 10SM CLR 29/12 A3000 950 35 2800 VRB/06 RMK AO2
14926KSTC STC20060607134009306/07/06 13:40:31  5-MIN KSTC 071940Z 04004KT 10SM CLR 29/12 A3000 950 34 2900 030/04 RMK AO2
14926KSTC STC20060607134509306/07/06 13:45:31  5-MIN KSTC 071945Z VRB04KT 10SM CLR 28/12 A3000 950 35 2700 VRB/04 RMK AO2
14926KSTC STC20060607135011006/07/06 13:50:31  5-MIN KSTC 071950Z 26005KT 10SM CLR 29/12 A3000 950 34 2800 260/05 RMK AO2 SLP161 T02890117
14926KSTC STC20060607135509306/07/06 13:55:31  5-MIN KSTC 071955Z VRB04KT 10SM CLR 29/12 A3000 960 34 2900 VRB/04 RMK AO2
14926KSTC STC20060607140009306/07/06 14:00:31  5-MIN KSTC 072000Z 34006KT 10SM CLR 30/12 A3000 960 33 2900 340/06 RMK AO2
14926KSTC STC20060607140509306/07/06 14:05:31  5-MIN KSTC 072005Z 34005KT 10SM CLR 29/12 A2999 960 34 2900 340/05 RMK AO2
14926KSTC STC20060607141009306/07/06 14:10:31  5-MIN KSTC 072010Z VRB04KT 10SM CLR 29/12 A2999 960 34 2900 VRB/04 RMK AO2
14926KSTC STC20060607141509306/07/06 14:15:31  5-MIN KSTC 072015Z 27006KT 10SM CLR 29/12 A2999 960 34 2800 270/06 RMK AO2
14926KSTC STC20060607142009306/07/06 14:20:31  5-MIN KSTC 072020Z 32010KT 10SM CLR 29/12 A2999 960 33 2900 320/10 RMK AO2
14926KSTC STC20060607142509306/07/06 14:25:31  5-MIN KSTC 072025Z 31011KT 10SM CLR 29/12 A2999 960 33 2900 310/11 RMK AO2
14926KSTC STC20060607143009306/07/06 14:30:31  5-MIN KSTC 072030Z 31006KT 10SM CLR 29/12 A2999 960 33 2900 310/06 RMK AO2
14926KSTC STC20060607143509306/07/06 14:35:31  5-MIN KSTC 072035Z 30009KT 10SM CLR 29/12 A2999 970 33 2900 300/09 RMK AO2
14926KSTC STC20060607144009306/07/06 14:40:31  5-MIN KSTC 072040Z 27006KT 10SM CLR 29/12 A2998 970 33 2900 270/06 RMK AO2
14926KSTC STC20060607144509306/07/06 14:45:31  5-MIN KSTC 072045Z VRB04KT 10SM CLR 29/12 A2999 970 34 2900 VRB/04 RMK AO2
14926KSTC STC20060607145011606/07/06 14:50:31  5-MIN KSTC 072050Z 32006KT 10SM CLR 29/12 A2998 970 34 2900 320/06 RMK AO2 SLP157 T02940122 58004
14926KSTC STC20060607145509306/07/06 14:55:31  5-MIN KSTC 072055Z 05003KT 10SM CLR 30/12 A2998 970 31 2900 050/03 RMK AO2
14926KSTC STC20060607150009306/07/06 15:00:31  5-MIN KSTC 072100Z 32006KT 10SM CLR 30/12 A2998 970 33 2900 310/06 RMK AO2
14926KSTC STC20060607150509806/07/06 15:05:31  5-MIN KSTC 072105Z AUTO 00000KT 10SM CLR 29/11 A2998 970 31 2900 000/00 RMK AO2
14926KSTC STC20060607151010106/07/06 15:10:31  5-MIN KSTC 072110Z AUTO 00000KT 10SM FEW075 29/12 A2999 970 33 2900 000/00 RMK AO2
14926KSTC STC20060607151510106/07/06 15:15:31  5-MIN KSTC 072115Z AUTO 25003KT 10SM FEW075 29/12 A2999 970 34 2900 240/03 RMK AO2
14926KSTC STC20060607152010106/07/06 15:20:31  5-MIN KSTC 072120Z AUTO 31007KT 10SM SCT075 29/12 A2998 970 34 2900 300/07 RMK AO2
14926KSTC STC20060607152510106/07/06 15:25:31  5-MIN KSTC 072125Z AUTO 32005KT 10SM SCT075 30/12 A2998 970 33 2900 320/05 RMK AO2
14926KSTC STC20060607153010106/07/06 15:30:31  5-MIN KSTC 072130Z AUTO 00000KT 10SM SCT080 29/12 A2998 970 33 2900 000/00 RMK AO2
14926KSTC STC20060607153510106/07/06 15:35:31  5-MIN KSTC 072135Z AUTO 35004KT 10SM SCT080 30/12 A2998 970 33 2900 350/04 RMK AO2
14926KSTC STC20060607154010106/07/06 15:40:31  5-MIN KSTC 072140Z AUTO 01005KT 10SM SCT075 30/13 A2998 970 34 2900 360/05 RMK AO2
14926KSTC STC20060607154510106/07/06 15:45:31  5-MIN KSTC 072145Z AUTO 33006KT 10SM SCT080 29/12 A2998 970 34 2800 330/06 RMK AO2
14926KSTC STC20060607155011306/07/06 15:50:31  5-MIN KSTC 072150Z 35003KT 10SM SCT080 29/12 A2998 970 35 2800 340/03 RMK AO2 SLP155 T02890122
14926KSTC STC20060607155509606/07/06 15:55:31  5-MIN KSTC 072155Z 00000KT 10SM BKN080 29/13 A2998 970 36 2800 000/00 RMK AO2
14926KSTC STC20060607160009606/07/06 16:00:31  5-MIN KSTC 072200Z 02003KT 10SM BKN080 29/12 A2998 970 35 2800 010/03 RMK AO2
14926KSTC STC20060607160509606/07/06 16:05:31  5-MIN KSTC 072205Z 00000KT 10SM BKN075 29/13 A2998 970 36 2800 000/00 RMK AO2
14926KSTC STC20060607161009606/07/06 16:10:31  5-MIN KSTC 072210Z 00000KT 10SM BKN080 29/12 A2998 970 35 2800 000/00 RMK AO2
14926KSTC STC20060607161509606/07/06 16:15:31  5-MIN KSTC 072215Z 00000KT 10SM BKN080 29/12 A2998 970 34 2800 000/00 RMK AO2
14926KSTC STC20060607162010306/07/06 16:20:31  5-MIN KSTC 072220Z 00000KT 10SM BKN080 BKN090 29/12 A2998 970 33 2900 000/00 RMK AO2
14926KSTC STC20060607162510306/07/06 16:25:31  5-MIN KSTC 072225Z 00000KT 10SM BKN080 BKN090 29/13 A2998 970 35 2900 000/00 RMK AO2
14926KSTC STC20060607163009606/07/06 16:30:31  5-MIN KSTC 072230Z 29004KT 10SM BKN080 29/12 A2998 970 35 2800 290/04 RMK AO2
14926KSTC STC20060607163509606/07/06 16:35:31  5-MIN KSTC 072235Z 29004KT 10SM BKN080 29/13 A2998 970 36 2800 290/04 RMK AO2
14926KSTC STC20060607164010306/07/06 16:40:31  5-MIN KSTC 072240Z 27003KT 10SM BKN075 BKN090 29/13 A2998 970 35 2900 270/03 RMK AO2
14926KSTC STC20060607164509606/07/06 16:45:31  5-MIN KSTC 072245Z 26003KT 10SM BKN080 29/13 A2998 970 36 2800 250/03 RMK AO2
14926KSTC STC20060607165011306/07/06 16:50:31  5-MIN KSTC 072250Z 28005KT 10SM BKN080 29/13 A2998 970 36 2800 280/05 RMK AO2 SLP154 T02890128
14926KSTC STC20060607165510306/07/06 16:55:31  5-MIN KSTC 072255Z 32005KT 10SM BKN080 BKN090 28/13 A2998 980 39 2800 310/05 RMK AO2
14926KSTC STC20060607170010306/07/06 17:00:31  5-MIN KSTC 072300Z 32004KT 10SM BKN080 BKN090 28/14 A2997 980 40 2800 320/04 RMK AO2
14926KSTC STC20060607170509606/07/06 17:05:31  5-MIN KSTC 072305Z 00000KT 10SM BKN080 29/14 A2997 980 39 2800 000/00 RMK AO2
14926KSTC STC20060607171009606/07/06 17:10:31  5-MIN KSTC 072310Z 29003KT 10SM BKN080 28/13 A2997 980 39 2800 290/03 RMK AO2
14926KSTC STC20060607171510306/07/06 17:15:31  5-MIN KSTC 072315Z 32004KT 10SM BKN080 BKN090 29/13 A2997 980 36 2800 320/04 RMK AO2
14926KSTC STC20060607172010306/07/06 17:20:31  5-MIN KSTC 072320Z 00000KT 10SM BKN080 BKN090 29/12 A2996 990 35 2800 000/00 RMK AO2
14926KSTC STC20060607172510306/07/06 17:25:31  5-MIN KSTC 072325Z 00000KT 10SM BKN080 BKN090 29/13 A2997 980 35 2900 000/00 RMK AO2
14926KSTC STC20060607173010306/07/06 17:30:31  5-MIN KSTC 072330Z 00000KT 10SM BKN080 BKN095 29/13 A2996 990 35 2900 000/00 RMK AO2
14926KSTC STC20060607173510306/07/06 17:35:31  5-MIN KSTC 072335Z 35003KT 10SM BKN075 BKN090 30/13 A2996 990 34 3000 340/03 RMK AO2
14926KSTC STC20060607174009606/07/06 17:40:31  5-MIN KSTC 072340Z 00000KT 10SM BKN080 30/13 A2996 990 34 3000 000/00 RMK AO2
14926KSTC STC20060607174509606/07/06 17:45:31  5-MIN KSTC 072345Z 00000KT 10SM SCT080 29/13 A2996 990 36 2900 000/00 RMK AO2
14926KSTC STC20060607175013106/07/06 17:50:31  5-MIN KSTC 072350Z VRB04KT 10SM SCT080 29/13 A2996 990 36 2900 VRB/04 RMK AO2 SLP150 T02940133 10306 20272 58012
14926KSTC STC20060607175509606/07/06 17:55:31  5-MIN KSTC 072355Z 35005KT 10SM SCT075 29/13 A2996 990 36 2900 340/05 RMK AO2
14926KSTC STC20060607180009606/07/06 18:00:31  5-MIN KSTC 080000Z 35004KT 10SM FEW075 29/13 A2997 990 36 2900 340/04 RMK AO2
14926KSTC STC20060607180509606/07/06 18:05:31  5-MIN KSTC 080005Z 32008KT 10SM FEW080 29/13 A2997 980 35 2900 310/08 RMK AO2
14926KSTC STC20060607181009606/07/06 18:10:31  5-MIN KSTC 080010Z 32006KT 10SM FEW080 29/11 A2996 990 32 2800 320/06 RMK AO2
14926KSTC STC20060607181509606/07/06 18:15:31  5-MIN KSTC 080015Z 32005KT 10SM FEW080 28/12 A2997 980 35 2800 310/05 RMK AO2
14926KSTC STC20060607182009306/07/06 18:20:31  5-MIN KSTC 080020Z 32004KT 10SM CLR 28/13 A2997 980 37 2800 320/04 RMK AO2
14926KSTC STC20060607182509306/07/06 18:25:31  5-MIN KSTC 080025Z 33004KT 10SM CLR 28/13 A2997 980 37 2800 320/04 RMK AO2
14926KSTC STC20060607183009306/07/06 18:30:31  5-MIN KSTC 080030Z 34006KT 10SM CLR 28/13 A2997 980 39 2800 330/06 RMK AO2
14926KSTC STC20060607183509306/07/06 18:35:31  5-MIN KSTC 080035Z 31006KT 10SM CLR 28/13 A2997 980 39 2800 310/06 RMK AO2
14926KSTC STC20060607184009306/07/06 18:40:31  5-MIN KSTC 080040Z 31009KT 10SM CLR 28/14 A2997 980 42 2700 310/09 RMK AO2
14926KSTC STC20060607184509306/07/06 18:45:31  5-MIN KSTC 080045Z 32008KT 10SM CLR 27/14 A2997 980 43 2600 310/08 RMK AO2
14926KSTC STC20060607185011006/07/06 18:50:31  5-MIN KSTC 080050Z 32007KT 10SM CLR 27/13 A2998 970 42 2600 320/07 RMK AO2 SLP153 T02720133
14926KSTC STC20060607185509306/07/06 18:55:31  5-MIN KSTC 080055Z 32007KT 10SM CLR 27/13 A2998 970 42 2600 320/07 RMK AO2
14926KSTC STC20060607190009306/07/06 19:00:31  5-MIN KSTC 080100Z 33006KT 10SM CLR 27/13 A2998 970 42 2600 330/06 RMK AO2
14926KSTC STC20060607190509306/07/06 19:05:31  5-MIN KSTC 080105Z 33007KT 10SM CLR 27/13 A2998 970 43 2600 330/07 RMK AO2
14926KSTC STC20060607191009306/07/06 19:10:31  5-MIN KSTC 080110Z 32008KT 10SM CLR 27/13 A2999 970 41 2600 320/08 RMK AO2
14926KSTC STC20060607191509306/07/06 19:15:31  5-MIN KSTC 080115Z 32008KT 10SM CLR 26/13 A2999 960 43 2500 320/08 RMK AO2
14926KSTC STC20060607192009306/07/06 19:20:31  5-MIN KSTC 080120Z 31006KT 10SM CLR 26/13 A2999 960 46 2400 310/06 RMK AO2
14926KSTC STC20060607192509306/07/06 19:25:31  5-MIN KSTC 080125Z 31006KT 10SM CLR 24/14 A2999 960 53 2300 310/06 RMK AO2
14926KSTC STC20060607193009306/07/06 19:30:31  5-MIN KSTC 080130Z 31007KT 10SM CLR 24/14 A2999 960 53 2300 310/07 RMK AO2
14926KSTC STC20060607193509306/07/06 19:35:31  5-MIN KSTC 080135Z 31007KT 10SM CLR 24/14 A2999 960 55 2300 310/07 RMK AO2
14926KSTC STC20060607194009306/07/06 19:40:31  5-MIN KSTC 080140Z 32008KT 10SM CLR 24/14 A2999 960 53 2300 310/08 RMK AO2
14926KSTC STC20060607194509306/07/06 19:45:31  5-MIN KSTC 080145Z 32008KT 10SM CLR 24/14 A2999 960 53 2200 310/08 RMK AO2
14926KSTC STC20060607195011006/07/06 19:50:31  5-MIN KSTC 080150Z 32008KT 10SM CLR 24/13 A2999 960 49 2300 320/08 RMK AO2 SLP159 T02440133
14926KSTC STC20060607195509306/07/06 19:55:31  5-MIN KSTC 080155Z 33006KT 10SM CLR 24/13 A2999 960 49 2300 320/06 RMK AO2
14926KSTC STC20060607200009306/07/06 20:00:31  5-MIN KSTC 080200Z 33006KT 10SM CLR 24/13 A2999 960 49 2300 330/06 RMK AO2
14926KSTC STC20060607200509306/07/06 20:05:31  5-MIN KSTC 080205Z 33005KT 10SM CLR 24/13 A2999 960 49 2300 330/05 RMK AO2
14926KSTC STC20060607201009306/07/06 20:10:31  5-MIN KSTC 080210Z 33006KT 10SM CLR 24/13 A2999 960 49 2300 330/06 RMK AO2
14926KSTC STC20060607201509306/07/06 20:15:31  5-MIN KSTC 080215Z 33006KT 10SM CLR 24/14 A2999 960 53 2300 330/06 RMK AO2
14926KSTC STC20060607202009306/07/06 20:20:31  5-MIN KSTC 080220Z 33006KT 10SM CLR 24/14 A2999 960 53 2200 330/06 RMK AO2
14926KSTC STC20060607202509306/07/06 20:25:31  5-MIN KSTC 080225Z 33005KT 10SM CLR 23/14 A2999 960 55 2200 330/05 RMK AO2
14926KSTC STC20060607203009306/07/06 20:30:31  5-MIN KSTC 080230Z 33005KT 10SM CLR 23/14 A2999 960 55 2200 330/05 RMK AO2
14926KSTC STC20060607203509306/07/06 20:35:31  5-MIN KSTC 080235Z 34005KT 10SM CLR 23/14 A3000 960 55 2200 330/05 RMK AO2
14926KSTC STC20060607204009306/07/06 20:40:31  5-MIN KSTC 080240Z 35005KT 10SM CLR 23/14 A3000 960 59 2100 350/05 RMK AO2
14926KSTC STC20060607204509306/07/06 20:45:31  5-MIN KSTC 080245Z 35006KT 10SM CLR 23/14 A3000 950 59 2100 340/06 RMK AO2
14926KSTC STC20060607205011606/07/06 20:50:31  5-MIN KSTC 080250Z 35005KT 10SM CLR 23/14 A3000 950 59 2100 340/05 RMK AO2 SLP161 T02280144 58006
14926KSTC STC20060607205509306/07/06 20:55:31  5-MIN KSTC 080255Z 34006KT 10SM CLR 23/14 A3000 950 59 2100 340/06 RMK AO2
14926KSTC STC20060607210009306/07/06 21:00:31  5-MIN KSTC 080300Z 35007KT 10SM CLR 23/14 A3000 950 59 2100 340/07 RMK AO2
14926KSTC STC20060607210509306/07/06 21:05:31  5-MIN KSTC 080305Z 35007KT 10SM CLR 23/14 A3001 950 59 2100 350/07 RMK AO2
14926KSTC STC20060607211009306/07/06 21:10:31  5-MIN KSTC 080310Z 35007KT 10SM CLR 23/14 A3001 950 59 2100 350/07 RMK AO2
14926KSTC STC20060607211509306/07/06 21:15:31  5-MIN KSTC 080315Z 36008KT 10SM CLR 23/14 A3001 940 59 2100 360/08 RMK AO2
14926KSTC STC20060607212009306/07/06 21:20:31  5-MIN KSTC 080320Z 36007KT 10SM CLR 23/14 A3001 940 59 2100 350/07 RMK AO2
14926KSTC STC20060607212509306/07/06 21:25:31  5-MIN KSTC 080325Z 36007KT 10SM CLR 23/15 A3002 940 61 2100 360/07 RMK AO2
14926KSTC STC20060607213009306/07/06 21:30:31  5-MIN KSTC 080330Z 01007KT 10SM CLR 22/15 A3002 940 63 2000 360/07 RMK AO2
14926KSTC STC20060607213509306/07/06 21:35:31  5-MIN KSTC 080335Z 36006KT 10SM CLR 22/15 A3002 930 63 2000 360/06 RMK AO2
14926KSTC STC20060607214009306/07/06 21:40:31  5-MIN KSTC 080340Z 35005KT 10SM CLR 22/15 A3002 930 65 2000 350/05 RMK AO2
14926KSTC STC20060607214509306/07/06 21:45:31  5-MIN KSTC 080345Z 36005KT 10SM CLR 22/15 A3003 930 65 2000 350/05 RMK AO2
14926KSTC STC20060607215011506/07/06 21:50:31  5-MIN KSTC 080350Z AUTO 36007KT 10SM CLR 22/14 A3003 930 63 2000 360/07 RMK AO2 SLP170 T02170144
14926KSTC STC20060607215509806/07/06 21:55:31  5-MIN KSTC 080355Z AUTO 36007KT 10SM CLR 22/14 A3003 930 63 2000 360/07 RMK AO2
14926KSTC STC20060607220009806/07/06 22:00:31  5-MIN KSTC 080400Z AUTO 36006KT 10SM CLR 22/14 A3003 920 61 2000 360/06 RMK AO2
14926KSTC STC20060607220509806/07/06 22:05:31  5-MIN KSTC 080405Z AUTO 36005KT 10SM CLR 22/14 A3004 920 61 1900 360/05 RMK AO2
14926KSTC STC20060607221009806/07/06 22:10:31  5-MIN KSTC 080410Z AUTO 35005KT 10SM CLR 21/14 A3004 920 63 1900 350/05 RMK AO2
14926KSTC STC20060607221509806/07/06 22:15:31  5-MIN KSTC 080415Z AUTO 35005KT 10SM CLR 21/14 A3004 920 63 1900 350/05 RMK AO2
14926KSTC STC20060607222009806/07/06 22:20:31  5-MIN KSTC 080420Z AUTO 35006KT 10SM CLR 21/14 A3004 920 63 1900 350/06 RMK AO2
14926KSTC STC20060607222509806/07/06 22:25:31  5-MIN KSTC 080425Z AUTO 35006KT 10SM CLR 21/14 A3004 920 63 1900 350/06 RMK AO2
14926KSTC STC20060607223009806/07/06 22:30:31  5-MIN KSTC 080430Z AUTO 35007KT 10SM CLR 21/13 A3004 920 61 1900 350/07 RMK AO2
14926KSTC STC20060607223509806/07/06 22:35:31  5-MIN KSTC 080435Z AUTO 36008KT 10SM CLR 21/13 A3004 910 61 1900 350/08 RMK AO2
14926KSTC STC20060607224009806/07/06 22:40:31  5-MIN KSTC 080440Z AUTO 35011KT 10SM CLR 21/13 A3005 910 58 1900 350/11 RMK AO2
14926KSTC STC20060607224509806/07/06 22:45:31  5-MIN KSTC 080445Z AUTO 35010KT 10SM CLR 21/13 A3005 910 58 1900 350/10 RMK AO2
14926KSTC STC20060607225011506/07/06 22:50:31  5-MIN KSTC 080450Z AUTO 35008KT 10SM CLR 21/13 A3005 910 60 1800 350/08 RMK AO2 SLP178 T02060128
14926KSTC STC20060607225509806/07/06 22:55:31  5-MIN KSTC 080455Z AUTO 36009KT 10SM CLR 21/13 A3005 910 60 1800 350/09 RMK AO2
14926KSTC STC20060607230009806/07/06 23:00:31  5-MIN KSTC 080500Z AUTO 36008KT 10SM CLR 21/12 A3005 910 58 1800 360/08 RMK AO2
14926KSTC STC20060607230509806/07/06 23:05:31  5-MIN KSTC 080505Z AUTO 36008KT 10SM CLR 21/12 A3005 910 56 1800 360/08 RMK AO2
14926KSTC STC20060607231009806/07/06 23:10:31  5-MIN KSTC 080510Z AUTO 36008KT 10SM CLR 20/12 A3005 910 58 1700 360/08 RMK AO2
14926KSTC STC20060607231509806/07/06 23:15:31  5-MIN KSTC 080515Z AUTO 36008KT 10SM CLR 20/12 A3005 900 58 1700 350/08 RMK AO2
14926KSTC STC20060607232009806/07/06 23:20:31  5-MIN KSTC 080520Z AUTO 36006KT 10SM CLR 20/12 A3005 900 58 1700 350/06 RMK AO2
14926KSTC STC20060607232509806/07/06 23:25:31  5-MIN KSTC 080525Z AUTO 36006KT 10SM CLR 19/12 A3005 900 60 1700 360/06 RMK AO2
14926KSTC STC20060607233009806/07/06 23:30:31  5-MIN KSTC 080530Z AUTO 36007KT 10SM CLR 19/12 A3006 900 60 1700 360/07 RMK AO2
14926KSTC STC20060607233509806/07/06 23:35:31  5-MIN KSTC 080535Z AUTO 36007KT 10SM CLR 19/12 A3006 900 60 1700 360/07 RMK AO2
14926KSTC STC20060607234009806/07/06 23:40:31  5-MIN KSTC 080540Z AUTO 36006KT 10SM CLR 19/12 A3006 900 62 1600 360/06 RMK AO2
14926KSTC STC20060607234509806/07/06 23:45:31  5-MIN KSTC 080545Z AUTO 36006KT 10SM CLR 19/12 A3006 900 62 1600 360/06 RMK AO2
14926KSTC STC20060607235014306/07/06 23:50:31  5-MIN KSTC 080550Z AUTO 36007KT 10SM CLR 19/11 A3006 900 60 1600 360/07 RMK AO2 SLP181 T01890111 10294 20189 403060150 51012
14926KSTC STC20060607235509806/07/06 23:55:31  5-MIN KSTC 080555Z AUTO 36006KT 10SM CLR 19/11 A3006 900 60 1600 360/06 RMK AO2
14926KSTC STC20060608000009806/08/06 00:00:32  5-MIN KSTC 080600Z AUTO 36006KT 10SM CLR 19/11 A3006 900 60 1600 360/06 RMK AO2
14926KSTC STC20060608000509806/08/06 00:05:31  5-MIN KSTC 080605Z AUTO 36006KT 10SM CLR 18/11 A3006 900 62 1500 360/06 RMK AO2
14926KSTC STC20060608001009806/08/06 00:10:31  5-MIN KSTC 080610Z AUTO 36005KT 10SM CLR 18/11 A3006 900 62 1500 350/05 RMK AO2
14926KSTC STC20060608001509806/08/06 00:15:31  5-MIN KSTC 080615Z AUTO 35004KT 10SM CLR 18/11 A3006 900 62 1500 350/04 RMK AO2
14926KSTC STC20060608002009806/08/06 00:20:31  5-MIN KSTC 080620Z AUTO 35003KT 10SM CLR 18/11 A3006 900 64 1500 350/03 RMK AO2
14926KSTC STC20060608002509806/08/06 00:25:31  5-MIN KSTC 080625Z AUTO 36003KT 10SM CLR 18/11 A3006 900 64 1500 360/03 RMK AO2
14926KSTC STC20060608003009806/08/06 00:30:31  5-MIN KSTC 080630Z AUTO 36003KT 10SM CLR 17/11 A3006 900 67 1400 360/03 RMK AO2
14926KSTC STC20060608003509806/08/06 00:35:31  5-MIN KSTC 080635Z AUTO 35004KT 10SM CLR 17/11 A3006 890 67 1400 350/04 RMK AO2
14926KSTC STC20060608004009806/08/06 00:40:31  5-MIN KSTC 080640Z AUTO 36005KT 10SM CLR 17/11 A3007 890 67 1400 360/05 RMK AO2
14926KSTC STC20060608004509806/08/06 00:45:31  5-MIN KSTC 080645Z AUTO 36005KT 10SM CLR 17/11 A3007 890 67 1400 360/05 RMK AO2
14926KSTC STC20060608005011506/08/06 00:50:31  5-MIN KSTC 080650Z AUTO 36005KT 10SM CLR 17/11 A3007 890 67 1400 360/05 RMK AO2 SLP186 T01720111
14926KSTC STC20060608005509806/08/06 00:55:31  5-MIN KSTC 080655Z AUTO 36005KT 10SM CLR 17/11 A3007 890 67 1400 360/05 RMK AO2
14926KSTC STC20060608010009806/08/06 01:00:31  5-MIN KSTC 080700Z AUTO 36005KT 10SM CLR 17/11 A3007 880 69 1300 350/05 RMK AO2
14926KSTC STC20060608010509806/08/06 01:05:31  5-MIN KSTC 080705Z AUTO 36007KT 10SM CLR 17/11 A3008 880 67 1400 350/07 RMK AO2
14926KSTC STC20060608011009806/08/06 01:10:31  5-MIN KSTC 080710Z AUTO 36007KT 10SM CLR 17/11 A3008 880 67 1400 350/07 RMK AO2
14926KSTC STC20060608011509806/08/06 01:15:31  5-MIN KSTC 080715Z AUTO 35007KT 10SM CLR 17/11 A3008 880 64 1400 350/07 RMK AO2
14926KSTC STC20060608012009806/08/06 01:20:31  5-MIN KSTC 080720Z AUTO 35007KT 10SM CLR 17/11 A3008 870 64 1400 350/07 RMK AO2
14926KSTC STC20060608012509806/08/06 01:25:31  5-MIN KSTC 080725Z AUTO 35007KT 10SM CLR 17/10 A3009 870 62 1400 350/07 RMK AO2
14926KSTC STC20060608013009806/08/06 01:30:31  5-MIN KSTC 080730Z AUTO 35007KT 10SM CLR 17/10 A3009 870 62 1400 350/07 RMK AO2
14926KSTC STC20060608013509806/08/06 01:35:31  5-MIN KSTC 080735Z AUTO 35007KT 10SM CLR 17/10 A3009 870 62 1400 350/07 RMK AO2
14926KSTC STC20060608014009806/08/06 01:40:31  5-MIN KSTC 080740Z AUTO 34006KT 10SM CLR 17/10 A3009 870 64 1300 340/06 RMK AO2
14926KSTC STC20060608014509806/08/06 01:45:31  5-MIN KSTC 080745Z AUTO 35007KT 10SM CLR 17/10 A3009 870 64 1300 350/07 RMK AO2
14926KSTC STC20060608015011506/08/06 01:50:31  5-MIN KSTC 080750Z AUTO 35007KT 10SM CLR 17/10 A3009 870 64 1300 340/07 RMK AO2 SLP194 T01670100
14926KSTC STC20060608015509806/08/06 01:55:31  5-MIN KSTC 080755Z AUTO 35007KT 10SM CLR 16/10 A3009 870 67 1200 350/07 RMK AO2
14926KSTC STC20060608020009806/08/06 02:00:31  5-MIN KSTC 080800Z AUTO 35006KT 10SM CLR 16/10 A3010 860 67 1200 340/06 RMK AO2
14926KSTC STC20060608020509806/08/06 02:05:31  5-MIN KSTC 080805Z AUTO 35007KT 10SM CLR 16/10 A3010 860 67 1200 350/07 RMK AO2
14926KSTC STC20060608021009806/08/06 02:10:31  5-MIN KSTC 080810Z AUTO 35006KT 10SM CLR 16/10 A3010 860 67 1200 350/06 RMK AO2
14926KSTC STC20060608021509806/08/06 02:15:31  5-MIN KSTC 080815Z AUTO 35007KT 10SM CLR 16/10 A3010 860 67 1200 350/07 RMK AO2
14926KSTC STC20060608022009806/08/06 02:20:31  5-MIN KSTC 080820Z AUTO 35006KT 10SM CLR 16/11 A3010 860 69 1200 350/06 RMK AO2
14926KSTC STC20060608022509806/08/06 02:25:31  5-MIN KSTC 080825Z AUTO 35007KT 10SM CLR 16/11 A3010 860 69 1200 340/07 RMK AO2
14926KSTC STC20060608023009806/08/06 02:30:31  5-MIN KSTC 080830Z AUTO 35005KT 10SM CLR 16/11 A3010 860 72 1200 350/05 RMK AO2
14926KSTC STC20060608023509806/08/06 02:35:31  5-MIN KSTC 080835Z AUTO 35007KT 10SM CLR 16/11 A3009 870 72 1200 350/07 RMK AO2
14926KSTC STC20060608024009806/08/06 02:40:31  5-MIN KSTC 080840Z AUTO 35006KT 10SM CLR 16/11 A3010 860 72 1200 350/06 RMK AO2
14926KSTC STC20060608024509806/08/06 02:45:31  5-MIN KSTC 080845Z AUTO 35006KT 10SM CLR 16/11 A3010 860 72 1200 350/06 RMK AO2
14926KSTC STC20060608025012106/08/06 02:50:31  5-MIN KSTC 080850Z AUTO 36005KT 10SM CLR 15/11 A3010 870 74 1100 350/05 RMK AO2 SLP194 T01500106 51019
14926KSTC STC20060608025509806/08/06 02:55:31  5-MIN KSTC 080855Z AUTO 36004KT 10SM CLR 15/11 A3010 860 74 1100 350/04 RMK AO2
14926KSTC STC20060608030009806/08/06 03:00:31  5-MIN KSTC 080900Z AUTO 01003KT 10SM CLR 15/11 A3009 870 74 1100 010/03 RMK AO2
14926KSTC STC20060608030509806/08/06 03:05:31  5-MIN KSTC 080905Z AUTO 01006KT 10SM CLR 15/10 A3009 870 72 1100 010/06 RMK AO2
14926KSTC STC20060608031009806/08/06 03:10:31  5-MIN KSTC 080910Z AUTO 36005KT 10SM CLR 15/10 A3009 870 72 1100 360/05 RMK AO2
14926KSTC STC20060608031509806/08/06 03:15:31  5-MIN KSTC 080915Z AUTO 36005KT 10SM CLR 15/10 A3010 860 72 1100 350/05 RMK AO2
14926KSTC STC20060608032009806/08/06 03:20:31  5-MIN KSTC 080920Z AUTO 35005KT 10SM CLR 15/10 A3010 860 72 1100 340/05 RMK AO2
14926KSTC STC20060608032509806/08/06 03:25:31  5-MIN KSTC 080925Z AUTO 34004KT 10SM CLR 15/10 A3010 860 72 1100 330/04 RMK AO2
14926KSTC STC20060608033009806/08/06 03:30:31  5-MIN KSTC 080930Z AUTO 34004KT 10SM CLR 14/10 A3011 860 74 1000 340/04 RMK AO2
14926KSTC STC20060608033509806/08/06 03:35:31  5-MIN KSTC 080935Z AUTO 35004KT 10SM CLR 14/10 A3011 850 74 1000 340/04 RMK AO2
14926KSTC STC20060608034009806/08/06 03:40:31  5-MIN KSTC 080940Z AUTO 35004KT 10SM CLR 14/10 A3011 850 74 1000 340/04 RMK AO2
14926KSTC STC20060608034509806/08/06 03:45:31  5-MIN KSTC 080945Z AUTO 35005KT 10SM CLR 14/10 A3011 850 74 1000 350/05 RMK AO2
14926KSTC STC20060608035011506/08/06 03:50:31  5-MIN KSTC 080950Z AUTO 35004KT 10SM CLR 14/10 A3011 850 74 1000 350/04 RMK AO2 SLP201 T01440100
14926KSTC STC20060608035509806/08/06 03:55:31  5-MIN KSTC 080955Z AUTO 35005KT 10SM CLR 14/10 A3011 850 77 1000 350/05 RMK AO2
14926KSTC STC20060608040009806/08/06 04:00:31  5-MIN KSTC 081000Z AUTO 35005KT 10SM CLR 14/10 A3012 850 77 1000 340/05 RMK AO2
14926KSTC STC20060608040509806/08/06 04:05:31  5-MIN KSTC 081005Z AUTO 35005KT 10SM CLR 14/10 A3012 850 77 1000 350/05 RMK AO2
14926KSTC STC20060608041009706/08/06 04:10:31  5-MIN KSTC 081010Z AUTO 35005KT 10SM CLR 14/10 A3012 840 77 900 350/05 RMK AO2
14926KSTC STC20060608041509706/08/06 04:15:31  5-MIN KSTC 081015Z AUTO 36005KT 10SM CLR 14/10 A3012 840 77 900 350/05 RMK AO2
14926KSTC STC20060608042009706/08/06 04:20:31  5-MIN KSTC 081020Z AUTO 35004KT 10SM CLR 14/10 A3013 840 77 900 350/04 RMK AO2
14926KSTC STC20060608042509706/08/06 04:25:31  5-MIN KSTC 081025Z AUTO 34005KT 10SM CLR 14/10 A3013 830 77 900 330/05 RMK AO2
14926KSTC STC20060608043009706/08/06 04:30:31  5-MIN KSTC 081030Z AUTO 34005KT 10SM CLR 14/10 A3013 830 77 900 330/05 RMK AO2
14926KSTC STC20060608043509706/08/06 04:35:31  5-MIN KSTC 081035Z AUTO 34005KT 10SM CLR 14/10 A3014 830 77 900 340/05 RMK AO2
14926KSTC STC20060608044009706/08/06 04:40:31  5-MIN KSTC 081040Z AUTO 35005KT 10SM CLR 14/09 A3014 820 74 900 340/05 RMK AO2
14926KSTC STC20060608044509706/08/06 04:45:31  5-MIN KSTC 081045Z AUTO 35004KT 10SM CLR 14/10 A3014 820 77 900 350/04 RMK AO2
14926KSTC STC20060608045011506/08/06 04:50:31  5-MIN KSTC 081050Z AUTO 35006KT 10SM CLR 14/09 A3015 820 72 1000 350/06 RMK AO2 SLP213 T01440094
14926KSTC STC20060608045509806/08/06 04:55:31  5-MIN KSTC 081055Z AUTO 34006KT 10SM CLR 14/09 A3015 820 72 1000 340/06 RMK AO2
14926KSTC STC20060608050009806/08/06 05:00:31  5-MIN KSTC 081100Z AUTO 34005KT 10SM CLR 14/10 A3015 820 74 1000 340/05 RMK AO2
14926KSTC STC20060608050509806/08/06 05:05:31  5-MIN KSTC 081105Z AUTO 35005KT 10SM CLR 14/10 A3015 810 74 1000 350/05 RMK AO2
14926KSTC STC20060608051009806/08/06 05:10:31  5-MIN KSTC 081110Z AUTO 34005KT 10SM CLR 14/10 A3015 810 74 1000 340/05 RMK AO2
14926KSTC STC20060608051509806/08/06 05:15:31  5-MIN KSTC 081115Z AUTO 35005KT 10SM CLR 14/10 A3015 810 74 1000 340/05 RMK AO2
14926KSTC STC20060608052009806/08/06 05:20:31  5-MIN KSTC 081120Z AUTO 35005KT 10SM CLR 14/10 A3016 810 74 1000 350/05 RMK AO2
14926KSTC STC20060608052509806/08/06 05:25:31  5-MIN KSTC 081125Z AUTO 34005KT 10SM CLR 15/10 A3016 810 72 1000 340/05 RMK AO2
14926KSTC STC20060608053009806/08/06 05:30:31  5-MIN KSTC 081130Z AUTO 34005KT 10SM CLR 15/10 A3016 810 72 1000 340/05 RMK AO2
14926KSTC STC20060608053509806/08/06 05:35:31  5-MIN KSTC 081135Z AUTO 35005KT 10SM CLR 16/10 A3016 800 69 1100 340/05 RMK AO2
14926KSTC STC20060608054009806/08/06 05:40:31  5-MIN KSTC 081140Z AUTO 35006KT 10SM CLR 16/10 A3016 810 69 1100 350/06 RMK AO2
14926KSTC STC20060608054509806/08/06 05:45:31  5-MIN KSTC 081145Z AUTO 35005KT 10SM CLR 16/10 A3016 800 69 1100 340/05 RMK AO2
14926KSTC STC20060608055013306/08/06 05:50:31  5-MIN KSTC 081150Z AUTO 35005KT 10SM CLR 16/10 A3016 800 69 1100 350/05 RMK AO2 SLP217 T01560100 10189 20139 51012
14926KSTC STC20060608055509806/08/06 05:55:31  5-MIN KSTC 081155Z AUTO 36007KT 10SM CLR 16/10 A3016 800 69 1100 350/07 RMK AO2
14926KSTC STC20060608060009306/08/06 06:00:31  5-MIN KSTC 081200Z 36004KT 10SM CLR 16/10 A3017 800 69 1100 350/04 RMK AO2
14926KSTC STC20060608060509306/08/06 06:05:31  5-MIN KSTC 081205Z 36006KT 10SM CLR 16/10 A3016 800 67 1200 360/06 RMK AO2
14926KSTC STC20060608061009306/08/06 06:10:31  5-MIN KSTC 081210Z 36006KT 10SM CLR 16/10 A3016 800 67 1200 360/06 RMK AO2
14926KSTC STC20060608061509306/08/06 06:15:31  5-MIN KSTC 081215Z 36006KT 10SM CLR 16/10 A3017 800 67 1200 350/06 RMK AO2
14926KSTC STC20060608062009306/08/06 06:20:31  5-MIN KSTC 081220Z 36007KT 10SM CLR 16/10 A3017 800 67 1200 350/07 RMK AO2
14926KSTC STC20060608062509306/08/06 06:25:31  5-MIN KSTC 081225Z 36007KT 10SM CLR 17/10 A3017 800 64 1200 350/07 RMK AO2
14926KSTC STC20060608063009306/08/06 06:30:31  5-MIN KSTC 081230Z 36007KT 10SM CLR 17/10 A3017 800 64 1200 360/07 RMK AO2
14926KSTC STC20060608063509306/08/06 06:35:31  5-MIN KSTC 081235Z 36006KT 10SM CLR 17/10 A3017 800 64 1200 360/06 RMK AO2
14926KSTC STC20060608064009306/08/06 06:40:31  5-MIN KSTC 081240Z 36007KT 10SM CLR 17/10 A3017 800 62 1300 360/07 RMK AO2
14926KSTC STC20060608064509306/08/06 06:45:31  5-MIN KSTC 081245Z 01007KT 10SM CLR 17/11 A3017 800 64 1300 010/07 RMK AO2
14926KSTC STC20060608065011006/08/06 06:50:31  5-MIN KSTC 081250Z 01007KT 10SM CLR 17/10 A3017 800 62 1300 010/07 RMK AO2 SLP219 T01720100
14926KSTC STC20060608065509306/08/06 06:55:31  5-MIN KSTC 081255Z 01006KT 10SM CLR 17/11 A3017 800 64 1300 010/06 RMK AO2
14926KSTC STC20060608070009306/08/06 07:00:31  5-MIN KSTC 081300Z 01007KT 10SM CLR 18/11 A3017 790 62 1300 360/07 RMK AO2
14926KSTC STC20060608070509306/08/06 07:05:31  5-MIN KSTC 081305Z 01009KT 10SM CLR 18/10 A3017 800 60 1300 360/09 RMK AO2
14926KSTC STC20060608071009306/08/06 07:10:31  5-MIN KSTC 081310Z 01009KT 10SM CLR 18/10 A3016 810 60 1400 360/09 RMK AO2
14926KSTC STC20060608071509306/08/06 07:15:31  5-MIN KSTC 081315Z 01006KT 10SM CLR 18/10 A3016 810 60 1400 010/06 RMK AO2
14926KSTC STC20060608072009306/08/06 07:20:31  5-MIN KSTC 081320Z 01007KT 10SM CLR 18/11 A3016 810 60 1400 010/07 RMK AO2
14926KSTC STC20060608072509306/08/06 07:25:31  5-MIN KSTC 081325Z 01007KT 10SM CLR 18/10 A3016 800 58 1400 010/07 RMK AO2
14926KSTC STC20060608073009306/08/06 07:30:31  5-MIN KSTC 081330Z 36008KT 10SM CLR 18/11 A3016 800 60 1400 360/08 RMK AO2
14926KSTC STC20060608073509306/08/06 07:35:31  5-MIN KSTC 081335Z 01008KT 10SM CLR 18/10 A3016 800 58 1400 010/08 RMK AO2
14926KSTC STC20060608074010906/08/06 07:40:31  5-MIN KSTC 081340Z 36008KT 330V030 10SM CLR 19/11 A3016 800 58 1500 360/08 330V030 RMK AO2
14926KSTC STC20060608074509306/08/06 07:45:31  5-MIN KSTC 081345Z 01008KT 10SM CLR 19/10 A3016 800 56 1500 360/08 RMK AO2
14926KSTC STC20060608075011006/08/06 07:50:31  5-MIN KSTC 081350Z 01007KT 10SM CLR 19/10 A3016 800 56 1500 010/07 RMK AO2 SLP218 T01890100
14926KSTC STC20060608075509306/08/06 07:55:31  5-MIN KSTC 081355Z 36008KT 10SM CLR 19/11 A3016 800 58 1500 360/08 RMK AO2
14926KSTC STC20060608080009306/08/06 08:00:31  5-MIN KSTC 081400Z VRB06KT 10SM CLR 19/11 A3017 800 56 1500 VRB/06 RMK AO2
14926KSTC STC20060608080509306/08/06 08:05:31  5-MIN KSTC 081405Z 02006KT 10SM CLR 19/11 A3017 800 56 1500 020/06 RMK AO2
14926KSTC STC20060608081009306/08/06 08:10:31  5-MIN KSTC 081410Z 01006KT 10SM CLR 19/11 A3017 800 56 1500 010/06 RMK AO2
14926KSTC STC20060608081509306/08/06 08:15:31  5-MIN KSTC 081415Z 01007KT 10SM CLR 19/10 A3017 790 54 1500 360/07 RMK AO2
14926KSTC STC20060608082009306/08/06 08:20:31  5-MIN KSTC 081420Z 35007KT 10SM CLR 19/10 A3017 790 54 1500 350/07 RMK AO2
14926KSTC STC20060608082509306/08/06 08:25:31  5-MIN KSTC 081425Z 01007KT 10SM CLR 19/10 A3018 790 54 1500 010/07 RMK AO2
14926KSTC STC20060608083009306/08/06 08:30:31  5-MIN KSTC 081430Z 34006KT 10SM CLR 19/10 A3017 790 54 1500 340/06 RMK AO2
14926KSTC STC20060608083509306/08/06 08:35:31  5-MIN KSTC 081435Z 35006KT 10SM CLR 20/11 A3017 790 54 1600 350/06 RMK AO2
14926KSTC STC20060608084009306/08/06 08:40:31  5-MIN KSTC 081440Z 36008KT 10SM CLR 20/11 A3018 790 54 1600 360/08 RMK AO2
14926KSTC STC20060608084509306/08/06 08:45:31  5-MIN KSTC 081445Z 01008KT 10SM CLR 21/10 A3017 790 50 1700 360/08 RMK AO2
14926KSTC STC20060608085011606/08/06 08:50:31  5-MIN KSTC 081450Z 02008KT 10SM CLR 20/10 A3017 790 52 1600 020/08 RMK AO2 SLP222 T02000100 52023
14926KSTC STC20060608085509306/08/06 08:55:31  5-MIN KSTC 081455Z VRB05KT 10SM CLR 20/10 A3017 800 52 1600 VRB/05 RMK AO2
14926KSTC STC20060608090009306/08/06 09:00:31  5-MIN KSTC 081500Z 02006KT 10SM CLR 21/10 A3017 800 50 1700 020/06 RMK AO2
14926KSTC STC20060608090509306/08/06 09:05:31  5-MIN KSTC 081505Z 01006KT 10SM CLR 21/10 A3016 800 50 1700 360/06 RMK AO2
14926KSTC STC20060608091010906/08/06 09:10:31  5-MIN KSTC 081510Z 01007KT 340V050 10SM CLR 21/09 A3016 800 48 1700 010/07 340V050 RMK AO2
14926KSTC STC20060608091509306/08/06 09:15:31  5-MIN KSTC 081515Z 02008KT 10SM CLR 21/10 A3016 800 50 1700 010/08 RMK AO2
14926KSTC STC20060608092009306/08/06 09:20:31  5-MIN KSTC 081520Z 36006KT 10SM CLR 21/10 A3017 800 50 1700 350/06 RMK AO2
14926KSTC STC20060608092509306/08/06 09:25:31  5-MIN KSTC 081525Z 36008KT 10SM CLR 21/10 A3017 800 48 1700 360/08 RMK AO2
14926KSTC STC20060608093009306/08/06 09:30:31  5-MIN KSTC 081530Z 36007KT 10SM CLR 21/10 A3016 800 50 1700 360/07 RMK AO2
14926KSTC STC20060608093509306/08/06 09:35:31  5-MIN KSTC 081535Z 35007KT 10SM CLR 21/09 A3016 800 48 1700 350/07 RMK AO2
14926KSTC STC20060608094010906/08/06 09:40:31  5-MIN KSTC 081540Z 36008KT 340V040 10SM CLR 21/10 A3016 800 48 1700 360/08 340V040 RMK AO2
14926KSTC STC20060608094509306/08/06 09:45:31  5-MIN KSTC 081545Z 01008KT 10SM CLR 21/09 A3016 810 48 1700 360/08 RMK AO2
14926KSTC STC20060608095011006/08/06 09:50:31  5-MIN KSTC 081550Z 01006KT 10SM CLR 22/09 A3016 800 45 1800 360/06 RMK AO2 SLP218 T02170094
14926KSTC STC20060608095509306/08/06 09:55:31  5-MIN KSTC 081555Z 05007KT 10SM CLR 22/09 A3016 800 45 1800 040/07 RMK AO2
14926KSTC STC20060608100009306/08/06 10:00:31  5-MIN KSTC 081600Z 36007KT 10SM CLR 22/09 A3016 800 43 1800 360/07 RMK AO2
14926KSTC STC20060608100509306/08/06 10:05:31  5-MIN KSTC 081605Z 02007KT 10SM CLR 22/09 A3016 800 45 1800 010/07 RMK AO2
14926KSTC STC20060608101009306/08/06 10:10:31  5-MIN KSTC 081610Z 03008KT 10SM CLR 22/09 A3016 800 45 1800 030/08 RMK AO2
14926KSTC STC20060608101509306/08/06 10:15:31  5-MIN KSTC 081615Z VRB05KT 10SM CLR 22/09 A3016 800 43 1800 VRB/05 RMK AO2
14926KSTC STC20060608102009306/08/06 10:20:31  5-MIN KSTC 081620Z 01009KT 10SM CLR 22/09 A3016 810 43 1900 360/09 RMK AO2
14926KSTC STC20060608102510906/08/06 10:25:31  5-MIN KSTC 081625Z 01007KT 320V050 10SM CLR 21/08 A3016 810 43 1700 360/07 320V050 RMK AO2
14926KSTC STC20060608103010906/08/06 10:30:31  5-MIN KSTC 081630Z 02007KT 350V060 10SM CLR 22/09 A3016 810 43 1800 020/07 350V060 RMK AO2
14926KSTC STC20060608103509306/08/06 10:35:31  5-MIN KSTC 081635Z 02007KT 10SM CLR 22/09 A3016 810 43 1900 010/07 RMK AO2
14926KSTC STC20060608104009306/08/06 10:40:31  5-MIN KSTC 081640Z 35005KT 10SM CLR 22/09 A3016 810 43 1900 340/05 RMK AO2
14926KSTC STC20060608104509306/08/06 10:45:31  5-MIN KSTC 081645Z VRB05KT 10SM CLR 22/09 A3015 810 43 1900 VRB/05 RMK AO2
14926KSTC STC20060608105012606/08/06 10:50:31  5-MIN KSTC 081650Z 34008KT 320V030 10SM CLR 23/09 A3015 810 42 1900 340/08 320V030 RMK AO2 SLP215 T02280094
14926KSTC STC20060608105509306/08/06 10:55:31  5-MIN KSTC 081655Z VRB06KT 10SM CLR 22/09 A3015 810 42 1900 VRB/06 RMK AO2
14926KSTC STC20060608110010906/08/06 11:00:31  5-MIN KSTC 081700Z 03008KT 350V050 10SM CLR 23/09 A3015 810 42 1900 030/08 350V050 RMK AO2
14926KSTC STC20060608110509906/08/06 11:05:31  5-MIN KSTC 081705Z 01008G15KT 10SM CLR 22/09 A3015 820 43 1900 360/08G15 RMK AO2
14926KSTC STC20060608111009306/08/06 11:10:31  5-MIN KSTC 081710Z 02009KT 10SM CLR 23/09 A3015 820 42 1900 010/09 RMK AO2
14926KSTC STC20060608111509306/08/06 11:15:31  5-MIN KSTC 081715Z 05010KT 10SM CLR 22/09 A3014 820 42 1900 050/10 RMK AO2
14926KSTC STC20060608112009306/08/06 11:20:31  5-MIN KSTC 081720Z 02010KT 10SM CLR 22/09 A3014 820 42 1900 010/10 RMK AO2
14926KSTC STC20060608112510906/08/06 11:25:31  5-MIN KSTC 081725Z 04008KT 010V070 10SM CLR 22/09 A3014 820 43 1900 040/08 010V070 RMK AO2
14926KSTC STC20060608113009306/08/06 11:30:31  5-MIN KSTC 081730Z 03009KT 10SM CLR 23/09 A3014 820 42 2000 020/09 RMK AO2
14926KSTC STC20060608113509306/08/06 11:35:31  5-MIN KSTC 081735Z 02006KT 10SM CLR 23/09 A3014 830 40 2000 020/06 RMK AO2
14926KSTC STC20060608114009306/08/06 11:40:31  5-MIN KSTC 081740Z 03008KT 10SM CLR 23/09 A3013 830 42 2000 020/08 RMK AO2
14926KSTC STC20060608114509306/08/06 11:45:31  5-MIN KSTC 081745Z VRB04KT 10SM CLR 22/09 A3013 830 42 1900 VRB/04 RMK AO2
14926KSTC STC20060608115012806/08/06 11:50:31  5-MIN KSTC 081750Z 36008KT 10SM CLR 23/09 A3013 830 42 2000 360/08 RMK AO2 SLP208 T02280094 10228 20156 53002
14926KSTC STC20060608115509306/08/06 11:55:31  5-MIN KSTC 081755Z 35009KT 10SM CLR 23/09 A3013 830 40 2000 350/09 RMK AO2
14926KSTC STC20060608120009306/08/06 12:00:31  5-MIN KSTC 081800Z 36006KT 10SM CLR 23/09 A3013 830 40 2000 360/06 RMK AO2
14926KSTC STC20060608120509306/08/06 12:05:31  5-MIN KSTC 081805Z 35009KT 10SM CLR 23/09 A3014 830 41 2000 350/09 RMK AO2
14926KSTC STC20060608121009306/08/06 12:10:31  5-MIN KSTC 081810Z 35009KT 10SM CLR 23/10 A3013 830 42 2000 340/09 RMK AO2
14926KSTC STC20060608121510906/08/06 12:15:31  5-MIN KSTC 081815Z 01008KT 340V040 10SM CLR 23/09 A3013 830 41 2000 010/08 340V040 RMK AO2
14926KSTC STC20060608122009306/08/06 12:20:31  5-MIN KSTC 081820Z 36008KT 10SM CLR 23/10 A3012 840 42 2000 360/08 RMK AO2
14926KSTC STC20060608122509306/08/06 12:25:31  5-MIN KSTC 081825Z 02010KT 10SM CLR 23/09 A3012 840 41 2000 020/10 RMK AO2
14926KSTC STC20060608123009306/08/06 12:30:31  5-MIN KSTC 081830Z VRB05KT 10SM CLR 23/09 A3012 850 40 2000 VRB/05 RMK AO2
14926KSTC STC20060608123509306/08/06 12:35:31  5-MIN KSTC 081835Z 03009KT 10SM CLR 24/09 A3011 850 39 2100 030/09 RMK AO2
14926KSTC STC20060608124010906/08/06 12:40:31  5-MIN KSTC 081840Z 04007KT 360V070 10SM CLR 23/09 A3011 850 39 2100 030/07 360V070 RMK AO2
14926KSTC STC20060608124509306/08/06 12:45:31  5-MIN KSTC 081845Z 05012KT 10SM CLR 23/09 A3011 850 39 2100 050/12 RMK AO2
14926KSTC STC20060608125011006/08/06 12:50:31  5-MIN KSTC 081850Z 02012KT 10SM CLR 23/08 A3011 850 38 2000 020/12 RMK AO2 SLP202 T02330083
14926KSTC STC20060608125509306/08/06 12:55:31  5-MIN KSTC 081855Z 03009KT 10SM CLR 23/09 A3011 850 39 2100 020/09 RMK AO2
14926KSTC STC20060608130010906/08/06 13:00:31  5-MIN KSTC 081900Z 03009KT 360V070 10SM CLR 23/09 A3011 850 39 2100 030/09 360V070 RMK AO2
14926KSTC STC20060608130510906/08/06 13:05:31  5-MIN KSTC 081905Z 03009KT 350V050 10SM CLR 23/09 A3011 850 39 2100 020/09 350V050 RMK AO2
14926KSTC STC20060608131009306/08/06 13:10:31  5-MIN KSTC 081910Z 04010KT 10SM CLR 24/09 A3011 850 39 2100 040/10 RMK AO2
14926KSTC STC20060608131509306/08/06 13:15:31  5-MIN KSTC 081915Z 03007KT 10SM CLR 24/09 A3011 860 38 2100 020/07 RMK AO2
14926KSTC STC20060608132010906/08/06 13:20:31  5-MIN KSTC 081920Z 03008KT 350V060 10SM CLR 24/09 A3010 860 39 2100 030/08 350V060 RMK AO2
14926KSTC STC20060608132509306/08/06 13:25:31  5-MIN KSTC 081925Z 07009KT 10SM CLR 24/09 A3010 860 38 2100 070/09 RMK AO2
14926KSTC STC20060608133009306/08/06 13:30:31  5-MIN KSTC 081930Z 07008KT 10SM CLR 23/09 A3010 860 41 2100 060/08 RMK AO2
14926KSTC STC20060608133509306/08/06 13:35:31  5-MIN KSTC 081935Z 05009KT 10SM CLR 24/09 A3010 860 39 2100 040/09 RMK AO2
14926KSTC STC20060608134009306/08/06 13:40:31  5-MIN KSTC 081940Z 05008KT 10SM CLR 24/09 A3010 860 39 2100 040/08 RMK AO2
14926KSTC STC20060608134509306/08/06 13:45:31  5-MIN KSTC 081945Z 05009KT 10SM CLR 24/09 A3010 860 38 2200 040/09 RMK AO2
14926KSTC STC20060608135011006/08/06 13:50:31  5-MIN KSTC 081950Z 06008KT 10SM CLR 24/09 A3010 860 39 2100 060/08 RMK AO2 SLP197 T02390094
14926KSTC STC20060608135509306/08/06 13:55:31  5-MIN KSTC 081955Z VRB06KT 10SM CLR 24/09 A3010 860 38 2200 VRB/06 RMK AO2
14926KSTC STC20060608140009306/08/06 14:00:31  5-MIN KSTC 082000Z 02009KT 10SM CLR 24/09 A3010 860 38 2200 020/09 RMK AO2
14926KSTC STC20060608140509306/08/06 14:05:31  5-MIN KSTC 082005Z 05009KT 10SM CLR 24/09 A3010 860 38 2200 040/09 RMK AO2
14926KSTC STC20060608141010906/08/06 14:10:31  5-MIN KSTC 082010Z 05011KT 020V080 10SM CLR 24/09 A3010 860 39 2100 050/11 020V080 RMK AO2
14926KSTC STC20060608141509306/08/06 14:15:31  5-MIN KSTC 082015Z 02007KT 10SM CLR 24/09 A3010 860 39 2100 020/07 RMK AO2
14926KSTC STC20060608142009906/08/06 14:20:31  5-MIN KSTC 082020Z 07009G14KT 10SM CLR 24/09 A3010 860 38 2100 070/09G14 RMK AO2
14926KSTC STC20060608142509906/08/06 14:25:31  5-MIN KSTC 082025Z 02007G16KT 10SM CLR 24/09 A3010 860 38 2100 020/07G16 RMK AO2
14926KSTC STC20060608143009306/08/06 14:30:31  5-MIN KSTC 082030Z 03008KT 10SM CLR 24/09 A3010 860 36 2200 020/08 RMK AO2
14926KSTC STC20060608143509906/08/06 14:35:31  5-MIN KSTC 082035Z 03007G14KT 10SM CLR 24/08 A3010 860 35 2200 030/07G14 RMK AO2
14926KSTC STC20060608144009306/08/06 14:40:31  5-MIN KSTC 082040Z 04008KT 10SM CLR 24/09 A3009 870 36 2200 040/08 RMK AO2
14926KSTC STC20060608144509306/08/06 14:45:31  5-MIN KSTC 082045Z 04010KT 10SM CLR 24/08 A3009 870 35 2100 040/10 RMK AO2
14926KSTC STC20060608145011606/08/06 14:50:31  5-MIN KSTC 082050Z 02009KT 10SM CLR 24/08 A3009 870 35 2200 010/09 RMK AO2 SLP196 T02440083 58012
14926KSTC STC20060608145509306/08/06 14:55:31  5-MIN KSTC 082055Z 04008KT 10SM CLR 24/09 A3009 870 36 2200 040/08 RMK AO2
14926KSTC STC20060608150009806/08/06 15:00:31  5-MIN KSTC 082100Z AUTO 04007KT 10SM CLR 24/08 A3009 870 35 2200 030/07 RMK AO2
14926KSTC STC20060608150509806/08/06 15:05:31  5-MIN KSTC 082105Z AUTO 01009KT 10SM CLR 24/08 A3009 870 35 2200 010/09 RMK AO2
14926KSTC STC20060608151009806/08/06 15:10:31  5-MIN KSTC 082110Z AUTO 04009KT 10SM CLR 24/08 A3009 870 35 2100 030/09 RMK AO2
14926KSTC STC20060608151509806/08/06 15:15:31  5-MIN KSTC 082115Z AUTO 04007KT 10SM CLR 24/08 A3009 870 34 2200 030/07 RMK AO2
14926KSTC STC20060608152009806/08/06 15:20:31  5-MIN KSTC 082120Z AUTO 04007KT 10SM CLR 24/09 A3009 870 36 2200 040/07 RMK AO2
14926KSTC STC20060608152509806/08/06 15:25:31  5-MIN KSTC 082125Z AUTO 05008KT 10SM CLR 24/09 A3009 870 38 2200 040/08 RMK AO2
14926KSTC STC20060608153009806/08/06 15:30:31  5-MIN KSTC 082130Z AUTO 04008KT 10SM CLR 24/09 A3009 870 38 2200 040/08 RMK AO2
14926KSTC STC20060608153509806/08/06 15:35:31  5-MIN KSTC 082135Z AUTO 03008KT 10SM CLR 24/09 A3009 870 38 2200 030/08 RMK AO2
14926KSTC STC20060608154009806/08/06 15:40:31  5-MIN KSTC 082140Z AUTO 03007KT 10SM CLR 24/09 A3009 870 38 2200 020/07 RMK AO2
14926KSTC STC20060608154509806/08/06 15:45:31  5-MIN KSTC 082145Z AUTO VRB06KT 10SM CLR 24/10 A3009 870 41 2100 VRB/06 RMK AO2
14926KSTC STC20060608155011006/08/06 15:50:31  5-MIN KSTC 082150Z VRB06KT 10SM CLR 24/09 A3009 870 38 2100 VRB/06 RMK AO2 SLP194 T02390089
14926KSTC STC20060608155509306/08/06 15:55:31  5-MIN KSTC 082155Z 04009KT 10SM CLR 23/09 A3009 870 41 2100 040/09 RMK AO2
14926KSTC STC20060608160009306/08/06 16:00:31  5-MIN KSTC 082200Z 01006KT 10SM CLR 23/09 A3009 870 39 2100 010/06 RMK AO2
14926KSTC STC20060608160509306/08/06 16:05:31  5-MIN KSTC 082205Z 02006KT 10SM CLR 24/10 A3009 870 41 2100 020/06 RMK AO2
14926KSTC STC20060608161009306/08/06 16:10:31  5-MIN KSTC 082210Z 03006KT 10SM CLR 24/09 A3009 870 39 2100 030/06 RMK AO2
14926KSTC STC20060608161509306/08/06 16:15:31  5-MIN KSTC 082215Z 02008KT 10SM CLR 23/09 A3009 870 41 2100 020/08 RMK AO2
14926KSTC STC20060608162009306/08/06 16:20:31  5-MIN KSTC 082220Z 07006KT 10SM CLR 23/09 A3009 870 41 2100 060/06 RMK AO2
14926KSTC STC20060608162509306/08/06 16:25:31  5-MIN KSTC 082225Z 06004KT 10SM CLR 24/09 A3009 870 39 2100 050/04 RMK AO2
14926KSTC STC20060608163009306/08/06 16:30:31  5-MIN KSTC 082230Z VRB04KT 10SM CLR 24/10 A3008 870 41 2100 VRB/04 RMK AO2
14926KSTC STC20060608163509306/08/06 16:35:31  5-MIN KSTC 082235Z 04005KT 10SM CLR 23/10 A3009 870 42 2100 040/05 RMK AO2
14926KSTC STC20060608164009306/08/06 16:40:31  5-MIN KSTC 082240Z 03006KT 10SM CLR 23/10 A3008 880 42 2100 030/06 RMK AO2
14926KSTC STC20060608164509306/08/06 16:45:31  5-MIN KSTC 082245Z 01006KT 10SM CLR 23/10 A3008 880 42 2100 010/06 RMK AO2
14926KSTC STC20060608165011006/08/06 16:50:31  5-MIN KSTC 082250Z VRB06KT 10SM CLR 23/10 A3008 880 42 2100 VRB/06 RMK AO2 SLP191 T02330100
14926KSTC STC20060608165509306/08/06 16:55:31  5-MIN KSTC 082255Z 07006KT 10SM CLR 23/09 A3008 880 41 2100 060/06 RMK AO2
14926KSTC STC20060608170009306/08/06 17:00:31  5-MIN KSTC 082300Z 01007KT 10SM CLR 23/10 A3007 890 42 2100 010/07 RMK AO2
14926KSTC STC20060608170509306/08/06 17:05:31  5-MIN KSTC 082305Z 03006KT 10SM CLR 23/09 A3007 890 42 2000 020/06 RMK AO2
14926KSTC STC20060608171009306/08/06 17:10:31  5-MIN KSTC 082310Z 04007KT 10SM CLR 23/09 A3007 890 42 2000 040/07 RMK AO2
14926KSTC STC20060608171509306/08/06 17:15:31  5-MIN KSTC 082315Z 04005KT 10SM CLR 23/09 A3007 890 42 2000 040/05 RMK AO2
14926KSTC STC20060608172009306/08/06 17:20:31  5-MIN KSTC 082320Z 03006KT 10SM CLR 23/10 A3007 890 44 2000 030/06 RMK AO2
14926KSTC STC20060608172509306/08/06 17:25:31  5-MIN KSTC 082325Z 03007KT 10SM CLR 23/10 A3007 890 44 2000 030/07 RMK AO2
14926KSTC STC20060608173009306/08/06 17:30:31  5-MIN KSTC 082330Z 03005KT 10SM CLR 23/11 A3007 890 45 2000 030/05 RMK AO2
14926KSTC STC20060608173509306/08/06 17:35:31  5-MIN KSTC 082335Z 03005KT 10SM CLR 23/11 A3007 890 45 2000 030/05 RMK AO2
14926KSTC STC20060608174009306/08/06 17:40:31  5-MIN KSTC 082340Z 03005KT 10SM CLR 23/11 A3006 890 45 2000 030/05 RMK AO2
14926KSTC STC20060608174509306/08/06 17:45:31  5-MIN KSTC 082345Z 03005KT 10SM CLR 23/11 A3007 890 45 2000 030/05 RMK AO2
14926KSTC STC20060608175012806/08/06 17:50:31  5-MIN KSTC 082350Z 02003KT 10SM CLR 23/11 A3007 890 45 2000 010/03 RMK AO2 SLP187 T02280106 10244 20228 56013
14926KSTC STC20060608175509306/08/06 17:55:31  5-MIN KSTC 082355Z 03004KT 10SM CLR 23/11 A3007 890 47 2000 030/04 RMK AO2
14926KSTC STC20060608180009306/08/06 18:00:31  5-MIN KSTC 090000Z 03006KT 10SM CLR 23/11 A3007 890 47 2000 030/06 RMK AO2
14926KSTC STC20060608180509306/08/06 18:05:31  5-MIN KSTC 090005Z 03005KT 10SM CLR 23/11 A3006 890 47 2000 030/05 RMK AO2
14926KSTC STC20060608181009306/08/06 18:10:31  5-MIN KSTC 090010Z VRB06KT 10SM CLR 22/11 A3007 890 49 2000 VRB/06 RMK AO2
14926KSTC STC20060608181509306/08/06 18:15:31  5-MIN KSTC 090015Z 04005KT 10SM CLR 22/11 A3007 890 49 2000 030/05 RMK AO2
14926KSTC STC20060608182009306/08/06 18:20:31  5-MIN KSTC 090020Z 03005KT 10SM CLR 22/11 A3007 890 49 2000 030/05 RMK AO2
14926KSTC STC20060608182509306/08/06 18:25:31  5-MIN KSTC 090025Z 01005KT 10SM CLR 22/11 A3007 890 49 2000 010/05 RMK AO2
14926KSTC STC20060608183009306/08/06 18:30:31  5-MIN KSTC 090030Z 03005KT 10SM CLR 22/11 A3007 890 49 2000 030/05 RMK AO2
14926KSTC STC20060608183509306/08/06 18:35:31  5-MIN KSTC 090035Z 04005KT 10SM CLR 22/11 A3007 890 49 2000 030/05 RMK AO2
14926KSTC STC20060608184009306/08/06 18:40:31  5-MIN KSTC 090040Z 03005KT 10SM CLR 22/11 A3007 890 49 2000 030/05 RMK AO2
14926KSTC STC20060608184509306/08/06 18:45:31  5-MIN KSTC 090045Z 03005KT 10SM CLR 22/11 A3007 890 49 2000 030/05 RMK AO2
14926KSTC STC20060608185011006/08/06 18:50:31  5-MIN KSTC 090050Z 03005KT 10SM CLR 22/11 A3007 890 50 1900 020/05 RMK AO2 SLP187 T02170111
14926KSTC STC20060608185509306/08/06 18:55:31  5-MIN KSTC 090055Z 03005KT 10SM CLR 22/11 A3007 890 50 1900 030/05 RMK AO2
14926KSTC STC20060608190009306/08/06 19:00:31  5-MIN KSTC 090100Z 03005KT 10SM CLR 22/11 A3007 890 50 1900 020/05 RMK AO2
14926KSTC STC20060608190509306/08/06 19:05:31  5-MIN KSTC 090105Z 03005KT 10SM CLR 22/11 A3007 890 50 1900 020/05 RMK AO2
14926KSTC STC20060608191009306/08/06 19:10:31  5-MIN KSTC 090110Z 02004KT 10SM CLR 22/11 A3007 890 50 1900 020/04 RMK AO2
14926KSTC STC20060608191509606/08/06 19:15:31  5-MIN KSTC 090115Z 02005KT 10SM FEW120 22/11 A3007 880 50 1900 020/05 RMK AO2
14926KSTC STC20060608192009606/08/06 19:20:31  5-MIN KSTC 090120Z 03006KT 10SM SCT120 21/11 A3007 880 52 1800 030/06 RMK AO2
14926KSTC STC20060608192509606/08/06 19:25:31  5-MIN KSTC 090125Z 03006KT 10SM SCT120 21/11 A3008 880 52 1800 030/06 RMK AO2
14926KSTC STC20060608193009606/08/06 19:30:31  5-MIN KSTC 090130Z 03005KT 10SM FEW120 21/11 A3008 880 52 1800 020/05 RMK AO2
14926KSTC STC20060608193509606/08/06 19:35:31  5-MIN KSTC 090135Z 03005KT 10SM FEW120 21/11 A3008 880 52 1800 030/05 RMK AO2
14926KSTC STC20060608194009606/08/06 19:40:31  5-MIN KSTC 090140Z 03006KT 10SM FEW120 21/11 A3008 880 52 1800 030/06 RMK AO2
14926KSTC STC20060608194509606/08/06 19:45:31  5-MIN KSTC 090145Z 03005KT 10SM FEW120 21/11 A3008 880 54 1800 020/05 RMK AO2
14926KSTC STC20060608195011306/08/06 19:50:31  5-MIN KSTC 090150Z 03006KT 10SM SCT120 21/11 A3008 880 52 1800 020/06 RMK AO2 SLP191 T02060106
14926KSTC STC20060608195509606/08/06 19:55:31  5-MIN KSTC 090155Z 03005KT 10SM SCT120 21/11 A3008 880 52 1800 020/05 RMK AO2
14926KSTC STC20060608200009606/08/06 20:00:31  5-MIN KSTC 090200Z 03006KT 10SM BKN110 21/11 A3008 880 52 1800 030/06 RMK AO2
14926KSTC STC20060608200509606/08/06 20:05:31  5-MIN KSTC 090205Z 02005KT 10SM BKN120 21/11 A3009 870 52 1800 020/05 RMK AO2
14926KSTC STC20060608201009606/08/06 20:10:31  5-MIN KSTC 090210Z 02005KT 10SM BKN110 21/11 A3009 870 52 1800 020/05 RMK AO2
14926KSTC STC20060608201509606/08/06 20:15:31  5-MIN KSTC 090215Z 03005KT 10SM OVC110 21/11 A3009 870 52 1800 030/05 RMK AO2
14926KSTC STC20060608202009606/08/06 20:20:31  5-MIN KSTC 090220Z 03005KT 10SM OVC110 21/11 A3009 870 52 1800 020/05 RMK AO2
14926KSTC STC20060608202509606/08/06 20:25:31  5-MIN KSTC 090225Z 02004KT 10SM OVC110 21/11 A3009 870 52 1800 010/04 RMK AO2
14926KSTC STC20060608203009606/08/06 20:30:31  5-MIN KSTC 090230Z 03004KT 10SM OVC110 21/11 A3009 870 54 1800 030/04 RMK AO2
14926KSTC STC20060608203509606/08/06 20:35:31  5-MIN KSTC 090235Z 02005KT 10SM OVC110 21/11 A3010 860 52 1800 020/05 RMK AO2
14926KSTC STC20060608204009606/08/06 20:40:31  5-MIN KSTC 090240Z 02004KT 10SM OVC110 21/11 A3010 860 52 1700 020/04 RMK AO2
14926KSTC STC20060608204509606/08/06 20:45:31  5-MIN KSTC 090245Z 03005KT 10SM OVC110 21/11 A3010 860 52 1700 030/05 RMK AO2
14926KSTC STC20060608205011906/08/06 20:50:31  5-MIN KSTC 090250Z 03005KT 10SM OVC110 21/11 A3010 860 54 1800 030/05 RMK AO2 SLP196 T02060111 56009
14926KSTC STC20060608205509606/08/06 20:55:31  5-MIN KSTC 090255Z 03005KT 10SM OVC110 21/11 A3009 870 54 1800 030/05 RMK AO2
14926KSTC STC20060608210009606/08/06 21:00:31  5-MIN KSTC 090300Z 03005KT 10SM OVC110 21/11 A3010 860 54 1800 030/05 RMK AO2
14926KSTC STC20060608210509606/08/06 21:05:31  5-MIN KSTC 090305Z 02005KT 10SM OVC110 21/11 A3010 860 54 1800 020/05 RMK AO2
14926KSTC STC20060608211009606/08/06 21:10:31  5-MIN KSTC 090310Z 03006KT 10SM OVC110 21/11 A3010 860 54 1700 030/06 RMK AO2
14926KSTC STC20060608211509606/08/06 21:15:31  5-MIN KSTC 090315Z 04006KT 10SM OVC110 20/11 A3010 860 56 1700 030/06 RMK AO2
14926KSTC STC20060608212009606/08/06 21:20:31  5-MIN KSTC 090320Z 04007KT 10SM OVC110 20/11 A3010 860 56 1700 040/07 RMK AO2
14926KSTC STC20060608212509606/08/06 21:25:31  5-MIN KSTC 090325Z 04007KT 10SM OVC120 21/11 A3010 860 52 1800 030/07 RMK AO2
14926KSTC STC20060608213009606/08/06 21:30:31  5-MIN KSTC 090330Z 04006KT 10SM OVC120 20/11 A3010 860 56 1700 030/06 RMK AO2
14926KSTC STC20060608213509606/08/06 21:35:31  5-MIN KSTC 090335Z 04006KT 10SM OVC120 20/11 A3010 860 56 1700 030/06 RMK AO2
14926KSTC STC20060608214009606/08/06 21:40:31  5-MIN KSTC 090340Z 03005KT 10SM OVC110 20/11 A3010 860 56 1700 030/05 RMK AO2
14926KSTC STC20060608214509606/08/06 21:45:31  5-MIN KSTC 090345Z 04005KT 10SM OVC110 20/11 A3010 860 56 1700 040/05 RMK AO2
14926KSTC STC20060608215011306/08/06 21:50:31  5-MIN KSTC 090350Z 04006KT 10SM OVC110 20/11 A3011 850 56 1700 030/06 RMK AO2 SLP200 T02000111
14926KSTC STC20060608215510106/08/06 21:55:31  5-MIN KSTC 090355Z AUTO 04008KT 10SM OVC110 20/11 A3011 850 56 1700 040/08 RMK AO2
14926KSTC STC20060608220010106/08/06 22:00:31  5-MIN KSTC 090400Z AUTO 05006KT 10SM OVC110 20/11 A3011 850 56 1700 040/06 RMK AO2
14926KSTC STC20060608220510106/08/06 22:05:31  5-MIN KSTC 090405Z AUTO 04006KT 10SM OVC110 20/11 A3011 850 56 1700 040/06 RMK AO2
14926KSTC STC20060608221010106/08/06 22:10:31  5-MIN KSTC 090410Z AUTO 05006KT 10SM OVC110 20/11 A3010 860 56 1700 050/06 RMK AO2
14926KSTC STC20060608221510106/08/06 22:15:31  5-MIN KSTC 090415Z AUTO 05006KT 10SM OVC110 20/11 A3010 860 56 1700 050/06 RMK AO2
14926KSTC STC20060608222010106/08/06 22:20:31  5-MIN KSTC 090420Z AUTO 05006KT 10SM OVC110 20/11 A3011 850 56 1700 050/06 RMK AO2
14926KSTC STC20060608222510106/08/06 22:25:31  5-MIN KSTC 090425Z AUTO 05004KT 10SM OVC110 20/11 A3011 850 56 1700 050/04 RMK AO2
14926KSTC STC20060608223010106/08/06 22:30:31  5-MIN KSTC 090430Z AUTO 06006KT 10SM OVC110 20/11 A3011 850 56 1700 050/06 RMK AO2
14926KSTC STC20060608223510106/08/06 22:35:31  5-MIN KSTC 090435Z AUTO 05006KT 10SM OVC110 20/11 A3011 850 54 1700 040/06 RMK AO2
14926KSTC STC20060608224010106/08/06 22:40:31  5-MIN KSTC 090440Z AUTO 06005KT 10SM OVC110 20/11 A3011 850 54 1700 050/05 RMK AO2
14926KSTC STC20060608224510106/08/06 22:45:31  5-MIN KSTC 090445Z AUTO 06006KT 10SM OVC110 19/11 A3011 850 56 1600 050/06 RMK AO2
14926KSTC STC20060608225011806/08/06 22:50:31  5-MIN KSTC 090450Z AUTO 04006KT 10SM OVC110 19/11 A3011 850 58 1600 040/06 RMK AO2 SLP201 T01940111
14926KSTC STC20060608225510106/08/06 22:55:31  5-MIN KSTC 090455Z AUTO 04007KT 10SM OVC110 19/11 A3011 850 56 1600 040/07 RMK AO2
14926KSTC STC20060608230010106/08/06 23:00:31  5-MIN KSTC 090500Z AUTO 05006KT 10SM OVC110 19/11 A3011 850 58 1600 050/06 RMK AO2
14926KSTC STC20060608230510106/08/06 23:05:31  5-MIN KSTC 090505Z AUTO 06006KT 10SM OVC110 19/11 A3011 850 58 1600 050/06 RMK AO2
14926KSTC STC20060608231010106/08/06 23:10:31  5-MIN KSTC 090510Z AUTO 05006KT 10SM OVC110 19/11 A3011 850 58 1600 050/06 RMK AO2
14926KSTC STC20060608231510106/08/06 23:15:31  5-MIN KSTC 090515Z AUTO 05006KT 10SM OVC110 19/11 A3012 840 58 1600 050/06 RMK AO2
14926KSTC STC20060608232010106/08/06 23:20:31  5-MIN KSTC 090520Z AUTO 05006KT 10SM OVC110 19/11 A3012 840 56 1600 050/06 RMK AO2
14926KSTC STC20060608232510106/08/06 23:25:31  5-MIN KSTC 090525Z AUTO 06007KT 10SM OVC110 19/11 A3012 840 56 1600 060/07 RMK AO2
14926KSTC STC20060608233010106/08/06 23:30:31  5-MIN KSTC 090530Z AUTO 06005KT 10SM OVC110 19/11 A3012 850 56 1600 060/05 RMK AO2
14926KSTC STC20060608233510106/08/06 23:35:31  5-MIN KSTC 090535Z AUTO 06008KT 10SM OVC110 19/11 A3011 850 56 1600 060/08 RMK AO2
14926KSTC STC20060608234010106/08/06 23:40:31  5-MIN KSTC 090540Z AUTO 06006KT 10SM OVC110 19/11 A3011 850 56 1600 060/06 RMK AO2
14926KSTC STC20060608234510106/08/06 23:45:31  5-MIN KSTC 090545Z AUTO 07007KT 10SM OVC110 19/11 A3011 850 56 1600 060/07 RMK AO2
14926KSTC STC20060608235014606/08/06 23:50:31  5-MIN KSTC 090550Z AUTO 07007KT 10SM OVC110 19/11 A3011 850 56 1600 070/07 RMK AO2 SLP202 T01940106 10228 20194 402440139 53009
14926KSTC STC20060608235510106/08/06 23:55:31  5-MIN KSTC 090555Z AUTO 07008KT 10SM OVC110 19/11 A3012 850 56 1600 070/08 RMK AO2
14926KSTC STC20060609000010106/09/06 00:00:32  5-MIN KSTC 090600Z AUTO 07008KT 10SM OVC110 19/11 A3011 850 56 1600 070/08 RMK AO2
14926KSTC STC20060609000510106/09/06 00:05:31  5-MIN KSTC 090605Z AUTO 07008KT 10SM OVC110 19/11 A3011 850 58 1500 060/08 RMK AO2
14926KSTC STC20060609001011706/09/06 00:10:31  5-MIN KSTC 090610Z AUTO 07008KT 040V100 10SM OVC110 19/11 A3011 850 58 1500 070/08 040V100 RMK AO2
14926KSTC STC20060609001510106/09/06 00:15:31  5-MIN KSTC 090615Z AUTO 07009KT 10SM OVC110 19/10 A3011 850 56 1500 070/09 RMK AO2
14926KSTC STC20060609002010106/09/06 00:20:31  5-MIN KSTC 090620Z AUTO 07009KT 10SM OVC110 19/10 A3011 850 56 1500 070/09 RMK AO2
14926KSTC STC20060609002510106/09/06 00:25:31  5-MIN KSTC 090625Z AUTO 07007KT 10SM OVC110 19/10 A3011 850 56 1500 060/07 RMK AO2
14926KSTC STC20060609003010106/09/06 00:30:31  5-MIN KSTC 090630Z AUTO 07007KT 10SM OVC110 19/11 A3011 850 58 1500 060/07 RMK AO2
14926KSTC STC20060609003510106/09/06 00:35:31  5-MIN KSTC 090635Z AUTO VRB06KT 10SM OVC100 19/11 A3011 850 58 1500 VRB/06 RMK AO2
14926KSTC STC20060609004010106/09/06 00:40:31  5-MIN KSTC 090640Z AUTO 07007KT 10SM OVC100 19/11 A3011 850 58 1500 070/07 RMK AO2
14926KSTC STC20060609004510106/09/06 00:45:31  5-MIN KSTC 090645Z AUTO 08009KT 10SM OVC100 19/11 A3011 860 58 1500 080/09 RMK AO2
14926KSTC STC20060609005011806/09/06 00:50:31  5-MIN KSTC 090650Z AUTO 08007KT 10SM OVC100 19/11 A3011 850 58 1500 070/07 RMK AO2 SLP199 T01890106
14926KSTC STC20060609005510106/09/06 00:55:31  5-MIN KSTC 090655Z AUTO 08007KT 10SM OVC100 18/11 A3011 860 60 1500 070/07 RMK AO2
14926KSTC STC20060609010010106/09/06 01:00:31  5-MIN KSTC 090700Z AUTO 07006KT 10SM OVC100 18/11 A3010 860 60 1500 070/06 RMK AO2
14926KSTC STC20060609010510106/09/06 01:05:31  5-MIN KSTC 090705Z AUTO VRB06KT 10SM OVC100 18/11 A3010 860 60 1500 VRB/06 RMK AO2
14926KSTC STC20060609011010106/09/06 01:10:31  5-MIN KSTC 090710Z AUTO 08008KT 10SM OVC100 18/11 A3010 860 60 1500 080/08 RMK AO2
14926KSTC STC20060609011510106/09/06 01:15:31  5-MIN KSTC 090715Z AUTO 08008KT 10SM OVC100 18/11 A3010 860 60 1500 080/08 RMK AO2
14926KSTC STC20060609012010106/09/06 01:20:31  5-MIN KSTC 090720Z AUTO 07007KT 10SM OVC100 18/10 A3010 860 58 1500 070/07 RMK AO2
14926KSTC STC20060609012510106/09/06 01:25:31  5-MIN KSTC 090725Z AUTO 08006KT 10SM OVC095 18/10 A3010 860 58 1500 080/06 RMK AO2
14926KSTC STC20060609013010106/09/06 01:30:31  5-MIN KSTC 090730Z AUTO 08006KT 10SM OVC100 18/10 A3010 860 58 1500 080/06 RMK AO2
14926KSTC STC20060609013510106/09/06 01:35:31  5-MIN KSTC 090735Z AUTO 08005KT 10SM OVC095 18/10 A3011 860 58 1500 080/05 RMK AO2
14926KSTC STC20060609014010106/09/06 01:40:31  5-MIN KSTC 090740Z AUTO 09007KT 10SM OVC095 18/10 A3011 860 58 1500 080/07 RMK AO2
14926KSTC STC20060609014510106/09/06 01:45:31  5-MIN KSTC 090745Z AUTO 09006KT 10SM OVC100 18/10 A3010 860 58 1500 090/06 RMK AO2
14926KSTC STC20060609015011806/09/06 01:50:31  5-MIN KSTC 090750Z AUTO 10005KT 10SM OVC100 18/10 A3010 860 58 1500 100/05 RMK AO2 SLP199 T01830100
14926KSTC STC20060609015510106/09/06 01:55:31  5-MIN KSTC 090755Z AUTO 08005KT 10SM OVC100 18/10 A3011 850 58 1500 080/05 RMK AO2
14926KSTC STC20060609020010106/09/06 02:00:31  5-MIN KSTC 090800Z AUTO 09006KT 10SM OVC100 18/10 A3010 860 58 1500 090/06 RMK AO2
14926KSTC STC20060609020510106/09/06 02:05:31  5-MIN KSTC 090805Z AUTO 08005KT 10SM OVC100 18/10 A3010 860 58 1500 080/05 RMK AO2
14926KSTC STC20060609021010106/09/06 02:10:31  5-MIN KSTC 090810Z AUTO 09006KT 10SM OVC100 18/09 A3010 860 56 1500 080/06 RMK AO2
14926KSTC STC20060609021510106/09/06 02:15:31  5-MIN KSTC 090815Z AUTO 10006KT 10SM OVC100 18/09 A3010 860 56 1500 090/06 RMK AO2
14926KSTC STC20060609022010106/09/06 02:20:31  5-MIN KSTC 090820Z AUTO 09006KT 10SM OVC095 18/09 A3010 860 58 1400 090/06 RMK AO2
14926KSTC STC20060609022510106/09/06 02:25:31  5-MIN KSTC 090825Z AUTO 10006KT 10SM OVC095 18/09 A3010 860 58 1400 100/06 RMK AO2
14926KSTC STC20060609023010706/09/06 02:30:31  5-MIN KSTC 090830Z AUTO 10011G16KT 10SM OVC095 18/09 A3010 860 55 1400 090/11G16 RMK AO2
14926KSTC STC20060609023510706/09/06 02:35:31  5-MIN KSTC 090835Z AUTO 09010G16KT 10SM OVC100 18/09 A3010 860 55 1400 090/10G16 RMK AO2
14926KSTC STC20060609024010806/09/06 02:40:31  5-MIN KSTC 090840Z AUTO 09008KT 10SM BKN100 OVC120 18/09 A3010 860 55 1400 090/08 RMK AO2
14926KSTC STC20060609024510806/09/06 02:45:31  5-MIN KSTC 090845Z AUTO 09007KT 10SM BKN100 OVC120 18/09 A3010 860 55 1400 080/07 RMK AO2
14926KSTC STC20060609025012406/09/06 02:50:31  5-MIN KSTC 090850Z AUTO 09008KT 10SM OVC110 18/09 A3010 860 55 1400 080/08 RMK AO2 SLP197 T01780089 51006
14926KSTC STC20060609025510106/09/06 02:55:31  5-MIN KSTC 090855Z AUTO 08009KT 10SM OVC110 18/09 A3009 870 55 1400 080/09 RMK AO2
14926KSTC STC20060609030010106/09/06 03:00:31  5-MIN KSTC 090900Z AUTO 09009KT 10SM OVC110 18/09 A3010 860 55 1400 090/09 RMK AO2
14926KSTC STC20060609030510106/09/06 03:05:31  5-MIN KSTC 090905Z AUTO 08009KT 10SM OVC110 18/08 A3010 860 53 1400 080/09 RMK AO2
14926KSTC STC20060609031010106/09/06 03:10:31  5-MIN KSTC 090910Z AUTO 09010KT 10SM OVC100 18/08 A3010 860 53 1400 080/10 RMK AO2
14926KSTC STC20060609031510106/09/06 03:15:31  5-MIN KSTC 090915Z AUTO 09008KT 10SM OVC100 18/08 A3010 860 53 1400 080/08 RMK AO2
14926KSTC STC20060609032010106/09/06 03:20:31  5-MIN KSTC 090920Z AUTO 09008KT 10SM OVC100 18/08 A3011 850 53 1400 090/08 RMK AO2
14926KSTC STC20060609032510106/09/06 03:25:31  5-MIN KSTC 090925Z AUTO 08008KT 10SM OVC100 17/08 A3011 850 55 1300 080/08 RMK AO2
14926KSTC STC20060609033010106/09/06 03:30:31  5-MIN KSTC 090930Z AUTO 08007KT 10SM OVC100 17/08 A3011 850 55 1400 080/07 RMK AO2
14926KSTC STC20060609033510106/09/06 03:35:31  5-MIN KSTC 090935Z AUTO 08006KT 10SM OVC100 17/08 A3011 860 55 1400 080/06 RMK AO2
14926KSTC STC20060609034010106/09/06 03:40:31  5-MIN KSTC 090940Z AUTO 08007KT 10SM OVC100 17/08 A3011 850 55 1400 080/07 RMK AO2
14926KSTC STC20060609034510106/09/06 03:45:31  5-MIN KSTC 090945Z AUTO 09007KT 10SM OVC100 17/08 A3010 860 55 1400 080/07 RMK AO2
14926KSTC STC20060609035011806/09/06 03:50:31  5-MIN KSTC 090950Z AUTO 09007KT 10SM OVC100 17/08 A3010 860 55 1400 090/07 RMK AO2 SLP198 T01720083
14926KSTC STC20060609035510106/09/06 03:55:31  5-MIN KSTC 090955Z AUTO 09008KT 10SM OVC100 17/08 A3010 860 55 1400 090/08 RMK AO2
14926KSTC STC20060609040010106/09/06 04:00:31  5-MIN KSTC 091000Z AUTO 09008KT 10SM OVC100 17/08 A3010 860 55 1400 090/08 RMK AO2
14926KSTC STC20060609040510106/09/06 04:05:31  5-MIN KSTC 091005Z AUTO 09007KT 10SM OVC095 17/08 A3010 860 55 1400 080/07 RMK AO2
14926KSTC STC20060609041010106/09/06 04:10:31  5-MIN KSTC 091010Z AUTO 09007KT 10SM OVC095 17/08 A3011 860 57 1300 080/07 RMK AO2
14926KSTC STC20060609041510106/09/06 04:15:31  5-MIN KSTC 091015Z AUTO 08006KT 10SM OVC095 17/08 A3011 850 57 1300 080/06 RMK AO2
14926KSTC STC20060609042010106/09/06 04:20:31  5-MIN KSTC 091020Z AUTO 08007KT 10SM OVC095 17/08 A3011 860 57 1300 080/07 RMK AO2
14926KSTC STC20060609042510106/09/06 04:25:31  5-MIN KSTC 091025Z AUTO 09006KT 10SM OVC100 17/08 A3011 850 57 1300 090/06 RMK AO2
14926KSTC STC20060609043010106/09/06 04:30:31  5-MIN KSTC 091030Z AUTO 09007KT 10SM OVC100 17/08 A3011 850 57 1300 090/07 RMK AO2
14926KSTC STC20060609043510106/09/06 04:35:31  5-MIN KSTC 091035Z AUTO 09007KT 10SM OVC100 17/08 A3011 850 57 1300 090/07 RMK AO2
14926KSTC STC20060609044010106/09/06 04:40:31  5-MIN KSTC 091040Z AUTO 09007KT 10SM OVC100 17/08 A3011 850 57 1300 090/07 RMK AO2
14926KSTC STC20060609044510806/09/06 04:45:31  5-MIN KSTC 091045Z AUTO 09006KT 10SM FEW080 OVC100 17/08 A3012 840 57 1300 090/06 RMK AO2
14926KSTC STC20060609045012506/09/06 04:50:31  5-MIN KSTC 091050Z AUTO 10008KT 10SM FEW080 OVC100 17/08 A3012 840 55 1300 090/08 RMK AO2 SLP205 T01670078
14926KSTC STC20060609045510806/09/06 04:55:31  5-MIN KSTC 091055Z AUTO 09005KT 10SM SCT080 OVC100 17/08 A3012 840 55 1300 090/05 RMK AO2
14926KSTC STC20060609050010806/09/06 05:00:31  5-MIN KSTC 091100Z AUTO 11008KT 10SM BKN080 OVC100 17/08 A3012 850 55 1300 110/08 RMK AO2
14926KSTC STC20060609050510806/09/06 05:05:31  5-MIN KSTC 091105Z AUTO 10007KT 10SM BKN080 OVC100 17/08 A3012 840 55 1300 090/07 RMK AO2
14926KSTC STC20060609051010806/09/06 05:10:31  5-MIN KSTC 091110Z AUTO 09008KT 10SM BKN080 OVC100 17/08 A3012 840 55 1300 090/08 RMK AO2
14926KSTC STC20060609051510806/09/06 05:15:31  5-MIN KSTC 091115Z AUTO 09006KT 10SM BKN080 OVC100 17/08 A3013 840 55 1300 080/06 RMK AO2
14926KSTC STC20060609052010806/09/06 05:20:31  5-MIN KSTC 091120Z AUTO 09009KT 10SM BKN080 OVC100 17/08 A3012 840 55 1300 090/09 RMK AO2
14926KSTC STC20060609052510806/09/06 05:25:31  5-MIN KSTC 091125Z AUTO 08006KT 10SM BKN080 OVC100 17/08 A3013 840 55 1300 080/06 RMK AO2
14926KSTC STC20060609053010806/09/06 05:30:31  5-MIN KSTC 091130Z AUTO 08006KT 10SM BKN080 OVC100 17/08 A3012 840 57 1300 080/06 RMK AO2
14926KSTC STC20060609053510106/09/06 05:35:31  5-MIN KSTC 091135Z AUTO 09007KT 10SM OVC085 17/08 A3012 840 57 1300 090/07 RMK AO2
14926KSTC STC20060609054010106/09/06 05:40:31  5-MIN KSTC 091140Z AUTO 09009KT 10SM OVC085 17/08 A3012 840 55 1300 090/09 RMK AO2
14926KSTC STC20060609054510106/09/06 05:45:31  5-MIN KSTC 091145Z AUTO 10008KT 10SM OVC085 16/08 A3013 830 57 1200 090/08 RMK AO2
14926KSTC STC20060609055013606/09/06 05:50:31  5-MIN KSTC 091150Z AUTO 10007KT 10SM OVC085 16/08 A3014 830 57 1200 090/07 RMK AO2 SLP210 T01610078 10194 20161 56006
14926KSTC STC20060609055510106/09/06 05:55:31  5-MIN KSTC 091155Z AUTO 09008KT 10SM OVC085 16/08 A3013 830 57 1200 090/08 RMK AO2
14926KSTC STC20060609060009606/09/06 06:00:31  5-MIN KSTC 091200Z 10008KT 10SM OVC090 16/08 A3012 840 57 1200 090/08 RMK AO2
14926KSTC STC20060609060509606/09/06 06:05:31  5-MIN KSTC 091205Z 09009KT 10SM OVC090 16/08 A3012 840 57 1200 090/09 RMK AO2
14926KSTC STC20060609061010206/09/06 06:10:31  5-MIN KSTC 091210Z 09010G16KT 10SM OVC090 16/08 A3012 840 57 1200 090/10G16 RMK AO2
14926KSTC STC20060609061510206/09/06 06:15:31  5-MIN KSTC 091215Z 10012G16KT 10SM OVC090 16/08 A3011 850 57 1200 100/12G16 RMK AO2
14926KSTC STC20060609062009606/09/06 06:20:31  5-MIN KSTC 091220Z 10009KT 10SM OVC090 16/08 A3012 840 57 1200 090/09 RMK AO2
14926KSTC STC20060609062510206/09/06 06:25:31  5-MIN KSTC 091225Z 10009G16KT 10SM OVC090 16/08 A3012 840 57 1200 100/09G16 RMK AO2
14926KSTC STC20060609063010206/09/06 06:30:31  5-MIN KSTC 091230Z 10011G15KT 10SM OVC090 16/07 A3012 840 55 1200 090/11G15 RMK AO2
14926KSTC STC20060609063510206/09/06 06:35:31  5-MIN KSTC 091235Z 09011G17KT 10SM OVC090 16/07 A3012 840 55 1200 090/11G17 RMK AO2
14926KSTC STC20060609064010206/09/06 06:40:31  5-MIN KSTC 091240Z 10010G17KT 10SM OVC090 16/07 A3011 850 55 1200 090/10G17 RMK AO2
14926KSTC STC20060609064509606/09/06 06:45:31  5-MIN KSTC 091245Z 09011KT 10SM OVC090 16/07 A3011 850 55 1200 090/11 RMK AO2
14926KSTC STC20060609065011306/09/06 06:50:31  5-MIN KSTC 091250Z 10010KT 10SM OVC090 16/07 A3010 860 55 1200 100/10 RMK AO2 SLP201 T01610072
14926KSTC STC20060609065510206/09/06 06:55:31  5-MIN KSTC 091255Z 09011G16KT 10SM OVC090 16/07 A3011 860 55 1200 090/11G16 RMK AO2
14926KSTC STC20060609070010206/09/06 07:00:31  5-MIN KSTC 091300Z 10012G16KT 10SM OVC090 16/07 A3011 850 55 1200 100/12G16 RMK AO2
14926KSTC STC20060609070510206/09/06 07:05:31  5-MIN KSTC 091305Z 09009G16KT 10SM OVC090 16/07 A3011 860 55 1200 090/09G16 RMK AO2
14926KSTC STC20060609071010206/09/06 07:10:31  5-MIN KSTC 091310Z 09009G16KT 10SM OVC090 16/08 A3011 860 57 1200 090/09G16 RMK AO2
14926KSTC STC20060609071509606/09/06 07:15:31  5-MIN KSTC 091315Z 10010KT 10SM OVC090 16/08 A3010 860 59 1200 090/10 RMK AO2
14926KSTC STC20060609072010206/09/06 07:20:31  5-MIN KSTC 091320Z 09009G17KT 10SM BKN090 16/08 A3011 860 59 1200 080/09G17 RMK AO2
14926KSTC STC20060609072510206/09/06 07:25:31  5-MIN KSTC 091325Z 10009G17KT 10SM OVC090 16/08 A3011 850 59 1200 100/09G17 RMK AO2
14926KSTC STC20060609073009606/09/06 07:30:31  5-MIN KSTC 091330Z 09011KT 10SM OVC090 16/08 A3010 860 59 1200 090/11 RMK AO2
14926KSTC STC20060609073509606/09/06 07:35:31  5-MIN KSTC 091335Z 10012KT 10SM OVC090 16/08 A3010 860 57 1200 090/12 RMK AO2
14926KSTC STC20060609074010206/09/06 07:40:31  5-MIN KSTC 091340Z 10012G17KT 10SM BKN090 16/08 A3010 860 57 1200 090/12G17 RMK AO2
14926KSTC STC20060609074511806/09/06 07:45:31  5-MIN KSTC 091345Z 09012G18KT 10SM -RA OVC085 16/08 A3010 860 59 1200 090/12G18 RMK AO2 RAB45 P0000
14926KSTC STC20060609075013506/09/06 07:50:31  5-MIN KSTC 091350Z 09009G18KT 10SM -RA OVC085 16/09 A3011 850 64 1200 090/09G18 RMK AO2 RAB45 SLP202 P0000 T01560089
14926KSTC STC20060609075510606/09/06 07:55:31  5-MIN KSTC 091355Z 10010KT 10SM -RA OVC085 16/09 A3011 850 64 1200 100/10 RMK AO2 P0000
14926KSTC STC20060609080010606/09/06 08:00:31  5-MIN KSTC 091400Z 09010KT 10SM -RA OVC085 16/09 A3011 850 64 1200 090/10 RMK AO2 P0000
14926KSTC STC20060609080510806/09/06 08:05:31  5-MIN KSTC 091405Z 09008KT 10SM OVC085 16/09 A3012 850 64 1100 080/08 RMK AO2 RAE04 P0000
14926KSTC STC20060609081010806/09/06 08:10:31  5-MIN KSTC 091410Z 09010KT 10SM OVC085 16/09 A3012 850 64 1100 090/10 RMK AO2 RAE04 P0000
14926KSTC STC20060609081510606/09/06 08:15:31  5-MIN KSTC 091415Z 07011KT 10SM -RA OVC085 16/08 A3011 850 62 1100 070/11 RMK AO2 P0000
14926KSTC STC20060609082010606/09/06 08:20:31  5-MIN KSTC 091420Z 08012KT 10SM -RA OVC085 16/09 A3012 850 64 1100 080/12 RMK AO2 P0000
14926KSTC STC20060609082511406/09/06 08:25:31  5-MIN KSTC 091425Z 08013G16KT 10SM OVC085 16/09 A3011 850 64 1200 080/13G16 RMK AO2 RAE25 P0000
14926KSTC STC20060609083011206/09/06 08:30:31  5-MIN KSTC 091430Z 09008G17KT 10SM -RA OVC085 16/09 A3012 840 64 1100 080/08G17 RMK AO2 P0000
14926KSTC STC20060609083511206/09/06 08:35:31  5-MIN KSTC 091435Z 07008G17KT 10SM -RA OVC080 16/09 A3012 840 64 1100 070/08G17 RMK AO2 P0000
14926KSTC STC20060609084011206/09/06 08:40:31  5-MIN KSTC 091440Z 09012G17KT 10SM -RA OVC080 15/09 A3011 850 69 1100 090/12G17 RMK AO2 P0000
14926KSTC STC20060609084511206/09/06 08:45:31  5-MIN KSTC 091445Z 08011G19KT 10SM -RA OVC080 15/09 A3011 850 69 1100 080/11G19 RMK AO2 P0000
14926KSTC STC20060609085014106/09/06 08:50:31  5-MIN KSTC 091450Z 09007G19KT 10SM -RA OVC080 15/09 A3011 850 69 1100 090/07G19 RMK AO2 SLP203 P0000 60000 T01500094 53012
14926KSTC STC20060609085510606/09/06 08:55:31  5-MIN KSTC 091455Z 10009KT 10SM -RA OVC080 14/10 A3011 850 74 1000 090/09 RMK AO2 P0000
14926KSTC STC20060609090010606/09/06 09:00:31  5-MIN KSTC 091500Z 09008KT 10SM -RA OVC080 14/10 A3011 850 74 1000 080/08 RMK AO2 P0000
14926KSTC STC20060609090510806/09/06 09:05:31  5-MIN KSTC 091505Z 08009KT 10SM OVC080 15/09 A3011 860 69 1100 080/09 RMK AO2 RAE04 P0000
14926KSTC STC20060609091010806/09/06 09:10:31  5-MIN KSTC 091510Z 08010KT 10SM OVC080 15/10 A3011 850 72 1100 080/10 RMK AO2 RAE04 P0000
14926KSTC STC20060609091510806/09/06 09:15:31  5-MIN KSTC 091515Z 10009KT 10SM OVC080 15/10 A3011 850 72 1100 090/09 RMK AO2 RAE04 P0000
14926KSTC STC20060609092010806/09/06 09:20:31  5-MIN KSTC 091520Z 09009KT 10SM OVC080 15/09 A3011 850 69 1100 090/09 RMK AO2 RAE04 P0000
14926KSTC STC20060609092510806/09/06 09:25:31  5-MIN KSTC 091525Z 08010KT 10SM OVC080 16/10 A3011 860 69 1200 080/10 RMK AO2 RAE04 P0000
14926KSTC STC20060609093010806/09/06 09:30:31  5-MIN KSTC 091530Z 08012KT 10SM OVC080 16/10 A3010 860 69 1200 080/12 RMK AO2 RAE04 P0000
14926KSTC STC20060609093511406/09/06 09:35:31  5-MIN KSTC 091535Z 09011G17KT 10SM OVC080 16/10 A3010 860 69 1200 090/11G17 RMK AO2 RAE04 P0000
14926KSTC STC20060609094010806/09/06 09:40:31  5-MIN KSTC 091540Z 08011KT 10SM OVC080 16/10 A3010 860 69 1200 080/11 RMK AO2 RAE04 P0000
14926KSTC STC20060609094511406/09/06 09:45:31  5-MIN KSTC 091545Z 09012G18KT 10SM OVC080 15/10 A3010 860 72 1100 080/12G18 RMK AO2 RAE04 P0000
14926KSTC STC20060609095013106/09/06 09:50:31  5-MIN KSTC 091550Z 09015G19KT 10SM OVC080 15/10 A3011 860 72 1100 080/15G19 RMK AO2 RAE04 SLP202 P0000 T01500100
14926KSTC STC20060609095510206/09/06 09:55:31  5-MIN KSTC 091555Z 10009G19KT 10SM OVC080 15/09 A3011 860 69 1100 090/09G19 RMK AO2
14926KSTC STC20060609100010206/09/06 10:00:31  5-MIN KSTC 091600Z 09012G19KT 10SM OVC080 15/09 A3010 860 69 1100 090/12G19 RMK AO2
14926KSTC STC20060609100510206/09/06 10:05:31  5-MIN KSTC 091605Z 08010G17KT 10SM OVC080 16/09 A3010 860 67 1200 080/10G17 RMK AO2
14926KSTC STC20060609101009606/09/06 10:10:31  5-MIN KSTC 091610Z 09010KT 10SM OVC080 16/09 A3010 860 67 1200 090/10 RMK AO2
14926KSTC STC20060609101509606/09/06 10:15:31  5-MIN KSTC 091615Z 09008KT 10SM OVC080 16/09 A3010 860 67 1200 090/08 RMK AO2
14926KSTC STC20060609102010206/09/06 10:20:31  5-MIN KSTC 091620Z 09010G17KT 10SM OVC080 15/09 A3010 860 69 1100 090/10G17 RMK AO2
14926KSTC STC20060609102510206/09/06 10:25:31  5-MIN KSTC 091625Z 08012G17KT 10SM OVC080 15/09 A3010 860 69 1100 080/12G17 RMK AO2
14926KSTC STC20060609103010206/09/06 10:30:31  5-MIN KSTC 091630Z 08009G17KT 10SM OVC080 15/09 A3010 860 69 1100 080/09G17 RMK AO2
14926KSTC STC20060609103510206/09/06 10:35:31  5-MIN KSTC 091635Z 08013G17KT 10SM OVC080 15/09 A3010 860 69 1100 080/13G17 RMK AO2
14926KSTC STC20060609104010206/09/06 10:40:31  5-MIN KSTC 091640Z 08010G17KT 10SM OVC080 15/09 A3010 860 66 1100 080/10G17 RMK AO2
14926KSTC STC20060609104509606/09/06 10:45:31  5-MIN KSTC 091645Z 08010KT 10SM OVC080 15/09 A3010 860 66 1100 070/10 RMK AO2
14926KSTC STC20060609105011306/09/06 10:50:31  5-MIN KSTC 091650Z 08010KT 10SM OVC080 15/09 A3010 860 66 1100 070/10 RMK AO2 SLP200 T01500089
14926KSTC STC20060609105509606/09/06 10:55:31  5-MIN KSTC 091655Z 09012KT 10SM OVC080 15/09 A3010 860 66 1100 090/12 RMK AO2
14926KSTC STC20060609110010206/09/06 11:00:31  5-MIN KSTC 091700Z 09012G17KT 10SM OVC080 15/09 A3011 850 66 1100 090/12G17 RMK AO2
14926KSTC STC20060609110510206/09/06 11:05:31  5-MIN KSTC 091705Z 08010G17KT 10SM OVC080 14/09 A3011 850 69 1000 080/10G17 RMK AO2
14926KSTC STC20060609111010206/09/06 11:10:31  5-MIN KSTC 091710Z 08009G16KT 10SM OVC080 15/09 A3011 850 66 1100 080/09G16 RMK AO2
14926KSTC STC20060609111509606/09/06 11:15:31  5-MIN KSTC 091715Z 09010KT 10SM OVC080 15/09 A3011 850 66 1100 090/10 RMK AO2
14926KSTC STC20060609112009606/09/06 11:20:31  5-MIN KSTC 091720Z 09008KT 10SM OVC080 15/09 A3011 850 66 1100 090/08 RMK AO2
14926KSTC STC20060609112510506/09/06 11:25:31  5-MIN KSTC 091725Z 09007KT 10SM TS OVC080 15/09 A3011 850 66 1100 090/07 RMK AO2 TSB21
14926KSTC STC20060609113011106/09/06 11:30:31  5-MIN KSTC 091730Z 09009G15KT 10SM TS OVC080 15/09 A3011 850 66 1100 090/09G15 RMK AO2 TSB21
14926KSTC STC20060609113511106/09/06 11:35:31  5-MIN KSTC 091735Z 09012G19KT 10SM TS OVC080 15/08 A3010 860 64 1100 090/12G19 RMK AO2 TSB21
14926KSTC STC20060609114011106/09/06 11:40:31  5-MIN KSTC 091740Z 09013G19KT 10SM OVC080 15/08 A3010 860 64 1100 090/13G19 RMK AO2 TSB21E36
14926KSTC STC20060609114510506/09/06 11:45:31  5-MIN KSTC 091745Z 08009KT 10SM OVC080 15/08 A3011 860 64 1100 080/09 RMK AO2 TSB21E36
14926KSTC STC20060609115014606/09/06 11:50:31  5-MIN KSTC 091750Z 09008KT 10SM OVC080 15/08 A3011 850 64 1100 090/08 RMK AO2 TSB21E36 SLP204 60000 T01500083 10161 20144 56007
14926KSTC STC20060609115509606/09/06 11:55:31  5-MIN KSTC 091755Z 08008KT 10SM OVC080 15/08 A3011 850 64 1100 080/08 RMK AO2
14926KSTC STC20060609120009606/09/06 12:00:31  5-MIN KSTC 091800Z 09008KT 10SM OVC080 15/08 A3012 840 64 1100 080/08 RMK AO2
14926KSTC STC20060609120510206/09/06 12:05:31  5-MIN KSTC 091805Z 08008G14KT 10SM OVC080 15/09 A3012 850 66 1100 080/08G14 RMK AO2
14926KSTC STC20060609121009606/09/06 12:10:31  5-MIN KSTC 091810Z 07007KT 10SM OVC080 14/08 A3012 840 66 1000 060/07 RMK AO2
14926KSTC STC20060609121509606/09/06 12:15:31  5-MIN KSTC 091815Z 07011KT 10SM OVC080 14/08 A3013 840 66 1000 060/11 RMK AO2
14926KSTC STC20060609122009606/09/06 12:20:31  5-MIN KSTC 091820Z 07009KT 10SM OVC080 14/08 A3013 830 66 1000 070/09 RMK AO2
14926KSTC STC20060609122511806/09/06 12:25:31  5-MIN KSTC 091825Z 07008KT 10SM -RA OVC080 14/09 A3014 820 71 900 060/08 RMK AO2 RAB21 PRESRR P0000
14926KSTC STC20060609123012406/09/06 12:30:31  5-MIN KSTC 091830Z 07009G14KT 10SM -RA FEW022 OVC080 13/09 A3014 820 74 900 060/09G14 RMK AO2 RAB21 P0001
14926KSTC STC20060609123511606/09/06 12:35:31  5-MIN KSTC 091835Z 06009KT 7SM RA SCT022 OVC080 13/09 A3014 820 74 900 060/09 RMK AO2 RAB21 P0002
14926KSTC STC20060609124011706/09/06 12:40:31  5-MIN KSTC 091840Z 06007KT 5SM -RA SCT027 OVC080 13/09 A3014 820 80 800 060/07 RMK AO2 RAB21 P0002
14926KSTC STC20060609124512406/09/06 12:45:31  5-MIN KSTC 091845Z 06010KT 5SM -TSRA BKN029 OVC080 13/09 A3014 830 80 800 060/10 RMK AO2 TSB42RAB21 P0003
14926KSTC STC20060609125014006/09/06 12:50:31  5-MIN KSTC 091850Z 06010KT 4SM TSRA BKN029 OVC080 12/09 A3013 830 83 700 050/10 RMK AO2 TSB42RAB21 SLP213 P0004 T01220094
14926KSTC STC20060609125512206/09/06 12:55:31  5-MIN KSTC 091855Z 06010KT 3SM TSRA BR BKN027 OVC080 12/09 A3012 840 86 700 060/10 RMK AO2 PRESFR P0001
14926KSTC STC20060609130012106/09/06 13:00:31  5-MIN KSTC 091900Z 07011KT 3SM RA BR OVC027 12/10 A3010 860 89 700 070/11 RMK AO2 TSE1857 PRESFR P0003
14926KSTC STC20060609130512106/09/06 13:05:31  5-MIN KSTC 091905Z 08013KT 3SM RA BR OVC027 12/09 A3007 890 86 700 070/13 RMK AO2 TSE1857 PRESFR P0005
14926KSTC STC20060609131012106/09/06 13:10:31  5-MIN KSTC 091910Z 08012KT 3SM RA BR OVC025 12/09 A3006 890 86 700 070/12 RMK AO2 TSE1857 PRESFR P0008
14926KSTC STC20060609131512706/09/06 13:15:31  5-MIN KSTC 091915Z 10015G20KT 3SM RA BR OVC023 12/09 A3004 920 86 800 100/15G20 RMK AO2 TSE1857 PRESFR P0011
14926KSTC STC20060609132012106/09/06 13:20:31  5-MIN KSTC 091920Z 10014G22KT 4SM -RA BR OVC021 12/09 A3004 910 86 800 090/14G22 RMK AO2 TSE1857 P0012
14926KSTC STC20060609132512506/09/06 13:25:31  5-MIN KSTC 091925Z 06006G22KT 7SM -RA BKN023 OVC065 12/10 A3009 870 89 700 060/06G22 RMK AO2 TSE1857 P0012
14926KSTC STC20060609133013306/09/06 13:30:31  5-MIN KSTC 091930Z 03009G17KT 10SM -RA BKN025 OVC065 12/10 A3010 860 89 700 030/09G17 RMK AO2 TSE1857 PRESRR P0012
14926KSTC STC20060609133514006/09/06 13:35:31  5-MIN KSTC 091935Z 06008G15KT 10SM -RA BKN027 BKN055 OVC070 12/10 A3011 850 89 700 060/08G15 RMK AO2 TSE1857 PRESRR P0012
14926KSTC STC20060609134012606/09/06 13:40:31  5-MIN KSTC 091940Z 07008KT 9SM -RA SCT025 BKN055 OVC070 12/10 A3010 860 86 800 070/08 RMK AO2 TSE1857 P0012
14926KSTC STC20060609134512606/09/06 13:45:31  5-MIN KSTC 091945Z 08010KT 7SM -RA SCT025 BKN060 OVC070 12/11 A3010 860 89 800 080/10 RMK AO2 TSE1857 P0013
14926KSTC STC20060609135013206/09/06 13:50:31  5-MIN KSTC 091950Z 07006G14KT 7SM -RA BKN023 BKN060 OVC070 12/11 A3010 860 89 800 060/06G14 RMK AO2 TSE1857 P0013
14926KSTC STC20060609135512506/09/06 13:55:31  5-MIN KSTC 091955Z 06011G16KT 10SM -RA SCT021 BKN055 BKN070 12/11 A3009 870 89 800 060/11G16 RMK AO2 P0000
14926KSTC STC20060609140011806/09/06 14:00:31  5-MIN KSTC 092000Z 07009G16KT 10SM -RA SCT032 BKN070 12/10 A3009 870 86 800 060/09G16 RMK AO2 P0000
14926KSTC STC20060609140511406/09/06 14:05:31  5-MIN KSTC 092005Z 06011KT 10SM SCT038 BKN070 12/10 A3010 860 86 800 060/11 RMK AO2 RAE01 P0000
14926KSTC STC20060609141012006/09/06 14:10:31  5-MIN KSTC 092010Z 06012G16KT 10SM SCT034 BKN070 12/10 A3010 860 86 800 060/12G16 RMK AO2 RAE01 P0000
14926KSTC STC20060609141511406/09/06 14:15:31  5-MIN KSTC 092015Z 06010KT 10SM FEW036 OVC070 12/10 A3010 860 86 800 060/10 RMK AO2 RAE01 P0000
14926KSTC STC20060609142011406/09/06 14:20:31  5-MIN KSTC 092020Z 06010KT 10SM FEW055 OVC070 12/10 A3010 860 86 800 060/10 RMK AO2 RAE01 P0000
14926KSTC STC20060609142510706/09/06 14:25:31  5-MIN KSTC 092025Z 06010KT 10SM OVC070 12/10 A3010 860 86 800 060/10 RMK AO2 RAE01 P0000
14926KSTC STC20060609143010706/09/06 14:30:31  5-MIN KSTC 092030Z 06010KT 10SM OVC070 13/10 A3010 860 83 800 050/10 RMK AO2 RAE01 P0000
14926KSTC STC20060609143511306/09/06 14:35:31  5-MIN KSTC 092035Z 06012G16KT 10SM OVC070 13/10 A3011 860 83 800 050/12G16 RMK AO2 RAE01 P0000
14926KSTC STC20060609144010706/09/06 14:40:31  5-MIN KSTC 092040Z 06011KT 10SM OVC070 13/10 A3010 860 83 800 060/11 RMK AO2 RAE01 P0000
14926KSTC STC20060609144510706/09/06 14:45:31  5-MIN KSTC 092045Z 06008KT 10SM OVC070 13/10 A3011 850 83 800 050/08 RMK AO2 RAE01 P0000
14926KSTC STC20060609145013606/09/06 14:50:31  5-MIN KSTC 092050Z 06011KT 10SM OVC075 13/10 A3011 850 83 800 060/11 RMK AO2 RAE01 SLP204 P0000 60019 T01280100 53000
14926KSTC STC20060609145509506/09/06 14:55:31  5-MIN KSTC 092055Z 06009KT 10SM OVC075 13/10 A3011 850 83 800 060/09 RMK AO2
14926KSTC STC20060609150010106/09/06 15:00:31  5-MIN KSTC 092100Z 07010G16KT 10SM OVC075 13/10 A3010 860 83 800 060/10G16 RMK AO2
14926KSTC STC20060609150510106/09/06 15:05:31  5-MIN KSTC 092105Z 06014G18KT 10SM OVC075 13/10 A3010 860 83 800 050/14G18 RMK AO2
14926KSTC STC20060609151010106/09/06 15:10:31  5-MIN KSTC 092110Z 06012G18KT 10SM OVC075 13/09 A3010 860 80 800 060/12G18 RMK AO2
14926KSTC STC20060609151510106/09/06 15:15:31  5-MIN KSTC 092115Z 07011G17KT 10SM OVC075 13/10 A3010 860 83 800 060/11G17 RMK AO2
14926KSTC STC20060609152010106/09/06 15:20:31  5-MIN KSTC 092120Z 06012G21KT 10SM OVC075 13/09 A3010 860 80 800 060/12G21 RMK AO2
14926KSTC STC20060609152510106/09/06 15:25:31  5-MIN KSTC 092125Z 06010G21KT 10SM OVC075 13/09 A3009 870 80 800 060/10G21 RMK AO2
14926KSTC STC20060609153010106/09/06 15:30:31  5-MIN KSTC 092130Z 06012G19KT 10SM OVC075 12/09 A3009 870 83 800 060/12G19 RMK AO2
14926KSTC STC20060609153510106/09/06 15:35:31  5-MIN KSTC 092135Z 06012G19KT 10SM OVC075 12/09 A3010 860 83 800 050/12G19 RMK AO2
14926KSTC STC20060609154010106/09/06 15:40:31  5-MIN KSTC 092140Z 06012G16KT 10SM OVC075 12/09 A3010 860 83 800 050/12G16 RMK AO2
14926KSTC STC20060609154511706/09/06 15:45:31  5-MIN KSTC 092145Z 06013G18KT 10SM -RA OVC075 12/09 A3009 870 83 800 060/13G18 RMK AO2 RAB43 P0000
14926KSTC STC20060609155013406/09/06 15:50:31  5-MIN KSTC 092150Z 07013G18KT 10SM -RA OVC075 12/09 A3009 870 80 800 060/13G18 RMK AO2 RAB43 SLP199 P0000 T01220089
14926KSTC STC20060609155511106/09/06 15:55:31  5-MIN KSTC 092155Z 07011G20KT 10SM -RA OVC075 12/09 A3009 870 80 800 070/11G20 RMK AO2 P0000
14926KSTC STC20060609160011306/09/06 16:00:31  5-MIN KSTC 092200Z 07011G20KT 10SM OVC080 12/09 A3009 870 80 800 060/11G20 RMK AO2 RAE00 P0000
14926KSTC STC20060609160511106/09/06 16:05:31  5-MIN KSTC 092205Z 06011G16KT 10SM -RA OVC080 12/09 A3009 870 83 700 060/11G16 RMK AO2 P0000
14926KSTC STC20060609161011106/09/06 16:10:31  5-MIN KSTC 092210Z 06009G16KT 10SM -RA OVC080 12/08 A3009 870 80 700 060/09G16 RMK AO2 P0000
14926KSTC STC20060609161511106/09/06 16:15:31  5-MIN KSTC 092215Z 07010G17KT 10SM -RA OVC080 12/08 A3008 870 80 700 060/10G17 RMK AO2 P0000
14926KSTC STC20060609162011106/09/06 16:20:31  5-MIN KSTC 092220Z 07012G18KT 10SM -RA OVC080 12/08 A3008 880 80 700 070/12G18 RMK AO2 P0000
14926KSTC STC20060609162511306/09/06 16:25:31  5-MIN KSTC 092225Z 08010G18KT 10SM OVC080 12/08 A3009 870 80 700 080/10G18 RMK AO2 RAE25 P0000
14926KSTC STC20060609163010506/09/06 16:30:31  5-MIN KSTC 092230Z 06012KT 10SM -RA OVC075 12/08 A3009 870 77 700 060/12 RMK AO2 P0000
14926KSTC STC20060609163511106/09/06 16:35:31  5-MIN KSTC 092235Z 06011G17KT 10SM -RA OVC075 11/07 A3009 870 77 600 060/11G17 RMK AO2 P0000
14926KSTC STC20060609164011106/09/06 16:40:31  5-MIN KSTC 092240Z 06012G19KT 10SM -RA OVC075 11/07 A3009 870 74 600 060/12G19 RMK AO2 P0000
14926KSTC STC20060609164511106/09/06 16:45:31  5-MIN KSTC 092245Z 07014G20KT 10SM -RA OVC075 11/07 A3009 870 74 600 070/14G20 RMK AO2 P0000
14926KSTC STC20060609165012806/09/06 16:50:31  5-MIN KSTC 092250Z 08013G22KT 10SM -RA OVC075 11/06 A3009 870 74 600 070/13G22 RMK AO2 SLP200 P0000 T01060061
14926KSTC STC20060609165510706/09/06 16:55:31  5-MIN KSTC 092255Z 06011G22KT 10SM OVC075 11/06 A3009 870 74 600 050/11G22 RMK AO2 RAE54
14926KSTC STC20060609170010906/09/06 17:00:31  5-MIN KSTC 092300Z 06012G19KT 10SM OVC075 11/06 A3009 870 71 600 060/12G19 RMK AO2 RAE2254
14926KSTC STC20060609170510906/09/06 17:05:31  5-MIN KSTC 092305Z 07016G20KT 10SM OVC075 10/06 A3009 870 74 500 070/16G20 RMK AO2 RAE2254
14926KSTC STC20060609171010906/09/06 17:10:31  5-MIN KSTC 092310Z 07011G20KT 10SM OVC075 10/06 A3009 870 74 500 070/11G20 RMK AO2 RAE2254
14926KSTC STC20060609171510306/09/06 17:15:31  5-MIN KSTC 092315Z 06012KT 10SM OVC075 10/06 A3009 870 74 500 060/12 RMK AO2 RAE2254
14926KSTC STC20060609172010906/09/06 17:20:31  5-MIN KSTC 092320Z 07013G17KT 10SM OVC075 10/06 A3009 870 77 500 070/13G17 RMK AO2 RAE2254
14926KSTC STC20060609172510906/09/06 17:25:31  5-MIN KSTC 092325Z 08014G20KT 10SM OVC075 09/06 A3009 870 76 500 070/14G20 RMK AO2 RAE2254
14926KSTC STC20060609173010906/09/06 17:30:31  5-MIN KSTC 092330Z 06011G20KT 10SM OVC075 09/06 A3010 860 76 400 050/11G20 RMK AO2 RAE2254
14926KSTC STC20060609173510306/09/06 17:35:31  5-MIN KSTC 092335Z 07012KT 10SM OVC075 09/06 A3010 860 76 400 070/12 RMK AO2 RAE2254
14926KSTC STC20060609174010306/09/06 17:40:31  5-MIN KSTC 092340Z 08010KT 10SM OVC075 09/06 A3010 860 79 400 070/10 RMK AO2 RAE2254
14926KSTC STC20060609174510906/09/06 17:45:31  5-MIN KSTC 092345Z 07008G16KT 10SM OVC075 09/06 A3010 860 79 400 070/08G16 RMK AO2 RAE2254
14926KSTC STC20060609175015006/09/06 17:50:31  5-MIN KSTC 092350Z 06010G16KT 10SM OVC075 09/06 A3010 860 79 400 060/10G16 RMK AO2 RAE2254 SLP204 60019 T00890056 10150 20089 55009
14926KSTC STC20060609175511106/09/06 17:55:31  5-MIN KSTC 092355Z 07008G16KT 10SM -RA OVC075 09/06 A3010 860 83 400 070/08G16 RMK AO2 P0000
14926KSTC STC20060609180010506/09/06 18:00:31  5-MIN KSTC 100000Z 06010KT 10SM -RA OVC075 09/06 A3009 870 83 400 060/10 RMK AO2 P0000
14926KSTC STC20060609180510506/09/06 18:05:31  5-MIN KSTC 100005Z 07008KT 10SM -RA OVC080 09/06 A3009 870 83 400 070/08 RMK AO2 P0000
14926KSTC STC20060609181010506/09/06 18:10:31  5-MIN KSTC 100010Z 06009KT 10SM -RA OVC080 09/06 A3010 860 83 400 060/09 RMK AO2 P0000
14926KSTC STC20060609181510506/09/06 18:15:31  5-MIN KSTC 100015Z 05010KT 10SM -RA OVC080 09/06 A3010 860 83 400 050/10 RMK AO2 P0000
14926KSTC STC20060609182011106/09/06 18:20:31  5-MIN KSTC 100020Z 06009G16KT 10SM -RA OVC080 09/06 A3010 860 83 400 060/09G16 RMK AO2 P0000
14926KSTC STC20060609182511106/09/06 18:25:31  5-MIN KSTC 100025Z 06010G16KT 10SM -RA OVC080 09/06 A3009 870 79 400 060/10G16 RMK AO2 P0000
14926KSTC STC20060609183011206/09/06 18:30:31  5-MIN KSTC 100030Z 06011KT 10SM -RA FEW060 OVC085 09/06 A3009 870 79 400 050/11 RMK AO2 P0000
14926KSTC STC20060609183511806/09/06 18:35:31  5-MIN KSTC 100035Z 06011G17KT 10SM -RA FEW055 OVC085 09/06 A3009 870 79 400 050/11G17 RMK AO2 P0000
14926KSTC STC20060609184011806/09/06 18:40:31  5-MIN KSTC 100040Z 06009G18KT 10SM -RA FEW060 OVC090 08/06 A3009 870 82 300 050/09G18 RMK AO2 P0000
14926KSTC STC20060609184511806/09/06 18:45:31  5-MIN KSTC 100045Z 06013G18KT 10SM -RA FEW055 OVC090 08/05 A3009 870 79 300 060/13G18 RMK AO2 P0001
14926KSTC STC20060609185012906/09/06 18:50:31  5-MIN KSTC 100050Z 06013KT 10SM -RA FEW055 OVC090 08/05 A3009 870 79 300 050/13 RMK AO2 SLP201 P0001 T00830050
14926KSTC STC20060609185511106/09/06 18:55:31  5-MIN KSTC 100055Z 05014G18KT 10SM -RA OVC090 08/04 A3009 870 76 300 050/14G18 RMK AO2 P0000
14926KSTC STC20060609190011106/09/06 19:00:31  5-MIN KSTC 100100Z 05010G20KT 10SM -RA OVC090 08/04 A3010 860 76 200 050/10G20 RMK AO2 P0000
14926KSTC STC20060609190511006/09/06 19:05:31  5-MIN KSTC 100105Z 04012G20KT 7SM -RA OVC090 08/04 A3010 860 76 200 040/12G20 RMK AO2 P0000
14926KSTC STC20060609191010406/09/06 19:10:31  5-MIN KSTC 100110Z 05008KT 6SM -RA OVC090 07/04 A3010 870 82 200 050/08 RMK AO2 P0000
14926KSTC STC20060609191511306/09/06 19:15:31  5-MIN KSTC 100115Z 05014G18KT 6SM -RA BR OVC090 07/05 A3010 860 86 200 040/14G18 RMK AO2 P0001
14926KSTC STC20060609192011006/09/06 19:20:31  5-MIN KSTC 100120Z 05015G20KT 7SM -RA OVC090 07/04 A3009 870 82 200 050/15G20 RMK AO2 P0001
14926KSTC STC20060609192511006/09/06 19:25:31  5-MIN KSTC 100125Z 05015G22KT 7SM -RA OVC090 07/04 A3008 880 79 200 050/15G22 RMK AO2 P0001
14926KSTC STC20060609193011006/09/06 19:30:31  5-MIN KSTC 100130Z 05013G23KT 8SM -RA OVC090 07/04 A3008 880 82 100 040/13G23 RMK AO2 P0002
14926KSTC STC20060609193511106/09/06 19:35:31  5-MIN KSTC 100135Z 06013G23KT 10SM -RA OVC090 07/04 A3008 880 82 100 050/13G23 RMK AO2 P0002
14926KSTC STC20060609194011806/09/06 19:40:31  5-MIN KSTC 100140Z 06013G22KT 10SM -RA FEW070 OVC090 07/03 A3008 880 79 100 060/13G22 RMK AO2 P0002
14926KSTC STC20060609194511806/09/06 19:45:31  5-MIN KSTC 100145Z 06010G22KT 10SM -RA SCT047 OVC090 07/03 A3008 880 79 100 060/10G22 RMK AO2 P0002
14926KSTC STC20060609195012806/09/06 19:50:31  5-MIN KSTC 100150Z 07011KT 8SM -RA SCT039 OVC090 07/03 A3008 870 79 100 070/11 RMK AO2 SLP200 P0002 T00670033
14926KSTC STC20060609195511706/09/06 19:55:31  5-MIN KSTC 100155Z 06012G17KT 7SM -RA BKN037 OVC090 07/03 A3009 870 79 100 060/12G17 RMK AO2 P0000
14926KSTC STC20060609200011506/09/06 20:00:31  5-MIN KSTC 100200Z 06010G17KT 7SM -RA BKN041 OVC090 06/04 A3010 860 86 0 060/10G17 RMK AO2 P0000
14926KSTC STC20060609200511606/09/06 20:05:31  5-MIN KSTC 100205Z 06010KT 9SM -RA BKN043 OVC090 06/04 A3010 860 86 0 050/10 RMK AO2 PRESRR P0001
14926KSTC STC20060609201011706/09/06 20:10:31  5-MIN KSTC 100210Z 06009KT 10SM -RA BKN041 BKN055 OVC085 06/04 A3010 860 86 0 060/09 RMK AO2 P0001
14926KSTC STC20060609201511706/09/06 20:15:31  5-MIN KSTC 100215Z 07009KT 10SM -RA SCT041 BKN055 OVC085 06/04 A3010 860 86 0 060/09 RMK AO2 P0001
14926KSTC STC20060609202011706/09/06 20:20:31  5-MIN KSTC 100220Z 06008KT 10SM -RA SCT043 BKN055 OVC085 06/04 A3010 860 86 0 060/08 RMK AO2 P0001
14926KSTC STC20060609202511606/09/06 20:25:31  5-MIN KSTC 100225Z 06008KT 9SM -RA FEW047 SCT055 OVC085 06/04 A3010 860 86 0 060/08 RMK AO2 P0002
14926KSTC STC20060609203010906/09/06 20:30:31  5-MIN KSTC 100230Z 06008KT 8SM -RA FEW049 OVC085 06/04 A3009 870 86 0 060/08 RMK AO2 P0002
14926KSTC STC20060609203510906/09/06 20:35:31  5-MIN KSTC 100235Z 07007KT 9SM -RA FEW055 OVC085 06/04 A3010 860 86 0 060/07 RMK AO2 P0003
14926KSTC STC20060609204010506/09/06 20:40:31  5-MIN KSTC 100240Z 06007KT 10SM -RA OVC085 07/04 A3009 870 86 100 060/07 RMK AO2 P0003
14926KSTC STC20060609204510506/09/06 20:45:31  5-MIN KSTC 100245Z 06008KT 10SM -RA OVC085 07/04 A3008 880 86 100 060/08 RMK AO2 P0003
14926KSTC STC20060609205014106/09/06 20:50:31  5-MIN KSTC 100250Z 06008KT 10SM -RA BKN085 OVC110 07/04 A3008 870 86 100 060/08 RMK AO2 SLP200 P0003 60006 T00670044 55002
14926KSTC STC20060609205511206/09/06 20:55:31  5-MIN KSTC 100255Z 07008KT 10SM -RA BKN085 OVC110 07/04 A3009 870 86 100 070/08 RMK AO2 P0000
14926KSTC STC20060609210010506/09/06 21:00:31  5-MIN KSTC 100300Z 07007KT 10SM -RA OVC085 07/04 A3009 870 86 100 060/07 RMK AO2 P0000
14926KSTC STC20060609210510706/09/06 21:05:31  5-MIN KSTC 100305Z 07007KT 10SM OVC085 07/04 A3009 870 86 100 070/07 RMK AO2 RAE02 P0000
14926KSTC STC20060609211010706/09/06 21:10:31  5-MIN KSTC 100310Z VRB05KT 10SM OVC090 07/04 A3009 870 86 100 VRB/05 RMK AO2 RAE02 P0000
14926KSTC STC20060609211510706/09/06 21:15:31  5-MIN KSTC 100315Z 07006KT 10SM OVC090 07/05 A3009 870 89 100 060/06 RMK AO2 RAE02 P0000
14926KSTC STC20060609212010706/09/06 21:20:31  5-MIN KSTC 100320Z 07005KT 10SM OVC090 07/05 A3009 870 89 100 070/05 RMK AO2 RAE02 P0000
14926KSTC STC20060609212510706/09/06 21:25:31  5-MIN KSTC 100325Z 06006KT 10SM OVC090 07/05 A3009 870 89 100 060/06 RMK AO2 RAE02 P0000
14926KSTC STC20060609213010706/09/06 21:30:31  5-MIN KSTC 100330Z 08006KT 10SM OVC090 07/05 A3009 870 86 200 070/06 RMK AO2 RAE02 P0000
14926KSTC STC20060609213510706/09/06 21:35:31  5-MIN KSTC 100335Z VRB06KT 10SM OVC090 07/05 A3009 870 86 200 VRB/06 RMK AO2 RAE02 P0000
14926KSTC STC20060609214010706/09/06 21:40:31  5-MIN KSTC 100340Z 07006KT 10SM OVC090 07/05 A3009 870 86 200 070/06 RMK AO2 RAE02 P0000
14926KSTC STC20060609214511406/09/06 21:45:31  5-MIN KSTC 100345Z 07006KT 10SM -RA OVC090 07/05 A3008 870 86 200 070/06 RMK AO2 RAE02B44 P0000
14926KSTC STC20060609215013606/09/06 21:50:31  5-MIN KSTC 100350Z AUTO 07007KT 10SM -RA OVC090 07/05 A3009 870 86 200 070/07 RMK AO2 RAE02B44 SLP200 P0000 T00720050
14926KSTC STC20060609215511006/09/06 21:55:31  5-MIN KSTC 100355Z AUTO 07007KT 10SM -RA OVC090 07/05 A3009 870 86 200 070/07 RMK AO2 P0000
14926KSTC STC20060609220011406/09/06 22:00:31  5-MIN KSTC 100400Z AUTO 06007KT 10SM OVC090 07/05 A3009 870 86 200 050/07 RMK AO2 RAE0357 P0000
14926KSTC STC20060609220511406/09/06 22:05:31  5-MIN KSTC 100405Z AUTO 05007KT 10SM OVC090 07/05 A3008 880 86 200 050/07 RMK AO2 RAE0357 P0000
14926KSTC STC20060609221012106/09/06 22:10:31  5-MIN KSTC 100410Z AUTO 06008KT 10SM FEW070 OVC090 08/05 A3008 880 82 300 060/08 RMK AO2 RAE0357 P0000
14926KSTC STC20060609221512106/09/06 22:15:31  5-MIN KSTC 100415Z AUTO 05008KT 10SM FEW070 OVC090 08/05 A3008 880 82 300 050/08 RMK AO2 RAE0357 P0000
14926KSTC STC20060609222012106/09/06 22:20:31  5-MIN KSTC 100420Z AUTO 06008KT 10SM FEW065 OVC090 08/05 A3008 880 82 300 060/08 RMK AO2 RAE0357 P0000
14926KSTC STC20060609222512806/09/06 22:25:31  5-MIN KSTC 100425Z AUTO 07008KT 10SM -RA SCT070 OVC090 08/05 A3008 880 82 300 070/08 RMK AO2 RAE0357B25 P0000
14926KSTC STC20060609223012806/09/06 22:30:31  5-MIN KSTC 100430Z AUTO 07007KT 10SM -RA BKN065 OVC090 08/05 A3008 880 82 300 070/07 RMK AO2 RAE0357B25 P0000
14926KSTC STC20060609223512806/09/06 22:35:31  5-MIN KSTC 100435Z AUTO 06008KT 10SM -RA BKN065 OVC090 08/05 A3008 880 82 300 060/08 RMK AO2 RAE0357B25 P0000
14926KSTC STC20060609224012806/09/06 22:40:31  5-MIN KSTC 100440Z AUTO 06007KT 10SM -RA BKN060 OVC090 08/05 A3008 880 82 300 060/07 RMK AO2 RAE0357B25 P0000
14926KSTC STC20060609224512806/09/06 22:45:31  5-MIN KSTC 100445Z AUTO 06009KT 10SM -RA BKN060 OVC090 08/05 A3008 880 82 300 060/09 RMK AO2 RAE0357B25 P0000
14926KSTC STC20060609225013806/09/06 22:50:31  5-MIN KSTC 100450Z AUTO 07007KT 10SM -RA OVC060 08/04 A3008 880 79 300 070/07 RMK AO2 RAE0357B25 SLP198 P0000 T00780044
14926KSTC STC20060609225510706/09/06 22:55:31  5-MIN KSTC 100455Z AUTO 07006KT 10SM FEW049 OVC065 08/04 A3009 870 79 300 070/06 RMK AO2
14926KSTC STC20060609230010706/09/06 23:00:31  5-MIN KSTC 100500Z AUTO 07006KT 10SM SCT047 OVC060 08/04 A3009 870 79 300 070/06 RMK AO2
14926KSTC STC20060609230510706/09/06 23:05:31  5-MIN KSTC 100505Z AUTO 08006KT 10SM BKN045 OVC060 08/04 A3009 870 79 300 070/06 RMK AO2
14926KSTC STC20060609231012306/09/06 23:10:31  5-MIN KSTC 100510Z AUTO 09005KT 10SM -RA BKN045 OVC065 08/04 A3009 870 79 200 080/05 RMK AO2 RAB07 P0000
14926KSTC STC20060609231512306/09/06 23:15:31  5-MIN KSTC 100515Z AUTO 09006KT 10SM -RA BKN045 OVC070 08/04 A3009 870 79 200 080/06 RMK AO2 RAB07 P0000
14926KSTC STC20060609232011606/09/06 23:20:31  5-MIN KSTC 100520Z AUTO 07004KT 10SM -RA OVC047 08/04 A3009 870 79 200 070/04 RMK AO2 RAB07 P0000
14926KSTC STC20060609232511606/09/06 23:25:31  5-MIN KSTC 100525Z AUTO 08005KT 10SM -RA OVC047 08/04 A3010 860 79 200 080/05 RMK AO2 RAB07 P0001
14926KSTC STC20060609233011606/09/06 23:30:31  5-MIN KSTC 100530Z AUTO 06005KT 10SM -RA OVC047 08/04 A3010 860 79 200 060/05 RMK AO2 RAB07 P0001
14926KSTC STC20060609233511606/09/06 23:35:31  5-MIN KSTC 100535Z AUTO VRB04KT 10SM -RA OVC049 08/04 A3010 860 79 200 VRB/04 RMK AO2 RAB07 P0001
14926KSTC STC20060609234011606/09/06 23:40:31  5-MIN KSTC 100540Z AUTO 10005KT 10SM -RA OVC049 08/05 A3010 860 82 200 100/05 RMK AO2 RAB07 P0001
14926KSTC STC20060609234511606/09/06 23:45:31  5-MIN KSTC 100545Z AUTO 10004KT 10SM -RA OVC049 07/05 A3010 860 86 200 100/04 RMK AO2 RAB07 P0001
14926KSTC STC20060609235016706/09/06 23:50:31  5-MIN KSTC 100550Z AUTO 10004KT 10SM -RA OVC049 08/05 A3010 860 82 200 100/04 RMK AO2 RAB07 SLP204 P0001 60007 T00780050 10089 20061 401940061 56005
14926KSTC STC20060609235511006/09/06 23:55:31  5-MIN KSTC 100555Z AUTO 09005KT 10SM -RA OVC055 08/05 A3009 870 82 200 090/05 RMK AO2 P0000
14926KSTC STC20060610000010906/10/06 00:00:32  5-MIN KSTC 100600Z AUTO 08006KT 9SM -RA OVC055 08/05 A3009 870 82 300 080/06 RMK AO2 P0001
14926KSTC STC20060610000510906/10/06 00:05:31  5-MIN KSTC 100605Z AUTO 09006KT 8SM -RA OVC055 07/05 A3008 880 86 200 080/06 RMK AO2 P0001
14926KSTC STC20060610001011006/10/06 00:10:31  5-MIN KSTC 100610Z AUTO 08003KT 10SM -RA OVC055 07/05 A3008 880 86 200 070/03 RMK AO2 P0002
14926KSTC STC20060610001511006/10/06 00:15:31  5-MIN KSTC 100615Z AUTO 00000KT 10SM -RA OVC055 08/06 A3009 870 86 200 000/00 RMK AO2 P0002
14926KSTC STC20060610002011006/10/06 00:20:31  5-MIN KSTC 100620Z AUTO VRB03KT 10SM -RA OVC055 08/05 A3009 870 82 200 VRB/03 RMK AO2 P0002
14926KSTC STC20060610002511006/10/06 00:25:31  5-MIN KSTC 100625Z AUTO 06004KT 10SM -RA OVC055 08/05 A3010 860 82 200 050/04 RMK AO2 P0002
14926KSTC STC20060610003011006/10/06 00:30:31  5-MIN KSTC 100630Z AUTO 07004KT 10SM -RA OVC055 08/05 A3010 860 82 200 070/04 RMK AO2 P0002
14926KSTC STC20060610003511006/10/06 00:35:31  5-MIN KSTC 100635Z AUTO 08005KT 10SM -RA OVC055 08/06 A3009 870 86 200 080/05 RMK AO2 P0002
14926KSTC STC20060610004011006/10/06 00:40:31  5-MIN KSTC 100640Z AUTO 08004KT 10SM -RA OVC055 08/06 A3009 870 86 300 070/04 RMK AO2 P0002
14926KSTC STC20060610004511006/10/06 00:45:31  5-MIN KSTC 100645Z AUTO 07005KT 10SM -RA OVC055 08/06 A3009 870 86 300 060/05 RMK AO2 P0002
14926KSTC STC20060610005012906/10/06 00:50:31  5-MIN KSTC 100650Z AUTO 07005KT 10SM OVC055 08/05 A3008 880 82 300 060/05 RMK AO2 RAE49 SLP200 P0002 T00780050
14926KSTC STC20060610005510006/10/06 00:55:31  5-MIN KSTC 100655Z AUTO 05006KT 10SM OVC055 08/05 A3008 880 82 300 050/06 RMK AO2
14926KSTC STC20060610010010006/10/06 01:00:31  5-MIN KSTC 100700Z AUTO 05006KT 10SM OVC055 08/05 A3008 880 82 300 050/06 RMK AO2
14926KSTC STC20060610010510006/10/06 01:05:31  5-MIN KSTC 100705Z AUTO 06007KT 10SM OVC055 08/05 A3008 880 82 300 060/07 RMK AO2
14926KSTC STC20060610011010006/10/06 01:10:31  5-MIN KSTC 100710Z AUTO 06006KT 10SM OVC060 08/05 A3008 880 82 300 060/06 RMK AO2
14926KSTC STC20060610011510006/10/06 01:15:31  5-MIN KSTC 100715Z AUTO 06006KT 10SM OVC060 08/05 A3007 890 82 300 060/06 RMK AO2
14926KSTC STC20060610012010006/10/06 01:20:31  5-MIN KSTC 100720Z AUTO 06006KT 10SM OVC060 08/05 A3007 890 82 300 050/06 RMK AO2
14926KSTC STC20060610012510006/10/06 01:25:31  5-MIN KSTC 100725Z AUTO 05006KT 10SM OVC060 08/05 A3007 890 82 300 040/06 RMK AO2
14926KSTC STC20060610013010006/10/06 01:30:31  5-MIN KSTC 100730Z AUTO 06007KT 10SM OVC060 08/05 A3007 890 82 300 050/07 RMK AO2
14926KSTC STC20060610013510006/10/06 01:35:31  5-MIN KSTC 100735Z AUTO 05007KT 10SM OVC060 08/05 A3007 890 82 300 050/07 RMK AO2
14926KSTC STC20060610014010006/10/06 01:40:31  5-MIN KSTC 100740Z AUTO 06008KT 10SM OVC060 08/05 A3006 900 82 300 050/08 RMK AO2
14926KSTC STC20060610014510006/10/06 01:45:31  5-MIN KSTC 100745Z AUTO 06007KT 10SM OVC060 08/05 A3006 900 82 300 060/07 RMK AO2
14926KSTC STC20060610015011706/10/06 01:50:31  5-MIN KSTC 100750Z AUTO 06008KT 10SM OVC060 08/05 A3005 900 79 400 060/08 RMK AO2 SLP189 T00830050
14926KSTC STC20060610015510006/10/06 01:55:31  5-MIN KSTC 100755Z AUTO 05008KT 10SM OVC060 08/05 A3006 900 79 400 050/08 RMK AO2
14926KSTC STC20060610020010006/10/06 02:00:31  5-MIN KSTC 100800Z AUTO 06007KT 10SM OVC060 08/05 A3006 900 79 400 060/07 RMK AO2
14926KSTC STC20060610020510006/10/06 02:05:31  5-MIN KSTC 100805Z AUTO 07006KT 10SM OVC060 08/05 A3005 900 79 400 060/06 RMK AO2
14926KSTC STC20060610021010006/10/06 02:10:31  5-MIN KSTC 100810Z AUTO 07008KT 10SM OVC060 08/05 A3006 900 79 400 070/08 RMK AO2
14926KSTC STC20060610021510006/10/06 02:15:31  5-MIN KSTC 100815Z AUTO 07008KT 10SM OVC065 08/04 A3005 900 76 400 070/08 RMK AO2
14926KSTC STC20060610022010006/10/06 02:20:31  5-MIN KSTC 100820Z AUTO 07008KT 10SM OVC065 08/05 A3005 910 79 400 060/08 RMK AO2
14926KSTC STC20060610022510006/10/06 02:25:31  5-MIN KSTC 100825Z AUTO 06006KT 10SM OVC065 08/05 A3005 910 79 400 060/06 RMK AO2
14926KSTC STC20060610023010006/10/06 02:30:31  5-MIN KSTC 100830Z AUTO 06007KT 10SM OVC065 08/05 A3005 910 79 400 060/07 RMK AO2
14926KSTC STC20060610023510006/10/06 02:35:31  5-MIN KSTC 100835Z AUTO 07006KT 10SM OVC065 08/05 A3006 900 79 400 060/06 RMK AO2
14926KSTC STC20060610024010006/10/06 02:40:31  5-MIN KSTC 100840Z AUTO 06004KT 10SM OVC065 08/05 A3005 900 79 400 060/04 RMK AO2
14926KSTC STC20060610024510006/10/06 02:45:31  5-MIN KSTC 100845Z AUTO 06008KT 10SM OVC065 08/05 A3005 900 79 400 060/08 RMK AO2
14926KSTC STC20060610025012906/10/06 02:50:31  5-MIN KSTC 100850Z AUTO 06005KT 10SM OVC065 08/05 A3005 900 79 400 060/05 RMK AO2 SLP189 60002 T00830050 53003
14926KSTC STC20060610025510006/10/06 02:55:31  5-MIN KSTC 100855Z AUTO 06007KT 10SM OVC065 08/05 A3005 910 79 400 050/07 RMK AO2
14926KSTC STC20060610030010006/10/06 03:00:31  5-MIN KSTC 100900Z AUTO 06007KT 10SM OVC065 08/05 A3004 910 79 400 060/07 RMK AO2
14926KSTC STC20060610030510006/10/06 03:05:31  5-MIN KSTC 100905Z AUTO 06006KT 10SM BKN065 08/05 A3005 910 82 300 060/06 RMK AO2
14926KSTC STC20060610031010006/10/06 03:10:31  5-MIN KSTC 100910Z AUTO 07008KT 10SM BKN065 08/04 A3005 910 79 300 070/08 RMK AO2
14926KSTC STC20060610031511606/10/06 03:15:31  5-MIN KSTC 100915Z AUTO 06008KT 030V090 10SM SCT065 08/04 A3005 910 79 300 060/08 030V090 RMK AO2
14926KSTC STC20060610032010006/10/06 03:20:31  5-MIN KSTC 100920Z AUTO 07007KT 10SM FEW065 08/04 A3005 910 79 300 070/07 RMK AO2
14926KSTC STC20060610032510006/10/06 03:25:31  5-MIN KSTC 100925Z AUTO VRB06KT 10SM FEW065 08/04 A3005 900 79 300 VRB/06 RMK AO2
14926KSTC STC20060610033009706/10/06 03:30:31  5-MIN KSTC 100930Z AUTO 09006KT 10SM CLR 08/04 A3006 900 79 300 080/06 RMK AO2
14926KSTC STC20060610033509706/10/06 03:35:31  5-MIN KSTC 100935Z AUTO 09006KT 10SM CLR 08/04 A3005 900 79 300 080/06 RMK AO2
14926KSTC STC20060610034009706/10/06 03:40:31  5-MIN KSTC 100940Z AUTO VRB05KT 10SM CLR 08/04 A3006 900 79 300 VRB/05 RMK AO2
14926KSTC STC20060610034509706/10/06 03:45:31  5-MIN KSTC 100945Z AUTO 07005KT 10SM CLR 08/04 A3006 900 79 300 070/05 RMK AO2
14926KSTC STC20060610035011406/10/06 03:50:31  5-MIN KSTC 100950Z AUTO 06005KT 10SM CLR 08/04 A3006 900 79 300 060/05 RMK AO2 SLP191 T00780044
14926KSTC STC20060610035509706/10/06 03:55:31  5-MIN KSTC 100955Z AUTO 06006KT 10SM CLR 08/04 A3005 900 79 300 060/06 RMK AO2
14926KSTC STC20060610040009706/10/06 04:00:31  5-MIN KSTC 101000Z AUTO 06007KT 10SM CLR 08/04 A3005 900 79 300 060/07 RMK AO2
14926KSTC STC20060610040510006/10/06 04:05:31  5-MIN KSTC 101005Z AUTO 07008KT 10SM FEW110 08/04 A3005 910 79 300 070/08 RMK AO2
14926KSTC STC20060610041010006/10/06 04:10:31  5-MIN KSTC 101010Z AUTO 07007KT 10SM BKN120 08/04 A3004 910 79 300 070/07 RMK AO2
14926KSTC STC20060610041510006/10/06 04:15:31  5-MIN KSTC 101015Z AUTO 08008KT 10SM BKN120 08/04 A3004 910 79 300 080/08 RMK AO2
14926KSTC STC20060610042010006/10/06 04:20:31  5-MIN KSTC 101020Z AUTO 08006KT 10SM BKN120 08/04 A3005 910 79 300 080/06 RMK AO2
14926KSTC STC20060610042510006/10/06 04:25:31  5-MIN KSTC 101025Z AUTO 07006KT 10SM OVC120 08/04 A3005 900 79 300 070/06 RMK AO2
14926KSTC STC20060610043011606/10/06 04:30:31  5-MIN KSTC 101030Z AUTO 07007KT 050V110 10SM OVC120 08/04 A3005 900 79 300 070/07 050V110 RMK AO2
14926KSTC STC20060610043510006/10/06 04:35:31  5-MIN KSTC 101035Z AUTO 07006KT 10SM OVC120 08/04 A3006 900 76 300 070/06 RMK AO2
14926KSTC STC20060610044010006/10/06 04:40:31  5-MIN KSTC 101040Z AUTO 07007KT 10SM OVC120 08/04 A3006 900 76 300 070/07 RMK AO2
14926KSTC STC20060610044510006/10/06 04:45:31  5-MIN KSTC 101045Z AUTO 07007KT 10SM OVC120 08/04 A3006 900 76 300 070/07 RMK AO2
14926KSTC STC20060610045011706/10/06 04:50:31  5-MIN KSTC 101050Z AUTO 07006KT 10SM BKN120 08/04 A3006 900 76 300 070/06 RMK AO2 SLP192 T00780039
14926KSTC STC20060610045510006/10/06 04:55:31  5-MIN KSTC 101055Z AUTO 06006KT 10SM BKN120 08/04 A3006 900 76 300 060/06 RMK AO2
14926KSTC STC20060610050010006/10/06 05:00:31  5-MIN KSTC 101100Z AUTO 07005KT 10SM SCT120 08/04 A3007 890 76 300 070/05 RMK AO2
14926KSTC STC20060610050510006/10/06 05:05:31  5-MIN KSTC 101105Z AUTO 07006KT 10SM SCT120 08/04 A3007 890 76 300 060/06 RMK AO2
14926KSTC STC20060610051010006/10/06 05:10:31  5-MIN KSTC 101110Z AUTO 07006KT 10SM FEW120 08/04 A3007 890 76 300 070/06 RMK AO2
14926KSTC STC20060610051509706/10/06 05:15:31  5-MIN KSTC 101115Z AUTO 07006KT 10SM CLR 08/04 A3007 890 79 300 060/06 RMK AO2
14926KSTC STC20060610052009706/10/06 05:20:31  5-MIN KSTC 101120Z AUTO 06006KT 10SM CLR 08/04 A3007 890 79 300 060/06 RMK AO2
14926KSTC STC20060610052509706/10/06 05:25:31  5-MIN KSTC 101125Z AUTO 06006KT 10SM CLR 08/04 A3007 890 79 300 060/06 RMK AO2
14926KSTC STC20060610053009706/10/06 05:30:31  5-MIN KSTC 101130Z AUTO 07007KT 10SM CLR 08/04 A3007 890 79 300 070/07 RMK AO2
14926KSTC STC20060610053509706/10/06 05:35:31  5-MIN KSTC 101135Z AUTO 06006KT 10SM CLR 08/04 A3007 890 76 300 060/06 RMK AO2
14926KSTC STC20060610054009706/10/06 05:40:31  5-MIN KSTC 101140Z AUTO 05009KT 10SM CLR 08/04 A3006 890 76 300 050/09 RMK AO2
14926KSTC STC20060610054509706/10/06 05:45:31  5-MIN KSTC 101145Z AUTO 06008KT 10SM CLR 08/04 A3006 900 73 300 060/08 RMK AO2
14926KSTC STC20060610055014406/10/06 05:50:31  5-MIN KSTC 101150Z AUTO 06008KT 10SM CLR 08/04 A3006 900 73 400 060/08 RMK AO2 SLP193 60002 70028 T00830039 10083 20072 56016
14926KSTC STC20060610055509706/10/06 05:55:31  5-MIN KSTC 101155Z AUTO 07010KT 10SM CLR 08/04 A3006 900 73 400 060/10 RMK AO2
14926KSTC STC20060610060009206/10/06 06:00:31  5-MIN KSTC 101200Z 06009KT 10SM CLR 08/04 A3006 900 73 400 060/09 RMK AO2
14926KSTC STC20060610060509206/10/06 06:05:31  5-MIN KSTC 101205Z 06011KT 10SM CLR 08/04 A3006 900 73 400 060/11 RMK AO2
14926KSTC STC20060610061009206/10/06 06:10:31  5-MIN KSTC 101210Z 06008KT 10SM CLR 08/04 A3006 900 73 400 060/08 RMK AO2
14926KSTC STC20060610061509206/10/06 06:15:31  5-MIN KSTC 101215Z 06010KT 10SM CLR 08/04 A3006 900 73 400 060/10 RMK AO2
14926KSTC STC20060610062009206/10/06 06:20:31  5-MIN KSTC 101220Z 06008KT 10SM CLR 09/04 A3006 890 71 400 060/08 RMK AO2
14926KSTC STC20060610062509206/10/06 06:25:31  5-MIN KSTC 101225Z 06008KT 10SM CLR 09/04 A3006 900 71 400 060/08 RMK AO2
14926KSTC STC20060610063009206/10/06 06:30:31  5-MIN KSTC 101230Z 07006KT 10SM CLR 09/04 A3006 900 71 400 070/06 RMK AO2
14926KSTC STC20060610063509206/10/06 06:35:31  5-MIN KSTC 101235Z 08007KT 10SM CLR 09/04 A3007 890 73 400 070/07 RMK AO2
14926KSTC STC20060610064009206/10/06 06:40:31  5-MIN KSTC 101240Z 07007KT 10SM CLR 09/04 A3007 890 73 400 070/07 RMK AO2
14926KSTC STC20060610064509206/10/06 06:45:31  5-MIN KSTC 101245Z 06009KT 10SM CLR 09/04 A3007 890 71 400 060/09 RMK AO2
14926KSTC STC20060610065010906/10/06 06:50:31  5-MIN KSTC 101250Z 06006KT 10SM CLR 09/04 A3007 890 71 400 060/06 RMK AO2 SLP196 T00890039
14926KSTC STC20060610065509206/10/06 06:55:31  5-MIN KSTC 101255Z 07006KT 10SM CLR 09/04 A3007 890 73 400 070/06 RMK AO2
14926KSTC STC20060610070009206/10/06 07:00:31  5-MIN KSTC 101300Z 08007KT 10SM CLR 09/04 A3007 890 71 400 080/07 PMK AO2
14926KSTC STC20060610070009206/10/06 07:00:31  5-MIN KSTC 101300Z 08007KT 10SM CLR 09/04 A3007 890 71 400 080/07 RMK AO2
14926KSTC STC20060610070509206/10/06 07:05:31  5-MIN KSTC 101305Z 08007KT 10SM CLR 09/04 A3007 890 71 400 080/07 RMK AO2
14926KSTC STC20060610071009206/10/06 07:10:31  5-MIN KSTC 101310Z 08007KT 10SM CLR 09/04 A3007 890 71 400 080/07 RMK AO2
14926KSTC STC20060610071509206/10/06 07:15:31  5-MIN KSTC 101315Z 08008KT 10SM CLR 09/04 A3007 890 71 500 070/08 RMK AO2
14926KSTC STC20060610072009206/10/06 07:20:31  5-MIN KSTC 101320Z 08007KT 10SM CLR 09/04 A3007 890 71 500 080/07 RMK AO2
14926KSTC STC20060610072509206/10/06 07:25:31  5-MIN KSTC 101325Z 08008KT 10SM CLR 09/04 A3007 890 68 500 080/08 RMK AO2
14926KSTC STC20060610073009506/10/06 07:30:31  5-MIN KSTC 101330Z 08007KT 10SM FEW110 09/04 A3007 890 68 500 070/07 RMK AO2
14926KSTC STC20060610073509506/10/06 07:35:31  5-MIN KSTC 101335Z 08008KT 10SM FEW110 09/04 A3007 890 68 500 080/08 RMK AO2
14926KSTC STC20060610074009506/10/06 07:40:31  5-MIN KSTC 101340Z 09006KT 10SM FEW110 10/04 A3008 880 68 500 080/06 RMK AO2
14926KSTC STC20060610074509506/10/06 07:45:31  5-MIN KSTC 101345Z 08008KT 10SM FEW110 10/04 A3008 880 68 500 080/08 RMK AO2
14926KSTC STC20060610075011206/10/06 07:50:31  5-MIN KSTC 101350Z 08005KT 10SM FEW110 10/04 A3008 880 68 500 080/05 RMK AO2 SLP200 T01000044
14926KSTC STC20060610075509206/10/06 07:55:31  5-MIN KSTC 101355Z 08006KT 10SM CLR 10/04 A3008 880 68 500 080/06 RMK AO2
14926KSTC STC20060610080009206/10/06 08:00:31  5-MIN KSTC 101400Z 07008KT 10SM CLR 10/04 A3008 880 65 500 070/08 RMK AO2
14926KSTC STC20060610080509506/10/06 08:05:31  5-MIN KSTC 101405Z 08006KT 10SM FEW120 10/04 A3008 880 68 500 080/06 RMK AO2
14926KSTC STC20060610081009506/10/06 08:10:31  5-MIN KSTC 101410Z 08007KT 10SM SCT120 10/04 A3008 880 68 500 080/07 RMK AO2
14926KSTC STC20060610081509506/10/06 08:15:31  5-MIN KSTC 101415Z 08006KT 10SM SCT120 10/04 A3008 880 68 500 080/06 RMK AO2
14926KSTC STC20060610082011106/10/06 08:20:31  5-MIN KSTC 101420Z 09007KT 060V120 10SM SCT120 10/04 A3008 880 68 500 080/07 060V120 RMK AO2
14926KSTC STC20060610082509506/10/06 08:25:31  5-MIN KSTC 101425Z 08006KT 10SM SCT120 10/04 A3009 870 68 500 080/06 RMK AO2
14926KSTC STC20060610083009506/10/06 08:30:31  5-MIN KSTC 101430Z 08006KT 10SM SCT120 10/04 A3009 870 68 500 070/06 RMK AO2
14926KSTC STC20060610083509506/10/06 08:35:31  5-MIN KSTC 101435Z 07006KT 10SM SCT120 10/04 A3009 870 68 500 060/06 RMK AO2
14926KSTC STC20060610084009506/10/06 08:40:31  5-MIN KSTC 101440Z 06006KT 10SM BKN120 10/04 A3009 870 68 500 060/06 RMK AO2
14926KSTC STC20060610084509506/10/06 08:45:31  5-MIN KSTC 101445Z 07005KT 10SM BKN120 10/04 A3008 870 68 500 070/05 RMK AO2
14926KSTC STC20060610085011806/10/06 08:50:31  5-MIN KSTC 101450Z 07006KT 10SM BKN120 10/04 A3009 870 68 500 070/06 RMK AO2 SLP202 T01000044 50003
14926KSTC STC20060610085509506/10/06 08:55:31  5-MIN KSTC 101455Z 07004KT 10SM BKN120 10/04 A3009 870 68 500 070/04 RMK AO2
14926KSTC STC20060610090009506/10/06 09:00:31  5-MIN KSTC 101500Z VRB05KT 10SM BKN120 10/05 A3009 870 71 500 VRB/05 RMK AO2
14926KSTC STC20060610090509506/10/06 09:05:31  5-MIN KSTC 101505Z 07006KT 10SM BKN120 10/04 A3009 870 68 500 070/06 RMK AO2
14926KSTC STC20060610091009506/10/06 09:10:31  5-MIN KSTC 101510Z 07006KT 10SM SCT120 11/04 A3009 870 66 600 060/06 RMK AO2
14926KSTC STC20060610091509506/10/06 09:15:31  5-MIN KSTC 101515Z 07007KT 10SM SCT120 11/04 A3009 870 66 600 070/07 RMK AO2
14926KSTC STC20060610092009506/10/06 09:20:31  5-MIN KSTC 101520Z 08005KT 10SM FEW120 11/05 A3008 880 68 600 080/05 RMK AO2
14926KSTC STC20060610092509206/10/06 09:25:31  5-MIN KSTC 101525Z 09008KT 10SM CLR 11/05 A3008 880 68 600 080/08 RMK AO2
14926KSTC STC20060610093010806/10/06 09:30:31  5-MIN KSTC 101530Z 08007KT 050V120 10SM CLR 11/05 A3008 880 66 700 080/07 050V120 RMK AO2
14926KSTC STC20060610093509206/10/06 09:35:31  5-MIN KSTC 101535Z 09009KT 10SM CLR 11/05 A3007 880 66 700 090/09 RMK AO2
14926KSTC STC20060610094009206/10/06 09:40:31  5-MIN KSTC 101540Z 08007KT 10SM CLR 11/05 A3007 890 66 700 080/07 RMK AO2
14926KSTC STC20060610094509206/10/06 09:45:31  5-MIN KSTC 101545Z 08008KT 10SM CLR 12/05 A3007 890 63 700 070/08 RMK AO2
14926KSTC STC20060610095010906/10/06 09:50:31  5-MIN KSTC 101550Z 08008KT 10SM CLR 12/04 A3007 890 61 700 080/08 RMK AO2 SLP196 T01170044
14926KSTC STC20060610095509206/10/06 09:55:31  5-MIN KSTC 101555Z 08008KT 10SM CLR 12/04 A3007 890 61 700 080/08 RMK AO2
14926KSTC STC20060610100009206/10/06 10:00:31  5-MIN KSTC 101600Z 09008KT 10SM CLR 12/04 A3007 890 61 700 080/08 RMK AO2
14926KSTC STC20060610100509206/10/06 10:05:31  5-MIN KSTC 101605Z 08010KT 10SM CLR 12/04 A3007 890 59 800 080/10 RMK AO2
14926KSTC STC20060610101009206/10/06 10:10:31  5-MIN KSTC 101610Z 08009KT 10SM CLR 12/04 A3006 890 59 800 070/09 RMK AO2
14926KSTC STC20060610101509206/10/06 10:15:31  5-MIN KSTC 101615Z 08011KT 10SM CLR 12/04 A3006 890 59 800 080/11 RMK AO2
14926KSTC STC20060610102009206/10/06 10:20:31  5-MIN KSTC 101620Z 09010KT 10SM CLR 12/04 A3006 900 56 800 090/10 RMK AO2
14926KSTC STC20060610102509206/10/06 10:25:31  5-MIN KSTC 101625Z 08010KT 10SM CLR 12/04 A3006 900 59 800 080/10 RMK AO2
14926KSTC STC20060610103009206/10/06 10:30:31  5-MIN KSTC 101630Z 07011KT 10SM CLR 13/04 A3005 900 56 900 070/11 RMK AO2
14926KSTC STC20060610103509206/10/06 10:35:31  5-MIN KSTC 101635Z 09009KT 10SM CLR 13/04 A3005 900 56 900 080/09 RMK AO2
14926KSTC STC20060610104009306/10/06 10:40:31  5-MIN KSTC 101640Z 09008KT 10SM CLR 13/04 A3005 910 54 1000 090/08 RMK AO2
14926KSTC STC20060610104509306/10/06 10:45:31  5-MIN KSTC 101645Z 08009KT 10SM CLR 13/05 A3005 900 57 1000 080/09 RMK AO2
14926KSTC STC20060610105011006/10/06 10:50:31  5-MIN KSTC 101650Z 09010KT 10SM CLR 13/04 A3005 900 52 1000 090/10 RMK AO2 SLP189 T01330039
14926KSTC STC20060610105509306/10/06 10:55:31  5-MIN KSTC 101655Z 09007KT 10SM CLR 13/04 A3005 910 52 1000 090/07 RMK AO2
14926KSTC STC20060610110009906/10/06 11:00:31  5-MIN KSTC 101700Z 09012G17KT 10SM CLR 13/03 A3005 910 50 1000 090/12G17 RMK AO2
14926KSTC STC20060610110511506/10/06 11:05:31  5-MIN KSTC 101705Z 09009G17KT 040V110 10SM CLR 13/03 A3005 910 50 1000 080/09G17 040V110 RMK AO2
14926KSTC STC20060610111009906/10/06 11:10:31  5-MIN KSTC 101710Z 09013G17KT 10SM CLR 13/03 A3005 910 48 1000 080/13G17 RMK AO2
14926KSTC STC20060610111509306/10/06 11:15:31  5-MIN KSTC 101715Z 09011KT 10SM CLR 13/03 A3005 910 48 1000 080/11 RMK AO2
14926KSTC STC20060610112009306/10/06 11:20:31  5-MIN KSTC 101720Z 08010KT 10SM CLR 13/03 A3005 910 48 1000 080/10 RMK AO2
14926KSTC STC20060610112509306/10/06 11:25:31  5-MIN KSTC 101725Z 10010KT 10SM CLR 13/03 A3005 910 48 1000 100/10 RMK AO2
14926KSTC STC20060610113009306/10/06 11:30:31  5-MIN KSTC 101730Z 08012KT 10SM CLR 13/03 A3005 910 48 1000 080/12 RMK AO2
14926KSTC STC20060610113509306/10/06 11:35:31  5-MIN KSTC 101735Z 09011KT 10SM CLR 13/02 A3005 910 46 1000 090/11 RMK AO2
14926KSTC STC20060610114009906/10/06 11:40:31  5-MIN KSTC 101740Z 08011G17KT 10SM CLR 13/02 A3005 910 46 1000 080/11G17 RMK AO2
14926KSTC STC20060610114509306/10/06 11:45:31  5-MIN KSTC 101745Z 09011KT 10SM CLR 13/02 A3005 900 46 1000 090/11 RMK AO2
14926KSTC STC20060610115013106/10/06 11:50:31  5-MIN KSTC 101750Z 09007KT 10SM FEW110 13/02 A3006 900 46 1000 090/07 RMK AO2 SLP190 T01330022 10133 20083 51009
14926KSTC STC20060610115510606/10/06 11:55:31  5-MIN KSTC 101755Z 10010KT 10SM -RA FEW100 13/03 A3006 900 50 1000 100/10 RMK AO2 P0000
14926KSTC STC20060610120010506/10/06 12:00:31  5-MIN KSTC 101800Z 10009KT 10SM -RA SCT100 13/03 A3005 900 50 900 100/09 RMK AO2 P0000
14926KSTC STC20060610120510506/10/06 12:05:31  5-MIN KSTC 101805Z 10008KT 10SM -RA SCT100 13/03 A3005 900 52 900 100/08 RMK AO2 P0000
14926KSTC STC20060610121010506/10/06 12:10:31  5-MIN KSTC 101810Z 10007KT 10SM -RA SCT100 13/04 A3005 900 54 900 100/07 RMK AO2 P0000
14926KSTC STC20060610121511206/10/06 12:15:31  5-MIN KSTC 101815Z 09011KT 10SM -RA FEW028 SCT100 12/04 A3005 910 56 800 090/11 RMK AO2 P0000
14926KSTC STC20060610122011206/10/06 12:20:31  5-MIN KSTC 101820Z 10010KT 10SM -RA FEW028 SCT100 12/04 A3005 910 56 800 090/10 RMK AO2 P0000
14926KSTC STC20060610122511206/10/06 12:25:31  5-MIN KSTC 101825Z 10008KT 10SM -RA FEW023 SCT100 12/04 A3005 910 59 800 100/08 RMK AO2 P0000
14926KSTC STC20060610123011206/10/06 12:30:31  5-MIN KSTC 101830Z 09008KT 10SM -RA FEW032 SCT100 12/04 A3005 910 59 800 090/08 RMK AO2 P0000
14926KSTC STC20060610123510506/10/06 12:35:31  5-MIN KSTC 101835Z 09007KT 10SM -RA FEW036 12/04 A3005 910 59 800 090/07 RMK AO2 P0000
14926KSTC STC20060610124010506/10/06 12:40:31  5-MIN KSTC 101840Z 10007KT 10SM -RA FEW031 13/05 A3005 910 59 900 100/07 RMK AO2 P0000
14926KSTC STC20060610124510706/10/06 12:45:31  5-MIN KSTC 101845Z 11006KT 10SM FEW037 13/05 A3006 900 59 900 110/06 RMK AO2 RAE42 P0000
14926KSTC STC20060610125012406/10/06 12:50:31  5-MIN KSTC 101850Z 12006KT 10SM FEW045 13/05 A3005 900 59 900 120/06 RMK AO2 RAE42 SLP189 P0000 T01280050
14926KSTC STC20060610125510506/10/06 12:55:31  5-MIN KSTC 101855Z 10006KT 10SM -RA FEW080 13/06 A3005 900 61 900 100/06 RMK AO2 P0001
14926KSTC STC20060610130010506/10/06 13:00:31  5-MIN KSTC 101900Z 11007KT 10SM -RA FEW100 13/06 A3005 900 61 900 110/07 RMK AO2 P0001
14926KSTC STC20060610130510706/10/06 13:05:31  5-MIN KSTC 101905Z 11006KT 10SM SCT110 13/06 A3005 900 61 900 110/06 RMK AO2 RAE04 P0001
14926KSTC STC20060610131010706/10/06 13:10:31  5-MIN KSTC 101910Z 10008KT 10SM BKN110 13/06 A3005 900 61 900 100/08 RMK AO2 RAE04 P0001
14926KSTC STC20060610131510706/10/06 13:15:31  5-MIN KSTC 101915Z 10007KT 10SM BKN110 13/06 A3005 900 63 900 100/07 RMK AO2 RAE04 P0001
14926KSTC STC20060610132010806/10/06 13:20:31  5-MIN KSTC 101920Z 10006KT 10SM BKN110 13/06 A3005 900 61 1000 100/06 RMK AO2 RAE04 P0001
14926KSTC STC20060610132510706/10/06 13:25:31  5-MIN KSTC 101925Z 10007KT 10SM OVC110 13/06 A3005 900 63 900 100/07 RMK AO2 RAE04 P0001
14926KSTC STC20060610133010806/10/06 13:30:31  5-MIN KSTC 101930Z 10005KT 10SM OVC110 13/06 A3005 900 59 1000 100/05 RMK AO2 RAE04 P0001
14926KSTC STC20060610133510706/10/06 13:35:31  5-MIN KSTC 101935Z 12006KT 10SM OVC120 13/06 A3005 900 61 900 110/06 RMK AO2 RAE04 P0001
14926KSTC STC20060610134010706/10/06 13:40:31  5-MIN KSTC 101940Z 11005KT 10SM BKN120 13/06 A3005 900 63 900 110/05 RMK AO2 RAE04 P0001
14926KSTC STC20060610134510806/10/06 13:45:31  5-MIN KSTC 101945Z 12005KT 10SM BKN120 13/07 A3005 900 64 1000 120/05 RMK AO2 RAE04 P0001
14926KSTC STC20060610135012206/10/06 13:50:31  5-MIN KSTC 101950Z 13004KT 10SM CLR 13/06 A3005 900 61 1000 130/04 RMK AO2 RAE04 SLP189 P0001 T01330061
14926KSTC STC20060610135509306/10/06 13:55:31  5-MIN KSTC 101955Z 12004KT 10SM CLR 13/07 A3005 900 64 1000 120/04 RMK AO2
14926KSTC STC20060610140009606/10/06 14:00:31  5-MIN KSTC 102000Z VRB03KT 10SM BKN120 13/07 A3005 900 64 1000 VRB/03 RMK AO2
14926KSTC STC20060610140509606/10/06 14:05:31  5-MIN KSTC 102005Z VRB03KT 10SM BKN120 13/07 A3005 900 64 1000 VRB/03 RMK AO2
14926KSTC STC20060610141009606/10/06 14:10:31  5-MIN KSTC 102010Z VRB03KT 10SM BKN120 13/07 A3005 910 64 1000 VRB/03 RMK AO2
14926KSTC STC20060610141509606/10/06 14:15:31  5-MIN KSTC 102015Z 12004KT 10SM BKN120 14/07 A3005 910 61 1000 120/04 RMK AO2
14926KSTC STC20060610142009606/10/06 14:20:31  5-MIN KSTC 102020Z 13003KT 10SM BKN120 14/07 A3005 910 61 1000 120/03 RMK AO2
14926KSTC STC20060610142509606/10/06 14:25:31  5-MIN KSTC 102025Z 09004KT 10SM BKN120 14/07 A3005 910 64 1000 080/04 RMK AO2
14926KSTC STC20060610143009606/10/06 14:30:31  5-MIN KSTC 102030Z VRB05KT 10SM BKN120 14/07 A3004 910 61 1000 VRB/05 RMK AO2
14926KSTC STC20060610143509606/10/06 14:35:31  5-MIN KSTC 102035Z 10005KT 10SM BKN120 14/07 A3004 910 61 1000 090/05 RMK AO2
14926KSTC STC20060610144009606/10/06 14:40:31  5-MIN KSTC 102040Z 11006KT 10SM BKN120 14/07 A3004 920 61 1000 100/06 RMK AO2
14926KSTC STC20060610144509606/10/06 14:45:31  5-MIN KSTC 102045Z 09003KT 10SM BKN110 14/07 A3004 920 61 1000 080/03 RMK AO2
14926KSTC STC20060610145012506/10/06 14:50:31  5-MIN KSTC 102050Z 08006KT 10SM BKN110 14/07 A3003 920 64 1000 080/06 RMK AO2 SLP183 60001 T01390072 55010
14926KSTC STC20060610145509606/10/06 14:55:31  5-MIN KSTC 102055Z 10004KT 10SM BKN110 14/07 A3004 920 64 1000 090/04 RMK AO2
14926KSTC STC20060610150009606/10/06 15:00:31  5-MIN KSTC 102100Z 09004KT 10SM BKN110 14/07 A3004 920 61 1000 090/04 RMK AO2
14926KSTC STC20060610150509606/10/06 15:05:31  5-MIN KSTC 102105Z 11003KT 10SM BKN110 14/07 A3004 920 64 1000 110/03 RMK AO2
14926KSTC STC20060610151009606/10/06 15:10:31  5-MIN KSTC 102110Z 08003KT 10SM BKN110 14/07 A3003 920 64 1000 080/03 RMK AO2
14926KSTC STC20060610151509606/10/06 15:15:31  5-MIN KSTC 102115Z 10003KT 10SM BKN110 14/07 A3003 920 61 1000 090/03 RMK AO2
14926KSTC STC20060610152009606/10/06 15:20:31  5-MIN KSTC 102120Z 09004KT 10SM OVC110 14/07 A3003 920 61 1000 090/04 RMK AO2
14926KSTC STC20060610152509606/10/06 15:25:31  5-MIN KSTC 102125Z 11004KT 10SM OVC110 14/07 A3003 920 61 1000 100/04 RMK AO2
14926KSTC STC20060610153009606/10/06 15:30:31  5-MIN KSTC 102130Z 11003KT 10SM OVC110 14/07 A3003 920 61 1000 110/03 RMK AO2
14926KSTC STC20060610153509606/10/06 15:35:31  5-MIN KSTC 102135Z 12003KT 10SM OVC110 14/07 A3003 930 64 1100 120/03 RMK AO2
14926KSTC STC20060610154009606/10/06 15:40:31  5-MIN KSTC 102140Z 00000KT 10SM OVC110 14/07 A3003 930 64 1100 000/00 RMK AO2
14926KSTC STC20060610154509606/10/06 15:45:31  5-MIN KSTC 102145Z 12003KT 10SM BKN110 14/07 A3003 930 64 1100 120/03 RMK AO2
14926KSTC STC20060610155011306/10/06 15:50:31  5-MIN KSTC 102150Z 11003KT 10SM BKN110 14/07 A3002 930 64 1100 110/03 RMK AO2 SLP179 T01390072
14926KSTC STC20060610155509606/10/06 15:55:31  5-MIN KSTC 102155Z 09003KT 10SM BKN110 14/07 A3002 930 64 1100 090/03 RMK AO2
14926KSTC STC20060610160009606/10/06 16:00:31  5-MIN KSTC 102200Z 09003KT 10SM BKN100 14/08 A3002 940 66 1100 090/03 RMK AO2
14926KSTC STC20060610160510306/10/06 16:05:31  5-MIN KSTC 102205Z 00000KT 10SM SCT095 BKN110 14/08 A3002 930 69 1100 000/00 RMK AO2
14926KSTC STC20060610161010306/10/06 16:10:31  5-MIN KSTC 102210Z 10003KT 10SM BKN090 BKN110 14/07 A3002 940 64 1100 090/03 RMK AO2
14926KSTC STC20060610161509606/10/06 16:15:31  5-MIN KSTC 102215Z 11003KT 10SM BKN090 13/08 A3002 940 69 1000 110/03 RMK AO2
14926KSTC STC20060610162009606/10/06 16:20:31  5-MIN KSTC 102220Z 13003KT 10SM BKN090 13/08 A3002 940 69 1000 130/03 RMK AO2
14926KSTC STC20060610162509606/10/06 16:25:31  5-MIN KSTC 102225Z 00000KT 10SM BKN090 13/08 A3001 940 69 1000 000/00 RMK AO2
14926KSTC STC20060610163009606/10/06 16:30:31  5-MIN KSTC 102230Z 00000KT 10SM BKN090 13/08 A3001 940 71 1000 000/00 RMK AO2
14926KSTC STC20060610163509606/10/06 16:35:31  5-MIN KSTC 102235Z 00000KT 10SM BKN085 13/09 A3001 940 74 1000 000/00 RMK AO2
14926KSTC STC20060610164011806/10/06 16:40:31  5-MIN KSTC 102240Z 00000KT 9SM -RA SCT065 BKN090 13/09 A3001 940 77 1000 000/00 RMK AO2 RAB37 P0000
14926KSTC STC20060610164511706/10/06 16:45:31  5-MIN KSTC 102245Z 04003KT 6SM -RA BKN050 BKN090 13/09 A3001 940 77 900 040/03 RMK AO2 RAB37 P0001
14926KSTC STC20060610165013406/10/06 16:50:31  5-MIN KSTC 102250Z 03004KT 6SM -RA BKN050 BKN090 12/09 A3001 950 83 900 030/04 RMK AO2 RAB37 SLP174 P0001 T01220094
14926KSTC STC20060610165511106/10/06 16:55:31  5-MIN KSTC 102255Z 04003KT 7SM -RA BKN045 BKN060 12/09 A3000 950 80 900 040/03 RMK AO2 P0001
14926KSTC STC20060610170011006/10/06 17:00:31  5-MIN KSTC 102300Z 00000KT 6SM RA BKN035 OVC060 12/09 A3000 950 80 900 000/00 RMK AO2 P0002
14926KSTC STC20060610170510406/10/06 17:05:31  5-MIN KSTC 102305Z 00000KT 6SM -RA OVC028 12/09 A3000 950 83 900 000/00 RMK AO2 P0003
14926KSTC STC20060610171011106/10/06 17:10:31  5-MIN KSTC 102310Z 02003KT 7SM -RA BKN027 OVC060 12/10 A3000 950 89 800 020/03 RMK AO2 P0004
14926KSTC STC20060610171510506/10/06 17:15:31  5-MIN KSTC 102315Z 01003KT 10SM -RA OVC031 12/09 A3000 950 83 900 010/03 RMK AO2 P0004
14926KSTC STC20060610172010506/10/06 17:20:31  5-MIN KSTC 102320Z 01004KT 10SM -RA OVC029 12/09 A3000 960 80 900 010/04 RMK AO2 P0004
14926KSTC STC20060610172510406/10/06 17:25:31  5-MIN KSTC 102325Z 02005KT 9SM -RA OVC025 12/09 A3000 960 83 800 010/05 RMK AO2 P0004
14926KSTC STC20060610173010406/10/06 17:30:31  5-MIN KSTC 102330Z 02004KT 9SM -RA OVC025 12/09 A3000 950 83 800 010/04 RMK AO2 P0005
14926KSTC STC20060610173511206/10/06 17:35:31  5-MIN KSTC 102335Z 04003KT 10SM -RA BKN027 OVC041 12/09 A3000 950 83 800 030/03 RMK AO2 P0005
14926KSTC STC20060610174011206/10/06 17:40:31  5-MIN KSTC 102340Z 00000KT 10SM -RA BKN029 BKN100 12/09 A3000 950 83 800 000/00 RMK AO2 P0005
14926KSTC STC20060610174511206/10/06 17:45:31  5-MIN KSTC 102345Z 00000KT 10SM -RA BKN027 OVC100 12/09 A3000 950 80 900 000/00 RMK AO2 P0006
14926KSTC STC20060610175011206/10/06 17:50:31  5-MIN KSTC 102350Z 00000KT 10SM -RA SCT024 OVC100 12/09 A3000 950 80 900 000/00 RMK AO2 P0006
14926KSTC STC20060610175511806/10/06 17:55:31  5-MIN KSTC 102355Z 00000KT 9SM -RA SCT027 SCT080 OVC100 12/10 A3000 950 89 800 000/00 RMK AO2 P0000
14926KSTC STC20060610180011806/10/06 18:00:31  5-MIN KSTC 110000Z 00000KT 8SM -RA SCT031 BKN043 OVC100 11/10 A3000 950 93 800 000/00 RMK AO2 P0000
14926KSTC STC20060610180511806/10/06 18:05:31  5-MIN KSTC 110005Z 00000KT 8SM -RA BKN041 BKN075 OVC100 11/10 A3000 950 93 800 000/00 RMK AO2 P0001
14926KSTC STC20060610181012106/10/06 18:10:31  5-MIN KSTC 110010Z 00000KT 6SM -RA BR BKN037 BKN075 OVC100 11/11 A3000 950 96 800 000/00 RMK AO2 P0002
14926KSTC STC20060610181511406/10/06 18:15:31  5-MIN KSTC 110015Z 00000KT 6SM -RA BR BKN039 OVC100 11/10 A3000 950 93 800 000/00 RMK AO2 P0002
14926KSTC STC20060610182011406/10/06 18:20:31  5-MIN KSTC 110020Z 00000KT 6SM -RA BR BKN041 OVC080 12/10 A3000 950 89 800 000/00 RMK AO2 P0003
14926KSTC STC20060610182510706/10/06 18:25:31  5-MIN KSTC 110025Z 00000KT 5SM -RA BR OVC041 11/10 A3000 950 93 800 000/00 RMK AO2 P0004
14926KSTC STC20060610183010706/10/06 18:30:31  5-MIN KSTC 110030Z 00000KT 5SM -RA BR OVC041 11/10 A3000 950 93 800 000/00 RMK AO2 P0005
14926KSTC STC20060610183510706/10/06 18:35:31  5-MIN KSTC 110035Z 00000KT 6SM -RA BR OVC039 11/10 A3001 950 93 700 000/00 RMK AO2 P0006
14926KSTC STC20060610184010706/10/06 18:40:31  5-MIN KSTC 110040Z 00000KT 5SM -RA BR OVC037 11/10 A3001 950 93 700 000/00 RMK AO2 P0006
14926KSTC STC20060610184510706/10/06 18:45:31  5-MIN KSTC 110045Z 00000KT 5SM -RA BR OVC035 11/10 A3001 950 93 700 000/00 RMK AO2 P0007
14926KSTC STC20060610185012406/10/06 18:50:31  5-MIN KSTC 110050Z 00000KT 6SM -RA BR OVC035 11/10 A3001 950 93 700 000/00 RMK AO2 SLP174 P0008 T01110100
14926KSTC STC20060610190010406/10/06 19:00:31  5-MIN KSTC 110100Z 03004KT 7SM -RA OVC031 11/09 A3001 950 86 700 030/04 RMK AO2 P0001
14926KSTC STC20060610190510406/10/06 19:05:31  5-MIN KSTC 110105Z 04003KT 7SM -RA OVC027 11/09 A3001 950 86 700 030/03 RMK AO2 P0002
14926KSTC STC20060610191011806/10/06 19:10:31  5-MIN KSTC 110110Z 00000KT 8SM -RA BKN034 BKN065 OVC080 11/09 A3001 950 89 700 000/00 RMK AO2 P0002
14926KSTC STC20060610191511206/10/06 19:15:31  5-MIN KSTC 110115Z 00000KT 10SM -RA BKN034 OVC075 11/09 A3001 940 89 700 000/00 RMK AO2 P0002
14926KSTC STC20060610192011206/10/06 19:20:31  5-MIN KSTC 110120Z 05003KT 10SM -RA BKN032 OVC075 11/09 A3001 950 89 700 040/03 RMK AO2 P0003
14926KSTC STC20060610192511206/10/06 19:25:31  5-MIN KSTC 110125Z 00000KT 10SM -RA BKN037 OVC075 11/09 A3001 950 89 700 000/00 RMK AO2 P0003
14926KSTC STC20060610193011906/10/06 19:30:31  5-MIN KSTC 110130Z 06003KT 10SM -RA BKN041 BKN050 OVC110 11/09 A3000 950 86 700 050/03 RMK AO2 P0003
14926KSTC STC20060610193511906/10/06 19:35:31  5-MIN KSTC 110135Z 00000KT 10SM -RA SCT043 BKN075 BKN110 11/09 A3000 950 86 700 000/00 RMK AO2 P0003
14926KSTC STC20060610194011206/10/06 19:40:31  5-MIN KSTC 110140Z 06003KT 10SM -RA SCT040 BKN110 11/09 A3000 950 86 800 050/03 RMK AO2 P0003
14926KSTC STC20060610194511206/10/06 19:45:31  5-MIN KSTC 110145Z VRB03KT 10SM -RA SCT042 BKN110 11/09 A3000 950 89 800 VRB/03 RMK AO2 P0004
14926KSTC STC20060610195012906/10/06 19:50:31  5-MIN KSTC 110150Z 00000KT 10SM -RA FEW070 BKN110 11/09 A3000 950 86 800 000/00 RMK AO2 SLP172 P0004 T01110089
14926KSTC STC20060610195511206/10/06 19:55:31  5-MIN KSTC 110155Z 00000KT 10SM -RA FEW085 BKN110 11/09 A3001 950 86 700 000/00 RMK AO2 P0000
14926KSTC STC20060610200011606/10/06 20:00:31  5-MIN KSTC 110200Z 00000KT 10SM FEW085 BKN110 11/09 A3001 950 86 700 000/00 RMK AO2 RAE0156 P0000
14926KSTC STC20060610200510906/10/06 20:05:31  5-MIN KSTC 110205Z 00000KT 10SM BKN100 11/09 A3001 940 86 700 000/00 RMK AO2 RAE0156 P0000
14926KSTC STC20060610201010906/10/06 20:10:31  5-MIN KSTC 110210Z 00000KT 10SM OVC110 11/09 A3002 940 86 700 000/00 RMK AO2 RAE0156 P0000
14926KSTC STC20060610201510906/10/06 20:15:31  5-MIN KSTC 110215Z 00000KT 10SM OVC110 11/09 A3002 940 86 700 000/00 RMK AO2 RAE0156 P0000
14926KSTC STC20060610202010906/10/06 20:20:31  5-MIN KSTC 110220Z 00000KT 10SM OVC110 11/09 A3002 940 86 700 000/00 RMK AO2 RAE0156 P0000
14926KSTC STC20060610202510906/10/06 20:25:31  5-MIN KSTC 110225Z 00000KT 10SM OVC110 11/09 A3002 940 89 700 000/00 RMK AO2 RAE0156 P0000
14926KSTC STC20060610203010906/10/06 20:30:31  5-MIN KSTC 110230Z 00000KT 10SM OVC110 11/09 A3002 940 89 700 000/00 RMK AO2 RAE0156 P0000
14926KSTC STC20060610203510906/10/06 20:35:31  5-MIN KSTC 110235Z 00000KT 10SM OVC100 11/09 A3002 930 89 700 000/00 RMK AO2 RAE0156 P0000
14926KSTC STC20060610204010906/10/06 20:40:31  5-MIN KSTC 110240Z 00000KT 10SM OVC100 11/09 A3002 930 86 700 000/00 RMK AO2 RAE0156 P0000
14926KSTC STC20060610204510906/10/06 20:45:31  5-MIN KSTC 110245Z 00000KT 10SM OVC100 11/09 A3003 930 86 700 000/00 RMK AO2 RAE0156 P0000
14926KSTC STC20060610205013806/10/06 20:50:31  5-MIN KSTC 110250Z 02003KT 10SM OVC100 11/09 A3003 920 86 700 010/03 RMK AO2 RAE0156 SLP182 P0000 60012 T01110089 56007
14926KSTC STC20060610205509506/10/06 20:55:31  5-MIN KSTC 110255Z 01003KT 10SM OVC100 11/09 A3003 920 86 700 010/03 RMK AO2
14926KSTC STC20060610210009506/10/06 21:00:31  5-MIN KSTC 110300Z 03003KT 10SM OVC100 11/09 A3003 920 89 700 030/03 RMK AO2
14926KSTC STC20060610210509506/10/06 21:05:31  5-MIN KSTC 110305Z 03003KT 10SM OVC100 11/09 A3003 930 86 700 020/03 RMK AO2
14926KSTC STC20060610211009506/10/06 21:10:31  5-MIN KSTC 110310Z 00000KT 10SM OVC100 11/09 A3003 920 86 700 000/00 RMK AO2
14926KSTC STC20060610211509506/10/06 21:15:31  5-MIN KSTC 110315Z 02003KT 10SM OVC100 11/09 A3003 920 86 700 020/03 RMK AO2
14926KSTC STC20060610212009506/10/06 21:20:31  5-MIN KSTC 110320Z 35003KT 10SM OVC100 12/09 A3004 920 83 800 350/03 RMK AO2
14926KSTC STC20060610212509506/10/06 21:25:31  5-MIN KSTC 110325Z 00000KT 10SM OVC100 11/09 A3004 910 89 700 000/00 RMK AO2
14926KSTC STC20060610213009506/10/06 21:30:31  5-MIN KSTC 110330Z 36003KT 10SM OVC100 11/09 A3005 910 89 700 360/03 RMK AO2
14926KSTC STC20060610213509506/10/06 21:35:31  5-MIN KSTC 110335Z 00000KT 10SM OVC100 11/09 A3005 910 89 700 000/00 RMK AO2
14926KSTC STC20060610214009506/10/06 21:40:31  5-MIN KSTC 110340Z 02003KT 10SM OVC100 11/09 A3005 910 89 700 010/03 RMK AO2
14926KSTC STC20060610214509506/10/06 21:45:31  5-MIN KSTC 110345Z 02003KT 10SM OVC100 12/09 A3005 910 83 800 020/03 RMK AO2
14926KSTC STC20060610215011206/10/06 21:50:31  5-MIN KSTC 110350Z 02003KT 10SM OVC100 12/09 A3005 910 83 800 020/03 RMK AO2 SLP185 T01170089
14926KSTC STC20060610215510006/10/06 21:55:31  5-MIN KSTC 110355Z AUTO 02004KT 10SM OVC100 11/09 A3004 910 86 700 020/04 RMK AO2
14926KSTC STC20060610220010006/10/06 22:00:31  5-MIN KSTC 110400Z AUTO 02004KT 10SM OVC100 12/09 A3004 910 83 800 020/04 RMK AO2
14926KSTC STC20060610220510006/10/06 22:05:31  5-MIN KSTC 110405Z AUTO 02003KT 10SM OVC100 12/09 A3004 910 83 800 020/03 RMK AO2
14926KSTC STC20060610221010006/10/06 22:10:31  5-MIN KSTC 110410Z AUTO 01004KT 10SM OVC100 12/09 A3004 910 83 800 010/04 RMK AO2
14926KSTC STC20060610221510006/10/06 22:15:31  5-MIN KSTC 110415Z AUTO 03006KT 10SM OVC100 11/09 A3004 920 86 700 030/06 RMK AO2
14926KSTC STC20060610222010006/10/06 22:20:31  5-MIN KSTC 110420Z AUTO 04007KT 10SM OVC100 12/08 A3003 920 80 800 040/07 RMK AO2
14926KSTC STC20060610222510706/10/06 22:25:31  5-MIN KSTC 110425Z AUTO 05006KT 10SM OVC100 12/08 A3002 930 77 800 050/06 RMK AO2 PRESFR
14926KSTC STC20060610223010006/10/06 22:30:31  5-MIN KSTC 110430Z AUTO 05006KT 10SM OVC110 11/08 A3002 930 80 700 050/06 RMK AO2
14926KSTC STC20060610223510006/10/06 22:35:31  5-MIN KSTC 110435Z AUTO 05006KT 10SM OVC110 11/08 A3002 930 80 700 040/06 RMK AO2
14926KSTC STC20060610224010006/10/06 22:40:31  5-MIN KSTC 110440Z AUTO 05006KT 10SM OVC110 11/07 A3002 930 77 700 040/06 RMK AO2
14926KSTC STC20060610224510006/10/06 22:45:31  5-MIN KSTC 110445Z AUTO 05006KT 10SM OVC110 11/07 A3003 930 74 700 050/06 RMK AO2
14926KSTC STC20060610225011706/10/06 22:50:31  5-MIN KSTC 110450Z AUTO 05006KT 10SM OVC110 11/07 A3002 930 74 700 050/06 RMK AO2 SLP178 T01110067
14926KSTC STC20060610225510006/10/06 22:55:31  5-MIN KSTC 110455Z AUTO 05007KT 10SM OVC120 11/07 A3002 930 74 700 050/07 RMK AO2
14926KSTC STC20060610230010006/10/06 23:00:31  5-MIN KSTC 110500Z AUTO 05008KT 10SM OVC120 11/06 A3003 930 71 700 050/08 RMK AO2
14926KSTC STC20060610230510006/10/06 23:05:31  5-MIN KSTC 110505Z AUTO 06005KT 10SM OVC110 11/06 A3003 920 68 700 050/05 RMK AO2
14926KSTC STC20060610231010006/10/06 23:10:31  5-MIN KSTC 110510Z AUTO 06006KT 10SM OVC110 11/06 A3003 920 68 700 060/06 RMK AO2
14926KSTC STC20060610231510006/10/06 23:15:31  5-MIN KSTC 110515Z AUTO 07005KT 10SM OVC110 11/06 A3003 920 68 700 060/05 RMK AO2
14926KSTC STC20060610232010006/10/06 23:20:31  5-MIN KSTC 110520Z AUTO 07004KT 10SM OVC110 11/06 A3004 920 68 700 060/04 RMK AO2
14926KSTC STC20060610232510006/10/06 23:25:31  5-MIN KSTC 110525Z AUTO 07004KT 10SM OVC110 11/06 A3003 920 71 600 060/04 RMK AO2
14926KSTC STC20060610233010006/10/06 23:30:31  5-MIN KSTC 110530Z AUTO 06004KT 10SM OVC110 11/06 A3003 920 71 600 060/04 RMK AO2
14926KSTC STC20060610233510006/10/06 23:35:31  5-MIN KSTC 110535Z AUTO 06005KT 10SM OVC110 11/06 A3003 930 71 700 060/05 RMK AO2
14926KSTC STC20060610234010006/10/06 23:40:31  5-MIN KSTC 110540Z AUTO 06004KT 10SM OVC110 11/06 A3003 920 71 700 060/04 RMK AO2
14926KSTC STC20060610234510006/10/06 23:45:31  5-MIN KSTC 110545Z AUTO 07003KT 10SM OVC110 11/06 A3003 930 71 700 070/03 RMK AO2
14926KSTC STC20060610235015106/10/06 23:50:31  5-MIN KSTC 110550Z AUTO VRB03KT 10SM OVC110 11/06 A3003 930 71 700 VRB/03 RMK AO2 SLP180 60012 T01060056 10117 20106 401390072 53011
14926KSTC STC20060610235510006/10/06 23:55:31  5-MIN KSTC 110555Z AUTO 00000KT 10SM OVC110 11/06 A3003 930 71 700 000/00 RMK AO2
14926KSTC STC20060611000010006/11/06 00:00:32  5-MIN KSTC 110600Z AUTO 09003KT 10SM OVC110 11/06 A3002 930 71 700 080/03 RMK AO2
14926KSTC STC20060611000510006/11/06 00:05:31  5-MIN KSTC 110605Z AUTO 08003KT 10SM OVC110 11/06 A3002 930 71 700 080/03 RMK AO2
14926KSTC STC20060611001010006/11/06 00:10:31  5-MIN KSTC 110610Z AUTO 08003KT 10SM OVC110 11/06 A3002 940 71 700 080/03 RMK AO2
14926KSTC STC20060611001510006/11/06 00:15:31  5-MIN KSTC 110615Z AUTO 06004KT 10SM OVC110 11/06 A3001 940 71 700 060/04 RMK AO2
14926KSTC STC20060611002010006/11/06 00:20:31  5-MIN KSTC 110620Z AUTO 07004KT 10SM OVC110 11/06 A3001 940 71 700 060/04 RMK AO2
14926KSTC STC20060611002510006/11/06 00:25:31  5-MIN KSTC 110625Z AUTO 08003KT 10SM BKN110 11/05 A3001 940 68 700 080/03 RMK AO2
14926KSTC STC20060611003010006/11/06 00:30:31  5-MIN KSTC 110630Z AUTO 08003KT 10SM BKN110 11/05 A3001 940 68 700 070/03 RMK AO2
14926KSTC STC20060611003510006/11/06 00:35:31  5-MIN KSTC 110635Z AUTO 00000KT 10SM BKN110 11/05 A3001 940 68 700 000/00 RMK AO2
14926KSTC STC20060611004010006/11/06 00:40:31  5-MIN KSTC 110640Z AUTO 00000KT 10SM BKN110 11/05 A3002 940 68 700 000/00 RMK AO2
14926KSTC STC20060611004510006/11/06 00:45:31  5-MIN KSTC 110645Z AUTO 00000KT 10SM SCT110 11/05 A3002 940 68 700 000/00 RMK AO2
14926KSTC STC20060611005011706/11/06 00:50:31  5-MIN KSTC 110650Z AUTO 00000KT 10SM FEW110 11/05 A3002 930 68 700 000/00 RMK AO2 SLP177 T01060050
14926KSTC STC20060611005510006/11/06 00:55:31  5-MIN KSTC 110655Z AUTO 12003KT 10SM FEW110 11/05 A3002 940 68 700 120/03 RMK AO2
14926KSTC STC20060611010010006/11/06 01:00:31  5-MIN KSTC 110700Z AUTO 13003KT 10SM FEW110 10/06 A3002 940 74 600 130/03 RMK AO2
14926KSTC STC20060611010509706/11/06 01:05:31  5-MIN KSTC 110705Z AUTO 00000KT 10SM CLR 10/06 A3002 930 74 600 000/00 RMK AO2
14926KSTC STC20060611011009706/11/06 01:10:31  5-MIN KSTC 110710Z AUTO 00000KT 10SM CLR 10/06 A3002 930 77 600 000/00 RMK AO2
14926KSTC STC20060611011509706/11/06 01:15:31  5-MIN KSTC 110715Z AUTO 00000KT 10SM CLR 09/07 A3002 940 86 500 000/00 RMK AO2
14926KSTC STC20060611012009706/11/06 01:20:31  5-MIN KSTC 110720Z AUTO 00000KT 10SM CLR 09/07 A3002 940 83 500 000/00 RMK AO2
14926KSTC STC20060611012510006/11/06 01:25:31  5-MIN KSTC 110725Z AUTO 00000KT 10SM FEW100 09/07 A3002 940 83 500 000/00 RMK AO2
14926KSTC STC20060611013010006/11/06 01:30:31  5-MIN KSTC 110730Z AUTO 00000KT 10SM FEW110 09/07 A3002 940 83 500 000/00 RMK AO2
14926KSTC STC20060611013510006/11/06 01:35:31  5-MIN KSTC 110735Z AUTO 00000KT 10SM FEW110 09/07 A3002 940 86 500 000/00 RMK AO2
14926KSTC STC20060611014010006/11/06 01:40:31  5-MIN KSTC 110740Z AUTO 00000KT 10SM FEW100 09/08 A3001 940 89 500 000/00 RMK AO2
14926KSTC STC20060611014510006/11/06 01:45:31  5-MIN KSTC 110745Z AUTO 00000KT 10SM FEW100 09/08 A3001 940 93 500 000/00 RMK AO2
14926KSTC STC20060611015011706/11/06 01:50:31  5-MIN KSTC 110750Z AUTO 05003KT 10SM FEW100 09/07 A3001 950 89 500 050/03 RMK AO2 SLP173 T00890072
14926KSTC STC20060611015510006/11/06 01:55:31  5-MIN KSTC 110755Z AUTO 04003KT 10SM FEW100 09/07 A3000 950 86 500 030/03 RMK AO2
14926KSTC STC20060611020009706/11/06 02:00:31  5-MIN KSTC 110800Z AUTO 04003KT 10SM CLR 10/06 A3000 950 77 600 030/03 RMK AO2
14926KSTC STC20060611020510006/11/06 02:05:31  5-MIN KSTC 110805Z AUTO 04003KT 10SM FEW100 10/06 A3000 950 77 600 040/03 RMK AO2
14926KSTC STC20060611021010006/11/06 02:10:31  5-MIN KSTC 110810Z AUTO 00000KT 10SM FEW100 10/06 A3000 950 74 600 000/00 RMK AO2
14926KSTC STC20060611021510006/11/06 02:15:31  5-MIN KSTC 110815Z AUTO 00000KT 10SM FEW100 10/06 A3000 950 74 600 000/00 RMK AO2
14926KSTC STC20060611022010006/11/06 02:20:31  5-MIN KSTC 110820Z AUTO 00000KT 10SM FEW100 10/06 A2999 960 74 600 000/00 RMK AO2
14926KSTC STC20060611022510006/11/06 02:25:31  5-MIN KSTC 110825Z AUTO 00000KT 10SM FEW100 09/06 A2999 960 76 600 000/00 RMK AO2
14926KSTC STC20060611023010006/11/06 02:30:31  5-MIN KSTC 110830Z AUTO 00000KT 10SM FEW110 09/06 A2999 960 79 600 000/00 RMK AO2
14926KSTC STC20060611023510006/11/06 02:35:31  5-MIN KSTC 110835Z AUTO 00000KT 10SM SCT110 09/06 A2999 970 76 600 000/00 RMK AO2
14926KSTC STC20060611024010006/11/06 02:40:31  5-MIN KSTC 110840Z AUTO 06003KT 10SM SCT120 09/06 A2998 970 76 600 060/03 RMK AO2
14926KSTC STC20060611024510006/11/06 02:45:31  5-MIN KSTC 110845Z AUTO 00000KT 10SM BKN120 10/05 A2998 970 71 600 000/00 RMK AO2
14926KSTC STC20060611025012306/11/06 02:50:31  5-MIN KSTC 110850Z AUTO 05003KT 10SM BKN120 10/06 A2998 970 74 600 050/03 RMK AO2 SLP162 T01000056 58001
14926KSTC STC20060611025510006/11/06 02:55:31  5-MIN KSTC 110855Z AUTO 05003KT 10SM BKN120 09/06 A2997 980 79 600 050/03 RMK AO2
14926KSTC STC20060611030010006/11/06 03:00:31  5-MIN KSTC 110900Z AUTO 05003KT 10SM OVC120 09/06 A2997 980 76 600 050/03 RMK AO2
14926KSTC STC20060611030510006/11/06 03:05:31  5-MIN KSTC 110905Z AUTO 05005KT 10SM OVC120 09/05 A2997 980 74 600 050/05 RMK AO2
14926KSTC STC20060611031010006/11/06 03:10:31  5-MIN KSTC 110910Z AUTO 06004KT 10SM OVC110 09/04 A2997 980 71 600 060/04 RMK AO2
14926KSTC STC20060611031510006/11/06 03:15:31  5-MIN KSTC 110915Z AUTO 06006KT 10SM OVC110 09/04 A2997 980 71 600 050/06 RMK AO2
14926KSTC STC20060611032010006/11/06 03:20:31  5-MIN KSTC 110920Z AUTO 06006KT 10SM OVC110 09/04 A2997 980 68 600 060/06 RMK AO2
14926KSTC STC20060611032510006/11/06 03:25:31  5-MIN KSTC 110925Z AUTO 07005KT 10SM OVC110 09/04 A2997 980 68 600 060/05 RMK AO2
14926KSTC STC20060611033010006/11/06 03:30:31  5-MIN KSTC 110930Z AUTO 07005KT 10SM OVC110 09/04 A2998 970 68 600 070/05 RMK AO2
14926KSTC STC20060611033510006/11/06 03:35:31  5-MIN KSTC 110935Z AUTO 07005KT 10SM OVC110 09/03 A2998 970 65 600 070/05 RMK AO2
14926KSTC STC20060611034010006/11/06 03:40:31  5-MIN KSTC 110940Z AUTO 09004KT 10SM OVC110 09/04 A2999 970 68 600 080/04 RMK AO2
14926KSTC STC20060611034510006/11/06 03:45:31  5-MIN KSTC 110945Z AUTO 08004KT 10SM OVC120 09/04 A2999 960 68 600 080/04 RMK AO2
14926KSTC STC20060611035011706/11/06 03:50:31  5-MIN KSTC 110950Z AUTO 08005KT 10SM OVC120 09/04 A2999 970 68 600 080/05 RMK AO2 SLP165 T00940039
14926KSTC STC20060611035510006/11/06 03:55:31  5-MIN KSTC 110955Z AUTO 08006KT 10SM BKN120 09/04 A2998 970 68 600 080/06 RMK AO2
14926KSTC STC20060611040010006/11/06 04:00:31  5-MIN KSTC 111000Z AUTO 07005KT 10SM BKN120 09/03 A2999 970 65 600 070/05 RMK AO2
14926KSTC STC20060611040510006/11/06 04:05:31  5-MIN KSTC 111005Z AUTO 08004KT 10SM BKN120 09/03 A2999 960 65 600 080/04 RMK AO2
14926KSTC STC20060611041010006/11/06 04:10:31  5-MIN KSTC 111010Z AUTO 08004KT 10SM SCT120 09/03 A2999 960 65 600 070/04 RMK AO2
14926KSTC STC20060611041510006/11/06 04:15:31  5-MIN KSTC 111015Z AUTO 07005KT 10SM FEW120 09/03 A2999 960 65 600 070/05 RMK AO2
14926KSTC STC20060611042010006/11/06 04:20:31  5-MIN KSTC 111020Z AUTO 07004KT 10SM FEW120 09/03 A3000 950 65 600 070/04 RMK AO2
14926KSTC STC20060611042510006/11/06 04:25:31  5-MIN KSTC 111025Z AUTO 07004KT 10SM FEW120 09/03 A3000 950 65 600 070/04 RMK AO2
14926KSTC STC20060611043009706/11/06 04:30:31  5-MIN KSTC 111030Z AUTO 07004KT 10SM CLR 09/04 A3000 950 68 600 070/04 RMK AO2
14926KSTC STC20060611043509706/11/06 04:35:31  5-MIN KSTC 111035Z AUTO 08004KT 10SM CLR 09/04 A3001 950 68 500 080/04 RMK AO2
14926KSTC STC20060611044009706/11/06 04:40:31  5-MIN KSTC 111040Z AUTO 09004KT 10SM CLR 09/04 A3001 940 71 500 080/04 RMK AO2
14926KSTC STC20060611044510006/11/06 04:45:31  5-MIN KSTC 111045Z AUTO 00000KT 10SM FEW110 09/04 A3001 940 73 500 000/00 RMK AO2
14926KSTC STC20060611045011706/11/06 04:50:31  5-MIN KSTC 111050Z AUTO 00000KT 10SM SCT110 09/04 A3002 940 73 500 000/00 RMK AO2 SLP176 T00890044
14926KSTC STC20060611045510006/11/06 04:55:31  5-MIN KSTC 111055Z AUTO 00000KT 10SM BKN110 09/04 A3001 940 68 500 000/00 RMK AO2
14926KSTC STC20060611050010006/11/06 05:00:31  5-MIN KSTC 111100Z AUTO 00000KT 10SM BKN110 09/04 A3002 940 73 500 000/00 RMK AO2
14926KSTC STC20060611050510006/11/06 05:05:31  5-MIN KSTC 111105Z AUTO 00000KT 10SM BKN110 09/04 A3002 930 73 500 000/00 RMK AO2
14926KSTC STC20060611051010006/11/06 05:10:31  5-MIN KSTC 111110Z AUTO 00000KT 10SM BKN110 09/04 A3003 930 68 500 000/00 RMK AO2
14926KSTC STC20060611051510006/11/06 05:15:31  5-MIN KSTC 111115Z AUTO 00000KT 10SM BKN110 09/04 A3003 930 68 500 000/00 RMK AO2
14926KSTC STC20060611052010006/11/06 05:20:31  5-MIN KSTC 111120Z AUTO 00000KT 10SM BKN110 09/05 A3003 930 74 500 000/00 RMK AO2
14926KSTC STC20060611052510006/11/06 05:25:31  5-MIN KSTC 111125Z AUTO 00000KT 10SM BKN110 09/04 A3003 920 71 500 000/00 RMK AO2
14926KSTC STC20060611053010006/11/06 05:30:31  5-MIN KSTC 111130Z AUTO 00000KT 10SM BKN110 09/04 A3003 920 71 500 000/00 RMK AO2
14926KSTC STC20060611053510006/11/06 05:35:31  5-MIN KSTC 111135Z AUTO 00000KT 10SM BKN110 09/05 A3003 920 74 500 000/00 RMK AO2
14926KSTC STC20060611054010006/11/06 05:40:31  5-MIN KSTC 111140Z AUTO 00000KT 10SM OVC110 09/05 A3004 920 74 500 000/00 RMK AO2
14926KSTC STC20060611054510006/11/06 05:45:31  5-MIN KSTC 111145Z AUTO 00000KT 10SM OVC110 09/05 A3004 920 74 500 000/00 RMK AO2
14926KSTC STC20060611055013606/11/06 05:50:31  5-MIN KSTC 111150Z 06003KT 10SM OVC110 09/05 A3004 920 74 500 050/03 RMK AO2 SLP184 70020 T00940050 10106 20089 58018
14926KSTC STC20060611055509506/11/06 05:55:31  5-MIN KSTC 111155Z 00000KT 10SM OVC110 09/05 A3004 910 74 500 000/00 RMK AO2
14926KSTC STC20060611060009506/11/06 06:00:31  5-MIN KSTC 111200Z 00000KT 10SM OVC110 09/04 A3005 910 71 500 000/00 RMK AO2
14926KSTC STC20060611060510406/11/06 06:05:31  5-MIN KSTC 111205Z 00000KT 10SM TS OVC110 09/04 A3005 910 71 500 000/00 RMK AO2 TSB05
14926KSTC STC20060611061010406/11/06 06:10:31  5-MIN KSTC 111210Z 05003KT 10SM TS OVC110 09/04 A3004 910 71 500 050/03 RMK AO2 TSB05
14926KSTC STC20060611061510406/11/06 06:15:31  5-MIN KSTC 111215Z 04003KT 10SM TS OVC110 09/05 A3004 910 74 500 030/03 RMK AO2 TSB05
14926KSTC STC20060611062010406/11/06 06:20:31  5-MIN KSTC 111220Z 00000KT 10SM OVC110 09/04 A3004 910 71 500 000/00 RMK AO2 TSB05E20
14926KSTC STC20060611062510406/11/06 06:25:31  5-MIN KSTC 111225Z VRB03KT 10SM OVC110 09/04 A3004 910 71 500 VRB/03 RMK AO2 TSB05E20
14926KSTC STC20060611063010406/11/06 06:30:31  5-MIN KSTC 111230Z 00000KT 10SM OVC110 09/04 A3005 910 71 500 000/00 RMK AO2 TSB05E20
14926KSTC STC20060611063510406/11/06 06:35:31  5-MIN KSTC 111235Z 00000KT 10SM OVC110 09/04 A3005 910 71 500 000/00 RMK AO2 TSB05E20
14926KSTC STC20060611064010406/11/06 06:40:31  5-MIN KSTC 111240Z 05004KT 10SM OVC110 09/04 A3005 910 71 500 050/04 RMK AO2 TSB05E20
14926KSTC STC20060611064510406/11/06 06:45:31  5-MIN KSTC 111245Z 05004KT 10SM OVC110 09/04 A3005 910 71 500 050/04 RMK AO2 TSB05E20
14926KSTC STC20060611065012106/11/06 06:50:31  5-MIN KSTC 111250Z 05004KT 10SM OVC110 09/05 A3005 910 74 500 040/04 RMK AO2 TSB05E20 SLP187 T00940050
14926KSTC STC20060611065509506/11/06 06:55:31  5-MIN KSTC 111255Z 05004KT 10SM OVC110 09/05 A3005 910 74 500 050/04 RMK AO2
14926KSTC STC20060611070009506/11/06 07:00:31  5-MIN KSTC 111300Z 05004KT 10SM OVC110 09/05 A3005 910 74 500 050/04 RMK AO2
14926KSTC STC20060611070509506/11/06 07:05:31  5-MIN KSTC 111305Z 05003KT 10SM OVC110 09/05 A3005 910 74 500 040/03 RMK AO2
14926KSTC STC20060611071009506/11/06 07:10:31  5-MIN KSTC 111310Z 06003KT 10SM OVC110 10/05 A3005 910 71 600 060/03 RMK AO2
14926KSTC STC20060611071509506/11/06 07:15:31  5-MIN KSTC 111315Z 05003KT 10SM OVC120 10/05 A3005 900 71 600 050/03 RMK AO2
14926KSTC STC20060611072009506/11/06 07:20:31  5-MIN KSTC 111320Z 05003KT 10SM OVC120 10/05 A3006 900 71 600 050/03 RMK AO2
14926KSTC STC20060611072509506/11/06 07:25:31  5-MIN KSTC 111325Z 06003KT 10SM OVC120 10/05 A3006 900 71 600 060/03 RMK AO2
14926KSTC STC20060611073009506/11/06 07:30:31  5-MIN KSTC 111330Z 00000KT 10SM BKN120 10/05 A3006 900 71 600 000/00 RMK AO2
14926KSTC STC20060611073509506/11/06 07:35:31  5-MIN KSTC 111335Z 06004KT 10SM BKN120 10/05 A3006 900 71 600 050/04 RMK AO2
14926KSTC STC20060611074009506/11/06 07:40:31  5-MIN KSTC 111340Z 07003KT 10SM BKN120 10/05 A3006 900 71 600 070/03 RMK AO2
14926KSTC STC20060611074510206/11/06 07:45:31  5-MIN KSTC 111345Z 08003KT 10SM FEW100 SCT120 09/06 A3006 900 76 500 070/03 RMK AO2
14926KSTC STC20060611075011906/11/06 07:50:31  5-MIN KSTC 111350Z 00000KT 10SM FEW095 SCT120 10/05 A3006 900 71 600 000/00 RMK AO2 SLP192 T01000050
14926KSTC STC20060611075509506/11/06 07:55:31  5-MIN KSTC 111355Z 00000KT 10SM SCT090 10/06 A3006 900 74 600 000/00 RMK AO2
14926KSTC STC20060611080009506/11/06 08:00:31  5-MIN KSTC 111400Z 04003KT 10SM SCT090 10/06 A3006 900 74 600 030/03 RMK AO2
14926KSTC STC20060611080510206/11/06 08:05:31  5-MIN KSTC 111405Z 03004KT 10SM BKN080 BKN100 10/06 A3006 890 74 500 030/04 RMK AO2
14926KSTC STC20060611081011806/11/06 08:10:31  5-MIN KSTC 111410Z 21006KT 10SM -RA BKN075 BKN090 10/06 A3007 890 74 500 210/06 RMK AO2 RAB09 P0000
14926KSTC STC20060611081511806/11/06 08:15:31  5-MIN KSTC 111415Z 17003KT 10SM -RA BKN070 OVC090 10/06 A3007 890 77 500 170/03 RMK AO2 RAB09 P0000
14926KSTC STC20060611082012406/11/06 08:20:31  5-MIN KSTC 111420Z 17004KT 4SM -RA BKN050 BKN075 OVC090 10/06 A3007 880 77 500 160/04 RMK AO2 RAB09 P0000
14926KSTC STC20060611082512106/11/06 08:25:31  5-MIN KSTC 111425Z 10004KT 2 1/2SM +RA BKN040 OVC075 09/06 A3007 880 79 500 090/04 RMK AO2 RAB09 P0004
14926KSTC STC20060611083011906/11/06 08:30:31  5-MIN KSTC 111430Z 00000KT 3SM RA BR BKN033 OVC075 09/07 A3008 880 86 400 000/00 RMK AO2 RAB09 P0006
14926KSTC STC20060611083511906/11/06 08:35:31  5-MIN KSTC 111435Z 00000KT 3SM RA BR BKN028 OVC040 09/07 A3008 880 86 400 000/00 RMK AO2 RAB09 P0008
14926KSTC STC20060611084012006/11/06 08:40:31  5-MIN KSTC 111440Z 00000KT 5SM -RA BR BKN024 OVC040 09/07 A3008 880 86 400 000/00 RMK AO2 RAB09 P0008
14926KSTC STC20060611084511206/11/06 08:45:31  5-MIN KSTC 111445Z 05005KT 6SM RA BR OVC021 09/07 A3007 880 89 400 050/05 RMK AO2 RAB09 P0009
14926KSTC STC20060611085014106/11/06 08:50:31  5-MIN KSTC 111450Z 06006KT 5SM RA BR OVC019 09/07 A3007 890 89 400 060/06 RMK AO2 RAB09 SLP197 P0010 60010 T00890072 53022
14926KSTC STC20060611085511406/11/06 08:55:31  5-MIN KSTC 111455Z 07006KT 6SM -RA BR BKN019 OVC039 09/07 A3007 890 86 400 060/06 RMK AO2 P0000
14926KSTC STC20060611090011106/11/06 09:00:31  5-MIN KSTC 111500Z 06006KT 8SM -RA BKN021 OVC085 09/07 A3007 890 86 400 060/06 RMK AO2 P0001
14926KSTC STC20060611090511206/11/06 09:05:31  5-MIN KSTC 111505Z 07007KT 10SM -RA BKN023 BKN080 09/07 A3008 880 86 400 070/07 RMK AO2 P0001
14926KSTC STC20060611091011206/11/06 09:10:31  5-MIN KSTC 111510Z 08006KT 10SM -RA SCT023 BKN080 09/07 A3008 880 86 400 070/06 RMK AO2 P0001
14926KSTC STC20060611091511206/11/06 09:15:31  5-MIN KSTC 111515Z 07006KT 10SM -RA SCT025 BKN080 09/07 A3008 880 89 400 070/06 RMK AO2 P0001
14926KSTC STC20060611092011206/11/06 09:20:31  5-MIN KSTC 111520Z 05006KT 10SM -RA FEW032 BKN085 09/07 A3008 880 89 400 050/06 RMK AO2 P0001
14926KSTC STC20060611092511206/11/06 09:25:31  5-MIN KSTC 111525Z 05006KT 10SM -RA FEW026 BKN085 09/07 A3008 880 89 400 040/06 RMK AO2 P0001
14926KSTC STC20060611093011906/11/06 09:30:31  5-MIN KSTC 111530Z 03005KT 10SM -RA FEW023 BKN085 BKN100 09/08 A3008 880 89 500 030/05 RMK AO2 P0001
14926KSTC STC20060611093511906/11/06 09:35:31  5-MIN KSTC 111535Z 05005KT 10SM -RA FEW031 BKN085 BKN100 09/07 A3008 880 86 500 040/05 RMK AO2 P0001
14926KSTC STC20060611094011906/11/06 09:40:31  5-MIN KSTC 111540Z 04004KT 10SM -RA FEW039 SCT085 BKN110 09/07 A3008 880 86 500 040/04 RMK AO2 P0001
14926KSTC STC20060611094511906/11/06 09:45:31  5-MIN KSTC 111545Z 00000KT 10SM -RA FEW037 SCT085 BKN110 10/08 A3008 880 86 500 000/00 RMK AO2 P0001
14926KSTC STC20060611095012906/11/06 09:50:31  5-MIN KSTC 111550Z VRB03KT 10SM -RA FEW065 BKN110 10/08 A3008 880 86 500 VRB/03 RMK AO2 SLP199 P0001 T01000078
14926KSTC STC20060611095511206/11/06 09:55:31  5-MIN KSTC 111555Z 11004KT 10SM -RA FEW080 BKN110 10/08 A3008 880 89 500 100/04 RMK AO2 P0000
14926KSTC STC20060611100010906/11/06 10:00:31  5-MIN KSTC 111600Z 11003KT 10SM BKN110 10/08 A3008 880 89 500 110/03 RMK AO2 RAE1556 P0000
14926KSTC STC20060611100510906/11/06 10:05:31  5-MIN KSTC 111605Z 09003KT 10SM BKN110 10/08 A3008 880 89 500 090/03 RMK AO2 RAE1556 P0000
14926KSTC STC20060611101010906/11/06 10:10:31  5-MIN KSTC 111610Z 12003KT 10SM BKN110 10/08 A3008 880 89 500 120/03 RMK AO2 RAE1556 P0000
14926KSTC STC20060611101510906/11/06 10:15:31  5-MIN KSTC 111615Z VRB03KT 10SM BKN110 10/08 A3008 870 86 500 VRB/03 RMK AO2 RAE1556 P0000
14926KSTC STC20060611102010906/11/06 10:20:31  5-MIN KSTC 111620Z 08004KT 10SM SCT110 10/08 A3009 870 86 500 080/04 RMK AO2 RAE1556 P0000
14926KSTC STC20060611102510906/11/06 10:25:31  5-MIN KSTC 111625Z 10004KT 10SM SCT110 10/08 A3009 870 89 500 100/04 RMK AO2 RAE1556 P0000
14926KSTC STC20060611103010906/11/06 10:30:31  5-MIN KSTC 111630Z 10004KT 10SM SCT110 10/08 A3009 870 89 500 100/04 RMK AO2 RAE1556 P0000
14926KSTC STC20060611103510906/11/06 10:35:31  5-MIN KSTC 111635Z 06003KT 10SM SCT110 11/08 A3009 870 86 600 060/03 RMK AO2 RAE1556 P0000
14926KSTC STC20060611104010906/11/06 10:40:31  5-MIN KSTC 111640Z VRB03KT 10SM SCT100 11/08 A3009 870 86 600 VRB/03 RMK AO2 RAE1556 P0000
14926KSTC STC20060611104510906/11/06 10:45:31  5-MIN KSTC 111645Z 00000KT 10SM FEW100 11/08 A3009 870 86 600 000/00 RMK AO2 RAE1556 P0000
14926KSTC STC20060611105012606/11/06 10:50:31  5-MIN KSTC 111650Z 04004KT 10SM FEW100 11/08 A3009 870 83 700 040/04 RMK AO2 RAE1556 SLP201 P0000 T01110083
14926KSTC STC20060611105509506/11/06 10:55:31  5-MIN KSTC 111655Z 03004KT 10SM FEW100 11/08 A3009 870 83 700 030/04 RMK AO2
14926KSTC STC20060611110009506/11/06 11:00:31  5-MIN KSTC 111700Z 05004KT 10SM FEW100 11/08 A3009 870 83 700 050/04 RMK AO2
14926KSTC STC20060611110509206/11/06 11:05:31  5-MIN KSTC 111705Z 06004KT 10SM CLR 11/08 A3009 870 80 700 050/04 RMK AO2
14926KSTC STC20060611111009206/11/06 11:10:31  5-MIN KSTC 111710Z 06004KT 10SM CLR 12/08 A3008 870 80 700 060/04 RMK AO2
14926KSTC STC20060611111509206/11/06 11:15:31  5-MIN KSTC 111715Z 05005KT 10SM CLR 12/09 A3009 870 83 700 040/05 RMK AO2
14926KSTC STC20060611112009206/11/06 11:20:31  5-MIN KSTC 111720Z VRB04KT 10SM CLR 12/09 A3009 870 83 800 VRB/04 RMK AO2
14926KSTC STC20060611112509206/11/06 11:25:31  5-MIN KSTC 111725Z 07004KT 10SM CLR 12/09 A3009 870 83 800 070/04 RMK AO2
14926KSTC STC20060611113009206/11/06 11:30:31  5-MIN KSTC 111730Z VRB04KT 10SM CLR 13/09 A3009 870 80 900 VRB/04 RMK AO2
14926KSTC STC20060611113509206/11/06 11:35:31  5-MIN KSTC 111735Z 35004KT 10SM CLR 13/10 A3009 870 80 900 350/04 RMK AO2
14926KSTC STC20060611114009206/11/06 11:40:31  5-MIN KSTC 111740Z VRB03KT 10SM CLR 13/09 A3009 870 77 900 VRB/03 RMK AO2
14926KSTC STC20060611114509606/11/06 11:45:31  5-MIN KSTC 111745Z 04004KT 10SM FEW090 14/09 A3009 870 74 1000 040/04 RMK AO2
14926KSTC STC20060611115013706/11/06 11:50:31  5-MIN KSTC 111750Z 11004KT 10SM FEW090 14/09 A3009 870 74 1000 110/04 RMK AO2 SLP201 60012 T01390094 10139 20089 53010
14926KSTC STC20060611115509606/11/06 11:55:31  5-MIN KSTC 111755Z 00000KT 10SM SCT090 14/10 A3009 870 77 1000 000/00 RMK AO2
14926KSTC STC20060611120009606/11/06 12:00:31  5-MIN KSTC 111800Z 00000KT 10SM SCT090 15/11 A3009 870 74 1100 000/00 RMK AO2
14926KSTC STC20060611120509606/11/06 12:05:31  5-MIN KSTC 111805Z VRB03KT 10SM SCT095 15/09 A3009 870 66 1100 VRB/03 RMK AO2
14926KSTC STC20060611121009606/11/06 12:10:31  5-MIN KSTC 111810Z 00000KT 10SM SCT095 15/09 A3009 870 66 1100 000/00 RMK AO2
14926KSTC STC20060611121509606/11/06 12:15:31  5-MIN KSTC 111815Z 09004KT 10SM SCT100 16/10 A3009 870 69 1200 090/04 RMK AO2
14926KSTC STC20060611122009606/11/06 12:20:31  5-MIN KSTC 111820Z 09004KT 10SM FEW100 15/09 A3009 870 69 1100 090/04 RMK AO2
14926KSTC STC20060611122509606/11/06 12:25:31  5-MIN KSTC 111825Z VRB03KT 10SM FEW100 16/08 A3009 870 62 1200 VRB/03 RMK AO2
14926KSTC STC20060611123009606/11/06 12:30:31  5-MIN KSTC 111830Z 09004KT 10SM FEW100 16/09 A3008 880 62 1300 080/04 RMK AO2
14926KSTC STC20060611123509606/11/06 12:35:31  5-MIN KSTC 111835Z VRB03KT 10SM FEW100 16/08 A3008 880 59 1300 VRB/03 RMK AO2
14926KSTC STC20060611124009606/11/06 12:40:31  5-MIN KSTC 111840Z 09003KT 10SM FEW110 16/08 A3008 880 59 1300 080/03 RMK AO2
14926KSTC STC20060611124509606/11/06 12:45:31  5-MIN KSTC 111845Z 11005KT 10SM FEW110 16/09 A3008 880 62 1300 110/05 RMK AO2
14926KSTC STC20060611125011006/11/06 12:50:31  5-MIN KSTC 111850Z VRB04KT 10SM CLR 16/08 A3008 880 59 1300 VRB/04 RMK AO2 SLP196 T01610083
14926KSTC STC20060611125509306/11/06 12:55:31  5-MIN KSTC 111855Z 00000KT 10SM CLR 17/08 A3008 880 55 1300 000/00 RMK AO2
14926KSTC STC20060611130009606/11/06 13:00:31  5-MIN KSTC 111900Z VRB05KT 10SM FEW110 17/08 A3008 880 55 1400 VRB/05 RMK AO2
14926KSTC STC20060611130509306/11/06 13:05:31  5-MIN KSTC 111905Z VRB04KT 10SM CLR 17/08 A3008 880 53 1400 VRB/04 RMK AO2
14926KSTC STC20060611131009306/11/06 13:10:31  5-MIN KSTC 111910Z VRB04KT 10SM CLR 17/08 A3008 880 57 1300 VRB/04 RMK AO2
14926KSTC STC20060611131509306/11/06 13:15:31  5-MIN KSTC 111915Z VRB04KT 10SM CLR 17/08 A3008 880 55 1300 VRB/04 RMK AO2
14926KSTC STC20060611132009306/11/06 13:20:31  5-MIN KSTC 111920Z 00000KT 10SM CLR 17/07 A3008 880 53 1300 000/00 RMK AO2
14926KSTC STC20060611132509306/11/06 13:25:31  5-MIN KSTC 111925Z VRB05KT 10SM CLR 17/08 A3008 880 55 1300 VRB/05 RMK AO2
14926KSTC STC20060611133009306/11/06 13:30:31  5-MIN KSTC 111930Z 09005KT 10SM CLR 17/08 A3008 880 55 1400 090/05 RMK AO2
14926KSTC STC20060611133509306/11/06 13:35:31  5-MIN KSTC 111935Z 06006KT 10SM CLR 17/08 A3007 880 53 1400 060/06 RMK AO2
14926KSTC STC20060611134009306/11/06 13:40:31  5-MIN KSTC 111940Z VRB06KT 10SM CLR 18/07 A3007 880 49 1500 VRB/06 RMK AO2
14926KSTC STC20060611134509306/11/06 13:45:31  5-MIN KSTC 111945Z 06005KT 10SM CLR 18/07 A3008 880 49 1500 060/05 RMK AO2
14926KSTC STC20060611135012606/11/06 13:50:31  5-MIN KSTC 111950Z 10007KT 060V130 10SM CLR 18/07 A3008 880 49 1500 100/07 060V130 RMK AO2 SLP195 T01780072
14926KSTC STC20060611135509306/11/06 13:55:31  5-MIN KSTC 111955Z VRB04KT 10SM CLR 18/07 A3008 880 49 1500 VRB/04 RMK AO2
14926KSTC STC20060611140009906/11/06 14:00:31  5-MIN KSTC 112000Z 13010G15KT 10SM CLR 18/07 A3008 880 49 1500 130/10G15 RMK AO2
14926KSTC STC20060611140509906/11/06 14:05:31  5-MIN KSTC 112005Z 14008G15KT 10SM CLR 18/07 A3008 880 48 1500 130/08G15 RMK AO2
14926KSTC STC20060611141009306/11/06 14:10:31  5-MIN KSTC 112010Z VRB06KT 10SM CLR 17/07 A3007 880 51 1400 VRB/06 RMK AO2
14926KSTC STC20060611141509306/11/06 14:15:31  5-MIN KSTC 112015Z 13007KT 10SM CLR 18/07 A3007 890 49 1500 130/07 RMK AO2
14926KSTC STC20060611142009306/11/06 14:20:31  5-MIN KSTC 112020Z VRB06KT 10SM CLR 18/07 A3007 890 49 1500 VRB/06 RMK AO2
14926KSTC STC20060611142509306/11/06 14:25:31  5-MIN KSTC 112025Z 10008KT 10SM CLR 18/07 A3007 890 48 1500 090/08 RMK AO2
14926KSTC STC20060611143009306/11/06 14:30:31  5-MIN KSTC 112030Z 08007KT 10SM CLR 18/07 A3007 880 49 1500 080/07 RMK AO2
14926KSTC STC20060611143509306/11/06 14:35:31  5-MIN KSTC 112035Z 11007KT 10SM CLR 18/07 A3007 880 46 1500 110/07 RMK AO2
14926KSTC STC20060611144010906/11/06 14:40:31  5-MIN KSTC 112040Z 11007KT 080V140 10SM CLR 18/07 A3008 880 48 1500 110/07 080V140 RMK AO2
14926KSTC STC20060611144509306/11/06 14:45:31  5-MIN KSTC 112045Z 12006KT 10SM CLR 18/07 A3008 880 49 1500 120/06 RMK AO2
14926KSTC STC20060611145011906/11/06 14:50:31  5-MIN KSTC 112050Z 16008KT 10SM FEW045 18/08 A3008 880 50 1500 150/08 RMK AO2 SLP194 T01830078 51006
14926KSTC STC20060611145509606/11/06 14:55:31  5-MIN KSTC 112055Z VRB06KT 10SM FEW045 18/08 A3008 880 50 1500 VRB/06 RMK AO2
14926KSTC STC20060611150009606/11/06 15:00:31  5-MIN KSTC 112100Z 16006KT 10SM SCT045 18/07 A3008 880 49 1500 160/06 RMK AO2
14926KSTC STC20060611150509606/11/06 15:05:31  5-MIN KSTC 112105Z 09007KT 10SM BKN045 18/08 A3008 880 51 1500 080/07 RMK AO2
14926KSTC STC20060611151009606/11/06 15:10:31  5-MIN KSTC 112110Z 07006KT 10SM BKN047 18/07 A3008 880 48 1500 070/06 RMK AO2
14926KSTC STC20060611151509606/11/06 15:15:31  5-MIN KSTC 112115Z 09005KT 10SM BKN049 18/07 A3008 880 49 1500 090/05 RMK AO2
14926KSTC STC20060611152009606/11/06 15:20:31  5-MIN KSTC 112120Z 08005KT 10SM BKN049 17/06 A3008 880 47 1400 080/05 RMK AO2
14926KSTC STC20060611152509606/11/06 15:25:31  5-MIN KSTC 112125Z 14008KT 10SM BKN049 18/06 A3007 890 44 1500 140/08 RMK AO2
14926KSTC STC20060611153009606/11/06 15:30:31  5-MIN KSTC 112130Z 13007KT 10SM SCT049 18/06 A3007 890 44 1500 130/07 RMK AO2
14926KSTC STC20060611153509606/11/06 15:35:31  5-MIN KSTC 112135Z VRB06KT 10SM FEW049 18/06 A3007 890 44 1500 VRB/06 RMK AO2
14926KSTC STC20060611154009606/11/06 15:40:31  5-MIN KSTC 112140Z 11007KT 10SM FEW049 19/07 A3007 890 44 1600 100/07 RMK AO2
14926KSTC STC20060611154510906/11/06 15:45:31  5-MIN KSTC 112145Z 11007KT 070V140 10SM CLR 18/06 A3007 890 44 1500 100/07 070V140 RMK AO2
14926KSTC STC20060611155011006/11/06 15:50:31  5-MIN KSTC 112150Z 11007KT 10SM CLR 19/07 A3007 890 44 1600 110/07 RMK AO2 SLP192 T01890067
14926KSTC STC20060611155509306/11/06 15:55:31  5-MIN KSTC 112155Z 11005KT 10SM CLR 18/07 A3007 890 46 1500 110/05 RMK AO2
14926KSTC STC20060611160009306/11/06 16:00:31  5-MIN KSTC 112200Z VRB06KT 10SM CLR 18/07 A3007 890 46 1500 VRB/06 RMK AO2
14926KSTC STC20060611160509306/11/06 16:05:31  5-MIN KSTC 112205Z 06005KT 10SM CLR 18/07 A3007 890 48 1500 060/05 RMK AO2
14926KSTC STC20060611161009606/11/06 16:10:31  5-MIN KSTC 112210Z 11005KT 10SM FEW050 19/07 A3007 890 46 1600 100/05 RMK AO2
14926KSTC STC20060611161509606/11/06 16:15:31  5-MIN KSTC 112215Z 07008KT 10SM SCT050 19/08 A3006 890 48 1600 070/08 RMK AO2
14926KSTC STC20060611162009606/11/06 16:20:31  5-MIN KSTC 112220Z 09006KT 10SM FEW050 18/07 A3006 890 48 1500 090/06 RMK AO2
14926KSTC STC20060611162509606/11/06 16:25:31  5-MIN KSTC 112225Z 12008KT 10SM FEW050 18/07 A3006 900 48 1500 120/08 RMK AO2
14926KSTC STC20060611163009606/11/06 16:30:31  5-MIN KSTC 112230Z 11008KT 10SM FEW050 18/07 A3006 900 48 1500 110/08 RMK AO2
14926KSTC STC20060611163509606/11/06 16:35:31  5-MIN KSTC 112235Z VRB05KT 10SM FEW050 18/08 A3006 900 50 1500 VRB/05 RMK AO2
14926KSTC STC20060611164009606/11/06 16:40:31  5-MIN KSTC 112240Z 11009KT 10SM FEW050 18/08 A3006 900 50 1500 100/09 RMK AO2
14926KSTC STC20060611164509306/11/06 16:45:31  5-MIN KSTC 112245Z 08006KT 10SM CLR 18/07 A3007 890 48 1500 070/06 RMK AO2
14926KSTC STC20060611165011006/11/06 16:50:31  5-MIN KSTC 112250Z VRB03KT 10SM CLR 18/07 A3007 890 48 1500 VRB/03 RMK AO2 SLP193 T01830072
14926KSTC STC20060611165509306/11/06 16:55:31  5-MIN KSTC 112255Z VRB03KT 10SM CLR 18/07 A3007 890 48 1500 VRB/03 RMK AO2
14926KSTC STC20060611170009306/11/06 17:00:31  5-MIN KSTC 112300Z VRB04KT 10SM CLR 19/07 A3007 890 44 1600 VRB/04 RMK AO2
14926KSTC STC20060611170509306/11/06 17:05:31  5-MIN KSTC 112305Z VRB03KT 10SM CLR 19/07 A3007 890 44 1600 VRB/03 RMK AO2
14926KSTC STC20060611171009306/11/06 17:10:31  5-MIN KSTC 112310Z 00000KT 10SM CLR 19/07 A3007 890 44 1600 000/00 RMK AO2
14926KSTC STC20060611171510906/11/06 17:15:31  5-MIN KSTC 112315Z VRB04KT 10SM -RA CLR 19/07 A3007 890 44 1600 VRB/04 RMK AO2 RAB11 P0000
14926KSTC STC20060611172010806/11/06 17:20:31  5-MIN KSTC 112320Z VRB04KT 10SM CLR 18/06 A3007 890 44 1500 VRB/04 RMK AO2 RAB11E20 P0000
14926KSTC STC20060611172510806/11/06 17:25:31  5-MIN KSTC 112325Z VRB04KT 10SM CLR 18/06 A3007 890 44 1500 VRB/04 RMK AO2 RAB11E20 P0000
14926KSTC STC20060611173010806/11/06 17:30:31  5-MIN KSTC 112330Z 07004KT 10SM CLR 19/07 A3007 890 44 1600 070/04 RMK AO2 RAB11E20 P0000
14926KSTC STC20060611173510806/11/06 17:35:31  5-MIN KSTC 112335Z 08007KT 10SM CLR 19/07 A3007 890 44 1600 080/07 RMK AO2 RAB11E20 P0000
14926KSTC STC20060611174010806/11/06 17:40:31  5-MIN KSTC 112340Z 08004KT 10SM CLR 19/07 A3007 890 44 1600 080/04 RMK AO2 RAB11E20 P0000
14926KSTC STC20060611174510806/11/06 17:45:31  5-MIN KSTC 112345Z VRB04KT 10SM CLR 19/07 A3007 880 44 1600 VRB/04 RMK AO2 RAB11E20 P0000
14926KSTC STC20060611175014906/11/06 17:50:31  5-MIN KSTC 112350Z 07003KT 10SM CLR 19/06 A3007 880 43 1600 070/03 RMK AO2 RAB11E20 SLP193 P0000 60000 T01890061 10189 20139 55005
14926KSTC STC20060611175509606/11/06 17:55:31  5-MIN KSTC 112355Z VRB04KT 10SM FEW050 19/06 A3007 880 43 1600 VRB/04 RMK AO2
14926KSTC STC20060611180009606/11/06 18:00:31  5-MIN KSTC 120000Z 09005KT 10SM FEW050 19/07 A3008 880 44 1600 090/05 RMK AO2
14926KSTC STC20060611180509606/11/06 18:05:31  5-MIN KSTC 120005Z 08005KT 10SM FEW050 18/07 A3008 880 48 1500 080/05 RMK AO2
14926KSTC STC20060611181009606/11/06 18:10:31  5-MIN KSTC 120010Z 08006KT 10SM FEW050 18/07 A3008 880 46 1500 080/06 RMK AO2
14926KSTC STC20060611181509606/11/06 18:15:31  5-MIN KSTC 120015Z 09005KT 10SM FEW050 18/07 A3008 880 49 1500 090/05 RMK AO2
14926KSTC STC20060611182009606/11/06 18:20:31  5-MIN KSTC 120020Z 08003KT 10SM FEW050 18/08 A3008 880 51 1400 080/03 RMK AO2
14926KSTC STC20060611182509306/11/06 18:25:31  5-MIN KSTC 120025Z 08003KT 10SM CLR 18/08 A3008 880 53 1400 080/03 RMK AO2
14926KSTC STC20060611183009306/11/06 18:30:31  5-MIN KSTC 120030Z 00000KT 10SM CLR 18/08 A3008 880 53 1400 000/00 RMK AO2
14926KSTC STC20060611183509306/11/06 18:35:31  5-MIN KSTC 120035Z 07003KT 10SM CLR 18/08 A3008 880 51 1400 070/03 RMK AO2
14926KSTC STC20060611184009306/11/06 18:40:31  5-MIN KSTC 120040Z 00000KT 10SM CLR 18/08 A3008 880 50 1500 000/00 RMK AO2
14926KSTC STC20060611184509306/11/06 18:45:31  5-MIN KSTC 120045Z 07003KT 10SM CLR 18/08 A3008 880 50 1500 060/03 RMK AO2
14926KSTC STC20060611185011006/11/06 18:50:31  5-MIN KSTC 120050Z 00000KT 10SM CLR 18/08 A3008 880 50 1500 000/00 RMK AO2 SLP196 T01830078
14926KSTC STC20060611185509306/11/06 18:55:31  5-MIN KSTC 120055Z 05003KT 10SM CLR 18/08 A3008 880 50 1500 050/03 RMK AO2
14926KSTC STC20060611190009306/11/06 19:00:31  5-MIN KSTC 120100Z 07003KT 10SM CLR 18/08 A3008 880 51 1400 060/03 RMK AO2
14926KSTC STC20060611190509306/11/06 19:05:31  5-MIN KSTC 120105Z 08004KT 10SM CLR 17/09 A3008 880 57 1400 080/04 RMK AO2
14926KSTC STC20060611191009306/11/06 19:10:31  5-MIN KSTC 120110Z 08003KT 10SM CLR 17/09 A3008 880 60 1400 080/03 RMK AO2
14926KSTC STC20060611191509306/11/06 19:15:31  5-MIN KSTC 120115Z 00000KT 10SM CLR 17/09 A3008 880 57 1400 000/00 RMK AO2
14926KSTC STC20060611192009306/11/06 19:20:31  5-MIN KSTC 120120Z 00000KT 10SM CLR 17/09 A3008 880 60 1300 000/00 RMK AO2
14926KSTC STC20060611192509306/11/06 19:25:31  5-MIN KSTC 120125Z 00000KT 10SM CLR 17/09 A3009 870 60 1400 000/00 RMK AO2
14926KSTC STC20060611193009306/11/06 19:30:31  5-MIN KSTC 120130Z 00000KT 10SM CLR 17/08 A3009 870 57 1300 000/00 RMK AO2
14926KSTC STC20060611193509306/11/06 19:35:31  5-MIN KSTC 120135Z 00000KT 10SM CLR 17/08 A3009 870 53 1400 000/00 RMK AO2
14926KSTC STC20060611194009306/11/06 19:40:31  5-MIN KSTC 120140Z 00000KT 10SM CLR 17/10 A3009 870 64 1300 000/00 RMK AO2
14926KSTC STC20060611194509306/11/06 19:45:31  5-MIN KSTC 120145Z 00000KT 10SM CLR 16/11 A3009 870 72 1200 000/00 RMK AO2
14926KSTC STC20060611195011006/11/06 19:50:31  5-MIN KSTC 120150Z 00000KT 10SM CLR 15/09 A3009 870 69 1100 000/00 RMK AO2 SLP200 T01500094
14926KSTC STC20060611195509306/11/06 19:55:31  5-MIN KSTC 120155Z 00000KT 10SM CLR 15/09 A3009 870 66 1100 000/00 RMK AO2
14926KSTC STC20060611200009306/11/06 20:00:31  5-MIN KSTC 120200Z 00000KT 10SM CLR 14/09 A3009 870 74 1000 000/00 RMK AO2
14926KSTC STC20060611200509306/11/06 20:05:31  5-MIN KSTC 120205Z 00000KT 10SM CLR 14/09 A3009 870 71 1000 000/00 RMK AO2
14926KSTC STC20060611201009306/11/06 20:10:31  5-MIN KSTC 120210Z 00000KT 10SM CLR 14/09 A3009 870 71 1000 000/00 RMK AO2
14926KSTC STC20060611201509206/11/06 20:15:31  5-MIN KSTC 120215Z 00000KT 10SM CLR 13/09 A3010 870 80 800 000/00 RMK AO2
14926KSTC STC20060611202009206/11/06 20:20:31  5-MIN KSTC 120220Z 11003KT 10SM CLR 13/10 A3009 870 83 800 100/03 RMK AO2
14926KSTC STC20060611202509206/11/06 20:25:31  5-MIN KSTC 120225Z 00000KT 10SM CLR 13/09 A3010 860 80 800 000/00 RMK AO2
14926KSTC STC20060611203009206/11/06 20:30:31  5-MIN KSTC 120230Z 00000KT 10SM CLR 12/09 A3010 860 83 800 000/00 RMK AO2
14926KSTC STC20060611203509206/11/06 20:35:31  5-MIN KSTC 120235Z 00000KT 10SM CLR 12/09 A3010 860 83 800 000/00 RMK AO2
14926KSTC STC20060611204009206/11/06 20:40:31  5-MIN KSTC 120240Z 00000KT 10SM CLR 12/09 A3010 860 83 800 000/00 RMK AO2
14926KSTC STC20060611204509206/11/06 20:45:31  5-MIN KSTC 120245Z 11003KT 10SM CLR 12/09 A3010 860 80 800 110/03 RMK AO2
14926KSTC STC20060611205011506/11/06 20:50:31  5-MIN KSTC 120250Z 00000KT 10SM CLR 12/09 A3010 860 83 700 000/00 RMK AO2 SLP206 T01170089 55001
14926KSTC STC20060611205509206/11/06 20:55:31  5-MIN KSTC 120255Z 00000KT 10SM CLR 11/09 A3011 860 86 600 000/00 RMK AO2
14926KSTC STC20060611210009206/11/06 21:00:31  5-MIN KSTC 120300Z 00000KT 10SM CLR 11/09 A3011 850 89 600 000/00 RMK AO2
14926KSTC STC20060611210509206/11/06 21:05:31  5-MIN KSTC 120305Z 00000KT 10SM CLR 11/09 A3011 850 89 600 000/00 RMK AO2
14926KSTC STC20060611211009206/11/06 21:10:31  5-MIN KSTC 120310Z 00000KT 10SM CLR 11/09 A3011 850 89 600 000/00 RMK AO2
14926KSTC STC20060611211509206/11/06 21:15:31  5-MIN KSTC 120315Z 00000KT 10SM CLR 11/09 A3012 850 89 600 000/00 RMK AO2
14926KSTC STC20060611212009206/11/06 21:20:31  5-MIN KSTC 120320Z 00000KT 10SM CLR 11/09 A3012 840 89 600 000/00 RMK AO2
14926KSTC STC20060611212509206/11/06 21:25:31  5-MIN KSTC 120325Z 00000KT 10SM CLR 12/09 A3012 840 86 700 000/00 RMK AO2
14926KSTC STC20060611213009206/11/06 21:30:31  5-MIN KSTC 120330Z 00000KT 10SM CLR 11/09 A3012 840 89 600 000/00 RMK AO2
14926KSTC STC20060611213509206/11/06 21:35:31  5-MIN KSTC 120335Z 00000KT 10SM CLR 11/09 A3012 840 86 600 000/00 RMK AO2
14926KSTC STC20060611214009206/11/06 21:40:31  5-MIN KSTC 120340Z 00000KT 10SM CLR 11/09 A3012 840 89 600 000/00 RMK AO2
14926KSTC STC20060611214509206/11/06 21:45:31  5-MIN KSTC 120345Z 00000KT 10SM CLR 10/09 A3012 840 93 500 000/00 RMK AO2
14926KSTC STC20060611215010906/11/06 21:50:31  5-MIN KSTC 120350Z 00000KT 10SM CLR 10/09 A3012 840 93 500 000/00 RMK AO2 SLP212 T01000089
14926KSTC STC20060611215509206/11/06 21:55:31  5-MIN KSTC 120355Z 00000KT 10SM CLR 10/09 A3012 840 93 500 000/00 RMK AO2
14926KSTC STC20060611220009706/11/06 22:00:31  5-MIN KSTC 120400Z AUTO 00000KT 10SM CLR 10/09 A3012 840 93 500 000/00 RMK AO2
14926KSTC STC20060611220509706/11/06 22:05:31  5-MIN KSTC 120405Z AUTO 00000KT 10SM CLR 10/09 A3012 840 93 500 000/00 RMK AO2
14926KSTC STC20060611221009706/11/06 22:10:31  5-MIN KSTC 120410Z AUTO 00000KT 10SM CLR 11/09 A3012 840 93 500 000/00 RMK AO2
14926KSTC STC20060611221509706/11/06 22:15:31  5-MIN KSTC 120415Z AUTO 00000KT 10SM CLR 10/09 A3012 840 93 500 000/00 RMK AO2
14926KSTC STC20060611222009706/11/06 22:20:31  5-MIN KSTC 120420Z AUTO 00000KT 10SM CLR 10/09 A3012 840 93 500 000/00 RMK AO2
14926KSTC STC20060611222509606/11/06 22:25:31  5-MIN KSTC 120425Z AUTO 00000KT 9SM CLR 10/09 A3012 840 96 500 000/00 RMK AO2
14926KSTC STC20060611223009606/11/06 22:30:31  5-MIN KSTC 120430Z AUTO 00000KT 9SM CLR 10/09 A3012 840 93 500 000/00 RMK AO2
14926KSTC STC20060611223509706/11/06 22:35:31  5-MIN KSTC 120435Z AUTO 00000KT 10SM CLR 10/09 A3012 840 93 500 000/00 RMK AO2
14926KSTC STC20060611224009706/11/06 22:40:31  5-MIN KSTC 120440Z AUTO 00000KT 10SM CLR 10/09 A3012 840 96 500 000/00 RMK AO2
14926KSTC STC20060611224509606/11/06 22:45:31  5-MIN KSTC 120445Z AUTO 00000KT 9SM CLR 09/09 A3013 840 96 400 000/00 RMK AO2
14926KSTC STC20060611225011306/11/06 22:50:31  5-MIN KSTC 120450Z AUTO 00000KT 8SM CLR 09/09 A3013 830 96 400 000/00 RMK AO2 SLP215 T00940089
14926KSTC STC20060611225509606/11/06 22:55:31  5-MIN KSTC 120455Z AUTO 00000KT 9SM CLR 10/09 A3013 830 93 500 000/00 RMK AO2
14926KSTC STC20060611230009706/11/06 23:00:31  5-MIN KSTC 120500Z AUTO 00000KT 10SM CLR 10/09 A3013 830 93 500 000/00 RMK AO2
14926KSTC STC20060611230509706/11/06 23:05:31  5-MIN KSTC 120505Z AUTO 00000KT 10SM CLR 09/09 A3013 830 96 400 000/00 RMK AO2
14926KSTC STC20060611231009706/11/06 23:10:31  5-MIN KSTC 120510Z AUTO 00000KT 10SM CLR 10/09 A3013 830 93 500 000/00 RMK AO2
14926KSTC STC20060611231509706/11/06 23:15:31  5-MIN KSTC 120515Z AUTO 00000KT 10SM CLR 10/09 A3013 830 93 500 000/00 RMK AO2
14926KSTC STC20060611232009706/11/06 23:20:31  5-MIN KSTC 120520Z AUTO 00000KT 10SM CLR 09/08 A3013 830 93 400 000/00 RMK AO2
14926KSTC STC20060611232509706/11/06 23:25:31  5-MIN KSTC 120525Z AUTO 00000KT 10SM CLR 09/08 A3014 830 93 400 000/00 RMK AO2
14926KSTC STC20060611233009706/11/06 23:30:31  5-MIN KSTC 120530Z AUTO 00000KT 10SM CLR 09/08 A3014 830 96 300 000/00 RMK AO2
14926KSTC STC20060611233509706/11/06 23:35:31  5-MIN KSTC 120535Z AUTO 00000KT 10SM CLR 09/08 A3014 830 93 300 000/00 RMK AO2
14926KSTC STC20060611234009706/11/06 23:40:31  5-MIN KSTC 120540Z AUTO 00000KT 10SM CLR 09/08 A3014 830 93 300 000/00 RMK AO2
14926KSTC STC20060611234509706/11/06 23:45:31  5-MIN KSTC 120545Z AUTO 00000KT 10SM CLR 09/08 A3014 830 93 400 000/00 RMK AO2
14926KSTC STC20060611235014106/11/06 23:50:31  5-MIN KSTC 120550Z AUTO 00000KT 9SM CLR 09/08 A3014 830 96 300 000/00 RMK AO2 SLP217 T00890083 10189 20089 401890089 53010
14926KSTC STC20060611235509606/11/06 23:55:31  5-MIN KSTC 120555Z AUTO 00000KT 9SM CLR 09/08 A3014 830 93 300 000/00 RMK AO2
14926KSTC STC20060612000009706/12/06 00:00:32  5-MIN KSTC 120600Z AUTO 00000KT 10SM CLR 09/08 A3014 830 93 300 000/00 RMK AO2
14926KSTC STC20060612000509606/12/06 00:05:31  5-MIN KSTC 120605Z AUTO 00000KT 9SM CLR 09/08 A3014 830 93 400 000/00 RMK AO2
14926KSTC STC20060612001009606/12/06 00:10:31  5-MIN KSTC 120610Z AUTO 00000KT 9SM CLR 09/08 A3014 820 96 300 000/00 RMK AO2
14926KSTC STC20060612001509606/12/06 00:15:31  5-MIN KSTC 120615Z AUTO 00000KT 9SM CLR 09/08 A3014 820 93 300 000/00 RMK AO2
14926KSTC STC20060612002009606/12/06 00:20:31  5-MIN KSTC 120620Z AUTO 00000KT 9SM CLR 09/08 A3014 820 96 300 000/00 RMK AO2
14926KSTC STC20060612002509706/12/06 00:25:31  5-MIN KSTC 120625Z AUTO 00000KT 10SM CLR 08/08 A3015 820 96 300 000/00 RMK AO2
14926KSTC STC20060612003009606/12/06 00:30:31  5-MIN KSTC 120630Z AUTO 00000KT 9SM CLR 08/07 A3015 820 93 300 000/00 RMK AO2
14926KSTC STC20060612003509606/12/06 00:35:31  5-MIN KSTC 120635Z AUTO 35003KT 8SM CLR 08/08 A3015 810 96 200 350/03 RMK AO2
14926KSTC STC20060612004009606/12/06 00:40:31  5-MIN KSTC 120640Z AUTO 00000KT 8SM CLR 09/08 A3015 810 93 300 000/00 RMK AO2
14926KSTC STC20060612004509606/12/06 00:45:31  5-MIN KSTC 120645Z AUTO 00000KT 8SM CLR 09/08 A3015 810 93 300 000/00 RMK AO2
14926KSTC STC20060612005011306/12/06 00:50:31  5-MIN KSTC 120650Z AUTO 00000KT 8SM CLR 09/08 A3015 810 93 300 000/00 RMK AO2 SLP220 T00890078
14926KSTC STC20060612005509606/12/06 00:55:31  5-MIN KSTC 120655Z AUTO 00000KT 9SM CLR 09/08 A3015 810 93 300 000/00 RMK AO2
14926KSTC STC20060612010009606/12/06 01:00:31  5-MIN KSTC 120700Z AUTO 00000KT 9SM CLR 08/08 A3015 810 96 200 000/00 RMK AO2
14926KSTC STC20060612010509706/12/06 01:05:31  5-MIN KSTC 120705Z AUTO 00000KT 10SM CLR 08/07 A3015 810 93 200 000/00 RMK AO2
14926KSTC STC20060612011009706/12/06 01:10:31  5-MIN KSTC 120710Z AUTO 00000KT 10SM CLR 08/08 A3015 810 96 200 000/00 RMK AO2
14926KSTC STC20060612011509706/12/06 01:15:31  5-MIN KSTC 120715Z AUTO 00000KT 10SM CLR 08/08 A3015 810 96 200 000/00 RMK AO2
14926KSTC STC20060612012009606/12/06 01:20:31  5-MIN KSTC 120720Z AUTO 00000KT 9SM CLR 08/08 A3015 810 96 200 000/00 RMK AO2
14926KSTC STC20060612012509606/12/06 01:25:31  5-MIN KSTC 120725Z AUTO 00000KT 9SM CLR 09/08 A3016 810 93 300 000/00 RMK AO2
14926KSTC STC20060612013009606/12/06 01:30:31  5-MIN KSTC 120730Z AUTO 00000KT 9SM CLR 08/08 A3016 810 96 200 000/00 RMK AO2
14926KSTC STC20060612013509606/12/06 01:35:31  5-MIN KSTC 120735Z AUTO 00000KT 9SM CLR 08/07 A3016 810 93 200 000/00 RMK AO2
14926KSTC STC20060612014009706/12/06 01:40:31  5-MIN KSTC 120740Z AUTO 00000KT 10SM CLR 08/07 A3016 810 93 200 000/00 RMK AO2
14926KSTC STC20060612014509706/12/06 01:45:31  5-MIN KSTC 120745Z AUTO 00000KT 10SM CLR 08/07 A3016 810 93 200 000/00 RMK AO2
14926KSTC STC20060612015011406/12/06 01:50:31  5-MIN KSTC 120750Z AUTO 00000KT 10SM CLR 08/07 A3016 810 96 200 000/00 RMK AO2 SLP223 T00780072
14926KSTC STC20060612015509706/12/06 01:55:31  5-MIN KSTC 120755Z AUTO 00000KT 10SM CLR 08/07 A3016 810 96 200 000/00 RMK AO2
14926KSTC STC20060612020009706/12/06 02:00:31  5-MIN KSTC 120800Z AUTO 00000KT 10SM CLR 08/07 A3016 810 96 200 000/00 RMK AO2
14926KSTC STC20060612020509706/12/06 02:05:31  5-MIN KSTC 120805Z AUTO 00000KT 10SM CLR 07/06 A3016 810 93 100 000/00 RMK AO2
14926KSTC STC20060612021009706/12/06 02:10:31  5-MIN KSTC 120810Z AUTO 00000KT 10SM CLR 08/07 A3016 810 93 200 000/00 RMK AO2
14926KSTC STC20060612021509606/12/06 02:15:31  5-MIN KSTC 120815Z AUTO 00000KT 9SM CLR 08/07 A3016 800 93 200 000/00 RMK AO2
14926KSTC STC20060612022009606/12/06 02:20:31  5-MIN KSTC 120820Z AUTO 00000KT 8SM CLR 08/07 A3016 800 93 200 000/00 RMK AO2
14926KSTC STC20060612022509606/12/06 02:25:31  5-MIN KSTC 120825Z AUTO 00000KT 8SM CLR 08/07 A3016 810 93 200 000/00 RMK AO2
14926KSTC STC20060612023009906/12/06 02:30:31  5-MIN KSTC 120830Z AUTO 00000KT 5SM BR CLR 07/07 A3016 810 96 100 000/00 RMK AO2
14926KSTC STC20060612023509906/12/06 02:35:31  5-MIN KSTC 120835Z AUTO 00000KT 5SM BR CLR 08/07 A3016 810 93 200 000/00 RMK AO2
14926KSTC STC20060612024009906/12/06 02:40:31  5-MIN KSTC 120840Z AUTO 02003KT 5SM BR CLR 07/07 A3016 810 96 100 020/03 RMK AO2
14926KSTC STC20060612024509906/12/06 02:45:31  5-MIN KSTC 120845Z AUTO 00000KT 6SM BR CLR 07/07 A3016 810 96 100 000/00 RMK AO2
14926KSTC STC20060612025012206/12/06 02:50:31  5-MIN KSTC 120850Z AUTO 00000KT 6SM BR CLR 07/07 A3016 810 96 100 000/00 RMK AO2 SLP223 T00720067 51010
14926KSTC STC20060612025509906/12/06 02:55:31  5-MIN KSTC 120855Z AUTO 00000KT 6SM BR CLR 07/07 A3016 810 96 100 000/00 RMK AO2
14926KSTC STC20060612030009906/12/06 03:00:31  5-MIN KSTC 120900Z AUTO 00000KT 6SM BR CLR 07/07 A3016 810 96 100 000/00 RMK AO2
14926KSTC STC20060612030509606/12/06 03:05:31  5-MIN KSTC 120905Z AUTO 00000KT 7SM CLR 07/07 A3016 810 96 100 000/00 RMK AO2
14926KSTC STC20060612031009606/12/06 03:10:31  5-MIN KSTC 120910Z AUTO 00000KT 8SM CLR 07/06 A3016 800 93 100 000/00 RMK AO2
14926KSTC STC20060612031509606/12/06 03:15:31  5-MIN KSTC 120915Z AUTO 00000KT 9SM CLR 07/07 A3017 800 96 100 000/00 RMK AO2
14926KSTC STC20060612032009606/12/06 03:20:31  5-MIN KSTC 120920Z AUTO 00000KT 9SM CLR 07/06 A3017 790 93 100 000/00 RMK AO2
14926KSTC STC20060612032509706/12/06 03:25:31  5-MIN KSTC 120925Z AUTO 00000KT 10SM CLR 07/06 A3018 790 93 100 000/00 RMK AO2
14926KSTC STC20060612033009706/12/06 03:30:31  5-MIN KSTC 120930Z AUTO 00000KT 10SM CLR 07/06 A3018 780 93 100 000/00 RMK AO2
14926KSTC STC20060612033509706/12/06 03:35:31  5-MIN KSTC 120935Z AUTO 00000KT 10SM CLR 07/06 A3018 780 93 100 000/00 RMK AO2
14926KSTC STC20060612034009606/12/06 03:40:31  5-MIN KSTC 120940Z AUTO 00000KT 9SM CLR 07/06 A3018 780 93 100 000/00 RMK AO2
14926KSTC STC20060612034509706/12/06 03:45:31  5-MIN KSTC 120945Z AUTO 00000KT 10SM CLR 07/06 A3019 780 93 100 000/00 RMK AO2
14926KSTC STC20060612035011406/12/06 03:50:31  5-MIN KSTC 120950Z AUTO 00000KT 10SM CLR 07/06 A3019 780 93 100 000/00 RMK AO2 SLP232 T00720061
14926KSTC STC20060612035509706/12/06 03:55:31  5-MIN KSTC 120955Z AUTO 00000KT 10SM CLR 07/06 A3019 780 93 100 000/00 RMK AO2
14926KSTC STC20060612040009506/12/06 04:00:31  5-MIN KSTC 121000Z AUTO 00000KT 10SM CLR 07/06 A3019 780 96 0 000/00 RMK AO2
14926KSTC STC20060612040509606/12/06 04:05:31  5-MIN KSTC 121005Z AUTO 00000KT 9SM CLR 07/06 A3019 780 93 100 000/00 RMK AO2
14926KSTC STC20060612041009606/12/06 04:10:31  5-MIN KSTC 121010Z AUTO 00000KT 9SM CLR 07/06 A3019 770 93 100 000/00 RMK AO2
14926KSTC STC20060612041509406/12/06 04:15:31  5-MIN KSTC 121015Z AUTO 00000KT 7SM CLR 07/06 A3020 770 96 0 000/00 RMK AO2
14926KSTC STC20060612042009906/12/06 04:20:31  5-MIN KSTC 121020Z AUTO 00000KT 6SM BR CLR 07/06 A3020 770 93 100 000/00 RMK AO2
14926KSTC STC20060612042509906/12/06 04:25:31  5-MIN KSTC 121025Z AUTO 00000KT 5SM BR CLR 07/06 A3020 770 93 100 000/00 RMK AO2
14926KSTC STC20060612043009706/12/06 04:30:31  5-MIN KSTC 121030Z AUTO 00000KT 5SM BR CLR 07/06 A3020 770 96 0 000/00 RMK AO2
14926KSTC STC20060612043509706/12/06 04:35:31  5-MIN KSTC 121035Z AUTO 32003KT 6SM BR CLR 07/06 A3020 770 96 0 320/03 RMK AO2
14926KSTC STC20060612044009606/12/06 04:40:31  5-MIN KSTC 121040Z AUTO 00000KT 7SM CLR 07/06 A3020 760 93 100 000/00 RMK AO2
14926KSTC STC20060612044509906/12/06 04:45:31  5-MIN KSTC 121045Z AUTO 33003KT 6SM BR CLR 07/06 A3020 760 93 100 330/03 RMK AO2
14926KSTC STC20060612045011606/12/06 04:50:31  5-MIN KSTC 121050Z AUTO 00000KT 5SM BR CLR 07/06 A3020 770 93 100 000/00 RMK AO2 SLP236 T00720061
14926KSTC STC20060612045509906/12/06 04:55:31  5-MIN KSTC 121055Z AUTO 00000KT 4SM BR CLR 07/07 A3020 770 96 100 000/00 RMK AO2
14926KSTC STC20060612050009906/12/06 05:00:31  5-MIN KSTC 121100Z AUTO 00000KT 4SM BR CLR 07/07 A3020 770 96 100 000/00 RMK AO2
14926KSTC STC20060612050509906/12/06 05:05:31  5-MIN KSTC 121105Z AUTO 06003KT 4SM BR CLR 07/07 A3020 770 96 100 060/03 RMK AO2
14926KSTC STC20060612051009906/12/06 05:10:31  5-MIN KSTC 121110Z AUTO 00000KT 4SM BR CLR 08/07 A3020 770 93 100 000/00 RMK AO2
14926KSTC STC20060612051509906/12/06 05:15:31  5-MIN KSTC 121115Z AUTO 00000KT 5SM BR CLR 08/07 A3020 770 93 200 000/00 RMK AO2
14926KSTC STC20060612052009906/12/06 05:20:31  5-MIN KSTC 121120Z AUTO 00000KT 5SM BR CLR 08/07 A3020 770 93 200 000/00 RMK AO2
14926KSTC STC20060612052509906/12/06 05:25:31  5-MIN KSTC 121125Z AUTO 00000KT 5SM BR CLR 09/08 A3020 770 93 300 000/00 RMK AO2
14926KSTC STC20060612053009906/12/06 05:30:31  5-MIN KSTC 121130Z AUTO 00000KT 5SM BR CLR 09/08 A3020 770 89 300 000/00 RMK AO2
14926KSTC STC20060612053509906/12/06 05:35:31  5-MIN KSTC 121135Z AUTO 00000KT 5SM BR CLR 09/08 A3020 770 93 300 000/00 RMK AO2
14926KSTC STC20060612054009906/12/06 05:40:31  5-MIN KSTC 121140Z AUTO 00000KT 6SM BR CLR 10/09 A3020 770 93 400 000/00 RMK AO2
14926KSTC STC20060612054509606/12/06 05:45:31  5-MIN KSTC 121145Z AUTO 00000KT 8SM CLR 10/09 A3020 770 93 400 000/00 RMK AO2
14926KSTC STC20060612055013206/12/06 05:50:31  5-MIN KSTC 121150Z 00000KT 9SM CLR 11/09 A3020 770 86 500 000/00 RMK AO2 SLP237 70012 T01110089 10111 20067 50006
14926KSTC STC20060612055509206/12/06 05:55:31  5-MIN KSTC 121155Z 00000KT 10SM CLR 11/09 A3020 770 86 500 000/00 RMK AO2
14926KSTC STC20060612060009206/12/06 06:00:31  5-MIN KSTC 121200Z 00000KT 10SM CLR 11/09 A3020 760 86 500 000/00 RMK AO2
14926KSTC STC20060612060509206/12/06 06:05:31  5-MIN KSTC 121205Z 00000KT 10SM CLR 11/08 A3020 770 83 500 000/00 RMK AO2
14926KSTC STC20060612061009206/12/06 06:10:31  5-MIN KSTC 121210Z 00000KT 10SM CLR 11/08 A3021 760 83 500 000/00 RMK AO2
14926KSTC STC20060612061509206/12/06 06:15:31  5-MIN KSTC 121215Z 00000KT 10SM CLR 12/08 A3021 760 80 600 000/00 RMK AO2
14926KSTC STC20060612062009206/12/06 06:20:31  5-MIN KSTC 121220Z 00000KT 10SM CLR 12/08 A3021 760 80 600 000/00 RMK AO2
14926KSTC STC20060612062509206/12/06 06:25:31  5-MIN KSTC 121225Z 00000KT 10SM CLR 12/08 A3020 770 80 600 000/00 RMK AO2
14926KSTC STC20060612063009206/12/06 06:30:31  5-MIN KSTC 121230Z 02003KT 10SM CLR 12/08 A3021 760 80 600 010/03 RMK AO2
14926KSTC STC20060612063509206/12/06 06:35:31  5-MIN KSTC 121235Z 02003KT 10SM CLR 12/08 A3020 770 77 700 020/03 RMK AO2
14926KSTC STC20060612064009206/12/06 06:40:31  5-MIN KSTC 121240Z 00000KT 10SM CLR 12/08 A3020 770 77 700 000/00 RMK AO2
14926KSTC STC20060612064509206/12/06 06:45:31  5-MIN KSTC 121245Z 00000KT 10SM CLR 12/08 A3021 760 77 700 000/00 RMK AO2
14926KSTC STC20060612065010906/12/06 06:50:31  5-MIN KSTC 121250Z 00000KT 10SM CLR 12/08 A3021 760 77 700 000/00 RMK AO2 SLP237 T01220083
14926KSTC STC20060612065509206/12/06 06:55:31  5-MIN KSTC 121255Z 00000KT 10SM CLR 13/09 A3020 760 77 700 000/00 RMK AO2
14926KSTC STC20060612070009206/12/06 07:00:31  5-MIN KSTC 121300Z 00000KT 10SM CLR 13/09 A3021 760 77 700 000/00 RMK AO2
14926KSTC STC20060612070509206/12/06 07:05:31  5-MIN KSTC 121305Z 00000KT 10SM CLR 13/09 A3021 760 74 800 000/00 RMK AO2
14926KSTC STC20060612071009206/12/06 07:10:31  5-MIN KSTC 121310Z 00000KT 10SM CLR 13/09 A3021 760 74 800 000/00 RMK AO2
14926KSTC STC20060612071509206/12/06 07:15:31  5-MIN KSTC 121315Z 06003KT 10SM CLR 13/08 A3021 760 71 800 060/03 RMK AO2
14926KSTC STC20060612072009206/12/06 07:20:31  5-MIN KSTC 121320Z VRB03KT 10SM CLR 13/08 A3020 760 71 800 VRB/03 RMK AO2
14926KSTC STC20060612072509206/12/06 07:25:31  5-MIN KSTC 121325Z 07004KT 10SM CLR 13/08 A3021 760 71 800 070/04 RMK AO2
14926KSTC STC20060612073009206/12/06 07:30:31  5-MIN KSTC 121330Z 07003KT 10SM CLR 14/08 A3021 760 66 800 070/03 RMK AO2
14926KSTC STC20060612073509206/12/06 07:35:31  5-MIN KSTC 121335Z 08003KT 10SM CLR 14/08 A3021 760 69 800 080/03 RMK AO2
14926KSTC STC20060612074009206/12/06 07:40:31  5-MIN KSTC 121340Z 08004KT 10SM CLR 14/09 A3021 760 69 900 080/04 RMK AO2
14926KSTC STC20060612074509206/12/06 07:45:31  5-MIN KSTC 121345Z 08003KT 10SM CLR 14/08 A3021 760 64 900 080/03 RMK AO2
14926KSTC STC20060612075010906/12/06 07:50:31  5-MIN KSTC 121350Z 08004KT 10SM CLR 14/08 A3021 760 64 900 080/04 RMK AO2 SLP240 T01440078
14926KSTC STC20060612075509306/12/06 07:55:31  5-MIN KSTC 121355Z 06004KT 10SM CLR 15/08 A3021 760 62 1000 060/04 RMK AO2
14926KSTC STC20060612080009306/12/06 08:00:31  5-MIN KSTC 121400Z 07004KT 10SM CLR 15/08 A3022 750 62 1000 060/04 RMK AO2
14926KSTC STC20060612080509306/12/06 08:05:31  5-MIN KSTC 121405Z VRB03KT 10SM CLR 15/08 A3022 750 62 1000 VRB/03 RMK AO2
14926KSTC STC20060612081009306/12/06 08:10:31  5-MIN KSTC 121410Z 09004KT 10SM CLR 15/08 A3022 750 62 1000 090/04 RMK AO2
14926KSTC STC20060612081509306/12/06 08:15:31  5-MIN KSTC 121415Z 11003KT 10SM CLR 15/07 A3022 750 59 1000 110/03 RMK AO2
14926KSTC STC20060612082009306/12/06 08:20:31  5-MIN KSTC 121420Z 12005KT 10SM CLR 16/07 A3022 750 57 1000 120/05 RMK AO2
14926KSTC STC20060612082509306/12/06 08:25:31  5-MIN KSTC 121425Z 10004KT 10SM CLR 16/06 A3022 750 53 1000 090/04 RMK AO2
14926KSTC STC20060612083009306/12/06 08:30:31  5-MIN KSTC 121430Z 09005KT 10SM CLR 16/06 A3022 750 49 1100 090/05 RMK AO2
14926KSTC STC20060612083509306/12/06 08:35:31  5-MIN KSTC 121435Z 09005KT 10SM CLR 16/06 A3022 750 53 1000 090/05 RMK AO2
14926KSTC STC20060612084009306/12/06 08:40:31  5-MIN KSTC 121440Z VRB03KT 10SM CLR 16/06 A3022 750 51 1100 VRB/03 RMK AO2
14926KSTC STC20060612084509306/12/06 08:45:31  5-MIN KSTC 121445Z 13004KT 10SM CLR 16/06 A3022 750 51 1100 120/04 RMK AO2
14926KSTC STC20060612085011606/12/06 08:50:31  5-MIN KSTC 121450Z VRB05KT 10SM CLR 17/06 A3021 760 47 1200 VRB/05 RMK AO2 SLP241 T01670056 51015
14926KSTC STC20060612085509306/12/06 08:55:31  5-MIN KSTC 121455Z 09005KT 10SM CLR 17/05 A3021 760 45 1200 080/05 RMK AO2
14926KSTC STC20060612090009306/12/06 09:00:31  5-MIN KSTC 121500Z 09004KT 10SM CLR 17/06 A3021 760 47 1200 080/04 RMK AO2
14926KSTC STC20060612090509306/12/06 09:05:31  5-MIN KSTC 121505Z 07003KT 10SM CLR 17/06 A3021 760 47 1200 060/03 RMK AO2
14926KSTC STC20060612091009306/12/06 09:10:31  5-MIN KSTC 121510Z VRB04KT 10SM CLR 17/05 A3021 760 45 1200 VRB/04 RMK AO2
14926KSTC STC20060612091509306/12/06 09:15:31  5-MIN KSTC 121515Z 07005KT 10SM CLR 17/05 A3021 760 45 1200 070/05 RMK AO2
14926KSTC STC20060612092009306/12/06 09:20:31  5-MIN KSTC 121520Z 08004KT 10SM CLR 17/06 A3022 750 46 1200 080/04 RMK AO2
14926KSTC STC20060612092509306/12/06 09:25:31  5-MIN KSTC 121525Z 04004KT 10SM CLR 18/06 A3022 750 44 1300 040/04 RMK AO2
14926KSTC STC20060612093009306/12/06 09:30:31  5-MIN KSTC 121530Z 06004KT 10SM CLR 17/06 A3022 750 46 1200 060/04 RMK AO2
14926KSTC STC20060612093509306/12/06 09:35:31  5-MIN KSTC 121535Z VRB03KT 10SM CLR 18/05 A3022 750 42 1300 VRB/03 RMK AO2
14926KSTC STC20060612094009306/12/06 09:40:31  5-MIN KSTC 121540Z 12004KT 10SM CLR 17/06 A3022 750 46 1200 110/04 RMK AO2
14926KSTC STC20060612094509306/12/06 09:45:31  5-MIN KSTC 121545Z 12004KT 10SM CLR 17/04 A3022 750 42 1200 120/04 RMK AO2
14926KSTC STC20060612095011006/12/06 09:50:31  5-MIN KSTC 121550Z 11003KT 10SM CLR 18/04 A3022 750 41 1300 110/03 RMK AO2 SLP244 T01780044
14926KSTC STC20060612095509306/12/06 09:55:31  5-MIN KSTC 121555Z 00000KT 10SM CLR 18/04 A3022 750 41 1300 000/00 RMK AO2
14926KSTC STC20060612100009306/12/06 10:00:31  5-MIN KSTC 121600Z VRB03KT 10SM CLR 18/04 A3022 750 39 1400 VRB/03 RMK AO2
14926KSTC STC20060612100509306/12/06 10:05:31  5-MIN KSTC 121605Z 08005KT 10SM CLR 18/04 A3022 750 39 1400 070/05 RMK AO2
14926KSTC STC20060612101009306/12/06 10:10:31  5-MIN KSTC 121610Z 00000KT 10SM CLR 18/04 A3022 750 38 1400 000/00 RMK AO2
14926KSTC STC20060612101509306/12/06 10:15:31  5-MIN KSTC 121615Z 08005KT 10SM CLR 19/04 A3022 750 38 1400 080/05 RMK AO2
14926KSTC STC20060612102009306/12/06 10:20:31  5-MIN KSTC 121620Z VRB03KT 10SM CLR 19/04 A3022 750 36 1400 VRB/03 RMK AO2
14926KSTC STC20060612102509306/12/06 10:25:31  5-MIN KSTC 121625Z 00000KT 10SM CLR 19/04 A3022 750 38 1400 000/00 RMK AO2
14926KSTC STC20060612103009306/12/06 10:30:31  5-MIN KSTC 121630Z 11005KT 10SM CLR 19/05 A3023 740 38 1500 100/05 RMK AO2
14926KSTC STC20060612103509306/12/06 10:35:31  5-MIN KSTC 121635Z 09004KT 10SM CLR 19/05 A3023 740 39 1400 090/04 RMK AO2
14926KSTC STC20060612104009306/12/06 10:40:31  5-MIN KSTC 121640Z 00000KT 10SM CLR 19/05 A3023 740 38 1500 000/00 RMK AO2
14926KSTC STC20060612104509306/12/06 10:45:31  5-MIN KSTC 121645Z 15006KT 10SM CLR 19/06 A3023 740 40 1500 140/06 RMK AO2
14926KSTC STC20060612105011006/12/06 10:50:31  5-MIN KSTC 121650Z 13006KT 10SM CLR 19/06 A3023 740 40 1500 120/06 RMK AO2 SLP247 T01940056
14926KSTC STC20060612105509306/12/06 10:55:31  5-MIN KSTC 121655Z 00000KT 10SM CLR 19/05 A3023 740 38 1500 000/00 RMK AO2
14926KSTC STC20060612110009306/12/06 11:00:31  5-MIN KSTC 121700Z 13005KT 10SM CLR 19/05 A3023 740 38 1500 130/05 RMK AO2
14926KSTC STC20060612110509306/12/06 11:05:31  5-MIN KSTC 121705Z VRB04KT 10SM CLR 19/05 A3023 740 38 1500 VRB/04 RMK AO2
14926KSTC STC20060612111009306/12/06 11:10:31  5-MIN KSTC 121710Z VRB04KT 10SM CLR 20/04 A3023 740 35 1500 VRB/04 RMK AO2
14926KSTC STC20060612111509306/12/06 11:15:31  5-MIN KSTC 121715Z 16006KT 10SM CLR 20/05 A3023 750 37 1500 160/06 RMK AO2
14926KSTC STC20060612112009306/12/06 11:20:31  5-MIN KSTC 121720Z 16006KT 10SM CLR 20/04 A3023 750 35 1500 150/06 RMK AO2
14926KSTC STC20060612112509306/12/06 11:25:31  5-MIN KSTC 121725Z VRB04KT 10SM CLR 20/04 A3023 750 34 1500 VRB/04 RMK AO2
14926KSTC STC20060612113009306/12/06 11:30:31  5-MIN KSTC 121730Z VRB03KT 10SM CLR 20/05 A3023 750 37 1500 VRB/03 RMK AO2
14926KSTC STC20060612113509306/12/06 11:35:31  5-MIN KSTC 121735Z VRB06KT 10SM CLR 21/04 A3023 750 34 1600 VRB/06 RMK AO2
14926KSTC STC20060612114009306/12/06 11:40:31  5-MIN KSTC 121740Z VRB03KT 10SM CLR 20/04 A3022 750 35 1500 VRB/03 RMK AO2
14926KSTC STC20060612114509306/12/06 11:45:31  5-MIN KSTC 121745Z VRB04KT 10SM CLR 20/05 A3022 750 37 1500 VRB/04 RMK AO2
14926KSTC STC20060612115012806/12/06 11:50:31  5-MIN KSTC 121750Z VRB05KT 10SM CLR 21/04 A3022 750 34 1600 VRB/05 RMK AO2 SLP244 T02060044 10206 20111 51004
14926KSTC STC20060612115509306/12/06 11:55:31  5-MIN KSTC 121755Z 14007KT 10SM CLR 21/04 A3022 750 34 1600 140/07 RMK AO2
14926KSTC STC20060612120009306/12/06 12:00:31  5-MIN KSTC 121800Z 11005KT 10SM CLR 20/03 A3022 750 33 1500 110/05 RMK AO2
14926KSTC STC20060612120509306/12/06 12:05:31  5-MIN KSTC 121805Z VRB04KT 10SM CLR 21/04 A3022 750 34 1600 VRB/04 RMK AO2
14926KSTC STC20060612121009306/12/06 12:10:31  5-MIN KSTC 121810Z 24005KT 10SM CLR 21/06 A3022 750 36 1700 240/05 RMK AO2
14926KSTC STC20060612121509306/12/06 12:15:31  5-MIN KSTC 121815Z VRB05KT 10SM CLR 21/05 A3022 750 34 1700 VRB/05 RMK AO2
14926KSTC STC20060612122009306/12/06 12:20:31  5-MIN KSTC 121820Z 00000KT 10SM CLR 21/04 A3022 750 34 1600 000/00 RMK AO2
14926KSTC STC20060612122509306/12/06 12:25:31  5-MIN KSTC 121825Z 00000KT 10SM CLR 21/05 A3022 750 35 1600 000/00 RMK AO2
14926KSTC STC20060612123009306/12/06 12:30:31  5-MIN KSTC 121830Z 16007KT 10SM CLR 21/05 A3022 750 34 1700 160/07 RMK AO2
14926KSTC STC20060612123509306/12/06 12:35:31  5-MIN KSTC 121835Z VRB04KT 10SM CLR 21/04 A3021 760 32 1700 VRB/04 RMK AO2
14926KSTC STC20060612124009306/12/06 12:40:31  5-MIN KSTC 121840Z VRB03KT 10SM CLR 21/05 A3021 760 34 1700 VRB/03 RMK AO2
14926KSTC STC20060612124509306/12/06 12:45:31  5-MIN KSTC 121845Z 22005KT 10SM CLR 21/05 A3021 760 34 1700 220/05 RMK AO2
14926KSTC STC20060612125011006/12/06 12:50:31  5-MIN KSTC 121850Z 28003KT 10SM CLR 21/04 A3021 760 34 1600 280/03 RMK AO2 SLP239 T02060044
14926KSTC STC20060612125509306/12/06 12:55:31  5-MIN KSTC 121855Z VRB04KT 10SM CLR 21/05 A3021 760 34 1700 VRB/04 RMK AO2
14926KSTC STC20060612130009306/12/06 13:00:31  5-MIN KSTC 121900Z VRB05KT 10SM CLR 22/06 A3021 760 34 1800 VRB/05 RMK AO2
14926KSTC STC20060612130509306/12/06 13:05:31  5-MIN KSTC 121905Z 00000KT 10SM CLR 21/05 A3020 770 34 1700 000/00 RMK AO2
14926KSTC STC20060612131009306/12/06 13:10:31  5-MIN KSTC 121910Z VRB04KT 10SM CLR 22/06 A3020 770 36 1800 VRB/04 RMK AO2
14926KSTC STC20060612131509306/12/06 13:15:31  5-MIN KSTC 121915Z 21006KT 10SM CLR 22/06 A3020 770 34 1800 210/06 RMK AO2
14926KSTC STC20060612132009306/12/06 13:20:31  5-MIN KSTC 121920Z VRB04KT 10SM CLR 21/05 A3020 770 34 1700 VRB/04 RMK AO2
14926KSTC STC20060612132509306/12/06 13:25:31  5-MIN KSTC 121925Z 18006KT 10SM CLR 22/05 A3020 770 33 1800 180/06 RMK AO2
14926KSTC STC20060612133009306/12/06 13:30:31  5-MIN KSTC 121930Z VRB03KT 10SM CLR 22/04 A3020 770 32 1800 VRB/03 RMK AO2
14926KSTC STC20060612133509306/12/06 13:35:31  5-MIN KSTC 121935Z 00000KT 10SM CLR 22/04 A3020 770 32 1800 000/00 RMK AO2
14926KSTC STC20060612134009306/12/06 13:40:31  5-MIN KSTC 121940Z 00000KT 10SM CLR 22/03 A3020 770 29 1800 000/00 RMK AO2
14926KSTC STC20060612134509306/12/06 13:45:31  5-MIN KSTC 121945Z 33005KT 10SM CLR 22/04 A3019 770 31 1800 320/05 RMK AO2
14926KSTC STC20060612135011006/12/06 13:50:31  5-MIN KSTC 121950Z 00000KT 10SM CLR 22/04 A3019 780 30 1800 000/00 RMK AO2 SLP233 T02220039
14926KSTC STC20060612135509306/12/06 13:55:31  5-MIN KSTC 121955Z VRB06KT 10SM CLR 22/04 A3019 780 30 1800 VRB/06 RMK AO2
14926KSTC STC20060612140009306/12/06 14:00:31  5-MIN KSTC 122000Z 20005KT 10SM CLR 22/05 A3019 780 32 1800 200/05 RMK AO2
14926KSTC STC20060612140509306/12/06 14:05:31  5-MIN KSTC 122005Z VRB03KT 10SM CLR 22/04 A3019 780 32 1800 VRB/03 RMK AO2
14926KSTC STC20060612141009306/12/06 14:10:31  5-MIN KSTC 122010Z 00000KT 10SM CLR 22/04 A3019 780 32 1800 000/00 RMK AO2
14926KSTC STC20060612141509306/12/06 14:15:31  5-MIN KSTC 122015Z VRB03KT 10SM CLR 22/04 A3019 780 31 1800 VRB/03 RMK AO2
14926KSTC STC20060612142009306/12/06 14:20:31  5-MIN KSTC 122020Z 22005KT 10SM CLR 22/05 A3019 780 32 1800 220/05 RMK AO2
14926KSTC STC20060612142509306/12/06 14:25:31  5-MIN KSTC 122025Z VRB04KT 10SM CLR 22/04 A3019 780 31 1800 VRB/04 RMK AO2
14926KSTC STC20060612143009306/12/06 14:30:31  5-MIN KSTC 122030Z 00000KT 10SM CLR 22/03 A3019 780 28 1800 000/00 RMK AO2
14926KSTC STC20060612143509306/12/06 14:35:31  5-MIN KSTC 122035Z 00000KT 10SM CLR 22/04 A3019 780 30 1800 000/00 RMK AO2
14926KSTC STC20060612144009306/12/06 14:40:31  5-MIN KSTC 122040Z 00000KT 10SM CLR 22/04 A3019 780 30 1800 000/00 RMK AO2
14926KSTC STC20060612144509306/12/06 14:45:31  5-MIN KSTC 122045Z 00000KT 10SM CLR 22/04 A3019 780 30 1800 000/00 RMK AO2
14926KSTC STC20060612145012106/12/06 14:50:31  5-MIN KSTC 122050Z AUTO 00000KT 10SM CLR 22/03 A3019 780 28 1800 000/00 RMK AO2 SLP231 T02220033 50002
14926KSTC STC20060612145509306/12/06 14:55:31  5-MIN KSTC 122055Z 25004KT 10SM CLR 23/05 A3019 780 31 1900 250/04 RMK AO2
14926KSTC STC20060612150009306/12/06 15:00:31  5-MIN KSTC 122100Z 27007KT 10SM CLR 23/04 A3019 780 30 1900 260/07 RMK AO2
14926KSTC STC20060612150509306/12/06 15:05:31  5-MIN KSTC 122105Z VRB03KT 10SM CLR 22/04 A3019 780 31 1800 VRB/03 RMK AO2
14926KSTC STC20060612151009306/12/06 15:10:31  5-MIN KSTC 122110Z VRB04KT 10SM CLR 23/05 A3018 790 31 1900 VRB/04 RMK AO2
14926KSTC STC20060612151509306/12/06 15:15:31  5-MIN KSTC 122115Z 29004KT 10SM CLR 23/06 A3018 790 31 2000 290/04 RMK AO2
14926KSTC STC20060612152009306/12/06 15:20:31  5-MIN KSTC 122120Z 00000KT 10SM CLR 23/05 A3018 790 31 1900 000/00 RMK AO2
14926KSTC STC20060612152509306/12/06 15:25:31  5-MIN KSTC 122125Z 19006KT 10SM CLR 23/05 A3017 790 31 1900 190/06 RMK AO2
14926KSTC STC20060612153009306/12/06 15:30:31  5-MIN KSTC 122130Z 20004KT 10SM CLR 23/04 A3017 790 30 1900 190/04 RMK AO2
14926KSTC STC20060612153509306/12/06 15:35:31  5-MIN KSTC 122135Z VRB03KT 10SM CLR 23/04 A3017 790 30 1900 VRB/03 RMK AO2
14926KSTC STC20060612154009306/12/06 15:40:31  5-MIN KSTC 122140Z 00000KT 10SM CLR 23/04 A3017 790 29 1900 000/00 RMK AO2
14926KSTC STC20060612154509306/12/06 15:45:31  5-MIN KSTC 122145Z VRB04KT 10SM CLR 23/04 A3017 790 30 1900 VRB/04 RMK AO2
14926KSTC STC20060612155011006/12/06 15:50:31  5-MIN KSTC 122150Z VRB03KT 10SM CLR 22/04 A3017 790 31 1900 VRB/03 RMK AO2 SLP227 T02220044
14926KSTC STC20060612155509306/12/06 15:55:31  5-MIN KSTC 122155Z 00000KT 10SM CLR 23/04 A3017 790 30 1900 000/00 RMK AO2
14926KSTC STC20060612160009306/12/06 16:00:31  5-MIN KSTC 122200Z 00000KT 10SM CLR 23/04 A3017 790 30 1900 000/00 RMK AO2
14926KSTC STC20060612160509306/12/06 16:05:31  5-MIN KSTC 122205Z VRB03KT 10SM CLR 23/04 A3017 800 29 2000 VRB/03 RMK AO2
14926KSTC STC20060612161009306/12/06 16:10:31  5-MIN KSTC 122210Z 07003KT 10SM CLR 23/04 A3017 800 28 2000 070/03 RMK AO2
14926KSTC STC20060612161509306/12/06 16:15:31  5-MIN KSTC 122215Z 00000KT 10SM CLR 23/04 A3017 800 29 1900 000/00 RMK AO2
14926KSTC STC20060612162009306/12/06 16:20:31  5-MIN KSTC 122220Z 00000KT 10SM CLR 23/04 A3017 800 29 2000 000/00 RMK AO2
14926KSTC STC20060612162509306/12/06 16:25:31  5-MIN KSTC 122225Z 35004KT 10SM CLR 23/04 A3017 800 29 2000 350/04 RMK AO2
14926KSTC STC20060612163009306/12/06 16:30:31  5-MIN KSTC 122230Z VRB03KT 10SM CLR 23/04 A3016 800 30 1900 VRB/03 RMK AO2
14926KSTC STC20060612163509306/12/06 16:35:31  5-MIN KSTC 122235Z 16004KT 10SM CLR 22/05 A3017 800 32 1900 150/04 RMK AO2
14926KSTC STC20060612164009206/12/06 16:40:31  5-MIN KSTC 122240Z 17004KT 9SM CLR 23/06 A3016 800 32 1900 160/04 RMK AO2
14926KSTC STC20060612164509206/12/06 16:45:31  5-MIN KSTC 122245Z 00000KT 9SM CLR 23/05 A3016 800 31 1900 000/00 RMK AO2
14926KSTC STC20060612165011006/12/06 16:50:31  5-MIN KSTC 122250Z 14003KT 10SM CLR 23/06 A3016 800 32 1900 140/03 RMK AO2 SLP223 T02280056
14926KSTC STC20060612165509306/12/06 16:55:31  5-MIN KSTC 122255Z 13005KT 10SM CLR 23/05 A3016 800 31 1900 130/05 RMK AO2
14926KSTC STC20060612170009306/12/06 17:00:31  5-MIN KSTC 122300Z 00000KT 10SM CLR 23/06 A3016 800 33 1900 000/00 RMK AO2
14926KSTC STC20060612170509306/12/06 17:05:31  5-MIN KSTC 122305Z 24003KT 10SM CLR 23/06 A3016 800 33 1900 230/03 RMK AO2
14926KSTC STC20060612171009306/12/06 17:10:31  5-MIN KSTC 122310Z 00000KT 10SM CLR 23/06 A3016 810 33 1900 000/00 RMK AO2
14926KSTC STC20060612171509306/12/06 17:15:31  5-MIN KSTC 122315Z 24006KT 10SM CLR 23/07 A3016 810 35 1900 230/06 RMK AO2
14926KSTC STC20060612172009306/12/06 17:20:31  5-MIN KSTC 122320Z 26003KT 10SM CLR 23/07 A3016 810 35 1900 260/03 RMK AO2
14926KSTC STC20060612172509306/12/06 17:25:31  5-MIN KSTC 122325Z VRB04KT 10SM CLR 23/07 A3016 810 35 1900 VRB/04 RMK AO2
14926KSTC STC20060612173009306/12/06 17:30:31  5-MIN KSTC 122330Z 24005KT 10SM CLR 22/07 A3015 810 36 1900 230/05 RMK AO2
14926KSTC STC20060612173509306/12/06 17:35:31  5-MIN KSTC 122335Z VRB04KT 10SM CLR 22/06 A3015 810 35 1900 VRB/04 RMK AO2
14926KSTC STC20060612174009306/12/06 17:40:31  5-MIN KSTC 122340Z 24004KT 10SM CLR 22/07 A3015 810 36 1900 230/04 RMK AO2
14926KSTC STC20060612174509306/12/06 17:45:31  5-MIN KSTC 122345Z 22003KT 10SM CLR 22/07 A3015 810 36 1900 220/03 RMK AO2
14926KSTC STC20060612175012806/12/06 17:50:31  5-MIN KSTC 122350Z 21005KT 10SM CLR 22/07 A3015 810 37 1800 210/05 RMK AO2 SLP218 T02170067 10233 20200 56011
14926KSTC STC20060612175509306/12/06 17:55:31  5-MIN KSTC 122355Z 18004KT 10SM CLR 22/07 A3015 810 37 1800 170/04 RMK AO2
14926KSTC STC20060612180009306/12/06 18:00:31  5-MIN KSTC 130000Z 16004KT 10SM CLR 22/07 A3015 820 39 1800 150/04 RMK AO2
14926KSTC STC20060612180509506/12/06 18:05:31  5-MIN KSTC 130005Z 15004KT 5SM HZ CLR 22/08 A3015 820 40 1800 150/04 RMK AO2
14926KSTC STC20060612181009506/12/06 18:10:31  5-MIN KSTC 130010Z 00000KT 4SM HZ CLR 22/09 A3015 820 43 1800 000/00 RMK AO2
14926KSTC STC20060612181509206/12/06 18:15:31  5-MIN KSTC 130015Z 17005KT 7SM CLR 22/08 A3015 810 42 1800 170/05 RMK AO2
14926KSTC STC20060612182009306/12/06 18:20:31  5-MIN KSTC 130020Z 17005KT 10SM CLR 22/07 A3015 820 39 1800 170/05 RMK AO2
14926KSTC STC20060612182509306/12/06 18:25:31  5-MIN KSTC 130025Z 16004KT 10SM CLR 22/07 A3015 820 39 1800 150/04 RMK AO2
14926KSTC STC20060612183009306/12/06 18:30:31  5-MIN KSTC 130030Z 15003KT 10SM CLR 22/08 A3015 810 39 1900 150/03 RMK AO2
14926KSTC STC20060612183509606/12/06 18:35:31  5-MIN KSTC 130035Z 17004KT 10SM FEW120 22/07 A3015 820 36 1900 160/04 RMK AO2
14926KSTC STC20060612184009606/12/06 18:40:31  5-MIN KSTC 130040Z 16004KT 10SM FEW120 22/07 A3015 820 36 1900 160/04 RMK AO2
14926KSTC STC20060612184509306/12/06 18:45:31  5-MIN KSTC 130045Z 15003KT 10SM CLR 22/07 A3015 820 37 1900 150/03 RMK AO2
14926KSTC STC20060612185011306/12/06 18:50:31  5-MIN KSTC 130050Z 15004KT 10SM FEW120 22/07 A3015 820 39 1800 150/04 RMK AO2 SLP217 T02170072
14926KSTC STC20060612185509606/12/06 18:55:31  5-MIN KSTC 130055Z 16004KT 10SM FEW120 21/08 A3015 810 42 1800 160/04 RMK AO2
14926KSTC STC20060612190009606/12/06 19:00:31  5-MIN KSTC 130100Z 15003KT 10SM FEW110 21/09 A3015 810 46 1700 150/03 RMK AO2
14926KSTC STC20060612190509606/12/06 19:05:31  5-MIN KSTC 130105Z 00000KT 10SM FEW110 21/09 A3015 810 46 1700 000/00 RMK AO2
14926KSTC STC20060612191009606/12/06 19:10:31  5-MIN KSTC 130110Z 00000KT 10SM SCT110 20/10 A3015 810 52 1600 000/00 RMK AO2
14926KSTC STC20060612191509606/12/06 19:15:31  5-MIN KSTC 130115Z 13003KT 10SM FEW110 19/09 A3015 810 52 1600 130/03 RMK AO2
14926KSTC STC20060612192009606/12/06 19:20:31  5-MIN KSTC 130120Z 13003KT 10SM FEW110 19/10 A3015 810 54 1600 120/03 RMK AO2
14926KSTC STC20060612192509606/12/06 19:25:31  5-MIN KSTC 130125Z 11003KT 10SM FEW110 19/10 A3015 810 54 1600 110/03 RMK AO2
14926KSTC STC20060612193009606/12/06 19:30:31  5-MIN KSTC 130130Z 12004KT 10SM FEW110 20/09 A3015 820 50 1600 120/04 RMK AO2
14926KSTC STC20060612193509606/12/06 19:35:31  5-MIN KSTC 130135Z 12004KT 10SM SCT120 20/09 A3015 820 48 1600 120/04 RMK AO2
14926KSTC STC20060612194009606/12/06 19:40:31  5-MIN KSTC 130140Z 12004KT 10SM SCT120 20/07 A3015 820 43 1600 120/04 RMK AO2
14926KSTC STC20060612194509606/12/06 19:45:31  5-MIN KSTC 130145Z 13004KT 10SM BKN110 20/08 A3015 820 45 1600 130/04 RMK AO2
14926KSTC STC20060612195011306/12/06 19:50:31  5-MIN KSTC 130150Z 00000KT 10SM BKN110 19/08 A3015 820 48 1600 000/00 RMK AO2 SLP217 T01940083
14926KSTC STC20060612195509606/12/06 19:55:31  5-MIN KSTC 130155Z 00000KT 10SM SCT110 19/09 A3015 810 50 1600 000/00 RMK AO2
14926KSTC STC20060612200009606/12/06 20:00:31  5-MIN KSTC 130200Z 00000KT 10SM BKN120 19/10 A3015 810 54 1600 000/00 RMK AO2
14926KSTC STC20060612200509606/12/06 20:05:31  5-MIN KSTC 130205Z 00000KT 10SM BKN120 19/11 A3015 820 58 1500 000/00 RMK AO2
14926KSTC STC20060612201009606/12/06 20:10:31  5-MIN KSTC 130210Z 00000KT 10SM SCT120 18/11 A3015 820 62 1400 000/00 RMK AO2
14926KSTC STC20060612201509606/12/06 20:15:31  5-MIN KSTC 130215Z 00000KT 10SM FEW110 19/11 A3015 820 58 1500 000/00 RMK AO2
14926KSTC STC20060612202009606/12/06 20:20:31  5-MIN KSTC 130220Z 00000KT 10SM FEW120 18/11 A3015 820 62 1400 000/00 RMK AO2
14926KSTC STC20060612202509606/12/06 20:25:31  5-MIN KSTC 130225Z 00000KT 10SM FEW120 18/11 A3015 820 62 1400 000/00 RMK AO2
14926KSTC STC20060612203009306/12/06 20:30:31  5-MIN KSTC 130230Z 00000KT 10SM CLR 18/11 A3015 820 64 1400 000/00 RMK AO2
14926KSTC STC20060612203509306/12/06 20:35:31  5-MIN KSTC 130235Z 00000KT 10SM CLR 17/11 A3015 820 67 1300 000/00 RMK AO2
14926KSTC STC20060612204009606/12/06 20:40:31  5-MIN KSTC 130240Z 00000KT 10SM FEW110 17/12 A3015 810 72 1200 000/00 RMK AO2
14926KSTC STC20060612204509606/12/06 20:45:31  5-MIN KSTC 130245Z 00000KT 10SM SCT110 17/10 A3015 810 62 1300 000/00 RMK AO2
14926KSTC STC20060612205011906/12/06 20:50:31  5-MIN KSTC 130250Z 00000KT 10SM SCT110 17/11 A3015 810 69 1200 000/00 RMK AO2 SLP218 T01670111 56012
14926KSTC STC20060612205509606/12/06 20:55:31  5-MIN KSTC 130255Z 00000KT 10SM SCT110 17/12 A3015 810 72 1200 000/00 RMK AO2
14926KSTC STC20060612210009606/12/06 21:00:31  5-MIN KSTC 130300Z 00000KT 10SM SCT110 16/11 A3015 810 69 1200 000/00 RMK AO2
14926KSTC STC20060612210509606/12/06 21:05:31  5-MIN KSTC 130305Z 00000KT 10SM SCT110 16/12 A3015 810 77 1100 000/00 RMK AO2
14926KSTC STC20060612211009606/12/06 21:10:31  5-MIN KSTC 130310Z 00000KT 10SM FEW110 16/11 A3015 810 74 1100 000/00 RMK AO2
14926KSTC STC20060612211509606/12/06 21:15:31  5-MIN KSTC 130315Z 00000KT 10SM FEW120 16/09 A3015 810 64 1200 000/00 RMK AO2
14926KSTC STC20060612212009606/12/06 21:20:31  5-MIN KSTC 130320Z 00000KT 10SM FEW120 16/10 A3015 810 69 1100 000/00 RMK AO2
14926KSTC STC20060612212509306/12/06 21:25:31  5-MIN KSTC 130325Z 00000KT 10SM CLR 16/11 A3015 810 72 1100 000/00 RMK AO2
14926KSTC STC20060612213009306/12/06 21:30:31  5-MIN KSTC 130330Z 00000KT 10SM CLR 15/11 A3016 810 74 1000 000/00 RMK AO2
14926KSTC STC20060612213509306/12/06 21:35:31  5-MIN KSTC 130335Z 06003KT 10SM CLR 15/11 A3016 810 77 1000 050/03 RMK AO2
14926KSTC STC20060612214009306/12/06 21:40:31  5-MIN KSTC 130340Z 00000KT 10SM CLR 15/11 A3016 810 77 1000 000/00 RMK AO2
14926KSTC STC20060612214509306/12/06 21:45:31  5-MIN KSTC 130345Z 00000KT 10SM CLR 15/11 A3015 810 77 1000 000/00 RMK AO2
14926KSTC STC20060612215011006/12/06 21:50:31  5-MIN KSTC 130350Z 00000KT 10SM CLR 16/11 A3015 810 74 1100 000/00 RMK AO2 SLP218 T01560111
14926KSTC STC20060612215509306/12/06 21:55:31  5-MIN KSTC 130355Z 00000KT 10SM CLR 16/11 A3015 810 74 1100 000/00 RMK AO2
14926KSTC STC20060612220009806/12/06 22:00:31  5-MIN KSTC 130400Z AUTO 00000KT 10SM CLR 15/12 A3015 810 80 1000 000/00 RMK AO2
14926KSTC STC20060612220509806/12/06 22:05:31  5-MIN KSTC 130405Z AUTO 00000KT 10SM CLR 16/11 A3015 810 74 1100 000/00 RMK AO2
14926KSTC STC20060612221009806/12/06 22:10:31  5-MIN KSTC 130410Z AUTO 00000KT 10SM CLR 15/11 A3015 810 77 1000 000/00 RMK AO2
14926KSTC STC20060612221509806/12/06 22:15:31  5-MIN KSTC 130415Z AUTO 00000KT 10SM CLR 16/11 A3015 810 74 1100 000/00 RMK AO2
14926KSTC STC20060612222009806/12/06 22:20:31  5-MIN KSTC 130420Z AUTO 00000KT 10SM CLR 15/11 A3015 810 77 1000 000/00 RMK AO2
14926KSTC STC20060612222509806/12/06 22:25:31  5-MIN KSTC 130425Z AUTO 00000KT 10SM CLR 16/11 A3015 810 74 1100 000/00 RMK AO2
14926KSTC STC20060612223009806/12/06 22:30:31  5-MIN KSTC 130430Z AUTO 00000KT 10SM CLR 16/12 A3015 810 77 1100 000/00 RMK AO2
14926KSTC STC20060612223509806/12/06 22:35:31  5-MIN KSTC 130435Z AUTO 00000KT 10SM CLR 16/12 A3015 810 77 1100 000/00 RMK AO2
14926KSTC STC20060612224009806/12/06 22:40:31  5-MIN KSTC 130440Z AUTO 00000KT 10SM CLR 16/12 A3015 820 80 1100 000/00 RMK AO2
14926KSTC STC20060612224509806/12/06 22:45:31  5-MIN KSTC 130445Z AUTO 00000KT 10SM CLR 16/12 A3014 820 77 1100 000/00 RMK AO2
14926KSTC STC20060612225011506/12/06 22:50:31  5-MIN KSTC 130450Z AUTO 00000KT 10SM CLR 15/12 A3014 820 80 1100 000/00 RMK AO2 SLP214 T01500117
14926KSTC STC20060612225509806/12/06 22:55:31  5-MIN KSTC 130455Z AUTO 14003KT 10SM CLR 15/12 A3014 830 80 1100 140/03 RMK AO2
14926KSTC STC20060612230009806/12/06 23:00:31  5-MIN KSTC 130500Z AUTO 14003KT 10SM CLR 15/12 A3014 830 80 1100 140/03 RMK AO2
14926KSTC STC20060612230509806/12/06 23:05:31  5-MIN KSTC 130505Z AUTO 14003KT 10SM CLR 15/12 A3014 820 83 1100 140/03 RMK AO2
14926KSTC STC20060612231009806/12/06 23:10:31  5-MIN KSTC 130510Z AUTO 14004KT 10SM CLR 15/12 A3014 830 83 1100 140/04 RMK AO2
14926KSTC STC20060612231509806/12/06 23:15:31  5-MIN KSTC 130515Z AUTO 14003KT 10SM CLR 15/12 A3014 820 83 1100 140/03 RMK AO2
14926KSTC STC20060612232009806/12/06 23:20:31  5-MIN KSTC 130520Z AUTO 00000KT 10SM CLR 15/12 A3014 820 83 1100 000/00 RMK AO2
14926KSTC STC20060612232509806/12/06 23:25:31  5-MIN KSTC 130525Z AUTO 00000KT 10SM CLR 14/12 A3014 820 83 1000 000/00 RMK AO2
14926KSTC STC20060612233009806/12/06 23:30:31  5-MIN KSTC 130530Z AUTO 00000KT 10SM CLR 14/12 A3014 820 83 1000 000/00 RMK AO2
14926KSTC STC20060612233509806/12/06 23:35:31  5-MIN KSTC 130535Z AUTO 00000KT 10SM CLR 15/12 A3015 820 80 1000 000/00 RMK AO2
14926KSTC STC20060612234009806/12/06 23:40:31  5-MIN KSTC 130540Z AUTO 00000KT 10SM CLR 15/12 A3015 820 80 1000 000/00 RMK AO2
14926KSTC STC20060612234509806/12/06 23:45:31  5-MIN KSTC 130545Z AUTO 00000KT 10SM CLR 15/11 A3015 820 74 1000 000/00 RMK AO2
14926KSTC STC20060612235014306/12/06 23:50:31  5-MIN KSTC 130550Z AUTO 00000KT 10SM CLR 14/11 A3015 820 80 1000 000/00 RMK AO2 SLP216 T01440111 10222 20144 402330067 53001
14926KSTC STC20060612235509806/12/06 23:55:31  5-MIN KSTC 130555Z AUTO 00000KT 10SM CLR 14/11 A3015 820 80 1000 000/00 RMK AO2
14926KSTC STC20060613000009806/13/06 00:00:32  5-MIN KSTC 130600Z AUTO 00000KT 10SM CLR 14/11 A3015 820 80 1000 000/00 RMK AO2
14926KSTC STC20060613000509706/13/06 00:05:31  5-MIN KSTC 130605Z AUTO 00000KT 10SM CLR 14/11 A3015 820 83 900 000/00 RMK AO2
14926KSTC STC20060613001009706/13/06 00:10:31  5-MIN KSTC 130610Z AUTO 00000KT 10SM CLR 14/11 A3015 820 83 900 000/00 RMK AO2
14926KSTC STC20060613001509706/13/06 00:15:31  5-MIN KSTC 130615Z AUTO 00000KT 10SM CLR 13/11 A3015 820 86 900 000/00 RMK AO2
14926KSTC STC20060613002009706/13/06 00:20:31  5-MIN KSTC 130620Z AUTO 00000KT 10SM CLR 13/11 A3015 820 86 800 000/00 RMK AO2
14926KSTC STC20060613002509706/13/06 00:25:31  5-MIN KSTC 130625Z AUTO 00000KT 10SM CLR 13/11 A3015 820 89 800 000/00 RMK AO2
14926KSTC STC20060613003009706/13/06 00:30:31  5-MIN KSTC 130630Z AUTO 00000KT 10SM CLR 13/11 A3015 820 86 800 000/00 RMK AO2
14926KSTC STC20060613003509706/13/06 00:35:31  5-MIN KSTC 130635Z AUTO 00000KT 10SM CLR 13/12 A3015 820 89 800 000/00 RMK AO2
14926KSTC STC20060613004009706/13/06 00:40:31  5-MIN KSTC 130640Z AUTO 00000KT 10SM CLR 14/12 A3015 810 86 900 000/00 RMK AO2
14926KSTC STC20060613004509706/13/06 00:45:31  5-MIN KSTC 130645Z AUTO 00000KT 10SM CLR 14/12 A3015 810 90 900 000/00 RMK AO2
14926KSTC STC20060613005011406/13/06 00:50:31  5-MIN KSTC 130650Z AUTO 00000KT 10SM CLR 13/12 A3015 810 89 800 000/00 RMK AO2 SLP218 T01330117
14926KSTC STC20060613005509706/13/06 00:55:31  5-MIN KSTC 130655Z AUTO 00000KT 10SM CLR 13/11 A3015 810 86 800 000/00 RMK AO2
14926KSTC STC20060613010009706/13/06 01:00:31  5-MIN KSTC 130700Z AUTO 00000KT 10SM CLR 13/11 A3015 820 86 900 000/00 RMK AO2
14926KSTC STC20060613010509706/13/06 01:05:31  5-MIN KSTC 130705Z AUTO 00000KT 10SM CLR 14/12 A3015 820 86 900 000/00 RMK AO2
14926KSTC STC20060613011010006/13/06 01:10:31  5-MIN KSTC 130710Z AUTO 00000KT 10SM FEW110 13/12 A3015 820 89 800 000/00 RMK AO2
14926KSTC STC20060613011510006/13/06 01:15:31  5-MIN KSTC 130715Z AUTO 00000KT 10SM FEW110 13/11 A3015 820 86 800 000/00 RMK AO2
14926KSTC STC20060613012009706/13/06 01:20:31  5-MIN KSTC 130720Z AUTO 00000KT 10SM CLR 14/12 A3015 820 86 900 000/00 RMK AO2
14926KSTC STC20060613012509706/13/06 01:25:31  5-MIN KSTC 130725Z AUTO 00000KT 10SM CLR 14/12 A3015 820 86 900 000/00 RMK AO2
14926KSTC STC20060613013009706/13/06 01:30:31  5-MIN KSTC 130730Z AUTO 00000KT 10SM CLR 14/12 A3014 820 86 900 000/00 RMK AO2
14926KSTC STC20060613013509706/13/06 01:35:31  5-MIN KSTC 130735Z AUTO 00000KT 10SM CLR 14/12 A3014 820 90 900 000/00 RMK AO2
14926KSTC STC20060613014009706/13/06 01:40:31  5-MIN KSTC 130740Z AUTO 00000KT 10SM CLR 14/12 A3014 820 86 900 000/00 RMK AO2
14926KSTC STC20060613014509706/13/06 01:45:31  5-MIN KSTC 130745Z AUTO 00000KT 10SM CLR 14/12 A3014 830 86 900 000/00 RMK AO2
14926KSTC STC20060613015011406/13/06 01:50:31  5-MIN KSTC 130750Z AUTO 00000KT 10SM CLR 14/12 A3014 830 86 900 000/00 RMK AO2 SLP212 T01390117
14926KSTC STC20060613015509706/13/06 01:55:31  5-MIN KSTC 130755Z AUTO 00000KT 10SM CLR 14/12 A3014 830 90 900 000/00 RMK AO2
14926KSTC STC20060613020009706/13/06 02:00:31  5-MIN KSTC 130800Z AUTO 00000KT 10SM CLR 14/12 A3014 830 90 900 000/00 RMK AO2
14926KSTC STC20060613020509706/13/06 02:05:31  5-MIN KSTC 130805Z AUTO 00000KT 10SM CLR 14/12 A3014 830 86 900 000/00 RMK AO2
14926KSTC STC20060613021009706/13/06 02:10:31  5-MIN KSTC 130810Z AUTO 00000KT 10SM CLR 14/12 A3014 820 90 900 000/00 RMK AO2
14926KSTC STC20060613021509706/13/06 02:15:31  5-MIN KSTC 130815Z AUTO 00000KT 10SM CLR 14/12 A3014 820 86 900 000/00 RMK AO2
14926KSTC STC20060613022009706/13/06 02:20:31  5-MIN KSTC 130820Z AUTO 00000KT 10SM CLR 14/12 A3014 820 86 900 000/00 RMK AO2
14926KSTC STC20060613022509706/13/06 02:25:31  5-MIN KSTC 130825Z AUTO 02003KT 10SM CLR 14/12 A3014 820 86 900 020/03 RMK AO2
14926KSTC STC20060613023009806/13/06 02:30:31  5-MIN KSTC 130830Z AUTO 00000KT 10SM CLR 14/12 A3014 830 83 1000 000/00 RMK AO2
14926KSTC STC20060613023509706/13/06 02:35:31  5-MIN KSTC 130835Z AUTO 00000KT 10SM CLR 14/12 A3013 830 90 900 000/00 RMK AO2
14926KSTC STC20060613024009706/13/06 02:40:31  5-MIN KSTC 130840Z AUTO 00000KT 10SM CLR 14/12 A3014 830 86 900 000/00 RMK AO2
14926KSTC STC20060613024509706/13/06 02:45:31  5-MIN KSTC 130845Z AUTO 00000KT 10SM CLR 14/12 A3014 830 90 900 000/00 RMK AO2
14926KSTC STC20060613025012006/13/06 02:50:31  5-MIN KSTC 130850Z AUTO 00000KT 10SM CLR 14/12 A3013 830 90 900 000/00 RMK AO2 SLP211 T01390122 55002
14926KSTC STC20060613025509806/13/06 02:55:31  5-MIN KSTC 130855Z AUTO 00000KT 10SM CLR 14/13 A3013 830 90 1000 000/00 RMK AO2
14926KSTC STC20060613030009706/13/06 03:00:31  5-MIN KSTC 130900Z AUTO 00000KT 10SM CLR 14/12 A3013 830 90 900 000/00 RMK AO2
14926KSTC STC20060613030510006/13/06 03:05:31  5-MIN KSTC 130905Z AUTO 00000KT 10SM FEW110 14/12 A3013 830 90 900 000/00 RMK AO2
14926KSTC STC20060613031010006/13/06 03:10:31  5-MIN KSTC 130910Z AUTO 00000KT 10SM FEW110 14/12 A3013 830 90 900 000/00 RMK AO2
14926KSTC STC20060613031510106/13/06 03:15:31  5-MIN KSTC 130915Z AUTO 00000KT 10SM FEW110 14/12 A3013 830 86 1000 000/00 RMK AO2
14926KSTC STC20060613032009806/13/06 03:20:31  5-MIN KSTC 130920Z AUTO 00000KT 10SM CLR 14/12 A3013 830 86 1000 000/00 RMK AO2
14926KSTC STC20060613032509706/13/06 03:25:31  5-MIN KSTC 130925Z AUTO 00000KT 10SM CLR 14/12 A3013 830 86 900 000/00 RMK AO2
14926KSTC STC20060613033009706/13/06 03:30:31  5-MIN KSTC 130930Z AUTO 00000KT 10SM CLR 14/11 A3013 830 83 900 000/00 RMK AO2
14926KSTC STC20060613033509706/13/06 03:35:31  5-MIN KSTC 130935Z AUTO 00000KT 10SM CLR 14/11 A3013 830 83 900 000/00 RMK AO2
14926KSTC STC20060613034009706/13/06 03:40:31  5-MIN KSTC 130940Z AUTO 00000KT 10SM CLR 14/12 A3013 830 86 900 000/00 RMK AO2
14926KSTC STC20060613034509706/13/06 03:45:31  5-MIN KSTC 130945Z AUTO 00000KT 10SM CLR 14/12 A3013 840 86 900 000/00 RMK AO2
14926KSTC STC20060613035011406/13/06 03:50:31  5-MIN KSTC 130950Z AUTO 15003KT 10SM CLR 14/12 A3013 830 86 900 140/03 RMK AO2 SLP209 T01390117
14926KSTC STC20060613035509706/13/06 03:55:31  5-MIN KSTC 130955Z AUTO 15003KT 10SM CLR 14/12 A3013 830 86 900 150/03 RMK AO2
14926KSTC STC20060613040009706/13/06 04:00:31  5-MIN KSTC 131000Z AUTO 00000KT 10SM CLR 14/12 A3013 830 90 900 000/00 RMK AO2
14926KSTC STC20060613040509706/13/06 04:05:31  5-MIN KSTC 131005Z AUTO 00000KT 10SM CLR 14/12 A3013 830 90 900 000/00 RMK AO2
14926KSTC STC20060613041009706/13/06 04:10:31  5-MIN KSTC 131010Z AUTO 16003KT 10SM CLR 13/12 A3013 840 89 900 150/03 RMK AO2
14926KSTC STC20060613041509706/13/06 04:15:31  5-MIN KSTC 131015Z AUTO 15003KT 10SM CLR 14/12 A3013 840 86 900 150/03 RMK AO2
14926KSTC STC20060613042009706/13/06 04:20:31  5-MIN KSTC 131020Z AUTO 00000KT 10SM CLR 13/12 A3013 830 89 900 000/00 RMK AO2
14926KSTC STC20060613042509706/13/06 04:25:31  5-MIN KSTC 131025Z AUTO 15003KT 10SM CLR 14/11 A3013 830 80 900 150/03 RMK AO2
14926KSTC STC20060613043009706/13/06 04:30:31  5-MIN KSTC 131030Z AUTO 00000KT 10SM CLR 14/11 A3013 830 80 900 000/00 RMK AO2
14926KSTC STC20060613043509706/13/06 04:35:31  5-MIN KSTC 131035Z AUTO 00000KT 10SM CLR 14/11 A3013 830 80 900 000/00 RMK AO2
14926KSTC STC20060613044009706/13/06 04:40:31  5-MIN KSTC 131040Z AUTO 00000KT 10SM CLR 14/11 A3013 830 80 900 000/00 RMK AO2
14926KSTC STC20060613044509706/13/06 04:45:31  5-MIN KSTC 131045Z AUTO 00000KT 10SM CLR 13/11 A3013 830 86 900 000/00 RMK AO2
14926KSTC STC20060613045011406/13/06 04:50:31  5-MIN KSTC 131050Z AUTO 00000KT 10SM CLR 13/11 A3013 830 83 900 000/00 RMK AO2 SLP211 T01330106
14926KSTC STC20060613045509706/13/06 04:55:31  5-MIN KSTC 131055Z AUTO 00000KT 10SM CLR 13/11 A3013 830 86 900 000/00 RMK AO2
14926KSTC STC20060613050009706/13/06 05:00:31  5-MIN KSTC 131100Z AUTO 00000KT 10SM CLR 13/12 A3013 830 89 900 000/00 RMK AO2
14926KSTC STC20060613050509706/13/06 05:05:31  5-MIN KSTC 131105Z AUTO 00000KT 10SM CLR 13/12 A3014 830 89 900 000/00 RMK AO2
14926KSTC STC20060613051009706/13/06 05:10:31  5-MIN KSTC 131110Z AUTO 00000KT 10SM CLR 13/12 A3014 830 89 900 000/00 RMK AO2
14926KSTC STC20060613051510006/13/06 05:15:31  5-MIN KSTC 131115Z AUTO 00000KT 10SM FEW090 14/12 A3014 830 90 900 000/00 RMK AO2
14926KSTC STC20060613052010006/13/06 05:20:31  5-MIN KSTC 131120Z AUTO 00000KT 10SM FEW090 14/12 A3014 830 90 900 000/00 RMK AO2
14926KSTC STC20060613052510006/13/06 05:25:31  5-MIN KSTC 131125Z AUTO 00000KT 10SM SCT090 14/12 A3013 830 90 900 000/00 RMK AO2
14926KSTC STC20060613053010106/13/06 05:30:31  5-MIN KSTC 131130Z AUTO 00000KT 10SM BKN090 14/12 A3013 830 86 1000 000/00 RMK AO2
14926KSTC STC20060613053510106/13/06 05:35:31  5-MIN KSTC 131135Z AUTO 00000KT 10SM BKN090 14/12 A3013 830 86 1000 000/00 RMK AO2
14926KSTC STC20060613054010106/13/06 05:40:31  5-MIN KSTC 131140Z AUTO 00000KT 10SM BKN090 14/12 A3013 830 86 1000 000/00 RMK AO2
14926KSTC STC20060613054510106/13/06 05:45:31  5-MIN KSTC 131145Z AUTO 00000KT 10SM OVC090 15/12 A3013 830 83 1100 000/00 RMK AO2
14926KSTC STC20060613055013106/13/06 05:50:31  5-MIN KSTC 131150Z 00000KT 10SM OVC090 15/12 A3013 830 83 1100 000/00 RMK AO2 SLP209 T01500122 10150 20128 58004
14926KSTC STC20060613055509606/13/06 05:55:31  5-MIN KSTC 131155Z 00000KT 10SM BKN090 16/12 A3013 830 80 1100 000/00 RMK AO2
14926KSTC STC20060613060009606/13/06 06:00:31  5-MIN KSTC 131200Z 00000KT 10SM BKN090 16/12 A3013 830 80 1100 000/00 RMK AO2
14926KSTC STC20060613060509606/13/06 06:05:31  5-MIN KSTC 131205Z 00000KT 10SM BKN090 16/12 A3013 830 75 1200 000/00 RMK AO2
14926KSTC STC20060613061009606/13/06 06:10:31  5-MIN KSTC 131210Z 00000KT 10SM SCT095 17/12 A3013 830 72 1300 000/00 RMK AO2
14926KSTC STC20060613061509606/13/06 06:15:31  5-MIN KSTC 131215Z 00000KT 10SM SCT095 17/12 A3013 840 72 1300 000/00 RMK AO2
14926KSTC STC20060613062009606/13/06 06:20:31  5-MIN KSTC 131220Z 00000KT 10SM FEW095 17/12 A3013 840 75 1300 000/00 RMK AO2
14926KSTC STC20060613062509606/13/06 06:25:31  5-MIN KSTC 131225Z 00000KT 10SM FEW090 17/12 A3012 840 75 1300 000/00 RMK AO2
14926KSTC STC20060613063009306/13/06 06:30:31  5-MIN KSTC 131230Z 00000KT 10SM CLR 17/12 A3012 840 72 1300 000/00 RMK AO2
14926KSTC STC20060613063509306/13/06 06:35:31  5-MIN KSTC 131235Z 00000KT 10SM CLR 17/11 A3012 840 69 1300 000/00 RMK AO2
14926KSTC STC20060613064009306/13/06 06:40:31  5-MIN KSTC 131240Z 15003KT 10SM CLR 17/12 A3012 840 69 1300 150/03 RMK AO2
14926KSTC STC20060613064509306/13/06 06:45:31  5-MIN KSTC 131245Z 17003KT 10SM CLR 17/12 A3013 840 69 1300 160/03 RMK AO2
14926KSTC STC20060613065011006/13/06 06:50:31  5-MIN KSTC 131250Z 18003KT 10SM CLR 17/12 A3013 840 72 1300 180/03 RMK AO2 SLP207 T01720122
14926KSTC STC20060613065509606/13/06 06:55:31  5-MIN KSTC 131255Z 20003KT 10SM FEW090 18/12 A3013 830 69 1400 190/03 RMK AO2
14926KSTC STC20060613070009606/13/06 07:00:31  5-MIN KSTC 131300Z VRB03KT 10SM SCT090 18/11 A3013 830 64 1400 VRB/03 RMK AO2
14926KSTC STC20060613070509606/13/06 07:05:31  5-MIN KSTC 131305Z 00000KT 10SM SCT090 18/11 A3013 830 64 1400 000/00 RMK AO2
14926KSTC STC20060613071009606/13/06 07:10:31  5-MIN KSTC 131310Z 20003KT 10SM FEW090 18/12 A3013 840 69 1400 190/03 RMK AO2
14926KSTC STC20060613071509606/13/06 07:15:31  5-MIN KSTC 131315Z 20003KT 10SM FEW090 18/11 A3012 840 62 1500 200/03 RMK AO2
14926KSTC STC20060613072009606/13/06 07:20:31  5-MIN KSTC 131320Z 21004KT 10SM FEW090 18/11 A3012 840 62 1500 210/04 RMK AO2
14926KSTC STC20060613072509606/13/06 07:25:31  5-MIN KSTC 131325Z 21004KT 10SM FEW085 19/11 A3012 840 60 1500 210/04 RMK AO2
14926KSTC STC20060613073009306/13/06 07:30:31  5-MIN KSTC 131330Z 00000KT 10SM CLR 19/11 A3012 840 60 1500 000/00 RMK AO2
14926KSTC STC20060613073509306/13/06 07:35:31  5-MIN KSTC 131335Z 00000KT 10SM CLR 19/11 A3012 840 60 1500 000/00 RMK AO2
14926KSTC STC20060613074009306/13/06 07:40:31  5-MIN KSTC 131340Z 00000KT 10SM CLR 19/12 A3012 840 62 1500 000/00 RMK AO2
14926KSTC STC20060613074509606/13/06 07:45:31  5-MIN KSTC 131345Z 00000KT 10SM FEW085 19/11 A3012 840 60 1500 000/00 RMK AO2
14926KSTC STC20060613075011306/13/06 07:50:31  5-MIN KSTC 131350Z 00000KT 10SM FEW085 19/12 A3012 840 60 1600 000/00 RMK AO2 SLP206 T01940117
14926KSTC STC20060613075509606/13/06 07:55:31  5-MIN KSTC 131355Z 00000KT 10SM FEW085 19/12 A3012 840 60 1600 000/00 RMK AO2
14926KSTC STC20060613080009606/13/06 08:00:31  5-MIN KSTC 131400Z 00000KT 10SM FEW085 19/12 A3012 840 60 1600 000/00 RMK AO2
14926KSTC STC20060613080510306/13/06 08:05:31  5-MIN KSTC 131405Z VRB03KT 10SM FEW085 SCT110 19/12 A3012 840 60 1600 VRB/03 RMK AO2
14926KSTC STC20060613081010306/13/06 08:10:31  5-MIN KSTC 131410Z 23003KT 10SM FEW085 SCT110 20/12 A3012 840 58 1700 230/03 RMK AO2
14926KSTC STC20060613081509506/13/06 08:15:31  5-MIN KSTC 131415Z 10SM FEW090 SCT110 21/12 A3012 840 58 1700 M /M RMK AO2 $
14926KSTC STC20060613082010706/13/06 08:20:31  5-MIN KSTC 131420Z VRB04KT 2SM HZ FEW085 SCT110 21/12 A3012 840 58 1700 VRB/04 RMK AO2 $
14926KSTC STC20060613082510706/13/06 08:25:31  5-MIN KSTC 131425Z 26003KT 2SM HZ SCT095 BKN110 20/12 A3012 840 58 1700 260/03 RMK AO2 $
14926KSTC STC20060613083010506/13/06 08:30:31  5-MIN KSTC 131430Z 25003KT 10SM SCT100 BKN110 20/12 A3012 840 58 1700 250/03 RMK AO2 $
14926KSTC STC20060613083509806/13/06 08:35:31  5-MIN KSTC 131435Z 00000KT 10SM SCT095 21/12 A3012 840 56 1700 000/00 RMK AO2 $
14926KSTC STC20060613084009806/13/06 08:40:31  5-MIN KSTC 131440Z 22005KT 10SM SCT095 21/12 A3012 840 58 1700 220/05 RMK AO2 $
14926KSTC STC20060613084509806/13/06 08:45:31  5-MIN KSTC 131445Z VRB03KT 10SM SCT095 21/13 A3012 840 58 1800 VRB/03 RMK AO2 $
14926KSTC STC20060613085012106/13/06 08:50:31  5-MIN KSTC 131450Z 25004KT 10SM SCT095 21/12 A3012 840 56 1800 250/04 RMK AO2 SLP206 T02110122 56002 $
14926KSTC STC20060613085509806/13/06 08:55:31  5-MIN KSTC 131455Z 26004KT 10SM SCT095 22/12 A3012 840 54 1900 260/04 RMK AO2 $
14926KSTC STC20060613090009806/13/06 09:00:31  5-MIN KSTC 131500Z 25003KT 10SM FEW095 22/12 A3012 840 54 1900 250/03 RMK AO2 $
14926KSTC STC20060613090509806/13/06 09:05:31  5-MIN KSTC 131505Z 00000KT 10SM SCT095 22/12 A3012 850 54 1900 000/00 RMK AO2 $
14926KSTC STC20060613091009606/13/06 09:10:31  5-MIN KSTC 131510Z 00000KT 10SM SCT095 22/12 A3012 850 54 1900 000/00 RMK AO2
14926KSTC STC20060613091509606/13/06 09:15:31  5-MIN KSTC 131515Z 00000KT 10SM SCT090 22/12 A3011 850 54 1900 000/00 RMK AO2
14926KSTC STC20060613092009606/13/06 09:20:31  5-MIN KSTC 131520Z 00000KT 10SM BKN090 22/12 A3011 850 52 1900 000/00 RMK AO2
14926KSTC STC20060613092509606/13/06 09:25:31  5-MIN KSTC 131525Z 00000KT 10SM BKN090 22/12 A3011 850 52 1900 000/00 RMK AO2
14926KSTC STC20060613093009606/13/06 09:30:31  5-MIN KSTC 131530Z 00000KT 10SM BKN090 22/13 A3011 850 54 1900 000/00 RMK AO2
14926KSTC STC20060613093509606/13/06 09:35:31  5-MIN KSTC 131535Z 00000KT 10SM BKN090 22/12 A3011 850 52 1900 000/00 RMK AO2
14926KSTC STC20060613094009606/13/06 09:40:31  5-MIN KSTC 131540Z 00000KT 10SM BKN090 22/12 A3011 850 52 1900 000/00 RMK AO2
14926KSTC STC20060613094509606/13/06 09:45:31  5-MIN KSTC 131545Z 00000KT 10SM BKN090 23/13 A3011 850 53 2000 000/00 RMK AO2
14926KSTC STC20060613095011306/13/06 09:50:31  5-MIN KSTC 131550Z 06003KT 10SM BKN090 24/13 A3011 850 51 2100 060/03 RMK AO2 SLP202 T02390133
14926KSTC STC20060613095509606/13/06 09:55:31  5-MIN KSTC 131555Z 00000KT 10SM BKN090 23/13 A3011 850 53 2000 000/00 RMK AO2
14926KSTC STC20060613100009606/13/06 10:00:31  5-MIN KSTC 131600Z 00000KT 10SM SCT095 23/13 A3011 850 51 2100 000/00 RMK AO2
14926KSTC STC20060613100509606/13/06 10:05:31  5-MIN KSTC 131605Z 00000KT 10SM BKN095 23/12 A3011 850 51 2000 000/00 RMK AO2
14926KSTC STC20060613101009606/13/06 10:10:31  5-MIN KSTC 131610Z VRB03KT 10SM BKN090 23/13 A3011 850 53 2000 VRB/03 RMK AO2
14926KSTC STC20060613101509606/13/06 10:15:31  5-MIN KSTC 131615Z 00000KT 10SM BKN090 23/13 A3011 850 53 2000 000/00 RMK AO2
14926KSTC STC20060613102009606/13/06 10:20:31  5-MIN KSTC 131620Z 00000KT 10SM BKN090 23/13 A3011 860 53 2000 000/00 RMK AO2
14926KSTC STC20060613102509606/13/06 10:25:31  5-MIN KSTC 131625Z VRB03KT 10SM SCT090 24/13 A3011 860 49 2100 VRB/03 RMK AO2
14926KSTC STC20060613103009606/13/06 10:30:31  5-MIN KSTC 131630Z 00000KT 10SM SCT090 24/13 A3010 860 49 2100 000/00 RMK AO2
14926KSTC STC20060613103509606/13/06 10:35:31  5-MIN KSTC 131635Z 00000KT 10SM SCT090 24/13 A3010 860 49 2100 000/00 RMK AO2
14926KSTC STC20060613104009606/13/06 10:40:31  5-MIN KSTC 131640Z VRB03KT 10SM SCT090 23/13 A3010 860 51 2100 VRB/03 RMK AO2
14926KSTC STC20060613104509606/13/06 10:45:31  5-MIN KSTC 131645Z VRB03KT 10SM SCT090 24/12 A3010 860 47 2100 VRB/03 RMK AO2
14926KSTC STC20060613105011306/13/06 10:50:31  5-MIN KSTC 131650Z 35004KT 10SM SCT090 24/12 A3010 860 47 2100 350/04 RMK AO2 SLP198 T02390122
14926KSTC STC20060613105509606/13/06 10:55:31  5-MIN KSTC 131655Z 34003KT 10SM SCT090 24/13 A3010 860 47 2200 330/03 RMK AO2
14926KSTC STC20060613110009606/13/06 11:00:31  5-MIN KSTC 131700Z 00000KT 10SM FEW090 24/13 A3010 860 47 2200 000/00 RMK AO2
14926KSTC STC20060613110509606/13/06 11:05:31  5-MIN KSTC 131705Z VRB03KT 10SM FEW090 24/13 A3010 860 49 2100 VRB/03 RMK AO2
14926KSTC STC20060613111009606/13/06 11:10:31  5-MIN KSTC 131710Z VRB03KT 10SM FEW085 24/13 A3010 860 47 2200 VRB/03 RMK AO2
14926KSTC STC20060613111509606/13/06 11:15:31  5-MIN KSTC 131715Z 00000KT 10SM FEW085 24/13 A3010 860 47 2200 000/00 RMK AO2
14926KSTC STC20060613112009306/13/06 11:20:31  5-MIN KSTC 131720Z VRB03KT 10SM CLR 25/13 A3010 860 46 2300 VRB/03 RMK AO2
14926KSTC STC20060613112509306/13/06 11:25:31  5-MIN KSTC 131725Z 27006KT 10SM CLR 25/13 A3009 870 46 2300 270/06 RMK AO2
14926KSTC STC20060613113009306/13/06 11:30:31  5-MIN KSTC 131730Z 25003KT 10SM CLR 25/13 A3009 870 46 2300 250/03 RMK AO2
14926KSTC STC20060613113509306/13/06 11:35:31  5-MIN KSTC 131735Z VRB03KT 10SM CLR 26/13 A3009 870 44 2300 VRB/03 RMK AO2
14926KSTC STC20060613114009306/13/06 11:40:31  5-MIN KSTC 131740Z VRB04KT 10SM CLR 26/12 A3009 870 43 2300 VRB/04 RMK AO2
14926KSTC STC20060613114509306/13/06 11:45:31  5-MIN KSTC 131745Z 22005KT 10SM CLR 25/12 A3009 870 44 2300 210/05 RMK AO2
14926KSTC STC20060613115012806/13/06 11:50:31  5-MIN KSTC 131750Z 26007KT 10SM CLR 26/13 A3009 870 44 2300 260/07 RMK AO2 SLP193 T02560128 10256 20156 58003
14926KSTC STC20060613115509306/13/06 11:55:31  5-MIN KSTC 131755Z VRB03KT 10SM CLR 25/13 A3008 870 46 2300 VRB/03 RMK AO2
14926KSTC STC20060613120009306/13/06 12:00:31  5-MIN KSTC 131800Z VRB03KT 10SM CLR 25/12 A3008 880 44 2300 VRB/03 RMK AO2
14926KSTC STC20060613120509606/13/06 12:05:31  5-MIN KSTC 131805Z 33004KT 10SM FEW080 26/13 A3008 880 43 2400 330/04 RMK AO2
14926KSTC STC20060613121009606/13/06 12:10:31  5-MIN KSTC 131810Z 28006KT 10SM SCT080 26/13 A3008 880 43 2400 280/06 RMK AO2
14926KSTC STC20060613121509606/13/06 12:15:31  5-MIN KSTC 131815Z VRB03KT 10SM SCT080 25/13 A3008 880 46 2300 VRB/03 RMK AO2
14926KSTC STC20060613122009606/13/06 12:20:31  5-MIN KSTC 131820Z 25006KT 10SM SCT080 26/12 A3008 880 43 2300 250/06 RMK AO2
14926KSTC STC20060613122509606/13/06 12:25:31  5-MIN KSTC 131825Z 29006KT 10SM BKN080 27/13 A3008 880 41 2500 290/06 RMK AO2
14926KSTC STC20060613123009606/13/06 12:30:31  5-MIN KSTC 131830Z 30007KT 10SM SCT080 26/13 A3008 880 43 2400 290/07 RMK AO2
14926KSTC STC20060613123509606/13/06 12:35:31  5-MIN KSTC 131835Z VRB04KT 10SM SCT075 26/12 A3007 890 43 2300 VRB/04 RMK AO2
14926KSTC STC20060613124009606/13/06 12:40:31  5-MIN KSTC 131840Z 24007KT 10SM SCT075 26/13 A3007 890 43 2400 240/07 RMK AO2
14926KSTC STC20060613124510306/13/06 12:45:31  5-MIN KSTC 131845Z 27006KT 10SM FEW060 SCT075 26/12 A3007 890 43 2300 270/06 RMK AO2
14926KSTC STC20060613125012006/13/06 12:50:31  5-MIN KSTC 131850Z 30007KT 10SM SCT060 BKN075 26/13 A3007 890 44 2400 290/07 RMK AO2 SLP187 T02560128
14926KSTC STC20060613125510306/13/06 12:55:31  5-MIN KSTC 131855Z VRB03KT 10SM SCT055 BKN075 26/12 A3007 890 43 2400 VRB/03 RMK AO2
14926KSTC STC20060613130010306/13/06 13:00:31  5-MIN KSTC 131900Z 31005KT 10SM SCT060 BKN075 26/13 A3007 890 44 2400 310/05 RMK AO2
14926KSTC STC20060613130510306/13/06 13:05:31  5-MIN KSTC 131905Z 24005KT 10SM SCT055 SCT075 26/13 A3006 890 44 2400 240/05 RMK AO2
14926KSTC STC20060613131010306/13/06 13:10:31  5-MIN KSTC 131910Z 26004KT 10SM SCT055 SCT075 26/13 A3006 890 44 2400 260/04 RMK AO2
14926KSTC STC20060613131510306/13/06 13:15:31  5-MIN KSTC 131915Z 28008KT 10SM FEW055 SCT075 26/13 A3006 890 43 2400 280/08 RMK AO2
14926KSTC STC20060613132010306/13/06 13:20:31  5-MIN KSTC 131920Z 30009KT 10SM FEW055 SCT075 27/13 A3006 900 41 2500 300/09 RMK AO2
14926KSTC STC20060613132509606/13/06 13:25:31  5-MIN KSTC 131925Z 31007KT 10SM SCT075 27/13 A3006 900 41 2500 310/07 RMK AO2
14926KSTC STC20060613133009606/13/06 13:30:31  5-MIN KSTC 131930Z 32006KT 10SM SCT075 27/13 A3006 900 41 2500 320/06 RMK AO2
14926KSTC STC20060613133509606/13/06 13:35:31  5-MIN KSTC 131935Z VRB04KT 10SM SCT075 27/12 A3006 900 40 2500 VRB/04 RMK AO2
14926KSTC STC20060613134009606/13/06 13:40:31  5-MIN KSTC 131940Z 29008KT 10SM FEW075 27/13 A3005 900 40 2600 290/08 RMK AO2
14926KSTC STC20060613134509606/13/06 13:45:31  5-MIN KSTC 131945Z 32007KT 10SM FEW075 27/13 A3005 910 40 2600 310/07 RMK AO2
14926KSTC STC20060613135011306/13/06 13:50:31  5-MIN KSTC 131950Z VRB06KT 10SM FEW060 27/13 A3005 910 41 2500 VRB/06 RMK AO2 SLP180 T02670128
14926KSTC STC20060613135510306/13/06 13:55:31  5-MIN KSTC 131955Z 33006KT 10SM FEW060 SCT075 27/13 A3005 910 40 2600 320/06 RMK AO2
14926KSTC STC20060613140009606/13/06 14:00:31  5-MIN KSTC 132000Z 30007KT 10SM FEW060 27/12 A3005 910 40 2500 300/07 RMK AO2
14926KSTC STC20060613140509606/13/06 14:05:31  5-MIN KSTC 132005Z 30006KT 10SM FEW060 27/13 A3005 910 41 2500 290/06 RMK AO2
14926KSTC STC20060613141009606/13/06 14:10:31  5-MIN KSTC 132010Z 27008KT 10SM FEW060 27/12 A3004 910 40 2500 270/08 RMK AO2
14926KSTC STC20060613141509606/13/06 14:15:31  5-MIN KSTC 132015Z 26007KT 10SM FEW060 27/12 A3004 910 39 2600 260/07 RMK AO2
14926KSTC STC20060613142010906/13/06 14:20:31  5-MIN KSTC 132020Z 28007KT 260V330 10SM CLR 27/12 A3004 920 39 2600 280/07 260V330 RMK AO2
14926KSTC STC20060613142509306/13/06 14:25:31  5-MIN KSTC 132025Z VRB05KT 10SM CLR 27/12 A3004 920 39 2600 VRB/05 RMK AO2
14926KSTC STC20060613143009306/13/06 14:30:31  5-MIN KSTC 132030Z 23006KT 10SM CLR 27/13 A3004 920 40 2600 220/06 RMK AO2
14926KSTC STC20060613143509306/13/06 14:35:31  5-MIN KSTC 132035Z 24007KT 10SM CLR 27/13 A3004 920 42 2600 240/07 RMK AO2
14926KSTC STC20060613144009306/13/06 14:40:31  5-MIN KSTC 132040Z 23005KT 10SM CLR 27/13 A3004 920 40 2600 230/05 RMK AO2
14926KSTC STC20060613144509306/13/06 14:45:31  5-MIN KSTC 132045Z 29005KT 10SM CLR 27/12 A3003 920 39 2600 290/05 RMK AO2
14926KSTC STC20060613145012106/13/06 14:50:31  5-MIN KSTC 132050Z AUTO 31006KT 10SM CLR 27/12 A3003 920 39 2600 300/06 RMK AO2 SLP175 T02720122 58011
14926KSTC STC20060613145509606/13/06 14:55:31  5-MIN KSTC 132055Z 29005KT 10SM FEW060 27/12 A3003 920 37 2600 290/05 RMK AO2
14926KSTC STC20060613150009606/13/06 15:00:31  5-MIN KSTC 132100Z VRB03KT 10SM FEW060 27/12 A3003 920 39 2600 VRB/03 RMK AO2
14926KSTC STC20060613150509306/13/06 15:05:31  5-MIN KSTC 132105Z VRB04KT 10SM CLR 27/12 A3003 920 39 2600 VRB/04 RMK AO2
14926KSTC STC20060613151009606/13/06 15:10:31  5-MIN KSTC 132110Z 28009KT 10SM FEW065 28/12 A3003 920 37 2600 280/09 RMK AO2
14926KSTC STC20060613151509606/13/06 15:15:31  5-MIN KSTC 132115Z 28006KT 10SM FEW065 27/12 A3003 920 39 2600 270/06 RMK AO2
14926KSTC STC20060613152009606/13/06 15:20:31  5-MIN KSTC 132120Z 30006KT 10SM FEW065 28/12 A3003 920 36 2600 300/06 RMK AO2
14926KSTC STC20060613152509306/13/06 15:25:31  5-MIN KSTC 132125Z 29010KT 10SM CLR 28/12 A3003 920 36 2700 290/10 RMK AO2
14926KSTC STC20060613153009606/13/06 15:30:31  5-MIN KSTC 132130Z 30009KT 10SM FEW065 27/12 A3003 920 37 2600 290/09 RMK AO2
14926KSTC STC20060613153509606/13/06 15:35:31  5-MIN KSTC 132135Z 29006KT 10SM SCT070 27/11 A3003 920 36 2600 280/06 RMK AO2
14926KSTC STC20060613154011206/13/06 15:40:31  5-MIN KSTC 132140Z 27008KT 230V300 10SM BKN070 28/12 A3003 920 37 2600 270/08 230V300 RMK AO2
14926KSTC STC20060613154510206/13/06 15:45:31  5-MIN KSTC 132145Z 31010G18KT 10SM SCT070 27/12 A3003 920 37 2600 300/10G18 RMK AO2
14926KSTC STC20060613155011906/13/06 15:50:31  5-MIN KSTC 132150Z 31009G18KT 10SM SCT070 28/12 A3003 920 35 2700 300/09G18 RMK AO2 SLP174 T02830117
14926KSTC STC20060613155509606/13/06 15:55:31  5-MIN KSTC 132155Z 31008KT 10SM SCT070 27/12 A3003 920 37 2600 310/08 RMK AO2
14926KSTC STC20060613160010306/13/06 16:00:31  5-MIN KSTC 132200Z 29009KT 10SM SCT070 SCT080 27/12 A3003 920 38 2500 290/09 RMK AO2
14926KSTC STC20060613160509606/13/06 16:05:31  5-MIN KSTC 132205Z 31008KT 10SM BKN075 27/12 A3003 930 40 2500 300/08 RMK AO2
14926KSTC STC20060613161010306/13/06 16:10:31  5-MIN KSTC 132210Z 32007KT 10SM SCT070 SCT085 27/12 A3003 930 39 2600 320/07 RMK AO2
14926KSTC STC20060613161510306/13/06 16:15:31  5-MIN KSTC 132215Z 33006KT 10SM SCT070 BKN085 27/12 A3003 930 40 2500 330/06 RMK AO2
14926KSTC STC20060613162010306/13/06 16:20:31  5-MIN KSTC 132220Z 31010KT 10SM BKN070 BKN085 27/12 A3003 930 40 2500 310/10 RMK AO2
14926KSTC STC20060613162510306/13/06 16:25:31  5-MIN KSTC 132225Z 31006KT 10SM BKN070 BKN085 27/13 A3002 930 41 2500 310/06 RMK AO2
14926KSTC STC20060613163010306/13/06 16:30:31  5-MIN KSTC 132230Z 29006KT 10SM BKN065 BKN080 28/13 A3002 930 39 2700 290/06 RMK AO2
14926KSTC STC20060613163509606/13/06 16:35:31  5-MIN KSTC 132235Z 30007KT 10SM BKN065 28/13 A3002 930 39 2700 300/07 RMK AO2
14926KSTC STC20060613164009606/13/06 16:40:31  5-MIN KSTC 132240Z 31012KT 10SM BKN065 28/12 A3002 930 37 2700 310/12 RMK AO2
14926KSTC STC20060613164509606/13/06 16:45:31  5-MIN KSTC 132245Z 31009KT 10SM SCT065 27/12 A3002 930 37 2600 300/09 RMK AO2
14926KSTC STC20060613165011306/13/06 16:50:31  5-MIN KSTC 132250Z 29008KT 10SM FEW065 28/12 A3002 930 36 2700 290/08 RMK AO2 SLP170 T02780117
14926KSTC STC20060613165509606/13/06 16:55:31  5-MIN KSTC 132255Z 29009KT 10SM FEW065 28/12 A3002 940 36 2700 290/09 RMK AO2
14926KSTC STC20060613170009306/13/06 17:00:31  5-MIN KSTC 132300Z 30011KT 10SM CLR 28/12 A3002 940 36 2700 300/11 RMK AO2
14926KSTC STC20060613170509306/13/06 17:05:31  5-MIN KSTC 132305Z 32010KT 10SM CLR 28/12 A3002 940 36 2700 310/10 RMK AO2
14926KSTC STC20060613171009306/13/06 17:10:31  5-MIN KSTC 132310Z 32008KT 10SM CLR 27/12 A3001 940 39 2600 320/08 RMK AO2
14926KSTC STC20060613171509606/13/06 17:15:31  5-MIN KSTC 132315Z 33005KT 10SM FEW070 27/12 A3001 940 39 2600 330/05 RMK AO2
14926KSTC STC20060613172009606/13/06 17:20:31  5-MIN KSTC 132320Z 34007KT 10SM FEW070 28/13 A3001 940 39 2700 340/07 RMK AO2
14926KSTC STC20060613172511206/13/06 17:25:31  5-MIN KSTC 132325Z 30011KT 280V360 10SM FEW065 27/12 A3001 940 39 2600 300/11 280V360 RMK AO2
14926KSTC STC20060613173009606/13/06 17:30:31  5-MIN KSTC 132330Z 29008KT 10SM FEW070 27/12 A3001 950 37 2600 280/08 RMK AO2
14926KSTC STC20060613173509606/13/06 17:35:31  5-MIN KSTC 132335Z 29011KT 10SM FEW070 28/12 A3001 950 36 2700 290/11 RMK AO2
14926KSTC STC20060613174011206/13/06 17:40:31  5-MIN KSTC 132340Z 27007KT 200V300 10SM FEW070 27/11 A3001 950 36 2600 270/07 200V300 RMK AO2
14926KSTC STC20060613174509606/13/06 17:45:31  5-MIN KSTC 132345Z 32010KT 10SM FEW070 27/12 A3001 950 37 2600 320/10 RMK AO2
14926KSTC STC20060613175012806/13/06 17:50:31  5-MIN KSTC 132350Z 32009KT 10SM CLR 27/12 A3000 950 38 2500 320/09 RMK AO2 SLP165 T02670117 10283 20250 56017
14926KSTC STC20060613175509306/13/06 17:55:31  5-MIN KSTC 132355Z 32007KT 10SM CLR 27/12 A3000 950 38 2500 320/07 RMK AO2
14926KSTC STC20060613180009306/13/06 18:00:31  5-MIN KSTC 140000Z 34007KT 10SM CLR 27/12 A3000 950 38 2500 340/07 RMK AO2
14926KSTC STC20060613180509306/13/06 18:05:31  5-MIN KSTC 140005Z 35008KT 10SM CLR 27/12 A3000 950 40 2500 340/08 RMK AO2
14926KSTC STC20060613181009306/13/06 18:10:31  5-MIN KSTC 140010Z 34008KT 10SM CLR 27/12 A3000 950 38 2500 340/08 RMK AO2
14926KSTC STC20060613181509306/13/06 18:15:31  5-MIN KSTC 140015Z 34008KT 10SM CLR 26/12 A3000 950 40 2500 340/08 RMK AO2
14926KSTC STC20060613182009306/13/06 18:20:31  5-MIN KSTC 140020Z 34008KT 10SM CLR 26/12 A3000 950 40 2500 340/08 RMK AO2
14926KSTC STC20060613182509306/13/06 18:25:31  5-MIN KSTC 140025Z 35006KT 10SM CLR 26/12 A3000 950 41 2500 340/06 RMK AO2
14926KSTC STC20060613183009306/13/06 18:30:31  5-MIN KSTC 140030Z 35008KT 10SM CLR 26/12 A3000 950 41 2500 350/08 RMK AO2
14926KSTC STC20060613183509306/13/06 18:35:31  5-MIN KSTC 140035Z 36009KT 10SM CLR 26/12 A3000 950 40 2500 350/09 RMK AO2
14926KSTC STC20060613184009306/13/06 18:40:31  5-MIN KSTC 140040Z 36007KT 10SM CLR 26/12 A3000 950 43 2400 350/07 RMK AO2
14926KSTC STC20060613184509306/13/06 18:45:31  5-MIN KSTC 140045Z 36008KT 10SM CLR 26/12 A3000 950 41 2400 360/08 RMK AO2
14926KSTC STC20060613185011006/13/06 18:50:31  5-MIN KSTC 140050Z 01006KT 10SM CLR 26/12 A3001 950 41 2400 360/06 RMK AO2 SLP165 T02560117
14926KSTC STC20060613185509306/13/06 18:55:31  5-MIN KSTC 140055Z 01006KT 10SM CLR 26/12 A3001 950 41 2400 010/06 RMK AO2
14926KSTC STC20060613190009306/13/06 19:00:31  5-MIN KSTC 140100Z 02005KT 10SM CLR 25/12 A3001 950 43 2400 010/05 RMK AO2
14926KSTC STC20060613190509306/13/06 19:05:31  5-MIN KSTC 140105Z 01006KT 10SM CLR 25/11 A3001 940 41 2400 360/06 RMK AO2
14926KSTC STC20060613191009306/13/06 19:10:31  5-MIN KSTC 140110Z 36005KT 10SM CLR 25/12 A3002 940 43 2300 360/05 RMK AO2
14926KSTC STC20060613191509306/13/06 19:15:31  5-MIN KSTC 140115Z 36004KT 10SM CLR 24/12 A3002 940 44 2300 360/04 RMK AO2
14926KSTC STC20060613192009306/13/06 19:20:31  5-MIN KSTC 140120Z 35005KT 10SM CLR 24/12 A3002 940 46 2200 350/05 RMK AO2
14926KSTC STC20060613192509306/13/06 19:25:31  5-MIN KSTC 140125Z 35005KT 10SM CLR 24/12 A3002 940 46 2200 350/05 RMK AO2
14926KSTC STC20060613193009306/13/06 19:30:31  5-MIN KSTC 140130Z 35004KT 10SM CLR 24/12 A3002 930 46 2200 350/04 RMK AO2
14926KSTC STC20060613193509306/13/06 19:35:31  5-MIN KSTC 140135Z 34004KT 10SM CLR 23/12 A3002 930 47 2200 340/04 RMK AO2
14926KSTC STC20060613194009306/13/06 19:40:31  5-MIN KSTC 140140Z 35003KT 10SM CLR 23/12 A3002 930 47 2200 350/03 RMK AO2
14926KSTC STC20060613194509306/13/06 19:45:31  5-MIN KSTC 140145Z 36003KT 10SM CLR 23/12 A3002 930 49 2100 360/03 RMK AO2
14926KSTC STC20060613195011006/13/06 19:50:31  5-MIN KSTC 140150Z 35004KT 10SM CLR 23/12 A3003 930 51 2100 350/04 RMK AO2 SLP172 T02280122
14926KSTC STC20060613195509306/13/06 19:55:31  5-MIN KSTC 140155Z 34003KT 10SM CLR 22/12 A3003 930 52 2000 340/03 RMK AO2
14926KSTC STC20060613200009306/13/06 20:00:31  5-MIN KSTC 140200Z 35003KT 10SM CLR 22/12 A3003 930 52 2000 350/03 RMK AO2
14926KSTC STC20060613200509306/13/06 20:05:31  5-MIN KSTC 140205Z 35003KT 10SM CLR 22/12 A3003 920 52 1900 350/03 RMK AO2
14926KSTC STC20060613201009906/13/06 20:10:31  5-MIN KSTC 140210Z 02008G14KT 10SM CLR 22/12 A3004 920 52 1900 020/08G14 RMK AO2
14926KSTC STC20060613201509906/13/06 20:15:31  5-MIN KSTC 140215Z 03007G14KT 10SM CLR 22/12 A3004 920 52 1900 030/07G14 RMK AO2
14926KSTC STC20060613202009306/13/06 20:20:31  5-MIN KSTC 140220Z 03006KT 10SM CLR 22/12 A3004 920 54 1900 030/06 RMK AO2
14926KSTC STC20060613202509306/13/06 20:25:31  5-MIN KSTC 140225Z 03006KT 10SM CLR 21/12 A3004 910 56 1900 030/06 RMK AO2
14926KSTC STC20060613203009306/13/06 20:30:31  5-MIN KSTC 140230Z 03006KT 10SM CLR 21/12 A3004 910 56 1900 030/06 RMK AO2
14926KSTC STC20060613203509306/13/06 20:35:31  5-MIN KSTC 140235Z 02005KT 10SM CLR 21/12 A3005 910 56 1900 020/05 RMK AO2
14926KSTC STC20060613204009306/13/06 20:40:31  5-MIN KSTC 140240Z 02005KT 10SM CLR 21/12 A3005 900 58 1800 020/05 RMK AO2
14926KSTC STC20060613204509306/13/06 20:45:31  5-MIN KSTC 140245Z 03005KT 10SM CLR 21/12 A3005 900 58 1800 020/05 RMK AO2
14926KSTC STC20060613205011606/13/06 20:50:31  5-MIN KSTC 140250Z 02006KT 10SM CLR 21/12 A3005 900 58 1800 020/06 RMK AO2 SLP181 T02060122 58009
14926KSTC STC20060613205509306/13/06 20:55:31  5-MIN KSTC 140255Z 02006KT 10SM CLR 21/12 A3005 900 58 1800 020/06 RMK AO2
14926KSTC STC20060613210009306/13/06 21:00:31  5-MIN KSTC 140300Z 02005KT 10SM CLR 21/12 A3006 900 58 1800 010/05 RMK AO2
14926KSTC STC20060613210509306/13/06 21:05:31  5-MIN KSTC 140305Z 01005KT 10SM CLR 20/12 A3006 900 58 1700 010/05 RMK AO2
14926KSTC STC20060613211009306/13/06 21:10:31  5-MIN KSTC 140310Z 36004KT 10SM CLR 19/12 A3006 900 62 1700 360/04 RMK AO2
14926KSTC STC20060613211509306/13/06 21:15:31  5-MIN KSTC 140315Z 36004KT 10SM CLR 19/12 A3006 900 62 1700 350/04 RMK AO2
14926KSTC STC20060613212009306/13/06 21:20:31  5-MIN KSTC 140320Z 36004KT 10SM CLR 19/12 A3006 900 65 1600 350/04 RMK AO2
14926KSTC STC20060613212509306/13/06 21:25:31  5-MIN KSTC 140325Z 35004KT 10SM CLR 18/12 A3006 900 67 1500 350/04 RMK AO2
14926KSTC STC20060613213009306/13/06 21:30:31  5-MIN KSTC 140330Z 36005KT 10SM CLR 18/12 A3006 900 67 1500 350/05 RMK AO2
14926KSTC STC20060613213509306/13/06 21:35:31  5-MIN KSTC 140335Z 36004KT 10SM CLR 18/12 A3006 900 67 1500 360/04 RMK AO2
14926KSTC STC20060613214009306/13/06 21:40:31  5-MIN KSTC 140340Z 04003KT 10SM CLR 18/12 A3006 900 67 1500 040/03 RMK AO2
14926KSTC STC20060613214509306/13/06 21:45:31  5-MIN KSTC 140345Z 04004KT 10SM CLR 18/12 A3006 900 67 1500 040/04 RMK AO2
14926KSTC STC20060613215011006/13/06 21:50:31  5-MIN KSTC 140350Z 03004KT 10SM CLR 18/12 A3006 900 67 1500 020/04 RMK AO2 SLP184 T01830122
14926KSTC STC20060613215509306/13/06 21:55:31  5-MIN KSTC 140355Z 03003KT 10SM CLR 18/12 A3006 900 67 1500 020/03 RMK AO2
14926KSTC STC20060613220009806/13/06 22:00:31  5-MIN KSTC 140400Z AUTO 03003KT 10SM CLR 18/12 A3006 900 67 1500 030/03 RMK AO2
14926KSTC STC20060613220509806/13/06 22:05:31  5-MIN KSTC 140405Z AUTO 02004KT 10SM CLR 18/12 A3006 900 69 1500 020/04 RMK AO2
14926KSTC STC20060613221009806/13/06 22:10:31  5-MIN KSTC 140410Z AUTO 02005KT 10SM CLR 18/12 A3006 900 69 1500 020/05 RMK AO2
14926KSTC STC20060613221509806/13/06 22:15:31  5-MIN KSTC 140415Z AUTO 02005KT 10SM CLR 18/12 A3006 900 69 1500 010/05 RMK AO2
14926KSTC STC20060613222009806/13/06 22:20:31  5-MIN KSTC 140420Z AUTO 01004KT 10SM CLR 18/12 A3006 900 69 1500 010/04 RMK AO2
14926KSTC STC20060613222509806/13/06 22:25:31  5-MIN KSTC 140425Z AUTO 01003KT 10SM CLR 17/12 A3006 900 72 1400 360/03 RMK AO2
14926KSTC STC20060613223009806/13/06 22:30:31  5-MIN KSTC 140430Z AUTO 01005KT 10SM CLR 17/12 A3006 900 72 1400 360/05 RMK AO2
14926KSTC STC20060613223509806/13/06 22:35:31  5-MIN KSTC 140435Z AUTO 01004KT 10SM CLR 17/12 A3006 900 72 1400 010/04 RMK AO2
14926KSTC STC20060613224009806/13/06 22:40:31  5-MIN KSTC 140440Z AUTO 02005KT 10SM CLR 17/12 A3006 900 72 1400 010/05 RMK AO2
14926KSTC STC20060613224509806/13/06 22:45:31  5-MIN KSTC 140445Z AUTO 02005KT 10SM CLR 17/12 A3006 900 72 1400 010/05 RMK AO2
14926KSTC STC20060613225011506/13/06 22:50:31  5-MIN KSTC 140450Z AUTO 36004KT 10SM CLR 17/12 A3006 900 72 1400 360/04 RMK AO2 SLP183 T01720122
14926KSTC STC20060613225509806/13/06 22:55:31  5-MIN KSTC 140455Z AUTO 34003KT 10SM CLR 17/12 A3006 900 75 1300 340/03 RMK AO2
14926KSTC STC20060613230009806/13/06 23:00:31  5-MIN KSTC 140500Z AUTO 00000KT 10SM CLR 16/12 A3006 900 77 1300 000/00 RMK AO2
14926KSTC STC20060613230509806/13/06 23:05:31  5-MIN KSTC 140505Z AUTO 35003KT 10SM CLR 16/12 A3006 900 77 1300 340/03 RMK AO2
14926KSTC STC20060613231009806/13/06 23:10:31  5-MIN KSTC 140510Z AUTO 35004KT 10SM CLR 16/12 A3006 900 77 1300 350/04 RMK AO2
14926KSTC STC20060613231509806/13/06 23:15:31  5-MIN KSTC 140515Z AUTO 36004KT 10SM CLR 16/12 A3006 900 75 1300 350/04 RMK AO2
14926KSTC STC20060613232009806/13/06 23:20:31  5-MIN KSTC 140520Z AUTO 01004KT 10SM CLR 17/12 A3006 900 72 1300 010/04 RMK AO2
14926KSTC STC20060613232509806/13/06 23:25:31  5-MIN KSTC 140525Z AUTO 01004KT 10SM CLR 16/12 A3006 900 75 1300 360/04 RMK AO2
14926KSTC STC20060613233009806/13/06 23:30:31  5-MIN KSTC 140530Z AUTO 01005KT 10SM CLR 16/12 A3006 900 75 1300 010/05 RMK AO2
14926KSTC STC20060613233509806/13/06 23:35:31  5-MIN KSTC 140535Z AUTO 02005KT 10SM CLR 16/12 A3005 900 75 1300 020/05 RMK AO2
14926KSTC STC20060613234009806/13/06 23:40:31  5-MIN KSTC 140540Z AUTO 01004KT 10SM CLR 16/12 A3005 900 75 1300 360/04 RMK AO2
14926KSTC STC20060613234509806/13/06 23:45:31  5-MIN KSTC 140545Z AUTO 36005KT 10SM CLR 16/12 A3005 910 77 1200 360/05 RMK AO2
14926KSTC STC20060613235014306/13/06 23:50:31  5-MIN KSTC 140550Z AUTO 01004KT 10SM CLR 16/12 A3005 910 77 1200 010/04 RMK AO2 SLP181 T01560117 10267 20156 402830128 53016
14926KSTC STC20060613235509806/13/06 23:55:31  5-MIN KSTC 140555Z AUTO 36004KT 10SM CLR 16/12 A3005 910 77 1200 360/04 RMK AO2
14926KSTC STC20060614000009806/14/06 00:00:32  5-MIN KSTC 140600Z AUTO 36004KT 10SM CLR 15/12 A3005 910 80 1200 350/04 RMK AO2
14926KSTC STC20060614000509806/14/06 00:05:31  5-MIN KSTC 140605Z AUTO 36004KT 10SM CLR 15/12 A3005 910 80 1200 360/04 RMK AO2
14926KSTC STC20060614001009806/14/06 00:10:31  5-MIN KSTC 140610Z AUTO 01004KT 10SM CLR 15/12 A3005 910 80 1200 010/04 RMK AO2
14926KSTC STC20060614001509806/14/06 00:15:31  5-MIN KSTC 140615Z AUTO 02004KT 10SM CLR 15/12 A3005 910 80 1200 010/04 RMK AO2
14926KSTC STC20060614002009806/14/06 00:20:31  5-MIN KSTC 140620Z AUTO 01004KT 10SM CLR 15/12 A3005 910 80 1200 010/04 RMK AO2
14926KSTC STC20060614002509806/14/06 00:25:31  5-MIN KSTC 140625Z AUTO 01004KT 10SM CLR 15/12 A3004 910 80 1200 360/04 RMK AO2
14926KSTC STC20060614003009806/14/06 00:30:31  5-MIN KSTC 140630Z AUTO 01004KT 10SM CLR 15/12 A3004 910 80 1200 010/04 RMK AO2
14926KSTC STC20060614003509806/14/06 00:35:31  5-MIN KSTC 140635Z AUTO 01004KT 10SM CLR 15/12 A3004 910 80 1200 360/04 RMK AO2
14926KSTC STC20060614004009806/14/06 00:40:31  5-MIN KSTC 140640Z AUTO 02003KT 10SM CLR 15/12 A3004 910 80 1200 010/03 RMK AO2
14926KSTC STC20060614004509806/14/06 00:45:31  5-MIN KSTC 140645Z AUTO 02003KT 10SM CLR 15/12 A3005 910 80 1200 020/03 RMK AO2
14926KSTC STC20060614005011506/14/06 00:50:31  5-MIN KSTC 140650Z AUTO 02004KT 10SM CLR 15/12 A3004 910 80 1200 020/04 RMK AO2 SLP178 T01500117
14926KSTC STC20060614005509806/14/06 00:55:31  5-MIN KSTC 140655Z AUTO 04003KT 10SM CLR 15/11 A3004 910 77 1200 040/03 RMK AO2
14926KSTC STC20060614010009806/14/06 01:00:31  5-MIN KSTC 140700Z AUTO 04003KT 10SM CLR 15/11 A3004 910 77 1200 040/03 RMK AO2
14926KSTC STC20060614010509806/14/06 01:05:31  5-MIN KSTC 140705Z AUTO 04005KT 10SM CLR 15/12 A3004 910 80 1200 040/05 RMK AO2
14926KSTC STC20060614011009806/14/06 01:10:31  5-MIN KSTC 140710Z AUTO 04005KT 10SM CLR 15/12 A3004 910 80 1200 030/05 RMK AO2
14926KSTC STC20060614011509806/14/06 01:15:31  5-MIN KSTC 140715Z AUTO 04005KT 10SM CLR 15/12 A3005 910 80 1200 040/05 RMK AO2
14926KSTC STC20060614012009806/14/06 01:20:31  5-MIN KSTC 140720Z AUTO VRB04KT 10SM CLR 15/12 A3005 910 80 1200 VRB/04 RMK AO2
14926KSTC STC20060614012509806/14/06 01:25:31  5-MIN KSTC 140725Z AUTO 03003KT 10SM CLR 15/12 A3005 910 80 1200 030/03 RMK AO2
14926KSTC STC20060614013009806/14/06 01:30:31  5-MIN KSTC 140730Z AUTO 03003KT 10SM CLR 15/12 A3005 910 80 1200 030/03 RMK AO2
14926KSTC STC20060614013509806/14/06 01:35:31  5-MIN KSTC 140735Z AUTO 04003KT 10SM CLR 15/12 A3005 910 80 1200 040/03 RMK AO2
14926KSTC STC20060614014009806/14/06 01:40:31  5-MIN KSTC 140740Z AUTO 03003KT 10SM CLR 15/12 A3005 910 80 1200 030/03 RMK AO2
14926KSTC STC20060614014509806/14/06 01:45:31  5-MIN KSTC 140745Z AUTO 05003KT 10SM CLR 15/12 A3005 910 80 1200 040/03 RMK AO2
14926KSTC STC20060614015011506/14/06 01:50:31  5-MIN KSTC 140750Z AUTO 05004KT 10SM CLR 15/12 A3005 910 80 1200 050/04 RMK AO2 SLP180 T01500117
14926KSTC STC20060614015509806/14/06 01:55:31  5-MIN KSTC 140755Z AUTO 05003KT 10SM CLR 14/12 A3005 910 83 1100 050/03 RMK AO2
14926KSTC STC20060614020009806/14/06 02:00:31  5-MIN KSTC 140800Z AUTO 06003KT 10SM CLR 14/12 A3005 910 83 1100 050/03 RMK AO2
14926KSTC STC20060614020509806/14/06 02:05:31  5-MIN KSTC 140805Z AUTO 05003KT 10SM CLR 14/12 A3005 910 83 1100 050/03 RMK AO2
14926KSTC STC20060614021009806/14/06 02:10:31  5-MIN KSTC 140810Z AUTO 04003KT 10SM CLR 14/12 A3004 910 86 1000 040/03 RMK AO2
14926KSTC STC20060614021509806/14/06 02:15:31  5-MIN KSTC 140815Z AUTO 04003KT 10SM CLR 14/12 A3005 910 83 1100 040/03 RMK AO2
14926KSTC STC20060614022009806/14/06 02:20:31  5-MIN KSTC 140820Z AUTO 04005KT 10SM CLR 14/12 A3004 910 86 1000 030/05 RMK AO2
14926KSTC STC20060614022509806/14/06 02:25:31  5-MIN KSTC 140825Z AUTO 04005KT 10SM CLR 14/12 A3004 910 86 1000 040/05 RMK AO2
14926KSTC STC20060614023009806/14/06 02:30:31  5-MIN KSTC 140830Z AUTO 05005KT 10SM CLR 14/12 A3004 910 83 1100 050/05 RMK AO2
14926KSTC STC20060614023509806/14/06 02:35:31  5-MIN KSTC 140835Z AUTO 06004KT 10SM CLR 14/12 A3004 920 86 1000 050/04 RMK AO2
14926KSTC STC20060614024009806/14/06 02:40:31  5-MIN KSTC 140840Z AUTO 05004KT 10SM CLR 14/12 A3004 920 86 1000 050/04 RMK AO2
14926KSTC STC20060614024509806/14/06 02:45:31  5-MIN KSTC 140845Z AUTO 05004KT 10SM CLR 14/12 A3004 920 86 1000 050/04 RMK AO2
14926KSTC STC20060614025012106/14/06 02:50:31  5-MIN KSTC 140850Z AUTO 05004KT 10SM CLR 14/12 A3004 920 86 1000 050/04 RMK AO2 SLP175 T01390117 58001
14926KSTC STC20060614025509806/14/06 02:55:31  5-MIN KSTC 140855Z AUTO 05005KT 10SM CLR 14/12 A3003 920 86 1000 050/05 RMK AO2
14926KSTC STC20060614030009806/14/06 03:00:31  5-MIN KSTC 140900Z AUTO 05005KT 10SM CLR 14/12 A3003 920 86 1000 050/05 RMK AO2
14926KSTC STC20060614030509806/14/06 03:05:31  5-MIN KSTC 140905Z AUTO 06006KT 10SM CLR 14/12 A3003 920 86 1000 050/06 RMK AO2
14926KSTC STC20060614031009806/14/06 03:10:31  5-MIN KSTC 140910Z AUTO VRB04KT 10SM CLR 14/12 A3003 920 86 1000 VRB/04 RMK AO2
14926KSTC STC20060614031509806/14/06 03:15:31  5-MIN KSTC 140915Z AUTO 06004KT 10SM CLR 14/12 A3003 920 86 1000 060/04 RMK AO2
14926KSTC STC20060614032009806/14/06 03:20:31  5-MIN KSTC 140920Z AUTO 06006KT 10SM CLR 14/12 A3003 920 86 1000 050/06 RMK AO2
14926KSTC STC20060614032509806/14/06 03:25:31  5-MIN KSTC 140925Z AUTO 06005KT 10SM CLR 14/12 A3003 920 86 1000 050/05 RMK AO2
14926KSTC STC20060614033009806/14/06 03:30:31  5-MIN KSTC 140930Z AUTO 06005KT 10SM CLR 14/12 A3003 920 86 1000 060/05 RMK AO2
14926KSTC STC20060614033509806/14/06 03:35:31  5-MIN KSTC 140935Z AUTO 05006KT 10SM CLR 14/12 A3003 920 86 1000 050/06 RMK AO2
14926KSTC STC20060614034009806/14/06 03:40:31  5-MIN KSTC 140940Z AUTO 06006KT 10SM CLR 14/12 A3003 920 86 1000 050/06 RMK AO2
14926KSTC STC20060614034509806/14/06 03:45:31  5-MIN KSTC 140945Z AUTO 06006KT 10SM CLR 14/12 A3003 920 86 1000 060/06 RMK AO2
14926KSTC STC20060614035011506/14/06 03:50:31  5-MIN KSTC 140950Z AUTO 06005KT 10SM CLR 14/12 A3003 920 86 1000 060/05 RMK AO2 SLP174 T01390117
14926KSTC STC20060614035509806/14/06 03:55:31  5-MIN KSTC 140955Z AUTO 06005KT 10SM CLR 14/12 A3003 920 86 1000 060/05 RMK AO2
14926KSTC STC20060614040009806/14/06 04:00:31  5-MIN KSTC 141000Z AUTO 06004KT 10SM CLR 13/12 A3003 920 89 1000 050/04 RMK AO2
14926KSTC STC20060614040509806/14/06 04:05:31  5-MIN KSTC 141005Z AUTO VRB06KT 10SM CLR 14/12 A3004 920 86 1000 VRB/06 RMK AO2
14926KSTC STC20060614041009806/14/06 04:10:31  5-MIN KSTC 141010Z AUTO 05005KT 10SM CLR 13/12 A3004 920 89 1000 050/05 RMK AO2
14926KSTC STC20060614041509806/14/06 04:15:31  5-MIN KSTC 141015Z AUTO VRB04KT 10SM CLR 13/12 A3004 920 89 1000 VRB/04 RMK AO2
14926KSTC STC20060614042009806/14/06 04:20:31  5-MIN KSTC 141020Z AUTO 04004KT 10SM CLR 13/12 A3004 920 89 1000 040/04 RMK AO2
14926KSTC STC20060614042509806/14/06 04:25:31  5-MIN KSTC 141025Z AUTO 05005KT 10SM CLR 13/12 A3004 920 89 1000 050/05 RMK AO2
14926KSTC STC20060614043009806/14/06 04:30:31  5-MIN KSTC 141030Z AUTO VRB04KT 10SM CLR 13/12 A3004 920 89 1000 VRB/04 RMK AO2
14926KSTC STC20060614043509806/14/06 04:35:31  5-MIN KSTC 141035Z AUTO 04005KT 10SM CLR 13/11 A3003 920 86 1000 040/05 RMK AO2
14926KSTC STC20060614044009806/14/06 04:40:31  5-MIN KSTC 141040Z AUTO 05003KT 10SM CLR 13/11 A3003 920 86 1000 050/03 RMK AO2
14926KSTC STC20060614044509806/14/06 04:45:31  5-MIN KSTC 141045Z AUTO 05004KT 10SM CLR 13/11 A3003 920 86 1000 050/04 RMK AO2
14926KSTC STC20060614045011506/14/06 04:50:31  5-MIN KSTC 141050Z AUTO 05004KT 10SM CLR 13/11 A3004 920 86 1000 050/04 RMK AO2 SLP175 T01330111
14926KSTC STC20060614045509806/14/06 04:55:31  5-MIN KSTC 141055Z AUTO 05004KT 10SM CLR 13/11 A3003 920 86 1000 050/04 RMK AO2
14926KSTC STC20060614050009806/14/06 05:00:31  5-MIN KSTC 141100Z AUTO 06004KT 10SM CLR 13/11 A3003 920 86 1000 060/04 RMK AO2
14926KSTC STC20060614050509806/14/06 05:05:31  5-MIN KSTC 141105Z AUTO 06005KT 10SM CLR 13/11 A3003 920 86 1000 050/05 RMK AO2
14926KSTC STC20060614051009806/14/06 05:10:31  5-MIN KSTC 141110Z AUTO 06006KT 10SM CLR 13/11 A3003 920 86 1000 060/06 RMK AO2
14926KSTC STC20060614051509806/14/06 05:15:31  5-MIN KSTC 141115Z AUTO VRB05KT 10SM CLR 13/11 A3004 920 86 1000 VRB/05 RMK AO2
14926KSTC STC20060614052009806/14/06 05:20:31  5-MIN KSTC 141120Z AUTO 07005KT 10SM CLR 14/11 A3004 920 83 1000 060/05 RMK AO2
14926KSTC STC20060614052509806/14/06 05:25:31  5-MIN KSTC 141125Z AUTO VRB04KT 10SM CLR 14/11 A3004 920 83 1000 VRB/04 RMK AO2
14926KSTC STC20060614053009806/14/06 05:30:31  5-MIN KSTC 141130Z AUTO VRB04KT 10SM CLR 14/11 A3004 920 83 1000 VRB/04 RMK AO2
14926KSTC STC20060614053510106/14/06 05:35:31  5-MIN KSTC 141135Z AUTO VRB05KT 10SM FEW095 14/11 A3004 920 83 1000 VRB/05 RMK AO2
14926KSTC STC20060614054010106/14/06 05:40:31  5-MIN KSTC 141140Z AUTO 08005KT 10SM FEW095 14/11 A3004 920 83 1000 080/05 RMK AO2
14926KSTC STC20060614054510106/14/06 05:45:31  5-MIN KSTC 141145Z AUTO 07007KT 10SM FEW095 14/11 A3004 920 83 1000 070/07 RMK AO2
14926KSTC STC20060614055013106/14/06 05:50:31  5-MIN KSTC 141150Z 08007KT 10SM FEW095 14/11 A3004 920 80 1100 080/07 RMK AO2 SLP176 T01440111 10156 20133 58005
14926KSTC STC20060614055509606/14/06 05:55:31  5-MIN KSTC 141155Z 08006KT 10SM FEW095 14/11 A3004 920 80 1100 080/06 RMK AO2
14926KSTC STC20060614060009606/14/06 06:00:31  5-MIN KSTC 141200Z 07009KT 10SM FEW095 14/11 A3004 920 80 1100 070/09 RMK AO2
14926KSTC STC20060614060509606/14/06 06:05:31  5-MIN KSTC 141205Z 06007KT 10SM FEW095 14/12 A3004 920 83 1100 050/07 RMK AO2
14926KSTC STC20060614061009606/14/06 06:10:31  5-MIN KSTC 141210Z 06008KT 10SM FEW100 14/12 A3003 920 83 1100 060/08 RMK AO2
14926KSTC STC20060614061509606/14/06 06:15:31  5-MIN KSTC 141215Z 06008KT 10SM FEW100 14/12 A3003 920 83 1100 060/08 RMK AO2
14926KSTC STC20060614062009606/14/06 06:20:31  5-MIN KSTC 141220Z 07008KT 10SM FEW100 14/12 A3003 930 83 1100 070/08 RMK AO2
14926KSTC STC20060614062509606/14/06 06:25:31  5-MIN KSTC 141225Z 07007KT 10SM FEW100 14/12 A3003 920 83 1100 070/07 RMK AO2
14926KSTC STC20060614063009606/14/06 06:30:31  5-MIN KSTC 141230Z 07009KT 10SM FEW100 15/12 A3003 920 80 1200 070/09 RMK AO2
14926KSTC STC20060614063509606/14/06 06:35:31  5-MIN KSTC 141235Z 07006KT 10SM FEW100 15/12 A3004 920 80 1200 070/06 RMK AO2
14926KSTC STC20060614064009306/14/06 06:40:31  5-MIN KSTC 141240Z 08010KT 10SM CLR 16/12 A3004 920 77 1200 070/10 RMK AO2
14926KSTC STC20060614064509306/14/06 06:45:31  5-MIN KSTC 141245Z 07007KT 10SM CLR 16/12 A3004 920 77 1200 070/07 RMK AO2
14926KSTC STC20060614065011006/14/06 06:50:31  5-MIN KSTC 141250Z VRB06KT 10SM CLR 16/12 A3005 910 77 1200 VRB/06 RMK AO2 SLP179 T01560117
14926KSTC STC20060614065509306/14/06 06:55:31  5-MIN KSTC 141255Z 08008KT 10SM CLR 16/12 A3005 910 77 1300 070/08 RMK AO2
14926KSTC STC20060614070009306/14/06 07:00:31  5-MIN KSTC 141300Z 07009KT 10SM CLR 16/12 A3004 910 77 1300 070/09 RMK AO2
14926KSTC STC20060614070509306/14/06 07:05:31  5-MIN KSTC 141305Z 07007KT 10SM CLR 17/12 A3004 910 75 1400 060/07 RMK AO2
14926KSTC STC20060614071009306/14/06 07:10:31  5-MIN KSTC 141310Z 06009KT 10SM CLR 17/12 A3004 920 75 1400 060/09 RMK AO2
14926KSTC STC20060614071509306/14/06 07:15:31  5-MIN KSTC 141315Z 07008KT 10SM CLR 17/12 A3004 920 75 1400 060/08 RMK AO2
14926KSTC STC20060614072009306/14/06 07:20:31  5-MIN KSTC 141320Z 07008KT 10SM CLR 17/12 A3004 910 75 1400 070/08 RMK AO2
14926KSTC STC20060614072509306/14/06 07:25:31  5-MIN KSTC 141325Z 06007KT 10SM CLR 17/12 A3004 910 75 1400 060/07 RMK AO2
14926KSTC STC20060614073009306/14/06 07:30:31  5-MIN KSTC 141330Z 07008KT 10SM CLR 17/12 A3004 910 75 1400 060/08 RMK AO2
14926KSTC STC20060614073509306/14/06 07:35:31  5-MIN KSTC 141335Z 08008KT 10SM CLR 17/12 A3004 920 72 1400 070/08 RMK AO2
14926KSTC STC20060614074009306/14/06 07:40:31  5-MIN KSTC 141340Z 08010KT 10SM CLR 17/13 A3004 920 75 1400 070/10 RMK AO2
14926KSTC STC20060614074509306/14/06 07:45:31  5-MIN KSTC 141345Z 08008KT 10SM CLR 18/13 A3004 920 72 1500 080/08 RMK AO2
14926KSTC STC20060614075011006/14/06 07:50:31  5-MIN KSTC 141350Z 05008KT 10SM CLR 18/13 A3003 920 72 1500 050/08 RMK AO2 SLP175 T01780128
14926KSTC STC20060614075509306/14/06 07:55:31  5-MIN KSTC 141355Z 07008KT 10SM CLR 18/13 A3004 920 72 1500 070/08 RMK AO2
14926KSTC STC20060614080010906/14/06 08:00:31  5-MIN KSTC 141400Z 07008KT 050V140 10SM CLR 18/13 A3004 910 72 1500 070/08 050V140 RMK AO2
14926KSTC STC20060614080509306/14/06 08:05:31  5-MIN KSTC 141405Z 08008KT 10SM CLR 18/13 A3004 910 70 1600 080/08 RMK AO2
14926KSTC STC20060614081009306/14/06 08:10:31  5-MIN KSTC 141410Z 08007KT 10SM CLR 18/13 A3004 920 70 1600 080/07 RMK AO2
14926KSTC STC20060614081509306/14/06 08:15:31  5-MIN KSTC 141415Z 06008KT 10SM CLR 19/13 A3003 920 70 1600 060/08 RMK AO2
14926KSTC STC20060614082009306/14/06 08:20:31  5-MIN KSTC 141420Z 06010KT 10SM CLR 19/13 A3003 930 70 1600 060/10 RMK AO2
14926KSTC STC20060614082509306/14/06 08:25:31  5-MIN KSTC 141425Z 06010KT 10SM CLR 19/13 A3003 930 67 1600 060/10 RMK AO2
14926KSTC STC20060614083009306/14/06 08:30:31  5-MIN KSTC 141430Z 08009KT 10SM CLR 19/13 A3002 930 67 1600 080/09 RMK AO2
14926KSTC STC20060614083509306/14/06 08:35:31  5-MIN KSTC 141435Z 07009KT 10SM CLR 19/13 A3002 930 70 1600 070/09 RMK AO2
14926KSTC STC20060614084009306/14/06 08:40:31  5-MIN KSTC 141440Z 08010KT 10SM CLR 19/13 A3002 940 67 1600 080/10 RMK AO2
14926KSTC STC20060614084509306/14/06 08:45:31  5-MIN KSTC 141445Z 08008KT 10SM CLR 19/13 A3002 940 67 1700 070/08 RMK AO2
14926KSTC STC20060614085011606/14/06 08:50:31  5-MIN KSTC 141450Z 05010KT 10SM CLR 19/13 A3002 940 67 1700 050/10 RMK AO2 SLP171 T01940133 53001
14926KSTC STC20060614085509306/14/06 08:55:31  5-MIN KSTC 141455Z 07009KT 10SM CLR 19/13 A3002 930 70 1600 070/09 RMK AO2
14926KSTC STC20060614090009306/14/06 09:00:31  5-MIN KSTC 141500Z 07007KT 10SM CLR 19/13 A3002 930 67 1700 060/07 RMK AO2
14926KSTC STC20060614090509306/14/06 09:05:31  5-MIN KSTC 141505Z 06008KT 10SM CLR 19/13 A3002 930 67 1700 060/08 RMK AO2
14926KSTC STC20060614091009306/14/06 09:10:31  5-MIN KSTC 141510Z 06008KT 10SM CLR 19/13 A3002 940 67 1700 060/08 RMK AO2
14926KSTC STC20060614091509306/14/06 09:15:31  5-MIN KSTC 141515Z 06010KT 10SM CLR 19/13 A3002 940 67 1700 060/10 RMK AO2
14926KSTC STC20060614092009306/14/06 09:20:31  5-MIN KSTC 141520Z 07011KT 10SM CLR 19/13 A3001 940 67 1700 060/11 RMK AO2
14926KSTC STC20060614092509306/14/06 09:25:31  5-MIN KSTC 141525Z 07010KT 10SM CLR 19/13 A3002 930 67 1700 070/10 RMK AO2
14926KSTC STC20060614093009306/14/06 09:30:31  5-MIN KSTC 141530Z 09009KT 10SM CLR 19/13 A3002 930 67 1700 080/09 RMK AO2
14926KSTC STC20060614093509306/14/06 09:35:31  5-MIN KSTC 141535Z 09008KT 10SM CLR 20/13 A3002 930 65 1800 080/08 RMK AO2
14926KSTC STC20060614094009606/14/06 09:40:31  5-MIN KSTC 141540Z 09009KT 10SM FEW075 20/13 A3002 930 65 1800 080/09 RMK AO2
14926KSTC STC20060614094509606/14/06 09:45:31  5-MIN KSTC 141545Z 09007KT 10SM FEW075 20/13 A3003 920 65 1800 090/07 RMK AO2
14926KSTC STC20060614095012006/14/06 09:50:31  5-MIN KSTC 141550Z VRB03KT 10SM SCT075 19/13 A3005 910 67 1700 VRB/03 RMK AO2 PRESRR SLP181 T01940133
14926KSTC STC20060614095509606/14/06 09:55:31  5-MIN KSTC 141555Z 00000KT 10SM BKN080 20/14 A3005 910 67 1700 000/00 RMK AO2
14926KSTC STC20060614100009606/14/06 10:00:31  5-MIN KSTC 141600Z 13006KT 10SM BKN080 20/14 A3004 920 67 1800 120/06 RMK AO2
14926KSTC STC20060614100509606/14/06 10:05:31  5-MIN KSTC 141605Z 11007KT 10SM SCT080 20/14 A3003 920 67 1800 110/07 RMK AO2
14926KSTC STC20060614101009606/14/06 10:10:31  5-MIN KSTC 141610Z VRB04KT 10SM SCT080 21/14 A3004 920 65 1800 VRB/04 RMK AO2
14926KSTC STC20060614101509606/14/06 10:15:31  5-MIN KSTC 141615Z 12005KT 10SM FEW080 21/14 A3004 920 65 1800 120/05 RMK AO2
14926KSTC STC20060614102011206/14/06 10:20:31  5-MIN KSTC 141620Z 11007KT 080V150 10SM FEW090 21/14 A3004 920 65 1800 110/07 080V150 RMK AO2
14926KSTC STC20060614102509306/14/06 10:25:31  5-MIN KSTC 141625Z 11007KT 10SM CLR 21/13 A3004 920 63 1800 110/07 RMK AO2
14926KSTC STC20060614103009306/14/06 10:30:31  5-MIN KSTC 141630Z 11008KT 10SM CLR 21/14 A3004 920 65 1800 110/08 RMK AO2
14926KSTC STC20060614103509306/14/06 10:35:31  5-MIN KSTC 141635Z 08008KT 10SM CLR 21/14 A3003 920 63 1900 070/08 RMK AO2
14926KSTC STC20060614104009306/14/06 10:40:31  5-MIN KSTC 141640Z VRB06KT 10SM CLR 21/14 A3003 920 63 1900 VRB/06 RMK AO2
14926KSTC STC20060614104509906/14/06 10:45:31  5-MIN KSTC 141645Z 09010G15KT 10SM CLR 21/14 A3003 930 63 1900 080/10G15 RMK AO2
14926KSTC STC20060614105011606/14/06 10:50:31  5-MIN KSTC 141650Z 08008G15KT 10SM CLR 21/14 A3003 930 63 1900 070/08G15 RMK AO2 SLP173 T02110139
14926KSTC STC20060614105509306/14/06 10:55:31  5-MIN KSTC 141655Z 08009KT 10SM CLR 22/14 A3002 930 61 2000 080/09 RMK AO2
14926KSTC STC20060614110009306/14/06 11:00:31  5-MIN KSTC 141700Z 09008KT 10SM CLR 22/14 A3003 930 61 2000 090/08 RMK AO2
14926KSTC STC20060614110509306/14/06 11:05:31  5-MIN KSTC 141705Z 07009KT 10SM CLR 22/14 A3003 930 59 2000 070/09 RMK AO2
14926KSTC STC20060614111009306/14/06 11:10:31  5-MIN KSTC 141710Z 07011KT 10SM CLR 22/14 A3003 930 59 2000 070/11 RMK AO2
14926KSTC STC20060614111509306/14/06 11:15:31  5-MIN KSTC 141715Z 09009KT 10SM CLR 22/14 A3002 930 59 2000 090/09 RMK AO2
14926KSTC STC20060614112009306/14/06 11:20:31  5-MIN KSTC 141720Z 09009KT 10SM CLR 22/14 A3002 940 59 2000 080/09 RMK AO2
14926KSTC STC20060614112509306/14/06 11:25:31  5-MIN KSTC 141725Z 07007KT 10SM CLR 23/14 A3002 930 57 2100 070/07 RMK AO2
14926KSTC STC20060614113009306/14/06 11:30:31  5-MIN KSTC 141730Z 06010KT 10SM CLR 22/14 A3001 940 61 2000 060/10 RMK AO2
14926KSTC STC20060614113509306/14/06 11:35:31  5-MIN KSTC 141735Z 09009KT 10SM CLR 22/14 A3000 950 59 2000 090/09 RMK AO2
14926KSTC STC20060614114010006/14/06 11:40:31  5-MIN KSTC 141740Z 09009KT 10SM CLR 23/14 A3000 950 57 2100 090/09 RMK AO2 PRESFR
14926KSTC STC20060614114510006/14/06 11:45:31  5-MIN KSTC 141745Z 08009KT 10SM CLR 23/14 A2999 960 59 2100 080/09 RMK AO2 PRESFR
14926KSTC STC20060614115013406/14/06 11:50:31  5-MIN KSTC 141750Z 10011G16KT 10SM CLR 23/14 A2999 960 57 2100 090/11G16 RMK AO2 SLP160 T02280139 10228 20144 58007
14926KSTC STC20060614115509906/14/06 11:55:31  5-MIN KSTC 141755Z 08012G16KT 10SM CLR 23/14 A2999 970 57 2100 070/12G16 RMK AO2
14926KSTC STC20060614120009306/14/06 12:00:31  5-MIN KSTC 141800Z 08009KT 10SM CLR 23/14 A2999 960 57 2200 080/09 RMK AO2
14926KSTC STC20060614120509306/14/06 12:05:31  5-MIN KSTC 141805Z 10010KT 10SM CLR 23/14 A2998 970 55 2200 090/10 RMK AO2
14926KSTC STC20060614121009906/14/06 12:10:31  5-MIN KSTC 141810Z 09010G15KT 10SM CLR 24/14 A2998 970 53 2300 080/10G15 RMK AO2
14926KSTC STC20060614121509306/14/06 12:15:31  5-MIN KSTC 141815Z 10013KT 10SM CLR 24/14 A2998 970 53 2300 100/13 RMK AO2
14926KSTC STC20060614122009306/14/06 12:20:31  5-MIN KSTC 141820Z 11009KT 10SM CLR 24/14 A2998 970 53 2300 110/09 RMK AO2
14926KSTC STC20060614122509306/14/06 12:25:31  5-MIN KSTC 141825Z 10009KT 10SM CLR 24/14 A2998 970 55 2300 100/09 RMK AO2
14926KSTC STC20060614123009306/14/06 12:30:31  5-MIN KSTC 141830Z 09010KT 10SM CLR 24/14 A2998 970 53 2300 090/10 RMK AO2
14926KSTC STC20060614123509306/14/06 12:35:31  5-MIN KSTC 141835Z 11009KT 10SM CLR 24/14 A2998 970 51 2300 110/09 RMK AO2
14926KSTC STC20060614124009306/14/06 12:40:31  5-MIN KSTC 141840Z 10009KT 10SM CLR 24/14 A2998 970 51 2300 100/09 RMK AO2
14926KSTC STC20060614124509306/14/06 12:45:31  5-MIN KSTC 141845Z 09010KT 10SM CLR 25/14 A2998 970 51 2400 090/10 RMK AO2
14926KSTC STC20060614125012606/14/06 12:50:31  5-MIN KSTC 141850Z 09009KT 040V120 10SM CLR 25/14 A2999 970 51 2400 090/09 040V120 RMK AO2 SLP159 T02500144
14926KSTC STC20060614125509306/14/06 12:55:31  5-MIN KSTC 141855Z 08009KT 10SM CLR 25/14 A2998 970 51 2400 080/09 RMK AO2
14926KSTC STC20060614130009306/14/06 13:00:31  5-MIN KSTC 141900Z 10009KT 10SM CLR 25/14 A2998 970 51 2400 100/09 RMK AO2
14926KSTC STC20060614130509306/14/06 13:05:31  5-MIN KSTC 141905Z 11010KT 10SM CLR 25/14 A2998 970 51 2400 110/10 RMK AO2
14926KSTC STC20060614131009306/14/06 13:10:31  5-MIN KSTC 141910Z 10008KT 10SM CLR 26/14 A2998 970 49 2400 090/08 RMK AO2
14926KSTC STC20060614131509906/14/06 13:15:31  5-MIN KSTC 141915Z 12012G15KT 10SM CLR 26/14 A2998 970 49 2400 120/12G15 RMK AO2
14926KSTC STC20060614132009906/14/06 13:20:31  5-MIN KSTC 141920Z 11007G15KT 10SM CLR 25/14 A2998 970 51 2400 110/07G15 RMK AO2
14926KSTC STC20060614132509306/14/06 13:25:31  5-MIN KSTC 141925Z 08008KT 10SM CLR 25/14 A2998 970 51 2400 080/08 RMK AO2
14926KSTC STC20060614133009306/14/06 13:30:31  5-MIN KSTC 141930Z 09011KT 10SM CLR 26/15 A2998 970 51 2400 080/11 RMK AO2
14926KSTC STC20060614133509306/14/06 13:35:31  5-MIN KSTC 141935Z 08009KT 10SM CLR 26/14 A2998 970 49 2400 080/09 RMK AO2
14926KSTC STC20060614134009306/14/06 13:40:31  5-MIN KSTC 141940Z 12006KT 10SM CLR 26/15 A2998 970 51 2400 110/06 RMK AO2
14926KSTC STC20060614134509306/14/06 13:45:31  5-MIN KSTC 141945Z 10009KT 10SM CLR 25/15 A2998 970 53 2400 100/09 RMK AO2
14926KSTC STC20060614135011306/14/06 13:50:31  5-MIN KSTC 141950Z 12008KT 10SM FEW100 25/14 A2998 970 51 2400 120/08 RMK AO2 SLP157 T02500144
14926KSTC STC20060614135509606/14/06 13:55:31  5-MIN KSTC 141955Z 10009KT 10SM FEW095 26/14 A2997 980 49 2500 090/09 RMK AO2
14926KSTC STC20060614140009606/14/06 14:00:31  5-MIN KSTC 142000Z 13010KT 10SM FEW095 25/15 A2997 980 53 2400 130/10 RMK AO2
14926KSTC STC20060614140509606/14/06 14:05:31  5-MIN KSTC 142005Z 12008KT 10SM FEW095 25/14 A2996 990 51 2400 110/08 RMK AO2
14926KSTC STC20060614141010406/14/06 14:10:31  5-MIN KSTC 142010Z 08011KT 10SM FEW095 25/14 A2995 1000 51 2400 080/11 RMK AO2 PRESFR
14926KSTC STC20060614141509706/14/06 14:15:31  5-MIN KSTC 142015Z 10009KT 10SM SCT095 25/14 A2995 1000 51 2400 100/09 RMK AO2
14926KSTC STC20060614142009706/14/06 14:20:31  5-MIN KSTC 142020Z 09010KT 10SM BKN095 25/15 A2995 1000 53 2400 080/10 RMK AO2
14926KSTC STC20060614142509706/14/06 14:25:31  5-MIN KSTC 142025Z 08009KT 10SM SCT090 25/15 A2995 1000 53 2400 080/09 RMK AO2
14926KSTC STC20060614143009706/14/06 14:30:31  5-MIN KSTC 142030Z 11009KT 10SM FEW095 25/15 A2994 1010 53 2400 110/09 RMK AO2
14926KSTC STC20060614143509706/14/06 14:35:31  5-MIN KSTC 142035Z 08007KT 10SM FEW095 25/16 A2994 1000 55 2400 080/07 RMK AO2
14926KSTC STC20060614144009706/14/06 14:40:31  5-MIN KSTC 142040Z 09008KT 10SM FEW090 25/16 A2995 1000 55 2400 090/08 RMK AO2
14926KSTC STC20060614144509706/14/06 14:45:31  5-MIN KSTC 142045Z 10008KT 10SM FEW090 25/16 A2994 1000 55 2400 100/08 RMK AO2
14926KSTC STC20060614145011706/14/06 14:50:31  5-MIN KSTC 142050Z 10008KT 10SM CLR 24/16 A2995 1000 57 2400 090/08 RMK AO2 SLP145 T02440156 58010
14926KSTC STC20060614145509706/14/06 14:55:31  5-MIN KSTC 142055Z 09008KT 10SM FEW085 24/16 A2995 1000 57 2400 090/08 RMK AO2
14926KSTC STC20060614150010306/14/06 15:00:31  5-MIN KSTC 142100Z 10007G16KT 10SM SCT090 24/15 A2995 1000 55 2400 100/07G16 RMK AO2
14926KSTC STC20060614150510306/14/06 15:05:31  5-MIN KSTC 142105Z 10007G16KT 10SM BKN090 24/15 A2995 1000 55 2400 100/07G16 RMK AO2
14926KSTC STC20060614151009706/14/06 15:10:31  5-MIN KSTC 142110Z 10006KT 10SM BKN090 24/16 A2995 1000 57 2400 090/06 RMK AO2
14926KSTC STC20060614151509706/14/06 15:15:31  5-MIN KSTC 142115Z 10006KT 10SM BKN090 24/16 A2994 1000 57 2400 090/06 RMK AO2
14926KSTC STC20060614152009706/14/06 15:20:31  5-MIN KSTC 142120Z 12008KT 10SM BKN090 24/16 A2994 1010 57 2400 110/08 RMK AO2
14926KSTC STC20060614152509706/14/06 15:25:31  5-MIN KSTC 142125Z 10008KT 10SM SCT090 25/16 A2994 1010 55 2400 100/08 RMK AO2
14926KSTC STC20060614153009706/14/06 15:30:31  5-MIN KSTC 142130Z 10008KT 10SM SCT090 25/16 A2994 1010 55 2400 100/08 RMK AO2
14926KSTC STC20060614153509706/14/06 15:35:31  5-MIN KSTC 142135Z 10010KT 10SM FEW090 24/16 A2993 1020 57 2400 100/10 RMK AO2
14926KSTC STC20060614154009706/14/06 15:40:31  5-MIN KSTC 142140Z 10009KT 10SM FEW095 24/16 A2992 1020 57 2400 100/09 RMK AO2
14926KSTC STC20060614154509406/14/06 15:45:31  5-MIN KSTC 142145Z 10008KT 10SM CLR 25/16 A2992 1020 55 2400 100/08 RMK AO2
14926KSTC STC20060614155011706/14/06 15:50:31  5-MIN KSTC 142150Z 10010G15KT 10SM CLR 25/16 A2992 1030 55 2500 100/10G15 RMK AO2 SLP137 T02500156
14926KSTC STC20060614155509406/14/06 15:55:31  5-MIN KSTC 142155Z 10009KT 10SM CLR 25/16 A2992 1030 55 2500 100/09 RMK AO2
14926KSTC STC20060614160009406/14/06 16:00:31  5-MIN KSTC 142200Z 11008KT 10SM CLR 26/16 A2992 1030 55 2500 100/08 RMK AO2
14926KSTC STC20060614160510006/14/06 16:05:31  5-MIN KSTC 142205Z 10009G15KT 10SM CLR 26/16 A2992 1030 55 2500 100/09G15 RMK AO2
14926KSTC STC20060614161009406/14/06 16:10:31  5-MIN KSTC 142210Z 11009KT 10SM CLR 26/16 A2992 1030 55 2500 110/09 RMK AO2
14926KSTC STC20060614161509406/14/06 16:15:31  5-MIN KSTC 142215Z 12011KT 10SM CLR 26/16 A2992 1030 53 2500 110/11 RMK AO2
14926KSTC STC20060614162009406/14/06 16:20:31  5-MIN KSTC 142220Z 12011KT 10SM CLR 26/16 A2992 1030 53 2500 120/11 RMK AO2
14926KSTC STC20060614162509406/14/06 16:25:31  5-MIN KSTC 142225Z 13013KT 10SM CLR 26/16 A2992 1030 53 2500 130/13 RMK AO2
14926KSTC STC20060614163009406/14/06 16:30:31  5-MIN KSTC 142230Z 13011KT 10SM CLR 26/16 A2992 1030 53 2500 120/11 RMK AO2
14926KSTC STC20060614163509406/14/06 16:35:31  5-MIN KSTC 142235Z 11012KT 10SM CLR 26/16 A2992 1020 53 2500 110/12 RMK AO2
14926KSTC STC20060614164009406/14/06 16:40:31  5-MIN KSTC 142240Z 12010KT 10SM CLR 26/16 A2993 1020 53 2500 110/10 RMK AO2
14926KSTC STC20060614164510006/14/06 16:45:31  5-MIN KSTC 142245Z 11009G16KT 10SM CLR 26/16 A2993 1020 53 2500 110/09G16 RMK AO2
14926KSTC STC20060614165011106/14/06 16:50:31  5-MIN KSTC 142250Z 14009KT 10SM CLR 26/16 A2993 1020 53 2500 140/09 RMK AO2 SLP141 T02560156
14926KSTC STC20060614165509706/14/06 16:55:31  5-MIN KSTC 142255Z 13010KT 10SM FEW080 26/16 A2993 1020 55 2500 130/10 RMK AO2
14926KSTC STC20060614170009706/14/06 17:00:31  5-MIN KSTC 142300Z 12010KT 10SM SCT080 26/16 A2993 1020 53 2600 110/10 RMK AO2
14926KSTC STC20060614170509706/14/06 17:05:31  5-MIN KSTC 142305Z 12010KT 10SM SCT080 26/16 A2993 1020 55 2500 120/10 RMK AO2
14926KSTC STC20060614171009706/14/06 17:10:31  5-MIN KSTC 142310Z 14010KT 10SM SCT080 26/16 A2993 1020 51 2600 130/10 RMK AO2
14926KSTC STC20060614171509706/14/06 17:15:31  5-MIN KSTC 142315Z 11008KT 10SM BKN080 26/16 A2993 1020 53 2600 100/08 RMK AO2
14926KSTC STC20060614172009706/14/06 17:20:31  5-MIN KSTC 142320Z 12008KT 10SM SCT080 26/16 A2993 1020 53 2600 110/08 RMK AO2
14926KSTC STC20060614172510406/14/06 17:25:31  5-MIN KSTC 142325Z 13010KT 10SM SCT080 SCT110 26/16 A2992 1020 55 2500 130/10 RMK AO2
14926KSTC STC20060614173009706/14/06 17:30:31  5-MIN KSTC 142330Z 13011KT 10SM FEW080 26/16 A2992 1020 53 2500 120/11 RMK AO2
14926KSTC STC20060614173509706/14/06 17:35:31  5-MIN KSTC 142335Z 13010KT 10SM FEW080 26/16 A2992 1020 53 2500 120/10 RMK AO2
14926KSTC STC20060614174009706/14/06 17:40:31  5-MIN KSTC 142340Z 12011KT 10SM FEW080 26/16 A2992 1030 55 2500 120/11 RMK AO2
14926KSTC STC20060614174509406/14/06 17:45:31  5-MIN KSTC 142345Z 12010KT 10SM CLR 26/16 A2992 1030 53 2500 120/10 RMK AO2
14926KSTC STC20060614175012906/14/06 17:50:31  5-MIN KSTC 142350Z 13008KT 10SM CLR 26/16 A2992 1030 55 2500 130/08 RMK AO2 SLP137 T02560161 10261 20228 58014
14926KSTC STC20060614175509406/14/06 17:55:31  5-MIN KSTC 142355Z 10008KT 10SM CLR 26/16 A2992 1030 55 2500 100/08 RMK AO2
14926KSTC STC20060614180009406/14/06 18:00:31  5-MIN KSTC 150000Z 12008KT 10SM CLR 26/16 A2992 1030 55 2500 110/08 RMK AO2
14926KSTC STC20060614180509406/14/06 18:05:31  5-MIN KSTC 150005Z 13011KT 10SM CLR 25/16 A2992 1030 57 2500 120/11 RMK AO2
14926KSTC STC20060614181009406/14/06 18:10:31  5-MIN KSTC 150010Z 13007KT 10SM CLR 25/16 A2992 1030 57 2500 120/07 RMK AO2
14926KSTC STC20060614181510006/14/06 18:15:31  5-MIN KSTC 150015Z 13010G15KT 10SM CLR 25/16 A2992 1030 57 2500 120/10G15 RMK AO2
14926KSTC STC20060614182009406/14/06 18:20:31  5-MIN KSTC 150020Z 12009KT 10SM CLR 25/16 A2992 1020 57 2500 110/09 RMK AO2
14926KSTC STC20060614182509406/14/06 18:25:31  5-MIN KSTC 150025Z 12009KT 10SM CLR 25/16 A2992 1020 57 2400 120/09 RMK AO2
14926KSTC STC20060614183009406/14/06 18:30:31  5-MIN KSTC 150030Z 11006KT 10SM CLR 24/16 A2993 1020 59 2400 110/06 RMK AO2
14926KSTC STC20060614183509406/14/06 18:35:31  5-MIN KSTC 150035Z 12008KT 10SM CLR 24/16 A2993 1020 59 2400 110/08 RMK AO2
14926KSTC STC20060614184009706/14/06 18:40:31  5-MIN KSTC 150040Z 11006KT 10SM FEW045 24/16 A2993 1020 59 2400 110/06 RMK AO2
14926KSTC STC20060614184509706/14/06 18:45:31  5-MIN KSTC 150045Z 11007KT 10SM SCT043 24/17 A2992 1020 61 2400 110/07 RMK AO2
14926KSTC STC20060614185011406/14/06 18:50:31  5-MIN KSTC 150050Z 11008KT 10SM SCT043 24/16 A2992 1020 59 2400 100/08 RMK AO2 SLP138 T02440161
14926KSTC STC20060614185509706/14/06 18:55:31  5-MIN KSTC 150055Z 11006KT 10SM SCT043 24/16 A2992 1020 59 2400 110/06 RMK AO2
14926KSTC STC20060614190009706/14/06 19:00:31  5-MIN KSTC 150100Z 12007KT 10SM BKN043 24/16 A2992 1020 59 2400 110/07 RMK AO2
14926KSTC STC20060614190509706/14/06 19:05:31  5-MIN KSTC 150105Z 12006KT 10SM BKN043 24/16 A2992 1030 59 2400 120/06 RMK AO2
14926KSTC STC20060614191009706/14/06 19:10:31  5-MIN KSTC 150110Z 12005KT 10SM BKN043 24/16 A2992 1020 61 2300 110/05 RMK AO2
14926KSTC STC20060614191509706/14/06 19:15:31  5-MIN KSTC 150115Z 15006KT 10SM BKN041 24/17 A2993 1020 63 2300 140/06 RMK AO2
14926KSTC STC20060614192009706/14/06 19:20:31  5-MIN KSTC 150120Z 14005KT 10SM OVC041 24/17 A2993 1020 63 2300 140/05 RMK AO2
14926KSTC STC20060614192509706/14/06 19:25:31  5-MIN KSTC 150125Z 16009KT 10SM OVC041 24/17 A2993 1020 63 2300 160/09 RMK AO2
14926KSTC STC20060614193009706/14/06 19:30:31  5-MIN KSTC 150130Z 16008KT 10SM OVC041 24/17 A2993 1020 63 2300 150/08 RMK AO2
14926KSTC STC20060614193509706/14/06 19:35:31  5-MIN KSTC 150135Z 16008KT 10SM OVC041 24/17 A2993 1020 63 2300 150/08 RMK AO2
14926KSTC STC20060614194009706/14/06 19:40:31  5-MIN KSTC 150140Z 16005KT 10SM OVC041 24/17 A2993 1020 63 2300 150/05 RMK AO2
14926KSTC STC20060614194509706/14/06 19:45:31  5-MIN KSTC 150145Z 16007KT 10SM BKN041 23/16 A2993 1020 63 2300 150/07 RMK AO2
14926KSTC STC20060614195011406/14/06 19:50:31  5-MIN KSTC 150150Z 16006KT 10SM BKN043 23/17 A2992 1020 66 2300 160/06 RMK AO2 SLP137 T02330167
14926KSTC STC20060614195509706/14/06 19:55:31  5-MIN KSTC 150155Z 15006KT 10SM SCT043 23/17 A2992 1020 68 2200 140/06 RMK AO2
14926KSTC STC20060614200009706/14/06 20:00:31  5-MIN KSTC 150200Z 14004KT 10SM SCT043 23/17 A2993 1020 68 2200 140/04 RMK AO2
14926KSTC STC20060614200509706/14/06 20:05:31  5-MIN KSTC 150205Z 12004KT 10SM FEW043 22/17 A2992 1020 70 2100 120/04 RMK AO2
14926KSTC STC20060614201009406/14/06 20:10:31  5-MIN KSTC 150210Z 12004KT 10SM CLR 22/17 A2993 1020 70 2100 120/04 RMK AO2
14926KSTC STC20060614201509406/14/06 20:15:31  5-MIN KSTC 150215Z 13004KT 10SM CLR 22/17 A2993 1020 70 2100 130/04 RMK AO2
14926KSTC STC20060614202009406/14/06 20:20:31  5-MIN KSTC 150220Z 12004KT 10SM CLR 22/17 A2993 1020 70 2100 120/04 RMK AO2
14926KSTC STC20060614202509406/14/06 20:25:31  5-MIN KSTC 150225Z 11004KT 10SM CLR 22/17 A2993 1020 73 2100 110/04 RMK AO2
14926KSTC STC20060614203009406/14/06 20:30:31  5-MIN KSTC 150230Z 10004KT 10SM CLR 22/17 A2993 1020 73 2100 100/04 RMK AO2
14926KSTC STC20060614203509406/14/06 20:35:31  5-MIN KSTC 150235Z 09004KT 10SM CLR 22/17 A2993 1020 73 2100 090/04 RMK AO2
14926KSTC STC20060614204009406/14/06 20:40:31  5-MIN KSTC 150240Z 09004KT 10SM CLR 22/17 A2993 1020 73 2100 090/04 RMK AO2
14926KSTC STC20060614204509406/14/06 20:45:31  5-MIN KSTC 150245Z 10004KT 10SM CLR 21/17 A2993 1020 75 2000 100/04 RMK AO2
14926KSTC STC20060614205011706/14/06 20:50:31  5-MIN KSTC 150250Z 09004KT 10SM CLR 21/17 A2993 1020 75 2000 090/04 RMK AO2 SLP138 T02110167 56009
14926KSTC STC20060614205509406/14/06 20:55:31  5-MIN KSTC 150255Z 10004KT 10SM CLR 21/17 A2993 1020 75 2000 090/04 RMK AO2
14926KSTC STC20060614210009406/14/06 21:00:31  5-MIN KSTC 150300Z 09004KT 10SM CLR 21/17 A2993 1020 75 2000 090/04 RMK AO2
14926KSTC STC20060614210509406/14/06 21:05:31  5-MIN KSTC 150305Z 10004KT 10SM CLR 21/17 A2993 1020 78 1900 100/04 RMK AO2
14926KSTC STC20060614211009406/14/06 21:10:31  5-MIN KSTC 150310Z 10005KT 10SM CLR 21/17 A2993 1010 75 2000 100/05 RMK AO2
14926KSTC STC20060614211509406/14/06 21:15:31  5-MIN KSTC 150315Z 10004KT 10SM CLR 21/17 A2994 1010 75 2000 090/04 RMK AO2
14926KSTC STC20060614212009406/14/06 21:20:31  5-MIN KSTC 150320Z 09005KT 10SM CLR 21/17 A2994 1010 78 1900 080/05 RMK AO2
14926KSTC STC20060614212509406/14/06 21:25:31  5-MIN KSTC 150325Z 08005KT 10SM CLR 21/17 A2993 1010 78 1900 080/05 RMK AO2
14926KSTC STC20060614213009406/14/06 21:30:31  5-MIN KSTC 150330Z 09005KT 10SM CLR 21/17 A2993 1010 78 1900 080/05 RMK AO2
14926KSTC STC20060614213509406/14/06 21:35:31  5-MIN KSTC 150335Z 09005KT 10SM CLR 21/17 A2994 1010 78 1900 090/05 RMK AO2
14926KSTC STC20060614214009406/14/06 21:40:31  5-MIN KSTC 150340Z 10005KT 10SM CLR 21/17 A2994 1010 78 1900 100/05 RMK AO2
14926KSTC STC20060614214509406/14/06 21:45:31  5-MIN KSTC 150345Z 11005KT 10SM CLR 21/17 A2994 1010 78 1900 110/05 RMK AO2
14926KSTC STC20060614215011106/14/06 21:50:31  5-MIN KSTC 150350Z 11005KT 10SM CLR 21/17 A2994 1010 75 2000 110/05 RMK AO2 SLP142 T02110167
14926KSTC STC20060614215509406/14/06 21:55:31  5-MIN KSTC 150355Z 10004KT 10SM CLR 21/17 A2994 1010 75 2000 100/04 RMK AO2
14926KSTC STC20060614220009906/14/06 22:00:31  5-MIN KSTC 150400Z AUTO 11004KT 10SM CLR 21/17 A2994 1010 81 1900 110/04 RMK AO2
14926KSTC STC20060614220509906/14/06 22:05:31  5-MIN KSTC 150405Z AUTO 10004KT 10SM CLR 21/17 A2994 1010 81 1900 100/04 RMK AO2
14926KSTC STC20060614221009906/14/06 22:10:31  5-MIN KSTC 150410Z AUTO 09005KT 10SM CLR 21/17 A2994 1010 81 1900 090/05 RMK AO2
14926KSTC STC20060614221509906/14/06 22:15:31  5-MIN KSTC 150415Z AUTO 09004KT 10SM CLR 20/17 A2994 1010 81 1900 090/04 RMK AO2
14926KSTC STC20060614222009906/14/06 22:20:31  5-MIN KSTC 150420Z AUTO 09005KT 10SM CLR 20/17 A2994 1010 81 1900 090/05 RMK AO2
14926KSTC STC20060614222509906/14/06 22:25:31  5-MIN KSTC 150425Z AUTO 09004KT 10SM CLR 20/17 A2994 1010 81 1900 090/04 RMK AO2
14926KSTC STC20060614223009906/14/06 22:30:31  5-MIN KSTC 150430Z AUTO 09004KT 10SM CLR 20/17 A2994 1010 81 1900 090/04 RMK AO2
14926KSTC STC20060614223509906/14/06 22:35:31  5-MIN KSTC 150435Z AUTO 10006KT 10SM CLR 20/17 A2994 1010 81 1900 090/06 RMK AO2
14926KSTC STC20060614224009906/14/06 22:40:31  5-MIN KSTC 150440Z AUTO 10006KT 10SM CLR 20/17 A2994 1000 81 1900 100/06 RMK AO2
14926KSTC STC20060614224509906/14/06 22:45:31  5-MIN KSTC 150445Z AUTO 10005KT 10SM CLR 20/17 A2995 1000 81 1900 100/05 RMK AO2
14926KSTC STC20060614225011606/14/06 22:50:31  5-MIN KSTC 150450Z AUTO 11006KT 10SM CLR 20/17 A2995 1000 81 1900 100/06 RMK AO2 SLP145 T02000167
14926KSTC STC20060614225509906/14/06 22:55:31  5-MIN KSTC 150455Z AUTO 11005KT 10SM CLR 20/17 A2995 1000 81 1900 110/05 RMK AO2
14926KSTC STC20060614230009906/14/06 23:00:31  5-MIN KSTC 150500Z AUTO 12005KT 10SM CLR 20/17 A2994 1000 81 1900 110/05 RMK AO2
14926KSTC STC20060614230509906/14/06 23:05:31  5-MIN KSTC 150505Z AUTO 11005KT 10SM CLR 20/17 A2994 1000 81 1900 100/05 RMK AO2
14926KSTC STC20060614231009906/14/06 23:10:31  5-MIN KSTC 150510Z AUTO 10005KT 10SM CLR 20/17 A2995 1000 81 1900 090/05 RMK AO2
14926KSTC STC20060614231509906/14/06 23:15:31  5-MIN KSTC 150515Z AUTO 10006KT 10SM CLR 19/17 A2995 1000 84 1800 100/06 RMK AO2
14926KSTC STC20060614232009906/14/06 23:20:31  5-MIN KSTC 150520Z AUTO 10005KT 10SM CLR 19/17 A2995 1000 84 1800 090/05 RMK AO2
14926KSTC STC20060614232509906/14/06 23:25:31  5-MIN KSTC 150525Z AUTO 10005KT 10SM CLR 19/17 A2995 1000 84 1800 100/05 RMK AO2
14926KSTC STC20060614233009906/14/06 23:30:31  5-MIN KSTC 150530Z AUTO 09005KT 10SM CLR 19/17 A2995 1000 84 1800 090/05 RMK AO2
14926KSTC STC20060614233509906/14/06 23:35:31  5-MIN KSTC 150535Z AUTO 09006KT 10SM CLR 19/17 A2994 1000 84 1800 090/06 RMK AO2
14926KSTC STC20060614234009906/14/06 23:40:31  5-MIN KSTC 150540Z AUTO 10006KT 10SM CLR 19/17 A2994 1010 84 1800 100/06 RMK AO2
14926KSTC STC20060614234509906/14/06 23:45:31  5-MIN KSTC 150545Z AUTO 09006KT 10SM CLR 19/17 A2994 1010 84 1800 090/06 RMK AO2
14926KSTC STC20060614235014406/14/06 23:50:31  5-MIN KSTC 150550Z AUTO 10006KT 10SM CLR 19/17 A2994 1010 84 1800 090/06 RMK AO2 SLP142 T01940167 10256 20194 402610133 52003
14926KSTC STC20060614235509806/14/06 23:55:31  5-MIN KSTC 150555Z AUTO 09006KT 9SM CLR 19/17 A2993 1010 84 1800 090/06 RMK AO2
14926KSTC STC20060615000009806/15/06 00:00:32  5-MIN KSTC 150600Z AUTO 09006KT 9SM CLR 19/17 A2993 1020 84 1800 090/06 RMK AO2
14926KSTC STC20060615000509806/15/06 00:05:31  5-MIN KSTC 150605Z AUTO 09006KT 9SM CLR 19/17 A2993 1020 84 1800 090/06 RMK AO2
14926KSTC STC20060615001009806/15/06 00:10:31  5-MIN KSTC 150610Z AUTO 09007KT 9SM CLR 19/17 A2992 1030 84 1800 080/07 RMK AO2
14926KSTC STC20060615001509806/15/06 00:15:31  5-MIN KSTC 150615Z AUTO 09007KT 9SM CLR 19/17 A2992 1030 87 1800 090/07 RMK AO2
14926KSTC STC20060615002009906/15/06 00:20:31  5-MIN KSTC 150620Z AUTO 09008KT 10SM CLR 19/17 A2991 1030 84 1800 090/08 RMK AO2
14926KSTC STC20060615002509906/15/06 00:25:31  5-MIN KSTC 150625Z AUTO 10008KT 10SM CLR 19/17 A2991 1040 87 1800 100/08 RMK AO2
14926KSTC STC20060615003009806/15/06 00:30:31  5-MIN KSTC 150630Z AUTO 10007KT 9SM CLR 19/17 A2991 1040 87 1800 100/07 RMK AO2
14926KSTC STC20060615003509806/15/06 00:35:31  5-MIN KSTC 150635Z AUTO 10008KT 9SM CLR 19/17 A2991 1040 87 1800 100/08 RMK AO2
14926KSTC STC20060615004009806/15/06 00:40:31  5-MIN KSTC 150640Z AUTO 10006KT 9SM CLR 19/17 A2991 1040 87 1800 100/06 RMK AO2
14926KSTC STC20060615004509806/15/06 00:45:31  5-MIN KSTC 150645Z AUTO 11006KT 9SM CLR 19/17 A2992 1030 87 1800 100/06 RMK AO2
14926KSTC STC20060615005011506/15/06 00:50:31  5-MIN KSTC 150650Z AUTO 11007KT 9SM CLR 19/17 A2991 1030 87 1800 110/07 RMK AO2 SLP133 T01890167
14926KSTC STC20060615005509806/15/06 00:55:31  5-MIN KSTC 150655Z AUTO 12007KT 8SM CLR 19/17 A2992 1030 87 1800 110/07 RMK AO2
14926KSTC STC20060615010009806/15/06 01:00:31  5-MIN KSTC 150700Z AUTO 12006KT 8SM CLR 19/17 A2993 1020 90 1800 110/06 RMK AO2
14926KSTC STC20060615010509806/15/06 01:05:31  5-MIN KSTC 150705Z AUTO 11005KT 8SM CLR 19/17 A2993 1010 90 1700 110/05 RMK AO2
14926KSTC STC20060615011010506/15/06 01:10:31  5-MIN KSTC 150710Z AUTO VRB05KT 8SM CLR 19/17 A2994 1010 90 1700 VRB/05 RMK AO2 PRESRR
14926KSTC STC20060615011509806/15/06 01:15:31  5-MIN KSTC 150715Z AUTO 12007KT 8SM CLR 19/17 A2994 1010 90 1700 110/07 RMK AO2
14926KSTC STC20060615012009806/15/06 01:20:31  5-MIN KSTC 150720Z AUTO 10007KT 8SM CLR 19/17 A2993 1020 90 1800 100/07 RMK AO2
14926KSTC STC20060615012509806/15/06 01:25:31  5-MIN KSTC 150725Z AUTO 10008KT 7SM CLR 19/17 A2992 1030 90 1800 090/08 RMK AO2
14926KSTC STC20060615013009806/15/06 01:30:31  5-MIN KSTC 150730Z AUTO 10009KT 7SM CLR 19/17 A2992 1030 90 1800 090/09 RMK AO2
14926KSTC STC20060615013509806/15/06 01:35:31  5-MIN KSTC 150735Z AUTO 10008KT 7SM CLR 19/17 A2992 1030 90 1800 090/08 RMK AO2
14926KSTC STC20060615014009806/15/06 01:40:31  5-MIN KSTC 150740Z AUTO 10006KT 7SM CLR 19/17 A2992 1020 90 1800 100/06 RMK AO2
14926KSTC STC20060615014509806/15/06 01:45:31  5-MIN KSTC 150745Z AUTO 10007KT 7SM CLR 19/17 A2991 1030 90 1800 100/07 RMK AO2
14926KSTC STC20060615015011506/15/06 01:50:31  5-MIN KSTC 150750Z AUTO 10007KT 7SM CLR 19/17 A2991 1030 90 1800 100/07 RMK AO2 SLP133 T01890172
14926KSTC STC20060615015510106/15/06 01:55:31  5-MIN KSTC 150755Z AUTO 11007KT 7SM FEW110 19/17 A2992 1030 90 1800 100/07 RMK AO2
14926KSTC STC20060615020010106/15/06 02:00:31  5-MIN KSTC 150800Z AUTO 11008KT 7SM SCT110 19/17 A2991 1030 90 1800 100/08 RMK AO2
14926KSTC STC20060615020511006/15/06 02:05:31  5-MIN KSTC 150805Z AUTO 10007KT 7SM TS SCT110 19/17 A2991 1030 90 1800 100/07 RMK AO2 TSB03
14926KSTC STC20060615021011006/15/06 02:10:31  5-MIN KSTC 150810Z AUTO 11009KT 7SM TS SCT110 19/17 A2991 1040 90 1800 110/09 RMK AO2 TSB03
14926KSTC STC20060615021511006/15/06 02:15:31  5-MIN KSTC 150815Z AUTO 12008KT 7SM TS BKN110 19/17 A2991 1040 90 1800 120/08 RMK AO2 TSB03
14926KSTC STC20060615022012706/15/06 02:20:31  5-MIN KSTC 150820Z AUTO 11009KT 6SM -TSRA BR BKN110 19/17 A2990 1040 90 1800 100/09 RMK AO2 TSB03RAB16 P0000
14926KSTC STC20060615022512706/15/06 02:25:31  5-MIN KSTC 150825Z AUTO 11009KT 6SM -TSRA BR BKN110 19/17 A2990 1050 90 1800 110/09 RMK AO2 TSB03RAB16 P0001
14926KSTC STC20060615023012706/15/06 02:30:31  5-MIN KSTC 150830Z AUTO 11010KT 6SM -TSRA BR BKN110 18/17 A2990 1050 93 1700 110/10 RMK AO2 TSB03RAB16 P0001
14926KSTC STC20060615023512406/15/06 02:35:31  5-MIN KSTC 150835Z AUTO 10008KT 7SM -TSRA OVC110 18/17 A2990 1050 93 1700 100/08 RMK AO2 TSB03RAB16 P0001
14926KSTC STC20060615024012406/15/06 02:40:31  5-MIN KSTC 150840Z AUTO 10008KT 7SM TS BKN110 18/17 A2990 1050 93 1700 100/08 RMK AO2 TSB03RAB16E37 P0001
14926KSTC STC20060615024512706/15/06 02:45:31  5-MIN KSTC 150845Z AUTO 11008KT 6SM TS BR BKN110 18/17 A2990 1050 93 1700 110/08 RMK AO2 TSB03RAB16E37 P0001
14926KSTC STC20060615025016206/15/06 02:50:31  5-MIN KSTC 150850Z AUTO 11009KT 6SM TS BR SCT110 18/17 A2989 1050 93 1700 110/09 RMK AO2 TSB03E46B50RAB16E37 SLP127 P0001 60001 T01830172 50002
14926KSTC STC20060615025510706/15/06 02:55:31  5-MIN KSTC 150855Z AUTO 11008KT 6SM TS BR SCT110 18/17 A2989 1050 93 1700 110/08 RMK AO2
14926KSTC STC20060615030010706/15/06 03:00:31  5-MIN KSTC 150900Z AUTO 12008KT 6SM TS BR FEW110 18/17 A2990 1050 93 1700 120/08 RMK AO2
14926KSTC STC20060615030510406/15/06 03:05:31  5-MIN KSTC 150905Z AUTO 12009KT 6SM TS BR CLR 18/17 A2990 1050 93 1700 120/09 RMK AO2
14926KSTC STC20060615031010706/15/06 03:10:31  5-MIN KSTC 150910Z AUTO 12008KT 6SM BR CLR 18/17 A2990 1050 93 1700 120/08 RMK AO2 TSE06
14926KSTC STC20060615031511006/15/06 03:15:31  5-MIN KSTC 150915Z AUTO 12007KT 6SM BR SCT110 18/17 A2990 1050 93 1700 120/07 RMK AO2 TSE06
14926KSTC STC20060615032011006/15/06 03:20:31  5-MIN KSTC 150920Z AUTO 12007KT 6SM BR BKN110 18/17 A2990 1050 93 1700 120/07 RMK AO2 TSE06
14926KSTC STC20060615032511006/15/06 03:25:31  5-MIN KSTC 150925Z AUTO 12008KT 6SM BR BKN110 18/17 A2990 1050 93 1700 110/08 RMK AO2 TSE06
14926KSTC STC20060615033011006/15/06 03:30:31  5-MIN KSTC 150930Z AUTO 11008KT 6SM BR BKN110 18/17 A2990 1050 93 1700 110/08 RMK AO2 TSE06
14926KSTC STC20060615033511006/15/06 03:35:31  5-MIN KSTC 150935Z AUTO 12007KT 6SM BR OVC110 18/17 A2990 1040 93 1700 120/07 RMK AO2 TSE06
14926KSTC STC20060615034011006/15/06 03:40:31  5-MIN KSTC 150940Z AUTO 12008KT 6SM BR OVC110 18/17 A2990 1050 93 1700 120/08 RMK AO2 TSE06
14926KSTC STC20060615034511006/15/06 03:45:31  5-MIN KSTC 150945Z AUTO 12008KT 6SM BR OVC110 18/17 A2990 1050 93 1700 120/08 RMK AO2 TSE06
14926KSTC STC20060615035012706/15/06 03:50:31  5-MIN KSTC 150950Z AUTO 12008KT 6SM BR OVC110 18/17 A2990 1050 93 1700 120/08 RMK AO2 TSE06 SLP127 T01830172
14926KSTC STC20060615035510406/15/06 03:55:31  5-MIN KSTC 150955Z AUTO 12007KT 6SM BR OVC110 18/17 A2990 1050 93 1700 120/07 RMK AO2
14926KSTC STC20060615040010406/15/06 04:00:31  5-MIN KSTC 151000Z AUTO 11006KT 6SM BR OVC110 18/17 A2990 1050 93 1700 110/06 RMK AO2
14926KSTC STC20060615040510406/15/06 04:05:31  5-MIN KSTC 151005Z AUTO 11008KT 6SM BR BKN110 18/17 A2989 1050 96 1700 110/08 RMK AO2
14926KSTC STC20060615041010406/15/06 04:10:31  5-MIN KSTC 151010Z AUTO 11008KT 5SM BR BKN110 18/17 A2989 1060 90 1700 100/08 RMK AO2
14926KSTC STC20060615041510406/15/06 04:15:31  5-MIN KSTC 151015Z AUTO 11008KT 4SM BR BKN110 18/17 A2989 1060 90 1700 100/08 RMK AO2
14926KSTC STC20060615042010406/15/06 04:20:31  5-MIN KSTC 151020Z AUTO 11008KT 4SM BR OVC110 18/17 A2989 1050 90 1700 100/08 RMK AO2
14926KSTC STC20060615042510406/15/06 04:25:31  5-MIN KSTC 151025Z AUTO 11007KT 4SM BR OVC110 18/17 A2990 1040 90 1700 110/07 RMK AO2
14926KSTC STC20060615043010406/15/06 04:30:31  5-MIN KSTC 151030Z AUTO 11007KT 4SM BR OVC110 18/17 A2990 1040 90 1700 110/07 RMK AO2
14926KSTC STC20060615043510406/15/06 04:35:31  5-MIN KSTC 151035Z AUTO 11006KT 4SM BR OVC120 18/17 A2990 1040 93 1700 100/06 RMK AO2
14926KSTC STC20060615044010406/15/06 04:40:31  5-MIN KSTC 151040Z AUTO 11006KT 4SM BR OVC120 18/17 A2991 1030 90 1700 110/06 RMK AO2
14926KSTC STC20060615044510406/15/06 04:45:31  5-MIN KSTC 151045Z AUTO 12006KT 5SM BR OVC120 18/17 A2992 1030 90 1700 110/06 RMK AO2
14926KSTC STC20060615045012806/15/06 04:50:31  5-MIN KSTC 151050Z AUTO 11005KT 5SM BR OVC120 18/17 A2993 1020 90 1700 110/05 RMK AO2 PRESRR SLP138 T01830167
14926KSTC STC20060615045511106/15/06 04:55:31  5-MIN KSTC 151055Z AUTO 14005KT 5SM BR OVC120 18/17 A2994 1000 90 1700 140/05 RMK AO2 PRESRR
14926KSTC STC20060615050011806/15/06 05:00:31  5-MIN KSTC 151100Z AUTO 14004KT 5SM BR FEW011 BKN120 18/17 A2995 1000 93 1700 140/04 RMK AO2 PRESRR
14926KSTC STC20060615050512006/15/06 05:05:31  5-MIN KSTC 151105Z AUTO 14004KT 5SM TS BR FEW011 BKN120 18/17 A2995 1000 93 1700 140/04 RMK AO2 TSB03
14926KSTC STC20060615051012706/15/06 05:10:31  5-MIN KSTC 151110Z AUTO 14005KT 5SM TS BR SCT015 SCT022 BKN120 18/17 A2995 1000 90 1700 140/05 RMK AO2 TSB03
14926KSTC STC20060615051512006/15/06 05:15:31  5-MIN KSTC 151115Z AUTO 14005KT 4SM TS BR BKN015 BKN120 18/17 A2995 1000 93 1700 130/05 RMK AO2 TSB03
14926KSTC STC20060615052012006/15/06 05:20:31  5-MIN KSTC 151120Z AUTO 14006KT 4SM TS BR BKN013 BKN120 18/17 A2995 1000 90 1700 140/06 RMK AO2 TSB03
14926KSTC STC20060615052511306/15/06 05:25:31  5-MIN KSTC 151125Z AUTO 15006KT 4SM BR BKN013 18/17 A2995 1000 90 1700 140/06 RMK AO2 TSB03E25
14926KSTC STC20060615053011306/15/06 05:30:31  5-MIN KSTC 151130Z AUTO 15006KT 4SM BR BKN015 18/17 A2995 1000 93 1700 140/06 RMK AO2 TSB03E25
14926KSTC STC20060615053511306/15/06 05:35:31  5-MIN KSTC 151135Z AUTO 13005KT 4SM BR SCT015 18/17 A2995 1000 93 1700 130/05 RMK AO2 TSB03E25
14926KSTC STC20060615054011306/15/06 05:40:31  5-MIN KSTC 151140Z AUTO 12006KT 5SM BR SCT013 18/17 A2994 1010 90 1700 120/06 RMK AO2 TSB03E25
14926KSTC STC20060615054511306/15/06 05:45:31  5-MIN KSTC 151145Z AUTO 12006KT 5SM BR FEW013 18/17 A2994 1010 90 1700 120/06 RMK AO2 TSB03E25
14926KSTC STC20060615055015706/15/06 05:50:31  5-MIN KSTC 151150Z AUTO 11008KT 5SM BR CLR 18/17 A2993 1010 90 1700 110/08 RMK AO2 TSB03E25 SLP139 60001 70001 T01830167 10194 20178 57014
14926KSTC STC20060615055509606/15/06 05:55:31  5-MIN KSTC 151155Z 12007KT 6SM BR CLR 18/17 A2993 1020 90 1700 110/07 RMK AO2
14926KSTC STC20060615142509406/15/06 14:25:31  5-MIN KSTC 152025Z 15014KT 10SM CLR 29/15 A2980 1130 41 3100 150/14 RMK AO2
14926KSTC STC20060615143009406/15/06 14:30:31  5-MIN KSTC 152030Z 13012KT 10SM CLR 29/15 A2981 1130 41 3100 130/12 RMK AO2
14926KSTC STC20060615143509406/15/06 14:35:31  5-MIN KSTC 152035Z 13011KT 10SM CLR 29/15 A2980 1140 41 3100 130/11 RMK AO2
14926KSTC STC20060615144010006/15/06 14:40:31  5-MIN KSTC 152040Z 15017G23KT 10SM CLR 30/15 A2980 1140 39 3100 140/17G23 RMK AO2
14926KSTC STC20060615144510006/15/06 14:45:31  5-MIN KSTC 152045Z 14016G23KT 10SM CLR 30/14 A2980 1140 38 3100 130/16G23 RMK AO2
14926KSTC STC20060615145012306/15/06 14:50:31  5-MIN KSTC 152050Z 14016G21KT 10SM CLR 30/14 A2980 1140 38 3200 140/16G21 RMK AO2 SLP092 T03000144 58014
14926KSTC STC20060615145510806/15/06 14:55:31  5-MIN KSTC 152055Z AUTO 13016G21KT 10SM FEW110 30/14 A2980 1140 38 3200 130/16G21 RMK AO2
14926KSTC STC20060615150010206/15/06 15:00:31  5-MIN KSTC 152100Z AUTO 15016KT 10SM FEW110 30/15 A2979 1140 39 3200 140/16 RMK AO2
14926KSTC STC20060615150509906/15/06 15:05:31  5-MIN KSTC 152105Z AUTO 14015KT 10SM CLR 30/14 A2979 1150 38 3200 130/15 RMK AO2
14926KSTC STC20060615151009906/15/06 15:10:31  5-MIN KSTC 152110Z AUTO 15017KT 10SM CLR 30/15 A2979 1150 39 3200 140/17 RMK AO2
14926KSTC STC20060615151510506/15/06 15:15:31  5-MIN KSTC 152115Z AUTO 14015G21KT 10SM CLR 30/15 A2979 1150 39 3200 130/15G21 RMK AO2
14926KSTC STC20060615152009906/15/06 15:20:31  5-MIN KSTC 152120Z AUTO 14015KT 10SM CLR 29/15 A2979 1150 41 3100 130/15 RMK AO2
14926KSTC STC20060615152510506/15/06 15:25:31  5-MIN KSTC 152125Z AUTO 14018G21KT 10SM CLR 30/15 A2978 1150 39 3200 130/18G21 RMK AO2
14926KSTC STC20060615153009906/15/06 15:30:31  5-MIN KSTC 152130Z AUTO 14017KT 10SM CLR 30/15 A2978 1150 39 3200 130/17 RMK AO2
14926KSTC STC20060615153510506/15/06 15:35:31  5-MIN KSTC 152135Z AUTO 14015G22KT 10SM CLR 30/15 A2978 1160 39 3200 140/15G22 RMK AO2
14926KSTC STC20060615154009906/15/06 15:40:31  5-MIN KSTC 152140Z AUTO 16018KT 10SM CLR 30/15 A2978 1160 39 3200 150/18 RMK AO2
14926KSTC STC20060615154509906/15/06 15:45:31  5-MIN KSTC 152145Z AUTO 14015KT 10SM CLR 30/16 A2978 1160 41 3200 130/15 RMK AO2
14926KSTC STC20060615155011606/15/06 15:50:31  5-MIN KSTC 152150Z AUTO 15017KT 10SM CLR 30/16 A2978 1160 41 3200 140/17 RMK AO2 SLP085 T03000156
14926KSTC STC20060615155510506/15/06 15:55:31  5-MIN KSTC 152155Z AUTO 14015G20KT 10SM CLR 29/16 A2977 1160 42 3100 140/15G20 RMK AO2
14926KSTC STC20060615160010506/15/06 16:00:31  5-MIN KSTC 152200Z AUTO 13015G20KT 10SM CLR 30/16 A2977 1160 41 3200 130/15G20 RMK AO2
14926KSTC STC20060615160510506/15/06 16:05:31  5-MIN KSTC 152205Z AUTO 15018G23KT 10SM CLR 29/16 A2977 1160 42 3100 150/18G23 RMK AO2
14926KSTC STC20060615161010506/15/06 16:10:31  5-MIN KSTC 152210Z AUTO 14013G23KT 10SM CLR 29/16 A2977 1160 44 3100 140/13G23 RMK AO2
14926KSTC STC20060615161509906/15/06 16:15:31  5-MIN KSTC 152215Z AUTO 14017KT 10SM CLR 29/16 A2977 1160 42 3100 140/17 RMK AO2
14926KSTC STC20060615162009406/15/06 16:20:31  5-MIN KSTC 152220Z 15017KT 10SM CLR 30/16 A2977 1160 42 3200 140/17 RMK AO2
14926KSTC STC20060615162509406/15/06 16:25:31  5-MIN KSTC 152225Z 14014KT 10SM CLR 30/16 A2977 1160 42 3200 140/14 RMK AO2
14926KSTC STC20060615163009406/15/06 16:30:31  5-MIN KSTC 152230Z 15016KT 10SM CLR 30/16 A2977 1170 42 3200 150/16 RMK AO2
14926KSTC STC20060615163509406/15/06 16:35:31  5-MIN KSTC 152235Z 14016KT 10SM CLR 30/16 A2977 1170 42 3200 140/16 RMK AO2
14926KSTC STC20060615164009406/15/06 16:40:31  5-MIN KSTC 152240Z 15015KT 10SM CLR 29/16 A2977 1170 44 3100 140/15 RMK AO2
14926KSTC STC20060615164509406/15/06 16:45:31  5-MIN KSTC 152245Z 13015KT 10SM CLR 29/16 A2977 1170 44 3100 130/15 RMK AO2
14926KSTC STC20060615165011706/15/06 16:50:31  5-MIN KSTC 152250Z 14016G22KT 10SM CLR 29/16 A2977 1170 42 3100 140/16G22 RMK AO2 SLP081 T02940156
14926KSTC STC20060615165510006/15/06 16:55:31  5-MIN KSTC 152255Z 15018G23KT 10SM CLR 29/16 A2977 1170 44 3100 150/18G23 RMK AO2
14926KSTC STC20060615170010006/15/06 17:00:31  5-MIN KSTC 152300Z 15019G23KT 10SM CLR 29/16 A2977 1170 42 3100 150/19G23 RMK AO2
14926KSTC STC20060615170510006/15/06 17:05:31  5-MIN KSTC 152305Z 15014G22KT 10SM CLR 29/16 A2977 1170 42 3100 140/14G22 RMK AO2
14926KSTC STC20060615171009406/15/06 17:10:31  5-MIN KSTC 152310Z 15014KT 10SM CLR 29/17 A2977 1170 45 3100 150/14 RMK AO2
14926KSTC STC20060615171509406/15/06 17:15:31  5-MIN KSTC 152315Z 14014KT 10SM CLR 29/17 A2976 1170 47 3100 140/14 RMK AO2
14926KSTC STC20060615172009406/15/06 17:20:31  5-MIN KSTC 152320Z 15016KT 10SM CLR 29/17 A2977 1170 47 3100 140/16 RMK AO2
14926KSTC STC20060615172510006/15/06 17:25:31  5-MIN KSTC 152325Z 15016G21KT 10SM CLR 29/17 A2976 1170 47 3100 150/16G21 RMK AO2
14926KSTC STC20060615173010006/15/06 17:30:31  5-MIN KSTC 152330Z 15018G25KT 10SM CLR 29/16 A2976 1170 44 3100 150/18G25 RMK AO2
14926KSTC STC20060615173510006/15/06 17:35:31  5-MIN KSTC 152335Z 16015G25KT 10SM CLR 29/16 A2976 1170 44 3100 150/15G25 RMK AO2
14926KSTC STC20060615174010006/15/06 17:40:31  5-MIN KSTC 152340Z 15015G20KT 10SM CLR 29/16 A2976 1170 45 3100 140/15G20 RMK AO2
14926KSTC STC20060615174510006/15/06 17:45:31  5-MIN KSTC 152345Z 15014G22KT 10SM CLR 28/16 A2976 1170 47 3000 150/14G22 RMK AO2
14926KSTC STC20060615175012906/15/06 17:50:31  5-MIN KSTC 152350Z 15017KT 10SM CLR 28/16 A2976 1170 47 3000 140/17 RMK AO2 SLP081 T02830161 10300 20261 56016
14926KSTC STC20060615175510006/15/06 17:55:31  5-MIN KSTC 152355Z 15015G22KT 10SM CLR 28/16 A2976 1170 47 3000 140/15G22 RMK AO2
14926KSTC STC20060615180010006/15/06 18:00:31  5-MIN KSTC 160000Z 15020G23KT 10SM CLR 28/16 A2976 1170 47 3000 140/20G23 RMK AO2
14926KSTC STC20060615180510006/15/06 18:05:31  5-MIN KSTC 160005Z 15018G23KT 10SM CLR 28/16 A2976 1170 47 3000 150/18G23 RMK AO2
14926KSTC STC20060615181009406/15/06 18:10:31  5-MIN KSTC 160010Z 15018KT 10SM CLR 28/16 A2976 1170 48 2900 150/18 RMK AO2
14926KSTC STC20060615181509406/15/06 18:15:31  5-MIN KSTC 160015Z 15015KT 10SM CLR 28/17 A2977 1170 50 2900 140/15 RMK AO2
14926KSTC STC20060615182009406/15/06 18:20:31  5-MIN KSTC 160020Z 15012KT 10SM CLR 28/16 A2977 1170 48 2900 140/12 RMK AO2
14926KSTC STC20060615182510306/15/06 18:25:31  5-MIN KSTC 160025Z 16015G20KT 10SM FEW070 27/16 A2977 1160 50 2900 150/15G20 RMK AO2
14926KSTC STC20060615183010306/15/06 18:30:31  5-MIN KSTC 160030Z 16014G20KT 10SM SCT070 27/16 A2977 1160 50 2900 160/14G20 RMK AO2
14926KSTC STC20060615183509706/15/06 18:35:31  5-MIN KSTC 160035Z 15013KT 10SM SCT070 27/16 A2977 1170 50 2900 150/13 RMK AO2
14926KSTC STC20060615184009706/15/06 18:40:31  5-MIN KSTC 160040Z 15014KT 10SM SCT070 27/17 A2977 1160 53 2800 150/14 RMK AO2
14926KSTC STC20060615184509706/15/06 18:45:31  5-MIN KSTC 160045Z 16013KT 10SM BKN070 27/17 A2977 1160 52 2900 160/13 RMK AO2
14926KSTC STC20060615185011406/15/06 18:50:31  5-MIN KSTC 160050Z 16012KT 10SM BKN070 27/17 A2977 1160 52 2900 150/12 RMK AO2 SLP085 T02720167
14926KSTC STC20060615185509706/15/06 18:55:31  5-MIN KSTC 160055Z 16012KT 10SM BKN070 27/17 A2977 1160 52 2900 160/12 RMK AO2
14926KSTC STC20060615190010306/15/06 19:00:31  5-MIN KSTC 160100Z 17016G20KT 10SM BKN070 27/16 A2977 1160 48 2900 160/16G20 RMK AO2
14926KSTC STC20060615190510306/15/06 19:05:31  5-MIN KSTC 160105Z 18012G20KT 10SM BKN070 27/14 A2977 1160 45 2900 170/12G20 RMK AO2
14926KSTC STC20060615191010306/15/06 19:10:31  5-MIN KSTC 160110Z 18011G20KT 10SM BKN065 27/14 A2977 1160 45 2900 170/11G20 RMK AO2
14926KSTC STC20060615191510306/15/06 19:15:31  5-MIN KSTC 160115Z 18013G20KT 10SM BKN065 27/14 A2977 1160 46 2800 170/13G20 RMK AO2
14926KSTC STC20060615192009706/15/06 19:20:31  5-MIN KSTC 160120Z 18010KT 10SM BKN065 27/14 A2978 1160 46 2800 170/10 RMK AO2
14926KSTC STC20060615192509706/15/06 19:25:31  5-MIN KSTC 160125Z 17013KT 10SM SCT065 26/14 A2978 1160 48 2700 170/13 RMK AO2
14926KSTC STC20060615193009706/15/06 19:30:31  5-MIN KSTC 160130Z 18012KT 10SM SCT065 27/14 A2978 1160 46 2800 170/12 RMK AO2
14926KSTC STC20060615193509706/15/06 19:35:31  5-MIN KSTC 160135Z 17012KT 10SM FEW065 26/14 A2978 1160 48 2700 170/12 RMK AO2
14926KSTC STC20060615194010006/15/06 19:40:31  5-MIN KSTC 160140Z 17016G20KT 10SM CLR 26/14 A2978 1160 48 2700 170/16G20 RMK AO2
14926KSTC STC20060615194510306/15/06 19:45:31  5-MIN KSTC 160145Z 18011G20KT 10SM FEW065 26/14 A2978 1160 48 2700 170/11G20 RMK AO2
14926KSTC STC20060615195011406/15/06 19:50:31  5-MIN KSTC 160150Z 17012KT 10SM FEW065 26/15 A2977 1160 51 2700 170/12 RMK AO2 SLP085 T02560150
14926KSTC STC20060615195509406/15/06 19:55:31  5-MIN KSTC 160155Z 17012KT 10SM CLR 26/15 A2977 1160 51 2700 170/12 RMK AO2
14926KSTC STC20060615200009406/15/06 20:00:31  5-MIN KSTC 160200Z 17011KT 10SM CLR 26/15 A2977 1160 51 2700 170/11 RMK AO2
14926KSTC STC20060615200509406/15/06 20:05:31  5-MIN KSTC 160205Z 16011KT 10SM CLR 26/15 A2977 1160 51 2700 160/11 RMK AO2
14926KSTC STC20060615201009406/15/06 20:10:31  5-MIN KSTC 160210Z 16012KT 10SM CLR 25/15 A2977 1160 53 2600 160/12 RMK AO2
14926KSTC STC20060615201509406/15/06 20:15:31  5-MIN KSTC 160215Z 16010KT 10SM CLR 25/15 A2977 1160 53 2600 160/10 RMK AO2
14926KSTC STC20060615202009406/15/06 20:20:31  5-MIN KSTC 160220Z 16011KT 10SM CLR 25/16 A2978 1160 55 2600 150/11 RMK AO2
14926KSTC STC20060615202509406/15/06 20:25:31  5-MIN KSTC 160225Z 16011KT 10SM CLR 25/16 A2978 1160 55 2600 160/11 RMK AO2
14926KSTC STC20060615203009406/15/06 20:30:31  5-MIN KSTC 160230Z 15009KT 10SM CLR 24/16 A2978 1160 59 2600 150/09 RMK AO2
14926KSTC STC20060615203509406/15/06 20:35:31  5-MIN KSTC 160235Z 15010KT 10SM CLR 24/16 A2978 1160 61 2500 150/10 RMK AO2
14926KSTC STC20060615204009406/15/06 20:40:31  5-MIN KSTC 160240Z 15009KT 10SM CLR 24/17 A2978 1150 63 2500 150/09 RMK AO2
14926KSTC STC20060615204509406/15/06 20:45:31  5-MIN KSTC 160245Z 16010KT 10SM CLR 24/17 A2979 1150 63 2500 150/10 RMK AO2
14926KSTC STC20060615205011706/15/06 20:50:31  5-MIN KSTC 160250Z 16010KT 10SM CLR 24/17 A2979 1150 61 2500 160/10 RMK AO2 SLP090 T02440167 56011
14926KSTC STC20060615205510006/15/06 20:55:31  5-MIN KSTC 160255Z 16013G17KT 10SM CLR 24/17 A2979 1150 63 2500 160/13G17 RMK AO2
14926KSTC STC20060615210010006/15/06 21:00:31  5-MIN KSTC 160300Z 16014G17KT 10SM CLR 24/17 A2979 1150 63 2500 160/14G17 RMK AO2
14926KSTC STC20060615210509406/15/06 21:05:31  5-MIN KSTC 160305Z 16013KT 10SM CLR 24/17 A2979 1150 63 2500 160/13 RMK AO2
14926KSTC STC20060615211009406/15/06 21:10:31  5-MIN KSTC 160310Z 16011KT 10SM CLR 24/17 A2979 1150 66 2500 160/11 RMK AO2
14926KSTC STC20060615211509406/15/06 21:15:31  5-MIN KSTC 160315Z 16013KT 10SM CLR 24/17 A2978 1150 66 2500 160/13 RMK AO2
14926KSTC STC20060615212009406/15/06 21:20:31  5-MIN KSTC 160320Z 16012KT 10SM CLR 24/17 A2979 1150 66 2500 160/12 RMK AO2
14926KSTC STC20060615212509406/15/06 21:25:31  5-MIN KSTC 160325Z 16013KT 10SM CLR 24/17 A2978 1150 66 2500 160/13 RMK AO2
14926KSTC STC20060615213009406/15/06 21:30:31  5-MIN KSTC 160330Z 16013KT 10SM CLR 24/17 A2978 1150 66 2500 160/13 RMK AO2
14926KSTC STC20060615213509406/15/06 21:35:31  5-MIN KSTC 160335Z 16012KT 10SM CLR 24/17 A2978 1150 66 2500 150/12 RMK AO2
14926KSTC STC20060615214009406/15/06 21:40:31  5-MIN KSTC 160340Z 16013KT 10SM CLR 24/17 A2978 1150 66 2500 160/13 RMK AO2
14926KSTC STC20060615214509406/15/06 21:45:31  5-MIN KSTC 160345Z 16012KT 10SM CLR 24/17 A2978 1150 66 2500 160/12 RMK AO2
14926KSTC STC20060615215011606/15/06 21:50:31  5-MIN KSTC 160350Z AUTO 15014KT 10SM CLR 24/17 A2978 1160 66 2500 150/14 RMK AO2 SLP087 T02390172
14926KSTC STC20060615215509906/15/06 21:55:31  5-MIN KSTC 160355Z AUTO 16013KT 10SM CLR 23/17 A2978 1160 68 2400 150/13 RMK AO2
14926KSTC STC20060615220009906/15/06 22:00:31  5-MIN KSTC 160400Z AUTO 16013KT 10SM CLR 23/18 A2978 1160 70 2400 150/13 RMK AO2
14926KSTC STC20060615220509906/15/06 22:05:31  5-MIN KSTC 160405Z AUTO 16012KT 10SM CLR 23/18 A2978 1150 70 2400 150/12 RMK AO2
14926KSTC STC20060615221009906/15/06 22:10:31  5-MIN KSTC 160410Z AUTO 16012KT 10SM CLR 23/18 A2979 1150 70 2400 150/12 RMK AO2
14926KSTC STC20060615221509906/15/06 22:15:31  5-MIN KSTC 160415Z AUTO 16012KT 10SM CLR 23/18 A2979 1150 70 2400 150/12 RMK AO2
14926KSTC STC20060615222009906/15/06 22:20:31  5-MIN KSTC 160420Z AUTO 15012KT 10SM CLR 23/18 A2979 1150 70 2400 150/12 RMK AO2
14926KSTC STC20060615222509906/15/06 22:25:31  5-MIN KSTC 160425Z AUTO 15012KT 10SM CLR 23/18 A2979 1150 70 2400 150/12 RMK AO2
14926KSTC STC20060615223009906/15/06 22:30:31  5-MIN KSTC 160430Z AUTO 16011KT 10SM CLR 23/18 A2979 1150 73 2400 150/11 RMK AO2
14926KSTC STC20060615223509906/15/06 22:35:31  5-MIN KSTC 160435Z AUTO 16011KT 10SM CLR 23/18 A2979 1150 73 2400 150/11 RMK AO2
14926KSTC STC20060615224009906/15/06 22:40:31  5-MIN KSTC 160440Z AUTO 16013KT 10SM CLR 23/18 A2979 1150 73 2400 160/13 RMK AO2
14926KSTC STC20060615224509906/15/06 22:45:31  5-MIN KSTC 160445Z AUTO 16010KT 10SM CLR 23/18 A2979 1150 73 2300 150/10 RMK AO2
14926KSTC STC20060615225011606/15/06 22:50:31  5-MIN KSTC 160450Z AUTO 15011KT 10SM CLR 23/18 A2979 1150 73 2400 150/11 RMK AO2 SLP090 T02280178
14926KSTC STC20060615225509906/15/06 22:55:31  5-MIN KSTC 160455Z AUTO 16012KT 10SM CLR 23/18 A2979 1150 73 2400 150/12 RMK AO2
14926KSTC STC20060615230009906/15/06 23:00:31  5-MIN KSTC 160500Z AUTO 16010KT 10SM CLR 23/18 A2978 1160 73 2400 160/10 RMK AO2
14926KSTC STC20060615230509906/15/06 23:05:31  5-MIN KSTC 160505Z AUTO 15013KT 10SM CLR 23/18 A2978 1160 73 2400 150/13 RMK AO2
14926KSTC STC20060615231009906/15/06 23:10:31  5-MIN KSTC 160510Z AUTO 15011KT 10SM CLR 23/18 A2977 1160 73 2400 150/11 RMK AO2
14926KSTC STC20060615231510206/15/06 23:15:31  5-MIN KSTC 160515Z AUTO 15011KT 10SM FEW090 23/18 A2977 1170 73 2400 150/11 RMK AO2
14926KSTC STC20060615232010106/15/06 23:20:31  5-MIN KSTC 160520Z AUTO 15009KT 9SM SCT090 23/18 A2977 1170 73 2400 150/09 RMK AO2
14926KSTC STC20060615232510106/15/06 23:25:31  5-MIN KSTC 160525Z AUTO 16012KT 9SM BKN090 23/18 A2977 1170 73 2400 150/12 RMK AO2
14926KSTC STC20060615233010206/15/06 23:30:31  5-MIN KSTC 160530Z AUTO 15010KT 10SM BKN090 23/18 A2977 1170 73 2400 150/10 RMK AO2
14926KSTC STC20060615233510206/15/06 23:35:31  5-MIN KSTC 160535Z AUTO 15011KT 10SM BKN090 23/18 A2976 1170 73 2400 150/11 RMK AO2
14926KSTC STC20060615234010206/15/06 23:40:31  5-MIN KSTC 160540Z AUTO 15012KT 10SM OVC090 23/18 A2976 1170 70 2400 150/12 RMK AO2
14926KSTC STC20060615234510206/15/06 23:45:31  5-MIN KSTC 160545Z AUTO 16012KT 10SM OVC090 23/18 A2976 1170 70 2400 160/12 RMK AO2
14926KSTC STC20060615235014706/15/06 23:50:31  5-MIN KSTC 160550Z AUTO 16011KT 10SM OVC090 23/18 A2976 1170 70 2400 160/11 RMK AO2 SLP080 T02330178 10283 20228 403000178 53008
14926KSTC STC20060615235510206/15/06 23:55:31  5-MIN KSTC 160555Z AUTO 16010KT 10SM OVC090 23/18 A2976 1170 70 2400 160/10 RMK AO2
14926KSTC STC20060616000010206/16/06 00:00:32  5-MIN KSTC 160600Z AUTO 16010KT 10SM BKN095 23/18 A2976 1180 70 2400 160/10 RMK AO2
14926KSTC STC20060616000510206/16/06 00:05:31  5-MIN KSTC 160605Z AUTO 17011KT 10SM BKN095 23/18 A2976 1180 70 2500 160/11 RMK AO2
14926KSTC STC20060616001010206/16/06 00:10:31  5-MIN KSTC 160610Z AUTO 16012KT 10SM SCT095 23/18 A2976 1180 70 2500 160/12 RMK AO2
14926KSTC STC20060616001510206/16/06 00:15:31  5-MIN KSTC 160615Z AUTO 16010KT 10SM BKN095 23/18 A2976 1180 70 2400 160/10 RMK AO2
14926KSTC STC20060616002010206/16/06 00:20:31  5-MIN KSTC 160620Z AUTO 16010KT 10SM BKN095 23/18 A2976 1180 70 2500 150/10 RMK AO2
14926KSTC STC20060616002510206/16/06 00:25:31  5-MIN KSTC 160625Z AUTO 16011KT 10SM BKN095 23/18 A2975 1180 70 2500 160/11 RMK AO2
14926KSTC STC20060616003010206/16/06 00:30:31  5-MIN KSTC 160630Z AUTO 15010KT 10SM BKN090 23/18 A2975 1180 70 2500 150/10 RMK AO2
14926KSTC STC20060616003510206/16/06 00:35:31  5-MIN KSTC 160635Z AUTO 16011KT 10SM OVC095 23/18 A2975 1190 70 2500 160/11 RMK AO2
14926KSTC STC20060616004010206/16/06 00:40:31  5-MIN KSTC 160640Z AUTO 16010KT 10SM OVC090 23/17 A2975 1190 68 2500 160/10 RMK AO2
14926KSTC STC20060616004510206/16/06 00:45:31  5-MIN KSTC 160645Z AUTO 16010KT 10SM OVC095 23/17 A2975 1190 68 2500 160/10 RMK AO2
14926KSTC STC20060616005011906/16/06 00:50:31  5-MIN KSTC 160650Z AUTO 16010KT 10SM OVC095 23/17 A2975 1190 68 2500 150/10 RMK AO2 SLP074 T02330172
14926KSTC STC20060616005510206/16/06 00:55:31  5-MIN KSTC 160655Z AUTO 16011KT 10SM OVC100 23/17 A2975 1190 68 2500 150/11 RMK AO2
14926KSTC STC20060616010010206/16/06 01:00:31  5-MIN KSTC 160700Z AUTO 16011KT 10SM OVC100 23/17 A2975 1190 68 2500 150/11 RMK AO2
14926KSTC STC20060616010510206/16/06 01:05:31  5-MIN KSTC 160705Z AUTO 16011KT 10SM OVC100 23/17 A2975 1190 68 2500 150/11 RMK AO2
14926KSTC STC20060616011010206/16/06 01:10:31  5-MIN KSTC 160710Z AUTO 16010KT 10SM BKN100 23/17 A2974 1190 68 2500 160/10 RMK AO2
14926KSTC STC20060616011510206/16/06 01:15:31  5-MIN KSTC 160715Z AUTO 16010KT 10SM BKN100 23/17 A2974 1190 68 2500 160/10 RMK AO2
14926KSTC STC20060616012010206/16/06 01:20:31  5-MIN KSTC 160720Z AUTO 16011KT 10SM BKN100 23/17 A2974 1190 68 2500 160/11 RMK AO2
14926KSTC STC20060616012510206/16/06 01:25:31  5-MIN KSTC 160725Z AUTO 16010KT 10SM BKN100 23/17 A2974 1190 68 2500 160/10 RMK AO2
14926KSTC STC20060616013010206/16/06 01:30:31  5-MIN KSTC 160730Z AUTO 17009KT 10SM SCT100 23/17 A2974 1200 70 2400 160/09 RMK AO2
14926KSTC STC20060616013510206/16/06 01:35:31  5-MIN KSTC 160735Z AUTO 17009KT 10SM SCT100 23/17 A2974 1200 70 2400 160/09 RMK AO2
14926KSTC STC20060616014010206/16/06 01:40:31  5-MIN KSTC 160740Z AUTO 16009KT 10SM FEW095 23/17 A2974 1200 70 2400 160/09 RMK AO2
14926KSTC STC20060616014510206/16/06 01:45:31  5-MIN KSTC 160745Z AUTO 16010KT 10SM FEW100 23/17 A2974 1190 70 2400 160/10 RMK AO2
14926KSTC STC20060616015011606/16/06 01:50:31  5-MIN KSTC 160750Z AUTO 16010KT 10SM CLR 23/17 A2974 1190 70 2400 160/10 RMK AO2 SLP072 T02280172
14926KSTC STC20060616015509906/16/06 01:55:31  5-MIN KSTC 160755Z AUTO 16010KT 10SM CLR 23/17 A2974 1190 70 2400 160/10 RMK AO2
14926KSTC STC20060616020009906/16/06 02:00:31  5-MIN KSTC 160800Z AUTO 16009KT 10SM CLR 23/17 A2974 1200 70 2400 150/09 RMK AO2
14926KSTC STC20060616020509906/16/06 02:05:31  5-MIN KSTC 160805Z AUTO 16009KT 10SM CLR 23/17 A2974 1200 70 2400 150/09 RMK AO2
14926KSTC STC20060616021009906/16/06 02:10:31  5-MIN KSTC 160810Z AUTO 16009KT 10SM CLR 22/17 A2974 1190 73 2300 150/09 RMK AO2
14926KSTC STC20060616021509906/16/06 02:15:31  5-MIN KSTC 160815Z AUTO 16009KT 10SM CLR 22/17 A2974 1190 73 2300 160/09 RMK AO2
14926KSTC STC20060616022009906/16/06 02:20:31  5-MIN KSTC 160820Z AUTO 16008KT 10SM CLR 22/17 A2974 1190 73 2300 160/08 RMK AO2
14926KSTC STC20060616022509906/16/06 02:25:31  5-MIN KSTC 160825Z AUTO 16009KT 10SM CLR 22/17 A2974 1190 73 2300 160/09 RMK AO2
14926KSTC STC20060616023009906/16/06 02:30:31  5-MIN KSTC 160830Z AUTO 17010KT 10SM CLR 22/17 A2974 1190 73 2300 160/10 RMK AO2
14926KSTC STC20060616023509906/16/06 02:35:31  5-MIN KSTC 160835Z AUTO 16010KT 10SM CLR 22/17 A2974 1200 73 2300 160/10 RMK AO2
14926KSTC STC20060616024010206/16/06 02:40:31  5-MIN KSTC 160840Z AUTO 16010KT 10SM FEW110 22/17 A2974 1190 73 2300 160/10 RMK AO2
14926KSTC STC20060616024510206/16/06 02:45:31  5-MIN KSTC 160845Z AUTO 17009KT 10SM SCT110 23/17 A2974 1190 70 2400 170/09 RMK AO2
14926KSTC STC20060616025012506/16/06 02:50:31  5-MIN KSTC 160850Z AUTO 17011KT 10SM SCT110 23/17 A2974 1200 70 2400 160/11 RMK AO2 SLP069 T02280172 58008
14926KSTC STC20060616025510206/16/06 02:55:31  5-MIN KSTC 160855Z AUTO 17012KT 10SM SCT110 23/17 A2973 1200 70 2400 160/12 RMK AO2
14926KSTC STC20060616030010206/16/06 03:00:31  5-MIN KSTC 160900Z AUTO 16013KT 10SM SCT110 23/17 A2973 1200 70 2400 160/13 RMK AO2
14926KSTC STC20060616030510206/16/06 03:05:31  5-MIN KSTC 160905Z AUTO 17010KT 10SM SCT110 23/17 A2973 1200 70 2400 160/10 RMK AO2
14926KSTC STC20060616031010206/16/06 03:10:31  5-MIN KSTC 160910Z AUTO 17010KT 10SM FEW110 23/17 A2973 1200 70 2400 170/10 RMK AO2
14926KSTC STC20060616031510206/16/06 03:15:31  5-MIN KSTC 160915Z AUTO 16011KT 10SM FEW110 23/17 A2973 1200 70 2400 160/11 RMK AO2
14926KSTC STC20060616032010206/16/06 03:20:31  5-MIN KSTC 160920Z AUTO 17010KT 10SM FEW110 23/17 A2973 1200 70 2400 160/10 RMK AO2
14926KSTC STC20060616032509906/16/06 03:25:31  5-MIN KSTC 160925Z AUTO 17010KT 10SM CLR 22/17 A2973 1200 73 2400 160/10 RMK AO2
14926KSTC STC20060616033009806/16/06 03:30:31  5-MIN KSTC 160930Z AUTO 16010KT 9SM CLR 22/17 A2973 1210 73 2400 160/10 RMK AO2
14926KSTC STC20060616033509806/16/06 03:35:31  5-MIN KSTC 160935Z AUTO 17010KT 9SM CLR 22/17 A2973 1210 73 2400 160/10 RMK AO2
14926KSTC STC20060616034009806/16/06 03:40:31  5-MIN KSTC 160940Z AUTO 16009KT 9SM CLR 23/17 A2973 1210 70 2400 160/09 RMK AO2
14926KSTC STC20060616034509806/16/06 03:45:31  5-MIN KSTC 160945Z AUTO 15008KT 9SM CLR 22/17 A2973 1210 73 2400 150/08 RMK AO2
14926KSTC STC20060616035011506/16/06 03:50:31  5-MIN KSTC 160950Z AUTO 15008KT 9SM CLR 22/17 A2972 1210 73 2400 150/08 RMK AO2 SLP066 T02220172
14926KSTC STC20060616035509806/16/06 03:55:31  5-MIN KSTC 160955Z AUTO 16008KT 9SM CLR 22/17 A2972 1210 73 2400 150/08 RMK AO2
14926KSTC STC20060616040009806/16/06 04:00:31  5-MIN KSTC 161000Z AUTO 15008KT 9SM CLR 22/17 A2973 1210 73 2400 150/08 RMK AO2
14926KSTC STC20060616040509806/16/06 04:05:31  5-MIN KSTC 161005Z AUTO 16008KT 9SM CLR 22/17 A2973 1200 73 2400 160/08 RMK AO2
14926KSTC STC20060616041009806/16/06 04:10:31  5-MIN KSTC 161010Z AUTO 16007KT 9SM CLR 22/17 A2974 1200 73 2300 160/07 RMK AO2
14926KSTC STC20060616041509806/16/06 04:15:31  5-MIN KSTC 161015Z AUTO 16007KT 9SM CLR 22/17 A2973 1200 73 2400 160/07 RMK AO2
14926KSTC STC20060616042009806/16/06 04:20:31  5-MIN KSTC 161020Z AUTO 15006KT 9SM CLR 22/17 A2973 1200 73 2400 150/06 RMK AO2
14926KSTC STC20060616042509806/16/06 04:25:31  5-MIN KSTC 161025Z AUTO 16006KT 9SM CLR 22/17 A2973 1200 73 2400 150/06 RMK AO2
14926KSTC STC20060616043009806/16/06 04:30:31  5-MIN KSTC 161030Z AUTO 15007KT 9SM CLR 22/17 A2973 1210 73 2400 140/07 RMK AO2
14926KSTC STC20060616043509806/16/06 04:35:31  5-MIN KSTC 161035Z AUTO 15007KT 8SM CLR 22/17 A2972 1210 75 2300 140/07 RMK AO2
14926KSTC STC20060616044009806/16/06 04:40:31  5-MIN KSTC 161040Z AUTO 14005KT 7SM CLR 22/17 A2972 1210 73 2400 130/05 RMK AO2
14926KSTC STC20060616044509806/16/06 04:45:31  5-MIN KSTC 161045Z AUTO 13007KT 7SM CLR 22/17 A2972 1210 73 2400 130/07 RMK AO2
14926KSTC STC20060616045011506/16/06 04:50:31  5-MIN KSTC 161050Z AUTO 14006KT 7SM CLR 22/17 A2972 1210 73 2400 140/06 RMK AO2 SLP066 T02220172
14926KSTC STC20060616045510106/16/06 04:55:31  5-MIN KSTC 161055Z AUTO 14007KT 6SM HZ CLR 22/17 A2973 1210 75 2300 140/07 RMK AO2
14926KSTC STC20060616050010106/16/06 05:00:31  5-MIN KSTC 161100Z AUTO 15009KT 6SM HZ CLR 22/17 A2974 1200 75 2300 150/09 RMK AO2
14926KSTC STC20060616050510106/16/06 05:05:31  5-MIN KSTC 161105Z AUTO 17007KT 6SM HZ CLR 22/17 A2974 1190 75 2300 160/07 RMK AO2
14926KSTC STC20060616051010106/16/06 05:10:31  5-MIN KSTC 161110Z AUTO 16005KT 6SM HZ CLR 22/17 A2974 1190 73 2300 160/05 RMK AO2
14926KSTC STC20060616051509806/16/06 05:15:31  5-MIN KSTC 161115Z AUTO 15006KT 7SM CLR 22/17 A2974 1190 73 2300 150/06 RMK AO2
14926KSTC STC20060616052009806/16/06 05:20:31  5-MIN KSTC 161120Z AUTO 15006KT 7SM CLR 22/17 A2974 1190 73 2300 150/06 RMK AO2
14926KSTC STC20060616052510106/16/06 05:25:31  5-MIN KSTC 161125Z AUTO 14004KT 6SM HZ CLR 22/17 A2974 1190 75 2300 140/04 RMK AO2
14926KSTC STC20060616053010106/16/06 05:30:31  5-MIN KSTC 161130Z AUTO 14006KT 6SM HZ CLR 22/17 A2974 1190 75 2300 140/06 RMK AO2
14926KSTC STC20060616053510106/16/06 05:35:31  5-MIN KSTC 161135Z AUTO 14005KT 6SM HZ CLR 22/18 A2974 1190 78 2300 140/05 RMK AO2
14926KSTC STC20060616054010106/16/06 05:40:31  5-MIN KSTC 161140Z AUTO 15006KT 6SM HZ CLR 22/18 A2975 1180 78 2300 140/06 RMK AO2
14926KSTC STC20060616054510106/16/06 05:45:31  5-MIN KSTC 161145Z AUTO 16008KT 6SM HZ CLR 22/18 A2975 1180 78 2300 150/08 RMK AO2
14926KSTC STC20060616055013906/16/06 05:50:31  5-MIN KSTC 161150Z AUTO 16008KT 6SM HZ FEW110 22/18 A2976 1180 78 2300 160/08 RMK AO2 SLP077 T02170178 10233 20217 56009
14926KSTC STC20060616055510406/16/06 05:55:31  5-MIN KSTC 161155Z AUTO 16007KT 6SM HZ FEW110 22/18 A2976 1180 75 2300 160/07 RMK AO2
14926KSTC STC20060616060010406/16/06 06:00:31  5-MIN KSTC 161200Z AUTO 16008KT 6SM HZ FEW095 22/17 A2976 1180 73 2300 160/08 RMK AO2
14926KSTC STC20060616060509606/16/06 06:05:31  5-MIN KSTC 161205Z 16008KT 7SM FEW100 22/17 A2976 1180 73 2300 160/08 RMK AO2
14926KSTC STC20060616061009606/16/06 06:10:31  5-MIN KSTC 161210Z 16008KT 7SM FEW100 23/17 A2976 1170 70 2400 160/08 RMK AO2
14926KSTC STC20060616061509606/16/06 06:15:31  5-MIN KSTC 161215Z 17008KT 7SM FEW100 23/18 A2977 1170 73 2400 160/08 RMK AO2
14926KSTC STC20060616062009606/16/06 06:20:31  5-MIN KSTC 161220Z 17009KT 7SM FEW100 23/17 A2977 1170 70 2400 170/09 RMK AO2
14926KSTC STC20060616062509606/16/06 06:25:31  5-MIN KSTC 161225Z 17009KT 7SM FEW100 23/17 A2977 1160 68 2400 170/09 RMK AO2
14926KSTC STC20060616063009306/16/06 06:30:31  5-MIN KSTC 161230Z 17010KT 8SM CLR 23/17 A2978 1160 68 2400 170/10 RMK AO2
14926KSTC STC20060616063509306/16/06 06:35:31  5-MIN KSTC 161235Z 17009KT 8SM CLR 23/17 A2977 1170 68 2400 160/09 RMK AO2
14926KSTC STC20060616064009606/16/06 06:40:31  5-MIN KSTC 161240Z 17010KT 8SM FEW065 23/17 A2977 1170 68 2400 170/10 RMK AO2
14926KSTC STC20060616064509606/16/06 06:45:31  5-MIN KSTC 161245Z 18010KT 8SM FEW065 23/17 A2979 1150 68 2400 180/10 RMK AO2
14926KSTC STC20060616065011006/16/06 06:50:31  5-MIN KSTC 161250Z 18012KT 8SM CLR 23/17 A2979 1150 68 2400 180/12 RMK AO2 SLP088 T02330172
14926KSTC STC20060616065510006/16/06 06:55:31  5-MIN KSTC 161255Z 19012KT 8SM CLR 24/17 A2980 1140 66 2500 190/12 RMK AO2 PRESRR
14926KSTC STC20060616070009306/16/06 07:00:31  5-MIN KSTC 161300Z 19010KT 8SM CLR 24/17 A2978 1150 66 2500 190/10 RMK AO2
14926KSTC STC20060616070509306/16/06 07:05:31  5-MIN KSTC 161305Z 19012KT 8SM CLR 24/18 A2978 1150 68 2500 180/12 RMK AO2
14926KSTC STC20060616071009306/16/06 07:10:31  5-MIN KSTC 161310Z 19011KT 8SM CLR 24/18 A2978 1160 68 2500 180/11 RMK AO2
14926KSTC STC20060616071510006/16/06 07:15:31  5-MIN KSTC 161315Z 18009KT 8SM CLR 24/17 A2976 1170 66 2500 170/09 RMK AO2 PRESFR
14926KSTC STC20060616072009306/16/06 07:20:31  5-MIN KSTC 161320Z 18010KT 8SM CLR 23/17 A2977 1160 68 2400 170/10 RMK AO2
14926KSTC STC20060616072509306/16/06 07:25:31  5-MIN KSTC 161325Z 19013KT 8SM CLR 24/18 A2978 1160 68 2500 180/13 RMK AO2
14926KSTC STC20060616073009306/16/06 07:30:31  5-MIN KSTC 161330Z 19013KT 8SM CLR 24/18 A2978 1160 68 2500 180/13 RMK AO2
14926KSTC STC20060616073509306/16/06 07:35:31  5-MIN KSTC 161335Z 19009KT 8SM CLR 24/18 A2977 1170 68 2500 190/09 RMK AO2
14926KSTC STC20060616074009306/16/06 07:40:31  5-MIN KSTC 161340Z 20010KT 9SM CLR 24/18 A2978 1160 66 2600 190/10 RMK AO2
14926KSTC STC20060616074509306/16/06 07:45:31  5-MIN KSTC 161345Z 19011KT 9SM CLR 25/18 A2978 1160 64 2600 190/11 RMK AO2
14926KSTC STC20060616075011106/16/06 07:50:31  5-MIN KSTC 161350Z 20014KT 10SM CLR 25/18 A2978 1160 64 2600 190/14 RMK AO2 SLP084 T02500178
14926KSTC STC20060616075510006/16/06 07:55:31  5-MIN KSTC 161355Z 20015G18KT 10SM CLR 26/18 A2978 1150 61 2700 190/15G18 RMK AO2
14926KSTC STC20060616080010006/16/06 08:00:31  5-MIN KSTC 161400Z 21013G19KT 10SM CLR 26/17 A2979 1150 59 2700 210/13G19 RMK AO2
14926KSTC STC20060616080510006/16/06 08:05:31  5-MIN KSTC 161405Z 21013G19KT 10SM CLR 25/17 A2979 1150 61 2600 210/13G19 RMK AO2
14926KSTC STC20060616081009406/16/06 08:10:31  5-MIN KSTC 161410Z 20016KT 10SM CLR 26/17 A2980 1140 59 2700 200/16 RMK AO2
14926KSTC STC20060616081509406/16/06 08:15:31  5-MIN KSTC 161415Z 22015KT 10SM CLR 26/17 A2980 1130 59 2600 220/15 RMK AO2
14926KSTC STC20060616082010006/16/06 08:20:31  5-MIN KSTC 161420Z 22014G20KT 10SM CLR 26/17 A2980 1140 59 2700 220/14G20 RMK AO2
14926KSTC STC20060616082510006/16/06 08:25:31  5-MIN KSTC 161425Z 21015G22KT 10SM CLR 26/17 A2980 1140 57 2700 210/15G22 RMK AO2
14926KSTC STC20060616083010006/16/06 08:30:31  5-MIN KSTC 161430Z 21013G22KT 10SM CLR 26/17 A2980 1140 57 2700 210/13G22 RMK AO2
14926KSTC STC20060616083510006/16/06 08:35:31  5-MIN KSTC 161435Z 21016G22KT 10SM CLR 27/17 A2980 1140 55 2800 210/16G22 RMK AO2
14926KSTC STC20060616084010006/16/06 08:40:31  5-MIN KSTC 161440Z 23017G22KT 10SM CLR 27/17 A2980 1140 55 2800 220/17G22 RMK AO2
14926KSTC STC20060616084510006/16/06 08:45:31  5-MIN KSTC 161445Z 21016G22KT 10SM CLR 27/17 A2980 1140 55 2800 210/16G22 RMK AO2
14926KSTC STC20060616085011706/16/06 08:50:31  5-MIN KSTC 161450Z 21017KT 10SM CLR 27/17 A2980 1140 54 2800 210/17 RMK AO2 SLP091 T02720172 53007
14926KSTC STC20060616085510006/16/06 08:55:31  5-MIN KSTC 161455Z 22018G22KT 10SM CLR 27/17 A2980 1140 54 2800 220/18G22 RMK AO2
14926KSTC STC20060616090010006/16/06 09:00:31  5-MIN KSTC 161500Z 22015G23KT 10SM CLR 27/17 A2979 1150 54 2800 210/15G23 RMK AO2
14926KSTC STC20060616090510006/16/06 09:05:31  5-MIN KSTC 161505Z 22014G23KT 10SM CLR 28/17 A2979 1140 50 2900 220/14G23 RMK AO2
14926KSTC STC20060616091010006/16/06 09:10:31  5-MIN KSTC 161510Z 22015G20KT 10SM CLR 28/17 A2979 1150 52 2900 220/15G20 RMK AO2
14926KSTC STC20060616091510006/16/06 09:15:31  5-MIN KSTC 161515Z 22018G22KT 10SM CLR 28/17 A2978 1160 50 3000 220/18G22 RMK AO2
14926KSTC STC20060616092010006/16/06 09:20:31  5-MIN KSTC 161520Z 21016G22KT 10SM CLR 28/17 A2978 1160 50 3000 210/16G22 RMK AO2
14926KSTC STC20060616092510006/16/06 09:25:31  5-MIN KSTC 161525Z 21016G23KT 10SM CLR 28/17 A2978 1160 50 3000 200/16G23 RMK AO2
14926KSTC STC20060616093010006/16/06 09:30:31  5-MIN KSTC 161530Z 21015G23KT 10SM CLR 28/17 A2978 1160 48 3000 210/15G23 RMK AO2
14926KSTC STC20060616093509406/16/06 09:35:31  5-MIN KSTC 161535Z 22017KT 10SM CLR 28/17 A2978 1160 50 3000 220/17 RMK AO2
14926KSTC STC20060616094010006/16/06 09:40:31  5-MIN KSTC 161540Z 22014G21KT 10SM CLR 29/17 A2978 1160 47 3000 220/14G21 RMK AO2
14926KSTC STC20060616094510006/16/06 09:45:31  5-MIN KSTC 161545Z 21017G21KT 10SM CLR 29/17 A2978 1150 47 3000 210/17G21 RMK AO2
14926KSTC STC20060616095011106/16/06 09:50:31  5-MIN KSTC 161550Z 21015KT 10SM CLR 29/17 A2978 1150 47 3000 210/15 RMK AO2 SLP085 T02890167
14926KSTC STC20060616095509406/16/06 09:55:31  5-MIN KSTC 161555Z 22016KT 10SM CLR 29/17 A2978 1160 47 3100 210/16 RMK AO2
14926KSTC STC20060616100009406/16/06 10:00:31  5-MIN KSTC 161600Z 20015KT 10SM CLR 28/17 A2978 1160 48 3000 200/15 RMK AO2
14926KSTC STC20060616100509406/16/06 10:05:31  5-MIN KSTC 161605Z 20015KT 10SM CLR 28/17 A2978 1160 48 3000 200/15 RMK AO2
14926KSTC STC20060616101009406/16/06 10:10:31  5-MIN KSTC 161610Z 21014KT 10SM CLR 28/16 A2978 1160 47 3000 200/14 RMK AO2
14926KSTC STC20060616101509406/16/06 10:15:31  5-MIN KSTC 161615Z 21013KT 10SM CLR 29/17 A2977 1160 47 3100 210/13 RMK AO2
14926KSTC STC20060616102009406/16/06 10:20:31  5-MIN KSTC 161620Z 21015KT 10SM CLR 29/17 A2978 1160 45 3100 210/15 RMK AO2
14926KSTC STC20060616102509406/16/06 10:25:31  5-MIN KSTC 161625Z 20014KT 10SM CLR 29/17 A2978 1160 45 3100 200/14 RMK AO2
14926KSTC STC20060616103009406/16/06 10:30:31  5-MIN KSTC 161630Z 22016KT 10SM CLR 30/17 A2978 1160 44 3200 210/16 RMK AO2
14926KSTC STC20060616103509406/16/06 10:35:31  5-MIN KSTC 161635Z 20014KT 10SM CLR 29/16 A2978 1160 44 3100 200/14 RMK AO2
14926KSTC STC20060616104009406/16/06 10:40:31  5-MIN KSTC 161640Z 21015KT 10SM CLR 29/16 A2978 1160 44 3100 210/15 RMK AO2
14926KSTC STC20060616104509406/16/06 10:45:31  5-MIN KSTC 161645Z 23012KT 10SM CLR 29/16 A2977 1160 44 3100 230/12 RMK AO2
14926KSTC STC20060616105011106/16/06 10:50:31  5-MIN KSTC 161650Z 20012KT 10SM CLR 30/17 A2977 1170 44 3200 200/12 RMK AO2 SLP081 T03000167
14926KSTC STC20060616105509406/16/06 10:55:31  5-MIN KSTC 161655Z 20014KT 10SM CLR 30/17 A2977 1160 44 3200 200/14 RMK AO2
14926KSTC STC20060616110010006/16/06 11:00:31  5-MIN KSTC 161700Z 22011G19KT 10SM CLR 30/17 A2977 1160 44 3200 220/11G19 RMK AO2
14926KSTC STC20060616110510006/16/06 11:05:31  5-MIN KSTC 161705Z 20013G19KT 10SM CLR 30/17 A2977 1160 44 3200 200/13G19 RMK AO2
14926KSTC STC20060616111009406/16/06 11:10:31  5-MIN KSTC 161710Z 22013KT 10SM CLR 30/17 A2978 1160 44 3200 210/13 RMK AO2
14926KSTC STC20060616111509406/16/06 11:15:31  5-MIN KSTC 161715Z 21013KT 10SM CLR 30/17 A2977 1160 44 3200 200/13 RMK AO2
14926KSTC STC20060616112009406/16/06 11:20:31  5-MIN KSTC 161720Z 21013KT 10SM CLR 29/17 A2978 1160 45 3100 210/13 RMK AO2
14926KSTC STC20060616112509406/16/06 11:25:31  5-MIN KSTC 161725Z 21015KT 10SM CLR 30/17 A2979 1150 45 3200 200/15 RMK AO2
14926KSTC STC20060616113009406/16/06 11:30:31  5-MIN KSTC 161730Z 21014KT 10SM CLR 30/17 A2978 1150 44 3200 210/14 RMK AO2
14926KSTC STC20060616113509406/16/06 11:35:31  5-MIN KSTC 161735Z 20013KT 10SM CLR 31/17 A2978 1160 44 3200 200/13 RMK AO2
14926KSTC STC20060616114009406/16/06 11:40:31  5-MIN KSTC 161740Z 19011KT 10SM CLR 30/17 A2978 1160 44 3200 190/11 RMK AO2
14926KSTC STC20060616114509406/16/06 11:45:31  5-MIN KSTC 161745Z 20011KT 10SM CLR 30/17 A2978 1160 45 3200 200/11 RMK AO2
14926KSTC STC20060616115012906/16/06 11:50:31  5-MIN KSTC 161750Z 20012KT 10SM CLR 31/17 A2978 1160 42 3300 200/12 RMK AO2 SLP083 T03110172 10311 20222 51013
14926KSTC STC20060616115509406/16/06 11:55:31  5-MIN KSTC 161755Z 21015KT 10SM CLR 31/17 A2978 1160 42 3300 210/15 RMK AO2
14926KSTC STC20060616120009406/16/06 12:00:31  5-MIN KSTC 161800Z 20013KT 10SM CLR 31/17 A2978 1160 42 3200 200/13 RMK AO2
14926KSTC STC20060616120510006/16/06 12:05:31  5-MIN KSTC 161805Z 20015G21KT 10SM CLR 31/17 A2978 1160 42 3200 200/15G21 RMK AO2
14926KSTC STC20060616121010006/16/06 12:10:31  5-MIN KSTC 161810Z 21012G21KT 10SM CLR 31/17 A2978 1160 42 3200 200/12G21 RMK AO2
14926KSTC STC20060616121509406/16/06 12:15:31  5-MIN KSTC 161815Z 22012KT 10SM CLR 31/16 A2977 1160 41 3200 210/12 RMK AO2
14926KSTC STC20060616122009406/16/06 12:20:31  5-MIN KSTC 161820Z 21012KT 10SM CLR 31/17 A2977 1170 41 3300 210/12 RMK AO2
14926KSTC STC20060616122509406/16/06 12:25:31  5-MIN KSTC 161825Z 20013KT 10SM CLR 31/16 A2977 1170 40 3300 200/13 RMK AO2
14926KSTC STC20060616123009406/16/06 12:30:31  5-MIN KSTC 161830Z 19013KT 10SM CLR 31/17 A2976 1170 41 3300 180/13 RMK AO2
14926KSTC STC20060616123509406/16/06 12:35:31  5-MIN KSTC 161835Z 19011KT 10SM CLR 32/17 A2977 1170 40 3400 180/11 RMK AO2
14926KSTC STC20060616124009406/16/06 12:40:31  5-MIN KSTC 161840Z 21013KT 10SM CLR 32/17 A2976 1170 40 3400 210/13 RMK AO2
14926KSTC STC20060616124509406/16/06 12:45:31  5-MIN KSTC 161845Z 21015KT 10SM CLR 32/17 A2977 1170 38 3400 210/15 RMK AO2
14926KSTC STC20060616125011106/16/06 12:50:31  5-MIN KSTC 161850Z 19015KT 10SM CLR 32/17 A2977 1170 40 3400 190/15 RMK AO2 SLP079 T03170167
14926KSTC STC20060616125509406/16/06 12:55:31  5-MIN KSTC 161855Z 18012KT 10SM CLR 32/17 A2977 1170 40 3400 180/12 RMK AO2
14926KSTC STC20060616130010006/16/06 13:00:31  5-MIN KSTC 161900Z 19014G21KT 10SM CLR 31/17 A2977 1170 41 3300 190/14G21 RMK AO2
14926KSTC STC20060616130510006/16/06 13:05:31  5-MIN KSTC 161905Z 18016G21KT 10SM CLR 32/17 A2977 1170 40 3400 170/16G21 RMK AO2
14926KSTC STC20060616131009406/16/06 13:10:31  5-MIN KSTC 161910Z 17015KT 10SM CLR 31/17 A2977 1170 42 3300 170/15 RMK AO2
14926KSTC STC20060616131510306/16/06 13:15:31  5-MIN KSTC 161915Z 19017G20KT 10SM FEW050 31/18 A2977 1170 44 3300 190/17G20 RMK AO2
14926KSTC STC20060616132010306/16/06 13:20:31  5-MIN KSTC 161920Z 19017G22KT 10SM FEW050 31/18 A2977 1170 44 3300 190/17G22 RMK AO2
14926KSTC STC20060616132510306/16/06 13:25:31  5-MIN KSTC 161925Z 18015G22KT 10SM FEW050 31/18 A2977 1170 44 3300 180/15G22 RMK AO2
14926KSTC STC20060616133009706/16/06 13:30:31  5-MIN KSTC 161930Z 18014KT 10SM FEW050 31/18 A2977 1170 44 3300 170/14 RMK AO2
14926KSTC STC20060616133509706/16/06 13:35:31  5-MIN KSTC 161935Z 22016KT 10SM FEW055 31/18 A2977 1170 46 3200 220/16 RMK AO2
14926KSTC STC20060616134009706/16/06 13:40:31  5-MIN KSTC 161940Z 20016KT 10SM FEW055 31/18 A2977 1170 46 3200 200/16 RMK AO2
14926KSTC STC20060616134509706/16/06 13:45:31  5-MIN KSTC 161945Z 20015KT 10SM FEW055 31/17 A2977 1170 44 3200 200/15 RMK AO2
14926KSTC STC20060616135011406/16/06 13:50:31  5-MIN KSTC 161950Z 20015KT 10SM FEW055 31/17 A2977 1170 44 3200 200/15 RMK AO2 SLP081 T03060172
14926KSTC STC20060616135509406/16/06 13:55:31  5-MIN KSTC 161955Z 20013KT 10SM CLR 31/17 A2977 1160 42 3300 200/13 RMK AO2
14926KSTC STC20060616140009406/16/06 14:00:31  5-MIN KSTC 162000Z 19015KT 10SM CLR 32/17 A2977 1160 41 3400 180/15 RMK AO2
14926KSTC STC20060616140509406/16/06 14:05:31  5-MIN KSTC 162005Z 21015KT 10SM CLR 32/17 A2977 1170 41 3400 200/15 RMK AO2
14926KSTC STC20060616141009706/16/06 14:10:31  5-MIN KSTC 162010Z 21017KT 10SM FEW100 31/17 A2977 1170 42 3300 210/17 RMK AO2
14926KSTC STC20060616141509706/16/06 14:15:31  5-MIN KSTC 162015Z 22015KT 10SM FEW110 32/17 A2977 1170 40 3400 210/15 RMK AO2
14926KSTC STC20060616142010006/16/06 14:20:31  5-MIN KSTC 162020Z 20016G20KT 10SM CLR 32/17 A2977 1170 40 3400 190/16G20 RMK AO2
14926KSTC STC20060616142510006/16/06 14:25:31  5-MIN KSTC 162025Z 20014G20KT 10SM CLR 32/17 A2977 1170 38 3400 200/14G20 RMK AO2
14926KSTC STC20060616143010006/16/06 14:30:31  5-MIN KSTC 162030Z 22015G21KT 10SM CLR 31/17 A2977 1170 41 3300 210/15G21 RMK AO2
14926KSTC STC20060616143510006/16/06 14:35:31  5-MIN KSTC 162035Z 20013G21KT 10SM CLR 32/17 A2977 1170 40 3400 200/13G21 RMK AO2
14926KSTC STC20060616144010006/16/06 14:40:31  5-MIN KSTC 162040Z 22016G21KT 10SM CLR 31/17 A2977 1170 41 3300 210/16G21 RMK AO2
14926KSTC STC20060616144510006/16/06 14:45:31  5-MIN KSTC 162045Z 20013G21KT 10SM CLR 32/16 A2977 1170 38 3400 200/13G21 RMK AO2
14926KSTC STC20060616145012306/16/06 14:50:31  5-MIN KSTC 162050Z 21014G19KT 10SM CLR 32/17 A2977 1170 40 3400 210/14G19 RMK AO2 SLP080 T03170167 55006
14926KSTC STC20060616145510006/16/06 14:55:31  5-MIN KSTC 162055Z 21012G19KT 10SM CLR 32/17 A2977 1170 41 3400 200/12G19 RMK AO2
14926KSTC STC20060616150009406/16/06 15:00:31  5-MIN KSTC 162100Z 21012KT 10SM CLR 32/17 A2977 1170 41 3400 210/12 RMK AO2
14926KSTC STC20060616150509906/16/06 15:05:31  5-MIN KSTC 162105Z AUTO 19014KT 10SM CLR 32/18 A2977 1170 43 3400 190/14 RMK AO2
14926KSTC STC20060616151010206/16/06 15:10:31  5-MIN KSTC 162110Z AUTO 19011KT 10SM FEW060 31/18 A2977 1170 44 3300 180/11 RMK AO2
14926KSTC STC20060616151510206/16/06 15:15:31  5-MIN KSTC 162115Z AUTO 18014KT 10SM FEW060 31/18 A2977 1170 46 3200 180/14 RMK AO2
14926KSTC STC20060616152010206/16/06 15:20:31  5-MIN KSTC 162120Z AUTO 21013KT 10SM FEW060 31/18 A2977 1170 46 3300 200/13 RMK AO2
14926KSTC STC20060616152510206/16/06 15:25:31  5-MIN KSTC 162125Z AUTO 20013KT 10SM FEW060 32/18 A2977 1170 44 3400 200/13 RMK AO2
14926KSTC STC20060616153010806/16/06 15:30:31  5-MIN KSTC 162130Z AUTO 20015G20KT 10SM FEW060 32/18 A2976 1170 43 3400 190/15G20 RMK AO2
14926KSTC STC20060616153510206/16/06 15:35:31  5-MIN KSTC 162135Z AUTO 19012KT 10SM FEW060 32/18 A2976 1170 43 3400 190/12 RMK AO2
14926KSTC STC20060616154010206/16/06 15:40:31  5-MIN KSTC 162140Z AUTO 21013KT 10SM FEW110 32/17 A2976 1180 41 3400 200/13 RMK AO2
14926KSTC STC20060616154509906/16/06 15:45:31  5-MIN KSTC 162145Z AUTO 18011KT 10SM CLR 31/18 A2976 1180 46 3300 170/11 RMK AO2
14926KSTC STC20060616155011906/16/06 15:50:31  5-MIN KSTC 162150Z AUTO 21013KT 10SM FEW060 31/18 A2975 1180 46 3300 210/13 RMK AO2 SLP074 T03110183
14926KSTC STC20060616155510206/16/06 15:55:31  5-MIN KSTC 162155Z AUTO 20011KT 10SM FEW060 31/18 A2975 1180 44 3300 200/11 RMK AO2
14926KSTC STC20060616160010206/16/06 16:00:31  5-MIN KSTC 162200Z AUTO 20012KT 10SM SCT060 31/18 A2975 1180 46 3300 190/12 RMK AO2
14926KSTC STC20060616160510206/16/06 16:05:31  5-MIN KSTC 162205Z AUTO 18010KT 10SM BKN055 30/18 A2975 1190 49 3200 180/10 RMK AO2
14926KSTC STC20060616161010206/16/06 16:10:31  5-MIN KSTC 162210Z AUTO 18011KT 10SM BKN055 31/18 A2974 1190 46 3300 180/11 RMK AO2
14926KSTC STC20060616161510206/16/06 16:15:31  5-MIN KSTC 162215Z AUTO 19011KT 10SM BKN055 31/18 A2974 1190 47 3300 180/11 RMK AO2
14926KSTC STC20060616162010206/16/06 16:20:31  5-MIN KSTC 162220Z AUTO 18010KT 10SM SCT055 30/18 A2974 1190 49 3200 170/10 RMK AO2
14926KSTC STC20060616162510206/16/06 16:25:31  5-MIN KSTC 162225Z AUTO 20010KT 10SM SCT055 30/18 A2974 1200 49 3200 190/10 RMK AO2
14926KSTC STC20060616163010906/16/06 16:30:31  5-MIN KSTC 162230Z AUTO 19009KT 10SM SCT060 SCT110 30/18 A2973 1200 47 3200 190/09 RMK AO2
14926KSTC STC20060616163510906/16/06 16:35:31  5-MIN KSTC 162235Z AUTO 18008KT 10SM SCT065 SCT110 30/18 A2973 1200 49 3200 180/08 RMK AO2
14926KSTC STC20060616164010206/16/06 16:40:31  5-MIN KSTC 162240Z AUTO 19008KT 10SM SCT065 30/19 A2973 1200 51 3200 190/08 RMK AO2
14926KSTC STC20060616164510206/16/06 16:45:31  5-MIN KSTC 162245Z AUTO 19009KT 10SM SCT060 30/18 A2973 1210 49 3200 190/09 RMK AO2
14926KSTC STC20060616165011906/16/06 16:50:31  5-MIN KSTC 162250Z AUTO 18008KT 10SM BKN060 30/18 A2973 1200 49 3200 180/08 RMK AO2 SLP068 T03000183
14926KSTC STC20060616165510206/16/06 16:55:31  5-MIN KSTC 162255Z AUTO 18009KT 10SM SCT060 29/18 A2974 1200 50 3200 180/09 RMK AO2
14926KSTC STC20060616170010206/16/06 17:00:31  5-MIN KSTC 162300Z AUTO 18008KT 10SM SCT060 29/18 A2974 1190 50 3100 180/08 RMK AO2
14926KSTC STC20060616170510206/16/06 17:05:31  5-MIN KSTC 162305Z AUTO 19008KT 10SM FEW060 29/18 A2974 1190 52 3100 180/08 RMK AO2
14926KSTC STC20060616171010906/16/06 17:10:31  5-MIN KSTC 162310Z AUTO 18008KT 10SM FEW060 SCT095 29/18 A2973 1200 52 3100 180/08 RMK AO2
14926KSTC STC20060616171510906/16/06 17:15:31  5-MIN KSTC 162315Z AUTO 17006KT 10SM SCT070 BKN095 29/18 A2973 1200 52 3100 160/06 RMK AO2
14926KSTC STC20060616172010906/16/06 17:20:31  5-MIN KSTC 162320Z AUTO 17007KT 10SM FEW070 SCT095 29/18 A2973 1200 52 3100 170/07 RMK AO2
14926KSTC STC20060616172510906/16/06 17:25:31  5-MIN KSTC 162325Z AUTO 17007KT 10SM FEW070 BKN095 28/18 A2974 1190 54 3000 170/07 RMK AO2
14926KSTC STC20060616173011606/16/06 17:30:31  5-MIN KSTC 162330Z AUTO 18008KT 10SM FEW060 BKN095 28/18 A2975 1180 54 3000 180/08 RMK AO2 PRESRR
14926KSTC STC20060616173510906/16/06 17:35:31  5-MIN KSTC 162335Z AUTO 18007KT 10SM SCT065 BKN095 28/18 A2976 1180 54 3000 180/07 RMK AO2
14926KSTC STC20060616174010906/16/06 17:40:31  5-MIN KSTC 162340Z AUTO 18006KT 10SM FEW065 BKN100 28/18 A2975 1180 54 3000 170/06 RMK AO2
14926KSTC STC20060616174510906/16/06 17:45:31  5-MIN KSTC 162345Z AUTO 18006KT 10SM FEW060 BKN100 28/18 A2975 1180 54 3000 180/06 RMK AO2
14926KSTC STC20060616175014406/16/06 17:50:31  5-MIN KSTC 162350Z AUTO 20005KT 10SM FEW060 SCT100 28/18 A2975 1190 54 3000 190/05 RMK AO2 SLP074 T02830183 10322 20283 56003
14926KSTC STC20060616175510906/16/06 17:55:31  5-MIN KSTC 162355Z AUTO 21005KT 10SM FEW060 SCT100 28/18 A2974 1190 56 3000 200/05 RMK AO2
14926KSTC STC20060616180009706/16/06 18:00:31  5-MIN KSTC 170000Z 20005KT 10SM FEW060 28/18 A2975 1180 56 3000 190/05 RMK AO2
14926KSTC STC20060616180511306/16/06 18:05:31  5-MIN KSTC 170005Z 20005KT 10SM TS FEW080 SCT100 28/18 A2975 1180 56 3000 190/05 RMK AO2 TSB02
14926KSTC STC20060616181012006/16/06 18:10:31  5-MIN KSTC 170010Z 22005KT 10SM TS FEW060 SCT090 BKN120 27/19 A2976 1180 60 2900 220/05 RMK AO2 TSB02
14926KSTC STC20060616181511206/16/06 18:15:31  5-MIN KSTC 170015Z 22006KT 9SM TS FEW055 SCT120 27/19 A2976 1180 60 2900 220/06 RMK AO2 TSB02
14926KSTC STC20060616182011206/16/06 18:20:31  5-MIN KSTC 170020Z 24005KT 9SM TS FEW055 SCT120 27/19 A2975 1180 60 2900 240/05 RMK AO2 TSB02
14926KSTC STC20060616182511906/16/06 18:25:31  5-MIN KSTC 170025Z 26008KT 9SM TS FEW055 SCT090 SCT120 27/19 A2975 1180 64 2800 260/08 RMK AO2 TSB02
14926KSTC STC20060616183013306/16/06 18:30:31  5-MIN KSTC 170030Z 27018KT 9SM -TSRA SCT055 BKN090 BKN120 26/18 A2976 1180 62 2800 270/18 RMK AO2 TSB02RAB30 P0000
14926KSTC STC20060616183514306/16/06 18:35:31  5-MIN KSTC 170035Z 25017G23KT 2 1/2SM -TSRA BKN050 BKN090 BKN120 24/19 A2977 1160 71 2600 250/17G23 RMK AO2 TSB02RAB30 P0000
14926KSTC STC20060616184014506/16/06 18:40:31  5-MIN KSTC 170040Z 24013G23KT 2 1/2SM TSRA BR BKN037 BKN055 BKN110 23/21 A2978 1160 87 2400 240/13G23 RMK AO2 TSB02RAB30 P0003
14926KSTC STC20060616184513306/16/06 18:45:31  5-MIN KSTC 170045Z 21010KT 2 1/2SM +TSRA BR BKN024 BKN055 23/21 A2978 1160 87 2400 200/10 RMK AO2 TSB02RAB30 P0011
14926KSTC STC20060616185015706/16/06 18:50:31  5-MIN KSTC 170050Z 19008KT 2SM -TSRA BR BKN029 OVC055 23/21 A2978 1160 87 2400 180/08 RMK AO2 WSHFT 0034 TSB02RAB30 SLP087 P0013 T02280206
14926KSTC STC20060616185511806/16/06 18:55:31  5-MIN KSTC 170055Z 16008KT 5SM -TSRA BR BKN035 OVC055 22/21 A2978 1160 93 2300 150/08 RMK AO2 P0000
14926KSTC STC20060616190011106/16/06 19:00:31  5-MIN KSTC 170100Z 19008KT 4SM -TSRA BR OVC033 22/21 A2978 1160 90 2300 180/08 RMK AO2 P0001
14926KSTC STC20060616190511806/16/06 19:05:31  5-MIN KSTC 170105Z 18008KT 4SM -TSRA BR BKN028 OVC055 22/21 A2977 1160 90 2300 170/08 RMK AO2 P0002
14926KSTC STC20060616191011806/16/06 19:10:31  5-MIN KSTC 170110Z 17008KT 5SM -TSRA BR BKN028 OVC055 22/21 A2977 1160 90 2300 160/08 RMK AO2 P0003
14926KSTC STC20060616191511006/16/06 19:15:31  5-MIN KSTC 170115Z 17009KT 5SM TSRA BR OVC030 22/21 A2978 1150 90 2300 160/09 RMK AO2 P0004
14926KSTC STC20060616192011106/16/06 19:20:31  5-MIN KSTC 170120Z 17007KT 5SM -TSRA BR OVC028 22/21 A2978 1160 93 2200 170/07 RMK AO2 P0005
14926KSTC STC20060616192511106/16/06 19:25:31  5-MIN KSTC 170125Z 18008KT 5SM -TSRA BR OVC026 22/21 A2978 1160 90 2300 180/08 RMK AO2 P0006
14926KSTC STC20060616193011006/16/06 19:30:31  5-MIN KSTC 170130Z 17006KT 5SM TSRA BR OVC026 22/21 A2977 1170 93 2300 170/06 RMK AO2 P0007
14926KSTC STC20060616193511006/16/06 19:35:31  5-MIN KSTC 170135Z 15009KT 5SM TSRA BR OVC026 22/20 A2976 1170 90 2300 150/09 RMK AO2 P0009
14926KSTC STC20060616194011506/16/06 19:40:31  5-MIN KSTC 170140Z 15009KT 5SM -RA BR OVC026 22/20 A2976 1170 90 2300 140/09 RMK AO2 TSE36 P0010
14926KSTC STC20060616194512006/16/06 19:45:31  5-MIN KSTC 170145Z 15011KT 6SM -TSRA BR OVC026 22/20 A2977 1170 90 2200 150/11 RMK AO2 TSE36B45 P0010
14926KSTC STC20060616195011706/16/06 19:50:31  5-MIN KSTC 170150Z 15011KT 8SM -TSRA OVC026 22/20 A2977 1160 90 2200 150/11 RMK AO2 TSE36B45 P0011
14926KSTC STC20060616195510806/16/06 19:55:31  5-MIN KSTC 170155Z 14013KT 8SM -TSRA OVC028 21/20 A2977 1160 93 2200 140/13 RMK AO2 P0000
14926KSTC STC20060616200010806/16/06 20:00:31  5-MIN KSTC 170200Z 15014KT 7SM -TSRA OVC028 21/20 A2978 1160 93 2200 150/14 RMK AO2 P0000
14926KSTC STC20060616200510806/16/06 20:05:31  5-MIN KSTC 170205Z 16014KT 8SM -TSRA OVC030 21/19 A2978 1150 90 2200 150/14 RMK AO2 P0001
14926KSTC STC20060616201011406/16/06 20:10:31  5-MIN KSTC 170210Z 15015G20KT 8SM -TSRA OVC028 21/19 A2978 1150 90 2200 150/15G20 RMK AO2 P0001
14926KSTC STC20060616201511406/16/06 20:15:31  5-MIN KSTC 170215Z 15016G21KT 8SM -TSRA OVC028 21/19 A2978 1160 90 2200 140/16G21 RMK AO2 P0001
14926KSTC STC20060616202011406/16/06 20:20:31  5-MIN KSTC 170220Z 14018G23KT 8SM -TSRA OVC028 21/20 A2978 1160 93 2200 140/18G23 RMK AO2 P0002
14926KSTC STC20060616202512106/16/06 20:25:31  5-MIN KSTC 170225Z 14018G23KT 8SM -TSRA FEW009 OVC028 21/20 A2978 1160 93 2200 140/18G23 RMK AO2 P0002
14926KSTC STC20060616203011506/16/06 20:30:31  5-MIN KSTC 170230Z 15018KT 8SM -TSRA SCT009 OVC026 21/20 A2979 1150 93 2200 150/18 RMK AO2 P0002
14926KSTC STC20060616203511906/16/06 20:35:31  5-MIN KSTC 170235Z 17018KT 7SM -RA SCT009 OVC026 21/20 A2980 1140 93 2200 160/18 RMK AO2 TSE34 P0002
14926KSTC STC20060616204012506/16/06 20:40:31  5-MIN KSTC 170240Z 17015G22KT 7SM -RA SCT009 OVC026 21/20 A2980 1140 93 2200 170/15G22 RMK AO2 TSE34 P0002
14926KSTC STC20060616204512406/16/06 20:45:31  5-MIN KSTC 170245Z 18015KT 7SM -TSRA BKN007 OVC024 21/20 A2980 1140 93 2200 180/15 RMK AO2 TSE34B41 P0002
14926KSTC STC20060616205015906/16/06 20:50:31  5-MIN KSTC 170250Z 17013G20KT 7SM -TSRA BKN007 OVC022 21/20 A2980 1140 93 2200 170/13G20 RMK AO2 TSE34B41 SLP092 P0002 60026 T02110200 55007
14926KSTC STC20060616205511506/16/06 20:55:31  5-MIN KSTC 170255Z 17014KT 7SM -TSRA BKN007 OVC022 21/20 A2979 1150 93 2200 160/14 RMK AO2 P0001
14926KSTC STC20060616210013006/16/06 21:00:31  5-MIN KSTC 170300Z 16017G21KT 6SM -RA BR BKN007 OVC030 21/20 A2978 1150 93 2200 150/17G21 RMK AO2 TSE0256 P0001
14926KSTC STC20060616210512406/16/06 21:05:31  5-MIN KSTC 170305Z 16018KT 6SM -RA BR SCT007 OVC034 21/20 A2978 1160 93 2200 150/18 RMK AO2 TSE0256 P0001
14926KSTC STC20060616211012406/16/06 21:10:31  5-MIN KSTC 170310Z 15018KT 6SM -RA BR SCT007 OVC037 21/20 A2977 1160 93 2200 150/18 RMK AO2 TSE0256 P0001
14926KSTC STC20060616211512906/16/06 21:15:31  5-MIN KSTC 170315Z 15017KT 5SM -TSRA BR FEW007 OVC042 21/20 A2977 1170 93 2200 140/17 RMK AO2 TSE0256B15 P0002
14926KSTC STC20060616212012906/16/06 21:20:31  5-MIN KSTC 170320Z 15014KT 5SM -TSRA BR FEW007 OVC044 21/20 A2977 1160 93 2200 140/14 RMK AO2 TSE0256B15 P0002
14926KSTC STC20060616212512206/16/06 21:25:31  5-MIN KSTC 170325Z 14008KT 5SM -TSRA BR OVC042 21/20 A2977 1160 93 2200 140/08 RMK AO2 TSE0256B15 P0003
14926KSTC STC20060616213012306/16/06 21:30:31  5-MIN KSTC 170330Z 16006KT 5SM -RA BR OVC040 21/20 A2979 1150 93 2200 160/06 RMK AO2 TSE0256B15E30 P0003
14926KSTC STC20060616213513006/16/06 21:35:31  5-MIN KSTC 170335Z 20008KT 5SM -RA BR OVC040 21/20 A2980 1130 93 2100 200/08 RMK AO2 TSE0256B15E30 PRESRR P0004
14926KSTC STC20060616214012306/16/06 21:40:31  5-MIN KSTC 170340Z 17008KT 5SM -RA BR OVC040 21/20 A2980 1140 93 2200 170/08 RMK AO2 TSE0256B15E30 P0004
14926KSTC STC20060616214512306/16/06 21:45:31  5-MIN KSTC 170345Z 15009KT 5SM -RA BR OVC037 21/19 A2980 1140 90 2200 140/09 RMK AO2 TSE0256B15E30 P0004
14926KSTC STC20060616215013506/16/06 21:50:31  5-MIN KSTC 170350Z AUTO 15012KT 5SM -RA BR FEW006 OVC041 21/20 A2980 1140 97 2100 150/12 RMK AO2 TSE0256B15E30 P0004
14926KSTC STC20060616215512106/16/06 21:55:31  5-MIN KSTC 170355Z AUTO 16014KT 6SM -RA BR FEW006 OVC043 21/19 A2979 1150 93 2100 150/14 RMK AO2 P0001
14926KSTC STC20060616220013106/16/06 22:00:31  5-MIN KSTC 170400Z AUTO 15018G23KT 7SM -RA FEW006 BKN043 21/19 A2978 1160 93 2100 150/18G23 RMK AO2 PRESFR P0001
14926KSTC STC20060616220512606/16/06 22:05:31  5-MIN KSTC 170405Z AUTO 15016G23KT 8SM FEW006 BKN043 21/19 A2977 1160 90 2100 150/16G23 RMK AO2 RAE05 P0001
14926KSTC STC20060616221012006/16/06 22:10:31  5-MIN KSTC 170410Z AUTO 15015KT 8SM FEW006 SCT043 21/19 A2977 1160 90 2100 150/15 RMK AO2 RAE05 P0001
14926KSTC STC20060616221511306/16/06 22:15:31  5-MIN KSTC 170415Z AUTO 14013KT 7SM FEW006 21/19 A2977 1170 90 2100 140/13 RMK AO2 RAE05 P0001
14926KSTC STC20060616222011006/16/06 22:20:31  5-MIN KSTC 170420Z AUTO 12011KT 8SM CLR 20/19 A2976 1180 93 2100 120/11 RMK AO2 RAE05 P0001
14926KSTC STC20060616222511706/16/06 22:25:31  5-MIN KSTC 170425Z AUTO 10008KT 8SM CLR 20/19 A2975 1180 93 2100 100/08 RMK AO2 RAE05 PRESFR P0001
14926KSTC STC20060616223011006/16/06 22:30:31  5-MIN KSTC 170430Z AUTO 13008KT 8SM CLR 20/19 A2976 1170 93 2100 120/08 RMK AO2 RAE05 P0001
14926KSTC STC20060616223511306/16/06 22:35:31  5-MIN KSTC 170435Z AUTO 13008KT 8SM FEW095 20/19 A2977 1170 93 2100 120/08 RMK AO2 RAE05 P0001
14926KSTC STC20060616224011306/16/06 22:40:31  5-MIN KSTC 170440Z AUTO 13008KT 7SM SCT090 20/19 A2977 1170 93 2100 130/08 RMK AO2 RAE05 P0001
14926KSTC STC20060616224511306/16/06 22:45:31  5-MIN KSTC 170445Z AUTO 14006KT 7SM SCT085 20/19 A2977 1160 93 2100 140/06 RMK AO2 RAE05 P0001
14926KSTC STC20060616225013706/16/06 22:50:31  5-MIN KSTC 170450Z AUTO VRB05KT 7SM FEW008 BKN085 20/19 A2978 1160 93 2000 VRB/05 RMK AO2 RAE05 SLP085 P0001 T02000189
14926KSTC STC20060616225510806/16/06 22:55:31  5-MIN KSTC 170455Z AUTO 29004KT 8SM SCT008 BKN085 20/19 A2977 1170 93 2100 280/04 RMK AO2
14926KSTC STC20060616230010806/16/06 23:00:31  5-MIN KSTC 170500Z AUTO 00000KT 8SM BKN006 BKN085 20/19 A2977 1170 93 2100 000/00 RMK AO2
14926KSTC STC20060616230510806/16/06 23:05:31  5-MIN KSTC 170505Z AUTO 00000KT 8SM BKN006 BKN085 20/19 A2977 1170 93 2100 000/00 RMK AO2
14926KSTC STC20060616231010806/16/06 23:10:31  5-MIN KSTC 170510Z AUTO 21006KT 8SM BKN006 BKN085 20/19 A2978 1160 93 2100 210/06 RMK AO2
14926KSTC STC20060616231510106/16/06 23:15:31  5-MIN KSTC 170515Z AUTO 17005KT 8SM BKN006 20/19 A2977 1160 93 2100 170/05 RMK AO2
14926KSTC STC20060616232010106/16/06 23:20:31  5-MIN KSTC 170520Z AUTO 18005KT 8SM SCT006 20/19 A2977 1160 93 2100 180/05 RMK AO2
14926KSTC STC20060616232510106/16/06 23:25:31  5-MIN KSTC 170525Z AUTO 16005KT 8SM FEW006 20/19 A2977 1170 93 2100 160/05 RMK AO2
14926KSTC STC20060616233010106/16/06 23:30:31  5-MIN KSTC 170530Z AUTO 20007KT 8SM FEW006 20/19 A2977 1160 93 2100 200/07 RMK AO2
14926KSTC STC20060616233509806/16/06 23:35:31  5-MIN KSTC 170535Z AUTO 20007KT 9SM CLR 20/19 A2978 1160 93 2000 190/07 RMK AO2
14926KSTC STC20060616234010206/16/06 23:40:31  5-MIN KSTC 170540Z AUTO 21006KT 10SM FEW075 20/19 A2978 1160 93 2000 210/06 RMK AO2
14926KSTC STC20060616234510106/16/06 23:45:31  5-MIN KSTC 170545Z AUTO 22006KT 9SM FEW075 20/19 A2978 1160 93 2100 210/06 RMK AO2
14926KSTC STC20060616235014906/16/06 23:50:31  5-MIN KSTC 170550Z AUTO 22005KT 9SM CLR 20/19 A2977 1160 93 2100 210/05 RMK AO2 SLP083 60031 T02000189 10278 20200 403220200 53005
14926KSTC STC20060616235509806/16/06 23:55:31  5-MIN KSTC 170555Z AUTO 19005KT 9SM CLR 20/19 A2977 1170 93 2100 190/05 RMK AO2
14926KSTC STC20060617000011906/17/06 00:00:32  5-MIN KSTC 170600Z AUTO 18005KT 9SM -RA FEW100 20/19 A2977 1170 93 2100 170/05 RMK AO2 RAB0557 P0000
14926KSTC STC20060617000511906/17/06 00:05:31  5-MIN KSTC 170605Z AUTO 19005KT 9SM -RA FEW100 19/19 A2977 1170 97 2000 190/05 RMK AO2 RAB0557 P0000
14926KSTC STC20060617001011506/17/06 00:10:31  5-MIN KSTC 170610Z AUTO 23004KT 9SM CLR 19/19 A2976 1170 97 2000 220/04 RMK AO2 RAB0557E06 P0000
14926KSTC STC20060617001511506/17/06 00:15:31  5-MIN KSTC 170615Z AUTO 20004KT 9SM CLR 19/19 A2977 1170 97 2000 200/04 RMK AO2 RAB0557E06 P0000
14926KSTC STC20060617002011506/17/06 00:20:31  5-MIN KSTC 170620Z AUTO 20004KT 8SM CLR 19/19 A2977 1170 97 2000 190/04 RMK AO2 RAB0557E06 P0000
14926KSTC STC20060617002511506/17/06 00:25:31  5-MIN KSTC 170625Z AUTO 20003KT 8SM CLR 19/19 A2976 1170 97 2000 200/03 RMK AO2 RAB0557E06 P0000
14926KSTC STC20060617003011506/17/06 00:30:31  5-MIN KSTC 170630Z AUTO 20003KT 8SM CLR 19/18 A2976 1170 93 2000 200/03 RMK AO2 RAB0557E06 P0000
14926KSTC STC20060617003511506/17/06 00:35:31  5-MIN KSTC 170635Z AUTO 19003KT 8SM CLR 19/18 A2976 1170 93 2000 190/03 RMK AO2 RAB0557E06 P0000
14926KSTC STC20060617004011506/17/06 00:40:31  5-MIN KSTC 170640Z AUTO 17003KT 8SM CLR 19/18 A2976 1180 93 2000 170/03 RMK AO2 RAB0557E06 P0000
14926KSTC STC20060617004511506/17/06 00:45:31  5-MIN KSTC 170645Z AUTO 00000KT 8SM CLR 19/18 A2976 1180 93 2000 000/00 RMK AO2 RAB0557E06 P0000
14926KSTC STC20060617005013206/17/06 00:50:31  5-MIN KSTC 170650Z AUTO 19003KT 8SM CLR 19/18 A2975 1180 93 2000 190/03 RMK AO2 RAB0557E06 SLP076 P0000 T01940183
14926KSTC STC20060617005509806/17/06 00:55:31  5-MIN KSTC 170655Z AUTO 18003KT 8SM CLR 19/18 A2976 1180 97 1900 180/03 RMK AO2
14926KSTC STC20060617010009806/17/06 01:00:31  5-MIN KSTC 170700Z AUTO 21004KT 8SM CLR 19/18 A2976 1180 97 1900 210/04 RMK AO2
14926KSTC STC20060617010509806/17/06 01:05:31  5-MIN KSTC 170705Z AUTO 21003KT 8SM CLR 19/18 A2976 1180 97 1900 200/03 RMK AO2
14926KSTC STC20060617011010106/17/06 01:10:31  5-MIN KSTC 170710Z AUTO 00000KT 8SM FEW120 19/18 A2976 1180 97 1900 000/00 RMK AO2
14926KSTC STC20060617011510106/17/06 01:15:31  5-MIN KSTC 170715Z AUTO 19003KT 8SM SCT120 19/18 A2976 1180 97 1900 190/03 RMK AO2
14926KSTC STC20060617012010106/17/06 01:20:31  5-MIN KSTC 170720Z AUTO 20003KT 8SM FEW120 19/18 A2976 1180 97 1900 200/03 RMK AO2
14926KSTC STC20060617012510106/17/06 01:25:31  5-MIN KSTC 170725Z AUTO 23003KT 8SM FEW120 19/18 A2976 1180 97 1900 220/03 RMK AO2
14926KSTC STC20060617013010106/17/06 01:30:31  5-MIN KSTC 170730Z AUTO 24003KT 8SM FEW120 19/18 A2976 1170 97 1900 230/03 RMK AO2
14926KSTC STC20060617013510106/17/06 01:35:31  5-MIN KSTC 170735Z AUTO 00000KT 8SM FEW120 19/18 A2976 1180 97 1900 000/00 RMK AO2
14926KSTC STC20060617014010106/17/06 01:40:31  5-MIN KSTC 170740Z AUTO 00000KT 7SM FEW120 19/18 A2976 1180 97 1900 000/00 RMK AO2
14926KSTC STC20060617014509806/17/06 01:45:31  5-MIN KSTC 170745Z AUTO 00000KT 7SM CLR 19/18 A2976 1180 97 1900 000/00 RMK AO2
14926KSTC STC20060617015011506/17/06 01:50:31  5-MIN KSTC 170750Z AUTO 00000KT 7SM CLR 19/18 A2975 1180 97 1900 000/00 RMK AO2 SLP076 T01890183
14926KSTC STC20060617015509806/17/06 01:55:31  5-MIN KSTC 170755Z AUTO 00000KT 7SM CLR 19/18 A2975 1180 97 1900 000/00 RMK AO2
14926KSTC STC20060617020009806/17/06 02:00:31  5-MIN KSTC 170800Z AUTO 18003KT 7SM CLR 19/18 A2975 1180 97 2000 170/03 RMK AO2
14926KSTC STC20060617020510106/17/06 02:05:31  5-MIN KSTC 170805Z AUTO 14004KT 7SM FEW009 19/18 A2975 1180 97 2000 140/04 RMK AO2
14926KSTC STC20060617021010106/17/06 02:10:31  5-MIN KSTC 170810Z AUTO 16004KT 7SM SCT009 19/18 A2975 1180 97 2000 150/04 RMK AO2
14926KSTC STC20060617021510106/17/06 02:15:31  5-MIN KSTC 170815Z AUTO 16004KT 7SM BKN009 19/18 A2975 1180 97 1900 160/04 RMK AO2
14926KSTC STC20060617022010106/17/06 02:20:31  5-MIN KSTC 170820Z AUTO 19003KT 7SM BKN009 19/18 A2975 1190 97 2000 190/03 RMK AO2
14926KSTC STC20060617022510106/17/06 02:25:31  5-MIN KSTC 170825Z AUTO 16004KT 8SM BKN009 19/18 A2974 1190 97 2000 160/04 RMK AO2
14926KSTC STC20060617023010106/17/06 02:30:31  5-MIN KSTC 170830Z AUTO 16004KT 8SM OVC009 19/18 A2975 1190 97 2000 160/04 RMK AO2
14926KSTC STC20060617023510106/17/06 02:35:31  5-MIN KSTC 170835Z AUTO 16005KT 7SM BKN009 19/18 A2974 1190 97 2000 150/05 RMK AO2
14926KSTC STC20060617024010106/17/06 02:40:31  5-MIN KSTC 170840Z AUTO 15005KT 7SM BKN009 19/18 A2975 1190 97 2000 150/05 RMK AO2
14926KSTC STC20060617024511106/17/06 02:45:31  5-MIN KSTC 170845Z AUTO 16006KT 6SM BR SCT009 SCT100 19/18 A2975 1190 97 2000 160/06 RMK AO2
14926KSTC STC20060617025014006/17/06 02:50:31  5-MIN KSTC 170850Z AUTO 15005KT 6SM BR SCT009 BKN100 19/18 A2975 1190 97 2000 150/05 RMK AO2 SLP074 60000 T01890183 56007
14926KSTC STC20060617025511106/17/06 02:55:31  5-MIN KSTC 170855Z AUTO 15005KT 6SM BR FEW009 BKN100 19/18 A2975 1190 97 2000 150/05 RMK AO2
14926KSTC STC20060617030010406/17/06 03:00:31  5-MIN KSTC 170900Z AUTO 15006KT 6SM BR BKN100 19/18 A2975 1190 97 2000 150/06 RMK AO2
14926KSTC STC20060617030510406/17/06 03:05:31  5-MIN KSTC 170905Z AUTO 16005KT 5SM BR BKN100 19/18 A2975 1180 97 2000 150/05 RMK AO2
14926KSTC STC20060617031010406/17/06 03:10:31  5-MIN KSTC 170910Z AUTO 15005KT 5SM BR OVC100 19/18 A2975 1180 97 2000 150/05 RMK AO2
14926KSTC STC20060617031510406/17/06 03:15:31  5-MIN KSTC 170915Z AUTO 15006KT 5SM BR OVC100 19/18 A2975 1180 97 2000 150/06 RMK AO2
14926KSTC STC20060617032010406/17/06 03:20:31  5-MIN KSTC 170920Z AUTO 16005KT 5SM BR OVC100 19/18 A2975 1180 97 1900 160/05 RMK AO2
14926KSTC STC20060617032510406/17/06 03:25:31  5-MIN KSTC 170925Z AUTO 16004KT 5SM BR OVC100 19/18 A2976 1180 97 1900 160/04 RMK AO2
14926KSTC STC20060617033011106/17/06 03:30:31  5-MIN KSTC 170930Z AUTO 16003KT 5SM BR FEW007 OVC100 19/18 A2976 1180 97 1900 150/03 RMK AO2
14926KSTC STC20060617033511106/17/06 03:35:31  5-MIN KSTC 170935Z AUTO 00000KT 5SM BR SCT007 OVC100 19/18 A2976 1170 93 2000 000/00 RMK AO2
14926KSTC STC20060617034011106/17/06 03:40:31  5-MIN KSTC 170940Z AUTO 00000KT 5SM BR BKN007 OVC095 19/19 A2976 1170 97 2000 000/00 RMK AO2
14926KSTC STC20060617034511106/17/06 03:45:31  5-MIN KSTC 170945Z AUTO 00000KT 6SM BR BKN007 OVC095 19/18 A2976 1170 93 2000 000/00 RMK AO2
14926KSTC STC20060617035012806/17/06 03:50:31  5-MIN KSTC 170950Z AUTO 00000KT 6SM BR BKN007 OVC095 19/18 A2977 1170 93 2000 000/00 RMK AO2 SLP081 T01940183
14926KSTC STC20060617035511106/17/06 03:55:31  5-MIN KSTC 170955Z AUTO 28003KT 6SM BR BKN007 OVC095 19/18 A2977 1170 93 2000 280/03 RMK AO2
14926KSTC STC20060617040010406/17/06 04:00:31  5-MIN KSTC 171000Z AUTO 00000KT 6SM BR OVC005 19/19 A2977 1160 97 2000 000/00 RMK AO2
14926KSTC STC20060617040511606/17/06 04:05:31  5-MIN KSTC 171005Z AUTO 31003KT 5SM BR OVC005 19/19 A2977 1160 97 2000 310/03 RMK AO2 CIG 003V007
14926KSTC STC20060617041011606/17/06 04:10:31  5-MIN KSTC 171010Z AUTO 31003KT 5SM BR OVC005 19/19 A2977 1160 97 2000 310/03 RMK AO2 CIG 003V007
14926KSTC STC20060617041510406/17/06 04:15:31  5-MIN KSTC 171015Z AUTO 32004KT 5SM BR OVC005 19/19 A2978 1160 97 2000 320/04 RMK AO2
14926KSTC STC20060617042010406/17/06 04:20:31  5-MIN KSTC 171020Z AUTO 33005KT 5SM BR OVC005 19/18 A2977 1160 93 2000 320/05 RMK AO2
14926KSTC STC20060617042511606/17/06 04:25:31  5-MIN KSTC 171025Z AUTO 33004KT 5SM BR OVC005 19/18 A2977 1170 93 2000 330/04 RMK AO2 CIG 003V008
14926KSTC STC20060617043011106/17/06 04:30:31  5-MIN KSTC 171030Z AUTO 32004KT 5SM BR BKN005 OVC010 19/19 A2977 1160 97 2000 320/04 RMK AO2
14926KSTC STC20060617043513006/17/06 04:35:31  5-MIN KSTC 171035Z AUTO 33003KT 4SM BR SCT005 BKN010 OVC100 19/19 A2977 1170 97 2000 320/03 RMK AO2 CIG 008V013
14926KSTC STC20060617044013006/17/06 04:40:31  5-MIN KSTC 171040Z AUTO 32003KT 4SM BR BKN007 BKN060 OVC090 19/19 A2977 1160 97 2000 320/03 RMK AO2 CIG 005V013
14926KSTC STC20060617044511806/17/06 04:45:31  5-MIN KSTC 171045Z AUTO 34003KT 4SM BR SCT007 BKN060 OVC095 19/19 A2977 1170 97 2000 340/03 RMK AO2
14926KSTC STC20060617045013506/17/06 04:50:31  5-MIN KSTC 171050Z AUTO 00000KT 5SM BR FEW009 BKN080 OVC095 19/19 A2977 1170 97 2000 000/00 RMK AO2 SLP081 T01940189
14926KSTC STC20060617045511806/17/06 04:55:31  5-MIN KSTC 171055Z AUTO 00000KT 4SM BR FEW009 BKN080 OVC095 19/19 A2977 1170 97 2000 000/00 RMK AO2
14926KSTC STC20060617050011806/17/06 05:00:31  5-MIN KSTC 171100Z AUTO 00000KT 4SM BR FEW060 BKN080 OVC095 19/19 A2977 1170 97 2000 000/00 RMK AO2
14926KSTC STC20060617050511806/17/06 05:05:31  5-MIN KSTC 171105Z AUTO 00000KT 4SM BR FEW060 BKN080 OVC095 19/19 A2976 1170 97 2000 000/00 RMK AO2
14926KSTC STC20060617051012706/17/06 05:10:31  5-MIN KSTC 171110Z AUTO 00000KT 4SM -RA BR BKN080 OVC090 20/19 A2976 1180 93 2100 000/00 RMK AO2 RAB07 P0000
14926KSTC STC20060617051512006/17/06 05:15:31  5-MIN KSTC 171115Z AUTO 00000KT 3SM -RA BR OVC080 20/19 A2975 1180 93 2100 000/00 RMK AO2 RAB07 P0000
14926KSTC STC20060617052013306/17/06 05:20:31  5-MIN KSTC 171120Z AUTO 03003KT 3SM BR BKN080 BKN095 OVC120 20/19 A2975 1190 93 2100 030/03 RMK AO2 RAB07E18 P0000
14926KSTC STC20060617052512606/17/06 05:25:31  5-MIN KSTC 171125Z AUTO 04003KT 3SM BR BKN080 BKN120 20/19 A2975 1190 93 2100 030/03 RMK AO2 RAB07E18 P0000
14926KSTC STC20060617053012606/17/06 05:30:31  5-MIN KSTC 171130Z AUTO 03003KT 3SM BR SCT080 BKN120 20/19 A2974 1190 93 2100 020/03 RMK AO2 RAB07E18 P0000
14926KSTC STC20060617053512606/17/06 05:35:31  5-MIN KSTC 171135Z AUTO 01003KT 3SM BR FEW080 SCT120 20/19 A2974 1190 93 2100 010/03 RMK AO2 RAB07E18 P0000
14926KSTC STC20060617054011906/17/06 05:40:31  5-MIN KSTC 171140Z AUTO 03004KT 3SM BR FEW080 20/19 A2974 1200 93 2100 030/04 RMK AO2 RAB07E18 P0000
14926KSTC STC20060617054511906/17/06 05:45:31  5-MIN KSTC 171145Z AUTO 05003KT 4SM BR FEW120 20/19 A2974 1200 93 2100 050/03 RMK AO2 RAB07E18 P0000
14926KSTC STC20060617055016306/17/06 05:50:31  5-MIN KSTC 171150Z AUTO 00000KT 4SM BR CLR 20/19 A2974 1190 93 2100 000/00 RMK AO2 RAB07E18 SLP073 P0000 60000 70031 T02000189 10200 20189 56003
14926KSTC STC20060617055510106/17/06 05:55:31  5-MIN KSTC 171155Z AUTO 00000KT 4SM BR CLR 20/19 A2975 1180 97 2100 000/00 RMK AO2
14926KSTC STC20060617060010106/17/06 06:00:31  5-MIN KSTC 171200Z AUTO 00000KT 5SM BR CLR 21/19 A2975 1180 90 2100 000/00 RMK AO2
14926KSTC STC20060617060510106/17/06 06:05:31  5-MIN KSTC 171205Z AUTO 15003KT 5SM BR CLR 21/19 A2975 1180 93 2100 150/03 RMK AO2
14926KSTC STC20060617061010106/17/06 06:10:31  5-MIN KSTC 171210Z AUTO 12003KT 5SM BR CLR 20/19 A2975 1190 97 2100 120/03 RMK AO2
14926KSTC STC20060617061509606/17/06 06:15:31  5-MIN KSTC 171215Z 00000KT 5SM BR CLR 21/19 A2974 1190 93 2200 000/00 RMK AO2
14926KSTC STC20060617062009606/17/06 06:20:31  5-MIN KSTC 171220Z 00000KT 4SM BR CLR 21/19 A2974 1190 93 2200 000/00 RMK AO2
14926KSTC STC20060617062509606/17/06 06:25:31  5-MIN KSTC 171225Z 08003KT 5SM BR CLR 21/19 A2974 1200 93 2200 080/03 RMK AO2
14926KSTC STC20060617063009606/17/06 06:30:31  5-MIN KSTC 171230Z 08003KT 5SM BR CLR 21/19 A2974 1200 93 2200 080/03 RMK AO2
14926KSTC STC20060617063509606/17/06 06:35:31  5-MIN KSTC 171235Z 11003KT 6SM BR CLR 21/19 A2974 1190 93 2200 110/03 RMK AO2
14926KSTC STC20060617064009606/17/06 06:40:31  5-MIN KSTC 171240Z 00000KT 6SM BR CLR 21/19 A2975 1190 93 2100 000/00 RMK AO2
14926KSTC STC20060617064509606/17/06 06:45:31  5-MIN KSTC 171245Z 14003KT 6SM BR CLR 21/19 A2975 1190 90 2200 140/03 RMK AO2
14926KSTC STC20060617065011306/17/06 06:50:31  5-MIN KSTC 171250Z VRB03KT 6SM BR CLR 21/19 A2975 1180 90 2200 VRB/03 RMK AO2 SLP077 T02110194
14926KSTC STC20060617065509306/17/06 06:55:31  5-MIN KSTC 171255Z 00000KT 7SM CLR 21/19 A2975 1180 90 2200 000/00 RMK AO2
14926KSTC STC20060617070009306/17/06 07:00:31  5-MIN KSTC 171300Z 00000KT 7SM CLR 21/19 A2975 1190 90 2200 000/00 RMK AO2
14926KSTC STC20060617070509306/17/06 07:05:31  5-MIN KSTC 171305Z 00000KT 8SM CLR 21/19 A2975 1180 90 2200 000/00 RMK AO2
14926KSTC STC20060617071009606/17/06 07:10:31  5-MIN KSTC 171310Z 00000KT 8SM FEW095 22/19 A2975 1190 87 2300 000/00 RMK AO2
14926KSTC STC20060617071509606/17/06 07:15:31  5-MIN KSTC 171315Z 00000KT 8SM FEW090 22/19 A2975 1180 87 2300 000/00 RMK AO2
14926KSTC STC20060617072010306/17/06 07:20:31  5-MIN KSTC 171320Z 00000KT 8SM FEW060 SCT075 22/19 A2975 1180 87 2300 000/00 RMK AO2
14926KSTC STC20060617072511006/17/06 07:25:31  5-MIN KSTC 171325Z 18003KT 9SM FEW049 SCT060 SCT075 22/19 A2976 1180 84 2300 170/03 RMK AO2
14926KSTC STC20060617073011006/17/06 07:30:31  5-MIN KSTC 171330Z 00000KT 8SM FEW047 BKN060 BKN080 21/19 A2975 1180 90 2200 000/00 RMK AO2
14926KSTC STC20060617073511006/17/06 07:35:31  5-MIN KSTC 171335Z 00000KT 8SM FEW047 SCT060 BKN080 22/19 A2975 1190 87 2300 000/00 RMK AO2
14926KSTC STC20060617074010306/17/06 07:40:31  5-MIN KSTC 171340Z 00000KT 8SM FEW047 SCT060 22/19 A2975 1190 87 2300 000/00 RMK AO2
14926KSTC STC20060617074510306/17/06 07:45:31  5-MIN KSTC 171345Z 00000KT 8SM FEW047 SCT060 22/19 A2975 1190 84 2300 000/00 RMK AO2
14926KSTC STC20060617075009606/17/06 07:50:31  5-MIN KSTC 171350Z 00000KT 8SM FEW009 22/19 A2975 1190 84 2300 000/00 RMK AO2
14926KSTC STC20060617075509606/17/06 07:55:31  5-MIN KSTC 171355Z 16003KT 8SM FEW009 22/19 A2975 1190 84 2300 160/03 RMK AO2
14926KSTC STC20060617080009606/17/06 08:00:31  5-MIN KSTC 171400Z 00000KT 9SM FEW009 22/19 A2975 1190 84 2300 000/00 RMK AO2
14926KSTC STC20060617080510306/17/06 08:05:31  5-MIN KSTC 171405Z VRB03KT 9SM SCT011 SCT050 22/19 A2975 1190 84 2300 VRB/03 RMK AO2
14926KSTC STC20060617081011106/17/06 08:10:31  5-MIN KSTC 171410Z 28003KT 10SM FEW009 SCT014 BKN050 23/19 A2975 1190 78 2400 280/03 RMK AO2
14926KSTC STC20060617081511106/17/06 08:15:31  5-MIN KSTC 171415Z 26004KT 10SM FEW009 SCT014 BKN050 23/19 A2975 1190 78 2400 250/04 RMK AO2
14926KSTC STC20060617082011106/17/06 08:20:31  5-MIN KSTC 171420Z VRB03KT 10SM FEW009 SCT014 BKN050 23/19 A2975 1180 78 2400 VRB/03 RMK AO2
14926KSTC STC20060617082511106/17/06 08:25:31  5-MIN KSTC 171425Z VRB03KT 10SM FEW009 SCT014 BKN050 23/19 A2974 1190 76 2500 VRB/03 RMK AO2
14926KSTC STC20060617083010406/17/06 08:30:31  5-MIN KSTC 171430Z 00000KT 10SM SCT016 BKN050 23/19 A2974 1190 76 2500 000/00 RMK AO2
14926KSTC STC20060617083510406/17/06 08:35:31  5-MIN KSTC 171435Z VRB03KT 10SM SCT016 BKN050 24/19 A2974 1190 73 2500 VRB/03 RMK AO2
14926KSTC STC20060617084010406/17/06 08:40:31  5-MIN KSTC 171440Z 31004KT 10SM FEW016 SCT050 24/18 A2974 1200 71 2500 310/04 RMK AO2
14926KSTC STC20060617084510406/17/06 08:45:31  5-MIN KSTC 171445Z 31003KT 10SM FEW016 SCT050 23/18 A2974 1200 73 2500 310/03 RMK AO2
14926KSTC STC20060617085012006/17/06 08:50:31  5-MIN KSTC 171450Z 00000KT 10SM SCT016 24/19 A2973 1200 73 2500 000/00 RMK AO2 SLP071 T02390189 58008
14926KSTC STC20060617085509706/17/06 08:55:31  5-MIN KSTC 171455Z VRB04KT 10SM FEW018 24/19 A2973 1200 73 2500 VRB/04 RMK AO2
14926KSTC STC20060617090009706/17/06 09:00:31  5-MIN KSTC 171500Z 03005KT 10SM FEW018 24/18 A2973 1200 68 2600 030/05 RMK AO2
14926KSTC STC20060617090509706/17/06 09:05:31  5-MIN KSTC 171505Z VRB04KT 10SM FEW018 24/18 A2973 1200 71 2500 VRB/04 RMK AO2
14926KSTC STC20060617091010406/17/06 09:10:31  5-MIN KSTC 171510Z VRB03KT 10SM FEW018 SCT044 24/18 A2973 1200 68 2600 VRB/03 RMK AO2
14926KSTC STC20060617091510406/17/06 09:15:31  5-MIN KSTC 171515Z 00000KT 10SM FEW018 BKN044 24/18 A2973 1200 68 2500 000/00 RMK AO2
14926KSTC STC20060617092009706/17/06 09:20:31  5-MIN KSTC 171520Z 07004KT 10SM BKN044 24/18 A2973 1200 66 2600 070/04 RMK AO2
14926KSTC STC20060617092509706/17/06 09:25:31  5-MIN KSTC 171525Z 07003KT 10SM BKN044 24/18 A2973 1200 68 2500 070/03 RMK AO2
14926KSTC STC20060617093009706/17/06 09:30:31  5-MIN KSTC 171530Z 12003KT 10SM OVC044 24/18 A2973 1200 68 2500 120/03 RMK AO2
14926KSTC STC20060617093509706/17/06 09:35:31  5-MIN KSTC 171535Z 00000KT 10SM OVC044 24/17 A2973 1200 66 2500 000/00 RMK AO2
14926KSTC STC20060617094010406/17/06 09:40:31  5-MIN KSTC 171540Z 13003KT 10SM FEW022 OVC044 24/18 A2973 1200 71 2500 130/03 RMK AO2
14926KSTC STC20060617094510406/17/06 09:45:31  5-MIN KSTC 171545Z 00000KT 10SM SCT022 OVC044 23/19 A2973 1200 76 2500 000/00 RMK AO2
14926KSTC STC20060617095010406/17/06 09:50:31  5-MIN KSTC 171550Z 13004KT 10SM BKN022 OVC044 24/19 A2972 1210 73 2600 120/04 RMK AO2
14926KSTC STC20060617095510406/17/06 09:55:31  5-MIN KSTC 171555Z 15005KT 10SM BKN022 OVC044 24/19 A2972 1210 73 2600 150/05 RMK AO2
14926KSTC STC20060617100010406/17/06 10:00:31  5-MIN KSTC 171600Z 14004KT 10SM BKN020 OVC044 24/19 A2973 1210 73 2500 140/04 RMK AO2
14926KSTC STC20060617113511906/17/06 11:35:31  5-MIN KSTC 171735Z 00000KT 10SM BKN035 OVC045 23/20 A2972 1220 84 2400 000/00 RMK AO2 RAB09E30 P0002
14926KSTC STC20060617114011206/17/06 11:40:31  5-MIN KSTC 171740Z 00000KT 10SM OVC035 23/20 A2972 1220 84 2400 000/00 RMK AO2 RAB09E30 P0002
14926KSTC STC20060617114511206/17/06 11:45:31  5-MIN KSTC 171745Z 00000KT 10SM OVC034 23/21 A2971 1220 87 2400 000/00 RMK AO2 RAB09E30 P0002
14926KSTC STC20060617115015306/17/06 11:50:31  5-MIN KSTC 171750Z 00000KT 10SM OVC032 23/20 A2971 1220 84 2400 000/00 RMK AO2 RAB09E30 SLP064 P0002 60002 T02280200 10244 20200 58004
14926KSTC STC20060617115509706/17/06 11:55:31  5-MIN KSTC 171755Z 33007KT 10SM OVC032 22/19 A2970 1230 84 2400 330/07 RMK AO2
14926KSTC STC20060617120009706/17/06 12:00:31  5-MIN KSTC 171800Z 36004KT 10SM OVC032 22/19 A2970 1230 87 2300 360/04 RMK AO2
14926KSTC STC20060617120510406/17/06 12:05:31  5-MIN KSTC 171805Z 36005KT 10SM BKN027 OVC032 22/19 A2970 1230 84 2400 360/05 RMK AO2
14926KSTC STC20060617121010406/17/06 12:10:31  5-MIN KSTC 171810Z 36005KT 10SM BKN025 OVC032 22/19 A2970 1230 84 2400 360/05 RMK AO2
14926KSTC STC20060617121510406/17/06 12:15:31  5-MIN KSTC 171815Z 35005KT 10SM BKN025 OVC032 22/19 A2970 1230 84 2400 340/05 RMK AO2
14926KSTC STC20060617122010406/17/06 12:20:31  5-MIN KSTC 171820Z 36005KT 10SM BKN025 OVC032 22/19 A2970 1230 84 2400 360/05 RMK AO2
14926KSTC STC20060617122509706/17/06 12:25:31  5-MIN KSTC 171825Z 35004KT 10SM OVC025 22/19 A2970 1230 84 2400 340/04 RMK AO2
14926KSTC STC20060617123011206/17/06 12:30:31  5-MIN KSTC 171830Z 32005KT 8SM -RA OVC025 22/19 A2970 1230 87 2300 320/05 RMK AO2 RAB26 P0000
14926KSTC STC20060617123511406/17/06 12:35:31  5-MIN KSTC 171835Z 31009KT 5SM RA BR OVC027 22/19 A2970 1230 87 2300 310/09 RMK AO2 RAB26 P0001
14926KSTC STC20060617124011506/17/06 12:40:31  5-MIN KSTC 171840Z 33008KT 5SM -RA BR OVC027 21/19 A2970 1240 87 2300 320/08 RMK AO2 RAB26 P0001
14926KSTC STC20060617124511206/17/06 12:45:31  5-MIN KSTC 171845Z 32006KT 8SM -RA OVC027 21/19 A2969 1240 90 2300 320/06 RMK AO2 RAB26 P0001
14926KSTC STC20060617125012906/17/06 12:50:31  5-MIN KSTC 171850Z 32006KT 8SM -RA OVC027 21/19 A2969 1240 90 2300 320/06 RMK AO2 RAB26 SLP059 P0001 T02110194
14926KSTC STC20060617125512006/17/06 12:55:31  5-MIN KSTC 171855Z 34008KT 8SM -RA FEW013 SCT018 OVC027 22/19 A2969 1240 87 2300 330/08 RMK AO2 P0000
14926KSTC STC20060617130012006/17/06 13:00:31  5-MIN KSTC 171900Z 34008KT 8SM -RA FEW013 SCT018 OVC027 21/19 A2969 1240 87 2300 330/08 RMK AO2 P0000
14926KSTC STC20060617130511306/17/06 13:05:31  5-MIN KSTC 171905Z 34009KT 7SM -RA FEW013 OVC027 21/19 A2969 1240 90 2200 340/09 RMK AO2 P0000
14926KSTC STC20060617131012206/17/06 13:10:31  5-MIN KSTC 171910Z 31008KT 3SM RA BR FEW013 SCT020 OVC027 21/19 A2970 1230 90 2200 310/08 RMK AO2 P0000
14926KSTC STC20060617131511606/17/06 13:15:31  5-MIN KSTC 171915Z 30011KT 1SM +RA BR FEW016 OVC025 21/19 A2970 1230 90 2200 300/11 RMK AO2 P0007
14926KSTC STC20060617132011606/17/06 13:20:31  5-MIN KSTC 171920Z 31011KT 1SM -RA BR FEW011 OVC025 21/19 A2970 1230 93 2200 310/11 RMK AO2 P0010
14926KSTC STC20060617132512306/17/06 13:25:31  5-MIN KSTC 171925Z 30011KT 3SM -RA BR SCT023 BKN028 OVC039 21/19 A2970 1230 93 2200 300/11 RMK AO2 P0011
14926KSTC STC20060617133011606/17/06 13:30:31  5-MIN KSTC 171930Z 30011KT 5SM -RA BR SCT023 OVC028 21/19 A2970 1230 93 2200 300/11 RMK AO2 P0011
14926KSTC STC20060617133512206/17/06 13:35:31  5-MIN KSTC 171935Z 32010KT 4SM RA BR FEW010 BKN023 OVC028 21/19 A2970 1230 90 2200 320/10 RMK AO2 P0011
14926KSTC STC20060617134012306/17/06 13:40:31  5-MIN KSTC 171940Z 30010KT 3SM -RA BR SCT012 BKN023 OVC039 20/19 A2970 1230 93 2100 300/10 RMK AO2 P0012
14926KSTC STC20060617134512706/17/06 13:45:31  5-MIN KSTC 171945Z 32008KT 2 1/2SM -RA BR FEW008 BKN027 OVC044 20/19 A2970 1230 93 2100 320/08 RMK AO2 P0012
14926KSTC STC20060617135014306/17/06 13:50:31  5-MIN KSTC 171950Z 34005KT 1 3/4SM RA BR FEW011 BKN041 OVC048 20/18 A2970 1230 90 2100 330/05 RMK AO2 SLP061 P0017 T02000183
14926KSTC STC20060617135512306/17/06 13:55:31  5-MIN KSTC 171955Z 28009KT 3SM -RA BR SCT011 BKN041 OVC048 20/19 A2971 1220 93 2100 280/09 RMK AO2 P0000
14926KSTC STC20060617140012306/17/06 14:00:31  5-MIN KSTC 172000Z 30009KT 4SM -RA BR SCT008 BKN013 OVC048 20/19 A2970 1230 93 2100 300/09 RMK AO2 P0000
14926KSTC STC20060617140512306/17/06 14:05:31  5-MIN KSTC 172005Z 34008KT 3SM -RA BR FEW008 BKN039 OVC048 19/18 A2970 1230 93 2100 330/08 RMK AO2 P0001
14926KSTC STC20060617141011506/17/06 14:10:31  5-MIN KSTC 172010Z 31007KT 3SM RA BR SCT008 OVC041 19/18 A2970 1230 93 2100 310/07 RMK AO2 P0002
14926KSTC STC20060617141512806/17/06 14:15:31  5-MIN KSTC 172015Z 30012KT 2SM +RA BR BKN007 OVC041 19/18 A2970 1230 93 2100 300/12 RMK AO2 VIS 1 1/4V4 P0004
14926KSTC STC20060617142013506/17/06 14:20:31  5-MIN KSTC 172020Z 30009KT 2SM -RA BR BKN007 BKN042 OVC049 19/18 A2970 1230 93 2100 300/09 RMK AO2 CIG 005V014 P0006
14926KSTC STC20060617142512606/17/06 14:25:31  5-MIN KSTC 172025Z 30008KT 2 1/2SM RA BR SCT007 BKN031 OVC049 19/18 A2970 1230 93 2100 300/08 RMK AO2 P0007
14926KSTC STC20060617143012606/17/06 14:30:31  5-MIN KSTC 172030Z 31007KT 1 3/4SM RA BR FEW007 BKN025 OVC050 19/18 A2970 1230 93 2100 300/07 RMK AO2 P0009
14926KSTC STC20060617143512306/17/06 14:35:31  5-MIN KSTC 172035Z 32007KT 2SM -RA BR FEW007 BKN030 OVC055 19/18 A2970 1240 93 2100 320/07 RMK AO2 P0010
14926KSTC STC20060617144012306/17/06 14:40:31  5-MIN KSTC 172040Z 30008KT 3SM -RA BR FEW007 SCT030 OVC050 19/18 A2970 1230 93 2100 300/08 RMK AO2 P0010
14926KSTC STC20060617144512306/17/06 14:45:31  5-MIN KSTC 172045Z 31007KT 5SM -RA BR FEW024 SCT050 OVC055 19/18 A2970 1230 93 2100 310/07 RMK AO2 P0010
14926KSTC STC20060617145014506/17/06 14:50:31  5-MIN KSTC 172050Z 32006KT 5SM -RA BR FEW024 OVC055 19/18 A2969 1240 93 2100 320/06 RMK AO2 SLP060 P0010 60028 T01940183 58009
14926KSTC STC20060617145511606/17/06 14:55:31  5-MIN KSTC 172055Z 32005KT 6SM -RA BR FEW020 OVC055 19/18 A2969 1240 93 2100 320/05 RMK AO2 P0000
14926KSTC STC20060617150010906/17/06 15:00:31  5-MIN KSTC 172100Z 34003KT 6SM -RA BR OVC055 19/18 A2969 1240 93 2100 340/03 RMK AO2 P0000
14926KSTC STC20060617150510906/17/06 15:05:31  5-MIN KSTC 172105Z 33004KT 6SM -RA BR OVC060 19/18 A2970 1240 93 2100 330/04 RMK AO2 P0000
14926KSTC STC20060617151011106/17/06 15:10:31  5-MIN KSTC 172110Z AUTO 32005KT 7SM -RA OVC060 19/18 A2970 1240 93 2100 320/05 RMK AO2 P0001
14926KSTC STC20060617151511206/17/06 15:15:31  5-MIN KSTC 172115Z AUTO 33006KT 10SM -RA OVC060 19/18 A2969 1240 93 2100 320/06 RMK AO2 P0001
14926KSTC STC20060617152011206/17/06 15:20:31  5-MIN KSTC 172120Z AUTO 31007KT 10SM -RA OVC060 20/18 A2970 1230 90 2100 300/07 RMK AO2 P0001
14926KSTC STC20060617152511106/17/06 15:25:31  5-MIN KSTC 172125Z AUTO 30006KT 9SM -RA OVC060 20/19 A2970 1240 93 2100 300/06 RMK AO2 P0001
14926KSTC STC20060617153011406/17/06 15:30:31  5-MIN KSTC 172130Z AUTO 29007KT 6SM -RA BR OVC060 20/19 A2970 1230 93 2100 290/07 RMK AO2 P0001
14926KSTC STC20060617153510906/17/06 15:35:31  5-MIN KSTC 172135Z 31007KT 6SM -RA BR OVC060 19/19 A2969 1240 97 2100 310/07 RMK AO2 P0001
14926KSTC STC20060617154010606/17/06 15:40:31  5-MIN KSTC 172140Z 31008KT 7SM -RA OVC060 20/19 A2970 1230 93 2100 300/08 RMK AO2 P0001
14926KSTC STC20060617154510606/17/06 15:45:31  5-MIN KSTC 172145Z 32007KT 8SM -RA OVC060 20/19 A2969 1240 93 2100 320/07 RMK AO2 P0001
14926KSTC STC20060617155012606/17/06 15:50:31  5-MIN KSTC 172150Z 30008KT 10SM OVC060 20/19 A2970 1230 93 2100 290/08 RMK AO2 RAE49 SLP062 P0001 T02000189
14926KSTC STC20060617155509706/17/06 15:55:31  5-MIN KSTC 172155Z 31008KT 10SM OVC060 20/18 A2969 1240 90 2100 310/08 RMK AO2
14926KSTC STC20060617160009706/17/06 16:00:31  5-MIN KSTC 172200Z 32007KT 10SM OVC060 19/18 A2969 1240 93 2100 310/07 RMK AO2
14926KSTC STC20060617160511206/17/06 16:05:31  5-MIN KSTC 172205Z 32006KT 9SM -RA OVC060 19/18 A2969 1240 93 2100 320/06 RMK AO2 RAB05 P0000
14926KSTC STC20060617161011206/17/06 16:10:31  5-MIN KSTC 172210Z 32005KT 9SM -RA OVC060 20/19 A2969 1240 93 2100 320/05 RMK AO2 RAB05 P0000
14926KSTC STC20060617161511106/17/06 16:15:31  5-MIN KSTC 172215Z 34005KT 9SM OVC060 20/19 A2969 1240 93 2100 330/05 RMK AO2 RAB05E14 P0000
14926KSTC STC20060617162011106/17/06 16:20:31  5-MIN KSTC 172220Z 33006KT 9SM OVC060 20/18 A2969 1240 90 2100 330/06 RMK AO2 RAB05E14 P0000
14926KSTC STC20060617162511206/17/06 16:25:31  5-MIN KSTC 172225Z 31005KT 10SM OVC060 19/18 A2970 1230 93 2100 310/05 RMK AO2 RAB05E14 P0000
14926KSTC STC20060617163011806/17/06 16:30:31  5-MIN KSTC 172230Z 00000KT 7SM -RA OVC060 20/18 A2971 1220 90 2100 000/00 RMK AO2 RAB05E14B30 P0000
14926KSTC STC20060617163512806/17/06 16:35:31  5-MIN KSTC 172235Z 31003KT 5SM -RA BR FEW005 OVC060 20/18 A2971 1220 90 2100 300/03 RMK AO2 RAB05E14B30 P0000
14926KSTC STC20060617164012806/17/06 16:40:31  5-MIN KSTC 172240Z 32006KT 4SM -RA BR FEW005 OVC060 20/18 A2971 1220 90 2100 310/06 RMK AO2 RAB05E14B30 P0001
14926KSTC STC20060617164512806/17/06 16:45:31  5-MIN KSTC 172245Z 32004KT 5SM -RA BR SCT005 OVC060 20/19 A2971 1220 93 2100 320/04 RMK AO2 RAB05E14B30 P0001
14926KSTC STC20060617165014506/17/06 16:50:31  5-MIN KSTC 172250Z 27004KT 4SM -RA BR SCT005 OVC060 20/19 A2971 1220 93 2100 270/04 RMK AO2 RAB05E14B30 SLP067 P0001 T02000189
14926KSTC STC20060617165511606/17/06 16:55:31  5-MIN KSTC 172255Z 29005KT 5SM -RA BR FEW005 OVC060 20/19 A2971 1220 93 2100 290/05 RMK AO2 P0000
14926KSTC STC20060617170011606/17/06 17:00:31  5-MIN KSTC 172300Z 31008KT 3SM -RA BR FEW005 OVC060 20/19 A2971 1220 93 2100 310/08 RMK AO2 P0001
14926KSTC STC20060617170512006/17/06 17:05:31  5-MIN KSTC 172305Z 32006KT 2 1/2SM -RA BR FEW005 OVC065 19/19 A2970 1230 97 2100 320/06 RMK AO2 P0001
14926KSTC STC20060617171012006/17/06 17:10:31  5-MIN KSTC 172310Z 32007KT 2 1/2SM -RA BR FEW005 OVC065 19/19 A2970 1230 97 2100 320/07 RMK AO2 P0001
14926KSTC STC20060617171510906/17/06 17:15:31  5-MIN KSTC 172315Z 32006KT 3SM -RA BR OVC070 19/19 A2971 1220 97 2100 320/06 RMK AO2 P0002
14926KSTC STC20060617172010906/17/06 17:20:31  5-MIN KSTC 172320Z 31007KT 3SM -RA BR OVC070 19/19 A2971 1220 97 2100 300/07 RMK AO2 P0002
14926KSTC STC20060617172510906/17/06 17:25:31  5-MIN KSTC 172325Z 32007KT 4SM -RA BR OVC070 20/19 A2970 1230 93 2100 320/07 RMK AO2 P0002
14926KSTC STC20060617173010906/17/06 17:30:31  5-MIN KSTC 172330Z 31006KT 4SM -RA BR OVC070 20/19 A2970 1230 93 2100 310/06 RMK AO2 P0002
14926KSTC STC20060617173511106/17/06 17:35:31  5-MIN KSTC 172335Z 32005KT 6SM BR OVC070 20/19 A2970 1230 93 2100 310/05 RMK AO2 RAE32 P0002
14926KSTC STC20060617174010806/17/06 17:40:31  5-MIN KSTC 172340Z 31005KT 7SM OVC075 20/19 A2970 1230 93 2100 310/05 RMK AO2 RAE32 P0002
14926KSTC STC20060617174510806/17/06 17:45:31  5-MIN KSTC 172345Z 32005KT 8SM OVC075 20/19 A2970 1230 93 2100 310/05 RMK AO2 RAE32 P0002
14926KSTC STC20060617175014906/17/06 17:50:31  5-MIN KSTC 172350Z 30005KT 9SM OVC075 20/19 A2970 1230 93 2100 300/05 RMK AO2 RAE32 SLP060 P0002 60032 T02000189 10228 20194 56004
14926KSTC STC20060617175511206/17/06 17:55:31  5-MIN KSTC 172355Z 28003KT 9SM -RA OVC080 20/18 A2970 1230 90 2100 270/03 RMK AO2 RAB55 P0000
14926KSTC STC20060617180012906/17/06 18:00:31  5-MIN KSTC 180000Z 25003KT 10SM -RA FEW008 SCT012 OVC080 20/19 A2971 1230 93 2100 240/03 RMK AO2 RAB2355 P0000
14926KSTC STC20060617180512906/17/06 18:05:31  5-MIN KSTC 180005Z 00000KT 10SM -RA SCT008 BKN012 OVC080 20/19 A2970 1230 93 2100 000/00 RMK AO2 RAB2355 P0000
14926KSTC STC20060617181012806/17/06 18:10:31  5-MIN KSTC 180010Z 00000KT 10SM BKN006 BKN012 OVC080 20/19 A2970 1230 93 2100 000/00 RMK AO2 RAB2355E06 P0000
14926KSTC STC20060617181512906/17/06 18:15:31  5-MIN KSTC 180015Z 00000KT 10SM -RA BKN006 BKN012 OVC080 20/19 A2970 1230 93 2100 000/00 RMK AO2 RAB2355 P0000
14926KSTC STC20060617182013306/17/06 18:20:31  5-MIN KSTC 180020Z 00000KT 9SM -RA BKN006 OVC080 20/19 A2970 1230 93 2100 000/00 RMK AO2 RAB2355 CIG 005V010 P0000
14926KSTC STC20060617182512606/17/06 18:25:31  5-MIN KSTC 180025Z 23003KT 8SM -RA OVC006 20/19 A2971 1220 93 2100 230/03 RMK AO2 RAB2355 CIG 005V011 P0000
14926KSTC STC20060617183012106/17/06 18:30:31  5-MIN KSTC 180030Z 22004KT 9SM -RA BKN006 OVC100 20/19 A2972 1210 93 2100 210/04 RMK AO2 RAB2355 P0000
14926KSTC STC20060617183512106/17/06 18:35:31  5-MIN KSTC 180035Z 21005KT 10SM BKN006 OVC100 20/19 A2972 1210 93 2100 200/05 RMK AO2 RAB2355E35 P0000
14926KSTC STC20060617184012006/17/06 18:40:31  5-MIN KSTC 180040Z 20005KT 8SM SCT006 OVC100 20/19 A2972 1210 93 2100 190/05 RMK AO2 RAB2355E35 P0000
14926KSTC STC20060617184512006/17/06 18:45:31  5-MIN KSTC 180045Z 21004KT 7SM SCT006 OVC100 20/19 A2972 1210 93 2100 200/04 RMK AO2 RAB2355E35 P0000
14926KSTC STC20060617185013706/17/06 18:50:31  5-MIN KSTC 180050Z 21004KT 8SM FEW006 OVC100 20/19 A2972 1220 93 2100 210/04 RMK AO2 RAB2355E35 SLP066 P0000 T02000189
14926KSTC STC20060617185509606/17/06 18:55:31  5-MIN KSTC 180055Z 21006KT 8SM OVC100 20/19 A2971 1220 93 2100 210/06 RMK AO2
14926KSTC STC20060617190009606/17/06 19:00:31  5-MIN KSTC 180100Z 19005KT 8SM OVC100 20/19 A2972 1220 93 2100 190/05 RMK AO2
14926KSTC STC20060617190509606/17/06 19:05:31  5-MIN KSTC 180105Z 18005KT 8SM OVC100 20/19 A2972 1220 93 2100 180/05 RMK AO2
14926KSTC STC20060617191009606/17/06 19:10:31  5-MIN KSTC 180110Z 18004KT 9SM OVC100 20/19 A2972 1210 93 2100 180/04 RMK AO2
14926KSTC STC20060617191509706/17/06 19:15:31  5-MIN KSTC 180115Z 20005KT 10SM OVC100 20/19 A2972 1210 93 2100 190/05 RMK AO2
14926KSTC STC20060617192009606/17/06 19:20:31  5-MIN KSTC 180120Z 18004KT 9SM OVC100 20/19 A2971 1220 93 2100 180/04 RMK AO2
14926KSTC STC20060617192509606/17/06 19:25:31  5-MIN KSTC 180125Z 17003KT 9SM OVC100 20/19 A2971 1220 93 2100 170/03 RMK AO2
14926KSTC STC20060617193010306/17/06 19:30:31  5-MIN KSTC 180130Z 00000KT 8SM BKN100 BKN120 20/19 A2971 1220 93 2100 000/00 RMK AO2
14926KSTC STC20060617193510306/17/06 19:35:31  5-MIN KSTC 180135Z 18003KT 7SM BKN100 BKN120 20/19 A2971 1220 93 2100 170/03 RMK AO2
14926KSTC STC20060617194009606/17/06 19:40:31  5-MIN KSTC 180140Z 00000KT 7SM BKN100 20/19 A2971 1220 93 2100 000/00 RMK AO2
14926KSTC STC20060617194509606/17/06 19:45:31  5-MIN KSTC 180145Z 00000KT 7SM BKN110 20/19 A2971 1220 93 2100 000/00 RMK AO2
14926KSTC STC20060617195011306/17/06 19:50:31  5-MIN KSTC 180150Z 00000KT 7SM BKN110 20/19 A2971 1220 93 2100 000/00 RMK AO2 SLP064 T02000189
14926KSTC STC20060617195509606/17/06 19:55:31  5-MIN KSTC 180155Z 00000KT 7SM BKN110 19/19 A2971 1220 97 2100 000/00 RMK AO2
14926KSTC STC20060617200009606/17/06 20:00:31  5-MIN KSTC 180200Z 00000KT 7SM SCT110 19/19 A2971 1220 97 2100 000/00 RMK AO2
14926KSTC STC20060617200509906/17/06 20:05:31  5-MIN KSTC 180205Z 16003KT 6SM BR SCT110 19/19 A2971 1220 97 2100 160/03 RMK AO2
14926KSTC STC20060617201009906/17/06 20:10:31  5-MIN KSTC 180210Z 18003KT 6SM BR FEW110 19/19 A2971 1220 97 2100 170/03 RMK AO2
14926KSTC STC20060617201509906/17/06 20:15:31  5-MIN KSTC 180215Z 00000KT 6SM BR FEW110 19/19 A2971 1220 97 2100 000/00 RMK AO2
14926KSTC STC20060617202009606/17/06 20:20:31  5-MIN KSTC 180220Z 20003KT 7SM FEW110 19/19 A2971 1220 97 2100 200/03 RMK AO2
14926KSTC STC20060617202509606/17/06 20:25:31  5-MIN KSTC 180225Z 22004KT 7SM FEW018 19/18 A2972 1220 93 2100 210/04 RMK AO2
14926KSTC STC20060617203009906/17/06 20:30:31  5-MIN KSTC 180230Z 19004KT 6SM BR FEW018 19/19 A2971 1220 97 2100 190/04 RMK AO2
14926KSTC STC20060617203509906/17/06 20:35:31  5-MIN KSTC 180235Z 19004KT 6SM BR FEW018 19/18 A2972 1220 93 2100 190/04 RMK AO2
14926KSTC STC20060617204009906/17/06 20:40:31  5-MIN KSTC 180240Z 20005KT 5SM BR FEW018 19/18 A2972 1210 93 2100 200/05 RMK AO2
14926KSTC STC20060617204509906/17/06 20:45:31  5-MIN KSTC 180245Z 19006KT 4SM BR FEW018 19/18 A2972 1210 93 2000 190/06 RMK AO2
14926KSTC STC20060617205012806/17/06 20:50:31  5-MIN KSTC 180250Z 20006KT 3SM BR FEW018 19/18 A2973 1210 93 2000 190/06 RMK AO2 SLP070 60000 T01940183 50002
14926KSTC STC20060617205509606/17/06 20:55:31  5-MIN KSTC 180255Z 21006KT 3SM BR CLR 19/18 A2973 1210 93 2000 200/06 RMK AO2
14926KSTC STC20060617210009606/17/06 21:00:31  5-MIN KSTC 180300Z 22008KT 5SM BR CLR 19/18 A2973 1200 90 2000 210/08 RMK AO2
14926KSTC STC20060617210509306/17/06 21:05:31  5-MIN KSTC 180305Z 23007KT 7SM CLR 19/18 A2974 1200 90 2000 230/07 RMK AO2
14926KSTC STC20060617211009606/17/06 21:10:31  5-MIN KSTC 180310Z 24006KT 8SM FEW120 19/18 A2974 1190 93 2000 230/06 RMK AO2
14926KSTC STC20060617211509606/17/06 21:15:31  5-MIN KSTC 180315Z 24005KT 8SM FEW120 19/18 A2974 1200 93 2000 240/05 RMK AO2
14926KSTC STC20060617212009706/17/06 21:20:31  5-MIN KSTC 180320Z 23004KT 10SM FEW120 19/18 A2974 1200 93 2000 220/04 RMK AO2
14926KSTC STC20060617212509706/17/06 21:25:31  5-MIN KSTC 180325Z 00000KT 10SM FEW120 19/18 A2974 1190 93 2000 000/00 RMK AO2
14926KSTC STC20060617213009706/17/06 21:30:31  5-MIN KSTC 180330Z 24003KT 10SM FEW110 19/18 A2974 1190 93 2000 230/03 RMK AO2
14926KSTC STC20060617213509706/17/06 21:35:31  5-MIN KSTC 180335Z 23004KT 10SM SCT110 19/18 A2974 1200 93 2000 230/04 RMK AO2
14926KSTC STC20060617214009706/17/06 21:40:31  5-MIN KSTC 180340Z VRB05KT 10SM BKN110 19/18 A2973 1200 93 2000 VRB/05 RMK AO2
14926KSTC STC20060617214509606/17/06 21:45:31  5-MIN KSTC 180345Z 18004KT 9SM BKN110 19/18 A2973 1210 93 2000 180/04 RMK AO2
14926KSTC STC20060617215011306/17/06 21:50:31  5-MIN KSTC 180350Z 22004KT 8SM SCT110 19/18 A2973 1200 93 2000 220/04 RMK AO2 SLP071 T01890178
14926KSTC STC20060617215510106/17/06 21:55:31  5-MIN KSTC 180355Z AUTO 25005KT 7SM SCT110 19/18 A2973 1210 93 2000 250/05 RMK AO2
14926KSTC STC20060617220010106/17/06 22:00:31  5-MIN KSTC 180400Z AUTO 27005KT 7SM SCT110 19/18 A2973 1210 93 2000 270/05 RMK AO2
14926KSTC STC20060617220510106/17/06 22:05:31  5-MIN KSTC 180405Z AUTO 27006KT 8SM FEW110 19/18 A2973 1200 93 2000 270/06 RMK AO2
14926KSTC STC20060617221009806/17/06 22:10:31  5-MIN KSTC 180410Z AUTO 25006KT 9SM CLR 19/18 A2973 1200 93 2000 250/06 RMK AO2
14926KSTC STC20060617221509906/17/06 22:15:31  5-MIN KSTC 180415Z AUTO 25007KT 10SM CLR 19/18 A2973 1200 93 2000 250/07 RMK AO2
14926KSTC STC20060617222009906/17/06 22:20:31  5-MIN KSTC 180420Z AUTO 26005KT 10SM CLR 19/18 A2973 1210 93 2000 260/05 RMK AO2
14926KSTC STC20060617222509906/17/06 22:25:31  5-MIN KSTC 180425Z AUTO 25004KT 10SM CLR 19/17 A2973 1200 90 2000 250/04 RMK AO2
14926KSTC STC20060617223009906/17/06 22:30:31  5-MIN KSTC 180430Z AUTO 23006KT 10SM CLR 19/18 A2974 1200 93 2000 230/06 RMK AO2
14926KSTC STC20060617223509906/17/06 22:35:31  5-MIN KSTC 180435Z AUTO 23007KT 10SM CLR 19/18 A2974 1190 93 2000 220/07 RMK AO2
14926KSTC STC20060617224009906/17/06 22:40:31  5-MIN KSTC 180440Z AUTO 23006KT 10SM CLR 19/18 A2974 1190 93 2000 230/06 RMK AO2
14926KSTC STC20060617224509906/17/06 22:45:31  5-MIN KSTC 180445Z AUTO 24007KT 10SM CLR 19/17 A2974 1200 90 2000 240/07 RMK AO2
14926KSTC STC20060617225011606/17/06 22:50:31  5-MIN KSTC 180450Z AUTO 24006KT 10SM CLR 19/17 A2974 1200 90 2000 230/06 RMK AO2 SLP073 T01890172
14926KSTC STC20060617225509906/17/06 22:55:31  5-MIN KSTC 180455Z AUTO 24008KT 10SM CLR 19/17 A2974 1200 90 2000 230/08 RMK AO2
14926KSTC STC20060617230009906/17/06 23:00:31  5-MIN KSTC 180500Z AUTO 24008KT 10SM CLR 19/17 A2974 1200 90 2000 240/08 RMK AO2
14926KSTC STC20060617230509906/17/06 23:05:31  5-MIN KSTC 180505Z AUTO 25008KT 10SM CLR 19/17 A2974 1190 90 2000 250/08 RMK AO2
14926KSTC STC20060617231009906/17/06 23:10:31  5-MIN KSTC 180510Z AUTO 25006KT 10SM CLR 19/17 A2974 1190 90 2000 240/06 RMK AO2
14926KSTC STC20060617231509906/17/06 23:15:31  5-MIN KSTC 180515Z AUTO 24006KT 10SM CLR 18/17 A2974 1190 93 1900 240/06 RMK AO2
14926KSTC STC20060617232009906/17/06 23:20:31  5-MIN KSTC 180520Z AUTO 24007KT 10SM CLR 18/17 A2974 1190 93 1900 240/07 RMK AO2
14926KSTC STC20060617232509906/17/06 23:25:31  5-MIN KSTC 180525Z AUTO 25005KT 10SM CLR 18/17 A2974 1190 93 1900 250/05 RMK AO2
14926KSTC STC20060617233009906/17/06 23:30:31  5-MIN KSTC 180530Z AUTO 26005KT 10SM CLR 18/17 A2974 1200 93 1900 260/05 RMK AO2
14926KSTC STC20060617233509906/17/06 23:35:31  5-MIN KSTC 180535Z AUTO 27004KT 10SM CLR 18/17 A2974 1200 93 1900 260/04 RMK AO2
14926KSTC STC20060617234009906/17/06 23:40:31  5-MIN KSTC 180540Z AUTO 26005KT 10SM CLR 18/17 A2974 1190 93 1900 260/05 RMK AO2
14926KSTC STC20060617234509906/17/06 23:45:31  5-MIN KSTC 180545Z AUTO 25005KT 10SM CLR 18/17 A2974 1200 93 1900 240/05 RMK AO2
14926KSTC STC20060617235015006/17/06 23:50:31  5-MIN KSTC 180550Z AUTO 24005KT 10SM CLR 18/17 A2974 1190 93 1900 230/05 RMK AO2 SLP074 60000 T01830172 10200 20183 402440183 52009
14926KSTC STC20060617235509906/17/06 23:55:31  5-MIN KSTC 180555Z AUTO 23004KT 10SM CLR 18/17 A2974 1190 93 1900 230/04 RMK AO2
14926KSTC STC20060618000009906/18/06 00:00:32  5-MIN KSTC 180600Z AUTO 22005KT 10SM CLR 18/17 A2974 1190 93 1900 210/05 RMK AO2
14926KSTC STC20060618000509806/18/06 00:05:31  5-MIN KSTC 180605Z AUTO 22005KT 8SM CLR 18/17 A2974 1190 93 1900 220/05 RMK AO2
14926KSTC STC20060618001009806/18/06 00:10:31  5-MIN KSTC 180610Z AUTO 23005KT 7SM CLR 18/17 A2975 1190 96 1800 230/05 RMK AO2
14926KSTC STC20060618001509806/18/06 00:15:31  5-MIN KSTC 180615Z AUTO 23005KT 7SM CLR 18/17 A2975 1190 93 1800 230/05 RMK AO2
14926KSTC STC20060618002009806/18/06 00:20:31  5-MIN KSTC 180620Z AUTO 23005KT 7SM CLR 18/17 A2975 1190 93 1800 230/05 RMK AO2
14926KSTC STC20060618002509806/18/06 00:25:31  5-MIN KSTC 180625Z AUTO 23005KT 7SM CLR 18/17 A2975 1190 93 1800 230/05 RMK AO2
14926KSTC STC20060618003009806/18/06 00:30:31  5-MIN KSTC 180630Z AUTO 23005KT 8SM CLR 18/17 A2975 1190 93 1800 230/05 RMK AO2
14926KSTC STC20060618003509806/18/06 00:35:31  5-MIN KSTC 180635Z AUTO 23005KT 8SM CLR 18/17 A2975 1190 93 1800 220/05 RMK AO2
14926KSTC STC20060618004009806/18/06 00:40:31  5-MIN KSTC 180640Z AUTO 22005KT 7SM CLR 18/17 A2975 1190 93 1800 220/05 RMK AO2
14926KSTC STC20060618004510106/18/06 00:45:31  5-MIN KSTC 180645Z AUTO 22004KT 6SM BR CLR 18/17 A2975 1190 93 1800 220/04 RMK AO2
14926KSTC STC20060618005011806/18/06 00:50:31  5-MIN KSTC 180650Z AUTO 20004KT 6SM BR CLR 17/17 A2975 1190 96 1800 200/04 RMK AO2 SLP077 T01720167
14926KSTC STC20060618005509806/18/06 00:55:31  5-MIN KSTC 180655Z AUTO 19005KT 7SM CLR 17/17 A2975 1190 96 1800 190/05 RMK AO2
14926KSTC STC20060618010009806/18/06 01:00:31  5-MIN KSTC 180700Z AUTO 21006KT 7SM CLR 17/17 A2975 1180 96 1800 210/06 RMK AO2
14926KSTC STC20060618010509806/18/06 01:05:31  5-MIN KSTC 180705Z AUTO 21005KT 7SM CLR 17/17 A2975 1180 96 1800 210/05 RMK AO2
14926KSTC STC20060618011009806/18/06 01:10:31  5-MIN KSTC 180710Z AUTO 22006KT 7SM CLR 17/17 A2975 1180 96 1800 210/06 RMK AO2
14926KSTC STC20060618011509806/18/06 01:15:31  5-MIN KSTC 180715Z AUTO 21006KT 7SM CLR 17/17 A2975 1180 96 1800 210/06 RMK AO2
14926KSTC STC20060618012009806/18/06 01:20:31  5-MIN KSTC 180720Z AUTO 22005KT 7SM CLR 17/17 A2975 1180 96 1800 220/05 RMK AO2
14926KSTC STC20060618012510106/18/06 01:25:31  5-MIN KSTC 180725Z AUTO 23006KT 7SM FEW110 17/17 A2975 1180 96 1800 220/06 RMK AO2
14926KSTC STC20060618013010406/18/06 01:30:31  5-MIN KSTC 180730Z AUTO 23006KT 6SM BR SCT110 18/17 A2975 1180 93 1800 220/06 RMK AO2
14926KSTC STC20060618013510406/18/06 01:35:31  5-MIN KSTC 180735Z AUTO 22006KT 6SM BR BKN110 18/17 A2975 1190 93 1800 220/06 RMK AO2
14926KSTC STC20060618014010406/18/06 01:40:31  5-MIN KSTC 180740Z AUTO 22005KT 5SM BR BKN110 18/17 A2975 1180 93 1800 210/05 RMK AO2
14926KSTC STC20060618014510406/18/06 01:45:31  5-MIN KSTC 180745Z AUTO 23005KT 6SM BR BKN110 18/17 A2975 1180 93 1800 220/05 RMK AO2
14926KSTC STC20060618015012106/18/06 01:50:31  5-MIN KSTC 180750Z AUTO 23006KT 6SM BR BKN110 18/17 A2975 1180 93 1800 230/06 RMK AO2 SLP080 T01780167
14926KSTC STC20060618015510406/18/06 01:55:31  5-MIN KSTC 180755Z AUTO 24005KT 6SM BR OVC100 18/17 A2975 1190 93 1800 240/05 RMK AO2
14926KSTC STC20060618020010406/18/06 02:00:31  5-MIN KSTC 180800Z AUTO 25006KT 6SM BR BKN100 18/17 A2975 1190 93 1800 250/06 RMK AO2
14926KSTC STC20060618020510406/18/06 02:05:31  5-MIN KSTC 180805Z AUTO 25005KT 6SM BR BKN100 18/17 A2975 1190 93 1800 250/05 RMK AO2
14926KSTC STC20060618021010406/18/06 02:10:31  5-MIN KSTC 180810Z AUTO 26006KT 6SM BR SCT100 18/17 A2975 1190 93 1800 250/06 RMK AO2
14926KSTC STC20060618021511106/18/06 02:15:31  5-MIN KSTC 180815Z AUTO 25007KT 6SM BR FEW090 SCT110 18/17 A2975 1190 93 1800 250/07 RMK AO2
14926KSTC STC20060618022010406/18/06 02:20:31  5-MIN KSTC 180820Z AUTO 25006KT 6SM BR FEW095 18/17 A2975 1190 93 1800 250/06 RMK AO2
14926KSTC STC20060618022509806/18/06 02:25:31  5-MIN KSTC 180825Z AUTO 24006KT 7SM CLR 18/17 A2975 1190 93 1800 240/06 RMK AO2
14926KSTC STC20060618023009806/18/06 02:30:31  5-MIN KSTC 180830Z AUTO 24007KT 8SM CLR 18/17 A2975 1190 93 1800 240/07 RMK AO2
14926KSTC STC20060618023509806/18/06 02:35:31  5-MIN KSTC 180835Z AUTO 24006KT 8SM CLR 18/17 A2975 1190 93 1800 230/06 RMK AO2
14926KSTC STC20060618024009806/18/06 02:40:31  5-MIN KSTC 180840Z AUTO 23006KT 8SM CLR 18/17 A2975 1190 93 1800 230/06 RMK AO2
14926KSTC STC20060618024509806/18/06 02:45:31  5-MIN KSTC 180845Z AUTO 23006KT 8SM CLR 18/17 A2975 1190 93 1800 230/06 RMK AO2
14926KSTC STC20060618025012106/18/06 02:50:31  5-MIN KSTC 180850Z AUTO 23005KT 7SM CLR 18/17 A2975 1190 93 1800 220/05 RMK AO2 SLP079 T01780167 51005
14926KSTC STC20060618025509806/18/06 02:55:31  5-MIN KSTC 180855Z AUTO 23006KT 7SM CLR 18/17 A2975 1190 93 1800 230/06 RMK AO2
14926KSTC STC20060618030009806/18/06 03:00:31  5-MIN KSTC 180900Z AUTO 23005KT 7SM CLR 18/17 A2975 1190 93 1800 230/05 RMK AO2
14926KSTC STC20060618030509806/18/06 03:05:31  5-MIN KSTC 180905Z AUTO 23005KT 7SM CLR 18/17 A2975 1190 93 1800 230/05 RMK AO2
14926KSTC STC20060618031009806/18/06 03:10:31  5-MIN KSTC 180910Z AUTO 24005KT 7SM CLR 18/17 A2975 1190 93 1800 230/05 RMK AO2
14926KSTC STC20060618031509806/18/06 03:15:31  5-MIN KSTC 180915Z AUTO 24005KT 7SM CLR 18/17 A2975 1190 93 1800 240/05 RMK AO2
14926KSTC STC20060618032009806/18/06 03:20:31  5-MIN KSTC 180920Z AUTO 25006KT 7SM CLR 18/17 A2975 1190 93 1800 250/06 RMK AO2
14926KSTC STC20060618032510106/18/06 03:25:31  5-MIN KSTC 180925Z AUTO 26005KT 6SM BR CLR 18/17 A2975 1190 93 1800 250/05 RMK AO2
14926KSTC STC20060618033010106/18/06 03:30:31  5-MIN KSTC 180930Z AUTO 26006KT 6SM BR CLR 18/17 A2975 1190 93 1800 260/06 RMK AO2
14926KSTC STC20060618033510406/18/06 03:35:31  5-MIN KSTC 180935Z AUTO 26006KT 6SM BR FEW100 18/17 A2975 1190 93 1800 260/06 RMK AO2
14926KSTC STC20060618034010406/18/06 03:40:31  5-MIN KSTC 180940Z AUTO 26006KT 6SM BR FEW100 18/17 A2975 1190 93 1800 260/06 RMK AO2
14926KSTC STC20060618034510106/18/06 03:45:31  5-MIN KSTC 180945Z AUTO 26006KT 6SM BR CLR 18/17 A2975 1190 93 1800 260/06 RMK AO2
14926KSTC STC20060618035011806/18/06 03:50:31  5-MIN KSTC 180950Z AUTO 26006KT 6SM BR CLR 18/17 A2975 1180 93 1800 250/06 RMK AO2 SLP080 T01780167
14926KSTC STC20060618035510106/18/06 03:55:31  5-MIN KSTC 180955Z AUTO 26007KT 6SM BR CLR 18/17 A2975 1180 93 1800 260/07 RMK AO2
14926KSTC STC20060618040010106/18/06 04:00:31  5-MIN KSTC 181000Z AUTO 27006KT 6SM BR CLR 18/17 A2975 1180 93 1800 260/06 RMK AO2
14926KSTC STC20060618040510106/18/06 04:05:31  5-MIN KSTC 181005Z AUTO 27007KT 6SM BR CLR 17/17 A2975 1180 96 1800 270/07 RMK AO2
14926KSTC STC20060618041010106/18/06 04:10:31  5-MIN KSTC 181010Z AUTO 27007KT 6SM BR CLR 18/17 A2976 1180 93 1800 270/07 RMK AO2
14926KSTC STC20060618041510106/18/06 04:15:31  5-MIN KSTC 181015Z AUTO 27007KT 6SM BR CLR 18/17 A2976 1180 93 1800 270/07 RMK AO2
14926KSTC STC20060618042010106/18/06 04:20:31  5-MIN KSTC 181020Z AUTO 27007KT 6SM BR CLR 18/17 A2976 1180 93 1800 260/07 RMK AO2
14926KSTC STC20060618042510106/18/06 04:25:31  5-MIN KSTC 181025Z AUTO 27008KT 6SM BR CLR 17/17 A2976 1170 96 1700 260/08 RMK AO2
14926KSTC STC20060618043010106/18/06 04:30:31  5-MIN KSTC 181030Z AUTO 27007KT 5SM BR CLR 17/17 A2976 1170 96 1700 260/07 RMK AO2
14926KSTC STC20060618043510106/18/06 04:35:31  5-MIN KSTC 181035Z AUTO 27007KT 5SM BR CLR 17/17 A2976 1170 96 1700 260/07 RMK AO2
14926KSTC STC20060618044010106/18/06 04:40:31  5-MIN KSTC 181040Z AUTO 27007KT 5SM BR CLR 17/16 A2976 1170 93 1700 270/07 RMK AO2
14926KSTC STC20060618044510106/18/06 04:45:31  5-MIN KSTC 181045Z AUTO 27006KT 5SM BR CLR 17/16 A2976 1170 93 1700 270/06 RMK AO2
14926KSTC STC20060618045011806/18/06 04:50:31  5-MIN KSTC 181050Z AUTO 27006KT 5SM BR CLR 17/16 A2976 1170 93 1700 260/06 RMK AO2 SLP084 T01720161
14926KSTC STC20060618045510106/18/06 04:55:31  5-MIN KSTC 181055Z AUTO 27005KT 4SM BR CLR 17/16 A2976 1170 93 1700 260/05 RMK AO2
14926KSTC STC20060618050010106/18/06 05:00:31  5-MIN KSTC 181100Z AUTO 27005KT 4SM BR CLR 17/16 A2977 1170 93 1700 260/05 RMK AO2
14926KSTC STC20060618050510106/18/06 05:05:31  5-MIN KSTC 181105Z AUTO 26004KT 4SM BR CLR 17/16 A2977 1170 93 1700 260/04 RMK AO2
14926KSTC STC20060618051010106/18/06 05:10:31  5-MIN KSTC 181110Z AUTO 27004KT 4SM BR CLR 17/16 A2977 1170 93 1700 260/04 RMK AO2
14926KSTC STC20060618051510106/18/06 05:15:31  5-MIN KSTC 181115Z AUTO 26005KT 4SM BR CLR 17/16 A2977 1170 93 1700 260/05 RMK AO2
14926KSTC STC20060618052010106/18/06 05:20:31  5-MIN KSTC 181120Z AUTO 27005KT 4SM BR CLR 17/16 A2977 1170 93 1700 270/05 RMK AO2
14926KSTC STC20060618052510106/18/06 05:25:31  5-MIN KSTC 181125Z AUTO 27004KT 4SM BR CLR 17/16 A2977 1170 93 1700 260/04 RMK AO2
14926KSTC STC20060618053010106/18/06 05:30:31  5-MIN KSTC 181130Z AUTO 27005KT 4SM BR CLR 17/16 A2977 1170 93 1700 270/05 RMK AO2
14926KSTC STC20060618053510106/18/06 05:35:31  5-MIN KSTC 181135Z AUTO 28005KT 5SM BR CLR 17/17 A2977 1170 96 1700 270/05 RMK AO2
14926KSTC STC20060618054010106/18/06 05:40:31  5-MIN KSTC 181140Z AUTO 27006KT 5SM BR CLR 18/17 A2977 1170 93 1800 270/06 RMK AO2
14926KSTC STC20060618054510106/18/06 05:45:31  5-MIN KSTC 181145Z AUTO 27006KT 6SM BR CLR 18/17 A2977 1160 93 1800 270/06 RMK AO2
14926KSTC STC20060618055013406/18/06 05:50:31  5-MIN KSTC 181150Z 27007KT 7SM CLR 18/17 A2977 1160 93 1800 270/07 RMK AO2 SLP088 70034 T01780167 10183 20172 50002
14926KSTC STC20060618055509306/18/06 05:55:31  5-MIN KSTC 181155Z 28008KT 8SM CLR 18/16 A2978 1160 87 1900 280/08 RMK AO2
14926KSTC STC20060618060009306/18/06 06:00:31  5-MIN KSTC 181200Z 29008KT 9SM CLR 18/16 A2978 1160 87 1900 280/08 RMK AO2
14926KSTC STC20060618060509306/18/06 06:05:31  5-MIN KSTC 181205Z 29008KT 9SM CLR 18/16 A2977 1160 87 1900 280/08 RMK AO2
14926KSTC STC20060618061009406/18/06 06:10:31  5-MIN KSTC 181210Z 29007KT 10SM CLR 18/16 A2978 1160 87 1900 290/07 RMK AO2
14926KSTC STC20060618061509406/18/06 06:15:31  5-MIN KSTC 181215Z 29006KT 10SM CLR 19/17 A2978 1160 87 1900 290/06 RMK AO2
14926KSTC STC20060618062009406/18/06 06:20:31  5-MIN KSTC 181220Z 29007KT 10SM CLR 19/16 A2978 1160 84 1900 290/07 RMK AO2
14926KSTC STC20060618062509406/18/06 06:25:31  5-MIN KSTC 181225Z 29008KT 10SM CLR 19/16 A2978 1160 84 1900 290/08 RMK AO2
14926KSTC STC20060618063009406/18/06 06:30:31  5-MIN KSTC 181230Z 28008KT 10SM CLR 19/16 A2978 1160 84 1900 280/08 RMK AO2
14926KSTC STC20060618063509406/18/06 06:35:31  5-MIN KSTC 181235Z 28007KT 10SM CLR 19/16 A2978 1160 81 2000 280/07 RMK AO2
14926KSTC STC20060618064009406/18/06 06:40:31  5-MIN KSTC 181240Z 28007KT 10SM CLR 19/16 A2978 1160 81 2000 280/07 RMK AO2
14926KSTC STC20060618064509406/18/06 06:45:31  5-MIN KSTC 181245Z 28007KT 10SM CLR 19/16 A2978 1160 81 2000 280/07 RMK AO2
14926KSTC STC20060618065011106/18/06 06:50:31  5-MIN KSTC 181250Z 27007KT 10SM CLR 19/16 A2978 1160 78 2000 270/07 RMK AO2 SLP087 T01940156
14926KSTC STC20060618065509406/18/06 06:55:31  5-MIN KSTC 181255Z 25007KT 10SM CLR 20/16 A2977 1160 78 2100 250/07 RMK AO2
14926KSTC STC20060618070009406/18/06 07:00:31  5-MIN KSTC 181300Z 25007KT 10SM CLR 20/16 A2977 1160 75 2100 250/07 RMK AO2
14926KSTC STC20060618070509406/18/06 07:05:31  5-MIN KSTC 181305Z 27007KT 10SM CLR 20/16 A2978 1160 78 2000 270/07 RMK AO2
14926KSTC STC20060618071009406/18/06 07:10:31  5-MIN KSTC 181310Z 28008KT 10SM CLR 20/16 A2978 1150 78 2000 270/08 RMK AO2
14926KSTC STC20060618071509406/18/06 07:15:31  5-MIN KSTC 181315Z 27008KT 10SM CLR 21/16 A2978 1150 75 2100 270/08 RMK AO2
14926KSTC STC20060618072009406/18/06 07:20:31  5-MIN KSTC 181320Z 27007KT 10SM CLR 21/16 A2978 1150 73 2100 260/07 RMK AO2
14926KSTC STC20060618072509406/18/06 07:25:31  5-MIN KSTC 181325Z 27007KT 10SM CLR 21/16 A2978 1150 73 2100 270/07 RMK AO2
14926KSTC STC20060618073009406/18/06 07:30:31  5-MIN KSTC 181330Z 27006KT 10SM CLR 21/16 A2978 1150 70 2200 270/06 RMK AO2
14926KSTC STC20060618073509406/18/06 07:35:31  5-MIN KSTC 181335Z 27007KT 10SM CLR 21/16 A2978 1150 70 2200 260/07 RMK AO2
14926KSTC STC20060618074009406/18/06 07:40:31  5-MIN KSTC 181340Z 26006KT 10SM CLR 21/16 A2978 1150 70 2200 260/06 RMK AO2
14926KSTC STC20060618074509406/18/06 07:45:31  5-MIN KSTC 181345Z 26007KT 10SM CLR 22/16 A2978 1150 68 2200 260/07 RMK AO2
14926KSTC STC20060618075011106/18/06 07:50:31  5-MIN KSTC 181350Z 26007KT 10SM CLR 22/14 A2978 1150 63 2200 260/07 RMK AO2 SLP089 T02170144
14926KSTC STC20060618075509406/18/06 07:55:31  5-MIN KSTC 181355Z 25006KT 10SM CLR 22/16 A2978 1150 68 2200 250/06 RMK AO2
14926KSTC STC20060618080009406/18/06 08:00:31  5-MIN KSTC 181400Z 26006KT 10SM CLR 22/16 A2979 1150 65 2300 250/06 RMK AO2
14926KSTC STC20060618080509406/18/06 08:05:31  5-MIN KSTC 181405Z 26006KT 10SM CLR 22/16 A2979 1150 65 2300 250/06 RMK AO2
14926KSTC STC20060618081009406/18/06 08:10:31  5-MIN KSTC 181410Z 27008KT 10SM CLR 22/15 A2979 1150 63 2300 270/08 RMK AO2
14926KSTC STC20060618081509406/18/06 08:15:31  5-MIN KSTC 181415Z 26007KT 10SM CLR 23/15 A2979 1150 61 2400 260/07 RMK AO2
14926KSTC STC20060618082009406/18/06 08:20:31  5-MIN KSTC 181420Z 26008KT 10SM CLR 23/15 A2979 1150 61 2400 260/08 RMK AO2
14926KSTC STC20060618082509406/18/06 08:25:31  5-MIN KSTC 181425Z 26008KT 10SM CLR 23/15 A2979 1150 61 2400 250/08 RMK AO2
14926KSTC STC20060618083009406/18/06 08:30:31  5-MIN KSTC 181430Z 27007KT 10SM CLR 23/14 A2979 1150 57 2400 270/07 RMK AO2
14926KSTC STC20060618083509406/18/06 08:35:31  5-MIN KSTC 181435Z 27008KT 10SM CLR 23/15 A2979 1150 59 2400 260/08 RMK AO2
14926KSTC STC20060618084009406/18/06 08:40:31  5-MIN KSTC 181440Z 26011KT 10SM CLR 23/14 A2979 1150 57 2400 260/11 RMK AO2
14926KSTC STC20060618084509406/18/06 08:45:31  5-MIN KSTC 181445Z 26013KT 10SM CLR 24/14 A2979 1150 53 2500 260/13 RMK AO2
14926KSTC STC20060618085011706/18/06 08:50:31  5-MIN KSTC 181450Z 27012KT 10SM CLR 23/13 A2979 1150 53 2400 270/12 RMK AO2 SLP090 T02330133 53009
14926KSTC STC20060618085509406/18/06 08:55:31  5-MIN KSTC 181455Z 28011KT 10SM CLR 24/13 A2979 1150 51 2500 270/11 RMK AO2
14926KSTC STC20060618090009406/18/06 09:00:31  5-MIN KSTC 181500Z 28013KT 10SM CLR 24/13 A2979 1150 51 2500 270/13 RMK AO2
14926KSTC STC20060618090509406/18/06 09:05:31  5-MIN KSTC 181505Z 28014KT 10SM CLR 23/13 A2979 1150 51 2400 280/14 RMK AO2
14926KSTC STC20060618091009406/18/06 09:10:31  5-MIN KSTC 181510Z 28015KT 10SM CLR 24/13 A2979 1150 51 2500 280/15 RMK AO2
14926KSTC STC20060618091509406/18/06 09:15:31  5-MIN KSTC 181515Z 28011KT 10SM CLR 24/13 A2979 1150 51 2500 270/11 RMK AO2
14926KSTC STC20060618092009406/18/06 09:20:31  5-MIN KSTC 181520Z 27011KT 10SM CLR 24/14 A2979 1150 53 2500 270/11 RMK AO2
14926KSTC STC20060618092509406/18/06 09:25:31  5-MIN KSTC 181525Z 26012KT 10SM CLR 24/14 A2979 1150 53 2500 260/12 RMK AO2
14926KSTC STC20060618093009406/18/06 09:30:31  5-MIN KSTC 181530Z 27014KT 10SM CLR 24/13 A2979 1150 51 2500 270/14 RMK AO2
14926KSTC STC20060618093509406/18/06 09:35:31  5-MIN KSTC 181535Z 27013KT 10SM CLR 24/14 A2979 1150 53 2500 270/13 RMK AO2
14926KSTC STC20060618094009406/18/06 09:40:31  5-MIN KSTC 181540Z 26012KT 10SM CLR 24/14 A2979 1150 53 2500 260/12 RMK AO2
14926KSTC STC20060618094510006/18/06 09:45:31  5-MIN KSTC 181545Z 26013G17KT 10SM CLR 24/14 A2979 1150 51 2500 250/13G17 RMK AO2
14926KSTC STC20060618095011706/18/06 09:50:31  5-MIN KSTC 181550Z 26014G17KT 10SM CLR 24/14 A2979 1150 53 2500 250/14G17 RMK AO2 SLP090 T02390139
14926KSTC STC20060618095509406/18/06 09:55:31  5-MIN KSTC 181555Z 25013KT 10SM CLR 24/13 A2979 1150 49 2500 250/13 RMK AO2
14926KSTC STC20060618100010006/18/06 10:00:31  5-MIN KSTC 181600Z 26016G20KT 10SM CLR 24/13 A2979 1150 49 2500 260/16G20 RMK AO2
14926KSTC STC20060618100509406/18/06 10:05:31  5-MIN KSTC 181605Z 27015KT 10SM CLR 24/13 A2978 1150 47 2500 270/15 RMK AO2
14926KSTC STC20060618101009406/18/06 10:10:31  5-MIN KSTC 181610Z 27011KT 10SM CLR 25/14 A2978 1150 49 2600 260/11 RMK AO2
14926KSTC STC20060618101509406/18/06 10:15:31  5-MIN KSTC 181615Z 26013KT 10SM CLR 25/14 A2978 1150 49 2600 260/13 RMK AO2
14926KSTC STC20060618102009406/18/06 10:20:31  5-MIN KSTC 181620Z 26013KT 10SM CLR 25/13 A2978 1150 48 2600 250/13 RMK AO2
14926KSTC STC20060618102509406/18/06 10:25:31  5-MIN KSTC 181625Z 27015KT 10SM CLR 25/13 A2978 1150 46 2600 270/15 RMK AO2
14926KSTC STC20060618103009406/18/06 10:30:31  5-MIN KSTC 181630Z 26013KT 10SM CLR 25/13 A2978 1150 48 2600 260/13 RMK AO2
14926KSTC STC20060618103509406/18/06 10:35:31  5-MIN KSTC 181635Z 25014KT 10SM CLR 26/13 A2978 1150 46 2700 250/14 RMK AO2
14926KSTC STC20060618104009406/18/06 10:40:31  5-MIN KSTC 181640Z 25016KT 10SM CLR 25/12 A2978 1150 44 2600 250/16 RMK AO2
14926KSTC STC20060618104509406/18/06 10:45:31  5-MIN KSTC 181645Z 27013KT 10SM CLR 26/13 A2978 1150 44 2700 260/13 RMK AO2
14926KSTC STC20060618105011106/18/06 10:50:31  5-MIN KSTC 181650Z 26015KT 10SM CLR 26/13 A2978 1150 44 2700 260/15 RMK AO2 SLP088 T02560128
14926KSTC STC20060618105510006/18/06 10:55:31  5-MIN KSTC 181655Z 25016G20KT 10SM CLR 26/12 A2978 1150 43 2700 240/16G20 RMK AO2
14926KSTC STC20060618110009406/18/06 11:00:31  5-MIN KSTC 181700Z 27017KT 10SM CLR 26/12 A2979 1150 43 2700 270/17 RMK AO2
14926KSTC STC20060618110510006/18/06 11:05:31  5-MIN KSTC 181705Z 26014G21KT 10SM CLR 26/13 A2979 1150 44 2700 260/14G21 RMK AO2
14926KSTC STC20060618111010006/18/06 11:10:31  5-MIN KSTC 181710Z 27014G21KT 10SM CLR 26/13 A2979 1150 44 2700 260/14G21 RMK AO2
14926KSTC STC20060618111510006/18/06 11:15:31  5-MIN KSTC 181715Z 27015G19KT 10SM CLR 26/13 A2979 1150 44 2700 270/15G19 RMK AO2
14926KSTC STC20060618112010006/18/06 11:20:31  5-MIN KSTC 181720Z 26015G19KT 10SM CLR 26/12 A2979 1150 41 2700 260/15G19 RMK AO2
14926KSTC STC20060618112510006/18/06 11:25:31  5-MIN KSTC 181725Z 27012G22KT 10SM CLR 26/12 A2979 1150 41 2700 270/12G22 RMK AO2
14926KSTC STC20060618113010006/18/06 11:30:31  5-MIN KSTC 181730Z 26019G22KT 10SM CLR 26/12 A2979 1150 41 2700 260/19G22 RMK AO2
14926KSTC STC20060618113510006/18/06 11:35:31  5-MIN KSTC 181735Z 26020G23KT 10SM CLR 26/12 A2979 1150 41 2700 260/20G23 RMK AO2
14926KSTC STC20060618114010006/18/06 11:40:31  5-MIN KSTC 181740Z 26016G23KT 10SM CLR 26/12 A2979 1150 41 2700 250/16G23 RMK AO2
14926KSTC STC20060618114509406/18/06 11:45:31  5-MIN KSTC 181745Z 26014KT 10SM CLR 26/12 A2979 1150 41 2700 260/14 RMK AO2
14926KSTC STC20060618115013506/18/06 11:50:31  5-MIN KSTC 181750Z 25017G22KT 10SM CLR 26/12 A2978 1150 41 2700 240/17G22 RMK AO2 SLP089 T02610122 10261 20178 53004
14926KSTC STC20060618115510006/18/06 11:55:31  5-MIN KSTC 181755Z 27016G22KT 10SM CLR 26/12 A2978 1150 41 2700 260/16G22 RMK AO2
14926KSTC STC20060618120010006/18/06 12:00:31  5-MIN KSTC 181800Z 25018G22KT 10SM CLR 26/12 A2978 1150 40 2700 250/18G22 RMK AO2
14926KSTC STC20060618120510006/18/06 12:05:31  5-MIN KSTC 181805Z 27016G22KT 10SM CLR 26/12 A2978 1150 41 2700 270/16G22 RMK AO2
14926KSTC STC20060618121010006/18/06 12:10:31  5-MIN KSTC 181810Z 28017G22KT 10SM CLR 26/12 A2978 1160 40 2700 280/17G22 RMK AO2
14926KSTC STC20060618121510306/18/06 12:15:31  5-MIN KSTC 181815Z 26012G21KT 10SM FEW070 26/12 A2978 1160 41 2700 260/12G21 RMK AO2
14926KSTC STC20060618122010306/18/06 12:20:31  5-MIN KSTC 181820Z 26016G25KT 10SM FEW070 26/12 A2978 1160 40 2700 260/16G25 RMK AO2
14926KSTC STC20060618122510306/18/06 12:25:31  5-MIN KSTC 181825Z 27013G25KT 10SM FEW070 26/12 A2978 1160 40 2700 260/13G25 RMK AO2
14926KSTC STC20060618123010306/18/06 12:30:31  5-MIN KSTC 181830Z 25016G25KT 10SM FEW070 26/13 A2978 1160 43 2700 240/16G25 RMK AO2
14926KSTC STC20060618123511006/18/06 12:35:31  5-MIN KSTC 181835Z 26021G25KT 10SM SCT065 SCT080 26/12 A2978 1160 40 2700 260/21G25 RMK AO2
14926KSTC STC20060618124010306/18/06 12:40:31  5-MIN KSTC 181840Z 26018G25KT 10SM SCT070 27/11 A2978 1160 37 2800 250/18G25 RMK AO2
14926KSTC STC20060618124510306/18/06 12:45:31  5-MIN KSTC 181845Z 26019G23KT 10SM FEW065 26/12 A2978 1160 41 2700 260/19G23 RMK AO2
14926KSTC STC20060618125012006/18/06 12:50:31  5-MIN KSTC 181850Z 27020G24KT 10SM FEW065 26/11 A2978 1160 38 2700 260/20G24 RMK AO2 SLP088 T02610111
14926KSTC STC20060618125512106/18/06 12:55:31  5-MIN KSTC 181855Z 26022G27KT 10SM FEW065 27/11 A2978 1160 37 2800 260/22G27 RMK AO2 PK WND 26027/1854
14926KSTC STC20060618130012106/18/06 13:00:31  5-MIN KSTC 181900Z 27019G27KT 10SM FEW065 26/11 A2978 1160 38 2700 270/19G27 RMK AO2 PK WND 26027/1854
14926KSTC STC20060618130511206/18/06 13:05:31  5-MIN KSTC 181905Z 26016KT 10SM CLR 26/12 A2978 1160 40 2700 250/16 RMK AO2 PK WND 26027/1854
14926KSTC STC20060618131012106/18/06 13:10:31  5-MIN KSTC 181910Z 25019G23KT 10SM FEW065 26/12 A2978 1160 41 2700 250/19G23 RMK AO2 PK WND 26027/1854
14926KSTC STC20060618131512106/18/06 13:15:31  5-MIN KSTC 181915Z 27016G23KT 10SM FEW065 27/11 A2978 1160 37 2800 260/16G23 RMK AO2 PK WND 26027/1854
14926KSTC STC20060618132012106/18/06 13:20:31  5-MIN KSTC 181920Z 26019G22KT 10SM FEW065 26/11 A2978 1160 40 2700 250/19G22 RMK AO2 PK WND 26027/1854
14926KSTC STC20060618132512806/18/06 13:25:31  5-MIN KSTC 181925Z 26015G22KT 10SM FEW060 SCT080 26/12 A2977 1160 41 2700 260/15G22 RMK AO2 PK WND 26027/1854
14926KSTC STC20060618133012106/18/06 13:30:31  5-MIN KSTC 181930Z 25018G27KT 10SM FEW060 27/12 A2977 1160 38 2800 250/18G27 RMK AO2 PK WND 26027/1926
14926KSTC STC20060618133512106/18/06 13:35:31  5-MIN KSTC 181935Z 26017G27KT 10SM FEW060 27/12 A2977 1160 37 2900 260/17G27 RMK AO2 PK WND 26027/1926
14926KSTC STC20060618134012806/18/06 13:40:31  5-MIN KSTC 181940Z 26021G27KT 10SM FEW060 SCT085 27/11 A2977 1160 36 2900 250/21G27 RMK AO2 PK WND 27027/1940
14926KSTC STC20060618134512806/18/06 13:45:31  5-MIN KSTC 181945Z 26020G27KT 10SM FEW065 SCT085 26/10 A2977 1160 36 2700 260/20G27 RMK AO2 PK WND 27027/1940
14926KSTC STC20060618135013806/18/06 13:50:31  5-MIN KSTC 181950Z 26021G29KT 10SM FEW065 27/10 A2977 1160 34 2800 260/21G29 RMK AO2 PK WND 26029/1947 SLP084 T02670100
14926KSTC STC20060618135510306/18/06 13:55:31  5-MIN KSTC 181955Z 27019G29KT 10SM FEW070 27/10 A2977 1160 34 2800 270/19G29 RMK AO2
14926KSTC STC20060618140011006/18/06 14:00:31  5-MIN KSTC 182000Z 27019G24KT 10SM FEW075 SCT090 27/10 A2977 1160 34 2800 270/19G24 RMK AO2
14926KSTC STC20060618140511006/18/06 14:05:31  5-MIN KSTC 182005Z 28021G24KT 10SM FEW075 SCT085 27/09 A2977 1160 33 2800 280/21G24 RMK AO2
14926KSTC STC20060618141012106/18/06 14:10:31  5-MIN KSTC 182010Z 27024G32KT 10SM SCT080 27/09 A2977 1170 31 2900 260/24G32 RMK AO2 PK WND 27032/2008
14926KSTC STC20060618141512106/18/06 14:15:31  5-MIN KSTC 182015Z 28023G32KT 10SM FEW070 27/08 A2977 1160 30 2900 270/23G32 RMK AO2 PK WND 27032/2008
14926KSTC STC20060618142012106/18/06 14:20:31  5-MIN KSTC 182020Z 27023G31KT 10SM FEW080 27/09 A2977 1160 31 2900 270/23G31 RMK AO2 PK WND 27032/2008
14926KSTC STC20060618142512106/18/06 14:25:31  5-MIN KSTC 182025Z 27020G30KT 10SM FEW080 27/09 A2977 1170 31 2900 270/20G30 RMK AO2 PK WND 27032/2008
14926KSTC STC20060618143012106/18/06 14:30:31  5-MIN KSTC 182030Z 28022G28KT 10SM FEW080 27/09 A2977 1170 32 2900 280/22G28 RMK AO2 PK WND 27032/2008
14926KSTC STC20060618143512106/18/06 14:35:31  5-MIN KSTC 182035Z 26017G27KT 10SM FEW080 27/09 A2977 1170 32 2800 260/17G27 RMK AO2 PK WND 27032/2008
14926KSTC STC20060618144011806/18/06 14:40:31  5-MIN KSTC 182040Z 28021G28KT 10SM CLR 27/09 A2977 1170 32 2900 280/21G28 RMK AO2 PK WND 27032/2008
14926KSTC STC20060618144511806/18/06 14:45:31  5-MIN KSTC 182045Z 27015G28KT 10SM CLR 28/08 A2977 1170 29 2900 270/15G28 RMK AO2 PK WND 27032/2008
14926KSTC STC20060618145014406/18/06 14:50:31  5-MIN KSTC 182050Z 28024G31KT 10SM FEW080 27/08 A2977 1170 31 2800 280/24G31 RMK AO2 PK WND 27032/2008 SLP084 T02670083 55001
14926KSTC STC20060618145512106/18/06 14:55:31  5-MIN KSTC 182055Z 28020G31KT 10SM FEW080 27/08 A2977 1170 29 2900 280/20G31 RMK AO2 PK WND 28026/2055
14926KSTC STC20060618150011806/18/06 15:00:31  5-MIN KSTC 182100Z 26019G31KT 10SM CLR 27/08 A2977 1170 30 2900 260/19G31 RMK AO2 PK WND 25027/2100
14926KSTC STC20060618150511806/18/06 15:05:31  5-MIN KSTC 182105Z 25022G28KT 10SM CLR 27/08 A2977 1170 30 2900 250/22G28 RMK AO2 PK WND 25028/2105
14926KSTC STC20060618151011806/18/06 15:10:31  5-MIN KSTC 182110Z 27020G29KT 10SM CLR 27/08 A2977 1160 30 2900 270/20G29 RMK AO2 PK WND 27029/2106
14926KSTC STC20060618151512106/18/06 15:15:31  5-MIN KSTC 182115Z 26023G29KT 10SM FEW080 27/08 A2977 1160 30 2900 250/23G29 RMK AO2 PK WND 27029/2106
14926KSTC STC20060618152012106/18/06 15:20:31  5-MIN KSTC 182120Z 27018G28KT 10SM FEW080 27/08 A2977 1160 31 2800 270/18G28 RMK AO2 PK WND 27029/2106
14926KSTC STC20060618152512106/18/06 15:25:31  5-MIN KSTC 182125Z 29018G22KT 10SM FEW080 27/09 A2977 1160 32 2800 280/18G22 RMK AO2 PK WND 27029/2106
14926KSTC STC20060618153012106/18/06 15:30:31  5-MIN KSTC 182130Z 28017G22KT 10SM SCT080 27/09 A2978 1160 31 2900 280/17G22 RMK AO2 PK WND 27029/2106
14926KSTC STC20060618153512106/18/06 15:35:31  5-MIN KSTC 182135Z 28020G26KT 10SM SCT085 28/08 A2978 1160 29 2900 280/20G26 RMK AO2 PK WND 27029/2106
14926KSTC STC20060618154012106/18/06 15:40:31  5-MIN KSTC 182140Z 26020G26KT 10SM FEW080 27/08 A2978 1160 29 2800 260/20G26 RMK AO2 PK WND 27029/2106
14926KSTC STC20060618154512106/18/06 15:45:31  5-MIN KSTC 182145Z 28019G26KT 10SM FEW080 27/08 A2978 1160 31 2800 280/19G26 RMK AO2 PK WND 27029/2106
14926KSTC STC20060618155013806/18/06 15:50:31  5-MIN KSTC 182150Z 28018G27KT 10SM FEW080 27/08 A2978 1160 30 2900 280/18G27 RMK AO2 PK WND 27029/2106 SLP087 T02720083
14926KSTC STC20060618155510306/18/06 15:55:31  5-MIN KSTC 182155Z 28015G27KT 10SM FEW080 27/08 A2978 1160 29 2800 270/15G27 RMK AO2
14926KSTC STC20060618160010006/18/06 16:00:31  5-MIN KSTC 182200Z 28015G21KT 10SM CLR 27/08 A2978 1160 30 2900 280/15G21 RMK AO2
14926KSTC STC20060618160510006/18/06 16:05:31  5-MIN KSTC 182205Z 28019G24KT 10SM CLR 27/08 A2978 1160 31 2800 270/19G24 RMK AO2
14926KSTC STC20060618161010006/18/06 16:10:31  5-MIN KSTC 182210Z 26013G24KT 10SM CLR 27/08 A2978 1160 31 2800 260/13G24 RMK AO2
14926KSTC STC20060618161510006/18/06 16:15:31  5-MIN KSTC 182215Z 26016G23KT 10SM CLR 27/09 A2978 1160 32 2800 260/16G23 RMK AO2
14926KSTC STC20060618162010006/18/06 16:20:31  5-MIN KSTC 182220Z 26016G24KT 10SM CLR 27/09 A2978 1160 32 2800 260/16G24 RMK AO2
14926KSTC STC20060618162510006/18/06 16:25:31  5-MIN KSTC 182225Z 26016G24KT 10SM CLR 27/09 A2978 1160 32 2800 260/16G24 RMK AO2
14926KSTC STC20060618163010006/18/06 16:30:31  5-MIN KSTC 182230Z 28017G22KT 10SM CLR 26/09 A2978 1160 33 2700 280/17G22 RMK AO2
14926KSTC STC20060618163510006/18/06 16:35:31  5-MIN KSTC 182235Z 27017G24KT 10SM CLR 27/08 A2977 1160 31 2800 260/17G24 RMK AO2
14926KSTC STC20060618164010006/18/06 16:40:31  5-MIN KSTC 182240Z 27016G24KT 10SM CLR 27/08 A2978 1160 31 2800 270/16G24 RMK AO2
14926KSTC STC20060618164510006/18/06 16:45:31  5-MIN KSTC 182245Z 27020G24KT 10SM CLR 26/08 A2978 1160 32 2700 270/20G24 RMK AO2
14926KSTC STC20060618165011706/18/06 16:50:31  5-MIN KSTC 182250Z 26020G24KT 10SM CLR 26/08 A2978 1160 32 2700 260/20G24 RMK AO2 SLP087 T02610083
14926KSTC STC20060618165510006/18/06 16:55:31  5-MIN KSTC 182255Z 26017G24KT 10SM CLR 26/09 A2978 1160 33 2700 260/17G24 RMK AO2
14926KSTC STC20060618170009406/18/06 17:00:31  5-MIN KSTC 182300Z 26015KT 10SM CLR 27/09 A2978 1160 32 2800 260/15 RMK AO2
14926KSTC STC20060618170509406/18/06 17:05:31  5-MIN KSTC 182305Z 26015KT 10SM CLR 26/09 A2978 1160 34 2700 260/15 RMK AO2
14926KSTC STC20060618171010006/18/06 17:10:31  5-MIN KSTC 182310Z 26013G21KT 10SM CLR 27/09 A2977 1160 33 2800 260/13G21 RMK AO2
14926KSTC STC20060618171509406/18/06 17:15:31  5-MIN KSTC 182315Z 25016KT 10SM CLR 26/09 A2977 1160 34 2700 250/16 RMK AO2
14926KSTC STC20060618172009406/18/06 17:20:31  5-MIN KSTC 182320Z 26011KT 10SM CLR 26/10 A2977 1160 36 2700 250/11 RMK AO2
14926KSTC STC20060618172509406/18/06 17:25:31  5-MIN KSTC 182325Z 25013KT 10SM CLR 26/09 A2977 1160 34 2700 250/13 RMK AO2
14926KSTC STC20060618173009406/18/06 17:30:31  5-MIN KSTC 182330Z 27012KT 10SM CLR 26/10 A2977 1170 37 2700 270/12 RMK AO2
14926KSTC STC20060618173509406/18/06 17:35:31  5-MIN KSTC 182335Z 26010KT 10SM CLR 26/10 A2977 1170 37 2700 250/10 RMK AO2
14926KSTC STC20060618174010006/18/06 17:40:31  5-MIN KSTC 182340Z 26015G22KT 10SM CLR 26/09 A2977 1170 34 2800 260/15G22 RMK AO2
14926KSTC STC20060618174510006/18/06 17:45:31  5-MIN KSTC 182345Z 26014G22KT 10SM CLR 26/09 A2977 1170 33 2700 260/14G22 RMK AO2
14926KSTC STC20060618175013506/18/06 17:50:31  5-MIN KSTC 182350Z 26014G22KT 10SM CLR 26/09 A2977 1170 34 2800 260/14G22 RMK AO2 SLP083 T02610094 10278 20256 56005
14926KSTC STC20060618175510306/18/06 17:55:31  5-MIN KSTC 182355Z 26014G22KT 10SM FEW085 26/09 A2977 1170 34 2800 260/14G22 RMK AO2
14926KSTC STC20060618180010306/18/06 18:00:31  5-MIN KSTC 190000Z 26015G19KT 10SM FEW085 26/09 A2977 1170 35 2700 250/15G19 RMK AO2
14926KSTC STC20060618180509406/18/06 18:05:31  5-MIN KSTC 190005Z 25013KT 10SM CLR 26/09 A2977 1170 35 2700 250/13 RMK AO2
14926KSTC STC20060618181009406/18/06 18:10:31  5-MIN KSTC 190010Z 25013KT 10SM CLR 26/09 A2977 1170 34 2700 250/13 RMK AO2
14926KSTC STC20060618181509406/18/06 18:15:31  5-MIN KSTC 190015Z 26014KT 10SM CLR 26/09 A2977 1170 34 2700 260/14 RMK AO2
14926KSTC STC20060618182009406/18/06 18:20:31  5-MIN KSTC 190020Z 25013KT 10SM CLR 26/09 A2977 1170 34 2700 250/13 RMK AO2
14926KSTC STC20060618182509406/18/06 18:25:31  5-MIN KSTC 190025Z 25014KT 10SM CLR 26/09 A2977 1170 34 2700 250/14 RMK AO2
14926KSTC STC20060618183010006/18/06 18:30:31  5-MIN KSTC 190030Z 26015G19KT 10SM CLR 26/09 A2977 1170 34 2700 260/15G19 RMK AO2
14926KSTC STC20060618183510006/18/06 18:35:31  5-MIN KSTC 190035Z 25010G19KT 10SM CLR 25/09 A2977 1170 37 2600 250/10G19 RMK AO2
14926KSTC STC20060618184009406/18/06 18:40:31  5-MIN KSTC 190040Z 26012KT 10SM CLR 25/09 A2977 1170 35 2600 250/12 RMK AO2
14926KSTC STC20060618184509406/18/06 18:45:31  5-MIN KSTC 190045Z 26010KT 10SM CLR 25/09 A2976 1170 37 2600 250/10 RMK AO2
14926KSTC STC20060618185011106/18/06 18:50:31  5-MIN KSTC 190050Z 25008KT 10SM CLR 25/09 A2976 1170 37 2600 250/08 RMK AO2 SLP082 T02500094
14926KSTC STC20060618185509406/18/06 18:55:31  5-MIN KSTC 190055Z 25010KT 10SM CLR 24/09 A2976 1170 38 2600 250/10 RMK AO2
14926KSTC STC20060618190009406/18/06 19:00:31  5-MIN KSTC 190100Z 25009KT 10SM CLR 24/10 A2976 1170 41 2500 240/09 RMK AO2
14926KSTC STC20060618211009406/18/06 21:10:31  5-MIN KSTC 190310Z 28008KT 10SM CLR 21/09 A2980 1140 48 2100 280/08 RMK AO2
14926KSTC STC20060618211509406/18/06 21:15:31  5-MIN KSTC 190315Z 28010KT 10SM CLR 20/09 A2980 1140 50 2000 280/10 RMK AO2
14926KSTC STC20060618212009406/18/06 21:20:31  5-MIN KSTC 190320Z 28010KT 10SM CLR 21/09 A2980 1140 48 2100 280/10 RMK AO2
14926KSTC STC20060618212509406/18/06 21:25:31  5-MIN KSTC 190325Z 28009KT 10SM CLR 21/09 A2980 1140 48 2100 270/09 RMK AO2
14926KSTC STC20060618213009406/18/06 21:30:31  5-MIN KSTC 190330Z 27008KT 10SM CLR 21/09 A2980 1140 48 2100 270/08 RMK AO2
14926KSTC STC20060618213509706/18/06 21:35:31  5-MIN KSTC 190335Z 27009KT 10SM FEW110 21/09 A2980 1140 48 2100 270/09 RMK AO2
14926KSTC STC20060618214009706/18/06 21:40:31  5-MIN KSTC 190340Z 27008KT 10SM FEW110 21/09 A2980 1140 48 2100 270/08 RMK AO2
14926KSTC STC20060618214509706/18/06 21:45:31  5-MIN KSTC 190345Z 27009KT 10SM SCT110 20/10 A2980 1140 52 2000 270/09 RMK AO2
14926KSTC STC20060618215011406/18/06 21:50:31  5-MIN KSTC 190350Z 27008KT 10SM BKN110 21/09 A2980 1140 48 2100 270/08 RMK AO2 SLP094 T02060094
14926KSTC STC20060618215510206/18/06 21:55:31  5-MIN KSTC 190355Z AUTO 27007KT 10SM BKN110 20/10 A2980 1140 52 2000 270/07 RMK AO2
14926KSTC STC20060618220010206/18/06 22:00:31  5-MIN KSTC 190400Z AUTO 27007KT 10SM BKN110 20/10 A2980 1140 52 2000 270/07 RMK AO2
14926KSTC STC20060618220510206/18/06 22:05:31  5-MIN KSTC 190405Z AUTO 27007KT 10SM OVC110 20/10 A2980 1140 52 2000 260/07 RMK AO2
14926KSTC STC20060618221010206/18/06 22:10:31  5-MIN KSTC 190410Z AUTO 28008KT 10SM OVC110 20/11 A2980 1140 54 2000 270/08 RMK AO2
14926KSTC STC20060618221510206/18/06 22:15:31  5-MIN KSTC 190415Z AUTO 28008KT 10SM OVC100 20/10 A2979 1140 52 2000 270/08 RMK AO2
14926KSTC STC20060618222010806/18/06 22:20:31  5-MIN KSTC 190420Z AUTO 28011G16KT 10SM OVC100 21/09 A2980 1140 48 2100 280/11G16 RMK AO2
14926KSTC STC20060618222510206/18/06 22:25:31  5-MIN KSTC 190425Z AUTO 29011KT 10SM OVC100 21/09 A2980 1140 48 2100 290/11 RMK AO2
14926KSTC STC20060618223010206/18/06 22:30:31  5-MIN KSTC 190430Z AUTO 29011KT 10SM OVC100 21/09 A2980 1140 48 2100 290/11 RMK AO2
14926KSTC STC20060618223510206/18/06 22:35:31  5-MIN KSTC 190435Z AUTO 30012KT 10SM OVC100 20/09 A2980 1140 50 2000 290/12 RMK AO2
14926KSTC STC20060618224010206/18/06 22:40:31  5-MIN KSTC 190440Z AUTO 30015KT 10SM OVC110 20/09 A2980 1140 50 2000 290/15 RMK AO2
14926KSTC STC20060618224510206/18/06 22:45:31  5-MIN KSTC 190445Z AUTO 28013KT 10SM OVC110 20/09 A2980 1140 50 2000 280/13 RMK AO2
14926KSTC STC20060618225011906/18/06 22:50:31  5-MIN KSTC 190450Z AUTO 30012KT 10SM OVC110 20/10 A2980 1140 52 2000 290/12 RMK AO2 SLP094 T02000100
14926KSTC STC20060618225510806/18/06 22:55:31  5-MIN KSTC 190455Z AUTO 30013G19KT 10SM OVC110 19/10 A2980 1140 54 2000 290/13G19 RMK AO2
14926KSTC STC20060618230010806/18/06 23:00:31  5-MIN KSTC 190500Z AUTO 30014G19KT 10SM OVC110 19/10 A2981 1130 54 2000 300/14G19 RMK AO2
14926KSTC STC20060618230510206/18/06 23:05:31  5-MIN KSTC 190505Z AUTO 30016KT 10SM OVC110 19/11 A2981 1130 56 1900 300/16 RMK AO2
14926KSTC STC20060618231010206/18/06 23:10:31  5-MIN KSTC 190510Z AUTO 29014KT 10SM BKN110 19/11 A2981 1130 58 1900 290/14 RMK AO2
14926KSTC STC20060618231510206/18/06 23:15:31  5-MIN KSTC 190515Z AUTO 30014KT 10SM SCT110 19/11 A2981 1130 60 1900 290/14 RMK AO2
14926KSTC STC20060618232010206/18/06 23:20:31  5-MIN KSTC 190520Z AUTO 29015KT 10SM SCT110 19/11 A2981 1130 60 1900 290/15 RMK AO2
14926KSTC STC20060618232510806/18/06 23:25:31  5-MIN KSTC 190525Z AUTO 30018G23KT 10SM FEW110 19/12 A2981 1130 62 1900 290/18G23 RMK AO2
14926KSTC STC20060618233010806/18/06 23:30:31  5-MIN KSTC 190530Z AUTO 30018G23KT 10SM FEW110 18/12 A2981 1120 65 1800 300/18G23 RMK AO2
14926KSTC STC20060618233510506/18/06 23:35:31  5-MIN KSTC 190535Z AUTO 29014G21KT 10SM CLR 18/12 A2981 1120 65 1800 290/14G21 RMK AO2
14926KSTC STC20060618234009906/18/06 23:40:31  5-MIN KSTC 190540Z AUTO 29012KT 10SM CLR 18/12 A2982 1120 65 1800 290/12 RMK AO2
14926KSTC STC20060618234509906/18/06 23:45:31  5-MIN KSTC 190545Z AUTO 28010KT 10SM CLR 18/12 A2982 1120 67 1700 280/10 RMK AO2
14926KSTC STC20060618235014406/18/06 23:50:31  5-MIN KSTC 190550Z AUTO 28010KT 10SM CLR 18/12 A2981 1120 67 1800 280/10 RMK AO2 SLP099 T01780117 10261 20178 402780172 53008
14926KSTC STC20060618235509906/18/06 23:55:31  5-MIN KSTC 190555Z AUTO 29011KT 10SM CLR 18/12 A2981 1130 67 1800 280/11 RMK AO2
14926KSTC STC20060619000009906/19/06 00:00:32  5-MIN KSTC 190600Z AUTO 28012KT 10SM CLR 18/12 A2981 1130 69 1800 280/12 RMK AO2
14926KSTC STC20060619000509906/19/06 00:05:31  5-MIN KSTC 190605Z AUTO 28012KT 10SM CLR 18/12 A2981 1130 69 1800 280/12 RMK AO2
14926KSTC STC20060619001009906/19/06 00:10:31  5-MIN KSTC 190610Z AUTO 28010KT 10SM CLR 18/12 A2981 1130 69 1800 270/10 RMK AO2
14926KSTC STC20060619001509906/19/06 00:15:31  5-MIN KSTC 190615Z AUTO 28011KT 10SM CLR 18/12 A2981 1120 69 1800 270/11 RMK AO2
14926KSTC STC20060619002009906/19/06 00:20:31  5-MIN KSTC 190620Z AUTO 28010KT 10SM CLR 18/12 A2982 1120 69 1700 270/10 RMK AO2
14926KSTC STC20060619002509906/19/06 00:25:31  5-MIN KSTC 190625Z AUTO 27009KT 10SM CLR 17/12 A2982 1120 72 1700 270/09 RMK AO2
14926KSTC STC20060619003009906/19/06 00:30:31  5-MIN KSTC 190630Z AUTO 27010KT 10SM CLR 17/12 A2982 1120 72 1700 270/10 RMK AO2
14926KSTC STC20060619003509906/19/06 00:35:31  5-MIN KSTC 190635Z AUTO 28010KT 10SM CLR 17/12 A2982 1120 72 1700 270/10 RMK AO2
14926KSTC STC20060619004009906/19/06 00:40:31  5-MIN KSTC 190640Z AUTO 27009KT 10SM CLR 17/12 A2982 1120 72 1700 270/09 RMK AO2
14926KSTC STC20060619004509906/19/06 00:45:31  5-MIN KSTC 190645Z AUTO 28011KT 10SM CLR 17/12 A2982 1120 72 1700 280/11 RMK AO2
14926KSTC STC20060619005011606/19/06 00:50:31  5-MIN KSTC 190650Z AUTO 27011KT 10SM CLR 17/12 A2982 1120 72 1700 270/11 RMK AO2 SLP100 T01720122
14926KSTC STC20060619005509906/19/06 00:55:31  5-MIN KSTC 190655Z AUTO 28010KT 10SM CLR 17/12 A2982 1120 72 1700 270/10 RMK AO2
14926KSTC STC20060619010009906/19/06 01:00:31  5-MIN KSTC 190700Z AUTO 28009KT 10SM CLR 17/12 A2982 1120 72 1700 270/09 RMK AO2
14926KSTC STC20060619010509906/19/06 01:05:31  5-MIN KSTC 190705Z AUTO 28009KT 10SM CLR 17/12 A2982 1120 72 1700 280/09 RMK AO2
14926KSTC STC20060619011009906/19/06 01:10:31  5-MIN KSTC 190710Z AUTO 28013KT 10SM CLR 17/12 A2982 1120 72 1700 280/13 RMK AO2
14926KSTC STC20060619011509906/19/06 01:15:31  5-MIN KSTC 190715Z AUTO 28011KT 10SM CLR 17/12 A2982 1120 72 1700 280/11 RMK AO2
14926KSTC STC20060619012009906/19/06 01:20:31  5-MIN KSTC 190720Z AUTO 28013KT 10SM CLR 17/12 A2982 1120 72 1700 270/13 RMK AO2
14926KSTC STC20060619012509906/19/06 01:25:31  5-MIN KSTC 190725Z AUTO 28011KT 10SM CLR 17/13 A2982 1120 75 1700 280/11 RMK AO2
14926KSTC STC20060619013009906/19/06 01:30:31  5-MIN KSTC 190730Z AUTO 28011KT 10SM CLR 17/13 A2982 1120 75 1700 280/11 RMK AO2
14926KSTC STC20060619013509906/19/06 01:35:31  5-MIN KSTC 190735Z AUTO 28010KT 10SM CLR 17/13 A2982 1120 75 1700 280/10 RMK AO2
14926KSTC STC20060619014009906/19/06 01:40:31  5-MIN KSTC 190740Z AUTO 28012KT 10SM CLR 17/13 A2982 1120 75 1700 280/12 RMK AO2
14926KSTC STC20060619014509906/19/06 01:45:31  5-MIN KSTC 190745Z AUTO 28010KT 10SM CLR 17/13 A2982 1120 77 1600 280/10 RMK AO2
14926KSTC STC20060619015011606/19/06 01:50:31  5-MIN KSTC 190750Z AUTO 28009KT 10SM CLR 17/13 A2982 1120 77 1600 270/09 RMK AO2 SLP103 T01670128
14926KSTC STC20060619015509906/19/06 01:55:31  5-MIN KSTC 190755Z AUTO 28011KT 10SM CLR 17/13 A2983 1110 77 1600 280/11 RMK AO2
14926KSTC STC20060619020009906/19/06 02:00:31  5-MIN KSTC 190800Z AUTO 28012KT 10SM CLR 17/13 A2983 1110 77 1600 280/12 RMK AO2
14926KSTC STC20060619020509906/19/06 02:05:31  5-MIN KSTC 190805Z AUTO 28010KT 10SM CLR 17/13 A2983 1110 77 1600 280/10 RMK AO2
14926KSTC STC20060619021009906/19/06 02:10:31  5-MIN KSTC 190810Z AUTO 28011KT 10SM CLR 17/13 A2983 1110 77 1600 280/11 RMK AO2
14926KSTC STC20060619021509906/19/06 02:15:31  5-MIN KSTC 190815Z AUTO 28013KT 10SM CLR 17/13 A2983 1110 77 1600 280/13 RMK AO2
14926KSTC STC20060619022009906/19/06 02:20:31  5-MIN KSTC 190820Z AUTO 28010KT 10SM CLR 17/13 A2984 1100 77 1600 280/10 RMK AO2
14926KSTC STC20060619022509906/19/06 02:25:31  5-MIN KSTC 190825Z AUTO 28010KT 10SM CLR 17/13 A2984 1100 77 1600 280/10 RMK AO2
14926KSTC STC20060619023009906/19/06 02:30:31  5-MIN KSTC 190830Z AUTO 28011KT 10SM CLR 17/13 A2984 1100 77 1600 280/11 RMK AO2
14926KSTC STC20060619023509906/19/06 02:35:31  5-MIN KSTC 190835Z AUTO 28009KT 10SM CLR 17/13 A2984 1100 77 1600 280/09 RMK AO2
14926KSTC STC20060619024009906/19/06 02:40:31  5-MIN KSTC 190840Z AUTO 29009KT 10SM CLR 17/13 A2984 1100 77 1600 290/09 RMK AO2
14926KSTC STC20060619024509906/19/06 02:45:31  5-MIN KSTC 190845Z AUTO 29010KT 10SM CLR 16/13 A2985 1100 80 1500 280/10 RMK AO2
14926KSTC STC20060619025012206/19/06 02:50:31  5-MIN KSTC 190850Z AUTO 29009KT 10SM CLR 16/13 A2985 1090 80 1500 290/09 RMK AO2 SLP111 T01610128 53007
14926KSTC STC20060619025509906/19/06 02:55:31  5-MIN KSTC 190855Z AUTO 29009KT 10SM CLR 16/13 A2985 1090 80 1500 280/09 RMK AO2
14926KSTC STC20060619030009906/19/06 03:00:31  5-MIN KSTC 190900Z AUTO 28010KT 10SM CLR 16/13 A2985 1090 80 1500 280/10 RMK AO2
14926KSTC STC20060619030509906/19/06 03:05:31  5-MIN KSTC 190905Z AUTO 28010KT 10SM CLR 16/13 A2985 1090 80 1500 280/10 RMK AO2
14926KSTC STC20060619031009906/19/06 03:10:31  5-MIN KSTC 190910Z AUTO 28010KT 10SM CLR 16/13 A2985 1090 80 1500 280/10 RMK AO2
14926KSTC STC20060619031509906/19/06 03:15:31  5-MIN KSTC 190915Z AUTO 29010KT 10SM CLR 16/13 A2985 1090 80 1500 280/10 RMK AO2
14926KSTC STC20060619032010206/19/06 03:20:31  5-MIN KSTC 190920Z AUTO 28008KT 10SM FEW048 16/13 A2985 1090 83 1500 280/08 RMK AO2
14926KSTC STC20060619032510206/19/06 03:25:31  5-MIN KSTC 190925Z AUTO 28009KT 10SM SCT048 16/13 A2986 1090 83 1500 280/09 RMK AO2
14926KSTC STC20060619033010206/19/06 03:30:31  5-MIN KSTC 190930Z AUTO 28011KT 10SM FEW050 16/13 A2986 1080 83 1500 280/11 RMK AO2
14926KSTC STC20060619033510206/19/06 03:35:31  5-MIN KSTC 190935Z AUTO 29008KT 10SM FEW050 16/13 A2986 1080 83 1500 280/08 RMK AO2
14926KSTC STC20060619034010206/19/06 03:40:31  5-MIN KSTC 190940Z AUTO 29009KT 10SM FEW050 16/13 A2986 1080 83 1500 290/09 RMK AO2
14926KSTC STC20060619034510206/19/06 03:45:31  5-MIN KSTC 190945Z AUTO 29008KT 10SM FEW050 16/13 A2986 1080 83 1500 290/08 RMK AO2
14926KSTC STC20060619035011906/19/06 03:50:31  5-MIN KSTC 190950Z AUTO 28008KT 10SM FEW050 16/13 A2986 1080 83 1500 280/08 RMK AO2 SLP116 T01610133
14926KSTC STC20060619035509906/19/06 03:55:31  5-MIN KSTC 190955Z AUTO 28008KT 10SM CLR 16/13 A2986 1080 83 1500 280/08 RMK AO2
14926KSTC STC20060619040009906/19/06 04:00:31  5-MIN KSTC 191000Z AUTO 29009KT 10SM CLR 16/13 A2987 1080 83 1500 280/09 RMK AO2
14926KSTC STC20060619040509906/19/06 04:05:31  5-MIN KSTC 191005Z AUTO 29008KT 10SM CLR 16/13 A2987 1070 86 1400 290/08 RMK AO2
14926KSTC STC20060619041009906/19/06 04:10:31  5-MIN KSTC 191010Z AUTO 29008KT 10SM CLR 16/13 A2987 1070 86 1400 290/08 RMK AO2
14926KSTC STC20060619041509906/19/06 04:15:31  5-MIN KSTC 191015Z AUTO 29008KT 10SM CLR 16/13 A2987 1070 83 1500 290/08 RMK AO2
14926KSTC STC20060619042010206/19/06 04:20:31  5-MIN KSTC 191020Z AUTO 29007KT 10SM FEW050 16/13 A2988 1070 86 1400 290/07 RMK AO2
14926KSTC STC20060619042510206/19/06 04:25:31  5-MIN KSTC 191025Z AUTO 28007KT 10SM SCT050 16/13 A2988 1060 83 1500 270/07 RMK AO2
14926KSTC STC20060619043010206/19/06 04:30:31  5-MIN KSTC 191030Z AUTO 28008KT 10SM BKN050 16/13 A2988 1060 86 1400 280/08 RMK AO2
14926KSTC STC20060619043510206/19/06 04:35:31  5-MIN KSTC 191035Z AUTO 28010KT 10SM BKN050 16/13 A2988 1060 86 1400 280/10 RMK AO2
14926KSTC STC20060619044010206/19/06 04:40:31  5-MIN KSTC 191040Z AUTO 28009KT 10SM SCT050 16/13 A2989 1060 83 1500 280/09 RMK AO2
14926KSTC STC20060619044510206/19/06 04:45:31  5-MIN KSTC 191045Z AUTO 29008KT 10SM BKN050 16/13 A2989 1060 83 1500 280/08 RMK AO2
14926KSTC STC20060619045011906/19/06 04:50:31  5-MIN KSTC 191050Z AUTO 29009KT 10SM BKN050 16/13 A2989 1050 83 1500 290/09 RMK AO2 SLP126 T01610133
14926KSTC STC20060619045510206/19/06 04:55:31  5-MIN KSTC 191055Z AUTO 30009KT 10SM BKN050 16/13 A2989 1050 83 1500 290/09 RMK AO2
14926KSTC STC20060619050010206/19/06 05:00:31  5-MIN KSTC 191100Z AUTO 29009KT 10SM BKN050 16/13 A2989 1050 83 1500 290/09 RMK AO2
14926KSTC STC20060619050510206/19/06 05:05:31  5-MIN KSTC 191105Z AUTO 29009KT 10SM BKN050 17/14 A2989 1050 83 1500 290/09 RMK AO2
14926KSTC STC20060619051010206/19/06 05:10:31  5-MIN KSTC 191110Z AUTO 29010KT 10SM OVC050 17/14 A2990 1050 83 1500 290/10 RMK AO2
14926KSTC STC20060619051510206/19/06 05:15:31  5-MIN KSTC 191115Z AUTO 29011KT 10SM OVC050 17/13 A2990 1050 80 1500 290/11 RMK AO2
14926KSTC STC20060619052010906/19/06 05:20:31  5-MIN KSTC 191120Z AUTO 29009KT 10SM FEW025 OVC050 17/13 A2990 1050 80 1500 290/09 RMK AO2
14926KSTC STC20060619052510906/19/06 05:25:31  5-MIN KSTC 191125Z AUTO 29011KT 10SM FEW025 BKN048 16/13 A2990 1050 83 1500 290/11 RMK AO2
14926KSTC STC20060619053010906/19/06 05:30:31  5-MIN KSTC 191130Z AUTO 29008KT 10SM FEW025 BKN048 16/13 A2990 1040 83 1500 290/08 RMK AO2
14926KSTC STC20060619053510906/19/06 05:35:31  5-MIN KSTC 191135Z AUTO 29009KT 10SM SCT025 BKN048 17/14 A2991 1040 83 1500 290/09 RMK AO2
14926KSTC STC20060619054010906/19/06 05:40:31  5-MIN KSTC 191140Z AUTO 29010KT 10SM BKN025 BKN046 17/14 A2991 1040 83 1500 290/10 RMK AO2
14926KSTC STC20060619054511606/19/06 05:45:31  5-MIN KSTC 191145Z AUTO 30010KT 10SM FEW020 BKN027 BKN046 17/13 A2991 1040 80 1500 290/10 RMK AO2
14926KSTC STC20060619055014406/19/06 05:50:31  5-MIN KSTC 191150Z AUTO 31009KT 10SM SCT022 BKN028 17/13 A2991 1040 80 1500 300/09 RMK AO2 SLP133 T01670133 10178 20156 53011
14926KSTC STC20060619055512206/19/06 05:55:31  5-MIN KSTC 191155Z AUTO 31015G18KT 10SM FEW020 BKN025 OVC031 17/13 A2991 1030 77 1500 310/15G18 RMK AO2
14926KSTC STC20060619060010406/19/06 06:00:31  5-MIN KSTC 191200Z 32012KT 10SM BKN026 OVC031 17/13 A2991 1030 77 1500 320/12 RMK AO2
14926KSTC STC20060619060510406/19/06 06:05:31  5-MIN KSTC 191205Z 32011KT 10SM FEW022 OVC029 17/13 A2992 1030 77 1500 310/11 RMK AO2
14926KSTC STC20060619061011006/19/06 06:10:31  5-MIN KSTC 191210Z 32015G19KT 10SM FEW022 OVC030 17/13 A2992 1030 77 1500 310/15G19 RMK AO2
14926KSTC STC20060619061509706/19/06 06:15:31  5-MIN KSTC 191215Z 32013KT 10SM OVC030 17/12 A2992 1020 75 1500 320/13 RMK AO2
14926KSTC STC20060619062009706/19/06 06:20:31  5-MIN KSTC 191220Z 31013KT 10SM OVC030 17/12 A2993 1020 75 1500 310/13 RMK AO2
14926KSTC STC20060619062509706/19/06 06:25:31  5-MIN KSTC 191225Z 31014KT 10SM OVC030 17/12 A2993 1020 72 1600 300/14 RMK AO2
14926KSTC STC20060619063009706/19/06 06:30:31  5-MIN KSTC 191230Z 31014KT 10SM OVC030 17/12 A2993 1020 72 1600 310/14 RMK AO2
14926KSTC STC20060619063509706/19/06 06:35:31  5-MIN KSTC 191235Z 31013KT 10SM OVC032 17/12 A2993 1020 72 1600 310/13 RMK AO2
14926KSTC STC20060619064010406/19/06 06:40:31  5-MIN KSTC 191240Z 31015KT 10SM FEW022 OVC032 17/12 A2993 1020 72 1600 310/15 RMK AO2
14926KSTC STC20060619064510406/19/06 06:45:31  5-MIN KSTC 191245Z 31015KT 10SM SCT022 OVC032 17/12 A2993 1010 72 1500 300/15 RMK AO2
14926KSTC STC20060619065012106/19/06 06:50:31  5-MIN KSTC 191250Z 31016KT 10SM SCT022 OVC032 17/12 A2994 1010 72 1500 300/16 RMK AO2 SLP142 T01720122
14926KSTC STC20060619065510406/19/06 06:55:31  5-MIN KSTC 191255Z 31014KT 10SM FEW022 OVC032 17/12 A2994 1010 75 1500 310/14 RMK AO2
14926KSTC STC20060619070011006/19/06 07:00:31  5-MIN KSTC 191300Z 31012G19KT 10SM FEW022 OVC032 17/12 A2994 1000 75 1500 310/12G19 RMK AO2
14926KSTC STC20060619070510406/19/06 07:05:31  5-MIN KSTC 191305Z 31014KT 10SM FEW022 OVC032 17/12 A2995 1000 75 1500 310/14 RMK AO2
14926KSTC STC20060619071010406/19/06 07:10:31  5-MIN KSTC 191310Z 31014KT 10SM FEW022 OVC032 17/12 A2995 1000 75 1500 310/14 RMK AO2
14926KSTC STC20060619071509706/19/06 07:15:31  5-MIN KSTC 191315Z 31016KT 10SM OVC032 17/12 A2995 1000 75 1500 310/16 RMK AO2
14926KSTC STC20060619072009706/19/06 07:20:31  5-MIN KSTC 191320Z 31015KT 10SM OVC030 17/12 A2995 1000 72 1500 310/15 RMK AO2
14926KSTC STC20060619072509606/19/06 07:25:31  5-MIN KSTC 191325Z 32012KT 10SM OVC030 17/12 A2996 990 72 1500 310/12 RMK AO2
14926KSTC STC20060619073009606/19/06 07:30:31  5-MIN KSTC 191330Z 31010KT 10SM OVC030 18/12 A2996 990 69 1600 310/10 RMK AO2
14926KSTC STC20060619073509606/19/06 07:35:31  5-MIN KSTC 191335Z 32014KT 10SM BKN030 18/12 A2996 990 69 1600 320/14 RMK AO2
14926KSTC STC20060619074009606/19/06 07:40:31  5-MIN KSTC 191340Z 31017KT 10SM OVC030 18/12 A2996 990 67 1600 310/17 RMK AO2
14926KSTC STC20060619074510206/19/06 07:45:31  5-MIN KSTC 191345Z 31015G22KT 10SM OVC030 17/12 A2996 990 69 1500 310/15G22 RMK AO2
14926KSTC STC20060619075011906/19/06 07:50:31  5-MIN KSTC 191350Z 31014G22KT 10SM OVC030 17/12 A2996 990 69 1500 310/14G22 RMK AO2 SLP152 T01720117
14926KSTC STC20060619075509606/19/06 07:55:31  5-MIN KSTC 191355Z 31013KT 10SM OVC030 17/12 A2997 980 69 1500 310/13 RMK AO2
14926KSTC STC20060619080009606/19/06 08:00:31  5-MIN KSTC 191400Z 32011KT 10SM OVC028 18/12 A2997 980 67 1600 310/11 RMK AO2
14926KSTC STC20060619080510206/19/06 08:05:31  5-MIN KSTC 191405Z 33014G18KT 10SM OVC028 18/12 A2997 980 67 1600 330/14G18 RMK AO2
14926KSTC STC20060619081010206/19/06 08:10:31  5-MIN KSTC 191410Z 32014G19KT 10SM OVC028 18/12 A2997 980 67 1600 320/14G19 RMK AO2
14926KSTC STC20060619081510206/19/06 08:15:31  5-MIN KSTC 191415Z 32016G20KT 10SM BKN028 19/12 A2997 980 62 1700 310/16G20 RMK AO2
14926KSTC STC20060619082009606/19/06 08:20:31  5-MIN KSTC 191420Z 32015KT 10SM BKN028 18/12 A2997 980 65 1600 320/15 RMK AO2
14926KSTC STC20060619082509606/19/06 08:25:31  5-MIN KSTC 191425Z 33014KT 10SM BKN028 18/12 A2997 980 65 1600 320/14 RMK AO2
14926KSTC STC20060619083010206/19/06 08:30:31  5-MIN KSTC 191430Z 34012G19KT 10SM BKN028 19/12 A2998 970 62 1700 340/12G19 RMK AO2
14926KSTC STC20060619083509606/19/06 08:35:31  5-MIN KSTC 191435Z 34012KT 10SM BKN028 19/12 A2998 970 62 1700 340/12 RMK AO2
14926KSTC STC20060619084009606/19/06 08:40:31  5-MIN KSTC 191440Z 31015KT 10SM BKN028 19/12 A2998 980 62 1700 310/15 RMK AO2
14926KSTC STC20060619084509606/19/06 08:45:31  5-MIN KSTC 191445Z 32016KT 10SM SCT028 19/12 A2997 980 62 1700 320/16 RMK AO2
14926KSTC STC20060619085010206/19/06 08:50:31  5-MIN KSTC 191450Z 32011G16KT 10SM SCT028 19/12 A2997 980 62 1700 320/11G16 RMK AO2
14926KSTC STC20060619085510206/19/06 08:55:31  5-MIN KSTC 191455Z 34013G16KT 10SM SCT028 19/12 A2997 980 62 1700 340/13G16 RMK AO2
14926KSTC STC20060619090010206/19/06 09:00:31  5-MIN KSTC 191500Z 32014G18KT 10SM FEW028 19/11 A2997 980 58 1800 320/14G18 RMK AO2
14926KSTC STC20060619090510206/19/06 09:05:31  5-MIN KSTC 191505Z 34011G18KT 10SM FEW026 19/12 A2997 980 60 1800 340/11G18 RMK AO2
14926KSTC STC20060619091009306/19/06 09:10:31  5-MIN KSTC 191510Z 35012KT 10SM CLR 19/11 A2997 980 58 1800 340/12 RMK AO2
14926KSTC STC20060619091509906/19/06 09:15:31  5-MIN KSTC 191515Z 32013G17KT 10SM CLR 20/12 A2997 980 58 1800 320/13G17 RMK AO2
14926KSTC STC20060619092009306/19/06 09:20:31  5-MIN KSTC 191520Z 33011KT 10SM CLR 20/12 A2997 980 58 1800 330/11 RMK AO2
14926KSTC STC20060619092509306/19/06 09:25:31  5-MIN KSTC 191525Z 34013KT 10SM CLR 19/11 A2997 980 58 1800 340/13 RMK AO2
14926KSTC STC20060619093009306/19/06 09:30:31  5-MIN KSTC 191530Z 34011KT 10SM CLR 19/11 A2997 980 58 1800 330/11 RMK AO2
14926KSTC STC20060619093509906/19/06 09:35:31  5-MIN KSTC 191535Z 34011G17KT 10SM CLR 20/12 A2997 980 58 1800 340/11G17 RMK AO2
14926KSTC STC20060619094009906/19/06 09:40:31  5-MIN KSTC 191540Z 35010G17KT 10SM CLR 20/12 A2997 980 58 1800 340/10G17 RMK AO2
14926KSTC STC20060619094509306/19/06 09:45:31  5-MIN KSTC 191545Z 34011KT 10SM CLR 20/12 A2997 980 58 1800 340/11 RMK AO2
14926KSTC STC20060619095011006/19/06 09:50:31  5-MIN KSTC 191550Z 33011KT 10SM CLR 21/11 A2997 980 54 1900 330/11 RMK AO2 SLP154 T02060111
14926KSTC STC20060619095509306/19/06 09:55:31  5-MIN KSTC 191555Z 35010KT 10SM CLR 20/11 A2997 980 56 1800 350/10 RMK AO2
14926KSTC STC20060619100009306/19/06 10:00:31  5-MIN KSTC 191600Z 34012KT 10SM CLR 21/11 A2998 980 52 2000 340/12 RMK AO2
14926KSTC STC20060619100509306/19/06 10:05:31  5-MIN KSTC 191605Z 33012KT 10SM CLR 21/11 A2998 980 54 1900 320/12 RMK AO2
14926KSTC STC20060619101009306/19/06 10:10:31  5-MIN KSTC 191610Z 36010KT 10SM CLR 21/11 A2998 980 50 2000 360/10 RMK AO2
14926KSTC STC20060619101509306/19/06 10:15:31  5-MIN KSTC 191615Z 33011KT 10SM CLR 21/11 A2997 980 50 2000 320/11 RMK AO2
14926KSTC STC20060619102009906/19/06 10:20:31  5-MIN KSTC 191620Z 34010G18KT 10SM CLR 21/11 A2997 980 52 2000 330/10G18 RMK AO2
14926KSTC STC20060619102509906/19/06 10:25:31  5-MIN KSTC 191625Z 34011G18KT 10SM CLR 21/11 A2997 980 50 2000 340/11G18 RMK AO2
14926KSTC STC20060619103009906/19/06 10:30:31  5-MIN KSTC 191630Z 33009G18KT 10SM CLR 21/10 A2997 980 48 2000 330/09G18 RMK AO2
14926KSTC STC20060619103509306/19/06 10:35:31  5-MIN KSTC 191635Z 36010KT 10SM CLR 21/10 A2997 980 48 2000 350/10 RMK AO2
14926KSTC STC20060619104009306/19/06 10:40:31  5-MIN KSTC 191640Z 36009KT 10SM CLR 21/10 A2998 970 48 1900 360/09 RMK AO2
14926KSTC STC20060619104509306/19/06 10:45:31  5-MIN KSTC 191645Z 32011KT 10SM CLR 22/09 A2998 970 45 2000 320/11 RMK AO2
14926KSTC STC20060619105011606/19/06 10:50:31  5-MIN KSTC 191650Z 33008G15KT 10SM CLR 22/10 A2998 970 47 2000 330/08G15 RMK AO2 SLP156 T02170100
14926KSTC STC20060619105509306/19/06 10:55:31  5-MIN KSTC 191655Z 01011KT 10SM CLR 22/10 A2998 970 47 2000 010/11 RMK AO2
14926KSTC STC20060619110009306/19/06 11:00:31  5-MIN KSTC 191700Z 35008KT 10SM CLR 22/09 A2998 970 45 2000 350/08 RMK AO2
14926KSTC STC20060619110509306/19/06 11:05:31  5-MIN KSTC 191705Z 35011KT 10SM CLR 22/09 A2998 970 43 2000 350/11 RMK AO2
14926KSTC STC20060619111010906/19/06 11:10:31  5-MIN KSTC 191710Z 34007KT 320V020 10SM CLR 22/09 A2999 970 42 2100 340/07 320V020 RMK AO2
14926KSTC STC20060619111509306/19/06 11:15:31  5-MIN KSTC 191715Z 36009KT 10SM CLR 22/09 A2999 960 43 2100 350/09 RMK AO2
14926KSTC STC20060619112009306/19/06 11:20:31  5-MIN KSTC 191720Z 02008KT 10SM CLR 22/09 A2999 960 43 2000 010/08 RMK AO2
14926KSTC STC20060619112509906/19/06 11:25:31  5-MIN KSTC 191725Z 34010G15KT 10SM CLR 22/09 A2999 960 43 2100 340/10G15 RMK AO2
14926KSTC STC20060619113009906/19/06 11:30:31  5-MIN KSTC 191730Z 34007G15KT 10SM CLR 22/09 A2999 960 43 2100 340/07G15 RMK AO2
14926KSTC STC20060619113509306/19/06 11:35:31  5-MIN KSTC 191735Z 02007KT 10SM CLR 22/09 A2999 960 42 2100 020/07 RMK AO2
14926KSTC STC20060619114009306/19/06 11:40:31  5-MIN KSTC 191740Z 31008KT 10SM CLR 22/09 A2999 960 42 2100 310/08 RMK AO2
14926KSTC STC20060619114509306/19/06 11:45:31  5-MIN KSTC 191745Z 35009KT 10SM CLR 22/09 A2999 960 43 2100 350/09 RMK AO2
14926KSTC STC20060619115012806/19/06 11:50:31  5-MIN KSTC 191750Z 34007KT 10SM CLR 23/09 A3000 960 40 2100 340/07 RMK AO2 SLP162 T02280089 10228 20167 51011
14926KSTC STC20060619115509306/19/06 11:55:31  5-MIN KSTC 191755Z 32011KT 10SM CLR 23/09 A3000 960 42 2100 320/11 RMK AO2
14926KSTC STC20060619120010906/19/06 12:00:31  5-MIN KSTC 191800Z 32007KT 280V350 10SM CLR 23/09 A3000 960 42 2100 310/07 280V350 RMK AO2
14926KSTC STC20060619120509306/19/06 12:05:31  5-MIN KSTC 191805Z 32008KT 10SM CLR 23/09 A3000 960 40 2100 320/08 RMK AO2
14926KSTC STC20060619121009906/19/06 12:10:31  5-MIN KSTC 191810Z VRB06G14KT 10SM CLR 23/09 A3000 950 40 2100 VRB/06G14 RMK AO2
14926KSTC STC20060619121511506/19/06 12:15:31  5-MIN KSTC 191815Z 32007G14KT 290V350 10SM CLR 23/09 A3000 960 42 2100 320/07G14 290V350 RMK AO2
14926KSTC STC20060619122010906/19/06 12:20:31  5-MIN KSTC 191820Z 36007KT 340V050 10SM CLR 23/08 A3000 950 39 2100 350/07 340V050 RMK AO2
14926KSTC STC20060619122509306/19/06 12:25:31  5-MIN KSTC 191825Z 32010KT 10SM CLR 23/08 A3000 950 39 2100 310/10 RMK AO2
14926KSTC STC20060619123009306/19/06 12:30:31  5-MIN KSTC 191830Z 31011KT 10SM CLR 23/07 A3000 950 35 2200 300/11 RMK AO2
14926KSTC STC20060619123509306/19/06 12:35:31  5-MIN KSTC 191835Z 31009KT 10SM CLR 23/07 A3000 950 36 2100 310/09 RMK AO2
14926KSTC STC20060619124009306/19/06 12:40:31  5-MIN KSTC 191840Z 32010KT 10SM CLR 23/09 A3000 950 40 2100 310/10 RMK AO2
14926KSTC STC20060619124509306/19/06 12:45:31  5-MIN KSTC 191845Z 33009KT 10SM CLR 23/09 A3000 950 40 2100 320/09 RMK AO2
14926KSTC STC20060619125011006/19/06 12:50:31  5-MIN KSTC 191850Z VRB06KT 10SM CLR 23/09 A3000 950 42 2100 VRB/06 RMK AO2 SLP164 T02280094
14926KSTC STC20060619125509306/19/06 12:55:31  5-MIN KSTC 191855Z 36006KT 10SM CLR 24/10 A3000 950 41 2200 350/06 RMK AO2
14926KSTC STC20060619130009306/19/06 13:00:31  5-MIN KSTC 191900Z 01007KT 10SM CLR 24/10 A3000 960 41 2200 360/07 RMK AO2
14926KSTC STC20060619130509306/19/06 13:05:31  5-MIN KSTC 191905Z 30012KT 10SM CLR 24/09 A2999 960 39 2200 300/12 RMK AO2
14926KSTC STC20060619131009906/19/06 13:10:31  5-MIN KSTC 191910Z 31011G14KT 10SM CLR 24/10 A3000 960 41 2200 310/11G14 RMK AO2
14926KSTC STC20060619131509606/19/06 13:15:31  5-MIN KSTC 191915Z 30008KT 10SM FEW050 23/09 A3000 950 41 2200 300/08 RMK AO2
14926KSTC STC20060619132009606/19/06 13:20:31  5-MIN KSTC 191920Z 30007KT 10SM FEW050 23/09 A3000 960 41 2200 300/07 RMK AO2
14926KSTC STC20060619132509306/19/06 13:25:31  5-MIN KSTC 191925Z 31007KT 10SM CLR 23/09 A3000 960 41 2200 310/07 RMK AO2
14926KSTC STC20060619133009306/19/06 13:30:31  5-MIN KSTC 191930Z 31012KT 10SM CLR 23/09 A3000 960 39 2200 300/12 RMK AO2
14926KSTC STC20060619133509306/19/06 13:35:31  5-MIN KSTC 191935Z 30007KT 10SM CLR 23/09 A3000 960 39 2200 300/07 RMK AO2
14926KSTC STC20060619134009306/19/06 13:40:31  5-MIN KSTC 191940Z 32010KT 10SM CLR 23/09 A2999 960 41 2200 320/10 RMK AO2
14926KSTC STC20060619134509306/19/06 13:45:31  5-MIN KSTC 191945Z 34008KT 10SM CLR 23/09 A2999 960 41 2200 330/08 RMK AO2
14926KSTC STC20060619135011006/19/06 13:50:31  5-MIN KSTC 191950Z 30010KT 10SM CLR 24/09 A2999 960 38 2300 300/10 RMK AO2 SLP160 T02390089
14926KSTC STC20060619135509306/19/06 13:55:31  5-MIN KSTC 191955Z 31008KT 10SM CLR 24/08 A2999 960 36 2200 300/08 RMK AO2
14926KSTC STC20060619140009306/19/06 14:00:31  5-MIN KSTC 192000Z 30011KT 10SM CLR 24/09 A2999 960 39 2200 300/11 RMK AO2
14926KSTC STC20060619140509306/19/06 14:05:31  5-MIN KSTC 192005Z 29009KT 10SM CLR 24/09 A2999 960 39 2200 290/09 RMK AO2
14926KSTC STC20060619141010906/19/06 14:10:31  5-MIN KSTC 192010Z 35007KT 280V360 10SM CLR 24/09 A2999 960 38 2200 340/07 280V360 RMK AO2
14926KSTC STC20060619141509306/19/06 14:15:31  5-MIN KSTC 192015Z 34007KT 10SM CLR 24/09 A2999 960 38 2300 340/07 RMK AO2
14926KSTC STC20060619142009306/19/06 14:20:31  5-MIN KSTC 192020Z 30011KT 10SM CLR 24/09 A2999 960 38 2300 300/11 RMK AO2
14926KSTC STC20060619142509306/19/06 14:25:31  5-MIN KSTC 192025Z 30012KT 10SM CLR 24/09 A2999 960 38 2300 300/12 RMK AO2
14926KSTC STC20060619143009306/19/06 14:30:31  5-MIN KSTC 192030Z 30011KT 10SM CLR 24/09 A2999 960 38 2300 300/11 RMK AO2
14926KSTC STC20060619143509306/19/06 14:35:31  5-MIN KSTC 192035Z 31007KT 10SM CLR 24/09 A2999 960 38 2300 310/07 RMK AO2
14926KSTC STC20060619144009306/19/06 14:40:31  5-MIN KSTC 192040Z 28010KT 10SM CLR 24/09 A2999 960 36 2300 280/10 RMK AO2
14926KSTC STC20060619144509306/19/06 14:45:31  5-MIN KSTC 192045Z 33007KT 10SM CLR 24/09 A2999 960 36 2300 330/07 RMK AO2
14926KSTC STC20060619145011606/19/06 14:50:31  5-MIN KSTC 192050Z 30011KT 10SM CLR 24/10 A2999 960 39 2300 300/11 RMK AO2 SLP160 T02440100 53007
14926KSTC STC20060619145509306/19/06 14:55:31  5-MIN KSTC 192055Z 31009KT 10SM CLR 24/09 A2999 960 36 2300 310/09 RMK AO2
14926KSTC STC20060619150009306/19/06 15:00:31  5-MIN KSTC 192100Z 30007KT 10SM CLR 24/09 A2999 960 36 2300 300/07 RMK AO2
14926KSTC STC20060619150509306/19/06 15:05:31  5-MIN KSTC 192105Z 30007KT 10SM CLR 24/09 A2999 960 38 2200 290/07 RMK AO2
14926KSTC STC20060619151010906/19/06 15:10:31  5-MIN KSTC 192110Z 32009KT 280V360 10SM CLR 24/09 A2999 960 36 2300 320/09 280V360 RMK AO2
14926KSTC STC20060619151509306/19/06 15:15:31  5-MIN KSTC 192115Z 34007KT 10SM CLR 24/09 A2999 960 36 2300 340/07 RMK AO2
14926KSTC STC20060619152009306/19/06 15:20:31  5-MIN KSTC 192120Z 31008KT 10SM CLR 24/09 A2999 960 38 2300 310/08 RMK AO2
14926KSTC STC20060619152509906/19/06 15:25:31  5-MIN KSTC 192125Z 30011G14KT 10SM CLR 24/09 A2999 960 38 2300 300/11G14 RMK AO2
14926KSTC STC20060619153009906/19/06 15:30:31  5-MIN KSTC 192130Z 32010G15KT 10SM CLR 24/09 A2999 960 38 2300 320/10G15 RMK AO2
14926KSTC STC20060619153509906/19/06 15:35:31  5-MIN KSTC 192135Z VRB05G15KT 10SM CLR 24/09 A2999 960 36 2300 VRB/05G15 RMK AO2
14926KSTC STC20060619154009306/19/06 15:40:31  5-MIN KSTC 192140Z 33009KT 10SM CLR 24/09 A2999 960 36 2300 320/09 RMK AO2
14926KSTC STC20060619154509306/19/06 15:45:31  5-MIN KSTC 192145Z 33007KT 10SM CLR 24/09 A2999 970 36 2300 330/07 RMK AO2
14926KSTC STC20060619155011006/19/06 15:50:31  5-MIN KSTC 192150Z 34007KT 10SM CLR 24/09 A2999 970 38 2300 340/07 RMK AO2 SLP158 T02440094
14926KSTC STC20060619155509306/19/06 15:55:31  5-MIN KSTC 192155Z 29008KT 10SM CLR 24/09 A2999 970 38 2300 290/08 RMK AO2
14926KSTC STC20060619160009306/19/06 16:00:31  5-MIN KSTC 192200Z 34009KT 10SM CLR 24/09 A2998 970 38 2300 330/09 RMK AO2
14926KSTC STC20060619160509306/19/06 16:05:31  5-MIN KSTC 192205Z 35008KT 10SM CLR 24/09 A2998 970 36 2300 350/08 RMK AO2
14926KSTC STC20060619161009306/19/06 16:10:31  5-MIN KSTC 192210Z 34006KT 10SM CLR 24/09 A2998 970 36 2300 340/06 RMK AO2
14926KSTC STC20060619161509306/19/06 16:15:31  5-MIN KSTC 192215Z 33006KT 10SM CLR 24/09 A2998 970 36 2300 330/06 RMK AO2
14926KSTC STC20060619162009306/19/06 16:20:31  5-MIN KSTC 192220Z VRB05KT 10SM CLR 24/09 A2998 970 36 2300 VRB/05 RMK AO2
14926KSTC STC20060619162509306/19/06 16:25:31  5-MIN KSTC 192225Z 34007KT 10SM CLR 24/09 A2998 970 38 2300 330/07 RMK AO2
14926KSTC STC20060619163009306/19/06 16:30:31  5-MIN KSTC 192230Z 31006KT 10SM CLR 24/09 A2997 980 36 2300 310/06 RMK AO2
14926KSTC STC20060619163509306/19/06 16:35:31  5-MIN KSTC 192235Z VRB04KT 10SM CLR 24/09 A2997 980 38 2300 VRB/04 RMK AO2
14926KSTC STC20060619164009306/19/06 16:40:31  5-MIN KSTC 192240Z 33008KT 10SM CLR 24/09 A2998 970 36 2300 330/08 RMK AO2
14926KSTC STC20060619164509306/19/06 16:45:31  5-MIN KSTC 192245Z VRB06KT 10SM CLR 24/08 A2998 970 35 2300 VRB/06 RMK AO2
14926KSTC STC20060619165011006/19/06 16:50:31  5-MIN KSTC 192250Z VRB04KT 10SM CLR 25/09 A2998 970 35 2400 VRB/04 RMK AO2 SLP156 T02500089
14926KSTC STC20060619165509306/19/06 16:55:31  5-MIN KSTC 192255Z 32006KT 10SM CLR 24/09 A2998 970 36 2300 320/06 RMK AO2
14926KSTC STC20060619170009306/19/06 17:00:31  5-MIN KSTC 192300Z 29006KT 10SM CLR 24/08 A2998 980 36 2300 290/06 RMK AO2
14926KSTC STC20060619170509306/19/06 17:05:31  5-MIN KSTC 192305Z VRB05KT 10SM CLR 24/09 A2997 980 38 2300 VRB/05 RMK AO2
14926KSTC STC20060619171009306/19/06 17:10:31  5-MIN KSTC 192310Z 32008KT 10SM CLR 24/09 A2997 980 38 2300 310/08 RMK AO2
14926KSTC STC20060619171509306/19/06 17:15:31  5-MIN KSTC 192315Z 31008KT 10SM CLR 24/09 A2997 980 36 2300 310/08 RMK AO2
14926KSTC STC20060619172009306/19/06 17:20:31  5-MIN KSTC 192320Z 32006KT 10SM CLR 24/08 A2998 980 35 2300 310/06 RMK AO2
14926KSTC STC20060619172509306/19/06 17:25:31  5-MIN KSTC 192325Z 30005KT 10SM CLR 24/08 A2998 970 35 2300 290/05 RMK AO2
14926KSTC STC20060619173009306/19/06 17:30:31  5-MIN KSTC 192330Z 29008KT 10SM CLR 24/08 A2998 970 34 2300 290/08 RMK AO2
14926KSTC STC20060619173509306/19/06 17:35:31  5-MIN KSTC 192335Z 31007KT 10SM CLR 24/08 A2998 970 35 2300 300/07 RMK AO2
14926KSTC STC20060619174009306/19/06 17:40:31  5-MIN KSTC 192340Z 34005KT 10SM CLR 24/09 A2998 970 36 2300 330/05 RMK AO2
14926KSTC STC20060619174509306/19/06 17:45:31  5-MIN KSTC 192345Z 32006KT 10SM CLR 24/09 A2998 980 38 2300 310/06 RMK AO2
14926KSTC STC20060619175012806/19/06 17:50:31  5-MIN KSTC 192350Z 30006KT 10SM CLR 24/08 A2997 980 36 2300 300/06 RMK AO2 SLP154 T02390083 10250 20228 58001
14926KSTC STC20060619175509306/19/06 17:55:31  5-MIN KSTC 192355Z 32006KT 10SM CLR 23/08 A2997 980 36 2200 320/06 RMK AO2
14926KSTC STC20060619180009306/19/06 18:00:31  5-MIN KSTC 200000Z 32005KT 10SM CLR 23/08 A2997 980 36 2200 320/05 RMK AO2
14926KSTC STC20060619181509306/19/06 18:15:31  5-MIN KSTC 200015Z 33005KT 10SM CLR 24/08 A2997 980 36 2300 320/05 RMK AO2
14926KSTC STC20060619182009306/19/06 18:20:31  5-MIN KSTC 200020Z 33006KT 10SM CLR 24/08 A2997 980 36 2300 320/06 RMK AO2
14926KSTC STC20060619182509306/19/06 18:25:31  5-MIN KSTC 200025Z 33004KT 10SM CLR 24/08 A2997 980 36 2300 320/04 RMK AO2
14926KSTC STC20060619183009306/19/06 18:30:31  5-MIN KSTC 200030Z 33005KT 10SM CLR 23/08 A2997 980 39 2100 330/05 RMK AO2
14926KSTC STC20060619183509306/19/06 18:35:31  5-MIN KSTC 200035Z 31006KT 10SM CLR 23/08 A2998 980 38 2200 310/06 RMK AO2
14926KSTC STC20060619184009306/19/06 18:40:31  5-MIN KSTC 200040Z 32005KT 10SM CLR 23/09 A2998 980 41 2200 310/05 RMK AO2
14926KSTC STC20060619184509306/19/06 18:45:31  5-MIN KSTC 200045Z 31005KT 10SM CLR 23/09 A2997 980 39 2200 310/05 RMK AO2
14926KSTC STC20060619185011006/19/06 18:50:31  5-MIN KSTC 200050Z 30006KT 10SM CLR 23/08 A2998 970 38 2200 300/06 RMK AO2 SLP156 T02330083
14926KSTC STC20060619185509306/19/06 18:55:31  5-MIN KSTC 200055Z 31006KT 10SM CLR 23/08 A2998 970 39 2100 300/06 RMK AO2
14926KSTC STC20060619190009306/19/06 19:00:31  5-MIN KSTC 200100Z 31005KT 10SM CLR 23/08 A2998 970 39 2100 310/05 RMK AO2
14926KSTC STC20060619190509306/19/06 19:05:31  5-MIN KSTC 200105Z 30005KT 10SM CLR 22/09 A2998 970 45 2000 300/05 RMK AO2
14926KSTC STC20060619191009306/19/06 19:10:31  5-MIN KSTC 200110Z 31005KT 10SM CLR 22/10 A2998 970 47 2000 300/05 RMK AO2
14926KSTC STC20060619191509306/19/06 19:15:31  5-MIN KSTC 200115Z 31005KT 10SM CLR 21/10 A2998 970 48 1900 310/05 RMK AO2
14926KSTC STC20060619192009306/19/06 19:20:31  5-MIN KSTC 200120Z 32004KT 10SM CLR 21/09 A2998 970 47 1900 320/04 RMK AO2
14926KSTC STC20060619192509306/19/06 19:25:31  5-MIN KSTC 200125Z 32003KT 10SM CLR 21/10 A2998 970 50 1900 320/03 RMK AO2
14926KSTC STC20060619193009306/19/06 19:30:31  5-MIN KSTC 200130Z 32004KT 10SM CLR 21/11 A2998 970 52 1900 310/04 RMK AO2
14926KSTC STC20060619193509306/19/06 19:35:31  5-MIN KSTC 200135Z 31004KT 10SM CLR 21/11 A2998 970 52 1900 300/04 RMK AO2
14926KSTC STC20060619194009306/19/06 19:40:31  5-MIN KSTC 200140Z 31004KT 10SM CLR 21/10 A2998 970 50 1900 310/04 RMK AO2
14926KSTC STC20060619194509306/19/06 19:45:31  5-MIN KSTC 200145Z 31003KT 10SM CLR 21/10 A2998 970 50 1900 300/03 RMK AO2
14926KSTC STC20060619195011006/19/06 19:50:31  5-MIN KSTC 200150Z 00000KT 10SM CLR 20/10 A2998 970 52 1800 000/00 RMK AO2 SLP158 T02000100
14926KSTC STC20060619195509306/19/06 19:55:31  5-MIN KSTC 200155Z 30003KT 10SM CLR 20/10 A2998 970 52 1800 300/03 RMK AO2
14926KSTC STC20060619200009306/19/06 20:00:31  5-MIN KSTC 200200Z 00000KT 10SM CLR 19/12 A2998 970 60 1700 000/00 RMK AO2
14926KSTC STC20060619200509306/19/06 20:05:31  5-MIN KSTC 200205Z 00000KT 10SM CLR 19/12 A2999 970 65 1700 000/00 RMK AO2
14926KSTC STC20060619201009306/19/06 20:10:31  5-MIN KSTC 200210Z 00000KT 10SM CLR 19/12 A2998 970 62 1700 000/00 RMK AO2
14926KSTC STC20060619201509306/19/06 20:15:31  5-MIN KSTC 200215Z 00000KT 10SM CLR 18/12 A2998 970 65 1600 000/00 RMK AO2
14926KSTC STC20060619202009306/19/06 20:20:31  5-MIN KSTC 200220Z 00000KT 10SM CLR 18/11 A2998 970 62 1600 000/00 RMK AO2
14926KSTC STC20060619202509306/19/06 20:25:31  5-MIN KSTC 200225Z 00000KT 10SM CLR 18/11 A2999 960 64 1600 000/00 RMK AO2
14926KSTC STC20060619203009306/19/06 20:30:31  5-MIN KSTC 200230Z 00000KT 10SM CLR 17/11 A2999 960 67 1500 000/00 RMK AO2
14926KSTC STC20060619203509306/19/06 20:35:31  5-MIN KSTC 200235Z 00000KT 10SM CLR 17/12 A2999 960 69 1500 000/00 RMK AO2
14926KSTC STC20060619204009306/19/06 20:40:31  5-MIN KSTC 200240Z 00000KT 10SM CLR 17/12 A2999 960 72 1400 000/00 RMK AO2
14926KSTC STC20060619204509306/19/06 20:45:31  5-MIN KSTC 200245Z 00000KT 10SM CLR 17/11 A2999 960 67 1400 000/00 RMK AO2
14926KSTC STC20060619205011606/19/06 20:50:31  5-MIN KSTC 200250Z 00000KT 10SM CLR 17/11 A3000 960 67 1400 000/00 RMK AO2 SLP165 T01670106 58007
14926KSTC STC20060619205509306/19/06 20:55:31  5-MIN KSTC 200255Z 00000KT 10SM CLR 17/11 A3000 960 67 1400 000/00 RMK AO2
14926KSTC STC20060619210009306/19/06 21:00:31  5-MIN KSTC 200300Z 00000KT 10SM CLR 16/11 A3000 950 69 1300 000/00 RMK AO2
14926KSTC STC20060619210509306/19/06 21:05:31  5-MIN KSTC 200305Z 00000KT 10SM CLR 17/11 A3000 950 67 1400 000/00 RMK AO2
14926KSTC STC20060619211009306/19/06 21:10:31  5-MIN KSTC 200310Z 00000KT 10SM CLR 17/12 A3000 950 72 1400 000/00 RMK AO2
14926KSTC STC20060619211509306/19/06 21:15:31  5-MIN KSTC 200315Z 00000KT 10SM CLR 16/12 A3000 960 77 1300 000/00 RMK AO2
14926KSTC STC20060619212009306/19/06 21:20:31  5-MIN KSTC 200320Z 00000KT 10SM CLR 16/12 A3000 950 77 1300 000/00 RMK AO2
14926KSTC STC20060619212509306/19/06 21:25:31  5-MIN KSTC 200325Z 00000KT 10SM CLR 16/11 A3000 950 74 1300 000/00 RMK AO2
14926KSTC STC20060619213009306/19/06 21:30:31  5-MIN KSTC 200330Z 00000KT 10SM CLR 16/11 A3000 960 72 1300 000/00 RMK AO2
14926KSTC STC20060619213509306/19/06 21:35:31  5-MIN KSTC 200335Z 00000KT 10SM CLR 15/11 A3000 960 77 1200 000/00 RMK AO2
14926KSTC STC20060619214009306/19/06 21:40:31  5-MIN KSTC 200340Z 07004KT 10SM CLR 15/11 A2999 960 77 1200 070/04 RMK AO2
14926KSTC STC20060619214509806/19/06 21:45:31  5-MIN KSTC 200345Z AUTO 00000KT 10SM CLR 15/12 A3000 960 80 1200 000/00 RMK AO2
14926KSTC STC20060619215011506/19/06 21:50:31  5-MIN KSTC 200350Z AUTO 00000KT 10SM CLR 14/12 A3000 960 83 1200 000/00 RMK AO2 SLP165 T01440117
14926KSTC STC20060619215509806/19/06 21:55:31  5-MIN KSTC 200355Z AUTO 00000KT 10SM CLR 15/12 A2999 960 80 1200 000/00 RMK AO2
14926KSTC STC20060619220009806/19/06 22:00:31  5-MIN KSTC 200400Z AUTO 00000KT 10SM CLR 15/12 A2999 960 80 1200 000/00 RMK AO2
14926KSTC STC20060619220509806/19/06 22:05:31  5-MIN KSTC 200405Z AUTO 00000KT 10SM CLR 16/12 A2999 960 77 1300 000/00 RMK AO2
14926KSTC STC20060619221009806/19/06 22:10:31  5-MIN KSTC 200410Z AUTO 00000KT 10SM CLR 16/12 A2999 960 77 1300 000/00 RMK AO2
14926KSTC STC20060619221509806/19/06 22:15:31  5-MIN KSTC 200415Z AUTO 00000KT 10SM CLR 15/12 A2999 960 80 1200 000/00 RMK AO2
14926KSTC STC20060619222009806/19/06 22:20:31  5-MIN KSTC 200420Z AUTO 00000KT 10SM CLR 14/12 A2999 970 83 1200 000/00 RMK AO2
14926KSTC STC20060619222509806/19/06 22:25:31  5-MIN KSTC 200425Z AUTO 00000KT 10SM CLR 14/12 A2999 960 83 1200 000/00 RMK AO2
14926KSTC STC20060619223009806/19/06 22:30:31  5-MIN KSTC 200430Z AUTO 00000KT 10SM CLR 14/12 A2999 960 83 1200 000/00 RMK AO2
14926KSTC STC20060619223509806/19/06 22:35:31  5-MIN KSTC 200435Z AUTO 00000KT 10SM CLR 14/12 A2999 960 86 1100 000/00 RMK AO2
14926KSTC STC20060619224009806/19/06 22:40:31  5-MIN KSTC 200440Z AUTO 00000KT 10SM CLR 14/12 A2999 960 86 1100 000/00 RMK AO2
14926KSTC STC20060619224509806/19/06 22:45:31  5-MIN KSTC 200445Z AUTO 00000KT 10SM CLR 14/12 A2999 960 86 1100 000/00 RMK AO2
14926KSTC STC20060619225011506/19/06 22:50:31  5-MIN KSTC 200450Z AUTO 00000KT 10SM CLR 14/12 A2999 960 86 1100 000/00 RMK AO2 SLP164 T01390117
14926KSTC STC20060619225509806/19/06 22:55:31  5-MIN KSTC 200455Z AUTO 00000KT 10SM CLR 14/12 A2999 960 86 1100 000/00 RMK AO2
14926KSTC STC20060619230009806/19/06 23:00:31  5-MIN KSTC 200500Z AUTO 00000KT 10SM CLR 14/12 A2999 960 86 1100 000/00 RMK AO2
14926KSTC STC20060619230509806/19/06 23:05:31  5-MIN KSTC 200505Z AUTO 00000KT 10SM CLR 13/11 A2999 960 86 1000 000/00 RMK AO2
14926KSTC STC20060619231009806/19/06 23:10:31  5-MIN KSTC 200510Z AUTO 00000KT 10SM CLR 13/11 A3000 960 86 1000 000/00 RMK AO2
14926KSTC STC20060619231509806/19/06 23:15:31  5-MIN KSTC 200515Z AUTO 00000KT 10SM CLR 13/11 A3000 960 89 1000 000/00 RMK AO2
14926KSTC STC20060619232009806/19/06 23:20:31  5-MIN KSTC 200520Z AUTO 00000KT 10SM CLR 13/11 A3000 950 86 1000 000/00 RMK AO2
14926KSTC STC20060619232509806/19/06 23:25:31  5-MIN KSTC 200525Z AUTO 00000KT 10SM CLR 13/11 A3000 950 86 1000 000/00 RMK AO2
14926KSTC STC20060619233009806/19/06 23:30:31  5-MIN KSTC 200530Z AUTO 00000KT 10SM CLR 13/11 A3000 950 89 1000 000/00 RMK AO2
14926KSTC STC20060619233509806/19/06 23:35:31  5-MIN KSTC 200535Z AUTO 00000KT 10SM CLR 13/11 A3000 950 89 1000 000/00 RMK AO2
14926KSTC STC20060619234009806/19/06 23:40:31  5-MIN KSTC 200540Z AUTO 00000KT 10SM CLR 13/11 A3000 950 89 1000 000/00 RMK AO2
14926KSTC STC20060619234509706/19/06 23:45:31  5-MIN KSTC 200545Z AUTO 00000KT 10SM CLR 13/11 A3000 950 89 900 000/00 RMK AO2
14926KSTC STC20060619235014206/19/06 23:50:31  5-MIN KSTC 200550Z AUTO 00000KT 10SM CLR 13/11 A3000 950 89 900 000/00 RMK AO2 SLP167 T01280111 10239 20128 402500128 53008
14926KSTC STC20060619235509706/19/06 23:55:31  5-MIN KSTC 200555Z AUTO 00000KT 10SM CLR 12/11 A3000 950 93 900 000/00 RMK AO2
14926KSTC STC20060620000009706/20/06 00:00:32  5-MIN KSTC 200600Z AUTO 00000KT 10SM CLR 12/11 A3001 950 93 900 000/00 RMK AO2
14926KSTC STC20060620000509706/20/06 00:05:31  5-MIN KSTC 200605Z AUTO 00000KT 10SM CLR 12/11 A3000 950 93 900 000/00 RMK AO2
14926KSTC STC20060620001009706/20/06 00:10:31  5-MIN KSTC 200610Z AUTO 00000KT 10SM CLR 12/11 A3001 950 89 900 000/00 RMK AO2
14926KSTC STC20060620001509706/20/06 00:15:31  5-MIN KSTC 200615Z AUTO 00000KT 10SM CLR 12/11 A3001 950 89 900 000/00 RMK AO2
14926KSTC STC20060620002009706/20/06 00:20:31  5-MIN KSTC 200620Z AUTO 00000KT 10SM CLR 12/11 A3001 950 89 900 000/00 RMK AO2
14926KSTC STC20060620002509706/20/06 00:25:31  5-MIN KSTC 200625Z AUTO 00000KT 10SM CLR 12/11 A3001 940 93 800 000/00 RMK AO2
14926KSTC STC20060620003009706/20/06 00:30:31  5-MIN KSTC 200630Z AUTO 00000KT 10SM CLR 12/11 A3001 940 93 900 000/00 RMK AO2
14926KSTC STC20060620003509706/20/06 00:35:31  5-MIN KSTC 200635Z AUTO 00000KT 10SM CLR 12/11 A3001 940 93 900 000/00 RMK AO2
14926KSTC STC20060620004009706/20/06 00:40:31  5-MIN KSTC 200640Z AUTO 00000KT 10SM CLR 13/11 A3001 940 89 900 000/00 RMK AO2
14926KSTC STC20060620004509706/20/06 00:45:31  5-MIN KSTC 200645Z AUTO 00000KT 10SM CLR 13/11 A3001 940 89 900 000/00 RMK AO2
14926KSTC STC20060620005011406/20/06 00:50:31  5-MIN KSTC 200650Z AUTO 00000KT 10SM CLR 12/11 A3001 950 96 800 000/00 RMK AO2 SLP169 T01170111
14926KSTC STC20060620005509706/20/06 00:55:31  5-MIN KSTC 200655Z AUTO 00000KT 10SM CLR 12/11 A3001 950 96 800 000/00 RMK AO2
14926KSTC STC20060620010009706/20/06 01:00:31  5-MIN KSTC 200700Z AUTO 00000KT 10SM CLR 12/11 A3001 950 93 900 000/00 RMK AO2
14926KSTC STC20060620010509706/20/06 01:05:31  5-MIN KSTC 200705Z AUTO 00000KT 10SM CLR 12/11 A3001 940 93 900 000/00 RMK AO2
14926KSTC STC20060620011009706/20/06 01:10:31  5-MIN KSTC 200710Z AUTO 06003KT 10SM CLR 12/11 A3001 940 93 900 060/03 RMK AO2
14926KSTC STC20060620011509706/20/06 01:15:31  5-MIN KSTC 200715Z AUTO 06003KT 10SM CLR 12/11 A3001 940 93 900 060/03 RMK AO2
14926KSTC STC20060620012009706/20/06 01:20:31  5-MIN KSTC 200720Z AUTO 07003KT 10SM CLR 13/12 A3001 950 93 900 070/03 RMK AO2
14926KSTC STC20060620012509806/20/06 01:25:31  5-MIN KSTC 200725Z AUTO 08004KT 10SM CLR 13/12 A3000 950 93 1000 080/04 RMK AO2
14926KSTC STC20060620013009806/20/06 01:30:31  5-MIN KSTC 200730Z AUTO 00000KT 10SM CLR 13/12 A3000 950 89 1000 000/00 RMK AO2
14926KSTC STC20060620013509806/20/06 01:35:31  5-MIN KSTC 200735Z AUTO 00000KT 10SM CLR 13/12 A3000 960 89 1000 000/00 RMK AO2
14926KSTC STC20060620014009806/20/06 01:40:31  5-MIN KSTC 200740Z AUTO 00000KT 10SM CLR 13/12 A2999 960 93 1000 000/00 RMK AO2
14926KSTC STC20060620014509806/20/06 01:45:31  5-MIN KSTC 200745Z AUTO 00000KT 10SM CLR 13/12 A2999 960 93 1000 000/00 RMK AO2
14926KSTC STC20060620015011506/20/06 01:50:31  5-MIN KSTC 200750Z AUTO 00000KT 10SM CLR 13/12 A3000 960 93 1000 000/00 RMK AO2 SLP163 T01280117
14926KSTC STC20060620015509806/20/06 01:55:31  5-MIN KSTC 200755Z AUTO 09003KT 10SM CLR 13/12 A2999 960 93 1000 090/03 RMK AO2
14926KSTC STC20060620020009806/20/06 02:00:31  5-MIN KSTC 200800Z AUTO 07003KT 10SM CLR 13/12 A2999 960 93 1000 070/03 RMK AO2
14926KSTC STC20060620020509806/20/06 02:05:31  5-MIN KSTC 200805Z AUTO 09004KT 10SM CLR 13/12 A2999 960 93 1000 080/04 RMK AO2
14926KSTC STC20060620021009806/20/06 02:10:31  5-MIN KSTC 200810Z AUTO 00000KT 10SM CLR 13/12 A2999 970 89 1000 000/00 RMK AO2
14926KSTC STC20060620021509806/20/06 02:15:31  5-MIN KSTC 200815Z AUTO 00000KT 10SM CLR 13/12 A2999 960 89 1000 000/00 RMK AO2
14926KSTC STC20060620022009806/20/06 02:20:31  5-MIN KSTC 200820Z AUTO 00000KT 10SM CLR 13/12 A2999 960 93 1000 000/00 RMK AO2
14926KSTC STC20060620022509806/20/06 02:25:31  5-MIN KSTC 200825Z AUTO 00000KT 10SM CLR 13/12 A2999 970 89 1000 000/00 RMK AO2
14926KSTC STC20060620023009806/20/06 02:30:31  5-MIN KSTC 200830Z AUTO 07003KT 10SM CLR 13/12 A2999 970 93 1000 060/03 RMK AO2
14926KSTC STC20060620023509806/20/06 02:35:31  5-MIN KSTC 200835Z AUTO 00000KT 10SM CLR 13/12 A2999 960 89 1000 000/00 RMK AO2
14926KSTC STC20060620024009806/20/06 02:40:31  5-MIN KSTC 200840Z AUTO 00000KT 10SM CLR 13/12 A2999 960 89 1000 000/00 RMK AO2
14926KSTC STC20060620024509806/20/06 02:45:31  5-MIN KSTC 200845Z AUTO 00000KT 10SM CLR 14/12 A2999 960 86 1100 000/00 RMK AO2
14926KSTC STC20060620025012106/20/06 02:50:31  5-MIN KSTC 200850Z AUTO 00000KT 10SM CLR 14/12 A2998 970 90 1100 000/00 RMK AO2 SLP158 T01390122 53001
14926KSTC STC20060620025509806/20/06 02:55:31  5-MIN KSTC 200855Z AUTO 00000KT 10SM CLR 13/12 A2998 970 93 1000 000/00 RMK AO2
14926KSTC STC20060620030010506/20/06 03:00:31  5-MIN KSTC 200900Z AUTO 09003KT 10SM CLR 13/12 A2997 980 89 1100 090/03 RMK AO2 PRESFR
14926KSTC STC20060620030509806/20/06 03:05:31  5-MIN KSTC 200905Z AUTO 11004KT 10SM CLR 13/12 A2997 980 89 1100 110/04 RMK AO2
14926KSTC STC20060620031009806/20/06 03:10:31  5-MIN KSTC 200910Z AUTO 00000KT 10SM CLR 14/12 A2997 980 86 1100 000/00 RMK AO2
14926KSTC STC20060620031509806/20/06 03:15:31  5-MIN KSTC 200915Z AUTO 14003KT 10SM CLR 14/12 A2996 990 86 1100 140/03 RMK AO2
14926KSTC STC20060620032009806/20/06 03:20:31  5-MIN KSTC 200920Z AUTO 00000KT 10SM CLR 14/12 A2996 990 86 1100 000/00 RMK AO2
14926KSTC STC20060620032509806/20/06 03:25:31  5-MIN KSTC 200925Z AUTO 00000KT 10SM CLR 14/12 A2996 990 90 1100 000/00 RMK AO2
14926KSTC STC20060620033009906/20/06 03:30:31  5-MIN KSTC 200930Z AUTO 08003KT 10SM CLR 13/11 A2995 1000 89 1000 080/03 RMK AO2
14926KSTC STC20060620033510606/20/06 03:35:31  5-MIN KSTC 200935Z AUTO 08005KT 10SM CLR 13/11 A2993 1020 86 1100 070/05 RMK AO2 PRESFR
14926KSTC STC20060620034010606/20/06 03:40:31  5-MIN KSTC 200940Z AUTO 09007KT 10SM CLR 13/11 A2992 1020 86 1100 090/07 RMK AO2 PRESFR
14926KSTC STC20060620034509906/20/06 03:45:31  5-MIN KSTC 200945Z AUTO 10006KT 10SM CLR 14/11 A2992 1030 77 1200 090/06 RMK AO2
14926KSTC STC20060620035011606/20/06 03:50:31  5-MIN KSTC 200950Z AUTO 09006KT 10SM CLR 14/11 A2992 1030 77 1200 090/06 RMK AO2 SLP137 T01440106
14926KSTC STC20060620035509906/20/06 03:55:31  5-MIN KSTC 200955Z AUTO 11005KT 10SM CLR 14/11 A2992 1020 80 1200 110/05 RMK AO2
14926KSTC STC20060620040009906/20/06 04:00:31  5-MIN KSTC 201000Z AUTO 13003KT 10SM CLR 14/11 A2994 1010 80 1200 130/03 RMK AO2
14926KSTC STC20060620040509906/20/06 04:05:31  5-MIN KSTC 201005Z AUTO 11003KT 10SM CLR 13/11 A2994 1010 83 1100 110/03 RMK AO2
14926KSTC STC20060620041009906/20/06 04:10:31  5-MIN KSTC 201010Z AUTO 12003KT 10SM CLR 13/11 A2994 1010 83 1100 120/03 RMK AO2
14926KSTC STC20060620041509906/20/06 04:15:31  5-MIN KSTC 201015Z AUTO 14003KT 10SM CLR 13/11 A2995 1000 83 1100 140/03 RMK AO2
14926KSTC STC20060620042009906/20/06 04:20:31  5-MIN KSTC 201020Z AUTO 00000KT 10SM CLR 13/11 A2995 1000 83 1100 000/00 RMK AO2
14926KSTC STC20060620042509806/20/06 04:25:31  5-MIN KSTC 201025Z AUTO 00000KT 10SM CLR 13/11 A2996 990 83 1100 000/00 RMK AO2
14926KSTC STC20060620043009806/20/06 04:30:31  5-MIN KSTC 201030Z AUTO 00000KT 10SM CLR 13/11 A2996 990 83 1100 000/00 RMK AO2
14926KSTC STC20060620043509806/20/06 04:35:31  5-MIN KSTC 201035Z AUTO 00000KT 10SM CLR 13/11 A2996 990 83 1100 000/00 RMK AO2
14926KSTC STC20060620044009806/20/06 04:40:31  5-MIN KSTC 201040Z AUTO 00000KT 10SM CLR 13/11 A2996 990 86 1100 000/00 RMK AO2
14926KSTC STC20060620044509806/20/06 04:45:31  5-MIN KSTC 201045Z AUTO 00000KT 10SM CLR 13/11 A2996 990 86 1000 000/00 RMK AO2
14926KSTC STC20060620045011506/20/06 04:50:31  5-MIN KSTC 201050Z AUTO 00000KT 10SM CLR 13/11 A2996 990 86 1000 000/00 RMK AO2 SLP151 T01280106
14926KSTC STC20060620045509806/20/06 04:55:31  5-MIN KSTC 201055Z AUTO 00000KT 10SM CLR 13/11 A2996 990 86 1000 000/00 RMK AO2
14926KSTC STC20060620050009806/20/06 05:00:31  5-MIN KSTC 201100Z AUTO 00000KT 10SM CLR 13/11 A2996 990 86 1100 000/00 RMK AO2
14926KSTC STC20060620050509806/20/06 05:05:31  5-MIN KSTC 201105Z AUTO 00000KT 10SM CLR 13/11 A2996 990 86 1100 000/00 RMK AO2
14926KSTC STC20060620051009806/20/06 05:10:31  5-MIN KSTC 201110Z AUTO 00000KT 10SM CLR 13/11 A2997 980 86 1100 000/00 RMK AO2
14926KSTC STC20060620051509806/20/06 05:15:31  5-MIN KSTC 201115Z AUTO 00000KT 10SM CLR 14/11 A2997 980 83 1100 000/00 RMK AO2
14926KSTC STC20060620052009806/20/06 05:20:31  5-MIN KSTC 201120Z AUTO 00000KT 10SM CLR 14/11 A2997 980 83 1100 000/00 RMK AO2
14926KSTC STC20060620052509806/20/06 05:25:31  5-MIN KSTC 201125Z AUTO 00000KT 10SM CLR 14/12 A2997 980 83 1200 000/00 RMK AO2
14926KSTC STC20060620053009806/20/06 05:30:31  5-MIN KSTC 201130Z AUTO 00000KT 10SM CLR 14/12 A2998 970 86 1100 000/00 RMK AO2
14926KSTC STC20060620053509806/20/06 05:35:31  5-MIN KSTC 201135Z AUTO 00000KT 10SM CLR 14/12 A2998 970 86 1100 000/00 RMK AO2
14926KSTC STC20060620054009806/20/06 05:40:31  5-MIN KSTC 201140Z AUTO 00000KT 10SM CLR 14/12 A2998 970 86 1100 000/00 RMK AO2
14926KSTC STC20060620054509606/20/06 05:45:31  5-MIN KSTC 201145Z 00000KT 10SM FEW120 14/12 A2998 970 90 1100 000/00 RMK AO2
14926KSTC STC20060620055013106/20/06 05:50:31  5-MIN KSTC 201150Z 00000KT 10SM FEW120 14/12 A2998 970 86 1100 000/00 RMK AO2 SLP160 T01390117 10144 20117 58007
14926KSTC STC20060620055509606/20/06 05:55:31  5-MIN KSTC 201155Z 00000KT 10SM FEW120 14/12 A2998 970 90 1100 000/00 RMK AO2
14926KSTC STC20060620060009606/20/06 06:00:31  5-MIN KSTC 201200Z 00000KT 10SM FEW120 14/12 A2998 970 86 1100 000/00 RMK AO2
14926KSTC STC20060620060509606/20/06 06:05:31  5-MIN KSTC 201205Z 00000KT 10SM FEW120 14/12 A2999 960 90 1100 000/00 RMK AO2
14926KSTC STC20060620061010306/20/06 06:10:31  5-MIN KSTC 201210Z 00000KT 10SM SCT085 SCT120 14/12 A3000 960 86 1200 000/00 RMK AO2
14926KSTC STC20060620061511906/20/06 06:15:31  5-MIN KSTC 201215Z 27003KT 10SM -RA SCT070 14/12 A3001 950 86 1100 260/03 RMK AO2 RAB12 PRESRR P0000
14926KSTC STC20060620062012606/20/06 06:20:31  5-MIN KSTC 201220Z 31003KT 10SM -RA BKN065 BKN090 BKN110 14/12 A3001 940 86 1100 300/03 RMK AO2 RAB12 P0000
14926KSTC STC20060620062512606/20/06 06:25:31  5-MIN KSTC 201225Z 28003KT 10SM -RA BKN055 BKN110 14/12 A3002 930 86 1100 280/03 RMK AO2 RAB12 PRESRR P0000
14926KSTC STC20060620063012606/20/06 06:30:31  5-MIN KSTC 201230Z 26006KT 10SM -RA BKN050 BKN110 14/13 A3003 920 90 1100 260/06 RMK AO2 RAB12 PRESRR P0000
14926KSTC STC20060620063511906/20/06 06:35:31  5-MIN KSTC 201235Z 26005KT 10SM -RA BKN050 OVC110 14/13 A3004 920 90 1100 260/05 RMK AO2 RAB12 P0001
14926KSTC STC20060620064011906/20/06 06:40:31  5-MIN KSTC 201240Z 00000KT 10SM -RA BKN050 OVC100 14/13 A3003 930 90 1100 000/00 RMK AO2 RAB12 P0001
14926KSTC STC20060620064511806/20/06 06:45:31  5-MIN KSTC 201245Z 00000KT 10SM BKN060 BKN110 15/13 A3002 930 86 1200 000/00 RMK AO2 RAB12E45 P0001
14926KSTC STC20060620065013506/20/06 06:50:31  5-MIN KSTC 201250Z 00000KT 10SM BKN060 BKN110 15/13 A3002 940 86 1200 000/00 RMK AO2 RAB12E45 SLP170 P0001 T01500128
14926KSTC STC20060620065511306/20/06 06:55:31  5-MIN KSTC 201255Z 20003KT 10SM -RA BKN060 BKN100 15/12 A3001 940 83 1200 190/03 RMK AO2 P0000
14926KSTC STC20060620070011506/20/06 07:00:31  5-MIN KSTC 201300Z 19004KT 10SM SCT070 SCT100 15/12 A3001 950 83 1200 180/04 RMK AO2 RAE00 P0000
14926KSTC STC20060620070511506/20/06 07:05:31  5-MIN KSTC 201305Z 18005KT 10SM FEW080 SCT100 15/12 A3000 950 83 1200 180/05 RMK AO2 RAE00 P0000
14926KSTC STC20060620071010806/20/06 07:10:31  5-MIN KSTC 201310Z 19005KT 10SM FEW085 15/12 A3000 950 83 1200 180/05 RMK AO2 RAE00 P0000
14926KSTC STC20060620071510806/20/06 07:15:31  5-MIN KSTC 201315Z 17005KT 10SM FEW065 15/12 A3000 960 83 1200 170/05 RMK AO2 RAE00 P0000
14926KSTC STC20060620072010506/20/06 07:20:31  5-MIN KSTC 201320Z 17006KT 10SM CLR 15/12 A2999 960 83 1200 170/06 RMK AO2 RAE00 P0000
14926KSTC STC20060620072510806/20/06 07:25:31  5-MIN KSTC 201325Z 16005KT 10SM FEW110 15/12 A2998 970 83 1200 160/05 RMK AO2 RAE00 P0000
14926KSTC STC20060620073012206/20/06 07:30:31  5-MIN KSTC 201330Z 16005KT 10SM -RA SCT042 SCT110 15/12 A2998 970 83 1200 150/05 RMK AO2 RAE00B26 P0000
14926KSTC STC20060620073512906/20/06 07:35:31  5-MIN KSTC 201335Z 15005KT 10SM -RA SCT027 BKN110 15/13 A2997 980 86 1200 150/05 RMK AO2 RAE00B26 PRESFR P0000
14926KSTC STC20060620074012906/20/06 07:40:31  5-MIN KSTC 201340Z 13005KT 10SM -RA BKN027 BKN110 15/13 A2996 990 86 1300 130/05 RMK AO2 RAE00B26 PRESFR P0000
14926KSTC STC20060620074513006/20/06 07:45:31  5-MIN KSTC 201345Z 13006KT 10SM -RA BKN027 BKN110 15/13 A2995 1000 86 1300 120/06 RMK AO2 RAE00B26 PRESFR P0001
14926KSTC STC20060620075014706/20/06 07:50:31  5-MIN KSTC 201350Z 13007KT 10SM -RA BKN025 OVC110 15/12 A2994 1010 83 1300 130/07 RMK AO2 RAE00B26 PRESFR SLP144 P0001 T01500122
14926KSTC STC20060620075511406/20/06 07:55:31  5-MIN KSTC 201355Z 12008KT 10SM -RA BKN021 15/12 A2992 1020 83 1300 110/08 RMK AO2 PRESFR P0000
14926KSTC STC20060620080011406/20/06 08:00:31  5-MIN KSTC 201400Z 11008KT 10SM -RA BKN021 15/12 A2991 1040 83 1300 100/08 RMK AO2 PRESFR P0000
14926KSTC STC20060620080511406/20/06 08:05:31  5-MIN KSTC 201405Z 10009KT 10SM -RA SCT021 15/12 A2989 1050 83 1300 100/09 RMK AO2 PRESFR P0000
14926KSTC STC20060620081011606/20/06 08:10:31  5-MIN KSTC 201410Z 11008KT 10SM SCT027 15/12 A2988 1060 83 1300 100/08 RMK AO2 RAE06 PRESFR P0000
14926KSTC STC20060620081511606/20/06 08:15:31  5-MIN KSTC 201415Z 10008KT 10SM FEW029 15/12 A2988 1070 83 1400 100/08 RMK AO2 RAE06 PRESFR P0000
14926KSTC STC20060620082010906/20/06 08:20:31  5-MIN KSTC 201420Z 10007KT 10SM FEW033 15/12 A2987 1070 83 1400 100/07 RMK AO2 RAE06 P0000
14926KSTC STC20060620082510406/20/06 08:25:31  5-MIN KSTC 201425Z 11008KT 10SM -RA CLR 15/12 A2987 1070 83 1400 110/08 RMK AO2 P0000
14926KSTC STC20060620083010406/20/06 08:30:31  5-MIN KSTC 201430Z 12007KT 10SM -RA CLR 16/12 A2987 1070 80 1400 120/07 RMK AO2 P0000
14926KSTC STC20060620083510406/20/06 08:35:31  5-MIN KSTC 201435Z 11006KT 10SM -RA CLR 16/12 A2987 1070 80 1400 110/06 RMK AO2 P0000
14926KSTC STC20060620084010406/20/06 08:40:31  5-MIN KSTC 201440Z 13005KT 10SM -RA CLR 16/12 A2988 1060 80 1400 130/05 RMK AO2 P0000
14926KSTC STC20060620084510906/20/06 08:45:31  5-MIN KSTC 201445Z 13006KT 10SM FEW090 16/12 A2989 1050 77 1400 130/06 RMK AO2 RAE41 P0000
14926KSTC STC20060620085014506/20/06 08:50:31  5-MIN KSTC 201450Z 11005KT 10SM FEW070 16/12 A2990 1050 77 1400 110/05 RMK AO2 RAE41 PRESRR SLP132 P0000 60002 T01560117 53000
14926KSTC STC20060620085509706/20/06 08:55:31  5-MIN KSTC 201455Z 10004KT 10SM SCT070 16/12 A2990 1050 77 1400 100/04 RMK AO2
14926KSTC STC20060620090009706/20/06 09:00:31  5-MIN KSTC 201500Z 11005KT 10SM SCT070 16/12 A2990 1040 77 1400 110/05 RMK AO2
14926KSTC STC20060620090509706/20/06 09:05:31  5-MIN KSTC 201505Z 12005KT 10SM SCT070 16/12 A2991 1040 77 1400 120/05 RMK AO2
14926KSTC STC20060620091009706/20/06 09:10:31  5-MIN KSTC 201510Z 13004KT 10SM SCT070 16/12 A2991 1040 80 1400 130/04 RMK AO2
14926KSTC STC20060620091509706/20/06 09:15:31  5-MIN KSTC 201515Z 13005KT 10SM SCT065 16/12 A2991 1040 80 1400 130/05 RMK AO2
14926KSTC STC20060620092012006/20/06 09:20:31  5-MIN KSTC 201520Z 10005KT 10SM -RA SCT065 SCT090 16/12 A2991 1040 80 1400 100/05 RMK AO2 RAB16 P0000
14926KSTC STC20060620092512006/20/06 09:25:31  5-MIN KSTC 201525Z 10003KT 10SM -RA FEW055 SCT070 16/12 A2991 1040 80 1400 100/03 RMK AO2 RAB16 P0000
14926KSTC STC20060620093012006/20/06 09:30:31  5-MIN KSTC 201530Z 08005KT 10SM -RA FEW060 SCT070 16/12 A2990 1040 77 1500 080/05 RMK AO2 RAB16 P0000
14926KSTC STC20060620093511306/20/06 09:35:31  5-MIN KSTC 201535Z 08005KT 10SM -RA SCT065 16/13 A2990 1040 80 1500 070/05 RMK AO2 RAB16 P0000
14926KSTC STC20060620094011906/20/06 09:40:31  5-MIN KSTC 201540Z 07003KT 10SM FEW070 SCT110 16/13 A2991 1040 80 1500 070/03 RMK AO2 RAB16E40 P0000
14926KSTC STC20060620094511906/20/06 09:45:31  5-MIN KSTC 201545Z 11003KT 10SM FEW070 SCT110 16/13 A2991 1040 80 1400 110/03 RMK AO2 RAB16E40 P0000
14926KSTC STC20060620095013606/20/06 09:50:31  5-MIN KSTC 201550Z 12004KT 10SM FEW100 SCT110 16/13 A2991 1030 80 1400 110/04 RMK AO2 RAB16E40 SLP138 P0000 T01610128
14926KSTC STC20060620095510406/20/06 09:55:31  5-MIN KSTC 201555Z 11003KT 10SM BKN110 17/13 A2993 1020 77 1500 110/03 RMK AO2 PRESRR
14926KSTC STC20060620100009706/20/06 10:00:31  5-MIN KSTC 201600Z 11003KT 10SM BKN110 17/13 A2993 1020 77 1500 110/03 RMK AO2
14926KSTC STC20060620100509706/20/06 10:05:31  5-MIN KSTC 201605Z 12003KT 10SM BKN110 17/13 A2993 1020 77 1500 120/03 RMK AO2
14926KSTC STC20060620101009706/20/06 10:10:31  5-MIN KSTC 201610Z 15004KT 10SM OVC110 17/13 A2993 1010 77 1500 150/04 RMK AO2
14926KSTC STC20060620101509706/20/06 10:15:31  5-MIN KSTC 201615Z 00000KT 10SM OVC110 17/13 A2993 1010 77 1500 000/00 RMK AO2
14926KSTC STC20060620102009706/20/06 10:20:31  5-MIN KSTC 201620Z 14003KT 10SM OVC110 17/13 A2993 1010 75 1600 130/03 RMK AO2
14926KSTC STC20060620102509706/20/06 10:25:31  5-MIN KSTC 201625Z VRB03KT 10SM OVC110 17/12 A2993 1020 72 1600 VRB/03 RMK AO2
14926KSTC STC20060620103009706/20/06 10:30:31  5-MIN KSTC 201630Z 13003KT 10SM OVC110 17/13 A2994 1010 75 1500 130/03 RMK AO2
14926KSTC STC20060620103509706/20/06 10:35:31  5-MIN KSTC 201635Z 10003KT 10SM OVC110 17/12 A2993 1020 72 1600 090/03 RMK AO2
14926KSTC STC20060620104009706/20/06 10:40:31  5-MIN KSTC 201640Z 10003KT 10SM BKN110 17/12 A2993 1020 72 1600 100/03 RMK AO2
14926KSTC STC20060620104509706/20/06 10:45:31  5-MIN KSTC 201645Z 09003KT 10SM BKN110 18/13 A2993 1020 72 1600 080/03 RMK AO2
14926KSTC STC20060620105011406/20/06 10:50:31  5-MIN KSTC 201650Z 06003KT 10SM BKN110 18/13 A2992 1030 72 1600 060/03 RMK AO2 SLP140 T01780128
14926KSTC STC20060620105509706/20/06 10:55:31  5-MIN KSTC 201655Z 07005KT 10SM BKN110 18/13 A2992 1030 70 1700 070/05 RMK AO2
14926KSTC STC20060620110009706/20/06 11:00:31  5-MIN KSTC 201700Z 06006KT 10SM BKN110 18/13 A2992 1030 70 1700 060/06 RMK AO2
14926KSTC STC20060620110509706/20/06 11:05:31  5-MIN KSTC 201705Z 07004KT 10SM BKN110 18/13 A2992 1030 72 1700 070/04 RMK AO2
14926KSTC STC20060620111009706/20/06 11:10:31  5-MIN KSTC 201710Z 08005KT 10SM BKN110 19/13 A2992 1030 70 1800 080/05 RMK AO2
14926KSTC STC20060620111509706/20/06 11:15:31  5-MIN KSTC 201715Z VRB03KT 10SM SCT110 19/13 A2992 1030 70 1800 VRB/03 RMK AO2
14926KSTC STC20060620112009706/20/06 11:20:31  5-MIN KSTC 201720Z VRB03KT 10SM FEW110 19/13 A2992 1030 67 1800 VRB/03 RMK AO2
14926KSTC STC20060620112509706/20/06 11:25:31  5-MIN KSTC 201725Z VRB03KT 10SM FEW110 19/13 A2992 1030 67 1800 VRB/03 RMK AO2
14926KSTC STC20060620113009706/20/06 11:30:31  5-MIN KSTC 201730Z 14004KT 10SM FEW110 20/13 A2992 1030 65 1900 140/04 RMK AO2
14926KSTC STC20060620113509406/20/06 11:35:31  5-MIN KSTC 201735Z 14005KT 10SM CLR 20/13 A2992 1030 65 1900 130/05 RMK AO2
14926KSTC STC20060620114009406/20/06 11:40:31  5-MIN KSTC 201740Z 13006KT 10SM CLR 21/13 A2991 1030 60 2000 130/06 RMK AO2
14926KSTC STC20060620114509406/20/06 11:45:31  5-MIN KSTC 201745Z 14005KT 10SM CLR 21/13 A2991 1040 61 2000 130/05 RMK AO2
14926KSTC STC20060620115013506/20/06 11:50:31  5-MIN KSTC 201750Z VRB06KT 10SM CLR 21/13 A2990 1040 63 2000 VRB/06 RMK AO2 SLP133 60002 T02060133 10211 20139 58027
14926KSTC STC20060620115509406/20/06 11:55:31  5-MIN KSTC 201755Z 13006KT 10SM CLR 21/13 A2990 1040 61 2000 130/06 RMK AO2
14926KSTC STC20060620120009406/20/06 12:00:31  5-MIN KSTC 201800Z VRB05KT 10SM CLR 21/13 A2990 1040 61 2000 VRB/05 RMK AO2
14926KSTC STC20060620120509406/20/06 12:05:31  5-MIN KSTC 201805Z VRB05KT 10SM CLR 22/13 A2990 1050 58 2100 VRB/05 RMK AO2
14926KSTC STC20060620121009406/20/06 12:10:31  5-MIN KSTC 201810Z VRB05KT 10SM CLR 22/13 A2990 1050 56 2100 VRB/05 RMK AO2
14926KSTC STC20060620121509406/20/06 12:15:31  5-MIN KSTC 201815Z 15006KT 10SM CLR 22/13 A2989 1050 56 2100 140/06 RMK AO2
14926KSTC STC20060620122009406/20/06 12:20:31  5-MIN KSTC 201820Z 09007KT 10SM CLR 22/13 A2989 1050 54 2200 090/07 RMK AO2
14926KSTC STC20060620122509406/20/06 12:25:31  5-MIN KSTC 201825Z VRB05KT 10SM CLR 22/13 A2989 1050 54 2200 VRB/05 RMK AO2
14926KSTC STC20060620123009406/20/06 12:30:31  5-MIN KSTC 201830Z 14007KT 10SM CLR 22/12 A2989 1060 51 2200 140/07 RMK AO2
14926KSTC STC20060620123509406/20/06 12:35:31  5-MIN KSTC 201835Z 16007KT 10SM CLR 22/12 A2989 1060 52 2200 160/07 RMK AO2
14926KSTC STC20060620124009406/20/06 12:40:31  5-MIN KSTC 201840Z VRB06KT 10SM CLR 22/12 A2989 1060 52 2200 VRB/06 RMK AO2
14926KSTC STC20060620124509406/20/06 12:45:31  5-MIN KSTC 201845Z 11007KT 10SM CLR 23/12 A2988 1060 47 2300 110/07 RMK AO2
14926KSTC STC20060620125011106/20/06 12:50:31  5-MIN KSTC 201850Z 13006KT 10SM CLR 23/12 A2988 1060 47 2300 120/06 RMK AO2 SLP125 T02330117
14926KSTC STC20060620125509406/20/06 12:55:31  5-MIN KSTC 201855Z VRB05KT 10SM CLR 23/11 A2988 1070 45 2300 VRB/05 RMK AO2
14926KSTC STC20060620130009406/20/06 13:00:31  5-MIN KSTC 201900Z 14008KT 10SM CLR 24/11 A2987 1070 44 2400 140/08 RMK AO2
14926KSTC STC20060620130509406/20/06 13:05:31  5-MIN KSTC 201905Z 15009KT 10SM CLR 24/10 A2987 1070 39 2400 150/09 RMK AO2
14926KSTC STC20060620131009406/20/06 13:10:31  5-MIN KSTC 201910Z 16009KT 10SM CLR 24/11 A2987 1070 42 2400 160/09 RMK AO2
14926KSTC STC20060620131509406/20/06 13:15:31  5-MIN KSTC 201915Z 12008KT 10SM CLR 24/11 A2987 1080 44 2400 120/08 RMK AO2
14926KSTC STC20060620132011006/20/06 13:20:31  5-MIN KSTC 201920Z 13009KT 090V150 10SM CLR 24/11 A2986 1080 44 2400 130/09 090V150 RMK AO2
14926KSTC STC20060620132509406/20/06 13:25:31  5-MIN KSTC 201925Z 14009KT 10SM CLR 24/11 A2986 1080 42 2500 140/09 RMK AO2
14926KSTC STC20060620133009406/20/06 13:30:31  5-MIN KSTC 201930Z 11009KT 10SM CLR 24/12 A2986 1080 44 2500 100/09 RMK AO2
14926KSTC STC20060620133509406/20/06 13:35:31  5-MIN KSTC 201935Z 13007KT 10SM CLR 24/12 A2986 1090 44 2500 130/07 RMK AO2
14926KSTC STC20060620134011006/20/06 13:40:31  5-MIN KSTC 201940Z 11007KT 080V150 10SM CLR 24/12 A2986 1090 44 2500 110/07 080V150 RMK AO2
14926KSTC STC20060620134509406/20/06 13:45:31  5-MIN KSTC 201945Z 15009KT 10SM CLR 25/12 A2985 1090 44 2500 150/09 RMK AO2
14926KSTC STC20060620135011406/20/06 13:50:31  5-MIN KSTC 201950Z 14007KT 10SM FEW060 24/12 A2985 1090 46 2500 130/07 RMK AO2 SLP113 T02440122
14926KSTC STC20060620135509706/20/06 13:55:31  5-MIN KSTC 201955Z VRB05KT 10SM FEW065 24/12 A2984 1100 46 2500 VRB/05 RMK AO2
14926KSTC STC20060620140009706/20/06 14:00:31  5-MIN KSTC 202000Z 14011KT 10SM SCT060 25/12 A2984 1100 44 2500 140/11 RMK AO2
14926KSTC STC20060620140509706/20/06 14:05:31  5-MIN KSTC 202005Z 14010KT 10SM SCT060 24/12 A2984 1100 46 2500 130/10 RMK AO2
14926KSTC STC20060620141009706/20/06 14:10:31  5-MIN KSTC 202010Z 11007KT 10SM FEW060 24/12 A2984 1100 46 2500 110/07 RMK AO2
14926KSTC STC20060620141509706/20/06 14:15:31  5-MIN KSTC 202015Z 12007KT 10SM FEW060 25/12 A2984 1100 44 2500 120/07 RMK AO2
14926KSTC STC20060620142011306/20/06 14:20:31  5-MIN KSTC 202020Z 14008KT 110V180 10SM FEW060 25/13 A2984 1100 46 2500 140/08 110V180 RMK AO2
14926KSTC STC20060620142509706/20/06 14:25:31  5-MIN KSTC 202025Z 15009KT 10SM FEW060 25/13 A2984 1100 46 2500 150/09 RMK AO2
14926KSTC STC20060620143009706/20/06 14:30:31  5-MIN KSTC 202030Z 15009KT 10SM FEW060 25/12 A2984 1100 44 2600 150/09 RMK AO2
14926KSTC STC20060620143509706/20/06 14:35:31  5-MIN KSTC 202035Z 17008KT 10SM FEW060 25/13 A2983 1110 46 2600 160/08 RMK AO2
14926KSTC STC20060620144011306/20/06 14:40:31  5-MIN KSTC 202040Z 20007KT 160V220 10SM FEW060 26/13 A2983 1110 46 2600 200/07 160V220 RMK AO2
14926KSTC STC20060620144509706/20/06 14:45:31  5-MIN KSTC 202045Z 15011KT 10SM FEW060 26/13 A2983 1110 46 2600 150/11 RMK AO2
14926KSTC STC20060620145012006/20/06 14:50:31  5-MIN KSTC 202050Z 17007KT 10SM FEW065 25/13 A2983 1110 46 2600 160/07 RMK AO2 SLP107 T02500128 50002
14926KSTC STC20060620145509706/20/06 14:55:31  5-MIN KSTC 202055Z 22008KT 10SM SCT065 26/13 A2983 1110 44 2600 210/08 RMK AO2
14926KSTC STC20060620150009706/20/06 15:00:31  5-MIN KSTC 202100Z 16007KT 10SM SCT065 25/13 A2983 1110 46 2600 160/07 RMK AO2
14926KSTC STC20060620150509706/20/06 15:05:31  5-MIN KSTC 202105Z VRB06KT 10SM SCT065 25/13 A2983 1110 48 2600 VRB/06 RMK AO2
14926KSTC STC20060620151009706/20/06 15:10:31  5-MIN KSTC 202110Z 15010KT 10SM FEW065 26/13 A2983 1110 46 2600 150/10 RMK AO2
14926KSTC STC20060620151510306/20/06 15:15:31  5-MIN KSTC 202115Z 15011G15KT 10SM FEW065 25/13 A2983 1110 48 2600 140/11G15 RMK AO2
14926KSTC STC20060620152011006/20/06 15:20:31  5-MIN KSTC 202120Z 18010G15KT 10SM FEW044 SCT065 26/14 A2982 1110 48 2600 180/10G15 RMK AO2
14926KSTC STC20060620152510406/20/06 15:25:31  5-MIN KSTC 202125Z 17010KT 10SM FEW044 SCT070 25/13 A2982 1120 48 2600 170/10 RMK AO2
14926KSTC STC20060620153010406/20/06 15:30:31  5-MIN KSTC 202130Z 16009KT 10SM FEW044 SCT070 25/14 A2982 1120 49 2600 150/09 RMK AO2
14926KSTC STC20060620153509706/20/06 15:35:31  5-MIN KSTC 202135Z 15008KT 10SM FEW044 24/13 A2983 1110 49 2500 140/08 RMK AO2
14926KSTC STC20060620154010406/20/06 15:40:31  5-MIN KSTC 202140Z 16008KT 10SM FEW046 SCT070 24/14 A2982 1120 51 2500 160/08 RMK AO2
14926KSTC STC20060620154510406/20/06 15:45:31  5-MIN KSTC 202145Z 15009KT 10SM SCT046 SCT065 24/13 A2982 1120 51 2400 150/09 RMK AO2
14926KSTC STC20060620155012106/20/06 15:50:31  5-MIN KSTC 202150Z 19011KT 10SM SCT046 SCT065 24/14 A2982 1120 51 2500 190/11 RMK AO2 SLP104 T02440139
14926KSTC STC20060620155510406/20/06 15:55:31  5-MIN KSTC 202155Z 18009KT 10SM SCT046 BKN065 24/14 A2982 1120 51 2500 180/09 RMK AO2
14926KSTC STC20060620160009706/20/06 16:00:31  5-MIN KSTC 202200Z 17009KT 10SM BKN046 24/14 A2982 1120 51 2500 170/09 RMK AO2
14926KSTC STC20060620160510406/20/06 16:05:31  5-MIN KSTC 202205Z 15008KT 10SM BKN046 BKN065 25/14 A2982 1120 51 2600 150/08 RMK AO2
14926KSTC STC20060620161009706/20/06 16:10:31  5-MIN KSTC 202210Z 17009KT 10SM BKN044 26/14 A2982 1120 49 2600 170/09 RMK AO2
14926KSTC STC20060620161509706/20/06 16:15:31  5-MIN KSTC 202215Z 14011KT 10SM BKN044 25/14 A2982 1120 51 2600 130/11 RMK AO2
14926KSTC STC20060620162009706/20/06 16:20:31  5-MIN KSTC 202220Z 15010KT 10SM OVC044 24/14 A2982 1120 53 2400 140/10 RMK AO2
14926KSTC STC20060620162509706/20/06 16:25:31  5-MIN KSTC 202225Z 14007KT 10SM OVC042 24/14 A2982 1120 53 2400 140/07 RMK AO2
14926KSTC STC20060620163009706/20/06 16:30:31  5-MIN KSTC 202230Z 15007KT 10SM OVC042 24/14 A2982 1120 55 2400 150/07 RMK AO2
14926KSTC STC20060620163509706/20/06 16:35:31  5-MIN KSTC 202235Z 15007KT 10SM OVC042 24/14 A2982 1120 55 2400 150/07 RMK AO2
14926KSTC STC20060620164009706/20/06 16:40:31  5-MIN KSTC 202240Z 16007KT 10SM OVC042 24/14 A2982 1120 55 2400 150/07 RMK AO2
14926KSTC STC20060620164509706/20/06 16:45:31  5-MIN KSTC 202245Z 14008KT 10SM OVC040 24/14 A2981 1120 53 2500 140/08 RMK AO2
14926KSTC STC20060620165011406/20/06 16:50:31  5-MIN KSTC 202250Z 17008KT 10SM OVC040 24/14 A2981 1130 53 2500 170/08 RMK AO2 SLP101 T02440144
14926KSTC STC20060620165509706/20/06 16:55:31  5-MIN KSTC 202255Z 14009KT 10SM OVC040 25/14 A2981 1130 51 2600 140/09 RMK AO2
14926KSTC STC20060620170009706/20/06 17:00:31  5-MIN KSTC 202300Z 13007KT 10SM OVC042 24/14 A2981 1130 55 2500 130/07 RMK AO2
14926KSTC STC20060620170509706/20/06 17:05:31  5-MIN KSTC 202305Z 12005KT 10SM BKN042 23/14 A2981 1130 57 2400 110/05 RMK AO2
14926KSTC STC20060620171009706/20/06 17:10:31  5-MIN KSTC 202310Z 12005KT 10SM BKN042 23/14 A2981 1130 57 2400 120/05 RMK AO2
14926KSTC STC20060620171509706/20/06 17:15:31  5-MIN KSTC 202315Z 16006KT 10SM SCT042 23/14 A2981 1130 59 2300 160/06 RMK AO2
14926KSTC STC20060620172009706/20/06 17:20:31  5-MIN KSTC 202320Z 15007KT 10SM SCT042 23/14 A2981 1130 57 2400 150/07 RMK AO2
14926KSTC STC20060620172509706/20/06 17:25:31  5-MIN KSTC 202325Z 15008KT 10SM SCT042 24/14 A2981 1130 55 2500 150/08 RMK AO2
14926KSTC STC20060620173009706/20/06 17:30:31  5-MIN KSTC 202330Z 14010KT 10SM BKN040 24/14 A2981 1130 55 2500 140/10 RMK AO2
14926KSTC STC20060620173509706/20/06 17:35:31  5-MIN KSTC 202335Z 14009KT 10SM BKN042 23/14 A2981 1130 57 2400 130/09 RMK AO2
14926KSTC STC20060620174009706/20/06 17:40:31  5-MIN KSTC 202340Z 15007KT 10SM BKN042 23/14 A2981 1130 57 2400 140/07 RMK AO2
14926KSTC STC20060620174509706/20/06 17:45:31  5-MIN KSTC 202345Z 16008KT 10SM BKN042 23/15 A2981 1130 59 2400 150/08 RMK AO2
14926KSTC STC20060620175013206/20/06 17:50:31  5-MIN KSTC 202350Z 15007KT 10SM BKN042 23/15 A2981 1130 59 2400 150/07 RMK AO2 SLP101 T02330150 10261 20206 56024
14926KSTC STC20060620175509706/20/06 17:55:31  5-MIN KSTC 202355Z 16008KT 10SM BKN042 23/15 A2981 1130 59 2400 160/08 RMK AO2
14926KSTC STC20060620180009706/20/06 18:00:31  5-MIN KSTC 210000Z 17007KT 10SM SCT042 23/15 A2981 1130 59 2400 160/07 RMK AO2
14926KSTC STC20060620180509706/20/06 18:05:31  5-MIN KSTC 210005Z 16007KT 10SM FEW042 23/15 A2981 1130 59 2400 160/07 RMK AO2
14926KSTC STC20060620181009706/20/06 18:10:31  5-MIN KSTC 210010Z 17007KT 10SM FEW042 23/16 A2981 1130 61 2400 160/07 RMK AO2
14926KSTC STC20060620181509706/20/06 18:15:31  5-MIN KSTC 210015Z 16008KT 10SM FEW042 23/15 A2981 1130 59 2400 150/08 RMK AO2
14926KSTC STC20060620182009406/20/06 18:20:31  5-MIN KSTC 210020Z 16007KT 10SM CLR 23/16 A2981 1130 61 2400 160/07 RMK AO2
14926KSTC STC20060620182509406/20/06 18:25:31  5-MIN KSTC 210025Z 17008KT 10SM CLR 23/16 A2981 1130 61 2400 170/08 RMK AO2
14926KSTC STC20060620183009406/20/06 18:30:31  5-MIN KSTC 210030Z 17006KT 10SM CLR 23/16 A2980 1130 61 2400 160/06 RMK AO2
14926KSTC STC20060620183509406/20/06 18:35:31  5-MIN KSTC 210035Z 17006KT 10SM CLR 23/16 A2980 1130 61 2400 170/06 RMK AO2
14926KSTC STC20060620184009406/20/06 18:40:31  5-MIN KSTC 210040Z 17005KT 10SM CLR 23/16 A2980 1130 61 2400 160/05 RMK AO2
14926KSTC STC20060620184509406/20/06 18:45:31  5-MIN KSTC 210045Z 16008KT 10SM CLR 23/16 A2980 1140 61 2400 150/08 RMK AO2
14926KSTC STC20060620185011106/20/06 18:50:31  5-MIN KSTC 210050Z 15008KT 10SM CLR 23/16 A2980 1140 61 2400 140/08 RMK AO2 SLP097 T02330156
14926KSTC STC20060620185509406/20/06 18:55:31  5-MIN KSTC 210055Z 14008KT 10SM CLR 23/16 A2980 1140 63 2300 130/08 RMK AO2
14926KSTC STC20060620190009406/20/06 19:00:31  5-MIN KSTC 210100Z 15007KT 10SM CLR 23/16 A2980 1140 63 2300 150/07 RMK AO2
14926KSTC STC20060620190509406/20/06 19:05:31  5-MIN KSTC 210105Z 16006KT 10SM CLR 23/16 A2980 1140 63 2300 150/06 RMK AO2
14926KSTC STC20060620191009406/20/06 19:10:31  5-MIN KSTC 210110Z 15007KT 10SM CLR 23/16 A2980 1140 63 2300 150/07 RMK AO2
14926KSTC STC20060620191509406/20/06 19:15:31  5-MIN KSTC 210115Z 15006KT 10SM CLR 23/16 A2980 1140 63 2300 150/06 RMK AO2
14926KSTC STC20060620192009406/20/06 19:20:31  5-MIN KSTC 210120Z 15006KT 10SM CLR 22/16 A2980 1140 68 2300 150/06 RMK AO2
14926KSTC STC20060620192509406/20/06 19:25:31  5-MIN KSTC 210125Z 16007KT 10SM CLR 22/16 A2980 1130 65 2300 160/07 RMK AO2
14926KSTC STC20060620193009406/20/06 19:30:31  5-MIN KSTC 210130Z 17006KT 10SM CLR 22/16 A2980 1130 65 2300 170/06 RMK AO2
14926KSTC STC20060620193509406/20/06 19:35:31  5-MIN KSTC 210135Z 18007KT 10SM CLR 22/16 A2981 1130 65 2300 180/07 RMK AO2
14926KSTC STC20060620194009406/20/06 19:40:31  5-MIN KSTC 210140Z 17005KT 10SM CLR 22/16 A2981 1130 68 2200 170/05 RMK AO2
14926KSTC STC20060620194509406/20/06 19:45:31  5-MIN KSTC 210145Z 17005KT 10SM CLR 22/16 A2981 1130 68 2200 170/05 RMK AO2
14926KSTC STC20060620195011106/20/06 19:50:31  5-MIN KSTC 210150Z 18005KT 10SM CLR 22/16 A2980 1130 70 2200 170/05 RMK AO2 SLP098 T02170161
14926KSTC STC20060620195509406/20/06 19:55:31  5-MIN KSTC 210155Z 17005KT 10SM CLR 21/16 A2980 1140 73 2100 170/05 RMK AO2
14926KSTC STC20060620200009406/20/06 20:00:31  5-MIN KSTC 210200Z 15004KT 10SM CLR 21/16 A2980 1140 73 2200 150/04 RMK AO2
14926KSTC STC20060620200509406/20/06 20:05:31  5-MIN KSTC 210205Z 12004KT 10SM CLR 21/16 A2980 1140 75 2100 120/04 RMK AO2
14926KSTC STC20060620201009406/20/06 20:10:31  5-MIN KSTC 210210Z 13004KT 10SM CLR 21/16 A2980 1140 75 2100 130/04 RMK AO2
14926KSTC STC20060620201509406/20/06 20:15:31  5-MIN KSTC 210215Z 15003KT 10SM CLR 21/16 A2980 1140 75 2100 140/03 RMK AO2
14926KSTC STC20060620202009406/20/06 20:20:31  5-MIN KSTC 210220Z 12003KT 10SM CLR 21/16 A2980 1140 75 2100 120/03 RMK AO2
14926KSTC STC20060620202509406/20/06 20:25:31  5-MIN KSTC 210225Z 09003KT 10SM CLR 20/16 A2980 1140 78 2000 080/03 RMK AO2
14926KSTC STC20060620203009406/20/06 20:30:31  5-MIN KSTC 210230Z 08004KT 10SM CLR 20/16 A2980 1140 78 2000 080/04 RMK AO2
14926KSTC STC20060620203509406/20/06 20:35:31  5-MIN KSTC 210235Z 11003KT 10SM CLR 20/16 A2980 1140 78 2000 100/03 RMK AO2
14926KSTC STC20060620204009406/20/06 20:40:31  5-MIN KSTC 210240Z 00000KT 10SM CLR 20/16 A2980 1130 78 2000 000/00 RMK AO2
14926KSTC STC20060620204509406/20/06 20:45:31  5-MIN KSTC 210245Z 09003KT 10SM CLR 19/16 A2981 1130 81 2000 080/03 RMK AO2
14926KSTC STC20060620205011706/20/06 20:50:31  5-MIN KSTC 210250Z 08003KT 10SM CLR 19/16 A2981 1130 84 1900 080/03 RMK AO2 SLP101 T01890161 56007
14926KSTC STC20060620205509406/20/06 20:55:31  5-MIN KSTC 210255Z 10004KT 10SM CLR 18/16 A2981 1130 84 1800 100/04 RMK AO2
14926KSTC STC20060620210009406/20/06 21:00:31  5-MIN KSTC 210300Z 11004KT 10SM CLR 19/16 A2981 1130 81 1900 110/04 RMK AO2
14926KSTC STC20060620210509406/20/06 21:05:31  5-MIN KSTC 210305Z 13003KT 10SM CLR 20/16 A2981 1130 78 2000 130/03 RMK AO2
14926KSTC STC20060620211009406/20/06 21:10:31  5-MIN KSTC 210310Z 13003KT 10SM CLR 19/16 A2981 1130 81 1900 130/03 RMK AO2
14926KSTC STC20060620211509406/20/06 21:15:31  5-MIN KSTC 210315Z 13003KT 10SM CLR 18/16 A2981 1130 87 1800 120/03 RMK AO2
14926KSTC STC20060620212009406/20/06 21:20:31  5-MIN KSTC 210320Z 12003KT 10SM CLR 18/16 A2981 1120 87 1800 120/03 RMK AO2
14926KSTC STC20060620212509406/20/06 21:25:31  5-MIN KSTC 210325Z 00000KT 10SM CLR 18/16 A2982 1120 87 1800 000/00 RMK AO2
14926KSTC STC20060620213009406/20/06 21:30:31  5-MIN KSTC 210330Z 00000KT 10SM CLR 18/16 A2982 1120 87 1800 000/00 RMK AO2
14926KSTC STC20060620213509406/20/06 21:35:31  5-MIN KSTC 210335Z 00000KT 10SM CLR 19/16 A2982 1120 84 1900 000/00 RMK AO2
14926KSTC STC20060620214009406/20/06 21:40:31  5-MIN KSTC 210340Z 00000KT 10SM CLR 19/16 A2982 1120 84 1900 000/00 RMK AO2
14926KSTC STC20060620214509406/20/06 21:45:31  5-MIN KSTC 210345Z 00000KT 10SM CLR 19/16 A2982 1120 84 1900 000/00 RMK AO2
14926KSTC STC20060620215011106/20/06 21:50:31  5-MIN KSTC 210350Z 00000KT 10SM CLR 18/16 A2982 1120 87 1700 000/00 RMK AO2 SLP104 T01780156
14926KSTC STC20060620215509406/20/06 21:55:31  5-MIN KSTC 210355Z 15003KT 10SM CLR 18/16 A2982 1120 87 1700 150/03 RMK AO2
14926KSTC STC20060620220009906/20/06 22:00:31  5-MIN KSTC 210400Z AUTO 15004KT 10SM CLR 18/16 A2982 1120 87 1700 150/04 RMK AO2
14926KSTC STC20060620220509906/20/06 22:05:31  5-MIN KSTC 210405Z AUTO 15003KT 10SM CLR 17/16 A2982 1120 93 1700 150/03 RMK AO2
14926KSTC STC20060620221009906/20/06 22:10:31  5-MIN KSTC 210410Z AUTO 00000KT 10SM CLR 17/16 A2982 1120 93 1700 000/00 RMK AO2
14926KSTC STC20060620221509906/20/06 22:15:31  5-MIN KSTC 210415Z AUTO 00000KT 10SM CLR 17/16 A2982 1120 90 1700 000/00 RMK AO2
14926KSTC STC20060620222009906/20/06 22:20:31  5-MIN KSTC 210420Z AUTO 00000KT 10SM CLR 17/16 A2981 1120 90 1700 000/00 RMK AO2
14926KSTC STC20060620222509906/20/06 22:25:31  5-MIN KSTC 210425Z AUTO 00000KT 10SM CLR 17/16 A2981 1130 90 1700 000/00 RMK AO2
14926KSTC STC20060620223009906/20/06 22:30:31  5-MIN KSTC 210430Z AUTO 00000KT 10SM CLR 17/16 A2981 1130 90 1700 000/00 RMK AO2
14926KSTC STC20060620223509906/20/06 22:35:31  5-MIN KSTC 210435Z AUTO 00000KT 10SM CLR 17/16 A2981 1130 90 1700 000/00 RMK AO2
14926KSTC STC20060620224009906/20/06 22:40:31  5-MIN KSTC 210440Z AUTO 00000KT 10SM CLR 17/16 A2980 1140 93 1600 000/00 RMK AO2
14926KSTC STC20060620224509906/20/06 22:45:31  5-MIN KSTC 210445Z AUTO 00000KT 10SM CLR 17/16 A2980 1140 93 1600 000/00 RMK AO2
14926KSTC STC20060620225011606/20/06 22:50:31  5-MIN KSTC 210450Z AUTO 00000KT 10SM CLR 17/16 A2980 1140 90 1700 000/00 RMK AO2 SLP098 T01720156
14926KSTC STC20060620225509906/20/06 22:55:31  5-MIN KSTC 210455Z AUTO 00000KT 10SM CLR 17/16 A2980 1140 93 1600 000/00 RMK AO2
14926KSTC STC20060620230009906/20/06 23:00:31  5-MIN KSTC 210500Z AUTO 00000KT 10SM CLR 17/16 A2980 1140 93 1600 000/00 RMK AO2
14926KSTC STC20060620230509906/20/06 23:05:31  5-MIN KSTC 210505Z AUTO 00000KT 10SM CLR 17/16 A2980 1140 93 1600 000/00 RMK AO2
14926KSTC STC20060620231009906/20/06 23:10:31  5-MIN KSTC 210510Z AUTO 00000KT 10SM CLR 17/16 A2980 1140 93 1600 000/00 RMK AO2
14926KSTC STC20060620231509806/20/06 23:15:31  5-MIN KSTC 210515Z AUTO 00000KT 9SM CLR 16/15 A2980 1140 93 1600 000/00 RMK AO2
14926KSTC STC20060620232009806/20/06 23:20:31  5-MIN KSTC 210520Z AUTO 00000KT 9SM CLR 17/16 A2980 1140 93 1600 000/00 RMK AO2
14926KSTC STC20060620232509906/20/06 23:25:31  5-MIN KSTC 210525Z AUTO 00000KT 10SM CLR 17/16 A2980 1140 93 1600 000/00 RMK AO2
14926KSTC STC20060620233009806/20/06 23:30:31  5-MIN KSTC 210530Z AUTO 00000KT 9SM CLR 16/15 A2980 1130 93 1600 000/00 RMK AO2
14926KSTC STC20060620233509906/20/06 23:35:31  5-MIN KSTC 210535Z AUTO 00000KT 10SM CLR 17/16 A2980 1130 93 1600 000/00 RMK AO2
14926KSTC STC20060620234009906/20/06 23:40:31  5-MIN KSTC 210540Z AUTO 00000KT 10SM CLR 16/15 A2981 1130 93 1600 000/00 RMK AO2
14926KSTC STC20060620234509906/20/06 23:45:31  5-MIN KSTC 210545Z AUTO 00000KT 10SM CLR 16/15 A2981 1130 93 1600 000/00 RMK AO2
14926KSTC STC20060620235014406/20/06 23:50:31  5-MIN KSTC 210550Z AUTO 00000KT 10SM CLR 16/15 A2981 1130 93 1600 000/00 RMK AO2 SLP100 T01610150 10239 20161 402610117 55000
14926KSTC STC20060620235509906/20/06 23:55:31  5-MIN KSTC 210555Z AUTO 00000KT 10SM CLR 16/15 A2980 1130 93 1600 000/00 RMK AO2
14926KSTC STC20060621000009906/21/06 00:00:32  5-MIN KSTC 210600Z AUTO 00000KT 10SM CLR 16/14 A2981 1130 90 1600 000/00 RMK AO2
14926KSTC STC20060621000509806/21/06 00:05:31  5-MIN KSTC 210605Z AUTO 00000KT 9SM CLR 16/14 A2981 1130 90 1600 000/00 RMK AO2
14926KSTC STC20060621001009806/21/06 00:10:31  5-MIN KSTC 210610Z AUTO 00000KT 9SM CLR 16/15 A2981 1130 96 1500 000/00 RMK AO2
14926KSTC STC20060621001509906/21/06 00:15:31  5-MIN KSTC 210615Z AUTO 00000KT 10SM CLR 16/14 A2981 1130 93 1500 000/00 RMK AO2
14926KSTC STC20060621002009806/21/06 00:20:31  5-MIN KSTC 210620Z AUTO 00000KT 9SM CLR 16/14 A2980 1140 93 1500 000/00 RMK AO2
14926KSTC STC20060621002509806/21/06 00:25:31  5-MIN KSTC 210625Z AUTO 00000KT 7SM CLR 16/14 A2980 1140 93 1500 000/00 RMK AO2
14926KSTC STC20060621003010106/21/06 00:30:31  5-MIN KSTC 210630Z AUTO 00000KT 6SM BR CLR 16/14 A2980 1140 93 1500 000/00 RMK AO2
14926KSTC STC20060621003510106/21/06 00:35:31  5-MIN KSTC 210635Z AUTO 00000KT 5SM BR CLR 16/15 A2980 1140 96 1500 000/00 RMK AO2
14926KSTC STC20060621004010106/21/06 00:40:31  5-MIN KSTC 210640Z AUTO 00000KT 5SM BR CLR 16/14 A2980 1140 93 1500 000/00 RMK AO2
14926KSTC STC20060621004510106/21/06 00:45:31  5-MIN KSTC 210645Z AUTO 00000KT 5SM BR CLR 16/14 A2979 1150 93 1500 000/00 RMK AO2
14926KSTC STC20060621005011806/21/06 00:50:31  5-MIN KSTC 210650Z AUTO 00000KT 5SM BR CLR 16/14 A2979 1150 93 1500 000/00 RMK AO2 SLP091 T01560144
14926KSTC STC20060621005510106/21/06 00:55:31  5-MIN KSTC 210655Z AUTO 00000KT 5SM BR CLR 15/14 A2978 1150 96 1500 000/00 RMK AO2
14926KSTC STC20060621010010106/21/06 01:00:31  5-MIN KSTC 210700Z AUTO 00000KT 6SM BR CLR 15/14 A2978 1160 96 1500 000/00 RMK AO2
14926KSTC STC20060621010510106/21/06 01:05:31  5-MIN KSTC 210705Z AUTO 00000KT 6SM BR CLR 15/14 A2978 1160 96 1500 000/00 RMK AO2
14926KSTC STC20060621011010106/21/06 01:10:31  5-MIN KSTC 210710Z AUTO 00000KT 6SM BR CLR 15/14 A2978 1160 96 1500 000/00 RMK AO2
14926KSTC STC20060621011510106/21/06 01:15:31  5-MIN KSTC 210715Z AUTO 00000KT 6SM BR CLR 15/14 A2978 1160 96 1500 000/00 RMK AO2
14926KSTC STC20060621012010106/21/06 01:20:31  5-MIN KSTC 210720Z AUTO 00000KT 6SM BR CLR 15/14 A2978 1150 93 1500 000/00 RMK AO2
14926KSTC STC20060621012510106/21/06 01:25:31  5-MIN KSTC 210725Z AUTO 00000KT 5SM BR CLR 15/14 A2978 1150 96 1500 000/00 RMK AO2
14926KSTC STC20060621013010106/21/06 01:30:31  5-MIN KSTC 210730Z AUTO 00000KT 6SM BR CLR 15/14 A2979 1150 93 1500 000/00 RMK AO2
14926KSTC STC20060621013510106/21/06 01:35:31  5-MIN KSTC 210735Z AUTO 00000KT 6SM BR CLR 15/14 A2979 1150 96 1500 000/00 RMK AO2
14926KSTC STC20060621014010106/21/06 01:40:31  5-MIN KSTC 210740Z AUTO 00000KT 6SM BR CLR 15/14 A2979 1150 93 1500 000/00 RMK AO2
14926KSTC STC20060621014509806/21/06 01:45:31  5-MIN KSTC 210745Z AUTO 00000KT 7SM CLR 15/14 A2979 1150 93 1500 000/00 RMK AO2
14926KSTC STC20060621015011506/21/06 01:50:31  5-MIN KSTC 210750Z AUTO 00000KT 9SM CLR 15/14 A2979 1150 93 1500 000/00 RMK AO2 SLP092 T01500139
14926KSTC STC20060621015509806/21/06 01:55:31  5-MIN KSTC 210755Z AUTO 00000KT 9SM CLR 15/14 A2980 1140 93 1400 000/00 RMK AO2
14926KSTC STC20060621020009806/21/06 02:00:31  5-MIN KSTC 210800Z AUTO 00000KT 9SM CLR 15/14 A2980 1140 93 1400 000/00 RMK AO2
14926KSTC STC20060621020509806/21/06 02:05:31  5-MIN KSTC 210805Z AUTO 00000KT 9SM CLR 15/14 A2980 1140 93 1400 000/00 RMK AO2
14926KSTC STC20060621021009806/21/06 02:10:31  5-MIN KSTC 210810Z AUTO 00000KT 9SM CLR 15/14 A2980 1140 93 1400 000/00 RMK AO2
14926KSTC STC20060621021509806/21/06 02:15:31  5-MIN KSTC 210815Z AUTO 00000KT 9SM CLR 14/14 A2980 1140 96 1400 000/00 RMK AO2
14926KSTC STC20060621022009806/21/06 02:20:31  5-MIN KSTC 210820Z AUTO 00000KT 9SM CLR 14/14 A2980 1140 96 1400 000/00 RMK AO2
14926KSTC STC20060621022509806/21/06 02:25:31  5-MIN KSTC 210825Z AUTO 00000KT 8SM CLR 14/14 A2980 1140 96 1400 000/00 RMK AO2
14926KSTC STC20060621023009806/21/06 02:30:31  5-MIN KSTC 210830Z AUTO 16003KT 8SM CLR 15/14 A2980 1140 93 1400 160/03 RMK AO2
14926KSTC STC20060621023509806/21/06 02:35:31  5-MIN KSTC 210835Z AUTO 15003KT 7SM CLR 14/14 A2980 1140 96 1400 150/03 RMK AO2
14926KSTC STC20060621024010106/21/06 02:40:31  5-MIN KSTC 210840Z AUTO 15003KT 6SM BR CLR 14/13 A2979 1150 93 1400 140/03 RMK AO2
14926KSTC STC20060621024510106/21/06 02:45:31  5-MIN KSTC 210845Z AUTO 00000KT 6SM BR CLR 14/14 A2979 1150 96 1400 000/00 RMK AO2
14926KSTC STC20060621025012406/21/06 02:50:31  5-MIN KSTC 210850Z AUTO 00000KT 6SM BR CLR 14/13 A2979 1150 96 1300 000/00 RMK AO2 SLP092 T01390133 58002
14926KSTC STC20060621025510106/21/06 02:55:31  5-MIN KSTC 210855Z AUTO 00000KT 5SM BR CLR 14/13 A2979 1150 93 1400 000/00 RMK AO2
14926KSTC STC20060621030010106/21/06 03:00:31  5-MIN KSTC 210900Z AUTO 00000KT 4SM BR CLR 14/13 A2979 1150 96 1300 000/00 RMK AO2
14926KSTC STC20060621030510106/21/06 03:05:31  5-MIN KSTC 210905Z AUTO 00000KT 3SM BR CLR 14/14 A2979 1150 96 1400 000/00 RMK AO2
14926KSTC STC20060621031010506/21/06 03:10:31  5-MIN KSTC 210910Z AUTO 00000KT 2 1/2SM BR CLR 14/14 A2979 1150 96 1400 000/00 RMK AO2
14926KSTC STC20060621031510106/21/06 03:15:31  5-MIN KSTC 210915Z AUTO 00000KT 3SM BR CLR 14/13 A2978 1150 96 1300 000/00 RMK AO2
14926KSTC STC20060621032010106/21/06 03:20:31  5-MIN KSTC 210920Z AUTO 00000KT 4SM BR CLR 14/13 A2978 1150 96 1300 000/00 RMK AO2
14926KSTC STC20060621032510106/21/06 03:25:31  5-MIN KSTC 210925Z AUTO 00000KT 3SM BR CLR 14/13 A2978 1150 96 1300 000/00 RMK AO2
14926KSTC STC20060621033010506/21/06 03:30:31  5-MIN KSTC 210930Z AUTO 00000KT 2 1/2SM BR CLR 14/13 A2978 1150 96 1300 000/00 RMK AO2
14926KSTC STC20060621033510106/21/06 03:35:31  5-MIN KSTC 210935Z AUTO 00000KT 3SM BR CLR 14/13 A2978 1160 96 1300 000/00 RMK AO2
14926KSTC STC20060621034010106/21/06 03:40:31  5-MIN KSTC 210940Z AUTO 00000KT 4SM BR CLR 14/13 A2977 1160 93 1300 000/00 RMK AO2
14926KSTC STC20060621034510406/21/06 03:45:31  5-MIN KSTC 210945Z AUTO 00000KT 5SM BR FEW001 13/13 A2977 1160 96 1300 000/00 RMK AO2
14926KSTC STC20060621035010406/21/06 03:50:31  5-MIN KSTC 210950Z AUTO 00000KT 5SM BR FEW001 13/13 A2978 1160 96 1300 000/00 RMK AO2
14926KSTC STC20060621035510406/21/06 03:55:31  5-MIN KSTC 210955Z AUTO 14004KT 5SM BR FEW001 14/13 A2978 1160 93 1300 140/04 RMK AO2
14926KSTC STC20060621040010406/21/06 04:00:31  5-MIN KSTC 211000Z AUTO 15004KT 3SM BR FEW001 14/13 A2978 1160 96 1300 150/04 RMK AO2
14926KSTC STC20060621040510506/21/06 04:05:31  5-MIN KSTC 211005Z AUTO 15004KT 1/2SM FG VV001 14/13 A2978 1160 96 1300 150/04 RMK AO2
14926KSTC STC20060621041010606/21/06 04:10:31  5-MIN KSTC 211010Z AUTO 15004KT 1/4SM FG VV001 13/13 A2978 1160 100 1300 150/04 RMK AO2
14926KSTC STC20060621041510606/21/06 04:15:31  5-MIN KSTC 211015Z AUTO 15003KT 1/2SM FG VV001 13/13 A2978 1160 100 1300 150/03 RMK AO2
14926KSTC STC20060621042010506/21/06 04:20:31  5-MIN KSTC 211020Z AUTO 16003KT 1/2SM FG VV001 14/13 A2977 1160 96 1300 150/03 RMK AO2
14926KSTC STC20060621042510506/21/06 04:25:31  5-MIN KSTC 211025Z AUTO 17003KT 1/2SM FG VV001 14/13 A2977 1160 96 1300 160/03 RMK AO2
14926KSTC STC20060621043010606/21/06 04:30:31  5-MIN KSTC 211030Z AUTO 00000KT 1/2SM FG VV001 13/13 A2977 1160 100 1300 000/00 RMK AO2
14926KSTC STC20060621043510506/21/06 04:35:31  5-MIN KSTC 211035Z AUTO 00000KT 3/4SM BR VV001 14/13 A2977 1160 96 1300 000/00 RMK AO2
14926KSTC STC20060621044010806/21/06 04:40:31  5-MIN KSTC 211040Z AUTO 00000KT 1 1/4SM BR FEW001 14/14 A2977 1160 96 1400 000/00 RMK AO2
14926KSTC STC20060621044510606/21/06 04:45:31  5-MIN KSTC 211045Z AUTO 00000KT 1 3/4SM BR CLR 14/14 A2977 1170 100 1300 000/00 RMK AO2
14926KSTC STC20060621045012206/21/06 04:50:31  5-MIN KSTC 211050Z AUTO 00000KT 1 1/2SM BR CLR 14/14 A2977 1170 96 1400 000/00 RMK AO2 SLP084 T01440139
14926KSTC STC20060621045510506/21/06 04:55:31  5-MIN KSTC 211055Z AUTO 00000KT 1 1/2SM BR CLR 14/14 A2977 1170 96 1400 000/00 RMK AO2
14926KSTC STC20060621050010606/21/06 05:00:31  5-MIN KSTC 211100Z AUTO 00000KT 1 1/2SM BR CLR 14/14 A2977 1170 100 1400 000/00 RMK AO2
14926KSTC STC20060621050510506/21/06 05:05:31  5-MIN KSTC 211105Z AUTO 00000KT 1 3/4SM BR CLR 14/14 A2977 1170 96 1400 000/00 RMK AO2
14926KSTC STC20060621051010106/21/06 05:10:31  5-MIN KSTC 211110Z AUTO 00000KT 2SM BR CLR 15/14 A2976 1170 96 1500 000/00 RMK AO2
14926KSTC STC20060621051510106/21/06 05:15:31  5-MIN KSTC 211115Z AUTO 00000KT 2SM BR CLR 15/14 A2976 1170 96 1500 000/00 RMK AO2
14926KSTC STC20060621052010506/21/06 05:20:31  5-MIN KSTC 211120Z AUTO 00000KT 1 1/4SM BR CLR 14/14 A2976 1180 96 1400 000/00 RMK AO2
14926KSTC STC20060621052510306/21/06 05:25:31  5-MIN KSTC 211125Z AUTO 00000KT 3/4SM BR CLR 15/14 A2976 1180 93 1500 000/00 RMK AO2
14926KSTC STC20060621053010106/21/06 05:30:31  5-MIN KSTC 211130Z AUTO 00000KT 1SM BR CLR 15/14 A2976 1180 96 1500 000/00 RMK AO2
14926KSTC STC20060621053510506/21/06 05:35:31  5-MIN KSTC 211135Z AUTO 00000KT 1 3/4SM BR CLR 16/15 A2975 1180 96 1600 000/00 RMK AO2
14926KSTC STC20060621054010106/21/06 05:40:31  5-MIN KSTC 211140Z AUTO 00000KT 2SM BR CLR 16/15 A2976 1180 96 1600 000/00 RMK AO2
14926KSTC STC20060621054510006/21/06 05:45:31  5-MIN KSTC 211145Z 00000KT 2 1/2SM BR CLR 16/16 A2976 1180 96 1600 000/00 RMK AO2
14926KSTC STC20060621055009606/21/06 05:50:31  5-MIN KSTC 211150Z 00000KT 3SM BR CLR 17/16 A2976 1180 93 1700 000/00 RMK AO2
14926KSTC STC20060621055509606/21/06 05:55:31  5-MIN KSTC 211155Z 00000KT 4SM BR CLR 17/16 A2975 1180 93 1700 000/00 RMK AO2
14926KSTC STC20060621060009606/21/06 06:00:31  5-MIN KSTC 211200Z 00000KT 4SM BR CLR 17/16 A2975 1180 93 1800 000/00 RMK AO2
14926KSTC STC20060621060509606/21/06 06:05:31  5-MIN KSTC 211205Z 24004KT 4SM BR CLR 18/17 A2975 1180 90 1900 240/04 RMK AO2
14926KSTC STC20060621061009606/21/06 06:10:31  5-MIN KSTC 211210Z 23004KT 5SM BR CLR 19/17 A2975 1180 90 1900 230/04 RMK AO2
14926KSTC STC20060621061509606/21/06 06:15:31  5-MIN KSTC 211215Z 23005KT 6SM BR CLR 19/17 A2975 1180 90 1900 230/05 RMK AO2
14926KSTC STC20060621062009606/21/06 06:20:31  5-MIN KSTC 211220Z 24007KT 6SM BR CLR 19/17 A2975 1180 87 2000 240/07 RMK AO2
14926KSTC STC20060621062509306/21/06 06:25:31  5-MIN KSTC 211225Z 25005KT 7SM CLR 19/17 A2975 1190 87 2000 250/05 RMK AO2
14926KSTC STC20060621063009306/21/06 06:30:31  5-MIN KSTC 211230Z 23005KT 7SM CLR 19/18 A2975 1190 90 2000 230/05 RMK AO2
14926KSTC STC20060621063509306/21/06 06:35:31  5-MIN KSTC 211235Z 21005KT 7SM CLR 20/18 A2975 1190 87 2100 200/05 RMK AO2
14926KSTC STC20060621064009306/21/06 06:40:31  5-MIN KSTC 211240Z 19006KT 8SM CLR 20/18 A2975 1180 87 2100 190/06 RMK AO2
14926KSTC STC20060621064509306/21/06 06:45:31  5-MIN KSTC 211245Z 20005KT 7SM CLR 20/18 A2975 1180 87 2100 190/05 RMK AO2
14926KSTC STC20060621065011006/21/06 06:50:31  5-MIN KSTC 211250Z 21005KT 7SM CLR 20/18 A2975 1180 87 2100 210/05 RMK AO2 SLP079 T02000178
14926KSTC STC20060621065509306/21/06 06:55:31  5-MIN KSTC 211255Z 20004KT 8SM CLR 21/18 A2975 1180 87 2100 190/04 RMK AO2
14926KSTC STC20060621070009306/21/06 07:00:31  5-MIN KSTC 211300Z 21005KT 8SM CLR 21/18 A2975 1180 84 2200 210/05 RMK AO2
14926KSTC STC20060621070509306/21/06 07:05:31  5-MIN KSTC 211305Z 23006KT 9SM CLR 22/18 A2975 1180 81 2300 230/06 RMK AO2
14926KSTC STC20060621071009406/21/06 07:10:31  5-MIN KSTC 211310Z 25006KT 10SM CLR 22/18 A2975 1180 78 2300 250/06 RMK AO2
14926KSTC STC20060621071509406/21/06 07:15:31  5-MIN KSTC 211315Z 24008KT 10SM CLR 22/18 A2976 1180 78 2300 240/08 RMK AO2
14926KSTC STC20060621072009406/21/06 07:20:31  5-MIN KSTC 211320Z 25010KT 10SM CLR 23/18 A2976 1180 73 2500 240/10 RMK AO2
14926KSTC STC20060621072509406/21/06 07:25:31  5-MIN KSTC 211325Z 26012KT 10SM CLR 23/18 A2975 1180 73 2500 260/12 RMK AO2
14926KSTC STC20060621073009406/21/06 07:30:31  5-MIN KSTC 211330Z 27010KT 10SM CLR 24/18 A2975 1180 71 2500 270/10 RMK AO2
14926KSTC STC20060621073509406/21/06 07:35:31  5-MIN KSTC 211335Z 27011KT 10SM CLR 24/18 A2975 1180 68 2500 270/11 RMK AO2
14926KSTC STC20060621074009406/21/06 07:40:31  5-MIN KSTC 211340Z 27012KT 10SM CLR 24/18 A2976 1180 68 2500 260/12 RMK AO2
14926KSTC STC20060621074509406/21/06 07:45:31  5-MIN KSTC 211345Z 26010KT 10SM CLR 24/17 A2975 1180 66 2500 260/10 RMK AO2
14926KSTC STC20060621075011106/21/06 07:50:31  5-MIN KSTC 211350Z 27011KT 10SM CLR 24/18 A2976 1180 66 2600 270/11 RMK AO2 SLP079 T02440178
14926KSTC STC20060621075509406/21/06 07:55:31  5-MIN KSTC 211355Z 26013KT 10SM CLR 24/17 A2976 1170 63 2600 260/13 RMK AO2
14926KSTC STC20060621080009406/21/06 08:00:31  5-MIN KSTC 211400Z 26014KT 10SM CLR 24/17 A2976 1170 66 2500 260/14 RMK AO2
14926KSTC STC20060621080509406/21/06 08:05:31  5-MIN KSTC 211405Z 27014KT 10SM CLR 24/17 A2976 1170 61 2600 260/14 RMK AO2
14926KSTC STC20060621081009406/21/06 08:10:31  5-MIN KSTC 211410Z 27013KT 10SM CLR 24/17 A2977 1170 63 2500 270/13 RMK AO2
14926KSTC STC20060621081509406/21/06 08:15:31  5-MIN KSTC 211415Z 27013KT 10SM CLR 24/17 A2977 1170 63 2500 260/13 RMK AO2
14926KSTC STC20060621082009406/21/06 08:20:31  5-MIN KSTC 211420Z 26012KT 10SM CLR 24/17 A2977 1170 61 2600 260/12 RMK AO2
14926KSTC STC20060621082509406/21/06 08:25:31  5-MIN KSTC 211425Z 26011KT 10SM CLR 24/17 A2977 1160 61 2600 260/11 RMK AO2
14926KSTC STC20060621083009406/21/06 08:30:31  5-MIN KSTC 211430Z 27011KT 10SM CLR 24/17 A2978 1160 61 2600 270/11 RMK AO2
14926KSTC STC20060621083509406/21/06 08:35:31  5-MIN KSTC 211435Z 27012KT 10SM CLR 24/17 A2979 1150 63 2500 260/12 RMK AO2
14926KSTC STC20060621084009406/21/06 08:40:31  5-MIN KSTC 211440Z 28013KT 10SM CLR 24/17 A2978 1150 63 2500 270/13 RMK AO2
14926KSTC STC20060621084509406/21/06 08:45:31  5-MIN KSTC 211445Z 28014KT 10SM CLR 23/16 A2979 1150 63 2400 280/14 RMK AO2
14926KSTC STC20060621085011706/21/06 08:50:31  5-MIN KSTC 211450Z 28013KT 10SM CLR 23/16 A2979 1150 61 2400 280/13 RMK AO2 SLP091 T02330156 58007
14926KSTC STC20060621085510006/21/06 08:55:31  5-MIN KSTC 211455Z 29013G19KT 10SM CLR 23/16 A2979 1150 63 2400 290/13G19 RMK AO2
14926KSTC STC20060621090009406/21/06 09:00:31  5-MIN KSTC 211500Z 29015KT 10SM CLR 23/15 A2980 1140 61 2300 290/15 RMK AO2
14926KSTC STC20060621090509406/21/06 09:05:31  5-MIN KSTC 211505Z 31016KT 10SM CLR 23/14 A2979 1140 57 2300 310/16 RMK AO2
14926KSTC STC20060621091009406/21/06 09:10:31  5-MIN KSTC 211510Z 30014KT 10SM CLR 23/13 A2979 1140 55 2300 290/14 RMK AO2
14926KSTC STC20060621091509406/21/06 09:15:31  5-MIN KSTC 211515Z 30012KT 10SM CLR 22/13 A2980 1140 56 2300 300/12 RMK AO2
14926KSTC STC20060621092009406/21/06 09:20:31  5-MIN KSTC 211520Z 30010KT 10SM CLR 22/13 A2980 1140 54 2300 290/10 RMK AO2
14926KSTC STC20060621092509406/21/06 09:25:31  5-MIN KSTC 211525Z 29011KT 10SM CLR 22/13 A2980 1140 54 2300 290/11 RMK AO2
14926KSTC STC20060621093010006/21/06 09:30:31  5-MIN KSTC 211530Z 28014G17KT 10SM CLR 22/12 A2980 1140 52 2300 280/14G17 RMK AO2
14926KSTC STC20060621093510006/21/06 09:35:31  5-MIN KSTC 211535Z 29011G17KT 10SM CLR 22/11 A2980 1140 49 2300 290/11G17 RMK AO2
14926KSTC STC20060621094009406/21/06 09:40:31  5-MIN KSTC 211540Z 30012KT 10SM CLR 22/11 A2981 1130 50 2200 300/12 RMK AO2
14926KSTC STC20060621094510006/21/06 09:45:31  5-MIN KSTC 211545Z 30010G17KT 10SM CLR 22/11 A2980 1140 50 2200 300/10G17 RMK AO2
14926KSTC STC20060621095011106/21/06 09:50:31  5-MIN KSTC 211550Z 30007KT 10SM CLR 21/12 A2980 1140 54 2200 300/07 RMK AO2 SLP095 T02110117
14926KSTC STC20060621095509406/21/06 09:55:31  5-MIN KSTC 211555Z 29010KT 10SM CLR 21/12 A2980 1140 54 2200 290/10 RMK AO2
14926KSTC STC20060621100010006/21/06 10:00:31  5-MIN KSTC 211600Z 28012G17KT 10SM CLR 22/11 A2980 1140 50 2200 280/12G17 RMK AO2
14926KSTC STC20060621100510006/21/06 10:05:31  5-MIN KSTC 211605Z 29008G17KT 10SM CLR 22/11 A2980 1140 50 2200 290/08G17 RMK AO2
14926KSTC STC20060621101009406/21/06 10:10:31  5-MIN KSTC 211610Z 28008KT 10SM CLR 22/12 A2981 1130 52 2200 280/08 RMK AO2
14926KSTC STC20060621101509406/21/06 10:15:31  5-MIN KSTC 211615Z 26007KT 10SM CLR 22/12 A2981 1130 52 2200 260/07 RMK AO2
14926KSTC STC20060621102009406/21/06 10:20:31  5-MIN KSTC 211620Z 25005KT 10SM CLR 22/12 A2981 1130 54 2200 250/05 RMK AO2
14926KSTC STC20060621102509406/21/06 10:25:31  5-MIN KSTC 211625Z 26012KT 10SM CLR 21/12 A2982 1120 56 2100 250/12 RMK AO2
14926KSTC STC20060621103009406/21/06 10:30:31  5-MIN KSTC 211630Z 26014KT 10SM CLR 22/12 A2982 1120 51 2300 260/14 RMK AO2
14926KSTC STC20060621103509406/21/06 10:35:31  5-MIN KSTC 211635Z 26013KT 10SM CLR 23/12 A2982 1120 49 2300 260/13 RMK AO2
14926KSTC STC20060621104009406/21/06 10:40:31  5-MIN KSTC 211640Z 25011KT 10SM CLR 23/12 A2982 1120 49 2300 240/11 RMK AO2
14926KSTC STC20060621104509406/21/06 10:45:31  5-MIN KSTC 211645Z 25010KT 10SM CLR 23/12 A2982 1120 47 2400 240/10 RMK AO2
14926KSTC STC20060621105011106/21/06 10:50:31  5-MIN KSTC 211650Z 24011KT 10SM CLR 23/12 A2982 1120 49 2400 230/11 RMK AO2 SLP101 T02330122
14926KSTC STC20060621105509406/21/06 10:55:31  5-MIN KSTC 211655Z 26011KT 10SM CLR 24/12 A2982 1120 47 2400 250/11 RMK AO2
14926KSTC STC20060621110009406/21/06 11:00:31  5-MIN KSTC 211700Z 25013KT 10SM CLR 24/12 A2982 1120 47 2400 250/13 RMK AO2
14926KSTC STC20060621110509406/21/06 11:05:31  5-MIN KSTC 211705Z 26008KT 10SM CLR 24/12 A2982 1120 47 2400 260/08 RMK AO2
14926KSTC STC20060621111010006/21/06 11:10:31  5-MIN KSTC 211710Z 27016G22KT 10SM CLR 25/12 A2982 1120 44 2600 270/16G22 RMK AO2
14926KSTC STC20060621111510006/21/06 11:15:31  5-MIN KSTC 211715Z 27016G22KT 10SM CLR 26/10 A2982 1120 37 2600 270/16G22 RMK AO2
14926KSTC STC20060621112010006/21/06 11:20:31  5-MIN KSTC 211720Z 26019G22KT 10SM CLR 26/09 A2982 1120 35 2600 260/19G22 RMK AO2
14926KSTC STC20060621112510006/21/06 11:25:31  5-MIN KSTC 211725Z 26016G22KT 10SM CLR 26/09 A2982 1120 35 2600 260/16G22 RMK AO2
14926KSTC STC20060621113010006/21/06 11:30:31  5-MIN KSTC 211730Z 26019G24KT 10SM CLR 26/10 A2982 1120 37 2600 250/19G24 RMK AO2
14926KSTC STC20060621113510006/21/06 11:35:31  5-MIN KSTC 211735Z 26015G24KT 10SM CLR 25/09 A2982 1120 35 2600 260/15G24 RMK AO2
14926KSTC STC20060621114009406/21/06 11:40:31  5-MIN KSTC 211740Z 27016KT 10SM CLR 26/09 A2982 1120 35 2600 270/16 RMK AO2
14926KSTC STC20060621114510006/21/06 11:45:31  5-MIN KSTC 211745Z 27016G25KT 10SM CLR 26/09 A2982 1120 35 2600 270/16G25 RMK AO2
14926KSTC STC20060621115013506/21/06 11:50:31  5-MIN KSTC 211750Z 27013G25KT 10SM CLR 26/10 A2982 1120 36 2700 260/13G25 RMK AO2 SLP101 T02610100 10261 20167 53011
14926KSTC STC20060621115510006/21/06 11:55:31  5-MIN KSTC 211755Z 27019G24KT 10SM CLR 26/09 A2982 1120 35 2600 270/19G24 RMK AO2
14926KSTC STC20060621120010006/21/06 12:00:31  5-MIN KSTC 211800Z 28019G24KT 10SM CLR 26/09 A2982 1120 35 2600 280/19G24 RMK AO2
14926KSTC STC20060621120510006/21/06 12:05:31  5-MIN KSTC 211805Z 27016G23KT 10SM CLR 26/09 A2982 1120 35 2600 270/16G23 RMK AO2
14926KSTC STC20060621121009406/21/06 12:10:31  5-MIN KSTC 211810Z 29015KT 10SM CLR 26/10 A2981 1130 37 2600 290/15 RMK AO2
14926KSTC STC20060621121510006/21/06 12:15:31  5-MIN KSTC 211815Z 26018G24KT 10SM CLR 26/10 A2981 1130 37 2600 260/18G24 RMK AO2
14926KSTC STC20060621122010006/21/06 12:20:31  5-MIN KSTC 211820Z 27018G24KT 10SM CLR 26/10 A2981 1130 37 2600 270/18G24 RMK AO2
14926KSTC STC20060621122510006/21/06 12:25:31  5-MIN KSTC 211825Z 26017G24KT 10SM CLR 26/11 A2981 1130 37 2700 260/17G24 RMK AO2
14926KSTC STC20060621123009406/21/06 12:30:31  5-MIN KSTC 211830Z 25018KT 10SM CLR 26/10 A2981 1130 37 2600 250/18 RMK AO2
14926KSTC STC20060621123510006/21/06 12:35:31  5-MIN KSTC 211835Z 27017G22KT 10SM CLR 26/10 A2981 1130 37 2600 260/17G22 RMK AO2
14926KSTC STC20060621124009406/21/06 12:40:31  5-MIN KSTC 211840Z 26014KT 10SM CLR 26/11 A2981 1130 37 2700 250/14 RMK AO2
14926KSTC STC20060621124509406/21/06 12:45:31  5-MIN KSTC 211845Z 26014KT 10SM CLR 26/11 A2981 1130 37 2700 260/14 RMK AO2
14926KSTC STC20060621125011706/21/06 12:50:31  5-MIN KSTC 211850Z 27014G22KT 10SM CLR 26/11 A2981 1130 37 2700 270/14G22 RMK AO2 SLP097 T02610106
14926KSTC STC20060621125510306/21/06 12:55:31  5-MIN KSTC 211855Z 27018G22KT 10SM SCT250 26/11 A2980 1130 38 2600 270/18G22 RMK AO2
14926KSTC STC20060621130010306/21/06 13:00:31  5-MIN KSTC 211900Z 27014G21KT 10SM SCT250 26/11 A2980 1130 37 2700 270/14G21 RMK AO2
14926KSTC STC20060621130509706/21/06 13:05:31  5-MIN KSTC 211905Z 27014KT 10SM SCT250 26/11 A2980 1130 37 2700 260/14 RMK AO2
14926KSTC STC20060621131009706/21/06 13:10:31  5-MIN KSTC 211910Z 29016KT 10SM SCT250 26/11 A2980 1140 37 2700 280/16 RMK AO2
14926KSTC STC20060621131509706/21/06 13:15:31  5-MIN KSTC 211915Z 26016KT 10SM SCT250 26/11 A2980 1140 38 2700 250/16 RMK AO2
14926KSTC STC20060621132009706/21/06 13:20:31  5-MIN KSTC 211920Z 26015KT 10SM SCT250 27/11 A2980 1140 37 2800 260/15 RMK AO2
14926KSTC STC20060621132510306/21/06 13:25:31  5-MIN KSTC 211925Z 27019G23KT 10SM SCT250 27/11 A2980 1140 37 2800 270/19G23 RMK AO2
14926KSTC STC20060621133012106/21/06 13:30:31  5-MIN KSTC 211930Z 28017G27KT 10SM SCT250 27/11 A2980 1140 36 2800 280/17G27 RMK AO2 PK WND 27027/1926
14926KSTC STC20060621133512106/21/06 13:35:31  5-MIN KSTC 211935Z 25014G27KT 10SM SCT250 27/11 A2980 1140 36 2800 250/14G27 RMK AO2 PK WND 27027/1926
14926KSTC STC20060621134011506/21/06 13:40:31  5-MIN KSTC 211940Z 28015KT 10SM SCT250 27/11 A2980 1140 36 2800 270/15 RMK AO2 PK WND 27027/1926
14926KSTC STC20060621134512106/21/06 13:45:31  5-MIN KSTC 211945Z 27016G20KT 10SM SCT250 27/11 A2980 1140 36 2800 270/16G20 RMK AO2 PK WND 27027/1926
14926KSTC STC20060621135013806/21/06 13:50:31  5-MIN KSTC 211950Z 26018G24KT 10SM SCT250 27/11 A2980 1140 34 2800 260/18G24 RMK AO2 PK WND 27027/1926 SLP094 T02720106
14926KSTC STC20060621135510006/21/06 13:55:31  5-MIN KSTC 211955Z 24017G25KT 10SM CLR 27/11 A2980 1140 34 2800 240/17G25 RMK AO2
14926KSTC STC20060621140010006/21/06 14:00:31  5-MIN KSTC 212000Z 27020G25KT 10SM CLR 27/11 A2980 1140 36 2800 270/20G25 RMK AO2
14926KSTC STC20060621140511806/21/06 14:05:31  5-MIN KSTC 212005Z 28017G28KT 10SM CLR 27/11 A2980 1140 36 2800 270/17G28 RMK AO2 PK WND 28028/2001
14926KSTC STC20060621141011806/21/06 14:10:31  5-MIN KSTC 212010Z 27016G28KT 10SM CLR 27/11 A2980 1140 34 2800 270/16G28 RMK AO2 PK WND 28028/2001
14926KSTC STC20060621141511806/21/06 14:15:31  5-MIN KSTC 212015Z 28019G25KT 10SM CLR 27/11 A2980 1130 34 2800 270/19G25 RMK AO2 PK WND 28028/2001
14926KSTC STC20060621142011806/21/06 14:20:31  5-MIN KSTC 212020Z 27015G25KT 10SM CLR 27/11 A2981 1130 34 2800 270/15G25 RMK AO2 PK WND 28028/2001
14926KSTC STC20060621142511806/21/06 14:25:31  5-MIN KSTC 212025Z 27020G24KT 10SM CLR 28/11 A2980 1130 33 2900 270/20G24 RMK AO2 PK WND 28028/2001
14926KSTC STC20060621143011806/21/06 14:30:31  5-MIN KSTC 212030Z 27018G24KT 10SM CLR 27/11 A2981 1130 34 2800 260/18G24 RMK AO2 PK WND 28028/2001
14926KSTC STC20060621143511206/21/06 14:35:31  5-MIN KSTC 212035Z 29020KT 10SM CLR 27/11 A2981 1130 34 2800 280/20 RMK AO2 PK WND 28028/2001
14926KSTC STC20060621144011806/21/06 14:40:31  5-MIN KSTC 212040Z 28015G22KT 10SM CLR 27/11 A2981 1130 34 2800 280/15G22 RMK AO2 PK WND 28028/2001
14926KSTC STC20060621144512106/21/06 14:45:31  5-MIN KSTC 212045Z 26017G22KT 10SM FEW065 28/11 A2981 1130 33 2900 260/17G22 RMK AO2 PK WND 28028/2001
14926KSTC STC20060621145014406/21/06 14:50:31  5-MIN KSTC 212050Z 29021G25KT 10SM FEW065 27/11 A2981 1130 34 2800 290/21G25 RMK AO2 PK WND 28028/2001 SLP099 T02720106 50009
14926KSTC STC20060621145512106/21/06 14:55:31  5-MIN KSTC 212055Z 29023G28KT 10SM FEW065 27/10 A2981 1120 33 2800 290/23G28 RMK AO2 PK WND 29028/2055
14926KSTC STC20060621150012106/21/06 15:00:31  5-MIN KSTC 212100Z 29016G28KT 10SM FEW065 27/10 A2982 1120 33 2800 280/16G28 RMK AO2 PK WND 29028/2055
14926KSTC STC20060621150512106/21/06 15:05:31  5-MIN KSTC 212105Z 27020G25KT 10SM FEW065 27/11 A2982 1120 34 2800 270/20G25 RMK AO2 PK WND 29028/2055
14926KSTC STC20060621151012106/21/06 15:10:31  5-MIN KSTC 212110Z 29021G28KT 10SM FEW065 27/11 A2982 1120 34 2800 290/21G28 RMK AO2 PK WND 27028/2107
14926KSTC STC20060621151511806/21/06 15:15:31  5-MIN KSTC 212115Z 29021G28KT 10SM CLR 27/11 A2982 1120 34 2800 280/21G28 RMK AO2 PK WND 29028/2115
14926KSTC STC20060621152012106/21/06 15:20:31  5-MIN KSTC 212120Z 28016G28KT 10SM FEW065 27/11 A2982 1120 34 2800 270/16G28 RMK AO2 PK WND 29028/2115
14926KSTC STC20060621152512106/21/06 15:25:31  5-MIN KSTC 212125Z 28017G20KT 10SM FEW060 27/11 A2982 1120 34 2800 280/17G20 RMK AO2 PK WND 29028/2115
14926KSTC STC20060621153012106/21/06 15:30:31  5-MIN KSTC 212130Z 27016G22KT 10SM SCT065 27/11 A2982 1120 36 2800 270/16G22 RMK AO2 PK WND 29028/2115
14926KSTC STC20060621153512106/21/06 15:35:31  5-MIN KSTC 212135Z 28016G22KT 10SM BKN065 27/11 A2982 1120 37 2800 270/16G22 RMK AO2 PK WND 29028/2115
14926KSTC STC20060621154012106/21/06 15:40:31  5-MIN KSTC 212140Z 27017G23KT 10SM BKN070 27/11 A2982 1120 36 2800 270/17G23 RMK AO2 PK WND 29028/2115
14926KSTC STC20060621154511506/21/06 15:45:31  5-MIN KSTC 212145Z 28022KT 10SM BKN070 27/11 A2982 1120 37 2800 270/22 RMK AO2 PK WND 29028/2115
14926KSTC STC20060621155013806/21/06 15:50:31  5-MIN KSTC 212150Z 27018G24KT 10SM BKN070 27/11 A2983 1110 36 2700 270/18G24 RMK AO2 PK WND 29028/2115 SLP104 T02670106
14926KSTC STC20060621155510306/21/06 15:55:31  5-MIN KSTC 212155Z 27018G21KT 10SM BKN070 27/11 A2983 1110 36 2800 270/18G21 RMK AO2
14926KSTC STC20060621160010306/21/06 16:00:31  5-MIN KSTC 212200Z 29019G23KT 10SM BKN070 27/11 A2983 1110 34 2800 280/19G23 RMK AO2
14926KSTC STC20060621160510306/21/06 16:05:31  5-MIN KSTC 212205Z 28014G23KT 10SM BKN070 27/11 A2983 1110 34 2800 270/14G23 RMK AO2
14926KSTC STC20060621161009706/21/06 16:10:31  5-MIN KSTC 212210Z 30017KT 10SM BKN070 27/11 A2982 1120 36 2800 300/17 RMK AO2
14926KSTC STC20060621161510306/21/06 16:15:31  5-MIN KSTC 212215Z 30015G22KT 10SM BKN070 27/11 A2982 1120 36 2800 300/15G22 RMK AO2
14926KSTC STC20060621162010306/21/06 16:20:31  5-MIN KSTC 212220Z 29015G24KT 10SM BKN070 27/11 A2982 1120 36 2800 280/15G24 RMK AO2
14926KSTC STC20060621162510306/21/06 16:25:31  5-MIN KSTC 212225Z 28016G24KT 10SM BKN070 27/11 A2982 1120 36 2800 270/16G24 RMK AO2
14926KSTC STC20060621163010306/21/06 16:30:31  5-MIN KSTC 212230Z 28017G23KT 10SM SCT070 27/11 A2982 1120 34 2800 280/17G23 RMK AO2
14926KSTC STC20060621163510306/21/06 16:35:31  5-MIN KSTC 212235Z 28019G25KT 10SM SCT070 27/10 A2982 1110 33 2800 280/19G25 RMK AO2
14926KSTC STC20060621164010306/21/06 16:40:31  5-MIN KSTC 212240Z 27015G25KT 10SM FEW070 27/10 A2982 1110 34 2700 270/15G25 RMK AO2
14926KSTC STC20060621164510306/21/06 16:45:31  5-MIN KSTC 212245Z 29015G23KT 10SM FEW070 27/11 A2982 1110 34 2800 290/15G23 RMK AO2
14926KSTC STC20060621165011406/21/06 16:50:31  5-MIN KSTC 212250Z 29015KT 10SM FEW075 26/10 A2983 1110 36 2700 290/15 RMK AO2 SLP105 T02610100
14926KSTC STC20060621165509706/21/06 16:55:31  5-MIN KSTC 212255Z 30016KT 10SM FEW075 26/11 A2983 1110 37 2700 290/16 RMK AO2
14926KSTC STC20060621170010306/21/06 17:00:31  5-MIN KSTC 212300Z 28017G24KT 10SM FEW070 27/11 A2983 1110 36 2700 280/17G24 RMK AO2
14926KSTC STC20060621170512106/21/06 17:05:31  5-MIN KSTC 212305Z 29022G28KT 10SM FEW070 27/11 A2983 1110 36 2700 290/22G28 RMK AO2 PK WND 29028/2305
14926KSTC STC20060621171012106/21/06 17:10:31  5-MIN KSTC 212310Z 30017G28KT 10SM FEW070 26/11 A2983 1110 38 2600 290/17G28 RMK AO2 PK WND 29028/2305
14926KSTC STC20060621171511506/21/06 17:15:31  5-MIN KSTC 212315Z 30017KT 10SM FEW070 26/11 A2983 1110 38 2600 290/17 RMK AO2 PK WND 29028/2305
14926KSTC STC20060621172011506/21/06 17:20:31  5-MIN KSTC 212320Z 30014KT 10SM FEW070 25/11 A2983 1110 39 2600 290/14 RMK AO2 PK WND 29028/2305
14926KSTC STC20060621172512106/21/06 17:25:31  5-MIN KSTC 212325Z 29016G19KT 10SM FEW070 26/11 A2984 1100 40 2600 290/16G19 RMK AO2 PK WND 29028/2305
14926KSTC STC20060621173012106/21/06 17:30:31  5-MIN KSTC 212330Z 30014G19KT 10SM FEW070 26/11 A2984 1100 38 2700 290/14G19 RMK AO2 PK WND 29028/2305
14926KSTC STC20060621173511506/21/06 17:35:31  5-MIN KSTC 212335Z 30015KT 10SM FEW075 26/11 A2984 1100 38 2700 290/15 RMK AO2 PK WND 29028/2305
14926KSTC STC20060621174011506/21/06 17:40:31  5-MIN KSTC 212340Z 31015KT 10SM FEW075 26/11 A2984 1100 40 2600 300/15 RMK AO2 PK WND 29028/2305
14926KSTC STC20060621174511506/21/06 17:45:31  5-MIN KSTC 212345Z 29016KT 10SM FEW075 26/11 A2984 1100 40 2600 290/16 RMK AO2 PK WND 29028/2305
14926KSTC STC20060621175015006/21/06 17:50:31  5-MIN KSTC 212350Z 30011KT 10SM FEW075 26/11 A2984 1100 40 2600 290/11 RMK AO2 PK WND 29028/2305 SLP109 T02560111 10278 20250 55002
14926KSTC STC20060621175510306/21/06 17:55:31  5-MIN KSTC 212355Z 30016G21KT 10SM FEW075 26/11 A2984 1100 40 2600 300/16G21 RMK AO2
14926KSTC STC20060621180010306/21/06 18:00:31  5-MIN KSTC 220000Z 31013G21KT 10SM FEW075 26/11 A2984 1100 40 2600 300/13G21 RMK AO2
14926KSTC STC20060621180509406/21/06 18:05:31  5-MIN KSTC 220005Z 30014KT 10SM CLR 26/11 A2984 1100 40 2600 290/14 RMK AO2
14926KSTC STC20060621181009406/21/06 18:10:31  5-MIN KSTC 220010Z 29013KT 10SM CLR 26/11 A2985 1090 40 2600 290/13 RMK AO2
14926KSTC STC20060621181509406/21/06 18:15:31  5-MIN KSTC 220015Z 29012KT 10SM CLR 25/11 A2985 1090 41 2500 290/12 RMK AO2
14926KSTC STC20060621182009406/21/06 18:20:31  5-MIN KSTC 220020Z 30012KT 10SM CLR 26/11 A2985 1090 40 2600 290/12 RMK AO2
14926KSTC STC20060621182509406/21/06 18:25:31  5-MIN KSTC 220025Z 29013KT 10SM CLR 25/11 A2985 1090 41 2500 290/13 RMK AO2
14926KSTC STC20060621183009406/21/06 18:30:31  5-MIN KSTC 220030Z 30012KT 10SM CLR 25/11 A2985 1090 41 2500 300/12 RMK AO2
14926KSTC STC20060621183509406/21/06 18:35:31  5-MIN KSTC 220035Z 29014KT 10SM CLR 25/11 A2985 1090 41 2500 290/14 RMK AO2
14926KSTC STC20060621184009406/21/06 18:40:31  5-MIN KSTC 220040Z 30013KT 10SM CLR 25/11 A2985 1090 41 2500 290/13 RMK AO2
14926KSTC STC20060621184509406/21/06 18:45:31  5-MIN KSTC 220045Z 29011KT 10SM CLR 25/11 A2985 1090 41 2500 290/11 RMK AO2
14926KSTC STC20060621185011106/21/06 18:50:31  5-MIN KSTC 220050Z 30013KT 10SM CLR 24/11 A2985 1090 42 2500 300/13 RMK AO2 SLP111 T02440111
14926KSTC STC20060621185509406/21/06 18:55:31  5-MIN KSTC 220055Z 31013KT 10SM CLR 24/11 A2985 1090 42 2500 300/13 RMK AO2
14926KSTC STC20060621190009406/21/06 19:00:31  5-MIN KSTC 220100Z 29011KT 10SM CLR 24/11 A2985 1090 42 2500 290/11 RMK AO2
14926KSTC STC20060621190509406/21/06 19:05:31  5-MIN KSTC 220105Z 29010KT 10SM CLR 24/12 A2985 1090 44 2500 290/10 RMK AO2
14926KSTC STC20060621191009406/21/06 19:10:31  5-MIN KSTC 220110Z 30008KT 10SM CLR 24/12 A2985 1090 44 2500 290/08 RMK AO2
14926KSTC STC20060621191509406/21/06 19:15:31  5-MIN KSTC 220115Z 29009KT 10SM CLR 24/12 A2986 1090 46 2400 280/09 RMK AO2
14926KSTC STC20060621192009406/21/06 19:20:31  5-MIN KSTC 220120Z 29007KT 10SM CLR 24/12 A2986 1090 46 2400 280/07 RMK AO2
14926KSTC STC20060621192509406/21/06 19:25:31  5-MIN KSTC 220125Z 29008KT 10SM CLR 24/12 A2986 1080 46 2400 280/08 RMK AO2
14926KSTC STC20060621193009406/21/06 19:30:31  5-MIN KSTC 220130Z 28007KT 10SM CLR 24/12 A2986 1080 46 2400 280/07 RMK AO2
14926KSTC STC20060621193509406/21/06 19:35:31  5-MIN KSTC 220135Z 28007KT 10SM CLR 24/12 A2986 1080 46 2400 280/07 RMK AO2
14926KSTC STC20060621194009406/21/06 19:40:31  5-MIN KSTC 220140Z 28007KT 10SM CLR 23/12 A2986 1080 47 2300 280/07 RMK AO2
14926KSTC STC20060621194509406/21/06 19:45:31  5-MIN KSTC 220145Z 28007KT 10SM CLR 23/12 A2986 1080 49 2300 280/07 RMK AO2
14926KSTC STC20060621195011106/21/06 19:50:31  5-MIN KSTC 220150Z 27007KT 10SM CLR 23/12 A2986 1080 49 2300 270/07 RMK AO2 SLP115 T02280117
14926KSTC STC20060621195509406/21/06 19:55:31  5-MIN KSTC 220155Z 27006KT 10SM CLR 22/12 A2987 1080 51 2200 270/06 RMK AO2
14926KSTC STC20060621200009406/21/06 20:00:31  5-MIN KSTC 220200Z 27006KT 10SM CLR 22/12 A2987 1080 52 2100 270/06 RMK AO2
14926KSTC STC20060621200509406/21/06 20:05:31  5-MIN KSTC 220205Z 27005KT 10SM CLR 22/12 A2987 1070 54 2100 270/05 RMK AO2
14926KSTC STC20060621201009406/21/06 20:10:31  5-MIN KSTC 220210Z 28005KT 10SM CLR 22/12 A2987 1070 54 2100 280/05 RMK AO2
14926KSTC STC20060621201509406/21/06 20:15:31  5-MIN KSTC 220215Z 28006KT 10SM CLR 22/12 A2987 1070 52 2100 280/06 RMK AO2
14926KSTC STC20060621202009406/21/06 20:20:31  5-MIN KSTC 220220Z 27005KT 10SM CLR 21/12 A2988 1070 54 2100 270/05 RMK AO2
14926KSTC STC20060621202509406/21/06 20:25:31  5-MIN KSTC 220225Z 26004KT 10SM CLR 21/12 A2988 1060 58 2000 250/04 RMK AO2
14926KSTC STC20060621203009406/21/06 20:30:31  5-MIN KSTC 220230Z 24005KT 10SM CLR 21/12 A2988 1060 58 2000 240/05 RMK AO2
14926KSTC STC20060621203509406/21/06 20:35:31  5-MIN KSTC 220235Z 23004KT 10SM CLR 20/12 A2988 1060 60 1900 230/04 RMK AO2
14926KSTC STC20060621204009406/21/06 20:40:31  5-MIN KSTC 220240Z 23005KT 10SM CLR 20/13 A2989 1060 63 1900 230/05 RMK AO2
14926KSTC STC20060621204509406/21/06 20:45:31  5-MIN KSTC 220245Z 24005KT 10SM CLR 19/13 A2989 1060 65 1900 240/05 RMK AO2
14926KSTC STC20060621205011706/21/06 20:50:31  5-MIN KSTC 220250Z 25006KT 10SM CLR 19/13 A2989 1060 67 1800 250/06 RMK AO2 SLP125 T01890128 51010
14926KSTC STC20060621205509406/21/06 20:55:31  5-MIN KSTC 220255Z 25006KT 10SM CLR 18/13 A2989 1060 70 1700 240/06 RMK AO2
14926KSTC STC20060621210009406/21/06 21:00:31  5-MIN KSTC 220300Z 25006KT 10SM CLR 18/13 A2989 1050 72 1700 240/06 RMK AO2
14926KSTC STC20060621210509406/21/06 21:05:31  5-MIN KSTC 220305Z 25006KT 10SM CLR 19/13 A2989 1050 65 1900 250/06 RMK AO2
14926KSTC STC20060621211009406/21/06 21:10:31  5-MIN KSTC 220310Z 25006KT 10SM CLR 19/13 A2990 1050 67 1800 240/06 RMK AO2
14926KSTC STC20060621211509406/21/06 21:15:31  5-MIN KSTC 220315Z 24006KT 10SM CLR 19/13 A2990 1050 67 1800 240/06 RMK AO2
14926KSTC STC20060621212009406/21/06 21:20:31  5-MIN KSTC 220320Z 24006KT 10SM CLR 19/12 A2990 1050 62 1800 230/06 RMK AO2
14926KSTC STC20060621212509406/21/06 21:25:31  5-MIN KSTC 220325Z 24006KT 10SM CLR 19/12 A2990 1050 62 1800 240/06 RMK AO2
14926KSTC STC20060621213009406/21/06 21:30:31  5-MIN KSTC 220330Z 24006KT 10SM CLR 19/12 A2990 1040 62 1800 240/06 RMK AO2
14926KSTC STC20060621213509406/21/06 21:35:31  5-MIN KSTC 220335Z 24006KT 10SM CLR 19/12 A2990 1040 62 1800 240/06 RMK AO2
14926KSTC STC20060621214009406/21/06 21:40:31  5-MIN KSTC 220340Z 24006KT 10SM CLR 19/12 A2990 1040 62 1800 240/06 RMK AO2
14926KSTC STC20060621214509406/21/06 21:45:31  5-MIN KSTC 220345Z 24006KT 10SM CLR 19/12 A2991 1040 62 1800 240/06 RMK AO2
14926KSTC STC20060621215011606/21/06 21:50:31  5-MIN KSTC 220350Z AUTO 24006KT 10SM CLR 19/12 A2991 1040 62 1800 240/06 RMK AO2 SLP131 T01940122
14926KSTC STC20060621215509906/21/06 21:55:31  5-MIN KSTC 220355Z AUTO 24005KT 10SM CLR 19/12 A2991 1040 65 1800 230/05 RMK AO2
14926KSTC STC20060621220009906/21/06 22:00:31  5-MIN KSTC 220400Z AUTO 23005KT 10SM CLR 19/12 A2991 1040 65 1800 230/05 RMK AO2
14926KSTC STC20060621220509906/21/06 22:05:31  5-MIN KSTC 220405Z AUTO 23005KT 10SM CLR 18/12 A2991 1040 67 1700 230/05 RMK AO2
14926KSTC STC20060621221009906/21/06 22:10:31  5-MIN KSTC 220410Z AUTO 23006KT 10SM CLR 18/12 A2991 1040 69 1600 230/06 RMK AO2
14926KSTC STC20060621221509906/21/06 22:15:31  5-MIN KSTC 220415Z AUTO 24006KT 10SM CLR 18/12 A2991 1040 67 1700 240/06 RMK AO2
14926KSTC STC20060621222009906/21/06 22:20:31  5-MIN KSTC 220420Z AUTO 25006KT 10SM CLR 18/12 A2991 1030 67 1700 240/06 RMK AO2
14926KSTC STC20060621222509906/21/06 22:25:31  5-MIN KSTC 220425Z AUTO 25006KT 10SM CLR 18/13 A2991 1030 72 1600 250/06 RMK AO2
14926KSTC STC20060621223009906/21/06 22:30:31  5-MIN KSTC 220430Z AUTO 25005KT 10SM CLR 18/13 A2992 1030 72 1600 250/05 RMK AO2
14926KSTC STC20060621223509906/21/06 22:35:31  5-MIN KSTC 220435Z AUTO 25005KT 10SM CLR 17/13 A2992 1030 75 1600 240/05 RMK AO2
14926KSTC STC20060621224009906/21/06 22:40:31  5-MIN KSTC 220440Z AUTO 24005KT 10SM CLR 18/13 A2992 1030 72 1600 230/05 RMK AO2
14926KSTC STC20060621224509906/21/06 22:45:31  5-MIN KSTC 220445Z AUTO 23004KT 10SM CLR 18/12 A2992 1030 69 1600 230/04 RMK AO2
14926KSTC STC20060621225011606/21/06 22:50:31  5-MIN KSTC 220450Z AUTO 23005KT 10SM CLR 18/12 A2992 1030 69 1600 220/05 RMK AO2 SLP136 T01780122
14926KSTC STC20060621225509906/21/06 22:55:31  5-MIN KSTC 220455Z AUTO 24005KT 10SM CLR 17/12 A2992 1020 72 1600 240/05 RMK AO2
14926KSTC STC20060621230009906/21/06 23:00:31  5-MIN KSTC 220500Z AUTO 25006KT 10SM CLR 18/12 A2992 1020 69 1600 240/06 RMK AO2
14926KSTC STC20060621230509906/21/06 23:05:31  5-MIN KSTC 220505Z AUTO 26006KT 10SM CLR 17/12 A2992 1030 72 1600 250/06 RMK AO2
14926KSTC STC20060621231009906/21/06 23:10:31  5-MIN KSTC 220510Z AUTO 26006KT 10SM CLR 17/12 A2992 1020 75 1500 260/06 RMK AO2
14926KSTC STC20060621231509906/21/06 23:15:31  5-MIN KSTC 220515Z AUTO 25006KT 10SM CLR 17/12 A2992 1020 75 1500 250/06 RMK AO2
14926KSTC STC20060621232009906/21/06 23:20:31  5-MIN KSTC 220520Z AUTO 25006KT 10SM CLR 16/12 A2992 1020 77 1400 250/06 RMK AO2
14926KSTC STC20060621232509906/21/06 23:25:31  5-MIN KSTC 220525Z AUTO 25006KT 10SM CLR 17/12 A2992 1020 75 1500 250/06 RMK AO2
14926KSTC STC20060621233009906/21/06 23:30:31  5-MIN KSTC 220530Z AUTO 26005KT 10SM CLR 17/12 A2992 1020 75 1500 250/05 RMK AO2
14926KSTC STC20060621233509906/21/06 23:35:31  5-MIN KSTC 220535Z AUTO 26005KT 10SM CLR 17/12 A2992 1030 75 1500 250/05 RMK AO2
14926KSTC STC20060621234009906/21/06 23:40:31  5-MIN KSTC 220540Z AUTO 25005KT 10SM CLR 17/12 A2992 1030 75 1500 250/05 RMK AO2
14926KSTC STC20060621234509906/21/06 23:45:31  5-MIN KSTC 220545Z AUTO 26006KT 10SM CLR 17/12 A2992 1020 75 1500 250/06 RMK AO2
14926KSTC STC20060621235014406/21/06 23:50:31  5-MIN KSTC 220550Z AUTO 26007KT 10SM CLR 17/12 A2992 1020 75 1500 250/07 RMK AO2 SLP137 T01670122 10256 20161 402780133 53015
14926KSTC STC20060621235509906/21/06 23:55:31  5-MIN KSTC 220555Z AUTO 25007KT 10SM CLR 17/12 A2992 1020 75 1500 250/07 RMK AO2
14926KSTC STC20060622000009906/22/06 00:00:32  5-MIN KSTC 220600Z AUTO 26007KT 10SM CLR 17/12 A2993 1020 72 1600 250/07 RMK AO2
14926KSTC STC20060622000509906/22/06 00:05:31  5-MIN KSTC 220605Z AUTO 26007KT 10SM CLR 17/12 A2993 1020 72 1600 260/07 RMK AO2
14926KSTC STC20060622001009906/22/06 00:10:31  5-MIN KSTC 220610Z AUTO 26007KT 10SM CLR 17/12 A2993 1020 75 1500 260/07 RMK AO2
14926KSTC STC20060622001509906/22/06 00:15:31  5-MIN KSTC 220615Z AUTO 26007KT 10SM CLR 17/12 A2993 1020 75 1500 260/07 RMK AO2
14926KSTC STC20060622002009906/22/06 00:20:31  5-MIN KSTC 220620Z AUTO 26007KT 10SM CLR 17/12 A2993 1010 75 1500 260/07 RMK AO2
14926KSTC STC20060622002509906/22/06 00:25:31  5-MIN KSTC 220625Z AUTO 26007KT 10SM CLR 17/12 A2993 1010 75 1500 260/07 RMK AO2
14926KSTC STC20060622003009906/22/06 00:30:31  5-MIN KSTC 220630Z AUTO 26006KT 10SM CLR 17/12 A2994 1010 75 1500 260/06 RMK AO2
14926KSTC STC20060622003509906/22/06 00:35:31  5-MIN KSTC 220635Z AUTO 26006KT 10SM CLR 16/12 A2994 1010 77 1400 260/06 RMK AO2
14926KSTC STC20060622004009906/22/06 00:40:31  5-MIN KSTC 220640Z AUTO 26006KT 10SM CLR 16/12 A2994 1010 77 1400 260/06 RMK AO2
14926KSTC STC20060622004509906/22/06 00:45:31  5-MIN KSTC 220645Z AUTO 25006KT 10SM CLR 16/12 A2994 1010 77 1400 250/06 RMK AO2
14926KSTC STC20060622005011606/22/06 00:50:31  5-MIN KSTC 220650Z AUTO 25006KT 10SM CLR 16/12 A2994 1010 77 1400 250/06 RMK AO2 SLP144 T01610122
14926KSTC STC20060622005509906/22/06 00:55:31  5-MIN KSTC 220655Z AUTO 25007KT 10SM CLR 17/12 A2995 1000 75 1500 250/07 RMK AO2
14926KSTC STC20060622010009906/22/06 01:00:31  5-MIN KSTC 220700Z AUTO 26007KT 10SM CLR 17/12 A2995 1000 75 1500 250/07 RMK AO2
14926KSTC STC20060622010509906/22/06 01:05:31  5-MIN KSTC 220705Z AUTO 26007KT 10SM CLR 17/12 A2995 1000 75 1500 260/07 RMK AO2
14926KSTC STC20060622011009906/22/06 01:10:31  5-MIN KSTC 220710Z AUTO 26007KT 10SM CLR 16/12 A2995 1000 77 1400 260/07 RMK AO2
14926KSTC STC20060622011509806/22/06 01:15:31  5-MIN KSTC 220715Z AUTO 26008KT 10SM CLR 16/12 A2996 990 77 1400 260/08 RMK AO2
14926KSTC STC20060622012009806/22/06 01:20:31  5-MIN KSTC 220720Z AUTO 26008KT 10SM CLR 16/12 A2996 990 77 1400 260/08 RMK AO2
14926KSTC STC20060622012509806/22/06 01:25:31  5-MIN KSTC 220725Z AUTO 26008KT 10SM CLR 16/12 A2996 990 77 1400 260/08 RMK AO2
14926KSTC STC20060622013009806/22/06 01:30:31  5-MIN KSTC 220730Z AUTO 27008KT 10SM CLR 16/12 A2996 990 77 1400 260/08 RMK AO2
14926KSTC STC20060622013509806/22/06 01:35:31  5-MIN KSTC 220735Z AUTO 27007KT 10SM CLR 16/12 A2996 990 77 1400 260/07 RMK AO2
14926KSTC STC20060622014009806/22/06 01:40:31  5-MIN KSTC 220740Z AUTO 27007KT 10SM CLR 17/12 A2996 990 75 1500 270/07 RMK AO2
14926KSTC STC20060622014509806/22/06 01:45:31  5-MIN KSTC 220745Z AUTO 28007KT 10SM CLR 17/12 A2996 990 75 1500 270/07 RMK AO2
14926KSTC STC20060622015011506/22/06 01:50:31  5-MIN KSTC 220750Z AUTO 28007KT 10SM CLR 17/12 A2996 990 72 1500 280/07 RMK AO2 SLP149 T01720122
14926KSTC STC20060622015509806/22/06 01:55:31  5-MIN KSTC 220755Z AUTO 28007KT 10SM CLR 17/12 A2996 990 72 1500 280/07 RMK AO2
14926KSTC STC20060622020009806/22/06 02:00:31  5-MIN KSTC 220800Z AUTO 28007KT 10SM CLR 17/12 A2996 990 72 1500 270/07 RMK AO2
14926KSTC STC20060622020509806/22/06 02:05:31  5-MIN KSTC 220805Z AUTO 27006KT 10SM CLR 17/12 A2997 980 75 1400 270/06 RMK AO2
14926KSTC STC20060622021009806/22/06 02:10:31  5-MIN KSTC 220810Z AUTO 27006KT 10SM CLR 16/12 A2997 980 77 1400 260/06 RMK AO2
14926KSTC STC20060622021509806/22/06 02:15:31  5-MIN KSTC 220815Z AUTO 26007KT 10SM CLR 16/12 A2997 980 77 1400 260/07 RMK AO2
14926KSTC STC20060622022009806/22/06 02:20:31  5-MIN KSTC 220820Z AUTO 27008KT 10SM CLR 16/12 A2997 980 77 1400 270/08 RMK AO2
14926KSTC STC20060622022509806/22/06 02:25:31  5-MIN KSTC 220825Z AUTO 28007KT 10SM CLR 16/12 A2997 980 77 1400 270/07 RMK AO2
14926KSTC STC20060622023009806/22/06 02:30:31  5-MIN KSTC 220830Z AUTO 28006KT 10SM CLR 17/12 A2997 980 75 1400 280/06 RMK AO2
14926KSTC STC20060622023509806/22/06 02:35:31  5-MIN KSTC 220835Z AUTO 30007KT 10SM CLR 17/12 A2997 980 75 1400 290/07 RMK AO2
14926KSTC STC20060622024009806/22/06 02:40:31  5-MIN KSTC 220840Z AUTO 30007KT 10SM CLR 17/12 A2997 980 75 1400 300/07 RMK AO2
14926KSTC STC20060622024509806/22/06 02:45:31  5-MIN KSTC 220845Z AUTO 31006KT 10SM CLR 17/12 A2997 980 75 1400 300/06 RMK AO2
14926KSTC STC20060622025012106/22/06 02:50:31  5-MIN KSTC 220850Z AUTO 31006KT 10SM CLR 16/12 A2997 980 77 1400 310/06 RMK AO2 SLP151 T01610122 51012
14926KSTC STC20060622025509806/22/06 02:55:31  5-MIN KSTC 220855Z AUTO 31006KT 10SM CLR 16/12 A2997 980 77 1400 310/06 RMK AO2
14926KSTC STC20060622030009806/22/06 03:00:31  5-MIN KSTC 220900Z AUTO 30007KT 10SM CLR 16/12 A2997 980 77 1400 290/07 RMK AO2
14926KSTC STC20060622030509806/22/06 03:05:31  5-MIN KSTC 220905Z AUTO 29007KT 10SM CLR 17/12 A2998 970 75 1400 290/07 RMK AO2
14926KSTC STC20060622031009806/22/06 03:10:31  5-MIN KSTC 220910Z AUTO 31008KT 10SM CLR 17/12 A2997 990 75 1400 300/08 RMK AO2
14926KSTC STC20060622031509806/22/06 03:15:31  5-MIN KSTC 220915Z AUTO 31008KT 10SM CLR 16/12 A2997 980 77 1400 300/08 RMK AO2
14926KSTC STC20060622032009806/22/06 03:20:31  5-MIN KSTC 220920Z AUTO 31008KT 10SM CLR 16/12 A2997 980 77 1400 300/08 RMK AO2
14926KSTC STC20060622032509806/22/06 03:25:31  5-MIN KSTC 220925Z AUTO 31007KT 10SM CLR 16/12 A2996 990 80 1300 310/07 RMK AO2
14926KSTC STC20060622033009806/22/06 03:30:31  5-MIN KSTC 220930Z AUTO 30007KT 10SM CLR 16/12 A2997 980 80 1300 300/07 RMK AO2
14926KSTC STC20060622033509806/22/06 03:35:31  5-MIN KSTC 220935Z AUTO 31007KT 10SM CLR 16/12 A2997 980 80 1300 310/07 RMK AO2
14926KSTC STC20060622034009806/22/06 03:40:31  5-MIN KSTC 220940Z AUTO 32007KT 10SM CLR 16/12 A2996 990 80 1300 310/07 RMK AO2
14926KSTC STC20060622034509806/22/06 03:45:31  5-MIN KSTC 220945Z AUTO 31006KT 10SM CLR 16/12 A2997 980 80 1300 310/06 RMK AO2
14926KSTC STC20060622035011506/22/06 03:50:31  5-MIN KSTC 220950Z AUTO 31007KT 10SM CLR 15/12 A2997 980 83 1200 310/07 RMK AO2 SLP154 T01500122
14926KSTC STC20060622035509806/22/06 03:55:31  5-MIN KSTC 220955Z AUTO 31007KT 10SM CLR 15/12 A2997 980 83 1200 310/07 RMK AO2
14926KSTC STC20060622040009806/22/06 04:00:31  5-MIN KSTC 221000Z AUTO 30007KT 10SM CLR 15/12 A2998 970 83 1200 300/07 RMK AO2
14926KSTC STC20060622040509806/22/06 04:05:31  5-MIN KSTC 221005Z AUTO 30006KT 10SM CLR 15/12 A2998 970 83 1200 300/06 RMK AO2
14926KSTC STC20060622041009806/22/06 04:10:31  5-MIN KSTC 221010Z AUTO 30006KT 10SM CLR 15/12 A2998 970 83 1200 300/06 RMK AO2
14926KSTC STC20060622041509806/22/06 04:15:31  5-MIN KSTC 221015Z AUTO 30007KT 10SM CLR 16/13 A2999 970 83 1300 300/07 RMK AO2
14926KSTC STC20060622042009806/22/06 04:20:31  5-MIN KSTC 221020Z AUTO 31006KT 10SM CLR 16/13 A2999 960 83 1300 300/06 RMK AO2
14926KSTC STC20060622042509806/22/06 04:25:31  5-MIN KSTC 221025Z AUTO 31006KT 10SM CLR 15/13 A3000 960 86 1200 310/06 RMK AO2
14926KSTC STC20060622043009806/22/06 04:30:31  5-MIN KSTC 221030Z AUTO 31006KT 10SM CLR 15/13 A3000 950 86 1200 300/06 RMK AO2
14926KSTC STC20060622043509806/22/06 04:35:31  5-MIN KSTC 221035Z AUTO 30006KT 10SM CLR 15/13 A3000 950 86 1200 300/06 RMK AO2
14926KSTC STC20060622044009806/22/06 04:40:31  5-MIN KSTC 221040Z AUTO 30007KT 10SM CLR 15/13 A3001 950 86 1200 300/07 RMK AO2
14926KSTC STC20060622044509806/22/06 04:45:31  5-MIN KSTC 221045Z AUTO 30007KT 10SM CLR 16/13 A3001 950 83 1300 300/07 RMK AO2
14926KSTC STC20060622045011506/22/06 04:50:31  5-MIN KSTC 221050Z AUTO 31008KT 10SM CLR 16/13 A3000 950 83 1300 310/08 RMK AO2 SLP165 T01560128
14926KSTC STC20060622045509806/22/06 04:55:31  5-MIN KSTC 221055Z AUTO 32007KT 10SM CLR 15/13 A3000 950 86 1200 310/07 RMK AO2
14926KSTC STC20060622050009806/22/06 05:00:31  5-MIN KSTC 221100Z AUTO 32007KT 10SM CLR 15/13 A3000 950 86 1200 320/07 RMK AO2
14926KSTC STC20060622050509806/22/06 05:05:31  5-MIN KSTC 221105Z AUTO 32007KT 10SM CLR 15/13 A3001 950 86 1200 320/07 RMK AO2
14926KSTC STC20060622051009806/22/06 05:10:31  5-MIN KSTC 221110Z AUTO 32007KT 10SM CLR 15/13 A3001 950 86 1200 320/07 RMK AO2
14926KSTC STC20060622051509806/22/06 05:15:31  5-MIN KSTC 221115Z AUTO 32007KT 10SM CLR 16/13 A3001 940 83 1300 320/07 RMK AO2
14926KSTC STC20060622052009806/22/06 05:20:31  5-MIN KSTC 221120Z AUTO 32006KT 10SM CLR 16/13 A3002 940 83 1300 320/06 RMK AO2
14926KSTC STC20060622052509806/22/06 05:25:31  5-MIN KSTC 221125Z AUTO 32007KT 10SM CLR 16/13 A3002 940 80 1300 320/07 RMK AO2
14926KSTC STC20060622053009806/22/06 05:30:31  5-MIN KSTC 221130Z AUTO 32007KT 10SM CLR 16/13 A3002 930 83 1300 320/07 RMK AO2
14926KSTC STC20060622053509806/22/06 05:35:31  5-MIN KSTC 221135Z AUTO 32008KT 10SM CLR 16/13 A3002 930 83 1300 320/08 RMK AO2
14926KSTC STC20060622054009806/22/06 05:40:31  5-MIN KSTC 221140Z AUTO 32007KT 10SM CLR 16/13 A3002 930 83 1300 320/07 RMK AO2
14926KSTC STC20060622054509806/22/06 05:45:31  5-MIN KSTC 221145Z AUTO 32008KT 10SM CLR 16/13 A3003 930 83 1300 320/08 RMK AO2
14926KSTC STC20060622055013306/22/06 05:50:31  5-MIN KSTC 221150Z AUTO 33006KT 10SM CLR 17/13 A3003 930 80 1400 330/06 RMK AO2 SLP173 T01670133 10172 20150 51014
14926KSTC STC20060622055509306/22/06 05:55:31  5-MIN KSTC 221155Z 33006KT 10SM CLR 17/13 A3003 920 80 1400 330/06 RMK AO2
14926KSTC STC20060622060009306/22/06 06:00:31  5-MIN KSTC 221200Z 33006KT 10SM CLR 17/13 A3003 930 80 1400 330/06 RMK AO2
14926KSTC STC20060622060509306/22/06 06:05:31  5-MIN KSTC 221205Z 33007KT 10SM CLR 17/13 A3003 930 80 1400 330/07 RMK AO2
14926KSTC STC20060622061009306/22/06 06:10:31  5-MIN KSTC 221210Z 33008KT 10SM CLR 17/13 A3003 920 78 1400 330/08 RMK AO2
14926KSTC STC20060622061509306/22/06 06:15:31  5-MIN KSTC 221215Z 33007KT 10SM CLR 17/14 A3004 920 80 1400 320/07 RMK AO2
14926KSTC STC20060622062009306/22/06 06:20:31  5-MIN KSTC 221220Z 32009KT 10SM CLR 17/14 A3004 920 80 1400 320/09 RMK AO2
14926KSTC STC20060622062509306/22/06 06:25:31  5-MIN KSTC 221225Z 33010KT 10SM CLR 17/14 A3004 920 80 1400 320/10 RMK AO2
14926KSTC STC20060622063009306/22/06 06:30:31  5-MIN KSTC 221230Z 33010KT 10SM CLR 17/14 A3004 910 80 1400 330/10 RMK AO2
14926KSTC STC20060622063509306/22/06 06:35:31  5-MIN KSTC 221235Z 33010KT 10SM CLR 18/14 A3004 910 78 1500 320/10 RMK AO2
14926KSTC STC20060622064009306/22/06 06:40:31  5-MIN KSTC 221240Z 33008KT 10SM CLR 18/13 A3004 910 75 1500 330/08 RMK AO2
14926KSTC STC20060622064509306/22/06 06:45:31  5-MIN KSTC 221245Z 33009KT 10SM CLR 18/13 A3005 910 75 1500 330/09 RMK AO2
14926KSTC STC20060622065011006/22/06 06:50:31  5-MIN KSTC 221250Z 33009KT 10SM CLR 18/13 A3005 910 75 1500 330/09 RMK AO2 SLP180 T01780133
14926KSTC STC20060622065509306/22/06 06:55:31  5-MIN KSTC 221255Z 34007KT 10SM CLR 18/13 A3005 910 75 1500 330/07 RMK AO2
14926KSTC STC20060622070009306/22/06 07:00:31  5-MIN KSTC 221300Z 34008KT 10SM CLR 18/13 A3006 900 72 1500 340/08 RMK AO2
14926KSTC STC20060622070509306/22/06 07:05:31  5-MIN KSTC 221305Z 35007KT 10SM CLR 18/13 A3006 900 72 1500 340/07 RMK AO2
14926KSTC STC20060622071009306/22/06 07:10:31  5-MIN KSTC 221310Z 34010KT 10SM CLR 18/13 A3006 900 72 1500 340/10 RMK AO2
14926KSTC STC20060622071509306/22/06 07:15:31  5-MIN KSTC 221315Z 34009KT 10SM CLR 18/13 A3006 900 72 1500 340/09 RMK AO2
14926KSTC STC20060622072009306/22/06 07:20:31  5-MIN KSTC 221320Z 36008KT 10SM CLR 18/13 A3006 900 72 1500 350/08 RMK AO2
14926KSTC STC20060622072509306/22/06 07:25:31  5-MIN KSTC 221325Z 35008KT 10SM CLR 19/13 A3006 900 70 1600 350/08 RMK AO2
14926KSTC STC20060622073009306/22/06 07:30:31  5-MIN KSTC 221330Z 36009KT 10SM CLR 19/13 A3007 890 70 1600 360/09 RMK AO2
14926KSTC STC20060622073509306/22/06 07:35:31  5-MIN KSTC 221335Z 34007KT 10SM CLR 19/13 A3007 890 70 1600 340/07 RMK AO2
14926KSTC STC20060622074009306/22/06 07:40:31  5-MIN KSTC 221340Z 35007KT 10SM CLR 19/13 A3007 880 67 1600 350/07 RMK AO2
14926KSTC STC20060622074509306/22/06 07:45:31  5-MIN KSTC 221345Z 35008KT 10SM CLR 19/13 A3008 880 67 1600 340/08 RMK AO2
14926KSTC STC20060622075011006/22/06 07:50:31  5-MIN KSTC 221350Z 35008KT 10SM CLR 19/13 A3008 880 67 1600 340/08 RMK AO2 SLP190 T01940133
14926KSTC STC20060622075509606/22/06 07:55:31  5-MIN KSTC 221355Z 35009KT 10SM FEW021 19/13 A3008 880 67 1600 340/09 RMK AO2
14926KSTC STC20060622080009606/22/06 08:00:31  5-MIN KSTC 221400Z VRB06KT 10SM FEW021 19/13 A3008 880 67 1600 VRB/06 RMK AO2
14926KSTC STC20060622084009606/22/06 08:40:31  5-MIN KSTC 221440Z 35010KT 10SM FEW023 19/13 A3009 870 65 1600 340/10 RMK AO2
14926KSTC STC20060622084509606/22/06 08:45:31  5-MIN KSTC 221445Z 34011KT 10SM FEW023 19/13 A3010 860 65 1600 340/11 RMK AO2
14926KSTC STC20060622085012606/22/06 08:50:31  5-MIN KSTC 221450Z 34010KT 10SM SCT025 SCT032 20/13 A3010 860 63 1700 330/10 RMK AO2 SLP198 T02000128 53021
14926KSTC STC20060622085509606/22/06 08:55:31  5-MIN KSTC 221455Z 33009KT 10SM BKN027 19/12 A3010 860 62 1600 330/09 RMK AO2
14926KSTC STC20060622090009606/22/06 09:00:31  5-MIN KSTC 221500Z 34008KT 10SM SCT029 19/12 A3010 860 62 1600 340/08 RMK AO2
14926KSTC STC20060622090509606/22/06 09:05:31  5-MIN KSTC 221505Z 35009KT 10SM SCT029 19/12 A3010 860 62 1600 350/09 RMK AO2
14926KSTC STC20060622091011206/22/06 09:10:31  5-MIN KSTC 221510Z 36007KT 330V040 10SM SCT029 21/12 A3011 860 58 1700 360/07 330V040 RMK AO2
14926KSTC STC20060622091509606/22/06 09:15:31  5-MIN KSTC 221515Z 35007KT 10SM SCT029 21/13 A3011 850 58 1800 350/07 RMK AO2
14926KSTC STC20060622092009606/22/06 09:20:31  5-MIN KSTC 221520Z 36009KT 10SM SCT029 22/13 A3011 850 56 1900 350/09 RMK AO2
14926KSTC STC20060622092509606/22/06 09:25:31  5-MIN KSTC 221525Z 01008KT 10SM SCT031 21/12 A3011 850 56 1800 010/08 RMK AO2
14926KSTC STC20060622093009606/22/06 09:30:31  5-MIN KSTC 221530Z 36009KT 10SM SCT031 21/12 A3011 850 56 1800 360/09 RMK AO2
14926KSTC STC20060622093509606/22/06 09:35:31  5-MIN KSTC 221535Z 35007KT 10SM SCT031 21/12 A3011 850 56 1800 350/07 RMK AO2
14926KSTC STC20060622094009606/22/06 09:40:31  5-MIN KSTC 221540Z 33005KT 10SM SCT031 21/12 A3012 840 58 1700 330/05 RMK AO2
14926KSTC STC20060622094509606/22/06 09:45:31  5-MIN KSTC 221545Z VRB06KT 10SM SCT033 21/12 A3012 840 56 1800 VRB/06 RMK AO2
14926KSTC STC20060622095011306/22/06 09:50:31  5-MIN KSTC 221550Z VRB05KT 10SM BKN035 22/12 A3012 840 52 1900 VRB/05 RMK AO2 SLP203 T02220122
14926KSTC STC20060622095511206/22/06 09:55:31  5-MIN KSTC 221555Z 34008KT 300V010 10SM BKN035 21/12 A3012 840 54 1800 340/08 300V010 RMK AO2
14926KSTC STC20060622100009606/22/06 10:00:31  5-MIN KSTC 221600Z 34006KT 10SM SCT035 22/12 A3012 840 52 1900 340/06 RMK AO2
14926KSTC STC20060622100509606/22/06 10:05:31  5-MIN KSTC 221605Z VRB03KT 10SM SCT035 22/12 A3012 840 52 1900 VRB/03 RMK AO2
14926KSTC STC20060622101009606/22/06 10:10:31  5-MIN KSTC 221610Z 36006KT 10SM SCT037 22/12 A3012 840 52 1800 350/06 RMK AO2
14926KSTC STC20060622101509606/22/06 10:15:31  5-MIN KSTC 221615Z 35008KT 10SM SCT037 22/11 A3012 840 49 1900 350/08 RMK AO2
14926KSTC STC20060622102009606/22/06 10:20:31  5-MIN KSTC 221620Z 32007KT 10SM FEW037 23/11 A3013 840 47 2000 320/07 RMK AO2
14926KSTC STC20060622102509606/22/06 10:25:31  5-MIN KSTC 221625Z VRB06KT 10SM FEW037 22/11 A3013 840 47 1900 VRB/06 RMK AO2
14926KSTC STC20060622103009606/22/06 10:30:31  5-MIN KSTC 221630Z VRB05KT 10SM FEW039 23/11 A3013 830 47 2000 VRB/05 RMK AO2
14926KSTC STC20060622103509606/22/06 10:35:31  5-MIN KSTC 221635Z 02008KT 10SM FEW039 23/11 A3013 830 45 2000 020/08 RMK AO2
14926KSTC STC20060622104009606/22/06 10:40:31  5-MIN KSTC 221640Z 36009KT 10SM SCT041 22/11 A3013 830 47 1900 360/09 RMK AO2
14926KSTC STC20060622104509606/22/06 10:45:31  5-MIN KSTC 221645Z 36004KT 10SM SCT043 22/10 A3013 830 45 1900 360/04 RMK AO2
14926KSTC STC20060622105011306/22/06 10:50:31  5-MIN KSTC 221650Z VRB04KT 10SM FEW043 23/11 A3013 830 45 2000 VRB/04 RMK AO2 SLP209 T02280106
14926KSTC STC20060622105509606/22/06 10:55:31  5-MIN KSTC 221655Z 01007KT 10SM FEW043 23/11 A3013 830 45 2000 010/07 RMK AO2
14926KSTC STC20060622110009606/22/06 11:00:31  5-MIN KSTC 221700Z 35005KT 10SM FEW043 23/11 A3013 830 45 2000 350/05 RMK AO2
14926KSTC STC20060622110510306/22/06 11:05:31  5-MIN KSTC 221705Z VRB06KT 10SM FEW043 SCT075 23/11 A3013 830 45 2000 VRB/06 RMK AO2
14926KSTC STC20060622111009606/22/06 11:10:31  5-MIN KSTC 221710Z VRB06KT 10SM BKN075 23/11 A3013 830 45 2000 VRB/06 RMK AO2
14926KSTC STC20060622111511206/22/06 11:15:31  5-MIN KSTC 221715Z 01008KT 330V040 10SM SCT075 22/11 A3013 830 47 1900 010/08 330V040 RMK AO2
14926KSTC STC20060622112009606/22/06 11:20:31  5-MIN KSTC 221720Z VRB03KT 10SM FEW075 23/11 A3013 830 45 2000 VRB/03 RMK AO2
14926KSTC STC20060622112509606/22/06 11:25:31  5-MIN KSTC 221725Z 00000KT 10SM FEW075 23/10 A3013 830 44 2000 000/00 RMK AO2
14926KSTC STC20060622113009606/22/06 11:30:31  5-MIN KSTC 221730Z 36006KT 10SM FEW075 23/10 A3013 830 44 2000 350/06 RMK AO2
14926KSTC STC20060622113509606/22/06 11:35:31  5-MIN KSTC 221735Z VRB05KT 10SM FEW075 23/09 A3013 830 41 2000 VRB/05 RMK AO2
14926KSTC STC20060622114009306/22/06 11:40:31  5-MIN KSTC 221740Z VRB03KT 10SM CLR 23/10 A3014 830 42 2000 VRB/03 RMK AO2
14926KSTC STC20060622114509306/22/06 11:45:31  5-MIN KSTC 221745Z VRB05KT 10SM CLR 23/10 A3014 830 42 2000 VRB/05 RMK AO2
14926KSTC STC20060622115012806/22/06 11:50:31  5-MIN KSTC 221750Z VRB04KT 10SM CLR 23/10 A3014 830 42 2000 VRB/04 RMK AO2 SLP210 T02330100 10233 20167 53023
14926KSTC STC20060622115509306/22/06 11:55:31  5-MIN KSTC 221755Z VRB06KT 10SM CLR 23/10 A3013 830 42 2000 VRB/06 RMK AO2
14926KSTC STC20060622120011906/22/06 12:00:31  5-MIN KSTC 221800Z 35008KT 320V050 10SM FEW065 BKN150 23/10 A3013 830 42 2000 350/08 320V050 RMK AO2
14926KSTC STC20060622120510306/22/06 12:05:31  5-MIN KSTC 221805Z 30008KT 10SM FEW065 BKN150 23/09 A3013 830 41 2000 300/08 RMK AO2
14926KSTC STC20060622121010306/22/06 12:10:31  5-MIN KSTC 221810Z 35006KT 10SM FEW065 BKN150 23/09 A3013 830 41 2000 340/06 RMK AO2
14926KSTC STC20060622121510306/22/06 12:15:31  5-MIN KSTC 221815Z VRB03KT 10SM FEW065 BKN150 23/09 A3013 830 41 2000 VRB/03 RMK AO2
14926KSTC STC20060622122010306/22/06 12:20:31  5-MIN KSTC 221820Z 36008KT 10SM FEW065 BKN150 24/09 A3013 830 39 2100 350/08 RMK AO2
14926KSTC STC20060622122510306/22/06 12:25:31  5-MIN KSTC 221825Z 34009KT 10SM FEW065 BKN150 23/10 A3013 830 42 2000 340/09 RMK AO2
14926KSTC STC20060622123010306/22/06 12:30:31  5-MIN KSTC 221830Z 36006KT 10SM FEW065 BKN150 23/09 A3013 830 41 2000 360/06 RMK AO2
14926KSTC STC20060622123510306/22/06 12:35:31  5-MIN KSTC 221835Z VRB03KT 10SM FEW065 BKN150 23/10 A3013 830 42 2000 VRB/03 RMK AO2
14926KSTC STC20060622124010306/22/06 12:40:31  5-MIN KSTC 221840Z 01009KT 10SM FEW065 BKN150 24/11 A3013 840 42 2100 360/09 RMK AO2
14926KSTC STC20060622124510306/22/06 12:45:31  5-MIN KSTC 221845Z 34009KT 10SM FEW065 BKN150 23/11 A3013 840 44 2000 340/09 RMK AO2
14926KSTC STC20060622125012006/22/06 12:50:31  5-MIN KSTC 221850Z 34007KT 10SM FEW065 BKN150 23/11 A3012 840 44 2000 340/07 RMK AO2 SLP207 T02330106
14926KSTC STC20060622125509306/22/06 12:55:31  5-MIN KSTC 221855Z 35010KT 10SM CLR 24/11 A3012 840 42 2100 340/10 RMK AO2
14926KSTC STC20060622130010306/22/06 13:00:31  5-MIN KSTC 221900Z 35008KT 10SM FEW065 SCT150 24/11 A3012 840 42 2100 350/08 RMK AO2
14926KSTC STC20060622130510306/22/06 13:05:31  5-MIN KSTC 221905Z 35008KT 10SM FEW065 SCT150 24/10 A3012 840 41 2100 340/08 RMK AO2
14926KSTC STC20060622131011906/22/06 13:10:31  5-MIN KSTC 221910Z 34009KT 320V020 10SM FEW065 SCT150 24/11 A3012 840 42 2100 340/09 320V020 RMK AO2
14926KSTC STC20060622131510306/22/06 13:15:31  5-MIN KSTC 221915Z 35011KT 10SM FEW065 SCT150 24/09 A3012 840 39 2100 350/11 RMK AO2
14926KSTC STC20060622132010306/22/06 13:20:31  5-MIN KSTC 221920Z VRB04KT 10SM FEW065 SCT150 23/09 A3012 840 39 2000 VRB/04 RMK AO2
14926KSTC STC20060622132510306/22/06 13:25:31  5-MIN KSTC 221925Z 34011KT 10SM FEW065 SCT150 24/09 A3012 840 38 2100 340/11 RMK AO2
14926KSTC STC20060622133010306/22/06 13:30:31  5-MIN KSTC 221930Z 35010KT 10SM FEW065 SCT150 24/09 A3012 840 38 2100 340/10 RMK AO2
14926KSTC STC20060622133510306/22/06 13:35:31  5-MIN KSTC 221935Z 34010KT 10SM FEW065 SCT150 24/09 A3012 840 38 2100 340/10 RMK AO2
14926KSTC STC20060622134010306/22/06 13:40:31  5-MIN KSTC 221940Z 03007KT 10SM FEW065 SCT150 24/08 A3012 840 35 2100 030/07 RMK AO2
14926KSTC STC20060622134510306/22/06 13:45:31  5-MIN KSTC 221945Z VRB04KT 10SM FEW065 SCT150 24/08 A3012 840 35 2100 VRB/04 RMK AO2
14926KSTC STC20060622135012006/22/06 13:50:31  5-MIN KSTC 221950Z VRB05KT 10SM FEW065 SCT150 24/08 A3012 840 35 2100 VRB/05 RMK AO2 SLP204 T02390078
14926KSTC STC20060622135509306/22/06 13:55:31  5-MIN KSTC 221955Z 33010KT 10SM CLR 24/08 A3012 840 35 2200 330/10 RMK AO2
14926KSTC STC20060622140009306/22/06 14:00:31  5-MIN KSTC 222000Z 30009KT 10SM CLR 24/08 A3012 840 36 2100 300/09 RMK AO2
14926KSTC STC20060622140509306/22/06 14:05:31  5-MIN KSTC 222005Z 31007KT 10SM CLR 24/08 A3012 840 36 2100 310/07 RMK AO2
14926KSTC STC20060622141009306/22/06 14:10:31  5-MIN KSTC 222010Z 35007KT 10SM CLR 24/08 A3012 840 36 2100 350/07 RMK AO2
14926KSTC STC20060622141509306/22/06 14:15:31  5-MIN KSTC 222015Z VRB04KT 10SM CLR 24/09 A3012 840 36 2200 VRB/04 RMK AO2
14926KSTC STC20060622142009306/22/06 14:20:31  5-MIN KSTC 222020Z 35009KT 10SM CLR 24/08 A3012 840 35 2200 350/09 RMK AO2
14926KSTC STC20060622142509306/22/06 14:25:31  5-MIN KSTC 222025Z 35009KT 10SM CLR 24/08 A3012 840 35 2200 350/09 RMK AO2
14926KSTC STC20060622143009306/22/06 14:30:31  5-MIN KSTC 222030Z 32010KT 10SM CLR 24/08 A3012 840 35 2200 310/10 RMK AO2
14926KSTC STC20060622143509306/22/06 14:35:31  5-MIN KSTC 222035Z 33009KT 10SM CLR 24/08 A3012 840 36 2100 330/09 RMK AO2
14926KSTC STC20060622144010906/22/06 14:40:31  5-MIN KSTC 222040Z 33007KT 300V360 10SM CLR 24/08 A3012 840 36 2100 330/07 300V360 RMK AO2
14926KSTC STC20060622144509306/22/06 14:45:31  5-MIN KSTC 222045Z 33008KT 10SM CLR 25/09 A3012 840 37 2200 330/08 RMK AO2
14926KSTC STC20060622145011606/22/06 14:50:31  5-MIN KSTC 222050Z 32007KT 10SM CLR 24/08 A3012 840 35 2200 320/07 RMK AO2 SLP204 T02440083 51011
14926KSTC STC20060622145509306/22/06 14:55:31  5-MIN KSTC 222055Z 31008KT 10SM CLR 24/08 A3012 840 35 2200 310/08 RMK AO2
14926KSTC STC20060622150009306/22/06 15:00:31  5-MIN KSTC 222100Z 32005KT 10SM CLR 24/09 A3012 840 36 2200 320/05 RMK AO2
14926KSTC STC20060622150509306/22/06 15:05:31  5-MIN KSTC 222105Z 33008KT 10SM CLR 24/09 A3012 840 38 2200 330/08 RMK AO2
14926KSTC STC20060622151009306/22/06 15:10:31  5-MIN KSTC 222110Z VRB05KT 10SM CLR 24/09 A3012 840 38 2200 VRB/05 RMK AO2
14926KSTC STC20060622151509306/22/06 15:15:31  5-MIN KSTC 222115Z 35009KT 10SM CLR 24/10 A3012 840 39 2200 350/09 RMK AO2
14926KSTC STC20060622152009906/22/06 15:20:31  5-MIN KSTC 222120Z 35009G15KT 10SM CLR 24/09 A3012 840 38 2200 350/09G15 RMK AO2
14926KSTC STC20060622152509906/22/06 15:25:31  5-MIN KSTC 222125Z 01006G15KT 10SM CLR 24/09 A3012 840 38 2200 360/06G15 RMK AO2
14926KSTC STC20060622153009306/22/06 15:30:31  5-MIN KSTC 222130Z 35006KT 10SM CLR 24/09 A3012 840 38 2200 350/06 RMK AO2
14926KSTC STC20060622153509306/22/06 15:35:31  5-MIN KSTC 222135Z 36008KT 10SM CLR 24/09 A3012 840 38 2100 350/08 RMK AO2
14926KSTC STC20060622154009306/22/06 15:40:31  5-MIN KSTC 222140Z VRB06KT 10SM CLR 24/09 A3012 840 36 2200 VRB/06 RMK AO2
14926KSTC STC20060622154509306/22/06 15:45:31  5-MIN KSTC 222145Z 34008KT 10SM CLR 24/08 A3012 840 35 2200 330/08 RMK AO2
14926KSTC STC20060622155011306/22/06 15:50:31  5-MIN KSTC 222150Z 34007KT 10SM FEW080 24/08 A3012 840 35 2100 340/07 RMK AO2 SLP206 T02390078
14926KSTC STC20060622155509306/22/06 15:55:31  5-MIN KSTC 222155Z 01008KT 10SM CLR 24/08 A3012 840 35 2200 360/08 RMK AO2
14926KSTC STC20060622160009306/22/06 16:00:31  5-MIN KSTC 222200Z 34006KT 10SM CLR 24/08 A3013 840 35 2200 340/06 RMK AO2
14926KSTC STC20060622160509306/22/06 16:05:31  5-MIN KSTC 222205Z 35008KT 10SM CLR 24/08 A3013 840 34 2200 340/08 RMK AO2
14926KSTC STC20060622161009306/22/06 16:10:31  5-MIN KSTC 222210Z 34009KT 10SM CLR 24/07 A3013 840 33 2200 340/09 RMK AO2
14926KSTC STC20060622161509306/22/06 16:15:31  5-MIN KSTC 222215Z 35007KT 10SM CLR 24/07 A3013 840 34 2100 350/07 RMK AO2
14926KSTC STC20060622162009306/22/06 16:20:31  5-MIN KSTC 222220Z VRB06KT 10SM CLR 24/07 A3013 840 34 2100 VRB/06 RMK AO2
14926KSTC STC20060622162509306/22/06 16:25:31  5-MIN KSTC 222225Z 34008KT 10SM CLR 24/07 A3013 840 33 2200 340/08 RMK AO2
14926KSTC STC20060622163009306/22/06 16:30:31  5-MIN KSTC 222230Z 36006KT 10SM CLR 24/07 A3013 830 34 2100 350/06 RMK AO2
14926KSTC STC20060622163509306/22/06 16:35:31  5-MIN KSTC 222235Z 35008KT 10SM CLR 24/07 A3013 830 34 2100 350/08 RMK AO2
14926KSTC STC20060622164009306/22/06 16:40:31  5-MIN KSTC 222240Z 34010KT 10SM CLR 24/07 A3013 830 34 2100 340/10 RMK AO2
14926KSTC STC20060622164509306/22/06 16:45:31  5-MIN KSTC 222245Z 35007KT 10SM CLR 24/07 A3013 830 34 2100 350/07 RMK AO2
14926KSTC STC20060622165011306/22/06 16:50:31  5-MIN KSTC 222250Z 36007KT 10SM FEW080 24/07 A3013 840 34 2100 350/07 RMK AO2 SLP208 T02390072
14926KSTC STC20060622165509306/22/06 16:55:31  5-MIN KSTC 222255Z 02007KT 10SM CLR 24/07 A3013 840 32 2100 020/07 RMK AO2
14926KSTC STC20060622170009306/22/06 17:00:31  5-MIN KSTC 222300Z 36006KT 10SM CLR 24/07 A3013 830 34 2100 360/06 RMK AO2
14926KSTC STC20060622170509306/22/06 17:05:31  5-MIN KSTC 222305Z 03008KT 10SM CLR 24/07 A3013 840 32 2100 020/08 RMK AO2
14926KSTC STC20060622171009306/22/06 17:10:31  5-MIN KSTC 222310Z 36006KT 10SM CLR 24/07 A3013 840 32 2100 360/06 RMK AO2
14926KSTC STC20060622171509306/22/06 17:15:31  5-MIN KSTC 222315Z 36007KT 10SM CLR 24/07 A3013 840 34 2100 360/07 RMK AO2
14926KSTC STC20060622172010906/22/06 17:20:31  5-MIN KSTC 222320Z 36007KT 330V030 10SM CLR 24/07 A3013 840 34 2100 350/07 330V030 RMK AO2
14926KSTC STC20060622172509306/22/06 17:25:31  5-MIN KSTC 222325Z 01006KT 10SM CLR 24/07 A3013 840 34 2100 010/06 RMK AO2
14926KSTC STC20060622173009306/22/06 17:30:31  5-MIN KSTC 222330Z 01006KT 10SM CLR 23/07 A3013 840 33 2000 010/06 RMK AO2
14926KSTC STC20060622173509306/22/06 17:35:31  5-MIN KSTC 222335Z 03005KT 10SM CLR 23/06 A3013 840 32 2000 020/05 RMK AO2
14926KSTC STC20060622174009306/22/06 17:40:31  5-MIN KSTC 222340Z 02008KT 10SM CLR 23/07 A3013 830 33 2000 020/08 RMK AO2
14926KSTC STC20060622174509306/22/06 17:45:31  5-MIN KSTC 222345Z 01007KT 10SM CLR 23/06 A3013 830 32 2000 010/07 RMK AO2
14926KSTC STC20060622175013106/22/06 17:50:31  5-MIN KSTC 222350Z 36007KT 10SM FEW120 23/06 A3013 830 32 2000 360/07 RMK AO2 SLP209 T02330061 10250 20228 56005
14926KSTC STC20060622175509306/22/06 17:55:31  5-MIN KSTC 222355Z 35006KT 10SM CLR 23/07 A3013 830 33 2000 350/06 RMK AO2
14926KSTC STC20060622180009306/22/06 18:00:31  5-MIN KSTC 230000Z 02007KT 10SM CLR 23/06 A3013 830 32 2000 010/07 RMK AO2
14926KSTC STC20060622180509306/22/06 18:05:31  5-MIN KSTC 230005Z 02006KT 10SM CLR 23/06 A3013 830 32 2000 020/06 RMK AO2
14926KSTC STC20060622181009306/22/06 18:10:31  5-MIN KSTC 230010Z 36005KT 10SM CLR 23/07 A3013 830 33 2000 350/05 RMK AO2
14926KSTC STC20060622181509306/22/06 18:15:31  5-MIN KSTC 230015Z 01008KT 10SM CLR 23/07 A3013 830 33 2000 010/08 RMK AO2
14926KSTC STC20060622182009306/22/06 18:20:31  5-MIN KSTC 230020Z 02005KT 10SM CLR 23/07 A3013 830 35 2000 020/05 RMK AO2
14926KSTC STC20060622182509306/22/06 18:25:31  5-MIN KSTC 230025Z 03006KT 10SM CLR 23/07 A3013 830 36 2000 020/06 RMK AO2
14926KSTC STC20060622183009306/22/06 18:30:31  5-MIN KSTC 230030Z 04005KT 10SM CLR 23/07 A3013 830 36 2000 040/05 RMK AO2
14926KSTC STC20060622183509306/22/06 18:35:31  5-MIN KSTC 230035Z 04006KT 10SM CLR 23/07 A3013 830 36 2000 040/06 RMK AO2
14926KSTC STC20060622184009306/22/06 18:40:31  5-MIN KSTC 230040Z 04006KT 10SM CLR 23/07 A3013 830 36 2000 040/06 RMK AO2
14926KSTC STC20060622184509306/22/06 18:45:31  5-MIN KSTC 230045Z 04004KT 10SM CLR 22/07 A3013 830 37 1900 030/04 RMK AO2
14926KSTC STC20060622185011006/22/06 18:50:31  5-MIN KSTC 230050Z 03004KT 10SM CLR 23/07 A3013 830 36 2000 030/04 RMK AO2 SLP207 T02280072
14926KSTC STC20060622185509306/22/06 18:55:31  5-MIN KSTC 230055Z 01004KT 10SM CLR 22/07 A3013 830 37 1900 010/04 RMK AO2
14926KSTC STC20060622190009306/22/06 19:00:31  5-MIN KSTC 230100Z 02003KT 10SM CLR 22/07 A3013 830 37 1900 020/03 RMK AO2
14926KSTC STC20060622190509306/22/06 19:05:31  5-MIN KSTC 230105Z 02004KT 10SM CLR 22/08 A3013 830 39 1900 010/04 RMK AO2
14926KSTC STC20060622191009306/22/06 19:10:31  5-MIN KSTC 230110Z 03004KT 10SM CLR 22/08 A3013 830 39 1900 020/04 RMK AO2
14926KSTC STC20060622191509306/22/06 19:15:31  5-MIN KSTC 230115Z 05005KT 10SM CLR 22/08 A3013 830 40 1800 050/05 RMK AO2
14926KSTC STC20060622192009306/22/06 19:20:31  5-MIN KSTC 230120Z 06005KT 10SM CLR 21/08 A3013 840 42 1800 050/05 RMK AO2
14926KSTC STC20060622192509306/22/06 19:25:31  5-MIN KSTC 230125Z 05004KT 10SM CLR 21/08 A3013 840 45 1700 050/04 RMK AO2
14926KSTC STC20060622193009306/22/06 19:30:31  5-MIN KSTC 230130Z 06005KT 10SM CLR 21/08 A3013 840 45 1700 050/05 RMK AO2
14926KSTC STC20060622193509306/22/06 19:35:31  5-MIN KSTC 230135Z 05004KT 10SM CLR 20/08 A3013 830 46 1600 050/04 RMK AO2
14926KSTC STC20060622194009306/22/06 19:40:31  5-MIN KSTC 230140Z 04005KT 10SM CLR 20/08 A3013 830 46 1600 040/05 RMK AO2
14926KSTC STC20060622194509306/22/06 19:45:31  5-MIN KSTC 230145Z 05005KT 10SM CLR 20/08 A3013 830 45 1600 040/05 RMK AO2
14926KSTC STC20060622195011006/22/06 19:50:31  5-MIN KSTC 230150Z 06006KT 10SM CLR 19/08 A3013 830 46 1600 050/06 RMK AO2 SLP208 T01940078
14926KSTC STC20060622195509306/22/06 19:55:31  5-MIN KSTC 230155Z 06005KT 10SM CLR 19/08 A3013 830 46 1600 050/05 RMK AO2
14926KSTC STC20060622200009306/22/06 20:00:31  5-MIN KSTC 230200Z 07003KT 10SM CLR 19/08 A3013 830 48 1500 060/03 RMK AO2
14926KSTC STC20060622200509306/22/06 20:05:31  5-MIN KSTC 230205Z 07003KT 10SM CLR 19/08 A3013 830 50 1500 060/03 RMK AO2
14926KSTC STC20060622201009306/22/06 20:10:31  5-MIN KSTC 230210Z 00000KT 10SM CLR 19/08 A3013 830 50 1500 000/00 RMK AO2
14926KSTC STC20060622201509306/22/06 20:15:31  5-MIN KSTC 230215Z 00000KT 10SM CLR 18/08 A3014 830 52 1400 000/00 RMK AO2
14926KSTC STC20060622202009306/22/06 20:20:31  5-MIN KSTC 230220Z 00000KT 10SM CLR 18/08 A3014 820 52 1400 000/00 RMK AO2
14926KSTC STC20060622202509306/22/06 20:25:31  5-MIN KSTC 230225Z 00000KT 10SM CLR 18/08 A3014 820 52 1400 000/00 RMK AO2
14926KSTC STC20060622203009306/22/06 20:30:31  5-MIN KSTC 230230Z 08003KT 10SM CLR 18/08 A3014 820 53 1400 080/03 RMK AO2
14926KSTC STC20060622203509306/22/06 20:35:31  5-MIN KSTC 230235Z 08003KT 10SM CLR 18/08 A3015 820 53 1400 070/03 RMK AO2
14926KSTC STC20060622204009306/22/06 20:40:31  5-MIN KSTC 230240Z 00000KT 10SM CLR 17/08 A3015 820 55 1300 000/00 RMK AO2
14926KSTC STC20060622204509306/22/06 20:45:31  5-MIN KSTC 230245Z 00000KT 10SM CLR 17/08 A3015 810 55 1300 000/00 RMK AO2
14926KSTC STC20060622205011606/22/06 20:50:31  5-MIN KSTC 230250Z 00000KT 10SM CLR 17/08 A3015 810 55 1300 000/00 RMK AO2 SLP218 T01720083 53004
14926KSTC STC20060622205509306/22/06 20:55:31  5-MIN KSTC 230255Z 00000KT 10SM CLR 17/08 A3016 810 55 1300 000/00 RMK AO2
14926KSTC STC20060622210009306/22/06 21:00:31  5-MIN KSTC 230300Z 06003KT 10SM CLR 17/08 A3016 810 55 1300 060/03 RMK AO2
14926KSTC STC20060622210509306/22/06 21:05:31  5-MIN KSTC 230305Z 06003KT 10SM CLR 17/08 A3016 810 57 1200 060/03 RMK AO2
14926KSTC STC20060622211009306/22/06 21:10:31  5-MIN KSTC 230310Z 06003KT 10SM CLR 17/08 A3016 800 57 1200 050/03 RMK AO2
14926KSTC STC20060622211509306/22/06 21:15:31  5-MIN KSTC 230315Z 06003KT 10SM CLR 17/08 A3016 800 57 1200 050/03 RMK AO2
14926KSTC STC20060622212009306/22/06 21:20:31  5-MIN KSTC 230320Z 05003KT 10SM CLR 17/08 A3016 800 57 1200 050/03 RMK AO2
14926KSTC STC20060622212509306/22/06 21:25:31  5-MIN KSTC 230325Z 05003KT 10SM CLR 16/08 A3016 800 59 1200 050/03 RMK AO2
14926KSTC STC20060622213009306/22/06 21:30:31  5-MIN KSTC 230330Z 00000KT 10SM CLR 16/08 A3016 800 59 1200 000/00 RMK AO2
14926KSTC STC20060622213509306/22/06 21:35:31  5-MIN KSTC 230335Z 00000KT 10SM CLR 16/08 A3017 800 59 1200 000/00 RMK AO2
14926KSTC STC20060622214009306/22/06 21:40:31  5-MIN KSTC 230340Z 00000KT 10SM CLR 16/08 A3017 800 62 1100 000/00 RMK AO2
14926KSTC STC20060622214509306/22/06 21:45:31  5-MIN KSTC 230345Z 00000KT 10SM CLR 16/08 A3017 800 62 1100 000/00 RMK AO2
14926KSTC STC20060622215011506/22/06 21:50:31  5-MIN KSTC 230350Z AUTO 07003KT 10SM CLR 14/08 A3017 800 66 1000 060/03 RMK AO2 SLP222 T01440083
14926KSTC STC20060622215509806/22/06 21:55:31  5-MIN KSTC 230355Z AUTO 06003KT 10SM CLR 15/08 A3017 800 62 1000 060/03 RMK AO2
14926KSTC STC20060622220009806/22/06 22:00:31  5-MIN KSTC 230400Z AUTO 06003KT 10SM CLR 16/08 A3017 800 59 1100 060/03 RMK AO2
14926KSTC STC20060622220509806/22/06 22:05:31  5-MIN KSTC 230405Z AUTO 00000KT 10SM CLR 15/08 A3017 800 64 1000 000/00 RMK AO2
14926KSTC STC20060622221009706/22/06 22:10:31  5-MIN KSTC 230410Z AUTO 00000KT 10SM CLR 14/08 A3017 800 69 900 000/00 RMK AO2
14926KSTC STC20060622221509706/22/06 22:15:31  5-MIN KSTC 230415Z AUTO 00000KT 10SM CLR 14/08 A3017 800 69 900 000/00 RMK AO2
14926KSTC STC20060622222009806/22/06 22:20:31  5-MIN KSTC 230420Z AUTO 00000KT 10SM CLR 14/09 A3017 800 69 1000 000/00 RMK AO2
14926KSTC STC20060622222509706/22/06 22:25:31  5-MIN KSTC 230425Z AUTO 00000KT 10SM CLR 14/08 A3017 800 69 900 000/00 RMK AO2
14926KSTC STC20060622223009706/22/06 22:30:31  5-MIN KSTC 230430Z AUTO 00000KT 10SM CLR 13/09 A3017 800 74 800 000/00 RMK AO2
14926KSTC STC20060622223509706/22/06 22:35:31  5-MIN KSTC 230435Z AUTO 00000KT 10SM CLR 13/10 A3017 800 80 800 000/00 RMK AO2
14926KSTC STC20060622224009706/22/06 22:40:31  5-MIN KSTC 230440Z AUTO 00000KT 10SM CLR 13/10 A3017 800 80 800 000/00 RMK AO2
14926KSTC STC20060622224509706/22/06 22:45:31  5-MIN KSTC 230445Z AUTO 00000KT 10SM CLR 13/09 A3017 800 74 800 000/00 RMK AO2
14926KSTC STC20060622225011406/22/06 22:50:31  5-MIN KSTC 230450Z AUTO 00000KT 10SM CLR 13/09 A3017 800 74 800 000/00 RMK AO2 SLP223 T01330089
14926KSTC STC20060622225509706/22/06 22:55:31  5-MIN KSTC 230455Z AUTO 00000KT 10SM CLR 13/09 A3017 800 77 800 000/00 RMK AO2
14926KSTC STC20060622230009706/22/06 23:00:31  5-MIN KSTC 230500Z AUTO 00000KT 10SM CLR 12/09 A3017 800 83 700 000/00 RMK AO2
14926KSTC STC20060622230509706/22/06 23:05:31  5-MIN KSTC 230505Z AUTO 00000KT 10SM CLR 12/09 A3017 790 80 700 000/00 RMK AO2
14926KSTC STC20060622231009706/22/06 23:10:31  5-MIN KSTC 230510Z AUTO 00000KT 10SM CLR 13/08 A3017 790 74 800 000/00 RMK AO2
14926KSTC STC20060622231509706/22/06 23:15:31  5-MIN KSTC 230515Z AUTO 00000KT 10SM CLR 13/09 A3017 800 77 800 000/00 RMK AO2
14926KSTC STC20060622232009706/22/06 23:20:31  5-MIN KSTC 230520Z AUTO 00000KT 10SM CLR 13/09 A3017 800 77 800 000/00 RMK AO2
14926KSTC STC20060622232509706/22/06 23:25:31  5-MIN KSTC 230525Z AUTO 00000KT 10SM CLR 13/09 A3017 800 77 800 000/00 RMK AO2
14926KSTC STC20060622233009706/22/06 23:30:31  5-MIN KSTC 230530Z AUTO 00000KT 10SM CLR 13/09 A3017 800 77 800 000/00 RMK AO2
14926KSTC STC20060622233509706/22/06 23:35:31  5-MIN KSTC 230535Z AUTO 00000KT 10SM CLR 12/09 A3017 790 80 700 000/00 RMK AO2
14926KSTC STC20060622234009706/22/06 23:40:31  5-MIN KSTC 230540Z AUTO 00000KT 10SM CLR 12/09 A3017 790 80 700 000/00 RMK AO2
14926KSTC STC20060622234509706/22/06 23:45:31  5-MIN KSTC 230545Z AUTO 00000KT 10SM CLR 13/09 A3017 790 77 800 000/00 RMK AO2
14926KSTC STC20060622235014206/22/06 23:50:31  5-MIN KSTC 230550Z AUTO 00000KT 10SM CLR 13/09 A3017 790 77 800 000/00 RMK AO2 SLP224 T01280089 10233 20117 402500117 53008
14926KSTC STC20060622235509706/22/06 23:55:31  5-MIN KSTC 230555Z AUTO 00000KT 10SM CLR 12/09 A3017 790 83 600 000/00 RMK AO2
14926KSTC STC20060623000009706/23/06 00:00:32  5-MIN KSTC 230600Z AUTO 00000KT 10SM CLR 12/09 A3017 790 80 700 000/00 RMK AO2
14926KSTC STC20060623000509706/23/06 00:05:31  5-MIN KSTC 230605Z AUTO 00000KT 10SM CLR 12/09 A3017 790 80 700 000/00 RMK AO2
14926KSTC STC20060623001009706/23/06 00:10:31  5-MIN KSTC 230610Z AUTO 00000KT 10SM CLR 12/09 A3017 790 80 700 000/00 RMK AO2
14926KSTC STC20060623001509706/23/06 00:15:31  5-MIN KSTC 230615Z AUTO 00000KT 10SM CLR 12/09 A3017 790 86 600 000/00 RMK AO2
14926KSTC STC20060623002009706/23/06 00:20:31  5-MIN KSTC 230620Z AUTO 00000KT 10SM CLR 11/09 A3017 790 89 600 000/00 RMK AO2
14926KSTC STC20060623002509706/23/06 00:25:31  5-MIN KSTC 230625Z AUTO 00000KT 10SM CLR 12/10 A3017 790 89 600 000/00 RMK AO2
14926KSTC STC20060623003009706/23/06 00:30:31  5-MIN KSTC 230630Z AUTO 00000KT 10SM CLR 11/09 A3017 790 89 600 000/00 RMK AO2
14926KSTC STC20060623003509706/23/06 00:35:31  5-MIN KSTC 230635Z AUTO 00000KT 10SM CLR 12/09 A3017 790 86 600 000/00 RMK AO2
14926KSTC STC20060623004009706/23/06 00:40:31  5-MIN KSTC 230640Z AUTO 00000KT 10SM CLR 12/09 A3017 790 86 600 000/00 RMK AO2
14926KSTC STC20060623004509706/23/06 00:45:31  5-MIN KSTC 230645Z AUTO 00000KT 10SM CLR 12/09 A3017 790 86 600 000/00 RMK AO2
14926KSTC STC20060623005011406/23/06 00:50:31  5-MIN KSTC 230650Z AUTO 00000KT 10SM CLR 12/09 A3017 790 86 600 000/00 RMK AO2 SLP225 T01170094
14926KSTC STC20060623005509706/23/06 00:55:31  5-MIN KSTC 230655Z AUTO 00000KT 10SM CLR 12/09 A3017 790 83 600 000/00 RMK AO2
14926KSTC STC20060623010009706/23/06 01:00:31  5-MIN KSTC 230700Z AUTO 00000KT 10SM CLR 12/09 A3017 790 83 600 000/00 RMK AO2
14926KSTC STC20060623010509706/23/06 01:05:31  5-MIN KSTC 230705Z AUTO 00000KT 10SM CLR 11/09 A3017 790 86 600 000/00 RMK AO2
14926KSTC STC20060623011009706/23/06 01:10:31  5-MIN KSTC 230710Z AUTO 00000KT 10SM CLR 12/09 A3017 790 83 600 000/00 RMK AO2
14926KSTC STC20060623011509706/23/06 01:15:31  5-MIN KSTC 230715Z AUTO 00000KT 10SM CLR 11/09 A3018 790 86 600 000/00 RMK AO2
14926KSTC STC20060623012009706/23/06 01:20:31  5-MIN KSTC 230720Z AUTO 00000KT 10SM CLR 11/09 A3018 790 89 600 000/00 RMK AO2
14926KSTC STC20060623012509706/23/06 01:25:31  5-MIN KSTC 230725Z AUTO 00000KT 10SM CLR 11/09 A3018 790 86 600 000/00 RMK AO2
14926KSTC STC20060623013009706/23/06 01:30:31  5-MIN KSTC 230730Z AUTO 00000KT 10SM CLR 11/09 A3018 790 89 500 000/00 RMK AO2
14926KSTC STC20060623013509706/23/06 01:35:31  5-MIN KSTC 230735Z AUTO 00000KT 10SM CLR 11/09 A3018 790 86 600 000/00 RMK AO2
14926KSTC STC20060623014009706/23/06 01:40:31  5-MIN KSTC 230740Z AUTO 00000KT 10SM CLR 11/09 A3018 790 86 600 000/00 RMK AO2
14926KSTC STC20060623014509706/23/06 01:45:31  5-MIN KSTC 230745Z AUTO 00000KT 10SM CLR 11/09 A3018 790 86 600 000/00 RMK AO2
14926KSTC STC20060623015011406/23/06 01:50:31  5-MIN KSTC 230750Z AUTO 00000KT 10SM CLR 11/09 A3018 790 89 500 000/00 RMK AO2 SLP227 T01060089
14926KSTC STC20060623015509706/23/06 01:55:31  5-MIN KSTC 230755Z AUTO 00000KT 10SM CLR 11/09 A3018 790 89 500 000/00 RMK AO2
14926KSTC STC20060623020009706/23/06 02:00:31  5-MIN KSTC 230800Z AUTO 00000KT 10SM CLR 11/09 A3018 790 89 500 000/00 RMK AO2
14926KSTC STC20060623020509706/23/06 02:05:31  5-MIN KSTC 230805Z AUTO 00000KT 10SM CLR 11/09 A3018 790 89 500 000/00 RMK AO2
14926KSTC STC20060623021009706/23/06 02:10:31  5-MIN KSTC 230810Z AUTO 00000KT 10SM CLR 11/09 A3018 790 93 500 000/00 RMK AO2
14926KSTC STC20060623021509706/23/06 02:15:31  5-MIN KSTC 230815Z AUTO 00000KT 10SM CLR 11/09 A3018 780 89 500 000/00 RMK AO2
14926KSTC STC20060623022009706/23/06 02:20:31  5-MIN KSTC 230820Z AUTO 00000KT 10SM CLR 11/09 A3018 780 89 500 000/00 RMK AO2
14926KSTC STC20060623022509706/23/06 02:25:31  5-MIN KSTC 230825Z AUTO 00000KT 10SM CLR 11/09 A3018 780 89 500 000/00 RMK AO2
14926KSTC STC20060623023009706/23/06 02:30:31  5-MIN KSTC 230830Z AUTO 00000KT 10SM CLR 11/09 A3018 780 93 500 000/00 RMK AO2
14926KSTC STC20060623023509706/23/06 02:35:31  5-MIN KSTC 230835Z AUTO 00000KT 10SM CLR 10/09 A3018 780 96 400 000/00 RMK AO2
14926KSTC STC20060623024009706/23/06 02:40:31  5-MIN KSTC 230840Z AUTO 00000KT 10SM CLR 10/09 A3019 780 93 400 000/00 RMK AO2
14926KSTC STC20060623024509706/23/06 02:45:31  5-MIN KSTC 230845Z AUTO 00000KT 10SM CLR 10/09 A3019 780 93 400 000/00 RMK AO2
14926KSTC STC20060623025012006/23/06 02:50:31  5-MIN KSTC 230850Z AUTO 00000KT 10SM CLR 11/09 A3019 780 89 500 000/00 RMK AO2 SLP230 T01060089 51005
14926KSTC STC20060623025509706/23/06 02:55:31  5-MIN KSTC 230855Z AUTO 00000KT 10SM CLR 11/09 A3019 780 89 500 000/00 RMK AO2
14926KSTC STC20060623030009706/23/06 03:00:31  5-MIN KSTC 230900Z AUTO 00000KT 10SM CLR 10/09 A3019 780 93 400 000/00 RMK AO2
14926KSTC STC20060623030509706/23/06 03:05:31  5-MIN KSTC 230905Z AUTO 00000KT 10SM CLR 10/09 A3019 780 93 400 000/00 RMK AO2
14926KSTC STC20060623031009706/23/06 03:10:31  5-MIN KSTC 230910Z AUTO 00000KT 10SM CLR 10/09 A3019 780 93 400 000/00 RMK AO2
14926KSTC STC20060623031509706/23/06 03:15:31  5-MIN KSTC 230915Z AUTO 11003KT 10SM CLR 10/09 A3019 780 93 400 100/03 RMK AO2
14926KSTC STC20060623032009706/23/06 03:20:31  5-MIN KSTC 230920Z AUTO 00000KT 10SM CLR 10/09 A3019 780 93 400 000/00 RMK AO2
14926KSTC STC20060623032509706/23/06 03:25:31  5-MIN KSTC 230925Z AUTO 00000KT 10SM CLR 10/08 A3019 780 89 400 000/00 RMK AO2
14926KSTC STC20060623033009706/23/06 03:30:31  5-MIN KSTC 230930Z AUTO 00000KT 10SM CLR 10/09 A3019 780 93 400 000/00 RMK AO2
14926KSTC STC20060623033509706/23/06 03:35:31  5-MIN KSTC 230935Z AUTO 00000KT 10SM CLR 11/09 A3019 780 89 500 000/00 RMK AO2
14926KSTC STC20060623034009706/23/06 03:40:31  5-MIN KSTC 230940Z AUTO 00000KT 10SM CLR 11/08 A3019 780 86 500 000/00 RMK AO2
14926KSTC STC20060623034509706/23/06 03:45:31  5-MIN KSTC 230945Z AUTO 00000KT 10SM CLR 10/08 A3019 780 89 400 000/00 RMK AO2
14926KSTC STC20060623035011406/23/06 03:50:31  5-MIN KSTC 230950Z AUTO 11003KT 10SM CLR 10/08 A3019 780 89 400 110/03 RMK AO2 SLP231 T01000083
14926KSTC STC20060623035509706/23/06 03:55:31  5-MIN KSTC 230955Z AUTO 12003KT 10SM CLR 10/08 A3019 780 89 400 120/03 RMK AO2
14926KSTC STC20060623040009706/23/06 04:00:31  5-MIN KSTC 231000Z AUTO 00000KT 10SM CLR 10/08 A3019 780 89 400 000/00 RMK AO2
14926KSTC STC20060623040509706/23/06 04:05:31  5-MIN KSTC 231005Z AUTO 00000KT 10SM CLR 10/08 A3019 780 89 400 000/00 RMK AO2
14926KSTC STC20060623041009706/23/06 04:10:31  5-MIN KSTC 231010Z AUTO 00000KT 10SM CLR 10/08 A3019 780 89 400 000/00 RMK AO2
14926KSTC STC20060623041509706/23/06 04:15:31  5-MIN KSTC 231015Z AUTO 00000KT 10SM CLR 10/08 A3019 780 89 400 000/00 RMK AO2
14926KSTC STC20060623042009706/23/06 04:20:31  5-MIN KSTC 231020Z AUTO 00000KT 10SM CLR 11/09 A3019 780 89 500 000/00 RMK AO2
14926KSTC STC20060623042509706/23/06 04:25:31  5-MIN KSTC 231025Z AUTO 00000KT 10SM CLR 11/09 A3019 780 89 500 000/00 RMK AO2
14926KSTC STC20060623043009706/23/06 04:30:31  5-MIN KSTC 231030Z AUTO 00000KT 10SM CLR 10/09 A3019 780 93 400 000/00 RMK AO2
14926KSTC STC20060623043509706/23/06 04:35:31  5-MIN KSTC 231035Z AUTO 00000KT 10SM CLR 11/09 A3019 780 89 500 000/00 RMK AO2
14926KSTC STC20060623044009706/23/06 04:40:31  5-MIN KSTC 231040Z AUTO 00000KT 10SM CLR 11/09 A3019 780 89 500 000/00 RMK AO2
14926KSTC STC20060623044510006/23/06 04:45:31  5-MIN KSTC 231045Z AUTO 00000KT 10SM FEW050 11/09 A3019 780 89 500 000/00 RMK AO2
14926KSTC STC20060623045011706/23/06 04:50:31  5-MIN KSTC 231050Z AUTO 00000KT 10SM SCT050 11/09 A3019 780 89 500 000/00 RMK AO2 SLP231 T01060089
14926KSTC STC20060623045510006/23/06 04:55:31  5-MIN KSTC 231055Z AUTO 00000KT 10SM SCT050 11/09 A3019 780 89 500 000/00 RMK AO2
14926KSTC STC20060623050010006/23/06 05:00:31  5-MIN KSTC 231100Z AUTO 00000KT 10SM SCT050 11/09 A3019 780 89 500 000/00 RMK AO2
14926KSTC STC20060623050510006/23/06 05:05:31  5-MIN KSTC 231105Z AUTO 00000KT 10SM SCT050 11/09 A3019 780 89 500 000/00 RMK AO2
14926KSTC STC20060623051010006/23/06 05:10:31  5-MIN KSTC 231110Z AUTO 00000KT 10SM SCT050 11/09 A3019 780 89 500 000/00 RMK AO2
14926KSTC STC20060623051510006/23/06 05:15:31  5-MIN KSTC 231115Z AUTO 00000KT 10SM SCT055 11/09 A3019 780 89 500 000/00 RMK AO2
14926KSTC STC20060623052010006/23/06 05:20:31  5-MIN KSTC 231120Z AUTO 00000KT 10SM SCT055 12/09 A3018 780 86 600 000/00 RMK AO2
14926KSTC STC20060623052510006/23/06 05:25:31  5-MIN KSTC 231125Z AUTO 00000KT 10SM FEW055 12/09 A3018 780 86 600 000/00 RMK AO2
14926KSTC STC20060623053010006/23/06 05:30:31  5-MIN KSTC 231130Z AUTO 00000KT 10SM FEW055 12/10 A3019 780 86 700 000/00 RMK AO2
14926KSTC STC20060623053510006/23/06 05:35:31  5-MIN KSTC 231135Z AUTO 00000KT 10SM FEW055 12/10 A3019 780 86 700 000/00 RMK AO2
14926KSTC STC20060625232009706/25/06 23:20:31  5-MIN KSTC 260520Z AUTO 00000KT 10SM CLR 14/13 A3019 780 93 900 000/00 RMK AO2
14926KSTC STC20060625232509706/25/06 23:25:31  5-MIN KSTC 260525Z AUTO 00000KT 10SM CLR 14/13 A3019 780 93 900 000/00 RMK AO2
14926KSTC STC20060625233009706/25/06 23:30:31  5-MIN KSTC 260530Z AUTO 00000KT 10SM CLR 14/13 A3019 780 96 900 000/00 RMK AO2
14926KSTC STC20060625233509706/25/06 23:35:31  5-MIN KSTC 260535Z AUTO 00000KT 10SM CLR 14/13 A3019 780 96 900 000/00 RMK AO2
14926KSTC STC20060625234009706/25/06 23:40:31  5-MIN KSTC 260540Z AUTO 00000KT 10SM CLR 14/13 A3018 780 93 900 000/00 RMK AO2
14926KSTC STC20060625234509706/25/06 23:45:31  5-MIN KSTC 260545Z AUTO 00000KT 10SM CLR 14/13 A3019 780 93 900 000/00 RMK AO2
14926KSTC STC20060625235014106/25/06 23:50:31  5-MIN KSTC 260550Z AUTO 00000KT 9SM CLR 14/13 A3019 780 96 900 000/00 RMK AO2 SLP228 T01390133 10256 20139 402610139 53000
14926KSTC STC20060625235509606/25/06 23:55:31  5-MIN KSTC 260555Z AUTO 00000KT 8SM CLR 14/13 A3019 780 96 900 000/00 RMK AO2
14926KSTC STC20060626000009606/26/06 00:00:32  5-MIN KSTC 260600Z AUTO 00000KT 7SM CLR 14/13 A3019 780 93 900 000/00 RMK AO2
14926KSTC STC20060626000509906/26/06 00:05:31  5-MIN KSTC 260605Z AUTO 00000KT 6SM BR CLR 14/13 A3019 780 93 900 000/00 RMK AO2
14926KSTC STC20060626001009606/26/06 00:10:31  5-MIN KSTC 260610Z AUTO 00000KT 8SM CLR 14/13 A3018 780 93 900 000/00 RMK AO2
14926KSTC STC20060626001509706/26/06 00:15:31  5-MIN KSTC 260615Z AUTO 00000KT 10SM CLR 14/13 A3018 780 96 900 000/00 RMK AO2
14926KSTC STC20060626002009606/26/06 00:20:31  5-MIN KSTC 260620Z AUTO 00000KT 9SM CLR 14/13 A3018 780 96 900 000/00 RMK AO2
14926KSTC STC20060626002509606/26/06 00:25:31  5-MIN KSTC 260625Z AUTO 31004KT 9SM CLR 14/13 A3018 780 96 900 300/04 RMK AO2
14926KSTC STC20060626003009606/26/06 00:30:31  5-MIN KSTC 260630Z AUTO 31004KT 9SM CLR 13/13 A3018 790 96 800 310/04 RMK AO2
14926KSTC STC20060626003509606/26/06 00:35:31  5-MIN KSTC 260635Z AUTO 32004KT 9SM CLR 14/13 A3018 790 93 900 310/04 RMK AO2
14926KSTC STC20060626004009706/26/06 00:40:31  5-MIN KSTC 260640Z AUTO 31004KT 10SM CLR 14/13 A3018 790 93 900 310/04 RMK AO2
14926KSTC STC20060626004509606/26/06 00:45:31  5-MIN KSTC 260645Z AUTO 32003KT 9SM CLR 14/13 A3018 790 93 900 320/03 RMK AO2
14926KSTC STC20060626005011306/26/06 00:50:31  5-MIN KSTC 260650Z AUTO 32003KT 9SM CLR 14/13 A3018 790 93 900 320/03 RMK AO2 SLP225 T01390128
14926KSTC STC20060626005509606/26/06 00:55:31  5-MIN KSTC 260655Z AUTO 32004KT 9SM CLR 14/13 A3018 790 93 900 320/04 RMK AO2
14926KSTC STC20060626010009606/26/06 01:00:31  5-MIN KSTC 260700Z AUTO 33003KT 9SM CLR 13/13 A3018 790 96 800 320/03 RMK AO2
14926KSTC STC20060626010509606/26/06 01:05:31  5-MIN KSTC 260705Z AUTO 33003KT 9SM CLR 13/12 A3018 790 93 800 320/03 RMK AO2
14926KSTC STC20060626011009606/26/06 01:10:31  5-MIN KSTC 260710Z AUTO 00000KT 9SM CLR 13/12 A3017 790 93 800 000/00 RMK AO2
14926KSTC STC20060626011509606/26/06 01:15:31  5-MIN KSTC 260715Z AUTO 00000KT 8SM CLR 14/12 A3017 790 90 900 000/00 RMK AO2
14926KSTC STC20060626012009606/26/06 01:20:31  5-MIN KSTC 260720Z AUTO 00000KT 9SM CLR 14/12 A3017 790 90 900 000/00 RMK AO2
14926KSTC STC20060626012509706/26/06 01:25:31  5-MIN KSTC 260725Z AUTO 32003KT 10SM CLR 14/12 A3017 790 90 900 310/03 RMK AO2
14926KSTC STC20060626013009706/26/06 01:30:31  5-MIN KSTC 260730Z AUTO 00000KT 10SM CLR 13/12 A3017 790 93 800 000/00 RMK AO2
14926KSTC STC20060626013509706/26/06 01:35:31  5-MIN KSTC 260735Z AUTO 00000KT 10SM CLR 13/12 A3017 790 93 800 000/00 RMK AO2
14926KSTC STC20060626014009706/26/06 01:40:31  5-MIN KSTC 260740Z AUTO 00000KT 10SM CLR 14/12 A3017 790 90 900 000/00 RMK AO2
14926KSTC STC20060626014509706/26/06 01:45:31  5-MIN KSTC 260745Z AUTO 00000KT 10SM CLR 13/12 A3017 790 93 800 000/00 RMK AO2
14926KSTC STC20060626015011406/26/06 01:50:31  5-MIN KSTC 260750Z AUTO 00000KT 10SM CLR 13/12 A3017 790 93 800 000/00 RMK AO2 SLP224 T01330122
14926KSTC STC20060626015509706/26/06 01:55:31  5-MIN KSTC 260755Z AUTO 34003KT 10SM CLR 13/12 A3017 790 96 800 340/03 RMK AO2
14926KSTC STC20060626020009706/26/06 02:00:31  5-MIN KSTC 260800Z AUTO 00000KT 10SM CLR 13/12 A3017 790 93 800 000/00 RMK AO2
14926KSTC STC20060626020509606/26/06 02:05:31  5-MIN KSTC 260805Z AUTO 00000KT 9SM CLR 13/12 A3017 790 93 800 000/00 RMK AO2
14926KSTC STC20060626021009606/26/06 02:10:31  5-MIN KSTC 260810Z AUTO 00000KT 8SM CLR 13/12 A3017 790 93 800 000/00 RMK AO2
14926KSTC STC20060626021509606/26/06 02:15:31  5-MIN KSTC 260815Z AUTO 00000KT 8SM CLR 13/12 A3017 790 93 800 000/00 RMK AO2
14926KSTC STC20060626022009606/26/06 02:20:31  5-MIN KSTC 260820Z AUTO 00000KT 7SM CLR 12/12 A3017 800 96 700 000/00 RMK AO2
14926KSTC STC20060626022509606/26/06 02:25:31  5-MIN KSTC 260825Z AUTO 00000KT 7SM CLR 12/12 A3017 800 96 700 000/00 RMK AO2
14926KSTC STC20060626023009906/26/06 02:30:31  5-MIN KSTC 260830Z AUTO 33003KT 6SM BR CLR 12/11 A3017 800 96 600 330/03 RMK AO2
14926KSTC STC20060626023509606/26/06 02:35:31  5-MIN KSTC 260835Z AUTO 31005KT 7SM CLR 12/11 A3017 800 96 600 300/05 RMK AO2
14926KSTC STC20060626024009606/26/06 02:40:31  5-MIN KSTC 260840Z AUTO 32004KT 7SM CLR 12/11 A3017 800 96 600 320/04 RMK AO2
14926KSTC STC20060626024509606/26/06 02:45:31  5-MIN KSTC 260845Z AUTO 32003KT 8SM CLR 12/11 A3017 800 93 700 320/03 RMK AO2
14926KSTC STC20060626025011906/26/06 02:50:31  5-MIN KSTC 260850Z AUTO 00000KT 9SM CLR 12/11 A3016 800 93 700 000/00 RMK AO2 SLP222 T01220111 50002
14926KSTC STC20060626025509606/26/06 02:55:31  5-MIN KSTC 260855Z AUTO 00000KT 9SM CLR 12/11 A3016 800 93 700 000/00 RMK AO2
14926KSTC STC20060626030009606/26/06 03:00:31  5-MIN KSTC 260900Z AUTO 32004KT 9SM CLR 12/11 A3016 800 93 700 320/04 RMK AO2
14926KSTC STC20060626030509606/26/06 03:05:31  5-MIN KSTC 260905Z AUTO 00000KT 9SM CLR 12/11 A3016 800 93 700 000/00 RMK AO2
14926KSTC STC20060626031009606/26/06 03:10:31  5-MIN KSTC 260910Z AUTO 00000KT 9SM CLR 12/12 A3016 800 96 700 000/00 RMK AO2
14926KSTC STC20060626031509606/26/06 03:15:31  5-MIN KSTC 260915Z AUTO 32004KT 9SM CLR 12/12 A3016 800 96 700 320/04 RMK AO2
14926KSTC STC20060626032009606/26/06 03:20:31  5-MIN KSTC 260920Z AUTO 33003KT 9SM CLR 12/11 A3016 800 93 600 330/03 RMK AO2
14926KSTC STC20060626032509706/26/06 03:25:31  5-MIN KSTC 260925Z AUTO 33003KT 10SM CLR 12/11 A3016 800 93 600 330/03 RMK AO2
14926KSTC STC20060626033009606/26/06 03:30:31  5-MIN KSTC 260930Z AUTO 00000KT 9SM CLR 12/11 A3016 810 96 600 000/00 RMK AO2
14926KSTC STC20060626033509606/26/06 03:35:31  5-MIN KSTC 260935Z AUTO 00000KT 7SM CLR 12/11 A3016 810 96 600 000/00 RMK AO2
14926KSTC STC20060626034009606/26/06 03:40:31  5-MIN KSTC 260940Z AUTO 00000KT 8SM CLR 12/11 A3016 810 96 600 000/00 RMK AO2
14926KSTC STC20060626034509606/26/06 03:45:31  5-MIN KSTC 260945Z AUTO 00000KT 7SM CLR 12/11 A3015 810 96 600 000/00 RMK AO2
14926KSTC STC20060626035011306/26/06 03:50:31  5-MIN KSTC 260950Z AUTO 00000KT 7SM CLR 12/11 A3015 810 96 600 000/00 RMK AO2 SLP219 T01170111
14926KSTC STC20060626035509606/26/06 03:55:31  5-MIN KSTC 260955Z AUTO 00000KT 7SM CLR 12/11 A3015 810 93 600 000/00 RMK AO2
14926KSTC STC20060626040009606/26/06 04:00:31  5-MIN KSTC 261000Z AUTO 00000KT 7SM CLR 12/11 A3015 810 93 600 000/00 RMK AO2
14926KSTC STC20060626040509606/26/06 04:05:31  5-MIN KSTC 261005Z AUTO 00000KT 7SM CLR 12/11 A3015 810 96 600 000/00 RMK AO2
14926KSTC STC20060626041009606/26/06 04:10:31  5-MIN KSTC 261010Z AUTO 29003KT 7SM CLR 11/11 A3015 810 96 600 290/03 RMK AO2
14926KSTC STC20060626041509606/26/06 04:15:31  5-MIN KSTC 261015Z AUTO 32003KT 9SM CLR 11/11 A3015 820 96 600 320/03 RMK AO2
14926KSTC STC20060626042009606/26/06 04:20:31  5-MIN KSTC 261020Z AUTO 00000KT 8SM CLR 12/11 A3015 820 93 700 000/00 RMK AO2
14926KSTC STC20060626042509606/26/06 04:25:31  5-MIN KSTC 261025Z AUTO 32003KT 8SM CLR 12/11 A3015 820 93 700 310/03 RMK AO2
14926KSTC STC20060626043009606/26/06 04:30:31  5-MIN KSTC 261030Z AUTO 00000KT 8SM CLR 12/11 A3015 820 93 700 000/00 RMK AO2
14926KSTC STC20060626043509606/26/06 04:35:31  5-MIN KSTC 261035Z AUTO 00000KT 8SM CLR 12/11 A3015 820 93 700 000/00 RMK AO2
14926KSTC STC20060626044009606/26/06 04:40:31  5-MIN KSTC 261040Z AUTO 00000KT 8SM CLR 12/11 A3015 820 93 700 000/00 RMK AO2
14926KSTC STC20060626044509906/26/06 04:45:31  5-MIN KSTC 261045Z AUTO 00000KT 6SM BR CLR 11/10 A3015 820 93 600 000/00 RMK AO2
14926KSTC STC20060626045011606/26/06 04:50:31  5-MIN KSTC 261050Z AUTO 00000KT 5SM BR CLR 11/11 A3015 820 96 600 000/00 RMK AO2 SLP215 T01110106
14926KSTC STC20060626045509906/26/06 04:55:31  5-MIN KSTC 261055Z AUTO 00000KT 6SM BR CLR 12/11 A3015 820 93 700 000/00 RMK AO2
14926KSTC STC20060626050009606/26/06 05:00:31  5-MIN KSTC 261100Z AUTO 00000KT 8SM CLR 12/11 A3015 820 93 700 000/00 RMK AO2
14926KSTC STC20060626050509606/26/06 05:05:31  5-MIN KSTC 261105Z AUTO 00000KT 8SM CLR 12/11 A3015 820 96 700 000/00 RMK AO2
14926KSTC STC20060626051009606/26/06 05:10:31  5-MIN KSTC 261110Z AUTO 00000KT 7SM CLR 12/11 A3015 820 93 700 000/00 RMK AO2
14926KSTC STC20060626051509606/26/06 05:15:31  5-MIN KSTC 261115Z AUTO 00000KT 7SM CLR 12/11 A3015 820 96 700 000/00 RMK AO2
14926KSTC STC20060626052009606/26/06 05:20:31  5-MIN KSTC 261120Z AUTO 00000KT 7SM CLR 12/11 A3015 820 93 700 000/00 RMK AO2
14926KSTC STC20060626052509606/26/06 05:25:31  5-MIN KSTC 261125Z AUTO 00000KT 7SM CLR 12/11 A3015 820 93 700 000/00 RMK AO2
14926KSTC STC20060626053009606/26/06 05:30:31  5-MIN KSTC 261130Z AUTO 00000KT 7SM CLR 13/11 A3015 820 89 800 000/00 RMK AO2
14926KSTC STC20060626053509606/26/06 05:35:31  5-MIN KSTC 261135Z AUTO 00000KT 7SM CLR 13/12 A3015 820 93 800 000/00 RMK AO2
14926KSTC STC20060626054009606/26/06 05:40:31  5-MIN KSTC 261140Z AUTO 00000KT 7SM CLR 13/12 A3015 820 93 800 000/00 RMK AO2
14926KSTC STC20060626054509606/26/06 05:45:31  5-MIN KSTC 261145Z AUTO 00000KT 8SM CLR 13/12 A3015 820 89 900 000/00 RMK AO2
14926KSTC STC20060626055013106/26/06 05:50:31  5-MIN KSTC 261150Z AUTO 00000KT 9SM CLR 13/12 A3015 820 93 900 000/00 RMK AO2 SLP214 T01330122 10144 20111 58007
14926KSTC STC20060626055509106/26/06 05:55:31  5-MIN KSTC 261155Z 00000KT 8SM CLR 14/12 A3014 820 90 900 000/00 RMK AO2
14926KSTC STC20060626060009106/26/06 06:00:31  5-MIN KSTC 261200Z 00000KT 7SM CLR 14/13 A3015 820 93 900 000/00 RMK AO2
14926KSTC STC20060626060509106/26/06 06:05:31  5-MIN KSTC 261205Z 00000KT 7SM CLR 14/13 A3015 820 93 900 000/00 RMK AO2
14926KSTC STC20060626061009206/26/06 06:10:31  5-MIN KSTC 261210Z 00000KT 7SM CLR 14/13 A3015 820 90 1000 000/00 RMK AO2
14926KSTC STC20060626061509206/26/06 06:15:31  5-MIN KSTC 261215Z 00000KT 7SM CLR 14/13 A3015 820 93 1000 000/00 RMK AO2
14926KSTC STC20060626062009506/26/06 06:20:31  5-MIN KSTC 261220Z 00000KT 6SM BR CLR 15/13 A3015 820 90 1000 000/00 RMK AO2
14926KSTC STC20060626062509506/26/06 06:25:31  5-MIN KSTC 261225Z 00000KT 6SM BR CLR 16/13 A3015 820 86 1100 000/00 RMK AO2
14926KSTC STC20060626063009506/26/06 06:30:31  5-MIN KSTC 261230Z 00000KT 6SM BR CLR 16/13 A3015 820 86 1100 000/00 RMK AO2
14926KSTC STC20060626063509506/26/06 06:35:31  5-MIN KSTC 261235Z 00000KT 6SM HZ CLR 16/13 A3015 820 83 1200 000/00 RMK AO2
14926KSTC STC20060626064009506/26/06 06:40:31  5-MIN KSTC 261240Z 00000KT 6SM BR CLR 16/14 A3015 820 86 1200 000/00 RMK AO2
14926KSTC STC20060626064509206/26/06 06:45:31  5-MIN KSTC 261245Z 00000KT 7SM CLR 17/14 A3015 820 83 1200 000/00 RMK AO2
14926KSTC STC20060626065010906/26/06 06:50:31  5-MIN KSTC 261250Z 00000KT 8SM CLR 17/14 A3014 820 83 1200 000/00 RMK AO2 SLP212 T01670139
14926KSTC STC20060626065509306/26/06 06:55:31  5-MIN KSTC 261255Z 00000KT 10SM CLR 17/14 A3014 820 80 1300 000/00 RMK AO2
14926KSTC STC20060626070009306/26/06 07:00:31  5-MIN KSTC 261300Z 00000KT 10SM CLR 18/14 A3014 820 78 1400 000/00 RMK AO2
14926KSTC STC20060626070509306/26/06 07:05:31  5-MIN KSTC 261305Z 32003KT 10SM CLR 17/14 A3015 820 80 1300 310/03 RMK AO2
14926KSTC STC20060626071009306/26/06 07:10:31  5-MIN KSTC 261310Z 32003KT 10SM CLR 18/14 A3015 820 78 1400 320/03 RMK AO2
14926KSTC STC20060626071509306/26/06 07:15:31  5-MIN KSTC 261315Z 32003KT 10SM CLR 18/14 A3015 820 78 1400 320/03 RMK AO2
14926KSTC STC20060626072009306/26/06 07:20:31  5-MIN KSTC 261320Z 32003KT 10SM CLR 18/14 A3015 820 75 1400 320/03 RMK AO2
14926KSTC STC20060626072509306/26/06 07:25:31  5-MIN KSTC 261325Z 32003KT 10SM CLR 19/14 A3015 820 75 1500 320/03 RMK AO2
14926KSTC STC20060626073009306/26/06 07:30:31  5-MIN KSTC 261330Z 29004KT 10SM CLR 19/14 A3015 820 72 1500 290/04 RMK AO2
14926KSTC STC20060626073509306/26/06 07:35:31  5-MIN KSTC 261335Z 29004KT 10SM CLR 19/14 A3015 820 72 1500 280/04 RMK AO2
14926KSTC STC20060626074009306/26/06 07:40:31  5-MIN KSTC 261340Z 29003KT 10SM CLR 19/14 A3015 820 70 1600 290/03 RMK AO2
14926KSTC STC20060626074509306/26/06 07:45:31  5-MIN KSTC 261345Z 31003KT 10SM CLR 19/14 A3014 820 70 1600 310/03 RMK AO2
14926KSTC STC20060626075011006/26/06 07:50:31  5-MIN KSTC 261350Z VRB03KT 10SM CLR 19/14 A3015 820 72 1600 VRB/03 RMK AO2 SLP214 T01940144
14926KSTC STC20060626075509306/26/06 07:55:31  5-MIN KSTC 261355Z 00000KT 10SM CLR 20/14 A3015 820 70 1600 000/00 RMK AO2
14926KSTC STC20060626080009306/26/06 08:00:31  5-MIN KSTC 261400Z 24003KT 10SM CLR 20/14 A3015 820 67 1600 230/03 RMK AO2
14926KSTC STC20060626080509306/26/06 08:05:31  5-MIN KSTC 261405Z 25004KT 10SM CLR 20/14 A3014 820 67 1600 240/04 RMK AO2
14926KSTC STC20060626081009306/26/06 08:10:31  5-MIN KSTC 261410Z 27003KT 10SM CLR 21/13 A3014 820 63 1700 270/03 RMK AO2
14926KSTC STC20060626081509306/26/06 08:15:31  5-MIN KSTC 261415Z 27004KT 10SM CLR 21/14 A3014 820 65 1700 270/04 RMK AO2
14926KSTC STC20060626082009306/26/06 08:20:31  5-MIN KSTC 261420Z 26004KT 10SM CLR 21/14 A3014 820 63 1800 260/04 RMK AO2
14926KSTC STC20060626082509306/26/06 08:25:31  5-MIN KSTC 261425Z 29005KT 10SM CLR 21/14 A3014 820 63 1800 280/05 RMK AO2
14926KSTC STC20060626083009306/26/06 08:30:31  5-MIN KSTC 261430Z VRB04KT 10SM CLR 22/14 A3014 820 61 1800 VRB/04 RMK AO2
14926KSTC STC20060626083509306/26/06 08:35:31  5-MIN KSTC 261435Z 27003KT 10SM CLR 22/14 A3014 820 61 1800 260/03 RMK AO2
14926KSTC STC20060626084009306/26/06 08:40:31  5-MIN KSTC 261440Z 28003KT 10SM CLR 22/14 A3014 820 59 1900 280/03 RMK AO2
14926KSTC STC20060626084509306/26/06 08:45:31  5-MIN KSTC 261445Z 24004KT 10SM CLR 22/14 A3014 830 61 1800 240/04 RMK AO2
14926KSTC STC20060626085011606/26/06 08:50:31  5-MIN KSTC 261450Z 26005KT 10SM CLR 22/14 A3014 830 61 1900 260/05 RMK AO2 SLP211 T02220144 56006
14926KSTC STC20060626085509306/26/06 08:55:31  5-MIN KSTC 261455Z 23004KT 10SM CLR 22/14 A3014 830 59 1900 230/04 RMK AO2
14926KSTC STC20060626090009306/26/06 09:00:31  5-MIN KSTC 261500Z VRB05KT 10SM CLR 23/14 A3014 830 55 2000 VRB/05 RMK AO2
14926KSTC STC20060626090509306/26/06 09:05:31  5-MIN KSTC 261505Z 30004KT 10SM CLR 23/14 A3014 830 57 2000 290/04 RMK AO2
14926KSTC STC20060626091009306/26/06 09:10:31  5-MIN KSTC 261510Z 26003KT 10SM CLR 23/14 A3014 830 55 2000 260/03 RMK AO2
14926KSTC STC20060626091509306/26/06 09:15:31  5-MIN KSTC 261515Z VRB03KT 10SM CLR 24/13 A3014 830 51 2100 VRB/03 RMK AO2
14926KSTC STC20060626092009306/26/06 09:20:31  5-MIN KSTC 261520Z 00000KT 10SM CLR 24/13 A3014 830 51 2100 000/00 RMK AO2
14926KSTC STC20060626092509306/26/06 09:25:31  5-MIN KSTC 261525Z 24004KT 10SM CLR 24/13 A3014 830 51 2100 240/04 RMK AO2
14926KSTC STC20060626093009306/26/06 09:30:31  5-MIN KSTC 261530Z 31004KT 10SM CLR 24/13 A3014 830 49 2100 310/04 RMK AO2
14926KSTC STC20060626093509306/26/06 09:35:31  5-MIN KSTC 261535Z 00000KT 10SM CLR 24/12 A3014 830 47 2100 000/00 RMK AO2
14926KSTC STC20060626094009306/26/06 09:40:31  5-MIN KSTC 261540Z 28005KT 10SM CLR 24/13 A3013 830 47 2200 280/05 RMK AO2
14926KSTC STC20060626094509306/26/06 09:45:31  5-MIN KSTC 261545Z 34005KT 10SM CLR 24/13 A3013 830 47 2200 340/05 RMK AO2
14926KSTC STC20060626095011006/26/06 09:50:31  5-MIN KSTC 261550Z 30008KT 10SM CLR 25/12 A3013 830 44 2200 290/08 RMK AO2 SLP208 T02500122
14926KSTC STC20060626095509306/26/06 09:55:31  5-MIN KSTC 261555Z 30006KT 10SM CLR 25/12 A3013 830 43 2200 290/06 RMK AO2
14926KSTC STC20060626100009306/26/06 10:00:31  5-MIN KSTC 261600Z VRB04KT 10SM CLR 24/12 A3013 830 44 2200 VRB/04 RMK AO2
14926KSTC STC20060626100509306/26/06 10:05:31  5-MIN KSTC 261605Z 31006KT 10SM CLR 25/11 A3013 830 41 2200 300/06 RMK AO2
14926KSTC STC20060626101009306/26/06 10:10:31  5-MIN KSTC 261610Z 32005KT 10SM CLR 25/11 A3013 830 41 2200 320/05 RMK AO2
14926KSTC STC20060626101509306/26/06 10:15:31  5-MIN KSTC 261615Z VRB03KT 10SM CLR 26/11 A3013 840 38 2300 VRB/03 RMK AO2
14926KSTC STC20060626102009306/26/06 10:20:31  5-MIN KSTC 261620Z VRB05KT 10SM CLR 26/12 A3013 840 41 2300 VRB/05 RMK AO2
14926KSTC STC20060626102509306/26/06 10:25:31  5-MIN KSTC 261625Z VRB03KT 10SM CLR 26/11 A3012 840 40 2300 VRB/03 RMK AO2
14926KSTC STC20060626103009306/26/06 10:30:31  5-MIN KSTC 261630Z 33007KT 10SM CLR 26/10 A3012 840 37 2300 330/07 RMK AO2
14926KSTC STC20060626103509306/26/06 10:35:31  5-MIN KSTC 261635Z VRB04KT 10SM CLR 26/11 A3012 840 38 2300 VRB/04 RMK AO2
14926KSTC STC20060626104009306/26/06 10:40:31  5-MIN KSTC 261640Z 36006KT 10SM CLR 26/11 A3012 840 37 2400 360/06 RMK AO2
14926KSTC STC20060626104509306/26/06 10:45:31  5-MIN KSTC 261645Z 31008KT 10SM CLR 26/11 A3012 840 37 2400 300/08 RMK AO2
14926KSTC STC20060626105011006/26/06 10:50:31  5-MIN KSTC 261650Z VRB03KT 10SM CLR 26/11 A3012 850 37 2400 VRB/03 RMK AO2 SLP202 T02610106
14926KSTC STC20060626105509306/26/06 10:55:31  5-MIN KSTC 261655Z 31009KT 10SM CLR 27/11 A3011 850 36 2400 300/09 RMK AO2
14926KSTC STC20060626110009306/26/06 11:00:31  5-MIN KSTC 261700Z 29006KT 10SM CLR 26/10 A3011 850 37 2300 290/06 RMK AO2
14926KSTC STC20060626110509306/26/06 11:05:31  5-MIN KSTC 261705Z 34006KT 10SM CLR 25/10 A3011 850 38 2200 340/06 RMK AO2
14926KSTC STC20060626111009606/26/06 11:10:31  5-MIN KSTC 261710Z 31010KT 10SM FEW075 26/11 A3011 850 38 2300 310/10 RMK AO2
14926KSTC STC20060626111509606/26/06 11:15:31  5-MIN KSTC 261715Z 32009KT 10SM FEW075 25/10 A3011 850 38 2200 310/09 RMK AO2
14926KSTC STC20060626112009606/26/06 11:20:31  5-MIN KSTC 261720Z 31009KT 10SM FEW075 26/11 A3011 850 37 2400 300/09 RMK AO2
14926KSTC STC20060626112509606/26/06 11:25:31  5-MIN KSTC 261725Z 30010KT 10SM FEW080 26/09 A3011 860 34 2400 290/10 RMK AO2
14926KSTC STC20060626113009606/26/06 11:30:31  5-MIN KSTC 261730Z 33011KT 10SM FEW080 26/10 A3010 860 36 2400 330/11 RMK AO2
14926KSTC STC20060626113509606/26/06 11:35:31  5-MIN KSTC 261735Z 34008KT 10SM FEW080 27/10 A3010 860 34 2400 340/08 RMK AO2
14926KSTC STC20060626114009306/26/06 11:40:31  5-MIN KSTC 261740Z 32008KT 10SM CLR 26/09 A3010 860 34 2400 320/08 RMK AO2
14926KSTC STC20060626114509606/26/06 11:45:31  5-MIN KSTC 261745Z 34010KT 10SM FEW070 27/10 A3010 860 34 2400 330/10 RMK AO2
14926KSTC STC20060626115013106/26/06 11:50:31  5-MIN KSTC 261750Z 31011KT 10SM FEW070 26/10 A3010 860 36 2400 300/11 RMK AO2 SLP198 T02610100 10267 20139 58002
14926KSTC STC20060626115509606/26/06 11:55:31  5-MIN KSTC 261755Z 31011KT 10SM FEW070 27/10 A3010 860 34 2400 310/11 RMK AO2
14926KSTC STC20060626120009606/26/06 12:00:31  5-MIN KSTC 261800Z 31008KT 10SM FEW070 26/09 A3010 860 34 2400 310/08 RMK AO2
14926KSTC STC20060626120511206/26/06 12:05:31  5-MIN KSTC 261805Z 33007KT 280V020 10SM FEW070 27/11 A3009 870 36 2400 330/07 280V020 RMK AO2
14926KSTC STC20060626121010206/26/06 12:10:31  5-MIN KSTC 261810Z 31008G16KT 10SM FEW070 27/11 A3009 870 36 2400 310/08G16 RMK AO2
14926KSTC STC20060626121509906/26/06 12:15:31  5-MIN KSTC 261815Z 32009G16KT 10SM CLR 27/11 A3009 870 36 2400 320/09G16 RMK AO2
14926KSTC STC20060626122009906/26/06 12:20:31  5-MIN KSTC 261820Z 33011G16KT 10SM CLR 27/09 A3009 870 33 2500 330/11G16 RMK AO2
14926KSTC STC20060626122509306/26/06 12:25:31  5-MIN KSTC 261825Z 30013KT 10SM CLR 27/08 A3009 870 31 2500 300/13 RMK AO2
14926KSTC STC20060626123009306/26/06 12:30:31  5-MIN KSTC 261830Z 28011KT 10SM CLR 27/08 A3009 870 31 2500 280/11 RMK AO2
14926KSTC STC20060626123509306/26/06 12:35:31  5-MIN KSTC 261835Z 30009KT 10SM CLR 27/09 A3008 880 31 2500 290/09 RMK AO2
14926KSTC STC20060626124010906/26/06 12:40:31  5-MIN KSTC 261840Z 32010KT 260V350 10SM CLR 27/09 A3008 880 33 2500 310/10 260V350 RMK AO2
14926KSTC STC20060626124509306/26/06 12:45:31  5-MIN KSTC 261845Z 34008KT 10SM CLR 27/09 A3008 880 32 2500 340/08 RMK AO2
14926KSTC STC20060626125011006/26/06 12:50:31  5-MIN KSTC 261850Z 32010KT 10SM CLR 27/09 A3008 880 32 2500 320/10 RMK AO2 SLP189 T02670089
14926KSTC STC20060626125509906/26/06 12:55:31  5-MIN KSTC 261855Z 30009G16KT 10SM CLR 27/08 A3007 880 31 2500 300/09G16 RMK AO2
14926KSTC STC20060626130009906/26/06 13:00:31  5-MIN KSTC 261900Z 29014G17KT 10SM CLR 27/09 A3007 890 31 2500 290/14G17 RMK AO2
14926KSTC STC20060626130509906/26/06 13:05:31  5-MIN KSTC 261905Z 28009G17KT 10SM CLR 27/09 A3007 890 31 2500 280/09G17 RMK AO2
14926KSTC STC20060626131009306/26/06 13:10:31  5-MIN KSTC 261910Z VRB06KT 10SM CLR 27/09 A3007 890 32 2500 VRB/06 RMK AO2
14926KSTC STC20060626131509306/26/06 13:15:31  5-MIN KSTC 261915Z 32007KT 10SM CLR 27/10 A3006 890 33 2500 310/07 RMK AO2
14926KSTC STC20060626132009306/26/06 13:20:31  5-MIN KSTC 261920Z 35008KT 10SM CLR 27/09 A3006 900 31 2500 340/08 RMK AO2
14926KSTC STC20060626132509606/26/06 13:25:31  5-MIN KSTC 261925Z VRB06KT 10SM FEW075 27/08 A3006 900 31 2500 VRB/06 RMK AO2
14926KSTC STC20060626133009606/26/06 13:30:31  5-MIN KSTC 261930Z 31009KT 10SM FEW075 27/09 A3006 900 32 2500 310/09 RMK AO2
14926KSTC STC20060626133509606/26/06 13:35:31  5-MIN KSTC 261935Z 30011KT 10SM FEW075 27/09 A3006 900 31 2600 290/11 RMK AO2
14926KSTC STC20060626134009606/26/06 13:40:31  5-MIN KSTC 261940Z 28004KT 10SM FEW080 27/09 A3006 900 32 2500 280/04 RMK AO2
14926KSTC STC20060626134509606/26/06 13:45:31  5-MIN KSTC 261945Z 30009KT 10SM SCT075 28/10 A3005 900 32 2600 290/09 RMK AO2
14926KSTC STC20060626135011306/26/06 13:50:31  5-MIN KSTC 261950Z 33007KT 10SM SCT075 28/10 A3005 910 32 2600 330/07 RMK AO2 SLP181 T02780100
14926KSTC STC20060626135509606/26/06 13:55:31  5-MIN KSTC 261955Z 32008KT 10SM SCT075 27/10 A3005 910 33 2600 320/08 RMK AO2
14926KSTC STC20060626140009606/26/06 14:00:31  5-MIN KSTC 262000Z 27010KT 10SM FEW075 27/09 A3005 910 32 2600 270/10 RMK AO2
14926KSTC STC20060626140509606/26/06 14:05:31  5-MIN KSTC 262005Z 24009KT 10SM FEW075 27/09 A3004 910 31 2600 240/09 RMK AO2
14926KSTC STC20060626141009606/26/06 14:10:31  5-MIN KSTC 262010Z 30006KT 10SM FEW075 27/09 A3004 910 32 2600 290/06 RMK AO2
14926KSTC STC20060626141509606/26/06 14:15:31  5-MIN KSTC 262015Z 31008KT 10SM FEW070 27/09 A3004 920 32 2500 310/08 RMK AO2
14926KSTC STC20060626142009306/26/06 14:20:31  5-MIN KSTC 262020Z 32010KT 10SM CLR 26/09 A3004 920 34 2400 320/10 RMK AO2
14926KSTC STC20060626142509306/26/06 14:25:31  5-MIN KSTC 262025Z 33006KT 10SM CLR 27/09 A3004 920 33 2500 320/06 RMK AO2
14926KSTC STC20060626143009306/26/06 14:30:31  5-MIN KSTC 262030Z 32006KT 10SM CLR 27/09 A3004 920 33 2500 320/06 RMK AO2
14926KSTC STC20060626143509306/26/06 14:35:31  5-MIN KSTC 262035Z 28011KT 10SM CLR 27/10 A3004 920 34 2500 280/11 RMK AO2
14926KSTC STC20060626144009306/26/06 14:40:31  5-MIN KSTC 262040Z VRB06KT 10SM CLR 27/09 A3003 920 32 2600 VRB/06 RMK AO2
14926KSTC STC20060626144509306/26/06 14:45:31  5-MIN KSTC 262045Z VRB05KT 10SM CLR 27/09 A3003 920 32 2600 VRB/05 RMK AO2
14926KSTC STC20060626145011606/26/06 14:50:31  5-MIN KSTC 262050Z 29008KT 10SM CLR 27/10 A3003 930 33 2600 290/08 RMK AO2 SLP174 T02720100 58013
14926KSTC STC20060626145509606/26/06 14:55:31  5-MIN KSTC 262055Z 29010KT 10SM FEW075 28/09 A3003 930 31 2600 280/10 RMK AO2
14926KSTC STC20060626150009606/26/06 15:00:31  5-MIN KSTC 262100Z 28010KT 10SM FEW075 28/09 A3003 930 30 2600 280/10 RMK AO2
14926KSTC STC20060626150509606/26/06 15:05:31  5-MIN KSTC 262105Z 28008KT 10SM FEW075 27/08 A3002 930 30 2600 280/08 RMK AO2
14926KSTC STC20060626151009606/26/06 15:10:31  5-MIN KSTC 262110Z 28007KT 10SM FEW075 27/09 A3002 930 31 2600 280/07 RMK AO2
14926KSTC STC20060626151511206/26/06 15:15:31  5-MIN KSTC 262115Z 29008KT 260V320 10SM FEW075 27/09 A3002 930 32 2600 290/08 260V320 RMK AO2
14926KSTC STC20060626152009606/26/06 15:20:31  5-MIN KSTC 262120Z 29009KT 10SM FEW075 26/09 A3002 930 33 2500 290/09 RMK AO2
14926KSTC STC20060626152509306/26/06 15:25:31  5-MIN KSTC 262125Z 30009KT 10SM CLR 27/09 A3003 930 33 2500 300/09 RMK AO2
14926KSTC STC20060626153009306/26/06 15:30:31  5-MIN KSTC 262130Z 30010KT 10SM CLR 27/09 A3002 930 33 2500 300/10 RMK AO2
14926KSTC STC20060626153509306/26/06 15:35:31  5-MIN KSTC 262135Z 30010KT 10SM CLR 28/09 A3002 930 30 2700 300/10 RMK AO2
14926KSTC STC20060626154009306/26/06 15:40:31  5-MIN KSTC 262140Z 31009KT 10SM CLR 28/09 A3002 930 30 2700 310/09 RMK AO2
14926KSTC STC20060626154509306/26/06 15:45:31  5-MIN KSTC 262145Z 31012KT 10SM CLR 27/09 A3002 930 32 2600 310/12 RMK AO2
14926KSTC STC20060626155011306/26/06 15:50:31  5-MIN KSTC 262150Z 32009KT 10SM FEW075 27/09 A3002 930 32 2600 310/09 RMK AO2 SLP171 T02720094
14926KSTC STC20060626155509606/26/06 15:55:31  5-MIN KSTC 262155Z 31012KT 10SM FEW075 27/09 A3002 940 32 2600 310/12 RMK AO2
14926KSTC STC20060626160009606/26/06 16:00:31  5-MIN KSTC 262200Z 29013KT 10SM FEW075 27/10 A3002 940 33 2600 280/13 RMK AO2
14926KSTC STC20060626160509606/26/06 16:05:31  5-MIN KSTC 262205Z 28012KT 10SM FEW075 27/10 A3002 940 33 2600 280/12 RMK AO2
14926KSTC STC20060626161009606/26/06 16:10:31  5-MIN KSTC 262210Z 28012KT 10SM FEW075 27/10 A3001 940 33 2600 270/12 RMK AO2
14926KSTC STC20060626161509606/26/06 16:15:31  5-MIN KSTC 262215Z 30013KT 10SM FEW075 27/11 A3001 940 34 2600 290/13 RMK AO2
14926KSTC STC20060626162009306/26/06 16:20:31  5-MIN KSTC 262220Z 30010KT 10SM CLR 27/11 A3002 940 34 2600 300/10 RMK AO2
14926KSTC STC20060626162509306/26/06 16:25:31  5-MIN KSTC 262225Z 28010KT 10SM CLR 27/10 A3002 940 33 2600 280/10 RMK AO2
14926KSTC STC20060626163009606/26/06 16:30:31  5-MIN KSTC 262230Z 27014KT 10SM FEW070 27/10 A3002 940 33 2600 270/14 RMK AO2
14926KSTC STC20060626163510206/26/06 16:35:31  5-MIN KSTC 262235Z 28012G16KT 10SM FEW070 27/10 A3002 940 33 2600 280/12G16 RMK AO2
14926KSTC STC20060626164009606/26/06 16:40:31  5-MIN KSTC 262240Z 28011KT 10SM FEW075 27/11 A3002 930 34 2600 280/11 RMK AO2
14926KSTC STC20060626164509606/26/06 16:45:31  5-MIN KSTC 262245Z 29012KT 10SM FEW070 27/11 A3002 930 34 2600 290/12 RMK AO2
14926KSTC STC20060626165015006/26/06 16:50:31  5-MIN KSTC 262250Z 33022G30KT 10SM TS FEW070 SCT095 SCT110 26/11 A3004 910 37 2400 330/22G30 RMK AO2 PK WND 32030/2249 TSB48 PRESRR
14926KSTC STC20060626165512306/26/06 16:55:31  5-MIN KSTC 262255Z 36016G32KT 10SM TS SCT075 BKN095 21/12 A3004 920 54 1900 360/16G32 RMK AO2 WSHFT 2241
14926KSTC STC20060626170013006/26/06 17:00:31  5-MIN KSTC 262300Z 35018G32KT 10SM TS FEW075 BKN095 BKN110 21/12 A3005 910 58 1800 350/18G32 RMK AO2 WSHFT 2241
14926KSTC STC20060626170514806/26/06 17:05:31  5-MIN KSTC 262305Z 36021G27KT 10SM TS FEW075 BKN095 BKN110 19/13 A3005 900 65 1700 350/21G27 RMK AO2 PK WND 35027/2303 WSHFT 2241
14926KSTC STC20060626171014106/26/06 17:10:31  5-MIN KSTC 262310Z 35014G27KT 10SM TS FEW075 BKN100 19/13 A3006 900 67 1600 350/14G27 RMK AO2 PK WND 35027/2303 WSHFT 2241
14926KSTC STC20060626171514806/26/06 17:15:31  5-MIN KSTC 262315Z 36013G21KT 10SM TS FEW075 SCT090 BKN110 18/13 A3005 900 70 1500 350/13G21 RMK AO2 PK WND 35027/2303 WSHFT 2241
14926KSTC STC20060626172014806/26/06 17:20:31  5-MIN KSTC 262320Z 36013G20KT 10SM TS FEW046 SCT075 OVC100 18/13 A3005 900 70 1500 360/13G20 RMK AO2 PK WND 35027/2303 WSHFT 2241
14926KSTC STC20060626172516206/26/06 17:25:31  5-MIN KSTC 262325Z 36011G19KT 9SM -TSRA FEW024 SCT034 OVC100 18/13 A3005 900 72 1500 350/11G19 RMK AO2 PK WND 35027/2303 WSHFT 2241 RAB21 P0000
14926KSTC STC20060626173015606/26/06 17:30:31  5-MIN KSTC 262330Z 02010KT 9SM -TSRA FEW024 BKN038 OVC100 18/13 A3005 910 75 1500 010/10 RMK AO2 PK WND 35027/2303 WSHFT 2241 RAB21 P0000
14926KSTC STC20060626173515006/26/06 17:35:31  5-MIN KSTC 262335Z 01011KT 10SM -TSRA BKN045 OVC100 18/13 A3005 910 72 1500 010/11 RMK AO2 PK WND 35027/2303 WSHFT 2241 RAB21 P0000
14926KSTC STC20060626174015206/26/06 17:40:31  5-MIN KSTC 262340Z 03007KT 10SM BKN050 OVC100 18/13 A3005 910 75 1500 020/07 RMK AO2 PK WND 35027/2303 WSHFT 2241 TSE37RAB21E40 P0000
14926KSTC STC20060626174515206/26/06 17:45:31  5-MIN KSTC 262345Z 02007KT 10SM SCT050 BKN100 18/13 A3004 910 72 1500 010/07 RMK AO2 PK WND 35027/2303 WSHFT 2241 TSE37RAB21E40 P0000
14926KSTC STC20060626175019906/26/06 17:50:31  5-MIN KSTC 262350Z 01007G14KT 10SM SCT050 BKN100 18/13 A3004 910 72 1600 010/07G14 RMK AO2 PK WND 35027/2303 WSHFT 2241 TSE37RAB21E40 SLP182 P0000 60000 T01830133 10278 20178 56023
14926KSTC STC20060626175511006/26/06 17:55:31  5-MIN KSTC 262355Z 36006KT 10SM SCT060 SCT070 BKN090 18/13 A3004 910 70 1600 360/06 RMK AO2
14926KSTC STC20060626180011006/26/06 18:00:31  5-MIN KSTC 270000Z 36006KT 10SM SCT070 SCT080 BKN100 18/13 A3004 920 70 1600 360/06 RMK AO2
14926KSTC STC20060626180510306/26/06 18:05:31  5-MIN KSTC 270005Z 02007KT 10SM SCT075 BKN095 18/13 A3004 920 70 1600 010/07 RMK AO2
14926KSTC STC20060626181010306/26/06 18:10:31  5-MIN KSTC 270010Z 36007KT 10SM SCT080 BKN095 18/12 A3004 920 67 1600 350/07 RMK AO2
14926KSTC STC20060626181510306/26/06 18:15:31  5-MIN KSTC 270015Z 35006KT 10SM SCT080 BKN095 18/12 A3004 920 67 1600 340/06 RMK AO2
14926KSTC STC20060626182010306/26/06 18:20:31  5-MIN KSTC 270020Z 33005KT 10SM FEW070 BKN090 18/12 A3004 920 67 1600 330/05 RMK AO2
14926KSTC STC20060626182511906/26/06 18:25:31  5-MIN KSTC 270025Z 33005KT 10SM -RA FEW065 BKN090 18/13 A3004 920 70 1600 330/05 RMK AO2 RAB22 P0000
14926KSTC STC20060626183011206/26/06 18:30:31  5-MIN KSTC 270030Z 34004KT 10SM -RA BKN090 18/13 A3004 920 72 1500 340/04 RMK AO2 RAB22 P0000
14926KSTC STC20060626183511906/26/06 18:35:31  5-MIN KSTC 270035Z 31004KT 10SM -RA FEW060 BKN090 18/13 A3003 920 72 1500 300/04 RMK AO2 RAB22 P0000
14926KSTC STC20060626184011906/26/06 18:40:31  5-MIN KSTC 270040Z 31004KT 10SM -RA FEW055 SCT090 18/13 A3003 920 75 1500 310/04 RMK AO2 RAB22 P0000
14926KSTC STC20060626184511906/26/06 18:45:31  5-MIN KSTC 270045Z 31004KT 10SM -RA FEW055 SCT090 18/13 A3003 930 72 1600 310/04 RMK AO2 RAB22 P0000
14926KSTC STC20060626185012906/26/06 18:50:31  5-MIN KSTC 270050Z 33005KT 10SM -RA FEW055 18/13 A3003 930 72 1600 320/05 RMK AO2 RAB22 SLP176 P0000 T01830133
14926KSTC STC20060626185509606/26/06 18:55:31  5-MIN KSTC 270055Z 32005KT 10SM FEW050 18/13 A3003 920 75 1500 310/05 RMK AO2
14926KSTC STC20060626190009606/26/06 19:00:31  5-MIN KSTC 270100Z 32005KT 10SM FEW050 18/13 A3003 920 75 1500 320/05 RMK AO2
14926KSTC STC20060626190509606/26/06 19:05:31  5-MIN KSTC 270105Z 33004KT 10SM FEW050 18/13 A3003 930 75 1500 330/04 RMK AO2
14926KSTC STC20060626191009306/26/06 19:10:31  5-MIN KSTC 270110Z 34003KT 10SM CLR 18/13 A3003 930 75 1500 340/03 RMK AO2
14926KSTC STC20060626191509306/26/06 19:15:31  5-MIN KSTC 270115Z 34003KT 10SM CLR 18/13 A3003 930 75 1500 340/03 RMK AO2
14926KSTC STC20060626192009306/26/06 19:20:31  5-MIN KSTC 270120Z 36004KT 10SM CLR 18/13 A3003 930 75 1500 350/04 RMK AO2
14926KSTC STC20060626192509306/26/06 19:25:31  5-MIN KSTC 270125Z 35005KT 10SM CLR 18/13 A3003 930 75 1500 350/05 RMK AO2
14926KSTC STC20060626193009306/26/06 19:30:31  5-MIN KSTC 270130Z 35003KT 10SM CLR 18/14 A3003 930 78 1500 340/03 RMK AO2
14926KSTC STC20060626193509306/26/06 19:35:31  5-MIN KSTC 270135Z 35003KT 10SM CLR 18/14 A3003 930 78 1500 340/03 RMK AO2
14926KSTC STC20060626194009606/26/06 19:40:31  5-MIN KSTC 270140Z 36005KT 10SM SCT085 18/14 A3004 910 78 1500 350/05 RMK AO2
14926KSTC STC20060626194511006/26/06 19:45:31  5-MIN KSTC 270145Z 36014KT 10SM FEW041 BKN080 18/14 A3006 900 78 1500 360/14 RMK AO2 PRESRR
14926KSTC STC20060626195012606/26/06 19:50:31  5-MIN KSTC 270150Z 35010G18KT 10SM FEW041 BKN080 18/13 A3006 900 75 1500 350/10G18 RMK AO2 SLP185 T01780133
14926KSTC STC20060626195510906/26/06 19:55:31  5-MIN KSTC 270155Z 01012G18KT 10SM BKN080 BKN110 18/13 A3005 900 75 1500 360/12G18 RMK AO2
14926KSTC STC20060626200010306/26/06 20:00:31  5-MIN KSTC 270200Z 01011KT 10SM BKN080 BKN110 18/13 A3005 900 75 1500 010/11 RMK AO2
14926KSTC STC20060626200510906/26/06 20:05:31  5-MIN KSTC 270205Z 02010G17KT 10SM SCT080 OVC110 18/13 A3005 910 75 1500 020/10G17 RMK AO2
14926KSTC STC20060626201010906/26/06 20:10:31  5-MIN KSTC 270210Z 03011G17KT 10SM SCT080 OVC110 17/13 A3005 900 75 1400 030/11G17 RMK AO2
14926KSTC STC20060626201510906/26/06 20:15:31  5-MIN KSTC 270215Z 04010G16KT 10SM FEW080 OVC120 17/13 A3005 900 75 1400 030/10G16 RMK AO2
14926KSTC STC20060626202010206/26/06 20:20:31  5-MIN KSTC 270220Z 04006G15KT 10SM BKN110 17/12 A3005 910 72 1400 030/06G15 RMK AO2
14926KSTC STC20060626202510306/26/06 20:25:31  5-MIN KSTC 270225Z 07007KT 10SM FEW065 BKN110 17/12 A3005 910 75 1400 060/07 RMK AO2
14926KSTC STC20060626203010306/26/06 20:30:31  5-MIN KSTC 270230Z 06005KT 10SM FEW065 BKN110 17/12 A3005 910 75 1400 050/05 RMK AO2
14926KSTC STC20060626203510306/26/06 20:35:31  5-MIN KSTC 270235Z 06004KT 10SM FEW065 BKN120 16/12 A3005 910 77 1300 060/04 RMK AO2
14926KSTC STC20060626204010306/26/06 20:40:31  5-MIN KSTC 270240Z 00000KT 10SM FEW065 BKN120 16/12 A3005 910 77 1300 000/00 RMK AO2
14926KSTC STC20060626204510306/26/06 20:45:31  5-MIN KSTC 270245Z 00000KT 10SM FEW065 BKN120 16/12 A3005 910 77 1300 000/00 RMK AO2
14926KSTC STC20060626205013206/26/06 20:50:31  5-MIN KSTC 270250Z 00000KT 10SM FEW065 BKN120 16/12 A3004 910 77 1300 000/00 RMK AO2 SLP179 60000 T01610122 53005
14926KSTC STC20060626205509606/26/06 20:55:31  5-MIN KSTC 270255Z 00000KT 10SM SCT120 16/12 A3003 920 77 1300 000/00 RMK AO2
14926KSTC STC20060626210010306/26/06 21:00:31  5-MIN KSTC 270300Z 16005KT 10SM SCT120 16/12 A3003 930 80 1300 160/05 RMK AO2 PRESFR
14926KSTC STC20060626210509606/26/06 21:05:31  5-MIN KSTC 270305Z 19005KT 10SM SCT120 16/12 A3003 930 80 1300 190/05 RMK AO2
14926KSTC STC20060626211009606/26/06 21:10:31  5-MIN KSTC 270310Z 20004KT 10SM FEW120 16/12 A3003 930 80 1200 200/04 RMK AO2
14926KSTC STC20060626211509606/26/06 21:15:31  5-MIN KSTC 270315Z 20004KT 10SM FEW120 16/13 A3003 930 83 1200 190/04 RMK AO2
14926KSTC STC20060626212009306/26/06 21:20:31  5-MIN KSTC 270320Z 00000KT 10SM CLR 15/13 A3003 930 86 1200 000/00 RMK AO2
14926KSTC STC20060626212509306/26/06 21:25:31  5-MIN KSTC 270325Z 22004KT 10SM CLR 15/13 A3003 930 86 1200 220/04 RMK AO2
14926KSTC STC20060626213009306/26/06 21:30:31  5-MIN KSTC 270330Z 00000KT 10SM CLR 15/13 A3002 930 86 1200 000/00 RMK AO2
14926KSTC STC20060626213509306/26/06 21:35:31  5-MIN KSTC 270335Z 00000KT 10SM CLR 16/13 A3003 930 83 1200 000/00 RMK AO2
14926KSTC STC20060626214009306/26/06 21:40:31  5-MIN KSTC 270340Z 00000KT 10SM CLR 14/12 A3003 930 86 1100 000/00 RMK AO2
14926KSTC STC20060626214509306/26/06 21:45:31  5-MIN KSTC 270345Z 35003KT 10SM CLR 14/13 A3003 920 93 1000 350/03 RMK AO2
14926KSTC STC20060626215011006/26/06 21:50:31  5-MIN KSTC 270350Z 33004KT 10SM CLR 14/13 A3003 920 90 1100 330/04 RMK AO2 SLP174 T01440128
14926KSTC STC20060626215509806/26/06 21:55:31  5-MIN KSTC 270355Z AUTO 00000KT 10SM CLR 14/13 A3003 930 90 1100 000/00 RMK AO2
14926KSTC STC20060626220009806/26/06 22:00:31  5-MIN KSTC 270400Z AUTO 00000KT 10SM CLR 14/12 A3003 930 86 1100 000/00 RMK AO2
14926KSTC STC20060626220509806/26/06 22:05:31  5-MIN KSTC 270405Z AUTO 00000KT 10SM CLR 14/13 A3003 930 93 1100 000/00 RMK AO2
14926KSTC STC20060626221009806/26/06 22:10:31  5-MIN KSTC 270410Z AUTO 00000KT 10SM CLR 14/12 A3003 930 90 1100 000/00 RMK AO2
14926KSTC STC20060626221509806/26/06 22:15:31  5-MIN KSTC 270415Z AUTO 00000KT 10SM CLR 14/12 A3003 930 90 1100 000/00 RMK AO2
14926KSTC STC20060626222009806/26/06 22:20:31  5-MIN KSTC 270420Z AUTO 00000KT 10SM CLR 13/12 A3003 930 93 1000 000/00 RMK AO2
14926KSTC STC20060626222509806/26/06 22:25:31  5-MIN KSTC 270425Z AUTO 00000KT 10SM CLR 13/12 A3003 920 93 1000 000/00 RMK AO2
14926KSTC STC20060626223009806/26/06 22:30:31  5-MIN KSTC 270430Z AUTO 00000KT 10SM CLR 13/12 A3003 920 93 1000 000/00 RMK AO2
14926KSTC STC20060626223509806/26/06 22:35:31  5-MIN KSTC 270435Z AUTO 00000KT 10SM CLR 13/12 A3003 920 93 1000 000/00 RMK AO2
14926KSTC STC20060626224009806/26/06 22:40:31  5-MIN KSTC 270440Z AUTO 00000KT 10SM CLR 13/12 A3003 920 93 1000 000/00 RMK AO2
14926KSTC STC20060626224509806/26/06 22:45:31  5-MIN KSTC 270445Z AUTO 00000KT 10SM CLR 13/12 A3004 920 93 1000 000/00 RMK AO2
14926KSTC STC20060626225011506/26/06 22:50:31  5-MIN KSTC 270450Z AUTO 00000KT 10SM CLR 13/12 A3004 920 93 1000 000/00 RMK AO2 SLP176 T01330122
14926KSTC STC20060626225509806/26/06 22:55:31  5-MIN KSTC 270455Z AUTO 00000KT 10SM CLR 13/12 A3004 920 93 1000 000/00 RMK AO2
14926KSTC STC20060626230009806/26/06 23:00:31  5-MIN KSTC 270500Z AUTO 00000KT 10SM CLR 13/12 A3004 920 93 1000 000/00 RMK AO2
14926KSTC STC20060626230509806/26/06 23:05:31  5-MIN KSTC 270505Z AUTO 00000KT 10SM CLR 13/12 A3004 920 93 1000 000/00 RMK AO2
14926KSTC STC20060626231009806/26/06 23:10:31  5-MIN KSTC 270510Z AUTO 00000KT 10SM CLR 13/12 A3004 910 93 1000 000/00 RMK AO2
14926KSTC STC20060626231509706/26/06 23:15:31  5-MIN KSTC 270515Z AUTO 00000KT 10SM CLR 13/12 A3004 910 93 900 000/00 RMK AO2
14926KSTC STC20060626232009706/26/06 23:20:31  5-MIN KSTC 270520Z AUTO 00000KT 10SM CLR 13/12 A3004 920 93 900 000/00 RMK AO2
14926KSTC STC20060626232509706/26/06 23:25:31  5-MIN KSTC 270525Z AUTO 00000KT 10SM CLR 13/12 A3004 920 93 900 000/00 RMK AO2
14926KSTC STC20060626233009706/26/06 23:30:31  5-MIN KSTC 270530Z AUTO 00000KT 10SM CLR 12/12 A3004 920 96 800 000/00 RMK AO2
14926KSTC STC20060626233509706/26/06 23:35:31  5-MIN KSTC 270535Z AUTO 00000KT 10SM CLR 13/12 A3004 910 93 900 000/00 RMK AO2
14926KSTC STC20060626234009706/26/06 23:40:31  5-MIN KSTC 270540Z AUTO 32003KT 10SM CLR 12/12 A3004 910 96 800 320/03 RMK AO2
14926KSTC STC20060626234509706/26/06 23:45:31  5-MIN KSTC 270545Z AUTO 31003KT 10SM CLR 13/12 A3004 910 93 900 310/03 RMK AO2
14926KSTC STC20060626235014806/26/06 23:50:31  5-MIN KSTC 270550Z AUTO 30004KT 10SM CLR 13/12 A3004 910 93 900 300/04 RMK AO2 SLP178 60000 T01280117 10183 20122 402780111 58002
14926KSTC STC20060626235509706/26/06 23:55:31  5-MIN KSTC 270555Z AUTO 34003KT 10SM CLR 13/12 A3004 910 93 900 330/03 RMK AO2
14926KSTC STC20060627000009706/27/06 00:00:32  5-MIN KSTC 270600Z AUTO 32004KT 10SM CLR 13/12 A3004 920 93 900 310/04 RMK AO2
14926KSTC STC20060627000509706/27/06 00:05:31  5-MIN KSTC 270605Z AUTO 32004KT 10SM CLR 13/12 A3004 910 93 900 320/04 RMK AO2
14926KSTC STC20060627001009706/27/06 00:10:31  5-MIN KSTC 270610Z AUTO 33003KT 10SM CLR 13/12 A3004 910 93 900 330/03 RMK AO2
14926KSTC STC20060627001509706/27/06 00:15:31  5-MIN KSTC 270615Z AUTO 00000KT 10SM CLR 13/12 A3004 910 93 900 000/00 RMK AO2
14926KSTC STC20060627002009706/27/06 00:20:31  5-MIN KSTC 270620Z AUTO 00000KT 10SM CLR 13/12 A3004 910 93 900 000/00 RMK AO2
14926KSTC STC20060627002509706/27/06 00:25:31  5-MIN KSTC 270625Z AUTO 33003KT 10SM CLR 13/12 A3004 910 93 900 320/03 RMK AO2
14926KSTC STC20060627003009706/27/06 00:30:31  5-MIN KSTC 270630Z AUTO 00000KT 10SM CLR 12/11 A3004 910 93 800 000/00 RMK AO2
14926KSTC STC20060627003509706/27/06 00:35:31  5-MIN KSTC 270635Z AUTO 00000KT 10SM CLR 12/12 A3004 910 96 800 000/00 RMK AO2
14926KSTC STC20060627004009706/27/06 00:40:31  5-MIN KSTC 270640Z AUTO 00000KT 10SM CLR 13/12 A3004 920 93 900 000/00 RMK AO2
14926KSTC STC20060627004509706/27/06 00:45:31  5-MIN KSTC 270645Z AUTO 00000KT 10SM CLR 13/11 A3004 920 89 900 000/00 RMK AO2
14926KSTC STC20060627005011406/27/06 00:50:31  5-MIN KSTC 270650Z AUTO 31003KT 10SM CLR 12/11 A3004 920 93 800 310/03 RMK AO2 SLP177 T01220111
14926KSTC STC20060627005509706/27/06 00:55:31  5-MIN KSTC 270655Z AUTO 32003KT 10SM CLR 12/12 A3004 920 96 800 320/03 RMK AO2
14926KSTC STC20060627010009706/27/06 01:00:31  5-MIN KSTC 270700Z AUTO 00000KT 10SM CLR 12/11 A3004 920 93 800 000/00 RMK AO2
14926KSTC STC20060627010509606/27/06 01:05:31  5-MIN KSTC 270705Z AUTO 00000KT 9SM CLR 12/12 A3004 920 96 800 000/00 RMK AO2
14926KSTC STC20060627011009606/27/06 01:10:31  5-MIN KSTC 270710Z AUTO 00000KT 8SM CLR 12/11 A3004 920 93 800 000/00 RMK AO2
14926KSTC STC20060627011509906/27/06 01:15:31  5-MIN KSTC 270715Z AUTO 00000KT 6SM BR CLR 12/11 A3004 920 93 800 000/00 RMK AO2
14926KSTC STC20060627012009906/27/06 01:20:31  5-MIN KSTC 270720Z AUTO 00000KT 6SM BR CLR 12/11 A3004 920 93 800 000/00 RMK AO2
14926KSTC STC20060627012509606/27/06 01:25:31  5-MIN KSTC 270725Z AUTO 35003KT 7SM CLR 12/11 A3004 920 96 800 350/03 RMK AO2
14926KSTC STC20060627013009606/27/06 01:30:31  5-MIN KSTC 270730Z AUTO 00000KT 7SM CLR 12/11 A3004 920 96 800 000/00 RMK AO2
14926KSTC STC20060627013509606/27/06 01:35:31  5-MIN KSTC 270735Z AUTO 00000KT 7SM CLR 12/11 A3004 920 93 800 000/00 RMK AO2
14926KSTC STC20060627014009606/27/06 01:40:31  5-MIN KSTC 270740Z AUTO 00000KT 8SM CLR 12/12 A3004 920 96 800 000/00 RMK AO2
14926KSTC STC20060627014509606/27/06 01:45:31  5-MIN KSTC 270745Z AUTO 00000KT 7SM CLR 12/11 A3004 910 96 800 000/00 RMK AO2
14926KSTC STC20060627015011606/27/06 01:50:31  5-MIN KSTC 270750Z AUTO 00000KT 6SM BR CLR 12/11 A3004 910 96 800 000/00 RMK AO2 SLP178 T01170111
14926KSTC STC20060627015509606/27/06 01:55:31  5-MIN KSTC 270755Z AUTO 00000KT 7SM CLR 12/11 A3004 920 96 800 000/00 RMK AO2
14926KSTC STC20060627020009606/27/06 02:00:31  5-MIN KSTC 270800Z AUTO 00000KT 8SM CLR 11/11 A3004 920 96 700 000/00 RMK AO2
14926KSTC STC20060627020509606/27/06 02:05:31  5-MIN KSTC 270805Z AUTO 08003KT 7SM CLR 11/11 A3004 920 96 700 080/03 RMK AO2
14926KSTC STC20060627021009606/27/06 02:10:31  5-MIN KSTC 270810Z AUTO 00000KT 8SM CLR 11/11 A3004 910 96 700 000/00 RMK AO2
14926KSTC STC20060627021509606/27/06 02:15:31  5-MIN KSTC 270815Z AUTO 00000KT 8SM CLR 11/11 A3004 910 96 700 000/00 RMK AO2
14926KSTC STC20060627022009606/27/06 02:20:31  5-MIN KSTC 270820Z AUTO 00000KT 7SM CLR 11/11 A3004 920 96 700 000/00 RMK AO2
14926KSTC STC20060627022509606/27/06 02:25:31  5-MIN KSTC 270825Z AUTO 00000KT 8SM CLR 12/11 A3004 920 93 800 000/00 RMK AO2
14926KSTC STC20060627023009606/27/06 02:30:31  5-MIN KSTC 270830Z AUTO 00000KT 7SM CLR 11/10 A3004 920 96 600 000/00 RMK AO2
14926KSTC STC20060627023509906/27/06 02:35:31  5-MIN KSTC 270835Z AUTO 00000KT 5SM BR CLR 11/10 A3004 920 96 600 000/00 RMK AO2
14926KSTC STC20060627024009906/27/06 02:40:31  5-MIN KSTC 270840Z AUTO 00000KT 4SM BR CLR 11/10 A3004 920 96 600 000/00 RMK AO2
14926KSTC STC20060627024509906/27/06 02:45:31  5-MIN KSTC 270845Z AUTO 00000KT 5SM BR CLR 11/10 A3004 920 93 700 000/00 RMK AO2
14926KSTC STC20060627025012206/27/06 02:50:31  5-MIN KSTC 270850Z AUTO 02003KT 6SM BR CLR 11/11 A3004 920 96 700 020/03 RMK AO2 SLP178 T01110106 53002
14926KSTC STC20060627025509606/27/06 02:55:31  5-MIN KSTC 270855Z AUTO 00000KT 8SM CLR 11/11 A3004 910 96 700 000/00 RMK AO2
14926KSTC STC20060627030009606/27/06 03:00:31  5-MIN KSTC 270900Z AUTO 03003KT 9SM CLR 11/11 A3004 910 96 700 020/03 RMK AO2
14926KSTC STC20060627030509606/27/06 03:05:31  5-MIN KSTC 270905Z AUTO 03003KT 9SM CLR 11/11 A3004 910 96 700 020/03 RMK AO2
14926KSTC STC20060627031009606/27/06 03:10:31  5-MIN KSTC 270910Z AUTO 03003KT 9SM CLR 12/11 A3004 910 93 800 020/03 RMK AO2
14926KSTC STC20060627031509606/27/06 03:15:31  5-MIN KSTC 270915Z AUTO 00000KT 9SM CLR 12/11 A3004 920 93 800 000/00 RMK AO2
14926KSTC STC20060627032009606/27/06 03:20:31  5-MIN KSTC 270920Z AUTO 00000KT 9SM CLR 12/11 A3004 920 93 800 000/00 RMK AO2
14926KSTC STC20060627032509606/27/06 03:25:31  5-MIN KSTC 270925Z AUTO 00000KT 8SM CLR 11/11 A3004 920 96 700 000/00 RMK AO2
14926KSTC STC20060627033009606/27/06 03:30:31  5-MIN KSTC 270930Z AUTO 00000KT 8SM CLR 11/11 A3004 920 96 700 000/00 RMK AO2
14926KSTC STC20060627033509606/27/06 03:35:31  5-MIN KSTC 270935Z AUTO 00000KT 8SM CLR 11/11 A3004 920 96 700 000/00 RMK AO2
14926KSTC STC20060627034009606/27/06 03:40:31  5-MIN KSTC 270940Z AUTO 00000KT 7SM CLR 11/10 A3004 920 96 600 000/00 RMK AO2
14926KSTC STC20060627034509906/27/06 03:45:31  5-MIN KSTC 270945Z AUTO 00000KT 6SM BR CLR 11/10 A3004 920 96 600 000/00 RMK AO2
14926KSTC STC20060627035011606/27/06 03:50:31  5-MIN KSTC 270950Z AUTO 00000KT 5SM BR CLR 11/11 A3004 910 96 700 000/00 RMK AO2 SLP178 T01110106
14926KSTC STC20060627035509906/27/06 03:55:31  5-MIN KSTC 270955Z AUTO 00000KT 5SM BR CLR 11/10 A3004 910 93 700 000/00 RMK AO2
14926KSTC STC20060627040009906/27/06 04:00:31  5-MIN KSTC 271000Z AUTO 00000KT 4SM BR CLR 11/11 A3005 910 96 700 000/00 RMK AO2
14926KSTC STC20060627040509906/27/06 04:05:31  5-MIN KSTC 271005Z AUTO 00000KT 2SM BR CLR 11/10 A3005 910 93 700 000/00 RMK AO2
14926KSTC STC20060627041010306/27/06 04:10:31  5-MIN KSTC 271010Z AUTO 00000KT 1 1/4SM BR CLR 11/10 A3005 910 96 600 000/00 RMK AO2
14926KSTC STC20060627041511506/27/06 04:15:31  5-MIN KSTC 271015Z AUTO 00000KT 1 1/2SM BR CLR 11/10 A3005 910 96 600 000/00 RMK AO2 VIS 1V2 1/2
14926KSTC STC20060627042011706/27/06 04:20:31  5-MIN KSTC 271020Z AUTO 00000KT 1 1/4SM BR CLR 11/10 A3005 910 96 600 000/00 RMK AO2 VIS 1/2V2 1/2
14926KSTC STC20060627042510306/27/06 04:25:31  5-MIN KSTC 271025Z AUTO 32003KT 1 1/2SM BR CLR 11/10 A3005 910 96 600 310/03 RMK AO2
14926KSTC STC20060627043009906/27/06 04:30:31  5-MIN KSTC 271030Z AUTO 00000KT 2SM BR CLR 10/09 A3005 910 96 600 000/00 RMK AO2
14926KSTC STC20060627043511306/27/06 04:35:31  5-MIN KSTC 271035Z AUTO 00000KT 1 1/4SM BR CLR 10/09 A3005 910 96 600 000/00 RMK AO2 VIS 1/2V5
14926KSTC STC20060627044010106/27/06 04:40:31  5-MIN KSTC 271040Z AUTO 00000KT 1/4SM FG CLR 10/09 A3005 910 96 600 000/00 RMK AO2
14926KSTC STC20060627044510306/27/06 04:45:31  5-MIN KSTC 271045Z AUTO 00000KT 1/4SM FG VV001 10/09 A3005 910 96 600 000/00 RMK AO2
14926KSTC STC20060627045010306/27/06 04:50:31  5-MIN KSTC 271050Z AUTO 00000KT 1/4SM FG VV001 10/09 A3005 910 96 600 000/00 RMK AO2
14926KSTC STC20060627045510306/27/06 04:55:31  5-MIN KSTC 271055Z AUTO 00000KT 1/4SM FG VV001 10/09 A3005 910 96 600 000/00 RMK AO2
14926KSTC STC20060627050010206/27/06 05:00:31  5-MIN KSTC 271100Z AUTO 28003KT 3SM BR FEW001 10/09 A3005 910 96 600 280/03 RMK AO2
14926KSTC STC20060627050509906/27/06 05:05:31  5-MIN KSTC 271105Z AUTO 28003KT 7SM FEW001 11/10 A3005 910 96 600 270/03 RMK AO2
14926KSTC STC20060627051009906/27/06 05:10:31  5-MIN KSTC 271110Z AUTO 00000KT 8SM FEW001 11/10 A3005 910 96 600 000/00 RMK AO2
14926KSTC STC20060627051509606/27/06 05:15:31  5-MIN KSTC 271115Z AUTO 00000KT 8SM CLR 10/09 A3005 910 96 600 000/00 RMK AO2
14926KSTC STC20060627052009606/27/06 05:20:31  5-MIN KSTC 271120Z AUTO 32003KT 8SM CLR 10/09 A3005 910 96 600 320/03 RMK AO2
14926KSTC STC20060627052509606/27/06 05:25:31  5-MIN KSTC 271125Z AUTO 32004KT 7SM CLR 10/09 A3005 910 96 600 320/04 RMK AO2
14926KSTC STC20060627053009906/27/06 05:30:31  5-MIN KSTC 271130Z AUTO 32003KT 6SM BR CLR 11/10 A3005 910 96 600 320/03 RMK AO2
14926KSTC STC20060627053509906/27/06 05:35:31  5-MIN KSTC 271135Z AUTO 32003KT 5SM BR CLR 11/10 A3005 910 96 600 320/03 RMK AO2
14926KSTC STC20060627054009906/27/06 05:40:31  5-MIN KSTC 271140Z AUTO 34003KT 5SM BR CLR 11/11 A3005 910 96 700 330/03 RMK AO2
14926KSTC STC20060627054509906/27/06 05:45:31  5-MIN KSTC 271145Z AUTO 00000KT 6SM BR CLR 11/11 A3005 910 96 700 000/00 RMK AO2
14926KSTC STC20060627055012906/27/06 05:50:31  5-MIN KSTC 271150Z 00000KT 6SM BR CLR 11/11 A3005 910 96 700 000/00 RMK AO2 SLP185 T01110106 10128 20100 56000
14926KSTC STC20060627055509106/27/06 05:55:31  5-MIN KSTC 271155Z 00000KT 7SM CLR 12/11 A3005 910 96 800 000/00 RMK AO2
14926KSTC STC20060627060009106/27/06 06:00:31  5-MIN KSTC 271200Z 32003KT 7SM CLR 12/11 A3005 910 96 800 320/03 RMK AO2
14926KSTC STC20060627060509106/27/06 06:05:31  5-MIN KSTC 271205Z 32003KT 8SM CLR 12/12 A3005 910 96 800 320/03 RMK AO2
14926KSTC STC20060627061009106/27/06 06:10:31  5-MIN KSTC 271210Z 32003KT 9SM CLR 12/12 A3005 910 96 800 320/03 RMK AO2
14926KSTC STC20060627061509206/27/06 06:15:31  5-MIN KSTC 271215Z 34004KT 10SM CLR 13/12 A3005 900 93 900 330/04 RMK AO2
14926KSTC STC20060627062009206/27/06 06:20:31  5-MIN KSTC 271220Z 34004KT 10SM CLR 13/12 A3005 900 93 900 330/04 RMK AO2
14926KSTC STC20060627062509306/27/06 06:25:31  5-MIN KSTC 271225Z 33003KT 10SM CLR 13/12 A3005 900 93 1000 330/03 RMK AO2
14926KSTC STC20060627063009306/27/06 06:30:31  5-MIN KSTC 271230Z 34003KT 10SM CLR 13/12 A3006 900 93 1000 330/03 RMK AO2
14926KSTC STC20060627063509306/27/06 06:35:31  5-MIN KSTC 271235Z 34003KT 10SM CLR 14/12 A3005 900 90 1000 340/03 RMK AO2
14926KSTC STC20060627064009306/27/06 06:40:31  5-MIN KSTC 271240Z 34005KT 10SM CLR 14/13 A3005 900 93 1000 340/05 RMK AO2
14926KSTC STC20060627064509306/27/06 06:45:31  5-MIN KSTC 271245Z 33003KT 10SM CLR 14/13 A3005 900 93 1000 320/03 RMK AO2
14926KSTC STC20060627065011006/27/06 06:50:31  5-MIN KSTC 271250Z 33005KT 10SM CLR 14/13 A3005 900 93 1000 330/05 RMK AO2 SLP186 T01390128
14926KSTC STC20060627065509306/27/06 06:55:31  5-MIN KSTC 271255Z 32004KT 10SM CLR 14/13 A3006 900 93 1000 320/04 RMK AO2
14926KSTC STC20060627070009306/27/06 07:00:31  5-MIN KSTC 271300Z 32005KT 10SM CLR 14/13 A3006 900 90 1100 320/05 RMK AO2
14926KSTC STC20060627070509306/27/06 07:05:31  5-MIN KSTC 271305Z 33005KT 10SM CLR 14/13 A3006 900 90 1100 330/05 RMK AO2
14926KSTC STC20060627071009306/27/06 07:10:31  5-MIN KSTC 271310Z 33004KT 10SM CLR 14/13 A3006 900 90 1100 320/04 RMK AO2
14926KSTC STC20060627071509306/27/06 07:15:31  5-MIN KSTC 271315Z 33005KT 10SM CLR 14/13 A3006 900 90 1100 330/05 RMK AO2
14926KSTC STC20060627072009306/27/06 07:20:31  5-MIN KSTC 271320Z 33005KT 10SM CLR 15/13 A3006 900 86 1100 320/05 RMK AO2
14926KSTC STC20060627072509306/27/06 07:25:31  5-MIN KSTC 271325Z 32004KT 10SM CLR 15/13 A3006 900 86 1100 320/04 RMK AO2
14926KSTC STC20060627073009306/27/06 07:30:31  5-MIN KSTC 271330Z 33005KT 10SM CLR 15/13 A3006 900 86 1200 330/05 RMK AO2
14926KSTC STC20060627073509306/27/06 07:35:31  5-MIN KSTC 271335Z 34004KT 10SM CLR 16/13 A3006 900 83 1200 340/04 RMK AO2
14926KSTC STC20060627074009306/27/06 07:40:31  5-MIN KSTC 271340Z 33005KT 10SM CLR 16/13 A3006 900 83 1200 330/05 RMK AO2
14926KSTC STC20060627074509306/27/06 07:45:31  5-MIN KSTC 271345Z 36005KT 10SM CLR 16/13 A3006 900 83 1300 350/05 RMK AO2
14926KSTC STC20060627075011006/27/06 07:50:31  5-MIN KSTC 271350Z 34005KT 10SM CLR 16/13 A3006 900 83 1300 340/05 RMK AO2 SLP187 T01610133
14926KSTC STC20060627075509306/27/06 07:55:31  5-MIN KSTC 271355Z 34006KT 10SM CLR 16/13 A3006 900 83 1300 340/06 RMK AO2
14926KSTC STC20060627080009306/27/06 08:00:31  5-MIN KSTC 271400Z 35005KT 10SM CLR 17/13 A3006 890 80 1300 350/05 RMK AO2
14926KSTC STC20060627080509306/27/06 08:05:31  5-MIN KSTC 271405Z 35005KT 10SM CLR 17/13 A3006 900 80 1300 340/05 RMK AO2
14926KSTC STC20060627081009306/27/06 08:10:31  5-MIN KSTC 271410Z 34005KT 10SM CLR 17/13 A3006 890 80 1300 330/05 RMK AO2
14926KSTC STC20060627081509306/27/06 08:15:31  5-MIN KSTC 271415Z 31006KT 10SM CLR 17/13 A3006 890 80 1300 310/06 RMK AO2
14926KSTC STC20060627082009306/27/06 08:20:31  5-MIN KSTC 271420Z 33005KT 10SM CLR 17/13 A3006 890 78 1400 330/05 RMK AO2
14926KSTC STC20060627082509306/27/06 08:25:31  5-MIN KSTC 271425Z 33005KT 10SM CLR 17/13 A3006 890 78 1400 320/05 RMK AO2
14926KSTC STC20060627083009306/27/06 08:30:31  5-MIN KSTC 271430Z 34006KT 10SM CLR 17/13 A3006 890 78 1400 340/06 RMK AO2
14926KSTC STC20060627083509306/27/06 08:35:31  5-MIN KSTC 271435Z 33006KT 10SM CLR 17/13 A3007 890 78 1400 330/06 RMK AO2
14926KSTC STC20060627084009306/27/06 08:40:31  5-MIN KSTC 271440Z 35005KT 10SM CLR 17/13 A3006 890 78 1400 350/05 RMK AO2
14926KSTC STC20060627084509306/27/06 08:45:31  5-MIN KSTC 271445Z 33006KT 10SM CLR 18/13 A3006 890 72 1500 330/06 RMK AO2
14926KSTC STC20060627085011606/27/06 08:50:31  5-MIN KSTC 271450Z VRB04KT 10SM CLR 18/12 A3006 890 69 1500 VRB/04 RMK AO2 SLP187 T01780122 51003
14926KSTC STC20060627085509306/27/06 08:55:31  5-MIN KSTC 271455Z 32005KT 10SM CLR 18/13 A3006 900 72 1500 320/05 RMK AO2
14926KSTC STC20060627090009306/27/06 09:00:31  5-MIN KSTC 271500Z 35005KT 10SM CLR 18/12 A3006 900 69 1500 350/05 RMK AO2
14926KSTC STC20060627090509306/27/06 09:05:31  5-MIN KSTC 271505Z 32006KT 10SM CLR 18/13 A3006 900 72 1500 310/06 RMK AO2
14926KSTC STC20060627091009306/27/06 09:10:31  5-MIN KSTC 271510Z 32006KT 10SM CLR 18/12 A3006 900 67 1500 310/06 RMK AO2
14926KSTC STC20060627091509306/27/06 09:15:31  5-MIN KSTC 271515Z VRB05KT 10SM CLR 18/12 A3006 900 67 1500 VRB/05 RMK AO2
14926KSTC STC20060627092009306/27/06 09:20:31  5-MIN KSTC 271520Z 31006KT 10SM CLR 19/12 A3006 900 65 1600 310/06 RMK AO2
14926KSTC STC20060627092509306/27/06 09:25:31  5-MIN KSTC 271525Z 32006KT 10SM CLR 18/12 A3006 900 65 1500 320/06 RMK AO2
14926KSTC STC20060627093009306/27/06 09:30:31  5-MIN KSTC 271530Z 34006KT 10SM CLR 19/12 A3006 900 62 1700 330/06 RMK AO2
14926KSTC STC20060627093509306/27/06 09:35:31  5-MIN KSTC 271535Z 32006KT 10SM CLR 19/12 A3006 900 62 1600 320/06 RMK AO2
14926KSTC STC20060627094009306/27/06 09:40:31  5-MIN KSTC 271540Z 32007KT 10SM CLR 19/12 A3006 900 62 1700 320/07 RMK AO2
14926KSTC STC20060627094509306/27/06 09:45:31  5-MIN KSTC 271545Z 30006KT 10SM CLR 19/12 A3006 900 62 1700 300/06 RMK AO2
14926KSTC STC20060627095011006/27/06 09:50:31  5-MIN KSTC 271550Z 32005KT 10SM CLR 19/12 A3006 900 62 1700 320/05 RMK AO2 SLP186 T01940122
14926KSTC STC20060627095509306/27/06 09:55:31  5-MIN KSTC 271555Z 30004KT 10SM CLR 19/12 A3006 900 62 1700 300/04 RMK AO2
14926KSTC STC20060627100009306/27/06 10:00:31  5-MIN KSTC 271600Z 31008KT 10SM CLR 20/13 A3006 900 63 1700 310/08 RMK AO2
14926KSTC STC20060627100509306/27/06 10:05:31  5-MIN KSTC 271605Z 31008KT 10SM CLR 21/13 A3006 900 60 1800 310/08 RMK AO2
14926KSTC STC20060627101009306/27/06 10:10:31  5-MIN KSTC 271610Z 33008KT 10SM CLR 21/13 A3006 900 60 1800 330/08 RMK AO2
14926KSTC STC20060627101509306/27/06 10:15:31  5-MIN KSTC 271615Z 33007KT 10SM CLR 20/13 A3006 900 63 1700 320/07 RMK AO2
14926KSTC STC20060627102009206/27/06 10:20:31  5-MIN KSTC 271620Z 32009KT 9SM CLR 21/13 A3006 900 60 1800 320/09 RMK AO2
14926KSTC STC20060627102509206/27/06 10:25:31  5-MIN KSTC 271625Z 32009KT 9SM CLR 21/12 A3006 900 58 1800 320/09 RMK AO2
14926KSTC STC20060627103009206/27/06 10:30:31  5-MIN KSTC 271630Z 34010KT 9SM CLR 21/13 A3006 900 58 1900 340/10 RMK AO2
14926KSTC STC20060627103509206/27/06 10:35:31  5-MIN KSTC 271635Z 34008KT 9SM CLR 21/12 A3006 900 58 1800 340/08 RMK AO2
14926KSTC STC20060627104009206/27/06 10:40:31  5-MIN KSTC 271640Z 33009KT 8SM CLR 21/13 A3006 900 58 1900 330/09 RMK AO2
14926KSTC STC20060627104509206/27/06 10:45:31  5-MIN KSTC 271645Z 34008KT 8SM CLR 21/13 A3006 900 58 1900 340/08 RMK AO2
14926KSTC STC20060627105011206/27/06 10:50:31  5-MIN KSTC 271650Z 34008KT 8SM FEW031 21/13 A3006 900 58 1900 340/08 RMK AO2 SLP185 T02110128
14926KSTC STC20060627105510106/27/06 10:55:31  5-MIN KSTC 271655Z 35010G14KT 8SM FEW031 21/12 A3006 900 56 1900 350/10G14 RMK AO2
14926KSTC STC20060627110009206/27/06 11:00:31  5-MIN KSTC 271700Z 34009KT 7SM CLR 21/12 A3005 900 58 1800 340/09 RMK AO2
14926KSTC STC20060627110509506/27/06 11:05:31  5-MIN KSTC 271705Z 33009KT 7SM FEW033 21/13 A3006 900 58 1900 330/09 RMK AO2
14926KSTC STC20060627111009506/27/06 11:10:31  5-MIN KSTC 271710Z 32010KT 8SM FEW033 22/13 A3005 900 56 1900 320/10 RMK AO2
14926KSTC STC20060627111509506/27/06 11:15:31  5-MIN KSTC 271715Z 32010KT 7SM FEW033 21/12 A3005 900 56 1900 320/10 RMK AO2
14926KSTC STC20060627112009506/27/06 11:20:31  5-MIN KSTC 271720Z 32011KT 7SM FEW037 22/12 A3005 900 54 1900 320/11 RMK AO2
14926KSTC STC20060627112510206/27/06 11:25:31  5-MIN KSTC 271725Z 33010KT 7SM FEW037 SCT060 21/12 A3005 900 54 1900 320/10 RMK AO2
14926KSTC STC20060627113010506/27/06 11:30:31  5-MIN KSTC 271730Z 34010KT 6SM HZ FEW037 SCT065 21/12 A3005 900 54 1900 330/10 RMK AO2
14926KSTC STC20060627113510506/27/06 11:35:31  5-MIN KSTC 271735Z 01009KT 6SM HZ FEW039 SCT060 21/12 A3005 900 56 1900 360/09 RMK AO2
14926KSTC STC20060627114010506/27/06 11:40:31  5-MIN KSTC 271740Z 36009KT 6SM HZ FEW039 SCT065 22/12 A3005 900 54 1900 360/09 RMK AO2
14926KSTC STC20060627114510506/27/06 11:45:31  5-MIN KSTC 271745Z 36010KT 6SM HZ FEW039 SCT070 21/12 A3005 900 54 1900 360/10 RMK AO2
14926KSTC STC20060627115014006/27/06 11:50:31  5-MIN KSTC 271750Z 35009KT 6SM HZ FEW039 SCT070 22/12 A3005 910 52 1900 350/09 RMK AO2 SLP183 T02170117 10217 20117 51004
14926KSTC STC20060627115509806/27/06 11:55:31  5-MIN KSTC 271755Z 35010KT 6SM HZ FEW039 22/11 A3005 910 50 1900 350/10 RMK AO2
14926KSTC STC20060627120009806/27/06 12:00:31  5-MIN KSTC 271800Z 34010KT 6SM HZ FEW037 22/12 A3005 910 51 2000 340/10 RMK AO2
14926KSTC STC20060627120510506/27/06 12:05:31  5-MIN KSTC 271805Z 33011KT 6SM HZ FEW037 SCT070 21/12 A3005 900 54 1900 330/11 RMK AO2
14926KSTC STC20060627121010506/27/06 12:10:31  5-MIN KSTC 271810Z 34009KT 6SM HZ FEW039 BKN070 21/12 A3005 900 56 1800 340/09 RMK AO2
14926KSTC STC20060627121510506/27/06 12:15:31  5-MIN KSTC 271815Z 34009KT 6SM HZ FEW039 SCT070 21/12 A3005 900 56 1800 330/09 RMK AO2
14926KSTC STC20060627122010506/27/06 12:20:31  5-MIN KSTC 271820Z 33009KT 6SM HZ FEW039 SCT070 21/12 A3005 900 56 1900 330/09 RMK AO2
14926KSTC STC20060627122509806/27/06 12:25:31  5-MIN KSTC 271825Z 35008KT 6SM HZ FEW039 22/12 A3005 900 54 1900 350/08 RMK AO2
14926KSTC STC20060627123009806/27/06 12:30:31  5-MIN KSTC 271830Z 34008KT 6SM HZ FEW039 22/12 A3005 910 52 2000 340/08 RMK AO2
14926KSTC STC20060627123511806/27/06 12:35:31  5-MIN KSTC 271835Z 35010G14KT 6SM HZ FEW037 SCT047 SCT065 22/12 A3005 910 54 1900 350/10G14 RMK AO2
14926KSTC STC20060627124010506/27/06 12:40:31  5-MIN KSTC 271840Z 35010KT 6SM HZ FEW042 SCT060 22/12 A3005 910 52 2000 350/10 RMK AO2
14926KSTC STC20060627124509506/27/06 12:45:31  5-MIN KSTC 271845Z 36009KT 7SM FEW044 22/12 A3005 910 52 1900 350/09 RMK AO2
14926KSTC STC20060627125011206/27/06 12:50:31  5-MIN KSTC 271850Z 01012KT 7SM FEW044 22/12 A3005 910 51 2000 010/12 RMK AO2 SLP182 T02220117
14926KSTC STC20060627125510806/27/06 12:55:31  5-MIN KSTC 271855Z 01011G17KT 7SM FEW044 SCT055 21/11 A3005 910 52 1900 010/11G17 RMK AO2
14926KSTC STC20060627130010806/27/06 13:00:31  5-MIN KSTC 271900Z 36010G17KT 7SM FEW044 SCT070 21/12 A3005 910 54 1900 360/10G17 RMK AO2
14926KSTC STC20060627130509806/27/06 13:05:31  5-MIN KSTC 271905Z 36009KT 6SM HZ FEW055 22/12 A3005 910 54 1900 360/09 RMK AO2
14926KSTC STC20060627131009806/27/06 13:10:31  5-MIN KSTC 271910Z 35009KT 6SM HZ FEW085 22/12 A3005 910 51 2000 350/09 RMK AO2
14926KSTC STC20060627131509506/27/06 13:15:31  5-MIN KSTC 271915Z 34009KT 7SM FEW090 23/12 A3005 910 51 2100 340/09 RMK AO2
14926KSTC STC20060627132009506/27/06 13:20:31  5-MIN KSTC 271920Z 34011KT 7SM FEW085 22/12 A3005 910 52 2000 340/11 RMK AO2
14926KSTC STC20060627132509506/27/06 13:25:31  5-MIN KSTC 271925Z 32009KT 7SM FEW090 22/12 A3005 910 51 2000 320/09 RMK AO2
14926KSTC STC20060627133009506/27/06 13:30:31  5-MIN KSTC 271930Z 33009KT 7SM FEW039 22/12 A3005 910 51 2000 320/09 RMK AO2
14926KSTC STC20060627133510106/27/06 13:35:31  5-MIN KSTC 271935Z 01007G16KT 7SM SCT039 22/12 A3005 910 54 1900 010/07G16 RMK AO2
14926KSTC STC20060627134011506/27/06 13:40:31  5-MIN KSTC 271940Z 01005G16KT 7SM SCT039 SCT050 BKN085 21/12 A3005 910 56 1900 010/05G16 RMK AO2
14926KSTC STC20060627134510906/27/06 13:45:31  5-MIN KSTC 271945Z 36007KT 7SM SCT039 SCT050 BKN085 21/12 A3005 910 56 1900 360/07 RMK AO2
14926KSTC STC20060627135011206/27/06 13:50:31  5-MIN KSTC 271950Z 01008KT 7SM FEW039 22/12 A3005 910 52 1900 010/08 RMK AO2 SLP183 T02170117
14926KSTC STC20060627135510206/27/06 13:55:31  5-MIN KSTC 271955Z 36006KT 7SM FEW039 SCT090 22/12 A3005 910 52 1900 350/06 RMK AO2
14926KSTC STC20060627140010206/27/06 14:00:31  5-MIN KSTC 272000Z 35005KT 7SM SCT039 SCT090 22/12 A3005 910 52 2000 340/05 RMK AO2
14926KSTC STC20060627140510906/27/06 14:05:31  5-MIN KSTC 272005Z 02008KT 7SM FEW039 SCT055 SCT070 22/12 A3005 910 51 2000 020/08 RMK AO2
14926KSTC STC20060627141009506/27/06 14:10:31  5-MIN KSTC 272010Z 33009KT 7SM FEW039 23/12 A3005 910 49 2100 330/09 RMK AO2
14926KSTC STC20060627141510206/27/06 14:15:31  5-MIN KSTC 272015Z 02008KT 7SM FEW039 SCT060 23/12 A3005 910 49 2100 020/08 RMK AO2
14926KSTC STC20060627142010206/27/06 14:20:31  5-MIN KSTC 272020Z 02010KT 7SM SCT043 BKN060 22/12 A3005 910 52 1900 020/10 RMK AO2
14926KSTC STC20060627142510206/27/06 14:25:31  5-MIN KSTC 272025Z 03008KT 7SM SCT043 BKN055 21/12 A3005 910 54 1900 020/08 RMK AO2
14926KSTC STC20060627143010906/27/06 14:30:31  5-MIN KSTC 272030Z 01009KT 7SM SCT043 SCT055 BKN070 22/12 A3005 910 52 1900 010/09 RMK AO2
14926KSTC STC20060627143510906/27/06 14:35:31  5-MIN KSTC 272035Z 01007KT 7SM FEW043 SCT055 BKN070 22/12 A3005 910 51 2000 360/07 RMK AO2
14926KSTC STC20060627144010906/27/06 14:40:31  5-MIN KSTC 272040Z 35007KT 7SM FEW043 SCT055 SCT070 23/12 A3004 910 49 2100 350/07 RMK AO2
14926KSTC STC20060627144510506/27/06 14:45:31  5-MIN KSTC 272045Z VRB06KT 6SM HZ FEW043 SCT070 23/12 A3004 910 49 2100 VRB/06 RMK AO2
14926KSTC STC20060627145012506/27/06 14:50:31  5-MIN KSTC 272050Z 02005KT 7SM FEW045 SCT070 23/12 A3004 910 49 2100 020/05 RMK AO2 SLP180 T02280117 56004
14926KSTC STC20060627145510906/27/06 14:55:31  5-MIN KSTC 272055Z 36004KT 7SM FEW045 SCT050 SCT070 23/12 A3004 920 49 2100 360/04 RMK AO2
14926KSTC STC20060627150010206/27/06 15:00:31  5-MIN KSTC 272100Z 03006KT 7SM SCT043 SCT050 23/12 A3004 920 49 2100 030/06 RMK AO2
14926KSTC STC20060627150510206/27/06 15:05:31  5-MIN KSTC 272105Z 35006KT 7SM SCT043 BKN060 23/12 A3003 920 49 2100 350/06 RMK AO2
14926KSTC STC20060627151010206/27/06 15:10:31  5-MIN KSTC 272110Z VRB04KT 7SM FEW043 SCT060 22/11 A3003 920 49 2000 VRB/04 RMK AO2
14926KSTC STC20060627151510206/27/06 15:15:31  5-MIN KSTC 272115Z 33005KT 7SM FEW043 SCT055 22/11 A3003 920 49 2000 330/05 RMK AO2
14926KSTC STC20060627152010506/27/06 15:20:31  5-MIN KSTC 272120Z 35005KT 6SM HZ FEW043 SCT060 22/11 A3004 920 49 2000 350/05 RMK AO2
14926KSTC STC20060627152509806/27/06 15:25:31  5-MIN KSTC 272125Z 34005KT 6SM HZ FEW043 22/12 A3003 920 51 2000 330/05 RMK AO2
14926KSTC STC20060627153009506/27/06 15:30:31  5-MIN KSTC 272130Z 34005KT 7SM FEW046 22/11 A3004 920 49 2000 330/05 RMK AO2
14926KSTC STC20060627153509206/27/06 15:35:31  5-MIN KSTC 272135Z VRB05KT 7SM CLR 22/12 A3003 920 51 2000 VRB/05 RMK AO2
14926KSTC STC20060627154009506/27/06 15:40:31  5-MIN KSTC 272140Z 34005KT 7SM FEW070 22/11 A3003 920 49 2000 340/05 RMK AO2
14926KSTC STC20060627154509506/27/06 15:45:31  5-MIN KSTC 272145Z 34004KT 7SM FEW070 22/11 A3003 920 49 2000 330/04 RMK AO2
14926KSTC STC20060627155011206/27/06 15:50:31  5-MIN KSTC 272150Z 35006KT 7SM FEW070 23/12 A3003 920 49 2100 350/06 RMK AO2 SLP177 T02280117
14926KSTC STC20060627155509506/27/06 15:55:31  5-MIN KSTC 272155Z 00000KT 7SM FEW070 23/11 A3003 920 45 2100 000/00 RMK AO2
14926KSTC STC20060627160009506/27/06 16:00:31  5-MIN KSTC 272200Z 03006KT 7SM FEW046 23/11 A3003 930 45 2100 030/06 RMK AO2
14926KSTC STC20060627160509506/27/06 16:05:31  5-MIN KSTC 272205Z 36006KT 7SM FEW046 23/11 A3003 930 47 2100 350/06 RMK AO2
14926KSTC STC20060627161009206/27/06 16:10:31  5-MIN KSTC 272210Z 34006KT 7SM CLR 23/11 A3003 930 47 2100 340/06 RMK AO2
14926KSTC STC20060627161509206/27/06 16:15:31  5-MIN KSTC 272215Z 36006KT 7SM CLR 23/12 A3003 930 47 2100 350/06 RMK AO2
14926KSTC STC20060627162009206/27/06 16:20:31  5-MIN KSTC 272220Z 01006KT 7SM CLR 23/11 A3003 930 45 2100 360/06 RMK AO2
14926KSTC STC20060627162509206/27/06 16:25:31  5-MIN KSTC 272225Z 35006KT 7SM CLR 23/11 A3003 930 47 2100 350/06 RMK AO2
14926KSTC STC20060627163009206/27/06 16:30:31  5-MIN KSTC 272230Z 33005KT 7SM CLR 23/11 A3003 930 47 2100 320/05 RMK AO2
14926KSTC STC20060627163509206/27/06 16:35:31  5-MIN KSTC 272235Z 36007KT 7SM CLR 23/11 A3003 930 47 2100 360/07 RMK AO2
14926KSTC STC20060627164009206/27/06 16:40:31  5-MIN KSTC 272240Z 33008KT 7SM CLR 23/11 A3003 920 47 2100 320/08 RMK AO2
14926KSTC STC20060627164509206/27/06 16:45:31  5-MIN KSTC 272245Z 33006KT 8SM CLR 22/11 A3003 920 49 2000 330/06 RMK AO2
14926KSTC STC20060627165010906/27/06 16:50:31  5-MIN KSTC 272250Z 33008KT 8SM CLR 23/11 A3003 930 47 2100 330/08 RMK AO2 SLP176 T02280111
14926KSTC STC20060627165509506/27/06 16:55:31  5-MIN KSTC 272255Z 31010KT 8SM FEW095 23/11 A3003 930 45 2100 310/10 RMK AO2
14926KSTC STC20060627170009506/27/06 17:00:31  5-MIN KSTC 272300Z 33008KT 8SM FEW049 23/11 A3003 930 45 2100 320/08 RMK AO2
14926KSTC STC20060627170511106/27/06 17:05:31  5-MIN KSTC 272305Z 36007KT 320V030 8SM FEW049 23/11 A3003 930 47 2100 360/07 320V030 RMK AO2
14926KSTC STC20060627171010206/27/06 17:10:31  5-MIN KSTC 272310Z 04010KT 8SM FEW049 SCT090 22/12 A3003 920 52 2000 040/10 RMK AO2
14926KSTC STC20060627171510906/27/06 17:15:31  5-MIN KSTC 272315Z 05010KT 7SM FEW049 SCT065 BKN095 21/12 A3003 920 56 1900 040/10 RMK AO2
14926KSTC STC20060627172010906/27/06 17:20:31  5-MIN KSTC 272320Z 07010KT 7SM SCT055 BKN070 BKN090 20/12 A3004 920 60 1800 060/10 RMK AO2
14926KSTC STC20060627172510906/27/06 17:25:31  5-MIN KSTC 272325Z 05006KT 7SM SCT050 BKN060 BKN090 19/12 A3004 920 62 1700 050/06 RMK AO2
14926KSTC STC20060627173010906/27/06 17:30:31  5-MIN KSTC 272330Z 07006KT 7SM SCT050 BKN065 BKN090 19/12 A3003 920 62 1700 070/06 RMK AO2
14926KSTC STC20060627173510906/27/06 17:35:31  5-MIN KSTC 272335Z 08005KT 7SM SCT050 BKN060 BKN085 19/12 A3003 920 62 1700 080/05 RMK AO2
14926KSTC STC20060627174010906/27/06 17:40:31  5-MIN KSTC 272340Z 08005KT 7SM FEW050 SCT060 BKN100 19/12 A3003 920 62 1700 080/05 RMK AO2
14926KSTC STC20060627174510906/27/06 17:45:31  5-MIN KSTC 272345Z 08005KT 8SM FEW050 SCT060 SCT100 20/12 A3003 920 58 1800 080/05 RMK AO2
14926KSTC STC20060627175013006/27/06 17:50:31  5-MIN KSTC 272350Z 08005KT 8SM FEW050 19/12 A3003 920 60 1700 070/05 RMK AO2 SLP178 T01940117 10233 20194 58003
14926KSTC STC20060627175509506/27/06 17:55:31  5-MIN KSTC 272355Z 07004KT 8SM FEW100 20/12 A3003 920 60 1800 070/04 RMK AO2
14926KSTC STC20060627180009206/27/06 18:00:31  5-MIN KSTC 280000Z 07003KT 8SM CLR 20/12 A3003 920 60 1800 070/03 RMK AO2
14926KSTC STC20060627180509206/27/06 18:05:31  5-MIN KSTC 280005Z 08004KT 8SM CLR 20/12 A3003 920 60 1800 080/04 RMK AO2
14926KSTC STC20060627181009206/27/06 18:10:31  5-MIN KSTC 280010Z 07004KT 8SM CLR 20/12 A3003 920 60 1800 060/04 RMK AO2
14926KSTC STC20060627181509206/27/06 18:15:31  5-MIN KSTC 280015Z 09003KT 8SM CLR 20/12 A3003 920 60 1800 080/03 RMK AO2
14926KSTC STC20060627182009206/27/06 18:20:31  5-MIN KSTC 280020Z 08003KT 8SM CLR 20/12 A3003 920 60 1800 080/03 RMK AO2
14926KSTC STC20060627182509206/27/06 18:25:31  5-MIN KSTC 280025Z 09003KT 8SM CLR 20/12 A3003 920 60 1800 090/03 RMK AO2
14926KSTC STC20060627183009206/27/06 18:30:31  5-MIN KSTC 280030Z 00000KT 8SM CLR 20/12 A3003 920 60 1800 000/00 RMK AO2
14926KSTC STC20060627183509206/27/06 18:35:31  5-MIN KSTC 280035Z 00000KT 8SM CLR 20/12 A3003 920 60 1800 000/00 RMK AO2
14926KSTC STC20060627184009206/27/06 18:40:31  5-MIN KSTC 280040Z 00000KT 8SM CLR 20/12 A3003 920 60 1800 000/00 RMK AO2
14926KSTC STC20060627184509206/27/06 18:45:31  5-MIN KSTC 280045Z 00000KT 8SM CLR 20/12 A3003 920 60 1800 000/00 RMK AO2
14926KSTC STC20060627185010906/27/06 18:50:31  5-MIN KSTC 280050Z 00000KT 8SM CLR 20/12 A3004 920 60 1800 000/00 RMK AO2 SLP178 T02000122
14926KSTC STC20060627185509206/27/06 18:55:31  5-MIN KSTC 280055Z 00000KT 8SM CLR 20/12 A3003 920 60 1800 000/00 RMK AO2
14926KSTC STC20060627190009206/27/06 19:00:31  5-MIN KSTC 280100Z 00000KT 8SM CLR 20/12 A3003 920 58 1800 000/00 RMK AO2
14926KSTC STC20060627190509206/27/06 19:05:31  5-MIN KSTC 280105Z 00000KT 8SM CLR 20/12 A3003 920 60 1800 000/00 RMK AO2
14926KSTC STC20060627191009206/27/06 19:10:31  5-MIN KSTC 280110Z 00000KT 8SM CLR 19/12 A3003 920 60 1700 000/00 RMK AO2
14926KSTC STC20060627191509506/27/06 19:15:31  5-MIN KSTC 280115Z 00000KT 8SM FEW110 20/12 A3004 920 60 1800 000/00 RMK AO2
14926KSTC STC20060627192009506/27/06 19:20:31  5-MIN KSTC 280120Z 00000KT 8SM SCT110 20/13 A3004 920 63 1800 000/00 RMK AO2
14926KSTC STC20060627192509506/27/06 19:25:31  5-MIN KSTC 280125Z 00000KT 8SM SCT100 19/13 A3004 910 67 1700 000/00 RMK AO2
14926KSTC STC20060627193009506/27/06 19:30:31  5-MIN KSTC 280130Z 00000KT 7SM SCT100 19/13 A3004 910 67 1700 000/00 RMK AO2
14926KSTC STC20060627193510206/27/06 19:35:31  5-MIN KSTC 280135Z 00000KT 7SM SCT085 BKN100 19/13 A3005 910 67 1700 000/00 RMK AO2
14926KSTC STC20060627194012506/27/06 19:40:31  5-MIN KSTC 280140Z 01006KT 7SM -RA SCT060 SCT080 BKN100 19/13 A3006 900 67 1700 010/06 RMK AO2 RAB40 P0000
14926KSTC STC20060627194514106/27/06 19:45:31  5-MIN KSTC 280145Z 03009KT 340V070 4SM -RA BKN060 BKN080 BKN100 19/13 A3006 900 70 1600 030/09 340V070 RMK AO2 RAB40 P0000
14926KSTC STC20060627195014206/27/06 19:50:31  5-MIN KSTC 280150Z VRB06KT 4SM -RA SCT060 BKN085 BKN100 17/13 A3006 900 78 1400 VRB/06 RMK AO2 RAB40 SLP185 P0000 T01720133
14926KSTC STC20060627195511906/27/06 19:55:31  5-MIN KSTC 280155Z 34004KT 6SM -RA SCT050 SCT065 OVC085 17/13 A3005 910 77 1400 340/04 RMK AO2 P0000
14926KSTC STC20060627200012306/27/06 20:00:31  5-MIN KSTC 280200Z 32003KT 9SM SCT050 SCT065 OVC090 17/12 A3005 910 75 1400 320/03 RMK AO2 RAE0156 P0000
14926KSTC STC20060627200511706/27/06 20:05:31  5-MIN KSTC 280205Z 02003KT 10SM SCT060 OVC095 17/12 A3005 910 75 1400 020/03 RMK AO2 RAE0156 P0000
14926KSTC STC20060627201011706/27/06 20:10:31  5-MIN KSTC 280210Z 04003KT 10SM FEW065 OVC100 17/13 A3005 910 77 1400 040/03 RMK AO2 RAE0156 P0000
14926KSTC STC20060627201511706/27/06 20:15:31  5-MIN KSTC 280215Z 00000KT 10SM FEW070 OVC100 17/14 A3005 910 83 1400 000/00 RMK AO2 RAE0156 P0000
14926KSTC STC20060627202011706/27/06 20:20:31  5-MIN KSTC 280220Z 00000KT 10SM FEW070 OVC100 17/14 A3005 910 83 1400 000/00 RMK AO2 RAE0156 P0000
14926KSTC STC20060627202511006/27/06 20:25:31  5-MIN KSTC 280225Z 00000KT 10SM OVC100 17/14 A3005 910 83 1400 000/00 RMK AO2 RAE0156 P0000
14926KSTC STC20060627203011006/27/06 20:30:31  5-MIN KSTC 280230Z 00000KT 10SM OVC110 16/14 A3005 900 86 1300 000/00 RMK AO2 RAE0156 P0000
14926KSTC STC20060627203511006/27/06 20:35:31  5-MIN KSTC 280235Z 00000KT 10SM BKN110 16/14 A3005 900 90 1200 000/00 RMK AO2 RAE0156 P0000
14926KSTC STC20060627204011006/27/06 20:40:31  5-MIN KSTC 280240Z 00000KT 10SM BKN110 16/13 A3005 900 86 1200 000/00 RMK AO2 RAE0156 P0000
14926KSTC STC20060627204510906/27/06 20:45:31  5-MIN KSTC 280245Z 00000KT 9SM SCT110 16/14 A3006 900 90 1200 000/00 RMK AO2 RAE0156 P0000
14926KSTC STC20060627205013806/27/06 20:50:31  5-MIN KSTC 280250Z 00000KT 9SM FEW110 16/14 A3006 900 90 1200 000/00 RMK AO2 RAE0156 SLP185 P0000 60000 T01560139 55003
14926KSTC STC20060627205509506/27/06 20:55:31  5-MIN KSTC 280255Z 00000KT 9SM FEW110 16/14 A3006 900 90 1200 000/00 RMK AO2
14926KSTC STC20060627210009506/27/06 21:00:31  5-MIN KSTC 280300Z 00000KT 9SM FEW070 15/14 A3006 900 93 1100 000/00 RMK AO2
14926KSTC STC20060627210509506/27/06 21:05:31  5-MIN KSTC 280305Z 00000KT 8SM FEW070 15/14 A3006 900 93 1100 000/00 RMK AO2
14926KSTC STC20060627211009506/27/06 21:10:31  5-MIN KSTC 280310Z 00000KT 9SM FEW070 15/13 A3006 900 90 1100 000/00 RMK AO2
14926KSTC STC20060627211509506/27/06 21:15:31  5-MIN KSTC 280315Z 00000KT 8SM FEW070 15/14 A3006 900 93 1100 000/00 RMK AO2
14926KSTC STC20060627212009506/27/06 21:20:31  5-MIN KSTC 280320Z 00000KT 7SM FEW070 14/13 A3006 900 93 1100 000/00 RMK AO2
14926KSTC STC20060627212509506/27/06 21:25:31  5-MIN KSTC 280325Z 00000KT 7SM FEW070 14/13 A3006 900 93 1100 000/00 RMK AO2
14926KSTC STC20060627213009206/27/06 21:30:31  5-MIN KSTC 280330Z 00000KT 7SM CLR 15/13 A3006 900 90 1100 000/00 RMK AO2
14926KSTC STC20060627213509206/27/06 21:35:31  5-MIN KSTC 280335Z 00000KT 8SM CLR 15/13 A3006 900 90 1100 000/00 RMK AO2
14926KSTC STC20060627214009206/27/06 21:40:31  5-MIN KSTC 280340Z 00000KT 8SM CLR 14/13 A3006 890 93 1100 000/00 RMK AO2
14926KSTC STC20060627214509506/27/06 21:45:31  5-MIN KSTC 280345Z 00000KT 7SM FEW060 14/13 A3007 890 93 1000 000/00 RMK AO2
14926KSTC STC20060627215011206/27/06 21:50:31  5-MIN KSTC 280350Z 25003KT 7SM SCT060 14/13 A3007 890 93 1000 250/03 RMK AO2 SLP189 T01390128
14926KSTC STC20060627215509506/27/06 21:55:31  5-MIN KSTC 280355Z 00000KT 8SM BKN060 14/13 A3007 890 93 1100 000/00 RMK AO2
14926KSTC STC20060627220010006/27/06 22:00:31  5-MIN KSTC 280400Z AUTO 00000KT 9SM BKN060 14/13 A3007 890 90 1100 000/00 RMK AO2
14926KSTC STC20060627220510106/27/06 22:05:31  5-MIN KSTC 280405Z AUTO 00000KT 10SM BKN060 14/13 A3007 890 90 1100 000/00 RMK AO2
14926KSTC STC20060627221010006/27/06 22:10:31  5-MIN KSTC 280410Z AUTO 00000KT 9SM BKN060 14/13 A3007 890 93 1000 000/00 RMK AO2
14926KSTC STC20060627221510006/27/06 22:15:31  5-MIN KSTC 280415Z AUTO 00000KT 9SM SCT060 14/13 A3007 890 93 1000 000/00 RMK AO2
14926KSTC STC20060627222010006/27/06 22:20:31  5-MIN KSTC 280420Z AUTO 00000KT 8SM FEW060 14/13 A3007 890 93 1000 000/00 RMK AO2
14926KSTC STC20060627222510006/27/06 22:25:31  5-MIN KSTC 280425Z AUTO 00000KT 8SM FEW060 14/13 A3007 890 90 1100 000/00 RMK AO2
14926KSTC STC20060627223009906/27/06 22:30:31  5-MIN KSTC 280430Z AUTO 00000KT 8SM FEW065 13/12 A3007 890 93 900 000/00 RMK AO2
14926KSTC STC20060627223509606/27/06 22:35:31  5-MIN KSTC 280435Z AUTO 00000KT 7SM CLR 13/12 A3007 890 93 900 000/00 RMK AO2
14926KSTC STC20060627224009606/27/06 22:40:31  5-MIN KSTC 280440Z AUTO 00000KT 7SM CLR 13/12 A3007 890 93 900 000/00 RMK AO2
14926KSTC STC20060627224509706/27/06 22:45:31  5-MIN KSTC 280445Z AUTO 00000KT 7SM CLR 14/13 A3007 890 93 1000 000/00 RMK AO2
14926KSTC STC20060627225011306/27/06 22:50:31  5-MIN KSTC 280450Z AUTO 00000KT 7SM CLR 13/12 A3007 890 93 900 000/00 RMK AO2 SLP190 T01330122
14926KSTC STC20060627225509606/27/06 22:55:31  5-MIN KSTC 280455Z AUTO 00000KT 7SM CLR 13/12 A3007 890 93 900 000/00 RMK AO2
14926KSTC STC20060627230009706/27/06 23:00:31  5-MIN KSTC 280500Z AUTO 00000KT 7SM CLR 14/13 A3007 890 93 1000 000/00 RMK AO2
14926KSTC STC20060627230509706/27/06 23:05:31  5-MIN KSTC 280505Z AUTO 00000KT 8SM CLR 14/13 A3007 890 93 1000 000/00 RMK AO2
14926KSTC STC20060627231009606/27/06 23:10:31  5-MIN KSTC 280510Z AUTO 00000KT 7SM CLR 13/13 A3007 890 96 900 000/00 RMK AO2
14926KSTC STC20060627231509606/27/06 23:15:31  5-MIN KSTC 280515Z AUTO 00000KT 7SM CLR 13/12 A3007 890 93 900 000/00 RMK AO2
14926KSTC STC20060627232009606/27/06 23:20:31  5-MIN KSTC 280520Z AUTO 00000KT 7SM CLR 13/12 A3007 890 93 900 000/00 RMK AO2
14926KSTC STC20060627232509606/27/06 23:25:31  5-MIN KSTC 280525Z AUTO 00000KT 7SM CLR 13/12 A3007 890 93 900 000/00 RMK AO2
14926KSTC STC20060627233009906/27/06 23:30:31  5-MIN KSTC 280530Z AUTO 00000KT 6SM BR CLR 13/12 A3007 880 93 900 000/00 RMK AO2
14926KSTC STC20060627233509906/27/06 23:35:31  5-MIN KSTC 280535Z AUTO 00000KT 6SM BR CLR 13/12 A3007 880 93 900 000/00 RMK AO2
14926KSTC STC20060627234009606/27/06 23:40:31  5-MIN KSTC 280540Z AUTO 00000KT 7SM CLR 13/12 A3007 880 93 900 000/00 RMK AO2
14926KSTC STC20060627234509906/27/06 23:45:31  5-MIN KSTC 280545Z AUTO 00000KT 6SM BR CLR 13/12 A3007 880 96 900 000/00 RMK AO2
14926KSTC STC20060627235015006/27/06 23:50:31  5-MIN KSTC 280550Z AUTO 00000KT 6SM BR CLR 13/12 A3007 890 89 900 000/00 RMK AO2 SLP191 60000 T01330117 10200 20128 402330100 53009
14926KSTC STC20060627235509906/27/06 23:55:31  5-MIN KSTC 280555Z AUTO 00000KT 6SM BR CLR 13/12 A3007 890 93 900 000/00 RMK AO2
14926KSTC STC20060628000009906/28/06 00:00:32  5-MIN KSTC 280600Z AUTO 00000KT 6SM BR CLR 13/12 A3007 890 93 900 000/00 RMK AO2
14926KSTC STC20060628000509606/28/06 00:05:31  5-MIN KSTC 280605Z AUTO 27003KT 7SM CLR 13/12 A3007 890 93 900 260/03 RMK AO2
14926KSTC STC20060628001009606/28/06 00:10:31  5-MIN KSTC 280610Z AUTO 00000KT 7SM CLR 13/12 A3007 890 96 900 000/00 RMK AO2
14926KSTC STC20060628001509606/28/06 00:15:31  5-MIN KSTC 280615Z AUTO 00000KT 7SM CLR 13/12 A3007 890 93 900 000/00 RMK AO2
14926KSTC STC20060628002009906/28/06 00:20:31  5-MIN KSTC 280620Z AUTO 07004KT 5SM BR CLR 13/12 A3007 890 93 900 070/04 RMK AO2
14926KSTC STC20060628002509906/28/06 00:25:31  5-MIN KSTC 280625Z AUTO 06003KT 4SM BR CLR 13/12 A3007 880 93 900 060/03 RMK AO2
14926KSTC STC20060628003009906/28/06 00:30:31  5-MIN KSTC 280630Z AUTO 06003KT 4SM BR CLR 12/12 A3007 880 96 800 060/03 RMK AO2
14926KSTC STC20060628003509906/28/06 00:35:31  5-MIN KSTC 280635Z AUTO 07004KT 4SM BR CLR 13/12 A3007 880 96 900 060/04 RMK AO2
14926KSTC STC20060628004010206/28/06 00:40:31  5-MIN KSTC 280640Z AUTO 07003KT 4SM BR FEW060 13/12 A3007 880 93 900 070/03 RMK AO2
14926KSTC STC20060628004510206/28/06 00:45:31  5-MIN KSTC 280645Z AUTO 06004KT 4SM BR FEW060 12/12 A3007 880 96 800 060/04 RMK AO2
14926KSTC STC20060628005011906/28/06 00:50:31  5-MIN KSTC 280650Z AUTO 07004KT 4SM BR FEW060 13/12 A3007 880 96 900 070/04 RMK AO2 SLP191 T01280122
14926KSTC STC20060628005510206/28/06 00:55:31  5-MIN KSTC 280655Z AUTO 07003KT 4SM BR FEW060 13/12 A3007 890 96 900 070/03 RMK AO2
14926KSTC STC20060628010010206/28/06 01:00:31  5-MIN KSTC 280700Z AUTO 00000KT 3SM BR FEW060 12/12 A3007 890 96 800 000/00 RMK AO2
14926KSTC STC20060628010510206/28/06 01:05:31  5-MIN KSTC 280705Z AUTO 00000KT 3SM BR FEW060 13/12 A3007 890 96 900 000/00 RMK AO2
14926KSTC STC20060628011009906/28/06 01:10:31  5-MIN KSTC 280710Z AUTO 00000KT 3SM BR CLR 12/12 A3007 890 96 800 000/00 RMK AO2
14926KSTC STC20060628011510306/28/06 01:15:31  5-MIN KSTC 280715Z AUTO 00000KT 2 1/2SM BR CLR 12/12 A3007 890 96 800 000/00 RMK AO2
14926KSTC STC20060628012009906/28/06 01:20:31  5-MIN KSTC 280720Z AUTO 00000KT 3SM BR CLR 12/12 A3007 890 96 800 000/00 RMK AO2
14926KSTC STC20060628012510306/28/06 01:25:31  5-MIN KSTC 280725Z AUTO 00000KT 2 1/2SM BR CLR 12/12 A3007 890 96 800 000/00 RMK AO2
14926KSTC STC20060628013009906/28/06 01:30:31  5-MIN KSTC 280730Z AUTO 00000KT 2SM BR CLR 12/11 A3007 890 93 800 000/00 RMK AO2
14926KSTC STC20060628013510306/28/06 01:35:31  5-MIN KSTC 280735Z AUTO 00000KT 2 1/2SM BR CLR 12/11 A3007 890 96 700 000/00 RMK AO2
14926KSTC STC20060628014011106/28/06 01:40:31  5-MIN KSTC 280740Z AUTO 00000KT 1 3/4SM BR CLR 12/11 A3007 890 96 700 000/00 RMK AO2 VIS 1V3
14926KSTC STC20060628014511306/28/06 01:45:31  5-MIN KSTC 280745Z AUTO 06003KT 1 1/4SM BR CLR 11/11 A3007 890 96 700 060/03 RMK AO2 VIS 3/4V2
14926KSTC STC20060628015013406/28/06 01:50:31  5-MIN KSTC 280750Z AUTO 06003KT 1 1/2SM BR CLR 12/11 A3007 890 96 700 050/03 RMK AO2 VIS 3/4V2 1/2 SLP191 T01170111
14926KSTC STC20060628015510306/28/06 01:55:31  5-MIN KSTC 280755Z AUTO 00000KT 1 3/4SM BR CLR 12/11 A3007 890 96 700 000/00 RMK AO2
14926KSTC STC20060628020010306/28/06 02:00:31  5-MIN KSTC 280800Z AUTO 00000KT 1 1/4SM BR CLR 12/11 A3007 890 96 700 000/00 RMK AO2
14926KSTC STC20060628020509906/28/06 02:05:31  5-MIN KSTC 280805Z AUTO 00000KT 1SM BR CLR 12/11 A3007 890 96 700 000/00 RMK AO2
14926KSTC STC20060628021010306/28/06 02:10:31  5-MIN KSTC 280810Z AUTO 00000KT 1 1/4SM BR CLR 12/11 A3007 890 96 700 000/00 RMK AO2
14926KSTC STC20060628021510306/28/06 02:15:31  5-MIN KSTC 280815Z AUTO 00000KT 1 1/2SM BR CLR 12/11 A3007 890 96 700 000/00 RMK AO2
14926KSTC STC20060628022011106/28/06 02:20:31  5-MIN KSTC 280820Z AUTO 00000KT 2SM BR CLR 11/11 A3007 890 96 700 000/00 RMK AO2 VIS 1 1/4V3
14926KSTC STC20060628022510306/28/06 02:25:31  5-MIN KSTC 280825Z AUTO 00000KT 1 1/4SM BR CLR 11/11 A3007 890 96 700 000/00 RMK AO2
14926KSTC STC20060628023009906/28/06 02:30:31  5-MIN KSTC 280830Z AUTO 00000KT 1SM BR CLR 11/11 A3007 890 96 700 000/00 RMK AO2
14926KSTC STC20060628023511306/28/06 02:35:31  5-MIN KSTC 280835Z AUTO 00000KT 1 3/4SM BR CLR 11/11 A3007 890 96 700 000/00 RMK AO2 VIS 3/4V3
14926KSTC STC20060628024009906/28/06 02:40:31  5-MIN KSTC 280840Z AUTO 00000KT 3SM BR CLR 11/11 A3007 890 96 700 000/00 RMK AO2
14926KSTC STC20060628024509906/28/06 02:45:31  5-MIN KSTC 280845Z AUTO 00000KT 4SM BR CLR 11/11 A3007 890 96 700 000/00 RMK AO2
14926KSTC STC20060628025012206/28/06 02:50:31  5-MIN KSTC 280850Z AUTO 00000KT 5SM BR CLR 11/11 A3007 890 96 700 000/00 RMK AO2 SLP190 T01110106 51004
14926KSTC STC20060628025509906/28/06 02:55:31  5-MIN KSTC 280855Z AUTO 00000KT 5SM BR CLR 11/11 A3007 890 96 700 000/00 RMK AO2
14926KSTC STC20060628030010306/28/06 03:00:31  5-MIN KSTC 280900Z AUTO 00000KT 2 1/2SM BR CLR 11/11 A3007 890 96 700 000/00 RMK AO2
14926KSTC STC20060628030509906/28/06 03:05:31  5-MIN KSTC 280905Z AUTO 00000KT 2SM BR CLR 11/11 A3007 890 96 700 000/00 RMK AO2
14926KSTC STC20060628031010306/28/06 03:10:31  5-MIN KSTC 280910Z AUTO 00000KT 1 1/4SM BR CLR 11/11 A3007 890 96 700 000/00 RMK AO2
14926KSTC STC20060628031511506/28/06 03:15:31  5-MIN KSTC 280915Z AUTO 32003KT 1SM BR VV001 11/11 A3007 890 96 700 310/03 RMK AO2 VIS 1/2V2 1/2
14926KSTC STC20060628032010306/28/06 03:20:31  5-MIN KSTC 280920Z AUTO 00000KT 3/4SM BR VV001 11/11 A3007 890 96 700 000/00 RMK AO2
14926KSTC STC20060628032510106/28/06 03:25:31  5-MIN KSTC 280925Z AUTO 00000KT 1/2SM FG CLR 11/11 A3007 890 96 700 000/00 RMK AO2
14926KSTC STC20060628033010306/28/06 03:30:31  5-MIN KSTC 280930Z AUTO 00000KT 1/4SM FG VV001 11/10 A3007 890 96 600 000/00 RMK AO2
14926KSTC STC20060628033510306/28/06 03:35:31  5-MIN KSTC 280935Z AUTO 00000KT 1/4SM FG VV001 11/11 A3007 890 96 700 000/00 RMK AO2
14926KSTC STC20060628034010406/28/06 03:40:31  5-MIN KSTC 280940Z AUTO 00000KT 1/2SM FG VV001 11/11 A3007 890 100 600 000/00 RMK AO2
14926KSTC STC20060628034510306/28/06 03:45:31  5-MIN KSTC 280945Z AUTO 00000KT 3/4SM BR VV001 11/10 A3007 890 96 600 000/00 RMK AO2
14926KSTC STC20060628035010606/28/06 03:50:31  5-MIN KSTC 280950Z AUTO 00000KT 2 1/2SM BR FEW001 11/10 A3007 890 96 600 000/00 RMK AO2
14926KSTC STC20060628035510606/28/06 03:55:31  5-MIN KSTC 280955Z AUTO 31003KT 2 1/2SM BR FEW001 11/10 A3008 880 96 600 310/03 RMK AO2
14926KSTC STC20060628040010206/28/06 04:00:31  5-MIN KSTC 281000Z AUTO 31003KT 3SM BR FEW001 11/10 A3008 880 96 600 310/03 RMK AO2
14926KSTC STC20060628040511506/28/06 04:05:31  5-MIN KSTC 281005Z AUTO 00000KT 2 1/2SM BR CLR 11/10 A3008 880 96 600 000/00 RMK AO2 VIS 1 1/2V5
14926KSTC STC20060628041011506/28/06 04:10:31  5-MIN KSTC 281010Z AUTO 30003KT 2 1/2SM BR CLR 10/09 A3008 880 96 500 300/03 RMK AO2 VIS 1 1/2V3
14926KSTC STC20060628041509906/28/06 04:15:31  5-MIN KSTC 281015Z AUTO 31004KT 4SM BR CLR 11/11 A3008 880 96 700 300/04 RMK AO2
14926KSTC STC20060628042009906/28/06 04:20:31  5-MIN KSTC 281020Z AUTO 31003KT 4SM BR CLR 11/11 A3008 880 96 700 310/03 RMK AO2
14926KSTC STC20060628042509906/28/06 04:25:31  5-MIN KSTC 281025Z AUTO 32003KT 2SM BR CLR 11/11 A3008 880 96 700 320/03 RMK AO2
14926KSTC STC20060628043010306/28/06 04:30:31  5-MIN KSTC 281030Z AUTO 31004KT 1 1/4SM BR CLR 11/11 A3008 870 96 700 310/04 RMK AO2
14926KSTC STC20060628043510006/28/06 04:35:31  5-MIN KSTC 281035Z AUTO 31004KT 1SM BR CLR 11/11 A3008 880 100 600 310/04 RMK AO2
14926KSTC STC20060628044009906/28/06 04:40:31  5-MIN KSTC 281040Z AUTO 32004KT 1SM BR CLR 11/11 A3008 880 96 700 310/04 RMK AO2
14926KSTC STC20060628044510306/28/06 04:45:31  5-MIN KSTC 281045Z AUTO 31003KT 1 1/4SM BR CLR 11/11 A3008 880 96 700 310/03 RMK AO2
14926KSTC STC20060628045012106/28/06 04:50:31  5-MIN KSTC 281050Z AUTO 31003KT 1 3/4SM BR CLR 11/11 A3008 870 100 600 310/03 RMK AO2 SLP195 T01060106
14926KSTC STC20060628045510406/28/06 04:55:31  5-MIN KSTC 281055Z AUTO 31004KT 1 3/4SM BR CLR 11/11 A3009 870 100 600 300/04 RMK AO2
14926KSTC STC20060628050010406/28/06 05:00:31  5-MIN KSTC 281100Z AUTO 31004KT 1 3/4SM BR CLR 11/11 A3009 870 100 600 310/04 RMK AO2
14926KSTC STC20060628050509906/28/06 05:05:31  5-MIN KSTC 281105Z AUTO 00000KT 1SM BR CLR 11/10 A3009 870 96 600 000/00 RMK AO2
14926KSTC STC20060628051010106/28/06 05:10:31  5-MIN KSTC 281110Z AUTO 00000KT 3/4SM BR CLR 11/10 A3009 870 96 600 000/00 RMK AO2
14926KSTC STC20060628051510106/28/06 05:15:31  5-MIN KSTC 281115Z AUTO 00000KT 3/4SM BR CLR 12/11 A3009 870 96 700 000/00 RMK AO2
14926KSTC STC20060628052010306/28/06 05:20:31  5-MIN KSTC 281120Z AUTO 00000KT 1 1/4SM BR CLR 12/11 A3009 870 96 700 000/00 RMK AO2
14926KSTC STC20060628052510306/28/06 05:25:31  5-MIN KSTC 281125Z AUTO 00000KT 1 3/4SM BR CLR 12/11 A3009 870 96 700 000/00 RMK AO2
14926KSTC STC20060628053009906/28/06 05:30:31  5-MIN KSTC 281130Z AUTO 31003KT 2SM BR CLR 12/12 A3009 870 96 800 310/03 RMK AO2
14926KSTC STC20060628053510306/28/06 05:35:31  5-MIN KSTC 281135Z AUTO 00000KT 2 1/2SM BR CLR 12/12 A3009 870 96 800 000/00 RMK AO2
14926KSTC STC20060628054010306/28/06 05:40:31  5-MIN KSTC 281140Z AUTO 33003KT 2 1/2SM BR CLR 12/12 A3009 870 96 800 320/03 RMK AO2
14926KSTC STC20060628054509906/28/06 05:45:31  5-MIN KSTC 281145Z AUTO 32003KT 3SM BR CLR 12/12 A3010 860 96 800 310/03 RMK AO2
14926KSTC STC20060628055013406/28/06 05:50:31  5-MIN KSTC 281150Z AUTO 00000KT 3SM BR CLR 12/12 A3010 860 96 800 000/00 RMK AO2 SLP201 T01220117 10133 20100 53009
14926KSTC STC20060628055509906/28/06 05:55:31  5-MIN KSTC 281155Z AUTO 00000KT 3SM BR CLR 13/12 A3010 860 96 800 000/00 RMK AO2
14926KSTC STC20060628060009906/28/06 06:00:31  5-MIN KSTC 281200Z AUTO 00000KT 3SM BR CLR 13/12 A3010 860 96 800 000/00 RMK AO2
14926KSTC STC20060628060509406/28/06 06:05:31  5-MIN KSTC 281205Z 32003KT 3SM BR CLR 13/12 A3010 860 96 800 320/03 RMK AO2
14926KSTC STC20060628061009406/28/06 06:10:31  5-MIN KSTC 281210Z 00000KT 4SM BR CLR 13/12 A3011 850 93 900 000/00 RMK AO2
14926KSTC STC20060628061509406/28/06 06:15:31  5-MIN KSTC 281215Z 00000KT 4SM BR CLR 13/12 A3011 850 93 900 000/00 RMK AO2
14926KSTC STC20060628062009506/28/06 06:20:31  5-MIN KSTC 281220Z 35003KT 4SM BR CLR 14/13 A3011 850 93 1000 340/03 RMK AO2
14926KSTC STC20060628062509506/28/06 06:25:31  5-MIN KSTC 281225Z 00000KT 4SM BR CLR 14/13 A3011 850 93 1000 000/00 RMK AO2
14926KSTC STC20060628063009506/28/06 06:30:31  5-MIN KSTC 281230Z 33003KT 4SM BR CLR 14/13 A3011 850 93 1000 330/03 RMK AO2
14926KSTC STC20060628063509506/28/06 06:35:31  5-MIN KSTC 281235Z 34003KT 4SM BR CLR 14/13 A3011 850 93 1000 340/03 RMK AO2
14926KSTC STC20060628064009506/28/06 06:40:31  5-MIN KSTC 281240Z 33004KT 4SM BR CLR 14/13 A3011 850 90 1000 330/04 RMK AO2
14926KSTC STC20060628064509506/28/06 06:45:31  5-MIN KSTC 281245Z 33004KT 5SM BR CLR 14/13 A3011 850 90 1000 330/04 RMK AO2
14926KSTC STC20060628065011206/28/06 06:50:31  5-MIN KSTC 281250Z 33004KT 5SM BR CLR 15/13 A3012 840 90 1100 320/04 RMK AO2 SLP206 T01500133
14926KSTC STC20060628065509506/28/06 06:55:31  5-MIN KSTC 281255Z 33005KT 5SM BR CLR 15/13 A3012 840 90 1100 330/05 RMK AO2
14926KSTC STC20060628070009506/28/06 07:00:31  5-MIN KSTC 281300Z 33004KT 5SM BR CLR 15/13 A3012 840 90 1100 330/04 RMK AO2
14926KSTC STC20060628070509506/28/06 07:05:31  5-MIN KSTC 281305Z 33004KT 5SM BR CLR 16/14 A3012 840 90 1100 330/04 RMK AO2
14926KSTC STC20060628071009506/28/06 07:10:31  5-MIN KSTC 281310Z 33003KT 5SM BR CLR 16/14 A3012 840 90 1100 330/03 RMK AO2
14926KSTC STC20060628171509806/28/06 17:15:31  5-MIN KSTC 282315Z AUTO 04005KT 10SM CLR 25/11 A3009 870 39 2300 030/05 RMK AO2
14926KSTC STC20060628172009806/28/06 17:20:31  5-MIN KSTC 282320Z AUTO 02005KT 10SM CLR 26/11 A3009 870 38 2300 020/05 RMK AO2
14926KSTC STC20060628172509806/28/06 17:25:31  5-MIN KSTC 282325Z AUTO 00000KT 10SM CLR 25/10 A3010 870 38 2300 000/00 RMK AO2
14926KSTC STC20060628173009806/28/06 17:30:31  5-MIN KSTC 282330Z AUTO 00000KT 10SM CLR 26/10 A3010 860 37 2300 000/00 RMK AO2
14926KSTC STC20060628173509806/28/06 17:35:31  5-MIN KSTC 282335Z AUTO 00000KT 10SM CLR 24/10 A3010 860 39 2200 000/00 RMK AO2
14926KSTC STC20060628174009806/28/06 17:40:31  5-MIN KSTC 282340Z AUTO VRB04KT 10SM CLR 24/10 A3010 860 39 2200 VRB/04 RMK AO2
14926KSTC STC20060628174509806/28/06 17:45:31  5-MIN KSTC 282345Z AUTO 36005KT 10SM CLR 24/10 A3009 870 39 2200 360/05 RMK AO2
14926KSTC STC20060628175013306/28/06 17:50:31  5-MIN KSTC 282350Z AUTO 03004KT 10SM CLR 25/11 A3009 870 39 2300 030/04 RMK AO2 SLP197 T02500106 10267 20239 56005
14926KSTC STC20060628175509806/28/06 17:55:31  5-MIN KSTC 282355Z AUTO 02004KT 10SM CLR 25/09 A3009 870 37 2300 020/04 RMK AO2
14926KSTC STC20060628180009806/28/06 18:00:31  5-MIN KSTC 290000Z AUTO VRB03KT 10SM CLR 25/10 A3009 870 38 2300 VRB/03 RMK AO2
14926KSTC STC20060628180509806/28/06 18:05:31  5-MIN KSTC 290005Z AUTO 04007KT 10SM CLR 25/10 A3010 860 38 2300 040/07 RMK AO2
14926KSTC STC20060628181009806/28/06 18:10:31  5-MIN KSTC 290010Z AUTO 04005KT 10SM CLR 24/10 A3010 860 39 2200 030/05 RMK AO2
14926KSTC STC20060628181509806/28/06 18:15:31  5-MIN KSTC 290015Z AUTO 03005KT 10SM CLR 24/10 A3010 860 39 2200 030/05 RMK AO2
14926KSTC STC20060628182009806/28/06 18:20:31  5-MIN KSTC 290020Z AUTO 03004KT 10SM CLR 24/10 A3010 860 41 2100 030/04 RMK AO2
14926KSTC STC20060628182509806/28/06 18:25:31  5-MIN KSTC 290025Z AUTO 04003KT 10SM CLR 24/11 A3010 860 42 2100 030/03 RMK AO2
14926KSTC STC20060628183009806/28/06 18:30:31  5-MIN KSTC 290030Z AUTO 05004KT 10SM CLR 24/11 A3010 860 42 2100 040/04 RMK AO2
14926KSTC STC20060628183509806/28/06 18:35:31  5-MIN KSTC 290035Z AUTO 04005KT 10SM CLR 24/10 A3010 860 41 2100 030/05 RMK AO2
14926KSTC STC20060628184009806/28/06 18:40:31  5-MIN KSTC 290040Z AUTO 04004KT 10SM CLR 24/11 A3010 860 42 2100 040/04 RMK AO2
14926KSTC STC20060628184509806/28/06 18:45:31  5-MIN KSTC 290045Z AUTO 04004KT 10SM CLR 24/11 A3010 860 42 2100 040/04 RMK AO2
14926KSTC STC20060628185011506/28/06 18:50:31  5-MIN KSTC 290050Z AUTO 00000KT 10SM CLR 24/11 A3010 860 44 2100 000/00 RMK AO2 SLP197 T02390111
14926KSTC STC20060628185509806/28/06 18:55:31  5-MIN KSTC 290055Z AUTO 07003KT 10SM CLR 23/11 A3010 860 45 2100 060/03 RMK AO2
14926KSTC STC20060628190009806/28/06 19:00:31  5-MIN KSTC 290100Z AUTO 00000KT 10SM CLR 23/11 A3010 860 45 2100 000/00 RMK AO2
14926KSTC STC20060628190509806/28/06 19:05:31  5-MIN KSTC 290105Z AUTO 00000KT 10SM CLR 23/12 A3010 860 47 2100 000/00 RMK AO2
14926KSTC STC20060628191009806/28/06 19:10:31  5-MIN KSTC 290110Z AUTO 00000KT 10SM CLR 23/12 A3010 860 49 2000 000/00 RMK AO2
14926KSTC STC20060628191509806/28/06 19:15:31  5-MIN KSTC 290115Z AUTO 00000KT 10SM CLR 23/12 A3010 860 51 2000 000/00 RMK AO2
14926KSTC STC20060628192009806/28/06 19:20:31  5-MIN KSTC 290120Z AUTO 00000KT 10SM CLR 22/12 A3010 860 52 1900 000/00 RMK AO2
14926KSTC STC20060628192509806/28/06 19:25:31  5-MIN KSTC 290125Z AUTO 00000KT 10SM CLR 22/12 A3010 860 52 1900 000/00 RMK AO2
14926KSTC STC20060628193009806/28/06 19:30:31  5-MIN KSTC 290130Z AUTO 03003KT 10SM CLR 22/12 A3010 860 51 1900 020/03 RMK AO2
14926KSTC STC20060628193509806/28/06 19:35:31  5-MIN KSTC 290135Z AUTO 00000KT 10SM CLR 21/13 A3010 860 58 1800 000/00 RMK AO2
14926KSTC STC20060628194009806/28/06 19:40:31  5-MIN KSTC 290140Z AUTO 02003KT 10SM CLR 21/13 A3010 860 58 1800 010/03 RMK AO2
14926KSTC STC20060628194509806/28/06 19:45:31  5-MIN KSTC 290145Z AUTO 03003KT 10SM CLR 21/12 A3010 860 58 1700 030/03 RMK AO2
14926KSTC STC20060628195011506/28/06 19:50:31  5-MIN KSTC 290150Z AUTO 05003KT 10SM CLR 21/13 A3011 860 60 1700 050/03 RMK AO2 SLP200 T02060128
14926KSTC STC20060628195509806/28/06 19:55:31  5-MIN KSTC 290155Z AUTO 00000KT 10SM CLR 19/13 A3011 850 65 1600 000/00 RMK AO2
14926KSTC STC20060628200009806/28/06 20:00:31  5-MIN KSTC 290200Z AUTO 00000KT 10SM CLR 19/12 A3011 850 62 1600 000/00 RMK AO2
14926KSTC STC20060628200509806/28/06 20:05:31  5-MIN KSTC 290205Z AUTO 00000KT 10SM CLR 19/13 A3011 850 65 1600 000/00 RMK AO2
14926KSTC STC20060628201009706/28/06 20:10:31  5-MIN KSTC 290210Z AUTO 00000KT 9SM CLR 19/12 A3011 850 62 1600 000/00 RMK AO2
14926KSTC STC20060628201509706/28/06 20:15:31  5-MIN KSTC 290215Z AUTO 00000KT 7SM CLR 19/13 A3011 850 67 1500 000/00 RMK AO2
14926KSTC STC20060628202010006/28/06 20:20:31  5-MIN KSTC 290220Z AUTO 00000KT 6SM HZ CLR 18/13 A3011 850 70 1500 000/00 RMK AO2
14926KSTC STC20060628202510006/28/06 20:25:31  5-MIN KSTC 290225Z AUTO 00000KT 6SM HZ CLR 18/13 A3011 850 72 1400 000/00 RMK AO2
14926KSTC STC20060628203009706/28/06 20:30:31  5-MIN KSTC 290230Z AUTO 00000KT 7SM CLR 18/13 A3011 850 72 1400 000/00 RMK AO2
14926KSTC STC20060628203509706/28/06 20:35:31  5-MIN KSTC 290235Z AUTO 00000KT 9SM CLR 18/13 A3011 850 72 1400 000/00 RMK AO2
14926KSTC STC20060628204009706/28/06 20:40:31  5-MIN KSTC 290240Z AUTO 00000KT 9SM CLR 18/13 A3011 850 72 1400 000/00 RMK AO2
14926KSTC STC20060628204509706/28/06 20:45:31  5-MIN KSTC 290245Z AUTO 00000KT 9SM CLR 17/13 A3012 850 77 1300 000/00 RMK AO2
14926KSTC STC20060628205012006/28/06 20:50:31  5-MIN KSTC 290250Z AUTO 00000KT 8SM CLR 17/13 A3012 840 75 1300 000/00 RMK AO2 SLP205 T01720128 58001
14926KSTC STC20060628205509706/28/06 20:55:31  5-MIN KSTC 290255Z AUTO 00000KT 8SM CLR 17/13 A3012 840 77 1300 000/00 RMK AO2
14926KSTC STC20060628210009706/28/06 21:00:31  5-MIN KSTC 290300Z AUTO 00000KT 8SM CLR 17/13 A3012 840 77 1300 000/00 RMK AO2
14926KSTC STC20060628210509706/28/06 21:05:31  5-MIN KSTC 290305Z AUTO 00000KT 9SM CLR 17/12 A3012 840 75 1300 000/00 RMK AO2
14926KSTC STC20060628211009706/28/06 21:10:31  5-MIN KSTC 290310Z AUTO 00000KT 9SM CLR 16/13 A3012 840 80 1200 000/00 RMK AO2
14926KSTC STC20060628211509706/28/06 21:15:31  5-MIN KSTC 290315Z AUTO 00000KT 9SM CLR 16/12 A3013 840 77 1200 000/00 RMK AO2
14926KSTC STC20060628212009706/28/06 21:20:31  5-MIN KSTC 290320Z AUTO 00000KT 9SM CLR 16/13 A3012 840 80 1200 000/00 RMK AO2
14926KSTC STC20060628212509706/28/06 21:25:31  5-MIN KSTC 290325Z AUTO 00000KT 9SM CLR 16/13 A3012 840 83 1100 000/00 RMK AO2
14926KSTC STC20060628213009806/28/06 21:30:31  5-MIN KSTC 290330Z AUTO 00000KT 10SM CLR 15/13 A3012 840 86 1100 000/00 RMK AO2
14926KSTC STC20060628213509806/28/06 21:35:31  5-MIN KSTC 290335Z AUTO 00000KT 10SM CLR 16/13 A3012 840 83 1100 000/00 RMK AO2
14926KSTC STC20060628214009806/28/06 21:40:31  5-MIN KSTC 290340Z AUTO 00000KT 10SM CLR 16/13 A3013 840 83 1100 000/00 RMK AO2
14926KSTC STC20060628214509806/28/06 21:45:31  5-MIN KSTC 290345Z AUTO 00000KT 10SM CLR 15/13 A3013 840 86 1100 000/00 RMK AO2
14926KSTC STC20060628215011506/28/06 21:50:31  5-MIN KSTC 290350Z AUTO 00000KT 10SM CLR 16/13 A3013 840 83 1100 000/00 RMK AO2 SLP208 T01560128
14926KSTC STC20060628215509806/28/06 21:55:31  5-MIN KSTC 290355Z AUTO 00000KT 10SM CLR 15/13 A3013 840 86 1100 000/00 RMK AO2
14926KSTC STC20060628220009706/28/06 22:00:31  5-MIN KSTC 290400Z AUTO 00000KT 10SM CLR 14/12 A3013 840 90 900 000/00 RMK AO2
14926KSTC STC20060628220509806/28/06 22:05:31  5-MIN KSTC 290405Z AUTO 00000KT 10SM CLR 14/13 A3013 840 90 1000 000/00 RMK AO2
14926KSTC STC20060628221009806/28/06 22:10:31  5-MIN KSTC 290410Z AUTO 00000KT 10SM CLR 14/13 A3013 840 90 1000 000/00 RMK AO2
14926KSTC STC20060628221509706/28/06 22:15:31  5-MIN KSTC 290415Z AUTO 00000KT 9SM CLR 14/13 A3013 840 90 1000 000/00 RMK AO2
14926KSTC STC20060628222009706/28/06 22:20:31  5-MIN KSTC 290420Z AUTO 00000KT 9SM CLR 15/13 A3013 840 86 1100 000/00 RMK AO2
14926KSTC STC20060628222509806/28/06 22:25:31  5-MIN KSTC 290425Z AUTO 00000KT 10SM CLR 15/13 A3013 830 86 1100 000/00 RMK AO2
14926KSTC STC20060628223009806/28/06 22:30:31  5-MIN KSTC 290430Z AUTO 00000KT 10SM CLR 14/13 A3013 830 90 1000 000/00 RMK AO2
14926KSTC STC20060628223509706/28/06 22:35:31  5-MIN KSTC 290435Z AUTO 00000KT 9SM CLR 14/13 A3013 830 90 1000 000/00 RMK AO2
14926KSTC STC20060628224009606/28/06 22:40:31  5-MIN KSTC 290440Z AUTO 00000KT 9SM CLR 14/13 A3013 830 93 900 000/00 RMK AO2
14926KSTC STC20060628224509706/28/06 22:45:31  5-MIN KSTC 290445Z AUTO 00000KT 10SM CLR 14/13 A3013 830 93 900 000/00 RMK AO2
14926KSTC STC20060628225011306/28/06 22:50:31  5-MIN KSTC 290450Z AUTO 00000KT 9SM CLR 14/12 A3013 830 90 900 000/00 RMK AO2 SLP210 T01390122
14926KSTC STC20060628225509606/28/06 22:55:31  5-MIN KSTC 290455Z AUTO 00000KT 9SM CLR 14/12 A3013 830 90 900 000/00 RMK AO2
14926KSTC STC20060628230009706/28/06 23:00:31  5-MIN KSTC 290500Z AUTO 00000KT 9SM CLR 14/13 A3013 830 90 1000 000/00 RMK AO2
14926KSTC STC20060628230509606/28/06 23:05:31  5-MIN KSTC 290505Z AUTO 00000KT 9SM CLR 14/13 A3013 830 93 900 000/00 RMK AO2
14926KSTC STC20060628231009706/28/06 23:10:31  5-MIN KSTC 290510Z AUTO 00000KT 9SM CLR 14/13 A3013 830 90 1000 000/00 RMK AO2
14926KSTC STC20060628231509606/28/06 23:15:31  5-MIN KSTC 290515Z AUTO 00000KT 9SM CLR 14/12 A3013 830 90 900 000/00 RMK AO2
14926KSTC STC20060628232009606/28/06 23:20:31  5-MIN KSTC 290520Z AUTO 00000KT 9SM CLR 14/12 A3013 830 90 900 000/00 RMK AO2
14926KSTC STC20060628232509606/28/06 23:25:31  5-MIN KSTC 290525Z AUTO 00000KT 8SM CLR 14/12 A3013 830 90 900 000/00 RMK AO2
14926KSTC STC20060628233009606/28/06 23:30:31  5-MIN KSTC 290530Z AUTO 00000KT 8SM CLR 13/12 A3013 830 93 900 000/00 RMK AO2
14926KSTC STC20060628233509606/28/06 23:35:31  5-MIN KSTC 290535Z AUTO 00000KT 8SM CLR 13/12 A3014 830 93 900 000/00 RMK AO2
14926KSTC STC20060628234009606/28/06 23:40:31  5-MIN KSTC 290540Z AUTO 00000KT 7SM CLR 13/12 A3014 830 93 900 000/00 RMK AO2
14926KSTC STC20060628234509606/28/06 23:45:31  5-MIN KSTC 290545Z AUTO 00000KT 7SM CLR 13/12 A3014 830 93 900 000/00 RMK AO2
14926KSTC STC20060628235014106/28/06 23:50:31  5-MIN KSTC 290550Z AUTO 00000KT 8SM CLR 13/12 A3014 830 93 900 000/00 RMK AO2 SLP212 T01330122 10250 20128 402670100 53009
14926KSTC STC20060628235509606/28/06 23:55:31  5-MIN KSTC 290555Z AUTO 00000KT 8SM CLR 13/12 A3014 830 89 900 000/00 RMK AO2
14926KSTC STC20060629000009606/29/06 00:00:32  5-MIN KSTC 290600Z AUTO 00000KT 8SM CLR 13/12 A3014 830 93 900 000/00 RMK AO2
14926KSTC STC20060629000509606/29/06 00:05:31  5-MIN KSTC 290605Z AUTO 00000KT 8SM CLR 13/12 A3013 830 93 800 000/00 RMK AO2
14926KSTC STC20060629001009606/29/06 00:10:31  5-MIN KSTC 290610Z AUTO 00000KT 8SM CLR 13/12 A3013 830 93 800 000/00 RMK AO2
14926KSTC STC20060629001509606/29/06 00:15:31  5-MIN KSTC 290615Z AUTO 00000KT 8SM CLR 13/12 A3013 830 89 900 000/00 RMK AO2
14926KSTC STC20060629002009606/29/06 00:20:31  5-MIN KSTC 290620Z AUTO 00000KT 8SM CLR 13/12 A3013 830 93 800 000/00 RMK AO2
14926KSTC STC20060629002509606/29/06 00:25:31  5-MIN KSTC 290625Z AUTO 00000KT 9SM CLR 13/12 A3013 830 93 800 000/00 RMK AO2
14926KSTC STC20060629003009606/29/06 00:30:31  5-MIN KSTC 290630Z AUTO 00000KT 8SM CLR 12/11 A3013 830 93 700 000/00 RMK AO2
14926KSTC STC20060629003509606/29/06 00:35:31  5-MIN KSTC 290635Z AUTO 00000KT 7SM CLR 12/12 A3013 830 96 700 000/00 RMK AO2
14926KSTC STC20060629004009906/29/06 00:40:31  5-MIN KSTC 290640Z AUTO 00000KT 6SM BR CLR 12/12 A3013 830 96 700 000/00 RMK AO2
14926KSTC STC20060629004509906/29/06 00:45:31  5-MIN KSTC 290645Z AUTO 00000KT 5SM BR CLR 12/12 A3013 830 96 700 000/00 RMK AO2
14926KSTC STC20060629005011606/29/06 00:50:31  5-MIN KSTC 290650Z AUTO 00000KT 5SM BR CLR 12/12 A3013 830 96 700 000/00 RMK AO2 SLP210 T01220117
14926KSTC STC20060629005509906/29/06 00:55:31  5-MIN KSTC 290655Z AUTO 00000KT 6SM BR CLR 12/11 A3013 830 93 700 000/00 RMK AO2
14926KSTC STC20060629010009906/29/06 01:00:31  5-MIN KSTC 290700Z AUTO 00000KT 6SM BR CLR 13/12 A3013 830 93 800 000/00 RMK AO2
14926KSTC STC20060629010509906/29/06 01:05:31  5-MIN KSTC 290705Z AUTO 00000KT 6SM BR CLR 12/12 A3013 830 96 700 000/00 RMK AO2
14926KSTC STC20060629011009906/29/06 01:10:31  5-MIN KSTC 290710Z AUTO 00000KT 6SM BR CLR 12/12 A3013 830 96 700 000/00 RMK AO2
14926KSTC STC20060629011509906/29/06 01:15:31  5-MIN KSTC 290715Z AUTO 00000KT 6SM BR CLR 12/11 A3013 830 96 700 000/00 RMK AO2
14926KSTC STC20060629012009906/29/06 01:20:31  5-MIN KSTC 290720Z AUTO 00000KT 6SM BR CLR 12/11 A3013 830 93 700 000/00 RMK AO2
14926KSTC STC20060629012509906/29/06 01:25:31  5-MIN KSTC 290725Z AUTO 00000KT 6SM BR CLR 12/11 A3013 830 96 700 000/00 RMK AO2
14926KSTC STC20060629013009906/29/06 01:30:31  5-MIN KSTC 290730Z AUTO 00000KT 5SM BR CLR 12/11 A3013 830 96 700 000/00 RMK AO2
14926KSTC STC20060629013509906/29/06 01:35:31  5-MIN KSTC 290735Z AUTO 00000KT 4SM BR CLR 12/11 A3013 830 96 700 000/00 RMK AO2
14926KSTC STC20060629014009906/29/06 01:40:31  5-MIN KSTC 290740Z AUTO 00000KT 5SM BR CLR 12/11 A3013 830 96 700 000/00 RMK AO2
14926KSTC STC20060629014509906/29/06 01:45:31  5-MIN KSTC 290745Z AUTO 00000KT 5SM BR CLR 12/11 A3013 830 96 700 000/00 RMK AO2
14926KSTC STC20060629015011606/29/06 01:50:31  5-MIN KSTC 290750Z AUTO 00000KT 6SM BR CLR 12/11 A3013 830 96 700 000/00 RMK AO2 SLP210 T01170111
14926KSTC STC20060629015509906/29/06 01:55:31  5-MIN KSTC 290755Z AUTO 00000KT 6SM BR CLR 12/11 A3013 830 93 700 000/00 RMK AO2
14926KSTC STC20060629020009906/29/06 02:00:31  5-MIN KSTC 290800Z AUTO 00000KT 6SM BR CLR 12/11 A3013 830 96 700 000/00 RMK AO2
14926KSTC STC20060629020509906/29/06 02:05:31  5-MIN KSTC 290805Z AUTO 00000KT 6SM BR CLR 12/11 A3013 840 93 700 000/00 RMK AO2
14926KSTC STC20060629021009906/29/06 02:10:31  5-MIN KSTC 290810Z AUTO 00000KT 5SM BR CLR 12/11 A3013 840 93 700 000/00 RMK AO2
14926KSTC STC20060629021509906/29/06 02:15:31  5-MIN KSTC 290815Z AUTO 00000KT 6SM BR CLR 12/11 A3013 840 93 700 000/00 RMK AO2
14926KSTC STC20060629022009906/29/06 02:20:31  5-MIN KSTC 290820Z AUTO 00000KT 6SM BR CLR 12/11 A3013 840 93 700 000/00 RMK AO2
14926KSTC STC20060629022509906/29/06 02:25:31  5-MIN KSTC 290825Z AUTO 00000KT 6SM BR CLR 12/11 A3013 840 93 700 000/00 RMK AO2
14926KSTC STC20060629023009906/29/06 02:30:31  5-MIN KSTC 290830Z AUTO 00000KT 6SM BR CLR 11/11 A3013 840 96 600 000/00 RMK AO2
14926KSTC STC20060629023509906/29/06 02:35:31  5-MIN KSTC 290835Z AUTO 00000KT 5SM BR CLR 11/10 A3013 840 93 600 000/00 RMK AO2
14926KSTC STC20060629024009906/29/06 02:40:31  5-MIN KSTC 290840Z AUTO 00000KT 6SM BR CLR 11/11 A3013 840 96 600 000/00 RMK AO2
14926KSTC STC20060629024509906/29/06 02:45:31  5-MIN KSTC 290845Z AUTO 00000KT 6SM BR CLR 11/11 A3013 840 96 600 000/00 RMK AO2
14926KSTC STC20060629025012206/29/06 02:50:31  5-MIN KSTC 290850Z AUTO 00000KT 5SM BR CLR 11/11 A3013 840 96 600 000/00 RMK AO2 SLP208 T01110106 53005
14926KSTC STC20060629025509906/29/06 02:55:31  5-MIN KSTC 290855Z AUTO 00000KT 6SM BR CLR 12/11 A3013 840 93 700 000/00 RMK AO2
14926KSTC STC20060629030009906/29/06 03:00:31  5-MIN KSTC 290900Z AUTO 00000KT 6SM BR CLR 11/10 A3013 840 93 600 000/00 RMK AO2
14926KSTC STC20060629030509906/29/06 03:05:31  5-MIN KSTC 290905Z AUTO 00000KT 5SM BR CLR 11/11 A3013 840 96 600 000/00 RMK AO2
14926KSTC STC20060629031009906/29/06 03:10:31  5-MIN KSTC 290910Z AUTO 00000KT 6SM BR CLR 11/10 A3013 840 93 600 000/00 RMK AO2
14926KSTC STC20060629031509906/29/06 03:15:31  5-MIN KSTC 290915Z AUTO 00000KT 6SM BR CLR 11/11 A3013 840 96 600 000/00 RMK AO2
14926KSTC STC20060629032009906/29/06 03:20:31  5-MIN KSTC 290920Z AUTO 00000KT 6SM BR CLR 11/10 A3012 840 93 600 000/00 RMK AO2
14926KSTC STC20060629032509906/29/06 03:25:31  5-MIN KSTC 290925Z AUTO 00000KT 5SM BR CLR 11/10 A3013 840 93 600 000/00 RMK AO2
14926KSTC STC20060629033009906/29/06 03:30:31  5-MIN KSTC 290930Z AUTO 00000KT 5SM BR CLR 11/11 A3013 840 96 600 000/00 RMK AO2
14926KSTC STC20060629033509906/29/06 03:35:31  5-MIN KSTC 290935Z AUTO 00000KT 6SM BR CLR 11/11 A3013 840 96 600 000/00 RMK AO2
14926KSTC STC20060629034009906/29/06 03:40:31  5-MIN KSTC 290940Z AUTO 00000KT 5SM BR CLR 11/10 A3013 840 96 500 000/00 RMK AO2
14926KSTC STC20060629034509906/29/06 03:45:31  5-MIN KSTC 290945Z AUTO 00000KT 6SM BR CLR 11/10 A3013 840 96 500 000/00 RMK AO2
14926KSTC STC20060629035011606/29/06 03:50:31  5-MIN KSTC 290950Z AUTO 00000KT 6SM BR CLR 11/10 A3013 840 96 500 000/00 RMK AO2 SLP208 T01060100
14926KSTC STC20060629035509606/29/06 03:55:31  5-MIN KSTC 290955Z AUTO 00000KT 7SM CLR 11/10 A3012 840 96 500 000/00 RMK AO2
14926KSTC STC20060629040009906/29/06 04:00:31  5-MIN KSTC 291000Z AUTO 00000KT 6SM BR CLR 11/10 A3012 840 96 500 000/00 RMK AO2
14926KSTC STC20060629040509906/29/06 04:05:31  5-MIN KSTC 291005Z AUTO 00000KT 6SM BR CLR 11/10 A3012 840 96 600 000/00 RMK AO2
14926KSTC STC20060629041009906/29/06 04:10:31  5-MIN KSTC 291010Z AUTO 00000KT 6SM BR CLR 11/09 A3012 840 93 600 000/00 RMK AO2
14926KSTC STC20060629041509906/29/06 04:15:31  5-MIN KSTC 291015Z AUTO 00000KT 5SM BR CLR 11/09 A3012 840 93 600 000/00 RMK AO2
14926KSTC STC20060629042009906/29/06 04:20:31  5-MIN KSTC 291020Z AUTO 06003KT 5SM BR CLR 11/10 A3012 840 96 600 060/03 RMK AO2
14926KSTC STC20060629042509906/29/06 04:25:31  5-MIN KSTC 291025Z AUTO 00000KT 6SM BR CLR 11/10 A3012 840 96 500 000/00 RMK AO2
14926KSTC STC20060629043009906/29/06 04:30:31  5-MIN KSTC 291030Z AUTO 00000KT 6SM BR CLR 11/10 A3012 840 96 500 000/00 RMK AO2
14926KSTC STC20060629043509906/29/06 04:35:31  5-MIN KSTC 291035Z AUTO 00000KT 6SM BR CLR 11/10 A3012 840 93 600 000/00 RMK AO2
14926KSTC STC20060629044009906/29/06 04:40:31  5-MIN KSTC 291040Z AUTO 00000KT 6SM BR CLR 11/09 A3012 840 93 500 000/00 RMK AO2
14926KSTC STC20060629044509906/29/06 04:45:31  5-MIN KSTC 291045Z AUTO 00000KT 6SM BR CLR 11/09 A3012 840 93 500 000/00 RMK AO2
14926KSTC STC20060629045011606/29/06 04:50:31  5-MIN KSTC 291050Z AUTO 00000KT 6SM BR CLR 11/09 A3012 840 93 500 000/00 RMK AO2 SLP208 T01060094
14926KSTC STC20060629045509906/29/06 04:55:31  5-MIN KSTC 291055Z AUTO 00000KT 6SM BR CLR 11/09 A3012 840 93 500 000/00 RMK AO2
14926KSTC STC20060629050009906/29/06 05:00:31  5-MIN KSTC 291100Z AUTO 00000KT 4SM BR CLR 11/10 A3013 840 96 500 000/00 RMK AO2
14926KSTC STC20060629050509906/29/06 05:05:31  5-MIN KSTC 291105Z AUTO 00000KT 4SM BR CLR 11/09 A3013 840 93 500 000/00 RMK AO2
14926KSTC STC20060629051009906/29/06 05:10:31  5-MIN KSTC 291110Z AUTO 00000KT 4SM BR CLR 11/10 A3013 840 96 500 000/00 RMK AO2
14926KSTC STC20060629182009206/29/06 18:20:31  5-MIN KSTC 300020Z 17005KT 8SM CLR 26/13 A3002 930 43 2500 170/05 RMK AO2
14926KSTC STC20060629182509206/29/06 18:25:31  5-MIN KSTC 300025Z 17004KT 8SM CLR 26/13 A3002 930 44 2500 170/04 RMK AO2
14926KSTC STC20060629183009206/29/06 18:30:31  5-MIN KSTC 300030Z 17004KT 8SM CLR 26/14 A3002 930 46 2500 170/04 RMK AO2
14926KSTC STC20060629183509206/29/06 18:35:31  5-MIN KSTC 300035Z 00000KT 8SM CLR 26/14 A3002 930 46 2500 000/00 RMK AO2
14926KSTC STC20060629184009206/29/06 18:40:31  5-MIN KSTC 300040Z 00000KT 8SM CLR 26/14 A3002 930 48 2500 000/00 RMK AO2
14926KSTC STC20060629184509206/29/06 18:45:31  5-MIN KSTC 300045Z 17004KT 8SM CLR 26/14 A3002 930 46 2500 170/04 RMK AO2
14926KSTC STC20060629185010906/29/06 18:50:31  5-MIN KSTC 300050Z 17005KT 8SM CLR 26/14 A3002 930 49 2400 170/05 RMK AO2 SLP170 T02560144
14926KSTC STC20060629185509206/29/06 18:55:31  5-MIN KSTC 300055Z 16004KT 8SM CLR 26/15 A3002 930 51 2400 160/04 RMK AO2
14926KSTC STC20060629190009206/29/06 19:00:31  5-MIN KSTC 300100Z 17005KT 8SM CLR 25/15 A3002 940 53 2300 170/05 RMK AO2
14926KSTC STC20060629190509206/29/06 19:05:31  5-MIN KSTC 300105Z 17004KT 8SM CLR 25/15 A3002 940 53 2300 170/04 RMK AO2
14926KSTC STC20060629191009206/29/06 19:10:31  5-MIN KSTC 300110Z 17006KT 8SM CLR 25/14 A3001 940 51 2300 170/06 RMK AO2
14926KSTC STC20060629191509206/29/06 19:15:31  5-MIN KSTC 300115Z 17006KT 8SM CLR 24/14 A3001 940 53 2300 170/06 RMK AO2
14926KSTC STC20060629192009206/29/06 19:20:31  5-MIN KSTC 300120Z 17006KT 8SM CLR 24/14 A3001 940 53 2300 160/06 RMK AO2
14926KSTC STC20060629192509206/29/06 19:25:31  5-MIN KSTC 300125Z 17006KT 8SM CLR 24/14 A3001 940 55 2200 170/06 RMK AO2
14926KSTC STC20060629193009206/29/06 19:30:31  5-MIN KSTC 300130Z 17005KT 8SM CLR 24/14 A3001 950 55 2200 170/05 RMK AO2
14926KSTC STC20060629193509206/29/06 19:35:31  5-MIN KSTC 300135Z 17005KT 8SM CLR 23/14 A3001 950 59 2100 160/05 RMK AO2
14926KSTC STC20060629194009206/29/06 19:40:31  5-MIN KSTC 300140Z 17006KT 8SM CLR 23/14 A3000 950 59 2100 160/06 RMK AO2
14926KSTC STC20060629194509206/29/06 19:45:31  5-MIN KSTC 300145Z 15005KT 8SM CLR 22/14 A3000 950 61 2000 150/05 RMK AO2
14926KSTC STC20060629195010906/29/06 19:50:31  5-MIN KSTC 300150Z 15004KT 8SM CLR 22/16 A3000 950 65 2000 140/04 RMK AO2 SLP165 T02220156
14926KSTC STC20060629195509206/29/06 19:55:31  5-MIN KSTC 300155Z 14004KT 8SM CLR 22/16 A3000 950 65 2000 130/04 RMK AO2
14926KSTC STC20060629200009206/29/06 20:00:31  5-MIN KSTC 300200Z 13003KT 8SM CLR 22/16 A3000 950 65 2000 130/03 RMK AO2
14926KSTC STC20060629200509206/29/06 20:05:31  5-MIN KSTC 300205Z 12003KT 8SM CLR 22/15 A3001 950 63 2000 120/03 RMK AO2
14926KSTC STC20060629201009206/29/06 20:10:31  5-MIN KSTC 300210Z 12003KT 8SM CLR 22/15 A3001 950 63 2000 120/03 RMK AO2
14926KSTC STC20060629201509206/29/06 20:15:31  5-MIN KSTC 300215Z 12003KT 8SM CLR 22/15 A3001 950 63 2000 120/03 RMK AO2
14926KSTC STC20060629202009206/29/06 20:20:31  5-MIN KSTC 300220Z 12003KT 8SM CLR 21/15 A3000 950 68 1900 120/03 RMK AO2
14926KSTC STC20060629202509206/29/06 20:25:31  5-MIN KSTC 300225Z 12003KT 8SM CLR 21/15 A3001 950 68 1900 120/03 RMK AO2
14926KSTC STC20060629203009206/29/06 20:30:31  5-MIN KSTC 300230Z 13003KT 9SM CLR 21/15 A3001 950 68 1900 130/03 RMK AO2
14926KSTC STC20060629203509206/29/06 20:35:31  5-MIN KSTC 300235Z 14003KT 9SM CLR 21/15 A3001 940 70 1800 140/03 RMK AO2
14926KSTC STC20060629204009206/29/06 20:40:31  5-MIN KSTC 300240Z 14003KT 9SM CLR 20/15 A3001 940 72 1800 140/03 RMK AO2
14926KSTC STC20060629204509206/29/06 20:45:31  5-MIN KSTC 300245Z 00000KT 9SM CLR 19/16 A3001 940 78 1700 000/00 RMK AO2
14926KSTC STC20060629205011506/29/06 20:50:31  5-MIN KSTC 300250Z 00000KT 8SM CLR 19/16 A3001 940 78 1700 000/00 RMK AO2 SLP167 T01940156 58016
14926KSTC STC20060629205509206/29/06 20:55:31  5-MIN KSTC 300255Z 14003KT 8SM CLR 19/16 A3001 940 78 1700 140/03 RMK AO2
14926KSTC STC20060629210009206/29/06 21:00:31  5-MIN KSTC 300300Z 00000KT 8SM CLR 19/16 A3001 940 78 1700 000/00 RMK AO2
14926KSTC STC20060629210509206/29/06 21:05:31  5-MIN KSTC 300305Z 00000KT 8SM CLR 19/16 A3002 940 81 1600 000/00 RMK AO2
14926KSTC STC20060629211009206/29/06 21:10:31  5-MIN KSTC 300310Z 00000KT 8SM CLR 18/15 A3002 930 81 1600 000/00 RMK AO2
14926KSTC STC20060629211509206/29/06 21:15:31  5-MIN KSTC 300315Z 00000KT 8SM CLR 18/15 A3002 930 81 1600 000/00 RMK AO2
14926KSTC STC20060629212009206/29/06 21:20:31  5-MIN KSTC 300320Z 08003KT 8SM CLR 19/15 A3002 930 78 1600 080/03 RMK AO2
14926KSTC STC20060629212509206/29/06 21:25:31  5-MIN KSTC 300325Z 09003KT 8SM CLR 19/15 A3002 930 78 1600 090/03 RMK AO2
14926KSTC STC20060629213009206/29/06 21:30:31  5-MIN KSTC 300330Z 00000KT 8SM CLR 19/15 A3002 930 78 1600 000/00 RMK AO2
14926KSTC STC20060629213509206/29/06 21:35:31  5-MIN KSTC 300335Z 00000KT 8SM CLR 19/15 A3002 930 78 1600 000/00 RMK AO2
14926KSTC STC20060629214009206/29/06 21:40:31  5-MIN KSTC 300340Z 10003KT 8SM CLR 19/15 A3002 930 75 1700 100/03 RMK AO2
14926KSTC STC20060629214509206/29/06 21:45:31  5-MIN KSTC 300345Z 10003KT 9SM CLR 19/15 A3002 930 78 1600 100/03 RMK AO2
14926KSTC STC20060629215010906/29/06 21:50:31  5-MIN KSTC 300350Z 10003KT 8SM CLR 19/15 A3002 930 78 1600 090/03 RMK AO2 SLP170 T01890150
14926KSTC STC20060629215509706/29/06 21:55:31  5-MIN KSTC 300355Z AUTO 00000KT 8SM CLR 18/15 A3002 930 81 1600 000/00 RMK AO2
14926KSTC STC20060629220009706/29/06 22:00:31  5-MIN KSTC 300400Z AUTO 00000KT 8SM CLR 18/15 A3002 940 83 1500 000/00 RMK AO2
14926KSTC STC20060629220509706/29/06 22:05:31  5-MIN KSTC 300405Z AUTO 11003KT 8SM CLR 18/15 A3002 940 81 1600 110/03 RMK AO2
14926KSTC STC20060629221009706/29/06 22:10:31  5-MIN KSTC 300410Z AUTO 00000KT 8SM CLR 18/15 A3002 940 81 1600 000/00 RMK AO2
14926KSTC STC20060629221509706/29/06 22:15:31  5-MIN KSTC 300415Z AUTO 11003KT 8SM CLR 19/14 A3001 940 75 1700 110/03 RMK AO2
14926KSTC STC20060629222009706/29/06 22:20:31  5-MIN KSTC 300420Z AUTO 10003KT 8SM CLR 18/14 A3001 940 78 1600 100/03 RMK AO2
14926KSTC STC20060629222509706/29/06 22:25:31  5-MIN KSTC 300425Z AUTO 11003KT 8SM CLR 18/14 A3001 940 78 1600 110/03 RMK AO2
14926KSTC STC20060629223009706/29/06 22:30:31  5-MIN KSTC 300430Z AUTO 11003KT 8SM CLR 19/14 A3001 940 75 1700 110/03 RMK AO2
14926KSTC STC20060629223509706/29/06 22:35:31  5-MIN KSTC 300435Z AUTO 11003KT 8SM CLR 19/14 A3001 940 75 1700 100/03 RMK AO2
14926KSTC STC20060629224009706/29/06 22:40:31  5-MIN KSTC 300440Z AUTO 00000KT 8SM CLR 19/14 A3001 940 75 1700 000/00 RMK AO2
14926KSTC STC20060629224509706/29/06 22:45:31  5-MIN KSTC 300445Z AUTO 00000KT 8SM CLR 18/14 A3001 940 78 1600 000/00 RMK AO2
14926KSTC STC20060629225011406/29/06 22:50:31  5-MIN KSTC 300450Z AUTO 00000KT 8SM CLR 18/14 A3001 940 81 1500 000/00 RMK AO2 SLP166 T01780144
14926KSTC STC20060629225509706/29/06 22:55:31  5-MIN KSTC 300455Z AUTO 00000KT 8SM CLR 18/14 A3002 940 78 1600 000/00 RMK AO2
14926KSTC STC20060629230009706/29/06 23:00:31  5-MIN KSTC 300500Z AUTO 00000KT 8SM CLR 17/14 A3002 940 83 1500 000/00 RMK AO2
14926KSTC STC20060629230509706/29/06 23:05:31  5-MIN KSTC 300505Z AUTO 00000KT 8SM CLR 17/14 A3002 940 83 1500 000/00 RMK AO2
14926KSTC STC20060629231009706/29/06 23:10:31  5-MIN KSTC 300510Z AUTO 00000KT 7SM CLR 17/14 A3002 940 86 1400 000/00 RMK AO2
14926KSTC STC20060629231509706/29/06 23:15:31  5-MIN KSTC 300515Z AUTO 06003KT 7SM CLR 17/14 A3002 940 86 1400 060/03 RMK AO2
14926KSTC STC20060629232009706/29/06 23:20:31  5-MIN KSTC 300520Z AUTO 07003KT 7SM CLR 17/14 A3002 940 86 1400 070/03 RMK AO2
14926KSTC STC20060629232509706/29/06 23:25:31  5-MIN KSTC 300525Z AUTO 07004KT 7SM CLR 17/14 A3002 940 86 1400 060/04 RMK AO2
14926KSTC STC20060629233009706/29/06 23:30:31  5-MIN KSTC 300530Z AUTO 07006KT 8SM CLR 18/14 A3002 940 81 1500 070/06 RMK AO2
14926KSTC STC20060629233509706/29/06 23:35:31  5-MIN KSTC 300535Z AUTO 07006KT 8SM CLR 18/14 A3002 940 81 1500 070/06 RMK AO2
14926KSTC STC20060629234009706/29/06 23:40:31  5-MIN KSTC 300540Z AUTO 08007KT 8SM CLR 18/14 A3002 940 78 1600 070/07 RMK AO2
14926KSTC STC20060629234509706/29/06 23:45:31  5-MIN KSTC 300545Z AUTO 07007KT 8SM CLR 18/14 A3002 940 78 1600 070/07 RMK AO2
14926KSTC STC20060629235014206/29/06 23:50:31  5-MIN KSTC 300550Z AUTO 08006KT 8SM CLR 18/14 A3002 940 78 1600 070/06 RMK AO2 SLP168 T01830144 10272 20161 402830106 55003
14926KSTC STC20060629235509706/29/06 23:55:31  5-MIN KSTC 300555Z AUTO 07007KT 8SM CLR 18/14 A3002 940 78 1600 070/07 RMK AO2
14926KSTC STC20060630000009706/30/06 00:00:32  5-MIN KSTC 300600Z AUTO 08006KT 8SM CLR 18/14 A3002 940 75 1600 070/06 RMK AO2
14926KSTC STC20060630000509706/30/06 00:05:31  5-MIN KSTC 300605Z AUTO 07006KT 8SM CLR 18/14 A3002 940 75 1600 070/06 RMK AO2
14926KSTC STC20060630001009706/30/06 00:10:31  5-MIN KSTC 300610Z AUTO 07006KT 8SM CLR 18/14 A3002 940 75 1600 070/06 RMK AO2
14926KSTC STC20060630001509706/30/06 00:15:31  5-MIN KSTC 300615Z AUTO 08006KT 8SM CLR 18/14 A3002 940 75 1600 080/06 RMK AO2
14926KSTC STC20060630002009706/30/06 00:20:31  5-MIN KSTC 300620Z AUTO 09007KT 8SM CLR 18/14 A3001 940 75 1600 080/07 RMK AO2
14926KSTC STC20060630002509706/30/06 00:25:31  5-MIN KSTC 300625Z AUTO 10006KT 8SM CLR 19/14 A3001 940 72 1700 090/06 RMK AO2
14926KSTC STC20060630003009706/30/06 00:30:31  5-MIN KSTC 300630Z AUTO 10004KT 8SM CLR 19/14 A3001 940 72 1700 100/04 RMK AO2
14926KSTC STC20060630003509706/30/06 00:35:31  5-MIN KSTC 300635Z AUTO 10004KT 8SM CLR 18/14 A3001 940 75 1600 090/04 RMK AO2
14926KSTC STC20060630004009706/30/06 00:40:31  5-MIN KSTC 300640Z AUTO 11004KT 8SM CLR 18/14 A3001 950 75 1600 110/04 RMK AO2
14926KSTC STC20060630004509706/30/06 00:45:31  5-MIN KSTC 300645Z AUTO 09005KT 8SM CLR 18/14 A3001 950 75 1600 090/05 RMK AO2
14926KSTC STC20060630005011406/30/06 00:50:31  5-MIN KSTC 300650Z AUTO 10005KT 8SM CLR 18/14 A3000 950 75 1600 090/05 RMK AO2 SLP163 T01830139
14926KSTC STC20060630005509706/30/06 00:55:31  5-MIN KSTC 300655Z AUTO 11005KT 8SM CLR 18/14 A3000 960 75 1600 100/05 RMK AO2
14926KSTC STC20060630010009706/30/06 01:00:31  5-MIN KSTC 300700Z AUTO 10004KT 8SM CLR 18/14 A3000 950 75 1600 100/04 RMK AO2
14926KSTC STC20060630010509706/30/06 01:05:31  5-MIN KSTC 300705Z AUTO 10004KT 8SM CLR 18/14 A3000 950 75 1600 100/04 RMK AO2
14926KSTC STC20060630011009706/30/06 01:10:31  5-MIN KSTC 300710Z AUTO 11004KT 8SM CLR 18/14 A3000 950 75 1600 110/04 RMK AO2
14926KSTC STC20060630011509706/30/06 01:15:31  5-MIN KSTC 300715Z AUTO 12004KT 8SM CLR 18/14 A3000 950 75 1600 120/04 RMK AO2
14926KSTC STC20060630012009706/30/06 01:20:31  5-MIN KSTC 300720Z AUTO 15003KT 8SM CLR 18/14 A3000 960 75 1600 140/03 RMK AO2
14926KSTC STC20060630012509706/30/06 01:25:31  5-MIN KSTC 300725Z AUTO 16004KT 8SM CLR 17/14 A3000 960 80 1500 150/04 RMK AO2
14926KSTC STC20060630013009706/30/06 01:30:31  5-MIN KSTC 300730Z AUTO 16004KT 7SM CLR 17/14 A2999 960 83 1400 150/04 RMK AO2
14926KSTC STC20060630013509706/30/06 01:35:31  5-MIN KSTC 300735Z AUTO 14004KT 7SM CLR 17/14 A2999 960 86 1400 140/04 RMK AO2
14926KSTC STC20060630014009706/30/06 01:40:31  5-MIN KSTC 300740Z AUTO 12003KT 7SM CLR 17/14 A3000 960 83 1500 120/03 RMK AO2
14926KSTC STC20060630014509706/30/06 01:45:31  5-MIN KSTC 300745Z AUTO 00000KT 8SM CLR 18/14 A3000 950 78 1500 000/00 RMK AO2
14926KSTC STC20060630015011406/30/06 01:50:31  5-MIN KSTC 300750Z AUTO 00000KT 8SM CLR 18/14 A3000 950 78 1500 000/00 RMK AO2 SLP162 T01780139
14926KSTC STC20060630015509706/30/06 01:55:31  5-MIN KSTC 300755Z AUTO 13003KT 8SM CLR 18/14 A3000 960 75 1600 130/03 RMK AO2
14926KSTC STC20060630020009706/30/06 02:00:31  5-MIN KSTC 300800Z AUTO 14003KT 8SM CLR 18/14 A2999 960 75 1600 130/03 RMK AO2
14926KSTC STC20060630020509706/30/06 02:05:31  5-MIN KSTC 300805Z AUTO 14003KT 8SM CLR 17/14 A3000 960 80 1500 140/03 RMK AO2
14926KSTC STC20060630021009706/30/06 02:10:31  5-MIN KSTC 300810Z AUTO 14003KT 8SM CLR 17/14 A2999 960 83 1500 140/03 RMK AO2
14926KSTC STC20060630021509706/30/06 02:15:31  5-MIN KSTC 300815Z AUTO 13003KT 7SM CLR 17/14 A2999 960 83 1500 130/03 RMK AO2
14926KSTC STC20060630022009706/30/06 02:20:31  5-MIN KSTC 300820Z AUTO 14004KT 7SM CLR 17/14 A2999 960 83 1500 130/04 RMK AO2
14926KSTC STC20060630022509706/30/06 02:25:31  5-MIN KSTC 300825Z AUTO 14004KT 8SM CLR 18/14 A2999 960 78 1600 130/04 RMK AO2
14926KSTC STC20060630023009706/30/06 02:30:31  5-MIN KSTC 300830Z AUTO 15004KT 8SM CLR 18/14 A2999 970 81 1600 140/04 RMK AO2
14926KSTC STC20060630023509706/30/06 02:35:31  5-MIN KSTC 300835Z AUTO 14003KT 8SM CLR 17/14 A2998 970 83 1500 140/03 RMK AO2
14926KSTC STC20060630024009706/30/06 02:40:31  5-MIN KSTC 300840Z AUTO 13004KT 7SM CLR 18/14 A2998 970 81 1600 130/04 RMK AO2
14926KSTC STC20060630024509706/30/06 02:45:31  5-MIN KSTC 300845Z AUTO 12004KT 8SM CLR 18/14 A2999 970 75 1600 120/04 RMK AO2
14926KSTC STC20060630025012006/30/06 02:50:31  5-MIN KSTC 300850Z AUTO 12003KT 8SM CLR 18/14 A2999 970 75 1600 110/03 RMK AO2 SLP158 T01830139 51002
14926KSTC STC20060630025509706/30/06 02:55:31  5-MIN KSTC 300855Z AUTO 11003KT 8SM CLR 18/14 A2999 960 75 1600 110/03 RMK AO2
14926KSTC STC20060630030009706/30/06 03:00:31  5-MIN KSTC 300900Z AUTO 00000KT 8SM CLR 18/14 A2999 960 75 1600 000/00 RMK AO2
14926KSTC STC20060630030509706/30/06 03:05:31  5-MIN KSTC 300905Z AUTO 07003KT 8SM CLR 18/14 A3000 960 75 1600 070/03 RMK AO2
14926KSTC STC20060630031009706/30/06 03:10:31  5-MIN KSTC 300910Z AUTO 00000KT 8SM CLR 18/14 A3000 960 78 1500 000/00 RMK AO2
14926KSTC STC20060630031509706/30/06 03:15:31  5-MIN KSTC 300915Z AUTO 00000KT 8SM CLR 18/14 A2999 960 75 1600 000/00 RMK AO2
14926KSTC STC20060630032009706/30/06 03:20:31  5-MIN KSTC 300920Z AUTO 00000KT 8SM CLR 18/14 A2999 960 78 1600 000/00 RMK AO2
14926KSTC STC20060630032509706/30/06 03:25:31  5-MIN KSTC 300925Z AUTO 00000KT 8SM CLR 18/14 A2999 960 78 1600 000/00 RMK AO2
14926KSTC STC20060630033009706/30/06 03:30:31  5-MIN KSTC 300930Z AUTO 11003KT 8SM CLR 18/14 A2999 970 78 1600 110/03 RMK AO2
14926KSTC STC20060630033509706/30/06 03:35:31  5-MIN KSTC 300935Z AUTO 12003KT 8SM CLR 18/14 A2998 970 78 1600 120/03 RMK AO2
14926KSTC STC20060630034009706/30/06 03:40:31  5-MIN KSTC 300940Z AUTO 13003KT 8SM CLR 18/14 A2998 970 78 1600 130/03 RMK AO2
14926KSTC STC20060630034509706/30/06 03:45:31  5-MIN KSTC 300945Z AUTO 15005KT 7SM CLR 17/14 A2998 980 83 1500 150/05 RMK AO2
14926KSTC STC20060630035011406/30/06 03:50:31  5-MIN KSTC 300950Z AUTO 16005KT 7SM CLR 17/14 A2997 980 86 1400 160/05 RMK AO2 SLP153 T01670144
14926KSTC STC20060630035510006/30/06 03:55:31  5-MIN KSTC 300955Z AUTO 15005KT 6SM BR CLR 17/14 A2997 980 86 1400 150/05 RMK AO2
14926KSTC STC20060630040010006/30/06 04:00:31  5-MIN KSTC 301000Z AUTO 14005KT 6SM BR CLR 17/14 A2997 980 86 1400 140/05 RMK AO2
14926KSTC STC20060630040509706/30/06 04:05:31  5-MIN KSTC 301005Z AUTO 14006KT 7SM CLR 18/14 A2997 980 81 1600 130/06 RMK AO2
14926KSTC STC20060630041009706/30/06 04:10:31  5-MIN KSTC 301010Z AUTO 14006KT 7SM CLR 18/14 A2997 980 78 1600 140/06 RMK AO2
14926KSTC STC20060630041509706/30/06 04:15:31  5-MIN KSTC 301015Z AUTO 14005KT 7SM CLR 18/14 A2997 980 81 1600 140/05 RMK AO2
14926KSTC STC20060630042009706/30/06 04:20:31  5-MIN KSTC 301020Z AUTO 15005KT 7SM CLR 18/14 A2996 990 81 1600 140/05 RMK AO2
14926KSTC STC20060630042510006/30/06 04:25:31  5-MIN KSTC 301025Z AUTO 14005KT 6SM BR CLR 17/15 A2996 990 87 1500 140/05 RMK AO2
14926KSTC STC20060630043010006/30/06 04:30:31  5-MIN KSTC 301030Z AUTO 14006KT 5SM BR CLR 17/15 A2996 990 87 1500 130/06 RMK AO2
14926KSTC STC20060630043510006/30/06 04:35:31  5-MIN KSTC 301035Z AUTO 13005KT 5SM HZ CLR 18/14 A2995 990 81 1600 130/05 RMK AO2
14926KSTC STC20060630044010106/30/06 04:40:31  5-MIN KSTC 301040Z AUTO 13005KT 6SM HZ CLR 18/14 A2995 1000 81 1600 130/05 RMK AO2
14926KSTC STC20060630044510106/30/06 04:45:31  5-MIN KSTC 301045Z AUTO 14005KT 6SM HZ CLR 18/15 A2995 1000 81 1700 140/05 RMK AO2
14926KSTC STC20060630045011806/30/06 04:50:31  5-MIN KSTC 301050Z AUTO 15005KT 6SM HZ CLR 18/15 A2994 1010 83 1600 140/05 RMK AO2 SLP143 T01780150
14926KSTC STC20060630045510106/30/06 04:55:31  5-MIN KSTC 301055Z AUTO 15005KT 5SM HZ CLR 18/15 A2994 1010 83 1600 140/05 RMK AO2
14926KSTC STC20060630050010106/30/06 05:00:31  5-MIN KSTC 301100Z AUTO 14004KT 5SM BR CLR 17/15 A2994 1010 87 1500 140/04 RMK AO2
14926KSTC STC20060630050510106/30/06 05:05:31  5-MIN KSTC 301105Z AUTO 14004KT 5SM HZ CLR 18/15 A2994 1010 83 1600 130/04 RMK AO2
14926KSTC STC20060630051010106/30/06 05:10:31  5-MIN KSTC 301110Z AUTO 13005KT 5SM HZ CLR 18/15 A2993 1010 81 1700 130/05 RMK AO2
14926KSTC STC20060630051510106/30/06 05:15:31  5-MIN KSTC 301115Z AUTO 13004KT 6SM HZ CLR 18/15 A2993 1010 81 1700 120/04 RMK AO2
14926KSTC STC20060630052010106/30/06 05:20:31  5-MIN KSTC 301120Z AUTO 08005KT 6SM HZ CLR 19/15 A2994 1010 78 1700 080/05 RMK AO2
14926KSTC STC20060630052510106/30/06 05:25:31  5-MIN KSTC 301125Z AUTO 07006KT 6SM HZ CLR 18/15 A2994 1010 81 1700 070/06 RMK AO2
14926KSTC STC20060630053010106/30/06 05:30:31  5-MIN KSTC 301130Z AUTO 09007KT 6SM HZ CLR 19/15 A2994 1010 78 1700 080/07 RMK AO2
14926KSTC STC20060630053510106/30/06 05:35:31  5-MIN KSTC 301135Z AUTO 09006KT 6SM HZ CLR 19/16 A2994 1010 78 1800 090/06 RMK AO2
14926KSTC STC20060630054010106/30/06 05:40:31  5-MIN KSTC 301140Z AUTO 09006KT 6SM HZ CLR 19/16 A2994 1010 78 1800 080/06 RMK AO2
14926KSTC STC20060630054510106/30/06 05:45:31  5-MIN KSTC 301145Z AUTO 08004KT 6SM HZ CLR 19/16 A2994 1000 78 1800 080/04 RMK AO2
14926KSTC STC20060630055014206/30/06 05:50:31  5-MIN KSTC 301150Z AUTO 10005KT 6SM HZ CLR 20/16 A2995 1000 75 1900 090/05 RMK AO2 SLP143 7//// T02000156 10200 20167 56010
14926KSTC STC20060630055510106/30/06 05:55:31  5-MIN KSTC 301155Z AUTO 09005KT 6SM HZ CLR 20/16 A2995 1000 75 1900 090/05 RMK AO2
14926KSTC STC20060630060010106/30/06 06:00:31  5-MIN KSTC 301200Z AUTO 09003KT 6SM HZ CLR 20/16 A2995 1000 75 1800 090/03 RMK AO2
14926KSTC STC20060630060510106/30/06 06:05:31  5-MIN KSTC 301205Z AUTO 10004KT 6SM HZ CLR 20/16 A2995 1000 75 1900 090/04 RMK AO2
14926KSTC STC20060630061009606/30/06 06:10:31  5-MIN KSTC 301210Z 11005KT 6SM HZ CLR 20/16 A2995 1000 75 1900 110/05 RMK AO2
14926KSTC STC20060630061509606/30/06 06:15:31  5-MIN KSTC 301215Z 10004KT 6SM HZ CLR 20/16 A2995 1000 75 1900 100/04 RMK AO2
14926KSTC STC20060630062009606/30/06 06:20:31  5-MIN KSTC 301220Z 10005KT 6SM HZ CLR 20/16 A2995 1000 75 1900 100/05 RMK AO2
14926KSTC STC20060630062509606/30/06 06:25:31  5-MIN KSTC 301225Z 10004KT 6SM HZ CLR 20/16 A2995 1000 75 1900 100/04 RMK AO2
14926KSTC STC20060630063009606/30/06 06:30:31  5-MIN KSTC 301230Z 12003KT 6SM HZ CLR 20/16 A2995 1000 75 1900 120/03 RMK AO2
14926KSTC STC20060630063509606/30/06 06:35:31  5-MIN KSTC 301235Z 14005KT 6SM HZ CLR 20/16 A2995 1000 78 1800 130/05 RMK AO2
14926KSTC STC20060630064009606/30/06 06:40:31  5-MIN KSTC 301240Z 13006KT 6SM HZ CLR 20/16 A2995 1000 78 1800 130/06 RMK AO2
14926KSTC STC20060630064509606/30/06 06:45:31  5-MIN KSTC 301245Z 13006KT 6SM HZ CLR 21/16 A2995 1000 75 1900 130/06 RMK AO2
14926KSTC STC20060630065011206/30/06 06:50:31  5-MIN KSTC 301250Z 13007KT 6SM HZ CLR 20/16 A2996 990 75 1800 130/07 RMK AO2 SLP147 T02000156
14926KSTC STC20060630065509506/30/06 06:55:31  5-MIN KSTC 301255Z 13006KT 6SM HZ CLR 21/16 A2996 990 75 1900 130/06 RMK AO2
14926KSTC STC20060630070009506/30/06 07:00:31  5-MIN KSTC 301300Z 13005KT 6SM HZ CLR 21/16 A2996 990 75 1900 130/05 RMK AO2
14926KSTC STC20060630070509506/30/06 07:05:31  5-MIN KSTC 301305Z 16007KT 6SM HZ CLR 21/16 A2996 990 75 1900 160/07 RMK AO2
14926KSTC STC20060630071009506/30/06 07:10:31  5-MIN KSTC 301310Z 16007KT 6SM HZ CLR 21/16 A2997 980 75 1900 160/07 RMK AO2
14926KSTC STC20060630071509506/30/06 07:15:31  5-MIN KSTC 301315Z 15005KT 6SM HZ CLR 21/16 A2997 980 75 1900 140/05 RMK AO2
14926KSTC STC20060630072009506/30/06 07:20:31  5-MIN KSTC 301320Z 12005KT 6SM HZ CLR 21/16 A2997 980 75 1900 120/05 RMK AO2
14926KSTC STC20060630072509506/30/06 07:25:31  5-MIN KSTC 301325Z 12006KT 6SM HZ CLR 21/16 A2997 980 73 2000 120/06 RMK AO2
14926KSTC STC20060630073009506/30/06 07:30:31  5-MIN KSTC 301330Z 14007KT 6SM HZ CLR 21/16 A2996 990 73 2000 140/07 RMK AO2
14926KSTC STC20060630073509506/30/06 07:35:31  5-MIN KSTC 301335Z 14008KT 6SM HZ CLR 22/17 A2996 990 73 2000 140/08 RMK AO2
14926KSTC STC20060630074009206/30/06 07:40:31  5-MIN KSTC 301340Z 15009KT 7SM CLR 22/17 A2996 990 73 2000 150/09 RMK AO2
14926KSTC STC20060630074509206/30/06 07:45:31  5-MIN KSTC 301345Z 15009KT 7SM CLR 22/17 A2996 990 70 2100 150/09 RMK AO2
14926KSTC STC20060630075010906/30/06 07:50:31  5-MIN KSTC 301350Z 16007KT 7SM CLR 23/17 A2996 990 68 2200 150/07 RMK AO2 SLP147 T02280167
14926KSTC STC20060630075509206/30/06 07:55:31  5-MIN KSTC 301355Z 15009KT 7SM CLR 23/17 A2996 990 68 2200 150/09 RMK AO2
14926KSTC STC20060630080009306/30/06 08:00:31  5-MIN KSTC 301400Z 15010KT 7SM CLR 23/17 A2995 1000 68 2200 150/10 RMK AO2
14926KSTC STC20060630080509306/30/06 08:05:31  5-MIN KSTC 301405Z 16009KT 7SM CLR 23/17 A2995 1000 68 2200 160/09 RMK AO2
14926KSTC STC20060630081009206/30/06 08:10:31  5-MIN KSTC 301410Z 16010KT 7SM CLR 23/17 A2996 990 68 2200 160/10 RMK AO2
14926KSTC STC20060630081509206/30/06 08:15:31  5-MIN KSTC 301415Z 17009KT 7SM CLR 23/17 A2996 990 68 2200 170/09 RMK AO2
14926KSTC STC20060630082009206/30/06 08:20:31  5-MIN KSTC 301420Z 17009KT 7SM CLR 23/17 A2996 990 68 2200 160/09 RMK AO2
14926KSTC STC20060630082509206/30/06 08:25:31  5-MIN KSTC 301425Z 17007KT 8SM CLR 23/17 A2996 990 68 2200 160/07 RMK AO2
14926KSTC STC20060630083009206/30/06 08:30:31  5-MIN KSTC 301430Z 17007KT 8SM CLR 23/17 A2996 990 66 2200 170/07 RMK AO2
14926KSTC STC20060630083509206/30/06 08:35:31  5-MIN KSTC 301435Z 16008KT 8SM CLR 23/17 A2995 990 66 2200 160/08 RMK AO2
14926KSTC STC20060630084009206/30/06 08:40:31  5-MIN KSTC 301440Z 17006KT 8SM CLR 24/17 A2996 990 63 2300 160/06 RMK AO2
14926KSTC STC20060630084509206/30/06 08:45:31  5-MIN KSTC 301445Z 16007KT 8SM CLR 24/17 A2995 990 66 2300 160/07 RMK AO2
14926KSTC STC20060630085011606/30/06 08:50:31  5-MIN KSTC 301450Z 16007KT 8SM CLR 24/17 A2995 1000 63 2300 160/07 RMK AO2 SLP147 T02390167 55012
14926KSTC STC20060630085509306/30/06 08:55:31  5-MIN KSTC 301455Z 15007KT 8SM CLR 24/17 A2995 1000 63 2400 150/07 RMK AO2
14926KSTC STC20060630090009306/30/06 09:00:31  5-MIN KSTC 301500Z 16008KT 8SM CLR 24/17 A2995 1000 63 2400 160/08 RMK AO2
14926KSTC STC20060630090509306/30/06 09:05:31  5-MIN KSTC 301505Z 16006KT 8SM CLR 24/17 A2995 1000 63 2400 160/06 RMK AO2
14926KSTC STC20060630091009306/30/06 09:10:31  5-MIN KSTC 301510Z 14007KT 8SM CLR 24/17 A2995 1000 63 2400 140/07 RMK AO2
14926KSTC STC20060630091509306/30/06 09:15:31  5-MIN KSTC 301515Z 16007KT 8SM CLR 24/17 A2995 1000 63 2400 160/07 RMK AO2
14926KSTC STC20060630092009306/30/06 09:20:31  5-MIN KSTC 301520Z 16006KT 8SM CLR 25/17 A2995 1000 61 2400 160/06 RMK AO2
14926KSTC STC20060630092509306/30/06 09:25:31  5-MIN KSTC 301525Z 16006KT 8SM CLR 25/18 A2995 1000 64 2400 160/06 RMK AO2
14926KSTC STC20060630093009306/30/06 09:30:31  5-MIN KSTC 301530Z 16005KT 8SM CLR 25/18 A2995 1000 64 2400 160/05 RMK AO2
14926KSTC STC20060630093509306/30/06 09:35:31  5-MIN KSTC 301535Z 16005KT 8SM CLR 26/18 A2995 1000 61 2500 160/05 RMK AO2
14926KSTC STC20060630094009306/30/06 09:40:31  5-MIN KSTC 301540Z 14005KT 8SM CLR 25/18 A2995 1000 64 2400 140/05 RMK AO2
14926KSTC STC20060630094509306/30/06 09:45:31  5-MIN KSTC 301545Z 14005KT 8SM CLR 25/18 A2995 1000 64 2400 140/05 RMK AO2
14926KSTC STC20060630095011006/30/06 09:50:31  5-MIN KSTC 301550Z 12005KT 8SM CLR 26/18 A2995 1000 61 2500 120/05 RMK AO2 SLP144 T02560178
14926KSTC STC20060630095509306/30/06 09:55:31  5-MIN KSTC 301555Z 13006KT 8SM CLR 26/18 A2994 1010 62 2600 130/06 RMK AO2
14926KSTC STC20060630100009306/30/06 10:00:31  5-MIN KSTC 301600Z 13006KT 8SM CLR 26/18 A2994 1010 62 2600 130/06 RMK AO2
14926KSTC STC20060630100509306/30/06 10:05:31  5-MIN KSTC 301605Z 16007KT 8SM CLR 26/18 A2994 1010 62 2600 160/07 RMK AO2
14926KSTC STC20060630101009306/30/06 10:10:31  5-MIN KSTC 301610Z 15008KT 8SM CLR 27/18 A2994 1010 60 2600 140/08 RMK AO2
14926KSTC STC20060630101509306/30/06 10:15:31  5-MIN KSTC 301615Z 18006KT 8SM CLR 26/18 A2994 1010 62 2600 170/06 RMK AO2
14926KSTC STC20060630102010906/30/06 10:20:31  5-MIN KSTC 301620Z 14007KT 120V190 8SM CLR 27/18 A2993 1010 60 2600 140/07 120V190 RMK AO2
14926KSTC STC20060630102509306/30/06 10:25:31  5-MIN KSTC 301625Z 14009KT 8SM CLR 27/19 A2993 1020 60 2700 140/09 RMK AO2
14926KSTC STC20060630103009306/30/06 10:30:31  5-MIN KSTC 301630Z 13008KT 8SM CLR 27/18 A2993 1020 58 2700 130/08 RMK AO2
14926KSTC STC20060630103509306/30/06 10:35:31  5-MIN KSTC 301635Z 13008KT 9SM CLR 27/18 A2993 1020 58 2700 130/08 RMK AO2
14926KSTC STC20060630104009306/30/06 10:40:31  5-MIN KSTC 301640Z 15007KT 8SM CLR 28/19 A2993 1010 58 2800 140/07 RMK AO2
14926KSTC STC20060630104509306/30/06 10:45:31  5-MIN KSTC 301645Z 11008KT 8SM CLR 28/19 A2993 1010 58 2800 110/08 RMK AO2
14926KSTC STC20060630105012606/30/06 10:50:31  5-MIN KSTC 301650Z 13007KT 090V180 8SM CLR 28/19 A2993 1010 56 2800 120/07 090V180 RMK AO2 SLP139 T02830189
14926KSTC STC20060630105509306/30/06 10:55:31  5-MIN KSTC 301655Z 14008KT 8SM CLR 29/19 A2993 1020 56 2900 140/08 RMK AO2
14926KSTC STC20060630110009306/30/06 11:00:31  5-MIN KSTC 301700Z 13008KT 9SM CLR 29/19 A2993 1020 54 2900 130/08 RMK AO2
14926KSTC STC20060630110509306/30/06 11:05:31  5-MIN KSTC 301705Z VRB06KT 9SM CLR 29/19 A2993 1020 54 2900 VRB/06 RMK AO2
14926KSTC STC20060630111009306/30/06 11:10:31  5-MIN KSTC 301710Z 14008KT 9SM CLR 29/19 A2993 1020 56 2900 140/08 RMK AO2
14926KSTC STC20060630111509306/30/06 11:15:31  5-MIN KSTC 301715Z 16008KT 9SM CLR 29/19 A2993 1020 56 2900 150/08 RMK AO2
14926KSTC STC20060630112009306/30/06 11:20:31  5-MIN KSTC 301720Z 15010KT 9SM CLR 29/19 A2993 1020 54 2900 140/10 RMK AO2
14926KSTC STC20060630112509306/30/06 11:25:31  5-MIN KSTC 301725Z 15009KT 9SM CLR 29/19 A2992 1020 52 2900 150/09 RMK AO2
14926KSTC STC20060630113009306/30/06 11:30:31  5-MIN KSTC 301730Z 14009KT 9SM CLR 29/19 A2992 1020 54 2900 140/09 RMK AO2
14926KSTC STC20060630113509306/30/06 11:35:31  5-MIN KSTC 301735Z 14009KT 9SM CLR 30/19 A2992 1030 52 3000 140/09 RMK AO2
14926KSTC STC20060630114009306/30/06 11:40:31  5-MIN KSTC 301740Z 15010KT 9SM CLR 29/19 A2992 1030 54 2900 150/10 RMK AO2
14926KSTC STC20060630114509306/30/06 11:45:31  5-MIN KSTC 301745Z 15010KT 9SM CLR 30/19 A2992 1030 52 3000 150/10 RMK AO2
14926KSTC STC20060630115012906/30/06 11:50:31  5-MIN KSTC 301750Z 15008KT 10SM CLR 30/19 A2992 1030 52 3000 140/08 RMK AO2 SLP134 T03000194 10300 20200 50002
14926KSTC STC20060630115509406/30/06 11:55:31  5-MIN KSTC 301755Z 14007KT 10SM CLR 31/19 A2992 1030 51 3100 140/07 RMK AO2
14926KSTC STC20060630120009406/30/06 12:00:31  5-MIN KSTC 301800Z 16010KT 10SM CLR 31/19 A2992 1030 49 3100 160/10 RMK AO2
14926KSTC STC20060630120510006/30/06 12:05:31  5-MIN KSTC 301805Z 17013G17KT 10SM CLR 31/19 A2992 1030 49 3100 160/13G17 RMK AO2
14926KSTC STC20060630121009406/30/06 12:10:31  5-MIN KSTC 301810Z 16011KT 10SM CLR 31/19 A2992 1030 49 3100 160/11 RMK AO2
14926KSTC STC20060630121509406/30/06 12:15:31  5-MIN KSTC 301815Z 15010KT 10SM CLR 31/19 A2992 1030 49 3100 150/10 RMK AO2
14926KSTC STC20060630122009406/30/06 12:20:31  5-MIN KSTC 301820Z 14009KT 10SM CLR 31/19 A2992 1030 47 3100 140/09 RMK AO2
14926KSTC STC20060630122509406/30/06 12:25:31  5-MIN KSTC 301825Z 14014KT 10SM CLR 31/19 A2992 1030 47 3100 140/14 RMK AO2
14926KSTC STC20060630123010006/30/06 12:30:31  5-MIN KSTC 301830Z 16010G16KT 10SM CLR 31/19 A2992 1030 49 3100 160/10G16 RMK AO2
14926KSTC STC20060630123509406/30/06 12:35:31  5-MIN KSTC 301835Z 16008KT 10SM CLR 31/19 A2991 1030 47 3100 160/08 RMK AO2
14926KSTC STC20060630124009406/30/06 12:40:31  5-MIN KSTC 301840Z 16010KT 10SM CLR 31/19 A2991 1030 47 3100 160/10 RMK AO2
14926KSTC STC20060630124509406/30/06 12:45:31  5-MIN KSTC 301845Z 18008KT 10SM CLR 32/19 A2991 1040 47 3200 180/08 RMK AO2
14926KSTC STC20060630125011706/30/06 12:50:31  5-MIN KSTC 301850Z 14011G16KT 10SM CLR 31/19 A2991 1040 47 3100 140/11G16 RMK AO2 SLP129 T03110189
14926KSTC STC20060630125510006/30/06 12:55:31  5-MIN KSTC 301855Z 18011G16KT 10SM CLR 31/19 A2991 1040 47 3100 170/11G16 RMK AO2
14926KSTC STC20060630130010006/30/06 13:00:31  5-MIN KSTC 301900Z 15012G18KT 10SM CLR 32/19 A2991 1040 46 3200 150/12G18 RMK AO2
14926KSTC STC20060630130510006/30/06 13:05:31  5-MIN KSTC 301905Z 15013G18KT 10SM CLR 32/19 A2990 1040 46 3200 150/13G18 RMK AO2
14926KSTC STC20060630131009406/30/06 13:10:31  5-MIN KSTC 301910Z 15011KT 10SM CLR 32/19 A2990 1040 46 3200 150/11 RMK AO2
14926KSTC STC20060630131509406/30/06 13:15:31  5-MIN KSTC 301915Z 17011KT 10SM CLR 32/19 A2990 1050 46 3200 170/11 RMK AO2
14926KSTC STC20060630132009406/30/06 13:20:31  5-MIN KSTC 301920Z 14012KT 10SM CLR 32/19 A2990 1050 46 3200 140/12 RMK AO2
14926KSTC STC20060630132509406/30/06 13:25:31  5-MIN KSTC 301925Z 15009KT 10SM CLR 31/18 A2990 1050 46 3200 150/09 RMK AO2
14926KSTC STC20060630133009406/30/06 13:30:31  5-MIN KSTC 301930Z 16010KT 10SM CLR 32/19 A2990 1050 44 3300 160/10 RMK AO2
14926KSTC STC20060630133509406/30/06 13:35:31  5-MIN KSTC 301935Z 18008KT 10SM CLR 32/19 A2990 1050 46 3200 170/08 RMK AO2
14926KSTC STC20060630134009406/30/06 13:40:31  5-MIN KSTC 301940Z 15011KT 10SM CLR 32/19 A2989 1050 46 3300 150/11 RMK AO2
14926KSTC STC20060630134509706/30/06 13:45:31  5-MIN KSTC 301945Z 17012KT 10SM FEW047 32/19 A2989 1050 46 3200 160/12 RMK AO2
14926KSTC STC20060630135011406/30/06 13:50:31  5-MIN KSTC 301950Z 18012KT 10SM FEW047 32/18 A2989 1050 44 3200 170/12 RMK AO2 SLP123 T03170183
14926KSTC STC20060630135509406/30/06 13:55:31  5-MIN KSTC 301955Z 18011KT 10SM CLR 32/19 A2989 1050 46 3200 170/11 RMK AO2
14926KSTC STC20060630140009406/30/06 14:00:31  5-MIN KSTC 302000Z 18009KT 10SM CLR 32/19 A2989 1050 46 3200 170/09 RMK AO2
14926KSTC STC20060630140509406/30/06 14:05:31  5-MIN KSTC 302005Z 18013KT 10SM CLR 32/19 A2989 1060 46 3200 170/13 RMK AO2
14926KSTC STC20060630141009406/30/06 14:10:31  5-MIN KSTC 302010Z 16010KT 10SM CLR 32/19 A2989 1060 46 3200 160/10 RMK AO2
14926KSTC STC20060630141509406/30/06 14:15:31  5-MIN KSTC 302015Z 16008KT 10SM CLR 31/19 A2989 1060 47 3200 160/08 RMK AO2
14926KSTC STC20060630142009406/30/06 14:20:31  5-MIN KSTC 302020Z 18012KT 10SM CLR 32/19 A2989 1060 46 3200 180/12 RMK AO2
14926KSTC STC20060630142509406/30/06 14:25:31  5-MIN KSTC 302025Z 18010KT 10SM CLR 32/19 A2989 1060 46 3200 170/10 RMK AO2
14926KSTC STC20060630143010006/30/06 14:30:31  5-MIN KSTC 302030Z 17011G15KT 10SM CLR 32/19 A2989 1060 44 3300 160/11G15 RMK AO2
14926KSTC STC20060630143510006/30/06 14:35:31  5-MIN KSTC 302035Z 17011G15KT 10SM CLR 32/19 A2989 1060 46 3200 170/11G15 RMK AO2
14926KSTC STC20060630144009406/30/06 14:40:31  5-MIN KSTC 302040Z 17009KT 10SM CLR 32/19 A2989 1060 46 3200 160/09 RMK AO2
14926KSTC STC20060630144510006/30/06 14:45:31  5-MIN KSTC 302045Z 15008G14KT 10SM CLR 32/19 A2989 1060 46 3200 150/08G14 RMK AO2
14926KSTC STC20060630145011706/30/06 14:50:31  5-MIN KSTC 302050Z 16010KT 10SM CLR 32/19 A2989 1060 46 3300 160/10 RMK AO2 SLP122 T03220194 56011
14926KSTC STC20060630145509406/30/06 14:55:31  5-MIN KSTC 302055Z 18010KT 10SM CLR 32/19 A2989 1060 46 3200 170/10 RMK AO2
14926KSTC STC20060630150009406/30/06 15:00:31  5-MIN KSTC 302100Z 17011KT 10SM CLR 32/19 A2988 1060 46 3200 160/11 RMK AO2
14926KSTC STC20060630150509406/30/06 15:05:31  5-MIN KSTC 302105Z 17008KT 10SM CLR 32/19 A2988 1060 46 3200 170/08 RMK AO2
14926KSTC STC20060630151009406/30/06 15:10:31  5-MIN KSTC 302110Z 17009KT 10SM CLR 32/19 A2988 1060 46 3200 170/09 RMK AO2
14926KSTC STC20060630151509406/30/06 15:15:31  5-MIN KSTC 302115Z 16010KT 10SM CLR 32/19 A2988 1060 46 3300 150/10 RMK AO2
14926KSTC STC20060630152009406/30/06 15:20:31  5-MIN KSTC 302120Z 16013KT 10SM CLR 32/19 A2988 1070 46 3200 160/13 RMK AO2
14926KSTC STC20060630152509406/30/06 15:25:31  5-MIN KSTC 302125Z 17011KT 10SM CLR 32/19 A2988 1070 47 3200 160/11 RMK AO2
14926KSTC STC20060630153009406/30/06 15:30:31  5-MIN KSTC 302130Z 16013KT 10SM CLR 32/19 A2988 1070 46 3300 160/13 RMK AO2
14926KSTC STC20060630153509406/30/06 15:35:31  5-MIN KSTC 302135Z 17011KT 10SM CLR 32/19 A2988 1070 44 3300 160/11 RMK AO2
14926KSTC STC20060630154009406/30/06 15:40:31  5-MIN KSTC 302140Z 18012KT 10SM CLR 32/19 A2988 1070 46 3200 170/12 RMK AO2
14926KSTC STC20060630154509406/30/06 15:45:31  5-MIN KSTC 302145Z 17014KT 10SM CLR 32/19 A2988 1070 46 3200 170/14 RMK AO2
14926KSTC STC20060630155011106/30/06 15:50:31  5-MIN KSTC 302150Z 18011KT 10SM CLR 31/18 A2988 1070 46 3200 170/11 RMK AO2 SLP119 T03110183
14926KSTC STC20060630155509406/30/06 15:55:31  5-MIN KSTC 302155Z 17010KT 10SM CLR 32/19 A2988 1060 46 3200 170/10 RMK AO2
14926KSTC STC20060630160009406/30/06 16:00:31  5-MIN KSTC 302200Z 17009KT 10SM CLR 31/19 A2988 1060 49 3200 170/09 RMK AO2
14926KSTC STC20060630160509406/30/06 16:05:31  5-MIN KSTC 302205Z 16013KT 10SM CLR 31/18 A2988 1070 46 3200 160/13 RMK AO2
14926KSTC STC20060630161009406/30/06 16:10:31  5-MIN KSTC 302210Z 16009KT 10SM CLR 31/18 A2988 1070 47 3100 160/09 RMK AO2
