14926KSTC STC20060309140509403/09/06 14:05:31  5-MIN KSTC 092005Z VRB04KT 10SM CLR 06/M01 A2939 1520 62 900 VRB/04 RMK AO2
14926KSTC STC20060309141009403/09/06 14:10:31  5-MIN KSTC 092010Z 33004KT 10SM CLR 06/M01 A2938 1530 60 900 330/04 RMK AO2
14926KSTC STC20060309141509403/09/06 14:15:31  5-MIN KSTC 092015Z 35004KT 10SM CLR 06/M01 A2938 1530 62 800 350/04 RMK AO2
14926KSTC STC20060309142009403/09/06 14:20:31  5-MIN KSTC 092020Z 34005KT 10SM CLR 06/M01 A2938 1530 60 900 340/05 RMK AO2
14926KSTC STC20060309142509403/09/06 14:25:31  5-MIN KSTC 092025Z VRB04KT 10SM CLR 06/M01 A2938 1530 62 800 VRB/04 RMK AO2
14926KSTC STC20060309143009403/09/06 14:30:31  5-MIN KSTC 092030Z 01005KT 10SM CLR 06/M01 A2938 1530 60 900 010/05 RMK AO2
14926KSTC STC20060309143509403/09/06 14:35:31  5-MIN KSTC 092035Z 01005KT 10SM CLR 06/M02 A2938 1530 57 900 010/05 RMK AO2
14926KSTC STC20060309144009403/09/06 14:40:31  5-MIN KSTC 092040Z 34004KT 10SM CLR 06/M01 A2938 1530 60 900 340/04 RMK AO2
14926KSTC STC20060309144509403/09/06 14:45:31  5-MIN KSTC 092045Z 30006KT 10SM CLR 06/M02 A2938 1530 59 800 300/06 RMK AO2
14926KSTC STC20060309145011703/09/06 14:50:31  5-MIN KSTC 092050Z 33005KT 10SM CLR 06/M01 A2938 1530 62 800 320/05 RMK AO2 SLP966 T00561011 56018
14926KSTC STC20060309145509403/09/06 14:55:31  5-MIN KSTC 092055Z 35005KT 10SM CLR 06/M01 A2938 1530 60 900 350/05 RMK AO2
14926KSTC STC20060309150009403/09/06 15:00:31  5-MIN KSTC 092100Z 31005KT 10SM CLR 06/M01 A2938 1530 60 900 310/05 RMK AO2
14926KSTC STC20060309150509403/09/06 15:05:31  5-MIN KSTC 092105Z 34006KT 10SM CLR 06/M02 A2938 1530 57 900 330/06 RMK AO2
14926KSTC STC20060309151009403/09/06 15:10:31  5-MIN KSTC 092110Z 02004KT 10SM CLR 06/M02 A2938 1530 57 900 010/04 RMK AO2
14926KSTC STC20060309151509403/09/06 15:15:31  5-MIN KSTC 092115Z VRB04KT 10SM CLR 07/M02 A2938 1530 55 900 VRB/04 RMK AO2
14926KSTC STC20060309152009403/09/06 15:20:31  5-MIN KSTC 092120Z 35004KT 10SM CLR 07/M02 A2938 1530 55 900 350/04 RMK AO2
14926KSTC STC20060309152509403/09/06 15:25:31  5-MIN KSTC 092125Z 32006KT 10SM CLR 06/M02 A2938 1530 57 900 320/06 RMK AO2
14926KSTC STC20060309153009403/09/06 15:30:31  5-MIN KSTC 092130Z 32006KT 10SM CLR 06/M02 A2938 1530 55 900 320/06 RMK AO2
14926KSTC STC20060309153509403/09/06 15:35:31  5-MIN KSTC 092135Z 34005KT 10SM CLR 06/M02 A2938 1530 55 900 330/05 RMK AO2
14926KSTC STC20060309154009403/09/06 15:40:31  5-MIN KSTC 092140Z 31005KT 10SM CLR 06/M02 A2938 1530 55 900 310/05 RMK AO2
14926KSTC STC20060309154509903/09/06 15:45:31  5-MIN KSTC 092145Z AUTO 31006KT 10SM CLR 06/M02 A2938 1530 57 900 300/06 RMK AO2
14926KSTC STC20060309155011603/09/06 15:50:31  5-MIN KSTC 092150Z AUTO 00000KT 10SM CLR 06/M02 A2938 1530 59 800 000/00 RMK AO2 SLP965 T00561017
14926KSTC STC20060309155509903/09/06 15:55:31  5-MIN KSTC 092155Z AUTO VRB04KT 10SM CLR 07/M02 A2938 1530 55 900 VRB/04 RMK AO2
14926KSTC STC20060309160009903/09/06 16:00:31  5-MIN KSTC 092200Z AUTO 33005KT 10SM CLR 06/M02 A2938 1530 57 900 330/05 RMK AO2
14926KSTC STC20060309160509903/09/06 16:05:31  5-MIN KSTC 092205Z AUTO 33005KT 10SM CLR 06/M02 A2938 1530 57 900 330/05 RMK AO2
14926KSTC STC20060309161009903/09/06 16:10:31  5-MIN KSTC 092210Z AUTO 33004KT 10SM CLR 06/M02 A2938 1530 55 900 330/04 RMK AO2
14926KSTC STC20060309161509903/09/06 16:15:31  5-MIN KSTC 092215Z AUTO 32005KT 10SM CLR 06/M02 A2938 1530 57 900 310/05 RMK AO2
14926KSTC STC20060309162009903/09/06 16:20:31  5-MIN KSTC 092220Z AUTO 35005KT 10SM CLR 06/M02 A2938 1530 57 900 350/05 RMK AO2
14926KSTC STC20060309162509903/09/06 16:25:31  5-MIN KSTC 092225Z AUTO 36004KT 10SM CLR 07/M02 A2938 1530 55 900 360/04 RMK AO2
14926KSTC STC20060309163009903/09/06 16:30:31  5-MIN KSTC 092230Z AUTO 01004KT 10SM CLR 07/M02 A2938 1530 55 900 360/04 RMK AO2
14926KSTC STC20060309163509903/09/06 16:35:31  5-MIN KSTC 092235Z AUTO VRB03KT 10SM CLR 07/M02 A2938 1530 55 900 VRB/03 RMK AO2
14926KSTC STC20060309164009903/09/06 16:40:31  5-MIN KSTC 092240Z AUTO 05003KT 10SM CLR 06/M02 A2938 1530 57 900 050/03 RMK AO2
14926KSTC STC20060309164509903/09/06 16:45:31  5-MIN KSTC 092245Z AUTO 03004KT 10SM CLR 07/M02 A2938 1530 55 900 030/04 RMK AO2
14926KSTC STC20060309165011603/09/06 16:50:31  5-MIN KSTC 092250Z AUTO 02004KT 10SM CLR 06/M02 A2938 1530 55 900 020/04 RMK AO2 SLP965 T00611022
14926KSTC STC20060309165509903/09/06 16:55:31  5-MIN KSTC 092255Z AUTO 35004KT 10SM CLR 06/M02 A2938 1530 57 900 350/04 RMK AO2
14926KSTC STC20060309170009903/09/06 17:00:31  5-MIN KSTC 092300Z AUTO 02004KT 10SM CLR 06/M02 A2938 1530 57 900 020/04 RMK AO2
14926KSTC STC20060309170509903/09/06 17:05:31  5-MIN KSTC 092305Z AUTO 03004KT 10SM CLR 06/M02 A2938 1530 57 900 030/04 RMK AO2
14926KSTC STC20060309171009903/09/06 17:10:31  5-MIN KSTC 092310Z AUTO 00000KT 10SM CLR 06/M02 A2938 1530 57 900 000/00 RMK AO2
14926KSTC STC20060309171509903/09/06 17:15:31  5-MIN KSTC 092315Z AUTO 03004KT 10SM CLR 06/M02 A2938 1530 57 900 030/04 RMK AO2
14926KSTC STC20060309172009903/09/06 17:20:31  5-MIN KSTC 092320Z AUTO 05004KT 10SM CLR 06/M02 A2938 1530 59 800 050/04 RMK AO2
14926KSTC STC20060309172509903/09/06 17:25:31  5-MIN KSTC 092325Z AUTO 04004KT 10SM CLR 06/M02 A2938 1530 59 800 030/04 RMK AO2
14926KSTC STC20060309173009903/09/06 17:30:31  5-MIN KSTC 092330Z AUTO 06004KT 10SM CLR 06/M02 A2938 1530 59 800 050/04 RMK AO2
14926KSTC STC20060309173509903/09/06 17:35:31  5-MIN KSTC 092335Z AUTO 07003KT 10SM CLR 05/M02 A2938 1530 62 700 070/03 RMK AO2
14926KSTC STC20060309174009903/09/06 17:40:31  5-MIN KSTC 092340Z AUTO 08004KT 10SM CLR 05/M02 A2938 1530 62 700 070/04 RMK AO2
14926KSTC STC20060309174509903/09/06 17:45:31  5-MIN KSTC 092345Z AUTO 05003KT 10SM CLR 05/M02 A2938 1530 59 700 050/03 RMK AO2
14926KSTC STC20060309175013403/09/06 17:50:31  5-MIN KSTC 092350Z AUTO 06005KT 10SM CLR 05/M02 A2938 1530 59 700 050/05 RMK AO2 SLP968 T00501022 10067 20039 56015
14926KSTC STC20060309175509903/09/06 17:55:31  5-MIN KSTC 092355Z AUTO 06004KT 10SM CLR 04/M02 A2938 1530 62 700 060/04 RMK AO2
14926KSTC STC20060309180009903/09/06 18:00:31  5-MIN KSTC 100000Z AUTO 05004KT 10SM CLR 04/M02 A2938 1530 62 700 050/04 RMK AO2
14926KSTC STC20060309180509903/09/06 18:05:31  5-MIN KSTC 100005Z AUTO 05004KT 10SM CLR 04/M02 A2938 1530 64 600 050/04 RMK AO2
14926KSTC STC20060309181009903/09/06 18:10:31  5-MIN KSTC 100010Z AUTO 00000KT 10SM CLR 04/M02 A2939 1520 64 600 000/00 RMK AO2
14926KSTC STC20060309181509903/09/06 18:15:31  5-MIN KSTC 100015Z AUTO 00000KT 10SM CLR 04/M02 A2939 1520 64 600 000/00 RMK AO2
14926KSTC STC20060309182009903/09/06 18:20:31  5-MIN KSTC 100020Z AUTO 08003KT 10SM CLR 04/M02 A2939 1520 64 600 080/03 RMK AO2
14926KSTC STC20060309182509903/09/06 18:25:31  5-MIN KSTC 100025Z AUTO 07003KT 10SM CLR 03/M02 A2939 1520 69 400 070/03 RMK AO2
14926KSTC STC20060309183009903/09/06 18:30:31  5-MIN KSTC 100030Z AUTO 06003KT 10SM CLR 03/M03 A2940 1510 67 400 060/03 RMK AO2
14926KSTC STC20060309183509903/09/06 18:35:31  5-MIN KSTC 100035Z AUTO 07003KT 10SM CLR 03/M03 A2940 1510 67 400 060/03 RMK AO2
14926KSTC STC20060309184009903/09/06 18:40:31  5-MIN KSTC 100040Z AUTO 08003KT 10SM CLR 03/M03 A2940 1510 67 400 080/03 RMK AO2
14926KSTC STC20060309184509903/09/06 18:45:31  5-MIN KSTC 100045Z AUTO 09004KT 10SM CLR 02/M03 A2940 1510 69 400 090/04 RMK AO2
14926KSTC STC20060309185011603/09/06 18:50:31  5-MIN KSTC 100050Z AUTO 00000KT 10SM CLR 02/M03 A2941 1510 69 400 000/00 RMK AO2 SLP976 T00221028
14926KSTC STC20060309185509903/09/06 18:55:31  5-MIN KSTC 100055Z AUTO 00000KT 10SM CLR 02/M03 A2941 1500 69 400 000/00 RMK AO2
14926KSTC STC20060309190009903/09/06 19:00:31  5-MIN KSTC 100100Z AUTO 00000KT 10SM CLR 02/M03 A2941 1500 72 300 000/00 RMK AO2
14926KSTC STC20060309190509903/09/06 19:05:31  5-MIN KSTC 100105Z AUTO 00000KT 10SM CLR 01/M03 A2941 1500 75 200 000/00 RMK AO2
14926KSTC STC20060309191009903/09/06 19:10:31  5-MIN KSTC 100110Z AUTO 00000KT 10SM CLR 00/M03 A2941 1500 81 100 000/00 RMK AO2
14926KSTC STC20060309191509903/09/06 19:15:31  5-MIN KSTC 100115Z AUTO 00000KT 10SM CLR 01/M03 A2941 1500 78 100 000/00 RMK AO2
14926KSTC STC20060309192009903/09/06 19:20:31  5-MIN KSTC 100120Z AUTO 00000KT 10SM CLR 01/M03 A2941 1500 78 100 000/00 RMK AO2
14926KSTC STC20060309192509903/09/06 19:25:31  5-MIN KSTC 100125Z AUTO 00000KT 10SM CLR 00/M03 A2941 1500 78 100 000/00 RMK AO2
14926KSTC STC20060309193009903/09/06 19:30:31  5-MIN KSTC 100130Z AUTO 00000KT 10SM CLR 01/M03 A2941 1500 78 100 000/00 RMK AO2
14926KSTC STC20060309193509903/09/06 19:35:31  5-MIN KSTC 100135Z AUTO 00000KT 10SM CLR 01/M03 A2942 1500 78 100 000/00 RMK AO2
14926KSTC STC20060309194009903/09/06 19:40:31  5-MIN KSTC 100140Z AUTO 00000KT 10SM CLR 01/M03 A2941 1500 78 100 000/00 RMK AO2
14926KSTC STC20060309194509903/09/06 19:45:31  5-MIN KSTC 100145Z AUTO 00000KT 10SM CLR 00/M03 A2941 1500 81 100 000/00 RMK AO2
14926KSTC STC20060309195011503/09/06 19:50:31  5-MIN KSTC 100150Z AUTO 06006KT 10SM CLR M01/M03 A2941 1500 81 0 050/06 RMK AO2 SLP980 T10061033
14926KSTC STC20060309195509903/09/06 19:55:31  5-MIN KSTC 100155Z AUTO 06005KT 10SM CLR 00/M03 A2942 1500 78 100 060/05 RMK AO2
14926KSTC STC20060309200009903/09/06 20:00:31  5-MIN KSTC 100200Z AUTO 06004KT 10SM CLR 01/M03 A2942 1500 75 100 050/04 RMK AO2
14926KSTC STC20060309200509903/09/06 20:05:31  5-MIN KSTC 100205Z AUTO 05004KT 10SM CLR 01/M03 A2942 1490 75 100 050/04 RMK AO2
14926KSTC STC20060309201009903/09/06 20:10:31  5-MIN KSTC 100210Z AUTO 05004KT 10SM CLR 00/M03 A2942 1490 78 100 040/04 RMK AO2
14926KSTC STC20060309201509903/09/06 20:15:31  5-MIN KSTC 100215Z AUTO 04004KT 10SM CLR 00/M03 A2942 1490 78 100 040/04 RMK AO2
14926KSTC STC20060309202009903/09/06 20:20:31  5-MIN KSTC 100220Z AUTO 03004KT 10SM CLR 01/M03 A2942 1490 75 100 030/04 RMK AO2
14926KSTC STC20060309202509903/09/06 20:25:31  5-MIN KSTC 100225Z AUTO 04004KT 10SM CLR 00/M03 A2942 1490 78 100 030/04 RMK AO2
14926KSTC STC20060309203009903/09/06 20:30:31  5-MIN KSTC 100230Z AUTO 05004KT 10SM CLR 00/M03 A2942 1490 78 100 040/04 RMK AO2
14926KSTC STC20060309203509903/09/06 20:35:31  5-MIN KSTC 100235Z AUTO 05004KT 10SM CLR 00/M03 A2942 1490 78 100 050/04 RMK AO2
14926KSTC STC20060309204009903/09/06 20:40:31  5-MIN KSTC 100240Z AUTO 05003KT 10SM CLR 00/M03 A2943 1490 78 100 050/03 RMK AO2
14926KSTC STC20060309204509903/09/06 20:45:31  5-MIN KSTC 100245Z AUTO 00000KT 10SM CLR 00/M03 A2943 1480 78 100 000/00 RMK AO2
14926KSTC STC20060309205012203/09/06 20:50:31  5-MIN KSTC 100250Z AUTO 00000KT 10SM CLR 00/M03 A2943 1480 78 100 000/00 RMK AO2 SLP985 T00001033 53002
14926KSTC STC20060309205509903/09/06 20:55:31  5-MIN KSTC 100255Z AUTO 00000KT 10SM CLR 01/M03 A2943 1480 75 100 000/00 RMK AO2
14926KSTC STC20060309210009803/09/06 21:00:31  5-MIN KSTC 100300Z AUTO 00000KT 10SM CLR M01/M03 A2943 1480 81 0 000/00 RMK AO2
14926KSTC STC20060309210509803/09/06 21:05:31  5-MIN KSTC 100305Z AUTO 00000KT 10SM CLR M01/M04 A2943 1480 81 0 000/00 RMK AO2
14926KSTC STC20060309211009803/09/06 21:10:31  5-MIN KSTC 100310Z AUTO 00000KT 10SM CLR M01/M04 A2943 1480 81 0 000/00 RMK AO2
14926KSTC STC20060309211509803/09/06 21:15:31  5-MIN KSTC 100315Z AUTO 06003KT 10SM CLR M01/M04 A2943 1480 81 0 050/03 RMK AO2
14926KSTC STC20060309212010103/09/06 21:20:31  5-MIN KSTC 100320Z AUTO 00000KT 10SM CLR M02/M04 A2944 1480 85 -100 000/00 RMK AO2
14926KSTC STC20060309212510103/09/06 21:25:31  5-MIN KSTC 100325Z AUTO 00000KT 10SM CLR M02/M04 A2944 1480 85 -100 000/00 RMK AO2
14926KSTC STC20060309213009803/09/06 21:30:31  5-MIN KSTC 100330Z AUTO 00000KT 10SM CLR M01/M03 A2944 1480 85 0 000/00 RMK AO2
14926KSTC STC20060309213509803/09/06 21:35:31  5-MIN KSTC 100335Z AUTO 03003KT 10SM CLR M01/M03 A2944 1480 85 0 030/03 RMK AO2
14926KSTC STC20060309214010103/09/06 21:40:31  5-MIN KSTC 100340Z AUTO 00000KT 10SM CLR M02/M04 A2944 1470 88 -200 000/00 RMK AO2
14926KSTC STC20060309214510103/09/06 21:45:31  5-MIN KSTC 100345Z AUTO 00000KT 10SM CLR M02/M04 A2944 1470 88 -200 000/00 RMK AO2
14926KSTC STC20060309215011803/09/06 21:50:31  5-MIN KSTC 100350Z AUTO 00000KT 10SM CLR M02/M04 A2944 1470 85 -100 000/00 RMK AO2 SLP989 T10171039
14926KSTC STC20060309215510103/09/06 21:55:31  5-MIN KSTC 100355Z AUTO 00000KT 10SM CLR M02/M04 A2944 1470 85 -100 000/00 RMK AO2
14926KSTC STC20060309220010103/09/06 22:00:31  5-MIN KSTC 100400Z AUTO 00000KT 10SM CLR M01/M04 A2945 1470 81 -100 000/00 RMK AO2
14926KSTC STC20060309220510103/09/06 22:05:31  5-MIN KSTC 100405Z AUTO 00000KT 10SM CLR M01/M04 A2945 1470 81 -100 000/00 RMK AO2
14926KSTC STC20060309221010103/09/06 22:10:31  5-MIN KSTC 100410Z AUTO 00000KT 10SM CLR M02/M04 A2945 1470 85 -100 000/00 RMK AO2
14926KSTC STC20060309221510103/09/06 22:15:31  5-MIN KSTC 100415Z AUTO 00000KT 10SM CLR M03/M04 A2945 1470 88 -300 000/00 RMK AO2
14926KSTC STC20060309222010103/09/06 22:20:31  5-MIN KSTC 100420Z AUTO 00000KT 10SM CLR M03/M04 A2944 1470 88 -300 000/00 RMK AO2
14926KSTC STC20060309222510103/09/06 22:25:31  5-MIN KSTC 100425Z AUTO 00000KT 10SM CLR M02/M04 A2945 1470 85 -200 000/00 RMK AO2
14926KSTC STC20060309223010103/09/06 22:30:31  5-MIN KSTC 100430Z AUTO 00000KT 10SM CLR M02/M04 A2945 1470 85 -200 000/00 RMK AO2
14926KSTC STC20060309223510103/09/06 22:35:31  5-MIN KSTC 100435Z AUTO 00000KT 10SM CLR M03/M04 A2945 1470 88 -300 000/00 RMK AO2
14926KSTC STC20060309224010103/09/06 22:40:31  5-MIN KSTC 100440Z AUTO 00000KT 10SM CLR M02/M04 A2945 1460 88 -200 000/00 RMK AO2
14926KSTC STC20060309224510103/09/06 22:45:31  5-MIN KSTC 100445Z AUTO 00000KT 10SM CLR M03/M04 A2945 1460 88 -300 000/00 RMK AO2
14926KSTC STC20060309225011803/09/06 22:50:31  5-MIN KSTC 100450Z AUTO 00000KT 10SM CLR M03/M04 A2945 1460 88 -300 000/00 RMK AO2 SLP991 T10281044
14926KSTC STC20060309225510003/09/06 22:55:31  5-MIN KSTC 100455Z AUTO 00000KT 9SM CLR M03/M05 A2946 1460 85 -300 000/00 RMK AO2
14926KSTC STC20060309230010003/09/06 23:00:31  5-MIN KSTC 100500Z AUTO 00000KT 8SM CLR M03/M04 A2946 1460 88 -300 000/00 RMK AO2
14926KSTC STC20060309230510003/09/06 23:05:31  5-MIN KSTC 100505Z AUTO 00000KT 9SM CLR M02/M04 A2946 1460 85 -200 000/00 RMK AO2
14926KSTC STC20060309231010103/09/06 23:10:31  5-MIN KSTC 100510Z AUTO 00000KT 10SM CLR M02/M04 A2946 1460 85 -200 000/00 RMK AO2
14926KSTC STC20060309231510103/09/06 23:15:31  5-MIN KSTC 100515Z AUTO 00000KT 10SM CLR M02/M04 A2946 1460 85 -200 000/00 RMK AO2
14926KSTC STC20060309232010103/09/06 23:20:31  5-MIN KSTC 100520Z AUTO 00000KT 10SM CLR M03/M04 A2946 1460 88 -300 000/00 RMK AO2
14926KSTC STC20060309232510003/09/06 23:25:31  5-MIN KSTC 100525Z AUTO 00000KT 9SM CLR M03/M04 A2946 1460 88 -300 000/00 RMK AO2
14926KSTC STC20060309233010003/09/06 23:30:31  5-MIN KSTC 100530Z AUTO 00000KT 9SM CLR M03/M04 A2946 1460 88 -300 000/00 RMK AO2
14926KSTC STC20060309233510003/09/06 23:35:31  5-MIN KSTC 100535Z AUTO 00000KT 9SM CLR M03/M04 A2946 1460 88 -300 000/00 RMK AO2
14926KSTC STC20060309234010003/09/06 23:40:31  5-MIN KSTC 100540Z AUTO 00000KT 9SM CLR M03/M04 A2946 1460 88 -300 000/00 RMK AO2
14926KSTC STC20060309234510103/09/06 23:45:31  5-MIN KSTC 100545Z AUTO 00000KT 10SM CLR M02/M04 A2946 1460 85 -200 000/00 RMK AO2
14926KSTC STC20060309235014603/09/06 23:50:31  5-MIN KSTC 100550Z AUTO 00000KT 10SM CLR M02/M04 A2945 1460 85 -200 000/00 RMK AO2 SLP992 T10221044 10044 21028 400671028 51016
14926KSTC STC20060309235510103/09/06 23:55:31  5-MIN KSTC 100555Z AUTO 00000KT 10SM CLR M03/M04 A2946 1460 88 -300 000/00 RMK AO2
14926KSTC STC20060310000010003/10/06 00:00:32  5-MIN KSTC 100600Z AUTO 00000KT 9SM CLR M03/M04 A2946 1460 88 -300 000/00 RMK AO2
14926KSTC STC20060310000510003/10/06 00:05:31  5-MIN KSTC 100605Z AUTO 00000KT 8SM CLR M03/M04 A2946 1460 92 -300 000/00 RMK AO2
14926KSTC STC20060310001010003/10/06 00:10:31  5-MIN KSTC 100610Z AUTO 00000KT 7SM CLR M03/M04 A2946 1460 92 -300 000/00 RMK AO2
14926KSTC STC20060310001510003/10/06 00:15:31  5-MIN KSTC 100615Z AUTO 00000KT 8SM CLR M03/M04 A2946 1460 88 -300 000/00 RMK AO2
14926KSTC STC20060310002010003/10/06 00:20:31  5-MIN KSTC 100620Z AUTO 00000KT 9SM CLR M03/M05 A2945 1460 88 -300 000/00 RMK AO2
14926KSTC STC20060310002510003/10/06 00:25:31  5-MIN KSTC 100625Z AUTO 00000KT 9SM CLR M03/M04 A2946 1460 88 -300 000/00 RMK AO2
14926KSTC STC20060310003010003/10/06 00:30:31  5-MIN KSTC 100630Z AUTO 00000KT 8SM CLR M03/M05 A2946 1450 88 -400 000/00 RMK AO2
14926KSTC STC20060310003510003/10/06 00:35:31  5-MIN KSTC 100635Z AUTO 26004KT 8SM CLR M03/M05 A2946 1450 88 -400 260/04 RMK AO2
14926KSTC STC20060310004010003/10/06 00:40:31  5-MIN KSTC 100640Z AUTO 00000KT 7SM CLR M03/M05 A2946 1450 88 -400 000/00 RMK AO2
14926KSTC STC20060310004510003/10/06 00:45:31  5-MIN KSTC 100645Z AUTO 00000KT 7SM CLR M04/M05 A2946 1450 92 -400 000/00 RMK AO2
14926KSTC STC20060310005011703/10/06 00:50:31  5-MIN KSTC 100650Z AUTO 00000KT 7SM CLR M04/M05 A2946 1450 92 -400 000/00 RMK AO2 SLP996 T10391050
14926KSTC STC20060310005510003/10/06 00:55:31  5-MIN KSTC 100655Z AUTO 00000KT 8SM CLR M04/M05 A2947 1450 92 -400 000/00 RMK AO2
14926KSTC STC20060310010010003/10/06 01:00:31  5-MIN KSTC 100700Z AUTO 00000KT 8SM CLR M03/M05 A2947 1440 88 -400 000/00 RMK AO2
14926KSTC STC20060310010510003/10/06 01:05:31  5-MIN KSTC 100705Z AUTO 00000KT 8SM CLR M03/M04 A2947 1440 92 -400 000/00 RMK AO2
14926KSTC STC20060310011010003/10/06 01:10:31  5-MIN KSTC 100710Z AUTO 00000KT 7SM CLR M03/M05 A2947 1440 88 -400 000/00 RMK AO2
14926KSTC STC20060310011510003/10/06 01:15:31  5-MIN KSTC 100715Z AUTO 00000KT 7SM CLR M03/M05 A2947 1440 88 -400 000/00 RMK AO2
14926KSTC STC20060310012010003/10/06 01:20:31  5-MIN KSTC 100720Z AUTO 00000KT 7SM CLR M04/M05 A2948 1440 92 -400 000/00 RMK AO2
14926KSTC STC20060310012510003/10/06 01:25:31  5-MIN KSTC 100725Z AUTO 00000KT 7SM CLR M04/M05 A2948 1440 92 -400 000/00 RMK AO2
14926KSTC STC20060310013010003/10/06 01:30:31  5-MIN KSTC 100730Z AUTO 00000KT 7SM CLR M03/M05 A2948 1440 88 -400 000/00 RMK AO2
14926KSTC STC20060310013510003/10/06 01:35:31  5-MIN KSTC 100735Z AUTO 00000KT 7SM CLR M04/M05 A2948 1440 92 -400 000/00 RMK AO2
14926KSTC STC20060310014010003/10/06 01:40:31  5-MIN KSTC 100740Z AUTO 00000KT 7SM CLR M04/M05 A2948 1440 92 -400 000/00 RMK AO2
14926KSTC STC20060310014510003/10/06 01:45:31  5-MIN KSTC 100745Z AUTO 00000KT 7SM CLR M04/M06 A2948 1440 92 -500 000/00 RMK AO2
14926KSTC STC20060310015011703/10/06 01:50:31  5-MIN KSTC 100750Z AUTO 00000KT 7SM CLR M04/M06 A2948 1440 88 -400 000/00 RMK AO2 SLP001 T10391056
14926KSTC STC20060310015510003/10/06 01:55:31  5-MIN KSTC 100755Z AUTO 00000KT 7SM CLR M04/M06 A2948 1440 92 -500 000/00 RMK AO2
14926KSTC STC20060310020010003/10/06 02:00:31  5-MIN KSTC 100800Z AUTO 00000KT 7SM CLR M04/M06 A2948 1430 88 -400 000/00 RMK AO2
14926KSTC STC20060310032510003/10/06 03:25:31  5-MIN KSTC 100925Z AUTO 00000KT 7SM CLR M04/M06 A2949 1430 92 -500 000/00 RMK AO2
14926KSTC STC20060310033010003/10/06 03:30:31  5-MIN KSTC 100930Z AUTO 00000KT 7SM CLR M04/M06 A2949 1430 92 -500 000/00 RMK AO2
14926KSTC STC20060310033510003/10/06 03:35:31  5-MIN KSTC 100935Z AUTO 00000KT 7SM CLR M04/M06 A2949 1430 92 -500 000/00 RMK AO2
14926KSTC STC20060310034010003/10/06 03:40:31  5-MIN KSTC 100940Z AUTO 00000KT 7SM CLR M04/M06 A2949 1420 88 -500 000/00 RMK AO2
14926KSTC STC20060310034510303/10/06 03:45:31  5-MIN KSTC 100945Z AUTO 00000KT 6SM BR CLR M04/M05 A2949 1420 92 -500 000/00 RMK AO2
14926KSTC STC20060310035012003/10/06 03:50:31  5-MIN KSTC 100950Z AUTO 00000KT 6SM BR CLR M04/M05 A2949 1420 92 -500 000/00 RMK AO2 SLP006 T10391050
14926KSTC STC20060310035510303/10/06 03:55:31  5-MIN KSTC 100955Z AUTO 00000KT 6SM BR CLR M04/M05 A2950 1420 92 -500 000/00 RMK AO2
14926KSTC STC20060310040010303/10/06 04:00:31  5-MIN KSTC 101000Z AUTO 00000KT 6SM BR CLR M04/M06 A2949 1420 92 -500 000/00 RMK AO2
14926KSTC STC20060310040510303/10/06 04:05:31  5-MIN KSTC 101005Z AUTO 00000KT 6SM BR CLR M04/M06 A2950 1420 92 -500 000/00 RMK AO2
14926KSTC STC20060310041010303/10/06 04:10:31  5-MIN KSTC 101010Z AUTO 00000KT 6SM BR CLR M04/M06 A2950 1420 92 -500 000/00 RMK AO2
14926KSTC STC20060310041510303/10/06 04:15:31  5-MIN KSTC 101015Z AUTO 00000KT 6SM BR CLR M04/M06 A2950 1420 92 -500 000/00 RMK AO2
14926KSTC STC20060310042010303/10/06 04:20:31  5-MIN KSTC 101020Z AUTO 00000KT 6SM BR CLR M04/M06 A2950 1410 92 -500 000/00 RMK AO2
14926KSTC STC20060310042510303/10/06 04:25:31  5-MIN KSTC 101025Z AUTO 00000KT 6SM BR CLR M04/M06 A2951 1410 92 -500 000/00 RMK AO2
14926KSTC STC20060310043010303/10/06 04:30:31  5-MIN KSTC 101030Z AUTO 00000KT 6SM BR CLR M04/M06 A2951 1410 92 -500 000/00 RMK AO2
14926KSTC STC20060310043510303/10/06 04:35:31  5-MIN KSTC 101035Z AUTO 00000KT 5SM BR CLR M04/M06 A2951 1410 92 -600 000/00 RMK AO2
14926KSTC STC20060310044010303/10/06 04:40:31  5-MIN KSTC 101040Z AUTO 00000KT 6SM BR CLR M04/M06 A2951 1400 92 -600 000/00 RMK AO2
14926KSTC STC20060310044510303/10/06 04:45:31  5-MIN KSTC 101045Z AUTO 00000KT 6SM BR CLR M04/M06 A2952 1400 92 -600 000/00 RMK AO2
14926KSTC STC20060310045012003/10/06 04:50:31  5-MIN KSTC 101050Z AUTO 00000KT 6SM BR CLR M04/M06 A2952 1400 92 -600 000/00 RMK AO2 SLP013 T10441056
14926KSTC STC20060310045510603/10/06 04:55:31  5-MIN KSTC 101055Z AUTO 00000KT 6SM BR FEW090 M04/M06 A2952 1400 88 -500 000/00 RMK AO2
14926KSTC STC20060310050010603/10/06 05:00:31  5-MIN KSTC 101100Z AUTO 00000KT 6SM BR SCT095 M04/M06 A2952 1390 92 -600 000/00 RMK AO2
14926KSTC STC20060310050510603/10/06 05:05:31  5-MIN KSTC 101105Z AUTO 00000KT 6SM BR BKN095 M04/M06 A2953 1390 92 -600 000/00 RMK AO2
14926KSTC STC20060310051010603/10/06 05:10:31  5-MIN KSTC 101110Z AUTO 00000KT 6SM BR BKN095 M04/M05 A2953 1390 92 -500 000/00 RMK AO2
14926KSTC STC20060310051510603/10/06 05:15:31  5-MIN KSTC 101115Z AUTO 12003KT 6SM BR BKN095 M04/M05 A2953 1390 92 -500 120/03 RMK AO2
14926KSTC STC20060310052010603/10/06 05:20:31  5-MIN KSTC 101120Z AUTO 00000KT 6SM BR OVC095 M04/M06 A2953 1390 92 -600 000/00 RMK AO2
14926KSTC STC20060310052510303/10/06 05:25:31  5-MIN KSTC 101125Z AUTO 00000KT 7SM OVC095 M04/M06 A2953 1390 88 -500 000/00 RMK AO2
14926KSTC STC20060310053010303/10/06 05:30:31  5-MIN KSTC 101130Z AUTO 00000KT 7SM OVC100 M04/M05 A2953 1390 92 -500 000/00 RMK AO2
14926KSTC STC20060310053510303/10/06 05:35:31  5-MIN KSTC 101135Z AUTO 11004KT 7SM OVC100 M03/M05 A2954 1380 88 -400 110/04 RMK AO2
14926KSTC STC20060310054010303/10/06 05:40:31  5-MIN KSTC 101140Z AUTO 12004KT 7SM OVC100 M02/M04 A2954 1380 85 -300 120/04 RMK AO2
14926KSTC STC20060310054510303/10/06 05:45:31  5-MIN KSTC 101145Z AUTO 12005KT 8SM OVC100 M02/M04 A2954 1380 88 -300 110/05 RMK AO2
14926KSTC STC20060310055013803/10/06 05:50:31  5-MIN KSTC 101150Z AUTO 11005KT 8SM OVC100 M02/M04 A2954 1380 88 -300 100/05 RMK AO2 SLP021 T10221039 11022 21050 51011
14926KSTC STC20060310055510303/10/06 05:55:31  5-MIN KSTC 101155Z AUTO 12006KT 8SM BKN095 M02/M04 A2954 1380 88 -300 110/06 RMK AO2
14926KSTC STC20060310060010303/10/06 06:00:31  5-MIN KSTC 101200Z AUTO 12007KT 8SM BKN090 M02/M04 A2954 1380 85 -200 110/07 RMK AO2
14926KSTC STC20060310060511003/10/06 06:05:31  5-MIN KSTC 101205Z AUTO 11006KT 8SM SCT080 BKN100 M02/M04 A2954 1380 85 -200 110/06 RMK AO2
14926KSTC STC20060310061011003/10/06 06:10:31  5-MIN KSTC 101210Z AUTO 10005KT 8SM SCT080 BKN100 M02/M04 A2954 1380 85 -200 100/05 RMK AO2
14926KSTC STC20060310061511003/10/06 06:15:31  5-MIN KSTC 101215Z AUTO 11006KT 8SM FEW080 SCT100 M02/M04 A2954 1380 85 -200 110/06 RMK AO2
14926KSTC STC20060310062010303/10/06 06:20:31  5-MIN KSTC 101220Z AUTO 12006KT 8SM FEW080 M02/M04 A2954 1380 85 -200 110/06 RMK AO2
14926KSTC STC20060310062510303/10/06 06:25:31  5-MIN KSTC 101225Z AUTO 11006KT 8SM FEW080 M02/M04 A2954 1380 85 -200 100/06 RMK AO2
14926KSTC STC20060310063009803/10/06 06:30:31  5-MIN KSTC 101230Z 11006KT 8SM SCT095 M02/M04 A2954 1380 85 -200 100/06 RMK AO2
14926KSTC STC20060310063509803/10/06 06:35:31  5-MIN KSTC 101235Z 11006KT 9SM BKN100 M02/M04 A2954 1380 85 -200 100/06 RMK AO2
14926KSTC STC20060310064009803/10/06 06:40:31  5-MIN KSTC 101240Z 11007KT 9SM BKN100 M02/M04 A2955 1370 85 -200 110/07 RMK AO2
14926KSTC STC20060310064509803/10/06 06:45:31  5-MIN KSTC 101245Z 12006KT 8SM BKN100 M01/M04 A2955 1370 81 -200 120/06 RMK AO2
14926KSTC STC20060310065011503/10/06 06:50:31  5-MIN KSTC 101250Z 12006KT 8SM BKN100 M01/M03 A2955 1370 85 -200 120/06 RMK AO2 SLP026 T10111033
14926KSTC STC20060310065509803/10/06 06:55:31  5-MIN KSTC 101255Z 13007KT 8SM BKN100 M01/M03 A2955 1370 85 -200 130/07 RMK AO2
14926KSTC STC20060310070009803/10/06 07:00:31  5-MIN KSTC 101300Z 13007KT 8SM SCT100 M01/M03 A2955 1370 85 -200 130/07 RMK AO2
14926KSTC STC20060310070509803/10/06 07:05:31  5-MIN KSTC 101305Z 13007KT 8SM SCT095 M01/M03 A2956 1370 85 -200 130/07 RMK AO2
14926KSTC STC20060310071009803/10/06 07:10:31  5-MIN KSTC 101310Z 12007KT 8SM FEW095 M01/M03 A2955 1370 85 -200 120/07 RMK AO2
14926KSTC STC20060310071509803/10/06 07:15:31  5-MIN KSTC 101315Z 12007KT 8SM FEW095 M01/M03 A2955 1370 85 -200 110/07 RMK AO2
14926KSTC STC20060310072009503/10/06 07:20:31  5-MIN KSTC 101320Z 12007KT 8SM CLR M01/M03 A2955 1370 85 -200 110/07 RMK AO2
14926KSTC STC20060310072509503/10/06 07:25:31  5-MIN KSTC 101325Z 12007KT 8SM CLR M01/M03 A2955 1370 81 -100 110/07 RMK AO2
14926KSTC STC20060310073009503/10/06 07:30:31  5-MIN KSTC 101330Z 13007KT 8SM CLR M01/M03 A2955 1370 81 -100 130/07 RMK AO2
14926KSTC STC20060310073509503/10/06 07:35:31  5-MIN KSTC 101335Z 12009KT 8SM CLR M01/M03 A2955 1370 81 -100 120/09 RMK AO2
14926KSTC STC20060310074009403/10/06 07:40:31  5-MIN KSTC 101340Z 12009KT 8SM SCT090 00/M03 A2955 1370 81 0 120/09 RMK AO2
14926KSTC STC20060310074509403/10/06 07:45:31  5-MIN KSTC 101345Z 12009KT 8SM SCT090 00/M03 A2955 1370 81 0 120/09 RMK AO2
14926KSTC STC20060310075011103/10/06 07:50:31  5-MIN KSTC 101350Z 12010KT 8SM SCT090 00/M03 A2955 1370 81 0 120/10 RMK AO2 SLP025 T00001028
14926KSTC STC20060310075509403/10/06 07:55:31  5-MIN KSTC 101355Z 13009KT 8SM FEW090 00/M03 A2955 1370 81 0 120/09 RMK AO2
14926KSTC STC20060310080009403/10/06 08:00:31  5-MIN KSTC 101400Z 13010KT 8SM FEW090 01/M03 A2955 1370 78 0 120/10 RMK AO2
14926KSTC STC20060310080509403/10/06 08:05:31  5-MIN KSTC 101405Z 13009KT 8SM FEW090 01/M03 A2955 1370 78 0 120/09 RMK AO2
14926KSTC STC20060310081009403/10/06 08:10:31  5-MIN KSTC 101410Z 13009KT 8SM FEW090 01/M03 A2955 1370 78 0 120/09 RMK AO2
14926KSTC STC20060310081509103/10/06 08:15:31  5-MIN KSTC 101415Z 12009KT 8SM CLR 01/M03 A2955 1370 78 0 120/09 RMK AO2
14926KSTC STC20060310082009603/10/06 08:20:31  5-MIN KSTC 101420Z 12009KT 8SM FEW095 01/M03 A2955 1370 75 100 120/09 RMK AO2
14926KSTC STC20060310082509603/10/06 08:25:31  5-MIN KSTC 101425Z 13010KT 8SM FEW095 01/M03 A2955 1370 75 100 120/10 RMK AO2
14926KSTC STC20060310083009103/10/06 08:30:31  5-MIN KSTC 101430Z 13008KT 9SM CLR 01/M03 A2956 1360 75 0 130/08 RMK AO2
14926KSTC STC20060310083509103/10/06 08:35:31  5-MIN KSTC 101435Z 14009KT 9SM CLR 01/M03 A2956 1360 75 0 130/09 RMK AO2
14926KSTC STC20060310084009103/10/06 08:40:31  5-MIN KSTC 101440Z 14008KT 9SM CLR 01/M03 A2956 1360 75 0 130/08 RMK AO2
14926KSTC STC20060310084509103/10/06 08:45:31  5-MIN KSTC 101445Z 14007KT 9SM CLR 01/M02 A2956 1360 78 0 140/07 RMK AO2
14926KSTC STC20060310085011403/10/06 08:50:31  5-MIN KSTC 101450Z 13007KT 9SM CLR 01/M02 A2957 1360 78 0 130/07 RMK AO2 SLP030 T00111022 53016
14926KSTC STC20060310085509103/10/06 08:55:31  5-MIN KSTC 101455Z 14009KT 9SM CLR 01/M02 A2957 1350 78 0 140/09 RMK AO2
14926KSTC STC20060310090009303/10/06 09:00:31  5-MIN KSTC 101500Z 14010KT 9SM CLR 02/M02 A2957 1350 75 100 140/10 RMK AO2
14926KSTC STC20060310090509103/10/06 09:05:31  5-MIN KSTC 101505Z 13010KT 9SM CLR 01/M02 A2957 1350 78 0 130/10 RMK AO2
14926KSTC STC20060310091009103/10/06 09:10:31  5-MIN KSTC 101510Z 14010KT 9SM CLR 01/M02 A2958 1350 78 0 140/10 RMK AO2
14926KSTC STC20060310091509103/10/06 09:15:31  5-MIN KSTC 101515Z 14009KT 9SM CLR 01/M02 A2958 1340 78 0 140/09 RMK AO2
14926KSTC STC20060310092009303/10/06 09:20:31  5-MIN KSTC 101520Z 13010KT 9SM CLR 02/M02 A2957 1350 78 100 130/10 RMK AO2
14926KSTC STC20060310092509303/10/06 09:25:31  5-MIN KSTC 101525Z 14009KT 9SM CLR 02/M02 A2958 1340 75 200 140/09 RMK AO2
14926KSTC STC20060310093009303/10/06 09:30:31  5-MIN KSTC 101530Z 14011KT 9SM CLR 02/M02 A2958 1340 75 200 140/11 RMK AO2
14926KSTC STC20060310093509603/10/06 09:35:31  5-MIN KSTC 101535Z 14013KT 9SM FEW090 02/M02 A2959 1340 75 200 140/13 RMK AO2
14926KSTC STC20060310094009603/10/06 09:40:31  5-MIN KSTC 101540Z 14011KT 9SM SCT085 03/M02 A2959 1340 72 200 140/11 RMK AO2
14926KSTC STC20060310094509603/10/06 09:45:31  5-MIN KSTC 101545Z 14011KT 9SM BKN085 02/M02 A2958 1340 75 200 140/11 RMK AO2
14926KSTC STC20060310095012003/10/06 09:50:31  5-MIN KSTC 101550Z 14010KT 8SM FEW070 BKN085 02/M02 A2959 1340 75 200 140/10 RMK AO2 SLP037 T00221017
14926KSTC STC20060310095510303/10/06 09:55:31  5-MIN KSTC 101555Z 14010KT 8SM SCT070 BKN085 03/M02 A2958 1340 72 200 140/10 RMK AO2
14926KSTC STC20060310100010303/10/06 10:00:31  5-MIN KSTC 101600Z 13008KT 9SM BKN070 OVC085 03/M01 A2958 1340 75 200 130/08 RMK AO2
14926KSTC STC20060310100510303/10/06 10:05:31  5-MIN KSTC 101605Z 13010KT 9SM BKN070 OVC085 03/M01 A2959 1340 72 300 130/10 RMK AO2
14926KSTC STC20060310101010303/10/06 10:10:31  5-MIN KSTC 101610Z 14011KT 9SM BKN070 OVC085 03/M02 A2959 1330 70 300 140/11 RMK AO2
14926KSTC STC20060310101509603/10/06 10:15:31  5-MIN KSTC 101615Z 14011KT 9SM OVC075 03/M01 A2959 1330 72 300 140/11 RMK AO2
14926KSTC STC20060310102009603/10/06 10:20:31  5-MIN KSTC 101620Z 14009KT 9SM OVC070 03/M01 A2959 1330 72 300 140/09 RMK AO2
14926KSTC STC20060310102509603/10/06 10:25:31  5-MIN KSTC 101625Z 14008KT 8SM BKN075 03/M01 A2960 1330 76 300 140/08 RMK AO2
14926KSTC STC20060310103009603/10/06 10:30:31  5-MIN KSTC 101630Z 15011KT 8SM BKN075 04/M01 A2960 1320 73 300 140/11 RMK AO2
14926KSTC STC20060310103509603/10/06 10:35:31  5-MIN KSTC 101635Z 15011KT 8SM OVC075 04/M01 A2960 1320 73 300 140/11 RMK AO2
14926KSTC STC20060310104009603/10/06 10:40:31  5-MIN KSTC 101640Z 15010KT 8SM OVC075 04/M01 A2960 1320 73 300 150/10 RMK AO2
14926KSTC STC20060310104509503/10/06 10:45:31  5-MIN KSTC 101645Z 15011KT 8SM BKN075 04/00 A2960 1320 76 300 140/11 RMK AO2
14926KSTC STC20060310105011203/10/06 10:50:31  5-MIN KSTC 101650Z 14011KT 8SM BKN075 04/00 A2960 1320 73 400 140/11 RMK AO2 SLP042 T00440000
14926KSTC STC20060310105509503/10/06 10:55:31  5-MIN KSTC 101655Z 14011KT 8SM SCT075 04/00 A2960 1320 73 400 140/11 RMK AO2
14926KSTC STC20060310110009503/10/06 11:00:31  5-MIN KSTC 101700Z 15010KT 8SM SCT075 04/00 A2960 1320 73 400 140/10 RMK AO2
14926KSTC STC20060310110509503/10/06 11:05:31  5-MIN KSTC 101705Z 15012KT 8SM FEW075 05/00 A2960 1320 70 500 150/12 RMK AO2
14926KSTC STC20060310111009503/10/06 11:10:31  5-MIN KSTC 101710Z 15013KT 8SM FEW075 06/00 A2960 1330 67 500 150/13 RMK AO2
14926KSTC STC20060310111509203/10/06 11:15:31  5-MIN KSTC 101715Z 14012KT 8SM CLR 05/00 A2960 1330 70 500 140/12 RMK AO2
14926KSTC STC20060310112009203/10/06 11:20:31  5-MIN KSTC 101720Z 14011KT 8SM CLR 06/00 A2960 1330 67 500 140/11 RMK AO2
14926KSTC STC20060310112509203/10/06 11:25:31  5-MIN KSTC 101725Z 14011KT 8SM CLR 06/01 A2960 1320 70 500 140/11 RMK AO2
14926KSTC STC20060310113009203/10/06 11:30:31  5-MIN KSTC 101730Z 15009KT 8SM CLR 06/01 A2961 1320 70 500 140/09 RMK AO2
14926KSTC STC20060310113509203/10/06 11:35:31  5-MIN KSTC 101735Z 14011KT 8SM CLR 06/01 A2961 1320 67 600 140/11 RMK AO2
14926KSTC STC20060310114009203/10/06 11:40:31  5-MIN KSTC 101740Z 13011KT 8SM CLR 06/01 A2960 1320 67 600 130/11 RMK AO2
14926KSTC STC20060310114509203/10/06 11:45:31  5-MIN KSTC 101745Z 15010KT 8SM CLR 06/01 A2960 1320 67 600 140/10 RMK AO2
14926KSTC STC20060310115012703/10/06 11:50:31  5-MIN KSTC 101750Z 16011KT 9SM CLR 07/01 A2961 1320 67 700 160/11 RMK AO2 SLP043 T00670011 10067 21022 53010
14926KSTC STC20060310115509203/10/06 11:55:31  5-MIN KSTC 101755Z 17011KT 9SM CLR 07/01 A2960 1320 67 700 160/11 RMK AO2
14926KSTC STC20060310120009203/10/06 12:00:31  5-MIN KSTC 101800Z 16012KT 9SM CLR 07/01 A2960 1320 62 700 160/12 RMK AO2
14926KSTC STC20060310120509203/10/06 12:05:31  5-MIN KSTC 101805Z 17011KT 9SM CLR 07/01 A2960 1320 65 700 160/11 RMK AO2
14926KSTC STC20060310121009303/10/06 12:10:31  5-MIN KSTC 101810Z 16012KT 10SM CLR 08/01 A2960 1320 62 800 160/12 RMK AO2
14926KSTC STC20060310121509303/10/06 12:15:31  5-MIN KSTC 101815Z 18010KT 10SM CLR 08/01 A2960 1320 62 800 170/10 RMK AO2
14926KSTC STC20060310122009303/10/06 12:20:31  5-MIN KSTC 101820Z 18011KT 10SM CLR 08/02 A2960 1320 65 800 180/11 RMK AO2
14926KSTC STC20060310122509303/10/06 12:25:31  5-MIN KSTC 101825Z 20014KT 10SM CLR 08/02 A2960 1320 65 800 190/14 RMK AO2
14926KSTC STC20060310123009303/10/06 12:30:31  5-MIN KSTC 101830Z 19013KT 10SM CLR 08/02 A2960 1320 65 800 190/13 RMK AO2
14926KSTC STC20060310123509303/10/06 12:35:31  5-MIN KSTC 101835Z 19011KT 10SM CLR 08/02 A2960 1320 63 900 190/11 RMK AO2
14926KSTC STC20060310124009303/10/06 12:40:31  5-MIN KSTC 101840Z 18014KT 10SM CLR 08/02 A2961 1320 63 900 180/14 RMK AO2
14926KSTC STC20060310124509303/10/06 12:45:31  5-MIN KSTC 101845Z 18013KT 10SM CLR 08/02 A2961 1320 63 900 180/13 RMK AO2
14926KSTC STC20060310125011003/10/06 12:50:31  5-MIN KSTC 101850Z 19014KT 10SM CLR 08/02 A2961 1320 63 900 180/14 RMK AO2 SLP043 T00830017
14926KSTC STC20060310125509303/10/06 12:55:31  5-MIN KSTC 101855Z 19013KT 10SM CLR 08/02 A2961 1320 63 900 190/13 RMK AO2
14926KSTC STC20060310130009303/10/06 13:00:31  5-MIN KSTC 101900Z 18012KT 10SM CLR 08/02 A2961 1320 65 900 170/12 RMK AO2
14926KSTC STC20060310130509303/10/06 13:05:31  5-MIN KSTC 101905Z 17013KT 10SM CLR 08/02 A2961 1310 63 900 160/13 RMK AO2
14926KSTC STC20060310131009303/10/06 13:10:31  5-MIN KSTC 101910Z 18013KT 10SM CLR 09/02 A2961 1320 63 900 170/13 RMK AO2
14926KSTC STC20060310131509303/10/06 13:15:31  5-MIN KSTC 101915Z 18014KT 10SM CLR 09/02 A2961 1320 63 900 170/14 RMK AO2
14926KSTC STC20060310132009303/10/06 13:20:31  5-MIN KSTC 101920Z 16013KT 10SM CLR 08/02 A2961 1320 63 900 160/13 RMK AO2
14926KSTC STC20060310132509303/10/06 13:25:31  5-MIN KSTC 101925Z 18012KT 10SM CLR 09/02 A2961 1310 63 900 170/12 RMK AO2
14926KSTC STC20060310133009303/10/06 13:30:31  5-MIN KSTC 101930Z 18011KT 10SM CLR 09/02 A2961 1310 63 900 170/11 RMK AO2
14926KSTC STC20060310133509303/10/06 13:35:31  5-MIN KSTC 101935Z 20011KT 10SM CLR 09/02 A2961 1310 63 900 190/11 RMK AO2
14926KSTC STC20060310134009303/10/06 13:40:31  5-MIN KSTC 101940Z 20012KT 10SM CLR 09/03 A2961 1310 65 900 200/12 RMK AO2
14926KSTC STC20060310134509303/10/06 13:45:31  5-MIN KSTC 101945Z 20012KT 10SM CLR 09/03 A2961 1310 65 900 190/12 RMK AO2
14926KSTC STC20060310135011103/10/06 13:50:31  5-MIN KSTC 101950Z 20012KT 10SM CLR 09/03 A2962 1310 63 1000 200/12 RMK AO2 SLP046 T00940028
14926KSTC STC20060310135509303/10/06 13:55:31  5-MIN KSTC 101955Z 19011KT 10SM CLR 09/03 A2962 1310 65 900 180/11 RMK AO2
14926KSTC STC20060310140009403/10/06 14:00:31  5-MIN KSTC 102000Z 18012KT 10SM CLR 09/03 A2962 1310 63 1000 180/12 RMK AO2
14926KSTC STC20060310140509403/10/06 14:05:31  5-MIN KSTC 102005Z 20009KT 10SM CLR 09/03 A2962 1310 63 1000 200/09 RMK AO2
14926KSTC STC20060310141009403/10/06 14:10:31  5-MIN KSTC 102010Z 20012KT 10SM CLR 09/03 A2962 1310 65 1000 200/12 RMK AO2
14926KSTC STC20060310141509403/10/06 14:15:31  5-MIN KSTC 102015Z 21011KT 10SM CLR 09/03 A2962 1310 63 1000 200/11 RMK AO2
14926KSTC STC20060310142009403/10/06 14:20:31  5-MIN KSTC 102020Z 22010KT 10SM CLR 09/03 A2962 1310 65 1000 210/10 RMK AO2
14926KSTC STC20060310142509403/10/06 14:25:31  5-MIN KSTC 102025Z 21010KT 10SM CLR 09/03 A2962 1310 63 1000 210/10 RMK AO2
14926KSTC STC20060310143009403/10/06 14:30:31  5-MIN KSTC 102030Z 21009KT 10SM CLR 09/03 A2962 1310 65 1000 210/09 RMK AO2
14926KSTC STC20060310143509403/10/06 14:35:31  5-MIN KSTC 102035Z 21011KT 10SM CLR 09/03 A2962 1300 65 1000 210/11 RMK AO2
14926KSTC STC20060310144009403/10/06 14:40:31  5-MIN KSTC 102040Z 21007KT 10SM CLR 09/03 A2962 1300 63 1000 210/07 RMK AO2
14926KSTC STC20060310144509403/10/06 14:45:31  5-MIN KSTC 102045Z 21008KT 10SM CLR 10/03 A2962 1300 63 1100 210/08 RMK AO2
14926KSTC STC20060310145011703/10/06 14:50:31  5-MIN KSTC 102050Z 21010KT 10SM CLR 10/03 A2963 1300 63 1000 210/10 RMK AO2 SLP051 T01000033 51013
14926KSTC STC20060310145509403/10/06 14:55:31  5-MIN KSTC 102055Z 21011KT 10SM CLR 10/03 A2963 1300 63 1000 200/11 RMK AO2
14926KSTC STC20060310150009403/10/06 15:00:31  5-MIN KSTC 102100Z 20010KT 10SM CLR 09/03 A2963 1300 65 1000 200/10 RMK AO2
14926KSTC STC20060310150509403/10/06 15:05:31  5-MIN KSTC 102105Z 21010KT 10SM CLR 10/03 A2963 1300 60 1000 200/10 RMK AO2
14926KSTC STC20060310151009403/10/06 15:10:31  5-MIN KSTC 102110Z 21010KT 10SM CLR 10/03 A2963 1300 60 1000 210/10 RMK AO2
14926KSTC STC20060310151509403/10/06 15:15:31  5-MIN KSTC 102115Z 20009KT 10SM CLR 10/03 A2963 1300 63 1000 200/09 RMK AO2
14926KSTC STC20060310152009403/10/06 15:20:31  5-MIN KSTC 102120Z 19008KT 10SM CLR 10/03 A2963 1300 63 1000 190/08 RMK AO2
14926KSTC STC20060310152509403/10/06 15:25:31  5-MIN KSTC 102125Z 19010KT 10SM CLR 10/03 A2963 1300 60 1000 190/10 RMK AO2
14926KSTC STC20060310153009403/10/06 15:30:31  5-MIN KSTC 102130Z 20008KT 10SM CLR 10/03 A2963 1300 63 1000 200/08 RMK AO2
14926KSTC STC20060310153509403/10/06 15:35:31  5-MIN KSTC 102135Z 20008KT 10SM CLR 10/03 A2963 1300 63 1000 200/08 RMK AO2
14926KSTC STC20060310154009403/10/06 15:40:31  5-MIN KSTC 102140Z 17010KT 10SM CLR 10/03 A2963 1290 63 1000 170/10 RMK AO2
14926KSTC STC20060310154509403/10/06 15:45:31  5-MIN KSTC 102145Z 19010KT 10SM CLR 10/03 A2963 1290 63 1000 190/10 RMK AO2
14926KSTC STC20060310155011103/10/06 15:50:31  5-MIN KSTC 102150Z 19009KT 10SM CLR 10/03 A2963 1300 60 1000 180/09 RMK AO2 SLP051 T01000028
14926KSTC STC20060310155509903/10/06 15:55:31  5-MIN KSTC 102155Z AUTO 19011KT 10SM CLR 10/03 A2963 1290 60 1000 190/11 RMK AO2
14926KSTC STC20060310160009903/10/06 16:00:31  5-MIN KSTC 102200Z AUTO 19010KT 10SM CLR 10/03 A2963 1290 60 1000 190/10 RMK AO2
14926KSTC STC20060310160509903/10/06 16:05:31  5-MIN KSTC 102205Z AUTO 20009KT 10SM CLR 10/03 A2964 1290 60 1000 200/09 RMK AO2
14926KSTC STC20060310161009903/10/06 16:10:31  5-MIN KSTC 102210Z AUTO 19008KT 10SM CLR 10/03 A2964 1290 63 1000 190/08 RMK AO2
14926KSTC STC20060310161509903/10/06 16:15:31  5-MIN KSTC 102215Z AUTO 20008KT 10SM CLR 10/03 A2964 1290 63 1000 200/08 RMK AO2
14926KSTC STC20060310162009903/10/06 16:20:31  5-MIN KSTC 102220Z AUTO 20009KT 10SM CLR 10/03 A2964 1290 63 1000 200/09 RMK AO2
14926KSTC STC20060310162509903/10/06 16:25:31  5-MIN KSTC 102225Z AUTO 20008KT 10SM CLR 10/03 A2964 1290 63 1000 200/08 RMK AO2
14926KSTC STC20060310163009903/10/06 16:30:31  5-MIN KSTC 102230Z AUTO 20008KT 10SM CLR 10/03 A2964 1290 63 1000 200/08 RMK AO2
14926KSTC STC20060310163509903/10/06 16:35:31  5-MIN KSTC 102235Z AUTO 20008KT 10SM CLR 10/03 A2964 1290 63 1000 200/08 RMK AO2
14926KSTC STC20060310164009903/10/06 16:40:31  5-MIN KSTC 102240Z AUTO 19007KT 10SM CLR 10/03 A2964 1290 63 1000 190/07 RMK AO2
14926KSTC STC20060310164509903/10/06 16:45:31  5-MIN KSTC 102245Z AUTO 20007KT 10SM CLR 10/03 A2964 1290 63 1000 200/07 RMK AO2
14926KSTC STC20060310165011603/10/06 16:50:31  5-MIN KSTC 102250Z AUTO 18006KT 10SM CLR 10/03 A2964 1290 63 1000 180/06 RMK AO2 SLP054 T01000033
14926KSTC STC20060310165509903/10/06 16:55:31  5-MIN KSTC 102255Z AUTO 19006KT 10SM CLR 09/03 A2964 1290 65 1000 190/06 RMK AO2
14926KSTC STC20060310170009903/10/06 17:00:31  5-MIN KSTC 102300Z AUTO 17006KT 10SM CLR 09/03 A2964 1290 65 1000 170/06 RMK AO2
14926KSTC STC20060310170509903/10/06 17:05:31  5-MIN KSTC 102305Z AUTO 18008KT 10SM CLR 10/03 A2964 1290 63 1000 170/08 RMK AO2
14926KSTC STC20060310171009903/10/06 17:10:31  5-MIN KSTC 102310Z AUTO 17008KT 10SM CLR 09/03 A2964 1290 65 1000 170/08 RMK AO2
14926KSTC STC20060310171509903/10/06 17:15:31  5-MIN KSTC 102315Z AUTO 18006KT 10SM CLR 09/03 A2964 1290 65 1000 180/06 RMK AO2
14926KSTC STC20060310172009803/10/06 17:20:31  5-MIN KSTC 102320Z AUTO 19006KT 10SM CLR 09/03 A2964 1280 68 900 180/06 RMK AO2
14926KSTC STC20060310172509903/10/06 17:25:31  5-MIN KSTC 102325Z AUTO 18008KT 10SM CLR 09/03 A2965 1280 65 1000 180/08 RMK AO2
14926KSTC STC20060310173009803/10/06 17:30:31  5-MIN KSTC 102330Z AUTO 18008KT 10SM CLR 09/03 A2965 1280 68 900 180/08 RMK AO2
14926KSTC STC20060310173509803/10/06 17:35:31  5-MIN KSTC 102335Z AUTO 19007KT 10SM CLR 09/03 A2965 1270 68 900 190/07 RMK AO2
14926KSTC STC20060310174009803/10/06 17:40:31  5-MIN KSTC 102340Z AUTO 19007KT 10SM CLR 08/03 A2966 1270 70 800 190/07 RMK AO2
14926KSTC STC20060310174509803/10/06 17:45:31  5-MIN KSTC 102345Z AUTO 20006KT 10SM CLR 08/03 A2966 1270 70 700 190/06 RMK AO2
14926KSTC STC20060310175013303/10/06 17:50:31  5-MIN KSTC 102350Z AUTO 20006KT 10SM CLR 07/03 A2966 1260 73 700 200/06 RMK AO2 SLP063 T00720028 10100 20067 53008
14926KSTC STC20060310175509703/10/06 17:55:31  5-MIN KSTC 102355Z AUTO 21005KT 9SM CLR 07/03 A2966 1260 76 600 200/05 RMK AO2
14926KSTC STC20060310180009703/10/06 18:00:31  5-MIN KSTC 110000Z AUTO 20005KT 9SM CLR 07/03 A2966 1260 76 600 200/05 RMK AO2
14926KSTC STC20060310180509703/10/06 18:05:31  5-MIN KSTC 110005Z AUTO 20004KT 9SM CLR 07/03 A2967 1260 76 600 190/04 RMK AO2
14926KSTC STC20060310181009703/10/06 18:10:31  5-MIN KSTC 110010Z AUTO 00000KT 9SM CLR 07/03 A2966 1260 76 600 000/00 RMK AO2
14926KSTC STC20060310181509703/10/06 18:15:31  5-MIN KSTC 110015Z AUTO 00000KT 9SM CLR 07/03 A2966 1270 76 600 000/00 RMK AO2
14926KSTC STC20060310182009703/10/06 18:20:31  5-MIN KSTC 110020Z AUTO 00000KT 9SM CLR 07/03 A2966 1270 73 700 000/00 RMK AO2
14926KSTC STC20060310182509703/10/06 18:25:31  5-MIN KSTC 110025Z AUTO 00000KT 9SM CLR 07/03 A2966 1260 76 600 000/00 RMK AO2
14926KSTC STC20060310183009803/10/06 18:30:31  5-MIN KSTC 110030Z AUTO 00000KT 10SM CLR 07/03 A2967 1260 76 600 000/00 RMK AO2
14926KSTC STC20060310183509803/10/06 18:35:31  5-MIN KSTC 110035Z AUTO 00000KT 10SM CLR 06/03 A2967 1260 79 500 000/00 RMK AO2
14926KSTC STC20060310184009803/10/06 18:40:31  5-MIN KSTC 110040Z AUTO 00000KT 10SM CLR 06/02 A2967 1260 79 500 000/00 RMK AO2
14926KSTC STC20060310184509803/10/06 18:45:31  5-MIN KSTC 110045Z AUTO 00000KT 10SM CLR 06/02 A2967 1260 76 500 000/00 RMK AO2
14926KSTC STC20060310185011503/10/06 18:50:31  5-MIN KSTC 110050Z AUTO 00000KT 10SM CLR 05/02 A2967 1260 82 400 000/00 RMK AO2 SLP066 T00500022
14926KSTC STC20060310185509703/10/06 18:55:31  5-MIN KSTC 110055Z AUTO 00000KT 9SM CLR 05/02 A2967 1250 79 400 000/00 RMK AO2
14926KSTC STC20060310190009703/10/06 19:00:31  5-MIN KSTC 110100Z AUTO 00000KT 9SM CLR 05/02 A2967 1250 79 400 000/00 RMK AO2
14926KSTC STC20060310190509703/10/06 19:05:31  5-MIN KSTC 110105Z AUTO 00000KT 9SM CLR 04/02 A2968 1250 82 300 000/00 RMK AO2
14926KSTC STC20060310191009703/10/06 19:10:31  5-MIN KSTC 110110Z AUTO 00000KT 8SM CLR 04/02 A2968 1250 85 200 000/00 RMK AO2
14926KSTC STC20060310191509703/10/06 19:15:31  5-MIN KSTC 110115Z AUTO 00000KT 7SM CLR 03/01 A2968 1250 89 100 000/00 RMK AO2
14926KSTC STC20060310192009703/10/06 19:20:31  5-MIN KSTC 110120Z AUTO 01003KT 7SM CLR 03/01 A2969 1240 85 200 360/03 RMK AO2
14926KSTC STC20060310192509703/10/06 19:25:31  5-MIN KSTC 110125Z AUTO 01004KT 7SM CLR 03/01 A2969 1240 85 100 360/04 RMK AO2
14926KSTC STC20060310193009703/10/06 19:30:31  5-MIN KSTC 110130Z AUTO 01004KT 7SM CLR 03/01 A2969 1240 85 100 360/04 RMK AO2
14926KSTC STC20060310193510003/10/06 19:35:31  5-MIN KSTC 110135Z AUTO 02003KT 6SM BR CLR 03/01 A2969 1240 89 100 020/03 RMK AO2
14926KSTC STC20060310194009703/10/06 19:40:31  5-MIN KSTC 110140Z AUTO 05003KT 7SM CLR 03/01 A2969 1240 89 100 050/03 RMK AO2
14926KSTC STC20060310194509703/10/06 19:45:31  5-MIN KSTC 110145Z AUTO 06004KT 7SM CLR 03/01 A2969 1240 85 200 060/04 RMK AO2
14926KSTC STC20060310195011403/10/06 19:50:31  5-MIN KSTC 110150Z AUTO 06003KT 7SM CLR 03/01 A2969 1240 89 100 060/03 RMK AO2 SLP074 T00280011
14926KSTC STC20060310195509503/10/06 19:55:31  5-MIN KSTC 110155Z AUTO 05003KT 7SM CLR 02/01 A2970 1230 89 0 050/03 RMK AO2
14926KSTC STC20060310200009803/10/06 20:00:31  5-MIN KSTC 110200Z AUTO 07003KT 6SM BR CLR 02/01 A2970 1230 92 0 070/03 RMK AO2
14926KSTC STC20060310200509803/10/06 20:05:31  5-MIN KSTC 110205Z AUTO 06003KT 6SM BR CLR 02/00 A2970 1230 89 0 060/03 RMK AO2
14926KSTC STC20060310201009803/10/06 20:10:31  5-MIN KSTC 110210Z AUTO 06003KT 6SM BR CLR 02/00 A2970 1230 89 0 060/03 RMK AO2
14926KSTC STC20060310201509803/10/06 20:15:31  5-MIN KSTC 110215Z AUTO 05003KT 6SM BR CLR 02/00 A2971 1220 89 0 050/03 RMK AO2
14926KSTC STC20060310202009803/10/06 20:20:31  5-MIN KSTC 110220Z AUTO 00000KT 6SM BR CLR 02/00 A2971 1220 89 0 000/00 RMK AO2
14926KSTC STC20060310202509803/10/06 20:25:31  5-MIN KSTC 110225Z AUTO 05003KT 6SM BR CLR 02/01 A2971 1220 92 0 050/03 RMK AO2
14926KSTC STC20060310203009803/10/06 20:30:31  5-MIN KSTC 110230Z AUTO 06003KT 6SM BR CLR 02/01 A2971 1220 92 0 050/03 RMK AO2
14926KSTC STC20060310203509803/10/06 20:35:31  5-MIN KSTC 110235Z AUTO 05003KT 6SM BR CLR 02/01 A2971 1220 92 0 050/03 RMK AO2
14926KSTC STC20060310204009803/10/06 20:40:31  5-MIN KSTC 110240Z AUTO 00000KT 5SM BR CLR 02/01 A2971 1220 92 0 000/00 RMK AO2
14926KSTC STC20060310204510103/10/06 20:45:31  5-MIN KSTC 110245Z AUTO 00000KT 5SM BR CLR 01/00 A2972 1220 92 -100 000/00 RMK AO2
14926KSTC STC20060310205012103/10/06 20:50:31  5-MIN KSTC 110250Z AUTO 00000KT 5SM BR CLR 02/01 A2972 1210 92 0 000/00 RMK AO2 SLP083 T00170006 53011
14926KSTC STC20060310205510103/10/06 20:55:31  5-MIN KSTC 110255Z AUTO 00000KT 5SM BR FEW050 02/01 A2972 1210 89 0 000/00 RMK AO2
14926KSTC STC20060310210010103/10/06 21:00:31  5-MIN KSTC 110300Z AUTO 07003KT 5SM BR SCT050 02/01 A2973 1210 92 0 070/03 RMK AO2
14926KSTC STC20060310210511103/10/06 21:05:31  5-MIN KSTC 110305Z AUTO 04003KT 5SM BR SCT047 BKN055 01/00 A2973 1210 92 -100 040/03 RMK AO2
14926KSTC STC20060310211010403/10/06 21:10:31  5-MIN KSTC 110310Z AUTO 00000KT 5SM BR BKN049 01/00 A2973 1200 92 -100 000/00 RMK AO2
14926KSTC STC20060310211510103/10/06 21:15:31  5-MIN KSTC 110315Z AUTO 00000KT 5SM BR BKN049 02/01 A2973 1200 89 0 000/00 RMK AO2
14926KSTC STC20060310212010103/10/06 21:20:31  5-MIN KSTC 110320Z AUTO 00000KT 4SM BR OVC049 02/01 A2973 1200 92 0 000/00 RMK AO2
14926KSTC STC20060310212510103/10/06 21:25:31  5-MIN KSTC 110325Z AUTO 04003KT 5SM BR OVC049 02/01 A2973 1200 89 0 040/03 RMK AO2
14926KSTC STC20060310213010103/10/06 21:30:31  5-MIN KSTC 110330Z AUTO 06004KT 5SM BR BKN049 02/01 A2973 1200 92 0 050/04 RMK AO2
14926KSTC STC20060310213510103/10/06 21:35:31  5-MIN KSTC 110335Z AUTO 05004KT 5SM BR BKN049 02/01 A2974 1200 92 0 040/04 RMK AO2
14926KSTC STC20060310214010103/10/06 21:40:31  5-MIN KSTC 110340Z AUTO 05004KT 5SM BR SCT049 02/01 A2974 1200 89 0 040/04 RMK AO2
14926KSTC STC20060310214510103/10/06 21:45:31  5-MIN KSTC 110345Z AUTO VRB03KT 5SM BR FEW049 02/01 A2974 1200 92 0 VRB/03 RMK AO2
14926KSTC STC20060310215013203/10/06 21:50:31  5-MIN KSTC 110350Z AUTO 00000KT 5SM BR SCT047 SCT055 SCT110 02/00 A2974 1200 89 0 000/00 RMK AO2 SLP088 T00170000
14926KSTC STC20060310215510803/10/06 21:55:31  5-MIN KSTC 110355Z AUTO 00000KT 5SM BR SCT045 BKN110 02/01 A2974 1190 89 0 000/00 RMK AO2
14926KSTC STC20060310220010103/10/06 22:00:31  5-MIN KSTC 110400Z AUTO 00000KT 5SM BR BKN047 02/01 A2974 1190 89 0 000/00 RMK AO2
14926KSTC STC20060310220510103/10/06 22:05:31  5-MIN KSTC 110405Z AUTO 00000KT 5SM BR BKN049 02/01 A2974 1190 89 0 000/00 RMK AO2
14926KSTC STC20060310221010103/10/06 22:10:31  5-MIN KSTC 110410Z AUTO 00000KT 5SM BR BKN049 02/01 A2974 1190 89 0 000/00 RMK AO2
14926KSTC STC20060310221510103/10/06 22:15:31  5-MIN KSTC 110415Z AUTO 00000KT 5SM BR BKN049 02/01 A2974 1190 89 0 000/00 RMK AO2
14926KSTC STC20060310222010103/10/06 22:20:31  5-MIN KSTC 110420Z AUTO 00000KT 5SM BR BKN049 02/01 A2974 1200 89 0 000/00 RMK AO2
14926KSTC STC20060310222510103/10/06 22:25:31  5-MIN KSTC 110425Z AUTO 10005KT 5SM BR BKN049 03/01 A2974 1190 89 0 090/05 RMK AO2
14926KSTC STC20060310223010103/10/06 22:30:31  5-MIN KSTC 110430Z AUTO 00000KT 5SM BR BKN049 03/01 A2974 1190 89 0 000/00 RMK AO2
14926KSTC STC20060310223510103/10/06 22:35:31  5-MIN KSTC 110435Z AUTO 00000KT 5SM BR SCT049 02/01 A2974 1190 89 0 000/00 RMK AO2
14926KSTC STC20060310224010803/10/06 22:40:31  5-MIN KSTC 110440Z AUTO 00000KT 5SM BR FEW049 SCT120 02/01 A2974 1190 92 0 000/00 RMK AO2
14926KSTC STC20060310224511103/10/06 22:45:31  5-MIN KSTC 110445Z AUTO 00000KT 5SM BR FEW049 SCT110 02/01 A2974 1190 92 -100 000/00 RMK AO2
14926KSTC STC20060310225012503/10/06 22:50:31  5-MIN KSTC 110450Z AUTO 00000KT 5SM BR FEW049 SCT110 02/01 A2974 1190 92 0 000/00 RMK AO2 SLP089 T00220011
14926KSTC STC20060310225510103/10/06 22:55:31  5-MIN KSTC 110455Z AUTO 08003KT 5SM BR SCT120 02/01 A2974 1190 89 0 080/03 RMK AO2
14926KSTC STC20060310230010103/10/06 23:00:31  5-MIN KSTC 110500Z AUTO 08003KT 5SM BR BKN120 02/01 A2975 1190 92 0 070/03 RMK AO2
14926KSTC STC20060310230510103/10/06 23:05:31  5-MIN KSTC 110505Z AUTO 08003KT 5SM BR BKN110 02/01 A2975 1190 92 0 080/03 RMK AO2
14926KSTC STC20060310231010403/10/06 23:10:31  5-MIN KSTC 110510Z AUTO 08003KT 5SM BR BKN110 02/01 A2975 1190 92 -100 080/03 RMK AO2
14926KSTC STC20060310231510103/10/06 23:15:31  5-MIN KSTC 110515Z AUTO 07003KT 5SM BR BKN110 02/01 A2975 1190 92 0 070/03 RMK AO2
14926KSTC STC20060310232010403/10/06 23:20:31  5-MIN KSTC 110520Z AUTO 07003KT 4SM BR OVC110 02/01 A2975 1190 92 -100 060/03 RMK AO2
14926KSTC STC20060310232510403/10/06 23:25:31  5-MIN KSTC 110525Z AUTO 07003KT 4SM BR OVC110 02/01 A2975 1190 92 -100 060/03 RMK AO2
14926KSTC STC20060310233010403/10/06 23:30:31  5-MIN KSTC 110530Z AUTO 07003KT 4SM BR OVC110 02/01 A2975 1190 92 -100 070/03 RMK AO2
14926KSTC STC20060310233510403/10/06 23:35:31  5-MIN KSTC 110535Z AUTO 08004KT 4SM BR BKN110 02/00 A2975 1190 89 -100 080/04 RMK AO2
14926KSTC STC20060310234010403/10/06 23:40:31  5-MIN KSTC 110540Z AUTO 10003KT 4SM BR BKN110 02/01 A2975 1190 92 -100 090/03 RMK AO2
14926KSTC STC20060310234510403/10/06 23:45:31  5-MIN KSTC 110545Z AUTO 10004KT 4SM BR SCT110 02/01 A2974 1190 92 -100 100/04 RMK AO2
14926KSTC STC20060310235014903/10/06 23:50:31  5-MIN KSTC 110550Z AUTO 10004KT 4SM BR FEW110 01/00 A2975 1190 92 -100 100/04 RMK AO2 SLP090 T00110000 10072 20011 401001050 53019
14926KSTC STC20060310235510403/10/06 23:55:31  5-MIN KSTC 110555Z AUTO 11004KT 4SM BR FEW110 02/01 A2975 1190 92 -100 100/04 RMK AO2
14926KSTC STC20060311000010103/11/06 00:00:32  5-MIN KSTC 110600Z AUTO 10003KT 4SM BR CLR 01/00 A2974 1190 96 -200 090/03 RMK AO2
14926KSTC STC20060311000510103/11/06 00:05:31  5-MIN KSTC 110605Z AUTO 08004KT 4SM BR CLR 02/01 A2974 1190 92 -100 080/04 RMK AO2
14926KSTC STC20060311001010403/11/06 00:10:31  5-MIN KSTC 110610Z AUTO 09004KT 4SM BR FEW120 02/01 A2974 1190 96 -100 090/04 RMK AO2
14926KSTC STC20060311001510103/11/06 00:15:31  5-MIN KSTC 110615Z AUTO 10005KT 4SM BR SCT120 02/01 A2974 1190 92 0 100/05 RMK AO2
14926KSTC STC20060311002010103/11/06 00:20:31  5-MIN KSTC 110620Z AUTO 10005KT 4SM BR SCT120 03/01 A2974 1190 89 0 100/05 RMK AO2
14926KSTC STC20060311002510103/11/06 00:25:31  5-MIN KSTC 110625Z AUTO 10005KT 5SM BR FEW120 03/02 A2974 1190 92 0 100/05 RMK AO2
14926KSTC STC20060311003010303/11/06 00:30:31  5-MIN KSTC 110630Z AUTO 11005KT 6SM BR FEW120 03/02 A2974 1190 89 100 100/05 RMK AO2
14926KSTC STC20060311003510003/11/06 00:35:31  5-MIN KSTC 110635Z AUTO 11004KT 7SM SCT110 04/02 A2974 1190 85 200 110/04 RMK AO2
14926KSTC STC20060311004010003/11/06 00:40:31  5-MIN KSTC 110640Z AUTO 11004KT 7SM SCT110 04/02 A2974 1190 85 200 100/04 RMK AO2
14926KSTC STC20060311004510003/11/06 00:45:31  5-MIN KSTC 110645Z AUTO 11005KT 7SM FEW110 03/02 A2974 1190 89 100 100/05 RMK AO2
14926KSTC STC20060311005011503/11/06 00:50:31  5-MIN KSTC 110650Z AUTO 11005KT 7SM FEW110 03/01 A2974 1190 89 0 110/05 RMK AO2 SLP086 T00280011
14926KSTC STC20060311005510003/11/06 00:55:31  5-MIN KSTC 110655Z AUTO 11005KT 7SM FEW110 03/01 A2974 1200 85 100 100/05 RMK AO2
14926KSTC STC20060311010010003/11/06 01:00:31  5-MIN KSTC 110700Z AUTO 11005KT 8SM FEW110 03/01 A2974 1190 85 100 110/05 RMK AO2
14926KSTC STC20060311010510003/11/06 01:05:31  5-MIN KSTC 110705Z AUTO 12004KT 8SM SCT110 04/01 A2974 1190 82 200 120/04 RMK AO2
14926KSTC STC20060311011010003/11/06 01:10:31  5-MIN KSTC 110710Z AUTO 11005KT 8SM BKN110 04/01 A2974 1190 82 200 110/05 RMK AO2
14926KSTC STC20060311011510003/11/06 01:15:31  5-MIN KSTC 110715Z AUTO 10005KT 8SM BKN100 04/01 A2974 1200 79 200 100/05 RMK AO2
14926KSTC STC20060311012010003/11/06 01:20:31  5-MIN KSTC 110720Z AUTO 10006KT 8SM BKN100 04/01 A2973 1200 79 200 090/06 RMK AO2
14926KSTC STC20060311012510003/11/06 01:25:31  5-MIN KSTC 110725Z AUTO 10005KT 8SM BKN100 03/01 A2974 1200 82 100 100/05 RMK AO2
14926KSTC STC20060311013010003/11/06 01:30:31  5-MIN KSTC 110730Z AUTO 10005KT 8SM BKN100 04/01 A2973 1200 79 200 090/05 RMK AO2
14926KSTC STC20060311013510003/11/06 01:35:31  5-MIN KSTC 110735Z AUTO 10005KT 9SM BKN100 04/01 A2973 1200 79 200 090/05 RMK AO2
14926KSTC STC20060311014010003/11/06 01:40:31  5-MIN KSTC 110740Z AUTO 10004KT 9SM BKN095 04/01 A2973 1200 79 200 090/04 RMK AO2
14926KSTC STC20060311014510003/11/06 01:45:31  5-MIN KSTC 110745Z AUTO 09006KT 9SM BKN095 04/01 A2973 1200 79 200 090/06 RMK AO2
14926KSTC STC20060311015012403/11/06 01:50:31  5-MIN KSTC 110750Z AUTO 09006KT 9SM BKN090 BKN100 03/00 A2973 1200 79 100 090/06 RMK AO2 SLP081 T00330000
14926KSTC STC20060311015510703/11/06 01:55:31  5-MIN KSTC 110755Z AUTO 10006KT 9SM BKN085 BKN100 04/00 A2972 1210 76 200 090/06 RMK AO2
14926KSTC STC20060311020010003/11/06 02:00:31  5-MIN KSTC 110800Z AUTO 10006KT 9SM BKN085 04/00 A2973 1210 76 200 100/06 RMK AO2
14926KSTC STC20060311020510003/11/06 02:05:31  5-MIN KSTC 110805Z AUTO 10006KT 9SM BKN085 04/00 A2973 1210 76 200 090/06 RMK AO2
14926KSTC STC20060311021010003/11/06 02:10:31  5-MIN KSTC 110810Z AUTO 09006KT 9SM BKN085 04/00 A2972 1210 76 200 090/06 RMK AO2
14926KSTC STC20060311021510003/11/06 02:15:31  5-MIN KSTC 110815Z AUTO 08006KT 9SM BKN085 04/00 A2972 1210 76 200 080/06 RMK AO2
14926KSTC STC20060311022010003/11/06 02:20:31  5-MIN KSTC 110820Z AUTO 08006KT 9SM BKN085 04/00 A2972 1220 76 200 080/06 RMK AO2
14926KSTC STC20060311022510003/11/06 02:25:31  5-MIN KSTC 110825Z AUTO 09007KT 9SM SCT085 04/00 A2971 1220 76 200 080/07 RMK AO2
14926KSTC STC20060311023010703/11/06 02:30:31  5-MIN KSTC 110830Z AUTO 09006KT 9SM FEW044 BKN085 04/00 A2971 1220 76 200 090/06 RMK AO2
14926KSTC STC20060311023511403/11/06 02:35:31  5-MIN KSTC 110835Z AUTO 09008KT 9SM SCT044 BKN085 04/00 A2970 1230 76 200 090/08 RMK AO2 PRESFR
14926KSTC STC20060311024010003/11/06 02:40:31  5-MIN KSTC 110840Z AUTO 09009KT 9SM SCT044 04/00 A2969 1240 76 200 090/09 RMK AO2
14926KSTC STC20060311024510003/11/06 02:45:31  5-MIN KSTC 110845Z AUTO 10006KT 9SM SCT044 04/00 A2970 1230 73 300 100/06 RMK AO2
14926KSTC STC20060311025012303/11/06 02:50:31  5-MIN KSTC 110850Z AUTO 10007KT 9SM BKN044 04/00 A2970 1240 73 300 090/07 RMK AO2 SLP070 T00440000 51008
14926KSTC STC20060311025510003/11/06 02:55:31  5-MIN KSTC 110855Z AUTO 10007KT 9SM BKN044 04/00 A2969 1240 76 200 100/07 RMK AO2
14926KSTC STC20060311030010003/11/06 03:00:31  5-MIN KSTC 110900Z AUTO 10006KT 9SM SCT044 04/00 A2969 1240 76 200 090/06 RMK AO2
14926KSTC STC20060311030510803/11/06 03:05:31  5-MIN KSTC 110905Z AUTO 11006KT 9SM FEW046 SCT055 04/M01 A2969 1240 73 200 110/06 RMK AO2
14926KSTC STC20060311031010803/11/06 03:10:31  5-MIN KSTC 110910Z AUTO 12007KT 9SM SCT046 BKN055 04/M01 A2970 1230 70 300 110/07 RMK AO2
14926KSTC STC20060311031510203/11/06 03:15:31  5-MIN KSTC 110915Z AUTO 11006KT 10SM BKN048 04/M01 A2969 1240 70 300 110/06 RMK AO2
14926KSTC STC20060311032010903/11/06 03:20:31  5-MIN KSTC 110920Z AUTO 10006KT 10SM BKN050 BKN060 04/M01 A2969 1240 70 300 100/06 RMK AO2
14926KSTC STC20060311032510803/11/06 03:25:31  5-MIN KSTC 110925Z AUTO 08008KT 9SM BKN055 04/M01 A2967 1260 73 300 080/08 RMK AO2 PRESFR
14926KSTC STC20060311033011503/11/06 03:30:31  5-MIN KSTC 110930Z AUTO 08008KT 9SM SCT050 BKN060 04/M01 A2966 1270 73 300 080/08 RMK AO2 PRESFR
14926KSTC STC20060311033511503/11/06 03:35:31  5-MIN KSTC 110935Z AUTO 08007KT 9SM SCT050 BKN060 04/M01 A2966 1270 73 300 080/07 RMK AO2 PRESFR
14926KSTC STC20060311034011503/11/06 03:40:31  5-MIN KSTC 110940Z AUTO 08007KT 9SM FEW050 SCT060 BKN110 04/M01 A2966 1270 73 300 080/07 RMK AO2
14926KSTC STC20060311034510803/11/06 03:45:31  5-MIN KSTC 110945Z AUTO 08006KT 9SM SCT055 BKN110 04/M01 A2966 1270 73 300 080/06 RMK AO2
14926KSTC STC20060311035012503/11/06 03:50:31  5-MIN KSTC 110950Z AUTO 09006KT 9SM FEW060 BKN110 04/M01 A2966 1270 73 300 080/06 RMK AO2 SLP057 T00391006
14926KSTC STC20060311035510103/11/06 03:55:31  5-MIN KSTC 110955Z AUTO 08007KT 9SM BKN100 04/M01 A2965 1270 73 300 080/07 RMK AO2
14926KSTC STC20060311040010103/11/06 04:00:31  5-MIN KSTC 111000Z AUTO 10006KT 9SM BKN100 04/M01 A2966 1270 73 300 100/06 RMK AO2
14926KSTC STC20060311040510103/11/06 04:05:31  5-MIN KSTC 111005Z AUTO 09007KT 9SM BKN100 04/M01 A2966 1270 73 300 090/07 RMK AO2
14926KSTC STC20060311041010103/11/06 04:10:31  5-MIN KSTC 111010Z AUTO 12005KT 9SM SCT100 04/M01 A2967 1260 73 300 120/05 RMK AO2
14926KSTC STC20060311041510803/11/06 04:15:31  5-MIN KSTC 111015Z AUTO 11005KT 9SM FEW043 SCT100 04/M01 A2967 1260 73 300 100/05 RMK AO2
14926KSTC STC20060311042010803/11/06 04:20:31  5-MIN KSTC 111020Z AUTO 10005KT 9SM FEW043 SCT100 04/M01 A2966 1270 73 300 090/05 RMK AO2
14926KSTC STC20060311042510103/11/06 04:25:31  5-MIN KSTC 111025Z AUTO 10006KT 9SM FEW043 04/M01 A2966 1270 73 300 090/06 RMK AO2
14926KSTC STC20060311043010103/11/06 04:30:31  5-MIN KSTC 111030Z AUTO 09007KT 9SM FEW043 04/M01 A2965 1270 73 300 090/07 RMK AO2
14926KSTC STC20060311043510103/11/06 04:35:31  5-MIN KSTC 111035Z AUTO 10006KT 9SM FEW043 03/M01 A2965 1280 76 200 090/06 RMK AO2
14926KSTC STC20060311044010103/11/06 04:40:31  5-MIN KSTC 111040Z AUTO 09007KT 9SM FEW043 04/M01 A2965 1280 73 300 090/07 RMK AO2
14926KSTC STC20060311044510103/11/06 04:45:31  5-MIN KSTC 111045Z AUTO 09007KT 9SM FEW110 04/M01 A2965 1280 73 300 090/07 RMK AO2
14926KSTC STC20060311045011803/11/06 04:50:31  5-MIN KSTC 111050Z AUTO 09006KT 9SM FEW110 04/M01 A2965 1280 73 300 090/06 RMK AO2 SLP053 T00391006
14926KSTC STC20060311045509803/11/06 04:55:31  5-MIN KSTC 111055Z AUTO 09007KT 9SM CLR 04/M01 A2964 1280 73 300 090/07 RMK AO2
14926KSTC STC20060311050009803/11/06 05:00:31  5-MIN KSTC 111100Z AUTO 09007KT 9SM CLR 03/M01 A2964 1290 76 200 090/07 RMK AO2
14926KSTC STC20060311050509803/11/06 05:05:31  5-MIN KSTC 111105Z AUTO 09008KT 9SM CLR 03/M01 A2963 1290 76 200 090/08 RMK AO2
14926KSTC STC20060311051009803/11/06 05:10:31  5-MIN KSTC 111110Z AUTO 09008KT 9SM CLR 04/M01 A2963 1300 73 300 090/08 RMK AO2
14926KSTC STC20060311051509803/11/06 05:15:31  5-MIN KSTC 111115Z AUTO 08008KT 9SM CLR 03/M01 A2962 1300 76 200 080/08 RMK AO2
14926KSTC STC20060311052010103/11/06 05:20:31  5-MIN KSTC 111120Z AUTO 08009KT 9SM SCT120 04/M01 A2962 1300 73 300 080/09 RMK AO2
14926KSTC STC20060311052510103/11/06 05:25:31  5-MIN KSTC 111125Z AUTO 09008KT 9SM BKN120 03/M01 A2962 1300 76 200 080/08 RMK AO2
14926KSTC STC20060311053010103/11/06 05:30:31  5-MIN KSTC 111130Z AUTO 10008KT 9SM BKN120 04/M01 A2963 1300 73 300 100/08 RMK AO2
14926KSTC STC20060311053510103/11/06 05:35:31  5-MIN KSTC 111135Z AUTO 09008KT 9SM BKN110 04/M01 A2962 1300 73 300 090/08 RMK AO2
14926KSTC STC20060311054010803/11/06 05:40:31  5-MIN KSTC 111140Z AUTO 11007KT 9SM SCT085 BKN110 03/M01 A2963 1290 76 200 110/07 RMK AO2
14926KSTC STC20060311054510803/11/06 05:45:31  5-MIN KSTC 111145Z AUTO 10008KT 9SM BKN085 OVC110 04/M01 A2963 1300 73 300 090/08 RMK AO2
14926KSTC STC20060311055014303/11/06 05:50:31  5-MIN KSTC 111150Z AUTO 10007KT 9SM BKN085 OVC110 04/M01 A2963 1290 73 300 100/07 RMK AO2 SLP049 T00391006 10044 20006 58017
14926KSTC STC20060311055511403/11/06 05:55:31  5-MIN KSTC 111155Z AUTO 09011KT 9SM BKN080 BKN100 OVC120 04/00 A2961 1310 76 300 090/11 RMK AO2
14926KSTC STC20060311060011403/11/06 06:00:31  5-MIN KSTC 111200Z AUTO 09012KT 9SM BKN070 OVC090 04/00 A2958 1340 76 400 080/12 RMK AO2 PRESFR
14926KSTC STC20060311060513003/11/06 06:05:31  5-MIN KSTC 111205Z AUTO 08013KT 9SM -RA BKN065 OVC090 04/00 A2957 1350 76 400 080/13 RMK AO2 RAB01 PRESFR P0000
14926KSTC STC20060311061013003/11/06 06:10:31  5-MIN KSTC 111210Z AUTO 09011KT 9SM -RA SCT065 OVC095 04/00 A2956 1360 76 400 090/11 RMK AO2 RAB01 PRESFR P0000
14926KSTC STC20060311061512303/11/06 06:15:31  5-MIN KSTC 111215Z AUTO 10010KT 10SM SCT065 OVC095 04/00 A2958 1350 76 400 090/10 RMK AO2 RAB01E15 P0000
14926KSTC STC20060311062012903/11/06 06:20:31  5-MIN KSTC 111220Z AUTO 10010G17KT 10SM SCT060 OVC090 04/00 A2959 1330 76 400 100/10G17 RMK AO2 RAB01E15 P0000
14926KSTC STC20060311062512803/11/06 06:25:31  5-MIN KSTC 111225Z AUTO 11010G17KT 9SM FEW050 OVC090 04/00 A2959 1330 76 400 110/10G17 RMK AO2 RAB01E15 P0000
14926KSTC STC20060311063012803/11/06 06:30:31  5-MIN KSTC 111230Z AUTO 11008G15KT 9SM BKN090 OVC120 04/00 A2959 1330 76 300 110/08G15 RMK AO2 RAB01E15 P0000
14926KSTC STC20060311063511503/11/06 06:35:31  5-MIN KSTC 111235Z AUTO 11007KT 9SM OVC090 04/00 A2959 1330 76 300 100/07 RMK AO2 RAB01E15 P0000
14926KSTC STC20060311064011703/11/06 06:40:31  5-MIN KSTC 111240Z 12008KT 9SM BKN090 OVC110 04/00 A2960 1330 76 300 120/08 RMK AO2 RAB01E15 P0000
14926KSTC STC20060311064511703/11/06 06:45:31  5-MIN KSTC 111245Z 15006KT 8SM BKN085 OVC110 04/01 A2961 1320 79 300 140/06 RMK AO2 RAB01E15 P0000
14926KSTC STC20060311065013403/11/06 06:50:31  5-MIN KSTC 111250Z 16006KT 7SM BKN085 OVC110 04/01 A2961 1310 79 300 160/06 RMK AO2 RAB01E15 SLP044 P0000 T00390006
14926KSTC STC20060311065510503/11/06 06:55:31  5-MIN KSTC 111255Z 15005KT 6SM HZ BKN080 OVC110 03/01 A2961 1320 82 300 150/05 RMK AO2
14926KSTC STC20060311070009803/11/06 07:00:31  5-MIN KSTC 111300Z 13004KT 6SM HZ OVC080 03/01 A2960 1320 82 300 130/04 RMK AO2
14926KSTC STC20060311070509803/11/06 07:05:31  5-MIN KSTC 111305Z 13006KT 6SM HZ BKN080 04/01 A2960 1330 79 300 120/06 RMK AO2
14926KSTC STC20060311071009803/11/06 07:10:31  5-MIN KSTC 111310Z 15007KT 6SM HZ BKN075 04/01 A2961 1320 79 300 150/07 RMK AO2
14926KSTC STC20060311071510503/11/06 07:15:31  5-MIN KSTC 111315Z 16007KT 6SM HZ BKN070 OVC080 04/01 A2961 1310 82 300 160/07 RMK AO2
14926KSTC STC20060311072011203/11/06 07:20:31  5-MIN KSTC 111320Z 18009KT 5SM HZ BKN065 OVC080 04/01 A2963 1300 79 400 180/09 RMK AO2 PRESRR
14926KSTC STC20060311072511203/11/06 07:25:31  5-MIN KSTC 111325Z 18008KT 5SM HZ BKN065 BKN080 04/01 A2963 1290 79 400 180/08 RMK AO2 PRESRR
14926KSTC STC20060311073010503/11/06 07:30:31  5-MIN KSTC 111330Z 17005KT 5SM HZ BKN065 BKN075 04/01 A2963 1300 82 300 170/05 RMK AO2
14926KSTC STC20060311073510503/11/06 07:35:31  5-MIN KSTC 111335Z 17004KT 5SM HZ SCT049 OVC065 04/01 A2963 1300 82 300 170/04 RMK AO2
14926KSTC STC20060311074011203/11/06 07:40:31  5-MIN KSTC 111340Z 20004KT 5SM HZ FEW017 BKN049 OVC065 04/01 A2964 1290 82 300 200/04 RMK AO2
14926KSTC STC20060311074511203/11/06 07:45:31  5-MIN KSTC 111345Z 19004KT 5SM BR SCT017 BKN049 OVC065 03/01 A2963 1290 85 200 190/04 RMK AO2
14926KSTC STC20060311075012903/11/06 07:50:31  5-MIN KSTC 111350Z 10007KT 5SM BR SCT017 BKN047 BKN060 03/01 A2961 1310 85 300 100/07 RMK AO2 SLP044 T00330011
14926KSTC STC20060311075511903/11/06 07:55:31  5-MIN KSTC 111355Z 09010KT 5SM HZ FEW017 SCT047 BKN060 04/02 A2956 1360 82 500 090/10 RMK AO2 PRESFR
14926KSTC STC20060311080011803/11/06 08:00:31  5-MIN KSTC 111400Z 09012G17KT 5SM BR FEW017 SCT047 04/02 A2953 1380 85 400 090/12G17 RMK AO2 PRESFR
14926KSTC STC20060311080509803/11/06 08:05:31  5-MIN KSTC 111405Z 10013KT 5SM HZ FEW017 04/02 A2953 1390 82 500 100/13 RMK AO2
14926KSTC STC20060311081009803/11/06 08:10:31  5-MIN KSTC 111410Z 10012KT 5SM HZ FEW017 04/02 A2953 1390 82 500 100/12 RMK AO2
14926KSTC STC20060311081509503/11/06 08:15:31  5-MIN KSTC 111415Z 10010KT 5SM HZ CLR 04/02 A2953 1390 82 500 090/10 RMK AO2
14926KSTC STC20060311082010103/11/06 08:20:31  5-MIN KSTC 111420Z 11011G18KT 5SM HZ CLR 05/02 A2953 1390 82 600 110/11G18 RMK AO2
14926KSTC STC20060311082510103/11/06 08:25:31  5-MIN KSTC 111425Z 13010G18KT 5SM HZ CLR 05/02 A2954 1380 82 500 130/10G18 RMK AO2
14926KSTC STC20060311083009503/11/06 08:30:31  5-MIN KSTC 111430Z 14010KT 5SM HZ CLR 05/02 A2955 1370 82 500 130/10 RMK AO2
14926KSTC STC20060311083510203/11/06 08:35:31  5-MIN KSTC 111435Z 14013KT 5SM HZ CLR 05/02 A2955 1370 82 500 140/13 RMK AO2 PRESRR
14926KSTC STC20060311084010203/11/06 08:40:31  5-MIN KSTC 111440Z 16011KT 5SM HZ CLR 05/02 A2957 1350 82 500 150/11 RMK AO2 PRESRR
14926KSTC STC20060311084510503/11/06 08:45:31  5-MIN KSTC 111445Z 16011KT 5SM HZ FEW026 06/03 A2958 1340 82 600 160/11 RMK AO2 PRESRR
14926KSTC STC20060311085013403/11/06 08:50:31  5-MIN KSTC 111450Z 17011KT 5SM HZ SCT026 06/03 A2959 1330 82 600 170/11 RMK AO2 PRESRR SLP036 60000 T00560028 56023
14926KSTC STC20060311085510503/11/06 08:55:31  5-MIN KSTC 111455Z 17011KT 5SM HZ FEW017 BKN026 06/03 A2958 1340 82 600 170/11 RMK AO2
14926KSTC STC20060311090011203/11/06 09:00:31  5-MIN KSTC 111500Z 16010KT 5SM BR SCT017 SCT022 BKN026 05/03 A2958 1350 85 500 160/10 RMK AO2
14926KSTC STC20060311090510503/11/06 09:05:31  5-MIN KSTC 111505Z 16010KT 5SM BR SCT017 BKN026 05/03 A2959 1340 85 500 160/10 RMK AO2
14926KSTC STC20060311091011203/11/06 09:10:31  5-MIN KSTC 111510Z 17010KT 5SM BR BKN017 BKN022 OVC026 05/03 A2959 1330 85 500 160/10 RMK AO2
14926KSTC STC20060311091511203/11/06 09:15:31  5-MIN KSTC 111515Z 17011KT 5SM BR BKN017 BKN022 OVC028 05/03 A2959 1340 85 500 170/11 RMK AO2
14926KSTC STC20060311092010503/11/06 09:20:31  5-MIN KSTC 111520Z 17010KT 5SM BR BKN015 OVC024 05/03 A2959 1340 85 500 170/10 RMK AO2
14926KSTC STC20060311092509803/11/06 09:25:31  5-MIN KSTC 111525Z 17010KT 5SM BR OVC015 05/03 A2959 1330 85 500 160/10 RMK AO2
14926KSTC STC20060311093009803/11/06 09:30:31  5-MIN KSTC 111530Z 16007KT 5SM BR OVC015 05/03 A2958 1340 85 500 160/07 RMK AO2
14926KSTC STC20060311093509803/11/06 09:35:31  5-MIN KSTC 111535Z 17008KT 5SM BR OVC015 05/03 A2958 1340 85 500 170/08 RMK AO2
14926KSTC STC20060311094009803/11/06 09:40:31  5-MIN KSTC 111540Z 16008KT 5SM HZ OVC015 06/03 A2959 1340 82 600 160/08 RMK AO2
14926KSTC STC20060311094509803/11/06 09:45:31  5-MIN KSTC 111545Z 17010KT 5SM HZ OVC015 06/03 A2959 1330 82 500 160/10 RMK AO2
14926KSTC STC20060311095009803/11/06 09:50:31  5-MIN KSTC 111550Z 17009KT 5SM HZ OVC013 06/03 A2959 1330 82 600 170/09 RMK AO2
14926KSTC STC20060311095509803/11/06 09:55:31  5-MIN KSTC 111555Z 18010KT 5SM HZ OVC013 06/03 A2959 1330 82 600 170/10 RMK AO2
14926KSTC STC20060311100009803/11/06 10:00:31  5-MIN KSTC 111600Z 17008KT 5SM HZ OVC013 06/03 A2959 1340 82 600 170/08 RMK AO2
14926KSTC STC20060311100509803/11/06 10:05:31  5-MIN KSTC 111605Z 17011KT 5SM HZ OVC013 07/03 A2959 1330 79 700 170/11 RMK AO2
14926KSTC STC20060311101009803/11/06 10:10:31  5-MIN KSTC 111610Z 18010KT 5SM HZ OVC013 07/03 A2959 1330 79 700 170/10 RMK AO2
14926KSTC STC20060311101509803/11/06 10:15:31  5-MIN KSTC 111615Z 18011KT 5SM HZ OVC013 07/04 A2959 1330 82 700 170/11 RMK AO2
14926KSTC STC20060311102009803/11/06 10:20:31  5-MIN KSTC 111620Z 17013KT 5SM HZ OVC013 07/04 A2959 1330 82 700 170/13 RMK AO2
14926KSTC STC20060311102509803/11/06 10:25:31  5-MIN KSTC 111625Z 18013KT 5SM HZ OVC013 07/04 A2960 1320 82 700 180/13 RMK AO2
14926KSTC STC20060311103009803/11/06 10:30:31  5-MIN KSTC 111630Z 18014KT 5SM HZ OVC013 07/04 A2960 1320 82 700 180/14 RMK AO2
14926KSTC STC20060311103509803/11/06 10:35:31  5-MIN KSTC 111635Z 18010KT 5SM HZ OVC013 07/04 A2960 1330 82 700 180/10 RMK AO2
14926KSTC STC20060311104009803/11/06 10:40:31  5-MIN KSTC 111640Z 19011KT 5SM HZ OVC013 07/04 A2959 1330 79 800 180/11 RMK AO2
14926KSTC STC20060311104509803/11/06 10:45:31  5-MIN KSTC 111645Z 18013KT 5SM HZ OVC013 07/04 A2959 1330 79 800 180/13 RMK AO2
14926KSTC STC20060311105011503/11/06 10:50:31  5-MIN KSTC 111650Z 19013KT 5SM HZ OVC013 08/04 A2960 1330 79 800 190/13 RMK AO2 SLP038 T00780044
14926KSTC STC20060311105509803/11/06 10:55:31  5-MIN KSTC 111655Z 20013KT 5SM HZ OVC013 07/04 A2960 1320 79 700 190/13 RMK AO2
14926KSTC STC20060311110009803/11/06 11:00:31  5-MIN KSTC 111700Z 20013KT 5SM HZ OVC015 07/04 A2960 1320 82 700 200/13 RMK AO2
14926KSTC STC20060311110509803/11/06 11:05:31  5-MIN KSTC 111705Z 19011KT 5SM HZ OVC015 08/04 A2960 1320 79 800 190/11 RMK AO2
14926KSTC STC20060311111009803/11/06 11:10:31  5-MIN KSTC 111710Z 20013KT 5SM HZ OVC015 08/04 A2961 1320 79 800 200/13 RMK AO2
14926KSTC STC20060311111509803/11/06 11:15:31  5-MIN KSTC 111715Z 21012KT 5SM HZ OVC015 07/04 A2961 1310 79 700 210/12 RMK AO2
14926KSTC STC20060311112009803/11/06 11:20:31  5-MIN KSTC 111720Z 22014KT 5SM HZ OVC015 07/04 A2961 1310 79 700 220/14 RMK AO2
14926KSTC STC20060311112509803/11/06 11:25:31  5-MIN KSTC 111725Z 23011KT 5SM HZ OVC015 07/04 A2961 1310 79 700 220/11 RMK AO2
14926KSTC STC20060311113009803/11/06 11:30:31  5-MIN KSTC 111730Z 22010KT 5SM HZ OVC015 07/04 A2961 1310 79 700 220/10 RMK AO2
14926KSTC STC20060311113509803/11/06 11:35:31  5-MIN KSTC 111735Z 23012KT 5SM HZ OVC015 07/03 A2962 1310 79 700 220/12 RMK AO2
14926KSTC STC20060311114009803/11/06 11:40:31  5-MIN KSTC 111740Z 23013KT 5SM HZ OVC015 07/03 A2962 1300 79 700 230/13 RMK AO2
14926KSTC STC20060311114509803/11/06 11:45:31  5-MIN KSTC 111745Z 23013KT 5SM HZ OVC015 07/03 A2962 1300 79 600 220/13 RMK AO2
14926KSTC STC20060311115013903/11/06 11:50:31  5-MIN KSTC 111750Z 23011KT 5SM HZ OVC015 07/03 A2963 1300 79 600 230/11 RMK AO2 SLP049 60000 T00670033 10078 20033 56013
14926KSTC STC20060311115509803/11/06 11:55:31  5-MIN KSTC 111755Z 23012KT 6SM HZ OVC015 07/03 A2963 1300 79 600 230/12 RMK AO2
14926KSTC STC20060311120009803/11/06 12:00:31  5-MIN KSTC 111800Z 24014KT 5SM HZ OVC015 07/03 A2963 1290 79 600 240/14 RMK AO2
14926KSTC STC20060311120509803/11/06 12:05:31  5-MIN KSTC 111805Z 24016KT 5SM HZ OVC015 07/03 A2963 1290 79 600 240/16 RMK AO2
14926KSTC STC20060311121009803/11/06 12:10:31  5-MIN KSTC 111810Z 24018KT 5SM HZ OVC015 07/03 A2964 1290 76 600 240/18 RMK AO2
14926KSTC STC20060311121509803/11/06 12:15:31  5-MIN KSTC 111815Z 24015KT 5SM HZ OVC015 07/03 A2965 1280 76 600 230/15 RMK AO2
14926KSTC STC20060311122009803/11/06 12:20:31  5-MIN KSTC 111820Z 23016KT 5SM HZ OVC015 07/03 A2965 1280 76 600 230/16 RMK AO2
14926KSTC STC20060311122509803/11/06 12:25:31  5-MIN KSTC 111825Z 24014KT 5SM HZ OVC015 06/03 A2966 1270 79 500 240/14 RMK AO2
14926KSTC STC20060311123009803/11/06 12:30:31  5-MIN KSTC 111830Z 24014KT 5SM HZ OVC015 06/03 A2966 1270 79 500 230/14 RMK AO2
14926KSTC STC20060311123509803/11/06 12:35:31  5-MIN KSTC 111835Z 24012KT 5SM HZ OVC015 06/03 A2966 1270 79 500 240/12 RMK AO2
14926KSTC STC20060311124009803/11/06 12:40:31  5-MIN KSTC 111840Z 24010KT 5SM HZ OVC015 06/03 A2966 1270 79 500 240/10 RMK AO2
14926KSTC STC20060311124509803/11/06 12:45:31  5-MIN KSTC 111845Z 24011KT 5SM HZ OVC015 06/03 A2966 1270 79 500 240/11 RMK AO2
14926KSTC STC20060311125011503/11/06 12:50:31  5-MIN KSTC 111850Z 24012KT 5SM HZ OVC015 06/03 A2966 1270 79 500 240/12 RMK AO2 SLP060 T00610028
14926KSTC STC20060311125509803/11/06 12:55:31  5-MIN KSTC 111855Z 25014KT 5SM HZ OVC015 06/03 A2966 1260 79 500 250/14 RMK AO2
14926KSTC STC20060311130009803/11/06 13:00:31  5-MIN KSTC 111900Z 26014KT 6SM HZ OVC015 06/02 A2966 1270 76 500 260/14 RMK AO2
14926KSTC STC20060311130510403/11/06 13:05:31  5-MIN KSTC 111905Z 25016G21KT 6SM HZ OVC015 06/02 A2967 1260 79 500 250/16G21 RMK AO2
14926KSTC STC20060311131010403/11/06 13:10:31  5-MIN KSTC 111910Z 26015G21KT 6SM HZ OVC015 06/02 A2967 1260 79 500 260/15G21 RMK AO2
14926KSTC STC20060311131510403/11/06 13:15:31  5-MIN KSTC 111915Z 26017G23KT 6SM HZ OVC015 04/02 A2967 1260 82 300 260/17G23 RMK AO2
14926KSTC STC20060311132010403/11/06 13:20:31  5-MIN KSTC 111920Z 26014G23KT 5SM HZ OVC013 05/02 A2967 1250 79 400 250/14G23 RMK AO2
14926KSTC STC20060311132509803/11/06 13:25:31  5-MIN KSTC 111925Z 27013KT 6SM HZ OVC013 05/02 A2968 1250 79 400 270/13 RMK AO2
14926KSTC STC20060311133009803/11/06 13:30:31  5-MIN KSTC 111930Z 27016KT 6SM HZ OVC013 05/02 A2968 1250 79 400 260/16 RMK AO2
14926KSTC STC20060311133509803/11/06 13:35:31  5-MIN KSTC 111935Z 26017KT 6SM HZ OVC013 05/02 A2968 1250 79 400 260/17 RMK AO2
14926KSTC STC20060311134009803/11/06 13:40:31  5-MIN KSTC 111940Z 26015KT 6SM HZ OVC013 04/01 A2969 1240 79 300 260/15 RMK AO2
14926KSTC STC20060311134510203/11/06 13:45:31  5-MIN KSTC 111945Z 26015KT 7SM BKN013 OVC020 04/01 A2969 1240 79 300 260/15 RMK AO2
14926KSTC STC20060311135009503/11/06 13:50:31  5-MIN KSTC 111950Z 28014KT 9SM OVC016 04/01 A2969 1240 76 300 270/14 RMK AO2
14926KSTC STC20060311135509603/11/06 13:55:31  5-MIN KSTC 111955Z 26015KT 10SM OVC016 04/01 A2969 1240 76 300 250/15 RMK AO2
14926KSTC STC20060311140009603/11/06 14:00:31  5-MIN KSTC 112000Z 27014KT 10SM OVC016 04/01 A2970 1230 76 300 260/14 RMK AO2
14926KSTC STC20060311140509603/11/06 14:05:31  5-MIN KSTC 112005Z 27013KT 10SM OVC018 04/01 A2970 1230 76 300 260/13 RMK AO2
14926KSTC STC20060311141009603/11/06 14:10:31  5-MIN KSTC 112010Z 28015KT 10SM OVC018 04/00 A2970 1230 73 300 270/15 RMK AO2
14926KSTC STC20060311141509603/11/06 14:15:31  5-MIN KSTC 112015Z 27013KT 10SM OVC018 04/00 A2971 1220 73 300 270/13 RMK AO2
14926KSTC STC20060311142009603/11/06 14:20:31  5-MIN KSTC 112020Z 27017KT 10SM OVC018 04/00 A2971 1220 73 300 270/17 RMK AO2
14926KSTC STC20060311142509603/11/06 14:25:31  5-MIN KSTC 112025Z 27016KT 10SM OVC020 04/00 A2971 1220 73 300 270/16 RMK AO2
14926KSTC STC20060311143009603/11/06 14:30:31  5-MIN KSTC 112030Z 28013KT 10SM OVC020 04/00 A2972 1210 73 300 270/13 RMK AO2
14926KSTC STC20060311143509703/11/06 14:35:31  5-MIN KSTC 112035Z 28014KT 10SM OVC020 04/M01 A2972 1210 70 300 270/14 RMK AO2
14926KSTC STC20060311144010303/11/06 14:40:31  5-MIN KSTC 112040Z 29016G19KT 10SM OVC022 04/M01 A2973 1200 70 300 290/16G19 RMK AO2
14926KSTC STC20060311144510303/11/06 14:45:31  5-MIN KSTC 112045Z 27012G19KT 10SM OVC022 04/M01 A2973 1200 70 300 270/12G19 RMK AO2
14926KSTC STC20060311145013303/11/06 14:50:31  5-MIN KSTC 112050Z 29019G24KT 10SM OVC022 04/M01 A2974 1190 70 200 290/19G24 RMK AO2 PRESRR SLP088 T00441006 53014
14926KSTC STC20060311145510303/11/06 14:55:31  5-MIN KSTC 112055Z 29018G24KT 10SM OVC022 04/M01 A2974 1190 70 200 290/18G24 RMK AO2
14926KSTC STC20060311150009703/11/06 15:00:31  5-MIN KSTC 112100Z 28018KT 10SM OVC022 04/M01 A2975 1190 67 200 280/18 RMK AO2
14926KSTC STC20060311150509703/11/06 15:05:31  5-MIN KSTC 112105Z 28016KT 10SM OVC022 04/M01 A2975 1180 67 200 280/16 RMK AO2
14926KSTC STC20060311151009703/11/06 15:10:31  5-MIN KSTC 112110Z 28014KT 10SM OVC024 04/M01 A2976 1180 67 200 280/14 RMK AO2
14926KSTC STC20060311151510303/11/06 15:15:31  5-MIN KSTC 112115Z 27014G22KT 10SM OVC024 04/M01 A2976 1180 70 200 270/14G22 RMK AO2
14926KSTC STC20060311152010303/11/06 15:20:31  5-MIN KSTC 112120Z 29017G22KT 10SM OVC024 04/M01 A2977 1170 67 200 280/17G22 RMK AO2
14926KSTC STC20060311152510303/11/06 15:25:31  5-MIN KSTC 112125Z 29017G21KT 10SM OVC024 04/M01 A2977 1160 70 100 290/17G21 RMK AO2
14926KSTC STC20060311153010303/11/06 15:30:31  5-MIN KSTC 112130Z 30015G22KT 10SM OVC024 04/M01 A2978 1160 70 100 300/15G22 RMK AO2
14926KSTC STC20060311153510803/11/06 15:35:31  5-MIN KSTC 112135Z AUTO 29014G22KT 10SM OVC024 04/M01 A2978 1160 70 100 290/14G22 RMK AO2
14926KSTC STC20060311154010803/11/06 15:40:31  5-MIN KSTC 112140Z AUTO 28016G20KT 10SM OVC022 04/M01 A2978 1160 70 100 280/16G20 RMK AO2
14926KSTC STC20060311154510803/11/06 15:45:31  5-MIN KSTC 112145Z AUTO 29013G20KT 10SM OVC022 04/M01 A2978 1150 70 100 290/13G20 RMK AO2
14926KSTC STC20060311155012503/11/06 15:50:31  5-MIN KSTC 112150Z AUTO 29018G25KT 10SM OVC022 04/M02 A2979 1150 67 100 290/18G25 RMK AO2 SLP105 T00391017
14926KSTC STC20060311155510803/11/06 15:55:31  5-MIN KSTC 112155Z AUTO 29013G25KT 10SM OVC022 04/M02 A2979 1140 67 100 290/13G25 RMK AO2
14926KSTC STC20060311160010803/11/06 16:00:31  5-MIN KSTC 112200Z AUTO 29014G19KT 10SM OVC022 04/M01 A2979 1140 70 100 290/14G19 RMK AO2
14926KSTC STC20060311160510803/11/06 16:05:31  5-MIN KSTC 112205Z AUTO 30018G24KT 10SM OVC022 04/M02 A2980 1140 67 100 300/18G24 RMK AO2
14926KSTC STC20060311161010803/11/06 16:10:31  5-MIN KSTC 112210Z AUTO 29012G24KT 10SM OVC022 04/M01 A2980 1140 70 100 290/12G24 RMK AO2
14926KSTC STC20060311161510203/11/06 16:15:31  5-MIN KSTC 112215Z AUTO 29018KT 10SM OVC024 04/M01 A2980 1140 70 100 290/18 RMK AO2
14926KSTC STC20060311162010203/11/06 16:20:31  5-MIN KSTC 112220Z AUTO 29016KT 10SM OVC024 04/M01 A2981 1130 70 100 290/16 RMK AO2
14926KSTC STC20060311162510203/11/06 16:25:31  5-MIN KSTC 112225Z AUTO 29016KT 10SM OVC024 04/M02 A2981 1130 67 100 290/16 RMK AO2
14926KSTC STC20060311163010203/11/06 16:30:31  5-MIN KSTC 112230Z AUTO 30016KT 10SM OVC024 04/M02 A2982 1120 67 100 300/16 RMK AO2
14926KSTC STC20060311163510203/11/06 16:35:31  5-MIN KSTC 112235Z AUTO 29016KT 10SM OVC024 04/M02 A2982 1120 67 100 290/16 RMK AO2
14926KSTC STC20060311164010203/11/06 16:40:31  5-MIN KSTC 112240Z AUTO 29014KT 10SM OVC024 04/M02 A2982 1120 67 100 290/14 RMK AO2
14926KSTC STC20060311164510803/11/06 16:45:31  5-MIN KSTC 112245Z AUTO 28017G21KT 10SM OVC024 04/M02 A2983 1110 67 100 280/17G21 RMK AO2
14926KSTC STC20060311165012503/11/06 16:50:31  5-MIN KSTC 112250Z AUTO 29013G21KT 10SM OVC024 04/M01 A2983 1110 70 100 290/13G21 RMK AO2 SLP117 T00391011
14926KSTC STC20060311165510203/11/06 16:55:31  5-MIN KSTC 112255Z AUTO 29012KT 10SM BKN024 04/M01 A2983 1110 70 100 290/12 RMK AO2
14926KSTC STC20060311170010803/11/06 17:00:31  5-MIN KSTC 112300Z AUTO 31015G21KT 10SM BKN024 04/M02 A2983 1110 67 100 300/15G21 RMK AO2
14926KSTC STC20060311170510803/11/06 17:05:31  5-MIN KSTC 112305Z AUTO 30014G21KT 10SM SCT024 04/M02 A2984 1100 67 100 290/14G21 RMK AO2
14926KSTC STC20060311171010203/11/06 17:10:31  5-MIN KSTC 112310Z AUTO 30014KT 10SM FEW024 04/M02 A2984 1100 67 100 290/14 RMK AO2
14926KSTC STC20060311171510203/11/06 17:15:31  5-MIN KSTC 112315Z AUTO 29012KT 10SM FEW024 04/M02 A2984 1100 67 100 290/12 RMK AO2
14926KSTC STC20060311172009703/11/06 17:20:31  5-MIN KSTC 112320Z AUTO 29011KT 10SM CLR 03/M02 A2984 1100 70 0 290/11 RMK AO2
14926KSTC STC20060311172510003/11/06 17:25:31  5-MIN KSTC 112325Z AUTO 29010KT 10SM FEW030 03/M02 A2985 1090 70 0 280/10 RMK AO2
14926KSTC STC20060311173010003/11/06 17:30:31  5-MIN KSTC 112330Z AUTO 29010KT 10SM FEW030 03/M02 A2986 1090 70 0 290/10 RMK AO2
14926KSTC STC20060311173510703/11/06 17:35:31  5-MIN KSTC 112335Z AUTO 28009KT 10SM FEW030 03/M02 A2986 1080 70 0 280/09 RMK AO2 PRESRR
14926KSTC STC20060311174010003/11/06 17:40:31  5-MIN KSTC 112340Z AUTO 28010KT 10SM SCT030 03/M02 A2986 1080 70 0 280/10 RMK AO2
14926KSTC STC20060311174510003/11/06 17:45:31  5-MIN KSTC 112345Z AUTO 29013KT 10SM SCT030 03/M02 A2986 1080 70 0 290/13 RMK AO2
14926KSTC STC20060311175013503/11/06 17:50:31  5-MIN KSTC 112350Z AUTO 28014KT 10SM BKN030 03/M02 A2986 1080 70 0 270/14 RMK AO2 SLP130 T00331017 10067 20033 53038
14926KSTC STC20060311175510003/11/06 17:55:31  5-MIN KSTC 112355Z AUTO 28011KT 10SM BKN030 03/M02 A2986 1080 70 0 280/11 RMK AO2
14926KSTC STC20060311180010003/11/06 18:00:31  5-MIN KSTC 120000Z AUTO 28012KT 10SM BKN030 03/M02 A2987 1080 70 0 280/12 RMK AO2
14926KSTC STC20060311180510003/11/06 18:05:31  5-MIN KSTC 120005Z AUTO 28012KT 10SM BKN030 03/M02 A2987 1070 67 0 270/12 RMK AO2
14926KSTC STC20060311181010303/11/06 18:10:31  5-MIN KSTC 120010Z AUTO 28013KT 10SM BKN030 03/M02 A2987 1070 69 -100 280/13 RMK AO2
14926KSTC STC20060311181510303/11/06 18:15:31  5-MIN KSTC 120015Z AUTO 28013KT 10SM BKN030 03/M02 A2988 1070 69 -100 280/13 RMK AO2
14926KSTC STC20060311182010303/11/06 18:20:31  5-MIN KSTC 120020Z AUTO 28011KT 10SM SCT030 03/M02 A2988 1070 69 -100 280/11 RMK AO2
14926KSTC STC20060311182510303/11/06 18:25:31  5-MIN KSTC 120025Z AUTO 28010KT 10SM FEW030 02/M02 A2988 1070 72 -100 270/10 RMK AO2
14926KSTC STC20060311183010303/11/06 18:30:31  5-MIN KSTC 120030Z AUTO 28010KT 10SM FEW030 02/M02 A2988 1060 72 -100 280/10 RMK AO2
14926KSTC STC20060311183510303/11/06 18:35:31  5-MIN KSTC 120035Z AUTO 28011KT 10SM FEW030 02/M02 A2988 1060 72 -100 280/11 RMK AO2
14926KSTC STC20060311184010303/11/06 18:40:31  5-MIN KSTC 120040Z AUTO 28009KT 10SM FEW030 02/M03 A2989 1060 69 -100 280/09 RMK AO2
14926KSTC STC20060311184510003/11/06 18:45:31  5-MIN KSTC 120045Z AUTO 29010KT 10SM CLR 02/M03 A2989 1060 69 -200 290/10 RMK AO2
14926KSTC STC20060311185011703/11/06 18:50:31  5-MIN KSTC 120050Z AUTO 29010KT 10SM CLR 02/M03 A2989 1050 69 -200 280/10 RMK AO2 SLP140 T00221028
14926KSTC STC20060311185510003/11/06 18:55:31  5-MIN KSTC 120055Z AUTO 29009KT 10SM CLR 02/M03 A2990 1050 69 -200 280/09 RMK AO2
14926KSTC STC20060311190010003/11/06 19:00:31  5-MIN KSTC 120100Z AUTO 28009KT 10SM CLR 02/M03 A2990 1040 69 -200 280/09 RMK AO2
14926KSTC STC20060311190510003/11/06 19:05:31  5-MIN KSTC 120105Z AUTO 28008KT 10SM CLR 02/M03 A2991 1040 69 -200 280/08 RMK AO2
14926KSTC STC20060311191010003/11/06 19:10:31  5-MIN KSTC 120110Z AUTO 28009KT 10SM CLR 02/M03 A2991 1040 72 -200 280/09 RMK AO2
14926KSTC STC20060311191510003/11/06 19:15:31  5-MIN KSTC 120115Z AUTO 28008KT 10SM CLR 02/M03 A2991 1030 72 -200 270/08 RMK AO2
14926KSTC STC20060311192010003/11/06 19:20:31  5-MIN KSTC 120120Z AUTO 27009KT 10SM CLR 02/M03 A2992 1030 72 -300 270/09 RMK AO2
14926KSTC STC20060311192510003/11/06 19:25:31  5-MIN KSTC 120125Z AUTO 28009KT 10SM CLR 01/M03 A2992 1030 75 -300 270/09 RMK AO2
14926KSTC STC20060311193010003/11/06 19:30:31  5-MIN KSTC 120130Z AUTO 28009KT 10SM CLR 02/M03 A2992 1030 72 -300 270/09 RMK AO2
14926KSTC STC20060311193510003/11/06 19:35:31  5-MIN KSTC 120135Z AUTO 28007KT 10SM CLR 02/M03 A2992 1030 72 -300 270/07 RMK AO2
14926KSTC STC20060311194010003/11/06 19:40:31  5-MIN KSTC 120140Z AUTO 28008KT 10SM CLR 01/M03 A2992 1030 72 -300 270/08 RMK AO2
14926KSTC STC20060311194510003/11/06 19:45:31  5-MIN KSTC 120145Z AUTO 28007KT 10SM CLR 01/M03 A2992 1020 72 -300 270/07 RMK AO2
14926KSTC STC20060311195011703/11/06 19:50:31  5-MIN KSTC 120150Z AUTO 27007KT 10SM CLR 01/M03 A2993 1020 75 -400 270/07 RMK AO2 SLP153 T00061033
14926KSTC STC20060311195510003/11/06 19:55:31  5-MIN KSTC 120155Z AUTO 26007KT 10SM CLR 01/M03 A2993 1020 75 -400 260/07 RMK AO2
14926KSTC STC20060311200010003/11/06 20:00:31  5-MIN KSTC 120200Z AUTO 25006KT 10SM CLR 01/M03 A2994 1010 75 -400 250/06 RMK AO2
14926KSTC STC20060311200510003/11/06 20:05:31  5-MIN KSTC 120205Z AUTO 24006KT 10SM CLR 00/M03 A2994 1010 78 -500 240/06 RMK AO2
14926KSTC STC20060311201010003/11/06 20:10:31  5-MIN KSTC 120210Z AUTO 24006KT 10SM CLR 00/M03 A2994 1010 78 -500 240/06 RMK AO2
14926KSTC STC20060311201510003/11/06 20:15:31  5-MIN KSTC 120215Z AUTO 24006KT 10SM CLR 00/M03 A2994 1010 78 -500 230/06 RMK AO2
14926KSTC STC20060311202010003/11/06 20:20:31  5-MIN KSTC 120220Z AUTO 24006KT 10SM CLR 00/M03 A2994 1010 78 -500 230/06 RMK AO2
14926KSTC STC20060311202510003/11/06 20:25:31  5-MIN KSTC 120225Z AUTO 23005KT 10SM CLR 00/M03 A2995 1000 78 -500 230/05 RMK AO2
14926KSTC STC20060311203010003/11/06 20:30:31  5-MIN KSTC 120230Z AUTO 23006KT 10SM CLR 00/M03 A2995 1000 78 -500 230/06 RMK AO2
14926KSTC STC20060311203510003/11/06 20:35:31  5-MIN KSTC 120235Z AUTO 23007KT 10SM CLR 00/M03 A2995 1000 78 -500 230/07 RMK AO2
14926KSTC STC20060311204010003/11/06 20:40:31  5-MIN KSTC 120240Z AUTO 23006KT 10SM CLR 00/M03 A2995 1000 78 -500 220/06 RMK AO2
14926KSTC STC20060311204510103/11/06 20:45:31  5-MIN KSTC 120245Z AUTO 22006KT 10SM CLR M01/M03 A2995 1000 81 -600 220/06 RMK AO2
14926KSTC STC20060311205012403/11/06 20:50:31  5-MIN KSTC 120250Z AUTO 22006KT 10SM CLR M01/M03 A2995 1000 81 -600 220/06 RMK AO2 SLP161 T10061033 51040
14926KSTC STC20060311205510103/11/06 20:55:31  5-MIN KSTC 120255Z AUTO 22006KT 10SM CLR M01/M03 A2995 1000 81 -600 220/06 RMK AO2
14926KSTC STC20060311210010103/11/06 21:00:31  5-MIN KSTC 120300Z AUTO 23006KT 10SM CLR M01/M03 A2995 1000 81 -600 230/06 RMK AO2
14926KSTC STC20060311210510003/11/06 21:05:31  5-MIN KSTC 120305Z AUTO 22006KT 10SM CLR M01/M03 A2996 990 81 -600 220/06 RMK AO2
14926KSTC STC20060311211010003/11/06 21:10:31  5-MIN KSTC 120310Z AUTO 22006KT 10SM CLR M01/M03 A2996 990 81 -600 220/06 RMK AO2
14926KSTC STC20060311211510003/11/06 21:15:31  5-MIN KSTC 120315Z AUTO 22006KT 10SM CLR M01/M03 A2996 990 81 -600 210/06 RMK AO2
14926KSTC STC20060311212010003/11/06 21:20:31  5-MIN KSTC 120320Z AUTO 22006KT 10SM CLR M01/M03 A2996 990 85 -700 220/06 RMK AO2
14926KSTC STC20060311212510003/11/06 21:25:31  5-MIN KSTC 120325Z AUTO 22007KT 10SM CLR M01/M03 A2997 980 85 -700 220/07 RMK AO2
14926KSTC STC20060311213010003/11/06 21:30:31  5-MIN KSTC 120330Z AUTO 22006KT 10SM CLR M01/M03 A2997 980 81 -600 220/06 RMK AO2
14926KSTC STC20060311213510003/11/06 21:35:31  5-MIN KSTC 120335Z AUTO 23006KT 10SM CLR M01/M03 A2996 990 81 -600 220/06 RMK AO2
14926KSTC STC20060311214010003/11/06 21:40:31  5-MIN KSTC 120340Z AUTO 23006KT 10SM CLR M01/M03 A2996 990 85 -700 220/06 RMK AO2
14926KSTC STC20060311214510003/11/06 21:45:31  5-MIN KSTC 120345Z AUTO 23005KT 10SM CLR M01/M03 A2996 990 81 -600 220/05 RMK AO2
14926KSTC STC20060311215011703/11/06 21:50:31  5-MIN KSTC 120350Z AUTO 22006KT 10SM CLR M01/M03 A2997 980 85 -700 220/06 RMK AO2 SLP168 T10111033
14926KSTC STC20060311231010003/11/06 23:10:31  5-MIN KSTC 120510Z AUTO 00000KT 10SM CLR M02/M04 A2999 960 88 -800 000/00 RMK AO2
14926KSTC STC20060311231510003/11/06 23:15:31  5-MIN KSTC 120515Z AUTO 00000KT 10SM CLR M02/M04 A2999 960 88 -800 000/00 RMK AO2
14926KSTC STC20060311232010003/11/06 23:20:31  5-MIN KSTC 120520Z AUTO 00000KT 10SM CLR M02/M04 A2999 960 88 -800 000/00 RMK AO2
14926KSTC STC20060311232510003/11/06 23:25:31  5-MIN KSTC 120525Z AUTO 00000KT 10SM CLR M02/M04 A2998 970 88 -800 000/00 RMK AO2
14926KSTC STC20060311233010003/11/06 23:30:31  5-MIN KSTC 120530Z AUTO 00000KT 10SM CLR M02/M04 A2999 960 88 -800 000/00 RMK AO2
14926KSTC STC20060311233510003/11/06 23:35:31  5-MIN KSTC 120535Z AUTO 00000KT 10SM CLR M02/M03 A2999 960 92 -800 000/00 RMK AO2
14926KSTC STC20060311234010003/11/06 23:40:31  5-MIN KSTC 120540Z AUTO 20003KT 10SM CLR M03/M04 A2999 960 92 -900 190/03 RMK AO2
14926KSTC STC20060311234510003/11/06 23:45:31  5-MIN KSTC 120545Z AUTO 21003KT 10SM CLR M02/M04 A2999 960 88 -800 200/03 RMK AO2
14926KSTC STC20060311235014503/11/06 23:50:31  5-MIN KSTC 120550Z AUTO 21003KT 10SM CLR M03/M04 A3000 960 92 -900 210/03 RMK AO2 SLP176 T10281039 10033 21028 400781028 51029
14926KSTC STC20060311235510003/11/06 23:55:31  5-MIN KSTC 120555Z AUTO 21003KT 10SM CLR M03/M04 A3000 960 92 -900 210/03 RMK AO2
14926KSTC STC20060312000010003/12/06 00:00:32  5-MIN KSTC 120600Z AUTO 20003KT 10SM CLR M03/M04 A3000 950 92 -900 200/03 RMK AO2
14926KSTC STC20060312000510003/12/06 00:05:31  5-MIN KSTC 120605Z AUTO 20004KT 10SM CLR M03/M04 A3000 950 92 -900 200/04 RMK AO2
14926KSTC STC20060312001010003/12/06 00:10:31  5-MIN KSTC 120610Z AUTO 20003KT 10SM CLR M02/M04 A3000 950 88 -800 200/03 RMK AO2
14926KSTC STC20060312001510003/12/06 00:15:31  5-MIN KSTC 120615Z AUTO 19003KT 10SM CLR M02/M04 A3000 950 88 -800 190/03 RMK AO2
14926KSTC STC20060312002010003/12/06 00:20:31  5-MIN KSTC 120620Z AUTO 19004KT 10SM CLR M02/M03 A3000 950 92 -800 180/04 RMK AO2
14926KSTC STC20060312002510003/12/06 00:25:31  5-MIN KSTC 120625Z AUTO 18003KT 10SM CLR M02/M03 A3000 950 92 -800 180/03 RMK AO2
14926KSTC STC20060312003010003/12/06 00:30:31  5-MIN KSTC 120630Z AUTO 18003KT 10SM CLR M02/M04 A3000 950 88 -800 180/03 RMK AO2
14926KSTC STC20060312003510003/12/06 00:35:31  5-MIN KSTC 120635Z AUTO 17004KT 10SM CLR M02/M03 A3000 950 92 -800 170/04 RMK AO2
14926KSTC STC20060312004010003/12/06 00:40:31  5-MIN KSTC 120640Z AUTO 18004KT 10SM CLR M02/M03 A3000 950 92 -800 170/04 RMK AO2
14926KSTC STC20060312004510003/12/06 00:45:31  5-MIN KSTC 120645Z AUTO 18004KT 10SM CLR M02/M04 A3001 950 88 -800 180/04 RMK AO2
14926KSTC STC20060312005011703/12/06 00:50:31  5-MIN KSTC 120650Z AUTO 18004KT 10SM CLR M02/M04 A3001 950 88 -800 180/04 RMK AO2 SLP180 T10221039
14926KSTC STC20060312005510003/12/06 00:55:31  5-MIN KSTC 120655Z AUTO 17004KT 10SM CLR M02/M04 A3000 950 88 -800 170/04 RMK AO2
14926KSTC STC20060312010010003/12/06 01:00:31  5-MIN KSTC 120700Z AUTO 18004KT 10SM CLR M02/M04 A3001 950 88 -800 180/04 RMK AO2
14926KSTC STC20060312010510003/12/06 01:05:31  5-MIN KSTC 120705Z AUTO 18004KT 10SM CLR M02/M04 A3001 950 88 -800 170/04 RMK AO2
14926KSTC STC20060312011010003/12/06 01:10:31  5-MIN KSTC 120710Z AUTO 18004KT 10SM CLR M02/M03 A3001 950 92 -800 180/04 RMK AO2
14926KSTC STC20060312011510003/12/06 01:15:31  5-MIN KSTC 120715Z AUTO 18004KT 10SM CLR M02/M03 A3001 950 92 -800 180/04 RMK AO2
14926KSTC STC20060312012010003/12/06 01:20:31  5-MIN KSTC 120720Z AUTO 18003KT 10SM CLR M02/M03 A3001 950 92 -800 180/03 RMK AO2
14926KSTC STC20060312012510003/12/06 01:25:31  5-MIN KSTC 120725Z AUTO 18003KT 10SM CLR M02/M03 A3001 950 88 -800 180/03 RMK AO2
14926KSTC STC20060312013010003/12/06 01:30:31  5-MIN KSTC 120730Z AUTO 18004KT 10SM CLR M02/M03 A3001 940 92 -800 180/04 RMK AO2
14926KSTC STC20060312013510003/12/06 01:35:31  5-MIN KSTC 120735Z AUTO 18004KT 10SM CLR M02/M04 A3001 940 88 -800 180/04 RMK AO2
14926KSTC STC20060312014010003/12/06 01:40:31  5-MIN KSTC 120740Z AUTO 19003KT 10SM CLR M02/M04 A3001 950 88 -800 190/03 RMK AO2
14926KSTC STC20060312014510003/12/06 01:45:31  5-MIN KSTC 120745Z AUTO 00000KT 10SM CLR M02/M03 A3000 950 92 -800 000/00 RMK AO2
14926KSTC STC20060312015011703/12/06 01:50:31  5-MIN KSTC 120750Z AUTO 00000KT 10SM CLR M02/M04 A3000 950 88 -800 000/00 RMK AO2 SLP179 T10221039
14926KSTC STC20060312015510003/12/06 01:55:31  5-MIN KSTC 120755Z AUTO 00000KT 10SM CLR M02/M04 A3000 950 88 -800 000/00 RMK AO2
14926KSTC STC20060312020009903/12/06 02:00:31  5-MIN KSTC 120800Z AUTO 00000KT 9SM CLR M03/M04 A3000 950 92 -900 000/00 RMK AO2
14926KSTC STC20060312020509903/12/06 02:05:31  5-MIN KSTC 120805Z AUTO 00000KT 9SM CLR M03/M04 A3000 950 92 -900 000/00 RMK AO2
14926KSTC STC20060312021009903/12/06 02:10:31  5-MIN KSTC 120810Z AUTO 00000KT 8SM CLR M03/M04 A3000 950 92 -900 000/00 RMK AO2
14926KSTC STC20060312021510003/12/06 02:15:31  5-MIN KSTC 120815Z AUTO 19003KT 7SM CLR M03/M04 A3000 950 92 -1000 190/03 RMK AO2
14926KSTC STC20060312022010003/12/06 02:20:31  5-MIN KSTC 120820Z AUTO 00000KT 7SM CLR M04/M05 A3000 960 92 -1000 000/00 RMK AO2
14926KSTC STC20060312022509903/12/06 02:25:31  5-MIN KSTC 120825Z AUTO 00000KT 7SM CLR M03/M04 A3000 960 88 -900 000/00 RMK AO2
14926KSTC STC20060312023009903/12/06 02:30:31  5-MIN KSTC 120830Z AUTO 00000KT 7SM CLR M03/M04 A2999 960 88 -900 000/00 RMK AO2
14926KSTC STC20060312023510003/12/06 02:35:31  5-MIN KSTC 120835Z AUTO 00000KT 7SM CLR M03/M04 A2999 970 92 -1000 000/00 RMK AO2
14926KSTC STC20060312024010003/12/06 02:40:31  5-MIN KSTC 120840Z AUTO 00000KT 7SM CLR M03/M04 A2998 970 92 -1000 000/00 RMK AO2
14926KSTC STC20060312024510303/12/06 02:45:31  5-MIN KSTC 120845Z AUTO 00000KT 5SM BR CLR M03/M05 A2998 970 88 -1000 000/00 RMK AO2
14926KSTC STC20060312025012603/12/06 02:50:31  5-MIN KSTC 120850Z AUTO 00000KT 4SM BR CLR M03/M04 A2998 970 92 -1000 000/00 RMK AO2 SLP171 T10331044 51015
14926KSTC STC20060312025510203/12/06 02:55:31  5-MIN KSTC 120855Z AUTO 00000KT 5SM BR CLR M03/M04 A2998 980 92 -900 000/00 RMK AO2
14926KSTC STC20060312030010203/12/06 03:00:31  5-MIN KSTC 120900Z AUTO 00000KT 5SM BR CLR M03/M04 A2997 980 92 -900 000/00 RMK AO2
14926KSTC STC20060312030510303/12/06 03:05:31  5-MIN KSTC 120905Z AUTO 00000KT 5SM BR CLR M04/M05 A2997 980 92 -1000 000/00 RMK AO2
14926KSTC STC20060312031010303/12/06 03:10:31  5-MIN KSTC 120910Z AUTO 00000KT 5SM BR CLR M04/M05 A2997 980 96 -1100 000/00 RMK AO2
14926KSTC STC20060312031510303/12/06 03:15:31  5-MIN KSTC 120915Z AUTO 00000KT 5SM BR CLR M04/M05 A2997 980 92 -1000 000/00 RMK AO2
14926KSTC STC20060312032010303/12/06 03:20:31  5-MIN KSTC 120920Z AUTO 00000KT 6SM BR CLR M04/M05 A2997 980 92 -1000 000/00 RMK AO2
14926KSTC STC20060312032510303/12/06 03:25:31  5-MIN KSTC 120925Z AUTO 17003KT 6SM BR CLR M04/M06 A2998 970 92 -1100 170/03 RMK AO2
14926KSTC STC20060312033010003/12/06 03:30:31  5-MIN KSTC 120930Z AUTO 17003KT 7SM CLR M04/M06 A2998 970 92 -1100 170/03 RMK AO2
14926KSTC STC20060312033510303/12/06 03:35:31  5-MIN KSTC 120935Z AUTO 00000KT 6SM BR CLR M04/M05 A2998 970 92 -1000 000/00 RMK AO2
14926KSTC STC20060312034010303/12/06 03:40:31  5-MIN KSTC 120940Z AUTO 00000KT 6SM BR CLR M04/M05 A2998 970 92 -1000 000/00 RMK AO2
14926KSTC STC20060312034510303/12/06 03:45:31  5-MIN KSTC 120945Z AUTO 00000KT 5SM BR CLR M03/M04 A2999 960 92 -1000 000/00 RMK AO2
14926KSTC STC20060312035012003/12/06 03:50:31  5-MIN KSTC 120950Z AUTO 18003KT 6SM BR CLR M03/M04 A2999 960 92 -1000 180/03 RMK AO2 SLP175 T10331044
14926KSTC STC20060312035510303/12/06 03:55:31  5-MIN KSTC 120955Z AUTO 00000KT 6SM BR CLR M03/M04 A2998 970 92 -1000 000/00 RMK AO2
14926KSTC STC20060312040010203/12/06 04:00:31  5-MIN KSTC 121000Z AUTO 00000KT 6SM BR CLR M03/M04 A2998 970 92 -900 000/00 RMK AO2
14926KSTC STC20060312040510303/12/06 04:05:31  5-MIN KSTC 121005Z AUTO 00000KT 6SM BR CLR M03/M04 A2999 960 92 -1000 000/00 RMK AO2
14926KSTC STC20060312041009903/12/06 04:10:31  5-MIN KSTC 121010Z AUTO 00000KT 7SM CLR M03/M04 A2999 960 92 -900 000/00 RMK AO2
14926KSTC STC20060312041509903/12/06 04:15:31  5-MIN KSTC 121015Z AUTO 00000KT 7SM CLR M03/M04 A2999 960 92 -900 000/00 RMK AO2
14926KSTC STC20060312042010303/12/06 04:20:31  5-MIN KSTC 121020Z AUTO 00000KT 6SM BR CLR M03/M04 A2999 960 92 -1000 000/00 RMK AO2
14926KSTC STC20060312042510303/12/06 04:25:31  5-MIN KSTC 121025Z AUTO 18003KT 6SM BR CLR M03/M04 A3000 960 92 -1000 180/03 RMK AO2
14926KSTC STC20060312043010203/12/06 04:30:31  5-MIN KSTC 121030Z AUTO 17003KT 6SM BR CLR M03/M04 A2999 960 92 -900 170/03 RMK AO2
14926KSTC STC20060312043510203/12/06 04:35:31  5-MIN KSTC 121035Z AUTO 00000KT 6SM BR CLR M03/M04 A3000 950 92 -900 000/00 RMK AO2
14926KSTC STC20060312044010203/12/06 04:40:31  5-MIN KSTC 121040Z AUTO 00000KT 6SM BR CLR M03/M04 A3000 950 92 -900 000/00 RMK AO2
14926KSTC STC20060312044510303/12/06 04:45:31  5-MIN KSTC 121045Z AUTO 18003KT 5SM BR CLR M03/M04 A3000 950 96 -1000 170/03 RMK AO2
14926KSTC STC20060312045012003/12/06 04:50:31  5-MIN KSTC 121050Z AUTO 17005KT 5SM BR CLR M03/M04 A3001 940 92 -1000 170/05 RMK AO2 SLP182 T10331044
14926KSTC STC20060312045510303/12/06 04:55:31  5-MIN KSTC 121055Z AUTO 17004KT 5SM BR CLR M03/M04 A3001 940 92 -1000 170/04 RMK AO2
14926KSTC STC20060312050010303/12/06 05:00:31  5-MIN KSTC 121100Z AUTO 17004KT 6SM BR CLR M03/M04 A3002 940 92 -1000 170/04 RMK AO2
14926KSTC STC20060312050509903/12/06 05:05:31  5-MIN KSTC 121105Z AUTO 18004KT 7SM CLR M03/M04 A3002 930 92 -900 170/04 RMK AO2
14926KSTC STC20060312051009903/12/06 05:10:31  5-MIN KSTC 121110Z AUTO 17004KT 8SM CLR M03/M04 A3002 930 92 -900 170/04 RMK AO2
14926KSTC STC20060312051509903/12/06 05:15:31  5-MIN KSTC 121115Z AUTO 16005KT 9SM CLR M03/M04 A3003 930 92 -900 160/05 RMK AO2
14926KSTC STC20060312052009903/12/06 05:20:31  5-MIN KSTC 121120Z AUTO 16004KT 9SM CLR M03/M04 A3003 930 88 -900 160/04 RMK AO2
14926KSTC STC20060312052509903/12/06 05:25:31  5-MIN KSTC 121125Z AUTO 15003KT 9SM CLR M03/M04 A3003 930 88 -900 150/03 RMK AO2
14926KSTC STC20060312053009903/12/06 05:30:31  5-MIN KSTC 121130Z AUTO 00000KT 9SM CLR M03/M04 A3003 930 92 -900 000/00 RMK AO2
14926KSTC STC20060312053509903/12/06 05:35:31  5-MIN KSTC 121135Z AUTO 00000KT 9SM CLR M03/M04 A3002 940 92 -900 000/00 RMK AO2
14926KSTC STC20060312054010003/12/06 05:40:31  5-MIN KSTC 121140Z AUTO 00000KT 10SM CLR M02/M04 A3003 930 88 -900 000/00 RMK AO2
14926KSTC STC20060312054510003/12/06 05:45:31  5-MIN KSTC 121145Z AUTO 00000KT 10SM CLR M02/M04 A3002 930 88 -900 000/00 RMK AO2
14926KSTC STC20060312055013503/12/06 05:50:31  5-MIN KSTC 121150Z AUTO 00000KT 10SM CLR M02/M04 A3002 930 88 -900 000/00 RMK AO2 SLP187 T10221039 11017 21044 58007
14926KSTC STC20060312055510003/12/06 05:55:31  5-MIN KSTC 121155Z AUTO 00000KT 10SM CLR M03/M04 A3003 920 92 -900 000/00 RMK AO2
14926KSTC STC20060312060009903/12/06 06:00:31  5-MIN KSTC 121200Z AUTO 00000KT 9SM CLR M03/M04 A3003 920 88 -900 000/00 RMK AO2
14926KSTC STC20060312060509903/12/06 06:05:31  5-MIN KSTC 121205Z AUTO 00000KT 8SM CLR M03/M04 A3003 920 88 -900 000/00 RMK AO2
14926KSTC STC20060312061009903/12/06 06:10:31  5-MIN KSTC 121210Z AUTO 00000KT 8SM CLR M03/M04 A3002 930 88 -900 000/00 RMK AO2
14926KSTC STC20060312061510003/12/06 06:15:31  5-MIN KSTC 121215Z AUTO 00000KT 7SM CLR M04/M05 A3003 930 92 -1100 000/00 RMK AO2
14926KSTC STC20060312062010003/12/06 06:20:31  5-MIN KSTC 121220Z AUTO 00000KT 7SM CLR M03/M05 A3003 920 88 -1000 000/00 RMK AO2
14926KSTC STC20060312062510003/12/06 06:25:31  5-MIN KSTC 121225Z AUTO 00000KT 7SM CLR M03/M04 A3003 930 92 -1000 000/00 RMK AO2
14926KSTC STC20060312063010003/12/06 06:30:31  5-MIN KSTC 121230Z AUTO 00000KT 7SM CLR M03/M04 A3003 920 92 -1000 000/00 RMK AO2
14926KSTC STC20060312063510003/12/06 06:35:31  5-MIN KSTC 121235Z AUTO 00000KT 7SM CLR M03/M04 A3003 930 92 -1000 000/00 RMK AO2
14926KSTC STC20060312064010003/12/06 06:40:31  5-MIN KSTC 121240Z AUTO 00000KT 7SM CLR M03/M04 A3003 920 92 -1000 000/00 RMK AO2
14926KSTC STC20060312064510303/12/06 06:45:31  5-MIN KSTC 121245Z AUTO 00000KT 6SM BR CLR M04/M05 A3002 930 92 -1100 000/00 RMK AO2
14926KSTC STC20060312065012003/12/06 06:50:31  5-MIN KSTC 121250Z AUTO 00000KT 5SM BR CLR M04/M06 A3002 930 88 -1100 000/00 RMK AO2 SLP188 T10391056
14926KSTC STC20060312065509803/12/06 06:55:31  5-MIN KSTC 121255Z 00000KT 5SM BR CLR M04/M06 A3001 940 88 -1100 000/00 RMK AO2
14926KSTC STC20060312070009803/12/06 07:00:31  5-MIN KSTC 121300Z 00000KT 5SM BR CLR M04/M06 A3002 940 92 -1100 000/00 RMK AO2
14926KSTC STC20060312070509803/12/06 07:05:31  5-MIN KSTC 121305Z 00000KT 5SM BR CLR M04/M05 A3002 940 92 -1100 000/00 RMK AO2
14926KSTC STC20060312071009803/12/06 07:10:31  5-MIN KSTC 121310Z 00000KT 5SM BR CLR M04/M05 A3002 930 92 -1100 000/00 RMK AO2
14926KSTC STC20060312071509803/12/06 07:15:31  5-MIN KSTC 121315Z 00000KT 5SM BR CLR M04/M05 A3003 930 92 -1100 000/00 RMK AO2
14926KSTC STC20060312072009803/12/06 07:20:31  5-MIN KSTC 121320Z 00000KT 5SM BR CLR M03/M04 A3003 930 92 -1000 000/00 RMK AO2
14926KSTC STC20060312072509803/12/06 07:25:31  5-MIN KSTC 121325Z 00000KT 5SM BR CLR M03/M04 A3002 930 92 -1000 000/00 RMK AO2
14926KSTC STC20060312073009803/12/06 07:30:31  5-MIN KSTC 121330Z 00000KT 5SM BR CLR M03/M05 A3002 930 88 -1000 000/00 RMK AO2
14926KSTC STC20060312073509803/12/06 07:35:31  5-MIN KSTC 121335Z 00000KT 5SM BR CLR M03/M05 A3002 930 88 -1000 000/00 RMK AO2
14926KSTC STC20060312074009703/12/06 07:40:31  5-MIN KSTC 121340Z 00000KT 5SM BR CLR M03/M04 A3002 940 88 -900 000/00 RMK AO2
14926KSTC STC20060312074509703/12/06 07:45:31  5-MIN KSTC 121345Z 00000KT 5SM BR CLR M02/M03 A3002 930 92 -900 000/00 RMK AO2
14926KSTC STC20060312075011403/12/06 07:50:31  5-MIN KSTC 121350Z 00000KT 5SM BR CLR M02/M03 A3003 930 92 -800 000/00 RMK AO2 SLP189 T10171028
14926KSTC STC20060312075509703/12/06 07:55:31  5-MIN KSTC 121355Z 00000KT 5SM BR CLR M01/M02 A3003 930 92 -700 000/00 RMK AO2
14926KSTC STC20060312080009703/12/06 08:00:31  5-MIN KSTC 121400Z 00000KT 6SM BR CLR M01/M02 A3003 930 92 -700 000/00 RMK AO2
14926KSTC STC20060312080509703/12/06 08:05:31  5-MIN KSTC 121405Z 00000KT 6SM BR CLR M01/M02 A3003 920 92 -700 000/00 RMK AO2
14926KSTC STC20060312081009703/12/06 08:10:31  5-MIN KSTC 121410Z 00000KT 6SM BR CLR M01/M02 A3003 920 92 -700 000/00 RMK AO2
14926KSTC STC20060312081509703/12/06 08:15:31  5-MIN KSTC 121415Z 00000KT 7SM FEW120 M01/M02 A3003 920 88 -700 000/00 RMK AO2
14926KSTC STC20060312082009403/12/06 08:20:31  5-MIN KSTC 121420Z 00000KT 8SM CLR M01/M02 A3004 920 92 -700 000/00 RMK AO2
14926KSTC STC20060312082509403/12/06 08:25:31  5-MIN KSTC 121425Z 00000KT 8SM CLR M01/M02 A3004 910 92 -700 000/00 RMK AO2
14926KSTC STC20060312083009503/12/06 08:30:31  5-MIN KSTC 121430Z 00000KT 10SM CLR M01/M02 A3005 910 92 -700 000/00 RMK AO2
14926KSTC STC20060312083509403/12/06 08:35:31  5-MIN KSTC 121435Z 22003KT 10SM CLR 00/M02 A3005 910 88 -600 210/03 RMK AO2
14926KSTC STC20060312084009403/12/06 08:40:31  5-MIN KSTC 121440Z 00000KT 10SM CLR 00/M02 A3005 910 88 -600 000/00 RMK AO2
14926KSTC STC20060312084509403/12/06 08:45:31  5-MIN KSTC 121445Z 00000KT 10SM CLR 00/M02 A3004 910 88 -600 000/00 RMK AO2
14926KSTC STC20060312085011703/12/06 08:50:31  5-MIN KSTC 121450Z 18004KT 10SM CLR 01/M02 A3005 910 85 -500 180/04 RMK AO2 SLP195 T00061017 53018
14926KSTC STC20060312085509403/12/06 08:55:31  5-MIN KSTC 121455Z 19003KT 10SM CLR 01/M01 A3004 910 89 -500 180/03 RMK AO2
14926KSTC STC20060312090009403/12/06 09:00:31  5-MIN KSTC 121500Z 18004KT 10SM CLR 01/M01 A3004 910 89 -500 180/04 RMK AO2
14926KSTC STC20060312090509403/12/06 09:05:31  5-MIN KSTC 121505Z 18004KT 10SM CLR 01/M01 A3005 910 85 -500 180/04 RMK AO2
14926KSTC STC20060312091009403/12/06 09:10:31  5-MIN KSTC 121510Z 19005KT 10SM CLR 01/M02 A3005 910 82 -500 180/05 RMK AO2
14926KSTC STC20060312091509403/12/06 09:15:31  5-MIN KSTC 121515Z 19005KT 10SM CLR 01/M02 A3005 900 82 -500 190/05 RMK AO2
14926KSTC STC20060312092009403/12/06 09:20:31  5-MIN KSTC 121520Z 19004KT 10SM CLR 01/M02 A3005 910 82 -500 180/04 RMK AO2
14926KSTC STC20060312092509403/12/06 09:25:31  5-MIN KSTC 121525Z 19004KT 10SM CLR 01/M01 A3005 910 85 -500 190/04 RMK AO2
14926KSTC STC20060312093009403/12/06 09:30:31  5-MIN KSTC 121530Z 20003KT 10SM CLR 01/M02 A3004 910 82 -500 190/03 RMK AO2
14926KSTC STC20060312093509403/12/06 09:35:31  5-MIN KSTC 121535Z 00000KT 10SM CLR 02/M02 A3004 920 78 -400 000/00 RMK AO2
14926KSTC STC20060312094010103/12/06 09:40:31  5-MIN KSTC 121540Z 00000KT 10SM CLR 02/M01 A3003 930 82 -400 000/00 RMK AO2 PRESFR
14926KSTC STC20060312094509403/12/06 09:45:31  5-MIN KSTC 121545Z 00000KT 10SM CLR 02/M01 A3003 930 78 -300 000/00 RMK AO2
14926KSTC STC20060312095011103/12/06 09:50:31  5-MIN KSTC 121550Z 00000KT 10SM CLR 03/M01 A3003 930 79 -200 000/00 RMK AO2 SLP188 T00281006
14926KSTC STC20060312095509403/12/06 09:55:31  5-MIN KSTC 121555Z 00000KT 10SM CLR 03/M01 A3002 940 75 -200 000/00 RMK AO2
14926KSTC STC20060312100009403/12/06 10:00:31  5-MIN KSTC 121600Z 00000KT 10SM CLR 04/M01 A3001 940 70 -100 000/00 RMK AO2
14926KSTC STC20060312100509103/12/06 10:05:31  5-MIN KSTC 121605Z 00000KT 10SM CLR 04/M02 A3001 940 64 0 000/00 RMK AO2
14926KSTC STC20060312101009103/12/06 10:10:31  5-MIN KSTC 121610Z VRB03KT 10SM CLR 04/M02 A3001 950 62 0 VRB/03 RMK AO2
14926KSTC STC20060312101509103/12/06 10:15:31  5-MIN KSTC 121615Z 32004KT 10SM CLR 05/M02 A3000 950 59 0 320/04 RMK AO2
14926KSTC STC20060312102010003/12/06 10:20:31  5-MIN KSTC 121620Z 02005KT 10SM CLR 06/M02 A2999 960 57 100 010/05 RMK AO2 PRESFR
14926KSTC STC20060312102509303/12/06 10:25:31  5-MIN KSTC 121625Z 34005KT 10SM CLR 06/M03 A2999 960 55 100 340/05 RMK AO2
14926KSTC STC20060312103009303/12/06 10:30:31  5-MIN KSTC 121630Z VRB04KT 10SM CLR 06/M03 A2999 960 53 200 VRB/04 RMK AO2
14926KSTC STC20060312103509303/12/06 10:35:31  5-MIN KSTC 121635Z VRB04KT 10SM CLR 06/M02 A2999 960 55 200 VRB/04 RMK AO2
14926KSTC STC20060312104009303/12/06 10:40:31  5-MIN KSTC 121640Z 35003KT 10SM CLR 06/M03 A3000 960 53 200 350/03 RMK AO2
14926KSTC STC20060312104509303/12/06 10:45:31  5-MIN KSTC 121645Z 33004KT 10SM CLR 07/M03 A3000 950 49 200 330/04 RMK AO2
14926KSTC STC20060312105011003/12/06 10:50:31  5-MIN KSTC 121650Z 31004KT 10SM CLR 07/M05 A3000 950 43 200 310/04 RMK AO2 SLP179 T00671050
14926KSTC STC20060312105509603/12/06 10:55:31  5-MIN KSTC 121655Z 33006KT 10SM FEW120 07/M05 A3001 950 41 300 330/06 RMK AO2
14926KSTC STC20060312110009603/12/06 11:00:31  5-MIN KSTC 121700Z 32008KT 10SM FEW120 07/M06 A3001 940 40 300 310/08 RMK AO2
14926KSTC STC20060312110509603/12/06 11:05:31  5-MIN KSTC 121705Z 32007KT 10SM FEW120 07/M07 A3001 940 38 200 320/07 RMK AO2
14926KSTC STC20060312111009603/12/06 11:10:31  5-MIN KSTC 121710Z 32006KT 10SM FEW120 07/M07 A3001 940 36 200 320/06 RMK AO2
14926KSTC STC20060312111509603/12/06 11:15:31  5-MIN KSTC 121715Z 31005KT 10SM FEW120 07/M07 A3002 940 36 200 310/05 RMK AO2
14926KSTC STC20060312112009603/12/06 11:20:31  5-MIN KSTC 121720Z 32005KT 10SM FEW120 07/M07 A3003 930 38 200 310/05 RMK AO2
14926KSTC STC20060312112509603/12/06 11:25:31  5-MIN KSTC 121725Z 32006KT 10SM SCT110 07/M07 A3003 930 38 200 320/06 RMK AO2
14926KSTC STC20060312113009603/12/06 11:30:31  5-MIN KSTC 121730Z 34005KT 10SM SCT110 07/M08 A3002 940 35 200 330/05 RMK AO2
14926KSTC STC20060312113509603/12/06 11:35:31  5-MIN KSTC 121735Z 35004KT 10SM SCT110 07/M07 A3002 940 38 200 350/04 RMK AO2
14926KSTC STC20060312114009603/12/06 11:40:31  5-MIN KSTC 121740Z 34004KT 10SM FEW110 07/M07 A3002 930 38 200 330/04 RMK AO2
14926KSTC STC20060312114509603/12/06 11:45:31  5-MIN KSTC 121745Z 31004KT 10SM SCT110 07/M07 A3002 930 36 200 310/04 RMK AO2
14926KSTC STC20060312115013103/12/06 11:50:31  5-MIN KSTC 121750Z 00000KT 10SM SCT110 07/M07 A3003 920 38 200 000/00 RMK AO2 SLP189 T00671067 10072 21044 53005
14926KSTC STC20060312115509603/12/06 11:55:31  5-MIN KSTC 121755Z 00000KT 10SM SCT110 07/M08 A3003 920 35 200 000/00 RMK AO2
14926KSTC STC20060312120009603/12/06 12:00:31  5-MIN KSTC 121800Z 20003KT 10SM BKN110 07/M08 A3004 910 33 200 200/03 RMK AO2
14926KSTC STC20060312120509603/12/06 12:05:31  5-MIN KSTC 121805Z 19003KT 10SM BKN110 07/M07 A3005 910 36 200 190/03 RMK AO2
14926KSTC STC20060312121009603/12/06 12:10:31  5-MIN KSTC 121810Z 21003KT 10SM BKN110 07/M07 A3004 910 38 200 210/03 RMK AO2
14926KSTC STC20060312121509603/12/06 12:15:31  5-MIN KSTC 121815Z 00000KT 10SM SCT110 07/M07 A3004 920 38 200 000/00 RMK AO2
14926KSTC STC20060312122009603/12/06 12:20:31  5-MIN KSTC 121820Z 00000KT 10SM SCT110 07/M07 A3003 920 36 200 000/00 RMK AO2
14926KSTC STC20060312122509603/12/06 12:25:31  5-MIN KSTC 121825Z 00000KT 10SM FEW110 07/M07 A3003 920 36 200 000/00 RMK AO2
14926KSTC STC20060312123009603/12/06 12:30:31  5-MIN KSTC 121830Z 00000KT 10SM FEW120 07/M08 A3004 920 35 200 000/00 RMK AO2
14926KSTC STC20060312123509303/12/06 12:35:31  5-MIN KSTC 121835Z 20003KT 10SM CLR 07/M08 A3004 920 35 200 190/03 RMK AO2
14926KSTC STC20060312124009303/12/06 12:40:31  5-MIN KSTC 121840Z 18003KT 10SM CLR 07/M07 A3003 930 36 200 180/03 RMK AO2
14926KSTC STC20060312124509303/12/06 12:45:31  5-MIN KSTC 121845Z 18003KT 10SM CLR 07/M07 A3002 930 36 200 180/03 RMK AO2
14926KSTC STC20060312125011003/12/06 12:50:31  5-MIN KSTC 121850Z 19003KT 10SM CLR 07/M07 A3002 930 36 200 180/03 RMK AO2 SLP185 T00671072
14926KSTC STC20060312125509303/12/06 12:55:31  5-MIN KSTC 121855Z 20003KT 10SM CLR 06/M07 A3001 940 39 100 200/03 RMK AO2
14926KSTC STC20060312130009303/12/06 13:00:31  5-MIN KSTC 121900Z 00000KT 10SM CLR 06/M07 A3001 940 39 100 000/00 RMK AO2
14926KSTC STC20060312130509303/12/06 13:05:31  5-MIN KSTC 121905Z 00000KT 10SM CLR 07/M07 A3001 940 36 200 000/00 RMK AO2
14926KSTC STC20060312131009303/12/06 13:10:31  5-MIN KSTC 121910Z 20004KT 10SM CLR 06/M07 A3001 940 38 100 200/04 RMK AO2
14926KSTC STC20060312131509303/12/06 13:15:31  5-MIN KSTC 121915Z 18004KT 10SM CLR 06/M06 A3002 940 41 100 180/04 RMK AO2
14926KSTC STC20060312132009303/12/06 13:20:31  5-MIN KSTC 121920Z 17004KT 10SM CLR 06/M07 A3001 940 39 100 170/04 RMK AO2
14926KSTC STC20060312132509303/12/06 13:25:31  5-MIN KSTC 121925Z 18003KT 10SM CLR 06/M06 A3001 940 41 100 170/03 RMK AO2
14926KSTC STC20060312133009303/12/06 13:30:31  5-MIN KSTC 121930Z 14003KT 10SM CLR 06/M06 A3001 940 43 100 140/03 RMK AO2
14926KSTC STC20060312133509303/12/06 13:35:31  5-MIN KSTC 121935Z 14003KT 10SM CLR 06/M04 A3000 950 48 100 140/03 RMK AO2
14926KSTC STC20060312134009303/12/06 13:40:31  5-MIN KSTC 121940Z 14005KT 10SM CLR 06/M04 A3000 950 48 100 140/05 RMK AO2
14926KSTC STC20060312134509603/12/06 13:45:31  5-MIN KSTC 121945Z 14004KT 10SM FEW090 06/M05 A3000 950 46 100 140/04 RMK AO2
14926KSTC STC20060312135011003/12/06 13:50:31  5-MIN KSTC 121950Z 13004KT 10SM CLR 06/M06 A2999 960 44 100 130/04 RMK AO2 SLP175 T00561056
14926KSTC STC20060312135509603/12/06 13:55:31  5-MIN KSTC 121955Z 15004KT 10SM FEW075 06/M06 A3000 950 43 200 150/04 RMK AO2
14926KSTC STC20060312140009603/12/06 14:00:31  5-MIN KSTC 122000Z 14005KT 10SM FEW080 06/M04 A2999 960 46 200 140/05 RMK AO2
14926KSTC STC20060312140509603/12/06 14:05:31  5-MIN KSTC 122005Z 13004KT 10SM FEW080 06/M05 A2998 970 45 200 130/04 RMK AO2
14926KSTC STC20060312141009603/12/06 14:10:31  5-MIN KSTC 122010Z 15004KT 10SM FEW075 06/M06 A2999 960 41 200 140/04 RMK AO2
14926KSTC STC20060312141509603/12/06 14:15:31  5-MIN KSTC 122015Z 14006KT 10SM FEW075 06/M05 A2999 970 46 100 140/06 RMK AO2
14926KSTC STC20060312142009603/12/06 14:20:31  5-MIN KSTC 122020Z 14005KT 10SM FEW075 06/M06 A2998 970 44 100 130/05 RMK AO2
14926KSTC STC20060312142509303/12/06 14:25:31  5-MIN KSTC 122025Z 11004KT 10SM CLR 06/M07 A2997 980 38 200 110/04 RMK AO2
14926KSTC STC20060312143010003/12/06 14:30:31  5-MIN KSTC 122030Z 09004KT 10SM CLR 06/M07 A2996 990 38 200 090/04 RMK AO2 PRESFR
14926KSTC STC20060312143509603/12/06 14:35:31  5-MIN KSTC 122035Z 08004KT 10SM FEW090 06/M06 A2996 990 41 200 080/04 RMK AO2
14926KSTC STC20060312144009703/12/06 14:40:31  5-MIN KSTC 122040Z 08004KT 10SM FEW085 06/M06 A2995 1000 41 200 080/04 RMK AO2
14926KSTC STC20060312144510403/12/06 14:45:31  5-MIN KSTC 122045Z 07005KT 10SM FEW090 06/M06 A2994 1010 41 200 070/05 RMK AO2 PRESFR
14926KSTC STC20060312145012003/12/06 14:50:31  5-MIN KSTC 122050Z 07005KT 10SM FEW085 06/M07 A2993 1010 39 200 070/05 RMK AO2 SLP156 T00611067 55004
14926KSTC STC20060312145509703/12/06 14:55:31  5-MIN KSTC 122055Z 08004KT 10SM FEW085 06/M07 A2994 1010 39 200 080/04 RMK AO2
14926KSTC STC20060312150009703/12/06 15:00:31  5-MIN KSTC 122100Z 06004KT 10SM FEW085 06/M06 A2993 1010 41 200 060/04 RMK AO2
14926KSTC STC20060312150509703/12/06 15:05:31  5-MIN KSTC 122105Z 05004KT 10SM FEW080 06/M07 A2993 1020 39 200 040/04 RMK AO2
14926KSTC STC20060312151009703/12/06 15:10:31  5-MIN KSTC 122110Z 04005KT 10SM FEW070 06/M07 A2992 1030 39 200 040/05 RMK AO2
14926KSTC STC20060312151509703/12/06 15:15:31  5-MIN KSTC 122115Z 05004KT 10SM FEW070 06/M07 A2992 1020 39 200 050/04 RMK AO2
14926KSTC STC20060312152009703/12/06 15:20:31  5-MIN KSTC 122120Z 04005KT 10SM FEW070 06/M06 A2991 1030 41 200 040/05 RMK AO2
14926KSTC STC20060312152509703/12/06 15:25:31  5-MIN KSTC 122125Z 03006KT 10SM FEW075 06/M06 A2991 1040 41 300 030/06 RMK AO2
14926KSTC STC20060312153009703/12/06 15:30:31  5-MIN KSTC 122130Z 03007KT 10SM FEW065 06/M06 A2990 1040 41 300 030/07 RMK AO2
14926KSTC STC20060312153509703/12/06 15:35:31  5-MIN KSTC 122135Z 05008KT 10SM FEW065 06/M06 A2990 1040 43 300 040/08 RMK AO2
14926KSTC STC20060312154010403/12/06 15:40:31  5-MIN KSTC 122140Z 04008KT 10SM FEW080 SCT100 06/M05 A2990 1040 45 300 040/08 RMK AO2
14926KSTC STC20060312154509703/12/06 15:45:31  5-MIN KSTC 122145Z 04008KT 10SM BKN095 06/M05 A2990 1050 45 300 040/08 RMK AO2
14926KSTC STC20060312155011403/12/06 15:50:31  5-MIN KSTC 122150Z 05006KT 10SM BKN100 06/M05 A2990 1050 45 300 040/06 RMK AO2 SLP144 T00611050
14926KSTC STC20060312155509703/12/06 15:55:31  5-MIN KSTC 122155Z 04008KT 10SM BKN095 06/M06 A2989 1050 43 300 030/08 RMK AO2
14926KSTC STC20060312160010403/12/06 16:00:31  5-MIN KSTC 122200Z 04006KT 10SM FEW080 BKN095 06/M06 A2989 1050 44 200 040/06 RMK AO2
14926KSTC STC20060312160510403/12/06 16:05:31  5-MIN KSTC 122205Z 04008KT 10SM FEW080 BKN095 06/M06 A2989 1050 44 200 040/08 RMK AO2
14926KSTC STC20060312161009703/12/06 16:10:31  5-MIN KSTC 122210Z 04006KT 10SM BKN085 06/M06 A2990 1050 44 200 040/06 RMK AO2
14926KSTC STC20060312161510403/12/06 16:15:31  5-MIN KSTC 122215Z 04005KT 10SM BKN080 BKN095 06/M06 A2990 1050 44 200 040/05 RMK AO2
14926KSTC STC20060312162009703/12/06 16:20:31  5-MIN KSTC 122220Z 04003KT 10SM BKN075 05/M06 A2990 1050 46 100 040/03 RMK AO2
14926KSTC STC20060312162510403/12/06 16:25:31  5-MIN KSTC 122225Z 05005KT 10SM BKN070 BKN080 05/M06 A2989 1050 46 100 050/05 RMK AO2
14926KSTC STC20060312163009703/12/06 16:30:31  5-MIN KSTC 122230Z 03004KT 10SM BKN065 05/M06 A2990 1050 46 100 030/04 RMK AO2
14926KSTC STC20060312163509703/12/06 16:35:31  5-MIN KSTC 122235Z 02004KT 10SM OVC060 05/M05 A2989 1050 48 100 020/04 RMK AO2
14926KSTC STC20060312164009703/12/06 16:40:31  5-MIN KSTC 122240Z 02005KT 10SM OVC060 05/M05 A2989 1050 48 100 020/05 RMK AO2
14926KSTC STC20060312164509703/12/06 16:45:31  5-MIN KSTC 122245Z 02005KT 10SM OVC060 05/M05 A2989 1050 48 100 010/05 RMK AO2
14926KSTC STC20060312165011403/12/06 16:50:31  5-MIN KSTC 122250Z 36005KT 10SM OVC050 04/M04 A2989 1050 55 100 360/05 RMK AO2 SLP142 T00441039
14926KSTC STC20060312165509703/12/06 16:55:31  5-MIN KSTC 122255Z 36005KT 10SM OVC050 04/M04 A2989 1050 55 100 360/05 RMK AO2
14926KSTC STC20060312170009503/12/06 17:00:31  5-MIN KSTC 122300Z 36007KT 10SM OVC048 04/M04 A2988 1060 57 0 360/07 RMK AO2
14926KSTC STC20060312170509703/12/06 17:05:31  5-MIN KSTC 122305Z 36006KT 10SM OVC046 04/M04 A2988 1070 55 100 350/06 RMK AO2
14926KSTC STC20060312171009503/12/06 17:10:31  5-MIN KSTC 122310Z 04005KT 10SM OVC046 04/M04 A2988 1060 57 0 030/05 RMK AO2
14926KSTC STC20060312171509703/12/06 17:15:31  5-MIN KSTC 122315Z 02007KT 10SM OVC044 04/M04 A2988 1060 52 100 020/07 RMK AO2
14926KSTC STC20060312172009703/12/06 17:20:31  5-MIN KSTC 122320Z 02006KT 10SM OVC042 04/M04 A2988 1060 52 100 020/06 RMK AO2
14926KSTC STC20060312172509703/12/06 17:25:31  5-MIN KSTC 122325Z 03008KT 10SM OVC040 05/M04 A2988 1070 50 200 030/08 RMK AO2
14926KSTC STC20060312173011003/12/06 17:30:31  5-MIN KSTC 122330Z 05013G18KT 10SM BKN038 OVC049 06/M05 A2988 1060 46 200 040/13G18 RMK AO2
14926KSTC STC20060312173511003/12/06 17:35:31  5-MIN KSTC 122335Z 03008G18KT 10SM BKN036 OVC046 06/M05 A2989 1050 46 200 030/08G18 RMK AO2
14926KSTC STC20060312174009703/12/06 17:40:31  5-MIN KSTC 122340Z 03011KT 10SM OVC036 05/M05 A2989 1060 48 100 030/11 RMK AO2
14926KSTC STC20060312174510303/12/06 17:45:31  5-MIN KSTC 122345Z 04007G18KT 10SM OVC038 06/M05 A2990 1040 46 200 040/07G18 RMK AO2
14926KSTC STC20060312175013803/12/06 17:50:31  5-MIN KSTC 122350Z 02011G18KT 10SM OVC038 05/M05 A2989 1050 48 100 010/11G18 RMK AO2 SLP143 T00501050 10067 20039 58031
14926KSTC STC20060312175510303/12/06 17:55:31  5-MIN KSTC 122355Z 02010G15KT 10SM OVC038 05/M04 A2990 1050 50 100 010/10G15 RMK AO2
14926KSTC STC20060312180010303/12/06 18:00:31  5-MIN KSTC 130000Z 03013G18KT 10SM OVC036 04/M04 A2989 1050 55 100 020/13G18 RMK AO2
14926KSTC STC20060312180510303/12/06 18:05:31  5-MIN KSTC 130005Z 02013G18KT 10SM OVC032 04/M03 A2989 1050 57 100 010/13G18 RMK AO2
14926KSTC STC20060312181011103/12/06 18:10:31  5-MIN KSTC 130010Z 02012KT 10SM -RA OVC028 04/M03 A2989 1060 62 0 020/12 RMK AO2 RAB08 P0000
14926KSTC STC20060312181511103/12/06 18:15:31  5-MIN KSTC 130015Z 03014KT 10SM -RA OVC026 04/M03 A2988 1060 62 0 020/14 RMK AO2 RAB08 P0000
14926KSTC STC20060312182011703/12/06 18:20:31  5-MIN KSTC 130020Z 03007G17KT 10SM -RA OVC024 04/M03 A2988 1060 62 0 030/07G17 RMK AO2 RAB08 P0000
14926KSTC STC20060312182511703/12/06 18:25:31  5-MIN KSTC 130025Z 04013G16KT 10SM -RA OVC022 04/M02 A2987 1070 64 0 040/13G16 RMK AO2 RAB08 P0000
14926KSTC STC20060312183011603/12/06 18:30:31  5-MIN KSTC 130030Z 04011G20KT 10SM OVC022 04/M02 A2988 1060 64 0 040/11G20 RMK AO2 RAB08E27 P0000
14926KSTC STC20060312183511603/12/06 18:35:31  5-MIN KSTC 130035Z 04011G20KT 10SM OVC022 04/M02 A2988 1070 64 0 040/11G20 RMK AO2 RAB08E27 P0000
14926KSTC STC20060312184011703/12/06 18:40:31  5-MIN KSTC 130040Z 04008KT 10SM BKN022 OVC039 04/M02 A2989 1060 64 0 040/08 RMK AO2 RAB08E27 P0000
14926KSTC STC20060312184512303/12/06 18:45:31  5-MIN KSTC 130045Z 02007G14KT 10SM BKN024 OVC037 03/M02 A2989 1060 67 0 020/07G14 RMK AO2 RAB08E27 P0000
14926KSTC STC20060312185013403/12/06 18:50:31  5-MIN KSTC 130050Z 03009KT 10SM BKN024 OVC037 03/M02 A2988 1060 67 0 020/09 RMK AO2 RAB08E27 SLP140 P0000 T00331022
14926KSTC STC20060312185510803/12/06 18:55:31  5-MIN KSTC 130055Z 01014G19KT 10SM BKN026 OVC037 03/M02 A2988 1060 67 0 010/14G19 RMK AO2
14926KSTC STC20060312190010803/12/06 19:00:31  5-MIN KSTC 130100Z 03010G19KT 10SM BKN026 OVC037 03/M02 A2988 1070 67 0 020/10G19 RMK AO2
14926KSTC STC20060312190510203/12/06 19:05:31  5-MIN KSTC 130105Z 03010KT 10SM BKN026 OVC037 03/M02 A2987 1070 67 0 030/10 RMK AO2
14926KSTC STC20060312191010803/12/06 19:10:31  5-MIN KSTC 130110Z 02016G19KT 10SM BKN024 OVC037 03/M02 A2987 1070 67 0 020/16G19 RMK AO2
14926KSTC STC20060312191510103/12/06 19:15:31  5-MIN KSTC 130115Z 02009G19KT 10SM OVC022 03/M02 A2989 1060 67 0 020/09G19 RMK AO2
14926KSTC STC20060312192009503/12/06 19:20:31  5-MIN KSTC 130120Z 03011KT 10SM OVC022 03/M02 A2989 1050 67 0 030/11 RMK AO2
14926KSTC STC20060312192509503/12/06 19:25:31  5-MIN KSTC 130125Z 02010KT 10SM OVC024 03/M02 A2989 1060 67 0 020/10 RMK AO2
14926KSTC STC20060312193009503/12/06 19:30:31  5-MIN KSTC 130130Z 03010KT 10SM OVC024 03/M02 A2988 1060 67 0 030/10 RMK AO2
14926KSTC STC20060312193510103/12/06 19:35:31  5-MIN KSTC 130135Z 03010G15KT 10SM OVC024 03/M02 A2988 1060 67 0 030/10G15 RMK AO2
14926KSTC STC20060312194009503/12/06 19:40:31  5-MIN KSTC 130140Z 03008KT 10SM OVC022 03/M02 A2989 1050 67 0 030/08 RMK AO2
14926KSTC STC20060312194510903/12/06 19:45:31  5-MIN KSTC 130145Z 04008KT 10SM BKN022 OVC034 03/M02 A2992 1030 67 0 040/08 RMK AO2 PRESRR
14926KSTC STC20060312195012903/12/06 19:50:31  5-MIN KSTC 130150Z 01005KT 10SM BKN022 OVC030 03/M02 A2992 1020 67 -100 010/05 RMK AO2 PRESRR SLP153 T00331022
14926KSTC STC20060312195510503/12/06 19:55:31  5-MIN KSTC 130155Z 02005KT 10SM SCT022 OVC030 03/M02 A2992 1030 72 -100 020/05 RMK AO2
14926KSTC STC20060312200010503/12/06 20:00:31  5-MIN KSTC 130200Z 02007KT 10SM BKN018 OVC030 03/M02 A2992 1030 72 -100 020/07 RMK AO2
14926KSTC STC20060312200512703/12/06 20:05:31  5-MIN KSTC 130205Z 02008KT 7SM -SN BKN016 BKN030 OVC034 03/M02 A2992 1030 72 -100 010/08 RMK AO2 SNB03 P0000
14926KSTC STC20060312201012703/12/06 20:10:31  5-MIN KSTC 130210Z 36009KT 5SM -SN BKN010 BKN030 OVC034 02/M01 A2992 1030 78 -200 360/09 RMK AO2 SNB03 P0000
14926KSTC STC20060312201512003/12/06 20:15:31  5-MIN KSTC 130215Z 36009KT 3SM -SN BKN010 OVC030 02/M01 A2991 1030 82 -200 360/09 RMK AO2 SNB03 P0001
14926KSTC STC20060312202012303/12/06 20:20:31  5-MIN KSTC 130220Z 01010KT 2SM -SN BR BKN008 OVC034 01/M01 A2992 1030 89 -300 010/10 RMK AO2 SNB03 P0001
14926KSTC STC20060312202512003/12/06 20:25:31  5-MIN KSTC 130225Z 01008KT 1 1/2SM -SN BR OVC008 01/M01 A2992 1030 89 -300 010/08 RMK AO2 SNB03 P0002
14926KSTC STC20060312203012003/12/06 20:30:31  5-MIN KSTC 130230Z 01008KT 1 1/4SM -SN BR OVC006 01/M01 A2992 1030 89 -300 010/08 RMK AO2 SNB03 P0003
14926KSTC STC20060312203511503/12/06 20:35:31  5-MIN KSTC 130235Z 02006KT 1SM -SN BR VV004 01/M01 A2992 1030 92 -400 010/06 RMK AO2 SNB03 P0004
14926KSTC STC20060312204011503/12/06 20:40:31  5-MIN KSTC 130240Z 02006KT 1SM -SN BR VV004 01/M01 A2992 1030 92 -400 010/06 RMK AO2 SNB03 P0005
14926KSTC STC20060312204512003/12/06 20:45:31  5-MIN KSTC 130245Z 02008KT 1 1/4SM -SN BR OVC004 01/M01 A2991 1030 92 -400 010/08 RMK AO2 SNB03 P0005
14926KSTC STC20060312205014903/12/06 20:50:31  5-MIN KSTC 130250Z 01008KT 1 1/2SM -SN BR OVC004 01/M01 A2991 1030 92 -400 010/08 RMK AO2 SNB03 SLP149 P0006 60006 T00061006 55014
14926KSTC STC20060312205511403/12/06 20:55:31  5-MIN KSTC 130255Z 01008KT 1 3/4SM -SN BR OVC004 01/M01 A2991 1040 92 -400 010/08 RMK AO2 P0000
14926KSTC STC20060312210011003/12/06 21:00:31  5-MIN KSTC 130300Z 02007KT 2SM -SN BR OVC004 01/M01 A2991 1030 92 -400 010/07 RMK AO2 P0000
14926KSTC STC20060312210511003/12/06 21:05:31  5-MIN KSTC 130305Z 02007KT 2SM -SN BR OVC004 01/M01 A2991 1040 92 -400 020/07 RMK AO2 P0000
14926KSTC STC20060312211011403/12/06 21:10:31  5-MIN KSTC 130310Z 02008KT 1 3/4SM -SN BR OVC004 01/M01 A2991 1040 92 -400 010/08 RMK AO2 P0000
14926KSTC STC20060312211511403/12/06 21:15:31  5-MIN KSTC 130315Z 02007KT 1 1/2SM -SN BR OVC004 01/M01 A2990 1040 92 -400 020/07 RMK AO2 P0000
14926KSTC STC20060312212011403/12/06 21:20:31  5-MIN KSTC 130320Z 03008KT 1 1/2SM -SN BR OVC004 01/M01 A2990 1040 92 -400 020/08 RMK AO2 P0001
14926KSTC STC20060312212511003/12/06 21:25:31  5-MIN KSTC 130325Z 03008KT 2SM -SN BR OVC006 01/M01 A2990 1050 92 -400 020/08 RMK AO2 P0001
14926KSTC STC20060312213011403/12/06 21:30:31  5-MIN KSTC 130330Z 02008KT 2 1/2SM -SN BR OVC006 01/M01 A2990 1050 92 -400 020/08 RMK AO2 P0001
14926KSTC STC20060312213511403/12/06 21:35:31  5-MIN KSTC 130335Z 02008KT 2 1/2SM -SN BR OVC006 01/M01 A2990 1050 92 -400 020/08 RMK AO2 P0001
14926KSTC STC20060312214010903/12/06 21:40:31  5-MIN KSTC 130340Z 04007KT 3SM -SN BR OVC008 01/00 A2989 1050 96 -400 030/07 RMK AO2 P0001
14926KSTC STC20060312214510903/12/06 21:45:31  5-MIN KSTC 130345Z 03008KT 3SM -SN BR OVC008 01/00 A2989 1060 96 -400 030/08 RMK AO2 P0001
14926KSTC STC20060312215012603/12/06 21:50:31  5-MIN KSTC 130350Z 03009KT 3SM -SN BR OVC008 01/00 A2988 1060 96 -400 030/09 RMK AO2 SLP139 P0002 T00060000
14926KSTC STC20060312215511403/12/06 21:55:31  5-MIN KSTC 130355Z 03011KT 2 1/2SM -SN BR OVC008 01/M01 A2988 1070 92 -300 030/11 RMK AO2 P0000
14926KSTC STC20060312220011403/12/06 22:00:31  5-MIN KSTC 130400Z 03010KT 2 1/2SM -SN BR OVC008 01/M01 A2988 1070 92 -300 030/10 RMK AO2 P0000
14926KSTC STC20060312220511303/12/06 22:05:31  5-MIN KSTC 130405Z 03008KT 2 1/2SM -SN BR OVC008 01/00 A2988 1060 96 -300 030/08 RMK AO2 P0000
14926KSTC STC20060312221011303/12/06 22:10:31  5-MIN KSTC 130410Z 03008KT 2 1/2SM -SN BR OVC008 01/00 A2987 1070 96 -300 020/08 RMK AO2 P0000
14926KSTC STC20060312221510903/12/06 22:15:31  5-MIN KSTC 130415Z 03010KT 3SM -SN BR OVC008 01/00 A2987 1080 96 -300 030/10 RMK AO2 P0000
14926KSTC STC20060312222011003/12/06 22:20:31  5-MIN KSTC 130420Z 03009KT 3SM -SN BR OVC008 01/M01 A2987 1080 92 -300 030/09 RMK AO2 P0000
14926KSTC STC20060312222511003/12/06 22:25:31  5-MIN KSTC 130425Z 03011KT 3SM -SN BR OVC008 01/M01 A2986 1080 92 -300 030/11 RMK AO2 P0000
14926KSTC STC20060313000511703/13/06 00:05:31  5-MIN KSTC 130605Z AUTO 04012KT 10SM BKN011 OVC085 01/M01 A2976 1170 89 -100 040/12 RMK AO2 PRESFR
14926KSTC STC20060313001012303/13/06 00:10:31  5-MIN KSTC 130610Z AUTO 04013G18KT 10SM SCT011 OVC085 01/M01 A2976 1180 92 -200 030/13G18 RMK AO2 PRESFR
14926KSTC STC20060313001511603/13/06 00:15:31  5-MIN KSTC 130615Z AUTO 04012G18KT 10SM SCT011 OVC085 01/M01 A2976 1180 92 -200 040/12G18 RMK AO2
14926KSTC STC20060313002011003/13/06 00:20:31  5-MIN KSTC 130620Z AUTO 04010KT 10SM SCT011 OVC090 01/M01 A2975 1180 89 -100 040/10 RMK AO2
14926KSTC STC20060313002511003/13/06 00:25:31  5-MIN KSTC 130625Z AUTO 04012KT 10SM FEW011 OVC090 01/M01 A2975 1180 89 -100 040/12 RMK AO2
14926KSTC STC20060313003011003/13/06 00:30:31  5-MIN KSTC 130630Z AUTO 04010KT 10SM FEW011 OVC090 01/M01 A2975 1180 89 -100 040/10 RMK AO2
14926KSTC STC20060313003511603/13/06 00:35:31  5-MIN KSTC 130635Z AUTO 04011G17KT 10SM FEW011 OVC090 01/M01 A2975 1180 89 -100 040/11G17 RMK AO2
14926KSTC STC20060313004011003/13/06 00:40:31  5-MIN KSTC 130640Z AUTO 04011KT 10SM FEW011 OVC090 01/M01 A2974 1190 92 -200 030/11 RMK AO2
14926KSTC STC20060313004511703/13/06 00:45:31  5-MIN KSTC 130645Z AUTO 03011KT 10SM FEW011 OVC090 01/M01 A2973 1200 89 -200 020/11 RMK AO2 PRESFR
14926KSTC STC20060313005013403/13/06 00:50:31  5-MIN KSTC 130650Z AUTO 04011KT 10SM FEW011 OVC090 01/M01 A2972 1210 89 -200 040/11 RMK AO2 PRESFR SLP082 T00061011
14926KSTC STC20060313005510303/13/06 00:55:31  5-MIN KSTC 130655Z AUTO 04010KT 10SM OVC090 01/M01 A2973 1200 89 -200 030/10 RMK AO2
14926KSTC STC20060313010011603/13/06 01:00:31  5-MIN KSTC 130700Z AUTO 04011G17KT 10SM FEW010 OVC090 01/M01 A2973 1200 89 -200 030/11G17 RMK AO2
14926KSTC STC20060313010511603/13/06 01:05:31  5-MIN KSTC 130705Z AUTO 04012G17KT 10SM FEW041 OVC090 01/M01 A2973 1200 89 -200 030/12G17 RMK AO2
14926KSTC STC20060313011011703/13/06 01:10:31  5-MIN KSTC 130710Z AUTO 03009KT 10SM FEW011 SCT041 OVC090 01/M01 A2973 1200 89 -200 020/09 RMK AO2
14926KSTC STC20060313011511703/13/06 01:15:31  5-MIN KSTC 130715Z AUTO 02009KT 10SM SCT011 SCT041 OVC090 01/M01 A2973 1200 89 -200 020/09 RMK AO2
14926KSTC STC20060313012011703/13/06 01:20:31  5-MIN KSTC 130720Z AUTO 02011KT 10SM SCT013 SCT041 OVC090 01/M01 A2972 1210 89 -200 020/11 RMK AO2
14926KSTC STC20060313012511703/13/06 01:25:31  5-MIN KSTC 130725Z AUTO 02011KT 10SM SCT013 BKN041 OVC090 01/M01 A2971 1220 89 -200 020/11 RMK AO2
14926KSTC STC20060313013011703/13/06 01:30:31  5-MIN KSTC 130730Z AUTO 02009KT 10SM BKN013 BKN041 OVC090 01/M01 A2972 1220 89 -200 020/09 RMK AO2
14926KSTC STC20060313013511603/13/06 01:35:31  5-MIN KSTC 130735Z AUTO 02008G15KT 10SM BKN013 OVC090 01/M01 A2972 1210 89 -200 020/08G15 RMK AO2
14926KSTC STC20060313014011603/13/06 01:40:31  5-MIN KSTC 130740Z AUTO 02008G15KT 10SM BKN013 OVC090 01/M01 A2974 1200 89 -200 020/08G15 RMK AO2
14926KSTC STC20060313014510303/13/06 01:45:31  5-MIN KSTC 130745Z AUTO 02008KT 10SM OVC013 01/M01 A2974 1200 89 -200 010/08 RMK AO2
14926KSTC STC20060313015013903/13/06 01:50:31  5-MIN KSTC 130750Z AUTO 02009KT 10SM BKN010 OVC015 01/M01 A2974 1190 89 -200 010/09 RMK AO2 CIG 008V013 SLP089 T00061011
14926KSTC STC20060313015510203/13/06 01:55:31  5-MIN KSTC 130755Z AUTO 01007KT 9SM OVC012 01/M01 A2975 1180 89 -200 010/07 RMK AO2
14926KSTC STC20060313020010203/13/06 02:00:31  5-MIN KSTC 130800Z AUTO 01008KT 8SM OVC010 01/M01 A2975 1190 89 -200 010/08 RMK AO2
14926KSTC STC20060313020512103/13/06 02:05:31  5-MIN KSTC 130805Z AUTO 01010KT 6SM -SN BR OVC010 01/M01 A2973 1200 89 -200 010/10 RMK AO2 SNB03 P0000
14926KSTC STC20060313021012103/13/06 02:10:31  5-MIN KSTC 130810Z AUTO 01011KT 5SM -SN BR OVC010 00/M01 A2973 1210 92 -200 010/11 RMK AO2 SNB03 P0000
14926KSTC STC20060313021514003/13/06 02:15:31  5-MIN KSTC 130815Z AUTO 01009KT 5SM -SN BR OVC010 00/M02 A2972 1220 88 -200 010/09 RMK AO2 SNB03 CIG 008V015 PRESFR P0000
14926KSTC STC20060313022013303/13/06 02:20:31  5-MIN KSTC 130820Z AUTO 01011KT 4SM -SN BR OVC010 00/M02 A2972 1220 88 -200 010/11 RMK AO2 SNB03 CIG 008V015 P0000
14926KSTC STC20060313022514003/13/06 02:25:31  5-MIN KSTC 130825Z AUTO 01012KT 4SM -SN BR BKN010 OVC013 00/M02 A2972 1210 88 -200 010/12 RMK AO2 SNB03 CIG 008V012 P0000
14926KSTC STC20060313023014603/13/06 02:30:31  5-MIN KSTC 130830Z AUTO 01012G17KT 3SM -SN BR BKN010 OVC015 00/M02 A2971 1220 88 -200 010/12G17 RMK AO2 SNB03 CIG 008V012 P0000
14926KSTC STC20060313023513903/13/06 02:35:31  5-MIN KSTC 130835Z AUTO 01011G18KT 2SM -SN BR OVC010 00/M02 A2971 1220 88 -200 010/11G18 RMK AO2 SNB03 CIG 008V015 P0000
14926KSTC STC20060313024014303/13/06 02:40:31  5-MIN KSTC 130840Z AUTO 01012G18KT 1 3/4SM -SN BR OVC010 00/M02 A2971 1230 88 -200 010/12G18 RMK AO2 SNB03 CIG 008V015 P0000
14926KSTC STC20060313024513803/13/06 02:45:31  5-MIN KSTC 130845Z AUTO 01011KT 1 3/4SM -SN BR OVC010 M01/M02 A2970 1230 92 -300 010/11 RMK AO2 SNB03 CIG 008V012 P0000
14926KSTC STC20060313025016703/13/06 02:50:31  5-MIN KSTC 130850Z AUTO 01012KT 1 3/4SM -SN BR OVC010 M01/M02 A2970 1230 92 -300 010/12 RMK AO2 SNB03 CIG 008V015 SLP075 P0000 60000 T10061017 58042
14926KSTC STC20060313025513903/13/06 02:55:31  5-MIN KSTC 130855Z AUTO 01013KT 1 3/4SM -SN BR OVC010 M01/M02 A2969 1240 92 -300 360/13 RMK AO2 CIG 007V015 PRESFR P0000
14926KSTC STC20060313030013803/13/06 03:00:31  5-MIN KSTC 130900Z AUTO 36011G19KT 1 3/4SM -SN BR OVC010 M01/M02 A2969 1240 92 -300 360/11G19 RMK AO2 CIG 007V013 P0000
14926KSTC STC20060313030514503/13/06 03:05:31  5-MIN KSTC 130905Z AUTO 01013G19KT 1 1/2SM -SN BR BKN010 OVC013 M01/M02 A2970 1230 88 -300 010/13G19 RMK AO2 CIG 007V011 P0000
14926KSTC STC20060313031012703/13/06 03:10:31  5-MIN KSTC 130910Z AUTO 01010KT 1 1/2SM -SN BR BKN009 OVC013 M01/M02 A2970 1230 88 -300 010/10 RMK AO2 P0000
14926KSTC STC20060313031513303/13/06 03:15:31  5-MIN KSTC 130915Z AUTO 01013G18KT 1 3/4SM -SN BR BKN009 OVC015 M01/M02 A2970 1240 88 -300 010/13G18 RMK AO2 P0000
14926KSTC STC20060313032012703/13/06 03:20:31  5-MIN KSTC 130920Z AUTO 01014KT 1 3/4SM -SN BR BKN009 OVC015 M01/M02 A2969 1240 88 -300 010/14 RMK AO2 P0000
14926KSTC STC20060313032512203/13/06 03:25:31  5-MIN KSTC 130925Z AUTO 02011G18KT 2SM -SN BR OVC012 M01/M02 A2969 1240 88 -300 020/11G18 RMK AO2 P0000
14926KSTC STC20060313033012303/13/06 03:30:31  5-MIN KSTC 130930Z AUTO 01010KT 2SM -SN BR FEW009 OVC012 M01/M03 A2969 1240 88 -300 010/10 RMK AO2 P0000
14926KSTC STC20060313033511603/13/06 03:35:31  5-MIN KSTC 130935Z AUTO 01012KT 2SM -SN BR OVC012 M01/M03 A2969 1240 88 -300 360/12 RMK AO2 P0000
14926KSTC STC20060313034011603/13/06 03:40:31  5-MIN KSTC 130940Z AUTO 36013KT 2SM -SN BR OVC012 M01/M03 A2968 1250 88 -300 360/13 RMK AO2 P0000
14926KSTC STC20060313034511603/13/06 03:45:31  5-MIN KSTC 130945Z AUTO 36014KT 2SM -SN BR OVC014 M01/M03 A2968 1250 88 -300 360/14 RMK AO2 P0000
14926KSTC STC20060313035014303/13/06 03:50:31  5-MIN KSTC 130950Z AUTO 36014G19KT 2 1/2SM -SN BR OVC014 M01/M03 A2968 1250 88 -300 360/14G19 RMK AO2 SLP067 P0000 T10111028
14926KSTC STC20060313035512003/13/06 03:55:31  5-MIN KSTC 130955Z AUTO 36015KT 2 1/2SM -SN BR OVC016 M01/M03 A2968 1250 85 -300 350/15 RMK AO2 P0000
14926KSTC STC20060313040011603/13/06 04:00:31  5-MIN KSTC 131000Z AUTO 36014KT 3SM -SN BR OVC016 M01/M03 A2967 1260 85 -300 360/14 RMK AO2 P0000
14926KSTC STC20060313040511603/13/06 04:05:31  5-MIN KSTC 131005Z AUTO 36014KT 3SM -SN BR OVC016 M01/M03 A2967 1260 85 -300 360/14 RMK AO2 P0000
14926KSTC STC20060313041012003/13/06 04:10:31  5-MIN KSTC 131010Z AUTO 36013KT 2 1/2SM -SN BR OVC016 M01/M03 A2967 1260 85 -300 360/13 RMK AO2 P0000
14926KSTC STC20060313041512003/13/06 04:15:31  5-MIN KSTC 131015Z AUTO 36014KT 2 1/2SM -SN BR OVC016 M01/M03 A2967 1260 85 -300 360/14 RMK AO2 P0000
14926KSTC STC20060313042012203/13/06 04:20:31  5-MIN KSTC 131020Z AUTO 36013G20KT 2SM -SN BR OVC016 M01/M03 A2967 1260 85 -300 360/13G20 RMK AO2 P0000
14926KSTC STC20060313042512603/13/06 04:25:31  5-MIN KSTC 131025Z AUTO 01015G20KT 1 1/2SM -SN BR OVC014 M01/M03 A2967 1260 85 -300 360/15G20 RMK AO2 P0000
14926KSTC STC20060313043012703/13/06 04:30:31  5-MIN KSTC 131030Z AUTO 01013KT 1 1/4SM -SN BR BKN012 OVC019 M02/M03 A2967 1260 88 -400 360/13 RMK AO2 P0000
14926KSTC STC20060313043512303/13/06 04:35:31  5-MIN KSTC 131035Z AUTO 36015KT 1SM -SN BR BKN010 OVC017 M02/M03 A2968 1250 88 -400 360/15 RMK AO2 P0000
14926KSTC STC20060313044012303/13/06 04:40:31  5-MIN KSTC 131040Z AUTO 36015KT 1SM -SN BR BKN010 OVC015 M02/M03 A2967 1260 88 -400 360/15 RMK AO2 P0000
14926KSTC STC20060313044512303/13/06 04:45:31  5-MIN KSTC 131045Z AUTO 36015KT 1SM -SN BR SCT008 OVC015 M02/M03 A2967 1260 88 -400 350/15 RMK AO2 P0000
14926KSTC STC20060313045014603/13/06 04:50:31  5-MIN KSTC 131050Z AUTO 36014G21KT 1SM -SN BR SCT006 OVC015 M02/M03 A2966 1270 88 -400 350/14G21 RMK AO2 SLP062 P0000 T10171033
14926KSTC STC20060313045513603/13/06 04:55:31  5-MIN KSTC 131055Z AUTO 36016G21KT 1SM -SN BR SCT006 BKN015 OVC019 M02/M03 A2965 1270 88 -400 360/16G21 RMK AO2 P0000
14926KSTC STC20060313050012903/13/06 05:00:31  5-MIN KSTC 131100Z AUTO 35014G21KT 1SM -SN BR BKN006 OVC015 M02/M03 A2965 1280 88 -400 350/14G21 RMK AO2 P0001
14926KSTC STC20060313050512903/13/06 05:05:31  5-MIN KSTC 131105Z AUTO 35016G21KT 1SM -SN BR BKN006 OVC013 M02/M04 A2965 1280 85 -400 350/16G21 RMK AO2 P0001
14926KSTC STC20060313051012903/13/06 05:10:31  5-MIN KSTC 131110Z AUTO 35016G22KT 1SM -SN BR BKN006 OVC013 M02/M04 A2965 1280 85 -400 350/16G22 RMK AO2 P0001
14926KSTC STC20060313051512903/13/06 05:15:31  5-MIN KSTC 131115Z AUTO 35016G22KT 1SM -SN BR BKN006 OVC013 M02/M04 A2964 1280 85 -400 350/16G22 RMK AO2 P0001
14926KSTC STC20060313052012903/13/06 05:20:31  5-MIN KSTC 131120Z AUTO 36016G22KT 1SM -SN BR BKN006 OVC013 M02/M04 A2964 1290 88 -400 350/16G22 RMK AO2 P0001
14926KSTC STC20060313052512903/13/06 05:25:31  5-MIN KSTC 131125Z AUTO 36018G23KT 1SM -SN BR BKN006 OVC013 M02/M04 A2964 1290 88 -400 350/18G23 RMK AO2 P0001
14926KSTC STC20060313053012903/13/06 05:30:31  5-MIN KSTC 131130Z AUTO 36015G23KT 1SM -SN BR BKN006 OVC013 M02/M04 A2964 1290 88 -400 360/15G23 RMK AO2 P0001
14926KSTC STC20060313053512903/13/06 05:35:31  5-MIN KSTC 131135Z AUTO 35017G22KT 1SM -SN BR BKN006 OVC013 M02/M04 A2963 1290 88 -400 350/17G22 RMK AO2 P0001
14926KSTC STC20060313054012703/13/06 05:40:31  5-MIN KSTC 131140Z AUTO 35017KT 1 1/4SM -SN BR BKN006 OVC013 M02/M04 A2964 1290 88 -400 350/17 RMK AO2 P0001
14926KSTC STC20060313054513303/13/06 05:45:31  5-MIN KSTC 131145Z AUTO 36018G23KT 1 1/4SM -SN BR BKN008 OVC013 M02/M04 A2964 1290 85 -400 360/18G23 RMK AO2 P0001
14926KSTC STC20060313055018003/13/06 05:50:31  5-MIN KSTC 131150Z AUTO 36018G24KT 1 1/4SM -SN BR BKN008 OVC015 M02/M04 A2964 1290 85 -400 350/18G24 RMK AO2 SLP055 P0001 60001 70010 T10221044 10011 21022 58030
14926KSTC STC20060313055513303/13/06 05:55:31  5-MIN KSTC 131155Z AUTO 36016G25KT 1 1/2SM -SN BR BKN008 OVC015 M02/M04 A2964 1290 85 -400 350/16G25 RMK AO2 P0000
14926KSTC STC20060313060013303/13/06 06:00:31  5-MIN KSTC 131200Z AUTO 36018G25KT 1 1/2SM -SN BR BKN008 OVC015 M02/M04 A2963 1290 85 -400 350/18G25 RMK AO2 P0000
14926KSTC STC20060313060513303/13/06 06:05:31  5-MIN KSTC 131205Z AUTO 35016G21KT 1 1/2SM -SN BR BKN010 OVC017 M02/M04 A2964 1290 85 -400 350/16G21 RMK AO2 P0000
14926KSTC STC20060313061013003/13/06 06:10:31  5-MIN KSTC 131210Z AUTO 35015G25KT 1 3/4SM -SN BKN010 OVC019 M02/M05 A2963 1300 81 -400 350/15G25 RMK AO2 P0000
14926KSTC STC20060313061513003/13/06 06:15:31  5-MIN KSTC 131215Z AUTO 35017G25KT 1 1/2SM -SN BKN010 OVC019 M02/M05 A2963 1300 81 -400 340/17G25 RMK AO2 P0000
14926KSTC STC20060313062013303/13/06 06:20:31  5-MIN KSTC 131220Z AUTO 35018G25KT 1 1/2SM -SN BR BKN010 OVC018 M03/M05 A2963 1300 85 -500 340/18G25 RMK AO2 P0000
14926KSTC STC20060313062513303/13/06 06:25:31  5-MIN KSTC 131225Z AUTO 34016G24KT 1 1/2SM -SN BR BKN010 OVC018 M03/M05 A2963 1300 85 -500 340/16G24 RMK AO2 P0000
14926KSTC STC20060313063013303/13/06 06:30:31  5-MIN KSTC 131230Z AUTO 34018G23KT 1 3/4SM -SN BR BKN012 OVC018 M03/M05 A2963 1290 85 -500 340/18G23 RMK AO2 P0000
14926KSTC STC20060313063513303/13/06 06:35:31  5-MIN KSTC 131235Z AUTO 34015G23KT 1 1/4SM -SN BR SCT012 OVC018 M03/M05 A2963 1290 85 -500 340/15G23 RMK AO2 P0000
14926KSTC STC20060313064012303/13/06 06:40:31  5-MIN KSTC 131240Z AUTO 35015KT 1SM -SN BR BKN012 OVC020 M03/M06 A2963 1300 85 -500 350/15 RMK AO2 P0000
14926KSTC STC20060313064512903/13/06 06:45:31  5-MIN KSTC 131245Z AUTO 35017G21KT 1SM -SN BR BKN012 OVC020 M03/M06 A2963 1290 85 -600 350/17G21 RMK AO2 P0000
14926KSTC STC20060313065013103/13/06 06:50:31  5-MIN KSTC 131250Z AUTO 35016G23KT 3/4SM -SN BR BKN012 OVC020 M03/M06 A2964 1290 85 -600 350/16G23 RMK AO2 P0000
14926KSTC STC20060313065513103/13/06 06:55:31  5-MIN KSTC 131255Z AUTO 35017G23KT 3/4SM -SN BR BKN012 OVC020 M03/M06 A2964 1290 85 -600 350/17G23 RMK AO2 P0000
14926KSTC STC20060313070011803/13/06 07:00:31  5-MIN KSTC 131300Z 35017G23KT 3/4SM -SN BR VV013 M03/M06 A2965 1280 85 -600 340/17G23 RMK AO2 P0000
14926KSTC STC20060313070511603/13/06 07:05:31  5-MIN KSTC 131305Z 35015G23KT 1SM -SN BR VV013 M03/M06 A2965 1280 85 -600 350/15G23 RMK AO2 P0000
14926KSTC STC20060313071011603/13/06 07:10:31  5-MIN KSTC 131310Z 35015G22KT 1SM -SN BR VV013 M03/M06 A2965 1280 85 -600 340/15G22 RMK AO2 P0000
14926KSTC STC20060313071511003/13/06 07:15:31  5-MIN KSTC 131315Z 34015KT 1SM -SN BR VV012 M03/M06 A2965 1280 85 -600 340/15 RMK AO2 P0000
14926KSTC STC20060313072011203/13/06 07:20:31  5-MIN KSTC 131320Z 34014KT 3/4SM -SN BR VV011 M03/M06 A2965 1280 85 -600 340/14 RMK AO2 P0000
14926KSTC STC20060313072511803/13/06 07:25:31  5-MIN KSTC 131325Z 34015G20KT 3/4SM -SN BR VV010 M04/M06 A2965 1270 88 -600 340/15G20 RMK AO2 P0000
14926KSTC STC20060313073011803/13/06 07:30:31  5-MIN KSTC 131330Z 34017G22KT 3/4SM -SN BR VV009 M04/M06 A2965 1280 88 -600 330/17G22 RMK AO2 P0000
14926KSTC STC20060313073512003/13/06 07:35:31  5-MIN KSTC 131335Z 34016G22KT 1/2SM -SN FZFG VV008 M04/M06 A2965 1270 88 -600 340/16G22 RMK AO2 P0000
14926KSTC STC20060313074011903/13/06 07:40:31  5-MIN KSTC 131340Z 34012G23KT 1/2SM SN FZFG VV008 M04/M06 A2965 1270 88 -600 330/12G23 RMK AO2 P0000
14926KSTC STC20060313074511903/13/06 07:45:31  5-MIN KSTC 131345Z 33016G23KT 1/2SM SN FZFG VV007 M04/M06 A2965 1270 88 -600 330/16G23 RMK AO2 P0000
14926KSTC STC20060313075013003/13/06 07:50:31  5-MIN KSTC 131350Z 33016KT 1/2SM SN FZFG VV006 M04/M06 A2965 1270 85 -600 330/16 RMK AO2 SLP061 P0000 T10391061
14926KSTC STC20060313075511903/13/06 07:55:31  5-MIN KSTC 131355Z 33015G20KT 1/2SM SN FZFG VV006 M04/M06 A2966 1270 85 -600 330/15G20 RMK AO2 P0000
14926KSTC STC20060313080011903/13/06 08:00:31  5-MIN KSTC 131400Z 33016G21KT 1/2SM SN FZFG VV006 M04/M06 A2966 1270 85 -600 330/16G21 RMK AO2 P0000
14926KSTC STC20060313080511903/13/06 08:05:31  5-MIN KSTC 131405Z 34016G21KT 1/2SM SN FZFG VV005 M04/M06 A2965 1270 85 -600 330/16G21 RMK AO2 P0000
14926KSTC STC20060313081011903/13/06 08:10:31  5-MIN KSTC 131410Z 34016G24KT 1/2SM SN FZFG VV005 M04/M06 A2966 1270 85 -700 330/16G24 RMK AO2 P0000
14926KSTC STC20060313081513703/13/06 08:15:31  5-MIN KSTC 131415Z 34019G26KT 1/2SM SN FZFG VV005 M04/M06 A2966 1270 85 -700 330/19G26 RMK AO2 PK WND 33026/1414 P0000
14926KSTC STC20060313082013703/13/06 08:20:31  5-MIN KSTC 131420Z 33014G26KT 1/2SM SN FZFG VV004 M04/M06 A2966 1270 85 -700 330/14G26 RMK AO2 PK WND 33026/1414 P0000
14926KSTC STC20060313082513703/13/06 08:25:31  5-MIN KSTC 131425Z 33016G20KT 1/2SM SN FZFG VV004 M04/M06 A2966 1270 88 -700 330/16G20 RMK AO2 PK WND 33026/1414 P0000
14926KSTC STC20060313083013703/13/06 08:30:31  5-MIN KSTC 131430Z 33015G21KT 1/2SM SN FZFG VV004 M04/M06 A2966 1270 88 -700 330/15G21 RMK AO2 PK WND 33026/1414 P0000
14926KSTC STC20060313083513703/13/06 08:35:31  5-MIN KSTC 131435Z 33014G21KT 1/2SM SN FZFG VV004 M04/M06 A2966 1270 88 -700 330/14G21 RMK AO2 PK WND 33026/1414 P0001
14926KSTC STC20060313084013703/13/06 08:40:31  5-MIN KSTC 131440Z 33012G20KT 1/2SM SN FZFG VV004 M04/M06 A2966 1270 88 -700 330/12G20 RMK AO2 PK WND 33026/1414 P0001
14926KSTC STC20060313084513703/13/06 08:45:31  5-MIN KSTC 131445Z 33016G20KT 1/2SM SN FZFG VV004 M04/M06 A2966 1260 88 -700 330/16G20 RMK AO2 PK WND 33026/1414 P0001
14926KSTC STC20060313085016603/13/06 08:50:31  5-MIN KSTC 131450Z 33015G21KT 1/2SM SN FZFG VV004 M04/M07 A2966 1260 84 -700 330/15G21 RMK AO2 PK WND 33026/1414 SLP066 P0001 60001 T10441067 58013
14926KSTC STC20060313085512003/13/06 08:55:31  5-MIN KSTC 131455Z 33015G22KT 1/2SM -SN FZFG VV005 M04/M07 A2967 1260 84 -700 330/15G22 RMK AO2 P0000
14926KSTC STC20060313090013203/13/06 09:00:31  5-MIN KSTC 131500Z 33020G27KT 1/2SM SN VV006 M04/M07 A2966 1260 81 -700 330/20G27 RMK AO2 PK WND 33027/1459 P0000
14926KSTC STC20060313090513303/13/06 09:05:31  5-MIN KSTC 131505Z 33019G27KT 3/4SM -SN VV006 M04/M07 A2967 1260 81 -700 330/19G27 RMK AO2 PK WND 33027/1459 P0000
14926KSTC STC20060313091013103/13/06 09:10:31  5-MIN KSTC 131510Z 33016G26KT 1SM -SN VV007 M04/M07 A2967 1260 81 -700 330/16G26 RMK AO2 PK WND 33027/1459 P0000
14926KSTC STC20060313091514303/13/06 09:15:31  5-MIN KSTC 131515Z 33017G23KT 1 1/4SM -SN BKN008 OVC017 M04/M07 A2967 1260 81 -700 330/17G23 RMK AO2 PK WND 33027/1459 P0000
14926KSTC STC20060313092014303/13/06 09:20:31  5-MIN KSTC 131520Z 34019G26KT 1 1/2SM -SN BKN010 OVC017 M04/M07 A2967 1260 81 -700 330/19G26 RMK AO2 PK WND 33027/1459 P0000
14926KSTC STC20060313092514303/13/06 09:25:31  5-MIN KSTC 131525Z 33016G26KT 1 3/4SM -SN BKN012 OVC017 M04/M07 A2967 1260 81 -700 330/16G26 RMK AO2 PK WND 33027/1459 P0000
14926KSTC STC20060313093013603/13/06 09:30:31  5-MIN KSTC 131530Z 33017G23KT 2 1/2SM -SN OVC015 M04/M07 A2967 1260 81 -700 330/17G23 RMK AO2 PK WND 33027/1459 P0000
14926KSTC STC20060313093513203/13/06 09:35:31  5-MIN KSTC 131535Z 33019G25KT 3SM -SN OVC015 M04/M07 A2967 1260 81 -700 330/19G25 RMK AO2 PK WND 33027/1459 P0000
14926KSTC STC20060313094013203/13/06 09:40:31  5-MIN KSTC 131540Z 33016G25KT 3SM -SN OVC015 M04/M08 A2968 1250 78 -700 330/16G25 RMK AO2 PK WND 33027/1459 P0000
14926KSTC STC20060313094512603/13/06 09:45:31  5-MIN KSTC 131545Z 33014KT 3SM -SN OVC017 M04/M07 A2968 1250 81 -700 330/14 RMK AO2 PK WND 33027/1459 P0000
14926KSTC STC20060313095014903/13/06 09:50:31  5-MIN KSTC 131550Z 34017G25KT 3SM -SN OVC017 M04/M08 A2968 1250 78 -700 340/17G25 RMK AO2 PK WND 33027/1459 SLP070 P0000 T10441078
14926KSTC STC20060313095511403/13/06 09:55:31  5-MIN KSTC 131555Z 34018G25KT 3SM -SN OVC017 M04/M08 A2968 1250 78 -700 330/18G25 RMK AO2 P0000
14926KSTC STC20060313100011403/13/06 10:00:31  5-MIN KSTC 131600Z 34018G25KT 5SM -SN OVC017 M04/M08 A2968 1250 78 -700 330/18G25 RMK AO2 P0000
14926KSTC STC20060313100511903/13/06 10:05:31  5-MIN KSTC 131605Z 33017G25KT 6SM HZ OVC017 M04/M08 A2968 1250 78 -700 320/17G25 RMK AO2 SNE03 P0000
14926KSTC STC20060313101011603/13/06 10:10:31  5-MIN KSTC 131610Z 34014G22KT 8SM OVC017 M04/M08 A2968 1250 78 -700 330/14G22 RMK AO2 SNE03 P0000
14926KSTC STC20060313101511403/13/06 10:15:31  5-MIN KSTC 131615Z 33018G23KT 6SM -SN OVC017 M04/M08 A2968 1250 78 -700 330/18G23 RMK AO2 P0000
14926KSTC STC20060313102013203/13/06 10:20:31  5-MIN KSTC 131620Z 34016G26KT 5SM -SN OVC017 M04/M08 A2968 1250 78 -700 330/16G26 RMK AO2 PK WND 34026/1617 P0000
14926KSTC STC20060313102513403/13/06 10:25:31  5-MIN KSTC 131625Z 34015G26KT 7SM OVC017 M04/M08 A2968 1250 78 -800 330/15G26 RMK AO2 PK WND 34026/1617 SNE23 P0000
14926KSTC STC20060313103013403/13/06 10:30:31  5-MIN KSTC 131630Z 34017G28KT 9SM OVC017 M04/M08 A2968 1250 78 -800 330/17G28 RMK AO2 PK WND 34028/1627 SNE23 P0000
14926KSTC STC20060313103513503/13/06 10:35:31  5-MIN KSTC 131635Z 33019G28KT 10SM OVC017 M04/M08 A2968 1250 78 -800 330/19G28 RMK AO2 PK WND 34028/1627 SNE23 P0000
14926KSTC STC20060313104013503/13/06 10:40:31  5-MIN KSTC 131640Z 33014G24KT 10SM OVC017 M04/M08 A2968 1250 78 -800 330/14G24 RMK AO2 PK WND 34028/1627 SNE23 P0000
14926KSTC STC20060313104513503/13/06 10:45:31  5-MIN KSTC 131645Z 33019G24KT 10SM OVC017 M04/M08 A2968 1250 78 -800 330/19G24 RMK AO2 PK WND 34028/1627 SNE23 P0000
14926KSTC STC20060313105015203/13/06 10:50:31  5-MIN KSTC 131650Z 34019G26KT 10SM OVC017 M04/M08 A2968 1250 78 -800 340/19G26 RMK AO2 PK WND 34028/1627 SNE23 SLP073 P0000 T10441078
14926KSTC STC20060313105510503/13/06 10:55:31  5-MIN KSTC 131655Z 33018G26KT 10SM OVC017 M04/M08 A2969 1240 78 -800 330/18G26 RMK AO2
14926KSTC STC20060313110010503/13/06 11:00:31  5-MIN KSTC 131700Z 33020G25KT 10SM BKN017 M04/M08 A2968 1250 74 -800 330/20G25 RMK AO2
14926KSTC STC20060313110510503/13/06 11:05:31  5-MIN KSTC 131705Z 34019G25KT 10SM BKN017 M04/M08 A2968 1250 74 -700 330/19G25 RMK AO2
14926KSTC STC20060313111010503/13/06 11:10:31  5-MIN KSTC 131710Z 34018G25KT 10SM BKN017 M04/M08 A2968 1250 74 -800 330/18G25 RMK AO2
14926KSTC STC20060313111511203/13/06 11:15:31  5-MIN KSTC 131715Z 34019G25KT 10SM SCT017 BKN037 M04/M08 A2968 1250 74 -800 330/19G25 RMK AO2
14926KSTC STC20060313112011203/13/06 11:20:31  5-MIN KSTC 131720Z 33019G25KT 10SM FEW017 BKN037 M04/M08 A2968 1250 74 -800 330/19G25 RMK AO2
14926KSTC STC20060313112511203/13/06 11:25:31  5-MIN KSTC 131725Z 33020G25KT 10SM FEW017 SCT037 M04/M08 A2968 1250 74 -800 330/20G25 RMK AO2
14926KSTC STC20060313113010503/13/06 11:30:31  5-MIN KSTC 131730Z 34016G24KT 10SM BKN035 M04/M08 A2968 1250 71 -700 330/16G24 RMK AO2
14926KSTC STC20060313113510503/13/06 11:35:31  5-MIN KSTC 131735Z 34020G25KT 10SM BKN035 M04/M08 A2968 1250 71 -700 340/20G25 RMK AO2
14926KSTC STC20060313114012303/13/06 11:40:31  5-MIN KSTC 131740Z 33019G26KT 10SM BKN035 M04/M08 A2969 1240 71 -700 330/19G26 RMK AO2 PK WND 33026/1740
14926KSTC STC20060313114512303/13/06 11:45:31  5-MIN KSTC 131745Z 33021G27KT 10SM BKN035 M04/M08 A2969 1240 71 -700 330/21G27 RMK AO2 PK WND 34027/1743
14926KSTC STC20060313115016403/13/06 11:50:31  5-MIN KSTC 131750Z 33019G27KT 10SM BKN035 M04/M08 A2968 1250 71 -700 330/19G27 RMK AO2 PK WND 34027/1743 SLP073 60001 T10391083 11022 21044 53007
14926KSTC STC20060313115510503/13/06 11:55:31  5-MIN KSTC 131755Z 33021G26KT 10SM BKN035 M04/M08 A2968 1250 71 -700 330/21G26 RMK AO2
14926KSTC STC20060313120010503/13/06 12:00:31  5-MIN KSTC 131800Z 33020G25KT 10SM BKN035 M04/M08 A2969 1240 71 -700 330/20G25 RMK AO2
14926KSTC STC20060313120513003/13/06 12:05:31  5-MIN KSTC 131805Z 33020G27KT 10SM FEW022 BKN035 M04/M08 A2969 1240 71 -700 330/20G27 RMK AO2 PK WND 33027/1802
14926KSTC STC20060313121013003/13/06 12:10:31  5-MIN KSTC 131810Z 33014G27KT 10SM SCT022 BKN035 M04/M08 A2969 1240 71 -700 330/14G27 RMK AO2 PK WND 33027/1802
14926KSTC STC20060313121513003/13/06 12:15:31  5-MIN KSTC 131815Z 33018G26KT 10SM SCT022 BKN033 M04/M08 A2969 1240 71 -700 330/18G26 RMK AO2 PK WND 33027/1802
14926KSTC STC20060313122012903/13/06 12:20:31  5-MIN KSTC 131820Z 33021G26KT 9SM FEW022 SCT033 M04/M08 A2969 1240 71 -700 330/21G26 RMK AO2 PK WND 33027/1802
14926KSTC STC20060313122512203/13/06 12:25:31  5-MIN KSTC 131825Z 33020G27KT 9SM FEW022 M04/M08 A2969 1240 71 -700 330/20G27 RMK AO2 PK WND 32027/1824
14926KSTC STC20060313123012303/13/06 12:30:31  5-MIN KSTC 131830Z 33016G27KT 10SM SCT022 M04/M08 A2969 1240 71 -700 330/16G27 RMK AO2 PK WND 32027/1824
14926KSTC STC20060313123513003/13/06 12:35:31  5-MIN KSTC 131835Z 34019G26KT 10SM SCT022 SCT031 M04/M08 A2969 1240 71 -700 340/19G26 RMK AO2 PK WND 32027/1824
14926KSTC STC20060313124012303/13/06 12:40:31  5-MIN KSTC 131840Z 33015G24KT 10SM FEW022 M04/M08 A2969 1240 71 -700 330/15G24 RMK AO2 PK WND 32027/1824
14926KSTC STC20060313124513003/13/06 12:45:31  5-MIN KSTC 131845Z 33016G24KT 10SM FEW020 SCT031 M03/M08 A2970 1230 71 -600 320/16G24 RMK AO2 PK WND 32027/1824
14926KSTC STC20060313125014703/13/06 12:50:31  5-MIN KSTC 131850Z 32020G24KT 10SM SCT020 BKN031 M04/M08 A2970 1230 71 -700 310/20G24 RMK AO2 PK WND 32027/1824 SLP077 T10391083
14926KSTC STC20060313125510603/13/06 12:55:31  5-MIN KSTC 131855Z 32020KT 10SM BKN020 BKN031 M04/M08 A2970 1230 71 -700 320/20 RMK AO2
14926KSTC STC20060313130011203/13/06 13:00:31  5-MIN KSTC 131900Z 33017G25KT 10SM BKN022 BKN031 M04/M08 A2970 1230 71 -700 320/17G25 RMK AO2
14926KSTC STC20060313130511203/13/06 13:05:31  5-MIN KSTC 131905Z 32017G25KT 10SM BKN022 BKN031 M04/M08 A2970 1230 71 -700 320/17G25 RMK AO2
14926KSTC STC20060313131011203/13/06 13:10:31  5-MIN KSTC 131910Z 33017G24KT 10SM SCT022 OVC031 M04/M08 A2970 1230 71 -700 330/17G24 RMK AO2
14926KSTC STC20060313131511203/13/06 13:15:31  5-MIN KSTC 131915Z 32017G24KT 10SM SCT022 OVC031 M04/M08 A2970 1230 71 -700 320/17G24 RMK AO2
14926KSTC STC20060313132013003/13/06 13:20:31  5-MIN KSTC 131920Z 32018G26KT 10SM SCT022 OVC031 M04/M08 A2970 1230 71 -700 320/18G26 RMK AO2 PK WND 32026/1917
14926KSTC STC20060313132513003/13/06 13:25:31  5-MIN KSTC 131925Z 33013G26KT 10SM SCT022 OVC031 M03/M08 A2970 1230 68 -600 330/13G26 RMK AO2 PK WND 32026/1917
14926KSTC STC20060313133013003/13/06 13:30:31  5-MIN KSTC 131930Z 32014G22KT 10SM SCT024 OVC031 M03/M08 A2970 1230 68 -600 320/14G22 RMK AO2 PK WND 32026/1917
14926KSTC STC20060313133512403/13/06 13:35:31  5-MIN KSTC 131935Z 32014KT 10SM SCT024 OVC031 M03/M08 A2970 1230 68 -600 320/14 RMK AO2 PK WND 32026/1917
14926KSTC STC20060313134013003/13/06 13:40:31  5-MIN KSTC 131940Z 32016G21KT 10SM SCT024 OVC031 M03/M08 A2970 1230 68 -600 320/16G21 RMK AO2 PK WND 32026/1917
14926KSTC STC20060313134513003/13/06 13:45:31  5-MIN KSTC 131945Z 32017G24KT 10SM SCT024 OVC031 M03/M08 A2970 1230 68 -600 320/17G24 RMK AO2 PK WND 32026/1917
14926KSTC STC20060313135014703/13/06 13:50:31  5-MIN KSTC 131950Z 33015G24KT 10SM SCT024 BKN031 M03/M08 A2970 1230 68 -600 320/15G24 RMK AO2 PK WND 32026/1917 SLP080 T10331083
14926KSTC STC20060313135511203/13/06 13:55:31  5-MIN KSTC 131955Z 33016G24KT 10SM FEW024 BKN031 M03/M09 A2970 1230 65 -600 330/16G24 RMK AO2
14926KSTC STC20060313140010503/13/06 14:00:31  5-MIN KSTC 132000Z 32015G25KT 10SM SCT028 M03/M09 A2970 1230 65 -600 320/15G25 RMK AO2
14926KSTC STC20060313140511203/13/06 14:05:31  5-MIN KSTC 132005Z 33017G25KT 10SM FEW026 SCT031 M03/M09 A2971 1230 65 -600 330/17G25 RMK AO2
14926KSTC STC20060313141010503/13/06 14:10:31  5-MIN KSTC 132010Z 32019G23KT 10SM FEW026 M03/M09 A2971 1220 65 -600 320/19G23 RMK AO2
14926KSTC STC20060313141510503/13/06 14:15:31  5-MIN KSTC 132015Z 32018G24KT 10SM FEW029 M03/M09 A2971 1220 65 -600 320/18G24 RMK AO2
14926KSTC STC20060313142012303/13/06 14:20:31  5-MIN KSTC 132020Z 33019G26KT 10SM FEW027 M03/M09 A2971 1220 65 -600 320/19G26 RMK AO2 PK WND 33026/2018
14926KSTC STC20060313142512003/13/06 14:25:31  5-MIN KSTC 132025Z 32019G26KT 10SM CLR M03/M09 A2971 1220 65 -600 320/19G26 RMK AO2 PK WND 33026/2018
14926KSTC STC20060313143012003/13/06 14:30:31  5-MIN KSTC 132030Z 32021G27KT 10SM CLR M03/M09 A2971 1220 65 -600 320/21G27 RMK AO2 PK WND 32027/2029
14926KSTC STC20060313143512003/13/06 14:35:31  5-MIN KSTC 132035Z 33020G27KT 10SM CLR M03/M09 A2972 1220 65 -600 330/20G27 RMK AO2 PK WND 32027/2029
14926KSTC STC20060313144012003/13/06 14:40:31  5-MIN KSTC 132040Z 33018G26KT 10SM CLR M03/M09 A2972 1220 63 -600 330/18G26 RMK AO2 PK WND 32027/2029
14926KSTC STC20060313144511903/13/06 14:45:31  5-MIN KSTC 132045Z 33019G27KT 9SM CLR M03/M09 A2972 1210 60 -600 320/19G27 RMK AO2 PK WND 32027/2044
14926KSTC STC20060313145014203/13/06 14:50:31  5-MIN KSTC 132050Z 33018G27KT 9SM CLR M03/M09 A2972 1210 60 -600 330/18G27 RMK AO2 PK WND 32027/2044 SLP085 T10281094 50007
14926KSTC STC20060313145510503/13/06 14:55:31  5-MIN KSTC 132055Z 33017G27KT 10SM FEW031 M03/M09 A2972 1210 60 -600 320/17G27 RMK AO2
14926KSTC STC20060313150010503/13/06 15:00:31  5-MIN KSTC 132100Z 33017G27KT 10SM FEW031 M03/M09 A2973 1210 60 -600 320/17G27 RMK AO2
14926KSTC STC20060313150510203/13/06 15:05:31  5-MIN KSTC 132105Z 33018G24KT 10SM CLR M03/M09 A2973 1200 60 -600 330/18G24 RMK AO2
14926KSTC STC20060313151010503/13/06 15:10:31  5-MIN KSTC 132110Z 32015G24KT 10SM FEW031 M02/M09 A2973 1200 60 -500 320/15G24 RMK AO2
14926KSTC STC20060313151510503/13/06 15:15:31  5-MIN KSTC 132115Z 32015G22KT 10SM FEW031 M02/M09 A2973 1200 60 -500 320/15G22 RMK AO2
14926KSTC STC20060313152010203/13/06 15:20:31  5-MIN KSTC 132120Z 32013G25KT 10SM CLR M02/M09 A2973 1200 60 -500 320/13G25 RMK AO2
14926KSTC STC20060313152510503/13/06 15:25:31  5-MIN KSTC 132125Z 32018G25KT 10SM FEW035 M02/M09 A2974 1200 60 -500 310/18G25 RMK AO2
14926KSTC STC20060313153012303/13/06 15:30:31  5-MIN KSTC 132130Z 32021G27KT 10SM FEW035 M03/M09 A2974 1200 63 -600 310/21G27 RMK AO2 PK WND 32027/2126
14926KSTC STC20060313153512003/13/06 15:35:31  5-MIN KSTC 132135Z 32019G27KT 10SM CLR M03/M09 A2974 1190 60 -600 310/19G27 RMK AO2 PK WND 32027/2126
14926KSTC STC20060313154012003/13/06 15:40:31  5-MIN KSTC 132140Z 32016G26KT 10SM CLR M03/M09 A2974 1190 60 -600 320/16G26 RMK AO2 PK WND 32027/2126
14926KSTC STC20060313154512003/13/06 15:45:31  5-MIN KSTC 132145Z 31018G23KT 10SM CLR M03/M09 A2975 1190 63 -600 310/18G23 RMK AO2 PK WND 32027/2126
14926KSTC STC20060313155013703/13/06 15:50:31  5-MIN KSTC 132150Z 32020G24KT 10SM CLR M03/M09 A2975 1190 63 -600 310/20G24 RMK AO2 PK WND 32027/2126 SLP095 T10281089
14926KSTC STC20060313155510203/13/06 15:55:31  5-MIN KSTC 132155Z 33018G24KT 10SM CLR M03/M09 A2975 1180 60 -600 320/18G24 RMK AO2
14926KSTC STC20060313160010203/13/06 16:00:31  5-MIN KSTC 132200Z 32019G24KT 10SM CLR M03/M09 A2975 1180 60 -600 320/19G24 RMK AO2
14926KSTC STC20060313160512003/13/06 16:05:31  5-MIN KSTC 132205Z 32020G26KT 10SM CLR M03/M09 A2975 1180 60 -600 320/20G26 RMK AO2 PK WND 32026/2205
14926KSTC STC20060313161012003/13/06 16:10:31  5-MIN KSTC 132210Z 32016G26KT 10SM CLR M03/M09 A2975 1180 60 -600 320/16G26 RMK AO2 PK WND 32026/2205
14926KSTC STC20060313161512003/13/06 16:15:31  5-MIN KSTC 132215Z 32018G24KT 10SM CLR M03/M09 A2975 1180 60 -600 310/18G24 RMK AO2 PK WND 32026/2205
14926KSTC STC20060313162012003/13/06 16:20:31  5-MIN KSTC 132220Z 33015G24KT 10SM CLR M03/M09 A2976 1180 60 -600 320/15G24 RMK AO2 PK WND 32026/2205
14926KSTC STC20060313162512003/13/06 16:25:31  5-MIN KSTC 132225Z 33019G24KT 10SM CLR M03/M09 A2976 1180 60 -600 320/19G24 RMK AO2 PK WND 32026/2205
14926KSTC STC20060313163012003/13/06 16:30:31  5-MIN KSTC 132230Z 32017G24KT 10SM CLR M03/M09 A2976 1170 60 -600 320/17G24 RMK AO2 PK WND 32026/2205
14926KSTC STC20060313163512003/13/06 16:35:31  5-MIN KSTC 132235Z 32018G23KT 10SM CLR M03/M09 A2976 1170 60 -600 320/18G23 RMK AO2 PK WND 32026/2205
14926KSTC STC20060313164012003/13/06 16:40:31  5-MIN KSTC 132240Z 32016G23KT 10SM CLR M03/M09 A2977 1170 60 -600 320/16G23 RMK AO2 PK WND 32026/2205
14926KSTC STC20060313164512003/13/06 16:45:31  5-MIN KSTC 132245Z 32017G23KT 10SM CLR M03/M09 A2977 1160 60 -600 320/17G23 RMK AO2 PK WND 32026/2205
14926KSTC STC20060313165013703/13/06 16:50:31  5-MIN KSTC 132250Z 32017G23KT 10SM CLR M03/M09 A2977 1160 60 -600 320/17G23 RMK AO2 PK WND 32026/2205 SLP104 T10281094
14926KSTC STC20060313165510203/13/06 16:55:31  5-MIN KSTC 132255Z 32019G23KT 10SM CLR M03/M09 A2978 1160 60 -600 320/19G23 RMK AO2
14926KSTC STC20060313170010203/13/06 17:00:31  5-MIN KSTC 132300Z 32016G25KT 10SM CLR M03/M09 A2978 1160 60 -600 320/16G25 RMK AO2
14926KSTC STC20060313170510203/13/06 17:05:31  5-MIN KSTC 132305Z 31018G25KT 10SM CLR M03/M09 A2978 1160 60 -700 310/18G25 RMK AO2
14926KSTC STC20060313171009603/13/06 17:10:31  5-MIN KSTC 132310Z 30019KT 10SM CLR M03/M09 A2978 1150 63 -700 300/19 RMK AO2
14926KSTC STC20060313171509603/13/06 17:15:31  5-MIN KSTC 132315Z 31018KT 10SM CLR M03/M09 A2978 1150 65 -700 300/18 RMK AO2
14926KSTC STC20060313172009603/13/06 17:20:31  5-MIN KSTC 132320Z 31017KT 10SM CLR M03/M09 A2979 1150 65 -700 310/17 RMK AO2
14926KSTC STC20060313172509603/13/06 17:25:31  5-MIN KSTC 132325Z 31016KT 10SM CLR M03/M09 A2979 1140 65 -700 300/16 RMK AO2
14926KSTC STC20060313173010203/13/06 17:30:31  5-MIN KSTC 132330Z 31020G24KT 10SM CLR M03/M09 A2979 1140 65 -700 300/20G24 RMK AO2
14926KSTC STC20060313173509603/13/06 17:35:31  5-MIN KSTC 132335Z 31019KT 10SM CLR M04/M09 A2980 1140 65 -800 310/19 RMK AO2
14926KSTC STC20060313174009603/13/06 17:40:31  5-MIN KSTC 132340Z 31018KT 10SM CLR M04/M09 A2980 1140 65 -800 310/18 RMK AO2
14926KSTC STC20060313174509603/13/06 17:45:31  5-MIN KSTC 132345Z 31017KT 10SM CLR M04/M09 A2980 1140 65 -800 310/17 RMK AO2
14926KSTC STC20060313175013103/13/06 17:50:31  5-MIN KSTC 132350Z 30018KT 10SM CLR M04/M09 A2980 1130 68 -900 300/18 RMK AO2 SLP115 T10441094 11022 21044 53012
14926KSTC STC20060313175510203/13/06 17:55:31  5-MIN KSTC 132355Z 30018G24KT 10SM CLR M04/M09 A2981 1130 68 -900 300/18G24 RMK AO2
14926KSTC STC20060313180012103/13/06 18:00:31  5-MIN KSTC 140000Z 31021G28KT 10SM CLR M05/M09 A2981 1130 71 -1000 310/21G28 RMK AO2 PK WND 31028/2358
14926KSTC STC20060313180512103/13/06 18:05:31  5-MIN KSTC 140005Z 30022G28KT 10SM CLR M05/M09 A2982 1120 71 -1000 300/22G28 RMK AO2 PK WND 31028/2358
14926KSTC STC20060313181011503/13/06 18:10:31  5-MIN KSTC 140010Z 30020KT 10SM CLR M05/M10 A2982 1120 68 -1000 300/20 RMK AO2 PK WND 31028/2358
14926KSTC STC20060313181511503/13/06 18:15:31  5-MIN KSTC 140015Z 31019KT 10SM CLR M06/M10 A2982 1120 71 -1100 300/19 RMK AO2 PK WND 31028/2358
14926KSTC STC20060313182011503/13/06 18:20:31  5-MIN KSTC 140020Z 31017KT 10SM CLR M06/M10 A2983 1110 71 -1100 310/17 RMK AO2 PK WND 31028/2358
14926KSTC STC20060313182512103/13/06 18:25:31  5-MIN KSTC 140025Z 31023G29KT 10SM CLR M06/M10 A2983 1110 71 -1100 300/23G29 RMK AO2 PK WND 31029/0025
14926KSTC STC20060313183012003/13/06 18:30:31  5-MIN KSTC 140030Z 31020G29KT 8SM CLR M06/M10 A2983 1110 71 -1100 310/20G29 RMK AO2 PK WND 31029/0025
14926KSTC STC20060313183512003/13/06 18:35:31  5-MIN KSTC 140035Z 31016G24KT 9SM CLR M06/M10 A2983 1110 71 -1100 300/16G24 RMK AO2 PK WND 31029/0025
14926KSTC STC20060313184012103/13/06 18:40:31  5-MIN KSTC 140040Z 31021G24KT 10SM CLR M06/M10 A2984 1100 71 -1100 310/21G24 RMK AO2 PK WND 31029/0025
14926KSTC STC20060313184511503/13/06 18:45:31  5-MIN KSTC 140045Z 31020KT 10SM CLR M06/M10 A2984 1100 71 -1100 300/20 RMK AO2 PK WND 31029/0025
14926KSTC STC20060313185013203/13/06 18:50:31  5-MIN KSTC 140050Z 31022KT 10SM CLR M06/M10 A2984 1100 71 -1100 310/22 RMK AO2 PK WND 31029/0025 SLP130 T10561100
14926KSTC STC20060313185509703/13/06 18:55:31  5-MIN KSTC 140055Z 31019KT 10SM CLR M06/M10 A2985 1090 71 -1100 310/19 RMK AO2
14926KSTC STC20060313190009703/13/06 19:00:31  5-MIN KSTC 140100Z 31016KT 10SM CLR M06/M10 A2985 1090 74 -1200 310/16 RMK AO2
14926KSTC STC20060313191511503/13/06 19:15:31  5-MIN KSTC 140115Z 31016KT 10SM CLR M06/M11 A2985 1090 71 -1200 310/16 RMK AO2 PK WND 31026/0108
14926KSTC STC20060313192012103/13/06 19:20:31  5-MIN KSTC 140120Z 31020G26KT 10SM CLR M06/M11 A2986 1090 71 -1200 310/20G26 RMK AO2 PK WND 31026/0117
14926KSTC STC20060313192512103/13/06 19:25:31  5-MIN KSTC 140125Z 31017G26KT 10SM CLR M06/M11 A2986 1080 71 -1200 310/17G26 RMK AO2 PK WND 31026/0117
14926KSTC STC20060313193012103/13/06 19:30:31  5-MIN KSTC 140130Z 31018G25KT 10SM CLR M07/M11 A2986 1080 74 -1200 310/18G25 RMK AO2 PK WND 31026/0117
14926KSTC STC20060313193512103/13/06 19:35:31  5-MIN KSTC 140135Z 31019G25KT 10SM CLR M07/M11 A2986 1080 71 -1200 310/19G25 RMK AO2 PK WND 31026/0117
14926KSTC STC20060313194012103/13/06 19:40:31  5-MIN KSTC 140140Z 31020G25KT 10SM CLR M07/M11 A2986 1080 71 -1200 310/20G25 RMK AO2 PK WND 31026/0117
14926KSTC STC20060313194512103/13/06 19:45:31  5-MIN KSTC 140145Z 31016G24KT 10SM CLR M07/M11 A2986 1080 71 -1200 310/16G24 RMK AO2 PK WND 31026/0117
14926KSTC STC20060313195013203/13/06 19:50:31  5-MIN KSTC 140150Z 31015KT 10SM CLR M07/M11 A2987 1080 71 -1300 310/15 RMK AO2 PK WND 31026/0117 SLP138 T10671111
14926KSTC STC20060313195509703/13/06 19:55:31  5-MIN KSTC 140155Z 31015KT 10SM CLR M07/M11 A2987 1070 71 -1300 310/15 RMK AO2
14926KSTC STC20060313200009703/13/06 20:00:31  5-MIN KSTC 140200Z 32018KT 10SM CLR M07/M11 A2987 1070 71 -1300 310/18 RMK AO2
14926KSTC STC20060313200509703/13/06 20:05:31  5-MIN KSTC 140205Z 31013KT 10SM CLR M07/M11 A2988 1070 71 -1300 310/13 RMK AO2
14926KSTC STC20060313201009703/13/06 20:10:31  5-MIN KSTC 140210Z 31017KT 10SM CLR M07/M11 A2988 1060 71 -1300 310/17 RMK AO2
14926KSTC STC20060313201510303/13/06 20:15:31  5-MIN KSTC 140215Z 31015G21KT 10SM CLR M07/M11 A2988 1060 74 -1300 310/15G21 RMK AO2
14926KSTC STC20060313202009703/13/06 20:20:31  5-MIN KSTC 140220Z 31020KT 10SM CLR M07/M12 A2988 1060 71 -1300 310/20 RMK AO2
14926KSTC STC20060313202509703/13/06 20:25:31  5-MIN KSTC 140225Z 31017KT 10SM CLR M07/M12 A2989 1060 71 -1300 310/17 RMK AO2
14926KSTC STC20060313203009703/13/06 20:30:31  5-MIN KSTC 140230Z 31015KT 10SM CLR M07/M12 A2989 1050 71 -1400 310/15 RMK AO2
14926KSTC STC20060313203509703/13/06 20:35:31  5-MIN KSTC 140235Z 31016KT 10SM CLR M07/M12 A2989 1050 71 -1400 310/16 RMK AO2
14926KSTC STC20060313204009703/13/06 20:40:31  5-MIN KSTC 140240Z 31017KT 10SM CLR M07/M12 A2990 1050 71 -1400 310/17 RMK AO2
14926KSTC STC20060313204510303/13/06 20:45:31  5-MIN KSTC 140245Z 31012G21KT 10SM CLR M07/M12 A2990 1050 71 -1400 310/12G21 RMK AO2
14926KSTC STC20060313205012003/13/06 20:50:31  5-MIN KSTC 140250Z 31014KT 10SM CLR M07/M12 A2990 1040 71 -1400 310/14 RMK AO2 SLP151 T10721117 53028
14926KSTC STC20060313205510303/13/06 20:55:31  5-MIN KSTC 140255Z 31019G22KT 10SM CLR M07/M12 A2990 1040 71 -1400 310/19G22 RMK AO2
14926KSTC STC20060313210010303/13/06 21:00:31  5-MIN KSTC 140300Z 32016G22KT 10SM CLR M08/M12 A2991 1040 71 -1400 320/16G22 RMK AO2
14926KSTC STC20060313210510303/13/06 21:05:31  5-MIN KSTC 140305Z 31018G21KT 10SM CLR M08/M12 A2991 1040 71 -1400 310/18G21 RMK AO2
14926KSTC STC20060313211009703/13/06 21:10:31  5-MIN KSTC 140310Z 31017KT 10SM CLR M08/M12 A2991 1040 71 -1400 310/17 RMK AO2
14926KSTC STC20060313211509703/13/06 21:15:31  5-MIN KSTC 140315Z 32016KT 10SM CLR M08/M12 A2991 1030 71 -1400 310/16 RMK AO2
14926KSTC STC20060313212010303/13/06 21:20:31  5-MIN KSTC 140320Z 31015G21KT 10SM CLR M08/M12 A2991 1030 71 -1500 310/15G21 RMK AO2
14926KSTC STC20060313212509703/13/06 21:25:31  5-MIN KSTC 140325Z 31014KT 10SM CLR M08/M12 A2992 1030 71 -1500 310/14 RMK AO2
14926KSTC STC20060313213009703/13/06 21:30:31  5-MIN KSTC 140330Z 31016KT 10SM CLR M08/M12 A2992 1030 71 -1500 310/16 RMK AO2
14926KSTC STC20060313213509703/13/06 21:35:31  5-MIN KSTC 140335Z 31016KT 10SM CLR M08/M12 A2992 1020 71 -1500 310/16 RMK AO2
14926KSTC STC20060313214009703/13/06 21:40:31  5-MIN KSTC 140340Z 31017KT 10SM CLR M08/M12 A2993 1020 71 -1500 310/17 RMK AO2
14926KSTC STC20060313214509703/13/06 21:45:31  5-MIN KSTC 140345Z 31018KT 10SM CLR M08/M12 A2993 1020 71 -1500 310/18 RMK AO2
14926KSTC STC20060313215011403/13/06 21:50:31  5-MIN KSTC 140350Z 31016KT 10SM CLR M08/M12 A2993 1020 74 -1500 310/16 RMK AO2 SLP160 T10831122
14926KSTC STC20060313215509703/13/06 21:55:31  5-MIN KSTC 140355Z 31015KT 10SM CLR M08/M12 A2993 1020 74 -1500 310/15 RMK AO2
14926KSTC STC20060313220009703/13/06 22:00:31  5-MIN KSTC 140400Z 31014KT 10SM CLR M08/M12 A2993 1020 74 -1500 310/14 RMK AO2
14926KSTC STC20060313220509703/13/06 22:05:31  5-MIN KSTC 140405Z 31014KT 10SM CLR M08/M12 A2993 1020 74 -1500 310/14 RMK AO2
14926KSTC STC20060313221009703/13/06 22:10:31  5-MIN KSTC 140410Z 31018KT 10SM CLR M08/M12 A2993 1010 74 -1500 310/18 RMK AO2
14926KSTC STC20060313221509703/13/06 22:15:31  5-MIN KSTC 140415Z 31017KT 10SM CLR M08/M12 A2994 1010 74 -1500 310/17 RMK AO2
14926KSTC STC20060313222009703/13/06 22:20:31  5-MIN KSTC 140420Z 32019KT 10SM CLR M08/M12 A2994 1010 74 -1600 310/19 RMK AO2
14926KSTC STC20060313222509703/13/06 22:25:31  5-MIN KSTC 140425Z 30013KT 10SM CLR M08/M12 A2994 1010 74 -1600 300/13 RMK AO2
14926KSTC STC20060313223010303/13/06 22:30:31  5-MIN KSTC 140430Z 31017G23KT 10SM CLR M08/M13 A2994 1010 70 -1600 310/17G23 RMK AO2
14926KSTC STC20060313223510303/13/06 22:35:31  5-MIN KSTC 140435Z 31018G23KT 10SM CLR M08/M13 A2994 1010 70 -1600 300/18G23 RMK AO2
14926KSTC STC20060313224009703/13/06 22:40:31  5-MIN KSTC 140440Z 31018KT 10SM CLR M08/M13 A2994 1000 70 -1600 310/18 RMK AO2
14926KSTC STC20060313224510203/13/06 22:45:31  5-MIN KSTC 140445Z AUTO 30014KT 10SM CLR M08/M13 A2995 1000 70 -1600 300/14 RMK AO2
14926KSTC STC20060313225011903/13/06 22:50:31  5-MIN KSTC 140450Z AUTO 30015KT 10SM CLR M08/M13 A2995 1000 70 -1600 300/15 RMK AO2 SLP167 T10831128
14926KSTC STC20060313225510203/13/06 22:55:31  5-MIN KSTC 140455Z AUTO 30014KT 10SM CLR M08/M13 A2995 1000 70 -1600 300/14 RMK AO2
14926KSTC STC20060313230010203/13/06 23:00:31  5-MIN KSTC 140500Z AUTO 31015KT 10SM CLR M08/M13 A2995 1000 70 -1600 300/15 RMK AO2
14926KSTC STC20060313230510203/13/06 23:05:31  5-MIN KSTC 140505Z AUTO 31013KT 10SM CLR M09/M13 A2995 1000 74 -1600 300/13 RMK AO2
14926KSTC STC20060313231010203/13/06 23:10:31  5-MIN KSTC 140510Z AUTO 31014KT 10SM CLR M09/M13 A2995 1000 74 -1600 310/14 RMK AO2
14926KSTC STC20060313231510803/13/06 23:15:31  5-MIN KSTC 140515Z AUTO 31015G20KT 10SM CLR M09/M13 A2995 1000 74 -1600 310/15G20 RMK AO2
14926KSTC STC20060313232010203/13/06 23:20:31  5-MIN KSTC 140520Z AUTO 31015KT 10SM CLR M09/M13 A2995 1000 74 -1600 310/15 RMK AO2
14926KSTC STC20060313232510203/13/06 23:25:31  5-MIN KSTC 140525Z AUTO 30012KT 10SM CLR M09/M13 A2995 1000 74 -1600 300/12 RMK AO2
14926KSTC STC20060313233010203/13/06 23:30:31  5-MIN KSTC 140530Z AUTO 31015KT 10SM CLR M09/M13 A2995 1000 74 -1600 310/15 RMK AO2
14926KSTC STC20060313233510103/13/06 23:35:31  5-MIN KSTC 140535Z AUTO 31015KT 10SM CLR M09/M13 A2996 990 74 -1600 310/15 RMK AO2
14926KSTC STC20060313234010103/13/06 23:40:31  5-MIN KSTC 140540Z AUTO 31014KT 10SM CLR M09/M13 A2996 990 74 -1600 310/14 RMK AO2
14926KSTC STC20060313234510103/13/06 23:45:31  5-MIN KSTC 140545Z AUTO 31014KT 10SM CLR M09/M13 A2996 990 74 -1600 310/14 RMK AO2
14926KSTC STC20060313235014603/13/06 23:50:31  5-MIN KSTC 140550Z AUTO 31015KT 10SM CLR M09/M13 A2996 990 74 -1600 310/15 RMK AO2 SLP170 T10891128 11044 21089 400111089 51031
14926KSTC STC20060313235510103/13/06 23:55:31  5-MIN KSTC 140555Z AUTO 31014KT 10SM CLR M09/M13 A2996 990 77 -1700 300/14 RMK AO2
14926KSTC STC20060314000010103/14/06 00:00:32  5-MIN KSTC 140600Z AUTO 31014KT 10SM CLR M09/M13 A2996 990 73 -1700 310/14 RMK AO2
14926KSTC STC20060314000510703/14/06 00:05:31  5-MIN KSTC 140605Z AUTO 31015G21KT 10SM CLR M09/M13 A2996 990 73 -1700 310/15G21 RMK AO2
14926KSTC STC20060314001010103/14/06 00:10:31  5-MIN KSTC 140610Z AUTO 31013KT 10SM CLR M09/M13 A2996 990 73 -1700 310/13 RMK AO2
14926KSTC STC20060314001510103/14/06 00:15:31  5-MIN KSTC 140615Z AUTO 31016KT 10SM CLR M09/M13 A2996 990 73 -1700 310/16 RMK AO2
14926KSTC STC20060314002010103/14/06 00:20:31  5-MIN KSTC 140620Z AUTO 32014KT 10SM CLR M09/M13 A2996 990 73 -1700 310/14 RMK AO2
14926KSTC STC20060314002510103/14/06 00:25:31  5-MIN KSTC 140625Z AUTO 31014KT 10SM CLR M09/M13 A2996 990 73 -1700 310/14 RMK AO2
14926KSTC STC20060314003010103/14/06 00:30:31  5-MIN KSTC 140630Z AUTO 31012KT 10SM CLR M10/M13 A2996 990 77 -1800 310/12 RMK AO2
14926KSTC STC20060314003510103/14/06 00:35:31  5-MIN KSTC 140635Z AUTO 32012KT 10SM CLR M10/M13 A2997 980 77 -1800 310/12 RMK AO2
14926KSTC STC20060314004010103/14/06 00:40:31  5-MIN KSTC 140640Z AUTO 31012KT 10SM CLR M10/M13 A2997 980 77 -1800 310/12 RMK AO2
14926KSTC STC20060314004510103/14/06 00:45:31  5-MIN KSTC 140645Z AUTO 31014KT 10SM CLR M10/M14 A2997 980 73 -1800 310/14 RMK AO2
14926KSTC STC20060314005011803/14/06 00:50:31  5-MIN KSTC 140650Z AUTO 31013KT 10SM CLR M10/M14 A2997 980 73 -1800 310/13 RMK AO2 SLP174 T11001139
14926KSTC STC20060314005510103/14/06 00:55:31  5-MIN KSTC 140655Z AUTO 31010KT 10SM CLR M10/M14 A2997 980 73 -1800 310/10 RMK AO2
14926KSTC STC20060314010010103/14/06 01:00:31  5-MIN KSTC 140700Z AUTO 32009KT 10SM CLR M10/M14 A2997 980 73 -1800 320/09 RMK AO2
14926KSTC STC20060314010510103/14/06 01:05:31  5-MIN KSTC 140705Z AUTO 31013KT 10SM CLR M10/M14 A2996 990 73 -1800 310/13 RMK AO2
14926KSTC STC20060314011010103/14/06 01:10:31  5-MIN KSTC 140710Z AUTO 32013KT 10SM CLR M10/M14 A2996 990 73 -1800 310/13 RMK AO2
14926KSTC STC20060314011510103/14/06 01:15:31  5-MIN KSTC 140715Z AUTO 31014KT 10SM CLR M10/M14 A2997 980 73 -1800 310/14 RMK AO2
14926KSTC STC20060314012010103/14/06 01:20:31  5-MIN KSTC 140720Z AUTO 31011KT 10SM CLR M10/M14 A2997 980 73 -1800 310/11 RMK AO2
14926KSTC STC20060314012510103/14/06 01:25:31  5-MIN KSTC 140725Z AUTO 31011KT 10SM CLR M11/M14 A2997 980 77 -1900 310/11 RMK AO2
14926KSTC STC20060314013010103/14/06 01:30:31  5-MIN KSTC 140730Z AUTO 31012KT 10SM CLR M11/M14 A2997 980 77 -1900 300/12 RMK AO2
14926KSTC STC20060314013510103/14/06 01:35:31  5-MIN KSTC 140735Z AUTO 31012KT 10SM CLR M11/M14 A2997 980 77 -1900 310/12 RMK AO2
14926KSTC STC20060314014010103/14/06 01:40:31  5-MIN KSTC 140740Z AUTO 31013KT 10SM CLR M11/M14 A2997 980 77 -1900 310/13 RMK AO2
14926KSTC STC20060314014510103/14/06 01:45:31  5-MIN KSTC 140745Z AUTO 30010KT 10SM CLR M11/M14 A2997 980 77 -1900 300/10 RMK AO2
14926KSTC STC20060314015011803/14/06 01:50:31  5-MIN KSTC 140750Z AUTO 30012KT 10SM CLR M11/M14 A2997 980 77 -1900 300/12 RMK AO2 SLP176 T11061139
14926KSTC STC20060314015510103/14/06 01:55:31  5-MIN KSTC 140755Z AUTO 30011KT 10SM CLR M11/M14 A2997 980 77 -1900 300/11 RMK AO2
14926KSTC STC20060314020010103/14/06 02:00:31  5-MIN KSTC 140800Z AUTO 30013KT 10SM CLR M11/M14 A2997 980 73 -1900 300/13 RMK AO2
14926KSTC STC20060314020510103/14/06 02:05:31  5-MIN KSTC 140805Z AUTO 30013KT 10SM CLR M11/M14 A2998 970 73 -1900 300/13 RMK AO2
14926KSTC STC20060314021010103/14/06 02:10:31  5-MIN KSTC 140810Z AUTO 30013KT 10SM CLR M11/M14 A2998 970 73 -1900 300/13 RMK AO2
14926KSTC STC20060314021510103/14/06 02:15:31  5-MIN KSTC 140815Z AUTO 30010KT 10SM CLR M11/M14 A2998 970 73 -1900 300/10 RMK AO2
14926KSTC STC20060314022010103/14/06 02:20:31  5-MIN KSTC 140820Z AUTO 30012KT 10SM CLR M11/M14 A2998 970 73 -1900 300/12 RMK AO2
14926KSTC STC20060314022510103/14/06 02:25:31  5-MIN KSTC 140825Z AUTO 31011KT 10SM CLR M11/M14 A2998 980 73 -1900 300/11 RMK AO2
14926KSTC STC20060314023010103/14/06 02:30:31  5-MIN KSTC 140830Z AUTO 30010KT 10SM CLR M11/M14 A2997 980 73 -1900 300/10 RMK AO2
14926KSTC STC20060314023510103/14/06 02:35:31  5-MIN KSTC 140835Z AUTO 30010KT 10SM CLR M11/M14 A2998 980 73 -1900 300/10 RMK AO2
14926KSTC STC20060314024010103/14/06 02:40:31  5-MIN KSTC 140840Z AUTO 30010KT 10SM CLR M11/M14 A2997 980 73 -1900 300/10 RMK AO2
14926KSTC STC20060314024510103/14/06 02:45:31  5-MIN KSTC 140845Z AUTO 30011KT 10SM CLR M11/M14 A2997 980 77 -2000 300/11 RMK AO2
14926KSTC STC20060314025012403/14/06 02:50:31  5-MIN KSTC 140850Z AUTO 30011KT 10SM CLR M11/M14 A2997 980 73 -1900 300/11 RMK AO2 SLP177 T11061144 51018
14926KSTC STC20060314025510103/14/06 02:55:31  5-MIN KSTC 140855Z AUTO 30010KT 10SM CLR M11/M14 A2998 980 73 -1900 300/10 RMK AO2
14926KSTC STC20060314030010103/14/06 03:00:31  5-MIN KSTC 140900Z AUTO 30011KT 10SM CLR M11/M14 A2997 980 77 -2000 300/11 RMK AO2
14926KSTC STC20060314030510103/14/06 03:05:31  5-MIN KSTC 140905Z AUTO 30012KT 10SM CLR M11/M14 A2998 980 77 -2000 290/12 RMK AO2
14926KSTC STC20060314031010103/14/06 03:10:31  5-MIN KSTC 140910Z AUTO 30011KT 10SM CLR M11/M14 A2997 980 77 -2000 300/11 RMK AO2
14926KSTC STC20060314031510103/14/06 03:15:31  5-MIN KSTC 140915Z AUTO 30012KT 10SM CLR M11/M14 A2997 980 77 -2000 300/12 RMK AO2
14926KSTC STC20060314032010103/14/06 03:20:31  5-MIN KSTC 140920Z AUTO 30013KT 10SM CLR M11/M14 A2998 980 77 -2000 300/13 RMK AO2
14926KSTC STC20060314032510103/14/06 03:25:31  5-MIN KSTC 140925Z AUTO 30014KT 10SM CLR M11/M14 A2997 980 77 -2000 300/14 RMK AO2
14926KSTC STC20060314033010103/14/06 03:30:31  5-MIN KSTC 140930Z AUTO 30012KT 10SM CLR M11/M14 A2997 980 77 -2000 300/12 RMK AO2
14926KSTC STC20060314033510103/14/06 03:35:31  5-MIN KSTC 140935Z AUTO 30011KT 10SM CLR M11/M14 A2997 980 77 -2000 290/11 RMK AO2
14926KSTC STC20060314034010103/14/06 03:40:31  5-MIN KSTC 140940Z AUTO 29013KT 10SM CLR M11/M14 A2997 980 77 -2000 290/13 RMK AO2
14926KSTC STC20060314034510103/14/06 03:45:31  5-MIN KSTC 140945Z AUTO 30012KT 10SM CLR M11/M14 A2998 970 77 -2000 290/12 RMK AO2
14926KSTC STC20060314035011803/14/06 03:50:31  5-MIN KSTC 140950Z AUTO 29011KT 10SM CLR M11/M14 A2998 970 77 -2000 290/11 RMK AO2 SLP179 T11111144
14926KSTC STC20060314035510103/14/06 03:55:31  5-MIN KSTC 140955Z AUTO 30012KT 10SM CLR M11/M14 A2998 970 77 -2000 290/12 RMK AO2
14926KSTC STC20060314040010103/14/06 04:00:31  5-MIN KSTC 141000Z AUTO 30012KT 10SM CLR M11/M14 A2998 970 77 -2000 290/12 RMK AO2
14926KSTC STC20060314040510103/14/06 04:05:31  5-MIN KSTC 141005Z AUTO 30013KT 10SM CLR M11/M14 A2998 970 77 -2000 290/13 RMK AO2
14926KSTC STC20060314041010103/14/06 04:10:31  5-MIN KSTC 141010Z AUTO 29011KT 10SM CLR M11/M14 A2998 970 77 -2000 290/11 RMK AO2
14926KSTC STC20060314041510103/14/06 04:15:31  5-MIN KSTC 141015Z AUTO 29012KT 10SM CLR M11/M14 A2999 960 77 -2000 290/12 RMK AO2
14926KSTC STC20060314042010103/14/06 04:20:31  5-MIN KSTC 141020Z AUTO 29012KT 10SM CLR M11/M14 A2999 960 77 -2000 290/12 RMK AO2
14926KSTC STC20060314042510103/14/06 04:25:31  5-MIN KSTC 141025Z AUTO 29014KT 10SM CLR M11/M14 A2999 960 77 -2000 290/14 RMK AO2
14926KSTC STC20060314043010103/14/06 04:30:31  5-MIN KSTC 141030Z AUTO 29013KT 10SM CLR M11/M14 A2999 960 77 -2000 290/13 RMK AO2
14926KSTC STC20060314043510103/14/06 04:35:31  5-MIN KSTC 141035Z AUTO 30013KT 10SM CLR M11/M14 A3000 960 77 -2000 290/13 RMK AO2
14926KSTC STC20060314044010703/14/06 04:40:31  5-MIN KSTC 141040Z AUTO 29014G19KT 10SM CLR M11/M14 A3000 950 77 -2000 290/14G19 RMK AO2
14926KSTC STC20060314044510103/14/06 04:45:31  5-MIN KSTC 141045Z AUTO 30012KT 10SM CLR M11/M14 A3000 950 77 -2000 290/12 RMK AO2
14926KSTC STC20060314045011803/14/06 04:50:31  5-MIN KSTC 141050Z AUTO 29013KT 10SM CLR M11/M14 A3001 950 77 -2000 290/13 RMK AO2 SLP188 T11111144
14926KSTC STC20060314045510103/14/06 04:55:31  5-MIN KSTC 141055Z AUTO 29013KT 10SM CLR M11/M14 A3001 940 77 -2000 290/13 RMK AO2
14926KSTC STC20060314050010103/14/06 05:00:31  5-MIN KSTC 141100Z AUTO 29013KT 10SM CLR M11/M14 A3001 940 77 -2000 290/13 RMK AO2
14926KSTC STC20060314050510103/14/06 05:05:31  5-MIN KSTC 141105Z AUTO 30014KT 10SM CLR M11/M14 A3002 940 77 -2000 290/14 RMK AO2
14926KSTC STC20060314051010103/14/06 05:10:31  5-MIN KSTC 141110Z AUTO 30014KT 10SM CLR M11/M14 A3002 940 77 -2000 290/14 RMK AO2
14926KSTC STC20060314051510103/14/06 05:15:31  5-MIN KSTC 141115Z AUTO 29014KT 10SM CLR M11/M14 A3002 930 77 -2000 290/14 RMK AO2
14926KSTC STC20060314052010103/14/06 05:20:31  5-MIN KSTC 141120Z AUTO 30012KT 10SM CLR M11/M14 A3002 930 77 -2000 290/12 RMK AO2
14926KSTC STC20060314052510103/14/06 05:25:31  5-MIN KSTC 141125Z AUTO 30013KT 10SM CLR M11/M14 A3003 930 77 -2000 300/13 RMK AO2
14926KSTC STC20060314053010103/14/06 05:30:31  5-MIN KSTC 141130Z AUTO 30013KT 10SM CLR M11/M14 A3003 930 77 -2000 300/13 RMK AO2
14926KSTC STC20060314053510103/14/06 05:35:31  5-MIN KSTC 141135Z AUTO 30014KT 10SM CLR M11/M14 A3003 930 77 -2000 300/14 RMK AO2
14926KSTC STC20060314054010103/14/06 05:40:31  5-MIN KSTC 141140Z AUTO 30012KT 10SM CLR M12/M14 A3003 930 80 -2100 290/12 RMK AO2
14926KSTC STC20060314054510103/14/06 05:45:31  5-MIN KSTC 141145Z AUTO 30013KT 10SM CLR M12/M14 A3003 920 80 -2100 300/13 RMK AO2
14926KSTC STC20060314055014203/14/06 05:50:31  5-MIN KSTC 141150Z AUTO 30014KT 10SM CLR M12/M14 A3003 920 80 -2100 290/14 RMK AO2 SLP197 70001 T11171144 11094 21117 51006
14926KSTC STC20060314055510103/14/06 05:55:31  5-MIN KSTC 141155Z AUTO 30011KT 10SM CLR M12/M14 A3003 920 80 -2100 300/11 RMK AO2
14926KSTC STC20060314060010103/14/06 06:00:31  5-MIN KSTC 141200Z AUTO 30013KT 10SM CLR M12/M14 A3003 920 80 -2100 300/13 RMK AO2
14926KSTC STC20060314060510103/14/06 06:05:31  5-MIN KSTC 141205Z AUTO 30013KT 10SM CLR M12/M14 A3004 920 80 -2100 300/13 RMK AO2
14926KSTC STC20060314061010103/14/06 06:10:31  5-MIN KSTC 141210Z AUTO 30013KT 10SM CLR M12/M14 A3004 920 80 -2100 290/13 RMK AO2
14926KSTC STC20060314061510103/14/06 06:15:31  5-MIN KSTC 141215Z AUTO 30013KT 10SM CLR M12/M14 A3004 910 80 -2100 300/13 RMK AO2
14926KSTC STC20060314062010103/14/06 06:20:31  5-MIN KSTC 141220Z AUTO 30014KT 10SM CLR M12/M15 A3004 910 76 -2100 300/14 RMK AO2
14926KSTC STC20060314062510103/14/06 06:25:31  5-MIN KSTC 141225Z AUTO 30013KT 10SM CLR M12/M15 A3004 910 76 -2100 300/13 RMK AO2
14926KSTC STC20060314063010103/14/06 06:30:31  5-MIN KSTC 141230Z AUTO 30011KT 10SM CLR M12/M15 A3004 910 76 -2100 300/11 RMK AO2
14926KSTC STC20060314063510103/14/06 06:35:31  5-MIN KSTC 141235Z AUTO 31012KT 10SM CLR M12/M15 A3005 910 76 -2100 300/12 RMK AO2
14926KSTC STC20060314064010103/14/06 06:40:31  5-MIN KSTC 141240Z AUTO 30011KT 10SM CLR M12/M15 A3005 910 76 -2100 300/11 RMK AO2
14926KSTC STC20060314064510103/14/06 06:45:31  5-MIN KSTC 141245Z AUTO 30012KT 10SM CLR M12/M15 A3005 910 76 -2100 300/12 RMK AO2
14926KSTC STC20060314065011803/14/06 06:50:31  5-MIN KSTC 141250Z AUTO 30011KT 10SM CLR M12/M15 A3005 900 76 -2100 290/11 RMK AO2 SLP205 T11171150
14926KSTC STC20060314065510103/14/06 06:55:31  5-MIN KSTC 141255Z AUTO 31010KT 10SM CLR M12/M14 A3005 900 80 -2100 300/10 RMK AO2
14926KSTC STC20060314070010103/14/06 07:00:31  5-MIN KSTC 141300Z AUTO 30010KT 10SM CLR M12/M14 A3005 900 80 -2100 300/10 RMK AO2
14926KSTC STC20060314070510103/14/06 07:05:31  5-MIN KSTC 141305Z AUTO 30012KT 10SM CLR M12/M14 A3006 900 80 -2100 300/12 RMK AO2
14926KSTC STC20060314071009603/14/06 07:10:31  5-MIN KSTC 141310Z 31012KT 10SM CLR M12/M14 A3006 900 80 -2100 300/12 RMK AO2
14926KSTC STC20060314071509603/14/06 07:15:31  5-MIN KSTC 141315Z 30012KT 10SM CLR M11/M14 A3006 900 77 -2100 300/12 RMK AO2
14926KSTC STC20060314072009603/14/06 07:20:31  5-MIN KSTC 141320Z 30012KT 10SM CLR M11/M14 A3006 900 77 -2100 300/12 RMK AO2
14926KSTC STC20060314072509603/14/06 07:25:31  5-MIN KSTC 141325Z 30012KT 10SM CLR M11/M14 A3006 890 77 -2100 300/12 RMK AO2
14926KSTC STC20060314073010203/14/06 07:30:31  5-MIN KSTC 141330Z 30012G18KT 10SM CLR M11/M14 A3006 890 77 -2100 300/12G18 RMK AO2
14926KSTC STC20060314073510203/14/06 07:35:31  5-MIN KSTC 141335Z 30012G18KT 10SM CLR M11/M14 A3006 890 77 -2100 300/12G18 RMK AO2
14926KSTC STC20060314074009603/14/06 07:40:31  5-MIN KSTC 141340Z 31012KT 10SM CLR M11/M14 A3007 890 77 -2100 300/12 RMK AO2
14926KSTC STC20060314074509603/14/06 07:45:31  5-MIN KSTC 141345Z 30011KT 10SM CLR M11/M14 A3007 890 77 -2100 300/11 RMK AO2
14926KSTC STC20060314075011303/14/06 07:50:31  5-MIN KSTC 141350Z 30014KT 10SM CLR M11/M14 A3007 880 73 -2000 300/14 RMK AO2 SLP213 T11061144
14926KSTC STC20060314075509603/14/06 07:55:31  5-MIN KSTC 141355Z 30013KT 10SM CLR M11/M14 A3008 880 73 -2000 300/13 RMK AO2
14926KSTC STC20060314080009603/14/06 08:00:31  5-MIN KSTC 141400Z 31013KT 10SM CLR M11/M14 A3008 880 73 -2000 300/13 RMK AO2
14926KSTC STC20060314080509603/14/06 08:05:31  5-MIN KSTC 141405Z 31013KT 10SM CLR M11/M14 A3008 880 73 -2000 310/13 RMK AO2
14926KSTC STC20060314081009603/14/06 08:10:31  5-MIN KSTC 141410Z 31013KT 10SM CLR M11/M14 A3008 880 73 -2000 310/13 RMK AO2
14926KSTC STC20060314081509603/14/06 08:15:31  5-MIN KSTC 141415Z 31014KT 10SM CLR M11/M14 A3008 880 77 -2000 300/14 RMK AO2
14926KSTC STC20060314082009603/14/06 08:20:31  5-MIN KSTC 141420Z 31013KT 10SM CLR M11/M14 A3008 880 77 -2000 310/13 RMK AO2
14926KSTC STC20060314082509603/14/06 08:25:31  5-MIN KSTC 141425Z 31012KT 10SM CLR M10/M14 A3009 870 73 -1900 310/12 RMK AO2
14926KSTC STC20060314083009603/14/06 08:30:31  5-MIN KSTC 141430Z 30013KT 10SM CLR M10/M14 A3009 870 73 -1900 300/13 RMK AO2
14926KSTC STC20060314083509603/14/06 08:35:31  5-MIN KSTC 141435Z 30015KT 10SM CLR M10/M14 A3009 870 73 -1900 300/15 RMK AO2
14926KSTC STC20060314084009603/14/06 08:40:31  5-MIN KSTC 141440Z 32011KT 10SM CLR M10/M14 A3009 870 73 -1900 310/11 RMK AO2
14926KSTC STC20060314084509603/14/06 08:45:31  5-MIN KSTC 141445Z 32011KT 10SM CLR M10/M14 A3009 870 73 -1900 320/11 RMK AO2
14926KSTC STC20060314085011903/14/06 08:50:31  5-MIN KSTC 141450Z 31010KT 10SM CLR M09/M14 A3009 870 70 -1900 310/10 RMK AO2 SLP220 T10941139 53019
14926KSTC STC20060314085509603/14/06 08:55:31  5-MIN KSTC 141455Z 31011KT 10SM CLR M09/M13 A3009 870 73 -1900 300/11 RMK AO2
14926KSTC STC20060314090009603/14/06 09:00:31  5-MIN KSTC 141500Z 31013KT 10SM CLR M09/M14 A3009 870 70 -1900 310/13 RMK AO2
14926KSTC STC20060314090509603/14/06 09:05:31  5-MIN KSTC 141505Z 31013KT 10SM CLR M09/M13 A3009 870 73 -1900 310/13 RMK AO2
14926KSTC STC20060314091009603/14/06 09:10:31  5-MIN KSTC 141510Z 32012KT 10SM CLR M09/M14 A3009 870 70 -1900 310/12 RMK AO2
14926KSTC STC20060314091509603/14/06 09:15:31  5-MIN KSTC 141515Z 30012KT 10SM CLR M09/M13 A3009 870 70 -1800 300/12 RMK AO2
14926KSTC STC20060314092009603/14/06 09:20:31  5-MIN KSTC 141520Z 31011KT 10SM CLR M09/M13 A3009 870 70 -1800 310/11 RMK AO2
14926KSTC STC20060314092509603/14/06 09:25:31  5-MIN KSTC 141525Z 31012KT 10SM CLR M09/M13 A3009 870 70 -1800 300/12 RMK AO2
14926KSTC STC20060314093009603/14/06 09:30:31  5-MIN KSTC 141530Z 31011KT 10SM CLR M09/M13 A3010 860 70 -1800 310/11 RMK AO2
14926KSTC STC20060314093509603/14/06 09:35:31  5-MIN KSTC 141535Z 31011KT 10SM CLR M09/M13 A3010 860 70 -1800 310/11 RMK AO2
14926KSTC STC20060314094009603/14/06 09:40:31  5-MIN KSTC 141540Z 31011KT 10SM CLR M08/M13 A3010 860 70 -1700 310/11 RMK AO2
14926KSTC STC20060314094509603/14/06 09:45:31  5-MIN KSTC 141545Z 31011KT 10SM CLR M08/M13 A3010 860 70 -1700 310/11 RMK AO2
14926KSTC STC20060314095011303/14/06 09:50:31  5-MIN KSTC 141550Z 31012KT 10SM CLR M08/M13 A3010 860 70 -1700 300/12 RMK AO2 SLP221 T10831128
14926KSTC STC20060314095509603/14/06 09:55:31  5-MIN KSTC 141555Z 31012KT 10SM CLR M08/M13 A3010 860 70 -1700 310/12 RMK AO2
14926KSTC STC20060314100009603/14/06 10:00:31  5-MIN KSTC 141600Z 31010KT 10SM CLR M08/M13 A3010 860 67 -1700 300/10 RMK AO2
14926KSTC STC20060314100509603/14/06 10:05:31  5-MIN KSTC 141605Z 31012KT 10SM CLR M08/M13 A3010 860 67 -1700 310/12 RMK AO2
14926KSTC STC20060314101009603/14/06 10:10:31  5-MIN KSTC 141610Z 31010KT 10SM CLR M08/M13 A3010 860 67 -1700 310/10 RMK AO2
14926KSTC STC20060314101509603/14/06 10:15:31  5-MIN KSTC 141615Z 31011KT 10SM CLR M07/M12 A3010 860 68 -1600 310/11 RMK AO2
14926KSTC STC20060314102009603/14/06 10:20:31  5-MIN KSTC 141620Z 31012KT 10SM CLR M07/M12 A3010 860 68 -1600 310/12 RMK AO2
14926KSTC STC20060314102509603/14/06 10:25:31  5-MIN KSTC 141625Z 31012KT 10SM CLR M07/M12 A3010 860 68 -1600 310/12 RMK AO2
14926KSTC STC20060314103009603/14/06 10:30:31  5-MIN KSTC 141630Z 31011KT 10SM CLR M07/M12 A3010 860 68 -1600 310/11 RMK AO2
14926KSTC STC20060314103509603/14/06 10:35:31  5-MIN KSTC 141635Z 31012KT 10SM CLR M07/M12 A3010 860 68 -1600 310/12 RMK AO2
14926KSTC STC20060314104009903/14/06 10:40:31  5-MIN KSTC 141640Z 31010KT 10SM FEW060 M07/M12 A3010 860 68 -1600 310/10 RMK AO2
14926KSTC STC20060314104509903/14/06 10:45:31  5-MIN KSTC 141645Z 32009KT 10SM FEW060 M07/M12 A3010 860 65 -1500 310/09 RMK AO2
14926KSTC STC20060314105011303/14/06 10:50:31  5-MIN KSTC 141650Z 31011KT 10SM CLR M07/M12 A3010 860 65 -1500 310/11 RMK AO2 SLP220 T10671122
14926KSTC STC20060314105509603/14/06 10:55:31  5-MIN KSTC 141655Z 30011KT 10SM CLR M07/M12 A3010 860 65 -1500 290/11 RMK AO2
14926KSTC STC20060314110009603/14/06 11:00:31  5-MIN KSTC 141700Z 30011KT 10SM CLR M07/M12 A3010 860 65 -1500 300/11 RMK AO2
14926KSTC STC20060314110509603/14/06 11:05:31  5-MIN KSTC 141705Z 31013KT 10SM CLR M07/M12 A3010 860 65 -1500 310/13 RMK AO2
14926KSTC STC20060314111009603/14/06 11:10:31  5-MIN KSTC 141710Z 31010KT 10SM CLR M07/M12 A3010 860 68 -1500 310/10 RMK AO2
14926KSTC STC20060314111509603/14/06 11:15:31  5-MIN KSTC 141715Z 31013KT 10SM CLR M06/M12 A3010 860 62 -1400 310/13 RMK AO2
14926KSTC STC20060314112009603/14/06 11:20:31  5-MIN KSTC 141720Z 32012KT 10SM CLR M06/M12 A3010 860 65 -1400 320/12 RMK AO2
14926KSTC STC20060314112509603/14/06 11:25:31  5-MIN KSTC 141725Z 31012KT 10SM CLR M06/M12 A3010 860 65 -1400 310/12 RMK AO2
14926KSTC STC20060314113009603/14/06 11:30:31  5-MIN KSTC 141730Z 31014KT 10SM CLR M06/M12 A3010 860 62 -1400 300/14 RMK AO2
14926KSTC STC20060314113509603/14/06 11:35:31  5-MIN KSTC 141735Z 32011KT 10SM CLR M06/M12 A3010 860 65 -1400 310/11 RMK AO2
14926KSTC STC20060314114009603/14/06 11:40:31  5-MIN KSTC 141740Z 30010KT 10SM CLR M06/M12 A3010 860 62 -1400 300/10 RMK AO2
14926KSTC STC20060314114509603/14/06 11:45:31  5-MIN KSTC 141745Z 29011KT 10SM CLR M06/M11 A3010 860 65 -1400 290/11 RMK AO2
14926KSTC STC20060314115013103/14/06 11:50:31  5-MIN KSTC 141750Z 31011KT 10SM CLR M06/M11 A3010 860 65 -1400 300/11 RMK AO2 SLP219 T10561111 11056 21117 51020
14926KSTC STC20060314115509603/14/06 11:55:31  5-MIN KSTC 141755Z 29012KT 10SM CLR M05/M11 A3010 860 62 -1300 280/12 RMK AO2
14926KSTC STC20060314120009603/14/06 12:00:31  5-MIN KSTC 141800Z 30012KT 10SM CLR M05/M11 A3010 860 62 -1300 300/12 RMK AO2
14926KSTC STC20060314120509603/14/06 12:05:31  5-MIN KSTC 141805Z 30012KT 10SM CLR M05/M11 A3010 860 62 -1300 300/12 RMK AO2
14926KSTC STC20060314121009603/14/06 12:10:31  5-MIN KSTC 141810Z 32010KT 10SM CLR M05/M11 A3009 870 62 -1300 310/10 RMK AO2
14926KSTC STC20060314121509603/14/06 12:15:31  5-MIN KSTC 141815Z 29012KT 10SM CLR M05/M11 A3009 870 62 -1300 290/12 RMK AO2
14926KSTC STC20060314122009603/14/06 12:20:31  5-MIN KSTC 141820Z 31013KT 10SM CLR M04/M11 A3009 870 60 -1200 310/13 RMK AO2
14926KSTC STC20060314122509603/14/06 12:25:31  5-MIN KSTC 141825Z 31013KT 10SM CLR M04/M11 A3009 870 60 -1200 310/13 RMK AO2
14926KSTC STC20060314123009603/14/06 12:30:31  5-MIN KSTC 141830Z 30014KT 10SM CLR M04/M11 A3009 870 60 -1200 290/14 RMK AO2
14926KSTC STC20060314123509603/14/06 12:35:31  5-MIN KSTC 141835Z 31013KT 10SM CLR M04/M11 A3009 870 60 -1200 310/13 RMK AO2
14926KSTC STC20060314124009603/14/06 12:40:31  5-MIN KSTC 141840Z 30015KT 10SM CLR M04/M11 A3009 870 60 -1200 300/15 RMK AO2
14926KSTC STC20060314124509603/14/06 12:45:31  5-MIN KSTC 141845Z 29014KT 10SM CLR M04/M11 A3009 870 60 -1200 290/14 RMK AO2
14926KSTC STC20060314125011303/14/06 12:50:31  5-MIN KSTC 141850Z 29012KT 10SM CLR M04/M11 A3009 870 60 -1200 280/12 RMK AO2 SLP217 T10391106
14926KSTC STC20060314125509603/14/06 12:55:31  5-MIN KSTC 141855Z 28013KT 10SM CLR M04/M11 A3009 870 60 -1200 270/13 RMK AO2
14926KSTC STC20060314130009603/14/06 13:00:31  5-MIN KSTC 141900Z 28014KT 10SM CLR M04/M11 A3009 870 60 -1200 280/14 RMK AO2
14926KSTC STC20060314130509603/14/06 13:05:31  5-MIN KSTC 141905Z 28014KT 10SM CLR M04/M11 A3009 870 60 -1200 270/14 RMK AO2
14926KSTC STC20060314131009603/14/06 13:10:31  5-MIN KSTC 141910Z 29013KT 10SM CLR M04/M11 A3009 870 60 -1100 280/13 RMK AO2
14926KSTC STC20060314131509603/14/06 13:15:31  5-MIN KSTC 141915Z 29014KT 10SM CLR M04/M11 A3009 870 60 -1100 280/14 RMK AO2
14926KSTC STC20060314132009603/14/06 13:20:31  5-MIN KSTC 141920Z 28013KT 10SM CLR M03/M11 A3008 880 57 -1100 280/13 RMK AO2
14926KSTC STC20060314132509603/14/06 13:25:31  5-MIN KSTC 141925Z 30014KT 10SM CLR M03/M11 A3008 880 57 -1100 290/14 RMK AO2
14926KSTC STC20060314133009603/14/06 13:30:31  5-MIN KSTC 141930Z 30013KT 10SM CLR M03/M11 A3008 880 57 -1100 300/13 RMK AO2
14926KSTC STC20060314133509603/14/06 13:35:31  5-MIN KSTC 141935Z 30012KT 10SM CLR M03/M10 A3008 880 60 -1100 290/12 RMK AO2
14926KSTC STC20060314134009603/14/06 13:40:31  5-MIN KSTC 141940Z 28015KT 10SM CLR M03/M10 A3008 880 60 -1100 280/15 RMK AO2
14926KSTC STC20060314134509603/14/06 13:45:31  5-MIN KSTC 141945Z 31013KT 10SM CLR M03/M11 A3008 880 57 -1100 300/13 RMK AO2
14926KSTC STC20060314135011303/14/06 13:50:31  5-MIN KSTC 141950Z 30013KT 10SM CLR M03/M10 A3008 880 60 -1100 300/13 RMK AO2 SLP213 T10331100
14926KSTC STC20060314135509603/14/06 13:55:31  5-MIN KSTC 141955Z 29011KT 10SM CLR M03/M10 A3008 880 60 -1100 290/11 RMK AO2
14926KSTC STC20060314140009603/14/06 14:00:31  5-MIN KSTC 142000Z 31011KT 10SM CLR M03/M10 A3008 880 58 -1000 300/11 RMK AO2
14926KSTC STC20060314140509603/14/06 14:05:31  5-MIN KSTC 142005Z 29013KT 10SM CLR M03/M10 A3008 880 58 -1000 280/13 RMK AO2
14926KSTC STC20060314141009603/14/06 14:10:31  5-MIN KSTC 142010Z 27014KT 10SM CLR M03/M10 A3008 880 58 -1000 270/14 RMK AO2
14926KSTC STC20060314141509603/14/06 14:15:31  5-MIN KSTC 142015Z 30012KT 10SM CLR M03/M10 A3008 880 58 -1000 290/12 RMK AO2
14926KSTC STC20060314142010203/14/06 14:20:31  5-MIN KSTC 142020Z 29016G21KT 10SM CLR M03/M10 A3008 880 58 -1000 290/16G21 RMK AO2
14926KSTC STC20060314142510203/14/06 14:25:31  5-MIN KSTC 142025Z 31015G21KT 10SM CLR M03/M10 A3008 880 58 -1000 300/15G21 RMK AO2
14926KSTC STC20060314143009603/14/06 14:30:31  5-MIN KSTC 142030Z 29015KT 10SM CLR M03/M10 A3008 880 58 -1000 290/15 RMK AO2
14926KSTC STC20060314143509603/14/06 14:35:31  5-MIN KSTC 142035Z 29016KT 10SM CLR M03/M10 A3008 870 58 -1000 280/16 RMK AO2
14926KSTC STC20060314144009603/14/06 14:40:31  5-MIN KSTC 142040Z 31012KT 10SM CLR M03/M10 A3008 880 58 -1000 300/12 RMK AO2
14926KSTC STC20060314144509603/14/06 14:45:31  5-MIN KSTC 142045Z 29016KT 10SM CLR M03/M10 A3009 870 58 -1000 290/16 RMK AO2
14926KSTC STC20060314145011903/14/06 14:50:31  5-MIN KSTC 142050Z 31014KT 10SM CLR M03/M10 A3009 870 58 -1000 310/14 RMK AO2 SLP216 T10281100 50001
14926KSTC STC20060314145509603/14/06 14:55:31  5-MIN KSTC 142055Z 32014KT 10SM CLR M03/M11 A3009 870 55 -1000 310/14 RMK AO2
14926KSTC STC20060314150010203/14/06 15:00:31  5-MIN KSTC 142100Z 31015G18KT 10SM CLR M03/M10 A3009 870 58 -1000 310/15G18 RMK AO2
14926KSTC STC20060314150510203/14/06 15:05:31  5-MIN KSTC 142105Z 31014G18KT 10SM CLR M03/M10 A3009 870 58 -1000 310/14G18 RMK AO2
14926KSTC STC20060314151009603/14/06 15:10:31  5-MIN KSTC 142110Z 32014KT 10SM CLR M03/M10 A3009 870 58 -1000 310/14 RMK AO2
14926KSTC STC20060314151509603/14/06 15:15:31  5-MIN KSTC 142115Z 32017KT 10SM CLR M03/M11 A3010 860 55 -1000 310/17 RMK AO2
14926KSTC STC20060314152009603/14/06 15:20:31  5-MIN KSTC 142120Z 31016KT 10SM CLR M03/M11 A3010 860 55 -1000 310/16 RMK AO2
14926KSTC STC20060314152509603/14/06 15:25:31  5-MIN KSTC 142125Z 32014KT 10SM CLR M03/M11 A3010 860 55 -1000 310/14 RMK AO2
14926KSTC STC20060314153009603/14/06 15:30:31  5-MIN KSTC 142130Z 31013KT 10SM CLR M02/M10 A3010 860 55 -1000 300/13 RMK AO2
14926KSTC STC20060314153509603/14/06 15:35:31  5-MIN KSTC 142135Z 30015KT 10SM CLR M02/M10 A3010 860 55 -1000 300/15 RMK AO2
14926KSTC STC20060314154009603/14/06 15:40:31  5-MIN KSTC 142140Z 31016KT 10SM CLR M02/M11 A3010 860 53 -1000 310/16 RMK AO2
14926KSTC STC20060314154509603/14/06 15:45:31  5-MIN KSTC 142145Z 32013KT 10SM CLR M03/M11 A3010 860 55 -1000 320/13 RMK AO2
14926KSTC STC20060314155011303/14/06 15:50:31  5-MIN KSTC 142150Z 31019KT 10SM CLR M03/M10 A3011 850 58 -1000 310/19 RMK AO2 SLP222 T10281100
14926KSTC STC20060314155509603/14/06 15:55:31  5-MIN KSTC 142155Z 31018KT 10SM CLR M03/M11 A3011 850 55 -1000 310/18 RMK AO2
14926KSTC STC20060314160009603/14/06 16:00:31  5-MIN KSTC 142200Z 31015KT 10SM CLR M03/M11 A3011 850 55 -1000 310/15 RMK AO2
14926KSTC STC20060314160509603/14/06 16:05:31  5-MIN KSTC 142205Z 32013KT 10SM CLR M03/M11 A3011 850 55 -1000 320/13 RMK AO2
14926KSTC STC20060314161010103/14/06 16:10:31  5-MIN KSTC 142210Z AUTO 33012KT 10SM CLR M03/M11 A3011 850 53 -1000 330/12 RMK AO2
14926KSTC STC20060314161510703/14/06 16:15:31  5-MIN KSTC 142215Z AUTO 33013G18KT 10SM CLR M03/M11 A3012 850 53 -1000 330/13G18 RMK AO2
14926KSTC STC20060314162010703/14/06 16:20:31  5-MIN KSTC 142220Z AUTO 33011G18KT 10SM CLR M03/M11 A3012 840 53 -1000 330/11G18 RMK AO2
14926KSTC STC20060314162510103/14/06 16:25:31  5-MIN KSTC 142225Z AUTO 33013KT 10SM CLR M03/M11 A3012 840 53 -1000 330/13 RMK AO2
14926KSTC STC20060314163010703/14/06 16:30:31  5-MIN KSTC 142230Z AUTO 32013G20KT 10SM CLR M03/M11 A3012 840 55 -1100 320/13G20 RMK AO2
14926KSTC STC20060314163510103/14/06 16:35:31  5-MIN KSTC 142235Z AUTO 32018KT 10SM CLR M03/M12 A3013 840 53 -1100 320/18 RMK AO2
14926KSTC STC20060314164010103/14/06 16:40:31  5-MIN KSTC 142240Z AUTO 33013KT 10SM CLR M03/M12 A3013 840 53 -1100 320/13 RMK AO2
14926KSTC STC20060314164510103/14/06 16:45:31  5-MIN KSTC 142245Z AUTO 32011KT 10SM CLR M03/M11 A3013 840 55 -1100 320/11 RMK AO2
14926KSTC STC20060314165011803/14/06 16:50:31  5-MIN KSTC 142250Z AUTO 33011KT 10SM CLR M03/M11 A3013 840 55 -1100 320/11 RMK AO2 SLP229 T10331111
14926KSTC STC20060314165510703/14/06 16:55:31  5-MIN KSTC 142255Z AUTO 31014G19KT 10SM CLR M03/M11 A3013 830 55 -1100 300/14G19 RMK AO2
14926KSTC STC20060314170010103/14/06 17:00:31  5-MIN KSTC 142300Z AUTO 31015KT 10SM CLR M03/M11 A3013 830 55 -1100 300/15 RMK AO2
14926KSTC STC20060314170510103/14/06 17:05:31  5-MIN KSTC 142305Z AUTO 30013KT 10SM CLR M03/M11 A3013 830 55 -1100 300/13 RMK AO2
14926KSTC STC20060314171010103/14/06 17:10:31  5-MIN KSTC 142310Z AUTO 31016KT 10SM CLR M04/M11 A3013 830 57 -1200 300/16 RMK AO2
14926KSTC STC20060314171510103/14/06 17:15:31  5-MIN KSTC 142315Z AUTO 31014KT 10SM CLR M04/M11 A3013 830 60 -1200 310/14 RMK AO2
14926KSTC STC20060314172010103/14/06 17:20:31  5-MIN KSTC 142320Z AUTO 31012KT 10SM CLR M04/M11 A3013 830 57 -1200 310/12 RMK AO2
14926KSTC STC20060314172510103/14/06 17:25:31  5-MIN KSTC 142325Z AUTO 31013KT 10SM CLR M04/M11 A3013 830 57 -1200 310/13 RMK AO2
14926KSTC STC20060314173010103/14/06 17:30:31  5-MIN KSTC 142330Z AUTO 31012KT 10SM CLR M04/M11 A3013 830 57 -1200 310/12 RMK AO2
14926KSTC STC20060314173510103/14/06 17:35:31  5-MIN KSTC 142335Z AUTO 32012KT 10SM CLR M04/M12 A3014 830 55 -1200 310/12 RMK AO2
14926KSTC STC20060314174010103/14/06 17:40:31  5-MIN KSTC 142340Z AUTO 32011KT 10SM CLR M04/M12 A3014 830 57 -1300 320/11 RMK AO2
14926KSTC STC20060314174510103/14/06 17:45:31  5-MIN KSTC 142345Z AUTO 32012KT 10SM CLR M04/M12 A3014 830 57 -1300 310/12 RMK AO2
14926KSTC STC20060314175013603/14/06 17:50:31  5-MIN KSTC 142350Z AUTO 32010KT 10SM CLR M04/M11 A3013 830 60 -1300 310/10 RMK AO2 SLP233 T10441111 11022 21050 55003
14926KSTC STC20060314175510103/14/06 17:55:31  5-MIN KSTC 142355Z AUTO 31011KT 10SM CLR M04/M11 A3014 830 60 -1300 310/11 RMK AO2
14926KSTC STC20060314180010103/14/06 18:00:31  5-MIN KSTC 150000Z AUTO 30012KT 10SM CLR M04/M11 A3014 820 60 -1300 300/12 RMK AO2
14926KSTC STC20060314180510103/14/06 18:05:31  5-MIN KSTC 150005Z AUTO 31012KT 10SM CLR M04/M11 A3014 820 60 -1300 300/12 RMK AO2
14926KSTC STC20060314181010103/14/06 18:10:31  5-MIN KSTC 150010Z AUTO 31014KT 10SM CLR M05/M11 A3014 820 62 -1400 300/14 RMK AO2
14926KSTC STC20060314181510103/14/06 18:15:31  5-MIN KSTC 150015Z AUTO 30014KT 10SM CLR M05/M12 A3014 820 60 -1400 300/14 RMK AO2
14926KSTC STC20060314182010103/14/06 18:20:31  5-MIN KSTC 150020Z AUTO 31011KT 10SM CLR M05/M11 A3014 820 62 -1400 310/11 RMK AO2
14926KSTC STC20060314182510103/14/06 18:25:31  5-MIN KSTC 150025Z AUTO 31010KT 10SM CLR M06/M11 A3014 820 65 -1400 310/10 RMK AO2
14926KSTC STC20060314183010103/14/06 18:30:31  5-MIN KSTC 150030Z AUTO 31010KT 10SM CLR M06/M11 A3015 820 65 -1400 300/10 RMK AO2
14926KSTC STC20060314183510103/14/06 18:35:31  5-MIN KSTC 150035Z AUTO 31012KT 10SM CLR M06/M12 A3015 820 62 -1400 310/12 RMK AO2
14926KSTC STC20060314184010103/14/06 18:40:31  5-MIN KSTC 150040Z AUTO 30010KT 10SM CLR M06/M12 A3015 810 62 -1400 300/10 RMK AO2
14926KSTC STC20060314184510103/14/06 18:45:31  5-MIN KSTC 150045Z AUTO 30009KT 10SM CLR M06/M12 A3015 810 62 -1400 300/09 RMK AO2
14926KSTC STC20060314185011803/14/06 18:50:31  5-MIN KSTC 150050Z AUTO 30011KT 10SM CLR M06/M12 A3016 810 62 -1400 300/11 RMK AO2 SLP241 T10561117
14926KSTC STC20060314185510103/14/06 18:55:31  5-MIN KSTC 150055Z AUTO 30011KT 10SM CLR M06/M12 A3016 810 62 -1400 300/11 RMK AO2
14926KSTC STC20060314190010103/14/06 19:00:31  5-MIN KSTC 150100Z AUTO 30011KT 10SM CLR M06/M12 A3016 800 62 -1500 300/11 RMK AO2
14926KSTC STC20060314190510103/14/06 19:05:31  5-MIN KSTC 150105Z AUTO 30012KT 10SM CLR M06/M12 A3016 800 62 -1500 300/12 RMK AO2
14926KSTC STC20060314191010103/14/06 19:10:31  5-MIN KSTC 150110Z AUTO 30011KT 10SM CLR M06/M12 A3017 800 59 -1500 290/11 RMK AO2
14926KSTC STC20060314191510103/14/06 19:15:31  5-MIN KSTC 150115Z AUTO 30010KT 10SM CLR M06/M12 A3017 800 59 -1500 300/10 RMK AO2
14926KSTC STC20060314192010103/14/06 19:20:31  5-MIN KSTC 150120Z AUTO 30010KT 10SM CLR M06/M12 A3017 790 62 -1500 290/10 RMK AO2
14926KSTC STC20060314192510103/14/06 19:25:31  5-MIN KSTC 150125Z AUTO 30013KT 10SM CLR M06/M12 A3017 790 62 -1500 300/13 RMK AO2
14926KSTC STC20060314193010103/14/06 19:30:31  5-MIN KSTC 150130Z AUTO 30013KT 10SM CLR M06/M12 A3018 790 62 -1500 290/13 RMK AO2
14926KSTC STC20060314193510103/14/06 19:35:31  5-MIN KSTC 150135Z AUTO 30012KT 10SM CLR M06/M12 A3018 790 62 -1500 300/12 RMK AO2
14926KSTC STC20060314194010103/14/06 19:40:31  5-MIN KSTC 150140Z AUTO 30013KT 10SM CLR M06/M12 A3018 790 62 -1500 300/13 RMK AO2
14926KSTC STC20060314194510103/14/06 19:45:31  5-MIN KSTC 150145Z AUTO 30010KT 10SM CLR M07/M12 A3018 780 65 -1600 300/10 RMK AO2
14926KSTC STC20060314195011803/14/06 19:50:31  5-MIN KSTC 150150Z AUTO 30010KT 10SM CLR M06/M12 A3018 780 62 -1500 300/10 RMK AO2 SLP250 T10611122
14926KSTC STC20060314195510103/14/06 19:55:31  5-MIN KSTC 150155Z AUTO 30008KT 10SM CLR M07/M12 A3018 780 65 -1600 300/08 RMK AO2
14926KSTC STC20060314200010103/14/06 20:00:31  5-MIN KSTC 150200Z AUTO 30011KT 10SM CLR M07/M12 A3018 780 65 -1600 300/11 RMK AO2
14926KSTC STC20060314200510103/14/06 20:05:31  5-MIN KSTC 150205Z AUTO 30012KT 10SM CLR M07/M12 A3019 780 65 -1600 300/12 RMK AO2
14926KSTC STC20060314201010103/14/06 20:10:31  5-MIN KSTC 150210Z AUTO 30011KT 10SM CLR M07/M12 A3019 780 65 -1600 300/11 RMK AO2
14926KSTC STC20060314201510103/14/06 20:15:31  5-MIN KSTC 150215Z AUTO 31009KT 10SM CLR M07/M12 A3019 780 65 -1600 310/09 RMK AO2
14926KSTC STC20060314202010103/14/06 20:20:31  5-MIN KSTC 150220Z AUTO 31009KT 10SM CLR M07/M12 A3019 780 68 -1700 310/09 RMK AO2
14926KSTC STC20060314202510103/14/06 20:25:31  5-MIN KSTC 150225Z AUTO 31010KT 10SM CLR M07/M12 A3019 780 68 -1700 310/10 RMK AO2
14926KSTC STC20060314203010103/14/06 20:30:31  5-MIN KSTC 150230Z AUTO 31011KT 10SM CLR M07/M12 A3019 780 68 -1700 310/11 RMK AO2
14926KSTC STC20060314203510103/14/06 20:35:31  5-MIN KSTC 150235Z AUTO 31010KT 10SM CLR M07/M12 A3019 770 68 -1700 310/10 RMK AO2
14926KSTC STC20060314204010103/14/06 20:40:31  5-MIN KSTC 150240Z AUTO 31012KT 10SM CLR M07/M12 A3020 770 68 -1700 310/12 RMK AO2
14926KSTC STC20060314204510103/14/06 20:45:31  5-MIN KSTC 150245Z AUTO 31011KT 10SM CLR M07/M13 A3020 770 65 -1700 310/11 RMK AO2
14926KSTC STC20060314205012403/14/06 20:50:31  5-MIN KSTC 150250Z AUTO 32009KT 10SM CLR M07/M13 A3020 770 65 -1700 320/09 RMK AO2 SLP255 T10721128 51016
14926KSTC STC20060314205510103/14/06 20:55:31  5-MIN KSTC 150255Z AUTO 32009KT 10SM CLR M07/M13 A3020 770 65 -1700 310/09 RMK AO2
14926KSTC STC20060314210010103/14/06 21:00:31  5-MIN KSTC 150300Z AUTO 32009KT 10SM CLR M07/M13 A3019 770 65 -1700 320/09 RMK AO2
14926KSTC STC20060314210510103/14/06 21:05:31  5-MIN KSTC 150305Z AUTO 32008KT 10SM CLR M07/M13 A3020 770 65 -1700 310/08 RMK AO2
14926KSTC STC20060314211010103/14/06 21:10:31  5-MIN KSTC 150310Z AUTO 32009KT 10SM CLR M08/M13 A3019 770 67 -1800 310/09 RMK AO2
14926KSTC STC20060314211510103/14/06 21:15:31  5-MIN KSTC 150315Z AUTO 32008KT 10SM CLR M08/M13 A3019 770 67 -1800 320/08 RMK AO2
14926KSTC STC20060314212010103/14/06 21:20:31  5-MIN KSTC 150320Z AUTO 32008KT 10SM CLR M08/M13 A3019 770 64 -1800 320/08 RMK AO2
14926KSTC STC20060314212510103/14/06 21:25:31  5-MIN KSTC 150325Z AUTO 32007KT 10SM CLR M08/M13 A3019 780 64 -1800 320/07 RMK AO2
14926KSTC STC20060314213010103/14/06 21:30:31  5-MIN KSTC 150330Z AUTO 32007KT 10SM CLR M08/M13 A3019 770 64 -1800 320/07 RMK AO2
14926KSTC STC20060314213510103/14/06 21:35:31  5-MIN KSTC 150335Z AUTO 31007KT 10SM CLR M08/M13 A3020 770 67 -1800 310/07 RMK AO2
14926KSTC STC20060314214010103/14/06 21:40:31  5-MIN KSTC 150340Z AUTO 31008KT 10SM CLR M09/M13 A3020 770 74 -1900 300/08 RMK AO2
14926KSTC STC20060314214510103/14/06 21:45:31  5-MIN KSTC 150345Z AUTO 31009KT 10SM CLR M08/M13 A3020 770 70 -1900 300/09 RMK AO2
14926KSTC STC20060314215011803/14/06 21:50:31  5-MIN KSTC 150350Z AUTO 31007KT 10SM CLR M09/M13 A3020 770 70 -1900 310/07 RMK AO2 SLP256 T10891133
14926KSTC STC20060314215510103/14/06 21:55:31  5-MIN KSTC 150355Z AUTO 31007KT 10SM CLR M09/M13 A3020 770 70 -1900 310/07 RMK AO2
14926KSTC STC20060314220010103/14/06 22:00:31  5-MIN KSTC 150400Z AUTO 31007KT 10SM CLR M09/M13 A3020 770 70 -1900 310/07 RMK AO2
14926KSTC STC20060314220510103/14/06 22:05:31  5-MIN KSTC 150405Z AUTO 31007KT 10SM CLR M09/M13 A3021 760 74 -1900 300/07 RMK AO2
14926KSTC STC20060314221010103/14/06 22:10:31  5-MIN KSTC 150410Z AUTO 31009KT 10SM CLR M09/M13 A3021 760 70 -1900 310/09 RMK AO2
14926KSTC STC20060314221510103/14/06 22:15:31  5-MIN KSTC 150415Z AUTO 31008KT 10SM CLR M09/M13 A3021 760 74 -1900 310/08 RMK AO2
14926KSTC STC20060314222010103/14/06 22:20:31  5-MIN KSTC 150420Z AUTO 31007KT 10SM CLR M09/M13 A3021 760 74 -1900 310/07 RMK AO2
14926KSTC STC20060314222510103/14/06 22:25:31  5-MIN KSTC 150425Z AUTO 30007KT 10SM CLR M09/M13 A3021 760 74 -1900 300/07 RMK AO2
14926KSTC STC20060314223010103/14/06 22:30:31  5-MIN KSTC 150430Z AUTO 31008KT 10SM CLR M09/M13 A3022 750 70 -1900 300/08 RMK AO2
14926KSTC STC20060314223510103/14/06 22:35:31  5-MIN KSTC 150435Z AUTO 28007KT 10SM CLR M09/M13 A3022 750 70 -2000 280/07 RMK AO2
14926KSTC STC20060314224010103/14/06 22:40:31  5-MIN KSTC 150440Z AUTO 30008KT 10SM CLR M09/M13 A3022 750 70 -2000 300/08 RMK AO2
14926KSTC STC20060314224510103/14/06 22:45:31  5-MIN KSTC 150445Z AUTO 31008KT 10SM CLR M09/M13 A3022 750 70 -1900 310/08 RMK AO2
14926KSTC STC20060314225011803/14/06 22:50:31  5-MIN KSTC 150450Z AUTO 32007KT 10SM CLR M09/M13 A3022 750 70 -1900 310/07 RMK AO2 SLP261 T10891133
14926KSTC STC20060314225510103/14/06 22:55:31  5-MIN KSTC 150455Z AUTO 31007KT 10SM CLR M09/M13 A3022 750 70 -2000 310/07 RMK AO2
14926KSTC STC20060314230010103/14/06 23:00:31  5-MIN KSTC 150500Z AUTO 30006KT 10SM CLR M09/M13 A3022 750 73 -2000 290/06 RMK AO2
14926KSTC STC20060314230510103/14/06 23:05:31  5-MIN KSTC 150505Z AUTO 30006KT 10SM CLR M09/M13 A3022 750 73 -2000 300/06 RMK AO2
14926KSTC STC20060314231010103/14/06 23:10:31  5-MIN KSTC 150510Z AUTO 31008KT 10SM CLR M09/M13 A3022 750 73 -2000 300/08 RMK AO2
14926KSTC STC20060314231510103/14/06 23:15:31  5-MIN KSTC 150515Z AUTO 31007KT 10SM CLR M09/M13 A3023 750 73 -2000 310/07 RMK AO2
14926KSTC STC20060314232010103/14/06 23:20:31  5-MIN KSTC 150520Z AUTO 31009KT 10SM CLR M09/M13 A3023 740 73 -2000 310/09 RMK AO2
14926KSTC STC20060314232510103/14/06 23:25:31  5-MIN KSTC 150525Z AUTO 31008KT 10SM CLR M09/M13 A3023 740 73 -2000 300/08 RMK AO2
14926KSTC STC20060314233010103/14/06 23:30:31  5-MIN KSTC 150530Z AUTO 30008KT 10SM CLR M09/M13 A3023 740 73 -2000 300/08 RMK AO2
14926KSTC STC20060314233510103/14/06 23:35:31  5-MIN KSTC 150535Z AUTO 30010KT 10SM CLR M09/M13 A3023 740 70 -2000 300/10 RMK AO2
14926KSTC STC20060314234010103/14/06 23:40:31  5-MIN KSTC 150540Z AUTO 30011KT 10SM CLR M09/M13 A3024 740 70 -2000 290/11 RMK AO2
14926KSTC STC20060314234510103/14/06 23:45:31  5-MIN KSTC 150545Z AUTO 30012KT 10SM CLR M09/M13 A3023 740 70 -2000 300/12 RMK AO2
14926KSTC STC20060314235014603/14/06 23:50:31  5-MIN KSTC 150550Z AUTO 31011KT 10SM CLR M09/M13 A3023 740 73 -2000 310/11 RMK AO2 SLP264 T10941133 11044 21094 410221117 51020
14926KSTC STC20060314235510103/14/06 23:55:31  5-MIN KSTC 150555Z AUTO 32008KT 10SM CLR M09/M13 A3023 740 73 -2000 320/08 RMK AO2
14926KSTC STC20060315000010103/15/06 00:00:32  5-MIN KSTC 150600Z AUTO 32010KT 10SM CLR M09/M13 A3023 740 73 -2000 320/10 RMK AO2
14926KSTC STC20060315000510103/15/06 00:05:31  5-MIN KSTC 150605Z AUTO 32009KT 10SM CLR M09/M14 A3023 740 70 -2000 320/09 RMK AO2
14926KSTC STC20060315001010103/15/06 00:10:31  5-MIN KSTC 150610Z AUTO 32010KT 10SM CLR M09/M14 A3023 740 70 -2000 310/10 RMK AO2
14926KSTC STC20060315001510103/15/06 00:15:31  5-MIN KSTC 150615Z AUTO 32009KT 10SM CLR M09/M14 A3023 740 70 -2000 320/09 RMK AO2
14926KSTC STC20060315002010103/15/06 00:20:31  5-MIN KSTC 150620Z AUTO 32009KT 10SM CLR M09/M14 A3023 740 70 -2000 320/09 RMK AO2
14926KSTC STC20060315002510103/15/06 00:25:31  5-MIN KSTC 150625Z AUTO 32008KT 10SM CLR M09/M14 A3023 740 70 -2000 320/08 RMK AO2
14926KSTC STC20060315003010103/15/06 00:30:31  5-MIN KSTC 150630Z AUTO 32008KT 10SM CLR M09/M14 A3023 740 70 -2000 320/08 RMK AO2
14926KSTC STC20060315003510103/15/06 00:35:31  5-MIN KSTC 150635Z AUTO 32009KT 10SM CLR M10/M14 A3023 740 73 -2100 310/09 RMK AO2
14926KSTC STC20060315004010103/15/06 00:40:31  5-MIN KSTC 150640Z AUTO 32009KT 10SM CLR M10/M14 A3023 740 73 -2100 310/09 RMK AO2
14926KSTC STC20060315004510103/15/06 00:45:31  5-MIN KSTC 150645Z AUTO 32008KT 10SM CLR M10/M14 A3023 740 73 -2100 310/08 RMK AO2
14926KSTC STC20060315005011803/15/06 00:50:31  5-MIN KSTC 150650Z AUTO 33007KT 10SM CLR M10/M14 A3023 740 73 -2100 330/07 RMK AO2 SLP263 T11001139
14926KSTC STC20060315005510103/15/06 00:55:31  5-MIN KSTC 150655Z AUTO 33006KT 10SM CLR M10/M14 A3023 740 73 -2100 330/06 RMK AO2
14926KSTC STC20060315010010103/15/06 01:00:31  5-MIN KSTC 150700Z AUTO 33006KT 10SM CLR M10/M14 A3023 750 73 -2100 330/06 RMK AO2
14926KSTC STC20060315010510103/15/06 01:05:31  5-MIN KSTC 150705Z AUTO 33006KT 10SM CLR M10/M14 A3023 740 73 -2100 330/06 RMK AO2
14926KSTC STC20060315011010103/15/06 01:10:31  5-MIN KSTC 150710Z AUTO 33005KT 10SM CLR M10/M14 A3023 740 73 -2100 330/05 RMK AO2
14926KSTC STC20060315011510103/15/06 01:15:31  5-MIN KSTC 150715Z AUTO 33006KT 10SM CLR M11/M14 A3023 740 77 -2200 320/06 RMK AO2
14926KSTC STC20060315012010103/15/06 01:20:31  5-MIN KSTC 150720Z AUTO 33004KT 10SM CLR M11/M14 A3024 740 77 -2200 330/04 RMK AO2
14926KSTC STC20060315012510103/15/06 01:25:31  5-MIN KSTC 150725Z AUTO 33006KT 10SM CLR M11/M14 A3024 730 77 -2200 320/06 RMK AO2
14926KSTC STC20060315013010103/15/06 01:30:31  5-MIN KSTC 150730Z AUTO 32005KT 10SM CLR M11/M14 A3024 730 77 -2200 320/05 RMK AO2
14926KSTC STC20060315013510103/15/06 01:35:31  5-MIN KSTC 150735Z AUTO 33004KT 10SM CLR M11/M14 A3024 730 77 -2200 330/04 RMK AO2
14926KSTC STC20060315014010103/15/06 01:40:31  5-MIN KSTC 150740Z AUTO 34004KT 10SM CLR M11/M14 A3024 730 77 -2200 340/04 RMK AO2
14926KSTC STC20060315014510103/15/06 01:45:31  5-MIN KSTC 150745Z AUTO 34004KT 10SM CLR M11/M14 A3024 730 77 -2200 340/04 RMK AO2
14926KSTC STC20060315015011803/15/06 01:50:31  5-MIN KSTC 150750Z AUTO 35005KT 10SM CLR M11/M14 A3024 730 77 -2200 350/05 RMK AO2 SLP267 T11061139
14926KSTC STC20060315015510103/15/06 01:55:31  5-MIN KSTC 150755Z AUTO 35005KT 10SM CLR M11/M14 A3024 730 77 -2200 350/05 RMK AO2
14926KSTC STC20060315020010103/15/06 02:00:31  5-MIN KSTC 150800Z AUTO 32005KT 10SM CLR M11/M14 A3025 730 77 -2200 320/05 RMK AO2
14926KSTC STC20060315020510103/15/06 02:05:31  5-MIN KSTC 150805Z AUTO 29004KT 10SM CLR M11/M14 A3025 720 80 -2300 290/04 RMK AO2
14926KSTC STC20060315021010103/15/06 02:10:31  5-MIN KSTC 150810Z AUTO 31005KT 10SM CLR M11/M14 A3025 720 77 -2300 300/05 RMK AO2
14926KSTC STC20060315021510103/15/06 02:15:31  5-MIN KSTC 150815Z AUTO 30005KT 10SM CLR M12/M14 A3025 720 80 -2400 300/05 RMK AO2
14926KSTC STC20060315022010103/15/06 02:20:31  5-MIN KSTC 150820Z AUTO 27005KT 10SM CLR M11/M14 A3026 710 77 -2300 270/05 RMK AO2
14926KSTC STC20060315022510103/15/06 02:25:31  5-MIN KSTC 150825Z AUTO 25006KT 10SM CLR M12/M14 A3026 710 80 -2400 250/06 RMK AO2
14926KSTC STC20060315023010103/15/06 02:30:31  5-MIN KSTC 150830Z AUTO 27006KT 10SM CLR M11/M14 A3026 710 80 -2300 270/06 RMK AO2
14926KSTC STC20060315023510103/15/06 02:35:31  5-MIN KSTC 150835Z AUTO 28005KT 10SM CLR M11/M14 A3026 710 80 -2300 270/05 RMK AO2
14926KSTC STC20060315024010103/15/06 02:40:31  5-MIN KSTC 150840Z AUTO 29004KT 10SM CLR M12/M14 A3026 710 80 -2400 280/04 RMK AO2
14926KSTC STC20060315024510103/15/06 02:45:31  5-MIN KSTC 150845Z AUTO 30005KT 10SM CLR M12/M14 A3026 710 80 -2400 300/05 RMK AO2
14926KSTC STC20060315025012403/15/06 02:50:31  5-MIN KSTC 150850Z AUTO 30006KT 10SM CLR M11/M14 A3026 710 77 -2300 300/06 RMK AO2 SLP275 T11111144 53011
14926KSTC STC20060315025510103/15/06 02:55:31  5-MIN KSTC 150855Z AUTO 32005KT 10SM CLR M12/M14 A3026 720 80 -2400 310/05 RMK AO2
14926KSTC STC20060315030010103/15/06 03:00:31  5-MIN KSTC 150900Z AUTO 32005KT 10SM CLR M12/M14 A3026 720 80 -2400 320/05 RMK AO2
14926KSTC STC20060315030510103/15/06 03:05:31  5-MIN KSTC 150905Z AUTO 33005KT 10SM CLR M12/M14 A3025 720 80 -2400 330/05 RMK AO2
14926KSTC STC20060315031010103/15/06 03:10:31  5-MIN KSTC 150910Z AUTO 33005KT 10SM CLR M12/M14 A3025 720 80 -2400 330/05 RMK AO2
14926KSTC STC20060315031510103/15/06 03:15:31  5-MIN KSTC 150915Z AUTO 33005KT 10SM CLR M12/M14 A3026 720 80 -2400 320/05 RMK AO2
14926KSTC STC20060315032010103/15/06 03:20:31  5-MIN KSTC 150920Z AUTO 33004KT 10SM CLR M12/M14 A3026 720 80 -2400 330/04 RMK AO2
14926KSTC STC20060315032510103/15/06 03:25:31  5-MIN KSTC 150925Z AUTO 33004KT 10SM CLR M12/M14 A3026 710 80 -2400 330/04 RMK AO2
14926KSTC STC20060315033010103/15/06 03:30:31  5-MIN KSTC 150930Z AUTO 33005KT 10SM CLR M12/M14 A3026 720 80 -2400 330/05 RMK AO2
14926KSTC STC20060315033510103/15/06 03:35:31  5-MIN KSTC 150935Z AUTO 34005KT 10SM CLR M12/M14 A3025 720 84 -2400 340/05 RMK AO2
14926KSTC STC20060315034010103/15/06 03:40:31  5-MIN KSTC 150940Z AUTO 34006KT 10SM CLR M12/M15 A3025 720 80 -2400 330/06 RMK AO2
14926KSTC STC20060315034510103/15/06 03:45:31  5-MIN KSTC 150945Z AUTO 34006KT 10SM CLR M12/M14 A3025 720 84 -2400 330/06 RMK AO2
14926KSTC STC20060315035011803/15/06 03:50:31  5-MIN KSTC 150950Z AUTO 34005KT 10SM CLR M12/M15 A3025 730 80 -2400 340/05 RMK AO2 SLP270 T11221150
14926KSTC STC20060315035510103/15/06 03:55:31  5-MIN KSTC 150955Z AUTO 34005KT 10SM CLR M12/M14 A3025 730 84 -2400 340/05 RMK AO2
14926KSTC STC20060315040010103/15/06 04:00:31  5-MIN KSTC 151000Z AUTO 35006KT 10SM CLR M12/M14 A3024 730 84 -2400 350/06 RMK AO2
14926KSTC STC20060315040510103/15/06 04:05:31  5-MIN KSTC 151005Z AUTO 01006KT 10SM CLR M12/M14 A3023 740 84 -2400 360/06 RMK AO2
14926KSTC STC20060315041010103/15/06 04:10:31  5-MIN KSTC 151010Z AUTO 01006KT 10SM CLR M12/M14 A3024 740 80 -2300 010/06 RMK AO2
14926KSTC STC20060315041510103/15/06 04:15:31  5-MIN KSTC 151015Z AUTO 36004KT 10SM CLR M12/M14 A3025 730 80 -2300 360/04 RMK AO2
14926KSTC STC20060315042010103/15/06 04:20:31  5-MIN KSTC 151020Z AUTO 33004KT 10SM CLR M12/M14 A3026 720 80 -2400 330/04 RMK AO2
14926KSTC STC20060315042510103/15/06 04:25:31  5-MIN KSTC 151025Z AUTO 33004KT 10SM CLR M12/M14 A3026 720 84 -2400 330/04 RMK AO2
14926KSTC STC20060315043010103/15/06 04:30:31  5-MIN KSTC 151030Z AUTO 34004KT 10SM CLR M12/M14 A3026 720 84 -2400 340/04 RMK AO2
14926KSTC STC20060315043510103/15/06 04:35:31  5-MIN KSTC 151035Z AUTO 34005KT 10SM CLR M12/M14 A3026 720 84 -2400 330/05 RMK AO2
14926KSTC STC20060315044010103/15/06 04:40:31  5-MIN KSTC 151040Z AUTO 36005KT 10SM CLR M12/M14 A3025 720 84 -2400 350/05 RMK AO2
14926KSTC STC20060315044510103/15/06 04:45:31  5-MIN KSTC 151045Z AUTO 36004KT 10SM CLR M12/M14 A3025 720 84 -2400 360/04 RMK AO2
14926KSTC STC20060315045011803/15/06 04:50:31  5-MIN KSTC 151050Z AUTO 01003KT 10SM CLR M12/M14 A3025 720 84 -2400 360/03 RMK AO2 SLP273 T11221144
14926KSTC STC20060315045510103/15/06 04:55:31  5-MIN KSTC 151055Z AUTO 35003KT 10SM CLR M12/M14 A3026 710 84 -2400 350/03 RMK AO2
14926KSTC STC20060315050010103/15/06 05:00:31  5-MIN KSTC 151100Z AUTO 00000KT 10SM CLR M12/M14 A3026 710 84 -2400 000/00 RMK AO2
14926KSTC STC20060315050510103/15/06 05:05:31  5-MIN KSTC 151105Z AUTO 34003KT 10SM CLR M13/M14 A3026 710 87 -2500 340/03 RMK AO2
14926KSTC STC20060315051010103/15/06 05:10:31  5-MIN KSTC 151110Z AUTO 32003KT 10SM CLR M13/M15 A3027 710 84 -2500 310/03 RMK AO2
14926KSTC STC20060315051510103/15/06 05:15:31  5-MIN KSTC 151115Z AUTO 27004KT 10SM CLR M13/M15 A3027 700 84 -2500 270/04 RMK AO2
14926KSTC STC20060315052010103/15/06 05:20:31  5-MIN KSTC 151120Z AUTO 28005KT 10SM CLR M13/M16 A3028 700 83 -2600 270/05 RMK AO2
14926KSTC STC20060315052510103/15/06 05:25:31  5-MIN KSTC 151125Z AUTO 29003KT 10SM CLR M13/M16 A3027 700 80 -2500 290/03 RMK AO2
14926KSTC STC20060315053010103/15/06 05:30:31  5-MIN KSTC 151130Z AUTO 28004KT 10SM CLR M13/M16 A3028 690 83 -2600 270/04 RMK AO2
14926KSTC STC20060315053510103/15/06 05:35:31  5-MIN KSTC 151135Z AUTO 00000KT 10SM CLR M13/M15 A3028 700 87 -2600 000/00 RMK AO2
14926KSTC STC20060315054010103/15/06 05:40:31  5-MIN KSTC 151140Z AUTO 00000KT 10SM CLR M13/M15 A3028 690 84 -2500 000/00 RMK AO2
14926KSTC STC20060315054510103/15/06 05:45:31  5-MIN KSTC 151145Z AUTO 00000KT 10SM CLR M13/M15 A3029 690 87 -2600 000/00 RMK AO2
14926KSTC STC20060315055013603/15/06 05:50:31  5-MIN KSTC 151150Z AUTO 00000KT 10SM CLR M13/M15 A3029 690 84 -2500 000/00 RMK AO2 SLP286 T11281150 11094 21133 53009
14926KSTC STC20060315055510103/15/06 05:55:31  5-MIN KSTC 151155Z AUTO 32003KT 10SM CLR M13/M15 A3029 690 87 -2600 320/03 RMK AO2
14926KSTC STC20060315060010103/15/06 06:00:31  5-MIN KSTC 151200Z AUTO 32003KT 10SM CLR M13/M16 A3029 690 83 -2600 320/03 RMK AO2
14926KSTC STC20060315060510103/15/06 06:05:31  5-MIN KSTC 151205Z AUTO 00000KT 10SM CLR M13/M15 A3028 690 84 -2500 000/00 RMK AO2
14926KSTC STC20060315061010103/15/06 06:10:31  5-MIN KSTC 151210Z AUTO 00000KT 10SM CLR M13/M15 A3028 690 84 -2500 000/00 RMK AO2
14926KSTC STC20060315061510103/15/06 06:15:31  5-MIN KSTC 151215Z AUTO 00000KT 10SM CLR M13/M15 A3028 690 87 -2600 000/00 RMK AO2
14926KSTC STC20060315062010103/15/06 06:20:31  5-MIN KSTC 151220Z AUTO 00000KT 10SM CLR M13/M15 A3028 690 84 -2500 000/00 RMK AO2
14926KSTC STC20060315062510103/15/06 06:25:31  5-MIN KSTC 151225Z AUTO 00000KT 10SM CLR M13/M15 A3029 690 84 -2500 000/00 RMK AO2
14926KSTC STC20060315063010103/15/06 06:30:31  5-MIN KSTC 151230Z AUTO 00000KT 10SM CLR M13/M16 A3029 690 83 -2600 000/00 RMK AO2
14926KSTC STC20060315063510103/15/06 06:35:31  5-MIN KSTC 151235Z AUTO 00000KT 10SM CLR M13/M16 A3029 690 83 -2600 000/00 RMK AO2
14926KSTC STC20060315064010103/15/06 06:40:31  5-MIN KSTC 151240Z AUTO 00000KT 10SM CLR M13/M16 A3029 690 83 -2600 000/00 RMK AO2
14926KSTC STC20060315064510103/15/06 06:45:31  5-MIN KSTC 151245Z AUTO 00000KT 10SM CLR M13/M16 A3028 690 83 -2600 000/00 RMK AO2
14926KSTC STC20060315065011803/15/06 06:50:31  5-MIN KSTC 151250Z AUTO 00000KT 10SM CLR M13/M16 A3028 690 83 -2600 000/00 RMK AO2 SLP285 T11331156
14926KSTC STC20060315065510103/15/06 06:55:31  5-MIN KSTC 151255Z AUTO 00000KT 10SM CLR M13/M16 A3028 690 80 -2500 000/00 RMK AO2
14926KSTC STC20060315070010103/15/06 07:00:31  5-MIN KSTC 151300Z AUTO 00000KT 10SM CLR M13/M15 A3029 690 84 -2500 000/00 RMK AO2
14926KSTC STC20060315070510103/15/06 07:05:31  5-MIN KSTC 151305Z AUTO 00000KT 10SM CLR M13/M14 A3029 680 87 -2500 000/00 RMK AO2
14926KSTC STC20060315071009603/15/06 07:10:31  5-MIN KSTC 151310Z 00000KT 10SM CLR M12/M14 A3029 690 84 -2500 000/00 RMK AO2
14926KSTC STC20060315071509603/15/06 07:15:31  5-MIN KSTC 151315Z 00000KT 10SM CLR M12/M14 A3029 690 84 -2500 000/00 RMK AO2
14926KSTC STC20060315072009603/15/06 07:20:31  5-MIN KSTC 151320Z 00000KT 10SM CLR M12/M14 A3028 690 80 -2400 000/00 RMK AO2
14926KSTC STC20060315072509603/15/06 07:25:31  5-MIN KSTC 151325Z 00000KT 10SM CLR M12/M14 A3028 700 80 -2400 000/00 RMK AO2
14926KSTC STC20060315073009603/15/06 07:30:31  5-MIN KSTC 151330Z 00000KT 10SM CLR M12/M14 A3028 690 80 -2400 000/00 RMK AO2
14926KSTC STC20060315073509603/15/06 07:35:31  5-MIN KSTC 151335Z 00000KT 10SM CLR M12/M14 A3028 700 84 -2400 000/00 RMK AO2
14926KSTC STC20060315074009603/15/06 07:40:31  5-MIN KSTC 151340Z 00000KT 10SM CLR M12/M14 A3027 700 84 -2400 000/00 RMK AO2
14926KSTC STC20060315074509603/15/06 07:45:31  5-MIN KSTC 151345Z 36003KT 10SM CLR M12/M14 A3027 700 84 -2400 350/03 RMK AO2
14926KSTC STC20060315075011303/15/06 07:50:31  5-MIN KSTC 151350Z 36003KT 10SM CLR M11/M14 A3027 700 80 -2300 360/03 RMK AO2 SLP281 T11111139
14926KSTC STC20060315075509603/15/06 07:55:31  5-MIN KSTC 151355Z 36003KT 10SM CLR M11/M14 A3027 700 80 -2300 360/03 RMK AO2
14926KSTC STC20060315080009603/15/06 08:00:31  5-MIN KSTC 151400Z 36004KT 10SM CLR M11/M14 A3027 700 80 -2300 360/04 RMK AO2
14926KSTC STC20060315080509603/15/06 08:05:31  5-MIN KSTC 151405Z 36004KT 10SM CLR M11/M14 A3028 700 77 -2200 360/04 RMK AO2
14926KSTC STC20060315081009603/15/06 08:10:31  5-MIN KSTC 151410Z 01003KT 10SM CLR M11/M14 A3028 700 77 -2200 010/03 RMK AO2
14926KSTC STC20060315081509603/15/06 08:15:31  5-MIN KSTC 151415Z 01003KT 10SM CLR M11/M13 A3028 700 80 -2200 010/03 RMK AO2
14926KSTC STC20060315082009603/15/06 08:20:31  5-MIN KSTC 151420Z 01004KT 10SM CLR M10/M13 A3028 700 77 -2200 010/04 RMK AO2
14926KSTC STC20060315082509603/15/06 08:25:31  5-MIN KSTC 151425Z 36003KT 10SM CLR M10/M13 A3028 700 77 -2200 360/03 RMK AO2
14926KSTC STC20060315083009603/15/06 08:30:31  5-MIN KSTC 151430Z 01004KT 10SM CLR M10/M13 A3028 700 77 -2200 010/04 RMK AO2
14926KSTC STC20060315083509603/15/06 08:35:31  5-MIN KSTC 151435Z 36003KT 10SM CLR M09/M13 A3028 700 73 -2100 360/03 RMK AO2
14926KSTC STC20060315084009603/15/06 08:40:31  5-MIN KSTC 151440Z 01003KT 10SM CLR M09/M13 A3028 690 73 -2100 010/03 RMK AO2
14926KSTC STC20060315084509603/15/06 08:45:31  5-MIN KSTC 151445Z 36003KT 10SM CLR M09/M13 A3028 690 73 -2100 360/03 RMK AO2
14926KSTC STC20060315085011903/15/06 08:50:31  5-MIN KSTC 151450Z 00000KT 10SM CLR M09/M13 A3029 690 77 -2100 000/00 RMK AO2 SLP285 T10941128 53009
14926KSTC STC20060315085509603/15/06 08:55:31  5-MIN KSTC 151455Z VRB03KT 10SM CLR M09/M13 A3028 690 74 -2000 VRB/03 RMK AO2
14926KSTC STC20060315090009603/15/06 09:00:31  5-MIN KSTC 151500Z 02003KT 10SM CLR M09/M13 A3028 690 74 -2000 010/03 RMK AO2
14926KSTC STC20060315090509603/15/06 09:05:31  5-MIN KSTC 151505Z 06004KT 10SM CLR M09/M13 A3028 700 74 -2000 060/04 RMK AO2
14926KSTC STC20060315091009603/15/06 09:10:31  5-MIN KSTC 151510Z VRB04KT 10SM CLR M09/M13 A3027 700 74 -2000 VRB/04 RMK AO2
14926KSTC STC20060315091510303/15/06 09:15:31  5-MIN KSTC 151515Z 06006KT 10SM CLR M08/M13 A3026 710 70 -1900 050/06 RMK AO2 PRESFR
14926KSTC STC20060315092009603/15/06 09:20:31  5-MIN KSTC 151520Z 04006KT 10SM CLR M08/M13 A3026 710 70 -1900 040/06 RMK AO2
14926KSTC STC20060315092509603/15/06 09:25:31  5-MIN KSTC 151525Z 05006KT 10SM CLR M08/M13 A3026 710 70 -1900 050/06 RMK AO2
14926KSTC STC20060315093009603/15/06 09:30:31  5-MIN KSTC 151530Z 05005KT 10SM CLR M08/M12 A3026 710 71 -1900 050/05 RMK AO2
14926KSTC STC20060315093509603/15/06 09:35:31  5-MIN KSTC 151535Z 06006KT 10SM CLR M08/M12 A3026 710 71 -1900 060/06 RMK AO2
14926KSTC STC20060315094009603/15/06 09:40:31  5-MIN KSTC 151540Z 08005KT 10SM CLR M08/M12 A3026 710 71 -1900 070/05 RMK AO2
14926KSTC STC20060315094509603/15/06 09:45:31  5-MIN KSTC 151545Z 09006KT 10SM CLR M08/M12 A3026 710 71 -1900 080/06 RMK AO2
14926KSTC STC20060315095011303/15/06 09:50:31  5-MIN KSTC 151550Z 09006KT 10SM CLR M08/M12 A3026 710 71 -1800 080/06 RMK AO2 SLP276 T10781122
14926KSTC STC20060315095509603/15/06 09:55:31  5-MIN KSTC 151555Z 07006KT 10SM CLR M07/M12 A3025 720 68 -1800 070/06 RMK AO2
14926KSTC STC20060315100009603/15/06 10:00:31  5-MIN KSTC 151600Z 07005KT 10SM CLR M07/M12 A3026 720 68 -1800 070/05 RMK AO2
14926KSTC STC20060315100509603/15/06 10:05:31  5-MIN KSTC 151605Z 06006KT 10SM CLR M07/M12 A3026 720 68 -1800 060/06 RMK AO2
14926KSTC STC20060315101009603/15/06 10:10:31  5-MIN KSTC 151610Z 08006KT 10SM CLR M07/M12 A3025 720 65 -1700 080/06 RMK AO2
14926KSTC STC20060315101509603/15/06 10:15:31  5-MIN KSTC 151615Z 09006KT 10SM CLR M07/M12 A3025 720 68 -1700 080/06 RMK AO2
14926KSTC STC20060315102009603/15/06 10:20:31  5-MIN KSTC 151620Z 09005KT 10SM CLR M07/M12 A3025 720 68 -1700 090/05 RMK AO2
14926KSTC STC20060315102509603/15/06 10:25:31  5-MIN KSTC 151625Z 09006KT 10SM CLR M07/M12 A3025 720 68 -1700 080/06 RMK AO2
14926KSTC STC20060315103009603/15/06 10:30:31  5-MIN KSTC 151630Z 09005KT 10SM CLR M07/M12 A3026 720 68 -1700 080/05 RMK AO2
14926KSTC STC20060315103509603/15/06 10:35:31  5-MIN KSTC 151635Z VRB04KT 10SM CLR M07/M12 A3026 720 68 -1700 VRB/04 RMK AO2
14926KSTC STC20060315104009603/15/06 10:40:31  5-MIN KSTC 151640Z 15006KT 10SM CLR M07/M11 A3025 720 71 -1700 140/06 RMK AO2
14926KSTC STC20060315104509603/15/06 10:45:31  5-MIN KSTC 151645Z 14006KT 10SM CLR M06/M11 A3025 720 68 -1600 140/06 RMK AO2
14926KSTC STC20060315105011303/15/06 10:50:31  5-MIN KSTC 151650Z VRB05KT 10SM CLR M06/M11 A3025 720 68 -1600 VRB/05 RMK AO2 SLP272 T10611111
14926KSTC STC20060315105509603/15/06 10:55:31  5-MIN KSTC 151655Z 15005KT 10SM CLR M06/M11 A3025 720 68 -1600 150/05 RMK AO2
14926KSTC STC20060315110009603/15/06 11:00:31  5-MIN KSTC 151700Z 16004KT 10SM CLR M06/M11 A3025 720 68 -1600 150/04 RMK AO2
14926KSTC STC20060315110509603/15/06 11:05:31  5-MIN KSTC 151705Z VRB05KT 10SM CLR M06/M11 A3025 720 68 -1600 VRB/05 RMK AO2
14926KSTC STC20060315111009603/15/06 11:10:31  5-MIN KSTC 151710Z 14006KT 10SM CLR M06/M11 A3026 720 68 -1600 140/06 RMK AO2
14926KSTC STC20060315111509603/15/06 11:15:31  5-MIN KSTC 151715Z 16007KT 10SM CLR M06/M11 A3026 710 68 -1600 150/07 RMK AO2
14926KSTC STC20060315112009603/15/06 11:20:31  5-MIN KSTC 151720Z 17007KT 10SM CLR M06/M11 A3026 710 68 -1600 170/07 RMK AO2
14926KSTC STC20060315112509603/15/06 11:25:31  5-MIN KSTC 151725Z 17006KT 10SM CLR M06/M11 A3026 710 68 -1600 170/06 RMK AO2
14926KSTC STC20060315113009603/15/06 11:30:31  5-MIN KSTC 151730Z 16006KT 10SM CLR M06/M11 A3026 710 68 -1600 150/06 RMK AO2
14926KSTC STC20060315113509603/15/06 11:35:31  5-MIN KSTC 151735Z 16006KT 10SM CLR M06/M11 A3026 710 68 -1600 160/06 RMK AO2
14926KSTC STC20060315114009603/15/06 11:40:31  5-MIN KSTC 151740Z 18005KT 10SM CLR M06/M11 A3026 710 65 -1600 180/05 RMK AO2
14926KSTC STC20060315114509603/15/06 11:45:31  5-MIN KSTC 151745Z 16004KT 10SM CLR M06/M11 A3026 710 65 -1600 160/04 RMK AO2
14926KSTC STC20060315115013103/15/06 11:50:31  5-MIN KSTC 151750Z 18005KT 10SM CLR M06/M11 A3026 710 68 -1600 180/05 RMK AO2 SLP275 T10561106 11056 21133 55000
14926KSTC STC20060315115509603/15/06 11:55:31  5-MIN KSTC 151755Z 14004KT 10SM CLR M05/M11 A3026 710 62 -1500 140/04 RMK AO2
14926KSTC STC20060315120009603/15/06 12:00:31  5-MIN KSTC 151800Z 14004KT 10SM CLR M05/M11 A3026 710 62 -1500 130/04 RMK AO2
14926KSTC STC20060315120509603/15/06 12:05:31  5-MIN KSTC 151805Z 15004KT 10SM CLR M05/M11 A3026 710 65 -1500 150/04 RMK AO2
14926KSTC STC20060315121009603/15/06 12:10:31  5-MIN KSTC 151810Z 00000KT 10SM CLR M06/M11 A3026 710 68 -1600 000/00 RMK AO2
14926KSTC STC20060315121509603/15/06 12:15:31  5-MIN KSTC 151815Z 18005KT 10SM CLR M05/M11 A3026 720 65 -1500 170/05 RMK AO2
14926KSTC STC20060315122009603/15/06 12:20:31  5-MIN KSTC 151820Z VRB03KT 10SM CLR M06/M10 A3025 720 71 -1600 VRB/03 RMK AO2
14926KSTC STC20060315122509603/15/06 12:25:31  5-MIN KSTC 151825Z 15005KT 10SM CLR M05/M11 A3025 720 65 -1500 140/05 RMK AO2
14926KSTC STC20060315123009603/15/06 12:30:31  5-MIN KSTC 151830Z VRB04KT 10SM CLR M05/M11 A3025 730 62 -1500 VRB/04 RMK AO2
14926KSTC STC20060315123509903/15/06 12:35:31  5-MIN KSTC 151835Z 18004KT 10SM FEW095 M05/M11 A3024 730 65 -1500 180/04 RMK AO2
14926KSTC STC20060315124009903/15/06 12:40:31  5-MIN KSTC 151840Z 18005KT 10SM FEW095 M05/M11 A3024 730 65 -1500 180/05 RMK AO2
14926KSTC STC20060315124509903/15/06 12:45:31  5-MIN KSTC 151845Z 16006KT 10SM FEW095 M05/M11 A3024 740 65 -1500 160/06 RMK AO2
14926KSTC STC20060315125011603/15/06 12:50:31  5-MIN KSTC 151850Z 15005KT 10SM FEW095 M05/M11 A3023 740 65 -1500 150/05 RMK AO2 SLP265 T10501106
14926KSTC STC20060315125509903/15/06 12:55:31  5-MIN KSTC 151855Z 16005KT 10SM FEW095 M05/M11 A3023 740 65 -1500 160/05 RMK AO2
14926KSTC STC20060315130009903/15/06 13:00:31  5-MIN KSTC 151900Z 08004KT 10SM FEW095 M05/M11 A3023 750 65 -1500 080/04 RMK AO2
14926KSTC STC20060315130509603/15/06 13:05:31  5-MIN KSTC 151905Z VRB04KT 10SM CLR M05/M11 A3022 750 62 -1400 VRB/04 RMK AO2
14926KSTC STC20060315131009603/15/06 13:10:31  5-MIN KSTC 151910Z 17003KT 10SM CLR M05/M11 A3022 750 62 -1400 160/03 RMK AO2
14926KSTC STC20060315131509603/15/06 13:15:31  5-MIN KSTC 151915Z 17004KT 10SM CLR M05/M11 A3022 750 65 -1400 160/04 RMK AO2
14926KSTC STC20060315132009603/15/06 13:20:31  5-MIN KSTC 151920Z 17005KT 10SM CLR M05/M11 A3022 750 62 -1400 160/05 RMK AO2
14926KSTC STC20060315132509603/15/06 13:25:31  5-MIN KSTC 151925Z 16005KT 10SM CLR M04/M11 A3022 750 62 -1400 150/05 RMK AO2
14926KSTC STC20060315133009603/15/06 13:30:31  5-MIN KSTC 151930Z 16006KT 10SM CLR M04/M10 A3021 760 65 -1400 160/06 RMK AO2
14926KSTC STC20060315133509603/15/06 13:35:31  5-MIN KSTC 151935Z 15005KT 10SM CLR M05/M11 A3021 760 65 -1400 140/05 RMK AO2
14926KSTC STC20060315134009603/15/06 13:40:31  5-MIN KSTC 151940Z 00000KT 10SM CLR M05/M11 A3021 760 65 -1400 000/00 RMK AO2
14926KSTC STC20060315134509603/15/06 13:45:31  5-MIN KSTC 151945Z VRB04KT 10SM CLR M04/M11 A3020 770 62 -1400 VRB/04 RMK AO2
14926KSTC STC20060315135011303/15/06 13:50:31  5-MIN KSTC 151950Z 14003KT 10SM CLR M04/M11 A3020 770 62 -1300 140/03 RMK AO2 SLP253 T10441106
14926KSTC STC20060315135509603/15/06 13:55:31  5-MIN KSTC 151955Z 09004KT 10SM CLR M04/M11 A3019 770 60 -1300 090/04 RMK AO2
14926KSTC STC20060315140009603/15/06 14:00:31  5-MIN KSTC 152000Z VRB03KT 10SM CLR M04/M11 A3019 780 60 -1300 VRB/03 RMK AO2
14926KSTC STC20060315140509603/15/06 14:05:31  5-MIN KSTC 152005Z 00000KT 10SM CLR M04/M11 A3019 780 60 -1300 000/00 RMK AO2
14926KSTC STC20060315141009603/15/06 14:10:31  5-MIN KSTC 152010Z 10005KT 10SM CLR M04/M11 A3019 780 60 -1300 100/05 RMK AO2
14926KSTC STC20060315141509603/15/06 14:15:31  5-MIN KSTC 152015Z VRB04KT 10SM CLR M03/M11 A3019 780 57 -1200 VRB/04 RMK AO2
14926KSTC STC20060315142009603/15/06 14:20:31  5-MIN KSTC 152020Z VRB05KT 10SM CLR M04/M09 A3018 790 65 -1300 VRB/05 RMK AO2
14926KSTC STC20060315142509603/15/06 14:25:31  5-MIN KSTC 152025Z 07005KT 10SM CLR M03/M11 A3018 790 57 -1200 070/05 RMK AO2
14926KSTC STC20060315143009603/15/06 14:30:31  5-MIN KSTC 152030Z 08006KT 10SM CLR M03/M11 A3018 790 57 -1200 080/06 RMK AO2
14926KSTC STC20060315143509603/15/06 14:35:31  5-MIN KSTC 152035Z 08007KT 10SM CLR M03/M11 A3017 790 57 -1200 080/07 RMK AO2
14926KSTC STC20060315144009603/15/06 14:40:31  5-MIN KSTC 152040Z 08007KT 10SM CLR M03/M11 A3017 800 55 -1200 080/07 RMK AO2
14926KSTC STC20060315144509603/15/06 14:45:31  5-MIN KSTC 152045Z 07007KT 10SM CLR M03/M11 A3017 800 57 -1200 070/07 RMK AO2
14926KSTC STC20060315145011903/15/06 14:50:31  5-MIN KSTC 152050Z 07006KT 10SM CLR M03/M11 A3016 800 57 -1200 060/06 RMK AO2 SLP241 T10331106 55007
14926KSTC STC20060315145509603/15/06 14:55:31  5-MIN KSTC 152055Z 08008KT 10SM CLR M03/M11 A3016 800 57 -1200 080/08 RMK AO2
14926KSTC STC20060315150009603/15/06 15:00:31  5-MIN KSTC 152100Z 08009KT 10SM CLR M03/M11 A3016 800 57 -1200 080/09 RMK AO2
14926KSTC STC20060315150509603/15/06 15:05:31  5-MIN KSTC 152105Z 09008KT 10SM CLR M03/M11 A3016 800 57 -1200 090/08 RMK AO2
14926KSTC STC20060315151009603/15/06 15:10:31  5-MIN KSTC 152110Z 08006KT 10SM CLR M03/M11 A3016 810 57 -1200 070/06 RMK AO2
14926KSTC STC20060315151509603/15/06 15:15:31  5-MIN KSTC 152115Z 08007KT 10SM CLR M03/M10 A3016 810 60 -1200 080/07 RMK AO2
14926KSTC STC20060315152009903/15/06 15:20:31  5-MIN KSTC 152120Z 07009KT 10SM FEW075 M03/M11 A3016 810 57 -1200 070/09 RMK AO2
14926KSTC STC20060315152509603/15/06 15:25:31  5-MIN KSTC 152125Z 08008KT 10SM CLR M03/M11 A3016 810 57 -1200 080/08 RMK AO2
14926KSTC STC20060315153009603/15/06 15:30:31  5-MIN KSTC 152130Z 07007KT 10SM CLR M03/M10 A3015 810 60 -1200 070/07 RMK AO2
14926KSTC STC20060315153509903/15/06 15:35:31  5-MIN KSTC 152135Z 06008KT 10SM FEW070 M03/M10 A3016 810 60 -1200 060/08 RMK AO2
14926KSTC STC20060315154009903/15/06 15:40:31  5-MIN KSTC 152140Z 09008KT 10SM FEW070 M03/M10 A3016 810 58 -1100 080/08 RMK AO2
14926KSTC STC20060315154509903/15/06 15:45:31  5-MIN KSTC 152145Z 07005KT 10SM FEW070 M03/M10 A3016 810 58 -1100 070/05 RMK AO2
14926KSTC STC20060315155011603/15/06 15:50:31  5-MIN KSTC 152150Z 08007KT 10SM FEW070 M03/M09 A3016 810 60 -1100 080/07 RMK AO2 SLP239 T10281094
14926KSTC STC20060315155509903/15/06 15:55:31  5-MIN KSTC 152155Z 08006KT 10SM FEW070 M03/M10 A3016 810 58 -1100 080/06 RMK AO2
14926KSTC STC20060315160009903/15/06 16:00:31  5-MIN KSTC 152200Z 08008KT 10SM FEW070 M03/M10 A3016 810 58 -1100 080/08 RMK AO2
14926KSTC STC20060315160509603/15/06 16:05:31  5-MIN KSTC 152205Z 08007KT 10SM CLR M03/M10 A3015 810 58 -1100 080/07 RMK AO2
14926KSTC STC20060315161010103/15/06 16:10:31  5-MIN KSTC 152210Z AUTO 09005KT 10SM CLR M03/M10 A3015 810 58 -1100 090/05 RMK AO2
14926KSTC STC20060315161510103/15/06 16:15:31  5-MIN KSTC 152215Z AUTO 08008KT 10SM CLR M03/M09 A3015 810 60 -1100 080/08 RMK AO2
14926KSTC STC20060315162010103/15/06 16:20:31  5-MIN KSTC 152220Z AUTO 10008KT 10SM CLR M03/M10 A3015 810 58 -1100 100/08 RMK AO2
14926KSTC STC20060315162510103/15/06 16:25:31  5-MIN KSTC 152225Z AUTO 09008KT 10SM CLR M03/M10 A3015 810 58 -1100 080/08 RMK AO2
14926KSTC STC20060315163010403/15/06 16:30:31  5-MIN KSTC 152230Z AUTO 09006KT 10SM FEW065 M03/M10 A3015 810 58 -1100 090/06 RMK AO2
14926KSTC STC20060315163510403/15/06 16:35:31  5-MIN KSTC 152235Z AUTO VRB05KT 10SM FEW065 M03/M09 A3015 810 60 -1100 VRB/05 RMK AO2
14926KSTC STC20060315164010103/15/06 16:40:31  5-MIN KSTC 152240Z AUTO 09008KT 10SM CLR M03/M09 A3015 810 60 -1100 080/08 RMK AO2
14926KSTC STC20060315164510103/15/06 16:45:31  5-MIN KSTC 152245Z AUTO 08008KT 10SM CLR M03/M09 A3015 820 60 -1100 080/08 RMK AO2
14926KSTC STC20060315165011803/15/06 16:50:31  5-MIN KSTC 152250Z AUTO 08008KT 10SM CLR M03/M09 A3014 820 60 -1100 080/08 RMK AO2 SLP235 T10281094
14926KSTC STC20060315165510103/15/06 16:55:31  5-MIN KSTC 152255Z AUTO 08006KT 10SM CLR M03/M09 A3014 820 60 -1100 080/06 RMK AO2
14926KSTC STC20060315170010103/15/06 17:00:31  5-MIN KSTC 152300Z AUTO 09005KT 10SM CLR M03/M09 A3014 820 60 -1100 080/05 RMK AO2
14926KSTC STC20060315170510103/15/06 17:05:31  5-MIN KSTC 152305Z AUTO 08006KT 10SM CLR M03/M09 A3014 820 60 -1100 070/06 RMK AO2
14926KSTC STC20060315171010403/15/06 17:10:31  5-MIN KSTC 152310Z AUTO 08007KT 10SM FEW065 M03/M09 A3014 820 60 -1100 070/07 RMK AO2
14926KSTC STC20060315171510403/15/06 17:15:31  5-MIN KSTC 152315Z AUTO 07007KT 10SM SCT065 M03/M09 A3014 830 60 -1100 070/07 RMK AO2
14926KSTC STC20060315172010403/15/06 17:20:31  5-MIN KSTC 152320Z AUTO 08007KT 10SM SCT060 M03/M09 A3014 830 60 -1100 080/07 RMK AO2
14926KSTC STC20060315172510403/15/06 17:25:31  5-MIN KSTC 152325Z AUTO 08007KT 10SM BKN060 M03/M09 A3014 830 63 -1100 080/07 RMK AO2
14926KSTC STC20060315173010403/15/06 17:30:31  5-MIN KSTC 152330Z AUTO 07007KT 10SM BKN060 M03/M09 A3014 830 60 -1100 070/07 RMK AO2
14926KSTC STC20060315173510403/15/06 17:35:31  5-MIN KSTC 152335Z AUTO 09007KT 10SM OVC055 M03/M09 A3014 820 60 -1100 080/07 RMK AO2
14926KSTC STC20060315174010403/15/06 17:40:31  5-MIN KSTC 152340Z AUTO 07005KT 10SM OVC055 M03/M09 A3014 820 60 -1100 070/05 RMK AO2
14926KSTC STC20060315174510403/15/06 17:45:31  5-MIN KSTC 152345Z AUTO 07006KT 10SM OVC050 M03/M09 A3014 820 63 -1100 070/06 RMK AO2
14926KSTC STC20060315175013903/15/06 17:50:31  5-MIN KSTC 152350Z AUTO 08005KT 10SM OVC048 M03/M09 A3014 820 63 -1100 070/05 RMK AO2 SLP235 T10281089 11028 21056 58033
14926KSTC STC20060315175510403/15/06 17:55:31  5-MIN KSTC 152355Z AUTO 08005KT 10SM OVC044 M03/M09 A3014 820 63 -1100 080/05 RMK AO2
14926KSTC STC20060315180010403/15/06 18:00:31  5-MIN KSTC 160000Z AUTO 08006KT 10SM OVC042 M03/M09 A3014 820 63 -1100 080/06 RMK AO2
14926KSTC STC20060315180510403/15/06 18:05:31  5-MIN KSTC 160005Z AUTO 08006KT 10SM OVC040 M03/M09 A3014 820 63 -1100 080/06 RMK AO2
14926KSTC STC20060315181010403/15/06 18:10:31  5-MIN KSTC 160010Z AUTO 08006KT 10SM OVC038 M03/M09 A3014 820 63 -1100 070/06 RMK AO2
14926KSTC STC20060315181510403/15/06 18:15:31  5-MIN KSTC 160015Z AUTO 09007KT 10SM OVC034 M03/M09 A3014 820 63 -1100 090/07 RMK AO2
14926KSTC STC20060315182010403/15/06 18:20:31  5-MIN KSTC 160020Z AUTO 08007KT 10SM OVC032 M03/M09 A3014 820 63 -1100 080/07 RMK AO2
14926KSTC STC20060315182510403/15/06 18:25:31  5-MIN KSTC 160025Z AUTO 08009KT 10SM OVC028 M03/M09 A3014 820 60 -1100 070/09 RMK AO2
14926KSTC STC20060315183010403/15/06 18:30:31  5-MIN KSTC 160030Z AUTO 08009KT 10SM OVC026 M03/M09 A3014 820 60 -1100 070/09 RMK AO2
14926KSTC STC20060315183512403/15/06 18:35:31  5-MIN KSTC 160035Z 08009KT 2SM -SN OVC022 M03/M09 A3014 820 60 -1100 070/09 RMK AO2 SFC VIS 5 SNB35 P0000
14926KSTC STC20060315184011403/15/06 18:40:31  5-MIN KSTC 160040Z 08011KT 2SM -SN OVC018 M03/M09 A3014 820 65 -1100 070/11 RMK AO2 SNB35 P0000
14926KSTC STC20060315184511803/15/06 18:45:31  5-MIN KSTC 160045Z 09009KT 1 1/2SM -SN OVC016 M04/M08 A3014 820 71 -1200 090/09 RMK AO2 SNB35 P0000
14926KSTC STC20060315185011203/15/06 18:50:31  5-MIN KSTC 160050Z 08011KT 1 1/4SM -SN OVC014 M04/M08 A3014 820 74 -1200 070/11 RMK AO2 P0000
14926KSTC STC20060315185510703/15/06 18:55:31  5-MIN KSTC 160055Z 08009KT 1SM -SN VV010 M04/M07 A3014 820 81 -1300 070/09 RMK AO2 P0000
14926KSTC STC20060315190010703/15/06 19:00:31  5-MIN KSTC 160100Z 08008KT 1SM -SN VV009 M04/M07 A3014 820 81 -1300 070/08 RMK AO2 P0000
14926KSTC STC20060315190511003/15/06 19:05:31  5-MIN KSTC 160105Z 08007KT 1SM -SN BR VV008 M04/M07 A3014 820 84 -1300 080/07 RMK AO2 P0000
14926KSTC STC20060315191011003/15/06 19:10:31  5-MIN KSTC 160110Z 09009KT 1SM -SN BR VV007 M04/M07 A3014 820 84 -1300 080/09 RMK AO2 P0001
14926KSTC STC20060315191511003/15/06 19:15:31  5-MIN KSTC 160115Z 10007KT 1SM -SN BR VV006 M04/M07 A3015 810 84 -1300 090/07 RMK AO2 P0001
14926KSTC STC20060315192011003/15/06 19:20:31  5-MIN KSTC 160120Z 11004KT 1SM -SN BR VV006 M04/M07 A3016 810 84 -1300 110/04 RMK AO2 P0001
14926KSTC STC20060315192511803/15/06 19:25:31  5-MIN KSTC 160125Z VRB04KT 1SM -SN BR BKN006 OVC022 M04/M07 A3016 810 84 -1300 VRB/04 RMK AO2 P0002
14926KSTC STC20060315193011803/15/06 19:30:31  5-MIN KSTC 160130Z 10005KT 1SM -SN BR BKN006 OVC022 M04/M06 A3016 810 88 -1300 090/05 RMK AO2 P0002
14926KSTC STC20060315193511803/15/06 19:35:31  5-MIN KSTC 160135Z 13004KT 1SM -SN BR SCT006 OVC022 M04/M06 A3016 800 88 -1300 120/04 RMK AO2 P0002
14926KSTC STC20060315194011803/15/06 19:40:31  5-MIN KSTC 160140Z VRB04KT 1SM -SN BR FEW006 OVC022 M04/M06 A3016 800 88 -1300 VRB/04 RMK AO2 P0003
14926KSTC STC20060315194511803/15/06 19:45:31  5-MIN KSTC 160145Z 11003KT 1SM -SN BR SCT006 OVC022 M04/M06 A3016 800 88 -1300 100/03 RMK AO2 P0003
14926KSTC STC20060315195011803/15/06 19:50:31  5-MIN KSTC 160150Z 12004KT 1SM -SN BR BKN006 OVC022 M04/M06 A3016 800 88 -1300 120/04 RMK AO2 P0003
14926KSTC STC20060315195512003/15/06 19:55:31  5-MIN KSTC 160155Z 00000KT 3/4SM -SN BR BKN006 OVC022 M04/M06 A3017 800 88 -1300 000/00 RMK AO2 P0000
14926KSTC STC20060315200012003/15/06 20:00:31  5-MIN KSTC 160200Z 00000KT 3/4SM -SN BR BKN006 OVC024 M04/M06 A3017 800 88 -1300 000/00 RMK AO2 P0001
14926KSTC STC20060315200511203/15/06 20:05:31  5-MIN KSTC 160205Z VRB03KT 3/4SM -SN BR VV005 M04/M06 A3017 800 88 -1300 VRB/03 RMK AO2 P0001
14926KSTC STC20060315201011003/15/06 20:10:31  5-MIN KSTC 160210Z 00000KT 1SM -SN BR VV006 M04/M06 A3017 800 88 -1300 000/00 RMK AO2 P0001
14926KSTC STC20060315201511503/15/06 20:15:31  5-MIN KSTC 160215Z VRB05KT 1 1/4SM -SN BR OVC007 M04/M06 A3017 800 88 -1300 VRB/05 RMK AO2 P0002
14926KSTC STC20060315202011503/15/06 20:20:31  5-MIN KSTC 160220Z 09004KT 1 1/2SM -SN BR OVC007 M04/M06 A3017 800 88 -1300 090/04 RMK AO2 P0002
14926KSTC STC20060315202511503/15/06 20:25:31  5-MIN KSTC 160225Z 08005KT 1 1/4SM -SN BR OVC007 M04/M06 A3017 800 88 -1300 080/05 RMK AO2 P0002
14926KSTC STC20060315203011503/15/06 20:30:31  5-MIN KSTC 160230Z 10004KT 1 1/4SM -SN BR OVC007 M04/M06 A3017 800 88 -1300 100/04 RMK AO2 P0002
14926KSTC STC20060315203511503/15/06 20:35:31  5-MIN KSTC 160235Z 09004KT 1 1/4SM -SN BR OVC009 M04/M06 A3017 790 88 -1300 090/04 RMK AO2 P0002
14926KSTC STC20060315204011503/15/06 20:40:31  5-MIN KSTC 160240Z 10005KT 1 1/4SM -SN BR OVC009 M04/M06 A3017 790 88 -1300 100/05 RMK AO2 P0002
14926KSTC STC20060315204511003/15/06 20:45:31  5-MIN KSTC 160245Z 10006KT 1SM -SN BR VV008 M04/M06 A3017 800 88 -1300 100/06 RMK AO2 P0003
14926KSTC STC20060315205011203/15/06 20:50:31  5-MIN KSTC 160250Z 10004KT 3/4SM -SN BR VV007 M04/M06 A3017 800 88 -1300 100/04 RMK AO2 P0003
14926KSTC STC20060315205511003/15/06 20:55:31  5-MIN KSTC 160255Z 10005KT 1SM -SN BR VV007 M04/M06 A3017 800 88 -1300 090/05 RMK AO2 P0000
14926KSTC STC20060315210011003/15/06 21:00:31  5-MIN KSTC 160300Z 10005KT 1SM -SN BR VV006 M04/M06 A3017 800 88 -1300 090/05 RMK AO2 P0001
14926KSTC STC20060315210511203/15/06 21:05:31  5-MIN KSTC 160305Z 08006KT 3/4SM -SN BR VV005 M04/M06 A3017 800 88 -1300 080/06 RMK AO2 P0001
14926KSTC STC20060315211011203/15/06 21:10:31  5-MIN KSTC 160310Z 09005KT 3/4SM -SN BR VV005 M04/M06 A3017 800 88 -1300 090/05 RMK AO2 P0002
14926KSTC STC20060315211511203/15/06 21:15:31  5-MIN KSTC 160315Z 09005KT 3/4SM -SN BR VV005 M04/M06 A3017 800 88 -1300 080/05 RMK AO2 P0002
14926KSTC STC20060315212011203/15/06 21:20:31  5-MIN KSTC 160320Z 08005KT 3/4SM -SN BR VV005 M04/M06 A3017 800 88 -1300 080/05 RMK AO2 P0003
14926KSTC STC20060315212511203/15/06 21:25:31  5-MIN KSTC 160325Z 08005KT 3/4SM -SN BR VV005 M04/M06 A3017 800 88 -1300 080/05 RMK AO2 P0003
14926KSTC STC20060315213011003/15/06 21:30:31  5-MIN KSTC 160330Z 08005KT 1SM -SN BR VV005 M04/M06 A3017 800 88 -1300 080/05 RMK AO2 P0003
14926KSTC STC20060315213511003/15/06 21:35:31  5-MIN KSTC 160335Z 09005KT 1SM -SN BR VV006 M04/M06 A3017 800 88 -1300 090/05 RMK AO2 P0004
14926KSTC STC20060315214011203/15/06 21:40:31  5-MIN KSTC 160340Z 08004KT 3/4SM -SN BR VV006 M04/M06 A3017 800 88 -1300 080/04 RMK AO2 P0004
14926KSTC STC20060315214511203/15/06 21:45:31  5-MIN KSTC 160345Z 08004KT 3/4SM -SN BR VV006 M04/M06 A3017 800 88 -1300 080/04 RMK AO2 P0004
14926KSTC STC20060315215012903/15/06 21:50:31  5-MIN KSTC 160350Z 08005KT 3/4SM -SN BR VV006 M04/M06 A3017 800 88 -1300 080/05 RMK AO2 SLP242 P0005 T10441061
14926KSTC STC20060315215511203/15/06 21:55:31  5-MIN KSTC 160355Z 08005KT 3/4SM -SN BR VV007 M04/M06 A3017 800 88 -1300 080/05 RMK AO2 P0000
14926KSTC STC20060315220011003/15/06 22:00:31  5-MIN KSTC 160400Z 08004KT 1SM -SN BR VV007 M04/M06 A3017 800 88 -1300 080/04 RMK AO2 P0000
14926KSTC STC20060315220511003/15/06 22:05:31  5-MIN KSTC 160405Z VRB04KT 1SM -SN BR VV007 M04/M06 A3017 800 88 -1300 VRB/04 RMK AO2 P0001
14926KSTC STC20060315221011003/15/06 22:10:31  5-MIN KSTC 160410Z 08003KT 1SM -SN BR VV007 M04/M06 A3017 800 88 -1300 080/03 RMK AO2 P0001
14926KSTC STC20060315221511503/15/06 22:15:31  5-MIN KSTC 160415Z 08005KT 1 1/4SM -SN BR OVC007 M04/M06 A3017 800 88 -1300 080/05 RMK AO2 P0001
14926KSTC STC20060315222011503/15/06 22:20:31  5-MIN KSTC 160420Z 09005KT 1 1/2SM -SN BR OVC007 M04/M06 A3016 800 88 -1300 080/05 RMK AO2 P0001
14926KSTC STC20060315222511503/15/06 22:25:31  5-MIN KSTC 160425Z 08004KT 1 1/2SM -SN BR OVC007 M04/M06 A3016 800 88 -1300 080/04 RMK AO2 P0001
14926KSTC STC20060315223011503/15/06 22:30:31  5-MIN KSTC 160430Z 09005KT 1 1/4SM -SN BR OVC007 M04/M06 A3016 800 88 -1300 090/05 RMK AO2 P0002
14926KSTC STC20060315223511503/15/06 22:35:31  5-MIN KSTC 160435Z 08005KT 1 1/4SM -SN BR OVC009 M04/M06 A3016 800 88 -1300 080/05 RMK AO2 P0002
14926KSTC STC20060315224011503/15/06 22:40:31  5-MIN KSTC 160440Z 09005KT 1 1/4SM -SN BR OVC009 M04/M06 A3016 810 88 -1300 080/05 RMK AO2 P0002
14926KSTC STC20060315224511503/15/06 22:45:31  5-MIN KSTC 160445Z 08006KT 1 1/2SM -SN BR OVC009 M04/M06 A3016 810 88 -1300 080/06 RMK AO2 P0002
14926KSTC STC20060315225013203/15/06 22:50:31  5-MIN KSTC 160450Z 08005KT 1 1/2SM -SN BR OVC009 M04/M06 A3016 810 88 -1300 070/05 RMK AO2 SLP237 P0002 T10441061
14926KSTC STC20060315225512003/15/06 22:55:31  5-MIN KSTC 160455Z AUTO 07006KT 1 1/2SM -SN BR OVC009 M04/M06 A3015 810 88 -1300 070/06 RMK AO2 P0000
14926KSTC STC20060315230012003/15/06 23:00:31  5-MIN KSTC 160500Z AUTO 07005KT 1 3/4SM -SN BR OVC011 M04/M06 A3015 810 88 -1300 070/05 RMK AO2 P0001
14926KSTC STC20060315230512003/15/06 23:05:31  5-MIN KSTC 160505Z AUTO 08007KT 1 3/4SM -SN BR OVC011 M04/M06 A3015 810 88 -1300 080/07 RMK AO2 P0001
14926KSTC STC20060315231012003/15/06 23:10:31  5-MIN KSTC 160510Z AUTO 08005KT 1 3/4SM -SN BR OVC011 M04/M06 A3015 810 88 -1300 070/05 RMK AO2 P0001
14926KSTC STC20060315231512003/15/06 23:15:31  5-MIN KSTC 160515Z AUTO 08008KT 1 1/2SM -SN BR OVC011 M04/M06 A3015 810 88 -1300 080/08 RMK AO2 P0001
14926KSTC STC20060315232012003/15/06 23:20:31  5-MIN KSTC 160520Z AUTO 07006KT 1 1/2SM -SN BR OVC011 M04/M06 A3015 810 88 -1300 070/06 RMK AO2 P0001
14926KSTC STC20060315232512003/15/06 23:25:31  5-MIN KSTC 160525Z AUTO 06007KT 1 3/4SM -SN BR OVC011 M04/M06 A3015 820 88 -1300 060/07 RMK AO2 P0001
14926KSTC STC20060315233012003/15/06 23:30:31  5-MIN KSTC 160530Z AUTO 07006KT 1 3/4SM -SN BR OVC011 M04/M06 A3015 810 88 -1300 070/06 RMK AO2 P0001
14926KSTC STC20060315233512003/15/06 23:35:31  5-MIN KSTC 160535Z AUTO 07006KT 1 3/4SM -SN BR OVC011 M04/M06 A3015 810 88 -1300 060/06 RMK AO2 P0001
14926KSTC STC20060315234012003/15/06 23:40:31  5-MIN KSTC 160540Z AUTO 07006KT 1 3/4SM -SN BR OVC011 M04/M06 A3015 810 88 -1300 060/06 RMK AO2 P0001
14926KSTC STC20060315234512003/15/06 23:45:31  5-MIN KSTC 160545Z AUTO 08004KT 1 3/4SM -SN BR OVC011 M04/M06 A3015 810 88 -1300 070/04 RMK AO2 P0001
14926KSTC STC20060315235017103/15/06 23:50:31  5-MIN KSTC 160550Z AUTO 07005KT 1 3/4SM -SN BR OVC011 M04/M06 A3015 810 88 -1300 070/05 RMK AO2 SLP235 P0001 60015 T10441061 11028 21044 410281133 53009
14926KSTC STC20060315235512003/15/06 23:55:31  5-MIN KSTC 160555Z AUTO 07005KT 1 3/4SM -SN BR OVC011 M04/M06 A3015 810 88 -1300 060/05 RMK AO2 P0000
14926KSTC STC20060316000011603/16/06 00:00:32  5-MIN KSTC 160600Z AUTO 07005KT 2SM -SN BR OVC013 M04/M06 A3015 810 88 -1300 060/05 RMK AO2 P0000
14926KSTC STC20060316000512303/16/06 00:05:31  5-MIN KSTC 160605Z AUTO 07005KT 2SM -SN BR BKN013 OVC041 M04/M06 A3015 810 88 -1300 070/05 RMK AO2 P0001
14926KSTC STC20060316001011603/16/06 00:10:31  5-MIN KSTC 160610Z AUTO 06006KT 2SM -SN BR OVC013 M04/M06 A3015 810 88 -1300 060/06 RMK AO2 P0001
14926KSTC STC20060316001511603/16/06 00:15:31  5-MIN KSTC 160615Z AUTO 07005KT 2SM -SN BR OVC013 M04/M06 A3015 810 88 -1300 060/05 RMK AO2 P0001
14926KSTC STC20060316002011603/16/06 00:20:31  5-MIN KSTC 160620Z AUTO 06006KT 2SM -SN BR OVC013 M04/M06 A3015 810 88 -1300 060/06 RMK AO2 P0001
14926KSTC STC20060316002511603/16/06 00:25:31  5-MIN KSTC 160625Z AUTO 06006KT 2SM -SN BR OVC019 M04/M06 A3015 810 88 -1300 060/06 RMK AO2 P0001
14926KSTC STC20060316003012303/16/06 00:30:31  5-MIN KSTC 160630Z AUTO 05006KT 2SM -SN BR BKN021 OVC040 M04/M06 A3015 810 88 -1300 040/06 RMK AO2 P0001
14926KSTC STC20060316003512703/16/06 00:35:31  5-MIN KSTC 160635Z AUTO 05005KT 2 1/2SM -SN BR BKN021 OVC038 M04/M06 A3015 810 88 -1300 050/05 RMK AO2 P0001
14926KSTC STC20060316004012303/16/06 00:40:31  5-MIN KSTC 160640Z AUTO 05006KT 3SM -SN BR SCT023 OVC038 M04/M06 A3015 810 88 -1300 050/06 RMK AO2 P0001
14926KSTC STC20060316004512303/16/06 00:45:31  5-MIN KSTC 160645Z AUTO 05005KT 4SM -SN BR SCT028 OVC038 M04/M06 A3015 810 85 -1200 050/05 RMK AO2 P0001
14926KSTC STC20060316005014003/16/06 00:50:31  5-MIN KSTC 160650Z AUTO 05007KT 5SM -SN BR SCT032 OVC038 M04/M06 A3016 810 85 -1200 050/07 RMK AO2 SLP237 P0001 T10391061
14926KSTC STC20060316005511303/16/06 00:55:31  5-MIN KSTC 160655Z AUTO 06007KT 6SM BR FEW032 OVC040 M04/M06 A3015 810 85 -1200 050/07 RMK AO2
14926KSTC STC20060316010011703/16/06 01:00:31  5-MIN KSTC 160700Z AUTO 06007KT 7SM FEW032 BKN040 OVC047 M04/M06 A3015 810 85 -1200 060/07 RMK AO2
14926KSTC STC20060316010512903/16/06 01:05:31  5-MIN KSTC 160705Z AUTO 07007KT 6SM -SN BR FEW026 OVC040 M04/M06 A3015 810 85 -1200 060/07 RMK AO2 SNB05 P0000
14926KSTC STC20060316011012903/16/06 01:10:31  5-MIN KSTC 160710Z AUTO 06008KT 4SM -SN BR SCT022 OVC040 M04/M06 A3015 820 85 -1200 060/08 RMK AO2 SNB05 P0000
14926KSTC STC20060316011512903/16/06 01:15:31  5-MIN KSTC 160715Z AUTO 06007KT 3SM -SN BR BKN020 OVC040 M04/M06 A3015 810 85 -1200 050/07 RMK AO2 SNB05 P0000
14926KSTC STC20060316012013303/16/06 01:20:31  5-MIN KSTC 160720Z AUTO 06007KT 2 1/2SM -SN BR BKN018 OVC040 M04/M06 A3015 810 85 -1200 060/07 RMK AO2 SNB05 P0000
14926KSTC STC20060316012513303/16/06 01:25:31  5-MIN KSTC 160725Z AUTO 06007KT 2 1/2SM -SN BR BKN018 OVC040 M04/M06 A3015 810 85 -1200 060/07 RMK AO2 SNB05 P0000
14926KSTC STC20060316013012203/16/06 01:30:31  5-MIN KSTC 160730Z AUTO 07007KT 3SM -SN BR OVC018 M04/M06 A3015 820 85 -1200 060/07 RMK AO2 SNB05 P0000
14926KSTC STC20060316013512603/16/06 01:35:31  5-MIN KSTC 160735Z AUTO 06007KT 2 1/2SM -SN BR OVC018 M04/M06 A3015 820 85 -1200 060/07 RMK AO2 SNB05 P0000
14926KSTC STC20060316014012603/16/06 01:40:31  5-MIN KSTC 160740Z AUTO 08006KT 2 1/2SM -SN BR OVC018 M04/M06 A3015 820 85 -1200 070/06 RMK AO2 SNB05 P0000
14926KSTC STC20060316014512203/16/06 01:45:31  5-MIN KSTC 160745Z AUTO 08005KT 3SM -SN BR OVC018 M04/M06 A3015 820 85 -1200 070/05 RMK AO2 SNB05 P0000
14926KSTC STC20060316015013903/16/06 01:50:31  5-MIN KSTC 160750Z AUTO 09006KT 3SM -SN BR OVC018 M04/M06 A3015 820 85 -1200 090/06 RMK AO2 SNB05 SLP233 P0000 T10391061
14926KSTC STC20060316015511603/16/06 01:55:31  5-MIN KSTC 160755Z AUTO 09007KT 3SM -SN BR OVC020 M04/M06 A3015 820 85 -1200 080/07 RMK AO2 P0000
14926KSTC STC20060316020011603/16/06 02:00:31  5-MIN KSTC 160800Z AUTO 09005KT 3SM -SN BR OVC022 M04/M06 A3015 820 85 -1200 080/05 RMK AO2 P0000
14926KSTC STC20060316020511603/16/06 02:05:31  5-MIN KSTC 160805Z AUTO VRB04KT 3SM -SN BR OVC024 M04/M06 A3015 820 85 -1200 VRB/04 RMK AO2 P0000
14926KSTC STC20060316021011603/16/06 02:10:31  5-MIN KSTC 160810Z AUTO 07005KT 3SM -SN BR OVC024 M04/M06 A3014 820 85 -1200 070/05 RMK AO2 P0000
14926KSTC STC20060316021511603/16/06 02:15:31  5-MIN KSTC 160815Z AUTO 06004KT 3SM -SN BR OVC026 M04/M06 A3014 820 85 -1200 060/04 RMK AO2 P0000
14926KSTC STC20060316022011603/16/06 02:20:31  5-MIN KSTC 160820Z AUTO 07006KT 4SM -SN BR OVC028 M04/M06 A3014 820 85 -1200 070/06 RMK AO2 P0000
14926KSTC STC20060316022511603/16/06 02:25:31  5-MIN KSTC 160825Z AUTO 06005KT 4SM -SN BR OVC028 M04/M06 A3014 830 85 -1200 060/05 RMK AO2 P0000
14926KSTC STC20060316023011603/16/06 02:30:31  5-MIN KSTC 160830Z AUTO 07005KT 4SM -SN BR OVC030 M04/M06 A3013 830 85 -1200 070/05 RMK AO2 P0000
14926KSTC STC20060316023512303/16/06 02:35:31  5-MIN KSTC 160835Z AUTO 07005KT 5SM -SN BR BKN030 OVC046 M04/M06 A3013 830 85 -1200 060/05 RMK AO2 P0000
14926KSTC STC20060316024013203/16/06 02:40:31  5-MIN KSTC 160840Z AUTO 06004KT 6SM BR BKN030 BKN046 OVC055 M04/M06 A3013 830 85 -1200 060/04 RMK AO2 SNE40 P0000
14926KSTC STC20060316024512903/16/06 02:45:31  5-MIN KSTC 160845Z AUTO 06005KT 7SM SCT034 BKN046 OVC085 M04/M06 A3013 840 88 -1300 060/05 RMK AO2 SNE40 P0000
14926KSTC STC20060316025015803/16/06 02:50:31  5-MIN KSTC 160850Z AUTO 06005KT 8SM BKN042 BKN060 OVC090 M04/M06 A3012 840 88 -1300 060/05 RMK AO2 SNE40 SLP225 P0000 60001 T10441061 58006
14926KSTC STC20060316025511703/16/06 02:55:31  5-MIN KSTC 160855Z AUTO 05005KT 9SM FEW045 BKN050 OVC090 M04/M06 A3012 840 88 -1300 050/05 RMK AO2
14926KSTC STC20060316030011803/16/06 03:00:31  5-MIN KSTC 160900Z AUTO 05004KT 10SM FEW045 BKN055 OVC090 M04/M06 A3012 840 88 -1300 040/04 RMK AO2
14926KSTC STC20060316030511803/16/06 03:05:31  5-MIN KSTC 160905Z AUTO 05004KT 10SM SCT048 SCT060 OVC090 M04/M06 A3012 840 88 -1300 050/04 RMK AO2
14926KSTC STC20060316031011103/16/06 03:10:31  5-MIN KSTC 160910Z AUTO 05004KT 10SM SCT055 OVC090 M04/M06 A3012 840 88 -1300 050/04 RMK AO2
14926KSTC STC20060316031511103/16/06 03:15:31  5-MIN KSTC 160915Z AUTO 05004KT 10SM SCT065 OVC090 M04/M06 A3012 840 88 -1300 040/04 RMK AO2
14926KSTC STC20060316032011103/16/06 03:20:31  5-MIN KSTC 160920Z AUTO 05004KT 10SM SCT065 OVC090 M04/M07 A3012 840 84 -1300 040/04 RMK AO2
14926KSTC STC20060316032511103/16/06 03:25:31  5-MIN KSTC 160925Z AUTO 05004KT 10SM SCT065 OVC095 M04/M07 A3012 840 84 -1300 050/04 RMK AO2
14926KSTC STC20060316033011103/16/06 03:30:31  5-MIN KSTC 160930Z AUTO 06004KT 10SM FEW070 OVC095 M04/M07 A3012 840 84 -1300 060/04 RMK AO2
14926KSTC STC20060316033510403/16/06 03:35:31  5-MIN KSTC 160935Z AUTO 06003KT 10SM OVC095 M04/M07 A3012 840 84 -1300 060/03 RMK AO2
14926KSTC STC20060316034010403/16/06 03:40:31  5-MIN KSTC 160940Z AUTO 06004KT 10SM OVC090 M04/M07 A3011 850 84 -1300 060/04 RMK AO2
14926KSTC STC20060316034510403/16/06 03:45:31  5-MIN KSTC 160945Z AUTO 06004KT 10SM OVC095 M04/M07 A3011 850 84 -1300 050/04 RMK AO2
14926KSTC STC20060316035012803/16/06 03:50:31  5-MIN KSTC 160950Z AUTO 06004KT 10SM FEW055 OVC095 M04/M07 A3011 850 84 -1300 060/04 RMK AO2 SLP222 T10441067
14926KSTC STC20060316035511103/16/06 03:55:31  5-MIN KSTC 160955Z AUTO 05004KT 10SM SCT055 OVC095 M04/M07 A3011 850 84 -1300 050/04 RMK AO2
14926KSTC STC20060316040011103/16/06 04:00:31  5-MIN KSTC 161000Z AUTO 06003KT 10SM BKN055 OVC095 M04/M07 A3011 850 84 -1200 060/03 RMK AO2
14926KSTC STC20060316040511103/16/06 04:05:31  5-MIN KSTC 161005Z AUTO 05003KT 10SM BKN055 OVC095 M04/M07 A3011 850 84 -1300 050/03 RMK AO2
14926KSTC STC20060316041011103/16/06 04:10:31  5-MIN KSTC 161010Z AUTO 05004KT 10SM BKN050 OVC095 M04/M07 A3011 850 81 -1200 040/04 RMK AO2
14926KSTC STC20060316041511103/16/06 04:15:31  5-MIN KSTC 161015Z AUTO 05004KT 10SM BKN050 OVC095 M04/M07 A3011 850 81 -1200 040/04 RMK AO2
14926KSTC STC20060316042011103/16/06 04:20:31  5-MIN KSTC 161020Z AUTO 05004KT 10SM SCT034 OVC050 M04/M07 A3011 850 81 -1200 040/04 RMK AO2
14926KSTC STC20060316042511103/16/06 04:25:31  5-MIN KSTC 161025Z AUTO 04004KT 10SM SCT028 OVC050 M04/M07 A3011 850 81 -1200 040/04 RMK AO2
14926KSTC STC20060316043012603/16/06 04:30:31  5-MIN KSTC 161030Z AUTO 04006KT 6SM -SN BKN024 OVC050 M04/M07 A3011 850 81 -1200 040/06 RMK AO2 SNB28 P0000
14926KSTC STC20060316043512603/16/06 04:35:31  5-MIN KSTC 161035Z AUTO 05006KT 3SM -SN BKN022 OVC050 M04/M07 A3011 850 81 -1200 050/06 RMK AO2 SNB28 P0000
14926KSTC STC20060316044013003/16/06 04:40:31  5-MIN KSTC 161040Z AUTO 06007KT 2 1/2SM -SN BKN020 OVC055 M04/M07 A3011 850 81 -1200 050/07 RMK AO2 SNB28 P0000
14926KSTC STC20060316044512303/16/06 04:45:31  5-MIN KSTC 161045Z AUTO 05007KT 2 1/2SM -SN OVC018 M04/M07 A3012 850 81 -1200 050/07 RMK AO2 SNB28 P0000
14926KSTC STC20060316045013603/16/06 04:50:31  5-MIN KSTC 161050Z AUTO 05006KT 2SM -SN OVC016 M04/M07 A3012 850 81 -1200 050/06 RMK AO2 SNB28 SLP222 P0000 T10391067
14926KSTC STC20060316045512703/16/06 04:55:31  5-MIN KSTC 161055Z AUTO 06007KT 2SM -SN BKN016 BKN030 OVC044 M04/M07 A3012 840 81 -1200 060/07 RMK AO2 P0000
14926KSTC STC20060316050012703/16/06 05:00:31  5-MIN KSTC 161100Z AUTO 05008KT 2SM -SN BKN016 BKN030 OVC044 M04/M07 A3012 840 81 -1200 050/08 RMK AO2 P0000
14926KSTC STC20060316050513103/16/06 05:05:31  5-MIN KSTC 161105Z AUTO 06009KT 2 1/2SM -SN SCT014 BKN030 OVC044 M04/M07 A3012 840 81 -1200 050/09 RMK AO2 P0000
14926KSTC STC20060316051012703/16/06 05:10:31  5-MIN KSTC 161110Z AUTO 06008KT 3SM -SN FEW014 SCT030 OVC044 M04/M07 A3012 840 81 -1200 050/08 RMK AO2 P0000
14926KSTC STC20060316051512003/16/06 05:15:31  5-MIN KSTC 161115Z AUTO 06009KT 3SM -SN FEW014 OVC044 M04/M07 A3013 840 81 -1200 060/09 RMK AO2 P0000
14926KSTC STC20060316052011303/16/06 05:20:31  5-MIN KSTC 161120Z AUTO 06007KT 4SM -SN OVC044 M04/M07 A3013 830 81 -1200 050/07 RMK AO2 P0000
14926KSTC STC20060316052511303/16/06 05:25:31  5-MIN KSTC 161125Z AUTO 06010KT 5SM -SN OVC044 M04/M07 A3013 830 81 -1200 060/10 RMK AO2 P0000
14926KSTC STC20060316053011803/16/06 05:30:31  5-MIN KSTC 161130Z AUTO 06007KT 6SM HZ OVC044 M04/M07 A3013 830 81 -1200 060/07 RMK AO2 SNE27 P0000
14926KSTC STC20060316053511503/16/06 05:35:31  5-MIN KSTC 161135Z AUTO 07007KT 9SM OVC044 M03/M07 A3013 830 78 -1100 060/07 RMK AO2 SNE27 P0000
14926KSTC STC20060316054011603/16/06 05:40:31  5-MIN KSTC 161140Z AUTO 06007KT 10SM OVC046 M03/M07 A3013 830 78 -1100 060/07 RMK AO2 SNE27 P0000
14926KSTC STC20060316054511603/16/06 05:45:31  5-MIN KSTC 161145Z AUTO 05007KT 10SM OVC046 M03/M07 A3013 830 78 -1100 050/07 RMK AO2 SNE27 P0000
14926KSTC STC20060316055016303/16/06 05:50:31  5-MIN KSTC 161150Z AUTO 06008KT 10SM OVC046 M03/M07 A3013 830 74 -1100 060/08 RMK AO2 SNE27 SLP226 P0000 60001 70016 T10331072 11033 21044 58010
14926KSTC STC20060316055510403/16/06 05:55:31  5-MIN KSTC 161155Z AUTO 06006KT 10SM OVC046 M03/M07 A3013 830 74 -1100 050/06 RMK AO2
14926KSTC STC20060316060010403/16/06 06:00:31  5-MIN KSTC 161200Z AUTO 05006KT 10SM OVC046 M03/M07 A3013 830 74 -1100 050/06 RMK AO2
14926KSTC STC20060316060510403/16/06 06:05:31  5-MIN KSTC 161205Z AUTO 04006KT 10SM OVC046 M03/M07 A3013 830 74 -1100 040/06 RMK AO2
14926KSTC STC20060316061010403/16/06 06:10:31  5-MIN KSTC 161210Z AUTO 04006KT 10SM OVC046 M03/M07 A3013 830 74 -1100 030/06 RMK AO2
14926KSTC STC20060316061510403/16/06 06:15:31  5-MIN KSTC 161215Z AUTO 05006KT 10SM OVC046 M03/M07 A3013 830 74 -1100 050/06 RMK AO2
14926KSTC STC20060316062010403/16/06 06:20:31  5-MIN KSTC 161220Z AUTO 04005KT 10SM OVC046 M03/M07 A3014 830 74 -1100 040/05 RMK AO2
14926KSTC STC20060316062510403/16/06 06:25:31  5-MIN KSTC 161225Z AUTO 03005KT 10SM OVC046 M03/M07 A3014 830 74 -1100 030/05 RMK AO2
14926KSTC STC20060316063010403/16/06 06:30:31  5-MIN KSTC 161230Z AUTO 03005KT 10SM OVC048 M03/M07 A3014 830 74 -1100 030/05 RMK AO2
14926KSTC STC20060316063510403/16/06 06:35:31  5-MIN KSTC 161235Z AUTO 03005KT 10SM OVC048 M03/M07 A3014 830 74 -1100 030/05 RMK AO2
14926KSTC STC20060316064011103/16/06 06:40:31  5-MIN KSTC 161240Z AUTO 04007KT 10SM BKN048 OVC060 M03/M07 A3014 830 74 -1100 030/07 RMK AO2
14926KSTC STC20060316064511103/16/06 06:45:31  5-MIN KSTC 161245Z AUTO 04007KT 10SM BKN048 OVC065 M03/M08 A3014 820 71 -1100 040/07 RMK AO2
14926KSTC STC20060316065012803/16/06 06:50:31  5-MIN KSTC 161250Z AUTO 05008KT 10SM BKN048 OVC070 M03/M08 A3014 820 71 -1100 040/08 RMK AO2 SLP232 T10331078
14926KSTC STC20060316065510603/16/06 06:55:31  5-MIN KSTC 161255Z 04007KT 10SM SCT050 OVC070 M03/M08 A3015 820 68 -1100 040/07 RMK AO2
14926KSTC STC20060316070010603/16/06 07:00:31  5-MIN KSTC 161300Z 04007KT 10SM SCT050 OVC070 M03/M08 A3015 820 68 -1100 040/07 RMK AO2
14926KSTC STC20060316070510603/16/06 07:05:31  5-MIN KSTC 161305Z 04008KT 10SM BKN050 OVC070 M03/M09 A3015 820 65 -1100 040/08 RMK AO2
14926KSTC STC20060316071010603/16/06 07:10:31  5-MIN KSTC 161310Z 04008KT 10SM BKN050 OVC070 M03/M09 A3015 820 60 -1100 040/08 RMK AO2
14926KSTC STC20060316071510603/16/06 07:15:31  5-MIN KSTC 161315Z 04008KT 10SM BKN050 OVC070 M03/M09 A3015 820 60 -1100 030/08 RMK AO2
14926KSTC STC20060316072010603/16/06 07:20:31  5-MIN KSTC 161320Z 04008KT 10SM BKN050 OVC070 M03/M10 A3015 820 58 -1100 040/08 RMK AO2
14926KSTC STC20060316072510503/16/06 07:25:31  5-MIN KSTC 161325Z 04008G15KT 10SM OVC050 M03/M11 A3015 810 55 -1100 040/08G15 RMK AO2
14926KSTC STC20060316073010503/16/06 07:30:31  5-MIN KSTC 161330Z 04009G15KT 10SM OVC050 M03/M11 A3015 810 53 -1100 040/09G15 RMK AO2
14926KSTC STC20060316073509903/16/06 07:35:31  5-MIN KSTC 161335Z 04009KT 10SM OVC050 M03/M12 A3015 810 50 -1100 040/09 RMK AO2
14926KSTC STC20060316074009903/16/06 07:40:31  5-MIN KSTC 161340Z 05010KT 10SM OVC050 M03/M12 A3016 810 50 -1100 040/10 RMK AO2
14926KSTC STC20060316074509903/16/06 07:45:31  5-MIN KSTC 161345Z 04009KT 10SM OVC050 M03/M12 A3016 810 48 -1100 040/09 RMK AO2
14926KSTC STC20060316075011603/16/06 07:50:31  5-MIN KSTC 161350Z 04012KT 10SM OVC055 M03/M12 A3016 800 48 -1100 040/12 RMK AO2 SLP238 T10281122
14926KSTC STC20060316075509903/16/06 07:55:31  5-MIN KSTC 161355Z 04008KT 10SM OVC055 M03/M12 A3017 800 48 -1100 040/08 RMK AO2
14926KSTC STC20060316080009903/16/06 08:00:31  5-MIN KSTC 161400Z 04009KT 10SM OVC055 M03/M13 A3017 800 46 -1100 040/09 RMK AO2
14926KSTC STC20060316080509903/16/06 08:05:31  5-MIN KSTC 161405Z 05012KT 10SM OVC055 M03/M13 A3017 790 46 -1100 050/12 RMK AO2
14926KSTC STC20060316081009903/16/06 08:10:31  5-MIN KSTC 161410Z 04012KT 10SM OVC055 M03/M13 A3017 790 44 -1100 040/12 RMK AO2
14926KSTC STC20060316081509903/16/06 08:15:31  5-MIN KSTC 161415Z 04010KT 10SM OVC055 M03/M13 A3018 790 44 -1100 040/10 RMK AO2
14926KSTC STC20060316082009903/16/06 08:20:31  5-MIN KSTC 161420Z 04010KT 10SM OVC055 M03/M13 A3018 790 44 -1100 040/10 RMK AO2
14926KSTC STC20060316082509903/16/06 08:25:31  5-MIN KSTC 161425Z 04010KT 10SM OVC055 M03/M13 A3018 790 46 -1100 040/10 RMK AO2
14926KSTC STC20060316083010503/16/06 08:30:31  5-MIN KSTC 161430Z 05010G18KT 10SM OVC055 M03/M13 A3018 790 46 -1100 050/10G18 RMK AO2
14926KSTC STC20060316083510503/16/06 08:35:31  5-MIN KSTC 161435Z 04010G18KT 10SM BKN055 M03/M13 A3018 790 44 -1100 040/10G18 RMK AO2
14926KSTC STC20060316084009903/16/06 08:40:31  5-MIN KSTC 161440Z 05009KT 10SM BKN055 M03/M13 A3018 790 44 -1100 040/09 RMK AO2
14926KSTC STC20060316084509903/16/06 08:45:31  5-MIN KSTC 161445Z 05009KT 10SM BKN055 M03/M13 A3018 790 44 -1100 040/09 RMK AO2
14926KSTC STC20060316085012203/16/06 08:50:31  5-MIN KSTC 161450Z 04012KT 10SM BKN055 M02/M13 A3018 790 44 -1000 040/12 RMK AO2 SLP244 T10221128 53002
14926KSTC STC20060316085510503/16/06 08:55:31  5-MIN KSTC 161455Z 04009G17KT 10SM BKN055 M02/M13 A3018 790 44 -1000 040/09G17 RMK AO2
14926KSTC STC20060316090009903/16/06 09:00:31  5-MIN KSTC 161500Z 05013KT 10SM BKN055 M02/M13 A3018 790 44 -1000 050/13 RMK AO2
14926KSTC STC20060316090510503/16/06 09:05:31  5-MIN KSTC 161505Z 04012G17KT 10SM BKN055 M02/M13 A3018 780 44 -1000 040/12G17 RMK AO2
14926KSTC STC20060316091010503/16/06 09:10:31  5-MIN KSTC 161510Z 04011G17KT 10SM BKN055 M02/M12 A3018 780 46 -1000 040/11G17 RMK AO2
14926KSTC STC20060316091509903/16/06 09:15:31  5-MIN KSTC 161515Z 04009KT 10SM BKN055 M02/M12 A3019 780 46 -1100 040/09 RMK AO2
14926KSTC STC20060316092010503/16/06 09:20:31  5-MIN KSTC 161520Z 04012G16KT 10SM BKN060 M02/M12 A3019 780 46 -1100 040/12G16 RMK AO2
14926KSTC STC20060316092511203/16/06 09:25:31  5-MIN KSTC 161525Z 04014G18KT 10SM SCT060 SCT080 M02/M12 A3019 780 46 -1100 040/14G18 RMK AO2
14926KSTC STC20060316093010603/16/06 09:30:31  5-MIN KSTC 161530Z 05014KT 10SM FEW060 SCT075 M02/M12 A3019 780 44 -1000 050/14 RMK AO2
14926KSTC STC20060316093509903/16/06 09:35:31  5-MIN KSTC 161535Z 05010KT 10SM SCT070 M02/M12 A3019 780 46 -1000 050/10 RMK AO2
14926KSTC STC20060316094009903/16/06 09:40:31  5-MIN KSTC 161540Z 05010KT 10SM SCT070 M02/M12 A3019 780 46 -1000 050/10 RMK AO2
14926KSTC STC20060316094509903/16/06 09:45:31  5-MIN KSTC 161545Z 06011KT 10SM FEW070 M02/M11 A3020 770 49 -1000 060/11 RMK AO2
14926KSTC STC20060316095011603/16/06 09:50:31  5-MIN KSTC 161550Z 06010KT 10SM FEW075 M02/M12 A3020 770 46 -1000 050/10 RMK AO2 SLP249 T10171117
14926KSTC STC20060316095509803/16/06 09:55:31  5-MIN KSTC 161555Z 06012KT 10SM FEW075 M01/M11 A3020 770 47 -900 060/12 RMK AO2
14926KSTC STC20060316100009803/16/06 10:00:31  5-MIN KSTC 161600Z 04011KT 10SM FEW075 M01/M11 A3020 770 47 -900 040/11 RMK AO2
14926KSTC STC20060316100509503/16/06 10:05:31  5-MIN KSTC 161605Z 04012KT 10SM CLR M01/M11 A3020 770 47 -900 040/12 RMK AO2
14926KSTC STC20060316101010103/16/06 10:10:31  5-MIN KSTC 161610Z 06013G20KT 10SM CLR M01/M11 A3020 770 47 -900 050/13G20 RMK AO2
14926KSTC STC20060316101510103/16/06 10:15:31  5-MIN KSTC 161615Z 05010G20KT 10SM CLR M01/M11 A3020 770 47 -900 050/10G20 RMK AO2
14926KSTC STC20060316102010103/16/06 10:20:31  5-MIN KSTC 161620Z 03014G17KT 10SM CLR M01/M11 A3020 770 49 -900 030/14G17 RMK AO2
14926KSTC STC20060316102510103/16/06 10:25:31  5-MIN KSTC 161625Z 05012G18KT 10SM CLR M01/M11 A3020 770 47 -900 040/12G18 RMK AO2
14926KSTC STC20060316103009503/16/06 10:30:31  5-MIN KSTC 161630Z 05011KT 10SM CLR M01/M11 A3020 770 49 -900 050/11 RMK AO2
14926KSTC STC20060316103510103/16/06 10:35:31  5-MIN KSTC 161635Z 05011G18KT 10SM CLR M01/M11 A3020 770 49 -900 050/11G18 RMK AO2
14926KSTC STC20060316104010403/16/06 10:40:31  5-MIN KSTC 161640Z 04014G18KT 10SM FEW095 M01/M11 A3020 770 49 -900 040/14G18 RMK AO2
14926KSTC STC20060316104509803/16/06 10:45:31  5-MIN KSTC 161645Z 05010KT 10SM FEW095 M01/M10 A3020 760 49 -900 040/10 RMK AO2
14926KSTC STC20060316105011803/16/06 10:50:31  5-MIN KSTC 161650Z 04014G18KT 10SM CLR M01/M11 A3020 760 47 -900 040/14G18 RMK AO2 SLP252 T10061106
14926KSTC STC20060316105510103/16/06 10:55:31  5-MIN KSTC 161655Z 04012G18KT 10SM CLR M01/M10 A3021 760 49 -900 040/12G18 RMK AO2
14926KSTC STC20060316110010103/16/06 11:00:31  5-MIN KSTC 161700Z 05011G17KT 10SM CLR M01/M10 A3021 760 49 -900 050/11G17 RMK AO2
14926KSTC STC20060316110510003/16/06 11:05:31  5-MIN KSTC 161705Z 04014G18KT 10SM CLR 00/M10 A3021 760 47 -800 040/14G18 RMK AO2
14926KSTC STC20060316111010003/16/06 11:10:31  5-MIN KSTC 161710Z 05013G22KT 10SM CLR 00/M11 A3021 760 45 -800 050/13G22 RMK AO2
14926KSTC STC20060316111510003/16/06 11:15:31  5-MIN KSTC 161715Z 05013G22KT 10SM CLR 00/M11 A3021 760 45 -800 050/13G22 RMK AO2
14926KSTC STC20060316112009403/16/06 11:20:31  5-MIN KSTC 161720Z 06013KT 10SM CLR 00/M10 A3022 750 47 -800 060/13 RMK AO2
14926KSTC STC20060316112510303/16/06 11:25:31  5-MIN KSTC 161725Z 05011G17KT 10SM FEW090 00/M11 A3022 750 45 -800 040/11G17 RMK AO2
14926KSTC STC20060316113010303/16/06 11:30:31  5-MIN KSTC 161730Z 05010G18KT 10SM FEW090 00/M11 A3022 750 45 -800 040/10G18 RMK AO2
14926KSTC STC20060316113510303/16/06 11:35:31  5-MIN KSTC 161735Z 06014G18KT 10SM FEW090 01/M11 A3022 750 43 -700 060/14G18 RMK AO2
14926KSTC STC20060316114010303/16/06 11:40:31  5-MIN KSTC 161740Z 05009G18KT 10SM FEW090 01/M11 A3022 750 43 -700 050/09G18 RMK AO2
14926KSTC STC20060316114509703/16/06 11:45:31  5-MIN KSTC 161745Z 06011KT 10SM FEW090 01/M11 A3022 750 43 -700 050/11 RMK AO2
14926KSTC STC20060316115013203/16/06 11:50:31  5-MIN KSTC 161750Z 07012KT 10SM FEW090 01/M10 A3022 750 45 -700 070/12 RMK AO2 SLP256 T00061100 10006 21033 51017
14926KSTC STC20060316115511303/16/06 11:55:31  5-MIN KSTC 161755Z 04009KT 350V060 10SM FEW095 01/M10 A3022 750 45 -700 030/09 350V060 RMK AO2
14926KSTC STC20060316120009403/16/06 12:00:31  5-MIN KSTC 161800Z 04012KT 10SM CLR 01/M11 A3022 750 43 -700 030/12 RMK AO2
14926KSTC STC20060316121509403/16/06 12:15:31  5-MIN KSTC 161815Z 04010KT 10SM CLR 01/M10 A3023 740 45 -700 040/10 RMK AO2
14926KSTC STC20060316122009403/16/06 12:20:31  5-MIN KSTC 161820Z 04013KT 10SM CLR 01/M10 A3023 740 45 -700 040/13 RMK AO2
14926KSTC STC20060316122509403/16/06 12:25:31  5-MIN KSTC 161825Z 04012KT 10SM CLR 01/M11 A3023 740 43 -700 040/12 RMK AO2
14926KSTC STC20060316123011003/16/06 12:30:31  5-MIN KSTC 161830Z 04009KT 010V070 10SM CLR 01/M11 A3023 740 43 -700 040/09 010V070 RMK AO2
14926KSTC STC20060316123509403/16/06 12:35:31  5-MIN KSTC 161835Z 04010KT 10SM CLR 01/M11 A3023 740 43 -700 030/10 RMK AO2
14926KSTC STC20060316124009403/16/06 12:40:31  5-MIN KSTC 161840Z 04010KT 10SM CLR 01/M11 A3023 740 41 -700 040/10 RMK AO2
14926KSTC STC20060316124509403/16/06 12:45:31  5-MIN KSTC 161845Z 04012KT 10SM CLR 01/M11 A3023 750 40 -700 040/12 RMK AO2
14926KSTC STC20060316125011103/16/06 12:50:31  5-MIN KSTC 161850Z 06008KT 10SM CLR 01/M11 A3023 740 41 -700 050/08 RMK AO2 SLP258 T00111106
14926KSTC STC20060316125510003/16/06 12:55:31  5-MIN KSTC 161855Z 05012G16KT 10SM CLR 01/M11 A3023 750 41 -700 040/12G16 RMK AO2
14926KSTC STC20060316130010003/16/06 13:00:31  5-MIN KSTC 161900Z 06010G16KT 10SM CLR 01/M11 A3022 750 41 -700 060/10G16 RMK AO2
14926KSTC STC20060316130509403/16/06 13:05:31  5-MIN KSTC 161905Z 04011KT 10SM CLR 01/M11 A3022 750 41 -700 040/11 RMK AO2
14926KSTC STC20060316131009403/16/06 13:10:31  5-MIN KSTC 161910Z 05008KT 10SM CLR 01/M10 A3023 750 43 -700 040/08 RMK AO2
14926KSTC STC20060316131509403/16/06 13:15:31  5-MIN KSTC 161915Z 05011KT 10SM CLR 01/M10 A3023 740 43 -700 050/11 RMK AO2
14926KSTC STC20060316132009403/16/06 13:20:31  5-MIN KSTC 161920Z 03008KT 10SM CLR 01/M10 A3023 740 43 -700 030/08 RMK AO2
14926KSTC STC20060316132509403/16/06 13:25:31  5-MIN KSTC 161925Z 06010KT 10SM CLR 01/M10 A3023 740 43 -700 050/10 RMK AO2
14926KSTC STC20060316133009403/16/06 13:30:31  5-MIN KSTC 161930Z 04010KT 10SM CLR 01/M10 A3023 740 43 -700 030/10 RMK AO2
14926KSTC STC20060316133509403/16/06 13:35:31  5-MIN KSTC 161935Z 02010KT 10SM CLR 01/M09 A3023 740 45 -700 020/10 RMK AO2
14926KSTC STC20060316134009403/16/06 13:40:31  5-MIN KSTC 161940Z 04011KT 10SM CLR 02/M10 A3023 740 42 -600 040/11 RMK AO2
14926KSTC STC20060316134509403/16/06 13:45:31  5-MIN KSTC 161945Z 06009KT 10SM CLR 01/M09 A3022 750 45 -700 050/09 RMK AO2
14926KSTC STC20060316135011103/16/06 13:50:31  5-MIN KSTC 161950Z 06008KT 10SM CLR 02/M09 A3023 740 45 -600 050/08 RMK AO2 SLP258 T00171089
14926KSTC STC20060316135509403/16/06 13:55:31  5-MIN KSTC 161955Z 04007KT 10SM CLR 02/M08 A3023 740 47 -600 030/07 RMK AO2
14926KSTC STC20060316140009403/16/06 14:00:31  5-MIN KSTC 162000Z 06010KT 10SM CLR 02/M09 A3023 740 45 -600 050/10 RMK AO2
14926KSTC STC20060316140510003/16/06 14:05:31  5-MIN KSTC 162005Z 03011G16KT 10SM CLR 02/M09 A3023 740 45 -600 030/11G16 RMK AO2
14926KSTC STC20060316141009403/16/06 14:10:31  5-MIN KSTC 162010Z 04010KT 10SM CLR 02/M09 A3023 740 45 -600 040/10 RMK AO2
14926KSTC STC20060316141509403/16/06 14:15:31  5-MIN KSTC 162015Z 05011KT 10SM CLR 02/M09 A3023 740 42 -500 040/11 RMK AO2
14926KSTC STC20060316142009403/16/06 14:20:31  5-MIN KSTC 162020Z 04012KT 10SM CLR 02/M09 A3023 740 42 -500 040/12 RMK AO2
14926KSTC STC20060316142509403/16/06 14:25:31  5-MIN KSTC 162025Z 04011KT 10SM CLR 02/M09 A3023 740 43 -600 040/11 RMK AO2
14926KSTC STC20060316143009403/16/06 14:30:31  5-MIN KSTC 162030Z 04010KT 10SM CLR 02/M09 A3023 740 45 -600 040/10 RMK AO2
14926KSTC STC20060316143509403/16/06 14:35:31  5-MIN KSTC 162035Z 02009KT 10SM CLR 02/M09 A3023 740 44 -500 010/09 RMK AO2
14926KSTC STC20060316144009403/16/06 14:40:31  5-MIN KSTC 162040Z 04009KT 10SM CLR 02/M09 A3024 740 44 -500 040/09 RMK AO2
14926KSTC STC20060316144509403/16/06 14:45:31  5-MIN KSTC 162045Z 03010KT 10SM CLR 02/M09 A3024 730 42 -600 020/10 RMK AO2
14926KSTC STC20060316145011703/16/06 14:50:31  5-MIN KSTC 162050Z 04011KT 10SM CLR 02/M09 A3024 730 44 -600 040/11 RMK AO2 SLP262 T00221089 53013
14926KSTC STC20060316145509403/16/06 14:55:31  5-MIN KSTC 162055Z 04009KT 10SM CLR 02/M09 A3024 730 42 -600 030/09 RMK AO2
14926KSTC STC20060316150009403/16/06 15:00:31  5-MIN KSTC 162100Z 04008KT 10SM CLR 03/M09 A3024 730 42 -500 040/08 RMK AO2
14926KSTC STC20060316150509403/16/06 15:05:31  5-MIN KSTC 162105Z 06009KT 10SM CLR 02/M09 A3024 730 44 -600 060/09 RMK AO2
14926KSTC STC20060316151009403/16/06 15:10:31  5-MIN KSTC 162110Z 06011KT 10SM CLR 02/M09 A3024 730 44 -600 050/11 RMK AO2
14926KSTC STC20060316151509403/16/06 15:15:31  5-MIN KSTC 162115Z 05007KT 10SM CLR 02/M09 A3024 730 44 -600 040/07 RMK AO2
14926KSTC STC20060316152009403/16/06 15:20:31  5-MIN KSTC 162120Z 06007KT 10SM CLR 02/M09 A3025 730 44 -600 060/07 RMK AO2
14926KSTC STC20060316152509403/16/06 15:25:31  5-MIN KSTC 162125Z 03010KT 10SM CLR 02/M09 A3025 730 44 -600 030/10 RMK AO2
14926KSTC STC20060316153009403/16/06 15:30:31  5-MIN KSTC 162130Z 03008KT 10SM CLR 02/M09 A3025 720 44 -600 030/08 RMK AO2
14926KSTC STC20060316153509403/16/06 15:35:31  5-MIN KSTC 162135Z 02007KT 10SM CLR 02/M09 A3025 720 44 -600 020/07 RMK AO2
14926KSTC STC20060316154009403/16/06 15:40:31  5-MIN KSTC 162140Z 01008KT 10SM CLR 02/M09 A3025 720 44 -600 010/08 RMK AO2
14926KSTC STC20060316154509403/16/06 15:45:31  5-MIN KSTC 162145Z 36008KT 10SM CLR 03/M08 A3025 720 44 -500 360/08 RMK AO2
14926KSTC STC20060316155011103/16/06 15:50:31  5-MIN KSTC 162150Z 01007KT 10SM CLR 02/M08 A3025 720 45 -600 010/07 RMK AO2 SLP267 T00221083
14926KSTC STC20060316155509903/16/06 15:55:31  5-MIN KSTC 162155Z AUTO 01010KT 10SM CLR 02/M08 A3025 720 45 -600 010/10 RMK AO2
14926KSTC STC20060316160010503/16/06 16:00:31  5-MIN KSTC 162200Z AUTO 02007G14KT 10SM CLR 02/M09 A3026 720 44 -600 020/07G14 RMK AO2
14926KSTC STC20060316160509903/16/06 16:05:31  5-MIN KSTC 162205Z AUTO 02006KT 10SM CLR 02/M09 A3026 720 44 -600 020/06 RMK AO2
14926KSTC STC20060316161009903/16/06 16:10:31  5-MIN KSTC 162210Z AUTO 01008KT 10SM CLR 02/M08 A3026 710 45 -600 010/08 RMK AO2
14926KSTC STC20060316161509903/16/06 16:15:31  5-MIN KSTC 162215Z AUTO 01008KT 10SM CLR 02/M09 A3026 710 44 -600 010/08 RMK AO2
14926KSTC STC20060316162009903/16/06 16:20:31  5-MIN KSTC 162220Z AUTO 03008KT 10SM CLR 02/M09 A3027 710 44 -600 030/08 RMK AO2
14926KSTC STC20060316162509903/16/06 16:25:31  5-MIN KSTC 162225Z AUTO 03008KT 10SM CLR 02/M09 A3027 710 44 -600 020/08 RMK AO2
14926KSTC STC20060316163009903/16/06 16:30:31  5-MIN KSTC 162230Z AUTO 03008KT 10SM CLR 02/M09 A3027 710 44 -600 020/08 RMK AO2
14926KSTC STC20060316163509903/16/06 16:35:31  5-MIN KSTC 162235Z AUTO 01008KT 10SM CLR 02/M09 A3027 700 44 -600 010/08 RMK AO2
14926KSTC STC20060316164009903/16/06 16:40:31  5-MIN KSTC 162240Z AUTO 01008KT 10SM CLR 02/M08 A3027 700 45 -600 010/08 RMK AO2
14926KSTC STC20060316164509903/16/06 16:45:31  5-MIN KSTC 162245Z AUTO 03010KT 10SM CLR 02/M09 A3028 700 44 -600 020/10 RMK AO2
14926KSTC STC20060316165011603/16/06 16:50:31  5-MIN KSTC 162250Z AUTO 01007KT 10SM CLR 02/M09 A3028 700 44 -600 010/07 RMK AO2 SLP274 T00221089
14926KSTC STC20060316165509903/16/06 16:55:31  5-MIN KSTC 162255Z AUTO 01007KT 10SM CLR 02/M08 A3028 690 47 -700 360/07 RMK AO2
14926KSTC STC20060316170009903/16/06 17:00:31  5-MIN KSTC 162300Z AUTO 36006KT 10SM CLR 02/M08 A3028 690 47 -700 360/06 RMK AO2
14926KSTC STC20060316170509903/16/06 17:05:31  5-MIN KSTC 162305Z AUTO 36009KT 10SM CLR 02/M08 A3029 690 49 -700 360/09 RMK AO2
14926KSTC STC20060316171009903/16/06 17:10:31  5-MIN KSTC 162310Z AUTO 36008KT 10SM CLR 02/M08 A3029 690 49 -700 360/08 RMK AO2
14926KSTC STC20060316171509903/16/06 17:15:31  5-MIN KSTC 162315Z AUTO 36007KT 10SM CLR 01/M08 A3029 690 51 -800 360/07 RMK AO2
14926KSTC STC20060316172009903/16/06 17:20:31  5-MIN KSTC 162320Z AUTO 36007KT 10SM CLR 01/M08 A3029 680 51 -800 360/07 RMK AO2
14926KSTC STC20060316172509903/16/06 17:25:31  5-MIN KSTC 162325Z AUTO 01008KT 10SM CLR 01/M08 A3030 680 49 -800 360/08 RMK AO2
14926KSTC STC20060316173009903/16/06 17:30:31  5-MIN KSTC 162330Z AUTO 36007KT 10SM CLR 01/M08 A3030 680 51 -800 360/07 RMK AO2
14926KSTC STC20060316173509903/16/06 17:35:31  5-MIN KSTC 162335Z AUTO 36007KT 10SM CLR 01/M08 A3030 680 49 -800 360/07 RMK AO2
14926KSTC STC20060316174009903/16/06 17:40:31  5-MIN KSTC 162340Z AUTO 36008KT 10SM CLR 01/M08 A3030 680 51 -800 360/08 RMK AO2
14926KSTC STC20060316174509903/16/06 17:45:31  5-MIN KSTC 162345Z AUTO 01007KT 10SM CLR 01/M08 A3030 670 51 -800 360/07 RMK AO2
14926KSTC STC20060316175013403/16/06 17:50:31  5-MIN KSTC 162350Z AUTO 01006KT 10SM CLR 01/M08 A3030 670 51 -800 010/06 RMK AO2 SLP285 T00061083 10028 20006 53005
14926KSTC STC20060316175509903/16/06 17:55:31  5-MIN KSTC 162355Z AUTO 01006KT 10SM CLR 01/M08 A3031 670 51 -800 360/06 RMK AO2
14926KSTC STC20060316180009903/16/06 18:00:31  5-MIN KSTC 170000Z AUTO 01006KT 10SM CLR 00/M08 A3031 670 53 -900 360/06 RMK AO2
14926KSTC STC20060316180509903/16/06 18:05:31  5-MIN KSTC 170005Z AUTO 01005KT 10SM CLR 00/M08 A3031 670 53 -900 360/05 RMK AO2
14926KSTC STC20060316181009903/16/06 18:10:31  5-MIN KSTC 170010Z AUTO 01005KT 10SM CLR 00/M08 A3031 670 53 -900 360/05 RMK AO2
14926KSTC STC20060316181509903/16/06 18:15:31  5-MIN KSTC 170015Z AUTO 36005KT 10SM CLR 00/M08 A3031 660 53 -900 360/05 RMK AO2
14926KSTC STC20060316182009903/16/06 18:20:31  5-MIN KSTC 170020Z AUTO 01004KT 10SM CLR 00/M08 A3031 660 53 -900 360/04 RMK AO2
14926KSTC STC20060316182510103/16/06 18:25:31  5-MIN KSTC 170025Z AUTO 36005KT 10SM CLR M01/M08 A3032 660 60 -1100 360/05 RMK AO2
14926KSTC STC20060316183010103/16/06 18:30:31  5-MIN KSTC 170030Z AUTO 01005KT 10SM CLR M01/M08 A3032 660 60 -1100 360/05 RMK AO2
14926KSTC STC20060316183510103/16/06 18:35:31  5-MIN KSTC 170035Z AUTO 01005KT 10SM CLR M01/M08 A3032 660 56 -1000 010/05 RMK AO2
14926KSTC STC20060316184010103/16/06 18:40:31  5-MIN KSTC 170040Z AUTO 02005KT 10SM CLR M01/M08 A3032 660 56 -1000 010/05 RMK AO2
14926KSTC STC20060316184510103/16/06 18:45:31  5-MIN KSTC 170045Z AUTO 03003KT 10SM CLR M01/M08 A3032 660 56 -1000 030/03 RMK AO2
14926KSTC STC20060316185011803/16/06 18:50:31  5-MIN KSTC 170050Z AUTO 05004KT 10SM CLR M01/M08 A3033 650 56 -1000 050/04 RMK AO2 SLP292 T10061083
14926KSTC STC20060316185510103/16/06 18:55:31  5-MIN KSTC 170055Z AUTO 00000KT 10SM CLR M01/M08 A3033 650 56 -1000 000/00 RMK AO2
14926KSTC STC20060316190010103/16/06 19:00:31  5-MIN KSTC 170100Z AUTO 00000KT 10SM CLR M01/M08 A3033 650 56 -1000 000/00 RMK AO2
14926KSTC STC20060316190510103/16/06 19:05:31  5-MIN KSTC 170105Z AUTO 05003KT 10SM CLR M01/M08 A3033 650 56 -1000 050/03 RMK AO2
14926KSTC STC20060316191010103/16/06 19:10:31  5-MIN KSTC 170110Z AUTO 05003KT 10SM CLR M01/M08 A3033 650 58 -1100 050/03 RMK AO2
14926KSTC STC20060316191510103/16/06 19:15:31  5-MIN KSTC 170115Z AUTO 06004KT 10SM CLR M01/M08 A3033 650 58 -1100 050/04 RMK AO2
14926KSTC STC20060316192010103/16/06 19:20:31  5-MIN KSTC 170120Z AUTO 05004KT 10SM CLR M01/M08 A3033 650 58 -1100 050/04 RMK AO2
14926KSTC STC20060316192510103/16/06 19:25:31  5-MIN KSTC 170125Z AUTO 05005KT 10SM CLR M01/M09 A3033 650 53 -1000 050/05 RMK AO2
14926KSTC STC20060316193010103/16/06 19:30:31  5-MIN KSTC 170130Z AUTO 04004KT 10SM CLR M01/M09 A3033 650 53 -1000 040/04 RMK AO2
14926KSTC STC20060316193510103/16/06 19:35:31  5-MIN KSTC 170135Z AUTO 03004KT 10SM CLR M01/M09 A3033 650 53 -1000 030/04 RMK AO2
14926KSTC STC20060316194010103/16/06 19:40:31  5-MIN KSTC 170140Z AUTO 03004KT 10SM CLR M01/M09 A3033 650 51 -1000 020/04 RMK AO2
14926KSTC STC20060316194510103/16/06 19:45:31  5-MIN KSTC 170145Z AUTO 01003KT 10SM CLR M01/M09 A3034 640 53 -1100 010/03 RMK AO2
14926KSTC STC20060316195011803/16/06 19:50:31  5-MIN KSTC 170150Z AUTO 00000KT 10SM CLR M02/M09 A3034 640 55 -1200 000/00 RMK AO2 SLP297 T10171094
14926KSTC STC20060316195510103/16/06 19:55:31  5-MIN KSTC 170155Z AUTO 36003KT 10SM CLR M02/M09 A3034 640 55 -1200 360/03 RMK AO2
14926KSTC STC20060316200010103/16/06 20:00:31  5-MIN KSTC 170200Z AUTO 01003KT 10SM CLR M02/M09 A3034 640 55 -1200 010/03 RMK AO2
14926KSTC STC20060316200510103/16/06 20:05:31  5-MIN KSTC 170205Z AUTO 01003KT 10SM CLR M02/M09 A3034 640 60 -1200 010/03 RMK AO2
14926KSTC STC20060316201010103/16/06 20:10:31  5-MIN KSTC 170210Z AUTO 02003KT 10SM CLR M02/M09 A3035 630 60 -1200 010/03 RMK AO2
14926KSTC STC20060316201510103/16/06 20:15:31  5-MIN KSTC 170215Z AUTO 03003KT 10SM CLR M02/M09 A3035 630 58 -1200 030/03 RMK AO2
14926KSTC STC20060316202010103/16/06 20:20:31  5-MIN KSTC 170220Z AUTO 03004KT 10SM CLR M02/M09 A3035 630 58 -1200 030/04 RMK AO2
14926KSTC STC20060316202510103/16/06 20:25:31  5-MIN KSTC 170225Z AUTO 03004KT 10SM CLR M02/M10 A3035 630 53 -1200 030/04 RMK AO2
14926KSTC STC20060316203010103/16/06 20:30:31  5-MIN KSTC 170230Z AUTO 03004KT 10SM CLR M02/M10 A3035 630 53 -1200 020/04 RMK AO2
14926KSTC STC20060316203510103/16/06 20:35:31  5-MIN KSTC 170235Z AUTO 01004KT 10SM CLR M02/M10 A3036 620 53 -1200 010/04 RMK AO2
14926KSTC STC20060316204010103/16/06 20:40:31  5-MIN KSTC 170240Z AUTO 01004KT 10SM CLR M02/M10 A3036 620 55 -1200 010/04 RMK AO2
14926KSTC STC20060316204510103/16/06 20:45:31  5-MIN KSTC 170245Z AUTO 01004KT 10SM CLR M02/M10 A3036 620 55 -1200 010/04 RMK AO2
14926KSTC STC20060316205012403/16/06 20:50:31  5-MIN KSTC 170250Z AUTO 01004KT 10SM CLR M03/M09 A3036 620 60 -1300 010/04 RMK AO2 SLP305 T10281094 53022
14926KSTC STC20060316205510103/16/06 20:55:31  5-MIN KSTC 170255Z AUTO 36004KT 10SM CLR M02/M09 A3036 620 58 -1300 360/04 RMK AO2
14926KSTC STC20060316210010103/16/06 21:00:31  5-MIN KSTC 170300Z AUTO 01004KT 10SM CLR M03/M09 A3036 620 60 -1300 010/04 RMK AO2
14926KSTC STC20060316210510103/16/06 21:05:31  5-MIN KSTC 170305Z AUTO 02005KT 10SM CLR M03/M09 A3036 620 60 -1300 010/05 RMK AO2
14926KSTC STC20060316211010103/16/06 21:10:31  5-MIN KSTC 170310Z AUTO 02005KT 10SM CLR M02/M10 A3036 620 55 -1300 020/05 RMK AO2
14926KSTC STC20060316211510103/16/06 21:15:31  5-MIN KSTC 170315Z AUTO 02004KT 10SM CLR M02/M11 A3037 610 53 -1300 020/04 RMK AO2
14926KSTC STC20060316212010103/16/06 21:20:31  5-MIN KSTC 170320Z AUTO 02004KT 10SM CLR M03/M11 A3037 620 55 -1300 020/04 RMK AO2
14926KSTC STC20060316212510103/16/06 21:25:31  5-MIN KSTC 170325Z AUTO 02004KT 10SM CLR M02/M11 A3037 610 53 -1300 020/04 RMK AO2
14926KSTC STC20060316213010103/16/06 21:30:31  5-MIN KSTC 170330Z AUTO 02004KT 10SM CLR M02/M11 A3037 610 51 -1300 020/04 RMK AO2
14926KSTC STC20060316213510103/16/06 21:35:31  5-MIN KSTC 170335Z AUTO 03005KT 10SM CLR M02/M11 A3037 610 51 -1300 020/05 RMK AO2
14926KSTC STC20060316214010103/16/06 21:40:31  5-MIN KSTC 170340Z AUTO 01004KT 10SM CLR M02/M11 A3037 610 51 -1300 010/04 RMK AO2
14926KSTC STC20060316214510103/16/06 21:45:31  5-MIN KSTC 170345Z AUTO 01005KT 10SM CLR M03/M11 A3038 610 53 -1300 010/05 RMK AO2
14926KSTC STC20060316215011803/16/06 21:50:31  5-MIN KSTC 170350Z AUTO 01004KT 10SM CLR M03/M11 A3038 610 53 -1300 010/04 RMK AO2 SLP311 T10281111
14926KSTC STC20060316215510103/16/06 21:55:31  5-MIN KSTC 170355Z AUTO 01004KT 10SM CLR M03/M11 A3038 600 57 -1400 360/04 RMK AO2
14926KSTC STC20060316220010103/16/06 22:00:31  5-MIN KSTC 170400Z AUTO 36004KT 10SM CLR M04/M11 A3038 600 60 -1500 350/04 RMK AO2
14926KSTC STC20060316220510103/16/06 22:05:31  5-MIN KSTC 170405Z AUTO 35003KT 10SM CLR M04/M11 A3039 600 60 -1600 350/03 RMK AO2
14926KSTC STC20060316221010103/16/06 22:10:31  5-MIN KSTC 170410Z AUTO 34004KT 10SM CLR M04/M11 A3039 600 60 -1600 340/04 RMK AO2
14926KSTC STC20060316221510103/16/06 22:15:31  5-MIN KSTC 170415Z AUTO 34003KT 10SM CLR M06/M11 A3039 600 68 -1800 330/03 RMK AO2
14926KSTC STC20060316222010103/16/06 22:20:31  5-MIN KSTC 170420Z AUTO 34003KT 10SM CLR M06/M11 A3039 600 68 -1800 340/03 RMK AO2
14926KSTC STC20060316222510103/16/06 22:25:31  5-MIN KSTC 170425Z AUTO 33003KT 10SM CLR M06/M11 A3039 600 65 -1700 330/03 RMK AO2
14926KSTC STC20060316223010103/16/06 22:30:31  5-MIN KSTC 170430Z AUTO 32003KT 10SM CLR M05/M11 A3039 590 62 -1600 320/03 RMK AO2
14926KSTC STC20060316223510103/16/06 22:35:31  5-MIN KSTC 170435Z AUTO 32004KT 10SM CLR M06/M11 A3040 590 65 -1700 320/04 RMK AO2
14926KSTC STC20060316224010103/16/06 22:40:31  5-MIN KSTC 170440Z AUTO 33004KT 10SM CLR M06/M11 A3040 580 65 -1700 330/04 RMK AO2
14926KSTC STC20060316224510103/16/06 22:45:31  5-MIN KSTC 170445Z AUTO 33004KT 10SM CLR M06/M11 A3040 580 65 -1700 320/04 RMK AO2
14926KSTC STC20060316225011803/16/06 22:50:31  5-MIN KSTC 170450Z AUTO 33003KT 10SM CLR M06/M11 A3040 580 65 -1700 330/03 RMK AO2 SLP320 T10561111
14926KSTC STC20060316225510103/16/06 22:55:31  5-MIN KSTC 170455Z AUTO 33004KT 10SM CLR M06/M11 A3041 580 65 -1700 330/04 RMK AO2
14926KSTC STC20060316230010103/16/06 23:00:31  5-MIN KSTC 170500Z AUTO 34004KT 10SM CLR M06/M11 A3041 580 65 -1700 340/04 RMK AO2
14926KSTC STC20060316230510103/16/06 23:05:31  5-MIN KSTC 170505Z AUTO 34004KT 10SM CLR M06/M11 A3041 580 65 -1700 340/04 RMK AO2
14926KSTC STC20060316231010103/16/06 23:10:31  5-MIN KSTC 170510Z AUTO 34004KT 10SM CLR M06/M11 A3041 580 65 -1700 340/04 RMK AO2
14926KSTC STC20060316231510103/16/06 23:15:31  5-MIN KSTC 170515Z AUTO 34004KT 10SM CLR M06/M11 A3041 580 68 -1700 330/04 RMK AO2
14926KSTC STC20060316232010103/16/06 23:20:31  5-MIN KSTC 170520Z AUTO 34004KT 10SM CLR M05/M11 A3041 580 65 -1700 340/04 RMK AO2
14926KSTC STC20060316232510103/16/06 23:25:31  5-MIN KSTC 170525Z AUTO 35005KT 10SM CLR M06/M11 A3041 580 68 -1700 340/05 RMK AO2
14926KSTC STC20060316233010103/16/06 23:30:31  5-MIN KSTC 170530Z AUTO 36004KT 10SM CLR M06/M11 A3041 580 68 -1700 350/04 RMK AO2
14926KSTC STC20060316233510103/16/06 23:35:31  5-MIN KSTC 170535Z AUTO 36004KT 10SM CLR M06/M11 A3041 580 68 -1700 360/04 RMK AO2
14926KSTC STC20060316234010103/16/06 23:40:31  5-MIN KSTC 170540Z AUTO 36005KT 10SM CLR M06/M11 A3041 570 65 -1700 360/05 RMK AO2
14926KSTC STC20060316234510103/16/06 23:45:31  5-MIN KSTC 170545Z AUTO 36005KT 10SM CLR M06/M11 A3041 570 68 -1800 360/05 RMK AO2
14926KSTC STC20060316235014603/16/06 23:50:31  5-MIN KSTC 170550Z AUTO 36005KT 10SM CLR M07/M11 A3041 580 71 -1900 360/05 RMK AO2 SLP322 T10671111 10006 21067 400281067 53019
14926KSTC STC20060316235510103/16/06 23:55:31  5-MIN KSTC 170555Z AUTO 36004KT 10SM CLR M07/M11 A3041 580 71 -1900 350/04 RMK AO2
14926KSTC STC20060317000010103/17/06 00:00:32  5-MIN KSTC 170600Z AUTO 36004KT 10SM CLR M06/M11 A3041 570 68 -1800 350/04 RMK AO2
14926KSTC STC20060317000510103/17/06 00:05:31  5-MIN KSTC 170605Z AUTO 01004KT 10SM CLR M06/M11 A3041 570 65 -1700 360/04 RMK AO2
14926KSTC STC20060317001010103/17/06 00:10:31  5-MIN KSTC 170610Z AUTO 01003KT 10SM CLR M06/M11 A3041 570 65 -1700 010/03 RMK AO2
14926KSTC STC20060317001510103/17/06 00:15:31  5-MIN KSTC 170615Z AUTO 01004KT 10SM CLR M05/M11 A3041 570 62 -1700 010/04 RMK AO2
14926KSTC STC20060317002010103/17/06 00:20:31  5-MIN KSTC 170620Z AUTO 01004KT 10SM CLR M06/M11 A3042 570 65 -1700 360/04 RMK AO2
14926KSTC STC20060317002510103/17/06 00:25:31  5-MIN KSTC 170625Z AUTO 36004KT 10SM CLR M06/M11 A3042 570 68 -1800 360/04 RMK AO2
14926KSTC STC20060317003010103/17/06 00:30:31  5-MIN KSTC 170630Z AUTO 36003KT 10SM CLR M06/M11 A3042 570 68 -1800 360/03 RMK AO2
14926KSTC STC20060317003510103/17/06 00:35:31  5-MIN KSTC 170635Z AUTO 01003KT 10SM CLR M06/M11 A3042 570 71 -1800 010/03 RMK AO2
14926KSTC STC20060317004010103/17/06 00:40:31  5-MIN KSTC 170640Z AUTO 00000KT 10SM CLR M06/M11 A3042 570 71 -1800 000/00 RMK AO2
14926KSTC STC20060317004510103/17/06 00:45:31  5-MIN KSTC 170645Z AUTO 36003KT 10SM CLR M07/M11 A3042 570 74 -2000 360/03 RMK AO2
14926KSTC STC20060317005011803/17/06 00:50:31  5-MIN KSTC 170650Z AUTO 36003KT 10SM CLR M08/M11 A3042 570 77 -2000 360/03 RMK AO2 SLP327 T10781111
14926KSTC STC20060317005510103/17/06 00:55:31  5-MIN KSTC 170655Z AUTO 36003KT 10SM CLR M08/M12 A3042 560 77 -2100 360/03 RMK AO2
14926KSTC STC20060317010010103/17/06 01:00:31  5-MIN KSTC 170700Z AUTO 36003KT 10SM CLR M08/M12 A3042 560 77 -2100 360/03 RMK AO2
14926KSTC STC20060317010510103/17/06 01:05:31  5-MIN KSTC 170705Z AUTO 36003KT 10SM CLR M08/M12 A3042 560 77 -2100 360/03 RMK AO2
14926KSTC STC20060317011010103/17/06 01:10:31  5-MIN KSTC 170710Z AUTO 36003KT 10SM CLR M09/M12 A3043 560 80 -2200 360/03 RMK AO2
14926KSTC STC20060317011510103/17/06 01:15:31  5-MIN KSTC 170715Z AUTO 36004KT 10SM CLR M08/M12 A3043 560 77 -2100 360/04 RMK AO2
14926KSTC STC20060317012010103/17/06 01:20:31  5-MIN KSTC 170720Z AUTO 36004KT 10SM CLR M08/M12 A3043 560 77 -2100 360/04 RMK AO2
14926KSTC STC20060317012510103/17/06 01:25:31  5-MIN KSTC 170725Z AUTO 36004KT 10SM CLR M09/M12 A3043 560 80 -2200 360/04 RMK AO2
14926KSTC STC20060317013010103/17/06 01:30:31  5-MIN KSTC 170730Z AUTO 36004KT 10SM CLR M09/M12 A3043 550 80 -2200 360/04 RMK AO2
14926KSTC STC20060317013510103/17/06 01:35:31  5-MIN KSTC 170735Z AUTO 36004KT 10SM CLR M09/M12 A3043 550 80 -2300 360/04 RMK AO2
14926KSTC STC20060317014010103/17/06 01:40:31  5-MIN KSTC 170740Z AUTO 36004KT 10SM CLR M09/M12 A3044 550 77 -2200 360/04 RMK AO2
14926KSTC STC20060317014510103/17/06 01:45:31  5-MIN KSTC 170745Z AUTO 36003KT 10SM CLR M09/M12 A3044 550 80 -2200 360/03 RMK AO2
14926KSTC STC20060317015011803/17/06 01:50:31  5-MIN KSTC 170750Z AUTO 35003KT 10SM CLR M10/M13 A3044 550 80 -2300 350/03 RMK AO2 SLP333 T11001128
14926KSTC STC20060317015510103/17/06 01:55:31  5-MIN KSTC 170755Z AUTO 34003KT 10SM CLR M09/M13 A3044 550 74 -2200 340/03 RMK AO2
14926KSTC STC20060317020010103/17/06 02:00:31  5-MIN KSTC 170800Z AUTO 34003KT 10SM CLR M08/M12 A3044 550 77 -2100 340/03 RMK AO2
14926KSTC STC20060317020510103/17/06 02:05:31  5-MIN KSTC 170805Z AUTO 00000KT 10SM CLR M08/M12 A3044 550 74 -2100 000/00 RMK AO2
14926KSTC STC20060317021010103/17/06 02:10:31  5-MIN KSTC 170810Z AUTO 36003KT 10SM CLR M08/M12 A3044 540 74 -2100 350/03 RMK AO2
14926KSTC STC20060317021510103/17/06 02:15:31  5-MIN KSTC 170815Z AUTO 35003KT 10SM CLR M08/M12 A3045 540 74 -2100 340/03 RMK AO2
14926KSTC STC20060317022010103/17/06 02:20:31  5-MIN KSTC 170820Z AUTO 35004KT 10SM CLR M09/M12 A3045 540 77 -2200 340/04 RMK AO2
14926KSTC STC20060317022510103/17/06 02:25:31  5-MIN KSTC 170825Z AUTO 34004KT 10SM CLR M09/M12 A3045 540 77 -2200 340/04 RMK AO2
14926KSTC STC20060317023010103/17/06 02:30:31  5-MIN KSTC 170830Z AUTO 35003KT 10SM CLR M09/M12 A3045 540 77 -2200 340/03 RMK AO2
14926KSTC STC20060317023510103/17/06 02:35:31  5-MIN KSTC 170835Z AUTO 36004KT 10SM CLR M09/M12 A3045 540 77 -2200 360/04 RMK AO2
14926KSTC STC20060317024010103/17/06 02:40:31  5-MIN KSTC 170840Z AUTO 01004KT 10SM CLR M08/M12 A3045 540 74 -2100 360/04 RMK AO2
14926KSTC STC20060317024510103/17/06 02:45:31  5-MIN KSTC 170845Z AUTO 01005KT 10SM CLR M09/M13 A3044 540 74 -2200 010/05 RMK AO2
14926KSTC STC20060317025012403/17/06 02:50:31  5-MIN KSTC 170850Z AUTO 02005KT 10SM CLR M09/M13 A3044 550 74 -2200 020/05 RMK AO2 SLP334 T10891128 51016
14926KSTC STC20060317025510103/17/06 02:55:31  5-MIN KSTC 170855Z AUTO 02004KT 10SM CLR M09/M13 A3044 540 70 -2200 010/04 RMK AO2
14926KSTC STC20060317030010103/17/06 03:00:31  5-MIN KSTC 170900Z AUTO 02005KT 10SM CLR M09/M13 A3045 540 70 -2200 020/05 RMK AO2
14926KSTC STC20060317030510103/17/06 03:05:31  5-MIN KSTC 170905Z AUTO 01004KT 10SM CLR M09/M13 A3045 540 70 -2200 010/04 RMK AO2
14926KSTC STC20060317031010103/17/06 03:10:31  5-MIN KSTC 170910Z AUTO 01004KT 10SM CLR M09/M13 A3045 540 73 -2300 010/04 RMK AO2
14926KSTC STC20060317031510103/17/06 03:15:31  5-MIN KSTC 170915Z AUTO 01004KT 10SM CLR M09/M13 A3045 540 73 -2300 010/04 RMK AO2
14926KSTC STC20060317032010103/17/06 03:20:31  5-MIN KSTC 170920Z AUTO 01004KT 10SM CLR M09/M13 A3045 540 73 -2300 010/04 RMK AO2
14926KSTC STC20060317032510103/17/06 03:25:31  5-MIN KSTC 170925Z AUTO 01004KT 10SM CLR M09/M13 A3045 540 73 -2300 010/04 RMK AO2
14926KSTC STC20060317033010103/17/06 03:30:31  5-MIN KSTC 170930Z AUTO 02003KT 10SM CLR M09/M13 A3045 540 73 -2300 010/03 RMK AO2
14926KSTC STC20060317033510103/17/06 03:35:31  5-MIN KSTC 170935Z AUTO 01003KT 10SM CLR M09/M13 A3045 540 73 -2300 360/03 RMK AO2
14926KSTC STC20060317034010103/17/06 03:40:31  5-MIN KSTC 170940Z AUTO 36003KT 10SM CLR M09/M13 A3045 540 73 -2300 360/03 RMK AO2
14926KSTC STC20060317034510103/17/06 03:45:31  5-MIN KSTC 170945Z AUTO 36004KT 10SM CLR M11/M14 A3046 530 77 -2400 360/04 RMK AO2
14926KSTC STC20060317035011803/17/06 03:50:31  5-MIN KSTC 170950Z AUTO 01004KT 10SM CLR M10/M13 A3046 530 77 -2400 360/04 RMK AO2 SLP339 T11001133
14926KSTC STC20060317035510103/17/06 03:55:31  5-MIN KSTC 170955Z AUTO 01003KT 10SM CLR M11/M14 A3046 530 77 -2400 010/03 RMK AO2
14926KSTC STC20060317040010103/17/06 04:00:31  5-MIN KSTC 171000Z AUTO 01004KT 10SM CLR M10/M13 A3046 530 77 -2400 010/04 RMK AO2
14926KSTC STC20060317040510103/17/06 04:05:31  5-MIN KSTC 171005Z AUTO 01004KT 10SM CLR M09/M13 A3046 530 73 -2300 360/04 RMK AO2
14926KSTC STC20060317041010103/17/06 04:10:31  5-MIN KSTC 171010Z AUTO 01004KT 10SM CLR M09/M13 A3046 530 73 -2300 010/04 RMK AO2
14926KSTC STC20060317041510103/17/06 04:15:31  5-MIN KSTC 171015Z AUTO 01003KT 10SM CLR M10/M13 A3047 520 77 -2400 010/03 RMK AO2
14926KSTC STC20060317042010103/17/06 04:20:31  5-MIN KSTC 171020Z AUTO 36003KT 10SM CLR M12/M14 A3047 520 84 -2700 360/03 RMK AO2
14926KSTC STC20060317042510103/17/06 04:25:31  5-MIN KSTC 171025Z AUTO 35003KT 10SM CLR M12/M14 A3047 520 80 -2600 350/03 RMK AO2
14926KSTC STC20060317043010103/17/06 04:30:31  5-MIN KSTC 171030Z AUTO 35003KT 10SM CLR M11/M14 A3047 520 73 -2500 350/03 RMK AO2
14926KSTC STC20060317043510103/17/06 04:35:31  5-MIN KSTC 171035Z AUTO 00000KT 10SM CLR M10/M14 A3047 520 73 -2400 000/00 RMK AO2
14926KSTC STC20060317044010103/17/06 04:40:31  5-MIN KSTC 171040Z AUTO 31003KT 10SM CLR M11/M14 A3048 520 77 -2500 310/03 RMK AO2
14926KSTC STC20060317044510103/17/06 04:45:31  5-MIN KSTC 171045Z AUTO 31003KT 10SM CLR M11/M14 A3048 510 77 -2500 310/03 RMK AO2
14926KSTC STC20060317045011803/17/06 04:50:31  5-MIN KSTC 171050Z AUTO 31004KT 10SM CLR M11/M14 A3048 510 77 -2500 310/04 RMK AO2 SLP348 T11061139
14926KSTC STC20060317045510103/17/06 04:55:31  5-MIN KSTC 171055Z AUTO 28003KT 10SM CLR M12/M14 A3049 510 80 -2600 270/03 RMK AO2
14926KSTC STC20060317050010103/17/06 05:00:31  5-MIN KSTC 171100Z AUTO 00000KT 10SM CLR M11/M14 A3049 510 73 -2500 000/00 RMK AO2
14926KSTC STC20060317050510103/17/06 05:05:31  5-MIN KSTC 171105Z AUTO 00000KT 10SM CLR M11/M14 A3049 510 77 -2500 000/00 RMK AO2
14926KSTC STC20060317051010103/17/06 05:10:31  5-MIN KSTC 171110Z AUTO 00000KT 10SM CLR M11/M14 A3049 500 77 -2500 000/00 RMK AO2
14926KSTC STC20060317051510103/17/06 05:15:31  5-MIN KSTC 171115Z AUTO 00000KT 10SM CLR M11/M14 A3049 500 73 -2500 000/00 RMK AO2
14926KSTC STC20060317052010103/17/06 05:20:31  5-MIN KSTC 171120Z AUTO 00000KT 10SM CLR M10/M14 A3049 500 73 -2400 000/00 RMK AO2
14926KSTC STC20060317052510103/17/06 05:25:31  5-MIN KSTC 171125Z AUTO 00000KT 10SM CLR M11/M14 A3049 500 77 -2500 000/00 RMK AO2
14926KSTC STC20060317053010103/17/06 05:30:31  5-MIN KSTC 171130Z AUTO 00000KT 10SM CLR M10/M14 A3049 500 73 -2400 000/00 RMK AO2
14926KSTC STC20060317053510103/17/06 05:35:31  5-MIN KSTC 171135Z AUTO 00000KT 10SM CLR M11/M13 A3050 500 80 -2500 000/00 RMK AO2
14926KSTC STC20060317054010103/17/06 05:40:31  5-MIN KSTC 171140Z AUTO 00000KT 10SM CLR M11/M13 A3050 500 80 -2500 000/00 RMK AO2
14926KSTC STC20060317054510103/17/06 05:45:31  5-MIN KSTC 171145Z AUTO 00000KT 10SM CLR M11/M13 A3050 500 80 -2500 000/00 RMK AO2
14926KSTC STC20060317055013603/17/06 05:50:31  5-MIN KSTC 171150Z AUTO 00000KT 10SM CLR M11/M13 A3050 500 80 -2500 000/00 RMK AO2 SLP353 T11061133 11050 21122 51011
14926KSTC STC20060317055510103/17/06 05:55:31  5-MIN KSTC 171155Z AUTO 00000KT 10SM CLR M11/M14 A3050 500 80 -2600 000/00 RMK AO2
14926KSTC STC20060317060010103/17/06 06:00:31  5-MIN KSTC 171200Z AUTO 00000KT 10SM CLR M11/M13 A3050 500 80 -2500 000/00 RMK AO2
14926KSTC STC20060317060510103/17/06 06:05:31  5-MIN KSTC 171205Z AUTO 36003KT 10SM CLR M11/M14 A3050 490 80 -2600 360/03 RMK AO2
14926KSTC STC20060317061010103/17/06 06:10:31  5-MIN KSTC 171210Z AUTO 00000KT 10SM CLR M11/M14 A3050 490 80 -2600 000/00 RMK AO2
14926KSTC STC20060317061510103/17/06 06:15:31  5-MIN KSTC 171215Z AUTO 36003KT 10SM CLR M12/M14 A3050 490 80 -2600 360/03 RMK AO2
14926KSTC STC20060317062010103/17/06 06:20:31  5-MIN KSTC 171220Z AUTO 36003KT 10SM CLR M12/M14 A3050 490 80 -2600 360/03 RMK AO2
14926KSTC STC20060317062510103/17/06 06:25:31  5-MIN KSTC 171225Z AUTO 36003KT 10SM CLR M12/M14 A3051 490 80 -2600 360/03 RMK AO2
14926KSTC STC20060317063010103/17/06 06:30:31  5-MIN KSTC 171230Z AUTO 01004KT 10SM CLR M12/M14 A3051 490 80 -2600 010/04 RMK AO2
14926KSTC STC20060317063509603/17/06 06:35:31  5-MIN KSTC 171235Z 01003KT 10SM CLR M11/M14 A3051 490 80 -2600 010/03 RMK AO2
14926KSTC STC20060317064009603/17/06 06:40:31  5-MIN KSTC 171240Z 00000KT 10SM CLR M12/M14 A3051 490 84 -2600 000/00 RMK AO2
14926KSTC STC20060317064509603/17/06 06:45:31  5-MIN KSTC 171245Z 36003KT 10SM CLR M12/M14 A3051 490 84 -2700 360/03 RMK AO2
14926KSTC STC20060317065011303/17/06 06:50:31  5-MIN KSTC 171250Z 36003KT 10SM CLR M13/M14 A3051 480 87 -2800 350/03 RMK AO2 SLP361 T11281144
14926KSTC STC20060317065509603/17/06 06:55:31  5-MIN KSTC 171255Z 34003KT 10SM CLR M13/M15 A3051 480 84 -2800 340/03 RMK AO2
14926KSTC STC20060317070009603/17/06 07:00:31  5-MIN KSTC 171300Z 33003KT 10SM CLR M12/M14 A3052 480 84 -2700 330/03 RMK AO2
14926KSTC STC20060317070509603/17/06 07:05:31  5-MIN KSTC 171305Z 33003KT 10SM CLR M12/M14 A3052 480 84 -2700 320/03 RMK AO2
14926KSTC STC20060317071009603/17/06 07:10:31  5-MIN KSTC 171310Z 32003KT 10SM CLR M11/M14 A3052 480 80 -2600 320/03 RMK AO2
14926KSTC STC20060317071509603/17/06 07:15:31  5-MIN KSTC 171315Z 00000KT 10SM CLR M11/M13 A3052 480 84 -2600 000/00 RMK AO2
14926KSTC STC20060317072009603/17/06 07:20:31  5-MIN KSTC 171320Z 00000KT 10SM CLR M11/M13 A3052 480 80 -2500 000/00 RMK AO2
14926KSTC STC20060317072509603/17/06 07:25:31  5-MIN KSTC 171325Z 00000KT 10SM CLR M11/M13 A3052 480 80 -2500 000/00 RMK AO2
14926KSTC STC20060317073009603/17/06 07:30:31  5-MIN KSTC 171330Z 00000KT 10SM CLR M09/M13 A3052 470 77 -2400 000/00 RMK AO2
14926KSTC STC20060317073509603/17/06 07:35:31  5-MIN KSTC 171335Z 00000KT 10SM CLR M09/M13 A3052 470 77 -2400 000/00 RMK AO2
14926KSTC STC20060317074009603/17/06 07:40:31  5-MIN KSTC 171340Z 00000KT 10SM CLR M09/M12 A3052 470 77 -2300 000/00 RMK AO2
14926KSTC STC20060317074509603/17/06 07:45:31  5-MIN KSTC 171345Z 00000KT 10SM CLR M08/M12 A3052 470 77 -2200 000/00 RMK AO2
14926KSTC STC20060317075011303/17/06 07:50:31  5-MIN KSTC 171350Z 00000KT 10SM CLR M08/M12 A3052 470 74 -2200 000/00 RMK AO2 SLP363 T10781117
14926KSTC STC20060317075509603/17/06 07:55:31  5-MIN KSTC 171355Z 00000KT 10SM CLR M08/M12 A3053 470 74 -2200 000/00 RMK AO2
14926KSTC STC20060317080009603/17/06 08:00:31  5-MIN KSTC 171400Z 00000KT 10SM CLR M08/M12 A3053 470 74 -2200 000/00 RMK AO2
14926KSTC STC20060317080509603/17/06 08:05:31  5-MIN KSTC 171405Z 00000KT 10SM CLR M07/M12 A3053 470 71 -2100 000/00 RMK AO2
14926KSTC STC20060317081009603/17/06 08:10:31  5-MIN KSTC 171410Z 00000KT 10SM CLR M07/M12 A3053 470 71 -2100 000/00 RMK AO2
14926KSTC STC20060317081509603/17/06 08:15:31  5-MIN KSTC 171415Z 00000KT 10SM CLR M07/M11 A3053 470 74 -2100 000/00 RMK AO2
14926KSTC STC20060317082009603/17/06 08:20:31  5-MIN KSTC 171420Z 00000KT 10SM CLR M07/M11 A3053 470 71 -2000 000/00 RMK AO2
14926KSTC STC20060317082509603/17/06 08:25:31  5-MIN KSTC 171425Z 00000KT 10SM CLR M06/M11 A3053 470 65 -1900 000/00 RMK AO2
14926KSTC STC20060317083009603/17/06 08:30:31  5-MIN KSTC 171430Z 00000KT 10SM CLR M05/M11 A3053 470 62 -1800 000/00 RMK AO2
14926KSTC STC20060317083509603/17/06 08:35:31  5-MIN KSTC 171435Z 00000KT 10SM CLR M04/M11 A3053 470 60 -1700 000/00 RMK AO2
14926KSTC STC20060317084009603/17/06 08:40:31  5-MIN KSTC 171440Z 10004KT 10SM CLR M04/M12 A3053 470 52 -1700 100/04 RMK AO2
14926KSTC STC20060317084509603/17/06 08:45:31  5-MIN KSTC 171445Z 09003KT 10SM CLR M04/M12 A3053 470 55 -1700 080/03 RMK AO2
14926KSTC STC20060317085011903/17/06 08:50:31  5-MIN KSTC 171450Z 00000KT 10SM CLR M04/M12 A3053 460 52 -1700 000/00 RMK AO2 SLP365 T10391122 53017
14926KSTC STC20060317085509603/17/06 08:55:31  5-MIN KSTC 171455Z 08004KT 10SM CLR M04/M12 A3053 460 52 -1700 080/04 RMK AO2
14926KSTC STC20060317090009603/17/06 09:00:31  5-MIN KSTC 171500Z 09004KT 10SM CLR M03/M12 A3053 470 53 -1600 090/04 RMK AO2
14926KSTC STC20060317090509603/17/06 09:05:31  5-MIN KSTC 171505Z 08004KT 10SM CLR M03/M11 A3053 470 55 -1600 080/04 RMK AO2
14926KSTC STC20060317091009603/17/06 09:10:31  5-MIN KSTC 171510Z 08003KT 10SM CLR M03/M11 A3053 470 55 -1600 080/03 RMK AO2
14926KSTC STC20060317091509603/17/06 09:15:31  5-MIN KSTC 171515Z 07003KT 10SM CLR M03/M11 A3053 470 53 -1500 070/03 RMK AO2
14926KSTC STC20060317092009603/17/06 09:20:31  5-MIN KSTC 171520Z 00000KT 10SM CLR M03/M11 A3053 470 55 -1500 000/00 RMK AO2
14926KSTC STC20060317092509603/17/06 09:25:31  5-MIN KSTC 171525Z 00000KT 10SM CLR M02/M11 A3053 470 51 -1400 000/00 RMK AO2
14926KSTC STC20060317093009603/17/06 09:30:31  5-MIN KSTC 171530Z 00000KT 10SM CLR M03/M11 A3053 470 53 -1500 000/00 RMK AO2
14926KSTC STC20060317093509603/17/06 09:35:31  5-MIN KSTC 171535Z 00000KT 10SM CLR M03/M11 A3053 470 53 -1500 000/00 RMK AO2
14926KSTC STC20060317094009603/17/06 09:40:31  5-MIN KSTC 171540Z 00000KT 10SM CLR M03/M11 A3053 470 53 -1500 000/00 RMK AO2
14926KSTC STC20060317094509603/17/06 09:45:31  5-MIN KSTC 171545Z 00000KT 10SM CLR M03/M11 A3053 470 55 -1500 000/00 RMK AO2
14926KSTC STC20060317095011303/17/06 09:50:31  5-MIN KSTC 171550Z 19003KT 10SM CLR M03/M11 A3053 460 55 -1500 180/03 RMK AO2 SLP364 T10281106
14926KSTC STC20060317095509603/17/06 09:55:31  5-MIN KSTC 171555Z 19003KT 10SM CLR M03/M10 A3053 460 58 -1500 190/03 RMK AO2
14926KSTC STC20060317100009603/17/06 10:00:31  5-MIN KSTC 171600Z 18003KT 10SM CLR M03/M11 A3053 460 55 -1500 180/03 RMK AO2
14926KSTC STC20060317100509603/17/06 10:05:31  5-MIN KSTC 171605Z VRB03KT 10SM CLR M02/M11 A3053 460 53 -1400 VRB/03 RMK AO2
14926KSTC STC20060317101009603/17/06 10:10:31  5-MIN KSTC 171610Z VRB03KT 10SM CLR M02/M11 A3053 460 53 -1400 VRB/03 RMK AO2
14926KSTC STC20060317101509603/17/06 10:15:31  5-MIN KSTC 171615Z 17003KT 10SM CLR M02/M12 A3053 460 48 -1400 170/03 RMK AO2
14926KSTC STC20060317102009603/17/06 10:20:31  5-MIN KSTC 171620Z 17003KT 10SM CLR M02/M11 A3053 460 51 -1400 170/03 RMK AO2
14926KSTC STC20060317102509603/17/06 10:25:31  5-MIN KSTC 171625Z 16004KT 10SM CLR M02/M13 A3053 470 42 -1400 160/04 RMK AO2
14926KSTC STC20060317103009603/17/06 10:30:31  5-MIN KSTC 171630Z 15005KT 10SM CLR M02/M13 A3053 470 44 -1400 150/05 RMK AO2
14926KSTC STC20060317103509603/17/06 10:35:31  5-MIN KSTC 171635Z 15005KT 10SM CLR M02/M13 A3053 460 42 -1400 150/05 RMK AO2
14926KSTC STC20060317104009603/17/06 10:40:31  5-MIN KSTC 171640Z 16005KT 10SM CLR M02/M13 A3053 460 41 -1400 150/05 RMK AO2
14926KSTC STC20060317104509603/17/06 10:45:31  5-MIN KSTC 171645Z 16004KT 10SM CLR M02/M14 A3053 470 39 -1400 150/04 RMK AO2
14926KSTC STC20060317105011303/17/06 10:50:31  5-MIN KSTC 171650Z 15004KT 10SM CLR M02/M13 A3053 470 42 -1400 150/04 RMK AO2 SLP364 T10171128
14926KSTC STC20060317105509603/17/06 10:55:31  5-MIN KSTC 171655Z 15003KT 10SM CLR M02/M13 A3053 470 42 -1400 150/03 RMK AO2
14926KSTC STC20060317110009603/17/06 11:00:31  5-MIN KSTC 171700Z 16004KT 10SM CLR M02/M12 A3053 470 44 -1400 160/04 RMK AO2
14926KSTC STC20060317110509603/17/06 11:05:31  5-MIN KSTC 171705Z 19003KT 10SM CLR M01/M12 A3053 470 45 -1300 190/03 RMK AO2
14926KSTC STC20060317111009603/17/06 11:10:31  5-MIN KSTC 171710Z 00000KT 10SM CLR M01/M12 A3053 470 45 -1300 000/00 RMK AO2
14926KSTC STC20060317111509603/17/06 11:15:31  5-MIN KSTC 171715Z 22003KT 10SM CLR M01/M12 A3053 470 45 -1300 220/03 RMK AO2
14926KSTC STC20060317112009603/17/06 11:20:31  5-MIN KSTC 171720Z 23003KT 10SM CLR M01/M12 A3053 470 45 -1300 220/03 RMK AO2
14926KSTC STC20060317112509603/17/06 11:25:31  5-MIN KSTC 171725Z 22005KT 10SM CLR M01/M11 A3053 470 47 -1300 220/05 RMK AO2
14926KSTC STC20060317113009603/17/06 11:30:31  5-MIN KSTC 171730Z 22005KT 10SM CLR M01/M11 A3053 470 47 -1300 210/05 RMK AO2
14926KSTC STC20060317113509603/17/06 11:35:31  5-MIN KSTC 171735Z 21005KT 10SM CLR M01/M11 A3053 470 49 -1300 200/05 RMK AO2
14926KSTC STC20060317114009603/17/06 11:40:31  5-MIN KSTC 171740Z 21004KT 10SM CLR M01/M11 A3053 470 49 -1300 210/04 RMK AO2
14926KSTC STC20060317114509603/17/06 11:45:31  5-MIN KSTC 171745Z 20004KT 10SM CLR M01/M11 A3053 470 49 -1300 200/04 RMK AO2
14926KSTC STC20060317115013103/17/06 11:50:31  5-MIN KSTC 171750Z 20005KT 10SM CLR M01/M10 A3053 470 49 -1200 200/05 RMK AO2 SLP364 T10061100 11006 21133 51012
14926KSTC STC20060317115509603/17/06 11:55:31  5-MIN KSTC 171755Z 21006KT 10SM CLR M01/M11 A3053 470 49 -1300 200/06 RMK AO2
14926KSTC STC20060317120009603/17/06 12:00:31  5-MIN KSTC 171800Z 20005KT 10SM CLR M01/M11 A3053 470 47 -1300 200/05 RMK AO2
14926KSTC STC20060317120509603/17/06 12:05:31  5-MIN KSTC 171805Z 21005KT 10SM CLR M01/M11 A3053 470 45 -1200 210/05 RMK AO2
14926KSTC STC20060317121009603/17/06 12:10:31  5-MIN KSTC 171810Z 20005KT 10SM CLR M01/M11 A3053 470 45 -1200 200/05 RMK AO2
14926KSTC STC20060317121509603/17/06 12:15:31  5-MIN KSTC 171815Z 21004KT 10SM CLR M01/M12 A3053 470 43 -1200 210/04 RMK AO2
14926KSTC STC20060317122009603/17/06 12:20:31  5-MIN KSTC 171820Z 19003KT 10SM CLR M01/M11 A3053 470 45 -1200 190/03 RMK AO2
14926KSTC STC20060317122509603/17/06 12:25:31  5-MIN KSTC 171825Z 22003KT 10SM CLR M01/M12 A3053 470 43 -1200 220/03 RMK AO2
14926KSTC STC20060317123009503/17/06 12:30:31  5-MIN KSTC 171830Z 00000KT 10SM CLR 00/M12 A3052 470 41 -1200 000/00 RMK AO2
14926KSTC STC20060317123509503/17/06 12:35:31  5-MIN KSTC 171835Z 21003KT 10SM CLR 00/M11 A3052 470 43 -1200 210/03 RMK AO2
14926KSTC STC20060317124009503/17/06 12:40:31  5-MIN KSTC 171840Z 24003KT 10SM CLR 00/M12 A3052 470 41 -1200 230/03 RMK AO2
14926KSTC STC20060317124509503/17/06 12:45:31  5-MIN KSTC 171845Z 20003KT 10SM CLR 00/M12 A3052 470 41 -1200 200/03 RMK AO2
14926KSTC STC20060317125011203/17/06 12:50:31  5-MIN KSTC 171850Z 23004KT 10SM CLR 00/M11 A3052 470 43 -1200 220/04 RMK AO2 SLP361 T00001111
14926KSTC STC20060317125509503/17/06 12:55:31  5-MIN KSTC 171855Z 20004KT 10SM CLR 00/M11 A3052 480 43 -1200 200/04 RMK AO2
14926KSTC STC20060317130009503/17/06 13:00:31  5-MIN KSTC 171900Z 23004KT 10SM CLR 00/M11 A3052 480 43 -1200 220/04 RMK AO2
14926KSTC STC20060317130509503/17/06 13:05:31  5-MIN KSTC 171905Z VRB03KT 10SM CLR 00/M11 A3052 480 43 -1200 VRB/03 RMK AO2
14926KSTC STC20060317131009503/17/06 13:10:31  5-MIN KSTC 171910Z 21004KT 10SM CLR 00/M11 A3052 480 43 -1100 200/04 RMK AO2
14926KSTC STC20060317131509503/17/06 13:15:31  5-MIN KSTC 171915Z VRB04KT 10SM CLR 00/M11 A3052 480 43 -1100 VRB/04 RMK AO2
14926KSTC STC20060317132009503/17/06 13:20:31  5-MIN KSTC 171920Z 21003KT 10SM CLR 00/M11 A3052 480 43 -1100 210/03 RMK AO2
14926KSTC STC20060317132509503/17/06 13:25:31  5-MIN KSTC 171925Z 19004KT 10SM CLR 01/M11 A3051 480 41 -1100 190/04 RMK AO2
14926KSTC STC20060317133009503/17/06 13:30:31  5-MIN KSTC 171930Z 00000KT 10SM CLR 01/M12 A3051 490 39 -1100 000/00 RMK AO2
14926KSTC STC20060317133509503/17/06 13:35:31  5-MIN KSTC 171935Z 00000KT 10SM CLR 01/M12 A3051 490 39 -1100 000/00 RMK AO2
14926KSTC STC20060317134009503/17/06 13:40:31  5-MIN KSTC 171940Z 00000KT 10SM CLR 01/M11 A3051 490 40 -1000 000/00 RMK AO2
14926KSTC STC20060317134509503/17/06 13:45:31  5-MIN KSTC 171945Z VRB03KT 10SM CLR 01/M12 A3051 490 38 -1000 VRB/03 RMK AO2
14926KSTC STC20060317135011103/17/06 13:50:31  5-MIN KSTC 171950Z 00000KT 10SM CLR 02/M12 A3050 490 36 -900 000/00 RMK AO2 SLP355 T00171117
14926KSTC STC20060317135509503/17/06 13:55:31  5-MIN KSTC 171955Z VRB03KT 10SM CLR 01/M11 A3050 490 41 -1000 VRB/03 RMK AO2
14926KSTC STC20060317140009503/17/06 14:00:31  5-MIN KSTC 172000Z 00000KT 10SM CLR 01/M11 A3050 490 40 -1000 000/00 RMK AO2
14926KSTC STC20060317140509403/17/06 14:05:31  5-MIN KSTC 172005Z 00000KT 10SM CLR 02/M12 A3050 500 36 -900 000/00 RMK AO2
14926KSTC STC20060317141009403/17/06 14:10:31  5-MIN KSTC 172010Z 00000KT 10SM CLR 02/M11 A3050 500 38 -900 000/00 RMK AO2
14926KSTC STC20060317141509403/17/06 14:15:31  5-MIN KSTC 172015Z VRB03KT 10SM CLR 02/M11 A3050 500 40 -900 VRB/03 RMK AO2
14926KSTC STC20060317142009403/17/06 14:20:31  5-MIN KSTC 172020Z 29003KT 10SM CLR 02/M11 A3050 500 40 -900 290/03 RMK AO2
14926KSTC STC20060317142509403/17/06 14:25:31  5-MIN KSTC 172025Z VRB03KT 10SM CLR 02/M10 A3050 500 42 -900 VRB/03 RMK AO2
14926KSTC STC20060317143009403/17/06 14:30:31  5-MIN KSTC 172030Z 00000KT 10SM CLR 02/M11 A3049 500 40 -900 000/00 RMK AO2
14926KSTC STC20060317143509403/17/06 14:35:31  5-MIN KSTC 172035Z 00000KT 10SM CLR 02/M11 A3049 500 38 -900 000/00 RMK AO2
14926KSTC STC20060317144009403/17/06 14:40:31  5-MIN KSTC 172040Z 00000KT 10SM CLR 02/M11 A3049 500 40 -900 000/00 RMK AO2
14926KSTC STC20060317144509403/17/06 14:45:31  5-MIN KSTC 172045Z 00000KT 10SM CLR 02/M11 A3049 500 40 -900 000/00 RMK AO2
14926KSTC STC20060317145011703/17/06 14:50:31  5-MIN KSTC 172050Z 00000KT 10SM CLR 02/M10 A3049 500 40 -800 000/00 RMK AO2 SLP351 T00221100 58001
14926KSTC STC20060317145509403/17/06 14:55:31  5-MIN KSTC 172055Z VRB04KT 10SM CLR 02/M09 A3049 500 42 -800 VRB/04 RMK AO2
14926KSTC STC20060317150009403/17/06 15:00:31  5-MIN KSTC 172100Z 32004KT 10SM CLR 02/M09 A3049 500 42 -800 320/04 RMK AO2
14926KSTC STC20060317150509403/17/06 15:05:31  5-MIN KSTC 172105Z 00000KT 10SM CLR 03/M10 A3049 500 38 -800 000/00 RMK AO2
14926KSTC STC20060317151009403/17/06 15:10:31  5-MIN KSTC 172110Z 31004KT 10SM CLR 02/M10 A3049 500 40 -800 300/04 RMK AO2
14926KSTC STC20060317151509403/17/06 15:15:31  5-MIN KSTC 172115Z 31003KT 10SM CLR 02/M10 A3049 500 40 -800 310/03 RMK AO2
14926KSTC STC20060317152009403/17/06 15:20:31  5-MIN KSTC 172120Z 00000KT 10SM CLR 02/M10 A3049 500 40 -800 000/00 RMK AO2
14926KSTC STC20060317152509403/17/06 15:25:31  5-MIN KSTC 172125Z 30003KT 10SM CLR 02/M11 A3049 500 38 -800 300/03 RMK AO2
14926KSTC STC20060317153009403/17/06 15:30:31  5-MIN KSTC 172130Z 00000KT 10SM CLR 02/M10 A3049 500 40 -800 000/00 RMK AO2
14926KSTC STC20060317153509403/17/06 15:35:31  5-MIN KSTC 172135Z 00000KT 10SM CLR 02/M10 A3049 510 40 -800 000/00 RMK AO2
14926KSTC STC20060317154009403/17/06 15:40:31  5-MIN KSTC 172140Z VRB03KT 10SM CLR 03/M10 A3049 510 38 -800 VRB/03 RMK AO2
14926KSTC STC20060317154509403/17/06 15:45:31  5-MIN KSTC 172145Z 36003KT 10SM CLR 03/M11 A3049 510 37 -800 350/03 RMK AO2
14926KSTC STC20060317155011103/17/06 15:50:31  5-MIN KSTC 172150Z 29003KT 10SM CLR 03/M10 A3048 510 38 -800 290/03 RMK AO2 SLP348 T00281100
14926KSTC STC20060317155509603/17/06 15:55:31  5-MIN KSTC 172155Z VRB03KT 10SM CLR 02/M11 A3048 510 38 -800 VRB/03 RMK AO2 $
14926KSTC STC20060317160009603/17/06 16:00:31  5-MIN KSTC 172200Z VRB03KT 10SM CLR 03/M11 A3048 510 37 -800 VRB/03 RMK AO2 $
14926KSTC STC20060317160509603/17/06 16:05:31  5-MIN KSTC 172205Z VRB04KT 10SM CLR 03/M10 A3048 510 38 -800 VRB/04 RMK AO2 $
14926KSTC STC20060317161009603/17/06 16:10:31  5-MIN KSTC 172210Z 04005KT 10SM CLR 03/M11 A3048 510 35 -800 030/05 RMK AO2 $
14926KSTC STC20060317161509603/17/06 16:15:31  5-MIN KSTC 172215Z VRB05KT 10SM CLR 03/M11 A3048 520 35 -800 VRB/05 RMK AO2 $
14926KSTC STC20060317162009603/17/06 16:20:31  5-MIN KSTC 172220Z 35005KT 10SM CLR 03/M11 A3048 520 35 -800 350/05 RMK AO2 $
14926KSTC STC20060317162509603/17/06 16:25:31  5-MIN KSTC 172225Z 03004KT 10SM CLR 03/M11 A3048 510 35 -800 030/04 RMK AO2 $
14926KSTC STC20060317163009603/17/06 16:30:31  5-MIN KSTC 172230Z 36004KT 10SM CLR 03/M11 A3048 510 35 -800 360/04 RMK AO2 $
14926KSTC STC20060317163509603/17/06 16:35:31  5-MIN KSTC 172235Z 31003KT 10SM CLR 03/M11 A3048 520 35 -800 310/03 RMK AO2 $
14926KSTC STC20060317164009603/17/06 16:40:31  5-MIN KSTC 172240Z VRB03KT 10SM CLR 03/M11 A3048 520 37 -800 VRB/03 RMK AO2 $
14926KSTC STC20060317164509603/17/06 16:45:31  5-MIN KSTC 172245Z 35003KT 10SM CLR 03/M11 A3047 520 35 -700 340/03 RMK AO2 $
14926KSTC STC20060317165011303/17/06 16:50:31  5-MIN KSTC 172250Z VRB03KT 10SM CLR 03/M11 A3047 520 37 -800 VRB/03 RMK AO2 SLP344 T00281106 $
14926KSTC STC20060317165509603/17/06 16:55:31  5-MIN KSTC 172255Z 33004KT 10SM CLR 03/M12 A3047 520 34 -800 330/04 RMK AO2 $
14926KSTC STC20060317170009603/17/06 17:00:31  5-MIN KSTC 172300Z 00000KT 10SM CLR 02/M11 A3047 520 37 -800 000/00 RMK AO2 $
14926KSTC STC20060317170509603/17/06 17:05:31  5-MIN KSTC 172305Z 30003KT 10SM CLR 03/M11 A3047 520 35 -800 300/03 RMK AO2 $
14926KSTC STC20060317171009603/17/06 17:10:31  5-MIN KSTC 172310Z 31003KT 10SM CLR 02/M11 A3047 520 37 -800 310/03 RMK AO2 $
14926KSTC STC20060317171509603/17/06 17:15:31  5-MIN KSTC 172315Z 30003KT 10SM CLR 02/M11 A3047 520 38 -800 300/03 RMK AO2 $
14926KSTC STC20060317172009603/17/06 17:20:31  5-MIN KSTC 172320Z 26003KT 10SM CLR 02/M10 A3047 520 40 -800 250/03 RMK AO2 $
14926KSTC STC20060317172509603/17/06 17:25:31  5-MIN KSTC 172325Z 00000KT 10SM CLR 02/M11 A3047 520 38 -800 000/00 RMK AO2 $
14926KSTC STC20060317173009603/17/06 17:30:31  5-MIN KSTC 172330Z 00000KT 10SM CLR 02/M11 A3047 520 37 -800 000/00 RMK AO2 $
14926KSTC STC20060317173509603/17/06 17:35:31  5-MIN KSTC 172335Z 00000KT 10SM CLR 02/M11 A3047 520 38 -800 000/00 RMK AO2 $
14926KSTC STC20060317174009603/17/06 17:40:31  5-MIN KSTC 172340Z 36003KT 10SM CLR 02/M11 A3047 520 38 -800 360/03 RMK AO2 $
14926KSTC STC20060317174509603/17/06 17:45:31  5-MIN KSTC 172345Z 00000KT 10SM CLR 02/M11 A3047 520 37 -800 000/00 RMK AO2 $
14926KSTC STC20060317175013103/17/06 17:50:31  5-MIN KSTC 172350Z 00000KT 10SM CLR 02/M11 A3047 520 37 -800 000/00 RMK AO2 SLP343 T00221111 10033 21011 58012 $
14926KSTC STC20060317175509603/17/06 17:55:31  5-MIN KSTC 172355Z 20003KT 10SM CLR 02/M10 A3047 520 42 -900 190/03 RMK AO2 $
14926KSTC STC20060317180009703/17/06 18:00:31  5-MIN KSTC 180000Z 19003KT 10SM CLR 01/M09 A3047 520 49 -1000 180/03 RMK AO2 $
14926KSTC STC20060317180509703/17/06 18:05:31  5-MIN KSTC 180005Z 17003KT 10SM CLR 01/M09 A3047 530 49 -1000 170/03 RMK AO2 $
14926KSTC STC20060317181009703/17/06 18:10:31  5-MIN KSTC 180010Z 19004KT 10SM CLR 00/M09 A3047 530 51 -1100 180/04 RMK AO2 $
14926KSTC STC20060317181509803/17/06 18:15:31  5-MIN KSTC 180015Z 18003KT 10SM CLR M01/M09 A3046 530 53 -1200 170/03 RMK AO2 $
14926KSTC STC20060317182009803/17/06 18:20:31  5-MIN KSTC 180020Z 00000KT 10SM CLR M01/M09 A3046 530 53 -1200 000/00 RMK AO2 $
14926KSTC STC20060317182509703/17/06 18:25:31  5-MIN KSTC 180025Z 00000KT 10SM CLR 01/M10 A3046 530 45 -1000 000/00 RMK AO2 $
14926KSTC STC20060317183009703/17/06 18:30:31  5-MIN KSTC 180030Z 00000KT 10SM CLR 01/M11 A3046 530 43 -1000 000/00 RMK AO2 $
14926KSTC STC20060317183509803/17/06 18:35:31  5-MIN KSTC 180035Z 16004KT 10SM CLR M01/M10 A3046 530 49 -1200 160/04 RMK AO2 $
14926KSTC STC20060317184009803/17/06 18:40:31  5-MIN KSTC 180040Z 17003KT 10SM CLR M01/M09 A3046 530 53 -1200 160/03 RMK AO2 $
14926KSTC STC20060317184509803/17/06 18:45:31  5-MIN KSTC 180045Z 15003KT 10SM CLR M01/M10 A3046 530 51 -1200 150/03 RMK AO2 $
14926KSTC STC20060317185011503/17/06 18:50:31  5-MIN KSTC 180050Z 16003KT 10SM CLR M02/M10 A3047 530 53 -1300 150/03 RMK AO2 SLP345 T10171100 $
14926KSTC STC20060317185509803/17/06 18:55:31  5-MIN KSTC 180055Z 00000KT 10SM CLR M02/M09 A3047 530 58 -1400 000/00 RMK AO2 $
14926KSTC STC20060317190009803/17/06 19:00:31  5-MIN KSTC 180100Z 00000KT 10SM CLR M02/M09 A3047 530 58 -1400 000/00 RMK AO2 $
14926KSTC STC20060317190509803/17/06 19:05:31  5-MIN KSTC 180105Z 00000KT 10SM CLR M01/M09 A3047 520 53 -1200 000/00 RMK AO2 $
14926KSTC STC20060317191009803/17/06 19:10:31  5-MIN KSTC 180110Z 25003KT 10SM CLR M01/M10 A3047 520 51 -1200 250/03 RMK AO2 $
14926KSTC STC20060317191509803/17/06 19:15:31  5-MIN KSTC 180115Z 00000KT 10SM CLR M02/M10 A3047 520 53 -1300 000/00 RMK AO2 $
14926KSTC STC20060317192009803/17/06 19:20:31  5-MIN KSTC 180120Z 00000KT 10SM CLR M02/M10 A3047 520 55 -1400 000/00 RMK AO2 $
14926KSTC STC20060317192509803/17/06 19:25:31  5-MIN KSTC 180125Z 00000KT 10SM CLR M02/M10 A3047 520 53 -1300 000/00 RMK AO2 $
14926KSTC STC20060317193009803/17/06 19:30:31  5-MIN KSTC 180130Z 00000KT 10SM CLR M02/M10 A3047 520 55 -1400 000/00 RMK AO2 $
14926KSTC STC20060317193509803/17/06 19:35:31  5-MIN KSTC 180135Z 00000KT 10SM CLR M02/M11 A3047 520 51 -1300 000/00 RMK AO2 $
14926KSTC STC20060317194009803/17/06 19:40:31  5-MIN KSTC 180140Z 00000KT 10SM CLR M02/M10 A3047 520 55 -1400 000/00 RMK AO2 $
14926KSTC STC20060317194509803/17/06 19:45:31  5-MIN KSTC 180145Z 00000KT 10SM CLR M02/M10 A3047 520 55 -1400 000/00 RMK AO2 $
14926KSTC STC20060317195011503/17/06 19:50:31  5-MIN KSTC 180150Z 00000KT 10SM CLR M03/M10 A3047 520 58 -1400 000/00 RMK AO2 SLP345 T10281100 $
14926KSTC STC20060317195509803/17/06 19:55:31  5-MIN KSTC 180155Z 00000KT 10SM CLR M03/M11 A3047 520 55 -1400 000/00 RMK AO2 $
14926KSTC STC20060317200009803/17/06 20:00:31  5-MIN KSTC 180200Z 00000KT 10SM CLR M04/M10 A3047 520 63 -1600 000/00 RMK AO2 $
14926KSTC STC20060317200509803/17/06 20:05:31  5-MIN KSTC 180205Z 00000KT 10SM CLR M03/M10 A3047 520 60 -1500 000/00 RMK AO2 $
14926KSTC STC20060317201009803/17/06 20:10:31  5-MIN KSTC 180210Z 00000KT 10SM CLR M03/M09 A3047 520 63 -1500 000/00 RMK AO2 $
14926KSTC STC20060317201509803/17/06 20:15:31  5-MIN KSTC 180215Z 00000KT 10SM CLR M04/M09 A3047 520 68 -1600 000/00 RMK AO2 $
14926KSTC STC20060317202009803/17/06 20:20:31  5-MIN KSTC 180220Z 00000KT 10SM CLR M03/M09 A3047 520 65 -1500 000/00 RMK AO2 $
14926KSTC STC20060317202509803/17/06 20:25:31  5-MIN KSTC 180225Z 00000KT 10SM CLR M04/M09 A3047 520 68 -1600 000/00 RMK AO2 $
14926KSTC STC20060317203009803/17/06 20:30:31  5-MIN KSTC 180230Z 00000KT 10SM CLR M04/M09 A3047 520 68 -1700 000/00 RMK AO2 $
14926KSTC STC20060317203509803/17/06 20:35:31  5-MIN KSTC 180235Z 04003KT 10SM CLR M04/M09 A3048 510 68 -1700 040/03 RMK AO2 $
14926KSTC STC20060317204009803/17/06 20:40:31  5-MIN KSTC 180240Z 04004KT 10SM CLR M05/M09 A3048 520 74 -1700 030/04 RMK AO2 $
14926KSTC STC20060317204509803/17/06 20:45:31  5-MIN KSTC 180245Z 03004KT 10SM CLR M04/M09 A3048 510 71 -1700 030/04 RMK AO2 $
14926KSTC STC20060317205012103/17/06 20:50:31  5-MIN KSTC 180250Z 00000KT 10SM CLR M04/M09 A3048 510 68 -1700 000/00 RMK AO2 SLP346 T10441094 56008 $
14926KSTC STC20060317205509803/17/06 20:55:31  5-MIN KSTC 180255Z 00000KT 10SM CLR M04/M09 A3048 510 65 -1600 000/00 RMK AO2 $
14926KSTC STC20060317210009803/17/06 21:00:31  5-MIN KSTC 180300Z 00000KT 10SM CLR M03/M10 A3048 510 58 -1500 000/00 RMK AO2 $
14926KSTC STC20060317210509803/17/06 21:05:31  5-MIN KSTC 180305Z 00000KT 10SM CLR M03/M10 A3048 510 60 -1500 000/00 RMK AO2 $
14926KSTC STC20060317211009803/17/06 21:10:31  5-MIN KSTC 180310Z 00000KT 10SM CLR M04/M10 A3048 510 63 -1600 000/00 RMK AO2 $
14926KSTC STC20060317211509803/17/06 21:15:31  5-MIN KSTC 180315Z 00000KT 10SM CLR M05/M09 A3048 510 71 -1700 000/00 RMK AO2 $
14926KSTC STC20060317212009803/17/06 21:20:31  5-MIN KSTC 180320Z 00000KT 10SM CLR M05/M09 A3048 510 71 -1700 000/00 RMK AO2 $
14926KSTC STC20060317212509803/17/06 21:25:31  5-MIN KSTC 180325Z 00000KT 10SM CLR M06/M09 A3048 510 74 -1800 000/00 RMK AO2 $
14926KSTC STC20060317213009803/17/06 21:30:31  5-MIN KSTC 180330Z 00000KT 10SM CLR M05/M09 A3048 510 71 -1700 000/00 RMK AO2 $
14926KSTC STC20060317213509803/17/06 21:35:31  5-MIN KSTC 180335Z 00000KT 10SM CLR M05/M10 A3048 510 68 -1700 000/00 RMK AO2 $
14926KSTC STC20060317214009803/17/06 21:40:31  5-MIN KSTC 180340Z 00000KT 10SM CLR M05/M09 A3048 510 71 -1700 000/00 RMK AO2 $
14926KSTC STC20060317214509803/17/06 21:45:31  5-MIN KSTC 180345Z 00000KT 10SM CLR M06/M09 A3048 510 77 -1800 000/00 RMK AO2 $
14926KSTC STC20060317215011503/17/06 21:50:31  5-MIN KSTC 180350Z 00000KT 10SM CLR M06/M09 A3048 510 74 -1800 000/00 RMK AO2 SLP348 T10561094 $
14926KSTC STC20060317215509803/17/06 21:55:31  5-MIN KSTC 180355Z 00000KT 10SM CLR M05/M10 A3048 510 68 -1700 000/00 RMK AO2 $
14926KSTC STC20060317220010303/17/06 22:00:31  5-MIN KSTC 180400Z AUTO 00000KT 10SM CLR M05/M09 A3048 510 71 -1700 000/00 RMK AO2 $
14926KSTC STC20060317220510303/17/06 22:05:31  5-MIN KSTC 180405Z AUTO 00000KT 10SM CLR M06/M09 A3048 510 77 -1900 000/00 RMK AO2 $
14926KSTC STC20060317221010303/17/06 22:10:31  5-MIN KSTC 180410Z AUTO 00000KT 10SM CLR M06/M09 A3048 510 74 -1800 000/00 RMK AO2 $
14926KSTC STC20060317221510303/17/06 22:15:31  5-MIN KSTC 180415Z AUTO 00000KT 10SM CLR M07/M09 A3048 510 81 -2000 000/00 RMK AO2 $
14926KSTC STC20060317222010303/17/06 22:20:31  5-MIN KSTC 180420Z AUTO 00000KT 10SM CLR M06/M09 A3048 510 77 -1900 000/00 RMK AO2 $
14926KSTC STC20060317222510303/17/06 22:25:31  5-MIN KSTC 180425Z AUTO 00000KT 10SM CLR M07/M09 A3048 510 81 -2000 000/00 RMK AO2 $
14926KSTC STC20060317223010303/17/06 22:30:31  5-MIN KSTC 180430Z AUTO 00000KT 10SM CLR M07/M09 A3048 510 81 -2000 000/00 RMK AO2 $
14926KSTC STC20060317223510303/17/06 22:35:31  5-MIN KSTC 180435Z AUTO 00000KT 10SM CLR M06/M09 A3048 510 81 -1900 000/00 RMK AO2 $
14926KSTC STC20060317224010303/17/06 22:40:31  5-MIN KSTC 180440Z AUTO 00000KT 10SM CLR M06/M09 A3048 510 81 -1900 000/00 RMK AO2 $
14926KSTC STC20060317224510303/17/06 22:45:31  5-MIN KSTC 180445Z AUTO 00000KT 10SM CLR M06/M09 A3048 510 81 -1900 000/00 RMK AO2 $
14926KSTC STC20060317225011503/17/06 22:50:31  5-MIN KSTC 180450Z 00000KT 10SM CLR M06/M09 A3048 510 81 -1900 000/00 RMK AO2 SLP347 T10611089 $
14926KSTC STC20060317225509803/17/06 22:55:31  5-MIN KSTC 180455Z 00000KT 10SM CLR M06/M09 A3048 510 74 -1800 000/00 RMK AO2 $
14926KSTC STC20060317230010303/17/06 23:00:31  5-MIN KSTC 180500Z AUTO 00000KT 10SM CLR M07/M09 A3048 510 81 -2000 000/00 RMK AO2 $
14926KSTC STC20060317230510303/17/06 23:05:31  5-MIN KSTC 180505Z AUTO 00000KT 10SM CLR M07/M09 A3048 510 81 -2000 000/00 RMK AO2 $
14926KSTC STC20060317231010303/17/06 23:10:31  5-MIN KSTC 180510Z AUTO 00000KT 10SM CLR M06/M09 A3048 510 77 -1900 000/00 RMK AO2 $
14926KSTC STC20060317231510303/17/06 23:15:31  5-MIN KSTC 180515Z AUTO 00000KT 10SM CLR M06/M09 A3048 510 77 -1900 000/00 RMK AO2 $
14926KSTC STC20060317232010303/17/06 23:20:31  5-MIN KSTC 180520Z AUTO 00000KT 10SM CLR M07/M09 A3048 510 81 -2000 000/00 RMK AO2 $
14926KSTC STC20060317232510303/17/06 23:25:31  5-MIN KSTC 180525Z AUTO 00000KT 10SM CLR M07/M09 A3048 510 81 -2000 000/00 RMK AO2 $
14926KSTC STC20060317233010303/17/06 23:30:31  5-MIN KSTC 180530Z AUTO 00000KT 10SM CLR M06/M09 A3048 510 81 -1900 000/00 RMK AO2 $
14926KSTC STC20060317233510303/17/06 23:35:31  5-MIN KSTC 180535Z AUTO 00000KT 10SM CLR M07/M09 A3048 510 84 -2000 000/00 RMK AO2 $
14926KSTC STC20060317234010303/17/06 23:40:31  5-MIN KSTC 180540Z AUTO 00000KT 10SM CLR M07/M09 A3048 510 84 -2000 000/00 RMK AO2 $
14926KSTC STC20060317234510303/17/06 23:45:31  5-MIN KSTC 180545Z AUTO 00000KT 10SM CLR M07/M10 A3048 510 81 -2000 000/00 RMK AO2 $
14926KSTC STC20060317235014803/17/06 23:50:31  5-MIN KSTC 180550Z AUTO 00000KT 10SM CLR M07/M10 A3048 510 81 -2000 000/00 RMK AO2 SLP348 T10721100 10017 21072 400331133 53004 $
14926KSTC STC20060317235510303/17/06 23:55:31  5-MIN KSTC 180555Z AUTO 00000KT 10SM CLR M07/M10 A3048 510 81 -2000 000/00 RMK AO2 $
14926KSTC STC20060318000010303/18/06 00:00:32  5-MIN KSTC 180600Z AUTO 00000KT 10SM CLR M08/M10 A3048 510 84 -2100 000/00 RMK AO2 $
14926KSTC STC20060318000510303/18/06 00:05:31  5-MIN KSTC 180605Z AUTO 00000KT 10SM CLR M07/M10 A3048 510 81 -2000 000/00 RMK AO2 $
14926KSTC STC20060318001010303/18/06 00:10:31  5-MIN KSTC 180610Z AUTO 00000KT 10SM CLR M07/M10 A3048 510 81 -2000 000/00 RMK AO2 $
14926KSTC STC20060318001510303/18/06 00:15:31  5-MIN KSTC 180615Z AUTO 07003KT 10SM CLR M08/M10 A3048 510 84 -2100 070/03 RMK AO2 $
14926KSTC STC20060318002010303/18/06 00:20:31  5-MIN KSTC 180620Z AUTO 00000KT 10SM CLR M08/M10 A3049 510 84 -2100 000/00 RMK AO2 $
14926KSTC STC20060318002510303/18/06 00:25:31  5-MIN KSTC 180625Z AUTO 00000KT 10SM CLR M08/M10 A3049 510 84 -2100 000/00 RMK AO2 $
14926KSTC STC20060318003010303/18/06 00:30:31  5-MIN KSTC 180630Z AUTO 00000KT 10SM CLR M08/M10 A3049 510 84 -2100 000/00 RMK AO2 $
14926KSTC STC20060318003510303/18/06 00:35:31  5-MIN KSTC 180635Z AUTO 00000KT 10SM CLR M08/M10 A3049 510 84 -2100 000/00 RMK AO2 $
14926KSTC STC20060318004010303/18/06 00:40:31  5-MIN KSTC 180640Z AUTO 00000KT 10SM CLR M08/M10 A3049 510 84 -2100 000/00 RMK AO2 $
14926KSTC STC20060318004510303/18/06 00:45:31  5-MIN KSTC 180645Z AUTO 00000KT 10SM CLR M07/M10 A3049 500 81 -2000 000/00 RMK AO2 $
14926KSTC STC20060318005012003/18/06 00:50:31  5-MIN KSTC 180650Z AUTO 00000KT 10SM CLR M08/M10 A3049 500 84 -2100 000/00 RMK AO2 SLP350 T10781100 $
14926KSTC STC20060318005510303/18/06 00:55:31  5-MIN KSTC 180655Z AUTO 00000KT 10SM CLR M08/M10 A3049 500 84 -2100 000/00 RMK AO2 $
14926KSTC STC20060318010010303/18/06 01:00:31  5-MIN KSTC 180700Z AUTO 00000KT 10SM CLR M08/M10 A3049 500 84 -2100 000/00 RMK AO2 $
14926KSTC STC20060318010510303/18/06 01:05:31  5-MIN KSTC 180705Z AUTO 00000KT 10SM CLR M07/M10 A3049 500 81 -2000 000/00 RMK AO2 $
14926KSTC STC20060318011010303/18/06 01:10:31  5-MIN KSTC 180710Z AUTO 06004KT 10SM CLR M08/M10 A3049 500 84 -2100 060/04 RMK AO2 $
14926KSTC STC20060318011510303/18/06 01:15:31  5-MIN KSTC 180715Z AUTO 08004KT 10SM CLR M08/M10 A3049 500 84 -2100 070/04 RMK AO2 $
14926KSTC STC20060318012010303/18/06 01:20:31  5-MIN KSTC 180720Z AUTO 08004KT 10SM CLR M07/M10 A3050 500 81 -2000 070/04 RMK AO2 $
14926KSTC STC20060318012510303/18/06 01:25:31  5-MIN KSTC 180725Z AUTO 08004KT 10SM CLR M07/M10 A3050 500 81 -2100 070/04 RMK AO2 $
14926KSTC STC20060318013010303/18/06 01:30:31  5-MIN KSTC 180730Z AUTO 07003KT 10SM CLR M07/M11 A3050 500 74 -2000 070/03 RMK AO2 $
14926KSTC STC20060318013510303/18/06 01:35:31  5-MIN KSTC 180735Z AUTO 07003KT 10SM CLR M08/M11 A3050 500 84 -2200 070/03 RMK AO2 $
14926KSTC STC20060318014010303/18/06 01:40:31  5-MIN KSTC 180740Z AUTO 07003KT 10SM CLR M08/M11 A3050 490 84 -2200 070/03 RMK AO2 $
14926KSTC STC20060318014510303/18/06 01:45:31  5-MIN KSTC 180745Z AUTO 07003KT 10SM CLR M08/M11 A3050 490 80 -2100 070/03 RMK AO2 $
14926KSTC STC20060318015012003/18/06 01:50:31  5-MIN KSTC 180750Z AUTO 07004KT 10SM CLR M08/M11 A3050 490 80 -2100 070/04 RMK AO2 SLP352 T10781106 $
14926KSTC STC20060318015510303/18/06 01:55:31  5-MIN KSTC 180755Z AUTO 07005KT 10SM CLR M07/M11 A3050 500 71 -2000 070/05 RMK AO2 $
14926KSTC STC20060318020010303/18/06 02:00:31  5-MIN KSTC 180800Z AUTO 07005KT 10SM CLR M06/M12 A3050 500 62 -1800 070/05 RMK AO2 $
14926KSTC STC20060318020510303/18/06 02:05:31  5-MIN KSTC 180805Z AUTO 06005KT 10SM CLR M06/M12 A3050 500 62 -1800 060/05 RMK AO2 $
14926KSTC STC20060318021010303/18/06 02:10:31  5-MIN KSTC 180810Z AUTO 07005KT 10SM CLR M05/M12 A3050 500 60 -1800 060/05 RMK AO2 $
14926KSTC STC20060318021510303/18/06 02:15:31  5-MIN KSTC 180815Z AUTO 06005KT 10SM CLR M05/M12 A3050 500 60 -1800 060/05 RMK AO2 $
14926KSTC STC20060318022010303/18/06 02:20:31  5-MIN KSTC 180820Z AUTO 06005KT 10SM CLR M05/M12 A3050 500 60 -1800 060/05 RMK AO2 $
14926KSTC STC20060318022510303/18/06 02:25:31  5-MIN KSTC 180825Z AUTO 07005KT 10SM CLR M05/M12 A3050 500 60 -1800 060/05 RMK AO2 $
14926KSTC STC20060318023010303/18/06 02:30:31  5-MIN KSTC 180830Z AUTO 07005KT 10SM CLR M05/M12 A3050 500 60 -1800 060/05 RMK AO2 $
14926KSTC STC20060318023510303/18/06 02:35:31  5-MIN KSTC 180835Z AUTO 06004KT 10SM CLR M06/M12 A3049 500 62 -1800 060/04 RMK AO2 $
14926KSTC STC20060318024010303/18/06 02:40:31  5-MIN KSTC 180840Z AUTO 06004KT 10SM CLR M05/M12 A3049 500 57 -1800 050/04 RMK AO2 $
14926KSTC STC20060318024510303/18/06 02:45:31  5-MIN KSTC 180845Z AUTO 06005KT 10SM CLR M05/M12 A3049 500 57 -1800 060/05 RMK AO2 $
14926KSTC STC20060318025012603/18/06 02:50:31  5-MIN KSTC 180850Z AUTO 06005KT 10SM CLR M05/M12 A3049 500 57 -1800 060/05 RMK AO2 SLP349 T10501122 51001 $
14926KSTC STC20060318025510303/18/06 02:55:31  5-MIN KSTC 180855Z AUTO 06005KT 10SM CLR M06/M12 A3049 500 62 -1800 060/05 RMK AO2 $
14926KSTC STC20060318030010303/18/06 03:00:31  5-MIN KSTC 180900Z AUTO 07005KT 10SM CLR M06/M12 A3049 500 59 -1800 070/05 RMK AO2 $
14926KSTC STC20060318030510303/18/06 03:05:31  5-MIN KSTC 180905Z AUTO 08005KT 10SM CLR M06/M12 A3049 500 59 -1800 070/05 RMK AO2 $
14926KSTC STC20060318031010303/18/06 03:10:31  5-MIN KSTC 180910Z AUTO 07005KT 10SM CLR M06/M12 A3049 500 59 -1800 070/05 RMK AO2 $
14926KSTC STC20060318031510303/18/06 03:15:31  5-MIN KSTC 180915Z AUTO 07006KT 10SM CLR M06/M12 A3049 510 59 -1800 060/06 RMK AO2 $
14926KSTC STC20060318032010303/18/06 03:20:31  5-MIN KSTC 180920Z AUTO 07006KT 10SM CLR M05/M12 A3049 510 57 -1800 060/06 RMK AO2 $
14926KSTC STC20060318032510303/18/06 03:25:31  5-MIN KSTC 180925Z AUTO 07006KT 10SM CLR M06/M12 A3049 510 59 -1800 060/06 RMK AO2 $
14926KSTC STC20060318033010303/18/06 03:30:31  5-MIN KSTC 180930Z AUTO 07006KT 10SM CLR M05/M12 A3049 510 57 -1800 070/06 RMK AO2 $
14926KSTC STC20060318033510303/18/06 03:35:31  5-MIN KSTC 180935Z AUTO 07006KT 10SM CLR M05/M12 A3049 510 57 -1700 060/06 RMK AO2 $
14926KSTC STC20060318034010303/18/06 03:40:31  5-MIN KSTC 180940Z AUTO 06007KT 10SM CLR M05/M12 A3048 510 57 -1700 060/07 RMK AO2 $
14926KSTC STC20060318034510303/18/06 03:45:31  5-MIN KSTC 180945Z AUTO 07007KT 10SM CLR M05/M12 A3048 510 57 -1700 070/07 RMK AO2 $
14926KSTC STC20060318035012003/18/06 03:50:31  5-MIN KSTC 180950Z AUTO 07006KT 10SM CLR M05/M13 A3048 510 55 -1700 070/06 RMK AO2 SLP346 T10501128 $
14926KSTC STC20060318035510303/18/06 03:55:31  5-MIN KSTC 180955Z AUTO 07006KT 10SM CLR M06/M13 A3048 510 57 -1800 060/06 RMK AO2 $
14926KSTC STC20060318040010303/18/06 04:00:31  5-MIN KSTC 181000Z AUTO 07006KT 10SM CLR M06/M13 A3049 510 57 -1800 070/06 RMK AO2 $
14926KSTC STC20060318040510303/18/06 04:05:31  5-MIN KSTC 181005Z AUTO 07007KT 10SM CLR M06/M12 A3049 510 59 -1800 070/07 RMK AO2 $
14926KSTC STC20060318041010303/18/06 04:10:31  5-MIN KSTC 181010Z AUTO 07007KT 10SM CLR M06/M13 A3049 500 57 -1800 070/07 RMK AO2 $
14926KSTC STC20060318041510303/18/06 04:15:31  5-MIN KSTC 181015Z AUTO 07006KT 10SM CLR M06/M13 A3049 500 57 -1800 070/06 RMK AO2 $
14926KSTC STC20060318042010303/18/06 04:20:31  5-MIN KSTC 181020Z AUTO 07006KT 10SM CLR M06/M13 A3049 500 57 -1800 070/06 RMK AO2 $
14926KSTC STC20060318042510303/18/06 04:25:31  5-MIN KSTC 181025Z AUTO 07007KT 10SM CLR M06/M13 A3049 500 57 -1800 070/07 RMK AO2 $
14926KSTC STC20060318043010303/18/06 04:30:31  5-MIN KSTC 181030Z AUTO 07006KT 10SM CLR M06/M13 A3049 500 57 -1800 070/06 RMK AO2 $
14926KSTC STC20060318043510303/18/06 04:35:31  5-MIN KSTC 181035Z AUTO 07005KT 10SM CLR M06/M13 A3049 500 57 -1800 070/05 RMK AO2 $
14926KSTC STC20060318044010303/18/06 04:40:31  5-MIN KSTC 181040Z AUTO 08005KT 10SM CLR M06/M13 A3050 500 59 -1900 070/05 RMK AO2 $
14926KSTC STC20060318044510303/18/06 04:45:31  5-MIN KSTC 181045Z AUTO 07005KT 10SM CLR M06/M13 A3050 500 59 -1900 070/05 RMK AO2 $
14926KSTC STC20060318045012003/18/06 04:50:31  5-MIN KSTC 181050Z AUTO 08004KT 10SM CLR M06/M13 A3050 490 59 -1900 070/04 RMK AO2 SLP352 T10611128 $
14926KSTC STC20060318045510303/18/06 04:55:31  5-MIN KSTC 181055Z AUTO 07004KT 10SM CLR M06/M13 A3050 490 59 -1900 070/04 RMK AO2 $
14926KSTC STC20060318050010303/18/06 05:00:31  5-MIN KSTC 181100Z AUTO 07004KT 10SM CLR M07/M13 A3050 490 62 -2000 070/04 RMK AO2 $
14926KSTC STC20060318050510303/18/06 05:05:31  5-MIN KSTC 181105Z AUTO 07004KT 10SM CLR M07/M13 A3050 490 62 -2000 070/04 RMK AO2 $
14926KSTC STC20060318051010303/18/06 05:10:31  5-MIN KSTC 181110Z AUTO 07005KT 10SM CLR M07/M13 A3050 490 62 -2000 070/05 RMK AO2 $
14926KSTC STC20060318051510303/18/06 05:15:31  5-MIN KSTC 181115Z AUTO 07005KT 10SM CLR M07/M13 A3050 490 62 -2000 060/05 RMK AO2 $
14926KSTC STC20060318052010303/18/06 05:20:31  5-MIN KSTC 181120Z AUTO 07005KT 10SM CLR M07/M13 A3050 490 62 -2000 070/05 RMK AO2 $
14926KSTC STC20060318052510303/18/06 05:25:31  5-MIN KSTC 181125Z AUTO 07005KT 10SM CLR M07/M12 A3050 490 65 -2000 060/05 RMK AO2 $
14926KSTC STC20060318053010303/18/06 05:30:31  5-MIN KSTC 181130Z AUTO 07004KT 10SM CLR M07/M13 A3051 490 62 -2000 070/04 RMK AO2 $
14926KSTC STC20060318053510303/18/06 05:35:31  5-MIN KSTC 181135Z AUTO 07004KT 10SM CLR M07/M12 A3050 490 65 -2000 060/04 RMK AO2 $
14926KSTC STC20060318054010303/18/06 05:40:31  5-MIN KSTC 181140Z AUTO 07005KT 10SM CLR M07/M12 A3051 490 68 -2100 060/05 RMK AO2 $
14926KSTC STC20060318054510303/18/06 05:45:31  5-MIN KSTC 181145Z AUTO 07005KT 10SM CLR M07/M12 A3051 490 65 -2000 070/05 RMK AO2 $
14926KSTC STC20060318055013803/18/06 05:50:31  5-MIN KSTC 181150Z AUTO 07005KT 10SM CLR M07/M12 A3051 490 68 -2100 070/05 RMK AO2 SLP356 T10721122 11050 21083 50004 $
14926KSTC STC20060318055510303/18/06 05:55:31  5-MIN KSTC 181155Z AUTO 07005KT 10SM CLR M07/M12 A3051 490 68 -2100 060/05 RMK AO2 $
14926KSTC STC20060318060010303/18/06 06:00:31  5-MIN KSTC 181200Z AUTO 07005KT 10SM CLR M07/M12 A3051 490 68 -2100 070/05 RMK AO2 $
14926KSTC STC20060318060510303/18/06 06:05:31  5-MIN KSTC 181205Z AUTO 07004KT 10SM CLR M07/M13 A3051 480 65 -2100 070/04 RMK AO2 $
14926KSTC STC20060318061010303/18/06 06:10:31  5-MIN KSTC 181210Z AUTO 06004KT 10SM CLR M07/M13 A3051 480 65 -2100 060/04 RMK AO2 $
14926KSTC STC20060318061510303/18/06 06:15:31  5-MIN KSTC 181215Z AUTO 07004KT 10SM CLR M07/M13 A3051 480 65 -2100 060/04 RMK AO2 $
14926KSTC STC20060318062010303/18/06 06:20:31  5-MIN KSTC 181220Z AUTO 06004KT 10SM CLR M07/M13 A3052 480 65 -2100 060/04 RMK AO2 $
14926KSTC STC20060318062510303/18/06 06:25:31  5-MIN KSTC 181225Z AUTO 07003KT 10SM CLR M07/M13 A3052 480 65 -2100 060/03 RMK AO2 $
14926KSTC STC20060318063010303/18/06 06:30:31  5-MIN KSTC 181230Z AUTO 07003KT 10SM CLR M07/M13 A3052 480 65 -2100 070/03 RMK AO2 $
14926KSTC STC20060318063510303/18/06 06:35:31  5-MIN KSTC 181235Z AUTO 07003KT 10SM CLR M07/M13 A3052 470 65 -2100 060/03 RMK AO2 $
14926KSTC STC20060318064010303/18/06 06:40:31  5-MIN KSTC 181240Z AUTO 06004KT 10SM CLR M08/M13 A3052 470 67 -2200 060/04 RMK AO2 $
14926KSTC STC20060318064509803/18/06 06:45:31  5-MIN KSTC 181245Z 07004KT 10SM CLR M08/M13 A3052 470 67 -2200 070/04 RMK AO2 $
14926KSTC STC20060318065011503/18/06 06:50:31  5-MIN KSTC 181250Z 07003KT 10SM CLR M07/M12 A3053 470 68 -2100 070/03 RMK AO2 SLP363 T10721122 $
14926KSTC STC20060318065509803/18/06 06:55:31  5-MIN KSTC 181255Z 07003KT 10SM CLR M07/M12 A3053 470 68 -2100 070/03 RMK AO2 $
14926KSTC STC20060318070009803/18/06 07:00:31  5-MIN KSTC 181300Z 07003KT 10SM CLR M07/M12 A3053 470 68 -2100 070/03 RMK AO2 $
14926KSTC STC20060318070509803/18/06 07:05:31  5-MIN KSTC 181305Z 07004KT 10SM CLR M07/M12 A3053 470 68 -2100 060/04 RMK AO2 $
14926KSTC STC20060318071009803/18/06 07:10:31  5-MIN KSTC 181310Z 07005KT 10SM CLR M07/M12 A3053 470 65 -2000 070/05 RMK AO2 $
14926KSTC STC20060318071509803/18/06 07:15:31  5-MIN KSTC 181315Z 07004KT 10SM CLR M07/M12 A3053 470 65 -2000 070/04 RMK AO2 $
14926KSTC STC20060318072009803/18/06 07:20:31  5-MIN KSTC 181320Z 07007KT 10SM CLR M07/M12 A3053 470 65 -2000 070/07 RMK AO2 $
14926KSTC STC20060318072509803/18/06 07:25:31  5-MIN KSTC 181325Z 08007KT 10SM CLR M06/M12 A3053 470 62 -1900 070/07 RMK AO2 $
14926KSTC STC20060318073009803/18/06 07:30:31  5-MIN KSTC 181330Z 07006KT 10SM CLR M06/M12 A3053 470 65 -1900 070/06 RMK AO2 $
14926KSTC STC20060318073509803/18/06 07:35:31  5-MIN KSTC 181335Z 08006KT 10SM CLR M06/M12 A3053 470 65 -1900 070/06 RMK AO2 $
14926KSTC STC20060318074009803/18/06 07:40:31  5-MIN KSTC 181340Z 08006KT 10SM CLR M06/M12 A3053 470 62 -1900 080/06 RMK AO2 $
14926KSTC STC20060318074509803/18/06 07:45:31  5-MIN KSTC 181345Z 08006KT 10SM CLR M06/M12 A3053 470 62 -1900 080/06 RMK AO2 $
14926KSTC STC20060318075011503/18/06 07:50:31  5-MIN KSTC 181350Z 08007KT 10SM CLR M06/M12 A3053 470 59 -1900 080/07 RMK AO2 SLP364 T10561122 $
14926KSTC STC20060318075509803/18/06 07:55:31  5-MIN KSTC 181355Z 08006KT 10SM CLR M06/M12 A3053 460 59 -1900 080/06 RMK AO2 $
14926KSTC STC20060318080009803/18/06 08:00:31  5-MIN KSTC 181400Z 09007KT 10SM CLR M05/M12 A3053 460 57 -1800 080/07 RMK AO2 $
14926KSTC STC20060318080509803/18/06 08:05:31  5-MIN KSTC 181405Z 09006KT 10SM CLR M05/M12 A3054 460 57 -1800 080/06 RMK AO2 $
14926KSTC STC20060318081009803/18/06 08:10:31  5-MIN KSTC 181410Z 09006KT 10SM CLR M05/M12 A3054 460 57 -1800 080/06 RMK AO2 $
14926KSTC STC20060318081509803/18/06 08:15:31  5-MIN KSTC 181415Z 09006KT 10SM CLR M04/M12 A3054 460 55 -1700 080/06 RMK AO2 $
14926KSTC STC20060318082009803/18/06 08:20:31  5-MIN KSTC 181420Z 08006KT 10SM CLR M04/M12 A3054 460 55 -1700 080/06 RMK AO2 $
14926KSTC STC20060318082509803/18/06 08:25:31  5-MIN KSTC 181425Z 08005KT 10SM CLR M04/M12 A3054 460 52 -1700 080/05 RMK AO2 $
14926KSTC STC20060318083009803/18/06 08:30:31  5-MIN KSTC 181430Z 09007KT 10SM CLR M04/M12 A3053 460 52 -1700 090/07 RMK AO2 $
14926KSTC STC20060318083509803/18/06 08:35:31  5-MIN KSTC 181435Z 08006KT 10SM CLR M04/M13 A3054 460 50 -1700 080/06 RMK AO2 $
14926KSTC STC20060318084009803/18/06 08:40:31  5-MIN KSTC 181440Z 08007KT 10SM CLR M03/M13 A3054 460 48 -1600 080/07 RMK AO2 $
14926KSTC STC20060318084509803/18/06 08:45:31  5-MIN KSTC 181445Z 07006KT 10SM CLR M03/M13 A3054 460 46 -1600 060/06 RMK AO2 $
14926KSTC STC20060318085012103/18/06 08:50:31  5-MIN KSTC 181450Z 08006KT 10SM CLR M03/M13 A3054 460 46 -1600 080/06 RMK AO2 SLP366 T10331133 53005 $
14926KSTC STC20060318085509803/18/06 08:55:31  5-MIN KSTC 181455Z 07007KT 10SM CLR M03/M13 A3054 460 46 -1500 070/07 RMK AO2 $
14926KSTC STC20060318090009803/18/06 09:00:31  5-MIN KSTC 181500Z 07007KT 10SM CLR M03/M13 A3053 460 44 -1500 070/07 RMK AO2 $
14926KSTC STC20060318090509803/18/06 09:05:31  5-MIN KSTC 181505Z VRB06KT 10SM CLR M03/M13 A3053 460 46 -1500 VRB/06 RMK AO2 $
14926KSTC STC20060318091009803/18/06 09:10:31  5-MIN KSTC 181510Z 10007KT 10SM CLR M03/M13 A3053 460 44 -1500 100/07 RMK AO2 $
14926KSTC STC20060318091509803/18/06 09:15:31  5-MIN KSTC 181515Z 09007KT 10SM CLR M03/M13 A3054 460 44 -1500 090/07 RMK AO2 $
14926KSTC STC20060318092011403/18/06 09:20:31  5-MIN KSTC 181520Z 07007KT 050V110 10SM CLR M03/M13 A3054 460 46 -1500 070/07 050V110 RMK AO2 $
14926KSTC STC20060318092509803/18/06 09:25:31  5-MIN KSTC 181525Z 08008KT 10SM CLR M03/M14 A3054 460 42 -1500 080/08 RMK AO2 $
14926KSTC STC20060318093009803/18/06 09:30:31  5-MIN KSTC 181530Z 08006KT 10SM CLR M03/M14 A3054 460 42 -1500 070/06 RMK AO2 $
14926KSTC STC20060318093509803/18/06 09:35:31  5-MIN KSTC 181535Z 11007KT 10SM CLR M02/M14 A3054 460 40 -1500 100/07 RMK AO2 $
14926KSTC STC20060318094009803/18/06 09:40:31  5-MIN KSTC 181540Z 11006KT 10SM CLR M03/M14 A3054 460 40 -1500 100/06 RMK AO2 $
14926KSTC STC20060318094509803/18/06 09:45:31  5-MIN KSTC 181545Z 10006KT 10SM CLR M03/M14 A3054 460 40 -1500 090/06 RMK AO2 $
14926KSTC STC20060318095011503/18/06 09:50:31  5-MIN KSTC 181550Z 08006KT 10SM CLR M02/M14 A3054 460 40 -1500 070/06 RMK AO2 SLP367 T10221139 $
14926KSTC STC20060318095509803/18/06 09:55:31  5-MIN KSTC 181555Z VRB05KT 10SM CLR M02/M14 A3054 460 39 -1400 VRB/05 RMK AO2 $
14926KSTC STC20060318100009803/18/06 10:00:31  5-MIN KSTC 181600Z 08005KT 10SM CLR M02/M13 A3054 460 41 -1400 080/05 RMK AO2 $
14926KSTC STC20060318100509803/18/06 10:05:31  5-MIN KSTC 181605Z 07004KT 10SM CLR M02/M14 A3054 460 39 -1400 060/04 RMK AO2 $
14926KSTC STC20060318101009803/18/06 10:10:31  5-MIN KSTC 181610Z 08003KT 10SM CLR M02/M13 A3054 460 41 -1400 080/03 RMK AO2 $
14926KSTC STC20060318101509803/18/06 10:15:31  5-MIN KSTC 181615Z VRB05KT 10SM CLR M02/M13 A3054 460 42 -1400 VRB/05 RMK AO2 $
14926KSTC STC20060318102009803/18/06 10:20:31  5-MIN KSTC 181620Z VRB03KT 10SM CLR M01/M13 A3054 460 41 -1300 VRB/03 RMK AO2 $
14926KSTC STC20060318102509803/18/06 10:25:31  5-MIN KSTC 181625Z VRB04KT 10SM CLR M01/M12 A3054 460 43 -1300 VRB/04 RMK AO2 $
14926KSTC STC20060318103009803/18/06 10:30:31  5-MIN KSTC 181630Z VRB04KT 10SM CLR M01/M12 A3054 460 43 -1300 VRB/04 RMK AO2 $
14926KSTC STC20060318103509803/18/06 10:35:31  5-MIN KSTC 181635Z 05004KT 10SM CLR M01/M12 A3054 460 45 -1300 050/04 RMK AO2 $
14926KSTC STC20060318104009803/18/06 10:40:31  5-MIN KSTC 181640Z VRB04KT 10SM CLR M01/M12 A3054 460 45 -1300 VRB/04 RMK AO2 $
14926KSTC STC20060318104509803/18/06 10:45:31  5-MIN KSTC 181645Z 00000KT 10SM CLR M01/M12 A3054 460 41 -1200 000/00 RMK AO2 $
14926KSTC STC20060318105011503/18/06 10:50:31  5-MIN KSTC 181650Z 05005KT 10SM CLR M01/M12 A3054 460 43 -1200 050/05 RMK AO2 SLP367 T10061117 $
14926KSTC STC20060318105509803/18/06 10:55:31  5-MIN KSTC 181655Z 07005KT 10SM CLR M01/M12 A3054 460 43 -1200 060/05 RMK AO2 $
14926KSTC STC20060318110009803/18/06 11:00:31  5-MIN KSTC 181700Z 07005KT 10SM CLR M01/M12 A3054 460 43 -1200 070/05 RMK AO2 $
14926KSTC STC20060318110509803/18/06 11:05:31  5-MIN KSTC 181705Z VRB04KT 10SM CLR M01/M12 A3054 460 43 -1200 VRB/04 RMK AO2 $
14926KSTC STC20060318111009703/18/06 11:10:31  5-MIN KSTC 181710Z 09006KT 10SM CLR 00/M11 A3053 460 43 -1200 080/06 RMK AO2 $
14926KSTC STC20060318111509803/18/06 11:15:31  5-MIN KSTC 181715Z 08004KT 10SM CLR M01/M12 A3053 460 41 -1200 080/04 RMK AO2 $
14926KSTC STC20060318112009803/18/06 11:20:31  5-MIN KSTC 181720Z 07004KT 10SM CLR M01/M12 A3053 470 43 -1200 060/04 RMK AO2 $
14926KSTC STC20060318112509803/18/06 11:25:31  5-MIN KSTC 181725Z VRB04KT 10SM CLR M01/M11 A3053 470 45 -1200 VRB/04 RMK AO2 $
14926KSTC STC20060318113009803/18/06 11:30:31  5-MIN KSTC 181730Z VRB06KT 10SM CLR M01/M12 A3053 470 43 -1200 VRB/06 RMK AO2 $
14926KSTC STC20060318113509703/18/06 11:35:31  5-MIN KSTC 181735Z 07006KT 10SM CLR 00/M11 A3053 470 43 -1200 070/06 RMK AO2 $
14926KSTC STC20060318114009703/18/06 11:40:31  5-MIN KSTC 181740Z 03006KT 10SM CLR 00/M12 A3053 470 41 -1200 030/06 RMK AO2 $
14926KSTC STC20060318114509703/18/06 11:45:31  5-MIN KSTC 181745Z 09006KT 10SM CLR 00/M12 A3053 470 41 -1200 090/06 RMK AO2 $
14926KSTC STC20060318115013203/18/06 11:50:31  5-MIN KSTC 181750Z VRB04KT 10SM CLR 00/M13 A3053 470 38 -1200 VRB/04 RMK AO2 SLP363 T00001128 10006 21078 51008 $
14926KSTC STC20060318115509703/18/06 11:55:31  5-MIN KSTC 181755Z 08006KT 10SM CLR 00/M12 A3053 470 41 -1200 070/06 RMK AO2 $
14926KSTC STC20060318120009703/18/06 12:00:31  5-MIN KSTC 181800Z 10005KT 10SM CLR 00/M13 A3052 470 38 -1200 090/05 RMK AO2 $
14926KSTC STC20060318120509703/18/06 12:05:31  5-MIN KSTC 181805Z VRB05KT 10SM CLR 00/M12 A3052 470 39 -1200 VRB/05 RMK AO2 $
14926KSTC STC20060318121009703/18/06 12:10:31  5-MIN KSTC 181810Z VRB06KT 10SM CLR 01/M11 A3052 470 41 -1100 VRB/06 RMK AO2 $
14926KSTC STC20060318121509703/18/06 12:15:31  5-MIN KSTC 181815Z 08007KT 10SM CLR 01/M11 A3052 480 41 -1100 080/07 RMK AO2 $
14926KSTC STC20060318122009703/18/06 12:20:31  5-MIN KSTC 181820Z VRB03KT 10SM CLR 01/M11 A3052 480 41 -1100 VRB/03 RMK AO2 $
14926KSTC STC20060318122509703/18/06 12:25:31  5-MIN KSTC 181825Z 08006KT 10SM CLR 01/M11 A3051 480 43 -1100 080/06 RMK AO2 $
14926KSTC STC20060318123009703/18/06 12:30:31  5-MIN KSTC 181830Z 09006KT 10SM CLR 01/M11 A3051 480 43 -1100 090/06 RMK AO2 $
14926KSTC STC20060318123509703/18/06 12:35:31  5-MIN KSTC 181835Z 07007KT 10SM CLR 01/M11 A3051 480 43 -1100 070/07 RMK AO2 $
14926KSTC STC20060318124009703/18/06 12:40:31  5-MIN KSTC 181840Z VRB04KT 10SM CLR 01/M11 A3051 490 41 -1100 VRB/04 RMK AO2 $
14926KSTC STC20060318124509703/18/06 12:45:31  5-MIN KSTC 181845Z 04008KT 10SM CLR 01/M11 A3051 490 40 -1000 040/08 RMK AO2 $
14926KSTC STC20060318125011403/18/06 12:50:31  5-MIN KSTC 181850Z 02007KT 10SM CLR 01/M12 A3050 490 38 -1000 010/07 RMK AO2 SLP354 T00111117 $
14926KSTC STC20060318125509703/18/06 12:55:31  5-MIN KSTC 181855Z 07005KT 10SM CLR 01/M11 A3050 490 41 -1100 070/05 RMK AO2 $
14926KSTC STC20060318130011303/18/06 13:00:31  5-MIN KSTC 181900Z 06008KT 040V120 10SM CLR 01/M11 A3049 500 41 -1000 060/08 040V120 RMK AO2 $
14926KSTC STC20060318130509703/18/06 13:05:31  5-MIN KSTC 181905Z 05007KT 10SM CLR 01/M12 A3049 500 38 -1000 050/07 RMK AO2 $
14926KSTC STC20060318131009703/18/06 13:10:31  5-MIN KSTC 181910Z 08009KT 10SM CLR 01/M11 A3049 500 40 -1000 080/09 RMK AO2 $
14926KSTC STC20060318131509703/18/06 13:15:31  5-MIN KSTC 181915Z VRB03KT 10SM CLR 01/M11 A3049 510 40 -1000 VRB/03 RMK AO2 $
14926KSTC STC20060318132009603/18/06 13:20:31  5-MIN KSTC 181920Z 07006KT 10SM CLR 02/M11 A3048 510 38 -900 070/06 RMK AO2 $
14926KSTC STC20060318132509703/18/06 13:25:31  5-MIN KSTC 181925Z 00000KT 10SM CLR 01/M12 A3048 510 38 -1000 000/00 RMK AO2 $
14926KSTC STC20060318133009603/18/06 13:30:31  5-MIN KSTC 181930Z 08005KT 10SM CLR 02/M12 A3048 510 36 -900 080/05 RMK AO2 $
14926KSTC STC20060318133509603/18/06 13:35:31  5-MIN KSTC 181935Z VRB04KT 10SM CLR 02/M11 A3048 510 38 -800 VRB/04 RMK AO2 $
14926KSTC STC20060318134009703/18/06 13:40:31  5-MIN KSTC 181940Z 09006KT 10SM CLR 01/M11 A3048 510 40 -1000 090/06 RMK AO2 $
14926KSTC STC20060318134509603/18/06 13:45:31  5-MIN KSTC 181945Z 07004KT 10SM CLR 02/M11 A3047 520 40 -900 070/04 RMK AO2 $
14926KSTC STC20060318135011303/18/06 13:50:31  5-MIN KSTC 181950Z 08006KT 10SM CLR 02/M12 A3047 520 36 -900 080/06 RMK AO2 SLP343 T00171117 $
14926KSTC STC20060318135509703/18/06 13:55:31  5-MIN KSTC 181955Z VRB03KT 10SM CLR 01/M12 A3047 520 38 -1000 VRB/03 RMK AO2 $
14926KSTC STC20060318140009603/18/06 14:00:31  5-MIN KSTC 182000Z 04009KT 10SM CLR 02/M12 A3047 520 35 -800 030/09 RMK AO2 $
14926KSTC STC20060318140509603/18/06 14:05:31  5-MIN KSTC 182005Z 02006KT 10SM CLR 02/M12 A3047 520 35 -900 020/06 RMK AO2 $
14926KSTC STC20060318141009603/18/06 14:10:31  5-MIN KSTC 182010Z 08005KT 10SM CLR 02/M12 A3046 530 35 -800 080/05 RMK AO2 $
14926KSTC STC20060318141509603/18/06 14:15:31  5-MIN KSTC 182015Z 04008KT 10SM CLR 02/M12 A3046 530 35 -800 040/08 RMK AO2 $
14926KSTC STC20060318142009603/18/06 14:20:31  5-MIN KSTC 182020Z 04007KT 10SM CLR 02/M12 A3046 530 35 -800 040/07 RMK AO2 $
14926KSTC STC20060318142509603/18/06 14:25:31  5-MIN KSTC 182025Z 02008KT 10SM CLR 03/M12 A3046 530 34 -700 020/08 RMK AO2 $
14926KSTC STC20060318143009603/18/06 14:30:31  5-MIN KSTC 182030Z 01006KT 10SM CLR 03/M12 A3046 530 34 -700 010/06 RMK AO2 $
14926KSTC STC20060318143509603/18/06 14:35:31  5-MIN KSTC 182035Z 05008KT 10SM CLR 03/M11 A3046 530 35 -700 050/08 RMK AO2 $
14926KSTC STC20060318144009603/18/06 14:40:31  5-MIN KSTC 182040Z 04008KT 10SM CLR 03/M12 A3046 530 32 -700 030/08 RMK AO2 $
14926KSTC STC20060318144509603/18/06 14:45:31  5-MIN KSTC 182045Z 00000KT 10SM CLR 03/M13 A3046 530 31 -700 000/00 RMK AO2 $
14926KSTC STC20060318145011903/18/06 14:50:31  5-MIN KSTC 182050Z 04009KT 10SM CLR 03/M12 A3046 530 32 -700 040/09 RMK AO2 SLP338 T00281122 58003 $
14926KSTC STC20060318145509603/18/06 14:55:31  5-MIN KSTC 182055Z 05006KT 10SM CLR 03/M13 A3046 530 31 -700 050/06 RMK AO2 $
14926KSTC STC20060318150009603/18/06 15:00:31  5-MIN KSTC 182100Z 06005KT 10SM CLR 03/M13 A3046 530 29 -700 050/05 RMK AO2 $
14926KSTC STC20060318150509603/18/06 15:05:31  5-MIN KSTC 182105Z 08008KT 10SM CLR 03/M12 A3046 530 32 -700 080/08 RMK AO2 $
14926KSTC STC20060318151009603/18/06 15:10:31  5-MIN KSTC 182110Z 07007KT 10SM CLR 03/M13 A3045 540 29 -700 060/07 RMK AO2 $
14926KSTC STC20060318151511203/18/06 15:15:31  5-MIN KSTC 182115Z 09007KT 060V130 10SM CLR 03/M12 A3045 540 34 -700 090/07 060V130 RMK AO2 $
14926KSTC STC20060318152009603/18/06 15:20:31  5-MIN KSTC 182120Z 07005KT 10SM CLR 03/M12 A3045 540 34 -700 070/05 RMK AO2 $
14926KSTC STC20060318152509603/18/06 15:25:31  5-MIN KSTC 182125Z 00000KT 10SM CLR 03/M12 A3045 540 32 -700 000/00 RMK AO2 $
14926KSTC STC20060318153009603/18/06 15:30:31  5-MIN KSTC 182130Z 04007KT 10SM CLR 03/M13 A3045 540 30 -700 040/07 RMK AO2 $
14926KSTC STC20060318153509603/18/06 15:35:31  5-MIN KSTC 182135Z 08008KT 10SM CLR 03/M13 A3045 540 28 -700 080/08 RMK AO2 $
14926KSTC STC20060318154009603/18/06 15:40:31  5-MIN KSTC 182140Z VRB05KT 10SM CLR 03/M14 A3045 540 28 -700 VRB/05 RMK AO2 $
14926KSTC STC20060318154510103/18/06 15:45:31  5-MIN KSTC 182145Z AUTO VRB05KT 10SM CLR 03/M14 A3045 540 28 -700 VRB/05 RMK AO2 $
14926KSTC STC20060318155011303/18/06 15:50:31  5-MIN KSTC 182150Z VRB06KT 10SM CLR 03/M13 A3045 540 28 -700 VRB/06 RMK AO2 SLP333 T00331133 $
14926KSTC STC20060318155509603/18/06 15:55:31  5-MIN KSTC 182155Z 08010KT 10SM CLR 03/M13 A3045 540 28 -700 080/10 RMK AO2 $
14926KSTC STC20060318160009603/18/06 16:00:31  5-MIN KSTC 182200Z 04008KT 10SM CLR 03/M14 A3044 550 28 -700 040/08 RMK AO2 $
14926KSTC STC20060318160509603/18/06 16:05:31  5-MIN KSTC 182205Z 02007KT 10SM CLR 03/M14 A3044 550 27 -600 020/07 RMK AO2 $
14926KSTC STC20060318161009603/18/06 16:10:31  5-MIN KSTC 182210Z 09006KT 10SM CLR 03/M14 A3044 550 27 -600 090/06 RMK AO2 $
14926KSTC STC20060318161509603/18/06 16:15:31  5-MIN KSTC 182215Z 06007KT 10SM CLR 03/M14 A3044 550 27 -600 050/07 RMK AO2 $
14926KSTC STC20060318162009603/18/06 16:20:31  5-MIN KSTC 182220Z 04008KT 10SM CLR 03/M14 A3044 550 27 -600 040/08 RMK AO2 $
14926KSTC STC20060318162509603/18/06 16:25:31  5-MIN KSTC 182225Z 06007KT 10SM CLR 03/M14 A3044 550 26 -600 060/07 RMK AO2 $
14926KSTC STC20060318163009603/18/06 16:30:31  5-MIN KSTC 182230Z 08008KT 10SM CLR 03/M14 A3044 550 27 -700 080/08 RMK AO2 $
14926KSTC STC20060318163509603/18/06 16:35:31  5-MIN KSTC 182235Z VRB06KT 10SM CLR 03/M14 A3044 550 26 -600 VRB/06 RMK AO2 $
14926KSTC STC20060318164009603/18/06 16:40:31  5-MIN KSTC 182240Z 04006KT 10SM CLR 03/M14 A3044 550 27 -600 040/06 RMK AO2 $
14926KSTC STC20060318164509603/18/06 16:45:31  5-MIN KSTC 182245Z 05006KT 10SM CLR 03/M14 A3044 550 27 -600 050/06 RMK AO2 $
14926KSTC STC20060318165011303/18/06 16:50:31  5-MIN KSTC 182250Z 07007KT 10SM CLR 03/M14 A3043 550 26 -600 070/07 RMK AO2 SLP329 T00331144 $
14926KSTC STC20060318165509603/18/06 16:55:31  5-MIN KSTC 182255Z 07005KT 10SM CLR 03/M14 A3044 550 26 -600 070/05 RMK AO2 $
14926KSTC STC20060318170009603/18/06 17:00:31  5-MIN KSTC 182300Z VRB04KT 10SM CLR 03/M14 A3043 550 27 -600 VRB/04 RMK AO2 $
14926KSTC STC20060318170509603/18/06 17:05:31  5-MIN KSTC 182305Z 05007KT 10SM CLR 03/M14 A3043 560 26 -600 050/07 RMK AO2 $
14926KSTC STC20060318171009603/18/06 17:10:31  5-MIN KSTC 182310Z 05006KT 10SM CLR 03/M14 A3043 560 27 -700 040/06 RMK AO2 $
14926KSTC STC20060318171509603/18/06 17:15:31  5-MIN KSTC 182315Z 08004KT 10SM CLR 03/M14 A3043 560 28 -700 080/04 RMK AO2 $
14926KSTC STC20060318172009603/18/06 17:20:31  5-MIN KSTC 182320Z 09007KT 10SM CLR 03/M14 A3043 560 28 -700 090/07 RMK AO2 $
14926KSTC STC20060318172509603/18/06 17:25:31  5-MIN KSTC 182325Z 09004KT 10SM CLR 03/M14 A3043 560 28 -700 080/04 RMK AO2 $
14926KSTC STC20060318173009603/18/06 17:30:31  5-MIN KSTC 182330Z 09003KT 10SM CLR 03/M14 A3043 560 27 -700 090/03 RMK AO2 $
14926KSTC STC20060318173509603/18/06 17:35:31  5-MIN KSTC 182335Z VRB03KT 10SM CLR 03/M14 A3043 560 27 -700 VRB/03 RMK AO2 $
14926KSTC STC20060318174009603/18/06 17:40:31  5-MIN KSTC 182340Z 09005KT 10SM CLR 03/M14 A3043 560 27 -700 090/05 RMK AO2 $
14926KSTC STC20060318174509603/18/06 17:45:31  5-MIN KSTC 182345Z 09004KT 10SM CLR 03/M14 A3043 560 27 -700 080/04 RMK AO2 $
14926KSTC STC20060318175013103/18/06 17:50:31  5-MIN KSTC 182350Z 09003KT 10SM CLR 02/M14 A3043 560 29 -800 080/03 RMK AO2 SLP328 T00221139 10033 20000 56022 $
14926KSTC STC20060318175509603/18/06 17:55:31  5-MIN KSTC 182355Z 09003KT 10SM CLR 02/M15 A3043 560 27 -800 080/03 RMK AO2 $
14926KSTC STC20060318180009603/18/06 18:00:31  5-MIN KSTC 190000Z 00000KT 10SM CLR 02/M14 A3043 560 28 -800 000/00 RMK AO2 $
14926KSTC STC20060318180509603/18/06 18:05:31  5-MIN KSTC 190005Z 00000KT 10SM CLR 02/M15 A3043 560 27 -800 000/00 RMK AO2 $
14926KSTC STC20060318181009603/18/06 18:10:31  5-MIN KSTC 190010Z 00000KT 10SM CLR 02/M15 A3043 550 27 -800 000/00 RMK AO2 $
14926KSTC STC20060318181509603/18/06 18:15:31  5-MIN KSTC 190015Z 08003KT 10SM CLR 02/M16 A3043 560 27 -800 070/03 RMK AO2 $
14926KSTC STC20060318182009603/18/06 18:20:31  5-MIN KSTC 190020Z 06003KT 10SM CLR 01/M16 A3043 560 28 -900 050/03 RMK AO2 $
14926KSTC STC20060318182509703/18/06 18:25:31  5-MIN KSTC 190025Z 00000KT 10SM CLR 01/M15 A3043 560 30 -1000 000/00 RMK AO2 $
14926KSTC STC20060318183009703/18/06 18:30:31  5-MIN KSTC 190030Z 04003KT 10SM CLR 01/M15 A3043 560 30 -1000 030/03 RMK AO2 $
14926KSTC STC20060318183509703/18/06 18:35:31  5-MIN KSTC 190035Z 03003KT 10SM CLR 00/M14 A3043 560 33 -1100 030/03 RMK AO2 $
14926KSTC STC20060318184009703/18/06 18:40:31  5-MIN KSTC 190040Z 04003KT 10SM CLR 00/M14 A3043 560 34 -1100 030/03 RMK AO2 $
14926KSTC STC20060318184509703/18/06 18:45:31  5-MIN KSTC 190045Z 05003KT 10SM CLR 00/M14 A3043 560 34 -1100 050/03 RMK AO2 $
14926KSTC STC20060318185011403/18/06 18:50:31  5-MIN KSTC 190050Z 05003KT 10SM CLR 00/M14 A3043 560 33 -1100 050/03 RMK AO2 SLP331 T00001144 $
14926KSTC STC20060318185509703/18/06 18:55:31  5-MIN KSTC 190055Z 00000KT 10SM CLR 00/M14 A3043 550 33 -1100 000/00 RMK AO2 $
14926KSTC STC20060318190009703/18/06 19:00:31  5-MIN KSTC 190100Z 00000KT 10SM CLR 00/M14 A3044 550 33 -1100 000/00 RMK AO2 $
14926KSTC STC20060318192509803/18/06 19:25:31  5-MIN KSTC 190125Z 00000KT 10SM CLR M02/M13 A3043 560 44 -1300 000/00 RMK AO2 $
14926KSTC STC20060318193009803/18/06 19:30:31  5-MIN KSTC 190130Z 00000KT 10SM CLR M02/M13 A3043 560 42 -1300 000/00 RMK AO2 $
14926KSTC STC20060318193509803/18/06 19:35:31  5-MIN KSTC 190135Z 04003KT 10SM CLR M02/M13 A3043 550 44 -1300 030/03 RMK AO2 $
14926KSTC STC20060318194009803/18/06 19:40:31  5-MIN KSTC 190140Z 00000KT 10SM CLR M02/M13 A3044 550 44 -1300 000/00 RMK AO2 $
14926KSTC STC20060318194509803/18/06 19:45:31  5-MIN KSTC 190145Z 00000KT 10SM CLR M02/M13 A3044 550 44 -1300 000/00 RMK AO2 $
14926KSTC STC20060318195011503/18/06 19:50:31  5-MIN KSTC 190150Z 00000KT 10SM CLR M02/M13 A3044 550 42 -1300 000/00 RMK AO2 SLP332 T10221133 $
14926KSTC STC20060318195509803/18/06 19:55:31  5-MIN KSTC 190155Z 00000KT 10SM CLR M02/M13 A3044 550 42 -1300 000/00 RMK AO2 $
14926KSTC STC20060318200009803/18/06 20:00:31  5-MIN KSTC 190200Z 00000KT 10SM CLR M02/M13 A3044 550 42 -1300 000/00 RMK AO2 $
14926KSTC STC20060318200509803/18/06 20:05:31  5-MIN KSTC 190205Z 00000KT 10SM CLR M02/M14 A3044 550 39 -1300 000/00 RMK AO2 $
14926KSTC STC20060318201009803/18/06 20:10:31  5-MIN KSTC 190210Z 05003KT 10SM CLR M02/M14 A3044 550 40 -1300 050/03 RMK AO2 $
14926KSTC STC20060318201509803/18/06 20:15:31  5-MIN KSTC 190215Z 06003KT 10SM CLR M03/M13 A3044 550 46 -1500 050/03 RMK AO2 $
14926KSTC STC20060318202009803/18/06 20:20:31  5-MIN KSTC 190220Z 00000KT 10SM CLR M02/M14 A3044 550 40 -1300 000/00 RMK AO2 $
14926KSTC STC20060318202509803/18/06 20:25:31  5-MIN KSTC 190225Z 00000KT 10SM CLR M03/M14 A3044 550 42 -1400 000/00 RMK AO2 $
14926KSTC STC20060318203009803/18/06 20:30:31  5-MIN KSTC 190230Z 00000KT 10SM CLR M04/M12 A3044 550 55 -1600 000/00 RMK AO2 $
14926KSTC STC20060318203509803/18/06 20:35:31  5-MIN KSTC 190235Z 00000KT 10SM CLR M03/M11 A3044 550 55 -1500 000/00 RMK AO2 $
14926KSTC STC20060318204009803/18/06 20:40:31  5-MIN KSTC 190240Z 00000KT 10SM CLR M03/M11 A3044 550 55 -1400 000/00 RMK AO2 $
14926KSTC STC20060318204509803/18/06 20:45:31  5-MIN KSTC 190245Z 00000KT 10SM CLR M03/M11 A3044 540 55 -1500 000/00 RMK AO2 $
14926KSTC STC20060318205012103/18/06 20:50:31  5-MIN KSTC 190250Z 00000KT 10SM CLR M03/M11 A3044 540 57 -1500 000/00 RMK AO2 SLP335 T10331106 56010 $
14926KSTC STC20060318205509803/18/06 20:55:31  5-MIN KSTC 190255Z 00000KT 10SM CLR M03/M11 A3045 540 57 -1500 000/00 RMK AO2 $
14926KSTC STC20060318210009803/18/06 21:00:31  5-MIN KSTC 190300Z 00000KT 10SM CLR M03/M11 A3045 540 55 -1500 000/00 RMK AO2 $
14926KSTC STC20060318210509803/18/06 21:05:31  5-MIN KSTC 190305Z 00000KT 10SM CLR M03/M12 A3045 540 53 -1500 000/00 RMK AO2 $
14926KSTC STC20060318211009803/18/06 21:10:31  5-MIN KSTC 190310Z 00000KT 10SM CLR M04/M12 A3045 540 52 -1600 000/00 RMK AO2 $
14926KSTC STC20060318211509803/18/06 21:15:31  5-MIN KSTC 190315Z 00000KT 10SM CLR M04/M11 A3044 550 57 -1600 000/00 RMK AO2 $
14926KSTC STC20060318212009803/18/06 21:20:31  5-MIN KSTC 190320Z 00000KT 10SM CLR M03/M12 A3045 540 53 -1500 000/00 RMK AO2 $
14926KSTC STC20060318212509803/18/06 21:25:31  5-MIN KSTC 190325Z 00000KT 10SM CLR M04/M13 A3045 540 50 -1600 000/00 RMK AO2 $
14926KSTC STC20060318213009803/18/06 21:30:31  5-MIN KSTC 190330Z 00000KT 10SM CLR M04/M11 A3045 540 62 -1600 000/00 RMK AO2 $
14926KSTC STC20060318213509803/18/06 21:35:31  5-MIN KSTC 190335Z 00000KT 10SM CLR M05/M11 A3045 540 65 -1700 000/00 RMK AO2 $
14926KSTC STC20060318214009803/18/06 21:40:31  5-MIN KSTC 190340Z 00000KT 10SM CLR M06/M10 A3045 540 71 -1800 000/00 RMK AO2 $
14926KSTC STC20060318214509803/18/06 21:45:31  5-MIN KSTC 190345Z 00000KT 10SM CLR M05/M09 A3045 540 71 -1700 000/00 RMK AO2 $
14926KSTC STC20060318215011503/18/06 21:50:31  5-MIN KSTC 190350Z 00000KT 10SM CLR M05/M09 A3045 540 74 -1700 000/00 RMK AO2 SLP337 T10501089 $
14926KSTC STC20060318215509803/18/06 21:55:31  5-MIN KSTC 190355Z 36003KT 10SM CLR M05/M09 A3045 540 71 -1700 360/03 RMK AO2 $
14926KSTC STC20060318220009803/18/06 22:00:31  5-MIN KSTC 190400Z 36003KT 10SM CLR M05/M09 A3045 540 71 -1700 360/03 RMK AO2 $
14926KSTC STC20060318220509803/18/06 22:05:31  5-MIN KSTC 190405Z 36003KT 10SM CLR M06/M10 A3045 540 71 -1800 360/03 RMK AO2 $
14926KSTC STC20060318221009803/18/06 22:10:31  5-MIN KSTC 190410Z 36004KT 10SM CLR M06/M10 A3045 540 71 -1800 360/04 RMK AO2 $
14926KSTC STC20060318221509803/18/06 22:15:31  5-MIN KSTC 190415Z 01003KT 10SM CLR M06/M09 A3045 540 77 -1800 010/03 RMK AO2 $
14926KSTC STC20060318222009803/18/06 22:20:31  5-MIN KSTC 190420Z 00000KT 10SM CLR M05/M10 A3045 540 68 -1700 000/00 RMK AO2 $
14926KSTC STC20060318222509803/18/06 22:25:31  5-MIN KSTC 190425Z 01003KT 10SM CLR M05/M11 A3045 540 65 -1700 010/03 RMK AO2 $
14926KSTC STC20060318223009803/18/06 22:30:31  5-MIN KSTC 190430Z 01004KT 10SM CLR M06/M11 A3045 540 68 -1800 010/04 RMK AO2 $
14926KSTC STC20060318223509803/18/06 22:35:31  5-MIN KSTC 190435Z 02004KT 10SM CLR M06/M11 A3045 540 68 -1800 020/04 RMK AO2 $
14926KSTC STC20060318224009803/18/06 22:40:31  5-MIN KSTC 190440Z 03003KT 10SM CLR M05/M11 A3046 540 62 -1700 030/03 RMK AO2 $
14926KSTC STC20060318224509803/18/06 22:45:31  5-MIN KSTC 190445Z 04004KT 10SM CLR M04/M11 A3046 530 60 -1600 040/04 RMK AO2 $
14926KSTC STC20060318225011503/18/06 22:50:31  5-MIN KSTC 190450Z 04003KT 10SM CLR M04/M12 A3046 530 55 -1600 030/03 RMK AO2 SLP338 T10441122 $
14926KSTC STC20060318225509803/18/06 22:55:31  5-MIN KSTC 190455Z 00000KT 10SM CLR M04/M12 A3046 530 55 -1600 000/00 RMK AO2 $
14926KSTC STC20060318230010303/18/06 23:00:31  5-MIN KSTC 190500Z AUTO 00000KT 10SM CLR M04/M11 A3046 530 60 -1600 000/00 RMK AO2 $
14926KSTC STC20060318230510303/18/06 23:05:31  5-MIN KSTC 190505Z AUTO 00000KT 10SM CLR M04/M11 A3046 530 60 -1600 000/00 RMK AO2 $
14926KSTC STC20060318231010303/18/06 23:10:31  5-MIN KSTC 190510Z AUTO 03003KT 10SM CLR M06/M11 A3046 530 65 -1800 020/03 RMK AO2 $
14926KSTC STC20060318231510303/18/06 23:15:31  5-MIN KSTC 190515Z AUTO 02003KT 10SM CLR M06/M11 A3046 530 65 -1800 020/03 RMK AO2 $
14926KSTC STC20060318232010303/18/06 23:20:31  5-MIN KSTC 190520Z AUTO 02004KT 10SM CLR M05/M11 A3046 530 62 -1700 020/04 RMK AO2 $
14926KSTC STC20060318232510303/18/06 23:25:31  5-MIN KSTC 190525Z AUTO 04003KT 10SM CLR M06/M11 A3046 530 71 -1900 030/03 RMK AO2 $
14926KSTC STC20060318233010303/18/06 23:30:31  5-MIN KSTC 190530Z AUTO 03004KT 10SM CLR M06/M11 A3046 530 68 -1900 030/04 RMK AO2 $
14926KSTC STC20060318233510303/18/06 23:35:31  5-MIN KSTC 190535Z AUTO 03004KT 10SM CLR M06/M12 A3046 530 62 -1800 030/04 RMK AO2 $
14926KSTC STC20060318234010303/18/06 23:40:31  5-MIN KSTC 190540Z AUTO 03005KT 10SM CLR M04/M12 A3046 530 55 -1600 030/05 RMK AO2 $
14926KSTC STC20060318234510303/18/06 23:45:31  5-MIN KSTC 190545Z AUTO 03005KT 10SM CLR M04/M13 A3046 530 52 -1600 030/05 RMK AO2 $
14926KSTC STC20060318235014803/18/06 23:50:31  5-MIN KSTC 190550Z AUTO 04005KT 10SM CLR M04/M13 A3045 540 50 -1600 030/05 RMK AO2 SLP336 T10391128 10022 21061 400331083 53006 $
14926KSTC STC20060318235510303/18/06 23:55:31  5-MIN KSTC 190555Z AUTO 04006KT 10SM CLR M04/M12 A3045 540 52 -1600 030/06 RMK AO2 $
14926KSTC STC20060319000010303/19/06 00:00:32  5-MIN KSTC 190600Z AUTO 04006KT 10SM CLR M03/M12 A3046 530 50 -1500 040/06 RMK AO2 $
14926KSTC STC20060319000510303/19/06 00:05:31  5-MIN KSTC 190605Z AUTO 04006KT 10SM CLR M03/M12 A3045 540 50 -1500 040/06 RMK AO2 $
14926KSTC STC20060319001010303/19/06 00:10:31  5-MIN KSTC 190610Z AUTO 05006KT 10SM CLR M03/M12 A3045 540 50 -1500 040/06 RMK AO2 $
14926KSTC STC20060319001510303/19/06 00:15:31  5-MIN KSTC 190615Z AUTO 05005KT 10SM CLR M03/M12 A3046 540 50 -1500 040/05 RMK AO2 $
14926KSTC STC20060319002010303/19/06 00:20:31  5-MIN KSTC 190620Z AUTO 04005KT 10SM CLR M03/M12 A3045 540 50 -1500 040/05 RMK AO2 $
14926KSTC STC20060319002510303/19/06 00:25:31  5-MIN KSTC 190625Z AUTO 04005KT 10SM CLR M03/M12 A3046 530 50 -1500 040/05 RMK AO2 $
14926KSTC STC20060319003010303/19/06 00:30:31  5-MIN KSTC 190630Z AUTO 04005KT 10SM CLR M03/M12 A3046 530 50 -1500 040/05 RMK AO2 $
14926KSTC STC20060319003510303/19/06 00:35:31  5-MIN KSTC 190635Z AUTO 04006KT 10SM CLR M03/M13 A3046 530 48 -1500 040/06 RMK AO2 $
14926KSTC STC20060319004010303/19/06 00:40:31  5-MIN KSTC 190640Z AUTO 04005KT 10SM CLR M03/M13 A3046 530 48 -1500 040/05 RMK AO2 $
14926KSTC STC20060319004510303/19/06 00:45:31  5-MIN KSTC 190645Z AUTO 05005KT 10SM CLR M03/M12 A3046 530 50 -1500 040/05 RMK AO2 $
14926KSTC STC20060319005012003/19/06 00:50:31  5-MIN KSTC 190650Z AUTO 04005KT 10SM CLR M03/M12 A3047 520 50 -1500 040/05 RMK AO2 SLP340 T10331122 $
14926KSTC STC20060319005510303/19/06 00:55:31  5-MIN KSTC 190655Z AUTO 04005KT 10SM CLR M03/M12 A3047 520 50 -1500 040/05 RMK AO2 $
14926KSTC STC20060319010010303/19/06 01:00:31  5-MIN KSTC 190700Z AUTO 04006KT 10SM CLR M03/M12 A3047 520 50 -1500 040/06 RMK AO2 $
14926KSTC STC20060319010510303/19/06 01:05:31  5-MIN KSTC 190705Z AUTO 04007KT 10SM CLR M03/M12 A3047 520 50 -1500 040/07 RMK AO2 $
14926KSTC STC20060319011010303/19/06 01:10:31  5-MIN KSTC 190710Z AUTO 04006KT 10SM CLR M03/M12 A3047 520 50 -1500 040/06 RMK AO2 $
14926KSTC STC20060319011510303/19/06 01:15:31  5-MIN KSTC 190715Z AUTO 05006KT 10SM CLR M03/M12 A3047 520 50 -1500 040/06 RMK AO2 $
14926KSTC STC20060319012010303/19/06 01:20:31  5-MIN KSTC 190720Z AUTO 04006KT 10SM CLR M04/M12 A3047 520 52 -1600 040/06 RMK AO2 $
14926KSTC STC20060319012510303/19/06 01:25:31  5-MIN KSTC 190725Z AUTO 04007KT 10SM CLR M03/M12 A3047 520 50 -1500 040/07 RMK AO2 $
14926KSTC STC20060319013010303/19/06 01:30:31  5-MIN KSTC 190730Z AUTO 04007KT 10SM CLR M03/M12 A3047 520 50 -1500 040/07 RMK AO2 $
14926KSTC STC20060319013510303/19/06 01:35:31  5-MIN KSTC 190735Z AUTO 05007KT 10SM CLR M03/M12 A3047 520 50 -1500 040/07 RMK AO2 $
14926KSTC STC20060319014010303/19/06 01:40:31  5-MIN KSTC 190740Z AUTO 05007KT 10SM CLR M03/M12 A3047 520 50 -1500 040/07 RMK AO2 $
14926KSTC STC20060319014510303/19/06 01:45:31  5-MIN KSTC 190745Z AUTO 05007KT 10SM CLR M03/M12 A3047 520 50 -1500 040/07 RMK AO2 $
14926KSTC STC20060319015012003/19/06 01:50:31  5-MIN KSTC 190750Z AUTO 05007KT 10SM CLR M03/M12 A3047 520 50 -1500 040/07 RMK AO2 SLP340 T10331122 $
14926KSTC STC20060319015510303/19/06 01:55:31  5-MIN KSTC 190755Z AUTO 05006KT 10SM CLR M03/M12 A3047 520 50 -1500 050/06 RMK AO2 $
14926KSTC STC20060319020010303/19/06 02:00:31  5-MIN KSTC 190800Z AUTO 05006KT 10SM CLR M03/M12 A3047 520 50 -1500 050/06 RMK AO2 $
14926KSTC STC20060319020510303/19/06 02:05:31  5-MIN KSTC 190805Z AUTO 05005KT 10SM CLR M04/M12 A3047 520 52 -1600 050/05 RMK AO2 $
14926KSTC STC20060319021010303/19/06 02:10:31  5-MIN KSTC 190810Z AUTO 05005KT 10SM CLR M04/M12 A3047 520 52 -1600 050/05 RMK AO2 $
14926KSTC STC20060319021510303/19/06 02:15:31  5-MIN KSTC 190815Z AUTO 05006KT 10SM CLR M04/M12 A3046 530 52 -1600 050/06 RMK AO2 $
14926KSTC STC20060319022010303/19/06 02:20:31  5-MIN KSTC 190820Z AUTO 06005KT 10SM CLR M04/M13 A3046 530 50 -1600 050/05 RMK AO2 $
14926KSTC STC20060319022510303/19/06 02:25:31  5-MIN KSTC 190825Z AUTO 05005KT 10SM CLR M04/M13 A3046 530 50 -1600 050/05 RMK AO2 $
14926KSTC STC20060319023010303/19/06 02:30:31  5-MIN KSTC 190830Z AUTO 05004KT 10SM CLR M04/M13 A3046 530 50 -1600 050/04 RMK AO2 $
14926KSTC STC20060319023510303/19/06 02:35:31  5-MIN KSTC 190835Z AUTO 05004KT 10SM CLR M04/M13 A3046 530 52 -1600 050/04 RMK AO2 $
14926KSTC STC20060319024010303/19/06 02:40:31  5-MIN KSTC 190840Z AUTO 05005KT 10SM CLR M04/M13 A3046 530 52 -1600 040/05 RMK AO2 $
14926KSTC STC20060319024510303/19/06 02:45:31  5-MIN KSTC 190845Z AUTO 05006KT 10SM CLR M04/M13 A3045 540 52 -1600 040/06 RMK AO2 $
14926KSTC STC20060319025012603/19/06 02:50:31  5-MIN KSTC 190850Z AUTO 05006KT 10SM CLR M04/M12 A3045 540 55 -1600 040/06 RMK AO2 SLP333 T10441122 50002 $
14926KSTC STC20060319025510303/19/06 02:55:31  5-MIN KSTC 190855Z AUTO 05007KT 10SM CLR M04/M12 A3045 540 52 -1600 040/07 RMK AO2 $
14926KSTC STC20060319030010303/19/06 03:00:31  5-MIN KSTC 190900Z AUTO 04006KT 10SM CLR M04/M12 A3044 550 52 -1600 040/06 RMK AO2 $
14926KSTC STC20060319030510303/19/06 03:05:31  5-MIN KSTC 190905Z AUTO 05007KT 10SM CLR M04/M12 A3044 550 52 -1600 040/07 RMK AO2 $
14926KSTC STC20060319031010303/19/06 03:10:31  5-MIN KSTC 190910Z AUTO 05007KT 10SM CLR M04/M12 A3044 550 55 -1600 040/07 RMK AO2 $
14926KSTC STC20060319031510303/19/06 03:15:31  5-MIN KSTC 190915Z AUTO 05007KT 10SM CLR M04/M12 A3044 550 52 -1600 050/07 RMK AO2 $
14926KSTC STC20060319032010303/19/06 03:20:31  5-MIN KSTC 190920Z AUTO 05006KT 10SM CLR M04/M12 A3044 550 55 -1600 050/06 RMK AO2 $
14926KSTC STC20060319032510303/19/06 03:25:31  5-MIN KSTC 190925Z AUTO 05006KT 10SM CLR M04/M12 A3044 550 55 -1600 050/06 RMK AO2 $
14926KSTC STC20060319033010303/19/06 03:30:31  5-MIN KSTC 190930Z AUTO 05005KT 10SM CLR M04/M12 A3044 540 55 -1600 040/05 RMK AO2 $
14926KSTC STC20060319033510303/19/06 03:35:31  5-MIN KSTC 190935Z AUTO 05006KT 10SM CLR M04/M12 A3044 540 55 -1600 040/06 RMK AO2 $
14926KSTC STC20060319034010303/19/06 03:40:31  5-MIN KSTC 190940Z AUTO 05005KT 10SM CLR M04/M12 A3045 540 55 -1600 050/05 RMK AO2 $
14926KSTC STC20060319034510303/19/06 03:45:31  5-MIN KSTC 190945Z AUTO 05005KT 10SM CLR M04/M12 A3045 540 55 -1600 050/05 RMK AO2 $
14926KSTC STC20060319035012003/19/06 03:50:31  5-MIN KSTC 190950Z AUTO 05006KT 10SM CLR M04/M12 A3045 540 55 -1600 050/06 RMK AO2 SLP333 T10441122 $
14926KSTC STC20060319035510303/19/06 03:55:31  5-MIN KSTC 190955Z AUTO 05005KT 10SM CLR M04/M13 A3045 540 52 -1600 050/05 RMK AO2 $
14926KSTC STC20060319040010303/19/06 04:00:31  5-MIN KSTC 191000Z AUTO 04005KT 10SM CLR M04/M13 A3045 540 52 -1600 040/05 RMK AO2 $
14926KSTC STC20060319040510303/19/06 04:05:31  5-MIN KSTC 191005Z AUTO 04005KT 10SM CLR M04/M13 A3045 540 52 -1600 040/05 RMK AO2 $
14926KSTC STC20060319041010303/19/06 04:10:31  5-MIN KSTC 191010Z AUTO 04005KT 10SM CLR M05/M13 A3045 540 55 -1700 040/05 RMK AO2 $
14926KSTC STC20060319041510303/19/06 04:15:31  5-MIN KSTC 191015Z AUTO 04005KT 10SM CLR M04/M12 A3045 540 55 -1600 030/05 RMK AO2 $
14926KSTC STC20060319042010303/19/06 04:20:31  5-MIN KSTC 191020Z AUTO 04006KT 10SM CLR M05/M12 A3044 540 57 -1700 040/06 RMK AO2 $
14926KSTC STC20060319042510303/19/06 04:25:31  5-MIN KSTC 191025Z AUTO 04006KT 10SM CLR M05/M12 A3044 550 57 -1700 040/06 RMK AO2 $
14926KSTC STC20060319043010303/19/06 04:30:31  5-MIN KSTC 191030Z AUTO 04007KT 10SM CLR M04/M13 A3044 550 52 -1600 040/07 RMK AO2 $
14926KSTC STC20060319043510303/19/06 04:35:31  5-MIN KSTC 191035Z AUTO 04006KT 10SM CLR M04/M13 A3044 550 52 -1600 040/06 RMK AO2 $
14926KSTC STC20060319044010303/19/06 04:40:31  5-MIN KSTC 191040Z AUTO 04007KT 10SM CLR M05/M13 A3044 550 55 -1700 030/07 RMK AO2 $
14926KSTC STC20060319044510303/19/06 04:45:31  5-MIN KSTC 191045Z AUTO 04008KT 10SM CLR M05/M13 A3044 550 55 -1700 040/08 RMK AO2 $
14926KSTC STC20060319045012003/19/06 04:50:31  5-MIN KSTC 191050Z AUTO 04008KT 10SM CLR M05/M13 A3044 550 55 -1700 040/08 RMK AO2 SLP329 T10501128 $
14926KSTC STC20060319045510303/19/06 04:55:31  5-MIN KSTC 191055Z AUTO 04010KT 10SM CLR M04/M13 A3044 550 52 -1600 040/10 RMK AO2 $
14926KSTC STC20060319050010303/19/06 05:00:31  5-MIN KSTC 191100Z AUTO 04009KT 10SM CLR M04/M13 A3044 550 52 -1600 040/09 RMK AO2 $
14926KSTC STC20060319050510303/19/06 05:05:31  5-MIN KSTC 191105Z AUTO 04007KT 10SM CLR M04/M13 A3044 550 52 -1600 040/07 RMK AO2 $
14926KSTC STC20060319051010303/19/06 05:10:31  5-MIN KSTC 191110Z AUTO 04008KT 10SM CLR M04/M13 A3044 550 52 -1600 040/08 RMK AO2 $
14926KSTC STC20060319051510303/19/06 05:15:31  5-MIN KSTC 191115Z AUTO 04008KT 10SM CLR M04/M13 A3043 560 52 -1600 040/08 RMK AO2 $
14926KSTC STC20060319052010303/19/06 05:20:31  5-MIN KSTC 191120Z AUTO 04010KT 10SM CLR M04/M13 A3043 560 52 -1600 040/10 RMK AO2 $
14926KSTC STC20060319052510303/19/06 05:25:31  5-MIN KSTC 191125Z AUTO 04009KT 10SM CLR M04/M13 A3043 560 52 -1600 040/09 RMK AO2 $
14926KSTC STC20060319053010303/19/06 05:30:31  5-MIN KSTC 191130Z AUTO 05009KT 10SM CLR M05/M13 A3043 560 55 -1700 040/09 RMK AO2 $
14926KSTC STC20060319053510303/19/06 05:35:31  5-MIN KSTC 191135Z AUTO 04008KT 10SM CLR M05/M13 A3043 560 55 -1700 040/08 RMK AO2 $
14926KSTC STC20060319054010303/19/06 05:40:31  5-MIN KSTC 191140Z AUTO 04009KT 10SM CLR M05/M13 A3043 560 55 -1700 040/09 RMK AO2 $
14926KSTC STC20060319054510303/19/06 05:45:31  5-MIN KSTC 191145Z AUTO 05009KT 10SM CLR M05/M13 A3043 560 55 -1700 040/09 RMK AO2 $
14926KSTC STC20060319055013803/19/06 05:50:31  5-MIN KSTC 191150Z AUTO 05008KT 10SM CLR M05/M13 A3043 560 55 -1700 040/08 RMK AO2 SLP326 T10501128 11033 21050 58002 $
14926KSTC STC20060319055510303/19/06 05:55:31  5-MIN KSTC 191155Z AUTO 05005KT 10SM CLR M05/M13 A3043 560 55 -1700 040/05 RMK AO2 $
14926KSTC STC20060319060010303/19/06 06:00:31  5-MIN KSTC 191200Z AUTO 04006KT 10SM CLR M05/M13 A3043 560 55 -1700 040/06 RMK AO2 $
14926KSTC STC20060319060510303/19/06 06:05:31  5-MIN KSTC 191205Z AUTO 05005KT 10SM CLR M05/M13 A3043 550 55 -1700 040/05 RMK AO2 $
14926KSTC STC20060319061010303/19/06 06:10:31  5-MIN KSTC 191210Z AUTO 06004KT 10SM CLR M05/M13 A3043 550 55 -1700 050/04 RMK AO2 $
14926KSTC STC20060319061510703/19/06 06:15:31  5-MIN KSTC 191215Z AUTO 04004KT 10SM CLR M05/M13 A3044 550 55 -1700 040/04 RMK AO2 PNO $
14926KSTC STC20060319062010303/19/06 06:20:31  5-MIN KSTC 191220Z AUTO 06004KT 10SM CLR M05/M13 A3043 560 55 -1700 050/04 RMK AO2 $
14926KSTC STC20060319062510303/19/06 06:25:31  5-MIN KSTC 191225Z AUTO 06003KT 10SM CLR M06/M13 A3044 550 57 -1800 050/03 RMK AO2 $
14926KSTC STC20060319063010303/19/06 06:30:31  5-MIN KSTC 191230Z AUTO VRB03KT 10SM CLR M05/M13 A3044 550 55 -1700 VRB/03 RMK AO2 $
14926KSTC STC20060319063510303/19/06 06:35:31  5-MIN KSTC 191235Z AUTO 05004KT 10SM CLR M06/M13 A3044 550 57 -1800 050/04 RMK AO2 $
14926KSTC STC20060319064010303/19/06 06:40:31  5-MIN KSTC 191240Z AUTO 00000KT 10SM CLR M05/M13 A3045 540 55 -1700 000/00 RMK AO2 $
14926KSTC STC20060319064510303/19/06 06:45:31  5-MIN KSTC 191245Z AUTO VRB03KT 10SM CLR M05/M13 A3044 550 55 -1700 VRB/03 RMK AO2 $
14926KSTC STC20060319065012003/19/06 06:50:31  5-MIN KSTC 191250Z AUTO 00000KT 10SM CLR M05/M13 A3044 550 55 -1700 000/00 RMK AO2 SLP333 T10501128 $
14926KSTC STC20060319065510303/19/06 06:55:31  5-MIN KSTC 191255Z AUTO 00000KT 10SM CLR M05/M13 A3045 540 55 -1700 000/00 RMK AO2 $
14926KSTC STC20060319070010303/19/06 07:00:31  5-MIN KSTC 191300Z AUTO 00000KT 10SM CLR M05/M13 A3045 540 55 -1700 000/00 RMK AO2 $
14926KSTC STC20060319070509803/19/06 07:05:31  5-MIN KSTC 191305Z 00000KT 10SM CLR M05/M13 A3045 540 55 -1700 000/00 RMK AO2 $
14926KSTC STC20060319071009803/19/06 07:10:31  5-MIN KSTC 191310Z 05003KT 10SM CLR M05/M13 A3045 540 55 -1700 050/03 RMK AO2 $
14926KSTC STC20060319071509803/19/06 07:15:31  5-MIN KSTC 191315Z 05004KT 10SM CLR M05/M13 A3045 540 55 -1700 050/04 RMK AO2 $
14926KSTC STC20060319072009803/19/06 07:20:31  5-MIN KSTC 191320Z 04005KT 10SM CLR M04/M13 A3045 540 52 -1600 040/05 RMK AO2 $
14926KSTC STC20060319072509803/19/06 07:25:31  5-MIN KSTC 191325Z 04004KT 10SM CLR M04/M13 A3046 540 52 -1600 040/04 RMK AO2 $
14926KSTC STC20060319073009803/19/06 07:30:31  5-MIN KSTC 191330Z 04005KT 10SM CLR M04/M13 A3046 530 52 -1600 040/05 RMK AO2 $
14926KSTC STC20060319073509803/19/06 07:35:31  5-MIN KSTC 191335Z 03004KT 10SM CLR M04/M12 A3046 530 52 -1600 030/04 RMK AO2 $
14926KSTC STC20060319074009803/19/06 07:40:31  5-MIN KSTC 191340Z VRB04KT 10SM CLR M04/M12 A3046 530 52 -1600 VRB/04 RMK AO2 $
14926KSTC STC20060319074509803/19/06 07:45:31  5-MIN KSTC 191345Z 05005KT 10SM CLR M04/M12 A3046 530 52 -1600 040/05 RMK AO2 $
14926KSTC STC20060319075011503/19/06 07:50:31  5-MIN KSTC 191350Z 04005KT 10SM CLR M04/M12 A3047 530 52 -1600 040/05 RMK AO2 SLP341 T10391122 $
14926KSTC STC20060319075509803/19/06 07:55:31  5-MIN KSTC 191355Z VRB04KT 10SM CLR M03/M12 A3047 520 50 -1500 VRB/04 RMK AO2 $
14926KSTC STC20060319080009803/19/06 08:00:31  5-MIN KSTC 191400Z 06005KT 10SM CLR M03/M12 A3046 530 50 -1500 060/05 RMK AO2 $
14926KSTC STC20060319080509803/19/06 08:05:31  5-MIN KSTC 191405Z 06005KT 10SM CLR M03/M12 A3046 530 50 -1500 060/05 RMK AO2 $
14926KSTC STC20060319081009803/19/06 08:10:31  5-MIN KSTC 191410Z 05007KT 10SM CLR M03/M12 A3046 530 50 -1500 050/07 RMK AO2 $
14926KSTC STC20060319081509803/19/06 08:15:31  5-MIN KSTC 191415Z 06005KT 10SM CLR M03/M12 A3046 530 48 -1400 060/05 RMK AO2 $
14926KSTC STC20060319082009803/19/06 08:20:31  5-MIN KSTC 191420Z 09006KT 10SM CLR M03/M12 A3046 530 50 -1400 080/06 RMK AO2 $
14926KSTC STC20060319082509803/19/06 08:25:31  5-MIN KSTC 191425Z 07005KT 10SM CLR M03/M12 A3046 530 50 -1400 070/05 RMK AO2 $
14926KSTC STC20060319083009803/19/06 08:30:31  5-MIN KSTC 191430Z 08005KT 10SM CLR M03/M12 A3046 530 50 -1400 080/05 RMK AO2 $
14926KSTC STC20060319083509803/19/06 08:35:31  5-MIN KSTC 191435Z 09003KT 10SM CLR M02/M12 A3046 530 48 -1400 090/03 RMK AO2 $
14926KSTC STC20060319084009803/19/06 08:40:31  5-MIN KSTC 191440Z 09003KT 10SM CLR M03/M12 A3046 530 50 -1400 090/03 RMK AO2 $
14926KSTC STC20060319084509803/19/06 08:45:31  5-MIN KSTC 191445Z VRB03KT 10SM CLR M03/M12 A3046 530 50 -1400 VRB/03 RMK AO2 $
14926KSTC STC20060319085012103/19/06 08:50:31  5-MIN KSTC 191450Z VRB03KT 10SM CLR M02/M12 A3046 530 48 -1400 VRB/03 RMK AO2 SLP339 T10221117 58006 $
14926KSTC STC20060319085509803/19/06 08:55:31  5-MIN KSTC 191455Z VRB04KT 10SM CLR M02/M12 A3046 530 46 -1300 VRB/04 RMK AO2 $
14926KSTC STC20060319090009803/19/06 09:00:31  5-MIN KSTC 191500Z 04004KT 10SM CLR M02/M12 A3046 530 46 -1300 040/04 RMK AO2 $
14926KSTC STC20060319090509803/19/06 09:05:31  5-MIN KSTC 191505Z VRB04KT 10SM CLR M02/M12 A3046 530 46 -1300 VRB/04 RMK AO2 $
14926KSTC STC20060319091009803/19/06 09:10:31  5-MIN KSTC 191510Z 05004KT 10SM CLR M02/M12 A3046 530 46 -1300 040/04 RMK AO2 $
14926KSTC STC20060319091509803/19/06 09:15:31  5-MIN KSTC 191515Z VRB04KT 10SM CLR M01/M11 A3046 530 47 -1200 VRB/04 RMK AO2 $
14926KSTC STC20060319092009803/19/06 09:20:31  5-MIN KSTC 191520Z 02004KT 10SM CLR M01/M12 A3046 530 45 -1200 020/04 RMK AO2 $
14926KSTC STC20060319092509803/19/06 09:25:31  5-MIN KSTC 191525Z 04006KT 10SM CLR M01/M12 A3045 540 45 -1200 030/06 RMK AO2 $
14926KSTC STC20060319093009803/19/06 09:30:31  5-MIN KSTC 191530Z 03004KT 10SM CLR M01/M12 A3045 540 45 -1200 020/04 RMK AO2 $
14926KSTC STC20060319093509803/19/06 09:35:31  5-MIN KSTC 191535Z VRB05KT 10SM CLR M01/M12 A3046 530 43 -1100 VRB/05 RMK AO2 $
14926KSTC STC20060319094009803/19/06 09:40:31  5-MIN KSTC 191540Z 05007KT 10SM CLR M01/M12 A3046 530 41 -1200 040/07 RMK AO2 $
14926KSTC STC20060319094509803/19/06 09:45:31  5-MIN KSTC 191545Z 02005KT 10SM CLR M01/M12 A3046 530 43 -1100 020/05 RMK AO2 $
14926KSTC STC20060319095011503/19/06 09:50:31  5-MIN KSTC 191550Z 36006KT 10SM CLR M01/M12 A3046 530 43 -1100 360/06 RMK AO2 SLP338 T10061117 $
14926KSTC STC20060319095509703/19/06 09:55:31  5-MIN KSTC 191555Z 05004KT 10SM CLR 00/M12 A3046 530 41 -1100 050/04 RMK AO2 $
14926KSTC STC20060319100009703/19/06 10:00:31  5-MIN KSTC 191600Z 05006KT 10SM CLR 00/M12 A3045 540 39 -1100 040/06 RMK AO2 $
14926KSTC STC20060319100509703/19/06 10:05:31  5-MIN KSTC 191605Z 06006KT 10SM CLR 00/M13 A3045 540 38 -1100 050/06 RMK AO2 $
14926KSTC STC20060319101009703/19/06 10:10:31  5-MIN KSTC 191610Z 04007KT 10SM CLR 01/M13 A3045 540 36 -1000 040/07 RMK AO2 $
14926KSTC STC20060319101509703/19/06 10:15:31  5-MIN KSTC 191615Z 04007KT 10SM CLR 01/M13 A3045 540 36 -1000 030/07 RMK AO2 $
14926KSTC STC20060319102009703/19/06 10:20:31  5-MIN KSTC 191620Z 02008KT 10SM CLR 01/M13 A3045 540 36 -1000 010/08 RMK AO2 $
14926KSTC STC20060319102509603/19/06 10:25:31  5-MIN KSTC 191625Z 02007KT 10SM CLR 01/M13 A3045 540 35 -900 020/07 RMK AO2 $
14926KSTC STC20060319103009703/19/06 10:30:31  5-MIN KSTC 191630Z 06008KT 10SM CLR 01/M13 A3045 540 35 -1000 060/08 RMK AO2 $
14926KSTC STC20060319103509703/19/06 10:35:31  5-MIN KSTC 191635Z VRB06KT 10SM CLR 01/M13 A3045 540 35 -1000 VRB/06 RMK AO2 $
14926KSTC STC20060319104009603/19/06 10:40:31  5-MIN KSTC 191640Z 05007KT 10SM CLR 01/M13 A3045 540 33 -900 050/07 RMK AO2 $
14926KSTC STC20060319104509603/19/06 10:45:31  5-MIN KSTC 191645Z 06007KT 10SM CLR 01/M13 A3045 540 33 -900 050/07 RMK AO2 $
14926KSTC STC20060319105011303/19/06 10:50:31  5-MIN KSTC 191650Z 03007KT 10SM CLR 01/M13 A3045 540 33 -900 020/07 RMK AO2 SLP334 T00111133 $
14926KSTC STC20060319105509603/19/06 10:55:31  5-MIN KSTC 191655Z 04005KT 10SM CLR 01/M14 A3045 540 32 -900 040/05 RMK AO2 $
14926KSTC STC20060319110009603/19/06 11:00:31  5-MIN KSTC 191700Z VRB04KT 10SM CLR 02/M15 A3045 540 28 -900 VRB/04 RMK AO2 $
14926KSTC STC20060319110509603/19/06 11:05:31  5-MIN KSTC 191705Z 06005KT 10SM CLR 02/M15 A3045 540 28 -900 050/05 RMK AO2 $
14926KSTC STC20060319111009603/19/06 11:10:31  5-MIN KSTC 191710Z 09007KT 10SM CLR 02/M14 A3045 540 29 -900 090/07 RMK AO2 $
14926KSTC STC20060319111511203/19/06 11:15:31  5-MIN KSTC 191715Z 05007KT 010V090 10SM CLR 02/M16 A3045 540 27 -900 050/07 010V090 RMK AO2 $
14926KSTC STC20060319112011203/19/06 11:20:31  5-MIN KSTC 191720Z 03008KT 360V070 10SM CLR 02/M15 A3045 540 27 -800 020/08 360V070 RMK AO2 $
14926KSTC STC20060319112511203/19/06 11:25:31  5-MIN KSTC 191725Z 04008KT 020V080 10SM CLR 02/M15 A3044 550 27 -800 040/08 020V080 RMK AO2 $
14926KSTC STC20060319113011203/19/06 11:30:31  5-MIN KSTC 191730Z 07008KT 030V110 10SM CLR 02/M16 A3044 550 26 -800 060/08 030V110 RMK AO2 $
14926KSTC STC20060319113509603/19/06 11:35:31  5-MIN KSTC 191735Z 05005KT 10SM CLR 02/M16 A3044 550 26 -800 040/05 RMK AO2 $
14926KSTC STC20060319114009603/19/06 11:40:31  5-MIN KSTC 191740Z 08005KT 10SM CLR 03/M14 A3044 550 27 -700 080/05 RMK AO2 $
14926KSTC STC20060319114509603/19/06 11:45:31  5-MIN KSTC 191745Z 03005KT 10SM CLR 03/M14 A3043 560 27 -700 030/05 RMK AO2 $
14926KSTC STC20060319115014703/19/06 11:50:31  5-MIN KSTC 191750Z 03008KT 360V070 10SM CLR 03/M14 A3043 550 27 -700 030/08 360V070 RMK AO2 SLP328 T00281144 10033 21056 50011 $
14926KSTC STC20060319115509603/19/06 11:55:31  5-MIN KSTC 191755Z 03006KT 10SM CLR 03/M14 A3043 560 26 -600 030/06 RMK AO2 $
14926KSTC STC20060319120009603/19/06 12:00:31  5-MIN KSTC 191800Z 04010KT 10SM CLR 03/M14 A3043 560 26 -600 040/10 RMK AO2 $
14926KSTC STC20060319120509603/19/06 12:05:31  5-MIN KSTC 191805Z 03010KT 10SM CLR 03/M16 A3043 560 25 -700 030/10 RMK AO2 $
14926KSTC STC20060319121009603/19/06 12:10:31  5-MIN KSTC 191810Z 06009KT 10SM CLR 03/M16 A3043 560 25 -700 060/09 RMK AO2 $
14926KSTC STC20060319121511203/19/06 12:15:31  5-MIN KSTC 191815Z 07007KT 030V110 10SM CLR 03/M16 A3043 560 24 -600 060/07 030V110 RMK AO2 $
14926KSTC STC20060319122009603/19/06 12:20:31  5-MIN KSTC 191820Z 03008KT 10SM CLR 03/M15 A3042 570 25 -600 030/08 RMK AO2 $
14926KSTC STC20060319122509603/19/06 12:25:31  5-MIN KSTC 191825Z 03009KT 10SM CLR 03/M15 A3042 570 25 -600 030/09 RMK AO2 $
14926KSTC STC20060319123009603/19/06 12:30:31  5-MIN KSTC 191830Z 03009KT 10SM CLR 04/M15 A3042 570 24 -600 030/09 RMK AO2 $
14926KSTC STC20060319123509603/19/06 12:35:31  5-MIN KSTC 191835Z 04009KT 10SM CLR 04/M16 A3042 570 23 -600 030/09 RMK AO2 $
14926KSTC STC20060319124009603/19/06 12:40:31  5-MIN KSTC 191840Z VRB06KT 10SM CLR 03/M16 A3042 570 24 -600 VRB/06 RMK AO2 $
14926KSTC STC20060319124509603/19/06 12:45:31  5-MIN KSTC 191845Z VRB06KT 10SM CLR 04/M15 A3042 570 24 -500 VRB/06 RMK AO2 $
14926KSTC STC20060319125011303/19/06 12:50:31  5-MIN KSTC 191850Z 03008KT 10SM CLR 04/M15 A3042 570 24 -500 030/08 RMK AO2 SLP321 T00391150 $
14926KSTC STC20060319125509603/19/06 12:55:31  5-MIN KSTC 191855Z 08008KT 10SM CLR 04/M15 A3041 570 24 -500 070/08 RMK AO2 $
14926KSTC STC20060319130009603/19/06 13:00:31  5-MIN KSTC 191900Z 05006KT 10SM CLR 04/M16 A3041 580 23 -500 050/06 RMK AO2 $
14926KSTC STC20060319130509603/19/06 13:05:31  5-MIN KSTC 191905Z 04008KT 10SM CLR 04/M16 A3041 580 23 -500 030/08 RMK AO2 $
14926KSTC STC20060319131009603/19/06 13:10:31  5-MIN KSTC 191910Z 04009KT 10SM CLR 04/M14 A3041 580 25 -500 040/09 RMK AO2 $
14926KSTC STC20060319131509603/19/06 13:15:31  5-MIN KSTC 191915Z VRB06KT 10SM CLR 04/M15 A3041 580 24 -500 VRB/06 RMK AO2 $
14926KSTC STC20060319132009603/19/06 13:20:31  5-MIN KSTC 191920Z 04009KT 10SM CLR 04/M15 A3041 580 24 -500 040/09 RMK AO2 $
14926KSTC STC20060319132509603/19/06 13:25:31  5-MIN KSTC 191925Z 05008KT 10SM CLR 04/M16 A3040 580 23 -500 050/08 RMK AO2 $
14926KSTC STC20060319133009603/19/06 13:30:31  5-MIN KSTC 191930Z 02006KT 10SM CLR 04/M16 A3040 580 23 -500 020/06 RMK AO2 $
14926KSTC STC20060319133509603/19/06 13:35:31  5-MIN KSTC 191935Z 04006KT 10SM CLR 04/M15 A3040 580 23 -500 040/06 RMK AO2 $
14926KSTC STC20060319134009603/19/06 13:40:31  5-MIN KSTC 191940Z 36006KT 10SM CLR 04/M16 A3040 580 22 -500 360/06 RMK AO2 $
14926KSTC STC20060319134509603/19/06 13:45:31  5-MIN KSTC 191945Z 02005KT 10SM CLR 04/M16 A3040 590 22 -500 010/05 RMK AO2 $
14926KSTC STC20060319135011303/19/06 13:50:31  5-MIN KSTC 191950Z 36006KT 10SM CLR 04/M15 A3040 590 23 -500 360/06 RMK AO2 SLP314 T00441150 $
14926KSTC STC20060319135509603/19/06 13:55:31  5-MIN KSTC 191955Z 05007KT 10SM CLR 05/M14 A3040 590 23 -400 050/07 RMK AO2 $
14926KSTC STC20060319140009603/19/06 14:00:31  5-MIN KSTC 192000Z 01006KT 10SM CLR 04/M15 A3040 590 23 -500 360/06 RMK AO2 $
14926KSTC STC20060319140509603/19/06 14:05:31  5-MIN KSTC 192005Z VRB06KT 10SM CLR 05/M14 A3039 590 23 -400 VRB/06 RMK AO2 $
14926KSTC STC20060319141009603/19/06 14:10:31  5-MIN KSTC 192010Z 05006KT 10SM CLR 05/M16 A3039 590 21 -400 040/06 RMK AO2 $
14926KSTC STC20060319141509603/19/06 14:15:31  5-MIN KSTC 192015Z VRB04KT 10SM CLR 05/M16 A3039 590 20 -400 VRB/04 RMK AO2 $
14926KSTC STC20060319142009603/19/06 14:20:31  5-MIN KSTC 192020Z 08004KT 10SM CLR 05/M15 A3040 590 22 -400 070/04 RMK AO2 $
14926KSTC STC20060319142509603/19/06 14:25:31  5-MIN KSTC 192025Z VRB04KT 10SM CLR 05/M14 A3040 590 23 -400 VRB/04 RMK AO2 $
14926KSTC STC20060319143009603/19/06 14:30:31  5-MIN KSTC 192030Z 05008KT 10SM CLR 05/M16 A3039 590 21 -400 050/08 RMK AO2 $
14926KSTC STC20060319143509603/19/06 14:35:31  5-MIN KSTC 192035Z 06005KT 10SM CLR 04/M15 A3039 590 23 -500 060/05 RMK AO2 $
14926KSTC STC20060319144011203/19/06 14:40:31  5-MIN KSTC 192040Z 08008KT 050V110 10SM CLR 04/M15 A3039 590 23 -500 080/08 050V110 RMK AO2 $
14926KSTC STC20060319144509603/19/06 14:45:31  5-MIN KSTC 192045Z 08006KT 10SM CLR 04/M14 A3039 600 24 -400 080/06 RMK AO2 $
14926KSTC STC20060319145011903/19/06 14:50:31  5-MIN KSTC 192050Z VRB06KT 10SM CLR 04/M15 A3039 600 23 -400 VRB/06 RMK AO2 SLP312 T00441150 58009 $
14926KSTC STC20060319145509603/19/06 14:55:31  5-MIN KSTC 192055Z 05007KT 10SM CLR 04/M15 A3038 600 23 -400 050/07 RMK AO2 $
14926KSTC STC20060319150009603/19/06 15:00:31  5-MIN KSTC 192100Z 07007KT 10SM CLR 05/M14 A3038 600 23 -400 070/07 RMK AO2 $
14926KSTC STC20060319150509603/19/06 15:05:31  5-MIN KSTC 192105Z 07005KT 10SM CLR 04/M14 A3038 600 25 -400 060/05 RMK AO2 $
14926KSTC STC20060319151009603/19/06 15:10:31  5-MIN KSTC 192110Z 07006KT 10SM CLR 05/M14 A3038 600 24 -400 060/06 RMK AO2 $
14926KSTC STC20060319151509603/19/06 15:15:31  5-MIN KSTC 192115Z 09006KT 10SM CLR 05/M14 A3038 600 23 -400 080/06 RMK AO2 $
14926KSTC STC20060319152009603/19/06 15:20:31  5-MIN KSTC 192120Z 05007KT 10SM CLR 05/M14 A3038 600 24 -400 040/07 RMK AO2 $
14926KSTC STC20060319152509603/19/06 15:25:31  5-MIN KSTC 192125Z 09009KT 10SM CLR 05/M15 A3038 610 22 -400 090/09 RMK AO2 $
14926KSTC STC20060319153009603/19/06 15:30:31  5-MIN KSTC 192130Z 08008KT 10SM CLR 04/M14 A3037 610 24 -400 070/08 RMK AO2 $
14926KSTC STC20060319153509603/19/06 15:35:31  5-MIN KSTC 192135Z 06008KT 10SM CLR 05/M16 A3037 610 21 -400 050/08 RMK AO2 $
14926KSTC STC20060319154009603/19/06 15:40:31  5-MIN KSTC 192140Z 04011KT 10SM CLR 05/M16 A3037 610 21 -400 040/11 RMK AO2 $
14926KSTC STC20060319154509603/19/06 15:45:31  5-MIN KSTC 192145Z 04009KT 10SM CLR 05/M16 A3037 610 21 -400 040/09 RMK AO2 $
14926KSTC STC20060319155011303/19/06 15:50:31  5-MIN KSTC 192150Z 07008KT 10SM CLR 05/M14 A3037 610 23 -400 070/08 RMK AO2 SLP305 T00501144 $
14926KSTC STC20060319155509603/19/06 15:55:31  5-MIN KSTC 192155Z 07009KT 10SM CLR 05/M16 A3037 620 21 -400 060/09 RMK AO2 $
14926KSTC STC20060319160009603/19/06 16:00:31  5-MIN KSTC 192200Z 06006KT 10SM CLR 04/M15 A3037 620 23 -400 060/06 RMK AO2 $
14926KSTC STC20060319160509603/19/06 16:05:31  5-MIN KSTC 192205Z 08009KT 10SM CLR 05/M15 A3036 620 22 -400 080/09 RMK AO2 $
14926KSTC STC20060319161009603/19/06 16:10:31  5-MIN KSTC 192210Z 08009KT 10SM CLR 04/M15 A3036 620 23 -400 070/09 RMK AO2 $
14926KSTC STC20060319161509603/19/06 16:15:31  5-MIN KSTC 192215Z 08009KT 10SM CLR 04/M14 A3036 620 24 -400 070/09 RMK AO2 $
14926KSTC STC20060319162009603/19/06 16:20:31  5-MIN KSTC 192220Z 06008KT 10SM CLR 04/M14 A3036 620 24 -400 060/08 RMK AO2 $
14926KSTC STC20060319162509603/19/06 16:25:31  5-MIN KSTC 192225Z 06008KT 10SM CLR 04/M15 A3036 620 23 -400 050/08 RMK AO2 $
14926KSTC STC20060319163009603/19/06 16:30:31  5-MIN KSTC 192230Z 06010KT 10SM CLR 04/M14 A3036 620 24 -400 060/10 RMK AO2 $
14926KSTC STC20060319163509603/19/06 16:35:31  5-MIN KSTC 192235Z 06009KT 10SM CLR 04/M15 A3036 620 23 -400 060/09 RMK AO2 $
14926KSTC STC20060319164009603/19/06 16:40:31  5-MIN KSTC 192240Z 06008KT 10SM CLR 04/M15 A3036 620 23 -400 050/08 RMK AO2 $
14926KSTC STC20060319164509603/19/06 16:45:31  5-MIN KSTC 192245Z 04009KT 10SM CLR 04/M14 A3036 620 24 -400 040/09 RMK AO2 $
14926KSTC STC20060319165011303/19/06 16:50:31  5-MIN KSTC 192250Z 06008KT 10SM CLR 04/M14 A3036 620 25 -400 050/08 RMK AO2 SLP304 T00441139 $
14926KSTC STC20060319165509603/19/06 16:55:31  5-MIN KSTC 192255Z 06007KT 10SM CLR 04/M14 A3036 620 25 -400 050/07 RMK AO2 $
14926KSTC STC20060319170009603/19/06 17:00:31  5-MIN KSTC 192300Z 08008KT 10SM CLR 04/M13 A3036 620 26 -400 080/08 RMK AO2 $
14926KSTC STC20060319170509603/19/06 17:05:31  5-MIN KSTC 192305Z 08006KT 10SM CLR 04/M13 A3037 620 26 -400 080/06 RMK AO2 $
14926KSTC STC20060319171009603/19/06 17:10:31  5-MIN KSTC 192310Z 06006KT 10SM CLR 04/M14 A3037 620 25 -400 060/06 RMK AO2 $
14926KSTC STC20060319171511803/19/06 17:15:31  5-MIN KSTC 192315Z 05011G14KT 030V090 10SM CLR 04/M14 A3037 610 24 -400 050/11G14 030V090 RMK AO2 $
14926KSTC STC20060319172010203/19/06 17:20:31  5-MIN KSTC 192320Z 05007G14KT 10SM CLR 04/M14 A3037 620 25 -500 050/07G14 RMK AO2 $
14926KSTC STC20060319172509603/19/06 17:25:31  5-MIN KSTC 192325Z 05010KT 10SM CLR 04/M15 A3036 620 24 -500 040/10 RMK AO2 $
14926KSTC STC20060319173009603/19/06 17:30:31  5-MIN KSTC 192330Z 06010KT 10SM CLR 04/M15 A3036 620 24 -500 060/10 RMK AO2 $
14926KSTC STC20060319173509603/19/06 17:35:31  5-MIN KSTC 192335Z 06007KT 10SM CLR 04/M15 A3036 620 24 -500 060/07 RMK AO2 $
14926KSTC STC20060319174009603/19/06 17:40:31  5-MIN KSTC 192340Z 06007KT 10SM CLR 04/M15 A3036 620 24 -500 060/07 RMK AO2 $
14926KSTC STC20060319174509603/19/06 17:45:31  5-MIN KSTC 192345Z 06006KT 10SM CLR 03/M14 A3035 630 26 -500 060/06 RMK AO2 $
14926KSTC STC20060319175013103/19/06 17:50:31  5-MIN KSTC 192350Z 05006KT 10SM CLR 03/M14 A3035 630 27 -500 050/06 RMK AO2 SLP300 T00331139 10050 20028 56016 $
14926KSTC STC20060319175509603/19/06 17:55:31  5-MIN KSTC 192355Z 05007KT 10SM CLR 03/M14 A3035 630 26 -500 050/07 RMK AO2 $
14926KSTC STC20060319180009603/19/06 18:00:31  5-MIN KSTC 200000Z 05005KT 10SM CLR 03/M14 A3036 630 27 -500 050/05 RMK AO2 $
14926KSTC STC20060319180509603/19/06 18:05:31  5-MIN KSTC 200005Z 05005KT 10SM CLR 03/M14 A3035 630 27 -500 050/05 RMK AO2 $
14926KSTC STC20060319181009603/19/06 18:10:31  5-MIN KSTC 200010Z 05005KT 10SM CLR 03/M14 A3035 630 27 -500 050/05 RMK AO2 $
14926KSTC STC20060319181509603/19/06 18:15:31  5-MIN KSTC 200015Z 04003KT 10SM CLR 03/M13 A3035 630 29 -600 040/03 RMK AO2 $
14926KSTC STC20060319182009603/19/06 18:20:31  5-MIN KSTC 200020Z 04005KT 10SM CLR 03/M13 A3035 640 31 -600 040/05 RMK AO2 $
14926KSTC STC20060319182509603/19/06 18:25:31  5-MIN KSTC 200025Z VRB04KT 10SM CLR 03/M13 A3035 630 31 -600 VRB/04 RMK AO2 $
14926KSTC STC20060319183009603/19/06 18:30:31  5-MIN KSTC 200030Z 04005KT 10SM CLR 03/M13 A3035 630 31 -600 040/05 RMK AO2 $
14926KSTC STC20060319183509603/19/06 18:35:31  5-MIN KSTC 200035Z 02004KT 10SM CLR 02/M12 A3034 640 33 -700 020/04 RMK AO2 $
14926KSTC STC20060319184009603/19/06 18:40:31  5-MIN KSTC 200040Z 03004KT 10SM CLR 02/M12 A3034 640 33 -700 030/04 RMK AO2 $
14926KSTC STC20060319184509603/19/06 18:45:31  5-MIN KSTC 200045Z 03005KT 10SM CLR 02/M12 A3034 640 33 -700 030/05 RMK AO2 $
14926KSTC STC20060319185011303/19/06 18:50:31  5-MIN KSTC 200050Z 02005KT 10SM CLR 02/M12 A3034 640 35 -700 020/05 RMK AO2 SLP298 T00171122 $
14926KSTC STC20060319185509603/19/06 18:55:31  5-MIN KSTC 200055Z 03005KT 10SM CLR 02/M12 A3034 640 35 -700 030/05 RMK AO2 $
14926KSTC STC20060319190009603/19/06 19:00:31  5-MIN KSTC 200100Z 03006KT 10SM CLR 02/M12 A3035 640 35 -700 030/06 RMK AO2 $
14926KSTC STC20060319190509603/19/06 19:05:31  5-MIN KSTC 200105Z 03005KT 10SM CLR 02/M12 A3035 630 35 -700 030/05 RMK AO2 $
14926KSTC STC20060319191009603/19/06 19:10:31  5-MIN KSTC 200110Z 03004KT 10SM CLR 02/M12 A3035 630 35 -700 030/04 RMK AO2 $
14926KSTC STC20060319191509603/19/06 19:15:31  5-MIN KSTC 200115Z 03004KT 10SM CLR 02/M12 A3035 630 35 -700 030/04 RMK AO2 $
14926KSTC STC20060319192009603/19/06 19:20:31  5-MIN KSTC 200120Z 02004KT 10SM CLR 02/M12 A3035 630 35 -700 020/04 RMK AO2 $
14926KSTC STC20060319192509603/19/06 19:25:31  5-MIN KSTC 200125Z 03004KT 10SM CLR 01/M12 A3035 630 36 -800 020/04 RMK AO2 $
14926KSTC STC20060319193009603/19/06 19:30:31  5-MIN KSTC 200130Z 03003KT 10SM CLR 01/M12 A3035 630 38 -800 030/03 RMK AO2 $
14926KSTC STC20060319193509603/19/06 19:35:31  5-MIN KSTC 200135Z 03004KT 10SM CLR 01/M12 A3035 630 38 -800 030/04 RMK AO2 $
14926KSTC STC20060319194009603/19/06 19:40:31  5-MIN KSTC 200140Z 03004KT 10SM CLR 01/M12 A3035 630 38 -800 020/04 RMK AO2 $
14926KSTC STC20060319194509603/19/06 19:45:31  5-MIN KSTC 200145Z 03004KT 10SM CLR 01/M12 A3035 630 36 -800 030/04 RMK AO2 $
14926KSTC STC20060319195011303/19/06 19:50:31  5-MIN KSTC 200150Z 02003KT 10SM CLR 01/M12 A3035 630 38 -800 020/03 RMK AO2 SLP302 T00111117 $
14926KSTC STC20060319195509603/19/06 19:55:31  5-MIN KSTC 200155Z 01004KT 10SM CLR 01/M10 A3035 630 45 -900 010/04 RMK AO2 $
14926KSTC STC20060319200009603/19/06 20:00:31  5-MIN KSTC 200200Z 02005KT 10SM CLR 01/M10 A3035 630 45 -900 010/05 RMK AO2 $
14926KSTC STC20060319200509603/19/06 20:05:31  5-MIN KSTC 200205Z 02004KT 10SM CLR 01/M10 A3035 630 45 -900 020/04 RMK AO2 $
14926KSTC STC20060319201009603/19/06 20:10:31  5-MIN KSTC 200210Z 02005KT 10SM CLR 01/M10 A3035 630 45 -900 020/05 RMK AO2 $
14926KSTC STC20060319201509603/19/06 20:15:31  5-MIN KSTC 200215Z 02004KT 10SM CLR 01/M11 A3035 630 43 -900 020/04 RMK AO2 $
14926KSTC STC20060319202009603/19/06 20:20:31  5-MIN KSTC 200220Z 02004KT 10SM CLR 01/M10 A3035 630 45 -900 020/04 RMK AO2 $
14926KSTC STC20060319202509703/19/06 20:25:31  5-MIN KSTC 200225Z 02004KT 10SM CLR 00/M10 A3035 630 47 -1000 020/04 RMK AO2 $
14926KSTC STC20060319203009703/19/06 20:30:31  5-MIN KSTC 200230Z 02004KT 10SM CLR 00/M10 A3035 630 47 -1000 020/04 RMK AO2 $
14926KSTC STC20060319203509703/19/06 20:35:31  5-MIN KSTC 200235Z 02004KT 10SM CLR 00/M10 A3035 630 47 -1000 020/04 RMK AO2 $
14926KSTC STC20060319204009803/19/06 20:40:31  5-MIN KSTC 200240Z 02004KT 10SM CLR M01/M09 A3035 630 51 -1000 020/04 RMK AO2 $
14926KSTC STC20060319204509803/19/06 20:45:31  5-MIN KSTC 200245Z 02004KT 10SM CLR M01/M09 A3035 630 53 -1000 010/04 RMK AO2 $
14926KSTC STC20060319205012103/19/06 20:50:31  5-MIN KSTC 200250Z 02005KT 10SM CLR M01/M09 A3035 630 55 -1100 010/05 RMK AO2 SLP300 T10111089 56011 $
14926KSTC STC20060319205509803/19/06 20:55:31  5-MIN KSTC 200255Z 02005KT 10SM CLR M01/M09 A3035 630 55 -1100 020/05 RMK AO2 $
14926KSTC STC20060319210009803/19/06 21:00:31  5-MIN KSTC 200300Z 02006KT 10SM CLR M01/M10 A3035 630 49 -1000 020/06 RMK AO2 $
14926KSTC STC20060319210509803/19/06 21:05:31  5-MIN KSTC 200305Z 02006KT 10SM CLR M01/M11 A3035 630 45 -1000 010/06 RMK AO2 $
14926KSTC STC20060319211009703/19/06 21:10:31  5-MIN KSTC 200310Z 02005KT 10SM CLR 00/M11 A3035 630 43 -1000 020/05 RMK AO2 $
14926KSTC STC20060319211509703/19/06 21:15:31  5-MIN KSTC 200315Z 02005KT 10SM CLR 00/M12 A3036 630 41 -1000 020/05 RMK AO2 $
14926KSTC STC20060319212009703/19/06 21:20:31  5-MIN KSTC 200320Z 02004KT 10SM CLR 00/M12 A3036 620 41 -1000 020/04 RMK AO2 $
14926KSTC STC20060319212509803/19/06 21:25:31  5-MIN KSTC 200325Z 02005KT 10SM CLR M01/M11 A3036 630 45 -1000 010/05 RMK AO2 $
14926KSTC STC20060319213009803/19/06 21:30:31  5-MIN KSTC 200330Z 02006KT 10SM CLR M01/M11 A3035 630 47 -1000 010/06 RMK AO2 $
14926KSTC STC20060319213509803/19/06 21:35:31  5-MIN KSTC 200335Z 02006KT 10SM CLR M01/M11 A3036 630 45 -1000 020/06 RMK AO2 $
14926KSTC STC20060319214009703/19/06 21:40:31  5-MIN KSTC 200340Z 03007KT 10SM CLR 00/M12 A3036 620 41 -1000 030/07 RMK AO2 $
14926KSTC STC20060319214509603/19/06 21:45:31  5-MIN KSTC 200345Z 03007KT 10SM CLR 01/M12 A3036 620 38 -900 030/07 RMK AO2 $
14926KSTC STC20060319215011303/19/06 21:50:31  5-MIN KSTC 200350Z 04006KT 10SM CLR 01/M12 A3036 620 38 -900 030/06 RMK AO2 SLP303 T00061122 $
14926KSTC STC20060319215509603/19/06 21:55:31  5-MIN KSTC 200355Z 04007KT 10SM CLR 01/M12 A3036 620 38 -900 040/07 RMK AO2 $
14926KSTC STC20060319220009603/19/06 22:00:31  5-MIN KSTC 200400Z 04006KT 10SM CLR 01/M12 A3036 620 39 -900 040/06 RMK AO2 $
14926KSTC STC20060319220509603/19/06 22:05:31  5-MIN KSTC 200405Z 04006KT 10SM CLR 01/M12 A3036 620 38 -900 040/06 RMK AO2 $
14926KSTC STC20060319221009603/19/06 22:10:31  5-MIN KSTC 200410Z 04006KT 10SM CLR 01/M12 A3037 620 38 -900 030/06 RMK AO2 $
14926KSTC STC20060319221509703/19/06 22:15:31  5-MIN KSTC 200415Z 04005KT 10SM CLR 00/M12 A3037 610 41 -1000 030/05 RMK AO2 $
14926KSTC STC20060319222009703/19/06 22:20:31  5-MIN KSTC 200420Z 04005KT 10SM CLR 00/M12 A3037 610 41 -1000 030/05 RMK AO2 $
14926KSTC STC20060319222509703/19/06 22:25:31  5-MIN KSTC 200425Z 04005KT 10SM CLR 00/M12 A3037 610 39 -1000 030/05 RMK AO2 $
14926KSTC STC20060319223009703/19/06 22:30:31  5-MIN KSTC 200430Z 04007KT 10SM CLR 00/M12 A3037 610 39 -1000 040/07 RMK AO2 $
14926KSTC STC20060319223509703/19/06 22:35:31  5-MIN KSTC 200435Z 05007KT 10SM CLR 00/M12 A3037 620 39 -1000 040/07 RMK AO2 $
14926KSTC STC20060319224009703/19/06 22:40:31  5-MIN KSTC 200440Z 04008KT 10SM CLR 00/M12 A3036 620 41 -1000 040/08 RMK AO2 $
14926KSTC STC20060319224509703/19/06 22:45:31  5-MIN KSTC 200445Z 04007KT 10SM CLR 00/M12 A3036 620 41 -1000 040/07 RMK AO2 $
14926KSTC STC20060319225011403/19/06 22:50:31  5-MIN KSTC 200450Z 04007KT 10SM CLR 00/M12 A3036 620 41 -1000 040/07 RMK AO2 SLP303 T00001117 $
14926KSTC STC20060319225510103/19/06 22:55:31  5-MIN KSTC 200455Z AUTO 04008KT 10SM CLR 01/M12 A3037 620 39 -900 040/08 RMK AO2 $
14926KSTC STC20060319230010103/19/06 23:00:31  5-MIN KSTC 200500Z AUTO 04007KT 10SM CLR 01/M12 A3037 610 39 -900 040/07 RMK AO2 $
14926KSTC STC20060319230510203/19/06 23:05:31  5-MIN KSTC 200505Z AUTO 04007KT 10SM CLR 00/M12 A3037 610 41 -1000 040/07 RMK AO2 $
14926KSTC STC20060319231010203/19/06 23:10:31  5-MIN KSTC 200510Z AUTO 04007KT 10SM CLR 00/M12 A3037 610 41 -1000 040/07 RMK AO2 $
14926KSTC STC20060319231510103/19/06 23:15:31  5-MIN KSTC 200515Z AUTO 04008KT 10SM CLR 01/M12 A3037 610 39 -900 040/08 RMK AO2 $
14926KSTC STC20060319232010103/19/06 23:20:31  5-MIN KSTC 200520Z AUTO 04006KT 10SM CLR 01/M12 A3037 610 38 -900 040/06 RMK AO2 $
14926KSTC STC20060319232510103/19/06 23:25:31  5-MIN KSTC 200525Z AUTO 05007KT 10SM CLR 01/M12 A3037 610 38 -900 050/07 RMK AO2 $
14926KSTC STC20060319233010103/19/06 23:30:31  5-MIN KSTC 200530Z AUTO 05007KT 10SM CLR 01/M12 A3037 610 38 -900 050/07 RMK AO2 $
14926KSTC STC20060319233510103/19/06 23:35:31  5-MIN KSTC 200535Z AUTO 05007KT 10SM CLR 01/M12 A3037 610 38 -900 050/07 RMK AO2 $
14926KSTC STC20060319234010103/19/06 23:40:31  5-MIN KSTC 200540Z AUTO 05006KT 10SM CLR 01/M13 A3038 610 36 -900 040/06 RMK AO2 $
14926KSTC STC20060319234510103/19/06 23:45:31  5-MIN KSTC 200545Z AUTO 04007KT 10SM CLR 01/M13 A3038 610 36 -900 040/07 RMK AO2 $
14926KSTC STC20060319235014703/19/06 23:50:31  5-MIN KSTC 200550Z AUTO 04006KT 10SM CLR 00/M13 A3038 610 38 -1000 040/06 RMK AO2 SLP308 T00001128 10033 21011 400501056 56001 $
14926KSTC STC20060319235510203/19/06 23:55:31  5-MIN KSTC 200555Z AUTO 04007KT 10SM CLR 00/M13 A3038 610 38 -1000 030/07 RMK AO2 $
14926KSTC STC20060320000010203/20/06 00:00:32  5-MIN KSTC 200600Z AUTO 04007KT 10SM CLR 00/M12 A3038 610 39 -1000 040/07 RMK AO2 $
14926KSTC STC20060320000510203/20/06 00:05:31  5-MIN KSTC 200605Z AUTO 04006KT 10SM CLR 00/M12 A3038 610 39 -1000 040/06 RMK AO2 $
14926KSTC STC20060320001010203/20/06 00:10:31  5-MIN KSTC 200610Z AUTO 04007KT 10SM CLR 00/M12 A3038 610 39 -1000 040/07 RMK AO2 $
14926KSTC STC20060320001510203/20/06 00:15:31  5-MIN KSTC 200615Z AUTO 04008KT 10SM CLR 00/M13 A3038 610 38 -1000 040/08 RMK AO2 $
14926KSTC STC20060320002010203/20/06 00:20:31  5-MIN KSTC 200620Z AUTO 04008KT 10SM CLR 00/M13 A3038 600 38 -1000 040/08 RMK AO2 $
14926KSTC STC20060320002510203/20/06 00:25:31  5-MIN KSTC 200625Z AUTO 04007KT 10SM CLR 00/M13 A3038 600 38 -1000 040/07 RMK AO2 $
14926KSTC STC20060320003010203/20/06 00:30:31  5-MIN KSTC 200630Z AUTO 04008KT 10SM CLR 00/M13 A3038 600 38 -1000 040/08 RMK AO2 $
14926KSTC STC20060320003510203/20/06 00:35:31  5-MIN KSTC 200635Z AUTO 04009KT 10SM CLR 00/M13 A3038 600 38 -1000 040/09 RMK AO2 $
14926KSTC STC20060320004010203/20/06 00:40:31  5-MIN KSTC 200640Z AUTO 05010KT 10SM CLR 00/M13 A3038 600 38 -1000 040/10 RMK AO2 $
14926KSTC STC20060320004510203/20/06 00:45:31  5-MIN KSTC 200645Z AUTO 04009KT 10SM CLR 00/M13 A3038 600 36 -1000 040/09 RMK AO2 $
14926KSTC STC20060320005011903/20/06 00:50:31  5-MIN KSTC 200650Z AUTO 05009KT 10SM CLR 00/M13 A3039 600 38 -1000 050/09 RMK AO2 SLP310 T00001128 $
14926KSTC STC20060320005510203/20/06 00:55:31  5-MIN KSTC 200655Z AUTO 05010KT 10SM CLR 00/M13 A3039 600 38 -1000 050/10 RMK AO2 $
14926KSTC STC20060320010010203/20/06 01:00:31  5-MIN KSTC 200700Z AUTO 06009KT 10SM CLR 00/M13 A3039 600 38 -1000 050/09 RMK AO2 $
14926KSTC STC20060320010510203/20/06 01:05:31  5-MIN KSTC 200705Z AUTO 06009KT 10SM CLR 00/M13 A3039 600 36 -1000 060/09 RMK AO2 $
14926KSTC STC20060320011010203/20/06 01:10:31  5-MIN KSTC 200710Z AUTO 06010KT 10SM CLR 00/M13 A3039 600 36 -1000 060/10 RMK AO2 $
14926KSTC STC20060320011510303/20/06 01:15:31  5-MIN KSTC 200715Z AUTO 05009KT 10SM CLR M01/M13 A3039 590 37 -1100 050/09 RMK AO2 $
14926KSTC STC20060320012010303/20/06 01:20:31  5-MIN KSTC 200720Z AUTO 05009KT 10SM CLR M01/M13 A3039 600 39 -1100 050/09 RMK AO2 $
14926KSTC STC20060320012510303/20/06 01:25:31  5-MIN KSTC 200725Z AUTO 05010KT 10SM CLR M01/M13 A3038 600 37 -1100 050/10 RMK AO2 $
14926KSTC STC20060320013010303/20/06 01:30:31  5-MIN KSTC 200730Z AUTO 05009KT 10SM CLR M01/M13 A3038 600 37 -1100 050/09 RMK AO2 $
14926KSTC STC20060320013510303/20/06 01:35:31  5-MIN KSTC 200735Z AUTO 05008KT 10SM CLR M01/M13 A3038 600 37 -1100 050/08 RMK AO2 $
14926KSTC STC20060320014010303/20/06 01:40:31  5-MIN KSTC 200740Z AUTO 05012KT 10SM CLR M01/M13 A3038 600 37 -1100 050/12 RMK AO2 $
14926KSTC STC20060320014510303/20/06 01:45:31  5-MIN KSTC 200745Z AUTO 06011KT 10SM CLR M01/M13 A3038 600 37 -1100 050/11 RMK AO2 $
14926KSTC STC20060320015012603/20/06 01:50:31  5-MIN KSTC 200750Z AUTO 06011G18KT 10SM CLR M01/M13 A3038 600 37 -1100 050/11G18 RMK AO2 SLP307 T10061133 $
14926KSTC STC20060320015510903/20/06 01:55:31  5-MIN KSTC 200755Z AUTO 05011G18KT 10SM CLR M01/M13 A3038 610 37 -1100 050/11G18 RMK AO2 $
14926KSTC STC20060320020010903/20/06 02:00:31  5-MIN KSTC 200800Z AUTO 06011G17KT 10SM CLR M01/M13 A3038 610 37 -1100 050/11G17 RMK AO2 $
14926KSTC STC20060320020510903/20/06 02:05:31  5-MIN KSTC 200805Z AUTO 05013G17KT 10SM CLR M01/M13 A3037 610 37 -1100 050/13G17 RMK AO2 $
14926KSTC STC20060320021010903/20/06 02:10:31  5-MIN KSTC 200810Z AUTO 05010G17KT 10SM CLR M01/M14 A3037 610 36 -1100 050/10G17 RMK AO2 $
14926KSTC STC20060320021510903/20/06 02:15:31  5-MIN KSTC 200815Z AUTO 05012G18KT 10SM CLR M01/M13 A3038 610 37 -1100 050/12G18 RMK AO2 $
14926KSTC STC20060320022010903/20/06 02:20:31  5-MIN KSTC 200820Z AUTO 05013G18KT 10SM CLR M01/M14 A3038 610 36 -1100 050/13G18 RMK AO2 $
14926KSTC STC20060320022510903/20/06 02:25:31  5-MIN KSTC 200825Z AUTO 05012G17KT 10SM CLR M01/M14 A3037 610 36 -1100 050/12G17 RMK AO2 $
14926KSTC STC20060320023010903/20/06 02:30:31  5-MIN KSTC 200830Z AUTO 06009G19KT 10SM CLR M01/M14 A3037 610 36 -1100 050/09G19 RMK AO2 $
14926KSTC STC20060320023510903/20/06 02:35:31  5-MIN KSTC 200835Z AUTO 05012G19KT 10SM CLR M01/M14 A3037 610 37 -1100 050/12G19 RMK AO2 $
14926KSTC STC20060320024010903/20/06 02:40:31  5-MIN KSTC 200840Z AUTO 06011G17KT 10SM CLR M01/M14 A3037 610 37 -1100 050/11G17 RMK AO2 $
14926KSTC STC20060320024510903/20/06 02:45:31  5-MIN KSTC 200845Z AUTO 06012G17KT 10SM CLR M01/M14 A3037 610 37 -1100 050/12G17 RMK AO2 $
14926KSTC STC20060320025012603/20/06 02:50:31  5-MIN KSTC 200850Z AUTO 06012KT 10SM CLR M01/M14 A3037 610 37 -1100 060/12 RMK AO2 SLP306 T10111139 53009 $
14926KSTC STC20060320025510903/20/06 02:55:31  5-MIN KSTC 200855Z AUTO 06012G19KT 10SM CLR M01/M14 A3037 610 37 -1100 060/12G19 RMK AO2 $
14926KSTC STC20060320030010903/20/06 03:00:31  5-MIN KSTC 200900Z AUTO 05011G19KT 10SM CLR M01/M14 A3037 610 37 -1100 050/11G19 RMK AO2 $
14926KSTC STC20060320030510303/20/06 03:05:31  5-MIN KSTC 200905Z AUTO 06012KT 10SM CLR M01/M14 A3037 610 37 -1100 060/12 RMK AO2 $
14926KSTC STC20060320031010303/20/06 03:10:31  5-MIN KSTC 200910Z AUTO 07011KT 10SM CLR M01/M14 A3037 610 37 -1100 060/11 RMK AO2 $
14926KSTC STC20060320031510903/20/06 03:15:31  5-MIN KSTC 200915Z AUTO 06008G16KT 10SM CLR M01/M14 A3037 610 37 -1100 060/08G16 RMK AO2 $
14926KSTC STC20060320032010303/20/06 03:20:31  5-MIN KSTC 200920Z AUTO 07009KT 10SM CLR M01/M14 A3037 610 37 -1100 060/09 RMK AO2 $
14926KSTC STC20060320032510303/20/06 03:25:31  5-MIN KSTC 200925Z AUTO 06009KT 10SM CLR M01/M14 A3037 610 37 -1100 060/09 RMK AO2 $
14926KSTC STC20060320033010303/20/06 03:30:31  5-MIN KSTC 200930Z AUTO 06009KT 10SM CLR M01/M14 A3037 610 37 -1100 060/09 RMK AO2 $
14926KSTC STC20060320033510303/20/06 03:35:31  5-MIN KSTC 200935Z AUTO 06010KT 10SM CLR M02/M14 A3037 610 39 -1200 050/10 RMK AO2 $
14926KSTC STC20060320034010303/20/06 03:40:31  5-MIN KSTC 200940Z AUTO 06011KT 10SM CLR M02/M14 A3037 610 39 -1200 060/11 RMK AO2 $
14926KSTC STC20060320034510303/20/06 03:45:31  5-MIN KSTC 200945Z AUTO 06009KT 10SM CLR M02/M14 A3037 610 39 -1200 060/09 RMK AO2 $
14926KSTC STC20060320035012003/20/06 03:50:31  5-MIN KSTC 200950Z AUTO 06011KT 10SM CLR M02/M14 A3037 610 39 -1200 050/11 RMK AO2 SLP307 T10171139 $
14926KSTC STC20060320035510303/20/06 03:55:31  5-MIN KSTC 200955Z AUTO 06009KT 10SM CLR M02/M14 A3038 610 39 -1200 060/09 RMK AO2 $
14926KSTC STC20060320040010303/20/06 04:00:31  5-MIN KSTC 201000Z AUTO 06008KT 10SM CLR M02/M14 A3038 610 39 -1200 060/08 RMK AO2 $
14926KSTC STC20060320040510303/20/06 04:05:31  5-MIN KSTC 201005Z AUTO 07008KT 10SM CLR M02/M14 A3038 600 39 -1200 060/08 RMK AO2 $
14926KSTC STC20060320041010303/20/06 04:10:31  5-MIN KSTC 201010Z AUTO 06007KT 10SM CLR M02/M13 A3038 600 41 -1200 060/07 RMK AO2 $
14926KSTC STC20060320041510303/20/06 04:15:31  5-MIN KSTC 201015Z AUTO 06008KT 10SM CLR M02/M13 A3038 600 41 -1200 060/08 RMK AO2 $
14926KSTC STC20060320042010303/20/06 04:20:31  5-MIN KSTC 201020Z AUTO 06008KT 10SM CLR M02/M13 A3038 600 41 -1200 060/08 RMK AO2 $
14926KSTC STC20060320042510303/20/06 04:25:31  5-MIN KSTC 201025Z AUTO 07008KT 10SM CLR M02/M13 A3038 610 41 -1200 060/08 RMK AO2 $
14926KSTC STC20060320043010303/20/06 04:30:31  5-MIN KSTC 201030Z AUTO 06009KT 10SM CLR M02/M13 A3037 610 42 -1300 050/09 RMK AO2 $
14926KSTC STC20060320043510303/20/06 04:35:31  5-MIN KSTC 201035Z AUTO 06009KT 10SM CLR M02/M13 A3037 610 42 -1300 060/09 RMK AO2 $
14926KSTC STC20060320044010303/20/06 04:40:31  5-MIN KSTC 201040Z AUTO 06009KT 10SM CLR M02/M13 A3037 610 42 -1300 060/09 RMK AO2 $
14926KSTC STC20060320044510303/20/06 04:45:31  5-MIN KSTC 201045Z AUTO 05009KT 10SM CLR M02/M13 A3037 610 42 -1300 050/09 RMK AO2 $
14926KSTC STC20060320045012003/20/06 04:50:31  5-MIN KSTC 201050Z AUTO 06008KT 10SM CLR M02/M13 A3038 600 42 -1300 060/08 RMK AO2 SLP309 T10221133 $
14926KSTC STC20060320045510303/20/06 04:55:31  5-MIN KSTC 201055Z AUTO 07008KT 10SM CLR M02/M13 A3038 600 42 -1300 060/08 RMK AO2 $
14926KSTC STC20060320050010303/20/06 05:00:31  5-MIN KSTC 201100Z AUTO 07009KT 10SM CLR M02/M13 A3038 600 42 -1300 060/09 RMK AO2 $
14926KSTC STC20060320050510303/20/06 05:05:31  5-MIN KSTC 201105Z AUTO 05009KT 10SM CLR M02/M13 A3038 610 44 -1300 050/09 RMK AO2 $
14926KSTC STC20060320051010303/20/06 05:10:31  5-MIN KSTC 201110Z AUTO 06008KT 10SM CLR M02/M13 A3038 600 44 -1300 060/08 RMK AO2 $
14926KSTC STC20060320051510303/20/06 05:15:31  5-MIN KSTC 201115Z AUTO 05010KT 10SM CLR M02/M13 A3038 600 44 -1300 050/10 RMK AO2 $
14926KSTC STC20060320052010303/20/06 05:20:31  5-MIN KSTC 201120Z AUTO 06011KT 10SM CLR M02/M13 A3037 610 44 -1300 050/11 RMK AO2 $
14926KSTC STC20060320052510303/20/06 05:25:31  5-MIN KSTC 201125Z AUTO 06009KT 10SM CLR M02/M13 A3037 610 44 -1300 060/09 RMK AO2 $
14926KSTC STC20060320053010303/20/06 05:30:31  5-MIN KSTC 201130Z AUTO 06010KT 10SM CLR M02/M13 A3037 610 44 -1300 060/10 RMK AO2 $
14926KSTC STC20060320053510303/20/06 05:35:31  5-MIN KSTC 201135Z AUTO 06009KT 10SM CLR M02/M13 A3037 610 44 -1300 060/09 RMK AO2 $
14926KSTC STC20060320054010303/20/06 05:40:31  5-MIN KSTC 201140Z AUTO 06009KT 10SM CLR M03/M13 A3037 610 46 -1300 060/09 RMK AO2 $
14926KSTC STC20060320054510303/20/06 05:45:31  5-MIN KSTC 201145Z AUTO 06009KT 10SM CLR M03/M13 A3037 610 46 -1300 050/09 RMK AO2 $
14926KSTC STC20060320055013803/20/06 05:50:31  5-MIN KSTC 201150Z AUTO 06009KT 10SM CLR M03/M13 A3037 610 46 -1300 060/09 RMK AO2 SLP305 T10281128 10000 21028 58002 $
14926KSTC STC20060320055510303/20/06 05:55:31  5-MIN KSTC 201155Z AUTO 05010KT 10SM CLR M03/M13 A3037 610 46 -1300 050/10 RMK AO2 $
14926KSTC STC20060320060010303/20/06 06:00:31  5-MIN KSTC 201200Z AUTO 06007KT 10SM CLR M03/M13 A3037 610 46 -1300 060/07 RMK AO2 $
14926KSTC STC20060320060510303/20/06 06:05:31  5-MIN KSTC 201205Z AUTO 06009KT 10SM CLR M03/M13 A3037 610 46 -1300 060/09 RMK AO2 $
14926KSTC STC20060320061010303/20/06 06:10:31  5-MIN KSTC 201210Z AUTO 06007KT 10SM CLR M03/M13 A3037 610 46 -1300 060/07 RMK AO2 $
14926KSTC STC20060320061510303/20/06 06:15:31  5-MIN KSTC 201215Z AUTO 05008KT 10SM CLR M03/M13 A3037 610 46 -1300 050/08 RMK AO2 $
14926KSTC STC20060320062010303/20/06 06:20:31  5-MIN KSTC 201220Z AUTO 06007KT 10SM CLR M03/M13 A3037 610 46 -1300 050/07 RMK AO2 $
14926KSTC STC20060320062510303/20/06 06:25:31  5-MIN KSTC 201225Z AUTO 06008KT 10SM CLR M03/M13 A3037 610 46 -1300 060/08 RMK AO2 $
14926KSTC STC20060320063010303/20/06 06:30:31  5-MIN KSTC 201230Z AUTO 06009KT 10SM CLR M03/M12 A3037 610 48 -1300 060/09 RMK AO2 $
14926KSTC STC20060320063510103/20/06 06:35:31  5-MIN KSTC 201235Z AUTO 06008KT 10SM CLR M03/M12 A3037 610 48 -1300 060/08 RMK AO2
14926KSTC STC20060320064010103/20/06 06:40:31  5-MIN KSTC 201240Z AUTO 06007KT 10SM CLR M03/M12 A3037 610 48 -1300 060/07 RMK AO2
14926KSTC STC20060320064510103/20/06 06:45:31  5-MIN KSTC 201245Z AUTO 07007KT 10SM CLR M03/M12 A3038 610 48 -1300 070/07 RMK AO2
14926KSTC STC20060320065011803/20/06 06:50:31  5-MIN KSTC 201250Z AUTO 06006KT 10SM CLR M03/M12 A3038 600 48 -1300 060/06 RMK AO2 SLP310 T10281122
14926KSTC STC20060320065510103/20/06 06:55:31  5-MIN KSTC 201255Z AUTO 06005KT 10SM CLR M03/M12 A3038 600 48 -1300 060/05 RMK AO2
14926KSTC STC20060320070009603/20/06 07:00:31  5-MIN KSTC 201300Z 06008KT 10SM CLR M03/M12 A3038 600 48 -1300 060/08 RMK AO2
14926KSTC STC20060320070509603/20/06 07:05:31  5-MIN KSTC 201305Z 06008KT 10SM CLR M03/M12 A3039 600 48 -1400 060/08 RMK AO2
14926KSTC STC20060320071009603/20/06 07:10:31  5-MIN KSTC 201310Z 06007KT 10SM CLR M03/M12 A3038 600 48 -1300 060/07 RMK AO2
14926KSTC STC20060320071509603/20/06 07:15:31  5-MIN KSTC 201315Z 06008KT 10SM CLR M03/M12 A3038 610 48 -1300 060/08 RMK AO2
14926KSTC STC20060320072009603/20/06 07:20:31  5-MIN KSTC 201320Z 06007KT 10SM CLR M03/M12 A3038 610 48 -1300 050/07 RMK AO2
14926KSTC STC20060320072509603/20/06 07:25:31  5-MIN KSTC 201325Z 06008KT 10SM CLR M03/M12 A3037 610 50 -1300 060/08 RMK AO2
14926KSTC STC20060320073009603/20/06 07:30:31  5-MIN KSTC 201330Z 06007KT 10SM CLR M03/M12 A3037 610 48 -1300 060/07 RMK AO2
14926KSTC STC20060320073509603/20/06 07:35:31  5-MIN KSTC 201335Z 06008KT 10SM CLR M03/M12 A3037 610 48 -1300 050/08 RMK AO2
14926KSTC STC20060320074009603/20/06 07:40:31  5-MIN KSTC 201340Z 06008KT 10SM CLR M03/M12 A3037 610 50 -1300 050/08 RMK AO2
14926KSTC STC20060320074509603/20/06 07:45:31  5-MIN KSTC 201345Z 06008KT 10SM CLR M03/M12 A3037 610 50 -1300 060/08 RMK AO2
14926KSTC STC20060320075011303/20/06 07:50:31  5-MIN KSTC 201350Z 07010KT 10SM CLR M03/M12 A3037 610 50 -1300 070/10 RMK AO2 SLP306 T10281117
14926KSTC STC20060320075509603/20/06 07:55:31  5-MIN KSTC 201355Z 07008KT 10SM CLR M03/M12 A3037 610 50 -1300 060/08 RMK AO2
14926KSTC STC20060320080009603/20/06 08:00:31  5-MIN KSTC 201400Z 07007KT 10SM CLR M02/M12 A3037 610 48 -1300 060/07 RMK AO2
14926KSTC STC20060320080509603/20/06 08:05:31  5-MIN KSTC 201405Z 07007KT 10SM CLR M02/M12 A3037 610 48 -1300 070/07 RMK AO2
14926KSTC STC20060320081009603/20/06 08:10:31  5-MIN KSTC 201410Z 07007KT 10SM CLR M02/M12 A3037 610 48 -1300 070/07 RMK AO2
14926KSTC STC20060320081509603/20/06 08:15:31  5-MIN KSTC 201415Z 07009KT 10SM CLR M02/M12 A3037 610 48 -1300 070/09 RMK AO2
14926KSTC STC20060320082010203/20/06 08:20:31  5-MIN KSTC 201420Z 07010G15KT 10SM CLR M02/M12 A3037 610 48 -1300 070/10G15 RMK AO2
14926KSTC STC20060320082510203/20/06 08:25:31  5-MIN KSTC 201425Z 07011G15KT 10SM CLR M02/M12 A3037 610 48 -1300 060/11G15 RMK AO2
14926KSTC STC20060320083009603/20/06 08:30:31  5-MIN KSTC 201430Z 08010KT 10SM CLR M02/M12 A3037 610 48 -1300 070/10 RMK AO2
14926KSTC STC20060320083510203/20/06 08:35:31  5-MIN KSTC 201435Z 07007G16KT 10SM CLR M02/M12 A3038 610 48 -1300 070/07G16 RMK AO2
14926KSTC STC20060320084010203/20/06 08:40:31  5-MIN KSTC 201440Z 08010G16KT 10SM CLR M02/M12 A3038 610 46 -1200 080/10G16 RMK AO2
14926KSTC STC20060320084509603/20/06 08:45:31  5-MIN KSTC 201445Z 09013KT 10SM CLR M02/M12 A3038 600 46 -1200 090/13 RMK AO2
14926KSTC STC20060320085011903/20/06 08:50:31  5-MIN KSTC 201450Z 08009KT 10SM CLR M02/M11 A3038 610 49 -1200 080/09 RMK AO2 SLP310 T10171111 58001
14926KSTC STC20060320085509603/20/06 08:55:31  5-MIN KSTC 201455Z 07009KT 10SM CLR M02/M11 A3038 610 49 -1200 070/09 RMK AO2
14926KSTC STC20060320090009603/20/06 09:00:31  5-MIN KSTC 201500Z 07010KT 10SM CLR M02/M11 A3037 610 49 -1200 070/10 RMK AO2
14926KSTC STC20060320090509603/20/06 09:05:31  5-MIN KSTC 201505Z 07010KT 10SM CLR M02/M11 A3037 610 49 -1200 070/10 RMK AO2
14926KSTC STC20060320091009603/20/06 09:10:31  5-MIN KSTC 201510Z 08011KT 10SM CLR M02/M11 A3037 610 49 -1200 080/11 RMK AO2
14926KSTC STC20060320091509603/20/06 09:15:31  5-MIN KSTC 201515Z 09011KT 10SM CLR M02/M11 A3037 610 49 -1200 090/11 RMK AO2
14926KSTC STC20060320092009603/20/06 09:20:31  5-MIN KSTC 201520Z 07010KT 10SM CLR M01/M11 A3037 610 47 -1100 070/10 RMK AO2
14926KSTC STC20060320092509603/20/06 09:25:31  5-MIN KSTC 201525Z 08011KT 10SM CLR M01/M11 A3037 610 47 -1100 080/11 RMK AO2
14926KSTC STC20060320093009603/20/06 09:30:31  5-MIN KSTC 201530Z 08010KT 10SM CLR M01/M11 A3037 620 49 -1100 080/10 RMK AO2
14926KSTC STC20060320093509603/20/06 09:35:31  5-MIN KSTC 201535Z 07009KT 10SM CLR M01/M11 A3037 620 47 -1100 070/09 RMK AO2
14926KSTC STC20060320094009603/20/06 09:40:31  5-MIN KSTC 201540Z 08009KT 10SM CLR M01/M11 A3036 620 47 -1000 080/09 RMK AO2
14926KSTC STC20060320094509603/20/06 09:45:31  5-MIN KSTC 201545Z 08010KT 10SM CLR M01/M11 A3036 620 47 -1000 080/10 RMK AO2
14926KSTC STC20060320095011903/20/06 09:50:31  5-MIN KSTC 201550Z 08012G16KT 10SM CLR M01/M11 A3036 620 45 -1000 070/12G16 RMK AO2 SLP303 T10061111
14926KSTC STC20060320095509603/20/06 09:55:31  5-MIN KSTC 201555Z 07009KT 10SM CLR M01/M11 A3036 620 45 -1000 060/09 RMK AO2
14926KSTC STC20060320100009503/20/06 10:00:31  5-MIN KSTC 201600Z 06008KT 10SM CLR 00/M11 A3036 620 45 -1000 060/08 RMK AO2
14926KSTC STC20060320100509503/20/06 10:05:31  5-MIN KSTC 201605Z 07012KT 10SM CLR 00/M11 A3036 620 45 -1000 060/12 RMK AO2
14926KSTC STC20060320101009503/20/06 10:10:31  5-MIN KSTC 201610Z 07012KT 10SM CLR 00/M11 A3036 620 43 -1000 070/12 RMK AO2
14926KSTC STC20060320101509503/20/06 10:15:31  5-MIN KSTC 201615Z 08011KT 10SM CLR 00/M11 A3036 630 45 -1000 070/11 RMK AO2
14926KSTC STC20060320102010103/20/06 10:20:31  5-MIN KSTC 201620Z 09013G17KT 10SM CLR 00/M11 A3036 630 45 -1000 080/13G17 RMK AO2
14926KSTC STC20060320102510003/20/06 10:25:31  5-MIN KSTC 201625Z 08010G17KT 10SM CLR 01/M11 A3035 630 43 -900 080/10G17 RMK AO2
14926KSTC STC20060320103009403/20/06 10:30:31  5-MIN KSTC 201630Z 07013KT 10SM CLR 01/M11 A3035 630 43 -900 070/13 RMK AO2
14926KSTC STC20060320103510103/20/06 10:35:31  5-MIN KSTC 201635Z 08016G20KT 10SM CLR 00/M11 A3034 640 45 -1000 080/16G20 RMK AO2
14926KSTC STC20060320104010003/20/06 10:40:31  5-MIN KSTC 201640Z 07014G20KT 10SM CLR 01/M11 A3034 640 43 -900 070/14G20 RMK AO2
14926KSTC STC20060320104510003/20/06 10:45:31  5-MIN KSTC 201645Z 07012G18KT 10SM CLR 01/M11 A3034 640 43 -900 070/12G18 RMK AO2
14926KSTC STC20060320105011103/20/06 10:50:31  5-MIN KSTC 201650Z 07011KT 10SM CLR 01/M10 A3034 640 45 -900 070/11 RMK AO2 SLP295 T00061100
14926KSTC STC20060320105509403/20/06 10:55:31  5-MIN KSTC 201655Z 07013KT 10SM CLR 00/M11 A3034 640 45 -900 070/13 RMK AO2
14926KSTC STC20060320110009403/20/06 11:00:31  5-MIN KSTC 201700Z 08016KT 10SM CLR 01/M10 A3034 640 45 -900 080/16 RMK AO2
14926KSTC STC20060320110509403/20/06 11:05:31  5-MIN KSTC 201705Z 09016KT 10SM CLR 01/M10 A3034 640 45 -900 080/16 RMK AO2
14926KSTC STC20060320111009703/20/06 11:10:31  5-MIN KSTC 201710Z 08014KT 10SM FEW100 01/M10 A3034 640 43 -800 080/14 RMK AO2
14926KSTC STC20060320111509403/20/06 11:15:31  5-MIN KSTC 201715Z 06012KT 10SM CLR 01/M10 A3033 650 45 -900 060/12 RMK AO2
14926KSTC STC20060320112010003/20/06 11:20:31  5-MIN KSTC 201720Z 08011G17KT 10SM CLR 01/M09 A3033 650 45 -800 070/11G17 RMK AO2
14926KSTC STC20060320112509403/20/06 11:25:31  5-MIN KSTC 201725Z 09012KT 10SM CLR 01/M09 A3033 650 45 -800 090/12 RMK AO2
14926KSTC STC20060320113009403/20/06 11:30:31  5-MIN KSTC 201730Z 08012KT 10SM CLR 01/M09 A3033 650 45 -800 080/12 RMK AO2
14926KSTC STC20060320113509403/20/06 11:35:31  5-MIN KSTC 201735Z 08010KT 10SM CLR 01/M09 A3033 650 45 -800 080/10 RMK AO2
14926KSTC STC20060320114009403/20/06 11:40:31  5-MIN KSTC 201740Z 08012KT 10SM CLR 01/M09 A3033 650 45 -800 080/12 RMK AO2
14926KSTC STC20060320114509403/20/06 11:45:31  5-MIN KSTC 201745Z 09011KT 10SM CLR 02/M09 A3033 650 43 -700 080/11 RMK AO2
14926KSTC STC20060320115012903/20/06 11:50:31  5-MIN KSTC 201750Z 08013KT 10SM CLR 02/M09 A3033 650 45 -700 080/13 RMK AO2 SLP291 T00171089 10017 21028 51002
14926KSTC STC20060320115509403/20/06 11:55:31  5-MIN KSTC 201755Z 08009KT 10SM CLR 02/M09 A3033 650 43 -700 070/09 RMK AO2
14926KSTC STC20060320120009403/20/06 12:00:31  5-MIN KSTC 201800Z 06010KT 10SM CLR 02/M09 A3033 650 43 -700 050/10 RMK AO2
14926KSTC STC20060320120510003/20/06 12:05:31  5-MIN KSTC 201805Z 04012G17KT 10SM CLR 02/M09 A3033 650 43 -700 030/12G17 RMK AO2
14926KSTC STC20060320121010003/20/06 12:10:31  5-MIN KSTC 201810Z 07009G17KT 10SM CLR 02/M09 A3032 650 43 -700 070/09G17 RMK AO2
14926KSTC STC20060320121510003/20/06 12:15:31  5-MIN KSTC 201815Z 05012G17KT 10SM CLR 02/M09 A3033 650 43 -700 050/12G17 RMK AO2
14926KSTC STC20060320122009403/20/06 12:20:31  5-MIN KSTC 201820Z 05012KT 10SM CLR 02/M09 A3032 650 43 -700 050/12 RMK AO2
14926KSTC STC20060320122509403/20/06 12:25:31  5-MIN KSTC 201825Z 06011KT 10SM CLR 02/M09 A3032 660 43 -700 050/11 RMK AO2
14926KSTC STC20060320123010003/20/06 12:30:31  5-MIN KSTC 201830Z 06010G17KT 10SM CLR 02/M09 A3032 660 42 -600 060/10G17 RMK AO2
14926KSTC STC20060320123510003/20/06 12:35:31  5-MIN KSTC 201835Z 05012G16KT 10SM CLR 02/M09 A3032 660 42 -600 050/12G16 RMK AO2
14926KSTC STC20060320124010003/20/06 12:40:31  5-MIN KSTC 201840Z 07015G18KT 10SM CLR 02/M09 A3032 660 42 -600 070/15G18 RMK AO2
14926KSTC STC20060320124510003/20/06 12:45:31  5-MIN KSTC 201845Z 06009G18KT 10SM CLR 02/M09 A3031 670 42 -600 060/09G18 RMK AO2
14926KSTC STC20060320125011703/20/06 12:50:31  5-MIN KSTC 201850Z 08012G16KT 10SM CLR 02/M09 A3031 670 42 -600 070/12G16 RMK AO2 SLP284 T00221094
14926KSTC STC20060320125510003/20/06 12:55:31  5-MIN KSTC 201855Z 04012G18KT 10SM CLR 02/M09 A3031 670 42 -600 040/12G18 RMK AO2
14926KSTC STC20060320130010003/20/06 13:00:31  5-MIN KSTC 201900Z 04014G18KT 10SM CLR 02/M09 A3031 670 43 -700 040/14G18 RMK AO2
14926KSTC STC20060320130510003/20/06 13:05:31  5-MIN KSTC 201905Z 07013G18KT 10SM CLR 02/M09 A3030 680 43 -700 060/13G18 RMK AO2
14926KSTC STC20060320131010003/20/06 13:10:31  5-MIN KSTC 201910Z 06011G18KT 10SM CLR 02/M09 A3030 680 43 -700 050/11G18 RMK AO2
14926KSTC STC20060320131510003/20/06 13:15:31  5-MIN KSTC 201915Z 07013G17KT 10SM CLR 02/M09 A3030 680 44 -600 070/13G17 RMK AO2
14926KSTC STC20060320132010003/20/06 13:20:31  5-MIN KSTC 201920Z 05010G17KT 10SM CLR 02/M09 A3030 680 43 -700 050/10G17 RMK AO2
14926KSTC STC20060320132509403/20/06 13:25:31  5-MIN KSTC 201925Z 04010KT 10SM CLR 02/M09 A3030 680 45 -700 040/10 RMK AO2
14926KSTC STC20060320133009403/20/06 13:30:31  5-MIN KSTC 201930Z 04015KT 10SM CLR 02/M09 A3030 680 45 -700 040/15 RMK AO2
14926KSTC STC20060320133510003/20/06 13:35:31  5-MIN KSTC 201935Z 05014G19KT 10SM CLR 02/M09 A3030 680 45 -700 050/14G19 RMK AO2
14926KSTC STC20060320134010003/20/06 13:40:31  5-MIN KSTC 201940Z 07014G19KT 10SM CLR 02/M09 A3029 680 43 -700 060/14G19 RMK AO2
14926KSTC STC20060320134509403/20/06 13:45:31  5-MIN KSTC 201945Z 07013KT 10SM CLR 02/M09 A3029 690 44 -600 060/13 RMK AO2
14926KSTC STC20060320135011703/20/06 13:50:31  5-MIN KSTC 201950Z 04014G18KT 10SM CLR 02/M09 A3029 690 44 -600 040/14G18 RMK AO2 SLP277 T00221089
14926KSTC STC20060320135510003/20/06 13:55:31  5-MIN KSTC 201955Z 06009G18KT 10SM CLR 02/M09 A3029 690 44 -600 060/09G18 RMK AO2
14926KSTC STC20060320140010003/20/06 14:00:31  5-MIN KSTC 202000Z 06013G16KT 10SM CLR 02/M08 A3028 690 45 -600 060/13G16 RMK AO2
14926KSTC STC20060320140510003/20/06 14:05:31  5-MIN KSTC 202005Z 04011G16KT 10SM CLR 02/M08 A3028 690 45 -600 040/11G16 RMK AO2
14926KSTC STC20060320141009403/20/06 14:10:31  5-MIN KSTC 202010Z 04014KT 10SM CLR 02/M08 A3028 700 45 -600 040/14 RMK AO2
14926KSTC STC20060320141509403/20/06 14:15:31  5-MIN KSTC 202015Z 07013KT 10SM CLR 02/M08 A3027 700 45 -600 060/13 RMK AO2
14926KSTC STC20060320142010003/20/06 14:20:31  5-MIN KSTC 202020Z 04014G19KT 10SM CLR 02/M08 A3027 700 45 -600 040/14G19 RMK AO2
14926KSTC STC20060320142510003/20/06 14:25:31  5-MIN KSTC 202025Z 06012G19KT 10SM CLR 02/M08 A3027 710 45 -600 050/12G19 RMK AO2
14926KSTC STC20060320143010003/20/06 14:30:31  5-MIN KSTC 202030Z 06015G19KT 10SM CLR 02/M08 A3027 710 45 -600 060/15G19 RMK AO2
14926KSTC STC20060320143510003/20/06 14:35:31  5-MIN KSTC 202035Z 05014G20KT 10SM CLR 02/M08 A3027 710 45 -600 050/14G20 RMK AO2
14926KSTC STC20060320144010003/20/06 14:40:31  5-MIN KSTC 202040Z 04013G20KT 10SM CLR 02/M08 A3027 710 45 -600 040/13G20 RMK AO2
14926KSTC STC20060320144510003/20/06 14:45:31  5-MIN KSTC 202045Z 05011G18KT 10SM CLR 03/M08 A3027 710 44 -500 040/11G18 RMK AO2
14926KSTC STC20060320145011703/20/06 14:50:31  5-MIN KSTC 202050Z 05011KT 10SM CLR 03/M08 A3026 710 44 -500 050/11 RMK AO2 SLP269 T00281083 56016
14926KSTC STC20060320145509403/20/06 14:55:31  5-MIN KSTC 202055Z 06012KT 10SM CLR 03/M08 A3026 710 44 -500 060/12 RMK AO2
14926KSTC STC20060320150009403/20/06 15:00:31  5-MIN KSTC 202100Z 05015KT 10SM CLR 02/M08 A3026 710 45 -600 050/15 RMK AO2
14926KSTC STC20060320150509403/20/06 15:05:31  5-MIN KSTC 202105Z 05008KT 10SM CLR 02/M08 A3026 710 45 -600 050/08 RMK AO2
14926KSTC STC20060320151009403/20/06 15:10:31  5-MIN KSTC 202110Z 06010KT 10SM CLR 03/M08 A3026 710 46 -500 060/10 RMK AO2
14926KSTC STC20060320151510003/20/06 15:15:31  5-MIN KSTC 202115Z 04012G18KT 10SM CLR 02/M08 A3026 710 47 -600 040/12G18 RMK AO2
14926KSTC STC20060320152010003/20/06 15:20:31  5-MIN KSTC 202120Z 05011G18KT 10SM CLR 02/M08 A3026 710 47 -600 040/11G18 RMK AO2
14926KSTC STC20060320152510003/20/06 15:25:31  5-MIN KSTC 202125Z 06014G19KT 10SM CLR 02/M08 A3026 710 47 -600 050/14G19 RMK AO2
14926KSTC STC20060320153010003/20/06 15:30:31  5-MIN KSTC 202130Z 04015G21KT 10SM CLR 02/M08 A3026 710 45 -600 040/15G21 RMK AO2
14926KSTC STC20060320153510003/20/06 15:35:31  5-MIN KSTC 202135Z 04014G21KT 10SM CLR 02/M08 A3026 720 47 -600 040/14G21 RMK AO2
14926KSTC STC20060320154009403/20/06 15:40:31  5-MIN KSTC 202140Z 04015KT 10SM CLR 02/M08 A3026 720 47 -600 040/15 RMK AO2
14926KSTC STC20060320154510003/20/06 15:45:31  5-MIN KSTC 202145Z 04015G19KT 10SM CLR 02/M08 A3026 720 47 -600 040/15G19 RMK AO2
14926KSTC STC20060320155011703/20/06 15:50:31  5-MIN KSTC 202150Z 05014G21KT 10SM CLR 02/M08 A3025 720 47 -600 040/14G21 RMK AO2 SLP267 T00171083
14926KSTC STC20060320155510003/20/06 15:55:31  5-MIN KSTC 202155Z 06013G21KT 10SM CLR 02/M08 A3026 720 47 -600 050/13G21 RMK AO2
14926KSTC STC20060320160010003/20/06 16:00:31  5-MIN KSTC 202200Z 04013G20KT 10SM CLR 02/M08 A3026 720 47 -600 040/13G20 RMK AO2
14926KSTC STC20060320160510003/20/06 16:05:31  5-MIN KSTC 202205Z 05012G20KT 10SM CLR 02/M08 A3026 720 47 -600 050/12G20 RMK AO2
14926KSTC STC20060320161010003/20/06 16:10:31  5-MIN KSTC 202210Z 05010G18KT 10SM CLR 02/M08 A3025 720 47 -600 050/10G18 RMK AO2
14926KSTC STC20060320161509403/20/06 16:15:31  5-MIN KSTC 202215Z 04014KT 10SM CLR 02/M08 A3025 720 47 -600 030/14 RMK AO2
14926KSTC STC20060320162010003/20/06 16:20:31  5-MIN KSTC 202220Z 04014G21KT 10SM CLR 02/M08 A3025 720 47 -600 040/14G21 RMK AO2
14926KSTC STC20060320162510003/20/06 16:25:31  5-MIN KSTC 202225Z 04014G21KT 10SM CLR 02/M08 A3025 730 47 -600 040/14G21 RMK AO2
14926KSTC STC20060320163010003/20/06 16:30:31  5-MIN KSTC 202230Z 04015G22KT 10SM CLR 02/M08 A3024 730 47 -600 040/15G22 RMK AO2
14926KSTC STC20060320163510003/20/06 16:35:31  5-MIN KSTC 202235Z 04015G22KT 10SM CLR 02/M08 A3024 730 47 -600 040/15G22 RMK AO2
14926KSTC STC20060320164010003/20/06 16:40:31  5-MIN KSTC 202240Z 04014G20KT 10SM CLR 02/M08 A3024 730 47 -600 040/14G20 RMK AO2
14926KSTC STC20060320164510003/20/06 16:45:31  5-MIN KSTC 202245Z 04014G20KT 10SM CLR 02/M08 A3024 730 47 -600 040/14G20 RMK AO2
14926KSTC STC20060320165011703/20/06 16:50:31  5-MIN KSTC 202250Z 05013G21KT 10SM CLR 01/M09 A3024 730 47 -700 040/13G21 RMK AO2 SLP261 T00111089
14926KSTC STC20060320165510003/20/06 16:55:31  5-MIN KSTC 202255Z 04016G23KT 10SM CLR 01/M08 A3024 730 49 -700 040/16G23 RMK AO2
14926KSTC STC20060320170010003/20/06 17:00:31  5-MIN KSTC 202300Z 04015G23KT 10SM CLR 01/M09 A3024 740 47 -700 040/15G23 RMK AO2
14926KSTC STC20060320170510003/20/06 17:05:31  5-MIN KSTC 202305Z 04014G23KT 10SM CLR 01/M08 A3023 740 49 -700 040/14G23 RMK AO2
14926KSTC STC20060320171010003/20/06 17:10:31  5-MIN KSTC 202310Z 04012G21KT 10SM CLR 01/M08 A3024 740 49 -700 040/12G21 RMK AO2
14926KSTC STC20060320171510003/20/06 17:15:31  5-MIN KSTC 202315Z 04015G20KT 10SM CLR 01/M08 A3024 740 49 -700 040/15G20 RMK AO2
14926KSTC STC20060320172010003/20/06 17:20:31  5-MIN KSTC 202320Z 05012G20KT 10SM CLR 01/M08 A3024 730 49 -700 050/12G20 RMK AO2
14926KSTC STC20060320172510003/20/06 17:25:31  5-MIN KSTC 202325Z 04016G20KT 10SM CLR 01/M08 A3024 730 49 -700 040/16G20 RMK AO2
14926KSTC STC20060320173010003/20/06 17:30:31  5-MIN KSTC 202330Z 04014G20KT 10SM CLR 01/M08 A3024 730 49 -700 040/14G20 RMK AO2
14926KSTC STC20060320173509403/20/06 17:35:31  5-MIN KSTC 202335Z 05014KT 10SM CLR 01/M08 A3024 730 49 -700 050/14 RMK AO2
14926KSTC STC20060320174010003/20/06 17:40:31  5-MIN KSTC 202340Z 04014G20KT 10SM CLR 01/M08 A3024 730 51 -800 040/14G20 RMK AO2
14926KSTC STC20060320174510003/20/06 17:45:31  5-MIN KSTC 202345Z 04014G20KT 10SM CLR 01/M08 A3024 730 51 -800 040/14G20 RMK AO2
14926KSTC STC20060320175013503/20/06 17:50:31  5-MIN KSTC 202350Z 05012G18KT 10SM CLR 01/M08 A3024 730 51 -800 040/12G18 RMK AO2 SLP264 T00061083 10028 20006 58022
14926KSTC STC20060320175509403/20/06 17:55:31  5-MIN KSTC 202355Z 05012KT 10SM CLR 01/M08 A3025 730 51 -800 050/12 RMK AO2
14926KSTC STC20060320180010003/20/06 18:00:31  5-MIN KSTC 210000Z 04012G18KT 10SM CLR 01/M08 A3025 720 51 -800 040/12G18 RMK AO2
14926KSTC STC20060320180510003/20/06 18:05:31  5-MIN KSTC 210005Z 04012G18KT 10SM CLR 01/M08 A3025 720 51 -800 040/12G18 RMK AO2
14926KSTC STC20060320181010003/20/06 18:10:31  5-MIN KSTC 210010Z 04015G23KT 10SM CLR 01/M09 A3025 720 49 -800 030/15G23 RMK AO2
14926KSTC STC20060320181510003/20/06 18:15:31  5-MIN KSTC 210015Z 05014G23KT 10SM CLR 00/M09 A3026 720 51 -900 050/14G23 RMK AO2
14926KSTC STC20060320182010003/20/06 18:20:31  5-MIN KSTC 210020Z 05013G21KT 10SM CLR 00/M09 A3026 710 49 -900 050/13G21 RMK AO2
14926KSTC STC20060320182510003/20/06 18:25:31  5-MIN KSTC 210025Z 05014G21KT 10SM CLR 00/M09 A3026 710 49 -900 040/14G21 RMK AO2
14926KSTC STC20060320183010003/20/06 18:30:31  5-MIN KSTC 210030Z 05013G20KT 10SM CLR 00/M09 A3026 710 49 -900 050/13G20 RMK AO2
14926KSTC STC20060320183510003/20/06 18:35:31  5-MIN KSTC 210035Z 05013G19KT 10SM CLR 00/M09 A3026 710 49 -900 050/13G19 RMK AO2
14926KSTC STC20060320184010003/20/06 18:40:31  5-MIN KSTC 210040Z 04015G21KT 10SM CLR 00/M09 A3026 710 49 -900 040/15G21 RMK AO2
14926KSTC STC20060320184510003/20/06 18:45:31  5-MIN KSTC 210045Z 05016G24KT 10SM CLR 00/M09 A3026 710 49 -900 050/16G24 RMK AO2
14926KSTC STC20060320185011703/20/06 18:50:31  5-MIN KSTC 210050Z 04011G24KT 10SM CLR 00/M09 A3027 710 49 -900 040/11G24 RMK AO2 SLP272 T00001094
14926KSTC STC20060320185510003/20/06 18:55:31  5-MIN KSTC 210055Z 04013G18KT 10SM CLR 00/M09 A3027 700 49 -900 040/13G18 RMK AO2
14926KSTC STC20060320190010003/20/06 19:00:31  5-MIN KSTC 210100Z 05015G18KT 10SM CLR 00/M10 A3027 700 47 -900 050/15G18 RMK AO2
14926KSTC STC20060320190510003/20/06 19:05:31  5-MIN KSTC 210105Z 05011G18KT 10SM CLR 00/M10 A3027 700 47 -900 050/11G18 RMK AO2
14926KSTC STC20060320191009403/20/06 19:10:31  5-MIN KSTC 210110Z 05010KT 10SM CLR 00/M10 A3027 700 47 -900 050/10 RMK AO2
14926KSTC STC20060320191509403/20/06 19:15:31  5-MIN KSTC 210115Z 04011KT 10SM CLR 00/M10 A3028 700 47 -900 040/11 RMK AO2
14926KSTC STC20060320192009403/20/06 19:20:31  5-MIN KSTC 210120Z 04011KT 10SM CLR 00/M10 A3028 700 47 -900 040/11 RMK AO2
14926KSTC STC20060320192510003/20/06 19:25:31  5-MIN KSTC 210125Z 04015G20KT 10SM CLR 00/M10 A3028 700 47 -900 040/15G20 RMK AO2
14926KSTC STC20060320193010003/20/06 19:30:31  5-MIN KSTC 210130Z 05015G20KT 10SM CLR 00/M11 A3028 700 45 -900 050/15G20 RMK AO2
14926KSTC STC20060320193510003/20/06 19:35:31  5-MIN KSTC 210135Z 04014G21KT 10SM CLR 00/M11 A3028 690 45 -900 040/14G21 RMK AO2
14926KSTC STC20060320194010003/20/06 19:40:31  5-MIN KSTC 210140Z 04011G21KT 10SM CLR 00/M11 A3028 690 45 -900 040/11G21 RMK AO2
14926KSTC STC20060320194510203/20/06 19:45:31  5-MIN KSTC 210145Z 04013G18KT 10SM CLR M01/M11 A3028 690 47 -1000 040/13G18 RMK AO2
14926KSTC STC20060320195011903/20/06 19:50:31  5-MIN KSTC 210150Z 04013G19KT 10SM CLR M01/M11 A3028 690 47 -1000 040/13G19 RMK AO2 SLP277 T10061106
14926KSTC STC20060320195510203/20/06 19:55:31  5-MIN KSTC 210155Z 05014G19KT 10SM CLR M01/M11 A3029 690 47 -1000 040/14G19 RMK AO2
14926KSTC STC20060320200010203/20/06 20:00:31  5-MIN KSTC 210200Z 04014G19KT 10SM CLR M01/M11 A3029 690 47 -1000 040/14G19 RMK AO2
14926KSTC STC20060320200510203/20/06 20:05:31  5-MIN KSTC 210205Z 04010G20KT 10SM CLR M01/M10 A3029 690 49 -1000 040/10G20 RMK AO2
14926KSTC STC20060320201010203/20/06 20:10:31  5-MIN KSTC 210210Z 05015G20KT 10SM CLR M01/M10 A3029 690 49 -1000 050/15G20 RMK AO2
14926KSTC STC20060320201509603/20/06 20:15:31  5-MIN KSTC 210215Z 04013KT 10SM CLR M01/M10 A3029 690 49 -1000 030/13 RMK AO2
14926KSTC STC20060320202010203/20/06 20:20:31  5-MIN KSTC 210220Z 04015G19KT 10SM CLR M01/M10 A3028 690 49 -1000 040/15G19 RMK AO2
14926KSTC STC20060320202510203/20/06 20:25:31  5-MIN KSTC 210225Z 04011G19KT 10SM CLR M01/M10 A3028 690 49 -1000 040/11G19 RMK AO2
14926KSTC STC20060320203009603/20/06 20:30:31  5-MIN KSTC 210230Z 05012KT 10SM CLR M01/M10 A3028 690 51 -1000 040/12 RMK AO2
14926KSTC STC20060320203509603/20/06 20:35:31  5-MIN KSTC 210235Z 04014KT 10SM CLR M01/M10 A3028 690 51 -1000 040/14 RMK AO2
14926KSTC STC20060320204009603/20/06 20:40:31  5-MIN KSTC 210240Z 04012KT 10SM CLR M01/M10 A3028 690 51 -1000 040/12 RMK AO2
14926KSTC STC20060320204510203/20/06 20:45:31  5-MIN KSTC 210245Z 04018G23KT 10SM CLR M01/M10 A3029 690 51 -1000 030/18G23 RMK AO2
14926KSTC STC20060320205012503/20/06 20:50:31  5-MIN KSTC 210250Z 04015G23KT 10SM CLR M01/M10 A3029 690 51 -1000 040/15G23 RMK AO2 SLP278 T10111100 55005
14926KSTC STC20060320205510203/20/06 20:55:31  5-MIN KSTC 210255Z 04018G23KT 10SM CLR M01/M10 A3028 690 51 -1000 040/18G23 RMK AO2
14926KSTC STC20060320210010203/20/06 21:00:31  5-MIN KSTC 210300Z 05012G22KT 10SM CLR M01/M10 A3028 690 51 -1000 040/12G22 RMK AO2
14926KSTC STC20060320210510203/20/06 21:05:31  5-MIN KSTC 210305Z 04013G19KT 10SM CLR M01/M10 A3028 690 51 -1000 040/13G19 RMK AO2
14926KSTC STC20060320211010203/20/06 21:10:31  5-MIN KSTC 210310Z 05012G20KT 10SM CLR M01/M10 A3028 690 51 -1000 040/12G20 RMK AO2
14926KSTC STC20060320211510203/20/06 21:15:31  5-MIN KSTC 210315Z 05015G22KT 10SM CLR M01/M10 A3028 690 51 -1000 050/15G22 RMK AO2
14926KSTC STC20060320212010203/20/06 21:20:31  5-MIN KSTC 210320Z 05012G22KT 10SM CLR M02/M10 A3028 690 53 -1100 040/12G22 RMK AO2
14926KSTC STC20060320212510203/20/06 21:25:31  5-MIN KSTC 210325Z 05010G19KT 10SM CLR M02/M10 A3028 690 53 -1100 050/10G19 RMK AO2
14926KSTC STC20060320213010203/20/06 21:30:31  5-MIN KSTC 210330Z 05016G23KT 10SM CLR M02/M10 A3028 690 53 -1100 040/16G23 RMK AO2
14926KSTC STC20060320213510203/20/06 21:35:31  5-MIN KSTC 210335Z 05014G23KT 10SM CLR M02/M10 A3028 700 53 -1100 050/14G23 RMK AO2
14926KSTC STC20060320214010203/20/06 21:40:31  5-MIN KSTC 210340Z 05011G20KT 10SM CLR M02/M10 A3028 700 53 -1100 050/11G20 RMK AO2
14926KSTC STC20060320214510203/20/06 21:45:31  5-MIN KSTC 210345Z 05015G21KT 10SM CLR M02/M11 A3028 690 51 -1100 050/15G21 RMK AO2
14926KSTC STC20060320215011903/20/06 21:50:31  5-MIN KSTC 210350Z 05014G21KT 10SM CLR M02/M11 A3028 690 51 -1100 050/14G21 RMK AO2 SLP277 T10171106
14926KSTC STC20060320215510203/20/06 21:55:31  5-MIN KSTC 210355Z 05012G22KT 10SM CLR M02/M11 A3028 690 51 -1100 050/12G22 RMK AO2
14926KSTC STC20060320220010203/20/06 22:00:31  5-MIN KSTC 210400Z 06016G22KT 10SM CLR M02/M11 A3028 690 51 -1100 060/16G22 RMK AO2
14926KSTC STC20060320220510203/20/06 22:05:31  5-MIN KSTC 210405Z 06015G22KT 10SM CLR M02/M11 A3029 690 51 -1100 050/15G22 RMK AO2
14926KSTC STC20060320221010203/20/06 22:10:31  5-MIN KSTC 210410Z 05012G22KT 10SM CLR M02/M11 A3029 690 51 -1100 050/12G22 RMK AO2
14926KSTC STC20060320221510203/20/06 22:15:31  5-MIN KSTC 210415Z 05013G19KT 10SM CLR M02/M11 A3029 690 51 -1100 050/13G19 RMK AO2
14926KSTC STC20060320222010203/20/06 22:20:31  5-MIN KSTC 210420Z 06015G22KT 10SM CLR M02/M11 A3029 690 51 -1100 060/15G22 RMK AO2
14926KSTC STC20060320222510203/20/06 22:25:31  5-MIN KSTC 210425Z 05013G22KT 10SM CLR M02/M11 A3029 680 51 -1100 050/13G22 RMK AO2
14926KSTC STC20060320223010203/20/06 22:30:31  5-MIN KSTC 210430Z 05012G18KT 10SM CLR M02/M11 A3029 680 51 -1100 050/12G18 RMK AO2
14926KSTC STC20060320223510203/20/06 22:35:31  5-MIN KSTC 210435Z 06013G18KT 10SM CLR M02/M11 A3030 680 51 -1100 060/13G18 RMK AO2
14926KSTC STC20060320224010203/20/06 22:40:31  5-MIN KSTC 210440Z 06012G18KT 10SM CLR M02/M10 A3030 680 53 -1100 050/12G18 RMK AO2
14926KSTC STC20060320224510703/20/06 22:45:31  5-MIN KSTC 210445Z AUTO 05011G18KT 10SM CLR M02/M11 A3030 680 51 -1100 050/11G18 RMK AO2
14926KSTC STC20060320225012403/20/06 22:50:31  5-MIN KSTC 210450Z AUTO 05010G20KT 10SM CLR M02/M10 A3030 680 55 -1200 050/10G20 RMK AO2 SLP283 T10221100
14926KSTC STC20060320225510703/20/06 22:55:31  5-MIN KSTC 210455Z AUTO 05010G20KT 10SM CLR M02/M10 A3030 670 55 -1200 050/10G20 RMK AO2
14926KSTC STC20060320230010103/20/06 23:00:31  5-MIN KSTC 210500Z AUTO 05012KT 10SM CLR M02/M10 A3030 670 55 -1200 050/12 RMK AO2
14926KSTC STC20060320230510103/20/06 23:05:31  5-MIN KSTC 210505Z AUTO 06012KT 10SM CLR M02/M10 A3030 670 55 -1200 060/12 RMK AO2
14926KSTC STC20060320231010103/20/06 23:10:31  5-MIN KSTC 210510Z AUTO 05012KT 10SM CLR M02/M10 A3030 670 55 -1200 050/12 RMK AO2
14926KSTC STC20060320231510703/20/06 23:15:31  5-MIN KSTC 210515Z AUTO 05012G17KT 10SM CLR M02/M10 A3030 670 55 -1200 040/12G17 RMK AO2
14926KSTC STC20060320232010103/20/06 23:20:31  5-MIN KSTC 210520Z AUTO 05012KT 10SM CLR M02/M10 A3030 670 55 -1200 040/12 RMK AO2
14926KSTC STC20060320232510103/20/06 23:25:31  5-MIN KSTC 210525Z AUTO 05013KT 10SM CLR M02/M10 A3031 670 55 -1200 050/13 RMK AO2
14926KSTC STC20060320233010103/20/06 23:30:31  5-MIN KSTC 210530Z AUTO 05012KT 10SM CLR M02/M09 A3030 670 58 -1200 050/12 RMK AO2
14926KSTC STC20060320233510103/20/06 23:35:31  5-MIN KSTC 210535Z AUTO 04010KT 10SM CLR M02/M09 A3030 670 58 -1200 040/10 RMK AO2
14926KSTC STC20060320234010103/20/06 23:40:31  5-MIN KSTC 210540Z AUTO 05011KT 10SM CLR M02/M09 A3030 670 58 -1200 040/11 RMK AO2
14926KSTC STC20060320234510103/20/06 23:45:31  5-MIN KSTC 210545Z AUTO 05011KT 10SM CLR M03/M09 A3030 670 60 -1300 050/11 RMK AO2
14926KSTC STC20060320235014603/20/06 23:50:31  5-MIN KSTC 210550Z AUTO 05009KT 10SM CLR M03/M09 A3030 670 60 -1300 050/09 RMK AO2 SLP284 T10281094 10006 21028 400281028 51012
14926KSTC STC20060320235510703/20/06 23:55:31  5-MIN KSTC 210555Z AUTO 05010G18KT 10SM CLR M03/M09 A3030 670 60 -1300 050/10G18 RMK AO2
14926KSTC STC20060321000010703/21/06 00:00:32  5-MIN KSTC 210600Z AUTO 04012G18KT 10SM CLR M03/M09 A3030 670 60 -1300 040/12G18 RMK AO2
14926KSTC STC20060321000510703/21/06 00:05:31  5-MIN KSTC 210605Z AUTO 06011G17KT 10SM CLR M03/M09 A3030 670 60 -1300 060/11G17 RMK AO2
14926KSTC STC20060321001010703/21/06 00:10:31  5-MIN KSTC 210610Z AUTO 05013G17KT 10SM CLR M03/M09 A3030 670 60 -1300 050/13G17 RMK AO2
14926KSTC STC20060321001510103/21/06 00:15:31  5-MIN KSTC 210615Z AUTO 05012KT 10SM CLR M03/M09 A3030 670 60 -1300 050/12 RMK AO2
14926KSTC STC20060321002010103/21/06 00:20:31  5-MIN KSTC 210620Z AUTO 05012KT 10SM CLR M03/M09 A3031 670 60 -1300 040/12 RMK AO2
14926KSTC STC20060321002510103/21/06 00:25:31  5-MIN KSTC 210625Z AUTO 05011KT 10SM CLR M03/M09 A3031 670 60 -1300 040/11 RMK AO2
14926KSTC STC20060321003010703/21/06 00:30:31  5-MIN KSTC 210630Z AUTO 05010G17KT 10SM CLR M03/M09 A3031 670 60 -1300 050/10G17 RMK AO2
14926KSTC STC20060321003510703/21/06 00:35:31  5-MIN KSTC 210635Z AUTO 06012G17KT 10SM CLR M03/M09 A3031 670 60 -1300 060/12G17 RMK AO2
14926KSTC STC20060321004010103/21/06 00:40:31  5-MIN KSTC 210640Z AUTO 05009KT 10SM CLR M03/M09 A3031 670 63 -1300 050/09 RMK AO2
14926KSTC STC20060321004510103/21/06 00:45:31  5-MIN KSTC 210645Z AUTO 05010KT 10SM CLR M03/M09 A3031 670 63 -1300 050/10 RMK AO2
14926KSTC STC20060321005012403/21/06 00:50:31  5-MIN KSTC 210650Z AUTO 05009G16KT 10SM CLR M03/M09 A3031 670 63 -1300 050/09G16 RMK AO2 SLP285 T10331094
14926KSTC STC20060321005510703/21/06 00:55:31  5-MIN KSTC 210655Z AUTO 05012G17KT 10SM CLR M03/M10 A3030 670 60 -1300 050/12G17 RMK AO2
14926KSTC STC20060321010010103/21/06 01:00:31  5-MIN KSTC 210700Z AUTO 05012KT 10SM CLR M03/M09 A3030 670 63 -1300 050/12 RMK AO2
14926KSTC STC20060321010510103/21/06 01:05:31  5-MIN KSTC 210705Z AUTO 05011KT 10SM CLR M03/M09 A3031 670 63 -1300 050/11 RMK AO2
14926KSTC STC20060321011010103/21/06 01:10:31  5-MIN KSTC 210710Z AUTO 06012KT 10SM CLR M03/M09 A3031 670 63 -1300 050/12 RMK AO2
14926KSTC STC20060321011510703/21/06 01:15:31  5-MIN KSTC 210715Z AUTO 04009G17KT 10SM CLR M03/M09 A3031 670 63 -1300 040/09G17 RMK AO2
14926KSTC STC20060321012010103/21/06 01:20:31  5-MIN KSTC 210720Z AUTO 05009KT 10SM CLR M03/M09 A3031 670 63 -1300 050/09 RMK AO2
14926KSTC STC20060321012510703/21/06 01:25:31  5-MIN KSTC 210725Z AUTO 06013G17KT 10SM CLR M03/M09 A3031 670 63 -1300 050/13G17 RMK AO2
14926KSTC STC20060321013010703/21/06 01:30:31  5-MIN KSTC 210730Z AUTO 05012G17KT 10SM CLR M03/M09 A3030 670 63 -1300 050/12G17 RMK AO2
14926KSTC STC20060321013510703/21/06 01:35:31  5-MIN KSTC 210735Z AUTO 05012G16KT 10SM CLR M03/M09 A3030 670 63 -1300 040/12G16 RMK AO2
14926KSTC STC20060321014010703/21/06 01:40:31  5-MIN KSTC 210740Z AUTO 05012G16KT 10SM CLR M04/M09 A3030 670 65 -1400 050/12G16 RMK AO2
14926KSTC STC20060321014510103/21/06 01:45:31  5-MIN KSTC 210745Z AUTO 06011KT 10SM CLR M04/M09 A3030 670 65 -1400 050/11 RMK AO2
14926KSTC STC20060321015012403/21/06 01:50:31  5-MIN KSTC 210750Z AUTO 06015G21KT 10SM CLR M04/M09 A3030 680 65 -1400 060/15G21 RMK AO2 SLP282 T10391094
14926KSTC STC20060321015510703/21/06 01:55:31  5-MIN KSTC 210755Z AUTO 06012G21KT 10SM CLR M04/M09 A3030 680 65 -1400 060/12G21 RMK AO2
14926KSTC STC20060321020010703/21/06 02:00:31  5-MIN KSTC 210800Z AUTO 05009G18KT 10SM CLR M04/M09 A3030 680 65 -1400 050/09G18 RMK AO2
14926KSTC STC20060321020510703/21/06 02:05:31  5-MIN KSTC 210805Z AUTO 04011G17KT 10SM CLR M04/M09 A3029 680 68 -1400 040/11G17 RMK AO2
14926KSTC STC20060321034510703/21/06 03:45:31  5-MIN KSTC 210945Z AUTO 06014G20KT 10SM CLR M04/M09 A3029 690 68 -1500 060/14G20 RMK AO2
14926KSTC STC20060321035012403/21/06 03:50:31  5-MIN KSTC 210950Z AUTO 05013G20KT 10SM CLR M04/M09 A3029 690 68 -1500 050/13G20 RMK AO2 SLP279 T10441094
14926KSTC STC20060321035510703/21/06 03:55:31  5-MIN KSTC 210955Z AUTO 07012G17KT 10SM CLR M04/M09 A3029 690 68 -1500 060/12G17 RMK AO2
14926KSTC STC20060321040010103/21/06 04:00:31  5-MIN KSTC 211000Z AUTO 06012KT 10SM CLR M04/M09 A3029 690 68 -1500 050/12 RMK AO2
14926KSTC STC20060321040510703/21/06 04:05:31  5-MIN KSTC 211005Z AUTO 06011G19KT 10SM CLR M04/M09 A3029 680 68 -1500 060/11G19 RMK AO2
14926KSTC STC20060321041010703/21/06 04:10:31  5-MIN KSTC 211010Z AUTO 06015G20KT 10SM CLR M04/M09 A3029 680 68 -1500 050/15G20 RMK AO2
14926KSTC STC20060321041510703/21/06 04:15:31  5-MIN KSTC 211015Z AUTO 06012G20KT 10SM CLR M05/M09 A3029 690 71 -1500 050/12G20 RMK AO2
14926KSTC STC20060321042010703/21/06 04:20:31  5-MIN KSTC 211020Z AUTO 05011G18KT 10SM CLR M05/M09 A3028 690 71 -1500 050/11G18 RMK AO2
14926KSTC STC20060321042510703/21/06 04:25:31  5-MIN KSTC 211025Z AUTO 05010G18KT 10SM CLR M05/M09 A3028 690 71 -1500 050/10G18 RMK AO2
14926KSTC STC20060321043010103/21/06 04:30:31  5-MIN KSTC 211030Z AUTO 05011KT 10SM CLR M05/M09 A3028 690 71 -1500 050/11 RMK AO2
14926KSTC STC20060321043510703/21/06 04:35:31  5-MIN KSTC 211035Z AUTO 05009G17KT 10SM CLR M05/M09 A3028 690 71 -1500 040/09G17 RMK AO2
14926KSTC STC20060321044010703/21/06 04:40:31  5-MIN KSTC 211040Z AUTO 05012G17KT 10SM CLR M05/M09 A3028 690 71 -1500 050/12G17 RMK AO2
14926KSTC STC20060321044510703/21/06 04:45:31  5-MIN KSTC 211045Z AUTO 05011G17KT 10SM CLR M05/M09 A3028 690 71 -1500 050/11G17 RMK AO2
14926KSTC STC20060321045012403/21/06 04:50:31  5-MIN KSTC 211050Z AUTO 06011G18KT 10SM CLR M05/M09 A3029 690 71 -1500 060/11G18 RMK AO2 SLP278 T10501094
14926KSTC STC20060321045510703/21/06 04:55:31  5-MIN KSTC 211055Z AUTO 05010G19KT 10SM CLR M05/M09 A3028 690 71 -1500 050/10G19 RMK AO2
14926KSTC STC20060321050010703/21/06 05:00:31  5-MIN KSTC 211100Z AUTO 06010G19KT 10SM CLR M05/M09 A3029 690 71 -1500 050/10G19 RMK AO2
14926KSTC STC20060321050510703/21/06 05:05:31  5-MIN KSTC 211105Z AUTO 06012G19KT 10SM CLR M05/M09 A3029 690 71 -1500 050/12G19 RMK AO2
14926KSTC STC20060321051010103/21/06 05:10:31  5-MIN KSTC 211110Z AUTO 05011KT 10SM CLR M05/M09 A3029 690 71 -1500 050/11 RMK AO2
14926KSTC STC20060321051511003/21/06 05:15:31  5-MIN KSTC 211115Z AUTO 06011G17KT 10SM FEW024 M05/M09 A3029 680 71 -1500 060/11G17 RMK AO2
14926KSTC STC20060321052011003/21/06 05:20:31  5-MIN KSTC 211120Z AUTO 06012G16KT 10SM FEW024 M04/M09 A3030 680 68 -1500 060/12G16 RMK AO2
14926KSTC STC20060321052510403/21/06 05:25:31  5-MIN KSTC 211125Z AUTO 06010KT 10SM SCT024 M05/M09 A3030 680 71 -1500 060/10 RMK AO2
14926KSTC STC20060321053011003/21/06 05:30:31  5-MIN KSTC 211130Z AUTO 06011G20KT 10SM SCT024 M04/M09 A3030 680 68 -1500 060/11G20 RMK AO2
14926KSTC STC20060321053511003/21/06 05:35:31  5-MIN KSTC 211135Z AUTO 06012G20KT 10SM BKN024 M04/M09 A3030 680 68 -1500 060/12G20 RMK AO2
14926KSTC STC20060321054011003/21/06 05:40:31  5-MIN KSTC 211140Z AUTO 06008G16KT 10SM BKN024 M04/M09 A3030 670 68 -1500 060/08G16 RMK AO2
14926KSTC STC20060321054511003/21/06 05:45:31  5-MIN KSTC 211145Z AUTO 06010G21KT 10SM OVC024 M04/M09 A3030 670 68 -1500 060/10G21 RMK AO2
14926KSTC STC20060321055014503/21/06 05:50:31  5-MIN KSTC 211150Z AUTO 06012G21KT 10SM OVC024 M04/M09 A3031 670 68 -1500 060/12G21 RMK AO2 SLP285 T10441094 11028 21050 58004
14926KSTC STC20060321055510403/21/06 05:55:31  5-MIN KSTC 211155Z AUTO 07010KT 10SM OVC024 M04/M09 A3031 670 68 -1500 060/10 RMK AO2
14926KSTC STC20060321060010403/21/06 06:00:31  5-MIN KSTC 211200Z AUTO 06011KT 10SM OVC024 M04/M09 A3031 670 68 -1500 050/11 RMK AO2
14926KSTC STC20060321060510403/21/06 06:05:31  5-MIN KSTC 211205Z AUTO 06010KT 10SM OVC024 M04/M09 A3032 660 68 -1500 060/10 RMK AO2
14926KSTC STC20060321061012003/21/06 06:10:31  5-MIN KSTC 211210Z AUTO 06010KT 020V090 10SM OVC024 M04/M09 A3031 660 68 -1500 050/10 020V090 RMK AO2
14926KSTC STC20060321061511003/21/06 06:15:31  5-MIN KSTC 211215Z AUTO 07010G20KT 10SM OVC024 M04/M09 A3032 660 68 -1500 060/10G20 RMK AO2
14926KSTC STC20060321062011003/21/06 06:20:31  5-MIN KSTC 211220Z AUTO 07012G20KT 10SM OVC024 M04/M09 A3032 660 68 -1500 070/12G20 RMK AO2
14926KSTC STC20060321062511003/21/06 06:25:31  5-MIN KSTC 211225Z AUTO 07011G17KT 10SM OVC024 M04/M09 A3032 650 65 -1400 070/11G17 RMK AO2
14926KSTC STC20060321063011003/21/06 06:30:31  5-MIN KSTC 211230Z AUTO 07011G18KT 10SM OVC024 M04/M09 A3033 650 65 -1400 070/11G18 RMK AO2
14926KSTC STC20060321063511003/21/06 06:35:31  5-MIN KSTC 211235Z AUTO 06012G18KT 10SM OVC024 M04/M09 A3033 650 65 -1400 060/12G18 RMK AO2
14926KSTC STC20060321064010403/21/06 06:40:31  5-MIN KSTC 211240Z AUTO 07011KT 10SM OVC024 M04/M09 A3033 650 65 -1400 060/11 RMK AO2
14926KSTC STC20060321064511003/21/06 06:45:31  5-MIN KSTC 211245Z AUTO 06013G19KT 10SM OVC024 M04/M09 A3033 650 65 -1400 060/13G19 RMK AO2
14926KSTC STC20060321065012703/21/06 06:50:31  5-MIN KSTC 211250Z AUTO 07014G19KT 10SM OVC026 M04/M10 A3034 640 63 -1400 060/14G19 RMK AO2 SLP296 T10391100
14926KSTC STC20060321065511003/21/06 06:55:31  5-MIN KSTC 211255Z AUTO 07012G19KT 10SM OVC026 M04/M09 A3034 640 65 -1400 070/12G19 RMK AO2
14926KSTC STC20060321070011003/21/06 07:00:31  5-MIN KSTC 211300Z AUTO 06011G19KT 10SM OVC026 M04/M09 A3034 640 65 -1400 060/11G19 RMK AO2
14926KSTC STC20060321070511003/21/06 07:05:31  5-MIN KSTC 211305Z AUTO 06009G17KT 10SM OVC026 M04/M09 A3035 630 65 -1400 060/09G17 RMK AO2
14926KSTC STC20060321071009903/21/06 07:10:31  5-MIN KSTC 211310Z 06007KT 10SM OVC026 M04/M09 A3035 630 65 -1400 060/07 RMK AO2
14926KSTC STC20060321071509903/21/06 07:15:31  5-MIN KSTC 211315Z 06012KT 10SM OVC026 M04/M09 A3035 630 65 -1400 060/12 RMK AO2
14926KSTC STC20060321072009903/21/06 07:20:31  5-MIN KSTC 211320Z 06009KT 10SM OVC026 M04/M09 A3035 630 65 -1500 060/09 RMK AO2
14926KSTC STC20060321072510503/21/06 07:25:31  5-MIN KSTC 211325Z 06013G18KT 10SM OVC026 M04/M09 A3035 630 65 -1500 060/13G18 RMK AO2
14926KSTC STC20060321073010503/21/06 07:30:31  5-MIN KSTC 211330Z 07010G18KT 10SM OVC026 M04/M09 A3035 630 65 -1500 070/10G18 RMK AO2
14926KSTC STC20060321073509903/21/06 07:35:31  5-MIN KSTC 211335Z 07010KT 10SM OVC026 M03/M09 A3035 630 63 -1400 070/10 RMK AO2
14926KSTC STC20060321074010503/21/06 07:40:31  5-MIN KSTC 211340Z 07011G17KT 10SM OVC026 M03/M09 A3035 630 63 -1400 070/11G17 RMK AO2
14926KSTC STC20060321074510503/21/06 07:45:31  5-MIN KSTC 211345Z 07010G17KT 10SM OVC026 M03/M09 A3036 620 63 -1400 070/10G17 RMK AO2
14926KSTC STC20060321075011603/21/06 07:50:31  5-MIN KSTC 211350Z 07009KT 10SM OVC026 M03/M09 A3036 620 63 -1400 070/09 RMK AO2 SLP303 T10331094
14926KSTC STC20060321075509903/21/06 07:55:31  5-MIN KSTC 211355Z 07011KT 10SM OVC026 M03/M09 A3036 620 63 -1400 070/11 RMK AO2
14926KSTC STC20060321080009903/21/06 08:00:31  5-MIN KSTC 211400Z 06011KT 10SM OVC026 M03/M09 A3036 620 63 -1400 060/11 RMK AO2
14926KSTC STC20060321080509903/21/06 08:05:31  5-MIN KSTC 211405Z 07010KT 10SM OVC026 M03/M09 A3036 620 63 -1400 070/10 RMK AO2
14926KSTC STC20060321081010503/21/06 08:10:31  5-MIN KSTC 211410Z 07008G16KT 10SM OVC026 M03/M09 A3036 620 63 -1400 070/08G16 RMK AO2
14926KSTC STC20060321081510503/21/06 08:15:31  5-MIN KSTC 211415Z 08009G16KT 10SM OVC026 M03/M09 A3036 620 63 -1400 080/09G16 RMK AO2
14926KSTC STC20060321082010503/21/06 08:20:31  5-MIN KSTC 211420Z 08011G16KT 10SM OVC026 M03/M09 A3036 620 60 -1300 080/11G16 RMK AO2
14926KSTC STC20060321082509903/21/06 08:25:31  5-MIN KSTC 211425Z 07012KT 10SM OVC028 M03/M09 A3036 620 60 -1300 070/12 RMK AO2
14926KSTC STC20060321083009903/21/06 08:30:31  5-MIN KSTC 211430Z 05011KT 10SM OVC028 M03/M09 A3036 620 63 -1300 050/11 RMK AO2
14926KSTC STC20060321083509903/21/06 08:35:31  5-MIN KSTC 211435Z 07012KT 10SM OVC028 M03/M09 A3036 620 60 -1300 070/12 RMK AO2
14926KSTC STC20060321084010503/21/06 08:40:31  5-MIN KSTC 211440Z 07009G16KT 10SM OVC028 M03/M09 A3036 620 60 -1300 060/09G16 RMK AO2
14926KSTC STC20060321084509903/21/06 08:45:31  5-MIN KSTC 211445Z 06011KT 10SM OVC028 M03/M09 A3037 620 63 -1300 050/11 RMK AO2
14926KSTC STC20060321085012203/21/06 08:50:31  5-MIN KSTC 211450Z 06007KT 10SM OVC028 M03/M09 A3037 620 63 -1300 060/07 RMK AO2 SLP306 T10281089 53006
14926KSTC STC20060321085510503/21/06 08:55:31  5-MIN KSTC 211455Z 04012G16KT 10SM OVC028 M02/M09 A3037 620 60 -1300 040/12G16 RMK AO2
14926KSTC STC20060321090010503/21/06 09:00:31  5-MIN KSTC 211500Z 04007G16KT 10SM OVC028 M02/M09 A3037 620 60 -1300 040/07G16 RMK AO2
14926KSTC STC20060321090510503/21/06 09:05:31  5-MIN KSTC 211505Z 05013G16KT 10SM OVC028 M02/M09 A3037 620 60 -1300 050/13G16 RMK AO2
14926KSTC STC20060321091010503/21/06 09:10:31  5-MIN KSTC 211510Z 05010G16KT 10SM OVC028 M02/M09 A3037 620 60 -1300 040/10G16 RMK AO2
14926KSTC STC20060321091510503/21/06 09:15:31  5-MIN KSTC 211515Z 06009G16KT 10SM OVC028 M02/M09 A3037 620 60 -1300 060/09G16 RMK AO2
14926KSTC STC20060321092009903/21/06 09:20:31  5-MIN KSTC 211520Z 05011KT 10SM OVC028 M02/M09 A3036 620 60 -1300 050/11 RMK AO2
14926KSTC STC20060321092509903/21/06 09:25:31  5-MIN KSTC 211525Z 06009KT 10SM OVC028 M02/M09 A3037 620 60 -1300 050/09 RMK AO2
14926KSTC STC20060321093010503/21/06 09:30:31  5-MIN KSTC 211530Z 06009G16KT 10SM OVC028 M02/M09 A3037 620 60 -1300 060/09G16 RMK AO2
14926KSTC STC20060321093509903/21/06 09:35:31  5-MIN KSTC 211535Z 05011KT 10SM OVC028 M02/M09 A3037 620 60 -1300 040/11 RMK AO2
14926KSTC STC20060321094009903/21/06 09:40:31  5-MIN KSTC 211540Z 06011KT 10SM OVC028 M02/M09 A3037 620 58 -1200 050/11 RMK AO2
14926KSTC STC20060321094509903/21/06 09:45:31  5-MIN KSTC 211545Z 05010KT 10SM OVC028 M02/M09 A3037 620 58 -1200 050/10 RMK AO2
14926KSTC STC20060321095011603/21/06 09:50:31  5-MIN KSTC 211550Z 07009KT 10SM OVC028 M02/M09 A3037 620 58 -1200 060/09 RMK AO2 SLP306 T10171089
14926KSTC STC20060321095509903/21/06 09:55:31  5-MIN KSTC 211555Z 03010KT 10SM OVC028 M01/M09 A3037 610 55 -1100 030/10 RMK AO2
14926KSTC STC20060321100009903/21/06 10:00:31  5-MIN KSTC 211600Z 05009KT 10SM OVC028 M02/M09 A3037 620 58 -1200 050/09 RMK AO2
14926KSTC STC20060321100509903/21/06 10:05:31  5-MIN KSTC 211605Z 05010KT 10SM OVC028 M01/M08 A3037 620 58 -1100 050/10 RMK AO2
14926KSTC STC20060321101009903/21/06 10:10:31  5-MIN KSTC 211610Z 05008KT 10SM OVC028 M01/M08 A3037 610 56 -1000 050/08 RMK AO2
14926KSTC STC20060321101510403/21/06 10:15:31  5-MIN KSTC 211615Z 05010G14KT 10SM OVC030 00/M08 A3037 610 53 -1000 050/10G14 RMK AO2
14926KSTC STC20060321102009903/21/06 10:20:31  5-MIN KSTC 211620Z 05011KT 10SM OVC030 M01/M09 A3037 610 53 -1100 040/11 RMK AO2
14926KSTC STC20060321102509903/21/06 10:25:31  5-MIN KSTC 211625Z 06007KT 10SM BKN030 M01/M09 A3037 610 55 -1100 060/07 RMK AO2
14926KSTC STC20060321103009903/21/06 10:30:31  5-MIN KSTC 211630Z 07007KT 10SM BKN032 M01/M09 A3037 610 55 -1100 060/07 RMK AO2
14926KSTC STC20060321103509903/21/06 10:35:31  5-MIN KSTC 211635Z 04010KT 10SM BKN032 M01/M09 A3037 610 55 -1100 040/10 RMK AO2
14926KSTC STC20060321104009903/21/06 10:40:31  5-MIN KSTC 211640Z 07010KT 10SM BKN032 M01/M09 A3037 610 53 -1000 070/10 RMK AO2
14926KSTC STC20060321104511503/21/06 10:45:31  5-MIN KSTC 211645Z 07008KT 040V110 10SM SCT032 M01/M09 A3037 610 53 -1000 070/08 040V110 RMK AO2
14926KSTC STC20060321105011503/21/06 10:50:31  5-MIN KSTC 211650Z 04013KT 10SM FEW032 00/M09 A3037 610 51 -1000 030/13 RMK AO2 SLP307 T00001089
14926KSTC STC20060321105509903/21/06 10:55:31  5-MIN KSTC 211655Z 03008KT 10SM FEW032 M01/M09 A3037 610 53 -1000 030/08 RMK AO2
14926KSTC STC20060321110009803/21/06 11:00:31  5-MIN KSTC 211700Z 06008KT 10SM FEW032 00/M09 A3037 610 51 -1000 050/08 RMK AO2
14926KSTC STC20060321110509403/21/06 11:05:31  5-MIN KSTC 211705Z 03009KT 10SM CLR 01/M09 A3037 610 49 -900 030/09 RMK AO2
14926KSTC STC20060321111009403/21/06 11:10:31  5-MIN KSTC 211710Z 02009KT 10SM CLR 01/M09 A3037 620 49 -900 020/09 RMK AO2
14926KSTC STC20060321111511003/21/06 11:15:31  5-MIN KSTC 211715Z 05008KT 020V100 10SM CLR 01/M09 A3037 620 49 -900 040/08 020V100 RMK AO2
14926KSTC STC20060321112010003/21/06 11:20:31  5-MIN KSTC 211720Z 02011G16KT 10SM CLR 01/M09 A3037 620 49 -900 020/11G16 RMK AO2
14926KSTC STC20060321112510003/21/06 11:25:31  5-MIN KSTC 211725Z 04010G16KT 10SM CLR 01/M09 A3037 620 49 -900 040/10G16 RMK AO2
14926KSTC STC20060321113009403/21/06 11:30:31  5-MIN KSTC 211730Z 01009KT 10SM CLR 01/M09 A3036 620 49 -900 010/09 RMK AO2
14926KSTC STC20060321113509403/21/06 11:35:31  5-MIN KSTC 211735Z 06008KT 10SM CLR 01/M09 A3036 620 49 -900 060/08 RMK AO2
14926KSTC STC20060321114009403/21/06 11:40:31  5-MIN KSTC 211740Z 07010KT 10SM CLR 01/M09 A3036 620 49 -900 070/10 RMK AO2
14926KSTC STC20060321114509403/21/06 11:45:31  5-MIN KSTC 211745Z 06009KT 10SM CLR 01/M09 A3036 620 47 -800 060/09 RMK AO2
14926KSTC STC20060321115012903/21/06 11:50:31  5-MIN KSTC 211750Z 06010KT 10SM CLR 01/M09 A3036 620 47 -800 050/10 RMK AO2 SLP303 T00111089 10011 21044 51019
14926KSTC STC20060321115509403/21/06 11:55:31  5-MIN KSTC 211755Z VRB05KT 10SM CLR 01/M08 A3036 620 49 -800 VRB/05 RMK AO2
14926KSTC STC20060321120011303/21/06 12:00:31  5-MIN KSTC 211800Z 02008KT 350V060 10SM FEW038 02/M08 A3036 620 49 -800 020/08 350V060 RMK AO2
14926KSTC STC20060321120509703/21/06 12:05:31  5-MIN KSTC 211805Z 35008KT 10SM FEW038 01/M08 A3036 620 49 -800 350/08 RMK AO2
14926KSTC STC20060321121009403/21/06 12:10:31  5-MIN KSTC 211810Z 04010KT 10SM CLR 01/M09 A3036 630 47 -800 030/10 RMK AO2
14926KSTC STC20060321121509403/21/06 12:15:31  5-MIN KSTC 211815Z 02009KT 10SM CLR 01/M09 A3036 630 47 -800 010/09 RMK AO2
14926KSTC STC20060321122010003/21/06 12:20:31  5-MIN KSTC 211820Z 03011G15KT 10SM CLR 01/M08 A3036 630 49 -800 030/11G15 RMK AO2
14926KSTC STC20060321122509403/21/06 12:25:31  5-MIN KSTC 211825Z 03012KT 10SM CLR 01/M09 A3035 630 47 -800 030/12 RMK AO2
14926KSTC STC20060321123010003/21/06 12:30:31  5-MIN KSTC 211830Z 02011G16KT 10SM CLR 02/M09 A3035 630 45 -800 020/11G16 RMK AO2
14926KSTC STC20060321123510003/21/06 12:35:31  5-MIN KSTC 211835Z 04013G17KT 10SM CLR 02/M09 A3035 630 45 -700 040/13G17 RMK AO2
14926KSTC STC20060321124010003/21/06 12:40:31  5-MIN KSTC 211840Z 05011G17KT 10SM CLR 02/M09 A3035 630 45 -700 040/11G17 RMK AO2
14926KSTC STC20060321124509403/21/06 12:45:31  5-MIN KSTC 211845Z 07009KT 10SM CLR 02/M09 A3035 630 43 -700 060/09 RMK AO2
14926KSTC STC20060321125011103/21/06 12:50:31  5-MIN KSTC 211850Z 02010KT 10SM CLR 02/M09 A3034 640 43 -700 020/10 RMK AO2 SLP297 T00171094
14926KSTC STC20060321125509403/21/06 12:55:31  5-MIN KSTC 211855Z 06011KT 10SM CLR 02/M09 A3034 640 43 -700 060/11 RMK AO2
14926KSTC STC20060321130010003/21/06 13:00:31  5-MIN KSTC 211900Z 05012G16KT 10SM CLR 02/M09 A3034 640 45 -700 050/12G16 RMK AO2
14926KSTC STC20060321130510003/21/06 13:05:31  5-MIN KSTC 211905Z 03007G16KT 10SM CLR 02/M09 A3034 640 45 -700 030/07G16 RMK AO2
14926KSTC STC20060321131009403/21/06 13:10:31  5-MIN KSTC 211910Z VRB06KT 10SM CLR 02/M09 A3034 640 44 -700 VRB/06 RMK AO2
14926KSTC STC20060321131510003/21/06 13:15:31  5-MIN KSTC 211915Z 03008G14KT 10SM CLR 02/M09 A3034 640 44 -700 030/08G14 RMK AO2
14926KSTC STC20060321132010003/21/06 13:20:31  5-MIN KSTC 211920Z 04009G14KT 10SM CLR 02/M09 A3034 640 42 -700 040/09G14 RMK AO2
14926KSTC STC20060321132509403/21/06 13:25:31  5-MIN KSTC 211925Z 06011KT 10SM CLR 02/M09 A3034 640 42 -700 060/11 RMK AO2
14926KSTC STC20060321133011003/21/06 13:30:31  5-MIN KSTC 211930Z 04009KT 010V070 10SM CLR 02/M09 A3034 640 42 -700 030/09 010V070 RMK AO2
14926KSTC STC20060321133509403/21/06 13:35:31  5-MIN KSTC 211935Z 06010KT 10SM CLR 02/M09 A3033 650 42 -700 060/10 RMK AO2
14926KSTC STC20060321134010003/21/06 13:40:31  5-MIN KSTC 211940Z 03012G16KT 10SM CLR 03/M09 A3033 650 42 -600 030/12G16 RMK AO2
14926KSTC STC20060321134510003/21/06 13:45:31  5-MIN KSTC 211945Z 04011G16KT 10SM CLR 02/M09 A3033 650 42 -700 030/11G16 RMK AO2
14926KSTC STC20060321135011103/21/06 13:50:31  5-MIN KSTC 211950Z 02011KT 10SM CLR 03/M09 A3033 650 40 -600 020/11 RMK AO2 SLP292 T00281094
14926KSTC STC20060321135509403/21/06 13:55:31  5-MIN KSTC 211955Z 04011KT 10SM CLR 03/M09 A3033 650 40 -600 040/11 RMK AO2
14926KSTC STC20060321140010003/21/06 14:00:31  5-MIN KSTC 212000Z 02011G17KT 10SM CLR 03/M10 A3033 650 38 -600 020/11G17 RMK AO2
14926KSTC STC20060321140509403/21/06 14:05:31  5-MIN KSTC 212005Z 05011KT 10SM CLR 03/M10 A3033 650 38 -600 040/11 RMK AO2
14926KSTC STC20060321141009403/21/06 14:10:31  5-MIN KSTC 212010Z 04008KT 10SM CLR 02/M10 A3033 650 40 -700 030/08 RMK AO2
14926KSTC STC20060321141509403/21/06 14:15:31  5-MIN KSTC 212015Z 04008KT 10SM CLR 03/M10 A3033 650 38 -600 040/08 RMK AO2
14926KSTC STC20060321142009403/21/06 14:20:31  5-MIN KSTC 212020Z 02009KT 10SM CLR 03/M10 A3033 650 38 -600 020/09 RMK AO2
14926KSTC STC20060321142510003/21/06 14:25:31  5-MIN KSTC 212025Z 04010G16KT 10SM CLR 03/M09 A3033 650 40 -600 040/10G16 RMK AO2
14926KSTC STC20060321143010003/21/06 14:30:31  5-MIN KSTC 212030Z 01009G16KT 10SM CLR 03/M09 A3033 650 39 -500 010/09G16 RMK AO2
14926KSTC STC20060321143509403/21/06 14:35:31  5-MIN KSTC 212035Z 01010KT 10SM CLR 03/M09 A3032 650 39 -500 010/10 RMK AO2
14926KSTC STC20060321144009403/21/06 14:40:31  5-MIN KSTC 212040Z 02009KT 10SM CLR 03/M10 A3033 650 37 -500 010/09 RMK AO2
14926KSTC STC20060321144511003/21/06 14:45:31  5-MIN KSTC 212045Z 03007KT 360V070 10SM CLR 03/M09 A3033 650 39 -500 030/07 360V070 RMK AO2
14926KSTC STC20060321145011703/21/06 14:50:31  5-MIN KSTC 212050Z 02008KT 10SM CLR 03/M09 A3033 650 39 -500 020/08 RMK AO2 SLP291 T00331094 58002
14926KSTC STC20060321145509403/21/06 14:55:31  5-MIN KSTC 212055Z 03010KT 10SM CLR 03/M10 A3033 650 38 -600 030/10 RMK AO2
14926KSTC STC20060321150009403/21/06 15:00:31  5-MIN KSTC 212100Z 03011KT 10SM CLR 03/M11 A3033 650 37 -600 020/11 RMK AO2
14926KSTC STC20060321150509403/21/06 15:05:31  5-MIN KSTC 212105Z 02009KT 10SM CLR 03/M11 A3033 650 37 -600 010/09 RMK AO2
14926KSTC STC20060321151009403/21/06 15:10:31  5-MIN KSTC 212110Z 02010KT 10SM CLR 03/M11 A3033 650 37 -600 020/10 RMK AO2
14926KSTC STC20060321151510003/21/06 15:15:31  5-MIN KSTC 212115Z 03008G15KT 10SM CLR 03/M11 A3033 650 35 -600 030/08G15 RMK AO2
14926KSTC STC20060321152010003/21/06 15:20:31  5-MIN KSTC 212120Z 03009G15KT 10SM CLR 03/M11 A3033 650 34 -500 030/09G15 RMK AO2
14926KSTC STC20060321152509403/21/06 15:25:31  5-MIN KSTC 212125Z 05008KT 10SM CLR 03/M12 A3033 650 34 -600 050/08 RMK AO2
14926KSTC STC20060321153009403/21/06 15:30:31  5-MIN KSTC 212130Z 03009KT 10SM CLR 03/M11 A3033 650 35 -500 030/09 RMK AO2
14926KSTC STC20060321153511003/21/06 15:35:31  5-MIN KSTC 212135Z 03007KT 360V070 10SM CLR 03/M12 A3033 650 34 -600 030/07 360V070 RMK AO2
14926KSTC STC20060321154009403/21/06 15:40:31  5-MIN KSTC 212140Z 01009KT 10SM CLR 03/M10 A3033 650 38 -600 010/09 RMK AO2
14926KSTC STC20060321154509403/21/06 15:45:31  5-MIN KSTC 212145Z 36011KT 10SM CLR 02/M09 A3033 650 44 -700 360/11 RMK AO2
14926KSTC STC20060321155011103/21/06 15:50:31  5-MIN KSTC 212150Z 36009KT 10SM CLR 02/M09 A3033 650 44 -700 360/09 RMK AO2 SLP293 T00221089
14926KSTC STC20060321155509403/21/06 15:55:31  5-MIN KSTC 212155Z 36010KT 10SM CLR 03/M09 A3033 650 42 -600 350/10 RMK AO2
14926KSTC STC20060321160009403/21/06 16:00:31  5-MIN KSTC 212200Z 01012KT 10SM CLR 02/M09 A3033 650 44 -700 360/12 RMK AO2
14926KSTC STC20060321160509403/21/06 16:05:31  5-MIN KSTC 212205Z 36008KT 10SM CLR 02/M09 A3033 650 42 -700 360/08 RMK AO2
14926KSTC STC20060321161009903/21/06 16:10:31  5-MIN KSTC 212210Z AUTO 01009KT 10SM CLR 03/M08 A3033 650 44 -600 360/09 RMK AO2
14926KSTC STC20060321161509903/21/06 16:15:31  5-MIN KSTC 212215Z AUTO 02012KT 10SM CLR 02/M09 A3033 650 42 -700 020/12 RMK AO2
14926KSTC STC20060321162009903/21/06 16:20:31  5-MIN KSTC 212220Z AUTO 01009KT 10SM CLR 02/M10 A3033 650 40 -700 010/09 RMK AO2
14926KSTC STC20060321162509903/21/06 16:25:31  5-MIN KSTC 212225Z AUTO 36013KT 10SM CLR 02/M09 A3033 650 42 -700 360/13 RMK AO2
14926KSTC STC20060321163009903/21/06 16:30:31  5-MIN KSTC 212230Z AUTO 03009KT 10SM CLR 03/M10 A3033 650 38 -600 020/09 RMK AO2
14926KSTC STC20060321163509903/21/06 16:35:31  5-MIN KSTC 212235Z AUTO 01008KT 10SM CLR 03/M10 A3033 650 38 -600 010/08 RMK AO2
14926KSTC STC20060321164009903/21/06 16:40:31  5-MIN KSTC 212240Z AUTO 02011KT 10SM CLR 03/M10 A3033 650 38 -600 010/11 RMK AO2
14926KSTC STC20060321164509903/21/06 16:45:31  5-MIN KSTC 212245Z AUTO 01011KT 10SM CLR 02/M10 A3033 650 40 -700 010/11 RMK AO2
14926KSTC STC20060321165011603/21/06 16:50:31  5-MIN KSTC 212250Z AUTO 01011KT 10SM CLR 02/M10 A3033 650 40 -700 360/11 RMK AO2 SLP292 T00221100
14926KSTC STC20060321165510503/21/06 16:55:31  5-MIN KSTC 212255Z AUTO 36011G17KT 10SM CLR 02/M10 A3033 650 40 -700 360/11G17 RMK AO2
14926KSTC STC20060321170009903/21/06 17:00:31  5-MIN KSTC 212300Z AUTO 01008KT 10SM CLR 02/M10 A3033 650 40 -700 010/08 RMK AO2
14926KSTC STC20060321170509903/21/06 17:05:31  5-MIN KSTC 212305Z AUTO 01011KT 10SM CLR 02/M11 A3033 650 38 -700 010/11 RMK AO2
14926KSTC STC20060321171009903/21/06 17:10:31  5-MIN KSTC 212310Z AUTO 01008KT 10SM CLR 02/M11 A3033 650 40 -700 010/08 RMK AO2
14926KSTC STC20060321171509903/21/06 17:15:31  5-MIN KSTC 212315Z AUTO 01009KT 10SM CLR 02/M10 A3033 650 42 -700 010/09 RMK AO2
14926KSTC STC20060321172009903/21/06 17:20:31  5-MIN KSTC 212320Z AUTO 01010KT 10SM CLR 02/M10 A3033 650 42 -700 360/10 RMK AO2
14926KSTC STC20060321172509903/21/06 17:25:31  5-MIN KSTC 212325Z AUTO 02012KT 10SM CLR 02/M11 A3033 650 38 -700 020/12 RMK AO2
14926KSTC STC20060321173009903/21/06 17:30:31  5-MIN KSTC 212330Z AUTO 01009KT 10SM CLR 02/M11 A3033 650 40 -700 010/09 RMK AO2
14926KSTC STC20060321173509903/21/06 17:35:31  5-MIN KSTC 212335Z AUTO 01008KT 10SM CLR 02/M11 A3033 650 38 -700 010/08 RMK AO2
14926KSTC STC20060321174009903/21/06 17:40:31  5-MIN KSTC 212340Z AUTO 01011KT 10SM CLR 01/M11 A3033 650 41 -800 360/11 RMK AO2
14926KSTC STC20060321174509903/21/06 17:45:31  5-MIN KSTC 212345Z AUTO 01009KT 10SM CLR 01/M11 A3034 640 41 -800 010/09 RMK AO2
14926KSTC STC20060321175013403/21/06 17:50:31  5-MIN KSTC 212350Z AUTO 02009KT 10SM CLR 01/M11 A3033 650 41 -800 010/09 RMK AO2 SLP295 T00111106 10039 20011 56011
14926KSTC STC20060321175509903/21/06 17:55:31  5-MIN KSTC 212355Z AUTO 02008KT 10SM CLR 01/M11 A3033 650 40 -800 010/08 RMK AO2
14926KSTC STC20060321180009903/21/06 18:00:31  5-MIN KSTC 220000Z AUTO 01007KT 10SM CLR 01/M11 A3033 650 41 -800 010/07 RMK AO2
14926KSTC STC20060321180509903/21/06 18:05:31  5-MIN KSTC 220005Z AUTO 01007KT 10SM CLR 01/M11 A3033 650 41 -800 010/07 RMK AO2
14926KSTC STC20060321181009903/21/06 18:10:31  5-MIN KSTC 220010Z AUTO 01006KT 10SM CLR 01/M11 A3034 640 43 -900 010/06 RMK AO2
14926KSTC STC20060321181509903/21/06 18:15:31  5-MIN KSTC 220015Z AUTO 01007KT 10SM CLR 01/M10 A3034 640 45 -900 010/07 RMK AO2
14926KSTC STC20060321182009903/21/06 18:20:31  5-MIN KSTC 220020Z AUTO 01006KT 10SM CLR 01/M11 A3034 640 43 -900 360/06 RMK AO2
14926KSTC STC20060321182509903/21/06 18:25:31  5-MIN KSTC 220025Z AUTO 01006KT 10SM CLR 00/M10 A3034 640 47 -900 010/06 RMK AO2
14926KSTC STC20060321183009903/21/06 18:30:31  5-MIN KSTC 220030Z AUTO 01005KT 10SM CLR 00/M10 A3034 640 47 -900 360/05 RMK AO2
14926KSTC STC20060321183509903/21/06 18:35:31  5-MIN KSTC 220035Z AUTO 01005KT 10SM CLR 00/M09 A3034 640 49 -900 360/05 RMK AO2
14926KSTC STC20060321184010103/21/06 18:40:31  5-MIN KSTC 220040Z AUTO 01005KT 10SM CLR M01/M09 A3034 640 51 -1000 010/05 RMK AO2
14926KSTC STC20060321184510103/21/06 18:45:31  5-MIN KSTC 220045Z AUTO 01005KT 10SM CLR M01/M09 A3034 640 51 -1000 010/05 RMK AO2
14926KSTC STC20060321185011803/21/06 18:50:31  5-MIN KSTC 220050Z AUTO 36005KT 10SM CLR M01/M09 A3034 640 51 -1000 360/05 RMK AO2 SLP299 T10061094
14926KSTC STC20060321185510103/21/06 18:55:31  5-MIN KSTC 220055Z AUTO 36005KT 10SM CLR M01/M09 A3034 640 51 -1000 360/05 RMK AO2
14926KSTC STC20060321190010103/21/06 19:00:31  5-MIN KSTC 220100Z AUTO 36005KT 10SM CLR M01/M09 A3035 640 55 -1100 360/05 RMK AO2
14926KSTC STC20060321190510103/21/06 19:05:31  5-MIN KSTC 220105Z AUTO 36005KT 10SM CLR M01/M09 A3035 630 55 -1100 350/05 RMK AO2
14926KSTC STC20060321191010103/21/06 19:10:31  5-MIN KSTC 220110Z AUTO 36004KT 10SM CLR M01/M09 A3035 630 55 -1100 350/04 RMK AO2
14926KSTC STC20060321191510103/21/06 19:15:31  5-MIN KSTC 220115Z AUTO 36005KT 10SM CLR M01/M09 A3035 630 55 -1100 360/05 RMK AO2
14926KSTC STC20060321192010103/21/06 19:20:31  5-MIN KSTC 220120Z AUTO 36004KT 10SM CLR M01/M09 A3035 630 55 -1100 360/04 RMK AO2
14926KSTC STC20060321192510103/21/06 19:25:31  5-MIN KSTC 220125Z AUTO 36005KT 10SM CLR M01/M09 A3035 630 55 -1100 360/05 RMK AO2
14926KSTC STC20060321193010103/21/06 19:30:31  5-MIN KSTC 220130Z AUTO 36005KT 10SM CLR M01/M09 A3035 630 55 -1100 360/05 RMK AO2
14926KSTC STC20060321193510103/21/06 19:35:31  5-MIN KSTC 220135Z AUTO 36005KT 10SM CLR M01/M09 A3035 630 55 -1100 360/05 RMK AO2
14926KSTC STC20060321194010103/21/06 19:40:31  5-MIN KSTC 220140Z AUTO 36005KT 10SM CLR M01/M09 A3035 630 55 -1100 350/05 RMK AO2
14926KSTC STC20060321194510103/21/06 19:45:31  5-MIN KSTC 220145Z AUTO 35004KT 10SM CLR M01/M09 A3036 630 55 -1100 350/04 RMK AO2
14926KSTC STC20060321195011803/21/06 19:50:31  5-MIN KSTC 220150Z AUTO 34005KT 10SM CLR M01/M09 A3036 620 53 -1100 340/05 RMK AO2 SLP304 T10111094
14926KSTC STC20060321195510103/21/06 19:55:31  5-MIN KSTC 220155Z AUTO 35004KT 10SM CLR M01/M09 A3036 620 55 -1100 340/04 RMK AO2
14926KSTC STC20060321200010103/21/06 20:00:31  5-MIN KSTC 220200Z AUTO 34004KT 10SM CLR M01/M09 A3036 620 55 -1100 340/04 RMK AO2
14926KSTC STC20060321200510103/21/06 20:05:31  5-MIN KSTC 220205Z AUTO 35005KT 10SM CLR M01/M09 A3036 620 53 -1100 350/05 RMK AO2
14926KSTC STC20060321201010103/21/06 20:10:31  5-MIN KSTC 220210Z AUTO 35005KT 10SM CLR M01/M09 A3036 620 55 -1100 350/05 RMK AO2
14926KSTC STC20060321201510103/21/06 20:15:31  5-MIN KSTC 220215Z AUTO 35005KT 10SM CLR M01/M09 A3036 620 55 -1100 340/05 RMK AO2
14926KSTC STC20060321202010103/21/06 20:20:31  5-MIN KSTC 220220Z AUTO 34005KT 10SM CLR M01/M09 A3036 620 55 -1100 340/05 RMK AO2
14926KSTC STC20060321202510103/21/06 20:25:31  5-MIN KSTC 220225Z AUTO 34004KT 10SM CLR M01/M09 A3036 620 55 -1100 340/04 RMK AO2
14926KSTC STC20060321203010103/21/06 20:30:31  5-MIN KSTC 220230Z AUTO 34004KT 10SM CLR M02/M09 A3036 620 58 -1200 330/04 RMK AO2
14926KSTC STC20060321203510103/21/06 20:35:31  5-MIN KSTC 220235Z AUTO 36004KT 10SM CLR M02/M09 A3036 620 58 -1200 350/04 RMK AO2
14926KSTC STC20060321204010103/21/06 20:40:31  5-MIN KSTC 220240Z AUTO 36005KT 10SM CLR M02/M08 A3036 620 60 -1200 360/05 RMK AO2
14926KSTC STC20060321204510103/21/06 20:45:31  5-MIN KSTC 220245Z AUTO 36005KT 10SM CLR M02/M08 A3036 620 60 -1200 360/05 RMK AO2
14926KSTC STC20060321205012403/21/06 20:50:31  5-MIN KSTC 220250Z AUTO 36005KT 10SM CLR M02/M09 A3036 620 58 -1200 360/05 RMK AO2 SLP304 T10171089 53002
14926KSTC STC20060321205510103/21/06 20:55:31  5-MIN KSTC 220255Z AUTO 36006KT 10SM CLR M02/M09 A3035 630 58 -1200 360/06 RMK AO2
14926KSTC STC20060321210010103/21/06 21:00:31  5-MIN KSTC 220300Z AUTO 01005KT 10SM CLR M02/M09 A3035 630 58 -1200 360/05 RMK AO2
14926KSTC STC20060321210510103/21/06 21:05:31  5-MIN KSTC 220305Z AUTO 01005KT 10SM CLR M02/M09 A3035 630 58 -1200 360/05 RMK AO2
14926KSTC STC20060321211010103/21/06 21:10:31  5-MIN KSTC 220310Z AUTO 01006KT 10SM CLR M02/M09 A3035 630 58 -1200 360/06 RMK AO2
14926KSTC STC20060321211510103/21/06 21:15:31  5-MIN KSTC 220315Z AUTO 01006KT 10SM CLR M02/M09 A3035 630 58 -1200 010/06 RMK AO2
14926KSTC STC20060321212010103/21/06 21:20:31  5-MIN KSTC 220320Z AUTO 01006KT 10SM CLR M02/M09 A3035 630 58 -1200 360/06 RMK AO2
14926KSTC STC20060321212510103/21/06 21:25:31  5-MIN KSTC 220325Z AUTO 01005KT 10SM CLR M02/M09 A3035 630 58 -1200 360/05 RMK AO2
14926KSTC STC20060321213010103/21/06 21:30:31  5-MIN KSTC 220330Z AUTO 36005KT 10SM CLR M02/M09 A3035 630 58 -1200 360/05 RMK AO2
14926KSTC STC20060321213510103/21/06 21:35:31  5-MIN KSTC 220335Z AUTO 35004KT 10SM CLR M02/M08 A3036 630 63 -1200 340/04 RMK AO2
14926KSTC STC20060321214010103/21/06 21:40:31  5-MIN KSTC 220340Z AUTO 34004KT 10SM CLR M02/M09 A3036 630 60 -1200 340/04 RMK AO2
14926KSTC STC20060321214510103/21/06 21:45:31  5-MIN KSTC 220345Z AUTO 35004KT 10SM CLR M02/M08 A3036 630 63 -1200 340/04 RMK AO2
14926KSTC STC20060321215011803/21/06 21:50:31  5-MIN KSTC 220350Z AUTO 35004KT 10SM CLR M02/M08 A3036 630 63 -1200 340/04 RMK AO2 SLP302 T10221083
14926KSTC STC20060321215510103/21/06 21:55:31  5-MIN KSTC 220355Z AUTO 35005KT 10SM CLR M02/M08 A3035 630 63 -1200 340/05 RMK AO2
14926KSTC STC20060321220010103/21/06 22:00:31  5-MIN KSTC 220400Z AUTO 35004KT 10SM CLR M02/M08 A3036 630 63 -1200 350/04 RMK AO2
14926KSTC STC20060321220510103/21/06 22:05:31  5-MIN KSTC 220405Z AUTO 35005KT 10SM CLR M02/M08 A3036 630 60 -1200 350/05 RMK AO2
14926KSTC STC20060321221010503/21/06 22:10:31  5-MIN KSTC 220410Z AUTO 34004KT 10SM CLR M02/M09 A3036 620 58 -1200 340/04 RMK AO2 PNO
14926KSTC STC20060321221510103/21/06 22:15:31  5-MIN KSTC 220415Z AUTO 34004KT 10SM CLR M02/M08 A3036 620 60 -1200 340/04 RMK AO2
14926KSTC STC20060321222010103/21/06 22:20:31  5-MIN KSTC 220420Z AUTO 34005KT 10SM CLR M02/M08 A3036 620 60 -1200 340/05 RMK AO2
14926KSTC STC20060321222510103/21/06 22:25:31  5-MIN KSTC 220425Z AUTO 34004KT 10SM CLR M02/M08 A3036 620 63 -1300 340/04 RMK AO2
14926KSTC STC20060321223010103/21/06 22:30:31  5-MIN KSTC 220430Z AUTO 35004KT 10SM CLR M02/M08 A3036 620 63 -1300 340/04 RMK AO2
14926KSTC STC20060321223510103/21/06 22:35:31  5-MIN KSTC 220435Z AUTO 35005KT 10SM CLR M02/M08 A3036 620 63 -1300 350/05 RMK AO2
14926KSTC STC20060321224010103/21/06 22:40:31  5-MIN KSTC 220440Z AUTO 35006KT 10SM CLR M02/M09 A3036 620 58 -1200 350/06 RMK AO2
14926KSTC STC20060321224510103/21/06 22:45:31  5-MIN KSTC 220445Z AUTO 35005KT 10SM CLR M02/M09 A3036 620 58 -1200 350/05 RMK AO2
14926KSTC STC20060321225011803/21/06 22:50:31  5-MIN KSTC 220450Z AUTO 35005KT 10SM CLR M02/M09 A3036 620 60 -1300 350/05 RMK AO2 SLP305 T10221089
14926KSTC STC20060321225510103/21/06 22:55:31  5-MIN KSTC 220455Z AUTO 35004KT 10SM CLR M02/M09 A3036 620 60 -1300 350/04 RMK AO2
14926KSTC STC20060321230010103/21/06 23:00:31  5-MIN KSTC 220500Z AUTO 35004KT 10SM CLR M02/M09 A3036 620 60 -1300 350/04 RMK AO2
14926KSTC STC20060321230510103/21/06 23:05:31  5-MIN KSTC 220505Z AUTO 35004KT 10SM CLR M03/M08 A3036 620 66 -1300 340/04 RMK AO2
14926KSTC STC20060321231010103/21/06 23:10:31  5-MIN KSTC 220510Z AUTO 34004KT 10SM CLR M02/M08 A3037 620 63 -1300 340/04 RMK AO2
14926KSTC STC20060321231510103/21/06 23:15:31  5-MIN KSTC 220515Z AUTO 35004KT 10SM CLR M02/M08 A3037 620 63 -1300 340/04 RMK AO2
14926KSTC STC20060321232010103/21/06 23:20:31  5-MIN KSTC 220520Z AUTO 34004KT 10SM CLR M03/M09 A3037 620 63 -1300 340/04 RMK AO2
14926KSTC STC20060321232510103/21/06 23:25:31  5-MIN KSTC 220525Z AUTO 34004KT 10SM CLR M03/M09 A3037 620 63 -1300 340/04 RMK AO2
14926KSTC STC20060321233010103/21/06 23:30:31  5-MIN KSTC 220530Z AUTO 33004KT 10SM CLR M03/M09 A3037 620 63 -1300 330/04 RMK AO2
14926KSTC STC20060321233510103/21/06 23:35:31  5-MIN KSTC 220535Z AUTO 34004KT 10SM CLR M03/M09 A3037 610 63 -1300 340/04 RMK AO2
14926KSTC STC20060321234010103/21/06 23:40:31  5-MIN KSTC 220540Z AUTO 34005KT 10SM CLR M03/M09 A3037 620 63 -1300 340/05 RMK AO2
14926KSTC STC20060321234510103/21/06 23:45:31  5-MIN KSTC 220545Z AUTO 35004KT 10SM CLR M03/M09 A3037 620 65 -1400 350/04 RMK AO2
14926KSTC STC20060321235014603/21/06 23:50:31  5-MIN KSTC 220550Z AUTO 35004KT 10SM CLR M03/M09 A3037 620 65 -1400 340/04 RMK AO2 SLP306 T10331089 10011 21033 400391050 50007
14926KSTC STC20060321235510103/21/06 23:55:31  5-MIN KSTC 220555Z AUTO 35005KT 10SM CLR M03/M09 A3037 610 65 -1400 340/05 RMK AO2
14926KSTC STC20060322000010103/22/06 00:00:32  5-MIN KSTC 220600Z AUTO 34004KT 10SM CLR M03/M09 A3037 610 65 -1400 340/04 RMK AO2
14926KSTC STC20060322051510103/22/06 05:15:31  5-MIN KSTC 221115Z AUTO 32006KT 10SM CLR M05/M10 A3038 600 68 -1600 310/06 RMK AO2
14926KSTC STC20060322052010103/22/06 05:20:31  5-MIN KSTC 221120Z AUTO 32006KT 10SM CLR M05/M10 A3039 600 68 -1600 320/06 RMK AO2
14926KSTC STC20060322052510103/22/06 05:25:31  5-MIN KSTC 221125Z AUTO 33005KT 10SM CLR M05/M10 A3039 600 68 -1600 320/05 RMK AO2
14926KSTC STC20060322053010103/22/06 05:30:31  5-MIN KSTC 221130Z AUTO 33005KT 10SM CLR M05/M11 A3039 600 65 -1600 330/05 RMK AO2
14926KSTC STC20060322053510103/22/06 05:35:31  5-MIN KSTC 221135Z AUTO 33006KT 10SM CLR M05/M11 A3039 600 65 -1600 330/06 RMK AO2
14926KSTC STC20060322054010103/22/06 05:40:31  5-MIN KSTC 221140Z AUTO 33006KT 10SM CLR M05/M11 A3039 600 65 -1600 330/06 RMK AO2
14926KSTC STC20060322054510103/22/06 05:45:31  5-MIN KSTC 221145Z AUTO 33006KT 10SM CLR M05/M11 A3039 590 65 -1600 330/06 RMK AO2
14926KSTC STC20060322055013603/22/06 05:50:31  5-MIN KSTC 221150Z AUTO 33006KT 10SM CLR M04/M11 A3039 590 62 -1600 320/06 RMK AO2 SLP316 T10441106 11033 21056 51004
14926KSTC STC20060322055510103/22/06 05:55:31  5-MIN KSTC 221155Z AUTO 32006KT 10SM CLR M05/M11 A3040 590 65 -1600 320/06 RMK AO2
14926KSTC STC20060322060010103/22/06 06:00:31  5-MIN KSTC 221200Z AUTO 33006KT 10SM CLR M04/M11 A3039 590 62 -1600 320/06 RMK AO2
14926KSTC STC20060322060510103/22/06 06:05:31  5-MIN KSTC 221205Z AUTO 32006KT 10SM CLR M05/M11 A3040 590 65 -1600 320/06 RMK AO2
14926KSTC STC20060322061010103/22/06 06:10:31  5-MIN KSTC 221210Z AUTO 32006KT 10SM CLR M05/M11 A3040 590 65 -1600 310/06 RMK AO2
14926KSTC STC20060322061510103/22/06 06:15:31  5-MIN KSTC 221215Z AUTO 31006KT 10SM CLR M05/M10 A3040 590 68 -1700 310/06 RMK AO2
14926KSTC STC20060322062010103/22/06 06:20:31  5-MIN KSTC 221220Z AUTO 32006KT 10SM CLR M06/M10 A3040 580 71 -1700 310/06 RMK AO2
14926KSTC STC20060322062510103/22/06 06:25:31  5-MIN KSTC 221225Z AUTO 32006KT 10SM CLR M06/M10 A3040 580 71 -1700 320/06 RMK AO2
14926KSTC STC20060322063010103/22/06 06:30:31  5-MIN KSTC 221230Z AUTO 32007KT 10SM CLR M05/M11 A3040 580 65 -1700 320/07 RMK AO2
14926KSTC STC20060322063510103/22/06 06:35:31  5-MIN KSTC 221235Z AUTO 32007KT 10SM CLR M05/M11 A3040 580 65 -1700 320/07 RMK AO2
14926KSTC STC20060322064010103/22/06 06:40:31  5-MIN KSTC 221240Z AUTO 33007KT 10SM CLR M05/M11 A3040 580 65 -1700 330/07 RMK AO2
14926KSTC STC20060322064510103/22/06 06:45:31  5-MIN KSTC 221245Z AUTO 33007KT 10SM CLR M05/M11 A3040 580 65 -1700 330/07 RMK AO2
14926KSTC STC20060322065011803/22/06 06:50:31  5-MIN KSTC 221250Z AUTO 33007KT 10SM CLR M04/M11 A3040 580 62 -1600 330/07 RMK AO2 SLP320 T10441106
14926KSTC STC20060322065510103/22/06 06:55:31  5-MIN KSTC 221255Z AUTO 33007KT 10SM CLR M04/M11 A3040 580 62 -1600 320/07 RMK AO2
14926KSTC STC20060322070010103/22/06 07:00:31  5-MIN KSTC 221300Z AUTO 33007KT 10SM CLR M04/M11 A3040 580 62 -1600 330/07 RMK AO2
14926KSTC STC20060322070510103/22/06 07:05:31  5-MIN KSTC 221305Z AUTO 33007KT 10SM CLR M04/M11 A3040 580 60 -1500 330/07 RMK AO2
14926KSTC STC20060322071009603/22/06 07:10:31  5-MIN KSTC 221310Z 33006KT 10SM CLR M04/M11 A3041 580 60 -1500 330/06 RMK AO2
14926KSTC STC20060322071509603/22/06 07:15:31  5-MIN KSTC 221315Z 33008KT 10SM CLR M04/M11 A3041 580 60 -1500 330/08 RMK AO2
14926KSTC STC20060322072009603/22/06 07:20:31  5-MIN KSTC 221320Z 33008KT 10SM CLR M04/M11 A3041 580 60 -1500 330/08 RMK AO2
14926KSTC STC20060322072509603/22/06 07:25:31  5-MIN KSTC 221325Z 33009KT 10SM CLR M04/M11 A3041 580 60 -1500 330/09 RMK AO2
14926KSTC STC20060322073009603/22/06 07:30:31  5-MIN KSTC 221330Z 33008KT 10SM CLR M03/M11 A3041 580 57 -1400 330/08 RMK AO2
14926KSTC STC20060322073509603/22/06 07:35:31  5-MIN KSTC 221335Z 34007KT 10SM CLR M03/M11 A3041 580 57 -1400 340/07 RMK AO2
14926KSTC STC20060322074009603/22/06 07:40:31  5-MIN KSTC 221340Z 34008KT 10SM CLR M03/M11 A3040 580 57 -1400 330/08 RMK AO2
14926KSTC STC20060322074509603/22/06 07:45:31  5-MIN KSTC 221345Z 34009KT 10SM CLR M03/M11 A3040 580 57 -1400 330/09 RMK AO2
14926KSTC STC20060322075011303/22/06 07:50:31  5-MIN KSTC 221350Z 34009KT 10SM CLR M03/M11 A3040 580 55 -1400 340/09 RMK AO2 SLP320 T10331111
14926KSTC STC20060322075509603/22/06 07:55:31  5-MIN KSTC 221355Z 34009KT 10SM CLR M03/M11 A3041 580 55 -1400 340/09 RMK AO2
14926KSTC STC20060322080009603/22/06 08:00:31  5-MIN KSTC 221400Z 34008KT 10SM CLR M03/M11 A3041 580 55 -1400 330/08 RMK AO2
14926KSTC STC20060322080509603/22/06 08:05:31  5-MIN KSTC 221405Z 35009KT 10SM CLR M03/M11 A3041 580 55 -1400 340/09 RMK AO2
14926KSTC STC20060322081009603/22/06 08:10:31  5-MIN KSTC 221410Z 34009KT 10SM CLR M03/M11 A3041 580 55 -1400 340/09 RMK AO2
14926KSTC STC20060322081509603/22/06 08:15:31  5-MIN KSTC 221415Z 35008KT 10SM CLR M02/M11 A3041 580 53 -1300 340/08 RMK AO2
14926KSTC STC20060322082009603/22/06 08:20:31  5-MIN KSTC 221420Z 34010KT 10SM CLR M02/M11 A3041 580 53 -1300 340/10 RMK AO2
14926KSTC STC20060322082509603/22/06 08:25:31  5-MIN KSTC 221425Z 34009KT 10SM CLR M02/M11 A3041 580 51 -1300 330/09 RMK AO2
14926KSTC STC20060322083009603/22/06 08:30:31  5-MIN KSTC 221430Z 34009KT 10SM CLR M02/M11 A3040 580 51 -1200 340/09 RMK AO2
14926KSTC STC20060322083509603/22/06 08:35:31  5-MIN KSTC 221435Z 34009KT 10SM CLR M02/M11 A3040 580 51 -1200 330/09 RMK AO2
14926KSTC STC20060322084009603/22/06 08:40:31  5-MIN KSTC 221440Z 33009KT 10SM CLR M02/M11 A3041 580 51 -1200 330/09 RMK AO2
14926KSTC STC20060322084509603/22/06 08:45:31  5-MIN KSTC 221445Z 33010KT 10SM CLR M02/M11 A3040 580 51 -1200 320/10 RMK AO2
14926KSTC STC20060322085011903/22/06 08:50:31  5-MIN KSTC 221450Z 34009KT 10SM CLR M01/M11 A3040 580 49 -1200 340/09 RMK AO2 SLP319 T10111106 53005
14926KSTC STC20060322085509603/22/06 08:55:31  5-MIN KSTC 221455Z 34010KT 10SM CLR M01/M11 A3040 580 49 -1200 340/10 RMK AO2
14926KSTC STC20060322090009603/22/06 09:00:31  5-MIN KSTC 221500Z 35010KT 10SM CLR M01/M11 A3040 580 49 -1200 350/10 RMK AO2
14926KSTC STC20060322090509603/22/06 09:05:31  5-MIN KSTC 221505Z 33010KT 10SM CLR M01/M11 A3040 580 49 -1200 320/10 RMK AO2
14926KSTC STC20060322091009603/22/06 09:10:31  5-MIN KSTC 221510Z 35009KT 10SM CLR M01/M11 A3040 590 47 -1100 340/09 RMK AO2
14926KSTC STC20060322091509603/22/06 09:15:31  5-MIN KSTC 221515Z 34010KT 10SM CLR M01/M11 A3040 580 47 -1100 330/10 RMK AO2
14926KSTC STC20060322092009503/22/06 09:20:31  5-MIN KSTC 221520Z 33009KT 10SM CLR 00/M10 A3040 590 47 -1000 330/09 RMK AO2
14926KSTC STC20060322092509503/22/06 09:25:31  5-MIN KSTC 221525Z 33011KT 10SM CLR 00/M11 A3040 590 45 -1000 330/11 RMK AO2
14926KSTC STC20060322093009503/22/06 09:30:31  5-MIN KSTC 221530Z 33009KT 10SM CLR 00/M11 A3040 590 45 -1000 320/09 RMK AO2
14926KSTC STC20060322093509403/22/06 09:35:31  5-MIN KSTC 221535Z 32009KT 10SM CLR 01/M10 A3040 590 45 -900 320/09 RMK AO2
14926KSTC STC20060322094009403/22/06 09:40:31  5-MIN KSTC 221540Z 32009KT 10SM CLR 01/M10 A3040 590 45 -900 320/09 RMK AO2
14926KSTC STC20060322094509403/22/06 09:45:31  5-MIN KSTC 221545Z 32011KT 10SM CLR 01/M10 A3039 590 43 -900 320/11 RMK AO2
14926KSTC STC20060322095011103/22/06 09:50:31  5-MIN KSTC 221550Z 34009KT 10SM CLR 01/M10 A3039 590 43 -900 340/09 RMK AO2 SLP314 T00111100
14926KSTC STC20060322095509403/22/06 09:55:31  5-MIN KSTC 221555Z 32011KT 10SM CLR 01/M10 A3039 590 43 -900 320/11 RMK AO2
14926KSTC STC20060322100009403/22/06 10:00:31  5-MIN KSTC 221600Z 33009KT 10SM CLR 02/M10 A3039 600 42 -800 330/09 RMK AO2
14926KSTC STC20060322100509403/22/06 10:05:31  5-MIN KSTC 221605Z 33010KT 10SM CLR 02/M09 A3039 600 42 -700 330/10 RMK AO2
14926KSTC STC20060322101009403/22/06 10:10:31  5-MIN KSTC 221610Z 34010KT 10SM CLR 02/M10 A3039 600 42 -800 340/10 RMK AO2
14926KSTC STC20060322101509403/22/06 10:15:31  5-MIN KSTC 221615Z 32011KT 10SM CLR 02/M10 A3038 600 40 -700 320/11 RMK AO2
14926KSTC STC20060322102009403/22/06 10:20:31  5-MIN KSTC 221620Z 32013KT 10SM CLR 02/M11 A3038 600 38 -700 320/13 RMK AO2
14926KSTC STC20060322102509403/22/06 10:25:31  5-MIN KSTC 221625Z 33014KT 10SM CLR 02/M11 A3039 600 38 -700 330/14 RMK AO2
14926KSTC STC20060322103009403/22/06 10:30:31  5-MIN KSTC 221630Z 34012KT 10SM CLR 02/M11 A3039 600 38 -700 340/12 RMK AO2
14926KSTC STC20060322103509403/22/06 10:35:31  5-MIN KSTC 221635Z 33011KT 10SM CLR 02/M11 A3039 600 38 -700 330/11 RMK AO2
14926KSTC STC20060322104009403/22/06 10:40:31  5-MIN KSTC 221640Z 33013KT 10SM CLR 02/M10 A3039 600 40 -700 330/13 RMK AO2
14926KSTC STC20060322104510003/22/06 10:45:31  5-MIN KSTC 221645Z 34009G17KT 10SM CLR 03/M10 A3039 600 38 -700 340/09G17 RMK AO2
14926KSTC STC20060322105011103/22/06 10:50:31  5-MIN KSTC 221650Z 35010KT 10SM CLR 03/M09 A3039 600 40 -700 340/10 RMK AO2 SLP311 T00281094
14926KSTC STC20060322105509403/22/06 10:55:31  5-MIN KSTC 221655Z 33010KT 10SM CLR 03/M09 A3038 600 40 -700 330/10 RMK AO2
14926KSTC STC20060322110009403/22/06 11:00:31  5-MIN KSTC 221700Z 34010KT 10SM CLR 03/M09 A3038 600 42 -600 340/10 RMK AO2
14926KSTC STC20060322110509403/22/06 11:05:31  5-MIN KSTC 221705Z 33010KT 10SM CLR 03/M09 A3038 600 40 -600 330/10 RMK AO2
14926KSTC STC20060322111009403/22/06 11:10:31  5-MIN KSTC 221710Z 33011KT 10SM CLR 03/M09 A3038 600 40 -600 330/11 RMK AO2
14926KSTC STC20060322111509403/22/06 11:15:31  5-MIN KSTC 221715Z 33011KT 10SM CLR 03/M09 A3038 600 40 -600 330/11 RMK AO2
14926KSTC STC20060322112009403/22/06 11:20:31  5-MIN KSTC 221720Z 34010KT 10SM CLR 03/M08 A3038 610 42 -600 340/10 RMK AO2
14926KSTC STC20060322112509403/22/06 11:25:31  5-MIN KSTC 221725Z 32011KT 10SM CLR 04/M08 A3038 610 40 -500 320/11 RMK AO2
14926KSTC STC20060322113010003/22/06 11:30:31  5-MIN KSTC 221730Z 33011G17KT 10SM CLR 04/M08 A3038 600 42 -500 330/11G17 RMK AO2
14926KSTC STC20060322113510003/22/06 11:35:31  5-MIN KSTC 221735Z 33009G17KT 10SM CLR 04/M08 A3038 610 42 -500 330/09G17 RMK AO2
14926KSTC STC20060322114009403/22/06 11:40:31  5-MIN KSTC 221740Z 32010KT 10SM CLR 04/M07 A3037 610 44 -500 320/10 RMK AO2
14926KSTC STC20060322114509403/22/06 11:45:31  5-MIN KSTC 221745Z 33010KT 10SM CLR 04/M08 A3037 610 42 -500 330/10 RMK AO2
14926KSTC STC20060322115012903/22/06 11:50:31  5-MIN KSTC 221750Z 33011KT 10SM CLR 04/M07 A3037 610 42 -400 330/11 RMK AO2 SLP305 T00441072 10044 21056 50003
14926KSTC STC20060322115509403/22/06 11:55:31  5-MIN KSTC 221755Z 32009KT 10SM CLR 04/M07 A3037 610 42 -400 320/09 RMK AO2
14926KSTC STC20060322120009403/22/06 12:00:31  5-MIN KSTC 221800Z 36010KT 10SM CLR 04/M07 A3037 610 44 -400 360/10 RMK AO2
14926KSTC STC20060322120509403/22/06 12:05:31  5-MIN KSTC 221805Z 36008KT 10SM CLR 05/M06 A3037 610 44 -400 350/08 RMK AO2
14926KSTC STC20060322121009403/22/06 12:10:31  5-MIN KSTC 221810Z 35008KT 10SM CLR 04/M07 A3037 620 44 -400 340/08 RMK AO2
14926KSTC STC20060322121509403/22/06 12:15:31  5-MIN KSTC 221815Z 33008KT 10SM CLR 04/M07 A3037 620 44 -400 330/08 RMK AO2
14926KSTC STC20060322122009403/22/06 12:20:31  5-MIN KSTC 221820Z 35009KT 10SM CLR 04/M07 A3036 620 44 -400 350/09 RMK AO2
14926KSTC STC20060322122509403/22/06 12:25:31  5-MIN KSTC 221825Z 33009KT 10SM CLR 05/M07 A3036 620 42 -400 330/09 RMK AO2
14926KSTC STC20060322123009403/22/06 12:30:31  5-MIN KSTC 221830Z 35008KT 10SM CLR 05/M07 A3036 620 42 -400 350/08 RMK AO2
14926KSTC STC20060322123509403/22/06 12:35:31  5-MIN KSTC 221835Z 33011KT 10SM CLR 05/M06 A3036 620 44 -300 330/11 RMK AO2
14926KSTC STC20060322124009403/22/06 12:40:31  5-MIN KSTC 221840Z 34010KT 10SM CLR 05/M07 A3036 620 42 -300 340/10 RMK AO2
14926KSTC STC20060322124509403/22/06 12:45:31  5-MIN KSTC 221845Z 34009KT 10SM CLR 06/M06 A3036 620 43 -300 330/09 RMK AO2
14926KSTC STC20060322125011103/22/06 12:50:31  5-MIN KSTC 221850Z 32010KT 10SM CLR 05/M06 A3036 620 46 -300 320/10 RMK AO2 SLP301 T00501056
14926KSTC STC20060322125509403/22/06 12:55:31  5-MIN KSTC 221855Z 33011KT 10SM CLR 05/M06 A3036 630 44 -300 330/11 RMK AO2
14926KSTC STC20060322130009403/22/06 13:00:31  5-MIN KSTC 221900Z 32011KT 10SM CLR 06/M06 A3035 630 44 -300 320/11 RMK AO2
14926KSTC STC20060322130509403/22/06 13:05:31  5-MIN KSTC 221905Z 32010KT 10SM CLR 06/M06 A3035 630 44 -300 320/10 RMK AO2
14926KSTC STC20060322131009403/22/06 13:10:31  5-MIN KSTC 221910Z 34008KT 10SM CLR 06/M06 A3035 630 44 -300 340/08 RMK AO2
14926KSTC STC20060322131509403/22/06 13:15:31  5-MIN KSTC 221915Z 34010KT 10SM CLR 06/M06 A3035 630 44 -300 340/10 RMK AO2
14926KSTC STC20060322132010003/22/06 13:20:31  5-MIN KSTC 221920Z 33011G16KT 10SM CLR 06/M06 A3035 630 44 -300 330/11G16 RMK AO2
14926KSTC STC20060322132510003/22/06 13:25:31  5-MIN KSTC 221925Z 34008G16KT 10SM CLR 06/M06 A3034 640 44 -300 340/08G16 RMK AO2
14926KSTC STC20060322133011003/22/06 13:30:31  5-MIN KSTC 221930Z 34009KT 310V010 10SM CLR 06/M05 A3034 640 45 -200 330/09 310V010 RMK AO2
14926KSTC STC20060322133509403/22/06 13:35:31  5-MIN KSTC 221935Z 34011KT 10SM CLR 06/M05 A3034 640 45 -200 340/11 RMK AO2
14926KSTC STC20060322134009403/22/06 13:40:31  5-MIN KSTC 221940Z 36010KT 10SM CLR 06/M04 A3034 640 46 -200 360/10 RMK AO2
14926KSTC STC20060322134509403/22/06 13:45:31  5-MIN KSTC 221945Z 34010KT 10SM CLR 06/M05 A3034 640 45 -200 340/10 RMK AO2
14926KSTC STC20060322135011103/22/06 13:50:31  5-MIN KSTC 221950Z 33010KT 10SM CLR 06/M05 A3034 640 45 -200 320/10 RMK AO2 SLP294 T00611050
14926KSTC STC20060322135509403/22/06 13:55:31  5-MIN KSTC 221955Z 34010KT 10SM CLR 06/M05 A3033 640 45 -200 340/10 RMK AO2
14926KSTC STC20060322140009403/22/06 14:00:31  5-MIN KSTC 222000Z 34009KT 10SM CLR 06/M05 A3033 650 45 -200 340/09 RMK AO2
14926KSTC STC20060322140509403/22/06 14:05:31  5-MIN KSTC 222005Z 34011KT 10SM CLR 06/M06 A3033 650 43 -200 340/11 RMK AO2
14926KSTC STC20060322141009403/22/06 14:10:31  5-MIN KSTC 222010Z 35011KT 10SM CLR 06/M05 A3033 650 45 -200 350/11 RMK AO2
14926KSTC STC20060322141509403/22/06 14:15:31  5-MIN KSTC 222015Z 35013KT 10SM CLR 06/M05 A3033 650 45 -200 350/13 RMK AO2
14926KSTC STC20060322142009403/22/06 14:20:31  5-MIN KSTC 222020Z 34011KT 10SM CLR 06/M06 A3033 650 43 -200 330/11 RMK AO2
14926KSTC STC20060322142509403/22/06 14:25:31  5-MIN KSTC 222025Z 34011KT 10SM CLR 07/M05 A3033 650 43 -100 340/11 RMK AO2
14926KSTC STC20060322143009403/22/06 14:30:31  5-MIN KSTC 222030Z 33012KT 10SM CLR 06/M05 A3033 650 45 -200 330/12 RMK AO2
14926KSTC STC20060322143509703/22/06 14:35:31  5-MIN KSTC 222035Z 35012KT 10SM FEW100 06/M05 A3033 650 45 -200 340/12 RMK AO2
14926KSTC STC20060322144009703/22/06 14:40:31  5-MIN KSTC 222040Z 35010KT 10SM FEW100 07/M05 A3033 650 43 -100 350/10 RMK AO2
14926KSTC STC20060322144509703/22/06 14:45:31  5-MIN KSTC 222045Z 35012KT 10SM FEW100 07/M04 A3032 650 45 -100 350/12 RMK AO2
14926KSTC STC20060322145011703/22/06 14:50:31  5-MIN KSTC 222050Z 35009KT 10SM CLR 06/M05 A3032 660 45 -200 340/09 RMK AO2 SLP289 T00611050 58011
14926KSTC STC20060322145509403/22/06 14:55:31  5-MIN KSTC 222055Z 34011KT 10SM CLR 07/M05 A3032 660 43 -100 340/11 RMK AO2
14926KSTC STC20060322150009403/22/06 15:00:31  5-MIN KSTC 222100Z 33011KT 10SM CLR 06/M05 A3032 660 45 -200 330/11 RMK AO2
14926KSTC STC20060322150509403/22/06 15:05:31  5-MIN KSTC 222105Z 36012KT 10SM CLR 06/M05 A3032 660 45 -200 360/12 RMK AO2
14926KSTC STC20060322151009403/22/06 15:10:31  5-MIN KSTC 222110Z 36010KT 10SM CLR 07/M05 A3032 660 43 -100 360/10 RMK AO2
14926KSTC STC20060322151509403/22/06 15:15:31  5-MIN KSTC 222115Z 35011KT 10SM CLR 07/M05 A3032 660 43 -100 350/11 RMK AO2
14926KSTC STC20060322152009403/22/06 15:20:31  5-MIN KSTC 222120Z 36012KT 10SM CLR 06/M05 A3032 660 45 -200 360/12 RMK AO2
14926KSTC STC20060322152509403/22/06 15:25:31  5-MIN KSTC 222125Z 34012KT 10SM CLR 06/M05 A3032 660 45 -200 340/12 RMK AO2
14926KSTC STC20060322153009403/22/06 15:30:31  5-MIN KSTC 222130Z 34010KT 10SM CLR 06/M05 A3032 660 45 -200 340/10 RMK AO2
14926KSTC STC20060322153509403/22/06 15:35:31  5-MIN KSTC 222135Z 35009KT 10SM CLR 07/M04 A3032 660 45 -100 340/09 RMK AO2
14926KSTC STC20060322154009403/22/06 15:40:31  5-MIN KSTC 222140Z 35011KT 10SM CLR 06/M05 A3032 660 45 -200 340/11 RMK AO2
14926KSTC STC20060322154509403/22/06 15:45:31  5-MIN KSTC 222145Z 35010KT 10SM CLR 06/M05 A3032 660 45 -200 350/10 RMK AO2
14926KSTC STC20060322155011103/22/06 15:50:31  5-MIN KSTC 222150Z 34010KT 10SM CLR 06/M05 A3032 660 45 -200 340/10 RMK AO2 SLP287 T00611050
14926KSTC STC20060322155509403/22/06 15:55:31  5-MIN KSTC 222155Z 35009KT 10SM CLR 06/M05 A3032 660 45 -200 350/09 RMK AO2
14926KSTC STC20060322160009403/22/06 16:00:31  5-MIN KSTC 222200Z 35013KT 10SM CLR 06/M05 A3032 660 45 -200 340/13 RMK AO2
14926KSTC STC20060322160509403/22/06 16:05:31  5-MIN KSTC 222205Z 35010KT 10SM CLR 06/M05 A3032 660 45 -200 340/10 RMK AO2
14926KSTC STC20060322161009903/22/06 16:10:31  5-MIN KSTC 222210Z AUTO 35011KT 10SM CLR 06/M05 A3032 660 45 -200 340/11 RMK AO2
14926KSTC STC20060322161509903/22/06 16:15:31  5-MIN KSTC 222215Z AUTO 34011KT 10SM CLR 06/M05 A3032 660 45 -200 340/11 RMK AO2
14926KSTC STC20060322162009903/22/06 16:20:31  5-MIN KSTC 222220Z AUTO 36010KT 10SM CLR 06/M04 A3032 660 46 -200 360/10 RMK AO2
14926KSTC STC20060322162509903/22/06 16:25:31  5-MIN KSTC 222225Z AUTO 34009KT 10SM CLR 06/M05 A3032 660 45 -200 330/09 RMK AO2
14926KSTC STC20060322163009903/22/06 16:30:31  5-MIN KSTC 222230Z AUTO 35009KT 10SM CLR 06/M05 A3032 660 45 -200 340/09 RMK AO2
14926KSTC STC20060322163509903/22/06 16:35:31  5-MIN KSTC 222235Z AUTO 34009KT 10SM CLR 06/M04 A3032 660 46 -200 330/09 RMK AO2
14926KSTC STC20060322164009903/22/06 16:40:31  5-MIN KSTC 222240Z AUTO 34008KT 10SM CLR 06/M05 A3032 660 45 -200 340/08 RMK AO2
14926KSTC STC20060322164509903/22/06 16:45:31  5-MIN KSTC 222245Z AUTO 33010KT 10SM CLR 06/M05 A3032 660 45 -200 330/10 RMK AO2
14926KSTC STC20060322165011603/22/06 16:50:31  5-MIN KSTC 222250Z AUTO 33009KT 10SM CLR 06/M05 A3032 660 45 -200 330/09 RMK AO2 SLP287 T00611050
14926KSTC STC20060322165510203/22/06 16:55:31  5-MIN KSTC 222255Z AUTO 33010KT 10SM FEW050 06/M04 A3032 660 46 -200 330/10 RMK AO2
14926KSTC STC20060322170010203/22/06 17:00:31  5-MIN KSTC 222300Z AUTO 33008KT 10SM FEW050 06/M04 A3032 660 46 -200 330/08 RMK AO2
14926KSTC STC20060322170510203/22/06 17:05:31  5-MIN KSTC 222305Z AUTO 32009KT 10SM SCT050 06/M04 A3032 660 46 -200 320/09 RMK AO2
14926KSTC STC20060322171010203/22/06 17:10:31  5-MIN KSTC 222310Z AUTO 33008KT 10SM SCT048 06/M04 A3031 670 46 -200 330/08 RMK AO2
14926KSTC STC20060322171510203/22/06 17:15:31  5-MIN KSTC 222315Z AUTO 33009KT 10SM BKN048 06/M04 A3031 660 46 -200 330/09 RMK AO2
14926KSTC STC20060322172010203/22/06 17:20:31  5-MIN KSTC 222320Z AUTO 34008KT 10SM BKN048 06/M04 A3031 660 50 -200 340/08 RMK AO2
14926KSTC STC20060322172510203/22/06 17:25:31  5-MIN KSTC 222325Z AUTO 34007KT 10SM SCT048 06/M04 A3032 660 50 -200 340/07 RMK AO2
14926KSTC STC20060322173010203/22/06 17:30:31  5-MIN KSTC 222330Z AUTO 34008KT 10SM SCT048 06/M04 A3032 660 50 -200 340/08 RMK AO2
14926KSTC STC20060322173510203/22/06 17:35:31  5-MIN KSTC 222335Z AUTO 34009KT 10SM SCT048 05/M04 A3032 660 52 -300 340/09 RMK AO2
14926KSTC STC20060322174010203/22/06 17:40:31  5-MIN KSTC 222340Z AUTO 34009KT 10SM FEW048 05/M04 A3032 660 50 -300 340/09 RMK AO2
14926KSTC STC20060322174510203/22/06 17:45:31  5-MIN KSTC 222345Z AUTO 32010KT 10SM FEW048 05/M04 A3032 660 52 -300 320/10 RMK AO2
14926KSTC STC20060322175013703/22/06 17:50:31  5-MIN KSTC 222350Z AUTO 31013KT 10SM FEW048 04/M05 A3032 660 50 -400 310/13 RMK AO2 SLP289 T00441050 10067 20044 57016
14926KSTC STC20060322175510203/22/06 17:55:31  5-MIN KSTC 222355Z AUTO 31012KT 10SM SCT048 04/M05 A3032 660 52 -400 310/12 RMK AO2
14926KSTC STC20060322180010203/22/06 18:00:31  5-MIN KSTC 230000Z AUTO 31010KT 10SM SCT048 03/M05 A3032 660 54 -500 310/10 RMK AO2
14926KSTC STC20060322180510203/22/06 18:05:31  5-MIN KSTC 230005Z AUTO 31009KT 10SM SCT048 03/M05 A3032 660 54 -500 310/09 RMK AO2
14926KSTC STC20060322181010203/22/06 18:10:31  5-MIN KSTC 230010Z AUTO 31012KT 10SM SCT048 03/M05 A3032 660 54 -500 300/12 RMK AO2
14926KSTC STC20060322181510203/22/06 18:15:31  5-MIN KSTC 230015Z AUTO 31012KT 10SM SCT048 03/M06 A3032 660 54 -600 310/12 RMK AO2
14926KSTC STC20060322182010203/22/06 18:20:31  5-MIN KSTC 230020Z AUTO 31010KT 10SM FEW048 03/M06 A3032 660 54 -600 310/10 RMK AO2
14926KSTC STC20060322182510203/22/06 18:25:31  5-MIN KSTC 230025Z AUTO 31010KT 10SM FEW048 02/M05 A3032 660 59 -600 310/10 RMK AO2
14926KSTC STC20060322183010203/22/06 18:30:31  5-MIN KSTC 230030Z AUTO 31011KT 10SM FEW046 02/M06 A3032 660 56 -600 310/11 RMK AO2
14926KSTC STC20060322183509903/22/06 18:35:31  5-MIN KSTC 230035Z AUTO 31011KT 10SM CLR 02/M06 A3032 660 56 -600 310/11 RMK AO2
14926KSTC STC20060322184009903/22/06 18:40:31  5-MIN KSTC 230040Z AUTO 31009KT 10SM CLR 02/M05 A3032 660 61 -700 310/09 RMK AO2
14926KSTC STC20060322184509903/22/06 18:45:31  5-MIN KSTC 230045Z AUTO 31007KT 10SM CLR 01/M05 A3032 660 64 -800 310/07 RMK AO2
14926KSTC STC20060322185011603/22/06 18:50:31  5-MIN KSTC 230050Z AUTO 31008KT 10SM CLR 01/M05 A3032 660 64 -800 310/08 RMK AO2 SLP291 T00111050
14926KSTC STC20060322185509903/22/06 18:55:31  5-MIN KSTC 230055Z AUTO 31008KT 10SM CLR 01/M05 A3032 650 64 -800 310/08 RMK AO2
14926KSTC STC20060322190009903/22/06 19:00:31  5-MIN KSTC 230100Z AUTO 31008KT 10SM CLR 01/M05 A3033 650 64 -800 310/08 RMK AO2
14926KSTC STC20060322190509903/22/06 19:05:31  5-MIN KSTC 230105Z AUTO 31008KT 10SM CLR 01/M05 A3033 650 64 -800 310/08 RMK AO2
14926KSTC STC20060322191009903/22/06 19:10:31  5-MIN KSTC 230110Z AUTO 31007KT 10SM CLR 01/M05 A3033 650 66 -900 310/07 RMK AO2
14926KSTC STC20060322191509903/22/06 19:15:31  5-MIN KSTC 230115Z AUTO 31007KT 10SM CLR 01/M05 A3033 650 66 -900 300/07 RMK AO2
14926KSTC STC20060322192009903/22/06 19:20:31  5-MIN KSTC 230120Z AUTO 30010KT 10SM CLR 01/M06 A3033 650 63 -900 300/10 RMK AO2
14926KSTC STC20060322192509903/22/06 19:25:31  5-MIN KSTC 230125Z AUTO 31011KT 10SM CLR 01/M06 A3033 650 61 -800 300/11 RMK AO2
14926KSTC STC20060322193009903/22/06 19:30:31  5-MIN KSTC 230130Z AUTO 31011KT 10SM CLR 01/M06 A3033 650 61 -800 310/11 RMK AO2
14926KSTC STC20060322193510203/22/06 19:35:31  5-MIN KSTC 230135Z AUTO 31010KT 10SM FEW055 01/M05 A3033 650 64 -800 310/10 RMK AO2
14926KSTC STC20060322194010203/22/06 19:40:31  5-MIN KSTC 230140Z AUTO 31009KT 10SM FEW055 01/M05 A3033 650 64 -800 310/09 RMK AO2
14926KSTC STC20060322194510203/22/06 19:45:31  5-MIN KSTC 230145Z AUTO 31012KT 10SM FEW055 01/M06 A3033 650 61 -800 300/12 RMK AO2
14926KSTC STC20060322195011903/22/06 19:50:31  5-MIN KSTC 230150Z AUTO 31011KT 10SM FEW055 01/M06 A3033 650 61 -800 310/11 RMK AO2 SLP294 T00111056
14926KSTC STC20060322195510203/22/06 19:55:31  5-MIN KSTC 230155Z AUTO 31010KT 10SM FEW055 01/M06 A3033 650 61 -800 300/10 RMK AO2
14926KSTC STC20060322200010203/22/06 20:00:31  5-MIN KSTC 230200Z AUTO 31010KT 10SM FEW055 01/M06 A3034 640 61 -800 310/10 RMK AO2
14926KSTC STC20060322200509903/22/06 20:05:31  5-MIN KSTC 230205Z AUTO 31011KT 10SM CLR 01/M06 A3034 640 61 -800 300/11 RMK AO2
14926KSTC STC20060322201009903/22/06 20:10:31  5-MIN KSTC 230210Z AUTO 31011KT 10SM CLR 01/M06 A3034 640 61 -800 300/11 RMK AO2
14926KSTC STC20060322201510203/22/06 20:15:31  5-MIN KSTC 230215Z AUTO 31011KT 10SM SCT055 01/M06 A3034 640 61 -800 300/11 RMK AO2
14926KSTC STC20060322202010203/22/06 20:20:31  5-MIN KSTC 230220Z AUTO 30010KT 10SM BKN055 01/M06 A3034 640 61 -800 300/10 RMK AO2
14926KSTC STC20060322202510203/22/06 20:25:31  5-MIN KSTC 230225Z AUTO 30011KT 10SM BKN055 02/M06 A3034 640 59 -700 290/11 RMK AO2
14926KSTC STC20060322203010203/22/06 20:30:31  5-MIN KSTC 230230Z AUTO 31009KT 10SM BKN055 01/M06 A3034 640 61 -800 310/09 RMK AO2
14926KSTC STC20060322203510203/22/06 20:35:31  5-MIN KSTC 230235Z AUTO 31012KT 10SM OVC055 01/M06 A3034 640 61 -800 310/12 RMK AO2
14926KSTC STC20060322204010203/22/06 20:40:31  5-MIN KSTC 230240Z AUTO 31012KT 10SM OVC055 01/M06 A3034 640 61 -800 310/12 RMK AO2
14926KSTC STC20060322204510203/22/06 20:45:31  5-MIN KSTC 230245Z AUTO 31012KT 10SM OVC055 01/M05 A3034 640 64 -800 310/12 RMK AO2
14926KSTC STC20060322205012503/22/06 20:50:31  5-MIN KSTC 230250Z AUTO 31011KT 10SM OVC055 01/M05 A3034 640 64 -800 310/11 RMK AO2 SLP297 T00111050 55001
14926KSTC STC20060322205510203/22/06 20:55:31  5-MIN KSTC 230255Z AUTO 31010KT 10SM OVC055 01/M05 A3034 640 64 -800 310/10 RMK AO2
14926KSTC STC20060322210010203/22/06 21:00:31  5-MIN KSTC 230300Z AUTO 31010KT 10SM OVC055 01/M05 A3034 640 64 -800 310/10 RMK AO2
14926KSTC STC20060322210510203/22/06 21:05:31  5-MIN KSTC 230305Z AUTO 31010KT 10SM OVC055 01/M05 A3034 640 64 -800 310/10 RMK AO2
14926KSTC STC20060322211010203/22/06 21:10:31  5-MIN KSTC 230310Z AUTO 31011KT 10SM OVC055 01/M04 A3034 640 66 -800 310/11 RMK AO2
14926KSTC STC20060322211510203/22/06 21:15:31  5-MIN KSTC 230315Z AUTO 32013KT 10SM OVC055 01/M05 A3034 640 64 -800 310/13 RMK AO2
14926KSTC STC20060322212010203/22/06 21:20:31  5-MIN KSTC 230320Z AUTO 32010KT 10SM OVC055 01/M05 A3034 640 64 -800 310/10 RMK AO2
14926KSTC STC20060322212510203/22/06 21:25:31  5-MIN KSTC 230325Z AUTO 32010KT 10SM OVC055 01/M05 A3034 640 64 -800 320/10 RMK AO2
14926KSTC STC20060322213010203/22/06 21:30:31  5-MIN KSTC 230330Z AUTO 32010KT 10SM OVC055 01/M05 A3034 640 64 -800 320/10 RMK AO2
14926KSTC STC20060322213510203/22/06 21:35:31  5-MIN KSTC 230335Z AUTO 32010KT 10SM OVC055 01/M04 A3035 640 66 -800 320/10 RMK AO2
14926KSTC STC20060322214010203/22/06 21:40:31  5-MIN KSTC 230340Z AUTO 31010KT 10SM OVC055 01/M04 A3035 630 66 -800 310/10 RMK AO2
14926KSTC STC20060322214510203/22/06 21:45:31  5-MIN KSTC 230345Z AUTO 32011KT 10SM OVC055 01/M04 A3035 630 66 -800 310/11 RMK AO2
14926KSTC STC20060322215011903/22/06 21:50:31  5-MIN KSTC 230350Z AUTO 32010KT 10SM OVC055 01/M04 A3035 630 66 -800 320/10 RMK AO2 SLP298 T00111044
14926KSTC STC20060322215510203/22/06 21:55:31  5-MIN KSTC 230355Z AUTO 32011KT 10SM OVC055 01/M04 A3035 630 66 -800 320/11 RMK AO2
14926KSTC STC20060322220010203/22/06 22:00:31  5-MIN KSTC 230400Z AUTO 32008KT 10SM OVC055 01/M04 A3035 630 66 -800 320/08 RMK AO2
14926KSTC STC20060322220510203/22/06 22:05:31  5-MIN KSTC 230405Z AUTO 32009KT 10SM OVC055 01/M04 A3035 630 66 -800 320/09 RMK AO2
14926KSTC STC20060322221010203/22/06 22:10:31  5-MIN KSTC 230410Z AUTO 32008KT 10SM OVC055 01/M04 A3035 630 66 -800 320/08 RMK AO2
14926KSTC STC20060322221510203/22/06 22:15:31  5-MIN KSTC 230415Z AUTO 32009KT 10SM OVC055 01/M04 A3035 630 66 -800 320/09 RMK AO2
14926KSTC STC20060322222010203/22/06 22:20:31  5-MIN KSTC 230420Z AUTO 33007KT 10SM OVC055 01/M04 A3035 630 66 -800 320/07 RMK AO2
14926KSTC STC20060322222510203/22/06 22:25:31  5-MIN KSTC 230425Z AUTO 32009KT 10SM OVC055 01/M04 A3035 630 66 -800 320/09 RMK AO2
14926KSTC STC20060322223010203/22/06 22:30:31  5-MIN KSTC 230430Z AUTO 33008KT 10SM OVC055 01/M04 A3035 640 66 -800 330/08 RMK AO2
14926KSTC STC20060322223510203/22/06 22:35:31  5-MIN KSTC 230435Z AUTO 33007KT 10SM OVC055 01/M04 A3035 640 66 -800 320/07 RMK AO2
14926KSTC STC20060322224010203/22/06 22:40:31  5-MIN KSTC 230440Z AUTO 33008KT 10SM OVC055 01/M04 A3035 630 66 -800 330/08 RMK AO2
14926KSTC STC20060322224510203/22/06 22:45:31  5-MIN KSTC 230445Z AUTO 33007KT 10SM OVC055 01/M04 A3035 640 66 -800 330/07 RMK AO2
14926KSTC STC20060322225011903/22/06 22:50:31  5-MIN KSTC 230450Z AUTO 33008KT 10SM OVC055 01/M04 A3035 640 66 -800 320/08 RMK AO2 SLP296 T00111044
14926KSTC STC20060322225510203/22/06 22:55:31  5-MIN KSTC 230455Z AUTO 33007KT 10SM OVC055 01/M04 A3035 640 66 -800 330/07 RMK AO2
14926KSTC STC20060322230010203/22/06 23:00:31  5-MIN KSTC 230500Z AUTO 33007KT 10SM OVC055 01/M04 A3035 640 66 -800 330/07 RMK AO2
14926KSTC STC20060322230510203/22/06 23:05:31  5-MIN KSTC 230505Z AUTO 32007KT 10SM OVC055 01/M04 A3034 640 66 -800 320/07 RMK AO2
14926KSTC STC20060322231010203/22/06 23:10:31  5-MIN KSTC 230510Z AUTO 33007KT 10SM OVC055 01/M04 A3034 640 66 -800 320/07 RMK AO2
14926KSTC STC20060322231510203/22/06 23:15:31  5-MIN KSTC 230515Z AUTO 33006KT 10SM OVC060 01/M04 A3034 640 66 -800 320/06 RMK AO2
14926KSTC STC20060322232010203/22/06 23:20:31  5-MIN KSTC 230520Z AUTO 32007KT 10SM OVC060 01/M04 A3035 640 66 -800 320/07 RMK AO2
14926KSTC STC20060322232510203/22/06 23:25:31  5-MIN KSTC 230525Z AUTO 32007KT 10SM OVC060 01/M04 A3034 640 66 -800 320/07 RMK AO2
14926KSTC STC20060322233010203/22/06 23:30:31  5-MIN KSTC 230530Z AUTO 33006KT 10SM OVC060 01/M04 A3034 640 66 -800 320/06 RMK AO2
14926KSTC STC20060322233510203/22/06 23:35:31  5-MIN KSTC 230535Z AUTO 33006KT 10SM OVC060 01/M04 A3034 640 66 -800 330/06 RMK AO2
14926KSTC STC20060322234010203/22/06 23:40:31  5-MIN KSTC 230540Z AUTO 33007KT 10SM OVC060 01/M04 A3035 640 66 -800 330/07 RMK AO2
14926KSTC STC20060322234510203/22/06 23:45:31  5-MIN KSTC 230545Z AUTO 33008KT 10SM OVC060 01/M04 A3035 630 66 -800 330/08 RMK AO2
14926KSTC STC20060322235014703/22/06 23:50:31  5-MIN KSTC 230550Z AUTO 33008KT 10SM OVC060 01/M04 A3035 630 66 -800 320/08 RMK AO2 SLP296 T00111044 10039 20006 400671056 53007
14926KSTC STC20060322235510203/22/06 23:55:31  5-MIN KSTC 230555Z AUTO 33006KT 10SM OVC060 01/M04 A3035 630 66 -800 320/06 RMK AO2
14926KSTC STC20060323000010203/23/06 00:00:32  5-MIN KSTC 230600Z AUTO 32007KT 10SM OVC060 01/M04 A3035 630 66 -800 320/07 RMK AO2
14926KSTC STC20060323000510203/23/06 00:05:31  5-MIN KSTC 230605Z AUTO 32007KT 10SM OVC060 01/M04 A3035 630 69 -900 320/07 RMK AO2
14926KSTC STC20060323001010203/23/06 00:10:31  5-MIN KSTC 230610Z AUTO 32007KT 10SM OVC060 01/M04 A3035 630 69 -900 320/07 RMK AO2
14926KSTC STC20060323001510203/23/06 00:15:31  5-MIN KSTC 230615Z AUTO 32008KT 10SM OVC055 01/M04 A3035 630 69 -900 320/08 RMK AO2
14926KSTC STC20060323002010203/23/06 00:20:31  5-MIN KSTC 230620Z AUTO 32008KT 10SM OVC060 01/M04 A3035 630 69 -900 320/08 RMK AO2
14926KSTC STC20060323002510203/23/06 00:25:31  5-MIN KSTC 230625Z AUTO 32007KT 10SM OVC055 01/M04 A3035 630 69 -900 320/07 RMK AO2
14926KSTC STC20060323003010203/23/06 00:30:31  5-MIN KSTC 230630Z AUTO 32007KT 10SM OVC055 01/M04 A3035 630 69 -900 320/07 RMK AO2
14926KSTC STC20060323003510203/23/06 00:35:31  5-MIN KSTC 230635Z AUTO 32007KT 10SM OVC055 01/M04 A3035 630 69 -900 320/07 RMK AO2
14926KSTC STC20060323004010203/23/06 00:40:31  5-MIN KSTC 230640Z AUTO 32007KT 10SM OVC055 01/M04 A3035 630 69 -900 320/07 RMK AO2
14926KSTC STC20060323004510203/23/06 00:45:31  5-MIN KSTC 230645Z AUTO 33007KT 10SM OVC055 01/M04 A3035 630 69 -900 320/07 RMK AO2
14926KSTC STC20060323005011903/23/06 00:50:31  5-MIN KSTC 230650Z AUTO 32007KT 10SM OVC055 01/M04 A3035 630 69 -900 320/07 RMK AO2 SLP297 T00061044
14926KSTC STC20060323005510203/23/06 00:55:31  5-MIN KSTC 230655Z AUTO 32008KT 10SM OVC055 01/M04 A3035 630 69 -900 320/08 RMK AO2
14926KSTC STC20060323010010203/23/06 01:00:31  5-MIN KSTC 230700Z AUTO 32009KT 10SM OVC055 01/M04 A3035 630 69 -900 320/09 RMK AO2
14926KSTC STC20060323010510203/23/06 01:05:31  5-MIN KSTC 230705Z AUTO 32008KT 10SM OVC055 01/M04 A3035 630 69 -900 320/08 RMK AO2
14926KSTC STC20060323011010203/23/06 01:10:31  5-MIN KSTC 230710Z AUTO 32007KT 10SM OVC055 01/M04 A3035 630 69 -900 320/07 RMK AO2
14926KSTC STC20060323011510203/23/06 01:15:31  5-MIN KSTC 230715Z AUTO 32009KT 10SM OVC055 01/M04 A3035 640 69 -900 320/09 RMK AO2
14926KSTC STC20060323012010203/23/06 01:20:31  5-MIN KSTC 230720Z AUTO 32008KT 10SM OVC055 01/M04 A3035 640 69 -900 320/08 RMK AO2
14926KSTC STC20060323012510203/23/06 01:25:31  5-MIN KSTC 230725Z AUTO 32009KT 10SM OVC055 01/M04 A3034 640 69 -900 320/09 RMK AO2
14926KSTC STC20060323013010203/23/06 01:30:31  5-MIN KSTC 230730Z AUTO 32008KT 10SM OVC055 01/M04 A3034 640 69 -900 320/08 RMK AO2
14926KSTC STC20060323013510203/23/06 01:35:31  5-MIN KSTC 230735Z AUTO 32009KT 10SM OVC055 01/M04 A3034 640 69 -900 320/09 RMK AO2
14926KSTC STC20060323014010203/23/06 01:40:31  5-MIN KSTC 230740Z AUTO 32009KT 10SM OVC055 01/M04 A3034 640 69 -900 320/09 RMK AO2
14926KSTC STC20060323014510203/23/06 01:45:31  5-MIN KSTC 230745Z AUTO 32007KT 10SM OVC050 01/M04 A3034 640 69 -900 320/07 RMK AO2
14926KSTC STC20060323015011903/23/06 01:50:31  5-MIN KSTC 230750Z AUTO 32007KT 10SM OVC050 01/M04 A3034 640 69 -900 320/07 RMK AO2 SLP294 T00061044
14926KSTC STC20060323015510203/23/06 01:55:31  5-MIN KSTC 230755Z AUTO 32008KT 10SM OVC050 01/M04 A3034 640 69 -900 320/08 RMK AO2
14926KSTC STC20060323020010203/23/06 02:00:31  5-MIN KSTC 230800Z AUTO 32008KT 10SM OVC050 01/M04 A3034 640 69 -900 320/08 RMK AO2
14926KSTC STC20060323020510203/23/06 02:05:31  5-MIN KSTC 230805Z AUTO 32008KT 10SM OVC050 01/M04 A3034 640 69 -900 320/08 RMK AO2
14926KSTC STC20060323021010203/23/06 02:10:31  5-MIN KSTC 230810Z AUTO 32008KT 10SM OVC050 01/M04 A3034 640 69 -900 320/08 RMK AO2
14926KSTC STC20060323021510203/23/06 02:15:31  5-MIN KSTC 230815Z AUTO 33008KT 10SM OVC050 01/M04 A3034 640 69 -900 320/08 RMK AO2
14926KSTC STC20060323022010203/23/06 02:20:31  5-MIN KSTC 230820Z AUTO 33007KT 10SM OVC050 01/M04 A3034 640 69 -900 320/07 RMK AO2
14926KSTC STC20060323022510203/23/06 02:25:31  5-MIN KSTC 230825Z AUTO 32009KT 10SM OVC050 01/M04 A3034 640 69 -900 320/09 RMK AO2
14926KSTC STC20060323023010203/23/06 02:30:31  5-MIN KSTC 230830Z AUTO 32007KT 10SM OVC050 01/M04 A3034 640 69 -900 320/07 RMK AO2
14926KSTC STC20060323023510203/23/06 02:35:31  5-MIN KSTC 230835Z AUTO 33008KT 10SM OVC050 01/M04 A3034 640 69 -900 330/08 RMK AO2
14926KSTC STC20060323024010203/23/06 02:40:31  5-MIN KSTC 230840Z AUTO 33009KT 10SM OVC050 01/M04 A3034 640 69 -900 320/09 RMK AO2
14926KSTC STC20060323024510203/23/06 02:45:31  5-MIN KSTC 230845Z AUTO 33009KT 10SM OVC050 01/M04 A3034 640 69 -900 320/09 RMK AO2
14926KSTC STC20060323025012503/23/06 02:50:31  5-MIN KSTC 230850Z AUTO 33008KT 10SM OVC050 00/M04 A3034 640 72 -900 330/08 RMK AO2 SLP291 T00001044 51002
14926KSTC STC20060323043011103/23/06 04:30:31  5-MIN KSTC 231030Z AUTO 33006KT 10SM BKN060 OVC080 M01/M05 A3034 640 75 -1100 330/06 RMK AO2
14926KSTC STC20060323043511103/23/06 04:35:31  5-MIN KSTC 231035Z AUTO 33007KT 10SM BKN060 OVC085 M01/M05 A3034 640 75 -1100 330/07 RMK AO2
14926KSTC STC20060323044010403/23/06 04:40:31  5-MIN KSTC 231040Z AUTO 33007KT 10SM OVC060 M01/M05 A3034 640 75 -1100 330/07 RMK AO2
14926KSTC STC20060323044510403/23/06 04:45:31  5-MIN KSTC 231045Z AUTO 33005KT 10SM OVC060 M01/M05 A3034 640 75 -1100 330/05 RMK AO2
14926KSTC STC20060323045012803/23/06 04:50:31  5-MIN KSTC 231050Z AUTO 33006KT 10SM BKN060 OVC075 M01/M05 A3034 640 75 -1100 330/06 RMK AO2 SLP293 T10111050
14926KSTC STC20060323045510403/23/06 04:55:31  5-MIN KSTC 231055Z AUTO 33006KT 10SM OVC060 M01/M05 A3034 640 75 -1100 330/06 RMK AO2
14926KSTC STC20060323050011103/23/06 05:00:31  5-MIN KSTC 231100Z AUTO 34006KT 10SM BKN060 OVC075 M01/M05 A3034 640 75 -1100 330/06 RMK AO2
14926KSTC STC20060323050511103/23/06 05:05:31  5-MIN KSTC 231105Z AUTO 33005KT 10SM BKN060 OVC075 M01/M05 A3034 640 75 -1100 330/05 RMK AO2
14926KSTC STC20060323051011103/23/06 05:10:31  5-MIN KSTC 231110Z AUTO 33006KT 10SM BKN060 OVC075 M01/M05 A3034 640 75 -1100 330/06 RMK AO2
14926KSTC STC20060323051511103/23/06 05:15:31  5-MIN KSTC 231115Z AUTO 33005KT 10SM BKN060 OVC070 M01/M05 A3034 640 75 -1100 330/05 RMK AO2
14926KSTC STC20060323052011103/23/06 05:20:31  5-MIN KSTC 231120Z AUTO 33006KT 10SM BKN060 OVC075 M01/M05 A3034 640 75 -1100 330/06 RMK AO2
14926KSTC STC20060323052511103/23/06 05:25:31  5-MIN KSTC 231125Z AUTO 34006KT 10SM BKN060 OVC075 M01/M04 A3034 640 78 -1100 340/06 RMK AO2
14926KSTC STC20060323053011103/23/06 05:30:31  5-MIN KSTC 231130Z AUTO 33006KT 10SM BKN060 OVC070 M01/M04 A3034 640 78 -1100 330/06 RMK AO2
14926KSTC STC20060323053511103/23/06 05:35:31  5-MIN KSTC 231135Z AUTO 33006KT 10SM BKN055 OVC070 M01/M04 A3034 640 78 -1100 330/06 RMK AO2
14926KSTC STC20060323054012603/23/06 05:40:31  5-MIN KSTC 231140Z AUTO 33006KT 8SM -SN BKN055 OVC070 M01/M04 A3034 640 78 -1100 330/06 RMK AO2 SNB39 P0000
14926KSTC STC20060323054512603/23/06 05:45:31  5-MIN KSTC 231145Z AUTO 33006KT 7SM -SN BKN060 OVC080 M01/M04 A3034 640 78 -1100 330/06 RMK AO2 SNB39 P0000
14926KSTC STC20060323055016703/23/06 05:50:31  5-MIN KSTC 231150Z AUTO 33006KT 7SM -SN BKN060 OVC080 M01/M04 A3034 640 78 -1100 330/06 RMK AO2 SNB39 SLP296 P0000 60000 T10111044 10011 21011 58004
14926KSTC STC20060323055511003/23/06 05:55:31  5-MIN KSTC 231155Z AUTO 33006KT 8SM SCT060 OVC085 M01/M04 A3034 640 78 -1100 330/06 RMK AO2
14926KSTC STC20060323060011003/23/06 06:00:31  5-MIN KSTC 231200Z AUTO 33006KT 9SM SCT060 OVC085 M02/M04 A3034 640 81 -1200 330/06 RMK AO2
14926KSTC STC20060323060511103/23/06 06:05:31  5-MIN KSTC 231205Z AUTO 33006KT 10SM BKN070 OVC085 M01/M04 A3034 640 78 -1100 330/06 RMK AO2
14926KSTC STC20060323061010403/23/06 06:10:31  5-MIN KSTC 231210Z AUTO 33005KT 10SM OVC080 M02/M04 A3035 640 81 -1200 330/05 RMK AO2
14926KSTC STC20060323061510403/23/06 06:15:31  5-MIN KSTC 231215Z AUTO 33005KT 10SM OVC080 M02/M04 A3035 630 81 -1200 330/05 RMK AO2
14926KSTC STC20060323062010403/23/06 06:20:31  5-MIN KSTC 231220Z AUTO 33005KT 10SM OVC080 M01/M04 A3035 630 78 -1100 330/05 RMK AO2
14926KSTC STC20060323062510403/23/06 06:25:31  5-MIN KSTC 231225Z AUTO 33006KT 10SM OVC080 M01/M04 A3035 630 78 -1100 330/06 RMK AO2
14926KSTC STC20060323063010403/23/06 06:30:31  5-MIN KSTC 231230Z AUTO 33005KT 10SM OVC080 M02/M04 A3035 630 81 -1200 320/05 RMK AO2
14926KSTC STC20060323063510403/23/06 06:35:31  5-MIN KSTC 231235Z AUTO 33006KT 10SM OVC080 M01/M04 A3035 630 78 -1100 330/06 RMK AO2
14926KSTC STC20060323064010403/23/06 06:40:31  5-MIN KSTC 231240Z AUTO 33005KT 10SM OVC080 M01/M04 A3035 630 78 -1100 330/05 RMK AO2
14926KSTC STC20060323064510303/23/06 06:45:31  5-MIN KSTC 231245Z AUTO 33006KT 8SM OVC075 M01/M04 A3035 630 81 -1100 330/06 RMK AO2
14926KSTC STC20060323065013103/23/06 06:50:31  5-MIN KSTC 231250Z 33007KT 5SM -SN OVC075 M01/M04 A3035 630 81 -1100 330/07 RMK AO2 SNB46 SLP299 P0000 T10111039
14926KSTC STC20060323065510803/23/06 06:55:31  5-MIN KSTC 231255Z 33007KT 5SM -SN OVC075 M01/M04 A3035 630 81 -1100 330/07 RMK AO2 P0000
14926KSTC STC20060323070012203/23/06 07:00:31  5-MIN KSTC 231300Z 33006KT 5SM HZ BKN070 OVC080 M01/M04 A3035 630 81 -1100 330/06 RMK AO2 SNE1258 P0000
14926KSTC STC20060323070512203/23/06 07:05:31  5-MIN KSTC 231305Z 33006KT 4SM HZ BKN048 OVC075 M01/M04 A3035 630 81 -1100 330/06 RMK AO2 SNE1258 P0000
14926KSTC STC20060323071011503/23/06 07:10:31  5-MIN KSTC 231310Z 33006KT 3SM -SN BKN036 OVC075 M01/M04 A3035 630 81 -1100 330/06 RMK AO2 P0000
14926KSTC STC20060323071511503/23/06 07:15:31  5-MIN KSTC 231315Z 33008KT 2SM -SN BKN025 OVC075 M01/M04 A3035 630 81 -1100 320/08 RMK AO2 P0000
14926KSTC STC20060323072011803/23/06 07:20:31  5-MIN KSTC 231320Z 33009KT 2SM -SN BR BKN021 OVC075 M01/M03 A3035 630 85 -1100 330/09 RMK AO2 P0000
14926KSTC STC20060323072511103/23/06 07:25:31  5-MIN KSTC 231325Z 32007KT 3SM -SN BR OVC019 M01/M03 A3035 630 85 -1100 320/07 RMK AO2 P0000
14926KSTC STC20060323073012203/23/06 07:30:31  5-MIN KSTC 231330Z 33006KT 2 1/2SM -SN BR BKN023 OVC075 M01/M03 A3035 630 85 -1100 320/06 RMK AO2 P0000
14926KSTC STC20060323073511803/23/06 07:35:31  5-MIN KSTC 231335Z 32007KT 3SM -SN BR BKN033 OVC075 M01/M03 A3035 630 85 -1100 320/07 RMK AO2 P0000
14926KSTC STC20060323074011803/23/06 07:40:31  5-MIN KSTC 231340Z 33008KT 6SM -SN BR BKN037 OVC075 M01/M03 A3035 630 85 -1100 330/08 RMK AO2 P0000
14926KSTC STC20060323074511703/23/06 07:45:31  5-MIN KSTC 231345Z 33006KT 9SM BKN037 BKN075 M01/M03 A3035 630 85 -1100 330/06 RMK AO2 SNE44 P0000
14926KSTC STC20060323075014203/23/06 07:50:31  5-MIN KSTC 231350Z 33006KT 10SM FEW030 BKN043 BKN075 M01/M03 A3035 630 85 -1100 330/06 RMK AO2 SNE44 SLP300 P0000 T10111033
14926KSTC STC20060323075511303/23/06 07:55:31  5-MIN KSTC 231355Z 33007KT 10SM SCT030 BKN060 BKN075 M01/M03 A3035 630 85 -1100 330/07 RMK AO2
14926KSTC STC20060323080010603/23/06 08:00:31  5-MIN KSTC 231400Z 33009KT 10SM BKN030 BKN070 M01/M03 A3035 630 85 -1100 330/09 RMK AO2
14926KSTC STC20060323080511303/23/06 08:05:31  5-MIN KSTC 231405Z 33008KT 10SM BKN030 BKN055 BKN075 M01/M03 A3035 630 85 -1100 330/08 RMK AO2
14926KSTC STC20060323081009903/23/06 08:10:31  5-MIN KSTC 231410Z 33006KT 10SM BKN030 M01/M03 A3035 630 85 -1100 330/06 RMK AO2
14926KSTC STC20060323081509803/23/06 08:15:31  5-MIN KSTC 231415Z 33006KT 9SM OVC030 M01/M03 A3035 630 81 -1000 330/06 RMK AO2
14926KSTC STC20060323082009803/23/06 08:20:31  5-MIN KSTC 231420Z 33007KT 8SM OVC030 M01/M03 A3035 630 85 -1000 320/07 RMK AO2
14926KSTC STC20060323082509803/23/06 08:25:31  5-MIN KSTC 231425Z 33007KT 8SM OVC030 M01/M03 A3035 630 81 -1000 330/07 RMK AO2
14926KSTC STC20060323083011403/23/06 08:30:31  5-MIN KSTC 231430Z 34008KT 8SM -SN OVC030 M01/M03 A3035 630 81 -1000 330/08 RMK AO2 SNB28 P0000
14926KSTC STC20060323083511403/23/06 08:35:31  5-MIN KSTC 231435Z 33009KT 6SM -SN OVC030 M01/M03 A3035 630 81 -1000 330/09 RMK AO2 SNB28 P0000
14926KSTC STC20060323084012803/23/06 08:40:31  5-MIN KSTC 231440Z 34007KT 5SM -SN FEW011 SCT023 OVC030 M01/M03 A3035 630 81 -1000 340/07 RMK AO2 SNB28 P0000
14926KSTC STC20060323084512803/23/06 08:45:31  5-MIN KSTC 231445Z 33009KT 5SM -SN SCT011 BKN024 OVC032 M01/M03 A3035 630 81 -1000 330/09 RMK AO2 SNB28 P0000
14926KSTC STC20060323085012803/23/06 08:50:31  5-MIN KSTC 231450Z 33008KT 6SM -SN SCT011 BKN022 OVC032 M01/M03 A3035 630 81 -1000 330/08 RMK AO2 SNB28 P0000
14926KSTC STC20060323085512203/23/06 08:55:31  5-MIN KSTC 231455Z 33007KT 7SM -SN BKN011 BKN022 OVC032 M01/M03 A3035 630 81 -1000 330/07 RMK AO2 P0000
14926KSTC STC20060323090012203/23/06 09:00:31  5-MIN KSTC 231500Z 34008KT 6SM -SN BKN011 BKN022 OVC032 M01/M03 A3035 630 81 -1000 330/08 RMK AO2 P0000
14926KSTC STC20060323090510803/23/06 09:05:31  5-MIN KSTC 231505Z 33009KT 6SM -SN OVC011 M01/M03 A3035 630 81 -1000 330/09 RMK AO2 P0000
14926KSTC STC20060323091010803/23/06 09:10:31  5-MIN KSTC 231510Z 34009KT 7SM -SN OVC011 M01/M03 A3035 630 81 -1000 330/09 RMK AO2 P0000
14926KSTC STC20060323091510903/23/06 09:15:31  5-MIN KSTC 231515Z 33009KT 8SM OVC011 00/M03 A3035 630 78 -1000 330/09 RMK AO2 SNE11 P0000
14926KSTC STC20060323092011703/23/06 09:20:31  5-MIN KSTC 231520Z 34010KT 10SM BKN013 OVC017 00/M03 A3035 630 78 -1000 330/10 RMK AO2 SNE11 P0000
14926KSTC STC20060323092511703/23/06 09:25:31  5-MIN KSTC 231525Z 33009KT 10SM BKN013 OVC017 00/M03 A3035 630 78 -1000 330/09 RMK AO2 SNE11 P0000
14926KSTC STC20060323093011703/23/06 09:30:31  5-MIN KSTC 231530Z 33009KT 10SM BKN013 OVC018 00/M03 A3035 630 78 -1000 330/09 RMK AO2 SNE11 P0000
14926KSTC STC20060323093511703/23/06 09:35:31  5-MIN KSTC 231535Z 34009KT 10SM BKN013 OVC018 00/M03 A3035 630 78 -1000 340/09 RMK AO2 SNE11 P0000
14926KSTC STC20060323094011003/23/06 09:40:31  5-MIN KSTC 231540Z 33006KT 10SM OVC015 00/M03 A3035 640 78 -1000 330/06 RMK AO2 SNE11 P0000
14926KSTC STC20060323094511003/23/06 09:45:31  5-MIN KSTC 231545Z 33007KT 10SM OVC015 00/M03 A3034 640 81 -1000 330/07 RMK AO2 SNE11 P0000
14926KSTC STC20060323095013303/23/06 09:50:31  5-MIN KSTC 231550Z 33006KT 10SM -SN OVC015 01/M03 A3034 640 78 -900 320/06 RMK AO2 SNE11B49 SLP297 P0000 T00061028
14926KSTC STC20060323095510603/23/06 09:55:31  5-MIN KSTC 231555Z 34006KT 9SM -SN OVC017 01/M03 A3034 640 78 -900 340/06 RMK AO2 P0000
14926KSTC STC20060323100011003/23/06 10:00:31  5-MIN KSTC 231600Z 35007KT 9SM OVC017 01/M03 A3034 640 78 -900 340/07 RMK AO2 SNE1558 P0000
14926KSTC STC20060323100510603/23/06 10:05:31  5-MIN KSTC 231605Z 32009KT 8SM -SN OVC017 01/M03 A3034 640 78 -900 320/09 RMK AO2 P0000
14926KSTC STC20060323101011303/23/06 10:10:31  5-MIN KSTC 231610Z 32009KT 7SM -SN BKN016 OVC022 01/M03 A3034 640 78 -900 320/09 RMK AO2 P0000
14926KSTC STC20060323101511303/23/06 10:15:31  5-MIN KSTC 231615Z 33009KT 8SM -SN BKN018 OVC022 01/M03 A3034 640 75 -900 320/09 RMK AO2 P0000
14926KSTC STC20060323102012003/23/06 10:20:31  5-MIN KSTC 231620Z 32008KT 7SM -SN BKN016 BKN022 OVC035 01/M03 A3034 640 78 -900 310/08 RMK AO2 P0000
14926KSTC STC20060323102512003/23/06 10:25:31  5-MIN KSTC 231625Z 33007KT 5SM -SN SCT016 BKN022 OVC033 01/M03 A3034 640 78 -900 330/07 RMK AO2 P0000
14926KSTC STC20060323103012003/23/06 10:30:31  5-MIN KSTC 231630Z 32009KT 4SM -SN SCT016 BKN022 OVC033 01/M03 A3034 640 78 -900 310/09 RMK AO2 P0000
14926KSTC STC20060323103512003/23/06 10:35:31  5-MIN KSTC 231635Z 31010KT 4SM -SN SCT016 BKN024 OVC033 01/M03 A3034 640 78 -900 310/10 RMK AO2 P0000
14926KSTC STC20060323104011303/23/06 10:40:31  5-MIN KSTC 231640Z 32009KT 4SM -SN SCT016 OVC033 01/M03 A3034 640 78 -900 320/09 RMK AO2 P0000
14926KSTC STC20060323104511303/23/06 10:45:31  5-MIN KSTC 231645Z 31011KT 5SM -SN SCT016 OVC035 01/M02 A3034 640 82 -900 310/11 RMK AO2 P0000
14926KSTC STC20060323105013003/23/06 10:50:31  5-MIN KSTC 231650Z 31009KT 6SM -SN SCT014 OVC035 01/M02 A3034 640 82 -900 310/09 RMK AO2 SLP294 P0001 T00061022
14926KSTC STC20060323105511903/23/06 10:55:31  5-MIN KSTC 231655Z 31010KT 6SM HZ SCT016 SCT030 OVC035 01/M02 A3034 640 82 -900 300/10 RMK AO2 SNE54
14926KSTC STC20060323110012003/23/06 11:00:31  5-MIN KSTC 231700Z 31011KT 7SM -SN FEW014 SCT019 OVC037 01/M02 A3033 650 78 -800 310/11 RMK AO2 P0000
14926KSTC STC20060323110512203/23/06 11:05:31  5-MIN KSTC 231705Z 31009KT 8SM FEW014 SCT019 OVC039 01/M02 A3033 650 78 -800 310/09 RMK AO2 SNE05 P0000
14926KSTC STC20060323111012203/23/06 11:10:31  5-MIN KSTC 231710Z 31012KT 9SM FEW014 SCT019 OVC037 01/M02 A3033 650 78 -800 310/12 RMK AO2 SNE05 P0000
14926KSTC STC20060323111512203/23/06 11:15:31  5-MIN KSTC 231715Z 31009KT 9SM FEW016 SCT021 OVC037 01/M03 A3033 650 75 -800 310/09 RMK AO2 SNE05 P0000
14926KSTC STC20060323112012203/23/06 11:20:31  5-MIN KSTC 231720Z 31009KT 9SM BKN019 BKN028 OVC037 01/M03 A3033 650 78 -900 310/09 RMK AO2 SNE05 P0000
14926KSTC STC20060323112512303/23/06 11:25:31  5-MIN KSTC 231725Z 32008KT 10SM SCT017 BKN023 OVC037 01/M03 A3033 650 75 -800 320/08 RMK AO2 SNE05 P0000
14926KSTC STC20060323113012903/23/06 11:30:31  5-MIN KSTC 231730Z 31012KT 8SM -SN SCT017 BKN023 OVC037 01/M03 A3033 650 78 -900 310/12 RMK AO2 SNE05B30 P0000
14926KSTC STC20060323113512903/23/06 11:35:31  5-MIN KSTC 231735Z 33010KT 7SM -SN SCT015 BKN023 OVC037 01/M03 A3033 650 78 -900 320/10 RMK AO2 SNE05B30 P0000
14926KSTC STC20060323114012903/23/06 11:40:31  5-MIN KSTC 231740Z 33009KT 6SM -SN SCT015 BKN021 OVC033 01/M03 A3033 650 78 -900 330/09 RMK AO2 SNE05B30 P0000
14926KSTC STC20060323114513103/23/06 11:45:31  5-MIN KSTC 231745Z 33008KT 6SM HZ SCT015 BKN021 OVC041 01/M03 A3033 650 75 -800 330/08 RMK AO2 SNE05B30E45 P0000
14926KSTC STC20060323115016903/23/06 11:50:31  5-MIN KSTC 231750Z 33008KT 7SM FEW015 BKN027 OVC041 01/M02 A3033 650 78 -800 330/08 RMK AO2 SNE05B30E45 SLP291 P0000 60001 T00111022 10011 21017 58000
14926KSTC STC20060323115511003/23/06 11:55:31  5-MIN KSTC 231755Z 32009KT 7SM FEW015 SCT022 OVC043 02/M02 A3033 650 75 -700 320/09 RMK AO2
14926KSTC STC20060323120011303/23/06 12:00:31  5-MIN KSTC 231800Z 33009KT 6SM HZ FEW015 SCT024 OVC043 01/M03 A3033 650 75 -800 320/09 RMK AO2
14926KSTC STC20060323120512603/23/06 12:05:31  5-MIN KSTC 231805Z 33008KT 4SM -SN FEW015 SCT029 OVC041 01/M03 A3033 650 75 -800 330/08 RMK AO2 SNB01 P0000
14926KSTC STC20060323121012603/23/06 12:10:31  5-MIN KSTC 231810Z 32010KT 3SM -SN SCT015 SCT025 OVC041 01/M03 A3033 650 78 -900 320/10 RMK AO2 SNB01 P0000
14926KSTC STC20060323121512603/23/06 12:15:31  5-MIN KSTC 231815Z 32009KT 3SM -SN SCT015 SCT023 OVC040 01/M03 A3033 650 78 -900 320/09 RMK AO2 SNB01 P0000
14926KSTC STC20060323122012603/23/06 12:20:31  5-MIN KSTC 231820Z 32008KT 7SM -SN FEW015 BKN038 OVC046 01/M03 A3033 650 75 -800 320/08 RMK AO2 SNB01 P0000
14926KSTC STC20060323122512503/23/06 12:25:31  5-MIN KSTC 231825Z 34007KT 9SM FEW015 BKN038 OVC046 01/M02 A3033 650 78 -800 340/07 RMK AO2 SNB01E21 P0000
14926KSTC STC20060323123012603/23/06 12:30:31  5-MIN KSTC 231830Z 34008KT 10SM FEW017 BKN035 OVC046 01/M03 A3033 650 75 -800 340/08 RMK AO2 SNB01E21 P0000
14926KSTC STC20060323123512603/23/06 12:35:31  5-MIN KSTC 231835Z 32010KT 10SM FEW017 SCT023 OVC046 02/M03 A3033 650 72 -700 320/10 RMK AO2 SNB01E21 P0000
14926KSTC STC20060323124012603/23/06 12:40:31  5-MIN KSTC 231840Z 32010KT 10SM FEW019 SCT024 OVC046 01/M03 A3032 650 75 -800 320/10 RMK AO2 SNB01E21 P0000
14926KSTC STC20060323124512603/23/06 12:45:31  5-MIN KSTC 231845Z 32009KT 10SM SCT022 BKN034 OVC046 01/M03 A3032 660 75 -800 320/09 RMK AO2 SNB01E21 P0000
14926KSTC STC20060323125014303/23/06 12:50:31  5-MIN KSTC 231850Z 32008KT 10SM FEW020 BKN036 OVC046 01/M03 A3032 660 75 -800 320/08 RMK AO2 SNB01E21 SLP289 P0000 T00111028
14926KSTC STC20060323125511103/23/06 12:55:31  5-MIN KSTC 231855Z 32007KT 10SM FEW020 SCT025 OVC046 01/M03 A3032 660 75 -800 320/07 RMK AO2
14926KSTC STC20060323130011103/23/06 13:00:31  5-MIN KSTC 231900Z 33007KT 10SM FEW020 BKN036 OVC046 01/M03 A3032 660 75 -800 320/07 RMK AO2
14926KSTC STC20060323130511103/23/06 13:05:31  5-MIN KSTC 231905Z 31009KT 10SM FEW020 BKN035 OVC044 02/M03 A3032 660 72 -700 310/09 RMK AO2
14926KSTC STC20060323131010403/23/06 13:10:31  5-MIN KSTC 231910Z 33008KT 10SM FEW020 OVC042 02/M03 A3031 660 69 -700 320/08 RMK AO2
14926KSTC STC20060323131511103/23/06 13:15:31  5-MIN KSTC 231915Z 31009KT 10SM FEW020 SCT031 OVC040 01/M03 A3031 670 72 -800 310/09 RMK AO2
14926KSTC STC20060323132011103/23/06 13:20:31  5-MIN KSTC 231920Z 32008KT 10SM SCT022 BKN030 OVC042 01/M03 A3031 670 72 -800 320/08 RMK AO2
14926KSTC STC20060323132511103/23/06 13:25:31  5-MIN KSTC 231925Z 35010KT 10SM SCT020 BKN028 OVC042 01/M03 A3031 670 72 -800 340/10 RMK AO2
14926KSTC STC20060323133011103/23/06 13:30:31  5-MIN KSTC 231930Z 35011KT 10SM FEW022 BKN030 OVC042 02/M04 A3031 670 66 -700 350/11 RMK AO2
14926KSTC STC20060323133511103/23/06 13:35:31  5-MIN KSTC 231935Z 34008KT 10SM FEW022 BKN030 OVC040 02/M04 A3031 670 66 -700 340/08 RMK AO2
14926KSTC STC20060323134011103/23/06 13:40:31  5-MIN KSTC 231940Z 35011KT 10SM FEW022 BKN030 OVC040 02/M03 A3031 670 69 -700 340/11 RMK AO2
14926KSTC STC20060323134511103/23/06 13:45:31  5-MIN KSTC 231945Z 35009KT 10SM FEW020 BKN030 OVC047 02/M04 A3031 670 64 -600 340/09 RMK AO2
14926KSTC STC20060323135012803/23/06 13:50:31  5-MIN KSTC 231950Z 34012KT 10SM FEW025 BKN030 OVC047 02/M04 A3031 670 64 -600 340/12 RMK AO2 SLP283 T00221039
14926KSTC STC20060323135510403/23/06 13:55:31  5-MIN KSTC 231955Z 34009KT 10SM SCT030 OVC047 02/M04 A3031 670 64 -600 330/09 RMK AO2
14926KSTC STC20060323140011103/23/06 14:00:31  5-MIN KSTC 232000Z 34012KT 10SM SCT030 SCT034 OVC047 02/M04 A3030 670 64 -600 340/12 RMK AO2
14926KSTC STC20060323140511103/23/06 14:05:31  5-MIN KSTC 232005Z 36010KT 10SM FEW030 SCT035 OVC045 02/M04 A3030 670 66 -700 350/10 RMK AO2
14926KSTC STC20060323141011103/23/06 14:10:31  5-MIN KSTC 232010Z 36011KT 10SM FEW030 SCT035 OVC045 02/M04 A3030 670 66 -700 350/11 RMK AO2
14926KSTC STC20060323141510403/23/06 14:15:31  5-MIN KSTC 232015Z 34009KT 10SM FEW032 OVC042 02/M04 A3030 670 64 -700 340/09 RMK AO2
14926KSTC STC20060323142010403/23/06 14:20:31  5-MIN KSTC 232020Z 35010KT 10SM FEW029 OVC042 02/M04 A3030 670 64 -700 350/10 RMK AO2
14926KSTC STC20060323142510403/23/06 14:25:31  5-MIN KSTC 232025Z 34010KT 10SM FEW032 OVC042 02/M04 A3030 670 64 -700 330/10 RMK AO2
14926KSTC STC20060323143009703/23/06 14:30:31  5-MIN KSTC 232030Z 35008KT 10SM OVC040 02/M04 A3030 670 64 -700 350/08 RMK AO2
14926KSTC STC20060323143509703/23/06 14:35:31  5-MIN KSTC 232035Z 36008KT 10SM OVC040 02/M04 A3030 670 64 -600 360/08 RMK AO2
14926KSTC STC20060323144009703/23/06 14:40:31  5-MIN KSTC 232040Z 36012KT 10SM OVC042 02/M04 A3030 670 66 -700 360/12 RMK AO2
14926KSTC STC20060323144509703/23/06 14:45:31  5-MIN KSTC 232045Z 35011KT 10SM OVC042 02/M04 A3030 670 64 -700 340/11 RMK AO2
14926KSTC STC20060323145012603/23/06 14:50:31  5-MIN KSTC 232050Z 34011KT 10SM OVC042 02/M04 A3030 670 64 -700 340/11 RMK AO2 SLP283 60000 T00171044 58007
14926KSTC STC20060323145509703/23/06 14:55:31  5-MIN KSTC 232055Z 36009KT 10SM OVC042 02/M04 A3031 670 64 -700 350/09 RMK AO2
14926KSTC STC20060323150009703/23/06 15:00:31  5-MIN KSTC 232100Z 36009KT 10SM OVC042 02/M04 A3031 670 64 -700 360/09 RMK AO2
14926KSTC STC20060323150509703/23/06 15:05:31  5-MIN KSTC 232105Z 35011KT 10SM OVC042 02/M04 A3031 670 66 -700 340/11 RMK AO2
14926KSTC STC20060323151009703/23/06 15:10:31  5-MIN KSTC 232110Z 36011KT 10SM OVC042 02/M04 A3031 670 66 -700 360/11 RMK AO2
14926KSTC STC20060323151509703/23/06 15:15:31  5-MIN KSTC 232115Z 34010KT 10SM OVC042 02/M04 A3030 670 64 -700 340/10 RMK AO2
14926KSTC STC20060323152009703/23/06 15:20:31  5-MIN KSTC 232120Z 35010KT 10SM OVC042 02/M04 A3030 670 64 -700 350/10 RMK AO2
14926KSTC STC20060323152509703/23/06 15:25:31  5-MIN KSTC 232125Z 35011KT 10SM OVC042 02/M04 A3030 670 64 -700 350/11 RMK AO2
14926KSTC STC20060323153009703/23/06 15:30:31  5-MIN KSTC 232130Z 34009KT 10SM OVC042 02/M04 A3030 670 64 -700 340/09 RMK AO2
14926KSTC STC20060323153509703/23/06 15:35:31  5-MIN KSTC 232135Z 35011KT 10SM OVC042 02/M04 A3030 670 64 -700 350/11 RMK AO2
14926KSTC STC20060323154009703/23/06 15:40:31  5-MIN KSTC 232140Z 34010KT 10SM OVC042 02/M04 A3030 670 64 -700 340/10 RMK AO2
14926KSTC STC20060323154509703/23/06 15:45:31  5-MIN KSTC 232145Z 34008KT 10SM OVC042 02/M04 A3030 670 64 -700 340/08 RMK AO2
14926KSTC STC20060323155011903/23/06 15:50:31  5-MIN KSTC 232150Z AUTO 36010KT 10SM OVC042 02/M04 A3031 670 64 -700 350/10 RMK AO2 SLP283 T00171044
14926KSTC STC20060323155510203/23/06 15:55:31  5-MIN KSTC 232155Z AUTO 35008KT 10SM OVC040 02/M04 A3031 670 64 -700 350/08 RMK AO2
14926KSTC STC20060323160010203/23/06 16:00:31  5-MIN KSTC 232200Z AUTO 34009KT 10SM OVC038 02/M05 A3031 670 61 -700 340/09 RMK AO2
14926KSTC STC20060323160510203/23/06 16:05:31  5-MIN KSTC 232205Z AUTO 34009KT 10SM OVC036 02/M05 A3031 670 61 -700 340/09 RMK AO2
14926KSTC STC20060323161010203/23/06 16:10:31  5-MIN KSTC 232210Z AUTO 35009KT 10SM OVC036 02/M05 A3031 670 61 -700 340/09 RMK AO2
14926KSTC STC20060323161510203/23/06 16:15:31  5-MIN KSTC 232215Z AUTO 35007KT 10SM OVC036 02/M05 A3031 670 61 -700 340/07 RMK AO2
14926KSTC STC20060323162010203/23/06 16:20:31  5-MIN KSTC 232220Z AUTO 34007KT 10SM OVC034 02/M04 A3031 670 64 -700 330/07 RMK AO2
14926KSTC STC20060323162510203/23/06 16:25:31  5-MIN KSTC 232225Z AUTO 34008KT 10SM OVC034 02/M04 A3031 670 64 -700 340/08 RMK AO2
14926KSTC STC20060323163010203/23/06 16:30:31  5-MIN KSTC 232230Z AUTO 35007KT 10SM OVC034 02/M05 A3031 670 61 -700 340/07 RMK AO2
14926KSTC STC20060323163510203/23/06 16:35:31  5-MIN KSTC 232235Z AUTO 35007KT 10SM OVC032 02/M04 A3031 670 64 -700 350/07 RMK AO2
14926KSTC STC20060323164010203/23/06 16:40:31  5-MIN KSTC 232240Z AUTO 34008KT 10SM OVC032 01/M05 A3031 670 64 -800 340/08 RMK AO2
14926KSTC STC20060323164510203/23/06 16:45:31  5-MIN KSTC 232245Z AUTO 34008KT 10SM OVC032 01/M05 A3031 670 64 -800 340/08 RMK AO2
14926KSTC STC20060323165011903/23/06 16:50:31  5-MIN KSTC 232250Z AUTO 34007KT 10SM OVC034 01/M05 A3031 670 64 -800 340/07 RMK AO2 SLP287 T00111050
14926KSTC STC20060323165510203/23/06 16:55:31  5-MIN KSTC 232255Z AUTO 35008KT 10SM OVC034 01/M04 A3031 660 66 -800 350/08 RMK AO2
14926KSTC STC20060323170010203/23/06 17:00:31  5-MIN KSTC 232300Z AUTO 35007KT 10SM OVC034 01/M05 A3031 660 64 -800 350/07 RMK AO2
14926KSTC STC20060323170510203/23/06 17:05:31  5-MIN KSTC 232305Z AUTO 35009KT 10SM OVC034 01/M05 A3031 660 64 -800 350/09 RMK AO2
14926KSTC STC20060323171010203/23/06 17:10:31  5-MIN KSTC 232310Z AUTO 36007KT 10SM OVC034 01/M05 A3031 660 64 -800 350/07 RMK AO2
14926KSTC STC20060323171510203/23/06 17:15:31  5-MIN KSTC 232315Z AUTO 36007KT 10SM OVC034 01/M05 A3031 660 64 -800 350/07 RMK AO2
14926KSTC STC20060323172010203/23/06 17:20:31  5-MIN KSTC 232320Z AUTO 35006KT 10SM OVC034 01/M05 A3031 660 64 -800 350/06 RMK AO2
14926KSTC STC20060323172510203/23/06 17:25:31  5-MIN KSTC 232325Z AUTO 35007KT 10SM OVC034 01/M05 A3031 660 64 -800 350/07 RMK AO2
14926KSTC STC20060323173010203/23/06 17:30:31  5-MIN KSTC 232330Z AUTO 36008KT 10SM OVC034 01/M05 A3032 660 64 -800 360/08 RMK AO2
14926KSTC STC20060323173510203/23/06 17:35:31  5-MIN KSTC 232335Z AUTO 36007KT 10SM OVC034 01/M05 A3032 660 64 -800 360/07 RMK AO2
14926KSTC STC20060323174010203/23/06 17:40:31  5-MIN KSTC 232340Z AUTO 35006KT 10SM OVC034 01/M05 A3032 660 64 -800 350/06 RMK AO2
14926KSTC STC20060323174510203/23/06 17:45:31  5-MIN KSTC 232345Z AUTO 35006KT 10SM OVC034 01/M05 A3032 660 64 -800 350/06 RMK AO2
14926KSTC STC20060323175014303/23/06 17:50:31  5-MIN KSTC 232350Z AUTO 35006KT 10SM OVC034 01/M05 A3032 660 64 -800 350/06 RMK AO2 SLP288 60000 T00111050 10022 20006 56007
14926KSTC STC20060323175510203/23/06 17:55:31  5-MIN KSTC 232355Z AUTO 36008KT 10SM OVC034 01/M05 A3032 660 64 -800 360/08 RMK AO2
14926KSTC STC20060323180010203/23/06 18:00:31  5-MIN KSTC 240000Z AUTO 36006KT 10SM OVC034 01/M05 A3032 660 64 -800 350/06 RMK AO2
14926KSTC STC20060323180510203/23/06 18:05:31  5-MIN KSTC 240005Z AUTO 36007KT 10SM OVC034 01/M05 A3032 660 64 -800 350/07 RMK AO2
14926KSTC STC20060323181010203/23/06 18:10:31  5-MIN KSTC 240010Z AUTO 35006KT 10SM OVC034 01/M05 A3032 660 64 -800 350/06 RMK AO2
14926KSTC STC20060323181510203/23/06 18:15:31  5-MIN KSTC 240015Z AUTO 35006KT 10SM OVC034 01/M05 A3032 660 66 -900 350/06 RMK AO2
14926KSTC STC20060323182010203/23/06 18:20:31  5-MIN KSTC 240020Z AUTO 35005KT 10SM OVC034 01/M05 A3032 660 66 -900 350/05 RMK AO2
14926KSTC STC20060323182510203/23/06 18:25:31  5-MIN KSTC 240025Z AUTO 35007KT 10SM OVC034 01/M05 A3032 660 66 -900 350/07 RMK AO2
14926KSTC STC20060323183010203/23/06 18:30:31  5-MIN KSTC 240030Z AUTO 35006KT 10SM OVC034 01/M05 A3032 660 66 -900 350/06 RMK AO2
14926KSTC STC20060323183510203/23/06 18:35:31  5-MIN KSTC 240035Z AUTO 36007KT 10SM OVC034 01/M05 A3032 660 66 -900 350/07 RMK AO2
14926KSTC STC20060323184010203/23/06 18:40:31  5-MIN KSTC 240040Z AUTO 35007KT 10SM OVC034 01/M06 A3032 660 63 -900 350/07 RMK AO2
14926KSTC STC20060323184510203/23/06 18:45:31  5-MIN KSTC 240045Z AUTO 35006KT 10SM OVC034 01/M05 A3032 660 66 -900 340/06 RMK AO2
14926KSTC STC20060323185011903/23/06 18:50:31  5-MIN KSTC 240050Z AUTO 35006KT 10SM OVC034 01/M05 A3032 660 66 -900 350/06 RMK AO2 SLP290 T00061050
14926KSTC STC20060323185510203/23/06 18:55:31  5-MIN KSTC 240055Z AUTO 35005KT 10SM OVC032 01/M05 A3032 660 66 -900 350/05 RMK AO2
14926KSTC STC20060323190010203/23/06 19:00:31  5-MIN KSTC 240100Z AUTO 36005KT 10SM OVC032 01/M05 A3032 660 66 -900 350/05 RMK AO2
14926KSTC STC20060323190510203/23/06 19:05:31  5-MIN KSTC 240105Z AUTO 35005KT 10SM OVC032 01/M05 A3032 660 66 -900 350/05 RMK AO2
14926KSTC STC20060323191010203/23/06 19:10:31  5-MIN KSTC 240110Z AUTO 34006KT 10SM OVC032 01/M05 A3032 660 66 -900 340/06 RMK AO2
14926KSTC STC20060323191510203/23/06 19:15:31  5-MIN KSTC 240115Z AUTO 35006KT 10SM OVC032 01/M05 A3032 660 66 -900 340/06 RMK AO2
14926KSTC STC20060323192010203/23/06 19:20:31  5-MIN KSTC 240120Z AUTO 35005KT 10SM OVC034 01/M04 A3032 660 69 -900 350/05 RMK AO2
14926KSTC STC20060323192510203/23/06 19:25:31  5-MIN KSTC 240125Z AUTO 35006KT 10SM OVC036 01/M04 A3032 660 69 -900 350/06 RMK AO2
14926KSTC STC20060323193010203/23/06 19:30:31  5-MIN KSTC 240130Z AUTO 35005KT 10SM OVC036 01/M05 A3032 660 66 -900 350/05 RMK AO2
14926KSTC STC20060323193510203/23/06 19:35:31  5-MIN KSTC 240135Z AUTO 35004KT 10SM OVC038 01/M04 A3032 660 69 -900 350/04 RMK AO2
14926KSTC STC20060323194010203/23/06 19:40:31  5-MIN KSTC 240140Z AUTO 35004KT 10SM OVC038 01/M04 A3032 660 69 -900 350/04 RMK AO2
14926KSTC STC20060323194510203/23/06 19:45:31  5-MIN KSTC 240145Z AUTO 35005KT 10SM OVC040 01/M04 A3032 660 69 -900 340/05 RMK AO2
14926KSTC STC20060323195011903/23/06 19:50:31  5-MIN KSTC 240150Z AUTO 34006KT 10SM OVC042 00/M04 A3032 660 72 -900 340/06 RMK AO2 SLP290 T00001044
14926KSTC STC20060323195510103/23/06 19:55:31  5-MIN KSTC 240155Z AUTO 34009KT 9SM OVC044 00/M04 A3032 660 72 -900 340/09 RMK AO2
14926KSTC STC20060323200011903/23/06 20:00:31  5-MIN KSTC 240200Z AUTO 34006KT 8SM -SN OVC044 00/M04 A3032 660 72 -900 340/06 RMK AO2 SNB0156 P0000
14926KSTC STC20060323200511903/23/06 20:05:31  5-MIN KSTC 240205Z AUTO 35007KT 8SM -SN OVC046 00/M04 A3032 650 75 -900 350/07 RMK AO2 SNB0156 P0000
14926KSTC STC20060323201011803/23/06 20:10:31  5-MIN KSTC 240210Z AUTO 34007KT 9SM OVC046 00/M04 A3032 650 75 -900 340/07 RMK AO2 SNB0156E07 P0000
14926KSTC STC20060323201512103/23/06 20:15:31  5-MIN KSTC 240215Z AUTO 34008KT 8SM -SN OVC046 M01/M04 A3032 650 78 -1000 340/08 RMK AO2 SNB0156 P0000
14926KSTC STC20060323202012103/23/06 20:20:31  5-MIN KSTC 240220Z AUTO 34008KT 6SM -SN OVC046 M01/M04 A3032 660 78 -1000 340/08 RMK AO2 SNB0156 P0000
14926KSTC STC20060323202512103/23/06 20:25:31  5-MIN KSTC 240225Z AUTO 34007KT 6SM -SN OVC048 M01/M04 A3032 660 78 -1000 330/07 RMK AO2 SNB0156 P0000
14926KSTC STC20060323203012803/23/06 20:30:31  5-MIN KSTC 240230Z AUTO 34007KT 5SM -SN FEW031 OVC048 M01/M03 A3032 660 81 -1000 330/07 RMK AO2 SNB0156 P0000
14926KSTC STC20060323203512803/23/06 20:35:31  5-MIN KSTC 240235Z AUTO 33006KT 5SM -SN SCT027 OVC048 M01/M03 A3032 660 81 -1000 330/06 RMK AO2 SNB0156 P0000
14926KSTC STC20060323204012803/23/06 20:40:31  5-MIN KSTC 240240Z AUTO 33006KT 4SM -SN SCT027 OVC048 M01/M03 A3032 660 81 -1000 330/06 RMK AO2 SNB0156 P0000
14926KSTC STC20060323204513103/23/06 20:45:31  5-MIN KSTC 240245Z AUTO 33007KT 4SM -SN BR SCT029 OVC048 M01/M03 A3032 660 85 -1100 320/07 RMK AO2 SNB0156 P0000
14926KSTC STC20060323205016003/23/06 20:50:31  5-MIN KSTC 240250Z AUTO 34006KT 4SM -SN BR BKN033 OVC048 M01/M03 A3032 660 88 -1100 330/06 RMK AO2 SNB0156 SLP289 P0000 60000 T10111028 53003
14926KSTC STC20060323205512303/23/06 20:55:31  5-MIN KSTC 240255Z AUTO 34007KT 4SM -SN BR BKN039 OVC048 M01/M03 A3032 660 88 -1100 330/07 RMK AO2 P0000
14926KSTC STC20060323210012303/23/06 21:00:31  5-MIN KSTC 240300Z AUTO 33006KT 4SM -SN BR BKN043 OVC050 M01/M03 A3032 660 88 -1100 320/06 RMK AO2 P0000
14926KSTC STC20060323210512303/23/06 21:05:31  5-MIN KSTC 240305Z AUTO 33006KT 4SM -SN BR BKN045 OVC060 M01/M03 A3032 660 88 -1100 320/06 RMK AO2 P0000
14926KSTC STC20060323211012303/23/06 21:10:31  5-MIN KSTC 240310Z AUTO 33006KT 4SM -SN BR BKN043 OVC060 M01/M03 A3032 660 88 -1100 320/06 RMK AO2 P0000
14926KSTC STC20060323211512303/23/06 21:15:31  5-MIN KSTC 240315Z AUTO 33006KT 4SM -SN BR BKN043 OVC060 M01/M03 A3032 660 88 -1100 330/06 RMK AO2 P0000
14926KSTC STC20060323212011603/23/06 21:20:31  5-MIN KSTC 240320Z AUTO 33007KT 3SM -SN BR OVC045 M01/M03 A3032 660 88 -1100 330/07 RMK AO2 P0000
14926KSTC STC20060323212511603/23/06 21:25:31  5-MIN KSTC 240325Z AUTO 33006KT 4SM -SN BR OVC045 M01/M03 A3032 660 88 -1100 330/06 RMK AO2 P0000
14926KSTC STC20060323213012303/23/06 21:30:31  5-MIN KSTC 240330Z AUTO 33007KT 4SM -SN BR BKN045 OVC060 M01/M03 A3032 660 88 -1100 330/07 RMK AO2 P0000
14926KSTC STC20060323213512303/23/06 21:35:31  5-MIN KSTC 240335Z AUTO 33008KT 4SM -SN BR FEW036 OVC043 M01/M03 A3031 660 88 -1100 330/08 RMK AO2 P0000
14926KSTC STC20060323214011603/23/06 21:40:31  5-MIN KSTC 240340Z AUTO 33007KT 4SM -SN BR OVC043 M01/M03 A3031 670 88 -1100 330/07 RMK AO2 P0000
14926KSTC STC20060323214511603/23/06 21:45:31  5-MIN KSTC 240345Z AUTO 33007KT 5SM -SN BR OVC043 M01/M03 A3031 670 88 -1100 320/07 RMK AO2 P0000
14926KSTC STC20060323215013303/23/06 21:50:31  5-MIN KSTC 240350Z AUTO 33007KT 5SM -SN BR OVC043 M01/M03 A3031 670 88 -1100 320/07 RMK AO2 SLP286 P0000 T10111028
14926KSTC STC20060323215511603/23/06 21:55:31  5-MIN KSTC 240355Z AUTO 33007KT 6SM -SN BR OVC043 M01/M03 A3031 670 88 -1100 330/07 RMK AO2 P0000
14926KSTC STC20060323220011303/23/06 22:00:31  5-MIN KSTC 240400Z AUTO 33007KT 7SM -SN OVC043 M01/M03 A3031 670 88 -1100 320/07 RMK AO2 P0000
14926KSTC STC20060323220511503/23/06 22:05:31  5-MIN KSTC 240405Z AUTO 33008KT 9SM OVC041 M01/M03 A3031 670 88 -1000 330/08 RMK AO2 SNE03 P0000
14926KSTC STC20060323221011503/23/06 22:10:31  5-MIN KSTC 240410Z AUTO 33007KT 8SM OVC041 M01/M03 A3031 670 88 -1000 330/07 RMK AO2 SNE03 P0000
14926KSTC STC20060323221511303/23/06 22:15:31  5-MIN KSTC 240415Z AUTO 33006KT 7SM -SN OVC043 M01/M03 A3031 670 88 -1000 320/06 RMK AO2 P0000
14926KSTC STC20060323222011303/23/06 22:20:31  5-MIN KSTC 240420Z AUTO 33007KT 8SM -SN OVC043 M01/M03 A3031 670 88 -1100 320/07 RMK AO2 P0000
14926KSTC STC20060323222512203/23/06 22:25:31  5-MIN KSTC 240425Z AUTO 34006KT 9SM FEW009 OVC043 M01/M03 A3031 670 88 -1100 330/06 RMK AO2 SNE24 P0000
14926KSTC STC20060323223012303/23/06 22:30:31  5-MIN KSTC 240430Z AUTO 32007KT 10SM FEW009 OVC045 M01/M03 A3031 670 88 -1000 320/07 RMK AO2 SNE24 P0000
14926KSTC STC20060323223512303/23/06 22:35:31  5-MIN KSTC 240435Z AUTO 32006KT 10SM FEW009 OVC045 M01/M03 A3031 670 88 -1000 320/06 RMK AO2 SNE24 P0000
14926KSTC STC20060323224012303/23/06 22:40:31  5-MIN KSTC 240440Z AUTO 32006KT 10SM FEW009 OVC045 M01/M03 A3031 670 88 -1000 320/06 RMK AO2 SNE24 P0000
14926KSTC STC20060323224512303/23/06 22:45:31  5-MIN KSTC 240445Z AUTO 33007KT 10SM FEW009 OVC043 M01/M03 A3030 670 88 -1000 320/07 RMK AO2 SNE24 P0000
14926KSTC STC20060323225014003/23/06 22:50:31  5-MIN KSTC 240450Z AUTO 32008KT 10SM FEW009 OVC043 M01/M03 A3030 670 88 -1000 320/08 RMK AO2 SNE24 SLP283 P0000 T10111028
14926KSTC STC20060323225511803/23/06 22:55:31  5-MIN KSTC 240455Z AUTO 33007KT 10SM FEW009 BKN040 OVC047 M01/M03 A3030 680 88 -1000 320/07 RMK AO2
14926KSTC STC20060323230011103/23/06 23:00:31  5-MIN KSTC 240500Z AUTO 33006KT 10SM FEW009 OVC040 M01/M03 A3030 680 88 -1000 330/06 RMK AO2
14926KSTC STC20060323230511103/23/06 23:05:31  5-MIN KSTC 240505Z AUTO 33006KT 10SM FEW009 OVC040 M01/M03 A3030 680 88 -1000 330/06 RMK AO2
14926KSTC STC20060323231011103/23/06 23:10:31  5-MIN KSTC 240510Z AUTO 33007KT 10SM FEW009 OVC040 M01/M03 A3030 680 88 -1000 330/07 RMK AO2
14926KSTC STC20060323231511103/23/06 23:15:31  5-MIN KSTC 240515Z AUTO 34006KT 10SM SCT009 OVC040 M01/M03 A3030 680 88 -1000 330/06 RMK AO2
14926KSTC STC20060323232011103/23/06 23:20:31  5-MIN KSTC 240520Z AUTO 34007KT 10SM SCT009 OVC040 M01/M03 A3030 680 88 -1000 340/07 RMK AO2
14926KSTC STC20060323232511103/23/06 23:25:31  5-MIN KSTC 240525Z AUTO 33008KT 10SM SCT009 OVC038 M01/M03 A3030 680 88 -1000 330/08 RMK AO2
14926KSTC STC20060323233011103/23/06 23:30:31  5-MIN KSTC 240530Z AUTO 34008KT 10SM SCT009 OVC038 M01/M03 A3029 680 88 -1000 340/08 RMK AO2
14926KSTC STC20060323233511103/23/06 23:35:31  5-MIN KSTC 240535Z AUTO 34007KT 10SM SCT009 OVC038 M01/M03 A3029 680 88 -1000 340/07 RMK AO2
14926KSTC STC20060323234011103/23/06 23:40:31  5-MIN KSTC 240540Z AUTO 34008KT 10SM FEW009 OVC038 M01/M03 A3029 680 88 -1000 330/08 RMK AO2
14926KSTC STC20060323234511103/23/06 23:45:31  5-MIN KSTC 240545Z AUTO 34007KT 10SM FEW009 OVC038 M01/M03 A3029 680 88 -1000 330/07 RMK AO2
14926KSTC STC20060323235015503/23/06 23:50:31  5-MIN KSTC 240550Z AUTO 34008KT 10SM OVC040 M01/M03 A3029 680 88 -1000 330/08 RMK AO2 SLP280 60000 T10111028 10011 21011 400221017 51002
14926KSTC STC20060323235510403/23/06 23:55:31  5-MIN KSTC 240555Z AUTO 34007KT 10SM OVC040 M01/M03 A3029 680 88 -1000 330/07 RMK AO2
14926KSTC STC20060324000010403/24/06 00:00:32  5-MIN KSTC 240600Z AUTO 33007KT 10SM OVC040 M01/M03 A3029 680 88 -1000 330/07 RMK AO2
14926KSTC STC20060324000510403/24/06 00:05:31  5-MIN KSTC 240605Z AUTO 34006KT 10SM OVC040 M01/M03 A3029 680 88 -1000 330/06 RMK AO2
14926KSTC STC20060324001011103/24/06 00:10:31  5-MIN KSTC 240610Z AUTO 34008KT 10SM FEW008 OVC042 M01/M03 A3029 680 88 -1000 330/08 RMK AO2
14926KSTC STC20060324001511803/24/06 00:15:31  5-MIN KSTC 240615Z AUTO 33006KT 10SM FEW008 SCT032 OVC042 M01/M03 A3029 690 88 -1000 330/06 RMK AO2
14926KSTC STC20060324002011803/24/06 00:20:31  5-MIN KSTC 240620Z AUTO 33008KT 10SM SCT008 BKN032 OVC042 M01/M03 A3029 690 88 -1000 330/08 RMK AO2
14926KSTC STC20060324002511803/24/06 00:25:31  5-MIN KSTC 240625Z AUTO 34006KT 10SM SCT008 BKN034 OVC042 M01/M03 A3029 690 88 -1000 340/06 RMK AO2
14926KSTC STC20060324003011803/24/06 00:30:31  5-MIN KSTC 240630Z AUTO 34007KT 10SM SCT008 BKN033 OVC041 M01/M03 A3029 690 88 -1000 330/07 RMK AO2
14926KSTC STC20060324003511103/24/06 00:35:31  5-MIN KSTC 240635Z AUTO 34006KT 10SM SCT008 OVC038 M01/M03 A3029 690 88 -1000 330/06 RMK AO2
14926KSTC STC20060324004011803/24/06 00:40:31  5-MIN KSTC 240640Z AUTO 34006KT 10SM FEW008 SCT032 OVC038 M01/M03 A3029 690 88 -1000 330/06 RMK AO2
14926KSTC STC20060324004511103/24/06 00:45:31  5-MIN KSTC 240645Z AUTO 34007KT 10SM FEW008 OVC038 M01/M03 A3029 690 88 -1000 330/07 RMK AO2
14926KSTC STC20060324005012803/24/06 00:50:31  5-MIN KSTC 240650Z AUTO 34008KT 10SM FEW008 OVC038 M01/M03 A3029 690 88 -1000 340/08 RMK AO2 SLP278 T10111028
14926KSTC STC20060324005510403/24/06 00:55:31  5-MIN KSTC 240655Z AUTO 34008KT 10SM OVC038 M01/M03 A3029 690 88 -1000 340/08 RMK AO2
14926KSTC STC20060324010010403/24/06 01:00:31  5-MIN KSTC 240700Z AUTO 34007KT 10SM OVC038 M01/M03 A3029 690 88 -1000 340/07 RMK AO2
14926KSTC STC20060324010510403/24/06 01:05:31  5-MIN KSTC 240705Z AUTO 34007KT 10SM OVC038 M01/M03 A3029 690 88 -1000 340/07 RMK AO2
14926KSTC STC20060324011010403/24/06 01:10:31  5-MIN KSTC 240710Z AUTO 34006KT 10SM OVC038 M01/M03 A3029 690 88 -1000 340/06 RMK AO2
14926KSTC STC20060324011510403/24/06 01:15:31  5-MIN KSTC 240715Z AUTO 34007KT 10SM OVC038 M01/M03 A3029 690 88 -1000 340/07 RMK AO2
14926KSTC STC20060324012010403/24/06 01:20:31  5-MIN KSTC 240720Z AUTO 34006KT 10SM OVC036 M01/M03 A3029 690 88 -1000 340/06 RMK AO2
14926KSTC STC20060324012510403/24/06 01:25:31  5-MIN KSTC 240725Z AUTO 35006KT 10SM OVC036 M01/M03 A3029 690 88 -1000 340/06 RMK AO2
14926KSTC STC20060324013010403/24/06 01:30:31  5-MIN KSTC 240730Z AUTO 35007KT 10SM OVC036 M01/M03 A3029 690 88 -1000 340/07 RMK AO2
14926KSTC STC20060324013510403/24/06 01:35:31  5-MIN KSTC 240735Z AUTO 34006KT 10SM OVC038 M01/M03 A3029 690 88 -1000 330/06 RMK AO2
14926KSTC STC20060324014010403/24/06 01:40:31  5-MIN KSTC 240740Z AUTO 34007KT 10SM OVC038 M01/M03 A3029 690 88 -1000 330/07 RMK AO2
14926KSTC STC20060324014510403/24/06 01:45:31  5-MIN KSTC 240745Z AUTO 33006KT 10SM OVC040 M01/M03 A3029 690 85 -1000 330/06 RMK AO2
14926KSTC STC20060324015012103/24/06 01:50:31  5-MIN KSTC 240750Z AUTO 33006KT 10SM OVC040 M01/M03 A3029 690 85 -1000 320/06 RMK AO2 SLP277 T10111033
14926KSTC STC20060324015510403/24/06 01:55:31  5-MIN KSTC 240755Z AUTO 33006KT 10SM OVC040 M02/M03 A3029 690 92 -1100 320/06 RMK AO2
14926KSTC STC20060324020010403/24/06 02:00:31  5-MIN KSTC 240800Z AUTO 33005KT 10SM OVC040 M02/M03 A3029 690 92 -1100 320/05 RMK AO2
14926KSTC STC20060324020510403/24/06 02:05:31  5-MIN KSTC 240805Z AUTO 33005KT 10SM OVC040 M02/M03 A3029 690 92 -1100 330/05 RMK AO2
14926KSTC STC20060324021010403/24/06 02:10:31  5-MIN KSTC 240810Z AUTO 33005KT 10SM OVC040 M02/M03 A3029 690 92 -1100 330/05 RMK AO2
14926KSTC STC20060324021510403/24/06 02:15:31  5-MIN KSTC 240815Z AUTO 33006KT 10SM OVC040 M02/M03 A3028 690 92 -1100 330/06 RMK AO2
14926KSTC STC20060324022010403/24/06 02:20:31  5-MIN KSTC 240820Z AUTO 32007KT 10SM OVC040 M02/M03 A3028 690 88 -1100 320/07 RMK AO2
14926KSTC STC20060324022510403/24/06 02:25:31  5-MIN KSTC 240825Z AUTO 33007KT 10SM OVC042 M02/M03 A3028 690 88 -1100 320/07 RMK AO2
14926KSTC STC20060324023010403/24/06 02:30:31  5-MIN KSTC 240830Z AUTO 33006KT 10SM OVC042 M02/M03 A3028 690 88 -1100 320/06 RMK AO2
14926KSTC STC20060324023510403/24/06 02:35:31  5-MIN KSTC 240835Z AUTO 32006KT 10SM OVC040 M02/M03 A3028 690 88 -1100 320/06 RMK AO2
14926KSTC STC20060324024010403/24/06 02:40:31  5-MIN KSTC 240840Z AUTO 32006KT 10SM OVC040 M02/M03 A3028 690 88 -1100 320/06 RMK AO2
14926KSTC STC20060324024510403/24/06 02:45:31  5-MIN KSTC 240845Z AUTO 33005KT 10SM OVC040 M02/M03 A3028 690 88 -1100 320/05 RMK AO2
14926KSTC STC20060324025012703/24/06 02:50:31  5-MIN KSTC 240850Z AUTO 33006KT 10SM OVC042 M02/M03 A3028 690 88 -1100 320/06 RMK AO2 SLP276 T10171033 56009
14926KSTC STC20060324025510403/24/06 02:55:31  5-MIN KSTC 240855Z AUTO 32006KT 10SM OVC042 M02/M03 A3028 690 88 -1100 320/06 RMK AO2
14926KSTC STC20060324030010403/24/06 03:00:31  5-MIN KSTC 240900Z AUTO 33006KT 10SM OVC044 M02/M03 A3028 690 88 -1100 320/06 RMK AO2
14926KSTC STC20060324030510403/24/06 03:05:31  5-MIN KSTC 240905Z AUTO 33006KT 10SM OVC044 M02/M03 A3028 690 88 -1100 320/06 RMK AO2
14926KSTC STC20060324031010403/24/06 03:10:31  5-MIN KSTC 240910Z AUTO 33005KT 10SM OVC044 M02/M03 A3028 690 88 -1100 320/05 RMK AO2
14926KSTC STC20060324031510403/24/06 03:15:31  5-MIN KSTC 240915Z AUTO 33006KT 10SM OVC044 M02/M03 A3028 700 88 -1100 320/06 RMK AO2
14926KSTC STC20060324032010403/24/06 03:20:31  5-MIN KSTC 240920Z AUTO 32007KT 10SM OVC044 M02/M03 A3028 700 88 -1100 320/07 RMK AO2
14926KSTC STC20060324032510403/24/06 03:25:31  5-MIN KSTC 240925Z AUTO 32007KT 10SM OVC044 M01/M03 A3028 700 85 -1000 320/07 RMK AO2
14926KSTC STC20060324033010403/24/06 03:30:31  5-MIN KSTC 240930Z AUTO 33007KT 10SM OVC044 M01/M03 A3028 700 85 -1000 320/07 RMK AO2
14926KSTC STC20060324033510403/24/06 03:35:31  5-MIN KSTC 240935Z AUTO 33007KT 10SM OVC044 M01/M03 A3028 700 85 -1000 330/07 RMK AO2
14926KSTC STC20060324034010403/24/06 03:40:31  5-MIN KSTC 240940Z AUTO 33006KT 10SM OVC044 M01/M03 A3028 700 85 -1000 330/06 RMK AO2
14926KSTC STC20060324034510403/24/06 03:45:31  5-MIN KSTC 240945Z AUTO 34006KT 10SM OVC044 M01/M03 A3028 700 85 -1000 340/06 RMK AO2
14926KSTC STC20060324035012103/24/06 03:50:31  5-MIN KSTC 240950Z AUTO 34006KT 10SM OVC044 M01/M03 A3028 700 85 -1000 330/06 RMK AO2 SLP274 T10111033
14926KSTC STC20060324035510403/24/06 03:55:31  5-MIN KSTC 240955Z AUTO 33006KT 10SM OVC044 M01/M03 A3028 700 85 -1000 330/06 RMK AO2
14926KSTC STC20060324040010403/24/06 04:00:31  5-MIN KSTC 241000Z AUTO 33008KT 10SM OVC044 M01/M03 A3028 700 85 -1000 330/08 RMK AO2
14926KSTC STC20060324040510403/24/06 04:05:31  5-MIN KSTC 241005Z AUTO 33007KT 10SM OVC044 M01/M03 A3028 700 85 -1000 330/07 RMK AO2
14926KSTC STC20060324041010403/24/06 04:10:31  5-MIN KSTC 241010Z AUTO 34006KT 10SM OVC044 M01/M03 A3028 700 85 -1000 330/06 RMK AO2
14926KSTC STC20060324041510403/24/06 04:15:31  5-MIN KSTC 241015Z AUTO 35007KT 10SM OVC042 M01/M03 A3028 700 85 -1000 340/07 RMK AO2
14926KSTC STC20060324042010403/24/06 04:20:31  5-MIN KSTC 241020Z AUTO 35006KT 10SM OVC042 M01/M03 A3028 700 85 -1000 350/06 RMK AO2
14926KSTC STC20060324042510403/24/06 04:25:31  5-MIN KSTC 241025Z AUTO 36006KT 10SM OVC044 M01/M03 A3028 700 85 -1000 360/06 RMK AO2
14926KSTC STC20060324043010403/24/06 04:30:31  5-MIN KSTC 241030Z AUTO 35007KT 10SM OVC042 M01/M03 A3028 700 85 -1000 350/07 RMK AO2
14926KSTC STC20060324043510403/24/06 04:35:31  5-MIN KSTC 241035Z AUTO 35007KT 10SM OVC042 M01/M03 A3028 700 85 -1000 340/07 RMK AO2
14926KSTC STC20060324044010403/24/06 04:40:31  5-MIN KSTC 241040Z AUTO 35007KT 10SM OVC042 M01/M03 A3028 700 85 -1000 350/07 RMK AO2
14926KSTC STC20060324044510403/24/06 04:45:31  5-MIN KSTC 241045Z AUTO 35006KT 10SM OVC042 M01/M03 A3028 700 85 -1000 350/06 RMK AO2
14926KSTC STC20060324045012103/24/06 04:50:31  5-MIN KSTC 241050Z AUTO 35007KT 10SM OVC042 M01/M03 A3028 700 85 -1000 350/07 RMK AO2 SLP274 T10111033
14926KSTC STC20060324045510403/24/06 04:55:31  5-MIN KSTC 241055Z AUTO 35006KT 10SM OVC042 M01/M03 A3028 700 85 -1000 350/06 RMK AO2
14926KSTC STC20060324050010403/24/06 05:00:31  5-MIN KSTC 241100Z AUTO 34006KT 10SM OVC042 M01/M03 A3028 700 85 -1000 340/06 RMK AO2
14926KSTC STC20060324050510403/24/06 05:05:31  5-MIN KSTC 241105Z AUTO 34005KT 10SM OVC042 M01/M03 A3028 700 85 -1000 340/05 RMK AO2
14926KSTC STC20060324051010403/24/06 05:10:31  5-MIN KSTC 241110Z AUTO 34005KT 10SM OVC042 M02/M03 A3028 700 88 -1100 340/05 RMK AO2
14926KSTC STC20060324051510403/24/06 05:15:31  5-MIN KSTC 241115Z AUTO 34006KT 10SM OVC042 M02/M03 A3028 700 88 -1100 340/06 RMK AO2
14926KSTC STC20060324052010403/24/06 05:20:31  5-MIN KSTC 241120Z AUTO 33006KT 10SM OVC042 M02/M03 A3028 700 88 -1100 330/06 RMK AO2
14926KSTC STC20060324052510403/24/06 05:25:31  5-MIN KSTC 241125Z AUTO 33005KT 10SM OVC042 M02/M03 A3028 700 88 -1100 330/05 RMK AO2
14926KSTC STC20060324053010403/24/06 05:30:31  5-MIN KSTC 241130Z AUTO 33005KT 10SM OVC042 M02/M03 A3028 700 88 -1100 320/05 RMK AO2
14926KSTC STC20060324053511103/24/06 05:35:31  5-MIN KSTC 241135Z AUTO 33006KT 10SM BKN042 OVC055 M02/M03 A3028 700 88 -1100 320/06 RMK AO2
14926KSTC STC20060324054011103/24/06 05:40:31  5-MIN KSTC 241140Z AUTO 32005KT 10SM BKN042 OVC055 M02/M03 A3028 690 88 -1100 320/05 RMK AO2
14926KSTC STC20060324054510403/24/06 05:45:31  5-MIN KSTC 241145Z AUTO 33005KT 10SM OVC042 M02/M03 A3028 690 88 -1100 320/05 RMK AO2
14926KSTC STC20060324055014503/24/06 05:50:31  5-MIN KSTC 241150Z AUTO 31004KT 10SM OVC042 M02/M03 A3028 690 88 -1100 310/04 RMK AO2 SLP276 70001 T10171033 11011 21017 56003
14926KSTC STC20060324055510403/24/06 05:55:31  5-MIN KSTC 241155Z AUTO 32006KT 10SM OVC042 M02/M03 A3028 690 92 -1200 310/06 RMK AO2
14926KSTC STC20060324060010403/24/06 06:00:31  5-MIN KSTC 241200Z AUTO 32005KT 10SM OVC042 M02/M03 A3028 690 92 -1200 320/05 RMK AO2
14926KSTC STC20060324060511103/24/06 06:05:31  5-MIN KSTC 241205Z AUTO 33005KT 10SM BKN042 OVC055 M02/M03 A3028 690 88 -1100 320/05 RMK AO2
14926KSTC STC20060324061011103/24/06 06:10:31  5-MIN KSTC 241210Z AUTO 33004KT 10SM BKN042 OVC055 M02/M03 A3028 690 88 -1100 330/04 RMK AO2
14926KSTC STC20060324061511103/24/06 06:15:31  5-MIN KSTC 241215Z AUTO 33005KT 10SM BKN040 OVC055 M02/M03 A3028 690 88 -1100 330/05 RMK AO2
14926KSTC STC20060324062011103/24/06 06:20:31  5-MIN KSTC 241220Z AUTO 33005KT 10SM BKN040 OVC055 M02/M03 A3029 690 88 -1100 330/05 RMK AO2
14926KSTC STC20060324062511103/24/06 06:25:31  5-MIN KSTC 241225Z AUTO 33006KT 10SM BKN040 OVC055 M02/M03 A3029 690 88 -1100 330/06 RMK AO2
14926KSTC STC20060324063011103/24/06 06:30:31  5-MIN KSTC 241230Z AUTO 33005KT 10SM BKN040 OVC050 M02/M03 A3029 690 88 -1100 330/05 RMK AO2
14926KSTC STC20060324063511103/24/06 06:35:31  5-MIN KSTC 241235Z AUTO 34006KT 10SM BKN040 OVC050 M02/M03 A3029 690 88 -1100 330/06 RMK AO2
14926KSTC STC20060324064011103/24/06 06:40:31  5-MIN KSTC 241240Z AUTO 34006KT 10SM BKN040 OVC050 M02/M03 A3029 690 88 -1100 330/06 RMK AO2
14926KSTC STC20060324064511103/24/06 06:45:31  5-MIN KSTC 241245Z AUTO 34006KT 10SM SCT040 OVC050 M02/M03 A3029 690 88 -1100 330/06 RMK AO2
14926KSTC STC20060324065012303/24/06 06:50:31  5-MIN KSTC 241250Z 34006KT 10SM FEW040 OVC050 M01/M03 A3029 690 85 -1000 330/06 RMK AO2 SLP278 T10111033
14926KSTC STC20060324065510603/24/06 06:55:31  5-MIN KSTC 241255Z 33005KT 10SM FEW040 OVC050 M01/M03 A3029 690 85 -1000 330/05 RMK AO2
14926KSTC STC20060324070010603/24/06 07:00:31  5-MIN KSTC 241300Z 33006KT 10SM FEW040 OVC050 M01/M03 A3029 690 88 -1000 330/06 RMK AO2
14926KSTC STC20060324070509903/24/06 07:05:31  5-MIN KSTC 241305Z 33007KT 10SM OVC050 M01/M03 A3029 690 88 -1000 330/07 RMK AO2
14926KSTC STC20060324071009903/24/06 07:10:31  5-MIN KSTC 241310Z 33007KT 10SM OVC050 M01/M03 A3029 690 88 -1000 330/07 RMK AO2
14926KSTC STC20060324071510603/24/06 07:15:31  5-MIN KSTC 241315Z 33006KT 10SM FEW039 OVC050 M01/M03 A3029 690 85 -1000 330/06 RMK AO2
14926KSTC STC20060324072010603/24/06 07:20:31  5-MIN KSTC 241320Z 34008KT 10SM SCT039 OVC050 M01/M03 A3029 690 85 -1000 330/08 RMK AO2
14926KSTC STC20060324072510603/24/06 07:25:31  5-MIN KSTC 241325Z 33007KT 10SM BKN039 OVC050 M01/M03 A3029 690 85 -1000 330/07 RMK AO2
14926KSTC STC20060324073010603/24/06 07:30:31  5-MIN KSTC 241330Z 34007KT 10SM BKN039 OVC050 M01/M03 A3029 690 85 -1000 340/07 RMK AO2
14926KSTC STC20060324073510603/24/06 07:35:31  5-MIN KSTC 241335Z 34009KT 10SM BKN039 OVC050 M01/M03 A3029 690 81 -1000 340/09 RMK AO2
14926KSTC STC20060324074009903/24/06 07:40:31  5-MIN KSTC 241340Z 34008KT 10SM OVC039 M01/M03 A3029 690 81 -1000 340/08 RMK AO2
14926KSTC STC20060324074509903/24/06 07:45:31  5-MIN KSTC 241345Z 34007KT 10SM OVC039 M01/M03 A3028 690 85 -1000 330/07 RMK AO2
14926KSTC STC20060324075011603/24/06 07:50:31  5-MIN KSTC 241350Z 34009KT 10SM OVC041 M01/M03 A3028 690 85 -1000 330/09 RMK AO2 SLP276 T10061028
14926KSTC STC20060324075509903/24/06 07:55:31  5-MIN KSTC 241355Z 34008KT 10SM OVC041 M01/M03 A3028 690 85 -1000 340/08 RMK AO2
14926KSTC STC20060324080009703/24/06 08:00:31  5-MIN KSTC 241400Z 34008KT 10SM OVC041 00/M03 A3028 690 81 -900 340/08 RMK AO2
14926KSTC STC20060324080509703/24/06 08:05:31  5-MIN KSTC 241405Z 35007KT 10SM OVC041 00/M03 A3028 690 81 -900 340/07 RMK AO2
14926KSTC STC20060324081009703/24/06 08:10:31  5-MIN KSTC 241410Z 34008KT 10SM OVC041 00/M03 A3028 690 81 -900 340/08 RMK AO2
14926KSTC STC20060324081509703/24/06 08:15:31  5-MIN KSTC 241415Z 34007KT 10SM OVC041 00/M03 A3028 690 78 -900 340/07 RMK AO2
14926KSTC STC20060324082009703/24/06 08:20:31  5-MIN KSTC 241420Z 34008KT 10SM OVC041 00/M03 A3028 700 78 -900 330/08 RMK AO2
14926KSTC STC20060324082509703/24/06 08:25:31  5-MIN KSTC 241425Z 34008KT 10SM OVC041 00/M03 A3028 690 78 -900 330/08 RMK AO2
14926KSTC STC20060324083009703/24/06 08:30:31  5-MIN KSTC 241430Z 34008KT 10SM OVC041 00/M03 A3028 690 81 -900 340/08 RMK AO2
14926KSTC STC20060324083509703/24/06 08:35:31  5-MIN KSTC 241435Z 34008KT 10SM OVC041 00/M03 A3028 690 78 -900 340/08 RMK AO2
14926KSTC STC20060324084009703/24/06 08:40:31  5-MIN KSTC 241440Z 35009KT 10SM OVC041 00/M03 A3028 690 78 -900 350/09 RMK AO2
14926KSTC STC20060324084509703/24/06 08:45:31  5-MIN KSTC 241445Z 36009KT 10SM OVC041 00/M03 A3028 690 78 -900 360/09 RMK AO2
14926KSTC STC20060324085012003/24/06 08:50:31  5-MIN KSTC 241450Z 36007KT 10SM OVC041 00/M03 A3028 690 78 -900 350/07 RMK AO2 SLP276 T00001033 53000
14926KSTC STC20060324085509703/24/06 08:55:31  5-MIN KSTC 241455Z 36008KT 10SM OVC041 01/M03 A3028 690 75 -800 360/08 RMK AO2
14926KSTC STC20060324090009703/24/06 09:00:31  5-MIN KSTC 241500Z 36007KT 10SM OVC041 01/M03 A3028 690 75 -800 350/07 RMK AO2
14926KSTC STC20060324090509703/24/06 09:05:31  5-MIN KSTC 241505Z 35008KT 10SM OVC041 01/M03 A3028 690 78 -800 350/08 RMK AO2
14926KSTC STC20060324091009703/24/06 09:10:31  5-MIN KSTC 241510Z 34009KT 10SM OVC041 01/M03 A3028 690 78 -800 340/09 RMK AO2
14926KSTC STC20060324091509703/24/06 09:15:31  5-MIN KSTC 241515Z 35008KT 10SM OVC041 01/M03 A3028 690 75 -700 350/08 RMK AO2
14926KSTC STC20060324092009703/24/06 09:20:31  5-MIN KSTC 241520Z 35007KT 10SM OVC041 01/M03 A3028 700 75 -700 350/07 RMK AO2
14926KSTC STC20060324092509703/24/06 09:25:31  5-MIN KSTC 241525Z 33007KT 10SM OVC041 01/M03 A3028 700 75 -700 330/07 RMK AO2
14926KSTC STC20060324093009703/24/06 09:30:31  5-MIN KSTC 241530Z 35007KT 10SM OVC041 01/M03 A3028 700 72 -700 350/07 RMK AO2
14926KSTC STC20060324093509703/24/06 09:35:31  5-MIN KSTC 241535Z 33008KT 10SM OVC041 01/M03 A3028 690 75 -700 330/08 RMK AO2
14926KSTC STC20060324094009703/24/06 09:40:31  5-MIN KSTC 241540Z 33007KT 10SM OVC041 02/M03 A3028 690 72 -700 330/07 RMK AO2
14926KSTC STC20060324094509703/24/06 09:45:31  5-MIN KSTC 241545Z 33007KT 10SM OVC041 02/M03 A3028 690 72 -700 330/07 RMK AO2
14926KSTC STC20060324095011403/24/06 09:50:31  5-MIN KSTC 241550Z 33007KT 10SM OVC041 02/M03 A3028 690 72 -700 320/07 RMK AO2 SLP275 T00171028
14926KSTC STC20060324095509703/24/06 09:55:31  5-MIN KSTC 241555Z 36007KT 10SM OVC041 02/M03 A3028 690 69 -600 360/07 RMK AO2
14926KSTC STC20060324100009703/24/06 10:00:31  5-MIN KSTC 241600Z 36007KT 10SM OVC041 02/M03 A3028 690 67 -600 360/07 RMK AO2
14926KSTC STC20060324100509703/24/06 10:05:31  5-MIN KSTC 241605Z 36007KT 10SM OVC041 03/M03 A3028 690 67 -500 360/07 RMK AO2
14926KSTC STC20060324101009703/24/06 10:10:31  5-MIN KSTC 241610Z 34009KT 10SM OVC041 02/M04 A3028 690 66 -700 340/09 RMK AO2
14926KSTC STC20060324101509703/24/06 10:15:31  5-MIN KSTC 241615Z 34008KT 10SM OVC041 02/M04 A3028 690 66 -700 330/08 RMK AO2
14926KSTC STC20060324102009703/24/06 10:20:31  5-MIN KSTC 241620Z 32006KT 10SM OVC039 02/M03 A3028 690 67 -600 320/06 RMK AO2
14926KSTC STC20060324102510403/24/06 10:25:31  5-MIN KSTC 241625Z 33006KT 10SM FEW021 OVC039 01/M04 A3028 690 69 -700 330/06 RMK AO2
14926KSTC STC20060324103010403/24/06 10:30:31  5-MIN KSTC 241630Z 33006KT 10SM FEW021 OVC037 02/M04 A3028 690 66 -700 330/06 RMK AO2
14926KSTC STC20060324103509703/24/06 10:35:31  5-MIN KSTC 241635Z 36007KT 10SM OVC037 02/M04 A3028 690 66 -700 360/07 RMK AO2
14926KSTC STC20060324104009703/24/06 10:40:31  5-MIN KSTC 241640Z 36007KT 10SM OVC037 02/M04 A3028 690 64 -700 360/07 RMK AO2
14926KSTC STC20060324104509703/24/06 10:45:31  5-MIN KSTC 241645Z 35004KT 10SM OVC035 02/M04 A3028 690 64 -700 350/04 RMK AO2
14926KSTC STC20060324105011403/24/06 10:50:31  5-MIN KSTC 241650Z 35007KT 10SM OVC033 02/M04 A3028 690 64 -700 350/07 RMK AO2 SLP276 T00171044
14926KSTC STC20060324105509703/24/06 10:55:31  5-MIN KSTC 241655Z 35007KT 10SM OVC033 02/M05 A3028 690 61 -700 340/07 RMK AO2
14926KSTC STC20060324110009703/24/06 11:00:31  5-MIN KSTC 241700Z 34005KT 10SM OVC033 02/M05 A3028 690 61 -700 330/05 RMK AO2
14926KSTC STC20060324110509703/24/06 11:05:31  5-MIN KSTC 241705Z 33005KT 10SM OVC031 02/M06 A3028 690 59 -700 330/05 RMK AO2
14926KSTC STC20060324111009703/24/06 11:10:31  5-MIN KSTC 241710Z 35006KT 10SM OVC031 02/M05 A3028 690 61 -700 350/06 RMK AO2
14926KSTC STC20060324111509703/24/06 11:15:31  5-MIN KSTC 241715Z 36005KT 10SM OVC031 02/M05 A3028 690 61 -700 350/05 RMK AO2
14926KSTC STC20060324112009703/24/06 11:20:31  5-MIN KSTC 241720Z 35007KT 10SM OVC031 02/M05 A3028 690 61 -700 350/07 RMK AO2
14926KSTC STC20060324112509703/24/06 11:25:31  5-MIN KSTC 241725Z 36006KT 10SM OVC031 02/M05 A3028 690 61 -700 360/06 RMK AO2
14926KSTC STC20060324113009703/24/06 11:30:31  5-MIN KSTC 241730Z 35006KT 10SM OVC033 02/M05 A3028 690 61 -700 350/06 RMK AO2
14926KSTC STC20060324113509703/24/06 11:35:31  5-MIN KSTC 241735Z 35006KT 10SM OVC033 02/M06 A3028 700 59 -700 350/06 RMK AO2
14926KSTC STC20060324114009703/24/06 11:40:31  5-MIN KSTC 241740Z 34007KT 10SM OVC033 02/M05 A3028 700 59 -600 340/07 RMK AO2
14926KSTC STC20060324114509703/24/06 11:45:31  5-MIN KSTC 241745Z 34005KT 10SM OVC033 02/M06 A3028 700 56 -600 340/05 RMK AO2
14926KSTC STC20060324115013203/24/06 11:50:31  5-MIN KSTC 241750Z 33005KT 10SM OVC033 02/M05 A3028 700 59 -600 330/05 RMK AO2 SLP274 T00221050 10028 21022 58000
14926KSTC STC20060324115509703/24/06 11:55:31  5-MIN KSTC 241755Z 33005KT 10SM OVC033 02/M06 A3028 700 56 -600 330/05 RMK AO2
14926KSTC STC20060324120009703/24/06 12:00:31  5-MIN KSTC 241800Z 32008KT 10SM OVC033 02/M06 A3027 700 56 -600 320/08 RMK AO2
14926KSTC STC20060324120509703/24/06 12:05:31  5-MIN KSTC 241805Z 31008KT 10SM OVC035 02/M06 A3027 700 56 -600 310/08 RMK AO2
14926KSTC STC20060324121009703/24/06 12:10:31  5-MIN KSTC 241810Z 31006KT 10SM OVC035 02/M06 A3027 700 56 -600 310/06 RMK AO2
14926KSTC STC20060324121509703/24/06 12:15:31  5-MIN KSTC 241815Z VRB04KT 10SM OVC035 02/M06 A3027 700 56 -600 VRB/04 RMK AO2
14926KSTC STC20060324122009703/24/06 12:20:31  5-MIN KSTC 241820Z 33006KT 10SM OVC035 03/M06 A3027 700 54 -500 330/06 RMK AO2
14926KSTC STC20060324122509703/24/06 12:25:31  5-MIN KSTC 241825Z 32005KT 10SM OVC035 02/M06 A3027 700 56 -600 320/05 RMK AO2
14926KSTC STC20060324123009703/24/06 12:30:31  5-MIN KSTC 241830Z 32006KT 10SM OVC035 03/M06 A3027 710 54 -500 310/06 RMK AO2
14926KSTC STC20060324123509703/24/06 12:35:31  5-MIN KSTC 241835Z 30005KT 10SM OVC035 03/M06 A3027 710 54 -500 290/05 RMK AO2
14926KSTC STC20060324124009703/24/06 12:40:31  5-MIN KSTC 241840Z 29006KT 10SM OVC035 03/M06 A3026 710 54 -500 290/06 RMK AO2
14926KSTC STC20060324124509703/24/06 12:45:31  5-MIN KSTC 241845Z VRB03KT 10SM OVC035 03/M06 A3026 710 54 -500 VRB/03 RMK AO2
14926KSTC STC20060324125011403/24/06 12:50:31  5-MIN KSTC 241850Z 33004KT 10SM OVC035 02/M06 A3026 710 54 -600 330/04 RMK AO2 SLP268 T00221061
14926KSTC STC20060324125509703/24/06 12:55:31  5-MIN KSTC 241855Z 31005KT 10SM OVC035 03/M06 A3026 710 54 -500 310/05 RMK AO2
14926KSTC STC20060324130009703/24/06 13:00:31  5-MIN KSTC 241900Z 31006KT 10SM OVC035 03/M06 A3026 710 54 -500 310/06 RMK AO2
14926KSTC STC20060324130509703/24/06 13:05:31  5-MIN KSTC 241905Z 29008KT 10SM OVC035 03/M06 A3026 710 54 -500 290/08 RMK AO2
14926KSTC STC20060324131009703/24/06 13:10:31  5-MIN KSTC 241910Z 27007KT 10SM OVC035 03/M05 A3026 720 56 -500 270/07 RMK AO2
14926KSTC STC20060324131509703/24/06 13:15:31  5-MIN KSTC 241915Z VRB05KT 10SM OVC035 03/M04 A3026 720 57 -400 VRB/05 RMK AO2
14926KSTC STC20060324132009703/24/06 13:20:31  5-MIN KSTC 241920Z 29006KT 10SM OVC035 03/M05 A3026 720 56 -500 290/06 RMK AO2
14926KSTC STC20060324132511303/24/06 13:25:31  5-MIN KSTC 241925Z 29007KT 270V340 10SM OVC035 03/M05 A3026 720 54 -400 290/07 270V340 RMK AO2
14926KSTC STC20060324133009703/24/06 13:30:31  5-MIN KSTC 241930Z 30007KT 10SM OVC035 03/M05 A3026 720 56 -500 300/07 RMK AO2
14926KSTC STC20060324133509703/24/06 13:35:31  5-MIN KSTC 241935Z 28005KT 10SM OVC037 03/M05 A3026 720 56 -500 270/05 RMK AO2
14926KSTC STC20060324134009703/24/06 13:40:31  5-MIN KSTC 241940Z 27005KT 10SM OVC037 03/M06 A3025 720 54 -500 260/05 RMK AO2
14926KSTC STC20060324134509703/24/06 13:45:31  5-MIN KSTC 241945Z 29005KT 10SM OVC037 03/M06 A3025 720 52 -400 280/05 RMK AO2
14926KSTC STC20060324135011403/24/06 13:50:31  5-MIN KSTC 241950Z 33005KT 10SM OVC037 03/M06 A3025 720 54 -500 330/05 RMK AO2 SLP266 T00281056
14926KSTC STC20060324135511303/24/06 13:55:31  5-MIN KSTC 241955Z 30007KT 250V330 10SM OVC037 03/M06 A3025 720 52 -400 300/07 250V330 RMK AO2
14926KSTC STC20060324140009703/24/06 14:00:31  5-MIN KSTC 242000Z 32007KT 10SM OVC037 03/M06 A3025 720 54 -500 310/07 RMK AO2
14926KSTC STC20060324140509703/24/06 14:05:31  5-MIN KSTC 242005Z 32007KT 10SM OVC037 03/M06 A3025 720 54 -500 320/07 RMK AO2
14926KSTC STC20060324141009703/24/06 14:10:31  5-MIN KSTC 242010Z 30007KT 10SM OVC037 03/M06 A3025 720 54 -500 300/07 RMK AO2
14926KSTC STC20060324141509703/24/06 14:15:31  5-MIN KSTC 242015Z VRB03KT 10SM OVC037 03/M06 A3025 720 54 -500 VRB/03 RMK AO2
14926KSTC STC20060324142009703/24/06 14:20:31  5-MIN KSTC 242020Z 28005KT 10SM OVC037 03/M06 A3025 720 54 -500 280/05 RMK AO2
14926KSTC STC20060324142509703/24/06 14:25:31  5-MIN KSTC 242025Z 29006KT 10SM OVC037 03/M06 A3025 720 54 -500 290/06 RMK AO2
14926KSTC STC20060324143009703/24/06 14:30:31  5-MIN KSTC 242030Z 30006KT 10SM OVC037 03/M06 A3025 720 54 -500 290/06 RMK AO2
14926KSTC STC20060324143509703/24/06 14:35:31  5-MIN KSTC 242035Z 30005KT 10SM OVC037 03/M06 A3025 720 54 -500 290/05 RMK AO2
14926KSTC STC20060324144009703/24/06 14:40:31  5-MIN KSTC 242040Z 33006KT 10SM OVC037 03/M06 A3025 720 54 -500 320/06 RMK AO2
14926KSTC STC20060324144509703/24/06 14:45:31  5-MIN KSTC 242045Z 32005KT 10SM OVC037 03/M06 A3025 720 54 -500 320/05 RMK AO2
14926KSTC STC20060324145012003/24/06 14:50:31  5-MIN KSTC 242050Z 33006KT 10SM OVC037 03/M06 A3025 720 54 -500 320/06 RMK AO2 SLP264 T00281056 58002
14926KSTC STC20060324145509703/24/06 14:55:31  5-MIN KSTC 242055Z 31007KT 10SM OVC037 03/M05 A3025 720 56 -500 310/07 RMK AO2
14926KSTC STC20060324150009703/24/06 15:00:31  5-MIN KSTC 242100Z 33006KT 10SM OVC037 03/M06 A3025 720 54 -500 320/06 RMK AO2
14926KSTC STC20060324150509703/24/06 15:05:31  5-MIN KSTC 242105Z 31006KT 10SM OVC037 03/M05 A3025 720 56 -500 300/06 RMK AO2
14926KSTC STC20060324151009703/24/06 15:10:31  5-MIN KSTC 242110Z 31006KT 10SM OVC037 03/M06 A3025 720 54 -500 310/06 RMK AO2
14926KSTC STC20060324151509703/24/06 15:15:31  5-MIN KSTC 242115Z 31008KT 10SM OVC037 03/M06 A3025 720 54 -500 310/08 RMK AO2
14926KSTC STC20060324152009703/24/06 15:20:31  5-MIN KSTC 242120Z 31009KT 10SM OVC039 03/M05 A3025 720 56 -500 310/09 RMK AO2
14926KSTC STC20060324152509703/24/06 15:25:31  5-MIN KSTC 242125Z 34007KT 10SM OVC039 03/M06 A3025 720 54 -500 330/07 RMK AO2
14926KSTC STC20060324153009703/24/06 15:30:31  5-MIN KSTC 242130Z 33004KT 10SM OVC039 03/M06 A3025 720 54 -500 330/04 RMK AO2
14926KSTC STC20060324153509703/24/06 15:35:31  5-MIN KSTC 242135Z 31005KT 10SM OVC039 03/M06 A3025 720 54 -500 300/05 RMK AO2
14926KSTC STC20060324154009703/24/06 15:40:31  5-MIN KSTC 242140Z 33007KT 10SM OVC039 03/M06 A3025 720 54 -500 330/07 RMK AO2
14926KSTC STC20060324154509703/24/06 15:45:31  5-MIN KSTC 242145Z 34006KT 10SM OVC039 03/M06 A3025 720 54 -500 330/06 RMK AO2
14926KSTC STC20060324155011903/24/06 15:50:31  5-MIN KSTC 242150Z AUTO 30006KT 10SM OVC039 03/M06 A3025 720 54 -500 300/06 RMK AO2 SLP264 T00281056
14926KSTC STC20060324155510203/24/06 15:55:31  5-MIN KSTC 242155Z AUTO 32006KT 10SM OVC039 03/M06 A3025 720 54 -500 320/06 RMK AO2
14926KSTC STC20060324160010203/24/06 16:00:31  5-MIN KSTC 242200Z AUTO 33008KT 10SM OVC039 03/M06 A3025 720 54 -500 320/08 RMK AO2
14926KSTC STC20060324160510203/24/06 16:05:31  5-MIN KSTC 242205Z AUTO 33005KT 10SM OVC039 03/M06 A3025 720 54 -500 330/05 RMK AO2
14926KSTC STC20060324161010203/24/06 16:10:31  5-MIN KSTC 242210Z AUTO 34006KT 10SM OVC039 03/M05 A3025 720 56 -500 330/06 RMK AO2
14926KSTC STC20060324161510203/24/06 16:15:31  5-MIN KSTC 242215Z AUTO 32007KT 10SM OVC039 03/M05 A3025 720 56 -500 320/07 RMK AO2
14926KSTC STC20060324162010203/24/06 16:20:31  5-MIN KSTC 242220Z AUTO 31006KT 10SM OVC039 03/M05 A3025 720 56 -500 310/06 RMK AO2
14926KSTC STC20060324162510203/24/06 16:25:31  5-MIN KSTC 242225Z AUTO 31008KT 10SM OVC039 03/M05 A3025 720 56 -500 310/08 RMK AO2
14926KSTC STC20060324163010203/24/06 16:30:31  5-MIN KSTC 242230Z AUTO 32006KT 10SM OVC039 03/M05 A3025 720 56 -500 320/06 RMK AO2
14926KSTC STC20060324163510203/24/06 16:35:31  5-MIN KSTC 242235Z AUTO 33007KT 10SM OVC039 02/M06 A3025 720 56 -600 330/07 RMK AO2
14926KSTC STC20060324164010203/24/06 16:40:31  5-MIN KSTC 242240Z AUTO 32007KT 10SM OVC039 02/M06 A3025 720 56 -600 320/07 RMK AO2
14926KSTC STC20060324164510203/24/06 16:45:31  5-MIN KSTC 242245Z AUTO 32007KT 10SM OVC039 02/M06 A3026 720 56 -600 310/07 RMK AO2
14926KSTC STC20060324165011903/24/06 16:50:31  5-MIN KSTC 242250Z AUTO 31007KT 10SM OVC039 02/M05 A3025 720 59 -600 310/07 RMK AO2 SLP266 T00221050
14926KSTC STC20060324165510203/24/06 16:55:31  5-MIN KSTC 242255Z AUTO 31007KT 10SM OVC039 02/M05 A3026 720 59 -600 310/07 RMK AO2
14926KSTC STC20060324170010203/24/06 17:00:31  5-MIN KSTC 242300Z AUTO 32006KT 10SM OVC039 02/M05 A3026 720 59 -600 320/06 RMK AO2
14926KSTC STC20060324170510203/24/06 17:05:31  5-MIN KSTC 242305Z AUTO 31008KT 10SM OVC039 02/M05 A3026 720 59 -600 310/08 RMK AO2
14926KSTC STC20060324171010203/24/06 17:10:31  5-MIN KSTC 242310Z AUTO 31008KT 10SM OVC039 02/M05 A3026 720 59 -600 310/08 RMK AO2
14926KSTC STC20060324171510203/24/06 17:15:31  5-MIN KSTC 242315Z AUTO 32007KT 10SM OVC039 02/M05 A3026 720 59 -600 320/07 RMK AO2
14926KSTC STC20060324172010203/24/06 17:20:31  5-MIN KSTC 242320Z AUTO 32006KT 10SM OVC039 02/M06 A3026 720 56 -600 320/06 RMK AO2
14926KSTC STC20060324172510203/24/06 17:25:31  5-MIN KSTC 242325Z AUTO 32007KT 10SM OVC041 02/M06 A3026 720 56 -600 310/07 RMK AO2
14926KSTC STC20060324173010203/24/06 17:30:31  5-MIN KSTC 242330Z AUTO 31007KT 10SM OVC041 02/M06 A3026 710 56 -600 310/07 RMK AO2
14926KSTC STC20060324173510203/24/06 17:35:31  5-MIN KSTC 242335Z AUTO 32007KT 10SM OVC041 02/M06 A3026 710 56 -600 320/07 RMK AO2
14926KSTC STC20060324174010203/24/06 17:40:31  5-MIN KSTC 242340Z AUTO 31007KT 10SM OVC041 02/M06 A3026 710 56 -600 310/07 RMK AO2
14926KSTC STC20060324174510203/24/06 17:45:31  5-MIN KSTC 242345Z AUTO 31007KT 10SM OVC041 02/M05 A3026 710 59 -600 310/07 RMK AO2
14926KSTC STC20060324175013703/24/06 17:50:31  5-MIN KSTC 242350Z AUTO 31007KT 10SM OVC041 02/M05 A3026 710 59 -600 310/07 RMK AO2 SLP268 T00221050 10033 20022 56008
14926KSTC STC20060324175510203/24/06 17:55:31  5-MIN KSTC 242355Z AUTO 31007KT 10SM OVC041 02/M05 A3026 710 59 -600 310/07 RMK AO2
14926KSTC STC20060324180010203/24/06 18:00:31  5-MIN KSTC 250000Z AUTO 32006KT 10SM OVC041 02/M05 A3026 710 59 -600 310/06 RMK AO2
14926KSTC STC20060324180510203/24/06 18:05:31  5-MIN KSTC 250005Z AUTO 32006KT 10SM OVC041 02/M05 A3026 710 61 -600 310/06 RMK AO2
14926KSTC STC20060324181010203/24/06 18:10:31  5-MIN KSTC 250010Z AUTO 31007KT 10SM OVC041 02/M05 A3026 710 61 -600 310/07 RMK AO2
14926KSTC STC20060324181510203/24/06 18:15:31  5-MIN KSTC 250015Z AUTO 31007KT 10SM OVC041 02/M05 A3026 710 61 -700 310/07 RMK AO2
14926KSTC STC20060324182010203/24/06 18:20:31  5-MIN KSTC 250020Z AUTO 31005KT 10SM OVC041 02/M05 A3026 710 61 -700 310/05 RMK AO2
14926KSTC STC20060324182510203/24/06 18:25:31  5-MIN KSTC 250025Z AUTO 32005KT 10SM OVC041 02/M04 A3026 710 64 -700 310/05 RMK AO2
14926KSTC STC20060324183010203/24/06 18:30:31  5-MIN KSTC 250030Z AUTO 32004KT 10SM OVC043 02/M04 A3026 710 64 -700 320/04 RMK AO2
14926KSTC STC20060324183510203/24/06 18:35:31  5-MIN KSTC 250035Z AUTO 33004KT 10SM OVC043 02/M05 A3027 710 61 -700 320/04 RMK AO2
14926KSTC STC20060324184010203/24/06 18:40:31  5-MIN KSTC 250040Z AUTO 33005KT 10SM OVC043 02/M05 A3027 710 61 -700 330/05 RMK AO2
14926KSTC STC20060324184510203/24/06 18:45:31  5-MIN KSTC 250045Z AUTO 33005KT 10SM OVC043 02/M05 A3027 710 61 -700 330/05 RMK AO2
14926KSTC STC20060324185011903/24/06 18:50:31  5-MIN KSTC 250050Z AUTO 34005KT 10SM OVC043 02/M05 A3027 710 61 -700 330/05 RMK AO2 SLP270 T00171050
14926KSTC STC20060324185510203/24/06 18:55:31  5-MIN KSTC 250055Z AUTO 33005KT 10SM OVC043 01/M05 A3026 710 64 -700 330/05 RMK AO2
14926KSTC STC20060324190010203/24/06 19:00:31  5-MIN KSTC 250100Z AUTO 35004KT 10SM BKN043 01/M05 A3026 710 64 -700 350/04 RMK AO2
14926KSTC STC20060324190510203/24/06 19:05:31  5-MIN KSTC 250105Z AUTO 34005KT 10SM BKN043 01/M05 A3026 710 66 -800 340/05 RMK AO2
14926KSTC STC20060324191010203/24/06 19:10:31  5-MIN KSTC 250110Z AUTO 34004KT 10SM SCT043 01/M05 A3026 710 66 -800 340/04 RMK AO2
14926KSTC STC20060324191510203/24/06 19:15:31  5-MIN KSTC 250115Z AUTO 33004KT 10SM SCT043 01/M06 A3026 710 63 -800 330/04 RMK AO2
14926KSTC STC20060324192010203/24/06 19:20:31  5-MIN KSTC 250120Z AUTO 33004KT 10SM FEW043 01/M06 A3026 710 63 -800 320/04 RMK AO2
14926KSTC STC20060324192510203/24/06 19:25:31  5-MIN KSTC 250125Z AUTO 32003KT 10SM FEW041 00/M05 A3027 710 69 -900 320/03 RMK AO2
14926KSTC STC20060324193010003/24/06 19:30:31  5-MIN KSTC 250130Z AUTO 33003KT 10SM CLR M01/M05 A3027 710 72 -900 320/03 RMK AO2
14926KSTC STC20060324193510003/24/06 19:35:31  5-MIN KSTC 250135Z AUTO 33003KT 10SM CLR M01/M05 A3027 710 72 -900 320/03 RMK AO2
14926KSTC STC20060324194010003/24/06 19:40:31  5-MIN KSTC 250140Z AUTO 32004KT 10SM CLR M01/M05 A3027 710 72 -900 320/04 RMK AO2
14926KSTC STC20060324194510003/24/06 19:45:31  5-MIN KSTC 250145Z AUTO 31006KT 10SM CLR M01/M05 A3027 710 72 -900 310/06 RMK AO2
14926KSTC STC20060324195012003/24/06 19:50:31  5-MIN KSTC 250150Z AUTO 31006KT 10SM FEW048 M01/M05 A3027 700 72 -900 310/06 RMK AO2 SLP272 T10061050
14926KSTC STC20060324195510403/24/06 19:55:31  5-MIN KSTC 250155Z AUTO 31006KT 10SM SCT048 M01/M05 A3027 700 75 -1000 310/06 RMK AO2
14926KSTC STC20060324200010303/24/06 20:00:31  5-MIN KSTC 250200Z AUTO 31007KT 10SM BKN048 M01/M04 A3027 700 75 -900 310/07 RMK AO2
14926KSTC STC20060324200510303/24/06 20:05:31  5-MIN KSTC 250205Z AUTO 31007KT 10SM BKN046 M01/M04 A3027 700 75 -900 300/07 RMK AO2
14926KSTC STC20060324201010303/24/06 20:10:31  5-MIN KSTC 250210Z AUTO 31006KT 10SM BKN046 M01/M04 A3027 700 75 -900 300/06 RMK AO2
14926KSTC STC20060324201510303/24/06 20:15:31  5-MIN KSTC 250215Z AUTO 31007KT 10SM BKN046 M01/M04 A3027 700 75 -900 300/07 RMK AO2
14926KSTC STC20060324202010303/24/06 20:20:31  5-MIN KSTC 250220Z AUTO 30006KT 10SM BKN046 M01/M05 A3027 700 72 -900 300/06 RMK AO2
14926KSTC STC20060324202511003/24/06 20:25:31  5-MIN KSTC 250225Z AUTO 30006KT 10SM BKN046 BKN050 M01/M05 A3027 700 72 -900 290/06 RMK AO2
14926KSTC STC20060324203010403/24/06 20:30:31  5-MIN KSTC 250230Z AUTO 30006KT 10SM BKN048 M01/M05 A3027 700 75 -1000 300/06 RMK AO2
14926KSTC STC20060324203510303/24/06 20:35:31  5-MIN KSTC 250235Z AUTO 30006KT 10SM BKN048 M01/M05 A3027 700 72 -900 300/06 RMK AO2
14926KSTC STC20060324204010303/24/06 20:40:31  5-MIN KSTC 250240Z AUTO 30006KT 10SM SCT050 M01/M05 A3027 700 72 -900 290/06 RMK AO2
14926KSTC STC20060324204510303/24/06 20:45:31  5-MIN KSTC 250245Z AUTO 29007KT 10SM SCT050 M01/M05 A3027 700 72 -900 290/07 RMK AO2
14926KSTC STC20060324205012603/24/06 20:50:31  5-MIN KSTC 250250Z AUTO 29005KT 10SM SCT050 M01/M05 A3027 700 72 -900 290/05 RMK AO2 SLP274 T10061050 53004
14926KSTC STC20060324205510203/24/06 20:55:31  5-MIN KSTC 250255Z AUTO 29006KT 10SM BKN050 00/M04 A3028 700 72 -900 290/06 RMK AO2
14926KSTC STC20060324210010203/24/06 21:00:31  5-MIN KSTC 250300Z AUTO 30006KT 10SM BKN050 00/M04 A3028 700 72 -900 300/06 RMK AO2
14926KSTC STC20060324210510203/24/06 21:05:31  5-MIN KSTC 250305Z AUTO 30006KT 10SM BKN050 00/M04 A3028 700 72 -900 300/06 RMK AO2
14926KSTC STC20060324211010203/24/06 21:10:31  5-MIN KSTC 250310Z AUTO 30006KT 10SM OVC050 00/M04 A3028 700 72 -900 300/06 RMK AO2
14926KSTC STC20060324211510203/24/06 21:15:31  5-MIN KSTC 250315Z AUTO 30007KT 10SM OVC050 00/M04 A3028 690 72 -900 300/07 RMK AO2
14926KSTC STC20060324212010203/24/06 21:20:31  5-MIN KSTC 250320Z AUTO 31007KT 10SM OVC050 00/M04 A3028 700 72 -900 300/07 RMK AO2
14926KSTC STC20060324212510203/24/06 21:25:31  5-MIN KSTC 250325Z AUTO 31006KT 10SM OVC050 00/M04 A3028 690 72 -900 310/06 RMK AO2
14926KSTC STC20060324213010203/24/06 21:30:31  5-MIN KSTC 250330Z AUTO 31007KT 10SM OVC050 00/M04 A3028 690 72 -900 300/07 RMK AO2
14926KSTC STC20060324213510203/24/06 21:35:31  5-MIN KSTC 250335Z AUTO 31008KT 10SM OVC050 00/M04 A3028 690 72 -900 300/08 RMK AO2
14926KSTC STC20060324214010203/24/06 21:40:31  5-MIN KSTC 250340Z AUTO 31008KT 10SM OVC050 00/M04 A3028 700 72 -900 300/08 RMK AO2
14926KSTC STC20060324214510203/24/06 21:45:31  5-MIN KSTC 250345Z AUTO 30008KT 10SM OVC050 00/M04 A3028 700 72 -900 300/08 RMK AO2
14926KSTC STC20060324215011903/24/06 21:50:31  5-MIN KSTC 250350Z AUTO 30008KT 10SM OVC050 00/M04 A3028 690 72 -900 290/08 RMK AO2 SLP275 T00001044
14926KSTC STC20060324215510203/24/06 21:55:31  5-MIN KSTC 250355Z AUTO 30007KT 10SM OVC050 00/M04 A3028 690 72 -900 290/07 RMK AO2
14926KSTC STC20060324220010203/24/06 22:00:31  5-MIN KSTC 250400Z AUTO 29007KT 10SM OVC050 00/M04 A3028 690 72 -900 290/07 RMK AO2
14926KSTC STC20060324220510203/24/06 22:05:31  5-MIN KSTC 250405Z AUTO 29007KT 10SM OVC050 00/M04 A3028 690 72 -900 290/07 RMK AO2
14926KSTC STC20060324221010203/24/06 22:10:31  5-MIN KSTC 250410Z AUTO 29007KT 10SM OVC050 01/M04 A3028 690 69 -800 280/07 RMK AO2
14926KSTC STC20060324221510203/24/06 22:15:31  5-MIN KSTC 250415Z AUTO 28005KT 10SM OVC050 00/M04 A3028 690 72 -900 280/05 RMK AO2
14926KSTC STC20060324222010203/24/06 22:20:31  5-MIN KSTC 250420Z AUTO 29006KT 10SM OVC050 00/M04 A3028 690 72 -900 280/06 RMK AO2
14926KSTC STC20060324222510203/24/06 22:25:31  5-MIN KSTC 250425Z AUTO 29005KT 10SM OVC050 00/M04 A3028 690 72 -900 290/05 RMK AO2
14926KSTC STC20060324223010203/24/06 22:30:31  5-MIN KSTC 250430Z AUTO 29006KT 10SM OVC050 00/M04 A3028 690 72 -900 290/06 RMK AO2
14926KSTC STC20060324223510203/24/06 22:35:31  5-MIN KSTC 250435Z AUTO 29006KT 10SM OVC050 00/M04 A3028 690 72 -900 280/06 RMK AO2
14926KSTC STC20060324224010203/24/06 22:40:31  5-MIN KSTC 250440Z AUTO 29006KT 10SM OVC050 00/M04 A3028 690 72 -900 280/06 RMK AO2
14926KSTC STC20060324224510203/24/06 22:45:31  5-MIN KSTC 250445Z AUTO 28006KT 10SM OVC050 00/M04 A3028 690 72 -900 280/06 RMK AO2
14926KSTC STC20060324225011903/24/06 22:50:31  5-MIN KSTC 250450Z AUTO 29006KT 10SM OVC050 00/M04 A3028 690 72 -900 280/06 RMK AO2 SLP275 T00001044
14926KSTC STC20060324225510203/24/06 22:55:31  5-MIN KSTC 250455Z AUTO 29005KT 10SM OVC050 00/M04 A3028 690 75 -900 280/05 RMK AO2
14926KSTC STC20060324230010203/24/06 23:00:31  5-MIN KSTC 250500Z AUTO 29005KT 10SM OVC050 00/M04 A3028 690 75 -900 290/05 RMK AO2
14926KSTC STC20060324230510203/24/06 23:05:31  5-MIN KSTC 250505Z AUTO 29005KT 10SM OVC050 00/M04 A3028 690 75 -900 290/05 RMK AO2
14926KSTC STC20060324231010203/24/06 23:10:31  5-MIN KSTC 250510Z AUTO 29005KT 10SM OVC050 00/M04 A3028 690 75 -900 290/05 RMK AO2
14926KSTC STC20060324231510203/24/06 23:15:31  5-MIN KSTC 250515Z AUTO 29004KT 10SM OVC050 00/M04 A3028 690 75 -900 290/04 RMK AO2
14926KSTC STC20060324232010203/24/06 23:20:31  5-MIN KSTC 250520Z AUTO 29004KT 10SM OVC050 00/M04 A3028 690 75 -900 290/04 RMK AO2
14926KSTC STC20060324232510203/24/06 23:25:31  5-MIN KSTC 250525Z AUTO 29005KT 10SM OVC050 00/M04 A3028 690 75 -900 290/05 RMK AO2
14926KSTC STC20060324233010203/24/06 23:30:31  5-MIN KSTC 250530Z AUTO 30005KT 10SM OVC050 00/M04 A3028 690 75 -900 300/05 RMK AO2
14926KSTC STC20060324233510203/24/06 23:35:31  5-MIN KSTC 250535Z AUTO 30005KT 10SM OVC050 00/M04 A3028 690 75 -900 290/05 RMK AO2
14926KSTC STC20060324234010203/24/06 23:40:31  5-MIN KSTC 250540Z AUTO 30004KT 10SM OVC050 00/M04 A3029 690 75 -900 290/04 RMK AO2
14926KSTC STC20060324234510203/24/06 23:45:31  5-MIN KSTC 250545Z AUTO 30004KT 10SM OVC050 00/M04 A3029 690 75 -900 300/04 RMK AO2
14926KSTC STC20060324235014703/24/06 23:50:31  5-MIN KSTC 250550Z AUTO 32004KT 10SM OVC050 00/M04 A3029 690 75 -900 320/04 RMK AO2 SLP277 T00001039 10022 21011 400331022 53004
14926KSTC STC20060324235510203/24/06 23:55:31  5-MIN KSTC 250555Z AUTO 31004KT 10SM OVC050 00/M04 A3029 690 75 -900 300/04 RMK AO2
14926KSTC STC20060325000010203/25/06 00:00:32  5-MIN KSTC 250600Z AUTO 30004KT 10SM OVC050 00/M03 A3029 690 78 -900 300/04 RMK AO2
14926KSTC STC20060325000510203/25/06 00:05:31  5-MIN KSTC 250605Z AUTO 31004KT 10SM OVC050 00/M03 A3029 690 78 -900 300/04 RMK AO2
14926KSTC STC20060325001010203/25/06 00:10:31  5-MIN KSTC 250610Z AUTO 31004KT 10SM OVC050 00/M03 A3029 690 78 -900 300/04 RMK AO2
14926KSTC STC20060325001510203/25/06 00:15:31  5-MIN KSTC 250615Z AUTO 31004KT 10SM OVC050 00/M03 A3029 690 78 -900 300/04 RMK AO2
14926KSTC STC20060325002010203/25/06 00:20:31  5-MIN KSTC 250620Z AUTO 31003KT 10SM OVC050 00/M03 A3029 690 78 -900 300/03 RMK AO2
14926KSTC STC20060325002510203/25/06 00:25:31  5-MIN KSTC 250625Z AUTO 00000KT 10SM OVC050 00/M03 A3029 690 78 -900 000/00 RMK AO2
14926KSTC STC20060325003010203/25/06 00:30:31  5-MIN KSTC 250630Z AUTO 00000KT 10SM OVC050 00/M03 A3029 690 78 -900 000/00 RMK AO2
14926KSTC STC20060325003510203/25/06 00:35:31  5-MIN KSTC 250635Z AUTO 31004KT 10SM OVC050 00/M04 A3029 680 75 -900 310/04 RMK AO2
14926KSTC STC20060325004010403/25/06 00:40:31  5-MIN KSTC 250640Z AUTO 31004KT 10SM OVC050 M01/M03 A3029 680 81 -1000 310/04 RMK AO2
14926KSTC STC20060325004510203/25/06 00:45:31  5-MIN KSTC 250645Z AUTO 32003KT 10SM OVC050 00/M03 A3029 680 78 -900 310/03 RMK AO2
14926KSTC STC20060325005011903/25/06 00:50:31  5-MIN KSTC 250650Z AUTO 31003KT 10SM OVC050 00/M03 A3029 680 78 -900 310/03 RMK AO2 SLP279 T00001033
14926KSTC STC20060325005510403/25/06 00:55:31  5-MIN KSTC 250655Z AUTO 31004KT 10SM OVC050 M01/M03 A3029 680 81 -1000 310/04 RMK AO2
14926KSTC STC20060325010010403/25/06 01:00:31  5-MIN KSTC 250700Z AUTO 31004KT 10SM OVC050 M01/M03 A3029 680 81 -1000 310/04 RMK AO2
14926KSTC STC20060325010510403/25/06 01:05:31  5-MIN KSTC 250705Z AUTO 31004KT 10SM OVC050 M01/M03 A3029 680 81 -1000 310/04 RMK AO2
14926KSTC STC20060325011010403/25/06 01:10:31  5-MIN KSTC 250710Z AUTO 31004KT 10SM OVC050 M01/M03 A3029 680 85 -1000 300/04 RMK AO2
14926KSTC STC20060325011510403/25/06 01:15:31  5-MIN KSTC 250715Z AUTO 31004KT 10SM OVC050 M01/M03 A3029 680 85 -1000 310/04 RMK AO2
14926KSTC STC20060325012010403/25/06 01:20:31  5-MIN KSTC 250720Z AUTO 32003KT 10SM OVC050 M01/M03 A3029 680 85 -1000 320/03 RMK AO2
14926KSTC STC20060325012510403/25/06 01:25:31  5-MIN KSTC 250725Z AUTO 32003KT 10SM OVC050 M01/M03 A3029 680 81 -1000 320/03 RMK AO2
14926KSTC STC20060325013010403/25/06 01:30:31  5-MIN KSTC 250730Z AUTO 32004KT 10SM OVC050 M01/M03 A3029 680 81 -1000 320/04 RMK AO2
14926KSTC STC20060325013510203/25/06 01:35:31  5-MIN KSTC 250735Z AUTO 33004KT 10SM OVC050 00/M03 A3029 680 78 -900 320/04 RMK AO2
14926KSTC STC20060325014010403/25/06 01:40:31  5-MIN KSTC 250740Z AUTO 34004KT 10SM OVC050 M01/M03 A3029 680 81 -1000 340/04 RMK AO2
14926KSTC STC20060325014510203/25/06 01:45:31  5-MIN KSTC 250745Z AUTO 34004KT 10SM OVC050 00/M03 A3029 680 78 -900 340/04 RMK AO2
14926KSTC STC20060325015011903/25/06 01:50:31  5-MIN KSTC 250750Z AUTO 33004KT 10SM OVC050 00/M03 A3029 680 78 -900 330/04 RMK AO2 SLP279 T00001033
14926KSTC STC20060325015510203/25/06 01:55:31  5-MIN KSTC 250755Z AUTO 33004KT 10SM OVC050 00/M03 A3029 680 78 -900 330/04 RMK AO2
14926KSTC STC20060325020010203/25/06 02:00:31  5-MIN KSTC 250800Z AUTO 32004KT 10SM OVC050 00/M03 A3029 680 78 -900 320/04 RMK AO2
14926KSTC STC20060325020510203/25/06 02:05:31  5-MIN KSTC 250805Z AUTO 32005KT 10SM OVC050 00/M03 A3030 680 78 -900 320/05 RMK AO2
14926KSTC STC20060325021010203/25/06 02:10:31  5-MIN KSTC 250810Z AUTO 32004KT 10SM OVC050 00/M03 A3029 680 78 -900 320/04 RMK AO2
14926KSTC STC20060325021510203/25/06 02:15:31  5-MIN KSTC 250815Z AUTO 33003KT 10SM OVC050 00/M03 A3029 680 78 -900 320/03 RMK AO2
14926KSTC STC20060325022010203/25/06 02:20:31  5-MIN KSTC 250820Z AUTO 33003KT 10SM OVC050 00/M03 A3029 680 78 -900 330/03 RMK AO2
14926KSTC STC20060325022510203/25/06 02:25:31  5-MIN KSTC 250825Z AUTO 33003KT 10SM OVC050 00/M03 A3029 680 78 -900 330/03 RMK AO2
14926KSTC STC20060325023010203/25/06 02:30:31  5-MIN KSTC 250830Z AUTO 32004KT 10SM OVC048 00/M03 A3029 680 78 -900 320/04 RMK AO2
14926KSTC STC20060325023510203/25/06 02:35:31  5-MIN KSTC 250835Z AUTO 32004KT 10SM OVC048 00/M03 A3029 680 78 -900 320/04 RMK AO2
14926KSTC STC20060325024010203/25/06 02:40:31  5-MIN KSTC 250840Z AUTO 33004KT 10SM OVC048 00/M03 A3029 680 78 -900 330/04 RMK AO2
14926KSTC STC20060325024510203/25/06 02:45:31  5-MIN KSTC 250845Z AUTO 33004KT 10SM OVC048 00/M03 A3029 680 78 -900 330/04 RMK AO2
14926KSTC STC20060325025012503/25/06 02:50:31  5-MIN KSTC 250850Z AUTO 33004KT 10SM OVC048 00/M03 A3029 680 78 -900 330/04 RMK AO2 SLP278 T00001033 53004
14926KSTC STC20060325025510203/25/06 02:55:31  5-MIN KSTC 250855Z AUTO 33004KT 10SM OVC048 00/M03 A3029 680 78 -900 330/04 RMK AO2
14926KSTC STC20060325030010203/25/06 03:00:31  5-MIN KSTC 250900Z AUTO 33004KT 10SM OVC048 00/M03 A3029 680 78 -900 330/04 RMK AO2
14926KSTC STC20060325030510203/25/06 03:05:31  5-MIN KSTC 250905Z AUTO 33005KT 10SM OVC048 00/M03 A3029 680 78 -900 330/05 RMK AO2
14926KSTC STC20060325031010203/25/06 03:10:31  5-MIN KSTC 250910Z AUTO 32004KT 10SM OVC048 00/M03 A3029 680 78 -900 320/04 RMK AO2
14926KSTC STC20060325031510203/25/06 03:15:31  5-MIN KSTC 250915Z AUTO 33004KT 10SM OVC048 00/M03 A3029 680 78 -900 330/04 RMK AO2
14926KSTC STC20060325032010203/25/06 03:20:31  5-MIN KSTC 250920Z AUTO 33004KT 10SM OVC050 00/M03 A3029 690 78 -900 330/04 RMK AO2
14926KSTC STC20060325032510203/25/06 03:25:31  5-MIN KSTC 250925Z AUTO 34004KT 10SM OVC050 00/M03 A3029 680 78 -900 340/04 RMK AO2
14926KSTC STC20060325033010203/25/06 03:30:31  5-MIN KSTC 250930Z AUTO 34004KT 10SM OVC050 00/M03 A3029 680 78 -900 340/04 RMK AO2
14926KSTC STC20060325033510203/25/06 03:35:31  5-MIN KSTC 250935Z AUTO 34004KT 10SM OVC050 00/M03 A3029 680 78 -900 330/04 RMK AO2
14926KSTC STC20060325034010203/25/06 03:40:31  5-MIN KSTC 250940Z AUTO 33004KT 10SM OVC050 00/M03 A3029 680 78 -900 330/04 RMK AO2
14926KSTC STC20060325034510203/25/06 03:45:31  5-MIN KSTC 250945Z AUTO 34003KT 10SM OVC050 00/M03 A3029 680 78 -900 340/03 RMK AO2
14926KSTC STC20060325035011903/25/06 03:50:31  5-MIN KSTC 250950Z AUTO 33003KT 10SM OVC050 00/M03 A3030 680 78 -900 330/03 RMK AO2 SLP280 T00001033
14926KSTC STC20060325035510403/25/06 03:55:31  5-MIN KSTC 250955Z AUTO 32003KT 10SM OVC050 M01/M03 A3030 680 81 -1000 320/03 RMK AO2
14926KSTC STC20060325040010403/25/06 04:00:31  5-MIN KSTC 251000Z AUTO 33003KT 10SM OVC048 M01/M03 A3030 680 81 -1000 330/03 RMK AO2
14926KSTC STC20060325040510203/25/06 04:05:31  5-MIN KSTC 251005Z AUTO 34004KT 10SM OVC048 00/M03 A3030 680 78 -900 330/04 RMK AO2
14926KSTC STC20060325041010203/25/06 04:10:31  5-MIN KSTC 251010Z AUTO 34003KT 10SM OVC048 00/M03 A3030 680 78 -900 340/03 RMK AO2
14926KSTC STC20060325041510203/25/06 04:15:31  5-MIN KSTC 251015Z AUTO 34003KT 10SM OVC048 00/M03 A3030 680 78 -900 340/03 RMK AO2
14926KSTC STC20060325042010203/25/06 04:20:31  5-MIN KSTC 251020Z AUTO 33003KT 10SM OVC048 00/M03 A3030 670 78 -900 330/03 RMK AO2
14926KSTC STC20060325042510203/25/06 04:25:31  5-MIN KSTC 251025Z AUTO 00000KT 10SM OVC048 00/M03 A3030 670 78 -900 000/00 RMK AO2
14926KSTC STC20060325043010203/25/06 04:30:31  5-MIN KSTC 251030Z AUTO 00000KT 10SM OVC048 00/M03 A3030 670 78 -900 000/00 RMK AO2
14926KSTC STC20060325043510203/25/06 04:35:31  5-MIN KSTC 251035Z AUTO 35003KT 10SM OVC048 00/M03 A3030 670 78 -900 340/03 RMK AO2
14926KSTC STC20060325044010203/25/06 04:40:31  5-MIN KSTC 251040Z AUTO 35003KT 10SM OVC050 00/M03 A3031 670 78 -900 350/03 RMK AO2
14926KSTC STC20060325044510203/25/06 04:45:31  5-MIN KSTC 251045Z AUTO 35003KT 10SM OVC050 00/M03 A3031 670 78 -900 350/03 RMK AO2
14926KSTC STC20060325045012103/25/06 04:50:31  5-MIN KSTC 251050Z AUTO 33004KT 10SM OVC050 M01/M03 A3031 670 81 -1000 330/04 RMK AO2 SLP285 T10061033
14926KSTC STC20060325045510403/25/06 04:55:31  5-MIN KSTC 251055Z AUTO 32004KT 10SM OVC050 M01/M03 A3031 670 81 -1000 320/04 RMK AO2
14926KSTC STC20060325050010403/25/06 05:00:31  5-MIN KSTC 251100Z AUTO 31004KT 10SM OVC050 M01/M03 A3031 670 81 -1000 310/04 RMK AO2
14926KSTC STC20060325050510403/25/06 05:05:31  5-MIN KSTC 251105Z AUTO 34004KT 10SM OVC050 M01/M03 A3031 670 81 -1000 330/04 RMK AO2
14926KSTC STC20060325051010403/25/06 05:10:31  5-MIN KSTC 251110Z AUTO 35004KT 10SM OVC050 M01/M03 A3031 670 81 -1000 350/04 RMK AO2
14926KSTC STC20060325051510403/25/06 05:15:31  5-MIN KSTC 251115Z AUTO 01003KT 10SM OVC050 M01/M03 A3031 660 81 -1000 360/03 RMK AO2
14926KSTC STC20060325052010403/25/06 05:20:31  5-MIN KSTC 251120Z AUTO 01003KT 10SM OVC050 M01/M03 A3032 660 81 -1000 010/03 RMK AO2
14926KSTC STC20060325052510403/25/06 05:25:31  5-MIN KSTC 251125Z AUTO 36004KT 10SM OVC050 M01/M03 A3032 660 81 -1000 360/04 RMK AO2
14926KSTC STC20060325053010403/25/06 05:30:31  5-MIN KSTC 251130Z AUTO 01003KT 10SM OVC050 M01/M03 A3032 660 81 -1000 360/03 RMK AO2
14926KSTC STC20060325053510403/25/06 05:35:31  5-MIN KSTC 251135Z AUTO 35004KT 10SM OVC050 M01/M03 A3032 660 81 -1000 350/04 RMK AO2
14926KSTC STC20060325054010403/25/06 05:40:31  5-MIN KSTC 251140Z AUTO 35004KT 10SM OVC050 M01/M03 A3032 660 81 -1000 340/04 RMK AO2
14926KSTC STC20060325054510403/25/06 05:45:31  5-MIN KSTC 251145Z AUTO 34003KT 10SM OVC050 M01/M03 A3032 660 81 -1000 330/03 RMK AO2
14926KSTC STC20060325055013903/25/06 05:50:31  5-MIN KSTC 251150Z AUTO 33003KT 10SM OVC050 M01/M03 A3032 660 81 -1000 330/03 RMK AO2 SLP289 T10061033 10000 21006 50001
14926KSTC STC20060325055510403/25/06 05:55:31  5-MIN KSTC 251155Z AUTO 33003KT 10SM OVC050 M01/M03 A3032 660 81 -1000 330/03 RMK AO2
14926KSTC STC20060325060011103/25/06 06:00:31  5-MIN KSTC 251200Z AUTO 34003KT 10SM FEW036 OVC050 M01/M03 A3033 650 81 -1000 340/03 RMK AO2
14926KSTC STC20060325060511103/25/06 06:05:31  5-MIN KSTC 251205Z AUTO 34003KT 10SM FEW036 OVC050 M01/M03 A3033 650 81 -1000 340/03 RMK AO2
14926KSTC STC20060325061011103/25/06 06:10:31  5-MIN KSTC 251210Z AUTO 34003KT 10SM SCT036 OVC050 M01/M03 A3033 650 81 -1000 340/03 RMK AO2
14926KSTC STC20060325061511103/25/06 06:15:31  5-MIN KSTC 251215Z AUTO 34003KT 10SM BKN036 OVC050 M01/M03 A3033 650 81 -1000 340/03 RMK AO2
14926KSTC STC20060325062011103/25/06 06:20:31  5-MIN KSTC 251220Z AUTO 00000KT 10SM SCT036 OVC050 M01/M03 A3033 650 81 -1000 000/00 RMK AO2
14926KSTC STC20060325062511103/25/06 06:25:31  5-MIN KSTC 251225Z AUTO 00000KT 10SM SCT036 OVC050 M01/M03 A3033 650 81 -1000 000/00 RMK AO2
14926KSTC STC20060325063011103/25/06 06:30:31  5-MIN KSTC 251230Z AUTO 03003KT 10SM SCT036 OVC050 M01/M03 A3033 650 81 -1000 020/03 RMK AO2
14926KSTC STC20060325063511103/25/06 06:35:31  5-MIN KSTC 251235Z AUTO 01003KT 10SM FEW036 OVC048 M01/M03 A3033 650 81 -1000 360/03 RMK AO2
14926KSTC STC20060325064011103/25/06 06:40:31  5-MIN KSTC 251240Z AUTO 36003KT 10SM FEW034 OVC048 M01/M03 A3034 640 81 -1000 360/03 RMK AO2
14926KSTC STC20060325064509903/25/06 06:45:31  5-MIN KSTC 251245Z 36003KT 10SM OVC048 M01/M03 A3034 640 81 -1000 360/03 RMK AO2
14926KSTC STC20060325065011403/25/06 06:50:31  5-MIN KSTC 251250Z 01003KT 10SM OVC048 00/M03 A3034 640 78 -900 360/03 RMK AO2 SLP294 T00001033
14926KSTC STC20060325065509703/25/06 06:55:31  5-MIN KSTC 251255Z 36003KT 10SM OVC048 00/M03 A3034 640 78 -900 360/03 RMK AO2
14926KSTC STC20060325070009703/25/06 07:00:31  5-MIN KSTC 251300Z 00000KT 10SM OVC048 00/M03 A3034 640 78 -900 000/00 RMK AO2
14926KSTC STC20060325070509703/25/06 07:05:31  5-MIN KSTC 251305Z 03003KT 10SM OVC048 00/M03 A3034 640 78 -900 030/03 RMK AO2
14926KSTC STC20060325071009703/25/06 07:10:31  5-MIN KSTC 251310Z 04004KT 10SM OVC048 00/M03 A3034 640 78 -900 040/04 RMK AO2
14926KSTC STC20060325071509703/25/06 07:15:31  5-MIN KSTC 251315Z 03004KT 10SM OVC048 00/M03 A3034 640 78 -900 020/04 RMK AO2
14926KSTC STC20060325072009703/25/06 07:20:31  5-MIN KSTC 251320Z 02004KT 10SM OVC048 00/M04 A3034 640 75 -900 020/04 RMK AO2
14926KSTC STC20060325072509703/25/06 07:25:31  5-MIN KSTC 251325Z 01004KT 10SM OVC048 01/M04 A3034 640 72 -900 360/04 RMK AO2
14926KSTC STC20060325073009703/25/06 07:30:31  5-MIN KSTC 251330Z 36003KT 10SM OVC048 01/M03 A3034 640 75 -900 350/03 RMK AO2
14926KSTC STC20060325073509703/25/06 07:35:31  5-MIN KSTC 251335Z 36005KT 10SM OVC048 01/M04 A3034 640 72 -900 360/05 RMK AO2
14926KSTC STC20060325074009703/25/06 07:40:31  5-MIN KSTC 251340Z 35004KT 10SM OVC048 01/M04 A3034 640 72 -900 350/04 RMK AO2
14926KSTC STC20060325074509703/25/06 07:45:31  5-MIN KSTC 251345Z 35004KT 10SM OVC048 01/M04 A3034 640 72 -900 350/04 RMK AO2
14926KSTC STC20060325075011403/25/06 07:50:31  5-MIN KSTC 251350Z 36004KT 10SM OVC048 01/M04 A3034 640 72 -900 360/04 RMK AO2 SLP296 T00061039
14926KSTC STC20060325075509703/25/06 07:55:31  5-MIN KSTC 251355Z 36005KT 10SM OVC048 01/M04 A3034 640 72 -900 350/05 RMK AO2
14926KSTC STC20060325080009703/25/06 08:00:31  5-MIN KSTC 251400Z 34004KT 10SM OVC048 02/M03 A3034 640 69 -700 340/04 RMK AO2
14926KSTC STC20060325080509703/25/06 08:05:31  5-MIN KSTC 251405Z 35004KT 10SM OVC048 02/M03 A3034 640 69 -700 340/04 RMK AO2
14926KSTC STC20060325081009703/25/06 08:10:31  5-MIN KSTC 251410Z 34005KT 10SM OVC048 01/M04 A3034 640 69 -800 340/05 RMK AO2
14926KSTC STC20060325081509703/25/06 08:15:31  5-MIN KSTC 251415Z 36004KT 10SM OVC048 01/M04 A3035 640 69 -800 360/04 RMK AO2
14926KSTC STC20060325082009703/25/06 08:20:31  5-MIN KSTC 251420Z 01005KT 10SM BKN046 02/M04 A3035 630 66 -700 010/05 RMK AO2
14926KSTC STC20060325082509703/25/06 08:25:31  5-MIN KSTC 251425Z 36006KT 10SM BKN046 02/M04 A3035 630 66 -700 360/06 RMK AO2
14926KSTC STC20060325083009703/25/06 08:30:31  5-MIN KSTC 251430Z 36004KT 10SM OVC046 02/M04 A3035 630 66 -700 360/04 RMK AO2
14926KSTC STC20060325083509703/25/06 08:35:31  5-MIN KSTC 251435Z 36007KT 10SM OVC046 02/M04 A3035 630 66 -700 360/07 RMK AO2
14926KSTC STC20060325084009703/25/06 08:40:31  5-MIN KSTC 251440Z 01007KT 10SM OVC046 02/M04 A3034 640 64 -700 010/07 RMK AO2
14926KSTC STC20060325084509703/25/06 08:45:31  5-MIN KSTC 251445Z 01007KT 10SM OVC046 02/M04 A3035 640 66 -700 360/07 RMK AO2
14926KSTC STC20060325085012003/25/06 08:50:31  5-MIN KSTC 251450Z 02006KT 10SM OVC046 02/M04 A3035 640 64 -700 020/06 RMK AO2 SLP297 T00221039 53010
14926KSTC STC20060325085509703/25/06 08:55:31  5-MIN KSTC 251455Z 02006KT 10SM BKN046 03/M04 A3035 640 61 -600 020/06 RMK AO2
14926KSTC STC20060325090009703/25/06 09:00:31  5-MIN KSTC 251500Z 01006KT 10SM BKN046 03/M04 A3035 640 61 -600 010/06 RMK AO2
14926KSTC STC20060325090509703/25/06 09:05:31  5-MIN KSTC 251505Z 01006KT 10SM BKN046 03/M04 A3035 630 61 -600 010/06 RMK AO2
14926KSTC STC20060325091009703/25/06 09:10:31  5-MIN KSTC 251510Z 01006KT 10SM BKN046 03/M04 A3035 630 59 -600 010/06 RMK AO2
14926KSTC STC20060325091509703/25/06 09:15:31  5-MIN KSTC 251515Z 03004KT 10SM BKN046 03/M04 A3035 630 59 -600 030/04 RMK AO2
14926KSTC STC20060325092009703/25/06 09:20:31  5-MIN KSTC 251520Z VRB06KT 10SM BKN046 03/M04 A3035 630 57 -500 VRB/06 RMK AO2
14926KSTC STC20060325092509703/25/06 09:25:31  5-MIN KSTC 251525Z VRB05KT 10SM BKN046 03/M04 A3035 630 57 -500 VRB/05 RMK AO2
14926KSTC STC20060325093009703/25/06 09:30:31  5-MIN KSTC 251530Z VRB06KT 10SM OVC046 03/M04 A3035 630 57 -500 VRB/06 RMK AO2
14926KSTC STC20060325093509703/25/06 09:35:31  5-MIN KSTC 251535Z VRB04KT 10SM OVC046 03/M04 A3035 630 57 -500 VRB/04 RMK AO2
14926KSTC STC20060325094009703/25/06 09:40:31  5-MIN KSTC 251540Z VRB03KT 10SM OVC046 03/M04 A3035 630 57 -500 VRB/03 RMK AO2
14926KSTC STC20060325094509703/25/06 09:45:31  5-MIN KSTC 251545Z VRB04KT 10SM OVC046 03/M05 A3035 630 56 -600 VRB/04 RMK AO2
14926KSTC STC20060325095012103/25/06 09:50:31  5-MIN KSTC 251550Z VRB05KT 10SM FEW030 OVC046 03/M04 A3035 630 57 -500 VRB/05 RMK AO2 SLP297 T00331044
14926KSTC STC20060325095510403/25/06 09:55:31  5-MIN KSTC 251555Z VRB03KT 10SM FEW030 OVC046 04/M04 A3035 630 54 -500 VRB/03 RMK AO2
14926KSTC STC20060325100010403/25/06 10:00:31  5-MIN KSTC 251600Z VRB03KT 10SM FEW030 OVC046 03/M04 A3035 640 57 -500 VRB/03 RMK AO2
14926KSTC STC20060325100510403/25/06 10:05:31  5-MIN KSTC 251605Z 07005KT 10SM FEW030 OVC046 04/M04 A3035 640 54 -500 070/05 RMK AO2
14926KSTC STC20060325101010403/25/06 10:10:31  5-MIN KSTC 251610Z VRB03KT 10SM FEW030 OVC046 03/M04 A3035 630 57 -500 VRB/03 RMK AO2
14926KSTC STC20060325101510403/25/06 10:15:31  5-MIN KSTC 251615Z 00000KT 10SM FEW030 OVC046 04/M04 A3035 630 54 -500 000/00 RMK AO2
14926KSTC STC20060325102009703/25/06 10:20:31  5-MIN KSTC 251620Z VRB03KT 10SM OVC046 04/M05 A3035 630 52 -500 VRB/03 RMK AO2
14926KSTC STC20060325102509703/25/06 10:25:31  5-MIN KSTC 251625Z 00000KT 10SM OVC046 04/M05 A3035 640 52 -500 000/00 RMK AO2
14926KSTC STC20060325103009703/25/06 10:30:31  5-MIN KSTC 251630Z VRB03KT 10SM OVC046 03/M05 A3035 640 54 -500 VRB/03 RMK AO2
14926KSTC STC20060325103509703/25/06 10:35:31  5-MIN KSTC 251635Z 15003KT 10SM OVC046 03/M05 A3034 640 54 -500 150/03 RMK AO2
14926KSTC STC20060325104009703/25/06 10:40:31  5-MIN KSTC 251640Z 01003KT 10SM OVC046 03/M05 A3034 640 54 -500 010/03 RMK AO2
14926KSTC STC20060325104509703/25/06 10:45:31  5-MIN KSTC 251645Z 32004KT 10SM OVC044 04/M04 A3034 640 54 -500 310/04 RMK AO2
14926KSTC STC20060325105011403/25/06 10:50:31  5-MIN KSTC 251650Z 36006KT 10SM OVC044 04/M04 A3035 640 54 -500 360/06 RMK AO2 SLP296 T00391044
14926KSTC STC20060325105509703/25/06 10:55:31  5-MIN KSTC 251655Z 36005KT 10SM OVC042 04/M04 A3035 640 54 -500 350/05 RMK AO2
14926KSTC STC20060325110009703/25/06 11:00:31  5-MIN KSTC 251700Z 01003KT 10SM OVC042 03/M04 A3035 630 57 -500 010/03 RMK AO2
14926KSTC STC20060325110509703/25/06 11:05:31  5-MIN KSTC 251705Z VRB03KT 10SM OVC042 04/M04 A3035 640 54 -500 VRB/03 RMK AO2
14926KSTC STC20060325111009703/25/06 11:10:31  5-MIN KSTC 251710Z 33003KT 10SM OVC042 04/M04 A3035 640 54 -500 330/03 RMK AO2
14926KSTC STC20060325111509703/25/06 11:15:31  5-MIN KSTC 251715Z VRB03KT 10SM OVC042 04/M04 A3035 640 54 -500 VRB/03 RMK AO2
14926KSTC STC20060325112009703/25/06 11:20:31  5-MIN KSTC 251720Z 34005KT 10SM OVC042 04/M05 A3035 630 52 -500 340/05 RMK AO2
14926KSTC STC20060325112509703/25/06 11:25:31  5-MIN KSTC 251725Z 34004KT 10SM OVC040 04/M05 A3035 640 52 -500 340/04 RMK AO2
14926KSTC STC20060325113009703/25/06 11:30:31  5-MIN KSTC 251730Z 32004KT 10SM OVC040 03/M05 A3034 640 54 -500 320/04 RMK AO2
14926KSTC STC20060325113509703/25/06 11:35:31  5-MIN KSTC 251735Z 33004KT 10SM OVC040 04/M05 A3034 640 52 -500 330/04 RMK AO2
14926KSTC STC20060325114009703/25/06 11:40:31  5-MIN KSTC 251740Z 01004KT 10SM OVC040 03/M05 A3034 640 54 -500 360/04 RMK AO2
14926KSTC STC20060325114509703/25/06 11:45:31  5-MIN KSTC 251745Z 00000KT 10SM OVC040 04/M05 A3034 640 52 -500 000/00 RMK AO2
14926KSTC STC20060325115013203/25/06 11:50:31  5-MIN KSTC 251750Z 00000KT 10SM OVC040 04/M05 A3034 640 52 -500 000/00 RMK AO2 SLP294 T00391050 10039 21006 51007
14926KSTC STC20060325115509703/25/06 11:55:31  5-MIN KSTC 251755Z 00000KT 10SM OVC040 03/M05 A3034 640 54 -500 000/00 RMK AO2
14926KSTC STC20060325120009703/25/06 12:00:31  5-MIN KSTC 251800Z VRB03KT 10SM OVC040 03/M05 A3034 640 54 -500 VRB/03 RMK AO2
14926KSTC STC20060325120509703/25/06 12:05:31  5-MIN KSTC 251805Z 17004KT 10SM OVC040 04/M05 A3034 640 52 -500 160/04 RMK AO2
14926KSTC STC20060325121009703/25/06 12:10:31  5-MIN KSTC 251810Z VRB03KT 10SM OVC040 04/M05 A3034 640 52 -500 VRB/03 RMK AO2
14926KSTC STC20060325121509703/25/06 12:15:31  5-MIN KSTC 251815Z VRB03KT 10SM OVC040 04/M05 A3034 640 52 -500 VRB/03 RMK AO2
14926KSTC STC20060325122009703/25/06 12:20:31  5-MIN KSTC 251820Z VRB03KT 10SM OVC040 04/M05 A3034 640 50 -400 VRB/03 RMK AO2
14926KSTC STC20060325122509703/25/06 12:25:31  5-MIN KSTC 251825Z 00000KT 10SM OVC040 04/M05 A3033 650 50 -400 000/00 RMK AO2
14926KSTC STC20060325123009703/25/06 12:30:31  5-MIN KSTC 251830Z 00000KT 10SM OVC040 04/M05 A3033 650 50 -400 000/00 RMK AO2
14926KSTC STC20060325123509703/25/06 12:35:31  5-MIN KSTC 251835Z VRB03KT 10SM OVC040 04/M05 A3033 650 50 -400 VRB/03 RMK AO2
14926KSTC STC20060325124009703/25/06 12:40:31  5-MIN KSTC 251840Z 20003KT 10SM OVC040 04/M05 A3033 650 52 -500 200/03 RMK AO2
14926KSTC STC20060325124509703/25/06 12:45:31  5-MIN KSTC 251845Z 21004KT 10SM OVC040 04/M05 A3033 650 52 -500 210/04 RMK AO2
14926KSTC STC20060325125011403/25/06 12:50:31  5-MIN KSTC 251850Z 00000KT 10SM OVC040 04/M05 A3033 650 52 -500 000/00 RMK AO2 SLP292 T00391050
14926KSTC STC20060325125509703/25/06 12:55:31  5-MIN KSTC 251855Z 00000KT 10SM OVC040 04/M06 A3033 650 50 -500 000/00 RMK AO2
14926KSTC STC20060325130009703/25/06 13:00:31  5-MIN KSTC 251900Z 24004KT 10SM OVC040 04/M05 A3033 650 52 -500 240/04 RMK AO2
14926KSTC STC20060325130509703/25/06 13:05:31  5-MIN KSTC 251905Z 00000KT 10SM OVC040 04/M05 A3033 650 52 -500 000/00 RMK AO2
14926KSTC STC20060325131009703/25/06 13:10:31  5-MIN KSTC 251910Z 18003KT 10SM OVC040 04/M05 A3033 650 52 -500 170/03 RMK AO2
14926KSTC STC20060325131509703/25/06 13:15:31  5-MIN KSTC 251915Z 22003KT 10SM OVC040 04/M05 A3033 650 50 -400 210/03 RMK AO2
14926KSTC STC20060325132009703/25/06 13:20:31  5-MIN KSTC 251920Z 19004KT 10SM OVC040 04/M05 A3033 650 52 -500 180/04 RMK AO2
14926KSTC STC20060325132509703/25/06 13:25:31  5-MIN KSTC 251925Z 00000KT 10SM OVC040 04/M06 A3033 650 50 -500 000/00 RMK AO2
14926KSTC STC20060325133009703/25/06 13:30:31  5-MIN KSTC 251930Z 00000KT 10SM OVC040 04/M06 A3033 650 50 -500 000/00 RMK AO2
14926KSTC STC20060325133509703/25/06 13:35:31  5-MIN KSTC 251935Z 00000KT 10SM OVC042 04/M06 A3033 650 50 -400 000/00 RMK AO2
14926KSTC STC20060325134009703/25/06 13:40:31  5-MIN KSTC 251940Z 00000KT 10SM OVC042 04/M06 A3033 650 48 -400 000/00 RMK AO2
14926KSTC STC20060325134509703/25/06 13:45:31  5-MIN KSTC 251945Z 00000KT 10SM OVC042 04/M06 A3033 650 50 -400 000/00 RMK AO2
14926KSTC STC20060325135011403/25/06 13:50:31  5-MIN KSTC 251950Z 00000KT 10SM OVC042 04/M06 A3032 650 50 -400 000/00 RMK AO2 SLP289 T00391056
14926KSTC STC20060325135509703/25/06 13:55:31  5-MIN KSTC 251955Z 29004KT 10SM OVC042 04/M06 A3032 660 48 -400 280/04 RMK AO2
14926KSTC STC20060325140009703/25/06 14:00:31  5-MIN KSTC 252000Z 29004KT 10SM OVC042 04/M05 A3032 660 50 -400 290/04 RMK AO2
14926KSTC STC20060325140509703/25/06 14:05:31  5-MIN KSTC 252005Z 27003KT 10SM OVC042 04/M05 A3032 660 50 -400 270/03 RMK AO2
14926KSTC STC20060325141009703/25/06 14:10:31  5-MIN KSTC 252010Z 28003KT 10SM OVC042 04/M06 A3032 660 48 -400 280/03 RMK AO2
14926KSTC STC20060325141509703/25/06 14:15:31  5-MIN KSTC 252015Z 00000KT 10SM OVC042 04/M05 A3032 660 52 -400 000/00 RMK AO2
14926KSTC STC20060325142009703/25/06 14:20:31  5-MIN KSTC 252020Z 32005KT 10SM OVC042 04/M05 A3032 660 52 -400 310/05 RMK AO2
14926KSTC STC20060325142509703/25/06 14:25:31  5-MIN KSTC 252025Z VRB03KT 10SM OVC042 04/M05 A3032 660 50 -400 VRB/03 RMK AO2
14926KSTC STC20060325143009703/25/06 14:30:31  5-MIN KSTC 252030Z VRB03KT 10SM OVC040 04/M05 A3032 660 50 -400 VRB/03 RMK AO2
14926KSTC STC20060325143509703/25/06 14:35:31  5-MIN KSTC 252035Z VRB03KT 10SM OVC040 04/M04 A3032 660 52 -400 VRB/03 RMK AO2
14926KSTC STC20060325144009703/25/06 14:40:31  5-MIN KSTC 252040Z 26003KT 10SM OVC040 04/M05 A3032 660 52 -400 260/03 RMK AO2
14926KSTC STC20060325144509703/25/06 14:45:31  5-MIN KSTC 252045Z 26005KT 10SM OVC040 04/M05 A3032 660 50 -400 260/05 RMK AO2
14926KSTC STC20060325145012003/25/06 14:50:31  5-MIN KSTC 252050Z 27004KT 10SM OVC040 04/M05 A3032 660 50 -400 260/04 RMK AO2 SLP287 T00441050 58001
14926KSTC STC20060325145509703/25/06 14:55:31  5-MIN KSTC 252055Z VRB04KT 10SM OVC040 04/M05 A3032 660 50 -400 VRB/04 RMK AO2
14926KSTC STC20060325150009703/25/06 15:00:31  5-MIN KSTC 252100Z 31006KT 10SM OVC040 04/M04 A3032 660 52 -400 300/06 RMK AO2
14926KSTC STC20060325150509703/25/06 15:05:31  5-MIN KSTC 252105Z 30004KT 10SM OVC042 04/M05 A3032 660 52 -400 300/04 RMK AO2
14926KSTC STC20060325151009703/25/06 15:10:31  5-MIN KSTC 252110Z 31004KT 10SM OVC042 04/M05 A3032 660 50 -400 300/04 RMK AO2
14926KSTC STC20060325151509703/25/06 15:15:31  5-MIN KSTC 252115Z VRB04KT 10SM OVC042 04/M04 A3032 660 54 -400 VRB/04 RMK AO2
14926KSTC STC20060325152009703/25/06 15:20:31  5-MIN KSTC 252120Z 29006KT 10SM OVC042 04/M04 A3032 660 52 -400 280/06 RMK AO2
14926KSTC STC20060325152509703/25/06 15:25:31  5-MIN KSTC 252125Z 30006KT 10SM OVC042 04/M04 A3031 660 54 -400 300/06 RMK AO2
14926KSTC STC20060325153009703/25/06 15:30:31  5-MIN KSTC 252130Z 29005KT 10SM OVC042 04/M04 A3031 660 54 -400 290/05 RMK AO2
14926KSTC STC20060325153509703/25/06 15:35:31  5-MIN KSTC 252135Z 28005KT 10SM OVC042 04/M04 A3031 670 54 -400 280/05 RMK AO2
14926KSTC STC20060325154009703/25/06 15:40:31  5-MIN KSTC 252140Z 29006KT 10SM OVC042 04/M04 A3031 670 54 -400 290/06 RMK AO2
14926KSTC STC20060325154510203/25/06 15:45:31  5-MIN KSTC 252145Z AUTO 31006KT 10SM OVC042 04/M04 A3031 670 57 -400 310/06 RMK AO2
14926KSTC STC20060325155011903/25/06 15:50:31  5-MIN KSTC 252150Z AUTO 32005KT 10SM OVC042 04/M04 A3031 670 57 -400 320/05 RMK AO2 SLP284 T00391039
14926KSTC STC20060325155510203/25/06 15:55:31  5-MIN KSTC 252155Z AUTO 32006KT 10SM OVC042 04/M04 A3031 670 57 -400 310/06 RMK AO2
14926KSTC STC20060325160010203/25/06 16:00:31  5-MIN KSTC 252200Z AUTO 31006KT 10SM OVC042 04/M04 A3031 670 54 -400 310/06 RMK AO2
14926KSTC STC20060325160510203/25/06 16:05:31  5-MIN KSTC 252205Z AUTO 31006KT 10SM OVC042 04/M04 A3031 670 57 -400 310/06 RMK AO2
14926KSTC STC20060325161010203/25/06 16:10:31  5-MIN KSTC 252210Z AUTO 32006KT 10SM OVC042 04/M04 A3031 670 57 -400 320/06 RMK AO2
14926KSTC STC20060325161510203/25/06 16:15:31  5-MIN KSTC 252215Z AUTO VRB05KT 10SM OVC044 04/M04 A3031 670 54 -400 VRB/05 RMK AO2
14926KSTC STC20060325162010903/25/06 16:20:31  5-MIN KSTC 252220Z AUTO 33006KT 10SM SCT036 OVC044 04/M04 A3031 670 55 -400 330/06 RMK AO2
14926KSTC STC20060325162510203/25/06 16:25:31  5-MIN KSTC 252225Z AUTO 32006KT 10SM OVC041 04/M04 A3030 670 57 -400 320/06 RMK AO2
14926KSTC STC20060325163010203/25/06 16:30:31  5-MIN KSTC 252230Z AUTO 31007KT 10SM OVC041 04/M04 A3030 670 57 -400 300/07 RMK AO2
14926KSTC STC20060325163510203/25/06 16:35:31  5-MIN KSTC 252235Z AUTO 32008KT 10SM OVC041 04/M03 A3030 670 59 -400 320/08 RMK AO2
14926KSTC STC20060325164010203/25/06 16:40:31  5-MIN KSTC 252240Z AUTO 32006KT 10SM OVC041 04/M04 A3030 670 57 -400 320/06 RMK AO2
14926KSTC STC20060325164510203/25/06 16:45:31  5-MIN KSTC 252245Z AUTO 33006KT 10SM OVC041 03/M04 A3030 680 59 -500 330/06 RMK AO2
14926KSTC STC20060325165011903/25/06 16:50:31  5-MIN KSTC 252250Z AUTO 34005KT 10SM OVC041 04/M04 A3030 680 57 -400 330/05 RMK AO2 SLP282 T00391039
14926KSTC STC20060325165510203/25/06 16:55:31  5-MIN KSTC 252255Z AUTO 33005KT 10SM OVC039 04/M04 A3030 680 57 -400 330/05 RMK AO2
14926KSTC STC20060325170010203/25/06 17:00:31  5-MIN KSTC 252300Z AUTO 33004KT 10SM OVC041 04/M04 A3030 680 57 -400 330/04 RMK AO2
14926KSTC STC20060325170510203/25/06 17:05:31  5-MIN KSTC 252305Z AUTO 33006KT 10SM OVC041 03/M04 A3030 680 59 -500 330/06 RMK AO2
14926KSTC STC20060325171010203/25/06 17:10:31  5-MIN KSTC 252310Z AUTO 33004KT 10SM OVC041 03/M04 A3029 680 59 -500 320/04 RMK AO2
14926KSTC STC20060325171510203/25/06 17:15:31  5-MIN KSTC 252315Z AUTO 33004KT 10SM OVC043 04/M04 A3029 680 57 -400 330/04 RMK AO2
14926KSTC STC20060325172010203/25/06 17:20:31  5-MIN KSTC 252320Z AUTO 33005KT 10SM OVC043 03/M04 A3029 680 59 -500 330/05 RMK AO2
14926KSTC STC20060325172510203/25/06 17:25:31  5-MIN KSTC 252325Z AUTO 33006KT 10SM OVC043 03/M04 A3029 690 59 -500 330/06 RMK AO2
14926KSTC STC20060325173010203/25/06 17:30:31  5-MIN KSTC 252330Z AUTO 33005KT 10SM OVC043 03/M04 A3029 690 59 -500 320/05 RMK AO2
14926KSTC STC20060325173510203/25/06 17:35:31  5-MIN KSTC 252335Z AUTO 32005KT 10SM OVC043 03/M04 A3029 690 59 -500 320/05 RMK AO2
14926KSTC STC20060325174010203/25/06 17:40:31  5-MIN KSTC 252340Z AUTO 33004KT 10SM OVC043 03/M04 A3029 690 59 -500 330/04 RMK AO2
14926KSTC STC20060325174510203/25/06 17:45:31  5-MIN KSTC 252345Z AUTO 34004KT 10SM OVC043 03/M04 A3029 690 59 -500 340/04 RMK AO2
14926KSTC STC20060325175013703/25/06 17:50:31  5-MIN KSTC 252350Z AUTO 35003KT 10SM OVC043 03/M04 A3029 690 59 -500 340/03 RMK AO2 SLP277 T00331039 10044 20033 56007
14926KSTC STC20060325175510203/25/06 17:55:31  5-MIN KSTC 252355Z AUTO 00000KT 10SM OVC043 03/M04 A3029 690 59 -500 000/00 RMK AO2
14926KSTC STC20060325180010203/25/06 18:00:31  5-MIN KSTC 260000Z AUTO 34003KT 10SM OVC043 03/M04 A3029 690 59 -500 340/03 RMK AO2
14926KSTC STC20060325180510203/25/06 18:05:31  5-MIN KSTC 260005Z AUTO 00000KT 10SM OVC043 03/M03 A3029 690 61 -500 000/00 RMK AO2
14926KSTC STC20060325181010203/25/06 18:10:31  5-MIN KSTC 260010Z AUTO 00000KT 10SM OVC043 03/M03 A3029 690 64 -500 000/00 RMK AO2
14926KSTC STC20060325181510203/25/06 18:15:31  5-MIN KSTC 260015Z AUTO 36003KT 10SM OVC041 03/M03 A3028 690 64 -500 350/03 RMK AO2
14926KSTC STC20060325182010203/25/06 18:20:31  5-MIN KSTC 260020Z AUTO 00000KT 10SM OVC041 03/M03 A3028 690 64 -500 000/00 RMK AO2
14926KSTC STC20060325182510203/25/06 18:25:31  5-MIN KSTC 260025Z AUTO 36003KT 10SM OVC041 03/M03 A3028 690 64 -500 360/03 RMK AO2
14926KSTC STC20060325183010203/25/06 18:30:31  5-MIN KSTC 260030Z AUTO 00000KT 10SM OVC041 03/M03 A3028 690 64 -500 000/00 RMK AO2
14926KSTC STC20060325183510203/25/06 18:35:31  5-MIN KSTC 260035Z AUTO 35003KT 10SM OVC041 03/M04 A3028 690 61 -500 350/03 RMK AO2
14926KSTC STC20060325184010203/25/06 18:40:31  5-MIN KSTC 260040Z AUTO 34003KT 10SM OVC041 03/M04 A3028 700 61 -500 330/03 RMK AO2
14926KSTC STC20060325184510203/25/06 18:45:31  5-MIN KSTC 260045Z AUTO 00000KT 10SM OVC041 03/M04 A3028 700 61 -500 000/00 RMK AO2
14926KSTC STC20060325185011903/25/06 18:50:31  5-MIN KSTC 260050Z AUTO 00000KT 10SM OVC041 03/M04 A3028 700 61 -500 000/00 RMK AO2 SLP273 T00281039
14926KSTC STC20060325185510203/25/06 18:55:31  5-MIN KSTC 260055Z AUTO 00000KT 10SM OVC041 03/M04 A3028 700 61 -500 000/00 RMK AO2
14926KSTC STC20060325190010203/25/06 19:00:31  5-MIN KSTC 260100Z AUTO 00000KT 10SM OVC041 03/M04 A3028 700 61 -500 000/00 RMK AO2
14926KSTC STC20060325190510203/25/06 19:05:31  5-MIN KSTC 260105Z AUTO 00000KT 10SM OVC041 03/M04 A3028 700 59 -500 000/00 RMK AO2
14926KSTC STC20060325191010203/25/06 19:10:31  5-MIN KSTC 260110Z AUTO 00000KT 10SM OVC041 03/M04 A3028 700 59 -500 000/00 RMK AO2
14926KSTC STC20060325191510203/25/06 19:15:31  5-MIN KSTC 260115Z AUTO 00000KT 10SM OVC041 03/M04 A3028 700 59 -500 000/00 RMK AO2
14926KSTC STC20060325192010203/25/06 19:20:31  5-MIN KSTC 260120Z AUTO 00000KT 10SM OVC041 02/M04 A3028 700 64 -600 000/00 RMK AO2
14926KSTC STC20060325192510203/25/06 19:25:31  5-MIN KSTC 260125Z AUTO 00000KT 10SM OVC041 03/M04 A3028 700 59 -500 000/00 RMK AO2
14926KSTC STC20060325193010203/25/06 19:30:31  5-MIN KSTC 260130Z AUTO 01003KT 10SM OVC041 03/M04 A3028 700 61 -500 360/03 RMK AO2
14926KSTC STC20060325193510203/25/06 19:35:31  5-MIN KSTC 260135Z AUTO 01003KT 10SM OVC041 02/M04 A3027 700 64 -600 010/03 RMK AO2
14926KSTC STC20060325194010203/25/06 19:40:31  5-MIN KSTC 260140Z AUTO 00000KT 10SM OVC041 02/M04 A3027 700 64 -600 000/00 RMK AO2
14926KSTC STC20060325194510203/25/06 19:45:31  5-MIN KSTC 260145Z AUTO 09003KT 10SM OVC041 02/M04 A3027 700 64 -600 090/03 RMK AO2
14926KSTC STC20060325195011903/25/06 19:50:31  5-MIN KSTC 260150Z AUTO 00000KT 10SM OVC041 02/M04 A3027 700 64 -600 000/00 RMK AO2 SLP272 T00221039
14926KSTC STC20060325195510203/25/06 19:55:31  5-MIN KSTC 260155Z AUTO 00000KT 10SM OVC041 02/M04 A3027 700 64 -600 000/00 RMK AO2
14926KSTC STC20060325200010203/25/06 20:00:31  5-MIN KSTC 260200Z AUTO 07004KT 10SM OVC041 02/M04 A3027 700 66 -700 060/04 RMK AO2
14926KSTC STC20060325200510203/25/06 20:05:31  5-MIN KSTC 260205Z AUTO 05003KT 10SM OVC039 02/M04 A3027 700 64 -600 040/03 RMK AO2
14926KSTC STC20060325201010203/25/06 20:10:31  5-MIN KSTC 260210Z AUTO 00000KT 10SM OVC039 02/M04 A3028 700 64 -600 000/00 RMK AO2
14926KSTC STC20060325201510203/25/06 20:15:31  5-MIN KSTC 260215Z AUTO 00000KT 10SM OVC039 03/M04 A3028 700 59 -500 000/00 RMK AO2
14926KSTC STC20060325202010203/25/06 20:20:31  5-MIN KSTC 260220Z AUTO 00000KT 10SM OVC039 02/M04 A3028 700 64 -600 000/00 RMK AO2
14926KSTC STC20060325202510203/25/06 20:25:31  5-MIN KSTC 260225Z AUTO 00000KT 10SM OVC039 02/M04 A3028 700 64 -700 000/00 RMK AO2
14926KSTC STC20060325203010203/25/06 20:30:31  5-MIN KSTC 260230Z AUTO 00000KT 10SM OVC039 03/M04 A3028 700 59 -500 000/00 RMK AO2
14926KSTC STC20060325203510203/25/06 20:35:31  5-MIN KSTC 260235Z AUTO VRB03KT 10SM OVC039 02/M04 A3028 700 61 -600 VRB/03 RMK AO2
14926KSTC STC20060325204010203/25/06 20:40:31  5-MIN KSTC 260240Z AUTO 00000KT 10SM OVC039 02/M04 A3028 700 66 -700 000/00 RMK AO2
14926KSTC STC20060325204510203/25/06 20:45:31  5-MIN KSTC 260245Z AUTO 00000KT 10SM OVC039 02/M04 A3028 700 61 -600 000/00 RMK AO2
14926KSTC STC20060325205012503/25/06 20:50:31  5-MIN KSTC 260250Z AUTO 05003KT 10SM OVC039 02/M04 A3028 700 66 -700 040/03 RMK AO2 SLP272 T00171039 58010
14926KSTC STC20060325205510203/25/06 20:55:31  5-MIN KSTC 260255Z AUTO 08003KT 10SM OVC039 01/M04 A3028 700 69 -700 080/03 RMK AO2
14926KSTC STC20060325210010203/25/06 21:00:31  5-MIN KSTC 260300Z AUTO 05003KT 10SM OVC039 02/M03 A3028 700 69 -700 050/03 RMK AO2
14926KSTC STC20060325210510203/25/06 21:05:31  5-MIN KSTC 260305Z AUTO 00000KT 10SM OVC039 02/M04 A3028 700 61 -600 000/00 RMK AO2
14926KSTC STC20060325211010203/25/06 21:10:31  5-MIN KSTC 260310Z AUTO 00000KT 10SM OVC039 02/M04 A3028 700 61 -600 000/00 RMK AO2
14926KSTC STC20060325211510203/25/06 21:15:31  5-MIN KSTC 260315Z AUTO 00000KT 10SM OVC039 02/M04 A3028 700 66 -700 000/00 RMK AO2
14926KSTC STC20060325212010203/25/06 21:20:31  5-MIN KSTC 260320Z AUTO 00000KT 10SM OVC039 02/M04 A3028 700 66 -700 000/00 RMK AO2
14926KSTC STC20060325212510203/25/06 21:25:31  5-MIN KSTC 260325Z AUTO 20003KT 10SM OVC041 01/M03 A3028 700 72 -700 200/03 RMK AO2
14926KSTC STC20060325213010203/25/06 21:30:31  5-MIN KSTC 260330Z AUTO 00000KT 10SM OVC041 02/M03 A3028 700 69 -700 000/00 RMK AO2
14926KSTC STC20060325213510203/25/06 21:35:31  5-MIN KSTC 260335Z AUTO 00000KT 10SM OVC041 02/M03 A3028 700 69 -700 000/00 RMK AO2
14926KSTC STC20060325214010203/25/06 21:40:31  5-MIN KSTC 260340Z AUTO 00000KT 10SM OVC041 01/M03 A3028 700 72 -700 000/00 RMK AO2
14926KSTC STC20060325214510203/25/06 21:45:31  5-MIN KSTC 260345Z AUTO 00000KT 10SM OVC041 01/M03 A3028 700 72 -700 000/00 RMK AO2
14926KSTC STC20060325215011903/25/06 21:50:31  5-MIN KSTC 260350Z AUTO 00000KT 10SM OVC041 02/M04 A3028 700 66 -700 000/00 RMK AO2 SLP272 T00171039
14926KSTC STC20060325215510203/25/06 21:55:31  5-MIN KSTC 260355Z AUTO 00000KT 10SM OVC041 01/M04 A3028 700 69 -700 000/00 RMK AO2
14926KSTC STC20060325220010203/25/06 22:00:31  5-MIN KSTC 260400Z AUTO 00000KT 10SM OVC041 02/M04 A3028 700 64 -700 000/00 RMK AO2
14926KSTC STC20060325220510203/25/06 22:05:31  5-MIN KSTC 260405Z AUTO 00000KT 10SM OVC041 01/M04 A3028 700 66 -700 000/00 RMK AO2
14926KSTC STC20060325221010203/25/06 22:10:31  5-MIN KSTC 260410Z AUTO 00000KT 10SM OVC041 01/M04 A3027 700 69 -700 000/00 RMK AO2
14926KSTC STC20060325221510203/25/06 22:15:31  5-MIN KSTC 260415Z AUTO 00000KT 10SM OVC041 01/M04 A3027 700 66 -700 000/00 RMK AO2
14926KSTC STC20060325222010203/25/06 22:20:31  5-MIN KSTC 260420Z AUTO 00000KT 10SM OVC041 01/M03 A3027 700 75 -800 000/00 RMK AO2
14926KSTC STC20060325222510203/25/06 22:25:31  5-MIN KSTC 260425Z AUTO 00000KT 10SM OVC041 01/M04 A3027 700 72 -800 000/00 RMK AO2
14926KSTC STC20060325223010203/25/06 22:30:31  5-MIN KSTC 260430Z AUTO 00000KT 10SM OVC041 01/M04 A3027 700 66 -700 000/00 RMK AO2
14926KSTC STC20060325223510203/25/06 22:35:31  5-MIN KSTC 260435Z AUTO 00000KT 10SM OVC041 01/M03 A3027 700 72 -700 000/00 RMK AO2
14926KSTC STC20060325224010203/25/06 22:40:31  5-MIN KSTC 260440Z AUTO 00000KT 10SM OVC041 01/M03 A3027 700 78 -800 000/00 RMK AO2
14926KSTC STC20060325224510203/25/06 22:45:31  5-MIN KSTC 260445Z AUTO 00000KT 10SM OVC041 01/M03 A3027 700 75 -800 000/00 RMK AO2
14926KSTC STC20060325225011903/25/06 22:50:31  5-MIN KSTC 260450Z AUTO 00000KT 10SM OVC041 01/M03 A3027 700 75 -800 000/00 RMK AO2 SLP271 T00061033
14926KSTC STC20060325225510203/25/06 22:55:31  5-MIN KSTC 260455Z AUTO 00000KT 10SM OVC041 01/M03 A3027 700 75 -800 000/00 RMK AO2
14926KSTC STC20060325230010203/25/06 23:00:31  5-MIN KSTC 260500Z AUTO 15003KT 10SM OVC041 01/M03 A3027 700 75 -800 150/03 RMK AO2
14926KSTC STC20060325230510203/25/06 23:05:31  5-MIN KSTC 260505Z AUTO 00000KT 10SM OVC041 01/M04 A3027 700 69 -700 000/00 RMK AO2
14926KSTC STC20060325231010203/25/06 23:10:31  5-MIN KSTC 260510Z AUTO 00000KT 10SM OVC039 01/M04 A3027 700 72 -800 000/00 RMK AO2
14926KSTC STC20060325231510203/25/06 23:15:31  5-MIN KSTC 260515Z AUTO 00000KT 10SM OVC039 01/M03 A3027 700 75 -800 000/00 RMK AO2
14926KSTC STC20060325232010203/25/06 23:20:31  5-MIN KSTC 260520Z AUTO 00000KT 10SM OVC039 01/M04 A3027 700 72 -800 000/00 RMK AO2
14926KSTC STC20060325232510203/25/06 23:25:31  5-MIN KSTC 260525Z AUTO 00000KT 10SM OVC039 01/M04 A3027 700 72 -800 000/00 RMK AO2
14926KSTC STC20060325233010203/25/06 23:30:31  5-MIN KSTC 260530Z AUTO 16003KT 10SM OVC039 00/M03 A3027 700 81 -900 160/03 RMK AO2
14926KSTC STC20060325233510203/25/06 23:35:31  5-MIN KSTC 260535Z AUTO 00000KT 10SM OVC039 01/M03 A3027 700 75 -800 000/00 RMK AO2
14926KSTC STC20060325234010203/25/06 23:40:31  5-MIN KSTC 260540Z AUTO 00000KT 10SM OVC039 01/M03 A3027 710 75 -800 000/00 RMK AO2
14926KSTC STC20060325234510203/25/06 23:45:31  5-MIN KSTC 260545Z AUTO 00000KT 10SM OVC039 01/M03 A3027 710 75 -800 000/00 RMK AO2
14926KSTC STC20060325235014703/25/06 23:50:31  5-MIN KSTC 260550Z AUTO 00000KT 10SM OVC041 01/M03 A3027 710 75 -800 000/00 RMK AO2 SLP269 T00061033 10033 20000 400441006 55003
14926KSTC STC20060325235510203/25/06 23:55:31  5-MIN KSTC 260555Z AUTO 00000KT 10SM OVC041 01/M04 A3027 710 69 -700 000/00 RMK AO2
14926KSTC STC20060326000010203/26/06 00:00:32  5-MIN KSTC 260600Z AUTO 00000KT 10SM OVC041 01/M04 A3027 710 72 -800 000/00 RMK AO2
14926KSTC STC20060326000510203/26/06 00:05:31  5-MIN KSTC 260605Z AUTO 00000KT 10SM OVC041 01/M04 A3027 710 69 -700 000/00 RMK AO2
14926KSTC STC20060326001010203/26/06 00:10:31  5-MIN KSTC 260610Z AUTO 12003KT 10SM OVC041 01/M03 A3027 710 75 -800 120/03 RMK AO2
14926KSTC STC20060326001510203/26/06 00:15:31  5-MIN KSTC 260615Z AUTO 00000KT 10SM OVC041 01/M03 A3027 710 75 -800 000/00 RMK AO2
14926KSTC STC20060326002010203/26/06 00:20:31  5-MIN KSTC 260620Z AUTO 13003KT 10SM OVC041 01/M03 A3026 710 75 -800 130/03 RMK AO2
14926KSTC STC20060326002510203/26/06 00:25:31  5-MIN KSTC 260625Z AUTO 13003KT 10SM OVC041 01/M03 A3026 710 78 -800 130/03 RMK AO2
14926KSTC STC20060326003010203/26/06 00:30:31  5-MIN KSTC 260630Z AUTO 00000KT 10SM OVC041 01/M03 A3026 710 75 -800 000/00 RMK AO2
14926KSTC STC20060326003510203/26/06 00:35:31  5-MIN KSTC 260635Z AUTO 00000KT 10SM OVC041 01/M03 A3026 710 75 -800 000/00 RMK AO2
14926KSTC STC20060326004010203/26/06 00:40:31  5-MIN KSTC 260640Z AUTO 14003KT 10SM OVC041 01/M03 A3026 710 75 -800 130/03 RMK AO2
14926KSTC STC20060326004510203/26/06 00:45:31  5-MIN KSTC 260645Z AUTO 15003KT 10SM OVC041 01/M03 A3026 710 75 -800 150/03 RMK AO2
14926KSTC STC20060326005011903/26/06 00:50:31  5-MIN KSTC 260650Z AUTO 14004KT 10SM OVC041 00/M03 A3026 710 81 -900 140/04 RMK AO2 SLP267 T00001028
14926KSTC STC20060326005510203/26/06 00:55:31  5-MIN KSTC 260655Z AUTO 14003KT 10SM OVC041 00/M03 A3026 710 81 -900 130/03 RMK AO2
14926KSTC STC20060326010010203/26/06 01:00:31  5-MIN KSTC 260700Z AUTO 13003KT 10SM OVC041 01/M03 A3026 710 75 -800 130/03 RMK AO2
14926KSTC STC20060326010510203/26/06 01:05:31  5-MIN KSTC 260705Z AUTO 00000KT 10SM OVC041 01/M03 A3026 710 75 -800 000/00 RMK AO2
14926KSTC STC20060326011010203/26/06 01:10:31  5-MIN KSTC 260710Z AUTO 16003KT 10SM OVC041 01/M03 A3026 710 75 -800 160/03 RMK AO2
14926KSTC STC20060326011510203/26/06 01:15:31  5-MIN KSTC 260715Z AUTO 00000KT 10SM OVC041 01/M03 A3026 710 78 -800 000/00 RMK AO2
14926KSTC STC20060326012010203/26/06 01:20:31  5-MIN KSTC 260720Z AUTO 00000KT 10SM OVC041 01/M03 A3026 710 75 -800 000/00 RMK AO2
14926KSTC STC20060326012510203/26/06 01:25:31  5-MIN KSTC 260725Z AUTO 14003KT 10SM OVC041 01/M03 A3026 710 75 -800 140/03 RMK AO2
14926KSTC STC20060326013010203/26/06 01:30:31  5-MIN KSTC 260730Z AUTO 14003KT 10SM OVC041 01/M04 A3026 710 72 -800 140/03 RMK AO2
14926KSTC STC20060326013510203/26/06 01:35:31  5-MIN KSTC 260735Z AUTO 14003KT 10SM OVC041 01/M04 A3026 710 72 -800 140/03 RMK AO2
14926KSTC STC20060326014010203/26/06 01:40:31  5-MIN KSTC 260740Z AUTO 00000KT 10SM OVC041 01/M03 A3026 710 75 -800 000/00 RMK AO2
14926KSTC STC20060326014510203/26/06 01:45:31  5-MIN KSTC 260745Z AUTO 00000KT 10SM OVC041 01/M03 A3026 710 75 -800 000/00 RMK AO2
14926KSTC STC20060326015011903/26/06 01:50:31  5-MIN KSTC 260750Z AUTO 00000KT 10SM OVC041 01/M03 A3026 710 75 -800 000/00 RMK AO2 SLP266 T00061033
14926KSTC STC20060326015510203/26/06 01:55:31  5-MIN KSTC 260755Z AUTO 19004KT 10SM OVC041 01/M03 A3026 710 75 -800 180/04 RMK AO2
14926KSTC STC20060326020010203/26/06 02:00:31  5-MIN KSTC 260800Z AUTO 00000KT 10SM OVC041 01/M04 A3026 720 72 -800 000/00 RMK AO2
14926KSTC STC20060326020510203/26/06 02:05:31  5-MIN KSTC 260805Z AUTO 14003KT 10SM OVC041 01/M04 A3025 720 69 -700 130/03 RMK AO2
14926KSTC STC20060326021010203/26/06 02:10:31  5-MIN KSTC 260810Z AUTO 12004KT 10SM OVC041 01/M04 A3025 720 66 -700 120/04 RMK AO2
14926KSTC STC20060326021510203/26/06 02:15:31  5-MIN KSTC 260815Z AUTO 11003KT 10SM OVC041 01/M04 A3025 720 69 -700 110/03 RMK AO2
14926KSTC STC20060326022010203/26/06 02:20:31  5-MIN KSTC 260820Z AUTO 10003KT 10SM OVC041 01/M04 A3025 720 69 -700 090/03 RMK AO2
14926KSTC STC20060326022510203/26/06 02:25:31  5-MIN KSTC 260825Z AUTO 00000KT 10SM OVC041 01/M03 A3025 720 75 -800 000/00 RMK AO2
14926KSTC STC20060326023010203/26/06 02:30:31  5-MIN KSTC 260830Z AUTO 11003KT 10SM OVC041 01/M03 A3025 720 75 -800 100/03 RMK AO2
14926KSTC STC20060326023510203/26/06 02:35:31  5-MIN KSTC 260835Z AUTO 13005KT 10SM OVC041 01/M04 A3025 720 72 -800 130/05 RMK AO2
14926KSTC STC20060326024010203/26/06 02:40:31  5-MIN KSTC 260840Z AUTO 14004KT 10SM OVC041 01/M04 A3025 720 66 -700 140/04 RMK AO2
14926KSTC STC20060326024510203/26/06 02:45:31  5-MIN KSTC 260845Z AUTO 16004KT 10SM OVC041 01/M03 A3025 720 75 -800 160/04 RMK AO2
14926KSTC STC20060326025012503/26/06 02:50:31  5-MIN KSTC 260850Z AUTO 14004KT 10SM OVC041 00/M03 A3025 720 78 -800 140/04 RMK AO2 SLP263 T00001033 58003
14926KSTC STC20060326025510203/26/06 02:55:31  5-MIN KSTC 260855Z AUTO 15003KT 10SM OVC041 01/M03 A3025 720 75 -800 140/03 RMK AO2
14926KSTC STC20060326030010203/26/06 03:00:31  5-MIN KSTC 260900Z AUTO 14004KT 10SM OVC041 01/M03 A3025 720 75 -800 140/04 RMK AO2
14926KSTC STC20060326030510203/26/06 03:05:31  5-MIN KSTC 260905Z AUTO 13004KT 10SM OVC041 01/M04 A3025 720 69 -700 130/04 RMK AO2
14926KSTC STC20060326031010203/26/06 03:10:31  5-MIN KSTC 260910Z AUTO 13003KT 10SM OVC041 01/M04 A3025 720 72 -800 130/03 RMK AO2
14926KSTC STC20060326031510203/26/06 03:15:31  5-MIN KSTC 260915Z AUTO 14003KT 10SM OVC041 01/M04 A3025 720 69 -700 140/03 RMK AO2
14926KSTC STC20060326032010203/26/06 03:20:31  5-MIN KSTC 260920Z AUTO 15004KT 10SM OVC041 01/M04 A3025 720 72 -800 150/04 RMK AO2
14926KSTC STC20060326032510203/26/06 03:25:31  5-MIN KSTC 260925Z AUTO 15004KT 10SM OVC041 01/M03 A3025 730 75 -800 150/04 RMK AO2
14926KSTC STC20060326033010203/26/06 03:30:31  5-MIN KSTC 260930Z AUTO 17005KT 10SM OVC041 01/M03 A3025 730 75 -800 170/05 RMK AO2
14926KSTC STC20060326033510203/26/06 03:35:31  5-MIN KSTC 260935Z AUTO 18005KT 10SM OVC041 01/M04 A3025 730 72 -800 180/05 RMK AO2
14926KSTC STC20060326034010203/26/06 03:40:31  5-MIN KSTC 260940Z AUTO 15006KT 10SM OVC041 01/M04 A3025 730 72 -800 150/06 RMK AO2
14926KSTC STC20060326034510203/26/06 03:45:31  5-MIN KSTC 260945Z AUTO 14004KT 10SM OVC041 01/M03 A3024 730 75 -800 130/04 RMK AO2
14926KSTC STC20060326035011903/26/06 03:50:31  5-MIN KSTC 260950Z AUTO 17003KT 10SM OVC041 01/M04 A3024 730 72 -800 170/03 RMK AO2 SLP260 T00061039
14926KSTC STC20060326035510203/26/06 03:55:31  5-MIN KSTC 260955Z AUTO 15004KT 10SM OVC041 01/M04 A3024 730 72 -800 140/04 RMK AO2
14926KSTC STC20060326040010203/26/06 04:00:31  5-MIN KSTC 261000Z AUTO 13004KT 10SM OVC041 01/M04 A3024 730 72 -800 130/04 RMK AO2
14926KSTC STC20060326040510203/26/06 04:05:31  5-MIN KSTC 261005Z AUTO 16005KT 10SM OVC041 00/M04 A3024 730 75 -800 160/05 RMK AO2
14926KSTC STC20060326041010203/26/06 04:10:31  5-MIN KSTC 261010Z AUTO 16004KT 10SM OVC041 00/M04 A3024 730 75 -800 160/04 RMK AO2
14926KSTC STC20060326041510303/26/06 04:15:31  5-MIN KSTC 261015Z AUTO 15004KT 10SM BKN041 M01/M04 A3024 730 75 -900 140/04 RMK AO2
14926KSTC STC20060326042010203/26/06 04:20:31  5-MIN KSTC 261020Z AUTO 12005KT 10SM BKN039 00/M04 A3024 730 72 -800 120/05 RMK AO2
14926KSTC STC20060326042510203/26/06 04:25:31  5-MIN KSTC 261025Z AUTO 14003KT 10SM BKN039 00/M04 A3024 730 72 -800 140/03 RMK AO2
14926KSTC STC20060326043010203/26/06 04:30:31  5-MIN KSTC 261030Z AUTO 16003KT 10SM SCT039 00/M04 A3024 730 72 -800 160/03 RMK AO2
14926KSTC STC20060326043510403/26/06 04:35:31  5-MIN KSTC 261035Z AUTO 14003KT 10SM BKN039 M01/M04 A3024 730 81 -1000 130/03 RMK AO2
14926KSTC STC20060326044010303/26/06 04:40:31  5-MIN KSTC 261040Z AUTO 00000KT 10SM BKN039 M01/M04 A3024 730 75 -900 000/00 RMK AO2
14926KSTC STC20060326044510303/26/06 04:45:31  5-MIN KSTC 261045Z AUTO 12004KT 10SM BKN039 M01/M04 A3024 730 75 -900 120/04 RMK AO2
14926KSTC STC20060326045012003/26/06 04:50:31  5-MIN KSTC 261050Z AUTO 15003KT 10SM BKN039 M01/M04 A3024 730 75 -900 140/03 RMK AO2 SLP261 T10061044
14926KSTC STC20060326045510303/26/06 04:55:31  5-MIN KSTC 261055Z AUTO 00000KT 10SM SCT039 M01/M04 A3024 730 75 -900 000/00 RMK AO2
14926KSTC STC20060326050010403/26/06 05:00:31  5-MIN KSTC 261100Z AUTO 00000KT 10SM SCT039 M01/M04 A3024 730 78 -1000 000/00 RMK AO2
14926KSTC STC20060326050510403/26/06 05:05:31  5-MIN KSTC 261105Z AUTO 13003KT 10SM FEW039 M01/M04 A3024 730 78 -1000 120/03 RMK AO2
14926KSTC STC20060326051010403/26/06 05:10:31  5-MIN KSTC 261110Z AUTO 13003KT 10SM FEW039 M01/M04 A3024 730 78 -1000 130/03 RMK AO2
14926KSTC STC20060326051510403/26/06 05:15:31  5-MIN KSTC 261115Z AUTO 11003KT 10SM FEW039 M02/M04 A3024 730 81 -1000 100/03 RMK AO2
14926KSTC STC20060326052010103/26/06 05:20:31  5-MIN KSTC 261120Z AUTO 12003KT 10SM CLR M02/M05 A3024 730 81 -1100 120/03 RMK AO2
14926KSTC STC20060326052510103/26/06 05:25:31  5-MIN KSTC 261125Z AUTO 13003KT 10SM CLR M02/M05 A3024 730 78 -1000 130/03 RMK AO2
14926KSTC STC20060326053010103/26/06 05:30:31  5-MIN KSTC 261130Z AUTO 11003KT 10SM CLR M02/M04 A3025 730 81 -1000 110/03 RMK AO2
14926KSTC STC20060326053510103/26/06 05:35:31  5-MIN KSTC 261135Z AUTO 13003KT 10SM CLR M02/M05 A3024 730 78 -1000 130/03 RMK AO2
14926KSTC STC20060326054010103/26/06 05:40:31  5-MIN KSTC 261140Z AUTO 12003KT 10SM CLR M01/M04 A3024 730 78 -1000 120/03 RMK AO2
14926KSTC STC20060326054510103/26/06 05:45:31  5-MIN KSTC 261145Z AUTO 12004KT 10SM CLR M02/M04 A3024 730 81 -1000 110/04 RMK AO2
14926KSTC STC20060326055013603/26/06 05:50:31  5-MIN KSTC 261150Z AUTO 12004KT 10SM CLR M02/M05 A3024 730 78 -1000 120/04 RMK AO2 SLP262 T10171050 10011 21022 58006
14926KSTC STC20060326055510103/26/06 05:55:31  5-MIN KSTC 261155Z AUTO 12005KT 10SM CLR M02/M04 A3024 730 81 -1000 120/05 RMK AO2
14926KSTC STC20060326060010103/26/06 06:00:31  5-MIN KSTC 261200Z AUTO 12005KT 10SM CLR M01/M04 A3024 730 78 -1000 120/05 RMK AO2
14926KSTC STC20060326060510103/26/06 06:05:31  5-MIN KSTC 261205Z AUTO 13005KT 10SM CLR M01/M04 A3024 730 78 -1000 130/05 RMK AO2
14926KSTC STC20060326061010103/26/06 06:10:31  5-MIN KSTC 261210Z AUTO 13004KT 10SM CLR M01/M04 A3024 730 78 -1000 130/04 RMK AO2
14926KSTC STC20060326061510103/26/06 06:15:31  5-MIN KSTC 261215Z AUTO 13004KT 10SM CLR M02/M04 A3024 730 81 -1000 130/04 RMK AO2
14926KSTC STC20060326062010103/26/06 06:20:31  5-MIN KSTC 261220Z AUTO 12004KT 10SM CLR M02/M04 A3024 730 81 -1000 120/04 RMK AO2
14926KSTC STC20060326062510103/26/06 06:25:31  5-MIN KSTC 261225Z AUTO 13004KT 10SM CLR M01/M04 A3024 730 78 -1000 130/04 RMK AO2
14926KSTC STC20060326063010103/26/06 06:30:31  5-MIN KSTC 261230Z AUTO 13003KT 10SM CLR M02/M04 A3024 730 81 -1000 120/03 RMK AO2
14926KSTC STC20060326063510103/26/06 06:35:31  5-MIN KSTC 261235Z AUTO 12004KT 10SM CLR M01/M04 A3024 730 78 -1000 120/04 RMK AO2
14926KSTC STC20060326064010103/26/06 06:40:31  5-MIN KSTC 261240Z AUTO 12004KT 10SM CLR M01/M04 A3024 730 81 -1000 120/04 RMK AO2
14926KSTC STC20060326064510103/26/06 06:45:31  5-MIN KSTC 261245Z AUTO 12004KT 10SM CLR M01/M04 A3024 730 81 -1000 120/04 RMK AO2
14926KSTC STC20060326065011803/26/06 06:50:31  5-MIN KSTC 261250Z AUTO 12004KT 10SM CLR M01/M04 A3024 730 81 -1000 120/04 RMK AO2 SLP261 T10111039
14926KSTC STC20060326065510003/26/06 06:55:31  5-MIN KSTC 261255Z AUTO 12004KT 10SM CLR M01/M04 A3024 730 78 -900 120/04 RMK AO2
14926KSTC STC20060326070010003/26/06 07:00:31  5-MIN KSTC 261300Z AUTO 12005KT 10SM CLR M01/M04 A3024 730 78 -900 120/05 RMK AO2
14926KSTC STC20060326070509503/26/06 07:05:31  5-MIN KSTC 261305Z 13004KT 10SM CLR M01/M04 A3024 730 78 -900 120/04 RMK AO2
14926KSTC STC20060326071009503/26/06 07:10:31  5-MIN KSTC 261310Z 13005KT 10SM CLR M01/M04 A3024 730 78 -900 130/05 RMK AO2
14926KSTC STC20060326071509403/26/06 07:15:31  5-MIN KSTC 261315Z 12004KT 10SM CLR 00/M03 A3024 740 78 -800 120/04 RMK AO2
14926KSTC STC20060326072009403/26/06 07:20:31  5-MIN KSTC 261320Z 14004KT 10SM CLR 00/M03 A3024 740 78 -800 130/04 RMK AO2
14926KSTC STC20060326072509403/26/06 07:25:31  5-MIN KSTC 261325Z 13004KT 10SM CLR 00/M03 A3023 740 78 -800 130/04 RMK AO2
14926KSTC STC20060326073009403/26/06 07:30:31  5-MIN KSTC 261330Z 14004KT 10SM CLR 01/M03 A3024 740 75 -800 140/04 RMK AO2
14926KSTC STC20060326073509403/26/06 07:35:31  5-MIN KSTC 261335Z 13005KT 10SM CLR 01/M03 A3024 740 75 -800 130/05 RMK AO2
14926KSTC STC20060326074009403/26/06 07:40:31  5-MIN KSTC 261340Z 14006KT 10SM CLR 01/M03 A3023 740 75 -800 140/06 RMK AO2
14926KSTC STC20060326074509403/26/06 07:45:31  5-MIN KSTC 261345Z 14006KT 10SM CLR 01/M03 A3023 740 72 -700 140/06 RMK AO2
14926KSTC STC20060326075011103/26/06 07:50:31  5-MIN KSTC 261350Z 14006KT 10SM CLR 01/M03 A3024 740 72 -700 130/06 RMK AO2 SLP259 T00111033
14926KSTC STC20060326075509403/26/06 07:55:31  5-MIN KSTC 261355Z 14007KT 10SM CLR 01/M04 A3023 740 69 -700 140/07 RMK AO2
14926KSTC STC20060326080009403/26/06 08:00:31  5-MIN KSTC 261400Z 14006KT 10SM CLR 02/M03 A3023 740 69 -600 140/06 RMK AO2
14926KSTC STC20060326080509403/26/06 08:05:31  5-MIN KSTC 261405Z 14007KT 10SM CLR 02/M03 A3023 740 69 -600 140/07 RMK AO2
14926KSTC STC20060326081009403/26/06 08:10:31  5-MIN KSTC 261410Z 14008KT 10SM CLR 02/M03 A3023 740 67 -500 140/08 RMK AO2
14926KSTC STC20060326081509403/26/06 08:15:31  5-MIN KSTC 261415Z 14008KT 10SM CLR 02/M03 A3023 740 67 -500 140/08 RMK AO2
14926KSTC STC20060326082009403/26/06 08:20:31  5-MIN KSTC 261420Z 14009KT 10SM CLR 02/M03 A3023 740 67 -500 140/09 RMK AO2
14926KSTC STC20060326082509403/26/06 08:25:31  5-MIN KSTC 261425Z 15010KT 10SM CLR 02/M04 A3023 740 64 -500 140/10 RMK AO2
14926KSTC STC20060326083009403/26/06 08:30:31  5-MIN KSTC 261430Z 15010KT 10SM CLR 03/M04 A3023 740 61 -500 150/10 RMK AO2
14926KSTC STC20060326083509403/26/06 08:35:31  5-MIN KSTC 261435Z 14009KT 10SM CLR 03/M04 A3023 740 61 -500 140/09 RMK AO2
14926KSTC STC20060326084009403/26/06 08:40:31  5-MIN KSTC 261440Z 14010KT 10SM CLR 03/M04 A3023 740 61 -500 140/10 RMK AO2
14926KSTC STC20060326084509403/26/06 08:45:31  5-MIN KSTC 261445Z 14010KT 10SM CLR 03/M04 A3023 740 59 -400 130/10 RMK AO2
14926KSTC STC20060326085011703/26/06 08:50:31  5-MIN KSTC 261450Z 16010KT 10SM CLR 03/M04 A3023 750 59 -400 160/10 RMK AO2 SLP255 T00331039 56002
14926KSTC STC20060326085509403/26/06 08:55:31  5-MIN KSTC 261455Z 15011KT 10SM CLR 03/M04 A3023 740 59 -400 150/11 RMK AO2
14926KSTC STC20060326090009403/26/06 09:00:31  5-MIN KSTC 261500Z 15013KT 10SM CLR 03/M04 A3023 750 57 -400 150/13 RMK AO2
14926KSTC STC20060326090509403/26/06 09:05:31  5-MIN KSTC 261505Z 16014KT 10SM CLR 03/M05 A3023 740 54 -400 150/14 RMK AO2
14926KSTC STC20060326091009403/26/06 09:10:31  5-MIN KSTC 261510Z 16013KT 10SM CLR 03/M05 A3023 740 54 -400 160/13 RMK AO2
14926KSTC STC20060326091509403/26/06 09:15:31  5-MIN KSTC 261515Z 16013KT 10SM CLR 04/M05 A3023 750 52 -300 150/13 RMK AO2
14926KSTC STC20060326092009403/26/06 09:20:31  5-MIN KSTC 261520Z 17014KT 10SM CLR 04/M05 A3022 750 52 -300 160/14 RMK AO2
14926KSTC STC20060326092509403/26/06 09:25:31  5-MIN KSTC 261525Z 16014KT 10SM CLR 04/M05 A3022 750 52 -300 160/14 RMK AO2
14926KSTC STC20060326093009403/26/06 09:30:31  5-MIN KSTC 261530Z 16013KT 10SM CLR 04/M05 A3022 750 52 -300 160/13 RMK AO2
14926KSTC STC20060326093509403/26/06 09:35:31  5-MIN KSTC 261535Z 15015KT 10SM CLR 04/M05 A3022 750 52 -300 150/15 RMK AO2
14926KSTC STC20060326094009403/26/06 09:40:31  5-MIN KSTC 261540Z 15013KT 10SM CLR 04/M05 A3022 750 52 -300 150/13 RMK AO2
14926KSTC STC20060326094509403/26/06 09:45:31  5-MIN KSTC 261545Z 15013KT 10SM CLR 04/M04 A3022 750 54 -300 140/13 RMK AO2
14926KSTC STC20060326095011103/26/06 09:50:31  5-MIN KSTC 261550Z 14013KT 10SM CLR 04/M04 A3022 750 52 -300 140/13 RMK AO2 SLP252 T00441044
14926KSTC STC20060326095509403/26/06 09:55:31  5-MIN KSTC 261555Z 15013KT 10SM CLR 04/M04 A3022 750 52 -300 150/13 RMK AO2
14926KSTC STC20060326100009403/26/06 10:00:31  5-MIN KSTC 261600Z 15012KT 10SM CLR 04/M04 A3022 750 52 -300 150/12 RMK AO2
14926KSTC STC20060326100509403/26/06 10:05:31  5-MIN KSTC 261605Z 15013KT 10SM CLR 04/M04 A3022 750 52 -300 140/13 RMK AO2
14926KSTC STC20060326101009703/26/06 10:10:31  5-MIN KSTC 261610Z 14014KT 10SM FEW036 04/M04 A3022 750 52 -300 140/14 RMK AO2
14926KSTC STC20060326101509703/26/06 10:15:31  5-MIN KSTC 261615Z 16013KT 10SM FEW036 05/M04 A3022 750 52 -200 160/13 RMK AO2
14926KSTC STC20060326102009703/26/06 10:20:31  5-MIN KSTC 261620Z 17013KT 10SM FEW036 04/M04 A3022 750 52 -300 160/13 RMK AO2
14926KSTC STC20060326102509703/26/06 10:25:31  5-MIN KSTC 261625Z 15012KT 10SM SCT036 05/M04 A3021 760 52 -200 140/12 RMK AO2
14926KSTC STC20060326103009703/26/06 10:30:31  5-MIN KSTC 261630Z 16014KT 10SM SCT036 05/M04 A3021 760 52 -200 150/14 RMK AO2
14926KSTC STC20060326103509703/26/06 10:35:31  5-MIN KSTC 261635Z 15015KT 10SM FEW036 05/M04 A3021 760 52 -200 150/15 RMK AO2
14926KSTC STC20060326104009703/26/06 10:40:31  5-MIN KSTC 261640Z 15014KT 10SM FEW036 05/M04 A3021 760 50 -200 140/14 RMK AO2
14926KSTC STC20060326104509703/26/06 10:45:31  5-MIN KSTC 261645Z 16012KT 10SM FEW036 04/M04 A3021 760 55 -200 150/12 RMK AO2
14926KSTC STC20060326105011403/26/06 10:50:31  5-MIN KSTC 261650Z 16013KT 10SM SCT036 06/M03 A3020 770 53 -100 160/13 RMK AO2 SLP246 T00561033
14926KSTC STC20060326105509703/26/06 10:55:31  5-MIN KSTC 261655Z 15013KT 10SM SCT036 06/M04 A3020 770 50 -100 150/13 RMK AO2
14926KSTC STC20060326110009703/26/06 11:00:31  5-MIN KSTC 261700Z 16011KT 10SM FEW036 05/M04 A3020 770 52 -200 150/11 RMK AO2
14926KSTC STC20060326110509703/26/06 11:05:31  5-MIN KSTC 261705Z 17016KT 10SM SCT036 06/M04 A3020 770 50 -100 160/16 RMK AO2
14926KSTC STC20060326111009703/26/06 11:10:31  5-MIN KSTC 261710Z 15012KT 10SM FEW036 05/M04 A3020 770 50 -200 150/12 RMK AO2
14926KSTC STC20060326111510303/26/06 11:15:31  5-MIN KSTC 261715Z 15015G19KT 10SM FEW036 06/M04 A3020 770 50 -100 150/15G19 RMK AO2
14926KSTC STC20060326112010003/26/06 11:20:31  5-MIN KSTC 261720Z 16015G19KT 10SM FEW036 06/M04 A3019 770 48 0 150/15G19 RMK AO2
14926KSTC STC20060326112510003/26/06 11:25:31  5-MIN KSTC 261725Z 16014G19KT 10SM CLR 06/M04 A3019 770 48 -100 160/14G19 RMK AO2
14926KSTC STC20060326113010003/26/06 11:30:31  5-MIN KSTC 261730Z 14014G19KT 10SM CLR 06/M04 A3019 770 50 -100 140/14G19 RMK AO2
14926KSTC STC20060326113509103/26/06 11:35:31  5-MIN KSTC 261735Z 17012KT 10SM CLR 06/M03 A3019 780 51 0 170/12 RMK AO2
14926KSTC STC20060326114009103/26/06 11:40:31  5-MIN KSTC 261740Z 16012KT 10SM CLR 07/M04 A3019 780 47 0 160/12 RMK AO2
14926KSTC STC20060326114509703/26/06 11:45:31  5-MIN KSTC 261745Z 16013G18KT 10SM CLR 06/M03 A3019 780 51 0 160/13G18 RMK AO2
14926KSTC STC20060326115013203/26/06 11:50:31  5-MIN KSTC 261750Z 16013G18KT 10SM CLR 06/M04 A3019 780 48 0 150/13G18 RMK AO2 SLP242 T00611039 10067 21017 58005
14926KSTC STC20060326115509703/26/06 11:55:31  5-MIN KSTC 261755Z 15013G18KT 10SM CLR 06/M04 A3019 780 48 0 140/13G18 RMK AO2
14926KSTC STC20060326120009703/26/06 12:00:31  5-MIN KSTC 261800Z 16011G18KT 10SM CLR 07/M03 A3019 780 49 0 150/11G18 RMK AO2
14926KSTC STC20060326120509703/26/06 12:05:31  5-MIN KSTC 261805Z 16015G21KT 10SM CLR 06/M04 A3018 780 48 0 160/15G21 RMK AO2
14926KSTC STC20060326121009703/26/06 12:10:31  5-MIN KSTC 261810Z 15011G21KT 10SM CLR 06/M04 A3018 790 48 0 150/11G21 RMK AO2
14926KSTC STC20060326121509103/26/06 12:15:31  5-MIN KSTC 261815Z 15013KT 10SM CLR 06/M03 A3018 790 51 0 150/13 RMK AO2
14926KSTC STC20060326122009103/26/06 12:20:31  5-MIN KSTC 261820Z 17013KT 10SM CLR 06/M04 A3018 790 48 0 160/13 RMK AO2
14926KSTC STC20060326122509103/26/06 12:25:31  5-MIN KSTC 261825Z 16014KT 10SM CLR 07/M03 A3018 790 49 0 160/14 RMK AO2
14926KSTC STC20060326123009103/26/06 12:30:31  5-MIN KSTC 261830Z 15015KT 10SM CLR 07/M03 A3017 790 49 0 140/15 RMK AO2
14926KSTC STC20060326123509103/26/06 12:35:31  5-MIN KSTC 261835Z 16014KT 10SM CLR 07/M03 A3017 790 49 0 150/14 RMK AO2
14926KSTC STC20060326124009103/26/06 12:40:31  5-MIN KSTC 261840Z 15015KT 10SM CLR 07/M03 A3017 790 49 0 150/15 RMK AO2
14926KSTC STC20060326124509103/26/06 12:45:31  5-MIN KSTC 261845Z 17013KT 10SM CLR 07/M04 A3017 800 47 0 170/13 RMK AO2
14926KSTC STC20060326125011403/26/06 12:50:31  5-MIN KSTC 261850Z 15013G20KT 10SM CLR 07/M03 A3017 800 49 0 150/13G20 RMK AO2 SLP234 T00671033
14926KSTC STC20060326125509703/26/06 12:55:31  5-MIN KSTC 261855Z 15014G20KT 10SM CLR 07/M03 A3017 800 49 0 150/14G20 RMK AO2
14926KSTC STC20060326130009103/26/06 13:00:31  5-MIN KSTC 261900Z 15011KT 10SM CLR 07/M04 A3016 800 47 0 150/11 RMK AO2
14926KSTC STC20060326130509403/26/06 13:05:31  5-MIN KSTC 261905Z 16014KT 10SM FEW040 06/M03 A3016 800 51 0 160/14 RMK AO2
14926KSTC STC20060326131009403/26/06 13:10:31  5-MIN KSTC 261910Z 15013KT 10SM FEW040 06/M03 A3016 810 51 0 150/13 RMK AO2
14926KSTC STC20060326131509103/26/06 13:15:31  5-MIN KSTC 261915Z 16012KT 10SM CLR 07/M03 A3016 810 51 0 160/12 RMK AO2
14926KSTC STC20060326132009603/26/06 13:20:31  5-MIN KSTC 261920Z 14012KT 10SM FEW040 07/M03 A3016 810 47 100 130/12 RMK AO2
14926KSTC STC20060326132509403/26/06 13:25:31  5-MIN KSTC 261925Z 14012KT 10SM FEW040 07/M03 A3015 810 49 0 140/12 RMK AO2
14926KSTC STC20060326133010203/26/06 13:30:31  5-MIN KSTC 261930Z 15013G18KT 10SM FEW040 07/M03 A3015 820 47 100 140/13G18 RMK AO2
14926KSTC STC20060326133510203/26/06 13:35:31  5-MIN KSTC 261935Z 13009G18KT 10SM FEW040 07/M04 A3015 820 47 100 130/09G18 RMK AO2
14926KSTC STC20060326134010203/26/06 13:40:31  5-MIN KSTC 261940Z 15015G18KT 10SM SCT040 07/M03 A3015 820 49 100 140/15G18 RMK AO2
14926KSTC STC20060326134509603/26/06 13:45:31  5-MIN KSTC 261945Z 16013KT 10SM SCT040 07/M03 A3014 820 47 100 160/13 RMK AO2
14926KSTC STC20060326135011303/26/06 13:50:31  5-MIN KSTC 261950Z 15011KT 10SM SCT040 07/M04 A3014 820 47 100 150/11 RMK AO2 SLP226 T00671039
14926KSTC STC20060326135509603/26/06 13:55:31  5-MIN KSTC 261955Z 13013KT 10SM SCT040 07/M03 A3014 820 49 100 130/13 RMK AO2
14926KSTC STC20060326140009403/26/06 14:00:31  5-MIN KSTC 262000Z 14013KT 10SM SCT040 06/M03 A3014 820 51 0 130/13 RMK AO2
14926KSTC STC20060326140510203/26/06 14:05:31  5-MIN KSTC 262005Z 15013G19KT 10SM SCT040 07/M03 A3014 830 49 100 140/13G19 RMK AO2
14926KSTC STC20060326141010203/26/06 14:10:31  5-MIN KSTC 262010Z 13014G19KT 10SM SCT040 07/M03 A3014 830 49 100 130/14G19 RMK AO2
14926KSTC STC20060326141510203/26/06 14:15:31  5-MIN KSTC 262015Z 14014G18KT 10SM SCT040 07/M03 A3013 830 47 100 140/14G18 RMK AO2
14926KSTC STC20060326142010203/26/06 14:20:31  5-MIN KSTC 262020Z 13010G18KT 10SM FEW040 07/M03 A3013 830 47 100 130/10G18 RMK AO2
14926KSTC STC20060326142509603/26/06 14:25:31  5-MIN KSTC 262025Z 14014KT 10SM FEW040 07/M03 A3013 830 47 100 140/14 RMK AO2
14926KSTC STC20060326143010203/26/06 14:30:31  5-MIN KSTC 262030Z 15010G18KT 10SM FEW040 07/M03 A3013 830 47 100 150/10G18 RMK AO2
14926KSTC STC20060326143509903/26/06 14:35:31  5-MIN KSTC 262035Z 16014G18KT 10SM CLR 07/M03 A3013 840 47 100 160/14G18 RMK AO2
14926KSTC STC20060326144009303/26/06 14:40:31  5-MIN KSTC 262040Z 16008KT 10SM CLR 07/M03 A3013 830 47 100 160/08 RMK AO2
14926KSTC STC20060326144509903/26/06 14:45:31  5-MIN KSTC 262045Z 13015G18KT 10SM CLR 07/M03 A3013 840 47 100 130/15G18 RMK AO2
14926KSTC STC20060326145012503/26/06 14:50:31  5-MIN KSTC 262050Z 14011G18KT 10SM FEW042 07/M03 A3012 840 47 100 130/11G18 RMK AO2 SLP219 T00721033 58012
14926KSTC STC20060326145509603/26/06 14:55:31  5-MIN KSTC 262055Z 13013KT 10SM FEW042 07/M03 A3013 840 49 100 130/13 RMK AO2
14926KSTC STC20060326150009603/26/06 15:00:31  5-MIN KSTC 262100Z 14012KT 10SM FEW042 07/M03 A3012 840 47 100 140/12 RMK AO2
14926KSTC STC20060326150510203/26/06 15:05:31  5-MIN KSTC 262105Z 15009G18KT 10SM FEW042 07/M03 A3012 840 47 100 150/09G18 RMK AO2
14926KSTC STC20060326151010203/26/06 15:10:31  5-MIN KSTC 262110Z 14011G17KT 10SM FEW042 07/M03 A3012 840 47 100 130/11G17 RMK AO2
14926KSTC STC20060326151510203/26/06 15:15:31  5-MIN KSTC 262115Z 15014G17KT 10SM FEW042 07/M03 A3012 840 47 100 150/14G17 RMK AO2
14926KSTC STC20060326152009603/26/06 15:20:31  5-MIN KSTC 262120Z 16013KT 10SM FEW042 07/M03 A3012 840 47 100 150/13 RMK AO2
14926KSTC STC20060326152509303/26/06 15:25:31  5-MIN KSTC 262125Z 15012KT 10SM CLR 07/M03 A3012 850 47 200 150/12 RMK AO2
14926KSTC STC20060326153009303/26/06 15:30:31  5-MIN KSTC 262130Z 16012KT 10SM CLR 07/M03 A3011 850 49 200 160/12 RMK AO2
14926KSTC STC20060326153509303/26/06 15:35:31  5-MIN KSTC 262135Z 14013KT 10SM CLR 07/M03 A3011 850 49 200 140/13 RMK AO2
14926KSTC STC20060326154009303/26/06 15:40:31  5-MIN KSTC 262140Z 15015KT 10SM CLR 07/M03 A3011 850 49 200 140/15 RMK AO2
14926KSTC STC20060326154509303/26/06 15:45:31  5-MIN KSTC 262145Z 16013KT 10SM CLR 07/M03 A3011 850 47 200 150/13 RMK AO2
14926KSTC STC20060326155011003/26/06 15:50:31  5-MIN KSTC 262150Z 14013KT 10SM CLR 07/M03 A3011 850 47 200 140/13 RMK AO2 SLP215 T00721033
14926KSTC STC20060326155509303/26/06 15:55:31  5-MIN KSTC 262155Z 13012KT 10SM CLR 07/M03 A3011 850 47 200 130/12 RMK AO2
14926KSTC STC20060326160009903/26/06 16:00:31  5-MIN KSTC 262200Z 13011G19KT 10SM CLR 07/M04 A3011 850 45 200 120/11G19 RMK AO2
14926KSTC STC20060326160509903/26/06 16:05:31  5-MIN KSTC 262205Z 13011G19KT 10SM CLR 07/M03 A3011 860 47 200 130/11G19 RMK AO2
14926KSTC STC20060326161009903/26/06 16:10:31  5-MIN KSTC 262210Z 14014G19KT 10SM CLR 07/M03 A3011 850 49 100 140/14G19 RMK AO2
14926KSTC STC20060326161509303/26/06 16:15:31  5-MIN KSTC 262215Z 15013KT 10SM CLR 07/M03 A3010 860 47 200 140/13 RMK AO2
14926KSTC STC20060326162009303/26/06 16:20:31  5-MIN KSTC 262220Z 13012KT 10SM CLR 07/M03 A3011 860 49 100 120/12 RMK AO2
14926KSTC STC20060326162509303/26/06 16:25:31  5-MIN KSTC 262225Z 15013KT 10SM CLR 07/M04 A3011 850 47 100 140/13 RMK AO2
14926KSTC STC20060326163009303/26/06 16:30:31  5-MIN KSTC 262230Z 16014KT 10SM CLR 07/M03 A3011 850 49 100 150/14 RMK AO2
14926KSTC STC20060326163509303/26/06 16:35:31  5-MIN KSTC 262235Z 15014KT 10SM CLR 07/M03 A3011 860 49 100 150/14 RMK AO2
14926KSTC STC20060326164009303/26/06 16:40:31  5-MIN KSTC 262240Z 15014KT 10SM CLR 07/M03 A3010 860 49 100 140/14 RMK AO2
14926KSTC STC20060326164509303/26/06 16:45:31  5-MIN KSTC 262245Z 14014KT 10SM CLR 07/M03 A3011 860 49 100 140/14 RMK AO2
14926KSTC STC20060326165011003/26/06 16:50:31  5-MIN KSTC 262250Z 15012KT 10SM CLR 07/M03 A3010 860 49 100 150/12 RMK AO2 SLP212 T00671033
14926KSTC STC20060326165509303/26/06 16:55:31  5-MIN KSTC 262255Z 16013KT 10SM CLR 07/M03 A3010 860 49 100 150/13 RMK AO2
14926KSTC STC20060326170009103/26/06 17:00:31  5-MIN KSTC 262300Z 15013KT 10SM CLR 06/M03 A3010 860 51 0 150/13 RMK AO2
14926KSTC STC20060326170509303/26/06 17:05:31  5-MIN KSTC 262305Z 16011KT 10SM CLR 07/M03 A3011 850 49 100 150/11 RMK AO2
14926KSTC STC20060326171009103/26/06 17:10:31  5-MIN KSTC 262310Z 16011KT 10SM CLR 06/M03 A3010 860 51 0 160/11 RMK AO2
14926KSTC STC20060326171509103/26/06 17:15:31  5-MIN KSTC 262315Z 15009KT 10SM CLR 06/M03 A3010 860 53 0 140/09 RMK AO2
14926KSTC STC20060326172009103/26/06 17:20:31  5-MIN KSTC 262320Z 15011KT 10SM CLR 06/M03 A3010 860 51 0 150/11 RMK AO2
14926KSTC STC20060326172509103/26/06 17:25:31  5-MIN KSTC 262325Z 14013KT 10SM CLR 06/M03 A3010 860 51 0 140/13 RMK AO2
14926KSTC STC20060326173009103/26/06 17:30:31  5-MIN KSTC 262330Z 13012KT 10SM CLR 06/M03 A3011 860 53 0 130/12 RMK AO2
14926KSTC STC20060326173509103/26/06 17:35:31  5-MIN KSTC 262335Z 13009KT 10SM CLR 06/M03 A3010 860 51 0 120/09 RMK AO2
14926KSTC STC20060326174009103/26/06 17:40:31  5-MIN KSTC 262340Z 13010KT 10SM CLR 06/M04 A3011 860 48 0 130/10 RMK AO2
14926KSTC STC20060326174509103/26/06 17:45:31  5-MIN KSTC 262345Z 13010KT 10SM CLR 06/M04 A3011 850 50 0 130/10 RMK AO2
14926KSTC STC20060326175012603/26/06 17:50:31  5-MIN KSTC 262350Z 12007KT 10SM CLR 06/M04 A3011 850 50 0 120/07 RMK AO2 SLP214 T00561039 10072 20056 56021
14926KSTC STC20060326175509103/26/06 17:55:31  5-MIN KSTC 262355Z 13011KT 10SM CLR 06/M04 A3011 850 50 0 130/11 RMK AO2
14926KSTC STC20060326180009103/26/06 18:00:31  5-MIN KSTC 270000Z 13009KT 10SM CLR 06/M04 A3011 850 50 0 130/09 RMK AO2
14926KSTC STC20060326180509103/26/06 18:05:31  5-MIN KSTC 270005Z 13010KT 10SM CLR 06/M04 A3011 850 50 0 130/10 RMK AO2
14926KSTC STC20060326181009403/26/06 18:10:31  5-MIN KSTC 270010Z 13008KT 10SM CLR 05/M04 A3011 850 52 -100 130/08 RMK AO2
14926KSTC STC20060326181509403/26/06 18:15:31  5-MIN KSTC 270015Z 12008KT 10SM CLR 05/M04 A3011 850 52 -100 120/08 RMK AO2
14926KSTC STC20060326182009403/26/06 18:20:31  5-MIN KSTC 270020Z 12007KT 10SM CLR 05/M04 A3011 850 52 -100 120/07 RMK AO2
14926KSTC STC20060326182509403/26/06 18:25:31  5-MIN KSTC 270025Z 12008KT 10SM CLR 05/M04 A3010 860 52 -100 120/08 RMK AO2
14926KSTC STC20060326183009403/26/06 18:30:31  5-MIN KSTC 270030Z 12008KT 10SM CLR 05/M04 A3010 860 52 -100 120/08 RMK AO2
14926KSTC STC20060326183509403/26/06 18:35:31  5-MIN KSTC 270035Z 11008KT 10SM CLR 04/M04 A3010 860 55 -100 110/08 RMK AO2
14926KSTC STC20060326184009403/26/06 18:40:31  5-MIN KSTC 270040Z 11006KT 10SM CLR 04/M04 A3010 860 55 -100 110/06 RMK AO2
14926KSTC STC20060326184509403/26/06 18:45:31  5-MIN KSTC 270045Z 11007KT 10SM CLR 04/M04 A3010 860 55 -100 110/07 RMK AO2
14926KSTC STC20060326185011103/26/06 18:50:31  5-MIN KSTC 270050Z 11006KT 10SM CLR 04/M04 A3010 860 55 -100 110/06 RMK AO2 SLP213 T00441039
14926KSTC STC20060326185509403/26/06 18:55:31  5-MIN KSTC 270055Z 11006KT 10SM CLR 04/M04 A3010 860 57 -200 110/06 RMK AO2
14926KSTC STC20060326190009403/26/06 19:00:31  5-MIN KSTC 270100Z 11006KT 10SM CLR 04/M04 A3010 860 57 -200 110/06 RMK AO2
14926KSTC STC20060326190509403/26/06 19:05:31  5-MIN KSTC 270105Z 10006KT 10SM CLR 04/M04 A3010 860 57 -200 100/06 RMK AO2
14926KSTC STC20060326191009403/26/06 19:10:31  5-MIN KSTC 270110Z 11007KT 10SM CLR 04/M04 A3010 860 57 -200 100/07 RMK AO2
14926KSTC STC20060326191509403/26/06 19:15:31  5-MIN KSTC 270115Z 10006KT 10SM CLR 04/M04 A3010 860 57 -200 100/06 RMK AO2
14926KSTC STC20060326192009403/26/06 19:20:31  5-MIN KSTC 270120Z 11006KT 10SM CLR 04/M04 A3010 860 57 -200 100/06 RMK AO2
14926KSTC STC20060326192509403/26/06 19:25:31  5-MIN KSTC 270125Z 10007KT 10SM CLR 03/M04 A3010 860 59 -300 100/07 RMK AO2
14926KSTC STC20060326193009403/26/06 19:30:31  5-MIN KSTC 270130Z 10006KT 10SM CLR 03/M04 A3010 860 57 -300 100/06 RMK AO2
14926KSTC STC20060326193509403/26/06 19:35:31  5-MIN KSTC 270135Z 10007KT 10SM CLR 03/M04 A3010 860 57 -300 100/07 RMK AO2
14926KSTC STC20060326194009403/26/06 19:40:31  5-MIN KSTC 270140Z 09007KT 10SM CLR 03/M04 A3010 860 57 -300 090/07 RMK AO2
14926KSTC STC20060326194509403/26/06 19:45:31  5-MIN KSTC 270145Z 09007KT 10SM CLR 03/M04 A3010 860 57 -300 090/07 RMK AO2
14926KSTC STC20060326195011103/26/06 19:50:31  5-MIN KSTC 270150Z 09007KT 10SM CLR 03/M04 A3010 870 57 -300 090/07 RMK AO2 SLP210 T00331044
14926KSTC STC20060326195509403/26/06 19:55:31  5-MIN KSTC 270155Z 09007KT 10SM CLR 03/M04 A3009 870 57 -200 090/07 RMK AO2
14926KSTC STC20060326200009403/26/06 20:00:31  5-MIN KSTC 270200Z 10008KT 10SM CLR 03/M04 A3009 870 57 -200 090/08 RMK AO2
14926KSTC STC20060326200509403/26/06 20:05:31  5-MIN KSTC 270205Z 10007KT 10SM CLR 03/M04 A3009 870 57 -200 090/07 RMK AO2
14926KSTC STC20060326201009403/26/06 20:10:31  5-MIN KSTC 270210Z 10006KT 10SM CLR 03/M04 A3009 870 57 -200 100/06 RMK AO2
14926KSTC STC20060326201509403/26/06 20:15:31  5-MIN KSTC 270215Z 10007KT 10SM CLR 03/M04 A3009 870 57 -200 100/07 RMK AO2
14926KSTC STC20060326202009403/26/06 20:20:31  5-MIN KSTC 270220Z 10009KT 10SM CLR 03/M04 A3009 870 59 -300 090/09 RMK AO2
14926KSTC STC20060326202509403/26/06 20:25:31  5-MIN KSTC 270225Z 09007KT 10SM CLR 03/M04 A3009 870 61 -300 090/07 RMK AO2
14926KSTC STC20060326203009403/26/06 20:30:31  5-MIN KSTC 270230Z 10007KT 10SM CLR 03/M04 A3009 870 61 -300 090/07 RMK AO2
14926KSTC STC20060326203509403/26/06 20:35:31  5-MIN KSTC 270235Z 10006KT 10SM CLR 03/M04 A3009 870 61 -300 100/06 RMK AO2
14926KSTC STC20060326204009403/26/06 20:40:31  5-MIN KSTC 270240Z 10006KT 10SM CLR 03/M04 A3009 870 61 -300 100/06 RMK AO2
14926KSTC STC20060326204509403/26/06 20:45:31  5-MIN KSTC 270245Z 10005KT 10SM CLR 03/M04 A3009 870 61 -300 100/05 RMK AO2
14926KSTC STC20060326205011703/26/06 20:50:31  5-MIN KSTC 270250Z 10006KT 10SM CLR 03/M04 A3009 870 61 -300 100/06 RMK AO2 SLP207 T00281039 55006
14926KSTC STC20060326205509403/26/06 20:55:31  5-MIN KSTC 270255Z 10007KT 10SM CLR 03/M04 A3009 870 61 -300 100/07 RMK AO2
14926KSTC STC20060326210009403/26/06 21:00:31  5-MIN KSTC 270300Z 10007KT 10SM CLR 03/M04 A3009 870 61 -300 100/07 RMK AO2
14926KSTC STC20060326210509403/26/06 21:05:31  5-MIN KSTC 270305Z 11007KT 10SM CLR 03/M04 A3009 870 61 -300 100/07 RMK AO2
14926KSTC STC20060326211009403/26/06 21:10:31  5-MIN KSTC 270310Z 11006KT 10SM CLR 03/M04 A3009 870 61 -300 100/06 RMK AO2
14926KSTC STC20060326211509403/26/06 21:15:31  5-MIN KSTC 270315Z 11006KT 10SM CLR 03/M04 A3009 870 61 -300 100/06 RMK AO2
14926KSTC STC20060326212009403/26/06 21:20:31  5-MIN KSTC 270320Z 10007KT 10SM CLR 03/M04 A3009 870 61 -300 100/07 RMK AO2
14926KSTC STC20060326212509403/26/06 21:25:31  5-MIN KSTC 270325Z 10007KT 10SM CLR 03/M04 A3009 870 61 -300 100/07 RMK AO2
14926KSTC STC20060326213009403/26/06 21:30:31  5-MIN KSTC 270330Z 11007KT 10SM CLR 03/M04 A3009 870 61 -300 100/07 RMK AO2
14926KSTC STC20060326213509403/26/06 21:35:31  5-MIN KSTC 270335Z 12007KT 10SM CLR 03/M04 A3008 880 61 -300 110/07 RMK AO2
14926KSTC STC20060326214009403/26/06 21:40:31  5-MIN KSTC 270340Z 11007KT 10SM CLR 03/M04 A3008 880 61 -300 110/07 RMK AO2
14926KSTC STC20060326214509403/26/06 21:45:31  5-MIN KSTC 270345Z 11006KT 10SM CLR 03/M04 A3008 880 61 -300 110/06 RMK AO2
14926KSTC STC20060326215011103/26/06 21:50:31  5-MIN KSTC 270350Z 11007KT 10SM CLR 03/M04 A3008 880 61 -300 110/07 RMK AO2 SLP204 T00281039
14926KSTC STC20060326215509403/26/06 21:55:31  5-MIN KSTC 270355Z 11008KT 10SM CLR 03/M04 A3008 880 61 -300 100/08 RMK AO2
14926KSTC STC20060326220009403/26/06 22:00:31  5-MIN KSTC 270400Z 10007KT 10SM CLR 03/M04 A3008 880 61 -300 100/07 RMK AO2
14926KSTC STC20060326220509403/26/06 22:05:31  5-MIN KSTC 270405Z 11008KT 10SM CLR 03/M04 A3008 880 61 -300 100/08 RMK AO2
14926KSTC STC20060326221009403/26/06 22:10:31  5-MIN KSTC 270410Z 10007KT 10SM CLR 03/M04 A3008 880 61 -300 100/07 RMK AO2
14926KSTC STC20060326221509403/26/06 22:15:31  5-MIN KSTC 270415Z 11007KT 10SM CLR 02/M04 A3007 880 64 -400 110/07 RMK AO2
14926KSTC STC20060326222009403/26/06 22:20:31  5-MIN KSTC 270420Z 11007KT 10SM CLR 02/M04 A3007 890 64 -400 100/07 RMK AO2
14926KSTC STC20060326222509403/26/06 22:25:31  5-MIN KSTC 270425Z 11007KT 10SM CLR 02/M04 A3007 890 64 -400 100/07 RMK AO2
14926KSTC STC20060326223009403/26/06 22:30:31  5-MIN KSTC 270430Z 11008KT 10SM CLR 02/M04 A3007 890 64 -400 110/08 RMK AO2
14926KSTC STC20060326223509403/26/06 22:35:31  5-MIN KSTC 270435Z 11008KT 10SM CLR 02/M04 A3007 890 64 -400 100/08 RMK AO2
14926KSTC STC20060326224009703/26/06 22:40:31  5-MIN KSTC 270440Z 11008KT 10SM FEW090 02/M04 A3007 890 64 -400 110/08 RMK AO2
14926KSTC STC20060326224509703/26/06 22:45:31  5-MIN KSTC 270445Z 11008KT 10SM FEW090 02/M04 A3007 890 64 -400 110/08 RMK AO2
14926KSTC STC20060326225011403/26/06 22:50:31  5-MIN KSTC 270450Z 11008KT 10SM SCT090 02/M04 A3007 890 64 -400 100/08 RMK AO2 SLP201 T00221039
14926KSTC STC20060326225509703/26/06 22:55:31  5-MIN KSTC 270455Z 10007KT 10SM SCT090 02/M04 A3007 890 64 -400 100/07 RMK AO2
14926KSTC STC20060326230010203/26/06 23:00:31  5-MIN KSTC 270500Z AUTO 10008KT 10SM BKN090 02/M04 A3007 890 64 -400 100/08 RMK AO2
14926KSTC STC20060326230510203/26/06 23:05:31  5-MIN KSTC 270505Z AUTO 11008KT 10SM BKN090 02/M04 A3007 890 64 -400 110/08 RMK AO2
14926KSTC STC20060326231010203/26/06 23:10:31  5-MIN KSTC 270510Z AUTO 11007KT 10SM BKN090 02/M04 A3007 890 64 -400 110/07 RMK AO2
14926KSTC STC20060326231510203/26/06 23:15:31  5-MIN KSTC 270515Z AUTO 11008KT 10SM OVC090 03/M04 A3007 890 61 -300 110/08 RMK AO2
14926KSTC STC20060326232010203/26/06 23:20:31  5-MIN KSTC 270520Z AUTO 10006KT 10SM OVC090 03/M04 A3007 890 61 -300 100/06 RMK AO2
14926KSTC STC20060326232510203/26/06 23:25:31  5-MIN KSTC 270525Z AUTO 10007KT 10SM OVC090 03/M04 A3006 890 61 -300 100/07 RMK AO2
14926KSTC STC20060326233010203/26/06 23:30:31  5-MIN KSTC 270530Z AUTO 11007KT 10SM OVC090 03/M04 A3007 890 61 -300 110/07 RMK AO2
14926KSTC STC20060326233510203/26/06 23:35:31  5-MIN KSTC 270535Z AUTO 11006KT 10SM OVC090 03/M04 A3007 890 61 -300 110/06 RMK AO2
14926KSTC STC20060326234010203/26/06 23:40:31  5-MIN KSTC 270540Z AUTO 12007KT 10SM OVC090 03/M04 A3007 890 61 -300 120/07 RMK AO2
14926KSTC STC20060326234510203/26/06 23:45:31  5-MIN KSTC 270545Z AUTO 13007KT 10SM OVC095 03/M04 A3008 880 59 -200 130/07 RMK AO2
14926KSTC STC20060326235014703/26/06 23:50:31  5-MIN KSTC 270550Z AUTO 13007KT 10SM OVC095 03/M03 A3008 880 61 -200 130/07 RMK AO2 SLP203 T00331033 10056 20022 400721022 56007
14926KSTC STC20060326235510203/26/06 23:55:31  5-MIN KSTC 270555Z AUTO 12007KT 10SM OVC095 03/M03 A3008 880 61 -200 120/07 RMK AO2
14926KSTC STC20060327000010203/27/06 00:00:32  5-MIN KSTC 270600Z AUTO 13007KT 10SM OVC100 04/M03 A3009 870 59 -200 120/07 RMK AO2
14926KSTC STC20060327000510203/27/06 00:05:31  5-MIN KSTC 270605Z AUTO 13006KT 10SM OVC100 04/M03 A3009 870 59 -200 130/06 RMK AO2
14926KSTC STC20060327001010203/27/06 00:10:31  5-MIN KSTC 270610Z AUTO 12005KT 10SM OVC100 03/M03 A3008 880 61 -200 120/05 RMK AO2
14926KSTC STC20060327001510203/27/06 00:15:31  5-MIN KSTC 270615Z AUTO 12007KT 10SM OVC100 04/M03 A3008 880 59 -200 120/07 RMK AO2
14926KSTC STC20060327002010203/27/06 00:20:31  5-MIN KSTC 270620Z AUTO 12006KT 10SM OVC100 04/M03 A3008 880 59 -200 120/06 RMK AO2
14926KSTC STC20060327002510203/27/06 00:25:31  5-MIN KSTC 270625Z AUTO 12008KT 10SM OVC100 04/M03 A3008 880 59 -200 120/08 RMK AO2
14926KSTC STC20060327003010203/27/06 00:30:31  5-MIN KSTC 270630Z AUTO 12007KT 10SM OVC100 04/M03 A3008 880 59 -200 110/07 RMK AO2
14926KSTC STC20060327003510203/27/06 00:35:31  5-MIN KSTC 270635Z AUTO 12006KT 10SM OVC100 04/M03 A3008 880 59 -200 120/06 RMK AO2
14926KSTC STC20060327004010203/27/06 00:40:31  5-MIN KSTC 270640Z AUTO 12007KT 10SM OVC100 04/M03 A3008 880 59 -200 120/07 RMK AO2
14926KSTC STC20060327004510203/27/06 00:45:31  5-MIN KSTC 270645Z AUTO 13006KT 10SM OVC100 04/M03 A3008 880 59 -200 120/06 RMK AO2
14926KSTC STC20060327005011903/27/06 00:50:31  5-MIN KSTC 270650Z AUTO 12006KT 10SM OVC100 04/M03 A3008 880 59 -200 110/06 RMK AO2 SLP201 T00391033
14926KSTC STC20060327005510203/27/06 00:55:31  5-MIN KSTC 270655Z AUTO 13006KT 10SM OVC100 04/M03 A3008 880 59 -200 120/06 RMK AO2
14926KSTC STC20060327010010203/27/06 01:00:31  5-MIN KSTC 270700Z AUTO 12007KT 10SM OVC100 04/M03 A3008 880 59 -200 120/07 RMK AO2
14926KSTC STC20060327010510203/27/06 01:05:31  5-MIN KSTC 270705Z AUTO 13007KT 10SM OVC100 04/M03 A3008 880 59 -200 120/07 RMK AO2
14926KSTC STC20060327011010203/27/06 01:10:31  5-MIN KSTC 270710Z AUTO 12007KT 10SM OVC100 03/M03 A3008 880 61 -200 120/07 RMK AO2
14926KSTC STC20060327011510203/27/06 01:15:31  5-MIN KSTC 270715Z AUTO 12006KT 10SM OVC100 04/M03 A3008 880 59 -200 120/06 RMK AO2
14926KSTC STC20060327012010203/27/06 01:20:31  5-MIN KSTC 270720Z AUTO 12006KT 10SM OVC110 04/M03 A3008 880 59 -200 120/06 RMK AO2
14926KSTC STC20060327012510203/27/06 01:25:31  5-MIN KSTC 270725Z AUTO 12006KT 10SM OVC110 03/M03 A3008 880 61 -200 120/06 RMK AO2
14926KSTC STC20060327013010203/27/06 01:30:31  5-MIN KSTC 270730Z AUTO 11006KT 10SM BKN110 03/M03 A3007 880 61 -200 110/06 RMK AO2
14926KSTC STC20060327013510203/27/06 01:35:31  5-MIN KSTC 270735Z AUTO 12006KT 10SM BKN110 03/M03 A3007 880 61 -200 120/06 RMK AO2
14926KSTC STC20060327014010203/27/06 01:40:31  5-MIN KSTC 270740Z AUTO 12007KT 10SM OVC110 04/M03 A3007 880 59 -200 110/07 RMK AO2
14926KSTC STC20060327014510203/27/06 01:45:31  5-MIN KSTC 270745Z AUTO 11006KT 10SM OVC110 03/M03 A3007 890 61 -200 110/06 RMK AO2
14926KSTC STC20060327015011903/27/06 01:50:31  5-MIN KSTC 270750Z AUTO 10007KT 10SM OVC110 03/M03 A3007 890 61 -200 100/07 RMK AO2 SLP200 T00331033
14926KSTC STC20060327015510203/27/06 01:55:31  5-MIN KSTC 270755Z AUTO 11007KT 10SM OVC110 03/M03 A3007 890 61 -200 100/07 RMK AO2
14926KSTC STC20060327020010203/27/06 02:00:31  5-MIN KSTC 270800Z AUTO 10007KT 10SM OVC110 03/M03 A3007 890 61 -200 100/07 RMK AO2
14926KSTC STC20060327020510203/27/06 02:05:31  5-MIN KSTC 270805Z AUTO 11006KT 10SM OVC110 04/M03 A3007 890 59 -100 100/06 RMK AO2
14926KSTC STC20060327021010203/27/06 02:10:31  5-MIN KSTC 270810Z AUTO 10008KT 10SM BKN110 04/M03 A3007 890 59 -100 100/08 RMK AO2
14926KSTC STC20060327021510903/27/06 02:15:31  5-MIN KSTC 270815Z AUTO 11006KT 10SM FEW075 BKN110 03/M03 A3007 890 61 -200 110/06 RMK AO2
14926KSTC STC20060327022010903/27/06 02:20:31  5-MIN KSTC 270820Z AUTO 11008KT 10SM SCT075 BKN110 03/M03 A3006 890 61 -200 100/08 RMK AO2
14926KSTC STC20060327022510903/27/06 02:25:31  5-MIN KSTC 270825Z AUTO 10008KT 10SM SCT075 BKN110 04/M03 A3006 900 59 -100 100/08 RMK AO2
14926KSTC STC20060327023010903/27/06 02:30:31  5-MIN KSTC 270830Z AUTO 11007KT 10SM SCT075 BKN100 04/M03 A3006 900 59 -100 110/07 RMK AO2
14926KSTC STC20060327023510903/27/06 02:35:31  5-MIN KSTC 270835Z AUTO 10007KT 10SM BKN075 BKN100 04/M03 A3006 900 59 -100 100/07 RMK AO2
14926KSTC STC20060327024010203/27/06 02:40:31  5-MIN KSTC 270840Z AUTO 09008KT 10SM BKN070 04/M03 A3005 900 59 -100 090/08 RMK AO2
14926KSTC STC20060327024510203/27/06 02:45:31  5-MIN KSTC 270845Z AUTO 09008KT 10SM BKN070 03/M03 A3005 910 61 -200 090/08 RMK AO2
14926KSTC STC20060327025015403/27/06 02:50:31  5-MIN KSTC 270850Z AUTO 09009KT 10SM -RA BKN065 BKN080 03/M03 A3004 910 61 -200 090/09 RMK AO2 RAB46 SLP189 P0000 60000 T00331033 55003
14926KSTC STC20060327025511903/27/06 02:55:31  5-MIN KSTC 270855Z AUTO 10008KT 10SM -RA BKN065 OVC080 03/M03 A3004 910 61 -200 090/08 RMK AO2 P0000
14926KSTC STC20060327030011603/27/06 03:00:31  5-MIN KSTC 270900Z AUTO 09008KT 10SM OVC065 03/M03 A3004 910 61 -200 090/08 RMK AO2 RAE0856 P0000
14926KSTC STC20060327030512303/27/06 03:05:31  5-MIN KSTC 270905Z AUTO 10008KT 10SM FEW048 OVC065 03/M03 A3004 920 61 -200 100/08 RMK AO2 RAE0856 P0000
14926KSTC STC20060327031012303/27/06 03:10:31  5-MIN KSTC 270910Z AUTO 10007KT 10SM SCT050 OVC065 03/M03 A3004 920 61 -200 100/07 RMK AO2 RAE0856 P0000
14926KSTC STC20060327031512303/27/06 03:15:31  5-MIN KSTC 270915Z AUTO 10007KT 10SM SCT050 OVC065 03/M03 A3004 920 61 -200 100/07 RMK AO2 RAE0856 P0000
14926KSTC STC20060327032012303/27/06 03:20:31  5-MIN KSTC 270920Z AUTO 11008KT 10SM BKN050 OVC065 03/M03 A3004 920 61 -200 100/08 RMK AO2 RAE0856 P0000
14926KSTC STC20060327032512303/27/06 03:25:31  5-MIN KSTC 270925Z AUTO 11008KT 10SM BKN050 OVC070 03/M03 A3004 920 61 -200 100/08 RMK AO2 RAE0856 P0000
14926KSTC STC20060327033012303/27/06 03:30:31  5-MIN KSTC 270930Z AUTO 11007KT 10SM BKN055 OVC075 03/M03 A3004 920 61 -200 100/07 RMK AO2 RAE0856 P0000
14926KSTC STC20060327033512303/27/06 03:35:31  5-MIN KSTC 270935Z AUTO 10008KT 10SM BKN055 OVC075 03/M03 A3004 920 61 -200 100/08 RMK AO2 RAE0856 P0000
14926KSTC STC20060327034012303/27/06 03:40:31  5-MIN KSTC 270940Z AUTO 11007KT 10SM BKN055 OVC080 03/M03 A3004 920 61 -200 110/07 RMK AO2 RAE0856 P0000
14926KSTC STC20060327034512303/27/06 03:45:31  5-MIN KSTC 270945Z AUTO 11008KT 10SM BKN060 OVC080 03/M03 A3003 920 61 -200 100/08 RMK AO2 RAE0856 P0000
14926KSTC STC20060327035014003/27/06 03:50:31  5-MIN KSTC 270950Z AUTO 11008KT 10SM SCT060 OVC080 03/M04 A3003 920 59 -200 110/08 RMK AO2 RAE0856 SLP186 P0000 T00331039
14926KSTC STC20060327035510903/27/06 03:55:31  5-MIN KSTC 270955Z AUTO 11008KT 10SM SCT060 OVC080 03/M03 A3003 930 61 -200 110/08 RMK AO2
14926KSTC STC20060327040010903/27/06 04:00:31  5-MIN KSTC 271000Z AUTO 10008KT 10SM FEW060 OVC080 03/M03 A3003 930 61 -200 100/08 RMK AO2
14926KSTC STC20060327040510903/27/06 04:05:31  5-MIN KSTC 271005Z AUTO 11009KT 10SM FEW060 OVC080 03/M04 A3003 930 59 -200 110/09 RMK AO2
14926KSTC STC20060327041010203/27/06 04:10:31  5-MIN KSTC 271010Z AUTO 10009KT 10SM OVC080 03/M04 A3003 930 59 -200 100/09 RMK AO2
14926KSTC STC20060327041510203/27/06 04:15:31  5-MIN KSTC 271015Z AUTO 11008KT 10SM OVC080 03/M04 A3002 930 59 -200 100/08 RMK AO2
14926KSTC STC20060327042010203/27/06 04:20:31  5-MIN KSTC 271020Z AUTO 11009KT 10SM OVC080 03/M04 A3003 930 59 -200 110/09 RMK AO2
14926KSTC STC20060327042510203/27/06 04:25:31  5-MIN KSTC 271025Z AUTO 11009KT 10SM OVC080 03/M04 A3002 930 59 -200 110/09 RMK AO2
14926KSTC STC20060327043010203/27/06 04:30:31  5-MIN KSTC 271030Z AUTO 12007KT 10SM OVC080 03/M04 A3002 930 59 -200 110/07 RMK AO2
14926KSTC STC20060327043510203/27/06 04:35:31  5-MIN KSTC 271035Z AUTO 11008KT 10SM OVC080 03/M03 A3002 930 61 -200 110/08 RMK AO2
14926KSTC STC20060327044010203/27/06 04:40:31  5-MIN KSTC 271040Z AUTO 12007KT 10SM OVC080 03/M03 A3002 930 61 -200 110/07 RMK AO2
14926KSTC STC20060327044510203/27/06 04:45:31  5-MIN KSTC 271045Z AUTO 12008KT 10SM OVC085 03/M03 A3002 930 61 -200 110/08 RMK AO2
14926KSTC STC20060327045011903/27/06 04:50:31  5-MIN KSTC 271050Z AUTO 11007KT 10SM OVC085 03/M03 A3002 930 61 -200 110/07 RMK AO2 SLP183 T00331033
14926KSTC STC20060327045510203/27/06 04:55:31  5-MIN KSTC 271055Z AUTO 11007KT 10SM OVC085 03/M03 A3002 930 61 -200 100/07 RMK AO2
14926KSTC STC20060327050010203/27/06 05:00:31  5-MIN KSTC 271100Z AUTO 11008KT 10SM OVC085 03/M03 A3002 930 61 -200 110/08 RMK AO2
14926KSTC STC20060327050510203/27/06 05:05:31  5-MIN KSTC 271105Z AUTO 11007KT 10SM OVC085 03/M03 A3002 930 61 -200 110/07 RMK AO2
14926KSTC STC20060327051010203/27/06 05:10:31  5-MIN KSTC 271110Z AUTO 11007KT 10SM OVC085 03/M03 A3002 930 61 -200 110/07 RMK AO2
14926KSTC STC20060327051510203/27/06 05:15:31  5-MIN KSTC 271115Z AUTO 11007KT 10SM OVC085 03/M03 A3002 930 61 -200 110/07 RMK AO2
14926KSTC STC20060327052010203/27/06 05:20:31  5-MIN KSTC 271120Z AUTO 10008KT 10SM OVC085 03/M03 A3002 930 61 -200 100/08 RMK AO2
14926KSTC STC20060327052510903/27/06 05:25:31  5-MIN KSTC 271125Z AUTO 10009KT 10SM BKN085 OVC110 03/M03 A3002 930 61 -200 100/09 RMK AO2
14926KSTC STC20060327053010903/27/06 05:30:31  5-MIN KSTC 271130Z AUTO 11007KT 10SM BKN085 OVC110 03/M03 A3002 930 61 -200 110/07 RMK AO2
14926KSTC STC20060327053510903/27/06 05:35:31  5-MIN KSTC 271135Z AUTO 11007KT 10SM SCT085 OVC110 03/M03 A3002 940 61 -200 110/07 RMK AO2
14926KSTC STC20060327054010903/27/06 05:40:31  5-MIN KSTC 271140Z AUTO 11006KT 10SM FEW085 OVC110 03/M03 A3002 930 61 -200 100/06 RMK AO2
14926KSTC STC20060327054511603/27/06 05:45:31  5-MIN KSTC 271145Z AUTO 10009KT 10SM FEW047 SCT085 OVC110 03/M04 A3002 930 59 -200 100/09 RMK AO2
14926KSTC STC20060327055015003/27/06 05:50:31  5-MIN KSTC 271150Z AUTO 10008KT 10SM SCT047 OVC110 03/M04 A3002 930 59 -200 100/08 RMK AO2 SLP183 60000 T00331039 10039 20028 58012
14926KSTC STC20060327055510903/27/06 05:55:31  5-MIN KSTC 271155Z AUTO 11007KT 10SM SCT047 OVC110 03/M04 A3002 930 61 -200 100/07 RMK AO2
14926KSTC STC20060327060010903/27/06 06:00:31  5-MIN KSTC 271200Z AUTO 11007KT 10SM SCT047 OVC110 03/M04 A3002 930 61 -200 100/07 RMK AO2
14926KSTC STC20060327060511603/27/06 06:05:31  5-MIN KSTC 271205Z AUTO 10006KT 10SM FEW047 SCT085 OVC110 03/M04 A3002 930 61 -200 100/06 RMK AO2
14926KSTC STC20060327061011603/27/06 06:10:31  5-MIN KSTC 271210Z AUTO 11007KT 10SM FEW047 BKN085 OVC110 03/M04 A3002 930 61 -200 110/07 RMK AO2
14926KSTC STC20060327061511603/27/06 06:15:31  5-MIN KSTC 271215Z AUTO 11007KT 10SM FEW047 BKN085 OVC110 03/M04 A3003 930 61 -200 110/07 RMK AO2
14926KSTC STC20060327062011603/27/06 06:20:31  5-MIN KSTC 271220Z AUTO 11008KT 10SM FEW050 BKN085 OVC110 03/M04 A3003 930 61 -200 110/08 RMK AO2
14926KSTC STC20060327062511603/27/06 06:25:31  5-MIN KSTC 271225Z AUTO 12008KT 10SM FEW050 BKN085 OVC110 03/M04 A3003 930 61 -200 120/08 RMK AO2
14926KSTC STC20060327063011603/27/06 06:30:31  5-MIN KSTC 271230Z AUTO 12007KT 10SM SCT050 BKN070 OVC085 03/M04 A3003 930 61 -200 110/07 RMK AO2
14926KSTC STC20060327063511603/27/06 06:35:31  5-MIN KSTC 271235Z AUTO 12007KT 10SM BKN050 BKN070 OVC085 03/M04 A3003 930 61 -200 110/07 RMK AO2
14926KSTC STC20060327064011603/27/06 06:40:31  5-MIN KSTC 271240Z AUTO 11007KT 10SM BKN048 BKN070 OVC085 03/M04 A3003 920 61 -200 110/07 RMK AO2
14926KSTC STC20060327064510903/27/06 06:45:31  5-MIN KSTC 271245Z AUTO 11006KT 10SM BKN048 OVC070 03/M03 A3003 920 64 -200 110/06 RMK AO2
14926KSTC STC20060327065011903/27/06 06:50:31  5-MIN KSTC 271250Z AUTO 11006KT 10SM OVC048 03/M03 A3003 920 64 -200 110/06 RMK AO2 SLP188 T00281033
14926KSTC STC20060327065510203/27/06 06:55:31  5-MIN KSTC 271255Z AUTO 11006KT 10SM OVC048 03/M03 A3004 920 64 -300 110/06 RMK AO2
14926KSTC STC20060327070009703/27/06 07:00:31  5-MIN KSTC 271300Z 12007KT 10SM OVC050 03/M03 A3004 920 64 -300 110/07 RMK AO2
14926KSTC STC20060327070509703/27/06 07:05:31  5-MIN KSTC 271305Z 12008KT 10SM OVC050 03/M03 A3004 920 64 -300 110/08 RMK AO2
14926KSTC STC20060327071009703/27/06 07:10:31  5-MIN KSTC 271310Z 12007KT 10SM OVC050 03/M03 A3004 910 64 -300 120/07 RMK AO2
14926KSTC STC20060327071509703/27/06 07:15:31  5-MIN KSTC 271315Z 12007KT 10SM OVC055 03/M03 A3004 910 64 -300 110/07 RMK AO2
14926KSTC STC20060327072009703/27/06 07:20:31  5-MIN KSTC 271320Z 12008KT 10SM OVC055 03/M03 A3004 910 61 -200 120/08 RMK AO2
14926KSTC STC20060327072509703/27/06 07:25:31  5-MIN KSTC 271325Z 12008KT 10SM OVC055 03/M03 A3004 910 61 -200 110/08 RMK AO2
14926KSTC STC20060327073009703/27/06 07:30:31  5-MIN KSTC 271330Z 12007KT 10SM OVC055 03/M03 A3004 910 61 -200 120/07 RMK AO2
14926KSTC STC20060327073509703/27/06 07:35:31  5-MIN KSTC 271335Z 11008KT 10SM OVC060 03/M03 A3004 910 61 -200 110/08 RMK AO2
14926KSTC STC20060327074009703/27/06 07:40:31  5-MIN KSTC 271340Z 12008KT 10SM OVC060 03/M03 A3004 910 61 -200 120/08 RMK AO2
14926KSTC STC20060327074509703/27/06 07:45:31  5-MIN KSTC 271345Z 11007KT 10SM OVC060 03/M03 A3004 910 61 -200 110/07 RMK AO2
14926KSTC STC20060327075011403/27/06 07:50:31  5-MIN KSTC 271350Z 11008KT 10SM OVC055 03/M03 A3004 910 61 -200 110/08 RMK AO2 SLP192 T00331033
14926KSTC STC20060327075509703/27/06 07:55:31  5-MIN KSTC 271355Z 11007KT 10SM OVC055 03/M03 A3004 910 61 -200 110/07 RMK AO2
14926KSTC STC20060327080009703/27/06 08:00:31  5-MIN KSTC 271400Z 11008KT 10SM OVC050 03/M03 A3004 910 61 -200 110/08 RMK AO2
14926KSTC STC20060327080509703/27/06 08:05:31  5-MIN KSTC 271405Z 12008KT 10SM OVC050 03/M03 A3004 910 61 -200 120/08 RMK AO2
14926KSTC STC20060327081009703/27/06 08:10:31  5-MIN KSTC 271410Z 12008KT 10SM OVC050 03/M03 A3004 910 61 -200 120/08 RMK AO2
14926KSTC STC20060327081509703/27/06 08:15:31  5-MIN KSTC 271415Z 12008KT 10SM OVC050 03/M03 A3004 910 61 -200 120/08 RMK AO2
14926KSTC STC20060327082009703/27/06 08:20:31  5-MIN KSTC 271420Z 13009KT 10SM OVC050 03/M03 A3005 910 61 -200 120/09 RMK AO2
14926KSTC STC20060327082509703/27/06 08:25:31  5-MIN KSTC 271425Z 12010KT 10SM OVC050 03/M03 A3005 910 64 -200 120/10 RMK AO2
14926KSTC STC20060327083009703/27/06 08:30:31  5-MIN KSTC 271430Z 13011KT 10SM OVC050 03/M03 A3004 910 64 -200 120/11 RMK AO2
14926KSTC STC20060327083509703/27/06 08:35:31  5-MIN KSTC 271435Z 12007KT 10SM OVC050 03/M03 A3005 910 64 -200 120/07 RMK AO2
14926KSTC STC20060327084009703/27/06 08:40:31  5-MIN KSTC 271440Z 12008KT 10SM OVC050 03/M03 A3005 910 64 -200 120/08 RMK AO2
14926KSTC STC20060327084509703/27/06 08:45:31  5-MIN KSTC 271445Z 12008KT 10SM OVC050 03/M03 A3005 910 64 -200 120/08 RMK AO2
14926KSTC STC20060327085012003/27/06 08:50:31  5-MIN KSTC 271450Z 12008KT 10SM OVC050 04/M03 A3005 910 62 -100 120/08 RMK AO2 SLP194 T00391028 55007
14926KSTC STC20060327085509703/27/06 08:55:31  5-MIN KSTC 271455Z 12008KT 10SM OVC050 04/M03 A3005 910 62 -100 120/08 RMK AO2
14926KSTC STC20060327090009703/27/06 09:00:31  5-MIN KSTC 271500Z 12007KT 10SM OVC050 04/M03 A3005 910 62 -100 120/07 RMK AO2
14926KSTC STC20060327090510403/27/06 09:05:31  5-MIN KSTC 271505Z 13008KT 10SM BKN055 OVC070 04/M03 A3005 910 62 -100 120/08 RMK AO2
14926KSTC STC20060327091010403/27/06 09:10:31  5-MIN KSTC 271510Z 13009KT 10SM BKN055 OVC070 04/M03 A3005 910 62 -100 130/09 RMK AO2
14926KSTC STC20060327091510403/27/06 09:15:31  5-MIN KSTC 271515Z 13008KT 10SM BKN055 OVC070 04/M03 A3005 910 59 -100 130/08 RMK AO2
14926KSTC STC20060327092010403/27/06 09:20:31  5-MIN KSTC 271520Z 12009KT 10SM BKN055 OVC070 04/M03 A3005 910 62 -100 120/09 RMK AO2
14926KSTC STC20060327092510403/27/06 09:25:31  5-MIN KSTC 271525Z 13009KT 10SM BKN060 OVC075 04/M03 A3005 910 62 -100 130/09 RMK AO2
14926KSTC STC20060327093009703/27/06 09:30:31  5-MIN KSTC 271530Z 14012KT 10SM OVC060 04/M02 A3005 910 62 -100 130/12 RMK AO2
14926KSTC STC20060327093509703/27/06 09:35:31  5-MIN KSTC 271535Z 14011KT 10SM OVC060 04/M02 A3005 900 62 -100 130/11 RMK AO2
14926KSTC STC20060327094009703/27/06 09:40:31  5-MIN KSTC 271540Z 12010KT 10SM OVC060 04/M02 A3005 900 62 -100 120/10 RMK AO2
14926KSTC STC20060327094509403/27/06 09:45:31  5-MIN KSTC 271545Z 13009KT 10SM OVC060 05/M02 A3005 900 62 0 130/09 RMK AO2
14926KSTC STC20060327095011703/27/06 09:50:31  5-MIN KSTC 271550Z 14013G17KT 10SM OVC060 05/M02 A3006 900 62 0 140/13G17 RMK AO2 SLP196 T00501017
14926KSTC STC20060327095509403/27/06 09:55:31  5-MIN KSTC 271555Z 14013KT 10SM OVC060 06/M01 A3005 900 62 0 140/13 RMK AO2
14926KSTC STC20060327100009603/27/06 10:00:31  5-MIN KSTC 271600Z 13013KT 10SM BKN060 06/M01 A3005 910 60 100 130/13 RMK AO2
14926KSTC STC20060327100509403/27/06 10:05:31  5-MIN KSTC 271605Z 13012KT 10SM BKN060 06/M01 A3005 900 62 0 130/12 RMK AO2
14926KSTC STC20060327101009603/27/06 10:10:31  5-MIN KSTC 271610Z 14013KT 10SM BKN060 06/M01 A3005 900 60 100 140/13 RMK AO2
14926KSTC STC20060327101509603/27/06 10:15:31  5-MIN KSTC 271615Z 14013KT 10SM BKN060 06/M01 A3005 900 60 100 140/13 RMK AO2
14926KSTC STC20060327102010103/27/06 10:20:31  5-MIN KSTC 271620Z 15013KT 10SM BKN055 BKN080 06/M01 A3006 900 62 0 140/13 RMK AO2
14926KSTC STC20060327102510103/27/06 10:25:31  5-MIN KSTC 271625Z 14013KT 10SM BKN050 BKN065 05/M01 A3006 900 64 0 140/13 RMK AO2
14926KSTC STC20060327103010103/27/06 10:30:31  5-MIN KSTC 271630Z 15012KT 10SM BKN050 BKN065 05/M01 A3006 900 64 0 150/12 RMK AO2
14926KSTC STC20060327103509403/27/06 10:35:31  5-MIN KSTC 271635Z 12009KT 10SM BKN050 05/M01 A3006 900 64 0 120/09 RMK AO2
14926KSTC STC20060327104009403/27/06 10:40:31  5-MIN KSTC 271640Z 12010KT 10SM OVC050 05/M02 A3006 900 62 0 120/10 RMK AO2
14926KSTC STC20060327104509403/27/06 10:45:31  5-MIN KSTC 271645Z 14011KT 10SM OVC050 05/M01 A3006 900 64 0 130/11 RMK AO2
14926KSTC STC20060327105011103/27/06 10:50:31  5-MIN KSTC 271650Z 14011KT 10SM OVC050 05/M01 A3006 900 64 0 140/11 RMK AO2 SLP197 T00501011
14926KSTC STC20060327105509403/27/06 10:55:31  5-MIN KSTC 271655Z 14012KT 10SM OVC050 06/M01 A3006 900 65 0 140/12 RMK AO2
14926KSTC STC20060327110009403/27/06 11:00:31  5-MIN KSTC 271700Z 15011KT 10SM OVC050 06/M01 A3006 900 65 0 140/11 RMK AO2
14926KSTC STC20060327110509303/27/06 11:05:31  5-MIN KSTC 271705Z 13012KT 9SM OVC050 06/M01 A3006 900 65 0 130/12 RMK AO2
14926KSTC STC20060327111009303/27/06 11:10:31  5-MIN KSTC 271710Z 13010KT 9SM OVC050 06/M01 A3006 900 65 0 130/10 RMK AO2
14926KSTC STC20060327111509903/27/06 11:15:31  5-MIN KSTC 271715Z 14009KT 9SM FEW030 OVC050 06/00 A3006 900 67 0 140/09 RMK AO2
14926KSTC STC20060327112009903/27/06 11:20:31  5-MIN KSTC 271720Z 15011KT 9SM SCT030 OVC050 06/00 A3006 900 67 0 140/11 RMK AO2
14926KSTC STC20060327112509903/27/06 11:25:31  5-MIN KSTC 271725Z 15011KT 9SM SCT030 OVC050 06/00 A3006 900 67 0 150/11 RMK AO2
14926KSTC STC20060327113010003/27/06 11:30:31  5-MIN KSTC 271730Z 14010KT 9SM FEW030 OVC050 06/M01 A3006 890 65 0 140/10 RMK AO2
14926KSTC STC20060327113509903/27/06 11:35:31  5-MIN KSTC 271735Z 14010KT 9SM FEW030 OVC050 06/00 A3006 900 67 0 140/10 RMK AO2
14926KSTC STC20060327114009903/27/06 11:40:31  5-MIN KSTC 271740Z 13010KT 9SM FEW030 OVC050 06/00 A3006 900 67 0 130/10 RMK AO2
14926KSTC STC20060327114510103/27/06 11:45:31  5-MIN KSTC 271745Z 14012KT 9SM FEW030 OVC050 06/00 A3006 890 65 100 140/12 RMK AO2
14926KSTC STC20060327115013403/27/06 11:50:31  5-MIN KSTC 271750Z 15012KT 9SM FEW030 OVC050 06/00 A3007 890 67 0 150/12 RMK AO2 SLP198 T00560000 10061 20028 51009
14926KSTC STC20060327115509903/27/06 11:55:31  5-MIN KSTC 271755Z 15011KT 9SM FEW040 OVC050 06/00 A3006 890 67 0 150/11 RMK AO2
14926KSTC STC20060327120010603/27/06 12:00:31  5-MIN KSTC 271800Z 15010KT 9SM FEW025 SCT039 OVC050 06/00 A3007 890 67 0 150/10 RMK AO2
14926KSTC STC20060327120510603/27/06 12:05:31  5-MIN KSTC 271805Z 16010KT 9SM SCT025 BKN039 OVC050 06/00 A3006 890 67 0 160/10 RMK AO2
14926KSTC STC20060327121010603/27/06 12:10:31  5-MIN KSTC 271810Z 16008KT 8SM SCT025 BKN039 OVC048 06/00 A3007 890 67 0 150/08 RMK AO2
14926KSTC STC20060327121510903/27/06 12:15:31  5-MIN KSTC 271815Z 15010KT 6SM HZ SCT025 BKN039 OVC048 06/01 A3007 890 70 0 150/10 RMK AO2
14926KSTC STC20060327122010903/27/06 12:20:31  5-MIN KSTC 271820Z 15012KT 6SM HZ SCT025 BKN039 OVC046 05/01 A3007 890 73 0 150/12 RMK AO2
14926KSTC STC20060327122509903/27/06 12:25:31  5-MIN KSTC 271825Z 15012KT 7SM SCT027 OVC039 05/01 A3007 890 73 0 140/12 RMK AO2
14926KSTC STC20060327123009903/27/06 12:30:31  5-MIN KSTC 271830Z 14011KT 8SM SCT027 OVC039 05/01 A3006 890 73 0 140/11 RMK AO2
14926KSTC STC20060327123509903/27/06 12:35:31  5-MIN KSTC 271835Z 14012KT 9SM FEW027 OVC037 05/01 A3006 890 73 0 140/12 RMK AO2
14926KSTC STC20060327124009903/27/06 12:40:31  5-MIN KSTC 271840Z 13011KT 9SM FEW029 OVC037 05/00 A3006 890 70 0 130/11 RMK AO2
14926KSTC STC20060327124509903/27/06 12:45:31  5-MIN KSTC 271845Z 14009KT 9SM FEW029 OVC037 05/00 A3006 890 70 0 130/09 RMK AO2
14926KSTC STC20060327125010903/27/06 12:50:31  5-MIN KSTC 271850Z 13007KT 9SM OVC037 06/00 A3006 900 67 0 130/07 RMK AO2 SLP197 T00560000
14926KSTC STC20060327125509203/27/06 12:55:31  5-MIN KSTC 271855Z 13007KT 9SM OVC037 06/00 A3006 900 67 0 130/07 RMK AO2
14926KSTC STC20060327130009203/27/06 13:00:31  5-MIN KSTC 271900Z 13007KT 9SM OVC035 06/00 A3006 900 67 0 120/07 RMK AO2
14926KSTC STC20060327130509203/27/06 13:05:31  5-MIN KSTC 271905Z 11009KT 9SM OVC035 06/00 A3006 900 67 0 110/09 RMK AO2
14926KSTC STC20060327131009303/27/06 13:10:31  5-MIN KSTC 271910Z 12010KT 10SM OVC033 06/00 A3006 900 67 0 110/10 RMK AO2
14926KSTC STC20060327131509303/27/06 13:15:31  5-MIN KSTC 271915Z 13008KT 10SM OVC033 06/00 A3006 900 67 0 130/08 RMK AO2
14926KSTC STC20060327132010003/27/06 13:20:31  5-MIN KSTC 271920Z 13010KT 10SM BKN030 OVC036 06/00 A3006 900 67 0 120/10 RMK AO2
14926KSTC STC20060327132509303/27/06 13:25:31  5-MIN KSTC 271925Z 14010KT 10SM OVC030 06/00 A3006 900 67 0 130/10 RMK AO2
14926KSTC STC20060327133009303/27/06 13:30:31  5-MIN KSTC 271930Z 13009KT 10SM OVC028 06/00 A3006 900 67 0 120/09 RMK AO2
14926KSTC STC20060327133509303/27/06 13:35:31  5-MIN KSTC 271935Z 12007KT 10SM OVC028 06/00 A3006 900 67 0 110/07 RMK AO2
14926KSTC STC20060327134009303/27/06 13:40:31  5-MIN KSTC 271940Z 12006KT 10SM OVC028 06/00 A3006 900 67 0 120/06 RMK AO2
14926KSTC STC20060327134509303/27/06 13:45:31  5-MIN KSTC 271945Z 13007KT 10SM OVC024 06/00 A3005 900 67 0 120/07 RMK AO2
14926KSTC STC20060327135011003/27/06 13:50:31  5-MIN KSTC 271950Z 13009KT 10SM OVC024 06/00 A3005 900 67 0 120/09 RMK AO2 SLP194 T00560000
14926KSTC STC20060327135509303/27/06 13:55:31  5-MIN KSTC 271955Z 14009KT 10SM OVC024 06/00 A3005 900 67 0 140/09 RMK AO2
14926KSTC STC20060327140009203/27/06 14:00:31  5-MIN KSTC 272000Z 14010KT 9SM OVC024 06/00 A3005 900 67 0 140/10 RMK AO2
14926KSTC STC20060327140509203/27/06 14:05:31  5-MIN KSTC 272005Z 14011KT 8SM OVC022 06/01 A3005 900 70 0 140/11 RMK AO2
14926KSTC STC20060327141009203/27/06 14:10:31  5-MIN KSTC 272010Z 14008KT 8SM OVC022 06/01 A3005 910 70 0 130/08 RMK AO2
14926KSTC STC20060327141509203/27/06 14:15:31  5-MIN KSTC 272015Z 14009KT 8SM OVC022 06/01 A3005 910 70 0 140/09 RMK AO2
14926KSTC STC20060327142009403/27/06 14:20:31  5-MIN KSTC 272020Z 14009KT 8SM OVC022 06/01 A3005 910 67 100 130/09 RMK AO2
14926KSTC STC20060327142509403/27/06 14:25:31  5-MIN KSTC 272025Z 14010KT 9SM OVC024 06/01 A3005 910 67 100 140/10 RMK AO2
14926KSTC STC20060327143009403/27/06 14:30:31  5-MIN KSTC 272030Z 14011KT 8SM OVC024 06/01 A3005 910 70 100 140/11 RMK AO2
14926KSTC STC20060327143509403/27/06 14:35:31  5-MIN KSTC 272035Z 14009KT 8SM OVC024 06/01 A3005 910 67 100 130/09 RMK AO2
14926KSTC STC20060327144009403/27/06 14:40:31  5-MIN KSTC 272040Z 15009KT 9SM OVC024 06/01 A3005 910 70 100 140/09 RMK AO2
14926KSTC STC20060327144509403/27/06 14:45:31  5-MIN KSTC 272045Z 14007KT 9SM OVC024 06/01 A3005 910 67 100 140/07 RMK AO2
14926KSTC STC20060327145011703/27/06 14:50:31  5-MIN KSTC 272050Z 12005KT 9SM OVC024 06/01 A3005 910 70 100 120/05 RMK AO2 SLP193 T00610011 51004
14926KSTC STC20060327145509503/27/06 14:55:31  5-MIN KSTC 272055Z 13007KT 10SM OVC026 06/01 A3005 910 67 100 130/07 RMK AO2
14926KSTC STC20060327150009503/27/06 15:00:31  5-MIN KSTC 272100Z 13007KT 10SM OVC026 06/01 A3005 910 67 100 120/07 RMK AO2
14926KSTC STC20060327150509503/27/06 15:05:31  5-MIN KSTC 272105Z 13007KT 10SM OVC026 07/01 A3005 910 65 200 130/07 RMK AO2
14926KSTC STC20060327151009503/27/06 15:10:31  5-MIN KSTC 272110Z 13008KT 10SM OVC026 07/00 A3005 910 62 200 130/08 RMK AO2
14926KSTC STC20060327151511103/27/06 15:15:31  5-MIN KSTC 272115Z 13010KT 080V160 10SM OVC026 07/00 A3005 910 62 200 130/10 080V160 RMK AO2
14926KSTC STC20060327152009503/27/06 15:20:31  5-MIN KSTC 272120Z 14010KT 10SM OVC026 07/01 A3005 910 65 200 140/10 RMK AO2
14926KSTC STC20060327152509503/27/06 15:25:31  5-MIN KSTC 272125Z 14010KT 10SM OVC026 07/01 A3005 910 65 200 140/10 RMK AO2
14926KSTC STC20060327153009503/27/06 15:30:31  5-MIN KSTC 272130Z 14010KT 10SM OVC026 06/00 A3005 910 65 100 140/10 RMK AO2
14926KSTC STC20060327153509503/27/06 15:35:31  5-MIN KSTC 272135Z 15009KT 10SM OVC026 06/00 A3005 910 65 100 140/09 RMK AO2
14926KSTC STC20060327154009503/27/06 15:40:31  5-MIN KSTC 272140Z 14008KT 10SM OVC026 07/01 A3005 910 65 200 140/08 RMK AO2
14926KSTC STC20060327154509503/27/06 15:45:31  5-MIN KSTC 272145Z 15009KT 10SM OVC026 07/00 A3005 910 62 200 150/09 RMK AO2
14926KSTC STC20060327155011203/27/06 15:50:31  5-MIN KSTC 272150Z 15009KT 10SM OVC026 06/01 A3005 910 67 100 150/09 RMK AO2 SLP193 T00610006
14926KSTC STC20060327155510203/27/06 15:55:31  5-MIN KSTC 272155Z 15009KT 10SM BKN028 OVC040 07/01 A3005 910 65 200 150/09 RMK AO2
14926KSTC STC20060327160010203/27/06 16:00:31  5-MIN KSTC 272200Z 15010KT 10SM BKN026 OVC040 07/01 A3005 910 65 200 150/10 RMK AO2
14926KSTC STC20060327160510203/27/06 16:05:31  5-MIN KSTC 272205Z 14009KT 10SM BKN026 OVC040 07/00 A3005 910 62 200 140/09 RMK AO2
14926KSTC STC20060327161010203/27/06 16:10:31  5-MIN KSTC 272210Z 15008KT 10SM BKN026 OVC040 07/01 A3005 910 65 200 150/08 RMK AO2
14926KSTC STC20060327161510203/27/06 16:15:31  5-MIN KSTC 272215Z 16008KT 10SM SCT026 OVC040 07/01 A3005 910 65 200 160/08 RMK AO2
14926KSTC STC20060327162010203/27/06 16:20:31  5-MIN KSTC 272220Z 14008KT 10SM SCT026 OVC040 07/01 A3005 910 65 200 140/08 RMK AO2
14926KSTC STC20060327162510103/27/06 16:25:31  5-MIN KSTC 272225Z 16008KT 9SM FEW026 OVC042 06/01 A3005 910 67 100 150/08 RMK AO2
14926KSTC STC20060327163010103/27/06 16:30:31  5-MIN KSTC 272230Z 16008KT 9SM FEW026 OVC042 06/01 A3005 900 67 100 160/08 RMK AO2
14926KSTC STC20060327163509403/27/06 16:35:31  5-MIN KSTC 272235Z 16008KT 9SM OVC042 06/01 A3005 900 67 100 150/08 RMK AO2
14926KSTC STC20060327164009403/27/06 16:40:31  5-MIN KSTC 272240Z 16006KT 9SM OVC042 06/01 A3005 900 67 100 160/06 RMK AO2
14926KSTC STC20060327164509403/27/06 16:45:31  5-MIN KSTC 272245Z 16005KT 9SM OVC042 06/01 A3006 900 67 100 160/05 RMK AO2
14926KSTC STC20060327165011103/27/06 16:50:31  5-MIN KSTC 272250Z 16005KT 9SM OVC042 06/01 A3006 900 67 100 160/05 RMK AO2 SLP195 T00610006
14926KSTC STC20060327165509403/27/06 16:55:31  5-MIN KSTC 272255Z 17005KT 9SM OVC042 06/01 A3006 900 67 100 160/05 RMK AO2
14926KSTC STC20060327170009403/27/06 17:00:31  5-MIN KSTC 272300Z 17004KT 9SM OVC040 06/01 A3006 900 67 100 160/04 RMK AO2
14926KSTC STC20060327173009903/27/06 17:30:31  5-MIN KSTC 272330Z 21004KT 9SM BKN040 OVC050 06/01 A3006 890 73 0 210/04 RMK AO2
14926KSTC STC20060327173509903/27/06 17:35:31  5-MIN KSTC 272335Z 21004KT 8SM BKN042 OVC050 05/01 A3006 890 76 0 210/04 RMK AO2
14926KSTC STC20060327174009903/27/06 17:40:31  5-MIN KSTC 272340Z 21004KT 8SM BKN042 OVC050 05/01 A3007 890 76 0 210/04 RMK AO2
14926KSTC STC20060327174509903/27/06 17:45:31  5-MIN KSTC 272345Z 21004KT 8SM BKN042 OVC050 05/01 A3007 890 76 0 210/04 RMK AO2
14926KSTC STC20060327175013403/27/06 17:50:31  5-MIN KSTC 272350Z 21004KT 8SM BKN043 OVC050 05/01 A3007 890 76 0 210/04 RMK AO2 SLP199 T00500011 10067 20050 58004
14926KSTC STC20060327175509203/27/06 17:55:31  5-MIN KSTC 272355Z 22004KT 8SM OVC047 05/02 A3007 890 79 0 220/04 RMK AO2
14926KSTC STC20060327180009203/27/06 18:00:31  5-MIN KSTC 280000Z 22003KT 8SM OVC047 05/01 A3007 890 76 0 210/03 RMK AO2
14926KSTC STC20060327180509203/27/06 18:05:31  5-MIN KSTC 280005Z 22003KT 8SM OVC049 05/01 A3007 890 76 0 220/03 RMK AO2
14926KSTC STC20060327181009203/27/06 18:10:31  5-MIN KSTC 280010Z 22003KT 8SM OVC049 05/01 A3007 890 76 0 220/03 RMK AO2
14926KSTC STC20060327181509503/27/06 18:15:31  5-MIN KSTC 280015Z 21003KT 8SM OVC049 04/01 A3008 880 79 -100 210/03 RMK AO2
14926KSTC STC20060327182009503/27/06 18:20:31  5-MIN KSTC 280020Z 00000KT 8SM OVC049 04/01 A3008 880 79 -100 000/00 RMK AO2
14926KSTC STC20060327182509503/27/06 18:25:31  5-MIN KSTC 280025Z 00000KT 8SM OVC049 04/01 A3008 880 79 -100 000/00 RMK AO2
14926KSTC STC20060327183009203/27/06 18:30:31  5-MIN KSTC 280030Z 00000KT 8SM OVC049 05/01 A3008 880 76 0 000/00 RMK AO2
14926KSTC STC20060327183509903/27/06 18:35:31  5-MIN KSTC 280035Z 00000KT 8SM FEW033 OVC049 05/01 A3008 880 76 0 000/00 RMK AO2
14926KSTC STC20060327184010203/27/06 18:40:31  5-MIN KSTC 280040Z 00000KT 9SM SCT033 OVC049 04/01 A3008 880 79 -100 000/00 RMK AO2
14926KSTC STC20060327184510203/27/06 18:45:31  5-MIN KSTC 280045Z 00000KT 9SM SCT033 OVC049 04/01 A3008 870 79 -100 000/00 RMK AO2
14926KSTC STC20060327185011903/27/06 18:50:31  5-MIN KSTC 280050Z 00000KT 9SM BKN033 OVC049 04/01 A3008 880 79 -100 000/00 RMK AO2 SLP205 T00440011
14926KSTC STC20060327185510203/27/06 18:55:31  5-MIN KSTC 280055Z 00000KT 9SM BKN033 OVC049 04/01 A3008 880 79 -100 000/00 RMK AO2
14926KSTC STC20060327190010203/27/06 19:00:31  5-MIN KSTC 280100Z 00000KT 8SM BKN033 OVC049 04/01 A3009 870 79 -100 000/00 RMK AO2
14926KSTC STC20060327190509503/27/06 19:05:31  5-MIN KSTC 280105Z 00000KT 8SM OVC033 04/01 A3009 870 82 -200 000/00 RMK AO2
14926KSTC STC20060327191009503/27/06 19:10:31  5-MIN KSTC 280110Z 00000KT 8SM OVC033 04/01 A3009 870 82 -200 000/00 RMK AO2
14926KSTC STC20060327191509503/27/06 19:15:31  5-MIN KSTC 280115Z 00000KT 8SM OVC033 04/01 A3009 870 79 -200 000/00 RMK AO2
14926KSTC STC20060327192009503/27/06 19:20:31  5-MIN KSTC 280120Z 26003KT 8SM OVC033 04/01 A3009 870 79 -200 250/03 RMK AO2
14926KSTC STC20060327192509503/27/06 19:25:31  5-MIN KSTC 280125Z 26004KT 8SM OVC033 03/01 A3009 870 82 -200 260/04 RMK AO2
14926KSTC STC20060327193009503/27/06 19:30:31  5-MIN KSTC 280130Z 26003KT 8SM OVC033 03/01 A3009 870 82 -200 250/03 RMK AO2
14926KSTC STC20060327193509503/27/06 19:35:31  5-MIN KSTC 280135Z 24003KT 8SM OVC033 03/01 A3009 870 82 -300 230/03 RMK AO2
14926KSTC STC20060327194009503/27/06 19:40:31  5-MIN KSTC 280140Z 23003KT 8SM OVC033 03/01 A3010 860 82 -300 220/03 RMK AO2
14926KSTC STC20060327194509503/27/06 19:45:31  5-MIN KSTC 280145Z 22003KT 7SM OVC033 03/01 A3010 860 82 -300 220/03 RMK AO2
14926KSTC STC20060327195011203/27/06 19:50:31  5-MIN KSTC 280150Z 00000KT 7SM OVC033 03/01 A3010 860 82 -300 000/00 RMK AO2 SLP210 T00330006
14926KSTC STC20060327195509503/27/06 19:55:31  5-MIN KSTC 280155Z 21004KT 7SM OVC033 03/01 A3010 860 82 -300 210/04 RMK AO2
14926KSTC STC20060327200009503/27/06 20:00:31  5-MIN KSTC 280200Z 22004KT 7SM OVC033 03/01 A3010 860 85 -300 220/04 RMK AO2
14926KSTC STC20060327200509503/27/06 20:05:31  5-MIN KSTC 280205Z 23004KT 7SM OVC033 03/01 A3010 860 82 -300 220/04 RMK AO2
14926KSTC STC20060327201009803/27/06 20:10:31  5-MIN KSTC 280210Z 23003KT 6SM HZ OVC033 03/01 A3010 860 82 -300 230/03 RMK AO2
14926KSTC STC20060327201509803/27/06 20:15:31  5-MIN KSTC 280215Z 24003KT 6SM HZ OVC033 03/01 A3011 860 82 -300 240/03 RMK AO2
14926KSTC STC20060327202009803/27/06 20:20:31  5-MIN KSTC 280220Z 00000KT 6SM HZ OVC033 03/01 A3011 850 82 -300 000/00 RMK AO2
14926KSTC STC20060327202509803/27/06 20:25:31  5-MIN KSTC 280225Z 00000KT 6SM BR OVC033 03/01 A3011 850 85 -300 000/00 RMK AO2
14926KSTC STC20060327203009803/27/06 20:30:31  5-MIN KSTC 280230Z 29003KT 6SM HZ OVC033 03/01 A3011 850 82 -300 290/03 RMK AO2
14926KSTC STC20060327203509803/27/06 20:35:31  5-MIN KSTC 280235Z 31003KT 6SM BR OVC033 03/01 A3011 850 85 -300 300/03 RMK AO2
14926KSTC STC20060327204009803/27/06 20:40:31  5-MIN KSTC 280240Z 31004KT 6SM HZ OVC033 03/01 A3012 850 82 -300 310/04 RMK AO2
14926KSTC STC20060327204509803/27/06 20:45:31  5-MIN KSTC 280245Z 32004KT 6SM HZ OVC033 03/01 A3012 840 82 -300 310/04 RMK AO2
14926KSTC STC20060327205012103/27/06 20:50:31  5-MIN KSTC 280250Z 32005KT 6SM HZ OVC033 03/01 A3012 840 82 -300 310/05 RMK AO2 SLP217 T00330006 53006
14926KSTC STC20060327205509803/27/06 20:55:31  5-MIN KSTC 280255Z 31006KT 6SM HZ OVC033 03/01 A3012 840 82 -300 310/06 RMK AO2
14926KSTC STC20060327210009803/27/06 21:00:31  5-MIN KSTC 280300Z 31006KT 6SM BR OVC033 03/01 A3012 840 85 -300 310/06 RMK AO2
14926KSTC STC20060327210509803/27/06 21:05:31  5-MIN KSTC 280305Z 31006KT 6SM HZ OVC035 03/01 A3012 840 82 -300 300/06 RMK AO2
14926KSTC STC20060327211009803/27/06 21:10:31  5-MIN KSTC 280310Z 30006KT 6SM HZ OVC035 03/01 A3013 840 82 -300 300/06 RMK AO2
14926KSTC STC20060327211509803/27/06 21:15:31  5-MIN KSTC 280315Z 30005KT 6SM HZ OVC037 03/01 A3013 840 82 -300 300/05 RMK AO2
14926KSTC STC20060327212009803/27/06 21:20:31  5-MIN KSTC 280320Z 31004KT 6SM BR OVC039 03/01 A3013 840 85 -300 310/04 RMK AO2
14926KSTC STC20060327212509803/27/06 21:25:31  5-MIN KSTC 280325Z 32003KT 6SM HZ OVC039 04/01 A3013 830 82 -200 320/03 RMK AO2
14926KSTC STC20060327213009803/27/06 21:30:31  5-MIN KSTC 280330Z 32003KT 6SM HZ OVC041 04/01 A3013 830 82 -200 320/03 RMK AO2
14926KSTC STC20060327213509803/27/06 21:35:31  5-MIN KSTC 280335Z 32003KT 6SM BR OVC043 03/01 A3013 830 85 -300 310/03 RMK AO2
14926KSTC STC20060327214009803/27/06 21:40:31  5-MIN KSTC 280340Z 29003KT 6SM BR OVC043 03/01 A3013 830 85 -300 290/03 RMK AO2
14926KSTC STC20060327214509803/27/06 21:45:31  5-MIN KSTC 280345Z 32004KT 6SM BR OVC043 03/01 A3013 830 85 -300 320/04 RMK AO2
14926KSTC STC20060327215011503/27/06 21:50:31  5-MIN KSTC 280350Z 32004KT 6SM HZ OVC043 03/01 A3013 840 82 -300 320/04 RMK AO2 SLP219 T00330006
14926KSTC STC20060327215509803/27/06 21:55:31  5-MIN KSTC 280355Z 32004KT 5SM HZ OVC043 03/01 A3013 830 82 -300 320/04 RMK AO2
14926KSTC STC20060327220009803/27/06 22:00:31  5-MIN KSTC 280400Z 32004KT 5SM BR OVC043 03/01 A3013 840 85 -400 310/04 RMK AO2
14926KSTC STC20060327220509803/27/06 22:05:31  5-MIN KSTC 280405Z 34003KT 5SM BR OVC043 03/01 A3013 830 85 -400 340/03 RMK AO2
14926KSTC STC20060327221009803/27/06 22:10:31  5-MIN KSTC 280410Z 00000KT 5SM HZ OVC043 03/01 A3013 830 82 -300 000/00 RMK AO2
14926KSTC STC20060327221509803/27/06 22:15:31  5-MIN KSTC 280415Z 00000KT 5SM HZ OVC043 03/01 A3013 830 82 -300 000/00 RMK AO2
14926KSTC STC20060327222009803/27/06 22:20:31  5-MIN KSTC 280420Z 00000KT 5SM HZ OVC045 03/01 A3013 830 82 -300 000/00 RMK AO2
14926KSTC STC20060327222509803/27/06 22:25:31  5-MIN KSTC 280425Z 00000KT 5SM HZ OVC045 03/01 A3013 830 82 -300 000/00 RMK AO2
14926KSTC STC20060327223009803/27/06 22:30:31  5-MIN KSTC 280430Z 35003KT 5SM BR OVC045 03/01 A3013 830 85 -400 350/03 RMK AO2
14926KSTC STC20060327223509803/27/06 22:35:31  5-MIN KSTC 280435Z 00000KT 5SM BR OVC047 03/01 A3013 830 85 -400 000/00 RMK AO2
14926KSTC STC20060327224009803/27/06 22:40:31  5-MIN KSTC 280440Z 00000KT 5SM BR BKN047 03/01 A3013 830 85 -400 000/00 RMK AO2
14926KSTC STC20060327224509803/27/06 22:45:31  5-MIN KSTC 280445Z 00000KT 5SM BR BKN047 03/01 A3013 830 85 -400 000/00 RMK AO2
14926KSTC STC20060327225012003/27/06 22:50:31  5-MIN KSTC 280450Z AUTO 00000KT 5SM BR SCT047 03/01 A3013 830 85 -400 000/00 RMK AO2 SLP222 T00280006
14926KSTC STC20060327225510303/27/06 22:55:31  5-MIN KSTC 280455Z AUTO 00000KT 4SM BR FEW047 02/00 A3013 830 85 -400 000/00 RMK AO2
14926KSTC STC20060327230010403/27/06 23:00:31  5-MIN KSTC 280500Z AUTO 00000KT 4SM BR FEW047 02/M01 A3014 830 85 -500 000/00 RMK AO2
14926KSTC STC20060327230510003/27/06 23:05:31  5-MIN KSTC 280505Z AUTO 00000KT 4SM BR CLR 02/00 A3014 830 89 -500 000/00 RMK AO2
14926KSTC STC20060327231010003/27/06 23:10:31  5-MIN KSTC 280510Z AUTO 00000KT 4SM BR CLR 01/00 A3013 830 92 -600 000/00 RMK AO2
14926KSTC STC20060327231510103/27/06 23:15:31  5-MIN KSTC 280515Z AUTO 00000KT 3SM BR CLR 01/M01 A3013 830 92 -600 000/00 RMK AO2
14926KSTC STC20060327232010103/27/06 23:20:31  5-MIN KSTC 280520Z AUTO 00000KT 3SM BR CLR 01/M01 A3013 830 92 -600 000/00 RMK AO2
14926KSTC STC20060327232510103/27/06 23:25:31  5-MIN KSTC 280525Z AUTO 00000KT 3SM BR CLR 01/M01 A3013 830 89 -600 000/00 RMK AO2
14926KSTC STC20060327233010103/27/06 23:30:31  5-MIN KSTC 280530Z AUTO 00000KT 3SM BR CLR 01/M01 A3014 830 89 -600 000/00 RMK AO2
14926KSTC STC20060327233510503/27/06 23:35:31  5-MIN KSTC 280535Z AUTO 00000KT 2 1/2SM BR CLR 01/M01 A3014 830 89 -600 000/00 RMK AO2
14926KSTC STC20060327234010503/27/06 23:40:31  5-MIN KSTC 280540Z AUTO 00000KT 2 1/2SM BR CLR 01/M01 A3014 830 89 -600 000/00 RMK AO2
14926KSTC STC20060327234510503/27/06 23:45:31  5-MIN KSTC 280545Z AUTO 00000KT 2 1/2SM BR CLR 00/M01 A3014 830 92 -700 000/00 RMK AO2
14926KSTC STC20060327235014603/27/06 23:50:31  5-MIN KSTC 280550Z AUTO 00000KT 2SM BR CLR 00/M01 A3013 830 92 -700 000/00 RMK AO2 SLP224 T00001011 10050 21006 400671006 53016
14926KSTC STC20060327235510503/27/06 23:55:31  5-MIN KSTC 280555Z AUTO 00000KT 1 3/4SM BR CLR 00/M01 A3013 830 92 -700 000/00 RMK AO2
14926KSTC STC20060328000010503/28/06 00:00:32  5-MIN KSTC 280600Z AUTO 00000KT 1 1/2SM BR CLR 00/M01 A3014 830 92 -700 000/00 RMK AO2
14926KSTC STC20060328000510503/28/06 00:05:31  5-MIN KSTC 280605Z AUTO 00000KT 1 1/4SM BR CLR 00/M01 A3014 830 92 -700 000/00 RMK AO2
14926KSTC STC20060328001010503/28/06 00:10:31  5-MIN KSTC 280610Z AUTO 00000KT 1 1/4SM BR CLR 00/M01 A3014 830 92 -700 000/00 RMK AO2
14926KSTC STC20060328001510403/28/06 00:15:31  5-MIN KSTC 280615Z AUTO 00000KT 3/4SM BR CLR M01/M02 A3014 830 92 -800 000/00 RMK AO2
14926KSTC STC20060328002010603/28/06 00:20:31  5-MIN KSTC 280620Z AUTO 00000KT 1/2SM FZFG CLR M01/M02 A3014 830 92 -800 000/00 RMK AO2
14926KSTC STC20060328002510603/28/06 00:25:31  5-MIN KSTC 280625Z AUTO 00000KT 1/4SM FZFG CLR M01/M02 A3014 820 92 -800 000/00 RMK AO2
14926KSTC STC20060328003010603/28/06 00:30:31  5-MIN KSTC 280630Z AUTO 00000KT 1/4SM FZFG CLR M01/M02 A3014 820 92 -800 000/00 RMK AO2
14926KSTC STC20060328003510603/28/06 00:35:31  5-MIN KSTC 280635Z AUTO 00000KT 1/2SM FZFG CLR M01/M01 A3014 820 96 -800 000/00 RMK AO2
14926KSTC STC20060328004010803/28/06 00:40:31  5-MIN KSTC 280640Z AUTO 00000KT 1/2SM FZFG VV001 M01/M02 A3015 820 96 -900 000/00 RMK AO2
14926KSTC STC20060328004510803/28/06 00:45:31  5-MIN KSTC 280645Z AUTO 00000KT 1/4SM FZFG VV001 M01/M02 A3015 820 96 -900 000/00 RMK AO2
14926KSTC STC20060328005010803/28/06 00:50:31  5-MIN KSTC 280650Z AUTO 00000KT 1/4SM FZFG VV001 M02/M02 A3015 820 96 -900 000/00 RMK AO2
14926KSTC STC20060328005510803/28/06 00:55:31  5-MIN KSTC 280655Z AUTO 00000KT 1/4SM FZFG VV001 M02/M02 A3015 820 96 -900 000/00 RMK AO2
14926KSTC STC20060328010010803/28/06 01:00:31  5-MIN KSTC 280700Z AUTO 00000KT 1/4SM FZFG VV001 M02/M02 A3015 820 96 -900 000/00 RMK AO2
14926KSTC STC20060328010510603/28/06 01:05:31  5-MIN KSTC 280705Z AUTO 00000KT 3/4SM BR VV001 M02/M02 A3015 820 96 -900 000/00 RMK AO2
14926KSTC STC20060328011010803/28/06 01:10:31  5-MIN KSTC 280710Z AUTO 00000KT 1/2SM FZFG VV001 M01/M02 A3015 810 92 -900 000/00 RMK AO2
14926KSTC STC20060328011510603/28/06 01:15:31  5-MIN KSTC 280715Z AUTO 00000KT 1/2SM FZFG CLR M02/M02 A3015 810 96 -900 000/00 RMK AO2
14926KSTC STC20060328012010403/28/06 01:20:31  5-MIN KSTC 280720Z AUTO 00000KT 3/4SM BR CLR M01/M02 A3015 810 96 -900 000/00 RMK AO2
14926KSTC STC20060328012510603/28/06 01:25:31  5-MIN KSTC 280725Z AUTO 00000KT 1 1/4SM BR CLR M01/M02 A3015 810 96 -900 000/00 RMK AO2
14926KSTC STC20060328013010203/28/06 01:30:31  5-MIN KSTC 280730Z AUTO 32003KT 1SM BR CLR M02/M02 A3015 810 96 -900 320/03 RMK AO2
14926KSTC STC20060328013510203/28/06 01:35:31  5-MIN KSTC 280735Z AUTO 32003KT 1SM BR CLR M02/M02 A3015 810 96 -900 320/03 RMK AO2
14926KSTC STC20060328014010303/28/06 01:40:31  5-MIN KSTC 280740Z AUTO 00000KT 1SM BR CLR M02/M03 A3015 810 96 -1000 000/00 RMK AO2
14926KSTC STC20060328014510403/28/06 01:45:31  5-MIN KSTC 280745Z AUTO 31003KT 3/4SM BR CLR M01/M02 A3015 810 92 -900 310/03 RMK AO2
14926KSTC STC20060328015012303/28/06 01:50:31  5-MIN KSTC 280750Z AUTO 32004KT 3/4SM BR VV001 M02/M02 A3015 810 96 -900 310/04 RMK AO2 SLP229 T10171022
14926KSTC STC20060328015510603/28/06 01:55:31  5-MIN KSTC 280755Z AUTO 00000KT 3/4SM BR VV001 M02/M03 A3015 810 92 -900 000/00 RMK AO2
14926KSTC STC20060328020010803/28/06 02:00:31  5-MIN KSTC 280800Z AUTO 00000KT 1/2SM FZFG VV001 M02/M03 A3015 810 92 -900 000/00 RMK AO2
14926KSTC STC20060328020510803/28/06 02:05:31  5-MIN KSTC 280805Z AUTO 00000KT 1/4SM FZFG VV001 M02/M03 A3015 810 92 -900 000/00 RMK AO2
14926KSTC STC20060328021010803/28/06 02:10:31  5-MIN KSTC 280810Z AUTO 00000KT 1/4SM FZFG VV001 M02/M03 A3015 810 92 -900 000/00 RMK AO2
14926KSTC STC20060328021510803/28/06 02:15:31  5-MIN KSTC 280815Z AUTO 00000KT 1/2SM FZFG VV001 M02/M02 A3015 810 96 -900 000/00 RMK AO2
14926KSTC STC20060328022010903/28/06 02:20:31  5-MIN KSTC 280820Z AUTO 00000KT 1/4SM FZFG VV001 M02/M03 A3015 810 96 -1000 000/00 RMK AO2
14926KSTC STC20060328022510903/28/06 02:25:31  5-MIN KSTC 280825Z AUTO 00000KT 1/4SM FZFG VV001 M02/M03 A3015 810 92 -1000 000/00 RMK AO2
14926KSTC STC20060328023010903/28/06 02:30:31  5-MIN KSTC 280830Z AUTO 00000KT 1/2SM FZFG VV001 M02/M03 A3015 810 92 -1000 000/00 RMK AO2
14926KSTC STC20060328023510803/28/06 02:35:31  5-MIN KSTC 280835Z AUTO 00000KT 1/2SM FZFG VV001 M02/M03 A3015 810 88 -900 000/00 RMK AO2
14926KSTC STC20060328024010803/28/06 02:40:31  5-MIN KSTC 280840Z AUTO 00000KT 1/4SM FZFG VV001 M02/M03 A3015 810 88 -900 000/00 RMK AO2
14926KSTC STC20060328024510803/28/06 02:45:31  5-MIN KSTC 280845Z AUTO 00000KT 1/4SM FZFG VV001 M02/M03 A3015 810 92 -900 000/00 RMK AO2
14926KSTC STC20060328025013203/28/06 02:50:31  5-MIN KSTC 280850Z AUTO 00000KT 1/4SM FZFG VV001 M02/M03 A3015 810 92 -1000 000/00 RMK AO2 SLP229 T10221033 51005
14926KSTC STC20060328025510903/28/06 02:55:31  5-MIN KSTC 280855Z AUTO 00000KT 1/4SM FZFG VV001 M02/M03 A3015 810 92 -1000 000/00 RMK AO2
14926KSTC STC20060328030011003/28/06 03:00:31  5-MIN KSTC 280900Z AUTO 00000KT M1/4SM FZFG VV001 M02/M03 A3015 810 92 -1000 000/00 RMK AO2
14926KSTC STC20060328030511003/28/06 03:05:31  5-MIN KSTC 280905Z AUTO 00000KT M1/4SM FZFG VV001 M03/M03 A3016 810 96 -1100 000/00 RMK AO2
14926KSTC STC20060328031010903/28/06 03:10:31  5-MIN KSTC 280910Z AUTO 00000KT 1/4SM FZFG VV001 M03/M03 A3015 810 96 -1100 000/00 RMK AO2
14926KSTC STC20060328031510903/28/06 03:15:31  5-MIN KSTC 280915Z AUTO 00000KT 1/4SM FZFG VV001 M03/M03 A3015 810 96 -1100 000/00 RMK AO2
14926KSTC STC20060328032010903/28/06 03:20:31  5-MIN KSTC 280920Z AUTO 00000KT 1/4SM FZFG VV001 M03/M03 A3015 810 96 -1100 000/00 RMK AO2
14926KSTC STC20060328032511003/28/06 03:25:31  5-MIN KSTC 280925Z AUTO 00000KT M1/4SM FZFG VV001 M03/M03 A3015 820 96 -1100 000/00 RMK AO2
14926KSTC STC20060328033011003/28/06 03:30:31  5-MIN KSTC 280930Z AUTO 00000KT M1/4SM FZFG VV001 M03/M03 A3015 820 96 -1100 000/00 RMK AO2
14926KSTC STC20060328033511803/28/06 03:35:31  5-MIN KSTC 280935Z AUTO 00000KT M1/4SM FZFG BKN001 OVC011 M03/M03 A3015 810 96 -1100 000/00 RMK AO2
14926KSTC STC20060328034011803/28/06 03:40:31  5-MIN KSTC 280940Z AUTO 00000KT M1/4SM FZFG BKN001 OVC011 M03/M03 A3015 810 96 -1100 000/00 RMK AO2
14926KSTC STC20060328034511703/28/06 03:45:31  5-MIN KSTC 280945Z AUTO 00000KT 1/4SM FZFG BKN001 OVC011 M03/M03 A3015 810 96 -1100 000/00 RMK AO2
14926KSTC STC20060328035013403/28/06 03:50:31  5-MIN KSTC 280950Z AUTO 00000KT 1/4SM FZFG BKN001 OVC009 M03/M03 A3015 810 96 -1100 000/00 RMK AO2 SLP230 T10281033
14926KSTC STC20060328035511803/28/06 03:55:31  5-MIN KSTC 280955Z AUTO 00000KT M1/4SM FZFG BKN001 OVC009 M03/M04 A3015 810 92 -1100 000/00 RMK AO2
14926KSTC STC20060328040011703/28/06 04:00:31  5-MIN KSTC 281000Z AUTO 00000KT 1/4SM FZFG BKN001 OVC009 M03/M04 A3015 810 96 -1200 000/00 RMK AO2
14926KSTC STC20060328040511703/28/06 04:05:31  5-MIN KSTC 281005Z AUTO 00000KT 1/4SM FZFG SCT001 OVC009 M03/M04 A3015 810 92 -1100 000/00 RMK AO2
14926KSTC STC20060328041011703/28/06 04:10:31  5-MIN KSTC 281010Z AUTO 00000KT 1/4SM FZFG SCT001 OVC009 M03/M04 A3015 810 96 -1200 000/00 RMK AO2
14926KSTC STC20060328041511803/28/06 04:15:31  5-MIN KSTC 281015Z AUTO 00000KT M1/4SM FZFG FEW001 OVC009 M03/M04 A3016 810 96 -1200 000/00 RMK AO2
14926KSTC STC20060328042011803/28/06 04:20:31  5-MIN KSTC 281020Z AUTO 00000KT M1/4SM FZFG FEW001 OVC009 M03/M04 A3016 810 96 -1200 000/00 RMK AO2
14926KSTC STC20060328042511803/28/06 04:25:31  5-MIN KSTC 281025Z AUTO 00000KT M1/4SM FZFG FEW001 OVC009 M03/M04 A3016 810 96 -1200 000/00 RMK AO2
14926KSTC STC20060328043011103/28/06 04:30:31  5-MIN KSTC 281030Z AUTO 00000KT M1/4SM FZFG OVC009 M03/M04 A3016 810 96 -1200 000/00 RMK AO2
14926KSTC STC20060328043511103/28/06 04:35:31  5-MIN KSTC 281035Z AUTO 00000KT M1/4SM FZFG OVC009 M03/M04 A3016 810 96 -1200 000/00 RMK AO2
14926KSTC STC20060328044011803/28/06 04:40:31  5-MIN KSTC 281040Z AUTO 00000KT M1/4SM FZFG FEW001 OVC009 M03/M04 A3016 810 96 -1200 000/00 RMK AO2
14926KSTC STC20060328044511803/28/06 04:45:31  5-MIN KSTC 281045Z AUTO 00000KT M1/4SM FZFG FEW001 OVC009 M03/M04 A3016 800 96 -1200 000/00 RMK AO2
14926KSTC STC20060328045013503/28/06 04:50:31  5-MIN KSTC 281050Z AUTO 00000KT M1/4SM FZFG SCT001 OVC007 M03/M04 A3016 800 92 -1100 000/00 RMK AO2 SLP235 T10281039
14926KSTC STC20060328045511803/28/06 04:55:31  5-MIN KSTC 281055Z AUTO 00000KT M1/4SM FZFG SCT001 OVC007 M03/M04 A3016 800 92 -1100 000/00 RMK AO2
14926KSTC STC20060328050011803/28/06 05:00:31  5-MIN KSTC 281100Z AUTO 00000KT M1/4SM FZFG SCT001 OVC007 M03/M04 A3016 800 92 -1100 000/00 RMK AO2
14926KSTC STC20060328050511803/28/06 05:05:31  5-MIN KSTC 281105Z AUTO 00000KT M1/4SM FZFG SCT001 OVC007 M03/M04 A3016 800 92 -1100 000/00 RMK AO2
14926KSTC STC20060328051011803/28/06 05:10:31  5-MIN KSTC 281110Z AUTO 00000KT M1/4SM FZFG BKN001 OVC007 M03/M04 A3016 800 96 -1200 000/00 RMK AO2
14926KSTC STC20060328051511803/28/06 05:15:31  5-MIN KSTC 281115Z AUTO 00000KT M1/4SM FZFG BKN001 OVC007 M03/M04 A3017 800 96 -1200 000/00 RMK AO2
14926KSTC STC20060328052011803/28/06 05:20:31  5-MIN KSTC 281120Z AUTO 00000KT M1/4SM FZFG BKN001 OVC007 M03/M04 A3017 800 96 -1200 000/00 RMK AO2
14926KSTC STC20060328052511803/28/06 05:25:31  5-MIN KSTC 281125Z AUTO 00000KT M1/4SM FZFG BKN001 OVC007 M03/M04 A3017 800 96 -1200 000/00 RMK AO2
14926KSTC STC20060328053011803/28/06 05:30:31  5-MIN KSTC 281130Z AUTO 00000KT M1/4SM FZFG BKN001 OVC007 M03/M04 A3017 800 92 -1100 000/00 RMK AO2
14926KSTC STC20060328053511803/28/06 05:35:31  5-MIN KSTC 281135Z AUTO 00000KT M1/4SM FZFG BKN001 OVC007 M03/M04 A3017 800 96 -1200 000/00 RMK AO2
14926KSTC STC20060328054011803/28/06 05:40:31  5-MIN KSTC 281140Z AUTO 00000KT M1/4SM FZFG BKN001 OVC007 M03/M04 A3017 800 96 -1200 000/00 RMK AO2
14926KSTC STC20060328054511803/28/06 05:45:31  5-MIN KSTC 281145Z AUTO 00000KT M1/4SM FZFG BKN001 OVC007 M03/M04 A3017 800 96 -1200 000/00 RMK AO2
14926KSTC STC20060328055015303/28/06 05:50:31  5-MIN KSTC 281150Z AUTO 00000KT M1/4SM FZFG BKN001 OVC007 M03/M04 A3017 800 96 -1200 000/00 RMK AO2 SLP237 T10331039 10000 21033 51006
14926KSTC STC20060328055511803/28/06 05:55:31  5-MIN KSTC 281155Z AUTO 00000KT M1/4SM FZFG BKN001 OVC007 M03/M04 A3017 790 96 -1200 000/00 RMK AO2
14926KSTC STC20060328060011803/28/06 06:00:31  5-MIN KSTC 281200Z AUTO 00000KT M1/4SM FZFG BKN001 OVC007 M03/M04 A3017 790 92 -1200 000/00 RMK AO2
14926KSTC STC20060328060511003/28/06 06:05:31  5-MIN KSTC 281205Z AUTO 00000KT M1/4SM FZFG VV001 M03/M04 A3017 790 92 -1200 000/00 RMK AO2
14926KSTC STC20060328061011003/28/06 06:10:31  5-MIN KSTC 281210Z AUTO 00000KT M1/4SM FZFG VV001 M03/M04 A3017 790 96 -1200 000/00 RMK AO2
14926KSTC STC20060328061511003/28/06 06:15:31  5-MIN KSTC 281215Z AUTO 00000KT M1/4SM FZFG VV001 M03/M04 A3017 790 96 -1200 000/00 RMK AO2
14926KSTC STC20060328062011003/28/06 06:20:31  5-MIN KSTC 281220Z AUTO 00000KT M1/4SM FZFG VV001 M03/M04 A3017 790 96 -1200 000/00 RMK AO2
14926KSTC STC20060328062511003/28/06 06:25:31  5-MIN KSTC 281225Z AUTO 00000KT M1/4SM FZFG VV001 M03/M04 A3018 790 96 -1200 000/00 RMK AO2
14926KSTC STC20060328063011003/28/06 06:30:31  5-MIN KSTC 281230Z AUTO 00000KT M1/4SM FZFG VV001 M03/M04 A3018 790 96 -1200 000/00 RMK AO2
14926KSTC STC20060328063511003/28/06 06:35:31  5-MIN KSTC 281235Z AUTO 00000KT M1/4SM FZFG VV001 M03/M04 A3018 790 96 -1200 000/00 RMK AO2
14926KSTC STC20060328064011003/28/06 06:40:31  5-MIN KSTC 281240Z AUTO 00000KT M1/4SM FZFG VV001 M03/M04 A3018 790 96 -1200 000/00 RMK AO2
14926KSTC STC20060328064511003/28/06 06:45:31  5-MIN KSTC 281245Z AUTO 00000KT M1/4SM FZFG VV001 M03/M04 A3018 790 96 -1200 000/00 RMK AO2
14926KSTC STC20060328065012703/28/06 06:50:31  5-MIN KSTC 281250Z AUTO 00000KT M1/4SM FZFG VV001 M03/M04 A3018 790 96 -1200 000/00 RMK AO2 SLP239 T10331039
14926KSTC STC20060328065510503/28/06 06:55:31  5-MIN KSTC 281255Z 00000KT M1/4SM FZFG VV001 M03/M04 A3018 790 96 -1200 000/00 RMK AO2
14926KSTC STC20060328070010503/28/06 07:00:31  5-MIN KSTC 281300Z 00000KT M1/4SM FZFG VV001 M03/M04 A3018 790 96 -1200 000/00 RMK AO2
14926KSTC STC20060328070510503/28/06 07:05:31  5-MIN KSTC 281305Z 00000KT M1/4SM FZFG VV001 M03/M03 A3018 790 96 -1100 000/00 RMK AO2
14926KSTC STC20060328071010503/28/06 07:10:31  5-MIN KSTC 281310Z 00000KT M1/4SM FZFG VV001 M03/M03 A3018 790 96 -1100 000/00 RMK AO2
14926KSTC STC20060328071510503/28/06 07:15:31  5-MIN KSTC 281315Z 00000KT M1/4SM FZFG VV001 M03/M04 A3018 790 92 -1100 000/00 RMK AO2
14926KSTC STC20060328072010503/28/06 07:20:31  5-MIN KSTC 281320Z 00000KT M1/4SM FZFG VV001 M03/M04 A3018 790 92 -1100 000/00 RMK AO2
14926KSTC STC20060328072510503/28/06 07:25:31  5-MIN KSTC 281325Z 00000KT M1/4SM FZFG VV001 M03/M04 A3018 790 92 -1100 000/00 RMK AO2
14926KSTC STC20060328073010503/28/06 07:30:31  5-MIN KSTC 281330Z 00000KT M1/4SM FZFG VV001 M03/M03 A3018 790 96 -1100 000/00 RMK AO2
14926KSTC STC20060328073510503/28/06 07:35:31  5-MIN KSTC 281335Z 00000KT M1/4SM FZFG VV001 M02/M03 A3018 780 92 -1000 000/00 RMK AO2
14926KSTC STC20060328074010503/28/06 07:40:31  5-MIN KSTC 281340Z 00000KT M1/4SM FZFG VV001 M02/M03 A3018 780 92 -1000 000/00 RMK AO2
14926KSTC STC20060328074510503/28/06 07:45:31  5-MIN KSTC 281345Z 00000KT M1/4SM FZFG VV001 M02/M03 A3019 780 96 -1100 000/00 RMK AO2
14926KSTC STC20060328075012203/28/06 07:50:31  5-MIN KSTC 281350Z 00000KT M1/4SM FZFG VV001 M02/M03 A3019 780 96 -1100 000/00 RMK AO2 SLP243 T10221028
14926KSTC STC20060328075510503/28/06 07:55:31  5-MIN KSTC 281355Z 00000KT M1/4SM FZFG VV001 M02/M03 A3019 780 92 -1000 000/00 RMK AO2
14926KSTC STC20060328080010503/28/06 08:00:31  5-MIN KSTC 281400Z 00000KT M1/4SM FZFG VV001 M02/M02 A3019 780 96 -1000 000/00 RMK AO2
14926KSTC STC20060328080510503/28/06 08:05:31  5-MIN KSTC 281405Z 00000KT M1/4SM FZFG VV001 M02/M02 A3019 780 96 -1000 000/00 RMK AO2
14926KSTC STC20060328081010503/28/06 08:10:31  5-MIN KSTC 281410Z 00000KT M1/4SM FZFG VV001 M02/M02 A3019 780 96 -1000 000/00 RMK AO2
14926KSTC STC20060328081510403/28/06 08:15:31  5-MIN KSTC 281415Z 00000KT M1/4SM FZFG VV001 M01/M02 A3019 780 92 -900 000/00 RMK AO2
14926KSTC STC20060328082010403/28/06 08:20:31  5-MIN KSTC 281420Z 00000KT M1/4SM FZFG VV001 M01/M02 A3020 770 92 -900 000/00 RMK AO2
14926KSTC STC20060328082510403/28/06 08:25:31  5-MIN KSTC 281425Z 00000KT M1/4SM FZFG VV001 M01/M02 A3020 770 92 -900 000/00 RMK AO2
14926KSTC STC20060328083010403/28/06 08:30:31  5-MIN KSTC 281430Z 00000KT M1/4SM FZFG VV001 M01/M02 A3020 770 96 -900 000/00 RMK AO2
14926KSTC STC20060328083510403/28/06 08:35:31  5-MIN KSTC 281435Z 00000KT M1/4SM FZFG VV001 M01/M02 A3020 770 96 -900 000/00 RMK AO2
14926KSTC STC20060328084010403/28/06 08:40:31  5-MIN KSTC 281440Z 00000KT M1/4SM FZFG VV001 M01/M02 A3020 770 92 -900 000/00 RMK AO2
14926KSTC STC20060328084510403/28/06 08:45:31  5-MIN KSTC 281445Z 00000KT M1/4SM FZFG VV001 M01/M02 A3020 770 92 -900 000/00 RMK AO2
14926KSTC STC20060328085012703/28/06 08:50:31  5-MIN KSTC 281450Z 00000KT M1/4SM FZFG VV001 M01/M01 A3020 770 96 -900 000/00 RMK AO2 SLP248 T10061011 53006
14926KSTC STC20060328085510103/28/06 08:55:31  5-MIN KSTC 281455Z 18003KT M1/4SM FG VV001 00/M01 A3020 770 92 -800 180/03 RMK AO2
14926KSTC STC20060328090010103/28/06 09:00:31  5-MIN KSTC 281500Z VRB03KT M1/4SM FG VV001 00/M01 A3021 760 92 -800 VRB/03 RMK AO2
14926KSTC STC20060328090510103/28/06 09:05:31  5-MIN KSTC 281505Z 00000KT M1/4SM FG VV001 00/M01 A3021 760 96 -800 000/00 RMK AO2
14926KSTC STC20060328091010103/28/06 09:10:31  5-MIN KSTC 281510Z 00000KT M1/4SM FG VV001 00/M01 A3021 760 96 -800 000/00 RMK AO2
14926KSTC STC20060328091510103/28/06 09:15:31  5-MIN KSTC 281515Z 00000KT M1/4SM FG VV001 00/M01 A3021 760 96 -800 000/00 RMK AO2
14926KSTC STC20060328092010103/28/06 09:20:31  5-MIN KSTC 281520Z 00000KT M1/4SM FG VV001 00/M01 A3021 760 96 -800 000/00 RMK AO2
14926KSTC STC20060328092510103/28/06 09:25:31  5-MIN KSTC 281525Z 20003KT M1/4SM FG VV001 00/00 A3021 760 100 -800 200/03 RMK AO2
14926KSTC STC20060328093010103/28/06 09:30:31  5-MIN KSTC 281530Z 00000KT M1/4SM FG VV001 00/00 A3021 760 100 -800 000/00 RMK AO2
14926KSTC STC20060328093510103/28/06 09:35:31  5-MIN KSTC 281535Z 00000KT M1/4SM FG VV001 00/00 A3021 760 100 -800 000/00 RMK AO2
14926KSTC STC20060328094010003/28/06 09:40:31  5-MIN KSTC 281540Z 00000KT M1/4SM FG VV001 01/00 A3022 750 96 -700 000/00 RMK AO2
14926KSTC STC20060328094510003/28/06 09:45:31  5-MIN KSTC 281545Z 00000KT M1/4SM FG VV001 01/00 A3022 750 96 -700 000/00 RMK AO2
14926KSTC STC20060328095011703/28/06 09:50:31  5-MIN KSTC 281550Z 21003KT M1/4SM FG VV001 01/00 A3022 750 96 -700 200/03 RMK AO2 SLP252 T00060000
14926KSTC STC20060328095510003/28/06 09:55:31  5-MIN KSTC 281555Z 21004KT M1/4SM FG VV001 01/01 A3022 750 96 -700 210/04 RMK AO2
14926KSTC STC20060328100009903/28/06 10:00:31  5-MIN KSTC 281600Z 24004KT 1/4SM FG VV001 02/01 A3022 750 92 -600 240/04 RMK AO2
14926KSTC STC20060328100510003/28/06 10:05:31  5-MIN KSTC 281605Z 22005KT 1/4SM FG OVC001 02/01 A3022 750 92 -600 220/05 RMK AO2
14926KSTC STC20060328101010003/28/06 10:10:31  5-MIN KSTC 281610Z 20004KT 1/2SM FG OVC001 02/01 A3022 750 92 -600 190/04 RMK AO2
14926KSTC STC20060328101509803/28/06 10:15:31  5-MIN KSTC 281615Z VRB04KT 1SM BR OVC001 02/01 A3022 750 92 -600 VRB/04 RMK AO2
14926KSTC STC20060328102010203/28/06 10:20:31  5-MIN KSTC 281620Z 19004KT 1 1/4SM BR OVC001 02/01 A3022 750 96 -600 190/04 RMK AO2
14926KSTC STC20060328102510203/28/06 10:25:31  5-MIN KSTC 281625Z 20007KT 1 1/4SM BR OVC001 02/01 A3022 750 92 -500 190/07 RMK AO2
14926KSTC STC20060328103010203/28/06 10:30:31  5-MIN KSTC 281630Z 19005KT 1 1/2SM BR OVC001 02/01 A3022 750 92 -500 190/05 RMK AO2
14926KSTC STC20060328103510203/28/06 10:35:31  5-MIN KSTC 281635Z VRB04KT 1 1/2SM BR OVC001 02/01 A3022 750 96 -600 VRB/04 RMK AO2
14926KSTC STC20060328104010203/28/06 10:40:31  5-MIN KSTC 281640Z 20005KT 1 1/2SM BR OVC001 02/01 A3022 750 96 -600 200/05 RMK AO2
14926KSTC STC20060328104510203/28/06 10:45:31  5-MIN KSTC 281645Z 19006KT 1 1/2SM BR OVC001 02/01 A3022 750 92 -500 190/06 RMK AO2
14926KSTC STC20060328105011903/28/06 10:50:31  5-MIN KSTC 281650Z 19005KT 1 3/4SM BR OVC001 02/01 A3022 750 92 -500 190/05 RMK AO2 SLP253 T00220011
14926KSTC STC20060328105509803/28/06 10:55:31  5-MIN KSTC 281655Z 19006KT 2SM BR OVC001 03/01 A3022 750 89 -500 190/06 RMK AO2
14926KSTC STC20060328110010203/28/06 11:00:31  5-MIN KSTC 281700Z 21007KT 2 1/2SM BR OVC003 02/01 A3022 750 92 -500 210/07 RMK AO2
14926KSTC STC20060328110510203/28/06 11:05:31  5-MIN KSTC 281705Z 20007KT 2 1/2SM BR OVC003 03/01 A3022 750 85 -500 200/07 RMK AO2
14926KSTC STC20060328111011403/28/06 11:10:31  5-MIN KSTC 281710Z 21005KT 2 1/2SM BR OVC003 02/01 A3023 750 89 -500 210/05 RMK AO2 CIG 002V006
14926KSTC STC20060328111511403/28/06 11:15:31  5-MIN KSTC 281715Z VRB06KT 2 1/2SM BR OVC003 02/01 A3022 750 89 -500 VRB/06 RMK AO2 CIG 002V008
14926KSTC STC20060328112011403/28/06 11:20:31  5-MIN KSTC 281720Z 19007KT 2 1/2SM BR OVC003 03/01 A3022 750 89 -500 190/07 RMK AO2 CIG 002V008
14926KSTC STC20060328112511003/28/06 11:25:31  5-MIN KSTC 281725Z 21007KT 3SM BR OVC003 03/01 A3022 750 85 -500 210/07 RMK AO2 CIG 002V008
14926KSTC STC20060328113011003/28/06 11:30:31  5-MIN KSTC 281730Z 22008KT 3SM BR OVC005 03/01 A3022 750 85 -500 210/08 RMK AO2 CIG 002V007
14926KSTC STC20060328113511003/28/06 11:35:31  5-MIN KSTC 281735Z 20008KT 3SM HZ OVC005 03/01 A3022 750 82 -400 200/08 RMK AO2 CIG 002V010
14926KSTC STC20060328114011003/28/06 11:40:31  5-MIN KSTC 281740Z 21008KT 3SM HZ OVC007 03/01 A3021 760 82 -400 200/08 RMK AO2 CIG 004V010
14926KSTC STC20060328114511003/28/06 11:45:31  5-MIN KSTC 281745Z 20009KT 3SM HZ OVC007 03/01 A3021 760 82 -400 200/09 RMK AO2 CIG 004V010
14926KSTC STC20060328115014503/28/06 11:50:31  5-MIN KSTC 281750Z 23008KT 3SM HZ OVC007 03/01 A3021 760 82 -400 220/08 RMK AO2 CIG 005V010 SLP250 T00330006 10039 21033 53010
14926KSTC STC20060328115509803/28/06 11:55:31  5-MIN KSTC 281755Z 21010KT 3SM HZ OVC007 04/01 A3021 760 79 -300 210/10 RMK AO2
14926KSTC STC20060328120011703/28/06 12:00:31  5-MIN KSTC 281800Z 21009KT 3SM HZ BKN007 OVC012 04/01 A3021 760 79 -300 210/09 RMK AO2 CIG 006V010
14926KSTC STC20060328120511703/28/06 12:05:31  5-MIN KSTC 281805Z 21009KT 3SM HZ BKN007 OVC012 04/01 A3021 760 79 -300 210/09 RMK AO2 CIG 006V011
14926KSTC STC20060328121012603/28/06 12:10:31  5-MIN KSTC 281810Z 23008KT 200V260 3SM HZ OVC009 04/01 A3021 760 79 -200 230/08 200V260 RMK AO2 CIG 006V013
14926KSTC STC20060328121511003/28/06 12:15:31  5-MIN KSTC 281815Z 24009KT 3SM HZ OVC009 04/01 A3021 760 82 -300 230/09 RMK AO2 CIG 006V013
14926KSTC STC20060328122011003/28/06 12:20:31  5-MIN KSTC 281820Z 25011KT 3SM HZ OVC009 04/01 A3021 760 79 -200 250/11 RMK AO2 CIG 007V013
14926KSTC STC20060328122509803/28/06 12:25:31  5-MIN KSTC 281825Z 23009KT 3SM HZ OVC009 04/01 A3021 760 76 -200 230/09 RMK AO2
14926KSTC STC20060328123009803/28/06 12:30:31  5-MIN KSTC 281830Z 23006KT 3SM HZ OVC009 04/01 A3021 760 79 -200 230/06 RMK AO2
14926KSTC STC20060328123509803/28/06 12:35:31  5-MIN KSTC 281835Z 21009KT 3SM HZ OVC011 06/01 A3021 760 73 -100 210/09 RMK AO2
14926KSTC STC20060328124009803/28/06 12:40:31  5-MIN KSTC 281840Z 23008KT 3SM HZ OVC011 06/01 A3021 760 73 -100 230/08 RMK AO2
14926KSTC STC20060328124509803/28/06 12:45:31  5-MIN KSTC 281845Z 23008KT 3SM HZ OVC011 06/01 A3020 760 73 -100 230/08 RMK AO2
14926KSTC STC20060328125011503/28/06 12:50:31  5-MIN KSTC 281850Z 24009KT 3SM HZ OVC011 06/01 A3020 770 73 -100 240/09 RMK AO2 SLP247 T00560011
14926KSTC STC20060328125509803/28/06 12:55:31  5-MIN KSTC 281855Z 21010KT 4SM HZ OVC011 06/01 A3020 770 73 -100 210/10 RMK AO2
14926KSTC STC20060328130010403/28/06 13:00:31  5-MIN KSTC 281900Z 21010G17KT 4SM HZ OVC011 06/01 A3020 770 73 -100 210/10G17 RMK AO2
14926KSTC STC20060328130510403/28/06 13:05:31  5-MIN KSTC 281905Z 23011G17KT 3SM HZ OVC013 06/01 A3020 770 73 -100 220/11G17 RMK AO2
14926KSTC STC20060328131009803/28/06 13:10:31  5-MIN KSTC 281910Z 21010KT 3SM HZ OVC013 05/01 A3019 780 76 -200 210/10 RMK AO2
14926KSTC STC20060328131509803/28/06 13:15:31  5-MIN KSTC 281915Z 23010KT 3SM HZ OVC013 05/01 A3019 780 76 -200 230/10 RMK AO2
14926KSTC STC20060328132009803/28/06 13:20:31  5-MIN KSTC 281920Z 23011KT 3SM HZ OVC013 06/01 A3019 780 73 -100 230/11 RMK AO2
14926KSTC STC20060328132509803/28/06 13:25:31  5-MIN KSTC 281925Z 23010KT 3SM HZ OVC013 05/01 A3019 780 76 -200 230/10 RMK AO2
14926KSTC STC20060328133009803/28/06 13:30:31  5-MIN KSTC 281930Z 21011KT 3SM HZ OVC013 05/01 A3019 780 76 -200 210/11 RMK AO2
14926KSTC STC20060328133509803/28/06 13:35:31  5-MIN KSTC 281935Z 21012KT 3SM HZ OVC013 05/01 A3019 780 76 -200 210/12 RMK AO2
14926KSTC STC20060328134009803/28/06 13:40:31  5-MIN KSTC 281940Z 21011KT 4SM HZ OVC013 05/01 A3019 780 76 -200 210/11 RMK AO2
14926KSTC STC20060328134510503/28/06 13:45:31  5-MIN KSTC 281945Z 21010KT 4SM HZ BKN013 OVC017 06/01 A3019 780 73 -100 210/10 RMK AO2
14926KSTC STC20060328135009803/28/06 13:50:31  5-MIN KSTC 281950Z 21009KT 4SM HZ OVC015 06/01 A3019 780 73 -100 200/09 RMK AO2
14926KSTC STC20060328135510503/28/06 13:55:31  5-MIN KSTC 281955Z 20009KT 4SM HZ BKN015 OVC020 06/01 A3019 780 73 -100 200/09 RMK AO2
14926KSTC STC20060328140010503/28/06 14:00:31  5-MIN KSTC 282000Z 20008KT 4SM HZ BKN015 OVC022 06/01 A3019 780 73 -100 200/08 RMK AO2
14926KSTC STC20060328140510503/28/06 14:05:31  5-MIN KSTC 282005Z 19009KT 4SM HZ BKN017 OVC022 06/01 A3019 780 73 -100 190/09 RMK AO2
14926KSTC STC20060328141009803/28/06 14:10:31  5-MIN KSTC 282010Z 20011KT 5SM HZ OVC019 06/01 A3019 780 73 -100 200/11 RMK AO2
14926KSTC STC20060328141509803/28/06 14:15:31  5-MIN KSTC 282015Z 21008KT 5SM HZ OVC021 06/01 A3019 780 73 -100 210/08 RMK AO2
14926KSTC STC20060328142009503/28/06 14:20:31  5-MIN KSTC 282020Z 19008KT 5SM HZ OVC021 06/01 A3018 780 67 0 180/08 RMK AO2
14926KSTC STC20060328142509503/28/06 14:25:31  5-MIN KSTC 282025Z 23008KT 5SM HZ OVC021 06/01 A3018 780 70 0 230/08 RMK AO2
14926KSTC STC20060328143009803/28/06 14:30:31  5-MIN KSTC 282030Z 24009KT 5SM HZ OVC021 06/01 A3018 790 73 -100 230/09 RMK AO2
14926KSTC STC20060328143509803/28/06 14:35:31  5-MIN KSTC 282035Z 23007KT 5SM HZ OVC021 06/01 A3018 790 73 -100 230/07 RMK AO2
14926KSTC STC20060328144009503/28/06 14:40:31  5-MIN KSTC 282040Z 23008KT 5SM HZ OVC021 06/01 A3018 790 70 0 220/08 RMK AO2
14926KSTC STC20060328144509503/28/06 14:45:31  5-MIN KSTC 282045Z 21008KT 5SM HZ OVC021 06/01 A3018 790 67 0 210/08 RMK AO2
14926KSTC STC20060328145011803/28/06 14:50:31  5-MIN KSTC 282050Z 22008KT 5SM HZ OVC021 06/01 A3018 790 70 0 210/08 RMK AO2 SLP239 T00610011 50002
14926KSTC STC20060328145509503/28/06 14:55:31  5-MIN KSTC 282055Z 22008KT 5SM HZ OVC021 06/01 A3018 790 70 0 220/08 RMK AO2
14926KSTC STC20060328150009503/28/06 15:00:31  5-MIN KSTC 282100Z 22008KT 5SM HZ OVC021 06/01 A3018 790 67 0 210/08 RMK AO2
14926KSTC STC20060328150509503/28/06 15:05:31  5-MIN KSTC 282105Z 23008KT 5SM HZ OVC023 06/01 A3018 790 70 0 230/08 RMK AO2
14926KSTC STC20060328151009503/28/06 15:10:31  5-MIN KSTC 282110Z 22009KT 5SM HZ OVC023 06/01 A3018 790 67 0 220/09 RMK AO2
14926KSTC STC20060328151509503/28/06 15:15:31  5-MIN KSTC 282115Z 22009KT 5SM HZ OVC023 06/01 A3017 790 70 0 220/09 RMK AO2
14926KSTC STC20060328152009503/28/06 15:20:31  5-MIN KSTC 282120Z 21007KT 5SM HZ OVC023 06/01 A3017 790 70 0 200/07 RMK AO2
14926KSTC STC20060328152509503/28/06 15:25:31  5-MIN KSTC 282125Z 22008KT 5SM HZ OVC023 06/01 A3017 800 70 0 210/08 RMK AO2
14926KSTC STC20060328153009503/28/06 15:30:31  5-MIN KSTC 282130Z 22007KT 5SM HZ OVC025 06/01 A3017 800 70 0 220/07 RMK AO2
14926KSTC STC20060328153509503/28/06 15:35:31  5-MIN KSTC 282135Z 20008KT 5SM HZ OVC025 06/01 A3017 800 70 0 200/08 RMK AO2
14926KSTC STC20060328154009503/28/06 15:40:31  5-MIN KSTC 282140Z 20010KT 5SM HZ OVC025 06/01 A3017 800 70 0 200/10 RMK AO2
14926KSTC STC20060328154509503/28/06 15:45:31  5-MIN KSTC 282145Z 20010KT 5SM HZ OVC025 06/01 A3017 800 70 0 190/10 RMK AO2
14926KSTC STC20060328155011203/28/06 15:50:31  5-MIN KSTC 282150Z 22009KT 5SM HZ OVC025 06/01 A3017 800 70 0 210/09 RMK AO2 SLP235 T00610011
14926KSTC STC20060328155510003/28/06 15:55:31  5-MIN KSTC 282155Z AUTO 19006KT 5SM HZ OVC025 06/01 A3016 800 70 0 190/06 RMK AO2
14926KSTC STC20060328160010003/28/06 16:00:31  5-MIN KSTC 282200Z AUTO 21006KT 5SM HZ OVC025 06/01 A3016 800 70 0 200/06 RMK AO2
14926KSTC STC20060328160510003/28/06 16:05:31  5-MIN KSTC 282205Z AUTO 19008KT 6SM HZ OVC025 06/01 A3016 800 70 0 190/08 RMK AO2
14926KSTC STC20060328161010003/28/06 16:10:31  5-MIN KSTC 282210Z AUTO 20007KT 6SM HZ OVC025 07/01 A3016 810 67 0 200/07 RMK AO2
14926KSTC STC20060328161510003/28/06 16:15:31  5-MIN KSTC 282215Z AUTO 19007KT 6SM HZ OVC027 07/01 A3016 810 67 0 190/07 RMK AO2
14926KSTC STC20060328162010003/28/06 16:20:31  5-MIN KSTC 282220Z AUTO 19007KT 6SM HZ OVC027 07/01 A3016 810 67 0 190/07 RMK AO2
14926KSTC STC20060328162510003/28/06 16:25:31  5-MIN KSTC 282225Z AUTO 19008KT 6SM HZ OVC027 07/01 A3016 810 67 0 190/08 RMK AO2
14926KSTC STC20060328163010003/28/06 16:30:31  5-MIN KSTC 282230Z AUTO 19007KT 6SM HZ OVC027 06/01 A3016 810 70 0 190/07 RMK AO2
14926KSTC STC20060328163510003/28/06 16:35:31  5-MIN KSTC 282235Z AUTO 20008KT 6SM HZ OVC027 06/01 A3015 810 70 0 190/08 RMK AO2
14926KSTC STC20060328164010003/28/06 16:40:31  5-MIN KSTC 282240Z AUTO 19007KT 6SM HZ OVC027 06/01 A3015 810 70 0 190/07 RMK AO2
14926KSTC STC20060328164510003/28/06 16:45:31  5-MIN KSTC 282245Z AUTO 18008KT 6SM HZ OVC027 06/01 A3015 810 70 0 180/08 RMK AO2
14926KSTC STC20060328165011703/28/06 16:50:31  5-MIN KSTC 282250Z AUTO 18008KT 6SM HZ OVC027 06/01 A3015 810 70 0 180/08 RMK AO2 SLP231 T00610011
14926KSTC STC20060328165510003/28/06 16:55:31  5-MIN KSTC 282255Z AUTO 20007KT 6SM HZ OVC027 06/01 A3015 810 70 0 190/07 RMK AO2
14926KSTC STC20060328170010003/28/06 17:00:31  5-MIN KSTC 282300Z AUTO 19006KT 6SM HZ OVC027 06/01 A3015 810 70 0 190/06 RMK AO2
14926KSTC STC20060328170510003/28/06 17:05:31  5-MIN KSTC 282305Z AUTO 19006KT 6SM HZ OVC027 06/01 A3015 810 70 0 180/06 RMK AO2
14926KSTC STC20060328171010003/28/06 17:10:31  5-MIN KSTC 282310Z AUTO 19008KT 6SM HZ OVC027 06/01 A3015 810 70 0 190/08 RMK AO2
14926KSTC STC20060328171510003/28/06 17:15:31  5-MIN KSTC 282315Z AUTO 19007KT 6SM HZ OVC025 06/01 A3015 810 70 0 190/07 RMK AO2
14926KSTC STC20060328172010003/28/06 17:20:31  5-MIN KSTC 282320Z AUTO 19006KT 6SM HZ OVC025 06/01 A3015 810 70 0 180/06 RMK AO2
14926KSTC STC20060328172510003/28/06 17:25:31  5-MIN KSTC 282325Z AUTO 18007KT 6SM HZ OVC025 06/01 A3015 810 70 0 180/07 RMK AO2
14926KSTC STC20060328173010003/28/06 17:30:31  5-MIN KSTC 282330Z AUTO 19006KT 6SM HZ OVC025 06/01 A3015 810 70 0 180/06 RMK AO2
14926KSTC STC20060328173510003/28/06 17:35:31  5-MIN KSTC 282335Z AUTO 19008KT 6SM HZ OVC025 06/01 A3015 810 70 0 180/08 RMK AO2
14926KSTC STC20060328174010003/28/06 17:40:31  5-MIN KSTC 282340Z AUTO 19008KT 6SM HZ OVC027 06/01 A3015 810 70 0 190/08 RMK AO2
14926KSTC STC20060328174510003/28/06 17:45:31  5-MIN KSTC 282345Z AUTO 18008KT 6SM HZ OVC027 06/01 A3015 810 70 0 180/08 RMK AO2
14926KSTC STC20060328175013503/28/06 17:50:31  5-MIN KSTC 282350Z AUTO 17006KT 6SM HZ OVC027 06/01 A3015 810 70 0 170/06 RMK AO2 SLP231 T00610011 10067 20033 58009
14926KSTC STC20060328175510003/28/06 17:55:31  5-MIN KSTC 282355Z AUTO 18007KT 6SM HZ OVC027 06/01 A3015 810 70 0 180/07 RMK AO2
14926KSTC STC20060328180010003/28/06 18:00:31  5-MIN KSTC 290000Z AUTO 17007KT 5SM HZ OVC027 06/01 A3015 820 73 0 170/07 RMK AO2
14926KSTC STC20060328180510003/28/06 18:05:31  5-MIN KSTC 290005Z AUTO 17007KT 5SM HZ OVC027 06/01 A3015 820 73 0 170/07 RMK AO2
14926KSTC STC20060328181010003/28/06 18:10:31  5-MIN KSTC 290010Z AUTO 17007KT 5SM HZ OVC027 06/01 A3015 810 73 0 170/07 RMK AO2
14926KSTC STC20060328181510003/28/06 18:15:31  5-MIN KSTC 290015Z AUTO 19007KT 5SM HZ OVC027 06/01 A3015 810 73 0 190/07 RMK AO2
14926KSTC STC20060328182010003/28/06 18:20:31  5-MIN KSTC 290020Z AUTO 19008KT 5SM HZ OVC027 06/01 A3015 810 73 0 190/08 RMK AO2
14926KSTC STC20060328182510003/28/06 18:25:31  5-MIN KSTC 290025Z AUTO 20006KT 5SM HZ OVC027 06/01 A3015 810 73 0 200/06 RMK AO2
14926KSTC STC20060328183010003/28/06 18:30:31  5-MIN KSTC 290030Z AUTO 21006KT 5SM HZ OVC027 06/01 A3015 810 73 0 200/06 RMK AO2
14926KSTC STC20060328183510303/28/06 18:35:31  5-MIN KSTC 290035Z AUTO 20007KT 5SM HZ OVC025 05/02 A3015 810 79 -100 200/07 RMK AO2
14926KSTC STC20060328184010303/28/06 18:40:31  5-MIN KSTC 290040Z AUTO 20006KT 5SM HZ OVC025 05/01 A3015 810 76 -100 200/06 RMK AO2
14926KSTC STC20060328184510303/28/06 18:45:31  5-MIN KSTC 290045Z AUTO 20006KT 6SM HZ OVC025 05/01 A3015 810 76 -100 190/06 RMK AO2
14926KSTC STC20060328185011703/28/06 18:50:31  5-MIN KSTC 290050Z AUTO 20006KT 7SM OVC025 05/01 A3015 810 76 -100 200/06 RMK AO2 SLP231 T00500011
14926KSTC STC20060328185510303/28/06 18:55:31  5-MIN KSTC 290055Z AUTO 20008KT 6SM HZ OVC025 05/01 A3015 810 73 -100 200/08 RMK AO2
14926KSTC STC20060328190010003/28/06 19:00:31  5-MIN KSTC 290100Z AUTO 20008KT 7SM OVC025 04/01 A3015 820 76 -200 200/08 RMK AO2
14926KSTC STC20060328190510003/28/06 19:05:31  5-MIN KSTC 290105Z AUTO 19007KT 7SM BKN025 04/01 A3014 820 79 -200 190/07 RMK AO2
14926KSTC STC20060328191010003/28/06 19:10:31  5-MIN KSTC 290110Z AUTO 20007KT 7SM BKN025 04/00 A3014 820 76 -200 190/07 RMK AO2
14926KSTC STC20060328191510003/28/06 19:15:31  5-MIN KSTC 290115Z AUTO 20007KT 7SM SCT025 03/00 A3014 820 79 -300 190/07 RMK AO2
14926KSTC STC20060328192010303/28/06 19:20:31  5-MIN KSTC 290120Z AUTO 19006KT 6SM HZ SCT025 03/00 A3014 820 79 -300 190/06 RMK AO2
14926KSTC STC20060328192510303/28/06 19:25:31  5-MIN KSTC 290125Z AUTO 19006KT 6SM HZ FEW025 03/00 A3014 820 82 -400 190/06 RMK AO2
14926KSTC STC20060328193010103/28/06 19:30:31  5-MIN KSTC 290130Z AUTO 18006KT 6SM HZ CLR 03/M01 A3014 820 79 -400 180/06 RMK AO2
14926KSTC STC20060328193510103/28/06 19:35:31  5-MIN KSTC 290135Z AUTO 18005KT 6SM HZ CLR 03/M01 A3014 820 79 -400 180/05 RMK AO2
14926KSTC STC20060328194010103/28/06 19:40:31  5-MIN KSTC 290140Z AUTO 18005KT 5SM HZ CLR 02/M01 A3014 820 82 -400 180/05 RMK AO2
14926KSTC STC20060328194510103/28/06 19:45:31  5-MIN KSTC 290145Z AUTO 18005KT 6SM HZ CLR 02/M01 A3014 820 82 -400 180/05 RMK AO2
14926KSTC STC20060328195011803/28/06 19:50:31  5-MIN KSTC 290150Z AUTO 18005KT 6SM HZ CLR 02/M01 A3014 830 82 -400 180/05 RMK AO2 SLP226 T00221006
14926KSTC STC20060328195510103/28/06 19:55:31  5-MIN KSTC 290155Z AUTO 18006KT 6SM HZ CLR 02/M01 A3014 830 82 -400 170/06 RMK AO2
14926KSTC STC20060328200010103/28/06 20:00:31  5-MIN KSTC 290200Z AUTO 17006KT 6SM HZ CLR 02/M01 A3014 830 82 -400 170/06 RMK AO2
14926KSTC STC20060328200510103/28/06 20:05:31  5-MIN KSTC 290205Z AUTO 17006KT 6SM BR CLR 02/M01 A3014 830 85 -500 170/06 RMK AO2
14926KSTC STC20060328201010103/28/06 20:10:31  5-MIN KSTC 290210Z AUTO 17005KT 6SM HZ CLR 02/M01 A3014 830 82 -500 160/05 RMK AO2
14926KSTC STC20060328201510103/28/06 20:15:31  5-MIN KSTC 290215Z AUTO 16005KT 5SM BR CLR 01/M01 A3014 830 85 -600 160/05 RMK AO2
14926KSTC STC20060328202010103/28/06 20:20:31  5-MIN KSTC 290220Z AUTO 15005KT 5SM BR CLR 01/M01 A3014 830 85 -600 150/05 RMK AO2
14926KSTC STC20060328202510103/28/06 20:25:31  5-MIN KSTC 290225Z AUTO 15005KT 5SM BR CLR 02/M01 A3014 830 85 -500 140/05 RMK AO2
14926KSTC STC20060328203010103/28/06 20:30:31  5-MIN KSTC 290230Z AUTO 15005KT 5SM BR CLR 02/M01 A3014 830 85 -500 150/05 RMK AO2
14926KSTC STC20060328203510103/28/06 20:35:31  5-MIN KSTC 290235Z AUTO 15005KT 5SM BR CLR 02/M01 A3014 830 85 -500 140/05 RMK AO2
14926KSTC STC20060328204010103/28/06 20:40:31  5-MIN KSTC 290240Z AUTO 14005KT 5SM BR CLR 01/M01 A3014 830 89 -600 140/05 RMK AO2
14926KSTC STC20060328204510103/28/06 20:45:31  5-MIN KSTC 290245Z AUTO 15006KT 5SM BR CLR 01/M01 A3013 830 85 -600 150/06 RMK AO2
14926KSTC STC20060328205012403/28/06 20:50:31  5-MIN KSTC 290250Z AUTO 15006KT 5SM BR CLR 01/M01 A3014 830 85 -600 150/06 RMK AO2 SLP225 T00111011 56009
14926KSTC STC20060328205510103/28/06 20:55:31  5-MIN KSTC 290255Z AUTO 15006KT 4SM BR CLR 01/M01 A3014 830 85 -600 150/06 RMK AO2
14926KSTC STC20060328210010103/28/06 21:00:31  5-MIN KSTC 290300Z AUTO 15006KT 4SM BR CLR 01/M01 A3014 830 85 -600 150/06 RMK AO2
14926KSTC STC20060328210510103/28/06 21:05:31  5-MIN KSTC 290305Z AUTO 16006KT 4SM BR CLR 01/M01 A3014 830 85 -600 150/06 RMK AO2
14926KSTC STC20060328211010103/28/06 21:10:31  5-MIN KSTC 290310Z AUTO 16006KT 4SM BR CLR 01/M01 A3014 830 89 -600 150/06 RMK AO2
14926KSTC STC20060328211510403/28/06 21:15:31  5-MIN KSTC 290315Z AUTO 15006KT 4SM BR FEW022 01/M01 A3014 830 89 -600 150/06 RMK AO2
14926KSTC STC20060328212010403/28/06 21:20:31  5-MIN KSTC 290320Z AUTO 16006KT 4SM BR SCT022 01/M01 A3014 820 89 -600 160/06 RMK AO2
14926KSTC STC20060328212510403/28/06 21:25:31  5-MIN KSTC 290325Z AUTO 17005KT 4SM BR BKN022 01/M01 A3014 820 89 -600 170/05 RMK AO2
14926KSTC STC20060328213011103/28/06 21:30:31  5-MIN KSTC 290330Z AUTO 17005KT 4SM BR BKN022 BKN028 01/M01 A3014 830 89 -600 170/05 RMK AO2
14926KSTC STC20060328213511103/28/06 21:35:31  5-MIN KSTC 290335Z AUTO 17004KT 4SM BR SCT022 BKN028 01/M01 A3014 830 89 -600 170/04 RMK AO2
14926KSTC STC20060328214011103/28/06 21:40:31  5-MIN KSTC 290340Z AUTO 18005KT 4SM BR SCT022 BKN028 01/M01 A3014 830 89 -600 170/05 RMK AO2
14926KSTC STC20060328214511103/28/06 21:45:31  5-MIN KSTC 290345Z AUTO 17005KT 4SM BR SCT022 OVC028 01/M01 A3014 830 89 -600 170/05 RMK AO2
14926KSTC STC20060328215012703/28/06 21:50:31  5-MIN KSTC 290350Z AUTO 18005KT 4SM BR FEW022 OVC028 01/00 A3014 830 92 -600 180/05 RMK AO2 SLP225 T00110000
14926KSTC STC20060328215510303/28/06 21:55:31  5-MIN KSTC 290355Z AUTO 18005KT 4SM BR BKN028 02/00 A3013 830 89 -500 170/05 RMK AO2
14926KSTC STC20060328220010303/28/06 22:00:31  5-MIN KSTC 290400Z AUTO 16004KT 4SM BR OVC028 02/00 A3014 830 89 -500 160/04 RMK AO2
14926KSTC STC20060328220510303/28/06 22:05:31  5-MIN KSTC 290405Z AUTO 17005KT 4SM BR OVC028 02/00 A3013 830 89 -500 160/05 RMK AO2
14926KSTC STC20060328221010303/28/06 22:10:31  5-MIN KSTC 290410Z AUTO 16004KT 4SM BR OVC028 02/00 A3014 830 89 -500 160/04 RMK AO2
14926KSTC STC20060328221510303/28/06 22:15:31  5-MIN KSTC 290415Z AUTO 16004KT 4SM BR OVC028 02/00 A3014 820 89 -500 160/04 RMK AO2
14926KSTC STC20060328222010303/28/06 22:20:31  5-MIN KSTC 290420Z AUTO 17003KT 4SM BR OVC028 02/00 A3014 830 89 -500 170/03 RMK AO2
14926KSTC STC20060328222510303/28/06 22:25:31  5-MIN KSTC 290425Z AUTO 18003KT 4SM BR OVC028 02/00 A3014 820 85 -400 170/03 RMK AO2
14926KSTC STC20060328223010303/28/06 22:30:31  5-MIN KSTC 290430Z AUTO 16003KT 4SM BR OVC028 02/00 A3014 820 89 -500 160/03 RMK AO2
14926KSTC STC20060328223510303/28/06 22:35:31  5-MIN KSTC 290435Z AUTO 17003KT 4SM BR OVC028 02/00 A3014 830 89 -500 160/03 RMK AO2
14926KSTC STC20060328224010303/28/06 22:40:31  5-MIN KSTC 290440Z AUTO 17004KT 4SM BR OVC028 02/00 A3014 830 89 -500 170/04 RMK AO2
14926KSTC STC20060328224510303/28/06 22:45:31  5-MIN KSTC 290445Z AUTO 17004KT 4SM BR OVC026 02/01 A3014 830 89 -400 160/04 RMK AO2
14926KSTC STC20060328225012003/28/06 22:50:31  5-MIN KSTC 290450Z AUTO 18003KT 4SM BR OVC026 02/01 A3014 830 92 -500 180/03 RMK AO2 SLP225 T00170006
14926KSTC STC20060328225510303/28/06 22:55:31  5-MIN KSTC 290455Z AUTO 18004KT 4SM BR OVC026 02/01 A3014 830 92 -500 170/04 RMK AO2
14926KSTC STC20060328230010303/28/06 23:00:31  5-MIN KSTC 290500Z AUTO 17005KT 4SM BR OVC026 02/01 A3014 830 89 -400 170/05 RMK AO2
14926KSTC STC20060328230510303/28/06 23:05:31  5-MIN KSTC 290505Z AUTO 18004KT 4SM BR OVC026 02/01 A3013 830 89 -400 180/04 RMK AO2
14926KSTC STC20060328231010303/28/06 23:10:31  5-MIN KSTC 290510Z AUTO 17005KT 4SM BR OVC026 02/01 A3013 830 89 -400 170/05 RMK AO2
14926KSTC STC20060328231510303/28/06 23:15:31  5-MIN KSTC 290515Z AUTO 18005KT 4SM BR OVC026 03/01 A3013 830 85 -400 180/05 RMK AO2
14926KSTC STC20060328232010303/28/06 23:20:31  5-MIN KSTC 290520Z AUTO 17006KT 4SM BR OVC026 03/01 A3013 830 85 -400 170/06 RMK AO2
14926KSTC STC20060328232510303/28/06 23:25:31  5-MIN KSTC 290525Z AUTO 17006KT 4SM BR OVC026 03/01 A3013 830 85 -400 170/06 RMK AO2
14926KSTC STC20060328233010303/28/06 23:30:31  5-MIN KSTC 290530Z AUTO 18007KT 4SM BR OVC026 03/01 A3013 830 85 -400 180/07 RMK AO2
14926KSTC STC20060328233510303/28/06 23:35:31  5-MIN KSTC 290535Z AUTO 18007KT 4SM BR OVC026 03/01 A3013 840 85 -400 180/07 RMK AO2
14926KSTC STC20060328234010303/28/06 23:40:31  5-MIN KSTC 290540Z AUTO 18007KT 4SM BR OVC026 03/01 A3013 840 85 -400 180/07 RMK AO2
14926KSTC STC20060328234510303/28/06 23:45:31  5-MIN KSTC 290545Z AUTO 18006KT 4SM BR OVC026 03/01 A3013 840 85 -400 180/06 RMK AO2
14926KSTC STC20060328235014803/28/06 23:50:31  5-MIN KSTC 290550Z AUTO 18006KT 4SM BR OVC026 03/01 A3012 840 85 -400 180/06 RMK AO2 SLP219 T00280006 10061 20006 400671033 58005
14926KSTC STC20060328235510303/28/06 23:55:31  5-MIN KSTC 290555Z AUTO 17006KT 4SM BR OVC026 03/01 A3012 840 85 -400 170/06 RMK AO2
14926KSTC STC20060329000010303/29/06 00:00:32  5-MIN KSTC 290600Z AUTO 19007KT 4SM BR OVC026 03/01 A3012 840 85 -400 180/07 RMK AO2
14926KSTC STC20060329000510303/29/06 00:05:31  5-MIN KSTC 290605Z AUTO 18006KT 4SM BR OVC026 03/01 A3012 840 85 -400 180/06 RMK AO2
14926KSTC STC20060329001010303/29/06 00:10:31  5-MIN KSTC 290610Z AUTO 18006KT 4SM BR OVC026 03/01 A3012 840 85 -400 170/06 RMK AO2
14926KSTC STC20060329001510303/29/06 00:15:31  5-MIN KSTC 290615Z AUTO 18006KT 4SM BR OVC026 03/01 A3012 840 85 -400 180/06 RMK AO2
14926KSTC STC20060329002010303/29/06 00:20:31  5-MIN KSTC 290620Z AUTO 19006KT 4SM BR OVC026 03/01 A3012 840 85 -400 180/06 RMK AO2
14926KSTC STC20060329002510303/29/06 00:25:31  5-MIN KSTC 290625Z AUTO 18005KT 4SM BR OVC026 03/01 A3012 840 85 -400 170/05 RMK AO2
14926KSTC STC20060329003010303/29/06 00:30:31  5-MIN KSTC 290630Z AUTO 18006KT 4SM BR OVC026 03/01 A3012 840 85 -400 180/06 RMK AO2
14926KSTC STC20060329003510303/29/06 00:35:31  5-MIN KSTC 290635Z AUTO 18005KT 4SM BR OVC026 03/01 A3012 840 85 -400 180/05 RMK AO2
14926KSTC STC20060329004010303/29/06 00:40:31  5-MIN KSTC 290640Z AUTO 18006KT 4SM BR OVC026 03/01 A3012 840 85 -400 180/06 RMK AO2
14926KSTC STC20060329004510303/29/06 00:45:31  5-MIN KSTC 290645Z AUTO 18005KT 4SM BR OVC026 03/01 A3012 840 85 -300 170/05 RMK AO2
14926KSTC STC20060329005012003/29/06 00:50:31  5-MIN KSTC 290650Z AUTO 18006KT 4SM BR OVC026 03/01 A3012 840 85 -300 170/06 RMK AO2 SLP217 T00280006
14926KSTC STC20060329005510303/29/06 00:55:31  5-MIN KSTC 290655Z AUTO 18005KT 4SM BR OVC026 03/01 A3012 840 85 -300 180/05 RMK AO2
14926KSTC STC20060329010010303/29/06 01:00:31  5-MIN KSTC 290700Z AUTO 16006KT 4SM BR OVC026 03/01 A3012 850 85 -300 160/06 RMK AO2
14926KSTC STC20060329010510303/29/06 01:05:31  5-MIN KSTC 290705Z AUTO 17006KT 4SM BR OVC026 03/01 A3012 850 85 -300 170/06 RMK AO2
14926KSTC STC20060329011010303/29/06 01:10:31  5-MIN KSTC 290710Z AUTO 16006KT 4SM BR OVC026 03/01 A3012 850 85 -300 160/06 RMK AO2
14926KSTC STC20060329011510303/29/06 01:15:31  5-MIN KSTC 290715Z AUTO 17006KT 4SM BR OVC026 03/01 A3011 850 85 -300 170/06 RMK AO2
14926KSTC STC20060329012010303/29/06 01:20:31  5-MIN KSTC 290720Z AUTO 17005KT 4SM BR OVC026 03/01 A3011 850 85 -300 170/05 RMK AO2
14926KSTC STC20060329012510303/29/06 01:25:31  5-MIN KSTC 290725Z AUTO 16005KT 4SM BR OVC026 03/01 A3011 850 85 -300 150/05 RMK AO2
14926KSTC STC20060329013010303/29/06 01:30:31  5-MIN KSTC 290730Z AUTO 17005KT 4SM BR OVC026 03/01 A3011 850 85 -300 160/05 RMK AO2
14926KSTC STC20060329013510303/29/06 01:35:31  5-MIN KSTC 290735Z AUTO 16006KT 4SM BR OVC026 03/01 A3011 850 85 -300 160/06 RMK AO2
14926KSTC STC20060329014010303/29/06 01:40:31  5-MIN KSTC 290740Z AUTO 15005KT 4SM BR OVC026 03/01 A3011 860 85 -300 150/05 RMK AO2
14926KSTC STC20060329014510303/29/06 01:45:31  5-MIN KSTC 290745Z AUTO 16006KT 4SM BR OVC026 02/01 A3010 860 89 -400 150/06 RMK AO2
14926KSTC STC20060329015012003/29/06 01:50:31  5-MIN KSTC 290750Z AUTO 15006KT 4SM BR OVC026 02/01 A3010 860 89 -400 150/06 RMK AO2 SLP212 T00220006
14926KSTC STC20060329015510303/29/06 01:55:31  5-MIN KSTC 290755Z AUTO 15006KT 4SM BR OVC026 02/01 A3010 860 89 -400 150/06 RMK AO2
14926KSTC STC20060329020010303/29/06 02:00:31  5-MIN KSTC 290800Z AUTO 15006KT 4SM BR OVC026 02/01 A3010 860 89 -400 150/06 RMK AO2
14926KSTC STC20060329020510303/29/06 02:05:31  5-MIN KSTC 290805Z AUTO 14007KT 4SM BR OVC026 02/01 A3010 860 89 -400 140/07 RMK AO2
14926KSTC STC20060329021010303/29/06 02:10:31  5-MIN KSTC 290810Z AUTO 15007KT 4SM BR OVC026 02/01 A3010 860 89 -400 140/07 RMK AO2
14926KSTC STC20060329021510303/29/06 02:15:31  5-MIN KSTC 290815Z AUTO 15007KT 4SM BR OVC026 02/01 A3009 870 89 -400 140/07 RMK AO2
14926KSTC STC20060329022010303/29/06 02:20:31  5-MIN KSTC 290820Z AUTO 15007KT 4SM BR OVC026 02/01 A3009 870 89 -400 140/07 RMK AO2
14926KSTC STC20060329022510303/29/06 02:25:31  5-MIN KSTC 290825Z AUTO 15007KT 4SM BR OVC026 02/01 A3009 870 89 -400 140/07 RMK AO2
14926KSTC STC20060329023010303/29/06 02:30:31  5-MIN KSTC 290830Z AUTO 15006KT 4SM BR OVC026 02/01 A3009 870 89 -400 140/06 RMK AO2
14926KSTC STC20060329023510303/29/06 02:35:31  5-MIN KSTC 290835Z AUTO 15006KT 3SM BR OVC026 02/00 A3009 870 85 -400 150/06 RMK AO2
14926KSTC STC20060329024010303/29/06 02:40:31  5-MIN KSTC 290840Z AUTO 15007KT 3SM BR OVC028 02/00 A3009 870 89 -400 150/07 RMK AO2
14926KSTC STC20060329024510303/29/06 02:45:31  5-MIN KSTC 290845Z AUTO 16006KT 3SM BR BKN028 01/00 A3008 870 92 -500 150/06 RMK AO2
14926KSTC STC20060329025012703/29/06 02:50:31  5-MIN KSTC 290850Z AUTO 15006KT 3SM BR BKN028 01/M01 A3008 880 89 -500 150/06 RMK AO2 SLP205 T00111006 58004
14926KSTC STC20060329025510403/29/06 02:55:31  5-MIN KSTC 290855Z AUTO 15006KT 3SM BR SCT028 01/M01 A3008 880 89 -500 140/06 RMK AO2
14926KSTC STC20060329030010403/29/06 03:00:31  5-MIN KSTC 290900Z AUTO 14007KT 3SM BR SCT030 01/M01 A3008 880 89 -500 140/07 RMK AO2
14926KSTC STC20060329030510403/29/06 03:05:31  5-MIN KSTC 290905Z AUTO 15007KT 3SM BR FEW030 01/M01 A3007 880 89 -500 140/07 RMK AO2
14926KSTC STC20060329031010103/29/06 03:10:31  5-MIN KSTC 290910Z AUTO 15007KT 3SM BR CLR 01/M01 A3007 890 89 -500 140/07 RMK AO2
14926KSTC STC20060329031510103/29/06 03:15:31  5-MIN KSTC 290915Z AUTO 15007KT 3SM BR CLR 01/M01 A3007 890 89 -500 140/07 RMK AO2
14926KSTC STC20060329032010103/29/06 03:20:31  5-MIN KSTC 290920Z AUTO 15008KT 3SM BR CLR 01/M01 A3007 890 89 -500 140/08 RMK AO2
14926KSTC STC20060329032510103/29/06 03:25:31  5-MIN KSTC 290925Z AUTO 15008KT 3SM BR CLR 01/M01 A3007 890 89 -500 150/08 RMK AO2
14926KSTC STC20060329033010103/29/06 03:30:31  5-MIN KSTC 290930Z AUTO 15008KT 3SM BR CLR 01/M01 A3006 890 89 -500 150/08 RMK AO2
14926KSTC STC20060329033510103/29/06 03:35:31  5-MIN KSTC 290935Z AUTO 15008KT 3SM BR CLR 01/M01 A3006 890 92 -600 150/08 RMK AO2
14926KSTC STC20060329034010103/29/06 03:40:31  5-MIN KSTC 290940Z AUTO 15008KT 3SM BR CLR 01/M01 A3006 900 89 -500 150/08 RMK AO2
14926KSTC STC20060329034510103/29/06 03:45:31  5-MIN KSTC 290945Z AUTO 16008KT 3SM BR CLR 01/M01 A3006 900 89 -500 160/08 RMK AO2
14926KSTC STC20060329035011803/29/06 03:50:31  5-MIN KSTC 290950Z AUTO 16008KT 3SM BR CLR 01/M01 A3006 900 89 -500 160/08 RMK AO2 SLP197 T00111006
14926KSTC STC20060329035510103/29/06 03:55:31  5-MIN KSTC 290955Z AUTO 16008KT 3SM BR CLR 01/M01 A3006 900 89 -500 160/08 RMK AO2
14926KSTC STC20060329040010003/29/06 04:00:31  5-MIN KSTC 291000Z AUTO 16008KT 3SM BR CLR 02/00 A3006 900 89 -400 150/08 RMK AO2
14926KSTC STC20060329040510103/29/06 04:05:31  5-MIN KSTC 291005Z AUTO 16008KT 3SM BR CLR 01/M01 A3006 900 89 -500 160/08 RMK AO2
14926KSTC STC20060329041010103/29/06 04:10:31  5-MIN KSTC 291010Z AUTO 16007KT 3SM BR CLR 01/M01 A3006 900 89 -500 160/07 RMK AO2
14926KSTC STC20060329041510103/29/06 04:15:31  5-MIN KSTC 291015Z AUTO 16007KT 3SM BR CLR 01/M01 A3006 900 89 -500 160/07 RMK AO2
14926KSTC STC20060329042010103/29/06 04:20:31  5-MIN KSTC 291020Z AUTO 16007KT 3SM BR CLR 01/M01 A3006 900 89 -500 160/07 RMK AO2
14926KSTC STC20060329042510003/29/06 04:25:31  5-MIN KSTC 291025Z AUTO 17007KT 3SM BR CLR 02/00 A3006 900 89 -400 160/07 RMK AO2
14926KSTC STC20060329043010003/29/06 04:30:31  5-MIN KSTC 291030Z AUTO 18007KT 3SM BR CLR 02/00 A3006 900 89 -400 170/07 RMK AO2
14926KSTC STC20060329043510003/29/06 04:35:31  5-MIN KSTC 291035Z AUTO 18009KT 4SM BR CLR 02/00 A3006 900 89 -400 180/09 RMK AO2
14926KSTC STC20060329044010003/29/06 04:40:31  5-MIN KSTC 291040Z AUTO 18008KT 4SM BR CLR 02/00 A3006 900 85 -300 170/08 RMK AO2
14926KSTC STC20060329044510003/29/06 04:45:31  5-MIN KSTC 291045Z AUTO 17009KT 4SM BR CLR 02/00 A3006 900 89 -400 170/09 RMK AO2
14926KSTC STC20060329045011703/29/06 04:50:31  5-MIN KSTC 291050Z AUTO 17009KT 4SM BR CLR 02/00 A3006 900 89 -400 170/09 RMK AO2 SLP198 T00170000
14926KSTC STC20060329045510003/29/06 04:55:31  5-MIN KSTC 291055Z AUTO 17009KT 4SM BR CLR 02/00 A3006 890 85 -400 170/09 RMK AO2
14926KSTC STC20060329050010003/29/06 05:00:31  5-MIN KSTC 291100Z AUTO 17010KT 4SM BR CLR 02/00 A3006 890 85 -400 170/10 RMK AO2
14926KSTC STC20060329050510003/29/06 05:05:31  5-MIN KSTC 291105Z AUTO 18010KT 4SM BR CLR 02/00 A3006 890 89 -400 170/10 RMK AO2
14926KSTC STC20060329051010003/29/06 05:10:31  5-MIN KSTC 291110Z AUTO 18009KT 4SM BR CLR 02/00 A3007 890 85 -400 170/09 RMK AO2
14926KSTC STC20060329051510003/29/06 05:15:31  5-MIN KSTC 291115Z AUTO 17009KT 4SM BR CLR 02/00 A3006 890 89 -400 170/09 RMK AO2
14926KSTC STC20060329052010003/29/06 05:20:31  5-MIN KSTC 291120Z AUTO 17007KT 4SM BR CLR 02/00 A3007 890 89 -400 170/07 RMK AO2
14926KSTC STC20060329052510003/29/06 05:25:31  5-MIN KSTC 291125Z AUTO 17008KT 4SM BR CLR 02/00 A3007 890 89 -400 160/08 RMK AO2
14926KSTC STC20060329053010103/29/06 05:30:31  5-MIN KSTC 291130Z AUTO 16008KT 4SM BR CLR 02/M01 A3007 890 85 -400 160/08 RMK AO2
14926KSTC STC20060329053510103/29/06 05:35:31  5-MIN KSTC 291135Z AUTO 16008KT 4SM BR CLR 02/M01 A3007 890 85 -400 150/08 RMK AO2
14926KSTC STC20060329054010103/29/06 05:40:31  5-MIN KSTC 291140Z AUTO 15008KT 4SM BR CLR 02/M01 A3006 890 85 -400 150/08 RMK AO2
14926KSTC STC20060329054510103/29/06 05:45:31  5-MIN KSTC 291145Z AUTO 15008KT 4SM BR CLR 02/M01 A3006 900 85 -400 150/08 RMK AO2
14926KSTC STC20060329055013603/29/06 05:50:31  5-MIN KSTC 291150Z AUTO 15008KT 4SM BR CLR 01/M01 A3006 890 89 -500 150/08 RMK AO2 SLP199 T00111006 10028 20006 58014
14926KSTC STC20060329055510103/29/06 05:55:31  5-MIN KSTC 291155Z AUTO 15006KT 4SM BR CLR 01/M01 A3006 890 89 -500 140/06 RMK AO2
14926KSTC STC20060329060010103/29/06 06:00:31  5-MIN KSTC 291200Z AUTO 15007KT 4SM BR CLR 01/M01 A3007 890 89 -500 150/07 RMK AO2
14926KSTC STC20060329060510103/29/06 06:05:31  5-MIN KSTC 291205Z AUTO 15006KT 4SM BR CLR 01/M01 A3007 890 89 -500 150/06 RMK AO2
14926KSTC STC20060329061010103/29/06 06:10:31  5-MIN KSTC 291210Z AUTO 15007KT 3SM BR CLR 01/M01 A3006 890 89 -500 150/07 RMK AO2
14926KSTC STC20060329061510503/29/06 06:15:31  5-MIN KSTC 291215Z AUTO 15008KT 2 1/2SM BR CLR 01/M01 A3006 890 89 -500 140/08 RMK AO2
14926KSTC STC20060329062010503/29/06 06:20:31  5-MIN KSTC 291220Z AUTO 15008KT 2 1/2SM BR CLR 01/M01 A3006 890 89 -500 150/08 RMK AO2
14926KSTC STC20060329062510503/29/06 06:25:31  5-MIN KSTC 291225Z AUTO 15007KT 2 1/2SM BR CLR 01/M01 A3006 890 89 -500 150/07 RMK AO2
14926KSTC STC20060329063010503/29/06 06:30:31  5-MIN KSTC 291230Z AUTO 15008KT 2 1/2SM BR CLR 01/M01 A3006 890 89 -500 150/08 RMK AO2
14926KSTC STC20060329063510503/29/06 06:35:31  5-MIN KSTC 291235Z AUTO 16009KT 2 1/2SM BR CLR 02/M01 A3006 890 85 -400 150/09 RMK AO2
14926KSTC STC20060329064010503/29/06 06:40:31  5-MIN KSTC 291240Z AUTO 16008KT 2 1/2SM BR CLR 02/M01 A3007 890 85 -400 150/08 RMK AO2
14926KSTC STC20060329064510403/29/06 06:45:31  5-MIN KSTC 291245Z AUTO 15007KT 2 1/2SM BR CLR 02/00 A3007 890 89 -400 150/07 RMK AO2
14926KSTC STC20060329065012103/29/06 06:50:31  5-MIN KSTC 291250Z AUTO 15009KT 2 1/2SM BR CLR 02/00 A3006 890 89 -400 150/09 RMK AO2 SLP198 T00170000
14926KSTC STC20060329065510003/29/06 06:55:31  5-MIN KSTC 291255Z AUTO 15010KT 3SM BR CLR 02/00 A3006 890 85 -400 150/10 RMK AO2
14926KSTC STC20060329070010003/29/06 07:00:31  5-MIN KSTC 291300Z AUTO 16009KT 3SM BR CLR 02/00 A3006 890 85 -400 150/09 RMK AO2
14926KSTC STC20060329070510003/29/06 07:05:31  5-MIN KSTC 291305Z AUTO 16010KT 3SM HZ CLR 03/00 A3006 900 82 -300 160/10 RMK AO2
14926KSTC STC20060329071010003/29/06 07:10:31  5-MIN KSTC 291310Z AUTO 16010KT 3SM BR CLR 03/01 A3006 900 85 -300 160/10 RMK AO2
14926KSTC STC20060329071509503/29/06 07:15:31  5-MIN KSTC 291315Z 16009KT 3SM BR CLR 03/01 A3006 900 85 -300 160/09 RMK AO2
14926KSTC STC20060329072009503/29/06 07:20:31  5-MIN KSTC 291320Z 16009KT 3SM BR CLR 03/01 A3006 900 85 -300 150/09 RMK AO2
14926KSTC STC20060329072509503/29/06 07:25:31  5-MIN KSTC 291325Z 17010KT 3SM BR CLR 03/01 A3006 900 85 -300 160/10 RMK AO2
14926KSTC STC20060329073009503/29/06 07:30:31  5-MIN KSTC 291330Z 16008KT 3SM HZ CLR 03/01 A3006 900 82 -200 160/08 RMK AO2
14926KSTC STC20060329073509503/29/06 07:35:31  5-MIN KSTC 291335Z 17011KT 4SM HZ CLR 03/01 A3006 900 82 -200 170/11 RMK AO2
14926KSTC STC20060329074009503/29/06 07:40:31  5-MIN KSTC 291340Z 17010KT 4SM HZ CLR 03/01 A3006 900 82 -200 160/10 RMK AO2
14926KSTC STC20060329074509503/29/06 07:45:31  5-MIN KSTC 291345Z 17010KT 4SM HZ CLR 04/01 A3006 900 79 -100 160/10 RMK AO2
14926KSTC STC20060329075011203/29/06 07:50:31  5-MIN KSTC 291350Z 17012KT 4SM HZ CLR 04/01 A3006 900 79 -100 160/12 RMK AO2 SLP196 T00390006
14926KSTC STC20060329075509503/29/06 07:55:31  5-MIN KSTC 291355Z 17014KT 4SM HZ CLR 04/01 A3005 900 79 -100 170/14 RMK AO2
14926KSTC STC20060329080009503/29/06 08:00:31  5-MIN KSTC 291400Z 17011KT 4SM HZ CLR 04/01 A3005 900 79 -100 160/11 RMK AO2
14926KSTC STC20060329080509503/29/06 08:05:31  5-MIN KSTC 291405Z 17013KT 4SM HZ CLR 04/01 A3005 900 79 -100 170/13 RMK AO2
14926KSTC STC20060329081009503/29/06 08:10:31  5-MIN KSTC 291410Z 16015KT 4SM HZ CLR 04/01 A3005 900 79 -100 160/15 RMK AO2
14926KSTC STC20060329081509503/29/06 08:15:31  5-MIN KSTC 291415Z 16012KT 4SM HZ CLR 04/01 A3005 910 76 -100 160/12 RMK AO2
14926KSTC STC20060329082009503/29/06 08:20:31  5-MIN KSTC 291420Z 16015KT 4SM HZ CLR 04/01 A3005 910 76 -100 160/15 RMK AO2
14926KSTC STC20060329082509203/29/06 08:25:31  5-MIN KSTC 291425Z 16015KT 5SM HZ CLR 05/01 A3005 910 76 0 160/15 RMK AO2
14926KSTC STC20060329083009203/29/06 08:30:31  5-MIN KSTC 291430Z 17013KT 5SM HZ CLR 05/01 A3005 910 76 0 170/13 RMK AO2
14926KSTC STC20060329083509203/29/06 08:35:31  5-MIN KSTC 291435Z 16015KT 5SM HZ CLR 05/01 A3005 910 76 0 160/15 RMK AO2
14926KSTC STC20060329084009803/29/06 08:40:31  5-MIN KSTC 291440Z 17014G22KT 5SM HZ CLR 06/01 A3005 910 73 0 160/14G22 RMK AO2
14926KSTC STC20060329084509803/29/06 08:45:31  5-MIN KSTC 291445Z 17014G22KT 5SM HZ CLR 06/01 A3005 910 73 0 160/14G22 RMK AO2
14926KSTC STC20060329085011503/29/06 08:50:31  5-MIN KSTC 291450Z 17014KT 5SM HZ CLR 06/01 A3005 910 73 0 170/14 RMK AO2 SLP193 T00560011 55005
14926KSTC STC20060329085509203/29/06 08:55:31  5-MIN KSTC 291455Z 16015KT 5SM HZ CLR 06/01 A3005 910 73 0 160/15 RMK AO2
14926KSTC STC20060329090009403/29/06 09:00:31  5-MIN KSTC 291500Z 17015KT 5SM HZ CLR 06/01 A3005 910 70 100 170/15 RMK AO2
14926KSTC STC20060329090510003/29/06 09:05:31  5-MIN KSTC 291505Z 17014G20KT 5SM HZ CLR 06/01 A3004 910 70 100 160/14G20 RMK AO2
14926KSTC STC20060329091010003/29/06 09:10:31  5-MIN KSTC 291510Z 17017G20KT 5SM HZ CLR 06/01 A3004 910 70 100 170/17G20 RMK AO2
14926KSTC STC20060329091509403/29/06 09:15:31  5-MIN KSTC 291515Z 17017KT 6SM HZ CLR 06/01 A3004 910 70 100 170/17 RMK AO2
14926KSTC STC20060329092009403/29/06 09:20:31  5-MIN KSTC 291520Z 17016KT 6SM HZ CLR 07/01 A3004 910 67 200 170/16 RMK AO2
14926KSTC STC20060329092510003/29/06 09:25:31  5-MIN KSTC 291525Z 17015G23KT 6SM HZ CLR 07/01 A3004 920 67 200 170/15G23 RMK AO2
14926KSTC STC20060329093010003/29/06 09:30:31  5-MIN KSTC 291530Z 17017G23KT 6SM HZ CLR 07/01 A3004 920 67 200 170/17G23 RMK AO2
14926KSTC STC20060329093510003/29/06 09:35:31  5-MIN KSTC 291535Z 16011G22KT 6SM HZ CLR 07/02 A3004 920 68 200 160/11G22 RMK AO2
14926KSTC STC20060329094009703/29/06 09:40:31  5-MIN KSTC 291540Z 15015KT 6SM HZ FEW020 07/02 A3004 920 68 200 150/15 RMK AO2
14926KSTC STC20060329094510303/29/06 09:45:31  5-MIN KSTC 291545Z 17015G25KT 6SM HZ FEW020 07/02 A3003 920 68 200 160/15G25 RMK AO2
14926KSTC STC20060329095012003/29/06 09:50:31  5-MIN KSTC 291550Z 16017G25KT 6SM HZ FEW020 07/02 A3004 920 68 200 160/17G25 RMK AO2 SLP188 T00720017
14926KSTC STC20060329095509703/29/06 09:55:31  5-MIN KSTC 291555Z 15016KT 6SM HZ FEW020 08/02 A3003 920 65 300 150/16 RMK AO2
14926KSTC STC20060329100009703/29/06 10:00:31  5-MIN KSTC 291600Z 16016KT 6SM HZ FEW020 08/02 A3003 920 65 300 160/16 RMK AO2
14926KSTC STC20060329100509703/29/06 10:05:31  5-MIN KSTC 291605Z 16016KT 6SM HZ FEW020 08/02 A3003 920 65 300 160/16 RMK AO2
14926KSTC STC20060329101009703/29/06 10:10:31  5-MIN KSTC 291610Z 16016KT 6SM HZ FEW020 08/02 A3003 930 65 300 160/16 RMK AO2
14926KSTC STC20060329101509703/29/06 10:15:31  5-MIN KSTC 291615Z 17016KT 6SM HZ FEW020 08/02 A3002 930 65 300 170/16 RMK AO2
14926KSTC STC20060329102009403/29/06 10:20:31  5-MIN KSTC 291620Z 16017KT 6SM HZ CLR 08/02 A3002 930 65 400 150/17 RMK AO2
14926KSTC STC20060329102509403/29/06 10:25:31  5-MIN KSTC 291625Z 16017KT 6SM HZ CLR 08/02 A3002 940 65 400 160/17 RMK AO2
14926KSTC STC20060329103010003/29/06 10:30:31  5-MIN KSTC 291630Z 16017G23KT 6SM HZ CLR 08/02 A3002 940 65 400 160/17G23 RMK AO2
14926KSTC STC20060329103509703/29/06 10:35:31  5-MIN KSTC 291635Z 17014G23KT 7SM CLR 09/02 A3002 940 63 500 170/14G23 RMK AO2
14926KSTC STC20060329104009703/29/06 10:40:31  5-MIN KSTC 291640Z 17015G20KT 7SM CLR 09/02 A3002 940 63 500 160/15G20 RMK AO2
14926KSTC STC20060329104509703/29/06 10:45:31  5-MIN KSTC 291645Z 16017G20KT 7SM CLR 09/02 A3002 940 63 500 160/17G20 RMK AO2
14926KSTC STC20060329105011403/29/06 10:50:31  5-MIN KSTC 291650Z 15018G21KT 7SM CLR 09/02 A3002 940 63 500 150/18G21 RMK AO2 SLP180 T00890022
14926KSTC STC20060329105509703/29/06 10:55:31  5-MIN KSTC 291655Z 15017G21KT 7SM CLR 09/03 A3001 940 65 500 150/17G21 RMK AO2
14926KSTC STC20060329110009103/29/06 11:00:31  5-MIN KSTC 291700Z 16016KT 7SM CLR 09/03 A3001 940 65 500 150/16 RMK AO2
14926KSTC STC20060329110509103/29/06 11:05:31  5-MIN KSTC 291705Z 15016KT 7SM CLR 09/03 A3001 950 63 500 140/16 RMK AO2
14926KSTC STC20060329111009703/29/06 11:10:31  5-MIN KSTC 291710Z 16017G21KT 7SM CLR 09/03 A3000 950 63 500 150/17G21 RMK AO2
14926KSTC STC20060329111509103/29/06 11:15:31  5-MIN KSTC 291715Z 15016KT 7SM CLR 09/03 A3000 950 63 600 150/16 RMK AO2
14926KSTC STC20060329112009103/29/06 11:20:31  5-MIN KSTC 291720Z 15014KT 7SM CLR 10/03 A3000 950 63 600 150/14 RMK AO2
14926KSTC STC20060329112509103/29/06 11:25:31  5-MIN KSTC 291725Z 16017KT 7SM CLR 10/03 A3000 950 63 600 160/17 RMK AO2
14926KSTC STC20060329113009403/29/06 11:30:31  5-MIN KSTC 291730Z 17017KT 8SM FEW100 10/03 A3000 950 60 600 160/17 RMK AO2
14926KSTC STC20060329113509703/29/06 11:35:31  5-MIN KSTC 291735Z 16015G22KT 8SM CLR 11/03 A3000 960 58 700 160/15G22 RMK AO2
14926KSTC STC20060329114009703/29/06 11:40:31  5-MIN KSTC 291740Z 14017G22KT 8SM CLR 11/03 A3000 960 61 700 140/17G22 RMK AO2
14926KSTC STC20060329114509103/29/06 11:45:31  5-MIN KSTC 291745Z 16015KT 7SM CLR 11/03 A2999 960 61 700 150/15 RMK AO2
14926KSTC STC20060329115012603/29/06 11:50:31  5-MIN KSTC 291750Z 15018KT 8SM CLR 11/03 A2999 960 58 800 140/18 RMK AO2 SLP171 T01110033 10111 20011 58005
14926KSTC STC20060329115509103/29/06 11:55:31  5-MIN KSTC 291755Z 15018KT 8SM CLR 11/03 A2999 960 61 700 140/18 RMK AO2
14926KSTC STC20060329120009103/29/06 12:00:31  5-MIN KSTC 291800Z 15018KT 8SM CLR 11/03 A2999 960 61 700 150/18 RMK AO2
14926KSTC STC20060329120509703/29/06 12:05:31  5-MIN KSTC 291805Z 16018G22KT 8SM CLR 11/03 A2999 960 61 700 150/18G22 RMK AO2
14926KSTC STC20060329121009703/29/06 12:10:31  5-MIN KSTC 291810Z 18018G24KT 8SM CLR 11/03 A2999 970 58 800 170/18G24 RMK AO2
14926KSTC STC20060329121509703/29/06 12:15:31  5-MIN KSTC 291815Z 15016G24KT 8SM CLR 11/03 A2998 970 58 800 150/16G24 RMK AO2
14926KSTC STC20060329122009703/29/06 12:20:31  5-MIN KSTC 291820Z 15020G24KT 8SM CLR 11/04 A2998 970 61 800 150/20G24 RMK AO2
14926KSTC STC20060329122509703/29/06 12:25:31  5-MIN KSTC 291825Z 16018G24KT 8SM CLR 11/04 A2998 970 61 800 150/18G24 RMK AO2
14926KSTC STC20060329123009703/29/06 12:30:31  5-MIN KSTC 291830Z 15017G23KT 8SM CLR 12/04 A2997 980 58 900 150/17G23 RMK AO2
14926KSTC STC20060329123509703/29/06 12:35:31  5-MIN KSTC 291835Z 17016G23KT 8SM CLR 12/04 A2997 980 58 900 160/16G23 RMK AO2
14926KSTC STC20060329124009703/29/06 12:40:31  5-MIN KSTC 291840Z 16020G23KT 8SM CLR 12/04 A2997 980 58 900 150/20G23 RMK AO2
14926KSTC STC20060329124509703/29/06 12:45:31  5-MIN KSTC 291845Z 17016G23KT 8SM CLR 12/04 A2997 980 58 900 170/16G23 RMK AO2
14926KSTC STC20060329125010803/29/06 12:50:31  5-MIN KSTC 291850Z 16015KT 8SM CLR 12/04 A2997 980 56 900 160/15 RMK AO2 SLP162 T01220039
14926KSTC STC20060329125509103/29/06 12:55:31  5-MIN KSTC 291855Z 15018KT 8SM CLR 12/04 A2996 990 58 900 140/18 RMK AO2
14926KSTC STC20060329130009103/29/06 13:00:31  5-MIN KSTC 291900Z 15018KT 8SM CLR 12/04 A2996 990 58 900 150/18 RMK AO2
14926KSTC STC20060329130509703/29/06 13:05:31  5-MIN KSTC 291905Z 16018G23KT 8SM CLR 12/04 A2996 990 56 900 150/18G23 RMK AO2
14926KSTC STC20060329131009103/29/06 13:10:31  5-MIN KSTC 291910Z 15017KT 8SM CLR 12/04 A2996 990 56 900 150/17 RMK AO2
14926KSTC STC20060329131509103/29/06 13:15:31  5-MIN KSTC 291915Z 16018KT 8SM CLR 12/04 A2995 990 56 900 160/18 RMK AO2
14926KSTC STC20060329132009203/29/06 13:20:31  5-MIN KSTC 291920Z 16018KT 8SM CLR 12/04 A2995 1000 56 900 150/18 RMK AO2
14926KSTC STC20060329132509303/29/06 13:25:31  5-MIN KSTC 291925Z 15019KT 8SM CLR 13/04 A2995 1000 54 1000 150/19 RMK AO2
14926KSTC STC20060329133009503/29/06 13:30:31  5-MIN KSTC 291930Z 16016KT 8SM FEW065 12/04 A2995 1000 56 900 160/16 RMK AO2
14926KSTC STC20060329133509603/29/06 13:35:31  5-MIN KSTC 291935Z 15016KT 8SM SCT065 12/04 A2994 1010 59 1000 140/16 RMK AO2
14926KSTC STC20060329134009603/29/06 13:40:31  5-MIN KSTC 291940Z 14014KT 8SM BKN065 12/04 A2994 1010 59 1000 140/14 RMK AO2
14926KSTC STC20060329134509603/29/06 13:45:31  5-MIN KSTC 291945Z 14015KT 7SM BKN065 13/04 A2994 1010 56 1000 130/15 RMK AO2
14926KSTC STC20060329135012003/29/06 13:50:31  5-MIN KSTC 291950Z 14017KT 7SM FEW035 BKN065 13/04 A2994 1010 56 1000 140/17 RMK AO2 SLP152 T01280044
14926KSTC STC20060329135510303/29/06 13:55:31  5-MIN KSTC 291955Z 15019KT 8SM SCT035 BKN065 12/04 A2994 1010 59 1000 150/19 RMK AO2
14926KSTC STC20060329140010303/29/06 14:00:31  5-MIN KSTC 292000Z 16016KT 8SM SCT035 BKN065 13/04 A2993 1020 56 1000 160/16 RMK AO2
14926KSTC STC20060329140510303/29/06 14:05:31  5-MIN KSTC 292005Z 15017KT 8SM FEW035 BKN065 13/04 A2993 1020 54 1100 150/17 RMK AO2
14926KSTC STC20060329141010903/29/06 14:10:31  5-MIN KSTC 292010Z 15017G21KT 7SM FEW035 SCT065 13/04 A2993 1020 54 1100 140/17G21 RMK AO2
14926KSTC STC20060329141509603/29/06 14:15:31  5-MIN KSTC 292015Z 15019KT 7SM FEW035 13/04 A2993 1020 56 1000 150/19 RMK AO2
14926KSTC STC20060329142009603/29/06 14:20:31  5-MIN KSTC 292020Z 15016KT 7SM FEW035 13/04 A2993 1020 56 1000 150/16 RMK AO2
14926KSTC STC20060329142509303/29/06 14:25:31  5-MIN KSTC 292025Z 14018KT 7SM CLR 13/05 A2993 1020 57 1100 140/18 RMK AO2
14926KSTC STC20060329143009903/29/06 14:30:31  5-MIN KSTC 292030Z 15017G23KT 7SM CLR 13/04 A2993 1020 56 1000 150/17G23 RMK AO2
14926KSTC STC20060329143509903/29/06 14:35:31  5-MIN KSTC 292035Z 15016G22KT 7SM CLR 13/05 A2992 1030 57 1100 140/16G22 RMK AO2
14926KSTC STC20060329144009903/29/06 14:40:31  5-MIN KSTC 292040Z 15018G22KT 7SM CLR 13/05 A2992 1020 59 1000 140/18G22 RMK AO2
14926KSTC STC20060329144510203/29/06 14:45:31  5-MIN KSTC 292045Z 15016G24KT 6SM HZ CLR 13/05 A2992 1030 59 1000 140/16G24 RMK AO2
14926KSTC STC20060329145012503/29/06 14:50:31  5-MIN KSTC 292050Z 15019G25KT 6SM HZ CLR 13/05 A2992 1030 59 1000 150/19G25 RMK AO2 SLP146 T01280050 58019
14926KSTC STC20060329145510503/29/06 14:55:31  5-MIN KSTC 292055Z 15020G25KT 6SM HZ FEW070 13/04 A2992 1030 56 1000 150/20G25 RMK AO2
14926KSTC STC20060329150009603/29/06 15:00:31  5-MIN KSTC 292100Z 15020KT 7SM FEW070 13/05 A2991 1030 59 1000 150/20 RMK AO2
14926KSTC STC20060329150510203/29/06 15:05:31  5-MIN KSTC 292105Z 16018G24KT 6SM HZ CLR 13/05 A2991 1030 59 1100 160/18G24 RMK AO2
14926KSTC STC20060329151010203/29/06 15:10:31  5-MIN KSTC 292110Z 17019G24KT 6SM HZ CLR 12/04 A2991 1030 59 1000 160/19G24 RMK AO2
14926KSTC STC20060329151510103/29/06 15:15:31  5-MIN KSTC 292115Z 15016G23KT 6SM HZ CLR 12/04 A2991 1030 61 900 150/16G23 RMK AO2
14926KSTC STC20060329152009903/29/06 15:20:31  5-MIN KSTC 292120Z 16016KT 6SM HZ FEW031 13/05 A2991 1040 59 1100 150/16 RMK AO2
14926KSTC STC20060329152510503/29/06 15:25:31  5-MIN KSTC 292125Z 16017G24KT 6SM HZ FEW031 12/05 A2991 1040 61 1000 160/17G24 RMK AO2
14926KSTC STC20060329153010503/29/06 15:30:31  5-MIN KSTC 292130Z 17016G24KT 6SM HZ FEW031 12/05 A2991 1040 61 1000 170/16G24 RMK AO2
14926KSTC STC20060329153510503/29/06 15:35:31  5-MIN KSTC 292135Z 15017G21KT 6SM HZ SCT029 12/05 A2991 1040 61 1000 140/17G21 RMK AO2
14926KSTC STC20060329154010403/29/06 15:40:31  5-MIN KSTC 292140Z 15014G21KT 6SM HZ BKN029 12/05 A2991 1040 63 900 150/14G21 RMK AO2
14926KSTC STC20060329154509803/29/06 15:45:31  5-MIN KSTC 292145Z 17015KT 6SM HZ BKN029 12/05 A2991 1040 63 900 170/15 RMK AO2
14926KSTC STC20060329155011503/29/06 15:50:31  5-MIN KSTC 292150Z 15016KT 6SM HZ BKN029 12/05 A2991 1040 63 900 150/16 RMK AO2 SLP142 T01170050
14926KSTC STC20060329155509803/29/06 15:55:31  5-MIN KSTC 292155Z 15015KT 6SM HZ BKN029 12/05 A2990 1040 63 900 150/15 RMK AO2
14926KSTC STC20060329160010403/29/06 16:00:31  5-MIN KSTC 292200Z 15015G23KT 6SM HZ OVC029 12/05 A2990 1040 63 900 140/15G23 RMK AO2
14926KSTC STC20060329160510403/29/06 16:05:31  5-MIN KSTC 292205Z 15018G25KT 6SM HZ OVC029 12/05 A2990 1040 63 900 150/18G25 RMK AO2
14926KSTC STC20060329161010403/29/06 16:10:31  5-MIN KSTC 292210Z 15018G25KT 6SM HZ OVC029 12/05 A2990 1050 63 900 150/18G25 RMK AO2
14926KSTC STC20060329161511003/29/06 16:15:31  5-MIN KSTC 292215Z AUTO 15015G23KT 6SM HZ OVC029 12/05 A2990 1050 61 1000 140/15G23 RMK AO2
14926KSTC STC20060329162010903/29/06 16:20:31  5-MIN KSTC 292220Z AUTO 15016G21KT 6SM HZ BKN029 12/05 A2990 1050 63 900 140/16G21 RMK AO2
14926KSTC STC20060329162510303/29/06 16:25:31  5-MIN KSTC 292225Z AUTO 14017KT 6SM HZ BKN029 11/05 A2989 1050 66 900 140/17 RMK AO2
14926KSTC STC20060329163010303/29/06 16:30:31  5-MIN KSTC 292230Z AUTO 14016KT 5SM HZ BKN029 11/05 A2989 1050 66 900 140/16 RMK AO2
14926KSTC STC20060329163510903/29/06 16:35:31  5-MIN KSTC 292235Z AUTO 14017G22KT 5SM HZ BKN029 12/05 A2989 1060 63 900 140/17G22 RMK AO2
14926KSTC STC20060329164010903/29/06 16:40:31  5-MIN KSTC 292240Z AUTO 14017G22KT 5SM HZ SCT029 12/05 A2989 1060 63 900 140/17G22 RMK AO2
14926KSTC STC20060329164510303/29/06 16:45:31  5-MIN KSTC 292245Z AUTO 14015KT 6SM HZ FEW029 12/05 A2989 1060 63 900 140/15 RMK AO2
14926KSTC STC20060329165012003/29/06 16:50:31  5-MIN KSTC 292250Z AUTO 15015KT 6SM HZ FEW029 12/06 A2989 1060 66 900 140/15 RMK AO2 SLP136 T01170056
14926KSTC STC20060329165510303/29/06 16:55:31  5-MIN KSTC 292255Z AUTO 14015KT 6SM HZ FEW029 12/06 A2989 1060 66 900 140/15 RMK AO2
14926KSTC STC20060329170010603/29/06 17:00:31  5-MIN KSTC 292300Z AUTO 15016G21KT 6SM HZ CLR 11/06 A2989 1060 68 900 140/16G21 RMK AO2
14926KSTC STC20060329170510003/29/06 17:05:31  5-MIN KSTC 292305Z AUTO 15016KT 6SM HZ CLR 11/06 A2989 1060 68 900 150/16 RMK AO2
14926KSTC STC20060329171010003/29/06 17:10:31  5-MIN KSTC 292310Z AUTO 14014KT 6SM HZ CLR 11/06 A2989 1060 68 900 130/14 RMK AO2
14926KSTC STC20060329171510003/29/06 17:15:31  5-MIN KSTC 292315Z AUTO 14014KT 6SM HZ CLR 11/06 A2989 1060 68 900 140/14 RMK AO2
14926KSTC STC20060329172010003/29/06 17:20:31  5-MIN KSTC 292320Z AUTO 15013KT 6SM HZ CLR 11/06 A2989 1060 68 900 140/13 RMK AO2
14926KSTC STC20060329172510003/29/06 17:25:31  5-MIN KSTC 292325Z AUTO 15015KT 6SM HZ CLR 11/06 A2989 1060 68 900 150/15 RMK AO2
14926KSTC STC20060329173010603/29/06 17:30:31  5-MIN KSTC 292330Z AUTO 14015G20KT 6SM HZ CLR 11/06 A2988 1060 68 900 140/15G20 RMK AO2
14926KSTC STC20060329173510003/29/06 17:35:31  5-MIN KSTC 292335Z AUTO 14013KT 6SM HZ CLR 11/06 A2988 1060 68 900 130/13 RMK AO2
14926KSTC STC20060329174010003/29/06 17:40:31  5-MIN KSTC 292340Z AUTO 14015KT 6SM HZ CLR 11/06 A2988 1060 71 800 140/15 RMK AO2
14926KSTC STC20060329174510003/29/06 17:45:31  5-MIN KSTC 292345Z AUTO 14013KT 6SM HZ CLR 11/06 A2988 1060 71 800 140/13 RMK AO2
14926KSTC STC20060329175013503/29/06 17:50:31  5-MIN KSTC 292350Z AUTO 14014KT 6SM HZ CLR 11/06 A2988 1070 71 800 140/14 RMK AO2 SLP133 T01060056 10133 20106 56024
14926KSTC STC20060329175510303/29/06 17:55:31  5-MIN KSTC 292355Z AUTO 13013KT 6SM HZ FEW080 11/06 A2987 1070 71 800 130/13 RMK AO2
14926KSTC STC20060329180010303/29/06 18:00:31  5-MIN KSTC 300000Z AUTO 14013KT 6SM HZ SCT080 11/06 A2988 1070 71 800 130/13 RMK AO2
14926KSTC STC20060329180510303/29/06 18:05:31  5-MIN KSTC 300005Z AUTO 14014KT 6SM HZ SCT080 11/06 A2987 1070 71 800 130/14 RMK AO2
14926KSTC STC20060329181010303/29/06 18:10:31  5-MIN KSTC 300010Z AUTO 14013KT 6SM HZ FEW080 11/06 A2987 1070 71 800 130/13 RMK AO2
14926KSTC STC20060329181510303/29/06 18:15:31  5-MIN KSTC 300015Z AUTO 13012KT 6SM HZ FEW080 11/06 A2987 1070 71 800 130/12 RMK AO2
14926KSTC STC20060329182010903/29/06 18:20:31  5-MIN KSTC 300020Z AUTO 14013G17KT 6SM HZ FEW080 10/06 A2987 1070 74 800 130/13G17 RMK AO2
14926KSTC STC20060329182510303/29/06 18:25:31  5-MIN KSTC 300025Z AUTO 14014KT 6SM HZ SCT075 10/06 A2987 1070 74 800 130/14 RMK AO2
14926KSTC STC20060329183010303/29/06 18:30:31  5-MIN KSTC 300030Z AUTO 14013KT 6SM HZ SCT070 10/06 A2987 1080 74 800 130/13 RMK AO2
14926KSTC STC20060329183511003/29/06 18:35:31  5-MIN KSTC 300035Z AUTO 13011KT 6SM HZ SCT070 BKN095 10/06 A2987 1080 74 800 130/11 RMK AO2
14926KSTC STC20060329184011003/29/06 18:40:31  5-MIN KSTC 300040Z AUTO 13010KT 6SM HZ SCT070 BKN095 10/06 A2987 1080 74 800 130/10 RMK AO2
14926KSTC STC20060329184511003/29/06 18:45:31  5-MIN KSTC 300045Z AUTO 13011KT 6SM HZ SCT070 BKN090 10/06 A2986 1080 74 800 120/11 RMK AO2
14926KSTC STC20060329185012403/29/06 18:50:31  5-MIN KSTC 300050Z AUTO 13012KT 7SM SCT075 BKN090 10/06 A2987 1080 74 800 130/12 RMK AO2 SLP129 T01000056
14926KSTC STC20060329185510703/29/06 18:55:31  5-MIN KSTC 300055Z AUTO 12011KT 7SM FEW070 BKN090 10/06 A2986 1080 74 800 120/11 RMK AO2
14926KSTC STC20060329190010003/29/06 19:00:31  5-MIN KSTC 300100Z AUTO 13012KT 7SM BKN085 10/06 A2986 1080 74 800 130/12 RMK AO2
14926KSTC STC20060329190510003/29/06 19:05:31  5-MIN KSTC 300105Z AUTO 13012KT 7SM BKN085 10/06 A2986 1080 74 800 130/12 RMK AO2
14926KSTC STC20060329191010703/29/06 19:10:31  5-MIN KSTC 300110Z AUTO 13010KT 7SM FEW080 BKN090 10/06 A2987 1080 74 800 130/10 RMK AO2
14926KSTC STC20060329191510003/29/06 19:15:31  5-MIN KSTC 300115Z AUTO 13010KT 7SM BKN085 10/06 A2987 1080 74 800 120/10 RMK AO2
14926KSTC STC20060329192011603/29/06 19:20:31  5-MIN KSTC 300120Z AUTO 13009KT 6SM -RA BKN085 10/06 A2986 1080 74 800 130/09 RMK AO2 RAB20 P0000
14926KSTC STC20060329192512903/29/06 19:25:31  5-MIN KSTC 300125Z AUTO 12010KT 3SM RA FEW017 BKN080 BKN090 09/06 A2986 1080 76 700 120/10 RMK AO2 RAB20 P0002
14926KSTC STC20060329193013003/29/06 19:30:31  5-MIN KSTC 300130Z AUTO 13011KT 3SM -RA FEW017 BKN075 BKN090 09/06 A2986 1080 79 700 130/11 RMK AO2 RAB20 P0004
14926KSTC STC20060329193513003/29/06 19:35:31  5-MIN KSTC 300135Z AUTO 13011KT 5SM -RA FEW017 BKN075 BKN095 09/06 A2986 1080 79 700 120/11 RMK AO2 RAB20 P0004
14926KSTC STC20060329194012303/29/06 19:40:31  5-MIN KSTC 300140Z AUTO 14013KT 6SM -RA FEW017 OVC070 09/06 A2987 1070 79 700 130/13 RMK AO2 RAB20 P0004
14926KSTC STC20060329194512303/29/06 19:45:31  5-MIN KSTC 300145Z AUTO 14010KT 6SM -RA FEW017 OVC070 09/06 A2987 1070 79 700 130/10 RMK AO2 RAB20 P0004
14926KSTC STC20060329195014203/29/06 19:50:31  5-MIN KSTC 300150Z AUTO 14011KT 6SM HZ FEW015 OVC070 09/06 A2987 1070 83 600 130/11 RMK AO2 RAB20E49 SLP130 P0004 T00890061
14926KSTC STC20060329195511703/29/06 19:55:31  5-MIN KSTC 300155Z AUTO 14012KT 6SM HZ BKN070 BKN090 OVC120 09/06 A2987 1070 83 600 140/12 RMK AO2
14926KSTC STC20060329200011703/29/06 20:00:31  5-MIN KSTC 300200Z AUTO 14011KT 6SM HZ BKN070 BKN090 OVC120 09/06 A2987 1070 83 600 130/11 RMK AO2
14926KSTC STC20060329200511003/29/06 20:05:31  5-MIN KSTC 300205Z AUTO 14012KT 6SM HZ BKN070 OVC090 09/06 A2987 1070 83 600 130/12 RMK AO2
14926KSTC STC20060329201011003/29/06 20:10:31  5-MIN KSTC 300210Z AUTO 14012KT 6SM HZ BKN070 OVC090 09/06 A2987 1070 83 600 140/12 RMK AO2
14926KSTC STC20060329201511003/29/06 20:15:31  5-MIN KSTC 300215Z AUTO 14010KT 5SM HZ BKN070 BKN090 09/06 A2987 1070 83 600 140/10 RMK AO2
14926KSTC STC20060329202011003/29/06 20:20:31  5-MIN KSTC 300220Z AUTO 14012KT 5SM HZ BKN070 OVC090 09/06 A2987 1070 83 600 140/12 RMK AO2
14926KSTC STC20060329202510303/29/06 20:25:31  5-MIN KSTC 300225Z AUTO 14011KT 5SM HZ OVC070 09/06 A2988 1070 83 600 140/11 RMK AO2
14926KSTC STC20060329203010303/29/06 20:30:31  5-MIN KSTC 300230Z AUTO 14013KT 5SM HZ OVC065 09/06 A2988 1070 83 600 140/13 RMK AO2
14926KSTC STC20060329203510303/29/06 20:35:31  5-MIN KSTC 300235Z AUTO 14013KT 5SM HZ OVC065 09/06 A2988 1070 83 600 140/13 RMK AO2
14926KSTC STC20060329204010303/29/06 20:40:31  5-MIN KSTC 300240Z AUTO 14015KT 5SM HZ OVC065 09/06 A2988 1070 83 600 140/15 RMK AO2
14926KSTC STC20060329204510303/29/06 20:45:31  5-MIN KSTC 300245Z AUTO 15015KT 5SM HZ OVC065 09/06 A2988 1070 83 600 140/15 RMK AO2
14926KSTC STC20060329205013203/29/06 20:50:31  5-MIN KSTC 300250Z AUTO 15014KT 5SM HZ OVC065 09/06 A2987 1070 79 600 140/14 RMK AO2 SLP130 60004 T00890056 57014
14926KSTC STC20060329205510303/29/06 20:55:31  5-MIN KSTC 300255Z AUTO 15014KT 5SM HZ OVC065 09/06 A2987 1070 79 600 150/14 RMK AO2
14926KSTC STC20060329210010303/29/06 21:00:31  5-MIN KSTC 300300Z AUTO 15016KT 5SM HZ OVC065 09/06 A2987 1070 79 600 140/16 RMK AO2
14926KSTC STC20060329210510303/29/06 21:05:31  5-MIN KSTC 300305Z AUTO 15013KT 6SM HZ OVC065 09/06 A2987 1070 79 600 150/13 RMK AO2
14926KSTC STC20060329211010303/29/06 21:10:31  5-MIN KSTC 300310Z AUTO 15015KT 6SM HZ OVC065 09/06 A2987 1070 79 600 150/15 RMK AO2
14926KSTC STC20060329211510303/29/06 21:15:31  5-MIN KSTC 300315Z AUTO 15015KT 6SM HZ OVC065 09/06 A2987 1070 79 600 150/15 RMK AO2
14926KSTC STC20060329212010903/29/06 21:20:31  5-MIN KSTC 300320Z AUTO 15016G21KT 6SM HZ OVC065 09/06 A2987 1070 79 600 140/16G21 RMK AO2
14926KSTC STC20060329212510903/29/06 21:25:31  5-MIN KSTC 300325Z AUTO 14016G21KT 6SM HZ OVC060 09/06 A2987 1080 79 600 140/16G21 RMK AO2
14926KSTC STC20060329213010303/29/06 21:30:31  5-MIN KSTC 300330Z AUTO 14013KT 6SM HZ OVC060 09/06 A2987 1080 79 600 140/13 RMK AO2
14926KSTC STC20060329213510303/29/06 21:35:31  5-MIN KSTC 300335Z AUTO 13014KT 6SM HZ OVC060 09/05 A2986 1080 76 600 130/14 RMK AO2
14926KSTC STC20060329214010303/29/06 21:40:31  5-MIN KSTC 300340Z AUTO 14015KT 6SM HZ OVC060 09/05 A2986 1080 76 600 140/15 RMK AO2
14926KSTC STC20060329214510303/29/06 21:45:31  5-MIN KSTC 300345Z AUTO 14015KT 6SM HZ OVC060 08/06 A2986 1080 82 600 140/15 RMK AO2
14926KSTC STC20060329215012003/29/06 21:50:31  5-MIN KSTC 300350Z AUTO 14012KT 5SM HZ OVC060 08/05 A2986 1080 79 600 140/12 RMK AO2 SLP126 T00830050
14926KSTC STC20060329215510303/29/06 21:55:31  5-MIN KSTC 300355Z AUTO 14014KT 6SM HZ OVC060 08/05 A2986 1080 79 600 140/14 RMK AO2
14926KSTC STC20060329220010303/29/06 22:00:31  5-MIN KSTC 300400Z AUTO 14013KT 6SM HZ OVC060 08/05 A2986 1080 79 600 140/13 RMK AO2
14926KSTC STC20060329220510903/29/06 22:05:31  5-MIN KSTC 300405Z AUTO 15016G23KT 6SM HZ OVC060 08/05 A2986 1080 79 600 150/16G23 RMK AO2
14926KSTC STC20060329221010903/29/06 22:10:31  5-MIN KSTC 300410Z AUTO 15013G23KT 6SM HZ OVC060 08/05 A2986 1080 79 600 140/13G23 RMK AO2
14926KSTC STC20060329221510303/29/06 22:15:31  5-MIN KSTC 300415Z AUTO 14014KT 6SM HZ OVC060 08/05 A2987 1080 79 600 140/14 RMK AO2
14926KSTC STC20060329222010303/29/06 22:20:31  5-MIN KSTC 300420Z AUTO 15014KT 6SM HZ OVC065 08/05 A2986 1080 79 600 140/14 RMK AO2
14926KSTC STC20060329222510903/29/06 22:25:31  5-MIN KSTC 300425Z AUTO 15013G21KT 6SM HZ OVC065 08/05 A2986 1080 79 600 140/13G21 RMK AO2
14926KSTC STC20060329223010903/29/06 22:30:31  5-MIN KSTC 300430Z AUTO 15015G21KT 6SM HZ OVC065 08/05 A2986 1080 79 600 140/15G21 RMK AO2
14926KSTC STC20060329223510303/29/06 22:35:31  5-MIN KSTC 300435Z AUTO 14015KT 6SM HZ OVC065 08/05 A2986 1080 79 600 140/15 RMK AO2
14926KSTC STC20060329224010303/29/06 22:40:31  5-MIN KSTC 300440Z AUTO 14013KT 6SM HZ OVC070 08/05 A2986 1090 79 600 140/13 RMK AO2
14926KSTC STC20060329224511603/29/06 22:45:31  5-MIN KSTC 300445Z AUTO 14011G18KT 6SM HZ BKN070 OVC090 08/05 A2986 1080 79 600 140/11G18 RMK AO2
14926KSTC STC20060329225013303/29/06 22:50:31  5-MIN KSTC 300450Z AUTO 14011G18KT 6SM HZ SCT070 OVC090 08/05 A2986 1080 79 600 140/11G18 RMK AO2 SLP124 T00830050
14926KSTC STC20060329225511003/29/06 22:55:31  5-MIN KSTC 300455Z AUTO 14013KT 6SM HZ SCT070 OVC085 08/05 A2986 1080 79 600 140/13 RMK AO2
14926KSTC STC20060329230011003/29/06 23:00:31  5-MIN KSTC 300500Z AUTO 15012KT 6SM HZ FEW070 OVC085 08/05 A2986 1080 79 600 140/12 RMK AO2
14926KSTC STC20060329230511003/29/06 23:05:31  5-MIN KSTC 300505Z AUTO 15010KT 6SM HZ FEW070 OVC090 08/05 A2986 1080 82 500 140/10 RMK AO2
14926KSTC STC20060329231010303/29/06 23:10:31  5-MIN KSTC 300510Z AUTO 15012KT 6SM HZ BKN090 08/05 A2986 1080 79 600 140/12 RMK AO2
14926KSTC STC20060329231510303/29/06 23:15:31  5-MIN KSTC 300515Z AUTO 14013KT 6SM HZ BKN090 08/05 A2985 1090 79 600 140/13 RMK AO2
14926KSTC STC20060329232011003/29/06 23:20:31  5-MIN KSTC 300520Z AUTO 14011KT 6SM HZ FEW060 BKN090 08/05 A2985 1090 79 600 140/11 RMK AO2
14926KSTC STC20060329232511003/29/06 23:25:31  5-MIN KSTC 300525Z AUTO 13012KT 6SM HZ FEW060 BKN095 08/05 A2985 1090 79 600 130/12 RMK AO2
14926KSTC STC20060329233011403/29/06 23:30:31  5-MIN KSTC 300530Z AUTO 14010KT 6SM VCTS HZ BKN095 08/05 A2985 1100 79 600 140/10 RMK AO2 TSB28
14926KSTC STC20060329233511403/29/06 23:35:31  5-MIN KSTC 300535Z AUTO 15012KT 6SM VCTS HZ SCT095 08/05 A2984 1100 82 500 140/12 RMK AO2 TSB28
14926KSTC STC20060329234011403/29/06 23:40:31  5-MIN KSTC 300540Z AUTO 14010KT 6SM VCTS HZ FEW095 08/04 A2984 1100 79 500 140/10 RMK AO2 TSB28
14926KSTC STC20060329234511203/29/06 23:45:31  5-MIN KSTC 300545Z AUTO 14010KT 6SM HZ FEW095 08/04 A2984 1100 79 500 130/10 RMK AO2 TSB28E43
14926KSTC STC20060329235016303/29/06 23:50:31  5-MIN KSTC 300550Z AUTO 14010KT 6SM HZ FEW060 08/04 A2984 1100 79 500 140/10 RMK AO2 TSB28E43 SLP118 60004 T00780044 10106 20078 401330006 58010
14926KSTC STC20060329235510303/29/06 23:55:31  5-MIN KSTC 300555Z AUTO 14010KT 6SM HZ SCT060 08/04 A2984 1100 79 500 130/10 RMK AO2
14926KSTC STC20060330000011603/30/06 00:00:32  5-MIN KSTC 300600Z AUTO 14011KT 6SM VCTS HZ BKN060 08/04 A2984 1100 79 500 130/11 RMK AO2 TSB0556
14926KSTC STC20060330000511603/30/06 00:05:31  5-MIN KSTC 300605Z AUTO 14012KT 6SM VCTS HZ BKN060 08/04 A2984 1100 79 500 130/12 RMK AO2 TSB0556
14926KSTC STC20060330001011603/30/06 00:10:31  5-MIN KSTC 300610Z AUTO 14011KT 6SM VCTS HZ BKN060 08/04 A2984 1100 79 500 130/11 RMK AO2 TSB0556
14926KSTC STC20060330001511403/30/06 00:15:31  5-MIN KSTC 300615Z AUTO 14011KT 6SM HZ OVC060 08/04 A2984 1100 79 500 130/11 RMK AO2 TSB0556E11
14926KSTC STC20060330002011403/30/06 00:20:31  5-MIN KSTC 300620Z AUTO 14012KT 6SM HZ OVC060 08/04 A2984 1110 79 500 140/12 RMK AO2 TSB0556E11
14926KSTC STC20060330002511403/30/06 00:25:31  5-MIN KSTC 300625Z AUTO 14013KT 6SM HZ OVC060 08/04 A2984 1100 79 500 140/13 RMK AO2 TSB0556E11
14926KSTC STC20060330003011403/30/06 00:30:31  5-MIN KSTC 300630Z AUTO 14012KT 6SM HZ OVC060 08/05 A2983 1110 79 600 140/12 RMK AO2 TSB0556E11
14926KSTC STC20060330003511403/30/06 00:35:31  5-MIN KSTC 300635Z AUTO 14012KT 6SM HZ OVC060 08/05 A2983 1110 79 600 140/12 RMK AO2 TSB0556E11
14926KSTC STC20060330004011403/30/06 00:40:31  5-MIN KSTC 300640Z AUTO 14013KT 6SM HZ OVC060 08/05 A2983 1110 82 500 140/13 RMK AO2 TSB0556E11
14926KSTC STC20060330004511403/30/06 00:45:31  5-MIN KSTC 300645Z AUTO 14012KT 6SM HZ OVC060 08/05 A2983 1110 82 500 140/12 RMK AO2 TSB0556E11
14926KSTC STC20060330005013103/30/06 00:50:31  5-MIN KSTC 300650Z AUTO 14012KT 6SM HZ OVC060 08/05 A2983 1110 82 500 140/12 RMK AO2 TSB0556E11 SLP114 T00780050
14926KSTC STC20060330005510303/30/06 00:55:31  5-MIN KSTC 300655Z AUTO 14013KT 6SM HZ OVC060 08/05 A2983 1110 82 500 140/13 RMK AO2
14926KSTC STC20060330010010303/30/06 01:00:31  5-MIN KSTC 300700Z AUTO 14013KT 6SM HZ OVC060 08/05 A2983 1110 82 600 140/13 RMK AO2
14926KSTC STC20060330010510303/30/06 01:05:31  5-MIN KSTC 300705Z AUTO 14013KT 6SM HZ OVC060 08/05 A2983 1110 82 500 130/13 RMK AO2
14926KSTC STC20060330011010303/30/06 01:10:31  5-MIN KSTC 300710Z AUTO 14012KT 6SM HZ OVC060 08/05 A2982 1120 82 600 140/12 RMK AO2
14926KSTC STC20060330011510903/30/06 01:15:31  5-MIN KSTC 300715Z AUTO 14013G18KT 6SM HZ OVC060 08/04 A2982 1120 79 600 130/13G18 RMK AO2
14926KSTC STC20060330012010903/30/06 01:20:31  5-MIN KSTC 300720Z AUTO 14012G18KT 6SM HZ OVC060 08/04 A2982 1120 79 600 140/12G18 RMK AO2
14926KSTC STC20060330012510303/30/06 01:25:31  5-MIN KSTC 300725Z AUTO 14012KT 6SM HZ OVC060 08/04 A2982 1120 79 600 140/12 RMK AO2
14926KSTC STC20060330013010303/30/06 01:30:31  5-MIN KSTC 300730Z AUTO 14013KT 5SM HZ OVC060 08/04 A2982 1120 79 600 140/13 RMK AO2
14926KSTC STC20060330013510303/30/06 01:35:31  5-MIN KSTC 300735Z AUTO 14013KT 5SM HZ OVC060 08/04 A2982 1120 79 600 140/13 RMK AO2
14926KSTC STC20060330014010303/30/06 01:40:31  5-MIN KSTC 300740Z AUTO 14012KT 5SM HZ OVC055 08/04 A2981 1120 79 600 140/12 RMK AO2
14926KSTC STC20060330014510303/30/06 01:45:31  5-MIN KSTC 300745Z AUTO 14013KT 5SM HZ OVC055 08/04 A2981 1130 79 600 140/13 RMK AO2
14926KSTC STC20060330015012003/30/06 01:50:31  5-MIN KSTC 300750Z AUTO 14014KT 5SM HZ OVC055 08/04 A2981 1130 79 600 140/14 RMK AO2 SLP106 T00780044
14926KSTC STC20060330015510303/30/06 01:55:31  5-MIN KSTC 300755Z AUTO 14011KT 5SM HZ OVC055 08/04 A2981 1130 79 600 140/11 RMK AO2
14926KSTC STC20060330020010303/30/06 02:00:31  5-MIN KSTC 300800Z AUTO 14012KT 5SM HZ OVC055 08/04 A2981 1130 79 600 130/12 RMK AO2
14926KSTC STC20060330020510303/30/06 02:05:31  5-MIN KSTC 300805Z AUTO 14013KT 5SM HZ OVC055 08/04 A2981 1130 79 600 140/13 RMK AO2
14926KSTC STC20060330021010303/30/06 02:10:31  5-MIN KSTC 300810Z AUTO 15014KT 5SM HZ OVC055 08/04 A2981 1130 79 600 150/14 RMK AO2
14926KSTC STC20060330021510303/30/06 02:15:31  5-MIN KSTC 300815Z AUTO 15016KT 5SM HZ OVC055 08/04 A2981 1130 79 600 150/16 RMK AO2
14926KSTC STC20060330022010903/30/06 02:20:31  5-MIN KSTC 300820Z AUTO 14015G21KT 5SM HZ OVC055 08/04 A2980 1130 79 600 140/15G21 RMK AO2
14926KSTC STC20060330022510303/30/06 02:25:31  5-MIN KSTC 300825Z AUTO 14015KT 5SM HZ OVC055 08/04 A2980 1140 79 600 140/15 RMK AO2
14926KSTC STC20060330023010303/30/06 02:30:31  5-MIN KSTC 300830Z AUTO 14013KT 5SM HZ OVC055 08/04 A2980 1140 79 600 130/13 RMK AO2
14926KSTC STC20060330023510303/30/06 02:35:31  5-MIN KSTC 300835Z AUTO 14012KT 5SM HZ OVC055 08/04 A2980 1140 79 600 130/12 RMK AO2
14926KSTC STC20060330024011603/30/06 02:40:31  5-MIN KSTC 300840Z AUTO 14015G25KT 6SM HZ BKN060 OVC110 08/04 A2979 1150 79 600 130/15G25 RMK AO2
14926KSTC STC20060330024511603/30/06 02:45:31  5-MIN KSTC 300845Z AUTO 14014G25KT 6SM HZ BKN055 BKN110 08/04 A2979 1150 79 600 140/14G25 RMK AO2
14926KSTC STC20060330025013303/30/06 02:50:31  5-MIN KSTC 300850Z AUTO 14014KT 5SM HZ SCT060 BKN110 08/04 A2979 1150 79 600 130/14 RMK AO2 SLP098 T00780044 56007
14926KSTC STC20060330025512303/30/06 02:55:31  5-MIN KSTC 300855Z AUTO 13012G19KT 5SM HZ FEW048 SCT060 SCT110 08/04 A2978 1150 79 600 130/12G19 RMK AO2
14926KSTC STC20060330030012303/30/06 03:00:31  5-MIN KSTC 300900Z AUTO 13013G19KT 5SM HZ FEW048 SCT060 SCT110 08/04 A2978 1150 79 600 130/13G19 RMK AO2
14926KSTC STC20060330030511003/30/06 03:05:31  5-MIN KSTC 300905Z AUTO 13013KT 5SM HZ SCT046 SCT110 07/04 A2978 1160 82 500 130/13 RMK AO2
14926KSTC STC20060330031010903/30/06 03:10:31  5-MIN KSTC 300910Z AUTO 14014G19KT 5SM HZ BKN044 07/04 A2978 1160 82 500 130/14G19 RMK AO2
14926KSTC STC20060330031510903/30/06 03:15:31  5-MIN KSTC 300915Z AUTO 13013G19KT 5SM HZ BKN044 08/04 A2977 1160 79 600 130/13G19 RMK AO2
14926KSTC STC20060330032010303/30/06 03:20:31  5-MIN KSTC 300920Z AUTO 13012KT 5SM HZ BKN042 08/04 A2977 1160 79 600 130/12 RMK AO2
14926KSTC STC20060330032511003/30/06 03:25:31  5-MIN KSTC 300925Z AUTO 13012KT 5SM HZ BKN039 OVC046 08/04 A2977 1160 79 600 130/12 RMK AO2
14926KSTC STC20060330033011003/30/06 03:30:31  5-MIN KSTC 300930Z AUTO 13012KT 5SM HZ BKN039 OVC046 08/04 A2977 1170 79 600 130/12 RMK AO2
14926KSTC STC20060330033510303/30/06 03:35:31  5-MIN KSTC 300935Z AUTO 13011KT 5SM HZ OVC039 08/04 A2977 1170 79 600 130/11 RMK AO2
14926KSTC STC20060330034010303/30/06 03:40:31  5-MIN KSTC 300940Z AUTO 14012KT 5SM HZ OVC039 08/04 A2976 1170 79 600 130/12 RMK AO2
14926KSTC STC20060330034510303/30/06 03:45:31  5-MIN KSTC 300945Z AUTO 13012KT 5SM HZ OVC039 08/04 A2976 1170 79 600 130/12 RMK AO2
14926KSTC STC20060330035012003/30/06 03:50:31  5-MIN KSTC 300950Z AUTO 13012KT 5SM HZ OVC039 08/04 A2976 1170 79 600 130/12 RMK AO2 SLP090 T00780044
14926KSTC STC20060330035510303/30/06 03:55:31  5-MIN KSTC 300955Z AUTO 13010KT 5SM HZ OVC039 08/04 A2976 1180 79 600 120/10 RMK AO2
14926KSTC STC20060330040010303/30/06 04:00:31  5-MIN KSTC 301000Z AUTO 14011KT 5SM HZ OVC039 08/04 A2976 1180 79 600 130/11 RMK AO2
14926KSTC STC20060330040510903/30/06 04:05:31  5-MIN KSTC 301005Z AUTO 13012G16KT 5SM HZ OVC039 08/04 A2975 1180 79 600 130/12G16 RMK AO2
14926KSTC STC20060330041010903/30/06 04:10:31  5-MIN KSTC 301010Z AUTO 13012G16KT 5SM HZ OVC039 08/04 A2975 1180 79 600 130/12G16 RMK AO2
14926KSTC STC20060330041510903/30/06 04:15:31  5-MIN KSTC 301015Z AUTO 13010G17KT 5SM HZ OVC039 08/04 A2975 1190 79 600 130/10G17 RMK AO2
14926KSTC STC20060330042010903/30/06 04:20:31  5-MIN KSTC 301020Z AUTO 14011G17KT 5SM HZ OVC039 08/04 A2975 1180 79 600 130/11G17 RMK AO2
14926KSTC STC20060330042510303/30/06 04:25:31  5-MIN KSTC 301025Z AUTO 13013KT 5SM HZ OVC039 08/04 A2975 1180 79 600 130/13 RMK AO2
14926KSTC STC20060330043010303/30/06 04:30:31  5-MIN KSTC 301030Z AUTO 13012KT 5SM HZ OVC039 08/04 A2975 1180 79 600 130/12 RMK AO2
14926KSTC STC20060330043510903/30/06 04:35:31  5-MIN KSTC 301035Z AUTO 14011G16KT 5SM HZ OVC041 08/04 A2975 1180 79 600 130/11G16 RMK AO2
14926KSTC STC20060330044010903/30/06 04:40:31  5-MIN KSTC 301040Z AUTO 13009G16KT 5SM HZ OVC041 08/04 A2975 1180 79 600 130/09G16 RMK AO2
14926KSTC STC20060330044510303/30/06 04:45:31  5-MIN KSTC 301045Z AUTO 13010KT 5SM HZ OVC041 08/04 A2976 1180 79 600 130/10 RMK AO2
14926KSTC STC20060330045012003/30/06 04:50:31  5-MIN KSTC 301050Z AUTO 14010KT 5SM HZ OVC039 08/04 A2975 1180 79 600 130/10 RMK AO2 SLP088 T00780044
14926KSTC STC20060330045510303/30/06 04:55:31  5-MIN KSTC 301055Z AUTO 14011KT 5SM HZ OVC039 07/04 A2975 1190 79 600 130/11 RMK AO2
14926KSTC STC20060330050010303/30/06 05:00:31  5-MIN KSTC 301100Z AUTO 13012KT 5SM HZ OVC039 08/04 A2975 1190 76 600 130/12 RMK AO2
14926KSTC STC20060330050510303/30/06 05:05:31  5-MIN KSTC 301105Z AUTO 13009KT 5SM HZ OVC037 07/04 A2974 1190 79 600 130/09 RMK AO2
14926KSTC STC20060330051010303/30/06 05:10:31  5-MIN KSTC 301110Z AUTO 12010KT 5SM HZ OVC037 07/04 A2974 1200 79 600 120/10 RMK AO2
14926KSTC STC20060330051510303/30/06 05:15:31  5-MIN KSTC 301115Z AUTO 13010KT 5SM HZ OVC039 07/04 A2974 1200 79 600 130/10 RMK AO2
14926KSTC STC20060330052010303/30/06 05:20:31  5-MIN KSTC 301120Z AUTO 14011KT 5SM HZ OVC039 07/04 A2974 1200 79 600 130/11 RMK AO2
14926KSTC STC20060330052510303/30/06 05:25:31  5-MIN KSTC 301125Z AUTO 13010KT 5SM HZ OVC039 07/04 A2974 1200 79 600 130/10 RMK AO2
14926KSTC STC20060330053010303/30/06 05:30:31  5-MIN KSTC 301130Z AUTO 13008KT 5SM HZ OVC039 07/04 A2974 1200 79 600 130/08 RMK AO2
14926KSTC STC20060330053511003/30/06 05:35:31  5-MIN KSTC 301135Z AUTO 13007KT 5SM HZ BKN036 OVC043 07/04 A2974 1200 79 600 130/07 RMK AO2
14926KSTC STC20060330054010303/30/06 05:40:31  5-MIN KSTC 301140Z AUTO 13009KT 5SM HZ OVC036 07/04 A2974 1200 79 600 130/09 RMK AO2
14926KSTC STC20060330054510303/30/06 05:45:31  5-MIN KSTC 301145Z AUTO 13008KT 5SM HZ OVC036 07/04 A2974 1190 79 600 130/08 RMK AO2
14926KSTC STC20060330055014403/30/06 05:50:31  5-MIN KSTC 301150Z AUTO 14010KT 5SM HZ OVC034 07/04 A2974 1190 79 600 140/10 RMK AO2 SLP085 70004 T00720039 10083 20072 58019
14926KSTC STC20060330055510303/30/06 05:55:31  5-MIN KSTC 301155Z AUTO 14010KT 5SM HZ OVC034 07/04 A2974 1190 79 600 130/10 RMK AO2
14926KSTC STC20060330060010303/30/06 06:00:31  5-MIN KSTC 301200Z AUTO 13009KT 5SM HZ OVC034 07/04 A2974 1190 79 600 130/09 RMK AO2
14926KSTC STC20060330060510303/30/06 06:05:31  5-MIN KSTC 301205Z AUTO 13009KT 5SM HZ OVC034 07/04 A2974 1190 79 600 130/09 RMK AO2
14926KSTC STC20060330061010303/30/06 06:10:31  5-MIN KSTC 301210Z AUTO 12010KT 5SM HZ OVC034 07/04 A2974 1190 79 600 120/10 RMK AO2
14926KSTC STC20060330061510303/30/06 06:15:31  5-MIN KSTC 301215Z AUTO 13010KT 5SM HZ OVC034 07/04 A2973 1200 79 600 130/10 RMK AO2
14926KSTC STC20060330062010303/30/06 06:20:31  5-MIN KSTC 301220Z AUTO 13011KT 5SM HZ OVC034 07/04 A2974 1200 79 600 120/11 RMK AO2
14926KSTC STC20060330062510303/30/06 06:25:31  5-MIN KSTC 301225Z AUTO 13010KT 5SM HZ OVC034 08/04 A2973 1200 76 700 130/10 RMK AO2
14926KSTC STC20060330063010303/30/06 06:30:31  5-MIN KSTC 301230Z AUTO 14011KT 4SM HZ OVC032 08/04 A2973 1200 76 700 130/11 RMK AO2
14926KSTC STC20060330063510303/30/06 06:35:31  5-MIN KSTC 301235Z AUTO 13011KT 4SM HZ OVC032 08/04 A2973 1200 76 700 130/11 RMK AO2
14926KSTC STC20060330064010903/30/06 06:40:31  5-MIN KSTC 301240Z AUTO 13011G16KT 4SM HZ OVC032 08/04 A2973 1200 76 700 130/11G16 RMK AO2
14926KSTC STC20060330064511603/30/06 06:45:31  5-MIN KSTC 301245Z AUTO 13013KT 4SM -RA OVC030 08/04 A2973 1210 79 700 130/13 RMK AO2 RAB41 P0000
14926KSTC STC20060330065013303/30/06 06:50:31  5-MIN KSTC 301250Z AUTO 14014KT 5SM -RA OVC030 07/04 A2973 1210 82 600 130/14 RMK AO2 RAB41 SLP079 P0000 T00720044
14926KSTC STC20060330065509803/30/06 06:55:31  5-MIN KSTC 301255Z 14013KT 4SM HZ OVC030 07/04 A2972 1210 82 600 130/13 RMK AO2
14926KSTC STC20060330070010403/30/06 07:00:31  5-MIN KSTC 301300Z 14013G18KT 4SM HZ OVC030 07/04 A2972 1210 82 600 130/13G18 RMK AO2
14926KSTC STC20060330070510403/30/06 07:05:31  5-MIN KSTC 301305Z 13013G18KT 4SM HZ OVC030 07/04 A2972 1210 82 600 130/13G18 RMK AO2
14926KSTC STC20060330071009803/30/06 07:10:31  5-MIN KSTC 301310Z 13014KT 4SM HZ OVC028 07/04 A2972 1220 82 600 130/14 RMK AO2
14926KSTC STC20060330071509803/30/06 07:15:31  5-MIN KSTC 301315Z 13013KT 4SM HZ OVC028 07/04 A2972 1220 82 600 120/13 RMK AO2
14926KSTC STC20060330072010403/30/06 07:20:31  5-MIN KSTC 301320Z 13015G20KT 4SM HZ OVC028 08/04 A2972 1220 79 700 130/15G20 RMK AO2
14926KSTC STC20060330072510403/30/06 07:25:31  5-MIN KSTC 301325Z 14015G20KT 4SM HZ OVC028 07/04 A2971 1220 82 600 130/15G20 RMK AO2
14926KSTC STC20060330073012203/30/06 07:30:31  5-MIN KSTC 301330Z 14017G26KT 4SM HZ OVC028 08/04 A2971 1220 79 700 140/17G26 RMK AO2 PK WND 12026/1327
14926KSTC STC20060330073512203/30/06 07:35:31  5-MIN KSTC 301335Z 14016G26KT 4SM HZ OVC028 08/04 A2971 1220 79 700 140/16G26 RMK AO2 PK WND 12026/1327
14926KSTC STC20060330074011603/30/06 07:40:31  5-MIN KSTC 301340Z 14017KT 4SM HZ OVC028 08/04 A2971 1220 79 700 140/17 RMK AO2 PK WND 12026/1327
14926KSTC STC20060330074512203/30/06 07:45:31  5-MIN KSTC 301345Z 14018G21KT 4SM HZ OVC028 08/04 A2971 1220 79 700 140/18G21 RMK AO2 PK WND 12026/1327
14926KSTC STC20060330075013903/30/06 07:50:31  5-MIN KSTC 301350Z 14014G21KT 4SM HZ OVC028 08/04 A2971 1220 79 700 130/14G21 RMK AO2 PK WND 12026/1327 SLP074 T00780044
14926KSTC STC20060330075509803/30/06 07:55:31  5-MIN KSTC 301355Z 14013KT 4SM HZ OVC028 08/04 A2971 1220 79 700 140/13 RMK AO2
14926KSTC STC20060330080010403/30/06 08:00:31  5-MIN KSTC 301400Z 14013G20KT 4SM HZ OVC028 08/05 A2971 1220 82 700 140/13G20 RMK AO2
14926KSTC STC20060330080509803/30/06 08:05:31  5-MIN KSTC 301405Z 14014KT 4SM HZ OVC028 08/05 A2971 1220 82 700 140/14 RMK AO2
14926KSTC STC20060330081009803/30/06 08:10:31  5-MIN KSTC 301410Z 14014KT 4SM HZ OVC028 08/05 A2971 1220 82 700 140/14 RMK AO2
14926KSTC STC20060330081510403/30/06 08:15:31  5-MIN KSTC 301415Z 14015G19KT 4SM HZ OVC028 08/05 A2970 1230 82 700 140/15G19 RMK AO2
14926KSTC STC20060330082010403/30/06 08:20:31  5-MIN KSTC 301420Z 14017G21KT 4SM HZ OVC028 08/05 A2970 1230 82 700 140/17G21 RMK AO2
14926KSTC STC20060330082510403/30/06 08:25:31  5-MIN KSTC 301425Z 15017G22KT 4SM HZ OVC028 08/05 A2970 1230 79 800 150/17G22 RMK AO2
14926KSTC STC20060330083009803/30/06 08:30:31  5-MIN KSTC 301430Z 15018KT 4SM HZ OVC028 08/05 A2970 1230 79 800 140/18 RMK AO2
14926KSTC STC20060330083509803/30/06 08:35:31  5-MIN KSTC 301435Z 15018KT 4SM HZ OVC026 09/05 A2970 1230 76 800 150/18 RMK AO2
14926KSTC STC20060330084010403/30/06 08:40:31  5-MIN KSTC 301440Z 15015G22KT 5SM HZ OVC026 09/05 A2970 1230 76 800 150/15G22 RMK AO2
14926KSTC STC20060330084509803/30/06 08:45:31  5-MIN KSTC 301445Z 15017KT 5SM HZ OVC026 09/05 A2970 1230 76 800 150/17 RMK AO2
14926KSTC STC20060330085013303/30/06 08:50:31  5-MIN KSTC 301450Z 15017G23KT 5SM HZ OVC026 09/05 A2970 1230 76 800 150/17G23 RMK AO2 SLP070 60000 T00890050 56013
14926KSTC STC20060330085510403/30/06 08:55:31  5-MIN KSTC 301455Z 16016G25KT 5SM HZ OVC026 09/05 A2970 1230 76 800 150/16G25 RMK AO2
14926KSTC STC20060330090010403/30/06 09:00:31  5-MIN KSTC 301500Z 15017G25KT 5SM HZ OVC026 09/06 A2970 1230 79 800 150/17G25 RMK AO2
14926KSTC STC20060330090510403/30/06 09:05:31  5-MIN KSTC 301505Z 15016G21KT 5SM HZ OVC026 09/05 A2970 1230 76 800 150/16G21 RMK AO2
14926KSTC STC20060330091009803/30/06 09:10:31  5-MIN KSTC 301510Z 15017KT 5SM HZ OVC024 09/05 A2970 1230 76 800 150/17 RMK AO2
14926KSTC STC20060330091509803/30/06 09:15:31  5-MIN KSTC 301515Z 16016KT 5SM HZ OVC024 09/05 A2970 1230 76 800 150/16 RMK AO2
14926KSTC STC20060330092009803/30/06 09:20:31  5-MIN KSTC 301520Z 16014KT 5SM HZ OVC024 09/05 A2970 1230 76 800 150/14 RMK AO2
14926KSTC STC20060330092509803/30/06 09:25:31  5-MIN KSTC 301525Z 15015KT 5SM HZ OVC024 09/05 A2970 1230 76 800 150/15 RMK AO2
14926KSTC STC20060330093009803/30/06 09:30:31  5-MIN KSTC 301530Z 15016KT 5SM HZ OVC024 09/05 A2970 1230 76 800 150/16 RMK AO2
14926KSTC STC20060330093509803/30/06 09:35:31  5-MIN KSTC 301535Z 15014KT 5SM HZ OVC024 09/05 A2970 1230 76 800 150/14 RMK AO2
14926KSTC STC20060330094009803/30/06 09:40:31  5-MIN KSTC 301540Z 16014KT 5SM HZ OVC024 09/06 A2970 1230 79 800 150/14 RMK AO2
14926KSTC STC20060330094509803/30/06 09:45:31  5-MIN KSTC 301545Z 15014KT 5SM HZ OVC024 09/06 A2970 1230 76 900 150/14 RMK AO2
14926KSTC STC20060330095011503/30/06 09:50:31  5-MIN KSTC 301550Z 16015KT 5SM HZ OVC024 09/06 A2969 1240 76 900 160/15 RMK AO2 SLP068 T00940056
14926KSTC STC20060330095509803/30/06 09:55:31  5-MIN KSTC 301555Z 15017KT 5SM HZ OVC024 09/06 A2969 1240 76 900 150/17 RMK AO2
14926KSTC STC20060330100009803/30/06 10:00:31  5-MIN KSTC 301600Z 15016KT 5SM HZ OVC024 09/06 A2969 1240 76 900 150/16 RMK AO2
14926KSTC STC20060330100510503/30/06 10:05:31  5-MIN KSTC 301605Z 15017G23KT 5SM HZ OVC024 10/06 A2969 1240 74 1000 150/17G23 RMK AO2
14926KSTC STC20060330101011203/30/06 10:10:31  5-MIN KSTC 301610Z 15015G23KT 5SM HZ BKN024 OVC029 10/06 A2969 1240 74 1000 150/15G23 RMK AO2
14926KSTC STC20060330101511303/30/06 10:15:31  5-MIN KSTC 301615Z 15015KT 5SM HZ SCT024 BKN030 OVC036 10/06 A2968 1250 74 1000 140/15 RMK AO2
14926KSTC STC20060330102011303/30/06 10:20:31  5-MIN KSTC 301620Z 14013KT 5SM HZ SCT024 BKN030 OVC060 11/06 A2967 1260 74 1100 140/13 RMK AO2
14926KSTC STC20060330102511303/30/06 10:25:31  5-MIN KSTC 301625Z 14016KT 5SM HZ FEW024 SCT030 BKN037 11/06 A2968 1250 71 1100 140/16 RMK AO2
14926KSTC STC20060330103010603/30/06 10:30:31  5-MIN KSTC 301630Z 15015KT 6SM HZ SCT030 SCT037 11/06 A2968 1250 71 1100 150/15 RMK AO2
14926KSTC STC20060330103511203/30/06 10:35:31  5-MIN KSTC 301635Z 16016G22KT 6SM HZ FEW030 SCT037 12/06 A2968 1250 68 1200 160/16G22 RMK AO2
14926KSTC STC20060330104010503/30/06 10:40:31  5-MIN KSTC 301640Z 15016G22KT 6SM HZ FEW035 12/07 A2967 1260 71 1200 150/16G22 RMK AO2
14926KSTC STC20060330104510203/30/06 10:45:31  5-MIN KSTC 301645Z 15019G22KT 6SM HZ CLR 12/07 A2968 1250 68 1300 150/19G22 RMK AO2
14926KSTC STC20060330105012203/30/06 10:50:31  5-MIN KSTC 301650Z 16015G22KT 6SM HZ FEW033 13/07 A2968 1250 66 1300 150/15G22 RMK AO2 SLP061 T01280067
14926KSTC STC20060330105510503/30/06 10:55:31  5-MIN KSTC 301655Z 17015G20KT 6SM HZ SCT033 13/07 A2968 1250 66 1300 160/15G20 RMK AO2
14926KSTC STC20060330110011203/30/06 11:00:31  5-MIN KSTC 301700Z 16014G22KT 6SM HZ FEW027 SCT035 13/07 A2967 1260 66 1300 160/14G22 RMK AO2
14926KSTC STC20060330110511203/30/06 11:05:31  5-MIN KSTC 301705Z 16015G24KT 6SM HZ FEW027 BKN035 13/07 A2966 1260 66 1300 150/15G24 RMK AO2
14926KSTC STC20060330111011203/30/06 11:10:31  5-MIN KSTC 301710Z 16020G24KT 6SM HZ FEW027 BKN035 13/07 A2966 1270 66 1400 160/20G24 RMK AO2
14926KSTC STC20060330111513003/30/06 11:15:31  5-MIN KSTC 301715Z 16020G26KT 6SM HZ FEW027 SCT035 13/07 A2966 1270 66 1400 150/20G26 RMK AO2 PK WND 17026/1711
14926KSTC STC20060330112013003/30/06 11:20:31  5-MIN KSTC 301720Z 16018G25KT 6SM HZ FEW027 SCT035 13/07 A2966 1270 66 1400 150/18G25 RMK AO2 PK WND 17026/1711
14926KSTC STC20060330112512303/30/06 11:25:31  5-MIN KSTC 301725Z 17017G25KT 6SM HZ FEW027 13/07 A2966 1260 66 1400 160/17G25 RMK AO2 PK WND 17026/1711
14926KSTC STC20060330113012303/30/06 11:30:31  5-MIN KSTC 301730Z 17017G24KT 6SM HZ FEW036 14/07 A2966 1260 64 1500 170/17G24 RMK AO2 PK WND 17026/1711
14926KSTC STC20060330113511703/30/06 11:35:31  5-MIN KSTC 301735Z 16018KT 6SM HZ FEW023 14/07 A2966 1270 64 1500 160/18 RMK AO2 PK WND 17026/1711
14926KSTC STC20060330114013003/30/06 11:40:31  5-MIN KSTC 301740Z 16014G24KT 6SM HZ FEW023 SCT041 14/08 A2966 1270 66 1500 160/14G24 RMK AO2 PK WND 17026/1711
14926KSTC STC20060330114513403/30/06 11:45:31  5-MIN KSTC 301745Z 16018G24KT 7SM SCT023 SCT032 BKN042 13/08 A2967 1260 69 1400 160/18G24 RMK AO2 PK WND 17026/1711
14926KSTC STC20060330115013403/30/06 11:50:31  5-MIN KSTC 301750Z 17017G25KT 7SM BKN023 BKN034 BKN042 13/08 A2967 1260 69 1400 170/17G25 RMK AO2 PK WND 17026/1711
14926KSTC STC20060330115510903/30/06 11:55:31  5-MIN KSTC 301755Z 17016G26KT 7SM BKN023 BKN037 14/08 A2966 1270 66 1500 160/16G26 RMK AO2
14926KSTC STC20060330120010903/30/06 12:00:31  5-MIN KSTC 301800Z 17018G26KT 7SM BKN023 BKN037 14/08 A2966 1260 66 1500 170/18G26 RMK AO2
14926KSTC STC20060330120510203/30/06 12:05:31  5-MIN KSTC 301805Z 17017G22KT 7SM BKN023 13/08 A2966 1260 69 1400 170/17G22 RMK AO2
14926KSTC STC20060330121010203/30/06 12:10:31  5-MIN KSTC 301810Z 16018G24KT 7SM OVC023 13/08 A2966 1270 69 1400 160/18G24 RMK AO2
14926KSTC STC20060330121510503/30/06 12:15:31  5-MIN KSTC 301815Z 16016G24KT 6SM HZ OVC021 13/08 A2965 1270 69 1400 160/16G24 RMK AO2
14926KSTC STC20060330122009903/30/06 12:20:31  5-MIN KSTC 301820Z 16016KT 6SM HZ OVC021 13/08 A2965 1280 69 1400 160/16 RMK AO2
14926KSTC STC20060330122510503/30/06 12:25:31  5-MIN KSTC 301825Z 15017G22KT 6SM HZ OVC021 13/08 A2965 1280 69 1400 150/17G22 RMK AO2
14926KSTC STC20060330123010503/30/06 12:30:31  5-MIN KSTC 301830Z 15015G22KT 6SM HZ OVC021 13/08 A2965 1280 69 1400 150/15G22 RMK AO2
14926KSTC STC20060330123510503/30/06 12:35:31  5-MIN KSTC 301835Z 15015G22KT 6SM HZ OVC021 13/08 A2964 1280 71 1400 150/15G22 RMK AO2
14926KSTC STC20060330124010503/30/06 12:40:31  5-MIN KSTC 301840Z 14015G22KT 6SM HZ OVC021 13/08 A2963 1290 71 1400 140/15G22 RMK AO2
14926KSTC STC20060330124509903/30/06 12:45:31  5-MIN KSTC 301845Z 15019KT 6SM HZ OVC021 13/08 A2965 1280 71 1400 150/19 RMK AO2
14926KSTC STC20060330125012203/30/06 12:50:31  5-MIN KSTC 301850Z 15015G21KT 6SM HZ OVC019 13/08 A2964 1290 71 1400 140/15G21 RMK AO2 SLP048 T01280078
14926KSTC STC20060330125510503/30/06 12:55:31  5-MIN KSTC 301855Z 16017G21KT 6SM HZ OVC019 12/08 A2964 1290 74 1300 150/17G21 RMK AO2
14926KSTC STC20060330130009903/30/06 13:00:31  5-MIN KSTC 301900Z 15016KT 6SM HZ OVC019 13/08 A2963 1300 71 1400 150/16 RMK AO2
14926KSTC STC20060330130509903/30/06 13:05:31  5-MIN KSTC 301905Z 16017KT 6SM HZ OVC019 13/08 A2963 1290 71 1400 160/17 RMK AO2
14926KSTC STC20060330131009903/30/06 13:10:31  5-MIN KSTC 301910Z 15018KT 6SM HZ OVC019 13/08 A2963 1290 71 1400 150/18 RMK AO2
14926KSTC STC20060330131509903/30/06 13:15:31  5-MIN KSTC 301915Z 15017KT 6SM HZ OVC019 13/08 A2963 1300 71 1400 150/17 RMK AO2
14926KSTC STC20060330132009903/30/06 13:20:31  5-MIN KSTC 301920Z 15014KT 6SM HZ OVC019 13/08 A2962 1300 74 1400 150/14 RMK AO2
14926KSTC STC20060330132509903/30/06 13:25:31  5-MIN KSTC 301925Z 14016KT 6SM HZ OVC019 13/08 A2962 1310 71 1500 130/16 RMK AO2
14926KSTC STC20060330133009903/30/06 13:30:31  5-MIN KSTC 301930Z 14014KT 6SM HZ OVC019 13/08 A2961 1310 74 1400 140/14 RMK AO2
14926KSTC STC20060330133509903/30/06 13:35:31  5-MIN KSTC 301935Z 14015KT 5SM HZ OVC019 13/08 A2962 1310 74 1400 140/15 RMK AO2
14926KSTC STC20060330134009903/30/06 13:40:31  5-MIN KSTC 301940Z 14015KT 5SM HZ OVC019 12/08 A2962 1300 77 1300 130/15 RMK AO2
14926KSTC STC20060330134509903/30/06 13:45:31  5-MIN KSTC 301945Z 14015KT 5SM HZ OVC017 12/08 A2962 1310 77 1300 140/15 RMK AO2
14926KSTC STC20060330135011603/30/06 13:50:31  5-MIN KSTC 301950Z 13014KT 5SM HZ OVC017 12/08 A2961 1310 77 1300 130/14 RMK AO2 SLP039 T01220083
14926KSTC STC20060330135509903/30/06 13:55:31  5-MIN KSTC 301955Z 14012KT 5SM HZ OVC017 12/08 A2961 1310 77 1300 130/12 RMK AO2
14926KSTC STC20060330140009903/30/06 14:00:31  5-MIN KSTC 302000Z 14013KT 5SM HZ OVC017 12/08 A2962 1310 77 1300 140/13 RMK AO2
14926KSTC STC20060330140509903/30/06 14:05:31  5-MIN KSTC 302005Z 15014KT 5SM HZ OVC017 12/08 A2962 1310 77 1300 140/14 RMK AO2
14926KSTC STC20060330141009903/30/06 14:10:31  5-MIN KSTC 302010Z 16011KT 5SM HZ OVC017 13/08 A2961 1320 74 1400 150/11 RMK AO2
14926KSTC STC20060330141509903/30/06 14:15:31  5-MIN KSTC 302015Z 13010KT 5SM HZ OVC017 13/08 A2960 1320 74 1400 130/10 RMK AO2
14926KSTC STC20060330142009903/30/06 14:20:31  5-MIN KSTC 302020Z 15013KT 5SM HZ OVC017 13/08 A2960 1320 74 1400 140/13 RMK AO2
14926KSTC STC20060330142509903/30/06 14:25:31  5-MIN KSTC 302025Z 15012KT 5SM HZ OVC017 13/09 A2960 1320 74 1500 140/12 RMK AO2
14926KSTC STC20060330143009903/30/06 14:30:31  5-MIN KSTC 302030Z 14011KT 5SM HZ OVC017 13/09 A2960 1320 74 1500 140/11 RMK AO2
14926KSTC STC20060330143509903/30/06 14:35:31  5-MIN KSTC 302035Z 15011KT 5SM HZ OVC017 13/09 A2960 1320 74 1500 140/11 RMK AO2
14926KSTC STC20060330144009903/30/06 14:40:31  5-MIN KSTC 302040Z 14012KT 5SM HZ OVC017 13/09 A2959 1330 74 1500 140/12 RMK AO2
14926KSTC STC20060330144509903/30/06 14:45:31  5-MIN KSTC 302045Z 14010KT 5SM HZ BKN017 14/09 A2960 1320 71 1500 140/10 RMK AO2
14926KSTC STC20060330145012203/30/06 14:50:31  5-MIN KSTC 302050Z 16013KT 5SM HZ BKN017 14/09 A2961 1320 74 1500 160/13 RMK AO2 SLP036 T01390094 58013
14926KSTC STC20060330145509903/30/06 14:55:31  5-MIN KSTC 302055Z 15010KT 5SM HZ BKN017 14/09 A2960 1320 71 1500 150/10 RMK AO2
14926KSTC STC20060330150009903/30/06 15:00:31  5-MIN KSTC 302100Z 15012KT 6SM HZ BKN017 14/09 A2960 1320 71 1500 150/12 RMK AO2
14926KSTC STC20060330150509903/30/06 15:05:31  5-MIN KSTC 302105Z 17011KT 6SM HZ BKN017 14/09 A2961 1320 74 1500 170/11 RMK AO2
14926KSTC STC20060330151009903/30/06 15:10:31  5-MIN KSTC 302110Z 15010KT 6SM HZ SCT017 14/09 A2960 1320 74 1500 150/10 RMK AO2
14926KSTC STC20060330151509903/30/06 15:15:31  5-MIN KSTC 302115Z 14011KT 6SM HZ BKN017 14/09 A2960 1330 74 1500 140/11 RMK AO2
14926KSTC STC20060330152010603/30/06 15:20:31  5-MIN KSTC 302120Z 15012KT 6SM HZ BKN019 BKN038 14/09 A2959 1330 74 1500 150/12 RMK AO2
14926KSTC STC20060330152511303/30/06 15:25:31  5-MIN KSTC 302125Z 15011KT 6SM HZ SCT019 BKN027 BKN036 13/09 A2959 1330 77 1500 150/11 RMK AO2
14926KSTC STC20060330153010603/30/06 15:30:31  5-MIN KSTC 302130Z 14010KT 6SM HZ BKN022 BKN029 13/09 A2958 1340 77 1500 140/10 RMK AO2
14926KSTC STC20060330153510603/30/06 15:35:31  5-MIN KSTC 302135Z 14008KT 6SM HZ BKN022 BKN028 14/09 A2959 1340 74 1600 140/08 RMK AO2
14926KSTC STC20060330154009903/30/06 15:40:31  5-MIN KSTC 302140Z 15009KT 6SM HZ OVC022 13/09 A2958 1340 77 1500 150/09 RMK AO2
14926KSTC STC20060330154510603/30/06 15:45:31  5-MIN KSTC 302145Z 13010KT 6SM HZ OVC022 13/09 A2956 1360 77 1500 130/10 RMK AO2 PRESFR
14926KSTC STC20060330155013003/30/06 15:50:31  5-MIN KSTC 302150Z 12008KT 6SM HZ BKN020 OVC027 14/09 A2955 1380 74 1600 110/08 RMK AO2 PRESFR SLP016 T01390094
14926KSTC STC20060330155509903/30/06 15:55:31  5-MIN KSTC 302155Z 14007KT 6SM HZ OVC020 14/09 A2956 1360 74 1600 140/07 RMK AO2
14926KSTC STC20060330160009903/30/06 16:00:31  5-MIN KSTC 302200Z 15007KT 6SM HZ OVC020 14/09 A2956 1360 74 1600 150/07 RMK AO2
14926KSTC STC20060330160509903/30/06 16:05:31  5-MIN KSTC 302205Z 13005KT 6SM HZ OVC020 14/09 A2956 1360 74 1600 120/05 RMK AO2
14926KSTC STC20060330161009903/30/06 16:10:31  5-MIN KSTC 302210Z 13004KT 6SM HZ OVC020 14/09 A2956 1360 74 1600 130/04 RMK AO2
14926KSTC STC20060330161509903/30/06 16:15:31  5-MIN KSTC 302215Z 13006KT 6SM HZ OVC018 14/09 A2956 1360 74 1600 130/06 RMK AO2
14926KSTC STC20060330162009903/30/06 16:20:31  5-MIN KSTC 302220Z 12004KT 6SM HZ OVC018 14/09 A2955 1370 74 1600 120/04 RMK AO2
14926KSTC STC20060330162509903/30/06 16:25:31  5-MIN KSTC 302225Z 14004KT 6SM HZ OVC018 14/09 A2955 1370 74 1600 140/04 RMK AO2
14926KSTC STC20060330163009903/30/06 16:30:31  5-MIN KSTC 302230Z 14006KT 6SM HZ OVC018 14/09 A2955 1370 74 1600 130/06 RMK AO2
14926KSTC STC20060330163509903/30/06 16:35:31  5-MIN KSTC 302235Z 12006KT 6SM HZ OVC018 14/09 A2955 1370 74 1600 120/06 RMK AO2
14926KSTC STC20060330164009903/30/06 16:40:31  5-MIN KSTC 302240Z 13006KT 6SM HZ OVC018 14/09 A2954 1380 74 1600 130/06 RMK AO2
14926KSTC STC20060330164509903/30/06 16:45:31  5-MIN KSTC 302245Z 12005KT 6SM HZ OVC018 14/09 A2955 1370 74 1600 120/05 RMK AO2
14926KSTC STC20060330165011603/30/06 16:50:31  5-MIN KSTC 302250Z 12006KT 6SM HZ OVC018 14/09 A2955 1370 74 1600 120/06 RMK AO2 SLP017 T01390094
14926KSTC STC20060330165509903/30/06 16:55:31  5-MIN KSTC 302255Z 13008KT 6SM HZ OVC018 13/09 A2956 1360 77 1500 130/08 RMK AO2
14926KSTC STC20060330170010603/30/06 17:00:31  5-MIN KSTC 302300Z 12008KT 6SM HZ BKN018 OVC033 13/09 A2955 1370 77 1500 110/08 RMK AO2
14926KSTC STC20060330170511303/30/06 17:05:31  5-MIN KSTC 302305Z 12009KT 6SM HZ BKN018 BKN026 OVC031 13/09 A2956 1360 77 1500 120/09 RMK AO2
14926KSTC STC20060330171010603/30/06 17:10:31  5-MIN KSTC 302310Z 12008KT 6SM HZ BKN018 OVC026 13/09 A2955 1370 77 1500 110/08 RMK AO2
14926KSTC STC20060330171510603/30/06 17:15:31  5-MIN KSTC 302315Z 13008KT 6SM HZ BKN018 OVC027 13/09 A2957 1360 77 1500 120/08 RMK AO2
14926KSTC STC20060330172010603/30/06 17:20:31  5-MIN KSTC 302320Z 12008KT 6SM HZ BKN018 OVC027 13/09 A2957 1350 77 1500 120/08 RMK AO2
14926KSTC STC20060330172510603/30/06 17:25:31  5-MIN KSTC 302325Z 11008KT 6SM HZ BKN018 OVC027 13/09 A2957 1360 77 1500 110/08 RMK AO2
14926KSTC STC20060330173010603/30/06 17:30:31  5-MIN KSTC 302330Z 11005KT 6SM HZ BKN018 OVC023 13/09 A2957 1350 80 1400 110/05 RMK AO2
14926KSTC STC20060330173509903/30/06 17:35:31  5-MIN KSTC 302335Z 09006KT 5SM HZ OVC018 13/09 A2956 1360 80 1500 090/06 RMK AO2
14926KSTC STC20060330174009903/30/06 17:40:31  5-MIN KSTC 302340Z 11006KT 5SM HZ OVC016 13/09 A2957 1350 80 1400 100/06 RMK AO2
14926KSTC STC20060330174509903/30/06 17:45:31  5-MIN KSTC 302345Z 09007KT 5SM HZ OVC016 13/09 A2956 1360 80 1500 090/07 RMK AO2
14926KSTC STC20060330175013403/30/06 17:50:31  5-MIN KSTC 302350Z 10007KT 5SM HZ OVC016 13/09 A2956 1360 80 1500 100/07 RMK AO2 SLP022 T01280094 10139 20122 56020
14926KSTC STC20060330175509903/30/06 17:55:31  5-MIN KSTC 302355Z VRB06KT 5SM HZ OVC016 13/09 A2956 1360 80 1500 VRB/06 RMK AO2
14926KSTC STC20060330180009903/30/06 18:00:31  5-MIN KSTC 310000Z 08006KT 5SM HZ OVC016 13/09 A2957 1360 80 1400 080/06 RMK AO2
14926KSTC STC20060330180509903/30/06 18:05:31  5-MIN KSTC 310005Z 08008KT 6SM HZ OVC014 13/09 A2957 1360 80 1500 080/08 RMK AO2
14926KSTC STC20060330181009903/30/06 18:10:31  5-MIN KSTC 310010Z 09006KT 6SM HZ OVC014 12/09 A2957 1350 83 1400 090/06 RMK AO2
14926KSTC STC20060330181509903/30/06 18:15:31  5-MIN KSTC 310015Z 09006KT 6SM HZ OVC014 12/09 A2958 1350 83 1400 090/06 RMK AO2
14926KSTC STC20060330182011203/30/06 18:20:31  5-MIN KSTC 310020Z 09006KT 5SM -RA OVC014 12/09 A2957 1350 83 1400 080/06 RMK AO2 RAB18 P0000
14926KSTC STC20060330182511203/30/06 18:25:31  5-MIN KSTC 310025Z 08006KT 6SM -RA OVC014 12/09 A2957 1350 83 1400 080/06 RMK AO2 RAB18 P0000
14926KSTC STC20060330183011203/30/06 18:30:31  5-MIN KSTC 310030Z 08007KT 5SM -RA OVC014 12/09 A2957 1350 83 1400 080/07 RMK AO2 RAB18 P0000
14926KSTC STC20060330183511503/30/06 18:35:31  5-MIN KSTC 310035Z 09006KT 4SM -RA BR OVC014 12/09 A2957 1350 86 1300 080/06 RMK AO2 RAB18 P0001
14926KSTC STC20060330184011503/30/06 18:40:31  5-MIN KSTC 310040Z 09006KT 3SM -RA BR OVC014 12/09 A2957 1360 86 1300 080/06 RMK AO2 RAB18 P0002
14926KSTC STC20060330184511803/30/06 18:45:31  5-MIN KSTC 310045Z 08006KT 2 1/2SM RA BR OVC014 12/09 A2956 1360 86 1300 070/06 RMK AO2 RAB18 P0004
14926KSTC STC20060330185011803/30/06 18:50:31  5-MIN KSTC 310050Z 08007KT 2 1/2SM RA BR OVC014 11/09 A2956 1360 89 1300 080/07 RMK AO2 RAB18 P0006
14926KSTC STC20060330185511503/30/06 18:55:31  5-MIN KSTC 310055Z 08007KT 2SM RA BR BKN014 OVC023 11/09 A2956 1360 89 1300 080/07 RMK AO2 P0001
14926KSTC STC20060330190011903/30/06 19:00:31  5-MIN KSTC 310100Z 08008KT 1 3/4SM RA BR BKN014 OVC023 11/09 A2955 1370 89 1300 070/08 RMK AO2 P0004
14926KSTC STC20060330190511903/30/06 19:05:31  5-MIN KSTC 310105Z 08008KT 1 3/4SM RA BR BKN017 OVC025 11/10 A2955 1370 93 1300 080/08 RMK AO2 P0008
14926KSTC STC20060330191011603/30/06 19:10:31  5-MIN KSTC 310110Z 07010KT 2SM -RA BR BKN017 OVC023 11/09 A2955 1370 89 1300 070/10 RMK AO2 P0009
14926KSTC STC20060330191510903/30/06 19:15:31  5-MIN KSTC 310115Z 07009KT 2SM -RA BR OVC020 11/09 A2954 1380 93 1200 070/09 RMK AO2 P0010
14926KSTC STC20060330192012203/30/06 19:20:31  5-MIN KSTC 310120Z 07010KT 2SM RA BR BKN019 OVC025 11/09 A2953 1390 93 1200 060/10 RMK AO2 PRESFR P0012
14926KSTC STC20060330192512203/30/06 19:25:31  5-MIN KSTC 310125Z 07009KT 2SM RA BR SCT015 OVC023 11/09 A2953 1390 93 1200 070/09 RMK AO2 PRESFR P0014
14926KSTC STC20060330193011503/30/06 19:30:31  5-MIN KSTC 310130Z 07009KT 2SM RA BR SCT015 OVC023 11/09 A2952 1400 93 1200 070/09 RMK AO2 P0017
14926KSTC STC20060330193511603/30/06 19:35:31  5-MIN KSTC 310135Z 07011KT 2SM -RA BR SCT015 OVC023 11/09 A2952 1400 93 1200 070/11 RMK AO2 P0018
14926KSTC STC20060330194012003/30/06 19:40:31  5-MIN KSTC 310140Z 07010KT 2 1/2SM -RA BR FEW015 OVC023 11/09 A2952 1400 93 1200 070/10 RMK AO2 P0018
14926KSTC STC20060330194512003/30/06 19:45:31  5-MIN KSTC 310145Z 07011KT 2 1/2SM -RA BR FEW006 OVC019 11/09 A2951 1410 93 1200 070/11 RMK AO2 P0019
14926KSTC STC20060330195014403/30/06 19:50:31  5-MIN KSTC 310150Z 07009KT 2 1/2SM -RA BR FEW006 BKN017 OVC023 11/09 A2951 1410 93 1200 070/09 RMK AO2 SLP005 P0019 T01060094
14926KSTC STC20060330195512703/30/06 19:55:31  5-MIN KSTC 310155Z 07009KT 2 1/2SM -RA BR FEW006 BKN017 OVC023 11/09 A2951 1410 93 1300 070/09 RMK AO2 P0000
14926KSTC STC20060330200011603/30/06 20:00:31  5-MIN KSTC 310200Z 07010KT 2SM -RA BR FEW006 OVC019 11/09 A2950 1420 93 1300 070/10 RMK AO2 P0000
14926KSTC STC20060330200511603/30/06 20:05:31  5-MIN KSTC 310205Z 08010KT 2SM -RA BR FEW006 OVC017 11/09 A2950 1420 93 1300 070/10 RMK AO2 P0001
14926KSTC STC20060330201012303/30/06 20:10:31  5-MIN KSTC 310210Z 07010KT 2SM -RA BR FEW006 SCT010 OVC017 11/09 A2949 1420 93 1300 070/10 RMK AO2 P0001
14926KSTC STC20060330201512903/30/06 20:15:31  5-MIN KSTC 310215Z 08013G18KT 2SM -RA BR SCT008 BKN017 OVC027 10/09 A2949 1430 96 1200 070/13G18 RMK AO2 P0001
14926KSTC STC20060330202014103/30/06 20:20:31  5-MIN KSTC 310220Z 08012G18KT 2SM -RA BR BKN006 BKN017 OVC027 10/09 A2949 1430 96 1200 080/12G18 RMK AO2 CIG 004V011 P0002
14926KSTC STC20060330202513203/30/06 20:25:31  5-MIN KSTC 310225Z 08012KT 2 1/2SM -RA BR BKN006 OVC017 10/09 A2949 1430 96 1200 070/12 RMK AO2 CIG 004V011 P0002
14926KSTC STC20060330203012803/30/06 20:30:31  5-MIN KSTC 310230Z 08013G17KT 2 1/2SM BR BKN006 OVC013 10/09 A2949 1430 96 1200 080/13G17 RMK AO2 RAE30 P0002
14926KSTC STC20060330203512803/30/06 20:35:31  5-MIN KSTC 310235Z 07013G19KT 2 1/2SM BR BKN006 OVC011 10/09 A2948 1440 93 1200 070/13G19 RMK AO2 RAE30 P0002
14926KSTC STC20060330204011703/30/06 20:40:31  5-MIN KSTC 310240Z 07013G19KT 2SM BR OVC006 10/09 A2948 1440 93 1200 070/13G19 RMK AO2 RAE30 P0002
14926KSTC STC20060330204511103/30/06 20:45:31  5-MIN KSTC 310245Z 08012KT 2SM BR OVC006 10/09 A2948 1440 93 1200 070/12 RMK AO2 RAE30 P0002
14926KSTC STC20060330205015803/30/06 20:50:31  5-MIN KSTC 310250Z 09011G20KT 2SM BR OVC006 10/09 A2948 1440 93 1200 080/11G20 RMK AO2 RAE30 CIG 004V009 SLP993 P0002 60028 T01000089 55012
14926KSTC STC20060330205510503/30/06 20:55:31  5-MIN KSTC 310255Z 09012G20KT 2SM BR OVC006 11/09 A2947 1440 93 1300 080/12G20 RMK AO2
14926KSTC STC20060330210011503/30/06 21:00:31  5-MIN KSTC 310300Z 09011KT 2 1/2SM BR OVC006 11/09 A2947 1440 93 1300 090/11 RMK AO2 CIG 004V009
14926KSTC STC20060330210513703/30/06 21:05:31  5-MIN KSTC 310305Z 08011G18KT 2 1/2SM -RA BR OVC006 11/09 A2947 1450 93 1300 080/11G18 RMK AO2 RAB05 CIG 004V009 P0000
14926KSTC STC20060330211013703/30/06 21:10:31  5-MIN KSTC 310310Z 09012G19KT 2 1/2SM -RA BR OVC006 11/09 A2947 1450 93 1300 080/12G19 RMK AO2 RAB05 CIG 004V009 P0000
14926KSTC STC20060330211513703/30/06 21:15:31  5-MIN KSTC 310315Z 09011G19KT 2 1/2SM -RA BR OVC006 11/09 A2947 1450 93 1300 090/11G19 RMK AO2 RAB05 CIG 004V009 P0000
14926KSTC STC20060330212011903/30/06 21:20:31  5-MIN KSTC 310320Z 09010KT 2 1/2SM -RA BR OVC006 11/09 A2946 1450 93 1300 090/10 RMK AO2 RAB05 P0000
14926KSTC STC20060330212511903/30/06 21:25:31  5-MIN KSTC 310325Z 08010KT 2 1/2SM -RA BR OVC006 11/09 A2945 1460 93 1300 080/10 RMK AO2 RAB05 P0000
14926KSTC STC20060330213011903/30/06 21:30:31  5-MIN KSTC 310330Z 09010KT 2 1/2SM -RA BR OVC006 11/09 A2945 1470 93 1300 080/10 RMK AO2 RAB05 P0000
14926KSTC STC20060330213512603/30/06 21:35:31  5-MIN KSTC 310335Z 09011KT 2 1/2SM -RA BR OVC006 11/09 A2944 1470 93 1300 080/11 RMK AO2 RAB05 PRESFR P0001
14926KSTC STC20060330214012503/30/06 21:40:31  5-MIN KSTC 310340Z 08014KT 2 1/2SM BR OVC006 11/09 A2943 1480 93 1300 080/14 RMK AO2 RAB05E39 PRESFR P0001
14926KSTC STC20060330214511803/30/06 21:45:31  5-MIN KSTC 310345Z 08012KT 2 1/2SM BR OVC006 11/09 A2943 1480 93 1300 080/12 RMK AO2 RAB05E39 P0001
14926KSTC STC20060330215013703/30/06 21:50:31  5-MIN KSTC 310350Z 08011G18KT 2SM BR OVC006 11/09 A2943 1490 93 1300 080/11G18 RMK AO2 RAB05E39 SLP976 P0001 T01060094
14926KSTC STC20060330215511203/30/06 21:55:31  5-MIN KSTC 310355Z 08013G18KT 2SM BR OVC006 11/09 A2942 1490 93 1400 080/13G18 RMK AO2 PRESFR
14926KSTC STC20060330223514303/30/06 22:35:31  5-MIN KSTC 310435Z 09012G18KT 2 1/2SM BR OVC006 11/10 A2936 1550 93 1500 080/12G18 RMK AO2 RAB22E32 CIG 004V009 PRESFR P0000
14926KSTC STC20060330224013203/30/06 22:40:31  5-MIN KSTC 310440Z 09015G20KT 3SM BR OVC006 11/10 A2936 1550 93 1500 080/15G20 RMK AO2 RAB22E32 CIG 004V008 P0000
14926KSTC STC20060330224513203/30/06 22:45:31  5-MIN KSTC 310445Z 09013G20KT 3SM BR OVC006 11/10 A2935 1550 93 1500 090/13G20 RMK AO2 RAB22E32 CIG 004V008 P0000
14926KSTC STC20060330225013703/30/06 22:50:31  5-MIN KSTC 310450Z 09016G20KT 3SM BR OVC006 11/10 A2935 1560 93 1500 080/16G20 RMK AO2 RAB22E32 SLP947 P0000 T01110100
14926KSTC STC20060330225510503/30/06 22:55:31  5-MIN KSTC 310455Z 09012G20KT 3SM BR OVC006 11/10 A2935 1560 93 1500 090/12G20 RMK AO2
14926KSTC STC20060330230011003/30/06 23:00:31  5-MIN KSTC 310500Z AUTO 09010G18KT 3SM BR OVC006 11/10 A2935 1550 93 1500 090/10G18 RMK AO2
14926KSTC STC20060330230511003/30/06 23:05:31  5-MIN KSTC 310505Z AUTO 09012G18KT 3SM BR OVC006 11/10 A2935 1560 93 1500 090/12G18 RMK AO2
14926KSTC STC20060330231011003/30/06 23:10:31  5-MIN KSTC 310510Z AUTO 10011G18KT 4SM BR OVC006 11/10 A2936 1550 93 1500 100/11G18 RMK AO2
14926KSTC STC20060330231511003/30/06 23:15:31  5-MIN KSTC 310515Z AUTO 11010G16KT 4SM BR OVC006 12/10 A2936 1550 89 1600 100/10G16 RMK AO2
14926KSTC STC20060330232010403/30/06 23:20:31  5-MIN KSTC 310520Z AUTO 10008KT 4SM BR OVC006 11/10 A2936 1550 93 1500 100/08 RMK AO2
14926KSTC STC20060330232510403/30/06 23:25:31  5-MIN KSTC 310525Z AUTO 12009KT 4SM BR OVC006 11/10 A2937 1540 93 1500 110/09 RMK AO2
14926KSTC STC20060330233010403/30/06 23:30:31  5-MIN KSTC 310530Z AUTO 14008KT 4SM BR OVC006 11/10 A2937 1540 93 1500 130/08 RMK AO2
14926KSTC STC20060330233510403/30/06 23:35:31  5-MIN KSTC 310535Z AUTO 12007KT 4SM BR OVC006 11/10 A2936 1550 93 1500 110/07 RMK AO2
14926KSTC STC20060330234011603/30/06 23:40:31  5-MIN KSTC 310540Z AUTO 12008KT 4SM BR OVC008 12/10 A2936 1550 89 1600 110/08 RMK AO2 CIG 006V012
14926KSTC STC20060330234512303/30/06 23:45:31  5-MIN KSTC 310545Z AUTO 11009KT 4SM BR BKN008 OVC014 12/10 A2936 1550 89 1600 110/09 RMK AO2 CIG 006V012
14926KSTC STC20060330235017403/30/06 23:50:31  5-MIN KSTC 310550Z AUTO 11010KT 4SM BR BKN008 OVC016 12/10 A2936 1550 89 1600 110/10 RMK AO2 CIG 006V011 SLP950 60029 T01170100 10128 20100 401390072 56028
14926KSTC STC20060330235512903/30/06 23:55:31  5-MIN KSTC 310555Z AUTO 12010G16KT 4SM BR BKN008 OVC016 12/10 A2936 1550 89 1600 120/10G16 RMK AO2 CIG 006V011
14926KSTC STC20060331000012903/31/06 00:00:32  5-MIN KSTC 310600Z AUTO 11009G16KT 5SM BR BKN008 OVC014 12/10 A2936 1550 89 1600 110/09G16 RMK AO2 CIG 007V011
14926KSTC STC20060331000511103/31/06 00:05:31  5-MIN KSTC 310605Z AUTO 12009KT 4SM BR BKN012 OVC018 12/10 A2935 1560 89 1600 110/09 RMK AO2
14926KSTC STC20060331001011803/31/06 00:10:31  5-MIN KSTC 310610Z AUTO 11008KT 4SM BR SCT010 BKN014 OVC019 12/10 A2935 1560 89 1600 100/08 RMK AO2
14926KSTC STC20060331001511803/31/06 00:15:31  5-MIN KSTC 310615Z AUTO 12009KT 4SM BR SCT010 BKN016 OVC022 12/10 A2935 1560 89 1600 120/09 RMK AO2
14926KSTC STC20060331002011103/31/06 00:20:31  5-MIN KSTC 310620Z AUTO 12009KT 4SM BR SCT010 OVC016 12/10 A2934 1560 89 1600 120/09 RMK AO2
14926KSTC STC20060331002511103/31/06 00:25:31  5-MIN KSTC 310625Z AUTO 12007KT 4SM BR BKN012 OVC016 12/10 A2934 1560 89 1600 120/07 RMK AO2
14926KSTC STC20060331003011803/31/06 00:30:31  5-MIN KSTC 310630Z AUTO 12008KT 4SM BR FEW009 BKN012 OVC024 12/10 A2934 1570 89 1600 120/08 RMK AO2
14926KSTC STC20060331003511803/31/06 00:35:31  5-MIN KSTC 310635Z AUTO 10008KT 4SM BR SCT011 BKN019 OVC026 11/10 A2934 1570 93 1500 100/08 RMK AO2
14926KSTC STC20060331004011803/31/06 00:40:31  5-MIN KSTC 310640Z AUTO 12008KT 4SM BR FEW011 BKN025 OVC035 12/10 A2934 1570 89 1600 120/08 RMK AO2
14926KSTC STC20060331004511803/31/06 00:45:31  5-MIN KSTC 310645Z AUTO 12009KT 4SM BR FEW011 BKN025 OVC031 12/10 A2934 1570 89 1600 120/09 RMK AO2
14926KSTC STC20060331005013503/31/06 00:50:31  5-MIN KSTC 310650Z AUTO 12009KT 4SM BR FEW011 BKN025 OVC031 12/10 A2934 1570 89 1600 110/09 RMK AO2 SLP944 T01170100
14926KSTC STC20060331005511103/31/06 00:55:31  5-MIN KSTC 310655Z AUTO 12009KT 4SM BR BKN023 OVC031 11/10 A2934 1570 93 1500 120/09 RMK AO2
14926KSTC STC20060331010011803/31/06 01:00:31  5-MIN KSTC 310700Z AUTO 13011KT 3SM BR FEW020 BKN025 OVC033 12/10 A2934 1570 89 1600 120/11 RMK AO2
14926KSTC STC20060331010513403/31/06 01:05:31  5-MIN KSTC 310705Z AUTO 13010KT 2SM -RA BR FEW012 BKN022 OVC031 11/10 A2934 1570 93 1500 130/10 RMK AO2 RAB02 P0000
14926KSTC STC20060331011014403/31/06 01:10:31  5-MIN KSTC 310710Z AUTO 13013G16KT 1 3/4SM -RA BR FEW008 BKN015 OVC023 11/10 A2934 1570 93 1500 130/13G16 RMK AO2 RAB02 P0000
14926KSTC STC20060331011513703/31/06 01:15:31  5-MIN KSTC 310715Z AUTO 14014KT 2 1/2SM BR SCT008 BKN015 OVC023 11/09 A2933 1570 89 1500 140/14 RMK AO2 RAB02E14 P0000
14926KSTC STC20060331012014903/31/06 01:20:31  5-MIN KSTC 310720Z AUTO 14014KT 2 1/2SM BR BKN010 BKN015 OVC023 11/09 A2933 1580 93 1500 140/14 RMK AO2 RAB02E14 CIG 006V010 P0000
14926KSTC STC20060331012514203/31/06 01:25:31  5-MIN KSTC 310725Z AUTO 14014KT 2 1/2SM BR BKN010 OVC013 11/09 A2933 1580 93 1500 140/14 RMK AO2 RAB02E14 CIG 006V010 P0000
14926KSTC STC20060331013014203/31/06 01:30:31  5-MIN KSTC 310730Z AUTO 14013KT 2 1/2SM BR BKN010 OVC016 11/09 A2933 1580 93 1500 140/13 RMK AO2 RAB02E14 CIG 006V012 P0000
14926KSTC STC20060331013512303/31/06 01:35:31  5-MIN KSTC 310735Z AUTO 15013KT 2 1/2SM BR OVC010 11/09 A2933 1580 93 1500 150/13 RMK AO2 RAB02E14 P0000
14926KSTC STC20060331014012603/31/06 01:40:31  5-MIN KSTC 310740Z AUTO 14011KT 3SM BR SCT008 OVC012 11/09 A2932 1580 93 1500 130/11 RMK AO2 RAB02E14 P0000
14926KSTC STC20060331014513103/31/06 01:45:31  5-MIN KSTC 310745Z AUTO 14011KT 4SM BR OVC010 11/09 A2932 1580 93 1500 130/11 RMK AO2 RAB02E14 CIG 005V015 P0000
14926KSTC STC20060331015014303/31/06 01:50:31  5-MIN KSTC 310750Z AUTO 13010KT 6SM BR SCT010 OVC013 10/09 A2932 1580 96 1400 130/10 RMK AO2 RAB02E14 SLP940 P0000 T01000094
14926KSTC STC20060331015510803/31/06 01:55:31  5-MIN KSTC 310755Z AUTO 13011KT 8SM SCT010 OVC013 11/09 A2932 1590 89 1500 130/11 RMK AO2
14926KSTC STC20060331020010103/31/06 02:00:31  5-MIN KSTC 310800Z AUTO 13008KT 9SM OVC012 10/09 A2931 1590 93 1400 120/08 RMK AO2
14926KSTC STC20060331020510203/31/06 02:05:31  5-MIN KSTC 310805Z AUTO 12007KT 10SM OVC012 10/09 A2931 1600 93 1400 110/07 RMK AO2
14926KSTC STC20060331021010103/31/06 02:10:31  5-MIN KSTC 310810Z AUTO 12007KT 9SM OVC012 10/09 A2930 1600 93 1400 120/07 RMK AO2
14926KSTC STC20060331021510103/31/06 02:15:31  5-MIN KSTC 310815Z AUTO 12008KT 8SM OVC012 10/09 A2930 1600 93 1400 120/08 RMK AO2
14926KSTC STC20060331022010103/31/06 02:20:31  5-MIN KSTC 310820Z AUTO 12008KT 9SM OVC012 10/09 A2931 1600 93 1400 120/08 RMK AO2
14926KSTC STC20060331022510203/31/06 02:25:31  5-MIN KSTC 310825Z AUTO 13007KT 10SM OVC012 10/09 A2931 1600 93 1400 120/07 RMK AO2
14926KSTC STC20060331023010203/31/06 02:30:31  5-MIN KSTC 310830Z AUTO 12010KT 10SM OVC010 10/09 A2931 1600 93 1400 120/10 RMK AO2
14926KSTC STC20060331023510203/31/06 02:35:31  5-MIN KSTC 310835Z AUTO 13011KT 10SM OVC010 10/08 A2931 1600 89 1400 130/11 RMK AO2
14926KSTC STC20060331024010203/31/06 02:40:31  5-MIN KSTC 310840Z AUTO 13010KT 10SM OVC010 10/08 A2930 1600 89 1400 120/10 RMK AO2
14926KSTC STC20060331024510203/31/06 02:45:31  5-MIN KSTC 310845Z AUTO 12009KT 10SM OVC010 10/08 A2930 1610 89 1400 120/09 RMK AO2
14926KSTC STC20060331025013103/31/06 02:50:31  5-MIN KSTC 310850Z AUTO 12007KT 10SM OVC010 10/08 A2930 1610 89 1400 110/07 RMK AO2 SLP930 60000 T01000083 55038
14926KSTC STC20060331025510203/31/06 02:55:31  5-MIN KSTC 310855Z AUTO 12008KT 10SM OVC010 10/08 A2930 1610 89 1400 110/08 RMK AO2
14926KSTC STC20060331030010203/31/06 03:00:31  5-MIN KSTC 310900Z AUTO 11007KT 10SM OVC012 10/08 A2929 1610 89 1400 100/07 RMK AO2
14926KSTC STC20060331030510903/31/06 03:05:31  5-MIN KSTC 310905Z AUTO 11005KT 10SM BKN012 OVC090 10/08 A2929 1610 89 1400 100/05 RMK AO2
14926KSTC STC20060331031010903/31/06 03:10:31  5-MIN KSTC 310910Z AUTO 11007KT 10SM BKN012 OVC090 10/08 A2929 1610 89 1400 110/07 RMK AO2
14926KSTC STC20060331031510903/31/06 03:15:31  5-MIN KSTC 310915Z AUTO 10006KT 10SM BKN012 OVC090 10/08 A2929 1610 89 1400 100/06 RMK AO2
14926KSTC STC20060331032010903/31/06 03:20:31  5-MIN KSTC 310920Z AUTO 11007KT 10SM BKN012 OVC090 10/08 A2929 1610 89 1400 100/07 RMK AO2
14926KSTC STC20060331032510903/31/06 03:25:31  5-MIN KSTC 310925Z AUTO 11006KT 10SM BKN012 OVC095 10/08 A2929 1620 89 1400 110/06 RMK AO2
14926KSTC STC20060331033010203/31/06 03:30:31  5-MIN KSTC 310930Z AUTO 11007KT 10SM OVC012 10/08 A2929 1620 89 1400 110/07 RMK AO2
14926KSTC STC20060331033510203/31/06 03:35:31  5-MIN KSTC 310935Z AUTO 11007KT 10SM OVC012 10/08 A2929 1620 89 1400 110/07 RMK AO2
14926KSTC STC20060331034010203/31/06 03:40:31  5-MIN KSTC 310940Z AUTO 11007KT 10SM OVC012 10/08 A2929 1620 89 1400 110/07 RMK AO2
14926KSTC STC20060331034510203/31/06 03:45:31  5-MIN KSTC 310945Z AUTO 12007KT 10SM OVC012 10/08 A2929 1620 89 1400 110/07 RMK AO2
14926KSTC STC20060331035011903/31/06 03:50:31  5-MIN KSTC 310950Z AUTO 12009KT 10SM OVC010 10/08 A2929 1620 89 1400 120/09 RMK AO2 SLP926 T01000083
14926KSTC STC20060331035510203/31/06 03:55:31  5-MIN KSTC 310955Z AUTO 11007KT 10SM OVC010 10/08 A2929 1620 89 1400 110/07 RMK AO2
14926KSTC STC20060331040010203/31/06 04:00:31  5-MIN KSTC 311000Z AUTO 13009KT 10SM OVC010 10/08 A2929 1620 86 1400 130/09 RMK AO2
14926KSTC STC20060331040510803/31/06 04:05:31  5-MIN KSTC 311005Z AUTO 14013G16KT 10SM OVC010 09/08 A2929 1620 89 1400 140/13G16 RMK AO2
14926KSTC STC20060331041010803/31/06 04:10:31  5-MIN KSTC 311010Z AUTO 14013G16KT 10SM OVC010 09/08 A2929 1610 89 1400 140/13G16 RMK AO2
14926KSTC STC20060331041510203/31/06 04:15:31  5-MIN KSTC 311015Z AUTO 14012KT 10SM OVC010 09/08 A2929 1610 89 1400 130/12 RMK AO2
14926KSTC STC20060331042010203/31/06 04:20:31  5-MIN KSTC 311020Z AUTO 14011KT 10SM OVC010 09/08 A2929 1610 89 1400 140/11 RMK AO2
14926KSTC STC20060331042510203/31/06 04:25:31  5-MIN KSTC 311025Z AUTO 15008KT 10SM OVC010 09/08 A2929 1620 89 1400 140/08 RMK AO2
14926KSTC STC20060331043010203/31/06 04:30:31  5-MIN KSTC 311030Z AUTO 14010KT 10SM OVC010 09/08 A2929 1610 89 1400 140/10 RMK AO2
14926KSTC STC20060331043510203/31/06 04:35:31  5-MIN KSTC 311035Z AUTO 15011KT 10SM OVC008 09/08 A2929 1620 89 1400 150/11 RMK AO2
14926KSTC STC20060331044010203/31/06 04:40:31  5-MIN KSTC 311040Z AUTO 15009KT 10SM OVC008 09/08 A2929 1620 89 1400 140/09 RMK AO2
14926KSTC STC20060331044510103/31/06 04:45:31  5-MIN KSTC 311045Z AUTO 14009KT 9SM OVC008 09/08 A2928 1620 93 1300 140/09 RMK AO2
14926KSTC STC20060331045011803/31/06 04:50:31  5-MIN KSTC 311050Z AUTO 14007KT 8SM OVC008 09/08 A2928 1620 93 1300 140/07 RMK AO2 SLP926 T00890078
14926KSTC STC20060331045510403/31/06 04:55:31  5-MIN KSTC 311055Z AUTO 14008KT 6SM BR OVC008 09/08 A2928 1620 93 1300 140/08 RMK AO2
14926KSTC STC20060331050011603/31/06 05:00:31  5-MIN KSTC 311100Z AUTO 13007KT 6SM BR OVC008 09/08 A2928 1620 93 1300 130/07 RMK AO2 CIG 006V010
14926KSTC STC20060331050511303/31/06 05:05:31  5-MIN KSTC 311105Z AUTO 13008KT 7SM OVC008 09/08 A2928 1620 93 1300 130/08 RMK AO2 CIG 006V010
14926KSTC STC20060331051010103/31/06 05:10:31  5-MIN KSTC 311110Z AUTO 12006KT 8SM OVC006 09/08 A2928 1620 89 1400 120/06 RMK AO2
14926KSTC STC20060331051511303/31/06 05:15:31  5-MIN KSTC 311115Z AUTO 13005KT 7SM OVC006 09/08 A2928 1620 93 1300 120/05 RMK AO2 CIG 006V010
14926KSTC STC20060331052011303/31/06 05:20:31  5-MIN KSTC 311120Z AUTO 13006KT 7SM OVC006 09/08 A2928 1620 93 1300 130/06 RMK AO2 CIG 006V010
14926KSTC STC20060331052512003/31/06 05:25:31  5-MIN KSTC 311125Z AUTO 13005KT 8SM BKN008 OVC014 09/08 A2929 1620 93 1300 130/05 RMK AO2 CIG 006V010
14926KSTC STC20060331053012003/31/06 05:30:31  5-MIN KSTC 311130Z AUTO 12005KT 8SM BKN008 OVC014 09/08 A2929 1620 89 1400 120/05 RMK AO2 CIG 006V010
14926KSTC STC20060331053510803/31/06 05:35:31  5-MIN KSTC 311135Z AUTO 11004KT 8SM SCT008 OVC014 09/08 A2929 1620 89 1400 110/04 RMK AO2
14926KSTC STC20060331054010803/31/06 05:40:31  5-MIN KSTC 311140Z AUTO 11003KT 8SM FEW008 OVC014 09/08 A2929 1620 89 1400 110/03 RMK AO2
14926KSTC STC20060331054510803/31/06 05:45:31  5-MIN KSTC 311145Z AUTO 00000KT 7SM FEW008 OVC014 09/08 A2928 1620 93 1300 000/00 RMK AO2
14926KSTC STC20060331055014803/31/06 05:50:31  5-MIN KSTC 311150Z AUTO 00000KT 7SM OVC014 09/08 A2928 1620 93 1300 000/00 RMK AO2 SLP926 60000 70029 T00890078 10117 20089 58021
14926KSTC STC20060331055510103/31/06 05:55:31  5-MIN KSTC 311155Z AUTO 00000KT 7SM OVC014 09/08 A2928 1620 93 1300 000/00 RMK AO2
14926KSTC STC20060331060010403/31/06 06:00:31  5-MIN KSTC 311200Z AUTO 00000KT 6SM BR OVC014 09/08 A2928 1620 93 1300 000/00 RMK AO2
14926KSTC STC20060331060511103/31/06 06:05:31  5-MIN KSTC 311205Z AUTO 07003KT 5SM BR FEW006 OVC014 09/08 A2929 1620 93 1300 070/03 RMK AO2
14926KSTC STC20060331061011103/31/06 06:10:31  5-MIN KSTC 311210Z AUTO 07003KT 5SM BR SCT006 OVC014 09/08 A2929 1620 93 1300 070/03 RMK AO2
14926KSTC STC20060331061511103/31/06 06:15:31  5-MIN KSTC 311215Z AUTO 07003KT 4SM BR BKN006 OVC014 09/08 A2929 1620 93 1300 070/03 RMK AO2
14926KSTC STC20060331062011103/31/06 06:20:31  5-MIN KSTC 311220Z AUTO 06004KT 4SM BR BKN006 OVC014 09/08 A2929 1610 93 1300 060/04 RMK AO2
14926KSTC STC20060331062511103/31/06 06:25:31  5-MIN KSTC 311225Z AUTO 05004KT 4SM BR BKN006 OVC014 09/08 A2930 1610 93 1300 050/04 RMK AO2
14926KSTC STC20060331063011603/31/06 06:30:31  5-MIN KSTC 311230Z AUTO 05003KT 4SM BR OVC006 09/08 A2930 1610 93 1300 050/03 RMK AO2 CIG 005V009
14926KSTC STC20060331063509903/31/06 06:35:31  5-MIN KSTC 311235Z 05005KT 3SM BR OVC006 09/08 A2930 1610 93 1300 040/05 RMK AO2
14926KSTC STC20060331064010303/31/06 06:40:31  5-MIN KSTC 311240Z 04004KT 2 1/2SM BR OVC006 09/08 A2930 1600 93 1300 040/04 RMK AO2
14926KSTC STC20060331064510303/31/06 06:45:31  5-MIN KSTC 311245Z 04004KT 2 1/2SM BR OVC006 09/08 A2930 1600 93 1300 030/04 RMK AO2
14926KSTC STC20060331065013203/31/06 06:50:31  5-MIN KSTC 311250Z 03004KT 2 1/2SM BR OVC006 09/08 A2930 1600 93 1300 030/04 RMK AO2 CIG 005V009 SLP934 T00890078
14926KSTC STC20060331065511803/31/06 06:55:31  5-MIN KSTC 311255Z 04004KT 2SM BR BKN006 OVC012 09/08 A2930 1600 93 1300 040/04 RMK AO2 CIG 005V009
14926KSTC STC20060331070012203/31/06 07:00:31  5-MIN KSTC 311300Z 04004KT 2 1/2SM BR BKN006 OVC012 09/08 A2931 1600 93 1300 040/04 RMK AO2 CIG 005V010
14926KSTC STC20060331070511603/31/06 07:05:31  5-MIN KSTC 311305Z 03003KT 2SM BR SCT006 OVC012 09/08 A2931 1600 93 1300 020/03 RMK AO2 SFC VIS 3
14926KSTC STC20060331071011603/31/06 07:10:31  5-MIN KSTC 311310Z 00000KT 2SM BR SCT006 OVC012 09/08 A2931 1600 96 1300 000/00 RMK AO2 SFC VIS 4
14926KSTC STC20060331071510903/31/06 07:15:31  5-MIN KSTC 311315Z 03003KT 2SM BR OVC012 09/08 A2931 1590 96 1300 030/03 RMK AO2 SFC VIS 5
14926KSTC STC20060331072010903/31/06 07:20:31  5-MIN KSTC 311320Z 01003KT 3SM BR OVC012 09/08 A2931 1590 93 1300 010/03 RMK AO2 SFC VIS 6
14926KSTC STC20060331072509903/31/06 07:25:31  5-MIN KSTC 311325Z 00000KT 6SM BR OVC014 09/08 A2932 1590 93 1300 000/00 RMK AO2
14926KSTC STC20060331073009603/31/06 07:30:31  5-MIN KSTC 311330Z 02003KT 7SM OVC014 09/08 A2932 1590 93 1300 020/03 RMK AO2
14926KSTC STC20060331073509603/31/06 07:35:31  5-MIN KSTC 311335Z 01003KT 7SM OVC014 09/08 A2932 1590 93 1300 010/03 RMK AO2
14926KSTC STC20060331074009903/31/06 07:40:31  5-MIN KSTC 311340Z 01003KT 6SM BR OVC014 09/08 A2932 1580 93 1300 010/03 RMK AO2
14926KSTC STC20060331074509903/31/06 07:45:31  5-MIN KSTC 311345Z 01004KT 6SM BR OVC014 09/08 A2932 1580 93 1300 010/04 RMK AO2
14926KSTC STC20060331075011303/31/06 07:50:31  5-MIN KSTC 311350Z 35003KT 7SM OVC014 09/08 A2933 1580 93 1300 350/03 RMK AO2 SLP942 T00940083
14926KSTC STC20060331075509603/31/06 07:55:31  5-MIN KSTC 311355Z 35004KT 7SM OVC014 09/08 A2933 1580 93 1300 350/04 RMK AO2
14926KSTC STC20060331080009903/31/06 08:00:31  5-MIN KSTC 311400Z 35004KT 5SM BR OVC012 09/08 A2933 1580 93 1300 350/04 RMK AO2
14926KSTC STC20060331080509903/31/06 08:05:31  5-MIN KSTC 311405Z 35004KT 4SM BR OVC012 09/08 A2933 1580 93 1300 350/04 RMK AO2
14926KSTC STC20060331081010303/31/06 08:10:31  5-MIN KSTC 311410Z 35005KT 2 1/2SM BR OVC012 09/08 A2933 1580 93 1300 350/05 RMK AO2
14926KSTC STC20060331081511303/31/06 08:15:31  5-MIN KSTC 311415Z 34004KT 2 1/2SM BR OVC012 09/08 A2933 1580 93 1300 340/04 RMK AO2 SFC VIS 3
14926KSTC STC20060331082009903/31/06 08:20:31  5-MIN KSTC 311420Z 34004KT 4SM BR OVC012 09/08 A2933 1570 93 1300 340/04 RMK AO2
14926KSTC STC20060331082509903/31/06 08:25:31  5-MIN KSTC 311425Z 35004KT 5SM BR OVC012 10/08 A2933 1570 89 1400 350/04 RMK AO2
14926KSTC STC20060331083010603/31/06 08:30:31  5-MIN KSTC 311430Z 34005KT 6SM BR FEW005 OVC014 10/09 A2933 1570 93 1400 340/05 RMK AO2
14926KSTC STC20060331083510303/31/06 08:35:31  5-MIN KSTC 311435Z 33004KT 7SM FEW009 OVC016 10/09 A2934 1570 93 1400 330/04 RMK AO2
14926KSTC STC20060331084010603/31/06 08:40:31  5-MIN KSTC 311440Z 32005KT 6SM BR FEW009 OVC014 10/09 A2934 1570 93 1400 320/05 RMK AO2
14926KSTC STC20060331084510603/31/06 08:45:31  5-MIN KSTC 311445Z 32005KT 6SM BR FEW009 OVC014 10/08 A2934 1560 89 1400 320/05 RMK AO2
14926KSTC STC20060331085011303/31/06 08:50:31  5-MIN KSTC 311450Z 36004KT 6SM BR FEW005 SCT011 OVC016 10/08 A2935 1560 89 1400 350/04 RMK AO2
14926KSTC STC20060331085509903/31/06 08:55:31  5-MIN KSTC 311455Z 33004KT 6SM BR OVC013 10/08 A2935 1560 89 1400 330/04 RMK AO2
14926KSTC STC20060331090010303/31/06 09:00:31  5-MIN KSTC 311500Z 32005KT 7SM BKN011 OVC016 10/08 A2935 1560 89 1400 320/05 RMK AO2
14926KSTC STC20060331090509603/31/06 09:05:31  5-MIN KSTC 311505Z 33005KT 7SM OVC013 10/08 A2935 1550 89 1400 320/05 RMK AO2
14926KSTC STC20060331091010303/31/06 09:10:31  5-MIN KSTC 311510Z 34004KT 7SM BKN011 OVC016 10/08 A2936 1550 89 1400 340/04 RMK AO2
14926KSTC STC20060331091509603/31/06 09:15:31  5-MIN KSTC 311515Z 33005KT 7SM OVC011 10/08 A2936 1550 89 1400 320/05 RMK AO2
14926KSTC STC20060331092009603/31/06 09:20:31  5-MIN KSTC 311520Z 32006KT 7SM OVC011 10/08 A2936 1550 89 1400 320/06 RMK AO2
14926KSTC STC20060331092509903/31/06 09:25:31  5-MIN KSTC 311525Z 33007KT 6SM BR OVC011 10/08 A2937 1540 89 1400 320/07 RMK AO2
14926KSTC STC20060331093009903/31/06 09:30:31  5-MIN KSTC 311530Z 32007KT 5SM BR OVC011 10/08 A2937 1540 89 1300 320/07 RMK AO2
14926KSTC STC20060331093511103/31/06 09:35:31  5-MIN KSTC 311535Z 31008KT 5SM BR OVC011 10/08 A2937 1540 89 1300 310/08 RMK AO2 CIG 006V013
14926KSTC STC20060331094011803/31/06 09:40:31  5-MIN KSTC 311540Z 32009KT 4SM BR BKN008 OVC011 10/08 A2937 1540 89 1300 310/09 RMK AO2 CIG 005V011
14926KSTC STC20060331094513203/31/06 09:45:31  5-MIN KSTC 311545Z 31009KT 2 1/2SM BR BKN006 OVC011 10/09 A2937 1540 93 1300 310/09 RMK AO2 SFC VIS 4 CIG 005V008
14926KSTC STC20060331095014903/31/06 09:50:31  5-MIN KSTC 311550Z 31008KT 2 1/2SM BR BKN006 OVC010 10/09 A2938 1530 93 1300 310/08 RMK AO2 SFC VIS 3 CIG 005V008 SLP958 T01000089
14926KSTC STC20060331095512503/31/06 09:55:31  5-MIN KSTC 311555Z 31009KT 1SM BR OVC008 10/09 A2938 1530 93 1300 310/09 RMK AO2 SFC VIS 2 1/2 CIG 004V011
14926KSTC STC20060331100012503/31/06 10:00:31  5-MIN KSTC 311600Z 32008KT 1SM BR OVC006 09/08 A2938 1530 93 1300 310/08 RMK AO2 SFC VIS 2 1/2 CIG 003V008
14926KSTC STC20060331100512103/31/06 10:05:31  5-MIN KSTC 311605Z 31008KT 1SM BR OVC006 09/08 A2938 1530 93 1300 310/08 RMK AO2 SFC VIS 2 CIG 003V010
14926KSTC STC20060331101010903/31/06 10:10:31  5-MIN KSTC 311610Z 31009KT 1SM BR OVC004 09/08 A2939 1520 93 1300 310/09 RMK AO2 SFC VIS 2
14926KSTC STC20060331101514103/31/06 10:15:31  5-MIN KSTC 311615Z 31011KT 1SM -RA BR OVC004 09/08 A2939 1520 93 1300 310/11 RMK AO2 SFC VIS 1 3/4 RAB14 CIG 003V006 P0000
14926KSTC STC20060331102014103/31/06 10:20:31  5-MIN KSTC 311620Z 31011KT 1SM -RA BR OVC004 09/08 A2939 1520 93 1300 310/11 RMK AO2 SFC VIS 1 3/4 RAB14 CIG 003V008 P0000
14926KSTC STC20060331102513103/31/06 10:25:31  5-MIN KSTC 311625Z 31009KT 2 1/2SM -RA BR OVC004 09/08 A2940 1510 93 1200 310/09 RMK AO2 RAB14 CIG 003V006 P0000
14926KSTC STC20060331103011803/31/06 10:30:31  5-MIN KSTC 311630Z 31011KT 2 1/2SM BR OVC004 09/08 A2940 1510 96 1200 310/11 RMK AO2 RAB14E26 P0000
14926KSTC STC20060331103511403/31/06 10:35:31  5-MIN KSTC 311635Z 31008KT 3SM BR OVC004 09/08 A2940 1510 93 1200 310/08 RMK AO2 RAB14E26 P0000
14926KSTC STC20060331104013303/31/06 10:40:31  5-MIN KSTC 311640Z 32010KT 3SM BR BKN004 OVC008 09/08 A2941 1500 96 1200 320/10 RMK AO2 RAB14E26 CIG 003V006 P0000
14926KSTC STC20060331104513303/31/06 10:45:31  5-MIN KSTC 311645Z 32009KT 4SM BR BKN004 OVC008 09/08 A2941 1500 93 1200 320/09 RMK AO2 RAB14E26 CIG 003V006 P0000
14926KSTC STC20060331105013103/31/06 10:50:31  5-MIN KSTC 311650Z 32008KT 5SM BR OVC004 09/08 A2941 1500 93 1200 310/08 RMK AO2 RAB14E26 SLP972 P0000 T00890078
14926KSTC STC20060331105511103/31/06 10:55:31  5-MIN KSTC 311655Z 32007KT 4SM BR OVC004 09/08 A2942 1490 93 1200 310/07 RMK AO2 CIG 003V010
14926KSTC STC20060331110009903/31/06 11:00:31  5-MIN KSTC 311700Z 31009KT 4SM BR OVC004 09/08 A2942 1490 93 1200 310/09 RMK AO2
14926KSTC STC20060331110509903/31/06 11:05:31  5-MIN KSTC 311705Z 31009KT 3SM BR OVC004 09/08 A2942 1490 96 1200 310/09 RMK AO2
14926KSTC STC20060331111009903/31/06 11:10:31  5-MIN KSTC 311710Z 31012KT 4SM BR OVC004 09/08 A2943 1490 93 1200 310/12 RMK AO2
14926KSTC STC20060331111511103/31/06 11:15:31  5-MIN KSTC 311715Z 32011KT 4SM BR OVC004 09/08 A2943 1480 89 1200 310/11 RMK AO2 CIG 004V009
14926KSTC STC20060331112011103/31/06 11:20:31  5-MIN KSTC 311720Z 32013KT 5SM BR OVC006 09/08 A2943 1480 89 1200 310/13 RMK AO2 CIG 004V009
14926KSTC STC20060331112513803/31/06 11:25:31  5-MIN KSTC 311725Z 32011KT 2 1/2SM -RA BR BKN006 OVC010 09/08 A2943 1480 89 1200 310/11 RMK AO2 RAB25 CIG 004V007 P0000
14926KSTC STC20060331113014503/31/06 11:30:31  5-MIN KSTC 311730Z 32011KT 1 3/4SM -RA BR BKN006 BKN010 OVC017 09/08 A2943 1480 93 1200 310/11 RMK AO2 RAB25 CIG 004V009 P0000
14926KSTC STC20060331113513803/31/06 11:35:31  5-MIN KSTC 311735Z 32010KT 1 3/4SM -RA BR BKN006 OVC010 09/08 A2943 1480 96 1100 310/10 RMK AO2 RAB25 CIG 004V007 P0001
14926KSTC STC20060331114012203/31/06 11:40:31  5-MIN KSTC 311740Z 32009KT 2SM -RA BR BKN006 OVC010 09/08 A2944 1480 96 1100 320/09 RMK AO2 RAB25 P0001
14926KSTC STC20060331114513703/31/06 11:45:31  5-MIN KSTC 311745Z 33009KT 2 1/2SM BR BKN006 OVC010 09/08 A2944 1470 96 1100 320/09 RMK AO2 RAB25E41 CIG 004V008 P0001
14926KSTC STC20060331115012103/31/06 11:50:31  5-MIN KSTC 311750Z 32009KT 3SM BR BKN004 OVC010 09/08 A2944 1470 96 1100 320/09 RMK AO2 RAB25E41 P0001
14926KSTC STC20060331115511103/31/06 11:55:31  5-MIN KSTC 311755Z 32009KT 3SM BR OVC004 09/08 A2945 1470 96 1100 320/09 RMK AO2 CIG 003V007
14926KSTC STC20060331120011503/31/06 12:00:31  5-MIN KSTC 311800Z 32012KT 2 1/2SM BR OVC004 09/08 A2945 1460 96 1100 320/12 RMK AO2 CIG 003V007
14926KSTC STC20060331120513903/31/06 12:05:31  5-MIN KSTC 311805Z 34015G18KT 2 1/2SM -RA BR BKN004 BKN008 OVC012 09/07 A2945 1460 89 1100 340/15G18 RMK AO2 RAB02 P0000
14926KSTC STC20060331121014003/31/06 12:10:31  5-MIN KSTC 311810Z 34016G19KT 3SM -RA BR BKN004 OVC012 08/07 A2946 1450 93 1000 330/16G19 RMK AO2 RAB02 CIG 003V009 P0000
14926KSTC STC20060331121514003/31/06 12:15:31  5-MIN KSTC 311815Z 34015G21KT 3SM -RA BR BKN004 OVC012 08/07 A2946 1450 93 1000 330/15G21 RMK AO2 RAB02 CIG 003V009 P0000
14926KSTC STC20060331122013403/31/06 12:20:31  5-MIN KSTC 311820Z 34014KT 3SM -RA BR BKN006 OVC012 09/07 A2947 1450 89 1100 330/14 RMK AO2 RAB02 CIG 003V009 P0000
14926KSTC STC20060331122514003/31/06 12:25:31  5-MIN KSTC 311825Z 33017G21KT 3SM -RA BR BKN006 OVC012 09/07 A2947 1450 89 1100 330/17G21 RMK AO2 RAB02 CIG 004V009 P0000
14926KSTC STC20060331123012803/31/06 12:30:31  5-MIN KSTC 311830Z 34017G21KT 3SM -RA BR BKN006 OVC012 08/07 A2947 1440 89 1000 330/17G21 RMK AO2 RAB02 P0000
14926KSTC STC20060331123513403/31/06 12:35:31  5-MIN KSTC 311835Z 33018KT 6SM -RA BR BKN006 OVC012 08/07 A2948 1440 93 1000 330/18 RMK AO2 RAB02 CIG 006V010 P0000
14926KSTC STC20060331124013603/31/06 12:40:31  5-MIN KSTC 311840Z 33015G21KT 10SM BKN009 OVC016 08/06 A2948 1430 89 900 320/15G21 RMK AO2 RAB02E37 CIG 006V013 P0000
14926KSTC STC20060331124513603/31/06 12:45:31  5-MIN KSTC 311845Z 33013G21KT 10SM BKN009 OVC013 08/06 A2949 1430 89 900 330/13G21 RMK AO2 RAB02E37 CIG 006V010 P0000
14926KSTC STC20060331125015203/31/06 12:50:31  5-MIN KSTC 311850Z 34015G22KT 7SM BKN009 OVC013 08/06 A2949 1430 89 900 330/15G22 RMK AO2 RAB02E37 CIG 006V010 SLP998 P0000 T00780061
14926KSTC STC20060331125512303/31/06 12:55:31  5-MIN KSTC 311855Z 33015G22KT 4SM BR BKN009 OVC016 07/06 A2949 1420 93 900 330/15G22 RMK AO2 CIG 006V011
14926KSTC STC20060331130014503/31/06 13:00:31  5-MIN KSTC 311900Z 33013G20KT 2 1/2SM -RA BR BKN009 OVC017 07/06 A2950 1420 89 900 330/13G20 RMK AO2 RAB1856 CIG 006V015 P0000
14926KSTC STC20060331130512903/31/06 13:05:31  5-MIN KSTC 311905Z 34016G20KT 3SM -RA BR BKN011 OVC017 07/06 A2950 1410 89 900 330/16G20 RMK AO2 RAB1856 P0000
14926KSTC STC20060331131013803/31/06 13:10:31  5-MIN KSTC 311910Z 33012G20KT 7SM -RA BKN011 OVC015 07/05 A2951 1410 86 900 330/12G20 RMK AO2 RAB1856 CIG 008V012 P0000
14926KSTC STC20060331131513803/31/06 13:15:31  5-MIN KSTC 311915Z 33013G20KT 8SM -RA BKN010 OVC016 07/06 A2951 1410 89 900 330/13G20 RMK AO2 RAB1856 CIG 008V012 P0000
14926KSTC STC20060331132011903/31/06 13:20:31  5-MIN KSTC 311920Z 33011G20KT 8SM -RA OVC012 07/05 A2951 1410 86 800 330/11G20 RMK AO2 RAB1856 P0000
14926KSTC STC20060331132512603/31/06 13:25:31  5-MIN KSTC 311925Z 33013G18KT 10SM BKN010 OVC015 07/05 A2952 1400 86 800 330/13G18 RMK AO2 RAB1856E24 P0000
14926KSTC STC20060331133013103/31/06 13:30:31  5-MIN KSTC 311930Z 32017G21KT 10SM OVC010 07/05 A2952 1400 86 800 320/17G21 RMK AO2 RAB1856E24 CIG 009V014 P0000
14926KSTC STC20060331133513103/31/06 13:35:31  5-MIN KSTC 311935Z 33012G21KT 10SM OVC010 07/05 A2953 1390 86 800 330/12G21 RMK AO2 RAB1856E24 CIG 009V015 P0000
14926KSTC STC20060331134013103/31/06 13:40:31  5-MIN KSTC 311940Z 32017G23KT 10SM OVC010 07/05 A2953 1390 86 800 320/17G23 RMK AO2 RAB1856E24 CIG 009V014 P0000
14926KSTC STC20060331134512603/31/06 13:45:31  5-MIN KSTC 311945Z 33016G24KT 10SM BKN010 OVC018 07/04 A2954 1380 86 800 320/16G24 RMK AO2 RAB1856E24 P0000
14926KSTC STC20060331135014003/31/06 13:50:31  5-MIN KSTC 311950Z 32015G24KT 10SM SCT010 BKN015 OVC020 07/04 A2954 1380 86 700 320/15G24 RMK AO2 RAB1856E24 PRESRR P0000
14926KSTC STC20060331135510903/31/06 13:55:31  5-MIN KSTC 311955Z 32016G23KT 10SM SCT011 OVC016 07/04 A2955 1370 82 700 320/16G23 RMK AO2
14926KSTC STC20060331140011603/31/06 14:00:31  5-MIN KSTC 312000Z 33015G22KT 10SM BKN015 OVC020 07/04 A2955 1370 82 700 320/15G22 RMK AO2 PRESRR
14926KSTC STC20060331140510303/31/06 14:05:31  5-MIN KSTC 312005Z 32015KT 10SM BKN015 OVC020 07/04 A2956 1360 82 700 320/15 RMK AO2
14926KSTC STC20060331141010203/31/06 14:10:31  5-MIN KSTC 312010Z 32018G24KT 10SM OVC015 07/04 A2956 1360 86 700 320/18G24 RMK AO2
14926KSTC STC20060331141510903/31/06 14:15:31  5-MIN KSTC 312015Z 32016G24KT 10SM OVC015 07/04 A2957 1350 82 700 320/16G24 RMK AO2 PRESRR
14926KSTC STC20060331142010903/31/06 14:20:31  5-MIN KSTC 312020Z 32018G23KT 10SM OVC015 07/04 A2958 1350 86 700 320/18G23 RMK AO2 PRESRR
14926KSTC STC20060331142510203/31/06 14:25:31  5-MIN KSTC 312025Z 32021G25KT 10SM OVC015 07/04 A2958 1340 82 700 320/21G25 RMK AO2
14926KSTC STC20060331143010203/31/06 14:30:31  5-MIN KSTC 312030Z 32020G25KT 10SM OVC015 07/04 A2959 1340 82 700 310/20G25 RMK AO2
14926KSTC STC20060331143510203/31/06 14:35:31  5-MIN KSTC 312035Z 32020G25KT 10SM OVC015 07/04 A2959 1330 82 700 320/20G25 RMK AO2
14926KSTC STC20060331144010903/31/06 14:40:31  5-MIN KSTC 312040Z 32017G25KT 10SM OVC015 07/03 A2960 1330 79 700 320/17G25 RMK AO2 PRESRR
14926KSTC STC20060331144510203/31/06 14:45:31  5-MIN KSTC 312045Z 32017G25KT 10SM OVC015 07/04 A2960 1320 82 700 310/17G25 RMK AO2
14926KSTC STC20060331145013103/31/06 14:50:31  5-MIN KSTC 312050Z 32018G25KT 10SM OVC015 07/03 A2961 1320 79 700 320/18G25 RMK AO2 SLP038 60000 T00670033 51031
14926KSTC STC20060331145510203/31/06 14:55:31  5-MIN KSTC 312055Z 33014G21KT 10SM OVC015 07/03 A2961 1310 79 700 320/14G21 RMK AO2
14926KSTC STC20060331150010203/31/06 15:00:31  5-MIN KSTC 312100Z 33017G20KT 10SM OVC015 07/03 A2962 1310 79 700 320/17G20 RMK AO2
14926KSTC STC20060331150510203/31/06 15:05:31  5-MIN KSTC 312105Z 32015G20KT 10SM OVC015 07/04 A2962 1300 82 700 310/15G20 RMK AO2
14926KSTC STC20060331151010203/31/06 15:10:31  5-MIN KSTC 312110Z 32015G22KT 10SM OVC015 06/03 A2963 1300 82 600 320/15G22 RMK AO2
14926KSTC STC20060331151510203/31/06 15:15:31  5-MIN KSTC 312115Z 33017G25KT 10SM OVC015 06/03 A2963 1300 82 600 320/17G25 RMK AO2
14926KSTC STC20060331152010203/31/06 15:20:31  5-MIN KSTC 312120Z 33019G25KT 10SM OVC015 06/03 A2963 1290 82 600 320/19G25 RMK AO2
14926KSTC STC20060331152510203/31/06 15:25:31  5-MIN KSTC 312125Z 33017G24KT 10SM OVC015 06/03 A2964 1290 82 600 320/17G24 RMK AO2
14926KSTC STC20060331153010703/31/06 15:30:31  5-MIN KSTC 312130Z AUTO 33019G24KT 10SM OVC017 06/03 A2964 1280 82 600 330/19G24 RMK AO2
14926KSTC STC20060331153510703/31/06 15:35:31  5-MIN KSTC 312135Z AUTO 33016G24KT 10SM OVC018 06/03 A2965 1280 82 600 330/16G24 RMK AO2
14926KSTC STC20060331154010703/31/06 15:40:31  5-MIN KSTC 312140Z AUTO 33014G21KT 10SM OVC018 06/03 A2965 1270 82 500 330/14G21 RMK AO2
14926KSTC STC20060331154510703/31/06 15:45:31  5-MIN KSTC 312145Z AUTO 33017G22KT 10SM OVC018 06/03 A2966 1270 82 500 330/17G22 RMK AO2
14926KSTC STC20060331155011903/31/06 15:50:31  5-MIN KSTC 312150Z 33017G22KT 10SM OVC018 06/03 A2966 1270 82 500 330/17G22 RMK AO2 SLP057 T00610033
14926KSTC STC20060331155510203/31/06 15:55:31  5-MIN KSTC 312155Z 32014G22KT 10SM OVC018 06/03 A2967 1260 82 500 320/14G22 RMK AO2
14926KSTC STC20060331160010203/31/06 16:00:31  5-MIN KSTC 312200Z 32016G20KT 10SM OVC018 06/03 A2967 1260 82 500 320/16G20 RMK AO2
14926KSTC STC20060331160510203/31/06 16:05:31  5-MIN KSTC 312205Z 33015G21KT 10SM OVC018 06/03 A2967 1250 82 500 330/15G21 RMK AO2
14926KSTC STC20060331161010203/31/06 16:10:31  5-MIN KSTC 312210Z 33017G24KT 10SM OVC016 06/03 A2968 1250 82 500 330/17G24 RMK AO2
14926KSTC STC20060331161510203/31/06 16:15:31  5-MIN KSTC 312215Z 33014G24KT 10SM OVC016 06/03 A2968 1250 82 500 330/14G24 RMK AO2
14926KSTC STC20060331162010203/31/06 16:20:31  5-MIN KSTC 312220Z 33013G23KT 10SM OVC016 06/03 A2968 1250 85 400 330/13G23 RMK AO2
14926KSTC STC20060331162509603/31/06 16:25:31  5-MIN KSTC 312225Z 33012KT 10SM OVC014 06/03 A2969 1240 85 400 330/12 RMK AO2
14926KSTC STC20060331163010303/31/06 16:30:31  5-MIN KSTC 312230Z 33013KT 10SM BKN012 OVC017 06/03 A2969 1240 85 400 330/13 RMK AO2
14926KSTC STC20060331163510203/31/06 16:35:31  5-MIN KSTC 312235Z 33015G20KT 10SM OVC014 06/03 A2970 1230 85 400 330/15G20 RMK AO2
14926KSTC STC20060331164010203/31/06 16:40:31  5-MIN KSTC 312240Z 33012G20KT 10SM OVC014 06/03 A2970 1230 85 400 330/12G20 RMK AO2
14926KSTC STC20060331164510203/31/06 16:45:31  5-MIN KSTC 312245Z 34016G21KT 10SM OVC014 06/03 A2971 1220 85 400 330/16G21 RMK AO2
14926KSTC STC20060331165011903/31/06 16:50:31  5-MIN KSTC 312250Z 33011G21KT 10SM OVC014 06/03 A2971 1220 85 400 330/11G21 RMK AO2 SLP076 T00560033
14926KSTC STC20060331165510203/31/06 16:55:31  5-MIN KSTC 312255Z 32015G19KT 10SM OVC014 06/03 A2972 1220 82 400 320/15G19 RMK AO2
14926KSTC STC20060331170010203/31/06 17:00:31  5-MIN KSTC 312300Z 33015G21KT 10SM OVC014 05/03 A2972 1210 85 300 330/15G21 RMK AO2
14926KSTC STC20060331170510203/31/06 17:05:31  5-MIN KSTC 312305Z 32016G21KT 10SM OVC012 05/03 A2972 1210 85 300 320/16G21 RMK AO2
14926KSTC STC20060331171010203/31/06 17:10:31  5-MIN KSTC 312310Z 32014G20KT 10SM OVC012 05/03 A2973 1200 85 300 320/14G20 RMK AO2
14926KSTC STC20060331171510203/31/06 17:15:31  5-MIN KSTC 312315Z 32015G20KT 10SM OVC012 05/03 A2974 1200 85 300 320/15G20 RMK AO2
14926KSTC STC20060331172010203/31/06 17:20:31  5-MIN KSTC 312320Z 33013G20KT 10SM OVC012 05/03 A2974 1190 85 300 330/13G20 RMK AO2
14926KSTC STC20060331172510903/31/06 17:25:31  5-MIN KSTC 312325Z 32010G19KT 10SM BKN012 OVC020 05/03 A2974 1190 85 300 320/10G19 RMK AO2
14926KSTC STC20060331173010203/31/06 17:30:31  5-MIN KSTC 312330Z 33016G24KT 10SM OVC012 05/02 A2975 1190 82 300 320/16G24 RMK AO2
14926KSTC STC20060331173510203/31/06 17:35:31  5-MIN KSTC 312335Z 33013G24KT 10SM OVC012 05/02 A2975 1180 82 300 330/13G24 RMK AO2
14926KSTC STC20060331174010203/31/06 17:40:31  5-MIN KSTC 312340Z 34011G24KT 10SM OVC014 05/02 A2976 1180 82 300 330/11G24 RMK AO2
14926KSTC STC20060331174510203/31/06 17:45:31  5-MIN KSTC 312345Z 33015G20KT 10SM OVC014 05/02 A2976 1180 82 300 330/15G20 RMK AO2
14926KSTC STC20060331175014303/31/06 17:50:31  5-MIN KSTC 312350Z 33021G24KT 10SM OVC014 05/02 A2976 1170 79 300 330/21G24 RMK AO2 SLP093 60000 T00500017 10089 20050 53054
14926KSTC STC20060331175510203/31/06 17:55:31  5-MIN KSTC 312355Z 34014G24KT 10SM OVC016 05/02 A2977 1170 79 300 340/14G24 RMK AO2
14926KSTC STC20060331180010203/31/06 18:00:31  5-MIN KSTC 010000Z 34013G22KT 10SM OVC018 05/02 A2978 1160 79 300 340/13G22 RMK AO2
14926KSTC STC20060331180510203/31/06 18:05:31  5-MIN KSTC 010005Z 33012G22KT 10SM OVC018 05/02 A2978 1160 79 300 330/12G22 RMK AO2
14926KSTC STC20060331181010203/31/06 18:10:31  5-MIN KSTC 010010Z 35016G19KT 10SM OVC018 05/02 A2978 1160 79 300 350/16G19 RMK AO2
14926KSTC STC20060331181510203/31/06 18:15:31  5-MIN KSTC 010015Z 34015G21KT 10SM OVC018 05/02 A2979 1150 79 300 340/15G21 RMK AO2
14926KSTC STC20060331182010203/31/06 18:20:31  5-MIN KSTC 010020Z 32014G21KT 10SM OVC018 05/02 A2979 1140 79 300 320/14G21 RMK AO2
14926KSTC STC20060331182510903/31/06 18:25:31  5-MIN KSTC 010025Z 33013G19KT 10SM OVC018 05/02 A2980 1140 79 200 330/13G19 RMK AO2 PRESRR
14926KSTC STC20060331183010203/31/06 18:30:31  5-MIN KSTC 010030Z 32014G20KT 10SM OVC016 04/02 A2980 1130 82 200 310/14G20 RMK AO2
14926KSTC STC20060331183510203/31/06 18:35:31  5-MIN KSTC 010035Z 32015G21KT 10SM OVC016 04/02 A2981 1130 82 200 320/15G21 RMK AO2
14926KSTC STC20060331184010203/31/06 18:40:31  5-MIN KSTC 010040Z 33012G21KT 10SM OVC016 04/02 A2981 1130 82 200 330/12G21 RMK AO2
14926KSTC STC20060331184510203/31/06 18:45:31  5-MIN KSTC 010045Z 33011G18KT 10SM OVC016 04/02 A2981 1130 82 200 320/11G18 RMK AO2
14926KSTC STC20060331185011903/31/06 18:50:31  5-MIN KSTC 010050Z 33012G18KT 10SM OVC016 04/02 A2981 1130 82 200 330/12G18 RMK AO2 SLP110 T00440017
14926KSTC STC20060331185510203/31/06 18:55:31  5-MIN KSTC 010055Z 33013G18KT 10SM OVC016 04/02 A2982 1120 82 200 330/13G18 RMK AO2
14926KSTC STC20060331190010203/31/06 19:00:31  5-MIN KSTC 010100Z 34011G18KT 10SM OVC016 04/02 A2982 1120 82 200 340/11G18 RMK AO2
14926KSTC STC20060331190509603/31/06 19:05:31  5-MIN KSTC 010105Z 34012KT 10SM OVC016 04/02 A2982 1120 82 200 330/12 RMK AO2
14926KSTC STC20060331191009603/31/06 19:10:31  5-MIN KSTC 010110Z 34013KT 10SM OVC016 04/01 A2982 1120 79 200 330/13 RMK AO2
14926KSTC STC20060331191509603/31/06 19:15:31  5-MIN KSTC 010115Z 34010KT 10SM OVC016 04/01 A2982 1120 79 100 330/10 RMK AO2
14926KSTC STC20060331192009603/31/06 19:20:31  5-MIN KSTC 010120Z 33010KT 10SM OVC016 04/02 A2983 1110 85 100 330/10 RMK AO2
14926KSTC STC20060331192510203/31/06 19:25:31  5-MIN KSTC 010125Z 34014G20KT 10SM OVC016 04/02 A2983 1110 85 100 330/14G20 RMK AO2
14926KSTC STC20060331193010203/31/06 19:30:31  5-MIN KSTC 010130Z 34015G22KT 10SM OVC016 04/01 A2984 1100 79 100 340/15G22 RMK AO2
14926KSTC STC20060331193510203/31/06 19:35:31  5-MIN KSTC 010135Z 34015G22KT 10SM OVC016 04/01 A2984 1100 79 100 340/15G22 RMK AO2
14926KSTC STC20060331194009603/31/06 19:40:31  5-MIN KSTC 010140Z 34012KT 10SM OVC018 04/01 A2985 1100 79 100 340/12 RMK AO2
14926KSTC STC20060331194509403/31/06 19:45:31  5-MIN KSTC 010145Z 33010KT 10SM OVC018 04/01 A2985 1090 82 0 330/10 RMK AO2
14926KSTC STC20060331195011103/31/06 19:50:31  5-MIN KSTC 010150Z 34011KT 10SM OVC018 04/01 A2985 1090 82 0 330/11 RMK AO2 SLP124 T00390011
14926KSTC STC20060331195510003/31/06 19:55:31  5-MIN KSTC 010155Z 33011G18KT 10SM OVC018 04/01 A2986 1090 82 0 330/11G18 RMK AO2
14926KSTC STC20060331200010003/31/06 20:00:31  5-MIN KSTC 010200Z 33012G18KT 10SM OVC020 04/01 A2986 1080 79 0 330/12G18 RMK AO2
14926KSTC STC20060331200509403/31/06 20:05:31  5-MIN KSTC 010205Z 33011KT 10SM OVC020 04/01 A2987 1080 79 0 330/11 RMK AO2
14926KSTC STC20060331201009403/31/06 20:10:31  5-MIN KSTC 010210Z 33011KT 10SM OVC020 04/01 A2987 1070 79 0 330/11 RMK AO2
14926KSTC STC20060331201509403/31/06 20:15:31  5-MIN KSTC 010215Z 33011KT 10SM OVC020 04/01 A2987 1070 79 0 320/11 RMK AO2
14926KSTC STC20060331202009403/31/06 20:20:31  5-MIN KSTC 010220Z 34009KT 10SM OVC020 04/01 A2988 1070 79 0 330/09 RMK AO2
14926KSTC STC20060331202509403/31/06 20:25:31  5-MIN KSTC 010225Z 33012KT 10SM OVC020 04/01 A2988 1060 79 0 330/12 RMK AO2
14926KSTC STC20060331203009403/31/06 20:30:31  5-MIN KSTC 010230Z 32010KT 10SM OVC020 04/01 A2989 1060 79 0 320/10 RMK AO2
14926KSTC STC20060331203509403/31/06 20:35:31  5-MIN KSTC 010235Z 32008KT 10SM OVC020 04/01 A2989 1050 79 0 320/08 RMK AO2
14926KSTC STC20060331204009403/31/06 20:40:31  5-MIN KSTC 010240Z 32011KT 10SM OVC020 04/01 A2989 1050 79 0 320/11 RMK AO2
14926KSTC STC20060331204510003/31/06 20:45:31  5-MIN KSTC 010245Z 33011G18KT 10SM OVC020 04/01 A2990 1050 79 0 320/11G18 RMK AO2
14926KSTC STC20060331205012303/31/06 20:50:31  5-MIN KSTC 010250Z 33011G18KT 10SM OVC020 04/01 A2990 1050 79 0 330/11G18 RMK AO2 SLP138 T00390006 51052
14926KSTC STC20060331205509403/31/06 20:55:31  5-MIN KSTC 010255Z 33007KT 10SM OVC018 04/01 A2990 1050 79 0 330/07 RMK AO2
14926KSTC STC20060331210009403/31/06 21:00:31  5-MIN KSTC 010300Z 33009KT 10SM OVC018 04/01 A2991 1040 79 0 320/09 RMK AO2
14926KSTC STC20060331210509403/31/06 21:05:31  5-MIN KSTC 010305Z 33010KT 10SM OVC018 04/01 A2991 1030 79 0 330/10 RMK AO2
14926KSTC STC20060331211010703/31/06 21:10:31  5-MIN KSTC 010310Z 32011G18KT 10SM OVC018 04/01 A2992 1020 79 0 320/11G18 RMK AO2 PRESRR
14926KSTC STC20060331211510003/31/06 21:15:31  5-MIN KSTC 010315Z 32010G18KT 10SM OVC016 04/01 A2992 1020 82 0 310/10G18 RMK AO2
14926KSTC STC20060331212009403/31/06 21:20:31  5-MIN KSTC 010320Z 32011KT 10SM OVC016 04/01 A2992 1020 82 0 310/11 RMK AO2
14926KSTC STC20060331212509403/31/06 21:25:31  5-MIN KSTC 010325Z 32010KT 10SM OVC016 04/01 A2992 1020 79 0 320/10 RMK AO2
14926KSTC STC20060331213009403/31/06 21:30:31  5-MIN KSTC 010330Z 32010KT 10SM OVC016 04/01 A2993 1020 79 0 320/10 RMK AO2
14926KSTC STC20060331213509403/31/06 21:35:31  5-MIN KSTC 010335Z 32011KT 10SM OVC016 04/01 A2993 1020 79 0 320/11 RMK AO2
14926KSTC STC20060331214009703/31/06 21:40:31  5-MIN KSTC 010340Z 32011KT 10SM OVC016 03/01 A2993 1020 85 -100 320/11 RMK AO2
14926KSTC STC20060331214509703/31/06 21:45:31  5-MIN KSTC 010345Z 32011KT 10SM OVC014 03/01 A2993 1010 82 -100 320/11 RMK AO2
14926KSTC STC20060331215011403/31/06 21:50:31  5-MIN KSTC 010350Z 32010KT 10SM OVC014 03/01 A2994 1010 85 -100 320/10 RMK AO2 SLP152 T00330011
14926KSTC STC20060331215509703/31/06 21:55:31  5-MIN KSTC 010355Z 32011KT 10SM OVC014 03/01 A2994 1010 85 -100 320/11 RMK AO2
14926KSTC STC20060331220009703/31/06 22:00:31  5-MIN KSTC 010400Z 32009KT 10SM OVC014 03/01 A2994 1010 85 -100 320/09 RMK AO2
14926KSTC STC20060331220509703/31/06 22:05:31  5-MIN KSTC 010405Z 33008KT 10SM OVC014 03/01 A2994 1010 85 -100 320/08 RMK AO2
14926KSTC STC20060331221009703/31/06 22:10:31  5-MIN KSTC 010410Z 32010KT 10SM OVC014 03/01 A2994 1010 85 -100 320/10 RMK AO2
14926KSTC STC20060331221509703/31/06 22:15:31  5-MIN KSTC 010415Z 33010KT 10SM OVC014 03/01 A2995 1000 85 -100 320/10 RMK AO2
14926KSTC STC20060331222009703/31/06 22:20:31  5-MIN KSTC 010420Z 32011KT 10SM OVC014 03/01 A2995 1000 85 -100 320/11 RMK AO2
14926KSTC STC20060331222509703/31/06 22:25:31  5-MIN KSTC 010425Z 33010KT 10SM OVC014 03/01 A2995 1000 85 -100 330/10 RMK AO2
14926KSTC STC20060331223009703/31/06 22:30:31  5-MIN KSTC 010430Z 33009KT 10SM OVC014 03/01 A2995 1000 85 -100 330/09 RMK AO2
14926KSTC STC20060331223509703/31/06 22:35:31  5-MIN KSTC 010435Z 33008KT 10SM OVC014 03/01 A2995 1000 85 -100 330/08 RMK AO2
14926KSTC STC20060331224009603/31/06 22:40:31  5-MIN KSTC 010440Z 33010KT 10SM OVC014 03/01 A2996 990 85 -100 330/10 RMK AO2
14926KSTC STC20060331224509603/31/06 22:45:31  5-MIN KSTC 010445Z 33009KT 10SM OVC014 03/01 A2996 990 85 -100 330/09 RMK AO2
14926KSTC STC20060331225011303/31/06 22:50:31  5-MIN KSTC 010450Z 34011KT 10SM OVC014 03/01 A2996 990 82 -100 330/11 RMK AO2 SLP162 T00330006
14926KSTC STC20060331225509603/31/06 22:55:31  5-MIN KSTC 010455Z 33008KT 10SM OVC014 03/01 A2996 990 82 -100 330/08 RMK AO2
14926KSTC STC20060331230010103/31/06 23:00:31  5-MIN KSTC 010500Z AUTO 33008KT 10SM OVC014 03/01 A2997 980 82 -100 330/08 RMK AO2
14926KSTC STC20060331230510703/31/06 23:05:31  5-MIN KSTC 010505Z AUTO 34013G17KT 10SM OVC014 03/01 A2997 980 82 -100 330/13G17 RMK AO2
14926KSTC STC20060331231010703/31/06 23:10:31  5-MIN KSTC 010510Z AUTO 33011G17KT 10SM OVC014 03/01 A2997 980 82 -100 330/11G17 RMK AO2
14926KSTC STC20060331231510103/31/06 23:15:31  5-MIN KSTC 010515Z AUTO 34010KT 10SM OVC014 03/01 A2996 990 82 -100 340/10 RMK AO2
14926KSTC STC20060331232010103/31/06 23:20:31  5-MIN KSTC 010520Z AUTO 34011KT 10SM OVC014 03/01 A2997 980 82 -100 340/11 RMK AO2
14926KSTC STC20060331232510103/31/06 23:25:31  5-MIN KSTC 010525Z AUTO 34007KT 10SM OVC014 03/01 A2997 980 82 -100 340/07 RMK AO2
14926KSTC STC20060331233010103/31/06 23:30:31  5-MIN KSTC 010530Z AUTO 34010KT 10SM OVC014 03/01 A2997 980 82 -100 340/10 RMK AO2
14926KSTC STC20060331233510103/31/06 23:35:31  5-MIN KSTC 010535Z AUTO 34011KT 10SM OVC014 03/01 A2997 980 82 -100 340/11 RMK AO2
14926KSTC STC20060331234010103/31/06 23:40:31  5-MIN KSTC 010540Z AUTO 34009KT 10SM OVC014 03/01 A2997 980 82 -100 330/09 RMK AO2
14926KSTC STC20060331234510103/31/06 23:45:31  5-MIN KSTC 010545Z AUTO 34009KT 10SM OVC014 03/01 A2998 970 82 -100 340/09 RMK AO2
14926KSTC STC20060331235014603/31/06 23:50:31  5-MIN KSTC 010550Z AUTO 34010KT 10SM OVC014 03/01 A2998 970 82 -100 340/10 RMK AO2 SLP169 T00330006 10050 20033 401170033 51042
14926KSTC STC20060331235510103/31/06 23:55:31  5-MIN KSTC 010555Z AUTO 35014KT 10SM OVC014 03/01 A2998 970 82 -100 340/14 RMK AO2
